Platform Id,Date,Time (UTC),Report Type,Wind Condition,Wind Direction,Wind Speed (Knots),Wind Gust Speed,Peak Wind (Knots),Visibility (M),Weather,Air Temp (C),Dew Point (C),Altimeter (inHg),SLP (Millibars),Present Automated 1,Present Automated 2,Present Automated 3,Present Manual 1,Present Manual 2,Present Manual 3,Present Manual 4,Present Manual 5,Present Manual 6,Present Manual 7,Precip Hr1,Precip Hr3,Precip Hr6,Precip Hr24,Cloud Cover,Cloud Ceiling (Feet),Lowest Cloud Base Height (Feet),Cloud Cover1,Cloudbase 1,Cloud Cover2,Cloudbase 2,Cloud Cover3,Cloudbase 3,Cloud Cover4,Cloudbase 4
KRDR,12-22-2001,23:00,METAR,,350,33.0,40.0,350/41KTS,100.0,Light Snow/Blowing Snow/Cloud Development Not Observable,-10.0,-10.0,29.76,1009.9,,,,71,38,0,,,,,,,,,8/8 Overcast,500.0,,BKN,500.0,OVC,1800.0,,,,
KRDR,12-22-2001,22:35,SPECI,,350,34.0,38.0,,100.0,Light Snow/Blowing Snow/Cloud Development Not Observable,-10.0,-10.0,29.75,,,,,71,38,0,,,,,,,,,8/8 Overcast,500.0,,BKN,500.0,OVC,1000.0,,,,
KRDR,12-22-2001,22:00,METAR,,350,33.0,41.0,,100.0,Light Snow/Blowing Snow/Cloud Development Not Observable,-8.0,-8.0,29.71,1007.9,,,,71,38,0,,,,,,,,,8/8 Overcast,900.0,,BKN,900.0,OVC,1500.0,,,,
KRDR,12-22-2001,21:32,SPECI,,350,34.0,,,100.0,Light Snow/Blowing Snow/Cloud Development Not Observable,-8.0,-8.0,29.70,,,,,71,38,0,,,,,,,,,8/8 Overcast,900.0,,OVC,900.0,,,,,,
KRDR,12-22-2001,21:00,METAR,,350,33.0,39.0,,600.0,Light Snow/Blowing Snow/Cloud Development Not Observable,-7.0,-7.0,29.68,1007.1,,,,71,38,0,,,,,,,,,8/8 Overcast,1400.0,,OVC,1400.0,,,,,,
KRDR,12-22-2001,20:08,SPECI,,350,28.0,37.0,,600.0,Light Snow/Blowing Snow/Cloud Development Not Observable,-6.0,-6.0,29.65,,,,,71,38,0,,,,,,,,,8/8 Overcast,1400.0,,SCT,800.0,OVC,1400.0,,,,
KRDR,12-22-2001,20:00,METAR,,350,27.0,35.0,360/38KTS,1200.0,Light Snow/Blowing Snow/Cloud Development Not Observable,-6.0,-6.0,29.63,1005.3,,,,71,38,0,,,,,,,,,8/8 Overcast,1400.0,,SCT,800.0,OVC,1400.0,,,,
KRDR,12-22-2001,19:00,METAR,,360,25.0,37.0,,400.0,Light Snow/Blowing Snow/Cloud Development Not Observable,-6.0,-6.0,29.62,1004.7,,,,71,38,0,,,,,,,,,8/8 Overcast,800.0,,OVC,800.0,,,,,,
KRDR,12-22-2001,18:47,SPECI,,350,29.0,35.0,,400.0,Light Snow/Blowing Snow/Cloud Development Not Observable,-5.0,-5.0,29.61,,,,,71,38,0,,,,,,,,,8/8 Overcast,800.0,,OVC,800.0,,,,,,
KRDR,12-22-2001,18:18,SPECI,,350,28.0,34.0,,800.0,Light Snow/Blowing Snow/Cloud Development Not Observable,-5.0,-5.0,29.61,,,,,71,38,0,,,,,,,,,8/8 Overcast,800.0,,OVC,800.0,,,,,,
KRDR,12-22-2001,18:00,METAR,,350,24.0,,,1600.0,Light Snow/Blowing Snow/Cloud Development Not Observable,-3.0,-3.0,29.61,1004.2,,,,71,38,0,,,,,,,,,8/8 Overcast,800.0,,OVC,800.0,,,,,,
KRDR,12-22-2001,17:00,METAR,,360,5.0,,,3200.0,Snow Grains/Mist/Cloud Development Not Observable,-4.0,-4.0,29.62,1004.8,,,,77,10,0,,,,,,,,,8/8 Overcast,500.0,,BKN,500.0,OVC,1100.0,,,,
KRDR,12-22-2001,16:00,METAR,,30,5.0,,,4800.0,Snow Grains/Mist/Cloud Development Not Observable,-5.0,-5.0,29.62,1004.8,,,,77,10,0,,,,,,,,,8/8 Overcast,1100.0,,SCT,500.0,OVC,1100.0,,,,
KRDR,12-22-2001,15:35,SPECI,,,5.0,,,8000.0,Snow Grains/Cloud Development Not Observable,-5.0,-5.0,29.62,,,,,77,0,0,,,,,,,,,8/8 Overcast,1100.0,,SCT,500.0,OVC,1100.0,,,,
KRDR,12-22-2001,15:00,METAR,,,3.0,,,9999.0,Cloud Development Not Observable,-5.0,-5.0,29.61,1004.3,,,,0,0,0,,,,,,,,,8/8 Overcast,1500.0,,BKN,1500.0,BKN,3600.0,OVC,15000.0,,
KRDR,12-22-2001,14:00,METAR,,190,5.0,,,9999.0,Cloud Development Not Observable,-5.0,-5.0,29.59,1003.8,,,,0,0,0,,,,,,,,,8/8 Overcast,1200.0,,BKN,1200.0,OVC,3500.0,,,,
KRDR,12-22-2001,13:00,METAR,,260,3.0,,,9999.0,Cloud Development Not Observable,-5.0,-5.0,29.59,1003.7,,,,0,0,0,,,,,,,,,8/8 Overcast,1000.0,,BKN,1000.0,OVC,3000.0,,,,
KRDR,12-22-2001,12:00,METAR,,280,9.0,,,9999.0,Cloud Development Not Observable,-5.0,-5.0,29.60,1004.0,,,,0,0,0,,,,,,,,,8/8 Overcast,1000.0,,OVC,1000.0,,,,,,
KRDR,12-22-2001,11:00,METAR,,270,12.0,,,9999.0,Cloud Development Not Observable,-5.0,-5.0,29.61,1004.3,,,,0,0,0,,,,,,,,,8/8 Overcast,1500.0,,BKN,1500.0,OVC,3000.0,,,,
KRDR,12-22-2001,10:34,SPECI,,270,10.0,,,9999.0,Cloud Development Not Observable,-5.0,-5.0,29.61,,,,,0,0,0,,,,,,,,,8/8 Overcast,1500.0,,BKN,1500.0,OVC,3500.0,,,,
KRDR,12-22-2001,10:00,METAR,,270,10.0,,,9999.0,Cloud Development Not Observable,-4.0,-4.0,29.61,1004.2,,,,0,0,0,,,,,,,,,8/8 Overcast,2500.0,,SCT,1500.0,OVC,2500.0,,,,
KRDR,12-22-2001,09:00,METAR,,270,10.0,,,9999.0,Cloud Development Not Observable,-4.0,-4.0,29.61,1004.4,,,,0,0,0,,,,,,,,,8/8 Overcast,2500.0,,SCT,1500.0,OVC,2500.0,,,,
KRDR,12-22-2001,08:00,METAR,,270,10.0,,,9999.0,Cloud Development Not Observable,-3.0,-3.0,29.61,1004.2,,,,0,0,0,,,,,,,,,8/8 Overcast,2500.0,,BKN,2500.0,OVC,4000.0,,,,
KRDR,12-22-2001,07:00,METAR,,280,10.0,,,9999.0,Cloud Development Not Observable,-3.0,-3.0,29.62,1004.6,,,,0,0,0,,,,,,,,,8/8 Overcast,2500.0,,SCT,1500.0,OVC,2500.0,,,,
KRDR,12-22-2001,06:00,METAR,,170,8.0,,,9999.0,Cloud Development Not Observable,-2.0,-2.0,29.62,1004.8,,,,0,0,0,,,,,,,,,8/8 Overcast,2500.0,,SCT,1500.0,OVC,2500.0,,,,
KRDR,12-22-2001,05:32,SPECI,,180,9.0,,,9999.0,Cloud Development Not Observable,-1.0,-1.0,29.63,,,,,0,0,0,,,,,,,,,7/8 Mostly Cloudy,2500.0,,BKN,2500.0,,,,,,
KRDR,12-22-2001,05:00,METAR,,150,9.0,,,9999.0,Cloud Development Not Observable,-1.0,-1.0,29.63,1005.1,,,,0,0,0,,,,,,,,,8/8 Overcast,3900.0,,OVC,4000.0,,,,,,
KRDR,12-22-2001,04:00,METAR,,130,11.0,,,9999.0,Cloud Development Not Observable,-2.0,-2.0,29.64,1005.4,,,,0,0,0,,,,,,,,,8/8 Overcast,3900.0,,OVC,4000.0,,,,,,
KRDR,12-22-2001,03:00,METAR,,140,10.0,,,9999.0,Cloud Development Not Observable,-2.0,-2.0,29.66,1006.2,,,,0,0,0,,,,,,,,,8/8 Overcast,4400.0,,BKN,4500.0,OVC,6400.0,,,,
KRDR,12-22-2001,02:00,METAR,,140,11.0,,,9999.0,Cloud Development Not Observable,-2.0,-2.0,29.68,1006.9,,,,0,0,0,,,,,,,,,7/8 Mostly Cloudy,20000.0,,SCT,4500.0,BKN,20000.0,,,,
KRDR,12-22-2001,01:00,METAR,,140,9.0,,,9999.0,Cloud Development Not Observable,-3.0,-3.0,29.70,1007.7,,,,0,0,0,,,,,,,,,4/8 Partly Cloudy,72000.0,,SCT,4500.0,SCT,20000.0,,,,
KRDR,12-22-2001,00:00,METAR,,150,10.0,,,9999.0,Cloud Development Not Observable,-3.0,-3.0,29.71,1007.9,,,,0,0,0,,,,,,,,,4/8 Partly Cloudy,72000.0,,FEW,5400.0,SCT,20000.0,,,,
KRDR,12-21-2001,23:00,METAR,,150,14.0,,,9999.0,Cloud Development Not Observable,-1.0,-3.0,29.73,1008.6,,,,0,0,0,,,,,,,,,4/8 Partly Cloudy,72000.0,,FEW,5400.0,SCT,20000.0,,,,
KRDR,12-21-2001,22:00,METAR,,160,21.0,26.0,160/27KTS,9999.0,Cloud Development Not Observable,0.0,-3.0,29.73,1008.6,,,,0,0,0,,,,,,,,,7/8 Mostly Cloudy,20000.0,,FEW,5000.0,BKN,20000.0,,,,
KRDR,12-21-2001,21:00,METAR,,160,19.0,25.0,160/28KTS,9999.0,Cloud Development Not Observable,-1.0,-4.0,29.76,1009.8,,,,0,0,0,,,,,,,,,7/8 Mostly Cloudy,20000.0,,FEW,5900.0,BKN,20000.0,,,,
KRDR,12-21-2001,20:00,METAR,,160,25.0,,150/30KTS,9999.0,Cloud Development Not Observable,-1.0,-5.0,29.80,1011.2,,,,0,0,0,,,,,,,,,7/8 Mostly Cloudy,20000.0,,FEW,9900.0,BKN,20000.0,,,,
KRDR,12-21-2001,19:00,METAR,,150,16.0,,,9999.0,Cloud Development Not Observable,-3.0,-5.0,29.86,1013.4,,,,0,0,0,,,,,,,,,7/8 Mostly Cloudy,20000.0,,FEW,9900.0,BKN,20000.0,,,,
KRDR,12-21-2001,18:00,METAR,,150,19.0,24.0,150/25KTS,9999.0,Cloud Development Not Observable,-4.0,-6.0,29.91,1015.2,,,,0,0,0,,,,,,,,,7/8 Mostly Cloudy,20000.0,,SCT,9900.0,BKN,20000.0,,,,
KRDR,12-21-2001,16:00,METAR,,130,13.0,,,9999.0,Cloud Development Not Observable,-6.0,-6.0,30.00,1018.4,,,,0,0,0,,,,,,,,,7/8 Mostly Cloudy,10000.0,,BKN,9900.0,BKN,20000.0,,,,
KRDR,12-21-2001,15:00,METAR,,160,10.0,,,9999.0,Cloud Development Not Observable,-8.0,-8.0,30.05,1020.3,,,,0,0,0,,,,,,,,,7/8 Mostly Cloudy,10000.0,,BKN,9900.0,BKN,20000.0,,,,
KRDR,12-21-2001,14:00,METAR,,150,11.0,,,9999.0,Cloud Development Not Observable,-9.0,-9.0,30.06,1020.4,,,,0,0,0,,,,,,,,,7/8 Mostly Cloudy,10000.0,,BKN,9900.0,BKN,20000.0,,,,
KRDR,12-21-2001,13:00,METAR,,120,8.0,,,9999.0,Cloud Development Not Observable,-10.0,-10.0,30.08,1020.9,,,,0,0,0,,,,,,,,,7/8 Mostly Cloudy,20000.0,,SCT,11000.0,BKN,20000.0,,,,
KRDR,12-21-2001,12:00,METAR,,150,7.0,,,9999.0,Cloud Development Not Observable,-12.0,-12.0,30.11,1022.2,,,,0,0,0,,,,,,,,,7/8 Mostly Cloudy,20000.0,,SCT,9900.0,BKN,20000.0,,,,
KRDR,12-21-2001,11:00,METAR,,130,7.0,,,9999.0,Cloud Development Not Observable,-13.0,-13.0,30.14,1023.3,,,,0,0,0,,,,,,,,,4/8 Partly Cloudy,72000.0,,FEW,7900.0,SCT,20000.0,,,,
KRDR,12-21-2001,10:00,METAR,,110,4.0,,,9999.0,Cloud Development Not Observable,-13.0,-13.0,30.18,1024.4,,,,0,0,0,,,,,,,,,4/8 Partly Cloudy,72000.0,,FEW,7900.0,SCT,20000.0,,,,
KRDR,12-21-2001,09:00,METAR,,210,4.0,,,9999.0,Cloud Development Not Observable,-15.0,-15.0,30.21,1025.7,,,,0,0,0,,,,,,,,,4/8 Partly Cloudy,72000.0,,FEW,8900.0,SCT,20000.0,,,,
KRDR,12-21-2001,08:00,METAR,,,2.0,,,9999.0,Cloud Development Not Observable,-16.0,-16.0,30.21,1025.7,,,,0,0,0,,,,,,,,,4/8 Partly Cloudy,72000.0,,SCT,20000.0,,,,,,
KRDR,12-21-2001,07:00,METAR,,,3.0,,,9999.0,Cloud Development Not Observable,-15.0,-15.0,30.24,1026.6,,,,0,0,0,,,,,,,,,7/8 Mostly Cloudy,20000.0,,FEW,5900.0,BKN,20000.0,,,,
KRDR,12-21-2001,06:00,METAR,,,2.0,,,9999.0,Cloud Development Not Observable,-16.0,-16.0,30.25,1027.2,,,,0,0,0,,,,,,,,,4/8 Partly Cloudy,72000.0,,FEW,5900.0,SCT,20000.0,,,,
KRDR,12-21-2001,05:00,METAR,,,3.0,,,9999.0,Cloud Development Not Observable,-15.0,-15.0,30.26,1027.4,,,,0,0,0,,,,,,,,,Clear,72000.0,,,73000.0,,,,,,
KRDR,12-21-2001,04:00,METAR,,270,4.0,,,9999.0,Cloud Development Not Observable,-16.0,-16.0,30.28,1028.2,,,,0,0,0,,,,,,,,,Clear,72000.0,,,73000.0,,,,,,
KRDR,12-21-2001,03:00,METAR,,270,4.0,,,9999.0,Cloud Development Not Observable,-16.0,-16.0,30.28,1028.1,,,,0,0,0,,,,,,,,,Clear,72000.0,,,73000.0,,,,,,
KRDR,12-21-2001,02:00,METAR,,330,5.0,,,9999.0,Cloud Development Not Observable,-14.0,-14.0,30.28,1028.0,,,,0,0,0,,,,,,,,,Clear,72000.0,,,73000.0,,,,,,
KRDR,12-21-2001,01:00,METAR,,340,6.0,,,9999.0,Cloud Development Not Observable,-13.0,-13.0,30.28,1028.1,,,,0,0,0,,,,,,,,,Clear,72000.0,,,73000.0,,,,,,
KRDR,12-21-2001,00:00,METAR,,320,7.0,,,9999.0,Cloud Development Not Observable,-13.0,-13.0,30.28,1028.2,,,,0,0,0,,,,,,,,,Clear,72000.0,,,73000.0,,,,,,
KRDR,12-20-2001,23:00,METAR,,340,6.0,,,9999.0,Cloud Development Not Observable,-12.0,-12.0,30.27,1027.6,,,,0,0,0,,,,,,,,,Clear,72000.0,,,73000.0,,,,,,
KRDR,12-20-2001,22:00,METAR,,340,8.0,,,9999.0,Cloud Development Not Observable,-9.0,-9.0,30.26,1027.2,,,,0,0,0,,,,,,,,,Clear,72000.0,,,73000.0,,,,,,
KRDR,12-20-2001,21:00,METAR,,350,12.0,,,9999.0,Cloud Development Not Observable,-8.0,-8.0,30.23,1026.1,,,,0,0,0,,,,,,,,,Clear,72000.0,,,73000.0,,,,,,
KRDR,12-20-2001,20:00,METAR,,350,12.0,,,9999.0,Cloud Development Not Observable,-8.0,-8.0,30.21,1025.4,,,,0,0,0,,,,,,,,,Clear,72000.0,,,73000.0,,,,,,
KRDR,12-20-2001,18:00,METAR,,330,12.0,,,9999.0,Cloud Development Not Observable,-10.0,-10.0,30.20,1025.2,,,,0,0,0,,,,,,,,,Clear,72000.0,,,73000.0,,,,,,
KRDR,12-20-2001,17:00,METAR,,340,11.0,,,9999.0,Cloud Development Not Observable,-11.0,-11.0,30.18,1024.5,,,,0,0,0,,,,,,,,,2/8 Mostly Clear,72000.0,,FEW,6400.0,,,,,,
KRDR,12-20-2001,16:00,METAR,,330,7.0,,,9999.0,Cloud Development Not Observable,-13.0,-13.0,30.14,1023.3,,,,0,0,0,,,,,,,,,4/8 Partly Cloudy,72000.0,,SCT,6400.0,,,,,,
KRDR,12-20-2001,15:00,METAR,,320,8.0,,,9999.0,Cloud Development Not Observable,-14.0,-14.0,30.11,1022.3,,,,0,0,0,,,,,,,,,4/8 Partly Cloudy,72000.0,,SCT,6400.0,SCT,20000.0,,,,
KRDR,12-20-2001,14:00,METAR,,330,8.0,,,9999.0,Cloud Development Not Observable,-14.0,-14.0,30.10,1021.7,,,,0,0,0,,,,,,,,,7/8 Mostly Cloudy,6500.0,,BKN,6400.0,,,,,,
KRDR,12-20-2001,13:00,METAR,,310,6.0,,,9999.0,Cloud Development Not Observable,-14.0,-14.0,30.06,1020.8,,,,0,0,0,,,,,,,,,7/8 Mostly Cloudy,20000.0,,FEW,2500.0,SCT,6400.0,BKN,20000.0,,
KRDR,12-20-2001,12:00,METAR,,350,5.0,,,9999.0,Cloud Development Not Observable,-16.0,-16.0,30.05,1020.1,,,,0,0,0,,,,,,,,,4/8 Partly Cloudy,72000.0,,SCT,6900.0,SCT,20000.0,,,,
KRDR,12-20-2001,11:00,METAR,,,4.0,,,9999.0,Cloud Development Not Observable,-16.0,-16.0,30.04,1019.7,,,,0,0,0,,,,,,,,,4/8 Partly Cloudy,72000.0,,SCT,6900.0,SCT,20000.0,,,,
KRDR,12-20-2001,10:00,METAR,,,3.0,,,9999.0,Cloud Development Not Observable,-14.0,-14.0,30.02,1019.0,,,,0,0,0,,,,,,,,,7/8 Mostly Cloudy,7000.0,,FEW,2500.0,BKN,6900.0,,,,
KRDR,12-20-2001,09:00,METAR,,260,6.0,,,9999.0,Cloud Development Not Observable,-15.0,-15.0,30.02,1019.0,,,,0,0,0,,,,,,,,,4/8 Partly Cloudy,72000.0,,SCT,8900.0,SCT,20000.0,,,,
KRDR,12-20-2001,08:00,METAR,,340,4.0,,,9999.0,Cloud Development Not Observable,-14.0,-14.0,30.00,1018.3,,,,0,0,0,,,,,,,,,4/8 Partly Cloudy,72000.0,,FEW,7900.0,SCT,20000.0,,,,
KRDR,12-20-2001,07:00,METAR,,250,5.0,,,9999.0,Cloud Development Not Observable,-15.0,-15.0,30.01,1018.4,,,,0,0,0,,,,,,,,,2/8 Mostly Clear,72000.0,,FEW,20000.0,,,,,,
KRDR,12-20-2001,06:00,METAR,,310,4.0,,,9999.0,Cloud Development Not Observable,-15.0,-15.0,30.01,1018.4,,,,0,0,0,,,,,,,,,2/8 Mostly Clear,72000.0,,FEW,20000.0,,,,,,
KRDR,12-20-2001,05:00,METAR,,310,4.0,,,9999.0,Cloud Development Not Observable,-14.0,-14.0,30.01,1018.5,,,,0,0,0,,,,,,,,,2/8 Mostly Clear,72000.0,,FEW,20000.0,,,,,,
KRDR,12-20-2001,04:00,METAR,,290,4.0,,,9999.0,Cloud Development Not Observable,-14.0,-14.0,30.00,1018.4,,,,0,0,0,,,,,,,,,2/8 Mostly Clear,72000.0,,FEW,20000.0,,,,,,
KRDR,12-20-2001,03:00,METAR,,,3.0,,,9999.0,Cloud Development Not Observable,-12.0,-12.0,30.01,1018.5,,,,0,0,0,,,,,,,,,2/8 Mostly Clear,72000.0,,FEW,20000.0,,,,,,
KRDR,12-20-2001,02:00,METAR,,,2.0,,,9999.0,Cloud Development Not Observable,-11.0,-11.0,30.00,1018.3,,,,0,0,0,,,,,,,,,2/8 Mostly Clear,72000.0,,FEW,20000.0,,,,,,
KRDR,12-20-2001,01:00,METAR,,,2.0,,,9999.0,Cloud Development Not Observable,-11.0,-12.0,30.01,1018.7,,,,0,0,0,,,,,,,,,2/8 Mostly Clear,72000.0,,FEW,20000.0,,,,,,
KRDR,12-20-2001,00:00,METAR,,,1.0,,,9999.0,Cloud Development Not Observable,-9.0,-10.0,30.00,1018.3,,,,0,0,0,,,,,,,,,2/8 Mostly Clear,72000.0,,FEW,20000.0,,,,,,
KRDR,12-19-2001,23:00,METAR,,90,5.0,,,9999.0,Cloud Development Not Observable,-6.0,-9.0,29.99,1017.6,,,,0,0,0,,,,,,,,,2/8 Mostly Clear,72000.0,,FEW,20000.0,,,,,,
KRDR,12-19-2001,22:00,METAR,,,5.0,,,9999.0,Cloud Development Not Observable,-4.0,-10.0,29.99,1017.7,,,,0,0,0,,,,,,,,,2/8 Mostly Clear,72000.0,,FEW,20000.0,,,,,,
KRDR,12-19-2001,21:00,METAR,,,3.0,,,9999.0,Cloud Development Not Observable,-4.0,-11.0,29.99,1017.7,,,,0,0,0,,,,,,,,,2/8 Mostly Clear,72000.0,,FEW,20000.0,,,,,,
KRDR,12-19-2001,20:00,METAR,,360,3.0,,,9999.0,Cloud Development Not Observable,-4.0,-10.0,30.01,1018.1,,,,0,0,0,,,,,,,,,2/8 Mostly Clear,72000.0,,FEW,15000.0,,,,,,
KRDR,12-19-2001,19:00,METAR,,10,7.0,,,9999.0,Cloud Development Not Observable,-4.0,-10.0,30.01,1018.3,,,,0,0,0,,,,,,,,,2/8 Mostly Clear,72000.0,,FEW,15000.0,,,,,,
KRDR,12-19-2001,18:00,METAR,,,5.0,,,9999.0,Cloud Development Not Observable,-4.0,-8.0,30.03,1019.0,,,,0,0,0,,,,,,,,,2/8 Mostly Clear,72000.0,,FEW,15000.0,,,,,,
KRDR,12-19-2001,17:00,METAR,,,5.0,,,9999.0,Cloud Development Not Observable,-6.0,-10.0,30.04,1019.3,,,,0,0,0,,,,,,,,,2/8 Mostly Clear,72000.0,,FEW,15000.0,,,,,,
KRDR,12-19-2001,16:00,METAR,,280,5.0,,,9999.0,Cloud Development Not Observable,-8.0,-12.0,30.05,1019.7,,,,0,0,0,,,,,,,,,2/8 Mostly Clear,72000.0,,FEW,15000.0,,,,,,
KRDR,12-19-2001,15:00,METAR,,,4.0,,,9999.0,Cloud Development Not Observable,-9.0,-13.0,30.04,1019.3,,,,0,0,0,,,,,,,,,2/8 Mostly Clear,72000.0,,FEW,15000.0,FEW,20000.0,,,,
KRDR,12-19-2001,14:00,METAR,,280,8.0,,,9999.0,Cloud Development Not Observable,-9.0,-12.0,30.04,1019.5,,,,0,0,0,,,,,,,,,2/8 Mostly Clear,72000.0,,FEW,15000.0,,,,,,
KRDR,12-19-2001,13:00,METAR,,280,8.0,,,9999.0,Cloud Development Not Observable,-10.0,-12.0,30.05,1019.9,,,,0,0,0,,,,,,,,,Clear,72000.0,,,73000.0,,,,,,
KRDR,12-19-2001,12:00,METAR,,280,8.0,,,9999.0,Cloud Development Not Observable,-10.0,-12.0,30.06,1020.0,,,,0,0,0,,,,,,,,,Clear,72000.0,,,73000.0,,,,,,
KRDR,12-19-2001,11:00,METAR,,270,11.0,,,9999.0,Cloud Development Not Observable,-9.0,-11.0,30.06,1020.0,,,,0,0,0,,,,,,,,,Clear,72000.0,,,73000.0,,,,,,
KRDR,12-19-2001,10:00,METAR,,310,6.0,,,9999.0,Cloud Development Not Observable,-8.0,-11.0,30.08,1020.4,,,,0,0,0,,,,,,,,,Clear,72000.0,,,73000.0,,,,,,
KRDR,12-19-2001,09:00,METAR,,280,9.0,,,9999.0,Cloud Development Not Observable,-8.0,-10.0,30.07,1020.2,,,,0,0,0,,,,,,,,,Clear,72000.0,,,73000.0,,,,,,
KRDR,12-19-2001,08:00,METAR,,290,14.0,,,9999.0,Cloud Development Not Observable,-6.0,-10.0,30.07,1020.1,,,,0,0,0,,,,,,,,,Clear,72000.0,,,73000.0,,,,,,
KRDR,12-19-2001,06:00,METAR,,290,15.0,,,9999.0,Cloud Development Not Observable,-7.0,-11.0,30.08,1020.3,,,,0,0,0,,,,,,,,,Clear,72000.0,,,73000.0,,,,,,
KRDR,12-19-2001,05:00,METAR,,290,15.0,,,9999.0,Cloud Development Not Observable,-7.0,-11.0,30.09,1020.7,,,,0,0,0,,,,,,,,,Clear,72000.0,,,73000.0,,,,,,
KRDR,12-19-2001,04:00,METAR,,300,16.0,,,9999.0,Cloud Development Not Observable,-7.0,-11.0,30.09,1020.8,,,,0,0,0,,,,,,,,,2/8 Mostly Clear,72000.0,,FEW,9900.0,,,,,,
KRDR,12-19-2001,03:00,METAR,,290,18.0,,,9999.0,Cloud Development Not Observable,-6.0,-12.0,30.09,1020.5,,,,0,0,0,,,,,,,,,2/8 Mostly Clear,72000.0,,FEW,9900.0,,,,,,
KRDR,12-19-2001,01:00,METAR,,300,15.0,,,9999.0,Cloud Development Not Observable,-6.0,-12.0,30.06,1019.8,,,,0,0,0,,,,,,,,,Clear,72000.0,,,73000.0,,,,,,
KRDR,12-19-2001,00:00,METAR,,300,15.0,,,9999.0,Cloud Development Not Observable,-5.0,-11.0,30.05,1019.5,,,,0,0,0,,,,,,,,,2/8 Mostly Clear,72000.0,,FEW,20000.0,,,,,,
KRDR,12-18-2001,23:00,METAR,,300,12.0,,,9999.0,Cloud Development Not Observable,-4.0,-11.0,30.04,1019.1,,,,0,0,0,,,,,,,,,2/8 Mostly Clear,72000.0,,FEW,20000.0,,,,,,
KRDR,12-18-2001,22:00,METAR,,300,13.0,,,9999.0,Cloud Development Not Observable,-3.0,-10.0,30.03,1018.5,,,,0,0,0,,,,,,,,,2/8 Mostly Clear,72000.0,,FEW,20000.0,,,,,,
KRDR,12-18-2001,21:00,METAR,,310,22.0,26.0,,9999.0,Cloud Development Not Observable,-2.0,-10.0,30.03,1018.4,,,,0,0,0,,,,,,,,,2/8 Mostly Clear,72000.0,,FEW,20000.0,,,,,,
KRDR,12-18-2001,20:00,METAR,,300,19.0,,300/29KTS,9999.0,Cloud Development Not Observable,-2.0,-9.0,30.01,1017.9,,,,0,0,0,,,,,,,,,2/8 Mostly Clear,72000.0,,FEW,20000.0,,,,,,
KRDR,12-18-2001,19:00,METAR,,300,21.0,,300/30KTS,9999.0,Cloud Development Not Observable,-2.0,-8.0,30.00,1017.8,,,,0,0,0,,,,,,,,,2/8 Mostly Clear,72000.0,,FEW,20000.0,,,,,,
KRDR,12-18-2001,18:00,METAR,,300,23.0,28.0,300/30KTS,9999.0,Cloud Development Not Observable,-2.0,-7.0,29.98,1016.9,,,,0,0,0,,,,,,,,,2/8 Mostly Clear,72000.0,,FEW,2800.0,FEW,20000.0,,,,
KRDR,12-18-2001,17:09,SPECI,,300,21.0,28.0,,9999.0,Cloud Development Not Observable,-2.0,-5.0,29.96,,,,,0,0,0,,,,,,,,,4/8 Partly Cloudy,72000.0,,SCT,2800.0,,,,,,
KRDR,12-18-2001,17:00,METAR,,300,25.0,,310/31KTS,9999.0,Cloud Development Not Observable,-2.0,-5.0,29.96,1016.2,,,,0,0,0,,,,,,,,,7/8 Mostly Cloudy,2800.0,,BKN,2800.0,,,,,,
KRDR,12-18-2001,16:00,METAR,,300,22.0,28.0,310/31KTS,9999.0,Cloud Development Not Observable,0.0,-2.0,29.92,1014.7,,,,0,0,0,,,,,,,,,8/8 Overcast,2300.0,,OVC,2300.0,,,,,,
KRDR,12-18-2001,15:00,METAR,,300,26.0,32.0,,9999.0,Cloud Development Not Observable,1.0,0.0,29.86,1012.9,,,,0,0,0,,,,,,,,,8/8 Overcast,2600.0,,SCT,2000.0,OVC,2600.0,,,,
KRDR,12-18-2001,14:00,METAR,,300,20.0,,,9999.0,Cloud Development Not Observable,2.0,2.0,29.83,1011.8,,,,0,0,0,,,,,,,,,7/8 Mostly Cloudy,2300.0,,BKN,2300.0,BKN,12000.0,,,,
KRDR,12-18-2001,13:33,SPECI,,300,20.0,,,9999.0,Cloud Development Not Observable,1.0,1.0,29.82,,,,,0,0,0,,,,,,,,,7/8 Mostly Cloudy,2300.0,,BKN,2300.0,BKN,20000.0,,,,
KRDR,12-18-2001,13:00,METAR,,310,20.0,,,9999.0,Cloud Development Not Observable,1.0,1.0,29.80,1010.7,,,,0,0,0,,,,,,,,,4/8 Partly Cloudy,72000.0,,FEW,12000.0,SCT,20000.0,,,,
KRDR,12-18-2001,12:00,METAR,,300,20.0,24.0,280/27KTS,9999.0,Cloud Development Not Observable,0.0,0.0,29.77,1009.7,,,,0,0,0,,,,,,,,,7/8 Mostly Cloudy,20000.0,,FEW,12000.0,BKN,20000.0,,,,
KRDR,12-18-2001,11:00,METAR,,280,18.0,24.0,,9999.0,Cloud Development Not Observable,0.0,0.0,29.74,1008.6,,,,0,0,0,,,,,,,,,7/8 Mostly Cloudy,20000.0,,FEW,12000.0,BKN,20000.0,,,,
KRDR,12-18-2001,10:00,METAR,,290,16.0,,,9999.0,Cloud Development Not Observable,1.0,1.0,29.71,1007.5,,,,0,0,0,,,,,,,,,4/8 Partly Cloudy,72000.0,,FEW,12000.0,SCT,20000.0,,,,
KRDR,12-18-2001,09:00,METAR,,280,15.0,,,9999.0,Cloud Development Not Observable,2.0,1.0,29.69,1006.7,,,,0,0,0,,,,,,,,,4/8 Partly Cloudy,72000.0,,SCT,20000.0,,,,,,
KRDR,12-18-2001,08:00,METAR,,270,4.0,,,9999.0,Cloud Development Not Observable,-2.0,-2.0,29.68,1006.7,,,,0,0,0,,,,,,,,,4/8 Partly Cloudy,72000.0,,SCT,20000.0,,,,,,
KRDR,12-18-2001,07:00,METAR,,280,5.0,,,9999.0,Cloud Development Not Observable,-5.0,-5.0,29.67,1006.5,,,,0,0,0,,,,,,,,,4/8 Partly Cloudy,72000.0,,SCT,20000.0,,,,,,
KRDR,12-18-2001,06:00,METAR,,230,6.0,,,9999.0,Cloud Development Not Observable,-4.0,-4.0,29.67,1006.3,,,,0,0,0,,,,,,,,,4/8 Partly Cloudy,72000.0,,SCT,20000.0,,,,,,
KRDR,12-18-2001,05:00,METAR,,220,7.0,,,9999.0,Cloud Development Not Observable,-4.0,-4.0,29.66,1005.9,,,,0,0,0,,,,,,,,,4/8 Partly Cloudy,72000.0,,SCT,20000.0,,,,,,
KRDR,12-18-2001,04:00,METAR,,250,8.0,,,9999.0,Cloud Development Not Observable,-4.0,-4.0,29.65,1005.9,,,,0,0,0,,,,,,,,,4/8 Partly Cloudy,72000.0,,SCT,20000.0,,,,,,
KRDR,12-18-2001,02:00,METAR,,150,6.0,,,9999.0,Cloud Development Not Observable,-2.0,-2.0,29.65,1005.7,,,,0,0,0,,,,,,,,,4/8 Partly Cloudy,72000.0,,FEW,12000.0,SCT,20000.0,,,,
KRDR,12-18-2001,01:00,METAR,,170,6.0,,,9999.0,Cloud Development Not Observable,-1.0,-1.0,29.65,1005.8,,,,0,0,0,,,,,,,,,4/8 Partly Cloudy,72000.0,,FEW,12000.0,SCT,20000.0,,,,
KRDR,12-18-2001,00:00,METAR,,150,7.0,,,9999.0,Cloud Development Not Observable,-1.0,-1.0,29.64,1005.5,,,,0,0,0,,,,,,,,,4/8 Partly Cloudy,72000.0,,FEW,12000.0,SCT,20000.0,,,,
KRDR,12-17-2001,23:00,METAR,,160,8.0,,,9999.0,Cloud Development Not Observable,0.0,0.0,29.65,1005.8,,,,0,0,0,,,,,,,,,7/8 Mostly Cloudy,20000.0,,FEW,12000.0,BKN,20000.0,,,,
KRDR,12-17-2001,22:00,METAR,,170,10.0,,,9999.0,Cloud Development Not Observable,1.0,1.0,29.65,1005.6,,,,0,0,0,,,,,,,,,7/8 Mostly Cloudy,20000.0,,FEW,12000.0,BKN,20000.0,,,,
KRDR,12-17-2001,21:00,METAR,,170,8.0,,,9999.0,Cloud Development Not Observable,2.0,2.0,29.65,1005.7,,,,0,0,0,,,,,,,,,7/8 Mostly Cloudy,20000.0,,FEW,12000.0,BKN,20000.0,,,,
KRDR,12-17-2001,20:00,METAR,,200,11.0,,,9999.0,Cloud Development Not Observable,2.0,1.0,29.67,1006.2,,,,0,0,0,,,,,,,,,7/8 Mostly Cloudy,20000.0,,FEW,12000.0,BKN,20000.0,,,,
KRDR,12-17-2001,19:00,METAR,,200,11.0,,,9999.0,Cloud Development Not Observable,1.0,0.0,29.69,1006.9,,,,0,0,0,,,,,,,,,7/8 Mostly Cloudy,20000.0,,FEW,12000.0,BKN,20000.0,,,,
KRDR,12-17-2001,18:00,METAR,,200,10.0,,,9999.0,Cloud Development Not Observable,0.0,-1.0,29.70,1007.3,,,,0,0,0,,,,,,,,,7/8 Mostly Cloudy,20000.0,,FEW,9900.0,BKN,20000.0,,,,
KRDR,12-17-2001,17:00,METAR,,200,7.0,,,9999.0,Cloud Development Not Observable,-1.0,-1.0,29.71,1007.5,,,,0,0,0,,,,,,,,,7/8 Mostly Cloudy,20000.0,,SCT,9900.0,BKN,20000.0,,,,
KRDR,12-17-2001,16:00,METAR,,220,8.0,,,9999.0,Cloud Development Not Observable,-3.0,-3.0,29.72,1007.9,,,,0,0,0,,,,,,,,,4/8 Partly Cloudy,72000.0,,SCT,25000.0,,,,,,
KRDR,12-17-2001,15:00,METAR,,220,8.0,,,9999.0,Cloud Development Not Observable,-4.0,-4.0,29.72,1008.1,,,,0,0,0,,,,,,,,,2/8 Mostly Clear,72000.0,,FEW,25000.0,,,,,,
KRDR,12-17-2001,14:00,METAR,,200,9.0,,,9999.0,Cloud Development Not Observable,-4.0,-4.0,29.73,1008.2,,,,0,0,0,,,,,,,,,2/8 Mostly Clear,72000.0,,FEW,25000.0,,,,,,
KRDR,12-17-2001,13:00,METAR,,180,6.0,,,9999.0,Cloud Development Not Observable,-4.0,-4.0,29.73,1008.4,,,,0,0,0,,,,,,,,,Clear,72000.0,,,73000.0,,,,,,
KRDR,12-17-2001,12:00,METAR,,170,10.0,,,9999.0,Cloud Development Not Observable,-5.0,-5.0,29.74,1008.6,,,,0,0,0,,,,,,,,,Clear,72000.0,,,73000.0,,,,,,
KRDR,12-17-2001,11:00,METAR,,190,10.0,,,9999.0,Cloud Development Not Observable,-5.0,-5.0,29.76,1009.3,,,,0,0,0,,,,,,,,,Clear,72000.0,,,73000.0,,,,,,
KRDR,12-17-2001,10:00,METAR,,190,11.0,,,9999.0,Cloud Development Not Observable,-5.0,-5.0,29.76,1009.5,,,,0,0,0,,,,,,,,,Clear,72000.0,,,73000.0,,,,,,
KRDR,12-17-2001,08:00,METAR,,180,12.0,,,9999.0,Cloud Development Not Observable,-3.0,-3.0,29.79,1010.3,,,,0,0,0,,,,,,,,,Clear,72000.0,,,73000.0,,,,,,
KRDR,12-17-2001,06:00,METAR,,180,13.0,,,9999.0,Cloud Development Not Observable,-3.0,-3.0,29.82,1011.5,,,,0,0,0,,,,,,,,,2/8 Mostly Clear,72000.0,,FEW,15000.0,,,,,,
KRDR,12-17-2001,05:00,METAR,,190,12.0,,,9999.0,Cloud Development Not Observable,-2.0,-2.0,29.86,1013.6,,,,0,0,0,,,,,,,,,2/8 Mostly Clear,72000.0,,FEW,15000.0,,,,,,
KRDR,12-17-2001,03:00,METAR,,210,12.0,,,9999.0,Cloud Development Not Observable,0.0,0.0,29.90,1013.9,,,,0,0,0,,,,,,,,,7/8 Mostly Cloudy,15000.0,,BKN,15000.0,,,,,,
KRDR,12-17-2001,01:00,METAR,,200,7.0,,,9999.0,Cloud Development Not Observable,0.0,0.0,29.91,1014.4,,,,0,0,0,,,,,,,,,7/8 Mostly Cloudy,15000.0,,SCT,2900.0,BKN,15000.0,,,,
KRDR,12-17-2001,00:05,SPECI,,190,5.0,,,9999.0,Cloud Development Not Observable,0.0,0.0,29.92,,,,,0,0,0,,,,,,,,,4/8 Partly Cloudy,72000.0,,SCT,2900.0,SCT,15000.0,,,,
KRDR,12-17-2001,00:00,METAR,,200,5.0,,,9999.0,Cloud Development Not Observable,0.0,0.0,29.93,1014.9,,,,0,0,0,,,,,,,,,7/8 Mostly Cloudy,2900.0,,BKN,2900.0,BKN,4000.0,,,,
KRDR,12-16-2001,23:00,METAR,,260,8.0,,,9999.0,Cloud Development Not Observable,0.0,0.0,29.92,1014.8,,,,0,0,0,,,,,,,,,7/8 Mostly Cloudy,1800.0,,BKN,1800.0,BKN,4000.0,,,,
KRDR,12-16-2001,22:09,SPECI,,270,8.0,,,9999.0,Cloud Development Not Observable,1.0,1.0,29.92,,,,,0,0,0,,,,,,,,,7/8 Mostly Cloudy,1600.0,,BKN,1600.0,BKN,4000.0,,,,
KRDR,12-16-2001,22:00,METAR,,280,7.0,,,9999.0,Cloud Development Not Observable,1.0,1.0,29.92,1014.5,,,,0,0,0,,,,,,,,,7/8 Mostly Cloudy,1400.0,,BKN,1400.0,BKN,4000.0,,,,
KRDR,12-16-2001,21:00,METAR,,290,10.0,,,9999.0,Cloud Development Not Observable,1.0,1.0,29.89,1013.6,,,,0,0,0,,,,,,,,,7/8 Mostly Cloudy,1400.0,,BKN,1400.0,BKN,4000.0,,,,
KRDR,12-16-2001,20:39,SPECI,,270,11.0,,,9999.0,Cloud Development Not Observable,1.0,1.0,29.89,,,,,0,0,0,,,,,,,,,7/8 Mostly Cloudy,1500.0,,BKN,1500.0,BKN,4000.0,,,,
KRDR,12-16-2001,20:00,METAR,,290,12.0,,,9999.0,Cloud Development Not Observable,1.0,1.0,29.87,1013.1,,,,0,0,0,,,,,,,,,7/8 Mostly Cloudy,3700.0,,SCT,1400.0,BKN,3800.0,BKN,15000.0,,
KRDR,12-16-2001,19:39,SPECI,,290,12.0,,,9999.0,Cloud Development Not Observable,1.0,1.0,29.88,,,,,0,0,0,,,,,,,,,7/8 Mostly Cloudy,3700.0,,SCT,1400.0,BKN,3800.0,BKN,15000.0,,
KRDR,12-16-2001,19:00,METAR,,280,11.0,,,9999.0,Cloud Development Not Observable,1.0,1.0,29.89,1013.6,,,,0,0,0,,,,,,,,,7/8 Mostly Cloudy,15000.0,,SCT,1400.0,SCT,4500.0,BKN,15000.0,,
KRDR,12-16-2001,18:00,METAR,,280,13.0,,,9999.0,Cloud Development Not Observable,0.0,0.0,29.89,1013.5,,,,0,0,0,,,,,,,,,7/8 Mostly Cloudy,4100.0,,BKN,4200.0,,,,,,
KRDR,12-16-2001,17:00,METAR,,300,15.0,,,9999.0,Mist/Cloud Development Not Observable,0.0,0.0,29.87,1013.0,,,,10,0,0,,,,,,,,,7/8 Mostly Cloudy,3300.0,,SCT,1300.0,BKN,3400.0,,,,
KRDR,12-16-2001,16:36,SPECI,,300,20.0,,,9999.0,Mist/Cloud Development Not Observable,0.0,0.0,29.86,,,,,10,0,0,,,,,,,,,7/8 Mostly Cloudy,3300.0,,SCT,1300.0,BKN,3400.0,,,,
KRDR,12-16-2001,16:07,SPECI,,290,14.0,,,8000.0,Mist/Cloud Development Not Observable,0.0,0.0,29.86,,,,,10,0,0,,,,,,,,,8/8 Overcast,2000.0,,SCT,1300.0,BKN,2000.0,OVC,4000.0,,
KRDR,12-16-2001,16:00,METAR,,280,15.0,,,6400.0,Light Snow/Mist/Cloud Development Not Observable,0.0,0.0,29.85,1012.3,,,,71,10,0,,,,,,,,,8/8 Overcast,2000.0,,SCT,1300.0,BKN,2000.0,OVC,4000.0,,
KRDR,12-16-2001,15:31,SPECI,,270,13.0,,,4800.0,Light Snow/Mist/Cloud Development Not Observable,0.0,0.0,29.85,,,,,71,10,0,,,,,,,,,8/8 Overcast,2000.0,,BKN,2000.0,OVC,4000.0,,,,
KRDR,12-16-2001,15:00,METAR,,280,14.0,,,4800.0,Light Snow/Mist/Cloud Development Not Observable,-1.0,-1.0,29.82,1011.4,,,,71,10,0,,,,,,,,,8/8 Overcast,2000.0,,BKN,2000.0,OVC,4000.0,,,,
KRDR,12-16-2001,14:00,METAR,,290,14.0,,,4800.0,Light Snow/Mist/Cloud Development Not Observable,0.0,0.0,29.80,1010.7,,,,71,10,0,,,,,,,,,8/8 Overcast,1800.0,,BKN,1800.0,OVC,4000.0,,,,
KRDR,12-16-2001,13:44,SPECI,,290,15.0,,,4800.0,Light Snow/Mist/Cloud Development Not Observable,0.0,0.0,29.80,,,,,71,10,0,,,,,,,,,8/8 Overcast,1000.0,,BKN,1000.0,OVC,4000.0,,,,
KRDR,12-16-2001,13:00,METAR,,290,14.0,,,8000.0,Mist/Cloud Development Not Observable,0.0,0.0,29.79,1010.3,,,,10,0,0,,,,,,,,,8/8 Overcast,1000.0,,BKN,1000.0,OVC,4000.0,,,,
KRDR,12-16-2001,12:00,METAR,,290,16.0,,,4800.0,Drizzle/Mist/Cloud Development Not Observable,1.0,1.0,29.76,1009.1,,,,51,10,0,,,,,,,,,8/8 Overcast,1000.0,,BKN,1000.0,OVC,4000.0,,,,
KRDR,12-16-2001,10:32,SPECI,,280,6.0,,,3200.0,Light Snow/Drizzle/Mist,1.0,1.0,29.76,,,,,51,71,10,,,,,,,,,8/8 Overcast,900.0,,BKN,900.0,BKN,2500.0,OVC,4000.0,,
KRDR,12-16-2001,10:00,METAR,,260,1.0,,,1200.0,Light Snow/Drizzle/Mist,1.0,1.0,29.74,1008.6,,,,51,71,10,,,,,,,,,8/8 Overcast,800.0,,BKN,800.0,BKN,2500.0,OVC,5000.0,,
KRDR,12-16-2001,09:41,SPECI,,260,1.0,,,1200.0,Light Snow/Drizzle/Mist,1.0,1.0,29.74,,,,,51,71,10,,,,,,,,,8/8 Overcast,800.0,,BKN,800.0,BKN,2500.0,OVC,5000.0,,
KRDR,12-16-2001,09:00,METAR,,240,2.0,,,400.0,Drizzle/Mist/Cloud Development Not Observable,1.0,1.0,29.75,1008.9,,,,51,10,0,,,,,,,,,8/8 Overcast,800.0,,BKN,800.0,OVC,2500.0,,,,
KRDR,12-16-2001,08:19,SPECI,Calm,,0.0,,,400.0,Drizzle/Fog or Ice Fog/Cloud Development Not Observable,1.0,1.0,29.76,1009.1,,,,51,44,0,,,,,,,,,8/8 Overcast,500.0,,SCT,200.0,BKN,500.0,OVC,2400.0,,
KRDR,12-16-2001,08:00,METAR,,190,2.0,,,800.0,Drizzle/Mist/Cloud Development Not Observable,1.0,1.0,29.76,1009.1,,,,53,10,0,,,,,,,,,8/8 Overcast,500.0,,SCT,200.0,BKN,500.0,OVC,2400.0,,
KRDR,12-16-2001,07:25,METAR,,90,4.0,,,800.0,Drizzle/Mist/Cloud Development Not Observable,1.0,1.0,29.76,,,,,53,10,0,,,,,,,,,8/8 Overcast,400.0,,SCT,200.0,BKN,400.0,OVC,2400.0,,
KRDR,12-16-2001,07:09,SPECI,,100,4.0,,,600.0,Drizzle/Mist/Cloud Development Not Observable,1.0,1.0,29.76,,,,,53,10,0,,,,,,,,,8/8 Overcast,100.0,,BKN,100.0,BKN,400.0,OVC,2400.0,,
KRDR,12-16-2001,07:00,METAR,,120,3.0,,,1200.0,Drizzle/Mist/Cloud Development Not Observable,1.0,1.0,29.76,1009.3,,,,51,10,0,,,,,,,,,8/8 Overcast,100.0,,BKN,100.0,BKN,400.0,OVC,2400.0,,
KRDR,12-16-2001,06:21,SPECI,,120,3.0,,,1200.0,Drizzle/Mist/Cloud Development Not Observable,1.0,1.0,29.77,,,,,51,10,0,,,,,,,,,8/8 Overcast,100.0,,OVC,100.0,,,,,,
KRDR,12-16-2001,06:00,METAR,,110,5.0,,,2400.0,Drizzle/Mist/Cloud Development Not Observable,2.0,2.0,29.77,1009.5,,,,51,10,0,,,,,,,,,8/8 Overcast,100.0,,OVC,100.0,,,,,,
KRDR,12-16-2001,05:49,SPECI,,90,4.0,,,2400.0,Drizzle/Mist/Cloud Development Not Observable,1.0,1.0,29.77,,,,,51,10,0,,,,,,,,,8/8 Overcast,100.0,,BKN,100.0,OVC,800.0,,,,
KRDR,12-16-2001,05:39,SPECI,,90,3.0,,,3200.0,Drizzle/Mist/Cloud Development Not Observable,1.0,1.0,29.77,,,,,51,10,0,,,,,,,,,8/8 Overcast,1000.0,,SCT,100.0,OVC,1000.0,,,,
KRDR,12-16-2001,05:10,SPECI,,110,3.0,,,3200.0,Drizzle/Mist/Cloud Development Not Observable,1.0,1.0,29.78,,,,,51,10,0,,,,,,,,,7/8 Mostly Cloudy,1400.0,,BKN,1400.0,BKN,2600.0,,,,
KRDR,12-16-2001,05:00,METAR,,130,4.0,,,4800.0,Drizzle/Mist/Cloud Development Not Observable,1.0,1.0,29.78,1009.8,,,,51,10,0,,,,,,,,,8/8 Overcast,1400.0,,BKN,1400.0,OVC,2600.0,,,,
KRDR,12-16-2001,02:00,METAR,,150,8.0,,,8000.0,Drizzle/Mist/Cloud Development Not Observable,2.0,2.0,29.81,1010.9,,,,51,10,0,,,,,,,,,8/8 Overcast,1400.0,,SCT,700.0,OVC,1400.0,,,,
KRDR,12-16-2001,01:00,METAR,,150,7.0,,,6400.0,Drizzle/Mist/Cloud Development Not Observable,2.0,2.0,29.82,1011.1,,,,51,10,0,,,,,,,,,8/8 Overcast,1800.0,,SCT,700.0,OVC,1800.0,,,,
KRDR,12-16-2001,00:27,SPECI,,170,9.0,,,8000.0,Drizzle/Mist/Cloud Development Not Observable,2.0,2.0,29.82,,,,,51,10,0,,,,,,,,,8/8 Overcast,1800.0,,SCT,700.0,OVC,1800.0,,,,
KRDR,12-16-2001,00:05,SPECI,,170,9.0,,,8000.0,Drizzle/Mist/Cloud Development Not Observable,2.0,2.0,29.82,,,,,51,10,0,,,,,,,,,8/8 Overcast,1800.0,,SCT,1100.0,OVC,1800.0,,,,
KRDR,12-16-2001,00:00,METAR,,160,11.0,,,8000.0,Mist/Cloud Development Not Observable,2.0,2.0,29.81,1010.9,,,,10,0,0,,,,,,,,,8/8 Overcast,1800.0,,OVC,1800.0,,,,,,
KRDR,12-15-2001,23:00,METAR,,150,10.0,,,8000.0,Mist/Cloud Development Not Observable,2.0,2.0,29.80,1010.5,,,,10,0,0,,,,,,,,,8/8 Overcast,1600.0,,OVC,1600.0,,,,,,
KRDR,12-15-2001,22:00,METAR,,160,12.0,,,8000.0,Mist/Cloud Development Not Observable,2.0,2.0,29.79,1010.4,,,,10,0,0,,,,,,,,,8/8 Overcast,1600.0,,OVC,1600.0,,,,,,
KRDR,12-15-2001,21:00,METAR,,160,15.0,,,8000.0,Mist/Cloud Development Not Observable,2.0,2.0,29.79,1010.4,,,,10,0,0,,,,,,,,,8/8 Overcast,1600.0,,OVC,1600.0,,,,,,
KRDR,12-15-2001,20:32,SPECI,,160,13.0,,,8000.0,Mist/Cloud Development Not Observable,2.0,2.0,29.79,,,,,10,0,0,,,,,,,,,8/8 Overcast,1600.0,,OVC,1600.0,,,,,,
KRDR,12-15-2001,20:00,METAR,,170,14.0,,,8000.0,Mist/Cloud Development Not Observable,2.0,2.0,29.79,1010.2,,,,10,0,0,,,,,,,,,8/8 Overcast,1300.0,,BKN,1300.0,OVC,2000.0,,,,
KRDR,12-15-2001,19:00,METAR,,180,15.0,,170/27KTS,8000.0,Mist/Cloud Development Not Observable,2.0,2.0,29.78,1009.8,,,,10,0,0,,,,,,,,,8/8 Overcast,1100.0,,BKN,1100.0,OVC,2000.0,,,,
KRDR,12-15-2001,18:00,METAR,,170,20.0,,170/28KTS,8000.0,Mist/Cloud Development Not Observable,2.0,2.0,29.78,1009.8,,,,10,0,0,,,,,,,,,8/8 Overcast,1100.0,,BKN,1100.0,OVC,2000.0,,,,
KRDR,12-15-2001,17:01,SPECI,,170,20.0,,,6400.0,Mist/Cloud Development Not Observable,2.0,2.0,29.77,,,,,10,0,0,,,,,,,,,8/8 Overcast,1100.0,,BKN,1100.0,OVC,2000.0,,,,
KRDR,12-15-2001,17:00,METAR,,170,23.0,29.0,,6400.0,Mist/Cloud Development Not Observable,2.0,2.0,29.77,1009.5,,,,10,0,0,,,,,,,,,8/8 Overcast,1100.0,,BKN,1100.0,OVC,2000.0,,,,
KRDR,12-15-2001,16:00,METAR,,170,23.0,,170/28KTS,6400.0,Mist/Cloud Development Not Observable,2.0,2.0,29.76,1009.1,,,,10,0,0,,,,,,,,,8/8 Overcast,1100.0,,SCT,800.0,BKN,1100.0,OVC,2000.0,,
KRDR,12-15-2001,15:00,METAR,,170,22.0,28.0,170/30KTS,6400.0,Mist/Cloud Development Not Observable,2.0,2.0,29.74,1008.4,,,,10,0,0,,,,,,,,,8/8 Overcast,1100.0,,SCT,800.0,OVC,1100.0,,,,
KRDR,12-15-2001,14:39,SPECI,,170,22.0,27.0,,6400.0,Mist/Cloud Development Not Observable,2.0,2.0,29.74,,,,,10,0,0,,,,,,,,,8/8 Overcast,1000.0,,SCT,800.0,OVC,1000.0,,,,
KRDR,12-15-2001,14:00,METAR,,170,25.0,,160/30KTS,6400.0,Mist/Cloud Development Not Observable,2.0,2.0,29.71,1007.6,,,,10,0,0,,,,,,,,,8/8 Overcast,900.0,,OVC,900.0,,,,,,
KRDR,12-15-2001,13:48,SPECI,,170,24.0,,,6400.0,Mist/Cloud Development Not Observable,2.0,2.0,29.71,,,,,10,0,0,,,,,,,,,8/8 Overcast,900.0,,OVC,900.0,,,,,,
KRDR,12-15-2001,13:00,METAR,,170,23.0,32.0,,6400.0,Mist/Cloud Development Not Observable,2.0,2.0,29.70,1007.2,,,,10,0,0,,,,,,,,,8/8 Overcast,900.0,,OVC,900.0,,,,,,
KRDR,12-15-2001,12:00,METAR,,170,26.0,,,6400.0,Mist/Cloud Development Not Observable,2.0,2.0,29.68,1006.5,,,,10,0,0,,,,,,,,,8/8 Overcast,900.0,,OVC,900.0,,,,,,
KRDR,12-15-2001,11:00,METAR,,150,10.0,,,6400.0,Mist/Cloud Development Not Observable,1.0,1.0,29.70,1007.0,,,,10,0,0,,,,,,,,,8/8 Overcast,1000.0,,OVC,1000.0,,,,,,
KRDR,12-15-2001,10:00,METAR,,140,11.0,,,6400.0,Mist/Cloud Development Not Observable,-1.0,-1.0,29.67,1006.4,,,,10,0,0,,,,,,,,,8/8 Overcast,1300.0,,OVC,1300.0,,,,,,
KRDR,12-15-2001,09:00,METAR,,140,9.0,,,6400.0,Mist/Cloud Development Not Observable,-3.0,-3.0,29.68,1006.3,,,,10,0,0,,,,,,,,,7/8 Mostly Cloudy,1400.0,,BKN,1400.0,,,,,,
KRDR,12-15-2001,08:36,SPECI,,140,9.0,,,6400.0,Mist/Cloud Development Not Observable,-3.0,-3.0,29.67,,,,,10,0,0,,,,,,,,,7/8 Mostly Cloudy,1400.0,,BKN,1400.0,,,,,,
KRDR,12-15-2001,08:00,METAR,,140,7.0,,,6400.0,Mist/Cloud Development Not Observable,-3.0,-3.0,29.67,1006.3,,,,10,0,0,,,,,,,,,2/8 Mostly Clear,72000.0,,FEW,800.0,,,,,,
KRDR,12-15-2001,07:10,SPECI,,130,8.0,,,8000.0,Mist/Cloud Development Not Observable,-3.0,-3.0,29.67,,,,,10,0,0,,,,,,,,,4/8 Partly Cloudy,72000.0,,SCT,800.0,,,,,,
KRDR,12-15-2001,07:00,METAR,,130,8.0,,,8000.0,Mist/Cloud Development Not Observable,-3.0,-3.0,29.68,1006.7,,,,10,0,0,,,,,,,,,7/8 Mostly Cloudy,800.0,,BKN,800.0,,,,,,
KRDR,12-15-2001,06:00,METAR,,140,10.0,,,8000.0,Mist/Cloud Development Not Observable,-2.0,-2.0,29.70,1007.4,,,,10,0,0,,,,,,,,,8/8 Overcast,800.0,,OVC,800.0,,,,,,
KRDR,12-15-2001,05:17,SPECI,,140,10.0,,,9999.0,Mist/Cloud Development Not Observable,-2.0,-2.0,29.71,,,,,10,0,0,,,,,,,,,8/8 Overcast,800.0,,OVC,800.0,,,,,,
KRDR,12-15-2001,05:00,METAR,,150,11.0,,,9999.0,Mist/Cloud Development Not Observable,-2.0,-2.0,29.71,1007.6,,,,10,0,0,,,,,,,,,8/8 Overcast,1000.0,,OVC,1000.0,,,,,,
KRDR,12-15-2001,04:00,METAR,,150,15.0,,,9999.0,Mist/Cloud Development Not Observable,-2.0,-2.0,29.71,1007.6,,,,10,0,0,,,,,,,,,8/8 Overcast,1100.0,,OVC,1100.0,,,,,,
KRDR,12-15-2001,03:00,METAR,,150,14.0,,150/28KTS,9999.0,Mist/Cloud Development Not Observable,-1.0,-1.0,29.70,1007.5,,,,10,0,0,,,,,,,,,8/8 Overcast,1100.0,,OVC,1100.0,,,,,,
KRDR,12-15-2001,02:00,METAR,,150,22.0,28.0,150/30KTS,9999.0,Mist/Cloud Development Not Observable,-1.0,-1.0,29.70,1007.5,,,,10,0,0,,,,,,,,,8/8 Overcast,1100.0,,OVC,1100.0,,,,,,
KRDR,12-15-2001,01:00,METAR,,150,19.0,26.0,150/28KTS,9999.0,Mist/Cloud Development Not Observable,-1.0,-1.0,29.70,1007.5,,,,10,0,0,,,,,,,,,8/8 Overcast,1300.0,,BKN,1300.0,OVC,7900.0,,,,
KRDR,12-15-2001,00:00,METAR,,150,20.0,,,9999.0,Mist/Cloud Development Not Observable,-1.0,-1.0,29.70,1007.5,,,,10,0,0,,,,,,,,,8/8 Overcast,1300.0,,BKN,1300.0,OVC,7900.0,,,,
KRDR,12-14-2001,23:00,METAR,,150,17.0,,,8000.0,Mist/Cloud Development Not Observable,-1.0,-1.0,29.68,1007.2,,,,10,0,0,,,,,,,,,8/8 Overcast,1300.0,,BKN,1300.0,OVC,7900.0,,,,
KRDR,12-14-2001,22:00,METAR,,160,17.0,,,8000.0,Mist/Cloud Development Not Observable,-2.0,-2.0,29.69,1007.3,,,,10,0,0,,,,,,,,,8/8 Overcast,1000.0,,SCT,600.0,BKN,1000.0,OVC,7900.0,,
KRDR,12-14-2001,21:34,SPECI,,170,17.0,,,8000.0,Mist/Cloud Development Not Observable,-2.0,-2.0,29.70,,,,,10,0,0,,,,,,,,,8/8 Overcast,1000.0,,SCT,600.0,BKN,1000.0,OVC,7900.0,,
KRDR,12-14-2001,21:00,METAR,,170,17.0,,,8000.0,Light Snow/Mist/Cloud Development Not Observable,-2.0,-2.0,29.69,1007.3,,,,71,10,0,,,,,,,,,8/8 Overcast,800.0,,SCT,400.0,BKN,800.0,OVC,1200.0,,
KRDR,12-14-2001,20:00,METAR,,170,22.0,,,8000.0,Light Snow/Mist/Cloud Development Not Observable,-2.0,-2.0,29.67,1006.6,,,,71,10,0,,,,,,,,,8/8 Overcast,800.0,,SCT,400.0,BKN,800.0,OVC,1200.0,,
KRDR,12-14-2001,19:00,METAR,,160,18.0,,,8000.0,Light Snow/Mist/Cloud Development Not Observable,-2.0,-2.0,29.67,1006.6,,,,71,10,0,,,,,,,,,8/8 Overcast,800.0,,SCT,400.0,BKN,800.0,OVC,1000.0,,
KRDR,12-14-2001,18:00,METAR,,170,20.0,,,4800.0,Light Snow/Mist/Cloud Development Not Observable,-3.0,-3.0,29.68,1007.1,,,,71,10,0,,,,,,,,,8/8 Overcast,800.0,,SCT,400.0,BKN,800.0,OVC,1000.0,,
KRDR,12-14-2001,17:18,SPECI,,160,17.0,,,4800.0,Light Snow/Mist/Cloud Development Not Observable,-3.0,-3.0,29.68,,,,,71,10,0,,,,,,,,,8/8 Overcast,800.0,,SCT,400.0,BKN,800.0,OVC,1000.0,,
KRDR,12-14-2001,17:00,METAR,,160,15.0,,,4800.0,Light Snow/Mist/Cloud Development Not Observable,-3.0,-3.0,29.68,1007.2,,,,71,10,0,,,,,,,,,8/8 Overcast,800.0,,BKN,800.0,OVC,1000.0,,,,
KRDR,12-14-2001,16:29,SPECI,,160,13.0,,,6400.0,Light Snow/Mist/Cloud Development Not Observable,-3.0,-3.0,29.68,,,,,71,10,0,,,,,,,,,7/8 Mostly Cloudy,800.0,,BKN,800.0,,,,,,
KRDR,12-14-2001,16:00,METAR,,150,17.0,,,6400.0,Light Snow/Mist/Cloud Development Not Observable,-4.0,-4.0,29.68,1007.0,,,,71,10,0,,,,,,,,,7/8 Mostly Cloudy,600.0,,BKN,600.0,,,,,,
KRDR,12-14-2001,15:54,SPECI,,150,17.0,,,6400.0,Light Snow/Mist/Cloud Development Not Observable,-4.0,-4.0,29.68,,,,,71,10,0,,,,,,,,,7/8 Mostly Cloudy,600.0,,BKN,600.0,,,,,,
KRDR,12-14-2001,15:09,SPECI,,150,15.0,,,6400.0,Mist/Cloud Development Not Observable,-4.0,-4.0,29.68,,,,,10,0,0,,,,,,,,,7/8 Mostly Cloudy,600.0,,BKN,600.0,,,,,,
KRDR,12-14-2001,15:00,METAR,,160,12.0,,,6400.0,Mist/Cloud Development Not Observable,-5.0,-5.0,29.67,1006.8,,,,10,0,0,,,,,,,,,7/8 Mostly Cloudy,400.0,,BKN,400.0,,,,,,
KRDR,12-14-2001,14:07,SPECI,,160,15.0,,,4800.0,Mist/Cloud Development Not Observable,-12.0,-12.0,29.67,,,,,10,0,0,,,,,,,,,8/8 Overcast,400.0,,FEW,200.0,OVC,400.0,,,,
KRDR,12-14-2001,14:00,METAR,,160,13.0,,,3200.0,Mist/Cloud Development Not Observable,-12.0,-12.0,29.67,1006.9,,,,10,0,0,,,,,,,,,8/8 Overcast,400.0,,OVC,400.0,,,,,,
KRDR,12-14-2001,13:50,METAR,,170,16.0,,,3200.0,Mist/Cloud Development Not Observable,-12.0,-12.0,29.67,,,,,10,0,0,,,,,,,,,7/8 Mostly Cloudy,400.0,,FEW,200.0,BKN,400.0,,,,
KRDR,12-14-2001,13:27,SPECI,,150,12.0,,,4800.0,Diamond Dust/Mist/Cloud Development Not Observable,-12.0,-12.0,29.67,,,,,76,10,0,,,,,,,,,7/8 Mostly Cloudy,500.0,,FEW,200.0,BKN,500.0,,,,
KRDR,12-14-2001,13:00,METAR,,120,4.0,,,4800.0,Mist/Cloud Development Not Observable,-12.0,-12.0,29.66,1006.7,,,,10,0,0,,,,,,,,,2/8 Mostly Clear,72000.0,,FEW,600.0,,,,,,
KRDR,12-14-2001,12:00,METAR,,140,6.0,,,6400.0,Mist/Cloud Development Not Observable,-12.0,-12.0,29.66,1006.4,,,,10,0,0,,,,,,,,,Clear,72000.0,,,73000.0,,,,,,
KRDR,12-14-2001,11:00,METAR,,130,6.0,,,8000.0,Mist/Cloud Development Not Observable,-11.0,-11.0,29.67,1006.7,,,,10,0,0,,,,,,,,,Clear,72000.0,,,73000.0,,,,,,
KRDR,12-14-2001,10:00,METAR,,130,5.0,,,8000.0,Mist/Cloud Development Not Observable,-11.0,-11.0,29.68,1007.1,,,,10,0,0,,,,,,,,,Clear,72000.0,,,73000.0,,,,,,
KRDR,12-14-2001,09:00,METAR,,140,6.0,,,8000.0,Mist/Cloud Development Not Observable,-10.0,-10.0,29.68,1007.2,,,,10,0,0,,,,,,,,,Clear,72000.0,,,73000.0,,,,,,
KRDR,12-14-2001,08:00,METAR,,150,8.0,,,8000.0,Mist/Cloud Development Not Observable,-10.0,-10.0,29.72,1008.3,,,,10,0,0,,,,,,,,,Clear,72000.0,,,73000.0,,,,,,
KRDR,12-14-2001,07:00,METAR,,130,6.0,,,9999.0,Mist/Cloud Development Not Observable,-10.0,-10.0,29.73,1008.6,,,,10,0,0,,,,,,,,,Clear,72000.0,,,73000.0,,,,,,
KRDR,12-14-2001,06:00,METAR,,190,6.0,,,9999.0,Mist/Cloud Development Not Observable,-11.0,-11.0,29.76,1009.8,,,,10,0,0,,,,,,,,,Clear,72000.0,,,73000.0,,,,,,
KRDR,12-14-2001,05:00,METAR,,170,10.0,,,9999.0,Mist/Cloud Development Not Observable,-9.0,-9.0,29.76,1009.8,,,,10,0,0,,,,,,,,,Clear,72000.0,,,73000.0,,,,,,
KRDR,12-14-2001,04:00,METAR,,160,13.0,,,9999.0,Mist/Cloud Development Not Observable,-9.0,-9.0,29.75,1009.6,,,,10,0,0,,,,,,,,,Clear,72000.0,,,73000.0,,,,,,
KRDR,12-14-2001,03:00,METAR,,150,10.0,,,9999.0,Cloud Development Not Observable,-8.0,-8.0,29.75,1009.5,,,,0,0,0,,,,,,,,,2/8 Mostly Clear,72000.0,,FEW,20000.0,,,,,,
KRDR,12-14-2001,01:55,METAR,,150,11.0,,,9999.0,Cloud Development Not Observable,-7.0,-7.0,29.76,1009.8,,,,0,0,0,,,,,,,,,2/8 Mostly Clear,72000.0,,FEW,20000.0,,,,,,
KRDR,12-14-2001,01:00,METAR,,150,12.0,,,9999.0,Cloud Development Not Observable,-6.0,-6.0,29.76,1009.8,,,,0,0,0,,,,,,,,,2/8 Mostly Clear,72000.0,,FEW,20000.0,,,,,,
KRDR,12-14-2001,00:00,METAR,,150,9.0,,,9999.0,Cloud Development Not Observable,-5.0,-5.0,29.76,1010.0,,,,0,0,0,,,,,,,,,2/8 Mostly Clear,72000.0,,FEW,20000.0,,,,,,
KRDR,12-13-2001,23:35,SPECI,,160,11.0,,,9999.0,Cloud Development Not Observable,-5.0,-5.0,29.76,,,,,0,0,0,,,,,,,,,4/8 Partly Cloudy,72000.0,,SCT,1400.0,SCT,20000.0,,,,
KRDR,12-13-2001,23:00,METAR,,180,13.0,,,9999.0,Cloud Development Not Observable,-4.0,-4.0,29.76,1010.0,,,,0,0,0,,,,,,,,,7/8 Mostly Cloudy,1400.0,,BKN,1400.0,BKN,8900.0,BKN,20000.0,,
KRDR,12-13-2001,22:00,METAR,,180,14.0,,,9999.0,Cloud Development Not Observable,-4.0,-4.0,29.75,1009.7,,,,0,0,0,,,,,,,,,7/8 Mostly Cloudy,1300.0,,BKN,1300.0,BKN,8900.0,,,,
KRDR,12-13-2001,21:00,METAR,,180,13.0,,,9999.0,Cloud Development Not Observable,-4.0,-4.0,29.75,1009.5,,,,0,0,0,,,,,,,,,7/8 Mostly Cloudy,1300.0,,BKN,1300.0,,,,,,
KRDR,12-13-2001,20:00,METAR,,150,11.0,,,9999.0,Cloud Development Not Observable,-4.0,-4.0,29.76,1010.0,,,,0,0,0,,,,,,,,,7/8 Mostly Cloudy,1100.0,,BKN,1100.0,,,,,,
KRDR,12-13-2001,19:30,METAR,,180,13.0,,,9999.0,Cloud Development Not Observable,-5.0,-5.0,29.77,,,,,0,0,0,,,,,,,,,8/8 Overcast,1000.0,,BKN,1000.0,OVC,9400.0,,,,
KRDR,12-13-2001,19:00,METAR,,180,15.0,,,9999.0,Cloud Development Not Observable,-5.0,-5.0,29.78,1010.6,,,,0,0,0,,,,,,,,,8/8 Overcast,900.0,,BKN,900.0,OVC,9400.0,,,,
KRDR,12-13-2001,18:00,METAR,,170,17.0,,,9999.0,Cloud Development Not Observable,-6.0,-6.0,29.80,1011.3,,,,0,0,0,,,,,,,,,8/8 Overcast,800.0,,BKN,800.0,OVC,9400.0,,,,
KRDR,12-13-2001,17:00,METAR,,160,15.0,,,9999.0,Cloud Development Not Observable,-7.0,-7.0,29.83,1012.5,,,,0,0,0,,,,,,,,,8/8 Overcast,900.0,,BKN,900.0,OVC,9400.0,,,,
KRDR,12-13-2001,16:00,METAR,,160,13.0,,,9999.0,Cloud Development Not Observable,-8.0,-8.0,29.83,1012.4,,,,0,0,0,,,,,,,,,8/8 Overcast,900.0,,BKN,900.0,OVC,9400.0,,,,
KRDR,12-13-2001,15:00,METAR,,160,12.0,,,9999.0,Mist/Cloud Development Not Observable,-10.0,-10.0,29.84,1012.8,,,,10,0,0,,,,,,,,,8/8 Overcast,900.0,,BKN,900.0,OVC,9400.0,,,,
KRDR,12-13-2001,14:39,SPECI,,160,11.0,,,9999.0,Mist/Cloud Development Not Observable,-10.0,-10.0,29.84,,,,,10,0,0,,,,,,,,,8/8 Overcast,900.0,,BKN,900.0,OVC,9400.0,,,,
KRDR,12-13-2001,14:00,METAR,,150,9.0,,,9999.0,Cloud Development Not Observable,-10.0,-10.0,29.85,1013.2,,,,0,0,0,,,,,,,,,8/8 Overcast,600.0,,SCT,200.0,BKN,600.0,OVC,9400.0,,
KRDR,12-13-2001,13:00,METAR,,160,6.0,,,9999.0,Cloud Development Not Observable,-11.0,-11.0,29.88,1014.1,,,,0,0,0,,,,,,,,,8/8 Overcast,600.0,,FEW,200.0,BKN,600.0,OVC,9400.0,,
KRDR,12-13-2001,12:00,METAR,,190,6.0,,,9999.0,Cloud Development Not Observable,-13.0,-13.0,29.89,1014.3,,,,0,0,0,,,,,,,,,8/8 Overcast,600.0,,FEW,200.0,BKN,600.0,OVC,9400.0,,
KRDR,12-13-2001,11:00,METAR,,200,7.0,,,9999.0,Cloud Development Not Observable,-14.0,-14.0,29.91,1015.7,,,,0,0,0,,,,,,,,,8/8 Overcast,500.0,,SCT,200.0,BKN,500.0,OVC,9400.0,,
KRDR,12-13-2001,10:22,SPECI,,200,9.0,,,9999.0,Cloud Development Not Observable,-14.0,-14.0,29.92,,,,,0,0,0,,,,,,,,,7/8 Mostly Cloudy,500.0,,FEW,200.0,BKN,500.0,BKN,9400.0,,
KRDR,12-13-2001,10:00,METAR,,210,8.0,,,9999.0,Cloud Development Not Observable,-14.0,-14.0,29.93,1015.7,,,,0,0,0,,,,,,,,,4/8 Partly Cloudy,72000.0,,SCT,9400.0,,,,,,
KRDR,12-13-2001,09:00,METAR,,210,7.0,,,9999.0,Cloud Development Not Observable,-15.0,-15.0,29.93,1015.7,,,,0,0,0,,,,,,,,,4/8 Partly Cloudy,72000.0,,SCT,9900.0,,,,,,
KRDR,12-13-2001,08:00,METAR,,210,8.0,,,9999.0,Cloud Development Not Observable,-15.0,-15.0,29.95,1016.4,,,,0,0,0,,,,,,,,,4/8 Partly Cloudy,72000.0,,SCT,9900.0,,,,,,
KRDR,12-13-2001,07:00,METAR,,210,6.0,,,9999.0,Cloud Development Not Observable,-16.0,-16.0,29.96,1016.9,,,,0,0,0,,,,,,,,,2/8 Mostly Clear,72000.0,,FEW,9900.0,,,,,,
KRDR,12-13-2001,06:00,METAR,,270,5.0,,,9999.0,Cloud Development Not Observable,-15.0,-15.0,29.97,1017.3,,,,0,0,0,,,,,,,,,Clear,72000.0,,,73000.0,,,,,,
KRDR,12-13-2001,05:00,METAR,,280,7.0,,,9999.0,Cloud Development Not Observable,-14.0,-14.0,29.96,1016.9,,,,0,0,0,,,,,,,,,Clear,72000.0,,,73000.0,,,,,,
KRDR,12-13-2001,04:00,METAR,,280,10.0,,,9999.0,Cloud Development Not Observable,-12.0,-12.0,29.98,1017.3,,,,0,0,0,,,,,,,,,2/8 Mostly Clear,72000.0,,FEW,1500.0,,,,,,
KRDR,12-13-2001,03:42,SPECI,,280,12.0,,,9999.0,Cloud Development Not Observable,-12.0,-12.0,29.98,,,,,0,0,0,,,,,,,,,4/8 Partly Cloudy,72000.0,,SCT,1500.0,,,,,,
KRDR,12-13-2001,03:00,METAR,,290,15.0,,,9999.0,Cloud Development Not Observable,-9.0,-9.0,29.99,1017.6,,,,0,0,0,,,,,,,,,8/8 Overcast,2000.0,,SCT,1100.0,OVC,2000.0,,,,
KRDR,12-13-2001,02:00,METAR,,280,9.0,,,9999.0,Cloud Development Not Observable,-8.0,-8.0,29.99,1017.6,,,,0,0,0,,,,,,,,,8/8 Overcast,2000.0,,SCT,1100.0,OVC,2000.0,,,,
KRDR,12-13-2001,01:00,METAR,,290,13.0,,,9999.0,Cloud Development Not Observable,-8.0,-8.0,29.99,1017.6,,,,0,0,0,,,,,,,,,8/8 Overcast,2000.0,,SCT,1100.0,OVC,2000.0,,,,
KRDR,12-13-2001,00:00,METAR,,300,14.0,,,9999.0,Cloud Development Not Observable,-7.0,-7.0,29.99,1017.7,,,,0,0,0,,,,,,,,,8/8 Overcast,2000.0,,SCT,1100.0,BKN,2000.0,OVC,4000.0,,
KRDR,12-12-2001,23:00,METAR,,290,15.0,,,9999.0,Cloud Development Not Observable,-7.0,-7.0,29.98,1017.2,,,,0,0,0,,,,,,,,,8/8 Overcast,2000.0,,SCT,1100.0,BKN,2000.0,OVC,4000.0,,
KRDR,12-12-2001,22:00,METAR,,290,14.0,,,9999.0,Cloud Development Not Observable,-6.0,-6.0,29.97,1016.9,,,,0,0,0,,,,,,,,,8/8 Overcast,2000.0,,SCT,1200.0,BKN,2000.0,OVC,4000.0,,
KRDR,12-12-2001,21:00,METAR,,280,13.0,,,9999.0,Cloud Development Not Observable,-5.0,-5.0,29.96,1016.5,,,,0,0,0,,,,,,,,,8/8 Overcast,2000.0,,SCT,1200.0,BKN,2000.0,OVC,3500.0,,
KRDR,12-12-2001,20:00,METAR,,290,13.0,,,9999.0,Cloud Development Not Observable,-5.0,-5.0,29.96,1016.5,,,,0,0,0,,,,,,,,,8/8 Overcast,2000.0,,SCT,1200.0,BKN,2000.0,OVC,3500.0,,
KRDR,12-12-2001,19:00,METAR,,290,14.0,,,9999.0,Cloud Development Not Observable,-5.0,-5.0,29.96,1016.4,,,,0,0,0,,,,,,,,,8/8 Overcast,2000.0,,SCT,1200.0,BKN,2000.0,OVC,3500.0,,
KRDR,12-12-2001,18:00,METAR,,290,13.0,,,9999.0,Cloud Development Not Observable,-5.0,-5.0,29.97,1016.7,,,,0,0,0,,,,,,,,,8/8 Overcast,2000.0,,SCT,1200.0,BKN,2000.0,OVC,3500.0,,
KRDR,12-12-2001,17:00,METAR,,290,13.0,,,9999.0,Cloud Development Not Observable,-5.0,-5.0,29.98,1016.7,,,,0,0,0,,,,,,,,,8/8 Overcast,2000.0,,SCT,1200.0,BKN,2000.0,OVC,3500.0,,
KRDR,12-12-2001,16:00,METAR,,290,11.0,,,9999.0,Cloud Development Not Observable,-5.0,-5.0,29.97,1016.7,,,,0,0,0,,,,,,,,,8/8 Overcast,2000.0,,SCT,1200.0,BKN,2000.0,OVC,3500.0,,
KRDR,12-12-2001,15:00,METAR,,290,14.0,,,9999.0,Cloud Development Not Observable,-5.0,-5.0,29.96,1016.2,,,,0,0,0,,,,,,,,,8/8 Overcast,2000.0,,SCT,1200.0,BKN,2000.0,OVC,3500.0,,
KRDR,12-12-2001,14:00,METAR,,170,4.0,,,9999.0,Cloud Development Not Observable,-6.0,-6.0,29.94,,,,,0,0,0,,,,,,,,,8/8 Overcast,2000.0,,SCT,1200.0,BKN,2000.0,OVC,3500.0,,
KRDR,12-12-2001,13:00,METAR,,270,4.0,,,9999.0,Cloud Development Not Observable,-6.0,-6.0,29.93,1015.3,,,,0,0,0,,,,,,,,,8/8 Overcast,2000.0,,BKN,2000.0,OVC,3000.0,,,,
KRDR,12-12-2001,12:00,METAR,,,2.0,,,9999.0,Cloud Development Not Observable,-6.0,-6.0,29.91,1014.4,,,,0,0,0,,,,,,,,,7/8 Mostly Cloudy,2900.0,,SCT,2000.0,BKN,2900.0,,,,
KRDR,12-12-2001,11:16,SPECI,,300,10.0,,,9999.0,Cloud Development Not Observable,-6.0,-6.0,29.89,,,,,0,0,0,,,,,,,,,7/8 Mostly Cloudy,1900.0,,BKN,1900.0,,,,,,
KRDR,12-12-2001,11:00,METAR,,300,9.0,,,9999.0,Cloud Development Not Observable,-5.0,-5.0,29.88,1013.5,,,,0,0,0,,,,,,,,,7/8 Mostly Cloudy,1800.0,,BKN,1800.0,,,,,,
KRDR,12-12-2001,10:00,METAR,,300,12.0,,,9999.0,Cloud Development Not Observable,-4.0,-4.0,29.85,1012.4,,,,0,0,0,,,,,,,,,8/8 Overcast,1200.0,,OVC,1200.0,,,,,,
KRDR,12-12-2001,08:36,SPECI,,270,12.0,,,9999.0,Light Snow/Cloud Development Not Observable,-3.0,-3.0,29.82,,,,,71,0,0,,,,,,,,,8/8 Overcast,1200.0,,BKN,1200.0,OVC,4500.0,,,,
KRDR,12-12-2001,08:14,SPECI,,280,12.0,,,9999.0,Light Snow/Cloud Development Not Observable,-3.0,-3.0,29.81,,,,,71,0,0,,,,,,,,,8/8 Overcast,4500.0,,SCT,1400.0,BKN,4600.0,OVC,6400.0,,
KRDR,12-12-2001,08:00,METAR,,270,12.0,,,9999.0,Light Snow/Cloud Development Not Observable,-3.0,-3.0,29.81,1011.2,,,,71,0,0,,,,,,,,,8/8 Overcast,1200.0,,BKN,1200.0,OVC,4600.0,,,,
KRDR,12-12-2001,07:51,SPECI,,270,12.0,,,9999.0,Light Snow/Cloud Development Not Observable,-3.0,-3.0,29.81,,,,,71,0,0,,,,,,,,,8/8 Overcast,1200.0,,BKN,1200.0,OVC,4600.0,,,,
KRDR,12-12-2001,07:41,SPECI,,270,13.0,,,9999.0,Light Snow/Cloud Development Not Observable,-3.0,-3.0,29.80,,,,,71,0,0,,,,,,,,,8/8 Overcast,4500.0,,SCT,1300.0,OVC,4600.0,,,,
KRDR,12-12-2001,07:00,METAR,,260,15.0,,,9999.0,Light Snow/Cloud Development Not Observable,-2.0,-2.0,29.78,1010.1,,,,71,0,0,,,,,,,,,8/8 Overcast,1500.0,,BKN,1500.0,BKN,2500.0,OVC,4800.0,,
KRDR,12-12-2001,05:12,SPECI,,230,14.0,,,9999.0,Light Snow/Cloud Development Not Observable,-1.0,-1.0,29.74,,,,,71,0,0,,,,,,,,,8/8 Overcast,1400.0,,BKN,1400.0,OVC,2500.0,,,,
KRDR,12-12-2001,04:00,METAR,,220,17.0,,,9999.0,Cloud Development Not Observable,-1.0,-1.0,29.71,1007.8,,,,0,0,0,,,,,,,,,8/8 Overcast,1600.0,,BKN,1600.0,OVC,5900.0,,,,
KRDR,12-12-2001,03:20,METAR,,230,19.0,,,9999.0,Cloud Development Not Observable,-1.0,-1.0,29.70,,,,,0,0,0,,,,,,,,,8/8 Overcast,1500.0,,BKN,1500.0,OVC,5900.0,,,,
KRDR,12-12-2001,03:00,METAR,,220,20.0,,220/25KTS,9999.0,Light Snow/Cloud Development Not Observable,-1.0,-1.0,29.68,1007.0,,,,71,0,0,,,,,,,,,8/8 Overcast,1500.0,,BKN,1500.0,OVC,5900.0,,,,
KRDR,12-12-2001,02:00,METAR,,230,17.0,,,9999.0,Light Snow/Cloud Development Not Observable,1.0,1.0,29.65,1005.9,,,,71,0,0,,,,,,,,,8/8 Overcast,2500.0,,SCT,1600.0,OVC,2500.0,,,,
KRDR,12-12-2001,01:00,METAR,,200,7.0,,,8000.0,Rain/Mist/Cloud Development Not Observable,1.0,1.0,29.63,1004.9,,,,61,10,0,,,,,,,,,8/8 Overcast,2500.0,,SCT,1000.0,BKN,2500.0,OVC,3500.0,,
KRDR,12-12-2001,00:10,SPECI,,190,8.0,,,8000.0,Light Snow/Mist/Cloud Development Not Observable,1.0,1.0,29.62,,,,,71,10,0,,,,,,,,,8/8 Overcast,2500.0,,SCT,1000.0,BKN,2500.0,OVC,3500.0,,
KRDR,12-12-2001,00:00,METAR,,190,8.0,,,8000.0,Mist/Cloud Development Not Observable,1.0,1.0,29.62,1004.9,,,,10,0,0,,,,,,,,,8/8 Overcast,2500.0,,SCT,1000.0,BKN,2500.0,OVC,3500.0,,
KRDR,12-11-2001,23:00,METAR,,140,7.0,,,8000.0,Mist/Cloud Development Not Observable,1.0,1.0,29.63,1005.3,,,,10,0,0,,,,,,,,,8/8 Overcast,2500.0,,SCT,1000.0,BKN,2500.0,OVC,3500.0,,
KRDR,12-11-2001,22:00,METAR,,140,7.0,,,8000.0,Mist/Cloud Development Not Observable,1.0,1.0,29.64,1005.7,,,,10,0,0,,,,,,,,,8/8 Overcast,2500.0,,BKN,2500.0,OVC,4000.0,,,,
KRDR,12-11-2001,21:00,METAR,,140,9.0,,,9999.0,Mist/Cloud Development Not Observable,1.0,1.0,29.63,1005.3,,,,10,0,0,,,,,,,,,8/8 Overcast,2500.0,,BKN,2500.0,OVC,4000.0,,,,
KRDR,12-11-2001,20:00,METAR,,100,5.0,,,9999.0,Mist/Cloud Development Not Observable,1.0,1.0,29.65,1005.9,,,,10,0,0,,,,,,,,,8/8 Overcast,2500.0,,BKN,2500.0,OVC,9900.0,,,,
KRDR,12-11-2001,19:00,METAR,,70,7.0,,,9999.0,Mist/Cloud Development Not Observable,0.0,0.0,29.68,1007.2,,,,10,0,0,,,,,,,,,7/8 Mostly Cloudy,2500.0,,BKN,2500.0,BKN,9900.0,BKN,20000.0,,
KRDR,12-11-2001,18:42,SPECI,,60,8.0,,,9999.0,Mist/Cloud Development Not Observable,-1.0,-1.0,29.68,,,,,10,0,0,,,,,,,,,8/8 Overcast,2500.0,,BKN,2500.0,OVC,9900.0,,,,
KRDR,12-11-2001,18:00,METAR,,340,5.0,,,9999.0,Cloud Development Not Observable,-5.0,-5.0,29.72,1008.7,,,,0,0,0,,,,,,,,,4/8 Partly Cloudy,72000.0,,FEW,8900.0,SCT,20000.0,,,,
KRDR,12-11-2001,17:00,METAR,,20,8.0,,,9999.0,Cloud Development Not Observable,-7.0,-7.0,29.77,1010.4,,,,0,0,0,,,,,,,,,4/8 Partly Cloudy,72000.0,,FEW,8900.0,SCT,20000.0,,,,
KRDR,12-11-2001,16:00,METAR,,360,7.0,,,9999.0,Mist/Cloud Development Not Observable,-10.0,-10.0,29.80,1011.7,,,,10,0,0,,,,,,,,,4/8 Partly Cloudy,72000.0,,FEW,8900.0,SCT,20000.0,,,,
KRDR,12-11-2001,15:00,METAR,,350,5.0,,,8000.0,Mist/Cloud Development Not Observable,-12.0,-12.0,29.84,1013.2,,,,10,0,0,,,,,,,,,7/8 Mostly Cloudy,20000.0,,FEW,1000.0,SCT,8900.0,BKN,20000.0,,
KRDR,12-11-2001,14:00,METAR,,310,7.0,,,9999.0,Cloud Development Not Observable,-12.0,-12.0,29.89,1014.6,,,,0,0,0,,,,,,,,,7/8 Mostly Cloudy,20000.0,,FEW,1000.0,SCT,8900.0,BKN,20000.0,,
KRDR,12-11-2001,13:00,METAR,,320,5.0,,,9999.0,Cloud Development Not Observable,-13.0,-13.0,29.92,1015.7,,,,0,0,0,,,,,,,,,7/8 Mostly Cloudy,20000.0,,FEW,1000.0,BKN,20000.0,,,,
KRDR,12-11-2001,12:00,METAR,,50,5.0,,,9999.0,Cloud Development Not Observable,-10.0,-11.0,29.95,1016.4,,,,0,0,0,,,,,,,,,7/8 Mostly Cloudy,20000.0,,BKN,20000.0,,,,,,
KRDR,12-11-2001,11:00,METAR,,,3.0,,,9999.0,Cloud Development Not Observable,-12.0,-14.0,29.97,1017.2,,,,0,0,0,,,,,,,,,7/8 Mostly Cloudy,20000.0,,BKN,20000.0,,,,,,
KRDR,12-11-2001,10:00,METAR,,,3.0,,,9999.0,Cloud Development Not Observable,-11.0,-12.0,30.01,,,,,0,0,0,,,,,,,,,7/8 Mostly Cloudy,100.0,,BKN,100.0,,,,,,
KRDR,12-11-2001,09:28,SPECI,,,3.0,,,9999.0,Cloud Development Not Observable,-11.0,-13.0,30.03,,,,,0,0,0,,,,,,,,,8/8 Overcast,200.0,,BKN,0.0,OVC,200.0,,,,
KRDR,12-11-2001,09:23,SPECI,,,3.0,,,9999.0,Cloud Development Not Observable,-11.0,-13.0,30.03,,,,,0,0,0,,,,,,,,,8/8 Overcast,200.0,,SCT,100.0,OVC,200.0,,,,
KRDR,12-11-2001,09:20,METAR,,,4.0,,,9999.0,Cloud Development Not Observable,-11.0,-13.0,30.03,,,,,0,0,0,,,,,,,,,8/8 Overcast,8000.0,,SCT,200.0,SCT,800.0,BKN,7900.0,OVC,20000.0
KRDR,12-11-2001,09:00,METAR,,,2.0,,,9999.0,Cloud Development Not Observable,-12.0,-13.0,30.04,1019.4,,,,0,0,0,,,,,,,,,7/8 Mostly Cloudy,20000.0,,FEW,7900.0,BKN,20000.0,,,,
KRDR,12-11-2001,08:00,METAR,,210,1.0,,,9999.0,Cloud Development Not Observable,-12.0,-12.0,30.04,1019.6,,,,0,0,0,,,,,,,,,7/8 Mostly Cloudy,20000.0,,SCT,7900.0,BKN,20000.0,,,,
KRDR,12-11-2001,07:00,METAR,,200,3.0,,,9999.0,Cloud Development Not Observable,-12.0,-12.0,30.09,1021.2,,,,0,0,0,,,,,,,,,7/8 Mostly Cloudy,20000.0,,FEW,6900.0,BKN,20000.0,,,,
KRDR,12-11-2001,05:00,METAR,,190,7.0,,,9999.0,Mist/Cloud Development Not Observable,-15.0,-15.0,30.09,,,,,10,0,0,,,,,,,,,4/8 Partly Cloudy,72000.0,,SCT,200.0,,,,,,
KRDR,12-11-2001,04:18,SPECI,,190,5.0,,,8000.0,Mist/Cloud Development Not Observable,-15.0,-15.0,30.08,,,,,10,0,0,,,,,,,,,4/8 Partly Cloudy,72000.0,,SCT,100.0,,,,,,
KRDR,12-11-2001,04:02,SPECI,,200,6.0,,,8000.0,Fog with Rime/Cloud Development Not Observable,-15.0,-15.0,30.09,,,,,48,0,0,,,,,,,,,7/8 Mostly Cloudy,72000.0,,BKN,0.0,,,,,,
KRDR,12-11-2001,04:00,METAR,,200,6.0,,,9999.0,Fog with Rime/Cloud Development Not Observable,-15.0,-15.0,30.09,1021.1,,,,48,0,0,,,,,,,,,7/8 Mostly Cloudy,72000.0,,BKN,0.0,,,,,,
KRDR,12-11-2001,03:40,SPECI,,210,6.0,,,100.0,Cloud Development Not Observable,-16.0,-16.0,30.09,,,,,0,0,0,,,,,,,,,Sky Obscured (Unable to Estimate),0.0,100.0,,0.0,,,,,,
KRDR,12-11-2001,03:32,SPECI,,210,5.0,,,9999.0,Cloud Development Not Observable,-15.0,-15.0,30.09,,,,,0,0,0,,,,,,,,,8/8 Overcast,100.0,,OVC,100.0,,,,,,
KRDR,12-11-2001,03:21,SPECI,,210,4.0,,,9999.0,Cloud Development Not Observable,-15.0,-15.0,30.09,,,,,0,0,0,,,,,,,,,7/8 Mostly Cloudy,7000.0,,SCT,100.0,SCT,600.0,BKN,6900.0,,
KRDR,12-11-2001,03:00,METAR,,200,5.0,,,9999.0,Cloud Development Not Observable,-15.0,-15.0,30.09,1021.2,,,,0,0,0,,,,,,,,,2/8 Mostly Clear,72000.0,,FEW,6900.0,,,,,,
KRDR,12-11-2001,02:00,METAR,,190,4.0,,,9999.0,Cloud Development Not Observable,-14.0,-14.0,30.09,1021.3,,,,0,0,0,,,,,,,,,Clear,72000.0,,,73000.0,,,,,,
KRDR,12-11-2001,00:00,METAR,,140,5.0,,,9999.0,Cloud Development Not Observable,-10.0,-10.0,30.10,1021.4,,,,0,0,0,,,,,,,,,2/8 Mostly Clear,72000.0,,FEW,20000.0,,,,,,
KRDR,12-10-2001,23:00,METAR,,170,5.0,,,9999.0,Cloud Development Not Observable,-7.0,-7.0,30.09,1020.6,,,,0,0,0,,,,,,,,,2/8 Mostly Clear,72000.0,,FEW,20000.0,,,,,,
KRDR,12-10-2001,22:00,METAR,,,4.0,,,9999.0,Cloud Development Not Observable,-5.0,-7.0,30.09,1020.6,,,,0,0,0,,,,,,,,,2/8 Mostly Clear,72000.0,,FEW,20000.0,,,,,,
KRDR,12-10-2001,21:00,METAR,,,5.0,,,9999.0,Cloud Development Not Observable,-4.0,-7.0,30.09,1020.5,,,,0,0,0,,,,,,,,,2/8 Mostly Clear,72000.0,,FEW,20000.0,,,,,,
KRDR,12-10-2001,20:00,METAR,,340,5.0,,,9999.0,Cloud Development Not Observable,-5.0,-8.0,30.08,1020.2,,,,0,0,0,,,,,,,,,2/8 Mostly Clear,72000.0,,FEW,20000.0,,,,,,
KRDR,12-10-2001,19:00,METAR,,310,8.0,,,9999.0,Cloud Development Not Observable,-5.0,-8.0,30.08,1020.2,,,,0,0,0,,,,,,,,,2/8 Mostly Clear,72000.0,,FEW,15000.0,FEW,20000.0,,,,
KRDR,12-10-2001,18:00,METAR,,300,11.0,,,9999.0,Cloud Development Not Observable,-6.0,-8.0,30.06,1019.7,,,,0,0,0,,,,,,,,,4/8 Partly Cloudy,72000.0,,SCT,1000.0,SCT,15000.0,,,,
KRDR,12-10-2001,17:20,METAR,,300,12.0,,,9999.0,Cloud Development Not Observable,-6.0,-8.0,30.06,,,,,0,0,0,,,,,,,,,4/8 Partly Cloudy,72000.0,,SCT,1000.0,SCT,15000.0,,,,
KRDR,12-10-2001,17:00,METAR,,300,14.0,,,9999.0,Cloud Development Not Observable,-6.0,-8.0,30.05,1019.4,,,,0,0,0,,,,,,,,,7/8 Mostly Cloudy,1000.0,,BKN,1000.0,,,,,,
KRDR,12-10-2001,16:00,METAR,,300,16.0,,,9999.0,Cloud Development Not Observable,-6.0,-8.0,30.04,1018.9,,,,0,0,0,,,,,,,,,8/8 Overcast,2000.0,,SCT,900.0,BKN,2000.0,OVC,15000.0,,
KRDR,12-10-2001,15:00,METAR,,300,14.0,,,9999.0,Cloud Development Not Observable,-7.0,-8.0,30.00,1017.6,,,,0,0,0,,,,,,,,,7/8 Mostly Cloudy,2000.0,,FEW,900.0,BKN,2000.0,BKN,15000.0,,
KRDR,12-10-2001,14:29,SPECI,,300,13.0,,,9999.0,Cloud Development Not Observable,-7.0,-8.0,29.99,,,,,0,0,0,,,,,,,,,7/8 Mostly Cloudy,1500.0,,BKN,1500.0,BKN,15000.0,,,,
KRDR,12-10-2001,14:00,METAR,,300,13.0,,,9999.0,Cloud Development Not Observable,-6.0,-8.0,29.98,1016.8,,,,0,0,0,,,,,,,,,4/8 Partly Cloudy,72000.0,,FEW,1500.0,SCT,15000.0,,,,
KRDR,12-10-2001,13:00,METAR,,310,13.0,,,9999.0,Cloud Development Not Observable,-5.0,-5.0,29.96,1016.0,,,,0,0,0,,,,,,,,,2/8 Mostly Clear,72000.0,,FEW,15000.0,,,,,,
KRDR,12-10-2001,12:00,METAR,,290,18.0,,,9999.0,Cloud Development Not Observable,-3.0,-4.0,29.91,1014.4,,,,0,0,0,,,,,,,,,2/8 Mostly Clear,72000.0,,FEW,15000.0,,,,,,
KRDR,12-10-2001,11:00,METAR,,290,17.0,,270/25KTS,9999.0,Cloud Development Not Observable,-2.0,-3.0,29.87,1013.2,,,,0,0,0,,,,,,,,,4/8 Partly Cloudy,72000.0,,SCT,15000.0,,,,,,
KRDR,12-10-2001,10:00,METAR,,290,17.0,,,9999.0,Cloud Development Not Observable,-1.0,-2.0,29.85,1012.4,,,,0,0,0,,,,,,,,,7/8 Mostly Cloudy,15000.0,,BKN,15000.0,,,,,,
KRDR,12-10-2001,08:00,METAR,,290,17.0,,,9999.0,Cloud Development Not Observable,1.0,0.0,29.81,1010.8,,,,0,0,0,,,,,,,,,4/8 Partly Cloudy,72000.0,,SCT,15000.0,,,,,,
KRDR,12-10-2001,07:00,METAR,,280,12.0,,,9999.0,Cloud Development Not Observable,1.0,1.0,29.78,1009.8,,,,0,0,0,,,,,,,,,4/8 Partly Cloudy,72000.0,,SCT,15000.0,,,,,,
KRDR,12-10-2001,06:00,METAR,,280,10.0,,,9999.0,Cloud Development Not Observable,2.0,1.0,29.77,1009.4,,,,0,0,0,,,,,,,,,4/8 Partly Cloudy,72000.0,,SCT,15000.0,,,,,,
KRDR,12-10-2001,05:00,METAR,,290,18.0,,,9999.0,Cloud Development Not Observable,3.0,2.0,29.74,1008.6,,,,0,0,0,,,,,,,,,7/8 Mostly Cloudy,15000.0,,BKN,15000.0,,,,,,
KRDR,12-10-2001,04:00,METAR,,290,22.0,,280/25KTS,9999.0,Cloud Development Not Observable,3.0,2.0,29.73,1008.0,,,,0,0,0,,,,,,,,,7/8 Mostly Cloudy,15000.0,,BKN,15000.0,BKN,25000.0,,,,
KRDR,12-10-2001,03:00,METAR,,280,14.0,,,9999.0,Cloud Development Not Observable,4.0,2.0,29.70,1007.2,,,,0,0,0,,,,,,,,,7/8 Mostly Cloudy,15000.0,,BKN,15000.0,BKN,25000.0,,,,
KRDR,12-10-2001,02:00,METAR,,270,10.0,,,9999.0,Cloud Development Not Observable,4.0,1.0,29.67,1006.2,,,,0,0,0,,,,,,,,,7/8 Mostly Cloudy,15000.0,,BKN,15000.0,BKN,25000.0,,,,
KRDR,12-10-2001,01:00,METAR,,270,12.0,,,9999.0,Cloud Development Not Observable,4.0,2.0,29.64,1005.4,,,,0,0,0,,,,,,,,,7/8 Mostly Cloudy,25000.0,,SCT,15000.0,BKN,25000.0,,,,
KRDR,12-10-2001,00:00,METAR,,220,10.0,,,9999.0,Cloud Development Not Observable,2.0,2.0,29.62,1004.7,,,,0,0,0,,,,,,,,,7/8 Mostly Cloudy,25000.0,,SCT,15000.0,BKN,25000.0,,,,
KRDR,12-09-2001,23:00,METAR,,210,10.0,,,9999.0,Cloud Development Not Observable,3.0,3.0,29.62,1004.5,,,,0,0,0,,,,,,,,,7/8 Mostly Cloudy,25000.0,,SCT,15000.0,BKN,25000.0,,,,
KRDR,12-09-2001,22:00,METAR,,210,10.0,,,9999.0,Cloud Development Not Observable,4.0,3.0,29.61,1004.1,,,,0,0,0,,,,,,,,,7/8 Mostly Cloudy,25000.0,,SCT,15000.0,BKN,25000.0,,,,
KRDR,12-09-2001,21:00,METAR,,170,11.0,,,9999.0,Cloud Development Not Observable,3.0,3.0,29.59,1003.7,,,,0,0,0,,,,,,,,,7/8 Mostly Cloudy,25000.0,,SCT,15000.0,BKN,25000.0,,,,
KRDR,12-09-2001,20:00,METAR,,170,10.0,,,9999.0,Cloud Development Not Observable,3.0,2.0,29.60,1004.0,,,,0,0,0,,,,,,,,,7/8 Mostly Cloudy,15000.0,,BKN,15000.0,BKN,25000.0,,,,
KRDR,12-09-2001,19:00,METAR,,160,10.0,,,9999.0,Cloud Development Not Observable,2.0,2.0,29.60,1004.0,,,,0,0,0,,,,,,,,,7/8 Mostly Cloudy,25000.0,,SCT,15000.0,BKN,25000.0,,,,
KRDR,12-09-2001,18:00,METAR,,170,13.0,,,9999.0,Cloud Development Not Observable,1.0,0.0,29.62,1004.6,,,,0,0,0,,,,,,,,,4/8 Partly Cloudy,72000.0,,FEW,15000.0,SCT,25000.0,,,,
KRDR,12-09-2001,17:00,METAR,,170,10.0,,,9999.0,Cloud Development Not Observable,0.0,-1.0,29.64,1005.6,,,,0,0,0,,,,,,,,,4/8 Partly Cloudy,72000.0,,FEW,15000.0,SCT,25000.0,,,,
KRDR,12-09-2001,16:00,METAR,,180,12.0,,,9999.0,Cloud Development Not Observable,-2.0,-2.0,29.64,1005.5,,,,0,0,0,,,,,,,,,2/8 Mostly Clear,72000.0,,FEW,25000.0,,,,,,
KRDR,12-09-2001,15:33,SPECI,,170,14.0,,,9999.0,Cloud Development Not Observable,-2.0,-3.0,29.64,,,,,0,0,0,,,,,,,,,2/8 Mostly Clear,72000.0,,FEW,25000.0,,,,,,
KRDR,12-09-2001,15:00,METAR,,170,10.0,,,9999.0,Cloud Development Not Observable,-4.0,-4.0,29.64,1005.8,,,,0,0,0,,,,,,,,,2/8 Mostly Clear,72000.0,,FEW,25000.0,,,,,,
KRDR,12-09-2001,14:19,SPECI,,150,9.0,,,9999.0,Cloud Development Not Observable,-5.0,-5.0,29.64,,,,,0,0,0,,,,,,,,,Clear,72000.0,,,73000.0,,,,,,
KRDR,12-09-2001,14:00,METAR,,150,8.0,,,9999.0,Cloud Development Not Observable,-5.0,-5.0,29.66,1006.5,,,,0,0,0,,,,,,,,,Clear,72000.0,,,73000.0,,,,,,
KRDR,12-09-2001,13:00,METAR,,180,10.0,,,9999.0,Cloud Development Not Observable,-6.0,-6.0,29.67,1006.7,,,,0,0,0,,,,,,,,,Clear,72000.0,,,73000.0,,,,,,
KRDR,12-09-2001,12:00,METAR,,170,12.0,,,9999.0,Cloud Development Not Observable,-6.0,-6.0,29.69,1007.4,,,,0,0,0,,,,,,,,,Clear,72000.0,,,73000.0,,,,,,
KRDR,12-09-2001,11:00,METAR,,170,9.0,,,9999.0,Cloud Development Not Observable,-6.0,-6.0,29.71,1008.1,,,,0,0,0,,,,,,,,,Clear,72000.0,,,73000.0,,,,,,
KRDR,12-09-2001,10:00,METAR,,170,12.0,,,9999.0,Cloud Development Not Observable,-7.0,-7.0,29.74,1009.0,,,,0,0,0,,,,,,,,,,72000.0,,,,,,,,,
KRDR,12-09-2001,09:00,METAR,,160,9.0,,,9999.0,Cloud Development Not Observable,-8.0,-8.0,29.76,1009.7,,,,0,0,0,,,,,,,,,4/8 Partly Cloudy,72000.0,,SCT,25000.0,,,,,,
KRDR,12-09-2001,08:00,METAR,,170,13.0,,,9999.0,Cloud Development Not Observable,-7.0,-7.0,29.78,1010.6,,,,0,0,0,,,,,,,,,4/8 Partly Cloudy,72000.0,,SCT,25000.0,,,,,,
KRDR,12-09-2001,07:00,METAR,,190,14.0,,,9999.0,Cloud Development Not Observable,-6.0,-6.0,29.81,1011.4,,,,0,0,0,,,,,,,,,7/8 Mostly Cloudy,25000.0,,BKN,25000.0,,,,,,
KRDR,12-09-2001,06:00,METAR,,180,13.0,,,9999.0,Cloud Development Not Observable,-7.0,-7.0,29.83,1012.4,,,,0,0,0,,,,,,,,,7/8 Mostly Cloudy,25000.0,,BKN,25000.0,,,,,,
KRDR,12-09-2001,05:00,METAR,,180,13.0,,,9999.0,Cloud Development Not Observable,-8.0,-8.0,29.85,1013.3,,,,0,0,0,,,,,,,,,4/8 Partly Cloudy,72000.0,,SCT,25000.0,,,,,,
KRDR,12-09-2001,04:00,METAR,,180,15.0,,,9999.0,Cloud Development Not Observable,-8.0,-8.0,29.88,1014.1,,,,0,0,0,,,,,,,,,7/8 Mostly Cloudy,25000.0,,BKN,25000.0,,,,,,
KRDR,12-09-2001,03:00,METAR,,180,16.0,,,9999.0,Cloud Development Not Observable,-8.0,-8.0,29.91,1015.3,,,,0,0,0,,,,,,,,,7/8 Mostly Cloudy,25000.0,,BKN,25000.0,,,,,,
KRDR,12-09-2001,02:00,METAR,,180,16.0,,,9999.0,Cloud Development Not Observable,-8.0,-8.0,29.94,1016.2,,,,0,0,0,,,,,,,,,7/8 Mostly Cloudy,25000.0,,BKN,25000.0,,,,,,
KRDR,12-09-2001,01:00,METAR,,170,15.0,,,9999.0,Cloud Development Not Observable,-8.0,-8.0,29.97,1017.3,,,,0,0,0,,,,,,,,,7/8 Mostly Cloudy,25000.0,,FEW,12000.0,BKN,25000.0,,,,
KRDR,12-09-2001,00:00,METAR,,180,15.0,,,9999.0,Cloud Development Not Observable,-9.0,-9.0,30.01,1018.8,,,,0,0,0,,,,,,,,,7/8 Mostly Cloudy,25000.0,,FEW,12000.0,BKN,25000.0,,,,
KRDR,12-08-2001,23:00,METAR,,160,15.0,,,9999.0,Cloud Development Not Observable,-9.0,-9.0,30.01,1018.6,,,,0,0,0,,,,,,,,,7/8 Mostly Cloudy,25000.0,,FEW,12000.0,BKN,25000.0,,,,
KRDR,12-08-2001,22:00,METAR,,170,16.0,,,9999.0,Cloud Development Not Observable,-8.0,-8.0,30.03,1019.2,,,,0,0,0,,,,,,,,,7/8 Mostly Cloudy,25000.0,,FEW,12000.0,BKN,25000.0,,,,
KRDR,12-08-2001,21:00,METAR,,170,16.0,,,9999.0,Cloud Development Not Observable,-7.0,-8.0,30.05,1019.9,,,,0,0,0,,,,,,,,,7/8 Mostly Cloudy,25000.0,,FEW,12000.0,BKN,25000.0,,,,
KRDR,12-08-2001,20:00,METAR,,150,10.0,,,9999.0,Cloud Development Not Observable,-8.0,-8.0,30.10,1022.8,,,,0,0,0,,,,,,,,,7/8 Mostly Cloudy,25000.0,,SCT,12000.0,BKN,25000.0,,,,
KRDR,12-08-2001,19:00,METAR,,170,10.0,,,9999.0,Cloud Development Not Observable,-9.0,-9.0,30.14,1022.8,,,,0,0,0,,,,,,,,,4/8 Partly Cloudy,72000.0,,FEW,9900.0,SCT,25000.0,,,,
KRDR,12-08-2001,18:00,METAR,,200,6.0,,,9999.0,Cloud Development Not Observable,-10.0,-10.0,30.16,1023.5,,,,0,0,0,,,,,,,,,2/8 Mostly Clear,72000.0,,FEW,25000.0,,,,,,
KRDR,12-08-2001,17:00,METAR,,190,6.0,,,9999.0,Cloud Development Not Observable,-12.0,-12.0,30.21,1025.4,,,,0,0,0,,,,,,,,,2/8 Mostly Clear,72000.0,,FEW,25000.0,,,,,,
KRDR,12-08-2001,16:00,METAR,,290,6.0,,,9999.0,Cloud Development Not Observable,-13.0,-13.0,30.22,1025.7,,,,0,0,0,,,,,,,,,2/8 Mostly Clear,72000.0,,FEW,25000.0,,,,,,
KRDR,12-08-2001,15:00,METAR,,,2.0,,,9999.0,Cloud Development Not Observable,-14.0,-14.0,30.22,1025.9,,,,0,0,0,,,,,,,,,2/8 Mostly Clear,72000.0,,FEW,25000.0,,,,,,
KRDR,12-08-2001,14:00,METAR,,270,7.0,,,9999.0,Cloud Development Not Observable,-14.0,-14.0,30.21,1025.5,,,,0,0,0,,,,,,,,,Clear,72000.0,,,73000.0,,,,,,
KRDR,12-08-2001,13:00,METAR,,270,10.0,,,9999.0,Cloud Development Not Observable,-13.0,-13.0,30.18,1024.6,,,,0,0,0,,,,,,,,,Clear,72000.0,,,73000.0,,,,,,
KRDR,12-08-2001,12:00,METAR,,270,9.0,,,9999.0,Cloud Development Not Observable,-13.0,-13.0,30.18,1024.3,,,,0,0,0,,,,,,,,,Clear,72000.0,,,73000.0,,,,,,
KRDR,12-08-2001,11:00,METAR,,280,10.0,,,9999.0,Cloud Development Not Observable,-11.0,-11.0,30.19,1024.5,,,,0,0,0,,,,,,,,,4/8 Partly Cloudy,72000.0,,FEW,1900.0,SCT,9900.0,,,,
KRDR,12-08-2001,10:04,SPECI,,300,10.0,,,9999.0,Cloud Development Not Observable,-9.0,-9.0,30.19,,,,,0,0,0,,,,,,,,,7/8 Mostly Cloudy,10000.0,,SCT,1900.0,BKN,9900.0,,,,
KRDR,12-08-2001,10:00,METAR,,290,9.0,,,9999.0,Light Snow/Cloud Development Not Observable,-9.0,-9.0,30.19,1024.4,,,,71,0,0,,,,,,,,,7/8 Mostly Cloudy,1900.0,,BKN,1900.0,BKN,9900.0,,,,
KRDR,12-08-2001,09:00,METAR,,290,11.0,,,9999.0,Light Snow/Cloud Development Not Observable,-9.0,-9.0,30.18,1024.2,,,,71,0,0,,,,,,,,,7/8 Mostly Cloudy,1900.0,,BKN,1900.0,BKN,9900.0,,,,
KRDR,12-08-2001,08:00,METAR,,290,11.0,,,9999.0,Light Snow/Cloud Development Not Observable,-10.0,-10.0,30.16,1023.5,,,,71,0,0,,,,,,,,,7/8 Mostly Cloudy,1700.0,,BKN,1700.0,BKN,9900.0,,,,
KRDR,12-08-2001,07:47,SPECI,,290,12.0,,,9999.0,Light Snow/Cloud Development Not Observable,-10.0,-10.0,30.16,,,,,71,0,0,,,,,,,,,7/8 Mostly Cloudy,1700.0,,BKN,1700.0,BKN,9900.0,,,,
KRDR,12-08-2001,07:00,METAR,,300,12.0,,,9999.0,Cloud Development Not Observable,-10.0,-10.0,30.16,1023.4,,,,0,0,0,,,,,,,,,4/8 Partly Cloudy,72000.0,,FEW,1900.0,SCT,12000.0,,,,
KRDR,12-08-2001,06:44,SPECI,,300,11.0,,,9999.0,Cloud Development Not Observable,-10.0,-10.0,30.16,,,,,0,0,0,,,,,,,,,4/8 Partly Cloudy,72000.0,,SCT,1900.0,SCT,6900.0,SCT,12000.0,,
KRDR,12-08-2001,06:08,SPECI,,310,13.0,,,9999.0,Cloud Development Not Observable,-10.0,-10.0,30.14,,,,,0,0,0,,,,,,,,,7/8 Mostly Cloudy,1900.0,,BKN,1900.0,BKN,12000.0,,,,
KRDR,12-08-2001,06:00,METAR,,310,13.0,,,9999.0,Cloud Development Not Observable,-9.0,-9.0,30.14,1022.7,,,,0,0,0,,,,,,,,,7/8 Mostly Cloudy,10000.0,,SCT,1900.0,SCT,6900.0,BKN,9900.0,,
KRDR,12-08-2001,05:00,METAR,,300,12.0,,,9999.0,Cloud Development Not Observable,-9.0,-9.0,30.11,1021.7,,,,0,0,0,,,,,,,,,4/8 Partly Cloudy,72000.0,,SCT,6900.0,SCT,9900.0,,,,
KRDR,12-08-2001,04:00,METAR,,300,11.0,,,9999.0,Cloud Development Not Observable,-8.0,-8.0,30.09,1020.9,,,,0,0,0,,,,,,,,,7/8 Mostly Cloudy,10000.0,,SCT,6900.0,BKN,9900.0,,,,
KRDR,12-08-2001,03:00,METAR,,280,6.0,,,9999.0,Cloud Development Not Observable,-10.0,-10.0,30.07,1020.5,,,,0,0,0,,,,,,,,,7/8 Mostly Cloudy,10000.0,,SCT,6900.0,BKN,9900.0,,,,
KRDR,12-08-2001,02:00,METAR,,220,8.0,,,8000.0,Mist/Cloud Development Not Observable,-10.0,-10.0,30.06,1020.4,,,,10,0,0,,,,,,,,,7/8 Mostly Cloudy,12000.0,,SCT,6900.0,BKN,12000.0,,,,
KRDR,12-08-2001,01:00,METAR,,180,10.0,,,9999.0,Cloud Development Not Observable,-9.0,-9.0,30.06,1020.4,,,,0,0,0,,,,,,,,,7/8 Mostly Cloudy,7000.0,,FEW,1100.0,BKN,6900.0,BKN,12000.0,,
KRDR,12-08-2001,00:00,METAR,,200,5.0,,,9999.0,Cloud Development Not Observable,-8.0,-8.0,30.10,1021.3,,,,0,0,0,,,,,,,,,7/8 Mostly Cloudy,7000.0,,SCT,1100.0,BKN,6900.0,BKN,12000.0,,
KRDR,12-07-2001,23:00,METAR,,200,5.0,,,9999.0,Cloud Development Not Observable,-6.0,-6.0,30.08,1020.6,,,,0,0,0,,,,,,,,,2/8 Mostly Clear,72000.0,,FEW,6900.0,FEW,25000.0,,,,
KRDR,12-07-2001,22:00,METAR,,180,9.0,,,9999.0,Cloud Development Not Observable,-5.0,-5.0,30.05,1019.9,,,,0,0,0,,,,,,,,,4/8 Partly Cloudy,72000.0,,FEW,6900.0,SCT,25000.0,,,,
KRDR,12-07-2001,21:00,METAR,,180,10.0,,,9999.0,Cloud Development Not Observable,-4.0,-4.0,30.05,1019.9,,,,0,0,0,,,,,,,,,7/8 Mostly Cloudy,7000.0,,BKN,6900.0,BKN,12000.0,,,,
KRDR,12-07-2001,20:00,METAR,,190,11.0,,,9999.0,Cloud Development Not Observable,-4.0,-4.0,30.05,1019.9,,,,0,0,0,,,,,,,,,7/8 Mostly Cloudy,6000.0,,BKN,5900.0,BKN,12000.0,,,,
KRDR,12-07-2001,19:00,METAR,,190,9.0,,,9999.0,Cloud Development Not Observable,-5.0,-5.0,30.08,1020.6,,,,0,0,0,,,,,,,,,8/8 Overcast,4900.0,,OVC,5000.0,,,,,,
KRDR,12-07-2001,18:00,METAR,,190,10.0,,,9999.0,Cloud Development Not Observable,-6.0,-6.0,30.09,1021.0,,,,0,0,0,,,,,,,,,8/8 Overcast,4400.0,,BKN,4500.0,OVC,6900.0,,,,
KRDR,12-07-2001,17:17,SPECI,,160,9.0,,,9999.0,Cloud Development Not Observable,-7.0,-7.0,30.09,,,,,0,0,0,,,,,,,,,8/8 Overcast,4400.0,,BKN,4500.0,OVC,6900.0,,,,
KRDR,12-07-2001,17:00,METAR,,160,8.0,,,9999.0,Cloud Development Not Observable,-7.0,-7.0,30.10,1021.3,,,,0,0,0,,,,,,,,,8/8 Overcast,4400.0,,BKN,4500.0,OVC,6900.0,,,,
KRDR,12-07-2001,16:31,SPECI,,160,7.0,,,9999.0,Cloud Development Not Observable,-7.0,-7.0,30.10,,,,,0,0,0,,,,,,,,,8/8 Overcast,4400.0,,FEW,1500.0,BKN,4500.0,OVC,6900.0,,
KRDR,12-07-2001,16:00,METAR,,140,5.0,,,4800.0,Light Snow/Mist/Cloud Development Not Observable,-7.0,-7.0,30.10,1021.3,,,,71,10,0,,,,,,,,,8/8 Overcast,1800.0,,BKN,1800.0,OVC,6900.0,,,,
KRDR,12-07-2001,15:26,SPECI,,150,4.0,,,3200.0,Light Snow/Mist/Cloud Development Not Observable,-7.0,-7.0,30.10,,,,,71,10,0,,,,,,,,,8/8 Overcast,1000.0,,BKN,1000.0,OVC,6900.0,,,,
KRDR,12-07-2001,15:00,METAR,,120,4.0,,,4800.0,Mist/Cloud Development Not Observable,-8.0,-8.0,30.10,1021.3,,,,10,0,0,,,,,,,,,8/8 Overcast,1000.0,,BKN,1000.0,OVC,6900.0,,,,
KRDR,12-07-2001,14:22,SPECI,,130,5.0,,,4800.0,Mist/Cloud Development Not Observable,-8.0,-8.0,30.10,,,,,10,0,0,,,,,,,,,8/8 Overcast,1000.0,,BKN,1000.0,OVC,6900.0,,,,
KRDR,12-07-2001,14:00,METAR,,110,5.0,,,4800.0,Mist/Cloud Development Not Observable,-8.0,-8.0,30.09,1020.9,,,,10,0,0,,,,,,,,,8/8 Overcast,400.0,,BKN,400.0,OVC,6900.0,,,,
KRDR,12-07-2001,13:00,METAR,,,1.0,,,8000.0,Mist/Cloud Development Not Observable,-9.0,-9.0,30.09,1021.2,,,,10,0,0,,,,,,,,,8/8 Overcast,400.0,,OVC,400.0,,,,,,
KRDR,12-07-2001,12:00,METAR,,220,5.0,,,8000.0,Mist/Cloud Development Not Observable,-9.0,-9.0,30.09,1021.2,,,,10,0,0,,,,,,,,,8/8 Overcast,400.0,,OVC,400.0,,,,,,
KRDR,12-07-2001,11:00,METAR,,130,6.0,,,8000.0,Mist/Cloud Development Not Observable,-9.0,-9.0,30.08,1020.8,,,,10,0,0,,,,,,,,,8/8 Overcast,400.0,,OVC,400.0,,,,,,
KRDR,12-07-2001,10:25,METAR,,140,4.0,,,8000.0,Mist/Cloud Development Not Observable,-9.0,-9.0,30.08,,,,,10,0,0,,,,,,,,,8/8 Overcast,400.0,,OVC,400.0,,,,,,
KRDR,12-07-2001,10:00,METAR,,140,4.0,,,8000.0,Mist/Cloud Development Not Observable,-10.0,-10.0,30.08,1020.6,,,,10,0,0,,,,,,,,,8/8 Overcast,600.0,,OVC,600.0,,,,,,
KRDR,12-07-2001,09:00,METAR,,180,5.0,,,8000.0,Mist/Cloud Development Not Observable,-11.0,-11.0,30.09,1021.0,,,,10,0,0,,,,,,,,,8/8 Overcast,700.0,,OVC,700.0,,,,,,
KRDR,12-07-2001,08:00,METAR,,180,5.0,,,6400.0,Mist/Cloud Development Not Observable,-13.0,-13.0,30.06,1020.4,,,,10,0,0,,,,,,,,,8/8 Overcast,800.0,,OVC,800.0,,,,,,
KRDR,12-07-2001,07:47,SPECI,,180,5.0,,,6400.0,Mist/Cloud Development Not Observable,-13.0,-13.0,30.06,,,,,10,0,0,,,,,,,,,8/8 Overcast,800.0,,OVC,800.0,,,,,,
KRDR,12-07-2001,07:39,SPECI,,160,5.0,,,3200.0,Mist/Cloud Development Not Observable,-13.0,-13.0,30.06,,,,,10,0,0,,,,,,,,,8/8 Overcast,700.0,,BKN,700.0,OVC,1800.0,,,,
KRDR,12-07-2001,07:17,SPECI,,200,5.0,,,4800.0,Mist/Cloud Development Not Observable,-13.0,-13.0,30.05,,,,,10,0,0,,,,,,,,,8/8 Overcast,700.0,,BKN,700.0,OVC,1800.0,,,,
KRDR,12-07-2001,07:00,METAR,,150,6.0,,,2400.0,Mist/Cloud Development Not Observable,-11.0,-11.0,30.05,1020.0,,,,10,0,0,,,,,,,,,8/8 Overcast,700.0,,BKN,700.0,OVC,1800.0,,,,
KRDR,12-07-2001,06:47,SPECI,,130,6.0,,,2400.0,Mist/Cloud Development Not Observable,-11.0,-11.0,30.05,,,,,10,0,0,,,,,,,,,8/8 Overcast,700.0,,BKN,700.0,OVC,1800.0,,,,
KRDR,12-07-2001,06:00,METAR,,130,8.0,,,8000.0,Mist/Cloud Development Not Observable,-10.0,-10.0,30.06,1020.1,,,,10,0,0,,,,,,,,,8/8 Overcast,700.0,,BKN,700.0,OVC,1800.0,,,,
KRDR,12-07-2001,05:00,METAR,,150,6.0,,,4800.0,Mist/Cloud Development Not Observable,-9.0,-9.0,30.06,,,,,10,0,0,,,,,,,,,8/8 Overcast,700.0,,BKN,700.0,OVC,1800.0,,,,
KRDR,12-07-2001,04:55,METAR,,150,6.0,,,4800.0,Mist/Cloud Development Not Observable,-9.0,-9.0,30.05,1019.9,,,,10,0,0,,,,,,,,,8/8 Overcast,1800.0,,OVC,1800.0,,,,,,
KRDR,12-07-2001,04:00,METAR,,140,6.0,,,9999.0,Cloud Development Not Observable,-8.0,-8.0,30.06,1020.1,,,,0,0,0,,,,,,,,,8/8 Overcast,1800.0,,OVC,1800.0,,,,,,
KRDR,12-07-2001,03:00,METAR,,150,6.0,,,9999.0,Cloud Development Not Observable,-8.0,-8.0,30.06,1020.1,,,,0,0,0,,,,,,,,,8/8 Overcast,1800.0,,OVC,1800.0,,,,,,
KRDR,12-07-2001,02:00,METAR,,150,7.0,,,9999.0,Cloud Development Not Observable,-7.0,-7.0,30.06,1020.1,,,,0,0,0,,,,,,,,,8/8 Overcast,2000.0,,OVC,2000.0,,,,,,
KRDR,12-07-2001,01:00,METAR,,100,4.0,,,9999.0,Cloud Development Not Observable,-7.0,-7.0,30.05,1019.7,,,,0,0,0,,,,,,,,,8/8 Overcast,2100.0,,OVC,2100.0,,,,,,
KRDR,12-06-2001,23:00,METAR,,210,5.0,,,9999.0,Cloud Development Not Observable,-7.0,-7.0,30.01,1018.3,,,,0,0,0,,,,,,,,,8/8 Overcast,2200.0,,OVC,2200.0,,,,,,
KRDR,12-06-2001,22:08,SPECI,,300,2.0,,,9999.0,Cloud Development Not Observable,-6.0,-6.0,30.00,,,,,0,0,0,,,,,,,,,7/8 Mostly Cloudy,2200.0,,BKN,2200.0,,,,,,
KRDR,12-06-2001,22:00,METAR,,280,2.0,,,9999.0,Cloud Development Not Observable,-6.0,-6.0,30.00,1018.1,,,,0,0,0,,,,,,,,,7/8 Mostly Cloudy,10000.0,,SCT,2400.0,BKN,9900.0,,,,
KRDR,12-06-2001,21:00,METAR,,320,5.0,,,9999.0,Cloud Development Not Observable,-6.0,-6.0,30.00,1017.9,,,,0,0,0,,,,,,,,,7/8 Mostly Cloudy,10000.0,,SCT,2500.0,BKN,9900.0,,,,
KRDR,12-06-2001,20:09,SPECI,,300,6.0,,,9999.0,Cloud Development Not Observable,-6.0,-6.0,29.99,,,,,0,0,0,,,,,,,,,4/8 Partly Cloudy,72000.0,,SCT,2800.0,,,,,,
KRDR,12-06-2001,19:23,SPECI,,270,7.0,,,9999.0,Cloud Development Not Observable,-6.0,-6.0,29.99,,,,,0,0,0,,,,,,,,,7/8 Mostly Cloudy,2600.0,,BKN,2600.0,,,,,,
KRDR,12-06-2001,19:00,METAR,,270,7.0,,,9999.0,Cloud Development Not Observable,-7.0,-7.0,29.98,1017.2,,,,0,0,0,,,,,,,,,7/8 Mostly Cloudy,2400.0,,BKN,2400.0,,,,,,
KRDR,12-06-2001,18:00,METAR,,280,10.0,,,9999.0,Cloud Development Not Observable,-7.0,-7.0,29.97,1017.1,,,,0,0,0,,,,,,,,,8/8 Overcast,2100.0,,OVC,2100.0,,,,,,
KRDR,12-06-2001,17:00,METAR,,270,12.0,,,9999.0,Cloud Development Not Observable,-7.0,-7.0,29.97,1016.9,,,,0,0,0,,,,,,,,,8/8 Overcast,1600.0,,OVC,1600.0,,,,,,
KRDR,12-06-2001,16:00,METAR,,270,5.0,,,9999.0,Cloud Development Not Observable,-8.0,-8.0,29.94,1016.0,,,,0,0,0,,,,,,,,,8/8 Overcast,1600.0,,OVC,1600.0,,,,,,
KRDR,12-06-2001,14:16,SPECI,,280,9.0,,,9999.0,Cloud Development Not Observable,-9.0,-9.0,29.93,,,,,0,0,0,,,,,,,,,7/8 Mostly Cloudy,1000.0,,BKN,1000.0,BKN,6400.0,,,,
KRDR,12-06-2001,14:01,SPECI,,280,8.0,,,9999.0,Cloud Development Not Observable,-9.0,-9.0,29.92,,,,,0,0,0,,,,,,,,,7/8 Mostly Cloudy,6500.0,,SCT,1200.0,BKN,6400.0,,,,
KRDR,12-06-2001,14:00,METAR,,270,8.0,,,9999.0,Cloud Development Not Observable,-10.0,-10.0,29.92,1015.4,,,,0,0,0,,,,,,,,,7/8 Mostly Cloudy,6500.0,,SCT,1500.0,BKN,6400.0,,,,
KRDR,12-06-2001,13:50,METAR,,270,8.0,,,9999.0,Cloud Development Not Observable,-10.0,-10.0,29.92,,,,,0,0,0,,,,,,,,,7/8 Mostly Cloudy,6500.0,,SCT,1600.0,BKN,6400.0,,,,
KRDR,12-06-2001,13:00,METAR,,250,10.0,,,9999.0,Cloud Development Not Observable,-8.0,-8.0,29.90,1014.4,,,,0,0,0,,,,,,,,,7/8 Mostly Cloudy,1000.0,,BKN,1000.0,BKN,6400.0,,,,
KRDR,12-06-2001,12:00,METAR,,,4.0,,,9999.0,Cloud Development Not Observable,-8.0,-8.0,29.88,1013.9,,,,0,0,0,,,,,,,,,7/8 Mostly Cloudy,1000.0,,BKN,1000.0,BKN,6400.0,,,,
KRDR,12-06-2001,11:00,METAR,,,3.0,,,9999.0,Cloud Development Not Observable,-8.0,-8.0,29.87,1013.5,,,,0,0,0,,,,,,,,,7/8 Mostly Cloudy,1000.0,,BKN,1000.0,BKN,6400.0,,,,
KRDR,12-06-2001,10:00,METAR,,260,6.0,,,9999.0,Cloud Development Not Observable,-8.0,-8.0,29.85,1012.9,,,,0,0,0,,,,,,,,,7/8 Mostly Cloudy,1000.0,,BKN,1000.0,BKN,6400.0,BKN,20000.0,,
KRDR,12-06-2001,09:40,SPECI,,270,7.0,,,9999.0,Cloud Development Not Observable,-9.0,-9.0,29.86,,,,,0,0,0,,,,,,,,,7/8 Mostly Cloudy,1000.0,,BKN,1000.0,BKN,6400.0,BKN,20000.0,,
KRDR,12-06-2001,09:00,METAR,,230,9.0,,,9999.0,Cloud Development Not Observable,-9.0,-9.0,29.85,1012.9,,,,0,0,0,,,,,,,,,4/8 Partly Cloudy,72000.0,,FEW,6400.0,SCT,20000.0,,,,
KRDR,12-06-2001,08:00,METAR,,270,9.0,,,9999.0,Cloud Development Not Observable,-9.0,-9.0,29.82,1011.7,,,,0,0,0,,,,,,,,,4/8 Partly Cloudy,72000.0,,FEW,6400.0,SCT,20000.0,,,,
KRDR,12-06-2001,07:00,METAR,,270,14.0,,,9999.0,Cloud Development Not Observable,-8.0,-8.0,29.80,1011.0,,,,0,0,0,,,,,,,,,4/8 Partly Cloudy,72000.0,,FEW,6400.0,SCT,20000.0,,,,
KRDR,12-06-2001,06:00,METAR,,280,12.0,,,9999.0,Cloud Development Not Observable,-7.0,-7.0,29.78,1010.2,,,,0,0,0,,,,,,,,,4/8 Partly Cloudy,72000.0,,FEW,1000.0,SCT,6400.0,SCT,20000.0,,
KRDR,12-06-2001,05:43,SPECI,,270,13.0,,,9999.0,Cloud Development Not Observable,-7.0,-7.0,29.77,,,,,0,0,0,,,,,,,,,4/8 Partly Cloudy,72000.0,,FEW,1000.0,SCT,6400.0,SCT,20000.0,,
KRDR,12-06-2001,05:09,SPECI,,270,16.0,,,9999.0,Cloud Development Not Observable,-7.0,-7.0,29.76,,,,,0,0,0,,,,,,,,,7/8 Mostly Cloudy,1500.0,,BKN,1500.0,BKN,6400.0,BKN,20000.0,,
KRDR,12-06-2001,05:00,METAR,,270,15.0,,,9999.0,Cloud Development Not Observable,-7.0,-7.0,29.75,1009.3,,,,0,0,0,,,,,,,,,4/8 Partly Cloudy,72000.0,,SCT,1500.0,SCT,20000.0,,,,
KRDR,12-06-2001,04:00,METAR,,280,17.0,,,9999.0,Cloud Development Not Observable,-6.0,-6.0,29.72,1008.1,,,,0,0,0,,,,,,,,,7/8 Mostly Cloudy,20000.0,,FEW,1000.0,SCT,4000.0,BKN,20000.0,,
KRDR,12-06-2001,03:00,METAR,,280,14.0,,,9999.0,Cloud Development Not Observable,-6.0,-6.0,29.70,1007.5,,,,0,0,0,,,,,,,,,7/8 Mostly Cloudy,3900.0,,SCT,1500.0,BKN,4000.0,BKN,12000.0,,
KRDR,12-06-2001,02:41,SPECI,,290,15.0,,,9999.0,Blowing Snow/Cloud Development Not Observable,-6.0,-6.0,29.69,,,,,38,0,0,,,,,,,,,7/8 Mostly Cloudy,1500.0,,BKN,1500.0,BKN,4000.0,BKN,15000.0,,
KRDR,12-06-2001,02:00,METAR,,290,22.0,27.0,,6400.0,Light Snow/Blowing Snow/Cloud Development Not Observable,-6.0,-6.0,29.64,1005.6,,,,71,38,0,,,,,,,,,8/8 Overcast,1400.0,,BKN,1400.0,OVC,4000.0,,,,
KRDR,12-06-2001,01:00,METAR,,290,21.0,27.0,290/31KTS,6400.0,Light Snow/Blowing Snow/Cloud Development Not Observable,-6.0,-6.0,29.58,1003.5,,,,71,38,0,,,,,,,,,8/8 Overcast,1400.0,,BKN,1400.0,BKN,4000.0,OVC,6900.0,,
KRDR,12-06-2001,00:28,SPECI,,290,21.0,27.0,,1200.0,Light Snow/Blowing Snow/Cloud Development Not Observable,-6.0,-6.0,29.58,,,,,71,38,0,,,,,,,,,8/8 Overcast,1300.0,,BKN,1300.0,OVC,4000.0,,,,
KRDR,12-06-2001,00:09,SPECI,,300,27.0,,,800.0,Light Snow/Blowing Snow/Cloud Development Not Observable,-6.0,-6.0,29.58,,,,,71,38,0,,,,,,,,,8/8 Overcast,1300.0,,BKN,1300.0,OVC,4000.0,,,,
KRDR,12-06-2001,00:00,METAR,,300,25.0,34.0,280/38KTS,4800.0,Light Snow/Blowing Snow/Cloud Development Not Observable,-6.0,-6.0,29.57,1002.7,,,,71,38,0,,,,,,,,,8/8 Overcast,1300.0,,OVC,1300.0,,,,,,
KRDR,12-05-2001,23:28,SPECI,,300,30.0,37.0,,3200.0,Snow Grains/Blowing Snow/Cloud Development Not Observable,-6.0,-6.0,29.56,,,,,77,38,0,,,,,,,,,8/8 Overcast,1100.0,,OVC,1100.0,,,,,,
KRDR,12-05-2001,23:04,SPECI,,290,33.0,38.0,,800.0,Snow Grains/Blowing Snow/Cloud Development Not Observable,-5.0,-5.0,29.54,,,,,77,38,0,,,,,,,,,8/8 Overcast,1100.0,,OVC,1100.0,,,,,,
KRDR,12-05-2001,23:00,METAR,,290,26.0,32.0,,3200.0,Snow Grains/Blowing Snow/Cloud Development Not Observable,-4.0,-4.0,29.53,1001.8,,,,77,38,0,,,,,,,,,8/8 Overcast,1100.0,,OVC,1100.0,,,,,,
KRDR,12-05-2001,22:46,SPECI,,290,25.0,32.0,,4800.0,Snow Grains/Cloud Development Not Observable,-4.0,-4.0,29.52,,,,,77,0,0,,,,,,,,,8/8 Overcast,1200.0,,OVC,1200.0,,,,,,
KRDR,12-05-2001,22:40,SPECI,,290,21.0,,,4800.0,Snow Grains/Cloud Development Not Observable,-4.0,-4.0,29.52,,,,,77,0,0,,,,,,,,,8/8 Overcast,1200.0,,OVC,1200.0,,,,,,
KRDR,12-05-2001,22:19,SPECI,,300,20.0,,,,Cloud Development Not Observable,-4.0,-4.0,29.50,,,,,0,0,0,,,,,,,,,,1300.0,,OVC,1300.0,,,,,,
KRDR,12-05-2001,22:00,METAR,,290,16.0,,,6400.0,Snow/Freezing Drizzle/Cloud Development Not Observable,-4.0,-4.0,29.47,999.8,,,,56,73,0,,,,,,,,,8/8 Overcast,1000.0,,OVC,1000.0,,,,,,
KRDR,12-05-2001,21:40,SPECI,,290,19.0,,,3600.0,Snow/Freezing Drizzle/Cloud Development Not Observable,-4.0,-4.0,29.47,,,,,56,73,0,,,,,,,,,8/8 Overcast,1000.0,,FEW,700.0,OVC,1000.0,,,,
KRDR,12-05-2001,21:30,METAR,,290,19.0,,,3600.0,Snow/Freezing Drizzle/Drifting Snow,-3.0,-3.0,29.46,,,,,56,73,36,,,,,,,,,8/8 Overcast,1000.0,,FEW,700.0,OVC,1000.0,,,,
KRDR,12-05-2001,21:00,METAR,,290,15.0,,,9999.0,Snow/Freezing Drizzle/Cloud Development Not Observable,-3.0,-3.0,29.44,998.8,,,,56,73,0,,,,,,,,,8/8 Overcast,1100.0,,OVC,1100.0,,,,,,
KRDR,12-05-2001,20:42,SPECI,,290,16.0,,,9999.0,Snow/Freezing Drizzle/Cloud Development Not Observable,-3.0,-3.0,29.42,,,,,56,73,0,,,,,,,,,8/8 Overcast,1100.0,,OVC,1100.0,,,,,,
KRDR,12-05-2001,20:28,SPECI,,290,16.0,,,9999.0,Light Snow Showers/Cloud Development Not Observable,-3.0,-3.0,29.42,,,,,85,0,0,,,,,,,,,8/8 Overcast,1100.0,,OVC,1100.0,,,,,,
KRDR,12-05-2001,20:00,METAR,,310,13.0,,,9999.0,Cloud Development Not Observable,-3.0,-3.0,29.42,997.9,,,,0,0,0,,,,,,,,,8/8 Overcast,1200.0,,OVC,1200.0,,,,,,
KRDR,12-05-2001,19:17,SPECI,,320,14.0,,,9999.0,Cloud Development Not Observable,-2.0,-2.0,29.56,,,,,0,0,0,,,,,,,,,8/8 Overcast,1100.0,,OVC,1100.0,,,,,,
KRDR,12-05-2001,19:00,METAR,,330,13.0,,,9999.0,Light Snow/Drifting Snow/Cloud Development Not Observable,-4.0,-4.0,29.42,998.1,,,,71,36,0,,,,,,,,,8/8 Overcast,1000.0,,OVC,1000.0,,,,,,
KRDR,12-05-2001,18:30,METAR,,320,17.0,,,4000.0,Light Snow/Mist/Cloud Development Not Observable,-3.0,-3.0,29.42,,,,,71,10,0,,,,,,,,,8/8 Overcast,1000.0,,OVC,1000.0,,,,,,
KRDR,12-05-2001,18:15,SPECI,,310,6.0,,,1600.0,Light Snow/Mist/Cloud Development Not Observable,-3.0,-3.0,29.43,,,,,71,10,0,,,,,,,,,8/8 Overcast,800.0,,OVC,800.0,,,,,,
KRDR,12-05-2001,18:00,METAR,,310,6.0,,,1600.0,Light Snow/Mist/Cloud Development Not Observable,-2.0,-2.0,29.44,998.8,,,,71,10,0,,,,,,,,,8/8 Overcast,400.0,,OVC,400.0,,,,,,
KRDR,12-05-2001,17:38,SPECI,,350,5.0,,,1600.0,Light Snow/Mist/Cloud Development Not Observable,-2.0,-2.0,29.44,,,,,71,10,0,,,,,,,,,8/8 Overcast,400.0,,OVC,400.0,,,,,,
KRDR,12-05-2001,17:15,SPECI,,360,7.0,,,2400.0,Snow/Freezing Drizzle/Mist,-3.0,-3.0,29.45,,,,,56,73,10,,,,,,,,,8/8 Overcast,300.0,,OVC,300.0,,,,,,
KRDR,12-05-2001,17:00,METAR,,350,6.0,,,2400.0,Freezing Drizzle/Mist/Cloud Development Not Observable,-2.0,-2.0,29.47,999.9,,,,56,10,0,,,,,,,,,8/8 Overcast,300.0,,OVC,300.0,,,,,,
KRDR,12-05-2001,16:27,SPECI,,360,9.0,,,2400.0,Freezing Drizzle/Mist/Cloud Development Not Observable,-2.0,-2.0,29.48,,,,,56,10,0,,,,,,,,,8/8 Overcast,400.0,,OVC,400.0,,,,,,
KRDR,12-05-2001,16:00,METAR,,360,8.0,,,1600.0,Freezing Drizzle/Mist/Cloud Development Not Observable,-2.0,-2.0,29.52,1001.5,,,,56,10,0,,,,,,,,,8/8 Overcast,400.0,,OVC,400.0,,,,,,
KRDR,12-05-2001,15:29,SPECI,,360,7.0,,,1600.0,Freezing Drizzle/Mist/Cloud Development Not Observable,-2.0,-2.0,29.52,,,,,56,10,0,,,,,,,,,8/8 Overcast,400.0,,OVC,400.0,,,,,,
KRDR,12-05-2001,15:00,METAR,,360,10.0,,,1600.0,Freezing Drizzle/Mist/Cloud Development Not Observable,-2.0,-2.0,29.56,1002.8,,,,56,10,0,,,,,,,,,8/8 Overcast,500.0,,OVC,500.0,,,,,,
KRDR,12-05-2001,14:36,SPECI,,350,8.0,,,1600.0,Freezing Drizzle/Mist/Cloud Development Not Observable,-2.0,-2.0,29.56,,,,,56,10,0,,,,,,,,,8/8 Overcast,500.0,,OVC,500.0,,,,,,
KRDR,12-05-2001,14:24,SPECI,,10,8.0,,,2000.0,Freezing Drizzle/Mist/Cloud Development Not Observable,-2.0,-2.0,29.56,,,,,56,10,0,,,,,,,,,8/8 Overcast,400.0,,OVC,400.0,,,,,,
KRDR,12-05-2001,14:09,SPECI,,360,8.0,,,3200.0,Freezing Drizzle/Mist/Cloud Development Not Observable,-2.0,-2.0,29.58,,,,,56,10,0,,,,,,,,,8/8 Overcast,500.0,,OVC,500.0,,,,,,
KRDR,12-05-2001,14:00,METAR,,10,9.0,,,4800.0,Freezing Drizzle/Fog with Rime/Cloud Development Not Observable,-2.0,-2.0,29.58,1003.4,,,,56,48,0,,,,,,,,,8/8 Overcast,500.0,,OVC,500.0,,,,,,
KRDR,12-05-2001,13:00,METAR,,360,20.0,,,6400.0,Ice Pellets/Light Freezing Rain/Cloud Development Not Observable,-3.0,-3.0,29.61,1004.5,,,,66,79,0,,,,,,,,,8/8 Overcast,1500.0,,SCT,600.0,BKN,1500.0,OVC,5900.0,,
KRDR,12-05-2001,12:40,SPECI,,10,19.0,,,6400.0,Ice Pellets/Light Freezing Rain/Cloud Development Not Observable,-4.0,-4.0,29.62,,,,,66,79,0,,,,,,,,,8/8 Overcast,1500.0,,SCT,600.0,BKN,1500.0,OVC,5900.0,,
KRDR,12-05-2001,12:28,SPECI,,10,17.0,,,6400.0,Ice Pellets/Freezing Drizzle/Cloud Development Not Observable,-4.0,-4.0,29.63,,,,,56,79,0,,,,,,,,,7/8 Mostly Cloudy,2000.0,,SCT,600.0,BKN,2000.0,BKN,5900.0,,
KRDR,12-05-2001,12:05,SPECI,,360,13.0,,,6400.0,Ice Pellets/Freezing Drizzle/Cloud Development Not Observable,-5.0,-5.0,29.66,,,,,56,79,0,,,,,,,,,7/8 Mostly Cloudy,1200.0,,SCT,600.0,BKN,1200.0,BKN,5900.0,,
KRDR,12-05-2001,12:00,METAR,,350,14.0,,,8000.0,Mist/Cloud Development Not Observable,-5.0,-5.0,29.67,1006.8,,,,10,0,0,,,,,,,,,7/8 Mostly Cloudy,7000.0,,SCT,600.0,BKN,6900.0,BKN,20000.0,,
KRDR,12-05-2001,11:00,METAR,,360,11.0,,,8000.0,Mist/Cloud Development Not Observable,-6.0,-6.0,29.72,1008.4,,,,10,0,0,,,,,,,,,4/8 Partly Cloudy,72000.0,,FEW,600.0,SCT,7900.0,SCT,20000.0,,
KRDR,12-05-2001,10:00,METAR,,360,11.0,,,8000.0,Mist/Cloud Development Not Observable,-5.0,-5.0,29.77,1009.9,,,,10,0,0,,,,,,,,,4/8 Partly Cloudy,72000.0,,FEW,600.0,SCT,6900.0,,,,
KRDR,12-05-2001,09:00,METAR,,360,12.0,,,8000.0,Mist/Cloud Development Not Observable,-6.0,-6.0,29.80,1011.0,,,,10,0,0,,,,,,,,,7/8 Mostly Cloudy,7000.0,,SCT,600.0,BKN,6900.0,,,,
KRDR,12-05-2001,08:11,SPECI,,360,11.0,,,6400.0,Mist/Cloud Development Not Observable,-6.0,-6.0,29.84,,,,,10,0,0,,,,,,,,,7/8 Mostly Cloudy,600.0,,BKN,600.0,BKN,6900.0,,,,
KRDR,12-05-2001,08:00,METAR,,10,11.0,,,6400.0,Mist/Cloud Development Not Observable,-6.0,-6.0,29.86,1013.0,,,,10,0,0,,,,,,,,,8/8 Overcast,7000.0,,FEW,300.0,SCT,600.0,OVC,6900.0,,
KRDR,12-05-2001,07:00,METAR,,360,12.0,,,6400.0,Mist/Cloud Development Not Observable,-6.0,-6.0,29.91,1014.5,,,,10,0,0,,,,,,,,,8/8 Overcast,7000.0,,SCT,600.0,BKN,6900.0,OVC,12000.0,,
KRDR,12-05-2001,06:26,SPECI,,10,12.0,,,8000.0,Mist/Cloud Development Not Observable,-7.0,-7.0,29.93,,,,,10,0,0,,,,,,,,,8/8 Overcast,7000.0,,SCT,600.0,BKN,6900.0,OVC,12000.0,,
KRDR,12-05-2001,06:00,METAR,,10,12.0,,,8000.0,Mist/Cloud Development Not Observable,-7.0,-7.0,29.94,1015.7,,,,10,0,0,,,,,,,,,7/8 Mostly Cloudy,25000.0,,SCT,7900.0,BKN,25000.0,,,,
KRDR,12-05-2001,05:00,METAR,,350,9.0,,,8000.0,Mist/Cloud Development Not Observable,-8.0,-8.0,29.96,1016.5,,,,10,0,0,,,,,,,,,7/8 Mostly Cloudy,25000.0,,SCT,8900.0,BKN,25000.0,,,,
KRDR,12-05-2001,04:00,METAR,,350,6.0,,,8000.0,Mist/Cloud Development Not Observable,-10.0,-10.0,29.97,1017.0,,,,10,0,0,,,,,,,,,7/8 Mostly Cloudy,25000.0,,FEW,11000.0,BKN,25000.0,,,,
KRDR,12-05-2001,03:00,METAR,,300,2.0,,,8000.0,Mist/Cloud Development Not Observable,-10.0,-10.0,29.99,1017.7,,,,10,0,0,,,,,,,,,4/8 Partly Cloudy,72000.0,,SCT,25000.0,,,,,,
KRDR,12-05-2001,02:00,METAR,,360,5.0,,,9999.0,Cloud Development Not Observable,-9.0,-9.0,29.98,1017.3,,,,0,0,0,,,,,,,,,4/8 Partly Cloudy,72000.0,,SCT,25000.0,,,,,,
KRDR,12-05-2001,01:00,METAR,,360,8.0,,,9999.0,Cloud Development Not Observable,-8.0,-8.0,29.97,1016.7,,,,0,0,0,,,,,,,,,4/8 Partly Cloudy,72000.0,,SCT,25000.0,,,,,,
KRDR,12-05-2001,00:00,METAR,,350,6.0,,,9999.0,Cloud Development Not Observable,-8.0,-8.0,29.97,1017.0,,,,0,0,0,,,,,,,,,4/8 Partly Cloudy,72000.0,,SCT,25000.0,,,,,,
KRDR,12-04-2001,23:00,METAR,,10,4.0,,,9999.0,Cloud Development Not Observable,-6.0,-6.0,29.97,1017.1,,,,0,0,0,,,,,,,,,4/8 Partly Cloudy,72000.0,,SCT,25000.0,,,,,,
KRDR,12-04-2001,22:00,METAR,,350,9.0,,,9999.0,Haze/Cloud Development Not Observable,-5.0,-5.0,29.97,1017.0,,,,5,0,0,,,,,,,,,2/8 Mostly Clear,72000.0,,FEW,25000.0,,,,,,
KRDR,12-04-2001,21:00,METAR,,330,9.0,,,9999.0,Haze/Cloud Development Not Observable,-3.0,-3.0,29.96,1016.5,,,,5,0,0,,,,,,,,,2/8 Mostly Clear,72000.0,,FEW,25000.0,,,,,,
KRDR,12-04-2001,20:00,METAR,,320,11.0,,,9999.0,Cloud Development Not Observable,-3.0,-3.0,29.96,1016.3,,,,0,0,0,,,,,,,,,2/8 Mostly Clear,72000.0,,FEW,1500.0,FEW,25000.0,,,,
KRDR,12-04-2001,19:00,METAR,,320,13.0,,,9999.0,Cloud Development Not Observable,-3.0,-3.0,29.95,1016.1,,,,0,0,0,,,,,,,,,2/8 Mostly Clear,72000.0,,FEW,25000.0,,,,,,
KRDR,12-04-2001,18:00,METAR,,320,13.0,,,9999.0,Cloud Development Not Observable,-3.0,-3.0,29.96,1016.2,,,,0,0,0,,,,,,,,,2/8 Mostly Clear,72000.0,,FEW,25000.0,,,,,,
KRDR,12-04-2001,17:00,METAR,,320,12.0,,,9999.0,Cloud Development Not Observable,-3.0,-3.0,29.94,1015.7,,,,0,0,0,,,,,,,,,2/8 Mostly Clear,72000.0,,FEW,9900.0,FEW,25000.0,,,,
KRDR,12-04-2001,16:00,METAR,,310,11.0,,,9999.0,Cloud Development Not Observable,-2.0,-2.0,29.91,1014.4,,,,0,0,0,,,,,,,,,2/8 Mostly Clear,72000.0,,FEW,9900.0,FEW,25000.0,,,,
KRDR,12-04-2001,15:00,METAR,,280,8.0,,,9999.0,Cloud Development Not Observable,-7.0,-7.0,29.86,1013.1,,,,0,0,0,,,,,,,,,2/8 Mostly Clear,72000.0,,FEW,9900.0,,,,,,
KRDR,12-04-2001,14:00,METAR,,230,8.0,,,9999.0,Cloud Development Not Observable,-8.0,-8.0,29.84,1012.3,,,,0,0,0,,,,,,,,,2/8 Mostly Clear,72000.0,,FEW,9900.0,,,,,,
KRDR,12-04-2001,13:00,METAR,,230,6.0,,,9999.0,Cloud Development Not Observable,-3.0,-3.0,29.81,1011.2,,,,0,0,0,,,,,,,,,Clear,72000.0,,,73000.0,,,,,,
KRDR,12-04-2001,12:00,METAR,,200,10.0,,,9999.0,Cloud Development Not Observable,-5.0,-5.0,29.79,1010.5,,,,0,0,0,,,,,,,,,Clear,72000.0,,,73000.0,,,,,,
KRDR,12-04-2001,11:00,METAR,,190,10.0,,,9999.0,Cloud Development Not Observable,-9.0,-9.0,29.76,1009.6,,,,0,0,0,,,,,,,,,Clear,72000.0,,,73000.0,,,,,,
KRDR,12-04-2001,10:00,METAR,,190,8.0,,,9999.0,Cloud Development Not Observable,-7.0,-7.0,29.75,1009.0,,,,0,0,0,,,,,,,,,Clear,72000.0,,,73000.0,,,,,,
KRDR,12-04-2001,09:00,METAR,,160,7.0,,,9999.0,Cloud Development Not Observable,-5.0,-5.0,29.74,1008.5,,,,0,0,0,,,,,,,,,Clear,72000.0,,,73000.0,,,,,,
KRDR,12-04-2001,08:00,METAR,,180,7.0,,,9999.0,Cloud Development Not Observable,-5.0,-5.0,29.71,1007.6,,,,0,0,0,,,,,,,,,Clear,72000.0,,,73000.0,,,,,,
KRDR,12-04-2001,07:00,METAR,,190,11.0,,,9999.0,Cloud Development Not Observable,-5.0,-5.0,29.70,1007.4,,,,0,0,0,,,,,,,,,Clear,72000.0,,,73000.0,,,,,,
KRDR,12-04-2001,06:00,METAR,,190,11.0,,,9999.0,Cloud Development Not Observable,-4.0,-4.0,29.68,1006.7,,,,0,0,0,,,,,,,,,Clear,72000.0,,,73000.0,,,,,,
KRDR,12-04-2001,05:00,METAR,,200,8.0,,,9999.0,Cloud Development Not Observable,-4.0,-4.0,29.66,1006.0,,,,0,0,0,,,,,,,,,Clear,72000.0,,,73000.0,,,,,,
KRDR,12-04-2001,04:00,METAR,,190,11.0,,,9999.0,Cloud Development Not Observable,-2.0,-2.0,29.64,1005.3,,,,0,0,0,,,,,,,,,Clear,72000.0,,,73000.0,,,,,,
KRDR,12-04-2001,03:00,METAR,,190,12.0,,,9999.0,Cloud Development Not Observable,-1.0,-1.0,29.62,1004.6,,,,0,0,0,,,,,,,,,2/8 Mostly Clear,72000.0,,FEW,25000.0,,,,,,
KRDR,12-04-2001,02:00,METAR,,180,13.0,,,9999.0,Cloud Development Not Observable,-1.0,-1.0,29.61,1004.5,,,,0,0,0,,,,,,,,,2/8 Mostly Clear,72000.0,,FEW,25000.0,,,,,,
KRDR,12-04-2001,01:00,METAR,,160,11.0,,,9999.0,Cloud Development Not Observable,0.0,0.0,29.60,1003.8,,,,0,0,0,,,,,,,,,2/8 Mostly Clear,72000.0,,FEW,25000.0,,,,,,
KRDR,12-04-2001,00:00,METAR,,180,12.0,,,9999.0,Cloud Development Not Observable,1.0,1.0,29.60,1003.7,,,,0,0,0,,,,,,,,,2/8 Mostly Clear,72000.0,,FEW,25000.0,,,,,,
KRDR,12-03-2001,23:00,METAR,,170,15.0,,,9999.0,Cloud Development Not Observable,1.0,1.0,29.59,1003.7,,,,0,0,0,,,,,,,,,2/8 Mostly Clear,72000.0,,FEW,25000.0,,,,,,
KRDR,12-03-2001,22:00,METAR,,150,20.0,,,9999.0,Cloud Development Not Observable,3.0,1.0,29.60,1003.9,,,,0,0,0,,,,,,,,,Clear,72000.0,,,73000.0,,,,,,
KRDR,12-03-2001,21:00,METAR,,150,13.0,,,9999.0,Cloud Development Not Observable,3.0,1.0,29.62,1004.4,,,,0,0,0,,,,,,,,,2/8 Mostly Clear,72000.0,,FEW,25000.0,,,,,,
KRDR,12-03-2001,20:00,METAR,,140,14.0,,,9999.0,Cloud Development Not Observable,2.0,2.0,29.64,1005.3,,,,0,0,0,,,,,,,,,2/8 Mostly Clear,72000.0,,FEW,25000.0,,,,,,
KRDR,12-03-2001,19:00,METAR,,140,13.0,,,9999.0,Cloud Development Not Observable,1.0,0.0,29.70,1007.2,,,,0,0,0,,,,,,,,,2/8 Mostly Clear,72000.0,,FEW,9900.0,FEW,25000.0,,,,
KRDR,12-03-2001,18:00,METAR,,140,11.0,,,9999.0,Cloud Development Not Observable,-1.0,-1.0,29.76,1009.2,,,,0,0,0,,,,,,,,,7/8 Mostly Cloudy,10000.0,,BKN,9900.0,BKN,25000.0,,,,
KRDR,12-03-2001,17:00,METAR,,140,10.0,,,9999.0,Cloud Development Not Observable,-1.0,-1.0,29.78,1010.2,,,,0,0,0,,,,,,,,,7/8 Mostly Cloudy,15000.0,,BKN,15000.0,BKN,25000.0,,,,
KRDR,12-03-2001,16:00,METAR,,140,9.0,,,9999.0,Cloud Development Not Observable,-3.0,-3.0,29.80,1010.9,,,,0,0,0,,,,,,,,,7/8 Mostly Cloudy,10000.0,,FEW,6400.0,BKN,9900.0,BKN,25000.0,,
KRDR,12-03-2001,15:00,METAR,,160,8.0,,,9999.0,Cloud Development Not Observable,-4.0,-4.0,29.82,1011.6,,,,0,0,0,,,,,,,,,8/8 Overcast,25000.0,,OVC,25000.0,,,,,,
KRDR,12-03-2001,14:00,METAR,,110,8.0,,,9999.0,Cloud Development Not Observable,-5.0,-5.0,29.83,1011.8,,,,0,0,0,,,,,,,,,7/8 Mostly Cloudy,25000.0,,BKN,25000.0,,,,,,
KRDR,12-03-2001,12:00,METAR,,220,11.0,,,9999.0,Cloud Development Not Observable,-5.0,-5.0,29.82,1011.7,,,,0,0,0,,,,,,,,,4/8 Partly Cloudy,72000.0,,SCT,25000.0,,,,,,
KRDR,12-03-2001,11:00,METAR,,220,11.0,,,9999.0,Cloud Development Not Observable,-5.0,-5.0,29.82,1011.7,,,,0,0,0,,,,,,,,,4/8 Partly Cloudy,72000.0,,SCT,25000.0,,,,,,
KRDR,12-03-2001,10:00,METAR,,230,9.0,,,9999.0,Cloud Development Not Observable,-4.0,-4.0,29.83,1012.0,,,,0,0,0,,,,,,,,,2/8 Mostly Clear,72000.0,,FEW,25000.0,,,,,,
KRDR,12-03-2001,09:00,METAR,,220,8.0,,,9999.0,Cloud Development Not Observable,-4.0,-4.0,29.82,1011.6,,,,0,0,0,,,,,,,,,2/8 Mostly Clear,72000.0,,FEW,25000.0,,,,,,
KRDR,12-03-2001,08:00,METAR,,240,11.0,,,9999.0,Cloud Development Not Observable,-3.0,-3.0,29.80,1010.9,,,,0,0,0,,,,,,,,,Clear,72000.0,,,73000.0,,,,,,
KRDR,12-03-2001,07:00,METAR,,230,11.0,,,9999.0,Cloud Development Not Observable,-2.0,-2.0,29.78,1010.3,,,,0,0,0,,,,,,,,,Clear,72000.0,,,73000.0,,,,,,
KRDR,12-03-2001,06:00,METAR,,210,10.0,,,9999.0,Cloud Development Not Observable,-2.0,-2.0,29.78,1010.2,,,,0,0,0,,,,,,,,,Clear,72000.0,,,73000.0,,,,,,
KRDR,12-03-2001,05:00,METAR,,220,11.0,,,9999.0,Cloud Development Not Observable,-3.0,-3.0,29.75,1009.3,,,,0,0,0,,,,,,,,,Clear,72000.0,,,73000.0,,,,,,
KRDR,12-03-2001,04:00,METAR,,220,12.0,,,9999.0,Cloud Development Not Observable,-2.0,-2.0,29.73,1008.5,,,,0,0,0,,,,,,,,,2/8 Mostly Clear,72000.0,,FEW,25000.0,,,,,,
KRDR,12-03-2001,03:00,METAR,,230,14.0,,,9999.0,Cloud Development Not Observable,-1.0,-1.0,29.72,1008.2,,,,0,0,0,,,,,,,,,2/8 Mostly Clear,72000.0,,FEW,12000.0,FEW,25000.0,,,,
KRDR,12-03-2001,02:00,METAR,,230,10.0,,,9999.0,Cloud Development Not Observable,-2.0,-2.0,29.71,1007.9,,,,0,0,0,,,,,,,,,4/8 Partly Cloudy,72000.0,,FEW,12000.0,SCT,25000.0,,,,
KRDR,12-03-2001,01:00,METAR,,200,8.0,,,9999.0,Cloud Development Not Observable,-5.0,-5.0,29.69,1007.4,,,,0,0,0,,,,,,,,,4/8 Partly Cloudy,72000.0,,FEW,12000.0,SCT,25000.0,,,,
KRDR,12-03-2001,00:00,METAR,,180,10.0,,,9999.0,Cloud Development Not Observable,-7.0,-7.0,29.69,1007.5,,,,0,0,0,,,,,,,,,4/8 Partly Cloudy,72000.0,,SCT,25000.0,,,,,,
KRDR,12-02-2001,23:00,METAR,,180,9.0,,,9999.0,Cloud Development Not Observable,-7.0,-7.0,29.68,1007.1,,,,0,0,0,,,,,,,,,2/8 Mostly Clear,72000.0,,FEW,25000.0,,,,,,
KRDR,12-02-2001,22:00,METAR,,160,8.0,,,9999.0,Cloud Development Not Observable,-7.0,-7.0,29.66,1006.6,,,,0,0,0,,,,,,,,,2/8 Mostly Clear,72000.0,,FEW,25000.0,,,,,,
KRDR,12-02-2001,21:00,METAR,,180,8.0,,,9999.0,Cloud Development Not Observable,-6.0,-6.0,29.66,1006.4,,,,0,0,0,,,,,,,,,2/8 Mostly Clear,72000.0,,FEW,25000.0,,,,,,
KRDR,12-02-2001,20:00,METAR,,190,7.0,,,9999.0,Cloud Development Not Observable,-7.0,-7.0,29.66,1006.4,,,,0,0,0,,,,,,,,,4/8 Partly Cloudy,72000.0,,SCT,25000.0,,,,,,
KRDR,12-02-2001,19:00,METAR,,220,8.0,,,9999.0,Cloud Development Not Observable,-7.0,-7.0,29.68,1007.3,,,,0,0,0,,,,,,,,,7/8 Mostly Cloudy,25000.0,,BKN,25000.0,,,,,,
KRDR,12-02-2001,18:00,METAR,,140,6.0,,,6400.0,Mist/Cloud Development Not Observable,-8.0,-8.0,29.67,1006.9,,,,10,0,0,,,,,,,,,4/8 Partly Cloudy,72000.0,,SCT,25000.0,,,,,,
KRDR,12-02-2001,17:00,METAR,,180,12.0,,,4800.0,Mist/Cloud Development Not Observable,-9.0,-9.0,29.72,1008.5,,,,10,0,0,,,,,,,,,4/8 Partly Cloudy,72000.0,,FEW,500.0,SCT,25000.0,,,,
KRDR,12-02-2001,16:00,METAR,,160,8.0,,,3200.0,Mist/Cloud Development Not Observable,-9.0,-9.0,29.73,1008.7,,,,10,0,0,,,,,,,,,4/8 Partly Cloudy,72000.0,,FEW,9900.0,SCT,25000.0,,,,
KRDR,12-02-2001,15:38,SPECI,,180,8.0,,,3200.0,Mist/Cloud Development Not Observable,-9.0,-9.0,29.74,,,,,10,0,0,,,,,,,,,4/8 Partly Cloudy,72000.0,,FEW,9900.0,SCT,25000.0,,,,
KRDR,12-02-2001,15:00,METAR,,160,6.0,,,4800.0,Mist/Cloud Development Not Observable,-11.0,-11.0,29.74,1009.4,,,,10,0,0,,,,,,,,,4/8 Partly Cloudy,72000.0,,FEW,12000.0,SCT,25000.0,,,,
KRDR,12-02-2001,14:00,METAR,,150,4.0,,,4800.0,Mist/Cloud Development Not Observable,-10.0,-10.0,29.76,1010.2,,,,10,0,0,,,,,,,,,7/8 Mostly Cloudy,10000.0,,BKN,9900.0,BKN,25000.0,,,,
KRDR,12-02-2001,13:00,METAR,,120,6.0,,,4800.0,Mist/Cloud Development Not Observable,-9.0,-9.0,29.78,1010.5,,,,10,0,0,,,,,,,,,7/8 Mostly Cloudy,10000.0,,BKN,9900.0,BKN,25000.0,,,,
KRDR,12-02-2001,12:00,METAR,,140,7.0,,,4800.0,Mist/Cloud Development Not Observable,-10.0,-10.0,29.80,1011.2,,,,10,0,0,,,,,,,,,7/8 Mostly Cloudy,25000.0,,SCT,9900.0,BKN,25000.0,,,,
KRDR,12-02-2001,11:00,METAR,,170,9.0,,,4800.0,Mist/Cloud Development Not Observable,-9.0,-9.0,29.83,1012.2,,,,10,0,0,,,,,,,,,7/8 Mostly Cloudy,10000.0,,BKN,9900.0,BKN,25000.0,,,,
KRDR,12-02-2001,10:00,METAR,,150,10.0,,,4800.0,Mist/Cloud Development Not Observable,-9.0,-9.0,29.82,1011.8,,,,10,0,0,,,,,,,,,7/8 Mostly Cloudy,10000.0,,BKN,9900.0,,,,,,
KRDR,12-02-2001,09:00,METAR,,150,9.0,,,4800.0,Mist/Cloud Development Not Observable,-10.0,-10.0,29.87,1013.5,,,,10,0,0,,,,,,,,,7/8 Mostly Cloudy,10000.0,,BKN,9900.0,,,,,,
KRDR,12-02-2001,08:00,METAR,,150,9.0,,,4800.0,Mist/Cloud Development Not Observable,-10.0,-10.0,29.89,1014.2,,,,10,0,0,,,,,,,,,4/8 Partly Cloudy,72000.0,,SCT,0.0,,,,,,
KRDR,12-02-2001,07:03,SPECI,,140,9.0,,,4800.0,Mist/Cloud Development Not Observable,-11.0,-11.0,29.90,,,,,10,0,0,,,,,,,,,4/8 Partly Cloudy,72000.0,,SCT,0.0,,,,,,
KRDR,12-02-2001,07:00,METAR,,150,10.0,,,400.0,Fog or Ice Fog/Cloud Development Not Observable,-10.0,-10.0,29.91,1014.9,,,,44,0,0,,,,,,,,,4/8 Partly Cloudy,72000.0,,SCT,0.0,,,,,,
KRDR,12-02-2001,06:41,SPECI,,150,10.0,,,400.0,Fog or Ice Fog/Cloud Development Not Observable,-10.0,-10.0,29.91,,,,,44,0,0,,,,,,,,,4/8 Partly Cloudy,72000.0,,SCT,0.0,,,,,,
KRDR,12-02-2001,06:10,SPECI,,150,8.0,,,400.0,Fog or Ice Fog/Cloud Development Not Observable,-10.0,-10.0,29.92,,,,,44,0,0,,,,,,,,,4/8 Partly Cloudy,72000.0,,SCT,0.0,,,,,,
KRDR,12-02-2001,06:00,METAR,,150,10.0,,,4800.0,Mist/Cloud Development Not Observable,-10.0,-10.0,29.92,1015.1,,,,10,0,0,,,,,,,,,4/8 Partly Cloudy,72000.0,,SCT,0.0,,,,,,
KRDR,12-02-2001,05:10,SPECI,,150,8.0,,,400.0,Fog or Ice Fog/Cloud Development Not Observable,-10.0,-10.0,29.92,,,,,44,0,0,,,,,,,,,4/8 Partly Cloudy,72000.0,,SCT,0.0,,,,,,
KRDR,12-02-2001,05:00,METAR,,150,8.0,,,9999.0,Mist/Cloud Development Not Observable,-8.0,-8.0,29.93,1015.5,,,,10,0,0,,,,,,,,,Clear,72000.0,,,73000.0,,,,,,
KRDR,12-02-2001,04:33,SPECI,,160,9.0,,,9999.0,Cloud Development Not Observable,-8.0,-8.0,29.94,,,,,0,0,0,,,,,,,,,Clear,72000.0,,,73000.0,,,,,,
KRDR,12-02-2001,04:00,METAR,,150,9.0,,,9999.0,Fog or Ice Fog/Cloud Development Not Observable,-8.0,-8.0,29.94,1015.7,,,,44,0,0,,,,,,,,,4/8 Partly Cloudy,72000.0,,SCT,0.0,,,,,,
KRDR,12-02-2001,03:40,SPECI,,150,9.0,,,9999.0,Fog or Ice Fog/Cloud Development Not Observable,-10.0,-10.0,29.94,,,,,44,0,0,,,,,,,,,4/8 Partly Cloudy,72000.0,,SCT,0.0,,,,,,
KRDR,12-02-2001,03:06,SPECI,,150,6.0,,,400.0,Fog or Ice Fog/Cloud Development Not Observable,-10.0,-10.0,29.94,,,,,44,0,0,,,,,,,,,4/8 Partly Cloudy,72000.0,,SCT,0.0,,,,,,
KRDR,12-02-2001,03:00,SPECI,Calm,,0.0,,,,Cloud Development Not Observable,,,30.21,,,,,0,0,0,,,,,,,,,,1600.0,,OVC,1600.0,,,,,,
KRDR,12-02-2001,03:00,METAR,,140,5.0,,,9999.0,Cloud Development Not Observable,-10.0,-10.0,29.94,1016.0,,,,0,0,0,,,,,,,,,4/8 Partly Cloudy,72000.0,,SCT,0.0,,,,,,
KRDR,12-02-2001,02:00,METAR,,,3.0,,,9999.0,Cloud Development Not Observable,-12.0,-12.0,29.95,1016.3,,,,0,0,0,,,,,,,,,Clear,72000.0,,,73000.0,,,,,,
KRDR,12-02-2001,01:00,METAR,,180,5.0,,,9999.0,Cloud Development Not Observable,-7.0,-8.0,29.95,1016.2,,,,0,0,0,,,,,,,,,Clear,72000.0,,,73000.0,,,,,,
KRDR,12-02-2001,00:00,METAR,,180,7.0,,,9999.0,Cloud Development Not Observable,-7.0,-8.0,29.95,1016.3,,,,0,0,0,,,,,,,,,2/8 Mostly Clear,72000.0,,FEW,12000.0,,,,,,
KRDR,12-01-2001,23:00,METAR,,,2.0,,,9999.0,Cloud Development Not Observable,-7.0,-7.0,29.95,1016.1,,,,0,0,0,,,,,,,,,2/8 Mostly Clear,72000.0,,FEW,12000.0,,,,,,
KRDR,12-01-2001,22:00,METAR,,210,6.0,,,9999.0,Cloud Development Not Observable,-5.0,-5.0,29.93,1015.6,,,,0,0,0,,,,,,,,,4/8 Partly Cloudy,72000.0,,FEW,12000.0,SCT,20000.0,,,,
KRDR,12-01-2001,21:00,METAR,,200,7.0,,,9999.0,Cloud Development Not Observable,-3.0,-3.0,29.94,1015.6,,,,0,0,0,,,,,,,,,7/8 Mostly Cloudy,20000.0,,SCT,12000.0,BKN,20000.0,,,,
KRDR,12-01-2001,20:00,METAR,,230,7.0,,,9999.0,Cloud Development Not Observable,-3.0,-3.0,29.93,1015.4,,,,0,0,0,,,,,,,,,7/8 Mostly Cloudy,15000.0,,SCT,4000.0,BKN,15000.0,,,,
KRDR,12-01-2001,19:00,METAR,,270,9.0,,,9999.0,Cloud Development Not Observable,-2.0,-3.0,29.94,1015.6,,,,0,0,0,,,,,,,,,7/8 Mostly Cloudy,3900.0,,SCT,2700.0,BKN,4000.0,,,,
KRDR,12-01-2001,18:00,METAR,,270,8.0,,,9999.0,Cloud Development Not Observable,-2.0,-3.0,29.94,1015.5,,,,0,0,0,,,,,,,,,7/8 Mostly Cloudy,4400.0,,SCT,2700.0,BKN,4500.0,,,,
KRDR,12-01-2001,17:00,METAR,,270,10.0,,,9999.0,Cloud Development Not Observable,-3.0,-4.0,29.94,1015.8,,,,0,0,0,,,,,,,,,8/8 Overcast,4400.0,,SCT,2700.0,OVC,4500.0,,,,
KRDR,12-01-2001,16:10,SPECI,,280,10.0,,,9999.0,Cloud Development Not Observable,-3.0,-4.0,29.93,,,,,0,0,0,,,,,,,,,8/8 Overcast,4400.0,,SCT,2700.0,OVC,4500.0,,,,
KRDR,12-01-2001,16:00,METAR,,270,10.0,,,9999.0,Cloud Development Not Observable,-3.0,-4.0,29.92,1015.0,,,,0,0,0,,,,,,,,,8/8 Overcast,2700.0,,BKN,2700.0,OVC,4500.0,,,,
KRDR,12-01-2001,15:00,METAR,,270,9.0,,,9999.0,Cloud Development Not Observable,-4.0,-4.0,29.90,1014.4,,,,0,0,0,,,,,,,,,8/8 Overcast,2500.0,,OVC,2500.0,,,,,,
KRDR,12-01-2001,14:00,METAR,,270,9.0,,,9999.0,Cloud Development Not Observable,-4.0,-4.0,29.89,1013.8,,,,0,0,0,,,,,,,,,8/8 Overcast,2200.0,,OVC,2200.0,,,,,,
KRDR,12-01-2001,13:00,METAR,,270,11.0,,,9999.0,Cloud Development Not Observable,-4.0,-4.0,29.87,1013.3,,,,0,0,0,,,,,,,,,8/8 Overcast,2000.0,,OVC,2000.0,,,,,,
KRDR,12-01-2001,12:00,METAR,,270,12.0,,,9999.0,Cloud Development Not Observable,-4.0,-5.0,29.86,1013.0,,,,0,0,0,,,,,,,,,8/8 Overcast,2000.0,,OVC,2000.0,,,,,,
KRDR,12-01-2001,11:00,METAR,,270,13.0,,,9999.0,Cloud Development Not Observable,-5.0,-5.0,29.84,1012.3,,,,0,0,0,,,,,,,,,8/8 Overcast,2000.0,,OVC,2000.0,,,,,,
KRDR,12-01-2001,10:00,METAR,,260,11.0,,,9999.0,Cloud Development Not Observable,-5.0,-5.0,29.83,1011.9,,,,0,0,0,,,,,,,,,8/8 Overcast,2500.0,,OVC,2500.0,,,,,,
KRDR,12-01-2001,09:24,SPECI,,270,11.0,,,9999.0,Cloud Development Not Observable,-5.0,-5.0,29.82,,,,,0,0,0,,,,,,,,,8/8 Overcast,2500.0,,OVC,2500.0,,,,,,
KRDR,12-01-2001,09:00,METAR,,270,9.0,,,9999.0,Cloud Development Not Observable,-5.0,-5.0,29.81,1011.2,,,,0,0,0,,,,,,,,,8/8 Overcast,3000.0,,SCT,2500.0,OVC,3000.0,,,,
KRDR,12-01-2001,08:00,METAR,,290,11.0,,,9999.0,Cloud Development Not Observable,-5.0,-6.0,29.79,1010.5,,,,0,0,0,,,,,,,,,8/8 Overcast,3000.0,,SCT,2200.0,OVC,3000.0,,,,
KRDR,12-01-2001,07:00,METAR,,290,15.0,,,9999.0,Cloud Development Not Observable,-6.0,-7.0,29.79,1010.5,,,,0,0,0,,,,,,,,,7/8 Mostly Cloudy,3000.0,,SCT,2200.0,BKN,3000.0,,,,
KRDR,12-01-2001,06:00,METAR,,290,13.0,,,9999.0,Cloud Development Not Observable,-5.0,-5.0,29.77,1009.8,,,,0,0,0,,,,,,,,,8/8 Overcast,3000.0,,OVC,3000.0,,,,,,
KRDR,12-01-2001,05:00,METAR,,300,14.0,,,9999.0,Cloud Development Not Observable,-5.0,-5.0,29.75,1009.1,,,,0,0,0,,,,,,,,,8/8 Overcast,3000.0,,OVC,3000.0,,,,,,
KRDR,12-01-2001,04:20,METAR,,300,12.0,,,9999.0,Cloud Development Not Observable,-4.0,-4.0,29.74,,,,,0,0,0,,,,,,,,,8/8 Overcast,3000.0,,OVC,3000.0,,,,,,
KRDR,12-01-2001,04:00,METAR,,300,13.0,,,9999.0,Cloud Development Not Observable,-4.0,-4.0,29.73,1008.3,,,,0,0,0,,,,,,,,,8/8 Overcast,2900.0,,OVC,2900.0,,,,,,
KRDR,12-01-2001,02:55,METAR,,300,11.0,,,9999.0,Cloud Development Not Observable,-4.0,-4.0,29.73,1008.3,,,,0,0,0,,,,,,,,,8/8 Overcast,2800.0,,OVC,2800.0,,,,,,
KRDR,12-01-2001,02:18,SPECI,,290,8.0,,,9999.0,Light Snow/Mist/Cloud Development Not Observable,-4.0,-4.0,29.72,,,,,71,10,0,,,,,,,,,8/8 Overcast,2800.0,,BKN,2800.0,OVC,6900.0,,,,
KRDR,12-01-2001,02:00,METAR,,290,8.0,,,3200.0,Light Snow/Cloud Development Not Observable,-4.0,-4.0,29.71,1007.6,,,,71,0,0,,,,,,,,,8/8 Overcast,2800.0,,BKN,2800.0,OVC,6900.0,,,,
KRDR,12-01-2001,01:00,METAR,,280,7.0,,,4400.0,Light Snow/Cloud Development Not Observable,-4.0,-4.0,29.70,1007.5,,,,71,0,0,,,,,,,,,8/8 Overcast,2800.0,,BKN,2800.0,OVC,6900.0,,,,
KRDR,12-01-2001,00:30,METAR,,270,5.0,,,2000.0,Light Snow/Cloud Development Not Observable,-4.0,-4.0,29.70,,,,,71,0,0,,,,,,,,,8/8 Overcast,700.0,,SCT,400.0,BKN,2800.0,BKN,2800.0,,
KRDR,12-01-2001,00:00,METAR,,280,5.0,,,2400.0,Light Snow/Cloud Development Not Observable,-4.0,-4.0,29.69,1007.1,,,,71,0,0,,,,,,,,,8/8 Overcast,200.0,,BKN,200.0,BKN,500.0,OVC,2500.0,,
KRDR,11-30-2001,23:00,METAR,,280,5.0,,,2400.0,Light Snow/Cloud Development Not Observable,-4.0,-4.0,29.68,1006.9,,,,71,0,0,,,,,,,,,8/8 Overcast,200.0,,BKN,200.0,BKN,500.0,OVC,2500.0,,
KRDR,11-30-2001,22:00,METAR,,280,4.0,,,2000.0,Light Snow/Cloud Development Not Observable,-3.0,-3.0,29.68,1006.9,,,,71,0,0,,,,,,,,,8/8 Overcast,200.0,,BKN,200.0,OVC,500.0,,,,
KRDR,11-30-2001,21:06,SPECI,,220,5.0,,,1400.0,Light Snow/Cloud Development Not Observable,-3.0,-3.0,29.67,,,,,71,0,0,,,,,,,,,8/8 Overcast,200.0,,BKN,200.0,OVC,500.0,,,,
KRDR,11-30-2001,21:00,METAR,,230,5.0,,,2000.0,Light Snow/Cloud Development Not Observable,-3.0,-3.0,29.66,1006.2,,,,71,0,0,,,,,,,,,8/8 Overcast,500.0,,SCT,200.0,BKN,500.0,OVC,1100.0,,
KRDR,11-30-2001,20:00,METAR,,190,5.0,,,2000.0,Light Snow/Cloud Development Not Observable,-3.0,-3.0,29.66,1006.2,,,,71,0,0,,,,,,,,,8/8 Overcast,500.0,,SCT,200.0,BKN,500.0,OVC,1100.0,,
KRDR,11-30-2001,19:15,SPECI,,,4.0,,,1600.0,Light Snow/Cloud Development Not Observable,-2.0,-2.0,29.67,,,,,71,0,0,,,,,,,,,8/8 Overcast,200.0,,BKN,200.0,OVC,500.0,,,,
KRDR,11-30-2001,18:14,SPECI,,180,7.0,,,1200.0,Light Snow/Cloud Development Not Observable,-3.0,-3.0,29.68,,,,,71,0,0,,,,,,,,,8/8 Overcast,200.0,,OVC,200.0,,,,,,
KRDR,11-30-2001,18:00,METAR,,180,8.0,,,2400.0,Light Snow/Cloud Development Not Observable,-3.0,-3.0,29.68,,,,,71,0,0,,,,,,,,,8/8 Overcast,200.0,,OVC,200.0,,,,,,
KRDR,11-30-2001,17:36,SPECI,,180,8.0,,,2400.0,Light Snow/Cloud Development Not Observable,-3.0,-3.0,29.69,,,,,71,0,0,,,,,,,,,8/8 Overcast,200.0,,BKN,200.0,OVC,600.0,,,,
KRDR,11-30-2001,17:10,SPECI,,160,6.0,,,1200.0,Light Snow/Mist/Cloud Development Not Observable,-3.0,-3.0,29.71,,,,,71,10,0,,,,,,,,,8/8 Overcast,600.0,,SCT,200.0,OVC,600.0,,,,
KRDR,11-30-2001,17:00,METAR,,160,7.0,,,1200.0,Light Snow/Cloud Development Not Observable,-3.0,-3.0,29.71,1007.7,,,,71,0,0,,,,,,,,,8/8 Overcast,500.0,,SCT,200.0,OVC,500.0,,,,
KRDR,11-30-2001,16:47,SPECI,,160,5.0,,,1200.0,Light Snow/Mist/Cloud Development Not Observable,-3.0,-3.0,29.71,,,,,71,10,0,,,,,,,,,8/8 Overcast,500.0,,SCT,200.0,OVC,500.0,,,,
KRDR,11-30-2001,16:18,SPECI,,180,7.0,,,1200.0,Light Snow/Mist/Cloud Development Not Observable,-3.0,-3.0,29.71,,,,,71,10,0,,,,,,,,,8/8 Overcast,1200.0,,FEW,500.0,OVC,1200.0,,,,
KRDR,11-30-2001,16:13,SPECI,,170,6.0,,,1200.0,Light Snow/Mist/Cloud Development Not Observable,-3.0,-3.0,29.71,,,,,71,10,0,,,,,,,,,8/8 Overcast,1200.0,,FEW,500.0,OVC,1200.0,,,,
KRDR,11-30-2001,16:06,SPECI,,180,7.0,,,1600.0,Light Snow/Mist/Cloud Development Not Observable,-3.0,-3.0,29.71,,,,,71,10,0,,,,,,,,,8/8 Overcast,1200.0,,FEW,500.0,OVC,1200.0,,,,
KRDR,11-30-2001,16:00,METAR,,180,6.0,,,3200.0,Light Snow/Mist/Cloud Development Not Observable,-3.0,-3.0,29.71,1007.7,,,,71,10,0,,,,,,,,,8/8 Overcast,1200.0,,FEW,500.0,OVC,1200.0,,,,
KRDR,11-30-2001,15:45,METAR,,180,6.0,,,6400.0,Light Snow/Mist/Cloud Development Not Observable,-3.0,-3.0,29.71,,,,,71,10,0,,,,,,,,,8/8 Overcast,1200.0,,OVC,1200.0,,,,,,
KRDR,11-30-2001,15:10,SPECI,,160,5.0,,,8000.0,Mist/Cloud Development Not Observable,-3.0,-3.0,29.71,,,,,10,0,0,,,,,,,,,8/8 Overcast,1200.0,,OVC,1200.0,,,,,,
KRDR,11-30-2001,15:00,METAR,,170,6.0,,,8000.0,Mist/Cloud Development Not Observable,-3.0,-3.0,29.71,1007.9,,,,10,0,0,,,,,,,,,8/8 Overcast,9000.0,,SCT,1000.0,OVC,8900.0,,,,
KRDR,11-30-2001,14:04,SPECI,,170,6.0,,,8000.0,Mist/Cloud Development Not Observable,-3.0,-3.0,29.71,,,,,10,0,0,,,,,,,,,8/8 Overcast,9000.0,,SCT,1000.0,OVC,8900.0,,,,
KRDR,11-30-2001,14:00,METAR,,170,5.0,,,3200.0,Light Snow/Mist/Cloud Development Not Observable,-3.0,-3.0,29.71,1007.9,,,,71,10,0,,,,,,,,,8/8 Overcast,1000.0,,BKN,1000.0,OVC,8900.0,,,,
KRDR,11-30-2001,13:02,SPECI,,170,10.0,,,2400.0,Light Snow/Mist/Cloud Development Not Observable,-3.0,-3.0,29.73,,,,,71,10,0,,,,,,,,,8/8 Overcast,800.0,,FEW,400.0,OVC,800.0,,,,
KRDR,11-30-2001,13:00,METAR,,160,11.0,,,4800.0,Light Snow/Mist/Cloud Development Not Observable,-3.0,-3.0,29.73,1008.5,,,,71,10,0,,,,,,,,,8/8 Overcast,800.0,,FEW,400.0,OVC,800.0,,,,
KRDR,11-30-2001,11:55,METAR,,170,11.0,,,8000.0,Light Snow/Mist/Cloud Development Not Observable,-3.0,-3.0,29.74,1008.8,,,,71,10,0,,,,,,,,,8/8 Overcast,800.0,,FEW,400.0,OVC,800.0,,,,
KRDR,11-30-2001,11:39,SPECI,,160,11.0,,,8000.0,Light Snow/Mist/Cloud Development Not Observable,-3.0,-3.0,29.74,,,,,71,10,0,,,,,,,,,8/8 Overcast,800.0,,FEW,400.0,OVC,800.0,,,,
KRDR,11-30-2001,10:00,METAR,,150,10.0,,,6400.0,Mist/Cloud Development Not Observable,-4.0,-4.0,29.74,1009.0,,,,10,0,0,,,,,,,,,8/8 Overcast,800.0,,OVC,800.0,,,,,,
KRDR,11-30-2001,09:00,METAR,,160,13.0,,,6400.0,Mist/Cloud Development Not Observable,-4.0,-4.0,29.77,1009.9,,,,10,0,0,,,,,,,,,8/8 Overcast,800.0,,OVC,800.0,,,,,,
KRDR,11-30-2001,08:00,METAR,,160,15.0,,,6400.0,Mist/Cloud Development Not Observable,-4.0,-4.0,29.76,1009.7,,,,10,0,0,,,,,,,,,8/8 Overcast,1000.0,,SCT,600.0,OVC,1000.0,,,,
KRDR,11-30-2001,07:00,METAR,,160,16.0,,,9999.0,Mist/Cloud Development Not Observable,-4.0,-4.0,29.79,1010.6,,,,10,0,0,,,,,,,,,8/8 Overcast,1000.0,,SCT,600.0,OVC,1000.0,,,,
KRDR,11-30-2001,06:00,METAR,,160,15.0,,,9999.0,Cloud Development Not Observable,-5.0,-5.0,29.80,1011.1,,,,0,0,0,,,,,,,,,8/8 Overcast,1000.0,,SCT,600.0,OVC,1000.0,,,,
KRDR,11-30-2001,05:00,METAR,,160,14.0,,,9999.0,Cloud Development Not Observable,-5.0,-5.0,29.81,1011.5,,,,0,0,0,,,,,,,,,8/8 Overcast,1000.0,,SCT,600.0,OVC,1000.0,,,,
KRDR,11-30-2001,04:00,METAR,,170,15.0,,,9999.0,Drifting Snow/Cloud Development Not Observable,-6.0,-6.0,29.83,1012.2,,,,36,0,0,,,,,,,,,8/8 Overcast,1000.0,,SCT,600.0,OVC,1000.0,,,,
KRDR,11-30-2001,03:00,METAR,,170,17.0,,130/28KTS,9999.0,Drifting Snow/Cloud Development Not Observable,-6.0,-6.0,29.85,1012.9,,,,36,0,0,,,,,,,,,8/8 Overcast,1000.0,,SCT,600.0,OVC,1000.0,,,,
KRDR,11-30-2001,01:55,METAR,,150,20.0,26.0,,9999.0,Drifting Snow/Cloud Development Not Observable,-5.0,-5.0,29.85,1012.7,,,,36,0,0,,,,,,,,,7/8 Mostly Cloudy,1000.0,,SCT,600.0,BKN,1000.0,BKN,20000.0,,
KRDR,11-30-2001,01:37,SPECI,,160,20.0,,,9999.0,Drifting Snow/Cloud Development Not Observable,-5.0,-5.0,29.86,,,,,36,0,0,,,,,,,,,7/8 Mostly Cloudy,1000.0,,SCT,600.0,BKN,1000.0,BKN,20000.0,,
KRDR,11-30-2001,01:00,METAR,,160,14.0,,,9999.0,Drifting Snow/Cloud Development Not Observable,-7.0,-7.0,29.86,1013.5,,,,36,0,0,,,,,,,,,7/8 Mostly Cloudy,20000.0,,SCT,1100.0,BKN,20000.0,,,,
KRDR,11-30-2001,00:00,METAR,,160,17.0,,,9999.0,Drifting Snow/Cloud Development Not Observable,-7.0,-7.0,29.87,1013.5,,,,36,0,0,,,,,,,,,7/8 Mostly Cloudy,20000.0,,FEW,1200.0,BKN,20000.0,,,,
KRDR,11-29-2001,23:18,SPECI,,150,18.0,,,9999.0,Drifting Snow/Cloud Development Not Observable,-6.0,-6.0,29.88,,,,,36,0,0,,,,,,,,,7/8 Mostly Cloudy,20000.0,,FEW,1200.0,FEW,8900.0,BKN,20000.0,,
KRDR,11-29-2001,23:00,METAR,,160,19.0,,,9999.0,Drifting Snow/Cloud Development Not Observable,-6.0,-6.0,29.88,1013.8,,,,36,0,0,,,,,,,,,8/8 Overcast,1200.0,,BKN,1200.0,OVC,20000.0,,,,
KRDR,11-29-2001,22:28,SPECI,,150,18.0,,,9999.0,Drifting Snow/Cloud Development Not Observable,-6.0,-6.0,29.89,,,,,36,0,0,,,,,,,,,8/8 Overcast,1200.0,,BKN,1200.0,OVC,20000.0,,,,
KRDR,11-29-2001,22:00,METAR,,160,17.0,,170/26KTS,9999.0,Drifting Snow/Cloud Development Not Observable,-6.0,-6.0,29.89,1014.2,,,,36,0,0,,,,,,,,,8/8 Overcast,900.0,,OVC,900.0,,,,,,
KRDR,11-29-2001,21:00,METAR,,160,15.0,,,9999.0,Drifting Snow/Cloud Development Not Observable,-6.0,-6.0,29.91,1014.7,,,,36,0,0,,,,,,,,,8/8 Overcast,900.0,,OVC,900.0,,,,,,
KRDR,11-29-2001,20:00,METAR,,150,15.0,,,9999.0,Drifting Snow/Cloud Development Not Observable,-6.0,-6.0,29.91,1014.7,,,,36,0,0,,,,,,,,,8/8 Overcast,800.0,,OVC,800.0,,,,,,
KRDR,11-29-2001,19:28,SPECI,,150,19.0,,,9999.0,Drifting Snow/Cloud Development Not Observable,-6.0,-6.0,29.91,,,,,36,0,0,,,,,,,,,8/8 Overcast,800.0,,OVC,800.0,,,,,,
KRDR,11-29-2001,19:00,METAR,,150,16.0,,,9999.0,Light Snow/Drifting Snow/Cloud Development Not Observable,-6.0,-6.0,29.93,1015.4,,,,71,36,0,,,,,,,,,8/8 Overcast,800.0,,OVC,800.0,,,,,,
KRDR,11-29-2001,18:43,SPECI,,160,16.0,,,9999.0,Light Snow/Drifting Snow/Cloud Development Not Observable,-6.0,-6.0,29.93,,,,,71,36,0,,,,,,,,,8/8 Overcast,800.0,,OVC,800.0,,,,,,
KRDR,11-29-2001,16:00,METAR,,150,13.0,,,9999.0,Cloud Development Not Observable,-5.0,-5.0,30.00,1018.1,,,,0,0,0,,,,,,,,,8/8 Overcast,1000.0,,OVC,1000.0,,,,,,
KRDR,11-29-2001,15:00,METAR,,150,8.0,,,9999.0,Cloud Development Not Observable,-6.0,-6.0,30.02,1018.7,,,,0,0,0,,,,,,,,,8/8 Overcast,1200.0,,OVC,1200.0,,,,,,
KRDR,11-29-2001,14:00,METAR,,140,7.0,,,9999.0,Cloud Development Not Observable,-6.0,-6.0,30.03,1019.0,,,,0,0,0,,,,,,,,,8/8 Overcast,1200.0,,OVC,1200.0,,,,,,
KRDR,11-29-2001,12:00,METAR,,140,6.0,,,9999.0,Mist/Cloud Development Not Observable,-6.0,-6.0,30.06,1020.0,,,,10,0,0,,,,,,,,,8/8 Overcast,1200.0,,SCT,500.0,OVC,1200.0,,,,
KRDR,11-29-2001,11:00,METAR,,120,6.0,,,9999.0,Mist/Cloud Development Not Observable,-6.0,-6.0,30.06,1020.1,,,,10,0,0,,,,,,,,,8/8 Overcast,1200.0,,SCT,500.0,OVC,1200.0,,,,
KRDR,11-29-2001,10:00,METAR,,100,6.0,,,9999.0,Mist/Cloud Development Not Observable,-7.0,-7.0,30.08,1020.5,,,,10,0,0,,,,,,,,,8/8 Overcast,1200.0,,SCT,500.0,OVC,1200.0,,,,
KRDR,11-29-2001,09:00,METAR,,,3.0,,,9999.0,Mist/Cloud Development Not Observable,-7.0,-7.0,30.11,1021.5,,,,10,0,0,,,,,,,,,8/8 Overcast,1200.0,,SCT,500.0,OVC,1200.0,,,,
KRDR,11-29-2001,08:00,METAR,,,3.0,,,8000.0,Mist/Cloud Development Not Observable,-7.0,-7.0,30.12,1021.9,,,,10,0,0,,,,,,,,,8/8 Overcast,1000.0,,SCT,500.0,BKN,1000.0,OVC,2500.0,,
KRDR,11-29-2001,07:00,METAR,,,2.0,,,6400.0,Mist/Cloud Development Not Observable,-7.0,-7.0,30.13,1022.4,,,,10,0,0,,,,,,,,,8/8 Overcast,1000.0,,SCT,500.0,BKN,1000.0,OVC,2500.0,,
KRDR,11-29-2001,06:00,METAR,,,4.0,,,6400.0,Mist/Cloud Development Not Observable,-8.0,-8.0,30.14,1022.8,,,,10,0,0,,,,,,,,,8/8 Overcast,1000.0,,SCT,500.0,BKN,1000.0,OVC,2500.0,,
KRDR,11-29-2001,05:16,SPECI,,280,4.0,,,6400.0,Mist/Cloud Development Not Observable,-8.0,-8.0,30.15,,,,,10,0,0,,,,,,,,,8/8 Overcast,1000.0,,SCT,500.0,BKN,1000.0,OVC,3000.0,,
KRDR,11-29-2001,05:00,METAR,,270,4.0,,,3200.0,Mist/Cloud Development Not Observable,-8.0,-8.0,30.15,1023.2,,,,10,0,0,,,,,,,,,8/8 Overcast,1000.0,,SCT,500.0,BKN,1000.0,OVC,3000.0,,
KRDR,11-29-2001,04:00,METAR,,320,4.0,,,3200.0,Mist/Cloud Development Not Observable,-9.0,-9.0,30.18,1024.1,,,,10,0,0,,,,,,,,,8/8 Overcast,1000.0,,SCT,500.0,BKN,1000.0,OVC,5400.0,,
KRDR,11-29-2001,03:46,SPECI,,330,4.0,,,3200.0,Mist/Cloud Development Not Observable,-9.0,-9.0,30.18,,,,,10,0,0,,,,,,,,,8/8 Overcast,1000.0,,SCT,500.0,BKN,1000.0,OVC,5400.0,,
KRDR,11-29-2001,03:23,SPECI,,,6.0,,,4800.0,Mist/Cloud Development Not Observable,-10.0,-10.0,30.18,,,,,10,0,0,,,,,,,,,8/8 Overcast,1000.0,,SCT,500.0,BKN,1000.0,OVC,5400.0,,
KRDR,11-29-2001,03:00,METAR,,,6.0,,,8000.0,Mist/Cloud Development Not Observable,-10.0,-10.0,30.19,1024.8,,,,10,0,0,,,,,,,,,8/8 Overcast,3400.0,,SCT,800.0,BKN,3500.0,OVC,5400.0,,
KRDR,11-29-2001,02:19,SPECI,,110,6.0,,,9999.0,Mist/Cloud Development Not Observable,-7.0,-7.0,30.20,,,,,10,0,0,,,,,,,,,7/8 Mostly Cloudy,5500.0,,FEW,3500.0,BKN,5400.0,BKN,14000.0,,
KRDR,11-29-2001,02:00,METAR,,110,6.0,,,8000.0,Light Snow/Mist/Cloud Development Not Observable,-8.0,-8.0,30.21,1025.4,,,,71,10,0,,,,,,,,,7/8 Mostly Cloudy,5500.0,,FEW,3500.0,BKN,5400.0,BKN,14000.0,,
KRDR,11-29-2001,01:23,SPECI,,100,5.0,,,6400.0,Light Snow/Mist/Cloud Development Not Observable,-7.0,-7.0,30.22,,,,,71,10,0,,,,,,,,,7/8 Mostly Cloudy,8000.0,,SCT,3500.0,BKN,7900.0,BKN,14000.0,,
KRDR,11-29-2001,01:00,METAR,,70,5.0,,,6400.0,Light Snow/Mist/Cloud Development Not Observable,-7.0,-7.0,30.24,1026.3,,,,71,10,0,,,,,,,,,8/8 Overcast,7500.0,,FEW,1500.0,SCT,3500.0,OVC,7400.0,,
KRDR,11-29-2001,00:00,METAR,,60,4.0,,,4800.0,Light Snow/Mist/Cloud Development Not Observable,-6.0,-6.0,30.26,1026.9,,,,71,10,0,,,,,,,,,8/8 Overcast,3400.0,,FEW,1100.0,BKN,3500.0,OVC,7900.0,,
KRDR,11-28-2001,22:00,METAR,,60,5.0,,,9999.0,Light Snow/Cloud Development Not Observable,-6.0,-6.0,30.30,1028.3,,,,71,0,0,,,,,,,,,8/8 Overcast,8500.0,,SCT,4000.0,OVC,8400.0,,,,
KRDR,11-28-2001,21:00,METAR,,60,6.0,,,9999.0,Light Snow/Cloud Development Not Observable,-6.0,-6.0,30.31,1028.5,,,,71,0,0,,,,,,,,,8/8 Overcast,3900.0,,BKN,4000.0,OVC,8900.0,,,,
KRDR,11-28-2001,20:39,SPECI,,50,7.0,,,4800.0,Light Snow/Cloud Development Not Observable,-6.0,-6.0,30.31,,,,,71,0,0,,,,,,,,,,72000.0,,,,,,,,,
KRDR,11-28-2001,20:00,METAR,,50,7.0,,,4800.0,Light Snow/Cloud Development Not Observable,-6.0,-6.0,30.33,1029.2,,,,71,0,0,,,,,,,,,8/8 Overcast,3400.0,,BKN,3500.0,OVC,6900.0,,,,
KRDR,11-28-2001,19:00,METAR,,60,6.0,,,8900.0,Light Snow/Cloud Development Not Observable,-6.0,-6.0,30.36,1030.2,,,,71,0,0,,,,,,,,,8/8 Overcast,3400.0,,BKN,3500.0,OVC,6900.0,,,,
KRDR,11-28-2001,18:00,METAR,,50,8.0,,,3200.0,Light Snow/Cloud Development Not Observable,-7.0,-7.0,30.38,1031.1,,,,71,0,0,,,,,,,,,8/8 Overcast,3400.0,,BKN,3500.0,OVC,6900.0,,,,
KRDR,11-28-2001,17:22,SPECI,,40,7.0,,,2800.0,Light Snow/Cloud Development Not Observable,-7.0,-7.0,30.41,,,,,71,0,0,,,,,,,,,8/8 Overcast,3400.0,,BKN,3500.0,OVC,6900.0,,,,
KRDR,11-28-2001,17:00,METAR,,50,8.0,,,2800.0,Light Snow/Cloud Development Not Observable,-7.0,-7.0,30.42,1032.3,,,,71,0,0,,,,,,,,,8/8 Overcast,3400.0,,BKN,3500.0,OVC,6900.0,,,,
KRDR,11-28-2001,16:47,SPECI,,40,8.0,,,2800.0,Light Snow/Cloud Development Not Observable,-7.0,-7.0,30.42,,,,,71,0,0,,,,,,,,,8/8 Overcast,3400.0,,BKN,3500.0,OVC,6900.0,,,,
KRDR,11-28-2001,16:19,SPECI,,50,8.0,,,4000.0,Light Snow/Cloud Development Not Observable,-7.0,-7.0,30.43,,,,,71,0,0,,,,,,,,,8/8 Overcast,3400.0,,BKN,3500.0,OVC,6900.0,,,,
KRDR,11-28-2001,16:00,METAR,,50,9.0,,,6400.0,Light Snow/Cloud Development Not Observable,-8.0,-8.0,30.44,1033.1,,,,71,0,0,,,,,,,,,8/8 Overcast,3400.0,,BKN,3500.0,OVC,6900.0,,,,
KRDR,11-28-2001,15:00,METAR,,30,8.0,,,9999.0,Light Snow/Cloud Development Not Observable,-8.0,-8.0,30.45,1033.4,,,,71,0,0,,,,,,,,,8/8 Overcast,3900.0,,OVC,4000.0,,,,,,
KRDR,11-28-2001,14:00,METAR,,360,8.0,,,9999.0,Light Snow/Cloud Development Not Observable,-9.0,-9.0,30.46,1033.8,,,,71,0,0,,,,,,,,,8/8 Overcast,6000.0,,OVC,5900.0,,,,,,
KRDR,11-28-2001,13:00,METAR,,20,10.0,,,9999.0,Light Snow/Cloud Development Not Observable,-9.0,-9.0,30.46,1033.8,,,,71,0,0,,,,,,,,,8/8 Overcast,5500.0,,SCT,2500.0,OVC,5400.0,,,,
KRDR,11-28-2001,12:13,SPECI,,10,9.0,,,4800.0,Light Snow/Mist/Cloud Development Not Observable,-9.0,-9.0,30.47,,,,,71,10,0,,,,,,,,,8/8 Overcast,6000.0,,FEW,800.0,SCT,2500.0,OVC,5900.0,,
KRDR,11-28-2001,12:00,METAR,,10,8.0,,,4800.0,Light Snow/Mist/Cloud Development Not Observable,-9.0,-9.0,30.47,1034.0,,,,71,10,0,,,,,,,,,8/8 Overcast,6000.0,,FEW,800.0,SCT,2000.0,OVC,5900.0,,
KRDR,11-28-2001,10:55,METAR,,360,9.0,,,6400.0,Light Snow/Mist/Cloud Development Not Observable,-9.0,-9.0,30.47,1034.0,,,,71,10,0,,,,,,,,,8/8 Overcast,6000.0,,SCT,2500.0,OVC,5900.0,,,,
KRDR,11-28-2001,10:00,METAR,,360,11.0,,,8000.0,Light Snow/Cloud Development Not Observable,-9.0,-9.0,30.47,1034.0,,,,71,0,0,,,,,,,,,8/8 Overcast,3900.0,,SCT,2000.0,OVC,4000.0,,,,
KRDR,11-28-2001,09:00,METAR,,360,13.0,,,8000.0,Light Snow/Cloud Development Not Observable,-9.0,-9.0,30.47,1034.1,,,,71,0,0,,,,,,,,,7/8 Mostly Cloudy,6000.0,,SCT,2500.0,BKN,5900.0,,,,
KRDR,11-28-2001,08:00,METAR,,360,13.0,,,9999.0,Light Snow/Cloud Development Not Observable,-9.0,-9.0,30.47,1034.0,,,,71,0,0,,,,,,,,,7/8 Mostly Cloudy,6000.0,,SCT,2500.0,BKN,5900.0,BKN,7900.0,,
KRDR,11-28-2001,07:31,SPECI,,360,12.0,,,9999.0,Light Snow/Cloud Development Not Observable,-9.0,-9.0,30.47,,,,,71,0,0,,,,,,,,,7/8 Mostly Cloudy,5500.0,,SCT,2500.0,BKN,5400.0,BKN,7900.0,,
KRDR,11-28-2001,07:00,METAR,,360,14.0,,,9999.0,Light Snow/Cloud Development Not Observable,-9.0,-9.0,30.47,1034.1,,,,71,0,0,,,,,,,,,7/8 Mostly Cloudy,4900.0,,SCT,2500.0,BKN,5000.0,BKN,7900.0,,
KRDR,11-28-2001,06:00,METAR,,360,13.0,,,9999.0,Light Snow/Cloud Development Not Observable,-8.0,-8.0,30.48,1034.2,,,,71,0,0,,,,,,,,,7/8 Mostly Cloudy,4900.0,,SCT,2500.0,BKN,5000.0,BKN,7900.0,,
KRDR,11-28-2001,05:24,SPECI,,10,13.0,,,9999.0,Light Snow/Cloud Development Not Observable,-8.0,-8.0,30.48,,,,,71,0,0,,,,,,,,,7/8 Mostly Cloudy,4900.0,,SCT,2500.0,BKN,5000.0,BKN,7900.0,,
KRDR,11-28-2001,05:00,METAR,,360,13.0,,,6400.0,Light Snow/Cloud Development Not Observable,-8.0,-8.0,30.47,1034.0,,,,71,0,0,,,,,,,,,7/8 Mostly Cloudy,2500.0,,SCT,1000.0,BKN,2500.0,BKN,5000.0,,
KRDR,11-28-2001,04:00,METAR,,360,14.0,,,4800.0,Light Snow/Cloud Development Not Observable,-8.0,-8.0,30.46,1033.8,,,,71,0,0,,,,,,,,,7/8 Mostly Cloudy,2500.0,,SCT,1000.0,BKN,2500.0,BKN,5000.0,,
KRDR,11-28-2001,03:30,METAR,,10,14.0,,,4800.0,Light Snow/Cloud Development Not Observable,-8.0,-8.0,30.46,,,,,71,0,0,,,,,,,,,7/8 Mostly Cloudy,2500.0,,SCT,1000.0,BKN,2500.0,BKN,5000.0,,
KRDR,11-28-2001,03:00,METAR,,10,14.0,,,3200.0,Light Snow/Drifting Snow/Cloud Development Not Observable,-8.0,-8.0,30.46,1033.6,,,,71,36,0,,,,,,,,,8/8 Overcast,2500.0,,SCT,1000.0,BKN,2500.0,OVC,5000.0,,
KRDR,11-28-2001,02:00,METAR,,360,16.0,,,3200.0,Light Snow/Drifting Snow/Cloud Development Not Observable,-8.0,-8.0,30.43,1032.9,,,,71,36,0,,,,,,,,,8/8 Overcast,2500.0,,SCT,1000.0,BKN,2500.0,OVC,4000.0,,
KRDR,11-28-2001,01:00,METAR,,360,17.0,,,3200.0,Light Snow/Drifting Snow/Cloud Development Not Observable,-8.0,-8.0,30.42,1032.6,,,,71,36,0,,,,,,,,,7/8 Mostly Cloudy,2500.0,,SCT,1500.0,BKN,2500.0,BKN,4500.0,,
KRDR,11-28-2001,00:00,METAR,,360,18.0,,,3200.0,Light Snow/Drifting Snow/Cloud Development Not Observable,-7.0,-7.0,30.41,1032.0,,,,71,36,0,,,,,,,,,8/8 Overcast,2500.0,,SCT,1500.0,OVC,2500.0,,,,
KRDR,11-27-2001,23:09,SPECI,,360,18.0,,,3200.0,Light Snow/Drifting Snow/Cloud Development Not Observable,-7.0,-7.0,30.40,,,,,71,36,0,,,,,,,,,8/8 Overcast,2500.0,,SCT,1500.0,OVC,2500.0,,,,
KRDR,11-27-2001,23:00,METAR,,360,17.0,,360/25KTS,3200.0,Light Snow/Drifting Snow/Cloud Development Not Observable,-7.0,-7.0,30.39,1031.3,,,,71,36,0,,,,,,,,,8/8 Overcast,2500.0,,SCT,1500.0,OVC,2500.0,,,,
KRDR,11-27-2001,22:49,SPECI,,360,17.0,,,3200.0,Light Snow/Drifting Snow/Cloud Development Not Observable,-7.0,-7.0,30.39,,,,,71,36,0,,,,,,,,,8/8 Overcast,2500.0,,SCT,1500.0,OVC,2500.0,,,,
KRDR,11-27-2001,22:13,SPECI,,360,18.0,,,4800.0,Light Snow/Drifting Snow/Cloud Development Not Observable,-7.0,-7.0,30.38,,,,,71,36,0,,,,,,,,,8/8 Overcast,3000.0,,SCT,1500.0,OVC,3000.0,,,,
KRDR,11-27-2001,22:00,METAR,,10,20.0,,010/27KTS,2400.0,Light Snow/Drifting Snow/Cloud Development Not Observable,-7.0,-7.0,30.37,1030.7,,,,71,36,0,,,,,,,,,8/8 Overcast,2500.0,,SCT,1500.0,OVC,2500.0,,,,
KRDR,11-27-2001,21:26,SPECI,,10,21.0,,,2400.0,Light Snow/Drifting Snow/Cloud Development Not Observable,-7.0,-7.0,30.37,,,,,71,36,0,,,,,,,,,8/8 Overcast,2100.0,,SCT,1500.0,BKN,2100.0,OVC,3000.0,,
KRDR,11-27-2001,21:00,METAR,,360,23.0,28.0,,1200.0,Light Snow/Drifting Snow/Cloud Development Not Observable,-7.0,-7.0,30.36,1030.4,,,,71,36,0,,,,,,,,,7/8 Mostly Cloudy,1500.0,,BKN,1500.0,,,,,,
KRDR,11-27-2001,20:37,SPECI,,360,21.0,,,1200.0,Light Snow/Drifting Snow/Cloud Development Not Observable,-7.0,-7.0,30.36,,,,,71,36,0,,,,,,,,,8/8 Overcast,1500.0,,BKN,1500.0,OVC,3000.0,,,,
KRDR,11-27-2001,20:00,METAR,,360,23.0,,010/28KTS,1200.0,Light Snow/Drifting Snow/Cloud Development Not Observable,-7.0,-7.0,30.35,1030.0,,,,71,36,0,,,,,,,,,7/8 Mostly Cloudy,1500.0,,BKN,1500.0,BKN,3000.0,,,,
KRDR,11-27-2001,19:00,METAR,,360,23.0,,010/29KTS,1200.0,Light Snow/Drifting Snow/Cloud Development Not Observable,-7.0,-7.0,30.34,1029.7,,,,71,36,0,,,,,,,,,7/8 Mostly Cloudy,1500.0,,BKN,1500.0,BKN,3000.0,,,,
KRDR,11-27-2001,18:00,METAR,,10,25.0,,010/30KTS,1200.0,Light Snow/Drifting Snow/Mist,-7.0,-7.0,30.34,1029.7,,,,71,36,10,,,,,,,,,8/8 Overcast,1500.0,,BKN,1500.0,OVC,3000.0,,,,
KRDR,11-27-2001,17:00,METAR,,10,25.0,28.0,010/30KTS,1200.0,Light Snow/Drifting Snow/Mist,-8.0,-8.0,30.35,1029.9,,,,71,36,10,,,,,,,,,8/8 Overcast,1500.0,,BKN,1500.0,OVC,3000.0,,,,
KRDR,11-27-2001,16:34,SPECI,,10,25.0,29.0,,1200.0,Light Snow/Drifting Snow/Mist,-8.0,-8.0,30.34,,,,,71,36,10,,,,,,,,,8/8 Overcast,1500.0,,BKN,1500.0,OVC,3000.0,,,,
KRDR,11-27-2001,16:00,METAR,,360,21.0,,010/29KTS,1200.0,Light Snow/Drifting Snow/Mist,-8.0,-8.0,30.34,1029.5,,,,71,36,10,,,,,,,,,8/8 Overcast,1500.0,,BKN,1500.0,OVC,3000.0,,,,
KRDR,11-27-2001,15:14,SPECI,,10,23.0,,,1200.0,Light Snow/Drifting Snow/Mist,-8.0,-8.0,30.33,,,,,71,36,10,,,,,,,,,8/8 Overcast,1500.0,,BKN,1500.0,OVC,3000.0,,,,
KRDR,11-27-2001,15:00,METAR,,360,23.0,27.0,360/30KTS,1200.0,Light Snow/Drifting Snow/Mist,-8.0,-8.0,30.33,1029.2,,,,71,36,10,,,,,,,,,8/8 Overcast,1500.0,,BKN,1500.0,OVC,3000.0,,,,
KRDR,11-27-2001,14:33,SPECI,,10,23.0,,,1200.0,Light Snow/Drifting Snow/Mist,-8.0,-8.0,30.33,,,,,71,36,10,,,,,,,,,8/8 Overcast,1500.0,,BKN,1500.0,OVC,3000.0,,,,
KRDR,11-27-2001,14:00,METAR,,10,22.0,28.0,,1600.0,Light Snow/Drifting Snow/Mist,-8.0,-8.0,30.33,1029.2,,,,71,36,10,,,,,,,,,8/8 Overcast,1500.0,,BKN,1500.0,OVC,3000.0,,,,
KRDR,11-27-2001,13:36,SPECI,,360,22.0,,,1200.0,Light Snow/Drifting Snow/Mist,-8.0,-8.0,30.32,,,,,71,36,10,,,,,,,,,8/8 Overcast,1500.0,,BKN,1500.0,OVC,3000.0,,,,
KRDR,11-27-2001,13:00,METAR,,10,23.0,,010/30KTS,1600.0,Light Snow/Drifting Snow/Mist,-8.0,-8.0,30.31,1028.6,,,,71,36,10,,,,,,,,,8/8 Overcast,1500.0,,BKN,1500.0,OVC,3000.0,,,,
KRDR,11-27-2001,12:00,METAR,,10,22.0,,010/30KTS,1600.0,Light Snow/Drifting Snow/Mist,-8.0,-8.0,30.31,1028.4,,,,71,36,10,,,,,,,,,8/8 Overcast,1500.0,,BKN,1500.0,OVC,3000.0,,,,
KRDR,11-27-2001,11:28,SPECI,,10,23.0,,,1600.0,Light Snow/Drifting Snow/Mist,-7.0,-7.0,30.31,,,,,71,36,10,,,,,,,,,8/8 Overcast,1500.0,,BKN,1500.0,OVC,3000.0,,,,
KRDR,11-27-2001,11:00,METAR,,10,23.0,28.0,,3200.0,Light Snow/Drifting Snow/Mist,-7.0,-7.0,30.31,1028.4,,,,71,36,10,,,,,,,,,8/8 Overcast,3000.0,,SCT,1600.0,OVC,3000.0,,,,
KRDR,11-27-2001,10:40,SPECI,,10,23.0,,,3200.0,Light Snow/Drifting Snow/Mist,-7.0,-7.0,30.31,,,,,71,36,10,,,,,,,,,8/8 Overcast,3000.0,,SCT,1600.0,OVC,3000.0,,,,
KRDR,11-27-2001,10:17,SPECI,,10,20.0,,,3200.0,Light Snow/Drifting Snow/Mist,-7.0,-7.0,30.31,,,,,71,36,10,,,,,,,,,8/8 Overcast,1600.0,,BKN,1600.0,OVC,3000.0,,,,
KRDR,11-27-2001,10:00,METAR,,10,22.0,26.0,360/29KTS,3200.0,Snow Grains/Drifting Snow/Mist,-7.0,-7.0,30.30,1028.2,,,,77,36,10,,,,,,,,,8/8 Overcast,3000.0,,SCT,1500.0,OVC,3000.0,,,,
KRDR,11-27-2001,09:00,METAR,,10,22.0,28.0,,3200.0,Snow Grains/Drifting Snow/Mist,-7.0,-7.0,30.30,1028.0,,,,77,36,10,,,,,,,,,8/8 Overcast,3100.0,,SCT,1500.0,OVC,3100.0,,,,
KRDR,11-27-2001,08:00,METAR,,10,21.0,28.0,,3200.0,Light Snow/Drifting Snow/Mist,-7.0,-7.0,30.30,1028.0,,,,71,36,10,,,,,,,,,8/8 Overcast,3100.0,,SCT,1500.0,OVC,3100.0,,,,
KRDR,11-27-2001,07:39,SPECI,,10,22.0,,,3200.0,Light Snow/Drifting Snow/Mist,-7.0,-7.0,30.30,,,,,71,36,10,,,,,,,,,8/8 Overcast,3100.0,,SCT,1500.0,OVC,3100.0,,,,
KRDR,11-27-2001,07:00,METAR,,10,22.0,,010/26KTS,1600.0,Light Snow/Drifting Snow/Mist,-7.0,-7.0,30.31,1028.5,,,,71,36,10,,,,,,,,,8/8 Overcast,1500.0,,OVC,1500.0,,,,,,
KRDR,11-27-2001,06:00,METAR,,20,21.0,,010/27KTS,1600.0,Light Snow/Drifting Snow/Mist,-7.0,-7.0,30.32,1028.7,,,,71,36,10,,,,,,,,,8/8 Overcast,1500.0,,OVC,1500.0,,,,,,
KRDR,11-27-2001,05:00,METAR,,10,21.0,,010/28KTS,1600.0,Light Snow/Drifting Snow/Cloud Development Not Observable,-7.0,-7.0,30.32,1028.7,,,,71,36,0,,,,,,,,,8/8 Overcast,1500.0,,BKN,1500.0,OVC,2500.0,,,,
KRDR,11-27-2001,04:42,SPECI,,20,21.0,,,1600.0,Light Snow/Drifting Snow/Cloud Development Not Observable,-7.0,-7.0,30.32,,,,,71,36,0,,,,,,,,,8/8 Overcast,1500.0,,BKN,1500.0,OVC,2500.0,,,,
KRDR,11-27-2001,04:00,METAR,,10,20.0,,,1600.0,Light Snow/Drifting Snow/Cloud Development Not Observable,-7.0,-7.0,30.32,1028.9,,,,71,36,0,,,,,,,,,8/8 Overcast,1500.0,,BKN,1500.0,OVC,2500.0,,,,
KRDR,11-27-2001,03:40,SPECI,,10,20.0,,,1600.0,Light Snow/Drifting Snow/Cloud Development Not Observable,-7.0,-7.0,30.32,,,,,71,36,0,,,,,,,,,8/8 Overcast,1500.0,,OVC,1500.0,,,,,,
KRDR,11-27-2001,03:00,METAR,,10,21.0,27.0,,1600.0,Light Snow/Drifting Snow/Cloud Development Not Observable,-7.0,-7.0,30.33,1029.1,,,,71,36,0,,,,,,,,,8/8 Overcast,1500.0,,OVC,1500.0,,,,,,
KRDR,11-27-2001,02:00,METAR,,10,23.0,27.0,,1600.0,Light Snow/Blowing Snow/Cloud Development Not Observable,-6.0,-6.0,30.33,1029.0,,,,71,38,0,,,,,,,,,8/8 Overcast,1500.0,,OVC,1500.0,,,,,,
KRDR,11-27-2001,01:28,SPECI,,20,22.0,28.0,,2800.0,Light Snow/Cloud Development Not Observable,-6.0,-6.0,30.33,,,,,71,0,0,,,,,,,,,8/8 Overcast,1500.0,,BKN,1500.0,OVC,2200.0,,,,
KRDR,11-27-2001,01:00,METAR,,20,21.0,28.0,,4800.0,Light Snow/Cloud Development Not Observable,-6.0,-6.0,30.33,1029.0,,,,71,0,0,,,,,,,,,8/8 Overcast,1500.0,,BKN,1500.0,OVC,2700.0,,,,
KRDR,11-27-2001,00:00,METAR,,20,21.0,29.0,010/30KTS,9999.0,Light Snow/Cloud Development Not Observable,-5.0,-6.0,30.32,1028.6,,,,71,0,0,,,,,,,,,8/8 Overcast,2000.0,,BKN,2000.0,OVC,2700.0,,,,
KRDR,11-26-2001,23:00,METAR,,20,21.0,30.0,,9999.0,Light Snow/Cloud Development Not Observable,-5.0,-5.0,30.31,1028.3,,,,71,0,0,,,,,,,,,8/8 Overcast,2000.0,,BKN,2000.0,OVC,2700.0,,,,
KRDR,11-26-2001,22:00,METAR,,20,21.0,27.0,,9999.0,Light Snow/Cloud Development Not Observable,-5.0,-5.0,30.31,1028.5,,,,71,0,0,,,,,,,,,8/8 Overcast,1500.0,,BKN,1500.0,OVC,2700.0,,,,
KRDR,11-26-2001,21:00,METAR,,20,21.0,27.0,010/26KTS,9999.0,Light Snow/Cloud Development Not Observable,-5.0,-5.0,30.32,1028.6,,,,71,0,0,,,,,,,,,8/8 Overcast,1600.0,,BKN,1600.0,OVC,2700.0,,,,
KRDR,11-26-2001,20:00,METAR,,20,17.0,27.0,020/29KTS,9999.0,Light Snow/Cloud Development Not Observable,-5.0,-5.0,30.32,1028.8,,,,71,0,0,,,,,,,,,8/8 Overcast,2000.0,,BKN,2000.0,OVC,2700.0,,,,
KRDR,11-26-2001,19:00,METAR,,30,23.0,,010/29KTS,9999.0,Light Snow/Cloud Development Not Observable,-5.0,-5.0,30.32,1028.7,,,,71,0,0,,,,,,,,,8/8 Overcast,2000.0,,BKN,2000.0,OVC,2700.0,,,,
KRDR,11-26-2001,18:00,METAR,,20,22.0,27.0,,9999.0,Light Snow/Cloud Development Not Observable,-5.0,-5.0,30.34,1029.3,,,,71,0,0,,,,,,,,,8/8 Overcast,2000.0,,BKN,2000.0,OVC,2700.0,,,,
KRDR,11-26-2001,17:00,METAR,,20,20.0,,020/25KTS,9999.0,Light Snow/Cloud Development Not Observable,-5.0,-5.0,30.37,1030.3,,,,71,0,0,,,,,,,,,8/8 Overcast,2600.0,,SCT,2000.0,OVC,2600.0,,,,
KRDR,11-26-2001,16:00,METAR,,20,19.0,,010/25KTS,9999.0,Cloud Development Not Observable,-5.0,-5.0,30.37,1030.5,,,,0,0,0,,,,,,,,,7/8 Mostly Cloudy,2700.0,,BKN,2700.0,BKN,4500.0,,,,
KRDR,11-26-2001,15:00,METAR,,20,19.0,23.0,,9999.0,Light Snow/Cloud Development Not Observable,-5.0,-5.0,30.37,1030.5,,,,71,0,0,,,,,,,,,8/8 Overcast,2700.0,,BKN,2700.0,OVC,4500.0,,,,
KRDR,11-26-2001,13:34,METAR,,20,17.0,22.0,,9999.0,Light Snow/Cloud Development Not Observable,-5.0,-5.0,30.36,,,,,71,0,0,,,,,,,,,8/8 Overcast,2700.0,,OVC,2700.0,,,,,,
KRDR,11-26-2001,13:00,METAR,,20,18.0,,,9999.0,Light Snow/Cloud Development Not Observable,-5.0,-5.0,30.36,1030.0,,,,71,0,0,,,,,,,,,8/8 Overcast,3000.0,,FEW,1500.0,OVC,3000.0,,,,
KRDR,11-26-2001,12:00,METAR,,20,17.0,23.0,,9999.0,Cloud Development Not Observable,-5.0,-5.0,30.36,1030.1,,,,0,0,0,,,,,,,,,8/8 Overcast,3000.0,,OVC,3000.0,,,,,,
KRDR,11-26-2001,11:00,METAR,,20,18.0,,,9999.0,Cloud Development Not Observable,-5.0,-5.0,30.34,1029.4,,,,0,0,0,,,,,,,,,8/8 Overcast,3000.0,,OVC,3000.0,,,,,,
KRDR,11-26-2001,10:00,METAR,,20,17.0,,,9999.0,Cloud Development Not Observable,-5.0,-5.0,30.33,1029.1,,,,0,0,0,,,,,,,,,8/8 Overcast,3100.0,,OVC,3100.0,,,,,,
KRDR,11-26-2001,09:00,METAR,,20,16.0,,,9999.0,Cloud Development Not Observable,-5.0,-5.0,30.32,1028.7,,,,0,0,0,,,,,,,,,8/8 Overcast,3100.0,,OVC,3100.0,,,,,,
KRDR,11-26-2001,08:00,METAR,,20,18.0,,,9999.0,Cloud Development Not Observable,-5.0,-5.0,30.31,1028.1,,,,0,0,0,,,,,,,,,8/8 Overcast,3200.0,,OVC,3300.0,,,,,,
KRDR,11-26-2001,07:00,METAR,,20,15.0,,,9999.0,Cloud Development Not Observable,-4.0,-5.0,30.31,1028.3,,,,0,0,0,,,,,,,,,8/8 Overcast,3200.0,,OVC,3300.0,,,,,,
KRDR,11-26-2001,06:00,METAR,,20,15.0,,,9999.0,Cloud Development Not Observable,-4.0,-5.0,30.30,1028.0,,,,0,0,0,,,,,,,,,8/8 Overcast,3200.0,,OVC,3300.0,,,,,,
KRDR,11-26-2001,05:00,METAR,,20,15.0,,,9999.0,Cloud Development Not Observable,-4.0,-5.0,30.28,1027.3,,,,0,0,0,,,,,,,,,8/8 Overcast,3000.0,,OVC,3000.0,,,,,,
KRDR,11-26-2001,04:00,METAR,,20,15.0,,,9999.0,Cloud Development Not Observable,-4.0,-5.0,30.28,1027.1,,,,0,0,0,,,,,,,,,8/8 Overcast,3100.0,,OVC,3100.0,,,,,,
KRDR,11-26-2001,03:00,METAR,,20,16.0,,,9999.0,Cloud Development Not Observable,-3.0,-5.0,30.25,1026.1,,,,0,0,0,,,,,,,,,8/8 Overcast,3100.0,,OVC,3200.0,,,,,,
KRDR,11-26-2001,02:00,METAR,,10,13.0,,,9999.0,Cloud Development Not Observable,-4.0,-4.0,30.22,1025.1,,,,0,0,0,,,,,,,,,8/8 Overcast,2800.0,,OVC,2800.0,,,,,,
KRDR,11-26-2001,01:00,METAR,,360,18.0,,360/25KTS,9999.0,Cloud Development Not Observable,-3.0,-3.0,30.18,1022.4,,,,0,0,0,,,,,,,,,8/8 Overcast,2700.0,,OVC,2700.0,,,,,,
KRDR,11-26-2001,00:00,METAR,,360,20.0,,360/26KTS,9999.0,Cloud Development Not Observable,-3.0,-3.0,30.14,1022.4,,,,0,0,0,,,,,,,,,8/8 Overcast,2700.0,,OVC,2700.0,,,,,,
KRDR,11-25-2001,23:00,METAR,,360,19.0,,,9999.0,Cloud Development Not Observable,-3.0,-3.0,30.13,1021.9,,,,0,0,0,,,,,,,,,8/8 Overcast,2700.0,,OVC,2700.0,,,,,,
KRDR,11-25-2001,22:00,METAR,,360,19.0,,,9999.0,Cloud Development Not Observable,-3.0,-3.0,30.11,1021.3,,,,0,0,0,,,,,,,,,8/8 Overcast,2700.0,,OVC,2700.0,,,,,,
KRDR,11-25-2001,21:00,METAR,,360,21.0,,,9999.0,Cloud Development Not Observable,-3.0,-3.0,30.07,1019.9,,,,0,0,0,,,,,,,,,8/8 Overcast,2500.0,,SCT,1700.0,OVC,2500.0,,,,
KRDR,11-25-2001,20:00,METAR,,350,19.0,,340/28KTS,9999.0,Cloud Development Not Observable,-2.0,-2.0,30.06,1019.6,,,,0,0,0,,,,,,,,,8/8 Overcast,1700.0,,BKN,1700.0,OVC,3000.0,,,,
KRDR,11-25-2001,19:00,METAR,,350,23.0,,350/29KTS,9999.0,Cloud Development Not Observable,-2.0,-3.0,30.03,1018.5,,,,0,0,0,,,,,,,,,8/8 Overcast,1800.0,,BKN,1800.0,OVC,3000.0,,,,
KRDR,11-25-2001,18:00,METAR,,350,23.0,,360/29KTS,9999.0,Cloud Development Not Observable,-2.0,-2.0,30.02,1018.2,,,,0,0,0,,,,,,,,,8/8 Overcast,1800.0,,BKN,1800.0,OVC,3000.0,,,,
KRDR,11-25-2001,17:00,METAR,,360,25.0,,350/31KTS,9999.0,Cloud Development Not Observable,-2.0,-2.0,30.00,1017.5,,,,0,0,0,,,,,,,,,8/8 Overcast,1500.0,,BKN,1500.0,OVC,2500.0,,,,
KRDR,11-25-2001,16:00,METAR,,350,25.0,33.0,350/34KTS,9999.0,Cloud Development Not Observable,-2.0,-2.0,29.95,1015.6,,,,0,0,0,,,,,,,,,8/8 Overcast,1500.0,,BKN,1500.0,OVC,2500.0,,,,
KRDR,11-25-2001,15:00,METAR,,350,25.0,29.0,350/29KTS,9999.0,Cloud Development Not Observable,-2.0,-2.0,29.93,1015.1,,,,0,0,0,,,,,,,,,8/8 Overcast,1500.0,,BKN,1500.0,OVC,2500.0,,,,
KRDR,11-25-2001,14:00,METAR,,360,22.0,,,9999.0,Cloud Development Not Observable,-1.0,-1.0,29.89,1013.5,,,,0,0,0,,,,,,,,,8/8 Overcast,1400.0,,BKN,1400.0,OVC,2200.0,,,,
KRDR,11-25-2001,13:00,METAR,,350,26.0,,350/32KTS,9999.0,Cloud Development Not Observable,-1.0,-1.0,29.86,1012.6,,,,0,0,0,,,,,,,,,8/8 Overcast,1400.0,,BKN,1400.0,OVC,2200.0,,,,
KRDR,11-25-2001,12:00,METAR,,350,27.0,32.0,,9999.0,Drifting Snow/Cloud Development Not Observable,-1.0,-1.0,29.81,1010.9,,,,36,0,0,,,,,,,,,8/8 Overcast,1400.0,,BKN,1400.0,OVC,2200.0,,,,
KRDR,11-25-2001,11:00,METAR,,340,22.0,,360/31KTS,9999.0,Cloud Development Not Observable,-1.0,-1.0,29.78,1009.8,,,,0,0,0,,,,,,,,,8/8 Overcast,1300.0,,OVC,1300.0,,,,,,
KRDR,11-25-2001,10:00,METAR,,350,25.0,,350/33KTS,9999.0,Light Snow/Drifting Snow/Cloud Development Not Observable,0.0,0.0,29.74,1008.3,,,,71,36,0,,,,,,,,,8/8 Overcast,1000.0,,OVC,1000.0,,,,,,
KRDR,11-25-2001,09:00,METAR,,350,24.0,30.0,350/34KTS,1200.0,Light Snow/Drifting Snow/Cloud Development Not Observable,0.0,0.0,29.73,1007.9,,,,71,36,0,,,,,,,,,8/8 Overcast,1000.0,,OVC,1000.0,,,,,,
KRDR,11-25-2001,08:00,METAR,,350,27.0,32.0,,1200.0,Light Snow/Drifting Snow/Cloud Development Not Observable,0.0,0.0,29.71,1007.2,,,,71,36,0,,,,,,,,,8/8 Overcast,1000.0,,OVC,1000.0,,,,,,
KRDR,11-25-2001,07:00,METAR,,350,28.0,34.0,,1200.0,Light Snow/Cloud Development Not Observable,0.0,0.0,29.70,1006.9,,,,71,0,0,,,,,,,,,8/8 Overcast,1000.0,,OVC,1000.0,,,,,,
KRDR,11-25-2001,06:00,METAR,,350,24.0,34.0,,1200.0,Light Snow/Cloud Development Not Observable,0.0,0.0,29.67,1006.2,,,,71,0,0,,,,,,,,,8/8 Overcast,1200.0,,OVC,1200.0,,,,,,
KRDR,11-25-2001,05:00,METAR,,350,24.0,37.0,,1200.0,Light Snow/Cloud Development Not Observable,0.0,0.0,29.65,1005.5,,,,71,0,0,,,,,,,,,8/8 Overcast,1200.0,,OVC,1200.0,,,,,,
KRDR,11-25-2001,03:00,METAR,,350,27.0,32.0,350/33KTS,9999.0,Cloud Development Not Observable,1.0,1.0,29.64,1005.0,,,,0,0,0,,,,,,,,,8/8 Overcast,1200.0,,OVC,1200.0,,,,,,
KRDR,11-25-2001,02:00,METAR,,350,28.0,34.0,,9999.0,Cloud Development Not Observable,1.0,1.0,29.64,1005.0,,,,0,0,0,,,,,,,,,8/8 Overcast,1200.0,,OVC,1200.0,,,,,,
KRDR,11-25-2001,01:00,METAR,,350,23.0,29.0,,9999.0,Cloud Development Not Observable,1.0,1.0,29.65,1005.5,,,,0,0,0,,,,,,,,,8/8 Overcast,1200.0,,OVC,1200.0,,,,,,
KRDR,11-25-2001,00:00,METAR,,350,26.0,33.0,,9999.0,Cloud Development Not Observable,2.0,2.0,29.64,1005.1,,,,0,0,0,,,,,,,,,8/8 Overcast,1300.0,,OVC,1300.0,,,,,,
KRDR,11-24-2001,23:00,METAR,,360,27.0,32.0,,9999.0,Cloud Development Not Observable,3.0,3.0,29.65,1005.5,,,,0,0,0,,,,,,,,,8/8 Overcast,1700.0,,FEW,1000.0,OVC,1700.0,,,,
KRDR,11-24-2001,22:00,METAR,,360,25.0,31.0,350/33KTS,9999.0,Cloud Development Not Observable,4.0,4.0,29.66,1005.1,,,,0,0,0,,,,,,,,,8/8 Overcast,1500.0,,FEW,1000.0,OVC,1500.0,,,,
KRDR,11-24-2001,21:00,METAR,,360,25.0,32.0,,9999.0,Cloud Development Not Observable,4.0,4.0,29.64,1005.1,,,,0,0,0,,,,,,,,,8/8 Overcast,1500.0,,FEW,1000.0,OVC,1500.0,,,,
KRDR,11-24-2001,20:00,METAR,,360,24.0,30.0,350/31KTS,9999.0,Mist/Cloud Development Not Observable,5.0,5.0,29.66,1005.5,,,,10,0,0,,,,,,,,,8/8 Overcast,1700.0,,FEW,1200.0,OVC,1700.0,,,,
KRDR,11-24-2001,16:00,METAR,,360,22.0,,,8000.0,Mist/Cloud Development Not Observable,4.0,4.0,29.77,1009.5,,,,10,0,0,,,,,,,,,8/8 Overcast,1300.0,,OVC,1300.0,,,,,,
KRDR,11-24-2001,14:00,METAR,,360,13.0,,,8000.0,Mist/Cloud Development Not Observable,3.0,3.0,29.79,1010.3,,,,10,0,0,,,,,,,,,8/8 Overcast,900.0,,OVC,900.0,,,,,,
KRDR,11-24-2001,13:00,METAR,,10,12.0,,,3200.0,Mist/Cloud Development Not Observable,3.0,3.0,29.78,1010.0,,,,10,0,0,,,,,,,,,8/8 Overcast,400.0,,OVC,400.0,,,,,,
KRDR,11-24-2001,11:55,METAR,,10,15.0,,,800.0,Fog or Ice Fog/Cloud Development Not Observable,2.0,2.0,29.77,1009.3,,,,45,0,0,,,,,,,,,Sky Obscured (Unable to Estimate),0.0,100.0,,0.0,,,,,,
KRDR,11-24-2001,11:00,METAR,,10,14.0,,,800.0,Fog or Ice Fog/Cloud Development Not Observable,2.0,2.0,29.77,1009.3,,,,45,0,0,,,,,,,,,Sky Obscured (Unable to Estimate),0.0,100.0,,0.0,,,,,,
KRDR,11-24-2001,10:00,METAR,,10,14.0,,,400.0,Drizzle/Fog or Ice Fog/Cloud Development Not Observable,2.0,2.0,29.77,1009.3,,,,51,44,0,,,,,,,,,8/8 Overcast,800.0,,SCT,0.0,OVC,800.0,,,,
KRDR,11-24-2001,09:00,METAR,,10,11.0,,,300.0,Fog or Ice Fog/Cloud Development Not Observable,2.0,2.0,29.77,1009.5,,,,45,0,0,,,,,,,,,Sky Obscured (Unable to Estimate),0.0,100.0,,0.0,,,,,,
KRDR,11-24-2001,07:00,METAR,,10,9.0,,,200.0,Fog or Ice Fog/Cloud Development Not Observable,3.0,3.0,29.77,1009.3,,,,45,0,0,,,,,,,,,Sky Obscured (Unable to Estimate),0.0,100.0,,0.0,,,,,,
KRDR,11-24-2001,06:00,METAR,,20,7.0,,,200.0,Fog or Ice Fog/Cloud Development Not Observable,3.0,3.0,29.76,1009.1,,,,45,0,0,,,,,,,,,Sky Obscured (Unable to Estimate),0.0,100.0,,0.0,,,,,,
KRDR,11-24-2001,04:00,METAR,,20,10.0,,,100.0,Fog or Ice Fog/Cloud Development Not Observable,2.0,2.0,29.76,1009.2,,,,45,0,0,,,,,,,,,Sky Obscured (Unable to Estimate),0.0,100.0,,0.0,,,,,,
KRDR,11-24-2001,03:00,METAR,,340,5.0,,,2400.0,Mist/Cloud Development Not Observable,-2.0,-2.0,29.75,1009.0,,,,10,0,0,,,,,,,,,7/8 Mostly Cloudy,25000.0,,FEW,9400.0,BKN,25000.0,,,,
KRDR,11-24-2001,01:00,METAR,,330,5.0,,,4800.0,Patchy Fog or Ice Fog/Cloud Development Not Observable,0.0,0.0,29.74,1008.4,,,,41,0,0,,,,,,,,,7/8 Mostly Cloudy,25000.0,,FEW,9900.0,BKN,25000.0,,,,
KRDR,11-24-2001,00:00,METAR,,340,2.0,,,6400.0,Mist/Cloud Development Not Observable,0.0,0.0,29.72,1007.2,,,,10,0,0,,,,,,,,,7/8 Mostly Cloudy,25000.0,,FEW,9900.0,BKN,25000.0,,,,
KRDR,11-23-2001,23:00,METAR,,310,5.0,,,6400.0,Mist/Cloud Development Not Observable,2.0,2.0,29.71,1007.2,,,,10,0,0,,,,,,,,,4/8 Partly Cloudy,72000.0,,FEW,9900.0,SCT,25000.0,,,,
KRDR,11-23-2001,21:00,METAR,,330,6.0,,,4000.0,Mist/Cloud Development Not Observable,5.0,5.0,29.68,1006.3,,,,10,0,0,,,,,,,,,8/8 Overcast,400.0,,OVC,400.0,,,,,,
KRDR,11-23-2001,20:00,METAR,,30,5.0,,,2800.0,Mist/Cloud Development Not Observable,4.0,4.0,29.68,1006.4,,,,10,0,0,,,,,,,,,8/8 Overcast,7000.0,,SCT,300.0,OVC,6900.0,,,,
KRDR,11-23-2001,19:00,METAR,,350,3.0,,,2000.0,Mist/Cloud Development Not Observable,3.0,3.0,29.68,1006.5,,,,10,0,0,,,,,,,,,7/8 Mostly Cloudy,7000.0,,SCT,300.0,BKN,6900.0,,,,
KRDR,11-23-2001,18:00,METAR,,350,3.0,,,2800.0,Mist/Cloud Development Not Observable,3.0,3.0,29.68,1006.5,,,,10,0,0,,,,,,,,,7/8 Mostly Cloudy,7000.0,,SCT,300.0,BKN,6900.0,,,,
KRDR,11-23-2001,17:00,METAR,,330,8.0,,,1200.0,Mist/Cloud Development Not Observable,2.0,2.0,29.68,1006.4,,,,10,0,0,,,,,,,,,7/8 Mostly Cloudy,7000.0,,SCT,100.0,BKN,6900.0,,,,
KRDR,11-23-2001,16:00,METAR,,340,6.0,,,1200.0,Mist/Cloud Development Not Observable,2.0,2.0,29.66,1005.9,,,,10,0,0,,,,,,,,,7/8 Mostly Cloudy,7000.0,,SCT,100.0,BKN,6900.0,,,,
KRDR,11-23-2001,15:00,METAR,,320,8.0,,,800.0,Fog or Ice Fog/Cloud Development Not Observable,1.0,1.0,29.64,1005.0,,,,44,0,0,,,,,,,,,7/8 Mostly Cloudy,7000.0,,FEW,200.0,BKN,6900.0,,,,
KRDR,11-23-2001,14:00,METAR,,300,4.0,,,800.0,Fog or Ice Fog/Cloud Development Not Observable,1.0,1.0,29.64,1005.0,,,,44,0,0,,,,,,,,,7/8 Mostly Cloudy,7000.0,,BKN,6900.0,,,,,,
KRDR,11-23-2001,13:00,METAR,,320,6.0,,,1200.0,Mist/Cloud Development Not Observable,-1.0,-1.0,29.61,1004.2,,,,10,0,0,,,,,,,,,7/8 Mostly Cloudy,7000.0,,SCT,200.0,BKN,6900.0,,,,
KRDR,11-23-2001,12:00,METAR,,20,4.0,,,6400.0,Mist/Cloud Development Not Observable,1.0,1.0,29.61,1004.1,,,,10,0,0,,,,,,,,,7/8 Mostly Cloudy,7000.0,,SCT,3500.0,BKN,6900.0,BKN,12000.0,,
KRDR,11-23-2001,11:00,METAR,,20,4.0,,,8000.0,Mist/Cloud Development Not Observable,2.0,2.0,29.60,1003.7,,,,10,0,0,,,,,,,,,8/8 Overcast,7000.0,,SCT,3500.0,BKN,6900.0,OVC,12000.0,,
KRDR,11-23-2001,10:00,METAR,,330,4.0,,,8000.0,Mist/Cloud Development Not Observable,2.0,2.0,29.60,1003.7,,,,10,0,0,,,,,,,,,8/8 Overcast,7000.0,,SCT,3500.0,OVC,6900.0,,,,
KRDR,11-23-2001,09:00,METAR,,360,5.0,,,8000.0,Mist/Cloud Development Not Observable,1.0,1.0,29.59,1003.3,,,,10,0,0,,,,,,,,,8/8 Overcast,7000.0,,SCT,3500.0,BKN,6900.0,OVC,9900.0,,
KRDR,11-23-2001,08:00,METAR,,360,4.0,,,9999.0,Mist/Cloud Development Not Observable,1.0,1.0,29.58,1002.9,,,,10,0,0,,,,,,,,,8/8 Overcast,7000.0,,SCT,3500.0,OVC,6900.0,,,,
KRDR,11-23-2001,07:00,METAR,,360,5.0,,,9999.0,Drizzle/Cloud Development Not Observable,2.0,2.0,29.58,1002.7,,,,51,0,0,,,,,,,,,8/8 Overcast,6500.0,,FEW,3000.0,BKN,6400.0,OVC,9900.0,,
KRDR,11-23-2001,06:00,METAR,,340,6.0,,,9999.0,Mist/Cloud Development Not Observable,2.0,2.0,29.57,1002.6,,,,10,0,0,,,,,,,,,7/8 Mostly Cloudy,7000.0,,FEW,3500.0,BKN,6900.0,BKN,9900.0,,
KRDR,11-23-2001,05:00,METAR,,10,5.0,,,9999.0,Cloud Development Not Observable,2.0,2.0,29.57,1002.7,,,,0,0,0,,,,,,,,,7/8 Mostly Cloudy,7000.0,,BKN,6900.0,BKN,9900.0,,,,
KRDR,11-23-2001,03:00,METAR,,340,6.0,,,9999.0,Cloud Development Not Observable,2.0,2.0,29.57,1002.7,,,,0,0,0,,,,,,,,,7/8 Mostly Cloudy,9000.0,,SCT,6900.0,BKN,8900.0,,,,
KRDR,11-23-2001,02:00,METAR,,330,4.0,,,9999.0,Cloud Development Not Observable,1.0,1.0,29.57,1002.7,,,,0,0,0,,,,,,,,,7/8 Mostly Cloudy,9500.0,,SCT,5900.0,BKN,9400.0,,,,
KRDR,11-23-2001,01:00,METAR,,340,7.0,,,9999.0,Cloud Development Not Observable,0.0,0.0,29.56,1002.3,,,,0,0,0,,,,,,,,,7/8 Mostly Cloudy,6500.0,,BKN,6400.0,BKN,9900.0,,,,
KRDR,11-22-2001,23:55,METAR,,360,6.0,,,9999.0,Cloud Development Not Observable,3.0,2.0,29.57,1002.8,,,,0,0,0,,,,,,,,,7/8 Mostly Cloudy,6500.0,,BKN,6400.0,BKN,9900.0,,,,
KRDR,11-22-2001,23:00,METAR,,340,6.0,,,9999.0,Cloud Development Not Observable,3.0,1.0,29.58,1002.9,,,,0,0,0,,,,,,,,,7/8 Mostly Cloudy,7500.0,,BKN,7400.0,BKN,25000.0,,,,
KRDR,11-22-2001,22:00,METAR,,360,8.0,,,9999.0,Cloud Development Not Observable,5.0,1.0,29.57,1002.7,,,,0,0,0,,,,,,,,,7/8 Mostly Cloudy,7500.0,,BKN,7400.0,,,,,,
KRDR,11-22-2001,21:00,METAR,,20,8.0,,,9999.0,Cloud Development Not Observable,6.0,1.0,29.55,1001.9,,,,0,0,0,,,,,,,,,7/8 Mostly Cloudy,12000.0,,BKN,12000.0,BKN,25000.0,,,,
KRDR,11-22-2001,19:00,METAR,,10,10.0,,,9999.0,Cloud Development Not Observable,6.0,2.0,29.57,1002.5,,,,0,0,0,,,,,,,,,4/8 Partly Cloudy,72000.0,,FEW,12000.0,SCT,25000.0,,,,
KRDR,11-22-2001,18:00,METAR,,10,7.0,,,9999.0,Cloud Development Not Observable,4.0,1.0,29.59,1003.3,,,,0,0,0,,,,,,,,,7/8 Mostly Cloudy,25000.0,,FEW,8900.0,SCT,12000.0,BKN,25000.0,,
KRDR,11-22-2001,17:00,METAR,,10,7.0,,,9999.0,Cloud Development Not Observable,2.0,1.0,29.60,1003.8,,,,0,0,0,,,,,,,,,7/8 Mostly Cloudy,25000.0,,FEW,8900.0,SCT,12000.0,BKN,25000.0,,
KRDR,11-22-2001,16:00,METAR,,340,8.0,,,9999.0,Cloud Development Not Observable,0.0,0.0,29.61,1004.2,,,,0,0,0,,,,,,,,,7/8 Mostly Cloudy,9000.0,,BKN,8900.0,BKN,12000.0,BKN,25000.0,,
KRDR,11-22-2001,15:00,METAR,,340,7.0,,,9999.0,Cloud Development Not Observable,-1.0,-1.0,29.62,1004.8,,,,0,0,0,,,,,,,,,7/8 Mostly Cloudy,9000.0,,BKN,8900.0,BKN,12000.0,,,,
KRDR,11-22-2001,13:00,METAR,,360,9.0,,,9999.0,Cloud Development Not Observable,-1.0,-1.0,29.64,1005.4,,,,0,0,0,,,,,,,,,8/8 Overcast,10000.0,,OVC,9900.0,,,,,,
KRDR,11-22-2001,12:00,METAR,,340,8.0,,,9999.0,Cloud Development Not Observable,-1.0,-1.0,29.66,1005.8,,,,0,0,0,,,,,,,,,8/8 Overcast,10000.0,,BKN,9900.0,OVC,25000.0,,,,
KRDR,11-22-2001,10:00,METAR,,320,7.0,,,9999.0,Cloud Development Not Observable,-1.0,-1.0,29.68,1006.4,,,,0,0,0,,,,,,,,,8/8 Overcast,9500.0,,BKN,9400.0,OVC,25000.0,,,,
KRDR,11-22-2001,09:00,METAR,,340,9.0,,,9999.0,Cloud Development Not Observable,-1.0,-1.0,29.67,1006.1,,,,0,0,0,,,,,,,,,8/8 Overcast,9500.0,,OVC,9400.0,,,,,,
KRDR,11-22-2001,08:00,METAR,,340,12.0,,,9999.0,Cloud Development Not Observable,0.0,0.0,29.67,1005.8,,,,0,0,0,,,,,,,,,8/8 Overcast,9000.0,,OVC,8900.0,,,,,,
KRDR,11-22-2001,07:00,METAR,,310,8.0,,,9999.0,Cloud Development Not Observable,-1.0,-1.0,29.68,1006.3,,,,0,0,0,,,,,,,,,7/8 Mostly Cloudy,25000.0,,SCT,12000.0,BKN,25000.0,,,,
KRDR,11-22-2001,06:00,METAR,,330,7.0,,,9999.0,Cloud Development Not Observable,-1.0,-1.0,29.68,1006.2,,,,0,0,0,,,,,,,,,7/8 Mostly Cloudy,12000.0,,BKN,12000.0,BKN,25000.0,,,,
KRDR,11-22-2001,05:00,METAR,,340,7.0,,,9999.0,Cloud Development Not Observable,0.0,0.0,29.68,1006.3,,,,0,0,0,,,,,,,,,8/8 Overcast,12000.0,,BKN,12000.0,OVC,25000.0,,,,
KRDR,11-22-2001,04:00,METAR,,340,10.0,,,9999.0,Cloud Development Not Observable,1.0,0.0,29.70,1006.8,,,,0,0,0,,,,,,,,,8/8 Overcast,12000.0,,BKN,12000.0,OVC,25000.0,,,,
KRDR,11-22-2001,03:00,METAR,,320,8.0,,,9999.0,Cloud Development Not Observable,1.0,-1.0,29.71,1007.2,,,,0,0,0,,,,,,,,,7/8 Mostly Cloudy,25000.0,,SCT,12000.0,BKN,25000.0,,,,
KRDR,11-22-2001,02:00,METAR,,340,9.0,,,9999.0,Cloud Development Not Observable,3.0,-1.0,29.71,1007.4,,,,0,0,0,,,,,,,,,7/8 Mostly Cloudy,12000.0,,BKN,12000.0,BKN,25000.0,,,,
KRDR,11-22-2001,00:00,METAR,,330,7.0,,,9999.0,Cloud Development Not Observable,2.0,-2.0,29.71,1007.2,,,,0,0,0,,,,,,,,,4/8 Partly Cloudy,72000.0,,FEW,15000.0,SCT,25000.0,,,,
KRDR,11-21-2001,23:00,METAR,,350,6.0,,,9999.0,Cloud Development Not Observable,3.0,-2.0,29.68,1006.5,,,,0,0,0,,,,,,,,,7/8 Mostly Cloudy,25000.0,,FEW,15000.0,BKN,25000.0,,,,
KRDR,11-21-2001,22:00,METAR,,360,12.0,,,9999.0,Cloud Development Not Observable,6.0,-2.0,29.66,1005.8,,,,0,0,0,,,,,,,,,7/8 Mostly Cloudy,25000.0,,FEW,15000.0,BKN,25000.0,,,,
KRDR,11-21-2001,21:00,METAR,,360,9.0,,,9999.0,Cloud Development Not Observable,7.0,-1.0,29.65,1005.0,,,,0,0,0,,,,,,,,,7/8 Mostly Cloudy,25000.0,,FEW,15000.0,BKN,25000.0,,,,
KRDR,11-21-2001,20:00,METAR,,340,13.0,,,9999.0,Cloud Development Not Observable,10.0,0.0,29.64,1005.0,,,,0,0,0,,,,,,,,,7/8 Mostly Cloudy,25000.0,,FEW,15000.0,BKN,25000.0,,,,
KRDR,11-21-2001,19:00,METAR,,290,14.0,,,9999.0,Cloud Development Not Observable,11.0,1.0,29.64,1004.9,,,,0,0,0,,,,,,,,,7/8 Mostly Cloudy,25000.0,,FEW,15000.0,BKN,25000.0,,,,
KRDR,11-21-2001,18:00,METAR,,300,16.0,,,9999.0,Cloud Development Not Observable,10.0,0.0,29.64,1004.9,,,,0,0,0,,,,,,,,,7/8 Mostly Cloudy,25000.0,,FEW,15000.0,BKN,25000.0,,,,
KRDR,11-21-2001,15:00,METAR,,290,10.0,,,9999.0,Cloud Development Not Observable,5.0,1.0,29.62,1004.4,,,,0,0,0,,,,,,,,,7/8 Mostly Cloudy,25000.0,,FEW,15000.0,BKN,25000.0,,,,
KRDR,11-21-2001,14:00,METAR,,350,8.0,,,9999.0,Cloud Development Not Observable,4.0,0.0,29.60,1003.6,,,,0,0,0,,,,,,,,,4/8 Partly Cloudy,72000.0,,SCT,25000.0,,,,,,
KRDR,11-21-2001,13:00,METAR,,300,6.0,,,9999.0,Cloud Development Not Observable,4.0,0.0,29.59,1003.1,,,,0,0,0,,,,,,,,,4/8 Partly Cloudy,72000.0,,SCT,25000.0,,,,,,
KRDR,11-21-2001,12:00,METAR,,300,9.0,,,9999.0,Cloud Development Not Observable,4.0,0.0,29.59,1003.1,,,,0,0,0,,,,,,,,,Clear,72000.0,,,73000.0,,,,,,
KRDR,11-21-2001,11:00,METAR,,270,8.0,,,9999.0,Cloud Development Not Observable,2.0,0.0,29.59,1003.2,,,,0,0,0,,,,,,,,,Clear,72000.0,,,73000.0,,,,,,
KRDR,11-21-2001,10:00,METAR,,,3.0,,,9999.0,Cloud Development Not Observable,1.0,-1.0,29.59,1003.1,,,,0,0,0,,,,,,,,,Clear,72000.0,,,73000.0,,,,,,
KRDR,11-21-2001,09:00,METAR,,150,6.0,,,9999.0,Cloud Development Not Observable,-1.0,-2.0,29.60,1003.5,,,,0,0,0,,,,,,,,,Clear,72000.0,,,73000.0,,,,,,
KRDR,11-21-2001,08:00,METAR,,,6.0,,,9999.0,Cloud Development Not Observable,-1.0,-3.0,29.61,1003.8,,,,0,0,0,,,,,,,,,Clear,72000.0,,,73000.0,,,,,,
KRDR,11-21-2001,07:00,METAR,,180,6.0,,,9999.0,Cloud Development Not Observable,-1.0,-2.0,29.62,1004.2,,,,0,0,0,,,,,,,,,2/8 Mostly Clear,72000.0,,FEW,25000.0,,,,,,
KRDR,11-21-2001,06:00,METAR,,,2.0,,,9999.0,Cloud Development Not Observable,2.0,-2.0,29.64,1004.7,,,,0,0,0,,,,,,,,,7/8 Mostly Cloudy,25000.0,,FEW,15000.0,BKN,25000.0,,,,
KRDR,11-21-2001,05:00,METAR,,,2.0,,,9999.0,Cloud Development Not Observable,4.0,-2.0,29.64,1004.9,,,,0,0,0,,,,,,,,,7/8 Mostly Cloudy,15000.0,,BKN,15000.0,BKN,25000.0,,,,
KRDR,11-21-2001,04:00,METAR,,250,8.0,,,9999.0,Cloud Development Not Observable,2.0,-2.0,29.65,1005.4,,,,0,0,0,,,,,,,,,7/8 Mostly Cloudy,25000.0,,BKN,25000.0,,,,,,
KRDR,11-21-2001,03:00,METAR,,240,8.0,,,9999.0,Cloud Development Not Observable,2.0,-2.0,29.65,1005.6,,,,0,0,0,,,,,,,,,Clear,72000.0,,,73000.0,,,,,,
KRDR,11-21-2001,02:00,METAR,,220,5.0,,,9999.0,Cloud Development Not Observable,4.0,-3.0,29.66,1005.9,,,,0,0,0,,,,,,,,,Clear,72000.0,,,73000.0,,,,,,
KRDR,11-21-2001,01:00,METAR,,250,6.0,,,9999.0,Cloud Development Not Observable,3.0,-3.0,29.66,1005.7,,,,0,0,0,,,,,,,,,Clear,72000.0,,,73000.0,,,,,,
KRDR,11-21-2001,00:00,METAR,,270,5.0,,,9999.0,Cloud Development Not Observable,5.0,-3.0,29.67,1006.1,,,,0,0,0,,,,,,,,,2/8 Mostly Clear,72000.0,,FEW,25000.0,,,,,,
KRDR,11-20-2001,23:00,METAR,,,,,,,Cloud Development Not Observable,8.0,-3.0,29.67,1006.0,,,,0,0,0,,,,,,,,,,72000.0,,FEW,25000.0,,,,,,
KRDR,11-20-2001,22:00,METAR,,260,10.0,,,9999.0,Cloud Development Not Observable,12.0,-3.0,29.66,1005.5,,,,0,0,0,,,,,,,,,2/8 Mostly Clear,72000.0,,FEW,25000.0,,,,,,
KRDR,11-20-2001,21:00,METAR,,290,9.0,,,9999.0,Cloud Development Not Observable,14.0,-3.0,29.66,1005.5,,,,0,0,0,,,,,,,,,2/8 Mostly Clear,72000.0,,FEW,25000.0,,,,,,
KRDR,11-20-2001,20:00,METAR,,300,13.0,,,9999.0,Cloud Development Not Observable,14.0,-4.0,29.66,1005.6,,,,0,0,0,,,,,,,,,2/8 Mostly Clear,72000.0,,FEW,25000.0,,,,,,
KRDR,11-20-2001,19:00,METAR,,290,17.0,,,9999.0,Cloud Development Not Observable,12.0,-3.0,29.68,1006.4,,,,0,0,0,,,,,,,,,4/8 Partly Cloudy,72000.0,,SCT,25000.0,,,,,,
KRDR,11-20-2001,18:00,METAR,,270,14.0,,,9999.0,Cloud Development Not Observable,11.0,-3.0,29.71,1007.1,,,,0,0,0,,,,,,,,,4/8 Partly Cloudy,72000.0,,SCT,25000.0,,,,,,
KRDR,11-20-2001,17:00,METAR,,230,13.0,,,9999.0,Cloud Development Not Observable,8.0,-4.0,29.72,1007.8,,,,0,0,0,,,,,,,,,4/8 Partly Cloudy,72000.0,,SCT,25000.0,,,,,,
KRDR,11-20-2001,16:00,METAR,,190,10.0,,,9999.0,Cloud Development Not Observable,5.0,-3.0,29.75,1008.8,,,,0,0,0,,,,,,,,,4/8 Partly Cloudy,72000.0,,SCT,25000.0,,,,,,
KRDR,11-20-2001,15:00,METAR,,180,13.0,,,9999.0,Cloud Development Not Observable,0.0,-4.0,29.79,1010.4,,,,0,0,0,,,,,,,,,7/8 Mostly Cloudy,25000.0,,BKN,25000.0,,,,,,
KRDR,11-20-2001,14:00,METAR,,210,11.0,,,9999.0,Cloud Development Not Observable,-1.0,-5.0,29.80,1010.9,,,,0,0,0,,,,,,,,,7/8 Mostly Cloudy,25000.0,,BKN,25000.0,,,,,,
KRDR,11-20-2001,13:00,METAR,,190,14.0,,,9999.0,Cloud Development Not Observable,0.0,-5.0,29.83,1011.7,,,,0,0,0,,,,,,,,,7/8 Mostly Cloudy,25000.0,,BKN,25000.0,,,,,,
KRDR,11-20-2001,12:00,METAR,,190,12.0,,,9999.0,Cloud Development Not Observable,-2.0,-5.0,29.86,1012.8,,,,0,0,0,,,,,,,,,4/8 Partly Cloudy,72000.0,,SCT,25000.0,,,,,,
KRDR,11-20-2001,11:00,METAR,,180,11.0,,,9999.0,Cloud Development Not Observable,-2.0,-5.0,29.90,1014.1,,,,0,0,0,,,,,,,,,7/8 Mostly Cloudy,25000.0,,BKN,25000.0,,,,,,
KRDR,11-20-2001,10:00,METAR,,170,10.0,,,9999.0,Cloud Development Not Observable,-3.0,-5.0,29.96,1015.9,,,,0,0,0,,,,,,,,,7/8 Mostly Cloudy,25000.0,,BKN,25000.0,,,,,,
KRDR,11-20-2001,09:00,METAR,,180,9.0,,,9999.0,Cloud Development Not Observable,-3.0,-5.0,30.00,1017.5,,,,0,0,0,,,,,,,,,7/8 Mostly Cloudy,25000.0,,BKN,25000.0,,,,,,
KRDR,11-20-2001,08:00,METAR,,190,9.0,,,9999.0,Cloud Development Not Observable,-2.0,-5.0,30.02,1018.1,,,,0,0,0,,,,,,,,,7/8 Mostly Cloudy,25000.0,,BKN,25000.0,,,,,,
KRDR,11-20-2001,07:00,METAR,,200,5.0,,,9999.0,Cloud Development Not Observable,-4.0,-6.0,30.09,1020.4,,,,0,0,0,,,,,,,,,7/8 Mostly Cloudy,25000.0,,BKN,25000.0,,,,,,
KRDR,11-20-2001,06:00,METAR,,200,7.0,,,9999.0,Cloud Development Not Observable,-3.0,-5.0,30.11,1021.1,,,,0,0,0,,,,,,,,,4/8 Partly Cloudy,72000.0,,SCT,25000.0,,,,,,
KRDR,11-20-2001,05:00,METAR,,200,7.0,,,9999.0,Cloud Development Not Observable,-4.0,-6.0,30.12,1021.5,,,,0,0,0,,,,,,,,,4/8 Partly Cloudy,72000.0,,SCT,25000.0,,,,,,
KRDR,11-20-2001,04:00,METAR,,210,9.0,,,9999.0,Cloud Development Not Observable,-5.0,-6.0,30.16,1023.0,,,,0,0,0,,,,,,,,,4/8 Partly Cloudy,72000.0,,SCT,25000.0,,,,,,
KRDR,11-20-2001,03:00,METAR,,200,5.0,,,9999.0,Cloud Development Not Observable,-4.0,-5.0,30.19,1024.3,,,,0,0,0,,,,,,,,,4/8 Partly Cloudy,72000.0,,SCT,25000.0,,,,,,
KRDR,11-20-2001,02:00,METAR,,220,6.0,,,9999.0,Cloud Development Not Observable,-3.0,-6.0,30.20,1024.5,,,,0,0,0,,,,,,,,,4/8 Partly Cloudy,72000.0,,SCT,25000.0,,,,,,
KRDR,11-20-2001,01:00,METAR,,270,6.0,,,9999.0,Cloud Development Not Observable,-3.0,-6.0,30.22,1025.1,,,,0,0,0,,,,,,,,,4/8 Partly Cloudy,72000.0,,SCT,25000.0,,,,,,
KRDR,11-20-2001,00:00,METAR,,270,4.0,,,9999.0,Cloud Development Not Observable,-2.0,-6.0,30.21,1024.7,,,,0,0,0,,,,,,,,,7/8 Mostly Cloudy,25000.0,,FEW,1500.0,BKN,25000.0,,,,
KRDR,11-19-2001,23:00,METAR,,280,5.0,,,9999.0,Cloud Development Not Observable,-1.0,-7.0,30.22,1024.9,,,,0,0,0,,,,,,,,,7/8 Mostly Cloudy,25000.0,,FEW,1500.0,BKN,25000.0,,,,
KRDR,11-19-2001,22:00,METAR,,300,7.0,,,9999.0,Cloud Development Not Observable,4.0,-7.0,30.22,1025.0,,,,0,0,0,,,,,,,,,2/8 Mostly Clear,72000.0,,FEW,25000.0,,,,,,
KRDR,11-19-2001,20:00,METAR,,330,11.0,,,9999.0,Cloud Development Not Observable,6.0,-6.0,30.22,1024.9,,,,0,0,0,,,,,,,,,2/8 Mostly Clear,72000.0,,FEW,25000.0,,,,,,
KRDR,11-19-2001,19:00,METAR,,300,14.0,,,9999.0,Cloud Development Not Observable,4.0,-6.0,30.25,1025.9,,,,0,0,0,,,,,,,,,2/8 Mostly Clear,72000.0,,FEW,25000.0,,,,,,
KRDR,11-19-2001,18:00,METAR,,290,11.0,,,9999.0,Cloud Development Not Observable,3.0,-6.0,30.25,1025.9,,,,0,0,0,,,,,,,,,2/8 Mostly Clear,72000.0,,FEW,25000.0,,,,,,
KRDR,11-19-2001,17:00,METAR,,310,15.0,,,9999.0,Cloud Development Not Observable,2.0,-6.0,30.26,1026.2,,,,0,0,0,,,,,,,,,2/8 Mostly Clear,72000.0,,FEW,25000.0,,,,,,
KRDR,11-19-2001,16:00,METAR,,300,15.0,,,9999.0,Cloud Development Not Observable,0.0,-6.0,30.25,1025.9,,,,0,0,0,,,,,,,,,2/8 Mostly Clear,72000.0,,FEW,25000.0,,,,,,
KRDR,11-19-2001,14:00,METAR,,300,10.0,,,9999.0,Cloud Development Not Observable,-4.0,-6.0,30.23,1025.5,,,,0,0,0,,,,,,,,,Clear,72000.0,,,73000.0,,,,,,
KRDR,11-19-2001,13:00,METAR,,290,12.0,,,9999.0,Cloud Development Not Observable,-3.0,-6.0,30.23,1025.5,,,,0,0,0,,,,,,,,,Clear,72000.0,,,73000.0,,,,,,
KRDR,11-19-2001,11:55,METAR,,300,13.0,,,9999.0,Cloud Development Not Observable,-3.0,-6.0,30.23,1025.4,,,,0,0,0,,,,,,,,,Clear,72000.0,,,73000.0,,,,,,
KRDR,11-19-2001,11:00,METAR,,300,15.0,,,9999.0,Cloud Development Not Observable,-2.0,-6.0,30.24,1025.5,,,,0,0,0,,,,,,,,,Clear,72000.0,,,73000.0,,,,,,
KRDR,11-19-2001,10:00,METAR,,290,14.0,,,9999.0,Cloud Development Not Observable,-2.0,-5.0,30.23,1025.1,,,,0,0,0,,,,,,,,,Clear,72000.0,,,73000.0,,,,,,
KRDR,11-19-2001,09:00,METAR,,290,15.0,,,9999.0,Cloud Development Not Observable,-1.0,-5.0,30.22,1024.7,,,,0,0,0,,,,,,,,,Clear,72000.0,,,73000.0,,,,,,
KRDR,11-19-2001,08:00,METAR,,290,15.0,,,9999.0,Cloud Development Not Observable,-1.0,-5.0,30.22,1024.7,,,,0,0,0,,,,,,,,,Clear,72000.0,,,73000.0,,,,,,
KRDR,11-19-2001,07:00,METAR,,290,13.0,,,9999.0,Cloud Development Not Observable,-1.0,-6.0,30.22,1024.7,,,,0,0,0,,,,,,,,,Clear,72000.0,,,73000.0,,,,,,
KRDR,11-19-2001,06:00,METAR,,300,14.0,,,9999.0,Cloud Development Not Observable,0.0,-6.0,30.22,1024.7,,,,0,0,0,,,,,,,,,Clear,72000.0,,,73000.0,,,,,,
KRDR,11-19-2001,05:00,METAR,,300,15.0,,,9999.0,Cloud Development Not Observable,1.0,-6.0,30.21,1024.3,,,,0,0,0,,,,,,,,,Clear,72000.0,,,73000.0,,,,,,
KRDR,11-19-2001,04:00,METAR,,300,18.0,,,9999.0,Cloud Development Not Observable,2.0,-6.0,30.21,1024.3,,,,0,0,0,,,,,,,,,Clear,72000.0,,,73000.0,,,,,,
KRDR,11-19-2001,03:00,METAR,,290,16.0,,,9999.0,Cloud Development Not Observable,2.0,-6.0,30.21,1024.3,,,,0,0,0,,,,,,,,,Clear,72000.0,,,73000.0,,,,,,
KRDR,11-19-2001,02:00,METAR,,300,13.0,,,9999.0,Cloud Development Not Observable,1.0,-5.0,30.20,1024.2,,,,0,0,0,,,,,,,,,Clear,72000.0,,,73000.0,,,,,,
KRDR,11-19-2001,01:00,METAR,,290,11.0,,,9999.0,Cloud Development Not Observable,1.0,-5.0,30.21,1024.4,,,,0,0,0,,,,,,,,,Clear,72000.0,,,73000.0,,,,,,
KRDR,11-19-2001,00:00,METAR,,300,12.0,,,9999.0,Cloud Development Not Observable,2.0,-6.0,30.20,1024.1,,,,0,0,0,,,,,,,,,Clear,72000.0,,,73000.0,,,,,,
KRDR,11-18-2001,22:00,METAR,,300,22.0,,290/28KTS,9999.0,Cloud Development Not Observable,6.0,-6.0,30.16,1022.5,,,,0,0,0,,,,,,,,,2/8 Mostly Clear,72000.0,,FEW,20000.0,,,,,,
KRDR,11-18-2001,21:00,METAR,,310,23.0,28.0,,9999.0,Cloud Development Not Observable,8.0,-5.0,30.13,1021.5,,,,0,0,0,,,,,,,,,2/8 Mostly Clear,72000.0,,FEW,12000.0,FEW,20000.0,,,,
KRDR,11-18-2001,20:00,METAR,,330,19.0,,320/27KTS,9999.0,Cloud Development Not Observable,8.0,-4.0,30.14,1021.9,,,,0,0,0,,,,,,,,,4/8 Partly Cloudy,72000.0,,FEW,4000.0,FEW,12000.0,SCT,20000.0,,
KRDR,11-18-2001,19:00,METAR,,330,19.0,,310/27KTS,9999.0,Cloud Development Not Observable,7.0,-5.0,30.14,1021.9,,,,0,0,0,,,,,,,,,7/8 Mostly Cloudy,20000.0,,SCT,12000.0,BKN,20000.0,,,,
KRDR,11-18-2001,18:00,METAR,,320,20.0,,330/26KTS,9999.0,Cloud Development Not Observable,6.0,-3.0,30.14,1022.0,,,,0,0,0,,,,,,,,,7/8 Mostly Cloudy,20000.0,,FEW,7900.0,SCT,12000.0,BKN,20000.0,,
KRDR,11-18-2001,17:00,METAR,,350,20.0,,320/26KTS,9999.0,Cloud Development Not Observable,6.0,-4.0,30.15,1022.1,,,,0,0,0,,,,,,,,,7/8 Mostly Cloudy,8000.0,,BKN,7900.0,BKN,20000.0,,,,
KRDR,11-18-2001,16:00,METAR,,350,19.0,,,9999.0,Cloud Development Not Observable,5.0,-2.0,30.13,1021.4,,,,0,0,0,,,,,,,,,7/8 Mostly Cloudy,8000.0,,BKN,7900.0,BKN,20000.0,,,,
KRDR,11-18-2001,15:00,METAR,,340,15.0,,,9999.0,Cloud Development Not Observable,4.0,0.0,30.10,1020.6,,,,0,0,0,,,,,,,,,7/8 Mostly Cloudy,7000.0,,BKN,6900.0,BKN,20000.0,,,,
KRDR,11-18-2001,14:00,METAR,,340,19.0,,,9999.0,Cloud Development Not Observable,4.0,1.0,30.07,1019.5,,,,0,0,0,,,,,,,,,7/8 Mostly Cloudy,20000.0,,SCT,5900.0,BKN,20000.0,,,,
KRDR,11-18-2001,13:00,METAR,,350,17.0,,,9999.0,Cloud Development Not Observable,3.0,2.0,30.04,1018.4,,,,0,0,0,,,,,,,,,7/8 Mostly Cloudy,20000.0,,SCT,7900.0,BKN,20000.0,,,,
KRDR,11-18-2001,12:00,METAR,,340,16.0,,350/26KTS,9999.0,Cloud Development Not Observable,3.0,2.0,30.01,1017.3,,,,0,0,0,,,,,,,,,4/8 Partly Cloudy,72000.0,,SCT,20000.0,,,,,,
KRDR,11-18-2001,11:00,METAR,,350,20.0,,340/27KTS,9999.0,Cloud Development Not Observable,4.0,4.0,29.97,1015.8,,,,0,0,0,,,,,,,,,4/8 Partly Cloudy,72000.0,,SCT,20000.0,,,,,,
KRDR,11-18-2001,08:00,METAR,,340,15.0,20.0,,9999.0,Cloud Development Not Observable,5.0,5.0,29.87,1012.3,,,,0,0,0,,,,,,,,,4/8 Partly Cloudy,72000.0,,SCT,20000.0,,,,,,
KRDR,11-18-2001,07:00,METAR,,330,9.0,,,4800.0,Mist/Cloud Development Not Observable,3.0,3.0,29.86,1012.0,,,,10,0,0,,,,,,,,,4/8 Partly Cloudy,72000.0,,SCT,20000.0,,,,,,
KRDR,11-18-2001,06:21,SPECI,,240,3.0,,,6400.0,Mist/Cloud Development Not Observable,3.0,3.0,29.84,,,,,10,0,0,,,,,,,,,4/8 Partly Cloudy,72000.0,,SCT,20000.0,,,,,,
KRDR,11-18-2001,06:08,SPECI,,200,5.0,,,1600.0,Mist/Cloud Development Not Observable,3.0,3.0,29.84,,,,,10,0,0,,,,,,,,,4/8 Partly Cloudy,72000.0,,SCT,20000.0,,,,,,
KRDR,11-18-2001,06:00,METAR,,210,5.0,,,9999.0,Cloud Development Not Observable,3.0,3.0,29.83,1011.2,,,,0,0,0,,,,,,,,,4/8 Partly Cloudy,72000.0,,SCT,20000.0,,,,,,
KRDR,11-18-2001,05:00,METAR,,190,7.0,,,9999.0,Mist/Cloud Development Not Observable,5.0,5.0,29.82,1010.9,,,,10,0,0,,,,,,,,,4/8 Partly Cloudy,72000.0,,SCT,20000.0,,,,,,
KRDR,11-18-2001,03:00,METAR,,210,6.0,,,9999.0,Cloud Development Not Observable,4.0,4.0,29.85,1012.0,,,,0,0,0,,,,,,,,,4/8 Partly Cloudy,72000.0,,SCT,20000.0,,,,,,
KRDR,11-18-2001,02:00,METAR,,180,6.0,,,9999.0,Cloud Development Not Observable,6.0,6.0,29.86,1012.5,,,,0,0,0,,,,,,,,,2/8 Mostly Clear,72000.0,,FEW,20000.0,,,,,,
KRDR,11-18-2001,01:00,METAR,,210,4.0,,,9999.0,Cloud Development Not Observable,8.0,8.0,29.87,1012.8,,,,0,0,0,,,,,,,,,2/8 Mostly Clear,72000.0,,FEW,20000.0,,,,,,
KRDR,11-18-2001,00:00,METAR,,200,6.0,,,9999.0,Cloud Development Not Observable,9.0,9.0,29.87,1012.8,,,,0,0,0,,,,,,,,,2/8 Mostly Clear,72000.0,,FEW,20000.0,,,,,,
KRDR,11-17-2001,22:00,METAR,,200,8.0,,,9999.0,Cloud Development Not Observable,16.0,10.0,29.87,1012.6,,,,0,0,0,,,,,,,,,2/8 Mostly Clear,72000.0,,FEW,20000.0,,,,,,
KRDR,11-17-2001,21:00,METAR,,190,12.0,,,9999.0,Cloud Development Not Observable,17.0,10.0,29.88,1012.6,,,,0,0,0,,,,,,,,,2/8 Mostly Clear,72000.0,,FEW,20000.0,,,,,,
KRDR,11-17-2001,20:00,METAR,,180,13.0,,,9999.0,Cloud Development Not Observable,16.0,10.0,29.90,1013.2,,,,0,0,0,,,,,,,,,2/8 Mostly Clear,72000.0,,FEW,20000.0,,,,,,
KRDR,11-17-2001,19:00,METAR,,180,10.0,,,9999.0,Cloud Development Not Observable,16.0,12.0,29.91,1013.6,,,,0,0,0,,,,,,,,,2/8 Mostly Clear,72000.0,,FEW,20000.0,,,,,,
KRDR,11-17-2001,18:00,METAR,,180,10.0,,,9999.0,Cloud Development Not Observable,13.0,11.0,29.93,1014.4,,,,0,0,0,,,,,,,,,2/8 Mostly Clear,72000.0,,FEW,20000.0,,,,,,
KRDR,11-17-2001,17:00,METAR,,180,9.0,,,9999.0,Cloud Development Not Observable,11.0,11.0,29.95,1015.0,,,,0,0,0,,,,,,,,,2/8 Mostly Clear,72000.0,,FEW,20000.0,,,,,,
KRDR,11-17-2001,15:00,METAR,,200,3.0,,,9999.0,Cloud Development Not Observable,5.0,5.0,29.96,1015.7,,,,0,0,0,,,,,,,,,2/8 Mostly Clear,72000.0,,FEW,20000.0,,,,,,
KRDR,11-17-2001,14:00,METAR,,160,4.0,,,9999.0,Cloud Development Not Observable,2.0,2.0,29.95,1015.5,,,,0,0,0,,,,,,,,,2/8 Mostly Clear,72000.0,,FEW,20000.0,,,,,,
KRDR,11-17-2001,12:00,METAR,,230,9.0,,,9999.0,Cloud Development Not Observable,2.0,2.0,29.96,1015.5,,,,0,0,0,,,,,,,,,Clear,72000.0,,,73000.0,,,,,,
KRDR,11-17-2001,11:00,METAR,,220,7.0,,,9999.0,Cloud Development Not Observable,1.0,1.0,29.96,1015.5,,,,0,0,0,,,,,,,,,Clear,72000.0,,,73000.0,,,,,,
KRDR,11-17-2001,10:00,METAR,,250,6.0,,,9999.0,Cloud Development Not Observable,1.0,1.0,29.97,1015.9,,,,0,0,0,,,,,,,,,Clear,72000.0,,,73000.0,,,,,,
KRDR,11-17-2001,09:00,METAR,,190,8.0,,,9999.0,Cloud Development Not Observable,3.0,3.0,29.96,1015.4,,,,0,0,0,,,,,,,,,Clear,72000.0,,,73000.0,,,,,,
KRDR,11-17-2001,08:00,METAR,,180,6.0,,,9999.0,Cloud Development Not Observable,5.0,5.0,29.96,1015.4,,,,0,0,0,,,,,,,,,Clear,72000.0,,,73000.0,,,,,,
KRDR,11-17-2001,07:00,METAR,,190,8.0,,,9999.0,Cloud Development Not Observable,3.0,3.0,29.96,1015.3,,,,0,0,0,,,,,,,,,Clear,72000.0,,,73000.0,,,,,,
KRDR,11-17-2001,06:00,METAR,,180,8.0,,,9999.0,Cloud Development Not Observable,7.0,7.0,29.97,1015.6,,,,0,0,0,,,,,,,,,Clear,72000.0,,,73000.0,,,,,,
KRDR,11-17-2001,05:00,METAR,,220,6.0,,,9999.0,Cloud Development Not Observable,8.0,8.0,29.97,1015.9,,,,0,0,0,,,,,,,,,Clear,72000.0,,,73000.0,,,,,,
KRDR,11-17-2001,04:00,METAR,,180,10.0,,,9999.0,Cloud Development Not Observable,7.0,7.0,29.97,1016.0,,,,0,0,0,,,,,,,,,Clear,72000.0,,,73000.0,,,,,,
KRDR,11-17-2001,03:00,METAR,,200,9.0,,,9999.0,Cloud Development Not Observable,8.0,8.0,29.98,1016.3,,,,0,0,0,,,,,,,,,Clear,72000.0,,,73000.0,,,,,,
KRDR,11-17-2001,02:00,METAR,,200,4.0,,,9999.0,Cloud Development Not Observable,9.0,9.0,29.98,1016.3,,,,0,0,0,,,,,,,,,2/8 Mostly Clear,72000.0,,FEW,20000.0,,,,,,
KRDR,11-17-2001,01:00,METAR,,180,8.0,,,9999.0,Cloud Development Not Observable,9.0,8.0,29.96,1015.8,,,,0,0,0,,,,,,,,,2/8 Mostly Clear,72000.0,,FEW,20000.0,,,,,,
KRDR,11-17-2001,00:00,METAR,,180,5.0,,,9999.0,Cloud Development Not Observable,10.0,8.0,29.97,1016.2,,,,0,0,0,,,,,,,,,2/8 Mostly Clear,72000.0,,FEW,20000.0,,,,,,
KRDR,11-16-2001,23:00,METAR,,160,9.0,,,9999.0,Cloud Development Not Observable,14.0,8.0,29.98,1016.2,,,,0,0,0,,,,,,,,,2/8 Mostly Clear,72000.0,,FEW,20000.0,,,,,,
KRDR,11-16-2001,22:00,METAR,,170,9.0,,,9999.0,Cloud Development Not Observable,16.0,7.0,29.99,1016.5,,,,0,0,0,,,,,,,,,2/8 Mostly Clear,72000.0,,FEW,20000.0,,,,,,
KRDR,11-16-2001,21:00,METAR,,170,10.0,,,9999.0,Cloud Development Not Observable,17.0,6.0,29.98,1016.3,,,,0,0,0,,,,,,,,,2/8 Mostly Clear,72000.0,,FEW,20000.0,,,,,,
KRDR,11-16-2001,20:00,METAR,,170,11.0,,,9999.0,Cloud Development Not Observable,17.0,6.0,30.00,1016.8,,,,0,0,0,,,,,,,,,2/8 Mostly Clear,72000.0,,FEW,20000.0,,,,,,
KRDR,11-16-2001,19:00,METAR,,170,12.0,,,9999.0,Cloud Development Not Observable,16.0,6.0,30.02,1017.5,,,,0,0,0,,,,,,,,,4/8 Partly Cloudy,72000.0,,SCT,20000.0,,,,,,
KRDR,11-16-2001,18:00,METAR,,190,12.0,,,9999.0,Cloud Development Not Observable,13.0,7.0,30.04,1018.2,,,,0,0,0,,,,,,,,,7/8 Mostly Cloudy,20000.0,,BKN,20000.0,,,,,,
KRDR,11-16-2001,17:00,METAR,,180,13.0,,,9999.0,Cloud Development Not Observable,10.0,8.0,30.06,1019.1,,,,0,0,0,,,,,,,,,7/8 Mostly Cloudy,20000.0,,BKN,20000.0,,,,,,
KRDR,11-16-2001,16:00,METAR,,170,12.0,,,9999.0,Cloud Development Not Observable,7.0,7.0,30.08,1019.7,,,,0,0,0,,,,,,,,,,72000.0,,,,,,,,,
KRDR,11-16-2001,15:00,METAR,,150,9.0,,,9999.0,Cloud Development Not Observable,3.0,3.0,30.08,1020.0,,,,0,0,0,,,,,,,,,4/8 Partly Cloudy,72000.0,,SCT,20000.0,,,,,,
KRDR,11-16-2001,14:00,METAR,,150,9.0,,,9999.0,Cloud Development Not Observable,1.0,1.0,30.08,1020.0,,,,0,0,0,,,,,,,,,2/8 Mostly Clear,72000.0,,FEW,20000.0,,,,,,
KRDR,11-16-2001,13:00,METAR,,150,3.0,,,9999.0,Cloud Development Not Observable,1.0,1.0,30.09,1020.1,,,,0,0,0,,,,,,,,,2/8 Mostly Clear,72000.0,,FEW,20000.0,,,,,,
KRDR,11-16-2001,12:00,METAR,,140,4.0,,,9999.0,Cloud Development Not Observable,1.0,1.0,30.08,1019.7,,,,0,0,0,,,,,,,,,2/8 Mostly Clear,72000.0,,FEW,20000.0,,,,,,
KRDR,11-16-2001,11:00,METAR,,140,4.0,,,9999.0,Cloud Development Not Observable,-2.0,-2.0,30.07,1019.5,,,,0,0,0,,,,,,,,,2/8 Mostly Clear,72000.0,,FEW,20000.0,,,,,,
KRDR,11-16-2001,10:00,METAR,,30,3.0,,,9999.0,Cloud Development Not Observable,-1.0,-1.0,30.09,1020.1,,,,0,0,0,,,,,,,,,4/8 Partly Cloudy,72000.0,,SCT,20000.0,,,,,,
KRDR,11-16-2001,09:00,METAR,,30,3.0,,,9999.0,Cloud Development Not Observable,-1.0,-1.0,30.10,1020.2,,,,0,0,0,,,,,,,,,4/8 Partly Cloudy,72000.0,,SCT,20000.0,,,,,,
KRDR,11-16-2001,08:00,METAR,,50,3.0,,,9999.0,Cloud Development Not Observable,0.0,0.0,30.11,1020.6,,,,0,0,0,,,,,,,,,4/8 Partly Cloudy,72000.0,,SCT,20000.0,,,,,,
KRDR,11-16-2001,07:00,METAR,,160,4.0,,,9999.0,Cloud Development Not Observable,1.0,1.0,30.09,1020.0,,,,0,0,0,,,,,,,,,7/8 Mostly Cloudy,20000.0,,BKN,20000.0,,,,,,
KRDR,11-16-2001,06:00,METAR,,70,4.0,,,9999.0,Cloud Development Not Observable,4.0,4.0,30.09,1019.9,,,,0,0,0,,,,,,,,,7/8 Mostly Cloudy,20000.0,,BKN,20000.0,,,,,,
KRDR,11-16-2001,05:00,METAR,,340,4.0,,,9999.0,Cloud Development Not Observable,1.0,1.0,30.09,1020.0,,,,0,0,0,,,,,,,,,4/8 Partly Cloudy,72000.0,,SCT,20000.0,,,,,,
KRDR,11-16-2001,04:00,METAR,,320,5.0,,,9999.0,Cloud Development Not Observable,1.0,1.0,30.09,1019.9,,,,0,0,0,,,,,,,,,7/8 Mostly Cloudy,20000.0,,BKN,20000.0,,,,,,
KRDR,11-16-2001,03:00,METAR,,240,3.0,,,9999.0,Cloud Development Not Observable,2.0,2.0,30.06,1019.1,,,,0,0,0,,,,,,,,,7/8 Mostly Cloudy,20000.0,,BKN,20000.0,,,,,,
KRDR,11-16-2001,02:00,METAR,,350,3.0,,,9999.0,Cloud Development Not Observable,5.0,5.0,30.06,1019.1,,,,0,0,0,,,,,,,,,7/8 Mostly Cloudy,20000.0,,BKN,20000.0,,,,,,
KRDR,11-16-2001,01:00,METAR,,50,7.0,,,9999.0,Cloud Development Not Observable,8.0,6.0,30.04,1018.2,,,,0,0,0,,,,,,,,,7/8 Mostly Cloudy,20000.0,,BKN,20000.0,,,,,,
KRDR,11-16-2001,00:00,METAR,,20,6.0,,,9999.0,Cloud Development Not Observable,9.0,6.0,30.03,1017.8,,,,0,0,0,,,,,,,,,4/8 Partly Cloudy,72000.0,,SCT,20000.0,,,,,,
KRDR,11-15-2001,23:00,METAR,,20,6.0,,,9999.0,Cloud Development Not Observable,11.0,5.0,30.01,1017.2,,,,0,0,0,,,,,,,,,4/8 Partly Cloudy,72000.0,,SCT,20000.0,,,,,,
KRDR,11-15-2001,22:00,METAR,,360,8.0,,,9999.0,Cloud Development Not Observable,13.0,5.0,30.01,1016.9,,,,0,0,0,,,,,,,,,4/8 Partly Cloudy,72000.0,,SCT,20000.0,,,,,,
KRDR,11-15-2001,21:00,METAR,,30,5.0,,,9999.0,Cloud Development Not Observable,15.0,5.0,29.98,1016.0,,,,0,0,0,,,,,,,,,4/8 Partly Cloudy,72000.0,,SCT,20000.0,,,,,,
KRDR,11-15-2001,20:00,METAR,,40,4.0,,,9999.0,Cloud Development Not Observable,15.0,4.0,29.98,1015.8,,,,0,0,0,,,,,,,,,7/8 Mostly Cloudy,20000.0,,BKN,20000.0,,,,,,
KRDR,11-15-2001,19:00,METAR,,20,8.0,,,9999.0,Cloud Development Not Observable,15.0,4.0,29.98,1016.1,,,,0,0,0,,,,,,,,,7/8 Mostly Cloudy,20000.0,,BKN,20000.0,,,,,,
KRDR,11-15-2001,18:00,METAR,,10,15.0,,,9999.0,Cloud Development Not Observable,15.0,4.0,29.98,1016.1,,,,0,0,0,,,,,,,,,7/8 Mostly Cloudy,20000.0,,BKN,20000.0,,,,,,
KRDR,11-15-2001,17:00,METAR,,360,12.0,,,9999.0,Cloud Development Not Observable,15.0,4.0,29.95,1015.2,,,,0,0,0,,,,,,,,,7/8 Mostly Cloudy,20000.0,,BKN,20000.0,,,,,,
KRDR,11-15-2001,16:00,METAR,,340,10.0,,,9999.0,Cloud Development Not Observable,11.0,5.0,29.95,1015.2,,,,0,0,0,,,,,,,,,7/8 Mostly Cloudy,20000.0,,BKN,20000.0,,,,,,
KRDR,11-15-2001,15:00,METAR,,300,9.0,,,9999.0,Cloud Development Not Observable,8.0,6.0,29.95,1015.1,,,,0,0,0,,,,,,,,,7/8 Mostly Cloudy,20000.0,,BKN,20000.0,,,,,,
KRDR,11-15-2001,14:00,METAR,,300,10.0,,,9999.0,Cloud Development Not Observable,8.0,5.0,29.92,1014.2,,,,0,0,0,,,,,,,,,4/8 Partly Cloudy,72000.0,,SCT,20000.0,,,,,,
KRDR,11-15-2001,13:00,METAR,,300,8.0,,,9999.0,Cloud Development Not Observable,9.0,5.0,29.89,1013.1,,,,0,0,0,,,,,,,,,4/8 Partly Cloudy,72000.0,,SCT,20000.0,,,,,,
KRDR,11-15-2001,12:00,METAR,,310,11.0,,,9999.0,Cloud Development Not Observable,10.0,4.0,29.88,1012.6,,,,0,0,0,,,,,,,,,4/8 Partly Cloudy,72000.0,,SCT,20000.0,,,,,,
KRDR,11-15-2001,11:00,METAR,,260,7.0,,,9999.0,Cloud Development Not Observable,9.0,4.0,29.86,1011.9,,,,0,0,0,,,,,,,,,4/8 Partly Cloudy,72000.0,,SCT,20000.0,,,,,,
KRDR,11-15-2001,10:00,METAR,,260,8.0,,,9999.0,Cloud Development Not Observable,12.0,4.0,29.85,1011.4,,,,0,0,0,,,,,,,,,8/8 Overcast,20000.0,,OVC,20000.0,,,,,,
KRDR,11-15-2001,09:00,METAR,,260,8.0,,,9999.0,Cloud Development Not Observable,11.0,4.0,29.84,1011.0,,,,0,0,0,,,,,,,,,8/8 Overcast,20000.0,,OVC,20000.0,,,,,,
KRDR,11-15-2001,08:00,METAR,,270,8.0,,,9999.0,Cloud Development Not Observable,11.0,6.0,29.83,1010.7,,,,0,0,0,,,,,,,,,8/8 Overcast,20000.0,,OVC,20000.0,,,,,,
KRDR,11-15-2001,07:00,METAR,,270,7.0,,,9999.0,Cloud Development Not Observable,9.0,6.0,29.83,1010.8,,,,0,0,0,,,,,,,,,7/8 Mostly Cloudy,20000.0,,BKN,20000.0,,,,,,
KRDR,11-15-2001,06:00,METAR,,250,8.0,,,9999.0,Cloud Development Not Observable,8.0,6.0,29.82,1010.5,,,,0,0,0,,,,,,,,,4/8 Partly Cloudy,72000.0,,SCT,20000.0,,,,,,
KRDR,11-15-2001,04:00,METAR,,220,6.0,,,9999.0,Cloud Development Not Observable,7.0,7.0,29.80,1010.0,,,,0,0,0,,,,,,,,,7/8 Mostly Cloudy,20000.0,,BKN,20000.0,,,,,,
KRDR,11-15-2001,03:00,METAR,,200,7.0,,,9999.0,Cloud Development Not Observable,8.0,8.0,29.80,1010.0,,,,0,0,0,,,,,,,,,7/8 Mostly Cloudy,20000.0,,BKN,20000.0,,,,,,
KRDR,11-15-2001,02:00,METAR,,190,8.0,,,9999.0,Cloud Development Not Observable,8.0,8.0,29.80,1010.1,,,,0,0,0,,,,,,,,,4/8 Partly Cloudy,72000.0,,SCT,20000.0,,,,,,
KRDR,11-15-2001,01:00,METAR,,180,7.0,,,9999.0,Cloud Development Not Observable,10.0,10.0,29.79,1010.0,,,,0,0,0,,,,,,,,,7/8 Mostly Cloudy,20000.0,,BKN,20000.0,,,,,,
KRDR,11-15-2001,00:00,METAR,,180,8.0,,,9999.0,Cloud Development Not Observable,10.0,10.0,29.79,1010.0,,,,0,0,0,,,,,,,,,7/8 Mostly Cloudy,20000.0,,BKN,20000.0,,,,,,
KRDR,11-14-2001,23:00,METAR,,170,7.0,,,9999.0,Cloud Development Not Observable,12.0,12.0,29.79,1009.9,,,,0,0,0,,,,,,,,,7/8 Mostly Cloudy,20000.0,,BKN,20000.0,,,,,,
KRDR,11-14-2001,22:00,METAR,,170,10.0,,,9999.0,Cloud Development Not Observable,14.0,11.0,29.78,1009.3,,,,0,0,0,,,,,,,,,7/8 Mostly Cloudy,25000.0,,FEW,15000.0,BKN,25000.0,,,,
KRDR,11-14-2001,21:00,METAR,,180,8.0,,,9999.0,Cloud Development Not Observable,17.0,9.0,29.78,1009.3,,,,0,0,0,,,,,,,,,4/8 Partly Cloudy,72000.0,,SCT,25000.0,,,,,,
KRDR,11-14-2001,20:00,METAR,,180,10.0,,,9999.0,Cloud Development Not Observable,17.0,9.0,29.79,1009.6,,,,0,0,0,,,,,,,,,4/8 Partly Cloudy,72000.0,,SCT,25000.0,,,,,,
KRDR,11-14-2001,19:00,METAR,,190,10.0,,,9999.0,Cloud Development Not Observable,16.0,13.0,29.80,1010.0,,,,0,0,0,,,,,,,,,4/8 Partly Cloudy,72000.0,,SCT,20000.0,,,,,,
KRDR,11-14-2001,18:00,METAR,,190,10.0,,,8000.0,Mist/Cloud Development Not Observable,13.0,13.0,29.82,1010.5,,,,10,0,0,,,,,,,,,4/8 Partly Cloudy,72000.0,,FEW,700.0,SCT,20000.0,,,,
KRDR,11-14-2001,17:36,SPECI,,190,13.0,,,9999.0,Cloud Development Not Observable,12.0,12.0,29.82,,,,,0,0,0,,,,,,,,,7/8 Mostly Cloudy,20000.0,,FEW,700.0,BKN,20000.0,,,,
KRDR,11-14-2001,17:00,METAR,,190,12.0,,,8900.0,Mist/Cloud Development Not Observable,11.0,11.0,29.83,1011.2,,,,10,0,0,,,,,,,,,7/8 Mostly Cloudy,700.0,,BKN,700.0,BKN,20000.0,,,,
KRDR,11-14-2001,16:55,METAR,,190,12.0,,,8900.0,Mist/Cloud Development Not Observable,11.0,11.0,29.83,1011.2,,,,10,0,0,,,,,,,,,7/8 Mostly Cloudy,700.0,,BKN,700.0,,,,,,
KRDR,11-14-2001,16:17,SPECI,,220,5.0,,,6000.0,Mist/Cloud Development Not Observable,10.0,10.0,29.84,1011.7,,,,10,0,0,,,,,,,,,7/8 Mostly Cloudy,700.0,,SCT,200.0,BKN,700.0,,,,
KRDR,11-14-2001,16:00,METAR,,230,8.0,,,4000.0,Mist/Cloud Development Not Observable,9.0,9.0,29.84,1011.7,,,,10,0,0,,,,,,,,,7/8 Mostly Cloudy,700.0,,SCT,200.0,BKN,700.0,,,,
KRDR,11-14-2001,15:47,SPECI,,220,7.0,,,4000.0,Mist/Cloud Development Not Observable,9.0,9.0,29.84,,,,,10,0,0,,,,,,,,,7/8 Mostly Cloudy,700.0,,SCT,200.0,BKN,700.0,,,,
KRDR,11-14-2001,15:23,SPECI,,220,8.0,,,2400.0,Mist/Cloud Development Not Observable,8.0,8.0,29.83,,,,,10,0,0,,,,,,,,,7/8 Mostly Cloudy,700.0,,SCT,200.0,BKN,700.0,,,,
KRDR,11-14-2001,15:09,SPECI,,220,8.0,,,1600.0,Mist/Cloud Development Not Observable,7.0,7.0,29.83,,,,,10,0,0,,,,,,,,,7/8 Mostly Cloudy,700.0,,SCT,200.0,BKN,700.0,,,,
KRDR,11-14-2001,15:00,METAR,,210,7.0,,,2400.0,Mist/Cloud Development Not Observable,7.0,7.0,29.83,,,,,10,0,0,,,,,,,,,7/8 Mostly Cloudy,700.0,,SCT,200.0,BKN,700.0,,,,
KRDR,11-14-2001,14:55,METAR,,210,10.0,,,800.0,Mist/Cloud Development Not Observable,7.0,7.0,29.83,,,,,10,0,0,,,,,,,,,7/8 Mostly Cloudy,700.0,,SCT,200.0,BKN,700.0,,,,
KRDR,11-14-2001,14:45,METAR,,210,9.0,,,800.0,Mist/Cloud Development Not Observable,7.0,7.0,29.83,,,,,10,0,0,,,,,,,,,8/8 Overcast,700.0,,OVC,700.0,,,,,,
KRDR,11-14-2001,14:22,SPECI,,210,9.0,,,800.0,Mist/Cloud Development Not Observable,6.0,6.0,29.82,,,,,10,0,0,,,,,,,,,8/8 Overcast,700.0,,OVC,700.0,,,,,,
KRDR,11-14-2001,14:00,METAR,,210,11.0,,,200.0,Fog or Ice Fog/Cloud Development Not Observable,5.0,5.0,29.81,1010.7,,,,44,0,0,,,,,,,,,8/8 Overcast,800.0,,SCT,200.0,OVC,800.0,,,,
KRDR,11-14-2001,13:49,SPECI,,200,11.0,,,200.0,Fog or Ice Fog/Cloud Development Not Observable,5.0,5.0,29.81,,,,,44,0,0,,,,,,,,,7/8 Mostly Cloudy,800.0,,SCT,200.0,BKN,800.0,,,,
KRDR,11-14-2001,13:42,SPECI,,200,9.0,,,800.0,Mist/Cloud Development Not Observable,4.0,4.0,29.81,,,,,10,0,0,,,,,,,,,7/8 Mostly Cloudy,800.0,,SCT,200.0,BKN,800.0,,,,
KRDR,11-14-2001,13:38,SPECI,,210,8.0,,,800.0,Mist/Cloud Development Not Observable,4.0,4.0,29.81,,,,,10,0,0,,,,,,,,,7/8 Mostly Cloudy,800.0,,SCT,200.0,BKN,800.0,,,,
KRDR,11-14-2001,13:34,SPECI,,210,8.0,,,5200.0,Mist/Cloud Development Not Observable,4.0,4.0,29.81,,,,,10,0,0,,,,,,,,,7/8 Mostly Cloudy,800.0,,SCT,200.0,BKN,800.0,,,,
KRDR,11-14-2001,13:00,METAR,,200,8.0,,,4800.0,Mist/Cloud Development Not Observable,1.0,1.0,29.81,1010.7,,,,10,0,0,,,,,,,,,Clear,72000.0,,,73000.0,,,,,,
KRDR,11-14-2001,12:00,METAR,,180,8.0,,,6400.0,Mist/Cloud Development Not Observable,1.0,1.0,29.82,1010.8,,,,10,0,0,,,,,,,,,Clear,72000.0,,,73000.0,,,,,,
KRDR,11-14-2001,11:00,METAR,,160,6.0,,,8000.0,Mist/Cloud Development Not Observable,0.0,0.0,29.82,1011.1,,,,10,0,0,,,,,,,,,Clear,72000.0,,,73000.0,,,,,,
KRDR,11-14-2001,10:00,METAR,,190,6.0,,,8000.0,Mist/Cloud Development Not Observable,2.0,2.0,29.82,1010.6,,,,10,0,0,,,,,,,,,Clear,72000.0,,,73000.0,,,,,,
KRDR,11-14-2001,09:00,METAR,,170,7.0,,,9999.0,Cloud Development Not Observable,4.0,4.0,29.81,1010.1,,,,0,0,0,,,,,,,,,2/8 Mostly Clear,72000.0,,FEW,25000.0,,,,,,
KRDR,11-14-2001,08:00,METAR,,170,8.0,,,9999.0,Cloud Development Not Observable,5.0,5.0,29.81,1010.1,,,,0,0,0,,,,,,,,,2/8 Mostly Clear,72000.0,,FEW,25000.0,,,,,,
KRDR,11-14-2001,07:00,METAR,,210,8.0,,,9999.0,Cloud Development Not Observable,6.0,6.0,29.81,1010.1,,,,0,0,0,,,,,,,,,2/8 Mostly Clear,72000.0,,FEW,25000.0,,,,,,
KRDR,11-14-2001,06:00,METAR,,220,8.0,,,9999.0,Cloud Development Not Observable,7.0,5.0,29.81,1010.2,,,,0,0,0,,,,,,,,,2/8 Mostly Clear,72000.0,,FEW,25000.0,,,,,,
KRDR,11-14-2001,05:00,METAR,,200,10.0,,,9999.0,Cloud Development Not Observable,5.0,3.0,29.82,1010.7,,,,0,0,0,,,,,,,,,2/8 Mostly Clear,72000.0,,FEW,25000.0,,,,,,
KRDR,11-14-2001,04:00,METAR,,190,9.0,,,9999.0,Cloud Development Not Observable,4.0,2.0,29.81,1010.6,,,,0,0,0,,,,,,,,,2/8 Mostly Clear,72000.0,,FEW,25000.0,,,,,,
KRDR,11-14-2001,03:00,METAR,,200,8.0,,,9999.0,Cloud Development Not Observable,4.0,2.0,29.81,1010.8,,,,0,0,0,,,,,,,,,2/8 Mostly Clear,72000.0,,FEW,25000.0,,,,,,
KRDR,11-14-2001,02:00,METAR,,220,7.0,,,9999.0,Cloud Development Not Observable,6.0,4.0,29.81,1010.8,,,,0,0,0,,,,,,,,,2/8 Mostly Clear,72000.0,,FEW,25000.0,,,,,,
KRDR,11-13-2001,21:00,METAR,,220,8.0,,,9999.0,Cloud Development Not Observable,18.0,3.0,29.78,1009.3,,,,0,0,0,,,,,,,,,2/8 Mostly Clear,72000.0,,FEW,1000.0,FEW,25000.0,,,,
KRDR,11-13-2001,20:00,METAR,,240,6.0,,,9999.0,Cloud Development Not Observable,18.0,3.0,29.79,1009.8,,,,0,0,0,,,,,,,,,Clear,72000.0,,,73000.0,,,,,,
KRDR,11-13-2001,19:00,METAR,,210,7.0,,,9999.0,Cloud Development Not Observable,16.0,3.0,29.80,1010.3,,,,0,0,0,,,,,,,,,Clear,72000.0,,,73000.0,,,,,,
KRDR,11-13-2001,18:00,METAR,,220,7.0,,,9999.0,Cloud Development Not Observable,13.0,3.0,29.81,1010.6,,,,0,0,0,,,,,,,,,Clear,72000.0,,,73000.0,,,,,,
KRDR,11-13-2001,17:00,METAR,,230,5.0,,,9999.0,Cloud Development Not Observable,10.0,6.0,29.83,1011.3,,,,0,0,0,,,,,,,,,Clear,72000.0,,,73000.0,,,,,,
KRDR,11-13-2001,16:00,METAR,,220,4.0,,,9999.0,Cloud Development Not Observable,5.0,5.0,29.82,1011.3,,,,0,0,0,,,,,,,,,Clear,72000.0,,,73000.0,,,,,,
KRDR,11-13-2001,15:00,METAR,,260,1.0,,,9999.0,Cloud Development Not Observable,1.0,1.0,29.82,1011.4,,,,0,0,0,,,,,,,,,Clear,72000.0,,,73000.0,,,,,,
KRDR,11-13-2001,14:00,METAR,,180,7.0,,,9999.0,Cloud Development Not Observable,-2.0,-2.0,29.81,1011.0,,,,0,0,0,,,,,,,,,Clear,72000.0,,,73000.0,,,,,,
KRDR,11-13-2001,13:00,METAR,,190,8.0,,,9999.0,Cloud Development Not Observable,-3.0,-3.0,29.82,1011.1,,,,0,0,0,,,,,,,,,Clear,72000.0,,,73000.0,,,,,,
KRDR,11-13-2001,12:00,METAR,,180,6.0,,,9999.0,Cloud Development Not Observable,-1.0,-1.0,29.83,1011.5,,,,0,0,0,,,,,,,,,Clear,72000.0,,,73000.0,,,,,,
KRDR,11-13-2001,11:00,METAR,,190,9.0,,,9999.0,Cloud Development Not Observable,-1.0,-1.0,29.82,1011.0,,,,0,0,0,,,,,,,,,Clear,72000.0,,,73000.0,,,,,,
KRDR,11-13-2001,10:00,METAR,,210,10.0,,,9999.0,Cloud Development Not Observable,-2.0,-2.0,29.83,1011.5,,,,0,0,0,,,,,,,,,Clear,72000.0,,,73000.0,,,,,,
KRDR,11-13-2001,09:00,METAR,,130,6.0,,,9999.0,Cloud Development Not Observable,-1.0,-1.0,29.86,1012.4,,,,0,0,0,,,,,,,,,Clear,72000.0,,,73000.0,,,,,,
KRDR,11-13-2001,08:00,METAR,,140,4.0,,,9999.0,Cloud Development Not Observable,-2.0,-2.0,29.85,1012.0,,,,0,0,0,,,,,,,,,Clear,72000.0,,,73000.0,,,,,,
KRDR,11-13-2001,07:00,METAR,,190,4.0,,,9999.0,Cloud Development Not Observable,-4.0,-4.0,29.87,1012.9,,,,0,0,0,,,,,,,,,Clear,72000.0,,,73000.0,,,,,,
KRDR,11-13-2001,06:00,METAR,,,4.0,,,9999.0,Cloud Development Not Observable,-1.0,-1.0,29.88,1013.2,,,,0,0,0,,,,,,,,,Clear,72000.0,,,73000.0,,,,,,
KRDR,11-13-2001,05:00,METAR,,210,5.0,,,9999.0,Cloud Development Not Observable,-1.0,-1.0,29.89,1013.6,,,,0,0,0,,,,,,,,,Clear,72000.0,,,73000.0,,,,,,
KRDR,11-13-2001,04:00,METAR,,260,3.0,,,9999.0,Cloud Development Not Observable,-1.0,-1.0,29.90,1013.9,,,,0,0,0,,,,,,,,,Clear,72000.0,,,73000.0,,,,,,
KRDR,11-13-2001,03:00,METAR,,270,5.0,,,9999.0,Cloud Development Not Observable,-1.0,-1.0,29.90,1014.0,,,,0,0,0,,,,,,,,,Clear,72000.0,,,73000.0,,,,,,
KRDR,11-13-2001,02:00,METAR,,240,4.0,,,9999.0,Cloud Development Not Observable,-1.0,-1.0,29.91,1014.2,,,,0,0,0,,,,,,,,,Clear,72000.0,,,73000.0,,,,,,
KRDR,11-13-2001,01:00,METAR,,270,3.0,,,9999.0,Cloud Development Not Observable,3.0,2.0,29.91,1014.5,,,,0,0,0,,,,,,,,,Clear,72000.0,,,73000.0,,,,,,
KRDR,11-13-2001,00:00,METAR,,,1.0,,,9999.0,Cloud Development Not Observable,3.0,3.0,29.91,1014.5,,,,0,0,0,,,,,,,,,Clear,72000.0,,,73000.0,,,,,,
KRDR,11-12-2001,23:00,METAR,,190,2.0,,,9999.0,Cloud Development Not Observable,7.0,3.0,29.91,1014.4,,,,0,0,0,,,,,,,,,Clear,72000.0,,,73000.0,,,,,,
KRDR,11-12-2001,22:00,METAR,,,2.0,,,9999.0,Cloud Development Not Observable,10.0,4.0,29.92,1014.6,,,,0,0,0,,,,,,,,,Clear,72000.0,,,73000.0,,,,,,
KRDR,11-12-2001,21:00,METAR,,230,6.0,,,9999.0,Cloud Development Not Observable,10.0,3.0,29.93,1015.0,,,,0,0,0,,,,,,,,,Clear,72000.0,,,73000.0,,,,,,
KRDR,11-12-2001,20:00,METAR,,220,3.0,,,9999.0,Cloud Development Not Observable,10.0,5.0,29.93,1014.9,,,,0,0,0,,,,,,,,,Clear,72000.0,,,73000.0,,,,,,
KRDR,11-12-2001,18:00,METAR,,170,3.0,,,9999.0,Cloud Development Not Observable,6.0,4.0,29.96,1016.1,,,,0,0,0,,,,,,,,,2/8 Mostly Clear,72000.0,,FEW,25000.0,,,,,,
KRDR,11-12-2001,17:00,METAR,,350,2.0,,,9999.0,Cloud Development Not Observable,3.0,3.0,29.98,1016.7,,,,0,0,0,,,,,,,,,2/8 Mostly Clear,72000.0,,FEW,25000.0,,,,,,
KRDR,11-12-2001,16:00,METAR,,330,3.0,,,9999.0,Cloud Development Not Observable,0.0,0.0,29.99,1017.0,,,,0,0,0,,,,,,,,,Clear,72000.0,,,73000.0,,,,,,
KRDR,11-12-2001,14:00,METAR,,310,6.0,,,9999.0,Cloud Development Not Observable,-4.0,-4.0,30.00,1017.6,,,,0,0,0,,,,,,,,,Clear,72000.0,,,73000.0,,,,,,
KRDR,11-12-2001,13:00,METAR,,310,5.0,,,9999.0,Cloud Development Not Observable,-5.0,-5.0,30.01,1017.7,,,,0,0,0,,,,,,,,,Clear,72000.0,,,73000.0,,,,,,
KRDR,11-12-2001,12:00,METAR,,270,4.0,,,9999.0,Cloud Development Not Observable,-5.0,-5.0,30.02,1018.4,,,,0,0,0,,,,,,,,,Clear,72000.0,,,73000.0,,,,,,
KRDR,11-12-2001,11:00,METAR,,290,4.0,,,9999.0,Cloud Development Not Observable,-6.0,-6.0,30.03,1018.3,,,,0,0,0,,,,,,,,,2/8 Mostly Clear,72000.0,,FEW,25000.0,,,,,,
KRDR,11-12-2001,08:00,METAR,,300,3.0,,,9999.0,Cloud Development Not Observable,-4.0,-4.0,30.05,1019.0,,,,0,0,0,,,,,,,,,Clear,72000.0,,,73000.0,,,,,,
KRDR,11-12-2001,05:00,METAR,,320,5.0,,,9999.0,Cloud Development Not Observable,-2.0,-2.0,30.09,1020.3,,,,0,0,0,,,,,,,,,2/8 Mostly Clear,72000.0,,FEW,25000.0,,,,,,
KRDR,11-12-2001,04:00,METAR,,360,4.0,,,9999.0,Cloud Development Not Observable,-1.0,-1.0,30.10,1020.7,,,,0,0,0,,,,,,,,,2/8 Mostly Clear,72000.0,,FEW,25000.0,,,,,,
KRDR,11-12-2001,03:00,METAR,,80,5.0,,,9999.0,Cloud Development Not Observable,3.0,3.0,30.11,1021.0,,,,0,0,0,,,,,,,,,4/8 Partly Cloudy,72000.0,,SCT,25000.0,,,,,,
KRDR,11-12-2001,02:00,METAR,,80,7.0,,,9999.0,Cloud Development Not Observable,5.0,3.0,30.11,1021.0,,,,0,0,0,,,,,,,,,4/8 Partly Cloudy,72000.0,,SCT,25000.0,,,,,,
KRDR,11-12-2001,01:00,METAR,,80,8.0,,,9999.0,Cloud Development Not Observable,6.0,3.0,30.11,1021.2,,,,0,0,0,,,,,,,,,4/8 Partly Cloudy,72000.0,,SCT,25000.0,,,,,,
KRDR,11-12-2001,00:00,METAR,,50,4.0,,,9999.0,Cloud Development Not Observable,6.0,2.0,30.12,1021.5,,,,0,0,0,,,,,,,,,2/8 Mostly Clear,72000.0,,FEW,25000.0,,,,,,
KRDR,11-11-2001,23:00,METAR,,160,3.0,,,9999.0,Cloud Development Not Observable,10.0,3.0,30.12,1021.2,,,,0,0,0,,,,,,,,,Clear,72000.0,,,73000.0,,,,,,
KRDR,11-11-2001,22:00,METAR,,110,7.0,,,9999.0,Cloud Development Not Observable,12.0,3.0,30.11,1020.9,,,,0,0,0,,,,,,,,,Clear,72000.0,,,73000.0,,,,,,
KRDR,11-11-2001,21:00,METAR,,110,11.0,,,9999.0,Cloud Development Not Observable,13.0,3.0,30.12,1021.1,,,,0,0,0,,,,,,,,,Clear,72000.0,,,73000.0,,,,,,
KRDR,11-11-2001,20:00,METAR,,130,7.0,,,9999.0,Cloud Development Not Observable,12.0,2.0,30.13,1021.6,,,,0,0,0,,,,,,,,,2/8 Mostly Clear,72000.0,,FEW,25000.0,,,,,,
KRDR,11-11-2001,18:00,METAR,,110,9.0,,,9999.0,Cloud Development Not Observable,8.0,5.0,30.17,1022.9,,,,0,0,0,,,,,,,,,Clear,72000.0,,,73000.0,,,,,,
KRDR,11-11-2001,17:00,METAR,,110,7.0,,,9999.0,Cloud Development Not Observable,5.0,5.0,30.19,1023.7,,,,0,0,0,,,,,,,,,2/8 Mostly Clear,72000.0,,FEW,25000.0,,,,,,
KRDR,11-11-2001,15:00,METAR,,110,5.0,,,9999.0,Cloud Development Not Observable,0.0,0.0,30.20,1024.4,,,,0,0,0,,,,,,,,,Clear,72000.0,,,73000.0,,,,,,
KRDR,11-11-2001,14:00,METAR,,110,4.0,,,9999.0,Cloud Development Not Observable,-2.0,-2.0,30.20,1024.3,,,,0,0,0,,,,,,,,,Clear,72000.0,,,73000.0,,,,,,
KRDR,11-11-2001,13:00,METAR,,120,4.0,,,9999.0,Cloud Development Not Observable,-3.0,-3.0,30.20,1024.3,,,,0,0,0,,,,,,,,,Clear,72000.0,,,73000.0,,,,,,
KRDR,11-11-2001,12:00,METAR,,120,4.0,,,9999.0,Cloud Development Not Observable,-3.0,-3.0,30.19,1024.0,,,,0,0,0,,,,,,,,,Clear,72000.0,,,73000.0,,,,,,
KRDR,11-11-2001,09:00,METAR,,170,6.0,,,9999.0,Cloud Development Not Observable,-3.0,-3.0,30.21,1024.3,,,,0,0,0,,,,,,,,,2/8 Mostly Clear,72000.0,,FEW,25000.0,,,,,,
KRDR,11-11-2001,08:00,METAR,,90,4.0,,,9999.0,Cloud Development Not Observable,-1.0,-1.0,30.22,1024.8,,,,0,0,0,,,,,,,,,2/8 Mostly Clear,72000.0,,FEW,25000.0,,,,,,
KRDR,11-11-2001,06:00,METAR,,170,5.0,,,9999.0,Cloud Development Not Observable,-2.0,-2.0,30.23,1025.2,,,,0,0,0,,,,,,,,,2/8 Mostly Clear,72000.0,,FEW,25000.0,,,,,,
KRDR,11-11-2001,05:00,METAR,,170,5.0,,,9999.0,Cloud Development Not Observable,0.0,0.0,30.23,1025.1,,,,0,0,0,,,,,,,,,Clear,72000.0,,,73000.0,,,,,,
KRDR,11-11-2001,04:00,METAR,,210,4.0,,,9999.0,Cloud Development Not Observable,-1.0,-1.0,30.22,1025.0,,,,0,0,0,,,,,,,,,4/8 Partly Cloudy,72000.0,,SCT,11000.0,SCT,25000.0,,,,
KRDR,11-11-2001,02:00,METAR,,150,8.0,,,9999.0,Cloud Development Not Observable,4.0,3.0,30.22,1024.8,,,,0,0,0,,,,,,,,,4/8 Partly Cloudy,72000.0,,SCT,25000.0,,,,,,
KRDR,11-11-2001,01:00,METAR,,140,6.0,,,9999.0,Cloud Development Not Observable,5.0,3.0,30.23,1025.1,,,,0,0,0,,,,,,,,,4/8 Partly Cloudy,72000.0,,SCT,25000.0,,,,,,
KRDR,11-11-2001,00:00,METAR,,120,5.0,,,9999.0,Cloud Development Not Observable,5.0,3.0,30.24,1025.5,,,,0,0,0,,,,,,,,,4/8 Partly Cloudy,72000.0,,SCT,25000.0,,,,,,
KRDR,11-10-2001,23:00,METAR,,160,4.0,,,9999.0,Cloud Development Not Observable,7.0,2.0,30.24,1025.4,,,,0,0,0,,,,,,,,,7/8 Mostly Cloudy,25000.0,,BKN,25000.0,,,,,,
KRDR,11-10-2001,22:00,METAR,,150,6.0,,,9999.0,Cloud Development Not Observable,8.0,3.0,30.24,1025.3,,,,0,0,0,,,,,,,,,7/8 Mostly Cloudy,25000.0,,BKN,25000.0,,,,,,
KRDR,11-10-2001,21:00,METAR,,170,6.0,,,9999.0,Cloud Development Not Observable,10.0,2.0,30.24,1025.3,,,,0,0,0,,,,,,,,,4/8 Partly Cloudy,72000.0,,FEW,12000.0,SCT,25000.0,,,,
KRDR,11-10-2001,20:00,METAR,,20,5.0,,,9999.0,Cloud Development Not Observable,9.0,3.0,30.23,1025.0,,,,0,0,0,,,,,,,,,4/8 Partly Cloudy,72000.0,,SCT,25000.0,,,,,,
KRDR,11-10-2001,19:00,METAR,,10,3.0,,,9999.0,Cloud Development Not Observable,9.0,4.0,30.24,1025.4,,,,0,0,0,,,,,,,,,4/8 Partly Cloudy,72000.0,,SCT,25000.0,,,,,,
KRDR,11-10-2001,17:00,METAR,,10,3.0,,,9999.0,Cloud Development Not Observable,5.0,3.0,30.25,1025.8,,,,0,0,0,,,,,,,,,2/8 Mostly Clear,72000.0,,FEW,25000.0,,,,,,
KRDR,11-10-2001,16:00,METAR,,10,8.0,,,9999.0,Cloud Development Not Observable,4.0,2.0,30.24,1025.4,,,,0,0,0,,,,,,,,,2/8 Mostly Clear,72000.0,,FEW,25000.0,,,,,,
KRDR,11-10-2001,15:00,METAR,,320,8.0,,,9999.0,Cloud Development Not Observable,1.0,1.0,30.23,1024.9,,,,0,0,0,,,,,,,,,2/8 Mostly Clear,72000.0,,FEW,25000.0,,,,,,
KRDR,11-10-2001,14:00,METAR,,320,8.0,,,9999.0,Cloud Development Not Observable,-1.0,-1.0,30.22,1024.6,,,,0,0,0,,,,,,,,,2/8 Mostly Clear,72000.0,,FEW,25000.0,,,,,,
KRDR,11-10-2001,13:00,METAR,,310,8.0,,,9999.0,Cloud Development Not Observable,0.0,0.0,30.20,1023.9,,,,0,0,0,,,,,,,,,Clear,72000.0,,,73000.0,,,,,,
KRDR,11-10-2001,12:00,METAR,,290,7.0,,,9999.0,Cloud Development Not Observable,-1.0,-1.0,30.15,1022.3,,,,0,0,0,,,,,,,,,Clear,72000.0,,,73000.0,,,,,,
KRDR,11-10-2001,11:00,METAR,,280,8.0,,,9999.0,Cloud Development Not Observable,-1.0,-1.0,30.14,1021.9,,,,0,0,0,,,,,,,,,Clear,72000.0,,,73000.0,,,,,,
KRDR,11-10-2001,10:00,METAR,,280,5.0,,,9999.0,Cloud Development Not Observable,0.0,0.0,30.12,1021.1,,,,0,0,0,,,,,,,,,Clear,72000.0,,,73000.0,,,,,,
KRDR,11-10-2001,05:00,METAR,,300,14.0,,,9999.0,Cloud Development Not Observable,6.0,-1.0,29.98,1016.3,,,,0,0,0,,,,,,,,,Clear,72000.0,,,73000.0,,,,,,
KRDR,11-09-2001,23:00,METAR,,280,4.0,,,9999.0,Cloud Development Not Observable,13.0,-2.0,29.84,1011.5,,,,0,0,0,,,,,,,,,4/8 Partly Cloudy,72000.0,,SCT,25000.0,,,,,,
KRDR,11-09-2001,22:00,METAR,,270,14.0,,,9999.0,Cloud Development Not Observable,15.0,-2.0,29.81,1010.5,,,,0,0,0,,,,,,,,,7/8 Mostly Cloudy,25000.0,,BKN,25000.0,,,,,,
KRDR,11-09-2001,21:00,METAR,,230,11.0,,,9999.0,Cloud Development Not Observable,16.0,-1.0,29.81,1010.4,,,,0,0,0,,,,,,,,,,72000.0,,,,,,,,,
KRDR,11-09-2001,20:00,METAR,,230,11.0,,,9999.0,Cloud Development Not Observable,16.0,-2.0,29.84,1011.3,,,,0,0,0,,,,,,,,,4/8 Partly Cloudy,72000.0,,SCT,25000.0,,,,,,
KRDR,11-09-2001,19:00,METAR,,170,8.0,,,9999.0,Cloud Development Not Observable,13.0,3.0,29.87,1012.4,,,,0,0,0,,,,,,,,,4/8 Partly Cloudy,72000.0,,SCT,25000.0,,,,,,
KRDR,11-09-2001,18:00,METAR,,180,8.0,,,9999.0,Cloud Development Not Observable,10.0,2.0,29.90,1013.4,,,,0,0,0,,,,,,,,,7/8 Mostly Cloudy,25000.0,,FEW,20000.0,BKN,25000.0,,,,
KRDR,11-09-2001,17:00,METAR,,180,10.0,,,9999.0,Cloud Development Not Observable,5.0,0.0,29.93,1014.6,,,,0,0,0,,,,,,,,,7/8 Mostly Cloudy,25000.0,,FEW,20000.0,BKN,25000.0,,,,
KRDR,11-09-2001,16:00,METAR,,200,10.0,,,9999.0,Cloud Development Not Observable,5.0,0.0,29.94,1015.1,,,,0,0,0,,,,,,,,,7/8 Mostly Cloudy,25000.0,,FEW,20000.0,BKN,25000.0,,,,
KRDR,11-09-2001,15:00,METAR,,210,9.0,,,9999.0,Cloud Development Not Observable,4.0,0.0,29.96,1015.9,,,,0,0,0,,,,,,,,,7/8 Mostly Cloudy,25000.0,,FEW,20000.0,BKN,25000.0,,,,
KRDR,11-09-2001,14:00,METAR,,170,3.0,,,9999.0,Cloud Development Not Observable,2.0,0.0,29.98,1016.5,,,,0,0,0,,,,,,,,,7/8 Mostly Cloudy,25000.0,,BKN,25000.0,,,,,,
KRDR,11-09-2001,13:00,METAR,,240,10.0,,,9999.0,Cloud Development Not Observable,0.0,-1.0,29.99,1016.9,,,,0,0,0,,,,,,,,,4/8 Partly Cloudy,72000.0,,SCT,25000.0,,,,,,
KRDR,11-09-2001,12:00,METAR,,180,5.0,,,9999.0,Cloud Development Not Observable,2.0,-2.0,29.99,1017.0,,,,0,0,0,,,,,,,,,2/8 Mostly Clear,72000.0,,FEW,25000.0,,,,,,
KRDR,11-09-2001,11:00,METAR,,180,6.0,,,9999.0,Cloud Development Not Observable,2.0,-1.0,30.00,1017.2,,,,0,0,0,,,,,,,,,2/8 Mostly Clear,72000.0,,FEW,25000.0,,,,,,
KRDR,11-09-2001,10:00,METAR,,,5.0,,,9999.0,Cloud Development Not Observable,1.0,-2.0,30.01,1017.5,,,,0,0,0,,,,,,,,,4/8 Partly Cloudy,72000.0,,SCT,25000.0,,,,,,
KRDR,11-09-2001,09:00,METAR,,,4.0,,,9999.0,Cloud Development Not Observable,4.0,-2.0,30.01,1017.6,,,,0,0,0,,,,,,,,,4/8 Partly Cloudy,72000.0,,SCT,25000.0,,,,,,
KRDR,11-09-2001,08:00,METAR,,260,9.0,,,9999.0,Cloud Development Not Observable,3.0,-2.0,30.02,1017.8,,,,0,0,0,,,,,,,,,4/8 Partly Cloudy,72000.0,,SCT,25000.0,,,,,,
KRDR,11-09-2001,07:00,METAR,,240,8.0,,,9999.0,Cloud Development Not Observable,3.0,-2.0,30.04,1018.5,,,,0,0,0,,,,,,,,,4/8 Partly Cloudy,72000.0,,SCT,25000.0,,,,,,
KRDR,11-09-2001,06:00,METAR,,230,9.0,,,9999.0,Cloud Development Not Observable,4.0,-1.0,30.05,1018.8,,,,0,0,0,,,,,,,,,4/8 Partly Cloudy,72000.0,,SCT,25000.0,,,,,,
KRDR,11-09-2001,05:00,METAR,,240,13.0,,,9999.0,Cloud Development Not Observable,5.0,-1.0,30.06,1019.2,,,,0,0,0,,,,,,,,,4/8 Partly Cloudy,72000.0,,SCT,25000.0,,,,,,
KRDR,11-09-2001,04:00,METAR,,220,15.0,,,9999.0,Cloud Development Not Observable,5.0,1.0,30.09,1020.1,,,,0,0,0,,,,,,,,,7/8 Mostly Cloudy,25000.0,,BKN,25000.0,,,,,,
KRDR,11-09-2001,03:00,METAR,,210,16.0,,,9999.0,Cloud Development Not Observable,4.0,1.0,30.11,1020.9,,,,0,0,0,,,,,,,,,4/8 Partly Cloudy,72000.0,,SCT,25000.0,,,,,,
KRDR,11-09-2001,02:00,METAR,,200,15.0,,,9999.0,Cloud Development Not Observable,4.0,1.0,30.13,1021.6,,,,0,0,0,,,,,,,,,7/8 Mostly Cloudy,25000.0,,BKN,25000.0,,,,,,
KRDR,11-09-2001,01:00,METAR,,190,12.0,,,9999.0,Cloud Development Not Observable,5.0,2.0,30.17,1023.1,,,,0,0,0,,,,,,,,,7/8 Mostly Cloudy,25000.0,,BKN,25000.0,,,,,,
KRDR,11-09-2001,00:00,METAR,,190,12.0,,,9999.0,Cloud Development Not Observable,5.0,2.0,30.21,1024.3,,,,0,0,0,,,,,,,,,7/8 Mostly Cloudy,25000.0,,BKN,25000.0,,,,,,
KRDR,11-08-2001,23:00,METAR,,180,14.0,,,9999.0,Cloud Development Not Observable,5.0,2.0,30.23,1025.2,,,,0,0,0,,,,,,,,,4/8 Partly Cloudy,72000.0,,SCT,25000.0,,,,,,
KRDR,11-08-2001,22:00,METAR,,210,14.0,,,9999.0,Cloud Development Not Observable,6.0,2.0,30.30,1027.5,,,,0,0,0,,,,,,,,,4/8 Partly Cloudy,72000.0,,FEW,4000.0,SCT,25000.0,,,,
KRDR,11-08-2001,21:00,METAR,,220,17.0,,,9999.0,Cloud Development Not Observable,6.0,1.0,30.32,1028.1,,,,0,0,0,,,,,,,,,7/8 Mostly Cloudy,25000.0,,FEW,4000.0,BKN,25000.0,,,,
KRDR,11-08-2001,20:00,METAR,,210,14.0,,,9999.0,Cloud Development Not Observable,6.0,1.0,30.36,1029.4,,,,0,0,0,,,,,,,,,7/8 Mostly Cloudy,25000.0,,FEW,2200.0,BKN,25000.0,,,,
KRDR,11-08-2001,19:00,METAR,Normal,250,11.0,,,,Cloud Development Not Observable,5.0,1.0,30.41,,,,,0,0,0,,,,,,,,,,25000.0,,SCT,2200.0,BKN,25000.0,,,,
KRDR,11-08-2001,18:00,METAR,,260,9.0,,,9999.0,Cloud Development Not Observable,4.0,0.0,30.43,1031.9,,,,0,0,0,,,,,,,,,4/8 Partly Cloudy,72000.0,,SCT,2200.0,,,,,,
KRDR,11-08-2001,17:00,METAR,,280,7.0,,,9999.0,Cloud Development Not Observable,3.0,1.0,30.47,1033.4,,,,0,0,0,,,,,,,,,4/8 Partly Cloudy,72000.0,,SCT,2200.0,,,,,,
KRDR,11-08-2001,16:00,METAR,,270,9.0,,,9999.0,Cloud Development Not Observable,2.0,1.0,30.48,1033.7,,,,0,0,0,,,,,,,,,4/8 Partly Cloudy,72000.0,,FEW,2200.0,SCT,25000.0,,,,
KRDR,11-08-2001,15:00,METAR,,270,9.0,,,9999.0,Cloud Development Not Observable,0.0,0.0,30.49,1034.0,,,,0,0,0,,,,,,,,,4/8 Partly Cloudy,72000.0,,SCT,2200.0,,,,,,
KRDR,11-08-2001,14:38,SPECI,,270,7.0,,,9999.0,Cloud Development Not Observable,0.0,0.0,30.48,,,,,0,0,0,,,,,,,,,4/8 Partly Cloudy,72000.0,,SCT,2200.0,,,,,,
KRDR,11-08-2001,14:00,METAR,,290,6.0,,,9999.0,Cloud Development Not Observable,0.0,0.0,30.48,1033.8,,,,0,0,0,,,,,,,,,7/8 Mostly Cloudy,2200.0,,BKN,2200.0,,,,,,
KRDR,11-08-2001,13:00,METAR,,300,9.0,,,9999.0,Cloud Development Not Observable,1.0,1.0,30.48,1033.7,,,,0,0,0,,,,,,,,,7/8 Mostly Cloudy,2200.0,,BKN,2200.0,,,,,,
KRDR,11-08-2001,12:00,METAR,,310,8.0,,,9999.0,Cloud Development Not Observable,1.0,1.0,30.48,1033.5,,,,0,0,0,,,,,,,,,7/8 Mostly Cloudy,2200.0,,BKN,2200.0,,,,,,
KRDR,11-08-2001,11:34,SPECI,,310,8.0,,,9999.0,Cloud Development Not Observable,1.0,1.0,30.48,,,,,0,0,0,,,,,,,,,7/8 Mostly Cloudy,2500.0,,BKN,2500.0,,,,,,
KRDR,11-08-2001,11:00,METAR,,320,13.0,,,9999.0,Cloud Development Not Observable,1.0,1.0,30.47,1033.1,,,,0,0,0,,,,,,,,,4/8 Partly Cloudy,72000.0,,SCT,2500.0,,,,,,
KRDR,11-08-2001,10:00,METAR,,310,13.0,,,9999.0,Cloud Development Not Observable,1.0,1.0,30.44,1032.2,,,,0,0,0,,,,,,,,,4/8 Partly Cloudy,72000.0,,SCT,2500.0,,,,,,
KRDR,11-08-2001,09:41,SPECI,,310,16.0,,,9999.0,Cloud Development Not Observable,1.0,1.0,30.43,,,,,0,0,0,,,,,,,,,4/8 Partly Cloudy,72000.0,,SCT,2600.0,,,,,,
KRDR,11-08-2001,09:00,METAR,,310,16.0,,,9999.0,Cloud Development Not Observable,2.0,2.0,30.42,1031.5,,,,0,0,0,,,,,,,,,7/8 Mostly Cloudy,2500.0,,BKN,2500.0,,,,,,
KRDR,11-08-2001,08:00,METAR,,340,15.0,,,9999.0,Cloud Development Not Observable,2.0,2.0,30.40,1030.9,,,,0,0,0,,,,,,,,,7/8 Mostly Cloudy,2200.0,,BKN,2200.0,,,,,,
KRDR,11-08-2001,07:00,METAR,,340,22.0,,330/28KTS,9999.0,Cloud Development Not Observable,2.0,1.0,30.38,1030.1,,,,0,0,0,,,,,,,,,7/8 Mostly Cloudy,2200.0,,BKN,2200.0,,,,,,
KRDR,11-08-2001,06:00,METAR,,330,23.0,27.0,,9999.0,Cloud Development Not Observable,2.0,2.0,30.35,,,,,0,0,0,,,,,,,,,7/8 Mostly Cloudy,2000.0,,BKN,2000.0,,,,,,
KRDR,11-08-2001,05:00,METAR,,340,19.0,26.0,340/29KTS,9999.0,Cloud Development Not Observable,2.0,2.0,30.32,1028.2,,,,0,0,0,,,,,,,,,7/8 Mostly Cloudy,2200.0,,BKN,2200.0,,,,,,
KRDR,11-08-2001,04:00,METAR,,330,22.0,28.0,,9999.0,Cloud Development Not Observable,3.0,2.0,30.29,1027.2,,,,0,0,0,,,,,,,,,8/8 Overcast,2100.0,,OVC,2100.0,,,,,,
KRDR,11-08-2001,03:00,METAR,,340,21.0,29.0,320/34KTS,9999.0,Cloud Development Not Observable,2.0,2.0,30.26,1026.1,,,,0,0,0,,,,,,,,,8/8 Overcast,2000.0,,OVC,2000.0,,,,,,
KRDR,11-08-2001,02:00,METAR,,320,25.0,35.0,,9999.0,Cloud Development Not Observable,3.0,2.0,30.23,1025.0,,,,0,0,0,,,,,,,,,8/8 Overcast,2100.0,,OVC,2100.0,,,,,,
KRDR,11-08-2001,01:00,METAR,,320,25.0,,310/29KTS,9999.0,Cloud Development Not Observable,3.0,3.0,30.18,1023.5,,,,0,0,0,,,,,,,,,8/8 Overcast,2000.0,,BKN,2000.0,OVC,5000.0,,,,
KRDR,11-08-2001,00:00,METAR,,310,22.0,30.0,310/32KTS,9999.0,Cloud Development Not Observable,4.0,4.0,30.13,1021.7,,,,0,0,0,,,,,,,,,8/8 Overcast,2000.0,,BKN,2000.0,OVC,5000.0,,,,
KRDR,11-07-2001,23:00,METAR,,320,21.0,,,9999.0,Cloud Development Not Observable,6.0,6.0,30.09,1020.0,,,,0,0,0,,,,,,,,,8/8 Overcast,2000.0,,FEW,1000.0,BKN,2000.0,OVC,5000.0,,
KRDR,11-07-2001,22:19,SPECI,,320,19.0,,,9999.0,Cloud Development Not Observable,6.0,6.0,30.05,,,,,0,0,0,,,,,,,,,8/8 Overcast,2000.0,,FEW,1000.0,BKN,2000.0,OVC,5000.0,,
KRDR,11-07-2001,22:00,METAR,,310,17.0,,,9999.0,Drizzle/Cloud Development Not Observable,7.0,7.0,30.04,1018.4,,,,51,0,0,,,,,,,,,8/8 Overcast,1600.0,,FEW,1000.0,BKN,1600.0,OVC,4000.0,,
KRDR,11-07-2001,21:00,METAR,,290,9.0,,,9999.0,Drizzle/Cloud Development Not Observable,7.0,7.0,30.01,1017.4,,,,51,0,0,,,,,,,,,8/8 Overcast,1600.0,,FEW,800.0,BKN,1600.0,OVC,4000.0,,
KRDR,11-07-2001,20:44,SPECI,,280,9.0,,,9999.0,Drizzle/Cloud Development Not Observable,7.0,7.0,30.01,,,,,51,0,0,,,,,,,,,8/8 Overcast,1500.0,,BKN,1500.0,OVC,6900.0,,,,
KRDR,11-07-2001,20:00,METAR,,300,9.0,,,9999.0,Cloud Development Not Observable,6.0,6.0,30.01,1017.6,,,,0,0,0,,,,,,,,,8/8 Overcast,7000.0,,FEW,2500.0,BKN,6900.0,OVC,15000.0,,
KRDR,11-07-2001,19:00,METAR,,250,3.0,,,9999.0,Cloud Development Not Observable,5.0,5.0,30.00,1017.2,,,,0,0,0,,,,,,,,,8/8 Overcast,7000.0,,SCT,4500.0,BKN,6900.0,OVC,15000.0,,
KRDR,11-07-2001,18:00,METAR,,210,4.0,,,9999.0,Cloud Development Not Observable,5.0,5.0,30.02,1018.0,,,,0,0,0,,,,,,,,,8/8 Overcast,8000.0,,SCT,4000.0,OVC,7900.0,,,,
KRDR,11-07-2001,17:40,SPECI,,220,4.0,,,9999.0,Cloud Development Not Observable,5.0,5.0,30.02,,,,,0,0,0,,,,,,,,,8/8 Overcast,8000.0,,SCT,4000.0,OVC,7900.0,,,,
KRDR,11-07-2001,17:00,METAR,,120,4.0,,,9999.0,Light Rain Showers/Cloud Development Not Observable,4.0,4.0,30.02,1017.9,,,,80,0,0,,,,,,,,,8/8 Overcast,7000.0,,SCT,3500.0,OVC,6900.0,,,,
KRDR,11-07-2001,16:31,SPECI,,120,9.0,,,9999.0,Light Rain Showers/Cloud Development Not Observable,4.0,4.0,30.02,,,,,80,0,0,,,,,,,,,8/8 Overcast,7000.0,,SCT,3500.0,OVC,6900.0,,,,
KRDR,11-07-2001,16:00,METAR,,120,10.0,,,9999.0,Cloud Development Not Observable,4.0,4.0,30.02,1017.9,,,,0,0,0,,,,,,,,,8/8 Overcast,8000.0,,SCT,4000.0,OVC,7900.0,,,,
KRDR,11-07-2001,15:47,SPECI,,120,11.0,,,9999.0,Cloud Development Not Observable,4.0,4.0,30.03,,,,,0,0,0,,,,,,,,,8/8 Overcast,8000.0,,SCT,3500.0,OVC,7900.0,,,,
KRDR,11-07-2001,15:00,METAR,,100,10.0,,,9999.0,Light Rain Showers/Cloud Development Not Observable,4.0,4.0,30.05,1018.9,,,,80,0,0,,,,,,,,,8/8 Overcast,8000.0,,SCT,3500.0,OVC,7900.0,,,,
KRDR,11-07-2001,14:00,METAR,,100,8.0,,,9999.0,Light Rain Showers/Cloud Development Not Observable,3.0,3.0,30.07,1019.6,,,,80,0,0,,,,,,,,,8/8 Overcast,8000.0,,SCT,4000.0,OVC,7900.0,,,,
KRDR,11-07-2001,13:34,SPECI,,90,7.0,,,9999.0,Light Rain Showers/Cloud Development Not Observable,3.0,3.0,30.09,,,,,80,0,0,,,,,,,,,8/8 Overcast,6000.0,,SCT,3000.0,OVC,5900.0,,,,
KRDR,11-07-2001,13:00,METAR,,90,7.0,,,9999.0,Cloud Development Not Observable,3.0,3.0,30.10,1020.5,,,,0,0,0,,,,,,,,,8/8 Overcast,9000.0,,FEW,5900.0,OVC,8900.0,,,,
KRDR,11-07-2001,12:00,METAR,,350,6.0,,,9999.0,Cloud Development Not Observable,3.0,3.0,30.12,1021.4,,,,0,0,0,,,,,,,,,8/8 Overcast,9000.0,,OVC,8900.0,,,,,,
KRDR,11-07-2001,11:00,METAR,,100,6.0,,,9999.0,Cloud Development Not Observable,4.0,2.0,30.12,1021.2,,,,0,0,0,,,,,,,,,8/8 Overcast,9000.0,,OVC,8900.0,,,,,,
KRDR,11-07-2001,10:00,METAR,,70,7.0,,,9999.0,Cloud Development Not Observable,3.0,2.0,30.11,1020.8,,,,0,0,0,,,,,,,,,8/8 Overcast,10000.0,,BKN,9900.0,OVC,20000.0,,,,
KRDR,11-07-2001,09:00,METAR,,350,6.0,,,9999.0,Cloud Development Not Observable,2.0,2.0,30.16,1022.5,,,,0,0,0,,,,,,,,,8/8 Overcast,10000.0,,OVC,9900.0,,,,,,
KRDR,11-07-2001,07:00,METAR,,350,4.0,,,9999.0,Cloud Development Not Observable,0.0,0.0,30.17,1022.9,,,,0,0,0,,,,,,,,,7/8 Mostly Cloudy,9000.0,,BKN,8900.0,,,,,,
KRDR,11-07-2001,05:00,METAR,,20,5.0,,,9999.0,Cloud Development Not Observable,0.0,-1.0,30.22,1024.7,,,,0,0,0,,,,,,,,,4/8 Partly Cloudy,72000.0,,FEW,8900.0,SCT,25000.0,,,,
KRDR,11-07-2001,04:00,METAR,,40,6.0,,,9999.0,Cloud Development Not Observable,2.0,1.0,30.23,1024.9,,,,0,0,0,,,,,,,,,4/8 Partly Cloudy,72000.0,,FEW,8900.0,SCT,25000.0,,,,
KRDR,11-07-2001,03:00,METAR,,40,7.0,,,9999.0,Cloud Development Not Observable,2.0,1.0,30.23,1025.2,,,,0,0,0,,,,,,,,,4/8 Partly Cloudy,72000.0,,FEW,8900.0,SCT,25000.0,,,,
KRDR,11-07-2001,02:00,METAR,,20,9.0,,,9999.0,Cloud Development Not Observable,3.0,2.0,30.25,1025.7,,,,0,0,0,,,,,,,,,4/8 Partly Cloudy,72000.0,,FEW,8900.0,SCT,25000.0,,,,
KRDR,11-07-2001,01:00,METAR,,10,9.0,,,9999.0,Cloud Development Not Observable,4.0,3.0,30.25,1025.7,,,,0,0,0,,,,,,,,,7/8 Mostly Cloudy,25000.0,,FEW,5000.0,SCT,8900.0,BKN,25000.0,,
KRDR,11-06-2001,23:00,METAR,,360,9.0,,,9999.0,Cloud Development Not Observable,6.0,3.0,30.25,1025.6,,,,0,0,0,,,,,,,,,2/8 Mostly Clear,72000.0,,FEW,12000.0,,,,,,
KRDR,11-06-2001,22:00,METAR,,20,13.0,,,9999.0,Cloud Development Not Observable,9.0,3.0,30.23,1024.0,,,,0,0,0,,,,,,,,,,72000.0,,,73000.0,,,,,,
KRDR,11-06-2001,21:00,METAR,,10,15.0,,,9999.0,Cloud Development Not Observable,9.0,4.0,30.21,1024.0,,,,0,0,0,,,,,,,,,Clear,72000.0,,,73000.0,,,,,,
KRDR,11-06-2001,18:00,METAR,,360,18.0,,,9999.0,Cloud Development Not Observable,8.0,4.0,30.20,1023.9,,,,0,0,0,,,,,,,,,Clear,72000.0,,,73000.0,,,,,,
KRDR,11-06-2001,17:00,METAR,,360,18.0,24.0,,9999.0,Cloud Development Not Observable,7.0,4.0,30.20,1023.7,,,,0,0,0,,,,,,,,,2/8 Mostly Clear,72000.0,,FEW,1000.0,,,,,,
KRDR,11-06-2001,16:00,METAR,,350,19.0,,,9999.0,Cloud Development Not Observable,5.0,4.0,30.16,1022.6,,,,0,0,0,,,,,,,,,4/8 Partly Cloudy,72000.0,,FEW,300.0,SCT,25000.0,,,,
KRDR,11-06-2001,15:41,SPECI,,350,19.0,,,9999.0,Cloud Development Not Observable,5.0,4.0,30.16,,,,,0,0,0,,,,,,,,,2/8 Mostly Clear,72000.0,,FEW,300.0,FEW,25000.0,,,,
KRDR,11-06-2001,14:00,METAR,,330,13.0,,,9999.0,Cloud Development Not Observable,3.0,3.0,30.10,1020.4,,,,0,0,0,,,,,,,,,2/8 Mostly Clear,72000.0,,FEW,25000.0,,,,,,
KRDR,11-06-2001,13:00,METAR,,340,9.0,,,9999.0,Cloud Development Not Observable,2.0,2.0,30.05,1018.8,,,,0,0,0,,,,,,,,,Clear,72000.0,,,73000.0,,,,,,
KRDR,11-06-2001,12:00,METAR,,320,9.0,,,9999.0,Cloud Development Not Observable,3.0,2.0,30.00,1017.0,,,,0,0,0,,,,,,,,,Clear,72000.0,,,73000.0,,,,,,
KRDR,11-06-2001,10:00,METAR,,300,9.0,,,9999.0,Cloud Development Not Observable,4.0,2.0,29.94,1014.6,,,,0,0,0,,,,,,,,,4/8 Partly Cloudy,72000.0,,SCT,25000.0,,,,,,
KRDR,11-06-2001,09:00,METAR,,300,11.0,,,9999.0,Cloud Development Not Observable,7.0,3.0,29.90,1011.6,,,,0,0,0,,,,,,,,,2/8 Mostly Clear,72000.0,,FEW,25000.0,,,,,,
KRDR,11-06-2001,08:00,METAR,,300,8.0,,,9999.0,Cloud Development Not Observable,8.0,3.0,29.85,1011.6,,,,0,0,0,,,,,,,,,2/8 Mostly Clear,72000.0,,FEW,25000.0,,,,,,
KRDR,11-06-2001,07:00,METAR,,300,7.0,,,9999.0,Cloud Development Not Observable,6.0,4.0,29.83,1011.0,,,,0,0,0,,,,,,,,,2/8 Mostly Clear,72000.0,,FEW,25000.0,,,,,,
KRDR,11-06-2001,05:55,METAR,,290,8.0,,,9999.0,Cloud Development Not Observable,6.0,4.0,29.80,1010.0,,,,0,0,0,,,,,,,,,4/8 Partly Cloudy,72000.0,,SCT,25000.0,,,,,,
KRDR,11-06-2001,04:00,METAR,,240,7.0,,,9999.0,Cloud Development Not Observable,6.0,6.0,29.78,1009.3,,,,0,0,0,,,,,,,,,4/8 Partly Cloudy,72000.0,,SCT,25000.0,,,,,,
KRDR,11-06-2001,03:00,METAR,,200,5.0,,,9999.0,Cloud Development Not Observable,7.0,7.0,29.78,1009.4,,,,0,0,0,,,,,,,,,7/8 Mostly Cloudy,25000.0,,FEW,9400.0,BKN,25000.0,,,,
KRDR,11-06-2001,02:00,METAR,,190,7.0,,,9999.0,Cloud Development Not Observable,7.0,7.0,29.78,1009.6,,,,0,0,0,,,,,,,,,2/8 Mostly Clear,72000.0,,FEW,25000.0,,,,,,
KRDR,11-06-2001,01:00,METAR,,170,5.0,,,9999.0,Cloud Development Not Observable,9.0,9.0,29.79,1009.8,,,,0,0,0,,,,,,,,,2/8 Mostly Clear,72000.0,,FEW,25000.0,,,,,,
KRDR,11-06-2001,00:00,METAR,,180,7.0,,,9999.0,Cloud Development Not Observable,13.0,8.0,29.78,1009.5,,,,0,0,0,,,,,,,,,2/8 Mostly Clear,72000.0,,FEW,25000.0,,,,,,
KRDR,11-05-2001,23:00,METAR,,180,7.0,,,9999.0,Cloud Development Not Observable,13.0,8.0,29.78,1009.5,,,,0,0,0,,,,,,,,,2/8 Mostly Clear,72000.0,,FEW,25000.0,,,,,,
KRDR,11-05-2001,22:00,METAR,,190,9.0,,,9999.0,Cloud Development Not Observable,17.0,8.0,29.79,1009.5,,,,0,0,0,,,,,,,,,Clear,72000.0,,,73000.0,,,,,,
KRDR,11-05-2001,21:00,METAR,,190,13.0,,,9999.0,Cloud Development Not Observable,19.0,7.0,29.78,1009.3,,,,0,0,0,,,,,,,,,Clear,72000.0,,,73000.0,,,,,,
KRDR,11-05-2001,20:00,METAR,,190,14.0,,,9999.0,Cloud Development Not Observable,18.0,7.0,29.80,1010.0,,,,0,0,0,,,,,,,,,Clear,72000.0,,,73000.0,,,,,,
KRDR,11-05-2001,18:00,METAR,,170,9.0,,,9999.0,Cloud Development Not Observable,15.0,7.0,29.84,1011.4,,,,0,0,0,,,,,,,,,Clear,72000.0,,,73000.0,,,,,,
KRDR,11-05-2001,17:00,METAR,,180,7.0,,,9999.0,Cloud Development Not Observable,12.0,7.0,29.87,1012.5,,,,0,0,0,,,,,,,,,Clear,72000.0,,,73000.0,,,,,,
KRDR,11-05-2001,16:00,METAR,,170,8.0,,,9999.0,Cloud Development Not Observable,8.0,7.0,29.87,1012.7,,,,0,0,0,,,,,,,,,2/8 Mostly Clear,72000.0,,FEW,25000.0,,,,,,
KRDR,11-05-2001,15:00,METAR,,170,8.0,,,9999.0,Cloud Development Not Observable,6.0,6.0,29.88,1012.9,,,,0,0,0,,,,,,,,,2/8 Mostly Clear,72000.0,,FEW,25000.0,,,,,,
KRDR,11-05-2001,14:00,METAR,,170,9.0,,,9999.0,Cloud Development Not Observable,1.0,1.0,29.89,1013.3,,,,0,0,0,,,,,,,,,2/8 Mostly Clear,72000.0,,FEW,12000.0,FEW,25000.0,,,,
KRDR,11-05-2001,13:00,METAR,,170,8.0,,,9999.0,Cloud Development Not Observable,1.0,1.0,29.90,1013.7,,,,0,0,0,,,,,,,,,4/8 Partly Cloudy,72000.0,,FEW,12000.0,SCT,25000.0,,,,
KRDR,11-05-2001,11:55,METAR,,170,8.0,,,9999.0,Cloud Development Not Observable,2.0,2.0,29.91,1013.8,,,,0,0,0,,,,,,,,,2/8 Mostly Clear,72000.0,,FEW,12000.0,,,,,,
KRDR,11-05-2001,10:00,METAR,,170,5.0,,,9999.0,Cloud Development Not Observable,3.0,3.0,29.93,1014.4,,,,0,0,0,,,,,,,,,7/8 Mostly Cloudy,25000.0,,FEW,12000.0,BKN,25000.0,,,,
KRDR,11-05-2001,09:00,METAR,,180,10.0,,,9999.0,Cloud Development Not Observable,4.0,4.0,29.94,1014.8,,,,0,0,0,,,,,,,,,7/8 Mostly Cloudy,25000.0,,SCT,9900.0,BKN,25000.0,,,,
KRDR,11-05-2001,08:00,METAR,,180,10.0,,,9999.0,Cloud Development Not Observable,5.0,5.0,29.96,1015.5,,,,0,0,0,,,,,,,,,7/8 Mostly Cloudy,25000.0,,SCT,9900.0,BKN,25000.0,,,,
KRDR,11-05-2001,07:00,METAR,,180,11.0,,,9999.0,Cloud Development Not Observable,6.0,6.0,29.97,1015.9,,,,0,0,0,,,,,,,,,7/8 Mostly Cloudy,25000.0,,SCT,9900.0,BKN,25000.0,,,,
KRDR,11-05-2001,06:00,METAR,,180,10.0,,,9999.0,Cloud Development Not Observable,7.0,6.0,29.99,1016.6,,,,0,0,0,,,,,,,,,7/8 Mostly Cloudy,25000.0,,SCT,9900.0,BKN,25000.0,,,,
KRDR,11-05-2001,05:00,METAR,,180,11.0,,,9999.0,Cloud Development Not Observable,6.0,6.0,30.01,1017.8,,,,0,0,0,,,,,,,,,7/8 Mostly Cloudy,25000.0,,SCT,9900.0,BKN,25000.0,,,,
KRDR,11-05-2001,04:00,METAR,,180,9.0,,,9999.0,Cloud Development Not Observable,7.0,6.0,30.02,1017.8,,,,0,0,0,,,,,,,,,7/8 Mostly Cloudy,25000.0,,FEW,6900.0,SCT,15000.0,BKN,25000.0,,
KRDR,11-05-2001,03:00,METAR,,180,13.0,,,9999.0,Cloud Development Not Observable,9.0,6.0,30.04,1018.4,,,,0,0,0,,,,,,,,,7/8 Mostly Cloudy,25000.0,,FEW,6900.0,SCT,15000.0,BKN,25000.0,,
KRDR,11-05-2001,02:00,METAR,,180,13.0,,,9999.0,Cloud Development Not Observable,10.0,6.0,30.06,1019.3,,,,0,0,0,,,,,,,,,7/8 Mostly Cloudy,25000.0,,FEW,6900.0,SCT,15000.0,BKN,25000.0,,
KRDR,11-05-2001,01:00,METAR,,180,13.0,,,9999.0,Cloud Development Not Observable,10.0,6.0,30.08,1020.0,,,,0,0,0,,,,,,,,,7/8 Mostly Cloudy,25000.0,,SCT,15000.0,BKN,25000.0,,,,
KRDR,11-04-2001,22:00,METAR,,160,12.0,,,9999.0,Cloud Development Not Observable,13.0,5.0,30.14,1021.9,,,,0,0,0,,,,,,,,,7/8 Mostly Cloudy,25000.0,,FEW,15000.0,BKN,25000.0,,,,
KRDR,11-04-2001,21:00,METAR,,160,14.0,,,9999.0,Cloud Development Not Observable,14.0,5.0,30.19,1023.6,,,,0,0,0,,,,,,,,,7/8 Mostly Cloudy,25000.0,,FEW,5900.0,SCT,13000.0,BKN,25000.0,,
KRDR,11-04-2001,20:00,METAR,,160,14.0,,,9999.0,Cloud Development Not Observable,13.0,5.0,30.20,1024.0,,,,0,0,0,,,,,,,,,8/8 Overcast,25000.0,,FEW,5900.0,FEW,15000.0,OVC,25000.0,,
KRDR,11-04-2001,19:00,METAR,,170,15.0,,,9999.0,Cloud Development Not Observable,12.0,5.0,30.23,1026.0,,,,0,0,0,,,,,,,,,8/8 Overcast,25000.0,,SCT,15000.0,OVC,25000.0,,,,
KRDR,11-04-2001,18:00,METAR,,160,10.0,,,9999.0,Cloud Development Not Observable,11.0,4.0,30.26,1026.0,,,,0,0,0,,,,,,,,,7/8 Mostly Cloudy,25000.0,,BKN,25000.0,,,,,,
KRDR,11-04-2001,17:00,METAR,,150,10.0,,,9999.0,Cloud Development Not Observable,9.0,3.0,30.29,1027.1,,,,0,0,0,,,,,,,,,8/8 Overcast,25000.0,,OVC,25000.0,,,,,,
KRDR,11-04-2001,16:00,METAR,,180,10.0,,,9999.0,Cloud Development Not Observable,7.0,4.0,30.31,1027.6,,,,0,0,0,,,,,,,,,8/8 Overcast,25000.0,,OVC,25000.0,,,,,,
KRDR,11-04-2001,14:00,METAR,,190,4.0,,,9999.0,Cloud Development Not Observable,-3.0,-3.0,30.32,1028.4,,,,0,0,0,,,,,,,,,7/8 Mostly Cloudy,25000.0,,FEW,15000.0,BKN,25000.0,,,,
KRDR,11-04-2001,13:00,METAR,,140,4.0,,,9999.0,Cloud Development Not Observable,-3.0,-3.0,30.33,1028.4,,,,0,0,0,,,,,,,,,2/8 Mostly Clear,72000.0,,FEW,15000.0,FEW,25000.0,,,,
KRDR,11-04-2001,12:00,METAR,,,4.0,,,9999.0,Cloud Development Not Observable,0.0,0.0,30.33,1028.5,,,,0,0,0,,,,,,,,,2/8 Mostly Clear,72000.0,,FEW,15000.0,,,,,,
KRDR,11-04-2001,11:00,METAR,,210,5.0,,,9999.0,Cloud Development Not Observable,-2.0,-2.0,30.33,1028.3,,,,0,0,0,,,,,,,,,2/8 Mostly Clear,72000.0,,FEW,15000.0,,,,,,
KRDR,11-04-2001,10:00,METAR,,190,5.0,,,9999.0,Cloud Development Not Observable,-1.0,-1.0,30.32,1028.0,,,,0,0,0,,,,,,,,,2/8 Mostly Clear,72000.0,,FEW,15000.0,,,,,,
KRDR,11-04-2001,09:00,METAR,,240,6.0,,,9999.0,Cloud Development Not Observable,-1.0,-1.0,30.33,1028.1,,,,0,0,0,,,,,,,,,2/8 Mostly Clear,72000.0,,FEW,15000.0,,,,,,
KRDR,11-04-2001,08:00,METAR,,240,5.0,,,9999.0,Cloud Development Not Observable,-1.0,-1.0,30.33,1028.1,,,,0,0,0,,,,,,,,,2/8 Mostly Clear,72000.0,,FEW,15000.0,,,,,,
KRDR,11-04-2001,07:00,METAR,,260,5.0,,,9999.0,Cloud Development Not Observable,-1.0,-1.0,30.32,1028.0,,,,0,0,0,,,,,,,,,Clear,72000.0,,,73000.0,,,,,,
KRDR,11-04-2001,06:00,METAR,,240,7.0,,,9999.0,Cloud Development Not Observable,-1.0,-1.0,30.32,1027.9,,,,0,0,0,,,,,,,,,Clear,72000.0,,,73000.0,,,,,,
KRDR,11-04-2001,05:00,METAR,,240,6.0,,,9999.0,Cloud Development Not Observable,0.0,0.0,30.31,1027.7,,,,0,0,0,,,,,,,,,Clear,72000.0,,,73000.0,,,,,,
KRDR,11-04-2001,04:00,METAR,,260,7.0,,,9999.0,Cloud Development Not Observable,2.0,2.0,30.31,1027.5,,,,0,0,0,,,,,,,,,Clear,72000.0,,,73000.0,,,,,,
KRDR,11-04-2001,03:00,METAR,,280,8.0,,,9999.0,Cloud Development Not Observable,2.0,2.0,30.30,1027.4,,,,0,0,0,,,,,,,,,Clear,72000.0,,,73000.0,,,,,,
KRDR,11-04-2001,02:00,METAR,,280,8.0,,,9999.0,Cloud Development Not Observable,4.0,3.0,30.30,1027.3,,,,0,0,0,,,,,,,,,Clear,72000.0,,,73000.0,,,,,,
KRDR,11-04-2001,01:00,METAR,Normal,290,7.0,,,,Cloud Development Not Observable,8.0,3.0,30.28,1026.4,,,,0,0,0,,,,,,,,,,72000.0,,,,,,,,,
KRDR,11-04-2001,00:00,METAR,Normal,290,8.0,,,,Cloud Development Not Observable,8.0,3.0,30.26,1024.9,,,,0,0,0,,,,,,,,,,72000.0,,FEW,25000.0,,,,,,
KRDR,11-03-2001,23:00,METAR,Normal,280,7.0,,,,Cloud Development Not Observable,11.0,4.0,30.23,1024.9,,,,0,0,0,,,,,,,,,,72000.0,,FEW,25000.0,,,,,,
KRDR,11-03-2001,22:00,METAR,Normal,280,9.0,,,,Cloud Development Not Observable,13.0,3.0,30.23,1024.7,,,,0,0,0,,,,,,,,,,72000.0,,FEW,20000.0,SCT,25000.0,,,,
KRDR,11-03-2001,21:00,METAR,,290,15.0,,,9999.0,Cloud Development Not Observable,15.0,3.0,30.21,1024.1,,,,0,0,0,,,,,,,,,2/8 Mostly Clear,72000.0,,FEW,25000.0,,,,,,
KRDR,11-03-2001,20:00,METAR,,300,12.0,,,9999.0,Cloud Development Not Observable,15.0,4.0,30.20,1023.7,,,,0,0,0,,,,,,,,,2/8 Mostly Clear,72000.0,,FEW,25000.0,,,,,,
KRDR,11-03-2001,19:00,METAR,,280,13.0,,,9999.0,Cloud Development Not Observable,14.0,4.0,30.20,1023.8,,,,0,0,0,,,,,,,,,2/8 Mostly Clear,72000.0,,FEW,25000.0,,,,,,
KRDR,11-03-2001,18:00,METAR,,280,13.0,,,9999.0,Cloud Development Not Observable,12.0,4.0,30.22,1024.4,,,,0,0,0,,,,,,,,,2/8 Mostly Clear,72000.0,,FEW,25000.0,,,,,,
KRDR,11-03-2001,17:00,METAR,,280,17.0,,,9999.0,Cloud Development Not Observable,11.0,4.0,30.21,1024.2,,,,0,0,0,,,,,,,,,2/8 Mostly Clear,72000.0,,FEW,25000.0,,,,,,
KRDR,11-03-2001,16:00,METAR,,290,16.0,,,9999.0,Cloud Development Not Observable,8.0,4.0,30.20,1023.9,,,,0,0,0,,,,,,,,,2/8 Mostly Clear,72000.0,,FEW,25000.0,,,,,,
KRDR,11-03-2001,15:00,METAR,,290,11.0,,,9999.0,Cloud Development Not Observable,6.0,4.0,30.20,1024.0,,,,0,0,0,,,,,,,,,Clear,72000.0,,,73000.0,,,,,,
KRDR,11-03-2001,14:00,METAR,,290,10.0,,,9999.0,Cloud Development Not Observable,4.0,4.0,30.16,1022.6,,,,0,0,0,,,,,,,,,2/8 Mostly Clear,72000.0,,FEW,25000.0,,,,,,
KRDR,11-03-2001,13:00,METAR,,290,10.0,,,9999.0,Cloud Development Not Observable,4.0,3.0,30.14,1022.0,,,,0,0,0,,,,,,,,,Clear,72000.0,,,73000.0,,,,,,
KRDR,11-03-2001,12:00,METAR,,250,9.0,,,9999.0,Cloud Development Not Observable,5.0,3.0,30.11,1020.7,,,,0,0,0,,,,,,,,,4/8 Partly Cloudy,72000.0,,SCT,25000.0,,,,,,
KRDR,11-03-2001,11:00,METAR,,260,11.0,,,9999.0,Cloud Development Not Observable,6.0,4.0,30.11,1020.6,,,,0,0,0,,,,,,,,,7/8 Mostly Cloudy,25000.0,,BKN,25000.0,,,,,,
KRDR,11-03-2001,10:00,METAR,,240,8.0,,,9999.0,Cloud Development Not Observable,4.0,4.0,30.10,1020.2,,,,0,0,0,,,,,,,,,7/8 Mostly Cloudy,25000.0,,BKN,25000.0,,,,,,
KRDR,11-03-2001,09:00,METAR,,,4.0,,,9999.0,Cloud Development Not Observable,3.0,3.0,30.10,1020.2,,,,0,0,0,,,,,,,,,7/8 Mostly Cloudy,25000.0,,BKN,25000.0,,,,,,
KRDR,11-03-2001,08:00,METAR,,190,8.0,,,9999.0,Cloud Development Not Observable,3.0,3.0,30.10,1020.3,,,,0,0,0,,,,,,,,,7/8 Mostly Cloudy,25000.0,,BKN,25000.0,,,,,,
KRDR,11-03-2001,07:00,METAR,,200,7.0,,,9999.0,Cloud Development Not Observable,2.0,2.0,30.11,1020.7,,,,0,0,0,,,,,,,,,7/8 Mostly Cloudy,25000.0,,BKN,25000.0,,,,,,
KRDR,11-03-2001,06:00,METAR,,190,10.0,,,9999.0,Cloud Development Not Observable,2.0,2.0,30.10,1020.4,,,,0,0,0,,,,,,,,,4/8 Partly Cloudy,72000.0,,SCT,25000.0,,,,,,
KRDR,11-03-2001,05:00,METAR,,180,4.0,,,9999.0,Cloud Development Not Observable,1.0,1.0,30.11,1020.8,,,,0,0,0,,,,,,,,,4/8 Partly Cloudy,72000.0,,SCT,25000.0,,,,,,
KRDR,11-03-2001,04:00,METAR,,170,5.0,,,9999.0,Cloud Development Not Observable,0.0,0.0,30.11,1020.8,,,,0,0,0,,,,,,,,,2/8 Mostly Clear,72000.0,,FEW,25000.0,,,,,,
KRDR,11-03-2001,03:00,METAR,,140,5.0,,,9999.0,Cloud Development Not Observable,0.0,0.0,30.10,1020.6,,,,0,0,0,,,,,,,,,Clear,72000.0,,,73000.0,,,,,,
KRDR,11-03-2001,02:00,METAR,,160,7.0,,,9999.0,Cloud Development Not Observable,3.0,2.0,30.10,1020.6,,,,0,0,0,,,,,,,,,Clear,72000.0,,,73000.0,,,,,,
KRDR,11-03-2001,01:00,METAR,,150,5.0,,,9999.0,Cloud Development Not Observable,1.0,1.0,30.08,,,,,0,0,0,,,,,,,,,2/8 Mostly Clear,72000.0,,FEW,25000.0,,,,,,
KRDR,11-03-2001,00:00,METAR,,180,6.0,,,9999.0,Cloud Development Not Observable,5.0,1.0,30.08,1019.7,,,,0,0,0,,,,,,,,,2/8 Mostly Clear,72000.0,,FEW,25000.0,,,,,,
KRDR,11-02-2001,23:00,METAR,,240,5.0,,,9999.0,Cloud Development Not Observable,9.0,2.0,30.08,1019.5,,,,0,0,0,,,,,,,,,Clear,72000.0,,,73000.0,,,,,,
KRDR,11-02-2001,22:00,METAR,,280,8.0,,,9999.0,Cloud Development Not Observable,11.0,2.0,30.07,1019.3,,,,0,0,0,,,,,,,,,Clear,72000.0,,,73000.0,,,,,,
KRDR,11-02-2001,21:00,METAR,,270,12.0,,,9999.0,Cloud Development Not Observable,11.0,2.0,30.04,1018.4,,,,0,0,0,,,,,,,,,Clear,72000.0,,,73000.0,,,,,,
KRDR,11-02-2001,20:00,METAR,,290,12.0,,,9999.0,Cloud Development Not Observable,10.0,2.0,30.04,1018.2,,,,0,0,0,,,,,,,,,2/8 Mostly Clear,72000.0,,FEW,5400.0,,,,,,
KRDR,11-02-2001,19:00,METAR,,300,16.0,,,9999.0,Cloud Development Not Observable,9.0,2.0,30.03,1017.9,,,,0,0,0,,,,,,,,,2/8 Mostly Clear,72000.0,,FEW,5400.0,,,,,,
KRDR,11-02-2001,18:00,METAR,,300,13.0,,,9999.0,Cloud Development Not Observable,9.0,4.0,30.03,1017.9,,,,0,0,0,,,,,,,,,2/8 Mostly Clear,72000.0,,FEW,5400.0,,,,,,
KRDR,11-02-2001,17:00,METAR,,300,14.0,,,9999.0,Cloud Development Not Observable,7.0,3.0,30.01,1017.2,,,,0,0,0,,,,,,,,,2/8 Mostly Clear,72000.0,,FEW,3500.0,,,,,,
KRDR,11-02-2001,16:00,METAR,,290,12.0,,,9999.0,Cloud Development Not Observable,6.0,2.0,29.98,1016.2,,,,0,0,0,,,,,,,,,2/8 Mostly Clear,72000.0,,FEW,3500.0,,,,,,
KRDR,11-02-2001,15:00,METAR,,290,13.0,,,9999.0,Cloud Development Not Observable,4.0,3.0,29.95,1015.4,,,,0,0,0,,,,,,,,,2/8 Mostly Clear,72000.0,,FEW,3500.0,,,,,,
KRDR,11-02-2001,14:00,METAR,,280,13.0,,,9999.0,Cloud Development Not Observable,3.0,3.0,29.92,1014.3,,,,0,0,0,,,,,,,,,2/8 Mostly Clear,72000.0,,FEW,3500.0,,,,,,
KRDR,11-02-2001,13:00,METAR,,270,13.0,,,9999.0,Cloud Development Not Observable,3.0,3.0,29.89,1011.3,,,,0,0,0,,,,,,,,,4/8 Partly Cloudy,72000.0,,SCT,3500.0,,,,,,
KRDR,11-02-2001,12:00,METAR,,290,13.0,,,9999.0,Cloud Development Not Observable,3.0,3.0,29.85,1012.0,,,,0,0,0,,,,,,,,,4/8 Partly Cloudy,72000.0,,SCT,3500.0,,,,,,
KRDR,11-02-2001,11:00,METAR,,280,14.0,,,9999.0,Cloud Development Not Observable,5.0,3.0,29.83,1011.2,,,,0,0,0,,,,,,,,,4/8 Partly Cloudy,72000.0,,SCT,3500.0,,,,,,
KRDR,11-02-2001,10:00,METAR,,290,17.0,,,9999.0,Cloud Development Not Observable,6.0,4.0,29.80,1010.0,,,,0,0,0,,,,,,,,,7/8 Mostly Cloudy,3400.0,,BKN,3500.0,,,,,,
KRDR,11-02-2001,09:00,METAR,,280,12.0,,,9999.0,Cloud Development Not Observable,6.0,4.0,29.76,1008.8,,,,0,0,0,,,,,,,,,7/8 Mostly Cloudy,3400.0,,BKN,3500.0,,,,,,
KRDR,11-02-2001,08:00,METAR,,280,12.0,,,9999.0,Cloud Development Not Observable,6.0,4.0,29.74,1008.1,,,,0,0,0,,,,,,,,,7/8 Mostly Cloudy,3900.0,,BKN,4000.0,,,,,,
KRDR,11-02-2001,07:00,METAR,,280,15.0,19.0,,9999.0,Cloud Development Not Observable,7.0,4.0,29.67,1005.6,,,,0,0,0,,,,,,,,,7/8 Mostly Cloudy,3900.0,,BKN,4000.0,,,,,,
KRDR,11-02-2001,06:00,METAR,,280,15.0,,,9999.0,Cloud Development Not Observable,7.0,4.0,29.67,1005.6,,,,0,0,0,,,,,,,,,7/8 Mostly Cloudy,4400.0,,BKN,4500.0,BKN,20000.0,,,,
KRDR,11-02-2001,05:00,METAR,,270,13.0,,,9999.0,Cloud Development Not Observable,8.0,4.0,29.67,1005.5,,,,0,0,0,,,,,,,,,7/8 Mostly Cloudy,4400.0,,BKN,4500.0,BKN,20000.0,,,,
KRDR,11-02-2001,04:00,METAR,,280,17.0,26.0,,9999.0,Cloud Development Not Observable,8.0,4.0,29.64,1004.7,,,,0,0,0,,,,,,,,,7/8 Mostly Cloudy,4400.0,,BKN,4500.0,BKN,20000.0,,,,
KRDR,11-02-2001,03:00,METAR,,280,15.0,24.0,,9999.0,Cloud Development Not Observable,8.0,5.0,29.61,1003.7,,,,0,0,0,,,,,,,,,7/8 Mostly Cloudy,20000.0,,SCT,4500.0,BKN,20000.0,,,,
KRDR,11-02-2001,02:00,METAR,,260,15.0,,,9999.0,Cloud Development Not Observable,9.0,5.0,29.60,1003.2,,,,0,0,0,,,,,,,,,7/8 Mostly Cloudy,4400.0,,BKN,4500.0,BKN,20000.0,,,,
KRDR,11-02-2001,01:00,METAR,,270,9.0,19.0,,9999.0,Cloud Development Not Observable,8.0,5.0,29.59,1002.9,,,,0,0,0,,,,,,,,,7/8 Mostly Cloudy,3900.0,,BKN,4000.0,BKN,20000.0,,,,
KRDR,11-02-2001,00:00,METAR,,280,13.0,22.0,260/27KTS,9999.0,Cloud Development Not Observable,9.0,5.0,29.54,1001.1,,,,0,0,0,,,,,,,,,7/8 Mostly Cloudy,3400.0,,FEW,2400.0,BKN,3500.0,BKN,20000.0,,
KRDR,11-01-2001,23:00,METAR,,280,18.0,28.0,270/27KTS,9999.0,Cloud Development Not Observable,8.0,5.0,29.54,1001.1,,,,0,0,0,,,,,,,,,7/8 Mostly Cloudy,3400.0,,SCT,2400.0,BKN,3500.0,BKN,20000.0,,
KRDR,11-01-2001,22:06,SPECI,,270,18.0,28.0,,9999.0,Cloud Development Not Observable,8.0,6.0,29.51,,,,,0,0,0,,,,,,,,,7/8 Mostly Cloudy,3400.0,,SCT,2800.0,BKN,3500.0,BKN,20000.0,,
KRDR,11-01-2001,22:00,METAR,,280,20.0,30.0,,9999.0,Cloud Development Not Observable,8.0,6.0,29.51,1000.1,,,,0,0,0,,,,,,,,,7/8 Mostly Cloudy,2800.0,,BKN,2800.0,BKN,9900.0,BKN,20000.0,,
KRDR,11-01-2001,21:27,SPECI,,280,20.0,30.0,,9999.0,Cloud Development Not Observable,8.0,6.0,29.49,,,,,0,0,0,,,,,,,,,7/8 Mostly Cloudy,2800.0,,BKN,2800.0,BKN,9900.0,BKN,20000.0,,
KRDR,11-01-2001,21:00,METAR,,280,18.0,24.0,280/37KTS,9999.0,Cloud Development Not Observable,8.0,6.0,29.48,999.4,,,,0,0,0,,,,,,,,,7/8 Mostly Cloudy,3900.0,,SCT,2400.0,BKN,4000.0,BKN,20000.0,,
KRDR,11-01-2001,20:00,METAR,,270,29.0,41.0,,9999.0,Cloud Development Not Observable,8.0,6.0,29.44,997.9,,,,0,0,0,,,,,,,,,7/8 Mostly Cloudy,3900.0,,BKN,4000.0,BKN,20000.0,,,,
KRDR,11-01-2001,19:00,METAR,,270,25.0,36.0,260/40KTS,9999.0,Cloud Development Not Observable,9.0,6.0,29.41,996.7,,,,0,0,0,,,,,,,,,7/8 Mostly Cloudy,20000.0,,SCT,4000.0,BKN,20000.0,,,,
KRDR,11-01-2001,18:00,METAR,,260,22.0,39.0,,9999.0,Cloud Development Not Observable,10.0,7.0,29.40,996.6,,,,0,0,0,,,,,,,,,7/8 Mostly Cloudy,20000.0,,SCT,4000.0,BKN,20000.0,,,,
KRDR,11-01-2001,17:00,METAR,,260,16.0,29.0,250/30KTS,9999.0,Cloud Development Not Observable,10.0,6.0,29.39,996.2,,,,0,0,0,,,,,,,,,7/8 Mostly Cloudy,3900.0,,BKN,4000.0,BKN,20000.0,,,,
KRDR,11-01-2001,16:00,METAR,,250,17.0,22.0,230/26KTS,9999.0,Cloud Development Not Observable,9.0,6.0,29.39,996.1,,,,0,0,0,,,,,,,,,7/8 Mostly Cloudy,20000.0,,SCT,4000.0,BKN,20000.0,,,,
KRDR,11-01-2001,15:00,METAR,,240,16.0,,,9999.0,Cloud Development Not Observable,8.0,6.0,29.39,996.1,,,,0,0,0,,,,,,,,,4/8 Partly Cloudy,72000.0,,FEW,9900.0,SCT,20000.0,,,,
KRDR,11-01-2001,14:00,METAR,,200,6.0,,,9999.0,Cloud Development Not Observable,5.0,5.0,29.38,996.1,,,,0,0,0,,,,,,,,,4/8 Partly Cloudy,72000.0,,FEW,9900.0,SCT,20000.0,,,,
KRDR,11-01-2001,13:00,METAR,,230,8.0,,,9999.0,Cloud Development Not Observable,4.0,4.0,29.38,996.1,,,,0,0,0,,,,,,,,,4/8 Partly Cloudy,72000.0,,SCT,20000.0,,,,,,
KRDR,11-01-2001,12:00,METAR,,270,11.0,,,9999.0,Cloud Development Not Observable,6.0,6.0,29.38,996.0,,,,0,0,0,,,,,,,,,2/8 Mostly Clear,72000.0,,FEW,9900.0,,,,,,
KRDR,11-01-2001,11:00,METAR,,270,21.0,,270/28KTS,9999.0,Cloud Development Not Observable,6.0,6.0,29.36,995.3,,,,0,0,0,,,,,,,,,2/8 Mostly Clear,72000.0,,FEW,9900.0,,,,,,
KRDR,11-01-2001,10:00,METAR,,220,10.0,,,4800.0,Mist/Cloud Development Not Observable,4.0,4.0,29.35,995.0,,,,10,0,0,,,,,,,,,7/8 Mostly Cloudy,20000.0,,SCT,1000.0,BKN,20000.0,,,,
KRDR,11-01-2001,09:00,METAR,,250,7.0,,,6400.0,Mist/Cloud Development Not Observable,4.0,4.0,29.33,994.1,,,,10,0,0,,,,,,,,,4/8 Partly Cloudy,72000.0,,FEW,1500.0,SCT,14000.0,SCT,20000.0,,
KRDR,11-01-2001,08:00,METAR,,270,12.0,,,4800.0,Mist/Cloud Development Not Observable,5.0,5.0,29.32,993.8,,,,10,0,0,,,,,,,,,7/8 Mostly Cloudy,20000.0,,FEW,8900.0,SCT,14000.0,BKN,20000.0,,
KRDR,11-01-2001,07:00,METAR,,280,11.0,,,4800.0,Mist/Cloud Development Not Observable,5.0,5.0,29.30,993.3,,,,10,0,0,,,,,,,,,8/8 Overcast,9000.0,,FEW,1000.0,FEW,2500.0,BKN,8900.0,OVC,14000.0
KRDR,11-01-2001,06:28,SPECI,,280,10.0,,,4800.0,Mist/Cloud Development Not Observable,5.0,5.0,29.30,,,,,10,0,0,,,,,,,,,8/8 Overcast,14000.0,,FEW,1000.0,SCT,2500.0,OVC,14000.0,,
KRDR,11-01-2001,06:07,SPECI,,270,9.0,,,3200.0,Mist/Cloud Development Not Observable,5.0,5.0,29.30,,,,,10,0,0,,,,,,,,,8/8 Overcast,700.0,,OVC,700.0,,,,,,
KRDR,11-01-2001,06:00,METAR,,260,8.0,,,2000.0,Light Rain Showers/Mist/Cloud Development Not Observable,5.0,5.0,29.30,,,,,80,10,0,,,,,,,,,8/8 Overcast,300.0,,OVC,300.0,,,,,,
KRDR,11-01-2001,05:42,SPECI,,270,8.0,,,2000.0,Light Rain Showers/Mist/Cloud Development Not Observable,5.0,5.0,29.30,,,,,80,10,0,,,,,,,,,8/8 Overcast,300.0,,OVC,300.0,,,,,,
KRDR,11-01-2001,05:00,METAR,,290,8.0,,,2400.0,Rain/Mist/Cloud Development Not Observable,5.0,5.0,29.29,1026.1,,,,61,10,0,,,,,,,,,8/8 Overcast,400.0,,BKN,400.0,OVC,1200.0,,,,
KRDR,11-01-2001,04:45,METAR,,300,9.0,,,2400.0,Light Rain Showers/Mist/Cloud Development Not Observable,5.0,5.0,29.29,,,,,80,10,0,,,,,,,,,8/8 Overcast,400.0,,BKN,400.0,OVC,1000.0,,,,
KRDR,11-01-2001,04:26,SPECI,,270,8.0,,,1200.0,Light Rain Showers/Mist/Cloud Development Not Observable,5.0,5.0,29.29,,,,,80,10,0,,,,,,,,,8/8 Overcast,400.0,,OVC,400.0,,,,,,
KRDR,11-01-2001,04:17,SPECI,,280,8.0,,,1000.0,Light Rain Showers/Mist/Cloud Development Not Observable,4.0,4.0,29.29,,,,,80,10,0,,,,,,,,,Sky Obscured (Unable to Estimate),0.0,100.0,,0.0,,,,,,
KRDR,11-01-2001,04:10,SPECI,,290,8.0,,,600.0,Fog or Ice Fog/Cloud Development Not Observable,4.0,4.0,29.28,,,,,44,0,0,,,,,,,,,7/8 Mostly Cloudy,2000.0,,BKN,0.0,BKN,2000.0,,,,
KRDR,11-01-2001,04:00,METAR,,290,9.0,,,300.0,Fog or Ice Fog/Cloud Development Not Observable,4.0,4.0,29.28,992.7,,,,44,0,0,,,,,,,,,7/8 Mostly Cloudy,2000.0,,BKN,0.0,BKN,2000.0,,,,
KRDR,11-01-2001,03:00,METAR,,300,7.0,,,400.0,Fog or Ice Fog/Cloud Development Not Observable,4.0,4.0,29.28,992.6,,,,44,0,0,,,,,,,,,8/8 Overcast,2000.0,,BKN,0.0,OVC,2000.0,,,,
KRDR,11-01-2001,02:00,METAR,,320,7.0,,,300.0,Fog or Ice Fog/Cloud Development Not Observable,4.0,4.0,29.29,993.1,,,,44,0,0,,,,,,,,,7/8 Mostly Cloudy,2000.0,,BKN,0.0,BKN,2000.0,BKN,20000.0,,
KRDR,11-01-2001,01:00,METAR,,310,6.0,,,300.0,Fog or Ice Fog/Cloud Development Not Observable,4.0,4.0,29.32,994.0,,,,44,0,0,,,,,,,,,7/8 Mostly Cloudy,2500.0,,BKN,0.0,BKN,2500.0,BKN,20000.0,,
KRDR,10-31-2001,23:00,METAR,,330,6.0,,,100.0,Fog or Ice Fog/Cloud Development Not Observable,5.0,5.0,29.34,994.7,,,,44,0,0,,,,,,,,,7/8 Mostly Cloudy,20000.0,,BKN,0.0,BKN,20000.0,,,,
KRDR,10-31-2001,22:48,SPECI,,320,8.0,,,800.0,Fog or Ice Fog/Cloud Development Not Observable,6.0,6.0,29.34,,,,,45,0,0,,,,,,,,,Sky Obscured (Unable to Estimate),0.0,100.0,,0.0,,,,,,
KRDR,10-31-2001,22:18,SPECI,,40,5.0,,,1200.0,Mist/Cloud Development Not Observable,7.0,7.0,29.34,,,,,10,0,0,,,,,,,,,8/8 Overcast,1500.0,,OVC,1500.0,,,,,,
KRDR,10-31-2001,22:01,SPECI,,30,7.0,,,200.0,Fog or Ice Fog/Cloud Development Not Observable,6.0,6.0,29.34,,,,,44,0,0,,,,,,,,,8/8 Overcast,1200.0,,OVC,1200.0,,,,,,
KRDR,10-31-2001,22:00,METAR,,30,5.0,,,300.0,Fog or Ice Fog/Cloud Development Not Observable,6.0,6.0,29.34,994.7,,,,44,0,0,,,,,,,,,8/8 Overcast,1200.0,,OVC,1200.0,,,,,,
KRDR,10-31-2001,21:31,SPECI,,10,5.0,,,300.0,Fog or Ice Fog/Cloud Development Not Observable,6.0,6.0,29.36,,,,,44,0,0,,,,,,,,,8/8 Overcast,1200.0,,OVC,1200.0,,,,,,
KRDR,10-31-2001,21:14,SPECI,,10,5.0,,,800.0,Fog or Ice Fog/Cloud Development Not Observable,6.0,6.0,29.36,,,,,44,0,0,,,,,,,,,8/8 Overcast,1200.0,,OVC,1200.0,,,,,,
KRDR,10-31-2001,21:06,SPECI,,330,6.0,,,300.0,Fog or Ice Fog/Cloud Development Not Observable,6.0,6.0,29.36,,,,,44,0,0,,,,,,,,,8/8 Overcast,1200.0,,OVC,1200.0,,,,,,
KRDR,10-31-2001,21:00,METAR,,310,6.0,,,1200.0,Mist/Cloud Development Not Observable,7.0,7.0,29.37,995.5,,,,10,0,0,,,,,,,,,8/8 Overcast,1000.0,,OVC,1000.0,,,,,,
KRDR,10-31-2001,20:42,SPECI,,300,6.0,,,4000.0,Mist/Cloud Development Not Observable,8.0,8.0,29.37,,,,,10,0,0,,,,,,,,,8/8 Overcast,1000.0,,OVC,1000.0,,,,,,
KRDR,10-31-2001,20:12,SPECI,,200,5.0,,,3200.0,Drizzle/Mist/Cloud Development Not Observable,8.0,8.0,29.37,,,,,51,10,0,,,,,,,,,8/8 Overcast,700.0,,OVC,700.0,,,,,,
KRDR,10-31-2001,20:00,METAR,,50,10.0,,,2400.0,Mist/Cloud Development Not Observable,8.0,8.0,29.33,994.1,,,,10,0,0,,,,,,,,,8/8 Overcast,700.0,,OVC,700.0,,,,,,
KRDR,10-31-2001,19:48,SPECI,,70,7.0,,,1600.0,Mist/Cloud Development Not Observable,8.0,8.0,29.34,,,,,10,0,0,,,,,,,,,Sky Obscured (Unable to Estimate),0.0,100.0,,0.0,,,,,,
KRDR,10-31-2001,19:31,SPECI,,50,6.0,,,1600.0,Mist/Cloud Development Not Observable,8.0,8.0,29.38,,,,,10,0,0,,,,,,,,,Sky Obscured (Unable to Estimate),0.0,100.0,,0.0,,,,,,
KRDR,10-31-2001,19:13,SPECI,,100,6.0,,,1200.0,Mist/Cloud Development Not Observable,8.0,8.0,29.39,,,,,10,0,0,,,,,,,,,Sky Obscured (Unable to Estimate),0.0,100.0,,0.0,,,,,,
KRDR,10-31-2001,19:05,SPECI,,150,4.0,,,1200.0,Fog or Ice Fog/Cloud Development Not Observable,8.0,8.0,29.41,,,,,45,0,0,,,,,,,,,Sky Obscured (Unable to Estimate),0.0,100.0,,0.0,,,,,,
KRDR,10-31-2001,19:00,METAR,,80,6.0,,,400.0,Fog or Ice Fog/Cloud Development Not Observable,7.0,7.0,29.42,997.5,,,,45,0,0,,,,,,,,,Sky Obscured (Unable to Estimate),0.0,100.0,,0.0,,,,,,
KRDR,10-31-2001,18:21,SPECI,,140,7.0,,,400.0,Fog or Ice Fog/Cloud Development Not Observable,7.0,7.0,29.44,,,,,45,0,0,,,,,,,,,Sky Obscured (Unable to Estimate),0.0,100.0,,0.0,,,,,,
KRDR,10-31-2001,18:00,METAR,,140,9.0,,,300.0,Fog or Ice Fog/Cloud Development Not Observable,6.0,6.0,29.47,999.2,,,,45,0,0,,,,,,,,,Sky Obscured (Unable to Estimate),0.0,100.0,,0.0,,,,,,
KRDR,10-31-2001,16:00,METAR,,120,12.0,,,200.0,Fog or Ice Fog/Cloud Development Not Observable,5.0,5.0,29.54,1001.3,,,,45,0,0,,,,,,,,,Sky Obscured (Unable to Estimate),0.0,100.0,,0.0,,,,,,
KRDR,10-31-2001,15:00,METAR,,130,9.0,,,200.0,Fog or Ice Fog/Cloud Development Not Observable,5.0,5.0,29.58,1002.7,,,,45,0,0,,,,,,,,,Sky Obscured (Unable to Estimate),0.0,100.0,,0.0,,,,,,
KRDR,10-31-2001,14:00,METAR,,90,3.0,,,200.0,Fog or Ice Fog/Cloud Development Not Observable,4.0,4.0,29.60,1003.6,,,,45,0,0,,,,,,,,,Sky Obscured (Unable to Estimate),0.0,100.0,,0.0,,,,,,
KRDR,10-31-2001,13:30,METAR,,350,1.0,,,200.0,Fog or Ice Fog/Cloud Development Not Observable,3.0,3.0,29.61,,,,,45,0,0,,,,,,,,,Sky Obscured (Unable to Estimate),0.0,100.0,,0.0,,,,,,
KRDR,10-31-2001,13:00,METAR,,40,2.0,,,300.0,Drizzle/Fog or Ice Fog/Cloud Development Not Observable,4.0,4.0,29.62,1004.3,,,,51,45,0,,,,,,,,,Sky Obscured (Unable to Estimate),0.0,100.0,,0.0,,,,,,
KRDR,10-31-2001,12:05,SPECI,,50,2.0,,,300.0,Drizzle/Fog or Ice Fog/Cloud Development Not Observable,3.0,3.0,29.64,,,,,51,45,0,,,,,,,,,Sky Obscured (Unable to Estimate),0.0,100.0,,0.0,,,,,,
KRDR,10-31-2001,12:00,METAR,,30,2.0,,,300.0,Drizzle/Fog or Ice Fog/Cloud Development Not Observable,3.0,3.0,29.65,1005.4,,,,51,45,0,,,,,,,,,Sky Obscured (Unable to Estimate),0.0,100.0,,0.0,,,,,,
KRDR,10-31-2001,11:45,METAR,,,2.0,,,300.0,Drizzle/Fog or Ice Fog/Cloud Development Not Observable,3.0,3.0,29.66,,,,,51,45,0,,,,,,,,,Sky Obscured (Unable to Estimate),0.0,100.0,,0.0,,,,,,
KRDR,10-31-2001,11:00,METAR,,,2.0,,,300.0,Fog or Ice Fog/Cloud Development Not Observable,3.0,3.0,29.67,1006.1,,,,45,0,0,,,,,,,,,Sky Obscured (Unable to Estimate),0.0,100.0,,0.0,,,,,,
KRDR,10-31-2001,10:18,SPECI,,110,4.0,,,300.0,Fog or Ice Fog/Cloud Development Not Observable,3.0,3.0,29.67,,,,,45,0,0,,,,,,,,,Sky Obscured (Unable to Estimate),0.0,100.0,,0.0,,,,,,
KRDR,10-31-2001,10:00,METAR,,130,5.0,,,400.0,Fog or Ice Fog/Cloud Development Not Observable,2.0,2.0,29.69,1006.6,,,,45,0,0,,,,,,,,,Sky Obscured (Unable to Estimate),0.0,100.0,,0.0,,,,,,
KRDR,10-31-2001,09:39,SPECI,,130,5.0,,,800.0,Fog or Ice Fog/Cloud Development Not Observable,2.0,2.0,29.74,,,,,45,0,0,,,,,,,,,Sky Obscured (Unable to Estimate),0.0,100.0,,0.0,,,,,,
KRDR,10-31-2001,09:00,METAR,,130,5.0,,,4800.0,Mist/Cloud Development Not Observable,2.0,2.0,29.74,1008.2,,,,10,0,0,,,,,,,,,8/8 Overcast,700.0,,OVC,700.0,,,,,,
KRDR,10-31-2001,08:23,SPECI,,150,7.0,,,6400.0,Mist/Cloud Development Not Observable,2.0,2.0,29.74,,,,,10,0,0,,,,,,,,,8/8 Overcast,700.0,,BKN,700.0,BKN,14000.0,OVC,20000.0,,
KRDR,10-31-2001,08:00,METAR,,150,8.0,,,6400.0,Mist/Cloud Development Not Observable,2.0,2.0,29.74,1008.3,,,,10,0,0,,,,,,,,,8/8 Overcast,20000.0,,SCT,14000.0,OVC,20000.0,,,,
KRDR,10-31-2001,05:00,METAR,,160,8.0,,,9999.0,Cloud Development Not Observable,3.0,3.0,29.83,1011.4,,,,0,0,0,,,,,,,,,8/8 Overcast,20000.0,,SCT,14000.0,OVC,20000.0,,,,
KRDR,10-31-2001,04:00,METAR,,150,11.0,,,9999.0,Cloud Development Not Observable,3.0,3.0,29.85,1012.1,,,,0,0,0,,,,,,,,,8/8 Overcast,20000.0,,SCT,14000.0,OVC,20000.0,,,,
KRDR,10-31-2001,03:00,METAR,,140,11.0,,,9999.0,Cloud Development Not Observable,3.0,3.0,29.87,1013.0,,,,0,0,0,,,,,,,,,8/8 Overcast,20000.0,,SCT,14000.0,OVC,20000.0,,,,
KRDR,10-31-2001,02:00,METAR,,150,10.0,,,9999.0,Cloud Development Not Observable,4.0,4.0,29.90,1013.8,,,,0,0,0,,,,,,,,,8/8 Overcast,20000.0,,SCT,14000.0,OVC,20000.0,,,,
KRDR,10-31-2001,01:00,METAR,,150,11.0,,,9999.0,Cloud Development Not Observable,4.0,4.0,29.92,1014.4,,,,0,0,0,,,,,,,,,8/8 Overcast,12000.0,,FEW,4000.0,BKN,12000.0,OVC,20000.0,,
KRDR,10-31-2001,00:00,METAR,,140,11.0,,,9999.0,Cloud Development Not Observable,4.0,4.0,29.93,1014.7,,,,0,0,0,,,,,,,,,7/8 Mostly Cloudy,12000.0,,FEW,4000.0,BKN,12000.0,BKN,20000.0,,
KRDR,10-30-2001,23:00,METAR,,150,11.0,,,9999.0,Cloud Development Not Observable,5.0,4.0,29.93,1014.7,,,,0,0,0,,,,,,,,,7/8 Mostly Cloudy,12000.0,,BKN,12000.0,BKN,20000.0,,,,
KRDR,10-30-2001,22:00,METAR,,150,13.0,,,9999.0,Cloud Development Not Observable,6.0,4.0,29.95,1015.5,,,,0,0,0,,,,,,,,,7/8 Mostly Cloudy,12000.0,,FEW,4000.0,BKN,12000.0,BKN,20000.0,,
KRDR,10-30-2001,21:00,METAR,,150,14.0,,,9999.0,Cloud Development Not Observable,6.0,4.0,29.98,1016.6,,,,0,0,0,,,,,,,,,7/8 Mostly Cloudy,12000.0,,FEW,4000.0,BKN,12000.0,BKN,20000.0,,
KRDR,10-30-2001,20:00,METAR,,150,13.0,,,9999.0,Cloud Development Not Observable,6.0,3.0,30.02,1017.8,,,,0,0,0,,,,,,,,,8/8 Overcast,13000.0,,SCT,4000.0,OVC,13000.0,,,,
KRDR,10-30-2001,19:00,METAR,,170,12.0,,,9999.0,Cloud Development Not Observable,5.0,2.0,30.10,1020.5,,,,0,0,0,,,,,,,,,8/8 Overcast,13000.0,,SCT,4500.0,OVC,13000.0,,,,
KRDR,10-30-2001,18:00,METAR,,160,14.0,,,9999.0,Cloud Development Not Observable,5.0,1.0,30.11,1021.0,,,,0,0,0,,,,,,,,,7/8 Mostly Cloudy,13000.0,,SCT,4000.0,BKN,13000.0,BKN,20000.0,,
KRDR,10-30-2001,17:00,METAR,,150,16.0,,,9999.0,Cloud Development Not Observable,4.0,1.0,30.15,1022.2,,,,0,0,0,,,,,,,,,8/8 Overcast,13000.0,,SCT,4000.0,OVC,13000.0,,,,
KRDR,10-30-2001,16:00,METAR,,170,10.0,,,9999.0,Cloud Development Not Observable,3.0,0.0,30.23,1025.3,,,,0,0,0,,,,,,,,,8/8 Overcast,13000.0,,SCT,4000.0,OVC,13000.0,,,,
KRDR,10-30-2001,15:00,METAR,,150,8.0,,,9999.0,Cloud Development Not Observable,3.0,-1.0,30.25,1025.7,,,,0,0,0,,,,,,,,,8/8 Overcast,14000.0,,SCT,4000.0,OVC,14000.0,,,,
KRDR,10-30-2001,14:00,METAR,,150,8.0,,,9999.0,Cloud Development Not Observable,3.0,-1.0,30.25,1025.7,,,,0,0,0,,,,,,,,,8/8 Overcast,20000.0,,FEW,14000.0,OVC,20000.0,,,,
KRDR,10-30-2001,13:00,METAR,,150,10.0,,,9999.0,Cloud Development Not Observable,3.0,-1.0,30.28,1026.6,,,,0,0,0,,,,,,,,,7/8 Mostly Cloudy,20000.0,,SCT,14000.0,BKN,20000.0,,,,
KRDR,10-30-2001,12:00,METAR,,150,12.0,,,9999.0,Cloud Development Not Observable,2.0,-1.0,30.29,1027.2,,,,0,0,0,,,,,,,,,4/8 Partly Cloudy,72000.0,,SCT,14000.0,,,,,,
KRDR,10-30-2001,11:00,METAR,,130,10.0,,,9999.0,Cloud Development Not Observable,2.0,0.0,30.32,1028.3,,,,0,0,0,,,,,,,,,4/8 Partly Cloudy,72000.0,,SCT,14000.0,,,,,,
KRDR,10-30-2001,10:00,METAR,,130,7.0,,,9999.0,Cloud Development Not Observable,3.0,0.0,30.37,1030.0,,,,0,0,0,,,,,,,,,8/8 Overcast,14000.0,,FEW,6900.0,OVC,14000.0,,,,
KRDR,10-30-2001,09:00,METAR,,140,7.0,,,9999.0,Cloud Development Not Observable,3.0,0.0,30.40,1030.9,,,,0,0,0,,,,,,,,,8/8 Overcast,14000.0,,FEW,6900.0,OVC,14000.0,,,,
KRDR,10-30-2001,08:00,METAR,,120,8.0,,,9999.0,Cloud Development Not Observable,2.0,1.0,30.42,1031.7,,,,0,0,0,,,,,,,,,8/8 Overcast,7000.0,,BKN,6900.0,OVC,14000.0,,,,
KRDR,10-30-2001,07:48,SPECI,,120,8.0,,,9999.0,Cloud Development Not Observable,2.0,1.0,30.42,,,,,0,0,0,,,,,,,,,8/8 Overcast,7000.0,,BKN,6900.0,OVC,14000.0,,,,
KRDR,10-30-2001,07:28,SPECI,,130,8.0,,,9999.0,Light Snow Showers/Cloud Development Not Observable,2.0,1.0,30.44,,,,,85,0,0,,,,,,,,,8/8 Overcast,7000.0,,BKN,6900.0,OVC,14000.0,,,,
KRDR,10-30-2001,07:00,METAR,,130,7.0,,,9999.0,Cloud Development Not Observable,2.0,0.0,30.46,1032.9,,,,0,0,0,,,,,,,,,8/8 Overcast,7000.0,,BKN,6900.0,OVC,14000.0,,,,
KRDR,10-30-2001,06:00,METAR,,130,7.0,,,9999.0,Cloud Development Not Observable,3.0,0.0,30.47,1033.2,,,,0,0,0,,,,,,,,,8/8 Overcast,9000.0,,BKN,8900.0,OVC,14000.0,,,,
KRDR,10-30-2001,05:00,METAR,,130,6.0,,,9999.0,Cloud Development Not Observable,2.0,0.0,30.50,1034.2,,,,0,0,0,,,,,,,,,8/8 Overcast,12000.0,,SCT,7900.0,OVC,12000.0,,,,
KRDR,10-30-2001,04:00,METAR,,40,3.0,,,9999.0,Cloud Development Not Observable,2.0,1.0,30.52,1035.2,,,,0,0,0,,,,,,,,,8/8 Overcast,8000.0,,BKN,7900.0,OVC,12000.0,,,,
KRDR,10-30-2001,03:00,METAR,,40,2.0,,,9999.0,Cloud Development Not Observable,3.0,1.0,30.54,1035.8,,,,0,0,0,,,,,,,,,8/8 Overcast,12000.0,,OVC,12000.0,,,,,,
KRDR,10-30-2001,02:00,METAR,,90,5.0,,,9999.0,Cloud Development Not Observable,3.0,0.0,30.54,1036.0,,,,0,0,0,,,,,,,,,7/8 Mostly Cloudy,10000.0,,BKN,9900.0,,,,,,
KRDR,10-30-2001,01:00,METAR,,90,5.0,,,9999.0,Cloud Development Not Observable,3.0,-1.0,30.56,1036.7,,,,0,0,0,,,,,,,,,7/8 Mostly Cloudy,10000.0,,BKN,9900.0,,,,,,
KRDR,10-30-2001,00:00,METAR,,50,4.0,,,9999.0,Cloud Development Not Observable,3.0,-2.0,30.59,1037.8,,,,0,0,0,,,,,,,,,7/8 Mostly Cloudy,11000.0,,BKN,11000.0,,,,,,
KRDR,10-29-2001,23:00,METAR,,50,4.0,,,9999.0,Cloud Development Not Observable,3.0,-3.0,30.60,1038.0,,,,0,0,0,,,,,,,,,7/8 Mostly Cloudy,11000.0,,BKN,11000.0,,,,,,
KRDR,10-29-2001,20:00,METAR,Normal,350,4.0,,,,Cloud Development Not Observable,5.0,-3.0,30.63,1038.8,,,,0,0,0,,,,,,,,,,10000.0,,FEW,7900.0,BKN,9900.0,BKN,14000.0,,
KRDR,10-29-2001,18:00,METAR,,360,2.0,,,9999.0,Cloud Development Not Observable,5.0,-5.0,30.66,1039.7,,,,0,0,0,,,,,,,,,4/8 Partly Cloudy,72000.0,,FEW,9900.0,SCT,14000.0,SCT,25000.0,,
KRDR,10-29-2001,17:00,METAR,,50,2.0,,,9999.0,Cloud Development Not Observable,4.0,-5.0,30.66,1039.7,,,,0,0,0,,,,,,,,,4/8 Partly Cloudy,72000.0,,FEW,12000.0,SCT,25000.0,,,,
KRDR,10-29-2001,16:00,METAR,,30,3.0,,,9999.0,Cloud Development Not Observable,1.0,-3.0,30.65,1039.3,,,,0,0,0,,,,,,,,,2/8 Mostly Clear,72000.0,,FEW,12000.0,FEW,25000.0,,,,
KRDR,10-29-2001,15:00,METAR,,250,3.0,,,9999.0,Cloud Development Not Observable,-2.0,-3.0,30.65,1039.5,,,,0,0,0,,,,,,,,,2/8 Mostly Clear,72000.0,,FEW,12000.0,,,,,,
KRDR,10-29-2001,14:00,METAR,,280,3.0,,,9999.0,Cloud Development Not Observable,-6.0,-6.0,30.62,1038.9,,,,0,0,0,,,,,,,,,2/8 Mostly Clear,72000.0,,FEW,12000.0,,,,,,
KRDR,10-29-2001,13:00,METAR,,230,5.0,,,9999.0,Cloud Development Not Observable,-6.0,-6.0,30.60,1038.2,,,,0,0,0,,,,,,,,,2/8 Mostly Clear,72000.0,,FEW,12000.0,FEW,25000.0,,,,
KRDR,10-29-2001,12:00,METAR,,260,5.0,,,9999.0,Cloud Development Not Observable,-5.0,-6.0,30.59,1037.6,,,,0,0,0,,,,,,,,,Clear,72000.0,,,73000.0,,,,,,
KRDR,10-29-2001,11:00,METAR,,310,5.0,,,9999.0,Cloud Development Not Observable,-1.0,-4.0,30.56,1036.4,,,,0,0,0,,,,,,,,,4/8 Partly Cloudy,72000.0,,FEW,12000.0,SCT,25000.0,,,,
KRDR,10-29-2001,10:00,METAR,,300,5.0,,,9999.0,Cloud Development Not Observable,-1.0,-2.0,30.54,1035.8,,,,0,0,0,,,,,,,,,7/8 Mostly Cloudy,25000.0,,SCT,12000.0,BKN,25000.0,,,,
KRDR,10-29-2001,09:00,METAR,,280,5.0,,,9999.0,Cloud Development Not Observable,-1.0,-2.0,30.53,1035.3,,,,0,0,0,,,,,,,,,7/8 Mostly Cloudy,25000.0,,SCT,12000.0,BKN,25000.0,,,,
KRDR,10-29-2001,08:00,METAR,,340,5.0,,,9999.0,Cloud Development Not Observable,-1.0,-2.0,30.50,1034.2,,,,0,0,0,,,,,,,,,7/8 Mostly Cloudy,25000.0,,FEW,12000.0,BKN,25000.0,,,,
KRDR,10-29-2001,07:00,METAR,,320,8.0,,,9999.0,Cloud Development Not Observable,-1.0,-2.0,30.47,1033.1,,,,0,0,0,,,,,,,,,7/8 Mostly Cloudy,25000.0,,FEW,12000.0,BKN,25000.0,,,,
KRDR,10-29-2001,06:00,METAR,,300,9.0,,,9999.0,Cloud Development Not Observable,0.0,-1.0,30.44,1032.2,,,,0,0,0,,,,,,,,,4/8 Partly Cloudy,72000.0,,FEW,12000.0,SCT,25000.0,,,,
KRDR,10-29-2001,05:00,METAR,,300,8.0,,,9999.0,Cloud Development Not Observable,-1.0,-1.0,30.41,1031.2,,,,0,0,0,,,,,,,,,4/8 Partly Cloudy,72000.0,,FEW,12000.0,SCT,25000.0,,,,
KRDR,10-29-2001,04:00,METAR,,310,8.0,,,9999.0,Cloud Development Not Observable,-1.0,-1.0,30.38,1030.3,,,,0,0,0,,,,,,,,,4/8 Partly Cloudy,72000.0,,FEW,12000.0,SCT,25000.0,,,,
KRDR,10-29-2001,03:00,METAR,,300,7.0,,,9999.0,Cloud Development Not Observable,0.0,0.0,30.33,1028.7,,,,0,0,0,,,,,,,,,4/8 Partly Cloudy,72000.0,,FEW,12000.0,SCT,25000.0,,,,
KRDR,10-29-2001,02:00,METAR,,290,7.0,,,9999.0,Cloud Development Not Observable,1.0,1.0,30.30,1027.5,,,,0,0,0,,,,,,,,,4/8 Partly Cloudy,72000.0,,FEW,12000.0,SCT,25000.0,,,,
KRDR,10-29-2001,01:00,METAR,,330,6.0,,,9999.0,Cloud Development Not Observable,2.0,2.0,30.25,1026.1,,,,0,0,0,,,,,,,,,4/8 Partly Cloudy,72000.0,,FEW,12000.0,SCT,25000.0,,,,
KRDR,10-29-2001,00:00,METAR,,340,8.0,,,9999.0,Cloud Development Not Observable,3.0,2.0,30.20,1024.3,,,,0,0,0,,,,,,,,,4/8 Partly Cloudy,72000.0,,FEW,12000.0,SCT,25000.0,,,,
KRDR,10-28-2001,23:00,METAR,,340,13.0,,,9999.0,Cloud Development Not Observable,4.0,3.0,30.16,1022.7,,,,0,0,0,,,,,,,,,4/8 Partly Cloudy,72000.0,,FEW,12000.0,SCT,25000.0,,,,
KRDR,10-28-2001,22:00,METAR,,340,16.0,,340/25KTS,9999.0,Cloud Development Not Observable,5.0,3.0,30.11,1020.9,,,,0,0,0,,,,,,,,,4/8 Partly Cloudy,72000.0,,SCT,25000.0,,,,,,
KRDR,10-28-2001,21:00,METAR,,340,26.0,,340/30KTS,9999.0,Cloud Development Not Observable,6.0,2.0,30.06,1019.3,,,,0,0,0,,,,,,,,,4/8 Partly Cloudy,72000.0,,FEW,12000.0,SCT,25000.0,,,,
KRDR,10-28-2001,20:00,METAR,,340,21.0,,340/28KTS,9999.0,Cloud Development Not Observable,7.0,2.0,29.97,1016.2,,,,0,0,0,,,,,,,,,4/8 Partly Cloudy,72000.0,,FEW,12000.0,SCT,25000.0,,,,
KRDR,10-28-2001,19:00,METAR,,340,21.0,,340/29KTS,9999.0,Cloud Development Not Observable,7.0,3.0,29.93,1014.8,,,,0,0,0,,,,,,,,,4/8 Partly Cloudy,72000.0,,SCT,25000.0,,,,,,
KRDR,10-28-2001,18:00,METAR,,320,13.0,,,9999.0,Cloud Development Not Observable,8.0,3.0,29.86,1012.5,,,,0,0,0,,,,,,,,,7/8 Mostly Cloudy,20000.0,,BKN,20000.0,,,,,,
KRDR,10-28-2001,17:00,METAR,,240,7.0,,,9999.0,Cloud Development Not Observable,7.0,3.0,29.81,1010.6,,,,0,0,0,,,,,,,,,7/8 Mostly Cloudy,20000.0,,SCT,12000.0,BKN,20000.0,,,,
KRDR,10-28-2001,16:00,METAR,,190,9.0,,,9999.0,Cloud Development Not Observable,3.0,2.0,29.78,1009.9,,,,0,0,0,,,,,,,,,7/8 Mostly Cloudy,20000.0,,SCT,12000.0,BKN,20000.0,,,,
KRDR,10-28-2001,15:00,METAR,,190,11.0,,,9999.0,Cloud Development Not Observable,3.0,2.0,29.76,1009.0,,,,0,0,0,,,,,,,,,7/8 Mostly Cloudy,20000.0,,SCT,16000.0,BKN,20000.0,,,,
KRDR,10-28-2001,14:00,METAR,,180,15.0,,,9999.0,Cloud Development Not Observable,2.0,1.0,29.74,1008.3,,,,0,0,0,,,,,,,,,7/8 Mostly Cloudy,20000.0,,BKN,20000.0,,,,,,
KRDR,10-28-2001,13:00,METAR,,190,13.0,,,9999.0,Cloud Development Not Observable,1.0,1.0,29.73,1008.0,,,,0,0,0,,,,,,,,,7/8 Mostly Cloudy,25000.0,,BKN,25000.0,,,,,,
KRDR,10-28-2001,12:00,METAR,,180,13.0,,,9999.0,Cloud Development Not Observable,0.0,0.0,29.74,1008.4,,,,0,0,0,,,,,,,,,Clear,72000.0,,,73000.0,,,,,,
KRDR,10-28-2001,11:00,METAR,,180,12.0,,,9999.0,Cloud Development Not Observable,0.0,0.0,29.74,1008.6,,,,0,0,0,,,,,,,,,Clear,72000.0,,,73000.0,,,,,,
KRDR,10-28-2001,10:00,METAR,,170,14.0,,,9999.0,Cloud Development Not Observable,0.0,0.0,29.75,1009.3,,,,0,0,0,,,,,,,,,Clear,72000.0,,,73000.0,,,,,,
KRDR,10-28-2001,09:00,METAR,,180,12.0,,,9999.0,Cloud Development Not Observable,1.0,0.0,29.77,1009.3,,,,0,0,0,,,,,,,,,2/8 Mostly Clear,72000.0,,FEW,25000.0,,,,,,
KRDR,10-28-2001,08:00,METAR,,170,12.0,,,9999.0,Cloud Development Not Observable,1.0,0.0,29.78,1009.8,,,,0,0,0,,,,,,,,,2/8 Mostly Clear,72000.0,,FEW,25000.0,,,,,,
KRDR,10-28-2001,06:00,METAR,,180,12.0,,,9999.0,Cloud Development Not Observable,2.0,0.0,29.81,1010.8,,,,0,0,0,,,,,,,,,Clear,72000.0,,,73000.0,,,,,,
KRDR,10-28-2001,05:00,METAR,,180,15.0,,,9999.0,Cloud Development Not Observable,2.0,1.0,29.83,1011.7,,,,0,0,0,,,,,,,,,Clear,72000.0,,,73000.0,,,,,,
KRDR,10-28-2001,04:00,METAR,,170,16.0,,,9999.0,Cloud Development Not Observable,2.0,1.0,29.86,1012.6,,,,0,0,0,,,,,,,,,4/8 Partly Cloudy,72000.0,,SCT,25000.0,,,,,,
KRDR,10-28-2001,03:00,METAR,,170,15.0,,,9999.0,Cloud Development Not Observable,2.0,1.0,29.87,1013.1,,,,0,0,0,,,,,,,,,4/8 Partly Cloudy,72000.0,,SCT,25000.0,,,,,,
KRDR,10-28-2001,02:00,METAR,,170,19.0,,,9999.0,Cloud Development Not Observable,3.0,1.0,29.89,1013.8,,,,0,0,0,,,,,,,,,7/8 Mostly Cloudy,25000.0,,BKN,25000.0,,,,,,
KRDR,10-28-2001,01:00,METAR,,170,15.0,,,9999.0,Cloud Development Not Observable,2.0,1.0,29.92,1014.4,,,,0,0,0,,,,,,,,,7/8 Mostly Cloudy,25000.0,,BKN,25000.0,,,,,,
KRDR,10-28-2001,00:00,METAR,,170,17.0,,,9999.0,Cloud Development Not Observable,3.0,1.0,29.93,1015.0,,,,0,0,0,,,,,,,,,7/8 Mostly Cloudy,25000.0,,BKN,25000.0,,,,,,
KRDR,10-27-2001,23:00,METAR,,170,16.0,,,9999.0,Cloud Development Not Observable,3.0,1.0,29.95,1016.0,,,,0,0,0,,,,,,,,,7/8 Mostly Cloudy,25000.0,,BKN,25000.0,,,,,,
KRDR,10-27-2001,22:00,METAR,,180,18.0,,,9999.0,Cloud Development Not Observable,3.0,0.0,29.97,1016.7,,,,0,0,0,,,,,,,,,7/8 Mostly Cloudy,25000.0,,BKN,25000.0,,,,,,
KRDR,10-27-2001,21:00,METAR,,170,20.0,,180/27KTS,9999.0,Cloud Development Not Observable,3.0,0.0,29.99,1017.4,,,,0,0,0,,,,,,,,,7/8 Mostly Cloudy,25000.0,,BKN,25000.0,,,,,,
KRDR,10-27-2001,20:00,METAR,,170,22.0,,170/29KTS,9999.0,Cloud Development Not Observable,3.0,0.0,30.04,1019.1,,,,0,0,0,,,,,,,,,7/8 Mostly Cloudy,25000.0,,BKN,25000.0,,,,,,
KRDR,10-27-2001,19:00,METAR,,170,23.0,,,9999.0,Cloud Development Not Observable,2.0,-1.0,30.07,1020.1,,,,0,0,0,,,,,,,,,7/8 Mostly Cloudy,25000.0,,BKN,25000.0,,,,,,
KRDR,10-27-2001,18:00,METAR,,170,22.0,28.0,,9999.0,Cloud Development Not Observable,1.0,-1.0,30.13,1022.3,,,,0,0,0,,,,,,,,,7/8 Mostly Cloudy,25000.0,,BKN,25000.0,,,,,,
KRDR,10-27-2001,17:00,METAR,,170,23.0,28.0,170/28KTS,9999.0,Cloud Development Not Observable,0.0,-2.0,30.18,1023.9,,,,0,0,0,,,,,,,,,7/8 Mostly Cloudy,25000.0,,FEW,12000.0,BKN,25000.0,,,,
KRDR,10-27-2001,15:00,METAR,,160,18.0,,,9999.0,Cloud Development Not Observable,-4.0,-4.0,30.22,1025.6,,,,0,0,0,,,,,,,,,7/8 Mostly Cloudy,25000.0,,SCT,12000.0,BKN,25000.0,,,,
KRDR,10-27-2001,14:00,METAR,,160,15.0,,,9999.0,Cloud Development Not Observable,-5.0,-5.0,30.26,1026.8,,,,0,0,0,,,,,,,,,7/8 Mostly Cloudy,25000.0,,SCT,12000.0,BKN,25000.0,,,,
KRDR,10-27-2001,13:00,METAR,,170,14.0,,,9999.0,Cloud Development Not Observable,-6.0,-6.0,30.29,1027.7,,,,0,0,0,,,,,,,,,7/8 Mostly Cloudy,25000.0,,BKN,25000.0,,,,,,
KRDR,10-27-2001,11:55,METAR,,170,12.0,,,9999.0,Cloud Development Not Observable,-6.0,-6.0,30.33,1029.0,,,,0,0,0,,,,,,,,,4/8 Partly Cloudy,72000.0,,FEW,12000.0,SCT,25000.0,,,,
KRDR,10-27-2001,11:00,METAR,,170,12.0,,,9999.0,Cloud Development Not Observable,-7.0,-7.0,30.35,1029.6,,,,0,0,0,,,,,,,,,4/8 Partly Cloudy,72000.0,,FEW,12000.0,SCT,25000.0,,,,
KRDR,10-27-2001,10:00,METAR,,180,9.0,,,9999.0,Cloud Development Not Observable,-9.0,-9.0,30.37,1030.3,,,,0,0,0,,,,,,,,,4/8 Partly Cloudy,72000.0,,FEW,12000.0,SCT,25000.0,,,,
KRDR,10-27-2001,09:00,METAR,,180,6.0,,,9999.0,Cloud Development Not Observable,-10.0,-10.0,30.39,1031.2,,,,0,0,0,,,,,,,,,4/8 Partly Cloudy,72000.0,,FEW,12000.0,SCT,25000.0,,,,
KRDR,10-27-2001,08:00,METAR,,200,7.0,,,9999.0,Cloud Development Not Observable,-10.0,-10.0,30.42,1032.1,,,,0,0,0,,,,,,,,,4/8 Partly Cloudy,72000.0,,FEW,12000.0,SCT,25000.0,,,,
KRDR,10-27-2001,07:00,METAR,,210,5.0,,,9999.0,Cloud Development Not Observable,-10.0,-10.0,30.44,1032.8,,,,0,0,0,,,,,,,,,4/8 Partly Cloudy,72000.0,,FEW,12000.0,SCT,25000.0,,,,
KRDR,10-27-2001,06:00,METAR,,190,6.0,,,9999.0,Cloud Development Not Observable,-11.0,-11.0,30.44,1033.1,,,,0,0,0,,,,,,,,,4/8 Partly Cloudy,72000.0,,SCT,25000.0,,,,,,
KRDR,10-27-2001,05:00,METAR,,210,7.0,,,9999.0,Cloud Development Not Observable,-10.0,-10.0,30.46,1033.6,,,,0,0,0,,,,,,,,,2/8 Mostly Clear,72000.0,,FEW,25000.0,,,,,,
KRDR,10-27-2001,04:00,METAR,,210,5.0,,,9999.0,Cloud Development Not Observable,-8.0,-8.0,30.47,1033.7,,,,0,0,0,,,,,,,,,2/8 Mostly Clear,72000.0,,FEW,25000.0,,,,,,
KRDR,10-27-2001,03:00,METAR,,220,6.0,,,9999.0,Cloud Development Not Observable,-8.0,-8.0,30.48,1034.2,,,,0,0,0,,,,,,,,,Clear,72000.0,,,73000.0,,,,,,
KRDR,10-27-2001,02:00,METAR,,250,6.0,,,9999.0,Cloud Development Not Observable,-7.0,-7.0,30.49,1034.5,,,,0,0,0,,,,,,,,,Clear,72000.0,,,73000.0,,,,,,
KRDR,10-27-2001,01:00,METAR,,270,7.0,,,9999.0,Cloud Development Not Observable,-6.0,-6.0,30.50,1034.8,,,,0,0,0,,,,,,,,,Clear,72000.0,,,73000.0,,,,,,
KRDR,10-27-2001,00:00,METAR,,260,6.0,,,9999.0,Cloud Development Not Observable,-4.0,-5.0,30.49,1034.3,,,,0,0,0,,,,,,,,,Clear,72000.0,,,73000.0,,,,,,
KRDR,10-26-2001,22:00,METAR,,300,7.0,,,9999.0,Cloud Development Not Observable,1.0,-3.0,30.49,1034.3,,,,0,0,0,,,,,,,,,Clear,72000.0,,,73000.0,,,,,,
KRDR,10-26-2001,21:00,METAR,,300,11.0,,,9999.0,Cloud Development Not Observable,1.0,-3.0,30.49,1034.1,,,,0,0,0,,,,,,,,,Clear,72000.0,,,73000.0,,,,,,
KRDR,10-26-2001,20:00,METAR,,300,12.0,,,9999.0,Cloud Development Not Observable,1.0,-3.0,30.49,,,,,0,0,0,,,,,,,,,Clear,72000.0,,,73000.0,,,,,,
KRDR,10-26-2001,19:00,METAR,,310,14.0,,,9999.0,Cloud Development Not Observable,0.0,-3.0,30.48,1033.7,,,,0,0,0,,,,,,,,,Clear,72000.0,,,73000.0,,,,,,
KRDR,10-26-2001,17:55,METAR,,300,16.0,,,9999.0,Cloud Development Not Observable,-1.0,-4.0,30.48,1033.8,,,,0,0,0,,,,,,,,,2/8 Mostly Clear,72000.0,,FEW,5900.0,,,,,,
KRDR,10-26-2001,17:00,METAR,,300,16.0,,,9999.0,Cloud Development Not Observable,-2.0,-5.0,30.47,1033.6,,,,0,0,0,,,,,,,,,2/8 Mostly Clear,72000.0,,FEW,5900.0,,,,,,
KRDR,10-26-2001,16:00,METAR,,300,16.0,,,9999.0,Cloud Development Not Observable,-2.0,-5.0,30.46,1033.2,,,,0,0,0,,,,,,,,,4/8 Partly Cloudy,72000.0,,SCT,5900.0,,,,,,
KRDR,10-26-2001,15:00,METAR,,300,15.0,,,9999.0,Cloud Development Not Observable,-4.0,-6.0,30.44,1032.6,,,,0,0,0,,,,,,,,,4/8 Partly Cloudy,72000.0,,SCT,5900.0,,,,,,
KRDR,10-26-2001,14:00,METAR,,300,17.0,,,9999.0,Cloud Development Not Observable,-5.0,-6.0,30.42,1031.9,,,,0,0,0,,,,,,,,,7/8 Mostly Cloudy,6000.0,,BKN,5900.0,,,,,,
KRDR,10-26-2001,13:00,METAR,,300,16.0,,,9999.0,Cloud Development Not Observable,-5.0,-6.0,30.39,1031.0,,,,0,0,0,,,,,,,,,7/8 Mostly Cloudy,6000.0,,BKN,5900.0,,,,,,
KRDR,10-26-2001,12:00,METAR,,300,17.0,,,9999.0,Cloud Development Not Observable,-4.0,-5.0,30.37,1030.1,,,,0,0,0,,,,,,,,,7/8 Mostly Cloudy,6000.0,,BKN,5900.0,,,,,,
KRDR,10-26-2001,11:00,METAR,,300,18.0,,,9999.0,Cloud Development Not Observable,-3.0,-5.0,30.35,1029.4,,,,0,0,0,,,,,,,,,7/8 Mostly Cloudy,6000.0,,BKN,5900.0,,,,,,
KRDR,10-26-2001,10:00,METAR,,300,19.0,,,9999.0,Cloud Development Not Observable,-3.0,-5.0,30.33,1028.6,,,,0,0,0,,,,,,,,,7/8 Mostly Cloudy,6000.0,,BKN,5900.0,,,,,,
KRDR,10-26-2001,08:00,METAR,,310,18.0,,,9999.0,Cloud Development Not Observable,-2.0,-5.0,30.28,1026.8,,,,0,0,0,,,,,,,,,7/8 Mostly Cloudy,9000.0,,SCT,5400.0,BKN,8900.0,,,,
KRDR,10-26-2001,07:00,METAR,,310,20.0,,,9999.0,Cloud Development Not Observable,-1.0,-4.0,30.25,1026.1,,,,0,0,0,,,,,,,,,8/8 Overcast,5500.0,,BKN,5400.0,OVC,8900.0,,,,
KRDR,10-26-2001,06:00,METAR,,310,21.0,,320/27KTS,9999.0,Cloud Development Not Observable,-1.0,-4.0,30.23,1025.4,,,,0,0,0,,,,,,,,,8/8 Overcast,5500.0,,OVC,5400.0,,,,,,
KRDR,10-26-2001,05:00,METAR,,310,22.0,28.0,,9999.0,Cloud Development Not Observable,-1.0,-3.0,30.22,1024.9,,,,0,0,0,,,,,,,,,8/8 Overcast,4400.0,,OVC,4500.0,,,,,,
KRDR,10-26-2001,04:00,METAR,,300,23.0,,310/29KTS,9999.0,Cloud Development Not Observable,0.0,-2.0,30.19,1024.0,,,,0,0,0,,,,,,,,,8/8 Overcast,4400.0,,OVC,4500.0,,,,,,
KRDR,10-26-2001,03:00,METAR,,310,24.0,,310/26KTS,9999.0,Cloud Development Not Observable,0.0,-2.0,30.17,1023.2,,,,0,0,0,,,,,,,,,8/8 Overcast,4400.0,,OVC,4500.0,,,,,,
KRDR,10-26-2001,02:00,METAR,,320,19.0,,,9999.0,Cloud Development Not Observable,1.0,-2.0,30.15,1022.5,,,,0,0,0,,,,,,,,,7/8 Mostly Cloudy,4400.0,,BKN,4500.0,,,,,,
KRDR,10-26-2001,01:00,METAR,,320,18.0,,,9999.0,Cloud Development Not Observable,1.0,-2.0,30.13,1021.8,,,,0,0,0,,,,,,,,,7/8 Mostly Cloudy,4400.0,,BKN,4500.0,,,,,,
KRDR,10-26-2001,00:00,METAR,,320,21.0,,320/26KTS,9999.0,Cloud Development Not Observable,1.0,-1.0,30.10,1020.9,,,,0,0,0,,,,,,,,,7/8 Mostly Cloudy,4400.0,,SCT,2500.0,BKN,4500.0,,,,
KRDR,10-25-2001,23:00,METAR,,310,21.0,,300/29KTS,9999.0,Cloud Development Not Observable,1.0,0.0,30.08,1020.2,,,,0,0,0,,,,,,,,,7/8 Mostly Cloudy,4900.0,,SCT,2500.0,BKN,5000.0,,,,
KRDR,10-25-2001,22:25,METAR,,300,24.0,29.0,,9999.0,Cloud Development Not Observable,1.0,0.0,30.07,,,,,0,0,0,,,,,,,,,7/8 Mostly Cloudy,4900.0,,SCT,2500.0,BKN,5000.0,,,,
KRDR,10-25-2001,22:00,METAR,,300,22.0,30.0,300/32KTS,9999.0,Cloud Development Not Observable,2.0,0.0,30.05,1019.3,,,,0,0,0,,,,,,,,,8/8 Overcast,2500.0,,BKN,2500.0,OVC,5000.0,,,,
KRDR,10-25-2001,21:00,METAR,,310,24.0,30.0,300/33KTS,9999.0,Cloud Development Not Observable,2.0,0.0,30.02,1018.1,,,,0,0,0,,,,,,,,,7/8 Mostly Cloudy,2500.0,,BKN,2500.0,BKN,5000.0,,,,
KRDR,10-25-2001,20:00,METAR,,310,23.0,,310/33KTS,9999.0,Cloud Development Not Observable,2.0,1.0,29.99,1017.0,,,,0,0,0,,,,,,,,,8/8 Overcast,2000.0,,BKN,2000.0,OVC,5000.0,,,,
KRDR,10-25-2001,19:00,METAR,,310,25.0,31.0,290/32KTS,9999.0,Cloud Development Not Observable,1.0,1.0,29.96,1016.0,,,,0,0,0,,,,,,,,,8/8 Overcast,2000.0,,BKN,2000.0,OVC,5000.0,,,,
KRDR,10-25-2001,18:00,METAR,,310,27.0,33.0,290/35KTS,9999.0,Cloud Development Not Observable,1.0,1.0,29.93,1015.1,,,,0,0,0,,,,,,,,,8/8 Overcast,2000.0,,BKN,2000.0,OVC,5000.0,,,,
KRDR,10-25-2001,17:00,METAR,,310,24.0,,300/32KTS,9999.0,Cloud Development Not Observable,1.0,1.0,29.91,1014.4,,,,0,0,0,,,,,,,,,8/8 Overcast,2000.0,,BKN,2000.0,OVC,5000.0,,,,
KRDR,10-25-2001,16:00,METAR,,310,26.0,33.0,,9999.0,Drifting Snow/Cloud Development Not Observable,0.0,0.0,29.89,1013.7,,,,36,0,0,,,,,,,,,7/8 Mostly Cloudy,2000.0,,BKN,2000.0,BKN,5000.0,,,,
KRDR,10-25-2001,15:25,METAR,,310,24.0,,,8000.0,Blowing Snow/Cloud Development Not Observable,0.0,0.0,29.88,,,,,38,0,0,,,,,,,,,8/8 Overcast,2000.0,,BKN,2000.0,OVC,4000.0,,,,
KRDR,10-25-2001,14:00,METAR,,310,25.0,,300/35KTS,8000.0,Blowing Snow/Cloud Development Not Observable,0.0,0.0,29.82,1011.2,,,,38,0,0,,,,,,,,,8/8 Overcast,2000.0,,BKN,2000.0,OVC,4000.0,,,,
KRDR,10-25-2001,13:00,METAR,,310,31.0,36.0,,9999.0,Blowing Snow/Cloud Development Not Observable,0.0,0.0,29.79,1010.2,,,,38,0,0,,,,,,,,,8/8 Overcast,2000.0,,OVC,2000.0,,,,,,
KRDR,10-25-2001,12:00,METAR,,310,26.0,,310/35KTS,9999.0,Blowing Snow/Cloud Development Not Observable,0.0,0.0,29.75,1009.0,,,,38,0,0,,,,,,,,,8/8 Overcast,2000.0,,OVC,2000.0,,,,,,
KRDR,10-25-2001,11:25,METAR,,320,29.0,35.0,,9999.0,Blowing Snow/Cloud Development Not Observable,0.0,0.0,29.74,,,,,38,0,0,,,,,,,,,8/8 Overcast,2200.0,,OVC,2200.0,,,,,,
KRDR,10-25-2001,11:00,METAR,,310,31.0,36.0,,2400.0,Light Snow/Blowing Snow/Cloud Development Not Observable,0.0,0.0,29.73,1008.1,,,,71,38,0,,,,,,,,,8/8 Overcast,2200.0,,OVC,2200.0,,,,,,
KRDR,10-25-2001,10:25,METAR,,310,30.0,36.0,,2400.0,Light Snow/Blowing Snow/Cloud Development Not Observable,0.0,0.0,29.71,,,,,71,38,0,,,,,,,,,8/8 Overcast,2200.0,,OVC,2200.0,,,,,,
KRDR,10-25-2001,10:00,METAR,,310,32.0,38.0,,1600.0,Light Snow/Blowing Snow/Cloud Development Not Observable,-1.0,-1.0,29.68,1006.8,,,,71,38,0,,,,,,,,,8/8 Overcast,2500.0,,OVC,2500.0,,,,,,
KRDR,10-25-2001,09:36,SPECI,,310,30.0,38.0,,1600.0,Light Snow/Blowing Snow/Cloud Development Not Observable,-1.0,-1.0,29.68,,,,,71,38,0,,,,,,,,,8/8 Overcast,2500.0,,OVC,2500.0,,,,,,
KRDR,10-25-2001,09:00,METAR,,310,27.0,35.0,,1400.0,Light Snow/Blowing Snow/Cloud Development Not Observable,-1.0,-1.0,29.67,1006.2,,,,71,38,0,,,,,,,,,8/8 Overcast,2500.0,,OVC,2500.0,,,,,,
KRDR,10-25-2001,08:00,METAR,,310,28.0,,300/34KTS,1200.0,Light Snow/Blowing Snow/Cloud Development Not Observable,0.0,0.0,29.65,1005.6,,,,71,38,0,,,,,,,,,8/8 Overcast,2000.0,,OVC,2000.0,,,,,,
KRDR,10-25-2001,07:00,METAR,,310,27.0,33.0,,1200.0,Light Snow/Blowing Snow/Cloud Development Not Observable,0.0,0.0,29.64,1005.3,,,,71,38,0,,,,,,,,,8/8 Overcast,2000.0,,OVC,2000.0,,,,,,
KRDR,10-25-2001,06:00,METAR,,310,27.0,35.0,,1200.0,Light Snow/Blowing Snow/Cloud Development Not Observable,0.0,0.0,29.62,1004.6,,,,71,38,0,,,,,,,,,8/8 Overcast,2000.0,,OVC,2000.0,,,,,,
KRDR,10-25-2001,05:00,METAR,,310,22.0,,320/31KTS,1200.0,Light Snow/Blowing Snow/Cloud Development Not Observable,0.0,0.0,29.62,,,,,71,38,0,,,,,,,,,8/8 Overcast,1600.0,,BKN,1600.0,OVC,2500.0,,,,
KRDR,10-25-2001,04:31,SPECI,,310,22.0,,,1200.0,Light Snow/Blowing Snow/Cloud Development Not Observable,0.0,0.0,29.62,,,,,71,38,0,,,,,,,,,8/8 Overcast,1600.0,,BKN,1600.0,OVC,2500.0,,,,
KRDR,10-25-2001,04:00,METAR,,320,24.0,38.0,,800.0,Light Snow/Blowing Snow/Cloud Development Not Observable,0.0,0.0,29.62,1004.4,,,,71,38,0,,,,,,,,,8/8 Overcast,1600.0,,BKN,1600.0,OVC,2500.0,,,,
KRDR,10-25-2001,03:00,METAR,,320,31.0,35.0,,800.0,Light Snow/Blowing Snow/Cloud Development Not Observable,0.0,0.0,29.60,1004.0,,,,71,38,0,,,,,,,,,8/8 Overcast,1700.0,,BKN,1700.0,OVC,2500.0,,,,
KRDR,10-25-2001,02:00,METAR,,330,28.0,44.0,,800.0,Light Snow/Blowing Snow/Cloud Development Not Observable,0.0,0.0,29.60,1003.8,,,,71,38,0,,,,,,,,,8/8 Overcast,1700.0,,BKN,1700.0,OVC,2500.0,,,,
KRDR,10-25-2001,00:43,SPECI,,320,26.0,32.0,,1600.0,Light Snow/Blowing Snow/Cloud Development Not Observable,-1.0,-1.0,29.59,,,,,71,38,0,,,,,,,,,8/8 Overcast,1200.0,,BKN,1200.0,OVC,2500.0,,,,
KRDR,10-25-2001,00:00,METAR,,320,27.0,,330/38KTS,400.0,Light Snow/Blowing Snow/Cloud Development Not Observable,-1.0,-1.0,29.56,1002.4,,,,71,38,0,,,,,,,,,8/8 Overcast,1200.0,,OVC,1200.0,,,,,,
KRDR,10-24-2001,23:24,SPECI,,320,31.0,36.0,,400.0,Light Snow/Blowing Snow/Cloud Development Not Observable,-1.0,-1.0,29.56,,,,,71,38,0,,,,,,,,,8/8 Overcast,1200.0,,OVC,1200.0,,,,,,
KRDR,10-24-2001,23:00,METAR,,320,31.0,38.0,,1200.0,Light Snow/Blowing Snow/Cloud Development Not Observable,-1.0,-1.0,29.55,1002.0,,,,71,38,0,,,,,,,,,8/8 Overcast,1200.0,,OVC,1200.0,,,,,,
KRDR,10-24-2001,22:43,SPECI,,320,31.0,38.0,,1200.0,Light Snow/Blowing Snow/Cloud Development Not Observable,-1.0,-1.0,29.54,,,,,71,38,0,,,,,,,,,8/8 Overcast,1200.0,,OVC,1200.0,,,,,,
KRDR,10-24-2001,22:00,METAR,,320,28.0,35.0,320/37KTS,200.0,Light Snow/Blowing Snow/Cloud Development Not Observable,-1.0,-1.0,29.52,1001.0,,,,71,38,0,,,,,,,,,8/8 Overcast,1200.0,,OVC,1200.0,,,,,,
KRDR,10-24-2001,21:00,METAR,,320,31.0,39.0,330/40KTS,200.0,Light Snow/Blowing Snow/Cloud Development Not Observable,-1.0,-1.0,29.49,1000.2,,,,71,38,0,,,,,,,,,8/8 Overcast,1200.0,,OVC,1200.0,,,,,,
KRDR,10-24-2001,20:00,METAR,,320,33.0,38.0,310/42KTS,200.0,Light Snow/Blowing Snow/Cloud Development Not Observable,-1.0,-1.0,29.47,999.3,,,,71,38,0,,,,,,,,,8/8 Overcast,1200.0,,OVC,1200.0,,,,,,
KRDR,10-24-2001,19:30,METAR,,320,30.0,42.0,,200.0,Snow/Blowing Snow/Cloud Development Not Observable,-1.0,-1.0,29.46,,,,,73,38,0,,,,,,,,,8/8 Overcast,1000.0,,OVC,1000.0,,,,,,
KRDR,10-24-2001,18:00,METAR,,320,28.0,37.0,,200.0,Snow/Blowing Snow/Cloud Development Not Observable,-1.0,-1.0,29.43,998.1,,,,73,38,0,,,,,,,,,Sky Obscured (Unable to Estimate),0.0,100.0,,0.0,,,,,,
KRDR,10-24-2001,17:00,METAR,,330,26.0,32.0,320/36KTS,200.0,Snow/Blowing Snow/Cloud Development Not Observable,-1.0,-1.0,29.42,997.8,,,,73,38,0,,,,,,,,,Sky Obscured (Unable to Estimate),0.0,100.0,,0.0,,,,,,
KRDR,10-24-2001,16:34,SPECI,,330,28.0,33.0,,200.0,Snow/Blowing Snow/Cloud Development Not Observable,-1.0,-1.0,29.42,,,,,73,38,0,,,,,,,,,Sky Obscured (Unable to Estimate),0.0,100.0,,0.0,,,,,,
KRDR,10-24-2001,16:00,METAR,,330,27.0,,310/35KTS,100.0,Snow/Blowing Snow/Cloud Development Not Observable,-1.0,-1.0,29.42,997.6,,,,73,38,0,,,,,,,,,Sky Obscured (Unable to Estimate),0.0,100.0,,0.0,,,,,,
KRDR,10-24-2001,15:00,METAR,,330,25.0,34.0,320/46KTS,100.0,Heavy Snow/Blowing Snow/Cloud Development Not Observable,-2.0,-2.0,29.40,997.1,,,,75,38,0,,,,,,,,,Sky Obscured (Unable to Estimate),0.0,100.0,,0.0,,,,,,
KRDR,10-24-2001,14:00,METAR,,330,28.0,35.0,330/44KTS,100.0,Heavy Snow/Blowing Snow/Cloud Development Not Observable,-2.0,-2.0,29.38,995.8,,,,75,38,0,,,,,,,,,Sky Obscured (Unable to Estimate),0.0,100.0,,0.0,,,,,,
KRDR,10-24-2001,13:00,METAR,,330,30.0,35.0,330/37KTS,100.0,Snow/Blowing Snow/Cloud Development Not Observable,-2.0,-2.0,29.37,995.8,,,,73,38,0,,,,,,,,,Sky Obscured (Unable to Estimate),0.0,100.0,,0.0,,,,,,
KRDR,10-24-2001,12:00,METAR,,,,,,200.0,Cloud Development Not Observable,-2.0,-2.0,29.35,995.3,,,,0,0,0,,,,,,,,,,72000.0,,,,,,,,,
KRDR,10-24-2001,11:00,METAR,,340,28.0,35.0,,200.0,Snow/Blowing Snow/Cloud Development Not Observable,-1.0,-1.0,29.34,994.7,,,,73,38,0,,,,,,,,,Sky Obscured (Unable to Estimate),0.0,100.0,,0.0,,,,,,
KRDR,10-24-2001,10:00,METAR,,340,27.0,,330/32KTS,200.0,Snow/Cloud Development Not Observable,-1.0,-1.0,29.33,994.4,,,,73,0,0,,,,,,,,,Sky Obscured (Unable to Estimate),0.0,100.0,,0.0,,,,,,
KRDR,10-24-2001,09:00,METAR,,340,23.0,,340/28KTS,400.0,Snow/Cloud Development Not Observable,0.0,0.0,29.32,994.1,,,,73,0,0,,,,,,,,,Sky Obscured (Unable to Estimate),0.0,100.0,,0.0,,,,,,
KRDR,10-24-2001,08:00,METAR,,340,21.0,,,400.0,Snow/Cloud Development Not Observable,0.0,0.0,29.34,994.6,,,,73,0,0,,,,,,,,,Sky Obscured (Unable to Estimate),0.0,100.0,,0.0,,,,,,
KRDR,10-24-2001,07:19,SPECI,,360,19.0,,,800.0,Snow/Cloud Development Not Observable,0.0,0.0,29.34,,,,,73,0,0,,,,,,,,,8/8 Overcast,500.0,,OVC,500.0,,,,,,
KRDR,10-24-2001,07:00,METAR,,350,18.0,,,800.0,Snow/Cloud Development Not Observable,1.0,1.0,29.34,994.6,,,,73,0,0,,,,,,,,,8/8 Overcast,500.0,,OVC,500.0,,,,,,
KRDR,10-24-2001,06:42,SPECI,,360,16.0,,,800.0,Light Snow/Cloud Development Not Observable,1.0,1.0,29.34,,,,,71,0,0,,,,,,,,,8/8 Overcast,500.0,,OVC,500.0,,,,,,
KRDR,10-24-2001,06:00,METAR,,10,18.0,,010/25KTS,1200.0,Light Snow/Cloud Development Not Observable,1.0,1.0,29.34,994.6,,,,71,0,0,,,,,,,,,8/8 Overcast,500.0,,OVC,500.0,,,,,,
KRDR,10-24-2001,05:28,SPECI,,10,16.0,,,1600.0,Cloud Development Not Observable,1.0,1.0,29.35,,,,,0,0,0,,,,,,,,,8/8 Overcast,500.0,,OVC,500.0,,,,,,
KRDR,10-24-2001,05:00,METAR,,10,18.0,,,2400.0,Light Snow/Cloud Development Not Observable,1.0,1.0,29.35,995.1,,,,71,0,0,,,,,,,,,8/8 Overcast,600.0,,OVC,600.0,,,,,,
KRDR,10-24-2001,04:42,SPECI,,10,16.0,,,3200.0,Light Snow/Cloud Development Not Observable,1.0,1.0,29.36,,,,,71,0,0,,,,,,,,,8/8 Overcast,600.0,,OVC,600.0,,,,,,
KRDR,10-24-2001,04:12,SPECI,,20,11.0,,,6400.0,Light Snow/Cloud Development Not Observable,2.0,2.0,29.38,,,,,71,0,0,,,,,,,,,8/8 Overcast,900.0,,OVC,900.0,,,,,,
KRDR,10-24-2001,04:00,METAR,,10,15.0,,,8000.0,Light Snow/Cloud Development Not Observable,2.0,2.0,29.37,995.6,,,,71,0,0,,,,,,,,,8/8 Overcast,1200.0,,BKN,1200.0,OVC,4000.0,,,,
KRDR,10-24-2001,03:47,SPECI,,10,15.0,,,8000.0,Light Snow/Cloud Development Not Observable,2.0,2.0,29.37,,,,,71,0,0,,,,,,,,,8/8 Overcast,1200.0,,BKN,1200.0,OVC,4000.0,,,,
KRDR,10-24-2001,03:00,METAR,,20,13.0,,,9999.0,Light Snow/Rain/Cloud Development Not Observable,3.0,2.0,29.39,996.3,,,,61,71,0,,,,,,,,,4/8 Partly Cloudy,72000.0,,SCT,1500.0,,,,,,
KRDR,10-24-2001,02:35,SPECI,,30,4.0,,,9999.0,Light Snow/Cloud Development Not Observable,3.0,2.0,29.40,,,,,71,0,0,,,,,,,,,8/8 Overcast,1600.0,,BKN,1600.0,OVC,4000.0,,,,
KRDR,10-24-2001,02:00,METAR,,10,15.0,,,9999.0,Cloud Development Not Observable,3.0,2.0,29.40,996.7,,,,0,0,0,,,,,,,,,8/8 Overcast,1800.0,,OVC,1800.0,,,,,,
KRDR,10-24-2001,01:00,METAR,,20,11.0,,,9999.0,Cloud Development Not Observable,3.0,2.0,29.41,997.3,,,,0,0,0,,,,,,,,,8/8 Overcast,1800.0,,OVC,1800.0,,,,,,
KRDR,10-24-2001,00:00,METAR,,20,11.0,,,9999.0,Cloud Development Not Observable,3.0,1.0,29.41,997.3,,,,0,0,0,,,,,,,,,8/8 Overcast,1600.0,,OVC,1600.0,,,,,,
KRDR,10-23-2001,23:00,METAR,,30,9.0,,,9999.0,Cloud Development Not Observable,4.0,2.0,29.41,997.0,,,,0,0,0,,,,,,,,,8/8 Overcast,1700.0,,OVC,1700.0,,,,,,
KRDR,10-23-2001,22:00,METAR,,40,10.0,,,9999.0,Cloud Development Not Observable,4.0,2.0,29.42,997.3,,,,0,0,0,,,,,,,,,7/8 Mostly Cloudy,1500.0,,BKN,1500.0,BKN,7900.0,,,,
KRDR,10-23-2001,21:00,METAR,,20,13.0,,,9999.0,Cloud Development Not Observable,5.0,2.0,29.42,997.3,,,,0,0,0,,,,,,,,,8/8 Overcast,1300.0,,FEW,500.0,OVC,1300.0,,,,
KRDR,10-23-2001,20:00,METAR,,20,10.0,,,9999.0,Cloud Development Not Observable,4.0,3.0,29.43,997.7,,,,0,0,0,,,,,,,,,8/8 Overcast,1300.0,,OVC,1300.0,,,,,,
KRDR,10-23-2001,19:00,METAR,,60,8.0,,,9999.0,Cloud Development Not Observable,5.0,3.0,29.41,996.9,,,,0,0,0,,,,,,,,,8/8 Overcast,1700.0,,OVC,1700.0,,,,,,
KRDR,10-23-2001,17:00,METAR,,360,8.0,,,9999.0,Cloud Development Not Observable,5.0,4.0,29.43,997.4,,,,0,0,0,,,,,,,,,8/8 Overcast,1500.0,,OVC,1500.0,,,,,,
KRDR,10-23-2001,16:00,METAR,,10,9.0,,,9999.0,Cloud Development Not Observable,5.0,4.0,29.47,998.8,,,,0,0,0,,,,,,,,,8/8 Overcast,1500.0,,OVC,1500.0,,,,,,
KRDR,10-23-2001,14:00,METAR,,280,9.0,,,8000.0,Mist/Cloud Development Not Observable,2.0,2.0,29.43,997.6,,,,10,0,0,,,,,,,,,7/8 Mostly Cloudy,25000.0,,SCT,1300.0,BKN,25000.0,,,,
KRDR,10-23-2001,13:07,SPECI,,280,7.0,,,4800.0,Mist/Cloud Development Not Observable,1.0,1.0,29.44,,,,,10,0,0,,,,,,,,,7/8 Mostly Cloudy,1300.0,,BKN,1300.0,,,,,,
KRDR,10-23-2001,13:00,METAR,,280,7.0,,,4800.0,Mist/Cloud Development Not Observable,0.0,0.0,29.43,997.7,,,,10,0,0,,,,,,,,,7/8 Mostly Cloudy,25000.0,,SCT,700.0,BKN,25000.0,,,,
KRDR,10-23-2001,12:29,SPECI,,300,8.0,,,4800.0,Mist/Cloud Development Not Observable,1.0,1.0,29.44,,,,,10,0,0,,,,,,,,,7/8 Mostly Cloudy,25000.0,,SCT,700.0,BKN,25000.0,,,,
KRDR,10-23-2001,12:00,METAR,,340,10.0,,,9999.0,Cloud Development Not Observable,1.0,1.0,29.44,998.0,,,,0,0,0,,,,,,,,,Clear,72000.0,,,73000.0,,,,,,
KRDR,10-23-2001,11:00,METAR,,320,7.0,,,9999.0,Cloud Development Not Observable,2.0,1.0,29.43,997.5,,,,0,0,0,,,,,,,,,Clear,72000.0,,,73000.0,,,,,,
KRDR,10-23-2001,10:00,METAR,,300,9.0,,,9999.0,Cloud Development Not Observable,2.0,1.0,29.42,997.1,,,,0,0,0,,,,,,,,,Clear,72000.0,,,73000.0,,,,,,
KRDR,10-23-2001,09:00,METAR,,270,6.0,,,9999.0,Cloud Development Not Observable,3.0,1.0,29.41,996.8,,,,0,0,0,,,,,,,,,Clear,72000.0,,,73000.0,,,,,,
KRDR,10-23-2001,08:00,METAR,,270,6.0,,,9999.0,Cloud Development Not Observable,3.0,1.0,29.41,996.8,,,,0,0,0,,,,,,,,,Clear,72000.0,,,73000.0,,,,,,
KRDR,10-23-2001,07:00,METAR,,270,7.0,,,9999.0,Cloud Development Not Observable,5.0,2.0,29.42,997.1,,,,0,0,0,,,,,,,,,Clear,72000.0,,,73000.0,,,,,,
KRDR,10-23-2001,06:00,METAR,,260,7.0,,,9999.0,Cloud Development Not Observable,7.0,3.0,29.44,997.6,,,,0,0,0,,,,,,,,,4/8 Partly Cloudy,72000.0,,SCT,25000.0,,,,,,
KRDR,10-23-2001,05:00,METAR,,260,8.0,,,9999.0,Cloud Development Not Observable,8.0,3.0,29.44,997.9,,,,0,0,0,,,,,,,,,4/8 Partly Cloudy,72000.0,,FEW,15000.0,SCT,25000.0,,,,
KRDR,10-23-2001,04:00,METAR,,260,7.0,,,9999.0,Cloud Development Not Observable,9.0,4.0,29.44,997.9,,,,0,0,0,,,,,,,,,4/8 Partly Cloudy,72000.0,,FEW,15000.0,SCT,25000.0,,,,
KRDR,10-23-2001,03:00,METAR,,260,6.0,,,9999.0,Cloud Development Not Observable,12.0,5.0,29.46,998.4,,,,0,0,0,,,,,,,,,7/8 Mostly Cloudy,25000.0,,FEW,5400.0,SCT,15000.0,BKN,25000.0,,
KRDR,10-23-2001,02:00,METAR,,240,8.0,,,9999.0,Cloud Development Not Observable,13.0,6.0,29.48,999.3,,,,0,0,0,,,,,,,,,7/8 Mostly Cloudy,25000.0,,FEW,5400.0,SCT,15000.0,BKN,25000.0,,
KRDR,10-23-2001,01:00,METAR,,180,7.0,,,9999.0,Cloud Development Not Observable,13.0,5.0,29.48,999.3,,,,0,0,0,,,,,,,,,7/8 Mostly Cloudy,25000.0,,FEW,5400.0,SCT,15000.0,BKN,25000.0,,
KRDR,10-23-2001,00:00,METAR,,160,9.0,,,9999.0,Cloud Development Not Observable,14.0,5.0,29.48,999.3,,,,0,0,0,,,,,,,,,7/8 Mostly Cloudy,25000.0,,SCT,15000.0,BKN,25000.0,,,,
KRDR,10-22-2001,23:00,METAR,,160,10.0,,,9999.0,Cloud Development Not Observable,15.0,5.0,29.50,999.8,,,,0,0,0,,,,,,,,,7/8 Mostly Cloudy,25000.0,,SCT,15000.0,BKN,25000.0,,,,
KRDR,10-22-2001,22:00,METAR,,180,12.0,,,9999.0,Cloud Development Not Observable,16.0,5.0,29.53,1001.0,,,,0,0,0,,,,,,,,,4/8 Partly Cloudy,72000.0,,FEW,7900.0,SCT,15000.0,,,,
KRDR,10-22-2001,21:00,METAR,,180,17.0,21.0,,9999.0,Cloud Development Not Observable,17.0,5.0,29.54,1001.0,,,,0,0,0,,,,,,,,,7/8 Mostly Cloudy,25000.0,,FEW,7900.0,SCT,15000.0,BKN,25000.0,,
KRDR,10-22-2001,20:00,METAR,,170,19.0,,,9999.0,Cloud Development Not Observable,16.0,5.0,29.57,1002.3,,,,0,0,0,,,,,,,,,7/8 Mostly Cloudy,25000.0,,FEW,7900.0,SCT,15000.0,BKN,25000.0,,
KRDR,10-22-2001,19:00,METAR,,170,16.0,21.0,,9999.0,Cloud Development Not Observable,14.0,5.0,29.60,1003.5,,,,0,0,0,,,,,,,,,8/8 Overcast,15000.0,,FEW,7900.0,BKN,15000.0,OVC,25000.0,,
KRDR,10-22-2001,18:00,METAR,,160,13.0,,,9999.0,Cloud Development Not Observable,13.0,6.0,29.65,1005.3,,,,0,0,0,,,,,,,,,8/8 Overcast,8000.0,,BKN,7900.0,BKN,15000.0,OVC,25000.0,,
KRDR,10-22-2001,17:00,METAR,,140,14.0,,,9999.0,Cloud Development Not Observable,9.0,5.0,29.70,1006.8,,,,0,0,0,,,,,,,,,8/8 Overcast,8000.0,,BKN,7900.0,OVC,25000.0,,,,
KRDR,10-22-2001,16:00,METAR,,120,11.0,,,9999.0,Cloud Development Not Observable,7.0,5.0,29.75,1008.6,,,,0,0,0,,,,,,,,,8/8 Overcast,8000.0,,BKN,7900.0,OVC,25000.0,,,,
KRDR,10-22-2001,15:00,METAR,,100,7.0,,,9999.0,Cloud Development Not Observable,6.0,5.0,29.80,1010.3,,,,0,0,0,,,,,,,,,7/8 Mostly Cloudy,8000.0,,FEW,5000.0,BKN,7900.0,BKN,25000.0,,
KRDR,10-22-2001,14:00,METAR,,110,8.0,,,9999.0,Precipitation in the Vicinity/Cloud Development Not Observable,4.0,4.0,29.81,1010.6,,,,16,0,0,,,,,,,,,7/8 Mostly Cloudy,8000.0,,SCT,5000.0,BKN,7900.0,BKN,15000.0,,
KRDR,10-22-2001,13:23,SPECI,,100,8.0,,,9999.0,Precipitation in the Vicinity/Cloud Development Not Observable,4.0,4.0,29.82,,,,,16,0,0,,,,,,,,,8/8 Overcast,8000.0,,SCT,5000.0,BKN,7900.0,OVC,15000.0,,
KRDR,10-22-2001,13:10,SPECI,,110,6.0,,,9999.0,Light Rain Showers/Cloud Development Not Observable,3.0,3.0,29.83,,,,,80,0,0,,,,,,,,,8/8 Overcast,8000.0,,SCT,5000.0,BKN,7900.0,OVC,15000.0,,
KRDR,10-22-2001,13:02,SPECI,,110,6.0,,,9999.0,Light Rain Showers/Cloud Development Not Observable,3.0,3.0,29.83,,,,,80,0,0,,,,,,,,,8/8 Overcast,8000.0,,SCT,5000.0,BKN,7900.0,OVC,15000.0,,
KRDR,10-22-2001,12:00,METAR,,90,6.0,,,9999.0,Cloud Development Not Observable,2.0,2.0,29.86,1012.4,,,,0,0,0,,,,,,,,,7/8 Mostly Cloudy,9000.0,,BKN,8900.0,,,,,,
KRDR,10-22-2001,11:00,METAR,,20,5.0,,,9999.0,Cloud Development Not Observable,1.0,1.0,29.89,1013.2,,,,0,0,0,,,,,,,,,7/8 Mostly Cloudy,9500.0,,BKN,9400.0,,,,,,
KRDR,10-22-2001,10:00,METAR,,,2.0,,,9999.0,Cloud Development Not Observable,0.0,0.0,29.91,1013.9,,,,0,0,0,,,,,,,,,7/8 Mostly Cloudy,20000.0,,FEW,12000.0,BKN,20000.0,,,,
KRDR,10-22-2001,09:00,METAR,,,2.0,,,9999.0,Cloud Development Not Observable,0.0,0.0,29.92,1014.3,,,,0,0,0,,,,,,,,,4/8 Partly Cloudy,72000.0,,FEW,12000.0,SCT,25000.0,,,,
KRDR,10-22-2001,08:00,METAR,,60,5.0,,,9999.0,Cloud Development Not Observable,1.0,1.0,29.94,1014.8,,,,0,0,0,,,,,,,,,Clear,72000.0,,,73000.0,,,,,,
KRDR,10-22-2001,07:00,METAR,,,1.0,,,9999.0,Cloud Development Not Observable,-3.0,-3.0,29.96,1015.9,,,,0,0,0,,,,,,,,,Clear,72000.0,,,73000.0,,,,,,
KRDR,10-22-2001,06:00,METAR,,,2.0,,,9999.0,Cloud Development Not Observable,-3.0,-3.0,29.98,1016.5,,,,0,0,0,,,,,,,,,Clear,72000.0,,,73000.0,,,,,,
KRDR,10-22-2001,05:00,METAR,,320,5.0,,,9999.0,Cloud Development Not Observable,-2.0,-3.0,29.99,1016.7,,,,0,0,0,,,,,,,,,Clear,72000.0,,,73000.0,,,,,,
KRDR,10-22-2001,04:00,METAR,,280,3.0,,,9999.0,Cloud Development Not Observable,-1.0,-3.0,29.99,1016.7,,,,0,0,0,,,,,,,,,Clear,72000.0,,,73000.0,,,,,,
KRDR,10-22-2001,03:00,METAR,,,2.0,,,9999.0,Cloud Development Not Observable,1.0,-3.0,29.99,1016.7,,,,0,0,0,,,,,,,,,Clear,72000.0,,,73000.0,,,,,,
KRDR,10-22-2001,02:00,METAR,,290,6.0,,,9999.0,Cloud Development Not Observable,4.0,-2.0,29.99,1016.7,,,,0,0,0,,,,,,,,,2/8 Mostly Clear,72000.0,,FEW,8900.0,FEW,20000.0,,,,
KRDR,10-22-2001,01:00,METAR,,270,7.0,,,9999.0,Cloud Development Not Observable,3.0,-2.0,29.98,1016.6,,,,0,0,0,,,,,,,,,2/8 Mostly Clear,72000.0,,FEW,8900.0,FEW,20000.0,,,,
KRDR,10-22-2001,00:00,METAR,,300,7.0,,,9999.0,Cloud Development Not Observable,6.0,-2.0,29.97,1016.2,,,,0,0,0,,,,,,,,,4/8 Partly Cloudy,72000.0,,FEW,8900.0,SCT,20000.0,,,,
KRDR,10-21-2001,22:00,METAR,,290,11.0,,,9999.0,Cloud Development Not Observable,11.0,-2.0,29.97,1016.2,,,,0,0,0,,,,,,,,,7/8 Mostly Cloudy,20000.0,,FEW,5000.0,SCT,8900.0,BKN,20000.0,,
KRDR,10-21-2001,21:00,METAR,,290,18.0,,,9999.0,Cloud Development Not Observable,13.0,-2.0,29.96,1015.5,,,,0,0,0,,,,,,,,,4/8 Partly Cloudy,72000.0,,FEW,5000.0,SCT,20000.0,,,,
KRDR,10-21-2001,20:00,METAR,,270,18.0,,280/25KTS,9999.0,Cloud Development Not Observable,13.0,-1.0,29.97,1015.9,,,,0,0,0,,,,,,,,,7/8 Mostly Cloudy,20000.0,,SCT,5000.0,BKN,20000.0,,,,
KRDR,10-21-2001,19:00,METAR,,280,15.0,,,9999.0,Cloud Development Not Observable,12.0,2.0,29.99,1016.7,,,,0,0,0,,,,,,,,,7/8 Mostly Cloudy,20000.0,,FEW,2500.0,FEW,6900.0,BKN,20000.0,,
KRDR,10-21-2001,18:00,METAR,,290,14.0,,,9999.0,Cloud Development Not Observable,10.0,3.0,29.99,1016.7,,,,0,0,0,,,,,,,,,7/8 Mostly Cloudy,20000.0,,FEW,3000.0,BKN,20000.0,,,,
KRDR,10-21-2001,17:00,METAR,,300,13.0,,,9999.0,Cloud Development Not Observable,10.0,6.0,29.98,1016.4,,,,0,0,0,,,,,,,,,7/8 Mostly Cloudy,20000.0,,FEW,3000.0,SCT,5900.0,BKN,20000.0,,
KRDR,10-21-2001,16:00,METAR,,270,11.0,,,9999.0,Cloud Development Not Observable,9.0,7.0,29.97,1016.2,,,,0,0,0,,,,,,,,,7/8 Mostly Cloudy,20000.0,,FEW,3000.0,SCT,5900.0,BKN,20000.0,,
KRDR,10-21-2001,15:00,METAR,,230,8.0,,,9999.0,Cloud Development Not Observable,5.0,5.0,29.96,1016.1,,,,0,0,0,,,,,,,,,7/8 Mostly Cloudy,20000.0,,FEW,3000.0,SCT,5900.0,BKN,20000.0,,
KRDR,10-21-2001,14:35,SPECI,,230,9.0,,,9999.0,Cloud Development Not Observable,6.0,6.0,29.96,,,,,0,0,0,,,,,,,,,7/8 Mostly Cloudy,6000.0,,FEW,3000.0,BKN,5900.0,BKN,20000.0,,
KRDR,10-21-2001,14:00,METAR,,270,9.0,,,9999.0,Light Rain Showers/Cloud Development Not Observable,5.0,5.0,29.96,1015.9,,,,80,0,0,,,,,,,,,8/8 Overcast,5500.0,,SCT,3000.0,OVC,5400.0,,,,
KRDR,10-21-2001,13:00,METAR,,280,7.0,,,9999.0,Light Rain Showers/Cloud Development Not Observable,3.0,3.0,29.96,1015.8,,,,80,0,0,,,,,,,,,7/8 Mostly Cloudy,4900.0,,SCT,2500.0,BKN,5000.0,,,,
KRDR,10-21-2001,12:00,METAR,,230,7.0,,,9999.0,Light Rain Showers/Cloud Development Not Observable,2.0,0.0,29.95,1015.5,,,,80,0,0,,,,,,,,,7/8 Mostly Cloudy,7000.0,,SCT,3500.0,BKN,6900.0,,,,
KRDR,10-21-2001,11:42,SPECI,,230,6.0,,,9999.0,Light Rain Showers/Cloud Development Not Observable,2.0,0.0,29.95,,,,,80,0,0,,,,,,,,,7/8 Mostly Cloudy,6500.0,,SCT,3500.0,BKN,6400.0,,,,
KRDR,10-21-2001,11:00,METAR,,190,9.0,,,9999.0,Cloud Development Not Observable,0.0,-1.0,29.95,1015.3,,,,0,0,0,,,,,,,,,4/8 Partly Cloudy,72000.0,,SCT,6400.0,,,,,,
KRDR,10-21-2001,10:00,METAR,,180,8.0,,,9999.0,Cloud Development Not Observable,-1.0,-2.0,29.96,1015.7,,,,0,0,0,,,,,,,,,Clear,72000.0,,,73000.0,,,,,,
KRDR,10-21-2001,09:00,METAR,,170,7.0,,,9999.0,Cloud Development Not Observable,-1.0,-3.0,29.96,1015.6,,,,0,0,0,,,,,,,,,Clear,72000.0,,,73000.0,,,,,,
KRDR,10-21-2001,08:00,METAR,,140,5.0,,,9999.0,Cloud Development Not Observable,-1.0,-2.0,29.96,1015.6,,,,0,0,0,,,,,,,,,4/8 Partly Cloudy,72000.0,,SCT,5900.0,,,,,,
KRDR,10-21-2001,07:00,METAR,,,2.0,,,9999.0,Cloud Development Not Observable,-2.0,-3.0,29.96,1015.7,,,,0,0,0,,,,,,,,,4/8 Partly Cloudy,72000.0,,SCT,5900.0,,,,,,
KRDR,10-21-2001,05:00,METAR,,50,5.0,,,9999.0,Cloud Development Not Observable,3.0,-2.0,29.95,1015.2,,,,0,0,0,,,,,,,,,4/8 Partly Cloudy,72000.0,,SCT,5900.0,SCT,25000.0,,,,
KRDR,10-21-2001,04:00,METAR,,210,3.0,,,9999.0,Cloud Development Not Observable,-1.0,-3.0,29.94,1015.1,,,,0,0,0,,,,,,,,,4/8 Partly Cloudy,72000.0,,SCT,5900.0,SCT,25000.0,,,,
KRDR,10-21-2001,03:00,METAR,,210,3.0,,,9999.0,Cloud Development Not Observable,-2.0,-4.0,29.92,1014.6,,,,0,0,0,,,,,,,,,4/8 Partly Cloudy,72000.0,,FEW,5900.0,SCT,25000.0,,,,
KRDR,10-21-2001,02:00,METAR,,290,5.0,,,9999.0,Cloud Development Not Observable,1.0,-3.0,29.91,1014.1,,,,0,0,0,,,,,,,,,4/8 Partly Cloudy,72000.0,,SCT,600.0,SCT,25000.0,,,,
KRDR,10-21-2001,01:00,METAR,,350,5.0,,,9999.0,Cloud Development Not Observable,3.0,-2.0,29.87,1013.0,,,,0,0,0,,,,,,,,,7/8 Mostly Cloudy,25000.0,,SCT,5900.0,BKN,25000.0,,,,
KRDR,10-21-2001,00:00,METAR,,300,6.0,,,9999.0,Cloud Development Not Observable,6.0,-2.0,29.86,1012.4,,,,0,0,0,,,,,,,,,7/8 Mostly Cloudy,25000.0,,SCT,5900.0,BKN,25000.0,,,,
KRDR,10-20-2001,23:00,METAR,,290,13.0,,,9999.0,Cloud Development Not Observable,9.0,-2.0,29.84,1011.5,,,,0,0,0,,,,,,,,,4/8 Partly Cloudy,72000.0,,FEW,5000.0,SCT,25000.0,,,,
KRDR,10-20-2001,22:00,METAR,,290,15.0,24.0,310/27KTS,9999.0,Cloud Development Not Observable,9.0,-3.0,29.82,1010.8,,,,0,0,0,,,,,,,,,4/8 Partly Cloudy,72000.0,,FEW,5000.0,SCT,25000.0,,,,
KRDR,10-20-2001,21:00,METAR,,300,18.0,29.0,,9999.0,Cloud Development Not Observable,11.0,-3.0,29.83,1011.1,,,,0,0,0,,,,,,,,,4/8 Partly Cloudy,72000.0,,SCT,5000.0,,,,,,
KRDR,10-20-2001,18:00,METAR,,320,18.0,24.0,,9999.0,Cloud Development Not Observable,11.0,1.0,29.80,1009.9,,,,0,0,0,,,,,,,,,4/8 Partly Cloudy,72000.0,,SCT,4000.0,SCT,8900.0,,,,
KRDR,10-20-2001,16:00,METAR,,310,10.0,,,9999.0,Cloud Development Not Observable,8.0,4.0,29.78,1009.3,,,,0,0,0,,,,,,,,,4/8 Partly Cloudy,72000.0,,FEW,5000.0,SCT,8900.0,,,,
KRDR,10-20-2001,15:00,METAR,,290,10.0,,,9999.0,Cloud Development Not Observable,7.0,3.0,29.77,1009.1,,,,0,0,0,,,,,,,,,4/8 Partly Cloudy,72000.0,,SCT,8900.0,,,,,,
KRDR,10-20-2001,14:00,METAR,,270,7.0,,,9999.0,Cloud Development Not Observable,3.0,2.0,29.75,1008.5,,,,0,0,0,,,,,,,,,4/8 Partly Cloudy,72000.0,,SCT,6900.0,,,,,,
KRDR,10-20-2001,13:00,METAR,,280,7.0,,,9999.0,Cloud Development Not Observable,1.0,0.0,29.73,1006.9,,,,0,0,0,,,,,,,,,4/8 Partly Cloudy,72000.0,,SCT,6900.0,,,,,,
KRDR,10-20-2001,12:00,METAR,,240,6.0,,,9999.0,Cloud Development Not Observable,3.0,1.0,29.70,1006.7,,,,0,0,0,,,,,,,,,4/8 Partly Cloudy,72000.0,,SCT,9900.0,,,,,,
KRDR,10-20-2001,11:00,METAR,,270,8.0,,,9999.0,Cloud Development Not Observable,3.0,2.0,29.69,1006.3,,,,0,0,0,,,,,,,,,7/8 Mostly Cloudy,10000.0,,FEW,5000.0,BKN,9900.0,,,,
KRDR,10-20-2001,10:00,METAR,,280,6.0,,,9999.0,Cloud Development Not Observable,3.0,1.0,29.68,1006.1,,,,0,0,0,,,,,,,,,4/8 Partly Cloudy,72000.0,,SCT,8900.0,,,,,,
KRDR,10-20-2001,09:00,METAR,,290,6.0,,,9999.0,Cloud Development Not Observable,3.0,1.0,29.67,1005.8,,,,0,0,0,,,,,,,,,4/8 Partly Cloudy,72000.0,,SCT,9900.0,,,,,,
KRDR,10-20-2001,08:00,METAR,,260,10.0,,,9999.0,Cloud Development Not Observable,5.0,1.0,29.67,1005.8,,,,0,0,0,,,,,,,,,4/8 Partly Cloudy,72000.0,,SCT,9900.0,,,,,,
KRDR,10-20-2001,07:00,METAR,,270,10.0,,,9999.0,Cloud Development Not Observable,7.0,1.0,29.66,1005.3,,,,0,0,0,,,,,,,,,4/8 Partly Cloudy,72000.0,,SCT,9900.0,,,,,,
KRDR,10-20-2001,06:00,METAR,,260,11.0,,,9999.0,Cloud Development Not Observable,7.0,1.0,29.65,1004.9,,,,0,0,0,,,,,,,,,4/8 Partly Cloudy,72000.0,,SCT,9900.0,,,,,,
KRDR,10-20-2001,05:00,METAR,,220,9.0,,,9999.0,Cloud Development Not Observable,6.0,1.0,29.64,1004.7,,,,0,0,0,,,,,,,,,4/8 Partly Cloudy,72000.0,,SCT,9900.0,,,,,,
KRDR,10-20-2001,04:00,METAR,,230,12.0,,,9999.0,Cloud Development Not Observable,7.0,2.0,29.66,1005.3,,,,0,0,0,,,,,,,,,4/8 Partly Cloudy,72000.0,,SCT,9900.0,,,,,,
KRDR,10-20-2001,03:00,METAR,,220,6.0,,,9999.0,Cloud Development Not Observable,5.0,1.0,29.66,1005.4,,,,0,0,0,,,,,,,,,7/8 Mostly Cloudy,10000.0,,BKN,9900.0,,,,,,
KRDR,10-20-2001,02:00,METAR,,220,6.0,,,9999.0,Cloud Development Not Observable,5.0,0.0,29.67,1006.0,,,,0,0,0,,,,,,,,,7/8 Mostly Cloudy,8000.0,,FEW,5000.0,BKN,7900.0,,,,
KRDR,10-20-2001,00:00,METAR,,270,7.0,,,9999.0,Cloud Development Not Observable,8.0,-1.0,29.69,1006.4,,,,0,0,0,,,,,,,,,4/8 Partly Cloudy,72000.0,,SCT,5900.0,,,,,,
KRDR,10-19-2001,23:00,METAR,,300,14.0,,280/26KTS,9999.0,Cloud Development Not Observable,13.0,-1.0,29.68,1005.8,,,,0,0,0,,,,,,,,,4/8 Partly Cloudy,72000.0,,SCT,5900.0,,,,,,
KRDR,10-19-2001,22:00,METAR,,270,17.0,23.0,,9999.0,Cloud Development Not Observable,13.0,-1.0,29.68,1005.9,,,,0,0,0,,,,,,,,,7/8 Mostly Cloudy,8000.0,,SCT,5000.0,BKN,7900.0,,,,
KRDR,10-19-2001,21:00,METAR,,290,18.0,23.0,290/27KTS,9999.0,Cloud Development Not Observable,13.0,0.0,29.67,1005.7,,,,0,0,0,,,,,,,,,7/8 Mostly Cloudy,8000.0,,SCT,5000.0,BKN,7900.0,,,,
KRDR,10-19-2001,20:00,METAR,,290,13.0,,,9999.0,Cloud Development Not Observable,12.0,0.0,29.68,1006.1,,,,0,0,0,,,,,,,,,7/8 Mostly Cloudy,4900.0,,BKN,5000.0,,,,,,
KRDR,10-19-2001,19:00,METAR,,260,16.0,24.0,280/27KTS,9999.0,Cloud Development Not Observable,14.0,-1.0,29.67,1006.2,,,,0,0,0,,,,,,,,,4/8 Partly Cloudy,72000.0,,SCT,5000.0,SCT,7900.0,,,,
KRDR,10-19-2001,18:00,METAR,,280,17.0,23.0,280/26KTS,9999.0,Cloud Development Not Observable,14.0,-1.0,29.69,1006.2,,,,0,0,0,,,,,,,,,7/8 Mostly Cloudy,20000.0,,FEW,4000.0,SCT,7900.0,BKN,20000.0,,
KRDR,10-19-2001,17:00,METAR,,290,15.0,,,9999.0,Cloud Development Not Observable,12.0,-1.0,29.71,1006.8,,,,0,0,0,,,,,,,,,7/8 Mostly Cloudy,20000.0,,SCT,7900.0,BKN,20000.0,,,,
KRDR,10-19-2001,15:00,METAR,,280,11.0,,,9999.0,Cloud Development Not Observable,8.0,-1.0,29.68,1006.3,,,,0,0,0,,,,,,,,,7/8 Mostly Cloudy,9000.0,,BKN,8900.0,BKN,20000.0,,,,
KRDR,10-19-2001,14:00,METAR,,280,9.0,,,9999.0,Cloud Development Not Observable,7.0,-2.0,29.66,1005.6,,,,0,0,0,,,,,,,,,7/8 Mostly Cloudy,20000.0,,SCT,8900.0,BKN,20000.0,,,,
KRDR,10-19-2001,13:00,METAR,,270,12.0,,,9999.0,Cloud Development Not Observable,6.0,-3.0,29.64,1004.8,,,,0,0,0,,,,,,,,,7/8 Mostly Cloudy,10000.0,,BKN,9900.0,BKN,20000.0,,,,
KRDR,10-19-2001,11:55,METAR,,270,14.0,,,9999.0,Cloud Development Not Observable,6.0,-3.0,29.62,1004.2,,,,0,0,0,,,,,,,,,4/8 Partly Cloudy,72000.0,,SCT,9900.0,SCT,20000.0,,,,
KRDR,10-19-2001,11:00,METAR,,260,12.0,,,9999.0,Cloud Development Not Observable,7.0,-3.0,29.62,1003.8,,,,0,0,0,,,,,,,,,7/8 Mostly Cloudy,10000.0,,BKN,9900.0,BKN,20000.0,,,,
KRDR,10-19-2001,10:00,METAR,,240,10.0,,,9999.0,Cloud Development Not Observable,6.0,-3.0,29.62,1004.0,,,,0,0,0,,,,,,,,,7/8 Mostly Cloudy,20000.0,,SCT,9900.0,BKN,20000.0,,,,
KRDR,10-19-2001,09:00,METAR,,240,10.0,,,9999.0,Cloud Development Not Observable,6.0,-3.0,29.64,1004.5,,,,0,0,0,,,,,,,,,7/8 Mostly Cloudy,20000.0,,SCT,9900.0,BKN,20000.0,,,,
KRDR,10-19-2001,08:00,METAR,,230,12.0,,,9999.0,Cloud Development Not Observable,6.0,-3.0,29.65,1004.8,,,,0,0,0,,,,,,,,,7/8 Mostly Cloudy,20000.0,,SCT,9900.0,BKN,20000.0,,,,
KRDR,10-19-2001,07:00,METAR,,240,11.0,,,9999.0,Cloud Development Not Observable,5.0,-3.0,29.66,1005.2,,,,0,0,0,,,,,,,,,7/8 Mostly Cloudy,20000.0,,SCT,9900.0,BKN,20000.0,,,,
KRDR,10-19-2001,05:55,METAR,,240,12.0,,,9999.0,Cloud Development Not Observable,6.0,-3.0,29.67,1005.7,,,,0,0,0,,,,,,,,,7/8 Mostly Cloudy,20000.0,,SCT,9900.0,BKN,20000.0,,,,
KRDR,10-19-2001,05:00,METAR,,230,10.0,,,9999.0,Cloud Development Not Observable,6.0,-2.0,29.70,1006.5,,,,0,0,0,,,,,,,,,7/8 Mostly Cloudy,20000.0,,SCT,9900.0,BKN,20000.0,,,,
KRDR,10-19-2001,04:00,METAR,,220,9.0,,,9999.0,Cloud Development Not Observable,3.0,-2.0,29.71,1007.1,,,,0,0,0,,,,,,,,,4/8 Partly Cloudy,72000.0,,FEW,7900.0,SCT,20000.0,,,,
KRDR,10-19-2001,03:00,METAR,,220,9.0,,,9999.0,Cloud Development Not Observable,4.0,-3.0,29.73,1007.7,,,,0,0,0,,,,,,,,,4/8 Partly Cloudy,72000.0,,FEW,7900.0,SCT,20000.0,,,,
KRDR,10-19-2001,01:00,METAR,,200,7.0,,,9999.0,Cloud Development Not Observable,3.0,-3.0,29.76,1009.0,,,,0,0,0,,,,,,,,,2/8 Mostly Clear,72000.0,,FEW,6900.0,FEW,20000.0,,,,
KRDR,10-19-2001,00:00,METAR,,240,7.0,,,9999.0,Cloud Development Not Observable,7.0,-4.0,29.76,1008.7,,,,0,0,0,,,,,,,,,2/8 Mostly Clear,72000.0,,FEW,6900.0,FEW,20000.0,,,,
KRDR,10-18-2001,23:00,METAR,,270,13.0,,,9999.0,Cloud Development Not Observable,11.0,-4.0,29.77,1008.9,,,,0,0,0,,,,,,,,,2/8 Mostly Clear,72000.0,,FEW,7900.0,FEW,20000.0,,,,
KRDR,10-18-2001,22:00,METAR,,290,17.0,24.0,270/25KTS,9999.0,Cloud Development Not Observable,12.0,-5.0,29.78,1009.4,,,,0,0,0,,,,,,,,,2/8 Mostly Clear,72000.0,,FEW,3000.0,FEW,20000.0,,,,
KRDR,10-18-2001,21:00,METAR,,290,15.0,22.0,280/25KTS,9999.0,Cloud Development Not Observable,13.0,-6.0,29.79,1009.5,,,,0,0,0,,,,,,,,,2/8 Mostly Clear,72000.0,,FEW,3000.0,,,,,,
KRDR,10-18-2001,20:00,METAR,,290,17.0,,,9999.0,Cloud Development Not Observable,13.0,-5.0,29.80,1009.8,,,,0,0,0,,,,,,,,,2/8 Mostly Clear,72000.0,,FEW,3000.0,,,,,,
KRDR,10-18-2001,19:37,SPECI,,290,15.0,21.0,,9999.0,Cloud Development Not Observable,13.0,-5.0,29.80,,,,,0,0,0,,,,,,,,,2/8 Mostly Clear,72000.0,,FEW,3000.0,,,,,,
KRDR,10-18-2001,19:00,METAR,,300,19.0,24.0,300/28KTS,9999.0,Cloud Development Not Observable,13.0,-4.0,29.82,1010.7,,,,0,0,0,,,,,,,,,2/8 Mostly Clear,72000.0,,FEW,100.0,FEW,3000.0,,,,
KRDR,10-18-2001,18:00,METAR,,290,18.0,23.0,300/29KTS,9999.0,Cloud Development Not Observable,12.0,-4.0,29.84,1011.4,,,,0,0,0,,,,,,,,,Clear,72000.0,,,73000.0,,,,,,
KRDR,10-18-2001,17:00,METAR,,290,16.0,,,9999.0,Cloud Development Not Observable,11.0,-3.0,29.85,1011.7,,,,0,0,0,,,,,,,,,2/8 Mostly Clear,72000.0,,FEW,12000.0,FEW,20000.0,,,,
KRDR,10-18-2001,16:00,METAR,,280,12.0,,,9999.0,Cloud Development Not Observable,9.0,-2.0,29.85,1011.8,,,,0,0,0,,,,,,,,,2/8 Mostly Clear,72000.0,,FEW,12000.0,FEW,20000.0,,,,
KRDR,10-18-2001,15:00,METAR,,280,15.0,,,9999.0,Cloud Development Not Observable,6.0,-2.0,29.85,1011.7,,,,0,0,0,,,,,,,,,4/8 Partly Cloudy,72000.0,,SCT,12000.0,SCT,20000.0,,,,
KRDR,10-18-2001,14:00,METAR,,290,11.0,,,9999.0,Cloud Development Not Observable,6.0,-2.0,29.84,1011.4,,,,0,0,0,,,,,,,,,7/8 Mostly Cloudy,12000.0,,BKN,12000.0,BKN,20000.0,,,,
KRDR,10-18-2001,13:00,METAR,,280,11.0,,,9999.0,Cloud Development Not Observable,6.0,-2.0,29.82,1010.8,,,,0,0,0,,,,,,,,,8/8 Overcast,12000.0,,BKN,12000.0,OVC,20000.0,,,,
KRDR,10-18-2001,12:00,METAR,,280,7.0,,,9999.0,Cloud Development Not Observable,5.0,0.0,29.83,1011.0,,,,0,0,0,,,,,,,,,7/8 Mostly Cloudy,25000.0,,SCT,12000.0,BKN,25000.0,,,,
KRDR,10-18-2001,11:00,METAR,,270,7.0,,,9999.0,Cloud Development Not Observable,5.0,0.0,29.83,1011.0,,,,0,0,0,,,,,,,,,7/8 Mostly Cloudy,25000.0,,SCT,12000.0,BKN,25000.0,,,,
KRDR,10-18-2001,10:00,METAR,,280,8.0,,,9999.0,Cloud Development Not Observable,7.0,0.0,29.82,1010.7,,,,0,0,0,,,,,,,,,7/8 Mostly Cloudy,25000.0,,SCT,12000.0,BKN,25000.0,,,,
KRDR,10-18-2001,09:00,METAR,,290,8.0,,,9999.0,Cloud Development Not Observable,8.0,0.0,29.81,1010.3,,,,0,0,0,,,,,,,,,7/8 Mostly Cloudy,25000.0,,SCT,12000.0,BKN,25000.0,,,,
KRDR,10-18-2001,08:00,METAR,,280,7.0,,,9999.0,Cloud Development Not Observable,8.0,1.0,29.82,1010.5,,,,0,0,0,,,,,,,,,7/8 Mostly Cloudy,25000.0,,FEW,7900.0,SCT,12000.0,BKN,25000.0,,
KRDR,10-18-2001,07:00,METAR,,300,10.0,,,9999.0,Cloud Development Not Observable,9.0,1.0,29.80,1009.8,,,,0,0,0,,,,,,,,,7/8 Mostly Cloudy,12000.0,,FEW,7900.0,BKN,12000.0,BKN,25000.0,,
KRDR,10-18-2001,06:00,METAR,,310,10.0,,,9999.0,Cloud Development Not Observable,10.0,1.0,29.80,1009.8,,,,0,0,0,,,,,,,,,7/8 Mostly Cloudy,25000.0,,FEW,7900.0,SCT,12000.0,BKN,25000.0,,
KRDR,10-18-2001,05:00,METAR,,290,13.0,,,9999.0,Cloud Development Not Observable,11.0,1.0,29.83,1010.9,,,,0,0,0,,,,,,,,,7/8 Mostly Cloudy,25000.0,,FEW,9900.0,SCT,15000.0,BKN,25000.0,,
KRDR,10-18-2001,04:00,METAR,,320,11.0,,,9999.0,Cloud Development Not Observable,12.0,2.0,29.80,1010.0,,,,0,0,0,,,,,,,,,7/8 Mostly Cloudy,25000.0,,SCT,15000.0,BKN,25000.0,,,,
KRDR,10-18-2001,03:00,METAR,,300,10.0,,,9999.0,Cloud Development Not Observable,12.0,3.0,29.78,1009.2,,,,0,0,0,,,,,,,,,7/8 Mostly Cloudy,25000.0,,SCT,15000.0,BKN,25000.0,,,,
KRDR,10-18-2001,02:00,METAR,,220,7.0,,,9999.0,Cloud Development Not Observable,11.0,4.0,29.76,1008.6,,,,0,0,0,,,,,,,,,7/8 Mostly Cloudy,25000.0,,SCT,15000.0,BKN,25000.0,,,,
KRDR,10-18-2001,01:00,METAR,,270,5.0,,,9999.0,Cloud Development Not Observable,12.0,3.0,29.75,1008.5,,,,0,0,0,,,,,,,,,7/8 Mostly Cloudy,25000.0,,SCT,15000.0,BKN,25000.0,,,,
KRDR,10-17-2001,23:55,METAR,,180,11.0,,,9999.0,Cloud Development Not Observable,13.0,2.0,29.73,1007.8,,,,0,0,0,,,,,,,,,7/8 Mostly Cloudy,25000.0,,SCT,15000.0,BKN,25000.0,,,,
KRDR,10-17-2001,23:00,METAR,,180,10.0,,,9999.0,Cloud Development Not Observable,13.0,2.0,29.73,1007.8,,,,0,0,0,,,,,,,,,7/8 Mostly Cloudy,20000.0,,SCT,15000.0,BKN,20000.0,,,,
KRDR,10-17-2001,22:00,METAR,,180,16.0,,,9999.0,Cloud Development Not Observable,14.0,2.0,29.72,1007.4,,,,0,0,0,,,,,,,,,7/8 Mostly Cloudy,15000.0,,BKN,15000.0,BKN,20000.0,,,,
KRDR,10-17-2001,21:00,METAR,,170,19.0,25.0,170/26KTS,9999.0,Cloud Development Not Observable,14.0,2.0,29.73,1007.7,,,,0,0,0,,,,,,,,,7/8 Mostly Cloudy,20000.0,,SCT,15000.0,BKN,20000.0,,,,
KRDR,10-17-2001,20:00,METAR,,160,16.0,26.0,160/26KTS,9999.0,Cloud Development Not Observable,13.0,1.0,29.74,1007.9,,,,0,0,0,,,,,,,,,7/8 Mostly Cloudy,12000.0,,BKN,12000.0,BKN,25000.0,,,,
KRDR,10-17-2001,19:00,METAR,,180,16.0,22.0,,9999.0,Cloud Development Not Observable,12.0,0.0,29.79,1009.6,,,,0,0,0,,,,,,,,,4/8 Partly Cloudy,72000.0,,SCT,15000.0,SCT,25000.0,,,,
KRDR,10-17-2001,17:55,METAR,,170,21.0,27.0,170/28KTS,9999.0,Cloud Development Not Observable,11.0,0.0,29.83,1011.1,,,,0,0,0,,,,,,,,,2/8 Mostly Clear,72000.0,,FEW,25000.0,,,,,,
KRDR,10-17-2001,17:00,METAR,,170,18.0,26.0,170/31KTS,9999.0,Cloud Development Not Observable,10.0,-1.0,29.85,1012.0,,,,0,0,0,,,,,,,,,2/8 Mostly Clear,72000.0,,FEW,25000.0,,,,,,
KRDR,10-17-2001,16:00,METAR,,170,21.0,26.0,160/29KTS,9999.0,Cloud Development Not Observable,9.0,-1.0,29.86,1012.4,,,,0,0,0,,,,,,,,,2/8 Mostly Clear,72000.0,,FEW,25000.0,,,,,,
KRDR,10-17-2001,15:00,METAR,,170,19.0,25.0,170/27KTS,9999.0,Cloud Development Not Observable,6.0,-1.0,29.91,1013.9,,,,0,0,0,,,,,,,,,2/8 Mostly Clear,72000.0,,FEW,25000.0,,,,,,
KRDR,10-17-2001,13:00,METAR,,160,14.0,,,9999.0,Cloud Development Not Observable,2.0,-1.0,29.97,1016.1,,,,0,0,0,,,,,,,,,2/8 Mostly Clear,72000.0,,FEW,12000.0,FEW,25000.0,,,,
KRDR,10-17-2001,12:00,METAR,,150,10.0,,,9999.0,Cloud Development Not Observable,2.0,-1.0,30.01,1017.4,,,,0,0,0,,,,,,,,,4/8 Partly Cloudy,72000.0,,FEW,12000.0,SCT,25000.0,,,,
KRDR,10-17-2001,11:00,METAR,,160,14.0,,,9999.0,Cloud Development Not Observable,2.0,-1.0,30.03,1018.1,,,,0,0,0,,,,,,,,,4/8 Partly Cloudy,72000.0,,FEW,12000.0,SCT,25000.0,,,,
KRDR,10-17-2001,10:00,METAR,,170,15.0,,,9999.0,Cloud Development Not Observable,2.0,-1.0,30.06,1019.1,,,,0,0,0,,,,,,,,,7/8 Mostly Cloudy,25000.0,,FEW,12000.0,BKN,25000.0,,,,
KRDR,10-17-2001,09:00,METAR,,170,12.0,,,9999.0,Cloud Development Not Observable,3.0,-1.0,30.10,1020.3,,,,0,0,0,,,,,,,,,7/8 Mostly Cloudy,25000.0,,FEW,12000.0,BKN,25000.0,,,,
KRDR,10-17-2001,06:00,METAR,,180,13.0,,,9999.0,Cloud Development Not Observable,4.0,-1.0,30.16,1022.5,,,,0,0,0,,,,,,,,,7/8 Mostly Cloudy,25000.0,,SCT,12000.0,BKN,25000.0,,,,
KRDR,10-17-2001,05:00,METAR,,170,11.0,,,9999.0,Cloud Development Not Observable,3.0,-2.0,30.17,1023.1,,,,0,0,0,,,,,,,,,7/8 Mostly Cloudy,25000.0,,SCT,12000.0,BKN,25000.0,,,,
KRDR,10-17-2001,04:00,METAR,,160,10.0,,,9999.0,Cloud Development Not Observable,3.0,-2.0,30.18,1023.2,,,,0,0,0,,,,,,,,,2/8 Mostly Clear,72000.0,,FEW,12000.0,FEW,25000.0,,,,
KRDR,10-17-2001,02:00,METAR,,160,8.0,,,9999.0,Cloud Development Not Observable,4.0,-2.0,30.20,1024.0,,,,0,0,0,,,,,,,,,2/8 Mostly Clear,72000.0,,FEW,12000.0,,,,,,
KRDR,10-17-2001,01:00,METAR,,140,7.0,,,9999.0,Cloud Development Not Observable,5.0,-3.0,30.21,1024.5,,,,0,0,0,,,,,,,,,2/8 Mostly Clear,72000.0,,FEW,12000.0,,,,,,
KRDR,10-17-2001,00:00,METAR,,150,4.0,,,9999.0,Cloud Development Not Observable,6.0,-4.0,30.24,1025.6,,,,0,0,0,,,,,,,,,2/8 Mostly Clear,72000.0,,FEW,12000.0,,,,,,
KRDR,10-16-2001,23:00,METAR,,180,4.0,,,9999.0,Cloud Development Not Observable,8.0,-4.0,30.24,1025.6,,,,0,0,0,,,,,,,,,2/8 Mostly Clear,72000.0,,FEW,12000.0,,,,,,
KRDR,10-16-2001,22:00,METAR,,100,4.0,,,9999.0,Cloud Development Not Observable,9.0,-4.0,30.25,1025.7,,,,0,0,0,,,,,,,,,2/8 Mostly Clear,72000.0,,FEW,4500.0,FEW,12000.0,,,,
KRDR,10-16-2001,21:00,METAR,,220,9.0,,,9999.0,Cloud Development Not Observable,9.0,-4.0,30.27,1026.1,,,,0,0,0,,,,,,,,,4/8 Partly Cloudy,72000.0,,FEW,4500.0,SCT,12000.0,,,,
KRDR,10-16-2001,20:00,METAR,,240,7.0,,,9999.0,Cloud Development Not Observable,8.0,-3.0,30.28,1026.5,,,,0,0,0,,,,,,,,,4/8 Partly Cloudy,72000.0,,SCT,4500.0,SCT,12000.0,,,,
KRDR,10-16-2001,19:00,METAR,,310,6.0,,,9999.0,Cloud Development Not Observable,7.0,-3.0,30.30,1027.4,,,,0,0,0,,,,,,,,,4/8 Partly Cloudy,72000.0,,SCT,4500.0,,,,,,
KRDR,10-16-2001,18:00,METAR,,330,7.0,,,9999.0,Cloud Development Not Observable,6.0,-4.0,30.32,1028.1,,,,0,0,0,,,,,,,,,4/8 Partly Cloudy,72000.0,,SCT,3500.0,,,,,,
KRDR,10-16-2001,17:00,METAR,,,2.0,,,9999.0,Cloud Development Not Observable,6.0,-2.0,30.33,1028.3,,,,0,0,0,,,,,,,,,2/8 Mostly Clear,72000.0,,FEW,3500.0,,,,,,
KRDR,10-16-2001,16:00,METAR,,290,5.0,,,9999.0,Cloud Development Not Observable,5.0,0.0,30.34,1028.7,,,,0,0,0,,,,,,,,,2/8 Mostly Clear,72000.0,,FEW,25000.0,,,,,,
KRDR,10-16-2001,15:00,METAR,Normal,290,9.0,,,9999.0,Cloud Development Not Observable,3.0,0.0,30.24,1028.7,,,,0,0,0,,,,,,,,,,72000.0,,,,,,,,,
KRDR,10-16-2001,14:00,METAR,,280,9.0,,,9999.0,Cloud Development Not Observable,0.0,-1.0,30.32,1028.1,,,,0,0,0,,,,,,,,,2/8 Mostly Clear,72000.0,,FEW,6900.0,,,,,,
KRDR,10-16-2001,13:00,METAR,,280,9.0,,,9999.0,Cloud Development Not Observable,-3.0,-3.0,30.31,1027.9,,,,0,0,0,,,,,,,,,2/8 Mostly Clear,72000.0,,FEW,6900.0,,,,,,
KRDR,10-16-2001,12:00,METAR,,280,8.0,,,9999.0,Cloud Development Not Observable,-3.0,-3.0,30.30,1027.7,,,,0,0,0,,,,,,,,,Clear,72000.0,,,73000.0,,,,,,
KRDR,10-16-2001,09:00,METAR,,300,8.0,,,9999.0,Cloud Development Not Observable,0.0,0.0,30.27,1026.3,,,,0,0,0,,,,,,,,,2/8 Mostly Clear,72000.0,,FEW,6900.0,,,,,,
KRDR,10-16-2001,07:00,METAR,,310,10.0,,,9999.0,Cloud Development Not Observable,3.0,0.0,30.24,1025.3,,,,0,0,0,,,,,,,,,7/8 Mostly Cloudy,7000.0,,BKN,6900.0,,,,,,
KRDR,10-16-2001,06:00,METAR,,300,12.0,,,9999.0,Cloud Development Not Observable,3.0,0.0,30.23,1024.9,,,,0,0,0,,,,,,,,,7/8 Mostly Cloudy,7000.0,,BKN,6900.0,,,,,,
KRDR,10-16-2001,05:00,METAR,,300,13.0,,,9999.0,Cloud Development Not Observable,3.0,1.0,30.22,1024.6,,,,0,0,0,,,,,,,,,7/8 Mostly Cloudy,7000.0,,BKN,6900.0,,,,,,
KRDR,10-16-2001,04:00,METAR,,300,12.0,,,9999.0,Cloud Development Not Observable,3.0,1.0,30.21,1024.3,,,,0,0,0,,,,,,,,,Clear,72000.0,,,73000.0,,,,,,
KRDR,10-16-2001,03:00,METAR,,290,9.0,,,9999.0,Cloud Development Not Observable,3.0,0.0,30.20,1023.9,,,,0,0,0,,,,,,,,,Clear,72000.0,,,73000.0,,,,,,
KRDR,10-16-2001,02:00,METAR,,320,9.0,,,9999.0,Cloud Development Not Observable,4.0,2.0,30.19,1023.6,,,,0,0,0,,,,,,,,,7/8 Mostly Cloudy,7000.0,,FEW,2500.0,BKN,6900.0,,,,
KRDR,10-16-2001,01:00,METAR,,300,6.0,,,9999.0,Cloud Development Not Observable,3.0,3.0,30.18,1023.3,,,,0,0,0,,,,,,,,,7/8 Mostly Cloudy,7000.0,,SCT,2500.0,BKN,6900.0,,,,
KRDR,10-16-2001,00:00,METAR,,340,10.0,,,9999.0,Cloud Development Not Observable,4.0,2.0,30.15,1022.2,,,,0,0,0,,,,,,,,,7/8 Mostly Cloudy,6000.0,,SCT,2000.0,SCT,3500.0,BKN,5900.0,,
KRDR,10-15-2001,23:38,SPECI,,340,13.0,,,9999.0,Cloud Development Not Observable,4.0,2.0,30.14,,,,,0,0,0,,,,,,,,,7/8 Mostly Cloudy,6000.0,,SCT,2000.0,SCT,3500.0,BKN,5900.0,,
KRDR,10-15-2001,23:30,METAR,,310,18.0,,,9999.0,Snow Grains/Cloud Development Not Observable,4.0,2.0,30.14,,,,,77,0,0,,,,,,,,,7/8 Mostly Cloudy,3400.0,,SCT,2000.0,BKN,3500.0,BKN,5900.0,,
KRDR,10-15-2001,23:24,SPECI,,330,21.0,,,9999.0,Light Rain Showers/Cloud Development Not Observable,5.0,2.0,30.11,,,,,80,0,0,,,,,,,,,7/8 Mostly Cloudy,6000.0,,SCT,2500.0,BKN,5900.0,BKN,20000.0,,
KRDR,10-15-2001,23:00,METAR,,310,17.0,,,9999.0,Cloud Development Not Observable,7.0,2.0,30.11,1020.8,,,,0,0,0,,,,,,,,,7/8 Mostly Cloudy,6000.0,,BKN,5900.0,BKN,20000.0,,,,
KRDR,10-15-2001,22:00,METAR,,310,17.0,22.0,,9999.0,Cloud Development Not Observable,6.0,2.0,30.09,1020.3,,,,0,0,0,,,,,,,,,7/8 Mostly Cloudy,4900.0,,SCT,2000.0,BKN,5000.0,,,,
KRDR,10-15-2001,21:25,SPECI,,310,15.0,,,9999.0,Cloud Development Not Observable,6.0,3.0,30.09,,,,,0,0,0,,,,,,,,,,3400.0,,BKN,3500.0,BKN,5900.0,,,,
KRDR,10-15-2001,21:00,METAR,,320,12.0,,,9999.0,Light Rain Showers/Cloud Development Not Observable,5.0,3.0,30.10,1020.4,,,,80,0,0,,,,,,,,,7/8 Mostly Cloudy,3600.0,,SCT,1500.0,BKN,3700.0,BKN,5900.0,,
KRDR,10-15-2001,20:19,SPECI,,310,20.0,28.0,,9999.0,Light Rain Showers/Cloud Development Not Observable,6.0,1.0,30.09,,,,,80,0,0,,,,,,,,,8/8 Overcast,3600.0,,SCT,2000.0,BKN,3700.0,OVC,5900.0,,
KRDR,10-15-2001,20:00,METAR,,300,18.0,25.0,,9999.0,Cloud Development Not Observable,7.0,-1.0,30.08,1019.6,,,,0,0,0,,,,,,,,,7/8 Mostly Cloudy,3900.0,,FEW,2100.0,BKN,4000.0,BKN,5900.0,,
KRDR,10-15-2001,19:00,METAR,,300,18.0,28.0,310/30KTS,9999.0,Cloud Development Not Observable,7.0,-1.0,30.07,1019.4,,,,0,0,0,,,,,,,,,7/8 Mostly Cloudy,3900.0,,FEW,2100.0,BKN,4000.0,,,,
KRDR,10-15-2001,18:00,METAR,,300,25.0,30.0,,9999.0,Cloud Development Not Observable,7.0,0.0,30.06,1019.2,,,,0,0,0,,,,,,,,,7/8 Mostly Cloudy,3900.0,,FEW,2100.0,BKN,4000.0,,,,
KRDR,10-15-2001,17:00,METAR,,300,23.0,28.0,300/28KTS,9999.0,Cloud Development Not Observable,7.0,2.0,30.04,1018.5,,,,0,0,0,,,,,,,,,7/8 Mostly Cloudy,3900.0,,SCT,2100.0,BKN,4000.0,,,,
KRDR,10-15-2001,16:00,METAR,,310,17.0,23.0,,9999.0,Cloud Development Not Observable,6.0,2.0,30.04,1018.3,,,,0,0,0,,,,,,,,,8/8 Overcast,3600.0,,SCT,2100.0,BKN,3700.0,OVC,20000.0,,
KRDR,10-15-2001,15:00,METAR,,310,19.0,25.0,290/26KTS,9999.0,Cloud Development Not Observable,6.0,3.0,30.01,1017.2,,,,0,0,0,,,,,,,,,7/8 Mostly Cloudy,20000.0,,FEW,3000.0,FEW,15000.0,BKN,20000.0,,
KRDR,10-15-2001,14:00,METAR,,290,16.0,,,9999.0,Cloud Development Not Observable,4.0,2.0,30.00,1016.7,,,,0,0,0,,,,,,,,,4/8 Partly Cloudy,72000.0,,FEW,15000.0,SCT,25000.0,,,,
KRDR,10-15-2001,13:00,METAR,,290,15.0,,,9999.0,Cloud Development Not Observable,4.0,3.0,29.98,,,,,0,0,0,,,,,,,,,4/8 Partly Cloudy,72000.0,,SCT,15000.0,,,,,,
KRDR,10-15-2001,12:00,METAR,,290,13.0,,,9999.0,Cloud Development Not Observable,5.0,4.0,29.96,,,,,0,0,0,,,,,,,,,7/8 Mostly Cloudy,15000.0,,FEW,3000.0,BKN,15000.0,,,,
KRDR,10-15-2001,11:00,METAR,,310,13.0,,,9999.0,Cloud Development Not Observable,5.0,4.0,29.93,1014.7,,,,0,0,0,,,,,,,,,4/8 Partly Cloudy,72000.0,,FEW,3000.0,SCT,15000.0,,,,
KRDR,10-15-2001,10:00,METAR,,310,11.0,,,9999.0,Cloud Development Not Observable,5.0,5.0,29.90,1013.6,,,,0,0,0,,,,,,,,,2/8 Mostly Clear,72000.0,,FEW,3000.0,FEW,15000.0,,,,
KRDR,10-15-2001,09:00,METAR,,300,10.0,,,9999.0,Cloud Development Not Observable,6.0,6.0,29.88,1012.9,,,,0,0,0,,,,,,,,,7/8 Mostly Cloudy,6000.0,,FEW,3000.0,BKN,5900.0,BKN,15000.0,,
KRDR,10-15-2001,07:00,METAR,,290,12.0,,,9999.0,Cloud Development Not Observable,6.0,5.0,29.83,1011.1,,,,0,0,0,,,,,,,,,8/8 Overcast,4400.0,,BKN,4500.0,OVC,9900.0,,,,
KRDR,10-15-2001,05:24,SPECI,,290,13.0,,,9999.0,Cloud Development Not Observable,6.0,5.0,29.79,,,,,0,0,0,,,,,,,,,8/8 Overcast,3400.0,,BKN,3500.0,OVC,9900.0,,,,
KRDR,10-15-2001,05:00,METAR,,290,11.0,,,9999.0,Light Rain Showers/Cloud Development Not Observable,6.0,5.0,29.77,1009.2,,,,80,0,0,,,,,,,,,7/8 Mostly Cloudy,3400.0,,FEW,2000.0,BKN,3500.0,BKN,9900.0,,
KRDR,10-15-2001,04:00,METAR,,300,17.0,,,9999.0,Light Rain Showers/Cloud Development Not Observable,7.0,6.0,29.76,1008.6,,,,80,0,0,,,,,,,,,8/8 Overcast,3400.0,,BKN,3500.0,OVC,7900.0,,,,
KRDR,10-15-2001,02:00,METAR,,290,10.0,,,9999.0,Cloud Development Not Observable,6.0,5.0,29.73,1007.7,,,,0,0,0,,,,,,,,,7/8 Mostly Cloudy,6000.0,,SCT,3300.0,BKN,5900.0,BKN,15000.0,,
KRDR,10-15-2001,01:00,METAR,,290,11.0,,,9999.0,Cloud Development Not Observable,6.0,5.0,29.70,1005.9,,,,0,0,0,,,,,,,,,8/8 Overcast,3200.0,,FEW,2500.0,BKN,3300.0,OVC,9900.0,,
KRDR,10-15-2001,00:21,SPECI,,300,16.0,,,9999.0,Cloud Development Not Observable,6.0,5.0,29.67,,,,,0,0,0,,,,,,,,,7/8 Mostly Cloudy,3400.0,,SCT,2500.0,BKN,3500.0,BKN,15000.0,,
KRDR,10-15-2001,00:00,METAR,,300,13.0,,,9999.0,Cloud Development Not Observable,7.0,5.0,29.66,1005.4,,,,0,0,0,,,,,,,,,7/8 Mostly Cloudy,2500.0,,BKN,2500.0,BKN,5900.0,BKN,25000.0,,
KRDR,10-14-2001,23:00,METAR,,290,17.0,23.0,,9999.0,Cloud Development Not Observable,7.0,6.0,29.63,1004.3,,,,0,0,0,,,,,,,,,8/8 Overcast,2500.0,,BKN,2500.0,OVC,5400.0,,,,
KRDR,10-14-2001,22:00,METAR,,290,16.0,,,9999.0,Cloud Development Not Observable,8.0,6.0,29.59,1003.0,,,,0,0,0,,,,,,,,,8/8 Overcast,2800.0,,BKN,2800.0,OVC,5400.0,,,,
KRDR,10-14-2001,21:19,SPECI,,290,18.0,,,9999.0,Cloud Development Not Observable,8.0,7.0,29.59,,,,,0,0,0,,,,,,,,,8/8 Overcast,2400.0,,BKN,2400.0,OVC,5400.0,,,,
KRDR,10-14-2001,21:00,METAR,,290,15.0,,290/25KTS,9999.0,Light Rain Showers/Cloud Development Not Observable,8.0,7.0,29.58,1002.5,,,,80,0,0,,,,,,,,,8/8 Overcast,2200.0,,BKN,2200.0,OVC,5000.0,,,,
KRDR,10-14-2001,20:49,SPECI,,290,15.0,,,9999.0,Light Rain Showers/Cloud Development Not Observable,8.0,7.0,29.58,,,,,80,0,0,,,,,,,,,8/8 Overcast,2200.0,,BKN,2200.0,OVC,5000.0,,,,
KRDR,10-14-2001,20:00,METAR,,290,15.0,,,9999.0,Cloud Development Not Observable,8.0,5.0,29.56,1002.0,,,,0,0,0,,,,,,,,,8/8 Overcast,2200.0,,BKN,2200.0,OVC,5000.0,,,,
KRDR,10-14-2001,14:28,SPECI,,290,11.0,,,9999.0,Cloud Development Not Observable,6.0,6.0,29.51,,,,,0,0,0,,,,,,,,,7/8 Mostly Cloudy,6500.0,,SCT,3500.0,BKN,6400.0,BKN,11000.0,,
KRDR,10-14-2001,14:20,METAR,,290,11.0,,,9999.0,Light Rain Showers/Cloud Development Not Observable,6.0,6.0,29.51,,,,,80,0,0,,,,,,,,,7/8 Mostly Cloudy,11000.0,,SCT,4500.0,BKN,11000.0,,,,
KRDR,10-14-2001,14:00,METAR,,290,16.0,,,9999.0,Light Rain Showers/Cloud Development Not Observable,6.0,6.0,29.50,999.9,,,,80,0,0,,,,,,,,,7/8 Mostly Cloudy,6500.0,,FEW,2500.0,SCT,4000.0,BKN,6400.0,BKN,12000.0
KRDR,10-14-2001,12:12,SPECI,,290,15.0,,,9999.0,Light Rain Showers/Cloud Development Not Observable,6.0,5.0,29.45,,,,,80,0,0,,,,,,,,,7/8 Mostly Cloudy,6000.0,,FEW,3800.0,BKN,5900.0,,,,
KRDR,10-14-2001,11:00,METAR,,290,15.0,,,9999.0,Cloud Development Not Observable,6.0,5.0,29.42,997.1,,,,0,0,0,,,,,,,,,7/8 Mostly Cloudy,9500.0,,BKN,9400.0,,,,,,
KRDR,10-14-2001,09:00,METAR,,290,11.0,,,9999.0,Cloud Development Not Observable,6.0,5.0,29.40,996.4,,,,0,0,0,,,,,,,,,4/8 Partly Cloudy,72000.0,,SCT,9900.0,,,,,,
KRDR,10-14-2001,08:00,METAR,,290,13.0,,,9999.0,Cloud Development Not Observable,7.0,5.0,29.40,996.4,,,,0,0,0,,,,,,,,,7/8 Mostly Cloudy,10000.0,,FEW,5900.0,BKN,9900.0,,,,
KRDR,10-14-2001,07:00,METAR,,280,11.0,,,9999.0,Cloud Development Not Observable,7.0,6.0,29.41,996.5,,,,0,0,0,,,,,,,,,7/8 Mostly Cloudy,10000.0,,FEW,5900.0,BKN,9900.0,,,,
KRDR,10-14-2001,06:00,METAR,,290,13.0,,,9999.0,Cloud Development Not Observable,8.0,6.0,29.41,996.5,,,,0,0,0,,,,,,,,,8/8 Overcast,9000.0,,SCT,5900.0,OVC,8900.0,,,,
KRDR,10-14-2001,05:00,METAR,,280,11.0,,,9999.0,Cloud Development Not Observable,9.0,7.0,29.42,996.8,,,,0,0,0,,,,,,,,,8/8 Overcast,9500.0,,SCT,5900.0,OVC,9400.0,,,,
KRDR,10-14-2001,04:00,METAR,,280,9.0,,,9999.0,Cloud Development Not Observable,8.0,7.0,29.41,996.6,,,,0,0,0,,,,,,,,,7/8 Mostly Cloudy,10000.0,,BKN,9900.0,BKN,20000.0,,,,
KRDR,10-14-2001,03:00,METAR,,270,9.0,,,9999.0,Cloud Development Not Observable,9.0,7.0,29.41,996.7,,,,0,0,0,,,,,,,,,8/8 Overcast,9000.0,,SCT,6400.0,OVC,8900.0,,,,
KRDR,10-14-2001,02:00,METAR,,280,7.0,,,9999.0,Cloud Development Not Observable,9.0,7.0,29.40,996.7,,,,0,0,0,,,,,,,,,8/8 Overcast,9500.0,,SCT,5400.0,BKN,9400.0,OVC,20000.0,,
KRDR,10-14-2001,01:00,METAR,,260,6.0,,,9999.0,Cloud Development Not Observable,10.0,6.0,29.42,997.2,,,,0,0,0,,,,,,,,,7/8 Mostly Cloudy,6000.0,,BKN,5900.0,BKN,12000.0,BKN,20000.0,,
KRDR,10-13-2001,23:00,METAR,,250,9.0,,,9999.0,Cloud Development Not Observable,12.0,4.0,29.41,997.1,,,,0,0,0,,,,,,,,,7/8 Mostly Cloudy,12000.0,,SCT,5000.0,BKN,12000.0,BKN,20000.0,,
KRDR,10-13-2001,21:00,METAR,,240,12.0,,,9999.0,Cloud Development Not Observable,13.0,2.0,29.41,996.7,,,,0,0,0,,,,,,,,,7/8 Mostly Cloudy,5500.0,,BKN,5400.0,BKN,11000.0,,,,
KRDR,10-13-2001,17:00,METAR,,290,7.0,,,9999.0,Cloud Development Not Observable,13.0,4.0,29.45,998.0,,,,0,0,0,,,,,,,,,7/8 Mostly Cloudy,20000.0,,FEW,7900.0,SCT,11000.0,BKN,20000.0,,
KRDR,10-13-2001,11:00,METAR,,150,4.0,,,9999.0,Cloud Development Not Observable,2.0,2.0,29.51,1000.2,,,,0,0,0,,,,,,,,,2/8 Mostly Clear,72000.0,,FEW,20000.0,,,,,,
KRDR,10-13-2001,10:00,METAR,,230,5.0,,,9999.0,Cloud Development Not Observable,1.0,1.0,29.51,1000.1,,,,0,0,0,,,,,,,,,Clear,72000.0,,,73000.0,,,,,,
KRDR,10-13-2001,09:00,METAR,,240,6.0,,,9999.0,Cloud Development Not Observable,1.0,1.0,29.52,1000.3,,,,0,0,0,,,,,,,,,2/8 Mostly Clear,72000.0,,FEW,20000.0,,,,,,
KRDR,10-13-2001,08:00,METAR,,230,5.0,,,9999.0,Cloud Development Not Observable,3.0,3.0,29.54,1001.2,,,,0,0,0,,,,,,,,,7/8 Mostly Cloudy,20000.0,,FEW,12000.0,BKN,20000.0,,,,
KRDR,10-13-2001,07:00,METAR,,230,7.0,,,9999.0,Cloud Development Not Observable,5.0,4.0,29.56,1001.7,,,,0,0,0,,,,,,,,,7/8 Mostly Cloudy,20000.0,,FEW,12000.0,BKN,20000.0,,,,
KRDR,10-13-2001,06:00,METAR,,230,7.0,,,9999.0,Cloud Development Not Observable,5.0,4.0,29.58,1002.3,,,,0,0,0,,,,,,,,,7/8 Mostly Cloudy,20000.0,,SCT,12000.0,BKN,20000.0,,,,
KRDR,10-13-2001,05:00,METAR,,220,6.0,,,9999.0,Cloud Development Not Observable,6.0,4.0,29.60,1003.2,,,,0,0,0,,,,,,,,,7/8 Mostly Cloudy,20000.0,,SCT,12000.0,BKN,20000.0,,,,
KRDR,10-13-2001,04:00,METAR,,230,7.0,,,9999.0,Cloud Development Not Observable,7.0,4.0,29.63,1004.1,,,,0,0,0,,,,,,,,,7/8 Mostly Cloudy,20000.0,,SCT,12000.0,BKN,20000.0,,,,
KRDR,10-13-2001,03:00,METAR,,240,6.0,,,9999.0,Cloud Development Not Observable,7.0,5.0,29.64,1004.5,,,,0,0,0,,,,,,,,,8/8 Overcast,12000.0,,BKN,12000.0,OVC,20000.0,,,,
KRDR,10-13-2001,02:00,METAR,,240,4.0,,,9999.0,Cloud Development Not Observable,9.0,5.0,29.65,1005.0,,,,0,0,0,,,,,,,,,7/8 Mostly Cloudy,12000.0,,SCT,5900.0,BKN,12000.0,,,,
KRDR,10-13-2001,01:00,METAR,,250,5.0,,,9999.0,Cloud Development Not Observable,11.0,4.0,29.68,1006.0,,,,0,0,0,,,,,,,,,7/8 Mostly Cloudy,11000.0,,SCT,5900.0,BKN,11000.0,BKN,25000.0,,
KRDR,10-13-2001,00:43,SPECI,,270,4.0,,,9999.0,Cloud Development Not Observable,11.0,4.0,29.68,,,,,0,0,0,,,,,,,,,7/8 Mostly Cloudy,6000.0,,BKN,5900.0,BKN,11000.0,BKN,25000.0,,
KRDR,10-12-2001,23:00,METAR,,280,7.0,,,9999.0,Light Rain Showers/Cloud Development Not Observable,13.0,2.0,29.69,1006.1,,,,80,0,0,,,,,,,,,8/8 Overcast,6000.0,,BKN,5900.0,OVC,11000.0,,,,
KRDR,10-12-2001,22:50,METAR,,280,8.0,,,9999.0,Light Rain Showers/Cloud Development Not Observable,13.0,2.0,29.69,,,,,80,0,0,,,,,,,,,8/8 Overcast,6000.0,,BKN,5900.0,OVC,11000.0,,,,
KRDR,10-12-2001,21:00,METAR,,280,11.0,,,9999.0,Cloud Development Not Observable,15.0,3.0,29.71,1006.4,,,,0,0,0,,,,,,,,,8/8 Overcast,14000.0,,FEW,0.0,FEW,5000.0,OVC,14000.0,,
KRDR,10-12-2001,20:00,METAR,,280,11.0,,,9999.0,Cloud Development Not Observable,16.0,4.0,29.71,1006.4,,,,0,0,0,,,,,,,,,8/8 Overcast,14000.0,,FEW,8900.0,BKN,14000.0,OVC,22000.0,,
KRDR,10-12-2001,17:00,METAR,,290,7.0,,,9999.0,Cloud Development Not Observable,15.0,5.0,29.73,1007.2,,,,0,0,0,,,,,,,,,7/8 Mostly Cloudy,22000.0,,FEW,11000.0,BKN,22000.0,,,,
KRDR,10-12-2001,16:00,METAR,,310,7.0,,,9999.0,Cloud Development Not Observable,14.0,7.0,29.72,1007.0,,,,0,0,0,,,,,,,,,7/8 Mostly Cloudy,22000.0,,FEW,11000.0,FEW,14000.0,BKN,22000.0,,
KRDR,10-12-2001,15:00,METAR,,270,5.0,,,9999.0,Cloud Development Not Observable,12.0,9.0,29.72,1006.9,,,,0,0,0,,,,,,,,,7/8 Mostly Cloudy,14000.0,,FEW,11000.0,BKN,14000.0,,,,
KRDR,10-12-2001,14:00,METAR,,190,6.0,,,9999.0,Cloud Development Not Observable,10.0,9.0,29.71,1006.6,,,,0,0,0,,,,,,,,,8/8 Overcast,14000.0,,FEW,8900.0,SCT,11000.0,BKN,14000.0,OVC,25000.0
KRDR,10-12-2001,12:00,METAR,,190,8.0,,,9999.0,Cloud Development Not Observable,,,29.66,1005.2,,,,0,0,0,,,,,,,,,7/8 Mostly Cloudy,11000.0,,SCT,7900.0,BKN,11000.0,,,,
KRDR,10-12-2001,11:00,METAR,,180,9.0,,,9999.0,Cloud Development Not Observable,11.0,7.0,29.64,1004.3,,,,0,0,0,,,,,,,,,8/8 Overcast,11000.0,,FEW,7900.0,OVC,11000.0,,,,
KRDR,10-12-2001,10:00,METAR,,160,12.0,,,9999.0,Cloud Development Not Observable,11.0,8.0,29.63,1004.0,,,,0,0,0,,,,,,,,,8/8 Overcast,11000.0,,FEW,7900.0,OVC,11000.0,,,,
KRDR,10-12-2001,09:43,SPECI,,160,10.0,,,9999.0,Cloud Development Not Observable,11.0,7.0,29.64,,,,,0,0,0,,,,,,,,,8/8 Overcast,10000.0,,FEW,5900.0,OVC,9900.0,,,,
KRDR,10-12-2001,09:34,SPECI,,150,9.0,,,9999.0,Light Rain Showers/Cloud Development Not Observable,11.0,7.0,29.62,,,,,80,0,0,,,,,,,,,8/8 Overcast,8500.0,,SCT,5000.0,OVC,8400.0,,,,
KRDR,10-12-2001,09:00,METAR,,180,11.0,,,9999.0,Cloud Development Not Observable,12.0,6.0,29.63,1003.8,,,,0,0,0,,,,,,,,,8/8 Overcast,9000.0,,SCT,6900.0,OVC,8900.0,,,,
KRDR,10-12-2001,08:41,SPECI,,190,10.0,,,9999.0,Light Rain Showers/Cloud Development Not Observable,12.0,6.0,29.63,,,,,80,0,0,,,,,,,,,8/8 Overcast,9500.0,,SCT,6900.0,BKN,9400.0,OVC,12000.0,,
KRDR,10-12-2001,08:00,METAR,,160,14.0,,,9999.0,Cloud Development Not Observable,13.0,6.0,29.62,1003.6,,,,0,0,0,,,,,,,,,8/8 Overcast,9000.0,,SCT,6900.0,BKN,8900.0,OVC,12000.0,,
KRDR,10-12-2001,07:00,METAR,,160,16.0,24.0,,9999.0,Cloud Development Not Observable,13.0,6.0,29.61,1003.2,,,,0,0,0,,,,,,,,,8/8 Overcast,12000.0,,SCT,7900.0,OVC,12000.0,,,,
KRDR,10-12-2001,06:00,METAR,,170,14.0,,,9999.0,Cloud Development Not Observable,13.0,6.0,29.61,1003.2,,,,0,0,0,,,,,,,,,8/8 Overcast,12000.0,,SCT,7900.0,OVC,12000.0,,,,
KRDR,10-12-2001,05:00,METAR,,160,12.0,,,9999.0,Cloud Development Not Observable,13.0,6.0,29.61,1003.1,,,,0,0,0,,,,,,,,,8/8 Overcast,15000.0,,BKN,15000.0,OVC,20000.0,,,,
KRDR,10-12-2001,04:00,METAR,,140,10.0,,,9999.0,Cloud Development Not Observable,12.0,7.0,29.61,1003.2,,,,0,0,0,,,,,,,,,7/8 Mostly Cloudy,15000.0,,BKN,15000.0,BKN,20000.0,,,,
KRDR,10-12-2001,03:00,METAR,,140,12.0,,,9999.0,Cloud Development Not Observable,12.0,7.0,29.62,1003.8,,,,0,0,0,,,,,,,,,8/8 Overcast,15000.0,,OVC,15000.0,,,,,,
KRDR,10-12-2001,02:00,METAR,,140,11.0,,,9999.0,Cloud Development Not Observable,13.0,8.0,29.63,1004.2,,,,0,0,0,,,,,,,,,8/8 Overcast,15000.0,,OVC,15000.0,,,,,,
KRDR,10-12-2001,01:00,METAR,,140,12.0,,,9999.0,Cloud Development Not Observable,14.0,8.0,29.66,1005.4,,,,0,0,0,,,,,,,,,8/8 Overcast,15000.0,,BKN,15000.0,OVC,20000.0,,,,
KRDR,10-12-2001,00:00,METAR,,150,12.0,,,9999.0,Cloud Development Not Observable,15.0,9.0,29.66,1005.4,,,,0,0,0,,,,,,,,,8/8 Overcast,15000.0,,BKN,15000.0,OVC,20000.0,,,,
KRDR,10-11-2001,23:00,METAR,,150,14.0,,,9999.0,Cloud Development Not Observable,17.0,8.0,29.66,1005.2,,,,0,0,0,,,,,,,,,7/8 Mostly Cloudy,15000.0,,FEW,9900.0,BKN,15000.0,BKN,20000.0,,
KRDR,10-11-2001,22:00,METAR,,150,16.0,23.0,,9999.0,Cloud Development Not Observable,18.0,8.0,29.66,1005.3,,,,0,0,0,,,,,,,,,7/8 Mostly Cloudy,20000.0,,SCT,15000.0,BKN,20000.0,,,,
KRDR,10-11-2001,21:00,METAR,,160,15.0,,,9999.0,Cloud Development Not Observable,17.0,6.0,29.67,1005.6,,,,0,0,0,,,,,,,,,7/8 Mostly Cloudy,20000.0,,SCT,15000.0,BKN,20000.0,,,,
KRDR,10-11-2001,20:00,METAR,,170,16.0,23.0,,9999.0,Cloud Development Not Observable,17.0,6.0,29.70,1006.3,,,,0,0,0,,,,,,,,,7/8 Mostly Cloudy,20000.0,,SCT,15000.0,BKN,20000.0,,,,
KRDR,10-11-2001,19:00,METAR,,160,13.0,,,9999.0,Cloud Development Not Observable,18.0,7.0,29.71,1006.8,,,,0,0,0,,,,,,,,,7/8 Mostly Cloudy,20000.0,,SCT,15000.0,BKN,20000.0,,,,
KRDR,10-11-2001,18:00,METAR,,170,18.0,23.0,,9999.0,Cloud Development Not Observable,17.0,3.0,29.75,1008.0,,,,0,0,0,,,,,,,,,7/8 Mostly Cloudy,20000.0,,SCT,15000.0,BKN,20000.0,,,,
KRDR,10-11-2001,17:00,METAR,,190,13.0,,,9999.0,Cloud Development Not Observable,15.0,4.0,29.78,1009.1,,,,0,0,0,,,,,,,,,7/8 Mostly Cloudy,20000.0,,BKN,20000.0,,,,,,
KRDR,10-11-2001,16:00,METAR,,180,14.0,,,9999.0,Cloud Development Not Observable,12.0,3.0,29.81,1010.3,,,,0,0,0,,,,,,,,,7/8 Mostly Cloudy,20000.0,,BKN,20000.0,,,,,,
KRDR,10-11-2001,15:00,METAR,,190,10.0,,,9999.0,Cloud Development Not Observable,10.0,4.0,29.81,1010.3,,,,0,0,0,,,,,,,,,7/8 Mostly Cloudy,20000.0,,BKN,20000.0,,,,,,
KRDR,10-11-2001,14:00,METAR,,190,7.0,,,9999.0,Cloud Development Not Observable,7.0,3.0,29.81,1010.4,,,,0,0,0,,,,,,,,,7/8 Mostly Cloudy,20000.0,,BKN,20000.0,,,,,,
KRDR,10-11-2001,13:00,METAR,,190,8.0,,,9999.0,Cloud Development Not Observable,4.0,1.0,29.81,1010.4,,,,0,0,0,,,,,,,,,7/8 Mostly Cloudy,25000.0,,FEW,8900.0,BKN,25000.0,,,,
KRDR,10-11-2001,12:00,METAR,,200,8.0,,,9999.0,Cloud Development Not Observable,3.0,1.0,29.81,1010.3,,,,0,0,0,,,,,,,,,2/8 Mostly Clear,72000.0,,FEW,8900.0,,,,,,
KRDR,10-11-2001,11:00,METAR,,220,6.0,,,9999.0,Cloud Development Not Observable,2.0,1.0,29.81,1010.5,,,,0,0,0,,,,,,,,,2/8 Mostly Clear,72000.0,,FEW,8900.0,,,,,,
KRDR,10-11-2001,10:00,METAR,,220,7.0,,,9999.0,Cloud Development Not Observable,2.0,1.0,29.82,1010.8,,,,0,0,0,,,,,,,,,2/8 Mostly Clear,72000.0,,FEW,8900.0,,,,,,
KRDR,10-11-2001,09:00,METAR,,240,7.0,,,9999.0,Cloud Development Not Observable,4.0,2.0,29.83,1011.0,,,,0,0,0,,,,,,,,,2/8 Mostly Clear,72000.0,,FEW,8900.0,,,,,,
KRDR,10-11-2001,07:00,METAR,,240,7.0,,,9999.0,Cloud Development Not Observable,5.0,3.0,29.83,1011.2,,,,0,0,0,,,,,,,,,4/8 Partly Cloudy,72000.0,,SCT,8900.0,,,,,,
KRDR,10-11-2001,06:00,METAR,,250,8.0,,,9999.0,Cloud Development Not Observable,5.0,1.0,29.82,1010.7,,,,0,0,0,,,,,,,,,Clear,72000.0,,,73000.0,,,,,,
KRDR,10-11-2001,04:00,METAR,,270,8.0,,,9999.0,Cloud Development Not Observable,6.0,2.0,29.81,1010.5,,,,0,0,0,,,,,,,,,Clear,72000.0,,,73000.0,,,,,,
KRDR,10-11-2001,03:00,METAR,,280,9.0,,,9999.0,Cloud Development Not Observable,8.0,1.0,29.80,1010.1,,,,0,0,0,,,,,,,,,4/8 Partly Cloudy,72000.0,,SCT,25000.0,,,,,,
KRDR,10-11-2001,02:00,METAR,,290,10.0,,,9999.0,Cloud Development Not Observable,8.0,2.0,29.78,1009.5,,,,0,0,0,,,,,,,,,4/8 Partly Cloudy,72000.0,,SCT,25000.0,,,,,,
KRDR,10-11-2001,01:00,METAR,,280,9.0,,,9999.0,Cloud Development Not Observable,10.0,2.0,29.77,1009.0,,,,0,0,0,,,,,,,,,4/8 Partly Cloudy,72000.0,,FEW,15000.0,SCT,25000.0,,,,
KRDR,10-11-2001,00:00,METAR,,290,12.0,,,9999.0,Cloud Development Not Observable,13.0,2.0,29.76,1008.4,,,,0,0,0,,,,,,,,,7/8 Mostly Cloudy,25000.0,,FEW,6400.0,FEW,15000.0,BKN,25000.0,,
KRDR,10-10-2001,23:00,METAR,,290,14.0,,,9999.0,Cloud Development Not Observable,15.0,7.0,29.75,1008.0,,,,0,0,0,,,,,,,,,7/8 Mostly Cloudy,25000.0,,FEW,6400.0,FEW,15000.0,BKN,25000.0,,
KRDR,10-10-2001,22:00,METAR,,300,12.0,,,9999.0,Cloud Development Not Observable,16.0,9.0,29.74,1007.6,,,,0,0,0,,,,,,,,,7/8 Mostly Cloudy,25000.0,,FEW,6400.0,SCT,15000.0,BKN,25000.0,,
KRDR,10-10-2001,21:00,METAR,,300,13.0,,,9999.0,Cloud Development Not Observable,15.0,9.0,29.72,1007.1,,,,0,0,0,,,,,,,,,7/8 Mostly Cloudy,15000.0,,FEW,6400.0,BKN,15000.0,BKN,25000.0,,
KRDR,10-10-2001,20:00,METAR,,310,8.0,,,9999.0,Cloud Development Not Observable,14.0,11.0,29.71,1006.6,,,,0,0,0,,,,,,,,,7/8 Mostly Cloudy,15000.0,,SCT,6400.0,BKN,15000.0,,,,
KRDR,10-10-2001,19:00,METAR,,310,11.0,,,9999.0,Cloud Development Not Observable,12.0,11.0,29.71,1006.6,,,,0,0,0,,,,,,,,,8/8 Overcast,6500.0,,SCT,3500.0,BKN,6400.0,OVC,15000.0,,
KRDR,10-10-2001,18:00,METAR,,290,13.0,,,9999.0,Cloud Development Not Observable,11.0,11.0,29.71,1006.6,,,,0,0,0,,,,,,,,,8/8 Overcast,4900.0,,FEW,2500.0,BKN,5000.0,OVC,15000.0,,
KRDR,10-10-2001,17:21,SPECI,,290,10.0,,,9999.0,Cloud Development Not Observable,10.0,10.0,29.71,,,,,0,0,0,,,,,,,,,8/8 Overcast,4900.0,,FEW,2500.0,OVC,5000.0,,,,
KRDR,10-10-2001,17:00,METAR,,290,9.0,,,9999.0,Rain/Cloud Development Not Observable,10.0,10.0,29.71,1006.7,,,,61,0,0,,,,,,,,,8/8 Overcast,4900.0,,FEW,2500.0,OVC,5000.0,,,,
KRDR,10-10-2001,16:00,METAR,,300,10.0,,,9999.0,Rain/Cloud Development Not Observable,10.0,10.0,29.71,1006.9,,,,61,0,0,,,,,,,,,8/8 Overcast,4900.0,,SCT,2500.0,OVC,5000.0,,,,
KRDR,10-10-2001,15:00,METAR,,310,12.0,,,9999.0,Rain/Cloud Development Not Observable,10.0,10.0,29.71,1006.7,,,,61,0,0,,,,,,,,,8/8 Overcast,4900.0,,SCT,2500.0,OVC,5000.0,,,,
KRDR,10-10-2001,14:00,METAR,,310,13.0,,,9999.0,Rain/Cloud Development Not Observable,9.0,9.0,29.71,1006.7,,,,61,0,0,,,,,,,,,8/8 Overcast,4900.0,,SCT,2500.0,OVC,5000.0,,,,
KRDR,10-10-2001,13:00,METAR,,320,12.0,,,9999.0,Cloud Development Not Observable,9.0,9.0,29.70,1006.3,,,,0,0,0,,,,,,,,,8/8 Overcast,4900.0,,FEW,2500.0,OVC,5000.0,,,,
KRDR,10-10-2001,12:00,METAR,,350,11.0,,,9999.0,Light Rain Showers/Cloud Development Not Observable,9.0,9.0,29.69,1006.1,,,,80,0,0,,,,,,,,,8/8 Overcast,6000.0,,SCT,4500.0,OVC,5900.0,,,,
KRDR,10-10-2001,10:00,METAR,,350,15.0,,,9999.0,Light Rain Showers/Cloud Development Not Observable,10.0,10.0,29.69,1006.1,,,,80,0,0,,,,,,,,,8/8 Overcast,4400.0,,SCT,2500.0,BKN,4500.0,OVC,6900.0,,
KRDR,10-10-2001,09:00,METAR,,340,20.0,,350/26KTS,9999.0,Light Rain Showers/Cloud Development Not Observable,10.0,10.0,29.70,1006.1,,,,80,0,0,,,,,,,,,8/8 Overcast,4400.0,,SCT,2500.0,BKN,4500.0,OVC,6900.0,,
KRDR,10-10-2001,08:00,METAR,,340,19.0,,330/27KTS,9999.0,Light Rain Showers/Cloud Development Not Observable,10.0,10.0,29.72,1007.0,,,,80,0,0,,,,,,,,,8/8 Overcast,4400.0,,SCT,2500.0,BKN,4500.0,OVC,6900.0,,
KRDR,10-10-2001,07:36,SPECI,,340,18.0,,,9999.0,Rain/Cloud Development Not Observable,10.0,10.0,29.72,,,,,61,0,0,,,,,,,,,8/8 Overcast,4400.0,,SCT,2500.0,BKN,4500.0,OVC,6900.0,,
KRDR,10-10-2001,07:00,METAR,,340,19.0,24.0,340/27KTS,9999.0,Rain/Cloud Development Not Observable,10.0,10.0,29.73,1007.3,,,,61,0,0,,,,,,,,,8/8 Overcast,2000.0,,BKN,2000.0,OVC,5900.0,,,,
KRDR,10-10-2001,06:07,SPECI,,340,20.0,25.0,,9999.0,Rain/Cloud Development Not Observable,10.0,10.0,29.76,,,,,61,0,0,,,,,,,,,8/8 Overcast,2500.0,,BKN,2500.0,OVC,5900.0,,,,
KRDR,10-10-2001,06:00,METAR,,330,17.0,,,9999.0,Rain/Cloud Development Not Observable,11.0,10.0,29.76,1008.4,,,,61,0,0,,,,,,,,,8/8 Overcast,3400.0,,BKN,3500.0,OVC,7900.0,,,,
KRDR,10-10-2001,05:00,METAR,,330,15.0,,,9999.0,Light Rain Showers/Cloud Development Not Observable,11.0,10.0,29.77,1008.6,,,,80,0,0,,,,,,,,,8/8 Overcast,3400.0,,BKN,3500.0,OVC,7900.0,,,,
KRDR,10-10-2001,04:00,METAR,,330,7.0,,,9999.0,Light Rain Showers/Cloud Development Not Observable,11.0,9.0,29.78,1009.0,,,,80,0,0,,,,,,,,,8/8 Overcast,72000.0,,SCT,5000.0,OVC,7900.0,,,,
KRDR,10-10-2001,03:00,METAR,,340,8.0,,,9999.0,Light Rain Showers/Cloud Development Not Observable,13.0,7.0,29.77,1008.6,,,,80,0,0,,,,,,,,,8/8 Overcast,9000.0,,BKN,8900.0,OVC,20000.0,,,,
KRDR,10-10-2001,02:48,SPECI,,330,8.0,,,9999.0,Light Rain Showers/Cloud Development Not Observable,12.0,7.0,29.76,,,,,80,0,0,,,,,,,,,8/8 Overcast,9000.0,,BKN,8900.0,OVC,20000.0,,,,
KRDR,10-10-2001,02:00,METAR,,350,6.0,,,9999.0,Cloud Development Not Observable,12.0,8.0,29.76,1008.6,,,,0,0,0,,,,,,,,,8/8 Overcast,10000.0,,BKN,9900.0,OVC,25000.0,,,,
KRDR,10-10-2001,01:00,METAR,,340,6.0,,,9999.0,Cloud Development Not Observable,12.0,9.0,29.78,1009.2,,,,0,0,0,,,,,,,,,8/8 Overcast,11000.0,,BKN,11000.0,OVC,25000.0,,,,
KRDR,10-10-2001,00:00,METAR,,340,8.0,,,9999.0,Cloud Development Not Observable,13.0,8.0,29.78,1009.4,,,,0,0,0,,,,,,,,,8/8 Overcast,11000.0,,BKN,11000.0,OVC,25000.0,,,,
KRDR,10-09-2001,23:00,METAR,,310,11.0,,,9999.0,Cloud Development Not Observable,13.0,9.0,29.79,1009.7,,,,0,0,0,,,,,,,,,8/8 Overcast,10000.0,,BKN,9900.0,OVC,15000.0,,,,
KRDR,10-09-2001,22:45,METAR,,310,12.0,,,9999.0,Cloud Development Not Observable,14.0,8.0,29.79,,,,,0,0,0,,,,,,,,,8/8 Overcast,10000.0,,BKN,9900.0,OVC,15000.0,,,,
KRDR,10-09-2001,22:00,METAR,,300,11.0,,,9999.0,Rain/Cloud Development Not Observable,14.0,8.0,29.81,1010.2,,,,61,0,0,,,,,,,,,8/8 Overcast,15000.0,,SCT,5900.0,SCT,7900.0,OVC,15000.0,,
KRDR,10-09-2001,21:00,METAR,,300,9.0,,,9999.0,Rain/Cloud Development Not Observable,19.0,3.0,29.80,1009.9,,,,61,0,0,,,,,,,,,8/8 Overcast,15000.0,,FEW,9900.0,OVC,15000.0,,,,
KRDR,10-09-2001,20:21,SPECI,,310,7.0,,,9999.0,Rain/Cloud Development Not Observable,19.0,3.0,29.80,,,,,61,0,0,,,,,,,,,8/8 Overcast,15000.0,,FEW,9900.0,OVC,15000.0,,,,
KRDR,10-09-2001,20:00,METAR,,,5.0,,,9999.0,Cloud Development Not Observable,19.0,3.0,29.81,1010.1,,,,0,0,0,,,,,,,,,8/8 Overcast,15000.0,,BKN,15000.0,OVC,25000.0,,,,
KRDR,10-09-2001,19:00,METAR,,,4.0,,,9999.0,Cloud Development Not Observable,20.0,2.0,29.82,1010.3,,,,0,0,0,,,,,,,,,7/8 Mostly Cloudy,25000.0,,SCT,15000.0,BKN,25000.0,,,,
KRDR,10-09-2001,18:00,METAR,,,4.0,,,9999.0,Cloud Development Not Observable,18.0,5.0,29.83,1010.7,,,,0,0,0,,,,,,,,,8/8 Overcast,25000.0,,SCT,15000.0,OVC,25000.0,,,,
KRDR,10-09-2001,16:00,METAR,,280,7.0,,,9999.0,Cloud Development Not Observable,15.0,3.0,29.80,1010.0,,,,0,0,0,,,,,,,,,7/8 Mostly Cloudy,25000.0,,SCT,15000.0,BKN,25000.0,,,,
KRDR,10-09-2001,14:00,METAR,,250,7.0,,,9999.0,Cloud Development Not Observable,11.0,5.0,29.80,1009.9,,,,0,0,0,,,,,,,,,7/8 Mostly Cloudy,25000.0,,FEW,15000.0,BKN,25000.0,,,,
KRDR,10-09-2001,13:00,METAR,,270,7.0,,,9999.0,Cloud Development Not Observable,6.0,2.0,29.79,1009.6,,,,0,0,0,,,,,,,,,4/8 Partly Cloudy,72000.0,,FEW,15000.0,SCT,25000.0,,,,
KRDR,10-09-2001,12:00,METAR,,250,8.0,,,9999.0,Cloud Development Not Observable,6.0,3.0,29.77,1009.0,,,,0,0,0,,,,,,,,,Clear,72000.0,,,73000.0,,,,,,
KRDR,10-09-2001,11:00,METAR,,230,8.0,,,9999.0,Cloud Development Not Observable,6.0,3.0,29.77,1008.7,,,,0,0,0,,,,,,,,,2/8 Mostly Clear,72000.0,,FEW,8900.0,,,,,,
KRDR,10-09-2001,10:00,METAR,,210,4.0,,,9999.0,Cloud Development Not Observable,6.0,4.0,29.76,1008.4,,,,0,0,0,,,,,,,,,Clear,72000.0,,,73000.0,,,,,,
KRDR,10-09-2001,08:00,METAR,,200,7.0,,,9999.0,Cloud Development Not Observable,6.0,6.0,29.75,1008.3,,,,0,0,0,,,,,,,,,2/8 Mostly Clear,72000.0,,FEW,8900.0,FEW,20000.0,,,,
KRDR,10-09-2001,07:00,METAR,,190,7.0,,,9999.0,Cloud Development Not Observable,8.0,7.0,29.75,1008.3,,,,0,0,0,,,,,,,,,2/8 Mostly Clear,72000.0,,FEW,8900.0,FEW,20000.0,,,,
KRDR,10-09-2001,06:00,METAR,,220,9.0,,,9999.0,Cloud Development Not Observable,8.0,7.0,29.75,1008.3,,,,0,0,0,,,,,,,,,2/8 Mostly Clear,72000.0,,FEW,8900.0,FEW,20000.0,,,,
KRDR,10-09-2001,05:00,METAR,,230,9.0,,,9999.0,Cloud Development Not Observable,9.0,8.0,29.74,1008.0,,,,0,0,0,,,,,,,,,Clear,72000.0,,,73000.0,,,,,,
KRDR,10-09-2001,04:00,METAR,,200,7.0,,,9999.0,Cloud Development Not Observable,8.0,7.0,29.73,1007.7,,,,0,0,0,,,,,,,,,Clear,72000.0,,,73000.0,,,,,,
KRDR,10-09-2001,03:00,METAR,,200,7.0,,,9999.0,Cloud Development Not Observable,8.0,8.0,29.73,1007.7,,,,0,0,0,,,,,,,,,2/8 Mostly Clear,72000.0,,FEW,20000.0,,,,,,
KRDR,10-09-2001,02:00,METAR,,200,5.0,,,9999.0,Cloud Development Not Observable,7.0,7.0,,1007.8,,,,0,0,0,,,,,,,,,2/8 Mostly Clear,72000.0,,FEW,20000.0,,,,,,
KRDR,10-09-2001,01:00,METAR,,180,2.0,,,9999.0,Cloud Development Not Observable,10.0,9.0,29.73,1007.5,,,,0,0,0,,,,,,,,,2/8 Mostly Clear,72000.0,,FEW,20000.0,,,,,,
KRDR,10-09-2001,00:00,METAR,,150,3.0,,,9999.0,Cloud Development Not Observable,13.0,8.0,29.72,1007.1,,,,0,0,0,,,,,,,,,2/8 Mostly Clear,72000.0,,FEW,7900.0,FEW,20000.0,,,,
KRDR,10-08-2001,23:00,METAR,,180,6.0,,,9999.0,Cloud Development Not Observable,16.0,8.0,29.71,1006.9,,,,0,0,0,,,,,,,,,2/8 Mostly Clear,72000.0,,FEW,20000.0,,,,,,
KRDR,10-08-2001,22:00,METAR,,220,3.0,,,9999.0,Cloud Development Not Observable,16.0,8.0,29.71,1006.9,,,,0,0,0,,,,,,,,,2/8 Mostly Clear,72000.0,,FEW,7900.0,FEW,25000.0,,,,
KRDR,10-08-2001,21:00,METAR,,230,4.0,,,9999.0,Cloud Development Not Observable,15.0,8.0,29.71,1006.9,,,,0,0,0,,,,,,,,,2/8 Mostly Clear,72000.0,,FEW,3000.0,FEW,7900.0,,,,
KRDR,10-08-2001,20:00,METAR,,210,4.0,,,9999.0,Cloud Development Not Observable,15.0,9.0,29.72,1007.0,,,,0,0,0,,,,,,,,,2/8 Mostly Clear,72000.0,,FEW,3000.0,FEW,7900.0,,,,
KRDR,10-08-2001,19:00,METAR,,210,8.0,,,9999.0,Cloud Development Not Observable,13.0,10.0,29.73,1007.6,,,,0,0,0,,,,,,,,,7/8 Mostly Cloudy,25000.0,,FEW,3500.0,SCT,7900.0,BKN,25000.0,,
KRDR,10-08-2001,18:00,METAR,,140,5.0,,,9999.0,Cloud Development Not Observable,10.0,9.0,29.74,1008.1,,,,0,0,0,,,,,,,,,7/8 Mostly Cloudy,8000.0,,FEW,3500.0,BKN,7900.0,,,,
KRDR,10-08-2001,17:18,SPECI,,140,7.0,,,9999.0,Cloud Development Not Observable,10.0,9.0,29.74,,,,,0,0,0,,,,,,,,,7/8 Mostly Cloudy,8000.0,,FEW,4000.0,BKN,7900.0,,,,
KRDR,10-08-2001,17:00,METAR,,170,5.0,,,9999.0,Light Rain Showers/Cloud Development Not Observable,9.0,8.0,29.77,1009.0,,,,80,0,0,,,,,,,,,8/8 Overcast,7500.0,,SCT,4500.0,OVC,7400.0,,,,
KRDR,10-08-2001,16:40,SPECI,,170,4.0,,,9999.0,Light Rain Showers/Cloud Development Not Observable,9.0,8.0,29.77,,,,,80,0,0,,,,,,,,,8/8 Overcast,7000.0,,SCT,3500.0,OVC,6900.0,,,,
KRDR,10-08-2001,16:20,METAR,,190,5.0,,,9999.0,Cloud Development Not Observable,9.0,8.0,29.78,,,,,0,0,0,,,,,,,,,8/8 Overcast,7000.0,,FEW,3500.0,OVC,6900.0,,,,
KRDR,10-08-2001,16:00,METAR,,210,4.0,,,9999.0,Light Rain Showers/Cloud Development Not Observable,8.0,7.0,29.78,1009.3,,,,80,0,0,,,,,,,,,8/8 Overcast,7000.0,,FEW,4000.0,BKN,6900.0,OVC,20000.0,,
KRDR,10-08-2001,15:41,SPECI,,200,6.0,,,9999.0,Light Rain Showers/Cloud Development Not Observable,8.0,7.0,29.77,,,,,80,0,0,,,,,,,,,8/8 Overcast,6500.0,,FEW,3000.0,BKN,6400.0,OVC,20000.0,,
KRDR,10-08-2001,15:14,SPECI,,160,8.0,,,,Cloud Development Not Observable,,,,,,,,0,0,0,,,,,,,,,,6000.0,,SCT,3000.0,BKN,5900.0,OVC,20000.0,,
KRDR,10-08-2001,15:00,METAR,,140,11.0,,,9999.0,Cloud Development Not Observable,9.0,2.0,29.76,1008.8,,,,0,0,0,,,,,,,,,8/8 Overcast,12000.0,,SCT,8400.0,BKN,12000.0,OVC,20000.0,,
KRDR,10-08-2001,14:00,METAR,,140,9.0,,,9999.0,Cloud Development Not Observable,7.0,1.0,29.78,1009.3,,,,0,0,0,,,,,,,,,8/8 Overcast,12000.0,,SCT,8400.0,BKN,12000.0,OVC,20000.0,,
KRDR,10-08-2001,13:00,METAR,,130,7.0,,,9999.0,Cloud Development Not Observable,7.0,0.0,29.79,1009.8,,,,0,0,0,,,,,,,,,7/8 Mostly Cloudy,12000.0,,SCT,8400.0,BKN,12000.0,BKN,20000.0,,
KRDR,10-08-2001,12:00,METAR,,70,3.0,,,9999.0,Cloud Development Not Observable,6.0,-1.0,29.82,1010.6,,,,0,0,0,,,,,,,,,7/8 Mostly Cloudy,20000.0,,SCT,9900.0,BKN,20000.0,,,,
KRDR,10-08-2001,07:00,METAR,,120,7.0,,,9999.0,Cloud Development Not Observable,5.0,-4.0,29.89,1012.9,,,,0,0,0,,,,,,,,,7/8 Mostly Cloudy,25000.0,,BKN,25000.0,,,,,,
KRDR,10-08-2001,05:00,METAR,,130,10.0,,,9999.0,Cloud Development Not Observable,6.0,-4.0,29.93,1014.3,,,,0,0,0,,,,,,,,,7/8 Mostly Cloudy,25000.0,,FEW,14000.0,BKN,25000.0,,,,
KRDR,10-08-2001,04:00,METAR,,130,11.0,,,9999.0,Cloud Development Not Observable,7.0,-4.0,29.95,1015.1,,,,0,0,0,,,,,,,,,7/8 Mostly Cloudy,25000.0,,FEW,14000.0,BKN,25000.0,,,,
KRDR,10-07-2001,23:55,METAR,,140,11.0,,,9999.0,Cloud Development Not Observable,12.0,-4.0,29.96,1015.7,,,,0,0,0,,,,,,,,,4/8 Partly Cloudy,72000.0,,FEW,6400.0,SCT,25000.0,,,,
KRDR,10-07-2001,23:00,METAR,,140,14.0,18.0,,9999.0,Cloud Development Not Observable,14.0,-4.0,29.97,1015.8,,,,0,0,0,,,,,,,,,4/8 Partly Cloudy,72000.0,,SCT,25000.0,,,,,,
KRDR,10-07-2001,22:00,METAR,,150,14.0,20.0,,9999.0,Cloud Development Not Observable,15.0,-5.0,29.98,1016.4,,,,0,0,0,,,,,,,,,7/8 Mostly Cloudy,25000.0,,BKN,25000.0,,,,,,
KRDR,10-07-2001,21:00,METAR,,150,15.0,,,9999.0,Cloud Development Not Observable,16.0,-4.0,,1016.9,,,,0,0,0,,,,,,,,,7/8 Mostly Cloudy,25000.0,,BKN,25000.0,,,,,,
KRDR,10-07-2001,20:00,METAR,,150,12.0,,,9999.0,Cloud Development Not Observable,14.0,-5.0,30.02,1017.7,,,,0,0,0,,,,,,,,,7/8 Mostly Cloudy,25000.0,,BKN,25000.0,,,,,,
KRDR,10-07-2001,18:00,METAR,,160,15.0,,,9999.0,Cloud Development Not Observable,13.0,-5.0,30.06,1019.1,,,,0,0,0,,,,,,,,,4/8 Partly Cloudy,72000.0,,SCT,25000.0,,,,,,
KRDR,10-07-2001,17:00,METAR,,160,15.0,,,9999.0,Cloud Development Not Observable,12.0,-5.0,30.08,1019.7,,,,0,0,0,,,,,,,,,4/8 Partly Cloudy,72000.0,,SCT,25000.0,,,,,,
KRDR,10-07-2001,16:00,METAR,,180,16.0,,,9999.0,Cloud Development Not Observable,9.0,-6.0,30.09,1020.1,,,,0,0,0,,,,,,,,,2/8 Mostly Clear,72000.0,,FEW,25000.0,,,,,,
KRDR,10-07-2001,15:00,METAR,,170,13.0,,,9999.0,Cloud Development Not Observable,6.0,-5.0,30.09,1020.0,,,,0,0,0,,,,,,,,,2/8 Mostly Clear,72000.0,,FEW,25000.0,,,,,,
KRDR,10-07-2001,14:00,METAR,,180,10.0,,,9999.0,Cloud Development Not Observable,2.0,-5.0,30.08,1020.0,,,,0,0,0,,,,,,,,,2/8 Mostly Clear,72000.0,,FEW,25000.0,,,,,,
KRDR,10-07-2001,13:00,METAR,,180,10.0,,,9999.0,Cloud Development Not Observable,0.0,-5.0,30.08,1020.0,,,,0,0,0,,,,,,,,,2/8 Mostly Clear,72000.0,,FEW,6900.0,FEW,25000.0,,,,
KRDR,10-07-2001,11:00,METAR,,190,8.0,,,9999.0,Cloud Development Not Observable,0.0,-5.0,30.08,1019.6,,,,0,0,0,,,,,,,,,2/8 Mostly Clear,72000.0,,FEW,6400.0,,,,,,
KRDR,10-07-2001,10:00,METAR,,190,9.0,,,9999.0,Cloud Development Not Observable,-1.0,-5.0,30.08,1019.7,,,,0,0,0,,,,,,,,,Clear,72000.0,,,73000.0,,,,,,
KRDR,10-07-2001,09:00,METAR,,180,8.0,,,9999.0,Cloud Development Not Observable,2.0,-5.0,30.08,1019.5,,,,0,0,0,,,,,,,,,Clear,72000.0,,,73000.0,,,,,,
KRDR,10-07-2001,08:00,METAR,,180,8.0,,,9999.0,Cloud Development Not Observable,2.0,-5.0,30.07,1019.3,,,,0,0,0,,,,,,,,,Clear,72000.0,,,73000.0,,,,,,
KRDR,10-07-2001,07:00,METAR,,180,8.0,,,9999.0,Cloud Development Not Observable,3.0,-5.0,30.06,1019.0,,,,0,0,0,,,,,,,,,Clear,72000.0,,,73000.0,,,,,,
KRDR,10-07-2001,06:00,METAR,,180,9.0,,,9999.0,Cloud Development Not Observable,3.0,-5.0,30.06,1019.2,,,,0,0,0,,,,,,,,,Clear,72000.0,,,73000.0,,,,,,
KRDR,10-07-2001,05:00,METAR,,190,8.0,,,9999.0,Cloud Development Not Observable,3.0,-5.0,30.06,1019.1,,,,0,0,0,,,,,,,,,Clear,72000.0,,,73000.0,,,,,,
KRDR,10-07-2001,04:00,METAR,,190,9.0,,,9999.0,Cloud Development Not Observable,3.0,-5.0,30.06,1019.1,,,,0,0,0,,,,,,,,,Clear,72000.0,,,73000.0,,,,,,
KRDR,10-07-2001,03:00,METAR,,190,7.0,,,9999.0,Cloud Development Not Observable,4.0,-5.0,30.05,1018.8,,,,0,0,0,,,,,,,,,Clear,72000.0,,,73000.0,,,,,,
KRDR,10-07-2001,02:00,METAR,,190,8.0,,,9999.0,Cloud Development Not Observable,3.0,-5.0,30.04,1018.8,,,,0,0,0,,,,,,,,,Clear,72000.0,,,73000.0,,,,,,
KRDR,10-07-2001,01:00,METAR,,180,7.0,,,9999.0,Cloud Development Not Observable,6.0,-6.0,30.05,1019.2,,,,0,0,0,,,,,,,,,Clear,72000.0,,,73000.0,,,,,,
KRDR,10-07-2001,00:00,METAR,,210,4.0,,,9999.0,Cloud Development Not Observable,8.0,-6.0,30.04,1018.8,,,,0,0,0,,,,,,,,,Clear,72000.0,,,73000.0,,,,,,
KRDR,10-06-2001,23:00,METAR,,240,6.0,,,9999.0,Cloud Development Not Observable,12.0,-7.0,30.05,1019.0,,,,0,0,0,,,,,,,,,Clear,72000.0,,,73000.0,,,,,,
KRDR,10-06-2001,22:00,METAR,,220,6.0,,,9999.0,Cloud Development Not Observable,12.0,-8.0,30.06,1019.2,,,,0,0,0,,,,,,,,,2/8 Mostly Clear,72000.0,,FEW,4500.0,,,,,,
KRDR,10-06-2001,21:00,METAR,,220,4.0,,,9999.0,Cloud Development Not Observable,13.0,-8.0,30.07,1019.5,,,,0,0,0,,,,,,,,,2/8 Mostly Clear,72000.0,,FEW,4500.0,,,,,,
KRDR,10-06-2001,20:00,METAR,,210,3.0,,,9999.0,Cloud Development Not Observable,12.0,-11.0,30.08,1019.9,,,,0,0,0,,,,,,,,,2/8 Mostly Clear,72000.0,,FEW,4500.0,FEW,7900.0,,,,
KRDR,10-06-2001,18:00,METAR,,230,9.0,,,9999.0,Cloud Development Not Observable,11.0,-8.0,30.11,1021.1,,,,0,0,0,,,,,,,,,2/8 Mostly Clear,72000.0,,FEW,4500.0,FEW,7900.0,,,,
KRDR,10-06-2001,17:00,METAR,,230,11.0,,,9999.0,Cloud Development Not Observable,9.0,-6.0,30.12,1021.4,,,,0,0,0,,,,,,,,,Clear,72000.0,,,73000.0,,,,,,
KRDR,10-06-2001,16:00,METAR,,230,12.0,,,9999.0,Cloud Development Not Observable,7.0,-7.0,30.13,1021.8,,,,0,0,0,,,,,,,,,Clear,72000.0,,,73000.0,,,,,,
KRDR,10-06-2001,15:00,METAR,,230,10.0,,,9999.0,Cloud Development Not Observable,4.0,-5.0,30.13,1021.9,,,,0,0,0,,,,,,,,,Clear,72000.0,,,73000.0,,,,,,
KRDR,10-06-2001,14:00,METAR,,230,9.0,,,9999.0,Cloud Development Not Observable,0.0,-3.0,30.13,1021.8,,,,0,0,0,,,,,,,,,2/8 Mostly Clear,72000.0,,FEW,6900.0,FEW,25000.0,,,,
KRDR,10-06-2001,13:00,METAR,,180,5.0,,,9999.0,Cloud Development Not Observable,-4.0,-6.0,30.13,1021.7,,,,0,0,0,,,,,,,,,4/8 Partly Cloudy,72000.0,,FEW,6900.0,SCT,25000.0,,,,
KRDR,10-06-2001,12:00,METAR,,240,6.0,,,9999.0,Cloud Development Not Observable,-4.0,-6.0,30.12,1021.7,,,,0,0,0,,,,,,,,,4/8 Partly Cloudy,72000.0,,FEW,6900.0,SCT,25000.0,,,,
KRDR,10-06-2001,09:00,METAR,,240,6.0,,,9999.0,Cloud Development Not Observable,-4.0,-5.0,30.13,1021.8,,,,0,0,0,,,,,,,,,7/8 Mostly Cloudy,6000.0,,BKN,5900.0,,,,,,
KRDR,10-06-2001,07:00,METAR,,260,5.0,,,9999.0,Cloud Development Not Observable,-6.0,-8.0,30.12,1021.7,,,,0,0,0,,,,,,,,,2/8 Mostly Clear,72000.0,,FEW,7900.0,,,,,,
KRDR,10-06-2001,05:00,METAR,,250,4.0,,,9999.0,Cloud Development Not Observable,-5.0,-8.0,30.12,1021.7,,,,0,0,0,,,,,,,,,Clear,72000.0,,,73000.0,,,,,,
KRDR,10-06-2001,04:00,METAR,,280,6.0,,,9999.0,Cloud Development Not Observable,-3.0,-8.0,30.12,1021.6,,,,0,0,0,,,,,,,,,Clear,72000.0,,,73000.0,,,,,,
KRDR,10-06-2001,03:00,METAR,,280,6.0,,,9999.0,Cloud Development Not Observable,-2.0,-7.0,30.11,1021.2,,,,0,0,0,,,,,,,,,2/8 Mostly Clear,72000.0,,FEW,7400.0,,,,,,
KRDR,10-06-2001,02:00,METAR,,270,5.0,,,9999.0,Cloud Development Not Observable,-1.0,-7.0,30.11,1021.1,,,,0,0,0,,,,,,,,,7/8 Mostly Cloudy,8000.0,,BKN,7900.0,,,,,,
KRDR,10-06-2001,01:00,METAR,,,2.0,,,9999.0,Cloud Development Not Observable,-1.0,-8.0,30.11,1021.3,,,,0,0,0,,,,,,,,,7/8 Mostly Cloudy,8000.0,,BKN,7900.0,,,,,,
KRDR,10-06-2001,00:00,METAR,,350,6.0,,,9999.0,Cloud Development Not Observable,1.0,-8.0,30.11,1021.1,,,,0,0,0,,,,,,,,,7/8 Mostly Cloudy,6000.0,,BKN,5900.0,,,,,,
KRDR,10-05-2001,23:00,METAR,,330,15.0,,,9999.0,Cloud Development Not Observable,4.0,-10.0,30.11,1021.0,,,,0,0,0,,,,,,,,,7/8 Mostly Cloudy,7500.0,,SCT,5400.0,BKN,7400.0,,,,
KRDR,10-05-2001,22:00,METAR,,310,18.0,,310/27KTS,9999.0,Cloud Development Not Observable,4.0,-8.0,30.11,,,,,0,0,0,,,,,,,,,8/8 Overcast,5500.0,,OVC,5400.0,,,,,,
KRDR,10-05-2001,21:00,METAR,,290,15.0,,280/25KTS,9999.0,Cloud Development Not Observable,4.0,-7.0,30.11,1020.8,,,,0,0,0,,,,,,,,,7/8 Mostly Cloudy,5500.0,,FEW,3500.0,BKN,5400.0,,,,
KRDR,10-05-2001,20:00,METAR,,300,17.0,,,9999.0,Cloud Development Not Observable,4.0,-8.0,30.12,1021.2,,,,0,0,0,,,,,,,,,8/8 Overcast,5500.0,,FEW,3500.0,OVC,5400.0,,,,
KRDR,10-05-2001,19:00,METAR,,330,17.0,,290/27KTS,9999.0,Cloud Development Not Observable,4.0,-8.0,30.14,1021.9,,,,0,0,0,,,,,,,,,8/8 Overcast,5500.0,,OVC,5400.0,,,,,,
KRDR,10-05-2001,18:00,METAR,,300,21.0,26.0,,9999.0,Cloud Development Not Observable,5.0,-8.0,30.15,1022.2,,,,0,0,0,,,,,,,,,7/8 Mostly Cloudy,6000.0,,FEW,3500.0,BKN,5900.0,,,,
KRDR,10-05-2001,17:00,METAR,,300,15.0,23.0,,9999.0,Cloud Development Not Observable,3.0,-7.0,30.17,1022.9,,,,0,0,0,,,,,,,,,7/8 Mostly Cloudy,6000.0,,FEW,3500.0,BKN,5900.0,,,,
KRDR,10-05-2001,16:00,METAR,,300,18.0,,,9999.0,Cloud Development Not Observable,3.0,-7.0,30.19,1023.5,,,,0,0,0,,,,,,,,,7/8 Mostly Cloudy,6000.0,,BKN,5900.0,,,,,,
KRDR,10-05-2001,15:00,METAR,,300,12.0,,,9999.0,Cloud Development Not Observable,3.0,-6.0,30.19,1023.6,,,,0,0,0,,,,,,,,,7/8 Mostly Cloudy,6000.0,,BKN,5900.0,,,,,,
KRDR,10-05-2001,12:00,METAR,,290,9.0,,,9999.0,Cloud Development Not Observable,-2.0,-5.0,30.17,1023.1,,,,0,0,0,,,,,,,,,4/8 Partly Cloudy,72000.0,,SCT,5000.0,,,,,,
KRDR,10-05-2001,11:00,METAR,,280,7.0,,,9999.0,Cloud Development Not Observable,-1.0,-4.0,30.16,1022.7,,,,0,0,0,,,,,,,,,7/8 Mostly Cloudy,4900.0,,SCT,4000.0,BKN,5000.0,,,,
KRDR,10-05-2001,10:00,METAR,,310,9.0,,,9999.0,Cloud Development Not Observable,2.0,-5.0,30.15,1022.2,,,,0,0,0,,,,,,,,,7/8 Mostly Cloudy,4900.0,,BKN,5000.0,,,,,,
KRDR,10-05-2001,09:00,METAR,,310,9.0,,,9999.0,Cloud Development Not Observable,3.0,-4.0,30.15,1022.1,,,,0,0,0,,,,,,,,,7/8 Mostly Cloudy,4900.0,,BKN,5000.0,,,,,,
KRDR,10-05-2001,08:00,METAR,,330,11.0,,,9999.0,Cloud Development Not Observable,3.0,-5.0,30.15,1022.1,,,,0,0,0,,,,,,,,,7/8 Mostly Cloudy,4900.0,,BKN,5000.0,,,,,,
KRDR,10-05-2001,07:00,METAR,,330,10.0,,,9999.0,Cloud Development Not Observable,3.0,-4.0,30.15,1022.0,,,,0,0,0,,,,,,,,,7/8 Mostly Cloudy,4100.0,,BKN,4200.0,BKN,6900.0,,,,
KRDR,10-05-2001,03:00,METAR,,320,7.0,,,9999.0,Cloud Development Not Observable,4.0,-1.0,,,,,,0,0,0,,,,,,,,,Clear,72000.0,,,73000.0,,,,,,
KRDR,10-04-2001,21:00,METAR,,320,25.0,29.0,300/32KTS,9999.0,Cloud Development Not Observable,11.0,-2.0,30.02,1017.7,,,,0,0,0,,,,,,,,,7/8 Mostly Cloudy,4900.0,,BKN,5000.0,,,,,,
KRDR,10-04-2001,20:00,METAR,,300,22.0,31.0,300/32KTS,9999.0,Cloud Development Not Observable,12.0,-2.0,30.01,1017.1,,,,0,0,0,,,,,,,,,7/8 Mostly Cloudy,4900.0,,BKN,5000.0,,,,,,
KRDR,10-04-2001,19:00,METAR,,300,22.0,31.0,,9999.0,Cloud Development Not Observable,12.0,-1.0,30.01,1017.3,,,,0,0,0,,,,,,,,,4/8 Partly Cloudy,72000.0,,SCT,4000.0,,,,,,
KRDR,10-04-2001,17:00,METAR,,300,23.0,30.0,290/34KTS,9999.0,Cloud Development Not Observable,10.0,-1.0,30.02,1017.7,,,,0,0,0,,,,,,,,,2/8 Mostly Clear,72000.0,,FEW,4000.0,,,,,,
KRDR,10-04-2001,16:00,METAR,,300,18.0,28.0,300/30KTS,9999.0,Cloud Development Not Observable,10.0,0.0,30.01,1017.3,,,,0,0,0,,,,,,,,,2/8 Mostly Clear,72000.0,,FEW,4000.0,,,,,,
KRDR,10-04-2001,15:00,METAR,,300,18.0,26.0,,9999.0,Cloud Development Not Observable,8.0,0.0,30.01,1017.4,,,,0,0,0,,,,,,,,,Clear,72000.0,,,73000.0,,,,,,
KRDR,10-04-2001,14:00,METAR,,280,15.0,21.0,,9999.0,Cloud Development Not Observable,6.0,-1.0,30.00,1016.9,,,,0,0,0,,,,,,,,,Clear,72000.0,,,73000.0,,,,,,
KRDR,10-04-2001,13:00,METAR,,290,13.0,,,9999.0,Cloud Development Not Observable,4.0,-1.0,29.99,1016.5,,,,0,0,0,,,,,,,,,Clear,72000.0,,,73000.0,,,,,,
KRDR,10-04-2001,11:00,METAR,,280,8.0,,,9999.0,Cloud Development Not Observable,4.0,-1.0,29.97,1015.6,,,,0,0,0,,,,,,,,,Clear,72000.0,,,73000.0,,,,,,
KRDR,10-04-2001,09:00,METAR,,270,10.0,,,9999.0,Cloud Development Not Observable,5.0,-1.0,29.95,1014.9,,,,0,0,0,,,,,,,,,Clear,72000.0,,,73000.0,,,,,,
KRDR,10-04-2001,02:00,METAR,,260,7.0,,,9999.0,Cloud Development Not Observable,7.0,-2.0,29.90,1013.4,,,,0,0,0,,,,,,,,,2/8 Mostly Clear,72000.0,,FEW,5400.0,FEW,25000.0,,,,
KRDR,10-04-2001,00:00,METAR,,310,8.0,,,9999.0,Cloud Development Not Observable,13.0,0.0,29.88,1012.8,,,,0,0,0,,,,,,,,,4/8 Partly Cloudy,72000.0,,FEW,5400.0,SCT,25000.0,,,,
KRDR,10-03-2001,23:00,METAR,,260,17.0,,,9999.0,Cloud Development Not Observable,16.0,0.0,29.87,1012.3,,,,0,0,0,,,,,,,,,7/8 Mostly Cloudy,25000.0,,FEW,5400.0,BKN,25000.0,,,,
KRDR,10-03-2001,21:00,METAR,,280,20.0,,270/25KTS,9999.0,Cloud Development Not Observable,17.0,-2.0,29.89,1013.2,,,,0,0,0,,,,,,,,,7/8 Mostly Cloudy,25000.0,,SCT,5400.0,BKN,25000.0,,,,
KRDR,10-03-2001,20:00,METAR,,270,19.0,,270/25KTS,9999.0,Cloud Development Not Observable,17.0,1.0,29.90,1013.2,,,,0,0,0,,,,,,,,,7/8 Mostly Cloudy,25000.0,,SCT,4500.0,BKN,25000.0,,,,
KRDR,10-03-2001,19:00,METAR,,280,16.0,22.0,,9999.0,Cloud Development Not Observable,17.0,1.0,29.92,1013.9,,,,0,0,0,,,,,,,,,7/8 Mostly Cloudy,25000.0,,SCT,3000.0,BKN,25000.0,,,,
KRDR,10-03-2001,17:55,METAR,,290,12.0,24.0,,9999.0,Cloud Development Not Observable,16.0,2.0,29.94,1014.5,,,,0,0,0,,,,,,,,,7/8 Mostly Cloudy,25000.0,,SCT,3000.0,BKN,25000.0,,,,
KRDR,10-03-2001,17:00,METAR,,290,13.0,19.0,,9999.0,Cloud Development Not Observable,15.0,3.0,29.95,1014.7,,,,0,0,0,,,,,,,,,7/8 Mostly Cloudy,25000.0,,FEW,15000.0,BKN,25000.0,,,,
KRDR,10-03-2001,16:00,METAR,,310,12.0,,,9999.0,Cloud Development Not Observable,13.0,6.0,29.96,1015.6,,,,0,0,0,,,,,,,,,7/8 Mostly Cloudy,25000.0,,FEW,15000.0,BKN,25000.0,,,,
KRDR,10-03-2001,15:00,METAR,,280,11.0,,,9999.0,Cloud Development Not Observable,11.0,7.0,29.98,1015.9,,,,0,0,0,,,,,,,,,7/8 Mostly Cloudy,25000.0,,FEW,15000.0,BKN,25000.0,,,,
KRDR,10-03-2001,14:00,METAR,,260,7.0,,,9999.0,Cloud Development Not Observable,8.0,8.0,29.98,1016.0,,,,0,0,0,,,,,,,,,7/8 Mostly Cloudy,25000.0,,FEW,15000.0,BKN,25000.0,,,,
KRDR,10-03-2001,13:00,METAR,,240,5.0,,,9999.0,Cloud Development Not Observable,4.0,4.0,29.98,1016.1,,,,0,0,0,,,,,,,,,4/8 Partly Cloudy,72000.0,,FEW,9900.0,SCT,25000.0,,,,
KRDR,10-03-2001,12:00,METAR,,280,7.0,,,9999.0,Cloud Development Not Observable,3.0,3.0,29.96,1015.6,,,,0,0,0,,,,,,,,,2/8 Mostly Clear,72000.0,,FEW,9900.0,FEW,25000.0,,,,
KRDR,10-03-2001,11:00,METAR,,280,6.0,,,9999.0,Cloud Development Not Observable,4.0,4.0,29.95,1015.1,,,,0,0,0,,,,,,,,,2/8 Mostly Clear,72000.0,,FEW,9900.0,FEW,25000.0,,,,
KRDR,10-03-2001,10:00,METAR,,300,9.0,,,9999.0,Cloud Development Not Observable,5.0,5.0,29.95,1014.9,,,,0,0,0,,,,,,,,,2/8 Mostly Clear,72000.0,,FEW,25000.0,,,,,,
KRDR,10-03-2001,08:00,METAR,,300,7.0,,,9999.0,Cloud Development Not Observable,7.0,7.0,29.94,1014.5,,,,0,0,0,,,,,,,,,2/8 Mostly Clear,72000.0,,FEW,6900.0,,,,,,
KRDR,10-03-2001,07:00,METAR,,310,8.0,,,9999.0,Cloud Development Not Observable,9.0,8.0,29.94,1014.4,,,,0,0,0,,,,,,,,,4/8 Partly Cloudy,72000.0,,SCT,6900.0,,,,,,
KRDR,10-03-2001,04:00,METAR,,330,9.0,,,9999.0,Cloud Development Not Observable,11.0,8.0,29.92,1013.9,,,,0,0,0,,,,,,,,,7/8 Mostly Cloudy,11000.0,,SCT,5400.0,BKN,11000.0,BKN,25000.0,,
KRDR,10-03-2001,01:00,METAR,,340,8.0,,,9999.0,Cloud Development Not Observable,12.0,7.0,29.90,1013.4,,,,0,0,0,,,,,,,,,7/8 Mostly Cloudy,3900.0,,BKN,4000.0,BKN,25000.0,,,,
KRDR,10-03-2001,00:00,METAR,,10,15.0,,,9999.0,Cloud Development Not Observable,14.0,6.0,29.86,1011.9,,,,0,0,0,,,,,,,,,7/8 Mostly Cloudy,25000.0,,SCT,4000.0,BKN,25000.0,,,,
KRDR,10-02-2001,23:00,METAR,,360,18.0,23.0,,9999.0,Cloud Development Not Observable,16.0,7.0,29.83,1011.0,,,,0,0,0,,,,,,,,,4/8 Partly Cloudy,72000.0,,SCT,4000.0,SCT,25000.0,,,,
KRDR,10-02-2001,21:00,METAR,,20,18.0,26.0,,9999.0,Cloud Development Not Observable,16.0,7.0,29.79,1009.4,,,,0,0,0,,,,,,,,,4/8 Partly Cloudy,72000.0,,FEW,6900.0,SCT,20000.0,,,,
KRDR,10-02-2001,19:00,METAR,,40,15.0,25.0,,9999.0,Cloud Development Not Observable,17.0,8.0,29.75,1008.2,,,,0,0,0,,,,,,,,,7/8 Mostly Cloudy,20000.0,,FEW,2500.0,SCT,11000.0,BKN,20000.0,,
KRDR,10-02-2001,17:00,METAR,,40,16.0,,,9999.0,Cloud Development Not Observable,18.0,5.0,29.74,1007.4,,,,0,0,0,,,,,,,,,7/8 Mostly Cloudy,20000.0,,BKN,20000.0,,,,,,
KRDR,10-02-2001,16:00,METAR,,20,11.0,,,9999.0,Cloud Development Not Observable,16.0,5.0,29.73,1007.1,,,,0,0,0,,,,,,,,,7/8 Mostly Cloudy,20000.0,,FEW,11000.0,BKN,20000.0,,,,
KRDR,10-02-2001,14:48,SPECI,,20,13.0,,,9999.0,Cloud Development Not Observable,13.0,4.0,29.72,,,,,0,0,0,,,,,,,,,7/8 Mostly Cloudy,11000.0,,SCT,6900.0,BKN,11000.0,BKN,20000.0,,
KRDR,10-02-2001,14:36,SPECI,,20,11.0,,,9999.0,Light Rain Showers/Cloud Development Not Observable,13.0,5.0,29.72,,,,,80,0,0,,,,,,,,,7/8 Mostly Cloudy,11000.0,,SCT,6900.0,BKN,11000.0,BKN,20000.0,,
KRDR,10-02-2001,13:00,METAR,,320,8.0,,,9999.0,Cloud Development Not Observable,6.0,5.0,29.72,1007.0,,,,0,0,0,,,,,,,,,7/8 Mostly Cloudy,8000.0,,BKN,7900.0,BKN,20000.0,,,,
KRDR,10-02-2001,12:00,METAR,,,1.0,,,9999.0,Cloud Development Not Observable,7.0,3.0,29.72,1006.9,,,,0,0,0,,,,,,,,,7/8 Mostly Cloudy,20000.0,,SCT,7900.0,BKN,20000.0,,,,
KRDR,10-02-2001,11:00,METAR,,,3.0,,,9999.0,Cloud Development Not Observable,7.0,3.0,29.75,1007.8,,,,0,0,0,,,,,,,,,4/8 Partly Cloudy,72000.0,,FEW,12000.0,SCT,20000.0,,,,
KRDR,10-02-2001,10:00,METAR,,330,4.0,,,9999.0,Cloud Development Not Observable,6.0,2.0,29.78,1008.8,,,,0,0,0,,,,,,,,,7/8 Mostly Cloudy,25000.0,,BKN,25000.0,,,,,,
KRDR,10-02-2001,09:00,METAR,,360,5.0,,,9999.0,Cloud Development Not Observable,7.0,2.0,29.81,1009.9,,,,0,0,0,,,,,,,,,7/8 Mostly Cloudy,25000.0,,BKN,25000.0,,,,,,
KRDR,10-02-2001,08:00,METAR,,300,4.0,,,9999.0,Cloud Development Not Observable,7.0,2.0,29.84,1010.9,,,,0,0,0,,,,,,,,,7/8 Mostly Cloudy,25000.0,,BKN,25000.0,,,,,,
KRDR,10-02-2001,07:00,METAR,,310,4.0,,,9999.0,Cloud Development Not Observable,8.0,1.0,29.86,1011.6,,,,0,0,0,,,,,,,,,7/8 Mostly Cloudy,25000.0,,BKN,25000.0,,,,,,
KRDR,10-02-2001,06:00,METAR,,320,5.0,,,9999.0,Cloud Development Not Observable,8.0,2.0,29.89,1012.5,,,,0,0,0,,,,,,,,,2/8 Mostly Clear,72000.0,,FEW,20000.0,,,,,,
KRDR,10-02-2001,05:00,METAR,,,2.0,,,9999.0,Cloud Development Not Observable,11.0,2.0,29.90,1012.9,,,,0,0,0,,,,,,,,,4/8 Partly Cloudy,72000.0,,FEW,15000.0,SCT,20000.0,,,,
KRDR,10-02-2001,04:00,METAR,,40,6.0,,,9999.0,Cloud Development Not Observable,15.0,0.0,29.91,1013.2,,,,0,0,0,,,,,,,,,7/8 Mostly Cloudy,15000.0,,SCT,7900.0,BKN,15000.0,BKN,20000.0,,
KRDR,10-02-2001,01:00,METAR,,20,7.0,,,9999.0,Cloud Development Not Observable,16.0,3.0,29.92,1013.9,,,,0,0,0,,,,,,,,,4/8 Partly Cloudy,72000.0,,SCT,20000.0,,,,,,
KRDR,10-02-2001,00:00,METAR,,30,7.0,,,9999.0,Cloud Development Not Observable,19.0,3.0,29.93,1014.0,,,,0,0,0,,,,,,,,,4/8 Partly Cloudy,72000.0,,SCT,25000.0,,,,,,
KRDR,10-01-2001,23:00,METAR,,30,8.0,,,9999.0,Cloud Development Not Observable,23.0,3.0,29.93,1014.0,,,,0,0,0,,,,,,,,,2/8 Mostly Clear,72000.0,,FEW,25000.0,,,,,,
KRDR,10-01-2001,22:00,METAR,,20,10.0,,,9999.0,Cloud Development Not Observable,24.0,2.0,29.95,1014.5,,,,0,0,0,,,,,,,,,2/8 Mostly Clear,72000.0,,FEW,25000.0,,,,,,
KRDR,10-01-2001,21:00,METAR,,30,9.0,,,9999.0,Cloud Development Not Observable,24.0,4.0,29.96,1014.9,,,,0,0,0,,,,,,,,,2/8 Mostly Clear,72000.0,,FEW,25000.0,,,,,,
KRDR,10-01-2001,20:00,METAR,,20,10.0,,,9999.0,Cloud Development Not Observable,24.0,8.0,29.97,1015.5,,,,0,0,0,,,,,,,,,2/8 Mostly Clear,72000.0,,FEW,25000.0,,,,,,
KRDR,10-01-2001,19:00,METAR,,350,11.0,,,9999.0,Cloud Development Not Observable,24.0,8.0,29.99,1015.9,,,,0,0,0,,,,,,,,,2/8 Mostly Clear,72000.0,,FEW,25000.0,,,,,,
KRDR,10-01-2001,18:00,METAR,,340,11.0,,,9999.0,Cloud Development Not Observable,23.0,8.0,30.00,1016.4,,,,0,0,0,,,,,,,,,2/8 Mostly Clear,72000.0,,FEW,25000.0,,,,,,
KRDR,10-01-2001,17:00,METAR,,320,13.0,,,9999.0,Cloud Development Not Observable,23.0,7.0,30.00,1016.5,,,,0,0,0,,,,,,,,,2/8 Mostly Clear,72000.0,,FEW,25000.0,,,,,,
KRDR,10-01-2001,16:00,METAR,,280,10.0,,,9999.0,Cloud Development Not Observable,22.0,6.0,30.00,1016.6,,,,0,0,0,,,,,,,,,2/8 Mostly Clear,72000.0,,FEW,25000.0,,,,,,
KRDR,10-01-2001,15:00,METAR,,280,8.0,,,9999.0,Cloud Development Not Observable,19.0,8.0,30.02,1017.1,,,,0,0,0,,,,,,,,,4/8 Partly Cloudy,72000.0,,SCT,25000.0,,,,,,
KRDR,10-01-2001,13:00,METAR,,210,4.0,,,9999.0,Cloud Development Not Observable,10.0,7.0,30.03,1017.7,,,,0,0,0,,,,,,,,,2/8 Mostly Clear,72000.0,,FEW,25000.0,,,,,,
KRDR,10-01-2001,12:00,METAR,,230,6.0,,,9999.0,Cloud Development Not Observable,9.0,7.0,30.04,1017.9,,,,0,0,0,,,,,,,,,2/8 Mostly Clear,72000.0,,FEW,9900.0,FEW,25000.0,,,,
KRDR,10-01-2001,10:00,METAR,,210,5.0,,,9999.0,Cloud Development Not Observable,9.0,8.0,30.06,1018.5,,,,0,0,0,,,,,,,,,Clear,72000.0,,,73000.0,,,,,,
KRDR,10-01-2001,09:00,METAR,,200,7.0,,,9999.0,Cloud Development Not Observable,8.0,7.0,30.08,1019.2,,,,0,0,0,,,,,,,,,Clear,72000.0,,,73000.0,,,,,,
KRDR,10-01-2001,08:00,METAR,,200,7.0,,,9999.0,Cloud Development Not Observable,7.0,7.0,30.09,1019.6,,,,0,0,0,,,,,,,,,Clear,72000.0,,,73000.0,,,,,,
KRDR,10-01-2001,07:00,METAR,,210,6.0,,,9999.0,Cloud Development Not Observable,8.0,7.0,30.11,1020.3,,,,0,0,0,,,,,,,,,Clear,72000.0,,,73000.0,,,,,,
KRDR,10-01-2001,06:00,METAR,,190,5.0,,,9999.0,Cloud Development Not Observable,7.0,7.0,30.12,1020.8,,,,0,0,0,,,,,,,,,Clear,72000.0,,,73000.0,,,,,,
KRDR,10-01-2001,05:00,METAR,,200,5.0,,,9999.0,Cloud Development Not Observable,7.0,7.0,30.13,1021.6,,,,0,0,0,,,,,,,,,2/8 Mostly Clear,72000.0,,FEW,2000.0,,,,,,
KRDR,10-01-2001,04:00,METAR,,200,5.0,,,9999.0,Cloud Development Not Observable,7.0,6.0,30.15,1021.7,,,,0,0,0,,,,,,,,,Clear,72000.0,,,73000.0,,,,,,
KRDR,10-01-2001,02:00,METAR,,230,4.0,,,9999.0,Cloud Development Not Observable,12.0,9.0,30.16,1022.2,,,,0,0,0,,,,,,,,,Clear,72000.0,,,73000.0,,,,,,
KRDR,10-01-2001,01:00,METAR,,150,5.0,,,9999.0,Cloud Development Not Observable,13.0,8.0,30.16,1022.0,,,,0,0,0,,,,,,,,,Clear,72000.0,,,73000.0,,,,,,
KRDR,10-01-2001,00:00,METAR,,,4.0,,,9999.0,Cloud Development Not Observable,21.0,8.0,30.16,1021.9,,,,0,0,0,,,,,,,,,Clear,72000.0,,,73000.0,,,,,,
KRDR,09-30-2001,23:00,METAR,,280,2.0,,,9999.0,Cloud Development Not Observable,21.0,7.0,30.17,1022.3,,,,0,0,0,,,,,,,,,Clear,72000.0,,,73000.0,,,,,,
KRDR,09-30-2001,22:00,METAR,,350,7.0,,,9999.0,Cloud Development Not Observable,21.0,8.0,30.18,1022.6,,,,0,0,0,,,,,,,,,Clear,72000.0,,,73000.0,,,,,,
KRDR,09-30-2001,21:00,METAR,,10,8.0,,,9999.0,Cloud Development Not Observable,21.0,8.0,30.19,1022.9,,,,0,0,0,,,,,,,,,Clear,72000.0,,,73000.0,,,,,,
KRDR,09-30-2001,20:00,METAR,,350,10.0,,,9999.0,Cloud Development Not Observable,21.0,9.0,30.20,1023.2,,,,0,0,0,,,,,,,,,Clear,72000.0,,,73000.0,,,,,,
KRDR,09-30-2001,19:00,METAR,,350,9.0,,,9999.0,Cloud Development Not Observable,20.0,10.0,30.22,1023.9,,,,0,0,0,,,,,,,,,2/8 Mostly Clear,72000.0,,FEW,20000.0,,,,,,
KRDR,09-30-2001,17:55,METAR,,360,12.0,,,9999.0,Cloud Development Not Observable,18.0,10.0,30.24,1024.4,,,,0,0,0,,,,,,,,,2/8 Mostly Clear,72000.0,,FEW,2000.0,FEW,20000.0,,,,
KRDR,09-30-2001,17:00,METAR,,10,12.0,,,9999.0,Cloud Development Not Observable,17.0,11.0,30.25,1025.0,,,,0,0,0,,,,,,,,,2/8 Mostly Clear,72000.0,,FEW,2000.0,FEW,20000.0,,,,
KRDR,09-30-2001,16:00,METAR,,360,12.0,,,9999.0,Cloud Development Not Observable,15.0,11.0,30.25,1025.0,,,,0,0,0,,,,,,,,,4/8 Partly Cloudy,72000.0,,FEW,2000.0,SCT,20000.0,,,,
KRDR,09-30-2001,15:00,METAR,,350,12.0,,,9999.0,Cloud Development Not Observable,13.0,11.0,30.25,1024.9,,,,0,0,0,,,,,,,,,2/8 Mostly Clear,72000.0,,FEW,1500.0,,,,,,
KRDR,09-30-2001,14:00,METAR,,340,12.0,,,9999.0,Cloud Development Not Observable,12.0,11.0,30.23,1024.0,,,,0,0,0,,,,,,,,,4/8 Partly Cloudy,72000.0,,SCT,1500.0,,,,,,
KRDR,09-30-2001,13:00,METAR,,350,12.0,,,9999.0,Cloud Development Not Observable,11.0,11.0,30.21,1023.5,,,,0,0,0,,,,,,,,,4/8 Partly Cloudy,72000.0,,SCT,1500.0,,,,,,
KRDR,09-30-2001,11:00,METAR,,330,10.0,,,9999.0,Cloud Development Not Observable,11.0,11.0,30.18,1022.5,,,,0,0,0,,,,,,,,,Clear,72000.0,,,73000.0,,,,,,
KRDR,09-30-2001,09:00,METAR,,340,11.0,,,9999.0,Cloud Development Not Observable,13.0,12.0,30.14,1020.8,,,,0,0,0,,,,,,,,,2/8 Mostly Clear,72000.0,,FEW,25000.0,,,,,,
KRDR,09-30-2001,08:00,METAR,,340,12.0,,,9999.0,Cloud Development Not Observable,14.0,12.0,30.13,1020.6,,,,0,0,0,,,,,,,,,7/8 Mostly Cloudy,25000.0,,FEW,15000.0,BKN,25000.0,,,,
KRDR,09-30-2001,07:00,METAR,,350,14.0,,,9999.0,Cloud Development Not Observable,15.0,12.0,30.11,1019.9,,,,0,0,0,,,,,,,,,7/8 Mostly Cloudy,25000.0,,FEW,15000.0,BKN,25000.0,,,,
KRDR,09-30-2001,06:00,METAR,,340,12.0,,,9999.0,Cloud Development Not Observable,18.0,14.0,30.07,1018.5,,,,0,0,0,,,,,,,,,7/8 Mostly Cloudy,25000.0,,FEW,15000.0,BKN,25000.0,,,,
KRDR,09-30-2001,04:00,METAR,,220,7.0,,,9999.0,Cloud Development Not Observable,19.0,13.0,30.03,1017.2,,,,0,0,0,,,,,,,,,4/8 Partly Cloudy,72000.0,,SCT,15000.0,SCT,25000.0,,,,
KRDR,09-30-2001,03:00,METAR,,180,7.0,,,9999.0,Cloud Development Not Observable,19.0,13.0,30.03,1017.2,,,,0,0,0,,,,,,,,,7/8 Mostly Cloudy,15000.0,,BKN,15000.0,BKN,25000.0,,,,
KRDR,09-30-2001,02:00,METAR,,180,6.0,,,9999.0,Cloud Development Not Observable,20.0,13.0,30.03,1016.9,,,,0,0,0,,,,,,,,,7/8 Mostly Cloudy,15000.0,,FEW,5000.0,BKN,15000.0,BKN,25000.0,,
KRDR,09-30-2001,01:00,METAR,,180,7.0,,,9999.0,Cloud Development Not Observable,21.0,12.0,30.01,1016.6,,,,0,0,0,,,,,,,,,7/8 Mostly Cloudy,25000.0,,FEW,5000.0,SCT,15000.0,BKN,25000.0,,
KRDR,09-30-2001,00:00,METAR,,200,8.0,,,9999.0,Cloud Development Not Observable,24.0,12.0,30.00,1016.2,,,,0,0,0,,,,,,,,,7/8 Mostly Cloudy,25000.0,,FEW,15000.0,BKN,25000.0,,,,
KRDR,09-29-2001,23:00,METAR,,200,15.0,,,9999.0,Cloud Development Not Observable,26.0,10.0,29.99,1016.0,,,,0,0,0,,,,,,,,,7/8 Mostly Cloudy,25000.0,,FEW,15000.0,BKN,25000.0,,,,
KRDR,09-29-2001,22:00,METAR,,210,19.0,,,9999.0,Cloud Development Not Observable,26.0,10.0,29.99,1016.0,,,,0,0,0,,,,,,,,,7/8 Mostly Cloudy,25000.0,,FEW,15000.0,BKN,25000.0,,,,
KRDR,09-29-2001,21:00,METAR,,190,18.0,,200/26KTS,9999.0,Cloud Development Not Observable,27.0,11.0,29.99,1015.9,,,,0,0,0,,,,,,,,,7/8 Mostly Cloudy,25000.0,,BKN,25000.0,,,,,,
KRDR,09-29-2001,20:00,METAR,,180,19.0,24.0,,9999.0,Cloud Development Not Observable,26.0,10.0,29.99,1015.9,,,,0,0,0,,,,,,,,,7/8 Mostly Cloudy,25000.0,,BKN,25000.0,,,,,,
KRDR,09-29-2001,19:00,METAR,,180,19.0,27.0,,9999.0,Cloud Development Not Observable,27.0,11.0,30.00,1016.2,,,,0,0,0,,,,,,,,,7/8 Mostly Cloudy,25000.0,,BKN,25000.0,,,,,,
KRDR,09-29-2001,18:00,METAR,,180,17.0,25.0,180/27KTS,9999.0,Cloud Development Not Observable,25.0,10.0,30.01,1016.6,,,,0,0,0,,,,,,,,,7/8 Mostly Cloudy,25000.0,,BKN,25000.0,,,,,,
KRDR,09-29-2001,17:00,METAR,,170,22.0,26.0,,9999.0,Cloud Development Not Observable,23.0,10.0,30.03,1017.2,,,,0,0,0,,,,,,,,,7/8 Mostly Cloudy,25000.0,,BKN,25000.0,,,,,,
KRDR,09-29-2001,16:00,METAR,,170,17.0,,,9999.0,Cloud Development Not Observable,20.0,10.0,30.04,1017.8,,,,0,0,0,,,,,,,,,7/8 Mostly Cloudy,25000.0,,BKN,25000.0,,,,,,
KRDR,09-29-2001,15:00,METAR,,180,17.0,,,9999.0,Cloud Development Not Observable,17.0,9.0,30.05,1018.2,,,,0,0,0,,,,,,,,,7/8 Mostly Cloudy,25000.0,,BKN,25000.0,,,,,,
KRDR,09-29-2001,14:00,METAR,,160,13.0,,,9999.0,Cloud Development Not Observable,13.0,8.0,30.05,1018.2,,,,0,0,0,,,,,,,,,4/8 Partly Cloudy,72000.0,,SCT,25000.0,,,,,,
KRDR,09-29-2001,12:00,METAR,,160,12.0,,,9999.0,Cloud Development Not Observable,11.0,8.0,30.06,1018.4,,,,0,0,0,,,,,,,,,Clear,72000.0,,,73000.0,,,,,,
KRDR,09-29-2001,09:00,METAR,,160,13.0,,,9999.0,Cloud Development Not Observable,12.0,6.0,30.07,1018.6,,,,0,0,0,,,,,,,,,Clear,72000.0,,,73000.0,,,,,,
KRDR,09-29-2001,08:00,METAR,,170,12.0,,,9999.0,Cloud Development Not Observable,12.0,6.0,30.08,1019.0,,,,0,0,0,,,,,,,,,Clear,72000.0,,,73000.0,,,,,,
KRDR,09-29-2001,07:00,METAR,,160,13.0,,,9999.0,Cloud Development Not Observable,13.0,6.0,30.08,1019.0,,,,0,0,0,,,,,,,,,Clear,72000.0,,,73000.0,,,,,,
KRDR,09-29-2001,06:00,METAR,,170,12.0,,,9999.0,Cloud Development Not Observable,13.0,6.0,30.09,1019.2,,,,0,0,0,,,,,,,,,Clear,72000.0,,,73000.0,,,,,,
KRDR,09-29-2001,05:00,METAR,,160,11.0,,,9999.0,Cloud Development Not Observable,13.0,5.0,30.09,1019.3,,,,0,0,0,,,,,,,,,Clear,72000.0,,,73000.0,,,,,,
KRDR,09-29-2001,04:00,METAR,,160,12.0,,,9999.0,Cloud Development Not Observable,14.0,5.0,30.09,1019.5,,,,0,0,0,,,,,,,,,Clear,72000.0,,,73000.0,,,,,,
KRDR,09-29-2001,03:00,METAR,,150,9.0,,,9999.0,Cloud Development Not Observable,15.0,5.0,30.10,1019.8,,,,0,0,0,,,,,,,,,Clear,72000.0,,,73000.0,,,,,,
KRDR,09-29-2001,02:00,METAR,,150,12.0,,,9999.0,Cloud Development Not Observable,16.0,6.0,30.09,1019.6,,,,0,0,0,,,,,,,,,Clear,72000.0,,,73000.0,,,,,,
KRDR,09-29-2001,01:00,METAR,,140,12.0,,,9999.0,Cloud Development Not Observable,18.0,8.0,30.09,1019.6,,,,0,0,0,,,,,,,,,2/8 Mostly Clear,72000.0,,FEW,25000.0,,,,,,
KRDR,09-28-2001,23:55,METAR,,150,11.0,,,9999.0,Cloud Development Not Observable,21.0,7.0,30.10,1019.7,,,,0,0,0,,,,,,,,,Clear,72000.0,,,73000.0,,,,,,
KRDR,09-28-2001,23:00,METAR,,160,15.0,,,9999.0,Cloud Development Not Observable,23.0,7.0,30.10,1019.7,,,,0,0,0,,,,,,,,,Clear,72000.0,,,73000.0,,,,,,
KRDR,09-28-2001,22:00,METAR,,150,16.0,22.0,,9999.0,Cloud Development Not Observable,24.0,7.0,30.11,1020.0,,,,0,0,0,,,,,,,,,Clear,72000.0,,,73000.0,,,,,,
KRDR,09-28-2001,20:00,METAR,,170,15.0,22.0,,9999.0,Cloud Development Not Observable,24.0,7.0,30.13,1020.9,,,,0,0,0,,,,,,,,,2/8 Mostly Clear,72000.0,,FEW,25000.0,,,,,,
KRDR,09-28-2001,19:00,METAR,,160,14.0,,,9999.0,Cloud Development Not Observable,23.0,8.0,30.16,1022.0,,,,0,0,0,,,,,,,,,Clear,72000.0,,,73000.0,,,,,,
KRDR,09-28-2001,18:00,METAR,,160,13.0,,,9999.0,Cloud Development Not Observable,22.0,9.0,30.18,1022.6,,,,0,0,0,,,,,,,,,Clear,72000.0,,,73000.0,,,,,,
KRDR,09-28-2001,17:00,METAR,,150,13.0,,,9999.0,Cloud Development Not Observable,20.0,10.0,30.20,1023.4,,,,0,0,0,,,,,,,,,Clear,72000.0,,,73000.0,,,,,,
KRDR,09-28-2001,16:00,METAR,,170,13.0,,,9999.0,Cloud Development Not Observable,18.0,10.0,30.21,1023.6,,,,0,0,0,,,,,,,,,Clear,72000.0,,,73000.0,,,,,,
KRDR,09-28-2001,15:00,METAR,,170,12.0,,,9999.0,Cloud Development Not Observable,14.0,10.0,30.22,1024.1,,,,0,0,0,,,,,,,,,Clear,72000.0,,,73000.0,,,,,,
KRDR,09-28-2001,14:00,METAR,,170,9.0,,,9999.0,Cloud Development Not Observable,11.0,10.0,30.22,1024.1,,,,0,0,0,,,,,,,,,Clear,72000.0,,,73000.0,,,,,,
KRDR,09-28-2001,13:00,METAR,,150,7.0,,,9999.0,Cloud Development Not Observable,9.0,8.0,30.22,1024.0,,,,0,0,0,,,,,,,,,Clear,72000.0,,,73000.0,,,,,,
KRDR,09-28-2001,12:00,METAR,,150,8.0,,,9999.0,Cloud Development Not Observable,9.0,8.0,30.20,1023.2,,,,0,0,0,,,,,,,,,,72000.0,,,,,,,,,
KRDR,09-28-2001,11:00,METAR,,140,6.0,,,9999.0,Cloud Development Not Observable,8.0,7.0,30.19,1022.9,,,,0,0,0,,,,,,,,,Clear,72000.0,,,73000.0,,,,,,
KRDR,09-28-2001,10:00,METAR,,140,7.0,,,9999.0,Cloud Development Not Observable,7.0,6.0,30.18,1022.7,,,,0,0,0,,,,,,,,,Clear,72000.0,,,73000.0,,,,,,
KRDR,09-28-2001,09:00,METAR,,140,4.0,,,9999.0,Cloud Development Not Observable,8.0,6.0,30.17,1022.3,,,,0,0,0,,,,,,,,,Clear,72000.0,,,73000.0,,,,,,
KRDR,09-28-2001,08:00,METAR,,160,4.0,,,9999.0,Cloud Development Not Observable,9.0,6.0,30.17,1022.3,,,,0,0,0,,,,,,,,,Clear,72000.0,,,73000.0,,,,,,
KRDR,09-28-2001,06:00,METAR,,140,6.0,,,9999.0,Cloud Development Not Observable,10.0,8.0,30.16,1021.9,,,,0,0,0,,,,,,,,,Clear,72000.0,,,73000.0,,,,,,
KRDR,09-28-2001,05:00,METAR,,170,2.0,,,9999.0,Cloud Development Not Observable,10.0,6.0,30.15,1021.7,,,,0,0,0,,,,,,,,,Clear,72000.0,,,73000.0,,,,,,
KRDR,09-28-2001,04:00,METAR,,150,3.0,,,9999.0,Cloud Development Not Observable,10.0,7.0,30.14,1021.5,,,,0,0,0,,,,,,,,,Clear,72000.0,,,73000.0,,,,,,
KRDR,09-28-2001,03:00,METAR,,210,4.0,,,9999.0,Cloud Development Not Observable,11.0,6.0,30.14,1021.3,,,,0,0,0,,,,,,,,,Clear,72000.0,,,73000.0,,,,,,
KRDR,09-28-2001,01:00,METAR,,100,5.0,,,9999.0,Cloud Development Not Observable,19.0,5.0,30.11,1020.5,,,,0,0,0,,,,,,,,,2/8 Mostly Clear,72000.0,,FEW,25000.0,,,,,,
KRDR,09-28-2001,00:00,METAR,,120,5.0,,,9999.0,Cloud Development Not Observable,21.0,5.0,30.11,1020.5,,,,0,0,0,,,,,,,,,2/8 Mostly Clear,72000.0,,FEW,25000.0,,,,,,
KRDR,09-27-2001,23:00,METAR,,140,6.0,,,9999.0,Cloud Development Not Observable,23.0,4.0,30.11,1020.2,,,,0,0,0,,,,,,,,,2/8 Mostly Clear,72000.0,,FEW,25000.0,,,,,,
KRDR,09-27-2001,22:00,METAR,,130,10.0,,,9999.0,Cloud Development Not Observable,24.0,4.0,30.11,1020.2,,,,0,0,0,,,,,,,,,2/8 Mostly Clear,72000.0,,FEW,25000.0,,,,,,
KRDR,09-27-2001,21:00,METAR,,130,11.0,,,9999.0,Cloud Development Not Observable,24.0,4.0,30.11,1020.2,,,,0,0,0,,,,,,,,,Clear,72000.0,,,73000.0,,,,,,
KRDR,09-27-2001,20:00,METAR,,160,8.0,,,9999.0,Cloud Development Not Observable,24.0,4.0,30.11,1020.2,,,,0,0,0,,,,,,,,,Clear,72000.0,,,73000.0,,,,,,
KRDR,09-27-2001,19:00,METAR,,,6.0,,,9999.0,Cloud Development Not Observable,23.0,4.0,30.12,1020.7,,,,0,0,0,,,,,,,,,Clear,72000.0,,,73000.0,,,,,,
KRDR,09-27-2001,18:00,METAR,,150,8.0,,,9999.0,Cloud Development Not Observable,22.0,5.0,30.14,1021.2,,,,0,0,0,,,,,,,,,2/8 Mostly Clear,72000.0,,FEW,25000.0,,,,,,
KRDR,09-27-2001,16:00,METAR,,,4.0,,,9999.0,Cloud Development Not Observable,15.0,8.0,30.16,1022.0,,,,0,0,0,,,,,,,,,2/8 Mostly Clear,72000.0,,FEW,25000.0,,,,,,
KRDR,09-27-2001,15:00,METAR,,,2.0,,,9999.0,Cloud Development Not Observable,11.0,8.0,30.15,1021.8,,,,0,0,0,,,,,,,,,2/8 Mostly Clear,72000.0,,FEW,25000.0,,,,,,
KRDR,09-27-2001,14:00,METAR,,320,3.0,,,9999.0,Cloud Development Not Observable,6.0,6.0,30.14,1021.6,,,,0,0,0,,,,,,,,,2/8 Mostly Clear,72000.0,,FEW,25000.0,,,,,,
KRDR,09-27-2001,13:00,METAR,,,2.0,,,9999.0,Cloud Development Not Observable,2.0,2.0,30.13,1021.1,,,,0,0,0,,,,,,,,,2/8 Mostly Clear,72000.0,,FEW,25000.0,,,,,,
KRDR,09-27-2001,11:55,METAR,,270,3.0,,,9999.0,Cloud Development Not Observable,2.0,2.0,30.12,1020.7,,,,0,0,0,,,,,,,,,Clear,72000.0,,,73000.0,,,,,,
KRDR,09-27-2001,07:00,METAR,,320,5.0,,,9999.0,Cloud Development Not Observable,4.0,4.0,30.09,1019.5,,,,0,0,0,,,,,,,,,2/8 Mostly Clear,72000.0,,FEW,25000.0,,,,,,
KRDR,09-27-2001,06:00,METAR,,,2.0,,,9999.0,Cloud Development Not Observable,7.0,6.0,30.09,1019.5,,,,0,0,0,,,,,,,,,2/8 Mostly Clear,72000.0,,FEW,25000.0,,,,,,
KRDR,09-27-2001,05:00,METAR,,190,2.0,,,9999.0,Cloud Development Not Observable,6.0,5.0,30.08,,,,,0,0,0,,,,,,,,,Clear,72000.0,,,73000.0,,,,,,
KRDR,09-27-2001,04:00,METAR,,130,2.0,,,,Cloud Development Not Observable,7.0,5.0,,,,,,0,0,0,,,,,,,,,,72000.0,,,,,,,,,
KRDR,09-27-2001,01:00,METAR,,60,3.0,,,,Cloud Development Not Observable,17.0,3.0,,,,,,0,0,0,,,,,,,,,,72000.0,,,,,,,,,
KRDR,09-26-2001,23:00,METAR,,140,6.0,,,9999.0,Cloud Development Not Observable,21.0,3.0,30.06,1018.8,,,,0,0,0,,,,,,,,,Clear,72000.0,,,73000.0,,,,,,
KRDR,09-26-2001,22:00,METAR,,130,9.0,,,9999.0,Cloud Development Not Observable,22.0,2.0,30.07,1018.9,,,,0,0,0,,,,,,,,,Clear,72000.0,,,73000.0,,,,,,
KRDR,09-26-2001,21:00,METAR,,120,9.0,,,9999.0,Cloud Development Not Observable,21.0,4.0,30.10,1019.9,,,,0,0,0,,,,,,,,,Clear,72000.0,,,73000.0,,,,,,
KRDR,09-26-2001,20:00,METAR,,140,9.0,,,9999.0,Cloud Development Not Observable,21.0,4.0,30.10,1019.9,,,,0,0,0,,,,,,,,,Clear,72000.0,,,73000.0,,,,,,
KRDR,09-26-2001,19:00,METAR,,130,10.0,,,9999.0,Cloud Development Not Observable,20.0,4.0,30.12,1020.6,,,,0,0,0,,,,,,,,,Clear,72000.0,,,73000.0,,,,,,
KRDR,09-26-2001,18:00,METAR,,150,11.0,,,9999.0,Cloud Development Not Observable,19.0,4.0,30.12,1020.7,,,,0,0,0,,,,,,,,,Clear,72000.0,,,73000.0,,,,,,
KRDR,09-26-2001,17:00,METAR,,160,7.0,,,9999.0,Cloud Development Not Observable,17.0,5.0,30.14,1021.3,,,,0,0,0,,,,,,,,,Clear,72000.0,,,73000.0,,,,,,
KRDR,09-26-2001,16:00,METAR,,,4.0,,,9999.0,Cloud Development Not Observable,15.0,6.0,30.14,1021.5,,,,0,0,0,,,,,,,,,Clear,72000.0,,,73000.0,,,,,,
KRDR,09-26-2001,15:00,METAR,,170,5.0,,,9999.0,Cloud Development Not Observable,10.0,7.0,30.17,1022.5,,,,0,0,0,,,,,,,,,Clear,72000.0,,,73000.0,,,,,,
KRDR,09-26-2001,14:00,METAR,,200,4.0,,,9999.0,Cloud Development Not Observable,7.0,6.0,30.17,1022.7,,,,0,0,0,,,,,,,,,Clear,72000.0,,,73000.0,,,,,,
KRDR,09-26-2001,13:00,METAR,,160,5.0,,,9999.0,Cloud Development Not Observable,4.0,4.0,30.17,1022.6,,,,0,0,0,,,,,,,,,Clear,72000.0,,,73000.0,,,,,,
KRDR,09-26-2001,12:00,METAR,,150,6.0,,,9999.0,Cloud Development Not Observable,4.0,4.0,30.16,1022.3,,,,0,0,0,,,,,,,,,Clear,72000.0,,,73000.0,,,,,,
KRDR,09-26-2001,11:00,METAR,,120,5.0,,,9999.0,Cloud Development Not Observable,4.0,4.0,30.16,1021.7,,,,0,0,0,,,,,,,,,Clear,72000.0,,,73000.0,,,,,,
KRDR,09-26-2001,10:00,METAR,,,3.0,,,9999.0,Cloud Development Not Observable,5.0,4.0,30.15,1021.6,,,,0,0,0,,,,,,,,,Clear,72000.0,,,73000.0,,,,,,
KRDR,09-26-2001,09:00,METAR,,200,3.0,,,9999.0,Cloud Development Not Observable,4.0,3.0,30.14,1021.5,,,,0,0,0,,,,,,,,,Clear,72000.0,,,73000.0,,,,,,
KRDR,09-26-2001,08:00,METAR,,210,5.0,,,9999.0,Cloud Development Not Observable,4.0,3.0,30.15,1021.7,,,,0,0,0,,,,,,,,,Clear,72000.0,,,73000.0,,,,,,
KRDR,09-26-2001,07:00,METAR,,200,4.0,,,9999.0,Cloud Development Not Observable,5.0,3.0,30.16,1022.0,,,,0,0,0,,,,,,,,,Clear,72000.0,,,73000.0,,,,,,
KRDR,09-26-2001,06:00,METAR,,170,5.0,,,9999.0,Cloud Development Not Observable,7.0,3.0,30.16,1022.2,,,,0,0,0,,,,,,,,,Clear,72000.0,,,73000.0,,,,,,
KRDR,09-26-2001,05:00,METAR,,150,6.0,,,9999.0,Cloud Development Not Observable,9.0,3.0,30.17,1022.5,,,,0,0,0,,,,,,,,,Clear,72000.0,,,73000.0,,,,,,
KRDR,09-26-2001,04:00,METAR,,200,4.0,,,9999.0,Cloud Development Not Observable,7.0,4.0,30.17,1022.6,,,,0,0,0,,,,,,,,,Clear,72000.0,,,73000.0,,,,,,
KRDR,09-26-2001,03:00,METAR,,160,5.0,,,,Cloud Development Not Observable,10.0,4.0,30.17,1022.6,,,,0,0,0,,,,,,,,,,72000.0,,,,,,,,,
KRDR,09-26-2001,02:00,METAR,,140,7.0,,,,Cloud Development Not Observable,11.0,4.0,,1022.6,,,,0,0,0,,,,,,,,,,72000.0,,,,,,,,,
KRDR,09-26-2001,01:00,METAR,,130,7.0,,,9999.0,Cloud Development Not Observable,12.0,4.0,30.17,1022.6,,,,0,0,0,,,,,,,,,Clear,72000.0,,,73000.0,,,,,,
KRDR,09-25-2001,23:00,METAR,,170,7.0,,,9999.0,Cloud Development Not Observable,19.0,3.0,30.17,1022.6,,,,0,0,0,,,,,,,,,Clear,72000.0,,,73000.0,,,,,,
KRDR,09-25-2001,22:00,METAR,,160,9.0,,,9999.0,Cloud Development Not Observable,20.0,2.0,30.18,1022.7,,,,0,0,0,,,,,,,,,Clear,72000.0,,,73000.0,,,,,,
KRDR,09-25-2001,21:00,METAR,,190,9.0,,,9999.0,Cloud Development Not Observable,20.0,3.0,30.19,1023.2,,,,0,0,0,,,,,,,,,Clear,72000.0,,,73000.0,,,,,,
KRDR,09-25-2001,20:00,METAR,,170,11.0,,,9999.0,Cloud Development Not Observable,19.0,3.0,30.22,1024.1,,,,0,0,0,,,,,,,,,Clear,72000.0,,,73000.0,,,,,,
KRDR,09-25-2001,19:00,METAR,,150,14.0,,,9999.0,Cloud Development Not Observable,18.0,4.0,30.25,1025.3,,,,0,0,0,,,,,,,,,Clear,72000.0,,,73000.0,,,,,,
KRDR,09-25-2001,18:00,METAR,,190,9.0,,,9999.0,Cloud Development Not Observable,17.0,5.0,30.28,1026.2,,,,0,0,0,,,,,,,,,Clear,72000.0,,,73000.0,,,,,,
KRDR,09-25-2001,17:00,METAR,,180,11.0,,,9999.0,Cloud Development Not Observable,15.0,6.0,30.29,1026.6,,,,0,0,0,,,,,,,,,Clear,72000.0,,,73000.0,,,,,,
KRDR,09-25-2001,16:00,METAR,,160,9.0,,,9999.0,Cloud Development Not Observable,13.0,6.0,30.30,1026.8,,,,0,0,0,,,,,,,,,Clear,72000.0,,,73000.0,,,,,,
KRDR,09-25-2001,15:00,METAR,,170,9.0,,,9999.0,Cloud Development Not Observable,10.0,6.0,30.30,1026.9,,,,0,0,0,,,,,,,,,Clear,72000.0,,,73000.0,,,,,,
KRDR,09-25-2001,14:00,METAR,,170,8.0,,,9999.0,Cloud Development Not Observable,6.0,6.0,30.30,1027.0,,,,0,0,0,,,,,,,,,Clear,72000.0,,,73000.0,,,,,,
KRDR,09-25-2001,13:00,METAR,,160,4.0,,,9999.0,Cloud Development Not Observable,4.0,4.0,30.29,1026.9,,,,0,0,0,,,,,,,,,Clear,72000.0,,,73000.0,,,,,,
KRDR,09-25-2001,12:00,METAR,,170,6.0,,,9999.0,Cloud Development Not Observable,4.0,3.0,30.29,1026.5,,,,0,0,0,,,,,,,,,Clear,72000.0,,,73000.0,,,,,,
KRDR,09-25-2001,11:00,METAR,,160,9.0,,,9999.0,Cloud Development Not Observable,4.0,4.0,30.29,1026.7,,,,0,0,0,,,,,,,,,Clear,72000.0,,,73000.0,,,,,,
KRDR,09-25-2001,10:00,METAR,,150,8.0,,,9999.0,Cloud Development Not Observable,4.0,4.0,30.30,1026.8,,,,0,0,0,,,,,,,,,Clear,72000.0,,,73000.0,,,,,,
KRDR,09-25-2001,09:00,METAR,,140,7.0,,,9999.0,Cloud Development Not Observable,5.0,4.0,30.30,1026.8,,,,0,0,0,,,,,,,,,Clear,72000.0,,,73000.0,,,,,,
KRDR,09-25-2001,08:00,METAR,,170,5.0,,,9999.0,Cloud Development Not Observable,5.0,4.0,30.30,1026.8,,,,0,0,0,,,,,,,,,Clear,72000.0,,,73000.0,,,,,,
KRDR,09-25-2001,07:00,METAR,,170,7.0,,,9999.0,Cloud Development Not Observable,6.0,5.0,30.30,1027.0,,,,0,0,0,,,,,,,,,Clear,72000.0,,,73000.0,,,,,,
KRDR,09-25-2001,06:00,METAR,,160,8.0,,,9999.0,Cloud Development Not Observable,7.0,5.0,30.31,1027.2,,,,0,0,0,,,,,,,,,Clear,72000.0,,,73000.0,,,,,,
KRDR,09-25-2001,05:00,METAR,,170,7.0,,,9999.0,Cloud Development Not Observable,7.0,5.0,30.31,1027.2,,,,0,0,0,,,,,,,,,2/8 Mostly Clear,72000.0,,FEW,25000.0,,,,,,
KRDR,09-25-2001,04:00,METAR,,150,8.0,,,9999.0,Cloud Development Not Observable,8.0,6.0,30.30,1027.1,,,,0,0,0,,,,,,,,,2/8 Mostly Clear,72000.0,,FEW,25000.0,,,,,,
KRDR,09-25-2001,03:00,METAR,,140,7.0,,,9999.0,Cloud Development Not Observable,8.0,5.0,30.31,1027.4,,,,0,0,0,,,,,,,,,4/8 Partly Cloudy,72000.0,,SCT,25000.0,,,,,,
KRDR,09-25-2001,02:00,METAR,,140,6.0,,,9999.0,Cloud Development Not Observable,10.0,4.0,30.30,1027.3,,,,0,0,0,,,,,,,,,4/8 Partly Cloudy,72000.0,,SCT,25000.0,,,,,,
KRDR,09-25-2001,01:00,METAR,,140,6.0,,,9999.0,Cloud Development Not Observable,11.0,4.0,30.30,1027.4,,,,0,0,0,,,,,,,,,4/8 Partly Cloudy,72000.0,,SCT,25000.0,,,,,,
KRDR,09-25-2001,00:00,METAR,,150,8.0,,,9999.0,Cloud Development Not Observable,14.0,3.0,30.30,1027.2,,,,0,0,0,,,,,,,,,2/8 Mostly Clear,72000.0,,FEW,25000.0,,,,,,
KRDR,09-24-2001,23:00,METAR,,160,10.0,,,9999.0,Cloud Development Not Observable,15.0,3.0,30.31,1027.6,,,,0,0,0,,,,,,,,,2/8 Mostly Clear,72000.0,,FEW,25000.0,,,,,,
KRDR,09-24-2001,22:00,METAR,,150,12.0,,,9999.0,Cloud Development Not Observable,16.0,3.0,30.32,1027.8,,,,0,0,0,,,,,,,,,2/8 Mostly Clear,72000.0,,FEW,25000.0,,,,,,
KRDR,09-24-2001,21:00,METAR,,160,12.0,,,9999.0,Cloud Development Not Observable,16.0,3.0,30.35,1028.7,,,,0,0,0,,,,,,,,,2/8 Mostly Clear,72000.0,,FEW,25000.0,,,,,,
KRDR,09-24-2001,20:00,METAR,,170,12.0,,,9999.0,Cloud Development Not Observable,15.0,3.0,30.37,1029.5,,,,0,0,0,,,,,,,,,2/8 Mostly Clear,72000.0,,FEW,25000.0,,,,,,
KRDR,09-24-2001,19:00,METAR,,170,10.0,,,9999.0,Cloud Development Not Observable,14.0,4.0,30.39,1030.4,,,,0,0,0,,,,,,,,,2/8 Mostly Clear,72000.0,,FEW,25000.0,,,,,,
KRDR,09-24-2001,18:00,METAR,,160,13.0,,,9999.0,Cloud Development Not Observable,13.0,3.0,30.41,1030.9,,,,0,0,0,,,,,,,,,2/8 Mostly Clear,72000.0,,FEW,25000.0,,,,,,
KRDR,09-24-2001,17:00,METAR,,170,12.0,,,9999.0,Cloud Development Not Observable,12.0,5.0,30.43,1031.7,,,,0,0,0,,,,,,,,,2/8 Mostly Clear,72000.0,,FEW,25000.0,,,,,,
KRDR,09-24-2001,16:00,METAR,,150,10.0,,,9999.0,Cloud Development Not Observable,10.0,6.0,30.43,1031.8,,,,0,0,0,,,,,,,,,2/8 Mostly Clear,72000.0,,FEW,25000.0,,,,,,
KRDR,09-24-2001,15:00,METAR,,160,8.0,,,9999.0,Cloud Development Not Observable,7.0,6.0,30.43,1031.8,,,,0,0,0,,,,,,,,,Clear,72000.0,,,73000.0,,,,,,
KRDR,09-24-2001,14:00,METAR,,140,5.0,,,9999.0,Cloud Development Not Observable,3.0,3.0,30.43,1032.0,,,,0,0,0,,,,,,,,,Clear,72000.0,,,73000.0,,,,,,
KRDR,09-24-2001,13:00,METAR,,160,3.0,,,9999.0,Cloud Development Not Observable,0.0,0.0,30.44,1032.2,,,,0,0,0,,,,,,,,,2/8 Mostly Clear,72000.0,,FEW,20000.0,,,,,,
KRDR,09-24-2001,12:00,METAR,,150,3.0,,,9999.0,Cloud Development Not Observable,0.0,0.0,30.43,1031.9,,,,0,0,0,,,,,,,,,Clear,72000.0,,,73000.0,,,,,,
KRDR,09-24-2001,11:00,METAR,,240,2.0,,,9999.0,Cloud Development Not Observable,-1.0,-1.0,30.44,1032.1,,,,0,0,0,,,,,,,,,Clear,72000.0,,,73000.0,,,,,,
KRDR,09-24-2001,10:00,METAR,,150,4.0,,,9999.0,Cloud Development Not Observable,1.0,1.0,30.44,1032.0,,,,0,0,0,,,,,,,,,Clear,72000.0,,,73000.0,,,,,,
KRDR,09-24-2001,09:00,METAR,,250,3.0,,,9999.0,Cloud Development Not Observable,0.0,0.0,30.43,1031.8,,,,0,0,0,,,,,,,,,Clear,72000.0,,,73000.0,,,,,,
KRDR,09-24-2001,08:00,METAR,,290,3.0,,,9999.0,Cloud Development Not Observable,0.0,0.0,30.42,1031.5,,,,0,0,0,,,,,,,,,Clear,72000.0,,,73000.0,,,,,,
KRDR,09-24-2001,07:00,METAR,,290,3.0,,,9999.0,Cloud Development Not Observable,1.0,1.0,30.42,1031.5,,,,0,0,0,,,,,,,,,Clear,72000.0,,,73000.0,,,,,,
KRDR,09-24-2001,06:00,METAR,,280,4.0,,,9999.0,Cloud Development Not Observable,1.0,1.0,30.42,1031.6,,,,0,0,0,,,,,,,,,Clear,72000.0,,,73000.0,,,,,,
KRDR,09-24-2001,05:00,METAR,,290,3.0,,,9999.0,Cloud Development Not Observable,1.0,1.0,30.42,1031.4,,,,0,0,0,,,,,,,,,Clear,72000.0,,,73000.0,,,,,,
KRDR,09-24-2001,04:00,METAR,,330,5.0,,,9999.0,Cloud Development Not Observable,4.0,4.0,30.42,1031.6,,,,0,0,0,,,,,,,,,Clear,72000.0,,,73000.0,,,,,,
KRDR,09-24-2001,03:00,METAR,,360,6.0,,,9999.0,Cloud Development Not Observable,5.0,4.0,30.42,1031.6,,,,0,0,0,,,,,,,,,Clear,72000.0,,,73000.0,,,,,,
KRDR,09-24-2001,01:00,METAR,,330,6.0,,,9999.0,Cloud Development Not Observable,7.0,4.0,30.42,1031.5,,,,0,0,0,,,,,,,,,2/8 Mostly Clear,72000.0,,FEW,25000.0,,,,,,
KRDR,09-24-2001,00:00,METAR,,350,7.0,,,9999.0,Cloud Development Not Observable,10.0,3.0,30.41,1031.1,,,,0,0,0,,,,,,,,,2/8 Mostly Clear,72000.0,,FEW,25000.0,,,,,,
KRDR,09-23-2001,23:00,METAR,,10,9.0,,,9999.0,Cloud Development Not Observable,11.0,3.0,30.42,1031.3,,,,0,0,0,,,,,,,,,Clear,72000.0,,,73000.0,,,,,,
KRDR,09-23-2001,22:00,METAR,,350,11.0,,,9999.0,Cloud Development Not Observable,12.0,3.0,30.43,1031.6,,,,0,0,0,,,,,,,,,2/8 Mostly Clear,72000.0,,FEW,2700.0,,,,,,
KRDR,09-23-2001,21:00,METAR,,20,10.0,,,9999.0,Cloud Development Not Observable,12.0,2.0,30.44,1031.9,,,,0,0,0,,,,,,,,,2/8 Mostly Clear,72000.0,,FEW,2700.0,,,,,,
KRDR,09-23-2001,20:00,METAR,,10,9.0,,,9999.0,Cloud Development Not Observable,12.0,2.0,30.44,1032.1,,,,0,0,0,,,,,,,,,2/8 Mostly Clear,72000.0,,FEW,2700.0,,,,,,
KRDR,09-23-2001,16:00,METAR,,350,12.0,,,9999.0,Cloud Development Not Observable,7.0,5.0,30.45,1032.3,,,,0,0,0,,,,,,,,,Clear,72000.0,,,73000.0,,,,,,
KRDR,09-23-2001,15:00,METAR,,350,12.0,,,9999.0,Cloud Development Not Observable,6.0,5.0,30.45,1032.2,,,,0,0,0,,,,,,,,,Clear,72000.0,,,73000.0,,,,,,
KRDR,09-23-2001,14:00,METAR,,350,12.0,,,9999.0,Cloud Development Not Observable,4.0,4.0,30.43,1031.7,,,,0,0,0,,,,,,,,,Clear,72000.0,,,73000.0,,,,,,
KRDR,09-23-2001,13:00,METAR,,340,9.0,,,9999.0,Cloud Development Not Observable,2.0,2.0,30.42,1031.5,,,,0,0,0,,,,,,,,,Clear,72000.0,,,73000.0,,,,,,
KRDR,09-23-2001,12:00,METAR,,340,9.0,,,9999.0,Cloud Development Not Observable,2.0,2.0,30.41,1030.4,,,,0,0,0,,,,,,,,,Clear,72000.0,,,73000.0,,,,,,
KRDR,09-23-2001,11:00,METAR,,350,8.0,,,9999.0,Cloud Development Not Observable,2.0,2.0,30.39,1030.4,,,,0,0,0,,,,,,,,,Clear,72000.0,,,73000.0,,,,,,
KRDR,09-23-2001,10:00,METAR,,350,10.0,,,9999.0,Cloud Development Not Observable,2.0,2.0,30.38,1029.8,,,,0,0,0,,,,,,,,,Clear,72000.0,,,73000.0,,,,,,
KRDR,09-23-2001,09:00,METAR,,340,10.0,,,9999.0,Cloud Development Not Observable,3.0,3.0,30.35,1029.0,,,,0,0,0,,,,,,,,,Clear,72000.0,,,73000.0,,,,,,
KRDR,09-23-2001,08:00,METAR,,340,11.0,,,9999.0,Cloud Development Not Observable,3.0,3.0,30.33,1028.3,,,,0,0,0,,,,,,,,,2/8 Mostly Clear,72000.0,,FEW,5000.0,,,,,,
KRDR,09-23-2001,07:00,METAR,,350,9.0,,,9999.0,Cloud Development Not Observable,4.0,4.0,30.32,1027.7,,,,0,0,0,,,,,,,,,2/8 Mostly Clear,72000.0,,FEW,5000.0,,,,,,
KRDR,09-23-2001,06:00,METAR,,350,10.0,,,9999.0,Cloud Development Not Observable,5.0,5.0,30.31,1027.2,,,,0,0,0,,,,,,,,,4/8 Partly Cloudy,72000.0,,SCT,5000.0,,,,,,
KRDR,09-23-2001,05:00,METAR,,350,16.0,,,9999.0,Cloud Development Not Observable,7.0,7.0,30.28,1026.3,,,,0,0,0,,,,,,,,,8/8 Overcast,3600.0,,BKN,3700.0,OVC,5000.0,,,,
KRDR,09-23-2001,04:00,METAR,,350,14.0,,,9999.0,Cloud Development Not Observable,8.0,8.0,30.27,1025.9,,,,0,0,0,,,,,,,,,8/8 Overcast,3400.0,,SCT,2700.0,BKN,3500.0,OVC,5000.0,,
KRDR,09-23-2001,03:37,SPECI,,350,16.0,,,9999.0,Cloud Development Not Observable,8.0,8.0,30.27,,,,,0,0,0,,,,,,,,,8/8 Overcast,3400.0,,SCT,2700.0,OVC,3500.0,,,,
KRDR,09-23-2001,03:00,METAR,,360,15.0,,,9999.0,Cloud Development Not Observable,8.0,8.0,30.25,1025.3,,,,0,0,0,,,,,,,,,8/8 Overcast,1700.0,,FEW,500.0,OVC,1700.0,,,,
KRDR,09-23-2001,02:44,SPECI,,360,18.0,,,9999.0,Cloud Development Not Observable,8.0,8.0,30.25,,,,,0,0,0,,,,,,,,,8/8 Overcast,1700.0,,FEW,500.0,OVC,1700.0,,,,
KRDR,09-23-2001,02:25,METAR,,350,16.0,23.0,,6400.0,Drizzle/Mist/Cloud Development Not Observable,8.0,8.0,30.23,,,,,51,10,0,,,,,,,,,8/8 Overcast,1500.0,,FEW,500.0,OVC,1500.0,,,,
KRDR,09-23-2001,02:00,METAR,,350,20.0,,350/27KTS,9999.0,Cloud Development Not Observable,8.0,8.0,30.22,1024.2,,,,0,0,0,,,,,,,,,8/8 Overcast,1500.0,,FEW,500.0,OVC,1500.0,,,,
KRDR,09-23-2001,01:00,METAR,,360,20.0,26.0,,9999.0,Cloud Development Not Observable,9.0,9.0,30.19,1023.2,,,,0,0,0,,,,,,,,,8/8 Overcast,1500.0,,SCT,500.0,OVC,1500.0,,,,
KRDR,09-23-2001,00:32,SPECI,,350,21.0,26.0,,8000.0,Mist/Cloud Development Not Observable,9.0,9.0,30.17,,,,,10,0,0,,,,,,,,,8/8 Overcast,1500.0,,SCT,500.0,OVC,1500.0,,,,
KRDR,09-23-2001,00:00,METAR,,360,10.0,,,9999.0,Cloud Development Not Observable,11.0,11.0,30.13,1021.2,,,,0,0,0,,,,,,,,,8/8 Overcast,1500.0,,BKN,1500.0,BKN,4000.0,OVC,7900.0,,
KRDR,09-22-2001,23:50,METAR,,360,10.0,,,9999.0,Cloud Development Not Observable,11.0,11.0,30.13,,,,,0,0,0,,,,,,,,,8/8 Overcast,1500.0,,BKN,1500.0,BKN,4000.0,OVC,7900.0,,
KRDR,09-22-2001,23:13,SPECI,,20,9.0,,,9999.0,Cloud Development Not Observable,11.0,11.0,30.11,,,,,0,0,0,,,,,,,,,8/8 Overcast,3900.0,,SCT,1500.0,BKN,4000.0,OVC,7900.0,,
KRDR,09-22-2001,23:00,METAR,,20,9.0,,,9999.0,Rain/Cloud Development Not Observable,11.0,11.0,30.09,1019.8,,,,61,0,0,,,,,,,,,8/8 Overcast,3900.0,,SCT,1500.0,BKN,4000.0,OVC,7900.0,,
KRDR,09-22-2001,22:00,METAR,,30,13.0,,,9999.0,Light Rain Showers/Cloud Development Not Observable,11.0,11.0,30.07,1019.1,,,,80,0,0,,,,,,,,,,72000.0,,,,,,,,,
KRDR,09-22-2001,21:00,METAR,,50,14.0,,,9999.0,Rain/Cloud Development Not Observable,10.0,10.0,30.01,1017.0,,,,61,0,0,,,,,,,,,8/8 Overcast,3900.0,,SCT,1500.0,BKN,4000.0,OVC,7900.0,,
KRDR,09-22-2001,20:00,METAR,,60,15.0,,,9999.0,Rain/Cloud Development Not Observable,10.0,10.0,29.98,1016.0,,,,61,0,0,,,,,,,,,8/8 Overcast,3900.0,,SCT,1500.0,BKN,4000.0,OVC,7900.0,,
KRDR,09-22-2001,19:00,METAR,,50,15.0,,,9999.0,Rain/Cloud Development Not Observable,12.0,12.0,29.95,1015.0,,,,61,0,0,,,,,,,,,8/8 Overcast,3900.0,,SCT,1500.0,BKN,4000.0,OVC,7900.0,,
KRDR,09-22-2001,18:00,METAR,,60,13.0,,,9999.0,Rain/Cloud Development Not Observable,14.0,14.0,29.93,1014.2,,,,61,0,0,,,,,,,,,8/8 Overcast,6000.0,,SCT,3500.0,BKN,5900.0,OVC,7900.0,,
KRDR,09-22-2001,17:12,SPECI,,70,10.0,,,9999.0,Light Rain Showers/Cloud Development Not Observable,14.0,14.0,29.92,,,,,80,0,0,,,,,,,,,8/8 Overcast,6000.0,,SCT,3500.0,BKN,5900.0,OVC,7900.0,,
KRDR,09-22-2001,17:00,METAR,,80,9.0,,,9999.0,Cloud Development Not Observable,14.0,14.0,29.92,1013.7,,,,0,0,0,,,,,,,,,8/8 Overcast,8000.0,,SCT,4500.0,BKN,7900.0,OVC,20000.0,,
KRDR,09-22-2001,16:20,METAR,,110,8.0,,,9999.0,Cloud Development Not Observable,14.0,14.0,29.93,,,,,0,0,0,,,,,,,,,8/8 Overcast,8000.0,,FEW,5000.0,BKN,7900.0,OVC,20000.0,,
KRDR,09-22-2001,16:00,METAR,,120,5.0,,,9999.0,Light Rain Showers/Cloud Development Not Observable,14.0,14.0,29.92,1013.9,,,,80,0,0,,,,,,,,,8/8 Overcast,8000.0,,FEW,5000.0,BKN,7900.0,OVC,20000.0,,
KRDR,09-22-2001,15:52,SPECI,,120,5.0,,,9999.0,Light Rain Showers/Cloud Development Not Observable,14.0,14.0,29.92,,,,,80,0,0,,,,,,,,,8/8 Overcast,8000.0,,FEW,5000.0,BKN,7900.0,OVC,20000.0,,
KRDR,09-22-2001,15:00,METAR,,130,8.0,,,9999.0,Cloud Development Not Observable,13.0,13.0,29.92,1013.9,,,,0,0,0,,,,,,,,,8/8 Overcast,8000.0,,FEW,5000.0,BKN,7900.0,OVC,20000.0,,
KRDR,09-22-2001,14:00,METAR,,120,9.0,,,9999.0,Cloud Development Not Observable,12.0,12.0,29.92,1013.7,,,,0,0,0,,,,,,,,,7/8 Mostly Cloudy,10000.0,,FEW,5000.0,BKN,9900.0,BKN,20000.0,,
KRDR,09-22-2001,13:00,METAR,,130,6.0,,,9999.0,Cloud Development Not Observable,11.0,11.0,29.93,1014.2,,,,0,0,0,,,,,,,,,8/8 Overcast,10000.0,,FEW,6900.0,BKN,9900.0,OVC,20000.0,,
KRDR,09-22-2001,12:24,SPECI,,140,6.0,,,9999.0,Cloud Development Not Observable,11.0,11.0,29.94,,,,,0,0,0,,,,,,,,,8/8 Overcast,20000.0,,SCT,6900.0,BKN,6900.0,OVC,20000.0,,
KRDR,09-22-2001,12:00,METAR,,140,8.0,,,9999.0,Light Rain Showers/Cloud Development Not Observable,11.0,11.0,29.93,1014.2,,,,80,0,0,,,,,,,,,8/8 Overcast,10000.0,,SCT,6900.0,BKN,9900.0,OVC,20000.0,,
KRDR,09-22-2001,11:00,METAR,,,2.0,,,9999.0,Cloud Development Not Observable,12.0,12.0,29.95,1014.8,,,,0,0,0,,,,,,,,,8/8 Overcast,10000.0,,SCT,6900.0,BKN,9900.0,OVC,20000.0,,
KRDR,09-22-2001,10:16,SPECI,,120,4.0,,,9999.0,Cloud Development Not Observable,12.0,12.0,29.95,,,,,0,0,0,,,,,,,,,8/8 Overcast,10000.0,,BKN,9900.0,OVC,20000.0,,,,
KRDR,09-22-2001,10:00,METAR,,90,5.0,,,9999.0,Rain/Cloud Development Not Observable,12.0,12.0,29.96,1015.1,,,,61,0,0,,,,,,,,,8/8 Overcast,9000.0,,BKN,8900.0,OVC,20000.0,,,,
KRDR,09-22-2001,09:00,METAR,,180,7.0,,,9999.0,Rain/Cloud Development Not Observable,12.0,11.0,29.97,1015.2,,,,61,0,0,,,,,,,,,8/8 Overcast,10000.0,,SCT,6900.0,BKN,9900.0,OVC,20000.0,,
KRDR,09-22-2001,08:37,SPECI,,180,7.0,,,9999.0,Light Rain Showers/Cloud Development Not Observable,13.0,11.0,29.97,,,,,80,0,0,,,,,,,,,8/8 Overcast,10000.0,,SCT,6900.0,BKN,9900.0,OVC,20000.0,,
KRDR,09-22-2001,08:00,METAR,,170,9.0,,,9999.0,Cloud Development Not Observable,13.0,10.0,29.96,1015.1,,,,0,0,0,,,,,,,,,7/8 Mostly Cloudy,20000.0,,SCT,11000.0,BKN,20000.0,,,,
KRDR,09-22-2001,07:00,METAR,,150,7.0,,,9999.0,Cloud Development Not Observable,13.0,10.0,29.98,1015.8,,,,0,0,0,,,,,,,,,7/8 Mostly Cloudy,20000.0,,SCT,11000.0,BKN,20000.0,,,,
KRDR,09-22-2001,06:00,METAR,,150,7.0,,,9999.0,Cloud Development Not Observable,13.0,10.0,29.99,1016.0,,,,0,0,0,,,,,,,,,7/8 Mostly Cloudy,20000.0,,SCT,11000.0,BKN,20000.0,,,,
KRDR,09-22-2001,05:00,METAR,,170,5.0,,,9999.0,Cloud Development Not Observable,13.0,11.0,29.99,1016.2,,,,0,0,0,,,,,,,,,7/8 Mostly Cloudy,20000.0,,SCT,11000.0,BKN,20000.0,,,,
KRDR,09-22-2001,04:00,METAR,,160,5.0,,,9999.0,Cloud Development Not Observable,13.0,12.0,29.99,1016.0,,,,0,0,0,,,,,,,,,7/8 Mostly Cloudy,11000.0,,BKN,11000.0,BKN,20000.0,,,,
KRDR,09-22-2001,03:00,METAR,,140,6.0,,,9999.0,Cloud Development Not Observable,14.0,12.0,29.98,1015.9,,,,0,0,0,,,,,,,,,7/8 Mostly Cloudy,20000.0,,SCT,9900.0,BKN,20000.0,,,,
KRDR,09-22-2001,02:00,METAR,,120,4.0,,,9999.0,Cloud Development Not Observable,14.0,10.0,29.98,1015.8,,,,0,0,0,,,,,,,,,4/8 Partly Cloudy,72000.0,,FEW,9900.0,SCT,20000.0,,,,
KRDR,09-22-2001,01:00,METAR,,90,5.0,,,9999.0,Cloud Development Not Observable,16.0,10.0,29.98,1015.8,,,,0,0,0,,,,,,,,,4/8 Partly Cloudy,72000.0,,FEW,9900.0,SCT,20000.0,,,,
KRDR,09-21-2001,22:00,METAR,,310,10.0,,,9999.0,Cloud Development Not Observable,20.0,6.0,29.97,1015.2,,,,0,0,0,,,,,,,,,4/8 Partly Cloudy,72000.0,,FEW,4500.0,FEW,9900.0,SCT,20000.0,,
KRDR,09-21-2001,21:00,METAR,,290,12.0,,,9999.0,Cloud Development Not Observable,20.0,8.0,29.97,1015.4,,,,0,0,0,,,,,,,,,4/8 Partly Cloudy,72000.0,,FEW,4500.0,FEW,9900.0,SCT,20000.0,,
KRDR,09-21-2001,20:00,METAR,,310,12.0,,,9999.0,Cloud Development Not Observable,19.0,7.0,29.99,1015.9,,,,0,0,0,,,,,,,,,7/8 Mostly Cloudy,20000.0,,SCT,4500.0,BKN,20000.0,,,,
KRDR,09-21-2001,19:00,METAR,,310,10.0,,,9999.0,Cloud Development Not Observable,19.0,8.0,29.99,1016.1,,,,0,0,0,,,,,,,,,7/8 Mostly Cloudy,4400.0,,BKN,4500.0,BKN,20000.0,,,,
KRDR,09-21-2001,18:00,METAR,,320,13.0,,,9999.0,Cloud Development Not Observable,18.0,10.0,30.01,1017.0,,,,0,0,0,,,,,,,,,7/8 Mostly Cloudy,20000.0,,FEW,4000.0,BKN,20000.0,,,,
KRDR,09-21-2001,17:00,METAR,,310,14.0,,,9999.0,Cloud Development Not Observable,18.0,10.0,30.02,1017.0,,,,0,0,0,,,,,,,,,7/8 Mostly Cloudy,20000.0,,FEW,4000.0,BKN,20000.0,,,,
KRDR,09-21-2001,16:00,METAR,,320,11.0,,,9999.0,Cloud Development Not Observable,17.0,11.0,30.01,1016.7,,,,0,0,0,,,,,,,,,7/8 Mostly Cloudy,20000.0,,FEW,4000.0,BKN,20000.0,,,,
KRDR,09-21-2001,15:00,METAR,,310,13.0,,,9999.0,Cloud Development Not Observable,15.0,12.0,30.00,1016.4,,,,0,0,0,,,,,,,,,7/8 Mostly Cloudy,20000.0,,BKN,20000.0,,,,,,
KRDR,09-21-2001,14:00,METAR,,290,10.0,,,9999.0,Cloud Development Not Observable,13.0,11.0,29.99,1016.1,,,,0,0,0,,,,,,,,,4/8 Partly Cloudy,72000.0,,FEW,6900.0,SCT,20000.0,,,,
KRDR,09-21-2001,13:00,METAR,,280,8.0,,,9999.0,Cloud Development Not Observable,10.0,10.0,29.99,1016.2,,,,0,0,0,,,,,,,,,4/8 Partly Cloudy,72000.0,,FEW,6900.0,SCT,20000.0,,,,
KRDR,09-21-2001,12:00,METAR,,300,7.0,,,9999.0,Cloud Development Not Observable,11.0,10.0,29.97,1015.6,,,,0,0,0,,,,,,,,,4/8 Partly Cloudy,72000.0,,FEW,6900.0,SCT,20000.0,,,,
KRDR,09-21-2001,11:00,METAR,,300,6.0,,,9999.0,Cloud Development Not Observable,11.0,11.0,29.96,1015.2,,,,0,0,0,,,,,,,,,Clear,72000.0,,,73000.0,,,,,,
KRDR,09-21-2001,09:00,METAR,,310,6.0,,,9999.0,Cloud Development Not Observable,12.0,12.0,29.94,1014.5,,,,0,0,0,,,,,,,,,2/8 Mostly Clear,72000.0,,FEW,3000.0,,,,,,
KRDR,09-21-2001,08:00,METAR,,300,7.0,,,9999.0,Cloud Development Not Observable,13.0,13.0,29.94,1014.4,,,,0,0,0,,,,,,,,,2/8 Mostly Clear,72000.0,,FEW,6900.0,,,,,,
KRDR,09-21-2001,07:00,METAR,,290,8.0,,,9999.0,Cloud Development Not Observable,14.0,14.0,29.92,1013.6,,,,0,0,0,,,,,,,,,4/8 Partly Cloudy,72000.0,,SCT,6900.0,,,,,,
KRDR,09-21-2001,06:00,METAR,,280,7.0,,,9999.0,Cloud Development Not Observable,15.0,14.0,29.91,1012.9,,,,0,0,0,,,,,,,,,7/8 Mostly Cloudy,7000.0,,BKN,6900.0,,,,,,
KRDR,09-21-2001,05:00,METAR,,280,8.0,,,9999.0,Cloud Development Not Observable,15.0,14.0,29.90,1012.9,,,,0,0,0,,,,,,,,,7/8 Mostly Cloudy,6000.0,,BKN,5900.0,BKN,25000.0,,,,
KRDR,09-21-2001,04:00,METAR,,270,7.0,,,9999.0,Cloud Development Not Observable,14.0,14.0,29.90,1012.9,,,,0,0,0,,,,,,,,,7/8 Mostly Cloudy,6000.0,,BKN,5900.0,BKN,25000.0,,,,
KRDR,09-21-2001,03:00,METAR,,260,6.0,,,9999.0,Cloud Development Not Observable,13.0,13.0,29.90,1013.0,,,,0,0,0,,,,,,,,,7/8 Mostly Cloudy,25000.0,,SCT,5900.0,BKN,25000.0,,,,
KRDR,09-21-2001,02:00,METAR,,240,5.0,,,9999.0,Cloud Development Not Observable,15.0,15.0,29.89,1012.8,,,,0,0,0,,,,,,,,,7/8 Mostly Cloudy,6000.0,,BKN,5900.0,BKN,25000.0,,,,
KRDR,09-21-2001,01:00,METAR,,210,5.0,,,9999.0,Cloud Development Not Observable,15.0,15.0,29.88,1012.4,,,,0,0,0,,,,,,,,,7/8 Mostly Cloudy,6000.0,,BKN,5900.0,BKN,25000.0,,,,
KRDR,09-21-2001,00:00,METAR,,220,4.0,,,9999.0,Cloud Development Not Observable,16.0,15.0,29.87,1012.2,,,,0,0,0,,,,,,,,,4/8 Partly Cloudy,72000.0,,FEW,7900.0,SCT,25000.0,,,,
KRDR,09-20-2001,23:00,METAR,,260,5.0,,,9999.0,Cloud Development Not Observable,18.0,15.0,29.87,1012.0,,,,0,0,0,,,,,,,,,4/8 Partly Cloudy,72000.0,,FEW,4000.0,FEW,8900.0,SCT,25000.0,,
KRDR,09-20-2001,22:00,METAR,,280,8.0,,,9999.0,Cloud Development Not Observable,18.0,15.0,29.87,1012.0,,,,0,0,0,,,,,,,,,7/8 Mostly Cloudy,25000.0,,FEW,4000.0,SCT,8900.0,BKN,25000.0,,
KRDR,09-20-2001,21:00,METAR,,280,11.0,,,9999.0,Cloud Development Not Observable,17.0,17.0,29.86,1011.9,,,,0,0,0,,,,,,,,,7/8 Mostly Cloudy,25000.0,,FEW,4000.0,SCT,8900.0,BKN,25000.0,,
KRDR,09-20-2001,20:46,SPECI,,270,6.0,,,9999.0,Cloud Development Not Observable,17.0,16.0,29.87,,,,,0,0,0,,,,,,,,,7/8 Mostly Cloudy,9000.0,,FEW,4000.0,BKN,8900.0,BKN,20000.0,,
KRDR,09-20-2001,20:00,METAR,,290,7.0,,,9999.0,Light Rain Showers/Mist/Cloud Development Not Observable,14.0,14.0,29.87,1012.3,,,,80,10,0,,,,,,,,,8/8 Overcast,10000.0,,FEW,2000.0,SCT,4000.0,BKN,9900.0,OVC,20000.0
KRDR,09-20-2001,19:00,METAR,,260,5.0,,,9999.0,Light Rain Showers/Mist/Cloud Development Not Observable,14.0,14.0,29.87,1012.1,,,,80,10,0,,,,,,,,,8/8 Overcast,10000.0,,FEW,2000.0,SCT,4000.0,OVC,9900.0,,
KRDR,09-20-2001,17:00,METAR,,250,2.0,,,6400.0,Light Rain Showers/Mist/Cloud Development Not Observable,15.0,15.0,29.85,1011.4,,,,80,10,0,,,,,,,,,8/8 Overcast,9000.0,,FEW,2000.0,SCT,4000.0,OVC,8900.0,,
KRDR,09-20-2001,16:37,SPECI,,190,3.0,,,6400.0,Light Rain Showers/Mist/Cloud Development Not Observable,14.0,14.0,29.85,,,,,80,10,0,,,,,,,,,8/8 Overcast,9000.0,,FEW,2000.0,SCT,4000.0,OVC,8900.0,,
KRDR,09-20-2001,16:00,METAR,,180,5.0,,,4000.0,Rain/Mist/Cloud Development Not Observable,14.0,14.0,29.85,1011.5,,,,61,10,0,,,,,,,,,8/8 Overcast,3900.0,,SCT,2000.0,BKN,4000.0,OVC,7900.0,,
KRDR,09-20-2001,15:00,METAR,,160,8.0,,,3200.0,Rain/Mist/Cloud Development Not Observable,13.0,13.0,29.84,1011.2,,,,61,10,0,,,,,,,,,8/8 Overcast,3000.0,,SCT,2000.0,OVC,3000.0,,,,
KRDR,09-20-2001,14:00,METAR,,160,6.0,,,3200.0,Rain/Mist/Cloud Development Not Observable,12.0,12.0,29.82,1010.5,,,,61,10,0,,,,,,,,,8/8 Overcast,3400.0,,SCT,2000.0,OVC,3500.0,,,,
KRDR,09-20-2001,13:46,SPECI,,140,8.0,,,3200.0,Rain/Mist/Cloud Development Not Observable,12.0,12.0,29.82,,,,,61,10,0,,,,,,,,,8/8 Overcast,3900.0,,SCT,2500.0,OVC,4000.0,,,,
KRDR,09-20-2001,13:10,SPECI,,120,7.0,,,4800.0,Light Rain Showers/Mist/Cloud Development Not Observable,12.0,12.0,29.85,,,,,80,10,0,,,,,,,,,8/8 Overcast,4400.0,,SCT,2500.0,BKN,4500.0,OVC,9400.0,,
KRDR,09-20-2001,13:00,METAR,,120,8.0,,,4000.0,Light Rain Showers/Mist/Cloud Development Not Observable,12.0,12.0,29.85,1011.3,,,,80,10,0,,,,,,,,,8/8 Overcast,4400.0,,FEW,2500.0,BKN,4500.0,OVC,9900.0,,
KRDR,09-20-2001,12:40,SPECI,,90,7.0,,,4000.0,Light Rain Showers/Mist/Cloud Development Not Observable,12.0,12.0,29.85,,,,,80,10,0,,,,,,,,,8/8 Overcast,4400.0,,FEW,2500.0,BKN,4500.0,OVC,9900.0,,
KRDR,09-20-2001,12:00,METAR,,,2.0,,,9999.0,Thunderstorm with Rain or Snow/Light Rain Showers/Cloud Development Not Observable,12.0,12.0,29.87,1011.9,,,,95,80,0,,,,,,,,,7/8 Mostly Cloudy,4900.0,,BKN,5000.0,BKN,14000.0,BKN,25000.0,,
KRDR,09-20-2001,11:27,SPECI,,60,5.0,,,9999.0,Thunderstorm with Rain or Snow/Light Rain Showers/Cloud Development Not Observable,12.0,12.0,29.86,,,,,95,80,0,,,,,,,,,7/8 Mostly Cloudy,4900.0,,BKN,5000.0,BKN,14000.0,BKN,25000.0,,
KRDR,09-20-2001,11:00,METAR,,,3.0,,,9999.0,Cloud Development Not Observable,12.0,12.0,29.87,1011.9,,,,0,0,0,,,,,,,,,7/8 Mostly Cloudy,14000.0,,SCT,5900.0,BKN,14000.0,BKN,25000.0,,
KRDR,09-20-2001,10:00,METAR,,170,7.0,,,9999.0,Cloud Development Not Observable,12.0,12.0,29.83,1010.7,,,,0,0,0,,,,,,,,,7/8 Mostly Cloudy,20000.0,,FEW,5900.0,FEW,14000.0,BKN,20000.0,,
KRDR,09-20-2001,09:00,METAR,,150,9.0,,,9999.0,Cloud Development Not Observable,12.0,12.0,29.83,1010.6,,,,0,0,0,,,,,,,,,4/8 Partly Cloudy,72000.0,,FEW,6900.0,FEW,14000.0,SCT,20000.0,,
KRDR,09-20-2001,08:00,METAR,,150,7.0,,,9999.0,Cloud Development Not Observable,12.0,12.0,29.85,1011.2,,,,0,0,0,,,,,,,,,4/8 Partly Cloudy,72000.0,,FEW,6900.0,FEW,14000.0,SCT,20000.0,,
KRDR,09-20-2001,07:00,METAR,,150,6.0,,,9999.0,Cloud Development Not Observable,13.0,13.0,29.87,1011.9,,,,0,0,0,,,,,,,,,4/8 Partly Cloudy,72000.0,,FEW,6900.0,FEW,14000.0,SCT,20000.0,,
KRDR,09-20-2001,06:00,METAR,,140,6.0,,,9999.0,Cloud Development Not Observable,14.0,13.0,29.86,1011.5,,,,0,0,0,,,,,,,,,4/8 Partly Cloudy,72000.0,,SCT,20000.0,,,,,,
KRDR,09-20-2001,05:00,METAR,,170,6.0,,,9999.0,Cloud Development Not Observable,14.0,13.0,29.86,1011.6,,,,0,0,0,,,,,,,,,4/8 Partly Cloudy,72000.0,,FEW,14000.0,SCT,20000.0,,,,
KRDR,09-20-2001,04:00,METAR,,160,5.0,,,9999.0,Cloud Development Not Observable,15.0,14.0,29.86,1011.5,,,,0,0,0,,,,,,,,,2/8 Mostly Clear,72000.0,,FEW,14000.0,FEW,20000.0,,,,
KRDR,09-20-2001,03:00,METAR,,150,6.0,,,9999.0,Cloud Development Not Observable,15.0,13.0,29.86,1011.6,,,,0,0,0,,,,,,,,,2/8 Mostly Clear,72000.0,,FEW,14000.0,FEW,20000.0,,,,
KRDR,09-20-2001,02:00,METAR,,140,6.0,,,9999.0,Cloud Development Not Observable,17.0,13.0,29.86,1011.6,,,,0,0,0,,,,,,,,,2/8 Mostly Clear,72000.0,,FEW,20000.0,,,,,,
KRDR,09-20-2001,01:00,METAR,,160,6.0,,,9999.0,Cloud Development Not Observable,18.0,12.0,29.85,1011.5,,,,0,0,0,,,,,,,,,2/8 Mostly Clear,72000.0,,FEW,7900.0,FEW,20000.0,,,,
KRDR,09-20-2001,00:00,METAR,,150,7.0,,,9999.0,Cloud Development Not Observable,20.0,12.0,29.85,1011.4,,,,0,0,0,,,,,,,,,4/8 Partly Cloudy,72000.0,,FEW,5000.0,FEW,7900.0,SCT,20000.0,,
KRDR,09-19-2001,23:00,METAR,,180,11.0,,,9999.0,Cloud Development Not Observable,22.0,11.0,29.85,1011.1,,,,0,0,0,,,,,,,,,4/8 Partly Cloudy,72000.0,,SCT,5900.0,,,,,,
KRDR,09-19-2001,22:00,METAR,,170,9.0,,,9999.0,Cloud Development Not Observable,21.0,12.0,29.85,1011.3,,,,0,0,0,,,,,,,,,4/8 Partly Cloudy,72000.0,,SCT,6400.0,,,,,,
KRDR,09-19-2001,21:00,METAR,,140,8.0,,,9999.0,Cloud Development Not Observable,23.0,12.0,29.86,,,,,0,0,0,,,,,,,,,7/8 Mostly Cloudy,5500.0,,SCT,4500.0,BKN,5400.0,,,,
KRDR,09-19-2001,20:00,METAR,,150,8.0,,,9999.0,Cloud Development Not Observable,23.0,13.0,29.87,1012.0,,,,0,0,0,,,,,,,,,7/8 Mostly Cloudy,5500.0,,FEW,3500.0,BKN,5400.0,,,,
KRDR,09-19-2001,19:00,METAR,,170,10.0,,,9999.0,Cloud Development Not Observable,21.0,14.0,29.89,1012.4,,,,0,0,0,,,,,,,,,7/8 Mostly Cloudy,6000.0,,SCT,3500.0,BKN,5900.0,,,,
KRDR,09-19-2001,18:00,METAR,,190,9.0,,,9999.0,Cloud Development Not Observable,21.0,14.0,29.90,1012.8,,,,0,0,0,,,,,,,,,7/8 Mostly Cloudy,4900.0,,SCT,3000.0,BKN,5000.0,BKN,6900.0,,
KRDR,09-19-2001,17:00,METAR,,190,8.0,,,9999.0,Cloud Development Not Observable,19.0,16.0,29.91,1013.1,,,,0,0,0,,,,,,,,,4/8 Partly Cloudy,72000.0,,FEW,2000.0,SCT,3000.0,,,,
KRDR,09-19-2001,16:00,METAR,,,6.0,,,9999.0,Cloud Development Not Observable,19.0,16.0,29.92,1013.5,,,,0,0,0,,,,,,,,,7/8 Mostly Cloudy,7000.0,,SCT,2000.0,BKN,6900.0,,,,
KRDR,09-19-2001,15:00,METAR,,,6.0,,,9999.0,Mist/Cloud Development Not Observable,18.0,17.0,29.92,1013.7,,,,10,0,0,,,,,,,,,7/8 Mostly Cloudy,7000.0,,FEW,4000.0,BKN,6900.0,,,,
KRDR,09-19-2001,14:00,METAR,,190,4.0,,,8000.0,Mist/Cloud Development Not Observable,15.0,15.0,29.92,1013.7,,,,10,0,0,,,,,,,,,7/8 Mostly Cloudy,7000.0,,BKN,6900.0,,,,,,
KRDR,09-19-2001,13:00,METAR,,130,5.0,,,8000.0,Mist/Cloud Development Not Observable,13.0,13.0,29.92,1013.7,,,,10,0,0,,,,,,,,,7/8 Mostly Cloudy,7000.0,,FEW,5900.0,BKN,6900.0,,,,
KRDR,09-19-2001,12:00,METAR,,,1.0,,,9999.0,Mist/Cloud Development Not Observable,13.0,13.0,29.93,1013.9,,,,10,0,0,,,,,,,,,7/8 Mostly Cloudy,7000.0,,FEW,3000.0,BKN,6900.0,BKN,9900.0,,
KRDR,09-19-2001,11:00,METAR,,300,3.0,,,9999.0,Cloud Development Not Observable,14.0,14.0,29.93,1013.8,,,,0,0,0,,,,,,,,,7/8 Mostly Cloudy,10000.0,,SCT,7900.0,BKN,9900.0,,,,
KRDR,09-19-2001,10:00,METAR,,,2.0,,,9999.0,Cloud Development Not Observable,14.0,14.0,29.92,,,,,0,0,0,,,,,,,,,7/8 Mostly Cloudy,10000.0,,SCT,7900.0,BKN,9900.0,,,,
KRDR,09-19-2001,08:00,METAR,,,2.0,,,9999.0,Cloud Development Not Observable,13.0,13.0,29.94,1014.2,,,,0,0,0,,,,,,,,,7/8 Mostly Cloudy,8000.0,,BKN,7900.0,,,,,,
KRDR,09-19-2001,06:00,METAR,,220,4.0,,,9999.0,Cloud Development Not Observable,11.0,11.0,29.95,1014.5,,,,0,0,0,,,,,,,,,7/8 Mostly Cloudy,8000.0,,BKN,7900.0,,,,,,
KRDR,09-19-2001,04:00,METAR,,200,4.0,,,9999.0,Cloud Development Not Observable,14.0,14.0,29.96,1015.0,,,,0,0,0,,,,,,,,,7/8 Mostly Cloudy,8000.0,,BKN,7900.0,,,,,,
KRDR,09-19-2001,03:00,METAR,,190,4.0,,,9999.0,Cloud Development Not Observable,15.0,14.0,29.96,1015.0,,,,0,0,0,,,,,,,,,7/8 Mostly Cloudy,8000.0,,BKN,7900.0,BKN,20000.0,,,,
KRDR,09-19-2001,02:00,METAR,,180,5.0,,,9999.0,Cloud Development Not Observable,16.0,14.0,29.96,1015.0,,,,0,0,0,,,,,,,,,7/8 Mostly Cloudy,7500.0,,BKN,7400.0,BKN,20000.0,,,,
KRDR,09-19-2001,01:00,METAR,,180,4.0,,,9999.0,Cloud Development Not Observable,17.0,14.0,29.96,1015.1,,,,0,0,0,,,,,,,,,7/8 Mostly Cloudy,7500.0,,BKN,7400.0,BKN,20000.0,,,,
KRDR,09-19-2001,00:00,METAR,,180,4.0,,,9999.0,Cloud Development Not Observable,18.0,14.0,29.96,1015.3,,,,0,0,0,,,,,,,,,7/8 Mostly Cloudy,7500.0,,FEW,4500.0,BKN,7400.0,,,,
KRDR,09-18-2001,23:00,METAR,,200,8.0,,,9999.0,Cloud Development Not Observable,19.0,13.0,29.97,1015.6,,,,0,0,0,,,,,,,,,7/8 Mostly Cloudy,7000.0,,FEW,4500.0,BKN,6900.0,,,,
KRDR,09-18-2001,21:00,METAR,,190,9.0,,,9999.0,Cloud Development Not Observable,20.0,12.0,29.98,1015.9,,,,0,0,0,,,,,,,,,7/8 Mostly Cloudy,6500.0,,FEW,4000.0,BKN,6400.0,,,,
KRDR,09-18-2001,20:00,METAR,,,1.0,,,9999.0,Cloud Development Not Observable,20.0,12.0,29.98,1015.9,,,,0,0,0,,,,,,,,,7/8 Mostly Cloudy,6500.0,,FEW,4000.0,BKN,6400.0,,,,
KRDR,09-18-2001,19:00,METAR,,,5.0,,,9999.0,Cloud Development Not Observable,20.0,13.0,30.00,1016.4,,,,0,0,0,,,,,,,,,7/8 Mostly Cloudy,6500.0,,FEW,4000.0,BKN,6400.0,,,,
KRDR,09-18-2001,18:00,METAR,,,6.0,,,9999.0,Cloud Development Not Observable,20.0,13.0,30.01,1016.8,,,,0,0,0,,,,,,,,,4/8 Partly Cloudy,72000.0,,SCT,5900.0,SCT,7900.0,,,,
KRDR,09-18-2001,16:00,METAR,,20,5.0,,,9999.0,Cloud Development Not Observable,16.0,13.0,30.05,1018.1,,,,0,0,0,,,,,,,,,7/8 Mostly Cloudy,8000.0,,FEW,5900.0,BKN,7900.0,,,,
KRDR,09-18-2001,15:00,METAR,,,3.0,,,9999.0,Cloud Development Not Observable,13.0,13.0,30.05,1018.4,,,,0,0,0,,,,,,,,,7/8 Mostly Cloudy,8000.0,,FEW,5900.0,BKN,7900.0,,,,
KRDR,09-18-2001,14:00,METAR,,320,3.0,,,9999.0,Cloud Development Not Observable,12.0,12.0,30.05,1018.4,,,,0,0,0,,,,,,,,,7/8 Mostly Cloudy,6000.0,,BKN,5900.0,BKN,7900.0,,,,
KRDR,09-18-2001,13:00,METAR,,280,3.0,,,9999.0,Mist/Cloud Development Not Observable,9.0,9.0,30.06,1018.6,,,,10,0,0,,,,,,,,,7/8 Mostly Cloudy,6000.0,,BKN,5900.0,BKN,7900.0,,,,
KRDR,09-18-2001,12:00,METAR,,240,3.0,,,9999.0,Cloud Development Not Observable,9.0,9.0,30.06,1018.4,,,,0,0,0,,,,,,,,,8/8 Overcast,6000.0,,BKN,5900.0,OVC,20000.0,,,,
KRDR,09-18-2001,11:00,METAR,,340,4.0,,,9999.0,Cloud Development Not Observable,10.0,10.0,30.05,1018.4,,,,0,0,0,,,,,,,,,4/8 Partly Cloudy,72000.0,,SCT,5900.0,,,,,,
KRDR,09-18-2001,10:00,METAR,,330,5.0,,,9999.0,Cloud Development Not Observable,11.0,11.0,30.06,1018.6,,,,0,0,0,,,,,,,,,7/8 Mostly Cloudy,6000.0,,BKN,5900.0,,,,,,
KRDR,09-18-2001,09:00,METAR,,270,4.0,,,9999.0,Cloud Development Not Observable,9.0,9.0,30.08,1019.0,,,,0,0,0,,,,,,,,,4/8 Partly Cloudy,72000.0,,SCT,5900.0,,,,,,
KRDR,09-18-2001,08:00,METAR,,320,5.0,,,9999.0,Cloud Development Not Observable,9.0,9.0,30.08,1019.1,,,,0,0,0,,,,,,,,,2/8 Mostly Clear,72000.0,,FEW,5900.0,,,,,,
KRDR,09-18-2001,07:00,METAR,,320,4.0,,,9999.0,Cloud Development Not Observable,10.0,10.0,30.08,1018.9,,,,0,0,0,,,,,,,,,4/8 Partly Cloudy,72000.0,,FEW,3500.0,SCT,5900.0,,,,
KRDR,09-18-2001,06:00,METAR,,350,5.0,,,9999.0,Cloud Development Not Observable,13.0,13.0,30.08,1018.9,,,,0,0,0,,,,,,,,,8/8 Overcast,6000.0,,SCT,3500.0,OVC,5900.0,,,,
KRDR,09-18-2001,05:00,METAR,,330,6.0,,,9999.0,Cloud Development Not Observable,14.0,13.0,30.09,1019.3,,,,0,0,0,,,,,,,,,8/8 Overcast,6000.0,,SCT,3500.0,OVC,5900.0,,,,
KRDR,09-18-2001,04:00,METAR,,290,4.0,,,9999.0,Cloud Development Not Observable,14.0,12.0,30.09,1019.5,,,,0,0,0,,,,,,,,,7/8 Mostly Cloudy,6000.0,,SCT,3500.0,BKN,5900.0,,,,
KRDR,09-18-2001,03:00,METAR,,340,6.0,,,9999.0,Cloud Development Not Observable,14.0,13.0,,1019.4,,,,0,0,0,,,,,,,,,7/8 Mostly Cloudy,6000.0,,BKN,5900.0,,,,,,
KRDR,09-18-2001,02:00,METAR,,350,7.0,,,9999.0,Cloud Development Not Observable,16.0,13.0,30.08,1019.1,,,,0,0,0,,,,,,,,,7/8 Mostly Cloudy,6000.0,,BKN,5900.0,,,,,,
KRDR,09-18-2001,01:00,METAR,,10,8.0,,,9999.0,Cloud Development Not Observable,18.0,13.0,30.05,1018.3,,,,0,0,0,,,,,,,,,7/8 Mostly Cloudy,6000.0,,BKN,5900.0,,,,,,
KRDR,09-17-2001,23:59,METAR,,360,6.0,,,9999.0,Cloud Development Not Observable,19.0,13.0,30.04,1018.0,,,,0,0,0,,,,,,,,,7/8 Mostly Cloudy,5500.0,,BKN,5400.0,,,,,,
KRDR,09-17-2001,23:00,METAR,,340,5.0,,,9999.0,Cloud Development Not Observable,19.0,13.0,30.04,1017.9,,,,0,0,0,,,,,,,,,7/8 Mostly Cloudy,4900.0,,BKN,5000.0,,,,,,
KRDR,09-17-2001,22:00,METAR,,360,5.0,,,9999.0,Cloud Development Not Observable,21.0,11.0,30.04,1017.8,,,,0,0,0,,,,,,,,,7/8 Mostly Cloudy,4900.0,,BKN,5000.0,,,,,,
KRDR,09-17-2001,21:00,METAR,,350,6.0,,,9999.0,Cloud Development Not Observable,21.0,11.0,30.04,1017.8,,,,0,0,0,,,,,,,,,7/8 Mostly Cloudy,4400.0,,BKN,4500.0,,,,,,
KRDR,09-17-2001,20:00,METAR,,,5.0,,,9999.0,Cloud Development Not Observable,20.0,12.0,30.05,1018.2,,,,0,0,0,,,,,,,,,4/8 Partly Cloudy,72000.0,,SCT,3500.0,,,,,,
KRDR,09-17-2001,19:00,METAR,,,1.0,,,9999.0,Cloud Development Not Observable,21.0,13.0,30.06,1018.3,,,,0,0,0,,,,,,,,,2/8 Mostly Clear,72000.0,,FEW,3000.0,,,,,,
KRDR,09-17-2001,15:00,METAR,,,6.0,,,9999.0,Mist/Cloud Development Not Observable,14.0,12.0,30.06,1018.5,,,,10,0,0,,,,,,,,,Clear,72000.0,,,73000.0,,,,,,
KRDR,09-17-2001,14:00,METAR,,310,8.0,,,9999.0,Mist/Cloud Development Not Observable,12.0,12.0,30.05,1018.2,,,,10,0,0,,,,,,,,,Clear,72000.0,,,73000.0,,,,,,
KRDR,09-17-2001,12:00,METAR,,250,3.0,,,9999.0,Cloud Development Not Observable,9.0,9.0,30.03,1017.6,,,,0,0,0,,,,,,,,,4/8 Partly Cloudy,72000.0,,SCT,3000.0,,,,,,
KRDR,09-17-2001,11:00,METAR,,280,4.0,,,9999.0,Cloud Development Not Observable,11.0,11.0,30.03,1017.7,,,,0,0,0,,,,,,,,,2/8 Mostly Clear,72000.0,,FEW,3000.0,,,,,,
KRDR,09-17-2001,10:00,METAR,,270,3.0,,,9999.0,Cloud Development Not Observable,13.0,13.0,30.02,1017.2,,,,0,0,0,,,,,,,,,8/8 Overcast,2700.0,,OVC,3000.0,,,,,,
KRDR,09-17-2001,09:41,SPECI,,270,3.0,,,9999.0,Cloud Development Not Observable,13.0,13.0,30.02,,,,,0,0,0,,,,,,,,,8/8 Overcast,2700.0,,OVC,3100.0,,,,,,
KRDR,09-17-2001,09:00,METAR,,250,4.0,,,9999.0,Cloud Development Not Observable,13.0,13.0,30.01,1017.0,,,,0,0,0,,,,,,,,,7/8 Mostly Cloudy,2800.0,,BKN,2800.0,,,,,,
KRDR,09-17-2001,08:00,METAR,,240,3.0,,,9999.0,Cloud Development Not Observable,13.0,13.0,30.01,1016.8,,,,0,0,0,,,,,,,,,7/8 Mostly Cloudy,2700.0,,BKN,2700.0,,,,,,
KRDR,09-17-2001,07:00,METAR,,220,4.0,,,9999.0,Cloud Development Not Observable,14.0,13.0,30.01,1017.0,,,,0,0,0,,,,,,,,,8/8 Overcast,2600.0,,BKN,2600.0,OVC,5900.0,,,,
KRDR,09-17-2001,06:00,METAR,,,3.0,,,9999.0,Cloud Development Not Observable,14.0,13.0,30.01,1017.0,,,,0,0,0,,,,,,,,,8/8 Overcast,2500.0,,OVC,2500.0,,,,,,
KRDR,09-17-2001,05:00,METAR,,280,2.0,,,9999.0,Cloud Development Not Observable,14.0,13.0,30.01,1017.0,,,,0,0,0,,,,,,,,,8/8 Overcast,2500.0,,OVC,2500.0,,,,,,
KRDR,09-17-2001,04:00,METAR,,330,2.0,,,9999.0,Cloud Development Not Observable,14.0,12.0,30.01,1016.8,,,,0,0,0,,,,,,,,,8/8 Overcast,2500.0,,FEW,1200.0,OVC,2500.0,,,,
KRDR,09-17-2001,03:00,METAR,,310,4.0,,,9999.0,Cloud Development Not Observable,15.0,13.0,30.01,1016.8,,,,0,0,0,,,,,,,,,8/8 Overcast,2600.0,,FEW,1200.0,OVC,2600.0,,,,
KRDR,09-17-2001,02:00,METAR,,,3.0,,,9999.0,Cloud Development Not Observable,15.0,14.0,30.00,1016.5,,,,0,0,0,,,,,,,,,8/8 Overcast,2400.0,,FEW,1200.0,OVC,2400.0,,,,
KRDR,09-17-2001,01:00,METAR,,,2.0,,,9999.0,Cloud Development Not Observable,16.0,14.0,29.99,1016.1,,,,0,0,0,,,,,,,,,8/8 Overcast,2500.0,,OVC,2500.0,,,,,,
KRDR,09-17-2001,00:00,METAR,,240,2.0,,,9999.0,Cloud Development Not Observable,16.0,14.0,29.99,1016.1,,,,0,0,0,,,,,,,,,8/8 Overcast,2300.0,,BKN,2300.0,OVC,3500.0,,,,
KRDR,09-16-2001,23:00,METAR,,,1.0,,,9999.0,Cloud Development Not Observable,17.0,14.0,29.99,1016.1,,,,0,0,0,,,,,,,,,8/8 Overcast,2500.0,,BKN,2500.0,OVC,3500.0,,,,
KRDR,09-16-2001,22:00,METAR,,,1.0,,,9999.0,Cloud Development Not Observable,17.0,14.0,29.99,1016.1,,,,0,0,0,,,,,,,,,8/8 Overcast,2500.0,,BKN,2500.0,OVC,3500.0,,,,
KRDR,09-16-2001,21:00,METAR,,190,4.0,,,9999.0,Cloud Development Not Observable,16.0,14.0,30.00,1016.6,,,,0,0,0,,,,,,,,,8/8 Overcast,2500.0,,BKN,2500.0,OVC,3500.0,,,,
KRDR,09-16-2001,20:00,METAR,,190,3.0,,,9999.0,Cloud Development Not Observable,16.0,13.0,30.02,1017.1,,,,0,0,0,,,,,,,,,8/8 Overcast,2000.0,,BKN,2000.0,OVC,3500.0,,,,
KRDR,09-16-2001,19:00,METAR,,130,4.0,,,9999.0,Cloud Development Not Observable,15.0,13.0,30.04,1017.9,,,,0,0,0,,,,,,,,,8/8 Overcast,1600.0,,BKN,1600.0,OVC,3500.0,,,,
KRDR,09-16-2001,18:00,METAR,,200,3.0,,,9999.0,Cloud Development Not Observable,15.0,13.0,30.05,1018.2,,,,0,0,0,,,,,,,,,8/8 Overcast,1600.0,,BKN,1600.0,OVC,3500.0,,,,
KRDR,09-16-2001,17:00,METAR,,220,3.0,,,8000.0,Mist/Cloud Development Not Observable,14.0,13.0,30.07,1018.9,,,,10,0,0,,,,,,,,,8/8 Overcast,1600.0,,FEW,800.0,BKN,1600.0,OVC,3500.0,,
KRDR,09-16-2001,16:00,METAR,,170,3.0,,,8000.0,Mist/Cloud Development Not Observable,14.0,14.0,30.08,1019.1,,,,10,0,0,,,,,,,,,8/8 Overcast,1600.0,,FEW,800.0,BKN,1600.0,OVC,3500.0,,
KRDR,09-16-2001,14:00,METAR,,,2.0,,,4800.0,Mist/Cloud Development Not Observable,12.0,12.0,30.07,1019.0,,,,10,0,0,,,,,,,,,8/8 Overcast,2200.0,,SCT,1000.0,OVC,2200.0,,,,
KRDR,09-16-2001,13:00,METAR,,,1.0,,,4800.0,Mist/Cloud Development Not Observable,12.0,12.0,30.08,1019.2,,,,10,0,0,,,,,,,,,8/8 Overcast,2200.0,,SCT,1000.0,OVC,2200.0,,,,
KRDR,09-16-2001,12:00,METAR,,,1.0,,,4800.0,Mist/Cloud Development Not Observable,12.0,12.0,30.09,1019.6,,,,10,0,0,,,,,,,,,8/8 Overcast,1000.0,,SCT,1000.0,OVC,2100.0,,,,
KRDR,09-16-2001,11:00,METAR,,190,1.0,,,6400.0,Mist/Cloud Development Not Observable,12.0,12.0,30.09,1019.6,,,,10,0,0,,,,,,,,,8/8 Overcast,2500.0,,FEW,1000.0,OVC,2500.0,,,,
KRDR,09-16-2001,10:00,METAR,,200,4.0,,,8000.0,Mist/Cloud Development Not Observable,12.0,12.0,30.10,1020.0,,,,10,0,0,,,,,,,,,8/8 Overcast,2500.0,,FEW,1000.0,OVC,2500.0,,,,
KRDR,09-16-2001,09:00,METAR,,,1.0,,,9999.0,Cloud Development Not Observable,12.0,12.0,30.12,1020.5,,,,0,0,0,,,,,,,,,8/8 Overcast,2500.0,,FEW,1000.0,OVC,2500.0,,,,
KRDR,09-16-2001,08:00,METAR,,210,2.0,,,9999.0,Cloud Development Not Observable,12.0,12.0,30.13,1021.3,,,,0,0,0,,,,,,,,,8/8 Overcast,2500.0,,FEW,1000.0,OVC,2500.0,,,,
KRDR,09-16-2001,07:00,METAR,,200,2.0,,,9999.0,Cloud Development Not Observable,12.0,12.0,30.14,1021.2,,,,0,0,0,,,,,,,,,8/8 Overcast,2500.0,,FEW,1000.0,OVC,2500.0,,,,
KRDR,09-16-2001,06:38,SPECI,,200,3.0,,,9999.0,Cloud Development Not Observable,12.0,12.0,30.14,,,,,0,0,0,,,,,,,,,8/8 Overcast,2500.0,,FEW,1000.0,OVC,2500.0,,,,
KRDR,09-16-2001,06:00,METAR,,200,3.0,,,9999.0,Cloud Development Not Observable,12.0,12.0,30.15,1021.8,,,,0,0,0,,,,,,,,,8/8 Overcast,2500.0,,FEW,1000.0,OVC,3000.0,,,,
KRDR,09-16-2001,05:00,METAR,,200,4.0,,,9999.0,Cloud Development Not Observable,12.0,12.0,30.16,1022.0,,,,0,0,0,,,,,,,,,8/8 Overcast,3300.0,,FEW,1000.0,OVC,3400.0,,,,
KRDR,09-16-2001,04:00,METAR,,210,3.0,,,9999.0,Cloud Development Not Observable,12.0,12.0,30.17,1022.5,,,,0,0,0,,,,,,,,,8/8 Overcast,3300.0,,OVC,3400.0,,,,,,
KRDR,09-16-2001,03:00,METAR,,210,3.0,,,9999.0,Cloud Development Not Observable,13.0,12.0,30.17,1022.5,,,,0,0,0,,,,,,,,,8/8 Overcast,3300.0,,OVC,3400.0,,,,,,
KRDR,09-16-2001,02:00,METAR,,210,3.0,,,9999.0,Cloud Development Not Observable,13.0,12.0,30.18,1022.7,,,,0,0,0,,,,,,,,,8/8 Overcast,3100.0,,OVC,3200.0,,,,,,
KRDR,09-16-2001,01:00,METAR,,180,4.0,,,9999.0,Cloud Development Not Observable,13.0,12.0,30.18,1022.7,,,,0,0,0,,,,,,,,,8/8 Overcast,3400.0,,SCT,2500.0,OVC,3500.0,,,,
KRDR,09-16-2001,00:00,METAR,,210,3.0,,,9999.0,Cloud Development Not Observable,14.0,11.0,30.19,1023.3,,,,0,0,0,,,,,,,,,8/8 Overcast,3200.0,,SCT,2500.0,BKN,3300.0,OVC,5000.0,,
KRDR,09-15-2001,23:00,METAR,,200,4.0,,,9999.0,Cloud Development Not Observable,14.0,11.0,30.19,1023.3,,,,0,0,0,,,,,,,,,8/8 Overcast,3000.0,,SCT,2000.0,BKN,3000.0,OVC,5000.0,,
KRDR,09-15-2001,22:00,METAR,,170,2.0,,,9999.0,Cloud Development Not Observable,14.0,11.0,30.20,1023.6,,,,0,0,0,,,,,,,,,8/8 Overcast,3000.0,,SCT,2000.0,BKN,3000.0,OVC,5000.0,,
KRDR,09-15-2001,21:00,METAR,,60,3.0,,,9999.0,Cloud Development Not Observable,15.0,11.0,30.21,1024.0,,,,0,0,0,,,,,,,,,8/8 Overcast,3000.0,,SCT,2000.0,BKN,3000.0,OVC,5000.0,,
KRDR,09-15-2001,20:00,METAR,,130,3.0,,,9999.0,Cloud Development Not Observable,14.0,11.0,30.23,1024.7,,,,0,0,0,,,,,,,,,8/8 Overcast,3000.0,,SCT,2000.0,BKN,3000.0,OVC,5900.0,,
KRDR,09-15-2001,19:00,METAR,,90,3.0,,,9999.0,Cloud Development Not Observable,14.0,11.0,30.24,1025.0,,,,0,0,0,,,,,,,,,7/8 Mostly Cloudy,3500.0,,SCT,2500.0,BKN,3600.0,,,,
KRDR,09-15-2001,18:40,SPECI,,140,6.0,,,9999.0,Cloud Development Not Observable,14.0,11.0,30.24,,,,,0,0,0,,,,,,,,,7/8 Mostly Cloudy,3500.0,,SCT,2500.0,BKN,3600.0,,,,
KRDR,09-15-2001,18:00,METAR,,120,5.0,,,9999.0,Cloud Development Not Observable,13.0,12.0,30.25,1026.1,,,,0,0,0,,,,,,,,,8/8 Overcast,1600.0,,BKN,1600.0,OVC,3500.0,,,,
KRDR,09-15-2001,17:00,METAR,,130,6.0,,,9999.0,Cloud Development Not Observable,13.0,12.0,30.28,1026.1,,,,0,0,0,,,,,,,,,8/8 Overcast,1600.0,,BKN,1600.0,OVC,3500.0,,,,
KRDR,09-15-2001,16:00,METAR,,130,7.0,,,9999.0,Cloud Development Not Observable,12.0,12.0,30.28,1026.1,,,,0,0,0,,,,,,,,,8/8 Overcast,1600.0,,SCT,1000.0,BKN,1600.0,OVC,3500.0,,
KRDR,09-15-2001,15:00,METAR,,100,6.0,,,9999.0,Cloud Development Not Observable,12.0,12.0,30.28,1026.1,,,,0,0,0,,,,,,,,,8/8 Overcast,1700.0,,FEW,1000.0,BKN,1700.0,OVC,3500.0,,
KRDR,09-15-2001,14:00,METAR,,70,5.0,,,9999.0,Cloud Development Not Observable,10.0,10.0,30.29,1026.5,,,,0,0,0,,,,,,,,,7/8 Mostly Cloudy,1800.0,,BKN,1800.0,BKN,3500.0,BKN,7900.0,,
KRDR,09-15-2001,13:00,METAR,,50,5.0,,,9999.0,Cloud Development Not Observable,10.0,10.0,30.28,1026.2,,,,0,0,0,,,,,,,,,7/8 Mostly Cloudy,2000.0,,BKN,2000.0,BKN,3500.0,BKN,7900.0,,
KRDR,09-15-2001,12:43,SPECI,,60,5.0,,,9999.0,Cloud Development Not Observable,10.0,10.0,30.28,,,,,0,0,0,,,,,,,,,7/8 Mostly Cloudy,2000.0,,BKN,2000.0,BKN,3500.0,BKN,7900.0,,
KRDR,09-15-2001,12:00,METAR,,70,2.0,,,9999.0,Cloud Development Not Observable,9.0,9.0,30.28,1026.1,,,,0,0,0,,,,,,,,,7/8 Mostly Cloudy,3400.0,,SCT,2500.0,BKN,3500.0,BKN,5000.0,,
KRDR,09-15-2001,11:19,SPECI,,60,3.0,,,9999.0,Cloud Development Not Observable,9.0,9.0,30.28,,,,,0,0,0,,,,,,,,,7/8 Mostly Cloudy,3400.0,,BKN,3500.0,BKN,5000.0,,,,
KRDR,09-15-2001,11:00,METAR,,70,4.0,,,9999.0,Mist/Cloud Development Not Observable,9.0,9.0,30.28,1026.2,,,,10,0,0,,,,,,,,,8/8 Overcast,2600.0,,OVC,2600.0,,,,,,
KRDR,09-15-2001,10:43,SPECI,,80,3.0,,,9999.0,Mist/Cloud Development Not Observable,9.0,9.0,30.28,,,,,10,0,0,,,,,,,,,8/8 Overcast,2800.0,,BKN,2800.0,OVC,5000.0,,,,
KRDR,09-15-2001,10:00,METAR,,50,5.0,,,9999.0,Cloud Development Not Observable,8.0,8.0,30.28,1026.2,,,,0,0,0,,,,,,,,,8/8 Overcast,3000.0,,BKN,3000.0,OVC,5000.0,,,,
KRDR,09-15-2001,09:00,METAR,,50,2.0,,,9999.0,Cloud Development Not Observable,7.0,7.0,30.28,1026.1,,,,0,0,0,,,,,,,,,8/8 Overcast,3900.0,,BKN,4000.0,OVC,5900.0,,,,
KRDR,09-15-2001,08:00,METAR,,190,2.0,,,9999.0,Cloud Development Not Observable,8.0,8.0,30.29,1026.5,,,,0,0,0,,,,,,,,,4/8 Partly Cloudy,72000.0,,SCT,5900.0,,,,,,
KRDR,09-15-2001,07:00,METAR,,140,2.0,,,9999.0,Cloud Development Not Observable,10.0,9.0,30.30,1026.7,,,,0,0,0,,,,,,,,,4/8 Partly Cloudy,72000.0,,SCT,5900.0,,,,,,
KRDR,09-15-2001,06:00,METAR,,60,3.0,,,9999.0,Cloud Development Not Observable,10.0,10.0,30.31,1027.2,,,,0,0,0,,,,,,,,,8/8 Overcast,6000.0,,OVC,5900.0,,,,,,
KRDR,09-15-2001,05:00,METAR,,150,3.0,,,9999.0,Cloud Development Not Observable,10.0,9.0,30.31,1027.2,,,,0,0,0,,,,,,,,,8/8 Overcast,3400.0,,OVC,3500.0,,,,,,
KRDR,09-15-2001,04:00,METAR,,170,4.0,,,9999.0,Cloud Development Not Observable,10.0,10.0,30.32,1027.6,,,,0,0,0,,,,,,,,,7/8 Mostly Cloudy,3100.0,,FEW,2600.0,BKN,3200.0,,,,
KRDR,09-15-2001,03:00,METAR,,140,2.0,,,9999.0,Cloud Development Not Observable,10.0,10.0,30.31,1027.3,,,,0,0,0,,,,,,,,,7/8 Mostly Cloudy,3000.0,,BKN,3000.0,,,,,,
KRDR,09-15-2001,02:00,METAR,,200,4.0,,,9999.0,Cloud Development Not Observable,11.0,10.0,30.31,1027.1,,,,0,0,0,,,,,,,,,7/8 Mostly Cloudy,20000.0,,SCT,15000.0,BKN,20000.0,,,,
KRDR,09-15-2001,01:00,METAR,,190,7.0,,,9999.0,Cloud Development Not Observable,12.0,11.0,30.31,1027.1,,,,0,0,0,,,,,,,,,7/8 Mostly Cloudy,10000.0,,BKN,9900.0,BKN,15000.0,,,,
KRDR,09-15-2001,00:47,SPECI,,190,9.0,,,9999.0,Cloud Development Not Observable,12.0,11.0,30.31,,,,,0,0,0,,,,,,,,,8/8 Overcast,10000.0,,FEW,5000.0,BKN,9900.0,OVC,15000.0,,
KRDR,09-15-2001,00:00,METAR,,150,9.0,,,9999.0,Rain/Cloud Development Not Observable,14.0,11.0,30.30,1026.9,,,,61,0,0,,,,,,,,,8/8 Overcast,3000.0,,FEW,2000.0,BKN,3000.0,OVC,9900.0,,
KRDR,09-14-2001,23:00,METAR,,140,6.0,,,9999.0,Cloud Development Not Observable,14.0,11.0,30.30,1026.7,,,,0,0,0,,,,,,,,,8/8 Overcast,10000.0,,FEW,2500.0,BKN,9900.0,OVC,20000.0,,
KRDR,09-14-2001,22:00,METAR,,140,7.0,,,9999.0,Cloud Development Not Observable,14.0,12.0,30.31,1027.2,,,,0,0,0,,,,,,,,,8/8 Overcast,12000.0,,FEW,1800.0,SCT,2500.0,OVC,12000.0,,
KRDR,09-14-2001,21:00,METAR,,140,6.0,,,9999.0,Drizzle/Cloud Development Not Observable,14.0,13.0,30.32,1027.6,,,,51,0,0,,,,,,,,,8/8 Overcast,1500.0,,BKN,1800.0,BKN,3000.0,OVC,12000.0,,
KRDR,09-14-2001,20:00,METAR,,160,8.0,,,9999.0,Drizzle/Cloud Development Not Observable,13.0,13.0,30.33,1027.8,,,,51,0,0,,,,,,,,,7/8 Mostly Cloudy,1800.0,,BKN,1800.0,BKN,6400.0,BKN,12000.0,,
KRDR,09-14-2001,19:25,METAR,,120,8.0,,,9999.0,Drizzle/Cloud Development Not Observable,14.0,12.0,30.33,,,,,51,0,0,,,,,,,,,7/8 Mostly Cloudy,1800.0,,BKN,1800.0,BKN,12000.0,,,,
KRDR,09-14-2001,19:00,METAR,,120,9.0,,,9999.0,Cloud Development Not Observable,15.0,11.0,30.33,1027.9,,,,0,0,0,,,,,,,,,8/8 Overcast,12000.0,,SCT,2000.0,SCT,5000.0,BKN,12000.0,OVC,20000.0
KRDR,09-14-2001,18:00,METAR,,120,8.0,,,9999.0,Cloud Development Not Observable,14.0,10.0,30.34,1028.1,,,,0,0,0,,,,,,,,,7/8 Mostly Cloudy,12000.0,,FEW,5000.0,BKN,12000.0,BKN,20000.0,,
KRDR,09-14-2001,17:00,METAR,,130,7.0,,,9999.0,Cloud Development Not Observable,14.0,10.0,30.34,1028.3,,,,0,0,0,,,,,,,,,8/8 Overcast,12000.0,,FEW,5000.0,BKN,12000.0,OVC,20000.0,,
KRDR,09-14-2001,16:00,METAR,,90,6.0,,,9999.0,Cloud Development Not Observable,13.0,10.0,30.35,1028.5,,,,0,0,0,,,,,,,,,7/8 Mostly Cloudy,12000.0,,FEW,5000.0,BKN,12000.0,BKN,20000.0,,
KRDR,09-14-2001,15:00,METAR,,120,7.0,,,9999.0,Cloud Development Not Observable,12.0,11.0,30.35,1028.6,,,,0,0,0,,,,,,,,,7/8 Mostly Cloudy,12000.0,,FEW,5000.0,BKN,12000.0,BKN,20000.0,,
KRDR,09-14-2001,14:00,METAR,,80,5.0,,,9999.0,Cloud Development Not Observable,12.0,11.0,30.36,1028.8,,,,0,0,0,,,,,,,,,8/8 Overcast,12000.0,,FEW,5000.0,BKN,12000.0,OVC,20000.0,,
KRDR,09-14-2001,13:00,METAR,,80,5.0,,,9999.0,Cloud Development Not Observable,10.0,10.0,30.36,1029.0,,,,0,0,0,,,,,,,,,8/8 Overcast,8000.0,,FEW,5000.0,BKN,7900.0,OVC,20000.0,,
KRDR,09-14-2001,11:55,METAR,,120,6.0,,,9999.0,Cloud Development Not Observable,10.0,9.0,30.36,1028.8,,,,0,0,0,,,,,,,,,8/8 Overcast,10000.0,,FEW,5000.0,BKN,9900.0,OVC,20000.0,,
KRDR,09-14-2001,11:00,METAR,,130,6.0,,,9999.0,Cloud Development Not Observable,10.0,9.0,30.35,1028.6,,,,0,0,0,,,,,,,,,8/8 Overcast,12000.0,,BKN,12000.0,OVC,20000.0,,,,
KRDR,09-14-2001,10:00,METAR,,100,4.0,,,9999.0,Cloud Development Not Observable,10.0,8.0,30.35,1028.6,,,,0,0,0,,,,,,,,,8/8 Overcast,20000.0,,OVC,20000.0,,,,,,
KRDR,09-14-2001,09:00,METAR,,,2.0,,,9999.0,Cloud Development Not Observable,8.0,8.0,30.37,1029.3,,,,0,0,0,,,,,,,,,8/8 Overcast,20000.0,,OVC,20000.0,,,,,,
KRDR,09-14-2001,08:00,METAR,,,2.0,,,9999.0,Cloud Development Not Observable,8.0,8.0,30.38,1029.5,,,,0,0,0,,,,,,,,,8/8 Overcast,20000.0,,SCT,13000.0,OVC,20000.0,,,,
KRDR,09-14-2001,07:00,METAR,,40,2.0,,,9999.0,Cloud Development Not Observable,10.0,6.0,30.37,1029.3,,,,0,0,0,,,,,,,,,8/8 Overcast,20000.0,,SCT,13000.0,OVC,20000.0,,,,
KRDR,09-14-2001,06:00,METAR,,90,4.0,,,9999.0,Cloud Development Not Observable,11.0,6.0,30.38,1029.4,,,,0,0,0,,,,,,,,,8/8 Overcast,13000.0,,BKN,13000.0,OVC,20000.0,,,,
KRDR,09-14-2001,05:00,METAR,,110,4.0,,,9999.0,Cloud Development Not Observable,11.0,7.0,30.39,1030.0,,,,0,0,0,,,,,,,,,8/8 Overcast,20000.0,,FEW,8900.0,OVC,20000.0,,,,
KRDR,09-14-2001,04:00,METAR,,70,5.0,,,9999.0,Cloud Development Not Observable,11.0,6.0,30.38,1029.7,,,,0,0,0,,,,,,,,,8/8 Overcast,20000.0,,FEW,8900.0,OVC,20000.0,,,,
KRDR,09-14-2001,03:00,METAR,,70,5.0,,,9999.0,Cloud Development Not Observable,12.0,6.0,30.39,1029.9,,,,0,0,0,,,,,,,,,8/8 Overcast,19000.0,,FEW,8900.0,OVC,19000.0,,,,
KRDR,09-14-2001,02:00,METAR,,60,5.0,,,9999.0,Cloud Development Not Observable,12.0,5.0,30.38,1029.9,,,,0,0,0,,,,,,,,,8/8 Overcast,20000.0,,SCT,8400.0,OVC,20000.0,,,,
KRDR,09-14-2001,01:00,METAR,,90,7.0,,,9999.0,Cloud Development Not Observable,13.0,5.0,30.37,1029.4,,,,0,0,0,,,,,,,,,8/8 Overcast,20000.0,,OVC,20000.0,,,,,,
KRDR,09-14-2001,00:00,METAR,,70,9.0,,,9999.0,Cloud Development Not Observable,15.0,5.0,30.38,1029.9,,,,0,0,0,,,,,,,,,7/8 Mostly Cloudy,20000.0,,FEW,5000.0,BKN,20000.0,,,,
KRDR,09-13-2001,23:00,METAR,,70,9.0,,,9999.0,Cloud Development Not Observable,16.0,3.0,30.38,1029.6,,,,0,0,0,,,,,,,,,7/8 Mostly Cloudy,25000.0,,BKN,25000.0,,,,,,
KRDR,09-13-2001,22:00,METAR,,70,9.0,12.0,,9999.0,Cloud Development Not Observable,16.0,4.0,30.39,1030.0,,,,0,0,0,,,,,,,,,7/8 Mostly Cloudy,25000.0,,FEW,5000.0,BKN,25000.0,,,,
KRDR,09-13-2001,21:00,METAR,,110,8.0,,,9999.0,Cloud Development Not Observable,17.0,3.0,30.40,1030.4,,,,0,0,0,,,,,,,,,7/8 Mostly Cloudy,25000.0,,FEW,4500.0,BKN,25000.0,,,,
KRDR,09-13-2001,20:00,METAR,,80,10.0,,,9999.0,Cloud Development Not Observable,17.0,1.0,30.41,1030.7,,,,0,0,0,,,,,,,,,7/8 Mostly Cloudy,25000.0,,FEW,4500.0,BKN,25000.0,,,,
KRDR,09-13-2001,19:00,METAR,,80,10.0,,,9999.0,Cloud Development Not Observable,16.0,1.0,30.43,1031.3,,,,0,0,0,,,,,,,,,4/8 Partly Cloudy,72000.0,,FEW,4000.0,SCT,25000.0,,,,
KRDR,09-13-2001,18:00,METAR,,50,11.0,16.0,,9999.0,Cloud Development Not Observable,15.0,1.0,30.44,1031.8,,,,0,0,0,,,,,,,,,2/8 Mostly Clear,72000.0,,FEW,4000.0,FEW,25000.0,,,,
KRDR,09-13-2001,17:00,METAR,,60,10.0,,,9999.0,Cloud Development Not Observable,14.0,1.0,30.47,1032.5,,,,0,0,0,,,,,,,,,2/8 Mostly Clear,72000.0,,FEW,4000.0,FEW,25000.0,,,,
KRDR,09-13-2001,16:00,METAR,,40,7.0,,,9999.0,Cloud Development Not Observable,13.0,3.0,30.46,1032.4,,,,0,0,0,,,,,,,,,2/8 Mostly Clear,72000.0,,FEW,4000.0,FEW,25000.0,,,,
KRDR,09-12-2001,13:00,METAR,,350,7.0,,,9999.0,Cloud Development Not Observable,10.0,10.0,30.25,1025.2,,,,0,0,0,,,,,,,,,7/8 Mostly Cloudy,25000.0,,SCT,12000.0,BKN,25000.0,,,,
KRDR,09-12-2001,12:00,METAR,,350,10.0,,,9999.0,Cloud Development Not Observable,10.0,10.0,30.23,1024.2,,,,0,0,0,,,,,,,,,4/8 Partly Cloudy,72000.0,,FEW,12000.0,SCT,25000.0,,,,
KRDR,09-12-2001,11:00,METAR,,350,9.0,,,9999.0,Cloud Development Not Observable,12.0,11.0,30.21,1023.4,,,,0,0,0,,,,,,,,,7/8 Mostly Cloudy,25000.0,,FEW,6400.0,SCT,12000.0,BKN,25000.0,,
KRDR,09-12-2001,10:00,METAR,,350,8.0,,,9999.0,Cloud Development Not Observable,13.0,11.0,30.20,1023.1,,,,0,0,0,,,,,,,,,7/8 Mostly Cloudy,8000.0,,BKN,7900.0,BKN,25000.0,,,,
KRDR,09-12-2001,09:00,METAR,,330,7.0,,,9999.0,Cloud Development Not Observable,13.0,11.0,30.19,1022.9,,,,0,0,0,,,,,,,,,7/8 Mostly Cloudy,12000.0,,SCT,5900.0,BKN,12000.0,BKN,25000.0,,
KRDR,09-12-2001,08:00,METAR,,330,4.0,,,9999.0,Cloud Development Not Observable,12.0,11.0,30.17,1022.0,,,,0,0,0,,,,,,,,,7/8 Mostly Cloudy,12000.0,,SCT,5900.0,BKN,12000.0,BKN,25000.0,,
KRDR,09-12-2001,07:00,METAR,,310,6.0,,,9999.0,Cloud Development Not Observable,11.0,10.0,30.17,1022.1,,,,0,0,0,,,,,,,,,7/8 Mostly Cloudy,25000.0,,SCT,6400.0,SCT,12000.0,BKN,25000.0,,
KRDR,09-12-2001,04:00,METAR,,350,7.0,,,9999.0,Cloud Development Not Observable,11.0,9.0,30.14,1021.2,,,,0,0,0,,,,,,,,,7/8 Mostly Cloudy,25000.0,,SCT,12000.0,BKN,25000.0,,,,
KRDR,09-12-2001,03:00,METAR,,360,5.0,,,9999.0,Cloud Development Not Observable,13.0,9.0,30.13,,,,,0,0,0,,,,,,,,,7/8 Mostly Cloudy,25000.0,,SCT,12000.0,BKN,25000.0,,,,
KRDR,09-12-2001,02:00,METAR,,30,7.0,,,9999.0,Cloud Development Not Observable,15.0,8.0,30.12,1020.7,,,,0,0,0,,,,,,,,,7/8 Mostly Cloudy,25000.0,,SCT,12000.0,BKN,25000.0,,,,
KRDR,09-12-2001,01:00,METAR,,70,6.0,,,9999.0,Cloud Development Not Observable,18.0,8.0,30.10,1019.8,,,,0,0,0,,,,,,,,,7/8 Mostly Cloudy,25000.0,,SCT,12000.0,BKN,25000.0,,,,
KRDR,09-12-2001,00:00,METAR,,60,10.0,,,9999.0,Cloud Development Not Observable,20.0,9.0,30.09,1019.4,,,,0,0,0,,,,,,,,,7/8 Mostly Cloudy,25000.0,,SCT,12000.0,BKN,25000.0,,,,
KRDR,09-11-2001,23:00,METAR,,60,8.0,,,9999.0,Cloud Development Not Observable,22.0,8.0,30.08,,,,,0,0,0,,,,,,,,,7/8 Mostly Cloudy,25000.0,,SCT,12000.0,BKN,25000.0,,,,
KRDR,09-11-2001,22:00,METAR,,50,5.0,,,9999.0,Cloud Development Not Observable,22.0,7.0,30.08,,,,,0,0,0,,,,,,,,,7/8 Mostly Cloudy,25000.0,,SCT,12000.0,BKN,25000.0,,,,
KRDR,09-11-2001,21:00,METAR,,60,7.0,,,9999.0,Cloud Development Not Observable,22.0,7.0,30.08,,,,,0,0,0,,,,,,,,,7/8 Mostly Cloudy,25000.0,,BKN,25000.0,BKN,25000.0,,,,
KRDR,09-11-2001,20:00,METAR,,30,11.0,,,9999.0,Cloud Development Not Observable,23.0,8.0,30.10,,,,,0,0,0,,,,,,,,,7/8 Mostly Cloudy,25000.0,,SCT,12000.0,BKN,25000.0,,,,
KRDR,09-11-2001,19:00,METAR,,70,7.0,,,9999.0,Cloud Development Not Observable,22.0,8.0,30.10,1019.7,,,,0,0,0,,,,,,,,,4/8 Partly Cloudy,72000.0,,SCT,12000.0,SCT,25000.0,,,,
KRDR,09-11-2001,18:00,METAR,,30,7.0,,,9999.0,Cloud Development Not Observable,21.0,10.0,30.11,1020.2,,,,0,0,0,,,,,,,,,4/8 Partly Cloudy,72000.0,,SCT,12000.0,SCT,25000.0,,,,
KRDR,09-11-2001,17:00,METAR,,,1.0,,,9999.0,Cloud Development Not Observable,18.0,9.0,30.10,1020.0,,,,0,0,0,,,,,,,,,7/8 Mostly Cloudy,25000.0,,SCT,12000.0,BKN,25000.0,,,,
KRDR,09-11-2001,16:00,METAR,,,3.0,,,9999.0,Cloud Development Not Observable,16.0,10.0,30.11,1020.3,,,,0,0,0,,,,,,,,,7/8 Mostly Cloudy,25000.0,,SCT,12000.0,BKN,25000.0,,,,
KRDR,09-11-2001,14:00,METAR,,,3.0,,,9999.0,Cloud Development Not Observable,11.0,10.0,30.13,1020.9,,,,0,0,0,,,,,,,,,7/8 Mostly Cloudy,25000.0,,SCT,12000.0,BKN,25000.0,,,,
KRDR,09-11-2001,13:00,METAR,,,1.0,,,9999.0,Cloud Development Not Observable,8.0,8.0,30.12,1020.6,,,,0,0,0,,,,,,,,,7/8 Mostly Cloudy,25000.0,,SCT,12000.0,BKN,25000.0,,,,
KRDR,09-11-2001,12:00,METAR,,160,2.0,,,9999.0,Cloud Development Not Observable,9.0,8.0,30.12,1020.5,,,,0,0,0,,,,,,,,,7/8 Mostly Cloudy,25000.0,,SCT,12000.0,BKN,25000.0,,,,
KRDR,09-11-2001,11:00,METAR,,100,4.0,,,9999.0,Cloud Development Not Observable,10.0,8.0,30.11,1020.2,,,,0,0,0,,,,,,,,,7/8 Mostly Cloudy,25000.0,,BKN,25000.0,,,,,,
KRDR,09-11-2001,10:05,SPECI,,100,4.0,,,9999.0,Cloud Development Not Observable,10.0,8.0,30.12,,,,,0,0,0,,,,,,,,,4/8 Partly Cloudy,72000.0,,SCT,25000.0,,,,,,
KRDR,09-11-2001,07:00,METAR,,160,3.0,,,9999.0,Cloud Development Not Observable,9.0,7.0,30.13,1021.0,,,,0,0,0,,,,,,,,,4/8 Partly Cloudy,72000.0,,SCT,25000.0,,,,,,
KRDR,09-11-2001,05:00,METAR,,170,6.0,,,9999.0,Cloud Development Not Observable,9.0,8.0,30.14,1021.2,,,,0,0,0,,,,,,,,,4/8 Partly Cloudy,72000.0,,SCT,25000.0,,,,,,
KRDR,09-11-2001,04:00,METAR,,210,2.0,,,9999.0,Cloud Development Not Observable,10.0,8.0,30.15,1021.6,,,,0,0,0,,,,,,,,,4/8 Partly Cloudy,72000.0,,FEW,15000.0,SCT,25000.0,,,,
KRDR,09-11-2001,03:00,METAR,,190,4.0,,,9999.0,Cloud Development Not Observable,12.0,8.0,30.14,1021.4,,,,0,0,0,,,,,,,,,4/8 Partly Cloudy,72000.0,,FEW,15000.0,SCT,25000.0,,,,
KRDR,09-11-2001,01:00,METAR,,250,3.0,,,9999.0,Cloud Development Not Observable,17.0,5.0,30.12,1020.5,,,,0,0,0,,,,,,,,,7/8 Mostly Cloudy,15000.0,,BKN,15000.0,BKN,25000.0,,,,
KRDR,09-11-2001,00:00,METAR,,250,7.0,,,9999.0,Cloud Development Not Observable,19.0,6.0,30.11,1020.2,,,,0,0,0,,,,,,,,,7/8 Mostly Cloudy,15000.0,,FEW,4000.0,BKN,15000.0,BKN,25000.0,,
KRDR,09-10-2001,23:00,METAR,,250,4.0,,,9999.0,Cloud Development Not Observable,20.0,5.0,30.11,1020.1,,,,0,0,0,,,,,,,,,7/8 Mostly Cloudy,25000.0,,FEW,4000.0,SCT,15000.0,BKN,25000.0,,
KRDR,09-10-2001,22:00,METAR,,260,6.0,,,9999.0,Cloud Development Not Observable,19.0,5.0,30.11,1020.1,,,,0,0,0,,,,,,,,,7/8 Mostly Cloudy,15000.0,,FEW,5000.0,BKN,15000.0,BKN,25000.0,,
KRDR,09-10-2001,21:00,METAR,,260,10.0,,,9999.0,Cloud Development Not Observable,19.0,6.0,30.11,,,,,0,0,0,,,,,,,,,7/8 Mostly Cloudy,15000.0,,FEW,5900.0,BKN,15000.0,BKN,25000.0,,
KRDR,09-10-2001,19:00,METAR,,280,12.0,,,9999.0,Cloud Development Not Observable,20.0,3.0,30.10,,,,,0,0,0,,,,,,,,,7/8 Mostly Cloudy,15000.0,,FEW,5000.0,BKN,15000.0,BKN,25000.0,,
KRDR,09-10-2001,18:00,METAR,,280,13.0,,260/25KTS,9999.0,Cloud Development Not Observable,22.0,3.0,30.08,,,,,0,0,0,,,,,,,,,7/8 Mostly Cloudy,25000.0,,SCT,15000.0,BKN,25000.0,,,,
KRDR,09-10-2001,17:00,METAR,,280,8.0,,,9999.0,Cloud Development Not Observable,19.0,5.0,30.09,,,,,0,0,0,,,,,,,,,4/8 Partly Cloudy,72000.0,,FEW,15000.0,SCT,25000.0,,,,
KRDR,09-10-2001,16:00,METAR,,240,7.0,,,9999.0,Cloud Development Not Observable,17.0,10.0,30.07,,,,,0,0,0,,,,,,,,,4/8 Partly Cloudy,72000.0,,FEW,15000.0,SCT,25000.0,,,,
KRDR,09-10-2001,15:00,METAR,,290,8.0,,,9999.0,Cloud Development Not Observable,15.0,9.0,30.04,,,,,0,0,0,,,,,,,,,2/8 Mostly Clear,72000.0,,FEW,15000.0,FEW,25000.0,,,,
KRDR,09-10-2001,14:00,METAR,,300,11.0,,,9999.0,Cloud Development Not Observable,12.0,9.0,30.03,1017.8,,,,0,0,0,,,,,,,,,2/8 Mostly Clear,72000.0,,FEW,15000.0,,,,,,
KRDR,09-10-2001,12:00,METAR,,270,8.0,,,9999.0,Cloud Development Not Observable,7.0,7.0,30.01,1017.0,,,,0,0,0,,,,,,,,,2/8 Mostly Clear,72000.0,,FEW,15000.0,,,,,,
KRDR,09-10-2001,11:00,METAR,,290,10.0,,,9999.0,Cloud Development Not Observable,9.0,8.0,29.99,1016.4,,,,0,0,0,,,,,,,,,4/8 Partly Cloudy,72000.0,,SCT,15000.0,,,,,,
KRDR,09-10-2001,10:00,METAR,,310,10.0,,,9999.0,Cloud Development Not Observable,9.0,8.0,29.96,1015.2,,,,0,0,0,,,,,,,,,4/8 Partly Cloudy,72000.0,,SCT,15000.0,,,,,,
KRDR,09-10-2001,02:00,METAR,,290,7.0,,,9999.0,Light Rain Showers/Cloud Development Not Observable,12.0,12.0,29.87,1012.2,,,,80,0,0,,,,,,,,,8/8 Overcast,6000.0,,OVC,5900.0,,,,,,
KRDR,09-10-2001,01:00,METAR,,280,8.0,,,9999.0,Light Rain Showers/Cloud Development Not Observable,13.0,13.0,29.85,1011.8,,,,80,0,0,,,,,,,,,8/8 Overcast,6000.0,,FEW,4000.0,BKN,5900.0,OVC,9900.0,,
KRDR,09-10-2001,00:00,METAR,,300,5.0,,,9999.0,Light Rain Showers/Cloud Development Not Observable,14.0,12.0,29.84,1011.4,,,,80,0,0,,,,,,,,,8/8 Overcast,6000.0,,FEW,4000.0,OVC,5900.0,,,,
KRDR,09-09-2001,23:00,METAR,,240,14.0,,,9999.0,Light Rain Showers/Cloud Development Not Observable,15.0,7.0,29.82,1010.7,,,,80,0,0,,,,,,,,,8/8 Overcast,6000.0,,SCT,4000.0,BKN,5900.0,OVC,7900.0,,
KRDR,09-09-2001,22:40,SPECI,,240,7.0,,,9999.0,Light Rain Showers/Cloud Development Not Observable,18.0,6.0,29.80,,,,,80,0,0,,,,,,,,,8/8 Overcast,6000.0,,SCT,4000.0,BKN,5900.0,OVC,7900.0,,
KRDR,09-09-2001,22:00,METAR,,230,8.0,,,9999.0,Cloud Development Not Observable,20.0,5.0,29.80,1009.8,,,,0,0,0,,,,,,,,,8/8 Overcast,8000.0,,SCT,5900.0,BKN,7900.0,OVC,20000.0,,
KRDR,09-09-2001,21:30,METAR,,240,10.0,,,9999.0,Cloud Development Not Observable,20.0,5.0,29.80,,,,,0,0,0,,,,,,,,,7/8 Mostly Cloudy,8000.0,,SCT,5900.0,BKN,7900.0,BKN,20000.0,,
KRDR,09-09-2001,20:00,METAR,,220,12.0,,,9999.0,Cloud Development Not Observable,21.0,4.0,29.83,1010.7,,,,0,0,0,,,,,,,,,7/8 Mostly Cloudy,9000.0,,SCT,6400.0,BKN,8900.0,BKN,20000.0,,
KRDR,09-09-2001,19:00,METAR,,210,14.0,,,9999.0,Cloud Development Not Observable,21.0,4.0,29.84,1010.9,,,,0,0,0,,,,,,,,,7/8 Mostly Cloudy,6500.0,,BKN,6400.0,BKN,20000.0,,,,
KRDR,09-09-2001,17:57,METAR,,230,10.0,,,9999.0,Cloud Development Not Observable,21.0,3.0,29.85,1011.4,,,,0,0,0,,,,,,,,,7/8 Mostly Cloudy,20000.0,,SCT,6400.0,BKN,20000.0,,,,
KRDR,09-09-2001,17:00,METAR,,220,8.0,13.0,,9999.0,Cloud Development Not Observable,20.0,6.0,29.86,1011.7,,,,0,0,0,,,,,,,,,4/8 Partly Cloudy,72000.0,,FEW,5900.0,FEW,9900.0,SCT,20000.0,,
KRDR,09-09-2001,16:00,METAR,,,4.0,,,9999.0,Cloud Development Not Observable,19.0,10.0,29.88,1012.3,,,,0,0,0,,,,,,,,,4/8 Partly Cloudy,72000.0,,FEW,9900.0,SCT,20000.0,,,,
KRDR,09-09-2001,15:00,METAR,,,4.0,,,9999.0,Cloud Development Not Observable,14.0,12.0,29.89,1012.8,,,,0,0,0,,,,,,,,,7/8 Mostly Cloudy,20000.0,,FEW,9900.0,BKN,20000.0,,,,
KRDR,09-09-2001,14:00,METAR,,240,6.0,,,9999.0,Cloud Development Not Observable,12.0,11.0,29.90,1012.9,,,,0,0,0,,,,,,,,,4/8 Partly Cloudy,72000.0,,FEW,9900.0,SCT,20000.0,,,,
KRDR,09-09-2001,13:00,METAR,,200,4.0,,,9999.0,Cloud Development Not Observable,8.0,8.0,29.90,1013.1,,,,0,0,0,,,,,,,,,4/8 Partly Cloudy,72000.0,,FEW,9900.0,SCT,20000.0,,,,
KRDR,09-09-2001,12:00,METAR,,220,5.0,,,9999.0,Cloud Development Not Observable,6.0,6.0,29.89,1012.9,,,,0,0,0,,,,,,,,,2/8 Mostly Clear,72000.0,,FEW,9900.0,FEW,20000.0,,,,
KRDR,09-09-2001,11:00,METAR,,210,4.0,,,9999.0,Cloud Development Not Observable,6.0,6.0,29.89,1012.9,,,,0,0,0,,,,,,,,,2/8 Mostly Clear,72000.0,,FEW,9900.0,,,,,,
KRDR,09-09-2001,10:00,METAR,,160,3.0,,,9999.0,Cloud Development Not Observable,7.0,7.0,29.89,1012.8,,,,0,0,0,,,,,,,,,Clear,72000.0,,,73000.0,,,,,,
KRDR,09-09-2001,08:00,METAR,,270,1.0,,,9999.0,Cloud Development Not Observable,8.0,8.0,29.89,1012.8,,,,0,0,0,,,,,,,,,2/8 Mostly Clear,72000.0,,FEW,20000.0,,,,,,
KRDR,09-09-2001,07:00,METAR,,290,3.0,,,9999.0,Cloud Development Not Observable,9.0,9.0,29.88,1012.4,,,,0,0,0,,,,,,,,,2/8 Mostly Clear,72000.0,,FEW,20000.0,,,,,,
KRDR,09-09-2001,06:00,METAR,,,4.0,,,9999.0,Cloud Development Not Observable,8.0,8.0,29.88,1012.3,,,,0,0,0,,,,,,,,,2/8 Mostly Clear,72000.0,,FEW,20000.0,,,,,,
KRDR,09-09-2001,05:00,METAR,,,1.0,,,9999.0,Cloud Development Not Observable,12.0,11.0,29.89,1012.8,,,,0,0,0,,,,,,,,,2/8 Mostly Clear,72000.0,,FEW,20000.0,,,,,,
KRDR,09-09-2001,04:00,METAR,,,3.0,,,9999.0,Cloud Development Not Observable,13.0,10.0,29.89,1012.8,,,,0,0,0,,,,,,,,,4/8 Partly Cloudy,72000.0,,SCT,20000.0,,,,,,
KRDR,09-09-2001,03:00,METAR,,240,6.0,,,9999.0,Cloud Development Not Observable,13.0,11.0,29.89,1012.9,,,,0,0,0,,,,,,,,,7/8 Mostly Cloudy,10000.0,,SCT,8900.0,BKN,9900.0,BKN,20000.0,,
KRDR,09-09-2001,02:00,METAR,,50,3.0,,,9999.0,Cloud Development Not Observable,17.0,8.0,29.89,1012.7,,,,0,0,0,,,,,,,,,7/8 Mostly Cloudy,10000.0,,SCT,7900.0,BKN,9900.0,BKN,20000.0,,
KRDR,09-09-2001,01:00,METAR,,50,4.0,,,9999.0,Cloud Development Not Observable,17.0,8.0,29.87,1012.1,,,,0,0,0,,,,,,,,,7/8 Mostly Cloudy,8000.0,,SCT,5900.0,BKN,7900.0,BKN,20000.0,,
KRDR,09-09-2001,00:00,METAR,,20,6.0,,,9999.0,Cloud Development Not Observable,18.0,8.0,29.85,1011.6,,,,0,0,0,,,,,,,,,7/8 Mostly Cloudy,8000.0,,FEW,5900.0,BKN,7900.0,BKN,20000.0,,
KRDR,09-08-2001,23:00,METAR,,10,8.0,,,9999.0,Cloud Development Not Observable,18.0,6.0,29.85,1011.4,,,,0,0,0,,,,,,,,,7/8 Mostly Cloudy,8000.0,,FEW,5900.0,BKN,7900.0,BKN,20000.0,,
KRDR,09-08-2001,22:00,METAR,,360,7.0,,,9999.0,Cloud Development Not Observable,19.0,7.0,29.84,1011.2,,,,0,0,0,,,,,,,,,7/8 Mostly Cloudy,6000.0,,BKN,5900.0,BKN,7900.0,BKN,20000.0,,
KRDR,09-08-2001,21:00,METAR,,320,7.0,,,9999.0,Cloud Development Not Observable,19.0,7.0,29.84,,,,,0,0,0,,,,,,,,,7/8 Mostly Cloudy,8000.0,,SCT,5900.0,BKN,7900.0,BKN,20000.0,,
KRDR,09-08-2001,20:00,METAR,,340,10.0,,,9999.0,Cloud Development Not Observable,19.0,6.0,29.83,,,,,0,0,0,,,,,,,,,7/8 Mostly Cloudy,20000.0,,SCT,5900.0,SCT,11000.0,BKN,20000.0,,
KRDR,09-08-2001,19:00,METAR,,350,9.0,,,9999.0,Cloud Development Not Observable,19.0,8.0,29.84,,,,,0,0,0,,,,,,,,,7/8 Mostly Cloudy,20000.0,,FEW,5000.0,SCT,6900.0,BKN,20000.0,,
KRDR,09-08-2001,18:00,METAR,,20,10.0,,,9999.0,Cloud Development Not Observable,18.0,7.0,29.84,,,,,0,0,0,,,,,,,,,7/8 Mostly Cloudy,12000.0,,FEW,5000.0,SCT,7900.0,BKN,12000.0,BKN,20000.0
KRDR,09-08-2001,17:00,METAR,,10,12.0,,,9999.0,Cloud Development Not Observable,19.0,8.0,29.84,1011.1,,,,0,0,0,,,,,,,,,7/8 Mostly Cloudy,12000.0,,FEW,5000.0,SCT,8900.0,BKN,12000.0,,
KRDR,09-08-2001,16:00,METAR,,350,14.0,,,9999.0,Cloud Development Not Observable,17.0,9.0,29.82,1010.4,,,,0,0,0,,,,,,,,,7/8 Mostly Cloudy,20000.0,,FEW,5000.0,SCT,9900.0,BKN,20000.0,,
KRDR,09-08-2001,15:00,METAR,,350,13.0,,,9999.0,Cloud Development Not Observable,16.0,10.0,29.82,1010.2,,,,0,0,0,,,,,,,,,4/8 Partly Cloudy,72000.0,,SCT,11000.0,SCT,20000.0,,,,
KRDR,09-08-2001,14:00,METAR,,320,11.0,,,9999.0,Cloud Development Not Observable,13.0,9.0,29.81,1010.1,,,,0,0,0,,,,,,,,,4/8 Partly Cloudy,72000.0,,FEW,12000.0,SCT,20000.0,,,,
KRDR,09-08-2001,13:00,METAR,,320,10.0,,,9999.0,Cloud Development Not Observable,11.0,9.0,29.80,1009.8,,,,0,0,0,,,,,,,,,4/8 Partly Cloudy,72000.0,,SCT,9900.0,,,,,,
KRDR,09-08-2001,12:00,METAR,,300,9.0,,,9999.0,Cloud Development Not Observable,8.0,8.0,29.78,1009.1,,,,0,0,0,,,,,,,,,4/8 Partly Cloudy,72000.0,,SCT,8900.0,,,,,,
KRDR,09-08-2001,11:00,METAR,,320,9.0,,,9999.0,Cloud Development Not Observable,9.0,8.0,29.76,1008.2,,,,0,0,0,,,,,,,,,2/8 Mostly Clear,72000.0,,FEW,8900.0,,,,,,
KRDR,09-08-2001,10:00,METAR,,300,9.0,,,9999.0,Cloud Development Not Observable,10.0,8.0,29.76,1008.3,,,,0,0,0,,,,,,,,,4/8 Partly Cloudy,72000.0,,SCT,9900.0,,,,,,
KRDR,09-08-2001,05:00,METAR,,340,6.0,,,9999.0,Cloud Development Not Observable,12.0,8.0,29.71,1006.4,,,,0,0,0,,,,,,,,,8/8 Overcast,10000.0,,FEW,4500.0,OVC,9900.0,,,,
KRDR,09-08-2001,04:00,METAR,,340,6.0,,,9999.0,Cloud Development Not Observable,13.0,8.0,29.73,1007.1,,,,0,0,0,,,,,,,,,8/8 Overcast,4400.0,,BKN,4500.0,OVC,11000.0,,,,
KRDR,09-08-2001,03:00,METAR,,40,7.0,,,9999.0,Cloud Development Not Observable,14.0,8.0,29.71,1006.6,,,,0,0,0,,,,,,,,,8/8 Overcast,4400.0,,BKN,4500.0,OVC,11000.0,,,,
KRDR,09-08-2001,02:00,METAR,,340,8.0,,,9999.0,Cloud Development Not Observable,16.0,12.0,29.69,1005.9,,,,0,0,0,,,,,,,,,8/8 Overcast,4400.0,,BKN,4500.0,OVC,8900.0,,,,
KRDR,09-08-2001,01:00,METAR,,340,10.0,,,9999.0,Cloud Development Not Observable,17.0,12.0,29.67,1005.2,,,,0,0,0,,,,,,,,,7/8 Mostly Cloudy,9000.0,,SCT,3500.0,BKN,8900.0,BKN,20000.0,,
KRDR,09-08-2001,00:00,METAR,,350,10.0,,,9999.0,Cloud Development Not Observable,18.0,11.0,29.65,1004.6,,,,0,0,0,,,,,,,,,7/8 Mostly Cloudy,10000.0,,FEW,3000.0,BKN,9900.0,BKN,20000.0,,
KRDR,09-07-2001,23:00,METAR,,360,15.0,,,9999.0,Cloud Development Not Observable,19.0,11.0,29.61,1003.2,,,,0,0,0,,,,,,,,,7/8 Mostly Cloudy,10000.0,,FEW,3000.0,BKN,9900.0,BKN,20000.0,,
KRDR,09-07-2001,22:00,METAR,,350,19.0,26.0,,9999.0,Cloud Development Not Observable,20.0,9.0,29.59,1002.4,,,,0,0,0,,,,,,,,,7/8 Mostly Cloudy,15000.0,,SCT,9900.0,BKN,15000.0,BKN,20000.0,,
KRDR,09-07-2001,21:25,METAR,,340,17.0,24.0,,9999.0,Cloud Development Not Observable,19.0,11.0,29.60,,,,,0,0,0,,,,,,,,,7/8 Mostly Cloudy,15000.0,,FEW,7900.0,SCT,9900.0,BKN,15000.0,,
KRDR,09-07-2001,21:00,METAR,,330,14.0,,,9999.0,Cloud Development Not Observable,18.0,12.0,29.60,1002.8,,,,0,0,0,,,,,,,,,8/8 Overcast,10000.0,,FEW,2500.0,BKN,9900.0,OVC,15000.0,,
KRDR,09-07-2001,20:35,SPECI,,330,16.0,21.0,,9999.0,Light Rain Showers/Cloud Development Not Observable,18.0,11.0,29.60,,,,,80,0,0,,,,,,,,,8/8 Overcast,10000.0,,FEW,2500.0,BKN,9900.0,OVC,20000.0,,
KRDR,09-07-2001,20:00,METAR,,330,15.0,,,9999.0,Cloud Development Not Observable,19.0,9.0,29.59,1002.4,,,,0,0,0,,,,,,,,,8/8 Overcast,10000.0,,FEW,2500.0,BKN,9900.0,OVC,15000.0,,
KRDR,09-07-2001,19:00,METAR,,330,17.0,,,9999.0,Cloud Development Not Observable,19.0,11.0,29.58,1002.1,,,,0,0,0,,,,,,,,,8/8 Overcast,10000.0,,FEW,2000.0,BKN,9900.0,OVC,15000.0,,
KRDR,09-07-2001,18:00,METAR,,330,19.0,23.0,320/25KTS,9999.0,Cloud Development Not Observable,19.0,13.0,29.58,1001.8,,,,0,0,0,,,,,,,,,8/8 Overcast,12000.0,,FEW,2000.0,BKN,12000.0,OVC,20000.0,,
KRDR,09-07-2001,17:00,METAR,,340,14.0,,,9999.0,Cloud Development Not Observable,18.0,15.0,29.57,1001.7,,,,0,0,0,,,,,,,,,8/8 Overcast,12000.0,,SCT,2000.0,BKN,12000.0,OVC,20000.0,,
KRDR,09-07-2001,16:00,METAR,,340,14.0,,,9999.0,Cloud Development Not Observable,17.0,15.0,29.56,1001.2,,,,0,0,0,,,,,,,,,7/8 Mostly Cloudy,10000.0,,FEW,2500.0,BKN,9900.0,BKN,20000.0,,
KRDR,09-07-2001,15:00,METAR,,340,12.0,,,9999.0,Cloud Development Not Observable,15.0,15.0,29.56,1001.4,,,,0,0,0,,,,,,,,,8/8 Overcast,10000.0,,BKN,9900.0,OVC,20000.0,,,,
KRDR,09-07-2001,14:00,METAR,,340,12.0,,,9999.0,Cloud Development Not Observable,15.0,14.0,29.56,1001.2,,,,0,0,0,,,,,,,,,7/8 Mostly Cloudy,10000.0,,FEW,2500.0,BKN,9900.0,BKN,20000.0,,
KRDR,09-07-2001,13:00,METAR,,330,11.0,,,9999.0,Cloud Development Not Observable,14.0,14.0,29.55,1001.0,,,,0,0,0,,,,,,,,,7/8 Mostly Cloudy,10000.0,,BKN,9900.0,BKN,20000.0,,,,
KRDR,09-07-2001,12:00,METAR,,330,9.0,,,9999.0,Cloud Development Not Observable,14.0,14.0,29.56,1001.4,,,,0,0,0,,,,,,,,,8/8 Overcast,9000.0,,FEW,2500.0,FEW,5900.0,BKN,8900.0,OVC,20000.0
KRDR,09-07-2001,11:18,SPECI,,320,9.0,,,9999.0,Cloud Development Not Observable,14.0,14.0,29.56,,,,,0,0,0,,,,,,,,,7/8 Mostly Cloudy,9000.0,,BKN,8900.0,BKN,20000.0,,,,
KRDR,09-07-2001,11:00,METAR,,320,9.0,,,9999.0,Cloud Development Not Observable,14.0,14.0,29.56,1001.3,,,,0,0,0,,,,,,,,,8/8 Overcast,9000.0,,OVC,8900.0,,,,,,
KRDR,09-07-2001,10:17,SPECI,,340,11.0,,,9999.0,Cloud Development Not Observable,14.0,14.0,29.55,,,,,0,0,0,,,,,,,,,8/8 Overcast,3900.0,,SCT,2500.0,OVC,4000.0,,,,
KRDR,09-07-2001,10:00,METAR,,10,11.0,,,9999.0,Light Rain Showers/Cloud Development Not Observable,15.0,15.0,29.55,1000.7,,,,80,0,0,,,,,,,,,8/8 Overcast,3900.0,,SCT,2500.0,OVC,4000.0,,,,
KRDR,09-07-2001,09:00,METAR,,330,12.0,,,9999.0,Light Rain Showers/Cloud Development Not Observable,14.0,14.0,29.57,1001.5,,,,80,0,0,,,,,,,,,8/8 Overcast,3900.0,,SCT,2500.0,OVC,4000.0,,,,
KRDR,09-07-2001,08:00,METAR,,340,10.0,,,8000.0,Light Rain Showers/Cloud Development Not Observable,15.0,14.0,29.58,1001.7,,,,80,0,0,,,,,,,,,8/8 Overcast,3900.0,,SCT,2000.0,OVC,4000.0,,,,
KRDR,09-07-2001,07:00,METAR,,350,12.0,,,9999.0,Cloud Development Not Observable,16.0,16.0,29.57,1001.4,,,,0,0,0,,,,,,,,,,3900.0,,OVC,4000.0,,,,,,
KRDR,09-07-2001,06:00,METAR,,350,14.0,,,9999.0,Light Rain Showers/Cloud Development Not Observable,17.0,15.0,29.56,1001.0,,,,80,0,0,,,,,,,,,,72000.0,,,,,,,,,
KRDR,09-07-2001,05:45,METAR,,340,14.0,,,9999.0,Light Rain Showers/Cloud Development Not Observable,17.0,15.0,29.57,,,,,80,0,0,,,,,,,,,8/8 Overcast,3200.0,,OVC,3300.0,,,,,,
KRDR,09-07-2001,05:00,METAR,,350,10.0,,,9999.0,Cloud Development Not Observable,18.0,15.0,29.56,1000.8,,,,0,0,0,,,,,,,,,8/8 Overcast,3200.0,,OVC,3300.0,,,,,,
KRDR,09-07-2001,04:00,METAR,,360,14.0,19.0,,9999.0,Cloud Development Not Observable,18.0,16.0,29.57,1001.4,,,,0,0,0,,,,,,,,,8/8 Overcast,3100.0,,OVC,3100.0,,,,,,
KRDR,09-07-2001,03:00,METAR,,360,14.0,,,9999.0,Cloud Development Not Observable,19.0,16.0,29.58,1001.6,,,,0,0,0,,,,,,,,,8/8 Overcast,3000.0,,OVC,3000.0,,,,,,
KRDR,09-07-2001,02:00,METAR,,350,14.0,,,9999.0,Cloud Development Not Observable,19.0,15.0,29.56,1001.2,,,,0,0,0,,,,,,,,,8/8 Overcast,7000.0,,FEW,2500.0,SCT,4000.0,BKN,6900.0,OVC,20000.0
KRDR,09-07-2001,01:00,METAR,,10,12.0,,,9999.0,Cloud Development Not Observable,20.0,16.0,,1000.7,,,,0,0,0,,,,,,,,,8/8 Overcast,7000.0,,FEW,2500.0,BKN,6900.0,BKN,12000.0,OVC,20000.0
KRDR,09-07-2001,00:00,METAR,,10,13.0,,,9999.0,Smoke or Ash/Cloud Development Not Observable,21.0,17.0,29.54,1000.4,,,,4,0,0,,,,,,,,,8/8 Overcast,20000.0,,SCT,15000.0,OVC,20000.0,,,,
KRDR,09-06-2001,23:00,METAR,,360,17.0,25.0,360/27KTS,8000.0,Smoke or Ash/Cloud Development Not Observable,22.0,17.0,29.55,1000.6,,,,4,0,0,,,,,,,,,7/8 Mostly Cloudy,7500.0,,BKN,7400.0,BKN,20000.0,,,,
KRDR,09-06-2001,22:00,METAR,,360,21.0,,340/27KTS,9999.0,Cloud Development Not Observable,24.0,17.0,29.54,1000.2,,,,0,0,0,,,,,,,,,4/8 Partly Cloudy,72000.0,,SCT,5900.0,,,,,,
KRDR,09-06-2001,21:00,METAR,,340,18.0,,,9999.0,Cloud Development Not Observable,27.0,18.0,29.55,1000.6,,,,0,0,0,,,,,,,,,7/8 Mostly Cloudy,6000.0,,BKN,5900.0,,,,,,
KRDR,09-06-2001,20:00,METAR,,340,9.0,,,9999.0,Cloud Development Not Observable,28.0,17.0,29.54,1000.2,,,,0,0,0,,,,,,,,,8/8 Overcast,5500.0,,BKN,5400.0,OVC,6400.0,,,,
KRDR,09-06-2001,19:00,METAR,,200,10.0,17.0,,9999.0,Cloud Development Not Observable,30.0,18.0,29.55,1000.6,,,,0,0,0,,,,,,,,,7/8 Mostly Cloudy,20000.0,,SCT,6400.0,BKN,20000.0,,,,
KRDR,09-06-2001,18:00,METAR,,210,14.0,19.0,,9999.0,Cloud Development Not Observable,30.0,18.0,29.56,1000.6,,,,0,0,0,,,,,,,,,7/8 Mostly Cloudy,20000.0,,FEW,5900.0,BKN,20000.0,,,,
KRDR,09-06-2001,17:00,METAR,,200,10.0,,,9999.0,Cloud Development Not Observable,29.0,18.0,29.57,1000.9,,,,0,0,0,,,,,,,,,7/8 Mostly Cloudy,20000.0,,FEW,9900.0,BKN,20000.0,,,,
KRDR,09-06-2001,16:00,METAR,,200,14.0,,,9999.0,Cloud Development Not Observable,26.0,19.0,29.58,1001.3,,,,0,0,0,,,,,,,,,7/8 Mostly Cloudy,20000.0,,BKN,20000.0,,,,,,
KRDR,09-06-2001,15:00,METAR,,190,15.0,,,9999.0,Cloud Development Not Observable,25.0,20.0,29.59,1001.7,,,,0,0,0,,,,,,,,,4/8 Partly Cloudy,72000.0,,FEW,12000.0,SCT,20000.0,,,,
KRDR,09-06-2001,14:00,METAR,,180,11.0,,,9999.0,Cloud Development Not Observable,22.0,20.0,29.60,1002.1,,,,0,0,0,,,,,,,,,7/8 Mostly Cloudy,20000.0,,FEW,12000.0,BKN,20000.0,,,,
KRDR,09-06-2001,13:00,METAR,,170,8.0,,,9999.0,Cloud Development Not Observable,21.0,21.0,29.62,1002.8,,,,0,0,0,,,,,,,,,7/8 Mostly Cloudy,20000.0,,FEW,12000.0,BKN,20000.0,,,,
KRDR,09-06-2001,12:00,METAR,,180,11.0,,,9999.0,Cloud Development Not Observable,21.0,20.0,29.61,1002.4,,,,0,0,0,,,,,,,,,7/8 Mostly Cloudy,20000.0,,BKN,20000.0,,,,,,
KRDR,09-06-2001,11:00,METAR,,180,7.0,,,9999.0,Cloud Development Not Observable,20.0,19.0,29.62,1002.7,,,,0,0,0,,,,,,,,,8/8 Overcast,25000.0,,OVC,25000.0,,,,,,
KRDR,09-06-2001,10:00,METAR,,170,11.0,,,9999.0,Cloud Development Not Observable,21.0,18.0,29.61,1002.3,,,,0,0,0,,,,,,,,,8/8 Overcast,25000.0,,OVC,25000.0,,,,,,
KRDR,09-06-2001,09:00,METAR,,180,12.0,,,9999.0,Cloud Development Not Observable,22.0,17.0,29.64,1003.3,,,,0,0,0,,,,,,,,,8/8 Overcast,25000.0,,OVC,25000.0,,,,,,
KRDR,09-06-2001,08:00,METAR,,180,15.0,,,9999.0,Cloud Development Not Observable,23.0,17.0,29.64,1003.5,,,,0,0,0,,,,,,,,,7/8 Mostly Cloudy,25000.0,,BKN,25000.0,,,,,,
KRDR,09-06-2001,05:55,METAR,,180,15.0,,,9999.0,Cloud Development Not Observable,26.0,18.0,29.66,1004.2,,,,0,0,0,,,,,,,,,7/8 Mostly Cloudy,25000.0,,BKN,25000.0,,,,,,
KRDR,09-06-2001,05:00,METAR,,180,18.0,25.0,,9999.0,Cloud Development Not Observable,27.0,18.0,29.66,1004.1,,,,0,0,0,,,,,,,,,7/8 Mostly Cloudy,25000.0,,BKN,25000.0,,,,,,
KRDR,09-06-2001,04:00,METAR,,180,19.0,,,9999.0,Cloud Development Not Observable,28.0,17.0,29.65,1003.8,,,,0,0,0,,,,,,,,,7/8 Mostly Cloudy,25000.0,,BKN,25000.0,,,,,,
KRDR,09-06-2001,03:00,METAR,,190,19.0,,,9999.0,Cloud Development Not Observable,30.0,17.0,29.65,1003.8,,,,0,0,0,,,,,,,,,7/8 Mostly Cloudy,25000.0,,BKN,25000.0,,,,,,
KRDR,09-06-2001,00:00,METAR,,180,16.0,24.0,180/25KTS,9999.0,Cloud Development Not Observable,33.0,15.0,29.64,1003.4,,,,0,0,0,,,,,,,,,7/8 Mostly Cloudy,25000.0,,BKN,25000.0,,,,,,
KRDR,09-05-2001,23:00,METAR,,180,20.0,,,9999.0,Cloud Development Not Observable,35.0,15.0,29.65,1003.7,,,,0,0,0,,,,,,,,,4/8 Partly Cloudy,72000.0,,SCT,25000.0,,,,,,
KRDR,09-05-2001,22:00,METAR,,190,24.0,28.0,,9999.0,Cloud Development Not Observable,36.0,14.0,29.66,1004.2,,,,0,0,0,,,,,,,,,4/8 Partly Cloudy,72000.0,,FEW,14000.0,SCT,25000.0,,,,
KRDR,09-05-2001,20:00,METAR,,190,20.0,25.0,,9999.0,Cloud Development Not Observable,36.0,16.0,29.70,1005.3,,,,0,0,0,,,,,,,,,2/8 Mostly Clear,72000.0,,FEW,14000.0,,,,,,
KRDR,09-05-2001,19:00,METAR,,190,16.0,,,9999.0,Cloud Development Not Observable,34.0,16.0,29.72,1006.1,,,,0,0,0,,,,,,,,,2/8 Mostly Clear,72000.0,,FEW,14000.0,FEW,20000.0,,,,
KRDR,09-05-2001,17:00,METAR,,180,16.0,,,9999.0,Cloud Development Not Observable,28.0,18.0,29.75,1007.4,,,,0,0,0,,,,,,,,,4/8 Partly Cloudy,72000.0,,FEW,14000.0,SCT,20000.0,,,,
KRDR,09-05-2001,13:00,METAR,,160,18.0,,170/25KTS,9999.0,Cloud Development Not Observable,21.0,18.0,29.79,1008.7,,,,0,0,0,,,,,,,,,7/8 Mostly Cloudy,12000.0,,FEW,5000.0,BKN,12000.0,BKN,20000.0,,
KRDR,09-05-2001,12:00,METAR,,160,16.0,,,9999.0,Cloud Development Not Observable,21.0,18.0,29.80,1009.2,,,,0,0,0,,,,,,,,,7/8 Mostly Cloudy,12000.0,,FEW,5000.0,BKN,12000.0,BKN,20000.0,,
KRDR,09-05-2001,11:25,METAR,,140,16.0,,,9999.0,Cloud Development Not Observable,21.0,18.0,29.79,,,,,0,0,0,,,,,,,,,7/8 Mostly Cloudy,12000.0,,BKN,12000.0,BKN,20000.0,,,,
KRDR,09-05-2001,11:00,METAR,,170,10.0,,,9999.0,Light Rain Showers/Cloud Development Not Observable,21.0,18.0,29.83,1010.2,,,,80,0,0,,,,,,,,,7/8 Mostly Cloudy,12000.0,,FEW,5000.0,BKN,12000.0,BKN,20000.0,,
KRDR,09-05-2001,10:00,METAR,,130,10.0,,,9999.0,Light Rain Showers/Cloud Development Not Observable,22.0,17.0,29.87,1011.4,,,,80,0,0,,,,,,,,,7/8 Mostly Cloudy,12000.0,,FEW,5000.0,BKN,12000.0,BKN,20000.0,,
KRDR,09-05-2001,09:00,METAR,,180,10.0,,140/27KTS,9999.0,Cloud Development Not Observable,21.0,16.0,29.84,1010.5,,,,0,0,0,,,,,,,,,7/8 Mostly Cloudy,12000.0,,FEW,5000.0,BKN,12000.0,BKN,20000.0,,
KRDR,09-05-2001,08:00,METAR,,140,16.0,,,9999.0,Cloud Development Not Observable,21.0,15.0,29.85,1013.3,,,,0,0,0,,,,,,,,,8/8 Overcast,12000.0,,FEW,5000.0,BKN,12000.0,OVC,20000.0,,
KRDR,09-05-2001,07:00,METAR,,,1.0,,,9999.0,Cloud Development Not Observable,20.0,14.0,29.93,1013.3,,,,0,0,0,,,,,,,,,7/8 Mostly Cloudy,20000.0,,SCT,12000.0,BKN,20000.0,,,,
KRDR,09-05-2001,06:00,METAR,,150,5.0,,,9999.0,Cloud Development Not Observable,22.0,13.0,29.90,1012.5,,,,0,0,0,,,,,,,,,7/8 Mostly Cloudy,12000.0,,BKN,12000.0,BKN,20000.0,,,,
KRDR,09-05-2001,05:00,METAR,,,3.0,,,9999.0,Cloud Development Not Observable,21.0,13.0,29.92,1013.0,,,,0,0,0,,,,,,,,,7/8 Mostly Cloudy,20000.0,,SCT,12000.0,BKN,20000.0,,,,
KRDR,09-05-2001,04:00,METAR,,150,9.0,,,9999.0,Cloud Development Not Observable,22.0,13.0,29.91,1012.7,,,,0,0,0,,,,,,,,,7/8 Mostly Cloudy,20000.0,,SCT,12000.0,BKN,20000.0,,,,
KRDR,09-05-2001,03:00,METAR,,150,8.0,,,9999.0,Cloud Development Not Observable,23.0,13.0,29.92,1013.3,,,,0,0,0,,,,,,,,,7/8 Mostly Cloudy,20000.0,,SCT,12000.0,BKN,20000.0,,,,
KRDR,09-05-2001,02:00,METAR,,160,8.0,,,9999.0,Cloud Development Not Observable,24.0,13.0,29.92,1013.4,,,,0,0,0,,,,,,,,,7/8 Mostly Cloudy,12000.0,,BKN,12000.0,BKN,20000.0,,,,
KRDR,09-05-2001,01:00,METAR,,150,7.0,,,9999.0,Cloud Development Not Observable,26.0,12.0,29.91,1013.1,,,,0,0,0,,,,,,,,,7/8 Mostly Cloudy,20000.0,,SCT,14000.0,BKN,20000.0,,,,
KRDR,09-05-2001,00:00,METAR,,170,11.0,,,9999.0,Cloud Development Not Observable,28.0,12.0,29.91,1013.1,,,,0,0,0,,,,,,,,,2/8 Mostly Clear,72000.0,,FEW,14000.0,FEW,20000.0,,,,
KRDR,09-04-2001,22:00,METAR,,190,10.0,,,9999.0,Cloud Development Not Observable,31.0,10.0,29.92,1013.4,,,,0,0,0,,,,,,,,,2/8 Mostly Clear,72000.0,,FEW,20000.0,,,,,,
KRDR,09-04-2001,21:00,METAR,,180,10.0,,,9999.0,Cloud Development Not Observable,31.0,9.0,29.92,1013.4,,,,0,0,0,,,,,,,,,2/8 Mostly Clear,72000.0,,FEW,20000.0,,,,,,
KRDR,09-04-2001,20:00,METAR,,170,15.0,,,9999.0,Cloud Development Not Observable,31.0,8.0,29.93,,,,,0,0,0,,,,,,,,,2/8 Mostly Clear,72000.0,,FEW,20000.0,,,,,,
KRDR,09-04-2001,19:00,METAR,,190,13.0,20.0,,9999.0,Cloud Development Not Observable,30.0,7.0,29.94,,,,,0,0,0,,,,,,,,,2/8 Mostly Clear,72000.0,,FEW,20000.0,,,,,,
KRDR,09-04-2001,18:00,METAR,,190,16.0,21.0,,9999.0,Cloud Development Not Observable,28.0,9.0,29.97,,,,,0,0,0,,,,,,,,,2/8 Mostly Clear,72000.0,,FEW,20000.0,,,,,,
KRDR,09-04-2001,17:00,METAR,,170,14.0,,,9999.0,Cloud Development Not Observable,27.0,9.0,29.98,,,,,0,0,0,,,,,,,,,2/8 Mostly Clear,72000.0,,FEW,20000.0,,,,,,
KRDR,09-04-2001,15:00,METAR,,180,12.0,,,9999.0,Cloud Development Not Observable,22.0,9.0,30.00,,,,,0,0,0,,,,,,,,,2/8 Mostly Clear,72000.0,,FEW,20000.0,,,,,,
KRDR,09-04-2001,14:00,METAR,,170,9.0,,,9999.0,Cloud Development Not Observable,17.0,9.0,30.00,1016.4,,,,0,0,0,,,,,,,,,4/8 Partly Cloudy,72000.0,,SCT,20000.0,,,,,,
KRDR,09-04-2001,13:00,METAR,,160,8.0,,,9999.0,Cloud Development Not Observable,14.0,8.0,30.00,,,,,0,0,0,,,,,,,,,4/8 Partly Cloudy,72000.0,,SCT,20000.0,,,,,,
KRDR,09-04-2001,12:00,METAR,,160,6.0,,,9999.0,Cloud Development Not Observable,12.0,8.0,29.99,,,,,0,0,0,,,,,,,,,7/8 Mostly Cloudy,20000.0,,BKN,20000.0,,,,,,
KRDR,09-04-2001,11:00,METAR,,170,7.0,,,9999.0,Cloud Development Not Observable,12.0,6.0,29.99,,,,,0,0,0,,,,,,,,,2/8 Mostly Clear,72000.0,,FEW,20000.0,,,,,,
KRDR,09-04-2001,10:00,METAR,,170,7.0,,,9999.0,Cloud Development Not Observable,12.0,6.0,29.99,,,,,0,0,0,,,,,,,,,2/8 Mostly Clear,72000.0,,FEW,20000.0,,,,,,
KRDR,09-04-2001,09:00,METAR,,170,5.0,,,9999.0,Cloud Development Not Observable,12.0,6.0,29.99,,,,,0,0,0,,,,,,,,,2/8 Mostly Clear,72000.0,,FEW,20000.0,,,,,,
KRDR,09-04-2001,02:00,METAR,,,3.0,,,9999.0,Cloud Development Not Observable,17.0,7.0,29.96,,,,,0,0,0,,,,,,,,,7/8 Mostly Cloudy,20000.0,,BKN,20000.0,,,,,,
KRDR,09-04-2001,01:15,SPECI,,110,4.0,,,9999.0,Cloud Development Not Observable,23.0,4.0,29.95,,,,,0,0,0,,,,,,,,,7/8 Mostly Cloudy,20000.0,,BKN,20000.0,,,,,,
KRDR,09-02-2001,21:22,SPECI,,290,18.0,25.0,,9999.0,Cloud Development Not Observable,29.0,8.0,29.70,,,,,0,0,0,,,,,,,,,7/8 Mostly Cloudy,15000.0,,BKN,15000.0,BKN,20000.0,,,,
KRDR,09-02-2001,21:00,METAR,,290,17.0,,,9999.0,Cloud Development Not Observable,30.0,8.0,29.68,,,,,0,0,0,,,,,,,,,7/8 Mostly Cloudy,15000.0,,BKN,15000.0,BKN,20000.0,,,,
KRDR,09-02-2001,19:00,METAR,,300,16.0,22.0,300/26KTS,9999.0,Cloud Development Not Observable,31.0,8.0,29.65,,,,,0,0,0,,,,,,,,,7/8 Mostly Cloudy,20000.0,,SCT,15000.0,BKN,20000.0,,,,
KRDR,09-02-2001,16:00,METAR,,290,12.0,,,9999.0,Cloud Development Not Observable,29.0,10.0,29.63,,,,,0,0,0,,,,,,,,,7/8 Mostly Cloudy,20000.0,,SCT,15000.0,BKN,20000.0,,,,
KRDR,09-02-2001,15:00,METAR,,230,6.0,,,9999.0,Cloud Development Not Observable,24.0,17.0,29.61,,,,,0,0,0,,,,,,,,,7/8 Mostly Cloudy,20000.0,,SCT,15000.0,BKN,20000.0,,,,
KRDR,09-02-2001,14:00,METAR,,220,8.0,,,9999.0,Cloud Development Not Observable,23.0,20.0,29.60,,,,,0,0,0,,,,,,,,,7/8 Mostly Cloudy,15000.0,,BKN,15000.0,BKN,20000.0,,,,
KRDR,09-02-2001,13:00,METAR,,200,6.0,,,9999.0,Cloud Development Not Observable,20.0,19.0,29.59,,,,,0,0,0,,,,,,,,,7/8 Mostly Cloudy,15000.0,,BKN,15000.0,BKN,20000.0,,,,
KRDR,09-02-2001,12:00,METAR,,200,6.0,,,9999.0,Cloud Development Not Observable,18.0,17.0,29.58,1001.5,,,,0,0,0,,,,,,,,,7/8 Mostly Cloudy,15000.0,,BKN,15000.0,BKN,20000.0,,,,
KRDR,09-01-2001,23:58,METAR,,190,16.0,,,9999.0,Cloud Development Not Observable,28.0,18.0,29.58,1001.6,,,,0,0,0,,,,,,,,,4/8 Partly Cloudy,72000.0,,FEW,12000.0,SCT,25000.0,,,,
KRDR,09-01-2001,23:00,METAR,,200,15.0,25.0,,9999.0,Cloud Development Not Observable,29.0,18.0,29.59,1002.1,,,,0,0,0,,,,,,,,,4/8 Partly Cloudy,72000.0,,SCT,25000.0,,,,,,
KRDR,09-01-2001,22:00,METAR,,200,19.0,26.0,,9999.0,Cloud Development Not Observable,29.0,16.0,29.61,1002.7,,,,0,0,0,,,,,,,,,7/8 Mostly Cloudy,25000.0,,BKN,25000.0,,,,,,
KRDR,09-01-2001,21:00,METAR,,180,18.0,24.0,190/27KTS,9999.0,Cloud Development Not Observable,29.0,17.0,29.62,1003.3,,,,0,0,0,,,,,,,,,7/8 Mostly Cloudy,25000.0,,BKN,25000.0,,,,,,
KRDR,09-01-2001,20:00,METAR,,200,20.0,28.0,,9999.0,Cloud Development Not Observable,30.0,16.0,29.63,1003.4,,,,0,0,0,,,,,,,,,7/8 Mostly Cloudy,25000.0,,BKN,25000.0,,,,,,
KRDR,09-01-2001,19:35,SPECI,,190,20.0,26.0,,9999.0,Cloud Development Not Observable,29.0,16.0,29.63,,,,,0,0,0,,,,,,,,,7/8 Mostly Cloudy,25000.0,,BKN,25000.0,,,,,,
KRDR,09-01-2001,14:00,METAR,,130,6.0,,,9999.0,Cloud Development Not Observable,16.0,15.0,29.71,1006.3,,,,0,0,0,,,,,,,,,7/8 Mostly Cloudy,10000.0,,FEW,5900.0,BKN,9900.0,BKN,20000.0,,
KRDR,09-01-2001,13:00,METAR,,150,9.0,,,9999.0,Cloud Development Not Observable,16.0,14.0,29.75,1007.8,,,,0,0,0,,,,,,,,,7/8 Mostly Cloudy,10000.0,,FEW,5900.0,BKN,9900.0,BKN,20000.0,,
KRDR,09-01-2001,12:12,SPECI,,170,15.0,,,9999.0,Cloud Development Not Observable,16.0,14.0,29.74,,,,,0,0,0,,,,,,,,,7/8 Mostly Cloudy,10000.0,,SCT,5900.0,BKN,9900.0,BKN,20000.0,,
KRDR,09-01-2001,12:00,METAR,,170,13.0,,,9999.0,Light Rain Showers/Cloud Development Not Observable,16.0,14.0,,1010.8,,,,80,0,0,,,,,,,,,7/8 Mostly Cloudy,8500.0,,FEW,5900.0,BKN,8400.0,BKN,20000.0,,
KRDR,09-01-2001,11:28,SPECI,,160,14.0,,,9999.0,Light Rain Showers/Cloud Development Not Observable,16.0,14.0,29.74,,,,,80,0,0,,,,,,,,,7/8 Mostly Cloudy,8500.0,,FEW,5900.0,BKN,8400.0,BKN,20000.0,,
KRDR,09-01-2001,11:00,METAR,,150,11.0,,,9999.0,Cloud Development Not Observable,15.0,13.0,29.77,1008.5,,,,0,0,0,,,,,,,,,7/8 Mostly Cloudy,20000.0,,FEW,5900.0,SCT,8900.0,BKN,20000.0,,
KRDR,09-01-2001,10:00,METAR,,140,8.0,,,9999.0,Cloud Development Not Observable,13.0,12.0,29.81,1009.8,,,,0,0,0,,,,,,,,,4/8 Partly Cloudy,72000.0,,FEW,5900.0,FEW,8400.0,SCT,20000.0,,
KRDR,09-01-2001,09:00,METAR,,140,6.0,,,9999.0,Cloud Development Not Observable,12.0,10.0,29.84,1010.9,,,,0,0,0,,,,,,,,,7/8 Mostly Cloudy,9500.0,,FEW,5900.0,BKN,9400.0,BKN,25000.0,,
KRDR,09-01-2001,08:00,METAR,,130,6.0,,,9999.0,Cloud Development Not Observable,12.0,9.0,29.87,1011.9,,,,0,0,0,,,,,,,,,4/8 Partly Cloudy,72000.0,,SCT,11000.0,SCT,25000.0,,,,
KRDR,09-01-2001,04:00,METAR,,190,4.0,,,9999.0,Cloud Development Not Observable,12.0,7.0,29.95,1014.9,,,,0,0,0,,,,,,,,,7/8 Mostly Cloudy,25000.0,,SCT,11000.0,BKN,25000.0,,,,
KRDR,09-01-2001,03:00,METAR,,150,6.0,,,9999.0,Cloud Development Not Observable,15.0,6.0,29.95,1014.8,,,,0,0,0,,,,,,,,,4/8 Partly Cloudy,72000.0,,SCT,25000.0,,,,,,
KRDR,09-01-2001,02:00,METAR,,150,5.0,,,9999.0,Cloud Development Not Observable,16.0,6.0,29.96,1015.0,,,,0,0,0,,,,,,,,,7/8 Mostly Cloudy,25000.0,,BKN,25000.0,,,,,,
KRDR,08-31-2001,23:00,METAR,,180,7.0,,,9999.0,Cloud Development Not Observable,21.0,5.0,29.99,1016.1,,,,0,0,0,,,,,,,,,7/8 Mostly Cloudy,25000.0,,BKN,25000.0,,,,,,
KRDR,08-31-2001,22:00,METAR,,,6.0,,,9999.0,Cloud Development Not Observable,21.0,4.0,30.00,1016.6,,,,0,0,0,,,,,,,,,7/8 Mostly Cloudy,25000.0,,BKN,25000.0,,,,,,
KRDR,08-31-2001,20:00,METAR,,,3.0,,,9999.0,Cloud Development Not Observable,20.0,3.0,30.04,1018.0,,,,0,0,0,,,,,,,,,7/8 Mostly Cloudy,25000.0,,BKN,25000.0,,,,,,
KRDR,08-31-2001,19:00,METAR,,,5.0,,,9999.0,Cloud Development Not Observable,19.0,5.0,30.07,1018.9,,,,0,0,0,,,,,,,,,7/8 Mostly Cloudy,25000.0,,BKN,25000.0,,,,,,
KRDR,08-31-2001,18:00,METAR,,,5.0,,,9999.0,Cloud Development Not Observable,18.0,5.0,30.09,1019.5,,,,0,0,0,,,,,,,,,2/8 Mostly Clear,72000.0,,FEW,5000.0,FEW,25000.0,,,,
KRDR,08-31-2001,17:00,METAR,,,2.0,,,9999.0,Cloud Development Not Observable,18.0,7.0,30.10,1019.9,,,,0,0,0,,,,,,,,,2/8 Mostly Clear,72000.0,,FEW,5000.0,FEW,25000.0,,,,
KRDR,08-31-2001,16:00,METAR,,,4.0,,,9999.0,Cloud Development Not Observable,16.0,9.0,30.11,1020.3,,,,0,0,0,,,,,,,,,2/8 Mostly Clear,72000.0,,FEW,5000.0,FEW,25000.0,,,,
KRDR,08-31-2001,15:00,METAR,,,5.0,,,9999.0,Cloud Development Not Observable,15.0,10.0,30.11,1020.1,,,,0,0,0,,,,,,,,,2/8 Mostly Clear,72000.0,,FEW,25000.0,,,,,,
KRDR,08-31-2001,14:00,METAR,,340,7.0,,,9999.0,Cloud Development Not Observable,12.0,9.0,30.12,1020.5,,,,0,0,0,,,,,,,,,2/8 Mostly Clear,72000.0,,FEW,20000.0,,,,,,
KRDR,08-31-2001,13:00,METAR,,,5.0,,,9999.0,Cloud Development Not Observable,8.0,8.0,30.11,1020.2,,,,0,0,0,,,,,,,,,2/8 Mostly Clear,72000.0,,FEW,20000.0,,,,,,
KRDR,08-31-2001,12:00,METAR,,300,4.0,,,9999.0,Cloud Development Not Observable,6.0,6.0,30.09,1019.6,,,,0,0,0,,,,,,,,,2/8 Mostly Clear,72000.0,,FEW,20000.0,,,,,,
KRDR,08-31-2001,11:00,METAR,,330,7.0,,,9999.0,Cloud Development Not Observable,6.0,6.0,30.07,1018.9,,,,0,0,0,,,,,,,,,2/8 Mostly Clear,72000.0,,FEW,12000.0,,,,,,
KRDR,08-31-2001,10:00,METAR,,300,6.0,,,9999.0,Cloud Development Not Observable,7.0,6.0,30.07,1018.9,,,,0,0,0,,,,,,,,,2/8 Mostly Clear,72000.0,,FEW,2000.0,,,,,,
KRDR,08-31-2001,09:00,METAR,,280,4.0,,,9999.0,Cloud Development Not Observable,7.0,7.0,30.06,1018.6,,,,0,0,0,,,,,,,,,2/8 Mostly Clear,72000.0,,FEW,2000.0,,,,,,
KRDR,08-31-2001,08:00,METAR,,300,6.0,,,9999.0,Cloud Development Not Observable,8.0,7.0,30.04,1017.8,,,,0,0,0,,,,,,,,,Clear,72000.0,,,73000.0,,,,,,
KRDR,08-31-2001,06:00,METAR,,320,6.0,,,9999.0,Cloud Development Not Observable,9.0,8.0,30.03,1017.7,,,,0,0,0,,,,,,,,,Clear,72000.0,,,73000.0,,,,,,
KRDR,08-31-2001,05:00,METAR,,350,6.0,,,9999.0,Cloud Development Not Observable,11.0,9.0,30.02,1017.2,,,,0,0,0,,,,,,,,,2/8 Mostly Clear,72000.0,,FEW,5900.0,,,,,,
KRDR,08-31-2001,03:00,METAR,,320,7.0,,,9999.0,Cloud Development Not Observable,13.0,8.0,30.00,1016.5,,,,0,0,0,,,,,,,,,2/8 Mostly Clear,72000.0,,FEW,5900.0,,,,,,
KRDR,08-31-2001,02:00,METAR,,350,7.0,,,9999.0,Cloud Development Not Observable,15.0,7.0,29.99,1015.9,,,,0,0,0,,,,,,,,,2/8 Mostly Clear,72000.0,,FEW,5900.0,,,,,,
KRDR,08-31-2001,01:00,METAR,,340,10.0,,,9999.0,Cloud Development Not Observable,17.0,6.0,29.96,1015.1,,,,0,0,0,,,,,,,,,2/8 Mostly Clear,72000.0,,FEW,5900.0,,,,,,
KRDR,08-31-2001,00:00,METAR,,350,18.0,,,9999.0,Cloud Development Not Observable,20.0,8.0,29.95,1014.5,,,,0,0,0,,,,,,,,,4/8 Partly Cloudy,72000.0,,SCT,5900.0,,,,,,
KRDR,08-30-2001,23:00,METAR,,350,16.0,,,9999.0,Cloud Development Not Observable,21.0,7.0,29.93,1013.9,,,,0,0,0,,,,,,,,,2/8 Mostly Clear,72000.0,,FEW,4000.0,FEW,6900.0,,,,
KRDR,08-30-2001,22:00,METAR,,360,15.0,,,9999.0,Cloud Development Not Observable,22.0,9.0,29.92,1013.3,,,,0,0,0,,,,,,,,,4/8 Partly Cloudy,72000.0,,FEW,4000.0,SCT,6900.0,,,,
KRDR,08-30-2001,21:00,METAR,,360,16.0,,,9999.0,Cloud Development Not Observable,20.0,10.0,29.91,1013.0,,,,0,0,0,,,,,,,,,7/8 Mostly Cloudy,7000.0,,SCT,4000.0,BKN,6900.0,,,,
KRDR,08-30-2001,20:00,METAR,,340,17.0,,,9999.0,Cloud Development Not Observable,22.0,11.0,29.90,1012.6,,,,0,0,0,,,,,,,,,7/8 Mostly Cloudy,6000.0,,SCT,4000.0,BKN,5900.0,,,,
KRDR,08-30-2001,19:00,METAR,,340,16.0,,,9999.0,Cloud Development Not Observable,20.0,13.0,29.89,1012.3,,,,0,0,0,,,,,,,,,7/8 Mostly Cloudy,6000.0,,SCT,3500.0,BKN,5900.0,,,,
KRDR,08-30-2001,17:55,METAR,,340,18.0,25.0,,9999.0,Light Rain Showers/Cloud Development Not Observable,20.0,14.0,29.86,1011.6,,,,80,0,0,,,,,,,,,7/8 Mostly Cloudy,3400.0,,BKN,3500.0,BKN,5900.0,,,,
KRDR,08-30-2001,17:00,METAR,,350,15.0,,,9999.0,Cloud Development Not Observable,21.0,14.0,29.84,1010.9,,,,0,0,0,,,,,,,,,7/8 Mostly Cloudy,4400.0,,SCT,3500.0,BKN,4500.0,,,,
KRDR,08-30-2001,16:00,METAR,,340,15.0,25.0,,9999.0,Cloud Development Not Observable,20.0,13.0,29.83,1010.4,,,,0,0,0,,,,,,,,,7/8 Mostly Cloudy,4400.0,,SCT,3500.0,BKN,4500.0,BKN,9900.0,,
KRDR,08-30-2001,15:00,METAR,,330,19.0,25.0,,9999.0,Cloud Development Not Observable,20.0,14.0,29.81,1009.3,,,,0,0,0,,,,,,,,,4/8 Partly Cloudy,72000.0,,FEW,3500.0,FEW,5000.0,SCT,20000.0,,
KRDR,08-30-2001,14:00,METAR,,300,17.0,,,9999.0,Cloud Development Not Observable,17.0,13.0,29.80,1009.3,,,,0,0,0,,,,,,,,,4/8 Partly Cloudy,72000.0,,FEW,3500.0,SCT,5000.0,,,,
KRDR,08-30-2001,13:00,METAR,,290,13.0,,,9999.0,Cloud Development Not Observable,16.0,13.0,29.78,1008.5,,,,0,0,0,,,,,,,,,2/8 Mostly Clear,72000.0,,FEW,3500.0,FEW,8900.0,,,,
KRDR,08-30-2001,12:00,METAR,,290,12.0,,,9999.0,Cloud Development Not Observable,15.0,13.0,29.76,1007.9,,,,0,0,0,,,,,,,,,2/8 Mostly Clear,72000.0,,FEW,7900.0,,,,,,
KRDR,08-30-2001,11:00,METAR,,290,10.0,,,9999.0,Cloud Development Not Observable,16.0,13.0,29.74,1007.1,,,,0,0,0,,,,,,,,,2/8 Mostly Clear,72000.0,,FEW,9900.0,,,,,,
KRDR,08-30-2001,10:00,METAR,,290,9.0,,,9999.0,Cloud Development Not Observable,16.0,13.0,29.72,1006.4,,,,0,0,0,,,,,,,,,Clear,72000.0,,,73000.0,,,,,,
KRDR,08-30-2001,09:00,METAR,,270,9.0,,,9999.0,Cloud Development Not Observable,16.0,13.0,29.71,1005.9,,,,0,0,0,,,,,,,,,Clear,72000.0,,,73000.0,,,,,,
KRDR,08-30-2001,08:00,METAR,,280,10.0,,,9999.0,Cloud Development Not Observable,16.0,12.0,29.71,1005.9,,,,0,0,0,,,,,,,,,Clear,72000.0,,,73000.0,,,,,,
KRDR,08-30-2001,07:00,METAR,,280,9.0,,,9999.0,Cloud Development Not Observable,17.0,13.0,29.71,1005.9,,,,0,0,0,,,,,,,,,Clear,72000.0,,,73000.0,,,,,,
KRDR,08-30-2001,06:00,METAR,,280,8.0,,,9999.0,Cloud Development Not Observable,17.0,13.0,29.70,1005.8,,,,0,0,0,,,,,,,,,Clear,72000.0,,,73000.0,,,,,,
KRDR,08-30-2001,05:00,METAR,,280,11.0,,,9999.0,Cloud Development Not Observable,18.0,13.0,29.68,1005.1,,,,0,0,0,,,,,,,,,Clear,72000.0,,,73000.0,,,,,,
KRDR,08-30-2001,04:00,METAR,,280,10.0,,,9999.0,Cloud Development Not Observable,18.0,13.0,29.68,1005.4,,,,0,0,0,,,,,,,,,2/8 Mostly Clear,72000.0,,FEW,20000.0,,,,,,
KRDR,08-30-2001,03:00,METAR,,270,7.0,,,9999.0,Cloud Development Not Observable,17.0,11.0,29.67,1005.1,,,,0,0,0,,,,,,,,,4/8 Partly Cloudy,72000.0,,FEW,9900.0,SCT,20000.0,,,,
KRDR,08-30-2001,02:00,METAR,,300,7.0,,,9999.0,Cloud Development Not Observable,21.0,11.0,29.67,1005.1,,,,0,0,0,,,,,,,,,7/8 Mostly Cloudy,20000.0,,FEW,5000.0,SCT,9900.0,BKN,20000.0,,
KRDR,08-30-2001,01:00,METAR,,300,16.0,,,9999.0,Cloud Development Not Observable,24.0,12.0,29.64,1003.8,,,,0,0,0,,,,,,,,,7/8 Mostly Cloudy,12000.0,,FEW,5000.0,BKN,12000.0,BKN,20000.0,,
KRDR,08-30-2001,00:00,METAR,,300,15.0,,,9999.0,Cloud Development Not Observable,24.0,10.0,29.66,1004.5,,,,0,0,0,,,,,,,,,7/8 Mostly Cloudy,12000.0,,FEW,5000.0,BKN,12000.0,BKN,20000.0,,
KRDR,08-29-2001,23:00,METAR,,290,17.0,28.0,300/30KTS,9999.0,Cloud Development Not Observable,25.0,9.0,29.66,1004.7,,,,0,0,0,,,,,,,,,7/8 Mostly Cloudy,12000.0,,FEW,5000.0,BKN,12000.0,BKN,20000.0,,
KRDR,08-29-2001,19:00,METAR,,,3.0,,,9999.0,Cloud Development Not Observable,29.0,16.0,29.65,1003.9,,,,0,0,0,,,,,,,,,7/8 Mostly Cloudy,20000.0,,FEW,9900.0,BKN,20000.0,,,,
KRDR,08-29-2001,18:00,METAR,,290,7.0,,,9999.0,Cloud Development Not Observable,28.0,18.0,29.67,1004.6,,,,0,0,0,,,,,,,,,7/8 Mostly Cloudy,20000.0,,FEW,8900.0,BKN,20000.0,,,,
KRDR,08-29-2001,17:00,METAR,,280,8.0,,,9999.0,Cloud Development Not Observable,27.0,19.0,29.68,1005.2,,,,0,0,0,,,,,,,,,7/8 Mostly Cloudy,20000.0,,BKN,20000.0,,,,,,
KRDR,08-29-2001,16:00,METAR,,220,13.0,,,9999.0,Cloud Development Not Observable,23.0,18.0,29.70,1005.7,,,,0,0,0,,,,,,,,,7/8 Mostly Cloudy,20000.0,,BKN,20000.0,,,,,,
KRDR,08-29-2001,15:00,METAR,,180,11.0,,,9999.0,Cloud Development Not Observable,22.0,18.0,29.69,1005.4,,,,0,0,0,,,,,,,,,7/8 Mostly Cloudy,20000.0,,BKN,20000.0,,,,,,
KRDR,08-29-2001,14:00,METAR,,170,10.0,,,9999.0,Cloud Development Not Observable,18.0,17.0,29.72,1006.6,,,,0,0,0,,,,,,,,,7/8 Mostly Cloudy,20000.0,,BKN,20000.0,,,,,,
KRDR,08-29-2001,13:00,METAR,,,5.0,,,9999.0,Cloud Development Not Observable,16.0,16.0,29.74,1007.3,,,,0,0,0,,,,,,,,,7/8 Mostly Cloudy,20000.0,,BKN,20000.0,,,,,,
KRDR,08-29-2001,12:00,METAR,,170,5.0,,,9999.0,Cloud Development Not Observable,16.0,16.0,29.74,1007.1,,,,0,0,0,,,,,,,,,7/8 Mostly Cloudy,20000.0,,BKN,20000.0,,,,,,
KRDR,08-29-2001,11:00,METAR,,170,9.0,,,9999.0,Cloud Development Not Observable,16.0,16.0,29.74,1007.0,,,,0,0,0,,,,,,,,,4/8 Partly Cloudy,72000.0,,SCT,20000.0,,,,,,
KRDR,08-29-2001,10:00,METAR,,180,10.0,,,9999.0,Cloud Development Not Observable,18.0,16.0,29.74,1007.1,,,,0,0,0,,,,,,,,,2/8 Mostly Clear,72000.0,,FEW,20000.0,,,,,,
KRDR,08-29-2001,09:00,METAR,,170,8.0,,,9999.0,Cloud Development Not Observable,17.0,16.0,29.77,1008.2,,,,0,0,0,,,,,,,,,4/8 Partly Cloudy,72000.0,,FEW,6900.0,SCT,20000.0,,,,
KRDR,08-29-2001,08:00,METAR,,180,9.0,,,9999.0,Cloud Development Not Observable,17.0,15.0,29.78,1008.5,,,,0,0,0,,,,,,,,,4/8 Partly Cloudy,72000.0,,FEW,6900.0,SCT,20000.0,,,,
KRDR,08-29-2001,07:00,METAR,,180,11.0,,,9999.0,Cloud Development Not Observable,19.0,14.0,29.81,1009.5,,,,0,0,0,,,,,,,,,2/8 Mostly Clear,72000.0,,FEW,20000.0,,,,,,
KRDR,08-29-2001,06:00,METAR,,190,10.0,,,9999.0,Cloud Development Not Observable,20.0,14.0,29.82,1009.9,,,,0,0,0,,,,,,,,,4/8 Partly Cloudy,72000.0,,FEW,9900.0,SCT,20000.0,,,,
KRDR,08-29-2001,05:00,METAR,,180,11.0,,,9999.0,Cloud Development Not Observable,21.0,14.0,29.84,1010.4,,,,0,0,0,,,,,,,,,2/8 Mostly Clear,72000.0,,FEW,8900.0,FEW,20000.0,,,,
KRDR,08-29-2001,04:00,METAR,,170,9.0,,,9999.0,Cloud Development Not Observable,20.0,14.0,29.85,1010.9,,,,0,0,0,,,,,,,,,2/8 Mostly Clear,72000.0,,FEW,25000.0,,,,,,
KRDR,08-29-2001,03:00,METAR,,150,9.0,,,9999.0,Cloud Development Not Observable,22.0,13.0,29.85,1011.0,,,,0,0,0,,,,,,,,,2/8 Mostly Clear,72000.0,,FEW,25000.0,,,,,,
KRDR,08-29-2001,02:00,METAR,,140,9.0,,,9999.0,Cloud Development Not Observable,23.0,13.0,29.86,1011.3,,,,0,0,0,,,,,,,,,2/8 Mostly Clear,72000.0,,FEW,25000.0,,,,,,
KRDR,08-29-2001,01:00,METAR,,160,9.0,,,9999.0,Cloud Development Not Observable,25.0,13.0,29.87,1011.9,,,,0,0,0,,,,,,,,,2/8 Mostly Clear,72000.0,,FEW,25000.0,,,,,,
KRDR,08-29-2001,00:00,METAR,,170,11.0,,,9999.0,Cloud Development Not Observable,27.0,12.0,29.87,1011.9,,,,0,0,0,,,,,,,,,2/8 Mostly Clear,72000.0,,FEW,25000.0,,,,,,
KRDR,08-28-2001,23:00,METAR,,180,15.0,,,9999.0,Cloud Development Not Observable,28.0,11.0,29.89,1012.4,,,,0,0,0,,,,,,,,,2/8 Mostly Clear,72000.0,,FEW,25000.0,,,,,,
KRDR,08-28-2001,22:00,METAR,,190,12.0,,,9999.0,Cloud Development Not Observable,29.0,10.0,29.90,1012.7,,,,0,0,0,,,,,,,,,2/8 Mostly Clear,72000.0,,FEW,25000.0,,,,,,
KRDR,08-28-2001,21:00,METAR,,190,12.0,,,9999.0,Cloud Development Not Observable,29.0,10.0,29.92,1013.3,,,,0,0,0,,,,,,,,,2/8 Mostly Clear,72000.0,,FEW,25000.0,,,,,,
KRDR,08-28-2001,20:00,METAR,,160,11.0,,,9999.0,Cloud Development Not Observable,29.0,10.0,29.93,1013.6,,,,0,0,0,,,,,,,,,2/8 Mostly Clear,72000.0,,FEW,25000.0,,,,,,
KRDR,08-28-2001,19:00,METAR,,170,12.0,,,9999.0,Cloud Development Not Observable,29.0,9.0,29.94,1014.1,,,,0,0,0,,,,,,,,,2/8 Mostly Clear,72000.0,,FEW,25000.0,,,,,,
KRDR,08-28-2001,18:00,METAR,,170,11.0,,,9999.0,Cloud Development Not Observable,28.0,9.0,29.97,1015.0,,,,0,0,0,,,,,,,,,2/8 Mostly Clear,72000.0,,FEW,25000.0,,,,,,
KRDR,08-28-2001,17:00,METAR,,180,9.0,,,9999.0,Cloud Development Not Observable,27.0,10.0,29.99,1015.7,,,,0,0,0,,,,,,,,,2/8 Mostly Clear,72000.0,,FEW,25000.0,,,,,,
KRDR,08-28-2001,16:00,METAR,,190,7.0,,,9999.0,Cloud Development Not Observable,25.0,12.0,30.00,1016.1,,,,0,0,0,,,,,,,,,2/8 Mostly Clear,72000.0,,FEW,25000.0,,,,,,
KRDR,08-28-2001,15:00,METAR,,180,7.0,,,9999.0,Cloud Development Not Observable,22.0,14.0,30.00,1016.2,,,,0,0,0,,,,,,,,,2/8 Mostly Clear,72000.0,,FEW,25000.0,,,,,,
KRDR,08-28-2001,14:00,METAR,,210,4.0,,,9999.0,Cloud Development Not Observable,18.0,15.0,30.00,1016.3,,,,0,0,0,,,,,,,,,2/8 Mostly Clear,72000.0,,FEW,12000.0,FEW,25000.0,,,,
KRDR,08-28-2001,13:00,METAR,,,3.0,,,9999.0,Cloud Development Not Observable,14.0,14.0,30.00,1016.3,,,,0,0,0,,,,,,,,,2/8 Mostly Clear,72000.0,,FEW,15000.0,FEW,25000.0,,,,
KRDR,08-28-2001,12:00,METAR,,210,3.0,,,9999.0,Cloud Development Not Observable,11.0,11.0,30.00,1016.4,,,,0,0,0,,,,,,,,,2/8 Mostly Clear,72000.0,,FEW,15000.0,,,,,,
KRDR,08-28-2001,11:00,METAR,,,2.0,,,9999.0,Cloud Development Not Observable,12.0,12.0,30.00,1016.1,,,,0,0,0,,,,,,,,,Clear,72000.0,,,73000.0,,,,,,
KRDR,08-28-2001,10:00,METAR,,230,4.0,,,9999.0,Cloud Development Not Observable,11.0,11.0,30.01,1016.5,,,,0,0,0,,,,,,,,,Clear,72000.0,,,73000.0,,,,,,
KRDR,08-28-2001,09:00,METAR,,220,3.0,,,9999.0,Cloud Development Not Observable,12.0,12.0,30.00,1016.1,,,,0,0,0,,,,,,,,,2/8 Mostly Clear,72000.0,,FEW,1000.0,,,,,,
KRDR,08-28-2001,08:00,METAR,,270,3.0,,,9999.0,Cloud Development Not Observable,12.0,12.0,29.99,1015.9,,,,0,0,0,,,,,,,,,Clear,72000.0,,,73000.0,,,,,,
KRDR,08-28-2001,07:00,METAR,,230,4.0,,,9999.0,Cloud Development Not Observable,13.0,12.0,29.99,1015.9,,,,0,0,0,,,,,,,,,2/8 Mostly Clear,72000.0,,FEW,25000.0,,,,,,
KRDR,08-28-2001,06:00,METAR,,260,4.0,,,9999.0,Cloud Development Not Observable,14.0,12.0,29.99,1015.7,,,,0,0,0,,,,,,,,,4/8 Partly Cloudy,72000.0,,SCT,25000.0,,,,,,
KRDR,08-28-2001,05:00,METAR,,280,3.0,,,9999.0,Cloud Development Not Observable,15.0,11.0,29.98,1015.5,,,,0,0,0,,,,,,,,,4/8 Partly Cloudy,72000.0,,SCT,25000.0,,,,,,
KRDR,08-28-2001,04:00,METAR,,320,5.0,,,9999.0,Cloud Development Not Observable,17.0,11.0,29.98,1015.3,,,,0,0,0,,,,,,,,,4/8 Partly Cloudy,72000.0,,SCT,25000.0,,,,,,
KRDR,08-28-2001,03:00,METAR,,330,5.0,,,9999.0,Cloud Development Not Observable,18.0,10.0,29.98,1015.4,,,,0,0,0,,,,,,,,,4/8 Partly Cloudy,72000.0,,SCT,25000.0,,,,,,
KRDR,08-28-2001,02:00,METAR,,10,6.0,,,9999.0,Cloud Development Not Observable,21.0,10.0,29.96,1014.7,,,,0,0,0,,,,,,,,,4/8 Partly Cloudy,72000.0,,SCT,25000.0,,,,,,
KRDR,08-28-2001,01:00,METAR,,20,8.0,,,9999.0,Cloud Development Not Observable,25.0,8.0,29.94,1014.0,,,,0,0,0,,,,,,,,,4/8 Partly Cloudy,72000.0,,SCT,25000.0,,,,,,
KRDR,08-28-2001,00:00,METAR,,30,11.0,,,9999.0,Cloud Development Not Observable,26.0,8.0,29.93,1013.8,,,,0,0,0,,,,,,,,,4/8 Partly Cloudy,72000.0,,SCT,25000.0,,,,,,
KRDR,08-27-2001,23:00,METAR,,350,10.0,,,9999.0,Cloud Development Not Observable,28.0,8.0,29.93,1013.6,,,,0,0,0,,,,,,,,,4/8 Partly Cloudy,72000.0,,SCT,25000.0,,,,,,
KRDR,08-27-2001,22:00,METAR,,340,14.0,,,9999.0,Cloud Development Not Observable,28.0,6.0,29.93,1013.6,,,,0,0,0,,,,,,,,,4/8 Partly Cloudy,72000.0,,SCT,25000.0,,,,,,
KRDR,08-27-2001,21:00,METAR,,320,13.0,,,9999.0,Cloud Development Not Observable,28.0,8.0,29.94,1014.0,,,,0,0,0,,,,,,,,,4/8 Partly Cloudy,72000.0,,SCT,25000.0,,,,,,
KRDR,08-27-2001,20:00,METAR,,340,17.0,,,9999.0,Cloud Development Not Observable,28.0,8.0,29.94,1013.9,,,,0,0,0,,,,,,,,,4/8 Partly Cloudy,72000.0,,SCT,25000.0,,,,,,
KRDR,08-27-2001,19:00,METAR,,360,12.0,,,9999.0,Cloud Development Not Observable,28.0,9.0,29.95,1014.3,,,,0,0,0,,,,,,,,,4/8 Partly Cloudy,72000.0,,SCT,25000.0,,,,,,
KRDR,08-27-2001,18:00,METAR,,350,10.0,,,9999.0,Cloud Development Not Observable,28.0,9.0,29.96,1014.6,,,,0,0,0,,,,,,,,,2/8 Mostly Clear,72000.0,,FEW,25000.0,,,,,,
KRDR,08-27-2001,17:00,METAR,,310,12.0,,,9999.0,Cloud Development Not Observable,27.0,10.0,29.96,1014.8,,,,0,0,0,,,,,,,,,2/8 Mostly Clear,72000.0,,FEW,25000.0,,,,,,
KRDR,08-27-2001,16:00,METAR,,330,11.0,,,9999.0,Cloud Development Not Observable,25.0,11.0,29.96,1014.8,,,,0,0,0,,,,,,,,,2/8 Mostly Clear,72000.0,,FEW,20000.0,,,,,,
KRDR,08-27-2001,15:00,METAR,,310,9.0,,,9999.0,Cloud Development Not Observable,22.0,12.0,29.96,1014.9,,,,0,0,0,,,,,,,,,2/8 Mostly Clear,72000.0,,FEW,15000.0,FEW,20000.0,,,,
KRDR,08-27-2001,14:00,METAR,,280,7.0,,,9999.0,Cloud Development Not Observable,19.0,12.0,29.96,1014.9,,,,0,0,0,,,,,,,,,4/8 Partly Cloudy,72000.0,,FEW,15000.0,SCT,20000.0,,,,
KRDR,08-27-2001,13:00,METAR,,,6.0,,,9999.0,Cloud Development Not Observable,16.0,12.0,29.96,1014.8,,,,0,0,0,,,,,,,,,7/8 Mostly Cloudy,20000.0,,FEW,15000.0,BKN,20000.0,,,,
KRDR,08-27-2001,12:00,METAR,,270,10.0,,,9999.0,Cloud Development Not Observable,13.0,11.0,29.95,,,,,0,0,0,,,,,,,,,7/8 Mostly Cloudy,20000.0,,FEW,15000.0,BKN,20000.0,,,,
KRDR,08-27-2001,11:00,METAR,,270,8.0,,,9999.0,Cloud Development Not Observable,13.0,11.0,29.94,,,,,0,0,0,,,,,,,,,4/8 Partly Cloudy,72000.0,,FEW,15000.0,SCT,20000.0,,,,
KRDR,08-27-2001,10:00,METAR,,,3.0,,,9999.0,Cloud Development Not Observable,13.0,11.0,29.94,,,,,0,0,0,,,,,,,,,Clear,72000.0,,,73000.0,,,,,,
KRDR,08-27-2001,09:00,METAR,,280,6.0,,,9999.0,Cloud Development Not Observable,13.0,11.0,29.94,1013.9,,,,0,0,0,,,,,,,,,Clear,72000.0,,,73000.0,,,,,,
KRDR,08-27-2001,08:00,METAR,,270,8.0,,,9999.0,Cloud Development Not Observable,14.0,11.0,29.94,1013.9,,,,0,0,0,,,,,,,,,Clear,72000.0,,,73000.0,,,,,,
KRDR,08-27-2001,07:00,METAR,,260,6.0,,,9999.0,Cloud Development Not Observable,12.0,11.0,29.94,1014.0,,,,0,0,0,,,,,,,,,Clear,72000.0,,,73000.0,,,,,,
KRDR,08-27-2001,06:00,METAR,,260,6.0,,,9999.0,Cloud Development Not Observable,14.0,13.0,29.93,1013.6,,,,0,0,0,,,,,,,,,Clear,72000.0,,,73000.0,,,,,,
KRDR,08-27-2001,05:00,METAR,,240,6.0,,,9999.0,Cloud Development Not Observable,14.0,13.0,29.93,1013.7,,,,0,0,0,,,,,,,,,2/8 Mostly Clear,72000.0,,FEW,20000.0,,,,,,
KRDR,08-27-2001,04:00,METAR,,260,5.0,,,9999.0,Cloud Development Not Observable,15.0,11.0,29.93,1013.6,,,,0,0,0,,,,,,,,,2/8 Mostly Clear,72000.0,,FEW,20000.0,,,,,,
KRDR,08-27-2001,03:00,METAR,,280,6.0,,,9999.0,Cloud Development Not Observable,16.0,12.0,29.92,1013.5,,,,0,0,0,,,,,,,,,2/8 Mostly Clear,72000.0,,FEW,20000.0,,,,,,
KRDR,08-27-2001,02:00,METAR,,330,6.0,,,9999.0,Cloud Development Not Observable,20.0,11.0,29.90,1012.6,,,,0,0,0,,,,,,,,,2/8 Mostly Clear,72000.0,,FEW,20000.0,,,,,,
KRDR,08-27-2001,01:00,METAR,,340,10.0,,,9999.0,Cloud Development Not Observable,25.0,10.0,29.89,1012.2,,,,0,0,0,,,,,,,,,2/8 Mostly Clear,72000.0,,FEW,20000.0,,,,,,
KRDR,08-26-2001,21:00,METAR,,280,12.0,,,9999.0,Cloud Development Not Observable,30.0,18.0,29.83,,,,,0,0,0,,,,,,,,,4/8 Partly Cloudy,72000.0,,FEW,3000.0,SCT,12000.0,SCT,20000.0,,
KRDR,08-26-2001,20:00,METAR,,230,7.0,,,9999.0,Cloud Development Not Observable,28.0,22.0,29.85,,,,,0,0,0,,,,,,,,,7/8 Mostly Cloudy,20000.0,,FEW,2500.0,SCT,12000.0,BKN,20000.0,,
KRDR,08-26-2001,19:00,METAR,,230,10.0,,,9999.0,Cloud Development Not Observable,27.0,21.0,29.86,,,,,0,0,0,,,,,,,,,7/8 Mostly Cloudy,12000.0,,FEW,2500.0,BKN,12000.0,BKN,20000.0,,
KRDR,08-26-2001,17:59,METAR,,180,12.0,,,9999.0,Cloud Development Not Observable,27.0,20.0,29.87,,,,,0,0,0,,,,,,,,,7/8 Mostly Cloudy,20000.0,,FEW,2500.0,SCT,12000.0,BKN,20000.0,,
KRDR,08-26-2001,17:00,METAR,,190,15.0,,,9999.0,Cloud Development Not Observable,25.0,19.0,29.89,,,,,0,0,0,,,,,,,,,4/8 Partly Cloudy,72000.0,,FEW,2000.0,SCT,20000.0,,,,
KRDR,08-26-2001,16:00,METAR,,180,15.0,,,9999.0,Cloud Development Not Observable,25.0,20.0,29.89,,,,,0,0,0,,,,,,,,,4/8 Partly Cloudy,72000.0,,FEW,12000.0,SCT,20000.0,,,,
KRDR,08-26-2001,15:00,METAR,,170,12.0,,,9999.0,Cloud Development Not Observable,23.0,20.0,29.88,,,,,0,0,0,,,,,,,,,2/8 Mostly Clear,72000.0,,FEW,20000.0,,,,,,
KRDR,08-26-2001,14:00,METAR,,160,13.0,,,9999.0,Cloud Development Not Observable,20.0,19.0,29.89,,,,,0,0,0,,,,,,,,,4/8 Partly Cloudy,72000.0,,FEW,3500.0,SCT,9900.0,SCT,20000.0,,
KRDR,08-26-2001,13:28,SPECI,,170,15.0,,,9999.0,Cloud Development Not Observable,20.0,19.0,29.89,,,,,0,0,0,,,,,,,,,7/8 Mostly Cloudy,20000.0,,SCT,3000.0,BKN,20000.0,,,,
KRDR,08-26-2001,13:00,METAR,,200,9.0,,,9999.0,Thunderstorm with Rain or Snow/Light Rain Showers/Cloud Development Not Observable,18.0,18.0,29.91,,,,,95,80,0,,,,,,,,,7/8 Mostly Cloudy,10000.0,,SCT,3000.0,BKN,9900.0,,,,
KRDR,08-26-2001,12:43,SPECI,,200,9.0,,,9999.0,Thunderstorm with Rain or Snow/Light Rain Showers/Cloud Development Not Observable,18.0,18.0,29.91,,,,,95,80,0,,,,,,,,,7/8 Mostly Cloudy,10000.0,,SCT,3000.0,BKN,9900.0,,,,
KRDR,08-26-2001,12:00,METAR,,180,10.0,,,9999.0,Light Rain Showers/Cloud Development Not Observable,18.0,15.0,29.90,,,,,80,0,0,,,,,,,,,7/8 Mostly Cloudy,10000.0,,SCT,3000.0,BKN,9900.0,,,,
KRDR,08-26-2001,11:40,SPECI,,180,11.0,,,9999.0,Light Rain Showers/Cloud Development Not Observable,18.0,14.0,29.90,,,,,80,0,0,,,,,,,,,7/8 Mostly Cloudy,15000.0,,SCT,3000.0,BKN,15000.0,,,,
KRDR,08-25-2001,19:00,METAR,,280,16.0,,,9999.0,Cloud Development Not Observable,29.0,7.0,29.95,1014.2,,,,0,0,0,,,,,,,,,2/8 Mostly Clear,72000.0,,FEW,20000.0,,,,,,
KRDR,08-25-2001,18:00,METAR,,300,13.0,,,9999.0,Cloud Development Not Observable,29.0,11.0,29.95,1014.2,,,,0,0,0,,,,,,,,,2/8 Mostly Clear,72000.0,,FEW,20000.0,,,,,,
KRDR,08-25-2001,17:10,SPECI,,290,14.0,,,9999.0,Cloud Development Not Observable,28.0,12.0,29.95,,,,,0,0,0,,,,,,,,,2/8 Mostly Clear,72000.0,,FEW,20000.0,,,,,,
KRDR,08-25-2001,10:00,METAR,,200,5.0,,,9999.0,Cloud Development Not Observable,20.0,20.0,29.93,1013.5,,,,0,0,0,,,,,,,,,8/8 Overcast,5500.0,,OVC,5400.0,,,,,,
KRDR,08-25-2001,09:00,METAR,,320,2.0,,,9999.0,Cloud Development Not Observable,20.0,20.0,29.93,1013.5,,,,0,0,0,,,,,,,,,8/8 Overcast,6000.0,,OVC,5900.0,,,,,,
KRDR,08-25-2001,08:36,SPECI,,220,6.0,,,9999.0,Light Rain Showers/Cloud Development Not Observable,21.0,21.0,29.93,,,,,80,0,0,,,,,,,,,8/8 Overcast,6000.0,,FEW,2400.0,BKN,5900.0,OVC,7900.0,,
KRDR,08-25-2001,08:00,METAR,,350,2.0,,,9999.0,Thunderstorm with Rain or Snow/Light Rain Showers/Cloud Development Not Observable,21.0,21.0,29.90,1012.5,,,,95,80,0,,,,,,,,,8/8 Overcast,4400.0,,FEW,1800.0,BKN,4500.0,OVC,7900.0,,
KRDR,08-25-2001,07:49,SPECI,,320,3.0,,,9999.0,Thunderstorm with Rain or Snow/Light Rain Showers/Cloud Development Not Observable,21.0,21.0,29.91,,,,,95,80,0,,,,,,,,,8/8 Overcast,4400.0,,FEW,1800.0,BKN,4500.0,OVC,7900.0,,
KRDR,08-25-2001,07:33,SPECI,,270,10.0,,,9999.0,Light Rain Showers/Cloud Development Not Observable,22.0,22.0,29.90,,,,,80,0,0,,,,,,,,,8/8 Overcast,1800.0,,BKN,1800.0,OVC,7900.0,,,,
KRDR,08-25-2001,07:00,METAR,,220,12.0,,,9999.0,Light Rain Showers/Cloud Development Not Observable,22.0,22.0,29.89,1011.9,,,,80,0,0,,,,,,,,,8/8 Overcast,12000.0,,SCT,5400.0,BKN,12000.0,OVC,20000.0,,
KRDR,08-25-2001,06:00,METAR,,200,14.0,,,9999.0,Thunderstorm with Rain or Snow/Light Rain Showers/Cloud Development Not Observable,22.0,21.0,29.88,1011.8,,,,95,80,0,,,,,,,,,7/8 Mostly Cloudy,11000.0,,SCT,5400.0,BKN,11000.0,BKN,20000.0,,
KRDR,08-25-2001,05:05,SPECI,,220,8.0,,,9999.0,Thunderstorm with Rain or Snow/Light Rain Showers/Cloud Development Not Observable,24.0,23.0,29.89,,,,,95,80,0,,,,,,,,,8/8 Overcast,7500.0,,SCT,5000.0,BKN,7400.0,OVC,20000.0,,
KRDR,08-25-2001,05:00,METAR,,200,12.0,,,9999.0,Thunderstorm/Cloud Development Not Observable,24.0,23.0,29.86,1011.1,,,,17,0,0,,,,,,,,,8/8 Overcast,8500.0,,FEW,5000.0,BKN,8400.0,OVC,20000.0,,
KRDR,08-25-2001,04:19,SPECI,,180,15.0,,,9999.0,Thunderstorm/Cloud Development Not Observable,24.0,23.0,29.85,,,,,17,0,0,,,,,,,,,7/8 Mostly Cloudy,9000.0,,SCT,5000.0,BKN,8900.0,BKN,20000.0,,
KRDR,08-25-2001,04:00,METAR,,180,16.0,,,9999.0,Cloud Development Not Observable,24.0,22.0,29.85,1011.0,,,,0,0,0,,,,,,,,,2/8 Mostly Clear,72000.0,,FEW,20000.0,,,,,,
KRDR,08-25-2001,03:00,METAR,,180,13.0,,,9999.0,Cloud Development Not Observable,25.0,22.0,29.86,1011.3,,,,0,0,0,,,,,,,,,2/8 Mostly Clear,72000.0,,FEW,20000.0,,,,,,
KRDR,08-25-2001,02:00,METAR,,180,11.0,,,9999.0,Cloud Development Not Observable,25.0,22.0,29.85,1010.8,,,,0,0,0,,,,,,,,,2/8 Mostly Clear,72000.0,,FEW,20000.0,,,,,,
KRDR,08-25-2001,01:00,METAR,,180,11.0,,,9999.0,Cloud Development Not Observable,28.0,21.0,29.85,1010.8,,,,0,0,0,,,,,,,,,4/8 Partly Cloudy,72000.0,,FEW,3500.0,SCT,20000.0,,,,
KRDR,08-25-2001,00:00,METAR,,180,14.0,,,9999.0,Cloud Development Not Observable,29.0,21.0,29.85,1010.8,,,,0,0,0,,,,,,,,,2/8 Mostly Clear,72000.0,,FEW,3500.0,FEW,20000.0,,,,
KRDR,08-24-2001,23:00,METAR,,180,17.0,,,9999.0,Cloud Development Not Observable,30.0,21.0,29.85,1010.9,,,,0,0,0,,,,,,,,,2/8 Mostly Clear,72000.0,,FEW,3500.0,FEW,20000.0,,,,
KRDR,08-24-2001,22:00,METAR,,170,18.0,,,9999.0,Cloud Development Not Observable,30.0,22.0,29.86,1011.1,,,,0,0,0,,,,,,,,,7/8 Mostly Cloudy,20000.0,,FEW,3500.0,BKN,20000.0,,,,
KRDR,08-24-2001,21:00,METAR,,180,16.0,,,9999.0,Cloud Development Not Observable,30.0,23.0,29.87,1011.6,,,,0,0,0,,,,,,,,,7/8 Mostly Cloudy,20000.0,,SCT,3400.0,BKN,20000.0,,,,
KRDR,08-24-2001,20:00,METAR,,190,17.0,,,9999.0,Cloud Development Not Observable,30.0,23.0,29.90,1012.5,,,,0,0,0,,,,,,,,,4/8 Partly Cloudy,72000.0,,SCT,3400.0,SCT,20000.0,,,,
KRDR,08-24-2001,19:00,METAR,,180,13.0,,,9999.0,Cloud Development Not Observable,28.0,23.0,29.92,1013.2,,,,0,0,0,,,,,,,,,4/8 Partly Cloudy,72000.0,,SCT,3000.0,SCT,20000.0,,,,
KRDR,08-24-2001,18:00,METAR,,190,11.0,,,9999.0,Cloud Development Not Observable,27.0,24.0,29.94,1013.8,,,,0,0,0,,,,,,,,,4/8 Partly Cloudy,72000.0,,SCT,2000.0,SCT,20000.0,,,,
KRDR,08-24-2001,17:00,METAR,,180,13.0,,,9999.0,Cloud Development Not Observable,25.0,23.0,29.95,1014.3,,,,0,0,0,,,,,,,,,7/8 Mostly Cloudy,1500.0,,BKN,1500.0,BKN,20000.0,,,,
KRDR,08-24-2001,16:00,METAR,,180,12.0,,,9999.0,Cloud Development Not Observable,23.0,21.0,29.96,1014.5,,,,0,0,0,,,,,,,,,8/8 Overcast,1600.0,,OVC,1600.0,,,,,,
KRDR,08-24-2001,15:20,METAR,,180,13.0,,,9999.0,Cloud Development Not Observable,23.0,21.0,29.96,,,,,0,0,0,,,,,,,,,8/8 Overcast,1800.0,,BKN,1800.0,OVC,8900.0,,,,
KRDR,08-24-2001,15:00,METAR,,170,11.0,,,9999.0,Cloud Development Not Observable,22.0,19.0,29.96,1014.7,,,,0,0,0,,,,,,,,,8/8 Overcast,9000.0,,SCT,2000.0,OVC,8900.0,,,,
KRDR,08-24-2001,14:00,METAR,,170,11.0,,,9999.0,Cloud Development Not Observable,21.0,18.0,29.97,1015.0,,,,0,0,0,,,,,,,,,4/8 Partly Cloudy,72000.0,,FEW,8900.0,SCT,20000.0,,,,
KRDR,08-24-2001,13:00,METAR,,150,11.0,,,9999.0,Cloud Development Not Observable,19.0,18.0,29.98,1015.4,,,,0,0,0,,,,,,,,,4/8 Partly Cloudy,72000.0,,FEW,8900.0,SCT,20000.0,,,,
KRDR,08-24-2001,12:00,METAR,,140,6.0,,,9999.0,Cloud Development Not Observable,18.0,18.0,29.98,1015.4,,,,0,0,0,,,,,,,,,4/8 Partly Cloudy,72000.0,,FEW,8900.0,SCT,20000.0,,,,
KRDR,08-24-2001,11:00,METAR,,150,9.0,,,9999.0,Cloud Development Not Observable,19.0,19.0,29.98,1015.3,,,,0,0,0,,,,,,,,,4/8 Partly Cloudy,72000.0,,FEW,8900.0,SCT,20000.0,,,,
KRDR,08-24-2001,09:00,METAR,,160,11.0,,,9999.0,Cloud Development Not Observable,20.0,19.0,30.00,1015.8,,,,0,0,0,,,,,,,,,Clear,72000.0,,,73000.0,,,,,,
KRDR,08-24-2001,08:00,METAR,,150,10.0,,,9999.0,Cloud Development Not Observable,20.0,19.0,30.00,1015.8,,,,0,0,0,,,,,,,,,Clear,72000.0,,,73000.0,,,,,,
KRDR,08-24-2001,07:00,METAR,,150,8.0,,,9999.0,Cloud Development Not Observable,21.0,20.0,30.00,1016.0,,,,0,0,0,,,,,,,,,Clear,72000.0,,,73000.0,,,,,,
KRDR,08-24-2001,06:00,METAR,,140,10.0,,,9999.0,Cloud Development Not Observable,20.0,20.0,30.01,1016.2,,,,0,0,0,,,,,,,,,Clear,72000.0,,,73000.0,,,,,,
KRDR,08-24-2001,05:00,METAR,,140,9.0,,,9999.0,Cloud Development Not Observable,21.0,19.0,30.02,1016.6,,,,0,0,0,,,,,,,,,Clear,72000.0,,,73000.0,,,,,,
KRDR,08-24-2001,04:00,METAR,,130,8.0,,,9999.0,Cloud Development Not Observable,22.0,18.0,30.02,1016.6,,,,0,0,0,,,,,,,,,2/8 Mostly Clear,72000.0,,FEW,5400.0,,,,,,
KRDR,08-24-2001,03:00,METAR,,120,8.0,,,9999.0,Cloud Development Not Observable,23.0,18.0,30.01,1016.5,,,,0,0,0,,,,,,,,,2/8 Mostly Clear,72000.0,,FEW,5400.0,,,,,,
KRDR,08-24-2001,02:00,METAR,,120,10.0,,,9999.0,Cloud Development Not Observable,25.0,18.0,30.00,1015.9,,,,0,0,0,,,,,,,,,2/8 Mostly Clear,72000.0,,FEW,5400.0,,,,,,
KRDR,08-24-2001,01:00,METAR,,110,9.0,,,9999.0,Cloud Development Not Observable,27.0,18.0,29.99,1015.8,,,,0,0,0,,,,,,,,,2/8 Mostly Clear,72000.0,,FEW,5000.0,,,,,,
KRDR,08-24-2001,00:00,METAR,,110,10.0,,,9999.0,Cloud Development Not Observable,29.0,17.0,30.00,1016.1,,,,0,0,0,,,,,,,,,2/8 Mostly Clear,72000.0,,FEW,5000.0,,,,,,
KRDR,08-23-2001,23:00,METAR,,130,10.0,,,9999.0,Cloud Development Not Observable,30.0,19.0,30.01,1016.3,,,,0,0,0,,,,,,,,,2/8 Mostly Clear,72000.0,,FEW,5000.0,FEW,20000.0,,,,
KRDR,08-23-2001,20:00,METAR,,130,9.0,,,9999.0,Cloud Development Not Observable,30.0,20.0,30.05,1017.6,,,,0,0,0,,,,,,,,,2/8 Mostly Clear,72000.0,,FEW,5900.0,FEW,20000.0,,,,
KRDR,08-23-2001,19:00,METAR,,110,8.0,,,9999.0,Cloud Development Not Observable,29.0,20.0,30.07,1018.3,,,,0,0,0,,,,,,,,,2/8 Mostly Clear,72000.0,,FEW,5900.0,FEW,20000.0,,,,
KRDR,08-23-2001,18:00,METAR,,160,8.0,,,9999.0,Cloud Development Not Observable,28.0,18.0,30.09,1018.8,,,,0,0,0,,,,,,,,,2/8 Mostly Clear,72000.0,,FEW,5900.0,FEW,20000.0,,,,
KRDR,08-23-2001,17:00,METAR,,140,10.0,,,9999.0,Cloud Development Not Observable,26.0,17.0,30.10,1019.4,,,,0,0,0,,,,,,,,,2/8 Mostly Clear,72000.0,,FEW,8900.0,,,,,,
KRDR,08-23-2001,16:00,METAR,,130,10.0,,,9999.0,Cloud Development Not Observable,25.0,16.0,30.10,1019.4,,,,0,0,0,,,,,,,,,2/8 Mostly Clear,72000.0,,FEW,5000.0,FEW,8900.0,,,,
KRDR,08-23-2001,15:00,METAR,,110,8.0,,,9999.0,Cloud Development Not Observable,22.0,16.0,30.11,1019.6,,,,0,0,0,,,,,,,,,2/8 Mostly Clear,72000.0,,FEW,5000.0,FEW,8900.0,,,,
KRDR,08-23-2001,14:00,METAR,,110,6.0,,,9999.0,Cloud Development Not Observable,20.0,16.0,30.11,1019.8,,,,0,0,0,,,,,,,,,2/8 Mostly Clear,72000.0,,FEW,5000.0,FEW,8900.0,,,,
KRDR,08-23-2001,13:00,METAR,,310,4.0,,,9999.0,Cloud Development Not Observable,17.0,17.0,30.12,1020.1,,,,0,0,0,,,,,,,,,4/8 Partly Cloudy,72000.0,,FEW,5000.0,SCT,8900.0,,,,
KRDR,08-23-2001,11:55,METAR,,330,4.0,,,9999.0,Cloud Development Not Observable,15.0,15.0,30.10,1019.4,,,,0,0,0,,,,,,,,,4/8 Partly Cloudy,72000.0,,FEW,5000.0,SCT,8900.0,SCT,20000.0,,
KRDR,08-23-2001,11:00,METAR,,340,4.0,,,9999.0,Cloud Development Not Observable,15.0,15.0,30.09,1018.9,,,,0,0,0,,,,,,,,,4/8 Partly Cloudy,72000.0,,FEW,5000.0,SCT,8900.0,SCT,20000.0,,
KRDR,08-23-2001,10:00,METAR,,360,3.0,,,9999.0,Cloud Development Not Observable,15.0,15.0,30.08,1018.7,,,,0,0,0,,,,,,,,,2/8 Mostly Clear,72000.0,,FEW,5000.0,,,,,,
KRDR,08-23-2001,09:00,METAR,,80,3.0,,,9999.0,Cloud Development Not Observable,18.0,16.0,30.06,1018.1,,,,0,0,0,,,,,,,,,2/8 Mostly Clear,72000.0,,FEW,5000.0,,,,,,
KRDR,08-23-2001,08:00,METAR,,340,4.0,,,9999.0,Cloud Development Not Observable,16.0,16.0,30.06,1018.0,,,,0,0,0,,,,,,,,,7/8 Mostly Cloudy,4400.0,,BKN,4500.0,,,,,,
KRDR,08-23-2001,07:00,METAR,,120,4.0,,,9999.0,Cloud Development Not Observable,19.0,14.0,30.05,1017.6,,,,0,0,0,,,,,,,,,7/8 Mostly Cloudy,20000.0,,SCT,4500.0,BKN,20000.0,,,,
KRDR,08-23-2001,06:00,METAR,,90,4.0,,,9999.0,Cloud Development Not Observable,20.0,14.0,30.04,1017.3,,,,0,0,0,,,,,,,,,2/8 Mostly Clear,72000.0,,FEW,20000.0,,,,,,
KRDR,08-23-2001,05:00,METAR,,90,3.0,,,9999.0,Cloud Development Not Observable,21.0,14.0,30.04,1017.3,,,,0,0,0,,,,,,,,,4/8 Partly Cloudy,72000.0,,FEW,5000.0,SCT,20000.0,,,,
KRDR,08-23-2001,04:00,METAR,,80,10.0,,,9999.0,Cloud Development Not Observable,22.0,14.0,30.03,1016.9,,,,0,0,0,,,,,,,,,4/8 Partly Cloudy,72000.0,,FEW,5000.0,SCT,20000.0,,,,
KRDR,08-23-2001,03:00,METAR,,70,8.0,,,9999.0,Cloud Development Not Observable,23.0,13.0,30.01,1016.3,,,,0,0,0,,,,,,,,,4/8 Partly Cloudy,72000.0,,FEW,8900.0,SCT,20000.0,,,,
KRDR,08-23-2001,02:00,METAR,,60,9.0,,,9999.0,Cloud Development Not Observable,24.0,14.0,29.99,1015.8,,,,0,0,0,,,,,,,,,4/8 Partly Cloudy,72000.0,,FEW,8900.0,SCT,20000.0,,,,
KRDR,08-23-2001,01:00,METAR,,60,10.0,,,9999.0,Cloud Development Not Observable,27.0,14.0,29.97,1015.1,,,,0,0,0,,,,,,,,,2/8 Mostly Clear,72000.0,,FEW,8900.0,,,,,,
KRDR,08-23-2001,00:00,METAR,,60,9.0,,,9999.0,Cloud Development Not Observable,29.0,16.0,29.97,1015.0,,,,0,0,0,,,,,,,,,2/8 Mostly Clear,72000.0,,FEW,8900.0,,,,,,
KRDR,08-22-2001,23:00,METAR,,70,8.0,,,9999.0,Cloud Development Not Observable,30.0,16.0,29.96,1014.6,,,,0,0,0,,,,,,,,,2/8 Mostly Clear,72000.0,,FEW,8900.0,FEW,20000.0,,,,
KRDR,08-22-2001,22:00,METAR,,90,8.0,,,9999.0,Cloud Development Not Observable,30.0,16.0,29.95,1014.3,,,,0,0,0,,,,,,,,,2/8 Mostly Clear,72000.0,,FEW,8900.0,FEW,20000.0,,,,
KRDR,08-22-2001,21:00,METAR,,90,9.0,,,9999.0,Cloud Development Not Observable,30.0,18.0,29.96,1014.4,,,,0,0,0,,,,,,,,,4/8 Partly Cloudy,72000.0,,FEW,8900.0,SCT,20000.0,,,,
KRDR,08-22-2001,20:00,METAR,,60,8.0,,,9999.0,Cloud Development Not Observable,30.0,20.0,29.96,1014.4,,,,0,0,0,,,,,,,,,2/8 Mostly Clear,72000.0,,FEW,8900.0,FEW,20000.0,,,,
KRDR,08-22-2001,19:00,METAR,,50,8.0,,,9999.0,Cloud Development Not Observable,28.0,21.0,29.96,1014.4,,,,0,0,0,,,,,,,,,4/8 Partly Cloudy,72000.0,,FEW,9900.0,SCT,20000.0,,,,
KRDR,08-22-2001,18:00,METAR,,,6.0,,,9999.0,Cloud Development Not Observable,27.0,23.0,29.96,1014.6,,,,0,0,0,,,,,,,,,4/8 Partly Cloudy,72000.0,,SCT,8900.0,SCT,20000.0,,,,
KRDR,08-22-2001,17:00,METAR,,,5.0,,,9999.0,Cloud Development Not Observable,26.0,23.0,29.97,1014.8,,,,0,0,0,,,,,,,,,4/8 Partly Cloudy,72000.0,,FEW,8900.0,SCT,20000.0,,,,
KRDR,08-22-2001,16:00,METAR,,,4.0,,,9999.0,Cloud Development Not Observable,24.0,22.0,29.96,1014.5,,,,0,0,0,,,,,,,,,4/8 Partly Cloudy,72000.0,,FEW,8900.0,SCT,20000.0,,,,
KRDR,08-22-2001,15:00,METAR,,,3.0,,,9999.0,Cloud Development Not Observable,22.0,22.0,29.94,1013.8,,,,0,0,0,,,,,,,,,4/8 Partly Cloudy,72000.0,,SCT,20000.0,,,,,,
KRDR,08-22-2001,14:00,METAR,,350,8.0,,,9999.0,Cloud Development Not Observable,20.0,20.0,29.93,1013.5,,,,0,0,0,,,,,,,,,7/8 Mostly Cloudy,20000.0,,FEW,9900.0,BKN,20000.0,,,,
KRDR,08-22-2001,13:00,METAR,,340,7.0,,,9999.0,Cloud Development Not Observable,18.0,18.0,29.91,1013.0,,,,0,0,0,,,,,,,,,4/8 Partly Cloudy,72000.0,,FEW,9900.0,SCT,20000.0,,,,
KRDR,08-22-2001,12:00,METAR,,340,7.0,,,9999.0,Cloud Development Not Observable,17.0,17.0,29.88,1011.9,,,,0,0,0,,,,,,,,,2/8 Mostly Clear,72000.0,,FEW,5000.0,FEW,20000.0,,,,
KRDR,08-22-2001,11:00,METAR,,360,7.0,,,9999.0,Cloud Development Not Observable,18.0,18.0,29.85,1011.0,,,,0,0,0,,,,,,,,,2/8 Mostly Clear,72000.0,,FEW,20000.0,,,,,,
KRDR,08-22-2001,10:00,METAR,,320,4.0,,,9999.0,Cloud Development Not Observable,17.0,17.0,29.82,1009.8,,,,0,0,0,,,,,,,,,Clear,72000.0,,,73000.0,,,,,,
KRDR,08-22-2001,09:00,METAR,,,3.0,,,9999.0,Cloud Development Not Observable,19.0,19.0,29.81,1009.6,,,,0,0,0,,,,,,,,,2/8 Mostly Clear,72000.0,,FEW,20000.0,,,,,,
KRDR,08-22-2001,08:00,METAR,,10,4.0,,,9999.0,Cloud Development Not Observable,20.0,20.0,29.82,1009.9,,,,0,0,0,,,,,,,,,2/8 Mostly Clear,72000.0,,FEW,20000.0,,,,,,
KRDR,08-22-2001,07:00,METAR,,340,3.0,,,9999.0,Cloud Development Not Observable,20.0,20.0,29.79,1008.9,,,,0,0,0,,,,,,,,,4/8 Partly Cloudy,72000.0,,FEW,4000.0,FEW,11000.0,SCT,20000.0,,
KRDR,08-22-2001,06:00,METAR,,340,2.0,,,9999.0,Cloud Development Not Observable,21.0,21.0,29.78,1008.5,,,,0,0,0,,,,,,,,,7/8 Mostly Cloudy,20000.0,,FEW,11000.0,BKN,20000.0,,,,
KRDR,08-22-2001,05:00,METAR,,140,5.0,,,9999.0,Cloud Development Not Observable,23.0,23.0,29.78,1008.4,,,,0,0,0,,,,,,,,,7/8 Mostly Cloudy,20000.0,,BKN,20000.0,,,,,,
KRDR,08-22-2001,04:00,METAR,,210,6.0,,,9999.0,Cloud Development Not Observable,21.0,21.0,29.79,1008.8,,,,0,0,0,,,,,,,,,7/8 Mostly Cloudy,25000.0,,BKN,25000.0,,,,,,
KRDR,08-22-2001,03:00,METAR,,260,4.0,,,9999.0,Cloud Development Not Observable,23.0,23.0,29.80,1009.1,,,,0,0,0,,,,,,,,,7/8 Mostly Cloudy,25000.0,,BKN,25000.0,,,,,,
KRDR,08-22-2001,02:00,METAR,,120,4.0,,,9999.0,Cloud Development Not Observable,25.0,24.0,29.77,1008.0,,,,0,0,0,,,,,,,,,7/8 Mostly Cloudy,25000.0,,BKN,25000.0,,,,,,
KRDR,08-22-2001,01:00,METAR,,110,4.0,,,9999.0,Cloud Development Not Observable,27.0,23.0,29.73,1006.6,,,,0,0,0,,,,,,,,,7/8 Mostly Cloudy,25000.0,,BKN,25000.0,,,,,,
KRDR,08-22-2001,00:00,METAR,,,3.0,,,9999.0,Cloud Development Not Observable,28.0,22.0,29.74,1007.0,,,,0,0,0,,,,,,,,,7/8 Mostly Cloudy,25000.0,,BKN,25000.0,,,,,,
KRDR,08-21-2001,23:00,METAR,,,2.0,,,9999.0,Cloud Development Not Observable,28.0,22.0,29.73,1006.6,,,,0,0,0,,,,,,,,,7/8 Mostly Cloudy,25000.0,,BKN,25000.0,,,,,,
KRDR,08-21-2001,22:00,METAR,,,3.0,,,9999.0,Cloud Development Not Observable,29.0,22.0,29.72,1006.3,,,,0,0,0,,,,,,,,,7/8 Mostly Cloudy,25000.0,,BKN,25000.0,,,,,,
KRDR,08-21-2001,21:00,METAR,,,5.0,,,9999.0,Cloud Development Not Observable,28.0,23.0,29.72,,,,,0,0,0,,,,,,,,,7/8 Mostly Cloudy,25000.0,,BKN,25000.0,,,,,,
KRDR,08-21-2001,20:00,METAR,,,3.0,,,9999.0,Cloud Development Not Observable,27.0,22.0,29.73,,,,,0,0,0,,,,,,,,,7/8 Mostly Cloudy,25000.0,,BKN,25000.0,,,,,,
KRDR,08-21-2001,19:00,METAR,,,4.0,,,9999.0,Cloud Development Not Observable,26.0,22.0,29.74,,,,,0,0,0,,,,,,,,,7/8 Mostly Cloudy,25000.0,,FEW,5000.0,BKN,25000.0,,,,
KRDR,08-21-2001,18:00,METAR,,200,6.0,,,9999.0,Cloud Development Not Observable,25.0,22.0,29.74,,,,,0,0,0,,,,,,,,,7/8 Mostly Cloudy,25000.0,,FEW,5000.0,BKN,25000.0,,,,
KRDR,08-21-2001,17:00,METAR,,190,7.0,,,9999.0,Cloud Development Not Observable,24.0,21.0,29.74,,,,,0,0,0,,,,,,,,,7/8 Mostly Cloudy,20000.0,,BKN,20000.0,,,,,,
KRDR,08-21-2001,16:00,METAR,,180,7.0,,,9999.0,Cloud Development Not Observable,23.0,21.0,29.74,,,,,0,0,0,,,,,,,,,8/8 Overcast,20000.0,,OVC,20000.0,,,,,,
KRDR,08-21-2001,15:00,METAR,,180,9.0,,,9999.0,Cloud Development Not Observable,22.0,21.0,29.74,,,,,0,0,0,,,,,,,,,7/8 Mostly Cloudy,20000.0,,BKN,20000.0,,,,,,
KRDR,08-21-2001,14:00,METAR,,160,13.0,,,9999.0,Cloud Development Not Observable,21.0,21.0,29.75,,,,,0,0,0,,,,,,,,,4/8 Partly Cloudy,72000.0,,SCT,20000.0,,,,,,
KRDR,08-21-2001,13:00,METAR,,170,6.0,,,9999.0,Cloud Development Not Observable,19.0,19.0,29.75,,,,,0,0,0,,,,,,,,,4/8 Partly Cloudy,72000.0,,SCT,20000.0,,,,,,
KRDR,08-21-2001,12:00,METAR,,160,7.0,,,9999.0,Cloud Development Not Observable,18.0,18.0,29.77,,,,,0,0,0,,,,,,,,,2/8 Mostly Clear,72000.0,,FEW,20000.0,,,,,,
KRDR,08-21-2001,11:00,METAR,,160,8.0,,,9999.0,Cloud Development Not Observable,18.0,18.0,29.77,,,,,0,0,0,,,,,,,,,Clear,72000.0,,,73000.0,,,,,,
KRDR,08-21-2001,10:00,METAR,,160,7.0,,,9999.0,Cloud Development Not Observable,18.0,18.0,29.79,,,,,0,0,0,,,,,,,,,Clear,72000.0,,,73000.0,,,,,,
KRDR,08-19-2001,19:00,METAR,,180,13.0,,,9999.0,Cloud Development Not Observable,25.0,17.0,30.00,,,,,0,0,0,,,,,,,,,4/8 Partly Cloudy,72000.0,,SCT,4500.0,,,,,,
KRDR,08-19-2001,18:00,METAR,,200,9.0,,,9999.0,Cloud Development Not Observable,23.0,19.0,30.01,,,,,0,0,0,,,,,,,,,7/8 Mostly Cloudy,4400.0,,SCT,2500.0,BKN,4500.0,,,,
KRDR,08-19-2001,17:00,METAR,,170,7.0,,,9999.0,Cloud Development Not Observable,22.0,20.0,30.03,,,,,0,0,0,,,,,,,,,4/8 Partly Cloudy,72000.0,,SCT,2000.0,,,,,,
KRDR,08-19-2001,16:05,SPECI,,90,1.0,,,9999.0,Cloud Development Not Observable,20.0,20.0,30.04,,,,,0,0,0,,,,,,,,,2/8 Mostly Clear,72000.0,,FEW,900.0,,,,,,
KRDR,08-18-2001,04:00,METAR,,340,9.0,,,9999.0,Cloud Development Not Observable,16.0,15.0,30.00,1016.1,,,,0,0,0,,,,,,,,,Clear,72000.0,,,73000.0,,,,,,
KRDR,08-18-2001,03:00,METAR,,350,11.0,,,9999.0,Cloud Development Not Observable,18.0,14.0,29.99,1015.7,,,,0,0,0,,,,,,,,,2/8 Mostly Clear,72000.0,,FEW,7900.0,,,,,,
KRDR,08-18-2001,02:00,METAR,,350,9.0,,,9999.0,Cloud Development Not Observable,18.0,14.0,29.96,1014.8,,,,0,0,0,,,,,,,,,2/8 Mostly Clear,72000.0,,FEW,7900.0,,,,,,
KRDR,08-18-2001,01:00,METAR,,350,11.0,,,9999.0,Cloud Development Not Observable,21.0,14.0,29.94,1014.2,,,,0,0,0,,,,,,,,,4/8 Partly Cloudy,72000.0,,FEW,5900.0,SCT,8900.0,,,,
KRDR,08-17-2001,23:55,METAR,,10,18.0,25.0,,9999.0,Cloud Development Not Observable,23.0,15.0,29.93,1013.7,,,,0,0,0,,,,,,,,,7/8 Mostly Cloudy,6000.0,,FEW,4000.0,BKN,5900.0,BKN,8900.0,,
KRDR,08-17-2001,23:00,METAR,,350,18.0,23.0,360/25KTS,9999.0,Cloud Development Not Observable,24.0,15.0,29.91,1013.1,,,,0,0,0,,,,,,,,,4/8 Partly Cloudy,72000.0,,FEW,5400.0,FEW,8900.0,SCT,20000.0,,
KRDR,08-17-2001,22:05,SPECI,,350,21.0,,,9999.0,Cloud Development Not Observable,23.0,20.0,29.90,,,,,0,0,0,,,,,,,,,7/8 Mostly Cloudy,20000.0,,FEW,5000.0,SCT,8900.0,BKN,20000.0,,
KRDR,08-17-2001,22:00,METAR,,320,8.0,,010/37KTS,9999.0,Thunderstorm/Cloud Development Not Observable,21.0,21.0,29.90,1012.9,,,,17,0,0,,,,,,,,,7/8 Mostly Cloudy,20000.0,,FEW,5000.0,SCT,8900.0,BKN,20000.0,,
KRDR,08-17-2001,21:35,SPECI,,330,10.0,,,9999.0,Thunderstorm/Cloud Development Not Observable,20.0,20.0,29.90,,,,,17,0,0,,,,,,,,,4/8 Partly Cloudy,72000.0,,FEW,5000.0,SCT,8900.0,SCT,20000.0,,
KRDR,08-17-2001,21:19,SPECI,,360,22.0,37.0,,6400.0,Thunderstorm with Rain or Snow/Rain Showers/Cloud Development Not Observable,24.0,16.0,29.90,,,,,95,81,0,,,,,,,,,8/8 Overcast,4400.0,,BKN,4500.0,OVC,9900.0,,,,
KRDR,08-17-2001,21:00,METAR,,340,22.0,28.0,,9999.0,Cloud Development Not Observable,27.0,13.0,29.88,1012.0,,,,0,0,0,,,,,,,,,7/8 Mostly Cloudy,20000.0,,FEW,5000.0,SCT,9900.0,BKN,20000.0,,
KRDR,08-17-2001,20:25,METAR,,360,15.0,,,9999.0,Cloud Development Not Observable,24.0,16.0,29.89,,,,,0,0,0,,,,,,,,,7/8 Mostly Cloudy,20000.0,,FEW,5000.0,SCT,9900.0,BKN,20000.0,,
KRDR,08-17-2001,20:17,SPECI,,360,18.0,,,9999.0,Light Rain Showers/Cloud Development Not Observable,24.0,15.0,29.88,,,,,80,0,0,,,,,,,,,7/8 Mostly Cloudy,20000.0,,SCT,5000.0,SCT,9900.0,BKN,20000.0,,
KRDR,08-17-2001,20:00,METAR,,360,19.0,,360/25KTS,9999.0,Cloud Development Not Observable,27.0,16.0,29.88,1012.0,,,,0,0,0,,,,,,,,,7/8 Mostly Cloudy,10000.0,,SCT,5900.0,BKN,9900.0,BKN,20000.0,,
KRDR,08-17-2001,19:00,METAR,,350,12.0,,,9999.0,Cloud Development Not Observable,28.0,14.0,29.87,1011.7,,,,0,0,0,,,,,,,,,4/8 Partly Cloudy,72000.0,,SCT,5900.0,SCT,9900.0,,,,
KRDR,08-17-2001,18:00,METAR,,340,13.0,,,9999.0,Cloud Development Not Observable,27.0,15.0,29.88,1012.0,,,,0,0,0,,,,,,,,,4/8 Partly Cloudy,72000.0,,FEW,5900.0,FEW,9900.0,SCT,20000.0,,
KRDR,08-17-2001,17:00,METAR,,340,9.0,,,9999.0,Cloud Development Not Observable,26.0,14.0,29.87,1011.8,,,,0,0,0,,,,,,,,,2/8 Mostly Clear,72000.0,,FEW,8900.0,FEW,20000.0,,,,
KRDR,08-17-2001,16:00,METAR,,310,10.0,,,9999.0,Cloud Development Not Observable,24.0,14.0,29.88,1012.0,,,,0,0,0,,,,,,,,,2/8 Mostly Clear,72000.0,,FEW,8900.0,FEW,20000.0,,,,
KRDR,08-17-2001,15:00,METAR,,280,8.0,,,9999.0,Cloud Development Not Observable,22.0,16.0,29.88,1012.0,,,,0,0,0,,,,,,,,,4/8 Partly Cloudy,72000.0,,SCT,8900.0,,,,,,
KRDR,08-17-2001,14:00,METAR,,260,6.0,,,9999.0,Cloud Development Not Observable,19.0,16.0,29.89,1012.3,,,,0,0,0,,,,,,,,,7/8 Mostly Cloudy,9000.0,,BKN,8900.0,,,,,,
KRDR,08-17-2001,13:00,METAR,,240,6.0,,,9999.0,Cloud Development Not Observable,18.0,16.0,29.90,1012.6,,,,0,0,0,,,,,,,,,7/8 Mostly Cloudy,9000.0,,BKN,8900.0,,,,,,
KRDR,08-17-2001,12:00,METAR,,240,5.0,,,9999.0,Cloud Development Not Observable,15.0,14.0,29.90,1012.6,,,,0,0,0,,,,,,,,,4/8 Partly Cloudy,72000.0,,SCT,8900.0,,,,,,
KRDR,08-17-2001,11:00,METAR,,230,5.0,,,9999.0,Cloud Development Not Observable,15.0,15.0,29.91,1012.9,,,,0,0,0,,,,,,,,,2/8 Mostly Clear,72000.0,,FEW,7900.0,,,,,,
KRDR,08-17-2001,10:00,METAR,,220,7.0,,,9999.0,Cloud Development Not Observable,16.0,15.0,29.91,1013.0,,,,0,0,0,,,,,,,,,2/8 Mostly Clear,72000.0,,FEW,7900.0,,,,,,
KRDR,08-17-2001,09:00,METAR,,220,8.0,,,9999.0,Cloud Development Not Observable,16.0,15.0,29.92,1013.4,,,,0,0,0,,,,,,,,,Clear,72000.0,,,73000.0,,,,,,
KRDR,08-17-2001,08:00,METAR,,220,9.0,,,9999.0,Cloud Development Not Observable,16.0,15.0,29.93,1013.8,,,,0,0,0,,,,,,,,,Clear,72000.0,,,73000.0,,,,,,
KRDR,08-17-2001,07:00,METAR,,220,7.0,,,9999.0,Cloud Development Not Observable,16.0,15.0,29.94,1014.0,,,,0,0,0,,,,,,,,,Clear,72000.0,,,73000.0,,,,,,
KRDR,08-17-2001,06:00,METAR,,220,7.0,,,9999.0,Cloud Development Not Observable,15.0,15.0,29.95,1014.4,,,,0,0,0,,,,,,,,,Clear,72000.0,,,73000.0,,,,,,
KRDR,08-17-2001,05:00,METAR,,220,6.0,,,9999.0,Cloud Development Not Observable,16.0,15.0,29.94,1014.2,,,,0,0,0,,,,,,,,,Clear,72000.0,,,73000.0,,,,,,
KRDR,08-17-2001,04:00,METAR,,220,7.0,,,9999.0,Cloud Development Not Observable,17.0,16.0,29.95,1014.5,,,,0,0,0,,,,,,,,,Clear,72000.0,,,73000.0,,,,,,
KRDR,08-17-2001,03:00,METAR,,230,7.0,,,9999.0,Cloud Development Not Observable,18.0,16.0,29.95,1014.6,,,,0,0,0,,,,,,,,,2/8 Mostly Clear,72000.0,,FEW,7900.0,,,,,,
KRDR,08-17-2001,02:00,METAR,,230,5.0,,,9999.0,Cloud Development Not Observable,20.0,16.0,29.95,1014.4,,,,0,0,0,,,,,,,,,2/8 Mostly Clear,72000.0,,FEW,7900.0,FEW,20000.0,,,,
KRDR,08-17-2001,01:00,METAR,,240,6.0,,,9999.0,Cloud Development Not Observable,23.0,14.0,29.95,1014.4,,,,0,0,0,,,,,,,,,2/8 Mostly Clear,72000.0,,FEW,7400.0,,,,,,
KRDR,08-17-2001,00:00,METAR,,250,9.0,,,9999.0,Cloud Development Not Observable,25.0,13.0,29.96,1014.8,,,,0,0,0,,,,,,,,,2/8 Mostly Clear,72000.0,,FEW,7400.0,,,,,,
KRDR,08-16-2001,23:00,METAR,,270,5.0,,,9999.0,Cloud Development Not Observable,26.0,13.0,29.97,1015.1,,,,0,0,0,,,,,,,,,7/8 Mostly Cloudy,7500.0,,FEW,5400.0,BKN,7400.0,,,,
KRDR,08-16-2001,22:00,METAR,,290,10.0,,,9999.0,Cloud Development Not Observable,27.0,14.0,29.98,1015.4,,,,0,0,0,,,,,,,,,7/8 Mostly Cloudy,7500.0,,SCT,5400.0,BKN,7400.0,,,,
KRDR,08-16-2001,21:00,METAR,,280,10.0,,,9999.0,Cloud Development Not Observable,25.0,10.0,29.99,1015.8,,,,0,0,0,,,,,,,,,4/8 Partly Cloudy,72000.0,,SCT,5400.0,,,,,,
KRDR,08-16-2001,20:00,METAR,,10,8.0,,,9999.0,Cloud Development Not Observable,24.0,12.0,30.00,1016.4,,,,0,0,0,,,,,,,,,4/8 Partly Cloudy,72000.0,,SCT,5000.0,,,,,,
KRDR,08-16-2001,19:00,METAR,,280,6.0,,,9999.0,Cloud Development Not Observable,22.0,14.0,30.02,1016.9,,,,0,0,0,,,,,,,,,4/8 Partly Cloudy,72000.0,,SCT,5000.0,,,,,,
KRDR,08-16-2001,18:00,METAR,,350,9.0,,,9999.0,Cloud Development Not Observable,22.0,11.0,30.03,1017.2,,,,0,0,0,,,,,,,,,4/8 Partly Cloudy,72000.0,,SCT,5000.0,,,,,,
KRDR,08-16-2001,17:00,METAR,,360,8.0,,,9999.0,Cloud Development Not Observable,22.0,12.0,30.03,1017.4,,,,0,0,0,,,,,,,,,2/8 Mostly Clear,72000.0,,FEW,3000.0,,,,,,
KRDR,08-16-2001,16:00,METAR,,320,9.0,,,9999.0,Cloud Development Not Observable,21.0,13.0,30.04,1017.5,,,,0,0,0,,,,,,,,,2/8 Mostly Clear,72000.0,,FEW,2200.0,,,,,,
KRDR,08-16-2001,15:00,METAR,,330,9.0,,,9999.0,Cloud Development Not Observable,18.0,13.0,30.04,1017.6,,,,0,0,0,,,,,,,,,Clear,72000.0,,,73000.0,,,,,,
KRDR,08-16-2001,14:00,METAR,,330,10.0,,,9999.0,Cloud Development Not Observable,17.0,12.0,30.04,1017.6,,,,0,0,0,,,,,,,,,Clear,72000.0,,,73000.0,,,,,,
KRDR,08-16-2001,13:00,METAR,,300,9.0,,,9999.0,Cloud Development Not Observable,14.0,12.0,30.02,1017.1,,,,0,0,0,,,,,,,,,Clear,72000.0,,,73000.0,,,,,,
KRDR,08-16-2001,12:00,METAR,,290,7.0,,,9999.0,Cloud Development Not Observable,12.0,12.0,30.01,1016.8,,,,0,0,0,,,,,,,,,Clear,72000.0,,,73000.0,,,,,,
KRDR,08-16-2001,11:00,METAR,,310,7.0,,,9999.0,Cloud Development Not Observable,12.0,10.0,30.00,1016.2,,,,0,0,0,,,,,,,,,Clear,72000.0,,,73000.0,,,,,,
KRDR,08-16-2001,10:00,METAR,,310,9.0,,,9999.0,Cloud Development Not Observable,13.0,11.0,29.99,1016.6,,,,0,0,0,,,,,,,,,Clear,72000.0,,,73000.0,,,,,,
KRDR,08-16-2001,09:00,METAR,,300,9.0,,,9999.0,Cloud Development Not Observable,13.0,11.0,29.99,1015.7,,,,0,0,0,,,,,,,,,Clear,72000.0,,,73000.0,,,,,,
KRDR,08-16-2001,08:00,METAR,,310,8.0,,,9999.0,Cloud Development Not Observable,13.0,12.0,29.98,1015.5,,,,0,0,0,,,,,,,,,Clear,72000.0,,,73000.0,,,,,,
KRDR,08-16-2001,07:00,METAR,,300,10.0,,,9999.0,Cloud Development Not Observable,14.0,12.0,29.97,1015.3,,,,0,0,0,,,,,,,,,Clear,72000.0,,,73000.0,,,,,,
KRDR,08-16-2001,06:00,METAR,,310,9.0,,,9999.0,Cloud Development Not Observable,14.0,12.0,29.97,1015.1,,,,0,0,0,,,,,,,,,Clear,72000.0,,,73000.0,,,,,,
KRDR,08-16-2001,05:00,METAR,,310,8.0,,,9999.0,Cloud Development Not Observable,15.0,12.0,29.96,1014.8,,,,0,0,0,,,,,,,,,2/8 Mostly Clear,72000.0,,FEW,7900.0,,,,,,
KRDR,08-16-2001,04:00,METAR,,320,9.0,,,9999.0,Cloud Development Not Observable,17.0,14.0,29.96,1014.7,,,,0,0,0,,,,,,,,,2/8 Mostly Clear,72000.0,,FEW,7900.0,,,,,,
KRDR,08-16-2001,03:00,METAR,,330,10.0,,,9999.0,Cloud Development Not Observable,17.0,14.0,29.95,1014.4,,,,0,0,0,,,,,,,,,4/8 Partly Cloudy,72000.0,,SCT,7900.0,,,,,,
KRDR,08-16-2001,02:00,METAR,,330,12.0,,,9999.0,Cloud Development Not Observable,18.0,12.0,29.93,,,,,0,0,0,,,,,,,,,2/8 Mostly Clear,72000.0,,FEW,4000.0,FEW,7900.0,,,,
KRDR,08-16-2001,01:00,METAR,,340,16.0,,340/29KTS,9999.0,Cloud Development Not Observable,20.0,14.0,29.90,1012.8,,,,0,0,0,,,,,,,,,7/8 Mostly Cloudy,8000.0,,FEW,4000.0,BKN,7900.0,,,,
KRDR,08-16-2001,00:00,METAR,,340,21.0,,340/31KTS,9999.0,Cloud Development Not Observable,21.0,14.0,29.89,1012.3,,,,0,0,0,,,,,,,,,4/8 Partly Cloudy,72000.0,,FEW,4000.0,SCT,7900.0,,,,
KRDR,08-15-2001,23:00,METAR,,330,24.0,29.0,,9999.0,Cloud Development Not Observable,22.0,14.0,29.87,1011.7,,,,0,0,0,,,,,,,,,4/8 Partly Cloudy,72000.0,,FEW,4000.0,SCT,7900.0,,,,
KRDR,08-15-2001,22:00,METAR,,340,20.0,29.0,,9999.0,Cloud Development Not Observable,,,29.86,1012.1,,,,0,0,0,,,,,,,,,4/8 Partly Cloudy,72000.0,,FEW,4000.0,SCT,7900.0,,,,
KRDR,08-15-2001,21:00,METAR,,310,19.0,25.0,,9999.0,Cloud Development Not Observable,23.0,15.0,29.85,,,,,0,0,0,,,,,,,,,7/8 Mostly Cloudy,3900.0,,BKN,4000.0,BKN,7900.0,,,,
KRDR,08-15-2001,20:00,METAR,,330,19.0,,350/25KTS,9999.0,Cloud Development Not Observable,23.0,15.0,29.84,1010.6,,,,0,0,0,,,,,,,,,7/8 Mostly Cloudy,7000.0,,SCT,4000.0,BKN,6900.0,,,,
KRDR,08-15-2001,19:00,METAR,,320,13.0,,,9999.0,Cloud Development Not Observable,22.0,16.0,29.83,1010.3,,,,0,0,0,,,,,,,,,7/8 Mostly Cloudy,3900.0,,BKN,4000.0,BKN,9900.0,,,,
KRDR,08-15-2001,18:00,METAR,,340,15.0,,,9999.0,Cloud Development Not Observable,23.0,18.0,29.83,1010.2,,,,0,0,0,,,,,,,,,7/8 Mostly Cloudy,3400.0,,FEW,2500.0,BKN,3500.0,,,,
KRDR,08-15-2001,17:00,METAR,,350,16.0,,,9999.0,Cloud Development Not Observable,22.0,18.0,29.82,1010.1,,,,0,0,0,,,,,,,,,7/8 Mostly Cloudy,3400.0,,FEW,2500.0,BKN,3500.0,BKN,9900.0,,
KRDR,08-15-2001,16:00,METAR,,340,15.0,,,9999.0,Cloud Development Not Observable,21.0,16.0,29.81,1009.8,,,,0,0,0,,,,,,,,,8/8 Overcast,3400.0,,FEW,2000.0,BKN,3500.0,OVC,9900.0,,
KRDR,08-15-2001,15:00,METAR,,340,15.0,,,9999.0,Cloud Development Not Observable,21.0,16.0,29.79,1008.9,,,,0,0,0,,,,,,,,,4/8 Partly Cloudy,72000.0,,FEW,4000.0,FEW,9900.0,SCT,20000.0,,
KRDR,08-15-2001,13:00,METAR,,290,13.0,,,9999.0,Cloud Development Not Observable,19.0,17.0,29.75,1007.5,,,,0,0,0,,,,,,,,,7/8 Mostly Cloudy,10000.0,,BKN,9900.0,,,,,,
KRDR,08-15-2001,12:00,METAR,,250,4.0,,,9999.0,Cloud Development Not Observable,18.0,18.0,29.74,1007.1,,,,0,0,0,,,,,,,,,4/8 Partly Cloudy,72000.0,,SCT,12000.0,,,,,,
KRDR,08-15-2001,11:00,METAR,,270,9.0,,,9999.0,Cloud Development Not Observable,17.0,17.0,29.74,1007.2,,,,0,0,0,,,,,,,,,4/8 Partly Cloudy,72000.0,,SCT,12000.0,,,,,,
KRDR,08-15-2001,10:00,METAR,,,2.0,,,9999.0,Cloud Development Not Observable,17.0,17.0,29.73,1006.6,,,,0,0,0,,,,,,,,,2/8 Mostly Clear,72000.0,,FEW,12000.0,FEW,20000.0,,,,
KRDR,08-15-2001,09:00,METAR,,,2.0,,,9999.0,Cloud Development Not Observable,17.0,17.0,29.73,1006.6,,,,0,0,0,,,,,,,,,4/8 Partly Cloudy,72000.0,,SCT,12000.0,SCT,20000.0,,,,
KRDR,08-15-2001,08:00,METAR,,230,4.0,,,9999.0,Cloud Development Not Observable,18.0,18.0,29.74,1006.9,,,,0,0,0,,,,,,,,,7/8 Mostly Cloudy,20000.0,,SCT,12000.0,BKN,20000.0,,,,
KRDR,08-15-2001,07:00,METAR,,280,3.0,,,9999.0,Cloud Development Not Observable,18.0,18.0,29.73,1006.7,,,,0,0,0,,,,,,,,,8/8 Overcast,12000.0,,BKN,12000.0,OVC,20000.0,,,,
KRDR,08-15-2001,06:00,METAR,,330,5.0,,,9999.0,Cloud Development Not Observable,19.0,19.0,29.76,1007.8,,,,0,0,0,,,,,,,,,8/8 Overcast,12000.0,,FEW,5900.0,BKN,12000.0,OVC,20000.0,,
KRDR,08-15-2001,05:13,SPECI,,,5.0,,,9999.0,Cloud Development Not Observable,21.0,19.0,29.75,,,,,0,0,0,,,,,,,,,8/8 Overcast,12000.0,,SCT,5900.0,BKN,12000.0,OVC,20000.0,,
KRDR,08-15-2001,05:00,METAR,,,5.0,,,9999.0,Thunderstorm/Cloud Development Not Observable,21.0,19.0,29.76,1007.6,,,,17,0,0,,,,,,,,,8/8 Overcast,12000.0,,SCT,5900.0,BKN,12000.0,OVC,20000.0,,
KRDR,08-15-2001,04:17,SPECI,,160,5.0,,,9999.0,Thunderstorm/Cloud Development Not Observable,20.0,20.0,29.77,,,,,17,0,0,,,,,,,,,8/8 Overcast,12000.0,,FEW,3500.0,SCT,5900.0,BKN,12000.0,OVC,20000.0
KRDR,08-15-2001,04:00,METAR,,250,10.0,26.0,,4800.0,Thunderstorm with Rain or Snow/Rain Showers/Cloud Development Not Observable,20.0,20.0,29.77,1008.2,,,,95,81,0,,,,,,,,,8/8 Overcast,12000.0,,SCT,5900.0,BKN,12000.0,OVC,20000.0,,
KRDR,08-15-2001,03:38,SPECI,,330,13.0,,,9999.0,Thunderstorm with Rain or Snow/Light Rain Showers/Cloud Development Not Observable,20.0,18.0,29.78,,,,,95,80,0,,,,,,,,,8/8 Overcast,12000.0,,SCT,5900.0,BKN,12000.0,OVC,20000.0,,
KRDR,08-15-2001,03:12,SPECI,,60,4.0,,,9999.0,Cloud Development Not Observable,20.0,18.0,29.71,,,,,0,0,0,,,,,,,,,8/8 Overcast,12000.0,,FEW,5900.0,BKN,12000.0,OVC,20000.0,,
KRDR,08-15-2001,03:00,METAR,,360,5.0,,,9999.0,Cloud Development Not Observable,20.0,18.0,29.74,1007.3,,,,0,0,0,,,,,,,,,8/8 Overcast,12000.0,,FEW,5900.0,BKN,12000.0,OVC,20000.0,,
KRDR,08-15-2001,02:30,METAR,,,2.0,,,9999.0,Cloud Development Not Observable,20.0,18.0,29.74,,,,,0,0,0,,,,,,,,,8/8 Overcast,12000.0,,FEW,5900.0,BKN,12000.0,OVC,20000.0,,
KRDR,08-15-2001,02:00,METAR,,170,7.0,,,9999.0,Light Rain Showers/Cloud Development Not Observable,20.0,18.0,29.74,1007.4,,,,80,0,0,,,,,,,,,8/8 Overcast,12000.0,,FEW,5900.0,BKN,12000.0,OVC,20000.0,,
KRDR,08-15-2001,01:00,METAR,,150,9.0,,,9999.0,Cloud Development Not Observable,19.0,17.0,29.74,1007.5,,,,0,0,0,,,,,,,,,8/8 Overcast,12000.0,,FEW,5900.0,BKN,12000.0,OVC,20000.0,,
KRDR,08-15-2001,00:00,METAR,,130,8.0,,,9999.0,Cloud Development Not Observable,22.0,18.0,29.76,1008.0,,,,0,0,0,,,,,,,,,7/8 Mostly Cloudy,20000.0,,SCT,5900.0,SCT,12000.0,BKN,20000.0,,
KRDR,08-14-2001,23:22,SPECI,,,6.0,,,9999.0,Cloud Development Not Observable,23.0,18.0,29.72,,,,,0,0,0,,,,,,,,,7/8 Mostly Cloudy,20000.0,,SCT,5900.0,SCT,12000.0,BKN,20000.0,,
KRDR,08-14-2001,23:00,METAR,,10,10.0,,,9999.0,Thunderstorm with Rain or Snow/Light Rain Showers/Cloud Development Not Observable,21.0,19.0,29.77,1008.5,,,,95,80,0,,,,,,,,,8/8 Overcast,6000.0,,BKN,5900.0,BKN,12000.0,OVC,20000.0,,
KRDR,08-14-2001,22:33,SPECI,,330,17.0,,,4800.0,Thunderstorm with Rain or Snow/Light Rain Showers/Cloud Development Not Observable,22.0,19.0,29.80,,,,,95,80,0,,,,,,,,,8/8 Overcast,6000.0,,BKN,5900.0,BKN,12000.0,OVC,20000.0,,
KRDR,08-14-2001,22:00,METAR,,270,7.0,,,9999.0,Thunderstorm/Cloud Development Not Observable,30.0,21.0,29.76,1007.9,,,,17,0,0,,,,,,,,,7/8 Mostly Cloudy,12000.0,,SCT,5900.0,BKN,12000.0,BKN,20000.0,,
KRDR,08-14-2001,21:00,METAR,,250,13.0,,,9999.0,Cloud Development Not Observable,32.0,21.0,29.77,1008.1,,,,0,0,0,,,,,,,,,7/8 Mostly Cloudy,12000.0,,SCT,5900.0,BKN,12000.0,BKN,20000.0,,
KRDR,08-14-2001,20:00,METAR,,190,15.0,,,9999.0,Cloud Development Not Observable,31.0,20.0,29.78,1008.3,,,,0,0,0,,,,,,,,,7/8 Mostly Cloudy,20000.0,,FEW,5900.0,SCT,12000.0,BKN,20000.0,,
KRDR,08-14-2001,19:00,METAR,,200,8.0,,,9999.0,Cloud Development Not Observable,31.0,21.0,29.80,1009.0,,,,0,0,0,,,,,,,,,7/8 Mostly Cloudy,20000.0,,SCT,12000.0,BKN,20000.0,,,,
KRDR,08-14-2001,18:00,METAR,,190,9.0,,,9999.0,Cloud Development Not Observable,30.0,20.0,29.82,1009.7,,,,0,0,0,,,,,,,,,7/8 Mostly Cloudy,20000.0,,SCT,12000.0,BKN,20000.0,,,,
KRDR,08-14-2001,17:00,METAR,,200,12.0,,,9999.0,Cloud Development Not Observable,28.0,19.0,29.83,1010.1,,,,0,0,0,,,,,,,,,7/8 Mostly Cloudy,20000.0,,FEW,12000.0,BKN,20000.0,,,,
KRDR,08-14-2001,16:00,METAR,,210,8.0,,,9999.0,Cloud Development Not Observable,25.0,18.0,29.85,1011.0,,,,0,0,0,,,,,,,,,7/8 Mostly Cloudy,20000.0,,FEW,12000.0,BKN,20000.0,,,,
KRDR,08-14-2001,15:00,METAR,,200,9.0,,,9999.0,Cloud Development Not Observable,21.0,16.0,29.87,1011.9,,,,0,0,0,,,,,,,,,7/8 Mostly Cloudy,20000.0,,FEW,12000.0,BKN,20000.0,,,,
KRDR,08-14-2001,14:00,METAR,,160,7.0,,,9999.0,Cloud Development Not Observable,18.0,14.0,29.90,1012.6,,,,0,0,0,,,,,,,,,7/8 Mostly Cloudy,20000.0,,FEW,12000.0,BKN,20000.0,,,,
KRDR,08-14-2001,13:00,METAR,,150,7.0,,,9999.0,Cloud Development Not Observable,15.0,14.0,29.93,1013.7,,,,0,0,0,,,,,,,,,4/8 Partly Cloudy,72000.0,,FEW,12000.0,SCT,20000.0,,,,
KRDR,08-14-2001,12:00,METAR,,140,5.0,,,9999.0,Cloud Development Not Observable,14.0,13.0,29.93,1013.8,,,,0,0,0,,,,,,,,,,72000.0,,FEW,20000.0,,,,,,
KRDR,08-14-2001,11:00,METAR,,170,6.0,,,9999.0,Cloud Development Not Observable,15.0,14.0,29.94,1014.0,,,,0,0,0,,,,,,,,,7/8 Mostly Cloudy,20000.0,,SCT,12000.0,BKN,20000.0,,,,
KRDR,08-14-2001,10:00,METAR,,180,7.0,,,9999.0,Cloud Development Not Observable,15.0,14.0,29.96,1014.6,,,,0,0,0,,,,,,,,,7/8 Mostly Cloudy,20000.0,,FEW,12000.0,BKN,20000.0,,,,
KRDR,08-14-2001,09:00,METAR,,160,7.0,,,9999.0,Cloud Development Not Observable,16.0,13.0,29.96,1015.6,,,,0,0,0,,,,,,,,,4/8 Partly Cloudy,72000.0,,SCT,20000.0,,,,,,
KRDR,08-14-2001,08:00,METAR,,180,9.0,,,9999.0,Cloud Development Not Observable,17.0,14.0,29.97,1015.1,,,,0,0,0,,,,,,,,,2/8 Mostly Clear,72000.0,,FEW,20000.0,,,,,,
KRDR,08-14-2001,07:00,METAR,,170,10.0,,,9999.0,Cloud Development Not Observable,18.0,13.0,29.99,1015.7,,,,0,0,0,,,,,,,,,2/8 Mostly Clear,72000.0,,FEW,20000.0,,,,,,
KRDR,08-14-2001,06:00,METAR,,160,10.0,,,9999.0,Cloud Development Not Observable,18.0,13.0,30.01,1016.6,,,,0,0,0,,,,,,,,,2/8 Mostly Clear,72000.0,,FEW,20000.0,,,,,,
KRDR,08-14-2001,05:00,METAR,,170,9.0,,,9999.0,Cloud Development Not Observable,18.0,13.0,30.03,1017.3,,,,0,0,0,,,,,,,,,Clear,72000.0,,,73000.0,,,,,,
KRDR,08-14-2001,04:00,METAR,,160,9.0,,,9999.0,Cloud Development Not Observable,19.0,13.0,30.05,1017.8,,,,0,0,0,,,,,,,,,2/8 Mostly Clear,72000.0,,FEW,20000.0,,,,,,
KRDR,08-14-2001,03:00,METAR,,150,9.0,,,9999.0,Cloud Development Not Observable,20.0,13.0,30.05,1018.0,,,,0,0,0,,,,,,,,,2/8 Mostly Clear,72000.0,,FEW,20000.0,,,,,,
KRDR,08-14-2001,02:00,METAR,,150,9.0,,,9999.0,Cloud Development Not Observable,22.0,14.0,30.06,1018.3,,,,0,0,0,,,,,,,,,2/8 Mostly Clear,72000.0,,FEW,20000.0,,,,,,
KRDR,08-14-2001,01:00,METAR,,150,9.0,,,9999.0,Cloud Development Not Observable,24.0,14.0,30.09,1019.2,,,,0,0,0,,,,,,,,,2/8 Mostly Clear,72000.0,,FEW,20000.0,,,,,,
KRDR,08-14-2001,00:00,METAR,,180,10.0,,,9999.0,Cloud Development Not Observable,25.0,15.0,30.11,1019.9,,,,0,0,0,,,,,,,,,2/8 Mostly Clear,72000.0,,FEW,20000.0,,,,,,
KRDR,08-13-2001,23:00,METAR,,190,12.0,,,9999.0,Cloud Development Not Observable,26.0,17.0,30.12,1020.4,,,,0,0,0,,,,,,,,,2/8 Mostly Clear,72000.0,,FEW,20000.0,,,,,,
KRDR,08-13-2001,22:00,METAR,,180,13.0,,,9999.0,Cloud Development Not Observable,27.0,15.0,30.14,1021.0,,,,0,0,0,,,,,,,,,2/8 Mostly Clear,72000.0,,FEW,20000.0,,,,,,
KRDR,08-13-2001,21:00,METAR,,200,12.0,,,9999.0,Cloud Development Not Observable,27.0,14.0,30.17,1022.0,,,,0,0,0,,,,,,,,,2/8 Mostly Clear,72000.0,,FEW,12000.0,FEW,20000.0,,,,
KRDR,08-13-2001,20:00,METAR,,180,12.0,,,9999.0,Cloud Development Not Observable,25.0,14.0,30.18,1022.5,,,,0,0,0,,,,,,,,,2/8 Mostly Clear,72000.0,,FEW,7900.0,FEW,20000.0,,,,
KRDR,08-13-2001,19:00,METAR,,190,12.0,,,9999.0,Cloud Development Not Observable,24.0,13.0,30.21,1023.6,,,,0,0,0,,,,,,,,,2/8 Mostly Clear,72000.0,,FEW,7900.0,FEW,20000.0,,,,
KRDR,08-13-2001,18:00,METAR,,180,9.0,,,9999.0,Cloud Development Not Observable,23.0,12.0,30.23,1024.3,,,,0,0,0,,,,,,,,,4/8 Partly Cloudy,72000.0,,SCT,7900.0,SCT,20000.0,,,,
KRDR,08-13-2001,17:00,METAR,,190,13.0,,,9999.0,Cloud Development Not Observable,22.0,12.0,30.25,1025.1,,,,0,0,0,,,,,,,,,4/8 Partly Cloudy,72000.0,,SCT,7900.0,SCT,20000.0,,,,
KRDR,08-13-2001,16:00,METAR,,190,10.0,,,9999.0,Cloud Development Not Observable,21.0,13.0,30.28,1025.8,,,,0,0,0,,,,,,,,,4/8 Partly Cloudy,72000.0,,FEW,7900.0,SCT,20000.0,,,,
KRDR,08-13-2001,15:00,METAR,,190,9.0,,,9999.0,Cloud Development Not Observable,20.0,12.0,30.30,1026.4,,,,0,0,0,,,,,,,,,4/8 Partly Cloudy,72000.0,,FEW,7900.0,SCT,20000.0,,,,
KRDR,08-13-2001,14:00,METAR,,190,8.0,,,9999.0,Cloud Development Not Observable,17.0,13.0,30.31,1026.7,,,,0,0,0,,,,,,,,,2/8 Mostly Clear,72000.0,,FEW,9900.0,FEW,20000.0,,,,
KRDR,08-13-2001,13:00,METAR,,230,4.0,,,9999.0,Cloud Development Not Observable,13.0,13.0,30.31,1026.8,,,,0,0,0,,,,,,,,,2/8 Mostly Clear,72000.0,,FEW,6400.0,FEW,20000.0,,,,
KRDR,08-13-2001,12:00,METAR,,200,4.0,,,9999.0,Cloud Development Not Observable,9.0,9.0,30.30,1026.5,,,,0,0,0,,,,,,,,,2/8 Mostly Clear,72000.0,,FEW,5900.0,FEW,20000.0,,,,
KRDR,08-13-2001,11:00,METAR,,220,4.0,,,9999.0,Cloud Development Not Observable,8.0,8.0,30.29,1026.3,,,,0,0,0,,,,,,,,,2/8 Mostly Clear,72000.0,,FEW,5900.0,FEW,20000.0,,,,
KRDR,08-13-2001,10:00,METAR,,220,3.0,,,9999.0,Cloud Development Not Observable,8.0,8.0,30.30,1026.5,,,,0,0,0,,,,,,,,,Clear,72000.0,,,73000.0,,,,,,
KRDR,08-13-2001,09:00,METAR,,240,3.0,,,9999.0,Cloud Development Not Observable,8.0,8.0,30.29,1026.3,,,,0,0,0,,,,,,,,,Clear,72000.0,,,73000.0,,,,,,
KRDR,08-13-2001,08:00,METAR,,250,4.0,,,9999.0,Cloud Development Not Observable,9.0,9.0,30.28,1026.0,,,,0,0,0,,,,,,,,,Clear,72000.0,,,73000.0,,,,,,
KRDR,08-13-2001,07:00,METAR,,250,1.0,,,9999.0,Cloud Development Not Observable,10.0,10.0,30.28,1025.9,,,,0,0,0,,,,,,,,,Clear,72000.0,,,73000.0,,,,,,
KRDR,08-13-2001,06:00,METAR,,260,3.0,,,9999.0,Cloud Development Not Observable,11.0,11.0,30.28,1026.0,,,,0,0,0,,,,,,,,,Clear,72000.0,,,73000.0,,,,,,
KRDR,08-13-2001,05:00,METAR,,260,4.0,,,9999.0,Cloud Development Not Observable,11.0,11.0,30.28,1025.8,,,,0,0,0,,,,,,,,,Clear,72000.0,,,73000.0,,,,,,
KRDR,08-13-2001,04:00,METAR,,250,4.0,,,9999.0,Cloud Development Not Observable,12.0,12.0,30.28,1025.8,,,,0,0,0,,,,,,,,,2/8 Mostly Clear,72000.0,,FEW,20000.0,,,,,,
KRDR,08-13-2001,02:00,METAR,,340,3.0,,,9999.0,Cloud Development Not Observable,17.0,17.0,30.24,1024.7,,,,0,0,0,,,,,,,,,2/8 Mostly Clear,72000.0,,FEW,20000.0,,,,,,
KRDR,08-13-2001,01:00,METAR,,30,7.0,,,9999.0,Cloud Development Not Observable,20.0,9.0,30.24,1024.5,,,,0,0,0,,,,,,,,,2/8 Mostly Clear,72000.0,,FEW,5400.0,FEW,20000.0,,,,
KRDR,08-13-2001,00:00,METAR,,360,10.0,,,9999.0,Cloud Development Not Observable,22.0,9.0,30.24,1024.5,,,,0,0,0,,,,,,,,,2/8 Mostly Clear,72000.0,,FEW,5400.0,FEW,20000.0,,,,
KRDR,08-12-2001,23:00,METAR,,360,8.0,,,9999.0,Cloud Development Not Observable,22.0,8.0,30.24,1024.6,,,,0,0,0,,,,,,,,,2/8 Mostly Clear,72000.0,,FEW,5400.0,,,,,,
KRDR,08-12-2001,22:00,METAR,,340,12.0,,,9999.0,Cloud Development Not Observable,22.0,8.0,30.25,1024.8,,,,0,0,0,,,,,,,,,2/8 Mostly Clear,72000.0,,FEW,5400.0,,,,,,
KRDR,08-12-2001,21:00,METAR,,360,12.0,,,9999.0,Cloud Development Not Observable,22.0,9.0,30.24,1024.5,,,,0,0,0,,,,,,,,,2/8 Mostly Clear,72000.0,,FEW,4500.0,,,,,,
KRDR,08-12-2001,20:00,METAR,,20,12.0,19.0,,9999.0,Cloud Development Not Observable,22.0,9.0,30.23,1024.2,,,,0,0,0,,,,,,,,,2/8 Mostly Clear,72000.0,,FEW,4500.0,,,,,,
KRDR,08-12-2001,19:00,METAR,,330,14.0,,,9999.0,Cloud Development Not Observable,21.0,9.0,30.24,1024.4,,,,0,0,0,,,,,,,,,2/8 Mostly Clear,72000.0,,FEW,4500.0,,,,,,
KRDR,08-12-2001,18:00,METAR,,350,12.0,,,9999.0,Cloud Development Not Observable,20.0,9.0,30.24,1024.4,,,,0,0,0,,,,,,,,,2/8 Mostly Clear,72000.0,,FEW,4000.0,,,,,,
KRDR,08-12-2001,17:00,METAR,,360,9.0,,,9999.0,Cloud Development Not Observable,19.0,12.0,30.23,1024.2,,,,0,0,0,,,,,,,,,2/8 Mostly Clear,72000.0,,FEW,2500.0,,,,,,
KRDR,08-12-2001,16:00,METAR,,350,11.0,,,9999.0,Cloud Development Not Observable,18.0,12.0,30.23,1024.1,,,,0,0,0,,,,,,,,,4/8 Partly Cloudy,72000.0,,SCT,2500.0,,,,,,
KRDR,08-12-2001,15:00,METAR,,340,7.0,,,9999.0,Cloud Development Not Observable,17.0,16.0,30.22,1023.8,,,,0,0,0,,,,,,,,,2/8 Mostly Clear,72000.0,,FEW,1000.0,,,,,,
KRDR,08-12-2001,12:00,METAR,,320,6.0,,,9999.0,Cloud Development Not Observable,11.0,11.0,30.16,1021.5,,,,0,0,0,,,,,,,,,2/8 Mostly Clear,72000.0,,FEW,12000.0,,,,,,
KRDR,08-12-2001,09:00,METAR,,340,7.0,,,9999.0,Cloud Development Not Observable,13.0,13.0,30.10,1019.3,,,,0,0,0,,,,,,,,,2/8 Mostly Clear,72000.0,,FEW,9900.0,,,,,,
KRDR,08-12-2001,08:00,METAR,,360,8.0,,,9999.0,Cloud Development Not Observable,14.0,14.0,30.06,1018.3,,,,0,0,0,,,,,,,,,Clear,72000.0,,,73000.0,,,,,,
KRDR,08-12-2001,07:00,METAR,,360,9.0,,,9999.0,Cloud Development Not Observable,15.0,15.0,30.04,1017.6,,,,0,0,0,,,,,,,,,Clear,72000.0,,,73000.0,,,,,,
KRDR,08-12-2001,06:00,METAR,,360,9.0,,,9999.0,Cloud Development Not Observable,16.0,16.0,30.03,1017.2,,,,0,0,0,,,,,,,,,2/8 Mostly Clear,72000.0,,FEW,9900.0,,,,,,
KRDR,08-12-2001,05:00,METAR,,360,11.0,,,9999.0,Cloud Development Not Observable,17.0,17.0,29.99,1015.8,,,,0,0,0,,,,,,,,,2/8 Mostly Clear,72000.0,,FEW,9900.0,,,,,,
KRDR,08-12-2001,04:00,METAR,,330,9.0,,,9999.0,Cloud Development Not Observable,17.0,17.0,29.96,1014.7,,,,0,0,0,,,,,,,,,4/8 Partly Cloudy,72000.0,,FEW,9900.0,SCT,20000.0,,,,
KRDR,08-12-2001,03:03,SPECI,,330,12.0,,,9999.0,Cloud Development Not Observable,18.0,18.0,29.94,,,,,0,0,0,,,,,,,,,7/8 Mostly Cloudy,20000.0,,FEW,5900.0,SCT,11000.0,BKN,20000.0,,
KRDR,08-12-2001,03:00,METAR,,310,17.0,24.0,,9999.0,Light Rain Showers/Cloud Development Not Observable,18.0,18.0,29.91,1012.9,,,,80,0,0,,,,,,,,,7/8 Mostly Cloudy,20000.0,,FEW,5900.0,SCT,11000.0,BKN,20000.0,,
KRDR,08-12-2001,02:00,METAR,,290,20.0,27.0,,9999.0,Light Rain Showers/Cloud Development Not Observable,20.0,19.0,29.96,1014.7,,,,80,0,0,,,,,,,,,7/8 Mostly Cloudy,10000.0,,SCT,5000.0,BKN,9900.0,BKN,20000.0,,
KRDR,08-12-2001,01:02,SPECI,,340,18.0,24.0,,9999.0,Cloud Development Not Observable,24.0,20.0,29.89,,,,,0,0,0,,,,,,,,,7/8 Mostly Cloudy,10000.0,,SCT,5900.0,BKN,9900.0,BKN,20000.0,,
KRDR,08-12-2001,01:00,METAR,,210,5.0,,,9999.0,Cloud Development Not Observable,24.0,20.0,29.85,1011.1,,,,0,0,0,,,,,,,,,7/8 Mostly Cloudy,20000.0,,FEW,5900.0,SCT,7900.0,BKN,20000.0,,
KRDR,08-12-2001,00:00,METAR,,210,6.0,,,9999.0,Cloud Development Not Observable,28.0,17.0,29.86,1011.3,,,,0,0,0,,,,,,,,,4/8 Partly Cloudy,72000.0,,FEW,7400.0,SCT,20000.0,,,,
KRDR,08-11-2001,23:00,METAR,,210,10.0,,,9999.0,Cloud Development Not Observable,29.0,15.0,29.87,1012.0,,,,0,0,0,,,,,,,,,4/8 Partly Cloudy,72000.0,,FEW,7400.0,SCT,20000.0,,,,
KRDR,08-11-2001,22:00,METAR,,220,9.0,,,9999.0,Cloud Development Not Observable,29.0,12.0,29.88,1012.0,,,,0,0,0,,,,,,,,,2/8 Mostly Clear,72000.0,,FEW,8400.0,FEW,20000.0,,,,
KRDR,08-11-2001,21:00,METAR,,220,7.0,,,9999.0,Cloud Development Not Observable,29.0,19.0,29.90,1012.5,,,,0,0,0,,,,,,,,,2/8 Mostly Clear,72000.0,,FEW,8400.0,FEW,20000.0,,,,
KRDR,08-11-2001,20:00,METAR,,180,8.0,,,9999.0,Cloud Development Not Observable,29.0,18.0,29.91,1012.9,,,,0,0,0,,,,,,,,,2/8 Mostly Clear,72000.0,,FEW,8400.0,,,,,,
KRDR,08-11-2001,19:00,METAR,,240,7.0,,,9999.0,Cloud Development Not Observable,28.0,16.0,29.91,1013.4,,,,0,0,0,,,,,,,,,2/8 Mostly Clear,72000.0,,FEW,8400.0,FEW,20000.0,,,,
KRDR,08-11-2001,18:00,METAR,,220,7.0,,,9999.0,Cloud Development Not Observable,27.0,16.0,29.94,1014.0,,,,0,0,0,,,,,,,,,2/8 Mostly Clear,72000.0,,FEW,8400.0,FEW,20000.0,,,,
KRDR,08-11-2001,17:00,METAR,,230,9.0,,,9999.0,Cloud Development Not Observable,26.0,18.0,29.94,1014.0,,,,0,0,0,,,,,,,,,4/8 Partly Cloudy,72000.0,,SCT,8400.0,,,,,,
KRDR,08-11-2001,14:00,METAR,,240,8.0,,,9999.0,Cloud Development Not Observable,20.0,17.0,29.96,1014.7,,,,0,0,0,,,,,,,,,4/8 Partly Cloudy,72000.0,,SCT,8400.0,,,,,,
KRDR,08-11-2001,13:00,METAR,,230,7.0,,,9999.0,Cloud Development Not Observable,18.0,17.0,29.96,1014.7,,,,0,0,0,,,,,,,,,4/8 Partly Cloudy,72000.0,,SCT,8400.0,,,,,,
KRDR,08-11-2001,06:00,METAR,,200,5.0,,,9999.0,Cloud Development Not Observable,14.0,14.0,30.00,1016.4,,,,0,0,0,,,,,,,,,Clear,72000.0,,,73000.0,,,,,,
KRDR,08-11-2001,05:00,METAR,,210,6.0,,,9999.0,Cloud Development Not Observable,15.0,15.0,30.01,1016.6,,,,0,0,0,,,,,,,,,Clear,72000.0,,,73000.0,,,,,,
KRDR,08-11-2001,04:00,METAR,,200,6.0,,,9999.0,Cloud Development Not Observable,16.0,16.0,30.01,1016.6,,,,0,0,0,,,,,,,,,2/8 Mostly Clear,72000.0,,FEW,20000.0,,,,,,
KRDR,08-11-2001,03:00,METAR,,210,4.0,,,9999.0,Cloud Development Not Observable,16.0,16.0,30.01,1016.7,,,,0,0,0,,,,,,,,,4/8 Partly Cloudy,72000.0,,SCT,20000.0,,,,,,
KRDR,08-11-2001,02:00,METAR,,200,4.0,,,9999.0,Cloud Development Not Observable,20.0,14.0,30.01,1016.5,,,,0,0,0,,,,,,,,,2/8 Mostly Clear,72000.0,,FEW,20000.0,,,,,,
KRDR,08-11-2001,00:00,METAR,,240,6.0,,,9999.0,Cloud Development Not Observable,24.0,11.0,30.03,1017.3,,,,0,0,0,,,,,,,,,2/8 Mostly Clear,72000.0,,FEW,4500.0,,,,,,
KRDR,08-10-2001,23:00,METAR,,240,9.0,,,9999.0,Cloud Development Not Observable,25.0,12.0,30.04,1017.8,,,,0,0,0,,,,,,,,,2/8 Mostly Clear,72000.0,,FEW,4500.0,,,,,,
KRDR,08-10-2001,22:00,METAR,,250,7.0,,,9999.0,Cloud Development Not Observable,25.0,11.0,30.06,1018.5,,,,0,0,0,,,,,,,,,2/8 Mostly Clear,72000.0,,FEW,4500.0,,,,,,
KRDR,08-10-2001,21:00,METAR,,240,9.0,,,9999.0,Cloud Development Not Observable,24.0,11.0,30.09,1019.2,,,,0,0,0,,,,,,,,,2/8 Mostly Clear,72000.0,,FEW,4500.0,,,,,,
KRDR,08-10-2001,20:00,METAR,,230,9.0,,,9999.0,Cloud Development Not Observable,24.0,12.0,30.10,1019.7,,,,0,0,0,,,,,,,,,4/8 Partly Cloudy,72000.0,,SCT,4000.0,,,,,,
KRDR,08-10-2001,19:00,METAR,,240,12.0,,,9999.0,Cloud Development Not Observable,24.0,10.0,30.12,1020.3,,,,0,0,0,,,,,,,,,4/8 Partly Cloudy,72000.0,,SCT,4000.0,,,,,,
KRDR,08-10-2001,18:00,METAR,,300,9.0,,,9999.0,Cloud Development Not Observable,23.0,11.0,30.13,1020.8,,,,0,0,0,,,,,,,,,4/8 Partly Cloudy,72000.0,,SCT,4000.0,,,,,,
KRDR,08-10-2001,17:00,METAR,,250,9.0,,,9999.0,Cloud Development Not Observable,22.0,12.0,30.15,1021.5,,,,0,0,0,,,,,,,,,2/8 Mostly Clear,72000.0,,FEW,4000.0,,,,,,
KRDR,08-10-2001,16:00,METAR,,240,10.0,,,9999.0,Cloud Development Not Observable,22.0,12.0,30.15,1021.5,,,,0,0,0,,,,,,,,,Clear,72000.0,,,73000.0,,,,,,
KRDR,08-10-2001,15:00,METAR,,290,7.0,,,9999.0,Cloud Development Not Observable,20.0,13.0,30.15,1021.5,,,,0,0,0,,,,,,,,,2/8 Mostly Clear,72000.0,,FEW,25000.0,,,,,,
KRDR,08-10-2001,14:00,METAR,,260,6.0,,,9999.0,Cloud Development Not Observable,17.0,15.0,30.16,1021.8,,,,0,0,0,,,,,,,,,2/8 Mostly Clear,72000.0,,FEW,25000.0,,,,,,
KRDR,08-10-2001,13:00,METAR,,,2.0,,,9999.0,Cloud Development Not Observable,14.0,14.0,30.16,1021.9,,,,0,0,0,,,,,,,,,2/8 Mostly Clear,72000.0,,FEW,25000.0,,,,,,
KRDR,08-10-2001,12:00,METAR,,,2.0,,,9999.0,Cloud Development Not Observable,10.0,10.0,30.15,1021.6,,,,0,0,0,,,,,,,,,4/8 Partly Cloudy,72000.0,,SCT,25000.0,,,,,,
KRDR,08-10-2001,11:00,METAR,,,2.0,,,9999.0,Cloud Development Not Observable,10.0,10.0,30.15,1021.6,,,,0,0,0,,,,,,,,,2/8 Mostly Clear,72000.0,,FEW,25000.0,,,,,,
KRDR,08-10-2001,10:00,METAR,,240,6.0,,,9999.0,Cloud Development Not Observable,10.0,10.0,30.15,1021.4,,,,0,0,0,,,,,,,,,Clear,72000.0,,,73000.0,,,,,,
KRDR,08-10-2001,09:00,METAR,,240,5.0,,,9999.0,Cloud Development Not Observable,10.0,10.0,30.14,1021.3,,,,0,0,0,,,,,,,,,Clear,72000.0,,,73000.0,,,,,,
KRDR,08-10-2001,08:00,METAR,,230,5.0,,,9999.0,Cloud Development Not Observable,11.0,11.0,30.13,1020.7,,,,0,0,0,,,,,,,,,Clear,72000.0,,,73000.0,,,,,,
KRDR,08-10-2001,07:00,METAR,,260,4.0,,,9999.0,Cloud Development Not Observable,11.0,11.0,30.12,1020.3,,,,0,0,0,,,,,,,,,Clear,72000.0,,,73000.0,,,,,,
KRDR,08-10-2001,05:00,METAR,,280,6.0,,,9999.0,Cloud Development Not Observable,,,30.11,1020.5,,,,0,0,0,,,,,,,,,Clear,72000.0,,,73000.0,,,,,,
KRDR,08-10-2001,04:00,METAR,,270,7.0,,,9999.0,Cloud Development Not Observable,13.0,12.0,30.10,1019.8,,,,0,0,0,,,,,,,,,2/8 Mostly Clear,72000.0,,FEW,20000.0,,,,,,
KRDR,08-10-2001,03:00,METAR,,300,6.0,,,9999.0,Cloud Development Not Observable,14.0,12.0,30.10,1019.6,,,,0,0,0,,,,,,,,,4/8 Partly Cloudy,72000.0,,FEW,8900.0,SCT,20000.0,,,,
KRDR,08-10-2001,02:00,METAR,,320,9.0,,,9999.0,Cloud Development Not Observable,16.0,13.0,30.09,1019.3,,,,0,0,0,,,,,,,,,4/8 Partly Cloudy,72000.0,,FEW,5900.0,FEW,8900.0,SCT,20000.0,,
KRDR,08-10-2001,01:00,METAR,,330,11.0,,,9999.0,Cloud Development Not Observable,19.0,11.0,30.08,1019.0,,,,0,0,0,,,,,,,,,4/8 Partly Cloudy,72000.0,,FEW,5900.0,SCT,9900.0,,,,
KRDR,08-10-2001,00:00,METAR,,330,15.0,,,9999.0,Cloud Development Not Observable,21.0,10.0,30.08,1018.8,,,,0,0,0,,,,,,,,,4/8 Partly Cloudy,72000.0,,SCT,5900.0,,,,,,
KRDR,08-09-2001,23:00,METAR,,330,11.0,,330/28KTS,9999.0,Cloud Development Not Observable,22.0,11.0,30.08,1018.8,,,,0,0,0,,,,,,,,,4/8 Partly Cloudy,72000.0,,SCT,5900.0,SCT,11000.0,,,,
KRDR,08-09-2001,22:00,METAR,,330,18.0,27.0,,9999.0,Cloud Development Not Observable,22.0,11.0,30.08,1018.7,,,,0,0,0,,,,,,,,,4/8 Partly Cloudy,72000.0,,SCT,5400.0,,,,,,
KRDR,08-09-2001,21:00,METAR,,310,20.0,,320/25KTS,9999.0,Cloud Development Not Observable,21.0,11.0,30.07,1018.6,,,,0,0,0,,,,,,,,,7/8 Mostly Cloudy,5500.0,,BKN,5400.0,,,,,,
KRDR,08-09-2001,20:00,METAR,,320,17.0,24.0,310/27KTS,9999.0,Cloud Development Not Observable,21.0,11.0,30.07,1018.6,,,,0,0,0,,,,,,,,,7/8 Mostly Cloudy,4900.0,,BKN,5000.0,,,,,,
KRDR,08-09-2001,19:00,METAR,,330,22.0,27.0,291/31KTS,9999.0,Cloud Development Not Observable,22.0,12.0,30.07,1018.5,,,,0,0,0,,,,,,,,,4/8 Partly Cloudy,72000.0,,SCT,4500.0,,,,,,
KRDR,08-09-2001,18:00,METAR,,310,18.0,26.0,299/28KTS,9999.0,Cloud Development Not Observable,21.0,12.0,30.07,1018.5,,,,0,0,0,,,,,,,,,4/8 Partly Cloudy,72000.0,,SCT,2500.0,SCT,25000.0,,,,
KRDR,08-09-2001,17:00,METAR,,330,21.0,26.0,,9999.0,Cloud Development Not Observable,20.0,11.0,30.07,1018.5,,,,0,0,0,,,,,,,,,2/8 Mostly Clear,72000.0,,FEW,2500.0,,,,,,
KRDR,08-09-2001,16:00,METAR,,320,16.0,25.0,,9999.0,Cloud Development Not Observable,19.0,13.0,30.06,1018.2,,,,0,0,0,,,,,,,,,4/8 Partly Cloudy,72000.0,,SCT,2500.0,SCT,25000.0,,,,
KRDR,08-09-2001,15:00,METAR,,330,19.0,,,9999.0,Cloud Development Not Observable,18.0,14.0,30.04,1017.6,,,,0,0,0,,,,,,,,,4/8 Partly Cloudy,72000.0,,SCT,2500.0,SCT,25000.0,,,,
KRDR,08-09-2001,14:00,METAR,,320,18.0,,,9999.0,Cloud Development Not Observable,17.0,15.0,30.02,1016.8,,,,0,0,0,,,,,,,,,4/8 Partly Cloudy,72000.0,,FEW,2500.0,SCT,25000.0,,,,
KRDR,08-09-2001,13:00,METAR,,310,14.0,23.0,,9999.0,Cloud Development Not Observable,16.0,16.0,29.99,1015.8,,,,0,0,0,,,,,,,,,4/8 Partly Cloudy,72000.0,,FEW,4000.0,SCT,25000.0,,,,
KRDR,08-09-2001,12:00,METAR,,310,12.0,,,9999.0,Cloud Development Not Observable,15.0,15.0,29.97,1014.9,,,,0,0,0,,,,,,,,,4/8 Partly Cloudy,72000.0,,SCT,25000.0,,,,,,
KRDR,08-09-2001,11:00,METAR,,310,16.0,,,9999.0,Cloud Development Not Observable,15.0,15.0,29.94,1013.8,,,,0,0,0,,,,,,,,,2/8 Mostly Clear,72000.0,,FEW,25000.0,,,,,,
KRDR,08-09-2001,10:00,METAR,,300,15.0,,,9999.0,Cloud Development Not Observable,16.0,16.0,29.92,1013.3,,,,0,0,0,,,,,,,,,Clear,72000.0,,,73000.0,,,,,,
KRDR,08-09-2001,09:00,METAR,,310,14.0,,,9999.0,Cloud Development Not Observable,17.0,17.0,29.92,1013.1,,,,0,0,0,,,,,,,,,Clear,72000.0,,,73000.0,,,,,,
KRDR,08-09-2001,08:00,METAR,,310,14.0,,,9999.0,Cloud Development Not Observable,18.0,15.0,29.91,1012.9,,,,0,0,0,,,,,,,,,2/8 Mostly Clear,72000.0,,FEW,3500.0,,,,,,
KRDR,08-09-2001,07:00,METAR,,310,15.0,,,9999.0,Cloud Development Not Observable,20.0,18.0,29.90,1012.3,,,,0,0,0,,,,,,,,,7/8 Mostly Cloudy,5500.0,,SCT,3500.0,BKN,5400.0,,,,
KRDR,08-09-2001,06:00,METAR,,290,10.0,,,9999.0,Cloud Development Not Observable,20.0,18.0,29.88,1011.9,,,,0,0,0,,,,,,,,,7/8 Mostly Cloudy,7000.0,,SCT,5400.0,BKN,6900.0,BKN,12000.0,BKN,20000.0
KRDR,08-09-2001,05:00,METAR,,290,6.0,,,9999.0,Cloud Development Not Observable,20.0,19.0,29.86,1011.1,,,,0,0,0,,,,,,,,,7/8 Mostly Cloudy,20000.0,,SCT,6900.0,SCT,12000.0,BKN,20000.0,,
KRDR,08-09-2001,04:00,METAR,,330,9.0,,,9999.0,Cloud Development Not Observable,20.0,19.0,29.81,1009.4,,,,0,0,0,,,,,,,,,7/8 Mostly Cloudy,20000.0,,SCT,5900.0,SCT,12000.0,BKN,20000.0,,
KRDR,08-09-2001,03:00,METAR,,320,7.0,,,9999.0,Cloud Development Not Observable,19.0,19.0,29.78,1008.4,,,,0,0,0,,,,,,,,,7/8 Mostly Cloudy,12000.0,,SCT,5900.0,BKN,12000.0,BKN,20000.0,,
KRDR,08-09-2001,02:47,SPECI,,330,8.0,,,9999.0,Cloud Development Not Observable,19.0,19.0,29.76,,,,,0,0,0,,,,,,,,,7/8 Mostly Cloudy,12000.0,,SCT,5000.0,BKN,12000.0,BKN,20000.0,,
KRDR,08-09-2001,02:00,METAR,,330,10.0,15.0,,9999.0,Light Rain Showers/Cloud Development Not Observable,21.0,17.0,29.77,1008.2,,,,80,0,0,,,,,,,,,7/8 Mostly Cloudy,12000.0,,SCT,5900.0,BKN,12000.0,BKN,20000.0,,
KRDR,08-09-2001,01:35,SPECI,,340,20.0,25.0,,9999.0,Thunderstorm with Rain or Snow/Light Rain Showers/Cloud Development Not Observable,20.0,18.0,29.76,,,,,95,80,0,,,,,,,,,7/8 Mostly Cloudy,12000.0,,SCT,4000.0,BKN,12000.0,BKN,20000.0,,
KRDR,08-09-2001,01:16,SPECI,Normal,300,70.0,99.0,,100.0,Heavy Thunderstorm and Hail/Hail Showers/Heavy Rain Showers,21.0,18.0,29.89,,,,,99,82,90,,,,,,,,,8/8 Overcast,200.0,,BKN,200.0,OVC,1000.0,,,,
KRDR,08-09-2001,01:00,METAR,,340,8.0,,,9999.0,Cloud Development Not Observable,26.0,23.0,29.74,1006.8,,,,0,0,0,,,,,,,,,8/8 Overcast,12000.0,,SCT,5900.0,BKN,12000.0,OVC,20000.0,,
KRDR,08-09-2001,00:00,METAR,,40,8.0,,,9999.0,Cloud Development Not Observable,30.0,24.0,29.73,1006.5,,,,0,0,0,,,,,,,,,7/8 Mostly Cloudy,12000.0,,SCT,5000.0,BKN,12000.0,BKN,20000.0,,
KRDR,08-08-2001,23:00,METAR,,140,5.0,,,9999.0,Cloud Development Not Observable,31.0,25.0,29.74,1006.8,,,,0,0,0,,,,,,,,,7/8 Mostly Cloudy,12000.0,,FEW,5900.0,BKN,12000.0,BKN,20000.0,,
KRDR,08-08-2001,22:00,METAR,,90,3.0,,,9999.0,Cloud Development Not Observable,31.0,25.0,29.75,1007.1,,,,0,0,0,,,,,,,,,7/8 Mostly Cloudy,12000.0,,FEW,5900.0,BKN,12000.0,BKN,20000.0,,
KRDR,08-08-2001,21:22,SPECI,,80,5.0,,,9999.0,Cloud Development Not Observable,30.0,25.0,29.74,,,,,0,0,0,,,,,,,,,7/8 Mostly Cloudy,20000.0,,FEW,5900.0,SCT,12000.0,BKN,20000.0,,
KRDR,08-08-2001,21:12,SPECI,,120,4.0,,,9999.0,Light Rain Showers/Cloud Development Not Observable,30.0,26.0,29.74,,,,,80,0,0,,,,,,,,,7/8 Mostly Cloudy,20000.0,,FEW,5900.0,SCT,12000.0,BKN,20000.0,,
KRDR,08-08-2001,21:00,METAR,,130,5.0,,,9999.0,Cloud Development Not Observable,30.0,25.0,29.74,1006.7,,,,0,0,0,,,,,,,,,8/8 Overcast,12000.0,,FEW,5900.0,BKN,12000.0,OVC,20000.0,,
KRDR,08-08-2001,20:00,METAR,,,3.0,,,9999.0,Cloud Development Not Observable,31.0,24.0,29.74,1006.6,,,,0,0,0,,,,,,,,,7/8 Mostly Cloudy,20000.0,,FEW,5900.0,SCT,12000.0,BKN,20000.0,,
KRDR,08-08-2001,19:00,METAR,,,3.0,,,9999.0,Cloud Development Not Observable,29.0,22.0,29.76,1007.5,,,,0,0,0,,,,,,,,,7/8 Mostly Cloudy,12000.0,,FEW,5900.0,BKN,12000.0,BKN,20000.0,,
KRDR,08-08-2001,18:00,METAR,,280,7.0,,,9999.0,Cloud Development Not Observable,27.0,22.0,29.78,1008.3,,,,0,0,0,,,,,,,,,7/8 Mostly Cloudy,12000.0,,FEW,5900.0,BKN,12000.0,BKN,20000.0,,
KRDR,08-08-2001,17:00,METAR,,190,10.0,,,9999.0,Cloud Development Not Observable,29.0,21.0,29.77,1007.9,,,,0,0,0,,,,,,,,,7/8 Mostly Cloudy,12000.0,,FEW,5000.0,BKN,12000.0,BKN,20000.0,,
KRDR,08-08-2001,16:00,METAR,,210,9.0,,,9999.0,Cloud Development Not Observable,26.0,20.0,29.77,1008.0,,,,0,0,0,,,,,,,,,7/8 Mostly Cloudy,12000.0,,FEW,5900.0,BKN,12000.0,BKN,20000.0,,
KRDR,08-08-2001,15:00,METAR,,180,10.0,,170/28KTS,9999.0,Cloud Development Not Observable,25.0,19.0,29.75,1007.3,,,,0,0,0,,,,,,,,,7/8 Mostly Cloudy,12000.0,,FEW,5000.0,BKN,12000.0,BKN,25000.0,,
KRDR,08-08-2001,14:00,METAR,,,6.0,,,9999.0,Thunderstorm with Rain or Snow/Light Rain Showers/Cloud Development Not Observable,23.0,21.0,29.78,1008.3,,,,95,80,0,,,,,,,,,7/8 Mostly Cloudy,12000.0,,SCT,5000.0,BKN,12000.0,BKN,25000.0,,
KRDR,08-08-2001,13:25,METAR,,220,13.0,22.0,,6400.0,Thunderstorm with Rain or Snow/Rain Showers/Cloud Development Not Observable,24.0,20.0,29.82,,,,,95,81,0,,,,,,,,,7/8 Mostly Cloudy,12000.0,,SCT,5000.0,BKN,12000.0,BKN,25000.0,,
KRDR,08-08-2001,13:00,METAR,,130,9.0,,,9999.0,Thunderstorm/Precipitation in the Vicinity/Cloud Development Not Observable,26.0,18.0,29.78,1008.2,,,,17,16,0,,,,,,,,,7/8 Mostly Cloudy,25000.0,,FEW,5000.0,SCT,12000.0,BKN,25000.0,,
KRDR,08-08-2001,12:40,SPECI,,,2.0,,,9999.0,Thunderstorm/Cloud Development Not Observable,26.0,17.0,29.80,,,,,17,0,0,,,,,,,,,7/8 Mostly Cloudy,25000.0,,FEW,5000.0,SCT,12000.0,BKN,25000.0,,
KRDR,08-08-2001,12:00,METAR,,320,6.0,,,9999.0,Cloud Development Not Observable,23.0,18.0,29.82,1009.7,,,,0,0,0,,,,,,,,,7/8 Mostly Cloudy,25000.0,,FEW,5000.0,SCT,12000.0,BKN,25000.0,,
KRDR,08-08-2001,11:00,METAR,,300,10.0,,,9999.0,Cloud Development Not Observable,24.0,18.0,29.83,1009.3,,,,0,0,0,,,,,,,,,7/8 Mostly Cloudy,25000.0,,FEW,5000.0,SCT,12000.0,BKN,25000.0,,
KRDR,08-08-2001,10:00,METAR,,280,7.0,,,9999.0,Cloud Development Not Observable,25.0,18.0,29.81,1009.2,,,,0,0,0,,,,,,,,,7/8 Mostly Cloudy,12000.0,,FEW,5000.0,BKN,12000.0,BKN,25000.0,,
KRDR,08-08-2001,09:28,SPECI,,290,12.0,,,9999.0,Cloud Development Not Observable,27.0,17.0,29.82,,,,,0,0,0,,,,,,,,,8/8 Overcast,12000.0,,FEW,5000.0,BKN,12000.0,OVC,25000.0,,
KRDR,08-08-2001,09:00,METAR,,280,17.0,24.0,,9999.0,Thunderstorm with Rain or Snow/Light Rain Showers/Cloud Development Not Observable,28.0,18.0,29.82,1009.5,,,,95,80,0,,,,,,,,,8/8 Overcast,12000.0,,FEW,5000.0,BKN,12000.0,OVC,25000.0,,
KRDR,08-08-2001,08:16,SPECI,,260,11.0,,,9999.0,Thunderstorm with Rain or Snow/Light Rain Showers/Cloud Development Not Observable,32.0,14.0,29.77,,,,,95,80,0,,,,,,,,,8/8 Overcast,12000.0,,FEW,5000.0,BKN,12000.0,OVC,25000.0,,
KRDR,08-08-2001,08:00,METAR,,280,3.0,,,9999.0,Cloud Development Not Observable,30.0,15.0,29.75,1006.9,,,,0,0,0,,,,,,,,,8/8 Overcast,12000.0,,FEW,5000.0,BKN,12000.0,OVC,25000.0,,
KRDR,08-08-2001,07:14,SPECI,,190,13.0,,,9999.0,Cloud Development Not Observable,30.0,15.0,29.75,,,,,0,0,0,,,,,,,,,8/8 Overcast,4900.0,,BKN,5000.0,BKN,9900.0,OVC,25000.0,,
KRDR,08-08-2001,07:00,METAR,,180,19.0,,280/28KTS,9999.0,Thunderstorm with Rain or Snow/Light Rain Showers/Cloud Development Not Observable,30.0,17.0,29.80,1008.6,,,,95,80,0,,,,,,,,,8/8 Overcast,4900.0,,BKN,5000.0,BKN,9900.0,OVC,25000.0,,
KRDR,08-08-2001,06:00,METAR,,,6.0,,,9999.0,Thunderstorm with Rain or Snow/Light Rain Showers/Cloud Development Not Observable,29.0,26.0,29.85,1010.4,,,,95,80,0,,,,,,,,,8/8 Overcast,4900.0,,BKN,5000.0,BKN,9900.0,OVC,25000.0,,
KRDR,08-08-2001,05:36,SPECI,,,5.0,,,9999.0,Thunderstorm with Rain or Snow/Light Rain Showers/Cloud Development Not Observable,28.0,27.0,29.86,,,,,95,80,0,,,,,,,,,8/8 Overcast,4900.0,,BKN,5000.0,BKN,9900.0,OVC,25000.0,,
KRDR,08-08-2001,05:00,METAR,,,4.0,,,9999.0,Cloud Development Not Observable,28.0,27.0,29.90,1012.0,,,,0,0,0,,,,,,,,,8/8 Overcast,5500.0,,BKN,5400.0,OVC,20000.0,,,,
KRDR,08-08-2001,04:00,METAR,,150,7.0,,,9999.0,Cloud Development Not Observable,29.0,26.0,29.86,1010.8,,,,0,0,0,,,,,,,,,8/8 Overcast,20000.0,,SCT,5400.0,OVC,20000.0,,,,
KRDR,08-08-2001,03:00,METAR,,120,6.0,,,9999.0,Cloud Development Not Observable,30.0,26.0,29.88,1011.7,,,,0,0,0,,,,,,,,,7/8 Mostly Cloudy,20000.0,,SCT,5400.0,BKN,20000.0,,,,
KRDR,08-08-2001,02:00,METAR,,120,5.0,,,9999.0,Cloud Development Not Observable,31.0,26.0,29.89,1011.8,,,,0,0,0,,,,,,,,,7/8 Mostly Cloudy,20000.0,,SCT,5400.0,BKN,20000.0,,,,
KRDR,08-08-2001,01:00,METAR,,130,7.0,,,9999.0,Cloud Development Not Observable,33.0,27.0,29.89,1011.8,,,,0,0,0,,,,,,,,,7/8 Mostly Cloudy,20000.0,,SCT,5400.0,BKN,20000.0,,,,
KRDR,08-08-2001,00:00,METAR,,140,7.0,,,9999.0,Cloud Development Not Observable,34.0,26.0,29.89,1012.0,,,,0,0,0,,,,,,,,,2/8 Mostly Clear,72000.0,,FEW,20000.0,,,,,,
KRDR,08-07-2001,23:00,METAR,,160,12.0,,,9999.0,Cloud Development Not Observable,34.0,26.0,29.91,1012.6,,,,0,0,0,,,,,,,,,2/8 Mostly Clear,72000.0,,FEW,20000.0,,,,,,
KRDR,08-07-2001,22:00,METAR,,180,10.0,,,9999.0,Cloud Development Not Observable,35.0,25.0,29.94,1013.5,,,,0,0,0,,,,,,,,,2/8 Mostly Clear,72000.0,,FEW,5000.0,FEW,20000.0,,,,
KRDR,08-07-2001,21:00,METAR,,180,11.0,,,9999.0,Cloud Development Not Observable,35.0,24.0,29.95,1014.0,,,,0,0,0,,,,,,,,,2/8 Mostly Clear,72000.0,,FEW,20000.0,,,,,,
KRDR,08-07-2001,20:00,METAR,,170,8.0,,,9999.0,Cloud Development Not Observable,35.0,25.0,29.96,1014.3,,,,0,0,0,,,,,,,,,4/8 Partly Cloudy,72000.0,,FEW,6400.0,FEW,9900.0,SCT,25000.0,,
KRDR,08-07-2001,19:00,METAR,,180,10.0,,,9999.0,Cloud Development Not Observable,34.0,24.0,29.99,1015.3,,,,0,0,0,,,,,,,,,4/8 Partly Cloudy,72000.0,,FEW,6400.0,FEW,9900.0,SCT,25000.0,,
KRDR,08-07-2001,17:00,METAR,,210,9.0,,,9999.0,Cloud Development Not Observable,32.0,24.0,30.03,1016.7,,,,0,0,0,,,,,,,,,4/8 Partly Cloudy,72000.0,,FEW,6400.0,FEW,9900.0,SCT,25000.0,,
KRDR,08-07-2001,16:00,METAR,,160,7.0,,,9999.0,Cloud Development Not Observable,29.0,21.0,30.04,1017.1,,,,0,0,0,,,,,,,,,4/8 Partly Cloudy,72000.0,,FEW,6400.0,FEW,9900.0,SCT,25000.0,,
KRDR,08-07-2001,15:10,SPECI,,160,7.0,,,9999.0,Cloud Development Not Observable,27.0,22.0,30.07,,,,,0,0,0,,,,,,,,,4/8 Partly Cloudy,72000.0,,FEW,6400.0,SCT,9900.0,SCT,25000.0,,
KRDR,08-07-2001,15:00,METAR,,150,9.0,,,9999.0,Light Rain Showers/Cloud Development Not Observable,25.0,21.0,30.05,1017.5,,,,80,0,0,,,,,,,,,7/8 Mostly Cloudy,10000.0,,FEW,6400.0,BKN,9900.0,BKN,25000.0,,
KRDR,08-07-2001,14:40,SPECI,,,2.0,,,9999.0,Cloud Development Not Observable,25.0,21.0,30.07,,,,,0,0,0,,,,,,,,,7/8 Mostly Cloudy,10000.0,,SCT,6400.0,BKN,9900.0,BKN,25000.0,,
KRDR,08-07-2001,14:06,SPECI,,,3.0,,,9999.0,Thunderstorm/Cloud Development Not Observable,25.0,20.0,30.07,,,,,17,0,0,,,,,,,,,7/8 Mostly Cloudy,10000.0,,SCT,6400.0,BKN,9900.0,BKN,25000.0,,
KRDR,08-07-2001,14:00,METAR,,,6.0,,,9999.0,Cloud Development Not Observable,25.0,22.0,30.07,1018.2,,,,0,0,0,,,,,,,,,7/8 Mostly Cloudy,10000.0,,SCT,6400.0,BKN,9900.0,BKN,25000.0,,
KRDR,08-07-2001,13:00,METAR,,,3.0,,,9999.0,Cloud Development Not Observable,21.0,20.0,30.06,1017.9,,,,0,0,0,,,,,,,,,7/8 Mostly Cloudy,25000.0,,FEW,6400.0,SCT,11000.0,BKN,25000.0,,
KRDR,08-07-2001,12:00,METAR,,,4.0,,,9999.0,Cloud Development Not Observable,21.0,19.0,30.05,1017.4,,,,0,0,0,,,,,,,,,7/8 Mostly Cloudy,25000.0,,FEW,5900.0,SCT,11000.0,BKN,25000.0,,
KRDR,08-07-2001,11:00,METAR,,200,4.0,,,9999.0,Cloud Development Not Observable,23.0,19.0,30.02,1016.5,,,,0,0,0,,,,,,,,,7/8 Mostly Cloudy,25000.0,,SCT,11000.0,BKN,25000.0,,,,
KRDR,08-07-2001,10:00,METAR,,200,5.0,,,9999.0,Cloud Development Not Observable,23.0,19.0,30.02,1016.3,,,,0,0,0,,,,,,,,,4/8 Partly Cloudy,72000.0,,SCT,9900.0,,,,,,
KRDR,08-07-2001,09:00,METAR,,200,4.0,,,9999.0,Cloud Development Not Observable,23.0,18.0,30.03,1016.7,,,,0,0,0,,,,,,,,,4/8 Partly Cloudy,72000.0,,SCT,9900.0,,,,,,
KRDR,08-07-2001,08:00,METAR,,200,7.0,,,9999.0,Cloud Development Not Observable,24.0,18.0,30.04,1017.0,,,,0,0,0,,,,,,,,,2/8 Mostly Clear,72000.0,,FEW,9900.0,,,,,,
KRDR,08-07-2001,07:00,METAR,,200,5.0,,,9999.0,Cloud Development Not Observable,22.0,19.0,30.04,1017.3,,,,0,0,0,,,,,,,,,2/8 Mostly Clear,72000.0,,FEW,9900.0,,,,,,
KRDR,08-07-2001,06:00,METAR,,200,5.0,,,9999.0,Cloud Development Not Observable,22.0,19.0,30.05,1017.6,,,,0,0,0,,,,,,,,,Clear,72000.0,,,73000.0,,,,,,
KRDR,08-07-2001,05:00,METAR,,200,6.0,,,9999.0,Cloud Development Not Observable,24.0,19.0,30.05,1017.6,,,,0,0,0,,,,,,,,,Clear,72000.0,,,73000.0,,,,,,
KRDR,08-07-2001,04:00,METAR,,190,7.0,,,9999.0,Cloud Development Not Observable,24.0,20.0,30.06,1017.8,,,,0,0,0,,,,,,,,,Clear,72000.0,,,73000.0,,,,,,
KRDR,08-07-2001,03:00,METAR,,190,7.0,,,9999.0,Cloud Development Not Observable,26.0,20.0,30.06,1018.0,,,,0,0,0,,,,,,,,,Clear,72000.0,,,73000.0,,,,,,
KRDR,08-07-2001,02:00,METAR,,180,6.0,,,9999.0,Cloud Development Not Observable,28.0,20.0,30.06,1017.8,,,,0,0,0,,,,,,,,,Clear,72000.0,,,73000.0,,,,,,
KRDR,08-07-2001,01:00,METAR,,190,6.0,,,9999.0,Cloud Development Not Observable,30.0,21.0,30.06,1017.8,,,,0,0,0,,,,,,,,,Clear,72000.0,,,73000.0,,,,,,
KRDR,08-07-2001,00:00,METAR,,190,7.0,,,9999.0,Cloud Development Not Observable,33.0,19.0,30.06,1017.8,,,,0,0,0,,,,,,,,,Clear,72000.0,,,73000.0,,,,,,
KRDR,08-06-2001,23:00,METAR,,170,4.0,,,9999.0,Cloud Development Not Observable,34.0,19.0,30.06,1017.8,,,,0,0,0,,,,,,,,,Clear,72000.0,,,73000.0,,,,,,
KRDR,08-06-2001,22:00,METAR,,160,4.0,,,9999.0,Cloud Development Not Observable,34.0,17.0,30.07,1018.2,,,,0,0,0,,,,,,,,,Clear,72000.0,,,73000.0,,,,,,
KRDR,08-06-2001,21:00,METAR,,,4.0,,,9999.0,Cloud Development Not Observable,34.0,17.0,30.08,1018.5,,,,0,0,0,,,,,,,,,Clear,72000.0,,,73000.0,,,,,,
KRDR,08-06-2001,20:00,METAR,,,6.0,,,9999.0,Cloud Development Not Observable,34.0,17.0,30.10,1019.0,,,,0,0,0,,,,,,,,,Clear,72000.0,,,73000.0,,,,,,
KRDR,08-06-2001,19:00,METAR,,340,7.0,,,9999.0,Cloud Development Not Observable,33.0,17.0,30.10,1019.9,,,,0,0,0,,,,,,,,,Clear,72000.0,,,73000.0,,,,,,
KRDR,08-06-2001,18:00,METAR,,310,6.0,,,9999.0,Cloud Development Not Observable,33.0,17.0,30.11,1019.4,,,,0,0,0,,,,,,,,,Clear,72000.0,,,73000.0,,,,,,
KRDR,08-06-2001,17:00,METAR,,310,11.0,,,9999.0,Cloud Development Not Observable,32.0,16.0,30.12,1019.6,,,,0,0,0,,,,,,,,,Clear,72000.0,,,73000.0,,,,,,
KRDR,08-06-2001,16:00,METAR,,290,6.0,,,9999.0,Cloud Development Not Observable,31.0,17.0,30.11,1019.3,,,,0,0,0,,,,,,,,,Clear,72000.0,,,73000.0,,,,,,
KRDR,08-06-2001,15:00,METAR,,270,6.0,,,9999.0,Cloud Development Not Observable,29.0,19.0,30.10,1019.0,,,,0,0,0,,,,,,,,,Clear,72000.0,,,73000.0,,,,,,
KRDR,08-06-2001,14:00,METAR,,280,6.0,,,9999.0,Cloud Development Not Observable,26.0,21.0,30.09,1019.4,,,,0,0,0,,,,,,,,,Clear,72000.0,,,73000.0,,,,,,
KRDR,08-06-2001,13:00,METAR,,280,7.0,,,9999.0,Cloud Development Not Observable,23.0,23.0,30.07,1018.1,,,,0,0,0,,,,,,,,,Clear,72000.0,,,73000.0,,,,,,
KRDR,08-06-2001,12:00,METAR,,270,7.0,,,9999.0,Cloud Development Not Observable,20.0,20.0,30.06,1018.0,,,,0,0,0,,,,,,,,,Clear,72000.0,,,73000.0,,,,,,
KRDR,08-06-2001,11:00,METAR,,290,4.0,,,9999.0,Cloud Development Not Observable,19.0,19.0,30.04,1017.3,,,,0,0,0,,,,,,,,,Clear,72000.0,,,73000.0,,,,,,
KRDR,08-06-2001,10:00,METAR,,230,5.0,,,9999.0,Cloud Development Not Observable,19.0,19.0,30.04,1017.1,,,,0,0,0,,,,,,,,,Clear,72000.0,,,73000.0,,,,,,
KRDR,08-06-2001,09:00,METAR,,260,4.0,,,9999.0,Cloud Development Not Observable,20.0,20.0,30.02,1016.5,,,,0,0,0,,,,,,,,,2/8 Mostly Clear,72000.0,,FEW,25000.0,,,,,,
KRDR,08-06-2001,08:00,METAR,,260,3.0,,,9999.0,Cloud Development Not Observable,20.0,20.0,30.01,1016.0,,,,0,0,0,,,,,,,,,Clear,72000.0,,,73000.0,,,,,,
KRDR,08-06-2001,07:00,METAR,,280,6.0,,,9999.0,Cloud Development Not Observable,22.0,22.0,30.00,1015.6,,,,0,0,0,,,,,,,,,Clear,72000.0,,,73000.0,,,,,,
KRDR,08-06-2001,06:00,METAR,,280,7.0,,,9999.0,Cloud Development Not Observable,23.0,23.0,29.98,1015.1,,,,0,0,0,,,,,,,,,Clear,72000.0,,,73000.0,,,,,,
KRDR,08-06-2001,05:00,METAR,,280,7.0,,,9999.0,Cloud Development Not Observable,26.0,23.0,29.97,1014.8,,,,0,0,0,,,,,,,,,Clear,72000.0,,,73000.0,,,,,,
KRDR,08-06-2001,04:00,METAR,,280,8.0,,,9999.0,Cloud Development Not Observable,26.0,23.0,29.96,1014.4,,,,0,0,0,,,,,,,,,Clear,72000.0,,,73000.0,,,,,,
KRDR,08-06-2001,03:00,METAR,,270,7.0,,,9999.0,Cloud Development Not Observable,26.0,23.0,29.95,1014.1,,,,0,0,0,,,,,,,,,Clear,72000.0,,,73000.0,,,,,,
KRDR,08-06-2001,02:00,METAR,,270,6.0,,,9999.0,Cloud Development Not Observable,28.0,24.0,29.92,1013.1,,,,0,0,0,,,,,,,,,Clear,72000.0,,,73000.0,,,,,,
KRDR,08-06-2001,01:00,METAR,,290,8.0,,,9999.0,Cloud Development Not Observable,33.0,23.0,29.91,1012.5,,,,0,0,0,,,,,,,,,2/8 Mostly Clear,72000.0,,FEW,5000.0,,,,,,
KRDR,08-06-2001,00:00,METAR,,300,13.0,,,9999.0,Cloud Development Not Observable,33.0,23.0,29.88,1011.6,,,,0,0,0,,,,,,,,,2/8 Mostly Clear,72000.0,,FEW,5000.0,,,,,,
KRDR,08-05-2001,23:00,METAR,,320,12.0,,,9999.0,Cloud Development Not Observable,34.0,24.0,29.86,1011.0,,,,0,0,0,,,,,,,,,4/8 Partly Cloudy,72000.0,,SCT,4000.0,SCT,20000.0,,,,
KRDR,08-05-2001,22:00,METAR,,280,8.0,,,9999.0,Cloud Development Not Observable,34.0,27.0,29.83,1009.9,,,,0,0,0,,,,,,,,,4/8 Partly Cloudy,72000.0,,SCT,4500.0,SCT,20000.0,,,,
KRDR,08-05-2001,21:00,METAR,,300,9.0,,,9999.0,Cloud Development Not Observable,37.0,25.0,29.80,1008.8,,,,0,0,0,,,,,,,,,4/8 Partly Cloudy,72000.0,,FEW,4000.0,FEW,15000.0,SCT,20000.0,,
KRDR,08-05-2001,20:00,METAR,,310,11.0,,,9999.0,Cloud Development Not Observable,36.0,27.0,29.80,1008.7,,,,0,0,0,,,,,,,,,2/8 Mostly Clear,72000.0,,FEW,15000.0,FEW,20000.0,,,,
KRDR,08-05-2001,18:00,METAR,,290,11.0,,,9999.0,Cloud Development Not Observable,34.0,27.0,29.78,1008.0,,,,0,0,0,,,,,,,,,2/8 Mostly Clear,72000.0,,FEW,20000.0,,,,,,
KRDR,08-05-2001,17:00,METAR,,250,6.0,,,9999.0,Cloud Development Not Observable,31.0,27.0,29.77,1007.7,,,,0,0,0,,,,,,,,,2/8 Mostly Clear,72000.0,,FEW,20000.0,,,,,,
KRDR,08-05-2001,16:00,METAR,,250,9.0,,,9999.0,Cloud Development Not Observable,30.0,25.0,29.74,1006.7,,,,0,0,0,,,,,,,,,4/8 Partly Cloudy,72000.0,,FEW,9900.0,SCT,20000.0,,,,
KRDR,08-05-2001,15:00,METAR,,260,10.0,,,9999.0,Cloud Development Not Observable,28.0,23.0,29.73,1006.3,,,,0,0,0,,,,,,,,,4/8 Partly Cloudy,72000.0,,FEW,9900.0,SCT,20000.0,,,,
KRDR,08-05-2001,14:00,METAR,,180,15.0,,,9999.0,Cloud Development Not Observable,26.0,23.0,29.72,1006.0,,,,0,0,0,,,,,,,,,4/8 Partly Cloudy,72000.0,,FEW,9900.0,SCT,20000.0,,,,
KRDR,08-05-2001,13:00,METAR,,180,10.0,,,9999.0,Cloud Development Not Observable,24.0,23.0,29.71,1005.7,,,,0,0,0,,,,,,,,,7/8 Mostly Cloudy,20000.0,,FEW,4000.0,FEW,9900.0,BKN,20000.0,,
KRDR,08-05-2001,12:18,SPECI,,170,9.0,,,9999.0,Cloud Development Not Observable,24.0,24.0,29.71,,,,,0,0,0,,,,,,,,,7/8 Mostly Cloudy,20000.0,,FEW,4000.0,SCT,9900.0,BKN,20000.0,,
KRDR,08-05-2001,12:04,SPECI,,,5.0,,,9999.0,Thunderstorm/Cloud Development Not Observable,24.0,24.0,29.71,,,,,17,0,0,,,,,,,,,7/8 Mostly Cloudy,20000.0,,FEW,4000.0,SCT,9900.0,BKN,20000.0,,
KRDR,08-05-2001,12:00,METAR,,30,5.0,,,9999.0,Thunderstorm with Rain or Snow/Light Rain Showers/Cloud Development Not Observable,24.0,24.0,29.65,1003.9,,,,95,80,0,,,,,,,,,7/8 Mostly Cloudy,10000.0,,SCT,4000.0,BKN,9900.0,,,,
KRDR,08-05-2001,11:31,SPECI,,190,10.0,,,9999.0,Thunderstorm with Rain or Snow/Light Rain Showers/Cloud Development Not Observable,25.0,25.0,29.71,,,,,95,80,0,,,,,,,,,7/8 Mostly Cloudy,3900.0,,BKN,4000.0,BKN,12000.0,,,,
KRDR,08-05-2001,11:01,SPECI,,220,3.0,,,9999.0,Thunderstorm with Rain or Snow/Light Rain Showers/Cloud Development Not Observable,25.0,23.0,29.70,,,,,95,80,0,,,,,,,,,7/8 Mostly Cloudy,6000.0,,SCT,4000.0,BKN,5900.0,BKN,12000.0,,
KRDR,08-05-2001,11:00,METAR,,200,9.0,,,9999.0,Thunderstorm/Cloud Development Not Observable,26.0,23.0,29.69,1005.0,,,,17,0,0,,,,,,,,,7/8 Mostly Cloudy,6000.0,,SCT,4000.0,BKN,5900.0,BKN,12000.0,,
KRDR,08-05-2001,10:31,SPECI,,220,3.0,,,9999.0,Thunderstorm/Cloud Development Not Observable,26.0,22.0,29.69,,,,,17,0,0,,,,,,,,,7/8 Mostly Cloudy,12000.0,,SCT,4000.0,BKN,12000.0,BKN,20000.0,,
KRDR,08-05-2001,10:00,METAR,,,6.0,,,9999.0,Cloud Development Not Observable,26.0,23.0,29.69,1005.0,,,,0,0,0,,,,,,,,,7/8 Mostly Cloudy,12000.0,,SCT,4000.0,BKN,12000.0,,,,
KRDR,08-05-2001,09:00,METAR,,190,14.0,,,9999.0,Cloud Development Not Observable,27.0,27.0,29.66,1003.9,,,,0,0,0,,,,,,,,,7/8 Mostly Cloudy,12000.0,,BKN,12000.0,,,,,,
KRDR,08-05-2001,08:00,METAR,,180,14.0,,,9999.0,Cloud Development Not Observable,27.0,23.0,29.66,1003.9,,,,0,0,0,,,,,,,,,4/8 Partly Cloudy,72000.0,,SCT,12000.0,,,,,,
KRDR,08-05-2001,07:00,METAR,,180,14.0,,,9999.0,Cloud Development Not Observable,28.0,24.0,29.67,1004.5,,,,0,0,0,,,,,,,,,7/8 Mostly Cloudy,12000.0,,BKN,12000.0,,,,,,
KRDR,08-05-2001,06:00,METAR,,180,13.0,,,9999.0,Cloud Development Not Observable,28.0,28.0,29.68,1004.9,,,,0,0,0,,,,,,,,,2/8 Mostly Clear,72000.0,,FEW,20000.0,,,,,,
KRDR,08-05-2001,05:00,METAR,,180,16.0,,,9999.0,Cloud Development Not Observable,29.0,27.0,29.68,1004.7,,,,0,0,0,,,,,,,,,4/8 Partly Cloudy,72000.0,,FEW,9900.0,SCT,20000.0,,,,
KRDR,08-05-2001,04:00,METAR,,160,14.0,,,9999.0,Cloud Development Not Observable,29.0,29.0,29.71,1005.6,,,,0,0,0,,,,,,,,,4/8 Partly Cloudy,72000.0,,FEW,9900.0,SCT,20000.0,,,,
KRDR,08-05-2001,03:00,METAR,,150,12.0,,,9999.0,Cloud Development Not Observable,30.0,29.0,29.71,1005.6,,,,0,0,0,,,,,,,,,2/8 Mostly Clear,72000.0,,FEW,9900.0,FEW,20000.0,,,,
KRDR,08-05-2001,02:00,METAR,,160,14.0,,,9999.0,Cloud Development Not Observable,31.0,29.0,29.70,1005.3,,,,0,0,0,,,,,,,,,2/8 Mostly Clear,72000.0,,FEW,9900.0,FEW,20000.0,,,,
KRDR,08-05-2001,01:00,METAR,,170,13.0,,,9999.0,Cloud Development Not Observable,33.0,29.0,29.68,1004.9,,,,0,0,0,,,,,,,,,2/8 Mostly Clear,72000.0,,FEW,20000.0,,,,,,
KRDR,08-05-2001,00:00,METAR,,170,17.0,25.0,170/26KTS,9999.0,Cloud Development Not Observable,34.0,29.0,29.70,1005.4,,,,0,0,0,,,,,,,,,4/8 Partly Cloudy,72000.0,,SCT,20000.0,,,,,,
KRDR,08-04-2001,23:00,METAR,,170,16.0,,,9999.0,Cloud Development Not Observable,35.0,29.0,29.74,1006.8,,,,0,0,0,,,,,,,,,7/8 Mostly Cloudy,20000.0,,BKN,20000.0,,,,,,
KRDR,08-04-2001,22:00,METAR,,180,19.0,23.0,,9999.0,Cloud Development Not Observable,34.0,28.0,29.76,1007.5,,,,0,0,0,,,,,,,,,7/8 Mostly Cloudy,20000.0,,FEW,3000.0,BKN,20000.0,,,,
KRDR,08-04-2001,21:00,METAR,,170,17.0,,,9999.0,Cloud Development Not Observable,35.0,27.0,29.77,,,,,0,0,0,,,,,,,,,7/8 Mostly Cloudy,20000.0,,FEW,3000.0,BKN,20000.0,,,,
KRDR,08-04-2001,20:00,METAR,,150,18.0,24.0,,9999.0,Cloud Development Not Observable,35.0,27.0,29.80,,,,,0,0,0,,,,,,,,,4/8 Partly Cloudy,72000.0,,FEW,3000.0,SCT,20000.0,,,,
KRDR,08-04-2001,19:00,METAR,,170,14.0,21.0,,9999.0,Cloud Development Not Observable,34.0,28.0,29.81,,,,,0,0,0,,,,,,,,,4/8 Partly Cloudy,72000.0,,FEW,2500.0,SCT,20000.0,,,,
KRDR,08-04-2001,18:00,METAR,,170,17.0,,,9999.0,Cloud Development Not Observable,33.0,28.0,29.83,1010.0,,,,0,0,0,,,,,,,,,4/8 Partly Cloudy,72000.0,,FEW,2500.0,SCT,20000.0,,,,
KRDR,08-04-2001,17:00,METAR,,180,15.0,,,9999.0,Cloud Development Not Observable,31.0,28.0,29.86,1010.8,,,,0,0,0,,,,,,,,,4/8 Partly Cloudy,72000.0,,SCT,2000.0,,,,,,
KRDR,08-04-2001,16:00,METAR,,170,15.0,,,9999.0,Cloud Development Not Observable,30.0,28.0,29.87,1011.2,,,,0,0,0,,,,,,,,,4/8 Partly Cloudy,72000.0,,SCT,1500.0,,,,,,
KRDR,08-04-2001,15:00,METAR,,180,14.0,,,9999.0,Cloud Development Not Observable,28.0,27.0,29.87,1011.3,,,,0,0,0,,,,,,,,,4/8 Partly Cloudy,72000.0,,SCT,1000.0,,,,,,
KRDR,08-04-2001,14:41,SPECI,,180,14.0,,,9999.0,Cloud Development Not Observable,28.0,28.0,29.87,,,,,0,0,0,,,,,,,,,4/8 Partly Cloudy,72000.0,,SCT,1000.0,,,,,,
KRDR,08-04-2001,14:00,METAR,,180,12.0,,,6400.0,Mist/Cloud Development Not Observable,26.0,26.0,29.88,1011.6,,,,10,0,0,,,,,,,,,7/8 Mostly Cloudy,700.0,,BKN,700.0,,,,,,
KRDR,08-04-2001,13:43,SPECI,,180,10.0,,,6400.0,Mist/Cloud Development Not Observable,26.0,26.0,29.88,,,,,10,0,0,,,,,,,,,7/8 Mostly Cloudy,700.0,,BKN,700.0,,,,,,
KRDR,08-04-2001,13:00,METAR,,170,12.0,,,4800.0,Mist/Cloud Development Not Observable,25.0,25.0,29.89,1011.8,,,,10,0,0,,,,,,,,,7/8 Mostly Cloudy,400.0,,BKN,400.0,,,,,,
KRDR,08-04-2001,12:38,SPECI,,170,10.0,,,3200.0,Mist/Cloud Development Not Observable,25.0,25.0,29.89,,,,,10,0,0,,,,,,,,,7/8 Mostly Cloudy,400.0,,BKN,400.0,,,,,,
KRDR,08-04-2001,12:00,METAR,,170,9.0,,,1000.0,Mist/Cloud Development Not Observable,24.0,24.0,29.88,1011.6,,,,10,0,0,,,,,,,,,Sky Obscured (Unable to Estimate),0.0,100.0,,0.0,,,,,,
KRDR,08-04-2001,11:45,METAR,,170,10.0,,,800.0,Fog or Ice Fog/Cloud Development Not Observable,24.0,24.0,29.88,,,,,44,0,0,,,,,,,,,8/8 Overcast,400.0,,OVC,400.0,,,,,,
KRDR,08-04-2001,11:07,SPECI,,160,8.0,,,1600.0,Mist/Cloud Development Not Observable,25.0,25.0,29.87,,,,,10,0,0,,,,,,,,,8/8 Overcast,500.0,,OVC,500.0,,,,,,
KRDR,08-04-2001,11:00,METAR,,160,7.0,,,4800.0,Mist/Cloud Development Not Observable,24.0,24.0,29.88,1011.5,,,,10,0,0,,,,,,,,,7/8 Mostly Cloudy,700.0,,BKN,700.0,,,,,,
KRDR,08-04-2001,10:40,SPECI,,160,7.0,,,4800.0,Mist/Cloud Development Not Observable,24.0,24.0,29.88,,,,,10,0,0,,,,,,,,,7/8 Mostly Cloudy,700.0,,BKN,700.0,,,,,,
KRDR,08-04-2001,10:00,METAR,,160,8.0,,,6400.0,Mist/Cloud Development Not Observable,25.0,25.0,29.89,1011.7,,,,10,0,0,,,,,,,,,4/8 Partly Cloudy,72000.0,,SCT,700.0,,,,,,
KRDR,08-04-2001,09:46,SPECI,,160,7.0,,,6400.0,Mist/Cloud Development Not Observable,25.0,25.0,29.89,,,,,10,0,0,,,,,,,,,4/8 Partly Cloudy,72000.0,,SCT,700.0,,,,,,
KRDR,08-04-2001,06:00,METAR,,180,6.0,,,9999.0,Cloud Development Not Observable,26.0,26.0,29.89,1012.0,,,,0,0,0,,,,,,,,,Clear,72000.0,,,73000.0,,,,,,
KRDR,08-04-2001,05:00,METAR,,150,6.0,,,9999.0,Cloud Development Not Observable,28.0,27.0,29.90,1012.3,,,,0,0,0,,,,,,,,,2/8 Mostly Clear,72000.0,,FEW,20000.0,,,,,,
KRDR,08-04-2001,04:00,METAR,,140,7.0,,,9999.0,Cloud Development Not Observable,28.0,28.0,29.90,1012.4,,,,0,0,0,,,,,,,,,2/8 Mostly Clear,72000.0,,FEW,20000.0,,,,,,
KRDR,08-04-2001,03:00,METAR,,120,6.0,,,9999.0,Cloud Development Not Observable,29.0,28.0,29.90,1012.4,,,,0,0,0,,,,,,,,,2/8 Mostly Clear,72000.0,,FEW,20000.0,,,,,,
KRDR,08-04-2001,02:00,METAR,,140,5.0,,,9999.0,Cloud Development Not Observable,30.0,28.0,29.89,1011.9,,,,0,0,0,,,,,,,,,Clear,72000.0,,,73000.0,,,,,,
KRDR,08-04-2001,01:00,METAR,,150,6.0,,,9999.0,Cloud Development Not Observable,32.0,28.0,29.90,1012.2,,,,0,0,0,,,,,,,,,2/8 Mostly Clear,72000.0,,FEW,9900.0,,,,,,
KRDR,08-03-2001,23:00,METAR,,170,8.0,,,9999.0,Cloud Development Not Observable,34.0,27.0,29.93,1013.2,,,,0,0,0,,,,,,,,,2/8 Mostly Clear,72000.0,,FEW,4000.0,,,,,,
KRDR,08-03-2001,22:00,METAR,,,6.0,,,9999.0,Cloud Development Not Observable,34.0,27.0,29.94,1013.6,,,,0,0,0,,,,,,,,,4/8 Partly Cloudy,72000.0,,SCT,4000.0,,,,,,
KRDR,08-03-2001,21:00,METAR,,,6.0,,,9999.0,Cloud Development Not Observable,33.0,26.0,29.95,1013.9,,,,0,0,0,,,,,,,,,4/8 Partly Cloudy,72000.0,,SCT,4000.0,,,,,,
KRDR,08-03-2001,20:00,METAR,,,5.0,,,9999.0,Cloud Development Not Observable,32.0,27.0,29.96,1014.5,,,,0,0,0,,,,,,,,,2/8 Mostly Clear,72000.0,,FEW,4000.0,,,,,,
KRDR,08-03-2001,19:00,METAR,,,6.0,,,9999.0,Cloud Development Not Observable,31.0,26.0,29.98,1015.1,,,,0,0,0,,,,,,,,,2/8 Mostly Clear,72000.0,,FEW,5000.0,,,,,,
KRDR,08-03-2001,18:00,METAR,,,6.0,,,9999.0,Cloud Development Not Observable,30.0,25.0,29.98,1015.3,,,,0,0,0,,,,,,,,,2/8 Mostly Clear,72000.0,,FEW,6400.0,,,,,,
KRDR,08-03-2001,17:00,METAR,,,5.0,,,9999.0,Cloud Development Not Observable,29.0,26.0,29.99,1015.6,,,,0,0,0,,,,,,,,,2/8 Mostly Clear,72000.0,,FEW,6400.0,,,,,,
KRDR,08-03-2001,16:00,METAR,,160,7.0,,,9999.0,Cloud Development Not Observable,27.0,25.0,30.00,1015.8,,,,0,0,0,,,,,,,,,2/8 Mostly Clear,72000.0,,FEW,6400.0,,,,,,
KRDR,08-03-2001,15:00,METAR,,170,7.0,,,9999.0,Cloud Development Not Observable,25.0,23.0,30.02,1016.5,,,,0,0,0,,,,,,,,,2/8 Mostly Clear,72000.0,,FEW,6400.0,,,,,,
KRDR,08-03-2001,14:00,METAR,,150,9.0,,,9999.0,Cloud Development Not Observable,23.0,23.0,30.01,1016.4,,,,0,0,0,,,,,,,,,2/8 Mostly Clear,72000.0,,FEW,6900.0,,,,,,
KRDR,08-03-2001,13:00,METAR,,150,6.0,,,9999.0,Cloud Development Not Observable,21.0,21.0,30.01,1016.4,,,,0,0,0,,,,,,,,,4/8 Partly Cloudy,72000.0,,FEW,4000.0,FEW,6900.0,SCT,20000.0,,
KRDR,08-03-2001,12:00,METAR,,140,4.0,,,9999.0,Cloud Development Not Observable,19.0,19.0,30.02,1016.6,,,,0,0,0,,,,,,,,,4/8 Partly Cloudy,72000.0,,FEW,4000.0,FEW,6900.0,SCT,20000.0,,
KRDR,08-03-2001,11:00,METAR,,150,6.0,,,9999.0,Cloud Development Not Observable,20.0,20.0,30.02,1016.6,,,,0,0,0,,,,,,,,,4/8 Partly Cloudy,72000.0,,FEW,4000.0,FEW,6900.0,SCT,20000.0,,
KRDR,08-03-2001,10:00,METAR,,140,6.0,,,9999.0,Cloud Development Not Observable,20.0,20.0,30.02,1016.6,,,,0,0,0,,,,,,,,,4/8 Partly Cloudy,72000.0,,FEW,4000.0,FEW,6900.0,SCT,20000.0,,
KRDR,08-03-2001,09:00,METAR,,150,6.0,,,9999.0,Cloud Development Not Observable,21.0,21.0,30.02,1016.7,,,,0,0,0,,,,,,,,,4/8 Partly Cloudy,72000.0,,FEW,6900.0,SCT,20000.0,,,,
KRDR,08-03-2001,08:00,METAR,,160,7.0,,,9999.0,Cloud Development Not Observable,21.0,21.0,30.04,1017.2,,,,0,0,0,,,,,,,,,2/8 Mostly Clear,72000.0,,FEW,6900.0,FEW,20000.0,,,,
KRDR,08-03-2001,07:00,METAR,,170,7.0,,,9999.0,Cloud Development Not Observable,20.0,20.0,30.04,1017.4,,,,0,0,0,,,,,,,,,2/8 Mostly Clear,72000.0,,FEW,9900.0,FEW,20000.0,,,,
KRDR,08-03-2001,06:00,METAR,,140,6.0,,,9999.0,Cloud Development Not Observable,20.0,20.0,30.07,1018.3,,,,0,0,0,,,,,,,,,2/8 Mostly Clear,72000.0,,FEW,9900.0,FEW,20000.0,,,,
KRDR,08-03-2001,05:00,METAR,,140,6.0,,,9999.0,Cloud Development Not Observable,21.0,21.0,30.08,1018.5,,,,0,0,0,,,,,,,,,2/8 Mostly Clear,72000.0,,FEW,9900.0,FEW,20000.0,,,,
KRDR,08-03-2001,04:00,METAR,,120,6.0,,,9999.0,Cloud Development Not Observable,21.0,21.0,30.09,1019.0,,,,0,0,0,,,,,,,,,2/8 Mostly Clear,72000.0,,FEW,9900.0,FEW,20000.0,,,,
KRDR,08-03-2001,03:00,METAR,,70,4.0,,,9999.0,Cloud Development Not Observable,23.0,22.0,30.09,1018.9,,,,0,0,0,,,,,,,,,4/8 Partly Cloudy,72000.0,,FEW,9900.0,SCT,20000.0,,,,
KRDR,08-03-2001,02:00,METAR,,,4.0,,,9999.0,Cloud Development Not Observable,23.0,22.0,30.09,1018.9,,,,0,0,0,,,,,,,,,4/8 Partly Cloudy,72000.0,,FEW,9900.0,SCT,20000.0,,,,
KRDR,08-03-2001,01:00,METAR,,110,10.0,,,9999.0,Cloud Development Not Observable,25.0,22.0,30.08,1018.6,,,,0,0,0,,,,,,,,,7/8 Mostly Cloudy,10000.0,,BKN,9900.0,BKN,20000.0,,,,
KRDR,08-03-2001,00:00,METAR,,110,8.0,,,9999.0,Cloud Development Not Observable,27.0,22.0,30.11,1019.9,,,,0,0,0,,,,,,,,,7/8 Mostly Cloudy,20000.0,,FEW,6400.0,SCT,9900.0,BKN,20000.0,,
KRDR,08-02-2001,23:38,SPECI,,100,6.0,,,9999.0,Cloud Development Not Observable,26.0,23.0,30.12,,,,,0,0,0,,,,,,,,,7/8 Mostly Cloudy,20000.0,,FEW,6400.0,SCT,9900.0,BKN,20000.0,,
KRDR,08-02-2001,23:01,SPECI,,40,4.0,,,9999.0,Thunderstorm/Cloud Development Not Observable,26.0,21.0,30.15,,,,,17,0,0,,,,,,,,,7/8 Mostly Cloudy,20000.0,,FEW,6400.0,SCT,9900.0,BKN,20000.0,,
KRDR,08-02-2001,23:00,METAR,,80,4.0,,,9999.0,Cloud Development Not Observable,27.0,22.0,30.13,1020.4,,,,0,0,0,,,,,,,,,7/8 Mostly Cloudy,20000.0,,FEW,6400.0,SCT,9900.0,BKN,20000.0,,
KRDR,08-02-2001,22:16,SPECI,,,3.0,,,9999.0,Cloud Development Not Observable,26.0,22.0,30.12,,,,,0,0,0,,,,,,,,,7/8 Mostly Cloudy,20000.0,,FEW,6400.0,SCT,9900.0,BKN,20000.0,,
KRDR,08-02-2001,22:00,METAR,,150,9.0,,,9999.0,Thunderstorm with Rain or Snow/Light Rain Showers/Cloud Development Not Observable,26.0,20.0,30.12,1020.3,,,,95,80,0,,,,,,,,,7/8 Mostly Cloudy,20000.0,,FEW,6400.0,SCT,9900.0,BKN,20000.0,,
KRDR,08-02-2001,21:35,SPECI,,160,6.0,,,9999.0,Thunderstorm with Rain or Snow/Light Rain Showers/Cloud Development Not Observable,26.0,20.0,30.14,,,,,95,80,0,,,,,,,,,7/8 Mostly Cloudy,20000.0,,FEW,6400.0,SCT,9900.0,BKN,20000.0,,
KRDR,08-02-2001,21:20,METAR,,160,11.0,,,9999.0,Thunderstorm/Cloud Development Not Observable,28.0,20.0,30.13,,,,,17,0,0,,,,,,,,,7/8 Mostly Cloudy,20000.0,,FEW,6400.0,SCT,9900.0,BKN,20000.0,,
KRDR,08-02-2001,21:00,METAR,,,6.0,,,9999.0,Cloud Development Not Observable,28.0,20.0,30.14,1020.9,,,,0,0,0,,,,,,,,,7/8 Mostly Cloudy,20000.0,,FEW,6400.0,SCT,9900.0,BKN,20000.0,,
KRDR,08-02-2001,20:00,METAR,,170,10.0,,,9999.0,Cloud Development Not Observable,28.0,20.0,30.17,1022.0,,,,0,0,0,,,,,,,,,4/8 Partly Cloudy,72000.0,,FEW,6400.0,SCT,9900.0,SCT,20000.0,,
KRDR,08-02-2001,19:00,METAR,,150,9.0,,,9999.0,Cloud Development Not Observable,28.0,19.0,30.17,1021.9,,,,0,0,0,,,,,,,,,4/8 Partly Cloudy,72000.0,,FEW,6400.0,FEW,9900.0,SCT,20000.0,,
KRDR,08-02-2001,18:00,METAR,,150,8.0,,,9999.0,Cloud Development Not Observable,27.0,18.0,30.19,1022.7,,,,0,0,0,,,,,,,,,2/8 Mostly Clear,72000.0,,FEW,9900.0,FEW,20000.0,,,,
KRDR,08-02-2001,17:00,METAR,,160,12.0,,,9999.0,Cloud Development Not Observable,26.0,19.0,30.20,1023.0,,,,0,0,0,,,,,,,,,2/8 Mostly Clear,72000.0,,FEW,9900.0,FEW,20000.0,,,,
KRDR,08-02-2001,16:00,METAR,,170,7.0,,,9999.0,Cloud Development Not Observable,25.0,17.0,30.21,1023.2,,,,0,0,0,,,,,,,,,2/8 Mostly Clear,72000.0,,FEW,9900.0,FEW,20000.0,,,,
KRDR,08-02-2001,15:00,METAR,,190,7.0,,,9999.0,Cloud Development Not Observable,23.0,18.0,30.22,1023.7,,,,0,0,0,,,,,,,,,2/8 Mostly Clear,72000.0,,FEW,9900.0,FEW,20000.0,,,,
KRDR,08-02-2001,14:00,METAR,,,4.0,,,9999.0,Cloud Development Not Observable,21.0,18.0,30.22,1023.5,,,,0,0,0,,,,,,,,,4/8 Partly Cloudy,72000.0,,FEW,12000.0,SCT,20000.0,,,,
KRDR,08-02-2001,13:00,METAR,,,4.0,,,9999.0,Cloud Development Not Observable,18.0,18.0,30.22,1023.6,,,,0,0,0,,,,,,,,,4/8 Partly Cloudy,72000.0,,FEW,12000.0,SCT,20000.0,,,,
KRDR,08-02-2001,12:00,METAR,,180,3.0,,,9999.0,Cloud Development Not Observable,15.0,15.0,30.19,1022.7,,,,0,0,0,,,,,,,,,7/8 Mostly Cloudy,20000.0,,BKN,20000.0,,,,,,
KRDR,08-02-2001,11:00,METAR,,220,5.0,,,9999.0,Cloud Development Not Observable,14.0,14.0,30.19,1022.7,,,,0,0,0,,,,,,,,,4/8 Partly Cloudy,72000.0,,SCT,20000.0,,,,,,
KRDR,08-02-2001,10:00,METAR,,250,2.0,,,9999.0,Cloud Development Not Observable,14.0,14.0,30.19,1022.5,,,,0,0,0,,,,,,,,,Clear,72000.0,,,73000.0,,,,,,
KRDR,08-02-2001,09:00,METAR,,250,3.0,,,9999.0,Cloud Development Not Observable,14.0,14.0,30.19,1022.5,,,,0,0,0,,,,,,,,,Clear,72000.0,,,73000.0,,,,,,
KRDR,08-02-2001,08:00,METAR,,230,4.0,,,9999.0,Cloud Development Not Observable,15.0,15.0,30.18,1022.2,,,,0,0,0,,,,,,,,,2/8 Mostly Clear,72000.0,,FEW,20000.0,,,,,,
KRDR,08-02-2001,07:00,METAR,,220,4.0,,,9999.0,Cloud Development Not Observable,16.0,16.0,30.17,1022.0,,,,0,0,0,,,,,,,,,2/8 Mostly Clear,72000.0,,FEW,20000.0,,,,,,
KRDR,08-02-2001,06:00,METAR,,,2.0,,,9999.0,Cloud Development Not Observable,16.0,16.0,30.17,1021.8,,,,0,0,0,,,,,,,,,2/8 Mostly Clear,72000.0,,FEW,20000.0,,,,,,
KRDR,08-02-2001,05:00,METAR,,260,3.0,,,9999.0,Cloud Development Not Observable,17.0,17.0,30.16,1021.7,,,,0,0,0,,,,,,,,,2/8 Mostly Clear,72000.0,,FEW,20000.0,,,,,,
KRDR,08-02-2001,04:00,METAR,,260,4.0,,,9999.0,Cloud Development Not Observable,18.0,17.0,30.15,1021.3,,,,0,0,0,,,,,,,,,2/8 Mostly Clear,72000.0,,FEW,20000.0,,,,,,
KRDR,08-02-2001,03:00,METAR,,250,4.0,,,9999.0,Cloud Development Not Observable,19.0,17.0,30.13,1020.6,,,,0,0,0,,,,,,,,,2/8 Mostly Clear,72000.0,,FEW,20000.0,,,,,,
KRDR,08-02-2001,02:00,METAR,,260,4.0,,,9999.0,Cloud Development Not Observable,23.0,17.0,30.12,1020.0,,,,0,0,0,,,,,,,,,2/8 Mostly Clear,72000.0,,FEW,7900.0,FEW,20000.0,,,,
KRDR,08-02-2001,01:00,METAR,,260,7.0,,,9999.0,Cloud Development Not Observable,24.0,17.0,30.10,1019.4,,,,0,0,0,,,,,,,,,2/8 Mostly Clear,72000.0,,FEW,4000.0,FEW,7900.0,,,,
KRDR,08-02-2001,00:00,METAR,,280,8.0,,,9999.0,Cloud Development Not Observable,25.0,16.0,30.09,1018.9,,,,0,0,0,,,,,,,,,2/8 Mostly Clear,72000.0,,FEW,4000.0,,,,,,
KRDR,08-01-2001,23:00,METAR,,290,8.0,,,9999.0,Cloud Development Not Observable,26.0,16.0,30.08,1018.7,,,,0,0,0,,,,,,,,,4/8 Partly Cloudy,72000.0,,SCT,4000.0,,,,,,
KRDR,08-01-2001,22:00,METAR,,290,10.0,,,9999.0,Cloud Development Not Observable,26.0,18.0,30.08,1018.5,,,,0,0,0,,,,,,,,,4/8 Partly Cloudy,72000.0,,SCT,4000.0,,,,,,
KRDR,08-01-2001,21:00,METAR,,280,11.0,18.0,,9999.0,Cloud Development Not Observable,26.0,15.0,30.07,1018.3,,,,0,0,0,,,,,,,,,4/8 Partly Cloudy,72000.0,,SCT,4000.0,,,,,,
KRDR,08-01-2001,20:00,METAR,,280,12.0,18.0,,9999.0,Cloud Development Not Observable,26.0,16.0,30.06,1018.2,,,,0,0,0,,,,,,,,,4/8 Partly Cloudy,72000.0,,SCT,3500.0,,,,,,
KRDR,08-01-2001,19:00,METAR,,260,12.0,18.0,,9999.0,Cloud Development Not Observable,25.0,16.0,30.05,1017.9,,,,0,0,0,,,,,,,,,4/8 Partly Cloudy,72000.0,,SCT,3500.0,,,,,,
KRDR,08-01-2001,18:00,METAR,,280,13.0,,,9999.0,Cloud Development Not Observable,25.0,16.0,30.03,1017.2,,,,0,0,0,,,,,,,,,4/8 Partly Cloudy,72000.0,,SCT,3000.0,,,,,,
KRDR,08-01-2001,17:00,METAR,,260,10.0,,,9999.0,Cloud Development Not Observable,24.0,18.0,30.02,1016.8,,,,0,0,0,,,,,,,,,4/8 Partly Cloudy,72000.0,,FEW,2000.0,SCT,3000.0,,,,
KRDR,08-01-2001,16:00,METAR,,240,10.0,,,9999.0,Cloud Development Not Observable,23.0,19.0,29.99,1015.8,,,,0,0,0,,,,,,,,,4/8 Partly Cloudy,72000.0,,SCT,3000.0,,,,,,
KRDR,08-01-2001,15:22,SPECI,,280,10.0,,,9999.0,Cloud Development Not Observable,23.0,18.0,29.99,,,,,0,0,0,,,,,,,,,2/8 Mostly Clear,72000.0,,FEW,2000.0,,,,,,
KRDR,08-01-2001,15:00,METAR,,270,10.0,,,9999.0,Cloud Development Not Observable,21.0,19.0,29.98,1015.5,,,,0,0,0,,,,,,,,,7/8 Mostly Cloudy,2000.0,,BKN,2000.0,,,,,,
KRDR,08-01-2001,14:15,SPECI,,270,9.0,,,9999.0,Cloud Development Not Observable,22.0,19.0,29.98,,,,,0,0,0,,,,,,,,,7/8 Mostly Cloudy,2000.0,,BKN,2000.0,,,,,,
KRDR,08-01-2001,14:00,METAR,,270,9.0,,,9999.0,Cloud Development Not Observable,21.0,19.0,29.96,1014.8,,,,0,0,0,,,,,,,,,4/8 Partly Cloudy,72000.0,,FEW,1700.0,SCT,11000.0,,,,
KRDR,08-01-2001,13:00,METAR,,,6.0,,,9999.0,Cloud Development Not Observable,20.0,20.0,29.95,1014.4,,,,0,0,0,,,,,,,,,4/8 Partly Cloudy,72000.0,,FEW,1700.0,SCT,11000.0,,,,
KRDR,08-01-2001,12:39,SPECI,,,3.0,,,9999.0,Cloud Development Not Observable,20.0,20.0,29.96,,,,,0,0,0,,,,,,,,,4/8 Partly Cloudy,72000.0,,FEW,1700.0,SCT,11000.0,,,,
KRDR,08-01-2001,12:00,METAR,,260,3.0,,,9999.0,Cloud Development Not Observable,19.0,19.0,29.94,1014.1,,,,0,0,0,,,,,,,,,7/8 Mostly Cloudy,1700.0,,BKN,1700.0,BKN,9900.0,,,,
KRDR,08-01-2001,11:00,METAR,,290,7.0,,,9999.0,Cloud Development Not Observable,19.0,19.0,29.91,1012.9,,,,0,0,0,,,,,,,,,7/8 Mostly Cloudy,1500.0,,BKN,1500.0,,,,,,
KRDR,08-01-2001,10:25,METAR,,300,5.0,,,9999.0,Cloud Development Not Observable,19.0,19.0,29.89,,,,,0,0,0,,,,,,,,,4/8 Partly Cloudy,72000.0,,SCT,1500.0,SCT,20000.0,,,,
KRDR,08-01-2001,10:00,METAR,,300,14.0,,,9999.0,Cloud Development Not Observable,20.0,20.0,29.87,1011.7,,,,0,0,0,,,,,,,,,7/8 Mostly Cloudy,1500.0,,BKN,1500.0,,,,,,
KRDR,08-01-2001,09:45,METAR,,290,12.0,,,9999.0,Cloud Development Not Observable,20.0,20.0,29.87,,,,,0,0,0,,,,,,,,,7/8 Mostly Cloudy,1500.0,,BKN,1500.0,,,,,,
KRDR,08-01-2001,09:00,METAR,,280,12.0,,,9999.0,Cloud Development Not Observable,21.0,21.0,29.85,1010.9,,,,0,0,0,,,,,,,,,4/8 Partly Cloudy,72000.0,,SCT,1500.0,,,,,,
KRDR,08-01-2001,08:00,METAR,,280,8.0,,,9999.0,Cloud Development Not Observable,19.0,19.0,29.82,1009.9,,,,0,0,0,,,,,,,,,2/8 Mostly Clear,72000.0,,FEW,1000.0,,,,,,
KRDR,08-01-2001,07:00,METAR,,210,8.0,,,9999.0,Cloud Development Not Observable,19.0,19.0,29.80,1009.4,,,,0,0,0,,,,,,,,,4/8 Partly Cloudy,72000.0,,SCT,800.0,,,,,,
KRDR,08-01-2001,06:25,METAR,,260,5.0,,,9999.0,Cloud Development Not Observable,19.0,19.0,29.78,,,,,0,0,0,,,,,,,,,4/8 Partly Cloudy,72000.0,,SCT,800.0,,,,,,
KRDR,08-01-2001,06:00,METAR,,280,3.0,,,9999.0,Cloud Development Not Observable,20.0,20.0,29.77,1008.4,,,,0,0,0,,,,,,,,,7/8 Mostly Cloudy,800.0,,BKN,800.0,,,,,,
KRDR,08-01-2001,05:00,METAR,,280,9.0,,,9999.0,Cloud Development Not Observable,21.0,21.0,29.79,1008.8,,,,0,0,0,,,,,,,,,7/8 Mostly Cloudy,800.0,,BKN,800.0,BKN,2000.0,,,,
KRDR,08-01-2001,04:00,METAR,,300,7.0,,,9999.0,Cloud Development Not Observable,21.0,21.0,29.71,1006.0,,,,0,0,0,,,,,,,,,7/8 Mostly Cloudy,600.0,,BKN,600.0,,,,,,
KRDR,08-01-2001,03:00,METAR,,310,10.0,,,9999.0,Cloud Development Not Observable,22.0,22.0,29.71,1006.0,,,,0,0,0,,,,,,,,,8/8 Overcast,600.0,,BKN,600.0,OVC,1200.0,,,,
KRDR,08-01-2001,02:43,SPECI,,330,8.0,,,9999.0,Cloud Development Not Observable,22.0,22.0,29.70,,,,,0,0,0,,,,,,,,,8/8 Overcast,600.0,,BKN,600.0,OVC,1200.0,,,,
KRDR,08-01-2001,02:00,METAR,,320,8.0,,,9999.0,Cloud Development Not Observable,22.0,22.0,29.67,1005.0,,,,0,0,0,,,,,,,,,8/8 Overcast,3200.0,,FEW,1000.0,SCT,2000.0,BKN,3300.0,OVC,20000.0
KRDR,08-01-2001,01:00,METAR,,340,12.0,,,9999.0,Cloud Development Not Observable,23.0,23.0,29.66,1004.5,,,,0,0,0,,,,,,,,,7/8 Mostly Cloudy,10000.0,,FEW,1000.0,SCT,3000.0,BKN,9900.0,BKN,20000.0
KRDR,08-01-2001,00:00,METAR,,350,9.0,,,9999.0,Cloud Development Not Observable,24.0,24.0,29.63,1003.5,,,,0,0,0,,,,,,,,,7/8 Mostly Cloudy,20000.0,,FEW,2500.0,SCT,7900.0,BKN,20000.0,,
KRDR,07-31-2001,23:10,SPECI,,310,8.0,,,9999.0,Cloud Development Not Observable,22.0,22.0,29.60,,,,,0,0,0,,,,,,,,,7/8 Mostly Cloudy,20000.0,,FEW,2500.0,SCT,7900.0,BKN,20000.0,,
KRDR,07-31-2001,23:00,METAR,,120,6.0,,,9999.0,Thunderstorm with Rain or Snow/Light Rain Showers/Cloud Development Not Observable,22.0,22.0,29.60,1002.5,,,,95,80,0,,,,,,,,,8/8 Overcast,10000.0,,FEW,1500.0,SCT,3000.0,BKN,9900.0,OVC,20000.0
KRDR,07-31-2001,22:12,SPECI,,,6.0,,,9999.0,Thunderstorm with Rain or Snow/Light Rain Showers/Cloud Development Not Observable,23.0,23.0,29.62,,,,,95,80,0,,,,,,,,,8/8 Overcast,3400.0,,FEW,1500.0,BKN,3500.0,BKN,9900.0,OVC,20000.0
KRDR,07-31-2001,22:00,METAR,,60,7.0,,,9999.0,Cloud Development Not Observable,24.0,24.0,29.63,1003.3,,,,0,0,0,,,,,,,,,7/8 Mostly Cloudy,10000.0,,FEW,1200.0,SCT,3500.0,BKN,9900.0,BKN,20000.0
KRDR,07-31-2001,21:00,METAR,,100,9.0,,,9999.0,Thunderstorm with Rain or Snow/Light Rain Showers/Cloud Development Not Observable,22.0,22.0,29.67,1004.9,,,,95,80,0,,,,,,,,,8/8 Overcast,3400.0,,FEW,1000.0,BKN,3500.0,OVC,8900.0,,
KRDR,07-31-2001,20:00,METAR,,310,9.0,,,9999.0,Thunderstorm with Rain or Snow/Light Rain Showers/Cloud Development Not Observable,21.0,21.0,29.75,1007.4,,,,95,80,0,,,,,,,,,8/8 Overcast,3900.0,,FEW,1000.0,BKN,4000.0,OVC,12000.0,,
KRDR,07-31-2001,19:28,SPECI,,80,9.0,,,6400.0,Thunderstorm with Rain or Snow/Rain Showers/Cloud Development Not Observable,22.0,22.0,29.71,,,,,95,81,0,,,,,,,,,,12000.0,,OVC,12000.0,,,,,,
KRDR,07-31-2001,19:12,SPECI,,70,9.0,,,9999.0,Thunderstorm/Cloud Development Not Observable,22.0,22.0,29.71,,,,,17,0,0,,,,,,,,,8/8 Overcast,12000.0,,FEW,800.0,SCT,4000.0,OVC,12000.0,,
KRDR,07-31-2001,19:00,METAR,,70,6.0,,,9999.0,Cloud Development Not Observable,22.0,22.0,29.73,1006.8,,,,0,0,0,,,,,,,,,8/8 Overcast,12000.0,,FEW,1000.0,SCT,6400.0,BKN,12000.0,OVC,20000.0
KRDR,07-31-2001,18:00,METAR,,70,6.0,,,9999.0,Thunderstorm with Rain or Snow/Light Rain Showers/Cloud Development Not Observable,21.0,21.0,29.75,1007.7,,,,95,80,0,,,,,,,,,8/8 Overcast,10000.0,,SCT,4000.0,BKN,9900.0,OVC,20000.0,,
KRDR,07-31-2001,17:39,SPECI,,50,9.0,,,9999.0,Thunderstorm with Rain or Snow/Light Rain Showers/Cloud Development Not Observable,21.0,21.0,29.73,,,,,95,80,0,,,,,,,,,8/8 Overcast,3900.0,,BKN,4000.0,BKN,9900.0,OVC,20000.0,,
KRDR,07-31-2001,17:24,SPECI,,,3.0,,,2400.0,Heavy Thunderstorm with Rain or Snow/Heavy Rain Showers/Cloud Development Not Observable,21.0,21.0,29.76,,,,,97,82,0,,,,,,,,,8/8 Overcast,3900.0,,BKN,4000.0,OVC,9900.0,,,,
KRDR,07-31-2001,17:00,METAR,,50,13.0,,,9999.0,Thunderstorm with Rain or Snow/Light Rain Showers/Mist,21.0,21.0,29.71,,,,,95,80,10,,,,,,,,,8/8 Overcast,10000.0,,SCT,4000.0,OVC,9900.0,,,,
KRDR,07-31-2001,16:40,SPECI,,60,5.0,,,9999.0,Thunderstorm/Mist/Cloud Development Not Observable,21.0,21.0,29.73,,,,,17,10,0,,,,,,,,,8/8 Overcast,11000.0,,SCT,4000.0,OVC,11000.0,,,,
KRDR,07-31-2001,16:00,METAR,,270,22.0,33.0,,3200.0,Thunderstorm with Rain or Snow/Rain Showers/Cloud Development Not Observable,22.0,22.0,29.86,1011.3,,,,95,81,0,,,,,,,,,8/8 Overcast,3900.0,,BKN,4000.0,OVC,8900.0,,,,
KRDR,07-31-2001,15:35,SPECI,,280,25.0,,,4800.0,Thunderstorm with Rain or Snow/Rain Showers/Cloud Development Not Observable,22.0,22.0,29.81,,,,,95,81,0,,,,,,,,,8/8 Overcast,9000.0,,SCT,4000.0,OVC,8900.0,,,,
KRDR,07-31-2001,15:22,SPECI,,90,7.0,,,9999.0,Thunderstorm with Rain or Snow/Light Rain Showers/Cloud Development Not Observable,22.0,22.0,29.72,,,,,95,80,0,,,,,,,,,8/8 Overcast,12000.0,,FEW,1000.0,SCT,4000.0,BKN,12000.0,OVC,20000.0
KRDR,07-31-2001,14:00,METAR,,,3.0,,,9999.0,Cloud Development Not Observable,21.0,21.0,29.78,1008.4,,,,0,0,0,,,,,,,,,8/8 Overcast,12000.0,,FEW,1000.0,SCT,3500.0,BKN,12000.0,OVC,20000.0
KRDR,07-31-2001,13:12,SPECI,,,5.0,,,9999.0,Cloud Development Not Observable,21.0,21.0,29.78,,,,,0,0,0,,,,,,,,,8/8 Overcast,12000.0,,FEW,1000.0,SCT,3500.0,BKN,12000.0,OVC,20000.0
KRDR,07-31-2001,13:00,METAR,,140,7.0,,,9999.0,Light Rain Showers/Cloud Development Not Observable,20.0,20.0,29.77,1007.9,,,,80,0,0,,,,,,,,,8/8 Overcast,12000.0,,SCT,3500.0,BKN,12000.0,OVC,20000.0,,
KRDR,07-31-2001,12:35,SPECI,,140,9.0,,,9999.0,Light Rain Showers/Cloud Development Not Observable,20.0,20.0,29.76,,,,,80,0,0,,,,,,,,,8/8 Overcast,12000.0,,FEW,3500.0,BKN,12000.0,OVC,20000.0,,
KRDR,07-31-2001,12:00,METAR,,60,10.0,,,9999.0,Cloud Development Not Observable,20.0,20.0,29.76,1007.6,,,,0,0,0,,,,,,,,,8/8 Overcast,9000.0,,FEW,1500.0,SCT,3500.0,BKN,8900.0,OVC,20000.0
KRDR,07-31-2001,11:40,SPECI,,70,12.0,,,9999.0,Cloud Development Not Observable,20.0,20.0,29.74,,,,,0,0,0,,,,,,,,,8/8 Overcast,9000.0,,FEW,1500.0,SCT,3500.0,BKN,8900.0,OVC,20000.0
KRDR,07-31-2001,11:00,METAR,,80,13.0,,,9999.0,Thunderstorm with Rain or Snow/Light Rain Showers/Cloud Development Not Observable,20.0,20.0,29.75,1007.2,,,,95,80,0,,,,,,,,,8/8 Overcast,6000.0,,SCT,3500.0,BKN,5900.0,OVC,8900.0,,
KRDR,07-31-2001,10:00,METAR,,60,11.0,,,9999.0,Thunderstorm with Rain or Snow/Light Rain Showers/Cloud Development Not Observable,20.0,20.0,29.80,1009.0,,,,95,80,0,,,,,,,,,8/8 Overcast,6000.0,,SCT,3500.0,BKN,5900.0,OVC,9900.0,,
KRDR,07-31-2001,09:00,METAR,,200,26.0,39.0,,9999.0,Thunderstorm with Rain or Snow/Light Rain Showers/Cloud Development Not Observable,24.0,21.0,29.84,1010.3,,,,95,80,0,,,,,,,,,8/8 Overcast,3400.0,,SCT,1500.0,BKN,3500.0,OVC,12000.0,,
KRDR,07-31-2001,08:40,SPECI,,300,8.0,,,9999.0,Thunderstorm/Cloud Development Not Observable,24.0,24.0,29.78,,,,,17,0,0,,,,,,,,,8/8 Overcast,1500.0,,BKN,1500.0,OVC,3500.0,,,,
KRDR,07-31-2001,08:00,METAR,,350,5.0,,,9999.0,Cloud Development Not Observable,23.0,23.0,29.74,1007.4,,,,0,0,0,,,,,,,,,8/8 Overcast,1700.0,,BKN,1700.0,OVC,3500.0,,,,
KRDR,07-31-2001,07:48,SPECI,,360,6.0,,,9999.0,Cloud Development Not Observable,23.0,23.0,29.74,,,,,0,0,0,,,,,,,,,8/8 Overcast,1800.0,,BKN,1800.0,BKN,3500.0,OVC,12000.0,,
KRDR,07-31-2001,07:00,METAR,,340,4.0,,,9999.0,Cloud Development Not Observable,23.0,23.0,29.75,1007.4,,,,0,0,0,,,,,,,,,8/8 Overcast,3400.0,,SCT,2000.0,BKN,3500.0,OVC,12000.0,,
KRDR,07-31-2001,06:00,METAR,,340,6.0,,,9999.0,Cloud Development Not Observable,23.0,23.0,29.75,1007.5,,,,0,0,0,,,,,,,,,7/8 Mostly Cloudy,12000.0,,SCT,4000.0,BKN,12000.0,,,,
KRDR,07-31-2001,05:00,METAR,,80,3.0,,,9999.0,Cloud Development Not Observable,25.0,25.0,29.76,1007.7,,,,0,0,0,,,,,,,,,4/8 Partly Cloudy,72000.0,,FEW,4000.0,SCT,12000.0,,,,
KRDR,07-31-2001,04:00,METAR,,60,3.0,,,9999.0,Cloud Development Not Observable,26.0,26.0,29.75,1007.5,,,,0,0,0,,,,,,,,,4/8 Partly Cloudy,72000.0,,FEW,3500.0,SCT,12000.0,,,,
KRDR,07-31-2001,03:00,METAR,,110,3.0,,,9999.0,Cloud Development Not Observable,27.0,27.0,29.75,1007.3,,,,0,0,0,,,,,,,,,4/8 Partly Cloudy,72000.0,,FEW,3500.0,SCT,12000.0,,,,
KRDR,07-31-2001,02:00,METAR,,140,5.0,,,9999.0,Cloud Development Not Observable,29.0,27.0,29.75,1007.4,,,,0,0,0,,,,,,,,,7/8 Mostly Cloudy,3000.0,,BKN,3000.0,BKN,12000.0,,,,
KRDR,07-31-2001,01:00,METAR,,120,5.0,,,9999.0,Cloud Development Not Observable,30.0,27.0,29.74,1007.0,,,,0,0,0,,,,,,,,,7/8 Mostly Cloudy,12000.0,,SCT,3500.0,BKN,12000.0,BKN,20000.0,,
KRDR,07-30-2001,23:57,METAR,,150,8.0,,,9999.0,Cloud Development Not Observable,30.0,27.0,29.74,1007.0,,,,0,0,0,,,,,,,,,7/8 Mostly Cloudy,12000.0,,SCT,3500.0,BKN,12000.0,BKN,20000.0,,
KRDR,07-30-2001,23:00,METAR,,180,12.0,,,9999.0,Cloud Development Not Observable,32.0,26.0,29.74,1007.1,,,,0,0,0,,,,,,,,,7/8 Mostly Cloudy,12000.0,,SCT,3500.0,BKN,12000.0,BKN,20000.0,,
KRDR,07-30-2001,22:00,METAR,,140,8.0,,,9999.0,Cloud Development Not Observable,30.0,26.0,29.74,1007.2,,,,0,0,0,,,,,,,,,7/8 Mostly Cloudy,10000.0,,SCT,3300.0,BKN,9900.0,BKN,20000.0,,
KRDR,07-30-2001,21:31,SPECI,,130,9.0,,,9999.0,Cloud Development Not Observable,30.0,26.0,29.74,,,,,0,0,0,,,,,,,,,7/8 Mostly Cloudy,3900.0,,SCT,2500.0,BKN,4000.0,,,,
KRDR,07-30-2001,21:00,METAR,,160,9.0,,,9999.0,Cloud Development Not Observable,29.0,26.0,29.75,1007.4,,,,0,0,0,,,,,,,,,7/8 Mostly Cloudy,2600.0,,BKN,2600.0,BKN,7900.0,,,,
KRDR,07-30-2001,20:00,METAR,,100,11.0,,,9999.0,Cloud Development Not Observable,28.0,25.0,29.75,1007.5,,,,0,0,0,,,,,,,,,7/8 Mostly Cloudy,2500.0,,FEW,1000.0,BKN,2500.0,BKN,11000.0,,
KRDR,07-30-2001,19:00,METAR,,,4.0,,,9999.0,Cloud Development Not Observable,25.0,25.0,29.77,1008.2,,,,0,0,0,,,,,,,,,7/8 Mostly Cloudy,11000.0,,FEW,1000.0,SCT,3000.0,BKN,11000.0,,
KRDR,07-30-2001,18:00,METAR,,,5.0,,,9999.0,Mist/Cloud Development Not Observable,23.0,23.0,29.79,1009.0,,,,10,0,0,,,,,,,,,8/8 Overcast,10000.0,,FEW,1000.0,FEW,3000.0,OVC,9900.0,,
KRDR,07-30-2001,17:00,METAR,,,3.0,,,9999.0,Mist/Cloud Development Not Observable,22.0,22.0,29.80,1009.2,,,,10,0,0,,,,,,,,,8/8 Overcast,11000.0,,FEW,3000.0,OVC,11000.0,,,,
KRDR,07-30-2001,16:41,SPECI,,,3.0,,,9999.0,Mist/Cloud Development Not Observable,21.0,21.0,29.79,,,,,10,0,0,,,,,,,,,8/8 Overcast,11000.0,,SCT,3000.0,OVC,11000.0,,,,
KRDR,07-30-2001,16:30,METAR,,,2.0,,,9999.0,Thunderstorm/Cloud Development Not Observable,21.0,21.0,29.80,,,,,17,0,0,,,,,,,,,8/8 Overcast,11000.0,,FEW,800.0,SCT,3000.0,OVC,11000.0,,
KRDR,07-30-2001,16:06,SPECI,,310,7.0,,,9999.0,Thunderstorm with Rain or Snow/Light Rain Showers/Cloud Development Not Observable,21.0,21.0,,,,,,95,80,0,,,,,,,,,8/8 Overcast,10000.0,,FEW,800.0,SCT,3000.0,OVC,9900.0,,
KRDR,07-30-2001,16:00,METAR,,300,13.0,,,9999.0,Thunderstorm/Cloud Development Not Observable,21.0,21.0,29.72,1006.6,,,,17,0,0,,,,,,,,,8/8 Overcast,11000.0,,FEW,800.0,SCT,3000.0,OVC,11000.0,,
KRDR,07-30-2001,15:39,SPECI,,,5.0,,,9999.0,Thunderstorm/Cloud Development Not Observable,20.0,20.0,29.73,,,,,17,0,0,,,,,,,,,7/8 Mostly Cloudy,10000.0,,FEW,800.0,SCT,3000.0,BKN,9900.0,BKN,20000.0
KRDR,07-30-2001,15:20,METAR,,,5.0,,,9999.0,Cloud Development Not Observable,20.0,20.0,29.76,,,,,0,0,0,,,,,,,,,7/8 Mostly Cloudy,10000.0,,FEW,1000.0,SCT,3000.0,BKN,9900.0,BKN,20000.0
KRDR,07-30-2001,15:00,METAR,,310,13.0,,,9999.0,Thunderstorm with Rain or Snow/Light Rain Showers/Cloud Development Not Observable,19.0,19.0,29.83,1010.4,,,,95,80,0,,,,,,,,,8/8 Overcast,10000.0,,SCT,2500.0,BKN,9900.0,OVC,20000.0,,
KRDR,07-30-2001,14:29,SPECI,,240,8.0,,,9999.0,Thunderstorm with Rain or Snow/Light Rain Showers/Cloud Development Not Observable,20.0,20.0,29.81,,,,,95,80,0,,,,,,,,,7/8 Mostly Cloudy,10000.0,,FEW,800.0,SCT,3000.0,BKN,9900.0,BKN,20000.0
KRDR,07-30-2001,14:12,SPECI,,180,6.0,,,9999.0,Thunderstorm/Cloud Development Not Observable,20.0,20.0,29.77,,,,,17,0,0,,,,,,,,,7/8 Mostly Cloudy,10000.0,,FEW,800.0,SCT,3000.0,BKN,9900.0,BKN,20000.0
KRDR,07-30-2001,14:00,METAR,,,4.0,,,9999.0,Cloud Development Not Observable,21.0,20.0,29.78,1008.5,,,,0,0,0,,,,,,,,,7/8 Mostly Cloudy,20000.0,,SCT,3000.0,SCT,9900.0,BKN,20000.0,,
KRDR,07-30-2001,13:00,METAR,,340,5.0,,,9999.0,Cloud Development Not Observable,17.0,17.0,29.74,1007.3,,,,0,0,0,,,,,,,,,4/8 Partly Cloudy,72000.0,,FEW,3000.0,SCT,9900.0,SCT,20000.0,,
KRDR,07-30-2001,12:00,METAR,,350,8.0,,,9999.0,Cloud Development Not Observable,17.0,17.0,29.75,1007.6,,,,0,0,0,,,,,,,,,7/8 Mostly Cloudy,10000.0,,FEW,5000.0,BKN,9900.0,BKN,20000.0,,
KRDR,07-30-2001,11:00,METAR,,250,6.0,,,9999.0,Cloud Development Not Observable,16.0,16.0,29.84,1010.6,,,,0,0,0,,,,,,,,,7/8 Mostly Cloudy,9000.0,,SCT,5000.0,BKN,8900.0,BKN,20000.0,,
KRDR,07-30-2001,09:59,METAR,,310,4.0,,,9999.0,Cloud Development Not Observable,15.0,15.0,29.77,1008.4,,,,0,0,0,,,,,,,,,2/8 Mostly Clear,72000.0,,FEW,20000.0,,,,,,
KRDR,07-30-2001,08:57,METAR,,230,3.0,,,9999.0,Cloud Development Not Observable,16.0,16.0,29.79,1008.9,,,,0,0,0,,,,,,,,,2/8 Mostly Clear,72000.0,,FEW,20000.0,,,,,,
KRDR,07-30-2001,08:15,SPECI,,,5.0,,,9999.0,Cloud Development Not Observable,16.0,16.0,29.78,,,,,0,0,0,,,,,,,,,2/8 Mostly Clear,72000.0,,FEW,20000.0,,,,,,
KRDR,07-30-2001,08:00,METAR,,290,3.0,,,100.0,Fog or Ice Fog/Cloud Development Not Observable,18.0,18.0,29.78,1008.4,,,,45,0,0,,,,,,,,,Sky Obscured (Unable to Estimate),0.0,100.0,,0.0,,,,,,
KRDR,07-30-2001,07:00,METAR,,330,7.0,,,100.0,Fog or Ice Fog/Cloud Development Not Observable,19.0,19.0,29.78,1008.4,,,,45,0,0,,,,,,,,,Sky Obscured (Unable to Estimate),0.0,100.0,,0.0,,,,,,
KRDR,07-30-2001,06:00,METAR,,320,3.0,,,100.0,Fog or Ice Fog/Cloud Development Not Observable,19.0,19.0,29.77,1008.2,,,,45,0,0,,,,,,,,,Sky Obscured (Unable to Estimate),0.0,100.0,,0.0,,,,,,
KRDR,07-30-2001,05:40,SPECI,,310,4.0,,,100.0,Fog or Ice Fog/Cloud Development Not Observable,19.0,19.0,29.78,,,,,45,0,0,,,,,,,,,Sky Obscured (Unable to Estimate),0.0,100.0,,0.0,,,,,,
KRDR,07-30-2001,05:00,METAR,,310,5.0,,,6400.0,Mist/Cloud Development Not Observable,19.0,19.0,29.79,1008.8,,,,10,0,0,,,,,,,,,2/8 Mostly Clear,72000.0,,FEW,20000.0,,,,,,
KRDR,07-30-2001,04:00,METAR,,330,4.0,,,9999.0,Cloud Development Not Observable,21.0,21.0,29.78,1008.4,,,,0,0,0,,,,,,,,,4/8 Partly Cloudy,72000.0,,FEW,7900.0,SCT,20000.0,,,,
KRDR,07-30-2001,03:00,METAR,,290,3.0,,,9999.0,Cloud Development Not Observable,23.0,23.0,29.79,1008.8,,,,0,0,0,,,,,,,,,7/8 Mostly Cloudy,20000.0,,FEW,5000.0,SCT,7400.0,BKN,20000.0,,
KRDR,07-30-2001,02:00,METAR,,140,3.0,,,9999.0,Cloud Development Not Observable,25.0,25.0,29.76,1007.9,,,,0,0,0,,,,,,,,,7/8 Mostly Cloudy,20000.0,,FEW,5000.0,SCT,7900.0,BKN,20000.0,,
KRDR,07-30-2001,01:00,METAR,,140,4.0,,,9999.0,Cloud Development Not Observable,26.0,25.0,29.77,1008.1,,,,0,0,0,,,,,,,,,7/8 Mostly Cloudy,20000.0,,SCT,7400.0,BKN,20000.0,,,,
KRDR,07-30-2001,00:00,METAR,,120,4.0,,,9999.0,Cloud Development Not Observable,26.0,24.0,29.77,1008.3,,,,0,0,0,,,,,,,,,7/8 Mostly Cloudy,6500.0,,FEW,2500.0,SCT,3500.0,BKN,6400.0,BKN,20000.0
KRDR,07-29-2001,23:00,METAR,,150,2.0,,,9999.0,Cloud Development Not Observable,25.0,24.0,29.78,1008.5,,,,0,0,0,,,,,,,,,8/8 Overcast,3400.0,,FEW,2500.0,BKN,3500.0,OVC,5900.0,,
KRDR,07-29-2001,22:34,SPECI,,130,2.0,,,9999.0,Mist/Cloud Development Not Observable,25.0,25.0,29.79,,,,,10,0,0,,,,,,,,,8/8 Overcast,3200.0,,SCT,2500.0,OVC,3300.0,,,,
KRDR,07-29-2001,22:00,METAR,,150,6.0,,,4800.0,Rain/Mist/Cloud Development Not Observable,24.0,24.0,29.78,1008.5,,,,61,10,0,,,,,,,,,8/8 Overcast,2600.0,,OVC,2600.0,,,,,,
KRDR,07-29-2001,21:00,METAR,,140,7.0,,,9999.0,Rain/Cloud Development Not Observable,25.0,24.0,29.77,1008.2,,,,61,0,0,,,,,,,,,8/8 Overcast,2400.0,,BKN,2400.0,OVC,3500.0,,,,
KRDR,07-29-2001,20:45,METAR,,150,7.0,,,9999.0,Rain/Cloud Development Not Observable,25.0,24.0,29.77,,,,,61,0,0,,,,,,,,,8/8 Overcast,2400.0,,BKN,2400.0,OVC,3500.0,,,,
KRDR,07-29-2001,20:07,SPECI,,160,8.0,,,9999.0,Cloud Development Not Observable,26.0,22.0,29.77,,,,,0,0,0,,,,,,,,,8/8 Overcast,2500.0,,BKN,2500.0,OVC,4000.0,,,,
KRDR,07-29-2001,20:00,METAR,,150,8.0,,,9999.0,Cloud Development Not Observable,26.0,23.0,29.77,1008.3,,,,0,0,0,,,,,,,,,8/8 Overcast,3000.0,,SCT,2500.0,BKN,3000.0,OVC,5000.0,,
KRDR,07-29-2001,19:00,METAR,,160,10.0,,,9999.0,Cloud Development Not Observable,26.0,23.0,,1008.2,,,,0,0,0,,,,,,,,,8/8 Overcast,3000.0,,SCT,2500.0,BKN,3000.0,OVC,9900.0,,
KRDR,07-29-2001,18:00,METAR,,150,13.0,,,9999.0,Cloud Development Not Observable,27.0,22.0,29.77,1008.2,,,,0,0,0,,,,,,,,,7/8 Mostly Cloudy,10000.0,,SCT,2000.0,BKN,9900.0,BKN,20000.0,,
KRDR,07-29-2001,17:33,SPECI,,150,15.0,21.0,,9999.0,Cloud Development Not Observable,27.0,22.0,29.78,,,,,0,0,0,,,,,,,,,7/8 Mostly Cloudy,10000.0,,SCT,2000.0,BKN,9900.0,BKN,20000.0,,
KRDR,07-29-2001,17:00,METAR,,150,13.0,,,9999.0,Cloud Development Not Observable,26.0,21.0,29.79,1008.9,,,,0,0,0,,,,,,,,,7/8 Mostly Cloudy,1500.0,,BKN,1500.0,BKN,20000.0,,,,
KRDR,07-29-2001,16:00,METAR,,150,15.0,23.0,,9999.0,Cloud Development Not Observable,23.0,21.0,29.80,1009.3,,,,0,0,0,,,,,,,,,7/8 Mostly Cloudy,1500.0,,BKN,1500.0,BKN,9900.0,BKN,20000.0,,
KRDR,07-29-2001,15:20,METAR,,160,17.0,22.0,,9999.0,Cloud Development Not Observable,22.0,20.0,29.82,,,,,0,0,0,,,,,,,,,8/8 Overcast,1500.0,,BKN,1500.0,BKN,9900.0,OVC,20000.0,,
KRDR,07-29-2001,15:00,METAR,,160,17.0,,,9999.0,Cloud Development Not Observable,22.0,20.0,29.83,1010.7,,,,0,0,0,,,,,,,,,7/8 Mostly Cloudy,10000.0,,SCT,1000.0,BKN,9900.0,BKN,20000.0,,
KRDR,07-29-2001,14:28,SPECI,,150,13.0,,,9999.0,Cloud Development Not Observable,21.0,20.0,29.84,,,,,0,0,0,,,,,,,,,7/8 Mostly Cloudy,10000.0,,SCT,800.0,BKN,9900.0,BKN,20000.0,,
KRDR,07-29-2001,14:00,METAR,,150,12.0,19.0,,9999.0,Cloud Development Not Observable,20.0,20.0,29.86,1011.3,,,,0,0,0,,,,,,,,,7/8 Mostly Cloudy,700.0,,BKN,700.0,BKN,20000.0,,,,
KRDR,07-29-2001,13:34,SPECI,,140,11.0,,,9999.0,Cloud Development Not Observable,19.0,19.0,29.86,,,,,0,0,0,,,,,,,,,7/8 Mostly Cloudy,700.0,,BKN,700.0,BKN,20000.0,,,,
KRDR,07-29-2001,13:00,METAR,,150,8.0,,,9999.0,Cloud Development Not Observable,18.0,18.0,29.87,1011.6,,,,0,0,0,,,,,,,,,7/8 Mostly Cloudy,10000.0,,SCT,800.0,BKN,9900.0,BKN,20000.0,,
KRDR,07-29-2001,12:00,METAR,,120,9.0,,,9999.0,Cloud Development Not Observable,16.0,16.0,29.86,1011.3,,,,0,0,0,,,,,,,,,7/8 Mostly Cloudy,20000.0,,FEW,1000.0,FEW,9900.0,BKN,20000.0,,
KRDR,07-29-2001,11:00,METAR,,140,7.0,,,9999.0,Cloud Development Not Observable,15.0,15.0,29.87,1011.7,,,,0,0,0,,,,,,,,,7/8 Mostly Cloudy,20000.0,,FEW,9900.0,BKN,20000.0,,,,
KRDR,07-29-2001,10:00,METAR,,150,6.0,,,9999.0,Cloud Development Not Observable,16.0,16.0,29.88,1012.0,,,,0,0,0,,,,,,,,,7/8 Mostly Cloudy,20000.0,,SCT,9900.0,BKN,20000.0,,,,
KRDR,07-29-2001,09:00,METAR,,130,8.0,,,9999.0,Cloud Development Not Observable,16.0,16.0,29.87,1011.6,,,,0,0,0,,,,,,,,,2/8 Mostly Clear,72000.0,,FEW,20000.0,,,,,,
KRDR,07-29-2001,08:00,METAR,,140,5.0,,,9999.0,Cloud Development Not Observable,17.0,16.0,29.93,1013.6,,,,0,0,0,,,,,,,,,2/8 Mostly Clear,72000.0,,FEW,9900.0,FEW,20000.0,,,,
KRDR,07-29-2001,07:00,METAR,,150,9.0,,,9999.0,Cloud Development Not Observable,18.0,18.0,29.94,1014.1,,,,0,0,0,,,,,,,,,2/8 Mostly Clear,72000.0,,FEW,20000.0,,,,,,
KRDR,07-29-2001,06:00,METAR,,140,8.0,,,9999.0,Cloud Development Not Observable,18.0,18.0,29.95,1014.3,,,,0,0,0,,,,,,,,,2/8 Mostly Clear,72000.0,,FEW,9900.0,FEW,20000.0,,,,
KRDR,07-29-2001,05:00,METAR,,150,7.0,,,9999.0,Cloud Development Not Observable,19.0,19.0,29.96,1014.7,,,,0,0,0,,,,,,,,,2/8 Mostly Clear,72000.0,,FEW,9900.0,FEW,20000.0,,,,
KRDR,07-29-2001,04:00,METAR,,150,6.0,,,9999.0,Cloud Development Not Observable,21.0,20.0,29.94,1014.1,,,,0,0,0,,,,,,,,,2/8 Mostly Clear,72000.0,,FEW,9900.0,FEW,20000.0,,,,
KRDR,07-29-2001,03:00,METAR,,150,6.0,,,9999.0,Cloud Development Not Observable,21.0,20.0,29.95,1014.3,,,,0,0,0,,,,,,,,,2/8 Mostly Clear,72000.0,,FEW,9900.0,FEW,20000.0,,,,
KRDR,07-29-2001,02:00,METAR,,150,6.0,,,9999.0,Cloud Development Not Observable,22.0,20.0,29.94,1014.2,,,,0,0,0,,,,,,,,,2/8 Mostly Clear,72000.0,,FEW,20000.0,,,,,,
KRDR,07-29-2001,01:00,METAR,,140,6.0,,,9999.0,Cloud Development Not Observable,24.0,19.0,29.95,1014.5,,,,0,0,0,,,,,,,,,2/8 Mostly Clear,72000.0,,FEW,20000.0,,,,,,
KRDR,07-29-2001,00:00,METAR,,130,6.0,,,9999.0,Cloud Development Not Observable,25.0,20.0,29.96,1014.6,,,,0,0,0,,,,,,,,,2/8 Mostly Clear,72000.0,,FEW,2800.0,FEW,20000.0,,,,
KRDR,07-28-2001,23:00,METAR,,180,5.0,,,9999.0,Cloud Development Not Observable,26.0,19.0,29.97,1015.0,,,,0,0,0,,,,,,,,,2/8 Mostly Clear,72000.0,,FEW,2800.0,FEW,20000.0,,,,
KRDR,07-28-2001,22:00,METAR,,160,6.0,,,9999.0,Cloud Development Not Observable,26.0,20.0,29.98,1015.3,,,,0,0,0,,,,,,,,,7/8 Mostly Cloudy,20000.0,,FEW,2800.0,SCT,8900.0,BKN,20000.0,,
KRDR,07-28-2001,21:00,METAR,,190,7.0,,,9999.0,Cloud Development Not Observable,26.0,20.0,29.99,1015.8,,,,0,0,0,,,,,,,,,7/8 Mostly Cloudy,20000.0,,SCT,2500.0,SCT,7400.0,BKN,20000.0,,
KRDR,07-28-2001,20:00,METAR,,170,2.0,,,9999.0,Cloud Development Not Observable,25.0,19.0,29.99,1015.7,,,,0,0,0,,,,,,,,,7/8 Mostly Cloudy,20000.0,,SCT,2000.0,BKN,20000.0,,,,
KRDR,07-28-2001,19:00,METAR,,,5.0,,,9999.0,Cloud Development Not Observable,25.0,19.0,30.00,1016.0,,,,0,0,0,,,,,,,,,7/8 Mostly Cloudy,20000.0,,SCT,2000.0,BKN,20000.0,,,,
KRDR,07-28-2001,18:00,METAR,,,4.0,,,9999.0,Cloud Development Not Observable,24.0,19.0,30.00,1016.0,,,,0,0,0,,,,,,,,,7/8 Mostly Cloudy,20000.0,,SCT,2000.0,BKN,20000.0,,,,
KRDR,07-28-2001,17:16,SPECI,,20,3.0,,,9999.0,Cloud Development Not Observable,22.0,19.0,30.02,,,,,0,0,0,,,,,,,,,7/8 Mostly Cloudy,20000.0,,SCT,1200.0,BKN,20000.0,,,,
KRDR,07-28-2001,17:00,METAR,,10,3.0,,,9999.0,Cloud Development Not Observable,21.0,18.0,30.03,1017.2,,,,0,0,0,,,,,,,,,7/8 Mostly Cloudy,1200.0,,BKN,1200.0,BKN,20000.0,,,,
KRDR,07-28-2001,16:00,METAR,,290,4.0,,,9999.0,Cloud Development Not Observable,20.0,18.0,30.06,1018.4,,,,0,0,0,,,,,,,,,8/8 Overcast,1200.0,,SCT,800.0,BKN,1200.0,OVC,2000.0,,
KRDR,07-28-2001,15:00,METAR,,330,5.0,,,9999.0,Cloud Development Not Observable,19.0,18.0,30.05,1017.9,,,,0,0,0,,,,,,,,,8/8 Overcast,1000.0,,SCT,700.0,BKN,1000.0,OVC,2000.0,,
KRDR,07-28-2001,14:00,METAR,,360,5.0,,,8000.0,Mist/Cloud Development Not Observable,17.0,17.0,30.05,1018.1,,,,10,0,0,,,,,,,,,8/8 Overcast,1000.0,,SCT,500.0,OVC,1000.0,,,,
KRDR,07-28-2001,13:46,SPECI,,360,5.0,,,6400.0,Mist/Cloud Development Not Observable,17.0,17.0,30.05,,,,,10,0,0,,,,,,,,,8/8 Overcast,1000.0,,SCT,500.0,OVC,1000.0,,,,
KRDR,07-28-2001,13:34,SPECI,,360,5.0,,,4800.0,Mist/Cloud Development Not Observable,17.0,17.0,30.05,,,,,10,0,0,,,,,,,,,8/8 Overcast,500.0,,BKN,500.0,OVC,1000.0,,,,
KRDR,07-28-2001,13:15,SPECI,,20,6.0,,,4000.0,Mist/Cloud Development Not Observable,16.0,16.0,30.05,,,,,10,0,0,,,,,,,,,8/8 Overcast,500.0,,BKN,500.0,OVC,1000.0,,,,
KRDR,07-28-2001,13:04,SPECI,,10,7.0,,,1600.0,Mist/Cloud Development Not Observable,16.0,16.0,30.05,,,,,10,0,0,,,,,,,,,8/8 Overcast,300.0,,BKN,300.0,OVC,600.0,,,,
KRDR,07-28-2001,13:00,METAR,,10,6.0,,,800.0,Fog or Ice Fog/Cloud Development Not Observable,16.0,16.0,30.04,1017.6,,,,44,0,0,,,,,,,,,8/8 Overcast,300.0,,OVC,300.0,,,,,,
KRDR,07-28-2001,12:21,SPECI,,10,5.0,,,800.0,Fog or Ice Fog/Cloud Development Not Observable,16.0,16.0,30.02,,,,,44,0,0,,,,,,,,,8/8 Overcast,300.0,,OVC,300.0,,,,,,
KRDR,07-28-2001,12:00,METAR,,360,6.0,,,600.0,Fog or Ice Fog/Cloud Development Not Observable,17.0,17.0,30.01,1016.5,,,,44,0,0,,,,,,,,,8/8 Overcast,300.0,,OVC,300.0,,,,,,
KRDR,07-28-2001,11:37,SPECI,,340,6.0,,,600.0,Fog or Ice Fog/Cloud Development Not Observable,17.0,17.0,30.01,,,,,44,0,0,,,,,,,,,8/8 Overcast,300.0,,OVC,300.0,,,,,,
KRDR,07-28-2001,11:00,METAR,,320,10.0,,,800.0,Fog or Ice Fog/Cloud Development Not Observable,17.0,17.0,29.99,1016.0,,,,44,0,0,,,,,,,,,8/8 Overcast,300.0,,OVC,300.0,,,,,,
KRDR,07-28-2001,10:30,METAR,,320,10.0,,,1200.0,Mist/Cloud Development Not Observable,17.0,17.0,29.99,,,,,10,0,0,,,,,,,,,8/8 Overcast,400.0,,OVC,400.0,,,,,,
KRDR,07-28-2001,10:00,METAR,,330,9.0,,,4800.0,Mist/Cloud Development Not Observable,17.0,17.0,29.99,1015.8,,,,10,0,0,,,,,,,,,8/8 Overcast,400.0,,OVC,400.0,,,,,,
KRDR,07-28-2001,09:00,METAR,,320,11.0,,,2400.0,Mist/Cloud Development Not Observable,17.0,17.0,29.97,1015.1,,,,10,0,0,,,,,,,,,8/8 Overcast,300.0,,OVC,300.0,,,,,,
KRDR,07-28-2001,08:00,METAR,,330,9.0,,,8000.0,Mist/Cloud Development Not Observable,17.0,17.0,29.96,1014.9,,,,10,0,0,,,,,,,,,8/8 Overcast,400.0,,OVC,400.0,,,,,,
KRDR,07-28-2001,07:00,METAR,,330,11.0,,,8000.0,Mist/Cloud Development Not Observable,18.0,18.0,29.96,1014.7,,,,10,0,0,,,,,,,,,8/8 Overcast,400.0,,OVC,400.0,,,,,,
KRDR,07-28-2001,06:00,METAR,,330,12.0,,,6400.0,Mist/Cloud Development Not Observable,18.0,18.0,29.95,1014.4,,,,10,0,0,,,,,,,,,8/8 Overcast,400.0,,OVC,400.0,,,,,,
KRDR,07-28-2001,05:00,METAR,,340,13.0,,,8000.0,Mist/Cloud Development Not Observable,18.0,18.0,29.93,1013.9,,,,10,0,0,,,,,,,,,8/8 Overcast,400.0,,OVC,400.0,,,,,,
KRDR,07-28-2001,04:00,METAR,,330,14.0,,,8000.0,Mist/Cloud Development Not Observable,18.0,18.0,29.93,1013.9,,,,10,0,0,,,,,,,,,8/8 Overcast,400.0,,OVC,400.0,,,,,,
KRDR,07-28-2001,03:18,SPECI,,340,11.0,,,8000.0,Mist/Cloud Development Not Observable,18.0,18.0,29.93,,,,,10,0,0,,,,,,,,,8/8 Overcast,400.0,,OVC,400.0,,,,,,
KRDR,07-28-2001,03:00,METAR,,340,12.0,,,9999.0,Drizzle/Mist/Cloud Development Not Observable,18.0,18.0,29.92,1013.6,,,,51,10,0,,,,,,,,,8/8 Overcast,500.0,,BKN,500.0,OVC,1500.0,,,,
KRDR,07-28-2001,02:40,SPECI,,340,10.0,,,9999.0,Drizzle/Mist/Cloud Development Not Observable,18.0,18.0,29.92,,,,,51,10,0,,,,,,,,,8/8 Overcast,500.0,,BKN,500.0,OVC,1500.0,,,,
KRDR,07-28-2001,02:00,METAR,,20,12.0,,,4000.0,Drizzle/Mist/Cloud Development Not Observable,19.0,19.0,29.90,1012.9,,,,51,10,0,,,,,,,,,8/8 Overcast,1400.0,,SCT,500.0,OVC,1400.0,,,,
KRDR,07-28-2001,01:40,SPECI,,10,13.0,,,4000.0,Drizzle/Mist/Cloud Development Not Observable,19.0,19.0,29.90,,,,,51,10,0,,,,,,,,,8/8 Overcast,1200.0,,SCT,500.0,OVC,1200.0,,,,
KRDR,07-28-2001,01:00,METAR,,320,10.0,,,1600.0,Drizzle/Mist/Cloud Development Not Observable,19.0,19.0,29.90,1012.9,,,,51,10,0,,,,,,,,,8/8 Overcast,1000.0,,SCT,500.0,OVC,1000.0,,,,
KRDR,07-28-2001,00:47,SPECI,,350,13.0,,,1600.0,Drizzle/Mist/Cloud Development Not Observable,20.0,20.0,29.90,,,,,51,10,0,,,,,,,,,8/8 Overcast,1000.0,,SCT,500.0,OVC,1000.0,,,,
KRDR,07-28-2001,00:40,SPECI,,,4.0,,,6400.0,Drizzle/Mist/Cloud Development Not Observable,20.0,20.0,29.90,,,,,51,10,0,,,,,,,,,8/8 Overcast,1000.0,,SCT,500.0,OVC,1000.0,,,,
KRDR,07-28-2001,00:00,METAR,,160,7.0,,,8000.0,Drizzle/Mist/Cloud Development Not Observable,20.0,20.0,29.89,1012.4,,,,51,10,0,,,,,,,,,8/8 Overcast,2000.0,,FEW,500.0,SCT,1000.0,OVC,2000.0,,
KRDR,07-27-2001,23:00,METAR,,150,10.0,,,4800.0,Light Rain Showers/Mist/Cloud Development Not Observable,20.0,20.0,29.90,1012.8,,,,80,10,0,,,,,,,,,8/8 Overcast,2000.0,,SCT,1000.0,BKN,2000.0,OVC,7400.0,,
KRDR,07-27-2001,22:00,METAR,,160,11.0,,,8000.0,Light Rain Showers/Mist/Cloud Development Not Observable,20.0,20.0,29.90,1012.8,,,,80,10,0,,,,,,,,,8/8 Overcast,2000.0,,SCT,1000.0,BKN,2000.0,OVC,7400.0,,
KRDR,07-27-2001,21:00,METAR,,160,10.0,,,4800.0,Light Rain Showers/Mist/Cloud Development Not Observable,20.0,20.0,29.93,1013.8,,,,80,10,0,,,,,,,,,8/8 Overcast,2000.0,,SCT,1000.0,BKN,2000.0,OVC,6400.0,,
KRDR,07-27-2001,20:12,SPECI,,150,10.0,,,4800.0,Light Rain Showers/Cloud Development Not Observable,21.0,21.0,29.93,,,,,80,0,0,,,,,,,,,8/8 Overcast,2000.0,,SCT,1000.0,BKN,2000.0,OVC,6400.0,,
KRDR,07-27-2001,20:00,METAR,,160,9.0,,,5600.0,Light Rain Showers/Cloud Development Not Observable,21.0,21.0,29.93,1013.7,,,,80,0,0,,,,,,,,,8/8 Overcast,2000.0,,SCT,1200.0,BKN,2000.0,OVC,6400.0,,
KRDR,07-27-2001,19:45,METAR,,150,12.0,,,6000.0,Rain Showers/Cloud Development Not Observable,21.0,21.0,29.93,,,,,81,0,0,,,,,,,,,8/8 Overcast,2000.0,,SCT,1200.0,BKN,2000.0,OVC,6400.0,,
KRDR,07-27-2001,19:00,METAR,,170,12.0,,,8000.0,Light Rain Showers/Cloud Development Not Observable,21.0,21.0,29.94,1014.1,,,,80,0,0,,,,,,,,,8/8 Overcast,1200.0,,BKN,1200.0,BKN,2500.0,OVC,6400.0,,
KRDR,07-27-2001,18:50,METAR,,170,10.0,,,8000.0,Light Rain Showers/Cloud Development Not Observable,21.0,21.0,29.94,,,,,80,0,0,,,,,,,,,8/8 Overcast,1200.0,,BKN,1200.0,BKN,2500.0,OVC,6400.0,,
KRDR,07-27-2001,18:00,METAR,,170,10.0,,,9999.0,Precipitation in the Vicinity/Cloud Development Not Observable,20.0,20.0,29.94,1014.0,,,,16,0,0,,,,,,,,,8/8 Overcast,700.0,,BKN,900.0,BKN,1800.0,OVC,6400.0,,
KRDR,07-27-2001,17:00,METAR,,160,10.0,,,9999.0,Light Rain Showers/Cloud Development Not Observable,19.0,19.0,29.96,1014.7,,,,80,0,0,,,,,,,,,8/8 Overcast,500.0,,BKN,800.0,BKN,1800.0,OVC,6400.0,,
KRDR,07-27-2001,16:20,METAR,,150,10.0,,,9999.0,Light Rain Showers/Cloud Development Not Observable,18.0,18.0,29.96,,,,,80,0,0,,,,,,,,,8/8 Overcast,500.0,,BKN,500.0,BKN,1500.0,OVC,6400.0,,
KRDR,07-27-2001,16:00,METAR,,150,11.0,,,8000.0,Light Rain Showers/Cloud Development Not Observable,18.0,18.0,29.97,1015.2,,,,80,0,0,,,,,,,,,8/8 Overcast,500.0,,BKN,500.0,BKN,2500.0,OVC,6400.0,,
KRDR,07-27-2001,15:30,METAR,,150,7.0,,,8000.0,Light Rain Showers/Cloud Development Not Observable,18.0,18.0,29.97,,,,,80,0,0,,,,,,,,,8/8 Overcast,500.0,,BKN,500.0,BKN,2500.0,OVC,6400.0,,
KRDR,07-27-2001,15:15,SPECI,,130,9.0,,,9999.0,Cloud Development Not Observable,18.0,18.0,29.97,,,,,0,0,0,,,,,,,,,8/8 Overcast,700.0,,BKN,700.0,BKN,2500.0,OVC,6400.0,,
KRDR,07-27-2001,15:00,METAR,,130,6.0,,,9999.0,Light Rain Showers/Cloud Development Not Observable,18.0,18.0,29.98,1015.4,,,,80,0,0,,,,,,,,,8/8 Overcast,2500.0,,SCT,1000.0,BKN,2500.0,OVC,6400.0,,
KRDR,07-27-2001,14:45,METAR,,140,8.0,,,8000.0,Light Rain Showers/Cloud Development Not Observable,18.0,18.0,29.99,,,,,80,0,0,,,,,,,,,8/8 Overcast,1000.0,,BKN,1000.0,OVC,2500.0,,,,
KRDR,07-27-2001,14:35,SPECI,,150,9.0,,,4400.0,Rain Showers/Cloud Development Not Observable,18.0,18.0,29.99,,,,,81,0,0,,,,,,,,,8/8 Overcast,1000.0,,BKN,1000.0,OVC,2500.0,,,,
KRDR,07-27-2001,14:12,METAR,,140,9.0,,,8000.0,Cloud Development Not Observable,18.0,18.0,29.99,,,,,0,0,0,,,,,,,,,8/8 Overcast,2500.0,,SCT,1000.0,BKN,2500.0,BKN,6400.0,OVC,12000.0
KRDR,07-27-2001,14:00,METAR,,150,9.0,,,9999.0,Cloud Development Not Observable,18.0,18.0,29.99,1015.9,,,,0,0,0,,,,,,,,,8/8 Overcast,6500.0,,FEW,1000.0,SCT,2300.0,BKN,6400.0,OVC,12000.0
KRDR,07-27-2001,13:36,SPECI,,150,10.0,,,9999.0,Cloud Development Not Observable,18.0,18.0,29.99,,,,,0,0,0,,,,,,,,,8/8 Overcast,6000.0,,SCT,2300.0,BKN,5900.0,OVC,12000.0,,
KRDR,07-27-2001,13:16,SPECI,,140,10.0,,,9999.0,Light Rain Showers/Cloud Development Not Observable,18.0,18.0,30.00,,,,,80,0,0,,,,,,,,,8/8 Overcast,12000.0,,FEW,3500.0,SCT,5900.0,OVC,12000.0,,
KRDR,07-27-2001,13:00,METAR,,120,7.0,,,9999.0,Cloud Development Not Observable,18.0,18.0,30.01,1016.4,,,,0,0,0,,,,,,,,,8/8 Overcast,12000.0,,FEW,3500.0,SCT,5900.0,OVC,12000.0,,
KRDR,07-27-2001,12:00,METAR,,120,7.0,,,9999.0,Cloud Development Not Observable,18.0,18.0,30.00,1016.2,,,,0,0,0,,,,,,,,,7/8 Mostly Cloudy,12000.0,,SCT,3500.0,BKN,12000.0,BKN,20000.0,,
KRDR,07-27-2001,11:42,SPECI,,120,6.0,,,9999.0,Light Rain Showers/Cloud Development Not Observable,18.0,18.0,30.01,,,,,80,0,0,,,,,,,,,8/8 Overcast,3400.0,,BKN,3500.0,OVC,12000.0,,,,
KRDR,07-27-2001,11:00,METAR,,140,9.0,,,6400.0,Thunderstorm with Rain or Snow/Light Rain Showers/Cloud Development Not Observable,18.0,18.0,30.01,1016.5,,,,95,80,0,,,,,,,,,8/8 Overcast,3400.0,,OVC,3500.0,,,,,,
KRDR,07-27-2001,10:42,SPECI,,140,9.0,,,9999.0,Thunderstorm with Rain or Snow/Light Rain Showers/Cloud Development Not Observable,19.0,19.0,30.03,,,,,95,80,0,,,,,,,,,8/8 Overcast,3400.0,,OVC,3500.0,,,,,,
KRDR,07-27-2001,10:00,METAR,,140,8.0,,,9999.0,Light Rain Showers/Cloud Development Not Observable,19.0,19.0,30.03,1017.2,,,,80,0,0,,,,,,,,,8/8 Overcast,3900.0,,OVC,4000.0,,,,,,
KRDR,07-27-2001,09:00,METAR,,150,11.0,,,9999.0,Light Rain Showers/Cloud Development Not Observable,20.0,18.0,30.04,1017.5,,,,80,0,0,,,,,,,,,8/8 Overcast,3900.0,,BKN,4000.0,OVC,9900.0,,,,
KRDR,07-27-2001,08:00,METAR,,150,12.0,,,9999.0,Light Rain Showers/Cloud Development Not Observable,21.0,18.0,30.04,1017.5,,,,80,0,0,,,,,,,,,8/8 Overcast,3900.0,,BKN,4000.0,BKN,9900.0,OVC,20000.0,,
KRDR,07-27-2001,07:00,METAR,,160,14.0,,,9999.0,Light Rain Showers/Cloud Development Not Observable,21.0,18.0,30.05,1017.9,,,,80,0,0,,,,,,,,,8/8 Overcast,3900.0,,BKN,4000.0,BKN,9900.0,OVC,20000.0,,
KRDR,07-27-2001,06:44,SPECI,,160,14.0,,,9999.0,Light Rain Showers/Cloud Development Not Observable,21.0,18.0,30.05,,,,,80,0,0,,,,,,,,,8/8 Overcast,3900.0,,BKN,4000.0,BKN,9900.0,OVC,20000.0,,
KRDR,07-27-2001,06:00,METAR,,160,15.0,,,9999.0,Cloud Development Not Observable,21.0,18.0,30.05,1017.9,,,,0,0,0,,,,,,,,,8/8 Overcast,10000.0,,SCT,5000.0,BKN,9900.0,OVC,20000.0,,
KRDR,07-27-2001,05:00,METAR,,150,12.0,,,9999.0,Cloud Development Not Observable,22.0,18.0,30.06,1018.1,,,,0,0,0,,,,,,,,,8/8 Overcast,10000.0,,SCT,5000.0,BKN,9900.0,OVC,20000.0,,
KRDR,07-27-2001,04:00,METAR,,150,12.0,,,9999.0,Cloud Development Not Observable,21.0,19.0,30.05,1018.0,,,,0,0,0,,,,,,,,,8/8 Overcast,10000.0,,SCT,5000.0,BKN,9900.0,OVC,20000.0,,
KRDR,07-27-2001,03:00,METAR,,140,12.0,,,9999.0,Cloud Development Not Observable,21.0,19.0,30.05,1017.8,,,,0,0,0,,,,,,,,,8/8 Overcast,9000.0,,SCT,5000.0,BKN,8900.0,OVC,20000.0,,
KRDR,07-27-2001,02:00,METAR,,140,11.0,,,9999.0,Cloud Development Not Observable,23.0,19.0,30.08,1018.6,,,,0,0,0,,,,,,,,,8/8 Overcast,4900.0,,BKN,5000.0,OVC,8900.0,,,,
KRDR,07-27-2001,01:00,METAR,,140,12.0,,,9999.0,Cloud Development Not Observable,24.0,18.0,30.06,1018.3,,,,0,0,0,,,,,,,,,8/8 Overcast,3900.0,,FEW,1000.0,BKN,4000.0,OVC,8900.0,,
KRDR,07-27-2001,00:00,METAR,,150,13.0,,,9999.0,Cloud Development Not Observable,24.0,18.0,30.08,1018.6,,,,0,0,0,,,,,,,,,8/8 Overcast,3400.0,,FEW,1000.0,BKN,3500.0,BKN,5000.0,OVC,8900.0
KRDR,07-26-2001,23:00,METAR,,160,11.0,17.0,,9999.0,Cloud Development Not Observable,24.0,19.0,30.09,1019.2,,,,0,0,0,,,,,,,,,8/8 Overcast,3400.0,,BKN,3500.0,BKN,8900.0,OVC,20000.0,,
KRDR,07-26-2001,22:00,METAR,,160,17.0,22.0,,9999.0,Cloud Development Not Observable,24.0,18.0,30.08,1018.8,,,,0,0,0,,,,,,,,,8/8 Overcast,9000.0,,SCT,4000.0,BKN,8900.0,OVC,20000.0,,
KRDR,07-26-2001,21:00,METAR,,150,15.0,21.0,,9999.0,Cloud Development Not Observable,24.0,18.0,30.09,1019.2,,,,0,0,0,,,,,,,,,7/8 Mostly Cloudy,9000.0,,SCT,3500.0,BKN,8900.0,BKN,20000.0,,
KRDR,07-26-2001,20:00,METAR,,140,13.0,,150/26KTS,9999.0,Cloud Development Not Observable,24.0,18.0,30.09,1019.1,,,,0,0,0,,,,,,,,,7/8 Mostly Cloudy,9000.0,,SCT,3500.0,BKN,8900.0,BKN,20000.0,,
KRDR,07-26-2001,19:00,METAR,,160,19.0,23.0,140/26KTS,9999.0,Cloud Development Not Observable,23.0,16.0,30.12,1020.0,,,,0,0,0,,,,,,,,,7/8 Mostly Cloudy,9000.0,,FEW,4000.0,BKN,8900.0,BKN,20000.0,,
KRDR,07-26-2001,18:00,METAR,,160,15.0,22.0,,9999.0,Cloud Development Not Observable,23.0,16.0,30.14,1020.7,,,,0,0,0,,,,,,,,,7/8 Mostly Cloudy,10000.0,,SCT,4000.0,BKN,9900.0,BKN,20000.0,,
KRDR,07-26-2001,17:00,METAR,,140,13.0,19.0,,9999.0,Cloud Development Not Observable,21.0,16.0,30.15,1021.1,,,,0,0,0,,,,,,,,,7/8 Mostly Cloudy,10000.0,,FEW,2000.0,SCT,4000.0,BKN,9900.0,BKN,20000.0
KRDR,07-26-2001,16:00,METAR,,170,14.0,,,9999.0,Cloud Development Not Observable,20.0,14.0,30.17,1021.8,,,,0,0,0,,,,,,,,,7/8 Mostly Cloudy,10000.0,,SCT,4000.0,BKN,9900.0,BKN,20000.0,,
KRDR,07-26-2001,15:00,METAR,,150,14.0,,,9999.0,Cloud Development Not Observable,20.0,15.0,30.15,1021.1,,,,0,0,0,,,,,,,,,7/8 Mostly Cloudy,10000.0,,FEW,4000.0,BKN,9900.0,BKN,20000.0,,
KRDR,07-26-2001,14:00,METAR,,140,10.0,,,9999.0,Cloud Development Not Observable,20.0,15.0,30.15,1021.3,,,,0,0,0,,,,,,,,,7/8 Mostly Cloudy,9000.0,,SCT,4000.0,BKN,8900.0,BKN,20000.0,,
KRDR,07-26-2001,13:00,METAR,,120,7.0,,,9999.0,Cloud Development Not Observable,18.0,16.0,30.11,1019.6,,,,0,0,0,,,,,,,,,7/8 Mostly Cloudy,9000.0,,FEW,3000.0,FEW,5900.0,SCT,8900.0,BKN,20000.0
KRDR,07-26-2001,12:00,METAR,,140,9.0,,,9999.0,Cloud Development Not Observable,18.0,16.0,30.11,1019.6,,,,0,0,0,,,,,,,,,7/8 Mostly Cloudy,20000.0,,FEW,5900.0,SCT,8900.0,BKN,20000.0,,
KRDR,07-26-2001,11:00,METAR,,140,7.0,,,9999.0,Cloud Development Not Observable,18.0,17.0,30.10,1019.3,,,,0,0,0,,,,,,,,,7/8 Mostly Cloudy,20000.0,,SCT,8900.0,BKN,20000.0,,,,
KRDR,07-26-2001,10:00,METAR,,150,9.0,,,9999.0,Cloud Development Not Observable,19.0,18.0,30.07,1018.4,,,,0,0,0,,,,,,,,,7/8 Mostly Cloudy,20000.0,,SCT,8900.0,BKN,20000.0,,,,
KRDR,07-26-2001,09:00,METAR,,120,14.0,,,9999.0,Cloud Development Not Observable,19.0,18.0,30.02,1016.6,,,,0,0,0,,,,,,,,,8/8 Overcast,9000.0,,FEW,5000.0,BKN,8900.0,OVC,20000.0,,
KRDR,07-26-2001,08:00,METAR,,160,10.0,,,9999.0,Cloud Development Not Observable,20.0,18.0,30.06,1018.2,,,,0,0,0,,,,,,,,,8/8 Overcast,9000.0,,FEW,5000.0,BKN,8900.0,OVC,20000.0,,
KRDR,07-26-2001,07:15,SPECI,,170,9.0,,,9999.0,Cloud Development Not Observable,19.0,18.0,30.08,,,,,0,0,0,,,,,,,,,8/8 Overcast,9000.0,,FEW,5000.0,BKN,8900.0,OVC,20000.0,,
KRDR,07-26-2001,07:00,METAR,,140,6.0,,,9999.0,Light Rain Showers/Cloud Development Not Observable,20.0,19.0,30.07,1018.3,,,,80,0,0,,,,,,,,,8/8 Overcast,9000.0,,FEW,5000.0,BKN,8900.0,OVC,20000.0,,
KRDR,07-26-2001,06:00,METAR,,160,6.0,,,9999.0,Cloud Development Not Observable,20.0,19.0,30.07,1018.6,,,,0,0,0,,,,,,,,,7/8 Mostly Cloudy,9000.0,,FEW,5000.0,BKN,8900.0,BKN,20000.0,,
KRDR,07-26-2001,05:00,METAR,,120,5.0,,,9999.0,Cloud Development Not Observable,21.0,18.0,30.06,1018.2,,,,0,0,0,,,,,,,,,7/8 Mostly Cloudy,9000.0,,FEW,5000.0,BKN,8900.0,BKN,20000.0,,
KRDR,07-26-2001,04:00,METAR,,90,5.0,,,9999.0,Cloud Development Not Observable,21.0,17.0,30.05,1017.9,,,,0,0,0,,,,,,,,,7/8 Mostly Cloudy,9000.0,,FEW,5000.0,BKN,8900.0,BKN,20000.0,,
KRDR,07-26-2001,03:00,METAR,,120,5.0,,,9999.0,Cloud Development Not Observable,22.0,17.0,30.05,1017.9,,,,0,0,0,,,,,,,,,7/8 Mostly Cloudy,9000.0,,FEW,5000.0,BKN,8900.0,BKN,20000.0,,
KRDR,07-26-2001,02:00,METAR,,110,3.0,,,9999.0,Cloud Development Not Observable,23.0,16.0,30.02,1016.9,,,,0,0,0,,,,,,,,,7/8 Mostly Cloudy,10000.0,,BKN,9900.0,BKN,20000.0,,,,
KRDR,07-26-2001,01:00,METAR,,130,7.0,,,9999.0,Cloud Development Not Observable,24.0,17.0,30.02,1016.8,,,,0,0,0,,,,,,,,,7/8 Mostly Cloudy,10000.0,,BKN,9900.0,BKN,20000.0,,,,
KRDR,07-26-2001,00:00,METAR,,140,9.0,,,9999.0,Cloud Development Not Observable,26.0,16.0,30.02,1016.8,,,,0,0,0,,,,,,,,,7/8 Mostly Cloudy,20000.0,,FEW,5000.0,SCT,9900.0,BKN,20000.0,,
KRDR,07-25-2001,23:00,METAR,,130,7.0,,,9999.0,Cloud Development Not Observable,26.0,15.0,30.03,1017.2,,,,0,0,0,,,,,,,,,7/8 Mostly Cloudy,20000.0,,FEW,5000.0,SCT,9900.0,BKN,20000.0,,
KRDR,07-25-2001,22:00,METAR,,130,11.0,,,9999.0,Cloud Development Not Observable,26.0,16.0,30.02,1017.0,,,,0,0,0,,,,,,,,,7/8 Mostly Cloudy,20000.0,,FEW,5000.0,SCT,12000.0,BKN,20000.0,,
KRDR,07-25-2001,21:00,METAR,,110,10.0,17.0,,9999.0,Cloud Development Not Observable,26.0,16.0,30.01,1016.5,,,,0,0,0,,,,,,,,,7/8 Mostly Cloudy,20000.0,,FEW,5000.0,SCT,12000.0,BKN,20000.0,,
KRDR,07-25-2001,20:00,METAR,,130,12.0,17.0,,9999.0,Cloud Development Not Observable,26.0,15.0,30.01,1016.5,,,,0,0,0,,,,,,,,,7/8 Mostly Cloudy,20000.0,,FEW,5000.0,SCT,12000.0,BKN,20000.0,,
KRDR,07-25-2001,19:00,METAR,,120,10.0,,,9999.0,Cloud Development Not Observable,26.0,15.0,30.02,1017.0,,,,0,0,0,,,,,,,,,7/8 Mostly Cloudy,20000.0,,SCT,5000.0,SCT,12000.0,BKN,20000.0,,
KRDR,07-25-2001,18:00,METAR,,130,11.0,,,9999.0,Cloud Development Not Observable,25.0,14.0,30.03,1017.2,,,,0,0,0,,,,,,,,,7/8 Mostly Cloudy,20000.0,,FEW,5000.0,SCT,12000.0,BKN,20000.0,,
KRDR,07-25-2001,17:00,METAR,,120,6.0,,,9999.0,Cloud Development Not Observable,25.0,14.0,30.03,1017.3,,,,0,0,0,,,,,,,,,4/8 Partly Cloudy,72000.0,,FEW,5000.0,FEW,12000.0,SCT,20000.0,,
KRDR,07-25-2001,16:00,METAR,,,6.0,,,9999.0,Cloud Development Not Observable,24.0,13.0,30.04,1017.5,,,,0,0,0,,,,,,,,,4/8 Partly Cloudy,72000.0,,FEW,5000.0,FEW,12000.0,SCT,20000.0,,
KRDR,07-25-2001,15:00,METAR,,,5.0,,,9999.0,Cloud Development Not Observable,22.0,14.0,30.05,1017.8,,,,0,0,0,,,,,,,,,4/8 Partly Cloudy,72000.0,,FEW,12000.0,SCT,20000.0,,,,
KRDR,07-25-2001,14:00,METAR,,,4.0,,,9999.0,Cloud Development Not Observable,19.0,15.0,30.05,1018.0,,,,0,0,0,,,,,,,,,4/8 Partly Cloudy,72000.0,,FEW,12000.0,SCT,20000.0,,,,
KRDR,07-25-2001,13:00,METAR,,,1.0,,,9999.0,Cloud Development Not Observable,16.0,15.0,30.04,1017.5,,,,0,0,0,,,,,,,,,4/8 Partly Cloudy,72000.0,,FEW,12000.0,SCT,20000.0,,,,
KRDR,07-25-2001,12:00,METAR,,290,4.0,,,9999.0,Cloud Development Not Observable,12.0,12.0,30.04,1017.6,,,,0,0,0,,,,,,,,,4/8 Partly Cloudy,72000.0,,FEW,12000.0,SCT,20000.0,,,,
KRDR,07-25-2001,11:00,METAR,,320,5.0,,,9999.0,Cloud Development Not Observable,11.0,11.0,30.02,1017.1,,,,0,0,0,,,,,,,,,2/8 Mostly Clear,72000.0,,FEW,12000.0,FEW,20000.0,,,,
KRDR,07-25-2001,10:00,METAR,,330,4.0,,,9999.0,Cloud Development Not Observable,12.0,11.0,30.02,1016.9,,,,0,0,0,,,,,,,,,4/8 Partly Cloudy,72000.0,,SCT,20000.0,,,,,,
KRDR,07-25-2001,09:00,METAR,,280,4.0,,,9999.0,Cloud Development Not Observable,12.0,12.0,30.02,1016.9,,,,0,0,0,,,,,,,,,4/8 Partly Cloudy,72000.0,,SCT,20000.0,,,,,,
KRDR,07-25-2001,08:00,METAR,,320,3.0,,,9999.0,Cloud Development Not Observable,12.0,12.0,30.01,1016.8,,,,0,0,0,,,,,,,,,7/8 Mostly Cloudy,20000.0,,SCT,12000.0,BKN,20000.0,,,,
KRDR,07-25-2001,07:00,METAR,,300,4.0,,,9999.0,Cloud Development Not Observable,13.0,13.0,30.01,1016.6,,,,0,0,0,,,,,,,,,7/8 Mostly Cloudy,20000.0,,SCT,12000.0,BKN,20000.0,,,,
KRDR,07-25-2001,06:00,METAR,,290,3.0,,,9999.0,Cloud Development Not Observable,14.0,14.0,30.01,1016.7,,,,0,0,0,,,,,,,,,2/8 Mostly Clear,72000.0,,FEW,20000.0,,,,,,
KRDR,07-25-2001,05:00,METAR,,300,4.0,,,9999.0,Cloud Development Not Observable,15.0,14.0,30.02,1017.1,,,,0,0,0,,,,,,,,,2/8 Mostly Clear,72000.0,,FEW,20000.0,,,,,,
KRDR,07-25-2001,04:00,METAR,,,3.0,,,9999.0,Cloud Development Not Observable,17.0,14.0,30.01,1016.5,,,,0,0,0,,,,,,,,,2/8 Mostly Clear,72000.0,,FEW,12000.0,FEW,20000.0,,,,
KRDR,07-25-2001,03:00,METAR,,340,5.0,,,9999.0,Cloud Development Not Observable,18.0,13.0,30.01,1016.8,,,,0,0,0,,,,,,,,,2/8 Mostly Clear,72000.0,,FEW,12000.0,FEW,20000.0,,,,
KRDR,07-25-2001,02:00,METAR,,110,4.0,,,9999.0,Cloud Development Not Observable,22.0,13.0,29.99,1015.9,,,,0,0,0,,,,,,,,,2/8 Mostly Clear,72000.0,,FEW,12000.0,FEW,20000.0,,,,
KRDR,07-25-2001,01:00,METAR,,100,6.0,,,9999.0,Cloud Development Not Observable,23.0,13.0,30.00,1016.3,,,,0,0,0,,,,,,,,,2/8 Mostly Clear,72000.0,,FEW,4500.0,FEW,12000.0,,,,
KRDR,07-25-2001,00:00,METAR,,90,6.0,,,9999.0,Cloud Development Not Observable,24.0,13.0,30.00,1016.4,,,,0,0,0,,,,,,,,,2/8 Mostly Clear,72000.0,,FEW,4500.0,FEW,12000.0,,,,
KRDR,07-24-2001,23:00,METAR,,40,7.0,,,9999.0,Cloud Development Not Observable,24.0,12.0,30.00,1016.4,,,,0,0,0,,,,,,,,,2/8 Mostly Clear,72000.0,,FEW,4500.0,FEW,12000.0,,,,
KRDR,07-24-2001,22:00,METAR,,90,7.0,,,9999.0,Cloud Development Not Observable,24.0,11.0,30.02,1016.9,,,,0,0,0,,,,,,,,,2/8 Mostly Clear,72000.0,,FEW,4500.0,FEW,12000.0,,,,
KRDR,07-24-2001,21:00,METAR,,100,7.0,,,9999.0,Cloud Development Not Observable,23.0,13.0,30.01,1016.5,,,,0,0,0,,,,,,,,,4/8 Partly Cloudy,72000.0,,FEW,4500.0,FEW,12000.0,SCT,20000.0,,
KRDR,07-24-2001,20:00,METAR,,,5.0,,,9999.0,Cloud Development Not Observable,22.0,12.0,30.02,1017.1,,,,0,0,0,,,,,,,,,4/8 Partly Cloudy,72000.0,,FEW,4000.0,FEW,12000.0,SCT,20000.0,,
KRDR,07-24-2001,19:00,METAR,,70,8.0,,,9999.0,Cloud Development Not Observable,22.0,13.0,30.03,1017.2,,,,0,0,0,,,,,,,,,7/8 Mostly Cloudy,20000.0,,FEW,4000.0,FEW,12000.0,BKN,20000.0,,
KRDR,07-24-2001,18:00,METAR,,,5.0,,,9999.0,Cloud Development Not Observable,22.0,11.0,30.06,1018.3,,,,0,0,0,,,,,,,,,7/8 Mostly Cloudy,20000.0,,FEW,3000.0,FEW,12000.0,BKN,20000.0,,
KRDR,07-24-2001,17:00,METAR,,90,10.0,,,9999.0,Cloud Development Not Observable,20.0,11.0,30.06,1018.5,,,,0,0,0,,,,,,,,,7/8 Mostly Cloudy,20000.0,,FEW,3000.0,FEW,12000.0,BKN,20000.0,,
KRDR,07-24-2001,16:00,METAR,,,6.0,,,9999.0,Cloud Development Not Observable,19.0,11.0,30.06,,,,,0,0,0,,,,,,,,,7/8 Mostly Cloudy,20000.0,,FEW,3000.0,SCT,12000.0,BKN,20000.0,,
KRDR,07-24-2001,15:00,METAR,,10,8.0,,,9999.0,Cloud Development Not Observable,17.0,12.0,30.05,1018.1,,,,0,0,0,,,,,,,,,7/8 Mostly Cloudy,20000.0,,FEW,3000.0,SCT,12000.0,BKN,20000.0,,
KRDR,07-24-2001,14:00,METAR,,10,10.0,,,9999.0,Cloud Development Not Observable,17.0,14.0,30.03,1017.2,,,,0,0,0,,,,,,,,,7/8 Mostly Cloudy,20000.0,,FEW,3000.0,FEW,12000.0,BKN,20000.0,,
KRDR,07-24-2001,13:00,METAR,,350,6.0,,,9999.0,Cloud Development Not Observable,15.0,14.0,30.04,1017.5,,,,0,0,0,,,,,,,,,7/8 Mostly Cloudy,20000.0,,FEW,12000.0,BKN,20000.0,,,,
KRDR,07-24-2001,12:00,METAR,,310,5.0,,,9999.0,Cloud Development Not Observable,13.0,13.0,30.03,1017.3,,,,0,0,0,,,,,,,,,7/8 Mostly Cloudy,20000.0,,FEW,12000.0,BKN,20000.0,,,,
KRDR,07-24-2001,11:00,METAR,,230,6.0,,,9999.0,Cloud Development Not Observable,12.0,12.0,30.04,1017.7,,,,0,0,0,,,,,,,,,7/8 Mostly Cloudy,20000.0,,FEW,12000.0,BKN,20000.0,,,,
KRDR,07-24-2001,10:00,METAR,,310,3.0,,,9999.0,Cloud Development Not Observable,12.0,12.0,30.00,1016.2,,,,0,0,0,,,,,,,,,7/8 Mostly Cloudy,25000.0,,BKN,25000.0,,,,,,
KRDR,07-24-2001,09:00,METAR,,350,6.0,,,9999.0,Cloud Development Not Observable,13.0,13.0,29.99,1015.7,,,,0,0,0,,,,,,,,,2/8 Mostly Clear,72000.0,,FEW,25000.0,,,,,,
KRDR,07-24-2001,08:00,METAR,,330,5.0,,,9999.0,Cloud Development Not Observable,13.0,13.0,30.00,1016.1,,,,0,0,0,,,,,,,,,2/8 Mostly Clear,72000.0,,FEW,25000.0,,,,,,
KRDR,07-24-2001,07:00,METAR,,310,6.0,,,9999.0,Cloud Development Not Observable,14.0,13.0,30.01,1016.4,,,,0,0,0,,,,,,,,,Clear,72000.0,,,73000.0,,,,,,
KRDR,07-24-2001,06:00,METAR,,320,6.0,,,9999.0,Cloud Development Not Observable,15.0,14.0,29.99,1015.8,,,,0,0,0,,,,,,,,,Clear,72000.0,,,73000.0,,,,,,
KRDR,07-24-2001,05:00,METAR,,320,5.0,,,9999.0,Cloud Development Not Observable,17.0,14.0,29.98,1015.2,,,,0,0,0,,,,,,,,,2/8 Mostly Clear,72000.0,,FEW,5400.0,,,,,,
KRDR,07-24-2001,03:00,METAR,,330,6.0,,,9999.0,Cloud Development Not Observable,19.0,15.0,29.93,1013.7,,,,0,0,0,,,,,,,,,2/8 Mostly Clear,72000.0,,FEW,5900.0,,,,,,
KRDR,07-24-2001,02:00,METAR,,340,8.0,,,9999.0,Cloud Development Not Observable,21.0,16.0,29.90,1012.5,,,,0,0,0,,,,,,,,,4/8 Partly Cloudy,72000.0,,SCT,5900.0,,,,,,
KRDR,07-24-2001,01:00,METAR,,340,11.0,,,9999.0,Cloud Development Not Observable,24.0,16.0,29.89,1012.0,,,,0,0,0,,,,,,,,,4/8 Partly Cloudy,72000.0,,SCT,5000.0,,,,,,
KRDR,07-24-2001,00:00,METAR,,320,11.0,,,9999.0,Cloud Development Not Observable,25.0,16.0,29.88,1011.9,,,,0,0,0,,,,,,,,,4/8 Partly Cloudy,72000.0,,SCT,5000.0,,,,,,
KRDR,07-23-2001,23:00,METAR,,300,16.0,20.0,,9999.0,Cloud Development Not Observable,27.0,16.0,29.87,1011.5,,,,0,0,0,,,,,,,,,4/8 Partly Cloudy,72000.0,,SCT,5000.0,,,,,,
KRDR,07-23-2001,22:00,METAR,,310,14.0,,290/27KTS,9999.0,Cloud Development Not Observable,28.0,17.0,29.86,1011.1,,,,0,0,0,,,,,,,,,4/8 Partly Cloudy,72000.0,,SCT,5000.0,,,,,,
KRDR,07-23-2001,21:00,METAR,,290,20.0,30.0,,9999.0,Cloud Development Not Observable,28.0,15.0,29.85,1010.7,,,,0,0,0,,,,,,,,,4/8 Partly Cloudy,72000.0,,SCT,3000.0,,,,,,
KRDR,07-23-2001,20:00,METAR,,280,23.0,29.0,,9999.0,Cloud Development Not Observable,28.0,14.0,29.84,1010.5,,,,0,0,0,,,,,,,,,4/8 Partly Cloudy,72000.0,,SCT,3000.0,,,,,,
KRDR,07-23-2001,19:00,METAR,,280,20.0,26.0,290/30KTS,9999.0,Cloud Development Not Observable,28.0,14.0,29.84,1010.5,,,,0,0,0,,,,,,,,,2/8 Mostly Clear,72000.0,,FEW,3000.0,,,,,,
KRDR,07-23-2001,18:00,METAR,,290,20.0,28.0,,9999.0,Cloud Development Not Observable,28.0,14.0,29.85,1010.8,,,,0,0,0,,,,,,,,,2/8 Mostly Clear,72000.0,,FEW,3000.0,,,,,,
KRDR,07-23-2001,17:00,METAR,,280,16.0,20.0,,9999.0,Cloud Development Not Observable,28.0,16.0,29.84,1010.4,,,,0,0,0,,,,,,,,,2/8 Mostly Clear,72000.0,,FEW,3000.0,,,,,,
KRDR,07-23-2001,16:00,METAR,,290,15.0,,,9999.0,Cloud Development Not Observable,25.0,17.0,29.84,1010.6,,,,0,0,0,,,,,,,,,2/8 Mostly Clear,72000.0,,FEW,3000.0,,,,,,
KRDR,07-23-2001,15:00,METAR,,290,12.0,,,9999.0,Cloud Development Not Observable,23.0,13.0,29.85,1010.8,,,,0,0,0,,,,,,,,,2/8 Mostly Clear,72000.0,,FEW,9900.0,,,,,,
KRDR,07-23-2001,14:00,METAR,,290,11.0,,,9999.0,Cloud Development Not Observable,22.0,18.0,29.85,1010.8,,,,0,0,0,,,,,,,,,2/8 Mostly Clear,72000.0,,FEW,9900.0,,,,,,
KRDR,07-23-2001,13:00,METAR,,290,9.0,,,9999.0,Cloud Development Not Observable,22.0,18.0,29.82,1009.8,,,,0,0,0,,,,,,,,,2/8 Mostly Clear,72000.0,,FEW,9900.0,FEW,25000.0,,,,
KRDR,07-23-2001,12:00,METAR,,290,7.0,,,9999.0,Cloud Development Not Observable,22.0,19.0,29.81,1009.5,,,,0,0,0,,,,,,,,,2/8 Mostly Clear,72000.0,,FEW,9900.0,FEW,25000.0,,,,
KRDR,07-23-2001,11:00,METAR,,290,7.0,,,9999.0,Cloud Development Not Observable,21.0,19.0,29.79,1008.6,,,,0,0,0,,,,,,,,,2/8 Mostly Clear,72000.0,,FEW,9900.0,,,,,,
KRDR,07-23-2001,10:00,METAR,,290,12.0,,,9999.0,Cloud Development Not Observable,21.0,19.0,29.77,1008.1,,,,0,0,0,,,,,,,,,2/8 Mostly Clear,72000.0,,FEW,9900.0,,,,,,
KRDR,07-23-2001,09:00,METAR,,280,11.0,,,9999.0,Cloud Development Not Observable,23.0,20.0,29.76,1007.5,,,,0,0,0,,,,,,,,,Clear,72000.0,,,73000.0,,,,,,
KRDR,07-23-2001,08:00,METAR,,280,8.0,,,9999.0,Cloud Development Not Observable,22.0,21.0,29.74,1007.0,,,,0,0,0,,,,,,,,,Clear,72000.0,,,73000.0,,,,,,
KRDR,07-23-2001,07:00,METAR,,270,9.0,,,9999.0,Cloud Development Not Observable,22.0,22.0,29.75,1007.4,,,,0,0,0,,,,,,,,,Clear,72000.0,,,73000.0,,,,,,
KRDR,07-23-2001,06:00,METAR,,190,5.0,,,9999.0,Cloud Development Not Observable,21.0,21.0,29.75,1007.5,,,,0,0,0,,,,,,,,,Clear,72000.0,,,73000.0,,,,,,
KRDR,07-23-2001,05:00,METAR,,160,7.0,,,9999.0,Cloud Development Not Observable,22.0,22.0,29.76,1007.7,,,,0,0,0,,,,,,,,,2/8 Mostly Clear,72000.0,,FEW,9900.0,,,,,,
KRDR,07-23-2001,04:00,METAR,,180,6.0,,,9999.0,Cloud Development Not Observable,22.0,21.0,29.76,1007.7,,,,0,0,0,,,,,,,,,2/8 Mostly Clear,72000.0,,FEW,9900.0,,,,,,
KRDR,07-23-2001,03:00,METAR,,230,5.0,,,9999.0,Cloud Development Not Observable,24.0,22.0,29.74,1007.2,,,,0,0,0,,,,,,,,,2/8 Mostly Clear,72000.0,,FEW,9900.0,,,,,,
KRDR,07-23-2001,02:00,METAR,,280,5.0,,,9999.0,Cloud Development Not Observable,26.0,23.0,29.72,1006.4,,,,0,0,0,,,,,,,,,2/8 Mostly Clear,72000.0,,FEW,9900.0,,,,,,
KRDR,07-23-2001,01:00,METAR,,280,6.0,,,9999.0,Cloud Development Not Observable,28.0,23.0,29.72,1006.3,,,,0,0,0,,,,,,,,,2/8 Mostly Clear,72000.0,,FEW,9900.0,,,,,,
KRDR,07-23-2001,00:00,METAR,,270,9.0,,,9999.0,Cloud Development Not Observable,29.0,21.0,29.74,1006.9,,,,0,0,0,,,,,,,,,2/8 Mostly Clear,72000.0,,FEW,4000.0,FEW,9900.0,,,,
KRDR,07-22-2001,23:00,METAR,,280,11.0,,,9999.0,Cloud Development Not Observable,29.0,19.0,29.75,1007.3,,,,0,0,0,,,,,,,,,2/8 Mostly Clear,72000.0,,FEW,4000.0,,,,,,
KRDR,07-22-2001,22:00,METAR,,270,13.0,,,9999.0,Cloud Development Not Observable,30.0,21.0,29.75,1007.3,,,,0,0,0,,,,,,,,,2/8 Mostly Clear,72000.0,,FEW,4000.0,FEW,20000.0,,,,
KRDR,07-22-2001,21:00,METAR,,240,9.0,,,9999.0,Cloud Development Not Observable,30.0,21.0,29.75,1007.3,,,,0,0,0,,,,,,,,,2/8 Mostly Clear,72000.0,,FEW,4000.0,FEW,20000.0,,,,
KRDR,07-22-2001,20:00,METAR,,260,7.0,,,9999.0,Cloud Development Not Observable,29.0,21.0,29.76,1007.8,,,,0,0,0,,,,,,,,,2/8 Mostly Clear,72000.0,,FEW,4000.0,FEW,20000.0,,,,
KRDR,07-22-2001,19:00,METAR,,310,11.0,,,9999.0,Cloud Development Not Observable,28.0,20.0,29.75,1007.4,,,,0,0,0,,,,,,,,,2/8 Mostly Clear,72000.0,,FEW,4000.0,FEW,20000.0,,,,
KRDR,07-22-2001,18:00,METAR,,250,6.0,,,9999.0,Cloud Development Not Observable,26.0,22.0,29.74,1007.1,,,,0,0,0,,,,,,,,,4/8 Partly Cloudy,72000.0,,FEW,4000.0,SCT,9900.0,SCT,20000.0,,
KRDR,07-22-2001,17:00,METAR,,160,16.0,,,9999.0,Cloud Development Not Observable,23.0,22.0,29.68,1005.1,,,,0,0,0,,,,,,,,,7/8 Mostly Cloudy,10000.0,,SCT,4000.0,BKN,9900.0,BKN,20000.0,,
KRDR,07-22-2001,16:00,METAR,,160,7.0,,,9999.0,Cloud Development Not Observable,24.0,24.0,29.75,1007.5,,,,0,0,0,,,,,,,,,7/8 Mostly Cloudy,10000.0,,SCT,4000.0,BKN,9900.0,BKN,20000.0,,
KRDR,07-22-2001,15:00,METAR,,40,9.0,,,9999.0,Cloud Development Not Observable,21.0,21.0,29.74,1006.9,,,,0,0,0,,,,,,,,,7/8 Mostly Cloudy,10000.0,,FEW,1500.0,SCT,4000.0,BKN,9900.0,BKN,20000.0
KRDR,07-22-2001,14:46,SPECI,,30,11.0,,,9999.0,Cloud Development Not Observable,21.0,21.0,29.75,,,,,0,0,0,,,,,,,,,7/8 Mostly Cloudy,10000.0,,SCT,1500.0,SCT,4000.0,BKN,9900.0,BKN,20000.0
KRDR,07-22-2001,14:37,SPECI,,40,9.0,,,9999.0,Light Rain Showers/Cloud Development Not Observable,20.0,20.0,29.76,,,,,80,0,0,,,,,,,,,7/8 Mostly Cloudy,3900.0,,SCT,1500.0,BKN,4000.0,BKN,9900.0,,
KRDR,07-22-2001,14:12,SPECI,,270,9.0,,,8000.0,Thunderstorm with Rain or Snow/Light Rain Showers/Cloud Development Not Observable,22.0,22.0,29.83,,,,,95,80,0,,,,,,,,,8/8 Overcast,3900.0,,SCT,1500.0,BKN,4000.0,OVC,9900.0,,
KRDR,07-22-2001,14:00,METAR,,270,10.0,,,9999.0,Light Rain Showers/Cloud Development Not Observable,22.0,22.0,29.83,1010.2,,,,80,0,0,,,,,,,,,8/8 Overcast,3900.0,,SCT,1500.0,BKN,4000.0,OVC,9900.0,,
KRDR,07-22-2001,13:09,SPECI,,260,5.0,,,9999.0,Light Rain Showers/Cloud Development Not Observable,22.0,22.0,29.82,,,,,80,0,0,,,,,,,,,8/8 Overcast,10000.0,,FEW,2000.0,SCT,4000.0,OVC,9900.0,,
KRDR,07-22-2001,13:00,METAR,,300,9.0,,,9999.0,Cloud Development Not Observable,22.0,22.0,29.81,1009.5,,,,0,0,0,,,,,,,,,8/8 Overcast,10000.0,,FEW,2000.0,SCT,4000.0,OVC,9900.0,,
KRDR,07-22-2001,12:00,METAR,,300,4.0,,,9999.0,Mist/Cloud Development Not Observable,21.0,21.0,29.77,1007.9,,,,10,0,0,,,,,,,,,8/8 Overcast,11000.0,,FEW,2000.0,SCT,5000.0,BKN,11000.0,OVC,20000.0
KRDR,07-22-2001,11:00,METAR,,,2.0,,,4800.0,Mist/Cloud Development Not Observable,20.0,20.0,29.77,1008.1,,,,10,0,0,,,,,,,,,7/8 Mostly Cloudy,11000.0,,FEW,4000.0,SCT,4000.0,SCT,20000.0,BKN,20000.0
KRDR,07-22-2001,10:00,METAR,,220,5.0,,,8000.0,Mist/Cloud Development Not Observable,19.0,19.0,29.76,1007.6,,,,10,0,0,,,,,,,,,7/8 Mostly Cloudy,20000.0,,FEW,2000.0,SCT,11000.0,BKN,20000.0,,
KRDR,07-22-2001,09:00,METAR,,,3.0,,,9999.0,Cloud Development Not Observable,19.0,19.0,29.75,1007.4,,,,0,0,0,,,,,,,,,2/8 Mostly Clear,72000.0,,FEW,0.0,FEW,12000.0,FEW,20000.0,,
KRDR,07-22-2001,08:00,METAR,,300,3.0,,,9999.0,Cloud Development Not Observable,20.0,20.0,29.77,1008.1,,,,0,0,0,,,,,,,,,4/8 Partly Cloudy,72000.0,,FEW,12000.0,SCT,20000.0,,,,
KRDR,07-22-2001,07:00,METAR,,160,3.0,,,9999.0,Cloud Development Not Observable,21.0,21.0,29.79,1008.6,,,,0,0,0,,,,,,,,,7/8 Mostly Cloudy,12000.0,,BKN,12000.0,BKN,20000.0,,,,
KRDR,07-22-2001,06:00,METAR,,210,2.0,,,9999.0,Cloud Development Not Observable,22.0,22.0,29.77,1008.1,,,,0,0,0,,,,,,,,,2/8 Mostly Clear,72000.0,,FEW,20000.0,,,,,,
KRDR,07-22-2001,05:00,METAR,,210,4.0,,,9999.0,Cloud Development Not Observable,22.0,21.0,29.77,1008.1,,,,0,0,0,,,,,,,,,Clear,72000.0,,,73000.0,,,,,,
KRDR,07-22-2001,04:00,METAR,,180,6.0,,,9999.0,Cloud Development Not Observable,23.0,22.0,29.79,1008.7,,,,0,0,0,,,,,,,,,2/8 Mostly Clear,72000.0,,FEW,20000.0,,,,,,
KRDR,07-22-2001,03:00,METAR,,,4.0,,,9999.0,Cloud Development Not Observable,27.0,22.0,29.80,1009.0,,,,0,0,0,,,,,,,,,2/8 Mostly Clear,72000.0,,FEW,4000.0,FEW,20000.0,,,,
KRDR,07-22-2001,02:00,METAR,,50,5.0,,,9999.0,Cloud Development Not Observable,28.0,22.0,29.80,1009.0,,,,0,0,0,,,,,,,,,2/8 Mostly Clear,72000.0,,FEW,4000.0,FEW,20000.0,,,,
KRDR,07-22-2001,01:00,METAR,,,5.0,,,9999.0,Cloud Development Not Observable,29.0,20.0,29.78,1008.3,,,,0,0,0,,,,,,,,,2/8 Mostly Clear,72000.0,,FEW,4000.0,FEW,20000.0,,,,
KRDR,07-22-2001,00:00,METAR,,,6.0,,,9999.0,Cloud Development Not Observable,30.0,20.0,29.78,1008.3,,,,0,0,0,,,,,,,,,2/8 Mostly Clear,72000.0,,FEW,4000.0,FEW,20000.0,,,,
KRDR,07-21-2001,23:00,METAR,,,5.0,,,9999.0,Cloud Development Not Observable,31.0,21.0,29.80,1008.9,,,,0,0,0,,,,,,,,,2/8 Mostly Clear,72000.0,,FEW,4000.0,FEW,20000.0,,,,
KRDR,07-21-2001,21:00,METAR,,,3.0,,,9999.0,Cloud Development Not Observable,30.0,20.0,29.81,1009.4,,,,0,0,0,,,,,,,,,2/8 Mostly Clear,72000.0,,FEW,4000.0,FEW,20000.0,,,,
KRDR,07-21-2001,20:00,METAR,,130,3.0,,,9999.0,Cloud Development Not Observable,30.0,20.0,29.82,1009.8,,,,0,0,0,,,,,,,,,2/8 Mostly Clear,72000.0,,FEW,4000.0,,,,,,
KRDR,07-21-2001,19:00,METAR,,90,5.0,,,9999.0,Cloud Development Not Observable,30.0,22.0,29.82,1009.8,,,,0,0,0,,,,,,,,,2/8 Mostly Clear,72000.0,,FEW,4000.0,,,,,,
KRDR,07-21-2001,18:00,METAR,,10,8.0,,,9999.0,Cloud Development Not Observable,29.0,21.0,29.81,1009.4,,,,0,0,0,,,,,,,,,2/8 Mostly Clear,72000.0,,FEW,4000.0,,,,,,
KRDR,07-21-2001,17:00,METAR,,20,11.0,,,9999.0,Cloud Development Not Observable,27.0,22.0,29.79,1008.8,,,,0,0,0,,,,,,,,,4/8 Partly Cloudy,72000.0,,SCT,4000.0,,,,,,
KRDR,07-21-2001,16:00,METAR,,10,9.0,,,9999.0,Cloud Development Not Observable,26.0,22.0,29.78,1008.4,,,,0,0,0,,,,,,,,,7/8 Mostly Cloudy,12000.0,,FEW,1500.0,SCT,4000.0,BKN,12000.0,,
KRDR,07-21-2001,15:36,SPECI,,20,11.0,,,9999.0,Cloud Development Not Observable,26.0,22.0,29.77,,,,,0,0,0,,,,,,,,,7/8 Mostly Cloudy,3900.0,,SCT,1400.0,BKN,4000.0,BKN,12000.0,,
KRDR,07-21-2001,15:00,METAR,,,6.0,,,9999.0,Cloud Development Not Observable,23.0,23.0,29.78,1008.5,,,,0,0,0,,,,,,,,,7/8 Mostly Cloudy,1000.0,,SCT,600.0,BKN,1000.0,BKN,5900.0,,
KRDR,07-21-2001,14:00,METAR,,240,6.0,,,9999.0,Cloud Development Not Observable,21.0,21.0,29.79,1008.8,,,,0,0,0,,,,,,,,,7/8 Mostly Cloudy,1000.0,,SCT,600.0,BKN,1000.0,BKN,5900.0,,
KRDR,07-21-2001,13:41,SPECI,,230,7.0,,,9999.0,Cloud Development Not Observable,21.0,21.0,29.79,,,,,0,0,0,,,,,,,,,7/8 Mostly Cloudy,1000.0,,SCT,600.0,BKN,1000.0,BKN,5900.0,,
KRDR,07-21-2001,13:00,METAR,,130,7.0,,,9999.0,Cloud Development Not Observable,20.0,20.0,29.77,1008.1,,,,0,0,0,,,,,,,,,7/8 Mostly Cloudy,600.0,,BKN,600.0,BKN,2000.0,BKN,9900.0,,
KRDR,07-21-2001,12:27,SPECI,,210,5.0,,,9999.0,Cloud Development Not Observable,20.0,20.0,29.79,,,,,0,0,0,,,,,,,,,7/8 Mostly Cloudy,600.0,,BKN,600.0,BKN,2000.0,BKN,9900.0,,
KRDR,07-21-2001,12:00,METAR,,110,6.0,,,9999.0,Light Rain Showers/Mist/Cloud Development Not Observable,21.0,21.0,29.79,1008.8,,,,80,10,0,,,,,,,,,8/8 Overcast,600.0,,BKN,600.0,BKN,2000.0,OVC,12000.0,,
KRDR,07-21-2001,10:59,METAR,,140,8.0,,,9999.0,Cloud Development Not Observable,21.0,21.0,29.79,1008.7,,,,0,0,0,,,,,,,,,8/8 Overcast,2000.0,,FEW,1000.0,BKN,2000.0,BKN,12000.0,OVC,20000.0
KRDR,07-21-2001,10:00,METAR,,220,13.0,19.0,,9999.0,Thunderstorm with Rain or Snow/Light Rain Showers/Cloud Development Not Observable,21.0,21.0,29.86,1011.0,,,,95,80,0,,,,,,,,,8/8 Overcast,2000.0,,BKN,2000.0,OVC,12000.0,,,,
KRDR,07-21-2001,09:00,METAR,,,1.0,,,9999.0,Cloud Development Not Observable,24.0,24.0,29.80,1008.9,,,,0,0,0,,,,,,,,,8/8 Overcast,10000.0,,FEW,1000.0,SCT,4500.0,BKN,9900.0,OVC,20000.0
KRDR,07-21-2001,08:00,METAR,,250,9.0,,,9999.0,Cloud Development Not Observable,23.0,23.0,29.81,1009.4,,,,0,0,0,,,,,,,,,8/8 Overcast,10000.0,,FEW,4500.0,BKN,9900.0,OVC,20000.0,,
KRDR,07-21-2001,07:00,METAR,,230,4.0,,,9999.0,Cloud Development Not Observable,22.0,22.0,29.84,1010.5,,,,0,0,0,,,,,,,,,7/8 Mostly Cloudy,20000.0,,FEW,4500.0,SCT,9900.0,BKN,20000.0,,
KRDR,07-21-2001,06:00,METAR,,200,4.0,,,9999.0,Cloud Development Not Observable,23.0,23.0,29.85,1010.9,,,,0,0,0,,,,,,,,,7/8 Mostly Cloudy,20000.0,,FEW,4000.0,SCT,9900.0,BKN,20000.0,,
KRDR,07-21-2001,05:10,SPECI,,120,12.0,,,9999.0,Light Rain Showers/Cloud Development Not Observable,24.0,24.0,,,,,,80,0,0,,,,,,,,,7/8 Mostly Cloudy,10000.0,,FEW,4500.0,BKN,9900.0,BKN,20000.0,,
KRDR,07-21-2001,05:00,METAR,,220,6.0,,,9999.0,Cloud Development Not Observable,23.0,23.0,29.90,1012.5,,,,0,0,0,,,,,,,,,7/8 Mostly Cloudy,20000.0,,FEW,4000.0,SCT,9900.0,BKN,20000.0,,
KRDR,07-21-2001,04:00,METAR,,70,3.0,,,9999.0,Cloud Development Not Observable,26.0,24.0,29.87,1011.4,,,,0,0,0,,,,,,,,,4/8 Partly Cloudy,72000.0,,FEW,4000.0,FEW,9900.0,SCT,20000.0,,
KRDR,07-21-2001,03:00,METAR,,90,5.0,,,9999.0,Cloud Development Not Observable,26.0,24.0,29.87,1011.5,,,,0,0,0,,,,,,,,,2/8 Mostly Clear,72000.0,,FEW,4000.0,FEW,9900.0,,,,
KRDR,07-21-2001,02:00,METAR,,110,4.0,,,9999.0,Cloud Development Not Observable,28.0,25.0,29.87,1011.4,,,,0,0,0,,,,,,,,,2/8 Mostly Clear,72000.0,,FEW,3000.0,FEW,9900.0,,,,
KRDR,07-21-2001,01:00,METAR,,140,6.0,,,9999.0,Cloud Development Not Observable,30.0,23.0,29.86,1011.2,,,,0,0,0,,,,,,,,,2/8 Mostly Clear,72000.0,,FEW,3000.0,FEW,9900.0,,,,
KRDR,07-21-2001,00:00,METAR,,,4.0,,,9999.0,Cloud Development Not Observable,30.0,21.0,29.86,1011.2,,,,0,0,0,,,,,,,,,2/8 Mostly Clear,72000.0,,FEW,2000.0,,,,,,
KRDR,07-20-2001,23:00,METAR,,,6.0,,,9999.0,Cloud Development Not Observable,31.0,23.0,29.86,1011.2,,,,0,0,0,,,,,,,,,2/8 Mostly Clear,72000.0,,FEW,2000.0,,,,,,
KRDR,07-20-2001,22:00,METAR,,,5.0,,,9999.0,Cloud Development Not Observable,31.0,21.0,29.87,1011.4,,,,0,0,0,,,,,,,,,2/8 Mostly Clear,72000.0,,FEW,2000.0,FEW,9900.0,FEW,20000.0,,
KRDR,07-20-2001,21:00,METAR,,,6.0,,,9999.0,Cloud Development Not Observable,30.0,22.0,29.88,1011.8,,,,0,0,0,,,,,,,,,2/8 Mostly Clear,72000.0,,FEW,2000.0,FEW,9900.0,FEW,20000.0,,
KRDR,07-20-2001,20:00,METAR,,300,9.0,,,9999.0,Cloud Development Not Observable,29.0,22.0,29.89,1011.9,,,,0,0,0,,,,,,,,,2/8 Mostly Clear,72000.0,,FEW,2000.0,FEW,9900.0,FEW,20000.0,,
KRDR,07-20-2001,19:00,METAR,,,5.0,,,9999.0,Cloud Development Not Observable,28.0,22.0,29.89,1012.1,,,,0,0,0,,,,,,,,,2/8 Mostly Clear,72000.0,,FEW,2000.0,FEW,20000.0,,,,
KRDR,07-20-2001,18:00,METAR,,,6.0,,,9999.0,Cloud Development Not Observable,27.0,22.0,29.90,1012.3,,,,0,0,0,,,,,,,,,4/8 Partly Cloudy,72000.0,,SCT,2000.0,,,,,,
KRDR,07-20-2001,17:00,METAR,,80,7.0,,,9999.0,Cloud Development Not Observable,26.0,22.0,29.90,1012.3,,,,0,0,0,,,,,,,,,4/8 Partly Cloudy,72000.0,,SCT,2000.0,,,,,,
KRDR,07-20-2001,16:00,METAR,,,4.0,,,9999.0,Cloud Development Not Observable,24.0,22.0,29.89,1012.2,,,,0,0,0,,,,,,,,,4/8 Partly Cloudy,72000.0,,FEW,1000.0,SCT,20000.0,,,,
KRDR,07-20-2001,15:00,METAR,,60,5.0,,,9999.0,Cloud Development Not Observable,22.0,22.0,29.89,1012.2,,,,0,0,0,,,,,,,,,7/8 Mostly Cloudy,20000.0,,FEW,1000.0,SCT,12000.0,BKN,20000.0,,
KRDR,07-20-2001,14:00,METAR,,80,7.0,,,9999.0,Cloud Development Not Observable,22.0,22.0,29.89,1012.0,,,,0,0,0,,,,,,,,,7/8 Mostly Cloudy,20000.0,,FEW,1000.0,SCT,12000.0,BKN,20000.0,,
KRDR,07-20-2001,13:00,METAR,,,4.0,,,9999.0,Cloud Development Not Observable,21.0,21.0,29.90,1012.3,,,,0,0,0,,,,,,,,,7/8 Mostly Cloudy,12000.0,,BKN,12000.0,BKN,20000.0,,,,
KRDR,07-20-2001,12:00,METAR,,80,3.0,,,9999.0,Cloud Development Not Observable,20.0,20.0,29.90,1014.0,,,,0,0,0,,,,,,,,,8/8 Overcast,12000.0,,BKN,12000.0,OVC,20000.0,,,,
KRDR,07-20-2001,11:00,METAR,,280,6.0,,,9999.0,Cloud Development Not Observable,20.0,20.0,29.95,1014.0,,,,0,0,0,,,,,,,,,7/8 Mostly Cloudy,10000.0,,FEW,1000.0,BKN,9900.0,BKN,20000.0,,
KRDR,07-20-2001,10:00,METAR,,140,8.0,,,9999.0,Cloud Development Not Observable,21.0,21.0,29.90,1012.4,,,,0,0,0,,,,,,,,,8/8 Overcast,10000.0,,BKN,9900.0,OVC,20000.0,,,,
KRDR,07-20-2001,09:35,SPECI,,120,2.0,,,9999.0,Cloud Development Not Observable,21.0,21.0,29.87,,,,,0,0,0,,,,,,,,,8/8 Overcast,20000.0,,FEW,4500.0,SCT,8900.0,OVC,20000.0,,
KRDR,07-20-2001,09:00,METAR,,240,13.0,,,9999.0,Light Rain Showers/Cloud Development Not Observable,21.0,21.0,29.94,1013.8,,,,80,0,0,,,,,,.03 IN,,,8/8 Overcast,9000.0,,SCT,4500.0,BKN,8900.0,OVC,20000.0,,
KRDR,07-20-2001,08:18,SPECI,,260,12.0,21.0,,9999.0,Cloud Development Not Observable,22.0,21.0,29.95,,,,,0,0,0,,,,,,,,,8/8 Overcast,9000.0,,SCT,4500.0,BKN,8900.0,OVC,20000.0,,
KRDR,07-20-2001,08:00,METAR,,260,27.0,37.0,,9999.0,Thunderstorm with Rain or Snow/Light Rain Showers/Cloud Development Not Observable,22.0,20.0,29.97,,,,,95,80,0,,,,,,,,,8/8 Overcast,9000.0,,FEW,2500.0,SCT,4500.0,BKN,8900.0,OVC,20000.0
KRDR,07-20-2001,07:46,SPECI,,240,20.0,30.0,,9999.0,Thunderstorm/Cloud Development Not Observable,23.0,19.0,29.98,,,,,17,0,0,,,,,,,,,8/8 Overcast,9000.0,,FEW,2500.0,SCT,4500.0,BKN,8900.0,OVC,20000.0
KRDR,07-20-2001,07:00,METAR,,150,5.0,,,9999.0,Cloud Development Not Observable,24.0,24.0,29.89,1011.8,,,,0,0,0,,,,,,,,,8/8 Overcast,20000.0,,FEW,9900.0,OVC,20000.0,,,,
KRDR,07-20-2001,06:00,METAR,,260,2.0,,,9999.0,Cloud Development Not Observable,23.0,23.0,29.91,1012.6,,,,0,0,0,,,,,,,,,7/8 Mostly Cloudy,20000.0,,FEW,9900.0,BKN,20000.0,,,,
KRDR,07-20-2001,05:00,METAR,,210,2.0,,,9999.0,Cloud Development Not Observable,23.0,23.0,29.90,1012.5,,,,0,0,0,,,,,,,,,7/8 Mostly Cloudy,20000.0,,FEW,9900.0,BKN,20000.0,,,,
KRDR,07-20-2001,04:00,METAR,,120,6.0,,,9999.0,Cloud Development Not Observable,25.0,23.0,29.89,1011.9,,,,0,0,0,,,,,,,,,4/8 Partly Cloudy,72000.0,,FEW,9900.0,SCT,20000.0,,,,
KRDR,07-20-2001,03:00,METAR,,120,6.0,,,9999.0,Cloud Development Not Observable,26.0,24.0,29.89,1012.2,,,,0,0,0,,,,,,,,,4/8 Partly Cloudy,72000.0,,FEW,9900.0,SCT,20000.0,,,,
KRDR,07-20-2001,02:00,METAR,,120,6.0,,,9999.0,Cloud Development Not Observable,27.0,24.0,29.89,1012.2,,,,0,0,0,,,,,,,,,4/8 Partly Cloudy,72000.0,,FEW,9900.0,SCT,20000.0,,,,
KRDR,07-20-2001,01:00,METAR,,130,9.0,,,9999.0,Cloud Development Not Observable,30.0,23.0,29.89,1012.1,,,,0,0,0,,,,,,,,,4/8 Partly Cloudy,72000.0,,FEW,4000.0,SCT,25000.0,,,,
KRDR,07-20-2001,00:00,METAR,,130,8.0,,,9999.0,Cloud Development Not Observable,31.0,23.0,29.89,1012.1,,,,0,0,0,,,,,,,,,2/8 Mostly Clear,72000.0,,FEW,4000.0,FEW,25000.0,,,,
KRDR,07-19-2001,23:00,METAR,,120,9.0,,,9999.0,Cloud Development Not Observable,32.0,22.0,29.89,1011.9,,,,0,0,0,,,,,,,,,2/8 Mostly Clear,72000.0,,FEW,4000.0,FEW,25000.0,,,,
KRDR,07-19-2001,22:00,METAR,,110,8.0,14.0,,9999.0,Cloud Development Not Observable,32.0,21.0,29.89,1012.1,,,,0,0,0,,,,,,,,,2/8 Mostly Clear,72000.0,,FEW,4000.0,FEW,25000.0,,,,
KRDR,07-19-2001,21:00,METAR,,140,5.0,,,9999.0,Cloud Development Not Observable,32.0,21.0,29.89,1012.1,,,,0,0,0,,,,,,,,,2/8 Mostly Clear,72000.0,,FEW,4000.0,,,,,,
KRDR,07-19-2001,20:00,METAR,,230,6.0,,,9999.0,Cloud Development Not Observable,31.0,21.0,29.90,1012.2,,,,0,0,0,,,,,,,,,2/8 Mostly Clear,72000.0,,FEW,4000.0,,,,,,
KRDR,07-19-2001,19:00,METAR,,,4.0,,,9999.0,Cloud Development Not Observable,30.0,22.0,29.90,1012.3,,,,0,0,0,,,,,,,,,2/8 Mostly Clear,72000.0,,FEW,4000.0,,,,,,
KRDR,07-19-2001,18:00,METAR,,,4.0,,,9999.0,Cloud Development Not Observable,29.0,22.0,29.90,1012.3,,,,0,0,0,,,,,,,,,2/8 Mostly Clear,72000.0,,FEW,20000.0,,,,,,
KRDR,07-19-2001,17:00,METAR,,,2.0,,,9999.0,Cloud Development Not Observable,27.0,21.0,29.90,1012.5,,,,0,0,0,,,,,,,,,2/8 Mostly Clear,72000.0,,FEW,20000.0,,,,,,
KRDR,07-19-2001,16:00,METAR,,,4.0,,,9999.0,Cloud Development Not Observable,25.0,21.0,29.90,1012.3,,,,0,0,0,,,,,,,,,4/8 Partly Cloudy,72000.0,,FEW,9900.0,SCT,20000.0,,,,
KRDR,07-19-2001,15:00,METAR,,,5.0,,,9999.0,Cloud Development Not Observable,22.0,20.0,29.91,1012.7,,,,0,0,0,,,,,,,,,4/8 Partly Cloudy,72000.0,,FEW,9900.0,SCT,15000.0,SCT,20000.0,,
KRDR,07-19-2001,14:00,METAR,,140,6.0,,,9999.0,Cloud Development Not Observable,22.0,20.0,29.90,1012.5,,,,0,0,0,,,,,,,,,7/8 Mostly Cloudy,15000.0,,FEW,9900.0,BKN,15000.0,BKN,20000.0,,
KRDR,07-19-2001,13:00,METAR,,100,3.0,,,9999.0,Cloud Development Not Observable,21.0,20.0,29.88,1011.8,,,,0,0,0,,,,,,,,,7/8 Mostly Cloudy,15000.0,,FEW,9900.0,BKN,15000.0,BKN,20000.0,,
KRDR,07-19-2001,12:00,METAR,,200,8.0,,,9999.0,Cloud Development Not Observable,21.0,20.0,29.93,1013.5,,,,0,0,0,,,,,,,,,7/8 Mostly Cloudy,20000.0,,SCT,9900.0,BKN,20000.0,,,,
KRDR,07-19-2001,11:00,METAR,,210,5.0,,,9999.0,Cloud Development Not Observable,19.0,19.0,29.93,1013.6,,,,0,0,0,,,,,,,,,8/8 Overcast,10000.0,,FEW,4500.0,BKN,9900.0,OVC,20000.0,,
KRDR,07-19-2001,10:00,METAR,,200,7.0,,,9999.0,Cloud Development Not Observable,20.0,20.0,29.90,1012.4,,,,0,0,0,,,,,,,,,7/8 Mostly Cloudy,20000.0,,FEW,8900.0,BKN,20000.0,,,,
KRDR,07-19-2001,09:00,METAR,,200,8.0,,,9999.0,Cloud Development Not Observable,20.0,20.0,29.85,1010.7,,,,0,0,0,,,,,,,,,7/8 Mostly Cloudy,20000.0,,FEW,8900.0,BKN,20000.0,,,,
KRDR,07-19-2001,08:00,METAR,,140,11.0,,,9999.0,Cloud Development Not Observable,21.0,21.0,29.87,1011.4,,,,0,0,0,,,,,,,,,7/8 Mostly Cloudy,20000.0,,FEW,3000.0,SCT,8900.0,BKN,20000.0,,
KRDR,07-19-2001,07:40,SPECI,,120,9.0,,,9999.0,Cloud Development Not Observable,21.0,21.0,29.87,,,,,0,0,0,,,,,,,,,7/8 Mostly Cloudy,9000.0,,SCT,3000.0,BKN,8900.0,BKN,20000.0,,
KRDR,07-19-2001,07:00,METAR,,100,8.0,,,9999.0,Thunderstorm/Cloud Development Not Observable,21.0,21.0,29.89,1011.9,,,,17,0,0,,,,,,,,,8/8 Overcast,10000.0,,FEW,1000.0,SCT,3000.0,BKN,9900.0,OVC,20000.0
KRDR,07-19-2001,06:15,SPECI,,120,11.0,,,9999.0,Thunderstorm/Cloud Development Not Observable,21.0,21.0,29.87,,,,,17,0,0,,,,,,,,,8/8 Overcast,4400.0,,FEW,1000.0,SCT,3000.0,BKN,4500.0,OVC,6900.0
KRDR,07-19-2001,06:00,METAR,,200,17.0,,,8000.0,Thunderstorm with Rain or Snow/Light Rain Showers/Cloud Development Not Observable,21.0,21.0,29.92,1013.2,,,,95,80,0,,,,,,,,,8/8 Overcast,2500.0,,FEW,1000.0,BKN,2500.0,OVC,3000.0,,
KRDR,07-19-2001,05:40,SPECI,,190,10.0,,,9999.0,Thunderstorm with Rain or Snow/Light Rain Showers/Cloud Development Not Observable,22.0,21.0,29.92,,,,,95,80,0,,,,,,,,,8/8 Overcast,2500.0,,FEW,1000.0,BKN,2500.0,OVC,4000.0,,
KRDR,07-19-2001,05:15,SPECI,,60,5.0,,,9999.0,Thunderstorm/Cloud Development Not Observable,23.0,23.0,29.89,,,,,17,0,0,,,,,,,,,7/8 Mostly Cloudy,3900.0,,FEW,500.0,SCT,2500.0,BKN,4000.0,,
KRDR,07-19-2001,05:00,METAR,,170,14.0,21.0,,9999.0,Thunderstorm with Rain or Snow/Light Rain Showers/Cloud Development Not Observable,22.0,22.0,29.85,1010.9,,,,95,80,0,,,,,,,,,8/8 Overcast,2500.0,,FEW,500.0,BKN,2500.0,OVC,4000.0,,
KRDR,07-19-2001,04:41,SPECI,,90,8.0,,,9999.0,Thunderstorm with Rain or Snow/Light Rain Showers/Cloud Development Not Observable,22.0,22.0,29.83,,,,,95,80,0,,,,,,,,,8/8 Overcast,2500.0,,FEW,600.0,BKN,2500.0,OVC,5900.0,,
KRDR,07-19-2001,04:00,METAR,,80,6.0,,,9999.0,Thunderstorm with Rain or Snow/Light Rain Showers/Cloud Development Not Observable,23.0,23.0,29.85,1010.7,,,,95,80,0,,,,,,,,,8/8 Overcast,4400.0,,BKN,4500.0,BKN,5900.0,BKN,9900.0,OVC,20000.0
KRDR,07-19-2001,03:00,METAR,,50,10.0,,,9999.0,Thunderstorm with Rain or Snow/Light Rain Showers/Cloud Development Not Observable,25.0,24.0,29.82,1009.7,,,,95,80,0,,,,,,,,,7/8 Mostly Cloudy,6000.0,,SCT,4000.0,BKN,5900.0,BKN,9900.0,BKN,20000.0
KRDR,07-19-2001,02:40,SPECI,,50,8.0,,,9999.0,Thunderstorm with Rain or Snow/Light Rain Showers/Cloud Development Not Observable,28.0,26.0,29.81,,,,,95,80,0,,,,,,,,,7/8 Mostly Cloudy,8000.0,,SCT,4000.0,BKN,7900.0,BKN,20000.0,,
KRDR,07-19-2001,02:00,METAR,,40,5.0,,,9999.0,Cloud Development Not Observable,28.0,26.0,29.80,1008.9,,,,0,0,0,,,,,,,,,7/8 Mostly Cloudy,10000.0,,SCT,4000.0,BKN,9900.0,BKN,20000.0,,
KRDR,07-19-2001,01:43,SPECI,,20,5.0,,,9999.0,Cloud Development Not Observable,28.0,26.0,29.81,,,,,0,0,0,,,,,,,,,7/8 Mostly Cloudy,7000.0,,SCT,4000.0,BKN,6900.0,BKN,9900.0,BKN,20000.0
KRDR,07-19-2001,01:00,METAR,,170,9.0,,,9999.0,Thunderstorm with Rain or Snow/Light Rain Showers/Cloud Development Not Observable,28.0,26.0,29.79,1008.6,,,,95,80,0,,,,,,,,,7/8 Mostly Cloudy,6500.0,,FEW,2000.0,SCT,4000.0,BKN,6400.0,BKN,20000.0
KRDR,07-19-2001,00:45,METAR,,200,4.0,,,9999.0,Thunderstorm with Rain or Snow/Light Rain Showers/Cloud Development Not Observable,29.0,26.0,29.79,,,,,95,80,0,,,,,,,,,7/8 Mostly Cloudy,6500.0,,FEW,2000.0,SCT,4000.0,BKN,6400.0,BKN,20000.0
KRDR,07-19-2001,00:00,METAR,,200,6.0,,,9999.0,Thunderstorm/Cloud Development Not Observable,29.0,26.0,29.78,1008.4,,,,17,0,0,,,,,,,,,7/8 Mostly Cloudy,7000.0,,SCT,4000.0,BKN,6900.0,BKN,20000.0,,
KRDR,07-18-2001,23:04,SPECI,,140,6.0,,,9999.0,Cloud Development Not Observable,30.0,25.0,29.78,,,,,0,0,0,,,,,,,,,7/8 Mostly Cloudy,20000.0,,FEW,4000.0,SCT,8900.0,BKN,20000.0,,
KRDR,07-18-2001,23:00,METAR,,170,7.0,,,9999.0,Cloud Development Not Observable,30.0,25.0,29.79,1008.7,,,,0,0,0,,,,,,,,,7/8 Mostly Cloudy,20000.0,,FEW,4000.0,SCT,8900.0,BKN,20000.0,,
KRDR,07-18-2001,22:00,METAR,,220,14.0,,,9999.0,Cloud Development Not Observable,32.0,24.0,29.78,1008.2,,,,0,0,0,,,,,,,,,4/8 Partly Cloudy,72000.0,,FEW,4500.0,FEW,8900.0,SCT,20000.0,,
KRDR,07-18-2001,21:00,METAR,,140,10.0,,,9999.0,Cloud Development Not Observable,32.0,26.0,29.78,1008.3,,,,0,0,0,,,,,,,,,4/8 Partly Cloudy,72000.0,,FEW,5900.0,FEW,8900.0,SCT,20000.0,,
KRDR,07-18-2001,20:00,METAR,,160,12.0,,,9999.0,Cloud Development Not Observable,31.0,24.0,29.80,1009.0,,,,0,0,0,,,,,,,,,4/8 Partly Cloudy,72000.0,,FEW,5900.0,FEW,8900.0,SCT,20000.0,,
KRDR,07-18-2001,17:56,METAR,,,6.0,,,9999.0,Cloud Development Not Observable,29.0,22.0,29.83,1010.2,,,,0,0,0,,,,,,,,,4/8 Partly Cloudy,72000.0,,FEW,5900.0,FEW,8900.0,SCT,20000.0,,
KRDR,07-18-2001,17:00,METAR,,130,8.0,,,9999.0,Cloud Development Not Observable,29.0,21.0,29.84,1010.4,,,,0,0,0,,,,,,,,,4/8 Partly Cloudy,72000.0,,FEW,4000.0,FEW,8900.0,SCT,20000.0,,
KRDR,07-18-2001,16:00,METAR,,140,10.0,,,9999.0,Cloud Development Not Observable,27.0,20.0,29.85,1010.8,,,,0,0,0,,,,,,,,,4/8 Partly Cloudy,72000.0,,FEW,4000.0,SCT,8900.0,SCT,20000.0,,
KRDR,07-18-2001,15:00,METAR,,,5.0,,,9999.0,Cloud Development Not Observable,26.0,21.0,29.87,1011.5,,,,0,0,0,,,,,,,,,7/8 Mostly Cloudy,9000.0,,SCT,4000.0,BKN,8900.0,BKN,20000.0,,
KRDR,07-18-2001,14:00,METAR,,,6.0,,,9999.0,Cloud Development Not Observable,24.0,20.0,29.85,1011.0,,,,0,0,0,,,,,,,,,7/8 Mostly Cloudy,20000.0,,FEW,4000.0,SCT,9900.0,BKN,20000.0,,
KRDR,07-18-2001,13:00,METAR,,,5.0,,,9999.0,Cloud Development Not Observable,23.0,20.0,29.83,1010.1,,,,0,0,0,,,,,,,,,7/8 Mostly Cloudy,20000.0,,FEW,4000.0,FEW,9900.0,BKN,20000.0,,
KRDR,07-18-2001,12:00,METAR,,290,6.0,,,9999.0,Cloud Development Not Observable,21.0,19.0,29.81,1009.4,,,,0,0,0,,,,,,,,,7/8 Mostly Cloudy,20000.0,,FEW,4000.0,SCT,9900.0,BKN,20000.0,,
KRDR,07-18-2001,11:00,METAR,,290,6.0,,,9999.0,Cloud Development Not Observable,19.0,19.0,29.80,1009.1,,,,0,0,0,,,,,,,,,7/8 Mostly Cloudy,20000.0,,FEW,4000.0,SCT,9900.0,BKN,20000.0,,
KRDR,07-18-2001,10:00,METAR,,20,7.0,,,9999.0,Cloud Development Not Observable,20.0,18.0,29.78,1008.5,,,,0,0,0,,,,,,,,,7/8 Mostly Cloudy,10000.0,,FEW,4000.0,BKN,9900.0,BKN,20000.0,,
KRDR,07-18-2001,09:37,SPECI,,330,6.0,,,9999.0,Cloud Development Not Observable,22.0,17.0,29.79,,,,,0,0,0,,,,,,,,,8/8 Overcast,10000.0,,SCT,4000.0,BKN,9900.0,OVC,20000.0,,
KRDR,07-18-2001,09:00,METAR,,170,10.0,,,9999.0,Thunderstorm with Rain or Snow/Light Rain Showers/Cloud Development Not Observable,22.0,19.0,29.82,1009.7,,,,95,80,0,,,,,,,,,8/8 Overcast,12000.0,,SCT,4000.0,BKN,12000.0,OVC,20000.0,,
KRDR,07-18-2001,08:40,SPECI,,190,10.0,,,9999.0,Thunderstorm with Rain or Snow/Light Rain Showers/Cloud Development Not Observable,21.0,19.0,29.86,,,,,95,80,0,,,,,,,,,8/8 Overcast,12000.0,,SCT,4000.0,BKN,12000.0,OVC,20000.0,,
KRDR,07-18-2001,08:00,METAR,,170,4.0,,,9999.0,Cloud Development Not Observable,19.0,19.0,29.84,1010.6,,,,0,0,0,,,,,,,,,8/8 Overcast,10000.0,,SCT,4000.0,BKN,9900.0,OVC,20000.0,,
KRDR,07-18-2001,07:00,METAR,,190,4.0,,,9999.0,Cloud Development Not Observable,19.0,19.0,29.82,1009.9,,,,0,0,0,,,,,,,,,7/8 Mostly Cloudy,20000.0,,FEW,4000.0,SCT,9900.0,BKN,20000.0,,
KRDR,07-18-2001,06:00,METAR,,,3.0,,,9999.0,Cloud Development Not Observable,19.0,18.0,29.82,1009.9,,,,0,0,0,,,,,,,,,7/8 Mostly Cloudy,20000.0,,FEW,4000.0,SCT,9900.0,BKN,20000.0,,
KRDR,07-18-2001,05:00,METAR,,210,6.0,,,9999.0,Cloud Development Not Observable,19.0,19.0,29.83,1010.3,,,,0,0,0,,,,,,,,,7/8 Mostly Cloudy,20000.0,,FEW,4000.0,SCT,9900.0,BKN,20000.0,,
KRDR,07-18-2001,04:00,METAR,,,3.0,,,9999.0,Cloud Development Not Observable,21.0,18.0,29.82,1010.0,,,,0,0,0,,,,,,,,,7/8 Mostly Cloudy,20000.0,,FEW,4000.0,FEW,9900.0,BKN,20000.0,,
KRDR,07-18-2001,03:00,METAR,,190,7.0,,,9999.0,Cloud Development Not Observable,21.0,20.0,29.82,1009.8,,,,0,0,0,,,,,,,,,7/8 Mostly Cloudy,20000.0,,FEW,3000.0,SCT,9900.0,BKN,20000.0,,
KRDR,07-18-2001,02:00,METAR,,160,4.0,,,9999.0,Cloud Development Not Observable,23.0,19.0,29.80,1009.3,,,,0,0,0,,,,,,,,,7/8 Mostly Cloudy,20000.0,,FEW,3000.0,SCT,12000.0,BKN,20000.0,,
KRDR,07-18-2001,01:28,SPECI,,120,2.0,,,9999.0,Cloud Development Not Observable,24.0,19.0,29.80,,,,,0,0,0,,,,,,,,,7/8 Mostly Cloudy,20000.0,,FEW,3000.0,SCT,12000.0,BKN,20000.0,,
KRDR,07-18-2001,01:00,METAR,,280,5.0,,,9999.0,Cloud Development Not Observable,23.0,18.0,29.79,1008.8,,,,0,0,0,,,,,,,,,7/8 Mostly Cloudy,12000.0,,FEW,1500.0,FEW,3000.0,BKN,12000.0,BKN,20000.0
KRDR,07-18-2001,00:00,METAR,,250,11.0,,,9999.0,Cloud Development Not Observable,25.0,19.0,29.82,1009.8,,,,0,0,0,,,,,,,,,7/8 Mostly Cloudy,12000.0,,FEW,1500.0,FEW,3000.0,BKN,12000.0,BKN,20000.0
KRDR,07-17-2001,23:00,METAR,,,3.0,,,9999.0,Cloud Development Not Observable,28.0,26.0,29.80,1009.2,,,,0,0,0,,,,,,,,,7/8 Mostly Cloudy,12000.0,,FEW,3000.0,SCT,6900.0,BKN,12000.0,BKN,20000.0
KRDR,07-17-2001,22:00,METAR,,40,4.0,,,9999.0,Cloud Development Not Observable,28.0,28.0,29.78,1008.5,,,,0,0,0,,,,,,,,,7/8 Mostly Cloudy,20000.0,,FEW,3000.0,SCT,11000.0,BKN,20000.0,,
KRDR,07-17-2001,21:00,METAR,,260,4.0,,,9999.0,Cloud Development Not Observable,29.0,28.0,29.81,1009.5,,,,0,0,0,,,,,,,,,7/8 Mostly Cloudy,10000.0,,FEW,2000.0,SCT,3000.0,BKN,9900.0,BKN,20000.0
KRDR,07-17-2001,20:33,SPECI,,230,2.0,,,9999.0,Cloud Development Not Observable,29.0,28.0,29.80,,,,,0,0,0,,,,,,,,,7/8 Mostly Cloudy,12000.0,,FEW,2000.0,SCT,3000.0,SCT,12000.0,BKN,20000.0
KRDR,07-17-2001,20:14,SPECI,,250,2.0,,,9999.0,Thunderstorm with Rain or Snow/Light Rain Showers/Cloud Development Not Observable,30.0,28.0,29.80,,,,,95,80,0,,,,,,,,,7/8 Mostly Cloudy,12000.0,,FEW,2000.0,SCT,3000.0,SCT,12000.0,BKN,20000.0
KRDR,07-17-2001,20:00,METAR,,,3.0,,,9999.0,Cloud Development Not Observable,30.0,28.0,29.80,1009.1,,,,0,0,0,,,,,,,,,7/8 Mostly Cloudy,12000.0,,FEW,2000.0,SCT,3000.0,SCT,12000.0,BKN,20000.0
KRDR,07-17-2001,19:29,SPECI,,,4.0,,,9999.0,Thunderstorm/Mist/Cloud Development Not Observable,31.0,27.0,29.79,,,,,17,10,0,,,,,,,,,7/8 Mostly Cloudy,20000.0,,SCT,3000.0,SCT,12000.0,BKN,20000.0,,
KRDR,07-17-2001,19:00,METAR,,,2.0,,,9999.0,Cloud Development Not Observable,29.0,26.0,29.80,1009.0,,,,0,0,0,,,,,,,,,7/8 Mostly Cloudy,20000.0,,SCT,3000.0,SCT,12000.0,BKN,20000.0,,
KRDR,07-17-2001,18:00,METAR,,,6.0,,,9999.0,Mist/Cloud Development Not Observable,27.0,26.0,29.81,1009.4,,,,10,0,0,,,,,,,,,7/8 Mostly Cloudy,20000.0,,SCT,1000.0,BKN,20000.0,,,,
KRDR,07-17-2001,17:26,SPECI,,,6.0,,,4800.0,Mist/Cloud Development Not Observable,27.0,27.0,29.81,,,,,10,0,0,,,,,,,,,7/8 Mostly Cloudy,1000.0,,BKN,1000.0,,,,,,
KRDR,07-17-2001,17:00,METAR,,,6.0,,,3200.0,Mist/Cloud Development Not Observable,25.0,25.0,29.80,1009.2,,,,10,0,0,,,,,,,,,8/8 Overcast,700.0,,OVC,700.0,,,,,,
KRDR,07-17-2001,16:40,SPECI,,,5.0,,,3200.0,Mist/Cloud Development Not Observable,25.0,25.0,29.80,,,,,10,0,0,,,,,,,,,8/8 Overcast,700.0,,OVC,700.0,,,,,,
KRDR,07-17-2001,16:00,METAR,,,5.0,,,2400.0,Mist/Cloud Development Not Observable,24.0,24.0,29.81,1009.0,,,,10,0,0,,,,,,,,,8/8 Overcast,500.0,,OVC,500.0,,,,,,
KRDR,07-17-2001,15:00,METAR,,,4.0,,,1600.0,Mist/Cloud Development Not Observable,23.0,23.0,29.79,1008.7,,,,10,0,0,,,,,,,,,8/8 Overcast,400.0,,OVC,400.0,,,,,,
KRDR,07-17-2001,14:30,METAR,,70,7.0,,,1600.0,Mist/Cloud Development Not Observable,22.0,22.0,29.78,,,,,10,0,0,,,,,,,,,8/8 Overcast,400.0,,OVC,400.0,,,,,,
KRDR,07-17-2001,14:10,SPECI,,,6.0,,,2800.0,Fog or Ice Fog/Cloud Development Not Observable,22.0,22.0,29.78,,,,,44,0,0,,,,,,,,,8/8 Overcast,200.0,,OVC,200.0,,,,,,
KRDR,07-17-2001,14:00,METAR,,70,7.0,,,800.0,Fog or Ice Fog/Cloud Development Not Observable,22.0,22.0,29.78,1008.5,,,,45,0,0,,,,,,,,,Sky Obscured (Unable to Estimate),0.0,100.0,,0.0,,,,,,
KRDR,07-17-2001,13:00,METAR,,,5.0,,,200.0,Fog or Ice Fog/Cloud Development Not Observable,21.0,21.0,29.77,1008.0,,,,45,0,0,,,,,,,,,Sky Obscured (Unable to Estimate),0.0,100.0,,0.0,,,,,,
KRDR,07-17-2001,12:41,SPECI,,40,5.0,,,200.0,Fog or Ice Fog/Cloud Development Not Observable,21.0,21.0,29.77,,,,,45,0,0,,,,,,,,,Sky Obscured (Unable to Estimate),0.0,100.0,,0.0,,,,,,
KRDR,07-17-2001,12:00,METAR,,40,4.0,,,200.0,Fog or Ice Fog/Cloud Development Not Observable,21.0,21.0,29.77,1008.0,,,,45,0,0,,,,,,,,,Sky Obscured (Unable to Estimate),0.0,100.0,,0.0,,,,,,
KRDR,07-17-2001,11:38,SPECI,,,2.0,,,400.0,Fog or Ice Fog/Cloud Development Not Observable,21.0,21.0,29.76,,,,,45,0,0,,,,,,,,,Sky Obscured (Unable to Estimate),0.0,100.0,,0.0,,,,,,
KRDR,07-17-2001,11:07,SPECI,,,4.0,,,1200.0,Mist/Cloud Development Not Observable,21.0,21.0,29.76,,,,,10,0,0,,,,,,,,,Sky Obscured (Unable to Estimate),0.0,100.0,,0.0,,,,,,
KRDR,07-17-2001,11:00,METAR,,,2.0,,,1200.0,Mist/Cloud Development Not Observable,21.0,21.0,29.75,1007.3,,,,10,0,0,,,,,,,,,Sky Obscured (Unable to Estimate),0.0,100.0,,0.0,,,,,,
KRDR,07-17-2001,10:47,SPECI,,,3.0,,,1200.0,Mist/Cloud Development Not Observable,21.0,21.0,29.75,,,,,10,0,0,,,,,,,,,Sky Obscured (Unable to Estimate),0.0,100.0,,0.0,,,,,,
KRDR,07-17-2001,10:08,SPECI,,320,4.0,,,4800.0,Mist/Cloud Development Not Observable,21.0,21.0,29.75,,,,,10,0,0,,,,,,,,,7/8 Mostly Cloudy,400.0,,BKN,400.0,,,,,,
KRDR,07-17-2001,10:00,METAR,,310,3.0,,,400.0,Fog or Ice Fog/Cloud Development Not Observable,21.0,21.0,29.75,1007.3,,,,44,0,0,,,,,,,,,7/8 Mostly Cloudy,400.0,,BKN,400.0,,,,,,
KRDR,07-17-2001,09:22,SPECI,,,1.0,,,400.0,Fog or Ice Fog/Cloud Development Not Observable,21.0,21.0,29.74,,,,,45,0,0,,,,,,,,,Sky Obscured (Unable to Estimate),0.0,100.0,,0.0,,,,,,
KRDR,07-17-2001,09:00,METAR,,,3.0,,,1600.0,Mist/Cloud Development Not Observable,22.0,22.0,29.74,1006.9,,,,10,0,0,,,,,,,,,7/8 Mostly Cloudy,1000.0,,SCT,0.0,BKN,1000.0,,,,
KRDR,07-17-2001,08:00,METAR,,300,3.0,,,1600.0,Mist/Cloud Development Not Observable,22.0,22.0,29.74,1006.8,,,,10,0,0,,,,,,,,,7/8 Mostly Cloudy,1000.0,,FEW,0.0,BKN,1000.0,,,,
KRDR,07-17-2001,07:21,SPECI,,320,3.0,,,1600.0,Mist/Cloud Development Not Observable,21.0,21.0,29.73,,,,,10,0,0,,,,,,,,,4/8 Partly Cloudy,72000.0,,FEW,0.0,SCT,25000.0,,,,
KRDR,07-17-2001,07:00,METAR,,320,4.0,,,4800.0,Mist/Cloud Development Not Observable,22.0,22.0,29.73,1006.6,,,,10,0,0,,,,,,,,,2/8 Mostly Clear,72000.0,,FEW,8900.0,FEW,25000.0,,,,
KRDR,07-17-2001,06:00,METAR,,230,7.0,,,8000.0,Mist/Cloud Development Not Observable,22.0,22.0,29.72,1006.3,,,,10,0,0,,,,,,,,,4/8 Partly Cloudy,72000.0,,FEW,8900.0,SCT,25000.0,,,,
KRDR,07-17-2001,05:00,METAR,,210,7.0,,,9999.0,Cloud Development Not Observable,22.0,22.0,29.70,1005.6,,,,0,0,0,,,,,,,,,7/8 Mostly Cloudy,25000.0,,FEW,4000.0,SCT,8900.0,BKN,25000.0,,
KRDR,07-17-2001,04:31,SPECI,,180,8.0,,,9999.0,Cloud Development Not Observable,23.0,23.0,29.70,,,,,0,0,0,,,,,,,,,7/8 Mostly Cloudy,25000.0,,SCT,4000.0,SCT,8900.0,BKN,25000.0,,
KRDR,07-17-2001,04:00,METAR,,180,7.0,,,9999.0,Thunderstorm/Cloud Development Not Observable,24.0,23.0,29.70,1005.7,,,,17,0,0,,,,,,,,,7/8 Mostly Cloudy,25000.0,,SCT,4000.0,SCT,8900.0,BKN,25000.0,,
KRDR,07-17-2001,03:40,SPECI,,150,7.0,,,9999.0,Thunderstorm/Cloud Development Not Observable,23.0,23.0,29.71,,,,,17,0,0,,,,,,,,,7/8 Mostly Cloudy,25000.0,,FEW,3000.0,SCT,8900.0,BKN,25000.0,,
KRDR,07-17-2001,03:00,METAR,,190,13.0,,,8000.0,Thunderstorm with Rain or Snow/Light Rain Showers/Cloud Development Not Observable,23.0,22.0,29.71,1006.1,,,,95,80,0,,,,,,.22 IN,,,7/8 Mostly Cloudy,25000.0,,FEW,3000.0,SCT,8900.0,BKN,25000.0,,
KRDR,07-17-2001,02:00,METAR,,260,7.0,,,9999.0,Thunderstorm with Rain or Snow/Light Rain Showers/Cloud Development Not Observable,25.0,24.0,29.69,1005.4,,,,95,80,0,,,,,,,,,7/8 Mostly Cloudy,25000.0,,FEW,4000.0,SCT,8900.0,BKN,25000.0,,
KRDR,07-17-2001,01:44,SPECI,,,3.0,,,9999.0,Cloud Development Not Observable,25.0,24.0,29.68,,,,,0,0,0,,,,,,,,,7/8 Mostly Cloudy,25000.0,,FEW,4000.0,FEW,8900.0,BKN,25000.0,,
KRDR,07-17-2001,01:00,METAR,,190,10.0,,,9999.0,Cloud Development Not Observable,26.0,24.0,29.66,1004.3,,,,0,0,0,,,,,,,,,4/8 Partly Cloudy,72000.0,,FEW,4000.0,FEW,8900.0,SCT,25000.0,,
KRDR,07-16-2001,23:56,METAR,,180,11.0,,,9999.0,Cloud Development Not Observable,27.0,24.0,29.66,1004.3,,,,0,0,0,,,,,,,,,7/8 Mostly Cloudy,9000.0,,SCT,3500.0,BKN,8900.0,BKN,25000.0,,
KRDR,07-16-2001,23:00,METAR,,100,6.0,,150/59KTS,9999.0,Cloud Development Not Observable,25.0,23.0,29.66,1004.5,,,,0,0,0,,,,,,,,,7/8 Mostly Cloudy,9000.0,,SCT,3500.0,BKN,8900.0,BKN,25000.0,,
KRDR,07-16-2001,22:40,SPECI,,130,9.0,18.0,,9999.0,Cloud Development Not Observable,23.0,22.0,29.66,,,,,0,0,0,,,,,,,,,7/8 Mostly Cloudy,9000.0,,SCT,3500.0,BKN,8900.0,BKN,25000.0,,
KRDR,07-16-2001,22:00,METAR,,,2.0,,,9999.0,Thunderstorm with Rain or Snow/Light Rain Showers/Cloud Development Not Observable,28.0,23.0,29.67,1004.6,,,,95,80,0,,,,,,,,,7/8 Mostly Cloudy,9000.0,,SCT,3500.0,BKN,8900.0,BKN,25000.0,,
KRDR,07-16-2001,21:01,SPECI,,190,7.0,,,9999.0,Cloud Development Not Observable,27.0,24.0,29.67,,,,,0,0,0,,,,,,,,,7/8 Mostly Cloudy,9000.0,,SCT,3500.0,BKN,8900.0,BKN,25000.0,,
KRDR,07-16-2001,21:00,METAR,,190,7.0,,,9999.0,Light Rain Showers/Cloud Development Not Observable,27.0,23.0,29.68,1005.0,,,,80,0,0,,,,,,,,,7/8 Mostly Cloudy,9000.0,,SCT,3500.0,BKN,8900.0,BKN,25000.0,,
KRDR,07-16-2001,20:00,METAR,,160,10.0,,,9999.0,Cloud Development Not Observable,29.0,23.0,29.70,1005.6,,,,0,0,0,,,,,,,,,7/8 Mostly Cloudy,12000.0,,FEW,2400.0,SCT,3000.0,BKN,12000.0,BKN,25000.0
KRDR,07-16-2001,19:00,METAR,,190,12.0,,,9999.0,Cloud Development Not Observable,26.0,22.0,29.71,1005.9,,,,0,0,0,,,,,,,,,7/8 Mostly Cloudy,3000.0,,FEW,2000.0,BKN,3000.0,BKN,12000.0,,
KRDR,07-16-2001,18:00,METAR,,170,16.0,,,9999.0,Mist/Cloud Development Not Observable,25.0,22.0,29.71,1005.9,,,,10,0,0,,,,,,,,,7/8 Mostly Cloudy,12000.0,,SCT,1500.0,SCT,3000.0,BKN,12000.0,,
KRDR,07-16-2001,17:00,METAR,,170,11.0,,,9999.0,Mist/Cloud Development Not Observable,23.0,22.0,29.72,1006.4,,,,10,0,0,,,,,,,,,8/8 Overcast,1500.0,,BKN,1500.0,OVC,12000.0,,,,
KRDR,07-16-2001,16:16,SPECI,,180,13.0,,,9999.0,Mist/Cloud Development Not Observable,23.0,22.0,29.73,,,,,10,0,0,,,,,,,,,8/8 Overcast,1500.0,,BKN,1500.0,OVC,12000.0,,,,
KRDR,07-16-2001,16:00,METAR,,170,12.0,,,9999.0,Mist/Cloud Development Not Observable,23.0,22.0,29.73,1006.6,,,,10,0,0,,,,,,,,,8/8 Overcast,12000.0,,SCT,5000.0,BKN,12000.0,OVC,25000.0,,
KRDR,07-16-2001,15:25,METAR,,140,10.0,,,9999.0,Mist/Cloud Development Not Observable,22.0,22.0,29.72,,,,,10,0,0,,,,,,,,,8/8 Overcast,12000.0,,FEW,3000.0,BKN,12000.0,OVC,25000.0,,
KRDR,07-16-2001,15:00,METAR,,140,10.0,,,9999.0,Light Rain Showers/Mist/Cloud Development Not Observable,22.0,22.0,29.73,1006.6,,,,80,10,0,,,,,,,,,8/8 Overcast,12000.0,,FEW,3000.0,BKN,12000.0,OVC,25000.0,,
KRDR,07-16-2001,14:23,SPECI,,120,12.0,,,9999.0,Light Rain Showers/Mist/Cloud Development Not Observable,22.0,21.0,29.71,,,,,80,10,0,,,,,,,,,8/8 Overcast,12000.0,,FEW,3000.0,BKN,12000.0,OVC,25000.0,,
KRDR,07-16-2001,14:00,METAR,,130,11.0,,,9999.0,Mist/Cloud Development Not Observable,22.0,21.0,29.71,1005.9,,,,10,0,0,,,,,,,,,7/8 Mostly Cloudy,12000.0,,BKN,12000.0,BKN,25000.0,,,,
KRDR,07-16-2001,13:00,METAR,,150,10.0,,,9999.0,Mist/Cloud Development Not Observable,22.0,22.0,29.72,1006.4,,,,10,0,0,,,,,,,,,8/8 Overcast,15000.0,,BKN,15000.0,OVC,25000.0,,,,
KRDR,07-16-2001,12:00,METAR,,140,10.0,,,8000.0,Mist/Cloud Development Not Observable,22.0,22.0,29.74,1006.9,,,,10,0,0,,,,,,,,,7/8 Mostly Cloudy,25000.0,,SCT,15000.0,BKN,25000.0,,,,
KRDR,07-16-2001,11:00,METAR,,130,9.0,,,8000.0,Mist/Cloud Development Not Observable,22.0,22.0,29.73,1006.5,,,,10,0,0,,,,,,,,,7/8 Mostly Cloudy,25000.0,,SCT,15000.0,BKN,25000.0,,,,
KRDR,07-16-2001,10:00,METAR,,130,8.0,,,9999.0,Cloud Development Not Observable,22.0,22.0,29.75,1007.3,,,,0,0,0,,,,,,,,,8/8 Overcast,25000.0,,FEW,5900.0,SCT,12000.0,OVC,25000.0,,
KRDR,07-16-2001,09:00,METAR,,130,7.0,,,9999.0,Cloud Development Not Observable,22.0,22.0,29.75,1007.3,,,,0,0,0,,,,,,,,,7/8 Mostly Cloudy,25000.0,,FEW,5900.0,SCT,12000.0,BKN,25000.0,,
KRDR,07-16-2001,08:00,METAR,,,5.0,,,9999.0,Cloud Development Not Observable,23.0,22.0,29.75,1007.3,,,,0,0,0,,,,,,,,,7/8 Mostly Cloudy,25000.0,,SCT,5900.0,SCT,12000.0,BKN,25000.0,,
KRDR,07-16-2001,07:20,METAR,,100,6.0,,,9999.0,Thunderstorm/Cloud Development Not Observable,23.0,23.0,29.76,,,,,17,0,0,,,,,,,,,8/8 Overcast,25000.0,,SCT,5900.0,SCT,12000.0,OVC,25000.0,,
KRDR,07-16-2001,07:02,SPECI,,110,5.0,,,9999.0,Light Rain Showers/Cloud Development Not Observable,23.0,23.0,29.77,,,,,80,0,0,,,,,,,,,8/8 Overcast,25000.0,,SCT,5900.0,SCT,12000.0,OVC,25000.0,,
KRDR,07-16-2001,07:00,METAR,,,1.0,,,9999.0,Cloud Development Not Observable,23.0,22.0,29.77,1007.8,,,,0,0,0,,,,,,,,,8/8 Overcast,25000.0,,SCT,5900.0,SCT,12000.0,OVC,25000.0,,
KRDR,07-16-2001,06:00,METAR,,100,4.0,,,9999.0,Cloud Development Not Observable,23.0,23.0,29.78,1008.3,,,,0,0,0,,,,,,,,,8/8 Overcast,25000.0,,FEW,5900.0,SCT,12000.0,OVC,25000.0,,
KRDR,07-16-2001,05:00,METAR,,130,4.0,,,9999.0,Cloud Development Not Observable,23.0,23.0,29.78,,,,,0,0,0,,,,,,,,,8/8 Overcast,25000.0,,FEW,5900.0,SCT,12000.0,OVC,25000.0,,
KRDR,07-16-2001,04:00,METAR,,190,5.0,,,9999.0,Cloud Development Not Observable,24.0,23.0,29.77,1007.9,,,,0,0,0,,,,,,,,,8/8 Overcast,25000.0,,FEW,5900.0,FEW,12000.0,OVC,25000.0,,
KRDR,07-16-2001,03:00,METAR,,190,7.0,,,9999.0,Cloud Development Not Observable,24.0,22.0,29.78,1008.3,,,,0,0,0,,,,,,,,,8/8 Overcast,25000.0,,FEW,5900.0,FEW,12000.0,OVC,25000.0,,
KRDR,07-16-2001,02:00,METAR,,170,6.0,,,9999.0,Cloud Development Not Observable,25.0,24.0,29.76,1007.8,,,,0,0,0,,,,,,,,,8/8 Overcast,25000.0,,FEW,3500.0,FEW,12000.0,OVC,25000.0,,
KRDR,07-16-2001,01:00,METAR,,180,10.0,,,9999.0,Cloud Development Not Observable,26.0,24.0,29.77,1008.1,,,,0,0,0,,,,,,,,,8/8 Overcast,12000.0,,FEW,3500.0,BKN,12000.0,OVC,25000.0,,
KRDR,07-16-2001,00:00,METAR,,160,10.0,,,9999.0,Cloud Development Not Observable,27.0,24.0,29.78,1008.4,,,,0,0,0,,,,,,,,,8/8 Overcast,12000.0,,FEW,3500.0,BKN,12000.0,OVC,25000.0,,
KRDR,07-15-2001,23:00,METAR,,180,9.0,,,9999.0,Cloud Development Not Observable,28.0,24.0,29.78,1008.4,,,,0,0,0,,,,,,,,,8/8 Overcast,12000.0,,FEW,3500.0,BKN,12000.0,OVC,25000.0,,
KRDR,07-15-2001,22:00,METAR,,190,8.0,,,9999.0,Cloud Development Not Observable,30.0,23.0,29.76,1007.7,,,,0,0,0,,,,,,,,,8/8 Overcast,12000.0,,FEW,4000.0,BKN,12000.0,OVC,25000.0,,
KRDR,07-15-2001,21:00,METAR,,140,8.0,,,9999.0,Cloud Development Not Observable,31.0,22.0,29.76,1007.7,,,,0,0,0,,,,,,,,,7/8 Mostly Cloudy,12000.0,,FEW,4000.0,BKN,12000.0,BKN,25000.0,,
KRDR,07-15-2001,20:00,METAR,,180,10.0,,,9999.0,Cloud Development Not Observable,30.0,21.0,29.77,1008.1,,,,0,0,0,,,,,,,,,7/8 Mostly Cloudy,25000.0,,FEW,4000.0,SCT,12000.0,BKN,25000.0,,
KRDR,07-15-2001,19:00,METAR,,150,7.0,,,9999.0,Cloud Development Not Observable,29.0,20.0,29.78,1008.3,,,,0,0,0,,,,,,,,,7/8 Mostly Cloudy,25000.0,,SCT,12000.0,BKN,25000.0,,,,
KRDR,07-15-2001,18:00,METAR,,160,7.0,,,9999.0,Cloud Development Not Observable,30.0,20.0,29.79,1008.8,,,,0,0,0,,,,,,,,,7/8 Mostly Cloudy,25000.0,,SCT,12000.0,BKN,25000.0,,,,
KRDR,07-15-2001,17:00,METAR,,200,7.0,,,9999.0,Cloud Development Not Observable,29.0,19.0,29.80,1009.0,,,,0,0,0,,,,,,,,,8/8 Overcast,25000.0,,SCT,12000.0,OVC,25000.0,,,,
KRDR,07-15-2001,16:00,METAR,,210,6.0,,,9999.0,Cloud Development Not Observable,27.0,20.0,29.80,1009.0,,,,0,0,0,,,,,,,,,8/8 Overcast,25000.0,,SCT,12000.0,OVC,25000.0,,,,
KRDR,07-15-2001,15:00,METAR,,260,4.0,,,9999.0,Cloud Development Not Observable,26.0,19.0,29.81,1009.3,,,,0,0,0,,,,,,,,,8/8 Overcast,25000.0,,SCT,12000.0,OVC,25000.0,,,,
KRDR,07-15-2001,14:00,METAR,,190,9.0,,,9999.0,Cloud Development Not Observable,24.0,22.0,29.79,1008.8,,,,0,0,0,,,,,,,,,7/8 Mostly Cloudy,25000.0,,SCT,12000.0,BKN,25000.0,,,,
KRDR,07-15-2001,13:00,METAR,,250,2.0,,,9999.0,Mist/Cloud Development Not Observable,22.0,22.0,29.83,1010.2,,,,10,0,0,,,,,,,,,7/8 Mostly Cloudy,25000.0,,SCT,12000.0,BKN,25000.0,,,,
KRDR,07-15-2001,12:00,METAR,,180,2.0,,,6400.0,Mist/Cloud Development Not Observable,20.0,20.0,29.82,1009.8,,,,10,0,0,,,,,,,,,7/8 Mostly Cloudy,25000.0,,FEW,2000.0,SCT,12000.0,BKN,25000.0,,
KRDR,07-15-2001,11:23,SPECI,,200,5.0,,,8000.0,Mist/Cloud Development Not Observable,18.0,18.0,29.81,,,,,10,0,0,,,,,,,,,7/8 Mostly Cloudy,25000.0,,FEW,1800.0,SCT,12000.0,BKN,25000.0,,
KRDR,07-15-2001,11:00,METAR,,,2.0,,,8000.0,Patchy Fog or Ice Fog/Mist/Cloud Development Not Observable,18.0,18.0,29.81,1009.4,,,,10,41,0,,,,,,,,,4/8 Partly Cloudy,72000.0,,FEW,12000.0,SCT,25000.0,,,,
KRDR,07-15-2001,10:40,SPECI,,,4.0,,,8000.0,Patchy Fog or Ice Fog/Mist/Cloud Development Not Observable,18.0,18.0,29.81,,,,,10,41,0,,,,,,,,,4/8 Partly Cloudy,72000.0,,FEW,12000.0,SCT,25000.0,,,,
KRDR,07-15-2001,10:20,METAR,,,3.0,,,8000.0,Shallow Fog or Ice Fog/Mist/Cloud Development Not Observable,20.0,20.0,29.83,,,,,10,12,0,,,,,,,,,4/8 Partly Cloudy,72000.0,,FEW,12000.0,SCT,25000.0,,,,
KRDR,07-15-2001,10:00,METAR,,,2.0,,,8000.0,Shallow Fog or Ice Fog/Mist/Cloud Development Not Observable,20.0,20.0,29.83,1010.0,,,,10,12,0,,,,,,,,,4/8 Partly Cloudy,72000.0,,FEW,12000.0,SCT,25000.0,,,,
KRDR,07-15-2001,09:00,METAR,,,2.0,,,9999.0,Cloud Development Not Observable,20.0,20.0,29.82,1009.9,,,,0,0,0,,,,,,,,,4/8 Partly Cloudy,72000.0,,SCT,12000.0,SCT,25000.0,,,,
KRDR,07-15-2001,08:00,METAR,,,2.0,,,9999.0,Cloud Development Not Observable,20.0,20.0,29.81,1009.3,,,,0,0,0,,,,,,,,,7/8 Mostly Cloudy,25000.0,,SCT,12000.0,BKN,25000.0,,,,
KRDR,07-15-2001,07:00,METAR,,270,2.0,,,9999.0,Cloud Development Not Observable,20.0,20.0,29.83,1010.1,,,,0,0,0,,,,,,,,,7/8 Mostly Cloudy,25000.0,,SCT,12000.0,BKN,25000.0,,,,
KRDR,07-15-2001,03:00,METAR,,330,2.0,,,9999.0,Cloud Development Not Observable,24.0,24.0,29.84,1010.4,,,,0,0,0,,,,,,,,,7/8 Mostly Cloudy,25000.0,,FEW,3000.0,FEW,12000.0,BKN,25000.0,,
KRDR,07-15-2001,02:00,METAR,,30,4.0,,,9999.0,Cloud Development Not Observable,26.0,24.0,29.82,1009.7,,,,0,0,0,,,,,,,,,8/8 Overcast,25000.0,,FEW,3000.0,FEW,12000.0,OVC,25000.0,,
KRDR,07-15-2001,01:00,METAR,,340,6.0,,,9999.0,Cloud Development Not Observable,27.0,24.0,29.82,1009.7,,,,0,0,0,,,,,,,,,8/8 Overcast,25000.0,,FEW,3000.0,FEW,12000.0,OVC,25000.0,,
KRDR,07-15-2001,00:00,METAR,,360,4.0,,,9999.0,Cloud Development Not Observable,28.0,24.0,29.83,1010.1,,,,0,0,0,,,,,,,,,7/8 Mostly Cloudy,25000.0,,SCT,3000.0,SCT,12000.0,BKN,25000.0,,
KRDR,07-14-2001,23:00,METAR,,40,5.0,,,9999.0,Cloud Development Not Observable,28.0,24.0,29.85,1010.8,,,,0,0,0,,,,,,,,,8/8 Overcast,10000.0,,SCT,2800.0,BKN,9900.0,OVC,25000.0,,
KRDR,07-14-2001,22:00,METAR,,340,5.0,,,9999.0,Cloud Development Not Observable,30.0,24.0,29.84,1010.4,,,,0,0,0,,,,,,,,,7/8 Mostly Cloudy,25000.0,,SCT,3500.0,SCT,12000.0,BKN,25000.0,,
KRDR,07-14-2001,21:00,METAR,,280,4.0,,,9999.0,Cloud Development Not Observable,29.0,22.0,29.86,1011.1,,,,0,0,0,,,,,,,,,7/8 Mostly Cloudy,10000.0,,SCT,3000.0,BKN,9900.0,BKN,25000.0,,
KRDR,07-14-2001,20:00,METAR,,290,6.0,,,9999.0,Cloud Development Not Observable,30.0,22.0,29.87,1011.4,,,,0,0,0,,,,,,,,,7/8 Mostly Cloudy,10000.0,,SCT,5000.0,BKN,9900.0,BKN,25000.0,,
KRDR,07-14-2001,19:00,METAR,,240,6.0,,,9999.0,Cloud Development Not Observable,29.0,20.0,29.87,1011.5,,,,0,0,0,,,,,,,,,7/8 Mostly Cloudy,10000.0,,SCT,5000.0,BKN,9900.0,BKN,25000.0,,
KRDR,07-14-2001,18:00,METAR,,210,7.0,,,9999.0,Cloud Development Not Observable,29.0,23.0,29.88,1011.8,,,,0,0,0,,,,,,,,,7/8 Mostly Cloudy,25000.0,,FEW,5000.0,SCT,9900.0,BKN,25000.0,,
KRDR,07-14-2001,17:00,METAR,,190,10.0,,,9999.0,Cloud Development Not Observable,27.0,23.0,29.90,1012.5,,,,0,0,0,,,,,,,,,7/8 Mostly Cloudy,25000.0,,FEW,5000.0,SCT,9900.0,BKN,25000.0,,
KRDR,07-14-2001,16:00,METAR,,180,8.0,,,9999.0,Cloud Development Not Observable,26.0,22.0,29.92,1013.0,,,,0,0,0,,,,,,,,,7/8 Mostly Cloudy,25000.0,,FEW,5000.0,SCT,12000.0,BKN,25000.0,,
KRDR,07-14-2001,15:00,METAR,,190,10.0,,,9999.0,Cloud Development Not Observable,24.0,21.0,29.94,1013.8,,,,0,0,0,,,,,,,,,7/8 Mostly Cloudy,12000.0,,FEW,5000.0,BKN,12000.0,BKN,25000.0,,
KRDR,07-14-2001,14:00,METAR,,160,10.0,,,9999.0,Cloud Development Not Observable,23.0,21.0,29.94,1013.8,,,,0,0,0,,,,,,,,,7/8 Mostly Cloudy,12000.0,,FEW,4500.0,BKN,12000.0,BKN,25000.0,,
KRDR,07-14-2001,13:00,METAR,,140,8.0,,,9999.0,Cloud Development Not Observable,21.0,21.0,29.93,1013.6,,,,0,0,0,,,,,,,,,7/8 Mostly Cloudy,12000.0,,FEW,4000.0,BKN,12000.0,BKN,25000.0,,
KRDR,07-14-2001,12:00,METAR,,150,9.0,,,9999.0,Cloud Development Not Observable,21.0,21.0,29.93,1013.6,,,,0,0,0,,,,,,,,,7/8 Mostly Cloudy,12000.0,,SCT,4000.0,BKN,12000.0,BKN,25000.0,,
KRDR,07-14-2001,11:35,SPECI,,140,5.0,,,9999.0,Cloud Development Not Observable,21.0,21.0,29.94,,,,,0,0,0,,,,,,,,,7/8 Mostly Cloudy,12000.0,,SCT,5000.0,BKN,12000.0,BKN,25000.0,,
KRDR,07-14-2001,11:03,SPECI,,160,10.0,,,9999.0,Thunderstorm/Cloud Development Not Observable,21.0,21.0,29.93,,,,,17,0,0,,,,,,,,,7/8 Mostly Cloudy,12000.0,,SCT,5000.0,BKN,12000.0,BKN,25000.0,,
KRDR,07-14-2001,11:00,METAR,,160,6.0,,,9999.0,Thunderstorm with Rain or Snow/Light Rain Showers/Cloud Development Not Observable,21.0,21.0,29.94,1013.8,,,,95,80,0,,,,,,,,,7/8 Mostly Cloudy,12000.0,,SCT,5000.0,BKN,12000.0,BKN,25000.0,,
KRDR,07-14-2001,10:22,SPECI,,,5.0,,,4800.0,Thunderstorm with Rain or Snow/Rain Showers/Cloud Development Not Observable,21.0,20.0,29.96,,,,,95,81,0,,,,,,,,,8/8 Overcast,4900.0,,BKN,5000.0,OVC,12000.0,,,,
KRDR,07-14-2001,10:16,SPECI,,,6.0,,,9999.0,Thunderstorm/Cloud Development Not Observable,21.0,20.0,29.96,,,,,17,0,0,,,,,,,,,7/8 Mostly Cloudy,12000.0,,SCT,5000.0,BKN,12000.0,BKN,25000.0,,
KRDR,07-14-2001,10:00,METAR,,130,3.0,,,9999.0,Cloud Development Not Observable,21.0,20.0,29.96,1014.3,,,,0,0,0,,,,,,,,,7/8 Mostly Cloudy,25000.0,,FEW,5000.0,SCT,12000.0,BKN,25000.0,,
KRDR,07-14-2001,09:00,METAR,,150,3.0,,,9999.0,Cloud Development Not Observable,20.0,20.0,29.96,1014.5,,,,0,0,0,,,,,,,,,7/8 Mostly Cloudy,12000.0,,FEW,5000.0,BKN,12000.0,BKN,25000.0,,
KRDR,07-14-2001,08:00,METAR,,,4.0,,,9999.0,Cloud Development Not Observable,21.0,21.0,30.00,1015.6,,,,0,0,0,,,,,,,,,8/8 Overcast,12000.0,,FEW,5000.0,BKN,12000.0,OVC,25000.0,,
KRDR,07-14-2001,07:00,METAR,,300,4.0,,,9999.0,Cloud Development Not Observable,20.0,20.0,30.01,1016.1,,,,0,0,0,,,,,,,,,8/8 Overcast,12000.0,,FEW,5000.0,BKN,12000.0,OVC,25000.0,,
KRDR,07-14-2001,06:00,METAR,,,2.0,,,9999.0,Cloud Development Not Observable,21.0,21.0,30.01,1016.3,,,,0,0,0,,,,,,,,,8/8 Overcast,12000.0,,SCT,5000.0,BKN,12000.0,OVC,25000.0,,
KRDR,07-14-2001,05:00,METAR,,,3.0,,,9999.0,Cloud Development Not Observable,22.0,21.0,30.02,1016.5,,,,0,0,0,,,,,,,,,7/8 Mostly Cloudy,12000.0,,SCT,5000.0,BKN,12000.0,BKN,25000.0,,
KRDR,07-14-2001,04:00,METAR,,90,4.0,,,9999.0,Cloud Development Not Observable,22.0,22.0,30.02,1016.5,,,,0,0,0,,,,,,,,,7/8 Mostly Cloudy,10000.0,,SCT,5000.0,BKN,9900.0,BKN,20000.0,,
KRDR,07-14-2001,03:35,SPECI,,90,2.0,,,9999.0,Cloud Development Not Observable,22.0,22.0,30.01,,,,,0,0,0,,,,,,,,,7/8 Mostly Cloudy,7000.0,,SCT,4500.0,BKN,6900.0,BKN,12000.0,BKN,20000.0
KRDR,07-14-2001,03:00,METAR,,70,5.0,,,9999.0,Light Rain Showers/Cloud Development Not Observable,23.0,22.0,30.02,1016.7,,,,80,0,0,,,,,,,,,7/8 Mostly Cloudy,7000.0,,SCT,4500.0,BKN,6900.0,BKN,12000.0,BKN,20000.0
KRDR,07-14-2001,02:30,METAR,,50,5.0,,,9999.0,Cloud Development Not Observable,23.0,22.0,30.02,,,,,0,0,0,,,,,,,,,8/8 Overcast,12000.0,,FEW,4500.0,SCT,6900.0,BKN,12000.0,OVC,20000.0
KRDR,07-14-2001,02:00,METAR,,50,5.0,,,9999.0,Thunderstorm with Rain or Snow/Light Rain Showers/Cloud Development Not Observable,23.0,23.0,30.04,1017.3,,,,95,80,0,,,,,,,,,8/8 Overcast,7000.0,,SCT,4500.0,BKN,6900.0,BKN,12000.0,OVC,20000.0
KRDR,07-14-2001,01:26,SPECI,,270,6.0,13.0,,9999.0,Thunderstorm with Rain or Snow/Light Rain Showers/Cloud Development Not Observable,24.0,22.0,30.03,,,,,95,80,0,,,,,,,,,8/8 Overcast,4900.0,,FEW,2500.0,BKN,5000.0,BKN,12000.0,OVC,20000.0
KRDR,07-14-2001,01:00,METAR,,90,3.0,,,9999.0,Thunderstorm/Cloud Development Not Observable,25.0,23.0,30.04,1017.5,,,,17,0,0,,,,,,,,,7/8 Mostly Cloudy,12000.0,,SCT,4000.0,SCT,5900.0,BKN,12000.0,BKN,20000.0
KRDR,07-14-2001,00:15,SPECI,,40,4.0,,,9999.0,Cloud Development Not Observable,24.0,23.0,30.04,,,,,0,0,0,,,,,,,,,7/8 Mostly Cloudy,12000.0,,SCT,4000.0,SCT,5900.0,BKN,12000.0,BKN,20000.0
KRDR,07-14-2001,00:03,SPECI,,60,4.0,,,9999.0,Thunderstorm/Cloud Development Not Observable,25.0,23.0,30.04,,,,,17,0,0,,,,,,,,,7/8 Mostly Cloudy,12000.0,,SCT,4000.0,SCT,5900.0,BKN,12000.0,BKN,20000.0
KRDR,07-14-2001,00:00,METAR,,30,4.0,,,9999.0,Thunderstorm with Rain or Snow/Light Rain Showers/Cloud Development Not Observable,24.0,23.0,30.04,1017.6,,,,95,80,0,,,,,,,,,7/8 Mostly Cloudy,6000.0,,SCT,4000.0,BKN,5900.0,BKN,12000.0,BKN,20000.0
KRDR,07-13-2001,23:33,SPECI,,280,5.0,,,9999.0,Thunderstorm with Rain or Snow/Light Rain Showers/Cloud Development Not Observable,24.0,21.0,30.06,,,,,95,80,0,,,,,,,,,8/8 Overcast,6000.0,,SCT,4000.0,BKN,5900.0,OVC,12000.0,,
KRDR,07-13-2001,23:19,SPECI,,290,9.0,,,9999.0,Thunderstorm with Rain or Snow/Light Rain Showers/Cloud Development Not Observable,26.0,19.0,30.08,,,,,95,80,0,,,,,,,,,7/8 Mostly Cloudy,6000.0,,SCT,4000.0,BKN,5900.0,BKN,12000.0,BKN,20000.0
KRDR,07-13-2001,23:00,METAR,,150,6.0,,,9999.0,Thunderstorm/Cloud Development Not Observable,30.0,18.0,30.08,1018.7,,,,17,0,0,,,,,,,,,7/8 Mostly Cloudy,6000.0,,SCT,4000.0,BKN,5900.0,BKN,12000.0,BKN,20000.0
KRDR,07-13-2001,22:00,METAR,,180,9.0,,,9999.0,Cloud Development Not Observable,32.0,17.0,30.08,1018.7,,,,0,0,0,,,,,,,,,7/8 Mostly Cloudy,25000.0,,SCT,4000.0,SCT,12000.0,BKN,25000.0,,
KRDR,07-13-2001,21:00,METAR,,210,8.0,,,9999.0,Cloud Development Not Observable,31.0,17.0,30.08,1018.7,,,,0,0,0,,,,,,,,,7/8 Mostly Cloudy,12000.0,,SCT,4000.0,BKN,12000.0,BKN,25000.0,,
KRDR,07-13-2001,20:00,METAR,,,3.0,,,9999.0,Cloud Development Not Observable,32.0,17.0,30.10,1019.2,,,,0,0,0,,,,,,,,,7/8 Mostly Cloudy,25000.0,,SCT,4000.0,SCT,12000.0,BKN,25000.0,,
KRDR,07-13-2001,19:00,METAR,,,5.0,,,9999.0,Cloud Development Not Observable,30.0,17.0,30.12,1019.9,,,,0,0,0,,,,,,,,,7/8 Mostly Cloudy,25000.0,,FEW,4000.0,SCT,12000.0,BKN,25000.0,,
KRDR,07-13-2001,18:00,METAR,,150,9.0,,,9999.0,Cloud Development Not Observable,30.0,16.0,30.13,1020.2,,,,0,0,0,,,,,,,,,7/8 Mostly Cloudy,12000.0,,FEW,4000.0,BKN,12000.0,BKN,25000.0,,
KRDR,07-13-2001,17:00,METAR,,160,7.0,,,9999.0,Cloud Development Not Observable,30.0,16.0,30.14,1020.6,,,,0,0,0,,,,,,,,,7/8 Mostly Cloudy,12000.0,,FEW,4000.0,BKN,12000.0,BKN,25000.0,,
KRDR,07-13-2001,16:00,METAR,,160,6.0,,,9999.0,Cloud Development Not Observable,28.0,17.0,30.16,1021.3,,,,0,0,0,,,,,,,,,7/8 Mostly Cloudy,25000.0,,FEW,4000.0,SCT,12000.0,BKN,25000.0,,
KRDR,07-13-2001,15:00,METAR,,120,4.0,,,9999.0,Cloud Development Not Observable,26.0,15.0,30.17,1021.6,,,,0,0,0,,,,,,,,,4/8 Partly Cloudy,72000.0,,SCT,12000.0,SCT,25000.0,,,,
KRDR,07-13-2001,14:00,METAR,,160,5.0,,,9999.0,Cloud Development Not Observable,24.0,15.0,30.16,1021.2,,,,0,0,0,,,,,,,,,7/8 Mostly Cloudy,9000.0,,BKN,8900.0,BKN,25000.0,,,,
KRDR,07-13-2001,13:00,METAR,,120,3.0,,,9999.0,Cloud Development Not Observable,21.0,16.0,30.16,1021.4,,,,0,0,0,,,,,,,,,7/8 Mostly Cloudy,25000.0,,SCT,8900.0,BKN,25000.0,,,,
KRDR,07-13-2001,12:00,METAR,,170,3.0,,,9999.0,Cloud Development Not Observable,19.0,17.0,30.16,1021.5,,,,0,0,0,,,,,,,,,4/8 Partly Cloudy,72000.0,,SCT,8900.0,SCT,25000.0,,,,
KRDR,07-13-2001,11:00,METAR,,30,3.0,,,9999.0,Cloud Development Not Observable,18.0,15.0,30.16,1021.3,,,,0,0,0,,,,,,,,,7/8 Mostly Cloudy,12000.0,,SCT,8900.0,BKN,12000.0,,,,
KRDR,07-13-2001,10:00,METAR,,,1.0,,,9999.0,Cloud Development Not Observable,17.0,15.0,30.16,1021.3,,,,0,0,0,,,,,,,,,7/8 Mostly Cloudy,9000.0,,BKN,8900.0,,,,,,
KRDR,07-13-2001,09:00,METAR,,250,2.0,,,9999.0,Cloud Development Not Observable,16.0,14.0,30.15,1021.0,,,,0,0,0,,,,,,,,,4/8 Partly Cloudy,72000.0,,SCT,8900.0,,,,,,
KRDR,07-13-2001,08:00,METAR,,240,4.0,,,9999.0,Cloud Development Not Observable,15.0,14.0,30.14,1020.8,,,,0,0,0,,,,,,,,,2/8 Mostly Clear,72000.0,,FEW,8900.0,,,,,,
KRDR,07-13-2001,07:00,METAR,,210,3.0,,,9999.0,Cloud Development Not Observable,16.0,15.0,30.14,1020.7,,,,0,0,0,,,,,,,,,Clear,72000.0,,,73000.0,,,,,,
KRDR,07-13-2001,06:00,METAR,,,4.0,,,9999.0,Cloud Development Not Observable,19.0,16.0,30.14,1020.6,,,,0,0,0,,,,,,,,,Clear,72000.0,,,73000.0,,,,,,
KRDR,07-13-2001,05:00,METAR,,180,3.0,,,9999.0,Cloud Development Not Observable,17.0,14.0,30.14,1020.7,,,,0,0,0,,,,,,,,,2/8 Mostly Clear,72000.0,,FEW,12000.0,,,,,,
KRDR,07-13-2001,04:00,METAR,,250,4.0,,,9999.0,Cloud Development Not Observable,19.0,15.0,30.14,1020.6,,,,0,0,0,,,,,,,,,2/8 Mostly Clear,72000.0,,FEW,12000.0,,,,,,
KRDR,07-13-2001,03:00,METAR,,140,2.0,,,9999.0,Cloud Development Not Observable,24.0,14.0,30.12,1019.9,,,,0,0,0,,,,,,,,,2/8 Mostly Clear,72000.0,,FEW,12000.0,FEW,25000.0,,,,
KRDR,07-13-2001,02:00,METAR,,130,5.0,,,9999.0,Cloud Development Not Observable,26.0,14.0,30.10,1019.3,,,,0,0,0,,,,,,,,,2/8 Mostly Clear,72000.0,,FEW,12000.0,FEW,25000.0,,,,
KRDR,07-13-2001,01:00,METAR,,130,5.0,,,9999.0,Cloud Development Not Observable,28.0,13.0,30.11,1019.5,,,,0,0,0,,,,,,,,,2/8 Mostly Clear,72000.0,,FEW,12000.0,FEW,25000.0,,,,
KRDR,07-13-2001,00:00,METAR,,150,8.0,,,9999.0,Cloud Development Not Observable,28.0,13.0,30.11,1019.6,,,,0,0,0,,,,,,,,,4/8 Partly Cloudy,72000.0,,FEW,4000.0,FEW,12000.0,SCT,25000.0,,
KRDR,07-12-2001,23:00,METAR,,130,7.0,,,9999.0,Cloud Development Not Observable,29.0,12.0,30.12,1020.0,,,,0,0,0,,,,,,,,,2/8 Mostly Clear,72000.0,,FEW,12000.0,FEW,25000.0,,,,
KRDR,07-12-2001,22:00,METAR,,170,8.0,,,9999.0,Cloud Development Not Observable,29.0,12.0,30.11,1019.7,,,,0,0,0,,,,,,,,,4/8 Partly Cloudy,72000.0,,FEW,4000.0,FEW,12000.0,SCT,25000.0,,
KRDR,07-12-2001,21:00,METAR,,140,7.0,12.0,,9999.0,Cloud Development Not Observable,29.0,12.0,30.12,1020.1,,,,0,0,0,,,,,,,,,2/8 Mostly Clear,72000.0,,FEW,4000.0,FEW,12000.0,,,,
KRDR,07-12-2001,20:00,METAR,,150,7.0,14.0,,9999.0,Cloud Development Not Observable,29.0,12.0,30.14,1020.6,,,,0,0,0,,,,,,,,,4/8 Partly Cloudy,72000.0,,FEW,3000.0,FEW,12000.0,SCT,25000.0,,
KRDR,07-12-2001,19:00,METAR,,160,10.0,,,9999.0,Cloud Development Not Observable,28.0,12.0,30.13,1020.3,,,,0,0,0,,,,,,,,,2/8 Mostly Clear,72000.0,,FEW,3000.0,FEW,12000.0,,,,
KRDR,07-12-2001,18:00,METAR,,120,10.0,,,9999.0,Cloud Development Not Observable,28.0,12.0,30.13,1020.3,,,,0,0,0,,,,,,,,,4/8 Partly Cloudy,72000.0,,FEW,3000.0,FEW,12000.0,SCT,25000.0,,
KRDR,07-12-2001,17:00,METAR,,100,7.0,,,9999.0,Cloud Development Not Observable,27.0,12.0,30.14,1020.7,,,,0,0,0,,,,,,,,,4/8 Partly Cloudy,72000.0,,FEW,3000.0,FEW,12000.0,SCT,25000.0,,
KRDR,07-12-2001,16:00,METAR,,100,7.0,,,9999.0,Cloud Development Not Observable,26.0,13.0,30.14,1020.7,,,,0,0,0,,,,,,,,,4/8 Partly Cloudy,72000.0,,FEW,12000.0,SCT,25000.0,,,,
KRDR,07-12-2001,15:00,METAR,,,6.0,,,9999.0,Cloud Development Not Observable,24.0,14.0,30.13,1020.4,,,,0,0,0,,,,,,,,,4/8 Partly Cloudy,72000.0,,FEW,12000.0,SCT,25000.0,,,,
KRDR,07-12-2001,14:00,METAR,,80,5.0,,,9999.0,Cloud Development Not Observable,22.0,15.0,30.12,,,,,0,0,0,,,,,,,,,2/8 Mostly Clear,72000.0,,FEW,12000.0,FEW,25000.0,,,,
KRDR,07-12-2001,13:00,METAR,,90,5.0,,,9999.0,Cloud Development Not Observable,20.0,15.0,30.12,,,,,0,0,0,,,,,,,,,2/8 Mostly Clear,72000.0,,FEW,12000.0,FEW,25000.0,,,,
KRDR,07-12-2001,12:00,METAR,,,2.0,,,9999.0,Cloud Development Not Observable,16.0,15.0,30.10,1019.6,,,,0,0,0,,,,,,,,,2/8 Mostly Clear,72000.0,,FEW,12000.0,,,,,,
KRDR,07-12-2001,11:00,METAR,,,1.0,,,9999.0,Cloud Development Not Observable,16.0,16.0,30.09,1019.0,,,,0,0,0,,,,,,,,,4/8 Partly Cloudy,72000.0,,SCT,12000.0,,,,,,
KRDR,07-12-2001,10:00,METAR,,160,3.0,,,9999.0,Cloud Development Not Observable,17.0,15.0,30.08,1018.7,,,,0,0,0,,,,,,,,,4/8 Partly Cloudy,72000.0,,SCT,12000.0,,,,,,
KRDR,07-12-2001,09:00,METAR,,110,3.0,,,9999.0,Cloud Development Not Observable,18.0,15.0,30.08,1018.6,,,,0,0,0,,,,,,,,,7/8 Mostly Cloudy,12000.0,,BKN,12000.0,BKN,25000.0,,,,
KRDR,07-12-2001,08:00,METAR,,100,5.0,,,9999.0,Cloud Development Not Observable,19.0,15.0,30.06,1018.2,,,,0,0,0,,,,,,,,,7/8 Mostly Cloudy,12000.0,,BKN,12000.0,BKN,25000.0,,,,
KRDR,07-12-2001,07:00,METAR,,,2.0,,,9999.0,Cloud Development Not Observable,17.0,16.0,30.07,1018.5,,,,0,0,0,,,,,,,,,7/8 Mostly Cloudy,12000.0,,BKN,12000.0,BKN,25000.0,,,,
KRDR,07-12-2001,06:00,METAR,,130,4.0,,,9999.0,Cloud Development Not Observable,17.0,16.0,30.06,1018.3,,,,0,0,0,,,,,,,,,7/8 Mostly Cloudy,25000.0,,SCT,12000.0,BKN,25000.0,,,,
KRDR,07-12-2001,05:00,METAR,Calm,,0.0,,,9999.0,Cloud Development Not Observable,19.0,14.0,30.06,1018.3,,,,0,0,0,,,,,,,,,,25000.0,,SCT,12000.0,BKN,25000.0,,,,
KRDR,07-12-2001,04:00,METAR,,,4.0,,,9999.0,Cloud Development Not Observable,18.0,15.0,30.06,1018.3,,,,0,0,0,,,,,,,,,7/8 Mostly Cloudy,25000.0,,SCT,12000.0,BKN,25000.0,,,,
KRDR,07-12-2001,03:00,METAR,,,2.0,,,9999.0,Cloud Development Not Observable,19.0,15.0,30.06,1018.2,,,,0,0,0,,,,,,,,,7/8 Mostly Cloudy,25000.0,,SCT,12000.0,BKN,25000.0,,,,
KRDR,07-12-2001,02:00,METAR,,130,4.0,,,9999.0,Cloud Development Not Observable,22.0,15.0,30.05,1017.8,,,,0,0,0,,,,,,,,,7/8 Mostly Cloudy,25000.0,,SCT,12000.0,BKN,25000.0,,,,
KRDR,07-12-2001,01:00,METAR,,140,5.0,,,9999.0,Cloud Development Not Observable,23.0,14.0,30.04,1017.7,,,,0,0,0,,,,,,,,,7/8 Mostly Cloudy,12000.0,,BKN,12000.0,BKN,25000.0,,,,
KRDR,07-12-2001,00:00,METAR,,130,6.0,,,9999.0,Cloud Development Not Observable,24.0,12.0,30.04,1017.5,,,,0,0,0,,,,,,,,,7/8 Mostly Cloudy,12000.0,,FEW,5900.0,BKN,12000.0,BKN,25000.0,,
KRDR,07-11-2001,23:00,METAR,,150,5.0,,,9999.0,Cloud Development Not Observable,24.0,11.0,30.04,1017.7,,,,0,0,0,,,,,,,,,7/8 Mostly Cloudy,12000.0,,FEW,5900.0,BKN,12000.0,BKN,25000.0,,
KRDR,07-11-2001,22:00,METAR,,,6.0,,,9999.0,Cloud Development Not Observable,24.0,13.0,30.06,1018.1,,,,0,0,0,,,,,,,,,7/8 Mostly Cloudy,12000.0,,FEW,5900.0,BKN,12000.0,BKN,25000.0,,
KRDR,07-11-2001,21:00,METAR,,,1.0,,,9999.0,Cloud Development Not Observable,25.0,12.0,30.06,1018.1,,,,0,0,0,,,,,,,,,7/8 Mostly Cloudy,12000.0,,SCT,5900.0,BKN,12000.0,BKN,25000.0,,
KRDR,07-11-2001,20:00,METAR,,,5.0,,,9999.0,Cloud Development Not Observable,25.0,10.0,30.06,1018.2,,,,0,0,0,,,,,,,,,7/8 Mostly Cloudy,12000.0,,FEW,5900.0,BKN,12000.0,BKN,25000.0,,
KRDR,07-11-2001,19:00,METAR,,160,7.0,,,9999.0,Cloud Development Not Observable,24.0,12.0,30.06,1018.4,,,,0,0,0,,,,,,,,,7/8 Mostly Cloudy,12000.0,,FEW,5900.0,BKN,12000.0,BKN,25000.0,,
KRDR,07-11-2001,18:00,METAR,,130,7.0,,,9999.0,Cloud Development Not Observable,24.0,13.0,30.07,1018.5,,,,0,0,0,,,,,,,,,7/8 Mostly Cloudy,12000.0,,FEW,5900.0,BKN,12000.0,BKN,25000.0,,
KRDR,07-11-2001,17:00,METAR,,140,7.0,,,9999.0,Cloud Development Not Observable,23.0,13.0,30.08,1018.9,,,,0,0,0,,,,,,,,,7/8 Mostly Cloudy,12000.0,,FEW,5900.0,BKN,12000.0,BKN,25000.0,,
KRDR,07-11-2001,16:00,METAR,,120,7.0,,,9999.0,Cloud Development Not Observable,20.0,13.0,30.09,1019.0,,,,0,0,0,,,,,,,,,7/8 Mostly Cloudy,12000.0,,FEW,6900.0,BKN,12000.0,BKN,25000.0,,
KRDR,07-11-2001,15:00,METAR,,180,4.0,,,9999.0,Cloud Development Not Observable,19.0,14.0,30.10,1019.6,,,,0,0,0,,,,,,,,,7/8 Mostly Cloudy,12000.0,,FEW,6900.0,BKN,12000.0,BKN,25000.0,,
KRDR,07-11-2001,14:00,METAR,,,4.0,,,9999.0,Cloud Development Not Observable,17.0,13.0,30.10,1019.6,,,,0,0,0,,,,,,,,,8/8 Overcast,12000.0,,FEW,6900.0,BKN,12000.0,OVC,25000.0,,
KRDR,07-11-2001,13:00,METAR,,100,6.0,,,9999.0,Cloud Development Not Observable,16.0,12.0,30.09,1019.0,,,,0,0,0,,,,,,,,,8/8 Overcast,12000.0,,BKN,12000.0,OVC,25000.0,,,,
KRDR,07-11-2001,12:00,METAR,,,4.0,,,9999.0,Cloud Development Not Observable,15.0,14.0,30.09,1019.0,,,,0,0,0,,,,,,,,,8/8 Overcast,12000.0,,BKN,12000.0,OVC,25000.0,,,,
KRDR,07-11-2001,11:00,METAR,,20,4.0,,,9999.0,Cloud Development Not Observable,15.0,12.0,30.09,1019.0,,,,0,0,0,,,,,,,,,8/8 Overcast,12000.0,,BKN,12000.0,OVC,25000.0,,,,
KRDR,07-11-2001,10:00,METAR,,310,3.0,,,9999.0,Cloud Development Not Observable,14.0,12.0,30.09,1019.0,,,,0,0,0,,,,,,,,,8/8 Overcast,25000.0,,SCT,12000.0,OVC,25000.0,,,,
KRDR,07-11-2001,09:00,METAR,,300,4.0,,,9999.0,Cloud Development Not Observable,13.0,12.0,30.08,1018.9,,,,0,0,0,,,,,,,,,8/8 Overcast,25000.0,,SCT,12000.0,OVC,25000.0,,,,
KRDR,07-11-2001,08:00,METAR,,290,3.0,,,9999.0,Cloud Development Not Observable,14.0,12.0,30.09,1019.0,,,,0,0,0,,,,,,,,,7/8 Mostly Cloudy,25000.0,,SCT,12000.0,BKN,25000.0,,,,
KRDR,07-11-2001,07:00,METAR,,280,5.0,,,9999.0,Cloud Development Not Observable,14.0,12.0,30.09,1019.2,,,,0,0,0,,,,,,,,,7/8 Mostly Cloudy,25000.0,,FEW,12000.0,BKN,25000.0,,,,
KRDR,07-11-2001,06:00,METAR,,,4.0,,,9999.0,Cloud Development Not Observable,16.0,11.0,30.09,1019.2,,,,0,0,0,,,,,,,,,7/8 Mostly Cloudy,25000.0,,FEW,12000.0,BKN,25000.0,,,,
KRDR,07-11-2001,05:00,METAR,,330,3.0,,,9999.0,Cloud Development Not Observable,15.0,12.0,30.09,1019.2,,,,0,0,0,,,,,,,,,4/8 Partly Cloudy,72000.0,,FEW,9900.0,SCT,25000.0,,,,
KRDR,07-11-2001,04:00,METAR,,70,4.0,,,9999.0,Cloud Development Not Observable,20.0,9.0,30.09,1019.1,,,,0,0,0,,,,,,,,,4/8 Partly Cloudy,72000.0,,FEW,9900.0,SCT,25000.0,,,,
KRDR,07-11-2001,03:00,METAR,,60,6.0,,,9999.0,Cloud Development Not Observable,21.0,10.0,30.09,1018.9,,,,0,0,0,,,,,,,,,4/8 Partly Cloudy,72000.0,,FEW,5900.0,SCT,25000.0,,,,
KRDR,07-11-2001,02:00,METAR,,360,8.0,,,9999.0,Cloud Development Not Observable,23.0,14.0,30.06,1018.0,,,,0,0,0,,,,,,,,,2/8 Mostly Clear,72000.0,,FEW,5900.0,FEW,25000.0,,,,
KRDR,07-11-2001,01:00,METAR,,350,10.0,,,9999.0,Cloud Development Not Observable,25.0,12.0,30.06,1018.0,,,,0,0,0,,,,,,,,,2/8 Mostly Clear,72000.0,,FEW,5900.0,FEW,20000.0,,,,
KRDR,07-11-2001,00:00,METAR,,350,10.0,,,9999.0,Cloud Development Not Observable,26.0,12.0,30.06,1018.1,,,,0,0,0,,,,,,,,,2/8 Mostly Clear,72000.0,,FEW,5900.0,FEW,20000.0,,,,
KRDR,07-10-2001,23:00,METAR,,340,10.0,,,9999.0,Cloud Development Not Observable,27.0,12.0,30.06,1018.3,,,,0,0,0,,,,,,,,,2/8 Mostly Clear,72000.0,,FEW,5900.0,FEW,20000.0,,,,
KRDR,07-10-2001,22:00,METAR,,350,12.0,18.0,,9999.0,Cloud Development Not Observable,28.0,12.0,30.08,1018.7,,,,0,0,0,,,,,,,,,2/8 Mostly Clear,72000.0,,FEW,5900.0,FEW,20000.0,,,,
KRDR,07-10-2001,21:00,METAR,,340,10.0,,,9999.0,Cloud Development Not Observable,28.0,11.0,30.08,1018.6,,,,0,0,0,,,,,,,,,4/8 Partly Cloudy,72000.0,,SCT,5900.0,SCT,20000.0,,,,
KRDR,07-10-2001,20:00,METAR,,350,7.0,,,9999.0,Cloud Development Not Observable,28.0,13.0,30.09,1019.0,,,,0,0,0,,,,,,,,,2/8 Mostly Clear,72000.0,,FEW,5900.0,FEW,20000.0,,,,
KRDR,07-10-2001,19:00,METAR,,40,10.0,,,9999.0,Cloud Development Not Observable,27.0,12.0,30.09,1018.9,,,,0,0,0,,,,,,,,,2/8 Mostly Clear,72000.0,,FEW,5900.0,FEW,20000.0,,,,
KRDR,07-10-2001,17:55,METAR,,360,12.0,,,9999.0,Cloud Development Not Observable,27.0,11.0,30.09,1019.0,,,,0,0,0,,,,,,,,,2/8 Mostly Clear,72000.0,,FEW,6900.0,FEW,20000.0,,,,
KRDR,07-10-2001,17:00,METAR,,10,13.0,,,9999.0,Cloud Development Not Observable,26.0,12.0,30.11,1019.7,,,,0,0,0,,,,,,,,,2/8 Mostly Clear,72000.0,,FEW,6900.0,FEW,20000.0,,,,
KRDR,07-10-2001,16:00,METAR,,30,8.0,,,9999.0,Cloud Development Not Observable,25.0,13.0,30.13,1020.3,,,,0,0,0,,,,,,,,,2/8 Mostly Clear,72000.0,,FEW,6900.0,FEW,20000.0,,,,
KRDR,07-10-2001,15:00,METAR,,360,7.0,,,9999.0,Cloud Development Not Observable,23.0,13.0,30.12,1020.1,,,,0,0,0,,,,,,,,,2/8 Mostly Clear,72000.0,,FEW,6900.0,,,,,,
KRDR,07-10-2001,14:00,METAR,,360,7.0,,,9999.0,Cloud Development Not Observable,22.0,14.0,30.10,1019.3,,,,0,0,0,,,,,,,,,2/8 Mostly Clear,72000.0,,FEW,7900.0,FEW,20000.0,,,,
KRDR,07-10-2001,13:00,METAR,,330,8.0,,,9999.0,Cloud Development Not Observable,19.0,14.0,30.10,1019.3,,,,0,0,0,,,,,,,,,2/8 Mostly Clear,72000.0,,FEW,7900.0,FEW,20000.0,,,,
KRDR,07-10-2001,12:00,METAR,,300,5.0,,,9999.0,Cloud Development Not Observable,16.0,14.0,30.10,1019.3,,,,0,0,0,,,,,,,,,2/8 Mostly Clear,72000.0,,FEW,7900.0,FEW,20000.0,,,,
KRDR,07-10-2001,11:00,METAR,,300,5.0,,,9999.0,Cloud Development Not Observable,13.0,13.0,30.08,1018.5,,,,0,0,0,,,,,,,,,2/8 Mostly Clear,72000.0,,FEW,7900.0,FEW,20000.0,,,,
KRDR,07-10-2001,10:00,METAR,,260,5.0,,,9999.0,Cloud Development Not Observable,13.0,13.0,30.06,1018.0,,,,0,0,0,,,,,,,,,2/8 Mostly Clear,72000.0,,FEW,5000.0,,,,,,
KRDR,07-10-2001,09:00,METAR,,340,6.0,,,9999.0,Cloud Development Not Observable,14.0,13.0,30.04,1017.5,,,,0,0,0,,,,,,,,,2/8 Mostly Clear,72000.0,,FEW,5000.0,,,,,,
KRDR,07-10-2001,08:00,METAR,,330,6.0,,,9999.0,Cloud Development Not Observable,16.0,14.0,30.03,1016.9,,,,0,0,0,,,,,,,,,Clear,72000.0,,,73000.0,,,,,,
KRDR,07-10-2001,07:00,METAR,,260,4.0,,,9999.0,Cloud Development Not Observable,17.0,15.0,30.02,1016.7,,,,0,0,0,,,,,,,,,Clear,72000.0,,,73000.0,,,,,,
KRDR,07-10-2001,06:00,METAR,,340,5.0,,,9999.0,Cloud Development Not Observable,19.0,15.0,30.02,1016.5,,,,0,0,0,,,,,,,,,Clear,72000.0,,,73000.0,,,,,,
KRDR,07-10-2001,05:00,METAR,,360,6.0,,,9999.0,Cloud Development Not Observable,20.0,14.0,30.01,1016.3,,,,0,0,0,,,,,,,,,Clear,72000.0,,,73000.0,,,,,,
KRDR,07-10-2001,04:00,METAR,,350,8.0,,,9999.0,Cloud Development Not Observable,21.0,16.0,30.00,1016.0,,,,0,0,0,,,,,,,,,2/8 Mostly Clear,72000.0,,FEW,25000.0,,,,,,
KRDR,07-10-2001,03:00,METAR,,310,6.0,,,9999.0,Cloud Development Not Observable,24.0,17.0,29.97,1014.8,,,,0,0,0,,,,,,,,,2/8 Mostly Clear,72000.0,,FEW,5000.0,FEW,25000.0,,,,
KRDR,07-10-2001,02:00,METAR,,290,5.0,,,9999.0,Cloud Development Not Observable,27.0,18.0,29.96,1014.6,,,,0,0,0,,,,,,,,,2/8 Mostly Clear,72000.0,,FEW,5000.0,FEW,25000.0,,,,
KRDR,07-10-2001,01:00,METAR,,340,8.0,,,9999.0,Cloud Development Not Observable,30.0,15.0,29.96,1014.4,,,,0,0,0,,,,,,,,,2/8 Mostly Clear,72000.0,,FEW,5000.0,FEW,25000.0,,,,
KRDR,07-10-2001,00:00,METAR,,340,9.0,,,9999.0,Cloud Development Not Observable,32.0,13.0,29.95,1014.1,,,,0,0,0,,,,,,,,,2/8 Mostly Clear,72000.0,,FEW,5000.0,,,,,,
KRDR,07-09-2001,23:00,METAR,,340,12.0,,,9999.0,Cloud Development Not Observable,33.0,12.0,29.96,1014.6,,,,0,0,0,,,,,,,,,2/8 Mostly Clear,72000.0,,FEW,5000.0,,,,,,
KRDR,07-09-2001,22:00,METAR,,320,14.0,19.0,,9999.0,Cloud Development Not Observable,33.0,12.0,29.98,1015.0,,,,0,0,0,,,,,,,,,2/8 Mostly Clear,72000.0,,FEW,5000.0,,,,,,
KRDR,07-09-2001,21:00,METAR,,,5.0,,,9999.0,Cloud Development Not Observable,33.0,15.0,29.99,1015.3,,,,0,0,0,,,,,,,,,2/8 Mostly Clear,72000.0,,FEW,5000.0,,,,,,
KRDR,07-09-2001,20:00,METAR,,330,10.0,,,9999.0,Cloud Development Not Observable,32.0,12.0,29.99,1015.3,,,,0,0,0,,,,,,,,,2/8 Mostly Clear,72000.0,,FEW,5000.0,,,,,,
KRDR,07-09-2001,19:00,METAR,,320,11.0,,,9999.0,Cloud Development Not Observable,32.0,12.0,29.99,1015.3,,,,0,0,0,,,,,,,,,2/8 Mostly Clear,72000.0,,FEW,4000.0,,,,,,
KRDR,07-09-2001,18:00,METAR,,340,9.0,,,9999.0,Cloud Development Not Observable,31.0,14.0,29.98,1015.1,,,,0,0,0,,,,,,,,,2/8 Mostly Clear,72000.0,,FEW,20000.0,,,,,,
KRDR,07-09-2001,17:00,METAR,,350,7.0,,,9999.0,Cloud Development Not Observable,30.0,17.0,29.98,1015.0,,,,0,0,0,,,,,,,,,2/8 Mostly Clear,72000.0,,FEW,20000.0,,,,,,
KRDR,07-09-2001,16:00,METAR,,340,9.0,,,9999.0,Cloud Development Not Observable,28.0,18.0,29.98,1015.0,,,,0,0,0,,,,,,,,,2/8 Mostly Clear,72000.0,,FEW,20000.0,,,,,,
KRDR,07-09-2001,15:00,METAR,,330,8.0,,,9999.0,Cloud Development Not Observable,26.0,19.0,29.97,1015.0,,,,0,0,0,,,,,,,,,2/8 Mostly Clear,72000.0,,FEW,20000.0,,,,,,
KRDR,07-09-2001,14:00,METAR,,350,9.0,,,9999.0,Cloud Development Not Observable,24.0,19.0,29.96,1014.6,,,,0,0,0,,,,,,,,,2/8 Mostly Clear,72000.0,,FEW,20000.0,,,,,,
KRDR,07-09-2001,13:00,METAR,,360,7.0,,,9999.0,Cloud Development Not Observable,22.0,19.0,29.95,1014.0,,,,0,0,0,,,,,,,,,2/8 Mostly Clear,72000.0,,FEW,20000.0,,,,,,
KRDR,07-09-2001,12:00,METAR,,340,9.0,,,9999.0,Cloud Development Not Observable,19.0,19.0,29.93,1013.5,,,,0,0,0,,,,,,,,,2/8 Mostly Clear,72000.0,,FEW,11000.0,FEW,20000.0,,,,
KRDR,07-09-2001,11:00,METAR,,320,6.0,,,9999.0,Cloud Development Not Observable,18.0,18.0,29.91,1012.6,,,,0,0,0,,,,,,,,,2/8 Mostly Clear,72000.0,,FEW,11000.0,FEW,20000.0,,,,
KRDR,07-09-2001,10:00,METAR,,280,2.0,,,9999.0,Cloud Development Not Observable,19.0,18.0,29.89,1011.9,,,,0,0,0,,,,,,,,,2/8 Mostly Clear,72000.0,,FEW,11000.0,,,,,,
KRDR,07-09-2001,09:00,METAR,,240,5.0,,,9999.0,Cloud Development Not Observable,21.0,18.0,29.89,1011.8,,,,0,0,0,,,,,,,,,4/8 Partly Cloudy,72000.0,,SCT,11000.0,,,,,,
KRDR,07-09-2001,08:00,METAR,,310,5.0,,,9999.0,Cloud Development Not Observable,23.0,17.0,29.90,1012.1,,,,0,0,0,,,,,,,,,4/8 Partly Cloudy,72000.0,,SCT,11000.0,,,,,,
KRDR,07-09-2001,07:00,METAR,,230,3.0,,,9999.0,Cloud Development Not Observable,25.0,17.0,29.89,1011.8,,,,0,0,0,,,,,,,,,7/8 Mostly Cloudy,11000.0,,BKN,11000.0,BKN,25000.0,,,,
KRDR,07-09-2001,06:27,SPECI,,280,7.0,,,9999.0,Thunderstorm/Cloud Development Not Observable,26.0,16.0,29.88,,,,,17,0,0,,,,,,,,,7/8 Mostly Cloudy,11000.0,,FEW,5000.0,BKN,11000.0,BKN,25000.0,,
KRDR,07-09-2001,06:13,SPECI,,270,6.0,,,9999.0,Thunderstorm with Rain or Snow/Light Rain Showers/Cloud Development Not Observable,26.0,16.0,29.88,,,,,95,80,0,,,,,,,,,7/8 Mostly Cloudy,12000.0,,SCT,5000.0,BKN,12000.0,BKN,25000.0,,
KRDR,07-09-2001,06:00,METAR,,230,9.0,,,9999.0,Thunderstorm/Cloud Development Not Observable,26.0,16.0,29.87,1011.3,,,,17,0,0,,,,,,,,,7/8 Mostly Cloudy,12000.0,,FEW,5000.0,BKN,12000.0,BKN,25000.0,,
KRDR,07-09-2001,05:49,SPECI,,230,10.0,,,9999.0,Thunderstorm/Cloud Development Not Observable,26.0,16.0,29.87,,,,,17,0,0,,,,,,,,,7/8 Mostly Cloudy,12000.0,,FEW,5000.0,BKN,12000.0,BKN,25000.0,,
KRDR,07-09-2001,05:00,METAR,,230,7.0,,,9999.0,Cloud Development Not Observable,24.0,18.0,29.87,1011.3,,,,0,0,0,,,,,,,,,7/8 Mostly Cloudy,25000.0,,SCT,12000.0,BKN,25000.0,,,,
KRDR,07-09-2001,04:00,METAR,,190,6.0,,,9999.0,Cloud Development Not Observable,24.0,18.0,29.88,1011.7,,,,0,0,0,,,,,,,,,4/8 Partly Cloudy,72000.0,,FEW,5000.0,SCT,25000.0,,,,
KRDR,07-09-2001,03:00,METAR,,200,6.0,,,9999.0,Cloud Development Not Observable,23.0,18.0,29.88,1011.8,,,,0,0,0,,,,,,,,,2/8 Mostly Clear,72000.0,,FEW,5000.0,FEW,25000.0,,,,
KRDR,07-09-2001,02:00,METAR,,210,6.0,,,9999.0,Cloud Development Not Observable,27.0,9.0,29.87,1011.4,,,,0,0,0,,,,,,,,,2/8 Mostly Clear,72000.0,,FEW,5000.0,FEW,25000.0,,,,
KRDR,07-09-2001,01:00,METAR,,220,10.0,,,9999.0,Cloud Development Not Observable,30.0,16.0,29.87,1011.4,,,,0,0,0,,,,,,,,,2/8 Mostly Clear,72000.0,,FEW,5000.0,FEW,25000.0,,,,
KRDR,07-09-2001,00:00,METAR,,230,10.0,,,9999.0,Cloud Development Not Observable,32.0,16.0,29.88,1011.4,,,,0,0,0,,,,,,,,,2/8 Mostly Clear,72000.0,,FEW,5000.0,FEW,25000.0,,,,
KRDR,07-08-2001,23:00,METAR,,240,10.0,,,9999.0,Cloud Development Not Observable,33.0,13.0,29.89,1012.0,,,,0,0,0,,,,,,,,,2/8 Mostly Clear,72000.0,,FEW,25000.0,,,,,,
KRDR,07-08-2001,22:00,METAR,,250,10.0,,,9999.0,Cloud Development Not Observable,34.0,14.0,29.90,1012.6,,,,0,0,0,,,,,,,,,2/8 Mostly Clear,72000.0,,FEW,25000.0,,,,,,
KRDR,07-08-2001,21:00,METAR,,250,10.0,,,9999.0,Cloud Development Not Observable,33.0,13.0,29.92,1013.0,,,,0,0,0,,,,,,,,,2/8 Mostly Clear,72000.0,,FEW,25000.0,,,,,,
KRDR,07-08-2001,20:00,METAR,,240,8.0,,,9999.0,Cloud Development Not Observable,33.0,13.0,29.92,1013.2,,,,0,0,0,,,,,,,,,2/8 Mostly Clear,72000.0,,FEW,25000.0,,,,,,
KRDR,07-08-2001,19:00,METAR,,250,7.0,,,9999.0,Cloud Development Not Observable,32.0,12.0,29.93,1013.5,,,,0,0,0,,,,,,,,,Clear,72000.0,,,73000.0,,,,,,
KRDR,07-08-2001,18:00,METAR,,240,9.0,,,9999.0,Cloud Development Not Observable,31.0,13.0,29.94,1013.9,,,,0,0,0,,,,,,,,,Clear,72000.0,,,73000.0,,,,,,
KRDR,07-08-2001,17:00,METAR,,270,7.0,,,9999.0,Cloud Development Not Observable,30.0,12.0,29.95,1014.0,,,,0,0,0,,,,,,,,,Clear,72000.0,,,73000.0,,,,,,
KRDR,07-08-2001,16:00,METAR,,260,7.0,,,9999.0,Cloud Development Not Observable,28.0,14.0,29.95,1014.0,,,,0,0,0,,,,,,,,,Clear,72000.0,,,73000.0,,,,,,
KRDR,07-08-2001,15:00,METAR,,270,7.0,,,9999.0,Cloud Development Not Observable,27.0,17.0,29.95,1014.1,,,,0,0,0,,,,,,,,,Clear,72000.0,,,73000.0,,,,,,
KRDR,07-08-2001,14:00,METAR,,270,6.0,,,9999.0,Cloud Development Not Observable,24.0,16.0,29.96,1014.3,,,,0,0,0,,,,,,,,,Clear,72000.0,,,73000.0,,,,,,
KRDR,07-08-2001,13:00,METAR,,260,5.0,,,9999.0,Cloud Development Not Observable,21.0,16.0,29.95,1014.1,,,,0,0,0,,,,,,,,,Clear,72000.0,,,73000.0,,,,,,
KRDR,07-08-2001,12:00,METAR,,220,5.0,,,9999.0,Cloud Development Not Observable,17.0,16.0,29.91,1012.9,,,,0,0,0,,,,,,,,,Clear,72000.0,,,73000.0,,,,,,
KRDR,07-08-2001,11:00,METAR,,280,4.0,,,9999.0,Cloud Development Not Observable,15.0,14.0,29.90,1012.3,,,,0,0,0,,,,,,,,,Clear,72000.0,,,73000.0,,,,,,
KRDR,07-08-2001,10:00,METAR,,300,4.0,,,9999.0,Cloud Development Not Observable,16.0,16.0,29.90,1012.3,,,,0,0,0,,,,,,,,,Clear,72000.0,,,73000.0,,,,,,
KRDR,07-08-2001,09:00,METAR,,270,5.0,,,9999.0,Cloud Development Not Observable,17.0,16.0,29.90,1012.3,,,,0,0,0,,,,,,,,,2/8 Mostly Clear,72000.0,,FEW,5900.0,FEW,25000.0,,,,
KRDR,07-08-2001,08:00,METAR,,270,7.0,,,9999.0,Cloud Development Not Observable,17.0,16.0,29.89,1012.0,,,,0,0,0,,,,,,,,,2/8 Mostly Clear,72000.0,,FEW,25000.0,,,,,,
KRDR,07-08-2001,07:00,METAR,,330,6.0,,,9999.0,Cloud Development Not Observable,19.0,17.0,29.87,1011.6,,,,0,0,0,,,,,,,,,2/8 Mostly Clear,72000.0,,FEW,25000.0,,,,,,
KRDR,07-08-2001,06:00,METAR,,320,6.0,,,9999.0,Cloud Development Not Observable,20.0,17.0,29.87,1011.6,,,,0,0,0,,,,,,,,,4/8 Partly Cloudy,72000.0,,FEW,5900.0,SCT,25000.0,,,,
KRDR,07-08-2001,05:00,METAR,,290,4.0,,,9999.0,Cloud Development Not Observable,23.0,16.0,29.85,1010.7,,,,0,0,0,,,,,,,,,4/8 Partly Cloudy,72000.0,,FEW,5900.0,SCT,25000.0,,,,
KRDR,07-08-2001,04:00,METAR,,330,3.0,,,9999.0,Cloud Development Not Observable,25.0,15.0,29.83,1010.0,,,,0,0,0,,,,,,,,,4/8 Partly Cloudy,72000.0,,SCT,5400.0,SCT,25000.0,,,,
KRDR,07-08-2001,03:00,METAR,,90,1.0,,,9999.0,Cloud Development Not Observable,27.0,16.0,29.80,1009.0,,,,0,0,0,,,,,,,,,4/8 Partly Cloudy,72000.0,,FEW,8900.0,SCT,25000.0,,,,
KRDR,07-08-2001,02:00,METAR,,190,4.0,,,9999.0,Cloud Development Not Observable,28.0,14.0,29.80,1009.0,,,,0,0,0,,,,,,,,,4/8 Partly Cloudy,72000.0,,FEW,8900.0,SCT,25000.0,,,,
KRDR,07-08-2001,01:00,METAR,,190,5.0,,,9999.0,Cloud Development Not Observable,28.0,15.0,29.80,1009.1,,,,0,0,0,,,,,,,,,4/8 Partly Cloudy,72000.0,,FEW,5000.0,SCT,8900.0,SCT,25000.0,,
KRDR,07-07-2001,23:55,METAR,,220,6.0,,,9999.0,Cloud Development Not Observable,31.0,14.0,29.80,1009.1,,,,0,0,0,,,,,,,,,4/8 Partly Cloudy,72000.0,,FEW,5000.0,FEW,8900.0,SCT,25000.0,,
KRDR,07-07-2001,23:00,METAR,,220,6.0,,,9999.0,Cloud Development Not Observable,31.0,15.0,29.80,1009.1,,,,0,0,0,,,,,,,,,7/8 Mostly Cloudy,25000.0,,SCT,6900.0,BKN,25000.0,,,,
KRDR,07-07-2001,22:00,METAR,,210,8.0,,,9999.0,Cloud Development Not Observable,32.0,13.0,29.81,1009.6,,,,0,0,0,,,,,,,,,4/8 Partly Cloudy,72000.0,,FEW,5900.0,SCT,20000.0,,,,
KRDR,07-07-2001,21:00,METAR,,220,9.0,,,9999.0,Cloud Development Not Observable,31.0,10.0,29.81,,,,,0,0,0,,,,,,,,,4/8 Partly Cloudy,72000.0,,FEW,5900.0,SCT,20000.0,,,,
KRDR,07-07-2001,20:00,METAR,,220,9.0,,,9999.0,Cloud Development Not Observable,30.0,11.0,29.81,,,,,0,0,0,,,,,,,,,2/8 Mostly Clear,72000.0,,FEW,5900.0,,,,,,
KRDR,07-07-2001,19:00,METAR,,190,9.0,,,9999.0,Cloud Development Not Observable,30.0,11.0,29.83,1010.4,,,,0,0,0,,,,,,,,,4/8 Partly Cloudy,72000.0,,FEW,5000.0,SCT,20000.0,,,,
KRDR,07-07-2001,18:00,METAR,,220,10.0,,,9999.0,Cloud Development Not Observable,29.0,9.0,29.84,1010.6,,,,0,0,0,,,,,,,,,4/8 Partly Cloudy,72000.0,,FEW,5000.0,SCT,20000.0,,,,
KRDR,07-07-2001,17:00,METAR,,180,8.0,,,9999.0,Cloud Development Not Observable,28.0,10.0,29.84,1010.7,,,,0,0,0,,,,,,,,,4/8 Partly Cloudy,72000.0,,FEW,5000.0,SCT,20000.0,,,,
KRDR,07-07-2001,16:00,METAR,,280,6.0,,,9999.0,Cloud Development Not Observable,26.0,10.0,29.86,1011.2,,,,0,0,0,,,,,,,,,4/8 Partly Cloudy,72000.0,,FEW,5000.0,FEW,9900.0,SCT,20000.0,,
KRDR,07-07-2001,15:00,METAR,,270,6.0,,,9999.0,Cloud Development Not Observable,25.0,14.0,29.85,1011.0,,,,0,0,0,,,,,,,,,4/8 Partly Cloudy,72000.0,,FEW,9900.0,SCT,20000.0,,,,
KRDR,07-07-2001,14:00,METAR,,240,5.0,,,9999.0,Cloud Development Not Observable,22.0,16.0,29.84,1010.6,,,,0,0,0,,,,,,,,,4/8 Partly Cloudy,72000.0,,FEW,9900.0,SCT,20000.0,,,,
KRDR,07-07-2001,13:00,METAR,,280,6.0,,,9999.0,Cloud Development Not Observable,19.0,15.0,29.85,1011.0,,,,0,0,0,,,,,,,,,4/8 Partly Cloudy,72000.0,,FEW,9900.0,SCT,20000.0,,,,
KRDR,07-07-2001,12:00,METAR,,260,3.0,,,9999.0,Cloud Development Not Observable,16.0,13.0,29.82,1010.0,,,,0,0,0,,,,,,,,,4/8 Partly Cloudy,72000.0,,FEW,8900.0,SCT,20000.0,,,,
KRDR,07-07-2001,11:00,METAR,,280,3.0,,,9999.0,Cloud Development Not Observable,14.0,13.0,29.80,1009.3,,,,0,0,0,,,,,,,,,4/8 Partly Cloudy,72000.0,,FEW,9900.0,SCT,20000.0,,,,
KRDR,07-07-2001,10:00,METAR,,240,6.0,,,9999.0,Cloud Development Not Observable,15.0,13.0,29.82,1009.8,,,,0,0,0,,,,,,,,,4/8 Partly Cloudy,72000.0,,FEW,9900.0,SCT,20000.0,,,,
KRDR,07-07-2001,04:00,METAR,,260,6.0,,,9999.0,Cloud Development Not Observable,21.0,16.0,29.79,1008.7,,,,0,0,0,,,,,,,,,2/8 Mostly Clear,72000.0,,FEW,20000.0,,,,,,
KRDR,07-07-2001,03:00,METAR,,330,6.0,,,9999.0,Cloud Development Not Observable,22.0,16.0,29.77,1008.2,,,,0,0,0,,,,,,,,,2/8 Mostly Clear,72000.0,,FEW,20000.0,,,,,,
KRDR,07-07-2001,02:00,METAR,,310,9.0,,,9999.0,Cloud Development Not Observable,25.0,17.0,29.76,1008.0,,,,0,0,0,,,,,,,,,2/8 Mostly Clear,72000.0,,FEW,4000.0,FEW,20000.0,,,,
KRDR,07-07-2001,01:00,METAR,,300,14.0,,,9999.0,Cloud Development Not Observable,28.0,17.0,29.76,1007.7,,,,0,0,0,,,,,,,,,2/8 Mostly Clear,72000.0,,FEW,4500.0,FEW,20000.0,,,,
KRDR,07-07-2001,00:00,METAR,,300,12.0,,,9999.0,Cloud Development Not Observable,29.0,18.0,29.74,1007.2,,,,0,0,0,,,,,,,,,4/8 Partly Cloudy,72000.0,,FEW,4500.0,SCT,20000.0,,,,
KRDR,07-06-2001,22:00,METAR,,300,16.0,23.0,,9999.0,Cloud Development Not Observable,31.0,19.0,29.72,1006.3,,,,0,0,0,,,,,,,,,7/8 Mostly Cloudy,20000.0,,SCT,4500.0,BKN,20000.0,,,,
KRDR,07-06-2001,21:00,METAR,,320,14.0,24.0,320/25KTS,9999.0,Cloud Development Not Observable,30.0,21.0,29.71,1005.8,,,,0,0,0,,,,,,,,,7/8 Mostly Cloudy,3900.0,,BKN,4000.0,BKN,20000.0,,,,
KRDR,07-06-2001,20:00,METAR,,320,20.0,28.0,,9999.0,Cloud Development Not Observable,31.0,21.0,29.70,1005.5,,,,0,0,0,,,,,,,,,7/8 Mostly Cloudy,3900.0,,BKN,4000.0,BKN,20000.0,,,,
KRDR,07-06-2001,19:00,METAR,,300,15.0,,,9999.0,Cloud Development Not Observable,31.0,22.0,29.68,1004.9,,,,0,0,0,,,,,,,,,7/8 Mostly Cloudy,3000.0,,BKN,3000.0,,,,,,
KRDR,07-06-2001,18:00,METAR,,290,15.0,23.0,,9999.0,Cloud Development Not Observable,30.0,22.0,29.67,1004.6,,,,0,0,0,,,,,,,,,4/8 Partly Cloudy,72000.0,,SCT,3000.0,SCT,20000.0,,,,
KRDR,07-06-2001,17:00,METAR,,260,16.0,24.0,,9999.0,Cloud Development Not Observable,29.0,22.0,29.64,1003.5,,,,0,0,0,,,,,,,,,4/8 Partly Cloudy,72000.0,,FEW,4000.0,SCT,11000.0,SCT,20000.0,,
KRDR,07-06-2001,16:00,METAR,,210,15.0,,,9999.0,Cloud Development Not Observable,27.0,22.0,29.64,1003.5,,,,0,0,0,,,,,,,,,7/8 Mostly Cloudy,20000.0,,SCT,11000.0,BKN,20000.0,,,,
KRDR,07-06-2001,15:00,METAR,,200,16.0,,,9999.0,Cloud Development Not Observable,22.0,15.0,29.67,1004.8,,,,0,0,0,,,,,,,,,7/8 Mostly Cloudy,11000.0,,BKN,11000.0,BKN,20000.0,,,,
KRDR,07-06-2001,14:00,METAR,,180,17.0,,,9999.0,Cloud Development Not Observable,18.0,16.0,29.67,1004.9,,,,0,0,0,,,,,,,,,8/8 Overcast,11000.0,,FEW,3000.0,BKN,11000.0,OVC,20000.0,,
KRDR,07-06-2001,13:00,METAR,,160,12.0,,,9999.0,Cloud Development Not Observable,17.0,15.0,29.66,1004.6,,,,0,0,0,,,,,,,,,8/8 Overcast,11000.0,,SCT,3000.0,BKN,11000.0,OVC,20000.0,,
KRDR,07-06-2001,12:15,SPECI,,170,13.0,,,9999.0,Cloud Development Not Observable,17.0,17.0,29.67,,,,,0,0,0,,,,,,,,,8/8 Overcast,11000.0,,SCT,3000.0,BKN,11000.0,OVC,20000.0,,
KRDR,07-06-2001,12:00,METAR,,160,16.0,,,9999.0,Cloud Development Not Observable,16.0,16.0,29.66,1004.5,,,,0,0,0,,,,,,,,,8/8 Overcast,11000.0,,SCT,3000.0,BKN,11000.0,OVC,20000.0,,
KRDR,07-06-2001,11:26,SPECI,,160,17.0,25.0,,9999.0,Cloud Development Not Observable,16.0,16.0,29.66,,,,,0,0,0,,,,,,,,,8/8 Overcast,11000.0,,SCT,3000.0,BKN,11000.0,OVC,20000.0,,
KRDR,07-06-2001,11:00,METAR,,160,8.0,,,9999.0,Thunderstorm with Rain or Snow/Light Rain Showers/Cloud Development Not Observable,16.0,16.0,29.76,1007.8,,,,95,80,0,,,,,,,,,8/8 Overcast,11000.0,,SCT,3000.0,BKN,11000.0,OVC,20000.0,,
KRDR,07-06-2001,10:14,SPECI,,210,12.0,,,9999.0,Thunderstorm with Rain or Snow/Light Rain Showers/Cloud Development Not Observable,17.0,14.0,29.75,,,,,95,80,0,,,,,,,,,8/8 Overcast,3900.0,,BKN,4000.0,BKN,12000.0,OVC,20000.0,,
KRDR,07-06-2001,10:00,METAR,,160,15.0,,,9999.0,Thunderstorm with Rain or Snow/Light Rain Showers/Cloud Development Not Observable,20.0,11.0,29.69,1005.4,,,,95,80,0,,,,,,,,,8/8 Overcast,11000.0,,SCT,4000.0,BKN,11000.0,OVC,20000.0,,
KRDR,07-06-2001,09:48,SPECI,,160,15.0,22.0,,9999.0,Thunderstorm/Cloud Development Not Observable,20.0,11.0,29.70,,,,,17,0,0,,,,,,,,,8/8 Overcast,12000.0,,SCT,4000.0,BKN,12000.0,OVC,20000.0,,
KRDR,07-06-2001,09:00,METAR,,170,14.0,,,9999.0,Cloud Development Not Observable,20.0,11.0,29.75,1007.5,,,,0,0,0,,,,,,,,,8/8 Overcast,20000.0,,SCT,12000.0,OVC,20000.0,,,,
KRDR,07-06-2001,08:00,METAR,,160,12.0,,,9999.0,Cloud Development Not Observable,19.0,12.0,29.77,1008.0,,,,0,0,0,,,,,,,,,8/8 Overcast,20000.0,,SCT,12000.0,OVC,20000.0,,,,
KRDR,07-06-2001,07:00,METAR,,160,12.0,,,9999.0,Cloud Development Not Observable,19.0,12.0,29.79,1008.9,,,,0,0,0,,,,,,,,,7/8 Mostly Cloudy,20000.0,,SCT,12000.0,BKN,20000.0,,,,
KRDR,07-06-2001,06:00,METAR,,170,12.0,,,9999.0,Cloud Development Not Observable,19.0,12.0,29.83,1010.4,,,,0,0,0,,,,,,,,,7/8 Mostly Cloudy,20000.0,,SCT,12000.0,BKN,20000.0,,,,
KRDR,07-06-2001,05:00,METAR,,150,9.0,,,9999.0,Cloud Development Not Observable,18.0,12.0,29.86,1011.3,,,,0,0,0,,,,,,,,,7/8 Mostly Cloudy,20000.0,,FEW,12000.0,BKN,20000.0,,,,
KRDR,07-06-2001,04:00,METAR,,150,8.0,,,9999.0,Cloud Development Not Observable,20.0,12.0,29.89,1012.4,,,,0,0,0,,,,,,,,,7/8 Mostly Cloudy,20000.0,,FEW,12000.0,BKN,20000.0,,,,
KRDR,07-06-2001,03:00,METAR,,140,8.0,,,9999.0,Cloud Development Not Observable,21.0,12.0,29.91,1012.9,,,,0,0,0,,,,,,,,,7/8 Mostly Cloudy,20000.0,,FEW,12000.0,BKN,20000.0,,,,
KRDR,07-06-2001,02:00,METAR,,150,9.0,,,9999.0,Cloud Development Not Observable,22.0,11.0,29.91,1013.0,,,,0,0,0,,,,,,,,,7/8 Mostly Cloudy,20000.0,,BKN,20000.0,,,,,,
KRDR,07-06-2001,01:00,METAR,,170,13.0,,,9999.0,Cloud Development Not Observable,25.0,11.0,29.92,1013.6,,,,0,0,0,,,,,,,,,7/8 Mostly Cloudy,20000.0,,BKN,20000.0,,,,,,
KRDR,07-05-2001,23:00,METAR,,190,12.0,,,9999.0,Cloud Development Not Observable,26.0,10.0,29.97,1015.2,,,,0,0,0,,,,,,,,,7/8 Mostly Cloudy,20000.0,,BKN,20000.0,,,,,,
KRDR,07-05-2001,21:00,METAR,,190,13.0,,,9999.0,Cloud Development Not Observable,26.0,9.0,30.02,1016.9,,,,0,0,0,,,,,,,,,4/8 Partly Cloudy,72000.0,,SCT,20000.0,,,,,,
KRDR,07-05-2001,20:00,METAR,,160,7.0,16.0,,9999.0,Cloud Development Not Observable,27.0,10.0,30.05,1017.9,,,,0,0,0,,,,,,,,,4/8 Partly Cloudy,72000.0,,SCT,20000.0,,,,,,
KRDR,07-05-2001,19:00,METAR,,180,9.0,,,9999.0,Cloud Development Not Observable,25.0,17.0,30.06,1018.3,,,,0,0,0,,,,,,,,,7/8 Mostly Cloudy,20000.0,,BKN,20000.0,,,,,,
KRDR,07-05-2001,18:00,METAR,,220,8.0,,,9999.0,Cloud Development Not Observable,24.0,11.0,30.09,1019.2,,,,0,0,0,,,,,,,,,7/8 Mostly Cloudy,20000.0,,BKN,20000.0,,,,,,
KRDR,07-05-2001,17:00,METAR,,180,7.0,,,9999.0,Cloud Development Not Observable,22.0,10.0,30.12,1020.3,,,,0,0,0,,,,,,,,,7/8 Mostly Cloudy,20000.0,,BKN,20000.0,,,,,,
KRDR,07-05-2001,16:00,METAR,,,6.0,,,9999.0,Cloud Development Not Observable,21.0,8.0,30.13,1020.6,,,,0,0,0,,,,,,,,,4/8 Partly Cloudy,72000.0,,SCT,20000.0,,,,,,
KRDR,07-05-2001,15:00,METAR,,180,8.0,,,9999.0,Cloud Development Not Observable,19.0,9.0,30.15,1021.7,,,,0,0,0,,,,,,,,,2/8 Mostly Clear,72000.0,,FEW,14000.0,FEW,20000.0,,,,
KRDR,07-05-2001,14:00,METAR,,190,9.0,,,9999.0,Cloud Development Not Observable,17.0,9.0,30.16,1021.6,,,,0,0,0,,,,,,,,,2/8 Mostly Clear,72000.0,,FEW,14000.0,FEW,20000.0,,,,
KRDR,07-05-2001,13:00,METAR,,250,4.0,,,9999.0,Cloud Development Not Observable,11.0,11.0,30.16,1021.7,,,,0,0,0,,,,,,,,,2/8 Mostly Clear,72000.0,,FEW,20000.0,,,,,,
KRDR,07-05-2001,12:00,METAR,,240,5.0,,,9999.0,Cloud Development Not Observable,10.0,9.0,30.15,1021.3,,,,0,0,0,,,,,,,,,2/8 Mostly Clear,72000.0,,FEW,20000.0,,,,,,
KRDR,07-05-2001,11:00,METAR,,250,5.0,,,9999.0,Cloud Development Not Observable,7.0,7.0,30.15,1021.4,,,,0,0,0,,,,,,,,,2/8 Mostly Clear,72000.0,,FEW,20000.0,,,,,,
KRDR,07-05-2001,10:00,METAR,,240,2.0,,,9999.0,Cloud Development Not Observable,8.0,8.0,30.14,1021.2,,,,0,0,0,,,,,,,,,Clear,72000.0,,,73000.0,,,,,,
KRDR,07-05-2001,09:00,METAR,,240,4.0,,,9999.0,Cloud Development Not Observable,8.0,7.0,30.15,1021.4,,,,0,0,0,,,,,,,,,Clear,72000.0,,,73000.0,,,,,,
KRDR,07-05-2001,08:00,METAR,,290,5.0,,,9999.0,Cloud Development Not Observable,9.0,8.0,30.15,1021.4,,,,0,0,0,,,,,,,,,Clear,72000.0,,,73000.0,,,,,,
KRDR,07-05-2001,07:00,METAR,,290,4.0,,,9999.0,Cloud Development Not Observable,10.0,8.0,30.15,1021.5,,,,0,0,0,,,,,,,,,Clear,72000.0,,,73000.0,,,,,,
KRDR,07-05-2001,06:00,METAR,,300,4.0,,,9999.0,Cloud Development Not Observable,11.0,8.0,30.15,1021.5,,,,0,0,0,,,,,,,,,Clear,72000.0,,,73000.0,,,,,,
KRDR,07-05-2001,05:00,METAR,,280,5.0,,,9999.0,Cloud Development Not Observable,11.0,9.0,30.14,1021.1,,,,0,0,0,,,,,,,,,Clear,72000.0,,,73000.0,,,,,,
KRDR,07-05-2001,04:00,METAR,,350,5.0,,,9999.0,Cloud Development Not Observable,14.0,9.0,30.14,1021.0,,,,0,0,0,,,,,,,,,Clear,72000.0,,,73000.0,,,,,,
KRDR,07-05-2001,03:00,METAR,,360,6.0,,,9999.0,Cloud Development Not Observable,15.0,9.0,30.12,1020.4,,,,0,0,0,,,,,,,,,Clear,72000.0,,,73000.0,,,,,,
KRDR,07-05-2001,02:00,METAR,,10,8.0,,,9999.0,Cloud Development Not Observable,20.0,8.0,30.10,1019.6,,,,0,0,0,,,,,,,,,2/8 Mostly Clear,72000.0,,FEW,5000.0,,,,,,
KRDR,07-05-2001,01:00,METAR,,350,12.0,,,9999.0,Cloud Development Not Observable,22.0,8.0,30.09,1019.3,,,,0,0,0,,,,,,,,,2/8 Mostly Clear,72000.0,,FEW,5000.0,FEW,25000.0,,,,
KRDR,07-05-2001,00:00,METAR,,360,11.0,,,9999.0,Cloud Development Not Observable,24.0,8.0,30.10,1019.5,,,,0,0,0,,,,,,,,,2/8 Mostly Clear,72000.0,,FEW,5000.0,FEW,25000.0,,,,
KRDR,07-04-2001,23:00,METAR,,340,16.0,,,9999.0,Cloud Development Not Observable,24.0,7.0,30.10,1019.5,,,,0,0,0,,,,,,,,,4/8 Partly Cloudy,72000.0,,FEW,5900.0,SCT,25000.0,,,,
KRDR,07-04-2001,22:00,METAR,,340,16.0,24.0,310/25KTS,9999.0,Cloud Development Not Observable,24.0,8.0,30.10,1019.7,,,,0,0,0,,,,,,,,,4/8 Partly Cloudy,72000.0,,FEW,5900.0,SCT,25000.0,,,,
KRDR,07-04-2001,21:00,METAR,,350,14.0,25.0,,9999.0,Cloud Development Not Observable,24.0,7.0,30.11,1019.8,,,,0,0,0,,,,,,,,,7/8 Mostly Cloudy,25000.0,,FEW,5900.0,BKN,25000.0,,,,
KRDR,07-04-2001,20:00,METAR,,330,18.0,27.0,,9999.0,Cloud Development Not Observable,24.0,7.0,30.11,1019.9,,,,0,0,0,,,,,,,,,4/8 Partly Cloudy,72000.0,,FEW,5900.0,SCT,25000.0,,,,
KRDR,07-04-2001,19:00,METAR,,340,19.0,25.0,,9999.0,Cloud Development Not Observable,24.0,7.0,30.13,1020.4,,,,0,0,0,,,,,,,,,4/8 Partly Cloudy,72000.0,,FEW,5000.0,SCT,25000.0,,,,
KRDR,07-04-2001,18:00,METAR,,300,16.0,,300/26KTS,9999.0,Cloud Development Not Observable,23.0,6.0,30.13,1020.4,,,,0,0,0,,,,,,,,,2/8 Mostly Clear,72000.0,,FEW,4000.0,FEW,25000.0,,,,
KRDR,07-04-2001,17:00,METAR,,310,14.0,,,9999.0,Cloud Development Not Observable,23.0,6.0,30.14,1020.7,,,,0,0,0,,,,,,,,,2/8 Mostly Clear,72000.0,,FEW,4000.0,FEW,25000.0,,,,
KRDR,07-04-2001,16:00,METAR,,330,13.0,,,9999.0,Cloud Development Not Observable,21.0,6.0,30.14,1020.8,,,,0,0,0,,,,,,,,,Clear,72000.0,,,73000.0,,,,,,
KRDR,07-04-2001,15:00,METAR,,320,15.0,,,9999.0,Cloud Development Not Observable,20.0,5.0,30.14,1020.7,,,,0,0,0,,,,,,,,,Clear,72000.0,,,73000.0,,,,,,
KRDR,07-04-2001,14:00,METAR,,310,9.0,,,9999.0,Cloud Development Not Observable,18.0,9.0,30.13,1020.4,,,,0,0,0,,,,,,,,,Clear,72000.0,,,73000.0,,,,,,
KRDR,07-04-2001,13:00,METAR,,310,9.0,,,9999.0,Cloud Development Not Observable,16.0,9.0,30.12,1020.2,,,,0,0,0,,,,,,,,,Clear,72000.0,,,73000.0,,,,,,
KRDR,07-04-2001,12:00,METAR,,320,9.0,,,9999.0,Cloud Development Not Observable,13.0,10.0,30.11,1019.7,,,,0,0,0,,,,,,,,,Clear,72000.0,,,73000.0,,,,,,
KRDR,07-04-2001,11:00,METAR,,290,7.0,,,9999.0,Cloud Development Not Observable,12.0,10.0,30.09,1019.2,,,,0,0,0,,,,,,,,,Clear,72000.0,,,73000.0,,,,,,
KRDR,07-04-2001,10:00,METAR,,290,7.0,,,9999.0,Cloud Development Not Observable,13.0,11.0,30.08,1018.6,,,,0,0,0,,,,,,,,,Clear,72000.0,,,73000.0,,,,,,
KRDR,07-04-2001,09:00,METAR,,300,5.0,,,9999.0,Cloud Development Not Observable,14.0,11.0,30.06,1018.0,,,,0,0,0,,,,,,,,,Clear,72000.0,,,73000.0,,,,,,
KRDR,07-04-2001,08:00,METAR,,350,7.0,,,9999.0,Cloud Development Not Observable,16.0,11.0,30.04,1017.5,,,,0,0,0,,,,,,,,,Clear,72000.0,,,73000.0,,,,,,
KRDR,07-04-2001,07:00,METAR,,330,11.0,,,9999.0,Cloud Development Not Observable,18.0,12.0,30.03,1016.9,,,,0,0,0,,,,,,,,,2/8 Mostly Clear,72000.0,,FEW,8900.0,,,,,,
KRDR,07-04-2001,06:00,METAR,,310,10.0,,,9999.0,Cloud Development Not Observable,19.0,13.0,30.00,1016.0,,,,0,0,0,,,,,,,,,7/8 Mostly Cloudy,9000.0,,BKN,8900.0,,,,,,
KRDR,07-04-2001,05:00,METAR,,270,7.0,,,9999.0,Cloud Development Not Observable,19.0,13.0,29.98,1015.2,,,,0,0,0,,,,,,,,,4/8 Partly Cloudy,72000.0,,SCT,7900.0,,,,,,
KRDR,07-04-2001,04:00,METAR,,290,8.0,,,9999.0,Cloud Development Not Observable,20.0,13.0,29.97,1014.8,,,,0,0,0,,,,,,,,,2/8 Mostly Clear,72000.0,,FEW,5900.0,FEW,9900.0,,,,
KRDR,07-04-2001,03:00,METAR,,280,7.0,,,9999.0,Cloud Development Not Observable,22.0,10.0,29.95,1014.3,,,,0,0,0,,,,,,,,,4/8 Partly Cloudy,72000.0,,FEW,5900.0,SCT,9900.0,,,,
KRDR,07-04-2001,02:00,METAR,,300,12.0,,,9999.0,Cloud Development Not Observable,24.0,12.0,29.93,1013.6,,,,0,0,0,,,,,,,,,2/8 Mostly Clear,72000.0,,FEW,5900.0,,,,,,
KRDR,07-04-2001,00:00,METAR,,280,16.0,22.0,,9999.0,Cloud Development Not Observable,27.0,12.0,29.92,1013.4,,,,0,0,0,,,,,,,,,4/8 Partly Cloudy,72000.0,,SCT,5900.0,,,,,,
KRDR,07-03-2001,23:00,METAR,,290,15.0,22.0,,9999.0,Cloud Development Not Observable,28.0,12.0,29.93,1013.5,,,,0,0,0,,,,,,,,,4/8 Partly Cloudy,72000.0,,SCT,5900.0,SCT,15000.0,,,,
KRDR,07-03-2001,22:00,METAR,,300,16.0,22.0,,9999.0,Cloud Development Not Observable,29.0,12.0,29.94,1014.1,,,,0,0,0,,,,,,,,,4/8 Partly Cloudy,72000.0,,SCT,5900.0,,,,,,
KRDR,07-03-2001,21:00,METAR,,300,12.0,,,9999.0,Cloud Development Not Observable,30.0,10.0,29.96,1014.6,,,,0,0,0,,,,,,,,,4/8 Partly Cloudy,72000.0,,SCT,5900.0,,,,,,
KRDR,07-03-2001,20:00,METAR,,300,12.0,,,9999.0,Cloud Development Not Observable,30.0,10.0,29.97,1014.8,,,,0,0,0,,,,,,,,,4/8 Partly Cloudy,72000.0,,SCT,5900.0,,,,,,
KRDR,07-03-2001,19:00,METAR,,290,16.0,22.0,,9999.0,Cloud Development Not Observable,29.0,12.0,29.98,1015.2,,,,0,0,0,,,,,,,,,4/8 Partly Cloudy,72000.0,,SCT,5000.0,SCT,7900.0,,,,
KRDR,07-03-2001,18:00,METAR,,280,17.0,22.0,,9999.0,Cloud Development Not Observable,29.0,14.0,29.98,1015.2,,,,0,0,0,,,,,,,,,2/8 Mostly Clear,72000.0,,FEW,5000.0,FEW,7900.0,,,,
KRDR,07-03-2001,17:00,METAR,,280,8.0,,,9999.0,Cloud Development Not Observable,25.0,14.0,29.98,1015.5,,,,0,0,0,,,,,,,,,2/8 Mostly Clear,72000.0,,FEW,5000.0,FEW,7900.0,,,,
KRDR,07-03-2001,16:00,METAR,,310,6.0,,,9999.0,Cloud Development Not Observable,26.0,12.0,29.98,1015.4,,,,0,0,0,,,,,,,,,2/8 Mostly Clear,72000.0,,FEW,12000.0,,,,,,
KRDR,07-03-2001,15:00,METAR,,330,9.0,,,9999.0,Cloud Development Not Observable,25.0,14.0,29.98,1015.4,,,,0,0,0,,,,,,,,,2/8 Mostly Clear,72000.0,,FEW,5000.0,,,,,,
KRDR,07-03-2001,14:00,METAR,,310,13.0,,,9999.0,Cloud Development Not Observable,22.0,17.0,29.98,1015.2,,,,0,0,0,,,,,,,,,Clear,72000.0,,,73000.0,,,,,,
KRDR,07-03-2001,13:00,METAR,,280,11.0,,,9999.0,Cloud Development Not Observable,21.0,16.0,29.98,1015.2,,,,0,0,0,,,,,,,,,2/8 Mostly Clear,72000.0,,FEW,14000.0,,,,,,
KRDR,07-03-2001,12:00,METAR,,260,7.0,,,9999.0,Cloud Development Not Observable,18.0,14.0,29.97,1015.0,,,,0,0,0,,,,,,,,,2/8 Mostly Clear,72000.0,,FEW,14000.0,,,,,,
KRDR,07-03-2001,11:00,METAR,,250,7.0,,,9999.0,Cloud Development Not Observable,15.0,14.0,29.97,1014.6,,,,0,0,0,,,,,,,,,2/8 Mostly Clear,72000.0,,FEW,20000.0,,,,,,
KRDR,07-03-2001,10:00,METAR,,270,8.0,,,9999.0,Cloud Development Not Observable,16.0,14.0,29.96,1014.7,,,,0,0,0,,,,,,,,,2/8 Mostly Clear,72000.0,,FEW,20000.0,,,,,,
KRDR,07-03-2001,09:00,METAR,,260,7.0,,,9999.0,Cloud Development Not Observable,15.0,14.0,29.95,1014.5,,,,0,0,0,,,,,,,,,Clear,72000.0,,,73000.0,,,,,,
KRDR,07-03-2001,08:00,METAR,,270,7.0,,,9999.0,Cloud Development Not Observable,16.0,13.0,29.96,1014.7,,,,0,0,0,,,,,,,,,Clear,72000.0,,,73000.0,,,,,,
KRDR,07-03-2001,07:00,METAR,,280,5.0,,,9999.0,Cloud Development Not Observable,16.0,13.0,29.96,1015.0,,,,0,0,0,,,,,,,,,2/8 Mostly Clear,72000.0,,FEW,20000.0,,,,,,
KRDR,07-03-2001,06:00,METAR,,270,7.0,,,9999.0,Cloud Development Not Observable,16.0,13.0,29.96,1014.8,,,,0,0,0,,,,,,,,,2/8 Mostly Clear,72000.0,,FEW,20000.0,,,,,,
KRDR,07-03-2001,05:00,METAR,,300,8.0,,,9999.0,Cloud Development Not Observable,17.0,14.0,29.95,1014.5,,,,0,0,0,,,,,,,,,2/8 Mostly Clear,72000.0,,FEW,20000.0,,,,,,
KRDR,07-03-2001,04:00,METAR,,300,8.0,,,9999.0,Cloud Development Not Observable,20.0,17.0,29.94,1014.3,,,,0,0,0,,,,,,,,,Clear,72000.0,,,73000.0,,,,,,
KRDR,07-03-2001,03:00,METAR,,320,6.0,,,9999.0,Cloud Development Not Observable,20.0,17.0,29.93,1014.0,,,,0,0,0,,,,,,,,,2/8 Mostly Clear,72000.0,,FEW,4000.0,,,,,,
KRDR,07-03-2001,02:00,METAR,,290,3.0,,,9999.0,Cloud Development Not Observable,24.0,16.0,29.90,1012.9,,,,0,0,0,,,,,,,,,4/8 Partly Cloudy,72000.0,,SCT,4000.0,,,,,,
KRDR,07-03-2001,01:00,METAR,,230,5.0,,,9999.0,Cloud Development Not Observable,25.0,16.0,29.90,1012.6,,,,0,0,0,,,,,,,,,4/8 Partly Cloudy,72000.0,,FEW,4000.0,SCT,8900.0,,,,
KRDR,07-03-2001,00:00,METAR,,260,6.0,,,9999.0,Cloud Development Not Observable,25.0,16.0,29.91,1013.0,,,,0,0,0,,,,,,,,,7/8 Mostly Cloudy,20000.0,,FEW,4000.0,SCT,8900.0,BKN,20000.0,,
KRDR,07-02-2001,23:00,METAR,,250,5.0,,,9999.0,Cloud Development Not Observable,27.0,18.0,29.92,1013.4,,,,0,0,0,,,,,,,,,7/8 Mostly Cloudy,20000.0,,SCT,4000.0,SCT,7900.0,BKN,20000.0,,
KRDR,07-02-2001,22:00,METAR,,260,6.0,,,9999.0,Cloud Development Not Observable,24.0,17.0,29.94,1014.2,,,,0,0,0,,,,,,,,,7/8 Mostly Cloudy,3400.0,,BKN,3500.0,BKN,20000.0,,,,
KRDR,07-02-2001,21:00,METAR,,250,6.0,,,9999.0,Cloud Development Not Observable,23.0,17.0,29.94,1014.3,,,,0,0,0,,,,,,,,,8/8 Overcast,3000.0,,BKN,3000.0,OVC,20000.0,,,,
KRDR,07-02-2001,20:00,METAR,,260,7.0,,,9999.0,Cloud Development Not Observable,22.0,16.0,29.96,1015.0,,,,0,0,0,,,,,,,,,7/8 Mostly Cloudy,3000.0,,BKN,3000.0,,,,,,
KRDR,07-02-2001,19:00,METAR,,,6.0,,,9999.0,Cloud Development Not Observable,21.0,13.0,29.98,1015.6,,,,0,0,0,,,,,,,,,7/8 Mostly Cloudy,3000.0,,BKN,3000.0,,,,,,
KRDR,07-02-2001,18:00,METAR,,240,7.0,,,9999.0,Cloud Development Not Observable,21.0,13.0,29.98,1015.6,,,,0,0,0,,,,,,,,,7/8 Mostly Cloudy,3400.0,,BKN,3500.0,,,,,,
KRDR,07-02-2001,17:00,METAR,,200,11.0,,,9999.0,Cloud Development Not Observable,18.0,13.0,30.00,1016.1,,,,0,0,0,,,,,,,,,7/8 Mostly Cloudy,3100.0,,BKN,3200.0,BKN,4500.0,,,,
KRDR,07-02-2001,16:00,METAR,,180,12.0,,,9999.0,Cloud Development Not Observable,17.0,13.0,30.01,1016.6,,,,0,0,0,,,,,,,,,8/8 Overcast,3100.0,,BKN,3100.0,OVC,4500.0,,,,
KRDR,07-02-2001,15:00,METAR,,170,10.0,,,9999.0,Cloud Development Not Observable,14.0,11.0,30.03,1017.4,,,,0,0,0,,,,,,,,,8/8 Overcast,3100.0,,OVC,3100.0,,,,,,
KRDR,07-02-2001,14:00,METAR,,160,11.0,,,9999.0,Cloud Development Not Observable,13.0,11.0,30.04,1017.7,,,,0,0,0,,,,,,,,,8/8 Overcast,3900.0,,OVC,4000.0,,,,,,
KRDR,07-02-2001,13:00,METAR,,160,10.0,,,9999.0,Cloud Development Not Observable,13.0,13.0,30.06,1018.6,,,,0,0,0,,,,,,,,,8/8 Overcast,3900.0,,OVC,4000.0,,,,,,
KRDR,07-02-2001,12:00,METAR,,150,7.0,,,9999.0,Cloud Development Not Observable,13.0,13.0,30.09,1019.3,,,,0,0,0,,,,,,,,,8/8 Overcast,4900.0,,OVC,5000.0,,,,,,
KRDR,07-02-2001,11:34,SPECI,,130,7.0,,,9999.0,Cloud Development Not Observable,13.0,13.0,30.09,,,,,0,0,0,,,,,,,,,8/8 Overcast,4900.0,,OVC,5000.0,,,,,,
KRDR,07-02-2001,10:00,METAR,,190,8.0,,,9999.0,Light Rain Showers/Cloud Development Not Observable,14.0,14.0,30.10,1019.6,,,,80,0,0,,,,,,,,,8/8 Overcast,6000.0,,OVC,5900.0,,,,,,
KRDR,07-02-2001,09:00,METAR,,130,5.0,,,9999.0,Cloud Development Not Observable,13.0,13.0,30.09,1019.5,,,,0,0,0,,,,,,,,,8/8 Overcast,6000.0,,OVC,5900.0,,,,,,
KRDR,07-02-2001,08:21,SPECI,,150,7.0,,,9999.0,Cloud Development Not Observable,13.0,13.0,30.11,,,,,0,0,0,,,,,,,,,8/8 Overcast,6000.0,,OVC,5900.0,,,,,,
KRDR,07-02-2001,08:00,METAR,,200,8.0,,,9999.0,Thunderstorm with Rain or Snow/Light Rain Showers/Cloud Development Not Observable,13.0,13.0,30.12,1020.3,,,,95,80,0,,,,,,,,,8/8 Overcast,8000.0,,OVC,7900.0,,,,,,
KRDR,07-02-2001,07:50,METAR,,180,7.0,,,9999.0,Light Rain Showers/Cloud Development Not Observable,16.0,10.0,30.13,,,,,80,0,0,,,,,,,,,8/8 Overcast,8000.0,,OVC,7900.0,,,,,,
KRDR,07-02-2001,07:26,SPECI,,180,7.0,,,9999.0,Light Rain Showers/Cloud Development Not Observable,16.0,10.0,30.13,,,,,80,0,0,,,,,,,,,8/8 Overcast,8000.0,,OVC,7900.0,,,,,,
KRDR,07-02-2001,07:00,METAR,,170,10.0,,,9999.0,Cloud Development Not Observable,16.0,8.0,30.13,1020.6,,,,0,0,0,,,,,,,,,8/8 Overcast,8000.0,,OVC,7900.0,,,,,,
KRDR,07-02-2001,06:00,METAR,,160,6.0,,,9999.0,Cloud Development Not Observable,16.0,8.0,30.14,1021.1,,,,0,0,0,,,,,,,,,8/8 Overcast,9000.0,,BKN,8900.0,OVC,20000.0,,,,
KRDR,07-02-2001,05:00,METAR,,180,4.0,,,9999.0,Cloud Development Not Observable,16.0,10.0,30.16,1021.7,,,,0,0,0,,,,,,,,,8/8 Overcast,11000.0,,BKN,11000.0,OVC,20000.0,,,,
KRDR,07-02-2001,04:00,METAR,,170,4.0,,,9999.0,Cloud Development Not Observable,16.0,8.0,30.17,1022.1,,,,0,0,0,,,,,,,,,8/8 Overcast,11000.0,,BKN,11000.0,OVC,20000.0,,,,
KRDR,07-02-2001,03:00,METAR,,170,5.0,,,9999.0,Cloud Development Not Observable,17.0,7.0,30.17,1022.1,,,,0,0,0,,,,,,,,,8/8 Overcast,12000.0,,BKN,12000.0,OVC,20000.0,,,,
KRDR,07-02-2001,02:00,METAR,,180,6.0,,,9999.0,Cloud Development Not Observable,18.0,8.0,30.18,1022.5,,,,0,0,0,,,,,,,,,8/8 Overcast,20000.0,,SCT,12000.0,OVC,20000.0,,,,
KRDR,07-02-2001,01:00,METAR,,170,5.0,,,9999.0,Cloud Development Not Observable,19.0,7.0,30.20,,,,,0,0,0,,,,,,,,,7/8 Mostly Cloudy,20000.0,,SCT,12000.0,BKN,20000.0,,,,
KRDR,07-02-2001,00:00,METAR,,150,7.0,,,9999.0,Cloud Development Not Observable,20.0,6.0,30.20,,,,,0,0,0,,,,,,,,,7/8 Mostly Cloudy,20000.0,,FEW,12000.0,BKN,20000.0,,,,
KRDR,07-01-2001,23:00,METAR,,210,7.0,,,9999.0,Cloud Development Not Observable,20.0,6.0,30.22,,,,,0,0,0,,,,,,,,,7/8 Mostly Cloudy,20000.0,,FEW,12000.0,BKN,20000.0,,,,
KRDR,07-01-2001,22:00,METAR,,200,10.0,,,9999.0,Cloud Development Not Observable,20.0,4.0,30.24,,,,,0,0,0,,,,,,,,,7/8 Mostly Cloudy,20000.0,,BKN,20000.0,,,,,,
KRDR,07-01-2001,21:00,METAR,,140,4.0,,,9999.0,Cloud Development Not Observable,20.0,5.0,30.24,,,,,0,0,0,,,,,,,,,7/8 Mostly Cloudy,25000.0,,BKN,25000.0,,,,,,
KRDR,07-01-2001,20:00,METAR,,,3.0,,,9999.0,Cloud Development Not Observable,20.0,5.0,30.28,,,,,0,0,0,,,,,,,,,4/8 Partly Cloudy,72000.0,,SCT,25000.0,,,,,,
KRDR,07-01-2001,19:00,METAR,,,5.0,,,9999.0,Cloud Development Not Observable,19.0,4.0,30.30,,,,,0,0,0,,,,,,,,,2/8 Mostly Clear,72000.0,,FEW,3000.0,FEW,25000.0,,,,
KRDR,07-01-2001,18:00,METAR,,100,8.0,,,9999.0,Cloud Development Not Observable,18.0,3.0,30.33,,,,,0,0,0,,,,,,,,,2/8 Mostly Clear,72000.0,,FEW,3000.0,FEW,25000.0,,,,
KRDR,07-01-2001,17:00,METAR,,,5.0,,,9999.0,Cloud Development Not Observable,16.0,4.0,30.34,,,,,0,0,0,,,,,,,,,2/8 Mostly Clear,72000.0,,FEW,3000.0,FEW,25000.0,,,,
KRDR,07-01-2001,16:00,METAR,,,3.0,,,9999.0,Cloud Development Not Observable,15.0,4.0,30.35,,,,,0,0,0,,,,,,,,,4/8 Partly Cloudy,72000.0,,FEW,3000.0,SCT,25000.0,,,,
KRDR,07-01-2001,15:00,METAR,,70,8.0,,,9999.0,Cloud Development Not Observable,14.0,5.0,30.34,,,,,0,0,0,,,,,,,,,7/8 Mostly Cloudy,25000.0,,BKN,25000.0,,,,,,
KRDR,07-01-2001,14:00,METAR,,,6.0,,,9999.0,Cloud Development Not Observable,13.0,7.0,30.36,,,,,0,0,0,,,,,,,,,4/8 Partly Cloudy,72000.0,,SCT,25000.0,,,,,,
KRDR,07-01-2001,13:29,SPECI,,,6.0,,,9999.0,Cloud Development Not Observable,12.0,8.0,30.37,,,,,0,0,0,,,,,,,,,4/8 Partly Cloudy,72000.0,,SCT,25000.0,,,,,,
KRDR,07-01-2001,01:00,METAR,,350,14.0,,,9999.0,Cloud Development Not Observable,16.0,6.0,30.22,,,,,0,0,0,,,,,,,,,2/8 Mostly Clear,72000.0,,FEW,4000.0,,,,,,
KRDR,07-01-2001,00:00,METAR,,360,15.0,21.0,,9999.0,Cloud Development Not Observable,19.0,7.0,30.18,,,,,0,0,0,,,,,,,,,2/8 Mostly Clear,72000.0,,FEW,4000.0,,,,,,
KRDR,06-30-2001,23:00,METAR,,350,17.0,23.0,,9999.0,Cloud Development Not Observable,19.0,7.0,30.18,,,,,0,0,0,,,,,,,,,2/8 Mostly Clear,72000.0,,FEW,4000.0,FEW,20000.0,,,,
KRDR,06-30-2001,22:00,METAR,,360,17.0,23.0,,9999.0,Cloud Development Not Observable,20.0,8.0,30.17,,,,,0,0,0,,,,,,,,,2/8 Mostly Clear,72000.0,,FEW,4000.0,FEW,20000.0,,,,
KRDR,06-30-2001,21:00,METAR,,340,17.0,23.0,,9999.0,Cloud Development Not Observable,20.0,10.0,30.16,,,,,0,0,0,,,,,,,,,2/8 Mostly Clear,72000.0,,FEW,4000.0,FEW,20000.0,,,,
KRDR,06-30-2001,04:00,METAR,,310,7.0,,,9999.0,Cloud Development Not Observable,21.0,18.0,29.92,1013.0,,,,0,0,0,,,,,,,,,2/8 Mostly Clear,72000.0,,FEW,15000.0,FEW,20000.0,,,,
KRDR,06-30-2001,03:00,METAR,,330,6.0,,,9999.0,Cloud Development Not Observable,22.0,18.0,29.91,1012.7,,,,0,0,0,,,,,,,,,2/8 Mostly Clear,72000.0,,FEW,7900.0,FEW,15000.0,,,,
KRDR,06-30-2001,02:00,METAR,,340,8.0,,,9999.0,Cloud Development Not Observable,26.0,17.0,29.91,1012.6,,,,0,0,0,,,,,,,,,2/8 Mostly Clear,72000.0,,FEW,6900.0,FEW,15000.0,,,,
KRDR,06-30-2001,01:00,METAR,,330,7.0,,,9999.0,Cloud Development Not Observable,28.0,17.0,29.91,1012.8,,,,0,0,0,,,,,,,,,4/8 Partly Cloudy,72000.0,,FEW,6900.0,SCT,15000.0,SCT,20000.0,,
KRDR,06-30-2001,00:00,METAR,,330,11.0,,,9999.0,Cloud Development Not Observable,30.0,17.0,29.89,1012.1,,,,0,0,0,,,,,,,,,7/8 Mostly Cloudy,15000.0,,SCT,5000.0,BKN,15000.0,BKN,20000.0,,
KRDR,06-29-2001,23:00,METAR,,340,10.0,,,9999.0,Cloud Development Not Observable,30.0,18.0,29.89,1012.2,,,,0,0,0,,,,,,,,,7/8 Mostly Cloudy,15000.0,,FEW,5000.0,BKN,15000.0,BKN,20000.0,,
KRDR,06-29-2001,22:00,METAR,,310,12.0,,,9999.0,Cloud Development Not Observable,31.0,18.0,29.89,1012.2,,,,0,0,0,,,,,,,,,8/8 Overcast,12000.0,,FEW,5000.0,BKN,12000.0,OVC,20000.0,,
KRDR,06-29-2001,21:00,METAR,,300,12.0,,,9999.0,Cloud Development Not Observable,31.0,17.0,29.89,1012.0,,,,0,0,0,,,,,,,,,4/8 Partly Cloudy,72000.0,,FEW,5000.0,FEW,12000.0,SCT,20000.0,,
KRDR,06-29-2001,20:00,METAR,,320,12.0,,,9999.0,Cloud Development Not Observable,30.0,18.0,29.90,1012.3,,,,0,0,0,,,,,,,,,4/8 Partly Cloudy,72000.0,,FEW,5000.0,FEW,12000.0,SCT,20000.0,,
KRDR,06-29-2001,19:00,METAR,,310,14.0,,,9999.0,Cloud Development Not Observable,29.0,20.0,29.89,1012.1,,,,0,0,0,,,,,,,,,7/8 Mostly Cloudy,20000.0,,SCT,12000.0,BKN,20000.0,,,,
KRDR,06-29-2001,18:00,METAR,,310,12.0,,,9999.0,Cloud Development Not Observable,28.0,20.0,29.90,1012.3,,,,0,0,0,,,,,,,,,7/8 Mostly Cloudy,12000.0,,BKN,12000.0,BKN,20000.0,,,,
KRDR,06-29-2001,17:00,METAR,,280,11.0,,,9999.0,Cloud Development Not Observable,27.0,19.0,29.91,1012.6,,,,0,0,0,,,,,,,,,8/8 Overcast,12000.0,,BKN,12000.0,OVC,20000.0,,,,
KRDR,06-29-2001,16:00,METAR,,260,15.0,,,9999.0,Cloud Development Not Observable,28.0,22.0,29.90,1012.3,,,,0,0,0,,,,,,,,,7/8 Mostly Cloudy,20000.0,,SCT,12000.0,BKN,20000.0,,,,
KRDR,06-29-2001,15:00,METAR,,260,11.0,,,9999.0,Cloud Development Not Observable,27.0,22.0,29.91,1012.8,,,,0,0,0,,,,,,,,,7/8 Mostly Cloudy,12000.0,,BKN,12000.0,BKN,20000.0,,,,
KRDR,06-29-2001,14:00,METAR,,240,11.0,,,9999.0,Cloud Development Not Observable,26.0,22.0,29.91,1012.6,,,,0,0,0,,,,,,,,,7/8 Mostly Cloudy,20000.0,,FEW,12000.0,BKN,20000.0,,,,
KRDR,06-29-2001,13:00,METAR,,220,10.0,,,9999.0,Cloud Development Not Observable,23.0,21.0,29.91,1012.7,,,,0,0,0,,,,,,,,,4/8 Partly Cloudy,72000.0,,FEW,12000.0,SCT,20000.0,,,,
KRDR,06-29-2001,12:00,METAR,,220,3.0,,,4800.0,Mist/Cloud Development Not Observable,20.0,18.0,29.89,1012.2,,,,10,0,0,,,,,,,,,4/8 Partly Cloudy,72000.0,,SCT,20000.0,,,,,,
KRDR,06-29-2001,11:39,SPECI,,220,3.0,,,4000.0,Mist/Cloud Development Not Observable,19.0,18.0,29.89,,,,,10,0,0,,,,,,,,,4/8 Partly Cloudy,72000.0,,SCT,20000.0,,,,,,
KRDR,06-29-2001,11:23,SPECI,,210,3.0,,,1600.0,Fog or Ice Fog/Cloud Development Not Observable,18.0,18.0,29.88,,,,,44,0,0,,,,,,,,,2/8 Mostly Clear,72000.0,,FEW,0.0,,,,,,
KRDR,06-29-2001,11:00,METAR,,210,2.0,,,200.0,Fog or Ice Fog/Cloud Development Not Observable,17.0,17.0,29.88,1011.9,,,,44,0,0,,,,,,,,,7/8 Mostly Cloudy,700.0,,SCT,0.0,BKN,700.0,,,,
KRDR,06-29-2001,10:33,SPECI,,230,3.0,,,200.0,Fog or Ice Fog/Cloud Development Not Observable,17.0,17.0,29.88,,,,,44,0,0,,,,,,,,,7/8 Mostly Cloudy,700.0,,SCT,0.0,BKN,700.0,,,,
KRDR,06-29-2001,10:00,METAR,,240,3.0,,,800.0,Fog or Ice Fog/Cloud Development Not Observable,17.0,17.0,29.88,1011.8,,,,44,0,0,,,,,,,,,7/8 Mostly Cloudy,700.0,,SCT,0.0,BKN,700.0,,,,
KRDR,06-29-2001,09:36,SPECI,,240,4.0,,,1200.0,Mist/Cloud Development Not Observable,17.0,17.0,29.87,,,,,10,0,0,,,,,,,,,4/8 Partly Cloudy,72000.0,,SCT,0.0,,,,,,
KRDR,06-29-2001,09:13,SPECI,,230,2.0,,,600.0,Fog or Ice Fog/Cloud Development Not Observable,17.0,17.0,29.88,,,,,44,0,0,,,,,,,,,7/8 Mostly Cloudy,72000.0,,BKN,0.0,,,,,,
KRDR,06-29-2001,09:00,METAR,,230,2.0,,,3200.0,Mist/Cloud Development Not Observable,17.0,17.0,29.88,1011.8,,,,10,0,0,,,,,,,,,2/8 Mostly Clear,72000.0,,FEW,0.0,,,,,,
KRDR,06-29-2001,08:00,METAR,,,1.0,,,3200.0,Mist/Cloud Development Not Observable,19.0,19.0,29.89,1011.9,,,,10,0,0,,,,,,,,,Clear,72000.0,,,73000.0,,,,,,
KRDR,06-29-2001,07:00,METAR,,290,3.0,,,9999.0,Cloud Development Not Observable,21.0,20.0,29.89,1012.1,,,,0,0,0,,,,,,,,,Clear,72000.0,,,73000.0,,,,,,
KRDR,06-29-2001,06:00,METAR,,310,4.0,,,9999.0,Cloud Development Not Observable,23.0,21.0,29.90,1012.2,,,,0,0,0,,,,,,,,,2/8 Mostly Clear,72000.0,,FEW,12000.0,FEW,20000.0,,,,
KRDR,06-29-2001,05:00,METAR,,260,5.0,,,9999.0,Cloud Development Not Observable,23.0,20.0,29.90,1012.4,,,,0,0,0,,,,,,,,,4/8 Partly Cloudy,72000.0,,FEW,12000.0,SCT,20000.0,,,,
KRDR,06-29-2001,04:00,METAR,,260,2.0,,,9999.0,Cloud Development Not Observable,22.0,19.0,29.91,1012.6,,,,0,0,0,,,,,,,,,7/8 Mostly Cloudy,20000.0,,SCT,12000.0,BKN,20000.0,,,,
KRDR,06-29-2001,03:00,METAR,,280,4.0,,,9999.0,Cloud Development Not Observable,24.0,24.0,29.90,1012.3,,,,0,0,0,,,,,,,,,7/8 Mostly Cloudy,20000.0,,SCT,12000.0,BKN,20000.0,,,,
KRDR,06-29-2001,02:00,METAR,,260,4.0,,,9999.0,Cloud Development Not Observable,25.0,25.0,29.87,1011.6,,,,0,0,0,,,,,,,,,2/8 Mostly Clear,72000.0,,FEW,12000.0,FEW,20000.0,,,,
KRDR,06-29-2001,01:00,METAR,,270,6.0,,,9999.0,Cloud Development Not Observable,26.0,26.0,29.89,1012.0,,,,0,0,0,,,,,,,,,7/8 Mostly Cloudy,20000.0,,SCT,12000.0,BKN,20000.0,,,,
KRDR,06-29-2001,00:00,METAR,,280,9.0,,,9999.0,Cloud Development Not Observable,26.0,26.0,29.89,1011.9,,,,0,0,0,,,,,,,,,7/8 Mostly Cloudy,12000.0,,SCT,3000.0,BKN,12000.0,BKN,20000.0,,
KRDR,06-28-2001,23:00,METAR,,280,12.0,,,9999.0,Cloud Development Not Observable,28.0,27.0,29.89,1011.9,,,,0,0,0,,,,,,,,,7/8 Mostly Cloudy,12000.0,,SCT,3000.0,BKN,12000.0,BKN,20000.0,,
KRDR,06-28-2001,22:00,METAR,,220,14.0,,,9999.0,Cloud Development Not Observable,32.0,25.0,29.86,1011.1,,,,0,0,0,,,,,,,,,7/8 Mostly Cloudy,12000.0,,FEW,3000.0,BKN,12000.0,BKN,20000.0,,
KRDR,06-28-2001,21:00,METAR,,210,14.0,,,9999.0,Cloud Development Not Observable,33.0,25.0,29.86,1011.1,,,,0,0,0,,,,,,,,,7/8 Mostly Cloudy,20000.0,,FEW,3000.0,SCT,12000.0,BKN,20000.0,,
KRDR,06-28-2001,20:00,METAR,,230,16.0,,,9999.0,Cloud Development Not Observable,33.0,24.0,29.90,1012.2,,,,0,0,0,,,,,,,,,7/8 Mostly Cloudy,20000.0,,FEW,3000.0,SCT,12000.0,BKN,20000.0,,
KRDR,06-28-2001,19:00,METAR,,220,18.0,22.0,,9999.0,Cloud Development Not Observable,32.0,23.0,29.89,1012.1,,,,0,0,0,,,,,,,,,7/8 Mostly Cloudy,20000.0,,FEW,3000.0,SCT,12000.0,BKN,20000.0,,
KRDR,06-28-2001,18:00,METAR,,200,15.0,23.0,,9999.0,Cloud Development Not Observable,32.0,23.0,29.90,1012.2,,,,0,0,0,,,,,,,,,7/8 Mostly Cloudy,20000.0,,FEW,12000.0,BKN,20000.0,,,,
KRDR,06-28-2001,17:00,METAR,,190,17.0,,190/25KTS,9999.0,Cloud Development Not Observable,30.0,22.0,29.90,1012.2,,,,0,0,0,,,,,,,,,7/8 Mostly Cloudy,20000.0,,FEW,12000.0,BKN,20000.0,,,,
KRDR,06-28-2001,16:00,METAR,,190,18.0,25.0,,9999.0,Cloud Development Not Observable,28.0,19.0,29.91,1012.6,,,,0,0,0,,,,,,,,,7/8 Mostly Cloudy,20000.0,,FEW,12000.0,BKN,20000.0,,,,
KRDR,06-28-2001,15:00,METAR,,190,18.0,,,9999.0,Cloud Development Not Observable,27.0,20.0,29.92,1012.9,,,,0,0,0,,,,,,,,,7/8 Mostly Cloudy,20000.0,,FEW,12000.0,BKN,20000.0,,,,
KRDR,06-28-2001,14:00,METAR,,190,18.0,23.0,,9999.0,Cloud Development Not Observable,26.0,19.0,29.93,1013.3,,,,0,0,0,,,,,,,,,7/8 Mostly Cloudy,20000.0,,FEW,12000.0,BKN,20000.0,,,,
KRDR,06-28-2001,13:00,METAR,,180,12.0,,,9999.0,Cloud Development Not Observable,22.0,20.0,29.94,1013.6,,,,0,0,0,,,,,,,,,7/8 Mostly Cloudy,20000.0,,FEW,12000.0,BKN,20000.0,,,,
KRDR,06-28-2001,12:00,METAR,,170,10.0,,,9999.0,Cloud Development Not Observable,24.0,20.0,29.95,1013.9,,,,0,0,0,,,,,,,,,7/8 Mostly Cloudy,20000.0,,FEW,12000.0,BKN,20000.0,,,,
KRDR,06-28-2001,11:00,METAR,,170,10.0,,,9999.0,Cloud Development Not Observable,24.0,19.0,29.94,1013.5,,,,0,0,0,,,,,,,,,7/8 Mostly Cloudy,20000.0,,BKN,20000.0,,,,,,
KRDR,06-28-2001,10:00,METAR,,190,11.0,,,9999.0,Cloud Development Not Observable,24.0,20.0,29.93,1013.3,,,,0,0,0,,,,,,,,,7/8 Mostly Cloudy,20000.0,,BKN,20000.0,,,,,,
KRDR,06-28-2001,09:00,METAR,,180,7.0,,,9999.0,Cloud Development Not Observable,22.0,19.0,29.95,1013.9,,,,0,0,0,,,,,,,,,2/8 Mostly Clear,72000.0,,FEW,20000.0,,,,,,
KRDR,06-28-2001,08:00,METAR,,140,6.0,,,9999.0,Cloud Development Not Observable,20.0,19.0,29.97,1014.7,,,,0,0,0,,,,,,,,,4/8 Partly Cloudy,72000.0,,SCT,20000.0,,,,,,
KRDR,06-28-2001,07:00,METAR,,100,6.0,,,9999.0,Cloud Development Not Observable,21.0,18.0,29.98,1015.2,,,,0,0,0,,,,,,,,,4/8 Partly Cloudy,72000.0,,SCT,20000.0,,,,,,
KRDR,06-28-2001,06:00,METAR,,,1.0,,,9999.0,Cloud Development Not Observable,22.0,19.0,29.99,1015.4,,,,0,0,0,,,,,,,,,4/8 Partly Cloudy,72000.0,,SCT,20000.0,,,,,,
KRDR,06-28-2001,05:00,METAR,,310,7.0,,,9999.0,Cloud Development Not Observable,22.0,18.0,30.00,1015.8,,,,0,0,0,,,,,,,,,4/8 Partly Cloudy,72000.0,,FEW,12000.0,SCT,20000.0,,,,
KRDR,06-28-2001,04:00,METAR,,340,5.0,,,9999.0,Cloud Development Not Observable,23.0,19.0,29.99,1015.5,,,,0,0,0,,,,,,,,,4/8 Partly Cloudy,72000.0,,FEW,12000.0,SCT,25000.0,,,,
KRDR,06-28-2001,03:00,METAR,,340,5.0,,,9999.0,Cloud Development Not Observable,26.0,21.0,30.00,1015.9,,,,0,0,0,,,,,,,,,2/8 Mostly Clear,72000.0,,FEW,12000.0,FEW,25000.0,,,,
KRDR,06-28-2001,02:00,METAR,,,5.0,,,9999.0,Cloud Development Not Observable,29.0,21.0,30.00,1016.0,,,,0,0,0,,,,,,,,,4/8 Partly Cloudy,72000.0,,SCT,12000.0,SCT,25000.0,,,,
KRDR,06-28-2001,01:00,METAR,,160,8.0,,,9999.0,Cloud Development Not Observable,31.0,23.0,30.00,1016.0,,,,0,0,0,,,,,,,,,7/8 Mostly Cloudy,30000.0,,FEW,5000.0,SCT,12000.0,BKN,30000.0,,
KRDR,06-28-2001,00:00,METAR,,190,7.0,,,9999.0,Cloud Development Not Observable,32.0,21.0,30.00,1015.8,,,,0,0,0,,,,,,,,,7/8 Mostly Cloudy,30000.0,,FEW,5000.0,SCT,12000.0,BKN,30000.0,,
KRDR,06-27-2001,23:00,METAR,,180,12.0,,,9999.0,Cloud Development Not Observable,33.0,23.0,30.00,1016.0,,,,0,0,0,,,,,,,,,7/8 Mostly Cloudy,30000.0,,FEW,5000.0,SCT,12000.0,BKN,30000.0,,
KRDR,06-27-2001,21:00,METAR,,170,11.0,,,9999.0,Cloud Development Not Observable,33.0,24.0,30.03,1017.0,,,,0,0,0,,,,,,,,,7/8 Mostly Cloudy,30000.0,,SCT,12000.0,BKN,30000.0,,,,
KRDR,06-27-2001,20:00,METAR,,140,9.0,,,9999.0,Cloud Development Not Observable,32.0,24.0,30.05,1017.6,,,,0,0,0,,,,,,,,,7/8 Mostly Cloudy,30000.0,,SCT,12000.0,BKN,30000.0,,,,
KRDR,06-27-2001,19:00,METAR,,140,9.0,,,9999.0,Cloud Development Not Observable,31.0,23.0,30.07,1018.3,,,,0,0,0,,,,,,,,,4/8 Partly Cloudy,72000.0,,SCT,12000.0,SCT,30000.0,,,,
KRDR,06-27-2001,18:00,METAR,,130,7.0,,,9999.0,Cloud Development Not Observable,29.0,24.0,30.10,1019.3,,,,0,0,0,,,,,,,,,4/8 Partly Cloudy,72000.0,,SCT,12000.0,SCT,30000.0,,,,
KRDR,06-27-2001,17:00,METAR,,90,6.0,,,9999.0,Cloud Development Not Observable,27.0,21.0,30.12,1020.0,,,,0,0,0,,,,,,,,,7/8 Mostly Cloudy,25000.0,,SCT,12000.0,BKN,25000.0,,,,
KRDR,06-27-2001,16:00,METAR,,90,6.0,,,9999.0,Cloud Development Not Observable,25.0,20.0,30.15,1021.2,,,,0,0,0,,,,,,,,,7/8 Mostly Cloudy,20000.0,,FEW,12000.0,BKN,20000.0,,,,
KRDR,06-27-2001,15:00,METAR,,90,8.0,,,9999.0,Cloud Development Not Observable,26.0,17.0,30.16,1021.4,,,,0,0,0,,,,,,,,,8/8 Overcast,20000.0,,SCT,12000.0,OVC,20000.0,,,,
KRDR,06-27-2001,14:00,METAR,,40,8.0,,,9999.0,Cloud Development Not Observable,22.0,17.0,30.17,1021.7,,,,0,0,0,,,,,,,,,8/8 Overcast,12000.0,,BKN,12000.0,OVC,20000.0,,,,
KRDR,06-27-2001,13:00,METAR,,40,6.0,,,9999.0,Cloud Development Not Observable,19.0,15.0,30.17,1021.7,,,,0,0,0,,,,,,,,,8/8 Overcast,12000.0,,FEW,4500.0,BKN,12000.0,OVC,20000.0,,
KRDR,06-27-2001,12:00,METAR,,20,11.0,,,9999.0,Cloud Development Not Observable,16.0,15.0,30.18,1022.3,,,,0,0,0,,,,,,,,,7/8 Mostly Cloudy,20000.0,,SCT,4500.0,SCT,12000.0,BKN,20000.0,,
KRDR,06-27-2001,11:00,METAR,,350,9.0,,,9999.0,Cloud Development Not Observable,16.0,15.0,30.18,1022.3,,,,0,0,0,,,,,,,,,7/8 Mostly Cloudy,4400.0,,BKN,4500.0,BKN,20000.0,,,,
KRDR,06-27-2001,10:00,METAR,,330,5.0,,,9999.0,Cloud Development Not Observable,16.0,14.0,30.17,1022.0,,,,0,0,0,,,,,,,,,7/8 Mostly Cloudy,20000.0,,BKN,20000.0,,,,,,
KRDR,06-27-2001,09:00,METAR,,20,6.0,,,9999.0,Cloud Development Not Observable,17.0,15.0,30.18,1022.1,,,,0,0,0,,,,,,,,,7/8 Mostly Cloudy,20000.0,,BKN,20000.0,,,,,,
KRDR,06-27-2001,08:00,METAR,,340,4.0,,,9999.0,Cloud Development Not Observable,16.0,14.0,30.18,1022.1,,,,0,0,0,,,,,,,,,4/8 Partly Cloudy,72000.0,,SCT,20000.0,,,,,,
KRDR,06-27-2001,07:00,METAR,,10,5.0,,,9999.0,Cloud Development Not Observable,17.0,15.0,30.16,1021.6,,,,0,0,0,,,,,,,,,2/8 Mostly Clear,72000.0,,FEW,20000.0,,,,,,
KRDR,06-27-2001,06:00,METAR,,350,5.0,,,9999.0,Cloud Development Not Observable,16.0,15.0,30.18,1022.4,,,,0,0,0,,,,,,,,,4/8 Partly Cloudy,72000.0,,FEW,12000.0,SCT,20000.0,,,,
KRDR,06-27-2001,05:00,METAR,,350,6.0,,,9999.0,Cloud Development Not Observable,16.0,15.0,30.19,1022.7,,,,0,0,0,,,,,,,,,4/8 Partly Cloudy,72000.0,,FEW,12000.0,SCT,20000.0,,,,
KRDR,06-27-2001,04:00,METAR,,360,6.0,,,9999.0,Cloud Development Not Observable,19.0,15.0,30.19,1022.5,,,,0,0,0,,,,,,,,,4/8 Partly Cloudy,72000.0,,FEW,12000.0,SCT,20000.0,,,,
KRDR,06-27-2001,03:00,METAR,,70,5.0,,,9999.0,Cloud Development Not Observable,22.0,15.0,30.17,1021.9,,,,0,0,0,,,,,,,,,2/8 Mostly Clear,72000.0,,FEW,12000.0,FEW,20000.0,,,,
KRDR,06-27-2001,02:00,METAR,,50,5.0,,,9999.0,Cloud Development Not Observable,24.0,14.0,30.16,1021.5,,,,0,0,0,,,,,,,,,4/8 Partly Cloudy,72000.0,,FEW,12000.0,SCT,20000.0,,,,
KRDR,06-27-2001,01:00,METAR,,20,12.0,,,9999.0,Cloud Development Not Observable,25.0,16.0,30.14,1020.8,,,,0,0,0,,,,,,,,,4/8 Partly Cloudy,72000.0,,FEW,6400.0,FEW,12000.0,SCT,20000.0,,
KRDR,06-27-2001,00:00,METAR,,360,15.0,,,9999.0,Cloud Development Not Observable,26.0,15.0,30.12,1020.1,,,,0,0,0,,,,,,,,,7/8 Mostly Cloudy,20000.0,,FEW,6400.0,SCT,12000.0,BKN,20000.0,,
KRDR,06-26-2001,23:00,METAR,,360,10.0,,,9999.0,Cloud Development Not Observable,26.0,14.0,30.15,1021.1,,,,0,0,0,,,,,,,,,7/8 Mostly Cloudy,12000.0,,FEW,6400.0,BKN,12000.0,BKN,20000.0,,
KRDR,06-26-2001,22:00,METAR,,360,8.0,,,9999.0,Cloud Development Not Observable,27.0,14.0,30.18,1022.0,,,,0,0,0,,,,,,,,,4/8 Partly Cloudy,72000.0,,FEW,6400.0,FEW,12000.0,SCT,20000.0,,
KRDR,06-26-2001,21:00,METAR,,350,7.0,,,9999.0,Cloud Development Not Observable,27.0,14.0,30.18,1022.0,,,,0,0,0,,,,,,,,,4/8 Partly Cloudy,72000.0,,FEW,6400.0,FEW,12000.0,SCT,20000.0,,
KRDR,06-26-2001,20:00,METAR,,350,8.0,,,9999.0,Cloud Development Not Observable,26.0,16.0,30.17,1021.7,,,,0,0,0,,,,,,,,,4/8 Partly Cloudy,72000.0,,FEW,6400.0,FEW,12000.0,SCT,20000.0,,
KRDR,06-26-2001,19:00,METAR,,,6.0,,,9999.0,Cloud Development Not Observable,26.0,16.0,30.18,1022.0,,,,0,0,0,,,,,,,,,4/8 Partly Cloudy,72000.0,,FEW,6400.0,FEW,12000.0,SCT,20000.0,,
KRDR,06-26-2001,18:00,METAR,,340,5.0,,,9999.0,Cloud Development Not Observable,25.0,15.0,30.18,1022.1,,,,0,0,0,,,,,,,,,2/8 Mostly Clear,72000.0,,FEW,12000.0,FEW,20000.0,,,,
KRDR,06-26-2001,17:00,METAR,,30,8.0,,,9999.0,Cloud Development Not Observable,24.0,15.0,30.16,1021.3,,,,0,0,0,,,,,,,,,2/8 Mostly Clear,72000.0,,FEW,12000.0,FEW,20000.0,,,,
KRDR,06-26-2001,16:00,METAR,,350,8.0,,,9999.0,Cloud Development Not Observable,22.0,15.0,30.15,1021.0,,,,0,0,0,,,,,,,,,7/8 Mostly Cloudy,20000.0,,FEW,12000.0,BKN,20000.0,,,,
KRDR,06-26-2001,15:00,METAR,,10,10.0,,,9999.0,Cloud Development Not Observable,22.0,15.0,30.13,1020.4,,,,0,0,0,,,,,,,,,7/8 Mostly Cloudy,20000.0,,FEW,6400.0,FEW,12000.0,BKN,20000.0,,
KRDR,06-26-2001,14:00,METAR,,340,11.0,,,9999.0,Cloud Development Not Observable,21.0,15.0,30.11,1019.5,,,,0,0,0,,,,,,,,,7/8 Mostly Cloudy,20000.0,,FEW,12000.0,BKN,20000.0,,,,
KRDR,06-26-2001,13:00,METAR,,330,13.0,,,9999.0,Cloud Development Not Observable,19.0,14.0,30.11,1019.5,,,,0,0,0,,,,,,,,,7/8 Mostly Cloudy,20000.0,,SCT,6900.0,BKN,20000.0,,,,
KRDR,06-26-2001,12:00,METAR,,310,12.0,,,9999.0,Cloud Development Not Observable,19.0,15.0,30.09,1018.8,,,,0,0,0,,,,,,,,,4/8 Partly Cloudy,72000.0,,FEW,6900.0,SCT,20000.0,,,,
KRDR,06-26-2001,11:00,METAR,,300,12.0,,,9999.0,Cloud Development Not Observable,17.0,15.0,30.05,1017.6,,,,0,0,0,,,,,,,,,4/8 Partly Cloudy,72000.0,,FEW,6900.0,SCT,20000.0,,,,
KRDR,06-26-2001,10:00,METAR,,300,8.0,,,9999.0,Cloud Development Not Observable,18.0,17.0,30.02,1016.7,,,,0,0,0,,,,,,,,,2/8 Mostly Clear,72000.0,,FEW,8900.0,,,,,,
KRDR,06-26-2001,09:00,METAR,,310,6.0,,,9999.0,Cloud Development Not Observable,19.0,18.0,30.00,1015.9,,,,0,0,0,,,,,,,,,Clear,72000.0,,,73000.0,,,,,,
KRDR,06-26-2001,08:00,METAR,,300,7.0,,,9999.0,Cloud Development Not Observable,20.0,18.0,29.98,1015.2,,,,0,0,0,,,,,,,,,Clear,72000.0,,,73000.0,,,,,,
KRDR,06-26-2001,07:00,METAR,,300,5.0,,,9999.0,Cloud Development Not Observable,20.0,18.0,29.96,1014.6,,,,0,0,0,,,,,,,,,Clear,72000.0,,,73000.0,,,,,,
KRDR,06-26-2001,06:00,METAR,,300,14.0,,,9999.0,Cloud Development Not Observable,23.0,21.0,29.92,1013.2,,,,0,0,0,,,,,,,,,Clear,72000.0,,,73000.0,,,,,,
KRDR,06-26-2001,04:00,METAR,,280,6.0,,,0.0,Cloud Development Not Observable,24.0,21.0,29.84,1010.5,,,,0,0,0,,,,,,,,,,72000.0,,FEW,20000.0,,,,,,
KRDR,06-26-2001,03:00,METAR,,260,5.0,,,9999.0,Cloud Development Not Observable,26.0,24.0,29.80,1009.1,,,,0,0,0,,,,,,,,,2/8 Mostly Clear,72000.0,,FEW,20000.0,,,,,,
KRDR,06-26-2001,02:00,METAR,,240,4.0,,,9999.0,Cloud Development Not Observable,27.0,26.0,29.77,1007.9,,,,0,0,0,,,,,,,,,2/8 Mostly Clear,72000.0,,FEW,4000.0,FEW,20000.0,,,,
KRDR,06-26-2001,01:00,METAR,,290,5.0,,,9999.0,Cloud Development Not Observable,30.0,25.0,29.74,1006.8,,,,0,0,0,,,,,,,,,7/8 Mostly Cloudy,20000.0,,FEW,3500.0,SCT,12000.0,BKN,20000.0,,
KRDR,06-26-2001,00:00,METAR,,290,5.0,,,9999.0,Cloud Development Not Observable,31.0,27.0,29.72,1006.3,,,,0,0,0,,,,,,,,,7/8 Mostly Cloudy,20000.0,,FEW,3500.0,SCT,12000.0,BKN,20000.0,,
KRDR,06-25-2001,22:00,METAR,,230,12.0,,,9999.0,Cloud Development Not Observable,30.0,23.0,29.70,1005.6,,,,0,0,0,,,,,,,,,7/8 Mostly Cloudy,12000.0,,FEW,3500.0,FEW,5900.0,BKN,12000.0,BKN,20000.0
KRDR,06-25-2001,21:00,METAR,,260,11.0,,,9999.0,Cloud Development Not Observable,33.0,23.0,29.70,1005.5,,,,0,0,0,,,,,,,,,7/8 Mostly Cloudy,12000.0,,FEW,5900.0,SCT,8900.0,BKN,12000.0,BKN,20000.0
KRDR,06-25-2001,20:41,SPECI,,190,13.0,,,9999.0,Cloud Development Not Observable,29.0,25.0,29.68,,,,,0,0,0,,,,,,,,,7/8 Mostly Cloudy,12000.0,,FEW,3500.0,FEW,5900.0,SCT,8900.0,BKN,12000.0
KRDR,06-25-2001,20:09,SPECI,,180,14.0,,,9999.0,Thunderstorm with Rain or Snow/Light Rain Showers/Cloud Development Not Observable,27.0,23.0,29.66,,,,,95,80,0,,,,,,,,,8/8 Overcast,9000.0,,FEW,3500.0,SCT,5900.0,BKN,8900.0,OVC,12000.0
KRDR,06-25-2001,20:00,METAR,,160,13.0,,,9999.0,Thunderstorm with Rain or Snow/Light Rain Showers/Cloud Development Not Observable,27.0,23.0,29.63,,,,,95,80,0,,,,,,,,,8/8 Overcast,12000.0,,FEW,5900.0,SCT,8900.0,OVC,12000.0,,
KRDR,06-25-2001,18:42,SPECI,,160,14.0,,,9999.0,Cloud Development Not Observable,26.0,26.0,29.65,,,,,0,0,0,,,,,,,,,8/8 Overcast,12000.0,,FEW,8900.0,BKN,12000.0,OVC,20000.0,,
KRDR,06-25-2001,18:16,SPECI,,160,11.0,,,9999.0,Thunderstorm with Rain or Snow/Light Rain Showers/Cloud Development Not Observable,26.0,26.0,29.65,,,,,95,80,0,,,,,,,,,8/8 Overcast,12000.0,,FEW,3000.0,BKN,12000.0,OVC,20000.0,,
KRDR,06-25-2001,18:10,SPECI,,150,10.0,,,9999.0,Thunderstorm/Cloud Development Not Observable,26.0,26.0,29.67,,,,,17,0,0,,,,,,,,,8/8 Overcast,12000.0,,FEW,3000.0,BKN,12000.0,OVC,20000.0,,
KRDR,06-25-2001,18:00,METAR,,150,9.0,,,9999.0,Light Rain Showers/Cloud Development Not Observable,25.0,25.0,29.66,,,,,80,0,0,,,,,,,,,8/8 Overcast,12000.0,,FEW,8900.0,BKN,12000.0,OVC,20000.0,,
KRDR,06-25-2001,17:10,SPECI,,200,18.0,,,9999.0,Light Rain Showers/Cloud Development Not Observable,28.0,26.0,29.75,,,,,80,0,0,,,,,,,,,8/8 Overcast,12000.0,,FEW,8900.0,BKN,12000.0,OVC,20000.0,,
KRDR,06-25-2001,17:00,METAR,,180,15.0,,,9999.0,Cloud Development Not Observable,29.0,24.0,29.70,,,,,0,0,0,,,,,,,,,8/8 Overcast,12000.0,,FEW,8900.0,BKN,12000.0,OVC,20000.0,,
KRDR,06-25-2001,16:00,METAR,,130,13.0,,,9999.0,Cloud Development Not Observable,29.0,25.0,29.70,,,,,0,0,0,,,,,,,,,8/8 Overcast,12000.0,,FEW,3000.0,SCT,8900.0,BKN,12000.0,OVC,20000.0
KRDR,06-25-2001,15:00,METAR,,110,9.0,,,9999.0,Cloud Development Not Observable,27.0,24.0,29.70,1005.6,,,,0,0,0,,,,,,,,,8/8 Overcast,12000.0,,BKN,12000.0,OVC,20000.0,,,,
KRDR,06-25-2001,14:00,METAR,,100,10.0,,,9999.0,Cloud Development Not Observable,23.0,21.0,29.70,1005.5,,,,0,0,0,,,,,,,,,8/8 Overcast,12000.0,,FEW,3000.0,BKN,12000.0,OVC,20000.0,,
KRDR,06-25-2001,13:23,SPECI,,,1.0,,,9999.0,Cloud Development Not Observable,23.0,17.0,29.73,,,,,0,0,0,,,,,,,,,8/8 Overcast,12000.0,,FEW,3000.0,BKN,12000.0,OVC,20000.0,,
KRDR,06-25-2001,13:00,METAR,,290,6.0,,,9999.0,Thunderstorm/Cloud Development Not Observable,22.0,16.0,29.73,1006.5,,,,17,0,0,,,,,,,,,8/8 Overcast,12000.0,,FEW,3000.0,BKN,12000.0,OVC,20000.0,,
KRDR,06-25-2001,12:25,METAR,,,4.0,,,9999.0,Thunderstorm/Cloud Development Not Observable,24.0,15.0,29.72,,,,,17,0,0,,,,,,,,,7/8 Mostly Cloudy,12000.0,,FEW,3000.0,BKN,12000.0,BKN,20000.0,,
KRDR,06-25-2001,12:00,METAR,,220,5.0,,,9999.0,Cloud Development Not Observable,21.0,19.0,29.71,1006.0,,,,0,0,0,,,,,,,,,7/8 Mostly Cloudy,20000.0,,SCT,12000.0,BKN,20000.0,,,,
KRDR,06-25-2001,11:00,METAR,,,1.0,,,9999.0,Cloud Development Not Observable,20.0,19.0,29.69,1005.3,,,,0,0,0,,,,,,,,,7/8 Mostly Cloudy,20000.0,,FEW,3000.0,BKN,20000.0,,,,
KRDR,06-25-2001,10:00,METAR,,,1.0,,,9999.0,Cloud Development Not Observable,20.0,19.0,29.69,,,,,0,0,0,,,,,,,,,7/8 Mostly Cloudy,20000.0,,BKN,20000.0,,,,,,
KRDR,06-25-2001,09:00,METAR,,,1.0,,,9999.0,Cloud Development Not Observable,21.0,20.0,29.69,,,,,0,0,0,,,,,,,,,7/8 Mostly Cloudy,20000.0,,BKN,20000.0,,,,,,
KRDR,06-25-2001,03:00,METAR,,150,9.0,,,9999.0,Cloud Development Not Observable,25.0,25.0,29.72,,,,,0,0,0,,,,,,,,,7/8 Mostly Cloudy,20000.0,,BKN,20000.0,,,,,,
KRDR,06-25-2001,02:00,METAR,,150,9.0,,,9999.0,Cloud Development Not Observable,27.0,25.0,29.71,,,,,0,0,0,,,,,,,,,7/8 Mostly Cloudy,20000.0,,BKN,20000.0,,,,,,
KRDR,06-25-2001,01:00,METAR,,130,8.0,,,9999.0,Cloud Development Not Observable,29.0,24.0,29.71,,,,,0,0,0,,,,,,,,,7/8 Mostly Cloudy,20000.0,,FEW,9900.0,BKN,20000.0,,,,
KRDR,06-25-2001,00:00,METAR,,140,8.0,,,9999.0,Cloud Development Not Observable,30.0,23.0,29.72,,,,,0,0,0,,,,,,,,,7/8 Mostly Cloudy,20000.0,,BKN,20000.0,,,,,,
