Platform Id,Date,Time (UTC),Report Type,Wind Condition,Wind Direction,Wind Speed (Knots),Wind Gust Speed,Peak Wind (Knots),Visibility (M),Weather,Air Temp (C),Dew Point (C),Altimeter (inHg),SLP (Millibars),Present Automated 1,Present Automated 2,Present Automated 3,Present Manual 1,Present Manual 2,Present Manual 3,Present Manual 4,Present Manual 5,Present Manual 6,Present Manual 7,Precip Hr1,Precip Hr3,Precip Hr6,Precip Hr24,Cloud Cover,Cloud Ceiling (Feet),Lowest Cloud Base Height (Feet),Cloud Cover1,Cloudbase 1,Cloud Cover2,Cloudbase 2,Cloud Cover3,Cloudbase 3,Cloud Cover4,Cloudbase 4
KRDR,06-24-2001,23:00,METAR,,160,11.0,,,9999,Cloud Development Not Observable,30.0,22.0,29.74,,,,,0,0,0,,,,,,,,,7/8 Mostly Cloudy,20000.0,,FEW,7900.0,BKN,20000.0,,,,
KRDR,06-24-2001,02:00,METAR,,170,8.0,,,9999,Cloud Development Not Observable,25.0,22.0,29.75,,,,,0,0,0,,,,,,,,,7/8 Mostly Cloudy,11000.0,,BKN,11000.0,BKN,20000.0,,,,
KRDR,06-24-2001,01:20,METAR,,180,9.0,,,9999,Cloud Development Not Observable,25.0,21.0,29.76,,,,,0,0,0,,,,,,,,,7/8 Mostly Cloudy,20000.0,,SCT,11000.0,BKN,20000.0,,,,
KRDR,06-23-2001,17:30,METAR,,190,13.0,,,9999,Cloud Development Not Observable,26.0,19.0,29.80,,,,,0,0,0,,,,,,,,,7/8 Mostly Cloudy,20000.0,,FEW,12000.0,BKN,20000.0,,,,
KRDR,06-23-2001,17:00,METAR,,200,11.0,,,9999,Cloud Development Not Observable,26.0,17.0,29.79,1009.0,,,,0,0,0,,,,,,,,,4/8 Partly Cloudy,72000.0,,FEW,12000.0,SCT,20000.0,,,,
KRDR,06-23-2001,16:00,METAR,,190,10.0,,,9999,Cloud Development Not Observable,24.0,17.0,29.80,1009.2,,,,0,0,0,,,,,,,,,4/8 Partly Cloudy,72000.0,,SCT,20000.0,,,,,,
KRDR,06-23-2001,15:00,METAR,,210,11.0,,,9999,Cloud Development Not Observable,22.0,15.0,29.80,1009.4,,,,0,0,0,,,,,,,,,4/8 Partly Cloudy,72000.0,,FEW,4000.0,SCT,20000.0,,,,
KRDR,06-23-2001,14:32,SPECI,,200,12.0,,,9999,Cloud Development Not Observable,21.0,15.0,29.81,,,,,0,0,0,,,,,,,,,4/8 Partly Cloudy,72000.0,,FEW,4000.0,SCT,20000.0,,,,
KRDR,06-23-2001,07:37,SPECI,,190,11.0,,,9999,Cloud Development Not Observable,17.0,12.0,29.85,,,,,0,0,0,,,,,,,,,4/8 Partly Cloudy,72000.0,,SCT,25000.0,,,,,,
KRDR,06-23-2001,07:00,METAR,,180,10.0,,,9999,Cloud Development Not Observable,17.0,11.0,29.85,1011.0,,,,0,0,0,,,,,,,,,4/8 Partly Cloudy,72000.0,,SCT,25000.0,,,,,,
KRDR,06-23-2001,06:00,METAR,,180,11.0,,,9999,Cloud Development Not Observable,17.0,12.0,29.86,1011.5,,,,0,0,0,,,,,,,,,4/8 Partly Cloudy,72000.0,,SCT,25000.0,,,,,,
KRDR,06-23-2001,05:00,METAR,,180,9.0,,,9999,Cloud Development Not Observable,17.0,12.0,29.88,1012.1,,,,0,0,0,,,,,,,,,4/8 Partly Cloudy,72000.0,,SCT,25000.0,,,,,,
KRDR,06-23-2001,04:00,METAR,,160,8.0,,,9999,Cloud Development Not Observable,17.0,12.0,29.90,1012.8,,,,0,0,0,,,,,,,,,4/8 Partly Cloudy,72000.0,,SCT,25000.0,,,,,,
KRDR,06-23-2001,03:00,METAR,,180,8.0,,,9999,Cloud Development Not Observable,19.0,12.0,29.90,1012.8,,,,0,0,0,,,,,,,,,4/8 Partly Cloudy,72000.0,,SCT,25000.0,,,,,,
KRDR,06-23-2001,02:00,METAR,,180,9.0,,,9999,Cloud Development Not Observable,21.0,12.0,29.91,1013.1,,,,0,0,0,,,,,,,,,4/8 Partly Cloudy,72000.0,,SCT,25000.0,,,,,,
KRDR,06-23-2001,01:00,METAR,,200,12.0,,,9999,Cloud Development Not Observable,22.0,10.0,29.92,1013.5,,,,0,0,0,,,,,,,,,7/8 Mostly Cloudy,25000.0,,FEW,7900.0,BKN,25000.0,,,,
KRDR,06-23-2001,00:00,METAR,,200,13.0,,,9999,Cloud Development Not Observable,24.0,10.0,29.94,1014.1,,,,0,0,0,,,,,,,,,7/8 Mostly Cloudy,25000.0,,FEW,7900.0,BKN,25000.0,,,,
KRDR,06-22-2001,23:00,METAR,,200,15.0,,,9999,Cloud Development Not Observable,24.0,10.0,29.96,1014.9,,,,0,0,0,,,,,,,,,7/8 Mostly Cloudy,25000.0,,FEW,5900.0,BKN,25000.0,,,,
KRDR,06-22-2001,22:00,METAR,,190,11.0,,,9999,Cloud Development Not Observable,24.0,11.0,29.97,1015.4,,,,0,0,0,,,,,,,,,7/8 Mostly Cloudy,25000.0,,FEW,5900.0,BKN,25000.0,,,,
KRDR,06-22-2001,21:00,METAR,,200,13.0,21.0,,9999,Cloud Development Not Observable,24.0,11.0,30.00,1016.1,,,,0,0,0,,,,,,,,,7/8 Mostly Cloudy,25000.0,,SCT,5000.0,BKN,25000.0,,,,
KRDR,06-22-2001,20:00,METAR,,180,14.0,18.0,,9999,Cloud Development Not Observable,24.0,10.0,30.02,1016.9,,,,0,0,0,,,,,,,,,7/8 Mostly Cloudy,25000.0,,FEW,4000.0,BKN,25000.0,,,,
KRDR,06-22-2001,19:00,METAR,,190,12.0,21.0,,9999,Cloud Development Not Observable,23.0,10.0,30.04,1017.6,,,,0,0,0,,,,,,,,,7/8 Mostly Cloudy,25000.0,,FEW,4000.0,BKN,25000.0,,,,
KRDR,06-22-2001,18:00,METAR,,210,10.0,18.0,,9999,Cloud Development Not Observable,23.0,9.0,30.06,1018.3,,,,0,0,0,,,,,,,,,7/8 Mostly Cloudy,25000.0,,FEW,4000.0,BKN,25000.0,,,,
KRDR,06-22-2001,17:00,METAR,,220,12.0,,,9999,Cloud Development Not Observable,22.0,8.0,30.07,1018.7,,,,0,0,0,,,,,,,,,4/8 Partly Cloudy,72000.0,,FEW,4000.0,SCT,25000.0,,,,
KRDR,06-22-2001,16:00,METAR,,230,12.0,17.0,,9999,Cloud Development Not Observable,21.0,9.0,30.09,1019.2,,,,0,0,0,,,,,,,,,4/8 Partly Cloudy,72000.0,,FEW,4000.0,FEW,12000.0,SCT,25000.0,,
KRDR,06-22-2001,15:00,METAR,,230,12.0,,,9999,Cloud Development Not Observable,20.0,10.0,30.10,1019.5,,,,0,0,0,,,,,,,,,4/8 Partly Cloudy,72000.0,,FEW,12000.0,SCT,25000.0,,,,
KRDR,06-22-2001,14:00,METAR,,240,10.0,,,9999,Cloud Development Not Observable,19.0,11.0,30.11,1019.9,,,,0,0,0,,,,,,,,,2/8 Mostly Clear,72000.0,,FEW,12000.0,FEW,25000.0,,,,
KRDR,06-22-2001,13:00,METAR,,240,11.0,,,9999,Cloud Development Not Observable,16.0,12.0,30.12,1020.2,,,,0,0,0,,,,,,,,,2/8 Mostly Clear,72000.0,,FEW,12000.0,FEW,25000.0,,,,
KRDR,06-22-2001,12:00,METAR,,230,7.0,,,9999,Cloud Development Not Observable,13.0,10.0,30.11,1020.1,,,,0,0,0,,,,,,,,,2/8 Mostly Clear,72000.0,,FEW,25000.0,,,,,,
KRDR,06-22-2001,11:00,METAR,,220,8.0,,,9999,Cloud Development Not Observable,11.0,10.0,30.11,1020.2,,,,0,0,0,,,,,,,,,2/8 Mostly Clear,72000.0,,FEW,11000.0,FEW,25000.0,,,,
KRDR,06-22-2001,10:00,METAR,,210,5.0,,,9999,Cloud Development Not Observable,11.0,10.0,30.11,1020.2,,,,0,0,0,,,,,,,,,2/8 Mostly Clear,72000.0,,FEW,7900.0,FEW,25000.0,,,,
KRDR,06-22-2001,09:00,METAR,,210,4.0,,,9999,Cloud Development Not Observable,11.0,10.0,30.11,1020.2,,,,0,0,0,,,,,,,,,2/8 Mostly Clear,72000.0,,FEW,7900.0,FEW,25000.0,,,,
KRDR,06-22-2001,07:00,METAR,,200,5.0,,,9999,Cloud Development Not Observable,11.0,11.0,30.13,1020.9,,,,0,0,0,,,,,,,,,2/8 Mostly Clear,72000.0,,FEW,9900.0,FEW,25000.0,,,,
KRDR,06-22-2001,06:00,METAR,,200,5.0,,,9999,Cloud Development Not Observable,11.0,10.0,30.15,1021.4,,,,0,0,0,,,,,,,,,2/8 Mostly Clear,72000.0,,FEW,25000.0,,,,,,
KRDR,06-22-2001,05:00,METAR,,190,6.0,,,9999,Cloud Development Not Observable,13.0,11.0,30.15,1021.6,,,,0,0,0,,,,,,,,,2/8 Mostly Clear,72000.0,,FEW,25000.0,,,,,,
KRDR,06-22-2001,04:00,METAR,,210,4.0,,,9999,Cloud Development Not Observable,14.0,11.0,30.16,1021.7,,,,0,0,0,,,,,,,,,2/8 Mostly Clear,72000.0,,FEW,5900.0,FEW,25000.0,,,,
KRDR,06-22-2001,03:00,METAR,,180,5.0,,,9999,Cloud Development Not Observable,16.0,11.0,30.15,1021.6,,,,0,0,0,,,,,,,,,2/8 Mostly Clear,72000.0,,FEW,5900.0,FEW,25000.0,,,,
KRDR,06-22-2001,02:00,METAR,,220,3.0,,,9999,Cloud Development Not Observable,19.0,10.0,30.15,1021.5,,,,0,0,0,,,,,,,,,2/8 Mostly Clear,72000.0,,FEW,5900.0,,,,,,
KRDR,06-22-2001,01:00,METAR,,250,5.0,,,9999,Cloud Development Not Observable,21.0,9.0,30.16,1021.7,,,,0,0,0,,,,,,,,,2/8 Mostly Clear,72000.0,,FEW,5900.0,,,,,,
KRDR,06-22-2001,00:00,METAR,,,4.0,,,9999,Cloud Development Not Observable,21.0,6.0,30.17,1022.3,,,,0,0,0,,,,,,,,,4/8 Partly Cloudy,72000.0,,SCT,5900.0,,,,,,
KRDR,06-21-2001,23:00,METAR,,,3.0,,,9999,Cloud Development Not Observable,22.0,6.0,30.18,1023.1,,,,0,0,0,,,,,,,,,4/8 Partly Cloudy,72000.0,,SCT,5900.0,,,,,,
KRDR,06-21-2001,22:00,METAR,,,5.0,,,9999,Cloud Development Not Observable,22.0,7.0,30.20,1023.1,,,,0,0,0,,,,,,,,,4/8 Partly Cloudy,72000.0,,SCT,5400.0,,,,,,
KRDR,06-21-2001,21:00,METAR,,20,8.0,,,9999,Cloud Development Not Observable,22.0,7.0,30.21,1023.5,,,,0,0,0,,,,,,,,,4/8 Partly Cloudy,72000.0,,SCT,5400.0,,,,,,
KRDR,06-21-2001,20:00,METAR,,,5.0,,,9999,Cloud Development Not Observable,22.0,7.0,30.22,1024.1,,,,0,0,0,,,,,,,,,4/8 Partly Cloudy,72000.0,,SCT,5000.0,,,,,,
KRDR,06-21-2001,19:00,METAR,,330,9.0,,,9999,Cloud Development Not Observable,21.0,8.0,30.24,1024.7,,,,0,0,0,,,,,,,,,4/8 Partly Cloudy,72000.0,,SCT,5000.0,,,,,,
KRDR,06-21-2001,18:00,METAR,,340,10.0,,,9999,Cloud Development Not Observable,19.0,8.0,30.24,1024.7,,,,0,0,0,,,,,,,,,4/8 Partly Cloudy,72000.0,,SCT,5000.0,,,,,,
KRDR,06-21-2001,17:00,METAR,,320,11.0,,,9999,Cloud Development Not Observable,20.0,9.0,30.25,1025.0,,,,0,0,0,,,,,,,,,4/8 Partly Cloudy,72000.0,,SCT,5000.0,,,,,,
KRDR,06-21-2001,16:00,METAR,,350,9.0,,,9999,Cloud Development Not Observable,18.0,12.0,30.24,1024.8,,,,0,0,0,,,,,,,,,2/8 Mostly Clear,72000.0,,FEW,5000.0,FEW,12000.0,,,,
KRDR,06-21-2001,15:00,METAR,,320,8.0,,,9999,Cloud Development Not Observable,17.0,12.0,30.26,1025.4,,,,0,0,0,,,,,,,,,2/8 Mostly Clear,72000.0,,FEW,12000.0,,,,,,
KRDR,06-21-2001,14:00,METAR,,330,8.0,,,9999,Cloud Development Not Observable,15.0,11.0,30.26,1025.3,,,,0,0,0,,,,,,,,,2/8 Mostly Clear,72000.0,,FEW,12000.0,FEW,20000.0,,,,
KRDR,06-21-2001,13:00,METAR,,320,8.0,,,9999,Cloud Development Not Observable,13.0,12.0,30.26,1025.3,,,,0,0,0,,,,,,,,,2/8 Mostly Clear,72000.0,,FEW,20000.0,,,,,,
KRDR,06-21-2001,12:00,METAR,,300,8.0,,,9999,Cloud Development Not Observable,11.0,11.0,30.25,1025.2,,,,0,0,0,,,,,,,,,2/8 Mostly Clear,72000.0,,FEW,15000.0,,,,,,
KRDR,06-21-2001,11:00,METAR,,300,8.0,,,9999,Cloud Development Not Observable,8.0,8.0,30.24,1024.8,,,,0,0,0,,,,,,,,,Clear,72000.0,,,73000.0,,,,,,
KRDR,06-21-2001,10:00,METAR,,300,7.0,,,9999,Cloud Development Not Observable,8.0,8.0,30.22,1024.3,,,,0,0,0,,,,,,,,,Clear,72000.0,,,73000.0,,,,,,
KRDR,06-21-2001,09:00,METAR,,270,3.0,,,9999,Cloud Development Not Observable,8.0,8.0,30.22,1024.3,,,,0,0,0,,,,,,,,,Clear,72000.0,,,73000.0,,,,,,
KRDR,06-21-2001,08:00,METAR,,290,6.0,,,9999,Cloud Development Not Observable,8.0,8.0,30.22,1024.1,,,,0,0,0,,,,,,,,,Clear,72000.0,,,73000.0,,,,,,
KRDR,06-21-2001,07:00,METAR,,300,5.0,,,9999,Cloud Development Not Observable,8.0,8.0,30.22,1024.3,,,,0,0,0,,,,,,,,,Clear,72000.0,,,73000.0,,,,,,
KRDR,06-21-2001,06:00,METAR,,290,6.0,,,9999,Cloud Development Not Observable,8.0,8.0,30.23,1024.5,,,,0,0,0,,,,,,,,,Clear,72000.0,,,73000.0,,,,,,
KRDR,06-21-2001,05:00,METAR,,290,5.0,,,9999,Cloud Development Not Observable,8.0,8.0,30.23,1024.5,,,,0,0,0,,,,,,,,,2/8 Mostly Clear,72000.0,,FEW,6900.0,,,,,,
KRDR,06-21-2001,04:00,METAR,,270,4.0,,,9999,Cloud Development Not Observable,10.0,10.0,30.22,1024.0,,,,0,0,0,,,,,,,,,2/8 Mostly Clear,72000.0,,FEW,6400.0,FEW,25000.0,,,,
KRDR,06-21-2001,03:00,METAR,,,2.0,,,9999,Cloud Development Not Observable,12.0,12.0,30.21,1023.7,,,,0,0,0,,,,,,,,,2/8 Mostly Clear,72000.0,,FEW,6400.0,FEW,25000.0,,,,
KRDR,06-21-2001,02:00,METAR,,30,7.0,,,9999,Cloud Development Not Observable,15.0,12.0,30.19,1022.9,,,,0,0,0,,,,,,,,,4/8 Partly Cloudy,72000.0,,FEW,3500.0,FEW,6400.0,SCT,25000.0,,
KRDR,06-21-2001,01:00,METAR,,30,7.0,,,9999,Cloud Development Not Observable,17.0,12.0,30.18,1022.7,,,,0,0,0,,,,,,,,,7/8 Mostly Cloudy,25000.0,,FEW,3500.0,SCT,6400.0,BKN,25000.0,,
KRDR,06-21-2001,00:00,METAR,,10,12.0,,,9999,Cloud Development Not Observable,17.0,15.0,30.17,1022.4,,,,0,0,0,,,,,,,,,7/8 Mostly Cloudy,10000.0,,FEW,2000.0,SCT,3500.0,BKN,9900.0,BKN,25000.0
KRDR,06-20-2001,23:00,METAR,,50,5.0,,,9999,Cloud Development Not Observable,15.0,12.0,30.18,1022.9,,,,0,0,0,,,,,,,,,7/8 Mostly Cloudy,3400.0,,BKN,3500.0,BKN,8900.0,BKN,25000.0,,
KRDR,06-20-2001,22:00,METAR,,,5.0,,,9999,Cloud Development Not Observable,16.0,14.0,30.18,1022.8,,,,0,0,0,,,,,,,,,7/8 Mostly Cloudy,9000.0,,FEW,1000.0,FEW,3000.0,BKN,8900.0,BKN,25000.0
KRDR,06-20-2001,21:41,SPECI,,110,7.0,,,9999,Cloud Development Not Observable,16.0,16.0,30.18,,,,,0,0,0,,,,,,,,,8/8 Overcast,9000.0,,FEW,1000.0,SCT,3000.0,BKN,8900.0,OVC,25000.0
KRDR,06-20-2001,21:23,SPECI,,60,5.0,,,9999,Light Rain Showers/Cloud Development Not Observable,15.0,15.0,30.17,,,,,80,0,0,,,,,,,,,8/8 Overcast,9000.0,,FEW,1000.0,SCT,3000.0,BKN,8900.0,OVC,25000.0
KRDR,06-20-2001,21:00,METAR,,80,7.0,,,9999,Thunderstorm with Rain or Snow/Light Rain Showers/Cloud Development Not Observable,14.0,14.0,30.17,1022.3,,,,95,80,0,,,,,,,,,8/8 Overcast,10000.0,,FEW,1000.0,SCT,3000.0,OVC,9900.0,,
KRDR,06-20-2001,20:00,METAR,,50,11.0,,,4800,Thunderstorm with Rain or Snow/Light Rain Showers/Cloud Development Not Observable,14.0,14.0,30.18,1022.7,,,,95,80,0,,,,,,,,,8/8 Overcast,7000.0,,FEW,1000.0,BKN,6900.0,OVC,9900.0,,
KRDR,06-20-2001,19:13,SPECI,,70,7.0,,,9999,Thunderstorm with Rain or Snow/Light Rain Showers/Cloud Development Not Observable,14.0,14.0,30.19,,,,,95,80,0,,,,,,,,,7/8 Mostly Cloudy,6000.0,,FEW,1000.0,BKN,5900.0,BKN,9900.0,BKN,25000.0
KRDR,06-20-2001,19:06,SPECI,,70,7.0,,,9999,Light Rain Showers/Cloud Development Not Observable,15.0,14.0,30.20,,,,,80,0,0,,,,,,,,,7/8 Mostly Cloudy,6000.0,,FEW,1000.0,BKN,5900.0,BKN,9900.0,BKN,25000.0
KRDR,06-20-2001,19:00,METAR,,50,8.0,,,9999,Cloud Development Not Observable,15.0,15.0,30.20,1023.3,,,,0,0,0,,,,,,,,,7/8 Mostly Cloudy,6000.0,,FEW,1000.0,BKN,5900.0,BKN,9900.0,BKN,25000.0
KRDR,06-20-2001,18:43,SPECI,,50,8.0,,,9999,Cloud Development Not Observable,16.0,16.0,30.20,,,,,0,0,0,,,,,,,,,7/8 Mostly Cloudy,6000.0,,FEW,1000.0,BKN,5900.0,BKN,9900.0,BKN,20000.0
KRDR,06-20-2001,18:00,METAR,,60,5.0,,,9999,Light Rain Showers/Cloud Development Not Observable,14.0,14.0,30.21,1023.7,,,,80,0,0,,,,,,,,,8/8 Overcast,6000.0,,FEW,800.0,OVC,5900.0,,,,
KRDR,06-20-2001,17:07,SPECI,,10,6.0,,,9999,Light Rain Showers/Cloud Development Not Observable,15.0,15.0,30.20,,,,,80,0,0,,,,,,,,,8/8 Overcast,6500.0,,FEW,1500.0,OVC,6400.0,,,,
KRDR,06-20-2001,17:00,METAR,,50,5.0,,,9999,Cloud Development Not Observable,15.0,15.0,30.20,1023.3,,,,0,0,0,,,,,,,,,8/8 Overcast,6500.0,,FEW,1500.0,OVC,6400.0,,,,
KRDR,06-20-2001,16:15,SPECI,,160,5.0,,,9999,Cloud Development Not Observable,15.0,15.0,30.20,,,,,0,0,0,,,,,,,,,8/8 Overcast,6500.0,,FEW,1500.0,OVC,6400.0,,,,
KRDR,06-20-2001,16:00,METAR,,150,6.0,,,9999,Light Rain Showers/Cloud Development Not Observable,14.0,14.0,30.20,1023.3,,,,80,0,0,,,,,,,,,8/8 Overcast,6500.0,,FEW,1500.0,BKN,6400.0,OVC,9900.0,,
KRDR,06-20-2001,15:00,METAR,,130,4.0,,,9999,Light Rain Showers/Cloud Development Not Observable,14.0,14.0,30.19,1022.9,,,,80,0,0,,,,,,,,,8/8 Overcast,7000.0,,BKN,6900.0,OVC,9900.0,,,,
KRDR,06-20-2001,14:00,METAR,,230,6.0,,,9999,Light Rain Showers/Cloud Development Not Observable,13.0,13.0,30.20,1023.3,,,,80,0,0,,,,,,,,,8/8 Overcast,10000.0,,SCT,6400.0,OVC,9900.0,,,,
KRDR,06-20-2001,13:42,SPECI,,220,5.0,,,9999,Light Rain Showers/Cloud Development Not Observable,13.0,13.0,30.20,,,,,80,0,0,,,,,,,,,7/8 Mostly Cloudy,10000.0,,SCT,6400.0,BKN,9900.0,,,,
KRDR,06-20-2001,13:38,SPECI,,230,6.0,,,9999,Light Rain Showers/Cloud Development Not Observable,13.0,13.0,30.20,,,,,80,0,0,,,,,,,,,7/8 Mostly Cloudy,10000.0,,SCT,6400.0,BKN,9900.0,,,,
KRDR,06-20-2001,13:00,METAR,,,3.0,,,9999,Cloud Development Not Observable,13.0,13.0,30.18,1022.6,,,,0,0,0,,,,,,,,,7/8 Mostly Cloudy,10000.0,,BKN,9900.0,,,,,,
KRDR,06-20-2001,12:00,METAR,,360,3.0,,,9999,Cloud Development Not Observable,12.0,12.0,30.16,1021.9,,,,0,0,0,,,,,,,,,7/8 Mostly Cloudy,9000.0,,BKN,8900.0,,,,,,
KRDR,06-20-2001,11:00,METAR,,320,4.0,,,9999,Cloud Development Not Observable,9.0,9.0,30.15,1021.7,,,,0,0,0,,,,,,,,,2/8 Mostly Clear,72000.0,,FEW,8900.0,FEW,20000.0,,,,
KRDR,06-20-2001,10:00,METAR,,290,3.0,,,9999,Cloud Development Not Observable,10.0,10.0,30.14,1021.1,,,,0,0,0,,,,,,,,,2/8 Mostly Clear,72000.0,,FEW,8900.0,,,,,,
KRDR,06-20-2001,08:00,METAR,,320,4.0,,,9999,Cloud Development Not Observable,11.0,11.0,30.14,1021.0,,,,0,0,0,,,,,,,,,Clear,72000.0,,,73000.0,,,,,,
KRDR,06-20-2001,07:00,METAR,,280,6.0,,,9999,Cloud Development Not Observable,12.0,11.0,30.13,1020.8,,,,0,0,0,,,,,,,,,2/8 Mostly Clear,72000.0,,FEW,8900.0,,,,,,
KRDR,06-20-2001,06:00,METAR,,260,6.0,,,9999,Cloud Development Not Observable,11.0,11.0,30.13,1020.7,,,,0,0,0,,,,,,,,,2/8 Mostly Clear,72000.0,,FEW,8900.0,,,,,,
KRDR,06-20-2001,05:00,METAR,,280,5.0,,,9999,Cloud Development Not Observable,12.0,12.0,30.12,1020.5,,,,0,0,0,,,,,,,,,2/8 Mostly Clear,72000.0,,FEW,7900.0,FEW,12000.0,,,,
KRDR,06-20-2001,04:00,METAR,,300,6.0,,,9999,Cloud Development Not Observable,13.0,13.0,30.12,1020.3,,,,0,0,0,,,,,,,,,4/8 Partly Cloudy,72000.0,,FEW,6900.0,SCT,,,,,
KRDR,06-20-2001,03:00,METAR,,200,7.0,,,9999,Cloud Development Not Observable,14.0,14.0,30.11,1020.2,,,,0,0,0,,,,,,,,,7/8 Mostly Cloudy,10000.0,,FEW,5000.0,SCT,6900.0,BKN,9900.0,,
KRDR,06-20-2001,02:00,METAR,,230,7.0,,,9999,Cloud Development Not Observable,16.0,15.0,30.10,1019.8,,,,0,0,0,,,,,,,,,7/8 Mostly Cloudy,7000.0,,SCT,5000.0,BKN,6900.0,BKN,25000.0,,
KRDR,06-20-2001,01:15,SPECI,,310,6.0,,,9999,Cloud Development Not Observable,16.0,15.0,30.09,,,,,0,0,0,,,,,,,,,7/8 Mostly Cloudy,9000.0,,SCT,5000.0,BKN,8900.0,BKN,25000.0,,
KRDR,06-20-2001,01:00,METAR,,340,10.0,,,9999,Light Rain Showers/Cloud Development Not Observable,16.0,14.0,30.08,1019.0,,,,80,0,0,,,,,,,,,7/8 Mostly Cloudy,4900.0,,BKN,5000.0,BKN,7900.0,BKN,25000.0,,
KRDR,06-20-2001,00:38,SPECI,,330,9.0,,,9999,Light Rain Showers/Cloud Development Not Observable,17.0,13.0,30.08,,,,,80,0,0,,,,,,,,,7/8 Mostly Cloudy,7000.0,,SCT,5000.0,BKN,6900.0,BKN,25000.0,,
KRDR,06-20-2001,00:00,METAR,,10,8.0,,,9999,Cloud Development Not Observable,20.0,12.0,30.06,1018.4,,,,0,0,0,,,,,,,,,7/8 Mostly Cloudy,9000.0,,SCT,5000.0,BKN,8900.0,BKN,25000.0,,
KRDR,06-19-2001,23:00,METAR,,350,8.0,,,9999,Cloud Development Not Observable,20.0,11.0,30.06,1018.5,,,,0,0,0,,,,,,,,,7/8 Mostly Cloudy,9000.0,,SCT,5000.0,BKN,8900.0,BKN,25000.0,,
KRDR,06-19-2001,22:00,METAR,,340,13.0,,,9999,Cloud Development Not Observable,21.0,11.0,30.06,1018.5,,,,0,0,0,,,,,,,,,7/8 Mostly Cloudy,9000.0,,SCT,5000.0,BKN,8900.0,BKN,25000.0,,
KRDR,06-19-2001,21:00,METAR,,280,16.0,23.0,280/28KTS,9999,Cloud Development Not Observable,22.0,7.0,30.05,1018.0,,,,0,0,0,,,,,,,,,7/8 Mostly Cloudy,9000.0,,SCT,5000.0,BKN,8900.0,BKN,25000.0,,
KRDR,06-19-2001,20:00,METAR,,,,,,9999,Cloud Development Not Observable,23.0,9.0,30.05,1018.1,,,,0,0,0,,,,,,,,,,25000.0,,SCT,5000.0,BKN,25000.0,,,,
KRDR,06-19-2001,19:00,METAR,,280,14.0,22.0,,9999,Cloud Development Not Observable,22.0,11.0,30.07,1018.8,,,,0,0,0,,,,,,,,,4/8 Partly Cloudy,72000.0,,SCT,3000.0,SCT,25000.0,,,,
KRDR,06-19-2001,18:00,METAR,,290,16.0,,,9999,Cloud Development Not Observable,21.0,10.0,30.09,1019.3,,,,0,0,0,,,,,,,,,2/8 Mostly Clear,72000.0,,FEW,2000.0,,,,,,
KRDR,06-19-2001,17:00,METAR,,290,15.0,20.0,,9999,Cloud Development Not Observable,20.0,11.0,30.07,1018.8,,,,0,0,0,,,,,,,,,2/8 Mostly Clear,72000.0,,FEW,2000.0,,,,,,
KRDR,06-19-2001,16:00,METAR,,280,14.0,,,9999,Cloud Development Not Observable,19.0,12.0,30.06,1018.5,,,,0,0,0,,,,,,,,,2/8 Mostly Clear,72000.0,,FEW,2000.0,,,,,,
KRDR,06-19-2001,15:00,METAR,,270,13.0,,,9999,Cloud Development Not Observable,17.0,11.0,30.04,1017.8,,,,0,0,0,,,,,,,,,Clear,72000.0,,,73000.0,,,,,,
KRDR,06-19-2001,14:00,METAR,,280,12.0,,,9999,Cloud Development Not Observable,16.0,10.0,30.04,1017.8,,,,0,0,0,,,,,,,,,Clear,72000.0,,,73000.0,,,,,,
KRDR,06-19-2001,13:00,METAR,,280,13.0,,,9999,Cloud Development Not Observable,14.0,10.0,30.03,1017.5,,,,0,0,0,,,,,,,,,Clear,72000.0,,,73000.0,,,,,,
KRDR,06-19-2001,12:00,METAR,,280,12.0,,,9999,Cloud Development Not Observable,12.0,9.0,30.01,1017.1,,,,0,0,0,,,,,,,,.62 IN,Clear,72000.0,,,73000.0,,,,,,
KRDR,06-19-2001,11:00,METAR,,270,13.0,,,9999,Cloud Development Not Observable,10.0,9.0,30.00,1016.6,,,,0,0,0,,,,,,,,,2/8 Mostly Clear,72000.0,,FEW,7900.0,,,,,,
KRDR,06-19-2001,10:00,METAR,,270,13.0,,,9999,Cloud Development Not Observable,10.0,9.0,29.97,1015.7,,,,0,0,0,,,,,,,,,2/8 Mostly Clear,72000.0,,FEW,7900.0,,,,,,
KRDR,06-19-2001,09:00,METAR,,270,15.0,,,9999,Cloud Development Not Observable,11.0,9.0,29.96,1015.1,,,,0,0,0,,,,,,,,,2/8 Mostly Clear,72000.0,,FEW,7900.0,,,,,,
KRDR,06-19-2001,08:00,METAR,,270,11.0,,,9999,Cloud Development Not Observable,10.0,10.0,29.95,1014.9,,,,0,0,0,,,,,,,,,Clear,72000.0,,,73000.0,,,,,,
KRDR,06-19-2001,07:00,METAR,,280,11.0,,,9999,Cloud Development Not Observable,10.0,9.0,29.95,,,,,0,0,0,,,,,,,,,Clear,72000.0,,,73000.0,,,,,,
KRDR,06-19-2001,06:00,METAR,,280,11.0,,,9999,Cloud Development Not Observable,10.0,9.0,29.95,,,,,0,0,0,,,,,,,,,Clear,72000.0,,,73000.0,,,,,,
KRDR,06-19-2001,05:00,METAR,,280,12.0,,,9999,Cloud Development Not Observable,11.0,10.0,29.94,,,,,0,0,0,,,,,,,,,2/8 Mostly Clear,72000.0,,FEW,9900.0,,,,,,
KRDR,06-19-2001,04:00,METAR,,290,10.0,,,9999,Cloud Development Not Observable,10.0,10.0,29.93,,,,,0,0,0,,,,,,,,,4/8 Partly Cloudy,72000.0,,SCT,9900.0,,,,,,
KRDR,06-19-2001,03:00,METAR,,300,14.0,,,9999,Cloud Development Not Observable,12.0,12.0,29.90,,,,,0,0,0,,,,,,,,,7/8 Mostly Cloudy,11000.0,,FEW,5900.0,BKN,11000.0,,,,
KRDR,06-19-2001,02:00,METAR,,320,17.0,,300/28KTS,9999,Cloud Development Not Observable,12.0,11.0,29.89,,,,,0,0,0,,,,,,,,,7/8 Mostly Cloudy,11000.0,,FEW,2000.0,SCT,5900.0,BKN,11000.0,,
KRDR,06-19-2001,01:35,SPECI,,320,19.0,24.0,,9999,Cloud Development Not Observable,12.0,11.0,29.88,,,,,0,0,0,,,,,,,,,7/8 Mostly Cloudy,11000.0,,FEW,2000.0,SCT,5400.0,BKN,11000.0,,
KRDR,06-19-2001,01:15,SPECI,,320,20.0,27.0,,9999,Rain/Cloud Development Not Observable,12.0,12.0,29.87,,,,,61,0,0,,,,,,,,,7/8 Mostly Cloudy,5500.0,,SCT,2000.0,BKN,5400.0,,,,
KRDR,06-19-2001,01:00,METAR,,310,23.0,29.0,,9999,Rain/Cloud Development Not Observable,12.0,12.0,29.86,,,,,61,0,0,,,,,,,,,7/8 Mostly Cloudy,2200.0,,SCT,1000.0,BKN,2200.0,BKN,5900.0,,
KRDR,06-19-2001,00:37,SPECI,,300,22.0,28.0,,9999,Rain/Cloud Development Not Observable,13.0,13.0,29.86,,,,,61,0,0,,,,,,,,,7/8 Mostly Cloudy,2200.0,,SCT,1000.0,BKN,2200.0,BKN,5900.0,,
KRDR,06-19-2001,00:00,METAR,,320,17.0,25.0,300/34KTS,9999,Rain/Cloud Development Not Observable,12.0,12.0,29.81,,,,,61,0,0,,,,,,,,,7/8 Mostly Cloudy,4400.0,,SCT,1000.0,BKN,4500.0,BKN,7900.0,,
KRDR,06-18-2001,23:00,METAR,,300,23.0,30.0,,6400,Rain/Cloud Development Not Observable,12.0,12.0,29.78,,,,,61,0,0,,,,,,,,,8/8 Overcast,1200.0,,BKN,1200.0,OVC,4500.0,,,,
KRDR,06-18-2001,22:00,METAR,,300,25.0,30.0,,4800,Light Rain Showers/Cloud Development Not Observable,14.0,14.0,29.75,,,,,80,0,0,,,,,,,,,8/8 Overcast,1000.0,,BKN,1000.0,OVC,4500.0,,,,
KRDR,06-18-2001,21:00,METAR,,360,18.0,28.0,310/31KTS,4800,Light Rain Showers/Cloud Development Not Observable,15.0,15.0,29.71,,,,,80,0,0,,,,,,,,,8/8 Overcast,1000.0,,BKN,1000.0,OVC,4500.0,,,,
KRDR,06-18-2001,20:00,METAR,,360,14.0,,,4800,Rain/Cloud Development Not Observable,16.0,16.0,29.69,1005.9,,,,63,0,0,,,,,,,,,8/8 Overcast,1000.0,,BKN,1000.0,OVC,4500.0,,,,
KRDR,06-18-2001,08:00,METAR,,180,3.0,,,9999,Cloud Development Not Observable,15.0,15.0,29.85,1011.3,,,,0,0,0,,,,,,,,,7/8 Mostly Cloudy,10000.0,,BKN,9900.0,,,,,,
KRDR,06-18-2001,07:00,METAR,,150,7.0,,,9999,Cloud Development Not Observable,16.0,16.0,29.91,1013.0,,,,0,0,0,,,,,,,,,7/8 Mostly Cloudy,7000.0,,FEW,4000.0,BKN,6900.0,,,,
KRDR,06-18-2001,06:00,METAR,,10,8.0,,,9999,Light Rain Showers/Cloud Development Not Observable,17.0,16.0,29.95,1014.4,,,,80,0,0,,,,,,,,,7/8 Mostly Cloudy,7000.0,,SCT,4000.0,BKN,6900.0,,,,
KRDR,06-18-2001,04:25,METAR,,90,2.0,,,9999,Cloud Development Not Observable,19.0,14.0,29.96,,,,,0,0,0,,,,,,,,,8/8 Overcast,9500.0,,OVC,9400.0,,,,,,
KRDR,06-17-2001,21:30,METAR,,120,13.0,,,9999,Cloud Development Not Observable,23.0,12.0,30.01,,,,,0,0,0,,,,,,,,,2/8 Mostly Clear,72000.0,,FEW,4000.0,FEW,14000.0,,,,
KRDR,06-17-2001,20:00,METAR,,120,10.0,,,9999,Cloud Development Not Observable,22.0,10.0,30.06,,,,,0,0,0,,,,,,,,,4/8 Partly Cloudy,72000.0,,SCT,20000.0,,,,,,
KRDR,06-17-2001,19:00,METAR,,100,10.0,,,9999,Cloud Development Not Observable,21.0,11.0,30.08,,,,,0,0,0,,,,,,,,,4/8 Partly Cloudy,72000.0,,SCT,20000.0,,,,,,
KRDR,06-17-2001,18:00,METAR,,90,10.0,,,9999,Cloud Development Not Observable,20.0,9.0,30.10,,,,,0,0,0,,,,,,,,,7/8 Mostly Cloudy,20000.0,,BKN,20000.0,,,,,,
KRDR,06-17-2001,17:00,METAR,,90,10.0,,,9999,Cloud Development Not Observable,19.0,10.0,30.10,,,,,0,0,0,,,,,,,,,7/8 Mostly Cloudy,20000.0,,BKN,20000.0,,,,,,
KRDR,06-17-2001,16:00,METAR,,90,7.0,,,9999,Cloud Development Not Observable,18.0,9.0,30.12,,,,,0,0,0,,,,,,,,,8/8 Overcast,20000.0,,OVC,20000.0,,,,,,
KRDR,06-17-2001,15:00,METAR,,80,7.0,,,9999,Cloud Development Not Observable,16.0,9.0,30.14,1021.3,,,,0,0,0,,,,,,,,,7/8 Mostly Cloudy,20000.0,,BKN,20000.0,,,,,,
KRDR,06-17-2001,14:00,METAR,,90,8.0,,,9999,Cloud Development Not Observable,15.0,8.0,30.15,1021.6,,,,0,0,0,,,,,,,,,7/8 Mostly Cloudy,20000.0,,SCT,5900.0,BKN,20000.0,,,,
KRDR,06-17-2001,13:00,METAR,,10,5.0,,,9999,Cloud Development Not Observable,13.0,10.0,30.16,1021.8,,,,0,0,0,,,,,,,,,7/8 Mostly Cloudy,20000.0,,SCT,5900.0,BKN,20000.0,,,,
KRDR,06-17-2001,12:00,METAR,,330,4.0,,,9999,Cloud Development Not Observable,11.0,11.0,30.16,1021.9,,,,0,0,0,,,,,,,,.06 IN,7/8 Mostly Cloudy,20000.0,,SCT,5000.0,BKN,20000.0,,,,
KRDR,06-17-2001,11:30,METAR,,320,5.0,,,9999,Cloud Development Not Observable,10.0,10.0,30.15,,,,,0,0,0,,,,,,,,,7/8 Mostly Cloudy,4900.0,,BKN,5000.0,BKN,20000.0,,,,
KRDR,06-17-2001,03:27,SPECI,,270,5.0,,,9999,Cloud Development Not Observable,13.0,13.0,30.04,,,,,0,0,0,,,,,,,,,2/8 Mostly Clear,72000.0,,FEW,6900.0,,,,,,
KRDR,06-17-2001,03:00,METAR,,260,5.0,,,9999,Cloud Development Not Observable,14.0,12.0,30.06,,,,,0,0,0,,,,,,,,,2/8 Mostly Clear,72000.0,,FEW,6900.0,,,,,,
KRDR,06-17-2001,02:00,METAR,,270,5.0,,,9999,Cloud Development Not Observable,17.0,13.0,30.05,,,,,0,0,0,,,,,,,,,2/8 Mostly Clear,72000.0,,FEW,6900.0,FEW,20000.0,,,,
KRDR,06-17-2001,01:00,METAR,,310,7.0,,,9999,Cloud Development Not Observable,18.0,12.0,30.05,,,,,0,0,0,,,,,,,,,2/8 Mostly Clear,72000.0,,FEW,4000.0,FEW,14000.0,,,,
KRDR,06-17-2001,00:00,METAR,,310,10.0,,,9999,Cloud Development Not Observable,18.0,12.0,30.04,,,,,0,0,0,,,,,,,,,7/8 Mostly Cloudy,20000.0,,SCT,4000.0,SCT,9900.0,BKN,20000.0,,
KRDR,06-16-2001,23:00,METAR,,270,7.0,,,9999,Cloud Development Not Observable,18.0,12.0,30.04,1018.0,,,,0,0,0,,,,,,,,,7/8 Mostly Cloudy,20000.0,,SCT,3500.0,SCT,9900.0,BKN,20000.0,,
KRDR,06-16-2001,22:00,METAR,,290,7.0,,,9999,Cloud Development Not Observable,19.0,12.0,30.04,1018.0,,,,0,0,0,,,,,,,,,4/8 Partly Cloudy,72000.0,,SCT,3000.0,SCT,12000.0,,,,
KRDR,06-16-2001,21:00,METAR,,,6.0,,,9999,Cloud Development Not Observable,18.0,12.0,30.05,1018.2,,,,0,0,0,,,,,,,,,7/8 Mostly Cloudy,12000.0,,FEW,3000.0,BKN,12000.0,,,,
KRDR,06-16-2001,20:06,SPECI,,260,10.0,,,9999,Cloud Development Not Observable,17.0,11.0,30.05,,,,,0,0,0,,,,,,,,,7/8 Mostly Cloudy,12000.0,,FEW,3000.0,BKN,12000.0,,,,
KRDR,06-16-2001,11:00,METAR,,340,6.0,,,9999,Cloud Development Not Observable,10.0,10.0,29.91,1013.5,,,,0,0,0,,,,,,,,,7/8 Mostly Cloudy,11000.0,,SCT,2500.0,BKN,11000.0,,,,
KRDR,06-16-2001,10:00,METAR,,360,5.0,,,9999,Cloud Development Not Observable,10.0,10.0,29.90,1012.9,,,,0,0,0,,,,,,,,,7/8 Mostly Cloudy,10000.0,,FEW,2500.0,BKN,9900.0,,,,
KRDR,06-16-2001,09:00,METAR,,310,7.0,,,9999,Cloud Development Not Observable,9.0,9.0,29.86,1011.9,,,,0,0,0,,,,,,,,,4/8 Partly Cloudy,72000.0,,SCT,2800.0,,,,,,
KRDR,06-16-2001,08:24,SPECI,,250,4.0,,,9999,Cloud Development Not Observable,10.0,10.0,29.84,,,,,0,0,0,,,,,,,,,2/8 Mostly Clear,72000.0,,FEW,7900.0,,,,,,
KRDR,06-16-2001,04:00,METAR,,190,3.0,,,9999,Cloud Development Not Observable,13.0,13.0,29.80,1009.6,,,,0,0,0,,,,,,,,,7/8 Mostly Cloudy,4900.0,,BKN,5000.0,BKN,20000.0,,,,
KRDR,06-16-2001,03:18,SPECI,,250,3.0,,,9999,Cloud Development Not Observable,15.0,11.0,29.77,,,,,0,0,0,,,,,,,,,7/8 Mostly Cloudy,4900.0,,BKN,5000.0,BKN,20000.0,,,,
KRDR,06-16-2001,03:00,METAR,,360,5.0,,,9999,Thunderstorm with Rain or Snow/Light Rain Showers/Cloud Development Not Observable,13.0,13.0,29.80,1007.4,,,,95,80,0,,,,,,,,,7/8 Mostly Cloudy,4900.0,,BKN,5000.0,BKN,20000.0,,,,
KRDR,06-16-2001,02:25,METAR,,250,7.0,,,9999,Thunderstorm with Rain or Snow/Light Rain Showers/Cloud Development Not Observable,15.0,11.0,29.77,,,,,95,80,0,,,,,,,,,7/8 Mostly Cloudy,4900.0,,BKN,5000.0,BKN,20000.0,,,,
KRDR,06-16-2001,02:17,SPECI,,250,7.0,,,9999,Cloud Development Not Observable,15.0,11.0,29.75,,,,,0,0,0,,,,,,,,,7/8 Mostly Cloudy,10000.0,,FEW,5000.0,BKN,9900.0,BKN,20000.0,,
KRDR,06-16-2001,02:00,METAR,,240,7.0,,,9999,Cloud Development Not Observable,15.0,11.0,29.75,1007.4,,,,0,0,0,,,,,,,,,7/8 Mostly Cloudy,20000.0,,SCT,5000.0,BKN,20000.0,,,,
KRDR,06-16-2001,01:00,METAR,,290,15.0,,290/27KTS,9999,Cloud Development Not Observable,19.0,9.0,29.74,1007.4,,,,0,0,0,,,,,,,,,7/8 Mostly Cloudy,20000.0,,SCT,5000.0,BKN,20000.0,,,,
KRDR,06-16-2001,00:00,METAR,,280,17.0,25.0,280/27KTS,9999,Cloud Development Not Observable,19.0,9.0,29.71,1006.4,,,,0,0,0,,,,,,,,,7/8 Mostly Cloudy,20000.0,,FEW,5000.0,BKN,20000.0,,,,
KRDR,06-15-2001,23:00,METAR,,280,22.0,29.0,290/40KTS,9999,Cloud Development Not Observable,19.0,9.0,29.67,1005.3,,,,0,0,0,,,,,,,,,7/8 Mostly Cloudy,20000.0,,FEW,5000.0,FEW,13000.0,BKN,20000.0,,
KRDR,06-15-2001,22:00,METAR,,280,24.0,36.0,,9999,Cloud Development Not Observable,19.0,9.0,29.65,1004.6,,,,0,0,0,,,,,,,,,7/8 Mostly Cloudy,13000.0,,SCT,5000.0,BKN,13000.0,BKN,20000.0,,
KRDR,06-15-2001,21:00,METAR,,290,25.0,37.0,,9999,Cloud Development Not Observable,20.0,9.0,29.65,1004.4,,,,0,0,0,,,,,,,,,8/8 Overcast,12000.0,,SCT,5000.0,OVC,12000.0,,,,
KRDR,06-15-2001,20:00,METAR,,270,23.0,33.0,,9999,Cloud Development Not Observable,18.0,9.0,29.65,1004.4,,,,0,0,0,,,,,,,,,8/8 Overcast,9500.0,,SCT,5000.0,BKN,9400.0,OVC,12000.0,,
KRDR,06-15-2001,19:43,SPECI,,270,25.0,33.0,,9999,Cloud Development Not Observable,18.0,8.0,29.65,,,,,0,0,0,,,,,,,,,8/8 Overcast,10000.0,,SCT,5000.0,BKN,9900.0,OVC,12000.0,,
KRDR,06-15-2001,19:26,SPECI,,270,16.0,23.0,,9999,Light Rain Showers/Cloud Development Not Observable,17.0,9.0,29.65,,,,,80,0,0,,,,,,,,,8/8 Overcast,10000.0,,FEW,5000.0,BKN,9900.0,OVC,12000.0,,
KRDR,06-15-2001,19:00,METAR,,270,20.0,28.0,,9999,Cloud Development Not Observable,17.0,9.0,29.64,1004.1,,,,0,0,0,,,,,,,,,8/8 Overcast,12000.0,,SCT,4500.0,OVC,12000.0,,,,
KRDR,06-15-2001,18:00,METAR,,290,23.0,29.0,290/31KTS,9999,Cloud Development Not Observable,17.0,8.0,29.63,1003.9,,,,0,0,0,,,,,,,,,7/8 Mostly Cloudy,3900.0,,FEW,3700.0,BKN,4000.0,BKN,5900.0,,
KRDR,06-15-2001,17:00,METAR,,270,19.0,28.0,270/31KTS,9999,Cloud Development Not Observable,17.0,8.0,29.61,1003.3,,,,0,0,0,,,,,,,,,7/8 Mostly Cloudy,4900.0,,SCT,3700.0,BKN,5000.0,BKN,6900.0,,
KRDR,06-15-2001,16:00,METAR,,270,22.0,31.0,,9999,Cloud Development Not Observable,16.0,8.0,29.60,1002.9,,,,0,0,0,,,,,,,,,7/8 Mostly Cloudy,4900.0,,SCT,3700.0,BKN,5000.0,BKN,6900.0,,
KRDR,06-15-2001,15:00,METAR,,270,21.0,28.0,300/31KTS,9999,Cloud Development Not Observable,16.0,8.0,29.58,1002.2,,,,0,0,0,,,,,,,,,2/8 Mostly Clear,72000.0,,FEW,3000.0,FEW,6900.0,,,,
KRDR,06-15-2001,14:00,METAR,,290,22.0,28.0,,9999,Cloud Development Not Observable,14.0,9.0,29.58,1002.2,,,,0,0,0,,,,,,,,,4/8 Partly Cloudy,72000.0,,SCT,2500.0,SCT,6900.0,,,,
KRDR,06-15-2001,13:00,METAR,,280,16.0,22.0,280/25KTS,9999,Cloud Development Not Observable,12.0,10.0,29.56,1001.6,,,,0,0,0,,,,,,,,,7/8 Mostly Cloudy,3000.0,,SCT,2500.0,BKN,3000.0,BKN,6900.0,,
KRDR,06-15-2001,12:00,METAR,,270,15.0,23.0,270/29KTS,9999,Cloud Development Not Observable,12.0,10.0,29.53,1000.6,,,,0,0,0,,,,,,,,,4/8 Partly Cloudy,72000.0,,SCT,2400.0,SCT,20000.0,,,,
KRDR,06-15-2001,11:00,METAR,,280,14.0,,,9999,Cloud Development Not Observable,12.0,12.0,29.50,999.6,,,,0,0,0,,,,,,,,,4/8 Partly Cloudy,72000.0,,SCT,2200.0,SCT,4000.0,SCT,6900.0,,
KRDR,06-15-2001,10:14,SPECI,,270,10.0,,,9999,Cloud Development Not Observable,12.0,12.0,29.50,,,,,0,0,0,,,,,,,,,7/8 Mostly Cloudy,3000.0,,SCT,1200.0,BKN,3000.0,BKN,6900.0,,
KRDR,06-15-2001,10:00,METAR,,280,15.0,,,9999,Rain/Cloud Development Not Observable,13.0,13.0,29.50,999.5,,,,61,0,0,,,,,,,,,8/8 Overcast,3000.0,,FEW,1500.0,BKN,3000.0,OVC,5900.0,,
KRDR,06-15-2001,09:00,METAR,,250,11.0,,,4800,Light Rain Showers/Mist/Cloud Development Not Observable,13.0,13.0,29.48,998.9,,,,80,10,0,,,,,,,,,8/8 Overcast,3000.0,,FEW,1500.0,OVC,3000.0,,,,
KRDR,06-15-2001,08:00,METAR,,220,9.0,,,9999,Rain/Cloud Development Not Observable,14.0,14.0,29.49,998.9,,,,61,0,0,,,,,,,,,7/8 Mostly Cloudy,3000.0,,BKN,3000.0,BKN,4500.0,BKN,6900.0,,
KRDR,06-15-2001,07:42,SPECI,,220,8.0,,,9999,Cloud Development Not Observable,14.0,14.0,29.49,,,,,0,0,0,,,,,,,,,7/8 Mostly Cloudy,3000.0,,BKN,3000.0,BKN,4500.0,BKN,6900.0,,
KRDR,06-15-2001,07:00,METAR,,230,8.0,,,9999,Cloud Development Not Observable,14.0,14.0,29.48,998.7,,,,0,0,0,,,,,,,,,7/8 Mostly Cloudy,2800.0,,BKN,2800.0,BKN,4500.0,BKN,6900.0,,
KRDR,06-15-2001,06:00,METAR,,240,8.0,,,9999,Cloud Development Not Observable,13.0,13.0,29.48,998.9,,,,0,0,0,,,,,,,,,7/8 Mostly Cloudy,2000.0,,BKN,2000.0,BKN,4500.0,BKN,8400.0,,
KRDR,06-15-2001,05:32,SPECI,,210,8.0,,,9999,Cloud Development Not Observable,13.0,13.0,29.49,,,,,0,0,0,,,,,,,,,7/8 Mostly Cloudy,2000.0,,BKN,2000.0,BKN,4500.0,BKN,8400.0,,
KRDR,06-15-2001,05:00,METAR,,240,7.0,,,9999,Cloud Development Not Observable,12.0,12.0,29.49,999.2,,,,0,0,0,,,,,,,,,7/8 Mostly Cloudy,7000.0,,SCT,3500.0,BKN,6900.0,,,,
KRDR,06-15-2001,04:00,METAR,,250,5.0,,,9999,Cloud Development Not Observable,14.0,14.0,29.49,999.3,,,,0,0,0,,,,,,,,,7/8 Mostly Cloudy,3400.0,,BKN,3500.0,BKN,6900.0,,,,
KRDR,06-15-2001,03:42,SPECI,,250,5.0,,,9999,Cloud Development Not Observable,14.0,14.0,29.49,,,,,0,0,0,,,,,,,,,7/8 Mostly Cloudy,3400.0,,BKN,3500.0,BKN,6900.0,,,,
KRDR,06-15-2001,03:00,METAR,,240,7.0,,,9999,Cloud Development Not Observable,14.0,14.0,29.50,999.4,,,,0,0,0,,,,,,,,,8/8 Overcast,1700.0,,BKN,1700.0,BKN,2900.0,OVC,6900.0,,
KRDR,06-15-2001,02:29,SPECI,,230,9.0,,,9999,Cloud Development Not Observable,14.0,14.0,29.50,,,,,0,0,0,,,,,,,,,7/8 Mostly Cloudy,1500.0,,BKN,1500.0,BKN,3000.0,BKN,6900.0,,
KRDR,06-15-2001,02:00,METAR,,320,10.0,,,9999,Cloud Development Not Observable,14.0,14.0,29.44,998.7,,,,0,0,0,,,,,,,,,7/8 Mostly Cloudy,7000.0,,FEW,1200.0,SCT,4000.0,BKN,6900.0,BKN,20000.0
KRDR,06-15-2001,01:00,METAR,,270,8.0,,,9999,Cloud Development Not Observable,15.0,15.0,29.48,998.7,,,,0,0,0,,,,,,,,,7/8 Mostly Cloudy,7000.0,,SCT,1200.0,BKN,6900.0,BKN,25000.0,,
KRDR,06-15-2001,00:47,SPECI,,280,10.0,,,9999,Cloud Development Not Observable,15.0,15.0,29.47,,,,,0,0,0,,,,,,,,,7/8 Mostly Cloudy,8500.0,,SCT,1200.0,SCT,3500.0,BKN,8400.0,,
KRDR,06-15-2001,00:34,SPECI,,270,10.0,,,9999,Rain/Cloud Development Not Observable,15.0,15.0,29.47,,,,,61,0,0,,,,,,,,,7/8 Mostly Cloudy,7000.0,,FEW,800.0,SCT,3600.0,BKN,6900.0,,
KRDR,06-15-2001,00:00,METAR,,290,8.0,,,9999,Light Rain Showers/Cloud Development Not Observable,15.0,15.0,29.47,998.4,,,,80,0,0,,,,,,,,,7/8 Mostly Cloudy,700.0,,BKN,900.0,BKN,3600.0,BKN,6900.0,,
KRDR,06-14-2001,23:00,METAR,,280,11.0,,,9999,Light Rain Showers/Cloud Development Not Observable,15.0,15.0,29.45,997.9,,,,80,0,0,,,,,,,,,8/8 Overcast,800.0,,BKN,800.0,OVC,2700.0,,,,
KRDR,06-14-2001,22:34,SPECI,,260,10.0,,,8000,Light Rain Showers/Mist/Cloud Development Not Observable,15.0,15.0,29.46,,,,,80,10,0,,,,,,,,,8/8 Overcast,2400.0,,SCT,500.0,BKN,2400.0,OVC,3500.0,,
KRDR,06-14-2001,22:12,SPECI,,280,9.0,,,6400,Light Rain Showers/Mist/Cloud Development Not Observable,15.0,15.0,29.45,,,,,80,10,0,,,,,,,,,8/8 Overcast,3400.0,,SCT,500.0,OVC,3500.0,,,,
KRDR,06-14-2001,22:00,METAR,,280,11.0,,,3200,Light Rain Showers/Mist/Cloud Development Not Observable,15.0,15.0,29.46,998.0,,,,80,10,0,,,,,,,,,8/8 Overcast,500.0,,OVC,500.0,,,,,,
KRDR,06-14-2001,21:43,SPECI,,270,11.0,,,3200,Light Rain Showers/Mist/Cloud Development Not Observable,15.0,15.0,29.45,,,,,80,10,0,,,,,,,,,8/8 Overcast,500.0,,OVC,500.0,,,,,,
KRDR,06-14-2001,21:00,METAR,,310,7.0,,,4800,Drizzle/Mist/Cloud Development Not Observable,16.0,16.0,29.45,997.8,,,,51,10,0,,,,,,,,,8/8 Overcast,600.0,,OVC,800.0,,,,,,
KRDR,06-14-2001,20:36,SPECI,,330,6.0,,,6400,Light Rain Showers/Mist/Cloud Development Not Observable,16.0,16.0,29.45,,,,,80,10,0,,,,,,,,,8/8 Overcast,500.0,,OVC,600.0,,,,,,
KRDR,06-14-2001,20:00,METAR,,350,8.0,,,4000,Drizzle/Mist/Cloud Development Not Observable,16.0,16.0,29.47,998.5,,,,51,10,0,,,,,,,,,8/8 Overcast,600.0,,OVC,600.0,,,,,,
KRDR,06-14-2001,19:00,METAR,,350,10.0,,,6400,Drizzle/Cloud Development Not Observable,16.0,16.0,29.49,999.0,,,,51,0,0,,,,,,,,,8/8 Overcast,600.0,,OVC,600.0,,,,,,
KRDR,06-14-2001,18:45,METAR,,360,11.0,,,6400,Drizzle/Mist/Cloud Development Not Observable,16.0,16.0,29.48,,,,,51,10,0,,,,,,,,,8/8 Overcast,600.0,,OVC,600.0,,,,,,
KRDR,06-14-2001,18:13,SPECI,,360,14.0,,,4000,Drizzle/Mist/Cloud Development Not Observable,16.0,16.0,29.48,,,,,51,10,0,,,,,,,,,8/8 Overcast,600.0,,OVC,700.0,,,,,,
KRDR,06-14-2001,18:00,METAR,,360,13.0,,,8000,Drizzle/Mist/Cloud Development Not Observable,16.0,16.0,29.50,999.4,,,,51,10,0,,,,,,,,,8/8 Overcast,800.0,,OVC,800.0,,,,,,
KRDR,06-14-2001,17:19,SPECI,,360,13.0,,,6400,Drizzle/Mist/Cloud Development Not Observable,15.0,15.0,29.52,,,,,51,10,0,,,,,,,,,8/8 Overcast,700.0,,OVC,700.0,,,,,,
KRDR,06-14-2001,17:00,METAR,,350,13.0,,,9999,Cloud Development Not Observable,15.0,15.0,29.53,1000.3,,,,0,0,0,,,,,,,,,8/8 Overcast,700.0,,OVC,700.0,,,,,,
KRDR,06-14-2001,16:00,METAR,,360,14.0,,,4800,Mist/Cloud Development Not Observable,15.0,15.0,29.54,1000.6,,,,10,0,0,,,,,,,,,8/8 Overcast,700.0,,OVC,700.0,,,,,,
KRDR,06-14-2001,15:17,SPECI,,360,15.0,,,9999,Cloud Development Not Observable,14.0,14.0,29.56,,,,,0,0,0,,,,,,,,,8/8 Overcast,700.0,,OVC,700.0,,,,,,
KRDR,06-14-2001,15:00,METAR,,350,16.0,,,9999,Cloud Development Not Observable,14.0,14.0,29.54,1000.7,,,,0,0,0,,,,,,,,,8/8 Overcast,400.0,,OVC,400.0,,,,,,
KRDR,06-14-2001,14:00,METAR,,350,13.0,,,4800,Drizzle/Mist/Cloud Development Not Observable,14.0,14.0,29.55,1001.1,,,,51,10,0,,,,,,,,,8/8 Overcast,400.0,,OVC,400.0,,,,,,
KRDR,06-14-2001,13:30,METAR,,340,13.0,,,4800,Drizzle/Cloud Development Not Observable,13.0,13.0,29.56,,,,,51,0,0,,,,,,,,,8/8 Overcast,400.0,,OVC,400.0,,,,,,
KRDR,06-14-2001,13:00,METAR,,360,12.0,,,8000,Mist/Cloud Development Not Observable,13.0,13.0,29.57,1001.7,,,,10,0,0,,,,,,,,,8/8 Overcast,400.0,,OVC,400.0,,,,,,
KRDR,06-14-2001,12:00,METAR,,360,13.0,,,8000,Mist/Cloud Development Not Observable,13.0,13.0,29.56,1001.4,,,,10,0,0,,,,,,,,,8/8 Overcast,400.0,,OVC,400.0,,,,,,
KRDR,06-14-2001,11:24,SPECI,,360,10.0,,,8000,Mist/Cloud Development Not Observable,13.0,13.0,29.57,,,,,10,0,0,,,,,,,,,8/8 Overcast,400.0,,OVC,400.0,,,,,,
KRDR,06-14-2001,11:00,METAR,,350,16.0,,,8000,Drizzle/Mist/Cloud Development Not Observable,13.0,13.0,29.55,1001.2,,,,51,10,0,,,,,,,,,8/8 Overcast,400.0,,OVC,400.0,,,,,,
KRDR,06-14-2001,10:25,METAR,,340,14.0,,,4800,Drizzle/Mist/Cloud Development Not Observable,13.0,13.0,29.55,,,,,51,10,0,,,,,,,,,8/8 Overcast,400.0,,OVC,400.0,,,,,,
KRDR,06-14-2001,10:00,METAR,,340,14.0,,,1600,Drizzle/Mist/Cloud Development Not Observable,13.0,13.0,29.56,1001.3,,,,51,10,0,,,,,,,,,8/8 Overcast,400.0,,OVC,400.0,,,,,,
KRDR,06-14-2001,09:44,SPECI,,340,14.0,,,1600,Drizzle/Mist/Cloud Development Not Observable,13.0,13.0,29.56,,,,,51,10,0,,,,,,,,,8/8 Overcast,400.0,,OVC,400.0,,,,,,
KRDR,06-14-2001,09:00,METAR,,340,11.0,,,3200,Drizzle/Mist/Cloud Development Not Observable,14.0,14.0,29.60,1002.8,,,,51,10,0,,,,,,,,,8/8 Overcast,400.0,,OVC,400.0,,,,,,
KRDR,06-14-2001,08:40,SPECI,,350,10.0,,,3200,Drizzle/Mist/Cloud Development Not Observable,14.0,14.0,29.60,,,,,51,10,0,,,,,,,,,8/8 Overcast,400.0,,OVC,400.0,,,,,,
KRDR,06-14-2001,08:00,METAR,,340,11.0,,,2000,Drizzle/Mist/Cloud Development Not Observable,14.0,14.0,29.59,1002.4,,,,51,10,0,,,,,,,,,8/8 Overcast,400.0,,OVC,400.0,,,,,,
KRDR,06-14-2001,07:35,SPECI,,340,11.0,,,6400,Drizzle/Mist/Cloud Development Not Observable,14.0,14.0,29.59,,,,,51,10,0,,,,,,,,,8/8 Overcast,400.0,,OVC,400.0,,,,,,
KRDR,06-14-2001,07:00,METAR,,350,13.0,,,6400,Mist/Cloud Development Not Observable,14.0,14.0,29.58,1002.0,,,,10,0,0,,,,,,,,,8/8 Overcast,200.0,,OVC,400.0,,,,,,
KRDR,06-14-2001,06:00,METAR,,360,10.0,,,9999,Cloud Development Not Observable,15.0,15.0,29.56,1001.6,,,,0,0,0,,,,,,,,,8/8 Overcast,400.0,,OVC,400.0,,,,,,
KRDR,06-14-2001,05:39,SPECI,,350,11.0,,,9999,Cloud Development Not Observable,15.0,15.0,29.56,,,,,0,0,0,,,,,,,,,8/8 Overcast,400.0,,OVC,400.0,,,,,,
KRDR,06-14-2001,05:00,METAR,,360,10.0,,,9999,Cloud Development Not Observable,15.0,15.0,29.59,1002.2,,,,0,0,0,,,,,,,,,8/8 Overcast,900.0,,OVC,900.0,,,,,,
KRDR,06-14-2001,04:18,SPECI,,350,12.0,,,9999,Cloud Development Not Observable,15.0,15.0,29.58,,,,,0,0,0,,,,,,,,,8/8 Overcast,900.0,,OVC,900.0,,,,,,
KRDR,06-14-2001,04:00,METAR,,360,12.0,,,9999,Light Rain Showers/Cloud Development Not Observable,15.0,15.0,29.59,1002.4,,,,80,0,0,,,,,,,,,8/8 Overcast,900.0,,OVC,900.0,,,,,,
KRDR,06-14-2001,03:00,METAR,,350,11.0,,,9999,Cloud Development Not Observable,15.0,15.0,29.60,1002.7,,,,0,0,0,,,,,,,,,8/8 Overcast,800.0,,BKN,800.0,OVC,2000.0,,,,
KRDR,06-14-2001,02:40,SPECI,,20,10.0,,,9999,Light Rain Showers/Cloud Development Not Observable,15.0,15.0,29.59,,,,,80,0,0,,,,,,,,,8/8 Overcast,1000.0,,BKN,1000.0,OVC,2500.0,,,,
KRDR,06-14-2001,02:00,METAR,,360,11.0,,,9999,Light Rain Showers/Cloud Development Not Observable,16.0,16.0,29.58,1002.2,,,,80,0,0,,,,,,,,,8/8 Overcast,1400.0,,BKN,1400.0,BKN,3000.0,OVC,6900.0,,
KRDR,06-14-2001,01:37,SPECI,,360,12.0,,,9999,Light Rain Showers/Cloud Development Not Observable,16.0,16.0,29.58,,,,,80,0,0,,,,,,,,,8/8 Overcast,1800.0,,FEW,1200.0,OVC,1800.0,,,,
KRDR,06-14-2001,01:00,METAR,,20,9.0,,,9999,Light Rain Showers/Cloud Development Not Observable,16.0,16.0,29.60,1002.9,,,,80,0,0,,,,,,,,,8/8 Overcast,1800.0,,FEW,1200.0,OVC,1800.0,,,,
KRDR,06-14-2001,00:22,SPECI,,30,11.0,,,9999,Light Rain Showers/Cloud Development Not Observable,17.0,16.0,29.60,,,,,80,0,0,,,,,,,,,8/8 Overcast,2400.0,,FEW,1200.0,BKN,2400.0,OVC,4500.0,,
KRDR,06-14-2001,00:00,METAR,,30,15.0,,,9999,Cloud Development Not Observable,17.0,16.0,29.59,1002.5,,,,0,0,0,,,,,,,,,8/8 Overcast,2400.0,,FEW,1200.0,OVC,2400.0,,,,
KRDR,06-13-2001,23:00,METAR,,10,17.0,,,9999,Cloud Development Not Observable,18.0,16.0,29.58,1002.2,,,,0,0,0,,,,,,,,,8/8 Overcast,2100.0,,BKN,2100.0,OVC,7900.0,,,,
KRDR,06-13-2001,22:00,METAR,,20,15.0,,,9999,Cloud Development Not Observable,20.0,16.0,29.61,1003.0,,,,0,0,0,,,,,,,,,8/8 Overcast,2400.0,,FEW,1500.0,BKN,2400.0,BKN,7900.0,OVC,25000.0
KRDR,06-13-2001,21:42,SPECI,,30,16.0,,,9999,Cloud Development Not Observable,20.0,16.0,29.61,,,,,0,0,0,,,,,,,,,7/8 Mostly Cloudy,8000.0,,FEW,1600.0,SCT,2300.0,BKN,7900.0,,
KRDR,06-13-2001,21:00,METAR,,10,12.0,,,9999,Cloud Development Not Observable,19.0,16.0,29.62,1003.5,,,,0,0,0,,,,,,,,,8/8 Overcast,2500.0,,SCT,1600.0,OVC,2500.0,,,,
KRDR,06-13-2001,20:00,METAR,,10,15.0,,,9999,Cloud Development Not Observable,19.0,16.0,29.61,1003.1,,,,0,0,0,,,,,,,,,8/8 Overcast,2300.0,,SCT,1600.0,OVC,2300.0,,,,
KRDR,06-13-2001,19:00,METAR,,360,12.0,,,9999,Cloud Development Not Observable,18.0,16.0,29.61,1003.2,,,,0,0,0,,,,,,,,,8/8 Overcast,2300.0,,BKN,2300.0,OVC,4000.0,,,,
KRDR,06-13-2001,18:00,METAR,,360,9.0,,,9999,Cloud Development Not Observable,16.0,15.0,29.64,1004.2,,,,0,0,0,,,,,,,,,8/8 Overcast,2100.0,,BKN,2100.0,OVC,4000.0,,,,
KRDR,06-13-2001,17:39,SPECI,,10,10.0,,,9999,Cloud Development Not Observable,16.0,15.0,29.64,,,,,0,0,0,,,,,,,,,8/8 Overcast,2100.0,,BKN,2100.0,OVC,4000.0,,,,
KRDR,06-13-2001,17:00,METAR,,360,13.0,,,9999,Cloud Development Not Observable,18.0,14.0,29.64,1004.0,,,,0,0,0,,,,,,,,,8/8 Overcast,3900.0,,FEW,2200.0,OVC,4000.0,,,,
KRDR,06-13-2001,16:00,METAR,,10,13.0,,,9999,Cloud Development Not Observable,16.0,13.0,29.62,1003.3,,,,0,0,0,,,,,,,,,8/8 Overcast,3900.0,,FEW,3000.0,OVC,4000.0,,,,
KRDR,06-13-2001,15:00,METAR,,10,15.0,,020/25KTS,9999,Cloud Development Not Observable,15.0,13.0,29.61,1003.0,,,,0,0,0,,,,,,,,,8/8 Overcast,3400.0,,BKN,3500.0,OVC,11000.0,,,,
KRDR,06-13-2001,14:02,SPECI,,20,16.0,,,9999,Cloud Development Not Observable,14.0,13.0,29.61,,,,,0,0,0,,,,,,,,,8/8 Overcast,3900.0,,FEW,3000.0,BKN,4000.0,OVC,11000.0,,
KRDR,06-13-2001,14:00,METAR,,30,12.0,,,9999,Light Rain Showers/Cloud Development Not Observable,14.0,14.0,29.62,1003.3,,,,80,0,0,,,,,,,,,8/8 Overcast,3900.0,,FEW,3000.0,OVC,4000.0,,,,
KRDR,06-13-2001,13:00,METAR,,10,11.0,,,9999,Light Rain Showers/Cloud Development Not Observable,13.0,13.0,29.67,1005.0,,,,80,0,0,,,,,,,,,8/8 Overcast,5500.0,,FEW,3000.0,OVC,5400.0,,,,
KRDR,06-13-2001,12:00,METAR,,20,11.0,,,9999,Light Rain Showers/Cloud Development Not Observable,13.0,13.0,29.67,1005.2,,,,80,0,0,,,,,,,,,8/8 Overcast,7000.0,,OVC,6900.0,,,,,,
KRDR,06-13-2001,11:00,METAR,,10,14.0,,,9999,Light Rain Showers/Cloud Development Not Observable,13.0,13.0,29.70,1006.0,,,,80,0,0,,,,,,,,,8/8 Overcast,8000.0,,OVC,7900.0,,,,,,
KRDR,06-13-2001,10:00,METAR,,10,14.0,,,9999,Rain Showers/Cloud Development Not Observable,13.0,13.0,29.69,1006.9,,,,81,0,0,,,,,,,,,8/8 Overcast,8000.0,,OVC,7900.0,,,,,,
KRDR,06-13-2001,09:00,METAR,,350,14.0,,,9999,Light Rain Showers/Cloud Development Not Observable,14.0,14.0,29.72,1007.0,,,,80,0,0,,,,,,,,,7/8 Mostly Cloudy,10000.0,,FEW,6900.0,BKN,9900.0,BKN,20000.0,,
KRDR,06-13-2001,08:00,METAR,,350,15.0,,,9999,Light Rain Showers/Cloud Development Not Observable,15.0,15.0,29.73,1007.0,,,,80,0,0,,,,,,,,,7/8 Mostly Cloudy,10000.0,,FEW,6900.0,BKN,9900.0,BKN,20000.0,,
KRDR,06-13-2001,07:00,METAR,,330,15.0,,,9999,Light Rain Showers/Cloud Development Not Observable,15.0,15.0,29.74,1007.4,,,,80,0,0,,,,,,,,,7/8 Mostly Cloudy,10000.0,,FEW,6900.0,BKN,9900.0,BKN,20000.0,,
KRDR,06-13-2001,06:28,SPECI,,310,14.0,,,9999,Cloud Development Not Observable,17.0,10.0,29.75,,,,,0,0,0,,,,,,,,,7/8 Mostly Cloudy,10000.0,,FEW,6900.0,BKN,9900.0,BKN,20000.0,,
KRDR,06-13-2001,06:00,METAR,,30,13.0,,,9999,Cloud Development Not Observable,17.0,10.0,29.71,1006.2,,,,0,0,0,,,,,,,,,7/8 Mostly Cloudy,10000.0,,FEW,6900.0,BKN,9900.0,BKN,20000.0,,
KRDR,06-13-2001,05:25,METAR,,30,13.0,,,9999,Cloud Development Not Observable,17.0,10.0,29.70,,,,,0,0,0,,,,,,,,,7/8 Mostly Cloudy,10000.0,,FEW,6900.0,BKN,9900.0,BKN,20000.0,,
KRDR,06-13-2001,05:00,METAR,,20,11.0,,,9999,Light Rain Showers/Cloud Development Not Observable,16.0,11.0,29.70,1005.9,,,,80,0,0,,,,,,,,,7/8 Mostly Cloudy,10000.0,,FEW,6900.0,BKN,9900.0,BKN,20000.0,,
KRDR,06-13-2001,04:00,METAR,,20,14.0,,,9999,Cloud Development Not Observable,18.0,11.0,29.73,1007.1,,,,0,0,0,,,,,,,,,7/8 Mostly Cloudy,10000.0,,FEW,6900.0,BKN,9900.0,BKN,20000.0,,
KRDR,06-13-2001,03:00,METAR,,10,13.0,,,9999,Cloud Development Not Observable,18.0,10.0,29.72,1006.6,,,,0,0,0,,,,,,,,,7/8 Mostly Cloudy,20000.0,,FEW,6900.0,SCT,9900.0,BKN,20000.0,,
KRDR,06-13-2001,02:00,METAR,,40,7.0,,,9999,Cloud Development Not Observable,21.0,8.0,29.74,1007.2,,,,0,0,0,,,,,,,,,7/8 Mostly Cloudy,10000.0,,FEW,6900.0,BKN,9900.0,BKN,20000.0,,
KRDR,06-13-2001,01:21,SPECI,,70,9.0,,,9999,Cloud Development Not Observable,21.0,8.0,29.72,,,,,0,0,0,,,,,,,,,8/8 Overcast,10000.0,,SCT,6900.0,BKN,9900.0,OVC,20000.0,,
KRDR,06-13-2001,01:00,METAR,,60,7.0,,,9999,Light Rain Showers/Cloud Development Not Observable,22.0,7.0,29.75,1007.5,,,,80,0,0,,,,,,,,,8/8 Overcast,10000.0,,SCT,6900.0,BKN,9900.0,OVC,20000.0,,
KRDR,06-13-2001,00:42,SPECI,,40,7.0,,,9999,Light Rain Showers/Cloud Development Not Observable,23.0,7.0,29.76,,,,,80,0,0,,,,,,,,,8/8 Overcast,10000.0,,SCT,6900.0,BKN,9900.0,OVC,20000.0,,
KRDR,06-13-2001,00:00,METAR,,80,4.0,,,9999,Cloud Development Not Observable,23.0,6.0,29.77,1008.5,,,,0,0,0,,,,,,,,,8/8 Overcast,11000.0,,FEW,6900.0,BKN,11000.0,OVC,20000.0,,
KRDR,06-12-2001,23:00,METAR,,100,7.0,,,9999,Cloud Development Not Observable,24.0,6.0,29.75,1007.8,,,,0,0,0,,,,,,,,,7/8 Mostly Cloudy,25000.0,,FEW,5000.0,SCT,9400.0,BKN,25000.0,,
KRDR,06-12-2001,22:00,METAR,,80,10.0,18.0,,9999,Cloud Development Not Observable,25.0,7.0,29.74,1007.3,,,,0,0,0,,,,,,,,,7/8 Mostly Cloudy,25000.0,,FEW,5000.0,FEW,9900.0,BKN,25000.0,,
KRDR,06-12-2001,21:00,METAR,,50,9.0,,,9999,Cloud Development Not Observable,24.0,6.0,29.74,1007.4,,,,0,0,0,,,,,,,,,4/8 Partly Cloudy,72000.0,,FEW,5000.0,SCT,9900.0,SCT,25000.0,,
KRDR,06-12-2001,20:00,METAR,,30,9.0,,,9999,Cloud Development Not Observable,23.0,7.0,29.76,1008.0,,,,0,0,0,,,,,,,,,4/8 Partly Cloudy,72000.0,,FEW,5000.0,FEW,9900.0,SCT,25000.0,,
KRDR,06-12-2001,19:00,METAR,,,5.0,,,9999,Cloud Development Not Observable,23.0,8.0,29.78,1008.7,,,,0,0,0,,,,,,,,,7/8 Mostly Cloudy,25000.0,,FEW,5000.0,SCT,9900.0,BKN,25000.0,,
KRDR,06-12-2001,18:00,METAR,,30,5.0,,,9999,Cloud Development Not Observable,20.0,11.0,29.79,1009.2,,,,0,0,0,,,,,,,,,7/8 Mostly Cloudy,10000.0,,FEW,5000.0,BKN,9900.0,BKN,25000.0,,
KRDR,06-12-2001,17:39,SPECI,,30,5.0,,,9999,Cloud Development Not Observable,20.0,12.0,29.78,,,,,0,0,0,,,,,,,,,7/8 Mostly Cloudy,10000.0,,FEW,5000.0,BKN,9900.0,BKN,25000.0,,
KRDR,06-12-2001,17:16,SPECI,,20,8.0,,,9999,Light Rain Showers/Cloud Development Not Observable,19.0,11.0,29.78,,,,,80,0,0,,,,,,,,,7/8 Mostly Cloudy,10000.0,,SCT,5000.0,BKN,9900.0,BKN,25000.0,,
KRDR,06-12-2001,17:00,METAR,,10,8.0,,,9999,Cloud Development Not Observable,20.0,11.0,29.77,1008.5,,,,0,0,0,,,,,,,,,8/8 Overcast,10000.0,,SCT,5000.0,BKN,9900.0,OVC,25000.0,,
KRDR,06-12-2001,16:13,SPECI,,30,8.0,,,9999,Cloud Development Not Observable,20.0,11.0,29.76,,,,,0,0,0,,,,,,,,,8/8 Overcast,10000.0,,BKN,9900.0,OVC,25000.0,,,,
KRDR,06-12-2001,16:00,METAR,,10,6.0,,,9999,Light Rain Showers/Cloud Development Not Observable,19.0,10.0,29.77,1008.5,,,,80,0,0,,,,,,,,,8/8 Overcast,10000.0,,BKN,9900.0,OVC,25000.0,,,,
KRDR,06-12-2001,15:44,SPECI,,360,5.0,,,9999,Cloud Development Not Observable,19.0,11.0,29.78,,,,,0,0,0,,,,,,,,,8/8 Overcast,10000.0,,BKN,9900.0,OVC,25000.0,,,,
KRDR,06-12-2001,15:22,SPECI,,30,5.0,,,9999,Light Rain Showers/Cloud Development Not Observable,18.0,11.0,29.79,,,,,80,0,0,,,,,,,,,8/8 Overcast,10000.0,,BKN,9900.0,OVC,25000.0,,,,
KRDR,06-12-2001,15:00,METAR,,340,5.0,,,9999,Cloud Development Not Observable,18.0,9.0,29.81,1009.8,,,,0,0,0,,,,,,,,,7/8 Mostly Cloudy,10000.0,,BKN,9900.0,BKN,25000.0,,,,
KRDR,06-12-2001,14:00,METAR,,280,6.0,,,9999,Cloud Development Not Observable,18.0,10.0,29.83,1010.4,,,,0,0,0,,,,,,,,,7/8 Mostly Cloudy,10000.0,,BKN,9900.0,BKN,25000.0,,,,
KRDR,06-12-2001,13:00,METAR,,300,6.0,,,9999,Cloud Development Not Observable,16.0,10.0,29.79,1009.1,,,,0,0,0,,,,,,,,,4/8 Partly Cloudy,72000.0,,FEW,9900.0,SCT,25000.0,,,,
KRDR,06-12-2001,12:00,METAR,,290,4.0,,,9999,Cloud Development Not Observable,13.0,11.0,29.76,1008.1,,,,0,0,0,,,,,,,,,2/8 Mostly Clear,72000.0,,FEW,9900.0,FEW,25000.0,,,,
KRDR,06-12-2001,11:00,METAR,,260,5.0,,,9999,Cloud Development Not Observable,11.0,10.0,29.74,1007.4,,,,0,0,0,,,,,,,,,2/8 Mostly Clear,72000.0,,FEW,25000.0,,,,,,
KRDR,06-12-2001,10:00,METAR,,280,7.0,,,9999,Cloud Development Not Observable,11.0,11.0,29.74,1007.4,,,,0,0,0,,,,,,,,,2/8 Mostly Clear,72000.0,,FEW,25000.0,,,,,,
KRDR,06-12-2001,09:00,METAR,,270,6.0,,,9999,Cloud Development Not Observable,12.0,10.0,29.74,1007.4,,,,0,0,0,,,,,,,,,2/8 Mostly Clear,72000.0,,FEW,25000.0,,,,,,
KRDR,06-12-2001,08:00,METAR,,280,6.0,,,9999,Cloud Development Not Observable,12.0,11.0,29.74,1007.3,,,,0,0,0,,,,,,,,,2/8 Mostly Clear,72000.0,,FEW,25000.0,,,,,,
KRDR,06-12-2001,07:00,METAR,,270,6.0,,,9999,Cloud Development Not Observable,13.0,12.0,29.74,1007.3,,,,0,0,0,,,,,,,,,2/8 Mostly Clear,72000.0,,FEW,25000.0,,,,,,
KRDR,06-12-2001,06:00,METAR,,270,6.0,,,9999,Cloud Development Not Observable,14.0,12.0,29.74,1007.4,,,,0,0,0,,,,,,,,,2/8 Mostly Clear,72000.0,,FEW,25000.0,,,,,,
KRDR,06-12-2001,05:00,METAR,,240,5.0,,,9999,Cloud Development Not Observable,15.0,12.0,29.74,1007.4,,,,0,0,0,,,,,,,,,2/8 Mostly Clear,72000.0,,FEW,25000.0,,,,,,
KRDR,06-12-2001,04:00,METAR,,260,8.0,,,9999,Cloud Development Not Observable,16.0,12.0,29.72,1006.7,,,,0,0,0,,,,,,,,,2/8 Mostly Clear,72000.0,,FEW,25000.0,,,,,,
KRDR,06-12-2001,03:00,METAR,,280,7.0,,,9999,Cloud Development Not Observable,16.0,12.0,29.70,1006.1,,,,0,0,0,,,,,,,,,2/8 Mostly Clear,72000.0,,FEW,25000.0,,,,,,
KRDR,06-12-2001,02:00,METAR,,280,8.0,,,9999,Cloud Development Not Observable,19.0,11.0,29.69,1005.7,,,,0,0,0,,,,,,,,,2/8 Mostly Clear,72000.0,,FEW,25000.0,,,,,,
KRDR,06-12-2001,01:00,METAR,,290,11.0,,,9999,Cloud Development Not Observable,22.0,10.0,29.69,1005.6,,,,0,0,0,,,,,,,,,2/8 Mostly Clear,72000.0,,FEW,6900.0,FEW,25000.0,,,,
KRDR,06-12-2001,00:00,METAR,,300,13.0,,,9999,Cloud Development Not Observable,23.0,10.0,29.68,1005.4,,,,0,0,0,,,,,,,,,2/8 Mostly Clear,72000.0,,FEW,3000.0,FEW,6900.0,FEW,25000.0,,
KRDR,06-11-2001,23:00,METAR,,320,12.0,,,9999,Cloud Development Not Observable,24.0,10.0,29.66,1004.6,,,,0,0,0,,,,,,,,,4/8 Partly Cloudy,72000.0,,FEW,3000.0,SCT,6900.0,SCT,25000.0,,
KRDR,06-11-2001,22:00,METAR,,310,13.0,,,9999,Cloud Development Not Observable,25.0,12.0,29.66,1004.4,,,,0,0,0,,,,,,,,,7/8 Mostly Cloudy,7000.0,,FEW,3000.0,BKN,6900.0,,,,
KRDR,06-11-2001,21:00,METAR,,300,15.0,22.0,310/25KTS,9999,Cloud Development Not Observable,24.0,12.0,29.66,1004.6,,,,0,0,0,,,,,,,,,4/8 Partly Cloudy,72000.0,,FEW,2800.0,SCT,7900.0,,,,
KRDR,06-11-2001,20:00,METAR,,310,11.0,,,9999,Cloud Development Not Observable,24.0,18.0,29.67,1004.8,,,,0,0,0,,,,,,,,,7/8 Mostly Cloudy,25000.0,,SCT,2800.0,BKN,25000.0,,,,
KRDR,06-11-2001,19:00,METAR,,300,16.0,,,9999,Cloud Development Not Observable,22.0,19.0,29.68,1005.2,,,,0,0,0,,,,,,,,,7/8 Mostly Cloudy,15000.0,,SCT,2000.0,BKN,15000.0,BKN,25000.0,,
KRDR,06-11-2001,18:00,METAR,,300,7.0,,,9999,Cloud Development Not Observable,18.0,18.0,29.65,1004.3,,,,0,0,0,,,,,,,,,7/8 Mostly Cloudy,15000.0,,FEW,4000.0,BKN,15000.0,BKN,25000.0,,
KRDR,06-11-2001,17:00,METAR,,310,5.0,,,9999,Cloud Development Not Observable,17.0,17.0,29.61,,,,,0,0,0,,,,,,,,,7/8 Mostly Cloudy,10000.0,,FEW,4000.0,BKN,9900.0,BKN,25000.0,,
KRDR,06-11-2001,16:38,SPECI,,300,6.0,,,9999,Cloud Development Not Observable,17.0,17.0,29.63,,,,,0,0,0,,,,,,,,,7/8 Mostly Cloudy,10000.0,,FEW,4000.0,BKN,9900.0,BKN,25000.0,,
KRDR,06-11-2001,16:00,METAR,,130,12.0,,,9999,Thunderstorm with Rain or Snow/Light Rain Showers/Cloud Development Not Observable,17.0,17.0,29.63,,,,,95,80,0,,,,,,,,,8/8 Overcast,3900.0,,BKN,4000.0,BKN,9900.0,OVC,25000.0,,
KRDR,06-11-2001,15:10,SPECI,,280,3.0,,,6400,Thunderstorm with Rain or Snow/Rain Showers/Cloud Development Not Observable,17.0,17.0,29.70,,,,,95,81,0,,,,,,,,,8/8 Overcast,10000.0,,SCT,4000.0,BKN,9900.0,OVC,25000.0,,
KRDR,06-11-2001,15:00,METAR,,340,11.0,,,9999,Light Rain Showers/Cloud Development Not Observable,17.0,17.0,29.69,,,,,80,0,0,,,,,,,,,8/8 Overcast,10000.0,,FEW,4000.0,BKN,9900.0,OVC,25000.0,,
KRDR,06-11-2001,14:00,METAR,,50,8.0,,,9999,Cloud Development Not Observable,17.0,17.0,29.63,,,,,0,0,0,,,,,,,,,8/8 Overcast,10000.0,,FEW,4000.0,BKN,9900.0,OVC,25000.0,,
KRDR,06-11-2001,13:38,SPECI,,30,10.0,,,9999,Cloud Development Not Observable,17.0,17.0,29.63,,,,,0,0,0,,,,,,,,,8/8 Overcast,10000.0,,FEW,4000.0,BKN,9900.0,OVC,25000.0,,
KRDR,06-11-2001,13:00,METAR,,,2.0,,,9999,Light Rain Showers/Cloud Development Not Observable,17.0,17.0,29.75,,,,,80,0,0,,,,,,,,,8/8 Overcast,3900.0,,OVC,4000.0,,,,,,
KRDR,06-11-2001,12:35,SPECI,,270,10.0,,,9999,Light Rain Showers/Cloud Development Not Observable,17.0,17.0,29.77,,,,,80,0,0,,,,,,,,,8/8 Overcast,4900.0,,BKN,5000.0,OVC,11000.0,,,,
KRDR,06-11-2001,12:13,SPECI,,290,5.0,,,9999,Light Rain Showers/Cloud Development Not Observable,18.0,17.0,29.73,,,,,80,0,0,,,,,,,,,8/8 Overcast,11000.0,,SCT,5900.0,BKN,11000.0,OVC,25000.0,,
KRDR,06-11-2001,12:00,METAR,,330,4.0,,,9999,Cloud Development Not Observable,18.0,17.0,29.72,1006.4,,,,0,0,0,,,,,,,,,8/8 Overcast,11000.0,,FEW,5900.0,BKN,11000.0,OVC,25000.0,,
KRDR,06-11-2001,11:00,METAR,,320,7.0,,,9999,Cloud Development Not Observable,19.0,17.0,29.70,1005.7,,,,0,0,0,,,,,,,,,8/8 Overcast,11000.0,,FEW,5900.0,BKN,11000.0,OVC,25000.0,,
KRDR,06-11-2001,10:00,METAR,,220,6.0,,,9999,Cloud Development Not Observable,20.0,18.0,29.63,1003.4,,,,0,0,0,,,,,,,,,7/8 Mostly Cloudy,25000.0,,SCT,9900.0,BKN,25000.0,,,,
KRDR,06-11-2001,09:00,METAR,,210,5.0,,,9999,Cloud Development Not Observable,19.0,18.0,29.63,1003.3,,,,0,0,0,,,,,,,,,7/8 Mostly Cloudy,25000.0,,BKN,25000.0,,,,,,
KRDR,06-11-2001,08:00,METAR,,170,5.0,,,9999,Cloud Development Not Observable,20.0,18.0,29.63,1003.3,,,,0,0,0,,,,,,,,,7/8 Mostly Cloudy,25000.0,,BKN,25000.0,,,,,,
KRDR,06-11-2001,07:00,METAR,,190,4.0,,,9999,Cloud Development Not Observable,18.0,18.0,29.64,1003.6,,,,0,0,0,,,,,,,,,7/8 Mostly Cloudy,25000.0,,BKN,25000.0,,,,,,
KRDR,06-11-2001,04:00,METAR,,210,5.0,,,9999,Cloud Development Not Observable,21.0,17.0,29.66,1004.5,,,,0,0,0,,,,,,,,,7/8 Mostly Cloudy,25000.0,,BKN,25000.0,,,,,,
KRDR,06-11-2001,00:00,METAR,,280,9.0,,,9999,Cloud Development Not Observable,28.0,14.0,29.65,1004.0,,,,0,0,0,,,,,,,,,4/8 Partly Cloudy,72000.0,,FEW,5000.0,SCT,25000.0,,,,
KRDR,06-10-2001,23:00,METAR,,270,8.0,,,9999,Cloud Development Not Observable,28.0,13.0,29.65,1004.1,,,,0,0,0,,,,,,,,,7/8 Mostly Cloudy,25000.0,,FEW,5000.0,BKN,25000.0,,,,
KRDR,06-10-2001,22:00,METAR,,270,9.0,,,9999,Cloud Development Not Observable,29.0,13.0,29.65,,,,,0,0,0,,,,,,,,,7/8 Mostly Cloudy,25000.0,,FEW,2500.0,FEW,5000.0,BKN,25000.0,,
KRDR,06-10-2001,21:00,METAR,,280,10.0,17.0,,9999,Cloud Development Not Observable,28.0,12.0,29.66,,,,,0,0,0,,,,,,,,,7/8 Mostly Cloudy,25000.0,,FEW,5000.0,BKN,25000.0,,,,
KRDR,06-10-2001,20:00,METAR,,280,9.0,,,9999,Cloud Development Not Observable,28.0,12.0,29.67,,,,,0,0,0,,,,,,,,,7/8 Mostly Cloudy,25000.0,,FEW,5000.0,BKN,25000.0,,,,
KRDR,06-10-2001,19:00,METAR,,270,7.0,,,9999,Cloud Development Not Observable,28.0,13.0,29.68,,,,,0,0,0,,,,,,,,,4/8 Partly Cloudy,72000.0,,FEW,5000.0,SCT,22000.0,,,,
KRDR,06-10-2001,18:00,METAR,,290,10.0,,,9999,Cloud Development Not Observable,27.0,13.0,29.68,,,,,0,0,0,,,,,,,,,2/8 Mostly Clear,72000.0,,FEW,5000.0,FEW,20000.0,,,,
KRDR,06-10-2001,17:00,METAR,,310,13.0,,,9999,Cloud Development Not Observable,26.0,14.0,29.68,,,,,0,0,0,,,,,,,,,2/8 Mostly Clear,72000.0,,FEW,5000.0,FEW,20000.0,,,,
KRDR,06-10-2001,16:00,METAR,,310,10.0,,,9999,Cloud Development Not Observable,25.0,16.0,29.68,1005.0,,,,0,0,0,,,,,,,,,2/8 Mostly Clear,72000.0,,FEW,20000.0,,,,,,
KRDR,06-10-2001,15:00,METAR,,310,8.0,,,9999,Cloud Development Not Observable,23.0,15.0,29.68,1005.1,,,,0,0,0,,,,,,,,,2/8 Mostly Clear,72000.0,,FEW,15000.0,,,,,,
KRDR,06-10-2001,14:00,METAR,,290,10.0,,,9999,Cloud Development Not Observable,21.0,15.0,29.68,1005.1,,,,0,0,0,,,,,,,,,2/8 Mostly Clear,72000.0,,FEW,15000.0,,,,,,
KRDR,06-10-2001,13:00,METAR,,290,10.0,,,9999,Cloud Development Not Observable,19.0,15.0,29.67,1004.8,,,,0,0,0,,,,,,,,,2/8 Mostly Clear,72000.0,,FEW,15000.0,,,,,,
KRDR,06-10-2001,12:00,METAR,,260,7.0,,,9999,Cloud Development Not Observable,16.0,16.0,29.66,1004.5,,,,0,0,0,,,,,,,,,2/8 Mostly Clear,72000.0,,FEW,15000.0,,,,,,
KRDR,06-10-2001,11:00,METAR,,260,6.0,,,9999,Cloud Development Not Observable,15.0,15.0,29.66,1004.4,,,,0,0,0,,,,,,,,,2/8 Mostly Clear,72000.0,,FEW,5900.0,FEW,15000.0,,,,
KRDR,06-10-2001,10:14,SPECI,,240,6.0,,,9999,Cloud Development Not Observable,15.0,15.0,29.66,,,,,0,0,0,,,,,,,,,2/8 Mostly Clear,72000.0,,FEW,5900.0,FEW,15000.0,,,,
KRDR,06-10-2001,02:00,METAR,,160,6.0,,,9999,Cloud Development Not Observable,24.0,11.0,29.72,,,,,0,0,0,,,,,,,,,7/8 Mostly Cloudy,12000.0,,BKN,12000.0,BKN,20000.0,,,,
KRDR,06-10-2001,01:00,METAR,,150,6.0,,,9999,Cloud Development Not Observable,26.0,11.0,29.72,,,,,0,0,0,,,,,,,,,7/8 Mostly Cloudy,20000.0,,FEW,5000.0,SCT,12000.0,BKN,20000.0,,
KRDR,06-10-2001,00:00,METAR,,170,8.0,,,9999,Cloud Development Not Observable,27.0,10.0,29.73,,,,,0,0,0,,,,,,,,,7/8 Mostly Cloudy,25000.0,,FEW,5000.0,SCT,12000.0,BKN,25000.0,,
KRDR,06-09-2001,23:00,METAR,,190,9.0,,,9999,Cloud Development Not Observable,29.0,9.0,29.74,,,,,0,0,0,,,,,,,,,7/8 Mostly Cloudy,25000.0,,FEW,5000.0,BKN,25000.0,,,,
KRDR,06-09-2001,22:00,METAR,,160,14.0,,,9999,Cloud Development Not Observable,30.0,11.0,29.77,,,,,0,0,0,,,,,,,,,7/8 Mostly Cloudy,25000.0,,SCT,5000.0,BKN,25000.0,,,,
KRDR,06-09-2001,21:00,METAR,,170,5.0,,,9999,Cloud Development Not Observable,30.0,8.0,29.78,,,,,0,0,0,,,,,,,,,7/8 Mostly Cloudy,22000.0,,SCT,5000.0,BKN,22000.0,,,,
KRDR,06-09-2001,20:00,METAR,,200,8.0,,,9999,Cloud Development Not Observable,29.0,8.0,29.80,,,,,0,0,0,,,,,,,,,7/8 Mostly Cloudy,20000.0,,SCT,5000.0,BKN,20000.0,,,,
KRDR,06-09-2001,18:00,METAR,,180,8.0,,,9999,Cloud Development Not Observable,28.0,9.0,29.83,,,,,0,0,0,,,,,,,,,7/8 Mostly Cloudy,25000.0,,SCT,5000.0,SCT,20000.0,BKN,25000.0,,
KRDR,06-09-2001,17:00,METAR,,160,7.0,,,9999,Cloud Development Not Observable,28.0,10.0,29.85,1011.0,,,,0,0,0,,,,,,,,,7/8 Mostly Cloudy,20000.0,,FEW,1500.0,FEW,5000.0,SCT,20000.0,BKN,25000.0
KRDR,06-09-2001,05:31,SPECI,,220,4.0,,,9999,Cloud Development Not Observable,15.0,11.0,29.91,,,,,0,0,0,,,,,,,,,4/8 Partly Cloudy,72000.0,,FEW,7900.0,SCT,25000.0,,,,
KRDR,06-09-2001,05:00,METAR,,290,3.0,,,9999,Cloud Development Not Observable,16.0,11.0,29.91,1012.9,,,,0,0,0,,,,,,,,,4/8 Partly Cloudy,72000.0,,FEW,7900.0,SCT,25000.0,,,,
KRDR,06-09-2001,03:00,METAR,,360,4.0,,,9999,Cloud Development Not Observable,17.0,11.0,29.90,1012.8,,,,0,0,0,,,,,,,,,4/8 Partly Cloudy,72000.0,,FEW,4000.0,SCT,25000.0,,,,
KRDR,06-09-2001,02:00,METAR,,250,5.0,,,9999,Cloud Development Not Observable,22.0,11.0,29.90,1012.6,,,,0,0,0,,,,,,,,,2/8 Mostly Clear,72000.0,,FEW,4000.0,,,,,,
KRDR,06-09-2001,00:00,METAR,,280,8.0,,,9999,Cloud Development Not Observable,26.0,8.0,29.91,1012.9,,,,0,0,0,,,,,,,,,4/8 Partly Cloudy,72000.0,,FEW,4000.0,SCT,7900.0,,,,
KRDR,06-08-2001,23:00,METAR,,270,7.0,,,9999,Cloud Development Not Observable,27.0,8.0,29.92,1013.3,,,,0,0,0,,,,,,,,,4/8 Partly Cloudy,72000.0,,FEW,4000.0,SCT,7900.0,,,,
KRDR,06-08-2001,22:00,METAR,,300,10.0,14.0,,9999,Cloud Development Not Observable,27.0,7.0,29.92,1013.5,,,,0,0,0,,,,,,,,,4/8 Partly Cloudy,72000.0,,FEW,4000.0,SCT,9900.0,SCT,25000.0,,
KRDR,06-08-2001,21:00,METAR,,280,11.0,20.0,,9999,Cloud Development Not Observable,27.0,9.0,29.95,1014.4,,,,0,0,0,,,,,,,,,4/8 Partly Cloudy,72000.0,,FEW,4000.0,SCT,9900.0,SCT,25000.0,,
KRDR,06-08-2001,20:00,METAR,,270,14.0,19.0,,9999,Cloud Development Not Observable,27.0,8.0,29.96,1014.7,,,,0,0,0,,,,,,,,,7/8 Mostly Cloudy,25000.0,,SCT,4000.0,SCT,9900.0,BKN,25000.0,,
KRDR,06-08-2001,19:00,METAR,,270,12.0,,,9999,Cloud Development Not Observable,27.0,8.0,29.96,1014.8,,,,0,0,0,,,,,,,,,4/8 Partly Cloudy,72000.0,,FEW,4000.0,FEW,9900.0,SCT,25000.0,,
KRDR,06-08-2001,17:55,METAR,,280,14.0,18.0,,9999,Cloud Development Not Observable,26.0,9.0,29.98,1015.4,,,,0,0,0,,,,,,,,,4/8 Partly Cloudy,72000.0,,SCT,4000.0,,,,,,
KRDR,06-08-2001,17:00,METAR,,250,12.0,,,9999,Cloud Development Not Observable,25.0,13.0,29.99,1015.8,,,,0,0,0,,,,,,,,,4/8 Partly Cloudy,72000.0,,FEW,3000.0,SCT,12000.0,,,,
KRDR,06-08-2001,16:00,METAR,,180,8.0,,,9999,Cloud Development Not Observable,24.0,13.0,29.99,1015.9,,,,0,0,0,,,,,,,,,2/8 Mostly Clear,72000.0,,FEW,12000.0,,,,,,
KRDR,06-08-2001,15:00,METAR,,,5.0,,,9999,Cloud Development Not Observable,21.0,15.0,30.02,1016.8,,,,0,0,0,,,,,,,,,7/8 Mostly Cloudy,20000.0,,FEW,5900.0,SCT,12000.0,BKN,20000.0,,
KRDR,06-08-2001,14:00,METAR,,,4.0,,,9999,Cloud Development Not Observable,18.0,14.0,30.04,1017.5,,,,0,0,0,,,,,,,,,7/8 Mostly Cloudy,12000.0,,FEW,5900.0,BKN,12000.0,BKN,20000.0,,
KRDR,06-08-2001,13:00,METAR,,190,6.0,,,9999,Cloud Development Not Observable,18.0,15.0,30.03,1017.3,,,,0,0,0,,,,,,,,,7/8 Mostly Cloudy,20000.0,,FEW,5900.0,SCT,12000.0,BKN,20000.0,,
KRDR,06-08-2001,12:00,METAR,,170,5.0,,,9999,Cloud Development Not Observable,15.0,14.0,30.03,1017.3,,,,0,0,0,,,,,,,,,7/8 Mostly Cloudy,20000.0,,SCT,12000.0,BKN,20000.0,,,,
KRDR,06-08-2001,11:00,METAR,,230,5.0,,,9999,Cloud Development Not Observable,12.0,12.0,30.04,1017.8,,,,0,0,0,,,,,,,,,4/8 Partly Cloudy,72000.0,,FEW,6900.0,SCT,15000.0,SCT,25000.0,,
KRDR,06-08-2001,10:00,METAR,,230,8.0,,,9999,Cloud Development Not Observable,12.0,12.0,30.05,1017.9,,,,0,0,0,,,,,,,,,4/8 Partly Cloudy,72000.0,,FEW,6900.0,SCT,15000.0,,,,
KRDR,06-08-2001,09:00,METAR,,230,7.0,,,9999,Cloud Development Not Observable,12.0,12.0,30.04,1017.8,,,,0,0,0,,,,,,,,,2/8 Mostly Clear,72000.0,,FEW,9900.0,,,,,,
KRDR,06-08-2001,08:00,METAR,,200,6.0,,,9999,Cloud Development Not Observable,13.0,13.0,30.05,1018.0,,,,0,0,0,,,,,,,,,2/8 Mostly Clear,72000.0,,FEW,9900.0,FEW,25000.0,,,,
KRDR,06-08-2001,07:00,METAR,,220,5.0,,,9999,Cloud Development Not Observable,13.0,13.0,30.05,1018.0,,,,0,0,0,,,,,,,,,2/8 Mostly Clear,72000.0,,FEW,9900.0,FEW,25000.0,,,,
KRDR,06-08-2001,06:00,METAR,,200,6.0,,,9999,Cloud Development Not Observable,14.0,13.0,30.05,1018.2,,,,0,0,0,,,,,,,,,2/8 Mostly Clear,72000.0,,FEW,6900.0,FEW,25000.0,,,,
KRDR,06-08-2001,05:00,METAR,,210,7.0,,,9999,Cloud Development Not Observable,14.0,13.0,30.05,1018.2,,,,0,0,0,,,,,,,,,Clear,72000.0,,,73000.0,,,,,,
KRDR,06-08-2001,04:00,METAR,,200,6.0,,,9999,Cloud Development Not Observable,14.0,13.0,30.05,1018.3,,,,0,0,0,,,,,,,,,2/8 Mostly Clear,72000.0,,FEW,6900.0,FEW,25000.0,,,,
KRDR,06-08-2001,03:00,METAR,,160,4.0,,,9999,Cloud Development Not Observable,19.0,13.0,30.05,1018.0,,,,0,0,0,,,,,,,,,4/8 Partly Cloudy,72000.0,,FEW,4500.0,FEW,6900.0,SCT,24000.0,,
KRDR,06-08-2001,02:00,METAR,,120,4.0,,,9999,Cloud Development Not Observable,21.0,13.0,30.04,1017.6,,,,0,0,0,,,,,,,,,7/8 Mostly Cloudy,25000.0,,FEW,4500.0,SCT,6900.0,BKN,25000.0,,
KRDR,06-08-2001,01:00,METAR,,220,4.0,,,9999,Cloud Development Not Observable,23.0,11.0,30.04,1017.6,,,,0,0,0,,,,,,,,,7/8 Mostly Cloudy,25000.0,,SCT,4500.0,SCT,7900.0,BKN,25000.0,,
KRDR,06-08-2001,00:00,METAR,,280,6.0,,,9999,Cloud Development Not Observable,23.0,11.0,30.04,1017.8,,,,0,0,0,,,,,,,,,7/8 Mostly Cloudy,20000.0,,SCT,4500.0,BKN,20000.0,,,,
KRDR,06-07-2001,23:00,METAR,,240,5.0,,,9999,Cloud Development Not Observable,24.0,10.0,30.05,1018.0,,,,0,0,0,,,,,,,,,4/8 Partly Cloudy,72000.0,,SCT,4500.0,,,,,,
KRDR,06-07-2001,22:00,METAR,,230,6.0,,,9999,Cloud Development Not Observable,24.0,10.0,30.05,1018.1,,,,0,0,0,,,,,,,,,4/8 Partly Cloudy,72000.0,,SCT,4500.0,,,,,,
KRDR,06-07-2001,21:00,METAR,,280,6.0,,,9999,Cloud Development Not Observable,23.0,11.0,30.07,1018.7,,,,0,0,0,,,,,,,,,4/8 Partly Cloudy,72000.0,,SCT,4500.0,,,,,,
KRDR,06-07-2001,20:00,METAR,,,5.0,,,9999,Cloud Development Not Observable,21.0,12.0,30.07,1018.8,,,,0,0,0,,,,,,,,,4/8 Partly Cloudy,72000.0,,SCT,4500.0,,,,,,
KRDR,06-07-2001,18:55,METAR,,,6.0,,,9999,Cloud Development Not Observable,21.0,14.0,30.09,1019.5,,,,0,0,0,,,,,,,,,4/8 Partly Cloudy,72000.0,,SCT,2500.0,,,,,,
KRDR,06-07-2001,18:00,METAR,,,5.0,,,9999,Cloud Development Not Observable,19.0,15.0,30.10,1019.7,,,,0,0,0,,,,,,,,,7/8 Mostly Cloudy,3400.0,,SCT,2500.0,BKN,3500.0,,,,
KRDR,06-07-2001,17:00,METAR,,,5.0,,,9999,Cloud Development Not Observable,19.0,16.0,30.10,1019.8,,,,0,0,0,,,,,,,,,4/8 Partly Cloudy,72000.0,,SCT,2300.0,,,,,,
KRDR,06-07-2001,16:00,METAR,,,6.0,,,9999,Cloud Development Not Observable,17.0,15.0,30.11,1020.2,,,,0,0,0,,,,,,,,,4/8 Partly Cloudy,72000.0,,SCT,1200.0,SCT,20000.0,,,,
KRDR,06-07-2001,15:40,SPECI,,,6.0,,,9999,Cloud Development Not Observable,17.0,16.0,30.11,,,,,0,0,0,,,,,,,,,4/8 Partly Cloudy,72000.0,,SCT,1200.0,,,,,,
KRDR,06-07-2001,15:31,SPECI,,,6.0,,,9999,Cloud Development Not Observable,17.0,16.0,30.11,,,,,0,0,0,,,,,,,,,7/8 Mostly Cloudy,1500.0,,BKN,1500.0,,,,,,
KRDR,06-07-2001,15:00,METAR,,210,6.0,,,9999,Mist/Cloud Development Not Observable,15.0,15.0,30.11,1020.3,,,,10,0,0,,,,,,,,,8/8 Overcast,800.0,,OVC,800.0,,,,,,
KRDR,06-07-2001,14:00,METAR,,210,5.0,,,4800,Mist/Cloud Development Not Observable,14.0,14.0,30.11,1020.1,,,,10,0,0,,,,,,,,,8/8 Overcast,400.0,,OVC,400.0,,,,,,
KRDR,06-07-2001,13:35,SPECI,,190,6.0,,,8000,Mist/Cloud Development Not Observable,14.0,14.0,30.10,,,,,10,0,0,,,,,,,,,8/8 Overcast,500.0,,OVC,500.0,,,,,,
KRDR,06-07-2001,13:12,SPECI,,170,5.0,,,8000,Mist/Cloud Development Not Observable,14.0,14.0,30.10,,,,,10,0,0,,,,,,,,,4/8 Partly Cloudy,72000.0,,SCT,600.0,SCT,11000.0,SCT,20000.0,,
KRDR,06-07-2001,13:00,METAR,,160,5.0,,,2400,Cloud Development Not Observable,13.0,13.0,30.10,1019.8,,,,0,0,0,,,,,,,,,4/8 Partly Cloudy,72000.0,,FEW,100.0,FEW,11000.0,SCT,20000.0,,
KRDR,06-07-2001,12:00,METAR,,,3.0,,,0,Fog or Ice Fog/Cloud Development Not Observable,11.0,11.0,30.08,1019.3,,,,45,0,0,,,,,,,,,Sky Obscured (Unable to Estimate),0.0,100.0,,0.0,,,,,,
KRDR,06-07-2001,11:31,SPECI,,230,2.0,,,200,Fog or Ice Fog/Cloud Development Not Observable,10.0,10.0,30.08,,,,,45,0,0,,,,,,,,,Sky Obscured (Unable to Estimate),0.0,100.0,,0.0,,,,,,
KRDR,06-07-2001,11:18,SPECI,,,2.0,,,0,Fog or Ice Fog/Cloud Development Not Observable,10.0,10.0,30.08,,,,,45,0,0,,,,,,,,,Sky Obscured (Unable to Estimate),0.0,100.0,,0.0,,,,,,
KRDR,06-07-2001,11:00,METAR,,270,3.0,,,200,Fog or Ice Fog/Cloud Development Not Observable,10.0,10.0,30.08,1019.3,,,,45,0,0,,,,,,,,,Sky Obscured (Unable to Estimate),0.0,100.0,,0.0,,,,,,
KRDR,06-07-2001,10:31,SPECI,,,2.0,,,0,Fog or Ice Fog/Cloud Development Not Observable,11.0,11.0,30.08,,,,,45,0,0,,,,,,,,,Sky Obscured (Unable to Estimate),0.0,100.0,,0.0,,,,,,
KRDR,06-07-2001,10:15,SPECI,,,2.0,,,600,Fog or Ice Fog/Cloud Development Not Observable,12.0,12.0,30.08,,,,,44,0,0,,,,,,,,,7/8 Mostly Cloudy,1000.0,,FEW,100.0,BKN,1000.0,BKN,7900.0,,
KRDR,06-07-2001,10:00,METAR,,,2.0,,,1600,Mist/Cloud Development Not Observable,12.0,12.0,30.08,1019.3,,,,10,0,0,,,,,,,,,7/8 Mostly Cloudy,8000.0,,FEW,100.0,SCT,1000.0,BKN,7900.0,,
KRDR,06-07-2001,09:21,SPECI,,,3.0,,,6000,Mist/Cloud Development Not Observable,12.0,12.0,30.08,,,,,10,0,0,,,,,,,,,7/8 Mostly Cloudy,1000.0,,SCT,100.0,BKN,1000.0,,,,
KRDR,06-07-2001,09:00,METAR,,,1.0,,,1600,Mist/Cloud Development Not Observable,12.0,12.0,30.08,1019.3,,,,10,0,0,,,,,,,,,7/8 Mostly Cloudy,1000.0,,FEW,100.0,BKN,1000.0,BKN,5900.0,,
KRDR,06-07-2001,08:38,SPECI,,250,2.0,,,5800,Mist/Cloud Development Not Observable,12.0,12.0,30.08,,,,,10,0,0,,,,,,,,,7/8 Mostly Cloudy,1000.0,,FEW,100.0,BKN,1000.0,,,,
KRDR,06-07-2001,08:00,METAR,,,1.0,,,5800,Mist/Cloud Development Not Observable,12.0,12.0,30.08,1019.2,,,,10,0,0,,,,,,,,,7/8 Mostly Cloudy,4900.0,,SCT,100.0,BKN,5000.0,BKN,7900.0,,
KRDR,06-07-2001,07:40,SPECI,,,2.0,,,1000,Mist/Cloud Development Not Observable,12.0,12.0,30.08,,,,,10,0,0,,,,,,,,,7/8 Mostly Cloudy,5500.0,,SCT,100.0,BKN,5400.0,,,,
KRDR,06-07-2001,07:18,SPECI,,,2.0,,,800,Fog or Ice Fog/Cloud Development Not Observable,12.0,12.0,30.08,,,,,44,0,0,,,,,,,,,7/8 Mostly Cloudy,100.0,,BKN,100.0,BKN,5400.0,,,,
KRDR,06-07-2001,07:00,METAR,,,2.0,,,300,Fog or Ice Fog/Cloud Development Not Observable,12.0,12.0,30.08,1019.2,,,,44,0,0,,,,,,,,,8/8 Overcast,100.0,,BKN,100.0,BKN,5000.0,OVC,6900.0,,
KRDR,06-07-2001,06:00,METAR,,,1.0,,,300,Fog or Ice Fog/Cloud Development Not Observable,12.0,12.0,30.08,1019.0,,,,45,0,0,,,,,,,,,Sky Obscured (Unable to Estimate),0.0,100.0,,0.0,,,,,,
KRDR,06-07-2001,05:16,SPECI,,240,1.0,,,300,Fog or Ice Fog/Cloud Development Not Observable,12.0,12.0,30.08,,,,,45,0,0,,,,,,,,,Sky Obscured (Unable to Estimate),0.0,100.0,,0.0,,,,,,
KRDR,06-07-2001,05:00,METAR,Normal,360,0.0,,,8900,Fog or Ice Fog/Cloud Development Not Observable,13.0,13.0,30.07,1018.8,,,,44,0,0,,,,,,,,,8/8 Overcast,500.0,,SCT,100.0,BKN,500.0,OVC,6900.0,,
KRDR,06-07-2001,04:45,METAR,,,1.0,,,8900,Fog or Ice Fog/Cloud Development Not Observable,13.0,13.0,30.07,,,,,44,0,0,,,,,,,,,7/8 Mostly Cloudy,500.0,,SCT,100.0,BKN,500.0,BKN,6900.0,,
KRDR,06-07-2001,04:00,METAR,,110,4.0,,,9999,Cloud Development Not Observable,13.0,13.0,30.06,1018.7,,,,0,0,0,,,,,,,,,7/8 Mostly Cloudy,7000.0,,FEW,2000.0,BKN,6900.0,BKN,20000.0,,
KRDR,06-07-2001,03:26,SPECI,,100,3.0,,,9999,Cloud Development Not Observable,14.0,14.0,30.07,,,,,0,0,0,,,,,,,,,7/8 Mostly Cloudy,7000.0,,FEW,1200.0,BKN,6900.0,BKN,20000.0,,
KRDR,06-07-2001,03:00,METAR,,90,3.0,,,9999,Rain/Cloud Development Not Observable,14.0,14.0,30.06,1018.6,,,,61,0,0,,,,,,,,,7/8 Mostly Cloudy,7000.0,,FEW,3000.0,BKN,6900.0,BKN,20000.0,,
KRDR,06-07-2001,02:00,METAR,,,2.0,,,9999,Light Rain Showers/Cloud Development Not Observable,14.0,14.0,30.06,1018.7,,,,80,0,0,,,,,,,,,8/8 Overcast,7000.0,,FEW,3000.0,BKN,6900.0,OVC,20000.0,,
KRDR,06-07-2001,01:00,METAR,,220,3.0,,,9999,Light Rain Showers/Cloud Development Not Observable,14.0,14.0,30.07,1018.9,,,,80,0,0,,,,,,,,,8/8 Overcast,7000.0,,SCT,3500.0,OVC,6900.0,,,,
KRDR,06-07-2001,00:00,METAR,,280,2.0,,,9999,Light Rain Showers/Cloud Development Not Observable,14.0,14.0,30.05,1018.2,,,,80,0,0,,,,,,,,,8/8 Overcast,8000.0,,SCT,4000.0,OVC,7900.0,,,,
KRDR,06-06-2001,23:00,METAR,,220,5.0,,,8000,Light Rain Showers/Mist/Cloud Development Not Observable,14.0,14.0,30.05,1018.2,,,,80,10,0,,,,,,,,,8/8 Overcast,3900.0,,FEW,3000.0,BKN,4000.0,OVC,6900.0,,
KRDR,06-06-2001,22:00,METAR,,220,7.0,,,6400,Light Rain Showers/Mist/Cloud Development Not Observable,15.0,14.0,30.06,1018.6,,,,80,10,0,,,,,,,,,8/8 Overcast,3900.0,,FEW,3000.0,OVC,4000.0,,,,
KRDR,06-06-2001,21:00,METAR,,220,11.0,,,8000,Light Rain Showers/Mist/Cloud Development Not Observable,15.0,14.0,30.07,1018.9,,,,80,10,0,,,,,,,,,8/8 Overcast,3900.0,,OVC,4000.0,,,,,,
KRDR,06-06-2001,20:37,SPECI,,210,11.0,,,9999,Light Rain Showers/Cloud Development Not Observable,17.0,12.0,30.07,,,,,80,0,0,,,,,,,,,8/8 Overcast,3900.0,,OVC,4000.0,,,,,,
KRDR,06-06-2001,20:00,METAR,,160,7.0,,,9999,Cloud Development Not Observable,18.0,11.0,30.06,1018.5,,,,0,0,0,,,,,,,,,8/8 Overcast,3900.0,,OVC,4000.0,,,,,,
KRDR,06-06-2001,19:00,METAR,,160,7.0,,,9999,Cloud Development Not Observable,19.0,11.0,30.06,1018.5,,,,0,0,0,,,,,,,,,8/8 Overcast,3400.0,,OVC,3500.0,,,,,,
KRDR,06-06-2001,18:00,METAR,,140,8.0,,,9999,Cloud Development Not Observable,18.0,11.0,30.06,1018.5,,,,0,0,0,,,,,,,,,8/8 Overcast,3500.0,,OVC,3600.0,,,,,,
KRDR,06-06-2001,17:00,METAR,,160,11.0,,,9999,Cloud Development Not Observable,17.0,11.0,30.04,1017.8,,,,0,0,0,,,,,,,,,8/8 Overcast,2700.0,,BKN,2700.0,OVC,4000.0,,,,
KRDR,06-06-2001,16:00,METAR,,160,9.0,16.0,,9999,Cloud Development Not Observable,16.0,11.0,30.05,1018.1,,,,0,0,0,,,,,,,,,7/8 Mostly Cloudy,2700.0,,BKN,2700.0,BKN,8900.0,BKN,20000.0,,
KRDR,06-06-2001,15:00,METAR,,140,14.0,,,9999,Cloud Development Not Observable,16.0,12.0,30.06,1018.5,,,,0,0,0,,,,,,,,,7/8 Mostly Cloudy,2500.0,,BKN,2500.0,BKN,8900.0,BKN,20000.0,,
KRDR,06-06-2001,14:00,METAR,,170,12.0,,,9999,Cloud Development Not Observable,14.0,12.0,30.08,1019.1,,,,0,0,0,,,,,,,,,7/8 Mostly Cloudy,2800.0,,BKN,2800.0,BKN,8900.0,BKN,20000.0,,
KRDR,06-06-2001,13:00,METAR,,180,9.0,,,9999,Cloud Development Not Observable,14.0,12.0,30.08,1019.1,,,,0,0,0,,,,,,,,,8/8 Overcast,2500.0,,BKN,2500.0,BKN,4000.0,OVC,20000.0,,
KRDR,06-06-2001,12:00,METAR,,140,6.0,,,9999,Cloud Development Not Observable,12.0,12.0,30.07,1018.9,,,,0,0,0,,,,,,,,,8/8 Overcast,2000.0,,BKN,2000.0,OVC,4000.0,,,,
KRDR,06-06-2001,11:00,METAR,,140,7.0,,,9999,Cloud Development Not Observable,12.0,11.0,30.07,1018.9,,,,0,0,0,,,,,,,,,8/8 Overcast,1800.0,,BKN,1800.0,OVC,4000.0,,,,
KRDR,06-06-2001,10:25,METAR,,140,6.0,,,9999,Cloud Development Not Observable,11.0,11.0,30.07,,,,,0,0,0,,,,,,,,,8/8 Overcast,1800.0,,OVC,1800.0,,,,,,
KRDR,06-06-2001,10:00,METAR,,140,7.0,,,9999,Cloud Development Not Observable,11.0,11.0,30.07,1018.9,,,,0,0,0,,,,,,,,,8/8 Overcast,1500.0,,FEW,700.0,OVC,1500.0,,,,
KRDR,06-06-2001,09:39,SPECI,,150,7.0,,,9999,Cloud Development Not Observable,11.0,11.0,30.06,,,,,0,0,0,,,,,,,,,8/8 Overcast,1500.0,,FEW,700.0,OVC,1500.0,,,,
KRDR,06-06-2001,09:00,METAR,,130,7.0,,,9999,Cloud Development Not Observable,11.0,11.0,30.06,1018.6,,,,0,0,0,,,,,,,,,8/8 Overcast,2000.0,,OVC,2000.0,,,,,,
KRDR,06-06-2001,08:30,METAR,,130,7.0,,,9999,Cloud Development Not Observable,11.0,11.0,30.06,,,,,0,0,0,,,,,,,,,8/8 Overcast,2000.0,,BKN,2000.0,OVC,4000.0,,,,
KRDR,06-06-2001,08:00,METAR,,140,5.0,,,9999,Cloud Development Not Observable,11.0,11.0,30.06,1018.6,,,,0,0,0,,,,,,,,,8/8 Overcast,3900.0,,SCT,2000.0,OVC,4000.0,,,,
KRDR,06-06-2001,07:00,METAR,,140,6.0,,,9999,Cloud Development Not Observable,11.0,10.0,30.05,1018.4,,,,0,0,0,,,,,,,,,7/8 Mostly Cloudy,7000.0,,FEW,2000.0,BKN,6900.0,BKN,25000.0,,
KRDR,06-06-2001,06:00,METAR,,130,5.0,,,9999,Cloud Development Not Observable,11.0,10.0,30.05,1018.4,,,,0,0,0,,,,,,,,,8/8 Overcast,25000.0,,SCT,4000.0,SCT,6900.0,OVC,25000.0,,
KRDR,06-06-2001,05:00,METAR,,130,6.0,,,9999,Cloud Development Not Observable,13.0,10.0,30.05,1018.4,,,,0,0,0,,,,,,,,,8/8 Overcast,3900.0,,BKN,4000.0,BKN,6900.0,OVC,20000.0,,
KRDR,06-06-2001,04:00,METAR,,150,6.0,,,9999,Cloud Development Not Observable,14.0,10.0,30.06,1018.5,,,,0,0,0,,,,,,,,,8/8 Overcast,4100.0,,OVC,4200.0,,,,,,
KRDR,06-06-2001,03:00,METAR,,150,6.0,,,9999,Cloud Development Not Observable,14.0,10.0,30.05,1018.4,,,,0,0,0,,,,,,,,,8/8 Overcast,4400.0,,BKN,4500.0,OVC,7900.0,,,,
KRDR,06-06-2001,02:00,METAR,,130,9.0,,,9999,Cloud Development Not Observable,14.0,10.0,30.04,1018.1,,,,0,0,0,,,,,,,,,8/8 Overcast,3900.0,,BKN,4000.0,OVC,7900.0,,,,
KRDR,06-06-2001,01:00,METAR,,150,10.0,,,9999,Cloud Development Not Observable,15.0,10.0,30.04,1018.1,,,,0,0,0,,,,,,,,,8/8 Overcast,4400.0,,FEW,2500.0,BKN,4500.0,OVC,7900.0,,
KRDR,06-06-2001,00:00,METAR,,130,8.0,,,9999,Cloud Development Not Observable,14.0,11.0,30.03,1017.8,,,,0,0,0,,,,,,,,,8/8 Overcast,4400.0,,FEW,2500.0,BKN,4500.0,OVC,7900.0,,
KRDR,06-05-2001,23:00,METAR,,140,11.0,,,9999,Light Rain Showers/Cloud Development Not Observable,14.0,11.0,30.04,1017.9,,,,80,0,0,,,,,,,,,8/8 Overcast,3900.0,,BKN,4000.0,OVC,5900.0,,,,
KRDR,06-05-2001,22:38,SPECI,,150,7.0,,,9999,Light Rain Showers/Cloud Development Not Observable,14.0,11.0,30.04,,,,,80,0,0,,,,,,,,,8/8 Overcast,3900.0,,BKN,4000.0,OVC,5900.0,,,,
KRDR,06-05-2001,22:00,METAR,,160,10.0,,,9999,Cloud Development Not Observable,16.0,9.0,30.04,1017.8,,,,0,0,0,,,,,,,,,8/8 Overcast,4400.0,,BKN,4500.0,OVC,9900.0,,,,
KRDR,06-05-2001,21:00,METAR,,150,12.0,,,9999,Cloud Development Not Observable,16.0,9.0,30.03,1017.7,,,,0,0,0,,,,,,,,,8/8 Overcast,4400.0,,BKN,4500.0,OVC,9900.0,,,,
KRDR,06-05-2001,20:00,METAR,,130,10.0,,,9999,Cloud Development Not Observable,16.0,9.0,30.04,1017.8,,,,0,0,0,,,,,,,,,8/8 Overcast,4900.0,,BKN,5000.0,OVC,12000.0,,,,
KRDR,06-05-2001,19:00,METAR,,160,10.0,16.0,,9999,Cloud Development Not Observable,16.0,9.0,30.04,1018.0,,,,0,0,0,,,,,,,,,8/8 Overcast,4900.0,,BKN,5000.0,OVC,12000.0,,,,
KRDR,06-05-2001,18:00,METAR,,130,10.0,,,9999,Cloud Development Not Observable,16.0,9.0,30.04,1018.0,,,,0,0,0,,,,,,,,,8/8 Overcast,4400.0,,BKN,4500.0,OVC,12000.0,,,,
KRDR,06-05-2001,17:00,METAR,,120,7.0,,,9999,Cloud Development Not Observable,15.0,8.0,30.04,1017.8,,,,0,0,0,,,,,,,,,8/8 Overcast,4400.0,,BKN,4500.0,OVC,12000.0,,,,
KRDR,06-05-2001,16:00,METAR,,120,7.0,,,9999,Cloud Development Not Observable,17.0,8.0,30.04,1007.5,,,,0,0,0,,,,,,,,,8/8 Overcast,5500.0,,BKN,5400.0,OVC,12000.0,,,,
KRDR,06-05-2001,15:00,METAR,,120,9.0,,,9999,Cloud Development Not Observable,13.0,6.0,30.04,1018.0,,,,0,0,0,,,,,,,,,8/8 Overcast,5500.0,,BKN,5400.0,BKN,14000.0,OVC,20000.0,,
KRDR,06-05-2001,14:00,METAR,,130,7.0,,,9999,Cloud Development Not Observable,13.0,6.0,30.03,1017.6,,,,0,0,0,,,,,,,,,8/8 Overcast,14000.0,,FEW,5000.0,BKN,14000.0,OVC,20000.0,,
KRDR,06-05-2001,13:00,METAR,,90,7.0,,,9999,Cloud Development Not Observable,12.0,5.0,30.03,1017.6,,,,0,0,0,,,,,,,,,8/8 Overcast,14000.0,,FEW,5000.0,BKN,14000.0,OVC,20000.0,,
KRDR,06-05-2001,12:00,METAR,,90,7.0,,,9999,Cloud Development Not Observable,11.0,6.0,30.03,1017.6,,,,0,0,0,,,,,,,,,8/8 Overcast,14000.0,,FEW,5000.0,BKN,14000.0,OVC,20000.0,,
KRDR,06-05-2001,11:00,METAR,,70,5.0,,,9999,Cloud Development Not Observable,12.0,5.0,30.01,1016.8,,,,0,0,0,,,,,,,,,8/8 Overcast,14000.0,,BKN,14000.0,OVC,20000.0,,,,
KRDR,06-05-2001,10:00,METAR,,90,5.0,,,9999,Cloud Development Not Observable,12.0,5.0,30.02,1017.0,,,,0,0,0,,,,,,,,,8/8 Overcast,14000.0,,BKN,14000.0,OVC,20000.0,,,,
KRDR,06-05-2001,09:00,METAR,,110,6.0,,,9999,Cloud Development Not Observable,12.0,6.0,30.02,1017.1,,,,0,0,0,,,,,,,,,8/8 Overcast,14000.0,,BKN,14000.0,OVC,20000.0,,,,
KRDR,06-05-2001,08:00,METAR,,120,6.0,,,9999,Cloud Development Not Observable,12.0,6.0,30.03,1017.5,,,,0,0,0,,,,,,,,,8/8 Overcast,14000.0,,BKN,14000.0,OVC,20000.0,,,,
KRDR,06-05-2001,07:00,METAR,,120,6.0,,,9999,Cloud Development Not Observable,12.0,6.0,30.05,1018.1,,,,0,0,0,,,,,,,,,8/8 Overcast,14000.0,,BKN,14000.0,OVC,20000.0,,,,
KRDR,06-05-2001,06:00,METAR,,60,6.0,,,9999,Cloud Development Not Observable,13.0,6.0,30.05,1018.2,,,,0,0,0,,,,,,,,,8/8 Overcast,20000.0,,SCT,14000.0,OVC,20000.0,,,,
KRDR,06-05-2001,05:00,METAR,,70,4.0,,,9999,Cloud Development Not Observable,14.0,6.0,30.04,1017.8,,,,0,0,0,,,,,,,,,7/8 Mostly Cloudy,20000.0,,FEW,14000.0,BKN,20000.0,,,,
KRDR,06-05-2001,04:00,METAR,,90,4.0,,,9999,Cloud Development Not Observable,15.0,6.0,30.04,1017.7,,,,0,0,0,,,,,,,,,7/8 Mostly Cloudy,20000.0,,FEW,14000.0,BKN,20000.0,,,,
KRDR,06-05-2001,03:00,METAR,,100,5.0,,,9999,Cloud Development Not Observable,16.0,5.0,30.03,1017.5,,,,0,0,0,,,,,,,,,7/8 Mostly Cloudy,20000.0,,FEW,14000.0,BKN,20000.0,,,,
KRDR,06-05-2001,02:00,METAR,,90,7.0,,,9999,Cloud Development Not Observable,18.0,5.0,30.02,1017.0,,,,0,0,0,,,,,,,,,7/8 Mostly Cloudy,20000.0,,FEW,16000.0,BKN,20000.0,,,,
KRDR,06-05-2001,01:00,METAR,,100,10.0,,,9999,Cloud Development Not Observable,19.0,4.0,30.02,1017.2,,,,0,0,0,,,,,,,,,7/8 Mostly Cloudy,20000.0,,FEW,4500.0,SCT,15000.0,BKN,20000.0,,
KRDR,06-05-2001,00:00,METAR,,110,12.0,,,9999,Cloud Development Not Observable,20.0,5.0,30.02,1017.3,,,,0,0,0,,,,,,,,,7/8 Mostly Cloudy,9000.0,,FEW,4500.0,BKN,8900.0,BKN,20000.0,,
KRDR,06-04-2001,23:00,METAR,,110,9.0,,,9999,Cloud Development Not Observable,20.0,6.0,30.03,1017.7,,,,0,0,0,,,,,,,,,7/8 Mostly Cloudy,9000.0,,SCT,4500.0,BKN,8900.0,BKN,20000.0,,
KRDR,06-04-2001,22:00,METAR,,110,11.0,,,9999,Cloud Development Not Observable,21.0,6.0,30.04,1017.9,,,,0,0,0,,,,,,,,,7/8 Mostly Cloudy,4400.0,,BKN,4500.0,BKN,8900.0,BKN,20000.0,,
KRDR,06-04-2001,21:00,METAR,,100,14.0,,,9999,Cloud Development Not Observable,22.0,5.0,30.04,1017.9,,,,0,0,0,,,,,,,,,7/8 Mostly Cloudy,9000.0,,SCT,4500.0,BKN,8900.0,BKN,20000.0,,
KRDR,06-04-2001,20:00,METAR,,90,10.0,,,9999,Cloud Development Not Observable,20.0,6.0,30.06,1018.5,,,,0,0,0,,,,,,,,,7/8 Mostly Cloudy,9000.0,,SCT,4000.0,BKN,8900.0,BKN,20000.0,,
KRDR,06-04-2001,19:00,METAR,,60,1.0,,,9999,Cloud Development Not Observable,19.0,8.0,30.08,1019.0,,,,0,0,0,,,,,,,,,7/8 Mostly Cloudy,3900.0,,BKN,4000.0,BKN,8900.0,BKN,20000.0,,
KRDR,06-04-2001,18:00,METAR,,120,5.0,,,9999,Cloud Development Not Observable,19.0,8.0,30.09,1019.3,,,,0,0,0,,,,,,,,,7/8 Mostly Cloudy,3900.0,,BKN,4000.0,BKN,8900.0,BKN,20000.0,,
KRDR,06-04-2001,17:00,METAR,,150,7.0,,,9999,Cloud Development Not Observable,20.0,9.0,30.09,1019.4,,,,0,0,0,,,,,,,,,7/8 Mostly Cloudy,20000.0,,FEW,3000.0,SCT,7900.0,BKN,20000.0,,
KRDR,06-04-2001,16:00,METAR,,140,7.0,,,9999,Cloud Development Not Observable,18.0,9.0,30.10,1019.7,,,,0,0,0,,,,,,,,,7/8 Mostly Cloudy,20000.0,,FEW,4000.0,SCT,7900.0,BKN,20000.0,,
KRDR,06-04-2001,15:00,METAR,,140,9.0,,,9999,Cloud Development Not Observable,16.0,9.0,30.10,1019.7,,,,0,0,0,,,,,,,,,7/8 Mostly Cloudy,7500.0,,BKN,7400.0,BKN,20000.0,,,,
KRDR,06-04-2001,14:00,METAR,,140,8.0,,,9999,Cloud Development Not Observable,15.0,9.0,30.10,1019.8,,,,0,0,0,,,,,,,,,7/8 Mostly Cloudy,9000.0,,BKN,8900.0,BKN,20000.0,,,,
KRDR,06-04-2001,13:00,METAR,,,5.0,,,9999,Cloud Development Not Observable,11.0,6.0,30.09,1019.4,,,,0,0,0,,,,,,,,,7/8 Mostly Cloudy,20000.0,,SCT,8900.0,BKN,20000.0,,,,
KRDR,06-04-2001,12:00,METAR,,330,4.0,,,9999,Cloud Development Not Observable,8.0,6.0,30.08,1019.1,,,,0,0,0,,,,,,,,,7/8 Mostly Cloudy,20000.0,,SCT,7400.0,BKN,20000.0,,,,
KRDR,06-04-2001,11:00,METAR,,330,5.0,,,9999,Cloud Development Not Observable,6.0,4.0,30.04,1018.1,,,,0,0,0,,,,,,,,,7/8 Mostly Cloudy,20000.0,,SCT,7400.0,BKN,20000.0,,,,
KRDR,06-04-2001,10:00,METAR,,350,5.0,,,9999,Cloud Development Not Observable,7.0,4.0,30.03,1017.5,,,,0,0,0,,,,,,,,,7/8 Mostly Cloudy,20000.0,,FEW,6900.0,BKN,20000.0,,,,
KRDR,06-04-2001,09:00,METAR,,20,4.0,,,9999,Cloud Development Not Observable,9.0,5.0,30.02,1017.2,,,,0,0,0,,,,,,,,,7/8 Mostly Cloudy,7500.0,,BKN,7400.0,BKN,25000.0,,,,
KRDR,06-04-2001,08:00,METAR,,70,7.0,,,9999,Cloud Development Not Observable,11.0,4.0,30.01,1016.7,,,,0,0,0,,,,,,,,,7/8 Mostly Cloudy,7000.0,,BKN,6900.0,BKN,25000.0,,,,
KRDR,06-04-2001,07:00,METAR,,70,7.0,,,9999,Cloud Development Not Observable,12.0,5.0,30.02,1017.1,,,,0,0,0,,,,,,,,,7/8 Mostly Cloudy,7000.0,,BKN,6900.0,BKN,12000.0,BKN,25000.0,,
KRDR,06-04-2001,06:00,METAR,,70,6.0,,,9999,Cloud Development Not Observable,12.0,5.0,30.02,1017.1,,,,0,0,0,,,,,,,,,7/8 Mostly Cloudy,25000.0,,FEW,6400.0,FEW,12000.0,BKN,25000.0,,
KRDR,06-04-2001,05:00,METAR,,70,8.0,,,9999,Cloud Development Not Observable,14.0,5.0,30.01,1016.9,,,,0,0,0,,,,,,,,,7/8 Mostly Cloudy,25000.0,,SCT,12000.0,BKN,25000.0,,,,
KRDR,06-04-2001,04:00,METAR,,60,6.0,,,9999,Cloud Development Not Observable,14.0,7.0,29.99,1016.2,,,,0,0,0,,,,,,,,,7/8 Mostly Cloudy,25000.0,,BKN,25000.0,,,,,,
KRDR,06-04-2001,03:00,METAR,,80,7.0,,,9999,Cloud Development Not Observable,15.0,6.0,29.99,1016.0,,,,0,0,0,,,,,,,,,7/8 Mostly Cloudy,20000.0,,BKN,20000.0,,,,,,
KRDR,06-04-2001,02:00,METAR,,80,7.0,,,9999,Cloud Development Not Observable,17.0,6.0,29.98,1015.7,,,,0,0,0,,,,,,,,,7/8 Mostly Cloudy,20000.0,,FEW,5900.0,BKN,20000.0,,,,
KRDR,06-04-2001,01:00,METAR,,80,10.0,,,9999,Cloud Development Not Observable,18.0,4.0,29.96,1015.0,,,,0,0,0,,,,,,,,,7/8 Mostly Cloudy,20000.0,,FEW,5900.0,BKN,20000.0,,,,
KRDR,06-04-2001,00:00,METAR,,80,8.0,,,9999,Cloud Development Not Observable,19.0,3.0,29.93,1014.0,,,,0,0,0,,,,,,,,,4/8 Partly Cloudy,72000.0,,FEW,5900.0,SCT,20000.0,,,,
KRDR,06-03-2001,23:00,METAR,,70,10.0,,,9999,Cloud Development Not Observable,20.0,4.0,29.95,,,,,0,0,0,,,,,,,,,4/8 Partly Cloudy,72000.0,,FEW,5900.0,SCT,20000.0,,,,
KRDR,06-03-2001,22:00,METAR,,70,9.0,,,9999,Cloud Development Not Observable,20.0,4.0,29.95,,,,,0,0,0,,,,,,,,,4/8 Partly Cloudy,72000.0,,SCT,5900.0,SCT,20000.0,,,,
KRDR,06-03-2001,21:00,METAR,,80,12.0,,,9999,Cloud Development Not Observable,21.0,8.0,29.94,,,,,0,0,0,,,,,,,,,4/8 Partly Cloudy,72000.0,,SCT,5000.0,SCT,20000.0,,,,
KRDR,06-03-2001,20:00,METAR,,70,11.0,,,9999,Cloud Development Not Observable,19.0,8.0,29.94,,,,,0,0,0,,,,,,,,,4/8 Partly Cloudy,72000.0,,SCT,5000.0,SCT,20000.0,,,,
KRDR,06-03-2001,19:00,METAR,,70,9.0,,,9999,Cloud Development Not Observable,18.0,9.0,29.95,,,,,0,0,0,,,,,,,,,7/8 Mostly Cloudy,10000.0,,SCT,5000.0,BKN,9900.0,,,,
KRDR,06-03-2001,18:00,METAR,,120,9.0,,,9999,Cloud Development Not Observable,18.0,10.0,29.96,,,,,0,0,0,,,,,,,,,7/8 Mostly Cloudy,4900.0,,BKN,5000.0,BKN,9900.0,,,,
KRDR,06-03-2001,17:00,METAR,,100,10.0,,,9999,Cloud Development Not Observable,17.0,9.0,29.96,,,,,0,0,0,,,,,,,,,7/8 Mostly Cloudy,3400.0,,BKN,3500.0,,,,,,
KRDR,06-03-2001,16:00,METAR,,100,11.0,,,9999,Cloud Development Not Observable,17.0,11.0,29.96,1015.0,,,,0,0,0,,,,,,,,,4/8 Partly Cloudy,72000.0,,SCT,4000.0,SCT,20000.0,,,,
KRDR,06-03-2001,15:00,METAR,,120,9.0,,,9999,Cloud Development Not Observable,15.0,11.0,29.97,1015.3,,,,0,0,0,,,,,,,,,7/8 Mostly Cloudy,20000.0,,SCT,4000.0,BKN,20000.0,,,,
KRDR,06-03-2001,14:00,METAR,,90,11.0,,,9999,Cloud Development Not Observable,14.0,9.0,29.97,1015.3,,,,0,0,0,,,,,,,,,4/8 Partly Cloudy,72000.0,,SCT,5000.0,SCT,20000.0,,,,
KRDR,06-03-2001,13:00,METAR,,90,9.0,,,9999,Cloud Development Not Observable,12.0,9.0,29.96,1015.1,,,,0,0,0,,,,,,,,,2/8 Mostly Clear,72000.0,,FEW,5900.0,,,,,,
KRDR,06-03-2001,12:00,METAR,,50,7.0,,,9999,Cloud Development Not Observable,9.0,8.0,29.95,1014.9,,,,0,0,0,,,,,,,,,2/8 Mostly Clear,72000.0,,FEW,5900.0,FEW,20000.0,,,,
KRDR,06-03-2001,11:10,SPECI,,50,8.0,,,9999,Cloud Development Not Observable,8.0,8.0,29.95,,,,,0,0,0,,,,,,,,,2/8 Mostly Clear,72000.0,,FEW,5900.0,FEW,20000.0,,,,
KRDR,06-03-2001,04:00,METAR,,80,9.0,,,9999,Cloud Development Not Observable,14.0,11.0,29.91,1013.4,,,,0,0,0,,,,,,,,,4/8 Partly Cloudy,72000.0,,FEW,5900.0,FEW,11000.0,SCT,20000.0,,
KRDR,06-03-2001,03:00,METAR,,70,7.0,,,9999,Cloud Development Not Observable,15.0,10.0,29.87,1012.2,,,,0,0,0,,,,,,,,,4/8 Partly Cloudy,72000.0,,FEW,5900.0,FEW,11000.0,SCT,20000.0,,
KRDR,06-03-2001,02:00,METAR,,80,9.0,,,9999,Cloud Development Not Observable,17.0,12.0,29.85,,,,,0,0,0,,,,,,,,,4/8 Partly Cloudy,72000.0,,FEW,5900.0,FEW,11000.0,SCT,20000.0,,
KRDR,06-03-2001,01:00,METAR,,40,13.0,18.0,,9999,Cloud Development Not Observable,18.0,11.0,29.84,,,,,0,0,0,,,,,,,,,7/8 Mostly Cloudy,11000.0,,SCT,5900.0,BKN,11000.0,BKN,20000.0,,
KRDR,06-03-2001,00:43,SPECI,,90,8.0,,,9999,Cloud Development Not Observable,13.0,10.0,29.92,,,,,0,0,0,,,,,,,,,4/8 Partly Cloudy,72000.0,,FEW,5900.0,FEW,11000.0,SCT,20000.0,,
KRDR,06-03-2001,00:00,METAR,,60,5.0,,,9999,Cloud Development Not Observable,20.0,8.0,29.83,,,,,0,0,0,,,,,,,,,4/8 Partly Cloudy,72000.0,,FEW,4000.0,SCT,11000.0,,,,
KRDR,06-02-2001,23:00,METAR,,20,9.0,,,9999,Cloud Development Not Observable,20.0,9.0,29.83,,,,,0,0,0,,,,,,,,,4/8 Partly Cloudy,72000.0,,SCT,3500.0,SCT,11000.0,,,,
KRDR,06-02-2001,22:00,METAR,,,6.0,,,9999,Cloud Development Not Observable,21.0,10.0,29.83,,,,,0,0,0,,,,,,,,,7/8 Mostly Cloudy,20000.0,,SCT,3500.0,SCT,11000.0,BKN,20000.0,,
KRDR,06-02-2001,21:00,METAR,,360,9.0,,,9999,Cloud Development Not Observable,19.0,11.0,29.84,,,,,0,0,0,,,,,,,,,7/8 Mostly Cloudy,11000.0,,SCT,3500.0,BKN,11000.0,BKN,20000.0,,
KRDR,06-02-2001,20:00,METAR,,10,10.0,,,9999,Cloud Development Not Observable,19.0,12.0,29.85,,,,,0,0,0,,,,,,,,,4/8 Partly Cloudy,72000.0,,SCT,3500.0,SCT,20000.0,,,,
KRDR,06-02-2001,19:00,METAR,,30,12.0,15.0,,9999,Cloud Development Not Observable,20.0,12.0,29.85,,,,,0,0,0,,,,,,,,,4/8 Partly Cloudy,72000.0,,SCT,3500.0,,,,,,
KRDR,06-02-2001,18:00,METAR,,360,10.0,18.0,,9999,Cloud Development Not Observable,19.0,11.0,29.85,,,,,0,0,0,,,,,,,,,4/8 Partly Cloudy,72000.0,,SCT,3000.0,,,,,,
KRDR,06-02-2001,17:00,METAR,,10,12.0,,,9999,Cloud Development Not Observable,18.0,11.0,29.86,,,,,0,0,0,,,,,,,,,2/8 Mostly Clear,72000.0,,FEW,4000.0,FEW,20000.0,,,,
KRDR,06-02-2001,16:00,METAR,,360,11.0,,,9999,Cloud Development Not Observable,17.0,11.0,29.87,1012.0,,,,0,0,0,,,,,,,,,2/8 Mostly Clear,72000.0,,FEW,4000.0,FEW,20000.0,,,,
KRDR,06-02-2001,15:00,METAR,,330,10.0,,,9999,Cloud Development Not Observable,15.0,11.0,29.87,1012.1,,,,0,0,0,,,,,,,,,2/8 Mostly Clear,72000.0,,FEW,4000.0,,,,,,
KRDR,06-02-2001,14:33,SPECI,,20,9.0,,,9999,Cloud Development Not Observable,15.0,11.0,29.87,,,,,0,0,0,,,,,,,,,2/8 Mostly Clear,72000.0,,FEW,4000.0,,,,,,
KRDR,06-02-2001,04:00,METAR,,350,13.0,,,9999,Cloud Development Not Observable,13.0,13.0,29.80,1009.7,,,,0,0,0,,,,,,,,,7/8 Mostly Cloudy,1700.0,,BKN,1700.0,BKN,7900.0,,,,
KRDR,06-02-2001,02:00,METAR,,330,12.0,,,9999,Cloud Development Not Observable,14.0,12.0,29.77,1008.6,,,,0,0,0,,,,,,,,,7/8 Mostly Cloudy,20000.0,,SCT,3500.0,SCT,7900.0,BKN,20000.0,,
KRDR,06-02-2001,01:00,METAR,,330,13.0,,350/25KTS,9999,Cloud Development Not Observable,14.0,12.0,29.75,1008.1,,,,0,0,0,,,,,,,,,7/8 Mostly Cloudy,8000.0,,FEW,3500.0,SCT,5400.0,BKN,7900.0,BKN,20000.0
KRDR,06-02-2001,00:00,METAR,,350,23.0,28.0,,9999,Cloud Development Not Observable,16.0,10.0,29.73,1007.4,,,,0,0,0,,,,,,,,,8/8 Overcast,4900.0,,FEW,3500.0,BKN,5000.0,BKN,7900.0,OVC,20000.0
KRDR,06-01-2001,23:00,METAR,,350,19.0,25.0,350/27KTS,9999,Cloud Development Not Observable,16.0,10.0,29.72,1007.0,,,,0,0,0,,,,,,,,,8/8 Overcast,7000.0,,SCT,4000.0,BKN,6900.0,OVC,20000.0,,
KRDR,06-01-2001,22:00,METAR,,360,21.0,26.0,350/27KTS,9999,Cloud Development Not Observable,16.0,8.0,29.70,1006.4,,,,0,0,0,,,,,,,,,8/8 Overcast,3900.0,,BKN,4000.0,BKN,7900.0,OVC,20000.0,,
KRDR,06-01-2001,21:00,METAR,,350,23.0,27.0,340/30KTS,9999,Cloud Development Not Observable,16.0,7.0,29.70,1006.2,,,,0,0,0,,,,,,,,,8/8 Overcast,6000.0,,SCT,4000.0,BKN,5900.0,BKN,9900.0,OVC,20000.0
KRDR,06-01-2001,20:00,METAR,,350,20.0,32.0,,9999,Cloud Development Not Observable,16.0,6.0,29.69,1006.1,,,,0,0,0,,,,,,,,,7/8 Mostly Cloudy,6000.0,,SCT,4000.0,BKN,5900.0,BKN,20000.0,,
KRDR,06-01-2001,19:00,METAR,,350,24.0,32.0,,9999,Cloud Development Not Observable,15.0,6.0,29.68,1005.8,,,,0,0,0,,,,,,,,,7/8 Mostly Cloudy,6500.0,,SCT,3000.0,BKN,6400.0,BKN,20000.0,,
KRDR,06-01-2001,18:00,METAR,,360,18.0,22.0,350/25KTS,9999,Cloud Development Not Observable,13.0,8.0,29.68,1005.8,,,,0,0,0,,,,,,,,,7/8 Mostly Cloudy,6500.0,,SCT,3000.0,BKN,6400.0,,,,
KRDR,06-01-2001,17:00,METAR,,360,14.0,25.0,,9999,Cloud Development Not Observable,15.0,8.0,29.67,1005.3,,,,0,0,0,,,,,,,,,7/8 Mostly Cloudy,8000.0,,SCT,3000.0,BKN,7900.0,BKN,20000.0,,
KRDR,06-01-2001,16:00,METAR,,20,13.0,21.0,,9999,Cloud Development Not Observable,13.0,9.0,29.67,1005.4,,,,0,0,0,,,,,,,,,8/8 Overcast,3000.0,,BKN,3000.0,OVC,6400.0,,,,
KRDR,06-01-2001,15:00,METAR,,360,12.0,,,9999,Cloud Development Not Observable,14.0,8.0,29.67,1005.3,,,,0,0,0,,,,,,,,,7/8 Mostly Cloudy,3000.0,,SCT,1200.0,BKN,3000.0,BKN,9900.0,BKN,20000.0
KRDR,06-01-2001,14:00,METAR,,350,12.0,,,9999,Cloud Development Not Observable,12.0,8.0,29.67,1005.3,,,,0,0,0,,,,,,,,,7/8 Mostly Cloudy,10000.0,,FEW,1200.0,SCT,4000.0,BKN,9900.0,BKN,20000.0
KRDR,06-01-2001,13:00,METAR,,330,9.0,,,9999,Cloud Development Not Observable,12.0,9.0,29.66,1004.9,,,,0,0,0,,,,,,,,,4/8 Partly Cloudy,72000.0,,FEW,4000.0,FEW,9900.0,SCT,20000.0,,
KRDR,06-01-2001,12:00,METAR,,320,9.0,,,9999,Cloud Development Not Observable,10.0,8.0,29.67,1005.3,,,,0,0,0,,,,,,,,,7/8 Mostly Cloudy,9500.0,,BKN,9400.0,BKN,20000.0,,,,
KRDR,06-01-2001,11:00,METAR,,280,7.0,,,9999,Cloud Development Not Observable,7.0,6.0,29.67,1005.5,,,,0,0,0,,,,,,,,,7/8 Mostly Cloudy,20000.0,,SCT,9900.0,BKN,20000.0,,,,
KRDR,06-01-2001,10:00,METAR,,290,6.0,,,9999,Cloud Development Not Observable,8.0,7.0,29.68,1005.9,,,,0,0,0,,,,,,,,,7/8 Mostly Cloudy,20000.0,,SCT,7900.0,BKN,20000.0,,,,
KRDR,06-01-2001,09:00,METAR,,290,5.0,,,9999,Cloud Development Not Observable,8.0,7.0,29.69,1006.1,,,,0,0,0,,,,,,,,,4/8 Partly Cloudy,72000.0,,SCT,6900.0,,,,,,
KRDR,06-01-2001,08:00,METAR,,280,7.0,,,9999,Cloud Development Not Observable,9.0,7.0,29.70,1006.1,,,,0,0,0,,,,,,,,,4/8 Partly Cloudy,72000.0,,SCT,6900.0,,,,,,
KRDR,06-01-2001,07:00,METAR,,310,10.0,,,9999,Cloud Development Not Observable,11.0,8.0,29.71,1006.3,,,,0,0,0,,,,,,,,,7/8 Mostly Cloudy,7000.0,,BKN,6900.0,,,,,,
KRDR,06-01-2001,06:00,METAR,,290,8.0,,,9999,Cloud Development Not Observable,12.0,11.0,29.72,1006.8,,,,0,0,0,,,,,,,,,7/8 Mostly Cloudy,8500.0,,FEW,4000.0,BKN,8400.0,,,,
KRDR,06-01-2001,05:00,METAR,,,3.0,,,9999,Cloud Development Not Observable,12.0,12.0,29.74,1007.4,,,,0,0,0,,,,,,,,,7/8 Mostly Cloudy,9000.0,,FEW,4000.0,BKN,8900.0,,,,
KRDR,06-01-2001,04:27,SPECI,,130,5.0,,,9999,Cloud Development Not Observable,13.0,12.0,29.74,,,,,0,0,0,,,,,,,,,7/8 Mostly Cloudy,8000.0,,SCT,4000.0,BKN,7900.0,,,,
KRDR,06-01-2001,04:00,METAR,,190,6.0,,,9999,Light Rain Showers/Cloud Development Not Observable,13.0,11.0,29.77,1008.7,,,,80,0,0,,,,,,,,,7/8 Mostly Cloudy,7500.0,,SCT,4500.0,BKN,7400.0,,,,
KRDR,06-01-2001,03:22,SPECI,,70,8.0,,,9999,Light Rain Showers/Cloud Development Not Observable,14.0,12.0,29.77,,,,,80,0,0,,,,,,,,,7/8 Mostly Cloudy,8500.0,,SCT,4500.0,BKN,8400.0,BKN,25000.0,,
KRDR,06-01-2001,03:00,METAR,,350,6.0,,,9999,Cloud Development Not Observable,15.0,13.0,29.78,1008.9,,,,0,0,0,,,,,,,,,7/8 Mostly Cloudy,9000.0,,FEW,5000.0,BKN,8900.0,BKN,25000.0,,
KRDR,06-01-2001,02:00,METAR,,320,5.0,,,9999,Cloud Development Not Observable,17.0,10.0,29.76,1008.2,,,,0,0,0,,,,,,,,,7/8 Mostly Cloudy,8500.0,,SCT,4000.0,BKN,8400.0,BKN,25000.0,,
KRDR,06-01-2001,01:00,METAR,,170,5.0,,,9999,Cloud Development Not Observable,18.0,13.0,29.75,1007.9,,,,0,0,0,,,,,,,,,7/8 Mostly Cloudy,9000.0,,SCT,4000.0,BKN,8900.0,BKN,25000.0,,
KRDR,06-01-2001,00:00,METAR,,190,9.0,,,9999,Cloud Development Not Observable,20.0,11.0,29.74,1007.5,,,,0,0,0,,,,,,,,,7/8 Mostly Cloudy,25000.0,,FEW,4000.0,SCT,8900.0,BKN,25000.0,,
KRDR,05-31-2001,23:00,METAR,,170,6.0,,,9999,Cloud Development Not Observable,18.0,12.0,29.75,1008.0,,,,0,0,0,,,,,,,,,7/8 Mostly Cloudy,11000.0,,SCT,4000.0,BKN,11000.0,BKN,25000.0,,
KRDR,05-31-2001,22:00,METAR,,140,6.0,,,9999,Cloud Development Not Observable,17.0,12.0,29.78,1008.9,,,,0,0,0,,,,,,,,,7/8 Mostly Cloudy,11000.0,,SCT,4000.0,BKN,11000.0,BKN,25000.0,,
KRDR,05-31-2001,21:12,SPECI,,120,7.0,,,9999,Cloud Development Not Observable,16.0,12.0,29.76,,,,,0,0,0,,,,,,,,,7/8 Mostly Cloudy,11000.0,,SCT,4000.0,BKN,11000.0,BKN,25000.0,,
KRDR,05-31-2001,21:00,METAR,,130,8.0,,,9999,Thunderstorm with Rain or Snow/Light Rain Showers/Cloud Development Not Observable,14.0,13.0,29.78,1009.1,,,,95,80,0,,,,,,,,,7/8 Mostly Cloudy,11000.0,,SCT,4000.0,BKN,11000.0,BKN,25000.0,,
KRDR,05-31-2001,20:08,SPECI,,250,16.0,26.0,,9999,Thunderstorm with Rain or Snow/Light Rain Showers/Cloud Development Not Observable,14.0,11.0,29.83,,,,,95,80,0,,,,,,,,,7/8 Mostly Cloudy,3900.0,,FEW,500.0,BKN,4000.0,BKN,12000.0,BKN,25000.0
KRDR,05-31-2001,20:02,SPECI,,250,18.0,29.0,,6400,Thunderstorm and Hail/Light Snow Pellets or Hail/Light Rain Showers,15.0,10.0,29.83,,,,,96,80,87,,,,,,,,,7/8 Mostly Cloudy,3900.0,,FEW,200.0,BKN,4000.0,BKN,12000.0,BKN,25000.0
KRDR,05-31-2001,20:00,METAR,,220,21.0,,,9999,Thunderstorm with Rain or Snow/Light Rain Showers/Cloud Development Not Observable,20.0,13.0,29.80,1009.6,,,,95,80,0,,,,,,,,,7/8 Mostly Cloudy,3900.0,,BKN,4000.0,BKN,12000.0,BKN,25000.0,,
KRDR,05-31-2001,19:45,METAR,,200,13.0,,,9999,Thunderstorm/Cloud Development Not Observable,21.0,11.0,29.80,,,,,17,0,0,,,,,,,,,7/8 Mostly Cloudy,3900.0,,BKN,4000.0,BKN,12000.0,BKN,25000.0,,
KRDR,05-31-2001,19:00,METAR,,200,17.0,,,9999,Cloud Development Not Observable,22.0,13.0,29.84,1010.8,,,,0,0,0,,,,,,,,,7/8 Mostly Cloudy,25000.0,,SCT,3000.0,SCT,12000.0,BKN,25000.0,,
KRDR,05-31-2001,18:00,METAR,,180,16.0,23.0,,9999,Cloud Development Not Observable,21.0,13.0,29.86,1011.5,,,,0,0,0,,,,,,,,,7/8 Mostly Cloudy,20000.0,,FEW,2000.0,BKN,20000.0,,,,
KRDR,05-31-2001,17:00,METAR,,180,13.0,,,9999,Cloud Development Not Observable,20.0,14.0,29.90,1012.8,,,,0,0,0,,,,,,,,,7/8 Mostly Cloudy,20000.0,,FEW,2000.0,BKN,20000.0,,,,
KRDR,05-31-2001,16:00,METAR,,190,10.0,,,9999,Cloud Development Not Observable,18.0,15.0,29.93,1014.1,,,,0,0,0,,,,,,,,,7/8 Mostly Cloudy,20000.0,,FEW,1500.0,BKN,20000.0,,,,
KRDR,05-31-2001,15:00,METAR,,190,13.0,,,9999,Cloud Development Not Observable,17.0,15.0,29.95,1014.8,,,,0,0,0,,,,,,,,,7/8 Mostly Cloudy,20000.0,,FEW,1000.0,BKN,20000.0,,,,
KRDR,05-31-2001,14:00,METAR,,190,12.0,,,9999,Cloud Development Not Observable,16.0,16.0,29.97,1015.5,,,,0,0,0,,,,,,,,,7/8 Mostly Cloudy,20000.0,,FEW,1000.0,BKN,20000.0,,,,
KRDR,05-31-2001,13:00,METAR,,190,6.0,,,6400,Mist/Cloud Development Not Observable,14.0,14.0,29.99,1016.1,,,,10,0,0,,,,,,,,,7/8 Mostly Cloudy,20000.0,,BKN,20000.0,,,,,,
KRDR,05-31-2001,12:00,METAR,,200,5.0,,,6400,Mist/Cloud Development Not Observable,13.0,13.0,30.00,1016.4,,,,10,0,0,,,,,,,,,4/8 Partly Cloudy,72000.0,,FEW,4000.0,SCT,20000.0,,,,
KRDR,05-31-2001,11:00,METAR,,170,6.0,,,6400,Mist/Cloud Development Not Observable,11.0,11.0,30.00,1016.7,,,,10,0,0,,,,,,,,,4/8 Partly Cloudy,72000.0,,FEW,12000.0,SCT,20000.0,,,,
KRDR,05-31-2001,10:00,METAR,,180,7.0,,,9999,Cloud Development Not Observable,11.0,11.0,30.01,1016.9,,,,0,0,0,,,,,,,,,4/8 Partly Cloudy,72000.0,,SCT,12000.0,,,,,,
KRDR,05-31-2001,09:00,METAR,,190,6.0,,,9999,Cloud Development Not Observable,12.0,12.0,30.03,1017.4,,,,0,0,0,,,,,,,,,4/8 Partly Cloudy,72000.0,,SCT,12000.0,,,,,,
KRDR,05-31-2001,08:00,METAR,,200,6.0,,,9999,Cloud Development Not Observable,12.0,12.0,30.04,1017.9,,,,0,0,0,,,,,,,,,4/8 Partly Cloudy,72000.0,,SCT,12000.0,,,,,,
KRDR,05-31-2001,07:00,METAR,,170,6.0,,,9999,Cloud Development Not Observable,13.0,13.0,30.06,1018.3,,,,0,0,0,,,,,,,,,7/8 Mostly Cloudy,12000.0,,BKN,12000.0,,,,,,
KRDR,05-31-2001,06:00,METAR,,180,5.0,,,9999,Cloud Development Not Observable,13.0,13.0,30.08,1019.1,,,,0,0,0,,,,,,,,,7/8 Mostly Cloudy,9000.0,,BKN,8900.0,,,,,,
KRDR,05-31-2001,05:00,METAR,,170,6.0,,,9999,Cloud Development Not Observable,13.0,13.0,30.09,1019.3,,,,0,0,0,,,,,,,,,7/8 Mostly Cloudy,9000.0,,BKN,8900.0,,,,,,
KRDR,05-31-2001,04:00,METAR,,170,4.0,,,9999,Cloud Development Not Observable,13.0,13.0,30.10,1019.7,,,,0,0,0,,,,,,,,,7/8 Mostly Cloudy,8000.0,,BKN,7900.0,,,,,,
KRDR,05-31-2001,03:00,METAR,,110,6.0,,,9999,Cloud Development Not Observable,14.0,14.0,30.09,1019.3,,,,0,0,0,,,,,,,,,7/8 Mostly Cloudy,8500.0,,SCT,5900.0,BKN,8400.0,,,,
KRDR,05-31-2001,02:00,METAR,,240,3.0,,,9999,Cloud Development Not Observable,14.0,14.0,30.10,1019.9,,,,0,0,0,,,,,,,,,7/8 Mostly Cloudy,9000.0,,SCT,5900.0,BKN,8900.0,,,,
KRDR,05-31-2001,01:00,METAR,,310,3.0,,,9999,Light Rain Showers/Cloud Development Not Observable,14.0,14.0,30.11,1020.1,,,,80,0,0,,,,,,,,,7/8 Mostly Cloudy,6000.0,,BKN,5900.0,BKN,8900.0,BKN,20000.0,,
KRDR,05-31-2001,00:35,SPECI,,330,6.0,,,9999,Light Rain Showers/Cloud Development Not Observable,14.0,13.0,30.11,,,,,80,0,0,,,,,,,,,7/8 Mostly Cloudy,6000.0,,BKN,5900.0,BKN,20000.0,,,,
KRDR,05-31-2001,00:00,METAR,,300,9.0,,,9999,Light Rain Showers/Cloud Development Not Observable,15.0,11.0,30.12,1020.6,,,,80,0,0,,,,,,,,,8/8 Overcast,9000.0,,SCT,5000.0,BKN,8900.0,OVC,20000.0,,
KRDR,05-30-2001,23:24,SPECI,,310,10.0,,,9999,Cloud Development Not Observable,16.0,10.0,30.13,,,,,0,0,0,,,,,,,,,8/8 Overcast,10000.0,,SCT,5000.0,BKN,9900.0,OVC,20000.0,,
KRDR,05-30-2001,23:00,METAR,,300,10.0,,,9999,Light Rain Showers/Cloud Development Not Observable,16.0,13.0,30.13,1020.8,,,,80,0,0,,,,,,,,,8/8 Overcast,4400.0,,BKN,4500.0,OVC,8900.0,,,,
KRDR,05-30-2001,22:42,SPECI,,300,10.0,,,9999,Light Rain Showers/Cloud Development Not Observable,16.0,12.0,30.13,,,,,80,0,0,,,,,,,,,8/8 Overcast,4400.0,,BKN,4500.0,OVC,8900.0,,,,
KRDR,05-30-2001,22:00,METAR,,310,12.0,,,9999,Cloud Development Not Observable,19.0,14.0,30.13,1020.7,,,,0,0,0,,,,,,,,,8/8 Overcast,4900.0,,FEW,3500.0,BKN,5000.0,OVC,8900.0,,
KRDR,05-30-2001,21:00,METAR,,290,9.0,,,9999,Cloud Development Not Observable,19.0,14.0,30.13,1020.9,,,,0,0,0,,,,,,,,,8/8 Overcast,4900.0,,FEW,3000.0,BKN,5000.0,OVC,12000.0,,
KRDR,05-30-2001,20:01,SPECI,,290,9.0,,,9999,Light Rain Showers/Cloud Development Not Observable,19.0,13.0,30.13,,,,,80,0,0,,,,,,,,,8/8 Overcast,4900.0,,FEW,3000.0,BKN,5000.0,OVC,12000.0,,
KRDR,05-30-2001,20:00,METAR,,280,9.0,,,9999,Light Rain Showers/Cloud Development Not Observable,19.0,13.0,30.13,1020.9,,,,80,0,0,,,,,,,,,8/8 Overcast,4900.0,,FEW,3000.0,BKN,5000.0,OVC,12000.0,,
KRDR,05-30-2001,19:47,SPECI,,290,9.0,,,9999,Light Rain Showers/Cloud Development Not Observable,19.0,13.0,30.13,,,,,80,0,0,,,,,,,,,8/8 Overcast,4900.0,,FEW,3000.0,BKN,5000.0,OVC,12000.0,,
KRDR,05-30-2001,19:00,METAR,,,4.0,,,9999,Cloud Development Not Observable,21.0,14.0,30.13,1020.9,,,,0,0,0,,,,,,,,,8/8 Overcast,4400.0,,BKN,4500.0,OVC,12000.0,,,,
KRDR,05-30-2001,18:00,METAR,,200,6.0,,,9999,Cloud Development Not Observable,20.0,13.0,30.14,1021.0,,,,0,0,0,,,,,,,,,8/8 Overcast,4900.0,,BKN,5000.0,OVC,12000.0,,,,
KRDR,05-30-2001,17:00,METAR,,200,8.0,,,9999,Light Rain Showers/Cloud Development Not Observable,18.0,13.0,30.15,1021.4,,,,80,0,0,,,,,,,,,7/8 Mostly Cloudy,4900.0,,BKN,5000.0,BKN,12000.0,,,,
KRDR,05-30-2001,16:42,SPECI,,190,8.0,,,9999,Light Rain Showers/Cloud Development Not Observable,18.0,12.0,30.15,,,,,80,0,0,,,,,,,,,7/8 Mostly Cloudy,4900.0,,BKN,5000.0,BKN,12000.0,,,,
KRDR,05-30-2001,16:00,METAR,,190,11.0,,,9999,Cloud Development Not Observable,18.0,11.0,30.14,1021.0,,,,0,0,0,,,,,,,,,7/8 Mostly Cloudy,6000.0,,BKN,5900.0,BKN,12000.0,,,,
KRDR,05-30-2001,15:00,METAR,,170,7.0,,,9999,Cloud Development Not Observable,18.0,11.0,30.14,1020.9,,,,0,0,0,,,,,,,,,7/8 Mostly Cloudy,9000.0,,BKN,8900.0,BKN,12000.0,BKN,25000.0,,
KRDR,05-30-2001,14:00,METAR,,180,9.0,,,9999,Cloud Development Not Observable,17.0,11.0,30.13,1020.7,,,,0,0,0,,,,,,,,,7/8 Mostly Cloudy,9000.0,,BKN,8900.0,BKN,12000.0,,,,
KRDR,05-30-2001,13:00,METAR,,180,12.0,,,9999,Cloud Development Not Observable,15.0,10.0,30.13,1020.7,,,,0,0,0,,,,,,,,,7/8 Mostly Cloudy,12000.0,,SCT,8900.0,BKN,12000.0,BKN,25000.0,,
KRDR,05-30-2001,12:00,METAR,,160,8.0,,,9999,Cloud Development Not Observable,13.0,9.0,30.12,1020.3,,,,0,0,0,,,,,,,,,4/8 Partly Cloudy,72000.0,,FEW,6900.0,SCT,25000.0,,,,
KRDR,05-30-2001,11:00,METAR,,160,6.0,,,9999,Cloud Development Not Observable,12.0,9.0,30.12,1020.3,,,,0,0,0,,,,,,,,,4/8 Partly Cloudy,72000.0,,SCT,6900.0,SCT,25000.0,,,,
KRDR,05-30-2001,10:00,METAR,,150,6.0,,,9999,Cloud Development Not Observable,13.0,10.0,30.12,1020.3,,,,0,0,0,,,,,,,,,4/8 Partly Cloudy,72000.0,,SCT,6400.0,SCT,25000.0,,,,
KRDR,05-30-2001,09:00,METAR,,180,4.0,,,9999,Cloud Development Not Observable,13.0,10.0,30.11,1020.1,,,,0,0,0,,,,,,,,,4/8 Partly Cloudy,72000.0,,SCT,6400.0,,,,,,
KRDR,05-30-2001,08:00,METAR,,150,7.0,,,9999,Cloud Development Not Observable,13.0,10.0,30.10,1019.7,,,,0,0,0,,,,,,,,,4/8 Partly Cloudy,72000.0,,SCT,5900.0,,,,,,
KRDR,05-30-2001,07:00,METAR,,150,5.0,,,9999,Cloud Development Not Observable,12.0,10.0,30.10,1019.8,,,,0,0,0,,,,,,,,,2/8 Mostly Clear,72000.0,,FEW,5900.0,FEW,25000.0,,,,
KRDR,05-30-2001,06:00,METAR,,120,6.0,,,9999,Cloud Development Not Observable,13.0,10.0,30.09,1019.4,,,,0,0,0,,,,,,,,,2/8 Mostly Clear,72000.0,,FEW,5900.0,,,,,,
KRDR,05-30-2001,05:00,METAR,,120,6.0,,,9999,Cloud Development Not Observable,14.0,10.0,30.09,1019.4,,,,0,0,0,,,,,,,,,2/8 Mostly Clear,72000.0,,FEW,5900.0,,,,,,
KRDR,05-30-2001,04:00,METAR,,110,7.0,,,9999,Cloud Development Not Observable,17.0,10.0,30.09,1019.2,,,,0,0,0,,,,,,,,,4/8 Partly Cloudy,72000.0,,FEW,4000.0,SCT,7400.0,SCT,25000.0,,
KRDR,05-30-2001,03:00,METAR,,100,8.0,,,9999,Cloud Development Not Observable,18.0,10.0,30.08,1018.9,,,,0,0,0,,,,,,,,,4/8 Partly Cloudy,72000.0,,FEW,4500.0,SCT,12000.0,SCT,25000.0,,
KRDR,05-30-2001,02:00,METAR,,90,7.0,,,9999,Cloud Development Not Observable,20.0,11.0,30.05,1018.2,,,,0,0,0,,,,,,,,,4/8 Partly Cloudy,72000.0,,FEW,4500.0,FEW,12000.0,SCT,25000.0,,
KRDR,05-30-2001,01:00,METAR,,90,7.0,,,9999,Cloud Development Not Observable,21.0,12.0,30.05,1018.2,,,,0,0,0,,,,,,,,,2/8 Mostly Clear,72000.0,,FEW,4500.0,FEW,25000.0,,,,
KRDR,05-30-2001,00:00,METAR,,120,10.0,,,9999,Cloud Development Not Observable,22.0,12.0,30.05,1018.3,,,,0,0,0,,,,,,,,,4/8 Partly Cloudy,72000.0,,FEW,4500.0,SCT,25000.0,,,,
KRDR,05-29-2001,23:00,METAR,,130,9.0,,,9999,Cloud Development Not Observable,22.0,11.0,30.05,1018.1,,,,0,0,0,,,,,,,,,4/8 Partly Cloudy,72000.0,,SCT,5000.0,,,,,,
KRDR,05-29-2001,22:00,METAR,,110,11.0,18.0,,9999,Cloud Development Not Observable,22.0,11.0,30.06,1018.5,,,,0,0,0,,,,,,,,,4/8 Partly Cloudy,72000.0,,SCT,4500.0,,,,,,
KRDR,05-29-2001,21:00,METAR,,120,12.0,,,9999,Cloud Development Not Observable,21.0,11.0,30.07,1018.9,,,,0,0,0,,,,,,,,,4/8 Partly Cloudy,72000.0,,SCT,4500.0,,,,,,
KRDR,05-29-2001,20:00,METAR,,110,11.0,,,9999,Cloud Development Not Observable,21.0,11.0,30.09,1019.4,,,,0,0,0,,,,,,,,,4/8 Partly Cloudy,72000.0,,SCT,4500.0,,,,,,
KRDR,05-29-2001,19:00,METAR,,90,10.0,,,9999,Cloud Development Not Observable,21.0,12.0,30.10,1019.7,,,,0,0,0,,,,,,,,,7/8 Mostly Cloudy,3900.0,,BKN,4000.0,,,,,,
KRDR,05-29-2001,18:00,METAR,,100,10.0,,,9999,Cloud Development Not Observable,21.0,14.0,30.10,1019.7,,,,0,0,0,,,,,,,,,4/8 Partly Cloudy,72000.0,,SCT,3500.0,,,,,,
KRDR,05-29-2001,17:00,METAR,,80,9.0,,,9999,Cloud Development Not Observable,20.0,14.0,30.11,1020.0,,,,0,0,0,,,,,,,,,4/8 Partly Cloudy,72000.0,,SCT,3500.0,SCT,20000.0,,,,
KRDR,05-29-2001,16:00,METAR,,80,9.0,,,9999,Cloud Development Not Observable,18.0,12.0,30.12,,,,,0,0,0,,,,,,,,,4/8 Partly Cloudy,72000.0,,FEW,3500.0,SCT,20000.0,,,,
KRDR,05-29-2001,15:00,METAR,,80,7.0,,,9999,Cloud Development Not Observable,16.0,12.0,30.13,,,,,0,0,0,,,,,,,,,Clear,72000.0,,,73000.0,,,,,,
KRDR,05-29-2001,14:00,METAR,,90,10.0,,,9999,Cloud Development Not Observable,14.0,10.0,30.14,,,,,0,0,0,,,,,,,,,2/8 Mostly Clear,72000.0,,FEW,3500.0,,,,,,
KRDR,05-29-2001,13:00,METAR,,100,7.0,,,9999,Cloud Development Not Observable,12.0,10.0,30.14,,,,,0,0,0,,,,,,,,,2/8 Mostly Clear,72000.0,,FEW,3500.0,FEW,20000.0,,,,
KRDR,05-29-2001,12:00,METAR,,,6.0,,,9999,Cloud Development Not Observable,9.0,9.0,30.14,,,,,0,0,0,,,,,,,,,7/8 Mostly Cloudy,3400.0,,BKN,3500.0,,,,,,
KRDR,05-29-2001,11:00,METAR,,,4.0,,,9999,Cloud Development Not Observable,8.0,8.0,30.13,,,,,0,0,0,,,,,,,,,4/8 Partly Cloudy,72000.0,,SCT,3000.0,SCT,20000.0,,,,
KRDR,05-29-2001,10:00,METAR,,50,8.0,,,9999,Cloud Development Not Observable,9.0,8.0,30.11,,,,,0,0,0,,,,,,,,,2/8 Mostly Clear,72000.0,,FEW,12000.0,FEW,20000.0,,,,
KRDR,05-29-2001,09:00,METAR,,40,4.0,,,9999,Cloud Development Not Observable,8.0,8.0,30.12,,,,,0,0,0,,,,,,,,,Clear,72000.0,,,73000.0,,,,,,
KRDR,05-29-2001,08:00,METAR,,340,5.0,,,9999,Cloud Development Not Observable,8.0,8.0,30.12,,,,,0,0,0,,,,,,,,,Clear,72000.0,,,73000.0,,,,,,
KRDR,05-29-2001,07:00,METAR,,,4.0,,,9999,Cloud Development Not Observable,9.0,9.0,30.12,,,,,0,0,0,,,,,,,,,Clear,72000.0,,,73000.0,,,,,,
KRDR,05-29-2001,06:00,METAR,,30,5.0,,,9999,Cloud Development Not Observable,10.0,9.0,30.11,,,,,0,0,0,,,,,,,,,Clear,72000.0,,,73000.0,,,,,,
KRDR,05-29-2001,05:00,METAR,,70,8.0,,,9999,Cloud Development Not Observable,12.0,10.0,30.09,,,,,0,0,0,,,,,,,,,Clear,72000.0,,,73000.0,,,,,,
KRDR,05-29-2001,04:05,SPECI,,70,12.0,,,9999,Cloud Development Not Observable,13.0,10.0,30.09,,,,,0,0,0,,,,,,,,,2/8 Mostly Clear,72000.0,,FEW,12000.0,,,,,,
KRDR,05-27-2001,02:00,METAR,,100,4.0,,,9999,Cloud Development Not Observable,20.0,12.0,29.78,1008.9,,,,0,0,0,,,,,,,,,7/8 Mostly Cloudy,12000.0,,SCT,5900.0,BKN,12000.0,BKN,20000.0,,
KRDR,05-27-2001,01:00,METAR,,30,9.0,,,9999,Cloud Development Not Observable,21.0,12.0,29.78,1008.9,,,,0,0,0,,,,,,,,,7/8 Mostly Cloudy,12000.0,,SCT,5900.0,BKN,12000.0,BKN,20000.0,,
KRDR,05-27-2001,00:00,METAR,,30,9.0,,,9999,Cloud Development Not Observable,23.0,9.0,29.79,1009.0,,,,0,0,0,,,,,,,,,7/8 Mostly Cloudy,12000.0,,SCT,5900.0,BKN,12000.0,BKN,20000.0,,
KRDR,05-26-2001,23:00,METAR,,10,9.0,,,9999,Cloud Development Not Observable,23.0,10.0,29.80,,,,,0,0,0,,,,,,,,,7/8 Mostly Cloudy,12000.0,,SCT,5900.0,BKN,12000.0,BKN,20000.0,,
KRDR,05-26-2001,22:00,METAR,,20,12.0,,,9999,Cloud Development Not Observable,23.0,9.0,29.81,,,,,0,0,0,,,,,,,,,7/8 Mostly Cloudy,12000.0,,SCT,5900.0,BKN,12000.0,BKN,20000.0,,
KRDR,05-26-2001,21:00,METAR,,30,10.0,,,9999,Cloud Development Not Observable,23.0,10.0,29.81,,,,,0,0,0,,,,,,,,,7/8 Mostly Cloudy,20000.0,,SCT,5900.0,BKN,20000.0,,,,
KRDR,05-26-2001,20:00,METAR,,360,10.0,,,9999,Cloud Development Not Observable,22.0,10.0,29.83,,,,,0,0,0,,,,,,,,,7/8 Mostly Cloudy,20000.0,,SCT,6400.0,BKN,20000.0,,,,
KRDR,05-26-2001,19:17,SPECI,,10,11.0,,,9999,Cloud Development Not Observable,22.0,11.0,29.83,,,,,0,0,0,,,,,,,,,7/8 Mostly Cloudy,20000.0,,SCT,6400.0,BKN,20000.0,,,,
KRDR,05-26-2001,16:00,METAR,,360,10.0,,,9999,Cloud Development Not Observable,17.0,12.0,29.86,1011.6,,,,0,0,0,,,,,,,,,7/8 Mostly Cloudy,20000.0,,SCT,1500.0,BKN,20000.0,,,,
KRDR,05-26-2001,15:00,METAR,,10,12.0,,,9999,Cloud Development Not Observable,15.0,12.0,29.86,1011.8,,,,0,0,0,,,,,,,,,8/8 Overcast,1500.0,,OVC,1500.0,,,,,,
KRDR,05-26-2001,14:00,METAR,,350,10.0,,,9999,Cloud Development Not Observable,13.0,10.0,29.88,1012.3,,,,0,0,0,,,,,,,,,8/8 Overcast,1500.0,,OVC,1500.0,,,,,,
KRDR,05-26-2001,13:00,METAR,,340,11.0,,,9999,Cloud Development Not Observable,13.0,10.0,29.88,1012.3,,,,0,0,0,,,,,,,,,8/8 Overcast,1500.0,,OVC,1500.0,,,,,,
KRDR,05-26-2001,12:00,METAR,,350,10.0,,,9999,Cloud Development Not Observable,12.0,10.0,29.89,1012.6,,,,0,0,0,,,,,,,,,7/8 Mostly Cloudy,1800.0,,BKN,1800.0,,,,,,
KRDR,05-26-2001,11:05,SPECI,,340,9.0,,,9999,Cloud Development Not Observable,12.0,9.0,29.88,,,,,0,0,0,,,,,,,,,7/8 Mostly Cloudy,1700.0,,BKN,1700.0,,,,,,
KRDR,05-26-2001,04:00,METAR,,330,11.0,,,9999,Cloud Development Not Observable,14.0,7.0,29.90,1012.9,,,,0,0,0,,,,,,,,,4/8 Partly Cloudy,72000.0,,FEW,9900.0,SCT,20000.0,,,,
KRDR,05-26-2001,03:00,METAR,,340,10.0,,,9999,Cloud Development Not Observable,15.0,7.0,29.91,1013.3,,,,0,0,0,,,,,,,,,4/8 Partly Cloudy,72000.0,,FEW,9900.0,SCT,20000.0,,,,
KRDR,05-26-2001,02:00,METAR,,360,13.0,,,9999,Cloud Development Not Observable,17.0,8.0,29.92,1013.5,,,,0,0,0,,,,,,,,,4/8 Partly Cloudy,72000.0,,FEW,9900.0,SCT,20000.0,,,,
KRDR,05-26-2001,01:00,METAR,,360,16.0,,,9999,Cloud Development Not Observable,18.0,7.0,29.93,1014.1,,,,0,0,0,,,,,,,,,4/8 Partly Cloudy,72000.0,,FEW,5400.0,FEW,9900.0,SCT,20000.0,,
KRDR,05-26-2001,00:00,METAR,,360,16.0,,010/30KTS,9999,Cloud Development Not Observable,17.0,8.0,29.95,1014.8,,,,0,0,0,,,,,,,,,4/8 Partly Cloudy,72000.0,,FEW,5400.0,SCT,9400.0,SCT,20000.0,,
KRDR,05-25-2001,23:00,METAR,,10,22.0,26.0,020/30KTS,9999,Cloud Development Not Observable,21.0,8.0,29.95,1014.9,,,,0,0,0,,,,,,,,,7/8 Mostly Cloudy,9500.0,,FEW,5400.0,BKN,9400.0,BKN,20000.0,,
KRDR,05-25-2001,22:00,METAR,,360,21.0,26.0,,9999,Cloud Development Not Observable,21.0,6.0,29.96,1015.0,,,,0,0,0,,,,,,,,,7/8 Mostly Cloudy,20000.0,,SCT,5400.0,SCT,9900.0,BKN,20000.0,,
KRDR,05-25-2001,21:00,METAR,,360,20.0,28.0,,9999,Cloud Development Not Observable,21.0,6.0,29.98,1015.7,,,,0,0,0,,,,,,,,,4/8 Partly Cloudy,72000.0,,SCT,5000.0,SCT,20000.0,,,,
KRDR,05-25-2001,20:00,METAR,,350,21.0,29.0,010/30KTS,9999,Cloud Development Not Observable,22.0,6.0,29.99,1016.2,,,,0,0,0,,,,,,,,,4/8 Partly Cloudy,72000.0,,SCT,5000.0,SCT,20000.0,,,,
KRDR,05-25-2001,18:00,METAR,,360,21.0,27.0,,9999,Cloud Development Not Observable,20.0,8.0,30.04,1018.0,,,,0,0,0,,,,,,,,,4/8 Partly Cloudy,72000.0,,SCT,5000.0,SCT,20000.0,,,,
KRDR,05-25-2001,17:00,METAR,,350,20.0,,,9999,Cloud Development Not Observable,19.0,9.0,30.06,1018.7,,,,0,0,0,,,,,,,,,4/8 Partly Cloudy,72000.0,,FEW,5900.0,SCT,20000.0,,,,
KRDR,05-25-2001,16:00,METAR,,350,14.0,,,9999,Cloud Development Not Observable,18.0,10.0,30.09,1019.4,,,,0,0,0,,,,,,,,,2/8 Mostly Clear,72000.0,,FEW,5900.0,FEW,20000.0,,,,
KRDR,05-25-2001,15:00,METAR,,340,16.0,,,9999,Cloud Development Not Observable,15.0,10.0,30.12,1020.7,,,,0,0,0,,,,,,,,,2/8 Mostly Clear,72000.0,,FEW,12000.0,FEW,20000.0,,,,
KRDR,05-25-2001,14:00,METAR,,350,15.0,,,9999,Cloud Development Not Observable,13.0,9.0,30.12,1020.7,,,,0,0,0,,,,,,,,,2/8 Mostly Clear,72000.0,,FEW,12000.0,FEW,20000.0,,,,
KRDR,05-25-2001,13:00,METAR,,330,13.0,,,9999,Cloud Development Not Observable,11.0,8.0,30.13,1020.9,,,,0,0,0,,,,,,,,,2/8 Mostly Clear,72000.0,,FEW,20000.0,,,,,,
KRDR,05-25-2001,12:00,METAR,,330,11.0,,,9999,Cloud Development Not Observable,9.0,7.0,30.14,1021.4,,,,0,0,0,,,,,,,,,2/8 Mostly Clear,72000.0,,FEW,12000.0,FEW,20000.0,,,,
KRDR,05-25-2001,11:00,METAR,,340,9.0,,,9999,Cloud Development Not Observable,7.0,7.0,30.13,1021.1,,,,0,0,0,,,,,,,,,2/8 Mostly Clear,72000.0,,FEW,12000.0,FEW,20000.0,,,,
KRDR,05-25-2001,10:00,METAR,,340,10.0,,,9999,Cloud Development Not Observable,8.0,7.0,30.14,1021.5,,,,0,0,0,,,,,,,,,2/8 Mostly Clear,72000.0,,FEW,20000.0,,,,,,
KRDR,05-25-2001,09:00,METAR,,330,10.0,,,9999,Cloud Development Not Observable,8.0,8.0,30.14,1021.5,,,,0,0,0,,,,,,,,,Clear,72000.0,,,73000.0,,,,,,
KRDR,05-25-2001,08:00,METAR,,340,10.0,,,9999,Cloud Development Not Observable,8.0,8.0,30.15,1021.8,,,,0,0,0,,,,,,,,,Clear,72000.0,,,73000.0,,,,,,
KRDR,05-25-2001,07:00,METAR,,340,9.0,,,9999,Cloud Development Not Observable,9.0,8.0,30.17,1022.4,,,,0,0,0,,,,,,,,,Clear,72000.0,,,73000.0,,,,,,
KRDR,05-25-2001,06:00,METAR,,340,7.0,,,9999,Cloud Development Not Observable,9.0,7.0,30.17,1022.4,,,,0,0,0,,,,,,,,,Clear,72000.0,,,73000.0,,,,,,
KRDR,05-25-2001,05:00,METAR,,330,7.0,,,9999,Cloud Development Not Observable,10.0,8.0,30.17,1022.4,,,,0,0,0,,,,,,,,,Clear,72000.0,,,73000.0,,,,,,
KRDR,05-25-2001,04:00,METAR,,340,8.0,,,9999,Cloud Development Not Observable,10.0,8.0,30.17,1022.5,,,,0,0,0,,,,,,,,,Clear,72000.0,,,73000.0,,,,,,
KRDR,05-25-2001,03:00,METAR,,350,10.0,,,9999,Cloud Development Not Observable,12.0,9.0,30.16,1022.3,,,,0,0,0,,,,,,,,,2/8 Mostly Clear,72000.0,,FEW,4000.0,,,,,,
KRDR,05-25-2001,02:00,METAR,,350,12.0,,,9999,Cloud Development Not Observable,14.0,9.0,30.15,1021.8,,,,0,0,0,,,,,,,,,2/8 Mostly Clear,72000.0,,FEW,4000.0,,,,,,
KRDR,05-25-2001,01:00,METAR,,350,17.0,,,9999,Cloud Development Not Observable,16.0,9.0,30.15,1021.7,,,,0,0,0,,,,,,,,,2/8 Mostly Clear,72000.0,,FEW,4000.0,,,,,,
KRDR,05-25-2001,00:00,METAR,,350,16.0,,,9999,Cloud Development Not Observable,17.0,9.0,30.15,1021.6,,,,0,0,0,,,,,,,,,2/8 Mostly Clear,72000.0,,FEW,3500.0,FEW,8900.0,,,,
KRDR,05-24-2001,23:00,METAR,,350,17.0,24.0,,9999,Cloud Development Not Observable,17.0,9.0,30.15,1021.8,,,,0,0,0,,,,,,,,,4/8 Partly Cloudy,72000.0,,SCT,3500.0,SCT,8400.0,,,,
KRDR,05-24-2001,22:00,METAR,,340,13.0,,,9999,Cloud Development Not Observable,17.0,10.0,30.15,1021.6,,,,0,0,0,,,,,,,,,4/8 Partly Cloudy,72000.0,,SCT,3500.0,,,,,,
KRDR,05-24-2001,21:00,METAR,,350,17.0,24.0,,9999,Cloud Development Not Observable,16.0,9.0,30.14,1021.4,,,,0,0,0,,,,,,,,,7/8 Mostly Cloudy,4900.0,,SCT,3000.0,BKN,5000.0,,,,
KRDR,05-24-2001,20:00,METAR,,350,16.0,20.0,,9999,Cloud Development Not Observable,16.0,9.0,30.14,1021.3,,,,0,0,0,,,,,,,,,7/8 Mostly Cloudy,4400.0,,SCT,3500.0,BKN,4500.0,,,,
KRDR,05-24-2001,19:00,METAR,,340,13.0,,,9999,Cloud Development Not Observable,14.0,9.0,30.14,1021.6,,,,0,0,0,,,,,,,,,7/8 Mostly Cloudy,3000.0,,FEW,2500.0,BKN,3000.0,,,,
KRDR,05-24-2001,18:20,METAR,,350,13.0,,,9999,Cloud Development Not Observable,15.0,8.0,30.14,,,,,0,0,0,,,,,,,,,7/8 Mostly Cloudy,3000.0,,FEW,2500.0,BKN,3000.0,,,,
KRDR,05-24-2001,18:00,METAR,,360,9.0,,,9999,Cloud Development Not Observable,14.0,8.0,30.14,1021.4,,,,0,0,0,,,,,,,,,7/8 Mostly Cloudy,2400.0,,BKN,2400.0,BKN,20000.0,,,,
KRDR,05-24-2001,17:43,SPECI,,10,13.0,,,9999,Cloud Development Not Observable,14.0,8.0,30.14,,,,,0,0,0,,,,,,,,,7/8 Mostly Cloudy,2400.0,,BKN,2400.0,BKN,20000.0,,,,
KRDR,05-24-2001,17:00,METAR,,10,12.0,,,9999,Cloud Development Not Observable,12.0,8.0,30.14,1021.6,,,,0,0,0,,,,,,,,,7/8 Mostly Cloudy,1500.0,,BKN,1500.0,BKN,20000.0,,,,
KRDR,05-24-2001,16:00,METAR,,360,10.0,,,9999,Cloud Development Not Observable,10.0,7.0,30.13,1021.2,,,,0,0,0,,,,,,,,,7/8 Mostly Cloudy,1500.0,,SCT,1000.0,BKN,1500.0,,,,
KRDR,05-24-2001,15:42,SPECI,,360,13.0,,,9999,Cloud Development Not Observable,10.0,8.0,30.12,,,,,0,0,0,,,,,,,,,7/8 Mostly Cloudy,1500.0,,SCT,1000.0,BKN,1500.0,,,,
KRDR,05-24-2001,15:00,METAR,,360,11.0,,,9999,Cloud Development Not Observable,8.0,7.0,30.12,1020.9,,,,0,0,0,,,,,,,,,8/8 Overcast,1200.0,,SCT,800.0,OVC,1200.0,,,,
KRDR,05-24-2001,14:00,METAR,,10,11.0,,,9999,Cloud Development Not Observable,7.0,7.0,30.10,1020.4,,,,0,0,0,,,,,,,,,8/8 Overcast,1100.0,,SCT,500.0,OVC,1100.0,,,,
KRDR,05-24-2001,13:10,SPECI,,10,11.0,,,9999,Cloud Development Not Observable,6.0,6.0,30.05,,,,,0,0,0,,,,,,,,,8/8 Overcast,1100.0,,SCT,500.0,OVC,1100.0,,,,
KRDR,05-24-2001,13:00,METAR,,10,11.0,,,9999,Cloud Development Not Observable,6.0,6.0,30.08,1019.7,,,,0,0,0,,,,,,,,,8/8 Overcast,600.0,,OVC,600.0,,,,,,
KRDR,05-24-2001,12:00,METAR,,20,8.0,,,9999,Drizzle/Cloud Development Not Observable,6.0,6.0,30.05,1018.6,,,,51,0,0,,,,,,,,,8/8 Overcast,600.0,,FEW,200.0,OVC,600.0,,,,
KRDR,05-24-2001,11:42,SPECI,,20,8.0,,,9999,Drizzle/Cloud Development Not Observable,6.0,5.0,30.05,,,,,51,0,0,,,,,,,,,8/8 Overcast,600.0,,FEW,200.0,OVC,600.0,,,,
KRDR,05-24-2001,11:35,SPECI,,20,9.0,,,9999,Cloud Development Not Observable,6.0,5.0,30.05,,,,,0,0,0,,,,,,,,,8/8 Overcast,600.0,,FEW,200.0,OVC,600.0,,,,
KRDR,05-24-2001,11:15,SPECI,,30,9.0,,,9999,Cloud Development Not Observable,6.0,5.0,30.04,,,,,0,0,0,,,,,,,,,8/8 Overcast,1200.0,,BKN,1200.0,OVC,3000.0,,,,
KRDR,05-24-2001,11:00,METAR,,20,9.0,,,9999,Cloud Development Not Observable,5.0,5.0,30.03,1017.9,,,,0,0,0,,,,,,,,,8/8 Overcast,3000.0,,FEW,500.0,BKN,3000.0,OVC,5400.0,,
KRDR,05-24-2001,10:45,METAR,,30,9.0,,,9999,Cloud Development Not Observable,5.0,5.0,30.03,,,,,0,0,0,,,,,,,,,8/8 Overcast,3000.0,,SCT,500.0,BKN,3000.0,OVC,5400.0,,
KRDR,05-24-2001,10:30,METAR,,40,9.0,,,9999,Mist/Cloud Development Not Observable,6.0,6.0,30.03,,,,,10,0,0,,,,,,,,,8/8 Overcast,500.0,,SCT,200.0,BKN,500.0,OVC,3000.0,,
KRDR,05-24-2001,10:08,SPECI,,50,11.0,,,4800,Drizzle/Cloud Development Not Observable,6.0,6.0,30.02,,,,,51,0,,,,,,,,,,8/8 Overcast,200.0,,BKN,200.0,OVC,500.0,,,,
KRDR,05-24-2001,10:00,METAR,,20,12.0,,,9999,Cloud Development Not Observable,6.0,6.0,30.01,1017.4,,,,0,0,0,,,,,,,,,8/8 Overcast,500.0,,OVC,500.0,,,,,,
KRDR,05-24-2001,09:00,METAR,,10,10.0,,,9999,Cloud Development Not Observable,6.0,6.0,29.99,1016.5,,,,0,0,0,,,,,,,,,8/8 Overcast,500.0,,BKN,500.0,OVC,1000.0,,,,
KRDR,05-24-2001,08:00,METAR,,10,11.0,,,9999,Cloud Development Not Observable,6.0,6.0,29.97,1016.0,,,,0,0,0,,,,,,,,,8/8 Overcast,500.0,,BKN,500.0,OVC,1000.0,,,,
KRDR,05-24-2001,07:45,METAR,,360,11.0,,,9999,Cloud Development Not Observable,6.0,6.0,29.97,,,,,0,0,0,,,,,,,,,8/8 Overcast,500.0,,BKN,500.0,OVC,1000.0,,,,
KRDR,05-24-2001,07:00,METAR,,360,12.0,,,9999,Cloud Development Not Observable,6.0,6.0,29.97,1015.8,,,,0,0,0,,,,,,,,,8/8 Overcast,1000.0,,BKN,1000.0,OVC,4500.0,,,,
KRDR,05-24-2001,06:00,METAR,,360,12.0,,,9999,Cloud Development Not Observable,6.0,6.0,29.97,1015.8,,,,0,0,0,,,,,,,,,8/8 Overcast,1000.0,,BKN,1000.0,OVC,4500.0,,,,
KRDR,05-24-2001,05:15,SPECI,,350,14.0,,,9999,Cloud Development Not Observable,6.0,6.0,29.96,,,,,0,0,0,,,,,,,,,8/8 Overcast,1000.0,,BKN,1000.0,OVC,4500.0,,,,
KRDR,05-24-2001,05:00,METAR,,360,14.0,,,9999,Rain/Cloud Development Not Observable,6.0,6.0,29.96,1015.5,,,,61,0,0,,,,,,,,,8/8 Overcast,1000.0,,BKN,1000.0,OVC,4500.0,,,,
KRDR,05-24-2001,04:00,METAR,,350,15.0,,,9999,Rain/Cloud Development Not Observable,7.0,7.0,29.95,1015.4,,,,61,0,0,,,,,,,,,8/8 Overcast,1100.0,,SCT,500.0,OVC,1100.0,,,,
KRDR,05-24-2001,03:28,SPECI,,360,15.0,,,9999,Rain/Cloud Development Not Observable,7.0,7.0,29.96,,,,,61,0,0,,,,,,,,,8/8 Overcast,1200.0,,FEW,500.0,OVC,1200.0,,,,
KRDR,05-24-2001,03:00,METAR,,340,12.0,,,9999,Rain/Cloud Development Not Observable,7.0,7.0,29.95,1015.3,,,,61,0,0,,,,,,,,,8/8 Overcast,1700.0,,FEW,1000.0,OVC,1700.0,,,,
KRDR,05-24-2001,02:00,METAR,,340,13.0,,,9999,Rain/Cloud Development Not Observable,7.0,7.0,29.94,1014.9,,,,61,0,0,,,,,,,,,8/8 Overcast,1800.0,,OVC,1800.0,,,,,,
KRDR,05-24-2001,01:04,SPECI,,360,12.0,,,9999,Rain/Cloud Development Not Observable,7.0,7.0,29.94,,,,,61,0,0,,,,,,,,,8/8 Overcast,1900.0,,OVC,1900.0,,,,,,
KRDR,05-24-2001,01:00,METAR,,350,15.0,21.0,,9999,Cloud Development Not Observable,8.0,6.0,29.94,1014.8,,,,0,0,0,,,,,,,,,8/8 Overcast,1900.0,,OVC,1900.0,,,,,,
KRDR,05-24-2001,00:00,METAR,,360,19.0,28.0,,9999,Cloud Development Not Observable,8.0,6.0,29.92,1014.1,,,,0,0,0,,,,,,,,,8/8 Overcast,1900.0,,OVC,1900.0,,,,,,
KRDR,05-23-2001,23:41,SPECI,,350,23.0,28.0,,9999,Cloud Development Not Observable,8.0,6.0,29.92,,,,,0,0,0,,,,,,,,,8/8 Overcast,1900.0,,OVC,1900.0,,,,,,
KRDR,05-23-2001,23:00,METAR,,350,18.0,23.0,360/28KTS,9999,Cloud Development Not Observable,9.0,6.0,29.90,,,,,0,0,0,,,,,,,,,8/8 Overcast,1300.0,,OVC,1300.0,,,,,,
KRDR,05-23-2001,22:00,METAR,,360,23.0,31.0,350/32KTS,9999,Cloud Development Not Observable,9.0,6.0,29.89,1013.2,,,,0,0,0,,,,,,,,,8/8 Overcast,1200.0,,OVC,1200.0,,,,,,
KRDR,05-23-2001,21:00,METAR,,360,19.0,26.0,340/32KTS,9999,Cloud Development Not Observable,9.0,6.0,29.87,1012.7,,,,0,0,0,,,,,,,,,8/8 Overcast,1100.0,,OVC,1100.0,,,,,,
KRDR,05-23-2001,20:00,METAR,,350,26.0,31.0,350/34KTS,9999,Cloud Development Not Observable,8.0,6.0,29.86,1012.4,,,,0,0,0,,,,,,,,,8/8 Overcast,1200.0,,SCT,900.0,OVC,1200.0,,,,
KRDR,05-23-2001,19:00,METAR,,340,22.0,32.0,,9999,Cloud Development Not Observable,8.0,6.0,29.84,1011.7,,,,0,0,0,,,,,,,,,8/8 Overcast,1000.0,,SCT,700.0,OVC,1000.0,,,,
KRDR,05-23-2001,18:00,METAR,,350,23.0,29.0,340/33KTS,9999,Cloud Development Not Observable,8.0,6.0,29.83,1011.3,,,,0,0,0,,,,,,,,,8/8 Overcast,1200.0,,SCT,700.0,OVC,1200.0,,,,
KRDR,05-23-2001,17:00,METAR,,350,24.0,29.0,350/30KTS,9999,Mist/Cloud Development Not Observable,6.0,6.0,29.81,1010.7,,,,10,0,0,,,,,,,,,8/8 Overcast,1200.0,,SCT,600.0,OVC,1200.0,,,,
KRDR,05-23-2001,16:12,SPECI,,350,23.0,29.0,,9999,Mist/Cloud Development Not Observable,6.0,6.0,29.80,,,,,10,0,0,,,,,,,,,8/8 Overcast,1200.0,,SCT,600.0,OVC,1200.0,,,,
KRDR,05-23-2001,16:00,METAR,,340,25.0,32.0,,8000,Rain/Mist/Cloud Development Not Observable,6.0,6.0,29.79,1010.0,,,,61,0,10,,,,,,,,,8/8 Overcast,1000.0,,SCT,500.0,OVC,1000.0,,,,
KRDR,05-23-2001,15:00,METAR,,350,21.0,26.0,350/29KTS,5600,Rain/Mist/Cloud Development Not Observable,6.0,6.0,29.79,1010.0,,,,61,0,10,,,,,,,,,8/8 Overcast,1000.0,,SCT,500.0,OVC,1000.0,,,,
KRDR,05-23-2001,14:00,METAR,,350,23.0,30.0,,8000,Rain/Mist/Cloud Development Not Observable,5.0,5.0,29.78,1009.5,,,,61,0,10,,,,,,,,,8/8 Overcast,1000.0,,SCT,500.0,OVC,1000.0,,,,
KRDR,05-23-2001,13:00,METAR,,350,22.0,27.0,,5600,Rain/Mist/Cloud Development Not Observable,5.0,5.0,29.74,1008.1,,,,61,0,10,,,,,,,,,8/8 Overcast,1000.0,,SCT,500.0,OVC,1000.0,,,,
KRDR,05-23-2001,12:36,SPECI,,350,23.0,28.0,,5600,Rain/Cloud Development Not Observable,5.0,5.0,29.77,,,,,61,0,,,,,,,,,,8/8 Overcast,1000.0,,SCT,500.0,OVC,1000.0,,,,
KRDR,05-23-2001,12:00,METAR,,340,20.0,27.0,,9999,Rain/Mist/Cloud Development Not Observable,5.0,4.0,29.74,1008.1,,,,61,0,10,,,,,,,,,8/8 Overcast,1000.0,,SCT,500.0,OVC,1000.0,,,,
KRDR,05-23-2001,10:00,METAR,,350,19.0,28.0,,9999,Rain/Cloud Development Not Observable,4.0,4.0,29.71,1007.2,,,,61,0,0,,,,,,,,,8/8 Overcast,1000.0,,SCT,500.0,OVC,1000.0,,,,
KRDR,05-23-2001,09:31,SPECI,,350,21.0,24.0,,9999,Rain/Cloud Development Not Observable,5.0,4.0,29.70,,,,,61,0,0,,,,,,,,,8/8 Overcast,1000.0,,SCT,500.0,OVC,1000.0,,,,
KRDR,05-23-2001,09:00,METAR,,350,21.0,24.0,,9999,Cloud Development Not Observable,4.0,4.0,29.70,1006.6,,,,0,0,0,,,,,,,,,8/8 Overcast,1000.0,,SCT,500.0,OVC,1000.0,,,,
KRDR,05-23-2001,08:50,METAR,,350,21.0,24.0,,9999,Cloud Development Not Observable,4.0,4.0,29.70,,,,,0,0,0,,,,,,,,,8/8 Overcast,1000.0,,SCT,500.0,OVC,1000.0,,,,
KRDR,05-23-2001,08:00,METAR,,350,25.0,29.0,,9999,Rain/Cloud Development Not Observable,4.0,4.0,29.70,1006.6,,,,61,0,0,,,,,,,,,8/8 Overcast,1000.0,,BKN,1000.0,OVC,4300.0,,,,
KRDR,05-23-2001,07:00,METAR,,350,20.0,,,9999,Rain/Cloud Development Not Observable,4.0,4.0,29.69,1006.4,,,,61,0,0,,,,,,,,,8/8 Overcast,1000.0,,BKN,1000.0,OVC,4300.0,,,,
KRDR,05-23-2001,06:00,METAR,,340,25.0,33.0,,9999,Rain/Cloud Development Not Observable,5.0,4.0,29.68,1006.0,,,,61,0,0,,,,,,,,,8/8 Overcast,1700.0,,BKN,1700.0,OVC,4300.0,,,,
KRDR,05-23-2001,05:00,METAR,,340,30.0,40.0,,9999,Rain/Cloud Development Not Observable,5.0,3.0,29.68,1006.1,,,,61,0,0,,,,,,,,,8/8 Overcast,2000.0,,BKN,2000.0,OVC,4300.0,,,,
KRDR,05-23-2001,04:00,METAR,,320,23.0,31.0,320/33KTS,9999,Rain/Cloud Development Not Observable,5.0,4.0,29.69,1006.5,,,,61,0,0,,,,,,,,,8/8 Overcast,2000.0,,SCT,1200.0,BKN,2000.0,OVC,4300.0,,
KRDR,05-23-2001,03:00,METAR,,330,25.0,32.0,320/33KTS,9999,Rain/Cloud Development Not Observable,5.0,4.0,29.69,1006.5,,,,61,0,0,,,,,,,,,8/8 Overcast,2000.0,,SCT,1200.0,OVC,2000.0,,,,
KRDR,05-23-2001,02:00,METAR,,320,20.0,29.0,330/31KTS,9999,Rain/Cloud Development Not Observable,5.0,4.0,29.69,1006.5,,,,61,0,0,,,,,,,,,8/8 Overcast,1800.0,,BKN,1800.0,OVC,3000.0,,,,
KRDR,05-23-2001,01:00,METAR,,330,23.0,32.0,,6400,Rain/Mist/Cloud Development Not Observable,4.0,4.0,29.70,1006.9,,,,61,0,10,,,,,,,,,8/8 Overcast,1800.0,,BKN,1800.0,OVC,3000.0,,,,
KRDR,05-23-2001,00:00,METAR,,330,27.0,36.0,,8000,Light Rain Showers/Mist/Cloud Development Not Observable,5.0,4.0,29.69,1006.6,,,,80,0,10,,,,,,,,,8/8 Overcast,1900.0,,BKN,1900.0,OVC,3000.0,,,,
KRDR,05-22-2001,23:00,METAR,,330,25.0,33.0,320/39KTS,9999,Rain/Cloud Development Not Observable,5.0,4.0,29.69,1006.4,,,,61,0,0,,,,,,,,,8/8 Overcast,2000.0,,SCT,2000.0,OVC,3000.0,,,,
KRDR,05-22-2001,22:00,METAR,,330,28.0,35.0,310/44KTS,9999,Rain/Cloud Development Not Observable,6.0,4.0,29.66,1005.4,,,,61,0,0,,,,,,,,,8/8 Overcast,3000.0,,SCT,2500.0,OVC,3000.0,,,,
KRDR,05-22-2001,21:00,METAR,,320,29.0,44.0,,9999,Rain/Cloud Development Not Observable,8.0,0.0,29.64,1004.8,,,,61,0,0,,,,,,,,,7/8 Mostly Cloudy,4400.0,,FEW,2500.0,BKN,4500.0,BKN,12000.0,,
KRDR,05-22-2001,20:47,SPECI,,320,31.0,44.0,,9999,Rain/Cloud Development Not Observable,8.0,0.0,29.64,,,,,61,0,0,,,,,,,,,7/8 Mostly Cloudy,4400.0,,FEW,2500.0,BKN,4500.0,BKN,12000.0,,
KRDR,05-22-2001,20:00,METAR,,330,29.0,37.0,,9999,Cloud Development Not Observable,9.0,-1.0,29.64,1004.6,,,,0,0,0,,,,,,,,,7/8 Mostly Cloudy,4400.0,,BKN,4500.0,BKN,12000.0,,,,
KRDR,05-22-2001,19:00,METAR,,320,31.0,37.0,320/41KTS,9999,Cloud Development Not Observable,9.0,0.0,29.64,1004.6,,,,0,0,0,,,,,,,,,8/8 Overcast,4400.0,,BKN,4500.0,OVC,12000.0,,,,
KRDR,05-22-2001,18:00,METAR,,320,27.0,35.0,330/38KTS,9999,Cloud Development Not Observable,9.0,-1.0,29.63,1004.4,,,,0,0,0,,,,,,,,,8/8 Overcast,3400.0,,BKN,3500.0,OVC,12000.0,,,,
KRDR,05-22-2001,17:00,METAR,,320,30.0,41.0,,9999,Cloud Development Not Observable,8.0,0.0,29.64,1004.6,,,,0,0,0,,,,,,,,,8/8 Overcast,3400.0,,BKN,3500.0,OVC,12000.0,,,,
KRDR,05-22-2001,16:00,METAR,,320,31.0,40.0,332/41KTS,9999,Cloud Development Not Observable,8.0,1.0,29.63,1004.4,,,,0,0,0,,,,,,,,,8/8 Overcast,3400.0,,BKN,3500.0,BKN,12000.0,OVC,20000.0,,
KRDR,05-22-2001,15:00,METAR,,330,25.0,34.0,330/36KTS,9999,Cloud Development Not Observable,7.0,0.0,29.63,1004.4,,,,0,0,0,,,,,,,,,8/8 Overcast,3400.0,,BKN,3500.0,OVC,12000.0,,,,
KRDR,05-22-2001,14:00,METAR,,330,25.0,33.0,,9999,Cloud Development Not Observable,8.0,1.0,29.64,1004.6,,,,0,0,0,,,,,,,,,8/8 Overcast,3400.0,,BKN,3500.0,BKN,12000.0,OVC,20000.0,,
KRDR,05-22-2001,13:00,METAR,,310,21.0,30.0,,9999,Cloud Development Not Observable,6.0,2.0,29.65,1004.9,,,,0,0,0,,,,,,,,,7/8 Mostly Cloudy,12000.0,,SCT,3500.0,BKN,12000.0,BKN,20000.0,,
KRDR,05-22-2001,12:00,METAR,,310,18.0,25.0,310/26KTS,9999,Cloud Development Not Observable,6.0,2.0,29.65,1004.9,,,,0,0,0,,,,,,,,,7/8 Mostly Cloudy,12000.0,,SCT,3500.0,BKN,12000.0,,,,
KRDR,05-22-2001,11:00,METAR,,320,17.0,,310/27KTS,9999,Cloud Development Not Observable,6.0,2.0,29.64,1004.7,,,,0,0,0,,,,,,,,,7/8 Mostly Cloudy,12000.0,,SCT,3500.0,BKN,12000.0,,,,
KRDR,05-22-2001,10:00,METAR,,320,17.0,,320/25KTS,9999,Cloud Development Not Observable,6.0,2.0,29.64,1004.7,,,,0,0,0,,,,,,,,,8/8 Overcast,4400.0,,SCT,3500.0,BKN,4500.0,OVC,20000.0,,
KRDR,05-22-2001,09:00,METAR,,330,18.0,26.0,330/28KTS,9999,Cloud Development Not Observable,7.0,3.0,29.64,1004.7,,,,0,0,0,,,,,,,,,8/8 Overcast,3400.0,,BKN,3500.0,OVC,4500.0,,,,
KRDR,05-22-2001,08:00,METAR,,340,20.0,,320/25KTS,9999,Cloud Development Not Observable,7.0,2.0,29.66,1005.3,,,,0,0,0,,,,,,,,,8/8 Overcast,3100.0,,BKN,3200.0,OVC,4500.0,,,,
KRDR,05-22-2001,07:00,METAR,,330,17.0,24.0,320/27KTS,9999,Cloud Development Not Observable,8.0,3.0,29.67,1005.7,,,,0,0,0,,,,,,,,,8/8 Overcast,3400.0,,BKN,3500.0,OVC,4500.0,,,,
KRDR,05-22-2001,06:00,METAR,,330,13.0,,320/26KTS,9999,Cloud Development Not Observable,8.0,3.0,29.68,1006.1,,,,0,0,0,,,,,,,,,8/8 Overcast,3400.0,,BKN,3500.0,OVC,4500.0,,,,
KRDR,05-22-2001,05:25,METAR,,340,17.0,25.0,,9999,Light Rain Showers/Cloud Development Not Observable,8.0,3.0,29.69,,,,,80,0,0,,,,,,,,,8/8 Overcast,3400.0,,BKN,3500.0,OVC,4500.0,,,,
KRDR,05-22-2001,05:00,METAR,,330,16.0,24.0,,9999,Cloud Development Not Observable,8.0,2.0,29.70,1006.6,,,,0,0,0,,,,,,,,,8/8 Overcast,4400.0,,OVC,4500.0,,,,,,
KRDR,05-22-2001,04:00,METAR,,340,15.0,,,9999,Cloud Development Not Observable,8.0,3.0,29.71,1007.0,,,,0,0,0,,,,,,,,,7/8 Mostly Cloudy,5500.0,,BKN,5400.0,,,,,,
KRDR,05-22-2001,03:00,METAR,,340,14.0,,,9999,Cloud Development Not Observable,8.0,3.0,29.71,1007.1,,,,0,0,0,,,,,,,,,7/8 Mostly Cloudy,3900.0,,BKN,4000.0,BKN,6900.0,,,,
KRDR,05-22-2001,02:00,METAR,,350,21.0,25.0,350/26KTS,9999,Cloud Development Not Observable,9.0,3.0,29.71,1007.0,,,,0,0,0,,,,,,,,,7/8 Mostly Cloudy,4900.0,,BKN,5000.0,BKN,6900.0,,,,
KRDR,05-22-2001,01:00,METAR,,350,16.0,,,9999,Cloud Development Not Observable,10.0,4.0,29.71,1006.8,,,,0,0,0,,,,,,,,,8/8 Overcast,3900.0,,BKN,4000.0,OVC,5400.0,,,,
KRDR,05-22-2001,00:00,METAR,,340,16.0,23.0,,9999,Cloud Development Not Observable,11.0,4.0,29.70,1006.5,,,,0,0,0,,,,,,,,,8/8 Overcast,3900.0,,OVC,4000.0,,,,,,
KRDR,05-21-2001,23:00,METAR,,340,15.0,,310/25KTS,9999,Cloud Development Not Observable,10.0,4.0,29.69,1006.2,,,,0,0,0,,,,,,,,,8/8 Overcast,3900.0,,OVC,4000.0,,,,,,
KRDR,05-21-2001,22:00,METAR,,330,17.0,25.0,,9999,Cloud Development Not Observable,11.0,4.0,29.68,1005.9,,,,0,0,0,,,,,,,,,8/8 Overcast,3900.0,,OVC,4000.0,,,,,,
KRDR,05-21-2001,21:00,METAR,,330,13.0,,,9999,Cloud Development Not Observable,10.0,4.0,29.68,1005.8,,,,0,0,0,,,,,,,,,8/8 Overcast,3700.0,,OVC,3800.0,,,,,,
KRDR,05-21-2001,20:00,METAR,,330,13.0,,,9999,Cloud Development Not Observable,10.0,4.0,29.68,1006.1,,,,0,0,0,,,,,,,,,8/8 Overcast,3900.0,,OVC,4000.0,,,,,,
KRDR,05-21-2001,19:00,METAR,,320,20.0,27.0,,9999,Cloud Development Not Observable,10.0,4.0,29.67,1005.8,,,,0,0,0,,,,,,,,,8/8 Overcast,3400.0,,OVC,3500.0,,,,,,
KRDR,05-21-2001,18:00,METAR,,320,23.0,27.0,,9999,Cloud Development Not Observable,10.0,4.0,29.66,1005.4,,,,0,0,0,,,,,,,,,8/8 Overcast,3400.0,,OVC,3500.0,,,,,,
KRDR,05-21-2001,17:00,METAR,,350,22.0,26.0,350/28KTS,9999,Cloud Development Not Observable,11.0,4.0,29.65,,,,,0,0,0,,,,,,,,,7/8 Mostly Cloudy,3400.0,,BKN,3500.0,BKN,20000.0,,,,
KRDR,05-21-2001,16:00,METAR,,340,18.0,23.0,330/27KTS,9999,Cloud Development Not Observable,10.0,4.0,29.65,,,,,0,0,0,,,,,,,,,7/8 Mostly Cloudy,3400.0,,BKN,3500.0,BKN,5000.0,,,,
KRDR,05-21-2001,14:00,METAR,,330,19.0,27.0,,9999,Cloud Development Not Observable,9.0,4.0,29.63,,,,,0,0,0,,,,,,,,,8/8 Overcast,3000.0,,SCT,2500.0,OVC,3000.0,,,,
KRDR,05-21-2001,13:00,METAR,,320,16.0,23.0,,9999,Cloud Development Not Observable,8.0,4.0,29.62,,,,,0,0,0,,,,,,,,,7/8 Mostly Cloudy,5500.0,,SCT,2300.0,BKN,5400.0,,,,
KRDR,05-21-2001,12:00,METAR,,320,16.0,23.0,,9999,Cloud Development Not Observable,8.0,4.0,29.61,,,,,0,0,0,,,,,,,,,7/8 Mostly Cloudy,5500.0,,FEW,3500.0,BKN,5400.0,,,,
KRDR,05-21-2001,11:00,METAR,,310,17.0,24.0,,9999,Cloud Development Not Observable,8.0,5.0,29.59,,,,,0,0,0,,,,,,,,,7/8 Mostly Cloudy,5500.0,,FEW,3500.0,BKN,5400.0,,,,
KRDR,05-21-2001,10:00,METAR,,310,16.0,,,9999,Cloud Development Not Observable,9.0,6.0,29.57,,,,,0,0,0,,,,,,,,,8/8 Overcast,4900.0,,SCT,3500.0,OVC,5000.0,,,,
KRDR,05-21-2001,09:00,METAR,,310,12.0,,,9999,Cloud Development Not Observable,10.0,8.0,29.56,,,,,0,0,0,,,,,,,,,8/8 Overcast,4900.0,,SCT,3500.0,OVC,5000.0,,,,
KRDR,05-21-2001,08:00,METAR,,240,6.0,,,9999,Cloud Development Not Observable,9.0,7.0,29.56,,,,,0,0,0,,,,,,,,,7/8 Mostly Cloudy,4900.0,,BKN,5000.0,,,,,,
KRDR,05-21-2001,07:00,METAR,,240,6.0,,,9999,Cloud Development Not Observable,6.0,5.0,29.56,,,,,0,0,0,,,,,,,,,7/8 Mostly Cloudy,4900.0,,BKN,5000.0,,,,,,
KRDR,05-21-2001,06:00,METAR,,230,6.0,,,9999,Cloud Development Not Observable,6.0,5.0,29.57,,,,,0,0,0,,,,,,,,,2/8 Mostly Clear,72000.0,,FEW,5000.0,,,,,,
KRDR,05-21-2001,05:00,METAR,,260,8.0,,,9999,Cloud Development Not Observable,8.0,5.0,29.57,,,,,0,0,0,,,,,,,,,2/8 Mostly Clear,72000.0,,FEW,5000.0,,,,,,
KRDR,05-21-2001,04:15,SPECI,,270,7.0,,,9999,Cloud Development Not Observable,8.0,5.0,29.58,,,,,0,0,0,,,,,,,,,7/8 Mostly Cloudy,20000.0,,SCT,5000.0,BKN,20000.0,,,,
KRDR,05-20-2001,07:00,METAR,,170,9.0,,,9999,Cloud Development Not Observable,16.0,10.0,29.61,,,,,0,0,0,,,,,,,,,8/8 Overcast,11000.0,,FEW,4000.0,OVC,11000.0,,,,
KRDR,05-20-2001,06:15,SPECI,,290,12.0,,,9999,Thunderstorm with Rain or Snow/Light Rain Showers/Cloud Development Not Observable,17.0,9.0,29.64,,,,,95,80,0,,,,,,,,,8/8 Overcast,7000.0,,FEW,4000.0,BKN,6900.0,OVC,20000.0,,
KRDR,05-19-2001,22:00,METAR,,40,5.0,,,9999,Cloud Development Not Observable,,,29.80,,,,,0,0,0,,,,,,,,,Clear,72000.0,,,73000.0,,,,,,
KRDR,05-19-2001,21:00,METAR,,10,6.0,,,9999,Cloud Development Not Observable,24.0,5.0,29.83,,,,,0,0,0,,,,,,,,,Clear,72000.0,,,73000.0,,,,,,
KRDR,05-19-2001,20:00,METAR,,80,6.0,,,9999,Cloud Development Not Observable,23.0,5.0,29.85,,,,,0,0,0,,,,,,,,,2/8 Mostly Clear,72000.0,,FEW,20000.0,,,,,,
KRDR,05-19-2001,19:00,METAR,,30,9.0,,,9999,Cloud Development Not Observable,23.0,6.0,29.89,,,,,0,0,0,,,,,,,,,2/8 Mostly Clear,72000.0,,FEW,20000.0,,,,,,
KRDR,05-19-2001,18:00,METAR,,10,10.0,,,9999,Cloud Development Not Observable,23.0,5.0,29.91,,,,,0,0,0,,,,,,,,,2/8 Mostly Clear,72000.0,,FEW,20000.0,,,,,,
KRDR,05-19-2001,17:00,METAR,,10,14.0,19.0,,9999,Cloud Development Not Observable,22.0,6.0,29.91,,,,,0,0,0,,,,,,,,,2/8 Mostly Clear,72000.0,,FEW,20000.0,,,,,,
KRDR,05-19-2001,16:00,METAR,,10,13.0,,,9999,Cloud Development Not Observable,22.0,8.0,29.92,1013.3,,,,0,0,0,,,,,,,,,Clear,72000.0,,,73000.0,,,,,,
KRDR,05-19-2001,15:00,METAR,,350,13.0,,,9999,Cloud Development Not Observable,20.0,9.0,29.92,1013.4,,,,0,0,0,,,,,,,,,2/8 Mostly Clear,72000.0,,FEW,8900.0,,,,,,
KRDR,05-19-2001,14:00,METAR,,340,12.0,,,9999,Cloud Development Not Observable,19.0,10.0,29.90,1012.9,,,,0,0,0,,,,,,,,,2/8 Mostly Clear,72000.0,,FEW,7900.0,,,,,,
KRDR,05-19-2001,13:00,METAR,,330,9.0,,,9999,Cloud Development Not Observable,17.0,11.0,29.88,1012.1,,,,0,0,0,,,,,,,,,2/8 Mostly Clear,72000.0,,FEW,7900.0,,,,,,
KRDR,05-19-2001,12:00,METAR,,290,7.0,,,9999,Cloud Development Not Observable,13.0,12.0,29.86,1011.5,,,,0,0,0,,,,,,,,,2/8 Mostly Clear,72000.0,,FEW,7900.0,FEW,20000.0,,,,
KRDR,05-19-2001,11:30,METAR,,260,5.0,,,9999,Cloud Development Not Observable,13.0,11.0,29.85,,,,,0,0,0,,,,,,,,,2/8 Mostly Clear,72000.0,,FEW,7900.0,FEW,20000.0,,,,
KRDR,05-19-2001,04:00,METAR,,180,7.0,,,9999,Cloud Development Not Observable,16.0,14.0,29.83,1010.5,,,,0,0,0,,,,,,,,,7/8 Mostly Cloudy,9000.0,,SCT,5900.0,BKN,8900.0,BKN,20000.0,,
KRDR,05-19-2001,03:00,METAR,,140,6.0,,,9999,Cloud Development Not Observable,16.0,14.0,29.83,1010.6,,,,0,0,0,,,,,,,,,7/8 Mostly Cloudy,9000.0,,SCT,5900.0,BKN,8900.0,BKN,20000.0,,
KRDR,05-19-2001,02:30,METAR,,150,7.0,,,9999,Cloud Development Not Observable,16.0,14.0,29.83,,,,,0,0,0,,,,,,,,,7/8 Mostly Cloudy,9000.0,,SCT,5900.0,BKN,8900.0,BKN,20000.0,,
KRDR,05-19-2001,02:00,METAR,,280,9.0,,260/36KTS,9999,Cloud Development Not Observable,16.0,14.0,29.84,1011.0,,,,0,0,0,,,,,,,,,7/8 Mostly Cloudy,9000.0,,SCT,5900.0,BKN,8900.0,BKN,20000.0,,
KRDR,05-19-2001,01:39,SPECI,,260,14.0,23.0,,9999,Rain/Cloud Development Not Observable,16.0,14.0,29.85,,,,,61,0,0,,,,,,,,,8/8 Overcast,9000.0,,SCT,5900.0,BKN,8900.0,OVC,20000.0,,
KRDR,05-19-2001,01:17,SPECI,,240,29.0,35.0,,9999,Thunderstorm with Rain or Snow/Light Rain Showers/Cloud Development Not Observable,20.0,10.0,29.82,,,,,95,80,0,,,,,,,,,8/8 Overcast,9000.0,,SCT,5900.0,BKN,8900.0,OVC,20000.0,,
KRDR,05-19-2001,01:00,METAR,,160,5.0,,,9999,Cloud Development Not Observable,22.0,9.0,29.78,1008.7,,,,0,0,0,,,,,,,,,7/8 Mostly Cloudy,9000.0,,SCT,5900.0,BKN,8900.0,BKN,20000.0,,
KRDR,05-19-2001,00:00,METAR,,190,9.0,,,9999,Cloud Development Not Observable,24.0,8.0,29.77,1008.5,,,,0,0,0,,,,,,,,,7/8 Mostly Cloudy,9000.0,,FEW,5900.0,BKN,8900.0,BKN,20000.0,,
KRDR,05-18-2001,23:00,METAR,,200,13.0,,,9999,Cloud Development Not Observable,25.0,7.0,29.79,1009.2,,,,0,0,0,,,,,,,,,7/8 Mostly Cloudy,9000.0,,BKN,8900.0,BKN,20000.0,,,,
KRDR,05-18-2001,22:00,METAR,,200,8.0,,,9999,Cloud Development Not Observable,26.0,4.0,29.79,1009.2,,,,0,0,0,,,,,,,,,7/8 Mostly Cloudy,20000.0,,SCT,8900.0,BKN,20000.0,,,,
KRDR,05-18-2001,21:00,METAR,,250,8.0,,,9999,Cloud Development Not Observable,26.0,3.0,29.81,1010.0,,,,0,0,0,,,,,,,,,7/8 Mostly Cloudy,20000.0,,SCT,8900.0,BKN,20000.0,,,,
KRDR,05-18-2001,20:00,METAR,,250,12.0,19.0,,9999,Cloud Development Not Observable,26.0,5.0,29.83,1010.3,,,,0,0,0,,,,,,,,,7/8 Mostly Cloudy,20000.0,,FEW,5900.0,SCT,8900.0,BKN,20000.0,,
KRDR,05-18-2001,19:00,METAR,,230,14.0,19.0,,9999,Cloud Development Not Observable,24.0,5.0,29.84,1011.4,,,,0,0,0,,,,,,,,,7/8 Mostly Cloudy,20000.0,,FEW,5900.0,SCT,8900.0,BKN,20000.0,,
KRDR,05-18-2001,18:00,METAR,,220,10.0,,,9999,Cloud Development Not Observable,24.0,5.0,29.86,1011.4,,,,0,0,0,,,,,,,,,7/8 Mostly Cloudy,20000.0,,SCT,5900.0,BKN,20000.0,,,,
KRDR,05-18-2001,17:00,METAR,,190,17.0,,,9999,Cloud Development Not Observable,23.0,4.0,29.87,1012.0,,,,0,0,0,,,,,,,,,4/8 Partly Cloudy,72000.0,,FEW,4000.0,FEW,7900.0,SCT,20000.0,,
KRDR,05-18-2001,16:00,METAR,,220,12.0,18.0,,9999,Cloud Development Not Observable,23.0,6.0,29.88,1012.2,,,,0,0,0,,,,,,,,,2/8 Mostly Clear,72000.0,,FEW,4000.0,FEW,8900.0,FEW,20000.0,,
KRDR,05-18-2001,15:00,METAR,,210,12.0,,,9999,Cloud Development Not Observable,21.0,7.0,29.88,1012.2,,,,0,0,0,,,,,,,,,2/8 Mostly Clear,72000.0,,FEW,8900.0,FEW,20000.0,,,,
KRDR,05-18-2001,14:00,METAR,,220,10.0,,,9999,Cloud Development Not Observable,19.0,7.0,29.88,1012.2,,,,0,0,0,,,,,,,,,2/8 Mostly Clear,72000.0,,FEW,8900.0,FEW,20000.0,,,,
KRDR,05-18-2001,13:00,METAR,,190,6.0,,,9999,Cloud Development Not Observable,15.0,7.0,29.88,1012.2,,,,0,0,0,,,,,,,,,2/8 Mostly Clear,72000.0,,FEW,8900.0,FEW,20000.0,,,,
KRDR,05-18-2001,12:00,METAR,,210,6.0,,,9999,Cloud Development Not Observable,11.0,7.0,29.87,1012.1,,,,0,0,0,,,,,,,,,2/8 Mostly Clear,72000.0,,FEW,4000.0,FEW,20000.0,,,,
KRDR,05-18-2001,10:00,METAR,,200,7.0,,,9999,Cloud Development Not Observable,10.0,5.0,29.86,1011.6,,,,0,0,0,,,,,,,,,Clear,72000.0,,,73000.0,,,,,,
KRDR,05-18-2001,09:00,METAR,,200,7.0,,,9999,Cloud Development Not Observable,9.0,5.0,29.87,1012.0,,,,0,0,0,,,,,,,,,Clear,72000.0,,,73000.0,,,,,,
KRDR,05-18-2001,08:00,METAR,,230,8.0,,,9999,Cloud Development Not Observable,10.0,5.0,29.87,1012.0,,,,0,0,0,,,,,,,,,2/8 Mostly Clear,72000.0,,FEW,20000.0,,,,,,
KRDR,05-18-2001,07:00,METAR,,210,5.0,,,9999,Cloud Development Not Observable,11.0,6.0,29.88,1012.3,,,,0,0,0,,,,,,,,,Clear,72000.0,,,73000.0,,,,,,
KRDR,05-18-2001,06:00,METAR,,200,6.0,,,9999,Cloud Development Not Observable,11.0,5.0,29.87,1012.2,,,,0,0,0,,,,,,,,,Clear,72000.0,,,73000.0,,,,,,
KRDR,05-18-2001,05:00,METAR,,200,7.0,,,9999,Cloud Development Not Observable,10.0,6.0,29.87,1012.1,,,,0,0,0,,,,,,,,,Clear,72000.0,,,73000.0,,,,,,
KRDR,05-18-2001,04:00,METAR,,210,7.0,,,9999,Cloud Development Not Observable,12.0,6.0,29.85,1011.5,,,,0,0,0,,,,,,,,,Clear,72000.0,,,73000.0,,,,,,
KRDR,05-18-2001,03:00,METAR,,200,7.0,,,9999,Cloud Development Not Observable,13.0,6.0,29.84,1011.0,,,,0,0,0,,,,,,,,,Clear,72000.0,,,73000.0,,,,,,
KRDR,05-18-2001,02:00,METAR,,230,8.0,,,9999,Cloud Development Not Observable,15.0,7.0,29.82,1010.5,,,,0,0,0,,,,,,,,,Clear,72000.0,,,73000.0,,,,,,
KRDR,05-18-2001,01:00,METAR,,260,8.0,,,9999,Cloud Development Not Observable,20.0,5.0,29.82,1010.2,,,,0,0,0,,,,,,,,,Clear,72000.0,,,73000.0,,,,,,
KRDR,05-18-2001,00:00,METAR,,300,11.0,,,9999,Cloud Development Not Observable,22.0,6.0,29.82,1010.1,,,,0,0,0,,,,,,,,,2/8 Mostly Clear,72000.0,,FEW,5900.0,,,,,,
KRDR,05-17-2001,22:00,METAR,,280,12.0,,,9999,Cloud Development Not Observable,22.0,3.0,29.82,1010.2,,,,0,0,0,,,,,,,,,2/8 Mostly Clear,72000.0,,FEW,5900.0,,,,,,
KRDR,05-17-2001,21:00,METAR,,320,15.0,20.0,,9999,Cloud Development Not Observable,21.0,3.0,29.82,1010.3,,,,0,0,0,,,,,,,,,4/8 Partly Cloudy,72000.0,,SCT,5900.0,,,,,,
KRDR,05-17-2001,20:00,METAR,,330,12.0,,,9999,Cloud Development Not Observable,21.0,3.0,29.83,1010.5,,,,0,0,0,,,,,,,,,4/8 Partly Cloudy,72000.0,,SCT,4000.0,,,,,,
KRDR,05-17-2001,19:00,METAR,,300,20.0,27.0,,9999,Cloud Development Not Observable,20.0,7.0,29.83,1010.7,,,,0,0,0,,,,,,,,,7/8 Mostly Cloudy,25000.0,,SCT,4000.0,BKN,25000.0,,,,
KRDR,05-17-2001,18:00,METAR,,280,18.0,,,9999,Cloud Development Not Observable,19.0,9.0,29.81,1010.1,,,,0,0,0,,,,,,,,,4/8 Partly Cloudy,72000.0,,SCT,4000.0,SCT,25000.0,,,,
KRDR,05-17-2001,17:00,METAR,,300,20.0,28.0,,9999,Cloud Development Not Observable,17.0,9.0,29.80,1009.5,,,,0,0,0,,,,,,,,,4/8 Partly Cloudy,72000.0,,SCT,3000.0,SCT,25000.0,,,,
KRDR,05-17-2001,16:00,METAR,,290,16.0,,,9999,Cloud Development Not Observable,17.0,9.0,29.77,1008.7,,,,0,0,0,,,,,,,,,7/8 Mostly Cloudy,25000.0,,SCT,2800.0,SCT,9900.0,BKN,25000.0,,
KRDR,05-17-2001,15:00,METAR,,290,21.0,25.0,,9999,Cloud Development Not Observable,15.0,9.0,29.75,1007.8,,,,0,0,0,,,,,,,,,4/8 Partly Cloudy,72000.0,,FEW,2500.0,SCT,9900.0,SCT,25000.0,,
KRDR,05-17-2001,14:00,METAR,,280,16.0,25.0,,9999,Cloud Development Not Observable,14.0,8.0,29.72,1007.0,,,,0,0,0,,,,,,,,,2/8 Mostly Clear,72000.0,,FEW,8900.0,,,,,,
KRDR,05-17-2001,13:00,METAR,,270,14.0,,,9999,Cloud Development Not Observable,13.0,8.0,29.70,1006.1,,,,0,0,0,,,,,,,,,2/8 Mostly Clear,72000.0,,FEW,8900.0,FEW,20000.0,,,,
KRDR,05-17-2001,12:00,METAR,,270,16.0,,,9999,Cloud Development Not Observable,12.0,8.0,29.65,1004.5,,,,0,0,0,,,,,,,,,2/8 Mostly Clear,72000.0,,FEW,8900.0,FEW,20000.0,,,,
KRDR,05-17-2001,11:00,METAR,,260,15.0,,,9999,Cloud Development Not Observable,12.0,8.0,29.63,1003.8,,,,0,0,0,,,,,,,,,2/8 Mostly Clear,72000.0,,FEW,5900.0,FEW,8400.0,,,,
KRDR,05-17-2001,10:00,METAR,,230,7.0,,,9999,Cloud Development Not Observable,10.0,8.0,29.62,1003.5,,,,0,0,0,,,,,,,,,2/8 Mostly Clear,72000.0,,FEW,5900.0,FEW,20000.0,,,,
KRDR,05-17-2001,09:00,METAR,,240,7.0,,,9999,Cloud Development Not Observable,12.0,10.0,29.62,1003.2,,,,0,0,0,,,,,,,,,2/8 Mostly Clear,72000.0,,FEW,20000.0,,,,,,
KRDR,05-17-2001,08:00,METAR,,220,6.0,,,9999,Cloud Development Not Observable,11.0,11.0,29.61,1002.9,,,,0,0,0,,,,,,,,,2/8 Mostly Clear,72000.0,,FEW,20000.0,,,,,,
KRDR,05-17-2001,07:00,METAR,,230,7.0,,,9999,Cloud Development Not Observable,12.0,11.0,29.63,1003.6,,,,0,0,0,,,,,,,,,2/8 Mostly Clear,72000.0,,FEW,20000.0,,,,,,
KRDR,05-17-2001,06:00,METAR,,260,6.0,,,9999,Cloud Development Not Observable,12.0,12.0,29.62,1003.2,,,,0,0,0,,,,,,,,,4/8 Partly Cloudy,72000.0,,SCT,8900.0,,,,,,
KRDR,05-17-2001,05:00,METAR,,270,6.0,,,9999,Cloud Development Not Observable,13.0,13.0,29.62,1003.2,,,,0,0,0,,,,,,,,,4/8 Partly Cloudy,72000.0,,SCT,8900.0,,,,,,
KRDR,05-17-2001,04:00,METAR,,260,4.0,,,9999,Cloud Development Not Observable,14.0,13.0,29.59,1002.4,,,,0,0,0,,,,,,,,,7/8 Mostly Cloudy,9000.0,,FEW,5900.0,BKN,8900.0,,,,
KRDR,05-17-2001,03:22,SPECI,,280,7.0,,,9999,Cloud Development Not Observable,14.0,13.0,29.60,,,,,0,0,0,,,,,,,,,7/8 Mostly Cloudy,9000.0,,BKN,8900.0,,,,,,
KRDR,05-17-2001,03:00,METAR,,280,6.0,,,9999,Light Rain Showers/Cloud Development Not Observable,15.0,13.0,29.59,1002.4,,,,80,0,0,,,,,,,,,7/8 Mostly Cloudy,9000.0,,BKN,8900.0,,,,,,
KRDR,05-17-2001,02:00,METAR,,,3.0,,,9999,Cloud Development Not Observable,15.0,14.0,29.58,1001.9,,,,0,0,0,,,,,,,,,7/8 Mostly Cloudy,9000.0,,FEW,5900.0,BKN,8900.0,BKN,20000.0,,
KRDR,05-17-2001,01:00,METAR,,230,14.0,,,9999,Rain Showers/Cloud Development Not Observable,16.0,13.0,29.61,1003.1,,,,81,0,0,,,,,,,,,8/8 Overcast,9000.0,,SCT,5900.0,BKN,8900.0,OVC,20000.0,,
KRDR,05-17-2001,00:30,METAR,,210,19.0,26.0,,9999,Light Rain Showers/Cloud Development Not Observable,20.0,9.0,29.58,,,,,80,0,0,,,,,,,,,8/8 Overcast,9000.0,,SCT,5900.0,OVC,8900.0,,,,
KRDR,05-17-2001,00:00,METAR,,180,8.0,,,9999,Cloud Development Not Observable,22.0,8.0,29.54,1000.5,,,,0,0,0,,,,,,,,,8/8 Overcast,12000.0,,BKN,12000.0,OVC,20000.0,,,,
KRDR,05-16-2001,23:00,METAR,,210,8.0,,,9999,Cloud Development Not Observable,25.0,6.0,29.55,1000.8,,,,0,0,0,,,,,,,,,7/8 Mostly Cloudy,12000.0,,FEW,5000.0,BKN,12000.0,BKN,20000.0,,
KRDR,05-16-2001,22:00,METAR,,220,12.0,,,9999,Cloud Development Not Observable,24.0,4.0,29.57,1001.5,,,,0,0,0,,,,,,,,,7/8 Mostly Cloudy,9000.0,,BKN,8900.0,BKN,20000.0,,,,
KRDR,05-16-2001,21:00,METAR,,220,13.0,,,9999,Cloud Development Not Observable,25.0,5.0,29.57,1001.6,,,,0,0,0,,,,,,,,,7/8 Mostly Cloudy,3900.0,,BKN,4000.0,BKN,20000.0,,,,
KRDR,05-16-2001,20:00,METAR,,220,14.0,,,9999,Cloud Development Not Observable,26.0,8.0,29.60,1002.6,,,,0,0,0,,,,,,,,,4/8 Partly Cloudy,72000.0,,SCT,4000.0,SCT,15000.0,SCT,20000.0,,
KRDR,05-16-2001,17:00,METAR,,260,12.0,18.0,,9999,Cloud Development Not Observable,23.0,7.0,29.65,1004.2,,,,0,0,0,,,,,,,,,7/8 Mostly Cloudy,20000.0,,SCT,15000.0,BKN,20000.0,,,,
KRDR,05-16-2001,16:00,METAR,,260,10.0,,,9999,Cloud Development Not Observable,21.0,6.0,29.65,1004.3,,,,0,0,0,,,,,,,,,7/8 Mostly Cloudy,25000.0,,SCT,15000.0,BKN,25000.0,,,,
KRDR,05-16-2001,15:00,METAR,,270,11.0,,,9999,Cloud Development Not Observable,20.0,7.0,29.65,1004.5,,,,0,0,0,,,,,,,,,7/8 Mostly Cloudy,25000.0,,SCT,15000.0,BKN,25000.0,,,,
KRDR,05-16-2001,14:00,METAR,,280,10.0,,,9999,Cloud Development Not Observable,18.0,8.0,29.65,1004.6,,,,0,0,0,,,,,,,,,7/8 Mostly Cloudy,20000.0,,SCT,15000.0,BKN,20000.0,,,,
KRDR,05-16-2001,13:00,METAR,,260,10.0,,,9999,Cloud Development Not Observable,15.0,8.0,29.65,1004.3,,,,0,0,0,,,,,,,,,4/8 Partly Cloudy,72000.0,,FEW,15000.0,SCT,20000.0,,,,
KRDR,05-16-2001,12:00,METAR,,260,11.0,,,9999,Cloud Development Not Observable,13.0,8.0,29.64,1004.0,,,,0,0,0,,,,,,,,,4/8 Partly Cloudy,72000.0,,SCT,20000.0,,,,,,
KRDR,05-16-2001,11:00,METAR,,270,9.0,,,9999,Cloud Development Not Observable,11.0,8.0,29.62,1003.3,,,,0,0,0,,,,,,,,,2/8 Mostly Clear,72000.0,,FEW,20000.0,,,,,,
KRDR,05-16-2001,10:00,METAR,,270,8.0,,,9999,Cloud Development Not Observable,11.0,8.0,29.61,1003.0,,,,0,0,0,,,,,,,,,Clear,72000.0,,,73000.0,,,,,,
KRDR,05-16-2001,09:00,METAR,,280,10.0,,,9999,Cloud Development Not Observable,13.0,8.0,29.60,1002.6,,,,0,0,0,,,,,,,,,2/8 Mostly Clear,72000.0,,FEW,20000.0,,,,,,
KRDR,05-16-2001,08:00,METAR,,270,11.0,,,9999,Cloud Development Not Observable,13.0,8.0,29.59,1002.4,,,,0,0,0,,,,,,,,,,72000.0,,,,,,,,,
KRDR,05-16-2001,07:00,METAR,,280,8.0,,,9999,Cloud Development Not Observable,13.0,8.0,29.57,1001.6,,,,0,0,0,,,,,,,,,Clear,72000.0,,,73000.0,,,,,,
KRDR,05-16-2001,06:00,METAR,,270,8.0,,,9999,Cloud Development Not Observable,14.0,8.0,29.57,1001.4,,,,0,0,0,,,,,,,,,Clear,72000.0,,,73000.0,,,,,,
KRDR,05-16-2001,05:00,METAR,,280,7.0,,,9999,Cloud Development Not Observable,15.0,8.0,29.55,1000.7,,,,0,0,0,,,,,,,,,2/8 Mostly Clear,72000.0,,FEW,8900.0,,,,,,
KRDR,05-16-2001,04:00,METAR,,240,6.0,,,9999,Cloud Development Not Observable,15.0,9.0,29.54,1000.4,,,,0,0,0,,,,,,,,,2/8 Mostly Clear,72000.0,,FEW,8900.0,,,,,,
KRDR,05-16-2001,03:00,METAR,,220,8.0,,,9999,Cloud Development Not Observable,15.0,9.0,29.53,1000.3,,,,0,0,0,,,,,,,,,2/8 Mostly Clear,72000.0,,FEW,8900.0,,,,,,
KRDR,05-16-2001,02:00,METAR,,280,7.0,,,9999,Cloud Development Not Observable,18.0,8.0,29.52,999.8,,,,0,0,0,,,,,,,,,2/8 Mostly Clear,72000.0,,FEW,8900.0,FEW,20000.0,,,,
KRDR,05-16-2001,01:00,METAR,,290,5.0,,,9999,Cloud Development Not Observable,20.0,12.0,29.51,999.3,,,,0,0,0,,,,,,,,,4/8 Partly Cloudy,72000.0,,FEW,5000.0,SCT,12000.0,SCT,20000.0,,
KRDR,05-16-2001,00:00,METAR,,310,17.0,,,9999,Cloud Development Not Observable,22.0,11.0,29.48,998.7,,,,0,0,0,,,,,,,,,4/8 Partly Cloudy,72000.0,,FEW,5000.0,SCT,12000.0,SCT,20000.0,,
KRDR,05-15-2001,23:00,METAR,,320,15.0,,310/25KTS,9999,Cloud Development Not Observable,22.0,14.0,29.47,998.3,,,,0,0,0,,,,,,,,,7/8 Mostly Cloudy,12000.0,,FEW,5000.0,BKN,12000.0,BKN,20000.0,,
KRDR,05-15-2001,22:00,METAR,,340,12.0,,,9999,Cloud Development Not Observable,21.0,16.0,29.45,997.7,,,,0,0,0,,,,,,,,,7/8 Mostly Cloudy,12000.0,,FEW,5000.0,BKN,12000.0,BKN,20000.0,,
KRDR,05-15-2001,21:00,METAR,,350,16.0,,330/29KTS,9999,Cloud Development Not Observable,19.0,14.0,29.44,997.4,,,,0,0,0,,,,,,,,,7/8 Mostly Cloudy,12000.0,,SCT,4000.0,BKN,12000.0,BKN,20000.0,,
KRDR,05-15-2001,20:18,SPECI,,350,18.0,,,9999,Cloud Development Not Observable,18.0,16.0,29.41,,,,,0,0,0,,,,,,,,,7/8 Mostly Cloudy,12000.0,,SCT,4000.0,BKN,12000.0,BKN,20000.0,,
KRDR,05-15-2001,20:00,METAR,,320,21.0,26.0,280/32KTS,9999,Thunderstorm with Rain or Snow/Light Rain Showers/Cloud Development Not Observable,18.0,16.0,29.38,994.9,,,,95,80,0,,,,,,,,,8/8 Overcast,12000.0,,SCT,4000.0,BKN,12000.0,OVC,20000.0,,
KRDR,05-15-2001,18:00,METAR,,120,7.0,,,9999,Cloud Development Not Observable,25.0,16.0,29.39,995.2,,,,0,0,0,,,,,,,,,8/8 Overcast,12000.0,,BKN,12000.0,OVC,25000.0,,,,
KRDR,05-15-2001,17:00,METAR,,120,4.0,,,9999,Cloud Development Not Observable,25.0,17.0,29.39,995.4,,,,0,0,0,,,,,,,,,7/8 Mostly Cloudy,25000.0,,FEW,12000.0,BKN,25000.0,,,,
KRDR,05-15-2001,16:00,METAR,,170,10.0,,,9999,Cloud Development Not Observable,24.0,18.0,29.41,996.0,,,,0,0,0,,,,,,,,,7/8 Mostly Cloudy,25000.0,,SCT,12000.0,BKN,25000.0,,,,
KRDR,05-15-2001,15:00,METAR,,190,4.0,,,9999,Cloud Development Not Observable,22.0,18.0,29.43,996.7,,,,0,0,0,,,,,,,,,7/8 Mostly Cloudy,12000.0,,FEW,5000.0,BKN,12000.0,BKN,20000.0,,
KRDR,05-15-2001,14:00,METAR,,180,8.0,,,9999,Haze/Cloud Development Not Observable,21.0,17.0,29.45,997.3,,,,5,0,0,,,,,,,,,7/8 Mostly Cloudy,20000.0,,FEW,5000.0,FEW,12000.0,BKN,20000.0,,
KRDR,05-15-2001,13:00,METAR,,180,7.0,,,9999,Haze/Cloud Development Not Observable,18.0,16.0,29.46,998.1,,,,5,0,0,,,,,,,,,7/8 Mostly Cloudy,20000.0,,FEW,5000.0,FEW,12000.0,BKN,20000.0,,
KRDR,05-15-2001,12:00,METAR,,140,5.0,,,9999,Shallow Fog or Ice Fog/Cloud Development Not Observable,15.0,15.0,29.46,997.8,,,,12,0,0,,,,,,,,,7/8 Mostly Cloudy,20000.0,,FEW,5000.0,FEW,12000.0,BKN,20000.0,,
KRDR,05-15-2001,11:00,METAR,,250,5.0,,,9999,Shallow Fog or Ice Fog/Cloud Development Not Observable,11.0,11.0,29.47,998.3,,,,12,0,0,,,,,,,,,7/8 Mostly Cloudy,20000.0,,FEW,12000.0,BKN,20000.0,,,,
KRDR,05-15-2001,10:00,METAR,,,1.0,,,9999,Shallow Fog or Ice Fog/Cloud Development Not Observable,12.0,12.0,29.47,998.3,,,,12,0,0,,,,,,,,,4/8 Partly Cloudy,72000.0,,FEW,12000.0,SCT,20000.0,,,,
KRDR,05-15-2001,09:00,METAR,,210,4.0,,,6400,Shallow Fog or Ice Fog/Cloud Development Not Observable,13.0,13.0,29.49,998.8,,,,12,0,0,,,,,,,,,2/8 Mostly Clear,72000.0,,FEW,20000.0,,,,,,
KRDR,05-15-2001,08:00,METAR,,250,3.0,,,9999,Cloud Development Not Observable,12.0,12.0,29.51,999.3,,,,0,0,0,,,,,,,,,Clear,72000.0,,,73000.0,,,,,,
KRDR,05-15-2001,07:00,METAR,,150,3.0,,,9999,Cloud Development Not Observable,14.0,14.0,29.52,999.7,,,,0,0,0,,,,,,,,,Clear,72000.0,,,73000.0,,,,,,
KRDR,05-15-2001,06:00,METAR,,110,4.0,,,9999,Cloud Development Not Observable,17.0,15.0,29.52,999.8,,,,0,0,0,,,,,,,,,2/8 Mostly Clear,72000.0,,FEW,15000.0,,,,,,
KRDR,05-15-2001,05:00,METAR,,50,2.0,,,9999,Cloud Development Not Observable,17.0,16.0,29.54,1000.4,,,,0,0,0,,,,,,,,,2/8 Mostly Clear,72000.0,,FEW,15000.0,,,,,,
KRDR,05-15-2001,04:00,METAR,,100,3.0,,,9999,Cloud Development Not Observable,21.0,17.0,29.55,1000.7,,,,0,0,0,,,,,,,,,4/8 Partly Cloudy,72000.0,,SCT,15000.0,,,,,,
KRDR,05-15-2001,03:00,METAR,,150,5.0,,,9999,Cloud Development Not Observable,23.0,16.0,29.55,1000.7,,,,0,0,0,,,,,,,,,7/8 Mostly Cloudy,20000.0,,SCT,15000.0,BKN,20000.0,,,,
KRDR,05-15-2001,02:00,METAR,,140,6.0,,,9999,Cloud Development Not Observable,24.0,17.0,29.54,1000.4,,,,0,0,0,,,,,,,,,7/8 Mostly Cloudy,20000.0,,SCT,15000.0,BKN,20000.0,,,,
KRDR,05-15-2001,01:00,METAR,,90,3.0,,,9999,Cloud Development Not Observable,26.0,17.0,29.55,1000.8,,,,0,0,0,,,,,,,,,7/8 Mostly Cloudy,15000.0,,BKN,15000.0,BKN,20000.0,,,,
KRDR,05-15-2001,00:00,METAR,,110,7.0,,,9999,Cloud Development Not Observable,27.0,17.0,29.55,1000.6,,,,0,0,0,,,,,,,,,7/8 Mostly Cloudy,20000.0,,SCT,15000.0,BKN,20000.0,,,,
KRDR,05-14-2001,23:00,METAR,,150,9.0,,,9999,Cloud Development Not Observable,28.0,17.0,29.56,1001.1,,,,0,0,0,,,,,,,,,7/8 Mostly Cloudy,20000.0,,SCT,15000.0,BKN,20000.0,,,,
KRDR,05-14-2001,22:00,METAR,,140,9.0,,,9999,Cloud Development Not Observable,27.0,16.0,29.59,1002.0,,,,0,0,0,,,,,,,,,7/8 Mostly Cloudy,20000.0,,FEW,15000.0,BKN,20000.0,,,,
KRDR,05-14-2001,21:00,METAR,,,5.0,,,9999,Cloud Development Not Observable,26.0,16.0,29.60,1002.4,,,,0,0,0,,,,,,,,,7/8 Mostly Cloudy,20000.0,,FEW,13000.0,BKN,20000.0,,,,
KRDR,05-14-2001,20:00,METAR,,,6.0,,,9999,Cloud Development Not Observable,26.0,18.0,29.61,1002.7,,,,0,0,0,,,,,,,,,7/8 Mostly Cloudy,20000.0,,FEW,2000.0,BKN,20000.0,,,,
KRDR,05-14-2001,19:00,METAR,,140,8.0,,,9999,Cloud Development Not Observable,24.0,16.0,29.63,1003.6,,,,0,0,0,,,,,,,,,7/8 Mostly Cloudy,20000.0,,FEW,2000.0,BKN,20000.0,,,,
KRDR,05-14-2001,18:00,METAR,,170,13.0,,,9999,Cloud Development Not Observable,22.0,16.0,29.63,1003.5,,,,0,0,0,,,,,,,,,7/8 Mostly Cloudy,20000.0,,SCT,1500.0,BKN,20000.0,,,,
KRDR,05-14-2001,16:00,METAR,,150,13.0,,,8000,Mist/Cloud Development Not Observable,18.0,15.0,29.66,1005.0,,,,10,0,0,,,,,,,,,8/8 Overcast,1200.0,,SCT,800.0,OVC,1200.0,,,,
KRDR,05-14-2001,15:00,METAR,,170,15.0,,,8000,Mist/Cloud Development Not Observable,17.0,15.0,29.66,,,,,10,0,0,,,,,,,,,8/8 Overcast,1000.0,,SCT,800.0,OVC,1000.0,,,,
KRDR,05-14-2001,14:48,SPECI,,170,12.0,,,8000,Mist/Cloud Development Not Observable,17.0,15.0,29.66,,,,,10,0,0,,,,,,,,,8/8 Overcast,1000.0,,SCT,800.0,OVC,1000.0,,,,
KRDR,05-14-2001,14:00,METAR,,180,15.0,,,6400,Mist/Cloud Development Not Observable,15.0,14.0,29.68,,,,,10,0,0,,,,,,,,,8/8 Overcast,800.0,,BKN,800.0,OVC,1000.0,,,,
KRDR,05-14-2001,13:00,METAR,,170,15.0,,,4800,Mist/Cloud Development Not Observable,15.0,14.0,29.67,,,,,10,0,0,,,,,,,,,8/8 Overcast,700.0,,BKN,700.0,OVC,1000.0,,,,
KRDR,05-14-2001,12:48,SPECI,,170,16.0,,,4800,Mist/Cloud Development Not Observable,15.0,14.0,29.67,,,,,10,0,0,,,,,,,,,8/8 Overcast,700.0,,BKN,700.0,OVC,1000.0,,,,
KRDR,05-14-2001,12:00,METAR,,170,15.0,,,9999,Mist/Cloud Development Not Observable,15.0,14.0,29.68,,,,,10,0,0,,,,,,,,,8/8 Overcast,1000.0,,OVC,1000.0,,,,,,
KRDR,05-14-2001,11:00,METAR,,160,15.0,,,9999,Cloud Development Not Observable,15.0,13.0,29.69,,,,,0,0,0,,,,,,,,,8/8 Overcast,1500.0,,OVC,1500.0,,,,,,
KRDR,05-14-2001,10:00,METAR,,170,17.0,,,9999,Cloud Development Not Observable,15.0,13.0,29.71,,,,,0,0,0,,,,,,,,,8/8 Overcast,1500.0,,OVC,1500.0,,,,,,
KRDR,05-14-2001,09:16,SPECI,,170,12.0,,,9999,Cloud Development Not Observable,15.0,13.0,29.72,,,,,0,0,0,,,,,,,,,7/8 Mostly Cloudy,1700.0,,BKN,1700.0,BKN,20000.0,,,,
KRDR,05-14-2001,09:00,METAR,,170,16.0,,,9999,Cloud Development Not Observable,16.0,13.0,29.71,,,,,0,0,0,,,,,,,,,7/8 Mostly Cloudy,20000.0,,FEW,1500.0,BKN,20000.0,,,,
KRDR,05-14-2001,08:00,METAR,,170,19.0,27.0,,9999,Cloud Development Not Observable,16.0,13.0,29.71,,,,,0,0,0,,,,,,,,,7/8 Mostly Cloudy,20000.0,,BKN,20000.0,,,,,,
KRDR,05-14-2001,07:00,METAR,,170,24.0,32.0,,9999,Cloud Development Not Observable,17.0,13.0,29.71,,,,,0,0,0,,,,,,,,,7/8 Mostly Cloudy,20000.0,,BKN,20000.0,,,,,,
KRDR,05-14-2001,06:00,METAR,,170,18.0,28.0,,9999,Cloud Development Not Observable,19.0,13.0,29.74,,,,,0,0,0,,,,,,,,,7/8 Mostly Cloudy,20000.0,,BKN,20000.0,,,,,,
KRDR,05-14-2001,05:00,METAR,,160,18.0,,,9999,Cloud Development Not Observable,20.0,12.0,29.78,,,,,0,0,0,,,,,,,,,7/8 Mostly Cloudy,20000.0,,BKN,20000.0,,,,,,
KRDR,05-14-2001,04:00,METAR,,150,17.0,,,9999,Cloud Development Not Observable,20.0,12.0,29.78,,,,,0,0,0,,,,,,,,,,72000.0,,,,,,,,,
KRDR,05-13-2001,11:10,SPECI,,110,7.0,,,9999,Cloud Development Not Observable,9.0,7.0,30.04,,,,,0,0,0,,,,,,,,,2/8 Mostly Clear,72000.0,,FEW,20000.0,,,,,,
KRDR,05-13-2001,11:00,METAR,,120,7.0,,,9999,Cloud Development Not Observable,9.0,8.0,30.04,,,,,0,0,0,,,,,,,,,2/8 Mostly Clear,72000.0,,FEW,20000.0,,,,,,
KRDR,05-13-2001,10:49,SPECI,,120,7.0,,,9999,Cloud Development Not Observable,9.0,8.0,30.04,,,,,0,0,0,,,,,,,,,2/8 Mostly Clear,72000.0,,FEW,20000.0,,,,,,
KRDR,05-12-2001,22:00,METAR,,160,8.0,,,9999,Cloud Development Not Observable,23.0,7.0,30.06,,,,,0,0,0,,,,,,,,,7/8 Mostly Cloudy,7000.0,,BKN,6900.0,BKN,9900.0,,,,
KRDR,05-12-2001,21:00,METAR,,210,7.0,,,9999,Cloud Development Not Observable,22.0,5.0,30.08,,,,,0,0,0,,,,,,,,,7/8 Mostly Cloudy,10000.0,,SCT,6900.0,BKN,9900.0,BKN,20000.0,,
KRDR,05-12-2001,17:00,METAR,,230,7.0,,,9999,Cloud Development Not Observable,21.0,7.0,30.12,,,,,0,0,0,,,,,,,,,4/8 Partly Cloudy,72000.0,,FEW,9900.0,SCT,20000.0,,,,
KRDR,05-12-2001,16:00,METAR,,210,8.0,,,9999,Cloud Development Not Observable,18.0,7.0,30.13,1021.0,,,,0,0,0,,,,,,,,,4/8 Partly Cloudy,72000.0,,FEW,9900.0,SCT,20000.0,,,,
KRDR,05-12-2001,15:00,METAR,,200,9.0,,,9999,Cloud Development Not Observable,16.0,5.0,30.14,1021.3,,,,0,0,0,,,,,,,,,4/8 Partly Cloudy,72000.0,,FEW,9900.0,SCT,20000.0,,,,
KRDR,05-12-2001,14:35,SPECI,,200,12.0,,,9999,Cloud Development Not Observable,15.0,5.0,30.15,,,,,0,0,0,,,,,,,,,4/8 Partly Cloudy,72000.0,,FEW,9900.0,SCT,25000.0,,,,
KRDR,05-12-2001,04:00,METAR,,190,8.0,,,9999,Cloud Development Not Observable,11.0,5.0,30.18,1022.7,,,,0,0,0,,,,,,,,,8/8 Overcast,20000.0,,OVC,20000.0,,,,,,
KRDR,05-12-2001,03:00,METAR,,170,8.0,,,9999,Cloud Development Not Observable,12.0,5.0,30.17,1022.6,,,,0,0,0,,,,,,,,,8/8 Overcast,20000.0,,OVC,20000.0,,,,,,
KRDR,05-12-2001,02:00,METAR,,150,7.0,,,9999,Cloud Development Not Observable,14.0,4.0,30.17,1022.4,,,,0,0,0,,,,,,,,,4/8 Partly Cloudy,72000.0,,SCT,20000.0,,,,,,
KRDR,05-12-2001,01:00,METAR,,170,8.0,,,9999,Cloud Development Not Observable,14.0,4.0,30.17,1022.5,,,,0,0,0,,,,,,,,,2/8 Mostly Clear,72000.0,,FEW,5000.0,FEW,20000.0,,,,
KRDR,05-12-2001,00:00,METAR,,140,7.0,,,9999,Cloud Development Not Observable,17.0,1.0,30.17,1022.6,,,,0,0,0,,,,,,,,,2/8 Mostly Clear,72000.0,,FEW,5000.0,FEW,20000.0,,,,
KRDR,05-11-2001,23:00,METAR,,,4.0,,,9999,Cloud Development Not Observable,18.0,2.0,30.19,1023.2,,,,0,0,0,,,,,,,,,2/8 Mostly Clear,72000.0,,FEW,4500.0,,,,,,
KRDR,05-11-2001,22:00,METAR,,,3.0,,,9999,Cloud Development Not Observable,17.0,1.0,30.19,1023.4,,,,0,0,0,,,,,,,,,2/8 Mostly Clear,72000.0,,FEW,4000.0,,,,,,
KRDR,05-11-2001,21:00,METAR,,,3.0,,,9999,Cloud Development Not Observable,17.0,3.0,30.20,1023.7,,,,0,0,0,,,,,,,,,2/8 Mostly Clear,72000.0,,FEW,3500.0,,,,,,
KRDR,05-11-2001,20:00,METAR,,,6.0,,,9999,Cloud Development Not Observable,16.0,3.0,30.21,1024.0,,,,0,0,0,,,,,,,,,2/8 Mostly Clear,72000.0,,FEW,3000.0,FEW,20000.0,,,,
KRDR,05-11-2001,19:00,METAR,,,6.0,,,9999,Cloud Development Not Observable,15.0,3.0,30.22,1024.4,,,,0,0,0,,,,,,,,,4/8 Partly Cloudy,72000.0,,FEW,3000.0,SCT,20000.0,,,,
KRDR,05-11-2001,18:00,METAR,,,3.0,,,9999,Cloud Development Not Observable,14.0,3.0,30.22,1024.4,,,,0,0,0,,,,,,,,,4/8 Partly Cloudy,72000.0,,FEW,3000.0,SCT,20000.0,,,,
KRDR,05-11-2001,17:00,METAR,,,1.0,,,9999,Cloud Development Not Observable,13.0,4.0,30.22,1024.4,,,,0,0,0,,,,,,,,,7/8 Mostly Cloudy,20000.0,,BKN,20000.0,,,,,,
KRDR,05-11-2001,16:00,METAR,,350,7.0,,,9999,Cloud Development Not Observable,12.0,4.0,30.22,1024.4,,,,0,0,0,,,,,,,,,4/8 Partly Cloudy,72000.0,,SCT,20000.0,,,,,,
KRDR,05-11-2001,15:00,METAR,,320,11.0,,,9999,Cloud Development Not Observable,10.0,3.0,30.22,1024.4,,,,0,0,0,,,,,,,,,2/8 Mostly Clear,72000.0,,FEW,20000.0,,,,,,
KRDR,05-11-2001,14:00,METAR,,320,11.0,,,9999,Cloud Development Not Observable,8.0,2.0,30.22,1024.3,,,,0,0,0,,,,,,,,,2/8 Mostly Clear,72000.0,,FEW,20000.0,,,,,,
KRDR,05-11-2001,13:00,METAR,,350,10.0,,,9999,Cloud Development Not Observable,6.0,2.0,30.20,1023.8,,,,0,0,0,,,,,,,,,2/8 Mostly Clear,72000.0,,FEW,20000.0,,,,,,
KRDR,05-11-2001,12:00,METAR,,310,8.0,,,9999,Cloud Development Not Observable,3.0,1.0,30.19,1023.3,,,,0,0,0,,,,,,,,,2/8 Mostly Clear,72000.0,,FEW,14000.0,,,,,,
KRDR,05-11-2001,11:00,METAR,,310,6.0,,,9999,Cloud Development Not Observable,2.0,0.0,30.17,1022.6,,,,0,0,0,,,,,,,,,2/8 Mostly Clear,72000.0,,FEW,3000.0,FEW,14000.0,,,,
KRDR,05-11-2001,10:00,METAR,,330,6.0,,,9999,Cloud Development Not Observable,2.0,0.0,30.15,1021.9,,,,0,0,0,,,,,,,,,Clear,72000.0,,,73000.0,,,,,,
KRDR,05-11-2001,09:00,METAR,,310,6.0,,,9999,Cloud Development Not Observable,3.0,1.0,30.14,1021.6,,,,0,0,0,,,,,,,,,Clear,72000.0,,,73000.0,,,,,,
KRDR,05-11-2001,08:00,METAR,,310,7.0,,,9999,Cloud Development Not Observable,4.0,2.0,30.13,1021.3,,,,0,0,0,,,,,,,,,Clear,72000.0,,,73000.0,,,,,,
KRDR,05-11-2001,07:00,METAR,,320,8.0,,,9999,Cloud Development Not Observable,4.0,2.0,30.12,1020.8,,,,0,0,0,,,,,,,,,2/8 Mostly Clear,72000.0,,FEW,14000.0,,,,,,
KRDR,05-11-2001,06:00,METAR,,320,6.0,,,9999,Cloud Development Not Observable,5.0,3.0,30.10,1020.0,,,,0,0,0,,,,,,,,,4/8 Partly Cloudy,72000.0,,SCT,14000.0,,,,,,
KRDR,05-11-2001,05:00,METAR,,340,8.0,,,9999,Cloud Development Not Observable,6.0,3.0,30.09,1019.9,,,,0,0,0,,,,,,,,,4/8 Partly Cloudy,72000.0,,SCT,12000.0,,,,,,
KRDR,05-11-2001,04:00,METAR,,320,8.0,,,9999,Cloud Development Not Observable,7.0,4.0,30.09,1019.9,,,,0,0,0,,,,,,,,,4/8 Partly Cloudy,72000.0,,SCT,12000.0,,,,,,
KRDR,05-11-2001,03:00,METAR,,340,10.0,,,9999,Cloud Development Not Observable,8.0,4.0,30.08,1019.4,,,,0,0,0,,,,,,,,,7/8 Mostly Cloudy,12000.0,,BKN,12000.0,BKN,18000.0,,,,
KRDR,05-11-2001,02:00,METAR,,350,11.0,,,9999,Cloud Development Not Observable,10.0,4.0,30.05,1018.7,,,,0,0,0,,,,,,,,,7/8 Mostly Cloudy,12000.0,,BKN,12000.0,BKN,18000.0,,,,
KRDR,05-11-2001,01:00,METAR,,350,14.0,,,9999,Cloud Development Not Observable,11.0,4.0,30.02,1017.4,,,,0,0,0,,,,,,,,,7/8 Mostly Cloudy,12000.0,,BKN,12000.0,,,,,,
KRDR,05-11-2001,00:00,METAR,,360,14.0,,,9999,Cloud Development Not Observable,13.0,4.0,30.02,1017.4,,,,0,0,0,,,,,,,,,7/8 Mostly Cloudy,15000.0,,FEW,4000.0,BKN,15000.0,,,,
KRDR,05-10-2001,23:00,METAR,,350,17.0,21.0,,9999,Cloud Development Not Observable,14.0,4.0,30.01,1017.1,,,,0,0,0,,,,,,,,,4/8 Partly Cloudy,72000.0,,FEW,4000.0,SCT,20000.0,,,,
KRDR,05-10-2001,22:00,METAR,,360,17.0,,,9999,Cloud Development Not Observable,15.0,5.0,30.00,1016.7,,,,0,0,0,,,,,,,,,7/8 Mostly Cloudy,20000.0,,SCT,4000.0,BKN,20000.0,,,,
KRDR,05-10-2001,21:00,METAR,,360,14.0,,,9999,Cloud Development Not Observable,16.0,4.0,29.99,1016.3,,,,0,0,0,,,,,,,,,7/8 Mostly Cloudy,20000.0,,SCT,4000.0,BKN,20000.0,,,,
KRDR,05-10-2001,20:00,METAR,,350,12.0,20.0,,9999,Cloud Development Not Observable,15.0,4.0,29.98,1015.9,,,,0,0,0,,,,,,,,,7/8 Mostly Cloudy,20000.0,,SCT,4000.0,BKN,20000.0,,,,
KRDR,05-10-2001,19:00,METAR,,330,17.0,26.0,,9999,Cloud Development Not Observable,15.0,4.0,29.96,1015.3,,,,0,0,0,,,,,,,,,2/8 Mostly Clear,72000.0,,FEW,3000.0,FEW,20000.0,,,,
KRDR,05-10-2001,18:00,METAR,,360,14.0,20.0,,9999,Cloud Development Not Observable,15.0,5.0,29.96,1015.3,,,,0,0,0,,,,,,,,,2/8 Mostly Clear,72000.0,,FEW,3000.0,FEW,20000.0,,,,
KRDR,05-10-2001,17:00,METAR,,350,13.0,,,9999,Cloud Development Not Observable,13.0,5.0,29.96,1015.2,,,,0,0,0,,,,,,,,,2/8 Mostly Clear,72000.0,,FEW,3000.0,,,,,,
KRDR,05-10-2001,16:00,METAR,,350,14.0,,,9999,Cloud Development Not Observable,11.0,4.0,29.96,1014.7,,,,0,0,0,,,,,,,,,2/8 Mostly Clear,72000.0,,FEW,20000.0,,,,,,
KRDR,05-10-2001,15:00,METAR,,340,17.0,,,9999,Cloud Development Not Observable,10.0,3.0,29.95,1014.7,,,,0,0,0,,,,,,,,,2/8 Mostly Clear,72000.0,,FEW,20000.0,,,,,,
KRDR,05-10-2001,14:00,METAR,,330,16.0,,,9999,Cloud Development Not Observable,8.0,3.0,29.95,1014.7,,,,0,0,0,,,,,,,,,2/8 Mostly Clear,72000.0,,FEW,20000.0,,,,,,
KRDR,05-10-2001,13:00,METAR,,330,11.0,,,9999,Cloud Development Not Observable,7.0,3.0,29.94,1014.3,,,,0,0,0,,,,,,,,,7/8 Mostly Cloudy,20000.0,,FEW,15000.0,BKN,20000.0,,,,
KRDR,05-10-2001,12:00,METAR,,320,11.0,,,9999,Cloud Development Not Observable,5.0,2.0,29.91,1013.2,,,,0,0,0,,,,,,,,,7/8 Mostly Cloudy,20000.0,,FEW,16000.0,BKN,20000.0,,,,
KRDR,05-10-2001,11:00,METAR,,330,11.0,,,9999,Cloud Development Not Observable,5.0,2.0,29.86,1011.8,,,,0,0,0,,,,,,,,,4/8 Partly Cloudy,72000.0,,FEW,14000.0,SCT,20000.0,,,,
KRDR,05-10-2001,10:00,METAR,,320,13.0,,,9999,Cloud Development Not Observable,5.0,3.0,29.83,1010.8,,,,0,0,0,,,,,,,,,7/8 Mostly Cloudy,20000.0,,SCT,14000.0,BKN,20000.0,,,,
KRDR,05-10-2001,09:00,METAR,,330,16.0,,,9999,Cloud Development Not Observable,6.0,4.0,29.79,1009.3,,,,0,0,0,,,,,,,,,7/8 Mostly Cloudy,20000.0,,SCT,14000.0,BKN,20000.0,,,,
KRDR,05-10-2001,08:00,METAR,,350,13.0,,,9999,Cloud Development Not Observable,9.0,8.0,29.77,1008.5,,,,0,0,0,,,,,,,,,7/8 Mostly Cloudy,20000.0,,SCT,14000.0,BKN,20000.0,,,,
KRDR,05-10-2001,07:00,METAR,,340,12.0,,,9999,Cloud Development Not Observable,10.0,8.0,29.77,1008.3,,,,0,0,0,,,,,,,,,7/8 Mostly Cloudy,20000.0,,SCT,14000.0,BKN,20000.0,,,,
KRDR,05-10-2001,06:00,METAR,,340,9.0,,,9999,Cloud Development Not Observable,11.0,8.0,29.76,1008.0,,,,0,0,0,,,,,,,,,4/8 Partly Cloudy,72000.0,,FEW,9900.0,SCT,20000.0,,,,
KRDR,05-10-2001,05:00,METAR,,350,11.0,,,9999,Cloud Development Not Observable,12.0,9.0,29.73,1007.2,,,,0,0,0,,,,,,,,,4/8 Partly Cloudy,72000.0,,FEW,9900.0,SCT,20000.0,,,,
KRDR,05-10-2001,04:00,METAR,,340,16.0,,,9999,Cloud Development Not Observable,16.0,8.0,29.71,1005.1,,,,0,0,0,,,,,,,,,7/8 Mostly Cloudy,20000.0,,SCT,9900.0,BKN,20000.0,,,,
KRDR,05-10-2001,03:00,METAR,,320,15.0,,,9999,Cloud Development Not Observable,18.0,6.0,29.67,1005.1,,,,0,0,0,,,,,,,,,7/8 Mostly Cloudy,20000.0,,FEW,4000.0,SCT,9900.0,BKN,20000.0,,
KRDR,05-10-2001,02:00,METAR,,290,12.0,,,9999,Cloud Development Not Observable,19.0,8.0,29.64,1004.2,,,,0,0,0,,,,,,,,,7/8 Mostly Cloudy,20000.0,,FEW,4000.0,SCT,7900.0,BKN,20000.0,,
KRDR,05-10-2001,01:00,METAR,,310,15.0,,,9999,Cloud Development Not Observable,21.0,7.0,29.63,1003.9,,,,0,0,0,,,,,,,,,7/8 Mostly Cloudy,20000.0,,FEW,4000.0,SCT,7900.0,BKN,20000.0,,
KRDR,05-10-2001,00:00,METAR,,280,11.0,,,9999,Cloud Development Not Observable,26.0,5.0,29.62,1003.3,,,,0,0,0,,,,,,,,,7/8 Mostly Cloudy,8000.0,,FEW,4000.0,BKN,7900.0,BKN,20000.0,,
KRDR,05-09-2001,23:00,METAR,,270,11.0,,,9999,Cloud Development Not Observable,26.0,4.0,29.63,1003.8,,,,0,0,0,,,,,,,,,7/8 Mostly Cloudy,8000.0,,SCT,3500.0,BKN,7900.0,BKN,20000.0,,
KRDR,05-09-2001,22:25,METAR,,170,12.0,,,9999,Thunderstorm/Cloud Development Not Observable,25.0,12.0,29.60,,,,,17,0,0,,,,,,,,,8/8 Overcast,3900.0,,BKN,4000.0,BKN,7900.0,OVC,20000.0,,
KRDR,05-09-2001,22:00,METAR,,170,8.0,,,9999,Cloud Development Not Observable,26.0,11.0,29.61,1003.1,,,,0,0,0,,,,,,,,,7/8 Mostly Cloudy,8000.0,,SCT,3500.0,BKN,7900.0,BKN,20000.0,,
KRDR,05-09-2001,21:00,METAR,,140,10.0,,,9999,Cloud Development Not Observable,26.0,11.0,29.63,1004.2,,,,0,0,0,,,,,,,,,8/8 Overcast,20000.0,,SCT,3500.0,OVC,20000.0,,,,
KRDR,05-09-2001,20:00,METAR,,160,11.0,,,9999,Cloud Development Not Observable,25.0,12.0,29.65,1004.3,,,,0,0,0,,,,,,,,,8/8 Overcast,20000.0,,FEW,3500.0,OVC,20000.0,,,,
KRDR,05-09-2001,19:00,METAR,,150,7.0,,,9999,Cloud Development Not Observable,23.0,11.0,29.69,1005.3,,,,0,0,0,,,,,,,,,7/8 Mostly Cloudy,20000.0,,FEW,12000.0,BKN,20000.0,FEW,35000.0,,
KRDR,05-09-2001,18:00,METAR,,160,8.0,,,9999,Cloud Development Not Observable,20.0,11.0,29.70,1006.2,,,,0,0,0,,,,,,,,,7/8 Mostly Cloudy,20000.0,,SCT,12000.0,BKN,20000.0,,,,
KRDR,05-09-2001,17:00,METAR,,150,10.0,,,9999,Cloud Development Not Observable,18.0,9.0,29.72,1006.7,,,,0,0,0,,,,,,,,,4/8 Partly Cloudy,72000.0,,FEW,3500.0,SCT,12000.0,SCT,20000.0,,
KRDR,05-09-2001,16:00,METAR,,170,6.0,,,9999,Cloud Development Not Observable,17.0,8.0,29.72,1006.8,,,,0,0,0,,,,,,,,,4/8 Partly Cloudy,72000.0,,SCT,12000.0,SCT,20000.0,,,,
KRDR,05-09-2001,15:00,METAR,,160,10.0,,,9999,Cloud Development Not Observable,13.0,7.0,29.74,1007.6,,,,0,0,0,,,,,,,,,4/8 Partly Cloudy,72000.0,,SCT,12000.0,SCT,20000.0,,,,
KRDR,05-09-2001,14:00,METAR,,140,8.0,,,9999,Cloud Development Not Observable,12.0,6.0,29.76,1008.2,,,,0,0,0,,,,,,,,,4/8 Partly Cloudy,72000.0,,SCT,12000.0,SCT,20000.0,,,,
KRDR,05-09-2001,13:00,METAR,,150,6.0,,,9999,Cloud Development Not Observable,8.0,5.0,29.77,1008.7,,,,0,0,0,,,,,,,,,7/8 Mostly Cloudy,12000.0,,BKN,12000.0,BKN,20000.0,,,,
KRDR,05-09-2001,12:00,METAR,,150,6.0,,,9999,Cloud Development Not Observable,7.0,5.0,29.79,1009.2,,,,0,0,0,,,,,,,,,7/8 Mostly Cloudy,12000.0,,BKN,12000.0,BKN,20000.0,,,,
KRDR,05-09-2001,11:00,METAR,,130,5.0,,,9999,Cloud Development Not Observable,7.0,4.0,29.79,1009.2,,,,0,0,0,,,,,,,,,4/8 Partly Cloudy,72000.0,,FEW,12000.0,SCT,20000.0,,,,
KRDR,05-09-2001,10:00,METAR,,90,5.0,,,9999,Cloud Development Not Observable,7.0,4.0,29.81,1009.9,,,,0,0,0,,,,,,,,,4/8 Partly Cloudy,72000.0,,FEW,12000.0,SCT,20000.0,,,,
KRDR,05-09-2001,09:00,METAR,,120,5.0,,,9999,Cloud Development Not Observable,8.0,5.0,29.84,1011.0,,,,0,0,0,,,,,,,,,7/8 Mostly Cloudy,20000.0,,SCT,12000.0,BKN,20000.0,,,,
KRDR,05-09-2001,08:00,METAR,,150,6.0,,,9999,Cloud Development Not Observable,9.0,4.0,29.85,1011.3,,,,0,0,0,,,,,,,,,7/8 Mostly Cloudy,20000.0,,SCT,12000.0,BKN,20000.0,,,,
KRDR,05-09-2001,07:00,METAR,,170,6.0,,,9999,Cloud Development Not Observable,10.0,4.0,29.84,1011.1,,,,0,0,0,,,,,,,,,7/8 Mostly Cloudy,12000.0,,BKN,12000.0,BKN,20000.0,,,,
KRDR,05-09-2001,06:00,METAR,,190,6.0,,,9999,Cloud Development Not Observable,9.0,4.0,29.86,1011.7,,,,0,0,0,,,,,,,,,7/8 Mostly Cloudy,20000.0,,FEW,12000.0,BKN,20000.0,,,,
KRDR,05-09-2001,05:00,METAR,,210,6.0,,,9999,Cloud Development Not Observable,8.0,3.0,29.87,1012.2,,,,0,0,0,,,,,,,,,4/8 Partly Cloudy,72000.0,,FEW,9900.0,SCT,20000.0,,,,
KRDR,05-09-2001,04:00,METAR,,190,7.0,,,9999,Cloud Development Not Observable,8.0,4.0,29.88,1012.5,,,,0,0,0,,,,,,,,,4/8 Partly Cloudy,72000.0,,FEW,12000.0,SCT,20000.0,,,,
KRDR,05-09-2001,02:00,METAR,,180,6.0,,,9999,Cloud Development Not Observable,13.0,3.0,29.89,1012.8,,,,0,0,0,,,,,,,,,4/8 Partly Cloudy,72000.0,,FEW,9900.0,SCT,20000.0,,,,
KRDR,05-09-2001,01:00,METAR,,230,4.0,,,9999,Cloud Development Not Observable,16.0,3.0,29.90,1013.1,,,,0,0,0,,,,,,,,,7/8 Mostly Cloudy,20000.0,,BKN,20000.0,,,,,,
KRDR,05-09-2001,00:00,METAR,,270,9.0,,,9999,Cloud Development Not Observable,17.0,-2.0,29.91,1013.3,,,,0,0,0,,,,,,,,,7/8 Mostly Cloudy,20000.0,,BKN,20000.0,,,,,,
KRDR,05-08-2001,23:00,METAR,,260,11.0,,,9999,Cloud Development Not Observable,17.0,0.0,29.92,1013.6,,,,0,0,0,,,,,,,,,4/8 Partly Cloudy,72000.0,,SCT,20000.0,,,,,,
KRDR,05-08-2001,22:00,METAR,,250,14.0,,,9999,Cloud Development Not Observable,17.0,2.0,29.93,1014.0,,,,0,0,0,,,,,,,,,2/8 Mostly Clear,72000.0,,FEW,20000.0,,,,,,
KRDR,05-08-2001,21:00,METAR,,280,11.0,16.0,,9999,Cloud Development Not Observable,16.0,0.0,29.95,1014.7,,,,0,0,0,,,,,,,,,2/8 Mostly Clear,72000.0,,FEW,20000.0,,,,,,
KRDR,05-08-2001,20:00,METAR,,280,17.0,23.0,,9999,Cloud Development Not Observable,15.0,-1.0,29.95,1015.0,,,,0,0,0,,,,,,,,,Clear,72000.0,,,73000.0,,,,,,
KRDR,05-08-2001,19:00,METAR,,300,18.0,,,9999,Cloud Development Not Observable,14.0,-1.0,29.97,1015.7,,,,0,0,0,,,,,,,,,2/8 Mostly Clear,72000.0,,FEW,3000.0,,,,,,
KRDR,05-08-2001,18:00,METAR,,310,19.0,23.0,280/25KTS,9999,Cloud Development Not Observable,13.0,0.0,29.98,1015.8,,,,0,0,0,,,,,,,,,2/8 Mostly Clear,72000.0,,FEW,3000.0,,,,,,
KRDR,05-08-2001,17:00,METAR,,290,15.0,23.0,,9999,Cloud Development Not Observable,11.0,0.0,29.99,1016.2,,,,0,0,0,,,,,,,,,2/8 Mostly Clear,72000.0,,FEW,3000.0,,,,,,
KRDR,05-08-2001,16:00,METAR,,280,17.0,27.0,,9999,Cloud Development Not Observable,10.0,0.0,29.98,1016.1,,,,0,0,0,,,,,,,,,2/8 Mostly Clear,72000.0,,FEW,3000.0,,,,,,
KRDR,05-08-2001,15:00,METAR,,310,20.0,,310/21KTS,9999,Cloud Development Not Observable,9.0,0.0,29.98,1016.1,,,,0,0,0,,,,,,,,,2/8 Mostly Clear,72000.0,,FEW,3000.0,,,,,,
KRDR,05-08-2001,14:00,METAR,,310,19.0,30.0,,9999,Cloud Development Not Observable,8.0,0.0,29.97,1015.6,,,,0,0,0,,,,,,,,,2/8 Mostly Clear,72000.0,,FEW,3000.0,,,,,,
KRDR,05-08-2001,13:00,METAR,,300,17.0,,,9999,Cloud Development Not Observable,6.0,1.0,29.94,1014.8,,,,0,0,0,,,,,,,,,2/8 Mostly Clear,72000.0,,FEW,3000.0,FEW,20000.0,,,,
KRDR,05-08-2001,12:00,METAR,,310,15.0,,,9999,Cloud Development Not Observable,5.0,1.0,29.91,1013.8,,,,0,0,0,,,,,,,,,2/8 Mostly Clear,72000.0,,FEW,3000.0,FEW,8900.0,,,,
KRDR,05-08-2001,11:00,METAR,,300,17.0,,,9999,Cloud Development Not Observable,6.0,3.0,29.88,1012.6,,,,0,0,0,,,,,,,,,7/8 Mostly Cloudy,20000.0,,SCT,3000.0,SCT,8900.0,BKN,20000.0,,
KRDR,05-08-2001,10:00,METAR,,280,9.0,,,9999,Cloud Development Not Observable,5.0,3.0,29.85,1011.6,,,,0,0,0,,,,,,,,,2/8 Mostly Clear,72000.0,,FEW,8900.0,FEW,20000.0,,,,
KRDR,05-08-2001,09:00,METAR,,280,7.0,,,9999,Cloud Development Not Observable,4.0,3.0,29.83,1010.2,,,,0,0,0,,,,,,,,,4/8 Partly Cloudy,72000.0,,FEW,5000.0,FEW,8900.0,SCT,20000.0,,
KRDR,05-08-2001,08:00,METAR,,320,6.0,,,9999,Cloud Development Not Observable,3.0,3.0,29.81,1010.3,,,,0,0,0,,,,,,,,,4/8 Partly Cloudy,72000.0,,FEW,8900.0,SCT,20000.0,,,,
KRDR,05-08-2001,07:00,METAR,,,3.0,,,9999,Cloud Development Not Observable,4.0,4.0,29.79,1009.5,,,,0,0,0,,,,,,,,,7/8 Mostly Cloudy,20000.0,,FEW,8900.0,BKN,20000.0,,,,
KRDR,05-08-2001,06:00,METAR,,,3.0,,,9999,Cloud Development Not Observable,7.0,5.0,29.78,1009.3,,,,0,0,0,,,,,,,,,7/8 Mostly Cloudy,20000.0,,SCT,8900.0,BKN,20000.0,,,,
KRDR,05-08-2001,05:00,METAR,,150,4.0,,,9999,Cloud Development Not Observable,7.0,5.0,29.79,1009.6,,,,0,0,0,,,,,,,,,8/8 Overcast,9000.0,,FEW,4000.0,BKN,8900.0,OVC,20000.0,,
KRDR,05-08-2001,04:00,METAR,,200,3.0,,,9999,Cloud Development Not Observable,7.0,5.0,29.81,1010.3,,,,0,0,0,,,,,,,,,8/8 Overcast,7000.0,,FEW,4000.0,BKN,6900.0,OVC,20000.0,,
KRDR,05-08-2001,03:00,METAR,,280,7.0,,,9999,Cloud Development Not Observable,7.0,5.0,29.82,1010.7,,,,0,0,0,,,,,,,,,8/8 Overcast,7000.0,,BKN,6900.0,OVC,20000.0,,,,
KRDR,05-08-2001,02:00,METAR,,280,16.0,,,9999,Cloud Development Not Observable,8.0,4.0,29.82,1010.6,,,,0,0,0,,,,,,,,,8/8 Overcast,7000.0,,SCT,4000.0,BKN,6900.0,OVC,20000.0,,
KRDR,05-08-2001,01:00,METAR,,280,16.0,,,9999,Cloud Development Not Observable,8.0,3.0,29.81,1010.3,,,,0,0,0,,,,,,,,,8/8 Overcast,3900.0,,FEW,2500.0,BKN,4000.0,BKN,9900.0,OVC,20000.0
KRDR,05-08-2001,00:00,METAR,,270,13.0,21.0,,9999,Cloud Development Not Observable,8.0,4.0,29.82,1010.7,,,,0,0,0,,,,,,,,,8/8 Overcast,3400.0,,FEW,2500.0,BKN,3500.0,BKN,9900.0,OVC,20000.0
KRDR,05-07-2001,22:45,METAR,,270,17.0,22.0,,9999,Cloud Development Not Observable,9.0,4.0,29.82,,,,,0,0,0,,,,,,,,,8/8 Overcast,3400.0,,FEW,2500.0,BKN,3500.0,OVC,9900.0,,
KRDR,05-07-2001,22:30,METAR,,290,21.0,29.0,,9999,Light Rain Showers/Cloud Development Not Observable,9.0,3.0,29.81,,,,,80,0,0,,,,,,,,,7/8 Mostly Cloudy,3400.0,,FEW,2500.0,BKN,3500.0,BKN,9900.0,BKN,20000.0
KRDR,05-07-2001,22:00,METAR,,280,18.0,26.0,,9999,Cloud Development Not Observable,11.0,3.0,29.81,1010.3,,,,0,0,0,,,,,,,,,7/8 Mostly Cloudy,3400.0,,BKN,3500.0,BKN,9900.0,BKN,20000.0,,
KRDR,05-07-2001,21:00,METAR,,280,16.0,,,9999,Cloud Development Not Observable,10.0,3.0,29.81,1010.2,,,,0,0,0,,,,,,,,,7/8 Mostly Cloudy,3400.0,,BKN,3500.0,BKN,9900.0,BKN,20000.0,,
KRDR,05-07-2001,20:15,SPECI,,270,14.0,22.0,,9999,Cloud Development Not Observable,10.0,3.0,29.81,,,,,0,0,0,,,,,,,,,7/8 Mostly Cloudy,3400.0,,FEW,2500.0,BKN,3500.0,BKN,9900.0,,
KRDR,05-07-2001,20:00,METAR,,270,18.0,25.0,,9999,Light Rain Showers/Cloud Development Not Observable,10.0,3.0,29.81,1010.2,,,,80,0,0,,,,,,,,,7/8 Mostly Cloudy,3400.0,,FEW,2500.0,BKN,3500.0,BKN,9900.0,BKN,20000.0
KRDR,05-07-2001,19:00,METAR,,270,16.0,23.0,280/26KTS,9999,Light Rain Showers/Cloud Development Not Observable,11.0,4.0,29.80,1009.7,,,,80,0,0,,,,,,,,,7/8 Mostly Cloudy,3400.0,,FEW,2500.0,BKN,3500.0,BKN,9900.0,BKN,20000.0
KRDR,05-07-2001,18:00,METAR,,290,14.0,20.0,,9999,Light Rain Showers/Cloud Development Not Observable,10.0,5.0,29.81,1010.1,,,,80,0,0,,,,,,,,,7/8 Mostly Cloudy,3200.0,,FEW,2500.0,BKN,3300.0,BKN,20000.0,,
KRDR,05-07-2001,17:00,METAR,Normal,260,12.0,,250/26KTS,9999,Cloud Development Not Observable,9.0,5.0,29.81,1010.1,,,,0,0,0,,,,,,,,,,3200.0,,FEW,2500.0,BKN,3300.0,BKN,20000.0,,
KRDR,05-07-2001,16:19,SPECI,Normal,260,17.0,,,9999,Cloud Development Not Observable,9.0,5.0,29.80,,,,,0,0,0,,,,,,,,,,3200.0,,FEW,2500.0,BKN,3300.0,,,,
KRDR,05-07-2001,16:00,METAR,,250,20.0,28.0,,9999,Light Rain Showers/Cloud Development Not Observable,10.0,5.0,29.80,1009.9,,,,80,0,0,,,,,,,,,7/8 Mostly Cloudy,3400.0,,FEW,2800.0,BKN,3500.0,BKN,6900.0,BKN,20000.0
KRDR,05-07-2001,15:36,SPECI,,270,15.0,20.0,,9999,Light Rain Showers/Cloud Development Not Observable,10.0,4.0,29.80,,,,,80,0,0,,,,,,,,,7/8 Mostly Cloudy,3000.0,,FEW,2000.0,BKN,3000.0,BKN,6900.0,BKN,20000.0
KRDR,05-07-2001,15:00,METAR,,260,16.0,,,9999,Cloud Development Not Observable,10.0,3.0,29.81,1010.1,,,,0,0,0,,,,,,,,,7/8 Mostly Cloudy,7500.0,,SCT,3000.0,BKN,7400.0,BKN,20000.0,,
KRDR,05-07-2001,14:00,METAR,,250,16.0,22.0,,9999,Cloud Development Not Observable,10.0,4.0,29.80,1009.9,,,,0,0,0,,,,,,,,,7/8 Mostly Cloudy,8500.0,,FEW,3000.0,BKN,8400.0,BKN,20000.0,,
KRDR,05-07-2001,13:00,METAR,,250,17.0,,,9999,Cloud Development Not Observable,8.0,4.0,29.81,1010.1,,,,0,0,0,,,,,,,,,4/8 Partly Cloudy,72000.0,,SCT,8400.0,SCT,20000.0,,,,
KRDR,05-07-2001,12:00,METAR,,240,14.0,,,9999,Cloud Development Not Observable,7.0,3.0,29.80,1009.9,,,,0,0,0,,,,,,,,,2/8 Mostly Clear,72000.0,,FEW,6900.0,,,,,,
KRDR,05-07-2001,11:00,METAR,,250,13.0,,,9999,Cloud Development Not Observable,6.0,3.0,29.80,1009.7,,,,0,0,0,,,,,,,,,2/8 Mostly Clear,72000.0,,FEW,6900.0,,,,,,
KRDR,05-07-2001,10:00,METAR,,250,13.0,,,9999,Cloud Development Not Observable,7.0,3.0,29.79,1009.4,,,,0,0,0,,,,,,,,,2/8 Mostly Clear,72000.0,,FEW,6900.0,,,,,,
KRDR,05-07-2001,09:00,METAR,,250,14.0,,,9999,Cloud Development Not Observable,7.0,4.0,29.79,1009.3,,,,0,0,0,,,,,,,,,Clear,72000.0,,,73000.0,,,,,,
KRDR,05-07-2001,08:00,METAR,,240,10.0,,,9999,Cloud Development Not Observable,7.0,5.0,29.79,1009.2,,,,0,0,0,,,,,,,,,2/8 Mostly Clear,72000.0,,FEW,5400.0,,,,,,
KRDR,05-07-2001,07:00,METAR,,240,8.0,,,9999,Cloud Development Not Observable,8.0,6.0,29.79,1009.2,,,,0,0,0,,,,,,,,,2/8 Mostly Clear,72000.0,,FEW,5400.0,,,,,,
KRDR,05-07-2001,06:00,METAR,,260,13.0,,,9999,Cloud Development Not Observable,9.0,7.0,29.77,,,,,0,0,0,,,,,,,,,2/8 Mostly Clear,72000.0,,FEW,5400.0,,,,,,
KRDR,05-07-2001,05:00,METAR,,270,16.0,,,9999,Cloud Development Not Observable,9.0,8.0,29.75,,,,,0,0,0,,,,,,,,,7/8 Mostly Cloudy,20000.0,,SCT,5400.0,BKN,20000.0,,,,
KRDR,05-07-2001,04:00,METAR,,260,14.0,,,9999,Cloud Development Not Observable,9.0,8.0,29.74,1007.5,,,,0,0,0,,,,,,,,,4/8 Partly Cloudy,72000.0,,FEW,2500.0,SCT,20000.0,,,,
KRDR,05-07-2001,03:00,METAR,,270,12.0,,,9999,Cloud Development Not Observable,9.0,8.0,29.73,1007.2,,,,0,0,0,,,,,,,,,7/8 Mostly Cloudy,8500.0,,FEW,2500.0,SCT,4500.0,BKN,8400.0,BKN,20000.0
KRDR,05-07-2001,02:41,SPECI,,270,14.0,21.0,,9999,Cloud Development Not Observable,9.0,8.0,29.72,,,,,0,0,0,,,,,,,,,7/8 Mostly Cloudy,9000.0,,FEW,2500.0,SCT,4500.0,BKN,8900.0,BKN,20000.0
KRDR,05-07-2001,02:00,METAR,,290,14.0,22.0,,9999,Light Rain Showers/Cloud Development Not Observable,9.0,8.0,29.67,1005.2,,,,80,0,0,,,,,,,,,8/8 Overcast,3700.0,,FEW,2000.0,BKN,3800.0,OVC,8900.0,,
KRDR,05-07-2001,01:28,SPECI,,300,16.0,,,9999,Light Rain Showers/Cloud Development Not Observable,9.0,8.0,29.65,,,,,80,0,0,,,,,,,,,8/8 Overcast,3200.0,,BKN,3300.0,BKN,6900.0,OVC,20000.0,,
KRDR,05-07-2001,01:00,METAR,,290,16.0,,300/26KTS,8000,Light Rain Showers/Mist/Cloud Development Not Observable,10.0,9.0,29.63,1004.1,,,,80,0,10,,,,,,,,,8/8 Overcast,2800.0,,BKN,2800.0,OVC,4500.0,,,,
KRDR,05-07-2001,00:00,METAR,,300,18.0,25.0,300/27KTS,6400,Light Rain Showers/Mist/Cloud Development Not Observable,11.0,10.0,29.59,1002.6,,,,80,0,10,,,,,,,,,8/8 Overcast,1500.0,,BKN,1500.0,OVC,4000.0,,,,
KRDR,05-06-2001,23:00,METAR,,310,16.0,,,6400,Light Rain Showers/Mist/Cloud Development Not Observable,12.0,11.0,29.59,1002.4,,,,80,0,10,,,,,,,,,8/8 Overcast,2800.0,,SCT,1500.0,BKN,2800.0,OVC,6900.0,,
KRDR,05-06-2001,22:23,SPECI,,320,10.0,,,6400,Light Rain Showers/Cloud Development Not Observable,12.0,12.0,29.61,,,,,80,0,,,,,,,,,,8/8 Overcast,2800.0,,SCT,1500.0,BKN,2800.0,OVC,6900.0,,
KRDR,05-06-2001,22:00,METAR,,300,9.0,,,8000,Thunderstorm with Rain or Snow/Light Rain Showers/Mist,12.0,12.0,29.61,,,,,95,80,10,,,,,,,,,8/8 Overcast,3900.0,,SCT,1500.0,BKN,4000.0,OVC,6900.0,,
KRDR,05-06-2001,21:20,METAR,,300,9.0,,,9999,Thunderstorm with Rain or Snow/Light Rain Showers/Cloud Development Not Observable,14.0,13.0,29.60,,,,,95,80,0,,,,,,,,,8/8 Overcast,1200.0,,FEW,500.0,OVC,1200.0,,,,
KRDR,05-06-2001,21:00,METAR,,210,7.0,,,9999,Light Rain Showers/Mist/Cloud Development Not Observable,14.0,14.0,29.62,,,,,80,0,10,,,,,,,,,8/8 Overcast,2200.0,,FEW,500.0,OVC,2200.0,,,,
KRDR,05-06-2001,20:00,METAR,,150,14.0,,,9999,Mist/Cloud Development Not Observable,17.0,15.0,29.63,,,,,10,0,0,,,,,,,,,8/8 Overcast,2000.0,,FEW,600.0,BKN,2000.0,OVC,5000.0,,
KRDR,05-06-2001,19:35,SPECI,,160,12.0,,,9999,Light Rain Showers/Cloud Development Not Observable,17.0,15.0,29.63,,,,,80,0,,,,,,,,,,8/8 Overcast,2200.0,,FEW,1000.0,BKN,2200.0,OVC,5000.0,,
KRDR,05-06-2001,19:30,METAR,,170,15.0,,,9999,Mist/Cloud Development Not Observable,17.0,15.0,29.63,,,,,10,0,0,,,,,,,,,8/8 Overcast,2200.0,,FEW,1200.0,BKN,2200.0,BKN,4000.0,OVC,20000.0
KRDR,05-06-2001,19:00,METAR,,160,12.0,,,9999,Light Rain Showers/Mist/Cloud Development Not Observable,17.0,15.0,29.64,,,,,80,0,10,,,,,,,,,7/8 Mostly Cloudy,3400.0,,SCT,1200.0,BKN,3500.0,BKN,20000.0,,
KRDR,05-06-2001,18:48,SPECI,,150,16.0,,,9999,Light Rain Showers/Cloud Development Not Observable,17.0,15.0,29.64,,,,,80,0,,,,,,,,,,8/8 Overcast,3400.0,,SCT,1200.0,BKN,3500.0,OVC,20000.0,,
KRDR,05-06-2001,18:01,SPECI,,160,17.0,,,8000,Mist/Cloud Development Not Observable,16.0,15.0,29.67,,,,,10,0,0,,,,,,,,,8/8 Overcast,1200.0,,OVC,1200.0,,,,,,
KRDR,05-06-2001,16:00,METAR,,150,11.0,,,3200,Light Rain Showers/Mist/Cloud Development Not Observable,13.0,13.0,29.71,,,,,80,0,10,,,,,,,,,8/8 Overcast,600.0,,OVC,600.0,,,,,,
KRDR,05-06-2001,15:00,METAR,,150,10.0,,,4800,Rain/Mist/Cloud Development Not Observable,13.0,13.0,29.72,,,,,61,0,10,,,,,,,,,8/8 Overcast,800.0,,OVC,800.0,,,,,,
KRDR,05-06-2001,14:00,METAR,,140,12.0,,,8000,Mist/Cloud Development Not Observable,13.0,12.0,29.73,,,,,10,0,0,,,,,,,,,8/8 Overcast,700.0,,OVC,700.0,,,,,,
KRDR,05-06-2001,13:38,SPECI,,140,12.0,,,4800,Mist/Cloud Development Not Observable,13.0,12.0,29.73,,,,,10,0,0,,,,,,,,,8/8 Overcast,700.0,,OVC,700.0,,,,,,
KRDR,05-06-2001,13:00,METAR,,140,8.0,,,3200,Mist/Cloud Development Not Observable,12.0,12.0,29.74,,,,,10,0,0,,,,,,,,,8/8 Overcast,700.0,,OVC,700.0,,,,,,
KRDR,05-06-2001,12:00,METAR,,160,10.0,,,3200,Mist/Cloud Development Not Observable,12.0,12.0,29.75,,,,,10,0,0,,,,,,,,.6 IN,8/8 Overcast,500.0,,OVC,500.0,,,,,,
KRDR,05-06-2001,11:00,METAR,,160,10.0,,,3200,Mist/Cloud Development Not Observable,12.0,12.0,29.75,,,,,10,0,0,,,,,,,,,8/8 Overcast,500.0,,OVC,500.0,,,,,,
KRDR,05-05-2001,17:00,METAR,,170,18.0,,,9999,Cloud Development Not Observable,15.0,5.0,30.06,,,,,0,0,0,,,,,,,,,7/8 Mostly Cloudy,20000.0,,SCT,12000.0,BKN,20000.0,,,,
KRDR,05-05-2001,16:00,METAR,,140,14.0,19.0,,9999,Cloud Development Not Observable,16.0,1.0,30.09,1019.2,,,,0,0,0,,,,,,,,,7/8 Mostly Cloudy,20000.0,,FEW,15000.0,BKN,20000.0,,,,
KRDR,05-05-2001,15:00,METAR,,130,13.0,,,9999,Cloud Development Not Observable,15.0,-1.0,30.10,1019.6,,,,0,0,0,,,,,,,,,7/8 Mostly Cloudy,20000.0,,FEW,15000.0,BKN,20000.0,,,,
KRDR,05-05-2001,14:00,METAR,,150,9.0,,,9999,Cloud Development Not Observable,12.0,-1.0,30.13,1020.8,,,,0,0,0,,,,,,,,,7/8 Mostly Cloudy,20000.0,,FEW,15000.0,BKN,20000.0,,,,
KRDR,05-05-2001,13:00,METAR,,150,9.0,,,9999,Cloud Development Not Observable,9.0,2.0,30.15,1021.4,,,,0,0,0,,,,,,,,,7/8 Mostly Cloudy,20000.0,,FEW,15000.0,BKN,20000.0,,,,
KRDR,05-05-2001,12:00,METAR,,150,7.0,,,9999,Cloud Development Not Observable,7.0,1.0,30.16,1021.7,,,,0,0,0,,,,,,,,,7/8 Mostly Cloudy,20000.0,,BKN,20000.0,,,,,,
KRDR,05-05-2001,04:00,METAR,,140,7.0,,,9999,Cloud Development Not Observable,12.0,3.0,30.23,1024.2,,,,0,0,0,,,,,,,,,4/8 Partly Cloudy,72000.0,,FEW,9900.0,SCT,20000.0,,,,
KRDR,05-05-2001,03:00,METAR,,140,7.0,,,9999,Cloud Development Not Observable,13.0,3.0,30.22,1024.0,,,,0,0,0,,,,,,,,,4/8 Partly Cloudy,72000.0,,FEW,9900.0,SCT,20000.0,,,,
KRDR,05-05-2001,02:00,METAR,,140,6.0,,,9999,Cloud Development Not Observable,17.0,1.0,30.22,1023.8,,,,0,0,0,,,,,,,,,7/8 Mostly Cloudy,20000.0,,FEW,9900.0,BKN,20000.0,,,,
KRDR,05-05-2001,01:00,METAR,,140,6.0,,,9999,Cloud Development Not Observable,18.0,0.0,30.21,1023.7,,,,0,0,0,,,,,,,,,7/8 Mostly Cloudy,20000.0,,FEW,9900.0,BKN,20000.0,,,,
KRDR,05-05-2001,00:00,METAR,,140,8.0,,,9999,Cloud Development Not Observable,19.0,1.0,30.22,1024.0,,,,0,0,0,,,,,,,,,7/8 Mostly Cloudy,20000.0,,FEW,2500.0,FEW,9900.0,BKN,20000.0,,
KRDR,05-04-2001,23:00,METAR,,120,6.0,,,9999,Cloud Development Not Observable,20.0,1.0,30.23,1024.3,,,,0,0,0,,,,,,,,,7/8 Mostly Cloudy,20000.0,,FEW,2500.0,SCT,8400.0,BKN,20000.0,,
KRDR,05-04-2001,22:00,METAR,,150,10.0,,,9999,Cloud Development Not Observable,21.0,1.0,30.25,1024.7,,,,0,0,0,,,,,,,,,7/8 Mostly Cloudy,20000.0,,FEW,2500.0,SCT,8400.0,BKN,20000.0,,
KRDR,05-04-2001,21:00,METAR,,130,6.0,,,9999,Cloud Development Not Observable,21.0,2.0,30.27,1026.2,,,,0,0,0,,,,,,,,,7/8 Mostly Cloudy,20000.0,,SCT,2500.0,SCT,8400.0,BKN,20000.0,,
KRDR,05-04-2001,20:00,METAR,,150,8.0,12.0,,9999,Cloud Development Not Observable,20.0,1.0,30.29,1026.5,,,,0,0,0,,,,,,,,,7/8 Mostly Cloudy,20000.0,,SCT,2500.0,SCT,5900.0,BKN,20000.0,,
KRDR,05-04-2001,19:00,METAR,,150,7.0,,,9999,Cloud Development Not Observable,19.0,0.0,30.30,1026.5,,,,0,0,0,,,,,,,,,7/8 Mostly Cloudy,20000.0,,SCT,2500.0,SCT,5900.0,BKN,20000.0,,
KRDR,05-04-2001,18:00,METAR,,160,8.0,,,9999,Cloud Development Not Observable,20.0,2.0,30.32,1027.3,,,,0,0,0,,,,,,,,,4/8 Partly Cloudy,72000.0,,FEW,2500.0,SCT,5900.0,SCT,20000.0,,
KRDR,05-04-2001,17:00,METAR,,180,6.0,,,9999,Cloud Development Not Observable,18.0,4.0,30.34,1027.9,,,,0,0,0,,,,,,,,,4/8 Partly Cloudy,72000.0,,FEW,2000.0,FEW,6900.0,SCT,20000.0,,
KRDR,05-04-2001,16:00,METAR,,190,7.0,,,9999,Cloud Development Not Observable,18.0,3.0,30.34,1028.0,,,,0,0,0,,,,,,,,,2/8 Mostly Clear,72000.0,,FEW,2000.0,FEW,20000.0,,,,
KRDR,05-04-2001,15:00,METAR,,160,8.0,,,9999,Cloud Development Not Observable,15.0,5.0,30.35,1028.3,,,,0,0,0,,,,,,,,,2/8 Mostly Clear,72000.0,,FEW,20000.0,,,,,,
KRDR,05-04-2001,14:00,METAR,,,,,,9999,Cloud Development Not Observable,11.0,6.0,30.36,1028.6,,,,0,0,0,,,,,,,,,2/8 Mostly Clear,72000.0,,FEW,20000.0,,,,,,
KRDR,05-04-2001,13:00,METAR,,260,2.0,,,9999,Cloud Development Not Observable,8.0,4.0,30.34,1028.0,,,,0,0,0,,,,,,,,,2/8 Mostly Clear,72000.0,,FEW,12000.0,FEW,20000.0,,,,
KRDR,05-04-2001,12:00,METAR,,210,5.0,,,9999,Cloud Development Not Observable,3.0,1.0,30.33,1027.9,,,,0,0,0,,,,,,,,,2/8 Mostly Clear,72000.0,,FEW,12000.0,FEW,20000.0,,,,
KRDR,05-04-2001,11:00,METAR,,,,,,9999,Cloud Development Not Observable,2.0,1.0,30.31,1027.2,,,,0,0,0,,,,,,,,,2/8 Mostly Clear,72000.0,,FEW,12000.0,,,,,,
KRDR,05-04-2001,10:00,METAR,,,,,,9999,Cloud Development Not Observable,3.0,2.0,30.31,1027.2,,,,0,0,0,,,,,,,,,Clear,72000.0,,,73000.0,,,,,,
KRDR,05-04-2001,09:00,METAR,,250,5.0,,,9999,Cloud Development Not Observable,3.0,2.0,30.31,1027.2,,,,0,0,0,,,,,,,,,Clear,72000.0,,,73000.0,,,,,,
KRDR,05-04-2001,08:00,METAR,,340,2.0,,,9999,Cloud Development Not Observable,4.0,4.0,30.32,1027.4,,,,0,0,0,,,,,,,,,2/8 Mostly Clear,72000.0,,FEW,12000.0,,,,,,
KRDR,05-04-2001,07:00,METAR,,260,3.0,,,9999,Cloud Development Not Observable,5.0,5.0,30.32,1027.5,,,,0,0,0,,,,,,,,,2/8 Mostly Clear,72000.0,,FEW,12000.0,,,,,,
KRDR,05-04-2001,06:00,METAR,,250,3.0,,,9999,Cloud Development Not Observable,6.0,4.0,30.32,1027.5,,,,0,0,0,,,,,,,,,4/8 Partly Cloudy,72000.0,,FEW,12000.0,SCT,20000.0,,,,
KRDR,05-04-2001,04:00,METAR,,,2.0,,,9999,Cloud Development Not Observable,8.0,4.0,30.31,1027.1,,,,0,0,0,,,,,,,,,4/8 Partly Cloudy,72000.0,,SCT,11000.0,SCT,20000.0,,,,
KRDR,05-04-2001,03:00,METAR,,,2.0,,,9999,Cloud Development Not Observable,13.0,3.0,30.30,1026.7,,,,0,0,0,,,,,,,,,7/8 Mostly Cloudy,11000.0,,FEW,5900.0,BKN,11000.0,BKN,20000.0,,
KRDR,05-04-2001,02:00,METAR,,,,,,9999,Cloud Development Not Observable,14.0,3.0,30.28,1026.1,,,,0,0,0,,,,,,,,,7/8 Mostly Cloudy,11000.0,,FEW,7900.0,BKN,11000.0,BKN,20000.0,,
KRDR,05-04-2001,01:00,METAR,,40,6.0,,,9999,Cloud Development Not Observable,15.0,3.0,30.28,1025.8,,,,0,0,0,,,,,,,,,7/8 Mostly Cloudy,11000.0,,FEW,7900.0,BKN,11000.0,BKN,20000.0,,
KRDR,05-04-2001,00:31,SPECI,,40,6.0,,,9999,Cloud Development Not Observable,15.0,3.0,30.27,,,,,0,0,0,,,,,,,,,7/8 Mostly Cloudy,11000.0,,SCT,6400.0,BKN,11000.0,BKN,20000.0,,
KRDR,05-04-2001,00:00,METAR,,30,9.0,,,9999,Light Rain Showers/Cloud Development Not Observable,16.0,5.0,30.27,1025.8,,,,80,0,0,,,,,,,,,7/8 Mostly Cloudy,6500.0,,BKN,6400.0,BKN,11000.0,BKN,20000.0,,
KRDR,05-03-2001,23:42,SPECI,,30,9.0,,,9999,Cloud Development Not Observable,16.0,4.0,30.27,,,,,0,0,0,,,,,,,,,7/8 Mostly Cloudy,6500.0,,BKN,6400.0,BKN,11000.0,BKN,20000.0,,
KRDR,05-03-2001,23:32,SPECI,,30,10.0,,,9999,Light Rain Showers/Cloud Development Not Observable,16.0,5.0,30.27,,,,,80,0,0,,,,,,,,,7/8 Mostly Cloudy,6500.0,,BKN,6400.0,BKN,11000.0,BKN,20000.0,,
KRDR,05-03-2001,23:00,METAR,,50,8.0,,,9999,Cloud Development Not Observable,18.0,3.0,30.26,1025.4,,,,0,0,0,,,,,,,,,7/8 Mostly Cloudy,6500.0,,BKN,6400.0,BKN,11000.0,BKN,20000.0,,
KRDR,05-03-2001,22:00,METAR,,,,,,9999,Cloud Development Not Observable,18.0,2.0,30.27,1025.8,,,,0,0,0,,,,,,,,,7/8 Mostly Cloudy,11000.0,,SCT,5900.0,BKN,11000.0,BKN,20000.0,,
KRDR,05-03-2001,21:00,METAR,,330,8.0,,,9999,Cloud Development Not Observable,17.0,3.0,30.28,1026.1,,,,0,0,0,,,,,,,,,7/8 Mostly Cloudy,11000.0,,SCT,5000.0,BKN,11000.0,BKN,20000.0,,
KRDR,05-03-2001,20:00,METAR,,,,,,9999,Cloud Development Not Observable,17.0,4.0,30.29,1026.2,,,,0,0,0,,,,,,,,,7/8 Mostly Cloudy,20000.0,,FEW,5000.0,SCT,11000.0,BKN,20000.0,,
KRDR,05-03-2001,19:00,METAR,,260,8.0,,,9999,Cloud Development Not Observable,17.0,3.0,30.29,1026.4,,,,0,0,0,,,,,,,,,7/8 Mostly Cloudy,25000.0,,FEW,5000.0,SCT,15000.0,BKN,25000.0,,
KRDR,05-03-2001,18:00,METAR,,70,6.0,,,9999,Cloud Development Not Observable,16.0,4.0,30.31,1027.1,,,,0,0,0,,,,,,,,,7/8 Mostly Cloudy,25000.0,,FEW,5000.0,SCT,15000.0,BKN,25000.0,,
KRDR,05-03-2001,17:00,METAR,,10,6.0,,,9999,Cloud Development Not Observable,14.0,3.0,30.32,1027.3,,,,0,0,0,,,,,,,,,7/8 Mostly Cloudy,15000.0,,BKN,15000.0,BKN,25000.0,,,,
KRDR,05-03-2001,16:00,METAR,,360,7.0,,,9999,Cloud Development Not Observable,14.0,5.0,30.31,1026.9,,,,0,0,0,,,,,,,,,7/8 Mostly Cloudy,15000.0,,BKN,15000.0,BKN,25000.0,,,,
KRDR,05-03-2001,15:00,METAR,,350,6.0,,,9999,Cloud Development Not Observable,12.0,6.0,30.32,1027.3,,,,0,0,0,,,,,,,,,4/8 Partly Cloudy,72000.0,,FEW,15000.0,SCT,25000.0,,,,
KRDR,05-03-2001,14:00,METAR,,340,6.0,,,9999,Cloud Development Not Observable,9.0,5.0,30.31,1026.9,,,,0,0,0,,,,,,,,,7/8 Mostly Cloudy,25000.0,,SCT,15000.0,BKN,25000.0,,,,
KRDR,05-03-2001,13:00,METAR,,330,9.0,,,9999,Cloud Development Not Observable,7.0,4.0,30.27,1025.6,,,,0,0,0,,,,,,,,,4/8 Partly Cloudy,72000.0,,FEW,15000.0,SCT,25000.0,,,,
KRDR,05-03-2001,12:00,METAR,,290,4.0,,,9999,Cloud Development Not Observable,3.0,1.0,30.23,1023.4,,,,0,0,0,,,,,,,,,2/8 Mostly Clear,72000.0,,FEW,15000.0,,,,,,
KRDR,05-03-2001,11:00,METAR,,320,7.0,,,9999,Cloud Development Not Observable,3.0,1.0,30.19,1022.9,,,,0,0,0,,,,,,,,,2/8 Mostly Clear,72000.0,,FEW,15000.0,,,,,,
KRDR,05-03-2001,10:00,METAR,,290,4.0,,,9999,Cloud Development Not Observable,3.0,2.0,30.19,1022.9,,,,0,0,0,,,,,,,,,2/8 Mostly Clear,72000.0,,FEW,15000.0,,,,,,
KRDR,05-03-2001,08:00,METAR,,330,4.0,,,9999,Cloud Development Not Observable,6.0,3.0,30.16,1021.7,,,,0,0,0,,,,,,,,,4/8 Partly Cloudy,72000.0,,FEW,15000.0,SCT,20000.0,,,,
KRDR,05-03-2001,07:00,METAR,,320,4.0,,,9999,Cloud Development Not Observable,6.0,3.0,30.14,1021.1,,,,0,0,0,,,,,,,,,7/8 Mostly Cloudy,20000.0,,BKN,20000.0,,,,,,
KRDR,05-03-2001,06:00,METAR,,270,3.0,,,9999,Cloud Development Not Observable,7.0,5.0,30.12,1020.3,,,,0,0,0,,,,,,,,,7/8 Mostly Cloudy,20000.0,,BKN,20000.0,,,,,,
KRDR,05-03-2001,05:00,METAR,,270,6.0,,,9999,Cloud Development Not Observable,8.0,5.0,30.09,1019.3,,,,0,0,0,,,,,,,,,7/8 Mostly Cloudy,20000.0,,BKN,20000.0,,,,,,
KRDR,05-03-2001,04:00,METAR,,270,6.0,,,9999,Cloud Development Not Observable,8.0,5.0,30.06,1018.7,,,,0,0,0,,,,,,,,,7/8 Mostly Cloudy,18000.0,,BKN,18000.0,BKN,28000.0,,,,
KRDR,05-03-2001,03:00,METAR,,360,5.0,,,9999,Cloud Development Not Observable,11.0,5.0,30.04,1018.0,,,,0,0,0,,,,,,,,,7/8 Mostly Cloudy,20000.0,,FEW,3500.0,BKN,20000.0,BKN,28000.0,,
KRDR,05-03-2001,02:00,METAR,,290,6.0,,,9999,Cloud Development Not Observable,14.0,4.0,30.00,1016.3,,,,0,0,0,,,,,,,,,7/8 Mostly Cloudy,20000.0,,FEW,3500.0,BKN,20000.0,BKN,28000.0,,
KRDR,05-03-2001,01:00,METAR,,310,10.0,,,9999,Cloud Development Not Observable,16.0,2.0,29.98,1015.7,,,,0,0,0,,,,,,,,,7/8 Mostly Cloudy,20000.0,,FEW,3500.0,BKN,20000.0,BKN,28000.0,,
KRDR,05-03-2001,00:00,METAR,,330,14.0,,,9999,Cloud Development Not Observable,18.0,1.0,29.95,1014.8,,,,0,0,0,,,,,,,,,7/8 Mostly Cloudy,25000.0,,FEW,3500.0,BKN,25000.0,,,,
KRDR,05-02-2001,23:00,METAR,,310,18.0,25.0,320/30KTS,9999,Cloud Development Not Observable,20.0,0.0,29.92,1013.8,,,,0,0,0,,,,,,,,,2/8 Mostly Clear,72000.0,,FEW,3500.0,,,,,,
KRDR,05-02-2001,22:00,METAR,,320,18.0,26.0,300/29KTS,9999,Cloud Development Not Observable,20.0,0.0,29.90,,,,,0,0,0,,,,,,,,,4/8 Partly Cloudy,72000.0,,SCT,4500.0,SCT,25000.0,,,,
KRDR,05-02-2001,21:00,METAR,,310,20.0,28.0,,9999,Cloud Development Not Observable,20.0,0.0,29.89,1012.5,,,,0,0,0,,,,,,,,,4/8 Partly Cloudy,72000.0,,SCT,4500.0,SCT,25000.0,,,,
KRDR,05-02-2001,18:00,METAR,,290,17.0,23.0,280/27KTS,9999,Cloud Development Not Observable,19.0,1.0,29.85,1011.4,,,,0,0,0,,,,,,,,,4/8 Partly Cloudy,72000.0,,SCT,4500.0,,,,,,
KRDR,05-02-2001,17:00,METAR,,290,15.0,23.0,,9999,Cloud Development Not Observable,18.0,4.0,29.84,1010.8,,,,0,0,0,,,,,,,,,2/8 Mostly Clear,72000.0,,FEW,3000.0,FEW,20000.0,,,,
KRDR,05-02-2001,16:00,METAR,,270,13.0,21.0,,9999,Cloud Development Not Observable,16.0,4.0,29.82,1010.2,,,,0,0,0,,,,,,,,,4/8 Partly Cloudy,72000.0,,FEW,9900.0,SCT,20000.0,,,,
KRDR,05-02-2001,15:00,METAR,,260,13.0,,,9999,Cloud Development Not Observable,13.0,3.0,29.80,1009.6,,,,0,0,0,,,,,,,,,7/8 Mostly Cloudy,20000.0,,FEW,5400.0,SCT,9900.0,BKN,20000.0,,
KRDR,05-02-2001,14:00,METAR,,270,12.0,,,9999,Cloud Development Not Observable,12.0,3.0,29.77,1008.4,,,,0,0,0,,,,,,,,,4/8 Partly Cloudy,72000.0,,SCT,9900.0,SCT,20000.0,,,,
KRDR,05-02-2001,13:00,METAR,,240,12.0,,,9999,Cloud Development Not Observable,9.0,5.0,29.76,1008.1,,,,0,0,0,,,,,,,,,4/8 Partly Cloudy,72000.0,,SCT,9900.0,,,,,,
KRDR,05-02-2001,12:00,METAR,,220,9.0,,,9999,Cloud Development Not Observable,6.0,4.0,29.74,1007.6,,,,0,0,0,,,,,,,,,4/8 Partly Cloudy,72000.0,,SCT,9900.0,,,,,,
KRDR,05-02-2001,11:00,METAR,,240,8.0,,,9999,Cloud Development Not Observable,4.0,3.0,29.71,1006.7,,,,0,0,0,,,,,,,,,2/8 Mostly Clear,72000.0,,FEW,12000.0,,,,,,
KRDR,05-02-2001,10:00,METAR,,190,7.0,,,9999,Cloud Development Not Observable,5.0,3.0,29.70,1006.1,,,,0,0,0,,,,,,,,,2/8 Mostly Clear,72000.0,,FEW,12000.0,,,,,,
KRDR,05-02-2001,09:00,METAR,,220,7.0,,,9999,Cloud Development Not Observable,6.0,3.0,29.67,1005.3,,,,0,0,0,,,,,,,,,Clear,72000.0,,,73000.0,,,,,,
KRDR,05-02-2001,08:00,METAR,,280,8.0,,,9999,Cloud Development Not Observable,7.0,3.0,29.65,1004.5,,,,0,0,0,,,,,,,,,Clear,72000.0,,,73000.0,,,,,,
KRDR,05-02-2001,07:00,METAR,,290,9.0,,,9999,Cloud Development Not Observable,8.0,4.0,29.65,1004.5,,,,0,0,0,,,,,,,,,Clear,72000.0,,,73000.0,,,,,,
KRDR,05-02-2001,06:00,METAR,,310,14.0,,,9999,Cloud Development Not Observable,10.0,4.0,29.62,1003.4,,,,0,0,0,,,,,,,,,Clear,72000.0,,,73000.0,,,,,,
KRDR,05-02-2001,05:00,METAR,,260,11.0,,,9999,Cloud Development Not Observable,12.0,2.0,29.56,1001.4,,,,0,0,0,,,,,,,,,Clear,72000.0,,,73000.0,,,,,,
KRDR,05-02-2001,04:00,METAR,,230,10.0,,,9999,Cloud Development Not Observable,10.0,3.0,29.53,1000.3,,,,0,0,0,,,,,,,,,Clear,72000.0,,,73000.0,,,,,,
KRDR,05-02-2001,03:00,METAR,,230,9.0,,,9999,Cloud Development Not Observable,11.0,2.0,29.53,1000.4,,,,0,0,0,,,,,,,,,Clear,72000.0,,,73000.0,,,,,,
KRDR,05-02-2001,02:00,METAR,,260,9.0,,,9999,Cloud Development Not Observable,15.0,1.0,29.50,999.3,,,,0,0,0,,,,,,,,,2/8 Mostly Clear,72000.0,,FEW,8900.0,,,,,,
KRDR,05-02-2001,01:00,METAR,,260,18.0,,260/26KTS,9999,Cloud Development Not Observable,18.0,0.0,29.48,998.7,,,,0,0,0,,,,,,,,,2/8 Mostly Clear,72000.0,,FEW,4500.0,,,,,,
KRDR,05-02-2001,00:00,METAR,,270,20.0,29.0,260/30KTS,9999,Cloud Development Not Observable,19.0,0.0,29.47,998.3,,,,0,0,0,,,,,,,,,2/8 Mostly Clear,72000.0,,FEW,4500.0,,,,,,
KRDR,05-01-2001,23:00,METAR,,270,22.0,27.0,260/29KTS,9999,Cloud Development Not Observable,20.0,0.0,29.46,998.6,,,,0,0,0,,,,,,,,,2/8 Mostly Clear,72000.0,,FEW,4500.0,,,,,,
KRDR,05-01-2001,22:00,METAR,,270,22.0,31.0,,9999,Cloud Development Not Observable,20.0,2.0,29.44,997.3,,,,0,0,0,,,,,,,,,4/8 Partly Cloudy,72000.0,,SCT,4500.0,,,,,,
KRDR,05-01-2001,21:00,METAR,,270,17.0,24.0,280/29KTS,9999,Cloud Development Not Observable,19.0,6.0,29.44,997.3,,,,0,0,0,,,,,,,,,4/8 Partly Cloudy,72000.0,,SCT,4500.0,,,,,,
KRDR,05-01-2001,20:00,METAR,,270,17.0,28.0,,9999,Cloud Development Not Observable,18.0,8.0,29.43,,,,,0,0,0,,,,,,,,,7/8 Mostly Cloudy,20000.0,,SCT,3000.0,BKN,20000.0,,,,
KRDR,05-01-2001,19:00,METAR,,280,18.0,25.0,290/31KTS,9999,Cloud Development Not Observable,16.0,9.0,29.41,,,,,0,0,0,,,,,,,,,7/8 Mostly Cloudy,20000.0,,SCT,3000.0,SCT,7900.0,BKN,20000.0,,
KRDR,05-01-2001,18:00,METAR,,270,19.0,25.0,,9999,Cloud Development Not Observable,16.0,12.0,29.38,,,,,0,0,0,,,,,,,,,8/8 Overcast,4900.0,,SCT,3000.0,BKN,5000.0,OVC,7900.0,,
KRDR,05-01-2001,17:00,METAR,,200,14.0,,,9999,Light Rain Showers/Cloud Development Not Observable,16.0,13.0,29.38,,,,,80,0,0,,,,,,,,,8/8 Overcast,4900.0,,BKN,5000.0,OVC,7900.0,,,,
KRDR,05-01-2001,16:00,METAR,,180,16.0,,140/26KTS,9999,Light Rain Showers/Cloud Development Not Observable,15.0,10.0,29.39,,,,,80,0,0,,,,,,,,,8/8 Overcast,6000.0,,SCT,4500.0,BKN,5900.0,OVC,8900.0,,
KRDR,05-01-2001,15:48,SPECI,,170,15.0,,,9999,Light Rain Showers/Cloud Development Not Observable,15.0,10.0,29.52,,,,,80,0,0,,,,,,,,,8/8 Overcast,9000.0,,FEW,5900.0,OVC,8900.0,,,,
KRDR,05-01-2001,15:00,METAR,,160,10.0,,,9999,Cloud Development Not Observable,14.0,10.0,29.42,996.7,,,,0,0,0,,,,,,,,,8/8 Overcast,10000.0,,OVC,9900.0,,,,,,
KRDR,05-01-2001,14:20,METAR,,170,13.0,,,9999,Cloud Development Not Observable,12.0,9.0,29.45,,,,,0,0,0,,,,,,,,,8/8 Overcast,10000.0,,BKN,9900.0,OVC,25000.0,,,,
KRDR,05-01-2001,14:08,SPECI,,160,16.0,,,9999,Light Rain Showers/Cloud Development Not Observable,13.0,8.0,29.46,,,,,80,0,0,,,,,,,,,8/8 Overcast,11000.0,,BKN,11000.0,OVC,25000.0,,,,
KRDR,05-01-2001,14:00,METAR,,160,16.0,,,9999,Cloud Development Not Observable,13.0,8.0,29.47,998.4,,,,0,0,0,,,,,,,,,8/8 Overcast,10000.0,,BKN,9900.0,OVC,25000.0,,,,
KRDR,05-01-2001,13:32,SPECI,,160,15.0,21.0,,9999,Light Rain Showers/Cloud Development Not Observable,13.0,8.0,29.49,,,,,80,0,0,,,,,,,,,8/8 Overcast,10000.0,,BKN,9900.0,OVC,25000.0,,,,
KRDR,05-01-2001,13:00,METAR,,170,12.0,,,9999,Cloud Development Not Observable,13.0,8.0,29.49,998.8,,,,0,0,0,,,,,,,,,8/8 Overcast,10000.0,,BKN,9900.0,OVC,25000.0,,,,
KRDR,05-01-2001,12:00,METAR,,160,7.0,,,9999,Cloud Development Not Observable,11.0,8.0,29.52,999.7,,,,0,0,0,,,,,,,,,7/8 Mostly Cloudy,12000.0,,BKN,12000.0,BKN,25000.0,,,,
KRDR,05-01-2001,11:00,METAR,,170,7.0,,,9999,Cloud Development Not Observable,10.0,7.0,29.54,1000.4,,,,0,0,0,,,,,,,,,7/8 Mostly Cloudy,12000.0,,BKN,12000.0,BKN,25000.0,,,,
KRDR,05-01-2001,10:00,METAR,,160,11.0,,,9999,Cloud Development Not Observable,11.0,7.0,29.56,1001.2,,,,0,0,0,,,,,,,,,8/8 Overcast,12000.0,,BKN,12000.0,OVC,25000.0,,,,
KRDR,05-01-2001,09:00,METAR,,160,9.0,,,9999,Cloud Development Not Observable,11.0,7.0,29.58,1002.0,,,,0,0,0,,,,,,,,,8/8 Overcast,12000.0,,OVC,12000.0,,,,,,
KRDR,05-01-2001,08:00,METAR,,170,8.0,,,9999,Cloud Development Not Observable,12.0,6.0,29.60,1002.5,,,,0,0,0,,,,,,,,,7/8 Mostly Cloudy,12000.0,,BKN,12000.0,,,,,,
KRDR,05-01-2001,07:00,METAR,,170,9.0,,,9999,Cloud Development Not Observable,11.0,7.0,29.62,1003.3,,,,0,0,0,,,,,,,,,4/8 Partly Cloudy,72000.0,,SCT,12000.0,,,,,,
KRDR,05-01-2001,06:00,METAR,,160,14.0,,,9999,Cloud Development Not Observable,12.0,7.0,29.65,1004.2,,,,0,0,0,,,,,,,,,4/8 Partly Cloudy,72000.0,,SCT,12000.0,,,,,,
KRDR,05-01-2001,05:00,METAR,,180,9.0,,,9999,Cloud Development Not Observable,13.0,6.0,29.68,1005.2,,,,0,0,0,,,,,,,,,4/8 Partly Cloudy,72000.0,,FEW,12000.0,SCT,20000.0,,,,
KRDR,05-01-2001,04:00,METAR,,200,8.0,,,9999,Cloud Development Not Observable,11.0,6.0,29.70,1006.0,,,,0,0,0,,,,,,,,,4/8 Partly Cloudy,72000.0,,FEW,12000.0,SCT,20000.0,,,,
KRDR,05-01-2001,03:00,METAR,,220,5.0,,,9999,Cloud Development Not Observable,12.0,6.0,29.72,1007.0,,,,0,0,0,,,,,,,,,4/8 Partly Cloudy,72000.0,,FEW,12000.0,SCT,20000.0,,,,
KRDR,05-01-2001,02:00,METAR,,190,9.0,,,9999,Cloud Development Not Observable,16.0,6.0,29.73,1007.0,,,,0,0,0,,,,,,,,,4/8 Partly Cloudy,72000.0,,SCT,12000.0,SCT,20000.0,,,,
KRDR,05-01-2001,01:00,METAR,,190,9.0,,,9999,Cloud Development Not Observable,19.0,6.0,29.73,1006.9,,,,0,0,0,,,,,,,,,4/8 Partly Cloudy,72000.0,,FEW,4000.0,SCT,8900.0,SCT,20000.0,,
KRDR,05-01-2001,00:00,METAR,,200,9.0,,210/26KTS,9999,Cloud Development Not Observable,20.0,6.0,29.73,1006.7,,,,0,0,0,,,,,,,,,7/8 Mostly Cloudy,16000.0,,FEW,4000.0,SCT,8900.0,BKN,16000.0,,
KRDR,04-30-2001,23:00,METAR,,280,16.0,24.0,270/25KTS,9999,Cloud Development Not Observable,23.0,2.0,29.73,1006.8,,,,0,0,0,,,,,,,,,7/8 Mostly Cloudy,16000.0,,SCT,4000.0,SCT,8900.0,BKN,16000.0,,
KRDR,04-30-2001,22:00,METAR,,250,9.0,,,9999,Cloud Development Not Observable,22.0,4.0,29.74,1007.4,,,,0,0,0,,,,,,,,,4/8 Partly Cloudy,72000.0,,FEW,4000.0,SCT,8900.0,SCT,16000.0,,
KRDR,04-30-2001,21:25,METAR,,310,9.0,,,9999,Cloud Development Not Observable,22.0,5.0,29.75,,,,,0,0,0,,,,,,,,,7/8 Mostly Cloudy,20000.0,,SCT,4000.0,SCT,8900.0,BKN,20000.0,,
KRDR,04-30-2001,21:00,METAR,,270,25.0,35.0,,9999,Light Rain Showers/Cloud Development Not Observable,19.0,6.0,29.77,1008.4,,,,80,0,0,,,,,,,,,7/8 Mostly Cloudy,9000.0,,SCT,4000.0,BKN,8900.0,BKN,20000.0,,
KRDR,04-30-2001,20:00,METAR,,220,14.0,18.0,,9999,Cloud Development Not Observable,24.0,-2.0,29.78,1008.5,,,,0,0,0,,,,,,,,,7/8 Mostly Cloudy,20000.0,,FEW,4000.0,BKN,20000.0,,,,
KRDR,04-30-2001,19:00,METAR,,240,9.0,,,9999,Cloud Development Not Observable,23.0,-6.0,29.80,1009.5,,,,0,0,0,,,,,,,,,7/8 Mostly Cloudy,20000.0,,FEW,5000.0,FEW,9900.0,BKN,20000.0,,
KRDR,04-30-2001,18:00,METAR,,280,11.0,,,9999,Cloud Development Not Observable,22.0,-4.0,29.82,1010.0,,,,0,0,0,,,,,,,,,7/8 Mostly Cloudy,20000.0,,FEW,5000.0,BKN,20000.0,,,,
KRDR,04-30-2001,17:00,METAR,,290,9.0,,,9999,Cloud Development Not Observable,21.0,-1.0,29.83,1010.5,,,,0,0,0,,,,,,,,,7/8 Mostly Cloudy,20000.0,,BKN,20000.0,,,,,,
KRDR,04-30-2001,16:00,METAR,,270,9.0,,,9999,Cloud Development Not Observable,19.0,5.0,29.82,1010.1,,,,0,0,0,,,,,,,,,7/8 Mostly Cloudy,20000.0,,BKN,20000.0,,,,,,
KRDR,04-30-2001,15:00,METAR,,270,7.0,,,9999,Cloud Development Not Observable,16.0,4.0,29.82,1009.9,,,,0,0,0,,,,,,,,,7/8 Mostly Cloudy,20000.0,,BKN,20000.0,,,,,,
KRDR,04-30-2001,14:00,METAR,,280,9.0,,,9999,Cloud Development Not Observable,12.0,4.0,,1010.1,,,,0,0,0,,,,,,,,,7/8 Mostly Cloudy,20000.0,,FEW,12000.0,BKN,20000.0,,,,
KRDR,04-30-2001,13:00,METAR,,270,4.0,,,7000,Cloud Development Not Observable,10.0,4.0,29.83,1008.8,,,,0,0,0,,,,,,,,,8/8 Overcast,20000.0,,FEW,12000.0,OVC,20000.0,,,,
KRDR,04-30-2001,12:00,METAR,,250,4.0,,,9999,Cloud Development Not Observable,8.0,3.0,29.82,1008.8,,,,0,0,0,,,,,,,,,7/8 Mostly Cloudy,20000.0,,FEW,12000.0,BKN,20000.0,,,,
KRDR,04-30-2001,11:00,METAR,,260,7.0,,,9999,Cloud Development Not Observable,10.0,4.0,29.81,1009.5,,,,0,0,0,,,,,,,,,7/8 Mostly Cloudy,20000.0,,BKN,20000.0,,,,,,
KRDR,04-30-2001,10:00,METAR,,260,7.0,,,9999,Cloud Development Not Observable,10.0,5.0,29.80,1009.2,,,,0,0,0,,,,,,,,,7/8 Mostly Cloudy,20000.0,,BKN,20000.0,,,,,,
KRDR,04-30-2001,09:00,METAR,,260,6.0,,,9999,Cloud Development Not Observable,9.0,5.0,29.78,1008.4,,,,0,0,0,,,,,,,,,7/8 Mostly Cloudy,20000.0,,BKN,20000.0,,,,,,
KRDR,04-30-2001,08:00,METAR,,270,8.0,,,9999,Cloud Development Not Observable,11.0,6.0,29.78,1008.5,,,,0,0,0,,,,,,,,,7/8 Mostly Cloudy,20000.0,,SCT,8900.0,BKN,20000.0,,,,
KRDR,04-30-2001,07:00,METAR,,270,6.0,,,9999,Cloud Development Not Observable,10.0,6.0,29.77,1008.3,,,,0,0,0,,,,,,,,,7/8 Mostly Cloudy,20000.0,,SCT,8900.0,BKN,20000.0,,,,
KRDR,04-30-2001,06:00,METAR,,290,6.0,,,9999,Cloud Development Not Observable,11.0,7.0,29.75,1007.6,,,,0,0,0,,,,,,,,,7/8 Mostly Cloudy,20000.0,,FEW,4000.0,SCT,6900.0,BKN,20000.0,,
KRDR,04-30-2001,05:00,METAR,,310,7.0,,,9999,Cloud Development Not Observable,14.0,8.0,29.76,1008.0,,,,0,0,0,,,,,,,,,7/8 Mostly Cloudy,20000.0,,FEW,4000.0,SCT,6900.0,BKN,20000.0,,
KRDR,04-30-2001,04:00,METAR,,280,9.0,,,9999,Cloud Development Not Observable,15.0,8.0,29.76,1007.7,,,,0,0,0,,,,,,,,,8/8 Overcast,7000.0,,SCT,4000.0,BKN,6900.0,OVC,20000.0,,
KRDR,04-30-2001,03:27,SPECI,,290,11.0,,,9999,Light Rain Showers/Cloud Development Not Observable,18.0,7.0,29.74,1006.7,,,,80,0,0,,,,,,,,,8/8 Overcast,7000.0,,SCT,4000.0,BKN,6900.0,OVC,20000.0,,
KRDR,04-30-2001,03:00,METAR,,280,13.0,,,9999,Cloud Development Not Observable,18.0,7.0,29.73,1006.7,,,,0,0,0,,,,,,,,,8/8 Overcast,7000.0,,SCT,4000.0,BKN,6900.0,OVC,20000.0,,
KRDR,04-30-2001,02:44,SPECI,,280,15.0,,,9999,Cloud Development Not Observable,18.0,7.0,29.73,,,,,0,0,0,,,,,,,,,8/8 Overcast,7000.0,,SCT,4000.0,BKN,6900.0,OVC,20000.0,,
KRDR,04-30-2001,02:00,METAR,,290,14.0,,,9999,Cloud Development Not Observable,19.0,7.0,29.68,1005.3,,,,0,0,0,,,,,,,,,8/8 Overcast,20000.0,,SCT,4000.0,OVC,20000.0,,,,
KRDR,04-30-2001,01:00,METAR,,290,18.0,24.0,280/25KTS,9999,Cloud Development Not Observable,22.0,7.0,29.67,1004.9,,,,0,0,0,,,,,,,,,8/8 Overcast,9000.0,,SCT,4000.0,BKN,8900.0,OVC,20000.0,,
KRDR,04-30-2001,00:00,METAR,,190,15.0,,,9999,Cloud Development Not Observable,25.0,12.0,29.62,1003.1,,,,0,0,0,,,,,,,,,8/8 Overcast,7500.0,,SCT,4500.0,BKN,7600.0,OVC,20000.0,,
KRDR,04-29-2001,23:00,METAR,,180,20.0,27.0,,9999,Cloud Development Not Observable,27.0,11.0,29.61,1002.5,,,,0,0,0,,,,,,,,,8/8 Overcast,20000.0,,SCT,14000.0,OVC,20000.0,,,,
KRDR,04-29-2001,22:00,METAR,,190,21.0,30.0,,9999,Cloud Development Not Observable,27.0,11.0,29.62,,,,,0,0,0,,,,,,,,,7/8 Mostly Cloudy,20000.0,,SCT,11000.0,BKN,20000.0,,,,
KRDR,04-29-2001,21:00,METAR,,190,22.0,30.0,180/31KTS,9999,Cloud Development Not Observable,27.0,11.0,29.62,,,,,0,0,0,,,,,,,,,8/8 Overcast,11000.0,,FEW,5900.0,BKN,11000.0,OVC,20000.0,,
KRDR,04-29-2001,20:00,METAR,,190,25.0,35.0,190/39KTS,9999,Cloud Development Not Observable,26.0,11.0,29.63,,,,,0,0,0,,,,,,,,,7/8 Mostly Cloudy,20000.0,,SCT,9900.0,BKN,20000.0,,,,
KRDR,04-29-2001,19:00,METAR,,170,25.0,37.0,,9999,Cloud Development Not Observable,27.0,10.0,29.64,,,,,0,0,0,,,,,,,,,8/8 Overcast,20000.0,,FEW,4000.0,SCT,8900.0,OVC,20000.0,,
KRDR,04-29-2001,18:00,METAR,,170,25.0,33.0,,9999,Cloud Development Not Observable,25.0,10.0,29.65,,,,,0,0,0,,,,,,,,,8/8 Overcast,20000.0,,SCT,8900.0,OVC,20000.0,,,,
KRDR,04-29-2001,17:00,METAR,,190,28.0,34.0,,9999,Cloud Development Not Observable,25.0,10.0,29.67,,,,,0,0,0,,,,,,,,,8/8 Overcast,20000.0,,FEW,4000.0,SCT,8900.0,OVC,20000.0,,
KRDR,04-29-2001,16:00,METAR,,190,26.0,33.0,180/34KTS,9999,Cloud Development Not Observable,23.0,10.0,29.68,,,,,0,0,0,,,,,,,,,8/8 Overcast,20000.0,,FEW,4000.0,SCT,8900.0,OVC,20000.0,,
KRDR,04-29-2001,15:00,METAR,,190,29.0,36.0,,9999,Cloud Development Not Observable,20.0,9.0,29.70,,,,,0,0,0,,,,,,,,,8/8 Overcast,20000.0,,FEW,4000.0,SCT,8900.0,OVC,20000.0,,
KRDR,04-29-2001,14:00,METAR,,190,21.0,28.0,190/31KTS,9999,Cloud Development Not Observable,20.0,9.0,29.71,,,,,0,0,0,,,,,,,,,8/8 Overcast,20000.0,,FEW,4000.0,FEW,8900.0,OVC,20000.0,,
KRDR,04-29-2001,13:00,METAR,,190,22.0,27.0,190/29KTS,9999,Cloud Development Not Observable,19.0,9.0,29.72,1006.4,,,,0,0,0,,,,,,,,,7/8 Mostly Cloudy,20000.0,,SCT,9900.0,BKN,20000.0,,,,
KRDR,04-29-2001,12:00,METAR,,180,22.0,26.0,,9999,Cloud Development Not Observable,,,29.73,1007.3,,,,0,0,0,,,,,,,,,7/8 Mostly Cloudy,20000.0,,FEW,9900.0,BKN,20000.0,,,,
KRDR,04-29-2001,11:00,METAR,,180,19.0,,,9999,Cloud Development Not Observable,18.0,9.0,29.72,,,,,0,0,0,,,,,,,,,7/8 Mostly Cloudy,20000.0,,SCT,9900.0,BKN,20000.0,,,,
KRDR,04-29-2001,01:00,METAR,,140,15.0,,140/25KTS,9999,Cloud Development Not Observable,23.0,13.0,29.77,,,,,0,0,0,,,,,,,,,4/8 Partly Cloudy,72000.0,,FEW,4000.0,SCT,12000.0,SCT,20000.0,,
KRDR,04-29-2001,00:00,METAR,,140,19.0,26.0,160/30KTS,9999,Cloud Development Not Observable,24.0,13.0,29.79,,,,,0,0,0,,,,,,,,,4/8 Partly Cloudy,72000.0,,SCT,4000.0,SCT,12000.0,SCT,20000.0,,
KRDR,04-28-2001,23:00,METAR,,160,26.0,35.0,,9999,Cloud Development Not Observable,25.0,12.0,29.82,,,,,0,0,0,,,,,,,,,4/8 Partly Cloudy,72000.0,,SCT,4000.0,SCT,12000.0,,,,
KRDR,04-28-2001,22:00,METAR,,160,23.0,33.0,160/36KTS,9999,Cloud Development Not Observable,24.0,12.0,,,,,,0,0,0,,,,,,,,,4/8 Partly Cloudy,72000.0,,SCT,4000.0,SCT,12000.0,SCT,25000.0,,
KRDR,04-28-2001,21:00,METAR,,150,22.0,32.0,160/35KTS,9999,Cloud Development Not Observable,25.0,11.0,29.85,,,,,0,0,0,,,,,,,,,4/8 Partly Cloudy,72000.0,,SCT,12000.0,SCT,25000.0,,,,
KRDR,04-28-2001,20:00,METAR,,150,23.0,30.0,160/33KTS,9999,Cloud Development Not Observable,25.0,10.0,29.87,,,,,0,0,0,,,,,,,,,4/8 Partly Cloudy,72000.0,,FEW,14000.0,FEW,25000.0,SCT,34000.0,,
KRDR,04-28-2001,19:00,METAR,,150,21.0,29.0,150/31KTS,9999,Cloud Development Not Observable,24.0,10.0,29.90,,,,,0,0,0,,,,,,,,,4/8 Partly Cloudy,72000.0,,FEW,14000.0,SCT,20000.0,,,,
KRDR,04-28-2001,18:43,SPECI,,150,22.0,30.0,,9999,Cloud Development Not Observable,23.0,10.0,29.90,,,,,0,0,0,,,,,,,,,4/8 Partly Cloudy,72000.0,,FEW,14000.0,SCT,20000.0,,,,
KRDR,04-28-2001,15:48,SPECI,,170,23.0,31.0,,9999,Cloud Development Not Observable,20.0,6.0,29.96,,,,,0,0,0,,,,,,,,,7/8 Mostly Cloudy,8000.0,,BKN,7900.0,BKN,20000.0,,,,
KRDR,04-28-2001,15:00,METAR,,160,19.0,27.0,,9999,Cloud Development Not Observable,18.0,5.0,29.98,1015.7,,,,0,0,0,,,,,,,,,4/8 Partly Cloudy,72000.0,,FEW,7900.0,SCT,20000.0,,,,
KRDR,04-28-2001,14:00,METAR,,150,17.0,24.0,,9999,Cloud Development Not Observable,16.0,4.0,29.99,1016.0,,,,0,0,0,,,,,,,,,2/8 Mostly Clear,72000.0,,FEW,12000.0,FEW,20000.0,,,,
KRDR,04-28-2001,13:02,SPECI,,150,14.0,,,9999,Cloud Development Not Observable,14.0,4.0,30.00,,,,,0,0,0,,,,,,,,,4/8 Partly Cloudy,72000.0,,SCT,20000.0,,,,,,
KRDR,04-28-2001,04:00,METAR,,150,11.0,,,9999,Cloud Development Not Observable,13.0,3.0,30.09,1019.1,,,,0,0,0,,,,,,,,,Clear,72000.0,,,73000.0,,,,,,
KRDR,04-28-2001,03:00,METAR,,140,13.0,,,9999,Cloud Development Not Observable,13.0,3.0,30.09,1019.3,,,,0,0,0,,,,,,,,,2/8 Mostly Clear,72000.0,,FEW,12000.0,,,,,,
KRDR,04-28-2001,02:00,METAR,,140,14.0,,,9999,Cloud Development Not Observable,14.0,3.0,30.09,1019.4,,,,0,0,0,,,,,,,,,2/8 Mostly Clear,72000.0,,FEW,12000.0,FEW,20000.0,,,,
KRDR,04-27-2001,18:00,METAR,,110,12.0,,,9999,Cloud Development Not Observable,18.0,2.0,30.18,1022.5,,,,0,0,0,,,,,,,,,7/8 Mostly Cloudy,9000.0,,BKN,8900.0,BKN,12000.0,BKN,20000.0,,
KRDR,04-27-2001,17:00,METAR,,130,12.0,,,9999,Cloud Development Not Observable,19.0,1.0,30.18,1022.6,,,,0,0,0,,,,,,,,,7/8 Mostly Cloudy,9000.0,,BKN,8900.0,BKN,12000.0,BKN,20000.0,,
KRDR,04-27-2001,16:00,METAR,,160,11.0,,,9999,Cloud Development Not Observable,16.0,2.0,30.19,1023.0,,,,0,0,0,,,,,,,,,7/8 Mostly Cloudy,9000.0,,BKN,8900.0,BKN,12000.0,BKN,20000.0,,
KRDR,04-27-2001,15:19,SPECI,,150,7.0,,,9999,Cloud Development Not Observable,14.0,4.0,30.20,,,,,0,0,0,,,,,,,,,7/8 Mostly Cloudy,9000.0,,SCT,5000.0,BKN,8900.0,,,,
KRDR,04-27-2001,15:00,METAR,,140,14.0,,,9999,Light Rain Showers/Cloud Development Not Observable,13.0,3.0,30.18,1022.5,,,,80,0,0,,,,,,,,,7/8 Mostly Cloudy,9000.0,,SCT,5000.0,BKN,8900.0,BKN,20000.0,,
KRDR,04-27-2001,14:47,SPECI,,150,9.0,,,9999,Light Rain Showers/Cloud Development Not Observable,13.0,3.0,30.19,,,,,80,0,0,,,,,,,,,7/8 Mostly Cloudy,9000.0,,SCT,5000.0,BKN,8900.0,BKN,20000.0,,
KRDR,04-27-2001,14:00,METAR,,120,12.0,,,9999,Cloud Development Not Observable,11.0,2.0,30.18,1022.5,,,,0,0,0,,,,,,,,,7/8 Mostly Cloudy,12000.0,,SCT,5000.0,BKN,12000.0,BKN,20000.0,,
KRDR,04-27-2001,13:00,METAR,,130,7.0,,,9999,Cloud Development Not Observable,8.0,3.0,30.20,1023.3,,,,0,0,0,,,,,,,,,7/8 Mostly Cloudy,9000.0,,SCT,5000.0,BKN,8900.0,BKN,20000.0,,
KRDR,04-27-2001,12:00,METAR,,120,5.0,,,9999,Cloud Development Not Observable,7.0,3.0,30.18,1022.7,,,,0,0,0,,,,,,,,,4/8 Partly Cloudy,20000.0,,SCT,5000.0,BKN,20000.0,,,,
KRDR,04-27-2001,11:00,METAR,,90,4.0,,,9999,Cloud Development Not Observable,8.0,3.0,30.18,1022.5,,,,0,0,0,,,,,,,,,7/8 Mostly Cloudy,9000.0,,BKN,8900.0,BKN,20000.0,,,,
KRDR,04-27-2001,10:31,SPECI,,60,6.0,,,9999,Cloud Development Not Observable,8.0,2.0,30.17,,,,,0,0,0,,,,,,,,,7/8 Mostly Cloudy,9000.0,,BKN,8900.0,BKN,20000.0,,,,
KRDR,04-27-2001,10:00,METAR,,140,6.0,,,9999,Light Rain Showers/Cloud Development Not Observable,8.0,2.0,30.16,1021.7,,,,80,0,0,,,,,,,,,8/8 Overcast,9000.0,,OVC,8900.0,,,,,,
KRDR,04-27-2001,09:34,SPECI,,130,7.0,,,9999,Light Rain Showers/Cloud Development Not Observable,8.0,2.0,30.16,,,,,80,0,0,,,,,,,,,8/8 Overcast,8000.0,,OVC,7900.0,,,,,,
KRDR,04-27-2001,09:00,METAR,,40,2.0,,,9999,Cloud Development Not Observable,8.0,2.0,30.17,1022.1,,,,0,0,0,,,,,,,,,8/8 Overcast,11000.0,,BKN,11000.0,OVC,22000.0,,,,
KRDR,04-27-2001,08:00,METAR,,180,1.0,,,9999,Cloud Development Not Observable,6.0,3.0,30.16,1021.8,,,,0,0,0,,,,,,,,,8/8 Overcast,11000.0,,BKN,11000.0,OVC,22000.0,,,,
KRDR,04-27-2001,07:00,METAR,,140,4.0,,,9999,Cloud Development Not Observable,6.0,4.0,30.13,1020.9,,,,0,0,0,,,,,,,,,4/8 Partly Cloudy,72000.0,,SCT,25000.0,,,,,,
KRDR,04-27-2001,06:00,METAR,,260,3.0,,,9999,Cloud Development Not Observable,7.0,2.0,30.14,1021.3,,,,0,0,0,,,,,,,,,7/8 Mostly Cloudy,25000.0,,FEW,12000.0,BKN,25000.0,,,,
KRDR,04-27-2001,05:00,METAR,,120,4.0,,,9999,Cloud Development Not Observable,10.0,3.0,30.14,1021.0,,,,0,0,0,,,,,,,,,4/8 Partly Cloudy,72000.0,,FEW,12000.0,SCT,25000.0,,,,
KRDR,04-27-2001,04:00,METAR,,150,3.0,,,9999,Cloud Development Not Observable,9.0,2.0,30.15,1021.4,,,,0,0,0,,,,,,,,,7/8 Mostly Cloudy,25000.0,,SCT,12000.0,BKN,25000.0,,,,
KRDR,04-27-2001,03:00,METAR,,100,4.0,,,9999,Cloud Development Not Observable,12.0,2.0,30.15,1021.4,,,,0,0,0,,,,,,,,,7/8 Mostly Cloudy,12000.0,,BKN,12000.0,BKN,25000.0,,,,
KRDR,04-27-2001,02:00,METAR,,80,5.0,,,9999,Cloud Development Not Observable,13.0,2.0,30.13,1020.7,,,,0,0,0,,,,,,,,,7/8 Mostly Cloudy,12000.0,,BKN,12000.0,BKN,25000.0,,,,
KRDR,04-27-2001,01:00,METAR,,60,7.0,,,9999,Cloud Development Not Observable,15.0,0.0,30.11,1020.2,,,,0,0,0,,,,,,,,,7/8 Mostly Cloudy,25000.0,,FEW,12000.0,BKN,25000.0,,,,
KRDR,04-27-2001,00:00,METAR,,40,10.0,,,9999,Cloud Development Not Observable,16.0,0.0,30.11,1020.3,,,,0,0,0,,,,,,,,,7/8 Mostly Cloudy,25000.0,,FEW,12000.0,BKN,25000.0,,,,
KRDR,04-26-2001,23:00,METAR,,70,10.0,,,9999,Cloud Development Not Observable,17.0,1.0,30.12,1020.5,,,,0,0,0,,,,,,,,,4/8 Partly Cloudy,72000.0,,FEW,12000.0,SCT,25000.0,,,,
KRDR,04-26-2001,22:00,METAR,,20,12.0,,,9999,Cloud Development Not Observable,18.0,0.0,30.11,1020.2,,,,0,0,0,,,,,,,,,2/8 Mostly Clear,72000.0,,FEW,25000.0,,,,,,
KRDR,04-26-2001,21:00,METAR,,360,10.0,,,9999,Cloud Development Not Observable,19.0,0.0,30.11,1019.5,,,,0,0,0,,,,,,,,,2/8 Mostly Clear,72000.0,,FEW,25000.0,,,,,,
KRDR,04-26-2001,20:00,METAR,,340,10.0,,,9999,Cloud Development Not Observable,19.0,0.0,30.10,1019.5,,,,0,0,0,,,,,,,,,2/8 Mostly Clear,72000.0,,FEW,25000.0,FEW,34000.0,,,,
KRDR,04-26-2001,19:00,METAR,,340,7.0,19.0,,9999,Cloud Development Not Observable,19.0,-1.0,30.09,1019.2,,,,0,0,0,,,,,,,,,2/8 Mostly Clear,72000.0,,FEW,25000.0,FEW,34000.0,,,,
KRDR,04-26-2001,18:00,METAR,,340,15.0,,,9999,Cloud Development Not Observable,18.0,-3.0,30.09,1019.2,,,,0,0,0,,,,,,,,,2/8 Mostly Clear,72000.0,,FEW,9900.0,FEW,20000.0,,,,
KRDR,04-26-2001,17:00,METAR,,350,12.0,,,9999,Cloud Development Not Observable,17.0,-1.0,30.08,1019.1,,,,0,0,0,,,,,,,,,2/8 Mostly Clear,72000.0,,FEW,20000.0,,,,,,
KRDR,04-26-2001,16:00,METAR,,360,15.0,,,9999,Cloud Development Not Observable,17.0,-2.0,30.06,1018.5,,,,0,0,0,,,,,,,,,2/8 Mostly Clear,72000.0,,FEW,20000.0,,,,,,
KRDR,04-26-2001,15:00,METAR,,350,16.0,,,9999,Cloud Development Not Observable,15.0,-1.0,30.04,1017.8,,,,0,0,0,,,,,,,,,2/8 Mostly Clear,72000.0,,FEW,20000.0,,,,,,
KRDR,04-26-2001,14:00,METAR,,310,13.0,,,9999,Cloud Development Not Observable,13.0,1.0,30.02,1017.1,,,,0,0,0,,,,,,,,,2/8 Mostly Clear,72000.0,,FEW,20000.0,,,,,,
KRDR,04-26-2001,13:00,METAR,,290,13.0,,,9999,Cloud Development Not Observable,10.0,1.0,29.99,1015.9,,,,0,0,0,,,,,,,,,4/8 Partly Cloudy,72000.0,,SCT,20000.0,,,,,,
KRDR,04-26-2001,12:00,METAR,,290,8.0,,,9999,Cloud Development Not Observable,6.0,1.0,29.96,1014.8,,,,0,0,0,,,,,,,,,4/8 Partly Cloudy,72000.0,,FEW,7900.0,SCT,20000.0,,,,
KRDR,04-26-2001,11:00,METAR,,290,9.0,,,9999,Cloud Development Not Observable,6.0,2.0,29.93,1013.7,,,,0,0,0,,,,,,,,,2/8 Mostly Clear,72000.0,,FEW,7900.0,FEW,20000.0,,,,
KRDR,04-26-2001,10:00,METAR,,310,7.0,,,9999,Cloud Development Not Observable,7.0,1.0,29.89,1012.0,,,,0,0,0,,,,,,,,,Clear,72000.0,,,73000.0,,,,,,
KRDR,04-26-2001,09:00,METAR,,320,10.0,,,9999,Cloud Development Not Observable,10.0,3.0,29.85,1010.2,,,,0,0,0,,,,,,,,,2/8 Mostly Clear,72000.0,,FEW,20000.0,,,,,,
KRDR,04-26-2001,08:00,METAR,,320,13.0,,,9999,Cloud Development Not Observable,13.0,4.0,29.83,1010.2,,,,0,0,0,,,,,,,,,4/8 Partly Cloudy,72000.0,,SCT,20000.0,,,,,,
KRDR,04-26-2001,07:00,METAR,,300,11.0,,,9999,Cloud Development Not Observable,14.0,5.0,29.82,1009.8,,,,0,0,0,,,,,,,,,7/8 Mostly Cloudy,20000.0,,BKN,20000.0,,,,,,
KRDR,04-26-2001,06:00,METAR,,290,13.0,,,9999,Cloud Development Not Observable,16.0,4.0,29.80,1009.2,,,,0,0,0,,,,,,,,,2/8 Mostly Clear,72000.0,,FEW,20000.0,,,,,,
KRDR,04-26-2001,05:00,METAR,,280,9.0,,,9999,Cloud Development Not Observable,12.0,6.0,29.79,1008.9,,,,0,0,0,,,,,,,,,2/8 Mostly Clear,72000.0,,FEW,20000.0,,,,,,
KRDR,04-26-2001,04:00,METAR,,280,7.0,,,9999,Cloud Development Not Observable,14.0,6.0,29.77,1008.4,,,,0,0,0,,,,,,,,,2/8 Mostly Clear,72000.0,,FEW,20000.0,,,,,,
KRDR,04-26-2001,03:00,METAR,,250,6.0,,,9999,Cloud Development Not Observable,14.0,6.0,29.75,1007.7,,,,0,0,0,,,,,,,,,2/8 Mostly Clear,72000.0,,FEW,20000.0,,,,,,
KRDR,04-26-2001,02:00,METAR,,260,7.0,,,9999,Cloud Development Not Observable,17.0,5.0,29.74,1007.4,,,,0,0,0,,,,,,,,,2/8 Mostly Clear,72000.0,,FEW,20000.0,,,,,,
KRDR,04-26-2001,01:00,METAR,,260,7.0,,,9999,Cloud Development Not Observable,22.0,5.0,29.74,1007.3,,,,0,0,0,,,,,,,,,2/8 Mostly Clear,72000.0,,FEW,20000.0,,,,,,
KRDR,04-26-2001,00:00,METAR,,270,11.0,,,9999,Cloud Development Not Observable,25.0,4.0,29.76,1008.0,,,,0,0,0,,,,,,,,,2/8 Mostly Clear,72000.0,,FEW,7900.0,FEW,20000.0,,,,
KRDR,04-25-2001,23:00,METAR,,250,13.0,,,9999,Cloud Development Not Observable,26.0,3.0,29.77,1008.3,,,,0,0,0,,,,,,,,,4/8 Partly Cloudy,72000.0,,FEW,7900.0,SCT,20000.0,,,,
KRDR,04-25-2001,22:00,METAR,,270,17.0,25.0,250/31KTS,9999,Cloud Development Not Observable,26.0,4.0,29.77,1008.5,,,,0,0,0,,,,,,,,,4/8 Partly Cloudy,72000.0,,FEW,7900.0,SCT,20000.0,,,,
KRDR,04-25-2001,21:00,METAR,,240,19.0,28.0,230/33KTS,9999,Cloud Development Not Observable,26.0,4.0,29.79,1009.0,,,,0,0,0,,,,,,,,,4/8 Partly Cloudy,72000.0,,FEW,3000.0,FEW,20000.0,SCT,38000.0,,
KRDR,04-25-2001,20:00,METAR,,220,20.0,,220/29KTS,9999,Cloud Development Not Observable,26.0,3.0,29.82,1010.1,,,,0,0,0,,,,,,,,,7/8 Mostly Cloudy,37000.0,,SCT,20000.0,BKN,38000.0,,,,
KRDR,04-25-2001,19:00,METAR,,240,17.0,26.0,220/28KTS,9999,Cloud Development Not Observable,25.0,2.0,29.86,1011.5,,,,0,0,0,,,,,,,,,7/8 Mostly Cloudy,37000.0,,FEW,6900.0,FEW,12000.0,BKN,38000.0,,
KRDR,04-25-2001,18:00,METAR,,230,21.0,25.0,240/26KTS,9999,Cloud Development Not Observable,24.0,2.0,29.87,1011.9,,,,0,0,0,,,,,,,,,8/8 Overcast,37000.0,,SCT,20000.0,OVC,38000.0,,,,
KRDR,04-25-2001,17:00,METAR,,230,18.0,,,9999,Cloud Development Not Observable,23.0,3.0,29.91,1013.1,,,,0,0,0,,,,,,,,,8/8 Overcast,19000.0,,FEW,12000.0,OVC,19000.0,,,,
KRDR,04-25-2001,16:00,METAR,,220,17.0,,,9999,Cloud Development Not Observable,20.0,3.0,29.94,1014.1,,,,0,0,0,,,,,,,,,8/8 Overcast,19000.0,,OVC,19000.0,,,,,,
KRDR,04-25-2001,15:00,METAR,,220,14.0,,,9999,Cloud Development Not Observable,19.0,3.0,29.96,1015.0,,,,0,0,0,,,,,,,,,8/8 Overcast,19000.0,,OVC,19000.0,,,,,,
KRDR,04-25-2001,14:00,METAR,,210,9.0,,,9999,Cloud Development Not Observable,14.0,3.0,30.00,1016.3,,,,0,0,0,,,,,,,,,8/8 Overcast,19000.0,,FEW,12000.0,OVC,19000.0,,,,
KRDR,04-25-2001,13:00,METAR,,220,9.0,,,9999,Cloud Development Not Observable,9.0,3.0,30.01,1017.0,,,,0,0,0,,,,,,,,,8/8 Overcast,19000.0,,OVC,19000.0,,,,,,
KRDR,04-25-2001,12:00,METAR,,220,10.0,,,9999,Cloud Development Not Observable,6.0,4.0,30.01,1017.0,,,,0,0,0,,,,,,,,,7/8 Mostly Cloudy,19000.0,,BKN,19000.0,,,,,,
KRDR,04-25-2001,11:00,METAR,,210,10.0,,,9999,Cloud Development Not Observable,4.0,2.0,30.02,1017.1,,,,0,0,0,,,,,,,,,4/8 Partly Cloudy,72000.0,,SCT,20000.0,,,,,,
KRDR,04-25-2001,10:00,METAR,,200,6.0,,,9999,Cloud Development Not Observable,3.0,2.0,30.02,1017.4,,,,0,0,0,,,,,,,,,2/8 Mostly Clear,72000.0,,FEW,20000.0,,,,,,
KRDR,04-25-2001,08:00,METAR,,210,5.0,,,9999,Cloud Development Not Observable,5.0,3.0,30.03,1017.7,,,,0,0,0,,,,,,,,,Clear,72000.0,,,73000.0,,,,,,
KRDR,04-25-2001,07:00,METAR,,180,8.0,,,9999,Cloud Development Not Observable,7.0,4.0,30.05,1018.4,,,,0,0,0,,,,,,,,,Clear,72000.0,,,73000.0,,,,,,
KRDR,04-25-2001,06:00,METAR,,200,10.0,,,9999,Cloud Development Not Observable,9.0,4.0,30.06,1018.7,,,,0,0,0,,,,,,,,,Clear,72000.0,,,73000.0,,,,,,
KRDR,04-25-2001,05:00,METAR,,170,6.0,,,9999,Cloud Development Not Observable,11.0,4.0,30.08,1019.0,,,,0,0,0,,,,,,,,,4/8 Partly Cloudy,72000.0,,SCT,8900.0,,,,,,
KRDR,04-25-2001,04:00,METAR,,200,8.0,,,9999,Cloud Development Not Observable,10.0,6.0,30.08,1019.1,,,,0,0,0,,,,,,,,,4/8 Partly Cloudy,72000.0,,SCT,8900.0,,,,,,
KRDR,04-25-2001,03:00,METAR,,180,14.0,,,9999,Cloud Development Not Observable,12.0,6.0,30.06,1018.7,,,,0,0,0,,,,,,,,,4/8 Partly Cloudy,72000.0,,SCT,8900.0,,,,,,
KRDR,04-25-2001,02:00,METAR,,150,5.0,,,9999,Cloud Development Not Observable,13.0,5.0,30.08,1018.9,,,,0,0,0,,,,,,,,,7/8 Mostly Cloudy,9000.0,,BKN,8900.0,BKN,20000.0,,,,
KRDR,04-25-2001,01:00,METAR,,130,8.0,,,9999,Cloud Development Not Observable,14.0,4.0,30.06,1018.7,,,,0,0,0,,,,,,,,,4/8 Partly Cloudy,72000.0,,FEW,7900.0,FEW,12000.0,SCT,20000.0,,
KRDR,04-25-2001,00:00,METAR,,120,10.0,,,9999,Cloud Development Not Observable,18.0,-1.0,30.06,1018.8,,,,0,0,0,,,,,,,,,2/8 Mostly Clear,72000.0,,FEW,7900.0,FEW,20000.0,,,,
KRDR,04-24-2001,23:00,METAR,,,,,,9999,Cloud Development Not Observable,18.0,-1.0,30.08,1019.2,,,,0,0,0,,,,,,,,,2/8 Mostly Clear,72000.0,,FEW,7900.0,FEW,20000.0,,,,
KRDR,04-24-2001,22:00,METAR,,180,9.0,,,9999,Cloud Development Not Observable,18.0,-1.0,30.08,1019.1,,,,0,0,0,,,,,,,,,2/8 Mostly Clear,72000.0,,FEW,7900.0,FEW,20000.0,,,,
KRDR,04-24-2001,21:00,METAR,,,,,,9999,Cloud Development Not Observable,18.0,0.0,30.09,1019.5,,,,0,0,0,,,,,,,,,2/8 Mostly Clear,72000.0,,FEW,7900.0,FEW,20000.0,,,,
KRDR,04-24-2001,20:00,METAR,,220,9.0,,,9999,Cloud Development Not Observable,16.0,-2.0,30.09,1019.7,,,,0,0,0,,,,,,,,,4/8 Partly Cloudy,72000.0,,FEW,11000.0,SCT,20000.0,,,,
KRDR,04-24-2001,19:00,METAR,,,,,,9999,Cloud Development Not Observable,15.0,-3.0,30.11,1020.2,,,,0,0,0,,,,,,,,,7/8 Mostly Cloudy,11000.0,,BKN,11000.0,BKN,20000.0,,,,
KRDR,04-24-2001,18:00,METAR,,,,,,9999,Cloud Development Not Observable,14.0,-2.0,30.12,1020.7,,,,0,0,0,,,,,,,,,7/8 Mostly Cloudy,11000.0,,FEW,6900.0,BKN,11000.0,BKN,20000.0,,
KRDR,04-24-2001,17:00,METAR,,,,,,9999,Cloud Development Not Observable,14.0,-2.0,30.12,1020.7,,,,0,0,0,,,,,,,,,7/8 Mostly Cloudy,20000.0,,FEW,6900.0,BKN,20000.0,,,,
KRDR,04-24-2001,16:00,METAR,,,,,,9999,Cloud Development Not Observable,13.0,0.0,30.12,1020.7,,,,0,0,0,,,,,,,,,4/8 Partly Cloudy,72000.0,,SCT,20000.0,,,,,,
KRDR,04-24-2001,15:00,METAR,,,,,,9999,Cloud Development Not Observable,10.0,2.0,30.11,1020.4,,,,0,0,0,,,,,,,,,7/8 Mostly Cloudy,20000.0,,BKN,20000.0,,,,,,
KRDR,04-24-2001,14:00,METAR,,290,8.0,,,9999,Cloud Development Not Observable,7.0,3.0,30.10,1020.1,,,,0,0,0,,,,,,,,,2/8 Mostly Clear,72000.0,,FEW,20000.0,,,,,,
KRDR,04-24-2001,13:00,METAR,,280,8.0,,,9999,Cloud Development Not Observable,4.0,0.0,30.08,1019.5,,,,0,0,0,,,,,,,,,2/8 Mostly Clear,72000.0,,FEW,6900.0,FEW,20000.0,,,,
KRDR,04-24-2001,12:00,METAR,,300,6.0,,,9999,Cloud Development Not Observable,1.0,-1.0,30.06,1019.0,,,,0,0,0,,,,,,,,,2/8 Mostly Clear,72000.0,,FEW,6900.0,FEW,20000.0,,,,
KRDR,04-24-2001,11:00,METAR,,270,6.0,,,9999,Cloud Development Not Observable,1.0,-2.0,30.04,1018.3,,,,0,0,0,,,,,,,,,2/8 Mostly Clear,72000.0,,FEW,6900.0,,,,,,
KRDR,04-24-2001,10:00,METAR,,290,7.0,,,9999,Cloud Development Not Observable,2.0,-1.0,30.03,1017.8,,,,0,0,0,,,,,,,,,2/8 Mostly Clear,72000.0,,FEW,6900.0,,,,,,
KRDR,04-24-2001,09:00,METAR,,240,9.0,,,9999,Cloud Development Not Observable,4.0,-1.0,30.02,1017.5,,,,0,0,0,,,,,,,,,2/8 Mostly Clear,72000.0,,FEW,6900.0,,,,,,
KRDR,04-24-2001,08:00,METAR,,350,6.0,,,9999,Cloud Development Not Observable,3.0,-2.0,30.02,1017.6,,,,0,0,0,,,,,,,,,4/8 Partly Cloudy,72000.0,,SCT,6900.0,,,,,,
KRDR,04-24-2001,07:00,METAR,,240,9.0,,,9999,Cloud Development Not Observable,4.0,0.0,30.01,1017.1,,,,0,0,0,,,,,,,,,7/8 Mostly Cloudy,7000.0,,BKN,6900.0,,,,,,
KRDR,04-24-2001,06:00,METAR,,230,7.0,,,9999,Cloud Development Not Observable,2.0,-1.0,30.00,1017.0,,,,0,0,0,,,,,,,,,2/8 Mostly Clear,72000.0,,FEW,11000.0,,,,,,
KRDR,04-24-2001,05:00,METAR,,240,9.0,,,9999,Cloud Development Not Observable,3.0,0.0,30.00,1016.9,,,,0,0,0,,,,,,,,,2/8 Mostly Clear,72000.0,,FEW,8900.0,,,,,,
KRDR,04-24-2001,04:00,METAR,,220,6.0,,,9999,Cloud Development Not Observable,4.0,0.0,30.00,1016.9,,,,0,0,0,,,,,,,,,2/8 Mostly Clear,72000.0,,FEW,7900.0,,,,,,
KRDR,04-24-2001,03:00,METAR,,230,8.0,,,9999,Cloud Development Not Observable,5.0,1.0,29.99,1016.7,,,,0,0,0,,,,,,,,,2/8 Mostly Clear,72000.0,,FEW,7900.0,,,,,,
KRDR,04-24-2001,02:00,METAR,,270,8.0,,,9999,Cloud Development Not Observable,7.0,1.0,29.98,1016.2,,,,0,0,0,,,,,,,,,4/8 Partly Cloudy,72000.0,,SCT,9900.0,,,,,,
KRDR,04-24-2001,01:00,METAR,,300,7.0,,,9999,Cloud Development Not Observable,11.0,1.0,29.97,1015.8,,,,0,0,0,,,,,,,,,2/8 Mostly Clear,72000.0,,FEW,6900.0,FEW,9900.0,,,,
KRDR,04-24-2001,00:00,METAR,,320,11.0,,,9999,Cloud Development Not Observable,13.0,-1.0,29.95,1015.2,,,,0,0,0,,,,,,,,,2/8 Mostly Clear,72000.0,,FEW,4000.0,,,,,,
KRDR,04-23-2001,23:00,METAR,,310,16.0,,310/27KTS,9999,Cloud Development Not Observable,13.0,-2.0,29.94,1014.7,,,,0,0,0,,,,,,,,,2/8 Mostly Clear,72000.0,,FEW,4000.0,,,,,,
KRDR,04-23-2001,22:00,METAR,,320,17.0,26.0,,9999,Cloud Development Not Observable,13.0,-4.0,29.92,1014.1,,,,0,0,0,,,,,,,,,Clear,72000.0,,,73000.0,,,,,,
KRDR,04-23-2001,21:00,METAR,,310,14.0,21.0,,9999,Cloud Development Not Observable,12.0,-2.0,29.92,1014.0,,,,0,0,0,,,,,,,,,2/8 Mostly Clear,72000.0,,FEW,4000.0,,,,,,
KRDR,04-23-2001,20:00,METAR,,330,17.0,27.0,,9999,Cloud Development Not Observable,11.0,-3.0,29.92,1014.2,,,,0,0,0,,,,,,,,,2/8 Mostly Clear,72000.0,,FEW,5000.0,,,,,,
KRDR,04-23-2001,19:00,METAR,,330,16.0,28.0,320/28KTS,9999,Cloud Development Not Observable,10.0,-3.0,29.92,1014.2,,,,0,0,0,,,,,,,,,2/8 Mostly Clear,72000.0,,FEW,5000.0,,,,,,
KRDR,04-23-2001,18:00,METAR,,340,17.0,26.0,330/26KTS,9999,Cloud Development Not Observable,9.0,-3.0,29.92,1014.3,,,,0,0,0,,,,,,,,,2/8 Mostly Clear,72000.0,,FEW,5000.0,FEW,20000.0,,,,
KRDR,04-23-2001,17:00,METAR,,340,21.0,25.0,340/27KTS,9999,Cloud Development Not Observable,8.0,-4.0,29.92,1014.3,,,,0,0,0,,,,,,,,,4/8 Partly Cloudy,72000.0,,FEW,15000.0,SCT,20000.0,,,,
KRDR,04-23-2001,16:00,METAR,,340,21.0,29.0,,9999,Cloud Development Not Observable,6.0,-5.0,29.92,1014.2,,,,0,0,0,,,,,,,,,7/8 Mostly Cloudy,20000.0,,SCT,15000.0,BKN,20000.0,,,,
KRDR,04-23-2001,15:00,METAR,,330,17.0,23.0,,9999,Cloud Development Not Observable,3.0,-3.0,29.90,,,,,0,0,0,,,,,,,,,7/8 Mostly Cloudy,14000.0,,BKN,14000.0,BKN,20000.0,,,,
KRDR,04-23-2001,14:00,METAR,,330,18.0,,,9999,Cloud Development Not Observable,2.0,-3.0,29.89,,,,,0,0,0,,,,,,,,,7/8 Mostly Cloudy,14000.0,,BKN,14000.0,,,,,,
KRDR,04-23-2001,13:00,METAR,,330,15.0,,,9999,Cloud Development Not Observable,0.0,-2.0,29.89,,,,,0,0,0,,,,,,,,,7/8 Mostly Cloudy,14000.0,,BKN,14000.0,,,,,,
KRDR,04-23-2001,12:00,METAR,,340,11.0,,,9999,Cloud Development Not Observable,0.0,-2.0,29.87,1013.0,,,,0,0,0,,,,,,,,,7/8 Mostly Cloudy,14000.0,,BKN,14000.0,,,,,,
KRDR,04-23-2001,11:00,METAR,,340,11.0,,,9999,Cloud Development Not Observable,0.0,-2.0,29.86,1012.6,,,,0,0,0,,,,,,,,,8/8 Overcast,12000.0,,OVC,12000.0,,,,,,
KRDR,04-23-2001,10:00,METAR,,340,15.0,,,9999,Cloud Development Not Observable,0.0,-2.0,29.85,1012.1,,,,0,0,0,,,,,,,,,8/8 Overcast,12000.0,,OVC,12000.0,,,,,,
KRDR,04-23-2001,09:00,METAR,,350,16.0,,,9999,Cloud Development Not Observable,1.0,-2.0,29.84,1011.9,,,,0,0,0,,,,,,,,,8/8 Overcast,12000.0,,OVC,12000.0,,,,,,
KRDR,04-23-2001,08:00,METAR,,350,12.0,,,9999,Cloud Development Not Observable,0.0,-1.0,29.86,1012.6,,,,0,0,0,,,,,,,,,8/8 Overcast,12000.0,,SCT,3000.0,OVC,12000.0,,,,
KRDR,04-23-2001,07:00,METAR,,350,12.0,,,9999,Cloud Development Not Observable,0.0,-1.0,29.91,,,,,0,0,0,,,,,,,,,8/8 Overcast,12000.0,,OVC,12000.0,,,,,,
KRDR,04-23-2001,06:00,METAR,,350,12.0,,,9999,Cloud Development Not Observable,0.0,-2.0,29.94,,,,,0,0,0,,,,,,,,,8/8 Overcast,11000.0,,OVC,11000.0,,,,,,
KRDR,04-23-2001,05:25,METAR,,360,14.0,,,9999,Cloud Development Not Observable,1.0,-2.0,29.93,,,,,0,0,0,,,,,,,,,8/8 Overcast,11000.0,,FEW,2500.0,OVC,11000.0,,,,
KRDR,04-23-2001,05:00,METAR,,350,14.0,,,9999,Cloud Development Not Observable,0.0,-2.0,29.94,,,,,0,0,0,,,,,,,,,8/8 Overcast,2500.0,,BKN,2500.0,OVC,12000.0,,,,
KRDR,04-23-2001,04:00,METAR,,350,10.0,,,9999,Cloud Development Not Observable,0.0,-2.0,29.99,,,,,0,0,0,,,,,,,,,8/8 Overcast,2000.0,,OVC,2000.0,,,,,,
KRDR,04-23-2001,00:00,METAR,,10,12.0,,,9999,Cloud Development Not Observable,1.0,-2.0,30.05,,,,,0,0,0,,,,,,,,,8/8 Overcast,2000.0,,OVC,2000.0,,,,,,
KRDR,04-22-2001,23:00,METAR,,20,11.0,,,9999,Cloud Development Not Observable,1.0,-3.0,30.10,,,,,0,0,0,,,,,,,,,8/8 Overcast,2000.0,,OVC,2000.0,,,,,,
KRDR,04-22-2001,22:00,METAR,,360,10.0,,,9999,Cloud Development Not Observable,1.0,-3.0,30.11,,,,,0,0,0,,,,,,,,,8/8 Overcast,2000.0,,OVC,2000.0,,,,,,
KRDR,04-22-2001,21:00,METAR,,20,12.0,,,9999,Cloud Development Not Observable,1.0,-3.0,30.12,,,,,0,0,0,,,,,,,,,8/8 Overcast,2000.0,,OVC,2000.0,,,,,,
KRDR,04-22-2001,20:00,METAR,,30,8.0,,,9999,Cloud Development Not Observable,1.0,-3.0,30.15,,,,,0,0,0,,,,,,,,,8/8 Overcast,2000.0,,OVC,2000.0,,,,,,
KRDR,04-22-2001,04:00,METAR,,350,11.0,,,9999,Cloud Development Not Observable,-3.0,-6.0,30.28,,,,,0,0,0,,,,,,,,,8/8 Overcast,1800.0,,OVC,1800.0,,,,,,
KRDR,04-22-2001,03:00,METAR,,330,10.0,,,9999,Cloud Development Not Observable,-3.0,-6.0,30.25,,,,,0,0,0,,,,,,,,,8/8 Overcast,1800.0,,OVC,1800.0,,,,,,
KRDR,04-22-2001,02:00,METAR,,330,11.0,,,9999,Cloud Development Not Observable,-3.0,-6.0,30.22,,,,,0,0,0,,,,,,,,,8/8 Overcast,1800.0,,BKN,1800.0,OVC,3500.0,,,,
KRDR,04-22-2001,01:00,METAR,,340,13.0,,,9999,Cloud Development Not Observable,-3.0,-6.0,30.22,,,,,0,0,0,,,,,,,,,8/8 Overcast,2000.0,,BKN,2000.0,OVC,3500.0,,,,
KRDR,04-22-2001,00:00,METAR,,340,15.0,,,9999,Cloud Development Not Observable,-2.0,-6.0,30.20,,,,,0,0,0,,,,,,,,,8/8 Overcast,2000.0,,BKN,2000.0,OVC,3500.0,,,,
KRDR,04-21-2001,23:00,METAR,,360,17.0,,,9999,Cloud Development Not Observable,-2.0,-6.0,30.18,,,,,0,0,0,,,,,,,,,8/8 Overcast,2000.0,,BKN,2000.0,OVC,3500.0,,,,
KRDR,04-21-2001,22:00,METAR,,360,18.0,,,9999,Cloud Development Not Observable,-2.0,-6.0,30.17,,,,,0,0,0,,,,,,,,,8/8 Overcast,2000.0,,BKN,2000.0,OVC,3500.0,,,,
KRDR,04-21-2001,21:00,METAR,,340,19.0,25.0,,9999,Cloud Development Not Observable,-1.0,-6.0,30.15,,,,,0,0,0,,,,,,,,,8/8 Overcast,2000.0,,BKN,2000.0,OVC,3500.0,,,,
KRDR,04-21-2001,20:00,METAR,,340,22.0,27.0,,9999,Cloud Development Not Observable,-1.0,-6.0,30.14,,,,,0,0,0,,,,,,,,,7/8 Mostly Cloudy,2000.0,,BKN,2000.0,BKN,3500.0,,,,
KRDR,04-21-2001,19:00,METAR,,340,23.0,29.0,,9999,Cloud Development Not Observable,-2.0,-7.0,30.12,,,,,0,0,0,,,,,,,,,8/8 Overcast,2000.0,,BKN,2000.0,OVC,3500.0,,,,
KRDR,04-21-2001,18:00,METAR,,350,21.0,27.0,,9999,Cloud Development Not Observable,-2.0,-6.0,30.11,,,,,0,0,0,,,,,,,,,8/8 Overcast,2000.0,,BKN,2000.0,OVC,3500.0,,,,
KRDR,04-21-2001,04:00,METAR,,320,14.0,,,9999,Cloud Development Not Observable,8.0,5.0,29.81,1010.1,,,,0,0,0,,,,,,,,,8/8 Overcast,2900.0,,BKN,2900.0,OVC,5000.0,,,,
KRDR,04-21-2001,03:00,METAR,,310,13.0,,,9999,Cloud Development Not Observable,9.0,6.0,29.78,1009.2,,,,0,0,0,,,,,,,,,8/8 Overcast,2800.0,,OVC,2800.0,,,,,,
KRDR,04-21-2001,02:00,METAR,,310,12.0,,,9999,Cloud Development Not Observable,10.0,7.0,29.75,1008.2,,,,0,0,0,,,,,,,,,8/8 Overcast,2200.0,,OVC,2200.0,,,,,,
KRDR,04-21-2001,01:00,METAR,,320,16.0,,,9999,Cloud Development Not Observable,11.0,8.0,29.71,1006.8,,,,0,0,0,,,,,,,,,8/8 Overcast,2000.0,,OVC,2000.0,,,,,,
KRDR,04-21-2001,00:00,METAR,,330,13.0,,,9999,Cloud Development Not Observable,12.0,9.0,29.69,1006.0,,,,0,0,0,,,,,,,,,8/8 Overcast,2500.0,,FEW,1500.0,BKN,2500.0,OVC,7900.0,,
KRDR,04-20-2001,23:45,METAR,,330,13.0,,,9999,Cloud Development Not Observable,13.0,8.0,29.69,,,,,0,0,0,,,,,,,,,8/8 Overcast,2500.0,,FEW,1500.0,BKN,2500.0,OVC,7900.0,,
KRDR,04-20-2001,23:00,METAR,,310,18.0,,,9999,Cloud Development Not Observable,14.0,9.0,29.68,1005.6,,,,0,0,0,,,,,,,,,8/8 Overcast,20000.0,,FEW,1500.0,SCT,3500.0,OVC,20000.0,,
KRDR,04-20-2001,22:42,SPECI,,320,18.0,,,9999,Cloud Development Not Observable,14.0,9.0,29.68,,,,,0,0,0,,,,,,,,,8/8 Overcast,3900.0,,FEW,1500.0,SCT,2500.0,BKN,4000.0,OVC,20000.0
KRDR,04-20-2001,22:00,METAR,,300,18.0,,,9999,Cloud Development Not Observable,13.0,9.0,29.67,1005.2,,,,0,0,0,,,,,,,,,8/8 Overcast,2500.0,,BKN,2500.0,OVC,7900.0,,,,
KRDR,04-20-2001,21:00,METAR,,340,6.0,,,9999,Cloud Development Not Observable,13.0,10.0,29.65,1004.5,,,,0,0,0,,,,,,,,,8/8 Overcast,2500.0,,BKN,2500.0,OVC,7900.0,,,,
KRDR,04-20-2001,20:00,METAR,,260,6.0,,,9999,Cloud Development Not Observable,13.0,10.0,29.67,1005.2,,,,0,0,0,,,,,,,,,7/8 Mostly Cloudy,2500.0,,BKN,2500.0,,,,,,
KRDR,04-20-2001,19:48,SPECI,,320,6.0,,,9999,Cloud Development Not Observable,12.0,10.0,29.66,,,,,0,0,0,,,,,,,,,8/8 Overcast,2000.0,,FEW,800.0,BKN,2000.0,OVC,7900.0,,
KRDR,04-20-2001,19:00,METAR,,310,10.0,,,9999,Mist/Cloud Development Not Observable,12.0,10.0,29.64,1004.4,,,,10,0,0,,,,,,,,,8/8 Overcast,900.0,,BKN,900.0,OVC,2500.0,,,,
KRDR,04-20-2001,18:00,METAR,,310,13.0,,,9999,Mist/Cloud Development Not Observable,11.0,10.0,29.64,1004.2,,,,10,0,0,,,,,,,,,8/8 Overcast,800.0,,BKN,800.0,OVC,2500.0,,,,
KRDR,04-20-2001,17:45,METAR,,320,12.0,,,9999,Mist/Cloud Development Not Observable,11.0,10.0,29.63,,,,,10,0,0,,,,,,,,,8/8 Overcast,800.0,,BKN,800.0,OVC,2500.0,,,,
KRDR,04-20-2001,17:00,METAR,,320,10.0,,,9999,Mist/Cloud Development Not Observable,11.0,9.0,29.62,1003.5,,,,10,0,0,,,,,,,,,8/8 Overcast,2500.0,,SCT,1000.0,OVC,2500.0,,,,
KRDR,04-20-2001,16:00,METAR,,360,11.0,,,9999,Mist/Cloud Development Not Observable,10.0,10.0,29.60,1002.8,,,,10,0,0,,,,,,,,,8/8 Overcast,2500.0,,SCT,1000.0,OVC,2500.0,,,,
KRDR,04-20-2001,15:00,METAR,,350,9.0,,,4800,Mist/Cloud Development Not Observable,10.0,9.0,29.58,1002.3,,,,10,0,0,,,,,,,,,8/8 Overcast,2500.0,,FEW,500.0,OVC,2500.0,,,,
KRDR,04-20-2001,14:35,SPECI,,350,9.0,,,4800,Mist/Cloud Development Not Observable,9.0,9.0,29.58,,,,,10,0,0,,,,,,,,,8/8 Overcast,2000.0,,FEW,500.0,BKN,2000.0,OVC,5000.0,,
KRDR,04-20-2001,14:00,METAR,,330,9.0,,,6400,Rain/Mist/Cloud Development Not Observable,9.0,9.0,29.59,1002.4,,,,61,0,10,,,,,,,,,8/8 Overcast,1700.0,,BKN,1700.0,OVC,2500.0,,,,
KRDR,04-20-2001,13:40,SPECI,,330,8.0,,,8000,Rain/Cloud Development Not Observable,9.0,9.0,29.58,,,,,61,0,,,,,,,,,,8/8 Overcast,2000.0,,SCT,1500.0,BKN,2000.0,OVC,5000.0,,
KRDR,04-20-2001,13:00,METAR,,310,6.0,,,4800,Rain/Mist/Cloud Development Not Observable,8.0,8.0,29.56,1001.6,,,,61,0,10,,,,,,,,,8/8 Overcast,5500.0,,SCT,2500.0,OVC,5400.0,,,,
KRDR,04-20-2001,12:30,METAR,,290,7.0,,,4800,Rain/Mist/Cloud Development Not Observable,8.0,8.0,29.57,,,,,61,0,10,,,,,,,,,8/8 Overcast,4900.0,,SCT,2500.0,OVC,5000.0,,,,
KRDR,04-20-2001,12:00,METAR,,280,5.0,,,9999,Mist/Cloud Development Not Observable,9.0,8.0,29.56,1001.5,,,,10,0,0,,,,,,,,,8/8 Overcast,4900.0,,SCT,2500.0,BKN,5000.0,OVC,6900.0,,
KRDR,04-20-2001,11:34,SPECI,,20,4.0,,,9999,Mist/Cloud Development Not Observable,9.0,8.0,29.55,,,,,10,0,0,,,,,,,,,8/8 Overcast,4900.0,,SCT,3000.0,BKN,5000.0,OVC,6900.0,,
KRDR,04-20-2001,11:00,METAR,,60,5.0,,,9999,Cloud Development Not Observable,9.0,8.0,29.54,1000.7,,,,0,0,0,,,,,,,,,7/8 Mostly Cloudy,8500.0,,FEW,3000.0,SCT,5000.0,BKN,8400.0,,
KRDR,04-20-2001,08:00,METAR,,60,7.0,,,9999,Cloud Development Not Observable,10.0,8.0,29.54,1000.5,,,,0,0,0,,,,,,,,,8/8 Overcast,7500.0,,FEW,5000.0,OVC,7400.0,,,,
KRDR,04-20-2001,07:00,METAR,,50,5.0,,,9999,Cloud Development Not Observable,11.0,8.0,29.57,1001.5,,,,0,0,0,,,,,,,,,8/8 Overcast,7500.0,,OVC,7400.0,,,,,,
KRDR,04-20-2001,06:43,SPECI,,60,5.0,,,9999,Cloud Development Not Observable,11.0,8.0,29.57,,,,,0,0,0,,,,,,,,,8/8 Overcast,8000.0,,FEW,5400.0,OVC,7900.0,,,,
KRDR,04-20-2001,06:00,METAR,,80,5.0,,,9999,Light Rain Showers/Cloud Development Not Observable,11.0,8.0,29.58,1002.0,,,,80,0,0,,,,,,,,,8/8 Overcast,7000.0,,SCT,5400.0,OVC,6900.0,,,,
KRDR,04-20-2001,05:00,METAR,,80,5.0,,,9999,Light Rain Showers/Cloud Development Not Observable,12.0,7.0,29.59,1002.3,,,,80,0,0,,,,,,,,,8/8 Overcast,12000.0,,SCT,5400.0,OVC,12000.0,,,,
KRDR,04-20-2001,04:00,METAR,,120,7.0,,,9999,Cloud Development Not Observable,12.0,7.0,29.60,1002.7,,,,0,0,0,,,,,,,,,8/8 Overcast,10000.0,,OVC,9900.0,,,,,,
KRDR,04-20-2001,03:00,METAR,,130,9.0,,,9999,Cloud Development Not Observable,13.0,7.0,29.60,1003.0,,,,0,0,0,,,,,,,,,8/8 Overcast,20000.0,,SCT,12000.0,OVC,20000.0,,,,
KRDR,04-20-2001,02:08,SPECI,,140,12.0,,,9999,Cloud Development Not Observable,13.0,7.0,29.60,,,,,0,0,0,,,,,,,,,8/8 Overcast,11000.0,,BKN,11000.0,OVC,20000.0,,,,
KRDR,04-20-2001,02:00,METAR,,140,10.0,,,9999,Light Rain Showers/Cloud Development Not Observable,13.0,7.0,29.60,1003.1,,,,80,0,0,,,,,,,,,8/8 Overcast,9000.0,,BKN,8900.0,OVC,20000.0,,,,
KRDR,04-20-2001,01:00,METAR,,150,8.0,,,9999,Cloud Development Not Observable,14.0,7.0,29.60,1003.2,,,,0,0,0,,,,,,,,,8/8 Overcast,10000.0,,BKN,9900.0,OVC,20000.0,,,,
KRDR,04-20-2001,00:00,METAR,,150,8.0,,,9999,Cloud Development Not Observable,15.0,7.0,29.59,1002.7,,,,0,0,0,,,,,,,,,8/8 Overcast,10000.0,,BKN,9900.0,OVC,20000.0,,,,
KRDR,04-19-2001,23:00,METAR,,140,9.0,,,9999,Haze/Cloud Development Not Observable,18.0,9.0,29.59,1002.5,,,,5,0,0,,,,,,,,,8/8 Overcast,20000.0,,SCT,12000.0,OVC,20000.0,,,,
KRDR,04-19-2001,22:00,METAR,,120,13.0,,,9999,Haze/Cloud Development Not Observable,19.0,9.0,29.59,1002.4,,,,5,0,0,,,,,,,,,8/8 Overcast,20000.0,,SCT,12000.0,OVC,20000.0,,,,
KRDR,04-19-2001,21:00,METAR,,120,11.0,17.0,,9999,Haze/Cloud Development Not Observable,19.0,9.0,29.61,1003.1,,,,5,0,0,,,,,,,,,7/8 Mostly Cloudy,25000.0,,SCT,15000.0,BKN,25000.0,,,,
KRDR,04-19-2001,20:00,METAR,,130,8.0,,,9999,Cloud Development Not Observable,19.0,8.0,29.62,1003.7,,,,0,0,0,,,,,,,,,7/8 Mostly Cloudy,20000.0,,FEW,15000.0,BKN,20000.0,,,,
KRDR,04-19-2001,19:00,METAR,,120,8.0,,,9999,Cloud Development Not Observable,17.0,7.0,29.63,1004.0,,,,0,0,0,,,,,,,,,7/8 Mostly Cloudy,20000.0,,FEW,15000.0,BKN,20000.0,,,,
KRDR,04-19-2001,18:00,METAR,,120,9.0,,,9999,Cloud Development Not Observable,16.0,6.0,29.64,1004.4,,,,0,0,0,,,,,,,,,7/8 Mostly Cloudy,20000.0,,FEW,15000.0,BKN,20000.0,,,,
KRDR,04-19-2001,17:00,METAR,,90,6.0,,,9999,Cloud Development Not Observable,14.0,6.0,29.66,1004.9,,,,0,0,0,,,,,,,,,4/8 Partly Cloudy,72000.0,,FEW,15000.0,SCT,20000.0,,,,
KRDR,04-19-2001,16:00,METAR,,160,4.0,,,9999,Cloud Development Not Observable,11.0,5.0,29.67,1005.5,,,,0,0,0,,,,,,,,,4/8 Partly Cloudy,72000.0,,FEW,15000.0,SCT,20000.0,,,,
KRDR,04-19-2001,15:00,METAR,,190,4.0,,,9999,Cloud Development Not Observable,8.0,5.0,29.70,1006.2,,,,0,0,0,,,,,,,,,7/8 Mostly Cloudy,20000.0,,SCT,15000.0,BKN,20000.0,,,,
KRDR,04-19-2001,14:00,METAR,,,,,,9999,Cloud Development Not Observable,5.0,5.0,29.71,1006.7,,,,0,0,0,,,,,,,,,7/8 Mostly Cloudy,15000.0,,BKN,15000.0,BKN,20000.0,,,,
KRDR,04-19-2001,13:00,METAR,,,2.0,,,9999,Cloud Development Not Observable,2.0,2.0,29.70,1006.4,,,,0,0,0,,,,,,,,,7/8 Mostly Cloudy,15000.0,,BKN,15000.0,BKN,20000.0,,,,
KRDR,04-19-2001,12:00,METAR,,230,3.0,,,9999,Cloud Development Not Observable,1.0,0.0,29.71,1006.7,,,,0,0,0,,,,,,,,,7/8 Mostly Cloudy,18000.0,,FEW,15000.0,BKN,18000.0,BKN,20000.0,,
KRDR,04-19-2001,11:00,METAR,,130,3.0,,,9999,Cloud Development Not Observable,3.0,2.0,29.72,1006.9,,,,0,0,0,,,,,,,,,8/8 Overcast,20000.0,,FEW,15000.0,OVC,20000.0,,,,
KRDR,04-19-2001,10:00,METAR,,,,,,9999,Cloud Development Not Observable,3.0,2.0,29.71,1006.8,,,,0,0,0,,,,,,,,,8/8 Overcast,20000.0,,OVC,20000.0,,,,,,
KRDR,04-19-2001,09:00,METAR,,140,4.0,,,9999,Cloud Development Not Observable,3.0,2.0,29.71,1006.8,,,,0,0,0,,,,,,,,,8/8 Overcast,20000.0,,OVC,20000.0,,,,,,
KRDR,04-19-2001,08:00,METAR,,140,5.0,,,9999,Cloud Development Not Observable,4.0,3.0,29.72,1007.2,,,,0,0,0,,,,,,,,,7/8 Mostly Cloudy,20000.0,,BKN,20000.0,,,,,,
KRDR,04-19-2001,07:00,METAR,,180,7.0,,,9999,Cloud Development Not Observable,5.0,4.0,29.73,1007.4,,,,0,0,0,,,,,,,,,7/8 Mostly Cloudy,20000.0,,BKN,20000.0,,,,,,
KRDR,04-19-2001,06:00,METAR,,190,7.0,,,9999,Cloud Development Not Observable,4.0,4.0,29.74,1008.0,,,,0,0,0,,,,,,,,,4/8 Partly Cloudy,72000.0,,SCT,20000.0,,,,,,
KRDR,04-19-2001,05:00,METAR,,150,3.0,,,9999,Cloud Development Not Observable,8.0,6.0,29.75,1008.2,,,,0,0,0,,,,,,,,,4/8 Partly Cloudy,72000.0,,SCT,20000.0,,,,,,
KRDR,04-19-2001,04:00,METAR,,160,4.0,,,9999,Cloud Development Not Observable,7.0,6.0,29.77,1008.9,,,,0,0,0,,,,,,,,,4/8 Partly Cloudy,72000.0,,SCT,20000.0,,,,,,
KRDR,04-19-2001,03:00,METAR,,180,4.0,,,9999,Cloud Development Not Observable,10.0,7.0,29.78,1009.3,,,,0,0,0,,,,,,,,,4/8 Partly Cloudy,72000.0,,SCT,20000.0,,,,,,
KRDR,04-19-2001,02:00,METAR,,160,7.0,,,9999,Cloud Development Not Observable,11.0,8.0,29.79,1009.5,,,,0,0,0,,,,,,,,,7/8 Mostly Cloudy,20000.0,,FEW,12000.0,BKN,20000.0,,,,
KRDR,04-19-2001,01:00,METAR,,160,6.0,,,9999,Cloud Development Not Observable,13.0,7.0,29.79,1009.7,,,,0,0,0,,,,,,,,,8/8 Overcast,20000.0,,FEW,12000.0,OVC,20000.0,,,,
KRDR,04-19-2001,00:00,METAR,,160,9.0,,,9999,Cloud Development Not Observable,14.0,6.0,29.83,1010.9,,,,0,0,0,,,,,,,,,8/8 Overcast,20000.0,,FEW,12000.0,OVC,20000.0,,,,
KRDR,04-18-2001,23:00,METAR,,180,12.0,,,9999,Cloud Development Not Observable,15.0,6.0,29.84,1011.5,,,,0,0,0,,,,,,,,,8/8 Overcast,20000.0,,SCT,9900.0,OVC,20000.0,,,,
KRDR,04-18-2001,22:00,METAR,,180,12.0,,,9999,Cloud Development Not Observable,14.0,5.0,29.86,1012.2,,,,0,0,0,,,,,,,,,8/8 Overcast,20000.0,,SCT,9900.0,OVC,20000.0,,,,
KRDR,04-18-2001,21:00,METAR,,200,15.0,,,9999,Cloud Development Not Observable,14.0,5.0,29.89,1012.9,,,,0,0,0,,,,,,,,,8/8 Overcast,20000.0,,SCT,9900.0,OVC,20000.0,,,,
KRDR,04-18-2001,20:00,METAR,,180,21.0,,190/25KTS,9999,Cloud Development Not Observable,12.0,4.0,29.90,1013.4,,,,0,0,0,,,,,,,,,8/8 Overcast,10000.0,,BKN,9900.0,OVC,20000.0,,,,
KRDR,04-18-2001,19:00,METAR,,170,17.0,,,9999,Cloud Development Not Observable,12.0,2.0,29.93,1014.6,,,,0,0,0,,,,,,,,,7/8 Mostly Cloudy,20000.0,,SCT,9900.0,BKN,20000.0,,,,
KRDR,04-18-2001,18:00,METAR,,170,20.0,23.0,,9999,Cloud Development Not Observable,9.0,1.0,29.95,1016.7,,,,0,0,0,,,,,,,,,7/8 Mostly Cloudy,20000.0,,SCT,12000.0,BKN,20000.0,,,,
KRDR,04-18-2001,17:00,METAR,,170,19.0,23.0,,9999,Cloud Development Not Observable,8.0,0.0,29.99,1016.7,,,,0,0,0,,,,,,,,,7/8 Mostly Cloudy,10000.0,,BKN,9900.0,BKN,20000.0,,,,
KRDR,04-18-2001,16:00,METAR,,170,18.0,24.0,,9999,Cloud Development Not Observable,6.0,0.0,30.01,1017.3,,,,0,0,0,,,,,,,,,7/8 Mostly Cloudy,10000.0,,BKN,9900.0,BKN,20000.0,,,,
KRDR,04-18-2001,15:00,METAR,,160,18.0,24.0,,9999,Cloud Development Not Observable,4.0,-1.0,30.04,1018.6,,,,0,0,0,,,,,,,,,7/8 Mostly Cloudy,20000.0,,SCT,11000.0,BKN,20000.0,,,,
KRDR,04-18-2001,14:00,METAR,,150,14.0,,,9999,Cloud Development Not Observable,3.0,-2.0,30.08,1019.6,,,,0,0,0,,,,,,,,,7/8 Mostly Cloudy,20000.0,,FEW,14000.0,BKN,20000.0,,,,
KRDR,04-18-2001,13:00,METAR,,150,8.0,,,9999,Cloud Development Not Observable,2.0,-2.0,30.10,1020.5,,,,0,0,0,,,,,,,,,7/8 Mostly Cloudy,20000.0,,SCT,14000.0,BKN,20000.0,,,,
KRDR,04-18-2001,12:00,METAR,,170,10.0,,,9999,Cloud Development Not Observable,0.0,-2.0,30.10,1020.3,,,,0,0,0,,,,,,,,,7/8 Mostly Cloudy,20000.0,,SCT,15000.0,BKN,20000.0,,,,
KRDR,04-18-2001,11:00,METAR,,160,15.0,,,9999,Cloud Development Not Observable,0.0,-3.0,30.11,1020.8,,,,0,0,0,,,,,,,,,7/8 Mostly Cloudy,20000.0,,SCT,15000.0,BKN,20000.0,,,,
KRDR,04-18-2001,10:00,METAR,,160,10.0,,,9999,Cloud Development Not Observable,0.0,-3.0,30.16,1022.4,,,,0,0,0,,,,,,,,,7/8 Mostly Cloudy,20000.0,,FEW,15000.0,BKN,20000.0,,,,
KRDR,04-18-2001,09:00,METAR,,160,13.0,,,9999,Cloud Development Not Observable,1.0,-3.0,30.18,1023.1,,,,0,0,0,,,,,,,,,8/8 Overcast,20000.0,,OVC,20000.0,,,,,,
KRDR,04-18-2001,08:00,METAR,,160,10.0,,,9999,Cloud Development Not Observable,0.0,-2.0,30.21,1024.2,,,,0,0,0,,,,,,,,,8/8 Overcast,20000.0,,OVC,20000.0,,,,,,
KRDR,04-18-2001,07:00,METAR,,160,9.0,,,9999,Cloud Development Not Observable,0.0,-2.0,30.25,1025.6,,,,0,0,0,,,,,,,,,8/8 Overcast,20000.0,,OVC,20000.0,,,,,,
KRDR,04-18-2001,06:00,METAR,,160,10.0,,,9999,Cloud Development Not Observable,0.0,-2.0,30.28,1026.5,,,,0,0,0,,,,,,,,,8/8 Overcast,20000.0,,OVC,20000.0,,,,,,
KRDR,04-18-2001,05:00,METAR,,160,9.0,,,9999,Cloud Development Not Observable,1.0,-2.0,30.29,1027.0,,,,0,0,0,,,,,,,,,7/8 Mostly Cloudy,20000.0,,BKN,20000.0,,,,,,
KRDR,04-18-2001,04:00,METAR,,160,11.0,,,9999,Cloud Development Not Observable,2.0,-2.0,30.30,1027.4,,,,0,0,0,,,,,,,,,7/8 Mostly Cloudy,20000.0,,BKN,20000.0,,,,,,
KRDR,04-18-2001,03:00,METAR,,160,11.0,,,9999,Cloud Development Not Observable,3.0,-2.0,30.32,1028.2,,,,0,0,0,,,,,,,,,7/8 Mostly Cloudy,20000.0,,BKN,20000.0,,,,,,
KRDR,04-18-2001,02:00,METAR,,150,8.0,,,9999,Cloud Development Not Observable,4.0,-3.0,30.34,1028.7,,,,0,0,0,,,,,,,,,7/8 Mostly Cloudy,20000.0,,BKN,20000.0,,,,,,
KRDR,04-18-2001,01:00,METAR,,140,8.0,,,9999,Cloud Development Not Observable,5.0,-3.0,30.35,1029.2,,,,0,0,0,,,,,,,,,7/8 Mostly Cloudy,20000.0,,BKN,20000.0,,,,,,
KRDR,04-18-2001,00:00,METAR,,180,8.0,,,9999,Cloud Development Not Observable,7.0,-5.0,30.39,1030.5,,,,0,0,0,,,,,,,,,2/8 Mostly Clear,72000.0,,FEW,20000.0,,,,,,
KRDR,04-17-2001,23:00,METAR,,200,10.0,,,9999,Cloud Development Not Observable,8.0,-5.0,30.43,1031.9,,,,0,0,0,,,,,,,,,2/8 Mostly Clear,72000.0,,FEW,20000.0,,,,,,
KRDR,04-17-2001,22:00,METAR,,180,11.0,,,9999,Cloud Development Not Observable,7.0,-7.0,30.46,1032.7,,,,0,0,0,,,,,,,,,2/8 Mostly Clear,72000.0,,FEW,20000.0,,,,,,
KRDR,04-17-2001,21:00,METAR,,180,9.0,,,9999,Cloud Development Not Observable,6.0,-7.0,30.49,1033.9,,,,0,0,0,,,,,,,,,2/8 Mostly Clear,72000.0,,FEW,20000.0,,,,,,
KRDR,04-17-2001,19:00,METAR,,,,,,9999,Cloud Development Not Observable,5.0,-8.0,30.55,,,,,0,0,0,,,,,,,,,Clear,72000.0,,,73000.0,,,,,,
KRDR,04-17-2001,18:00,METAR,,,,,,9999,Cloud Development Not Observable,4.0,-9.0,30.58,,,,,0,0,0,,,,,,,,,Clear,72000.0,,,73000.0,,,,,,
KRDR,04-17-2001,17:00,METAR,,,,,,9999,Cloud Development Not Observable,3.0,-9.0,30.60,,,,,0,0,0,,,,,,,,,Clear,72000.0,,,73000.0,,,,,,
KRDR,04-17-2001,16:00,METAR,,,2.0,,,9999,Cloud Development Not Observable,2.0,-10.0,30.61,,,,,0,0,0,,,,,,,,,Clear,72000.0,,,73000.0,,,,,,
KRDR,04-17-2001,15:00,METAR,,40,4.0,,,9999,Cloud Development Not Observable,0.0,-8.0,30.62,,,,,0,0,0,,,,,,,,,Clear,72000.0,,,73000.0,,,,,,
KRDR,04-17-2001,14:00,METAR,,320,4.0,,,9999,Cloud Development Not Observable,-1.0,-6.0,30.64,,,,,0,0,0,,,,,,,,,Clear,72000.0,,,73000.0,,,,,,
KRDR,04-17-2001,13:00,METAR,,320,6.0,,,9999,Cloud Development Not Observable,-3.0,-6.0,30.64,,,,,0,0,0,,,,,,,,,Clear,72000.0,,,73000.0,,,,,,
KRDR,04-17-2001,12:00,METAR,,320,7.0,,,9999,Cloud Development Not Observable,-6.0,-8.0,30.64,,,,,0,0,0,,,,,,,,,Clear,72000.0,,,73000.0,,,,,,
KRDR,04-17-2001,11:00,METAR,,310,7.0,,,9999,Cloud Development Not Observable,-6.0,-7.0,30.63,,,,,0,0,0,,,,,,,,,Clear,72000.0,,,73000.0,,,,,,
KRDR,04-17-2001,10:00,METAR,,320,8.0,,,9999,Cloud Development Not Observable,-5.0,-7.0,30.63,,,,,0,0,0,,,,,,,,,Clear,72000.0,,,73000.0,,,,,,
KRDR,04-17-2001,09:00,METAR,,290,6.0,,,9999,Cloud Development Not Observable,-5.0,-6.0,30.62,,,,,0,0,0,,,,,,,,,Clear,72000.0,,,73000.0,,,,,,
KRDR,04-16-2001,20:18,SPECI,,340,28.0,34.0,,9999,Cloud Development Not Observable,2.0,-6.0,30.48,,,,,0,0,0,,,,,,,,,2/8 Mostly Clear,72000.0,,FEW,2500.0,FEW,25000.0,,,,
KRDR,04-16-2001,20:00,METAR,,340,28.0,34.0,330/37KTS,9999,Cloud Development Not Observable,2.0,-6.0,30.47,,,,,0,0,0,,,,,,,,,Clear,72000.0,,,73000.0,,,,,,
KRDR,04-16-2001,19:00,METAR,,330,27.0,34.0,320/35KTS,9999,Cloud Development Not Observable,2.0,-6.0,30.44,,,,,0,0,0,,,,,,,,,Clear,72000.0,,,73000.0,,,,,,
KRDR,04-16-2001,18:00,METAR,,330,27.0,35.0,330/37KTS,9999,Cloud Development Not Observable,1.0,-6.0,30.43,,,,,0,0,0,,,,,,,,,Clear,72000.0,,,73000.0,,,,,,
KRDR,04-16-2001,17:00,METAR,,330,29.0,35.0,320/36KTS,9999,Cloud Development Not Observable,-1.0,-6.0,30.42,,,,,0,0,0,,,,,,,,,2/8 Mostly Clear,72000.0,,FEW,5900.0,,,,,,
KRDR,04-16-2001,16:00,METAR,,340,27.0,35.0,330/38KTS,9999,Cloud Development Not Observable,-1.0,-6.0,30.39,,,,,0,0,0,,,,,,,,,4/8 Partly Cloudy,72000.0,,FEW,2300.0,SCT,5900.0,,,,
KRDR,04-16-2001,15:01,SPECI,,330,30.0,38.0,,9999,Cloud Development Not Observable,-2.0,-7.0,30.36,,,,,0,0,0,,,,,,,,,4/8 Partly Cloudy,72000.0,,SCT,2300.0,SCT,5400.0,,,,
KRDR,04-16-2001,15:00,METAR,,330,29.0,35.0,330/37KTS,9999,Cloud Development Not Observable,-2.0,-6.0,30.36,,,,,0,0,0,,,,,,,,,7/8 Mostly Cloudy,2300.0,,FEW,1200.0,BKN,2300.0,BKN,5400.0,,
KRDR,04-16-2001,14:00,METAR,,330,27.0,35.0,,9999,Cloud Development Not Observable,-4.0,-6.0,30.34,,,,,0,0,0,,,,,,,,,7/8 Mostly Cloudy,2000.0,,SCT,1200.0,BKN,2000.0,,,,
KRDR,04-16-2001,13:47,SPECI,,330,28.0,35.0,,9999,Cloud Development Not Observable,-3.0,-6.0,30.34,,,,,0,0,0,,,,,,,,,7/8 Mostly Cloudy,2000.0,,SCT,1200.0,BKN,2000.0,,,,
KRDR,04-16-2001,13:35,SPECI,,330,26.0,31.0,,9999,Cloud Development Not Observable,-4.0,-6.0,30.34,,,,,0,0,0,,,,,,,,,7/8 Mostly Cloudy,2200.0,,SCT,1200.0,BKN,2200.0,,,,
KRDR,04-16-2001,13:00,METAR,,330,22.0,30.0,330/32KTS,9999,Light Snow/Cloud Development Not Observable,-4.0,-6.0,30.31,1027.4,,,,71,0,0,,,,,,,,,8/8 Overcast,2200.0,,SCT,1200.0,OVC,2200.0,,,,
KRDR,04-16-2001,12:26,SPECI,,320,21.0,28.0,,4800,Light Snow/Blowing Snow/Cloud Development Not Observable,-4.0,-5.0,30.30,,,,,71,38,0,,,,,,,,,8/8 Overcast,2200.0,,OVC,2200.0,,,,,,
KRDR,04-16-2001,12:16,SPECI,,320,21.0,28.0,,1600,Light Snow/Blowing Snow/Cloud Development Not Observable,-4.0,-5.0,30.30,,,,,71,38,0,,,,,,,,,8/8 Overcast,2200.0,,OVC,2200.0,,,,,,
KRDR,04-15-2001,01:30,METAR,,340,7.0,,,9999,Cloud Development Not Observable,5.0,1.0,29.83,,,,,0,0,0,,,,,,,,,7/8 Mostly Cloudy,20000.0,,SCT,12000.0,BKN,20000.0,,,,
KRDR,04-15-2001,01:00,METAR,,310,9.0,,,9999,Cloud Development Not Observable,8.0,1.0,29.83,1011.1,,,,0,0,0,,,,,,,,,7/8 Mostly Cloudy,20000.0,,FEW,4000.0,BKN,20000.0,,,,
KRDR,04-15-2001,00:00,METAR,,300,15.0,,,9999,Cloud Development Not Observable,10.0,-1.0,29.83,1011.1,,,,0,0,0,,,,,,,,,4/8 Partly Cloudy,72000.0,,FEW,4000.0,SCT,20000.0,,,,
KRDR,04-14-2001,23:00,METAR,,300,17.0,21.0,,9999,Cloud Development Not Observable,12.0,1.0,29.82,1010.7,,,,0,0,0,,,,,,,,,8/8 Overcast,20000.0,,FEW,4000.0,SCT,12000.0,OVC,20000.0,,
KRDR,04-14-2001,22:00,METAR,,280,16.0,24.0,290/25KTS,9999,Cloud Development Not Observable,12.0,1.0,29.81,1010.4,,,,0,0,0,,,,,,,,,8/8 Overcast,20000.0,,FEW,4000.0,SCT,12000.0,OVC,20000.0,,
KRDR,04-14-2001,21:00,METAR,,280,18.0,,290/25KTS,9999,Cloud Development Not Observable,14.0,1.0,29.79,1009.6,,,,0,0,0,,,,,,,,,7/8 Mostly Cloudy,20000.0,,FEW,4000.0,BKN,20000.0,,,,
KRDR,04-14-2001,20:00,METAR,,270,13.0,23.0,,9999,Cloud Development Not Observable,14.0,0.0,29.78,1009.3,,,,0,0,0,,,,,,,,,7/8 Mostly Cloudy,20000.0,,FEW,4000.0,BKN,20000.0,,,,
KRDR,04-14-2001,19:00,METAR,,270,14.0,21.0,,9999,Cloud Development Not Observable,14.0,-1.0,29.78,1009.4,,,,0,0,0,,,,,,,,,7/8 Mostly Cloudy,20000.0,,FEW,4000.0,BKN,20000.0,,,,
KRDR,04-14-2001,18:00,METAR,,260,15.0,20.0,,9999,Cloud Development Not Observable,13.0,-1.0,29.78,1009.4,,,,0,0,0,,,,,,,,,7/8 Mostly Cloudy,20000.0,,BKN,20000.0,,,,,,
KRDR,04-14-2001,17:00,METAR,,250,11.0,,,9999,Cloud Development Not Observable,12.0,2.0,29.79,1009.8,,,,0,0,0,,,,,,,,,4/8 Partly Cloudy,72000.0,,SCT,20000.0,,,,,,
KRDR,04-14-2001,16:00,METAR,,250,11.0,,,9999,Cloud Development Not Observable,9.0,2.0,29.80,1010.0,,,,0,0,0,,,,,,,,,4/8 Partly Cloudy,72000.0,,SCT,20000.0,,,,,,
KRDR,04-14-2001,15:00,METAR,,240,9.0,,,9999,Cloud Development Not Observable,8.0,2.0,29.81,1010.4,,,,0,0,0,,,,,,,,,4/8 Partly Cloudy,72000.0,,SCT,20000.0,,,,,,
KRDR,04-14-2001,14:00,METAR,,170,6.0,,,9999,Cloud Development Not Observable,4.0,1.0,29.82,1010.9,,,,0,0,0,,,,,,,,,4/8 Partly Cloudy,72000.0,,FEW,14000.0,SCT,20000.0,,,,
KRDR,04-14-2001,13:00,METAR,,150,6.0,,,9999,Cloud Development Not Observable,0.0,-1.0,29.83,1011.3,,,,0,0,0,,,,,,,,,4/8 Partly Cloudy,72000.0,,FEW,8900.0,FEW,14000.0,SCT,20000.0,,
KRDR,04-14-2001,12:00,METAR,,160,8.0,,,9999,Cloud Development Not Observable,-1.0,-1.0,29.84,1011.7,,,,0,0,0,,,,,,,,,2/8 Mostly Clear,72000.0,,FEW,14000.0,FEW,20000.0,,,,
KRDR,04-14-2001,11:00,METAR,,150,6.0,,,9999,Cloud Development Not Observable,-1.0,-1.0,29.85,1011.9,,,,0,0,0,,,,,,,,,2/8 Mostly Clear,72000.0,,FEW,20000.0,,,,,,
KRDR,04-14-2001,10:00,METAR,,160,7.0,,,9999,Cloud Development Not Observable,-1.0,-1.0,29.86,1012.3,,,,0,0,0,,,,,,,,,Clear,72000.0,,,73000.0,,,,,,
KRDR,04-14-2001,09:00,METAR,,170,7.0,,,9999,Cloud Development Not Observable,-1.0,-1.0,29.88,1013.0,,,,0,0,0,,,,,,,,,Clear,72000.0,,,73000.0,,,,,,
KRDR,04-14-2001,08:00,METAR,,170,6.0,,,9999,Cloud Development Not Observable,-3.0,-3.0,29.89,1013.3,,,,0,0,0,,,,,,,,,Clear,72000.0,,,73000.0,,,,,,
KRDR,04-14-2001,07:00,METAR,,130,4.0,,,9999,Cloud Development Not Observable,-1.0,-1.0,29.90,1013.6,,,,0,0,0,,,,,,,,,Clear,72000.0,,,73000.0,,,,,,
KRDR,04-14-2001,06:00,METAR,,220,2.0,,,9999,Cloud Development Not Observable,-1.0,-1.0,29.90,1013.8,,,,0,0,0,,,,,,,,,Clear,72000.0,,,73000.0,,,,,,
KRDR,04-14-2001,05:00,METAR,,270,6.0,,,9999,Cloud Development Not Observable,-1.0,-1.0,29.90,1013.7,,,,0,0,0,,,,,,,,,Clear,72000.0,,,73000.0,,,,,,
KRDR,04-14-2001,04:00,METAR,,290,8.0,,,9999,Cloud Development Not Observable,1.0,0.0,29.89,1013.4,,,,0,0,0,,,,,,,,,2/8 Mostly Clear,72000.0,,FEW,1500.0,FEW,5900.0,,,,
KRDR,04-14-2001,03:00,METAR,,310,9.0,,,9999,Cloud Development Not Observable,1.0,0.0,29.88,1012.9,,,,0,0,0,,,,,,,,,7/8 Mostly Cloudy,4400.0,,SCT,2000.0,BKN,4500.0,,,,
KRDR,04-14-2001,02:33,SPECI,,300,9.0,,,9999,Cloud Development Not Observable,2.0,0.0,29.88,,,,,0,0,0,,,,,,,,,7/8 Mostly Cloudy,4400.0,,SCT,2000.0,BKN,4500.0,,,,
KRDR,04-14-2001,02:00,METAR,,290,18.0,27.0,300/30KTS,9999,Cloud Development Not Observable,2.0,0.0,29.82,1011.1,,,,0,0,0,,,,,,,,,7/8 Mostly Cloudy,1800.0,,BKN,1800.0,BKN,4000.0,,,,
KRDR,04-14-2001,01:00,METAR,,300,16.0,28.0,,9999,Cloud Development Not Observable,4.0,1.0,29.82,1011.1,,,,0,0,0,,,,,,,,,8/8 Overcast,1800.0,,BKN,1800.0,OVC,4000.0,,,,
KRDR,04-14-2001,00:00,METAR,,290,21.0,27.0,290/29KTS,9999,Cloud Development Not Observable,4.0,2.0,29.79,1010.0,,,,0,0,0,,,,,,,,,7/8 Mostly Cloudy,1800.0,,BKN,1800.0,BKN,4000.0,,,,
KRDR,04-13-2001,23:00,METAR,,280,18.0,,,9999,Cloud Development Not Observable,7.0,4.0,29.75,1008.5,,,,0,0,0,,,,,,,,,8/8 Overcast,2000.0,,FEW,1000.0,BKN,2000.0,OVC,4000.0,,
KRDR,04-13-2001,22:00,METAR,,260,12.0,,,9999,Cloud Development Not Observable,6.0,5.0,29.73,1007.8,,,,0,0,0,,,,,,,,,8/8 Overcast,2700.0,,BKN,2700.0,OVC,4000.0,,,,
KRDR,04-13-2001,21:00,METAR,,170,11.0,,,9999,Cloud Development Not Observable,7.0,5.0,29.73,1007.9,,,,0,0,0,,,,,,,,,8/8 Overcast,2700.0,,BKN,2700.0,OVC,4000.0,,,,
KRDR,04-13-2001,20:22,SPECI,,150,10.0,,,9999,Cloud Development Not Observable,6.0,4.0,29.75,,,,,0,0,0,,,,,,,,,8/8 Overcast,2700.0,,BKN,2700.0,OVC,4000.0,,,,
KRDR,04-13-2001,20:00,METAR,,130,12.0,,,9999,Drizzle/Cloud Development Not Observable,5.0,3.0,29.77,1009.1,,,,51,0,0,,,,,,,,,8/8 Overcast,2600.0,,BKN,3000.0,OVC,5000.0,,,,
KRDR,04-13-2001,19:00,METAR,,120,13.0,,,9999,Drizzle/Cloud Development Not Observable,4.0,3.0,29.79,1010.1,,,,51,0,0,,,,,,,,,8/8 Overcast,3400.0,,BKN,3500.0,OVC,5000.0,,,,
KRDR,04-13-2001,18:25,METAR,,130,16.0,,,6400,Drizzle/Cloud Development Not Observable,4.0,3.0,29.81,,,,,51,0,0,,,,,,,,,8/8 Overcast,3400.0,,BKN,3500.0,OVC,5000.0,,,,
KRDR,04-13-2001,18:00,METAR,,120,14.0,,,4800,Rain/Cloud Development Not Observable,4.0,3.0,29.82,1010.9,,,,63,0,0,,,,,,,,,8/8 Overcast,2500.0,,BKN,2500.0,OVC,4000.0,,,,
KRDR,04-13-2001,17:32,SPECI,,150,16.0,24.0,,4800,Rain Showers/Cloud Development Not Observable,4.0,3.0,29.86,,,,,81,0,0,,,,,,,,,8/8 Overcast,1900.0,,BKN,1900.0,OVC,3500.0,,,,
KRDR,04-13-2001,17:08,SPECI,,140,9.0,,,4800,Rain Showers/Cloud Development Not Observable,5.0,1.0,29.86,,,,,81,0,0,,,,,,,,,8/8 Overcast,3400.0,,SCT,2000.0,OVC,3500.0,,,,
KRDR,04-13-2001,17:00,METAR,,110,9.0,,,9999,Light Rain Showers/Cloud Development Not Observable,5.0,1.0,29.86,1012.4,,,,80,0,0,,,,,,,,,8/8 Overcast,4900.0,,OVC,5000.0,,,,,,
KRDR,04-13-2001,16:52,SPECI,,110,9.0,,,9999,Light Rain Showers/Cloud Development Not Observable,5.0,1.0,29.86,,,,,80,0,0,,,,,,,,,8/8 Overcast,4900.0,,OVC,5000.0,,,,,,
KRDR,04-13-2001,16:00,METAR,,130,9.0,,,9999,Cloud Development Not Observable,4.0,2.0,29.90,1013.5,,,,0,0,0,,,,,,,,,8/8 Overcast,4900.0,,BKN,5000.0,OVC,20000.0,,,,
KRDR,04-13-2001,15:39,SPECI,,140,12.0,,,9999,Light Rain Showers/Cloud Development Not Observable,4.0,3.0,29.91,,,,,80,0,0,,,,,,,,,8/8 Overcast,4900.0,,BKN,5000.0,OVC,20000.0,,,,
KRDR,04-13-2001,15:00,METAR,,120,9.0,,,9999,Cloud Development Not Observable,4.0,2.0,29.93,1014.6,,,,0,0,0,,,,,,,,,8/8 Overcast,5500.0,,FEW,3000.0,BKN,5400.0,OVC,20000.0,,
KRDR,04-13-2001,14:25,METAR,,140,10.0,,,9999,Cloud Development Not Observable,3.0,2.0,29.95,,,,,0,0,0,,,,,,,,,8/8 Overcast,7000.0,,SCT,3000.0,BKN,6900.0,OVC,20000.0,,
KRDR,04-13-2001,14:00,METAR,,160,9.0,,,9999,Light Rain Showers/Cloud Development Not Observable,2.0,1.0,29.96,1015.8,,,,80,0,0,,,,,,,,,8/8 Overcast,7000.0,,SCT,3000.0,BKN,6900.0,OVC,20000.0,,
KRDR,04-13-2001,13:48,SPECI,,150,8.0,,,9999,Light Rain Showers/Cloud Development Not Observable,2.0,1.0,29.97,,,,,80,0,0,,,,,,,,,8/8 Overcast,7000.0,,SCT,3000.0,BKN,6900.0,OVC,20000.0,,
KRDR,04-13-2001,13:00,METAR,,140,10.0,,,9999,Cloud Development Not Observable,2.0,1.0,29.98,1016.2,,,,0,0,0,,,,,,,,,7/8 Mostly Cloudy,9000.0,,FEW,5900.0,BKN,8900.0,BKN,20000.0,,
KRDR,04-13-2001,12:00,METAR,,120,5.0,,,9999,Cloud Development Not Observable,0.0,0.0,29.98,1016.3,,,,0,0,0,,,,,,,,,2/8 Mostly Clear,72000.0,,FEW,6900.0,FEW,20000.0,,,,
KRDR,04-13-2001,11:00,METAR,,110,7.0,,,9999,Cloud Development Not Observable,1.0,0.0,29.99,1016.5,,,,0,0,0,,,,,,,,,7/8 Mostly Cloudy,7000.0,,BKN,6900.0,,,,,,
KRDR,04-13-2001,10:00,METAR,,120,5.0,,,9999,Cloud Development Not Observable,2.0,1.0,30.00,1016.9,,,,0,0,0,,,,,,,,,8/8 Overcast,7000.0,,OVC,6900.0,,,,,,
KRDR,04-13-2001,09:00,METAR,,170,4.0,,,9999,Cloud Development Not Observable,1.0,0.0,30.01,1017.4,,,,0,0,0,,,,,,,,,7/8 Mostly Cloudy,7000.0,,BKN,6900.0,,,,,,
KRDR,04-13-2001,08:00,METAR,,210,4.0,,,9999,Cloud Development Not Observable,1.0,0.0,30.01,1017.4,,,,0,0,0,,,,,,,,,7/8 Mostly Cloudy,7000.0,,BKN,6900.0,,,,,,
KRDR,04-13-2001,07:00,METAR,,240,2.0,,,9999,Cloud Development Not Observable,1.0,-1.0,30.01,1017.3,,,,0,0,0,,,,,,,,,4/8 Partly Cloudy,72000.0,,SCT,6900.0,,,,,,
KRDR,04-13-2001,06:00,METAR,,270,3.0,,,9999,Cloud Development Not Observable,0.0,-1.0,30.01,1017.2,,,,0,0,0,,,,,,,,,2/8 Mostly Clear,72000.0,,FEW,5900.0,,,,,,
KRDR,04-13-2001,05:00,METAR,,300,2.0,,,9999,Cloud Development Not Observable,1.0,0.0,29.99,1016.7,,,,0,0,0,,,,,,,,,Clear,72000.0,,,73000.0,,,,,,
KRDR,04-13-2001,04:00,METAR,,280,3.0,,,9999,Cloud Development Not Observable,2.0,0.0,29.97,1015.9,,,,0,0,0,,,,,,,,,2/8 Mostly Clear,72000.0,,FEW,5900.0,,,,,,
KRDR,04-13-2001,03:00,METAR,,310,5.0,,,9999,Cloud Development Not Observable,1.0,0.0,29.95,1015.4,,,,0,0,0,,,,,,,,,2/8 Mostly Clear,72000.0,,FEW,5900.0,,,,,,
KRDR,04-13-2001,02:00,METAR,,340,6.0,,,9999,Cloud Development Not Observable,4.0,0.0,29.94,1014.8,,,,0,0,0,,,,,,,,,2/8 Mostly Clear,72000.0,,FEW,5900.0,,,,,,
KRDR,04-13-2001,01:00,METAR,,350,8.0,,,9999,Cloud Development Not Observable,6.0,0.0,29.91,1013.9,,,,0,0,0,,,,,,,,,4/8 Partly Cloudy,72000.0,,FEW,4000.0,SCT,5900.0,,,,
KRDR,04-13-2001,00:00,METAR,,350,12.0,,,9999,Cloud Development Not Observable,10.0,0.0,29.89,1013.2,,,,0,0,0,,,,,,,,,4/8 Partly Cloudy,72000.0,,SCT,4000.0,SCT,5900.0,,,,
KRDR,04-12-2001,23:00,METAR,,350,19.0,,340/25KTS,9999,Cloud Development Not Observable,10.0,-1.0,29.88,1012.5,,,,0,0,0,,,,,,,,,7/8 Mostly Cloudy,6000.0,,SCT,4000.0,BKN,5900.0,,,,
KRDR,04-12-2001,22:00,METAR,,350,18.0,23.0,330/28KTS,9999,Cloud Development Not Observable,9.0,-1.0,29.85,1011.7,,,,0,0,0,,,,,,,,,7/8 Mostly Cloudy,5500.0,,BKN,5400.0,,,,,,
KRDR,04-12-2001,21:00,METAR,,350,22.0,,360/28KTS,9999,Cloud Development Not Observable,10.0,0.0,29.83,1011.1,,,,0,0,0,,,,,,,,,7/8 Mostly Cloudy,4900.0,,BKN,5000.0,,,,,,
KRDR,04-12-2001,20:00,METAR,,350,23.0,30.0,350/31KTS,9999,Cloud Development Not Observable,10.0,1.0,29.81,1010.4,,,,0,0,0,,,,,,,,,7/8 Mostly Cloudy,4400.0,,BKN,4500.0,,,,,,
KRDR,04-12-2001,19:00,METAR,,330,25.0,32.0,330/32KTS,9999,Cloud Development Not Observable,11.0,0.0,29.79,1009.5,,,,0,0,0,,,,,,,,,7/8 Mostly Cloudy,3900.0,,BKN,4000.0,,,,,,
KRDR,04-12-2001,18:00,METAR,,340,23.0,30.0,350/32KTS,9999,Cloud Development Not Observable,11.0,2.0,29.76,1008.6,,,,0,0,0,,,,,,,,,7/8 Mostly Cloudy,3400.0,,BKN,3500.0,BKN,20000.0,,,,
KRDR,04-12-2001,17:00,METAR,,330,23.0,29.0,320/31KTS,9999,Cloud Development Not Observable,8.0,2.0,29.74,1007.9,,,,0,0,0,,,,,,,,,7/8 Mostly Cloudy,3000.0,,BKN,3000.0,BKN,20000.0,,,,
KRDR,04-12-2001,16:00,METAR,,330,23.0,29.0,,9999,Cloud Development Not Observable,7.0,2.0,29.72,1007.1,,,,0,0,0,,,,,,,,,7/8 Mostly Cloudy,20000.0,,SCT,3800.0,BKN,20000.0,,,,
KRDR,04-12-2001,15:00,METAR,,330,23.0,,340/30KTS,9999,Cloud Development Not Observable,6.0,2.0,29.69,1006.3,,,,0,0,0,,,,,,,,,7/8 Mostly Cloudy,20000.0,,FEW,4000.0,SCT,6400.0,BKN,20000.0,,
KRDR,04-12-2001,14:00,METAR,,330,23.0,29.0,,9999,Cloud Development Not Observable,5.0,1.0,29.66,1005.5,,,,0,0,0,,,,,,,,,7/8 Mostly Cloudy,9500.0,,SCT,6400.0,BKN,9400.0,BKN,20000.0,,
KRDR,04-12-2001,13:00,METAR,,330,19.0,,320/28KTS,9999,Cloud Development Not Observable,3.0,1.0,29.64,1004.8,,,,0,0,0,,,,,,,,,7/8 Mostly Cloudy,20000.0,,SCT,5900.0,BKN,20000.0,,,,
KRDR,04-12-2001,12:00,METAR,,330,22.0,,330/28KTS,9999,Cloud Development Not Observable,3.0,1.0,29.61,1003.5,,,,0,0,0,,,,,,,,,8/8 Overcast,6000.0,,BKN,5900.0,OVC,20000.0,,,,
KRDR,04-12-2001,11:00,METAR,,340,20.0,27.0,,9999,Cloud Development Not Observable,4.0,2.0,29.59,1002.8,,,,0,0,0,,,,,,,,,8/8 Overcast,4900.0,,SCT,1500.0,OVC,5000.0,,,,
KRDR,04-12-2001,10:45,METAR,,340,21.0,26.0,,9999,Cloud Development Not Observable,4.0,2.0,29.59,,,,,0,0,0,,,,,,,,,8/8 Overcast,4900.0,,SCT,1500.0,OVC,5000.0,,,,
KRDR,04-12-2001,10:00,METAR,,340,22.0,26.0,,9999,Cloud Development Not Observable,4.0,3.0,29.57,1002.1,,,,0,0,0,,,,,,,,,8/8 Overcast,2500.0,,SCT,1200.0,OVC,2500.0,,,,
KRDR,04-12-2001,09:00,METAR,,340,23.0,31.0,,9999,Cloud Development Not Observable,5.0,3.0,29.55,1001.4,,,,0,0,0,,,,,,,,,8/8 Overcast,2500.0,,SCT,1200.0,OVC,2500.0,,,,
KRDR,04-12-2001,08:00,METAR,,340,25.0,30.0,,9999,Cloud Development Not Observable,5.0,4.0,29.54,1001.2,,,,0,0,0,,,,,,,,,8/8 Overcast,2000.0,,SCT,1200.0,OVC,2000.0,,,,
KRDR,04-12-2001,07:00,METAR,,350,21.0,30.0,350/31KTS,9999,Cloud Development Not Observable,5.0,4.0,29.54,1001.2,,,,0,0,0,,,,,,,,,8/8 Overcast,2000.0,,SCT,1200.0,OVC,2000.0,,,,
KRDR,04-12-2001,05:00,METAR,,360,21.0,29.0,,9999,Rain/Cloud Development Not Observable,5.0,5.0,29.54,1001.2,,,,61,0,0,,,,,,,,,8/8 Overcast,2000.0,,SCT,900.0,OVC,2000.0,,,,
KRDR,04-12-2001,04:00,METAR,,360,22.0,29.0,350/30KTS,9999,Rain/Cloud Development Not Observable,6.0,5.0,29.56,1002.0,,,,61,0,0,,,,,,,,,8/8 Overcast,2200.0,,SCT,1000.0,OVC,2200.0,,,,
KRDR,04-12-2001,03:00,METAR,,10,20.0,25.0,,9999,Rain/Cloud Development Not Observable,6.0,5.0,29.58,1002.7,,,,61,0,0,,,,,,,,,8/8 Overcast,2200.0,,SCT,1000.0,BKN,2200.0,OVC,3100.0,,
KRDR,04-12-2001,02:00,METAR,,10,17.0,23.0,020/26KTS,9999,Rain/Cloud Development Not Observable,6.0,5.0,29.60,1003.4,,,,61,0,0,,,,,,,,,8/8 Overcast,2400.0,,SCT,1000.0,OVC,2400.0,,,,
KRDR,04-12-2001,01:00,METAR,,10,20.0,25.0,,9999,Rain/Cloud Development Not Observable,7.0,5.0,29.61,1003.5,,,,61,0,0,,,,,,,,,8/8 Overcast,2200.0,,SCT,1300.0,BKN,2200.0,OVC,2800.0,,
KRDR,04-12-2001,00:00,METAR,,350,17.0,,360/25KTS,9999,Rain/Cloud Development Not Observable,7.0,6.0,29.61,1004.2,,,,61,0,0,,,,,,,,,8/8 Overcast,2200.0,,SCT,1300.0,BKN,2200.0,OVC,3400.0,,
KRDR,04-11-2001,23:00,METAR,,10,17.0,,010/26KTS,9999,Rain/Cloud Development Not Observable,7.0,5.0,29.63,1004.2,,,,61,0,0,,,,,,,,,8/8 Overcast,2400.0,,SCT,1200.0,BKN,2400.0,OVC,3800.0,,
KRDR,04-11-2001,22:00,METAR,,10,20.0,25.0,,9999,Rain/Cloud Development Not Observable,7.0,6.0,29.64,1004.7,,,,61,0,0,,,,,,,,,8/8 Overcast,2000.0,,SCT,1500.0,BKN,2100.0,OVC,3900.0,,
KRDR,04-11-2001,21:00,METAR,,20,19.0,24.0,010/26KTS,9999,Rain/Cloud Development Not Observable,7.0,5.0,29.68,1005.9,,,,61,0,0,,,,,,,,,8/8 Overcast,2200.0,,SCT,1500.0,BKN,2200.0,OVC,4100.0,,
KRDR,04-11-2001,20:07,SPECI,,10,21.0,,,9999,Rain/Cloud Development Not Observable,7.0,4.0,29.70,,,,,61,0,0,,,,,,,,,8/8 Overcast,2200.0,,SCT,1500.0,BKN,2200.0,OVC,4000.0,,
KRDR,04-11-2001,20:00,METAR,,10,20.0,24.0,020/27KTS,9999,Rain/Cloud Development Not Observable,8.0,4.0,29.70,1006.7,,,,61,0,0,,,,,,,,,8/8 Overcast,2200.0,,SCT,1500.0,BKN,2200.0,OVC,4000.0,,
KRDR,04-11-2001,19:48,SPECI,,10,18.0,24.0,,9999,Rain/Cloud Development Not Observable,8.0,4.0,29.70,,,,,61,0,0,,,,,,,,,8/8 Overcast,2200.0,,SCT,1500.0,BKN,2200.0,OVC,4000.0,,
KRDR,04-11-2001,19:00,METAR,,20,23.0,,020/28KTS,9999,Cloud Development Not Observable,8.0,4.0,29.69,1006.3,,,,0,0,0,,,,,,,,,8/8 Overcast,1500.0,,BKN,1500.0,OVC,4000.0,,,,
KRDR,04-11-2001,18:23,SPECI,,20,23.0,28.0,,9999,Cloud Development Not Observable,8.0,4.0,29.75,,,,,0,0,0,,,,,,,,,8/8 Overcast,1800.0,,BKN,1800.0,OVC,5000.0,,,,
KRDR,04-11-2001,18:00,METAR,,20,21.0,29.0,,9999,Cloud Development Not Observable,7.0,4.0,29.76,1008.6,,,,0,0,0,,,,,,,,,8/8 Overcast,4900.0,,SCT,1500.0,BKN,5000.0,OVC,8900.0,,
KRDR,04-11-2001,17:00,METAR,,10,18.0,,010/26KTS,9999,Mist/Cloud Development Not Observable,7.0,3.0,29.79,1009.8,,,,10,0,0,,,,,,,,,8/8 Overcast,4900.0,,SCT,2500.0,BKN,5000.0,OVC,8900.0,,
KRDR,04-11-2001,16:00,METAR,,30,14.0,,,8000,Mist/Cloud Development Not Observable,6.0,5.0,29.84,1009.8,,,,10,0,0,,,,,,,,,8/8 Overcast,9000.0,,FEW,1500.0,SCT,2500.0,OVC,8900.0,,
KRDR,04-11-2001,15:00,METAR,,20,12.0,,,8000,Mist/Cloud Development Not Observable,5.0,4.0,29.84,1011.7,,,,10,0,0,,,,,,,,,8/8 Overcast,3200.0,,FEW,500.0,SCT,2200.0,BKN,3300.0,OVC,8900.0
KRDR,04-11-2001,14:50,METAR,,20,12.0,,,8000,Mist/Cloud Development Not Observable,5.0,4.0,29.84,,,,,10,0,0,,,,,,,,,8/8 Overcast,3200.0,,FEW,500.0,SCT,2200.0,BKN,3300.0,OVC,8900.0
KRDR,04-11-2001,14:37,SPECI,,10,12.0,,,8000,Mist/Cloud Development Not Observable,4.0,4.0,29.85,,,,,10,0,0,,,,,,,,,8/8 Overcast,2200.0,,FEW,500.0,BKN,2200.0,OVC,3300.0,,
KRDR,04-11-2001,14:00,METAR,,10,11.0,,,6400,Mist/Cloud Development Not Observable,4.0,4.0,29.85,1012.0,,,,10,0,0,,,,,,,,,7/8 Mostly Cloudy,72000.0,,BKN,3000.0,,,,,,
KRDR,04-11-2001,13:45,SPECI,,10,11.0,,,4800,Mist/Cloud Development Not Observable,4.0,4.0,29.86,,,,,10,0,0,,,,,,,,,7/8 Mostly Cloudy,72000.0,,BKN,3000.0,,,,,,
KRDR,04-11-2001,13:00,METAR,,10,10.0,,,3200,Mist/Cloud Development Not Observable,3.0,3.0,29.86,1012.4,,,,10,0,0,,,,,,,,,7/8 Mostly Cloudy,72000.0,,BKN,2200.0,,,,,,
KRDR,04-11-2001,12:26,SPECI,,10,10.0,,,4000,Mist/Cloud Development Not Observable,3.0,3.0,29.86,,,,,10,0,0,,,,,,,,,7/8 Mostly Cloudy,72000.0,,BKN,3000.0,,,,,,
KRDR,04-11-2001,12:00,METAR,,360,11.0,,,2800,Mist/Cloud Development Not Observable,3.0,3.0,29.86,1012.2,,,,10,0,0,,,,,,,,,8/8 Overcast,400.0,,BKN,400.0,BKN,1000.0,OVC,2500.0,,
KRDR,04-11-2001,11:40,SPECI,,350,11.0,,,2800,Mist/Cloud Development Not Observable,3.0,3.0,29.85,,,,,10,0,0,,,,,,,,,8/8 Overcast,400.0,,BKN,400.0,OVC,2500.0,,,,
KRDR,04-11-2001,11:15,SPECI,,360,11.0,,,2000,Mist/Cloud Development Not Observable,3.0,3.0,29.84,,,,,10,0,0,,,,,,,,,8/8 Overcast,400.0,,BKN,400.0,OVC,2500.0,,,,
KRDR,04-11-2001,11:00,METAR,,360,9.0,,,800,Fog or Ice Fog/Cloud Development Not Observable,3.0,3.0,29.85,1011.8,,,,44,0,0,,,,,,,,,8/8 Overcast,2500.0,,BKN,0.0,OVC,2500.0,,,,
KRDR,04-11-2001,10:00,METAR,,340,9.0,,,600,Fog or Ice Fog/Cloud Development Not Observable,3.0,3.0,29.86,1012.4,,,,44,0,0,,,,,,,,,8/8 Overcast,1000.0,,BKN,0.0,OVC,1000.0,,,,
KRDR,04-11-2001,09:00,METAR,,20,7.0,,,600,Fog or Ice Fog/Cloud Development Not Observable,3.0,3.0,29.87,1012.5,,,,44,0,0,,,,,,,,,8/8 Overcast,1000.0,,BKN,0.0,OVC,1000.0,,,,
KRDR,04-11-2001,08:00,METAR,,50,3.0,,,600,Fog or Ice Fog/Cloud Development Not Observable,3.0,3.0,29.89,1013.3,,,,44,0,0,,,,,,,,,8/8 Overcast,1000.0,,BKN,0.0,OVC,1000.0,,,,
KRDR,04-11-2001,07:00,METAR,,340,5.0,,,1200,Mist/Cloud Development Not Observable,3.0,3.0,29.89,1013.1,,,,10,0,0,,,,,,,,,8/8 Overcast,400.0,,BKN,400.0,OVC,1000.0,,,,
KRDR,04-11-2001,06:00,METAR,,10,6.0,,,1600,Drizzle/Mist/Cloud Development Not Observable,3.0,3.0,29.89,1013.3,,,,51,0,10,,,,,,,,,8/8 Overcast,500.0,,BKN,500.0,OVC,1000.0,,,,
KRDR,04-11-2001,05:15,SPECI,,320,6.0,,,1200,Drizzle/Cloud Development Not Observable,4.0,4.0,29.89,,,,,51,0,,,,,,,,,,8/8 Overcast,500.0,,OVC,500.0,,,,,,
KRDR,04-11-2001,05:00,METAR,,330,6.0,,,3200,Drizzle/Mist/Cloud Development Not Observable,4.0,4.0,29.89,1013.2,,,,51,0,10,,,,,,,,,8/8 Overcast,1000.0,,SCT,500.0,OVC,1000.0,,,,
KRDR,04-11-2001,04:00,METAR,,330,3.0,,,3200,Drizzle/Mist/Cloud Development Not Observable,4.0,4.0,29.90,1013.8,,,,51,10,0,,,,,,,,,8/8 Overcast,500.0,,SCT,200.0,SCT,500.0,OVC,1000.0,,
KRDR,04-11-2001,03:20,METAR,,330,5.0,,,3200,Drizzle/Mist/Cloud Development Not Observable,4.0,4.0,29.91,,,,,51,10,0,,,,,,,,,8/8 Overcast,500.0,,SCT,200.0,SCT,500.0,OVC,1000.0,,
KRDR,04-11-2001,03:00,METAR,,310,5.0,,,4800,Mist/Cloud Development Not Observable,4.0,4.0,29.91,1014.0,,,,10,0,0,,,,,,,,,8/8 Overcast,500.0,,SCT,200.0,SCT,500.0,OVC,1000.0,,
KRDR,04-11-2001,02:00,METAR,,,,,,4800,Mist/Cloud Development Not Observable,5.0,4.0,29.89,1013.2,,,,10,0,0,,,,,,,,,8/8 Overcast,500.0,,SCT,200.0,SCT,500.0,OVC,1000.0,,
KRDR,04-11-2001,01:35,SPECI,,,,,,4800,Mist/Cloud Development Not Observable,5.0,4.0,29.89,,,,,10,0,0,,,,,,,,,8/8 Overcast,500.0,,SCT,200.0,SCT,500.0,OVC,1000.0,,
KRDR,04-11-2001,01:00,METAR,,,,,,6400,Mist/Cloud Development Not Observable,5.0,4.0,29.87,1012.5,,,,10,0,0,,,,,,,,,8/8 Overcast,500.0,,SCT,200.0,OVC,500.0,,,,
KRDR,04-11-2001,00:00,METAR,,50,4.0,,,6400,Mist/Cloud Development Not Observable,5.0,4.0,29.85,1011.8,,,,10,0,0,,,,,,,,,8/8 Overcast,500.0,,SCT,200.0,OVC,500.0,,,,
KRDR,04-10-2001,23:00,METAR,,60,5.0,,,6400,Mist/Cloud Development Not Observable,5.0,4.0,29.85,1011.9,,,,10,0,0,,,,,,,,,8/8 Overcast,500.0,,SCT,200.0,OVC,500.0,,,,
KRDR,04-10-2001,22:00,METAR,,,,,,6400,Mist/Cloud Development Not Observable,5.0,4.0,29.85,1012.1,,,,10,0,0,,,,,,,,,8/8 Overcast,500.0,,SCT,200.0,OVC,500.0,,,,
KRDR,04-10-2001,21:00,METAR,,,4.0,,,6400,Mist/Cloud Development Not Observable,5.0,4.0,29.86,1012.4,,,,10,0,0,,,,,,,,,8/8 Overcast,500.0,,SCT,200.0,OVC,500.0,,,,
KRDR,04-10-2001,20:10,SPECI,,,,,,4800,Mist/Cloud Development Not Observable,4.0,4.0,29.87,,,,,10,0,0,,,,,,,,,8/8 Overcast,500.0,,SCT,200.0,OVC,500.0,,,,
KRDR,04-10-2001,20:00,METAR,,,2.0,,,4000,Drizzle/Mist/Cloud Development Not Observable,4.0,4.0,29.88,1012.8,,,,51,10,0,,,,,,,,,8/8 Overcast,500.0,,SCT,200.0,OVC,500.0,,,,
KRDR,04-10-2001,19:00,METAR,,,2.0,,,4000,Drizzle/Mist/Cloud Development Not Observable,4.0,4.0,29.88,1013.0,,,,51,10,0,,,,,,,,,8/8 Overcast,500.0,,SCT,200.0,OVC,500.0,,,,
KRDR,04-10-2001,18:45,METAR,,80,2.0,,,4000,Drizzle/Mist/Cloud Development Not Observable,4.0,3.0,29.88,,,,,51,10,0,,,,,,,,,8/8 Overcast,500.0,,SCT,200.0,OVC,500.0,,,,
KRDR,04-10-2001,18:00,METAR,,80,6.0,,,6400,Mist/Cloud Development Not Observable,4.0,3.0,29.87,1012.8,,,,10,0,0,,,,,,,,,8/8 Overcast,500.0,,SCT,200.0,OVC,500.0,,,,
KRDR,04-10-2001,17:12,SPECI,,80,7.0,,,6400,Mist/Cloud Development Not Observable,4.0,3.0,29.87,,,,,10,0,0,,,,,,,,,8/8 Overcast,500.0,,SCT,200.0,OVC,500.0,,,,
KRDR,04-10-2001,17:00,METAR,,90,6.0,,,6400,Mist/Cloud Development Not Observable,4.0,3.0,29.88,1013.0,,,,10,0,0,,,,,,,,,8/8 Overcast,300.0,,OVC,300.0,,,,,,
KRDR,04-10-2001,16:17,SPECI,,40,7.0,,,6400,Mist/Cloud Development Not Observable,3.0,3.0,29.89,,,,,10,0,0,,,,,,,,,8/8 Overcast,300.0,,BKN,300.0,OVC,500.0,,,,
KRDR,04-10-2001,16:00,METAR,,20,7.0,,,3200,Drizzle/Mist/Cloud Development Not Observable,3.0,3.0,29.87,1012.6,,,,51,10,0,,,,,,,,,8/8 Overcast,300.0,,BKN,300.0,OVC,500.0,,,,
KRDR,04-10-2001,15:00,METAR,,40,5.0,,,4000,Drizzle/Mist/Cloud Development Not Observable,3.0,3.0,29.89,1013.1,,,,51,10,0,,,,,,,,,8/8 Overcast,200.0,,BKN,200.0,OVC,500.0,,,,
KRDR,04-10-2001,14:05,SPECI,,360,4.0,,,4400,Drizzle/Mist/Cloud Development Not Observable,2.0,2.0,29.89,,,,,51,10,0,,,,,,,,,8/8 Overcast,200.0,,BKN,200.0,OVC,500.0,,,,
KRDR,04-10-2001,14:00,METAR,,10,5.0,,,4000,Drizzle/Mist/Cloud Development Not Observable,2.0,2.0,29.88,1013.0,,,,51,10,0,,,,,,,,,8/8 Overcast,500.0,,SCT,100.0,OVC,500.0,,,,
KRDR,04-10-2001,13:36,SPECI,,,,,,4000,Cloud Development Not Observable,2.0,2.0,29.89,,,,,0,0,0,,,,,,,,,8/8 Overcast,500.0,,SCT,200.0,OVC,500.0,,,,
KRDR,04-10-2001,13:10,SPECI,,350,3.0,,,5600,Drizzle/Mist/Cloud Development Not Observable,2.0,2.0,29.88,,,,,51,10,0,,,,,,,,,8/8 Overcast,500.0,,BKN,500.0,OVC,2000.0,,,,
KRDR,04-10-2001,13:00,METAR,,340,4.0,,,2400,Drizzle/Mist/Cloud Development Not Observable,2.0,2.0,29.87,1012.6,,,,51,10,0,,,,,,,,,8/8 Overcast,500.0,,BKN,500.0,OVC,2000.0,,,,
KRDR,04-10-2001,12:16,SPECI,,360,4.0,,,2400,Drizzle/Mist/Cloud Development Not Observable,2.0,1.0,29.86,,,,,51,10,0,,,,,,,,,8/8 Overcast,600.0,,BKN,600.0,OVC,2000.0,,,,
KRDR,04-10-2001,12:00,METAR,,170,2.0,,,8000,Mist/Cloud Development Not Observable,3.0,2.0,29.89,1013.1,,,,10,0,0,,,,,,,,,8/8 Overcast,2000.0,,SCT,600.0,OVC,2000.0,,,,
KRDR,04-10-2001,11:45,METAR,,190,4.0,,,9999,Mist/Cloud Development Not Observable,2.0,2.0,29.88,,,,,10,0,0,,,,,,,,,8/8 Overcast,2000.0,,SCT,500.0,OVC,2000.0,,,,
KRDR,04-10-2001,11:00,METAR,,350,6.0,,,9999,Cloud Development Not Observable,2.0,2.0,29.86,1012.3,,,,0,0,0,,,,,,,,,8/8 Overcast,2500.0,,BKN,2500.0,OVC,3500.0,,,,
KRDR,04-10-2001,10:00,METAR,,90,6.0,,,9999,Rain/Cloud Development Not Observable,2.0,2.0,29.86,1012.3,,,,61,0,0,,,,,,,,,8/8 Overcast,2300.0,,BKN,2300.0,OVC,3500.0,,,,
KRDR,04-10-2001,09:00,METAR,,60,5.0,,,9999,Rain/Cloud Development Not Observable,2.0,2.0,29.87,1012.7,,,,61,0,0,,,,,,,,,8/8 Overcast,2300.0,,OVC,2300.0,,,,,,
KRDR,04-10-2001,08:00,METAR,,50,5.0,,,9999,Rain/Cloud Development Not Observable,2.0,2.0,29.87,1012.8,,,,61,0,0,,,,,,,,,8/8 Overcast,2300.0,,OVC,2300.0,,,,,,
KRDR,04-10-2001,07:15,SPECI,,90,3.0,,,9999,Rain/Cloud Development Not Observable,3.0,2.0,29.88,,,,,61,0,0,,,,,,,,,8/8 Overcast,2300.0,,OVC,2300.0,,,,,,
KRDR,04-10-2001,07:00,METAR,,80,6.0,,,9999,Cloud Development Not Observable,3.0,2.0,29.88,1012.9,,,,0,0,0,,,,,,,,,8/8 Overcast,2300.0,,OVC,2300.0,,,,,,
KRDR,04-10-2001,05:55,METAR,,80,6.0,,,9999,Cloud Development Not Observable,3.0,2.0,29.88,1012.9,,,,0,0,0,,,,,,,,,8/8 Overcast,2300.0,,OVC,2300.0,,,,,,
KRDR,04-10-2001,05:00,METAR,,80,6.0,,,9999,Cloud Development Not Observable,3.0,2.0,29.89,1013.3,,,,0,0,0,,,,,,,,,8/8 Overcast,2200.0,,OVC,2200.0,,,,,,
KRDR,04-10-2001,04:00,METAR,,80,7.0,,,9999,Cloud Development Not Observable,3.0,2.0,29.89,1013.5,,,,0,0,0,,,,,,,,,8/8 Overcast,2500.0,,OVC,2500.0,,,,,,
KRDR,04-10-2001,03:23,SPECI,,70,6.0,,,9999,Cloud Development Not Observable,3.0,2.0,29.90,,,,,0,0,0,,,,,,,,,8/8 Overcast,2500.0,,OVC,2500.0,,,,,,
KRDR,04-10-2001,03:00,METAR,,80,6.0,,,9999,Rain/Cloud Development Not Observable,3.0,2.0,29.90,1013.6,,,,61,0,0,,,,,,,,,8/8 Overcast,2400.0,,OVC,2400.0,,,,,,
KRDR,04-10-2001,02:00,METAR,,100,7.0,,,9999,Rain/Cloud Development Not Observable,3.0,2.0,29.90,1013.6,,,,61,0,0,,,,,,,,,8/8 Overcast,2200.0,,BKN,2200.0,OVC,3000.0,,,,
KRDR,04-10-2001,01:38,SPECI,,110,9.0,,,9999,Rain/Cloud Development Not Observable,4.0,2.0,29.89,,,,,61,0,0,,,,,,,,,8/8 Overcast,2200.0,,BKN,2200.0,OVC,3000.0,,,,
KRDR,04-10-2001,01:00,METAR,,100,7.0,,,9999,Rain/Cloud Development Not Observable,4.0,2.0,29.89,1013.5,,,,61,0,0,,,,,,,,,8/8 Overcast,2200.0,,SCT,2200.0,BKN,3000.0,OVC,8900.0,,
KRDR,04-10-2001,00:11,SPECI,,110,8.0,,,9999,Rain/Cloud Development Not Observable,4.0,2.0,29.89,,,,,61,0,0,,,,,,,,,8/8 Overcast,3000.0,,SCT,2200.0,BKN,3000.0,OVC,8900.0,,
KRDR,04-10-2001,00:00,METAR,,110,8.0,,,9999,Cloud Development Not Observable,5.0,1.0,29.89,1013.3,,,,0,0,0,,,,,,,,,8/8 Overcast,3100.0,,SCT,2500.0,BKN,3100.0,OVC,8900.0,,
KRDR,04-09-2001,23:00,METAR,,120,9.0,,,9999,Cloud Development Not Observable,4.0,1.0,29.90,1013.6,,,,0,0,0,,,,,,,,,8/8 Overcast,3100.0,,SCT,2200.0,BKN,3100.0,OVC,8900.0,,
KRDR,04-09-2001,22:00,METAR,,130,9.0,,,9999,Cloud Development Not Observable,5.0,1.0,29.90,1013.6,,,,0,0,0,,,,,,,,,8/8 Overcast,3100.0,,SCT,2200.0,BKN,3100.0,OVC,8900.0,,
KRDR,04-09-2001,21:41,SPECI,,120,10.0,,,9999,Cloud Development Not Observable,5.0,1.0,29.90,,,,,0,0,0,,,,,,,,,8/8 Overcast,3100.0,,SCT,2200.0,BKN,3100.0,OVC,8900.0,,
KRDR,04-09-2001,21:00,METAR,,110,9.0,,,9999,Cloud Development Not Observable,6.0,2.0,29.91,1013.8,,,,0,0,0,,,,,,,,,8/8 Overcast,2900.0,,BKN,2900.0,BKN,5000.0,OVC,8900.0,,
KRDR,04-09-2001,20:17,SPECI,,110,13.0,,,9999,Cloud Development Not Observable,5.0,3.0,29.92,,,,,0,0,0,,,,,,,,,8/8 Overcast,2500.0,,BKN,2500.0,BKN,5000.0,OVC,7900.0,,
KRDR,04-09-2001,20:00,METAR,,130,13.0,,,9999,Rain/Cloud Development Not Observable,5.0,3.0,29.92,1014.3,,,,61,0,0,,,,,,,,,8/8 Overcast,2000.0,,BKN,2000.0,OVC,5000.0,,,,
KRDR,04-09-2001,19:00,METAR,,110,8.0,,,9999,Rain/Cloud Development Not Observable,6.0,3.0,29.93,1014.6,,,,61,0,0,,,,,,,,,8/8 Overcast,2800.0,,FEW,1500.0,BKN,2800.0,OVC,5000.0,,
KRDR,04-09-2001,18:44,SPECI,,100,8.0,,,9999,Rain/Cloud Development Not Observable,5.0,3.0,29.94,,,,,61,0,0,,,,,,,,,7/8 Mostly Cloudy,2000.0,,BKN,2000.0,BKN,5000.0,,,,
KRDR,04-09-2001,18:33,SPECI,,100,9.0,,,9999,Rain/Cloud Development Not Observable,5.0,3.0,29.94,,,,,61,0,0,,,,,,,,,8/8 Overcast,2000.0,,BKN,2000.0,OVC,5000.0,,,,
KRDR,04-09-2001,18:00,METAR,,100,9.0,,,9999,Cloud Development Not Observable,6.0,3.0,29.95,1015.1,,,,0,0,0,,,,,,,,,7/8 Mostly Cloudy,2000.0,,BKN,2000.0,BKN,5000.0,,,,
KRDR,04-09-2001,17:49,SPECI,,110,10.0,,,9999,Cloud Development Not Observable,6.0,3.0,29.95,,,,,0,0,0,,,,,,,,,7/8 Mostly Cloudy,2000.0,,BKN,2000.0,BKN,5000.0,,,,
KRDR,04-09-2001,17:00,METAR,,90,8.0,,,9999,Drizzle/Cloud Development Not Observable,4.0,3.0,29.96,1015.5,,,,51,0,0,,,,,,,,,8/8 Overcast,2500.0,,FEW,1000.0,BKN,2500.0,OVC,5000.0,,
KRDR,04-09-2001,16:00,METAR,,80,8.0,,,9999,Rain/Cloud Development Not Observable,3.0,2.0,29.97,1015.9,,,,61,0,0,,,,,,,,,8/8 Overcast,1200.0,,FEW,800.0,BKN,1200.0,BKN,3400.0,OVC,5000.0
KRDR,04-09-2001,15:35,SPECI,,80,9.0,,,9999,Rain/Cloud Development Not Observable,3.0,2.0,29.97,,,,,61,0,0,,,,,,,,,8/8 Overcast,1100.0,,BKN,1100.0,OVC,3000.0,,,,
KRDR,04-09-2001,15:00,METAR,,90,8.0,,,9999,Cloud Development Not Observable,3.0,1.0,29.97,1016.0,,,,0,0,0,,,,,,,,,8/8 Overcast,1200.0,,BKN,1200.0,OVC,3400.0,,,,
KRDR,04-09-2001,14:36,SPECI,,90,9.0,,,9999,Cloud Development Not Observable,3.0,1.0,29.97,,,,,0,0,0,,,,,,,,,8/8 Overcast,1500.0,,FEW,1000.0,BKN,1500.0,OVC,3400.0,,
KRDR,04-09-2001,14:00,METAR,,80,8.0,,,9999,Cloud Development Not Observable,2.0,1.0,29.98,1016.4,,,,0,0,0,,,,,,,,,8/8 Overcast,3500.0,,FEW,1000.0,SCT,1500.0,OVC,3600.0,,
KRDR,04-09-2001,13:00,METAR,,80,8.0,,,9999,Cloud Development Not Observable,2.0,1.0,29.99,1016.6,,,,0,0,0,,,,,,,,,8/8 Overcast,3700.0,,SCT,1500.0,OVC,3800.0,,,,
KRDR,04-09-2001,12:00,METAR,,70,7.0,,,9999,Cloud Development Not Observable,2.0,1.0,29.98,1016.4,,,,0,0,0,,,,,,,,,8/8 Overcast,3700.0,,OVC,3800.0,,,,,,
KRDR,04-09-2001,11:00,METAR,,80,7.0,,,9999,Cloud Development Not Observable,3.0,1.0,29.98,1016.3,,,,0,0,0,,,,,,,,,8/8 Overcast,3400.0,,OVC,3500.0,,,,,,
KRDR,04-09-2001,10:00,METAR,,80,8.0,,,9999,Cloud Development Not Observable,3.0,1.0,29.98,1016.3,,,,0,0,0,,,,,,,,,8/8 Overcast,3400.0,,OVC,3500.0,,,,,,
KRDR,04-09-2001,09:00,METAR,,70,9.0,,,9999,Cloud Development Not Observable,3.0,1.0,,1016.2,,,,0,0,0,,,,,,,,,8/8 Overcast,3400.0,,BKN,3500.0,OVC,20000.0,,,,
KRDR,04-09-2001,08:00,METAR,,50,8.0,,,9999,Cloud Development Not Observable,2.0,1.0,29.98,1016.2,,,,0,0,0,,,,,,,,,8/8 Overcast,3400.0,,BKN,3500.0,OVC,20000.0,,,,
KRDR,04-09-2001,07:40,SPECI,,50,9.0,,,9999,Cloud Development Not Observable,3.0,1.0,29.97,,,,,0,0,0,,,,,,,,,8/8 Overcast,3400.0,,BKN,3500.0,OVC,7900.0,,,,
KRDR,04-09-2001,07:00,METAR,,50,8.0,,,9999,Cloud Development Not Observable,3.0,1.0,29.98,1016.2,,,,0,0,0,,,,,,,,,8/8 Overcast,2800.0,,OVC,2800.0,,,,,,
KRDR,04-09-2001,06:00,METAR,,60,7.0,,,9999,Cloud Development Not Observable,4.0,1.0,30.00,,,,,0,0,0,,,,,,,,,8/8 Overcast,2800.0,,OVC,2800.0,,,,,,
KRDR,04-09-2001,05:00,METAR,,70,7.0,,,9999,Cloud Development Not Observable,4.0,2.0,30.01,,,,,0,0,0,,,,,,,,,8/8 Overcast,2400.0,,OVC,2400.0,,,,,,
KRDR,04-09-2001,04:00,METAR,,70,7.0,,,9999,Cloud Development Not Observable,5.0,2.0,30.02,1017.9,,,,0,0,0,,,,,,,,,8/8 Overcast,2200.0,,BKN,2200.0,OVC,3000.0,,,,
KRDR,04-09-2001,03:00,METAR,,70,9.0,,,9999,Cloud Development Not Observable,5.0,1.0,30.02,1017.9,,,,0,0,0,,,,,,,,,8/8 Overcast,2200.0,,BKN,2200.0,OVC,3000.0,,,,
KRDR,04-09-2001,02:06,SPECI,,70,11.0,,,9999,Cloud Development Not Observable,5.0,2.0,30.00,,,,,0,0,0,,,,,,,,,8/8 Overcast,2200.0,,BKN,2200.0,OVC,3000.0,,,,
KRDR,04-09-2001,02:00,METAR,,80,11.0,,,9999,Cloud Development Not Observable,6.0,2.0,30.00,1017.3,,,,0,0,0,,,,,,,,,8/8 Overcast,3000.0,,SCT,2500.0,OVC,3000.0,,,,
KRDR,04-09-2001,01:00,METAR,,80,12.0,,,9999,Cloud Development Not Observable,6.0,2.0,29.98,1016.5,,,,0,0,0,,,,,,,,,8/8 Overcast,3300.0,,SCT,2500.0,OVC,3400.0,,,,
KRDR,04-09-2001,00:00,METAR,,80,10.0,,,9999,Cloud Development Not Observable,7.0,3.0,29.97,1015.8,,,,0,0,0,,,,,,,,,8/8 Overcast,3200.0,,SCT,2500.0,OVC,3300.0,,,,
KRDR,04-08-2001,23:00,METAR,,50,10.0,,,9999,Cloud Development Not Observable,8.0,4.0,29.95,1015.5,,,,0,0,0,,,,,,,,,8/8 Overcast,3000.0,,SCT,2500.0,BKN,3000.0,OVC,9900.0,,
KRDR,04-08-2001,22:00,METAR,,40,11.0,,,9999,Cloud Development Not Observable,8.0,3.0,29.93,,,,,0,0,0,,,,,,,,,8/8 Overcast,3000.0,,SCT,2500.0,BKN,3000.0,OVC,9900.0,,
KRDR,04-08-2001,21:00,METAR,,40,12.0,,,9999,Cloud Development Not Observable,8.0,3.0,29.93,,,,,0,0,0,,,,,,,,,8/8 Overcast,3000.0,,SCT,2500.0,BKN,3000.0,OVC,9900.0,,
KRDR,04-08-2001,20:00,METAR,,10,13.0,,,9999,Cloud Development Not Observable,9.0,3.0,29.93,,,,,0,0,0,,,,,,,,,7/8 Mostly Cloudy,10000.0,,SCT,2500.0,BKN,9900.0,,,,
KRDR,04-08-2001,19:00,METAR,,20,13.0,,,9999,Cloud Development Not Observable,9.0,3.0,29.91,,,,,0,0,0,,,,,,,,,7/8 Mostly Cloudy,10000.0,,SCT,2500.0,BKN,9900.0,,,,
KRDR,04-08-2001,00:55,METAR,,340,21.0,26.0,,8000,Light Rain Showers/Mist/Cloud Development Not Observable,4.0,3.0,29.59,1003.1,,,,80,10,0,,,,,,,,,8/8 Overcast,1800.0,,SCT,1000.0,BKN,1800.0,OVC,3400.0,,
KRDR,04-08-2001,00:00,METAR,,340,25.0,32.0,,8000,Light Rain Showers/Mist/Cloud Development Not Observable,5.0,3.0,29.55,1001.7,,,,80,10,0,,,,,,,,,8/8 Overcast,1800.0,,FEW,800.0,BKN,1800.0,OVC,2500.0,,
KRDR,04-07-2001,23:00,METAR,,340,22.0,28.0,340/30KTS,8000,Light Rain Showers/Mist/Cloud Development Not Observable,5.0,3.0,29.50,999.9,,,,80,10,0,,,,,,,,,8/8 Overcast,1600.0,,FEW,800.0,BKN,1600.0,OVC,2500.0,,
KRDR,04-07-2001,22:25,METAR,,340,22.0,,,8000,Light Rain Showers/Mist/Cloud Development Not Observable,5.0,3.0,29.48,,,,,80,10,0,,,,,,,,,8/8 Overcast,1600.0,,FEW,800.0,BKN,1600.0,OVC,2500.0,,
KRDR,04-07-2001,22:00,METAR,,340,21.0,27.0,350/30KTS,6400,Light Rain Showers/Mist/Cloud Development Not Observable,4.0,3.0,29.45,998.4,,,,80,10,0,,,,,,,,,8/8 Overcast,1300.0,,SCT,800.0,BKN,1300.0,OVC,2500.0,,
KRDR,04-07-2001,21:00,METAR,,340,22.0,29.0,350/31KTS,4800,Light Rain Showers/Mist/Cloud Development Not Observable,4.0,3.0,29.41,996.7,,,,80,10,0,,,,,,,,,8/8 Overcast,1300.0,,SCT,800.0,OVC,1300.0,,,,
KRDR,04-07-2001,20:00,METAR,,350,30.0,36.0,,8000,Light Rain Showers/Mist/Cloud Development Not Observable,4.0,3.0,29.38,995.7,,,,80,10,0,,,,,,,,,8/8 Overcast,1300.0,,SCT,800.0,OVC,1300.0,,,,
KRDR,04-07-2001,19:00,METAR,,360,26.0,31.0,360/35KTS,8000,Light Rain Showers/Mist/Cloud Development Not Observable,4.0,3.0,29.36,995.0,,,,80,10,0,,,,,,,,,8/8 Overcast,1200.0,,OVC,1200.0,,,,,,
KRDR,04-07-2001,18:42,SPECI,,360,26.0,33.0,,8000,Light Rain Showers/Mist/Cloud Development Not Observable,4.0,3.0,29.35,,,,,80,10,0,,,,,,,,,8/8 Overcast,1200.0,,OVC,1200.0,,,,,,
KRDR,04-07-2001,18:00,METAR,,360,26.0,38.0,,4800,Light Snow Showers/Light Rain Showers/Mist,3.0,2.0,29.34,994.1,,,,80,85,10,,,,,,,,,8/8 Overcast,1200.0,,OVC,1200.0,,,,,,
KRDR,04-07-2001,17:00,METAR,,10,26.0,32.0,010/34KTS,4800,Light Snow Showers/Light Rain Showers/Mist,3.0,2.0,29.33,994.1,,,,80,85,10,,,,,,,,,8/8 Overcast,1200.0,,OVC,1200.0,,,,,,
KRDR,04-07-2001,16:00,METAR,,360,28.0,36.0,,4800,Light Snow Showers/Light Rain Showers/Mist,3.0,2.0,29.33,993.8,,,,80,85,10,,,,,,,,,8/8 Overcast,1200.0,,OVC,1200.0,,,,,,
KRDR,04-07-2001,15:18,SPECI,,20,27.0,33.0,,6400,Light Snow Showers/Light Rain Showers/Mist,3.0,2.0,29.33,,,,,80,85,10,,,,,,,,,8/8 Overcast,1200.0,,OVC,1200.0,,,,,,
KRDR,04-07-2001,15:00,METAR,,10,26.0,31.0,010/35KTS,6400,Light Rain Showers/Mist/Cloud Development Not Observable,3.0,2.0,29.33,993.8,,,,80,10,0,,,,,,,,,8/8 Overcast,1300.0,,BKN,1300.0,OVC,2000.0,,,,
KRDR,04-07-2001,14:00,METAR,,10,25.0,34.0,,6400,Light Rain Showers/Mist/Cloud Development Not Observable,3.0,2.0,29.34,994.2,,,,80,10,0,,,,,,,,,8/8 Overcast,1300.0,,BKN,1300.0,OVC,2000.0,,,,
KRDR,04-07-2001,13:11,SPECI,,20,25.0,32.0,,6400,Light Rain Showers/Mist/Cloud Development Not Observable,3.0,3.0,29.36,,,,,80,10,0,,,,,,,,,8/8 Overcast,1200.0,,BKN,1200.0,OVC,2500.0,,,,
KRDR,04-07-2001,13:00,METAR,,20,24.0,32.0,,6400,Light Rain Showers/Mist/Cloud Development Not Observable,4.0,3.0,29.37,995.2,,,,80,10,0,,,,,,,,,8/8 Overcast,3000.0,,SCT,1500.0,OVC,3000.0,,,,
KRDR,04-07-2001,12:00,METAR,,20,23.0,28.0,,8000,Light Rain Showers/Mist/Cloud Development Not Observable,4.0,2.0,29.39,995.9,,,,80,10,0,,,,,,,,,8/8 Overcast,3400.0,,OVC,3500.0,,,,,,
KRDR,04-07-2001,11:00,METAR,,30,17.0,,,9999,Light Rain Showers/Cloud Development Not Observable,4.0,2.0,29.42,997.0,,,,80,0,0,,,,,,,,,8/8 Overcast,3400.0,,OVC,3500.0,,,,,,
KRDR,04-07-2001,10:00,METAR,,30,14.0,,,9999,Light Rain Showers/Cloud Development Not Observable,5.0,1.0,29.45,1001.0,,,,80,0,0,,,,,,,,,8/8 Overcast,4400.0,,OVC,4500.0,,,,,,
KRDR,04-07-2001,09:00,METAR,,40,14.0,,,9999,Light Rain Showers/Cloud Development Not Observable,6.0,1.0,29.51,1001.0,,,,80,0,0,,,,,,,,,8/8 Overcast,5500.0,,OVC,5400.0,,,,,,
KRDR,04-07-2001,08:30,METAR,,60,14.0,,,9999,Light Rain Showers/Cloud Development Not Observable,7.0,1.0,29.54,,,,,80,0,0,,,,,,,,,8/8 Overcast,7000.0,,FEW,3500.0,OVC,6900.0,,,,
KRDR,04-07-2001,08:00,METAR,,60,10.0,,,9999,Cloud Development Not Observable,7.0,1.0,29.55,1001.3,,,,0,0,0,,,,,,,,,8/8 Overcast,7000.0,,FEW,3500.0,OVC,6900.0,,,,
KRDR,04-07-2001,07:00,METAR,,70,10.0,,,9999,Cloud Development Not Observable,7.0,1.0,29.61,1003.3,,,,0,0,0,,,,,,,,,8/8 Overcast,7500.0,,FEW,3500.0,OVC,7400.0,,,,
KRDR,04-07-2001,06:00,METAR,,50,9.0,,,9999,Cloud Development Not Observable,7.0,2.0,29.64,1004.4,,,,0,0,0,,,,,,,,,8/8 Overcast,7500.0,,FEW,3500.0,OVC,7400.0,,,,
KRDR,04-07-2001,05:00,METAR,,60,8.0,,,9999,Cloud Development Not Observable,8.0,3.0,29.69,1006.1,,,,0,0,0,,,,,,,,,8/8 Overcast,8000.0,,FEW,3000.0,OVC,7900.0,,,,
KRDR,04-07-2001,04:00,METAR,,50,8.0,,,9999,Cloud Development Not Observable,9.0,5.0,29.73,1007.6,,,,0,0,0,,,,,,,,,8/8 Overcast,6000.0,,FEW,3000.0,BKN,5900.0,OVC,9900.0,,
KRDR,04-07-2001,03:00,METAR,,30,6.0,,,9999,Cloud Development Not Observable,9.0,4.0,29.74,1008.0,,,,0,0,0,,,,,,,,,8/8 Overcast,6000.0,,FEW,3000.0,BKN,5900.0,OVC,9900.0,,
KRDR,04-07-2001,02:00,METAR,,80,3.0,,,9999,Cloud Development Not Observable,9.0,5.0,29.77,1009.0,,,,0,0,0,,,,,,,,,8/8 Overcast,6000.0,,FEW,3000.0,BKN,5900.0,OVC,9900.0,,
KRDR,04-07-2001,01:00,METAR,,100,4.0,,,9999,Cloud Development Not Observable,10.0,5.0,29.76,1008.9,,,,0,0,0,,,,,,,,,7/8 Mostly Cloudy,10000.0,,FEW,3000.0,BKN,9900.0,BKN,20000.0,,
KRDR,04-07-2001,00:00,METAR,,140,7.0,,,9999,Cloud Development Not Observable,11.0,4.0,29.78,1009.5,,,,0,0,0,,,,,,,,,7/8 Mostly Cloudy,11000.0,,FEW,3000.0,BKN,11000.0,BKN,20000.0,,
KRDR,04-06-2001,23:00,METAR,,150,11.0,,,9999,Cloud Development Not Observable,13.0,4.0,29.79,1009.6,,,,0,0,0,,,,,,,,,7/8 Mostly Cloudy,15000.0,,FEW,3000.0,BKN,15000.0,BKN,20000.0,,
KRDR,04-06-2001,22:00,METAR,,160,13.0,,,9999,Cloud Development Not Observable,13.0,4.0,29.82,1010.5,,,,0,0,0,,,,,,,,,7/8 Mostly Cloudy,15000.0,,BKN,15000.0,BKN,20000.0,,,,
KRDR,04-06-2001,21:00,METAR,,140,11.0,,,9999,Cloud Development Not Observable,13.0,6.0,29.81,1010.3,,,,0,0,0,,,,,,,,,7/8 Mostly Cloudy,20000.0,,FEW,1500.0,SCT,9900.0,BKN,20000.0,,
KRDR,04-06-2001,20:00,METAR,,150,10.0,,,9999,Cloud Development Not Observable,13.0,8.0,29.83,1010.9,,,,0,0,0,,,,,,,,,7/8 Mostly Cloudy,20000.0,,SCT,1500.0,BKN,20000.0,,,,
KRDR,04-06-2001,19:00,METAR,,160,8.0,,,9999,Cloud Development Not Observable,12.0,7.0,29.84,1011.5,,,,0,0,0,,,,,,,,,7/8 Mostly Cloudy,20000.0,,FEW,1500.0,BKN,20000.0,,,,
KRDR,04-06-2001,17:55,METAR,,140,7.0,,,9999,Cloud Development Not Observable,10.0,6.0,29.86,1012.2,,,,0,0,0,,,,,,,,,7/8 Mostly Cloudy,20000.0,,FEW,1000.0,BKN,20000.0,,,,
KRDR,04-06-2001,16:00,METAR,,200,2.0,,,9999,Mist/Cloud Development Not Observable,7.0,4.0,29.86,1012.2,,,,10,0,0,,,,,,,,,7/8 Mostly Cloudy,20000.0,,BKN,20000.0,,,,,,
KRDR,04-06-2001,15:00,METAR,,160,4.0,,,9999,Mist/Cloud Development Not Observable,5.0,3.0,29.84,1012.2,,,,10,0,0,,,,,,,,,7/8 Mostly Cloudy,20000.0,,BKN,20000.0,,,,,,
KRDR,04-06-2001,14:00,METAR,,170,9.0,,,8000,Mist/Cloud Development Not Observable,3.0,2.0,29.86,1012.3,,,,10,0,0,,,,,,,,,4/8 Partly Cloudy,72000.0,,FEW,4000.0,SCT,20000.0,,,,
KRDR,04-06-2001,13:00,METAR,,120,3.0,,,6400,Mist/Cloud Development Not Observable,1.0,1.0,29.84,1011.7,,,,10,0,0,,,,,,,,,4/8 Partly Cloudy,72000.0,,FEW,4000.0,SCT,20000.0,,,,
KRDR,04-06-2001,12:00,METAR,,150,8.0,,,4800,Mist/Cloud Development Not Observable,0.0,0.0,29.84,1011.5,,,,10,0,0,,,,,,,,,4/8 Partly Cloudy,72000.0,,SCT,4000.0,,,,,,
KRDR,04-06-2001,11:00,METAR,,180,8.0,,,9999,Mist/Cloud Development Not Observable,2.0,1.0,29.82,1010.9,,,,10,0,0,,,,,,,,,2/8 Mostly Clear,72000.0,,FEW,4000.0,,,,,,
KRDR,04-06-2001,10:00,METAR,,180,8.0,,,9999,Mist/Cloud Development Not Observable,2.0,1.0,29.82,1010.8,,,,10,0,0,,,,,,,,,4/8 Partly Cloudy,72000.0,,SCT,4000.0,,,,,,
KRDR,04-06-2001,09:00,METAR,,230,8.0,,,8000,Mist/Cloud Development Not Observable,4.0,2.0,29.84,1011.5,,,,10,0,0,,,,,,,,,4/8 Partly Cloudy,72000.0,,SCT,5900.0,SCT,20000.0,,,,
KRDR,04-06-2001,08:00,METAR,,230,11.0,,,8000,Mist/Cloud Development Not Observable,4.0,3.0,29.84,1011.6,,,,10,0,0,,,,,,,,,4/8 Partly Cloudy,72000.0,,SCT,6900.0,SCT,20000.0,,,,
KRDR,04-06-2001,07:00,METAR,,200,8.0,,,8000,Mist/Cloud Development Not Observable,3.0,2.0,29.84,1011.7,,,,10,0,0,,,,,,,,,7/8 Mostly Cloudy,8000.0,,FEW,1000.0,BKN,7900.0,,,,
KRDR,04-06-2001,06:00,METAR,,200,8.0,,,9999,Cloud Development Not Observable,2.0,2.0,29.85,1011.9,,,,0,0,0,,,,,,,,,4/8 Partly Cloudy,72000.0,,SCT,8900.0,,,,,,
KRDR,04-06-2001,05:00,METAR,,200,8.0,,,9999,Cloud Development Not Observable,2.0,2.0,29.85,1011.9,,,,0,0,0,,,,,,,,,Clear,72000.0,,,73000.0,,,,,,
KRDR,04-06-2001,04:00,METAR,,190,8.0,,,9999,Cloud Development Not Observable,1.0,1.0,29.84,1011.7,,,,0,0,0,,,,,,,,,Clear,72000.0,,,73000.0,,,,,,
KRDR,04-06-2001,03:00,METAR,,170,9.0,,,9999,Cloud Development Not Observable,3.0,2.0,29.84,1011.7,,,,0,0,0,,,,,,,,,Clear,72000.0,,,73000.0,,,,,,
KRDR,04-06-2001,02:00,METAR,,180,9.0,,,9999,Cloud Development Not Observable,3.0,2.0,29.84,1011.6,,,,0,0,0,,,,,,,,,2/8 Mostly Clear,72000.0,,FEW,12000.0,,,,,,
KRDR,04-06-2001,01:00,METAR,,170,8.0,,,9999,Cloud Development Not Observable,6.0,3.0,29.83,1011.3,,,,0,0,0,,,,,,,,,2/8 Mostly Clear,72000.0,,FEW,12000.0,,,,,,
KRDR,04-06-2001,00:00,METAR,,160,12.0,,,9999,Cloud Development Not Observable,8.0,4.0,29.84,1011.6,,,,0,0,0,,,,,,,,,2/8 Mostly Clear,72000.0,,FEW,12000.0,,,,,,
KRDR,04-05-2001,23:00,METAR,,160,8.0,,,9999,Cloud Development Not Observable,8.0,4.0,29.85,1011.9,,,,0,0,0,,,,,,,,,7/8 Mostly Cloudy,12000.0,,FEW,2500.0,BKN,12000.0,BKN,20000.0,,
KRDR,04-05-2001,22:00,METAR,,,,,,9999,Cloud Development Not Observable,11.0,4.0,29.86,1012.2,,,,0,0,0,,,,,,,,,7/8 Mostly Cloudy,12000.0,,FEW,2500.0,BKN,12000.0,,,,
KRDR,04-05-2001,21:00,METAR,,,,,,9999,Cloud Development Not Observable,9.0,2.0,29.87,1012.5,,,,0,0,0,,,,,,,,,7/8 Mostly Cloudy,12000.0,,SCT,2500.0,BKN,12000.0,,,,
KRDR,04-05-2001,20:00,METAR,,260,3.0,,,9999,Cloud Development Not Observable,7.0,2.0,29.89,1013.2,,,,0,0,0,,,,,,,,,7/8 Mostly Cloudy,12000.0,,FEW,2000.0,SCT,3000.0,BKN,12000.0,,
KRDR,04-05-2001,19:00,METAR,,210,5.0,,,9999,Cloud Development Not Observable,6.0,2.0,29.91,1013.8,,,,0,0,0,,,,,,,,,8/8 Overcast,3000.0,,SCT,1800.0,BKN,3000.0,OVC,12000.0,,
KRDR,04-05-2001,18:00,METAR,,230,4.0,,,9999,Cloud Development Not Observable,5.0,1.0,29.94,1015.0,,,,0,0,0,,,,,,,,,8/8 Overcast,3000.0,,SCT,1800.0,BKN,3000.0,OVC,12000.0,,
KRDR,04-05-2001,17:00,METAR,,260,8.0,,,9999,Mist/Cloud Development Not Observable,4.0,1.0,29.96,1015.8,,,,10,0,0,,,,,,,,,8/8 Overcast,3000.0,,SCT,1800.0,BKN,3000.0,OVC,12000.0,,
KRDR,04-05-2001,16:00,METAR,,300,8.0,,,9999,Mist/Cloud Development Not Observable,4.0,0.0,29.97,1016.1,,,,10,0,0,,,,,,,,,8/8 Overcast,3000.0,,SCT,1500.0,BKN,3000.0,OVC,12000.0,,
KRDR,04-05-2001,15:46,SPECI,,290,8.0,,,9999,Mist/Cloud Development Not Observable,4.0,1.0,29.97,,,,,10,0,0,,,,,,,,,7/8 Mostly Cloudy,11000.0,,SCT,2000.0,BKN,11000.0,,,,
KRDR,04-05-2001,15:00,METAR,,290,11.0,,,6400,Mist/Cloud Development Not Observable,3.0,1.0,29.99,1016.8,,,,10,0,0,,,,,,,,,8/8 Overcast,2000.0,,BKN,2000.0,OVC,6900.0,,,,
KRDR,04-05-2001,14:00,METAR,,270,6.0,,,6400,Mist/Cloud Development Not Observable,3.0,2.0,29.99,1016.9,,,,10,0,0,,,,,,,,,8/8 Overcast,2000.0,,BKN,2000.0,OVC,6900.0,,,,
KRDR,04-05-2001,13:00,METAR,,240,4.0,,,6400,Mist/Cloud Development Not Observable,2.0,2.0,29.99,1016.9,,,,10,0,0,,,,,,,,,8/8 Overcast,2300.0,,BKN,2300.0,OVC,6900.0,,,,
KRDR,04-05-2001,12:00,METAR,,220,5.0,,,3200,Mist/Cloud Development Not Observable,2.0,2.0,30.01,1017.4,,,,10,0,0,,,,,,,,,8/8 Overcast,2500.0,,SCT,500.0,OVC,2500.0,,,,
KRDR,04-05-2001,11:25,METAR,,190,5.0,,,3200,Mist/Cloud Development Not Observable,2.0,2.0,30.01,,,,,10,0,0,,,,,,,,,7/8 Mostly Cloudy,2500.0,,SCT,500.0,BKN,2500.0,,,,
KRDR,04-05-2001,11:00,METAR,,210,4.0,,,2400,Mist/Cloud Development Not Observable,2.0,2.0,30.01,1017.4,,,,10,0,0,,,,,,,,,8/8 Overcast,500.0,,BKN,500.0,OVC,2500.0,,,,
KRDR,04-05-2001,10:00,METAR,,220,7.0,,,2400,Mist/Cloud Development Not Observable,2.0,2.0,30.03,1018.0,,,,10,0,0,,,,,,,,,8/8 Overcast,500.0,,BKN,500.0,OVC,2000.0,,,,
KRDR,04-05-2001,09:00,METAR,,190,6.0,,,2400,Mist/Cloud Development Not Observable,2.0,2.0,30.04,1018.4,,,,10,0,0,,,,,,,,,8/8 Overcast,500.0,,BKN,500.0,OVC,2000.0,,,,
KRDR,04-05-2001,08:00,METAR,,190,7.0,,,2400,Mist/Cloud Development Not Observable,2.0,2.0,30.05,1018.9,,,,10,0,0,,,,,,,,,8/8 Overcast,500.0,,BKN,500.0,OVC,1000.0,,,,
KRDR,04-05-2001,07:00,METAR,,180,6.0,,,2400,Mist/Cloud Development Not Observable,3.0,2.0,30.06,1019.3,,,,10,0,0,,,,,,,,,8/8 Overcast,500.0,,BKN,500.0,OVC,1500.0,,,,
KRDR,04-05-2001,06:00,METAR,,190,7.0,,,2400,Mist/Cloud Development Not Observable,3.0,2.0,30.06,1019.3,,,,10,0,0,,,,,,,,,8/8 Overcast,600.0,,SCT,300.0,OVC,600.0,,,,
KRDR,04-05-2001,05:18,SPECI,,180,8.0,,,2400,Mist/Cloud Development Not Observable,3.0,2.0,30.07,,,,,10,0,0,,,,,,,,,8/8 Overcast,600.0,,SCT,300.0,OVC,600.0,,,,
KRDR,04-05-2001,05:00,METAR,,180,8.0,,,3200,Drizzle/Mist/Cloud Development Not Observable,3.0,2.0,30.08,1020.0,,,,51,10,0,,,,,,,,,8/8 Overcast,600.0,,SCT,300.0,OVC,600.0,,,,
KRDR,04-05-2001,04:00,METAR,,170,11.0,,,3200,Drizzle/Mist/Cloud Development Not Observable,3.0,2.0,30.09,1020.2,,,,51,10,0,,,,,,,,,8/8 Overcast,600.0,,SCT,300.0,OVC,600.0,,,,
KRDR,04-05-2001,03:00,METAR,,170,13.0,,,3200,Drizzle/Mist/Cloud Development Not Observable,3.0,2.0,30.10,1020.5,,,,51,10,0,,,,,,,,,8/8 Overcast,600.0,,FEW,300.0,OVC,600.0,,,,
KRDR,04-05-2001,02:15,SPECI,,180,11.0,,,3200,Drizzle/Mist/Cloud Development Not Observable,3.0,2.0,30.12,,,,,51,10,0,,,,,,,,,8/8 Overcast,600.0,,FEW,300.0,OVC,600.0,,,,
KRDR,04-05-2001,02:00,METAR,,180,10.0,,,1600,Drizzle/Mist/Cloud Development Not Observable,3.0,2.0,30.11,1020.8,,,,51,10,0,,,,,,,,,8/8 Overcast,800.0,,FEW,400.0,OVC,800.0,,,,
KRDR,04-05-2001,01:00,METAR,,160,12.0,,,1600,Drizzle/Mist/Cloud Development Not Observable,3.0,2.0,30.12,1021.2,,,,51,10,0,,,,,,,,,8/8 Overcast,800.0,,FEW,400.0,OVC,800.0,,,,
KRDR,04-05-2001,00:55,METAR,,160,12.0,,,1600,Drizzle/Mist/Cloud Development Not Observable,3.0,2.0,30.12,1021.2,,,,51,10,0,,,,,,,,,8/8 Overcast,800.0,,FEW,400.0,OVC,800.0,,,,
KRDR,04-05-2001,00:40,SPECI,,160,12.0,,,1600,Drizzle/Mist/Cloud Development Not Observable,3.0,2.0,30.12,,,,,51,10,0,,,,,,,,,8/8 Overcast,900.0,,FEW,700.0,OVC,900.0,,,,
KRDR,04-05-2001,00:20,METAR,,150,11.0,,,2400,Mist/Cloud Development Not Observable,3.0,2.0,30.11,,,,,10,0,0,,,,,,,,,8/8 Overcast,1000.0,,FEW,700.0,OVC,1000.0,,,,
KRDR,04-05-2001,00:00,METAR,,140,12.0,,,4800,Mist/Cloud Development Not Observable,3.0,2.0,30.12,1021.1,,,,10,0,0,,,,,,,,,8/8 Overcast,2000.0,,SCT,1700.0,OVC,2000.0,,,,
KRDR,04-04-2001,23:21,SPECI,,150,8.0,,,4800,Mist/Cloud Development Not Observable,3.0,2.0,30.13,1021.4,,,,10,0,0,,,,,,,,,8/8 Overcast,2000.0,,BKN,2000.0,OVC,2500.0,,,,
KRDR,04-04-2001,23:00,METAR,,150,9.0,,,9999,Rain/Cloud Development Not Observable,3.0,2.0,30.13,1021.4,,,,61,0,0,,,,,,,,,8/8 Overcast,3100.0,,SCT,2500.0,OVC,3200.0,,,,
KRDR,04-04-2001,22:00,METAR,,140,13.0,,,8000,Rain/Cloud Development Not Observable,4.0,2.0,30.14,1021.9,,,,61,0,0,,,,,,,,,8/8 Overcast,3400.0,,SCT,2500.0,OVC,3500.0,,,,
KRDR,04-04-2001,21:00,METAR,,140,12.0,,,8000,Rain/Cloud Development Not Observable,4.0,2.0,30.15,1022.1,,,,61,0,0,,,,,,.01 IN,,,8/8 Overcast,6000.0,,FEW,2000.0,SCT,4000.0,OVC,5900.0,,
KRDR,04-04-2001,20:33,SPECI,,140,16.0,,,8000,Rain/Cloud Development Not Observable,5.0,2.0,30.15,,,,,61,0,0,,,,,,,,,8/8 Overcast,10000.0,,FEW,4000.0,SCT,5900.0,OVC,9900.0,,
KRDR,04-04-2001,20:00,METAR,,110,18.0,27.0,,9999,Mist/Cloud Development Not Observable,5.0,2.0,30.15,1022.2,,,,10,0,0,,,,,,,,,7/8 Mostly Cloudy,3900.0,,BKN,4000.0,BKN,12000.0,,,,
KRDR,04-04-2001,19:00,METAR,,100,13.0,,,9999,Mist/Cloud Development Not Observable,4.0,2.0,30.19,1023.6,,,,10,0,0,,,,,,,,,7/8 Mostly Cloudy,3900.0,,BKN,4000.0,BKN,12000.0,,,,
KRDR,04-04-2001,18:41,SPECI,,100,13.0,,,9999,Mist/Cloud Development Not Observable,4.0,2.0,30.20,,,,,10,0,0,,,,,,,,,8/8 Overcast,3900.0,,BKN,4000.0,OVC,12000.0,,,,
KRDR,04-04-2001,18:00,METAR,,90,11.0,,,6400,Rain/Mist/Cloud Development Not Observable,3.0,1.0,30.25,1025.6,,,,61,10,0,,,,,,,,,8/8 Overcast,4400.0,,BKN,4500.0,OVC,12000.0,,,,
KRDR,04-04-2001,17:00,METAR,,110,8.0,,,4800,Rain/Mist/Cloud Development Not Observable,2.0,1.0,30.29,1027.0,,,,61,10,0,,,,,,,,,8/8 Overcast,3000.0,,SCT,1500.0,BKN,3000.0,OVC,9900.0,,
KRDR,04-04-2001,16:06,SPECI,,100,5.0,,,4800,Rain/Mist/Cloud Development Not Observable,2.0,1.0,30.31,,,,,61,10,0,,,,,,,,,8/8 Overcast,3000.0,,SCT,1500.0,BKN,3000.0,OVC,9900.0,,
KRDR,04-04-2001,16:00,METAR,,130,7.0,,,8000,Rain/Cloud Development Not Observable,2.0,0.0,30.31,1027.5,,,,61,0,0,,,,,,,,,8/8 Overcast,4400.0,,SCT,2500.0,BKN,4500.0,OVC,9900.0,,
KRDR,04-04-2001,15:27,SPECI,,160,7.0,,,8000,Rain/Cloud Development Not Observable,2.0,0.0,30.31,,,,,61,0,0,,,,,,,,,8/8 Overcast,4400.0,,SCT,2500.0,BKN,4500.0,OVC,9900.0,,
KRDR,04-04-2001,15:05,SPECI,,180,12.0,,,8000,Light Snow/Rain/Cloud Development Not Observable,3.0,0.0,30.31,,,,,61,71,0,,,,,,,,,8/8 Overcast,10000.0,,SCT,2500.0,SCT,4500.0,OVC,9900.0,,
KRDR,04-04-2001,15:00,METAR,,160,11.0,,,9999,Rain/Cloud Development Not Observable,3.0,1.0,30.31,1027.4,,,,61,0,0,,,,,,,,,8/8 Overcast,10000.0,,SCT,2500.0,SCT,4500.0,OVC,9900.0,,
KRDR,04-04-2001,14:00,METAR,,60,6.0,,,9999,Rain/Cloud Development Not Observable,3.0,0.0,30.30,1027.1,,,,61,0,0,,,,,,,,,8/8 Overcast,4400.0,,SCT,2500.0,OVC,4500.0,,,,
KRDR,04-04-2001,13:00,METAR,,110,10.0,,,9999,Rain/Cloud Development Not Observable,4.0,1.0,30.30,1027.2,,,,61,0,0,,,,,,,,,8/8 Overcast,3900.0,,SCT,2500.0,BKN,4000.0,OVC,5900.0,,
KRDR,04-04-2001,12:15,SPECI,,140,12.0,,,9999,Rain/Cloud Development Not Observable,3.0,0.0,30.30,,,,,61,0,0,,,,,,,,,8/8 Overcast,3900.0,,SCT,2500.0,BKN,4000.0,OVC,5900.0,,
KRDR,04-04-2001,12:00,METAR,,180,10.0,,,9999,Rain/Cloud Development Not Observable,2.0,-1.0,30.31,1027.6,,,,61,0,0,,,,,,,,,8/8 Overcast,3900.0,,SCT,2500.0,BKN,4000.0,OVC,5900.0,,
KRDR,04-04-2001,11:46,SPECI,,190,10.0,,,9999,Rain/Cloud Development Not Observable,2.0,-1.0,30.31,,,,,61,0,0,,,,,,,,,8/8 Overcast,6000.0,,SCT,3000.0,OVC,5900.0,,,,
KRDR,04-04-2001,11:00,METAR,,100,8.0,,,9999,Cloud Development Not Observable,3.0,-2.0,30.29,1026.8,,,,0,0,0,,,,,,,,,8/8 Overcast,7000.0,,SCT,4000.0,OVC,6900.0,,,,
KRDR,04-04-2001,10:00,METAR,,100,3.0,,,9999,Cloud Development Not Observable,3.0,-1.0,30.31,1027.4,,,,0,0,0,,,,,,,,,8/8 Overcast,7000.0,,FEW,4000.0,BKN,6900.0,OVC,20000.0,,
KRDR,04-04-2001,09:00,METAR,,80,3.0,,,9999,Cloud Development Not Observable,3.0,-1.0,30.32,1027.9,,,,0,0,0,,,,,,,,,8/8 Overcast,7000.0,,SCT,4000.0,OVC,6900.0,,,,
KRDR,04-04-2001,08:00,METAR,,130,3.0,,,9999,Cloud Development Not Observable,3.0,-1.0,30.33,1028.1,,,,0,0,0,,,,,,,,,8/8 Overcast,7000.0,,SCT,4000.0,OVC,6900.0,,,,
KRDR,04-04-2001,07:00,METAR,,100,3.0,,,9999,Cloud Development Not Observable,3.0,-1.0,30.33,1028.1,,,,0,0,0,,,,,,,,,8/8 Overcast,7000.0,,SCT,4000.0,BKN,6900.0,OVC,20000.0,,
KRDR,04-04-2001,06:00,METAR,,90,4.0,,,9999,Cloud Development Not Observable,3.0,-1.0,30.32,1027.8,,,,0,0,0,,,,,,,,,8/8 Overcast,7000.0,,FEW,4000.0,BKN,6900.0,OVC,20000.0,,
KRDR,04-04-2001,05:00,METAR,,100,5.0,,,9999,Cloud Development Not Observable,4.0,0.0,30.31,1027.4,,,,0,0,0,,,,,,,,,8/8 Overcast,7000.0,,FEW,4000.0,BKN,6900.0,OVC,20000.0,,
KRDR,04-04-2001,04:00,METAR,,110,4.0,,,9999,Cloud Development Not Observable,4.0,0.0,30.32,1028.0,,,,0,0,0,,,,,,,,,8/8 Overcast,7000.0,,OVC,6900.0,,,,,,
KRDR,04-04-2001,03:00,METAR,,120,4.0,,,9999,Cloud Development Not Observable,5.0,0.0,30.32,1027.8,,,,0,0,0,,,,,,,,,8/8 Overcast,7000.0,,BKN,6900.0,OVC,9900.0,,,,
KRDR,04-04-2001,02:00,METAR,,140,5.0,,,9999,Cloud Development Not Observable,5.0,0.0,30.30,1027.4,,,,0,0,0,,,,,,,,,8/8 Overcast,7000.0,,OVC,6900.0,,,,,,
KRDR,04-04-2001,01:00,METAR,,140,3.0,,,9999,Cloud Development Not Observable,6.0,0.0,30.30,1027.6,,,,0,0,0,,,,,,,,,8/8 Overcast,7000.0,,OVC,6900.0,,,,,,
KRDR,04-04-2001,00:00,METAR,,150,4.0,,,9999,Cloud Development Not Observable,7.0,-1.0,30.28,1026.7,,,,0,0,0,,,,,,,,,7/8 Mostly Cloudy,7000.0,,BKN,6900.0,,,,,,
KRDR,04-03-2001,23:00,METAR,,120,7.0,,,9999,Cloud Development Not Observable,7.0,-3.0,30.28,1026.7,,,,0,0,0,,,,,,,,,8/8 Overcast,7000.0,,OVC,6900.0,,,,,,
KRDR,04-03-2001,22:00,METAR,,120,10.0,,,9999,Cloud Development Not Observable,7.0,-3.0,30.27,1027.0,,,,0,0,0,,,,,,,,,8/8 Overcast,9000.0,,BKN,8900.0,OVC,20000.0,,,,
KRDR,04-03-2001,21:00,METAR,,150,9.0,,,9999,Cloud Development Not Observable,7.0,-3.0,30.29,1027.0,,,,0,0,0,,,,,,,,,8/8 Overcast,9000.0,,OVC,8900.0,,,,,,
KRDR,04-03-2001,20:00,METAR,,100,11.0,,,9999,Cloud Development Not Observable,7.0,-2.0,30.30,1027.2,,,,0,0,0,,,,,,,,,7/8 Mostly Cloudy,9000.0,,BKN,8900.0,BKN,20000.0,,,,
KRDR,04-03-2001,19:00,METAR,,100,7.0,,,9999,Cloud Development Not Observable,7.0,-3.0,30.30,1027.2,,,,0,0,0,,,,,,,,,7/8 Mostly Cloudy,11000.0,,BKN,11000.0,BKN,20000.0,,,,
KRDR,04-03-2001,18:00,METAR,,90,5.0,,,9999,Cloud Development Not Observable,6.0,-2.0,30.30,1027.2,,,,0,0,0,,,,,,,,,7/8 Mostly Cloudy,11000.0,,BKN,11000.0,BKN,20000.0,,,,
KRDR,04-03-2001,17:00,METAR,,110,3.0,,,9999,Cloud Development Not Observable,4.0,-2.0,30.29,1026.9,,,,0,0,0,,,,,,,,,8/8 Overcast,11000.0,,BKN,11000.0,OVC,20000.0,,,,
KRDR,04-03-2001,16:00,METAR,,150,6.0,,,9999,Cloud Development Not Observable,4.0,-2.0,30.25,1025.6,,,,0,0,0,,,,,,,,,8/8 Overcast,11000.0,,BKN,11000.0,OVC,20000.0,,,,
KRDR,04-03-2001,15:00,METAR,,100,6.0,,,9999,Cloud Development Not Observable,3.0,-1.0,30.23,1025.0,,,,0,0,0,,,,,,,,,7/8 Mostly Cloudy,20000.0,,SCT,11000.0,BKN,20000.0,,,,
KRDR,04-03-2001,14:00,METAR,,30,3.0,,,9999,Cloud Development Not Observable,0.0,-1.0,30.23,1025.2,,,,0,0,0,,,,,,,,,8/8 Overcast,10000.0,,BKN,9900.0,OVC,20000.0,,,,
KRDR,04-03-2001,13:00,METAR,,30,3.0,,,9999,Cloud Development Not Observable,-2.0,-2.0,30.22,1024.8,,,,0,0,0,,,,,,,,,8/8 Overcast,20000.0,,SCT,7900.0,OVC,20000.0,,,,
KRDR,04-03-2001,12:00,METAR,,,,,,9999,Cloud Development Not Observable,-2.0,-2.0,30.21,1024.5,,,,0,0,0,,,,,,,,,7/8 Mostly Cloudy,20000.0,,SCT,9900.0,BKN,20000.0,,,,
KRDR,04-03-2001,11:00,METAR,,340,4.0,,,9999,Cloud Development Not Observable,-2.0,-2.0,30.22,1024.6,,,,0,0,0,,,,,,,,,7/8 Mostly Cloudy,20000.0,,FEW,9900.0,BKN,20000.0,,,,
KRDR,04-03-2001,10:00,METAR,,,,,,9999,Cloud Development Not Observable,-2.0,-2.0,30.18,1023.2,,,,0,0,0,,,,,,,,,7/8 Mostly Cloudy,20000.0,,FEW,9900.0,BKN,20000.0,,,,
KRDR,04-03-2001,09:00,METAR,,,,,,9999,Cloud Development Not Observable,-1.0,-2.0,30.17,1022.8,,,,0,0,0,,,,,,,,,7/8 Mostly Cloudy,20000.0,,FEW,9900.0,BKN,20000.0,,,,
KRDR,04-03-2001,08:00,METAR,,60,7.0,,,9999,Cloud Development Not Observable,0.0,-1.0,30.15,1022.1,,,,0,0,0,,,,,,,,,4/8 Partly Cloudy,72000.0,,FEW,9900.0,SCT,20000.0,,,,
KRDR,04-03-2001,07:00,METAR,,50,9.0,,,9999,Cloud Development Not Observable,0.0,-1.0,30.14,1021.9,,,,0,0,0,,,,,,,,,4/8 Partly Cloudy,72000.0,,FEW,9900.0,SCT,20000.0,,,,
KRDR,04-03-2001,06:00,METAR,,50,8.0,,,9999,Cloud Development Not Observable,0.0,-1.0,30.13,1021.5,,,,0,0,0,,,,,,,,,4/8 Partly Cloudy,72000.0,,FEW,9900.0,SCT,20000.0,,,,
KRDR,04-03-2001,05:00,METAR,,50,9.0,,,9999,Cloud Development Not Observable,0.0,-1.0,30.12,1021.3,,,,0,0,0,,,,,,,,,4/8 Partly Cloudy,72000.0,,FEW,9900.0,SCT,20000.0,,,,
KRDR,04-03-2001,04:00,METAR,,40,7.0,,,9999,Cloud Development Not Observable,0.0,-2.0,30.12,1021.3,,,,0,0,0,,,,,,,,,4/8 Partly Cloudy,72000.0,,SCT,9900.0,SCT,20000.0,,,,
KRDR,04-03-2001,03:00,METAR,,40,7.0,,,9999,Cloud Development Not Observable,1.0,-3.0,30.11,1021.0,,,,0,0,0,,,,,,,,,4/8 Partly Cloudy,72000.0,,FEW,9900.0,SCT,20000.0,,,,
KRDR,04-03-2001,02:00,METAR,,,,,,9999,Cloud Development Not Observable,2.0,-2.0,30.09,1020.1,,,,0,0,0,,,,,,,,,,72000.0,,FEW,4000.0,FEW,20000.0,,,,
KRDR,04-03-2001,01:00,METAR,,50,7.0,,,9999,Cloud Development Not Observable,5.0,-2.0,30.06,1019.0,,,,0,0,0,,,,,,,,,2/8 Mostly Clear,72000.0,,FEW,4000.0,FEW,20000.0,,,,
KRDR,04-03-2001,00:00,METAR,,70,9.0,,,9999,Cloud Development Not Observable,5.0,-2.0,30.05,1019.1,,,,0,0,0,,,,,,,,,2/8 Mostly Clear,72000.0,,FEW,3000.0,FEW,20000.0,,,,
KRDR,04-02-2001,23:00,METAR,,70,10.0,,,9999,Cloud Development Not Observable,6.0,-3.0,30.06,1019.2,,,,0,0,0,,,,,,,,,4/8 Partly Cloudy,72000.0,,SCT,3500.0,SCT,20000.0,,,,
KRDR,04-02-2001,22:00,METAR,,60,8.0,,,9999,Cloud Development Not Observable,6.0,-3.0,30.06,1019.2,,,,0,0,0,,,,,,,,,4/8 Partly Cloudy,72000.0,,SCT,4000.0,,,,,,
KRDR,04-02-2001,21:00,METAR,,30,9.0,,,9999,Cloud Development Not Observable,6.0,-3.0,30.06,1019.2,,,,0,0,0,,,,,,,,,7/8 Mostly Cloudy,3900.0,,BKN,4000.0,,,,,,
KRDR,04-02-2001,20:00,METAR,,,,,,9999,Cloud Development Not Observable,7.0,-4.0,30.06,1019.1,,,,0,0,0,,,,,,,,,7/8 Mostly Cloudy,3900.0,,BKN,4000.0,,,,,,
KRDR,04-02-2001,19:00,METAR,,40,7.0,12.0,,9999,Cloud Development Not Observable,7.0,-4.0,30.06,1019.1,,,,0,0,0,,,,,,,,,4/8 Partly Cloudy,72000.0,,SCT,4000.0,,,,,,
KRDR,04-02-2001,18:00,METAR,,20,8.0,,,9999,Cloud Development Not Observable,6.0,-3.0,30.05,1018.9,,,,0,0,0,,,,,,,,,4/8 Partly Cloudy,72000.0,,SCT,3500.0,,,,,,
KRDR,04-02-2001,17:00,METAR,,360,9.0,,,9999,Cloud Development Not Observable,4.0,-3.0,30.04,1017.9,,,,0,0,0,,,,,,,,,4/8 Partly Cloudy,72000.0,,SCT,3500.0,,,,,,
KRDR,04-02-2001,16:00,METAR,,30,8.0,,,9999,Cloud Development Not Observable,3.0,-2.0,30.02,1018.0,,,,0,0,0,,,,,,,,,2/8 Mostly Clear,72000.0,,FEW,5400.0,,,,,,
KRDR,04-02-2001,15:00,METAR,,350,8.0,,,9999,Cloud Development Not Observable,1.0,-2.0,30.01,1017.7,,,,0,0,0,,,,,,,,,2/8 Mostly Clear,72000.0,,FEW,5400.0,,,,,,
KRDR,04-02-2001,14:00,METAR,,320,9.0,,,9999,Cloud Development Not Observable,0.0,-2.0,30.02,1017.9,,,,0,0,0,,,,,,,,,2/8 Mostly Clear,72000.0,,FEW,5400.0,,,,,,
KRDR,04-02-2001,13:00,METAR,,300,9.0,,,9999,Cloud Development Not Observable,-2.0,-3.0,30.00,1017.5,,,,0,0,0,,,,,,,,,4/8 Partly Cloudy,72000.0,,SCT,2000.0,SCT,5400.0,,,,
KRDR,04-02-2001,12:00,METAR,,320,7.0,,,9999,Cloud Development Not Observable,-3.0,-3.0,29.98,1016.5,,,,0,0,0,,,,,,,,,4/8 Partly Cloudy,72000.0,,SCT,2000.0,SCT,5400.0,,,,
KRDR,04-02-2001,11:00,METAR,,320,7.0,,,9999,Cloud Development Not Observable,-2.0,-3.0,29.95,1015.5,,,,0,0,0,,,,,,,,,7/8 Mostly Cloudy,5500.0,,FEW,2000.0,BKN,5400.0,,,,
KRDR,04-02-2001,10:00,METAR,,330,6.0,,,9999,Cloud Development Not Observable,-1.0,-2.0,29.93,1015.0,,,,0,0,0,,,,,,,,,7/8 Mostly Cloudy,5500.0,,SCT,3000.0,BKN,5400.0,,,,
KRDR,04-02-2001,09:00,METAR,,320,6.0,,,9999,Cloud Development Not Observable,-1.0,-2.0,29.91,1014.4,,,,0,0,0,,,,,,,,,7/8 Mostly Cloudy,5500.0,,FEW,2000.0,BKN,5400.0,,,,
KRDR,04-02-2001,08:00,METAR,,340,10.0,,,9999,Cloud Development Not Observable,0.0,-2.0,29.90,1013.7,,,,0,0,0,,,,,,,,,8/8 Overcast,5500.0,,FEW,2000.0,OVC,5400.0,,,,
KRDR,04-02-2001,07:00,METAR,,340,10.0,,,9999,Cloud Development Not Observable,0.0,-2.0,29.89,1013.6,,,,0,0,0,,,,,,,,,8/8 Overcast,5500.0,,FEW,2000.0,OVC,5400.0,,,,
KRDR,04-02-2001,06:00,METAR,,310,8.0,,,9999,Cloud Development Not Observable,0.0,-2.0,29.89,1013.4,,,,0,0,0,,,,,,,,,8/8 Overcast,3900.0,,SCT,2000.0,BKN,4000.0,OVC,5400.0,,
KRDR,04-02-2001,05:31,SPECI,,320,9.0,,,9999,Cloud Development Not Observable,0.0,-2.0,29.88,,,,,0,0,0,,,,,,,,,8/8 Overcast,4400.0,,SCT,2000.0,OVC,4500.0,,,,
KRDR,04-02-2001,05:00,METAR,,320,8.0,,,9999,Cloud Development Not Observable,0.0,-2.0,29.88,1013.0,,,,0,0,0,,,,,,,,,8/8 Overcast,2000.0,,BKN,2000.0,OVC,4500.0,,,,
KRDR,04-02-2001,04:00,METAR,,340,9.0,,,9999,Cloud Development Not Observable,0.0,-2.0,29.86,1012.5,,,,0,0,0,,,,,,,,,8/8 Overcast,2000.0,,FEW,1200.0,BKN,2000.0,OVC,4500.0,,
KRDR,04-02-2001,03:00,METAR,,340,8.0,,,9999,Cloud Development Not Observable,0.0,-2.0,29.84,1011.9,,,,0,0,0,,,,,,,,,8/8 Overcast,2200.0,,FEW,1200.0,BKN,2200.0,OVC,4500.0,,
KRDR,04-02-2001,02:35,SPECI,,330,6.0,,,9999,Cloud Development Not Observable,0.0,-2.0,29.84,,,,,0,0,0,,,,,,,,,8/8 Overcast,2200.0,,FEW,1200.0,BKN,2200.0,OVC,4500.0,,
KRDR,04-02-2001,02:00,METAR,,330,5.0,,,9999,Cloud Development Not Observable,0.0,-2.0,29.83,1011.4,,,,0,0,0,,,,,,,,,8/8 Overcast,3900.0,,FEW,1500.0,OVC,4000.0,,,,
KRDR,04-02-2001,01:00,METAR,,330,9.0,,,9999,Cloud Development Not Observable,0.0,-2.0,29.81,1010.9,,,,0,0,0,,,,,,,,,8/8 Overcast,3400.0,,FEW,2500.0,OVC,3500.0,,,,
KRDR,04-02-2001,00:00,METAR,,330,6.0,,,9999,Cloud Development Not Observable,1.0,-2.0,29.79,1010.2,,,,0,0,0,,,,,,,,,8/8 Overcast,3400.0,,SCT,2200.0,OVC,3500.0,,,,
KRDR,04-01-2001,23:21,SPECI,,310,6.0,,,9999,Cloud Development Not Observable,1.0,-2.0,29.78,,,,,0,0,0,,,,,,,,,8/8 Overcast,3600.0,,SCT,2200.0,OVC,3700.0,,,,
KRDR,04-01-2001,23:00,METAR,,330,7.0,,,9999,Light Snow/Cloud Development Not Observable,1.0,-3.0,29.77,1009.5,,,,71,0,0,,,,,,,,,8/8 Overcast,3300.0,,SCT,2200.0,OVC,3400.0,,,,
KRDR,04-01-2001,22:00,METAR,,350,7.0,,,9999,Cloud Development Not Observable,2.0,-3.0,29.75,1008.8,,,,0,0,0,,,,,,,,,8/8 Overcast,3400.0,,SCT,2200.0,OVC,3500.0,,,,
KRDR,04-01-2001,21:00,METAR,,320,10.0,,,9999,Cloud Development Not Observable,2.0,-3.0,29.74,1008.3,,,,0,0,0,,,,,,,,,8/8 Overcast,3400.0,,SCT,2500.0,OVC,3500.0,,,,
KRDR,04-01-2001,20:40,SPECI,,350,9.0,,,9999,Cloud Development Not Observable,2.0,-2.0,29.74,,,,,0,0,0,,,,,,,,,8/8 Overcast,3400.0,,SCT,2500.0,OVC,3500.0,,,,
KRDR,04-01-2001,20:00,METAR,,300,8.0,,,9999,Light Snow/Cloud Development Not Observable,2.0,-2.0,29.73,1008.1,,,,71,0,0,,,,,,,,,8/8 Overcast,3900.0,,SCT,2000.0,OVC,4000.0,,,,
KRDR,04-01-2001,19:00,METAR,,300,10.0,,,9999,Light Snow/Cloud Development Not Observable,1.0,-2.0,29.73,1008.1,,,,71,0,0,,,,,,,,,8/8 Overcast,3900.0,,SCT,2000.0,OVC,4000.0,,,,
KRDR,04-01-2001,18:00,METAR,,290,10.0,,,9999,Light Snow/Cloud Development Not Observable,0.0,-3.0,29.73,1008.0,,,,71,0,0,,,,,,,,,8/8 Overcast,3400.0,,SCT,2000.0,OVC,3500.0,,,,
KRDR,04-01-2001,17:00,METAR,,300,13.0,,,9999,Light Snow/Cloud Development Not Observable,0.0,-3.0,29.72,1007.7,,,,71,0,0,,,,,,,,,8/8 Overcast,3400.0,,SCT,2000.0,OVC,3500.0,,,,
KRDR,04-01-2001,16:00,METAR,,280,13.0,,,9999,Light Snow/Cloud Development Not Observable,-1.0,-4.0,29.72,1007.8,,,,71,0,0,,,,,,,,,8/8 Overcast,3400.0,,SCT,1500.0,OVC,3500.0,,,,
KRDR,04-01-2001,15:00,METAR,,290,12.0,,,9999,Light Snow/Cloud Development Not Observable,-1.0,-3.0,29.71,1007.4,,,,71,0,0,,,,,,,,,8/8 Overcast,3400.0,,SCT,1200.0,OVC,3500.0,,,,
KRDR,04-01-2001,14:40,SPECI,,280,12.0,,,9999,Light Snow/Cloud Development Not Observable,-1.0,-3.0,29.71,,,,,71,0,0,,,,,,,,,8/8 Overcast,3400.0,,SCT,1200.0,OVC,3500.0,,,,
KRDR,04-01-2001,14:00,METAR,,280,9.0,,,9999,Cloud Development Not Observable,-1.0,-3.0,29.71,1007.2,,,,0,0,0,,,,,,,,,8/8 Overcast,3400.0,,SCT,1500.0,OVC,3500.0,,,,
KRDR,04-01-2001,13:00,METAR,,270,8.0,,,9999,Cloud Development Not Observable,-1.0,-3.0,29.70,1006.9,,,,0,0,0,,,,,,,,,8/8 Overcast,3400.0,,SCT,1500.0,OVC,3500.0,,,,
KRDR,04-01-2001,12:00,METAR,,300,9.0,,,9999,Cloud Development Not Observable,-1.0,-3.0,29.68,1006.5,,,,0,0,0,,,,,,,,,8/8 Overcast,3400.0,,FEW,1000.0,BKN,3500.0,OVC,5900.0,,
KRDR,04-01-2001,11:00,METAR,,290,10.0,,,9999,Cloud Development Not Observable,-1.0,-4.0,29.68,1006.4,,,,0,0,0,,,,,,,,,8/8 Overcast,3500.0,,SCT,1000.0,OVC,3600.0,,,,
KRDR,04-01-2001,10:00,METAR,,290,12.0,,,9999,Cloud Development Not Observable,-1.0,-4.0,29.68,1006.4,,,,0,0,0,,,,,,,,,8/8 Overcast,3500.0,,FEW,1000.0,BKN,3600.0,OVC,9900.0,,
KRDR,04-01-2001,09:00,METAR,,280,17.0,,,9999,Cloud Development Not Observable,-1.0,-5.0,29.68,1006.2,,,,0,0,0,,,,,,,,,7/8 Mostly Cloudy,5500.0,,SCT,2000.0,BKN,5400.0,BKN,9900.0,,
KRDR,04-01-2001,08:00,METAR,,280,13.0,,,9999,Cloud Development Not Observable,-1.0,-5.0,29.69,1006.6,,,,0,0,0,,,,,,,,,7/8 Mostly Cloudy,5500.0,,SCT,2000.0,BKN,5400.0,BKN,9900.0,,
KRDR,04-01-2001,07:00,METAR,,280,13.0,,,9999,Cloud Development Not Observable,-1.0,-4.0,29.69,1006.8,,,,0,0,0,,,,,,,,,7/8 Mostly Cloudy,5500.0,,SCT,2000.0,BKN,5400.0,BKN,9900.0,,
KRDR,04-01-2001,06:00,METAR,,280,12.0,,,9999,Cloud Development Not Observable,-2.0,-4.0,29.69,1006.8,,,,0,0,0,,,,,,,,,7/8 Mostly Cloudy,5500.0,,SCT,3000.0,BKN,5400.0,BKN,9900.0,,
KRDR,04-01-2001,05:37,SPECI,,290,13.0,,,9999,Cloud Development Not Observable,-2.0,-4.0,29.69,,,,,0,0,0,,,,,,,,,7/8 Mostly Cloudy,3100.0,,FEW,2000.0,BKN,3200.0,BKN,5400.0,,
KRDR,04-01-2001,05:00,METAR,,280,11.0,,,9999,Light Snow Showers/Cloud Development Not Observable,-1.0,-3.0,29.70,1007.1,,,,85,0,0,,,,,,,,,7/8 Mostly Cloudy,3400.0,,FEW,2000.0,BKN,3500.0,BKN,5400.0,,
KRDR,04-01-2001,04:00,METAR,,290,14.0,,,6400,Light Snow Showers/Cloud Development Not Observable,-1.0,-3.0,29.72,1007.7,,,,85,0,0,,,,,,,,,8/8 Overcast,5500.0,,SCT,2500.0,BKN,5400.0,OVC,9900.0,,
KRDR,04-01-2001,03:00,METAR,,290,18.0,23.0,,9999,Light Snow Showers/Cloud Development Not Observable,0.0,-4.0,29.73,1007.9,,,,85,0,0,,,,,,,,,8/8 Overcast,5500.0,,SCT,2500.0,OVC,5400.0,,,,
KRDR,04-01-2001,02:31,SPECI,,290,13.0,,,9999,Light Snow Showers/Cloud Development Not Observable,0.0,-4.0,29.73,,,,,85,0,0,,,,,,,,,8/8 Overcast,3400.0,,SCT,2500.0,BKN,3500.0,OVC,7900.0,,
KRDR,04-01-2001,02:00,METAR,,280,14.0,,,9999,Cloud Development Not Observable,0.0,-4.0,29.73,1007.9,,,,0,0,0,,,,,,,,,8/8 Overcast,8000.0,,SCT,3500.0,BKN,7900.0,OVC,20000.0,,
KRDR,04-01-2001,01:00,METAR,,280,16.0,,,9999,Cloud Development Not Observable,0.0,-5.0,29.74,1008.3,,,,0,0,0,,,,,,,,,8/8 Overcast,20000.0,,FEW,3000.0,SCT,7900.0,OVC,20000.0,,
KRDR,04-01-2001,00:00,METAR,,290,14.0,,280/25KTS,9999,Cloud Development Not Observable,1.0,-5.0,29.75,1008.6,,,,0,0,0,,,,,,,,,8/8 Overcast,8000.0,,SCT,3000.0,BKN,7900.0,OVC,20000.0,,
KRDR,03-31-2001,23:00,METAR,,290,18.0,25.0,,9999,Cloud Development Not Observable,1.0,-4.0,29.75,1008.8,,,,0,0,0,,,,,,,,,8/8 Overcast,8000.0,,SCT,3000.0,OVC,7900.0,,,,
KRDR,03-31-2001,22:00,METAR,,280,21.0,26.0,290/30KTS,9999,Cloud Development Not Observable,1.0,-5.0,29.75,1008.6,,,,0,0,0,,,,,,,,,8/8 Overcast,8000.0,,FEW,2500.0,SCT,4500.0,OVC,7900.0,,
KRDR,03-31-2001,21:00,METAR,,280,20.0,29.0,280/31KTS,9999,Cloud Development Not Observable,2.0,-4.0,29.75,1008.6,,,,0,0,0,,,,,,,,,8/8 Overcast,4400.0,,SCT,2500.0,OVC,4500.0,,,,
KRDR,03-31-2001,20:32,SPECI,,290,22.0,28.0,,9999,Cloud Development Not Observable,2.0,-4.0,29.75,,,,,0,0,0,,,,,,,,,8/8 Overcast,4400.0,,SCT,2500.0,OVC,4500.0,,,,
KRDR,03-31-2001,20:00,METAR,,280,24.0,32.0,,9999,Light Snow/Cloud Development Not Observable,1.0,-5.0,29.75,1008.7,,,,71,0,0,,,,,,,,,8/8 Overcast,4400.0,,SCT,2500.0,OVC,4500.0,,,,
KRDR,03-31-2001,19:00,METAR,,300,25.0,34.0,,9999,Light Snow/Cloud Development Not Observable,2.0,-4.0,29.77,1009.2,,,,71,0,0,,,,,,,,,8/8 Overcast,4400.0,,SCT,2500.0,OVC,4500.0,,,,
KRDR,03-31-2001,18:00,METAR,,290,24.0,30.0,280/34KTS,9999,Cloud Development Not Observable,1.0,-4.0,29.77,1009.3,,,,0,0,0,,,,,,,,,8/8 Overcast,4400.0,,SCT,2500.0,OVC,4500.0,,,,
KRDR,03-31-2001,16:00,METAR,,280,22.0,32.0,,9999,Cloud Development Not Observable,0.0,-5.0,29.76,1009.1,,,,0,0,0,,,,,,,,,7/8 Mostly Cloudy,4900.0,,BKN,5000.0,,,,,,
KRDR,03-31-2001,15:00,METAR,,290,21.0,29.0,280/31KTS,9999,Cloud Development Not Observable,0.0,-5.0,29.76,1009.1,,,,0,0,0,,,,,,,,,7/8 Mostly Cloudy,4900.0,,BKN,5000.0,,,,,,
KRDR,03-31-2001,14:00,METAR,,290,21.0,30.0,,9999,Cloud Development Not Observable,-1.0,-6.0,29.77,1009.3,,,,0,0,0,,,,,,,,,7/8 Mostly Cloudy,4400.0,,BKN,4500.0,,,,,,
KRDR,03-31-2001,13:00,METAR,,280,19.0,29.0,,9999,Cloud Development Not Observable,-1.0,-6.0,29.78,1009.7,,,,0,0,0,,,,,,,,,4/8 Partly Cloudy,72000.0,,FEW,1000.0,SCT,5000.0,,,,
KRDR,03-31-2001,12:00,METAR,,290,18.0,26.0,,9999,Cloud Development Not Observable,0.0,-5.0,29.77,1009.4,,,,0,0,0,,,,,,,,,4/8 Partly Cloudy,72000.0,,FEW,1000.0,SCT,4000.0,,,,
KRDR,03-31-2001,11:00,METAR,,290,22.0,27.0,,9999,Cloud Development Not Observable,0.0,-4.0,29.77,1009.3,,,,0,0,0,,,,,,,,,4/8 Partly Cloudy,72000.0,,FEW,1000.0,SCT,3000.0,,,,
KRDR,03-31-2001,10:00,METAR,,280,19.0,,290/27KTS,9999,Cloud Development Not Observable,1.0,-3.0,29.76,1009.0,,,,0,0,0,,,,,,,,,4/8 Partly Cloudy,72000.0,,FEW,1000.0,SCT,3000.0,,,,
KRDR,03-31-2001,09:00,METAR,,280,17.0,23.0,,9999,Cloud Development Not Observable,1.0,-2.0,29.76,1009.0,,,,0,0,0,,,,,,,,,4/8 Partly Cloudy,72000.0,,FEW,1000.0,SCT,3000.0,,,,
KRDR,03-31-2001,08:00,METAR,,280,14.0,,,9999,Cloud Development Not Observable,1.0,-2.0,29.76,1009.1,,,,0,0,0,,,,,,,,,7/8 Mostly Cloudy,4900.0,,FEW,1000.0,SCT,2500.0,BKN,5000.0,,
KRDR,03-31-2001,07:00,METAR,,290,19.0,24.0,290/27KTS,9999,Cloud Development Not Observable,2.0,-1.0,29.76,1008.9,,,,0,0,0,,,,,,,,,7/8 Mostly Cloudy,4900.0,,FEW,1000.0,SCT,2300.0,BKN,5000.0,,
KRDR,03-31-2001,06:28,SPECI,,290,21.0,27.0,,9999,Cloud Development Not Observable,2.0,-2.0,29.76,,,,,0,0,0,,,,,,,,,7/8 Mostly Cloudy,4900.0,,FEW,1000.0,SCT,2300.0,BKN,5000.0,,
KRDR,03-31-2001,06:00,METAR,,290,18.0,23.0,,9999,Cloud Development Not Observable,2.0,-1.0,29.76,1008.9,,,,0,0,0,,,,,,,,,7/8 Mostly Cloudy,2300.0,,FEW,1000.0,BKN,2300.0,,,,
KRDR,03-31-2001,05:00,METAR,,280,17.0,24.0,,9999,Cloud Development Not Observable,2.0,0.0,29.76,1008.9,,,,0,0,0,,,,,,,,,8/8 Overcast,1500.0,,FEW,1000.0,OVC,1500.0,,,,
KRDR,03-31-2001,03:55,METAR,,190,12.0,,,9999,Cloud Development Not Observable,2.0,1.0,29.75,1008.6,,,,0,0,0,,,,,,,,,8/8 Overcast,1500.0,,FEW,1000.0,OVC,1500.0,,,,
KRDR,03-31-2001,03:30,METAR,,190,12.0,,,9999,Mist/Cloud Development Not Observable,2.0,1.0,29.76,,,,,10,0,0,,,,,,,,,8/8 Overcast,1600.0,,FEW,1000.0,OVC,1600.0,,,,
KRDR,03-31-2001,03:00,METAR,,190,13.0,,,6400,Light Rain Showers/Mist/Cloud Development Not Observable,1.0,0.0,29.76,1008.9,,,,80,10,0,,,,,,,,,8/8 Overcast,1000.0,,FEW,800.0,OVC,1000.0,,,,
KRDR,03-31-2001,02:40,SPECI,,190,16.0,,,6400,Light Rain Showers/Mist/Cloud Development Not Observable,1.0,0.0,29.76,,,,,80,10,0,,,,,,,,,8/8 Overcast,1200.0,,FEW,800.0,OVC,1200.0,,,,
KRDR,03-31-2001,02:00,METAR,,180,15.0,,,9999,Light Rain Showers/Mist/Cloud Development Not Observable,1.0,0.0,29.75,1008.7,,,,80,10,0,,,,,,,,,8/8 Overcast,2100.0,,SCT,1200.0,OVC,2100.0,,,,
KRDR,03-31-2001,01:38,SPECI,,180,17.0,,,8000,Light Rain Showers/Mist/Cloud Development Not Observable,2.0,1.0,29.75,,,,,80,10,0,,,,,,,,,8/8 Overcast,2200.0,,FEW,1200.0,BKN,2200.0,OVC,4000.0,,
KRDR,03-31-2001,01:14,SPECI,,180,16.0,,,6400,Light Rain Showers/Mist/Cloud Development Not Observable,2.0,0.0,29.75,,,,,80,10,0,,,,,,,,,8/8 Overcast,3900.0,,FEW,1200.0,SCT,2500.0,OVC,4000.0,,
KRDR,03-31-2001,01:00,METAR,,150,16.0,,,8000,Light Rain Showers/Mist/Cloud Development Not Observable,2.0,1.0,29.74,1008.4,,,,80,10,0,,,,,,,,,8/8 Overcast,2500.0,,SCT,1200.0,OVC,2500.0,,,,
KRDR,03-31-2001,00:39,SPECI,,170,17.0,,,8000,Light Rain Showers/Mist/Cloud Development Not Observable,2.0,1.0,29.75,,,,,80,10,0,,,,,,,,,8/8 Overcast,2500.0,,SCT,1200.0,OVC,2500.0,,,,
KRDR,03-31-2001,00:00,METAR,,170,16.0,,,9999,Rain/Cloud Development Not Observable,2.0,1.0,29.76,1008.9,,,,61,0,0,,,,,,,,,8/8 Overcast,2700.0,,SCT,1200.0,BKN,2700.0,OVC,5900.0,,
KRDR,03-30-2001,23:00,METAR,,170,16.0,23.0,,9999,Light Rain Showers/Cloud Development Not Observable,3.0,1.0,29.76,1009.0,,,,80,0,0,,,,,,,,,8/8 Overcast,2500.0,,SCT,1200.0,BKN,2500.0,OVC,5900.0,,
KRDR,03-30-2001,22:17,SPECI,,170,16.0,,,9999,Light Rain Showers/Mist/Cloud Development Not Observable,3.0,0.0,29.77,,,,,80,10,0,,,,,,,,,8/8 Overcast,2500.0,,SCT,1300.0,OVC,2500.0,,,,
KRDR,03-30-2001,22:00,METAR,,180,17.0,24.0,160/25KTS,9999,Mist/Cloud Development Not Observable,3.0,0.0,29.78,1009.7,,,,10,0,0,,,,,,,,,8/8 Overcast,2500.0,,SCT,1400.0,OVC,2500.0,,,,
KRDR,03-30-2001,21:00,METAR,,180,19.0,,160/25KTS,9999,Mist/Cloud Development Not Observable,3.0,0.0,29.79,1010.1,,,,10,0,0,,,,,,,,,8/8 Overcast,2500.0,,SCT,1400.0,OVC,2500.0,,,,
KRDR,03-30-2001,20:00,METAR,,150,19.0,24.0,,9999,Mist/Cloud Development Not Observable,3.0,0.0,29.77,1009.3,,,,10,0,0,,,,,,,,,8/8 Overcast,2500.0,,SCT,1200.0,OVC,2500.0,,,,
KRDR,03-30-2001,19:00,METAR,,160,14.0,,,8000,Mist/Cloud Development Not Observable,3.0,0.0,29.80,1010.4,,,,10,0,0,,,,,,,,,8/8 Overcast,2800.0,,SCT,1000.0,OVC,2800.0,,,,
KRDR,03-30-2001,18:00,METAR,,160,18.0,22.0,,6400,Mist/Cloud Development Not Observable,3.0,1.0,29.81,1010.6,,,,10,0,0,,,,,,,,,8/8 Overcast,2800.0,,SCT,1000.0,OVC,2800.0,,,,
KRDR,03-30-2001,17:00,METAR,,160,14.0,,,6400,Mist/Cloud Development Not Observable,3.0,1.0,29.82,1010.9,,,,10,0,0,,,,,,,,,8/8 Overcast,2800.0,,SCT,1000.0,OVC,2800.0,,,,
KRDR,03-30-2001,16:00,METAR,,160,12.0,,,9999,Cloud Development Not Observable,3.0,1.0,29.82,1011.1,,,,0,0,0,,,,,,,,,8/8 Overcast,2800.0,,SCT,1000.0,OVC,2800.0,,,,
KRDR,03-30-2001,15:00,METAR,,160,11.0,,,6400,Mist/Cloud Development Not Observable,2.0,0.0,29.84,1011.6,,,,10,0,0,,,,,,,,,8/8 Overcast,2800.0,,FEW,1000.0,OVC,2800.0,,,,
KRDR,03-30-2001,14:00,METAR,,160,9.0,,,8000,Mist/Cloud Development Not Observable,1.0,-1.0,29.84,1011.9,,,,10,0,0,,,,,,,,,8/8 Overcast,2800.0,,OVC,2800.0,,,,,,
KRDR,03-30-2001,12:15,SPECI,,160,10.0,,,4800,Mist/Cloud Development Not Observable,1.0,-1.0,29.85,,,,,10,0,0,,,,,,,,,8/8 Overcast,2700.0,,BKN,2700.0,OVC,3200.0,,,,
KRDR,03-30-2001,12:00,METAR,,170,11.0,,,4800,Mist/Cloud Development Not Observable,1.0,-1.0,29.85,1012.0,,,,10,0,0,,,,,,,,,8/8 Overcast,3000.0,,SCT,1500.0,OVC,3000.0,,,,
KRDR,03-30-2001,11:00,METAR,,140,9.0,,,6400,Mist/Cloud Development Not Observable,1.0,-1.0,29.86,1012.3,,,,10,0,0,,,,,,,,,8/8 Overcast,3100.0,,SCT,2500.0,OVC,3200.0,,,,
KRDR,03-30-2001,10:44,SPECI,,150,9.0,,,6400,Mist/Cloud Development Not Observable,1.0,0.0,29.86,,,,,10,0,0,,,,,,,,,8/8 Overcast,3100.0,,SCT,2500.0,OVC,3200.0,,,,
KRDR,03-30-2001,10:00,METAR,,170,10.0,,,6400,Mist/Cloud Development Not Observable,2.0,0.0,29.87,1012.6,,,,10,0,0,,,,,,,,,8/8 Overcast,2500.0,,FEW,1000.0,BKN,2500.0,OVC,3000.0,,
KRDR,03-30-2001,09:00,METAR,,160,10.0,,,6400,Mist/Cloud Development Not Observable,2.0,0.0,29.89,1013.1,,,,10,0,0,,,,,,,,,8/8 Overcast,2500.0,,FEW,1000.0,OVC,2500.0,,,,
KRDR,03-30-2001,08:00,METAR,,170,10.0,,,4800,Mist/Cloud Development Not Observable,2.0,0.0,29.90,1013.4,,,,10,0,0,,,,,,,,,8/8 Overcast,2500.0,,FEW,1000.0,OVC,2500.0,,,,
KRDR,03-30-2001,07:00,METAR,,170,9.0,,,4800,Mist/Cloud Development Not Observable,1.0,0.0,29.91,1013.8,,,,10,0,0,,,,,,,,,8/8 Overcast,2500.0,,FEW,1000.0,OVC,2500.0,,,,
KRDR,03-30-2001,06:00,METAR,,170,10.0,,,4800,Mist/Cloud Development Not Observable,1.0,0.0,29.91,1014.1,,,,10,0,0,,,,,,,,,8/8 Overcast,2600.0,,FEW,1000.0,BKN,2600.0,OVC,4000.0,,
KRDR,03-30-2001,05:00,METAR,,170,11.0,,,4800,Mist/Cloud Development Not Observable,2.0,0.0,29.91,1014.1,,,,10,0,0,,,,,,,,,8/8 Overcast,2600.0,,FEW,1000.0,BKN,2600.0,OVC,4000.0,,
KRDR,03-30-2001,04:00,METAR,,180,7.0,,,6400,Mist/Cloud Development Not Observable,2.0,0.0,29.92,1013.9,,,,10,0,0,,,,,,,,,8/8 Overcast,2600.0,,FEW,1000.0,BKN,2600.0,OVC,4000.0,,
KRDR,03-30-2001,03:00,METAR,,180,9.0,,,6400,Mist/Cloud Development Not Observable,2.0,0.0,29.91,1013.9,,,,10,0,0,,,,,,,,,8/8 Overcast,2600.0,,FEW,1000.0,BKN,2600.0,OVC,4000.0,,
KRDR,03-30-2001,02:00,METAR,,150,9.0,,,6400,Mist/Cloud Development Not Observable,2.0,0.0,29.90,1013.7,,,,10,0,0,,,,,,,,,8/8 Overcast,2600.0,,SCT,1000.0,BKN,2600.0,OVC,4000.0,,
KRDR,03-30-2001,01:00,METAR,,160,11.0,,,8000,Mist/Cloud Development Not Observable,3.0,1.0,29.89,1013.5,,,,10,0,0,,,,,,,,,8/8 Overcast,2400.0,,BKN,2400.0,OVC,4000.0,,,,
KRDR,03-30-2001,00:00,METAR,,150,9.0,,,8000,Mist/Cloud Development Not Observable,3.0,1.0,29.89,1013.4,,,,10,0,0,,,,,,,,,8/8 Overcast,2200.0,,FEW,700.0,BKN,2200.0,OVC,4000.0,,
KRDR,03-29-2001,23:00,METAR,,160,12.0,,,8000,Mist/Cloud Development Not Observable,4.0,1.0,29.89,1013.2,,,,10,0,0,,,,,,,,,8/8 Overcast,2000.0,,FEW,700.0,BKN,2000.0,OVC,4000.0,,
KRDR,03-29-2001,22:14,SPECI,,160,10.0,,,8000,Mist/Cloud Development Not Observable,4.0,1.0,29.87,,,,,10,0,0,,,,,,,,,8/8 Overcast,2000.0,,FEW,700.0,BKN,2000.0,OVC,4000.0,,
KRDR,03-29-2001,22:00,METAR,,180,11.0,,,8000,Mist/Cloud Development Not Observable,5.0,0.0,29.88,1013.0,,,,10,0,0,,,,,,,,,8/8 Overcast,1500.0,,SCT,700.0,BKN,1500.0,OVC,4000.0,,
KRDR,03-29-2001,21:00,METAR,,180,13.0,,,6400,Mist/Cloud Development Not Observable,5.0,0.0,29.88,1013.0,,,,10,0,0,,,,,,,,,8/8 Overcast,1400.0,,SCT,700.0,BKN,1400.0,OVC,4000.0,,
KRDR,03-29-2001,20:00,METAR,,170,15.0,,,6400,Mist/Cloud Development Not Observable,6.0,1.0,29.88,1013.0,,,,10,0,0,,,,,,,,,7/8 Mostly Cloudy,1400.0,,BKN,1400.0,BKN,13000.0,,,,
KRDR,03-29-2001,19:23,SPECI,,190,12.0,,,6400,Mist/Cloud Development Not Observable,5.0,0.0,29.88,,,,,10,0,0,,,,,,,,,8/8 Overcast,1200.0,,BKN,1200.0,OVC,1500.0,,,,
KRDR,03-29-2001,19:00,METAR,,170,13.0,19.0,,4800,Mist/Cloud Development Not Observable,5.0,0.0,29.88,1013.0,,,,10,0,0,,,,,,,,,8/8 Overcast,900.0,,BKN,900.0,OVC,1300.0,,,,
KRDR,03-29-2001,18:00,METAR,,180,12.0,,,4000,Mist/Cloud Development Not Observable,4.0,1.0,29.88,1013.0,,,,10,0,0,,,,,,,,,8/8 Overcast,900.0,,BKN,900.0,OVC,1200.0,,,,
KRDR,03-29-2001,17:00,METAR,,160,14.0,,,4000,Mist/Cloud Development Not Observable,3.0,0.0,29.87,1012.2,,,,10,0,0,,,,,,,,,8/8 Overcast,800.0,,OVC,800.0,,,,,,
KRDR,03-29-2001,16:00,METAR,,160,15.0,,,4000,Mist/Cloud Development Not Observable,3.0,1.0,29.85,1012.2,,,,10,0,0,,,,,,,,,8/8 Overcast,700.0,,OVC,700.0,,,,,,
KRDR,03-29-2001,15:31,SPECI,,170,12.0,,,3200,Mist/Cloud Development Not Observable,2.0,0.0,29.85,,,,,10,0,0,,,,,,,,,8/8 Overcast,700.0,,OVC,700.0,,,,,,
KRDR,03-29-2001,15:00,METAR,,170,12.0,,,2400,Mist/Cloud Development Not Observable,2.0,0.0,29.86,1012.6,,,,10,0,0,,,,,,,,,8/8 Overcast,600.0,,OVC,600.0,,,,,,
KRDR,03-29-2001,14:00,METAR,,180,11.0,,,2400,Mist/Cloud Development Not Observable,2.0,0.0,29.86,1012.6,,,,10,0,0,,,,,,,,,8/8 Overcast,600.0,,OVC,600.0,,,,,,
KRDR,03-29-2001,13:39,SPECI,,180,11.0,,,2400,Mist/Cloud Development Not Observable,1.0,0.0,29.86,,,,,10,0,0,,,,,,,,,8/8 Overcast,600.0,,OVC,600.0,,,,,,
KRDR,03-29-2001,13:00,METAR,,180,9.0,,,2400,Mist/Cloud Development Not Observable,1.0,0.0,29.85,1012.2,,,,10,0,0,,,,,,,,,8/8 Overcast,400.0,,BKN,400.0,OVC,700.0,,,,
KRDR,03-29-2001,12:17,SPECI,,180,8.0,,,2400,Mist/Cloud Development Not Observable,1.0,0.0,29.84,,,,,10,0,0,,,,,,,,,8/8 Overcast,400.0,,OVC,400.0,,,,,,
KRDR,03-29-2001,12:00,METAR,,150,8.0,,,4800,Mist/Cloud Development Not Observable,1.0,0.0,29.84,1011.7,,,,10,0,0,,,,,,,,,8/8 Overcast,700.0,,OVC,700.0,,,,,,
KRDR,03-29-2001,11:00,METAR,,160,10.0,,,4800,Mist/Cloud Development Not Observable,1.0,0.0,29.84,1011.7,,,,10,0,0,,,,,,,,,8/8 Overcast,700.0,,OVC,700.0,,,,,,
KRDR,03-29-2001,10:00,METAR,,170,10.0,,,4800,Mist/Cloud Development Not Observable,1.0,0.0,29.83,1011.5,,,,10,0,0,,,,,,,,,8/8 Overcast,700.0,,OVC,700.0,,,,,,
KRDR,03-29-2001,09:33,SPECI,,170,10.0,,,4800,Mist/Cloud Development Not Observable,1.0,0.0,29.83,,,,,10,0,0,,,,,,,,,8/8 Overcast,700.0,,OVC,700.0,,,,,,
KRDR,03-29-2001,09:00,METAR,,170,10.0,,,4800,Mist/Cloud Development Not Observable,1.0,0.0,29.83,1011.5,,,,10,0,0,,,,,,,,,8/8 Overcast,1000.0,,SCT,600.0,OVC,1000.0,,,,
KRDR,03-29-2001,08:00,METAR,,160,10.0,,,4800,Mist/Cloud Development Not Observable,1.0,0.0,29.83,1011.5,,,,10,0,0,,,,,,,,,8/8 Overcast,1000.0,,SCT,600.0,OVC,1000.0,,,,
KRDR,03-29-2001,07:05,SPECI,,160,10.0,,,6400,Mist/Cloud Development Not Observable,1.0,0.0,29.83,,,,,10,0,0,,,,,,,,,8/8 Overcast,1000.0,,OVC,1000.0,,,,,,
KRDR,03-29-2001,07:00,METAR,,160,10.0,,,6400,Mist/Cloud Development Not Observable,1.0,0.0,29.83,1011.4,,,,10,0,0,,,,,,,,,8/8 Overcast,2000.0,,SCT,800.0,BKN,2000.0,OVC,3000.0,,
KRDR,03-29-2001,06:00,METAR,,140,9.0,,,8000,Mist/Cloud Development Not Observable,1.0,0.0,29.82,1011.2,,,,10,0,0,,,,,,,,,8/8 Overcast,2000.0,,SCT,1000.0,BKN,2000.0,OVC,3000.0,,
KRDR,03-29-2001,05:00,METAR,,130,6.0,,,8000,Mist/Cloud Development Not Observable,1.0,0.0,29.83,1011.5,,,,10,0,0,,,,,,,,,8/8 Overcast,2500.0,,SCT,1000.0,BKN,2500.0,OVC,3000.0,,
KRDR,03-29-2001,04:00,METAR,,130,4.0,,,8000,Mist/Cloud Development Not Observable,1.0,0.0,29.83,1011.5,,,,10,0,0,,,,,,,,,8/8 Overcast,2000.0,,SCT,1000.0,BKN,2000.0,OVC,2800.0,,
KRDR,03-29-2001,03:00,METAR,,130,3.0,,,8000,Mist/Cloud Development Not Observable,1.0,0.0,29.83,1011.4,,,,10,0,0,,,,,,,,,7/8 Mostly Cloudy,2000.0,,SCT,1000.0,BKN,2000.0,,,,
KRDR,03-29-2001,02:00,METAR,,140,5.0,,,8000,Mist/Cloud Development Not Observable,1.0,0.0,29.81,1010.9,,,,10,0,0,,,,,,,,,8/8 Overcast,1200.0,,FEW,700.0,OVC,1200.0,,,,
KRDR,03-29-2001,01:00,METAR,,130,5.0,,,9999,Mist/Cloud Development Not Observable,1.0,0.0,29.80,1010.4,,,,10,0,0,,,,,,,,,8/8 Overcast,1100.0,,OVC,1100.0,,,,,,
KRDR,03-29-2001,00:00,METAR,,130,7.0,,,9999,Mist/Cloud Development Not Observable,2.0,0.0,29.80,1010.3,,,,10,0,0,,,,,,,,,8/8 Overcast,1100.0,,OVC,1100.0,,,,,,
KRDR,03-28-2001,23:46,SPECI,,130,8.0,,,9999,Mist/Cloud Development Not Observable,2.0,0.0,29.80,,,,,10,0,0,,,,,,,,,8/8 Overcast,1100.0,,OVC,1100.0,,,,,,
KRDR,03-28-2001,23:00,METAR,,130,6.0,,,9999,Mist/Cloud Development Not Observable,2.0,0.0,29.79,1010.1,,,,10,0,0,,,,,,,,,8/8 Overcast,900.0,,OVC,900.0,,,,,,
KRDR,03-28-2001,22:00,METAR,,130,8.0,,,9999,Mist/Cloud Development Not Observable,2.0,0.0,29.78,1009.8,,,,10,0,0,,,,,,,,,8/8 Overcast,900.0,,OVC,900.0,,,,,,
KRDR,03-28-2001,21:00,METAR,,110,5.0,,,6400,Mist/Cloud Development Not Observable,3.0,0.0,29.78,1009.6,,,,10,0,0,,,,,,,,,8/8 Overcast,900.0,,OVC,900.0,,,,,,
KRDR,03-28-2001,20:00,METAR,,160,7.0,,,8000,Mist/Cloud Development Not Observable,2.0,0.0,29.78,1009.6,,,,10,0,0,,,,,,,,,8/8 Overcast,900.0,,OVC,900.0,,,,,,
KRDR,03-28-2001,19:00,METAR,,130,8.0,,,6400,Mist/Cloud Development Not Observable,2.0,0.0,29.79,1010.0,,,,10,0,0,,,,,,,,,8/8 Overcast,600.0,,BKN,600.0,OVC,1500.0,,,,
KRDR,03-28-2001,18:00,METAR,,120,9.0,,,8000,Mist/Cloud Development Not Observable,2.0,-1.0,29.79,1010.0,,,,10,0,0,,,,,,,,,8/8 Overcast,600.0,,OVC,600.0,,,,,,
KRDR,03-28-2001,17:00,METAR,,120,7.0,,,8000,Mist/Cloud Development Not Observable,1.0,-1.0,29.80,1010.4,,,,10,0,0,,,,,,,,,8/8 Overcast,600.0,,OVC,600.0,,,,,,
KRDR,03-28-2001,16:00,METAR,,120,7.0,,,8000,Mist/Cloud Development Not Observable,1.0,-1.0,29.80,1010.4,,,,10,0,0,,,,,,,,,8/8 Overcast,600.0,,OVC,600.0,,,,,,
KRDR,03-28-2001,15:00,METAR,,120,6.0,,,9999,Mist/Cloud Development Not Observable,1.0,-1.0,29.79,1010.4,,,,10,0,0,,,,,,,,,8/8 Overcast,600.0,,OVC,600.0,,,,,,
KRDR,03-28-2001,14:32,SPECI,,,,,,9999,Cloud Development Not Observable,0.0,-1.0,29.80,,,,,0,0,0,,,,,,,,,8/8 Overcast,600.0,,OVC,600.0,,,,,,
KRDR,03-28-2001,14:00,METAR,,60,3.0,,,9999,Cloud Development Not Observable,0.0,-1.0,29.80,1010.5,,,,0,0,0,,,,,,,,,8/8 Overcast,1000.0,,OVC,1000.0,,,,,,
KRDR,03-28-2001,13:00,METAR,,150,4.0,,,9999,Cloud Development Not Observable,0.0,-1.0,29.80,1010.5,,,,0,0,0,,,,,,,,,8/8 Overcast,1200.0,,BKN,1200.0,OVC,2000.0,,,,
KRDR,03-28-2001,12:00,METAR,,140,7.0,,,9999,Cloud Development Not Observable,0.0,-2.0,29.82,1011.1,,,,0,0,0,,,,,,,,,8/8 Overcast,1200.0,,BKN,1200.0,OVC,2000.0,,,,
KRDR,03-28-2001,11:20,METAR,,150,7.0,,,9999,Cloud Development Not Observable,0.0,-2.0,29.82,,,,,0,0,0,,,,,,,,,8/8 Overcast,1200.0,,BKN,1200.0,OVC,2000.0,,,,
KRDR,03-28-2001,11:00,METAR,,150,5.0,,,9999,Cloud Development Not Observable,0.0,-2.0,29.83,1011.4,,,,0,0,0,,,,,,,,,8/8 Overcast,2000.0,,SCT,1200.0,OVC,2000.0,,,,
KRDR,03-28-2001,10:00,METAR,,160,10.0,,,9999,Cloud Development Not Observable,0.0,-2.0,29.83,1011.5,,,,0,0,0,,,,,,,,,8/8 Overcast,2400.0,,BKN,2400.0,OVC,3500.0,,,,
KRDR,03-28-2001,09:32,SPECI,,160,11.0,,,9999,Cloud Development Not Observable,0.0,-2.0,29.84,,,,,0,0,0,,,,,,,,,8/8 Overcast,2400.0,,BKN,2400.0,OVC,3500.0,,,,
KRDR,03-28-2001,09:00,METAR,,150,9.0,,,9999,Cloud Development Not Observable,0.0,-2.0,29.87,1012.8,,,,0,0,0,,,,,,,,,8/8 Overcast,3400.0,,SCT,2400.0,BKN,3500.0,OVC,5900.0,,
KRDR,03-28-2001,08:00,METAR,,150,12.0,,,9999,Cloud Development Not Observable,0.0,-3.0,29.90,1013.8,,,,0,0,0,,,,,,,,,8/8 Overcast,3400.0,,BKN,3500.0,OVC,5900.0,,,,
KRDR,03-28-2001,07:00,METAR,,150,12.0,,,9999,Cloud Development Not Observable,-1.0,-3.0,29.92,1014.5,,,,0,0,0,,,,,,,,,8/8 Overcast,3400.0,,BKN,3500.0,OVC,5900.0,,,,
KRDR,03-28-2001,06:00,METAR,,160,12.0,,,9999,Cloud Development Not Observable,-1.0,-3.0,29.95,1015.5,,,,0,0,0,,,,,,,,,8/8 Overcast,6000.0,,BKN,5900.0,OVC,20000.0,,,,
KRDR,03-28-2001,05:00,METAR,,160,10.0,,,9999,Cloud Development Not Observable,-1.0,-3.0,29.96,1015.8,,,,0,0,0,,,,,,,,,7/8 Mostly Cloudy,20000.0,,SCT,5900.0,BKN,20000.0,,,,
KRDR,03-28-2001,04:00,METAR,,170,10.0,,,9999,Cloud Development Not Observable,-2.0,-4.0,29.98,1016.9,,,,0,0,0,,,,,,,,,7/8 Mostly Cloudy,20000.0,,FEW,7900.0,BKN,20000.0,,,,
KRDR,03-28-2001,03:00,METAR,,170,9.0,,,9999,Cloud Development Not Observable,-2.0,-4.0,30.00,1017.6,,,,0,0,0,,,,,,,,,7/8 Mostly Cloudy,20000.0,,FEW,7900.0,BKN,20000.0,,,,
KRDR,03-28-2001,02:00,METAR,,180,12.0,,,9999,Cloud Development Not Observable,-1.0,-4.0,30.02,1018.0,,,,0,0,0,,,,,,,,,7/8 Mostly Cloudy,20000.0,,FEW,7900.0,BKN,20000.0,,,,
KRDR,03-28-2001,01:00,METAR,,170,12.0,,,9999,Cloud Development Not Observable,-1.0,-3.0,30.03,1018.6,,,,0,0,0,,,,,,,,,7/8 Mostly Cloudy,20000.0,,FEW,7900.0,BKN,20000.0,,,,
KRDR,03-28-2001,00:00,METAR,,160,12.0,,,9999,Cloud Development Not Observable,1.0,-3.0,30.04,1018.9,,,,0,0,0,,,,,,,,,7/8 Mostly Cloudy,20000.0,,BKN,20000.0,,,,,,
KRDR,03-27-2001,23:00,METAR,,170,13.0,,,9999,Cloud Development Not Observable,3.0,-4.0,30.05,1019.0,,,,0,0,0,,,,,,,,,7/8 Mostly Cloudy,20000.0,,BKN,20000.0,,,,,,
KRDR,03-27-2001,22:00,METAR,,180,15.0,,,9999,Cloud Development Not Observable,3.0,-4.0,30.06,1019.5,,,,0,0,0,,,,,,,,,7/8 Mostly Cloudy,20000.0,,BKN,20000.0,,,,,,
KRDR,03-27-2001,21:00,METAR,,160,14.0,,,9999,Cloud Development Not Observable,3.0,-5.0,30.08,1020.2,,,,0,0,0,,,,,,,,,7/8 Mostly Cloudy,20000.0,,FEW,6900.0,BKN,20000.0,,,,
KRDR,03-27-2001,20:00,METAR,,190,15.0,23.0,,9999,Cloud Development Not Observable,3.0,-5.0,30.11,1021.0,,,,0,0,0,,,,,,,,,7/8 Mostly Cloudy,20000.0,,FEW,6900.0,BKN,20000.0,,,,
KRDR,03-27-2001,19:00,METAR,,170,18.0,22.0,,9999,Cloud Development Not Observable,3.0,-7.0,30.12,1021.6,,,,0,0,0,,,,,,,,,4/8 Partly Cloudy,72000.0,,FEW,6900.0,SCT,20000.0,,,,
KRDR,03-27-2001,18:00,METAR,,170,16.0,22.0,,9999,Cloud Development Not Observable,1.0,-7.0,30.15,1022.7,,,,0,0,0,,,,,,,,,2/8 Mostly Clear,72000.0,,FEW,20000.0,,,,,,
KRDR,03-27-2001,17:00,METAR,,180,15.0,23.0,,9999,Cloud Development Not Observable,0.0,-8.0,30.16,1023.1,,,,0,0,0,,,,,,,,,2/8 Mostly Clear,72000.0,,FEW,20000.0,,,,,,
KRDR,03-27-2001,16:00,METAR,,180,17.0,,,9999,Cloud Development Not Observable,-2.0,-8.0,30.18,1023.6,,,,0,0,0,,,,,,,,,Clear,72000.0,,,73000.0,,,,,,
KRDR,03-27-2001,15:00,METAR,,180,15.0,,,9999,Cloud Development Not Observable,-4.0,-7.0,30.19,1024.2,,,,0,0,0,,,,,,,,,Clear,72000.0,,,73000.0,,,,,,
KRDR,03-27-2001,14:00,METAR,,180,10.0,,,9999,Cloud Development Not Observable,-6.0,-8.0,30.21,1025.0,,,,0,0,0,,,,,,,,,Clear,72000.0,,,73000.0,,,,,,
KRDR,03-27-2001,13:00,METAR,,180,7.0,,,9999,Cloud Development Not Observable,-9.0,-10.0,30.22,1025.5,,,,0,0,0,,,,,,,,,Clear,72000.0,,,73000.0,,,,,,
KRDR,03-27-2001,12:00,METAR,,160,7.0,,,9999,Cloud Development Not Observable,-9.0,-10.0,30.22,1025.2,,,,0,0,0,,,,,,,,,Clear,72000.0,,,73000.0,,,,,,
KRDR,03-27-2001,11:00,METAR,,150,6.0,,,9999,Cloud Development Not Observable,-8.0,-9.0,30.22,1025.3,,,,0,0,0,,,,,,,,,Clear,72000.0,,,73000.0,,,,,,
KRDR,03-27-2001,10:00,METAR,,160,6.0,,,9999,Cloud Development Not Observable,-8.0,-9.0,30.24,1025.8,,,,0,0,0,,,,,,,,,Clear,72000.0,,,73000.0,,,,,,
KRDR,03-27-2001,09:00,METAR,,160,5.0,,,9999,Cloud Development Not Observable,-8.0,-9.0,30.25,1026.4,,,,0,0,0,,,,,,,,,Clear,72000.0,,,73000.0,,,,,,
KRDR,03-27-2001,08:00,METAR,,120,6.0,,,9999,Cloud Development Not Observable,-7.0,-8.0,30.26,1026.5,,,,0,0,0,,,,,,,,,Clear,72000.0,,,73000.0,,,,,,
KRDR,03-27-2001,07:00,METAR,,120,7.0,,,9999,Cloud Development Not Observable,-7.0,-8.0,30.28,1027.2,,,,0,0,0,,,,,,,,,Clear,72000.0,,,73000.0,,,,,,
KRDR,03-27-2001,06:00,METAR,,110,4.0,,,9999,Cloud Development Not Observable,-7.0,-8.0,30.30,1027.5,,,,0,0,0,,,,,,,,,Clear,72000.0,,,73000.0,,,,,,
KRDR,03-27-2001,05:00,METAR,,80,3.0,,,9999,Cloud Development Not Observable,-7.0,-8.0,30.30,1028.0,,,,0,0,0,,,,,,,,,2/8 Mostly Clear,72000.0,,FEW,20000.0,,,,,,
KRDR,03-27-2001,04:00,METAR,,100,4.0,,,9999,Cloud Development Not Observable,-5.0,-8.0,30.30,1028.2,,,,0,0,0,,,,,,,,,2/8 Mostly Clear,72000.0,,FEW,20000.0,,,,,,
KRDR,03-27-2001,03:00,METAR,,,,,,9999,Cloud Development Not Observable,-5.0,-8.0,30.31,1028.3,,,,0,0,0,,,,,,,,,4/8 Partly Cloudy,72000.0,,SCT,20000.0,,,,,,
KRDR,03-27-2001,02:00,METAR,,20,4.0,,,9999,Cloud Development Not Observable,-6.0,-10.0,30.31,1028.6,,,,0,0,0,,,,,,,,,2/8 Mostly Clear,72000.0,,FEW,20000.0,,,,,,
KRDR,03-27-2001,01:00,METAR,,360,5.0,,,9999,Cloud Development Not Observable,-5.0,-9.0,30.32,1028.9,,,,0,0,0,,,,,,,,,2/8 Mostly Clear,72000.0,,FEW,20000.0,,,,,,
KRDR,03-27-2001,00:00,METAR,,330,6.0,,,9999,Cloud Development Not Observable,-3.0,-10.0,30.33,1029.2,,,,0,0,0,,,,,,,,,4/8 Partly Cloudy,72000.0,,SCT,20000.0,,,,,,
KRDR,03-26-2001,23:00,METAR,,310,8.0,,,9999,Cloud Development Not Observable,-2.0,-10.0,30.34,1029.5,,,,0,0,0,,,,,,,,,4/8 Partly Cloudy,72000.0,,SCT,20000.0,,,,,,
KRDR,03-26-2001,22:00,METAR,,340,9.0,,,9999,Cloud Development Not Observable,-2.0,-10.0,30.35,1029.7,,,,0,0,0,,,,,,,,,4/8 Partly Cloudy,72000.0,,SCT,20000.0,,,,,,
KRDR,03-26-2001,21:00,METAR,,360,7.0,,,9999,Cloud Development Not Observable,-2.0,-11.0,30.37,1030.4,,,,0,0,0,,,,,,,,,2/8 Mostly Clear,72000.0,,FEW,20000.0,,,,,,
KRDR,03-26-2001,20:00,METAR,,330,11.0,,,9999,Cloud Development Not Observable,-3.0,-12.0,30.38,1030.7,,,,0,0,0,,,,,,,,,2/8 Mostly Clear,72000.0,,FEW,20000.0,,,,,,
KRDR,03-26-2001,19:00,METAR,,300,8.0,,,9999,Cloud Development Not Observable,-4.0,-12.0,30.41,1031.9,,,,0,0,0,,,,,,,,,2/8 Mostly Clear,72000.0,,FEW,20000.0,,,,,,
KRDR,03-26-2001,18:00,METAR,,320,9.0,,,9999,Cloud Development Not Observable,-5.0,-13.0,30.46,1033.6,,,,0,0,0,,,,,,,,,2/8 Mostly Clear,72000.0,,FEW,20000.0,,,,,,
KRDR,03-26-2001,17:00,METAR,,350,8.0,,,9999,Cloud Development Not Observable,-6.0,-14.0,30.45,1033.3,,,,0,0,0,,,,,,,,,2/8 Mostly Clear,72000.0,,FEW,20000.0,,,,,,
KRDR,03-26-2001,16:00,METAR,,330,10.0,,,9999,Cloud Development Not Observable,-7.0,-13.0,30.45,1033.3,,,,0,0,0,,,,,,,,,Clear,72000.0,,,73000.0,,,,,,
KRDR,03-26-2001,15:00,METAR,,320,10.0,,,9999,Cloud Development Not Observable,-10.0,-13.0,30.46,1033.6,,,,0,0,0,,,,,,,,,Clear,72000.0,,,73000.0,,,,,,
KRDR,03-26-2001,14:00,METAR,,350,11.0,,,9999,Cloud Development Not Observable,-11.0,-13.0,30.46,1033.8,,,,0,0,0,,,,,,,,,Clear,72000.0,,,73000.0,,,,,,
KRDR,03-26-2001,13:00,METAR,,310,8.0,,,9999,Cloud Development Not Observable,-13.0,-14.0,30.46,1033.6,,,,0,0,0,,,,,,,,,Clear,72000.0,,,73000.0,,,,,,
KRDR,03-26-2001,12:00,METAR,,310,7.0,,,9999,Cloud Development Not Observable,-13.0,-14.0,30.44,1033.2,,,,0,0,0,,,,,,,,,Clear,72000.0,,,73000.0,,,,,,
KRDR,03-26-2001,11:00,METAR,,330,7.0,,,9999,Cloud Development Not Observable,-13.0,-14.0,30.44,1033.0,,,,0,0,0,,,,,,,,,Clear,72000.0,,,73000.0,,,,,,
KRDR,03-26-2001,10:00,METAR,,320,9.0,,,9999,Cloud Development Not Observable,-13.0,-14.0,30.44,1033.2,,,,0,0,0,,,,,,,,,Clear,72000.0,,,73000.0,,,,,,
KRDR,03-26-2001,09:00,METAR,,320,9.0,,,9999,Cloud Development Not Observable,-13.0,-14.0,30.45,1033.3,,,,0,0,0,,,,,,,,,Clear,72000.0,,,73000.0,,,,,,
KRDR,03-26-2001,08:00,METAR,,310,10.0,,,9999,Cloud Development Not Observable,-12.0,-13.0,30.47,1034.0,,,,0,0,0,,,,,,,,,Clear,72000.0,,,73000.0,,,,,,
KRDR,03-26-2001,07:00,METAR,,310,9.0,,,9999,Cloud Development Not Observable,-12.0,-13.0,30.47,1034.0,,,,0,0,0,,,,,,,,,Clear,72000.0,,,73000.0,,,,,,
KRDR,03-26-2001,06:00,METAR,,340,8.0,,,9999,Cloud Development Not Observable,-12.0,-13.0,30.47,1034.0,,,,0,0,0,,,,,,,,,Clear,72000.0,,,73000.0,,,,,,
KRDR,03-26-2001,05:00,METAR,,350,8.0,,,9999,Cloud Development Not Observable,-11.0,-13.0,30.48,1034.5,,,,0,0,0,,,,,,,,,Clear,72000.0,,,73000.0,,,,,,
KRDR,03-26-2001,04:00,METAR,,350,11.0,,,9999,Cloud Development Not Observable,-11.0,-13.0,30.49,1034.9,,,,0,0,0,,,,,,,,,Clear,72000.0,,,73000.0,,,,,,
KRDR,03-26-2001,03:00,METAR,,350,11.0,,,9999,Cloud Development Not Observable,-10.0,-12.0,30.50,1035.1,,,,0,0,0,,,,,,,,,Clear,72000.0,,,73000.0,,,,,,
KRDR,03-26-2001,02:00,METAR,,360,11.0,,,9999,Cloud Development Not Observable,-10.0,-12.0,30.50,1035.1,,,,0,0,0,,,,,,,,,Clear,72000.0,,,73000.0,,,,,,
KRDR,03-26-2001,01:00,METAR,,350,12.0,,,9999,Cloud Development Not Observable,-8.0,-12.0,30.50,1035.1,,,,0,0,0,,,,,,,,,2/8 Mostly Clear,72000.0,,FEW,3000.0,FEW,20000.0,,,,
KRDR,03-26-2001,00:00,METAR,,340,14.0,,,9999,Cloud Development Not Observable,-7.0,-12.0,30.50,1035.1,,,,0,0,0,,,,,,,,,2/8 Mostly Clear,72000.0,,FEW,3000.0,FEW,20000.0,,,,
KRDR,03-25-2001,23:00,METAR,,310,18.0,,,9999,Cloud Development Not Observable,-6.0,-12.0,30.51,1035.4,,,,0,0,0,,,,,,,,,4/8 Partly Cloudy,72000.0,,FEW,3000.0,SCT,20000.0,,,,
KRDR,03-25-2001,22:00,METAR,,330,15.0,,,9999,Cloud Development Not Observable,-6.0,-13.0,30.51,1035.5,,,,0,0,0,,,,,,,,,4/8 Partly Cloudy,72000.0,,FEW,3000.0,SCT,20000.0,,,,
KRDR,03-25-2001,21:00,METAR,,320,16.0,23.0,,9999,Cloud Development Not Observable,-6.0,-13.0,30.53,1036.1,,,,0,0,0,,,,,,,,,2/8 Mostly Clear,72000.0,,FEW,3000.0,FEW,20000.0,,,,
KRDR,03-25-2001,20:00,METAR,,340,17.0,20.0,,9999,Cloud Development Not Observable,-8.0,-14.0,30.53,1036.2,,,,0,0,0,,,,,,,,,2/8 Mostly Clear,72000.0,,FEW,3000.0,FEW,20000.0,,,,
KRDR,03-25-2001,19:00,METAR,,320,17.0,22.0,,9999,Cloud Development Not Observable,-8.0,-15.0,30.55,1036.9,,,,0,0,0,,,,,,,,,2/8 Mostly Clear,72000.0,,FEW,3000.0,,,,,,
KRDR,03-25-2001,18:00,METAR,,340,17.0,23.0,,9999,Cloud Development Not Observable,-9.0,-15.0,30.57,1037.6,,,,0,0,0,,,,,,,,,2/8 Mostly Clear,72000.0,,FEW,3000.0,,,,,,
KRDR,03-25-2001,17:00,METAR,,350,16.0,,,9999,Cloud Development Not Observable,-10.0,-15.0,30.59,1038.4,,,,0,0,0,,,,,,,,,4/8 Partly Cloudy,72000.0,,SCT,3000.0,,,,,,
KRDR,03-25-2001,16:00,METAR,,350,19.0,,,9999,Cloud Development Not Observable,-11.0,-16.0,30.59,1038.4,,,,0,0,0,,,,,,,,,4/8 Partly Cloudy,72000.0,,SCT,2500.0,,,,,,
KRDR,03-25-2001,15:00,METAR,,330,19.0,24.0,,9999,Cloud Development Not Observable,-12.0,-16.0,30.58,1038.1,,,,0,0,0,,,,,,,,,4/8 Partly Cloudy,72000.0,,SCT,2500.0,,,,,,
KRDR,03-25-2001,14:00,METAR,,340,14.0,,,9999,Cloud Development Not Observable,-13.0,-16.0,30.57,1037.7,,,,0,0,0,,,,,,,,,2/8 Mostly Clear,72000.0,,FEW,2000.0,,,,,,
KRDR,03-25-2001,13:00,METAR,,350,11.0,,,9999,Cloud Development Not Observable,-15.0,-16.0,30.56,1037.5,,,,0,0,0,,,,,,,,,2/8 Mostly Clear,72000.0,,FEW,3000.0,,,,,,
KRDR,03-25-2001,12:00,METAR,,350,11.0,,,9999,Cloud Development Not Observable,-15.0,-16.0,30.55,1037.1,,,,0,0,0,,,,,,,,,Clear,72000.0,,,73000.0,,,,,,
KRDR,03-25-2001,11:00,METAR,,350,14.0,,,9999,Cloud Development Not Observable,-14.0,-16.0,30.54,1036.7,,,,0,0,0,,,,,,,,,Clear,72000.0,,,73000.0,,,,,,
KRDR,03-25-2001,10:00,METAR,,350,12.0,,,9999,Cloud Development Not Observable,-14.0,-16.0,30.53,1036.1,,,,0,0,0,,,,,,,,,Clear,72000.0,,,73000.0,,,,,,
KRDR,03-25-2001,09:00,METAR,,360,11.0,,,9999,Cloud Development Not Observable,-14.0,-15.0,30.52,1036.0,,,,0,0,0,,,,,,,,,4/8 Partly Cloudy,72000.0,,SCT,4000.0,,,,,,
KRDR,03-25-2001,08:00,METAR,,340,12.0,,,9999,Cloud Development Not Observable,-12.0,-14.0,30.51,1035.5,,,,0,0,0,,,,,,,,,7/8 Mostly Cloudy,3900.0,,BKN,4000.0,,,,,,
KRDR,03-25-2001,07:48,SPECI,,340,13.0,,,9999,Cloud Development Not Observable,-13.0,-14.0,30.51,,,,,0,0,0,,,,,,,,,7/8 Mostly Cloudy,3900.0,,BKN,4000.0,,,,,,
KRDR,03-25-2001,07:00,METAR,,340,16.0,,,9999,Light Snow/Cloud Development Not Observable,-12.0,-13.0,30.51,1035.5,,,,71,0,0,,,,,,,,,7/8 Mostly Cloudy,3000.0,,SCT,2000.0,BKN,3000.0,,,,
KRDR,03-25-2001,06:00,METAR,,350,11.0,,,9999,Cloud Development Not Observable,-12.0,-14.0,30.50,1035.2,,,,0,0,0,,,,,,,,,Clear,72000.0,,,73000.0,,,,,,
KRDR,03-25-2001,05:00,METAR,,350,11.0,,,9999,Cloud Development Not Observable,-12.0,-14.0,30.50,1035.3,,,,0,0,0,,,,,,,,,2/8 Mostly Clear,72000.0,,FEW,3000.0,,,,,,
KRDR,03-25-2001,04:00,METAR,,350,12.0,,,9999,Cloud Development Not Observable,-12.0,-14.0,30.50,1035.1,,,,0,0,0,,,,,,,,,4/8 Partly Cloudy,72000.0,,SCT,3000.0,,,,,,
KRDR,03-25-2001,03:00,METAR,,330,17.0,,,9999,Light Snow/Cloud Development Not Observable,-10.0,-12.0,30.48,1034.6,,,,71,0,0,,,,,,,,,7/8 Mostly Cloudy,3000.0,,BKN,3000.0,,,,,,
KRDR,03-25-2001,02:48,SPECI,,330,17.0,,,9999,Light Snow/Cloud Development Not Observable,-10.0,-12.0,30.48,,,,,71,0,0,,,,,,,,,7/8 Mostly Cloudy,3000.0,,BKN,3000.0,,,,,,
KRDR,03-25-2001,02:00,METAR,,330,17.0,,,9999,Cloud Development Not Observable,-10.0,-13.0,30.47,1034.0,,,,0,0,0,,,,,,,,,7/8 Mostly Cloudy,3000.0,,BKN,3000.0,,,,,,
KRDR,03-25-2001,01:00,METAR,,310,17.0,,,9999,Cloud Development Not Observable,-10.0,-13.0,30.45,1033.6,,,,0,0,0,,,,,,,,,7/8 Mostly Cloudy,3000.0,,BKN,3000.0,,,,,,
KRDR,03-25-2001,00:00,METAR,,310,16.0,,,9999,Cloud Development Not Observable,-9.0,-14.0,30.44,1033.3,,,,0,0,0,,,,,,,,,7/8 Mostly Cloudy,3000.0,,BKN,3000.0,,,,,,
KRDR,03-24-2001,23:00,METAR,,310,16.0,,,9999,Cloud Development Not Observable,-8.0,-13.0,30.44,1033.3,,,,0,0,0,,,,,,,,,7/8 Mostly Cloudy,3000.0,,BKN,3000.0,,,,,,
KRDR,03-24-2001,22:00,METAR,,320,18.0,24.0,,9999,Cloud Development Not Observable,-8.0,-13.0,30.44,1033.3,,,,0,0,0,,,,,,,,,7/8 Mostly Cloudy,3000.0,,BKN,3000.0,,,,,,
KRDR,03-24-2001,21:00,METAR,,320,17.0,,,9999,Cloud Development Not Observable,-8.0,-13.0,30.44,1033.3,,,,0,0,0,,,,,,,,,7/8 Mostly Cloudy,3000.0,,FEW,1500.0,BKN,3000.0,,,,
KRDR,03-24-2001,20:00,METAR,,300,18.0,28.0,310/28KTS,9999,Cloud Development Not Observable,-8.0,-13.0,30.44,1033.2,,,,0,0,0,,,,,,,,,7/8 Mostly Cloudy,3000.0,,FEW,1500.0,BKN,3000.0,,,,
KRDR,03-24-2001,19:00,METAR,,300,19.0,26.0,290/27KTS,9999,Cloud Development Not Observable,-9.0,-15.0,30.47,1034.0,,,,0,0,0,,,,,,,,,7/8 Mostly Cloudy,3000.0,,FEW,1500.0,BKN,3000.0,BKN,20000.0,,
KRDR,03-24-2001,18:00,METAR,,310,19.0,25.0,300/27KTS,9999,Cloud Development Not Observable,-9.0,-15.0,30.47,1034.1,,,,0,0,0,,,,,,,,,7/8 Mostly Cloudy,3000.0,,FEW,1300.0,BKN,3000.0,BKN,20000.0,,
KRDR,03-24-2001,17:00,METAR,,300,18.0,25.0,300/28KTS,9999,Cloud Development Not Observable,-10.0,-15.0,30.48,1034.4,,,,0,0,0,,,,,,,,,4/8 Partly Cloudy,72000.0,,SCT,3200.0,SCT,20000.0,,,,
KRDR,03-24-2001,16:00,METAR,,310,18.0,,,9999,Cloud Development Not Observable,-11.0,-16.0,30.49,1034.7,,,,0,0,0,,,,,,,,,7/8 Mostly Cloudy,20000.0,,SCT,3200.0,BKN,20000.0,,,,
KRDR,03-24-2001,15:00,METAR,,330,18.0,24.0,,9999,Cloud Development Not Observable,-12.0,-16.0,30.48,1034.6,,,,0,0,0,,,,,,,,,4/8 Partly Cloudy,72000.0,,FEW,1500.0,SCT,20000.0,,,,
KRDR,03-24-2001,14:00,METAR,,310,18.0,,,9999,Cloud Development Not Observable,-13.0,-17.0,30.48,1034.5,,,,0,0,0,,,,,,,,,2/8 Mostly Clear,72000.0,,FEW,20000.0,,,,,,
KRDR,03-24-2001,13:00,METAR,,300,16.0,,,9999,Cloud Development Not Observable,-14.0,-17.0,30.47,1034.1,,,,0,0,0,,,,,,,,,2/8 Mostly Clear,72000.0,,FEW,6900.0,,,,,,
KRDR,03-24-2001,12:00,METAR,,310,15.0,22.0,,9999,Cloud Development Not Observable,-14.0,-17.0,30.46,1033.7,,,,0,0,0,,,,,,,,,Clear,72000.0,,,73000.0,,,,,,
KRDR,03-24-2001,11:00,METAR,,320,16.0,,,9999,Cloud Development Not Observable,-14.0,-17.0,30.45,1033.5,,,,0,0,0,,,,,,,,,Clear,72000.0,,,73000.0,,,,,,
KRDR,03-24-2001,10:00,METAR,,300,16.0,,,9999,Cloud Development Not Observable,-14.0,-17.0,30.43,1033.0,,,,0,0,0,,,,,,,,,Clear,72000.0,,,73000.0,,,,,,
KRDR,03-24-2001,09:00,METAR,,300,15.0,,,9999,Cloud Development Not Observable,-14.0,-16.0,30.42,1032.5,,,,0,0,0,,,,,,,,,Clear,72000.0,,,73000.0,,,,,,
KRDR,03-24-2001,08:00,METAR,,310,14.0,,,9999,Cloud Development Not Observable,-13.0,-17.0,30.41,1032.3,,,,0,0,0,,,,,,,,,Clear,72000.0,,,73000.0,,,,,,
KRDR,03-24-2001,07:00,METAR,,320,18.0,,320/26KTS,9999,Cloud Development Not Observable,-13.0,-16.0,30.40,1031.8,,,,0,0,0,,,,,,,,,Clear,72000.0,,,73000.0,,,,,,
KRDR,03-24-2001,06:00,METAR,,310,20.0,26.0,310/31KTS,9999,Cloud Development Not Observable,-12.0,-16.0,30.39,1031.3,,,,0,0,0,,,,,,,,,Clear,72000.0,,,73000.0,,,,,,
KRDR,03-24-2001,05:00,METAR,,310,22.0,31.0,,9999,Cloud Development Not Observable,-12.0,-16.0,30.38,1031.1,,,,0,0,0,,,,,,,,,Clear,72000.0,,,73000.0,,,,,,
KRDR,03-24-2001,04:00,METAR,,310,24.0,32.0,,9999,Cloud Development Not Observable,-11.0,-16.0,30.37,1030.8,,,,0,0,0,,,,,,,,,Clear,72000.0,,,73000.0,,,,,,
KRDR,03-24-2001,03:00,METAR,,310,23.0,29.0,320/33KTS,9999,Cloud Development Not Observable,-11.0,-16.0,30.36,1030.4,,,,0,0,0,,,,,,,,,Clear,72000.0,,,73000.0,,,,,,
KRDR,03-24-2001,02:00,METAR,,310,24.0,29.0,310/31KTS,9999,Cloud Development Not Observable,-11.0,-16.0,30.35,1029.9,,,,0,0,0,,,,,,,,,Clear,72000.0,,,73000.0,,,,,,
KRDR,03-24-2001,01:00,METAR,,320,20.0,29.0,310/35KTS,9999,Cloud Development Not Observable,-10.0,-15.0,30.33,1029.5,,,,0,0,0,,,,,,,,,Clear,72000.0,,,73000.0,,,,,,
KRDR,03-24-2001,00:00,METAR,,320,25.0,34.0,300/37KTS,9999,Cloud Development Not Observable,-9.0,-15.0,30.33,1029.1,,,,0,0,0,,,,,,,,,Clear,72000.0,,,73000.0,,,,,,
KRDR,03-23-2001,23:00,METAR,,300,25.0,34.0,300/39KTS,9999,Cloud Development Not Observable,-8.0,-15.0,30.32,1028.7,,,,0,0,0,,,,,,,,,Clear,72000.0,,,73000.0,,,,,,
KRDR,03-23-2001,22:00,METAR,,310,31.0,36.0,310/38KTS,9999,Cloud Development Not Observable,-8.0,-15.0,30.33,1029.1,,,,0,0,0,,,,,,,,,2/8 Mostly Clear,72000.0,,FEW,4000.0,,,,,,
KRDR,03-23-2001,21:00,METAR,,320,25.0,33.0,310/35KTS,9999,Cloud Development Not Observable,-8.0,-14.0,30.33,1029.2,,,,0,0,0,,,,,,,,,2/8 Mostly Clear,72000.0,,FEW,4000.0,,,,,,
KRDR,03-23-2001,20:00,METAR,,300,28.0,35.0,300/36KTS,9999,Cloud Development Not Observable,-9.0,-15.0,30.34,1029.6,,,,0,0,0,,,,,,,,,2/8 Mostly Clear,72000.0,,FEW,4000.0,,,,,,
KRDR,03-23-2001,19:00,METAR,,310,26.0,33.0,300/34KTS,9999,Cloud Development Not Observable,-9.0,-15.0,30.35,1029.9,,,,0,0,0,,,,,,,,,Clear,72000.0,,,73000.0,,,,,,
KRDR,03-23-2001,18:00,METAR,,310,23.0,36.0,,9999,Cloud Development Not Observable,-9.0,-16.0,30.36,1030.4,,,,0,0,0,,,,,,,,,2/8 Mostly Clear,72000.0,,FEW,4000.0,,,,,,
KRDR,03-23-2001,17:00,METAR,,310,27.0,32.0,300/34KTS,9999,Cloud Development Not Observable,-9.0,-16.0,30.37,1030.4,,,,0,0,0,,,,,,,,,2/8 Mostly Clear,72000.0,,FEW,4000.0,FEW,7900.0,,,,
KRDR,03-23-2001,16:00,METAR,,320,24.0,28.0,,9999,Cloud Development Not Observable,-9.0,-13.0,30.36,1030.3,,,,0,0,0,,,,,,,,,4/8 Partly Cloudy,72000.0,,FEW,4000.0,SCT,7900.0,,,,
KRDR,03-23-2001,15:00,METAR,,310,20.0,,,9999,Cloud Development Not Observable,-9.0,-11.0,30.35,1029.7,,,,0,0,0,,,,,,,,,4/8 Partly Cloudy,72000.0,,FEW,4000.0,SCT,7900.0,,,,
KRDR,03-23-2001,14:00,METAR,,290,15.0,,,9999,Cloud Development Not Observable,-9.0,-11.0,30.34,1029.5,,,,0,0,0,,,,,,,,,7/8 Mostly Cloudy,7000.0,,FEW,4000.0,BKN,6900.0,BKN,15000.0,,
KRDR,03-23-2001,13:00,METAR,,280,8.0,,,9999,Cloud Development Not Observable,-12.0,-12.0,30.33,1029.4,,,,0,0,0,,,,,,,,,7/8 Mostly Cloudy,7000.0,,FEW,4000.0,BKN,6900.0,BKN,15000.0,,
KRDR,03-23-2001,12:20,METAR,,300,7.0,,,9999,Cloud Development Not Observable,-11.0,-11.0,30.32,,,,,0,0,0,,,,,,,,,7/8 Mostly Cloudy,7000.0,,FEW,4000.0,BKN,6900.0,,,,
KRDR,03-23-2001,12:00,METAR,,310,7.0,,,9999,Light Snow/Cloud Development Not Observable,-10.0,-11.0,30.31,1028.5,,,,71,0,0,,,,,,,,,7/8 Mostly Cloudy,7000.0,,FEW,4000.0,BKN,6900.0,,,,
KRDR,03-23-2001,11:00,METAR,,330,10.0,,,9999,Light Snow/Cloud Development Not Observable,-9.0,-10.0,30.31,1028.3,,,,71,0,0,,,,,,,,,7/8 Mostly Cloudy,3900.0,,FEW,1000.0,BKN,4000.0,BKN,7400.0,,
KRDR,03-23-2001,10:00,METAR,,350,8.0,,,4800,Light Snow/Cloud Development Not Observable,-9.0,-9.0,30.29,1027.7,,,,71,0,0,,,,,,,,,8/8 Overcast,3900.0,,OVC,4000.0,,,,,,
KRDR,03-23-2001,09:00,METAR,,360,9.0,,,4800,Light Snow/Cloud Development Not Observable,-9.0,-9.0,30.30,1027.9,,,,71,0,0,,,,,,,,,8/8 Overcast,3900.0,,SCT,1500.0,OVC,4000.0,,,,
KRDR,03-23-2001,08:20,METAR,,360,8.0,,,4800,Light Snow/Cloud Development Not Observable,-9.0,-9.0,30.31,,,,,71,0,0,,,,,,,,,8/8 Overcast,3900.0,,SCT,1000.0,OVC,4000.0,,,,
KRDR,03-23-2001,08:00,METAR,,350,9.0,,,3200,Light Snow/Cloud Development Not Observable,-8.0,-9.0,30.31,1028.2,,,,71,0,0,,,,,,,,,8/8 Overcast,1000.0,,BKN,1000.0,OVC,5000.0,,,,
KRDR,03-23-2001,07:41,SPECI,,350,9.0,,,3200,Light Snow/Cloud Development Not Observable,-8.0,-9.0,30.30,,,,,71,0,0,,,,,,,,,8/8 Overcast,1000.0,,BKN,1000.0,OVC,5000.0,,,,
KRDR,03-23-2001,07:19,SPECI,,360,10.0,,,6400,Light Snow/Cloud Development Not Observable,-8.0,-10.0,30.30,,,,,71,0,0,,,,,,,,,8/8 Overcast,4900.0,,BKN,5000.0,OVC,7900.0,,,,
KRDR,03-23-2001,07:00,METAR,,350,8.0,,,9999,Cloud Development Not Observable,-8.0,-11.0,30.30,1027.8,,,,0,0,0,,,,,,,,,8/8 Overcast,8000.0,,FEW,5000.0,OVC,7900.0,,,,
KRDR,03-23-2001,06:00,METAR,,350,14.0,,,9999,Cloud Development Not Observable,-8.0,-11.0,30.30,1027.9,,,,0,0,0,,,,,,,,,8/8 Overcast,8000.0,,FEW,5000.0,OVC,7900.0,,,,
KRDR,03-23-2001,05:00,METAR,,350,11.0,,,9999,Cloud Development Not Observable,-8.0,-10.0,30.30,1027.9,,,,0,0,0,,,,,,,,,8/8 Overcast,9000.0,,OVC,8900.0,,,,,,
KRDR,03-23-2001,04:00,METAR,,350,11.0,,,9999,Cloud Development Not Observable,-8.0,-11.0,30.30,1028.2,,,,0,0,0,,,,,,,,,7/8 Mostly Cloudy,10000.0,,BKN,9900.0,,,,,,
KRDR,03-23-2001,03:00,METAR,,360,11.0,,,9999,Cloud Development Not Observable,-8.0,-10.0,30.30,1028.2,,,,0,0,0,,,,,,,,,7/8 Mostly Cloudy,20000.0,,FEW,2000.0,SCT,12000.0,BKN,20000.0,,
KRDR,03-23-2001,02:00,METAR,,360,13.0,,,9999,Cloud Development Not Observable,-7.0,-10.0,30.30,1028.0,,,,0,0,0,,,,,,,,,7/8 Mostly Cloudy,20000.0,,SCT,2000.0,BKN,20000.0,,,,
KRDR,03-23-2001,01:00,METAR,,360,10.0,,,9999,Cloud Development Not Observable,-8.0,-10.0,30.30,1028.1,,,,0,0,0,,,,,,,,,7/8 Mostly Cloudy,20000.0,,SCT,1800.0,BKN,20000.0,,,,
KRDR,03-23-2001,00:00,METAR,,350,13.0,,,9999,Cloud Development Not Observable,-6.0,-9.0,30.30,1028.2,,,,0,0,0,,,,,,,,,4/8 Partly Cloudy,72000.0,,SCT,2000.0,,,,,,
KRDR,03-22-2001,23:00,METAR,,360,13.0,,,9999,Cloud Development Not Observable,-5.0,-10.0,30.31,1028.3,,,,0,0,0,,,,,,,,,2/8 Mostly Clear,72000.0,,FEW,4000.0,,,,,,
KRDR,03-22-2001,22:00,METAR,,360,14.0,,,9999,Cloud Development Not Observable,-5.0,-10.0,30.30,1028.1,,,,0,0,0,,,,,,,,,2/8 Mostly Clear,72000.0,,FEW,4000.0,,,,,,
KRDR,03-22-2001,21:00,METAR,,10,15.0,,,9999,Cloud Development Not Observable,-5.0,-10.0,30.32,1028.6,,,,0,0,0,,,,,,,,,2/8 Mostly Clear,72000.0,,FEW,7900.0,FEW,20000.0,,,,
KRDR,03-22-2001,20:00,METAR,,350,14.0,19.0,,9999,Cloud Development Not Observable,-5.0,-11.0,30.32,1028.8,,,,0,0,0,,,,,,,,,2/8 Mostly Clear,72000.0,,FEW,20000.0,,,,,,
KRDR,03-22-2001,19:00,METAR,,360,12.0,21.0,,9999,Cloud Development Not Observable,-5.0,-11.0,30.34,1029.4,,,,0,0,0,,,,,,,,,Clear,72000.0,,,73000.0,,,,,,
KRDR,03-22-2001,18:00,METAR,,340,17.0,21.0,,9999,Cloud Development Not Observable,-6.0,-12.0,30.36,1030.0,,,,0,0,0,,,,,,,,,Clear,72000.0,,,73000.0,,,,,,
KRDR,03-22-2001,17:00,METAR,,10,15.0,22.0,,9999,Cloud Development Not Observable,-7.0,-13.0,30.36,1030.0,,,,0,0,0,,,,,,,,,Clear,72000.0,,,73000.0,,,,,,
KRDR,03-22-2001,16:00,METAR,,360,17.0,,,9999,Cloud Development Not Observable,-8.0,-14.0,30.35,1029.9,,,,0,0,0,,,,,,,,,2/8 Mostly Clear,72000.0,,FEW,4500.0,,,,,,
KRDR,03-22-2001,15:00,METAR,,360,18.0,,,9999,Cloud Development Not Observable,-9.0,-14.0,30.34,1029.6,,,,0,0,0,,,,,,,,,4/8 Partly Cloudy,72000.0,,SCT,4200.0,,,,,,
KRDR,03-22-2001,14:00,METAR,,350,20.0,,,9999,Cloud Development Not Observable,-10.0,-14.0,30.32,1028.8,,,,0,0,0,,,,,,,,,4/8 Partly Cloudy,72000.0,,SCT,4200.0,,,,,,
KRDR,03-22-2001,13:00,METAR,,360,18.0,,,9999,Cloud Development Not Observable,-10.0,-14.0,30.30,1028.2,,,,0,0,0,,,,,,,,,7/8 Mostly Cloudy,3900.0,,BKN,4000.0,,,,,,
KRDR,03-22-2001,12:00,METAR,,360,18.0,,350/25KTS,9999,Cloud Development Not Observable,-10.0,-14.0,30.28,1027.2,,,,0,0,0,,,,,,,,,7/8 Mostly Cloudy,3900.0,,BKN,4000.0,,,,,,
KRDR,03-22-2001,11:00,METAR,,350,18.0,,360/25KTS,9999,Cloud Development Not Observable,-10.0,-13.0,30.27,1026.3,,,,0,0,0,,,,,,,,,7/8 Mostly Cloudy,3900.0,,BKN,4000.0,,,,,,
KRDR,03-22-2001,10:37,SPECI,,360,19.0,,,9999,Cloud Development Not Observable,-10.0,-14.0,30.26,,,,,0,0,0,,,,,,,,,7/8 Mostly Cloudy,3900.0,,FEW,2800.0,BKN,4000.0,,,,
KRDR,03-22-2001,10:00,METAR,,360,16.0,,,9999,Cloud Development Not Observable,-9.0,-13.0,30.24,1025.3,,,,0,0,0,,,,,,,,,8/8 Overcast,2800.0,,OVC,2800.0,,,,,,
KRDR,03-22-2001,09:00,METAR,,10,20.0,25.0,360/26KTS,9999,Cloud Development Not Observable,-9.0,-13.0,30.23,1025.3,,,,0,0,0,,,,,,,,,8/8 Overcast,2500.0,,OVC,2500.0,,,,,,
KRDR,03-22-2001,08:00,METAR,,360,21.0,,360/25KTS,9999,Cloud Development Not Observable,-9.0,-13.0,30.22,1024.7,,,,0,0,0,,,,,,,,,8/8 Overcast,2500.0,,OVC,2500.0,,,,,,
KRDR,03-22-2001,07:18,SPECI,,360,18.0,24.0,,9999,Cloud Development Not Observable,-9.0,-12.0,30.22,,,,,0,0,0,,,,,,,,,8/8 Overcast,2400.0,,OVC,2400.0,,,,,,
KRDR,03-22-2001,07:00,METAR,,360,18.0,25.0,,9999,Light Snow/Cloud Development Not Observable,-8.0,-11.0,30.20,1024.2,,,,71,0,0,,,,,,,,,8/8 Overcast,1100.0,,BKN,1100.0,OVC,2000.0,,,,
KRDR,03-22-2001,06:00,METAR,,360,17.0,,,9999,Light Snow/Cloud Development Not Observable,-8.0,-9.0,30.19,1023.7,,,,71,0,0,,,,,,,,,8/8 Overcast,1100.0,,BKN,1100.0,OVC,2000.0,,,,
KRDR,03-22-2001,05:00,METAR,,10,18.0,24.0,,9999,Cloud Development Not Observable,-8.0,-9.0,30.17,1023.2,,,,0,0,0,,,,,,,,,8/8 Overcast,1100.0,,BKN,1100.0,OVC,1500.0,,,,
KRDR,03-22-2001,04:00,METAR,,360,17.0,,,9999,Cloud Development Not Observable,-7.0,-9.0,30.15,1022.5,,,,0,0,0,,,,,,,,,8/8 Overcast,1100.0,,BKN,1100.0,OVC,1500.0,,,,
KRDR,03-22-2001,03:49,SPECI,,360,17.0,,,9999,Cloud Development Not Observable,-7.0,-9.0,30.15,,,,,0,0,0,,,,,,,,,8/8 Overcast,1100.0,,BKN,1100.0,OVC,1500.0,,,,
KRDR,03-22-2001,03:06,SPECI,,360,14.0,,,9999,Cloud Development Not Observable,-7.0,-8.0,30.15,,,,,0,0,0,,,,,,,,,8/8 Overcast,900.0,,BKN,900.0,OVC,1400.0,,,,
KRDR,03-22-2001,03:00,METAR,,10,15.0,22.0,,9999,Cloud Development Not Observable,-7.0,-8.0,30.15,1022.4,,,,0,0,0,,,,,,,,,8/8 Overcast,1100.0,,OVC,1100.0,,,,,,
KRDR,03-22-2001,02:35,SPECI,,360,17.0,,,9999,Cloud Development Not Observable,-6.0,-8.0,30.14,,,,,0,0,0,,,,,,,,,8/8 Overcast,1200.0,,OVC,1200.0,,,,,,
KRDR,03-22-2001,02:00,METAR,,360,14.0,,,8000,Light Snow Showers/Cloud Development Not Observable,-6.0,-7.0,30.12,1021.6,,,,85,0,0,,,,,,,,,8/8 Overcast,900.0,,OVC,900.0,,,,,,
KRDR,03-22-2001,01:40,SPECI,,10,15.0,,,9999,Light Snow Showers/Cloud Development Not Observable,-5.0,-6.0,30.12,,,,,85,0,0,,,,,,,,,8/8 Overcast,900.0,,BKN,900.0,OVC,1200.0,,,,
KRDR,03-22-2001,01:00,METAR,,10,15.0,,,9999,Cloud Development Not Observable,-4.0,-5.0,30.09,1020.3,,,,0,0,0,,,,,,,,,8/8 Overcast,1200.0,,SCT,800.0,OVC,1200.0,,,,
KRDR,03-22-2001,00:00,METAR,,360,17.0,,,9999,Cloud Development Not Observable,-1.0,-3.0,30.06,1019.4,,,,0,0,0,,,,,,,,,7/8 Mostly Cloudy,1400.0,,BKN,1400.0,BKN,4000.0,BKN,9900.0,,
KRDR,03-21-2001,23:09,SPECI,,340,13.0,,,9999,Cloud Development Not Observable,6.0,2.0,30.03,,,,,0,0,0,,,,,,,,,7/8 Mostly Cloudy,20000.0,,FEW,5000.0,SCT,9900.0,BKN,20000.0,,
KRDR,03-21-2001,23:00,METAR,,160,9.0,,,9999,Cloud Development Not Observable,6.0,3.0,30.03,1018.1,,,,0,0,0,,,,,,,,,7/8 Mostly Cloudy,20000.0,,FEW,5000.0,SCT,9900.0,BKN,20000.0,,
KRDR,03-21-2001,22:00,METAR,,180,10.0,,,9999,Cloud Development Not Observable,9.0,2.0,30.04,1018.4,,,,0,0,0,,,,,,,,,7/8 Mostly Cloudy,10000.0,,FEW,5000.0,BKN,9900.0,,,,
KRDR,03-21-2001,21:00,METAR,,180,19.0,24.0,200/26KTS,9999,Cloud Development Not Observable,9.0,2.0,30.02,1017.7,,,,0,0,0,,,,,,,,,7/8 Mostly Cloudy,20000.0,,FEW,5000.0,SCT,9900.0,BKN,20000.0,,
KRDR,03-21-2001,20:00,METAR,,200,21.0,26.0,,9999,Cloud Development Not Observable,9.0,0.0,30.04,1018.4,,,,0,0,0,,,,,,,,,4/8 Partly Cloudy,72000.0,,FEW,11000.0,SCT,20000.0,,,,
KRDR,03-21-2001,19:00,METAR,,190,19.0,25.0,,9999,Cloud Development Not Observable,8.0,-2.0,30.07,1019.4,,,,0,0,0,,,,,,,,,4/8 Partly Cloudy,72000.0,,FEW,11000.0,SCT,20000.0,,,,
KRDR,03-21-2001,18:00,METAR,,180,16.0,,,9999,Cloud Development Not Observable,7.0,-1.0,30.09,1020.1,,,,0,0,0,,,,,,,,,2/8 Mostly Clear,72000.0,,FEW,20000.0,,,,,,
KRDR,03-21-2001,17:00,METAR,,200,15.0,,,9999,Cloud Development Not Observable,7.0,-1.0,30.12,1021.1,,,,0,0,0,,,,,,,,,2/8 Mostly Clear,72000.0,,FEW,20000.0,,,,,,
KRDR,03-21-2001,16:00,METAR,,210,12.0,,,9999,Cloud Development Not Observable,5.0,-1.0,30.13,1021.4,,,,0,0,0,,,,,,,,,2/8 Mostly Clear,72000.0,,FEW,20000.0,,,,,,
KRDR,03-21-2001,15:00,METAR,,220,12.0,,,9999,Cloud Development Not Observable,3.0,-1.0,30.13,1021.7,,,,0,0,0,,,,,,,,,Clear,72000.0,,,73000.0,,,,,,
KRDR,03-21-2001,14:00,METAR,,220,11.0,,,9999,Cloud Development Not Observable,-1.0,-2.0,30.14,1022.1,,,,0,0,0,,,,,,,,,Clear,72000.0,,,73000.0,,,,,,
KRDR,03-21-2001,13:00,METAR,,220,10.0,,,9999,Cloud Development Not Observable,-1.0,-3.0,30.14,1022.0,,,,0,0,0,,,,,,,,,Clear,72000.0,,,73000.0,,,,,,
KRDR,03-21-2001,12:00,METAR,,220,10.0,,,9999,Cloud Development Not Observable,-2.0,-4.0,30.14,1022.0,,,,0,0,0,,,,,,,,,Clear,72000.0,,,73000.0,,,,,,
KRDR,03-21-2001,11:00,METAR,,210,10.0,,,9999,Cloud Development Not Observable,-2.0,-4.0,30.14,1022.0,,,,0,0,0,,,,,,,,,Clear,72000.0,,,73000.0,,,,,,
KRDR,03-21-2001,10:00,METAR,,200,8.0,,,9999,Cloud Development Not Observable,-2.0,-3.0,30.15,1022.1,,,,0,0,0,,,,,,,,,Clear,72000.0,,,73000.0,,,,,,
KRDR,03-21-2001,09:00,METAR,,220,8.0,,,9999,Cloud Development Not Observable,-2.0,-3.0,30.16,1022.5,,,,0,0,0,,,,,,,,,Clear,72000.0,,,73000.0,,,,,,
KRDR,03-21-2001,08:00,METAR,,230,8.0,,,7000,Cloud Development Not Observable,-3.0,-4.0,30.17,1022.8,,,,0,0,0,,,,,,,,,Clear,72000.0,,,73000.0,,,,,,
KRDR,03-21-2001,07:00,METAR,,220,8.0,,,9999,Cloud Development Not Observable,-2.0,-4.0,30.18,1023.3,,,,0,0,0,,,,,,,,,Clear,72000.0,,,73000.0,,,,,,
KRDR,03-21-2001,06:00,METAR,,200,6.0,,,9999,Cloud Development Not Observable,-1.0,-4.0,30.18,1023.7,,,,0,0,0,,,,,,,,,Clear,72000.0,,,73000.0,,,,,,
KRDR,03-21-2001,05:00,METAR,,210,4.0,,,9999,Cloud Development Not Observable,-2.0,-3.0,30.19,1023.8,,,,0,0,0,,,,,,,,,Clear,72000.0,,,73000.0,,,,,,
KRDR,03-21-2001,04:00,METAR,,250,9.0,,,9999,Cloud Development Not Observable,0.0,-2.0,30.20,1023.9,,,,0,0,0,,,,,,,,,Clear,72000.0,,,73000.0,,,,,,
KRDR,03-21-2001,03:00,METAR,,240,7.0,,,9999,Cloud Development Not Observable,-1.0,-2.0,30.20,1024.0,,,,0,0,0,,,,,,,,,Clear,72000.0,,,73000.0,,,,,,
KRDR,03-21-2001,02:00,METAR,,240,8.0,,,9999,Cloud Development Not Observable,0.0,-2.0,30.19,1023.8,,,,0,0,0,,,,,,,,,Clear,72000.0,,,73000.0,,,,,,
KRDR,03-21-2001,01:00,METAR,,230,5.0,,,9999,Cloud Development Not Observable,4.0,-2.0,30.18,1023.2,,,,0,0,0,,,,,,,,,Clear,72000.0,,,73000.0,,,,,,
KRDR,03-21-2001,00:00,METAR,,290,6.0,,,9999,Cloud Development Not Observable,6.0,-1.0,30.17,1022.9,,,,0,0,0,,,,,,,,,2/8 Mostly Clear,72000.0,,FEW,6900.0,,,,,,
KRDR,03-20-2001,23:00,METAR,,300,8.0,,,9999,Cloud Development Not Observable,7.0,-1.0,30.16,1022.5,,,,0,0,0,,,,,,,,,2/8 Mostly Clear,72000.0,,FEW,8900.0,,,,,,
KRDR,03-20-2001,22:00,METAR,,300,10.0,22.0,,9999,Cloud Development Not Observable,7.0,-1.0,30.16,1022.4,,,,0,0,0,,,,,,,,,2/8 Mostly Clear,72000.0,,FEW,8900.0,,,,,,
KRDR,03-20-2001,21:00,METAR,,320,12.0,22.0,,9999,Cloud Development Not Observable,7.0,0.0,30.15,1022.2,,,,0,0,0,,,,,,,,,2/8 Mostly Clear,72000.0,,FEW,8900.0,,,,,,
KRDR,03-20-2001,20:00,METAR,,320,14.0,,,9999,Cloud Development Not Observable,7.0,-1.0,30.15,1022.2,,,,0,0,0,,,,,,,,,2/8 Mostly Clear,72000.0,,FEW,8900.0,,,,,,
KRDR,03-20-2001,19:00,METAR,,310,14.0,,,9999,Cloud Development Not Observable,7.0,-1.0,30.15,1022.1,,,,0,0,0,,,,,,,,,Clear,72000.0,,,73000.0,,,,,,
KRDR,03-20-2001,18:00,METAR,,310,18.0,23.0,,9999,Cloud Development Not Observable,6.0,-1.0,30.12,1021.3,,,,0,0,0,,,,,,,,,Clear,72000.0,,,73000.0,,,,,,
KRDR,03-20-2001,17:00,METAR,,310,16.0,,,9999,Cloud Development Not Observable,5.0,-2.0,30.10,1020.6,,,,0,0,0,,,,,,,,,2/8 Mostly Clear,72000.0,,FEW,8900.0,,,,,,
KRDR,03-20-2001,16:00,METAR,,310,17.0,,,9999,Cloud Development Not Observable,4.0,-2.0,30.08,1019.7,,,,0,0,0,,,,,,,,,2/8 Mostly Clear,72000.0,,FEW,8900.0,,,,,,
KRDR,03-20-2001,15:00,METAR,,300,16.0,,,9999,Cloud Development Not Observable,3.0,-1.0,30.06,,,,,0,0,0,,,,,,,,,2/8 Mostly Clear,72000.0,,FEW,8900.0,FEW,20000.0,,,,
KRDR,03-20-2001,13:00,METAR,,300,10.0,,,9999,Cloud Development Not Observable,1.0,0.0,30.01,1017.5,,,,0,0,0,,,,,,,,,4/8 Partly Cloudy,72000.0,,SCT,9400.0,SCT,20000.0,,,,
KRDR,03-20-2001,12:00,METAR,,260,8.0,,,9999,Cloud Development Not Observable,3.0,1.0,29.99,1016.7,,,,0,0,0,,,,,,,,,7/8 Mostly Cloudy,9500.0,,BKN,9400.0,BKN,20000.0,,,,
KRDR,03-20-2001,11:50,METAR,,260,8.0,,,9999,Cloud Development Not Observable,2.0,1.0,29.99,,,,,0,0,0,,,,,,,,,7/8 Mostly Cloudy,9500.0,,BKN,9400.0,BKN,20000.0,,,,
KRDR,03-20-2001,11:00,METAR,,210,8.0,,,9999,Light Rain Showers/Cloud Development Not Observable,2.0,0.0,29.96,,,,,80,0,0,,,,,,,,,8/8 Overcast,8000.0,,SCT,5400.0,BKN,7900.0,OVC,20000.0,,
KRDR,03-20-2001,10:55,METAR,,210,11.0,,,9999,Cloud Development Not Observable,2.0,0.0,29.97,1016.1,,,,0,0,0,,,,,,,,,7/8 Mostly Cloudy,8000.0,,SCT,5400.0,BKN,7900.0,BKN,20000.0,,
KRDR,03-20-2001,10:05,SPECI,,190,13.0,,,9999,Cloud Development Not Observable,1.0,0.0,29.96,,,,,0,0,0,,,,,,,,,8/8 Overcast,8000.0,,SCT,5400.0,OVC,7900.0,,,,
KRDR,03-20-2001,10:00,METAR,,190,13.0,,,9999,Light Rain Showers/Cloud Development Not Observable,1.0,0.0,29.96,1015.7,,,,80,0,0,,,,,,,,,8/8 Overcast,5500.0,,FEW,500.0,BKN,5400.0,OVC,8900.0,,
KRDR,03-20-2001,09:40,SPECI,,180,15.0,,,9999,Light Rain Showers/Cloud Development Not Observable,1.0,0.0,29.94,,,,,80,0,0,,,,,,,,,8/8 Overcast,5500.0,,FEW,500.0,BKN,5400.0,OVC,8900.0,,
KRDR,03-20-2001,09:00,METAR,,190,12.0,,,9999,Cloud Development Not Observable,1.0,0.0,29.97,1016.3,,,,0,0,0,,,,,,,,,8/8 Overcast,9000.0,,FEW,200.0,FEW,900.0,OVC,8900.0,,
KRDR,03-20-2001,08:00,METAR,,180,20.0,25.0,170/26KTS,9999,Cloud Development Not Observable,1.0,0.0,29.97,1016.1,,,,0,0,0,,,,,,,,,8/8 Overcast,9000.0,,FEW,200.0,OVC,8900.0,,,,
KRDR,03-20-2001,07:44,SPECI,,180,20.0,,,9999,Cloud Development Not Observable,1.0,0.0,29.97,,,,,0,0,0,,,,,,,,,8/8 Overcast,9000.0,,FEW,200.0,OVC,8900.0,,,,
KRDR,03-20-2001,07:20,METAR,,180,16.0,,,9999,Cloud Development Not Observable,1.0,0.0,29.99,,,,,0,0,0,,,,,,,,,8/8 Overcast,200.0,,BKN,200.0,OVC,8900.0,,,,
KRDR,03-20-2001,07:00,METAR,,170,18.0,,170/26KTS,9999,Rain/Mist/Cloud Development Not Observable,0.0,0.0,29.98,1016.7,,,,61,10,0,,,,,,,,,8/8 Overcast,400.0,,BKN,400.0,BKN,4500.0,OVC,8900.0,,
KRDR,03-20-2001,06:41,SPECI,,170,17.0,26.0,,9999,Rain/Mist/Cloud Development Not Observable,1.0,0.0,29.99,,,,,61,10,0,,,,,,,,,8/8 Overcast,400.0,,BKN,400.0,OVC,8900.0,,,,
KRDR,03-20-2001,06:00,METAR,,180,17.0,,,6400,Mist/Cloud Development Not Observable,0.0,0.0,29.99,1017.0,,,,10,0,0,,,,,,,,,7/8 Mostly Cloudy,400.0,,BKN,400.0,,,,,,
KRDR,03-20-2001,05:42,SPECI,,170,17.0,,,6400,Mist/Cloud Development Not Observable,0.0,0.0,30.00,,,,,10,0,0,,,,,,,,,7/8 Mostly Cloudy,400.0,,BKN,400.0,,,,,,
KRDR,03-20-2001,05:00,METAR,,180,16.0,22.0,,2400,Mist/Cloud Development Not Observable,0.0,0.0,30.00,1017.2,,,,10,0,0,,,,,,,,,8/8 Overcast,300.0,,OVC,300.0,,,,,,
KRDR,03-20-2001,04:45,METAR,,170,17.0,23.0,,2400,Mist/Cloud Development Not Observable,0.0,0.0,29.99,,,,,10,0,0,,,,,,,,,8/8 Overcast,300.0,,OVC,300.0,,,,,,
KRDR,03-20-2001,04:15,SPECI,,170,15.0,,,2400,Mist/Cloud Development Not Observable,0.0,-1.0,30.00,,,,,10,0,0,,,,,,,,,8/8 Overcast,200.0,,OVC,200.0,,,,,,
KRDR,03-20-2001,04:00,METAR,,170,16.0,,,1200,Mist/Cloud Development Not Observable,0.0,0.0,30.00,1017.2,,,,10,0,0,,,,,,,,,8/8 Overcast,200.0,,OVC,200.0,,,,,,
KRDR,03-20-2001,03:34,SPECI,,170,18.0,23.0,,1200,Mist/Cloud Development Not Observable,0.0,-1.0,30.02,,,,,10,0,0,,,,,,,,,8/8 Overcast,200.0,,OVC,200.0,,,,,,
KRDR,03-20-2001,03:22,SPECI,,170,17.0,,,800,Fog with Rime/Cloud Development Not Observable,0.0,0.0,30.02,,,,,48,0,0,,,,,,,,,8/8 Overcast,200.0,,OVC,200.0,,,,,,
KRDR,03-20-2001,03:00,METAR,,170,15.0,,,1200,Mist/Cloud Development Not Observable,0.0,-1.0,30.03,1018.3,,,,10,0,0,,,,,,,,,8/8 Overcast,200.0,,OVC,200.0,,,,,,
KRDR,03-20-2001,02:00,METAR,,160,14.0,,,1200,Mist/Cloud Development Not Observable,0.0,-1.0,30.05,1019.0,,,,10,0,0,,,,,,,,,8/8 Overcast,200.0,,OVC,200.0,,,,,,
KRDR,03-20-2001,01:46,SPECI,,160,14.0,,,1200,Mist/Cloud Development Not Observable,0.0,-1.0,30.05,,,,,10,0,0,,,,,,,,,8/8 Overcast,200.0,,OVC,200.0,,,,,,
KRDR,03-20-2001,01:00,METAR,,170,13.0,,,8000,Mist/Cloud Development Not Observable,1.0,0.0,30.06,1019.3,,,,10,0,0,,,,,,,,,8/8 Overcast,600.0,,OVC,600.0,,,,,,
KRDR,03-20-2001,00:00,METAR,,180,12.0,,,8000,Mist/Cloud Development Not Observable,1.0,0.0,30.07,1019.6,,,,10,0,0,,,,,,,,,8/8 Overcast,500.0,,OVC,500.0,,,,,,
KRDR,03-19-2001,23:00,METAR,,170,11.0,,,9999,Mist/Cloud Development Not Observable,1.0,0.0,30.09,1020.5,,,,10,0,0,,,,,,,,,8/8 Overcast,500.0,,OVC,500.0,,,,,,
KRDR,03-19-2001,22:00,METAR,,170,12.0,,,8000,Mist/Cloud Development Not Observable,1.0,0.0,30.10,1020.5,,,,10,0,0,,,,,,,,,8/8 Overcast,500.0,,OVC,500.0,,,,,,
KRDR,03-19-2001,21:00,METAR,,170,14.0,,,9999,Mist/Cloud Development Not Observable,2.0,0.0,30.10,1020.5,,,,10,0,0,,,,,,,,,8/8 Overcast,500.0,,OVC,500.0,,,,,,
KRDR,03-19-2001,20:00,METAR,,210,8.0,,,9999,Cloud Development Not Observable,2.0,0.0,30.12,1021.2,,,,0,0,0,,,,,,,,,8/8 Overcast,500.0,,OVC,500.0,,,,,,
KRDR,03-19-2001,19:00,METAR,,230,9.0,,,9999,Mist/Cloud Development Not Observable,0.0,0.0,30.14,1021.9,,,,10,0,0,,,,,,,,,8/8 Overcast,500.0,,OVC,500.0,,,,,,
KRDR,03-19-2001,18:00,METAR,,,,,,9999,Mist/Cloud Development Not Observable,1.0,0.0,30.14,1022.0,,,,10,0,0,,,,,,,,,8/8 Overcast,500.0,,OVC,500.0,,,,,,
KRDR,03-19-2001,17:00,METAR,,240,8.0,,,9999,Mist/Cloud Development Not Observable,0.0,-1.0,30.15,1022.3,,,,10,0,0,,,,,,,,,8/8 Overcast,500.0,,OVC,500.0,,,,,,
KRDR,03-19-2001,16:00,METAR,,260,8.0,,,8000,Mist/Cloud Development Not Observable,0.0,-1.0,30.15,1022.2,,,,10,0,0,,,,,,,,,8/8 Overcast,400.0,,OVC,400.0,,,,,,
KRDR,03-19-2001,15:00,METAR,,270,6.0,,,9999,Mist/Cloud Development Not Observable,0.0,0.0,30.14,1021.9,,,,10,0,0,,,,,,,,,8/8 Overcast,500.0,,OVC,500.0,,,,,,
KRDR,03-19-2001,14:41,SPECI,,280,6.0,,,9999,Cloud Development Not Observable,0.0,0.0,30.14,,,,,0,0,0,,,,,,,,,8/8 Overcast,500.0,,OVC,500.0,,,,,,
KRDR,03-19-2001,14:06,SPECI,,270,7.0,,,9999,Cloud Development Not Observable,1.0,0.0,30.14,,,,,0,0,0,,,,,,,,,8/8 Overcast,600.0,,BKN,600.0,OVC,9900.0,,,,
KRDR,03-19-2001,14:00,METAR,,270,7.0,,,9999,Cloud Development Not Observable,1.0,0.0,30.13,1021.7,,,,0,0,0,,,,,,,,,8/8 Overcast,800.0,,BKN,800.0,OVC,9900.0,,,,
KRDR,03-19-2001,13:43,SPECI,,260,7.0,,,9999,Cloud Development Not Observable,1.0,0.0,30.13,,,,,0,0,0,,,,,,,,,8/8 Overcast,900.0,,BKN,900.0,OVC,9900.0,,,,
KRDR,03-19-2001,13:00,METAR,,230,5.0,,,9999,Cloud Development Not Observable,-1.0,-2.0,30.13,1021.8,,,,0,0,0,,,,,,,,,7/8 Mostly Cloudy,10000.0,,SCT,1100.0,BKN,9900.0,,,,
KRDR,03-19-2001,12:34,SPECI,,230,6.0,,,9999,Cloud Development Not Observable,-1.0,-1.0,30.13,,,,,0,0,0,,,,,,,,,4/8 Partly Cloudy,72000.0,,SCT,1100.0,,,,,,
KRDR,03-19-2001,12:15,SPECI,,230,5.0,,,9999,Cloud Development Not Observable,0.0,-1.0,30.13,,,,,0,0,0,,,,,,,,,8/8 Overcast,1100.0,,OVC,1100.0,,,,,,
KRDR,03-19-2001,12:00,METAR,,260,5.0,,,9999,Cloud Development Not Observable,1.0,0.0,30.13,1021.5,,,,0,0,0,,,,,,,,,8/8 Overcast,1100.0,,OVC,1100.0,,,,,,
KRDR,03-19-2001,11:20,METAR,,280,6.0,,,9999,Cloud Development Not Observable,1.0,-1.0,30.13,,,,,0,0,0,,,,,,,,,8/8 Overcast,1200.0,,FEW,500.0,OVC,1200.0,,,,
KRDR,03-19-2001,11:00,METAR,,290,5.0,,,9999,Cloud Development Not Observable,1.0,0.0,30.12,1021.3,,,,0,0,0,,,,,,,,,8/8 Overcast,500.0,,FEW,200.0,BKN,500.0,OVC,1200.0,,
KRDR,03-19-2001,10:00,METAR,,290,5.0,,,6400,Mist/Cloud Development Not Observable,0.0,0.0,30.12,1021.2,,,,10,0,0,,,,,,,,,8/8 Overcast,500.0,,BKN,500.0,OVC,1000.0,,,,
KRDR,03-19-2001,09:00,METAR,,280,7.0,,,6400,Mist/Cloud Development Not Observable,0.0,0.0,30.13,1021.6,,,,10,0,0,,,,,,,,,8/8 Overcast,500.0,,OVC,500.0,,,,,,
KRDR,03-19-2001,08:00,METAR,,280,8.0,,,6400,Mist/Cloud Development Not Observable,1.0,0.0,30.12,1021.3,,,,10,0,0,,,,,,,,,8/8 Overcast,500.0,,OVC,500.0,,,,,,
KRDR,03-19-2001,07:25,METAR,,240,7.0,,,8000,Mist/Cloud Development Not Observable,1.0,1.0,30.12,,,,,10,0,0,,,,,,,,,8/8 Overcast,500.0,,BKN,500.0,OVC,800.0,,,,
KRDR,03-19-2001,07:05,SPECI,,230,8.0,,,8000,Mist/Cloud Development Not Observable,1.0,0.0,30.12,,,,,10,0,0,,,,,,,,,8/8 Overcast,800.0,,FEW,500.0,OVC,800.0,,,,
KRDR,03-19-2001,07:00,METAR,,230,7.0,,,8000,Mist/Cloud Development Not Observable,1.0,1.0,30.12,1021.3,,,,10,0,0,,,,,,,,,8/8 Overcast,1000.0,,SCT,800.0,OVC,1000.0,,,,
KRDR,03-19-2001,06:00,METAR,,210,9.0,,,8000,Mist/Cloud Development Not Observable,1.0,0.0,30.12,1021.3,,,,10,0,0,,,,,,,,,8/8 Overcast,1000.0,,OVC,1000.0,,,,,,
KRDR,03-19-2001,05:21,SPECI,,200,9.0,,,9999,Mist/Cloud Development Not Observable,1.0,0.0,30.12,,,,,10,0,0,,,,,,,,,8/8 Overcast,1000.0,,OVC,1000.0,,,,,,
KRDR,03-19-2001,05:00,METAR,,190,9.0,,,9999,Mist/Cloud Development Not Observable,1.0,0.0,30.12,1021.2,,,,10,0,0,,,,,,,,,8/8 Overcast,1500.0,,OVC,1500.0,,,,,,
KRDR,03-19-2001,04:00,METAR,,190,11.0,,,9999,Cloud Development Not Observable,2.0,1.0,30.13,1021.5,,,,0,0,0,,,,,,,,,8/8 Overcast,1500.0,,OVC,1500.0,,,,,,
KRDR,03-19-2001,03:00,METAR,,200,14.0,,,9999,Cloud Development Not Observable,1.0,0.0,30.13,1021.6,,,,0,0,0,,,,,,,,,8/8 Overcast,2500.0,,SCT,1000.0,OVC,2500.0,,,,
KRDR,03-19-2001,02:50,METAR,,200,13.0,,,9999,Cloud Development Not Observable,1.0,0.0,30.13,,,,,0,0,0,,,,,,,,,8/8 Overcast,2500.0,,SCT,1000.0,OVC,2500.0,,,,
KRDR,03-19-2001,02:00,METAR,,200,14.0,,,9999,Mist/Cloud Development Not Observable,1.0,0.0,30.13,1021.3,,,,10,0,0,,,,,,,,,8/8 Overcast,900.0,,BKN,900.0,OVC,3000.0,,,,
KRDR,03-19-2001,01:00,METAR,,190,14.0,,,9999,Mist/Cloud Development Not Observable,1.0,0.0,30.12,1021.3,,,,10,0,0,,,,,,,,,8/8 Overcast,900.0,,BKN,900.0,OVC,3000.0,,,,
KRDR,03-19-2001,00:15,SPECI,,190,15.0,,,9999,Mist/Cloud Development Not Observable,2.0,0.0,30.12,,,,,10,0,0,,,,,,,,,8/8 Overcast,700.0,,BKN,700.0,OVC,3000.0,,,,
KRDR,03-19-2001,00:00,METAR,,190,14.0,,,9999,Light Snow/Mist/Cloud Development Not Observable,1.0,0.0,30.12,1021.3,,,,71,10,0,,,,,,,,,8/8 Overcast,700.0,,BKN,700.0,OVC,3000.0,,,,
KRDR,03-18-2001,23:40,SPECI,,180,14.0,,,9999,Light Snow/Mist/Cloud Development Not Observable,1.0,0.0,30.11,,,,,71,10,0,,,,,,,,,8/8 Overcast,700.0,,BKN,700.0,OVC,3000.0,,,,
KRDR,03-18-2001,23:00,METAR,,180,14.0,,,9999,Light Snow/Mist/Cloud Development Not Observable,1.0,0.0,30.12,1021.3,,,,71,10,0,,,,,,,,,8/8 Overcast,3000.0,,SCT,700.0,OVC,3000.0,,,,
KRDR,03-18-2001,22:00,METAR,,170,15.0,,,8000,Light Snow/Cloud Development Not Observable,0.0,0.0,30.11,1021.1,,,,71,0,0,,,,,,,,,8/8 Overcast,3000.0,,SCT,500.0,OVC,3000.0,,,,
KRDR,03-18-2001,21:00,METAR,,170,14.0,,,9999,Light Snow/Rain/Cloud Development Not Observable,0.0,0.0,30.12,1021.0,,,,61,71,0,,,,,,,,,8/8 Overcast,3000.0,,OVC,3000.0,,,,,,
KRDR,03-18-2001,20:00,METAR,,170,14.0,,,9999,Rain/Cloud Development Not Observable,1.0,0.0,30.12,1021.3,,,,61,0,0,,,,,,,,,8/8 Overcast,3000.0,,BKN,3000.0,OVC,9900.0,,,,
KRDR,03-18-2001,19:35,SPECI,,160,15.0,,,9999,Ice Pellets/Rain/Cloud Development Not Observable,1.0,-1.0,30.12,,,,,61,79,0,,,,,,,,,8/8 Overcast,10000.0,,OVC,9900.0,,,,,,
KRDR,03-18-2001,19:00,METAR,,170,14.0,,,9999,Cloud Development Not Observable,2.0,-1.0,30.12,1021.2,,,,0,0,0,,,,,,,,,8/8 Overcast,10000.0,,OVC,9900.0,,,,,,
KRDR,03-18-2001,18:00,METAR,,190,13.0,,,9999,Cloud Development Not Observable,3.0,-1.0,30.12,1021.4,,,,0,0,0,,,,,,,,,8/8 Overcast,10000.0,,OVC,9900.0,,,,,,
KRDR,03-18-2001,17:00,METAR,,170,14.0,,,9999,Cloud Development Not Observable,2.0,-1.0,30.12,1021.4,,,,0,0,0,,,,,,,,,8/8 Overcast,10000.0,,OVC,9900.0,,,,,,
KRDR,03-18-2001,16:00,METAR,,180,15.0,,,9999,Cloud Development Not Observable,0.0,-2.0,30.11,1021.2,,,,0,0,0,,,,,,,,,8/8 Overcast,10000.0,,OVC,9900.0,,,,,,
KRDR,03-18-2001,15:00,METAR,,180,16.0,,,9999,Cloud Development Not Observable,-2.0,-4.0,30.11,1021.2,,,,0,0,0,,,,,,,,,8/8 Overcast,10000.0,,OVC,9900.0,,,,,,
KRDR,03-18-2001,14:00,METAR,,180,14.0,,,9999,Cloud Development Not Observable,-3.0,-4.0,30.11,1021.2,,,,0,0,0,,,,,,,,,8/8 Overcast,10000.0,,BKN,9900.0,OVC,20000.0,,,,
KRDR,03-18-2001,13:00,METAR,,170,15.0,,,9999,Cloud Development Not Observable,-4.0,-5.0,30.12,1021.4,,,,0,0,0,,,,,,,,,7/8 Mostly Cloudy,20000.0,,BKN,20000.0,,,,,,
KRDR,03-18-2001,12:00,METAR,,180,16.0,,,9999,Cloud Development Not Observable,-4.0,-5.0,30.11,1021.1,,,,0,0,0,,,,,,,,,7/8 Mostly Cloudy,20000.0,,FEW,7900.0,BKN,20000.0,,,,
KRDR,03-18-2001,11:00,METAR,,170,16.0,,,9999,Cloud Development Not Observable,-4.0,-5.0,30.12,1021.2,,,,0,0,0,,,,,,,,,4/8 Partly Cloudy,72000.0,,SCT,20000.0,,,,,,
KRDR,03-18-2001,10:00,METAR,,170,15.0,,,9999,Cloud Development Not Observable,-3.0,-5.0,30.13,1021.6,,,,0,0,0,,,,,,,,,Clear,72000.0,,,73000.0,,,,,,
KRDR,03-18-2001,09:00,METAR,,160,15.0,,,9999,Cloud Development Not Observable,-3.0,-5.0,30.15,1022.3,,,,0,0,0,,,,,,,,,Clear,72000.0,,,73000.0,,,,,,
KRDR,03-18-2001,08:00,METAR,,170,16.0,,,9999,Cloud Development Not Observable,-3.0,-4.0,30.17,1023.0,,,,0,0,0,,,,,,,,,Clear,72000.0,,,73000.0,,,,,,
KRDR,03-18-2001,07:00,METAR,,170,14.0,,,9999,Cloud Development Not Observable,-2.0,-4.0,30.18,1023.5,,,,0,0,0,,,,,,,,,Clear,72000.0,,,73000.0,,,,,,
KRDR,03-18-2001,06:00,METAR,,170,14.0,,,9999,Cloud Development Not Observable,-2.0,-4.0,30.20,1024.0,,,,0,0,0,,,,,,,,,Clear,72000.0,,,73000.0,,,,,,
KRDR,03-18-2001,05:00,METAR,,170,14.0,,,9999,Cloud Development Not Observable,-2.0,-3.0,30.20,1024.2,,,,0,0,0,,,,,,,,,Clear,72000.0,,,73000.0,,,,,,
KRDR,03-18-2001,04:00,METAR,,160,13.0,,,9999,Cloud Development Not Observable,-2.0,-3.0,30.21,1024.6,,,,0,0,0,,,,,,,,,Clear,72000.0,,,73000.0,,,,,,
KRDR,03-18-2001,03:00,METAR,,160,13.0,,,9999,Cloud Development Not Observable,-2.0,-3.0,30.21,1024.6,,,,0,0,0,,,,,,,,,Clear,72000.0,,,73000.0,,,,,,
KRDR,03-18-2001,02:00,METAR,,170,13.0,,,9999,Cloud Development Not Observable,-1.0,-3.0,30.23,1025.1,,,,0,0,0,,,,,,,,,Clear,72000.0,,,73000.0,,,,,,
KRDR,03-18-2001,01:00,METAR,,160,14.0,,,9999,Cloud Development Not Observable,-1.0,-2.0,30.22,1025.2,,,,0,0,0,,,,,,,,,Clear,72000.0,,,73000.0,,,,,,
KRDR,03-18-2001,00:00,METAR,,160,13.0,,,9999,Cloud Development Not Observable,1.0,-1.0,30.23,1025.2,,,,0,0,0,,,,,,,,,Clear,72000.0,,,73000.0,,,,,,
KRDR,03-17-2001,23:00,METAR,,170,15.0,,,9999,Cloud Development Not Observable,3.0,0.0,30.24,1025.5,,,,0,0,0,,,,,,,,,Clear,72000.0,,,73000.0,,,,,,
KRDR,03-17-2001,22:00,METAR,,170,17.0,,,9999,Cloud Development Not Observable,4.0,0.0,30.24,1025.6,,,,0,0,0,,,,,,,,,Clear,72000.0,,,73000.0,,,,,,
KRDR,03-17-2001,21:00,METAR,,180,16.0,,,9999,Cloud Development Not Observable,4.0,0.0,30.25,1025.8,,,,0,0,0,,,,,,,,,Clear,72000.0,,,73000.0,,,,,,
KRDR,03-17-2001,20:00,METAR,,170,16.0,,,9999,Cloud Development Not Observable,4.0,0.0,30.26,1026.1,,,,0,0,0,,,,,,,,,Clear,72000.0,,,73000.0,,,,,,
KRDR,03-17-2001,19:00,METAR,,170,17.0,,,9999,Cloud Development Not Observable,3.0,-1.0,30.27,1026.5,,,,0,0,0,,,,,,,,,Clear,72000.0,,,73000.0,,,,,,
KRDR,03-17-2001,18:00,METAR,,170,20.0,,,9999,Cloud Development Not Observable,2.0,-2.0,30.29,1027.0,,,,0,0,0,,,,,,,,,Clear,72000.0,,,73000.0,,,,,,
KRDR,03-17-2001,17:00,METAR,,180,18.0,,,9999,Cloud Development Not Observable,2.0,-2.0,,1027.0,,,,0,0,0,,,,,,,,,Clear,72000.0,,,73000.0,,,,,,
KRDR,03-17-2001,16:00,METAR,,160,14.0,,,9999,Cloud Development Not Observable,-1.0,-2.0,30.28,1027.0,,,,0,0,0,,,,,,,,,Clear,72000.0,,,73000.0,,,,,,
KRDR,03-17-2001,15:00,METAR,,170,10.0,,,9999,Mist/Cloud Development Not Observable,-1.0,-3.0,30.28,1026.7,,,,10,0,0,,,,,,,,,Clear,72000.0,,,73000.0,,,,,,
KRDR,03-17-2001,14:00,METAR,,160,7.0,,,8000,Mist/Cloud Development Not Observable,-3.0,-3.0,30.27,1026.5,,,,10,0,0,,,,,,,,,Clear,72000.0,,,73000.0,,,,,,
KRDR,03-17-2001,13:00,METAR,,180,7.0,,,9999,Mist/Cloud Development Not Observable,-5.0,-5.0,30.27,1026.7,,,,10,0,0,,,,,,,,,Clear,72000.0,,,73000.0,,,,,,
KRDR,03-17-2001,12:00,METAR,,190,7.0,,,9999,Cloud Development Not Observable,-4.0,-5.0,30.25,1026.0,,,,0,0,0,,,,,,,,,Clear,72000.0,,,73000.0,,,,,,
KRDR,03-17-2001,11:00,METAR,,200,7.0,,,9999,Cloud Development Not Observable,-5.0,-5.0,30.25,1025.9,,,,0,0,0,,,,,,,,,Clear,72000.0,,,73000.0,,,,,,
KRDR,03-17-2001,10:00,METAR,,220,6.0,,,9999,Cloud Development Not Observable,-5.0,-5.0,30.25,1025.8,,,,0,0,0,,,,,,,,,Clear,72000.0,,,73000.0,,,,,,
KRDR,03-17-2001,09:00,METAR,,200,7.0,,,9999,Cloud Development Not Observable,-5.0,-5.0,30.25,1025.8,,,,0,0,0,,,,,,,,,Clear,72000.0,,,73000.0,,,,,,
KRDR,03-17-2001,08:00,METAR,,200,8.0,,,9999,Cloud Development Not Observable,-5.0,-5.0,30.24,1025.6,,,,0,0,0,,,,,,,,,Clear,72000.0,,,73000.0,,,,,,
KRDR,03-17-2001,07:00,METAR,,210,7.0,,,9999,Cloud Development Not Observable,-4.0,-4.0,30.23,1025.1,,,,0,0,0,,,,,,,,,Clear,72000.0,,,73000.0,,,,,,
KRDR,03-17-2001,06:00,METAR,,190,6.0,,,9999,Cloud Development Not Observable,-3.0,-4.0,30.21,1024.6,,,,0,0,0,,,,,,,,,Clear,72000.0,,,73000.0,,,,,,
KRDR,03-17-2001,05:00,METAR,,200,5.0,,,9999,Cloud Development Not Observable,-3.0,-3.0,30.20,1024.2,,,,0,0,0,,,,,,,,,Clear,72000.0,,,73000.0,,,,,,
KRDR,03-17-2001,04:00,METAR,,190,7.0,,,9999,Cloud Development Not Observable,-3.0,-3.0,30.19,1023.9,,,,0,0,0,,,,,,,,,Clear,72000.0,,,73000.0,,,,,,
KRDR,03-17-2001,03:00,METAR,,220,5.0,,,9999,Cloud Development Not Observable,-2.0,-3.0,30.18,1023.7,,,,0,0,0,,,,,,,,,Clear,72000.0,,,73000.0,,,,,,
KRDR,03-17-2001,02:00,METAR,,230,6.0,,,9999,Cloud Development Not Observable,-1.0,-3.0,30.17,1023.4,,,,0,0,0,,,,,,,,,2/8 Mostly Clear,72000.0,,FEW,3000.0,,,,,,
KRDR,03-17-2001,01:00,METAR,,240,4.0,,,9999,Cloud Development Not Observable,0.0,-2.0,30.17,1023.3,,,,0,0,0,,,,,,,,,7/8 Mostly Cloudy,3000.0,,BKN,3000.0,,,,,,
KRDR,03-17-2001,00:00,METAR,,290,4.0,,,9999,Cloud Development Not Observable,3.0,-3.0,30.16,1023.1,,,,0,0,0,,,,,,,,,7/8 Mostly Cloudy,3000.0,,BKN,3000.0,,,,,,
KRDR,03-16-2001,23:00,METAR,,280,7.0,,,9999,Cloud Development Not Observable,3.0,-2.0,30.15,1022.6,,,,0,0,0,,,,,,,,,7/8 Mostly Cloudy,3000.0,,BKN,3000.0,,,,,,
KRDR,03-16-2001,22:00,METAR,,260,6.0,,,9999,Cloud Development Not Observable,4.0,-2.0,30.14,1022.2,,,,0,0,0,,,,,,,,,4/8 Partly Cloudy,72000.0,,SCT,3000.0,,,,,,
KRDR,03-16-2001,21:00,METAR,,280,6.0,,,9999,Cloud Development Not Observable,4.0,-2.0,30.13,1021.9,,,,0,0,0,,,,,,,,,4/8 Partly Cloudy,72000.0,,FEW,3000.0,SCT,7900.0,,,,
KRDR,03-16-2001,20:00,METAR,,280,7.0,,,9999,Cloud Development Not Observable,3.0,-2.0,30.12,1021.6,,,,0,0,0,,,,,,,,,7/8 Mostly Cloudy,3000.0,,BKN,3000.0,BKN,7900.0,,,,
KRDR,03-16-2001,19:00,METAR,,170,5.0,,,9999,Cloud Development Not Observable,3.0,-2.0,30.14,1022.0,,,,0,0,0,,,,,,,,,4/8 Partly Cloudy,72000.0,,FEW,3000.0,SCT,7900.0,,,,
KRDR,03-16-2001,18:00,METAR,,170,8.0,,,9999,Cloud Development Not Observable,3.0,-3.0,30.13,1021.9,,,,0,0,0,,,,,,,,,2/8 Mostly Clear,72000.0,,FEW,3500.0,FEW,7900.0,,,,
KRDR,03-16-2001,17:00,METAR,,160,8.0,,,9999,Cloud Development Not Observable,2.0,-2.0,30.14,1023.0,,,,0,0,0,,,,,,,,,4/8 Partly Cloudy,72000.0,,FEW,7900.0,SCT,20000.0,,,,
KRDR,03-16-2001,16:00,METAR,,170,7.0,,,9999,Cloud Development Not Observable,0.0,-3.0,30.13,1022.0,,,,0,0,0,,,,,,,,,7/8 Mostly Cloudy,8000.0,,SCT,3300.0,BKN,7900.0,,,,
KRDR,03-16-2001,15:00,METAR,,200,6.0,,,9999,Cloud Development Not Observable,-2.0,-3.0,30.13,1022.0,,,,0,0,0,,,,,,,,,4/8 Partly Cloudy,72000.0,,FEW,2500.0,SCT,3300.0,,,,
KRDR,03-16-2001,14:00,METAR,,180,8.0,,,9999,Cloud Development Not Observable,-5.0,-6.0,30.13,1022.1,,,,0,0,0,,,,,,,,,4/8 Partly Cloudy,72000.0,,SCT,2500.0,,,,,,
KRDR,03-16-2001,13:00,METAR,,210,6.0,,,9999,Cloud Development Not Observable,-8.0,-8.0,30.14,1022.3,,,,0,0,0,,,,,,,,,4/8 Partly Cloudy,72000.0,,SCT,2500.0,,,,,,
KRDR,03-16-2001,12:00,METAR,,190,5.0,,,9999,Cloud Development Not Observable,-9.0,-9.0,30.13,1022.2,,,,0,0,0,,,,,,,,,Clear,72000.0,,,73000.0,,,,,,
KRDR,03-16-2001,11:00,METAR,,,,,,9999,Cloud Development Not Observable,-7.0,-7.0,30.12,1021.7,,,,0,0,0,,,,,,,,,Clear,72000.0,,,73000.0,,,,,,
KRDR,03-16-2001,10:00,METAR,,210,4.0,,,9999,Cloud Development Not Observable,-7.0,-8.0,30.11,1021.4,,,,0,0,0,,,,,,,,,Clear,72000.0,,,73000.0,,,,,,
KRDR,03-16-2001,09:00,METAR,,190,6.0,,,9999,Cloud Development Not Observable,-8.0,-8.0,30.12,1021.6,,,,0,0,0,,,,,,,,,Clear,72000.0,,,73000.0,,,,,,
KRDR,03-16-2001,08:00,METAR,,210,4.0,,,9999,Cloud Development Not Observable,-8.0,-8.0,30.12,1021.5,,,,0,0,0,,,,,,,,,Clear,72000.0,,,73000.0,,,,,,
KRDR,03-16-2001,07:00,METAR,,150,3.0,,,9999,Cloud Development Not Observable,-6.0,-7.0,30.12,1021.6,,,,0,0,0,,,,,,,,,Clear,72000.0,,,73000.0,,,,,,
KRDR,03-16-2001,06:00,METAR,,250,6.0,,,9999,Cloud Development Not Observable,-7.0,-7.0,30.12,1021.8,,,,0,0,0,,,,,,,,,Clear,72000.0,,,73000.0,,,,,,
KRDR,03-16-2001,05:00,METAR,,260,5.0,,,9999,Cloud Development Not Observable,-7.0,-7.0,30.12,1021.8,,,,0,0,0,,,,,,,,,Clear,72000.0,,,73000.0,,,,,,
KRDR,03-16-2001,04:00,METAR,,230,6.0,,,9999,Cloud Development Not Observable,-6.0,-6.0,30.13,1022.0,,,,0,0,0,,,,,,,,,Clear,72000.0,,,73000.0,,,,,,
KRDR,03-16-2001,03:00,METAR,,250,4.0,,,9999,Cloud Development Not Observable,-5.0,-7.0,30.13,1022.2,,,,0,0,0,,,,,,,,,Clear,72000.0,,,73000.0,,,,,,
KRDR,03-16-2001,02:00,METAR,,280,1.0,,,9999,Cloud Development Not Observable,-4.0,-6.0,30.13,1022.1,,,,0,0,0,,,,,,,,,4/8 Partly Cloudy,72000.0,,SCT,20000.0,,,,,,
KRDR,03-16-2001,01:00,METAR,,20,5.0,,,9999,Cloud Development Not Observable,-3.0,-6.0,30.13,1022.1,,,,0,0,0,,,,,,,,,4/8 Partly Cloudy,72000.0,,SCT,20000.0,,,,,,
KRDR,03-16-2001,00:00,METAR,,20,5.0,,,9999,Cloud Development Not Observable,-2.0,-5.0,30.13,1022.1,,,,0,0,0,,,,,,,,,4/8 Partly Cloudy,72000.0,,FEW,2000.0,SCT,20000.0,,,,
KRDR,03-15-2001,22:00,METAR,,330,8.0,,,9999,Cloud Development Not Observable,-2.0,-5.0,30.14,1022.3,,,,0,0,0,,,,,,,,,7/8 Mostly Cloudy,20000.0,,SCT,2000.0,BKN,20000.0,,,,
KRDR,03-15-2001,21:33,SPECI,,330,8.0,,,9999,Cloud Development Not Observable,-1.0,-5.0,30.14,,,,,0,0,0,,,,,,,,,7/8 Mostly Cloudy,20000.0,,SCT,2000.0,BKN,20000.0,,,,
KRDR,03-15-2001,21:00,METAR,,360,6.0,,,9999,Cloud Development Not Observable,-2.0,-5.0,30.13,1022.0,,,,0,0,0,,,,,,,,,7/8 Mostly Cloudy,2000.0,,BKN,2000.0,BKN,20000.0,,,,
KRDR,03-15-2001,20:00,METAR,,340,8.0,,,9999,Cloud Development Not Observable,-1.0,-5.0,30.16,1022.9,,,,0,0,0,,,,,,,,,7/8 Mostly Cloudy,2000.0,,BKN,2000.0,BKN,20000.0,,,,
KRDR,03-15-2001,19:22,SPECI,,340,9.0,,,9999,Cloud Development Not Observable,-2.0,-5.0,30.16,,,,,0,0,0,,,,,,,,,7/8 Mostly Cloudy,2000.0,,BKN,2000.0,BKN,20000.0,,,,
KRDR,03-15-2001,19:00,METAR,,340,8.0,,,9999,Cloud Development Not Observable,-2.0,-5.0,30.17,1023.4,,,,0,0,0,,,,,,,,,7/8 Mostly Cloudy,20000.0,,SCT,2000.0,BKN,20000.0,,,,
KRDR,03-15-2001,18:00,METAR,,340,8.0,,,9999,Cloud Development Not Observable,-3.0,-6.0,30.18,1023.6,,,,0,0,0,,,,,,,,,8/8 Overcast,20000.0,,FEW,2000.0,FEW,12000.0,OVC,20000.0,,
KRDR,03-15-2001,17:00,METAR,,350,10.0,,,9999,Cloud Development Not Observable,-4.0,-7.0,30.19,1024.1,,,,0,0,0,,,,,,,,,8/8 Overcast,20000.0,,OVC,20000.0,,,,,,
KRDR,03-15-2001,16:00,METAR,,350,11.0,,,9999,Cloud Development Not Observable,-4.0,-8.0,30.20,1024.3,,,,0,0,0,,,,,,,,,8/8 Overcast,20000.0,,OVC,20000.0,,,,,,
KRDR,03-15-2001,15:00,METAR,,350,10.0,,,9999,Cloud Development Not Observable,-5.0,-8.0,30.20,1024.3,,,,0,0,0,,,,,,,,,8/8 Overcast,20000.0,,OVC,20000.0,,,,,,
KRDR,03-15-2001,14:00,METAR,,350,11.0,,,9999,Cloud Development Not Observable,-5.0,-8.0,30.18,1023.8,,,,0,0,0,,,,,,,,,7/8 Mostly Cloudy,20000.0,,BKN,20000.0,,,,,,
KRDR,03-15-2001,13:00,METAR,,320,8.0,,,9999,Cloud Development Not Observable,-6.0,-7.0,30.17,1023.2,,,,0,0,0,,,,,,,,,7/8 Mostly Cloudy,20000.0,,BKN,20000.0,,,,,,
KRDR,03-15-2001,12:00,METAR,,320,8.0,,,9999,Cloud Development Not Observable,-6.0,-7.0,30.16,1023.1,,,,0,0,0,,,,,,,,,4/8 Partly Cloudy,72000.0,,SCT,20000.0,,,,,,
KRDR,03-15-2001,11:00,METAR,,320,9.0,,,9999,Cloud Development Not Observable,-6.0,-6.0,30.15,1022.4,,,,0,0,0,,,,,,,,,Clear,72000.0,,,73000.0,,,,,,
KRDR,03-15-2001,10:00,METAR,,350,10.0,,,9999,Cloud Development Not Observable,-6.0,-7.0,30.13,1021.8,,,,0,0,0,,,,,,,,,Clear,72000.0,,,73000.0,,,,,,
KRDR,03-15-2001,09:00,METAR,,350,10.0,,,9999,Cloud Development Not Observable,-5.0,-6.0,30.13,1021.8,,,,0,0,0,,,,,,,,,Clear,72000.0,,,73000.0,,,,,,
KRDR,03-15-2001,08:00,METAR,,340,10.0,,,9999,Cloud Development Not Observable,-5.0,-6.0,30.13,1021.8,,,,0,0,0,,,,,,,,,2/8 Mostly Clear,72000.0,,FEW,2000.0,,,,,,
KRDR,03-15-2001,07:00,METAR,,340,9.0,,,9999,Cloud Development Not Observable,-5.0,-6.0,30.13,1021.7,,,,0,0,0,,,,,,,,,2/8 Mostly Clear,72000.0,,FEW,2000.0,,,,,,
KRDR,03-15-2001,06:00,METAR,,350,10.0,,,9999,Cloud Development Not Observable,-4.0,-5.0,30.11,1021.0,,,,0,0,0,,,,,,,,,4/8 Partly Cloudy,72000.0,,SCT,2000.0,,,,,,
KRDR,03-15-2001,05:27,SPECI,,360,14.0,,,9999,Cloud Development Not Observable,-3.0,-5.0,30.10,,,,,0,0,0,,,,,,,,,4/8 Partly Cloudy,72000.0,,SCT,2000.0,,,,,,
KRDR,03-15-2001,05:00,METAR,,360,12.0,,,9999,Cloud Development Not Observable,-3.0,-5.0,30.09,1020.4,,,,0,0,0,,,,,,,,,7/8 Mostly Cloudy,2000.0,,BKN,2000.0,,,,,,
KRDR,03-15-2001,04:00,METAR,,350,20.0,,360/26KTS,9999,Cloud Development Not Observable,-2.0,-4.0,30.06,1019.5,,,,0,0,0,,,,,,,,,8/8 Overcast,1700.0,,OVC,1700.0,,,,,,
KRDR,03-15-2001,03:00,METAR,,360,20.0,,,9999,Cloud Development Not Observable,-1.0,-3.0,30.03,1018.4,,,,0,0,0,,,,,,,,,8/8 Overcast,2000.0,,SCT,1500.0,OVC,2000.0,,,,
KRDR,03-15-2001,02:00,METAR,,350,14.0,,,9999,Cloud Development Not Observable,-1.0,-2.0,30.00,1017.5,,,,0,0,0,,,,,,,,,7/8 Mostly Cloudy,2200.0,,BKN,2200.0,BKN,9900.0,,,,
KRDR,03-15-2001,01:00,METAR,,350,14.0,,,9999,Cloud Development Not Observable,0.0,-2.0,29.98,1016.7,,,,0,0,0,,,,,,,,,7/8 Mostly Cloudy,1200.0,,BKN,1200.0,BKN,9900.0,BKN,20000.0,,
KRDR,03-15-2001,00:00,METAR,,360,15.0,,,9999,Cloud Development Not Observable,0.0,-1.0,29.95,1015.8,,,,0,0,0,,,,,,,,,8/8 Overcast,800.0,,OVC,800.0,,,,,,
KRDR,03-14-2001,23:00,METAR,,360,16.0,,,9999,Cloud Development Not Observable,1.0,-1.0,29.92,1014.5,,,,0,0,0,,,,,,,,,8/8 Overcast,900.0,,OVC,900.0,,,,,,
KRDR,03-14-2001,22:00,METAR,,360,16.0,,,9999,Cloud Development Not Observable,0.0,-1.0,29.89,1013.6,,,,0,0,0,,,,,,,,,8/8 Overcast,500.0,,OVC,500.0,,,,,,
KRDR,03-14-2001,21:44,SPECI,,360,14.0,,,9999,Cloud Development Not Observable,0.0,-1.0,29.89,,,,,0,0,0,,,,,,,,,8/8 Overcast,500.0,,OVC,500.0,,,,,,
KRDR,03-14-2001,21:00,METAR,,350,14.0,,,9999,Cloud Development Not Observable,2.0,0.0,29.86,1012.6,,,,0,0,0,,,,,,,,,8/8 Overcast,900.0,,OVC,900.0,,,,,,
KRDR,03-14-2001,20:00,METAR,,360,14.0,,,9999,Cloud Development Not Observable,2.0,0.0,29.84,1011.8,,,,0,0,0,,,,,,,,,7/8 Mostly Cloudy,900.0,,BKN,900.0,BKN,1100.0,,,,
KRDR,03-14-2001,19:24,SPECI,,360,10.0,,,9999,Cloud Development Not Observable,3.0,0.0,29.82,,,,,0,0,0,,,,,,,,,8/8 Overcast,800.0,,BKN,800.0,OVC,1000.0,,,,
KRDR,03-14-2001,19:00,METAR,,20,7.0,,,9999,Cloud Development Not Observable,2.0,0.0,29.81,1010.9,,,,0,0,0,,,,,,,,,7/8 Mostly Cloudy,1000.0,,SCT,800.0,BKN,1000.0,,,,
KRDR,03-14-2001,18:00,METAR,,10,8.0,,,9999,Cloud Development Not Observable,1.0,-1.0,29.79,1010.2,,,,0,0,0,,,,,,,,,8/8 Overcast,600.0,,BKN,600.0,OVC,800.0,,,,
KRDR,03-14-2001,17:38,SPECI,,30,13.0,,,9999,Cloud Development Not Observable,2.0,0.0,29.78,,,,,0,0,0,,,,,,,,,8/8 Overcast,700.0,,BKN,700.0,OVC,1000.0,,,,
KRDR,03-14-2001,17:00,METAR,,360,11.0,,,9999,Cloud Development Not Observable,1.0,-1.0,29.77,1009.3,,,,0,0,0,,,,,,,,,7/8 Mostly Cloudy,20000.0,,FEW,700.0,SCT,1000.0,BKN,20000.0,,
KRDR,03-14-2001,16:00,METAR,,360,10.0,,,9999,Cloud Development Not Observable,1.0,-2.0,29.75,1008.6,,,,0,0,0,,,,,,,,,4/8 Partly Cloudy,72000.0,,FEW,800.0,FEW,7900.0,SCT,20000.0,,
KRDR,03-14-2001,15:30,METAR,,360,9.0,,,9999,Cloud Development Not Observable,0.0,-2.0,29.74,,,,,0,0,0,,,,,,,,,7/8 Mostly Cloudy,20000.0,,SCT,800.0,SCT,7900.0,BKN,20000.0,,
KRDR,03-14-2001,15:14,SPECI,,350,9.0,,,9999,Cloud Development Not Observable,0.0,-2.0,29.73,,,,,0,0,0,,,,,,,,,7/8 Mostly Cloudy,800.0,,BKN,800.0,BKN,7900.0,BKN,20000.0,,
KRDR,03-14-2001,15:00,METAR,,330,8.0,,,9999,Cloud Development Not Observable,0.0,-3.0,29.73,1007.9,,,,0,0,0,,,,,,,,,7/8 Mostly Cloudy,8000.0,,SCT,800.0,BKN,7900.0,,,,
KRDR,03-14-2001,14:00,METAR,,290,7.0,,,9999,Cloud Development Not Observable,-3.0,-4.0,29.71,1007.5,,,,0,0,0,,,,,,,,,7/8 Mostly Cloudy,8000.0,,BKN,7900.0,,,,,,
KRDR,03-14-2001,13:00,METAR,,280,8.0,,,9999,Cloud Development Not Observable,-4.0,-5.0,29.68,1006.4,,,,0,0,0,,,,,,,,,7/8 Mostly Cloudy,8000.0,,FEW,3000.0,BKN,7900.0,,,,
KRDR,03-14-2001,12:00,METAR,,290,7.0,,,9999,Cloud Development Not Observable,-4.0,-5.0,29.65,1005.5,,,,0,0,0,,,,,,,,,4/8 Partly Cloudy,72000.0,,SCT,8900.0,SCT,20000.0,,,,
KRDR,03-14-2001,11:00,METAR,,290,8.0,,,9999,Cloud Development Not Observable,-4.0,-4.0,29.63,1004.8,,,,0,0,0,,,,,,,,,2/8 Mostly Clear,72000.0,,FEW,8900.0,FEW,20000.0,,,,
KRDR,03-14-2001,10:00,METAR,,290,7.0,,,9999,Cloud Development Not Observable,-3.0,-4.0,29.62,1004.4,,,,0,0,0,,,,,,,,,4/8 Partly Cloudy,72000.0,,SCT,8900.0,SCT,20000.0,,,,
KRDR,03-14-2001,09:00,METAR,,280,6.0,,,9999,Cloud Development Not Observable,-2.0,-3.0,29.61,1003.8,,,,0,0,0,,,,,,,,,4/8 Partly Cloudy,72000.0,,FEW,8900.0,SCT,20000.0,,,,
KRDR,03-14-2001,08:00,METAR,,290,6.0,,,9999,Cloud Development Not Observable,-2.0,-3.0,29.61,1003.8,,,,0,0,0,,,,,,,,,4/8 Partly Cloudy,72000.0,,SCT,20000.0,,,,,,
KRDR,03-14-2001,07:00,METAR,,270,5.0,,,9999,Cloud Development Not Observable,-2.0,-3.0,29.60,1003.7,,,,0,0,0,,,,,,,,,4/8 Partly Cloudy,72000.0,,SCT,20000.0,,,,,,
KRDR,03-14-2001,06:00,METAR,,300,10.0,,,9999,Cloud Development Not Observable,-1.0,-2.0,29.59,1003.4,,,,0,0,0,,,,,,,,,4/8 Partly Cloudy,72000.0,,SCT,20000.0,,,,,,
KRDR,03-14-2001,05:00,METAR,,290,11.0,,,9999,Cloud Development Not Observable,1.0,-1.0,29.58,1003.0,,,,0,0,0,,,,,,,,,4/8 Partly Cloudy,72000.0,,SCT,20000.0,,,,,,
KRDR,03-14-2001,04:00,METAR,,260,7.0,,,9999,Cloud Development Not Observable,1.0,-1.0,29.57,1002.7,,,,0,0,0,,,,,,,,,4/8 Partly Cloudy,72000.0,,SCT,20000.0,,,,,,
KRDR,03-14-2001,03:00,METAR,,210,8.0,,,9999,Cloud Development Not Observable,0.0,-1.0,29.57,1002.5,,,,0,0,0,,,,,,,,,4/8 Partly Cloudy,72000.0,,FEW,7900.0,SCT,20000.0,,,,
KRDR,03-14-2001,02:00,METAR,,210,6.0,,,9999,Cloud Development Not Observable,1.0,-1.0,29.58,1002.8,,,,0,0,0,,,,,,,,,4/8 Partly Cloudy,72000.0,,FEW,6400.0,SCT,7900.0,SCT,20000.0,,
KRDR,03-14-2001,01:00,METAR,,200,7.0,,,9999,Cloud Development Not Observable,2.0,-1.0,29.59,1003.2,,,,0,0,0,,,,,,,,,7/8 Mostly Cloudy,8000.0,,FEW,6400.0,BKN,7900.0,BKN,20000.0,,
KRDR,03-14-2001,00:00,METAR,,230,9.0,,,9999,Cloud Development Not Observable,3.0,0.0,29.59,1003.3,,,,0,0,0,,,,,,,,,7/8 Mostly Cloudy,8000.0,,FEW,5900.0,BKN,7900.0,,,,
KRDR,03-13-2001,23:00,METAR,,270,7.0,,,9999,Cloud Development Not Observable,3.0,-1.0,29.60,1003.5,,,,0,0,0,,,,,,,,,7/8 Mostly Cloudy,8000.0,,BKN,7900.0,,,,,,
KRDR,03-13-2001,22:00,METAR,,260,10.0,,,9999,Cloud Development Not Observable,3.0,-1.0,29.59,1003.4,,,,0,0,0,,,,,,,,,7/8 Mostly Cloudy,9000.0,,FEW,2000.0,BKN,8900.0,,,,
KRDR,03-13-2001,21:00,METAR,,270,13.0,,,9999,Cloud Development Not Observable,4.0,-1.0,29.59,1003.3,,,,0,0,0,,,,,,,,,4/8 Partly Cloudy,72000.0,,FEW,2000.0,SCT,8900.0,,,,
KRDR,03-13-2001,20:00,METAR,,320,12.0,,,9999,Cloud Development Not Observable,4.0,-1.0,29.59,1003.1,,,,0,0,0,,,,,,,,,2/8 Mostly Clear,72000.0,,FEW,2000.0,FEW,8900.0,,,,
KRDR,03-13-2001,19:00,METAR,,300,16.0,,,9999,Cloud Development Not Observable,3.0,-1.0,29.60,1003.7,,,,0,0,0,,,,,,,,,4/8 Partly Cloudy,72000.0,,SCT,2000.0,SCT,8900.0,,,,
KRDR,03-13-2001,18:00,METAR,,310,11.0,,,9999,Cloud Development Not Observable,2.0,-1.0,29.61,1004.1,,,,0,0,0,,,,,,,,,7/8 Mostly Cloudy,9000.0,,SCT,2000.0,BKN,8900.0,,,,
KRDR,03-13-2001,17:00,METAR,,310,10.0,,,9999,Cloud Development Not Observable,0.0,-3.0,29.61,1004.1,,,,0,0,0,,,,,,,,,7/8 Mostly Cloudy,9000.0,,BKN,8900.0,,,,,,
KRDR,03-13-2001,16:00,METAR,,300,14.0,,,9999,Cloud Development Not Observable,-1.0,-3.0,29.61,1004.1,,,,0,0,0,,,,,,,,,7/8 Mostly Cloudy,9000.0,,BKN,8900.0,,,,,,
KRDR,03-13-2001,15:41,SPECI,,310,13.0,,,9999,Cloud Development Not Observable,-1.0,-3.0,29.65,,,,,0,0,0,,,,,,,,,7/8 Mostly Cloudy,9000.0,,FEW,2000.0,BKN,8900.0,,,,
KRDR,03-13-2001,15:00,METAR,,300,16.0,,,9999,Mist/Cloud Development Not Observable,-1.0,-3.0,29.61,1004.0,,,,10,0,0,,,,,,,,,8/8 Overcast,1000.0,,BKN,1000.0,OVC,2000.0,,,,
KRDR,03-13-2001,14:00,METAR,,300,15.0,,,9999,Mist/Cloud Development Not Observable,-2.0,-3.0,29.58,1003.0,,,,10,0,0,,,,,,,,,8/8 Overcast,1000.0,,BKN,1000.0,OVC,2000.0,,,,
KRDR,03-13-2001,13:00,METAR,,310,16.0,,,9999,Mist/Cloud Development Not Observable,-1.0,-3.0,29.55,1002.0,,,,10,0,0,,,,,,,,,8/8 Overcast,1000.0,,BKN,1000.0,OVC,2000.0,,,,
KRDR,03-13-2001,12:00,METAR,,330,15.0,,,9999,Mist/Cloud Development Not Observable,-1.0,-2.0,29.53,1001.2,,,,10,0,0,,,,,,,,,8/8 Overcast,1000.0,,BKN,1000.0,OVC,2000.0,,,,
KRDR,03-13-2001,11:00,METAR,,320,11.0,,,8000,Mist/Cloud Development Not Observable,-1.0,-1.0,29.48,999.8,,,,10,0,0,,,,,,,,,8/8 Overcast,1000.0,,BKN,1000.0,OVC,1800.0,,,,
KRDR,03-13-2001,10:00,METAR,,310,8.0,,,9999,Cloud Development Not Observable,-2.0,-2.0,29.46,998.9,,,,0,0,0,,,,,,,,,8/8 Overcast,1000.0,,SCT,600.0,OVC,1000.0,,,,
KRDR,03-13-2001,09:00,METAR,,330,5.0,,,9999,Cloud Development Not Observable,-2.0,-3.0,29.44,998.4,,,,0,0,0,,,,,,,,,8/8 Overcast,1000.0,,SCT,600.0,OVC,1000.0,,,,
KRDR,03-13-2001,08:00,METAR,,140,2.0,,,9999,Cloud Development Not Observable,-2.0,-3.0,29.43,997.8,,,,0,0,0,,,,,,,,,8/8 Overcast,1000.0,,SCT,600.0,OVC,1000.0,,,,
KRDR,03-13-2001,07:25,METAR,,140,3.0,,,9999,Cloud Development Not Observable,-2.0,-3.0,29.41,,,,,0,0,0,,,,,,,,,8/8 Overcast,1100.0,,SCT,600.0,OVC,1100.0,,,,
KRDR,03-13-2001,07:00,METAR,,130,6.0,,,9999,Light Snow/Cloud Development Not Observable,-2.0,-3.0,29.40,996.8,,,,71,0,0,,,,,,,,,8/8 Overcast,1200.0,,SCT,600.0,OVC,1200.0,,,,
KRDR,03-13-2001,06:00,METAR,,130,5.0,,,9999,Light Snow/Cloud Development Not Observable,-2.0,-3.0,29.37,995.9,,,,71,0,0,,,,,,,,,8/8 Overcast,1200.0,,SCT,600.0,OVC,1200.0,,,,
KRDR,03-13-2001,05:00,METAR,,160,7.0,,,8000,Light Snow/Cloud Development Not Observable,-2.0,-3.0,29.36,995.6,,,,71,0,0,,,,,,,,,8/8 Overcast,1500.0,,SCT,800.0,BKN,1500.0,OVC,4000.0,,
KRDR,03-13-2001,04:00,METAR,,150,8.0,,,9999,Light Snow/Cloud Development Not Observable,-2.0,-2.0,29.36,995.7,,,,71,0,0,,,,,,,,,8/8 Overcast,1500.0,,SCT,700.0,BKN,1500.0,OVC,4000.0,,
KRDR,03-13-2001,03:00,METAR,,160,10.0,,,9999,Light Snow/Cloud Development Not Observable,-2.0,-3.0,29.37,996.1,,,,71,0,0,,,,,,,,,7/8 Mostly Cloudy,1500.0,,SCT,700.0,BKN,1500.0,BKN,7400.0,,
KRDR,03-13-2001,02:49,SPECI,,160,12.0,,,9999,Light Snow/Cloud Development Not Observable,-2.0,-3.0,29.37,,,,,71,0,0,,,,,,,,,7/8 Mostly Cloudy,1500.0,,SCT,700.0,BKN,1500.0,BKN,7400.0,,
KRDR,03-13-2001,02:00,METAR,,160,10.0,,,8000,Light Snow/Cloud Development Not Observable,-2.0,-2.0,29.38,996.4,,,,71,0,0,,,,,,,,,8/8 Overcast,2500.0,,SCT,1500.0,BKN,2500.0,OVC,8900.0,,
KRDR,03-13-2001,01:37,SPECI,,160,10.0,,,9999,Light Snow/Cloud Development Not Observable,-1.0,-2.0,29.39,,,,,71,0,0,,,,,,,,,8/8 Overcast,2200.0,,SCT,1500.0,BKN,2200.0,OVC,7900.0,,
KRDR,03-13-2001,01:07,SPECI,,160,11.0,,,9999,Cloud Development Not Observable,-2.0,-3.0,29.40,,,,,0,0,0,,,,,,,,,8/8 Overcast,1300.0,,BKN,1300.0,OVC,7900.0,,,,
KRDR,03-13-2001,01:00,METAR,,160,11.0,,,9999,Light Snow/Cloud Development Not Observable,-2.0,-3.0,29.40,997.2,,,,71,0,0,,,,,,,,,8/8 Overcast,1300.0,,BKN,1300.0,OVC,4000.0,,,,
KRDR,03-13-2001,00:00,METAR,,160,11.0,,,9999,Light Snow/Cloud Development Not Observable,-1.0,-3.0,29.41,997.3,,,,71,0,0,,,,,,,,,8/8 Overcast,1300.0,,BKN,1300.0,OVC,4000.0,,,,
KRDR,03-12-2001,23:51,SPECI,,160,10.0,,,9999,Light Snow/Cloud Development Not Observable,-1.0,-3.0,29.41,,,,,71,0,0,,,,,,,,,8/8 Overcast,1200.0,,BKN,1200.0,OVC,4000.0,,,,
KRDR,03-12-2001,23:29,SPECI,,170,11.0,,,9999,Cloud Development Not Observable,-1.0,-2.0,29.41,,,,,0,0,0,,,,,,,,,8/8 Overcast,1300.0,,BKN,1300.0,OVC,4000.0,,,,
KRDR,03-12-2001,23:04,SPECI,,160,10.0,,,9999,Light Snow/Cloud Development Not Observable,-1.0,-2.0,29.41,,,,,71,0,0,,,,,,,,,8/8 Overcast,1400.0,,BKN,1400.0,OVC,4000.0,,,,
KRDR,03-12-2001,23:00,METAR,,180,10.0,,,9999,Light Snow/Cloud Development Not Observable,-1.0,-2.0,29.42,997.6,,,,71,0,0,,,,,,,,,8/8 Overcast,1400.0,,BKN,1400.0,OVC,4000.0,,,,
KRDR,03-12-2001,22:28,SPECI,,170,12.0,,,9999,Light Snow/Cloud Development Not Observable,0.0,-2.0,29.42,,,,,71,0,0,,,,,,,,,8/8 Overcast,1300.0,,BKN,1300.0,OVC,7900.0,,,,
KRDR,03-12-2001,22:00,METAR,,180,14.0,,,9999,Cloud Development Not Observable,0.0,-3.0,29.42,997.8,,,,0,0,0,,,,,,,,,8/8 Overcast,1500.0,,BKN,1500.0,OVC,7900.0,,,,
KRDR,03-12-2001,21:00,METAR,,190,14.0,,,9999,Cloud Development Not Observable,0.0,-3.0,29.44,998.3,,,,0,0,0,,,,,,,,,8/8 Overcast,3900.0,,SCT,1400.0,BKN,4000.0,OVC,7900.0,,
KRDR,03-12-2001,20:22,SPECI,,190,14.0,,,9999,Cloud Development Not Observable,0.0,-3.0,29.45,,,,,0,0,0,,,,,,,,,8/8 Overcast,1400.0,,BKN,1400.0,OVC,8900.0,,,,
KRDR,03-12-2001,20:00,METAR,,170,15.0,,,9999,Cloud Development Not Observable,0.0,-4.0,29.47,999.4,,,,0,0,0,,,,,,,,,7/8 Mostly Cloudy,9000.0,,SCT,1500.0,BKN,8900.0,BKN,20000.0,,
KRDR,03-12-2001,18:00,METAR,,190,13.0,,,9999,Cloud Development Not Observable,0.0,-4.0,29.52,1001.1,,,,0,0,0,,,,,,,,,7/8 Mostly Cloudy,12000.0,,FEW,4000.0,BKN,12000.0,BKN,20000.0,,
KRDR,03-12-2001,17:00,METAR,,190,13.0,,,9999,Cloud Development Not Observable,-3.0,-6.0,29.56,1002.7,,,,0,0,0,,,,,,,,,7/8 Mostly Cloudy,12000.0,,SCT,4000.0,BKN,12000.0,BKN,20000.0,,
KRDR,03-12-2001,16:00,METAR,,180,13.0,,,9999,Cloud Development Not Observable,-4.0,-7.0,29.58,1003.4,,,,0,0,0,,,,,,,,,7/8 Mostly Cloudy,12000.0,,SCT,4000.0,BKN,12000.0,BKN,20000.0,,
KRDR,03-12-2001,15:00,METAR,,170,13.0,,,9999,Cloud Development Not Observable,-5.0,-7.0,29.60,1005.2,,,,0,0,0,,,,,,,,,7/8 Mostly Cloudy,12000.0,,SCT,4000.0,BKN,12000.0,BKN,20000.0,,
KRDR,03-12-2001,14:00,METAR,,150,12.0,,,9999,Cloud Development Not Observable,-6.0,-8.0,29.63,1005.1,,,,0,0,0,,,,,,,,,7/8 Mostly Cloudy,3900.0,,BKN,4000.0,BKN,12000.0,,,,
KRDR,03-12-2001,13:00,METAR,,190,8.0,,,9999,Cloud Development Not Observable,-5.0,-8.0,29.64,1005.6,,,,0,0,0,,,,,,,,,7/8 Mostly Cloudy,3000.0,,BKN,3000.0,BKN,4000.0,,,,
KRDR,03-12-2001,12:00,METAR,,200,12.0,,,9999,Cloud Development Not Observable,-6.0,-8.0,29.66,1006.3,,,,0,0,0,,,,,,,,,8/8 Overcast,3000.0,,OVC,3000.0,,,,,,
KRDR,03-12-2001,11:00,METAR,,180,17.0,,,9999,Cloud Development Not Observable,-6.0,-9.0,29.68,1006.8,,,,0,0,0,,,,,,,,,8/8 Overcast,3000.0,,OVC,3000.0,,,,,,
KRDR,03-12-2001,10:00,METAR,,180,16.0,,,9999,Cloud Development Not Observable,-6.0,-9.0,29.70,1007.3,,,,0,0,0,,,,,,,,,8/8 Overcast,3000.0,,OVC,3000.0,,,,,,
KRDR,03-12-2001,09:00,METAR,,190,16.0,,,9999,Cloud Development Not Observable,-7.0,-9.0,29.74,1008.8,,,,0,0,0,,,,,,,,,8/8 Overcast,3400.0,,OVC,3500.0,,,,,,
KRDR,03-12-2001,08:00,METAR,,180,17.0,,,9999,Cloud Development Not Observable,-7.0,-9.0,29.77,1009.7,,,,0,0,0,,,,,,,,,8/8 Overcast,3400.0,,OVC,3500.0,,,,,,
KRDR,03-12-2001,07:00,METAR,,180,16.0,,,9999,Cloud Development Not Observable,-7.0,-9.0,29.79,1010.7,,,,0,0,0,,,,,,,,,8/8 Overcast,3900.0,,OVC,4000.0,,,,,,
KRDR,03-12-2001,06:00,METAR,,180,17.0,,,9999,Cloud Development Not Observable,-7.0,-9.0,29.81,1011.4,,,,0,0,0,,,,,,,,,8/8 Overcast,4400.0,,OVC,4500.0,,,,,,
KRDR,03-12-2001,05:00,METAR,,180,19.0,,,9999,Cloud Development Not Observable,-7.0,-10.0,29.83,1012.0,,,,0,0,0,,,,,,,,,8/8 Overcast,4900.0,,OVC,5000.0,,,,,,
KRDR,03-12-2001,04:00,METAR,,180,18.0,,,9999,Cloud Development Not Observable,-7.0,-10.0,29.84,1012.6,,,,0,0,0,,,,,,,,,8/8 Overcast,4400.0,,BKN,4500.0,OVC,5900.0,,,,
KRDR,03-12-2001,03:00,METAR,,180,17.0,,,9999,Cloud Development Not Observable,-7.0,-10.0,29.87,1013.5,,,,0,0,0,,,,,,,,,8/8 Overcast,4400.0,,BKN,4500.0,OVC,5900.0,,,,
KRDR,03-12-2001,02:00,METAR,,180,18.0,,,9999,Cloud Development Not Observable,-7.0,-10.0,29.87,1013.8,,,,0,0,0,,,,,,,,,7/8 Mostly Cloudy,6000.0,,BKN,5900.0,,,,,,
KRDR,03-12-2001,01:00,METAR,,170,21.0,,170/26KTS,9999,Cloud Development Not Observable,-7.0,-10.0,29.89,1014.1,,,,0,0,0,,,,,,,,,7/8 Mostly Cloudy,6000.0,,BKN,5900.0,,,,,,
KRDR,03-12-2001,00:00,METAR,,160,21.0,26.0,170/28KTS,9999,Cloud Development Not Observable,-6.0,-9.0,29.89,1014.1,,,,0,0,0,,,,,,,,,7/8 Mostly Cloudy,9000.0,,BKN,8900.0,,,,,,
KRDR,03-11-2001,23:00,METAR,,160,21.0,,170/27KTS,9999,Cloud Development Not Observable,-6.0,-8.0,29.91,1015.0,,,,0,0,0,,,,,,,,,7/8 Mostly Cloudy,8000.0,,FEW,5000.0,BKN,7900.0,,,,
KRDR,03-11-2001,22:00,METAR,,170,22.0,26.0,,9999,Cloud Development Not Observable,-5.0,-8.0,29.94,1016.0,,,,0,0,0,,,,,,,,,7/8 Mostly Cloudy,8000.0,,FEW,5000.0,BKN,7900.0,,,,
KRDR,03-11-2001,21:00,METAR,,170,21.0,,,9999,Cloud Development Not Observable,-4.0,-8.0,29.97,1016.9,,,,0,0,0,,,,,,,,,7/8 Mostly Cloudy,10000.0,,FEW,5000.0,BKN,9900.0,,,,
KRDR,03-11-2001,20:00,METAR,,170,20.0,,,9999,Cloud Development Not Observable,-4.0,-8.0,29.98,1017.7,,,,0,0,0,,,,,,,,,4/8 Partly Cloudy,72000.0,,SCT,20000.0,,,,,,
KRDR,03-11-2001,19:00,METAR,,170,16.0,,,9999,Cloud Development Not Observable,-5.0,-8.0,30.02,1018.7,,,,0,0,0,,,,,,,,,Clear,72000.0,,,73000.0,,,,,,
KRDR,03-11-2001,18:00,METAR,,170,16.0,,,9999,Cloud Development Not Observable,-6.0,-10.0,30.04,1019.6,,,,0,0,0,,,,,,,,,Clear,72000.0,,,73000.0,,,,,,
KRDR,03-11-2001,17:00,METAR,,160,17.0,,,9999,Cloud Development Not Observable,-8.0,-12.0,30.05,1019.9,,,,0,0,0,,,,,,,,,Clear,72000.0,,,73000.0,,,,,,
KRDR,03-11-2001,16:00,METAR,,170,15.0,,,9999,Cloud Development Not Observable,-9.0,-14.0,30.08,1020.6,,,,0,0,0,,,,,,,,,Clear,72000.0,,,73000.0,,,,,,
KRDR,03-11-2001,15:00,METAR,,160,15.0,,,9999,Cloud Development Not Observable,-11.0,-15.0,30.08,1020.7,,,,0,0,0,,,,,,,,,2/8 Mostly Clear,72000.0,,FEW,2000.0,,,,,,
KRDR,03-11-2001,14:00,METAR,,160,11.0,,,9999,Cloud Development Not Observable,-13.0,-15.0,30.08,1020.8,,,,0,0,0,,,,,,,,,4/8 Partly Cloudy,72000.0,,SCT,2000.0,,,,,,
KRDR,03-11-2001,13:00,METAR,,160,7.0,,,9999,Cloud Development Not Observable,-14.0,-15.0,30.09,1021.3,,,,0,0,0,,,,,,,,,7/8 Mostly Cloudy,9000.0,,SCT,2000.0,BKN,8900.0,,,,
KRDR,03-11-2001,12:00,METAR,,170,7.0,,,9999,Cloud Development Not Observable,-14.0,-15.0,30.10,1021.4,,,,0,0,0,,,,,,,,,7/8 Mostly Cloudy,9000.0,,FEW,2000.0,BKN,8900.0,,,,
KRDR,03-11-2001,11:00,METAR,,160,6.0,,,9999,Cloud Development Not Observable,-14.0,-15.0,30.10,1021.3,,,,0,0,0,,,,,,,,,4/8 Partly Cloudy,72000.0,,SCT,8900.0,,,,,,
KRDR,03-11-2001,10:00,METAR,,200,6.0,,,9999,Cloud Development Not Observable,-15.0,-16.0,30.11,1021.9,,,,0,0,0,,,,,,,,,2/8 Mostly Clear,72000.0,,FEW,8900.0,,,,,,
KRDR,03-11-2001,09:00,METAR,,190,6.0,,,9999,Cloud Development Not Observable,-14.0,-15.0,30.12,1021.9,,,,0,0,0,,,,,,,,,2/8 Mostly Clear,72000.0,,FEW,8900.0,,,,,,
KRDR,03-11-2001,08:00,METAR,,,,,,9999,Cloud Development Not Observable,-15.0,-16.0,30.12,1022.0,,,,0,0,0,,,,,,,,,2/8 Mostly Clear,72000.0,,FEW,8900.0,,,,,,
KRDR,03-11-2001,07:00,METAR,,,2.0,,,9999,Cloud Development Not Observable,-15.0,-16.0,30.10,1021.5,,,,0,0,0,,,,,,,,,Clear,72000.0,,,73000.0,,,,,,
KRDR,03-11-2001,06:00,METAR,,,,,,9999,Cloud Development Not Observable,-14.0,-16.0,30.10,1021.4,,,,0,0,0,,,,,,,,,Clear,72000.0,,,73000.0,,,,,,
KRDR,03-11-2001,05:00,METAR,,20,4.0,,,9999,Cloud Development Not Observable,-12.0,-16.0,30.10,1021.3,,,,0,0,0,,,,,,,,,Clear,72000.0,,,73000.0,,,,,,
KRDR,03-11-2001,04:00,METAR,,350,9.0,,,9999,Cloud Development Not Observable,-12.0,-16.0,30.11,1021.7,,,,0,0,0,,,,,,,,,Clear,72000.0,,,73000.0,,,,,,
KRDR,03-11-2001,03:00,METAR,,350,10.0,,,9999,Cloud Development Not Observable,-12.0,-15.0,30.11,1021.6,,,,0,0,0,,,,,,,,,2/8 Mostly Clear,72000.0,,FEW,9900.0,,,,,,
KRDR,03-11-2001,02:00,METAR,,360,8.0,,,9999,Cloud Development Not Observable,-11.0,-14.0,30.11,1021.5,,,,0,0,0,,,,,,,,,2/8 Mostly Clear,72000.0,,FEW,9900.0,,,,,,
KRDR,03-11-2001,01:00,METAR,,360,11.0,,,9999,Cloud Development Not Observable,-10.0,-13.0,30.10,1021.0,,,,0,0,0,,,,,,,,,2/8 Mostly Clear,72000.0,,FEW,9900.0,,,,,,
KRDR,03-11-2001,00:00,METAR,,360,13.0,,,9999,Cloud Development Not Observable,-8.0,-12.0,30.08,1020.3,,,,0,0,0,,,,,,,,,2/8 Mostly Clear,72000.0,,FEW,9900.0,,,,,,
KRDR,03-10-2001,23:00,METAR,,360,13.0,,,9999,Cloud Development Not Observable,-6.0,-11.0,30.06,1019.5,,,,0,0,0,,,,,,,,,2/8 Mostly Clear,72000.0,,FEW,9900.0,,,,,,
KRDR,03-10-2001,22:00,METAR,,330,21.0,26.0,,9999,Cloud Development Not Observable,-6.0,-12.0,30.05,1019.2,,,,0,0,0,,,,,,,,,2/8 Mostly Clear,72000.0,,FEW,9900.0,,,,,,
KRDR,03-10-2001,21:00,METAR,,340,20.0,25.0,350/28KTS,9999,Cloud Development Not Observable,-5.0,-11.0,30.04,1018.8,,,,0,0,0,,,,,,,,,2/8 Mostly Clear,72000.0,,FEW,9900.0,,,,,,
KRDR,03-10-2001,20:00,METAR,,340,21.0,,350/27KTS,9999,Cloud Development Not Observable,-5.0,-11.0,30.03,1018.5,,,,0,0,0,,,,,,,,,Clear,72000.0,,,73000.0,,,,,,
KRDR,03-10-2001,19:00,METAR,,340,24.0,,350/31KTS,9999,Cloud Development Not Observable,-5.0,-12.0,30.03,1018.5,,,,0,0,0,,,,,,,,,Clear,72000.0,,,73000.0,,,,,,
KRDR,03-10-2001,18:00,METAR,,340,22.0,30.0,340/30KTS,9999,Cloud Development Not Observable,-4.0,-11.0,30.02,1018.4,,,,0,0,0,,,,,,,,,Clear,72000.0,,,73000.0,,,,,,
KRDR,03-10-2001,17:00,METAR,,340,21.0,,330/30KTS,9999,Cloud Development Not Observable,-5.0,-11.0,30.01,1018.0,,,,0,0,0,,,,,,,,,Clear,72000.0,,,73000.0,,,,,,
KRDR,03-10-2001,16:00,METAR,,340,19.0,,,9999,Cloud Development Not Observable,-5.0,-11.0,29.99,1017.3,,,,0,0,0,,,,,,,,,2/8 Mostly Clear,72000.0,,FEW,15000.0,,,,,,
KRDR,03-10-2001,15:00,METAR,,330,16.0,,350/26KTS,9999,Cloud Development Not Observable,-6.0,-9.0,29.96,,,,,0,0,0,,,,,,,,,4/8 Partly Cloudy,72000.0,,FEW,4500.0,SCT,15000.0,,,,
KRDR,03-10-2001,14:19,SPECI,,340,20.0,26.0,,9999,Cloud Development Not Observable,-6.0,-8.0,29.95,,,,,0,0,0,,,,,,,,,4/8 Partly Cloudy,72000.0,,SCT,1500.0,SCT,2700.0,SCT,15000.0,,
KRDR,03-10-2001,14:00,METAR,,340,20.0,,330/31KTS,9999,Cloud Development Not Observable,-6.0,-8.0,29.93,1015.3,,,,0,0,0,,,,,,,,,7/8 Mostly Cloudy,2700.0,,SCT,1500.0,BKN,2700.0,,,,
KRDR,03-10-2001,13:00,METAR,,340,21.0,28.0,340/28KTS,9999,Cloud Development Not Observable,-4.0,-6.0,29.90,1014.0,,,,0,0,0,,,,,,,,,8/8 Overcast,1500.0,,BKN,1500.0,OVC,5000.0,,,,
KRDR,03-10-2001,12:00,METAR,,350,17.0,,,4800,Light Snow/Mist/Cloud Development Not Observable,-2.0,-3.0,29.85,1012.4,,,,71,10,0,,,,,,,,,8/8 Overcast,1000.0,,BKN,1000.0,OVC,3000.0,,,,
KRDR,03-10-2001,11:00,METAR,,330,13.0,,,4800,Light Snow/Mist/Cloud Development Not Observable,-1.0,-2.0,29.82,1011.2,,,,71,10,0,,,,,,,,,8/8 Overcast,3400.0,,FEW,1200.0,SCT,2000.0,OVC,3500.0,,
KRDR,03-10-2001,10:00,METAR,,310,11.0,,,4800,Light Snow/Mist/Cloud Development Not Observable,-1.0,-2.0,29.80,1010.7,,,,71,10,0,,,,,,,,,8/8 Overcast,3900.0,,BKN,4000.0,OVC,7900.0,,,,
KRDR,03-10-2001,08:38,METAR,,320,9.0,,,4800,Light Snow/Mist/Cloud Development Not Observable,-1.0,-2.0,29.79,,,,,71,10,0,,,,,,,,,8/8 Overcast,3900.0,,SCT,3000.0,BKN,4000.0,OVC,9900.0,,
KRDR,03-10-2001,08:00,METAR,,290,8.0,,,4800,Mist/Cloud Development Not Observable,-1.0,-2.0,29.79,1010.2,,,,10,0,0,,,,,,,,,8/8 Overcast,3000.0,,BKN,3000.0,OVC,4000.0,,,,
KRDR,03-10-2001,07:43,SPECI,,290,9.0,,,3200,Mist/Cloud Development Not Observable,-1.0,-2.0,29.79,,,,,10,0,0,,,,,,,,,8/8 Overcast,2500.0,,BKN,2500.0,OVC,3000.0,,,,
KRDR,03-10-2001,07:00,METAR,,260,8.0,,,3200,Mist/Cloud Development Not Observable,-2.0,-3.0,29.79,1010.2,,,,10,0,0,,,,,,,,,8/8 Overcast,900.0,,SCT,700.0,OVC,900.0,,,,
KRDR,03-10-2001,06:00,METAR,,220,10.0,,,3200,Mist/Cloud Development Not Observable,-3.0,-3.0,29.80,1010.6,,,,10,0,0,,,,,,,,,8/8 Overcast,700.0,,OVC,700.0,,,,,,
KRDR,03-10-2001,05:20,METAR,,210,10.0,,,3200,Mist/Cloud Development Not Observable,-3.0,-4.0,29.80,,,,,10,0,0,,,,,,,,,8/8 Overcast,700.0,,OVC,700.0,,,,,,
KRDR,03-10-2001,05:00,METAR,,200,13.0,,,4800,Mist/Cloud Development Not Observable,-3.0,-4.0,29.80,1010.8,,,,10,0,0,,,,,,,,,8/8 Overcast,800.0,,BKN,800.0,OVC,1000.0,,,,
KRDR,03-10-2001,04:00,METAR,,200,13.0,,,8000,Mist/Cloud Development Not Observable,-3.0,-4.0,29.83,1011.7,,,,10,0,0,,,,,,,,,8/8 Overcast,800.0,,BKN,800.0,OVC,1000.0,,,,
KRDR,03-10-2001,03:00,METAR,,200,12.0,,,9999,Mist/Cloud Development Not Observable,-4.0,-5.0,29.83,1011.8,,,,10,0,0,,,,,,,,,8/8 Overcast,800.0,,BKN,800.0,OVC,1000.0,,,,
KRDR,03-10-2001,02:00,METAR,,200,15.0,,,9999,Cloud Development Not Observable,-4.0,-5.0,29.86,1012.9,,,,0,0,0,,,,,,,,,8/8 Overcast,800.0,,BKN,800.0,OVC,1000.0,,,,
KRDR,03-10-2001,01:00,METAR,,200,17.0,,190/26KTS,9999,Cloud Development Not Observable,-4.0,-5.0,29.85,1012.5,,,,0,0,0,,,,,,,,,8/8 Overcast,800.0,,OVC,800.0,,,,,,
KRDR,03-10-2001,00:00,METAR,,190,22.0,28.0,,9999,Cloud Development Not Observable,-4.0,-6.0,29.86,1012.9,,,,0,0,0,,,,,,,,,8/8 Overcast,800.0,,OVC,800.0,,,,,,
KRDR,03-09-2001,23:42,SPECI,,200,22.0,,,9999,Cloud Development Not Observable,-4.0,-6.0,29.86,,,,,0,0,0,,,,,,,,,8/8 Overcast,800.0,,OVC,800.0,,,,,,
KRDR,03-09-2001,23:00,METAR,,180,18.0,,,9999,Cloud Development Not Observable,-4.0,-6.0,29.87,1013.2,,,,0,0,0,,,,,,,,,8/8 Overcast,1000.0,,OVC,1000.0,,,,,,
KRDR,03-09-2001,22:00,METAR,,170,21.0,,170/25KTS,9999,Cloud Development Not Observable,-4.0,-5.0,29.89,1013.9,,,,0,0,0,,,,,,,,,7/8 Mostly Cloudy,1000.0,,BKN,1000.0,,,,,,
KRDR,03-09-2001,21:00,METAR,,180,18.0,,170/25KTS,9999,Cloud Development Not Observable,-3.0,-5.0,29.90,1014.2,,,,0,0,0,,,,,,,,,7/8 Mostly Cloudy,1000.0,,BKN,1000.0,,,,,,
KRDR,03-09-2001,20:00,METAR,,180,21.0,,170/26KTS,9999,Cloud Development Not Observable,-3.0,-5.0,29.93,1015.2,,,,0,0,0,,,,,,,,,7/8 Mostly Cloudy,1000.0,,BKN,1000.0,,,,,,
KRDR,03-09-2001,19:00,METAR,,180,18.0,,,9999,Cloud Development Not Observable,-3.0,-5.0,29.97,1016.5,,,,0,0,0,,,,,,,,,7/8 Mostly Cloudy,1000.0,,BKN,1000.0,,,,,,
KRDR,03-09-2001,18:00,METAR,,180,18.0,,,9999,Cloud Development Not Observable,-4.0,-6.0,29.99,1017.2,,,,0,0,0,,,,,,,,,7/8 Mostly Cloudy,1000.0,,BKN,1000.0,,,,,,
KRDR,03-09-2001,17:00,METAR,,190,18.0,,,9999,Cloud Development Not Observable,-5.0,-6.0,30.01,1018.1,,,,0,0,0,,,,,,,,,8/8 Overcast,1000.0,,FEW,800.0,OVC,1000.0,,,,
KRDR,03-09-2001,16:00,METAR,,180,18.0,,,9999,Cloud Development Not Observable,-6.0,-7.0,30.02,1018.3,,,,0,0,0,,,,,,,,,8/8 Overcast,1000.0,,FEW,800.0,OVC,1000.0,,,,
KRDR,03-09-2001,15:00,METAR,,180,18.0,,,9999,Cloud Development Not Observable,-7.0,-8.0,30.03,1018.8,,,,0,0,0,,,,,,,,,8/8 Overcast,1000.0,,FEW,800.0,OVC,1000.0,,,,
KRDR,03-09-2001,14:00,METAR,,190,18.0,,,9999,Cloud Development Not Observable,-7.0,-8.0,30.03,1018.8,,,,0,0,0,,,,,,,,,8/8 Overcast,1000.0,,FEW,800.0,OVC,1000.0,,,,
KRDR,03-09-2001,13:00,METAR,,200,14.0,,,9999,Cloud Development Not Observable,-7.0,-8.0,30.06,1019.7,,,,0,0,0,,,,,,,,,8/8 Overcast,1000.0,,OVC,1000.0,,,,,,
KRDR,03-09-2001,12:00,METAR,,180,9.0,,,9999,Cloud Development Not Observable,-7.0,-8.0,30.08,1020.4,,,,0,0,0,,,,,,,,,8/8 Overcast,1200.0,,OVC,1200.0,,,,,,
KRDR,03-09-2001,11:00,METAR,,180,7.0,,,9999,Cloud Development Not Observable,-7.0,-8.0,30.09,1020.8,,,,0,0,0,,,,,,,,,7/8 Mostly Cloudy,1600.0,,BKN,1600.0,,,,,,
KRDR,03-09-2001,10:00,METAR,,190,8.0,,,9999,Cloud Development Not Observable,-7.0,-8.0,30.11,1021.3,,,,0,0,0,,,,,,,,,8/8 Overcast,1700.0,,OVC,1700.0,,,,,,
KRDR,03-09-2001,09:00,METAR,,200,7.0,,,9999,Cloud Development Not Observable,-6.0,-7.0,30.12,1021.7,,,,0,0,0,,,,,,,,,8/8 Overcast,1600.0,,OVC,1600.0,,,,,,
KRDR,03-09-2001,07:00,METAR,,190,5.0,,,9999,Cloud Development Not Observable,-7.0,-8.0,30.14,1022.3,,,,0,0,0,,,,,,,,,7/8 Mostly Cloudy,1600.0,,BKN,1600.0,,,,,,
KRDR,03-09-2001,06:00,METAR,,220,5.0,,,9999,Cloud Development Not Observable,-5.0,-7.0,30.14,1022.4,,,,0,0,0,,,,,,,,,7/8 Mostly Cloudy,1600.0,,BKN,1600.0,,,,,,
KRDR,03-09-2001,05:00,METAR,,240,4.0,,,9999,Cloud Development Not Observable,-6.0,-8.0,30.15,1022.8,,,,0,0,0,,,,,,,,,7/8 Mostly Cloudy,1600.0,,BKN,1600.0,,,,,,
KRDR,03-09-2001,04:00,METAR,,220,6.0,,,9999,Cloud Development Not Observable,-5.0,-7.0,30.15,1022.8,,,,0,0,0,,,,,,,,,7/8 Mostly Cloudy,2500.0,,BKN,2500.0,,,,,,
KRDR,03-09-2001,03:00,METAR,,300,6.0,,,9999,Cloud Development Not Observable,-4.0,-6.0,30.15,1022.8,,,,0,0,0,,,,,,,,,8/8 Overcast,2500.0,,OVC,2500.0,,,,,,
KRDR,03-09-2001,02:00,METAR,,270,7.0,,,9999,Cloud Development Not Observable,-4.0,-6.0,30.15,1022.8,,,,0,0,0,,,,,,,,,7/8 Mostly Cloudy,2500.0,,BKN,2500.0,,,,,,
KRDR,03-09-2001,01:00,METAR,,300,6.0,,,9999,Cloud Development Not Observable,-3.0,-6.0,30.15,1022.7,,,,0,0,0,,,,,,,,,7/8 Mostly Cloudy,2500.0,,BKN,2500.0,,,,,,
KRDR,03-09-2001,00:00,METAR,,320,6.0,,,9999,Cloud Development Not Observable,-3.0,-6.0,30.15,1022.7,,,,0,0,0,,,,,,,,,7/8 Mostly Cloudy,2500.0,,BKN,2500.0,,,,,,
KRDR,03-08-2001,23:00,METAR,,340,7.0,,,9999,Cloud Development Not Observable,-3.0,-6.0,30.16,1023.1,,,,0,0,0,,,,,,,,,8/8 Overcast,2500.0,,OVC,2500.0,,,,,,
KRDR,03-08-2001,22:00,METAR,,320,10.0,,,9999,Cloud Development Not Observable,-3.0,-6.0,30.16,1023.1,,,,0,0,0,,,,,,,,,8/8 Overcast,2500.0,,OVC,2500.0,,,,,,
KRDR,03-08-2001,21:00,METAR,,350,9.0,,,9999,Cloud Development Not Observable,-2.0,-6.0,30.16,1023.1,,,,0,0,0,,,,,,,,,8/8 Overcast,2500.0,,OVC,2500.0,,,,,,
KRDR,03-08-2001,20:00,METAR,,350,13.0,,,9999,Cloud Development Not Observable,-2.0,-7.0,30.17,1023.1,,,,0,0,0,,,,,,,,,8/8 Overcast,2500.0,,OVC,2500.0,,,,,,
KRDR,03-08-2001,19:00,METAR,,340,14.0,,,9999,Cloud Development Not Observable,-2.0,-7.0,30.20,1023.9,,,,0,0,0,,,,,,,,,8/8 Overcast,2000.0,,OVC,2000.0,,,,,,
KRDR,03-08-2001,18:00,METAR,,350,12.0,,,9999,Cloud Development Not Observable,-3.0,-7.0,30.19,1023.9,,,,0,0,0,,,,,,,,,8/8 Overcast,2000.0,,OVC,2000.0,,,,,,
KRDR,03-08-2001,17:08,SPECI,,350,12.0,,,9999,Cloud Development Not Observable,-2.0,-7.0,30.19,,,,,0,0,0,,,,,,,,,7/8 Mostly Cloudy,2500.0,,BKN,2500.0,,,,,,
KRDR,03-08-2001,16:00,METAR,,340,14.0,,,9999,Cloud Development Not Observable,-3.0,-7.0,30.19,1024.1,,,,0,0,0,,,,,,,,,4/8 Partly Cloudy,72000.0,,SCT,2500.0,SCT,20000.0,,,,
KRDR,03-08-2001,15:00,METAR,,330,12.0,,,9999,Cloud Development Not Observable,-4.0,-7.0,30.18,1023.8,,,,0,0,0,,,,,,,,,4/8 Partly Cloudy,72000.0,,FEW,2500.0,SCT,3000.0,,,,
KRDR,03-08-2001,14:30,METAR,,340,10.0,,,9999,Cloud Development Not Observable,-4.0,-7.0,30.18,,,,,0,0,0,,,,,,,,,7/8 Mostly Cloudy,3000.0,,FEW,2500.0,BKN,3000.0,,,,
KRDR,03-08-2001,14:00,METAR,,350,12.0,,,9999,Cloud Development Not Observable,-4.0,-7.0,30.17,1023.2,,,,0,0,0,,,,,,,,,8/8 Overcast,2400.0,,OVC,2400.0,,,,,,
KRDR,03-08-2001,13:00,METAR,,350,16.0,,,9999,Cloud Development Not Observable,-4.0,-7.0,30.17,1023.2,,,,0,0,0,,,,,,,,,8/8 Overcast,2200.0,,OVC,2200.0,,,,,,
KRDR,03-08-2001,12:00,METAR,,350,17.0,,,9999,Cloud Development Not Observable,-4.0,-6.0,30.17,1023.2,,,,0,0,0,,,,,,,,,8/8 Overcast,2300.0,,OVC,2300.0,,,,,,
KRDR,03-08-2001,11:00,METAR,,320,11.0,,,9999,Cloud Development Not Observable,-4.0,-6.0,30.16,1022.9,,,,0,0,0,,,,,,,,,8/8 Overcast,2600.0,,OVC,2600.0,,,,,,
KRDR,03-08-2001,10:00,METAR,,350,11.0,,,9999,Cloud Development Not Observable,-4.0,-7.0,30.15,1022.6,,,,0,0,0,,,,,,,,,8/8 Overcast,2800.0,,OVC,2800.0,,,,,,
KRDR,03-08-2001,09:00,METAR,,350,14.0,,,9999,Cloud Development Not Observable,-4.0,-7.0,30.16,1023.0,,,,0,0,0,,,,,,,,,8/8 Overcast,2500.0,,OVC,2500.0,,,,,,
KRDR,03-08-2001,08:00,METAR,,340,12.0,,,9999,Cloud Development Not Observable,-3.0,-6.0,30.16,1022.8,,,,0,0,0,,,,,,,,,8/8 Overcast,2500.0,,OVC,2500.0,,,,,,
KRDR,03-08-2001,07:00,METAR,,330,12.0,,,9999,Cloud Development Not Observable,-3.0,-6.0,30.16,,,,,0,0,0,,,,,,,,,8/8 Overcast,2500.0,,OVC,2500.0,,,,,,
KRDR,03-08-2001,06:00,METAR,,340,14.0,,,9999,Cloud Development Not Observable,-3.0,-6.0,30.16,1022.8,,,,0,0,0,,,,,,,,,8/8 Overcast,2500.0,,OVC,2500.0,,,,,,
KRDR,03-08-2001,05:00,METAR,,350,14.0,,,9999,Cloud Development Not Observable,-3.0,-6.0,30.16,1023.1,,,,0,0,0,,,,,,,,,8/8 Overcast,2500.0,,OVC,2500.0,,,,,,
KRDR,03-08-2001,04:00,METAR,,350,16.0,,,9999,Cloud Development Not Observable,-3.0,-6.0,30.16,1023.1,,,,0,0,0,,,,,,,,,8/8 Overcast,2500.0,,OVC,2500.0,,,,,,
KRDR,03-08-2001,03:00,METAR,,340,16.0,23.0,,9999,Cloud Development Not Observable,-3.0,-5.0,30.16,1023.0,,,,0,0,0,,,,,,,,,8/8 Overcast,3000.0,,BKN,3000.0,OVC,3500.0,,,,
KRDR,03-08-2001,02:00,METAR,,340,18.0,25.0,,9999,Cloud Development Not Observable,-3.0,-6.0,30.14,1022.5,,,,0,0,0,,,,,,,,,8/8 Overcast,3000.0,,BKN,3000.0,OVC,3500.0,,,,
KRDR,03-08-2001,01:00,METAR,,340,18.0,,340/28KTS,9999,Cloud Development Not Observable,-2.0,-6.0,30.14,1022.4,,,,0,0,0,,,,,,,,,8/8 Overcast,3000.0,,BKN,3000.0,OVC,3500.0,,,,
KRDR,03-08-2001,00:00,METAR,,340,20.0,,,9999,Cloud Development Not Observable,-2.0,-5.0,30.14,1022.2,,,,0,0,0,,,,,,,,,8/8 Overcast,3000.0,,SCT,2000.0,OVC,3000.0,,,,
KRDR,03-07-2001,23:36,SPECI,,360,16.0,,,9999,Cloud Development Not Observable,-2.0,-4.0,30.14,,,,,0,0,0,,,,,,,,,8/8 Overcast,3000.0,,SCT,2000.0,OVC,3000.0,,,,
KRDR,03-07-2001,23:00,METAR,,350,16.0,,,9999,Cloud Development Not Observable,-2.0,-4.0,30.15,1022.6,,,,0,0,0,,,,,,,,,8/8 Overcast,2000.0,,BKN,2000.0,OVC,3000.0,,,,
KRDR,03-07-2001,22:00,METAR,,350,15.0,,,9999,Cloud Development Not Observable,-1.0,-4.0,30.14,1022.2,,,,0,0,0,,,,,,,,,8/8 Overcast,2600.0,,OVC,2600.0,,,,,,
KRDR,03-07-2001,21:00,METAR,,340,18.0,,320/25KTS,9999,Cloud Development Not Observable,-1.0,-4.0,30.11,1021.1,,,,0,0,0,,,,,,,,,8/8 Overcast,2000.0,,OVC,2000.0,,,,,,
KRDR,03-07-2001,20:00,METAR,,310,19.0,,310/25KTS,9999,Cloud Development Not Observable,-1.0,-4.0,30.11,1021.1,,,,0,0,0,,,,,,,,,8/8 Overcast,2000.0,,OVC,2000.0,,,,,,
KRDR,03-07-2001,19:19,SPECI,,320,17.0,,,9999,Cloud Development Not Observable,0.0,-4.0,30.11,,,,,0,0,0,,,,,,,,,7/8 Mostly Cloudy,2000.0,,BKN,2000.0,,,,,,
KRDR,03-07-2001,19:00,METAR,,320,18.0,,,9999,Cloud Development Not Observable,0.0,-4.0,30.11,1021.1,,,,0,0,0,,,,,,,,,2/8 Mostly Clear,72000.0,,FEW,2000.0,,,,,,
KRDR,03-07-2001,18:00,METAR,,320,18.0,24.0,300/25KTS,9999,Cloud Development Not Observable,-2.0,-5.0,30.12,1021.6,,,,0,0,0,,,,,,,,,Clear,72000.0,,,73000.0,,,,,,
KRDR,03-07-2001,17:00,METAR,,300,18.0,,,9999,Cloud Development Not Observable,-3.0,-6.0,30.11,1021.2,,,,0,0,0,,,,,,,,,Clear,72000.0,,,73000.0,,,,,,
KRDR,03-07-2001,16:00,METAR,,300,14.0,,,9999,Cloud Development Not Observable,-4.0,-7.0,30.12,1021.6,,,,0,0,0,,,,,,,,,Clear,72000.0,,,73000.0,,,,,,
KRDR,03-07-2001,15:00,METAR,,300,11.0,,,9999,Cloud Development Not Observable,-5.0,-8.0,30.14,1022.3,,,,0,0,0,,,,,,,,,Clear,72000.0,,,73000.0,,,,,,
KRDR,03-07-2001,14:00,METAR,,270,6.0,,,9999,Cloud Development Not Observable,-7.0,-9.0,30.14,1022.4,,,,0,0,0,,,,,,,,,Clear,72000.0,,,73000.0,,,,,,
KRDR,03-07-2001,13:00,METAR,,260,9.0,,,6400,Mist/Cloud Development Not Observable,-7.0,-7.0,30.16,1023.0,,,,10,0,0,,,,,,,,,2/8 Mostly Clear,72000.0,,FEW,2000.0,,,,,,
KRDR,03-07-2001,12:00,METAR,,270,12.0,,,9999,Cloud Development Not Observable,-5.0,-6.0,30.18,1023.6,,,,0,0,0,,,,,,,,,4/8 Partly Cloudy,72000.0,,SCT,2000.0,,,,,,
KRDR,03-07-2001,11:00,METAR,,290,14.0,,,9999,Cloud Development Not Observable,-2.0,-5.0,30.18,1023.4,,,,0,0,0,,,,,,,,,8/8 Overcast,2100.0,,OVC,2100.0,,,,,,
KRDR,03-07-2001,10:00,METAR,,300,11.0,,,9999,Cloud Development Not Observable,-2.0,-5.0,30.18,1023.4,,,,0,0,0,,,,,,,,,8/8 Overcast,2400.0,,OVC,2400.0,,,,,,
KRDR,03-07-2001,09:00,METAR,,300,10.0,,,9999,Cloud Development Not Observable,-2.0,-5.0,30.18,1023.6,,,,0,0,0,,,,,,,,,8/8 Overcast,2500.0,,OVC,2500.0,,,,,,
KRDR,03-07-2001,08:00,METAR,,310,16.0,,,9999,Cloud Development Not Observable,-2.0,-5.0,30.20,1024.1,,,,0,0,0,,,,,,,,,8/8 Overcast,2600.0,,OVC,2600.0,,,,,,
KRDR,03-07-2001,07:00,METAR,,310,12.0,,,9999,Cloud Development Not Observable,-2.0,-5.0,30.20,1024.1,,,,0,0,0,,,,,,,,,8/8 Overcast,2300.0,,OVC,2300.0,,,,,,
KRDR,03-07-2001,06:00,METAR,,300,16.0,,310/26KTS,9999,Cloud Development Not Observable,-2.0,-4.0,30.21,1024.7,,,,0,0,0,,,,,,,,,8/8 Overcast,1900.0,,OVC,1900.0,,,,,,
KRDR,03-07-2001,05:00,METAR,,320,17.0,,,9999,Cloud Development Not Observable,-1.0,-4.0,30.21,1024.7,,,,0,0,0,,,,,,,,,8/8 Overcast,1800.0,,OVC,1800.0,,,,,,
KRDR,03-07-2001,04:00,METAR,,310,16.0,24.0,310/26KTS,9999,Cloud Development Not Observable,-1.0,-4.0,30.21,1024.7,,,,0,0,0,,,,,,,,,8/8 Overcast,2000.0,,OVC,2000.0,,,,,,
KRDR,03-07-2001,02:00,METAR,,270,7.0,,,9999,Cloud Development Not Observable,-2.0,-4.0,30.21,1024.8,,,,0,0,0,,,,,,,,,8/8 Overcast,2000.0,,OVC,2000.0,,,,,,
KRDR,03-07-2001,01:00,METAR,,280,8.0,,,9999,Cloud Development Not Observable,-2.0,-4.0,30.21,1024.9,,,,0,0,0,,,,,,,,,8/8 Overcast,2000.0,,OVC,2000.0,,,,,,
KRDR,03-07-2001,00:00,METAR,,280,13.0,,,9999,Cloud Development Not Observable,-1.0,-4.0,30.23,1025.4,,,,0,0,0,,,,,,,,,8/8 Overcast,2000.0,,OVC,2000.0,,,,,,
KRDR,03-06-2001,23:00,METAR,,230,10.0,,,9999,Cloud Development Not Observable,0.0,-4.0,30.22,1025.1,,,,0,0,0,,,,,,,,,7/8 Mostly Cloudy,2000.0,,BKN,2000.0,BKN,12000.0,BKN,20000.0,,
KRDR,03-06-2001,22:43,SPECI,,230,10.0,,,9999,Cloud Development Not Observable,0.0,-4.0,30.22,,,,,0,0,0,,,,,,,,,7/8 Mostly Cloudy,2000.0,,BKN,2000.0,BKN,12000.0,BKN,20000.0,,
KRDR,03-06-2001,21:00,METAR,,200,11.0,,,9999,Cloud Development Not Observable,-1.0,-5.0,30.25,1026.4,,,,0,0,0,,,,,,,,,8/8 Overcast,12000.0,,FEW,5900.0,BKN,12000.0,OVC,20000.0,,
KRDR,03-06-2001,20:00,METAR,,200,14.0,,,9999,Cloud Development Not Observable,-1.0,-5.0,30.27,1026.9,,,,0,0,0,,,,,,,,,7/8 Mostly Cloudy,12000.0,,BKN,12000.0,BKN,20000.0,,,,
KRDR,03-06-2001,19:00,METAR,,190,15.0,,,9999,Cloud Development Not Observable,-1.0,-6.0,30.29,1027.5,,,,0,0,0,,,,,,,,,7/8 Mostly Cloudy,12000.0,,BKN,12000.0,BKN,20000.0,,,,
KRDR,03-06-2001,18:00,METAR,,200,12.0,,,9999,Cloud Development Not Observable,-2.0,-5.0,30.32,1028.5,,,,0,0,0,,,,,,,,,7/8 Mostly Cloudy,12000.0,,FEW,2000.0,BKN,12000.0,BKN,20000.0,,
KRDR,03-06-2001,17:00,METAR,,190,15.0,,,9999,Cloud Development Not Observable,-3.0,-6.0,30.33,1028.8,,,,0,0,0,,,,,,,,,7/8 Mostly Cloudy,12000.0,,BKN,12000.0,BKN,20000.0,,,,
KRDR,03-06-2001,16:00,METAR,,190,13.0,,,9999,Cloud Development Not Observable,-4.0,-6.0,30.34,1029.2,,,,0,0,0,,,,,,,,,7/8 Mostly Cloudy,12000.0,,BKN,12000.0,BKN,20000.0,,,,
KRDR,03-06-2001,15:00,METAR,,190,11.0,,,9999,Cloud Development Not Observable,-5.0,-6.0,30.35,1029.8,,,,0,0,0,,,,,,,,,7/8 Mostly Cloudy,12000.0,,BKN,12000.0,BKN,20000.0,,,,
KRDR,03-06-2001,14:00,METAR,,180,8.0,,,9999,Cloud Development Not Observable,-9.0,-9.0,30.35,1030.1,,,,0,0,0,,,,,,,,,7/8 Mostly Cloudy,10000.0,,BKN,9900.0,BKN,20000.0,,,,
KRDR,03-06-2001,13:00,METAR,,140,4.0,,,9999,Cloud Development Not Observable,-10.0,-10.0,30.36,1030.0,,,,0,0,0,,,,,,,,,7/8 Mostly Cloudy,20000.0,,SCT,9900.0,BKN,20000.0,,,,
KRDR,03-06-2001,12:00,METAR,,170,6.0,,,9999,Cloud Development Not Observable,-8.0,-9.0,30.36,1029.9,,,,0,0,0,,,,,,,,,4/8 Partly Cloudy,72000.0,,FEW,9900.0,SCT,20000.0,,,,
KRDR,03-06-2001,11:00,METAR,,160,5.0,,,9999,Cloud Development Not Observable,-8.0,-9.0,30.36,1029.9,,,,0,0,0,,,,,,,,,7/8 Mostly Cloudy,20000.0,,SCT,9900.0,BKN,20000.0,,,,
KRDR,03-06-2001,10:00,METAR,,190,6.0,,,9999,Mist/Cloud Development Not Observable,-9.0,-9.0,30.38,1030.8,,,,10,0,0,,,,,,,,,4/8 Partly Cloudy,72000.0,,FEW,9900.0,SCT,20000.0,,,,
KRDR,03-06-2001,09:00,METAR,,200,3.0,,,9999,Mist/Cloud Development Not Observable,-10.0,-10.0,30.40,1031.4,,,,10,0,0,,,,,,,,,4/8 Partly Cloudy,72000.0,,FEW,9900.0,SCT,20000.0,,,,
KRDR,03-06-2001,08:00,METAR,,240,5.0,,,9999,Mist/Cloud Development Not Observable,-9.0,-9.0,30.42,1032.1,,,,10,0,0,,,,,,,,,4/8 Partly Cloudy,72000.0,,FEW,6900.0,SCT,20000.0,,,,
KRDR,03-06-2001,07:00,METAR,,260,3.0,,,9999,Cloud Development Not Observable,-9.0,-9.0,30.41,1031.7,,,,0,0,0,,,,,,,,,4/8 Partly Cloudy,72000.0,,SCT,20000.0,,,,,,
KRDR,03-06-2001,06:00,METAR,,170,4.0,,,9999,Cloud Development Not Observable,-9.0,-9.0,30.40,1031.5,,,,0,0,0,,,,,,,,,4/8 Partly Cloudy,72000.0,,SCT,20000.0,,,,,,
KRDR,03-06-2001,05:00,METAR,,220,3.0,,,9999,Cloud Development Not Observable,-8.0,-8.0,30.42,1032.2,,,,0,0,0,,,,,,,,,4/8 Partly Cloudy,72000.0,,SCT,20000.0,,,,,,
KRDR,03-06-2001,04:00,METAR,,250,4.0,,,9999,Cloud Development Not Observable,-8.0,-8.0,30.43,1032.4,,,,0,0,0,,,,,,,,,4/8 Partly Cloudy,72000.0,,SCT,20000.0,,,,,,
KRDR,03-06-2001,03:00,METAR,,290,2.0,,,9999,Cloud Development Not Observable,-8.0,-8.0,30.43,1032.5,,,,0,0,0,,,,,,,,,4/8 Partly Cloudy,72000.0,,SCT,20000.0,,,,,,
KRDR,03-06-2001,02:00,METAR,,310,4.0,,,9999,Cloud Development Not Observable,-7.0,-7.0,30.43,1032.5,,,,0,0,0,,,,,,,,,2/8 Mostly Clear,72000.0,,FEW,20000.0,,,,,,
KRDR,03-06-2001,01:00,METAR,,320,7.0,,,9999,Cloud Development Not Observable,-5.0,-6.0,30.43,1032.5,,,,0,0,0,,,,,,,,,2/8 Mostly Clear,72000.0,,FEW,20000.0,,,,,,
KRDR,03-06-2001,00:00,METAR,,320,6.0,,,9999,Cloud Development Not Observable,-4.0,-6.0,30.43,1032.5,,,,0,0,0,,,,,,,,,2/8 Mostly Clear,72000.0,,FEW,1500.0,,,,,,
KRDR,03-05-2001,23:00,METAR,,340,6.0,,,9999,Cloud Development Not Observable,-2.0,-5.0,30.43,1032.4,,,,0,0,0,,,,,,,,,2/8 Mostly Clear,72000.0,,FEW,1500.0,,,,,,
KRDR,03-05-2001,22:00,METAR,,340,6.0,,,9999,Cloud Development Not Observable,-2.0,-5.0,30.44,1032.8,,,,0,0,0,,,,,,,,,2/8 Mostly Clear,72000.0,,FEW,1500.0,,,,,,
KRDR,03-05-2001,21:00,METAR,,10,8.0,,,9999,Cloud Development Not Observable,-3.0,-6.0,30.44,1032.8,,,,0,0,0,,,,,,,,,2/8 Mostly Clear,72000.0,,FEW,1500.0,,,,,,
KRDR,03-05-2001,20:00,METAR,,,,,,9999,Cloud Development Not Observable,-3.0,-6.0,30.44,1032.8,,,,0,0,0,,,,,,,,,2/8 Mostly Clear,72000.0,,FEW,1500.0,,,,,,
KRDR,03-05-2001,19:00,METAR,,360,9.0,,,9999,Cloud Development Not Observable,-4.0,-7.0,30.45,1033.0,,,,0,0,0,,,,,,,,,2/8 Mostly Clear,72000.0,,FEW,3000.0,,,,,,
KRDR,03-05-2001,18:00,METAR,,30,8.0,,,9999,Cloud Development Not Observable,-4.0,-7.0,30.46,1033.2,,,,0,0,0,,,,,,,,,2/8 Mostly Clear,72000.0,,FEW,3000.0,FEW,20000.0,,,,
KRDR,03-05-2001,17:00,METAR,,360,9.0,,,9999,Cloud Development Not Observable,-5.0,-8.0,30.47,1033.6,,,,0,0,0,,,,,,,,,2/8 Mostly Clear,72000.0,,FEW,20000.0,,,,,,
KRDR,03-05-2001,16:00,METAR,,350,10.0,,,9999,Cloud Development Not Observable,-5.0,-7.0,30.47,1033.6,,,,0,0,0,,,,,,,,,2/8 Mostly Clear,72000.0,,FEW,3000.0,,,,,,
KRDR,03-05-2001,15:00,METAR,,360,8.0,,,9999,Cloud Development Not Observable,-7.0,-9.0,30.44,1033.0,,,,0,0,0,,,,,,,,,2/8 Mostly Clear,72000.0,,FEW,3000.0,,,,,,
KRDR,03-05-2001,14:00,METAR,,350,6.0,,,9999,Cloud Development Not Observable,-7.0,-9.0,30.42,1032.3,,,,0,0,0,,,,,,,,,2/8 Mostly Clear,72000.0,,FEW,3000.0,,,,,,
KRDR,03-05-2001,13:00,METAR,,330,7.0,,,9999,Cloud Development Not Observable,-6.0,-8.0,30.42,1032.2,,,,0,0,0,,,,,,,,,8/8 Overcast,3000.0,,OVC,3000.0,,,,,,
KRDR,03-05-2001,12:00,METAR,,350,8.0,,,9999,Cloud Development Not Observable,-6.0,-8.0,30.41,1031.9,,,,0,0,0,,,,,,,,,8/8 Overcast,3000.0,,OVC,3000.0,,,,,,
KRDR,03-05-2001,11:00,METAR,,330,7.0,,,9999,Cloud Development Not Observable,-6.0,-9.0,30.40,1031.4,,,,0,0,0,,,,,,,,,8/8 Overcast,3000.0,,OVC,3000.0,,,,,,
KRDR,03-05-2001,10:00,METAR,,330,9.0,,,9999,Cloud Development Not Observable,-6.0,-9.0,30.40,1031.4,,,,0,0,0,,,,,,,,,7/8 Mostly Cloudy,3000.0,,BKN,3000.0,,,,,,
KRDR,03-05-2001,09:00,METAR,,330,11.0,,,9999,Cloud Development Not Observable,-6.0,-9.0,30.39,1031.1,,,,0,0,0,,,,,,,,,7/8 Mostly Cloudy,3000.0,,BKN,3000.0,,,,,,
KRDR,03-05-2001,08:00,METAR,,320,10.0,,,9999,Cloud Development Not Observable,-6.0,-10.0,30.39,1031.2,,,,0,0,0,,,,,,,,,7/8 Mostly Cloudy,3000.0,,BKN,3000.0,,,,,,
KRDR,03-05-2001,07:00,METAR,,320,8.0,,,9999,Cloud Development Not Observable,-7.0,-10.0,30.38,1030.7,,,,0,0,0,,,,,,,,,7/8 Mostly Cloudy,3000.0,,BKN,3000.0,,,,,,
KRDR,03-05-2001,06:00,METAR,,310,10.0,,,9999,Cloud Development Not Observable,-7.0,-10.0,30.37,1030.6,,,,0,0,0,,,,,,,,,7/8 Mostly Cloudy,3000.0,,BKN,3000.0,,,,,,
KRDR,03-05-2001,05:00,METAR,,320,10.0,,,9999,Cloud Development Not Observable,-7.0,-10.0,30.37,1030.6,,,,0,0,0,,,,,,,,,7/8 Mostly Cloudy,3000.0,,BKN,3000.0,,,,,,
KRDR,03-05-2001,04:00,METAR,,300,10.0,,,9999,Cloud Development Not Observable,-8.0,-11.0,30.36,1030.4,,,,0,0,0,,,,,,,,,4/8 Partly Cloudy,72000.0,,SCT,3000.0,,,,,,
KRDR,03-05-2001,03:00,METAR,,330,9.0,,,9999,Cloud Development Not Observable,-8.0,-11.0,30.36,1030.4,,,,0,0,0,,,,,,,,,Clear,72000.0,,,73000.0,,,,,,
KRDR,03-05-2001,02:00,METAR,,330,11.0,,,9999,Cloud Development Not Observable,-8.0,-11.0,30.36,1030.5,,,,0,0,0,,,,,,,,,Clear,72000.0,,,73000.0,,,,,,
KRDR,03-05-2001,01:00,METAR,,350,11.0,,,9999,Cloud Development Not Observable,-7.0,-10.0,30.36,1030.5,,,,0,0,0,,,,,,,,,2/8 Mostly Clear,72000.0,,FEW,20000.0,,,,,,
KRDR,03-05-2001,00:00,METAR,,340,15.0,,,9999,Cloud Development Not Observable,-6.0,-10.0,30.35,1030.1,,,,0,0,0,,,,,,,,,4/8 Partly Cloudy,72000.0,,SCT,20000.0,,,,,,
KRDR,03-04-2001,23:00,METAR,,360,14.0,,,9999,Cloud Development Not Observable,-5.0,-9.0,30.35,1030.0,,,,0,0,0,,,,,,,,,4/8 Partly Cloudy,72000.0,,SCT,20000.0,,,,,,
KRDR,03-04-2001,22:00,METAR,,360,15.0,,,9999,Cloud Development Not Observable,-5.0,-10.0,30.36,1030.2,,,,0,0,0,,,,,,,,,4/8 Partly Cloudy,72000.0,,SCT,20000.0,,,,,,
KRDR,03-04-2001,21:00,METAR,,350,15.0,,,9999,Cloud Development Not Observable,-5.0,-9.0,30.35,,,,,0,0,0,,,,,,,,,4/8 Partly Cloudy,72000.0,,SCT,20000.0,,,,,,
KRDR,03-04-2001,20:00,METAR,,360,13.0,,,9999,Cloud Development Not Observable,-6.0,-10.0,30.35,1029.9,,,,0,0,0,,,,,,,,,4/8 Partly Cloudy,72000.0,,SCT,20000.0,,,,,,
KRDR,03-04-2001,19:00,METAR,,360,13.0,,,9999,Cloud Development Not Observable,-6.0,-10.0,30.37,1030.6,,,,0,0,0,,,,,,,,,4/8 Partly Cloudy,72000.0,,SCT,20000.0,,,,,,
KRDR,03-04-2001,18:00,METAR,,360,13.0,,,9999,Cloud Development Not Observable,-7.0,-11.0,30.37,1030.6,,,,0,0,0,,,,,,,,,2/8 Mostly Clear,72000.0,,FEW,20000.0,,,,,,
KRDR,03-04-2001,17:00,METAR,,360,10.0,,,9999,Cloud Development Not Observable,-9.0,-12.0,30.38,1030.9,,,,0,0,0,,,,,,,,,2/8 Mostly Clear,72000.0,,FEW,20000.0,,,,,,
KRDR,03-04-2001,16:00,METAR,,10,11.0,,,9999,Cloud Development Not Observable,-11.0,-14.0,30.36,1030.2,,,,0,0,0,,,,,,,,,2/8 Mostly Clear,72000.0,,FEW,20000.0,,,,,,
KRDR,03-04-2001,15:00,METAR,,10,11.0,,,9999,Cloud Development Not Observable,-12.0,-14.0,30.36,1030.3,,,,0,0,0,,,,,,,,,2/8 Mostly Clear,72000.0,,FEW,20000.0,,,,,,
KRDR,03-04-2001,14:00,METAR,,350,8.0,,,9999,Cloud Development Not Observable,-14.0,-16.0,30.35,1029.9,,,,0,0,0,,,,,,,,,2/8 Mostly Clear,72000.0,,FEW,12000.0,,,,,,
KRDR,03-04-2001,13:00,METAR,,340,7.0,,,9999,Cloud Development Not Observable,-15.0,-16.0,30.33,1029.2,,,,0,0,0,,,,,,,,,Clear,72000.0,,,73000.0,,,,,,
KRDR,03-04-2001,12:00,METAR,,350,7.0,,,9999,Cloud Development Not Observable,-15.0,-16.0,30.32,1027.7,,,,0,0,0,,,,,,,,,Clear,72000.0,,,73000.0,,,,,,
KRDR,03-04-2001,11:00,METAR,,350,7.0,,,9999,Cloud Development Not Observable,-14.0,-15.0,30.29,1027.7,,,,0,0,0,,,,,,,,,Clear,72000.0,,,73000.0,,,,,,
KRDR,03-04-2001,10:00,METAR,,340,8.0,,,9999,Cloud Development Not Observable,-13.0,-14.0,30.27,1026.8,,,,0,0,0,,,,,,,,,Clear,72000.0,,,73000.0,,,,,,
KRDR,03-04-2001,09:00,METAR,,340,6.0,,,9999,Cloud Development Not Observable,-11.0,-13.0,30.25,1026.3,,,,0,0,0,,,,,,,,,Clear,72000.0,,,73000.0,,,,,,
KRDR,03-04-2001,08:00,METAR,,30,8.0,,,9999,Cloud Development Not Observable,-9.0,-12.0,30.23,1025.5,,,,0,0,0,,,,,,,,,2/8 Mostly Clear,72000.0,,FEW,6900.0,,,,,,
KRDR,03-04-2001,07:00,METAR,,40,7.0,,,9999,Cloud Development Not Observable,-8.0,-11.0,30.21,1024.8,,,,0,0,0,,,,,,,,,2/8 Mostly Clear,72000.0,,FEW,13000.0,,,,,,
KRDR,03-04-2001,06:00,METAR,,40,8.0,,,9999,Cloud Development Not Observable,-7.0,-11.0,30.18,1023.7,,,,0,0,0,,,,,,,,,2/8 Mostly Clear,72000.0,,FEW,13000.0,,,,,,
KRDR,03-04-2001,05:00,METAR,,40,10.0,,,9999,Cloud Development Not Observable,-6.0,-9.0,30.16,1023.0,,,,0,0,0,,,,,,,,,4/8 Partly Cloudy,72000.0,,SCT,13000.0,,,,,,
KRDR,03-04-2001,04:00,METAR,,50,13.0,,,9999,Cloud Development Not Observable,-4.0,-8.0,30.12,1021.8,,,,0,0,0,,,,,,,,,4/8 Partly Cloudy,72000.0,,SCT,13000.0,,,,,,
KRDR,03-04-2001,03:00,METAR,,40,11.0,,,9999,Cloud Development Not Observable,-4.0,-7.0,30.10,1020.9,,,,0,0,0,,,,,,,,,7/8 Mostly Cloudy,13000.0,,BKN,13000.0,,,,,,
KRDR,03-04-2001,02:00,METAR,,40,10.0,,,9999,Cloud Development Not Observable,-3.0,-5.0,30.07,1020.2,,,,0,0,0,,,,,,,,,7/8 Mostly Cloudy,13000.0,,BKN,13000.0,,,,,,
KRDR,03-04-2001,01:00,METAR,,30,10.0,,,9999,Cloud Development Not Observable,-2.0,-4.0,30.04,1019.3,,,,0,0,0,,,,,,,,,7/8 Mostly Cloudy,12000.0,,BKN,12000.0,,,,,,
KRDR,03-04-2001,00:00,METAR,,20,9.0,,,9999,Cloud Development Not Observable,0.0,-2.0,30.01,1018.1,,,,0,0,0,,,,,,,,,7/8 Mostly Cloudy,20000.0,,SCT,12000.0,BKN,20000.0,,,,
KRDR,03-03-2001,23:00,METAR,,60,10.0,,,9999,Cloud Development Not Observable,1.0,-2.0,29.98,1017.0,,,,0,0,0,,,,,,,,,7/8 Mostly Cloudy,20000.0,,SCT,12000.0,BKN,20000.0,,,,
KRDR,03-03-2001,22:00,METAR,,60,10.0,,,9999,Cloud Development Not Observable,1.0,-2.0,29.96,1016.1,,,,0,0,0,,,,,,,,,7/8 Mostly Cloudy,12000.0,,FEW,1500.0,BKN,12000.0,BKN,20000.0,,
KRDR,03-03-2001,21:00,METAR,,50,7.0,,,9999,Cloud Development Not Observable,0.0,-3.0,29.94,1015.5,,,,0,0,0,,,,,,,,,7/8 Mostly Cloudy,20000.0,,SCT,12000.0,BKN,20000.0,,,,
KRDR,03-03-2001,20:00,METAR,,,,,,9999,Cloud Development Not Observable,-2.0,-5.0,29.91,1014.6,,,,0,0,0,,,,,,,,,4/8 Partly Cloudy,72000.0,,SCT,12000.0,SCT,20000.0,,,,
KRDR,03-03-2001,19:00,METAR,,,,,,9999,Cloud Development Not Observable,-3.0,-6.0,29.90,1014.3,,,,0,0,0,,,,,,,,,4/8 Partly Cloudy,72000.0,,SCT,12000.0,SCT,20000.0,,,,
KRDR,03-03-2001,18:00,METAR,,,,,,9999,Cloud Development Not Observable,-4.0,-7.0,29.89,1013.9,,,,0,0,0,,,,,,,,,4/8 Partly Cloudy,72000.0,,FEW,12000.0,SCT,20000.0,,,,
KRDR,03-03-2001,17:00,METAR,,,,,,9999,Cloud Development Not Observable,-5.0,-7.0,29.86,1012.9,,,,0,0,0,,,,,,,,,4/8 Partly Cloudy,72000.0,,FEW,12000.0,SCT,20000.0,,,,
KRDR,03-03-2001,16:00,METAR,,70,10.0,,,9999,Cloud Development Not Observable,-7.0,-8.0,29.85,1012.6,,,,0,0,0,,,,,,,,,2/8 Mostly Clear,72000.0,,FEW,20000.0,,,,,,
KRDR,03-03-2001,15:00,METAR,,80,5.0,,,9999,Cloud Development Not Observable,-7.0,-8.0,29.83,1011.9,,,,0,0,0,,,,,,,,,2/8 Mostly Clear,72000.0,,FEW,20000.0,,,,,,
KRDR,03-03-2001,14:00,METAR,,,,,,9999,Cloud Development Not Observable,-11.0,-11.0,29.81,1011.2,,,,0,0,0,,,,,,,,,2/8 Mostly Clear,72000.0,,FEW,20000.0,,,,,,
KRDR,03-03-2001,13:00,METAR,,290,6.0,,,9999,Cloud Development Not Observable,-11.0,-11.0,29.80,1010.8,,,,0,0,0,,,,,,,,,4/8 Partly Cloudy,72000.0,,FEW,12000.0,SCT,20000.0,,,,
KRDR,03-03-2001,12:00,METAR,,170,4.0,,,9999,Cloud Development Not Observable,-10.0,-10.0,29.78,1010.0,,,,0,0,0,,,,,,,,,Clear,72000.0,,,73000.0,,,,,,
KRDR,03-03-2001,11:00,METAR,,190,9.0,,,9999,Cloud Development Not Observable,-9.0,-10.0,29.78,1009.9,,,,0,0,0,,,,,,,,,Clear,72000.0,,,73000.0,,,,,,
KRDR,03-03-2001,10:00,METAR,,210,7.0,,,9999,Cloud Development Not Observable,-10.0,-10.0,29.77,1009.7,,,,0,0,0,,,,,,,,,Clear,72000.0,,,73000.0,,,,,,
KRDR,03-03-2001,09:00,METAR,,210,6.0,,,9999,Cloud Development Not Observable,-10.0,-10.0,29.77,1009.8,,,,0,0,0,,,,,,,,,Clear,72000.0,,,73000.0,,,,,,
KRDR,03-03-2001,08:00,METAR,,190,7.0,,,9999,Cloud Development Not Observable,-8.0,-8.0,29.78,1009.9,,,,0,0,0,,,,,,,,,Clear,72000.0,,,73000.0,,,,,,
KRDR,03-03-2001,07:00,METAR,,210,4.0,,,9999,Cloud Development Not Observable,-7.0,-7.0,29.77,1009.5,,,,0,0,0,,,,,,,,,Clear,72000.0,,,73000.0,,,,,,
KRDR,03-03-2001,06:00,METAR,,180,3.0,,,9999,Cloud Development Not Observable,-6.0,-7.0,29.76,1009.2,,,,0,0,0,,,,,,,,,Clear,72000.0,,,73000.0,,,,,,
KRDR,03-03-2001,05:00,METAR,,150,6.0,,,9999,Cloud Development Not Observable,-5.0,-6.0,29.76,1009.1,,,,0,0,0,,,,,,,,,Clear,72000.0,,,73000.0,,,,,,
KRDR,03-03-2001,04:00,METAR,,150,3.0,,,9999,Cloud Development Not Observable,-5.0,-6.0,29.74,1008.7,,,,0,0,0,,,,,,,,,Clear,72000.0,,,73000.0,,,,,,
KRDR,03-03-2001,03:00,METAR,,210,6.0,,,9999,Cloud Development Not Observable,-5.0,-6.0,29.74,1008.6,,,,0,0,0,,,,,,,,,2/8 Mostly Clear,72000.0,,FEW,20000.0,,,,,,
KRDR,03-03-2001,02:00,METAR,,180,6.0,,,9999,Cloud Development Not Observable,-2.0,-5.0,29.75,1008.9,,,,0,0,0,,,,,,,,,2/8 Mostly Clear,72000.0,,FEW,20000.0,,,,,,
KRDR,03-03-2001,01:00,METAR,,220,6.0,,,9999,Cloud Development Not Observable,-2.0,-4.0,29.77,1009.6,,,,0,0,0,,,,,,,,,2/8 Mostly Clear,72000.0,,FEW,20000.0,,,,,,
KRDR,03-03-2001,00:00,METAR,,230,5.0,,,9999,Cloud Development Not Observable,1.0,-2.0,29.77,1009.6,,,,0,0,0,,,,,,,,,2/8 Mostly Clear,72000.0,,FEW,20000.0,,,,,,
KRDR,03-02-2001,23:00,METAR,,270,4.0,,,9999,Cloud Development Not Observable,2.0,-3.0,29.77,1009.6,,,,0,0,0,,,,,,,,,2/8 Mostly Clear,72000.0,,FEW,20000.0,,,,,,
KRDR,03-02-2001,22:00,METAR,,290,8.0,,,9999,Cloud Development Not Observable,3.0,-2.0,29.77,1009.3,,,,0,0,0,,,,,,,,,4/8 Partly Cloudy,72000.0,,SCT,20000.0,,,,,,
KRDR,03-02-2001,21:00,METAR,,220,5.0,,,9999,Cloud Development Not Observable,2.0,-2.0,29.75,1008.8,,,,0,0,0,,,,,,,,,4/8 Partly Cloudy,72000.0,,SCT,20000.0,,,,,,
KRDR,03-02-2001,20:00,METAR,,270,7.0,,,9999,Cloud Development Not Observable,2.0,-3.0,29.76,1009.1,,,,0,0,0,,,,,,,,,7/8 Mostly Cloudy,20000.0,,BKN,20000.0,,,,,,
KRDR,03-02-2001,19:00,METAR,,240,4.0,,,9999,Cloud Development Not Observable,3.0,-3.0,29.77,1009.3,,,,0,0,0,,,,,,,,,2/8 Mostly Clear,72000.0,,FEW,20000.0,,,,,,
KRDR,03-02-2001,18:00,METAR,,300,9.0,,,9999,Cloud Development Not Observable,1.0,-4.0,29.78,1009.8,,,,0,0,0,,,,,,,,,2/8 Mostly Clear,72000.0,,FEW,20000.0,,,,,,
KRDR,03-02-2001,17:00,METAR,,290,9.0,,,9999,Cloud Development Not Observable,0.0,-5.0,29.78,1009.8,,,,0,0,0,,,,,,,,,Clear,72000.0,,,73000.0,,,,,,
KRDR,03-02-2001,16:00,METAR,,290,7.0,,,9999,Cloud Development Not Observable,-1.0,-6.0,29.78,1009.8,,,,0,0,0,,,,,,,,,Clear,72000.0,,,73000.0,,,,,,
KRDR,03-02-2001,15:00,METAR,,290,9.0,,,9999,Cloud Development Not Observable,-3.0,-7.0,29.79,1010.3,,,,0,0,0,,,,,,,,,Clear,72000.0,,,73000.0,,,,,,
KRDR,03-02-2001,14:00,METAR,,280,9.0,,,9999,Cloud Development Not Observable,-5.0,-8.0,29.79,1010.1,,,,0,0,0,,,,,,,,,Clear,72000.0,,,73000.0,,,,,,
KRDR,03-02-2001,13:00,METAR,,290,11.0,,,9999,Cloud Development Not Observable,-6.0,-8.0,29.79,1010.2,,,,0,0,0,,,,,,,,,Clear,72000.0,,,73000.0,,,,,,
KRDR,03-02-2001,12:00,METAR,,300,11.0,,,9999,Cloud Development Not Observable,-5.0,-8.0,29.78,1009.7,,,,0,0,0,,,,,,,,,Clear,72000.0,,,73000.0,,,,,,
KRDR,03-02-2001,11:00,METAR,,290,9.0,,,9999,Cloud Development Not Observable,-5.0,-7.0,29.77,1009.6,,,,0,0,0,,,,,,,,,Clear,72000.0,,,73000.0,,,,,,
KRDR,03-02-2001,10:00,METAR,,280,9.0,,,9999,Cloud Development Not Observable,-4.0,-7.0,29.76,1009.0,,,,0,0,0,,,,,,,,,Clear,72000.0,,,73000.0,,,,,,
KRDR,03-02-2001,09:00,METAR,,280,10.0,,,9999,Cloud Development Not Observable,-3.0,-6.0,29.76,1009.0,,,,0,0,0,,,,,,,,,Clear,72000.0,,,73000.0,,,,,,
KRDR,03-02-2001,08:00,METAR,,280,10.0,,,9999,Cloud Development Not Observable,-3.0,-6.0,29.74,1008.3,,,,0,0,0,,,,,,,,,Clear,72000.0,,,73000.0,,,,,,
KRDR,03-02-2001,07:00,METAR,,280,11.0,,,9999,Cloud Development Not Observable,-2.0,-5.0,29.73,1007.9,,,,0,0,0,,,,,,,,,Clear,72000.0,,,73000.0,,,,,,
KRDR,03-02-2001,06:00,METAR,,290,14.0,,,9999,Cloud Development Not Observable,-1.0,-5.0,29.71,1007.4,,,,0,0,0,,,,,,,,,Clear,72000.0,,,73000.0,,,,,,
KRDR,03-02-2001,05:00,METAR,,290,12.0,,,9999,Cloud Development Not Observable,0.0,-4.0,29.70,1006.9,,,,0,0,0,,,,,,,,,2/8 Mostly Clear,72000.0,,FEW,20000.0,,,,,,
KRDR,03-02-2001,04:00,METAR,,290,22.0,,,9999,Cloud Development Not Observable,0.0,-4.0,29.67,1006.3,,,,0,0,0,,,,,,,,,2/8 Mostly Clear,72000.0,,FEW,20000.0,,,,,,
KRDR,03-02-2001,03:00,METAR,,300,16.0,,,9999,Cloud Development Not Observable,0.0,-3.0,29.67,1006.2,,,,0,0,0,,,,,,,,,4/8 Partly Cloudy,72000.0,,SCT,20000.0,,,,,,
KRDR,03-02-2001,02:00,METAR,,300,16.0,,302/6/KTS,9999,Cloud Development Not Observable,2.0,-2.0,29.65,1005.7,,,,0,0,0,,,,,,,,,4/8 Partly Cloudy,72000.0,,SCT,20000.0,,,,,,
KRDR,03-02-2001,01:00,METAR,,300,20.0,,,9999,Cloud Development Not Observable,2.0,-1.0,29.63,1005.0,,,,0,0,0,,,,,,,,,4/8 Partly Cloudy,72000.0,,SCT,20000.0,,,,,,
KRDR,03-02-2001,00:00,METAR,,300,14.0,,,9999,Cloud Development Not Observable,2.0,-2.0,29.61,1004.3,,,,0,0,0,,,,,,,,,4/8 Partly Cloudy,72000.0,,SCT,20000.0,,,,,,
KRDR,03-01-2001,23:00,METAR,,290,12.0,,,9999,Cloud Development Not Observable,3.0,-2.0,29.60,1003.9,,,,0,0,0,,,,,,,,,7/8 Mostly Cloudy,20000.0,,BKN,20000.0,,,,,,
KRDR,03-01-2001,22:00,METAR,,270,14.0,,,9999,Cloud Development Not Observable,3.0,-3.0,29.58,1003.2,,,,0,0,0,,,,,,,,,7/8 Mostly Cloudy,20000.0,,BKN,20000.0,,,,,,
KRDR,03-01-2001,21:00,METAR,,270,13.0,,,9999,Cloud Development Not Observable,3.0,-4.0,29.58,1003.1,,,,0,0,0,,,,,,,,,7/8 Mostly Cloudy,20000.0,,BKN,20000.0,,,,,,
KRDR,03-01-2001,20:00,METAR,,260,13.0,,,9999,Cloud Development Not Observable,2.0,-6.0,29.58,1003.2,,,,0,0,0,,,,,,,,,7/8 Mostly Cloudy,20000.0,,BKN,20000.0,,,,,,
KRDR,03-01-2001,19:00,METAR,,270,11.0,,,9999,Cloud Development Not Observable,2.0,-5.0,29.58,1003.1,,,,0,0,0,,,,,,,,,7/8 Mostly Cloudy,20000.0,,BKN,20000.0,,,,,,
KRDR,03-01-2001,18:00,METAR,,190,13.0,,,9999,Cloud Development Not Observable,0.0,-5.0,29.58,1003.2,,,,0,0,0,,,,,,,,,7/8 Mostly Cloudy,20000.0,,BKN,20000.0,,,,,,
KRDR,03-01-2001,17:00,METAR,,180,16.0,,,9999,Cloud Development Not Observable,-3.0,-8.0,29.59,1003.6,,,,0,0,0,,,,,,,,,7/8 Mostly Cloudy,20000.0,,BKN,20000.0,,,,,,
KRDR,03-01-2001,16:00,METAR,,180,14.0,,,9999,Cloud Development Not Observable,-5.0,-8.0,29.61,1004.4,,,,0,0,0,,,,,,,,,4/8 Partly Cloudy,72000.0,,SCT,20000.0,,,,,,
KRDR,03-01-2001,15:00,METAR,,180,12.0,,,9999,Cloud Development Not Observable,-6.0,-9.0,29.61,1004.5,,,,0,0,0,,,,,,,,,7/8 Mostly Cloudy,20000.0,,BKN,20000.0,,,,,,
KRDR,03-01-2001,14:00,METAR,,180,9.0,,,9999,Cloud Development Not Observable,-8.0,-10.0,29.62,1004.9,,,,0,0,0,,,,,,,,,4/8 Partly Cloudy,72000.0,,SCT,20000.0,,,,,,
KRDR,03-01-2001,13:00,METAR,,200,12.0,,,9999,Cloud Development Not Observable,-8.0,-10.0,29.63,1005.2,,,,0,0,0,,,,,,,,,7/8 Mostly Cloudy,20000.0,,BKN,20000.0,,,,,,
KRDR,03-01-2001,12:00,METAR,,200,9.0,,,9999,Cloud Development Not Observable,-8.0,-10.0,29.64,1005.4,,,,0,0,0,,,,,,,,,4/8 Partly Cloudy,72000.0,,SCT,20000.0,,,,,,
KRDR,03-01-2001,11:00,METAR,,190,9.0,,,9999,Cloud Development Not Observable,-9.0,-10.0,29.64,1005.5,,,,0,0,0,,,,,,,,,4/8 Partly Cloudy,72000.0,,SCT,20000.0,,,,,,
KRDR,03-01-2001,10:00,METAR,,180,9.0,,,9999,Cloud Development Not Observable,-8.0,-9.0,29.65,1005.6,,,,0,0,0,,,,,,,,,7/8 Mostly Cloudy,20000.0,,BKN,20000.0,,,,,,
KRDR,03-01-2001,09:00,METAR,,180,9.0,,,9999,Cloud Development Not Observable,-6.0,-8.0,29.66,1006.0,,,,0,0,0,,,,,,,,,7/8 Mostly Cloudy,20000.0,,BKN,20000.0,,,,,,
KRDR,03-01-2001,08:00,METAR,,240,5.0,,,9999,Cloud Development Not Observable,-6.0,-9.0,29.68,1006.6,,,,0,0,0,,,,,,,,,7/8 Mostly Cloudy,20000.0,,BKN,20000.0,,,,,,
KRDR,03-01-2001,07:00,METAR,,230,8.0,,,9999,Cloud Development Not Observable,-8.0,-10.0,29.68,1006.9,,,,0,0,0,,,,,,,,,7/8 Mostly Cloudy,20000.0,,BKN,20000.0,,,,,,
KRDR,03-01-2001,06:00,METAR,,80,4.0,,,9999,Cloud Development Not Observable,-5.0,-8.0,29.70,1007.2,,,,0,0,0,,,,,,,,,7/8 Mostly Cloudy,20000.0,,BKN,20000.0,,,,,,
KRDR,03-01-2001,05:00,METAR,,250,3.0,,,9999,Cloud Development Not Observable,-3.0,-7.0,29.71,1007.5,,,,0,0,0,,,,,,,,,7/8 Mostly Cloudy,20000.0,,BKN,20000.0,,,,,,
KRDR,03-01-2001,04:00,METAR,,240,9.0,,,9999,Cloud Development Not Observable,-4.0,-7.0,29.72,1008.1,,,,0,0,0,,,,,,,,,7/8 Mostly Cloudy,20000.0,,BKN,20000.0,,,,,,
KRDR,03-01-2001,03:00,METAR,,210,10.0,,,9999,Cloud Development Not Observable,-6.0,-8.0,29.73,1008.6,,,,0,0,0,,,,,,,,,8/8 Overcast,20000.0,,FEW,12000.0,OVC,20000.0,,,,
KRDR,03-01-2001,02:00,METAR,,200,10.0,,,9999,Cloud Development Not Observable,-5.0,-7.0,29.76,1009.5,,,,0,0,0,,,,,,,,,8/8 Overcast,20000.0,,FEW,12000.0,OVC,20000.0,,,,
KRDR,03-01-2001,01:00,METAR,,200,8.0,,,9999,Cloud Development Not Observable,-4.0,-7.0,29.76,1009.7,,,,0,0,0,,,,,,,,,8/8 Overcast,20000.0,,FEW,12000.0,OVC,20000.0,,,,
KRDR,03-01-2001,00:00,METAR,,210,8.0,,,9999,Cloud Development Not Observable,-3.0,-6.0,29.78,1010.2,,,,0,0,0,,,,,,,,,8/8 Overcast,20000.0,,FEW,12000.0,OVC,20000.0,,,,
KRDR,02-28-2001,23:00,METAR,,250,7.0,,,9999,Cloud Development Not Observable,-1.0,-6.0,29.79,1010.7,,,,0,0,0,,,,,,,,,7/8 Mostly Cloudy,20000.0,,BKN,20000.0,,,,,,
KRDR,02-28-2001,22:00,METAR,,260,7.0,,,9999,Cloud Development Not Observable,0.0,-6.0,29.80,1010.8,,,,0,0,0,,,,,,,,,8/8 Overcast,20000.0,,FEW,12000.0,OVC,20000.0,,,,
KRDR,02-28-2001,21:00,METAR,,270,10.0,,,9999,Cloud Development Not Observable,0.0,-6.0,29.80,1011.0,,,,0,0,0,,,,,,,,,7/8 Mostly Cloudy,20000.0,,BKN,20000.0,,,,,,
KRDR,02-28-2001,20:00,METAR,,280,12.0,,,9999,Cloud Development Not Observable,-1.0,-8.0,29.81,1011.2,,,,0,0,0,,,,,,,,,8/8 Overcast,20000.0,,OVC,20000.0,,,,,,
KRDR,02-28-2001,19:00,METAR,,270,12.0,,,9999,Cloud Development Not Observable,-2.0,-9.0,29.83,1012.0,,,,0,0,0,,,,,,,,,7/8 Mostly Cloudy,20000.0,,FEW,12000.0,BKN,20000.0,,,,
KRDR,02-28-2001,18:00,METAR,,270,13.0,,,9999,Cloud Development Not Observable,-3.0,-9.0,29.86,1013.2,,,,0,0,0,,,,,,,,,4/8 Partly Cloudy,72000.0,,FEW,12000.0,SCT,20000.0,,,,
KRDR,02-28-2001,17:00,METAR,,340,9.0,,270/27KTS,9999,Cloud Development Not Observable,-5.0,-10.0,29.87,1013.7,,,,0,0,0,,,,,,,,,4/8 Partly Cloudy,72000.0,,SCT,12000.0,SCT,20000.0,,,,
KRDR,02-28-2001,16:00,METAR,,260,14.0,,,9999,Cloud Development Not Observable,-6.0,-10.0,29.87,1013.7,,,,0,0,0,,,,,,,,,7/8 Mostly Cloudy,20000.0,,SCT,12000.0,BKN,20000.0,,,,
KRDR,02-28-2001,15:00,METAR,,260,16.0,21.0,250/27KTS,9999,Cloud Development Not Observable,-7.0,-11.0,29.88,1014.0,,,,0,0,0,,,,,,,,,7/8 Mostly Cloudy,12000.0,,BKN,12000.0,BKN,20000.0,,,,
KRDR,02-28-2001,14:00,METAR,,250,19.0,25.0,,9999,Cloud Development Not Observable,-9.0,-12.0,29.90,1014.8,,,,0,0,0,,,,,,,,,8/8 Overcast,12000.0,,BKN,12000.0,OVC,20000.0,,,,
KRDR,02-28-2001,13:00,METAR,,220,13.0,,,9999,Cloud Development Not Observable,-11.0,-13.0,29.93,1016.1,,,,0,0,0,,,,,,,,,8/8 Overcast,12000.0,,OVC,12000.0,,,,,,
KRDR,02-28-2001,12:00,METAR,,210,16.0,,,9999,Cloud Development Not Observable,-11.0,-14.0,29.98,1017.7,,,,0,0,0,,,,,,,,,8/8 Overcast,12000.0,,OVC,12000.0,,,,,,
KRDR,02-28-2001,11:00,METAR,,240,17.0,,,9999,Cloud Development Not Observable,-11.0,-14.0,30.01,1018.7,,,,0,0,0,,,,,,,,,7/8 Mostly Cloudy,15000.0,,BKN,15000.0,,,,,,
KRDR,02-28-2001,10:00,METAR,,230,16.0,,,9999,Cloud Development Not Observable,-12.0,-14.0,30.04,1019.8,,,,0,0,0,,,,,,,,,7/8 Mostly Cloudy,12000.0,,BKN,12000.0,,,,,,
KRDR,02-28-2001,09:00,METAR,,240,17.0,,,9999,Cloud Development Not Observable,-12.0,-14.0,30.09,1021.4,,,,0,0,0,,,,,,,,,7/8 Mostly Cloudy,12000.0,,BKN,12000.0,,,,,,
KRDR,02-28-2001,08:00,METAR,,230,16.0,,,9999,Cloud Development Not Observable,-12.0,-14.0,30.12,1022.3,,,,0,0,0,,,,,,,,,7/8 Mostly Cloudy,12000.0,,BKN,12000.0,,,,,,
KRDR,02-28-2001,07:00,METAR,,220,16.0,,,9999,Cloud Development Not Observable,-12.0,-15.0,30.15,1023.6,,,,0,0,0,,,,,,,,,7/8 Mostly Cloudy,12000.0,,BKN,12000.0,,,,,,
KRDR,02-28-2001,06:00,METAR,,210,15.0,,,9999,Cloud Development Not Observable,-15.0,-17.0,30.19,1025.2,,,,0,0,0,,,,,,,,,4/8 Partly Cloudy,72000.0,,SCT,12000.0,,,,,,
KRDR,02-28-2001,05:00,METAR,,210,15.0,,,9999,Cloud Development Not Observable,-16.0,-17.0,30.21,1026.0,,,,0,0,0,,,,,,,,,4/8 Partly Cloudy,72000.0,,SCT,12000.0,,,,,,
KRDR,02-28-2001,04:00,METAR,,220,15.0,,,9999,Cloud Development Not Observable,-16.0,-18.0,30.26,1027.6,,,,0,0,0,,,,,,,,,2/8 Mostly Clear,72000.0,,FEW,12000.0,,,,,,
KRDR,02-28-2001,03:00,METAR,,230,15.0,,,9999,Cloud Development Not Observable,-16.0,-18.0,30.29,1028.8,,,,0,0,0,,,,,,,,,2/8 Mostly Clear,72000.0,,FEW,12000.0,,,,,,
KRDR,02-28-2001,02:00,METAR,,210,13.0,,,9999,Cloud Development Not Observable,-16.0,-18.0,30.34,1030.6,,,,0,0,0,,,,,,,,,2/8 Mostly Clear,72000.0,,FEW,12000.0,,,,,,
KRDR,02-28-2001,01:00,METAR,,190,13.0,,,9999,Cloud Development Not Observable,-17.0,-18.0,30.38,1031.9,,,,0,0,0,,,,,,,,,2/8 Mostly Clear,72000.0,,FEW,12000.0,,,,,,
KRDR,02-28-2001,00:00,METAR,,210,10.0,,,9999,Cloud Development Not Observable,-15.0,-17.0,30.40,1032.6,,,,0,0,0,,,,,,,,,Clear,72000.0,,,73000.0,,,,,,
KRDR,02-27-2001,23:00,METAR,,220,11.0,,,9999,Cloud Development Not Observable,-14.0,-17.0,30.43,1033.4,,,,0,0,0,,,,,,,,,Clear,72000.0,,,73000.0,,,,,,
KRDR,02-27-2001,22:00,METAR,,240,13.0,,,9999,Cloud Development Not Observable,-14.0,-17.0,30.47,1034.7,,,,0,0,0,,,,,,,,,Clear,72000.0,,,73000.0,,,,,,
KRDR,02-27-2001,21:00,METAR,,280,11.0,,,9999,Cloud Development Not Observable,-15.0,-19.0,30.49,1035.4,,,,0,0,0,,,,,,,,,Clear,72000.0,,,73000.0,,,,,,
KRDR,02-27-2001,20:00,METAR,,230,12.0,,,9999,Cloud Development Not Observable,-15.0,-20.0,30.51,1036.1,,,,0,0,0,,,,,,,,,Clear,72000.0,,,73000.0,,,,,,
KRDR,02-27-2001,19:00,METAR,,260,14.0,,,9999,Cloud Development Not Observable,-16.0,-20.0,30.54,1037.1,,,,0,0,0,,,,,,,,,Clear,72000.0,,,73000.0,,,,,,
KRDR,02-27-2001,18:00,METAR,,270,13.0,,,9999,Cloud Development Not Observable,-18.0,-24.0,30.57,1038.5,,,,0,0,0,,,,,,,,,Clear,72000.0,,,73000.0,,,,,,
KRDR,02-27-2001,17:00,METAR,,270,12.0,,,9999,Cloud Development Not Observable,-19.0,-24.0,30.57,1038.3,,,,0,0,0,,,,,,,,,Clear,72000.0,,,73000.0,,,,,,
KRDR,02-27-2001,16:00,METAR,,260,9.0,,,9999,Cloud Development Not Observable,-20.0,-24.0,30.59,1039.1,,,,0,0,0,,,,,,,,,Clear,72000.0,,,73000.0,,,,,,
KRDR,02-27-2001,15:00,METAR,,260,11.0,,,9999,Cloud Development Not Observable,-23.0,-26.0,30.59,1039.2,,,,0,0,0,,,,,,,,,Clear,72000.0,,,73000.0,,,,,,
KRDR,02-27-2001,14:00,METAR,,270,14.0,,,9999,Cloud Development Not Observable,-24.0,-26.0,30.60,1039.6,,,,0,0,0,,,,,,,,,Clear,72000.0,,,73000.0,,,,,,
KRDR,02-27-2001,13:00,METAR,,270,11.0,,,9999,Cloud Development Not Observable,-24.0,-26.0,30.60,1039.5,,,,0,0,0,,,,,,,,,Clear,72000.0,,,73000.0,,,,,,
KRDR,02-27-2001,12:00,METAR,,260,10.0,,,9999,Cloud Development Not Observable,-23.0,-26.0,30.60,1039.4,,,,0,0,0,,,,,,,,,Clear,72000.0,,,73000.0,,,,,,
KRDR,02-27-2001,11:00,METAR,,250,11.0,,,9999,Cloud Development Not Observable,-23.0,-26.0,30.59,1039.0,,,,0,0,0,,,,,,,,,Clear,72000.0,,,73000.0,,,,,,
KRDR,02-27-2001,10:00,METAR,,260,8.0,,,9999,Cloud Development Not Observable,-23.0,-25.0,30.59,1039.0,,,,0,0,0,,,,,,,,,Clear,72000.0,,,73000.0,,,,,,
KRDR,02-27-2001,09:00,METAR,,280,12.0,,,9999,Cloud Development Not Observable,-22.0,-25.0,30.59,1038.9,,,,0,0,0,,,,,,,,,Clear,72000.0,,,73000.0,,,,,,
KRDR,02-27-2001,08:00,METAR,,270,13.0,,,9999,Cloud Development Not Observable,-21.0,-24.0,30.59,1039.0,,,,0,0,0,,,,,,,,,Clear,72000.0,,,73000.0,,,,,,
KRDR,02-27-2001,07:00,METAR,,280,13.0,,,9999,Cloud Development Not Observable,-21.0,-24.0,30.59,1038.9,,,,0,0,0,,,,,,,,,Clear,72000.0,,,73000.0,,,,,,
KRDR,02-27-2001,06:00,METAR,,280,11.0,,,9999,Cloud Development Not Observable,-22.0,-24.0,30.58,1038.6,,,,0,0,0,,,,,,,,,Clear,72000.0,,,73000.0,,,,,,
KRDR,02-27-2001,05:00,METAR,,270,9.0,,,9999,Cloud Development Not Observable,-22.0,-24.0,30.58,1038.6,,,,0,0,0,,,,,,,,,Clear,72000.0,,,73000.0,,,,,,
KRDR,02-27-2001,04:00,METAR,,260,13.0,,,9999,Cloud Development Not Observable,-21.0,-23.0,30.57,1038.3,,,,0,0,0,,,,,,,,,Clear,72000.0,,,73000.0,,,,,,
KRDR,02-27-2001,03:00,METAR,,280,10.0,,,9999,Cloud Development Not Observable,-20.0,-23.0,30.55,1037.6,,,,0,0,0,,,,,,,,,Clear,72000.0,,,73000.0,,,,,,
KRDR,02-27-2001,02:00,METAR,,270,14.0,,,9999,Cloud Development Not Observable,-20.0,-23.0,30.54,1037.5,,,,0,0,0,,,,,,,,,2/8 Mostly Clear,72000.0,,FEW,20000.0,,,,,,
KRDR,02-27-2001,01:00,METAR,,270,14.0,,,9999,Cloud Development Not Observable,-19.0,-22.0,30.54,1037.5,,,,0,0,0,,,,,,,,,2/8 Mostly Clear,72000.0,,FEW,20000.0,,,,,,
KRDR,02-27-2001,00:00,METAR,,290,14.0,,,9999,Cloud Development Not Observable,-18.0,-21.0,30.54,1037.5,,,,0,0,0,,,,,,,,,Clear,72000.0,,,73000.0,,,,,,
KRDR,02-26-2001,23:00,METAR,,280,14.0,,,9999,Cloud Development Not Observable,-17.0,-21.0,30.53,1036.9,,,,0,0,0,,,,,,,,,Clear,72000.0,,,73000.0,,,,,,
KRDR,02-26-2001,22:00,METAR,,290,18.0,,,9999,Cloud Development Not Observable,-16.0,-20.0,30.53,1036.6,,,,0,0,0,,,,,,,,,Clear,72000.0,,,73000.0,,,,,,
KRDR,02-26-2001,21:00,METAR,,300,15.0,,,9999,Cloud Development Not Observable,-15.0,-20.0,30.51,1036.0,,,,0,0,0,,,,,,,,,Clear,72000.0,,,73000.0,,,,,,
KRDR,02-26-2001,20:00,METAR,,300,17.0,,,9999,Cloud Development Not Observable,-16.0,-19.0,30.50,1035.6,,,,0,0,0,,,,,,,,,Clear,72000.0,,,73000.0,,,,,,
KRDR,02-26-2001,19:00,METAR,,290,15.0,,,9999,Cloud Development Not Observable,-16.0,-20.0,30.51,1036.0,,,,0,0,0,,,,,,,,,Clear,72000.0,,,73000.0,,,,,,
KRDR,02-26-2001,18:00,METAR,,300,16.0,,,9999,Cloud Development Not Observable,-17.0,-20.0,30.51,1036.1,,,,0,0,0,,,,,,,,,Clear,72000.0,,,73000.0,,,,,,
KRDR,02-26-2001,17:00,METAR,,300,11.0,,,9999,Cloud Development Not Observable,-17.0,-20.0,30.50,1035.7,,,,0,0,0,,,,,,,,,Clear,72000.0,,,73000.0,,,,,,
KRDR,02-26-2001,16:00,METAR,,270,11.0,,,9999,Cloud Development Not Observable,-18.0,-20.0,30.49,1035.4,,,,0,0,0,,,,,,,,,Clear,72000.0,,,73000.0,,,,,,
KRDR,02-26-2001,15:00,METAR,,270,9.0,,,9999,Cloud Development Not Observable,-20.0,-20.0,30.47,1034.7,,,,0,0,0,,,,,,,,,Clear,72000.0,,,73000.0,,,,,,
KRDR,02-26-2001,14:00,METAR,,260,8.0,,,9999,Cloud Development Not Observable,-21.0,-22.0,30.45,1034.0,,,,0,0,0,,,,,,,,,2/8 Mostly Clear,72000.0,,FEW,9900.0,,,,,,
KRDR,02-26-2001,13:00,METAR,,290,8.0,,,9999,Cloud Development Not Observable,-22.0,-22.0,30.42,1033.1,,,,0,0,0,,,,,,,,,2/8 Mostly Clear,72000.0,,FEW,9900.0,,,,,,
KRDR,02-26-2001,12:42,SPECI,,290,8.0,,,9999,Cloud Development Not Observable,-22.0,-22.0,30.42,,,,,0,0,0,,,,,,,,,4/8 Partly Cloudy,72000.0,,FEW,4500.0,SCT,9900.0,,,,
KRDR,02-26-2001,12:00,METAR,,260,6.0,,,9999,Cloud Development Not Observable,-22.0,-22.0,30.41,1031.9,,,,0,0,0,,,,,,,,,4/8 Partly Cloudy,72000.0,,SCT,4500.0,SCT,9900.0,,,,
KRDR,02-26-2001,11:00,METAR,,280,4.0,,,9999,Cloud Development Not Observable,-19.0,-19.0,30.39,1031.9,,,,0,0,0,,,,,,,,,7/8 Mostly Cloudy,10000.0,,SCT,4500.0,BKN,9900.0,,,,
KRDR,02-26-2001,10:30,METAR,,280,6.0,,,9999,Cloud Development Not Observable,-18.0,-18.0,30.39,,,,,0,0,0,,,,,,,,,7/8 Mostly Cloudy,10000.0,,SCT,4500.0,BKN,9900.0,,,,
KRDR,02-26-2001,10:00,METAR,,320,7.0,,,9999,Light Snow/Cloud Development Not Observable,-17.0,-17.0,30.37,1031.1,,,,71,0,0,,,,,,,,,7/8 Mostly Cloudy,4400.0,,SCT,2800.0,BKN,4500.0,BKN,9900.0,,
KRDR,02-26-2001,09:00,METAR,,320,10.0,,,9999,Light Snow/Cloud Development Not Observable,-15.0,-16.0,30.36,1030.4,,,,71,0,0,,,,,,,,,8/8 Overcast,2800.0,,SCT,800.0,BKN,2800.0,OVC,4500.0,,
KRDR,02-26-2001,08:00,METAR,,330,10.0,,,4800,Light Snow/Cloud Development Not Observable,-15.0,-16.0,30.34,1029.7,,,,71,0,0,,,,,,,,,8/8 Overcast,2500.0,,SCT,800.0,BKN,2500.0,OVC,4500.0,,
KRDR,02-26-2001,07:31,SPECI,,330,9.0,,,4800,Light Snow/Cloud Development Not Observable,-15.0,-16.0,30.32,,,,,71,0,0,,,,,,,,,8/8 Overcast,2000.0,,SCT,800.0,BKN,2000.0,OVC,4500.0,,
KRDR,02-26-2001,07:00,METAR,,340,10.0,,,8000,Light Snow/Cloud Development Not Observable,-15.0,-16.0,30.31,1028.9,,,,71,0,0,,,,,,,,,8/8 Overcast,3000.0,,SCT,1200.0,OVC,3000.0,,,,
KRDR,02-26-2001,06:00,METAR,,330,10.0,,,9999,Light Snow/Cloud Development Not Observable,-15.0,-16.0,30.28,1027.8,,,,71,0,0,,,,,,,,,8/8 Overcast,3400.0,,SCT,1000.0,BKN,3500.0,OVC,20000.0,,
KRDR,02-26-2001,05:00,METAR,,340,10.0,,,9999,Light Snow/Cloud Development Not Observable,-15.0,-16.0,30.26,1027.2,,,,71,0,0,,,,,,,,,8/8 Overcast,3400.0,,SCT,1000.0,BKN,3500.0,OVC,20000.0,,
KRDR,02-26-2001,04:32,SPECI,,350,8.0,,,9999,Light Snow/Cloud Development Not Observable,-15.0,-16.0,30.26,,,,,71,0,0,,,,,,,,,8/8 Overcast,3400.0,,BKN,3500.0,OVC,20000.0,,,,
KRDR,02-26-2001,04:00,METAR,,360,9.0,,,9999,Cloud Development Not Observable,-15.0,-16.0,30.24,1026.7,,,,0,0,0,,,,,,,,,7/8 Mostly Cloudy,20000.0,,SCT,9900.0,BKN,20000.0,,,,
KRDR,02-26-2001,03:00,METAR,,360,10.0,,,9999,Cloud Development Not Observable,-14.0,-16.0,30.22,1025.9,,,,0,0,0,,,,,,,,,7/8 Mostly Cloudy,20000.0,,SCT,9900.0,BKN,20000.0,,,,
KRDR,02-26-2001,02:00,METAR,,360,10.0,,,9999,Cloud Development Not Observable,-14.0,-15.0,30.20,1025.2,,,,0,0,0,,,,,,,,,7/8 Mostly Cloudy,20000.0,,BKN,20000.0,,,,,,
KRDR,02-26-2001,01:00,METAR,,350,10.0,,,9999,Cloud Development Not Observable,-14.0,-15.0,30.18,1024.3,,,,0,0,0,,,,,,,,,7/8 Mostly Cloudy,20000.0,,BKN,20000.0,,,,,,
KRDR,02-26-2001,00:00,METAR,,350,10.0,,,9999,Cloud Development Not Observable,-13.0,-15.0,30.16,1023.6,,,,0,0,0,,,,,,,,,4/8 Partly Cloudy,72000.0,,FEW,4500.0,SCT,20000.0,,,,
KRDR,02-25-2001,23:00,METAR,,350,11.0,,,9999,Cloud Development Not Observable,-12.0,-14.0,30.14,1023.0,,,,0,0,0,,,,,,,,,2/8 Mostly Clear,72000.0,,FEW,1300.0,FEW,4500.0,,,,
KRDR,02-25-2001,22:00,METAR,,350,14.0,,,9999,Light Snow/Cloud Development Not Observable,-11.0,-13.0,30.10,1021.6,,,,71,0,0,,,,,,,,,8/8 Overcast,4400.0,,SCT,1300.0,OVC,4500.0,,,,
KRDR,02-25-2001,20:00,METAR,,310,22.0,,,9999,Light Snow/Cloud Development Not Observable,-9.0,-12.0,30.04,1019.3,,,,71,0,0,,,,,,,,,7/8 Mostly Cloudy,4900.0,,SCT,1500.0,BKN,5000.0,,,,
KRDR,02-25-2001,19:00,METAR,,310,18.0,,,9999,Light Snow/Cloud Development Not Observable,-9.0,-12.0,30.02,1018.8,,,,71,0,0,,,,,,,,,8/8 Overcast,4900.0,,SCT,1500.0,OVC,5000.0,,,,
KRDR,02-25-2001,18:00,METAR,,330,19.0,,,9999,Light Snow/Cloud Development Not Observable,-10.0,-12.0,29.99,1017.7,,,,71,0,0,,,,,,,,,8/8 Overcast,4900.0,,SCT,1500.0,OVC,5000.0,,,,
KRDR,02-25-2001,17:42,SPECI,,330,20.0,,,9999,Light Snow/Cloud Development Not Observable,-10.0,-12.0,29.99,,,,,71,0,0,,,,,,,,,8/8 Overcast,4900.0,,SCT,2000.0,OVC,5000.0,,,,
KRDR,02-25-2001,17:00,METAR,,330,27.0,32.0,,6400,Light Snow/Blowing Snow/Cloud Development Not Observable,-11.0,-12.0,29.96,1016.8,,,,71,38,0,,,,,,,,,8/8 Overcast,2000.0,,BKN,2000.0,OVC,5000.0,,,,
KRDR,02-25-2001,16:00,METAR,,330,21.0,,,8000,Light Snow/Blowing Snow/Cloud Development Not Observable,-11.0,-12.0,29.93,1015.5,,,,71,38,0,,,,,,,,,8/8 Overcast,2000.0,,SCT,1000.0,BKN,2000.0,OVC,5000.0,,
KRDR,02-25-2001,15:00,METAR,,320,22.0,,320/28KTS,8000,Light Snow/Blowing Snow/Cloud Development Not Observable,-11.0,-12.0,29.89,1012.8,,,,71,38,0,,,,,,,,,8/8 Overcast,2000.0,,SCT,1000.0,BKN,2000.0,OVC,5900.0,,
KRDR,02-25-2001,14:00,METAR,,330,25.0,30.0,,4800,Blowing Snow/Cloud Development Not Observable,-11.0,-12.0,29.85,1012.8,,,,38,0,0,,,,,,,,,8/8 Overcast,1500.0,,SCT,800.0,BKN,1500.0,OVC,5900.0,,
KRDR,02-25-2001,13:48,SPECI,,330,21.0,,,4800,Blowing Snow/Cloud Development Not Observable,-11.0,-12.0,29.84,,,,,38,0,0,,,,,,,,,8/8 Overcast,1500.0,,SCT,800.0,BKN,1500.0,OVC,5900.0,,
KRDR,02-25-2001,13:00,METAR,,330,23.0,32.0,,2400,Light Snow/Blowing Snow/Cloud Development Not Observable,-11.0,-12.0,29.81,1011.4,,,,71,38,0,,,,,,,,,8/8 Overcast,800.0,,BKN,800.0,BKN,1500.0,OVC,4000.0,,
KRDR,02-25-2001,12:00,METAR,,320,24.0,32.0,320/32KTS,2400,Light Snow/Blowing Snow/Cloud Development Not Observable,-11.0,-12.0,29.78,1010.4,,,,71,38,0,,,,,,,,,8/8 Overcast,800.0,,BKN,800.0,BKN,1500.0,OVC,4000.0,,
KRDR,02-25-2001,11:27,SPECI,,330,26.0,31.0,,2400,Light Snow/Blowing Snow/Cloud Development Not Observable,-11.0,-12.0,29.77,,,,,71,38,0,,,,,,,,,8/8 Overcast,800.0,,BKN,800.0,BKN,1200.0,OVC,4000.0,,
KRDR,02-25-2001,11:00,METAR,,330,25.0,32.0,320/32KTS,1600,Light Snow/Blowing Snow/Cloud Development Not Observable,-11.0,-12.0,29.75,1009.3,,,,71,38,0,,,,,,,,,8/8 Overcast,800.0,,BKN,800.0,BKN,1200.0,OVC,4000.0,,
KRDR,02-25-2001,10:00,METAR,,330,23.0,,320/30KTS,1600,Light Snow/Blowing Snow/Cloud Development Not Observable,-11.0,-12.0,29.72,1008.2,,,,71,38,0,,,,,,,,,8/8 Overcast,800.0,,BKN,800.0,BKN,1200.0,OVC,4000.0,,
KRDR,02-25-2001,09:44,SPECI,,330,22.0,,,1600,Light Snow/Blowing Snow/Cloud Development Not Observable,-11.0,-12.0,29.72,,,,,71,38,0,,,,,,,,,8/8 Overcast,800.0,,BKN,800.0,BKN,1200.0,OVC,4000.0,,
KRDR,02-25-2001,09:33,SPECI,,320,23.0,30.0,,1600,Light Snow/Blowing Snow/Cloud Development Not Observable,-11.0,-12.0,29.72,,,,,71,38,0,,,,,,,,,8/8 Overcast,1200.0,,SCT,800.0,BKN,1200.0,OVC,4000.0,,
KRDR,02-25-2001,09:00,METAR,,330,29.0,,330/33KTS,1600,Light Snow/Blowing Snow/Cloud Development Not Observable,-10.0,-10.0,29.71,1008.0,,,,71,38,0,,,,,,,,,8/8 Overcast,1500.0,,SCT,800.0,BKN,1500.0,OVC,5000.0,,
KRDR,02-25-2001,08:00,METAR,,330,24.0,,330/33KTS,1600,Light Snow/Blowing Snow/Cloud Development Not Observable,-10.0,-10.0,29.71,1007.8,,,,71,38,0,,,,,,,,,8/8 Overcast,1500.0,,SCT,800.0,BKN,1500.0,OVC,5000.0,,
KRDR,02-25-2001,07:40,SPECI,,350,24.0,,,1600,Light Snow/Blowing Snow/Cloud Development Not Observable,-10.0,-10.0,29.71,,,,,71,38,0,,,,,,,,,8/8 Overcast,1500.0,,SCT,800.0,BKN,1500.0,OVC,5000.0,,
KRDR,02-25-2001,07:00,METAR,,350,25.0,,330/29KTS,1600,Light Snow/Blowing Snow/Cloud Development Not Observable,-9.0,-10.0,29.70,1007.4,,,,71,38,0,,,,,,,,,8/8 Overcast,800.0,,BKN,800.0,OVC,1500.0,,,,
KRDR,02-25-2001,06:00,METAR,,350,23.0,,340/29KTS,1600,Light Snow/Blowing Snow/Cloud Development Not Observable,-9.0,-10.0,29.70,1007.4,,,,71,38,0,,,,,,,,,8/8 Overcast,800.0,,BKN,800.0,OVC,1500.0,,,,
KRDR,02-25-2001,05:00,METAR,,340,20.0,,340/28KTS,1600,Light Snow/Blowing Snow/Cloud Development Not Observable,-9.0,-9.0,29.71,1008.0,,,,71,38,0,,,,,,,,,7/8 Mostly Cloudy,800.0,,BKN,800.0,BKN,1500.0,,,,
KRDR,02-25-2001,04:28,SPECI,,340,21.0,,,1600,Light Snow/Blowing Snow/Cloud Development Not Observable,-9.0,-9.0,29.71,,,,,71,38,0,,,,,,,,,7/8 Mostly Cloudy,800.0,,BKN,800.0,BKN,1500.0,,,,
KRDR,02-25-2001,04:00,METAR,,350,22.0,,350/25KTS,1600,Light Snow/Blowing Snow/Cloud Development Not Observable,-8.0,-9.0,29.72,1008.1,,,,71,38,0,,,,,,,,,8/8 Overcast,800.0,,BKN,800.0,OVC,1500.0,,,,
KRDR,02-25-2001,03:39,SPECI,,350,20.0,,,1600,Light Snow/Blowing Snow/Cloud Development Not Observable,-8.0,-9.0,29.72,,,,,71,38,0,,,,,,,,,8/8 Overcast,800.0,,BKN,800.0,OVC,1500.0,,,,
KRDR,02-25-2001,03:00,METAR,,350,19.0,,,1600,Light Snow/Blowing Snow/Cloud Development Not Observable,-8.0,-9.0,29.74,1008.9,,,,71,38,0,,,,,,,,,8/8 Overcast,500.0,,BKN,500.0,OVC,1500.0,,,,
KRDR,02-25-2001,02:00,METAR,,350,19.0,24.0,,1600,Light Snow/Blowing Snow/Cloud Development Not Observable,-8.0,-9.0,29.74,1009.1,,,,71,38,0,,,,,,,,,8/8 Overcast,500.0,,BKN,500.0,OVC,1500.0,,,,
KRDR,02-25-2001,01:00,METAR,,360,19.0,,,1600,Light Snow/Blowing Snow/Cloud Development Not Observable,-7.0,-8.0,29.77,1009.9,,,,71,38,0,,,,,,,,,8/8 Overcast,2500.0,,SCT,1500.0,OVC,2500.0,,,,
KRDR,02-25-2001,00:00,METAR,,350,19.0,,,1600,Light Snow/Blowing Snow/Cloud Development Not Observable,-7.0,-8.0,29.74,1009.0,,,,71,38,0,,,,,,,,,8/8 Overcast,2500.0,,SCT,1500.0,OVC,2500.0,,,,
KRDR,02-24-2001,23:24,SPECI,,350,18.0,,,1600,Light Snow/Blowing Snow/Cloud Development Not Observable,-7.0,-8.0,29.75,,,,,71,38,0,,,,,,,,,8/8 Overcast,2500.0,,SCT,1500.0,OVC,2500.0,,,,
KRDR,02-24-2001,23:00,METAR,,360,17.0,,,8000,Light Snow/Cloud Development Not Observable,-7.0,-8.0,29.77,1009.9,,,,71,0,0,,,,,,,,,8/8 Overcast,2500.0,,SCT,1400.0,BKN,2500.0,OVC,3500.0,,
KRDR,02-24-2001,22:00,METAR,,360,15.0,,,9999,Light Snow/Cloud Development Not Observable,-6.0,-8.0,29.77,1009.9,,,,71,0,0,,,,,,,,,8/8 Overcast,2500.0,,SCT,1400.0,BKN,2500.0,OVC,3500.0,,
KRDR,02-24-2001,21:00,METAR,,20,10.0,,,9999,Cloud Development Not Observable,-6.0,-8.0,29.78,1010.2,,,,0,0,0,,,,,,,,,8/8 Overcast,2000.0,,SCT,1400.0,BKN,2000.0,OVC,3500.0,,
KRDR,02-24-2001,20:00,METAR,,40,7.0,,,9999,Cloud Development Not Observable,-6.0,-8.0,29.77,1010.0,,,,0,0,0,,,,,,,,,8/8 Overcast,2000.0,,SCT,1000.0,BKN,2000.0,OVC,3500.0,,
KRDR,02-24-2001,19:00,METAR,,50,9.0,,,9999,Light Snow/Cloud Development Not Observable,-6.0,-8.0,29.77,1010.0,,,,71,0,0,,,,,,,,,8/8 Overcast,2000.0,,BKN,2000.0,OVC,3500.0,,,,
KRDR,02-24-2001,18:00,METAR,,20,6.0,,,9999,Light Snow/Cloud Development Not Observable,-6.0,-8.0,29.82,1011.9,,,,71,0,0,,,,,,,,,8/8 Overcast,2000.0,,BKN,2000.0,OVC,3500.0,,,,
KRDR,02-24-2001,17:00,METAR,,100,4.0,,,9999,Light Snow/Cloud Development Not Observable,-7.0,-8.0,29.84,1012.4,,,,71,0,0,,,,,,,,,8/8 Overcast,2500.0,,BKN,2500.0,OVC,4500.0,,,,
KRDR,02-24-2001,16:00,METAR,,90,6.0,,,9999,Light Snow/Cloud Development Not Observable,-7.0,-8.0,29.84,1012.5,,,,71,0,0,,,,,,,,,8/8 Overcast,1500.0,,BKN,1500.0,OVC,4500.0,,,,
KRDR,02-24-2001,15:00,METAR,,70,7.0,,,6400,Light Snow/Cloud Development Not Observable,-8.0,-8.0,29.83,1012.3,,,,71,0,0,,,,,,,,,8/8 Overcast,1500.0,,BKN,1500.0,OVC,4500.0,,,,
KRDR,02-24-2001,14:00,METAR,,100,6.0,,,4800,Light Snow/Cloud Development Not Observable,-8.0,-9.0,29.83,1012.3,,,,71,0,0,,,,,,,,,8/8 Overcast,1500.0,,BKN,1500.0,OVC,4500.0,,,,
KRDR,02-24-2001,13:00,METAR,,110,8.0,,,4800,Light Snow/Cloud Development Not Observable,-8.0,-9.0,29.85,1012.8,,,,71,0,0,,,,,,,,,8/8 Overcast,1500.0,,OVC,1500.0,,,,,,
KRDR,02-24-2001,12:00,METAR,,100,7.0,,,9999,Light Snow/Cloud Development Not Observable,-8.0,-9.0,29.87,1013.7,,,,71,0,0,,,,,,,,,8/8 Overcast,2000.0,,BKN,2000.0,OVC,4500.0,,,,
KRDR,02-24-2001,11:15,SPECI,,100,8.0,,,9999,Light Snow/Cloud Development Not Observable,-8.0,-9.0,29.87,,,,,71,0,0,,,,,,,,,8/8 Overcast,2000.0,,BKN,2000.0,OVC,4500.0,,,,
KRDR,02-24-2001,11:00,METAR,,110,8.0,,,4800,Light Snow/Cloud Development Not Observable,-8.0,-9.0,29.88,1013.9,,,,71,0,0,,,,,,,,,8/8 Overcast,72000.0,,FEW,500.0,SCT,1500.0,OVC,4500.0,,
KRDR,02-24-2001,10:00,METAR,,120,8.0,,,4800,Light Snow/Cloud Development Not Observable,-8.0,-9.0,29.91,1014.9,,,,71,0,0,,,,,,,,,8/8 Overcast,72000.0,,SCT,1500.0,OVC,4500.0,,,,
KRDR,02-24-2001,09:00,METAR,,120,10.0,,,4800,Light Snow/Cloud Development Not Observable,-9.0,-9.0,29.93,1015.5,,,,71,0,0,,,,,,,,,8/8 Overcast,72000.0,,SCT,1500.0,OVC,4500.0,,,,
KRDR,02-24-2001,08:08,SPECI,,130,11.0,,,4800,Light Snow/Cloud Development Not Observable,-9.0,-9.0,29.94,,,,,71,0,0,,,,,,,,,8/8 Overcast,4400.0,,SCT,1500.0,OVC,4500.0,,,,
KRDR,02-24-2001,08:00,METAR,,130,11.0,,,4000,Light Snow/Cloud Development Not Observable,-9.0,-9.0,29.95,1016.4,,,,71,0,0,,,,,,,,,8/8 Overcast,1500.0,,BKN,1500.0,OVC,4000.0,,,,
KRDR,02-24-2001,07:00,METAR,,120,12.0,,,3200,Light Snow/Cloud Development Not Observable,-9.0,-10.0,29.97,1017.0,,,,71,0,0,,,,,,,,,8/8 Overcast,1500.0,,FEW,500.0,BKN,1500.0,OVC,4000.0,,
KRDR,02-24-2001,06:23,SPECI,,110,8.0,,,3200,Light Snow/Cloud Development Not Observable,-9.0,-10.0,29.98,,,,,71,0,0,,,,,,,,,8/8 Overcast,1500.0,,FEW,500.0,BKN,1500.0,OVC,4000.0,,
KRDR,02-24-2001,06:00,METAR,,120,9.0,,,2400,Light Snow/Cloud Development Not Observable,-10.0,-10.0,29.99,1017.8,,,,71,0,0,,,,,,,,,8/8 Overcast,1000.0,,FEW,300.0,BKN,1000.0,OVC,2000.0,,
KRDR,02-24-2001,05:00,METAR,,110,7.0,,,2400,Light Snow/Cloud Development Not Observable,-10.0,-11.0,30.01,1018.8,,,,71,0,0,,,,,,,,,8/8 Overcast,1000.0,,FEW,200.0,BKN,1000.0,OVC,2000.0,,
KRDR,02-24-2001,04:00,METAR,,140,10.0,,,2400,Light Snow/Cloud Development Not Observable,-11.0,-11.0,30.04,1019.7,,,,71,0,0,,,,,,,,,8/8 Overcast,1000.0,,FEW,200.0,BKN,1000.0,OVC,2000.0,,
KRDR,02-24-2001,03:25,METAR,,140,9.0,,,2400,Light Snow/Mist/Cloud Development Not Observable,-11.0,-11.0,30.05,,,,,71,10,0,,,,,,,,,8/8 Overcast,1000.0,,FEW,200.0,BKN,1000.0,OVC,2000.0,,
KRDR,02-24-2001,03:00,METAR,,160,11.0,,,3200,Light Snow/Cloud Development Not Observable,-11.0,-12.0,30.07,1020.8,,,,71,0,0,,,,,,,,,8/8 Overcast,1000.0,,BKN,1000.0,OVC,2000.0,FEW,5000.0,,
KRDR,02-24-2001,02:34,SPECI,,170,12.0,,,3200,Light Snow/Cloud Development Not Observable,-11.0,-11.0,30.08,,,,,71,0,0,,,,,,,,,8/8 Overcast,1000.0,,BKN,1000.0,BKN,2000.0,OVC,8900.0,,
KRDR,02-24-2001,02:00,METAR,,160,15.0,,,9999,Cloud Development Not Observable,-11.0,-12.0,30.09,1021.6,,,,0,0,0,,,,,,,,,8/8 Overcast,2000.0,,SCT,1000.0,BKN,2000.0,OVC,9900.0,,
KRDR,02-24-2001,01:21,SPECI,,160,11.0,,,8000,Light Snow/Cloud Development Not Observable,-11.0,-13.0,30.10,,,,,71,0,0,,,,,,,,,8/8 Overcast,2000.0,,FEW,1000.0,BKN,2000.0,OVC,12000.0,,
KRDR,02-24-2001,01:00,METAR,,160,12.0,,,9999,Cloud Development Not Observable,-11.0,-13.0,30.10,1021.9,,,,0,0,0,,,,,,,,,8/8 Overcast,9000.0,,BKN,8900.0,OVC,20000.0,,,,
KRDR,02-24-2001,00:00,METAR,,150,12.0,,,9999,Cloud Development Not Observable,-11.0,-13.0,30.12,1022.6,,,,0,0,0,,,,,,,,,8/8 Overcast,10000.0,,BKN,9900.0,OVC,20000.0,,,,
KRDR,02-23-2001,23:00,METAR,,160,15.0,,,9999,Cloud Development Not Observable,-11.0,-13.0,30.15,1023.6,,,,0,0,0,,,,,,,,,8/8 Overcast,10000.0,,BKN,9900.0,OVC,20000.0,,,,
KRDR,02-23-2001,22:00,METAR,,150,13.0,,,9999,Cloud Development Not Observable,-11.0,-14.0,30.17,1024.3,,,,0,0,0,,,,,,,,,7/8 Mostly Cloudy,10000.0,,BKN,9900.0,BKN,20000.0,,,,
KRDR,02-23-2001,21:00,METAR,,150,12.0,,,9999,Cloud Development Not Observable,-12.0,-15.0,30.18,1024.7,,,,0,0,0,,,,,,,,,7/8 Mostly Cloudy,10000.0,,BKN,9900.0,BKN,20000.0,,,,
KRDR,02-23-2001,20:00,METAR,,160,12.0,,,9999,Cloud Development Not Observable,-12.0,-15.0,30.21,1025.6,,,,0,0,0,,,,,,,,,7/8 Mostly Cloudy,20000.0,,FEW,9900.0,BKN,20000.0,,,,
KRDR,02-23-2001,19:00,METAR,,140,14.0,,,9999,Cloud Development Not Observable,-13.0,-17.0,30.22,1026.1,,,,0,0,0,,,,,,,,,7/8 Mostly Cloudy,20000.0,,FEW,9900.0,BKN,20000.0,,,,
KRDR,02-23-2001,18:00,METAR,,110,9.0,,,9999,Cloud Development Not Observable,-15.0,-18.0,30.25,1027.0,,,,0,0,0,,,,,,,,,7/8 Mostly Cloudy,20000.0,,BKN,20000.0,,,,,,
KRDR,02-23-2001,17:00,METAR,,140,9.0,,,9999,Cloud Development Not Observable,-16.0,-19.0,30.29,1028.4,,,,0,0,0,,,,,,,,,4/8 Partly Cloudy,72000.0,,SCT,20000.0,,,,,,
KRDR,02-23-2001,16:00,METAR,,120,9.0,,,9999,Cloud Development Not Observable,-17.0,-19.0,30.29,1028.4,,,,0,0,0,,,,,,,,,4/8 Partly Cloudy,72000.0,,SCT,20000.0,,,,,,
KRDR,02-23-2001,15:00,METAR,,110,6.0,,,9999,Cloud Development Not Observable,-18.0,-19.0,30.30,1028.6,,,,0,0,0,,,,,,,,,2/8 Mostly Clear,72000.0,,FEW,20000.0,,,,,,
KRDR,02-23-2001,14:00,METAR,,,2.0,,,9999,Cloud Development Not Observable,-23.0,-23.0,30.30,1028.8,,,,0,0,0,,,,,,,,,2/8 Mostly Clear,72000.0,,FEW,20000.0,,,,,,
KRDR,02-23-2001,13:00,METAR,,140,2.0,,,9999,Cloud Development Not Observable,-23.0,-23.0,30.28,1028.0,,,,0,0,0,,,,,,,,,Clear,72000.0,,,73000.0,,,,,,
KRDR,02-23-2001,12:00,METAR,,,,,,9999,Cloud Development Not Observable,-23.0,-24.0,30.29,1028.3,,,,0,0,0,,,,,,,,,Clear,72000.0,,,73000.0,,,,,,
KRDR,02-23-2001,11:00,METAR,,320,4.0,,,9999,Cloud Development Not Observable,-21.0,-22.0,30.28,1027.9,,,,0,0,0,,,,,,,,,Clear,72000.0,,,73000.0,,,,,,
KRDR,02-23-2001,10:00,METAR,,,,,,9999,Cloud Development Not Observable,-21.0,-21.0,30.28,1027.9,,,,0,0,0,,,,,,,,,Clear,72000.0,,,73000.0,,,,,,
KRDR,02-23-2001,09:00,METAR,,250,7.0,,,9999,Cloud Development Not Observable,-21.0,-21.0,30.28,1028.1,,,,0,0,0,,,,,,,,,Clear,72000.0,,,73000.0,,,,,,
KRDR,02-23-2001,08:00,METAR,,340,7.0,,,9999,Cloud Development Not Observable,-19.0,-20.0,30.27,1027.5,,,,0,0,0,,,,,,,,,Clear,72000.0,,,73000.0,,,,,,
KRDR,02-23-2001,07:00,METAR,,330,7.0,,,9999,Cloud Development Not Observable,-17.0,-18.0,30.25,1026.8,,,,0,0,0,,,,,,,,,Clear,72000.0,,,73000.0,,,,,,
KRDR,02-23-2001,06:00,METAR,,340,12.0,,,9999,Cloud Development Not Observable,-15.0,-17.0,30.22,1025.9,,,,0,0,0,,,,,,,,,2/8 Mostly Clear,72000.0,,FEW,1000.0,,,,,,
KRDR,02-23-2001,05:00,METAR,,360,16.0,,,9999,Cloud Development Not Observable,-14.0,-16.0,30.19,1024.8,,,,0,0,0,,,,,,,,,2/8 Mostly Clear,72000.0,,FEW,1000.0,,,,,,
KRDR,02-23-2001,04:00,METAR,,320,12.0,,,9999,Cloud Development Not Observable,-14.0,-16.0,30.16,1023.6,,,,0,0,0,,,,,,,,,2/8 Mostly Clear,72000.0,,FEW,3500.0,,,,,,
KRDR,02-23-2001,03:00,METAR,,300,12.0,,,9999,Cloud Development Not Observable,-13.0,-15.0,30.14,1022.8,,,,0,0,0,,,,,,,,,4/8 Partly Cloudy,72000.0,,SCT,3500.0,,,,,,
KRDR,02-23-2001,02:00,METAR,,290,10.0,,,9999,Cloud Development Not Observable,-11.0,-14.0,30.12,1022.0,,,,0,0,0,,,,,,,,,4/8 Partly Cloudy,72000.0,,SCT,3500.0,,,,,,
KRDR,02-23-2001,01:00,METAR,,300,16.0,,,9999,Cloud Development Not Observable,-9.0,-13.0,30.10,1020.5,,,,0,0,0,,,,,,,,,7/8 Mostly Cloudy,3400.0,,BKN,3500.0,,,,,,
KRDR,02-23-2001,00:44,SPECI,,300,15.0,,,9999,Cloud Development Not Observable,-9.0,-12.0,30.10,,,,,0,0,0,,,,,,,,,7/8 Mostly Cloudy,3400.0,,FEW,2500.0,BKN,3500.0,,,,
KRDR,02-23-2001,00:18,SPECI,,300,12.0,,,8000,Light Snow/Cloud Development Not Observable,-9.0,-11.0,30.09,,,,,71,0,0,,,,,,,,,8/8 Overcast,3400.0,,SCT,2500.0,OVC,3500.0,,,,
KRDR,02-23-2001,00:09,SPECI,,310,12.0,,,6400,Light Snow/Cloud Development Not Observable,-9.0,-11.0,30.09,,,,,71,0,0,,,,,,,,,8/8 Overcast,3400.0,,SCT,2500.0,OVC,3500.0,,,,
KRDR,02-23-2001,00:00,METAR,,310,13.0,,,6400,Light Snow/Cloud Development Not Observable,-9.0,-11.0,30.08,1020.5,,,,71,0,0,,,,,,,,,8/8 Overcast,3400.0,,SCT,2500.0,OVC,3500.0,,,,
KRDR,02-22-2001,23:21,SPECI,,300,17.0,,,6400,Light Snow/Cloud Development Not Observable,-9.0,-11.0,30.09,,,,,71,0,0,,,,,,,,,8/8 Overcast,3400.0,,SCT,2500.0,OVC,3500.0,,,,
KRDR,02-22-2001,23:00,METAR,,290,12.0,,,9999,Cloud Development Not Observable,-9.0,-12.0,30.08,1020.5,,,,0,0,0,,,,,,,,,8/8 Overcast,3900.0,,OVC,4000.0,,,,,,
KRDR,02-22-2001,22:00,METAR,,320,14.0,,,9999,Cloud Development Not Observable,-9.0,-13.0,30.06,1020.2,,,,0,0,0,,,,,,,,,7/8 Mostly Cloudy,3900.0,,BKN,4000.0,,,,,,
KRDR,02-22-2001,21:00,METAR,,300,17.0,,,9999,Cloud Development Not Observable,-9.0,-13.0,30.05,1019.8,,,,0,0,0,,,,,,,,,7/8 Mostly Cloudy,3900.0,,SCT,3000.0,BKN,4000.0,,,,
KRDR,02-22-2001,20:00,METAR,,300,19.0,,,9999,Cloud Development Not Observable,-9.0,-14.0,30.04,1019.4,,,,0,0,0,,,,,,,,,2/8 Mostly Clear,72000.0,,FEW,3000.0,,,,,,
KRDR,02-22-2001,19:00,METAR,,300,18.0,,310/26KTS,9999,Cloud Development Not Observable,-9.0,-13.0,30.04,1019.3,,,,0,0,0,,,,,,,,,2/8 Mostly Clear,72000.0,,FEW,3000.0,,,,,,
KRDR,02-22-2001,18:00,METAR,,300,21.0,,300/28KTS,9999,Cloud Development Not Observable,-10.0,-13.0,30.04,1018.3,,,,0,0,0,,,,,,,,,Clear,72000.0,,,73000.0,,,,,,
KRDR,02-22-2001,17:00,METAR,,290,19.0,,300/29KTS,9999,Cloud Development Not Observable,-10.0,-13.0,30.01,1018.3,,,,0,0,0,,,,,,,,,2/8 Mostly Clear,72000.0,,FEW,3000.0,,,,,,
KRDR,02-22-2001,16:24,SPECI,,300,24.0,,,9999,Cloud Development Not Observable,-10.0,-13.0,30.00,,,,,0,0,0,,,,,,,,,4/8 Partly Cloudy,72000.0,,SCT,3000.0,,,,,,
KRDR,02-22-2001,16:00,METAR,,300,17.0,,,9999,Light Snow/Cloud Development Not Observable,-10.0,-12.0,29.99,1017.7,,,,71,0,0,,,,,,,,,7/8 Mostly Cloudy,3100.0,,BKN,3200.0,,,,,,
KRDR,02-22-2001,15:00,METAR,,310,16.0,,,9999,Light Snow/Cloud Development Not Observable,-10.0,-13.0,29.96,1016.9,,,,71,0,0,,,,,,,,,8/8 Overcast,3000.0,,OVC,3000.0,,,,,,
KRDR,02-22-2001,14:00,METAR,,310,16.0,,310/29KTS,9999,Cloud Development Not Observable,-10.0,-13.0,29.93,1015.9,,,,0,0,0,,,,,,,,,8/8 Overcast,2500.0,,OVC,2500.0,,,,,,
KRDR,02-22-2001,13:33,SPECI,,300,16.0,,,9999,Cloud Development Not Observable,-10.0,-13.0,29.90,,,,,0,0,0,,,,,,,,,8/8 Overcast,2500.0,,OVC,2500.0,,,,,,
KRDR,02-22-2001,13:00,METAR,,310,25.0,,310/29KTS,9999,Light Snow/Cloud Development Not Observable,-10.0,-13.0,29.90,1014.8,,,,71,0,0,,,,,,,,,8/8 Overcast,3000.0,,OVC,3000.0,,,,,,
KRDR,02-22-2001,12:27,SPECI,,310,19.0,,,9999,Light Snow/Cloud Development Not Observable,-10.0,-12.0,29.90,,,,,71,0,0,,,,,,,,,8/8 Overcast,3000.0,,OVC,3000.0,,,,,,
KRDR,02-22-2001,12:00,METAR,,310,18.0,,310/30KTS,9999,Cloud Development Not Observable,-10.0,-12.0,29.88,1014.1,,,,0,0,0,,,,,,,,,8/8 Overcast,2800.0,,SCT,1000.0,BKN,2800.0,OVC,3500.0,,
KRDR,02-22-2001,11:27,SPECI,,310,22.0,27.0,,9999,Cloud Development Not Observable,-10.0,-12.0,29.87,,,,,0,0,0,,,,,,,,,8/8 Overcast,2800.0,,SCT,1000.0,BKN,2800.0,OVC,3500.0,,
KRDR,02-22-2001,11:00,METAR,,300,23.0,29.0,,9999,Light Snow/Cloud Development Not Observable,-10.0,-12.0,29.85,1013.1,,,,71,0,0,,,,,,,,,8/8 Overcast,2400.0,,SCT,1000.0,BKN,2400.0,OVC,3500.0,,
KRDR,02-22-2001,10:31,SPECI,,300,19.0,24.0,,9999,Light Snow/Cloud Development Not Observable,-9.0,-12.0,29.85,,,,,71,0,0,,,,,,,,,8/8 Overcast,2400.0,,SCT,1000.0,BKN,2400.0,OVC,3500.0,,
KRDR,02-22-2001,10:00,METAR,,290,19.0,,280/26KTS,9999,Cloud Development Not Observable,-9.0,-11.0,29.83,1012.5,,,,0,0,0,,,,,,,,,8/8 Overcast,2400.0,,SCT,1000.0,BKN,2400.0,OVC,3500.0,,
KRDR,02-22-2001,09:00,METAR,,280,20.0,26.0,,9999,Cloud Development Not Observable,-8.0,-11.0,29.83,1012.2,,,,0,0,0,,,,,,,,,8/8 Overcast,2400.0,,SCT,1000.0,BKN,2400.0,OVC,3500.0,,
KRDR,02-22-2001,08:00,METAR,,280,17.0,,,9999,Cloud Development Not Observable,-8.0,-11.0,29.83,1012.2,,,,0,0,0,,,,,,,,,8/8 Overcast,2400.0,,SCT,1000.0,BKN,2400.0,OVC,3500.0,,
KRDR,02-22-2001,07:33,SPECI,,280,17.0,,,4800,Cloud Development Not Observable,-8.0,-11.0,29.83,,,,,0,0,0,,,,,,,,,8/8 Overcast,2400.0,,SCT,1000.0,BKN,2400.0,OVC,3500.0,,
KRDR,02-22-2001,07:06,SPECI,,220,14.0,,,9999,Light Snow/Cloud Development Not Observable,-9.0,-11.0,29.83,,,,,71,0,0,,,,,,,,,8/8 Overcast,2400.0,,SCT,1000.0,BKN,2400.0,OVC,3500.0,,
KRDR,02-22-2001,07:00,METAR,,210,15.0,,,9999,Cloud Development Not Observable,-9.0,-11.0,29.83,1012.3,,,,0,0,0,,,,,,,,,8/8 Overcast,2400.0,,SCT,1000.0,BKN,2400.0,OVC,3500.0,,
KRDR,02-22-2001,06:00,METAR,,200,16.0,,200/26KTS,9999,Cloud Development Not Observable,-11.0,-13.0,29.85,1013.3,,,,0,0,0,,,,,,,,,8/8 Overcast,2400.0,,SCT,1000.0,BKN,2400.0,OVC,3500.0,,
KRDR,02-22-2001,05:00,METAR,,200,24.0,,190/29KTS,9999,Cloud Development Not Observable,-12.0,-13.0,29.88,1014.3,,,,0,0,0,,,,,,,,,8/8 Overcast,2400.0,,SCT,1000.0,BKN,2400.0,OVC,3500.0,,
KRDR,02-22-2001,04:42,SPECI,,200,23.0,,,9999,Cloud Development Not Observable,-12.0,-13.0,29.88,,,,,0,0,0,,,,,,,,,8/8 Overcast,2400.0,,SCT,1000.0,OVC,2400.0,,,,
KRDR,02-22-2001,04:00,METAR,,190,23.0,,,9999,Light Snow/Cloud Development Not Observable,-13.0,-15.0,29.93,1016.2,,,,71,0,0,,,,,,,,,8/8 Overcast,2200.0,,OVC,2200.0,,,,,,
KRDR,02-22-2001,03:42,SPECI,,190,22.0,,,9999,Light Snow/Cloud Development Not Observable,-13.0,-15.0,29.93,,,,,71,0,0,,,,,,,,,8/8 Overcast,2200.0,,OVC,2200.0,,,,,,
KRDR,02-22-2001,03:00,METAR,,180,21.0,,170/25KTS,9999,Cloud Development Not Observable,-14.0,-16.0,29.97,1017.8,,,,0,0,0,,,,,,,,,8/8 Overcast,2200.0,,BKN,2200.0,OVC,3500.0,,,,
KRDR,02-22-2001,02:00,METAR,,170,23.0,,180/29KTS,9999,Cloud Development Not Observable,-15.0,-17.0,30.03,1020.1,,,,0,0,0,,,,,,,,,8/8 Overcast,2200.0,,BKN,2200.0,OVC,3500.0,,,,
KRDR,02-22-2001,01:00,METAR,,170,27.0,32.0,,9999,Cloud Development Not Observable,-15.0,-17.0,30.06,1021.2,,,,0,0,0,,,,,,,,,8/8 Overcast,3400.0,,FEW,2800.0,BKN,3500.0,OVC,12000.0,,
KRDR,02-22-2001,00:00,METAR,,170,21.0,,170/28KTS,9999,Cloud Development Not Observable,-15.0,-17.0,30.13,1023.3,,,,0,0,0,,,,,,,,,8/8 Overcast,3400.0,,BKN,3500.0,OVC,12000.0,,,,
KRDR,02-21-2001,23:00,METAR,,170,23.0,,170/26KTS,9999,Cloud Development Not Observable,-14.0,-17.0,30.18,1024.9,,,,0,0,0,,,,,,,,,4/8 Partly Cloudy,72000.0,,FEW,12000.0,SCT,20000.0,,,,
KRDR,02-21-2001,22:00,METAR,,180,23.0,,170/29KTS,9999,Cloud Development Not Observable,-14.0,-16.0,30.23,1026.7,,,,0,0,0,,,,,,,,,2/8 Mostly Clear,72000.0,,FEW,20000.0,,,,,,
KRDR,02-21-2001,21:00,METAR,,170,22.0,,,9999,Cloud Development Not Observable,-14.0,-17.0,30.27,1027.9,,,,0,0,0,,,,,,,,,2/8 Mostly Clear,72000.0,,FEW,20000.0,,,,,,
KRDR,02-21-2001,20:00,METAR,,170,18.0,,,9999,Cloud Development Not Observable,-13.0,-16.0,30.33,1030.0,,,,0,0,0,,,,,,,,,4/8 Partly Cloudy,72000.0,,SCT,20000.0,,,,,,
KRDR,02-21-2001,19:00,METAR,,170,17.0,,,9999,Cloud Development Not Observable,-14.0,-17.0,30.37,1031.4,,,,0,0,0,,,,,,,,,7/8 Mostly Cloudy,20000.0,,BKN,20000.0,,,,,,
KRDR,02-21-2001,18:00,METAR,,160,15.0,,,9999,Cloud Development Not Observable,-15.0,-19.0,30.41,1032.9,,,,0,0,0,,,,,,,,,7/8 Mostly Cloudy,20000.0,,BKN,20000.0,,,,,,
KRDR,02-21-2001,17:00,METAR,,180,12.0,,,9999,Cloud Development Not Observable,-16.0,-20.0,30.46,1034.5,,,,0,0,0,,,,,,,,,2/8 Mostly Clear,72000.0,,FEW,9900.0,,,,,,
KRDR,02-21-2001,16:00,METAR,,190,9.0,,,9999,Cloud Development Not Observable,-20.0,-21.0,30.47,1035.1,,,,0,0,0,,,,,,,,,2/8 Mostly Clear,72000.0,,FEW,9900.0,FEW,20000.0,,,,
KRDR,02-21-2001,15:00,METAR,,200,4.0,,,9999,Cloud Development Not Observable,-23.0,-24.0,30.48,1035.4,,,,0,0,0,,,,,,,,,2/8 Mostly Clear,72000.0,,FEW,20000.0,,,,,,
KRDR,02-21-2001,14:00,METAR,,190,7.0,,,9999,Cloud Development Not Observable,-25.0,-26.0,30.49,1035.7,,,,0,0,0,,,,,,,,,Clear,72000.0,,,73000.0,,,,,,
KRDR,02-21-2001,12:00,METAR,,210,5.0,,,9999,Cloud Development Not Observable,-25.0,-25.0,30.51,1036.5,,,,0,0,0,,,,,,,,,Clear,72000.0,,,73000.0,,,,,,
KRDR,02-21-2001,11:00,METAR,,220,7.0,,,9999,Cloud Development Not Observable,-25.0,-25.0,30.53,1037.0,,,,0,0,0,,,,,,,,,Clear,72000.0,,,73000.0,,,,,,
KRDR,02-21-2001,10:00,METAR,,250,5.0,,,9999,Cloud Development Not Observable,-24.0,-25.0,30.53,1037.1,,,,0,0,0,,,,,,,,,Clear,72000.0,,,73000.0,,,,,,
KRDR,02-21-2001,09:00,METAR,,250,5.0,,,9999,Cloud Development Not Observable,-25.0,-25.0,30.54,1037.6,,,,0,0,0,,,,,,,,,Clear,72000.0,,,73000.0,,,,,,
KRDR,02-21-2001,08:00,METAR,,230,4.0,,,9999,Cloud Development Not Observable,-25.0,-25.0,30.55,1037.9,,,,0,0,0,,,,,,,,,Clear,72000.0,,,73000.0,,,,,,
KRDR,02-21-2001,07:00,METAR,,230,5.0,,,9999,Cloud Development Not Observable,-25.0,-25.0,30.54,1037.5,,,,0,0,0,,,,,,,,,Clear,72000.0,,,73000.0,,,,,,
KRDR,02-21-2001,06:00,METAR,,230,7.0,,,9999,Cloud Development Not Observable,-25.0,-26.0,30.54,1037.3,,,,0,0,0,,,,,,,,,Clear,72000.0,,,73000.0,,,,,,
KRDR,02-21-2001,05:00,METAR,,300,3.0,,,9999,Cloud Development Not Observable,-24.0,-25.0,30.53,1037.1,,,,0,0,0,,,,,,,,,Clear,72000.0,,,73000.0,,,,,,
KRDR,02-21-2001,04:00,METAR,,250,7.0,,,9999,Cloud Development Not Observable,-23.0,-24.0,30.53,1037.1,,,,0,0,0,,,,,,,,,Clear,72000.0,,,73000.0,,,,,,
KRDR,02-21-2001,03:00,METAR,,230,7.0,,,9999,Cloud Development Not Observable,-22.0,-24.0,30.52,1036.8,,,,0,0,0,,,,,,,,,Clear,72000.0,,,73000.0,,,,,,
KRDR,02-21-2001,02:00,METAR,,270,6.0,,,9999,Cloud Development Not Observable,-20.0,-23.0,30.51,1036.3,,,,0,0,0,,,,,,,,,Clear,72000.0,,,73000.0,,,,,,
KRDR,02-21-2001,01:00,METAR,,280,6.0,,,9999,Cloud Development Not Observable,-20.0,-22.0,30.50,1036.0,,,,0,0,0,,,,,,,,,Clear,72000.0,,,73000.0,,,,,,
KRDR,02-21-2001,00:00,METAR,,300,7.0,,,9999,Cloud Development Not Observable,-18.0,-21.0,30.48,1035.1,,,,0,0,0,,,,,,,,,Clear,72000.0,,,73000.0,,,,,,
KRDR,02-20-2001,23:00,METAR,,300,14.0,,,9999,Cloud Development Not Observable,-17.0,-21.0,30.48,1034.8,,,,0,0,0,,,,,,,,,Clear,72000.0,,,73000.0,,,,,,
KRDR,02-20-2001,22:00,METAR,,290,15.0,,,9999,Cloud Development Not Observable,-17.0,-21.0,30.47,1034.5,,,,0,0,0,,,,,,,,,2/8 Mostly Clear,72000.0,,FEW,2000.0,,,,,,
KRDR,02-20-2001,21:35,SPECI,,290,12.0,,,9999,Cloud Development Not Observable,-17.0,-20.0,30.46,,,,,0,0,0,,,,,,,,,2/8 Mostly Clear,72000.0,,FEW,2000.0,,,,,,
KRDR,02-20-2001,21:18,SPECI,,330,6.0,,,9999,Diamond Dust/Cloud Development Not Observable,-17.0,-21.0,30.46,,,,,76,0,0,,,,,,,,,2/8 Mostly Clear,72000.0,,FEW,2000.0,,,,,,
KRDR,02-20-2001,21:00,METAR,,340,8.0,,,9999,Cloud Development Not Observable,-17.0,-22.0,30.45,1034.0,,,,0,0,0,,,,,,,,,2/8 Mostly Clear,72000.0,,FEW,1000.0,,,,,,
KRDR,02-20-2001,20:00,METAR,,360,12.0,,,9999,Cloud Development Not Observable,-17.0,-22.0,30.44,1033.6,,,,0,0,0,,,,,,,,,2/8 Mostly Clear,72000.0,,FEW,2000.0,,,,,,
KRDR,02-20-2001,19:00,METAR,,330,14.0,,,9999,Cloud Development Not Observable,-16.0,-20.0,30.42,1033.0,,,,0,0,0,,,,,,,,,7/8 Mostly Cloudy,8000.0,,SCT,2000.0,BKN,7900.0,,,,
KRDR,02-20-2001,18:26,SPECI,,350,12.0,,,9999,Light Snow Showers/Cloud Development Not Observable,-17.0,-19.0,30.42,,,,,85,0,0,,,,,,,,,7/8 Mostly Cloudy,8000.0,,SCT,2000.0,BKN,7900.0,,,,
KRDR,02-20-2001,18:00,METAR,,340,13.0,,,9999,Cloud Development Not Observable,-16.0,-20.0,30.40,1032.3,,,,0,0,0,,,,,,,,,4/8 Partly Cloudy,72000.0,,SCT,2200.0,SCT,7900.0,,,,
KRDR,02-20-2001,17:00,METAR,,340,16.0,,,9999,Cloud Development Not Observable,-17.0,-20.0,30.37,1031.2,,,,0,0,0,,,,,,,,,2/8 Mostly Clear,72000.0,,FEW,3500.0,FEW,7900.0,,,,
KRDR,02-20-2001,16:00,METAR,,320,14.0,,,9999,Cloud Development Not Observable,-17.0,-20.0,30.33,1029.8,,,,0,0,0,,,,,,,,,2/8 Mostly Clear,72000.0,,FEW,7900.0,,,,,,
KRDR,02-20-2001,15:00,METAR,,310,17.0,,,9999,Cloud Development Not Observable,-18.0,-21.0,30.29,1028.2,,,,0,0,0,,,,,,,,,2/8 Mostly Clear,72000.0,,FEW,7900.0,,,,,,
KRDR,02-20-2001,14:00,METAR,,310,14.0,,,9999,Cloud Development Not Observable,-18.0,-21.0,30.24,1026.9,,,,0,0,0,,,,,,,,,2/8 Mostly Clear,72000.0,,FEW,7900.0,,,,,,
KRDR,02-20-2001,13:00,METAR,,300,16.0,,,9999,Cloud Development Not Observable,-18.0,-20.0,30.19,1025.2,,,,0,0,0,,,,,,,,,Clear,72000.0,,,73000.0,,,,,,
KRDR,02-20-2001,12:00,METAR,,300,17.0,,,9999,Cloud Development Not Observable,-17.0,-19.0,30.17,1024.1,,,,0,0,0,,,,,,,,,Clear,72000.0,,,73000.0,,,,,,
KRDR,02-20-2001,11:00,METAR,,300,19.0,,,9999,Cloud Development Not Observable,-16.0,-19.0,30.14,1023.0,,,,0,0,0,,,,,,,,,Clear,72000.0,,,73000.0,,,,,,
KRDR,02-20-2001,10:00,METAR,,290,20.0,24.0,290/25KTS,9999,Cloud Development Not Observable,-16.0,-18.0,30.11,1022.1,,,,0,0,0,,,,,,,,,Clear,72000.0,,,73000.0,,,,,,
KRDR,02-20-2001,09:00,METAR,,290,16.0,,,9999,Cloud Development Not Observable,-15.0,-17.0,30.10,1021.5,,,,0,0,0,,,,,,,,,Clear,72000.0,,,73000.0,,,,,,
KRDR,02-20-2001,08:00,METAR,,310,14.0,,,9999,Cloud Development Not Observable,-15.0,-17.0,30.09,1021.2,,,,0,0,0,,,,,,,,,Clear,72000.0,,,73000.0,,,,,,
KRDR,02-20-2001,07:00,METAR,,300,15.0,22.0,290/25KTS,9999,Cloud Development Not Observable,-15.0,-17.0,30.08,1021.1,,,,0,0,0,,,,,,,,,Clear,72000.0,,,73000.0,,,,,,
KRDR,02-20-2001,06:00,METAR,,290,21.0,,280/28KTS,9999,Cloud Development Not Observable,-14.0,-17.0,30.06,1020.5,,,,0,0,0,,,,,,,,,Clear,72000.0,,,73000.0,,,,,,
KRDR,02-20-2001,05:00,METAR,,280,23.0,,280/30KTS,9999,Cloud Development Not Observable,-14.0,-17.0,30.06,1020.5,,,,0,0,0,,,,,,,,,Clear,72000.0,,,73000.0,,,,,,
KRDR,02-20-2001,04:00,METAR,,290,15.0,,,9999,Cloud Development Not Observable,-13.0,-16.0,30.06,1020.4,,,,0,0,0,,,,,,,,,Clear,72000.0,,,73000.0,,,,,,
KRDR,02-20-2001,03:00,METAR,,270,14.0,,,9999,Cloud Development Not Observable,-13.0,-15.0,30.05,1020.0,,,,0,0,0,,,,,,,,,2/8 Mostly Clear,72000.0,,FEW,20000.0,,,,,,
KRDR,02-20-2001,02:00,METAR,,220,4.0,,,9999,Cloud Development Not Observable,-15.0,-16.0,30.05,1020.3,,,,0,0,0,,,,,,,,,2/8 Mostly Clear,72000.0,,FEW,20000.0,,,,,,
KRDR,02-20-2001,01:00,METAR,,240,8.0,,,9999,Cloud Development Not Observable,-15.0,-16.0,30.05,1019.7,,,,0,0,0,,,,,,,,,2/8 Mostly Clear,72000.0,,FEW,2000.0,,,,,,
KRDR,02-20-2001,00:00,METAR,,250,8.0,,,9999,Cloud Development Not Observable,-12.0,-14.0,30.05,1020.2,,,,0,0,0,,,,,,,,,4/8 Partly Cloudy,72000.0,,SCT,2000.0,,,,,,
KRDR,02-19-2001,23:00,METAR,,260,10.0,,,9999,Cloud Development Not Observable,-10.0,-14.0,30.06,1020.3,,,,0,0,0,,,,,,,,,2/8 Mostly Clear,72000.0,,FEW,2000.0,,,,,,
KRDR,02-19-2001,22:00,METAR,,270,11.0,,,9999,Cloud Development Not Observable,-10.0,-14.0,30.06,1020.4,,,,0,0,0,,,,,,,,,2/8 Mostly Clear,72000.0,,FEW,20000.0,,,,,,
KRDR,02-19-2001,21:00,METAR,,270,11.0,,,9999,Cloud Development Not Observable,-10.0,-14.0,30.07,1020.5,,,,0,0,0,,,,,,,,,2/8 Mostly Clear,72000.0,,FEW,8900.0,FEW,20000.0,,,,
KRDR,02-19-2001,20:00,METAR,,300,12.0,,,9999,Cloud Development Not Observable,-10.0,-15.0,30.08,1020.7,,,,0,0,0,,,,,,,,,7/8 Mostly Cloudy,20000.0,,FEW,8900.0,BKN,20000.0,,,,
KRDR,02-19-2001,19:00,METAR,,300,7.0,,,9999,Cloud Development Not Observable,-11.0,-15.0,30.08,1020.7,,,,0,0,0,,,,,,,,,7/8 Mostly Cloudy,20000.0,,BKN,20000.0,,,,,,
KRDR,02-19-2001,18:00,METAR,,300,8.0,,,9999,Cloud Development Not Observable,-12.0,-15.0,30.08,1020.7,,,,0,0,0,,,,,,,,,7/8 Mostly Cloudy,20000.0,,FEW,7900.0,BKN,20000.0,,,,
KRDR,02-19-2001,17:00,METAR,,340,11.0,,,9999,Cloud Development Not Observable,-12.0,-15.0,30.07,1020.4,,,,0,0,0,,,,,,,,,4/8 Partly Cloudy,72000.0,,SCT,20000.0,,,,,,
KRDR,02-19-2001,16:00,METAR,,350,15.0,,,9999,Cloud Development Not Observable,-13.0,-16.0,30.05,1019.2,,,,0,0,0,,,,,,,,,7/8 Mostly Cloudy,20000.0,,SCT,7900.0,BKN,20000.0,,,,
KRDR,02-19-2001,15:00,METAR,,350,13.0,,,9999,Cloud Development Not Observable,-14.0,-15.0,30.03,1019.2,,,,0,0,0,,,,,,,,,7/8 Mostly Cloudy,8000.0,,BKN,7900.0,BKN,20000.0,,,,
KRDR,02-19-2001,14:00,METAR,,340,10.0,,,9999,Cloud Development Not Observable,-14.0,-15.0,30.00,1018.2,,,,0,0,0,,,,,,,,,8/8 Overcast,9000.0,,OVC,8900.0,,,,,,
KRDR,02-19-2001,13:00,METAR,,340,12.0,,,9999,Cloud Development Not Observable,-14.0,-15.0,29.98,1017.5,,,,0,0,0,,,,,,,,,7/8 Mostly Cloudy,9000.0,,BKN,8900.0,,,,,,
KRDR,02-19-2001,12:00,METAR,,340,12.0,,,9999,Cloud Development Not Observable,-14.0,-15.0,29.96,1016.8,,,,0,0,0,,,,,,,,,7/8 Mostly Cloudy,9000.0,,BKN,8900.0,,,,,,
KRDR,02-19-2001,11:00,METAR,,340,12.0,,,9999,Cloud Development Not Observable,-14.0,-15.0,29.94,1015.9,,,,0,0,0,,,,,,,,,7/8 Mostly Cloudy,10000.0,,BKN,9900.0,,,,,,
KRDR,02-19-2001,10:00,METAR,,350,13.0,,,9999,Cloud Development Not Observable,-14.0,-16.0,29.92,1015.2,,,,0,0,0,,,,,,,,,2/8 Mostly Clear,72000.0,,FEW,12000.0,,,,,,
KRDR,02-19-2001,09:00,METAR,,350,14.0,,,9999,Cloud Development Not Observable,-13.0,-15.0,29.90,1014.6,,,,0,0,0,,,,,,,,,7/8 Mostly Cloudy,12000.0,,BKN,12000.0,,,,,,
KRDR,02-19-2001,08:00,METAR,,350,15.0,,,9999,Cloud Development Not Observable,-12.0,-15.0,29.87,1013.6,,,,0,0,0,,,,,,,,,7/8 Mostly Cloudy,12000.0,,BKN,12000.0,,,,,,
KRDR,02-19-2001,07:00,METAR,,340,16.0,,,9999,Cloud Development Not Observable,-11.0,-15.0,29.85,1013.0,,,,0,0,0,,,,,,,,,7/8 Mostly Cloudy,12000.0,,BKN,12000.0,BKN,20000.0,,,,
KRDR,02-19-2001,06:00,METAR,,340,17.0,,,9999,Cloud Development Not Observable,-10.0,-14.0,29.82,1012.0,,,,0,0,0,,,,,,,,,8/8 Overcast,14000.0,,FEW,8900.0,BKN,14000.0,OVC,20000.0,,
KRDR,02-19-2001,05:00,METAR,,360,15.0,,,9999,Cloud Development Not Observable,-8.0,-11.0,29.79,1011.1,,,,0,0,0,,,,,,,,,7/8 Mostly Cloudy,20000.0,,FEW,8900.0,SCT,14000.0,BKN,20000.0,,
KRDR,02-19-2001,04:00,METAR,,330,10.0,,,9999,Cloud Development Not Observable,-6.0,-8.0,29.76,1009.8,,,,0,0,0,,,,,,,,,8/8 Overcast,13000.0,,FEW,8900.0,BKN,13000.0,OVC,20000.0,,
KRDR,02-19-2001,03:00,METAR,,220,4.0,,,9999,Cloud Development Not Observable,-7.0,-8.0,29.76,1009.9,,,,0,0,0,,,,,,,,,8/8 Overcast,13000.0,,SCT,8900.0,BKN,13000.0,OVC,20000.0,,
KRDR,02-19-2001,02:00,METAR,,190,6.0,,,9999,Cloud Development Not Observable,-6.0,-7.0,29.75,1009.8,,,,0,0,0,,,,,,,,,8/8 Overcast,13000.0,,BKN,13000.0,OVC,20000.0,,,,
KRDR,02-19-2001,01:00,METAR,,170,4.0,,,9999,Cloud Development Not Observable,-6.0,-7.0,29.76,1009.9,,,,0,0,0,,,,,,,,,8/8 Overcast,13000.0,,BKN,13000.0,OVC,20000.0,,,,
KRDR,02-19-2001,00:00,METAR,,210,11.0,,,9999,Cloud Development Not Observable,-6.0,-8.0,29.76,1009.9,,,,0,0,0,,,,,,,,,7/8 Mostly Cloudy,12000.0,,BKN,12000.0,BKN,20000.0,,,,
KRDR,02-18-2001,23:00,METAR,,190,11.0,,,9999,Cloud Development Not Observable,-6.0,-9.0,29.77,1010.5,,,,0,0,0,,,,,,,,,2/8 Mostly Clear,72000.0,,FEW,18000.0,,,,,,
KRDR,02-18-2001,22:00,METAR,,190,14.0,,,9999,Cloud Development Not Observable,-6.0,-9.0,29.79,1011.2,,,,0,0,0,,,,,,,,,2/8 Mostly Clear,72000.0,,FEW,18000.0,,,,,,
KRDR,02-18-2001,21:00,METAR,,190,11.0,,,9999,Cloud Development Not Observable,-6.0,-10.0,29.83,1012.4,,,,0,0,0,,,,,,,,,2/8 Mostly Clear,72000.0,,FEW,18000.0,,,,,,
KRDR,02-18-2001,20:00,METAR,,190,13.0,,,9999,Cloud Development Not Observable,-8.0,-11.0,29.86,1013.8,,,,0,0,0,,,,,,,,,7/8 Mostly Cloudy,18000.0,,BKN,18000.0,,,,,,
KRDR,02-18-2001,19:00,METAR,,200,13.0,,,9999,Cloud Development Not Observable,-9.0,-12.0,29.91,1015.1,,,,0,0,0,,,,,,,,,7/8 Mostly Cloudy,18000.0,,BKN,18000.0,,,,,,
KRDR,02-18-2001,18:00,METAR,,190,14.0,,,9999,Cloud Development Not Observable,-11.0,-14.0,29.96,1016.9,,,,0,0,0,,,,,,,,,7/8 Mostly Cloudy,20000.0,,BKN,20000.0,,,,,,
KRDR,02-18-2001,17:00,METAR,,190,13.0,,,9999,Cloud Development Not Observable,-14.0,-17.0,30.00,1018.5,,,,0,0,0,,,,,,,,,7/8 Mostly Cloudy,20000.0,,BKN,20000.0,,,,,,
KRDR,02-18-2001,16:00,METAR,,180,15.0,,,9999,Cloud Development Not Observable,-17.0,-18.0,30.03,1019.9,,,,0,0,0,,,,,,,,,7/8 Mostly Cloudy,20000.0,,BKN,20000.0,,,,,,
KRDR,02-18-2001,15:00,METAR,,170,13.0,,,9999,Cloud Development Not Observable,-18.0,-19.0,30.06,1021.0,,,,0,0,0,,,,,,,,,7/8 Mostly Cloudy,20000.0,,BKN,20000.0,,,,,,
KRDR,02-18-2001,14:00,METAR,,180,13.0,,,9999,Cloud Development Not Observable,-19.0,-20.0,30.10,1022.0,,,,0,0,0,,,,,,,,,2/8 Mostly Clear,72000.0,,FEW,20000.0,,,,,,
KRDR,02-18-2001,13:00,METAR,,190,11.0,,,9999,Cloud Development Not Observable,-19.0,-20.0,30.12,1022.7,,,,0,0,0,,,,,,,,,Clear,72000.0,,,73000.0,,,,,,
KRDR,02-18-2001,12:00,METAR,,210,12.0,,,9999,Cloud Development Not Observable,-18.0,-19.0,30.14,1023.3,,,,0,0,0,,,,,,,,,Clear,72000.0,,,73000.0,,,,,,
KRDR,02-18-2001,11:00,METAR,,200,8.0,,,9999,Cloud Development Not Observable,-19.0,-19.0,30.16,1024.1,,,,0,0,0,,,,,,,,,Clear,72000.0,,,73000.0,,,,,,
KRDR,02-18-2001,10:00,METAR,,220,12.0,,,9999,Cloud Development Not Observable,-18.0,-19.0,30.20,1025.3,,,,0,0,0,,,,,,,,,Clear,72000.0,,,73000.0,,,,,,
KRDR,02-18-2001,09:00,METAR,,210,10.0,,,9999,Cloud Development Not Observable,-18.0,-19.0,30.22,1026.1,,,,0,0,0,,,,,,,,,Clear,72000.0,,,73000.0,,,,,,
KRDR,02-18-2001,08:00,METAR,,190,9.0,,,9999,Cloud Development Not Observable,-20.0,-20.0,30.26,1027.6,,,,0,0,0,,,,,,,,,Clear,72000.0,,,73000.0,,,,,,
KRDR,02-18-2001,07:00,METAR,,210,10.0,,,9999,Cloud Development Not Observable,-18.0,-19.0,30.29,1028.3,,,,0,0,0,,,,,,,,,Clear,72000.0,,,73000.0,,,,,,
KRDR,02-18-2001,06:00,METAR,,220,8.0,,,9999,Cloud Development Not Observable,-18.0,-20.0,30.30,1029.0,,,,0,0,0,,,,,,,,,Clear,72000.0,,,73000.0,,,,,,
KRDR,02-18-2001,05:00,METAR,,180,10.0,,,9999,Cloud Development Not Observable,-19.0,-20.0,30.33,1029.9,,,,0,0,0,,,,,,,,,Clear,72000.0,,,73000.0,,,,,,
KRDR,02-18-2001,04:00,METAR,,220,7.0,,,9999,Cloud Development Not Observable,-20.0,-20.0,30.34,1030.6,,,,0,0,0,,,,,,,,,Clear,72000.0,,,73000.0,,,,,,
KRDR,02-18-2001,03:00,METAR,,200,10.0,,,9999,Cloud Development Not Observable,-18.0,-19.0,30.37,1031.7,,,,0,0,0,,,,,,,,,Clear,72000.0,,,73000.0,,,,,,
KRDR,02-18-2001,02:00,METAR,,200,10.0,,,9999,Cloud Development Not Observable,-18.0,-19.0,30.38,1032.1,,,,0,0,0,,,,,,,,,Clear,72000.0,,,73000.0,,,,,,
KRDR,02-18-2001,01:00,METAR,,210,9.0,,,9999,Cloud Development Not Observable,-17.0,-19.0,30.39,1032.3,,,,0,0,0,,,,,,,,,2/8 Mostly Clear,72000.0,,FEW,8900.0,,,,,,
KRDR,02-18-2001,00:00,METAR,,240,8.0,,,9999,Cloud Development Not Observable,-15.0,-18.0,30.40,1032.6,,,,0,0,0,,,,,,,,,2/8 Mostly Clear,72000.0,,FEW,8900.0,,,,,,
KRDR,02-17-2001,23:00,METAR,,250,9.0,,,9999,Cloud Development Not Observable,-14.0,-18.0,30.42,1033.2,,,,0,0,0,,,,,,,,,Clear,72000.0,,,73000.0,,,,,,
KRDR,02-17-2001,22:00,METAR,,270,16.0,,,9999,Cloud Development Not Observable,-13.0,-17.0,30.43,1033.5,,,,0,0,0,,,,,,,,,Clear,72000.0,,,73000.0,,,,,,
KRDR,02-17-2001,21:00,METAR,,270,15.0,,,9999,Cloud Development Not Observable,-13.0,-18.0,30.45,1034.1,,,,0,0,0,,,,,,,,,Clear,72000.0,,,73000.0,,,,,,
KRDR,02-17-2001,20:00,METAR,,270,13.0,,,9999,Cloud Development Not Observable,-14.0,-18.0,30.48,1035.0,,,,0,0,0,,,,,,,,,Clear,72000.0,,,73000.0,,,,,,
KRDR,02-17-2001,19:00,METAR,,270,12.0,,,9999,Cloud Development Not Observable,-14.0,-18.0,30.48,1035.1,,,,0,0,0,,,,,,,,,Clear,72000.0,,,73000.0,,,,,,
KRDR,02-17-2001,15:00,METAR,,210,7.0,,,9999,Cloud Development Not Observable,-23.0,-24.0,30.55,1037.8,,,,0,0,0,,,,,,,,,Clear,72000.0,,,73000.0,,,,,,
KRDR,02-17-2001,14:00,METAR,,230,10.0,,,9999,Cloud Development Not Observable,-25.0,-26.0,30.55,1037.9,,,,0,0,0,,,,,,,,,Clear,72000.0,,,73000.0,,,,,,
KRDR,02-17-2001,12:00,METAR,,270,6.0,,,9999,Cloud Development Not Observable,-25.0,-25.0,30.56,1038.3,,,,0,0,0,,,,,,,,,Clear,72000.0,,,73000.0,,,,,,
KRDR,02-17-2001,11:00,METAR,,280,6.0,,,9999,Cloud Development Not Observable,-24.0,-25.0,30.56,1038.0,,,,0,0,0,,,,,,,,,Clear,72000.0,,,73000.0,,,,,,
KRDR,02-17-2001,10:00,METAR,,280,8.0,,,9999,Cloud Development Not Observable,-22.0,-24.0,30.57,1038.3,,,,0,0,0,,,,,,,,,Clear,72000.0,,,73000.0,,,,,,
KRDR,02-17-2001,09:00,METAR,,280,7.0,,,9999,Cloud Development Not Observable,-23.0,-24.0,30.58,1038.6,,,,0,0,0,,,,,,,,,Clear,72000.0,,,73000.0,,,,,,
KRDR,02-17-2001,08:00,METAR,,290,8.0,,,9999,Cloud Development Not Observable,-22.0,-23.0,30.58,1038.6,,,,0,0,0,,,,,,,,,Clear,72000.0,,,73000.0,,,,,,
KRDR,02-17-2001,07:00,METAR,,300,9.0,,,9999,Cloud Development Not Observable,-21.0,-23.0,30.58,1038.6,,,,0,0,0,,,,,,,,,Clear,72000.0,,,73000.0,,,,,,
KRDR,02-17-2001,06:00,METAR,,280,6.0,,,9999,Cloud Development Not Observable,-22.0,-23.0,30.58,1038.6,,,,0,0,0,,,,,,,,,Clear,72000.0,,,73000.0,,,,,,
KRDR,02-17-2001,05:00,METAR,,300,9.0,,,9999,Cloud Development Not Observable,-21.0,-23.0,30.57,1038.4,,,,0,0,0,,,,,,,,,Clear,72000.0,,,73000.0,,,,,,
KRDR,02-17-2001,04:00,METAR,,290,14.0,,,9999,Cloud Development Not Observable,-20.0,-22.0,30.58,1038.8,,,,0,0,0,,,,,,,,,Clear,72000.0,,,73000.0,,,,,,
KRDR,02-17-2001,03:00,METAR,,290,13.0,,,9999,Cloud Development Not Observable,-20.0,-22.0,30.59,1039.2,,,,0,0,0,,,,,,,,,Clear,72000.0,,,73000.0,,,,,,
KRDR,02-17-2001,02:00,METAR,,270,7.0,,,9999,Cloud Development Not Observable,-20.0,-22.0,30.58,1038.9,,,,0,0,0,,,,,,,,,Clear,72000.0,,,73000.0,,,,,,
KRDR,02-17-2001,01:00,METAR,,280,7.0,,,9999,Cloud Development Not Observable,-19.0,-21.0,30.58,1038.7,,,,0,0,0,,,,,,,,,Clear,72000.0,,,73000.0,,,,,,
KRDR,02-17-2001,00:00,METAR,,300,14.0,,,9999,Cloud Development Not Observable,-18.0,-20.0,30.57,1038.4,,,,0,0,0,,,,,,,,,Clear,72000.0,,,73000.0,,,,,,
KRDR,02-16-2001,23:00,METAR,,280,16.0,,,9999,Cloud Development Not Observable,-17.0,-20.0,30.56,1037.8,,,,0,0,0,,,,,,,,,Clear,72000.0,,,73000.0,,,,,,
KRDR,02-16-2001,22:00,METAR,,300,19.0,,,9999,Cloud Development Not Observable,-16.0,-20.0,30.55,1037.4,,,,0,0,0,,,,,,,,,Clear,72000.0,,,73000.0,,,,,,
KRDR,02-16-2001,21:00,METAR,,310,18.0,,,9999,Cloud Development Not Observable,-16.0,-20.0,30.53,1036.9,,,,0,0,0,,,,,,,,,Clear,72000.0,,,73000.0,,,,,,
KRDR,02-16-2001,20:00,METAR,,310,18.0,25.0,,9999,Cloud Development Not Observable,-16.0,-20.0,30.52,1036.3,,,,0,0,0,,,,,,,,,Clear,72000.0,,,73000.0,,,,,,
KRDR,02-16-2001,19:00,METAR,,290,21.0,,,9999,Cloud Development Not Observable,-17.0,-21.0,30.51,1036.1,,,,0,0,0,,,,,,,,,Clear,72000.0,,,73000.0,,,,,,
KRDR,02-16-2001,18:00,METAR,,290,16.0,,,9999,Cloud Development Not Observable,-18.0,-21.0,30.51,1036.1,,,,0,0,0,,,,,,,,,Clear,72000.0,,,73000.0,,,,,,
KRDR,02-16-2001,17:00,METAR,,310,18.0,,,9999,Cloud Development Not Observable,-18.0,-21.0,30.48,1034.9,,,,0,0,0,,,,,,,,,Clear,72000.0,,,73000.0,,,,,,
KRDR,02-16-2001,16:00,METAR,,300,20.0,,,9999,Cloud Development Not Observable,-19.0,-22.0,30.44,1033.9,,,,0,0,0,,,,,,,,,Clear,72000.0,,,73000.0,,,,,,
KRDR,02-16-2001,15:00,METAR,,300,19.0,,,9999,Cloud Development Not Observable,-20.0,-22.0,30.41,1034.1,,,,0,0,0,,,,,,,,,Clear,72000.0,,,73000.0,,,,,,
KRDR,02-16-2001,14:00,METAR,,310,17.0,,,9999,Cloud Development Not Observable,-21.0,-22.0,30.39,1031.9,,,,0,0,0,,,,,,,,,Clear,72000.0,,,73000.0,,,,,,
KRDR,02-16-2001,12:00,METAR,,300,16.0,,,9999,Cloud Development Not Observable,-20.0,-22.0,30.35,1030.5,,,,0,0,0,,,,,,,,,4/8 Partly Cloudy,72000.0,,FEW,3500.0,SCT,14000.0,,,,
KRDR,02-16-2001,11:00,METAR,,300,18.0,,,9999,Cloud Development Not Observable,-20.0,-21.0,30.33,1029.7,,,,0,0,0,,,,,,,,,7/8 Mostly Cloudy,3400.0,,BKN,3500.0,,,,,,
KRDR,02-16-2001,10:00,METAR,,300,19.0,,,9999,Cloud Development Not Observable,-19.0,-21.0,30.31,1028.9,,,,0,0,0,,,,,,,,,7/8 Mostly Cloudy,3400.0,,BKN,3500.0,,,,,,
KRDR,02-16-2001,09:00,METAR,,300,20.0,,,9999,Cloud Development Not Observable,-19.0,-21.0,30.27,1027.6,,,,0,0,0,,,,,,,,,Clear,72000.0,,,73000.0,,,,,,
KRDR,02-16-2001,08:00,METAR,,300,18.0,,,9999,Cloud Development Not Observable,-18.0,-21.0,30.25,1027.1,,,,0,0,0,,,,,,,,,Clear,72000.0,,,73000.0,,,,,,
KRDR,02-16-2001,07:00,METAR,,300,16.0,,,9999,Cloud Development Not Observable,-17.0,-20.0,30.24,1026.6,,,,0,0,0,,,,,,,,,Clear,72000.0,,,73000.0,,,,,,
KRDR,02-16-2001,06:00,METAR,,300,15.0,,,9999,Cloud Development Not Observable,-17.0,-19.0,30.21,1025.5,,,,0,0,0,,,,,,,,,Clear,72000.0,,,73000.0,,,,,,
KRDR,02-16-2001,05:00,METAR,,300,20.0,,,9999,Blowing Snow/Cloud Development Not Observable,-16.0,-18.0,30.18,1024.6,,,,38,0,0,,,,,,,,,2/8 Mostly Clear,72000.0,,FEW,7900.0,FEW,20000.0,,,,
KRDR,02-16-2001,04:00,METAR,,300,16.0,,,9999,Cloud Development Not Observable,-15.0,-17.0,30.14,1023.3,,,,0,0,0,,,,,,,,,7/8 Mostly Cloudy,20000.0,,FEW,3500.0,FEW,7900.0,BKN,20000.0,,
KRDR,02-16-2001,03:00,METAR,,300,15.0,,,9999,Cloud Development Not Observable,-13.0,-16.0,30.11,1022.1,,,,0,0,0,,,,,,,,,7/8 Mostly Cloudy,20000.0,,FEW,3500.0,SCT,7900.0,BKN,20000.0,,
KRDR,02-16-2001,02:00,METAR,,300,14.0,,,9999,Cloud Development Not Observable,-13.0,-16.0,30.06,1020.7,,,,0,0,0,,,,,,,,,7/8 Mostly Cloudy,20000.0,,FEW,3000.0,SCT,7900.0,BKN,20000.0,,
KRDR,02-16-2001,01:00,METAR,,310,12.0,,,9999,Cloud Development Not Observable,-12.0,-14.0,30.04,1019.8,,,,0,0,0,,,,,,,,,7/8 Mostly Cloudy,20000.0,,FEW,3000.0,SCT,7900.0,BKN,20000.0,,
KRDR,02-16-2001,00:00,METAR,,320,9.0,,,9999,Mist/Cloud Development Not Observable,-11.0,-13.0,30.02,1019.1,,,,10,0,0,,,,,,,,,7/8 Mostly Cloudy,3000.0,,FEW,600.0,BKN,3000.0,BKN,7900.0,,
KRDR,02-15-2001,23:28,SPECI,,350,11.0,,,9999,Cloud Development Not Observable,-12.0,-13.0,29.99,,,,,0,0,0,,,,,,,,,4/8 Partly Cloudy,72000.0,,FEW,3000.0,SCT,7900.0,,,,
KRDR,02-15-2001,23:04,SPECI,,360,12.0,,,9999,Light Snow/Cloud Development Not Observable,-10.0,-12.0,29.97,,,,,71,0,0,,,,,,,,,7/8 Mostly Cloudy,2800.0,,FEW,600.0,BKN,2800.0,BKN,5000.0,BKN,7900.0
KRDR,02-15-2001,23:00,METAR,,360,16.0,,,2400,Light Snow/Blowing Snow/Cloud Development Not Observable,-10.0,-11.0,29.97,1017.2,,,,71,38,0,,,,,,,,,7/8 Mostly Cloudy,2500.0,,FEW,600.0,BKN,2500.0,BKN,5000.0,,
KRDR,02-15-2001,22:33,SPECI,,340,13.0,,,6400,Light Snow/Blowing Snow/Cloud Development Not Observable,-9.0,-12.0,29.95,,,,,71,38,0,,,,,,,,,7/8 Mostly Cloudy,2500.0,,FEW,600.0,BKN,2500.0,BKN,7900.0,,
KRDR,02-15-2001,22:00,METAR,,300,23.0,,,3200,Light Snow/Blowing Snow/Cloud Development Not Observable,-9.0,-11.0,29.92,1015.5,,,,71,38,0,,,,,,,,,8/8 Overcast,2300.0,,FEW,600.0,BKN,2300.0,OVC,5000.0,,
KRDR,02-15-2001,21:43,SPECI,,300,22.0,,,4800,Light Snow/Blowing Snow/Cloud Development Not Observable,-8.0,-11.0,29.91,,,,,71,38,0,,,,,,,,,8/8 Overcast,2300.0,,FEW,600.0,BKN,2300.0,OVC,5000.0,,
KRDR,02-15-2001,21:07,SPECI,,300,19.0,,,9999,Blowing Snow/Cloud Development Not Observable,-8.0,-11.0,29.89,,,,,38,0,0,,,,,,,,,7/8 Mostly Cloudy,2800.0,,FEW,600.0,BKN,2800.0,BKN,5000.0,,
KRDR,02-15-2001,21:00,METAR,,300,16.0,,,9999,Mist/Cloud Development Not Observable,-9.0,-12.0,29.90,1014.8,,,,10,0,0,,,,,,,,,8/8 Overcast,10000.0,,FEW,1000.0,SCT,3500.0,OVC,9900.0,,
KRDR,02-15-2001,20:00,METAR,,230,14.0,,,9999,Cloud Development Not Observable,-10.0,-13.0,29.86,1013.6,,,,0,0,0,,,,,,,,,8/8 Overcast,10000.0,,FEW,1000.0,SCT,3500.0,OVC,9900.0,,
KRDR,02-15-2001,19:00,METAR,,240,14.0,,,9999,Mist/Cloud Development Not Observable,-11.0,-14.0,29.86,1013.7,,,,10,0,0,,,,,,,,,8/8 Overcast,3400.0,,FEW,1000.0,BKN,3500.0,OVC,7900.0,,
KRDR,02-15-2001,18:30,METAR,,220,16.0,,,4800,Light Snow/Cloud Development Not Observable,-11.0,-14.0,29.86,,,,,71,0,0,,,,,,,,,8/8 Overcast,3400.0,,BKN,3500.0,OVC,12000.0,,,,
KRDR,02-15-2001,18:00,METAR,,210,17.0,,,9999,Cloud Development Not Observable,-12.0,-15.0,29.86,1013.9,,,,0,0,0,,,,,,,,,8/8 Overcast,12000.0,,BKN,12000.0,OVC,20000.0,,,,
KRDR,02-15-2001,17:00,METAR,,190,18.0,,,9999,Cloud Development Not Observable,-14.0,-16.0,29.85,1013.4,,,,0,0,0,,,,,,,,,8/8 Overcast,12000.0,,BKN,12000.0,OVC,20000.0,,,,
KRDR,02-15-2001,16:00,METAR,,190,17.0,,,9999,Cloud Development Not Observable,-15.0,-18.0,29.85,1013.5,,,,0,0,0,,,,,,,,,8/8 Overcast,20000.0,,SCT,12000.0,OVC,20000.0,,,,
KRDR,02-15-2001,15:00,METAR,,200,21.0,,,9999,Cloud Development Not Observable,-17.0,-18.0,29.84,1013.3,,,,0,0,0,,,,,,,,,8/8 Overcast,20000.0,,SCT,12000.0,OVC,20000.0,,,,
KRDR,02-15-2001,14:00,METAR,,190,21.0,,,9999,Cloud Development Not Observable,-18.0,-19.0,29.85,1013.6,,,,0,0,0,,,,,,,,,7/8 Mostly Cloudy,20000.0,,SCT,12000.0,BKN,20000.0,,,,
KRDR,02-15-2001,13:00,METAR,,180,15.0,,,9999,Cloud Development Not Observable,-18.0,-20.0,29.86,1014.1,,,,0,0,0,,,,,,,,,7/8 Mostly Cloudy,20000.0,,SCT,12000.0,BKN,20000.0,,,,
KRDR,02-15-2001,12:00,METAR,,190,14.0,,,9999,Cloud Development Not Observable,-19.0,-20.0,29.87,1014.3,,,,0,0,0,,,,,,,,,7/8 Mostly Cloudy,20000.0,,SCT,12000.0,BKN,20000.0,,,,
KRDR,02-15-2001,11:00,METAR,,190,18.0,,,9999,Cloud Development Not Observable,-18.0,-20.0,29.89,1014.8,,,,0,0,0,,,,,,,,,7/8 Mostly Cloudy,20000.0,,FEW,12000.0,BKN,20000.0,,,,
KRDR,02-15-2001,10:00,METAR,,190,18.0,,,9999,Cloud Development Not Observable,-19.0,-20.0,29.92,1015.7,,,,0,0,0,,,,,,,,,2/8 Mostly Clear,72000.0,,FEW,20000.0,,,,,,
KRDR,02-15-2001,09:00,METAR,,180,18.0,,,9999,Cloud Development Not Observable,-19.0,-20.0,29.93,1016.1,,,,0,0,0,,,,,,,,,2/8 Mostly Clear,72000.0,,FEW,20000.0,,,,,,
KRDR,02-15-2001,08:00,METAR,,180,17.0,,,9999,Cloud Development Not Observable,-19.0,-21.0,29.97,1017.5,,,,0,0,0,,,,,,,,,2/8 Mostly Clear,72000.0,,FEW,20000.0,,,,,,
KRDR,02-15-2001,07:00,METAR,,180,13.0,,,9999,Cloud Development Not Observable,-19.0,-20.0,29.99,1018.3,,,,0,0,0,,,,,,,,,2/8 Mostly Clear,72000.0,,FEW,20000.0,,,,,,
KRDR,02-15-2001,06:00,METAR,,180,14.0,,,9999,Cloud Development Not Observable,-19.0,-21.0,30.01,1019.0,,,,0,0,0,,,,,,,,,2/8 Mostly Clear,72000.0,,FEW,20000.0,,,,,,
KRDR,02-15-2001,05:00,METAR,,180,15.0,,,9999,Cloud Development Not Observable,-19.0,-20.0,30.03,1019.7,,,,0,0,0,,,,,,,,,2/8 Mostly Clear,72000.0,,FEW,20000.0,,,,,,
KRDR,02-15-2001,04:00,METAR,,180,13.0,,,9999,Cloud Development Not Observable,-19.0,-20.0,30.05,1020.5,,,,0,0,0,,,,,,,,,2/8 Mostly Clear,72000.0,,FEW,20000.0,,,,,,
KRDR,02-15-2001,03:00,METAR,,180,11.0,,,9999,Cloud Development Not Observable,-20.0,-21.0,30.07,1021.4,,,,0,0,0,,,,,,,,,2/8 Mostly Clear,72000.0,,FEW,20000.0,,,,,,
KRDR,02-15-2001,02:00,METAR,,180,10.0,,,9999,Cloud Development Not Observable,-19.0,-20.0,30.09,1022.1,,,,0,0,0,,,,,,,,,2/8 Mostly Clear,72000.0,,FEW,20000.0,,,,,,
KRDR,02-15-2001,01:00,METAR,,180,11.0,,,9999,Cloud Development Not Observable,-18.0,-20.0,30.10,1022.4,,,,0,0,0,,,,,,,,,2/8 Mostly Clear,72000.0,,FEW,20000.0,,,,,,
KRDR,02-15-2001,00:00,METAR,,180,10.0,,,9999,Cloud Development Not Observable,-17.0,-18.0,30.12,1023.0,,,,0,0,0,,,,,,,,,2/8 Mostly Clear,72000.0,,FEW,20000.0,,,,,,
KRDR,02-14-2001,23:00,METAR,,190,13.0,,,9999,Cloud Development Not Observable,-15.0,-18.0,30.14,1023.6,,,,0,0,0,,,,,,,,,2/8 Mostly Clear,72000.0,,FEW,20000.0,,,,,,
KRDR,02-14-2001,22:00,METAR,,190,9.0,,,9999,Cloud Development Not Observable,-14.0,-17.0,30.16,1024.2,,,,0,0,0,,,,,,,,,Clear,72000.0,,,73000.0,,,,,,
KRDR,02-14-2001,21:00,METAR,,200,9.0,,,9999,Cloud Development Not Observable,-15.0,-18.0,30.18,1025.0,,,,0,0,0,,,,,,,,,Clear,72000.0,,,73000.0,,,,,,
KRDR,02-14-2001,20:00,METAR,,180,7.0,,,9999,Cloud Development Not Observable,-16.0,-18.0,30.20,1025.7,,,,0,0,0,,,,,,,,,Clear,72000.0,,,73000.0,,,,,,
KRDR,02-14-2001,19:00,METAR,,200,5.0,,,9999,Cloud Development Not Observable,-16.0,-19.0,30.24,1027.1,,,,0,0,0,,,,,,,,,Clear,72000.0,,,73000.0,,,,,,
KRDR,02-14-2001,18:00,METAR,,230,6.0,,,9999,Cloud Development Not Observable,-17.0,-20.0,30.28,1028.3,,,,0,0,0,,,,,,,,,Clear,72000.0,,,73000.0,,,,,,
KRDR,02-14-2001,17:00,METAR,,240,4.0,,,9999,Cloud Development Not Observable,-18.0,-20.0,30.30,1028.9,,,,0,0,0,,,,,,,,,Clear,72000.0,,,73000.0,,,,,,
KRDR,02-14-2001,16:00,METAR,,240,6.0,,,9999,Cloud Development Not Observable,-20.0,-22.0,30.31,1029.3,,,,0,0,0,,,,,,,,,Clear,72000.0,,,73000.0,,,,,,
KRDR,02-14-2001,15:00,METAR,,300,9.0,,,9999,Cloud Development Not Observable,-22.0,-23.0,30.30,1029.1,,,,0,0,0,,,,,,,,,Clear,72000.0,,,73000.0,,,,,,
KRDR,02-14-2001,14:00,METAR,,290,7.0,,,9999,Cloud Development Not Observable,-24.0,-24.0,30.30,1029.2,,,,0,0,0,,,,,,,,,Clear,72000.0,,,73000.0,,,,,,
KRDR,02-14-2001,13:00,METAR,,280,7.0,,,9999,Cloud Development Not Observable,-23.0,-24.0,30.31,1029.4,,,,0,0,0,,,,,,,,,Clear,72000.0,,,73000.0,,,,,,
KRDR,02-14-2001,12:00,METAR,,310,10.0,,,9999,Cloud Development Not Observable,-22.0,-23.0,30.31,1029.3,,,,0,0,0,,,,,,,,,Clear,72000.0,,,73000.0,,,,,,
KRDR,02-14-2001,11:00,METAR,,270,7.0,,,9999,Cloud Development Not Observable,-22.0,-23.0,30.32,1029.6,,,,0,0,0,,,,,,,,,Clear,72000.0,,,73000.0,,,,,,
KRDR,02-14-2001,10:00,METAR,,300,9.0,,,9999,Cloud Development Not Observable,-21.0,-22.0,30.32,1029.5,,,,0,0,0,,,,,,,,,Clear,72000.0,,,73000.0,,,,,,
KRDR,02-14-2001,09:00,METAR,,300,10.0,,,9999,Cloud Development Not Observable,-21.0,-22.0,30.32,1029.5,,,,0,0,0,,,,,,,,,Clear,72000.0,,,73000.0,,,,,,
KRDR,02-14-2001,08:00,METAR,,310,11.0,,,9999,Cloud Development Not Observable,-20.0,-21.0,30.32,1029.4,,,,0,0,0,,,,,,,,,Clear,72000.0,,,73000.0,,,,,,
KRDR,02-14-2001,07:00,METAR,,300,10.0,,,9999,Cloud Development Not Observable,-20.0,-21.0,30.32,1029.4,,,,0,0,0,,,,,,,,,Clear,72000.0,,,73000.0,,,,,,
KRDR,02-14-2001,06:00,METAR,,310,12.0,,,9999,Cloud Development Not Observable,-19.0,-20.0,30.32,1029.3,,,,0,0,0,,,,,,,,,Clear,72000.0,,,73000.0,,,,,,
KRDR,02-14-2001,05:00,METAR,,320,13.0,,,9999,Cloud Development Not Observable,-18.0,-19.0,30.32,1029.3,,,,0,0,0,,,,,,,,,Clear,72000.0,,,73000.0,,,,,,
KRDR,02-14-2001,04:00,METAR,,300,13.0,,,9999,Cloud Development Not Observable,-18.0,-19.0,30.31,1029.0,,,,0,0,0,,,,,,,,,Clear,72000.0,,,73000.0,,,,,,
KRDR,02-14-2001,03:00,METAR,,300,13.0,,,9999,Cloud Development Not Observable,-17.0,-19.0,30.29,1028.3,,,,0,0,0,,,,,,,,,Clear,72000.0,,,73000.0,,,,,,
KRDR,02-14-2001,02:00,METAR,,310,11.0,,,9999,Cloud Development Not Observable,-17.0,-19.0,30.28,1028.0,,,,0,0,0,,,,,,,,,2/8 Mostly Clear,72000.0,,FEW,20000.0,,,,,,
KRDR,02-14-2001,01:00,METAR,,300,11.0,,,9999,Cloud Development Not Observable,-17.0,-18.0,30.27,1027.6,,,,0,0,0,,,,,,,,,2/8 Mostly Clear,72000.0,,FEW,20000.0,,,,,,
KRDR,02-14-2001,00:00,METAR,,300,12.0,,,9999,Cloud Development Not Observable,-16.0,-18.0,30.25,1026.6,,,,0,0,0,,,,,,,,,2/8 Mostly Clear,72000.0,,FEW,20000.0,,,,,,
KRDR,02-13-2001,23:00,METAR,,300,15.0,,300/25KTS,9999,Cloud Development Not Observable,-14.0,-17.0,30.23,1026.6,,,,0,0,0,,,,,,,,,4/8 Partly Cloudy,72000.0,,SCT,20000.0,,,,,,
KRDR,02-13-2001,22:00,METAR,,300,18.0,,,9999,Cloud Development Not Observable,-14.0,-17.0,30.21,1025.7,,,,0,0,0,,,,,,,,,4/8 Partly Cloudy,72000.0,,SCT,20000.0,,,,,,
KRDR,02-13-2001,21:00,METAR,,310,22.0,,,9999,Cloud Development Not Observable,-13.0,-16.0,30.20,1025.3,,,,0,0,0,,,,,,,,,4/8 Partly Cloudy,72000.0,,SCT,20000.0,,,,,,
KRDR,02-13-2001,20:00,METAR,,300,20.0,,,9999,Cloud Development Not Observable,-13.0,-17.0,30.20,1025.3,,,,0,0,0,,,,,,,,,7/8 Mostly Cloudy,20000.0,,BKN,20000.0,,,,,,
KRDR,02-13-2001,19:00,METAR,,290,16.0,,,9999,Cloud Development Not Observable,-13.0,-17.0,30.18,1024.7,,,,0,0,0,,,,,,,,,7/8 Mostly Cloudy,20000.0,,BKN,20000.0,,,,,,
KRDR,02-13-2001,18:00,METAR,,290,16.0,,,9999,Cloud Development Not Observable,-13.0,-16.0,30.18,1024.7,,,,0,0,0,,,,,,,,,7/8 Mostly Cloudy,20000.0,,BKN,20000.0,,,,,,
KRDR,02-13-2001,17:00,METAR,,300,18.0,,,9999,Cloud Development Not Observable,-13.0,-16.0,30.16,1023.8,,,,0,0,0,,,,,,,,,7/8 Mostly Cloudy,20000.0,,FEW,12000.0,BKN,20000.0,,,,
KRDR,02-13-2001,16:00,METAR,,300,13.0,,,9999,Cloud Development Not Observable,-14.0,-16.0,30.16,1023.9,,,,0,0,0,,,,,,,,,8/8 Overcast,12000.0,,OVC,12000.0,,,,,,
KRDR,02-13-2001,15:00,METAR,,300,11.0,,,9999,Cloud Development Not Observable,-15.0,-17.0,30.13,1023.0,,,,0,0,0,,,,,,,,,8/8 Overcast,12000.0,,OVC,12000.0,,,,,,
KRDR,02-13-2001,14:00,METAR,,290,12.0,,,9999,Cloud Development Not Observable,-16.0,-17.0,30.12,1022.5,,,,0,0,0,,,,,,,,,7/8 Mostly Cloudy,12000.0,,BKN,12000.0,BKN,20000.0,,,,
KRDR,02-13-2001,13:00,METAR,,290,10.0,,,9999,Cloud Development Not Observable,-16.0,-17.0,30.10,1021.8,,,,0,0,0,,,,,,,,,4/8 Partly Cloudy,72000.0,,FEW,12000.0,SCT,20000.0,,,,
KRDR,02-13-2001,12:00,METAR,,270,7.0,,,9999,Cloud Development Not Observable,-18.0,-18.0,30.06,1020.8,,,,0,0,0,,,,,,,,,4/8 Partly Cloudy,72000.0,,SCT,20000.0,,,,,,
KRDR,02-13-2001,11:00,METAR,,200,8.0,,,9999,Cloud Development Not Observable,-18.0,-19.0,30.08,1021.1,,,,0,0,0,,,,,,,,,4/8 Partly Cloudy,72000.0,,SCT,20000.0,,,,,,
KRDR,02-13-2001,10:00,METAR,,200,8.0,,,9999,Cloud Development Not Observable,-19.0,-19.0,30.06,1020.6,,,,0,0,0,,,,,,,,,4/8 Partly Cloudy,72000.0,,SCT,20000.0,,,,,,
KRDR,02-13-2001,09:00,METAR,,190,9.0,,,9999,Cloud Development Not Observable,-18.0,-18.0,30.06,1020.6,,,,0,0,0,,,,,,,,,4/8 Partly Cloudy,72000.0,,SCT,20000.0,,,,,,
KRDR,02-13-2001,08:00,METAR,,190,10.0,,,9999,Cloud Development Not Observable,-17.0,-18.0,30.07,1020.7,,,,0,0,0,,,,,,,,,4/8 Partly Cloudy,72000.0,,SCT,20000.0,,,,,,
KRDR,02-13-2001,07:00,METAR,,160,11.0,,,9999,Cloud Development Not Observable,-17.0,-18.0,30.06,1020.5,,,,0,0,0,,,,,,,,,4/8 Partly Cloudy,72000.0,,SCT,20000.0,,,,,,
KRDR,02-13-2001,06:00,METAR,,190,10.0,,,9999,Cloud Development Not Observable,-17.0,-18.0,30.08,1021.0,,,,0,0,0,,,,,,,,,7/8 Mostly Cloudy,20000.0,,BKN,20000.0,,,,,,
KRDR,02-13-2001,05:00,METAR,,190,11.0,,,9999,Cloud Development Not Observable,-15.0,-16.0,30.10,1021.7,,,,0,0,0,,,,,,,,,7/8 Mostly Cloudy,20000.0,,BKN,20000.0,,,,,,
KRDR,02-13-2001,04:00,METAR,,200,13.0,,,9999,Cloud Development Not Observable,-16.0,-17.0,30.11,1022.1,,,,0,0,0,,,,,,,,,7/8 Mostly Cloudy,20000.0,,BKN,20000.0,,,,,,
KRDR,02-13-2001,03:00,METAR,,180,11.0,,,9999,Cloud Development Not Observable,-15.0,-16.0,30.11,1022.2,,,,0,0,0,,,,,,,,,7/8 Mostly Cloudy,20000.0,,BKN,20000.0,,,,,,
KRDR,02-13-2001,02:00,METAR,,190,8.0,,,9999,Cloud Development Not Observable,-15.0,-16.0,30.11,1022.2,,,,0,0,0,,,,,,,,,7/8 Mostly Cloudy,20000.0,,BKN,20000.0,,,,,,
KRDR,02-13-2001,01:00,METAR,,190,8.0,,,9999,Cloud Development Not Observable,-15.0,-16.0,30.12,1022.5,,,,0,0,0,,,,,,,,,7/8 Mostly Cloudy,20000.0,,BKN,20000.0,,,,,,
KRDR,02-13-2001,00:00,METAR,,220,6.0,,,9999,Cloud Development Not Observable,-14.0,-15.0,30.13,1022.7,,,,0,0,0,,,,,,,,,7/8 Mostly Cloudy,20000.0,,BKN,20000.0,,,,,,
KRDR,02-12-2001,23:00,METAR,,220,6.0,,,9999,Cloud Development Not Observable,-12.0,-14.0,30.14,1022.8,,,,0,0,0,,,,,,,,,4/8 Partly Cloudy,72000.0,,SCT,20000.0,,,,,,
KRDR,02-12-2001,22:00,METAR,,240,7.0,,,9999,Cloud Development Not Observable,-10.0,-13.0,30.15,1023.3,,,,0,0,0,,,,,,,,,Clear,72000.0,,,73000.0,,,,,,
KRDR,02-12-2001,21:00,METAR,,230,10.0,,,9999,Cloud Development Not Observable,-10.0,-13.0,30.15,1023.1,,,,0,0,0,,,,,,,,,Clear,72000.0,,,73000.0,,,,,,
KRDR,02-12-2001,20:00,METAR,,210,8.0,,,9999,Cloud Development Not Observable,-10.0,-12.0,30.15,1023.1,,,,0,0,0,,,,,,,,,Clear,72000.0,,,73000.0,,,,,,
KRDR,02-12-2001,19:00,METAR,,220,8.0,,,9999,Cloud Development Not Observable,-10.0,-12.0,30.17,1024.0,,,,0,0,0,,,,,,,,,Clear,72000.0,,,73000.0,,,,,,
KRDR,02-12-2001,18:00,METAR,,,,,,9999,Cloud Development Not Observable,-11.0,-13.0,30.18,1024.2,,,,0,0,0,,,,,,,,,4/8 Partly Cloudy,72000.0,,SCT,2000.0,,,,,,
KRDR,02-12-2001,17:00,METAR,,300,5.0,,,9999,Cloud Development Not Observable,-14.0,-14.0,30.19,1024.7,,,,0,0,0,,,,,,,,,4/8 Partly Cloudy,72000.0,,SCT,2000.0,,,,,,
KRDR,02-12-2001,16:00,METAR,,300,3.0,,,9999,Cloud Development Not Observable,-15.0,-15.0,30.18,1024.4,,,,0,0,0,,,,,,,,,2/8 Mostly Clear,72000.0,,FEW,2000.0,,,,,,
KRDR,02-12-2001,15:00,METAR,,290,4.0,,,9999,Cloud Development Not Observable,-17.0,-17.0,30.17,1024.1,,,,0,0,0,,,,,,,,,Clear,72000.0,,,73000.0,,,,,,
KRDR,02-12-2001,14:00,METAR,,290,4.0,,,8000,Mist/Cloud Development Not Observable,-17.0,-17.0,30.16,1023.9,,,,10,0,0,,,,,,,,,4/8 Partly Cloudy,72000.0,,SCT,4000.0,SCT,9900.0,,,,
KRDR,02-12-2001,13:45,METAR,,290,4.0,,,8000,Mist/Cloud Development Not Observable,-17.0,-17.0,30.16,,,,,10,0,0,,,,,,,,,4/8 Partly Cloudy,72000.0,,SCT,4000.0,SCT,9900.0,,,,
KRDR,02-12-2001,13:00,METAR,,310,4.0,,,8000,Light Snow/Mist/Cloud Development Not Observable,-16.0,-16.0,30.17,1024.0,,,,71,10,0,,,,,,,,,7/8 Mostly Cloudy,10000.0,,SCT,3000.0,SCT,4000.0,BKN,9900.0,,
KRDR,02-12-2001,12:15,SPECI,,310,4.0,,,8000,Light Snow/Cloud Development Not Observable,-15.0,-15.0,30.16,,,,,71,0,0,,,,,,,,,8/8 Overcast,3900.0,,OVC,4000.0,,,,,,
KRDR,02-12-2001,12:00,METAR,,330,5.0,,,8000,Light Snow/Cloud Development Not Observable,-14.0,-14.0,30.16,1023.7,,,,71,0,0,,,,,,,,,8/8 Overcast,4900.0,,OVC,5000.0,,,,,,
KRDR,02-12-2001,11:00,METAR,,90,3.0,,,8000,Light Snow/Cloud Development Not Observable,-11.0,-11.0,30.15,1023.3,,,,71,0,0,,,,,,,,,8/8 Overcast,6000.0,,OVC,5900.0,,,,,,
KRDR,02-12-2001,10:00,METAR,,120,5.0,,,8000,Light Snow/Cloud Development Not Observable,-11.0,-11.0,30.15,1023.3,,,,71,0,0,,,,,,,,,8/8 Overcast,4900.0,,OVC,5000.0,,,,,,
KRDR,02-12-2001,09:00,METAR,,110,6.0,,,8000,Light Snow/Cloud Development Not Observable,-11.0,-11.0,30.15,1023.4,,,,71,0,0,,,,,,,,,8/8 Overcast,4900.0,,OVC,5000.0,,,,,,
KRDR,02-12-2001,08:00,METAR,,100,7.0,,,9999,Light Snow/Cloud Development Not Observable,-11.0,-11.0,30.16,1023.6,,,,71,0,0,,,,,,,,,8/8 Overcast,3900.0,,OVC,4000.0,,,,,,
KRDR,02-12-2001,07:00,METAR,,110,7.0,,,8000,Light Snow/Cloud Development Not Observable,-11.0,-11.0,30.17,1024.0,,,,71,0,0,,,,,,,,,8/8 Overcast,3900.0,,OVC,4000.0,,,,,,
KRDR,02-12-2001,06:00,METAR,,110,7.0,,,4800,Light Snow/Cloud Development Not Observable,-11.0,-11.0,30.18,1024.5,,,,71,0,0,,,,,,,,,8/8 Overcast,3900.0,,OVC,4000.0,,,,,,
KRDR,02-12-2001,05:00,METAR,,110,6.0,,,4800,Light Snow/Cloud Development Not Observable,-10.0,-11.0,30.19,1024.9,,,,71,0,0,,,,,,,,,8/8 Overcast,3900.0,,OVC,4000.0,,,,,,
KRDR,02-12-2001,04:00,METAR,,100,5.0,,,4800,Light Snow/Cloud Development Not Observable,-11.0,-11.0,30.20,1025.4,,,,71,0,0,,,,,,,,,8/8 Overcast,3900.0,,OVC,4000.0,,,,,,
KRDR,02-12-2001,03:00,METAR,,50,5.0,,,4800,Light Snow/Cloud Development Not Observable,-11.0,-12.0,30.21,1025.6,,,,71,0,0,,,,,,,,,8/8 Overcast,3900.0,,OVC,4000.0,,,,,,
KRDR,02-12-2001,02:00,METAR,,80,4.0,,,8000,Light Snow/Cloud Development Not Observable,-11.0,-13.0,30.20,1025.4,,,,71,0,0,,,,,,,,,8/8 Overcast,3900.0,,OVC,4000.0,,,,,,
KRDR,02-12-2001,01:10,SPECI,,110,5.0,,,9999,Cloud Development Not Observable,-11.0,-13.0,30.20,,,,,0,0,0,,,,,,,,,8/8 Overcast,4900.0,,OVC,5000.0,,,,,,
KRDR,02-12-2001,01:00,METAR,,110,6.0,,,9999,Cloud Development Not Observable,-11.0,-12.0,30.21,1025.6,,,,0,0,0,,,,,,,,,8/8 Overcast,2800.0,,BKN,2800.0,OVC,4500.0,,,,
KRDR,02-12-2001,00:00,METAR,,100,8.0,,,9999,Cloud Development Not Observable,-12.0,-13.0,30.22,1026.1,,,,0,0,0,,,,,,,,,8/8 Overcast,2100.0,,OVC,2100.0,,,,,,
KRDR,02-11-2001,23:39,SPECI,,110,8.0,,,9999,Cloud Development Not Observable,-12.0,-13.0,30.22,,,,,0,0,0,,,,,,,,,8/8 Overcast,2100.0,,OVC,2100.0,,,,,,
KRDR,02-11-2001,23:00,METAR,,100,9.0,,,9999,Light Snow/Cloud Development Not Observable,-12.0,-13.0,30.24,1026.7,,,,71,0,0,,,,,,,,,8/8 Overcast,2000.0,,SCT,1500.0,OVC,2000.0,,,,
KRDR,02-11-2001,22:00,METAR,,110,9.0,,,9999,Light Snow/Cloud Development Not Observable,-13.0,-14.0,30.26,1027.5,,,,71,0,0,,,,,,,,,8/8 Overcast,2800.0,,OVC,2800.0,,,,,,
KRDR,02-11-2001,21:00,METAR,,110,8.0,,,8000,Light Snow/Cloud Development Not Observable,-13.0,-15.0,30.29,1028.3,,,,71,0,0,,,,,,,,,8/8 Overcast,2800.0,,OVC,2800.0,,,,,,
KRDR,02-11-2001,20:05,SPECI,,140,9.0,,,8000,Light Snow/Cloud Development Not Observable,-14.0,-16.0,30.30,,,,,71,0,0,,,,,,,,,8/8 Overcast,2800.0,,OVC,2800.0,,,,,,
KRDR,02-11-2001,20:00,METAR,,140,10.0,,,8000,Light Snow/Cloud Development Not Observable,-14.0,-16.0,30.30,1029.0,,,,71,0,0,,,,,,,,,8/8 Overcast,3000.0,,OVC,3000.0,,,,,,
KRDR,02-11-2001,19:01,SPECI,,130,10.0,,,9999,Light Snow/Cloud Development Not Observable,-14.0,-17.0,30.32,,,,,71,0,0,,,,,,,,,7/8 Mostly Cloudy,3100.0,,BKN,3200.0,BKN,20000.0,,,,
KRDR,02-11-2001,19:00,METAR,,140,11.0,,,9999,Cloud Development Not Observable,-14.0,-17.0,30.32,1029.5,,,,0,0,0,,,,,,,,,,72000.0,,SCT,20000.0,,,,,,
KRDR,02-11-2001,18:00,METAR,,140,10.0,,,9999,Cloud Development Not Observable,-17.0,-19.0,30.33,1030.2,,,,0,0,0,,,,,,,,,4/8 Partly Cloudy,72000.0,,SCT,20000.0,,,,,,
KRDR,02-11-2001,17:00,METAR,,120,8.0,,,9999,Cloud Development Not Observable,-17.0,-19.0,30.33,1030.2,,,,0,0,0,,,,,,,,,4/8 Partly Cloudy,72000.0,,FEW,8900.0,SCT,20000.0,,,,
KRDR,02-11-2001,16:00,METAR,,110,10.0,,,9999,Cloud Development Not Observable,-18.0,-20.0,30.35,1030.8,,,,0,0,0,,,,,,,,,4/8 Partly Cloudy,72000.0,,FEW,3000.0,SCT,20000.0,,,,
KRDR,02-11-2001,15:00,METAR,,100,8.0,,,9999,Cloud Development Not Observable,-19.0,-21.0,30.36,1031.2,,,,0,0,0,,,,,,,,,2/8 Mostly Clear,72000.0,,FEW,3000.0,FEW,8900.0,,,,
KRDR,02-11-2001,14:00,METAR,,100,8.0,,,9999,Cloud Development Not Observable,-19.0,-21.0,30.38,1031.9,,,,0,0,0,,,,,,,,,2/8 Mostly Clear,72000.0,,FEW,8900.0,,,,,,
KRDR,02-11-2001,13:00,METAR,,100,7.0,,,9999,Cloud Development Not Observable,-19.0,-20.0,30.40,1032.6,,,,0,0,0,,,,,,,,,4/8 Partly Cloudy,72000.0,,SCT,8900.0,,,,,,
KRDR,02-11-2001,12:00,METAR,,90,4.0,,,9999,Cloud Development Not Observable,-18.0,-20.0,30.41,1033.1,,,,0,0,0,,,,,,,,,4/8 Partly Cloudy,72000.0,,SCT,8900.0,,,,,,
KRDR,02-11-2001,11:00,METAR,,80,6.0,,,9999,Cloud Development Not Observable,-19.0,-20.0,30.43,1033.6,,,,0,0,0,,,,,,,,,8/8 Overcast,9000.0,,OVC,8900.0,,,,,,
KRDR,02-11-2001,10:00,METAR,,30,4.0,,,9999,Cloud Development Not Observable,-20.0,-21.0,30.44,1034.1,,,,0,0,0,,,,,,,,,7/8 Mostly Cloudy,9000.0,,BKN,8900.0,,,,,,
KRDR,02-11-2001,09:00,METAR,,80,4.0,,,9999,Cloud Development Not Observable,-20.0,-21.0,30.46,1034.7,,,,0,0,0,,,,,,,,,7/8 Mostly Cloudy,9000.0,,BKN,8900.0,,,,,,
KRDR,02-11-2001,08:00,METAR,,50,3.0,,,9999,Cloud Development Not Observable,-20.0,-22.0,30.48,1035.4,,,,0,0,0,,,,,,,,,7/8 Mostly Cloudy,10000.0,,BKN,9900.0,,,,,,
KRDR,02-11-2001,07:00,METAR,,40,5.0,,,9999,Cloud Development Not Observable,-21.0,-23.0,30.48,1035.5,,,,0,0,0,,,,,,,,,7/8 Mostly Cloudy,10000.0,,BKN,9900.0,,,,,,
KRDR,02-11-2001,06:00,METAR,,50,5.0,,,9999,Cloud Development Not Observable,-21.0,-23.0,30.49,1035.8,,,,0,0,0,,,,,,,,,7/8 Mostly Cloudy,10000.0,,BKN,9900.0,,,,,,
KRDR,02-11-2001,05:00,METAR,,50,5.0,,,9999,Cloud Development Not Observable,-21.0,-23.0,30.49,1035.9,,,,0,0,0,,,,,,,,,7/8 Mostly Cloudy,11000.0,,BKN,11000.0,,,,,,
KRDR,02-11-2001,04:00,METAR,,60,6.0,,,9999,Cloud Development Not Observable,-22.0,-23.0,30.50,1036.2,,,,0,0,0,,,,,,,,,7/8 Mostly Cloudy,12000.0,,BKN,12000.0,,,,,,
KRDR,02-11-2001,03:00,METAR,,60,6.0,,,9999,Cloud Development Not Observable,-22.0,-23.0,30.51,1036.9,,,,0,0,0,,,,,,,,,7/8 Mostly Cloudy,12000.0,,FEW,5900.0,BKN,12000.0,,,,
KRDR,02-11-2001,02:00,METAR,,50,7.0,,,9999,Cloud Development Not Observable,-22.0,-23.0,30.52,1037.1,,,,0,0,0,,,,,,,,,7/8 Mostly Cloudy,20000.0,,FEW,5900.0,SCT,12000.0,BKN,20000.0,,
KRDR,02-11-2001,01:00,METAR,,60,7.0,,,9999,Cloud Development Not Observable,-22.0,-23.0,30.52,1037.1,,,,0,0,0,,,,,,,,,7/8 Mostly Cloudy,12000.0,,SCT,5900.0,BKN,12000.0,BKN,20000.0,,
KRDR,02-11-2001,00:00,METAR,,70,7.0,,,9999,Cloud Development Not Observable,-22.0,-23.0,30.52,1037.1,,,,0,0,0,,,,,,,,,8/8 Overcast,8000.0,,BKN,7900.0,OVC,9900.0,,,,
KRDR,02-10-2001,23:00,METAR,,90,7.0,,,9999,Cloud Development Not Observable,-21.0,-23.0,30.51,1036.8,,,,0,0,0,,,,,,,,,7/8 Mostly Cloudy,10000.0,,SCT,7900.0,BKN,9900.0,BKN,20000.0,,
KRDR,02-10-2001,22:00,METAR,,80,7.0,,,9999,Cloud Development Not Observable,-21.0,-23.0,30.51,1036.8,,,,0,0,0,,,,,,,,,7/8 Mostly Cloudy,10000.0,,BKN,9900.0,BKN,20000.0,,,,
KRDR,02-10-2001,21:00,METAR,,50,7.0,,,9999,Cloud Development Not Observable,-21.0,-23.0,30.51,1036.8,,,,0,0,0,,,,,,,,,7/8 Mostly Cloudy,20000.0,,SCT,9900.0,BKN,20000.0,,,,
KRDR,02-10-2001,20:00,METAR,,90,8.0,,,9999,Cloud Development Not Observable,-21.0,-23.0,30.52,1037.2,,,,0,0,0,,,,,,,,,7/8 Mostly Cloudy,20000.0,,FEW,9900.0,BKN,20000.0,,,,
KRDR,02-10-2001,19:00,METAR,,50,7.0,,,9999,Cloud Development Not Observable,-22.0,-24.0,30.53,1037.4,,,,0,0,0,,,,,,,,,7/8 Mostly Cloudy,20000.0,,BKN,20000.0,,,,,,
KRDR,02-10-2001,18:00,METAR,,,,,,9999,Cloud Development Not Observable,-22.0,-25.0,30.54,1037.8,,,,0,0,0,,,,,,,,,4/8 Partly Cloudy,72000.0,,SCT,20000.0,,,,,,
KRDR,02-10-2001,17:00,METAR,,200,4.0,,,9999,Cloud Development Not Observable,-24.0,-25.0,30.54,1037.9,,,,0,0,0,,,,,,,,,4/8 Partly Cloudy,72000.0,,SCT,20000.0,,,,,,
KRDR,02-10-2001,16:00,METAR,,20,3.0,,,9999,Cloud Development Not Observable,-25.0,-26.0,30.53,1037.3,,,,0,0,0,,,,,,,,,4/8 Partly Cloudy,72000.0,,SCT,20000.0,,,,,,
KRDR,02-10-2001,15:00,METAR,,290,3.0,,,9999,Cloud Development Not Observable,-28.0,-28.0,30.52,1037.1,,,,0,0,0,,,,,,,,,2/8 Mostly Clear,72000.0,,FEW,9900.0,,,,,,
KRDR,02-10-2001,14:00,METAR,,360,4.0,,,9999,Cloud Development Not Observable,-28.0,-29.0,30.51,1036.9,,,,0,0,0,,,,,,,,,Clear,72000.0,,,73000.0,,,,,,
KRDR,02-10-2001,13:00,METAR,,310,3.0,,,9999,Cloud Development Not Observable,-28.0,-28.0,30.50,1036.6,,,,0,0,0,,,,,,,,,Clear,72000.0,,,73000.0,,,,,,
KRDR,02-10-2001,12:00,METAR,,290,5.0,,,9999,Cloud Development Not Observable,-28.0,-28.0,30.48,1035.8,,,,0,0,0,,,,,,,,,Clear,72000.0,,,73000.0,,,,,,
KRDR,02-10-2001,11:00,METAR,,290,6.0,,,9999,Cloud Development Not Observable,-28.0,-28.0,30.47,1035.1,,,,0,0,0,,,,,,,,,Clear,72000.0,,,73000.0,,,,,,
KRDR,02-10-2001,10:00,METAR,,280,5.0,,,9999,Cloud Development Not Observable,-27.0,-27.0,30.46,1034.9,,,,0,0,0,,,,,,,,,Clear,72000.0,,,73000.0,,,,,,
KRDR,02-10-2001,09:00,METAR,,330,5.0,,,9999,Cloud Development Not Observable,-27.0,-27.0,30.44,1034.2,,,,0,0,0,,,,,,,,,Clear,72000.0,,,73000.0,,,,,,
KRDR,02-10-2001,08:00,METAR,,270,6.0,,,9999,Cloud Development Not Observable,-27.0,-27.0,30.44,1034.2,,,,0,0,0,,,,,,,,,Clear,72000.0,,,73000.0,,,,,,
KRDR,02-10-2001,07:00,METAR,,310,6.0,,,9999,Cloud Development Not Observable,-25.0,-26.0,30.42,1033.5,,,,0,0,0,,,,,,,,,Clear,72000.0,,,73000.0,,,,,,
KRDR,02-10-2001,06:00,METAR,,350,6.0,,,9999,Cloud Development Not Observable,-25.0,-26.0,30.41,1033.0,,,,0,0,0,,,,,,,,,Clear,72000.0,,,73000.0,,,,,,
KRDR,02-10-2001,05:00,METAR,,320,7.0,,,9999,Cloud Development Not Observable,-24.0,-25.0,30.40,1032.8,,,,0,0,0,,,,,,,,,Clear,72000.0,,,73000.0,,,,,,
KRDR,02-10-2001,04:00,METAR,,300,6.0,,,9999,Cloud Development Not Observable,-24.0,-25.0,30.38,1032.2,,,,0,0,0,,,,,,,,,Clear,72000.0,,,73000.0,,,,,,
KRDR,02-10-2001,03:00,METAR,,310,7.0,,,9999,Cloud Development Not Observable,-23.0,-24.0,30.38,1032.1,,,,0,0,0,,,,,,,,,Clear,72000.0,,,73000.0,,,,,,
KRDR,02-10-2001,02:00,METAR,,310,7.0,,,9999,Cloud Development Not Observable,-23.0,-23.0,30.37,1031.9,,,,0,0,0,,,,,,,,,Clear,72000.0,,,73000.0,,,,,,
KRDR,02-10-2001,01:00,METAR,,340,5.0,,,9999,Cloud Development Not Observable,-22.0,-23.0,30.37,1031.9,,,,0,0,0,,,,,,,,,Clear,72000.0,,,73000.0,,,,,,
KRDR,02-10-2001,00:00,METAR,,330,10.0,,,9999,Cloud Development Not Observable,-20.0,-21.0,30.36,1031.4,,,,0,0,0,,,,,,,,,2/8 Mostly Clear,72000.0,,FEW,1000.0,,,,,,
KRDR,02-09-2001,23:00,METAR,,350,13.0,,,9999,Cloud Development Not Observable,-18.0,-20.0,30.34,1030.5,,,,0,0,0,,,,,,,,,2/8 Mostly Clear,72000.0,,FEW,1500.0,,,,,,
KRDR,02-09-2001,22:00,METAR,,340,15.0,,,9999,Cloud Development Not Observable,-18.0,-20.0,30.33,1030.2,,,,0,0,0,,,,,,,,,2/8 Mostly Clear,72000.0,,FEW,1500.0,,,,,,
KRDR,02-09-2001,21:00,METAR,,350,15.0,,,9999,Cloud Development Not Observable,-17.0,-20.0,30.32,1029.7,,,,0,0,0,,,,,,,,,4/8 Partly Cloudy,72000.0,,SCT,1500.0,,,,,,
KRDR,02-09-2001,20:00,METAR,,350,19.0,,,9999,Cloud Development Not Observable,-17.0,-19.0,30.33,1029.9,,,,0,0,0,,,,,,,,,Clear,72000.0,,,73000.0,,,,,,
KRDR,02-09-2001,19:00,METAR,,340,20.0,,,9999,Cloud Development Not Observable,-17.0,-19.0,30.33,1030.1,,,,0,0,0,,,,,,,,,Clear,72000.0,,,73000.0,,,,,,
KRDR,02-09-2001,18:00,METAR,,350,16.0,,,9999,Cloud Development Not Observable,-18.0,-20.0,30.34,1030.4,,,,0,0,0,,,,,,,,,Clear,72000.0,,,73000.0,,,,,,
KRDR,02-09-2001,17:00,METAR,,340,16.0,,,9999,Cloud Development Not Observable,-18.0,-20.0,30.34,1030.3,,,,0,0,0,,,,,,,,,Clear,72000.0,,,73000.0,,,,,,
KRDR,02-09-2001,16:00,METAR,,340,13.0,,,9999,Cloud Development Not Observable,-20.0,-22.0,30.33,1030.2,,,,0,0,0,,,,,,,,,Clear,72000.0,,,73000.0,,,,,,
KRDR,02-09-2001,15:00,METAR,,330,14.0,,,9999,Cloud Development Not Observable,-21.0,-22.0,30.34,1030.4,,,,0,0,0,,,,,,,,,Clear,72000.0,,,73000.0,,,,,,
KRDR,02-09-2001,14:00,METAR,,330,14.0,,,9999,Cloud Development Not Observable,-22.0,-23.0,30.33,1030.0,,,,0,0,0,,,,,,,,,Clear,72000.0,,,73000.0,,,,,,
KRDR,02-09-2001,13:00,METAR,,330,15.0,,,9999,Cloud Development Not Observable,-22.0,-23.0,30.33,1030.2,,,,0,0,0,,,,,,,,,Clear,72000.0,,,73000.0,,,,,,
KRDR,02-09-2001,12:00,METAR,,330,14.0,,,9999,Cloud Development Not Observable,-22.0,-22.0,30.31,1029.3,,,,0,0,0,,,,,,,,,Clear,72000.0,,,73000.0,,,,,,
KRDR,02-09-2001,11:00,METAR,,340,12.0,,,9999,Cloud Development Not Observable,-21.0,-22.0,30.32,1029.6,,,,0,0,0,,,,,,,,,Clear,72000.0,,,73000.0,,,,,,
KRDR,02-09-2001,10:00,METAR,,340,16.0,,,9999,Cloud Development Not Observable,-21.0,-22.0,30.29,1028.4,,,,0,0,0,,,,,,,,,Clear,72000.0,,,73000.0,,,,,,
KRDR,02-09-2001,08:00,METAR,,340,16.0,,,9999,Cloud Development Not Observable,-20.0,-21.0,30.30,1028.8,,,,0,0,0,,,,,,,,,Clear,72000.0,,,73000.0,,,,,,
KRDR,02-09-2001,07:00,METAR,,340,14.0,,,9999,Cloud Development Not Observable,-20.0,-20.0,30.32,1029.5,,,,0,0,0,,,,,,,,,Clear,72000.0,,,73000.0,,,,,,
KRDR,02-09-2001,06:00,METAR,,340,13.0,,,9999,Cloud Development Not Observable,-19.0,-20.0,30.33,1029.8,,,,0,0,0,,,,,,,,,2/8 Mostly Clear,72000.0,,FEW,1000.0,FEW,3500.0,,,,
KRDR,02-09-2001,05:41,SPECI,,340,15.0,,,9999,Cloud Development Not Observable,-19.0,-19.0,30.32,,,,,0,0,0,,,,,,,,,2/8 Mostly Clear,72000.0,,FEW,1000.0,FEW,3500.0,,,,
KRDR,02-09-2001,05:00,METAR,,350,15.0,,,9999,Blowing Snow/Cloud Development Not Observable,-18.0,-19.0,30.32,1029.6,,,,38,0,0,,,,,,,,,4/8 Partly Cloudy,72000.0,,FEW,1000.0,FEW,2500.0,SCT,3500.0,,
KRDR,02-09-2001,04:41,SPECI,,350,16.0,,,9999,Blowing Snow/Cloud Development Not Observable,-18.0,-19.0,30.32,,,,,38,0,0,,,,,,,,,4/8 Partly Cloudy,72000.0,,FEW,1000.0,FEW,2500.0,SCT,3500.0,,
KRDR,02-09-2001,04:00,METAR,,340,18.0,,,4000,Blowing Snow/Cloud Development Not Observable,-18.0,-18.0,30.32,1029.6,,,,38,0,0,,,,,,,,,8/8 Overcast,2500.0,,SCT,800.0,BKN,2500.0,OVC,3500.0,,
KRDR,02-09-2001,03:00,METAR,,340,18.0,,,3200,Blowing Snow/Cloud Development Not Observable,-18.0,-18.0,30.32,1029.6,,,,38,0,0,,,,,,,,,7/8 Mostly Cloudy,2500.0,,SCT,1000.0,BKN,2500.0,BKN,3500.0,,
KRDR,02-09-2001,02:03,SPECI,,330,19.0,,,3200,Blowing Snow/Cloud Development Not Observable,-17.0,-18.0,30.34,,,,,38,0,0,,,,,,,,,7/8 Mostly Cloudy,2500.0,,SCT,1000.0,BKN,2500.0,BKN,3500.0,,
KRDR,02-09-2001,02:00,METAR,,330,19.0,,,2400,Light Snow/Blowing Snow/Cloud Development Not Observable,-17.0,-18.0,30.33,1030.0,,,,71,38,0,,,,,,,,,7/8 Mostly Cloudy,2500.0,,SCT,1000.0,BKN,2500.0,BKN,3500.0,,
KRDR,02-09-2001,01:00,METAR,,330,18.0,,,2400,Light Snow/Blowing Snow/Cloud Development Not Observable,-17.0,-17.0,30.34,1030.4,,,,71,38,0,,,,,,,,,7/8 Mostly Cloudy,2500.0,,SCT,1000.0,BKN,2500.0,BKN,3500.0,,
KRDR,02-09-2001,00:19,SPECI,,330,18.0,,,2400,Light Snow/Blowing Snow/Cloud Development Not Observable,-16.0,-17.0,30.35,,,,,71,38,0,,,,,,,,,8/8 Overcast,2500.0,,SCT,1000.0,OVC,2500.0,,,,
KRDR,02-09-2001,00:00,METAR,,340,18.0,,,2400,Light Snow/Blowing Snow/Cloud Development Not Observable,-16.0,-17.0,30.33,1029.9,,,,71,38,0,,,,,,,,,8/8 Overcast,2500.0,,SCT,900.0,OVC,2500.0,,,,
KRDR,02-08-2001,23:00,METAR,,350,20.0,,,2400,Light Snow/Blowing Snow/Cloud Development Not Observable,-16.0,-17.0,30.32,1028.7,,,,71,38,0,,,,,,,,,8/8 Overcast,2000.0,,SCT,900.0,OVC,2000.0,,,,
KRDR,02-08-2001,22:00,METAR,,350,19.0,,,2400,Light Snow/Blowing Snow/Cloud Development Not Observable,-15.0,-16.0,30.31,1029.2,,,,71,38,0,,,,,,,,,8/8 Overcast,2500.0,,SCT,800.0,OVC,2500.0,,,,
KRDR,02-08-2001,21:42,SPECI,,340,20.0,,,1600,Light Snow/Blowing Snow/Cloud Development Not Observable,-15.0,-16.0,30.32,,,,,71,38,0,,,,,,,,,8/8 Overcast,2800.0,,FEW,1000.0,OVC,2800.0,,,,
KRDR,02-08-2001,21:00,METAR,,360,21.0,,,3200,Light Snow/Mist/Cloud Development Not Observable,-16.0,-16.0,30.31,1029.2,,,,71,10,0,,,,,,,,,8/8 Overcast,2800.0,,FEW,1000.0,OVC,2800.0,,,,
KRDR,02-08-2001,20:00,METAR,,360,19.0,,,3200,Light Snow/Mist/Cloud Development Not Observable,-15.0,-17.0,30.33,1029.7,,,,71,10,0,,,,,,,,,8/8 Overcast,2800.0,,FEW,1000.0,OVC,2800.0,,,,
KRDR,02-08-2001,19:20,METAR,,350,17.0,,,2400,Light Snow/Mist/Cloud Development Not Observable,-15.0,-17.0,30.34,,,,,71,10,0,,,,,,,,,8/8 Overcast,2800.0,,FEW,1000.0,OVC,2800.0,,,,
KRDR,02-08-2001,19:00,METAR,,350,15.0,,,4000,Light Snow/Mist/Cloud Development Not Observable,-15.0,-17.0,30.35,1030.4,,,,71,10,0,,,,,,,,,8/8 Overcast,3000.0,,FEW,1500.0,BKN,3000.0,OVC,5000.0,,
KRDR,02-08-2001,18:46,SPECI,,350,16.0,,,4000,Light Snow/Mist/Cloud Development Not Observable,-15.0,-17.0,30.35,,,,,71,10,0,,,,,,,,,8/8 Overcast,3000.0,,FEW,1500.0,BKN,3000.0,OVC,5000.0,,
KRDR,02-08-2001,18:00,METAR,,360,16.0,,,9999,Light Snow/Mist/Cloud Development Not Observable,-16.0,-18.0,30.35,1030.6,,,,71,10,0,,,,,,,,,8/8 Overcast,7000.0,,FEW,2500.0,SCT,4000.0,OVC,6900.0,,
KRDR,02-08-2001,17:26,SPECI,,360,17.0,,,9999,Light Snow/Mist/Cloud Development Not Observable,-16.0,-18.0,30.36,,,,,71,10,0,,,,,,,,,,72000.0,,,,,,,,,
KRDR,02-08-2001,17:00,METAR,,360,15.0,,,9999,Mist/Cloud Development Not Observable,-17.0,-18.0,30.36,1030.8,,,,10,0,0,,,,,,,,,8/8 Overcast,3900.0,,FEW,2500.0,BKN,4000.0,OVC,8900.0,,
KRDR,02-08-2001,16:00,METAR,,350,14.0,,,9999,Cloud Development Not Observable,-18.0,-19.0,30.37,1031.4,,,,0,0,0,,,,,,,,,8/8 Overcast,8000.0,,SCT,4000.0,BKN,7900.0,OVC,18000.0,,
KRDR,02-08-2001,15:00,METAR,,360,16.0,,,9999,Cloud Development Not Observable,-18.0,-19.0,30.38,1031.6,,,,0,0,0,,,,,,,,,8/8 Overcast,9000.0,,SCT,4500.0,OVC,8900.0,,,,
KRDR,02-08-2001,14:00,METAR,,360,15.0,,,9999,Cloud Development Not Observable,-18.0,-19.0,30.37,1031.4,,,,0,0,0,,,,,,,,,8/8 Overcast,9000.0,,SCT,4500.0,OVC,8900.0,,,,
KRDR,02-08-2001,13:00,METAR,,350,16.0,,,9999,Cloud Development Not Observable,-18.0,-19.0,30.36,1030.9,,,,0,0,0,,,,,,,,,8/8 Overcast,9000.0,,FEW,4000.0,OVC,8900.0,,,,
KRDR,02-08-2001,12:00,METAR,,350,15.0,,,9999,Cloud Development Not Observable,-17.0,-19.0,30.35,1030.4,,,,0,0,0,,,,,,,,,8/8 Overcast,8000.0,,FEW,4000.0,OVC,7900.0,,,,
KRDR,02-08-2001,11:00,METAR,,360,15.0,,,9999,Cloud Development Not Observable,-17.0,-19.0,30.34,1030.0,,,,0,0,0,,,,,,,,,8/8 Overcast,9000.0,,FEW,4000.0,OVC,8900.0,,,,
KRDR,02-08-2001,10:00,METAR,,360,15.0,,,9999,Cloud Development Not Observable,-17.0,-18.0,30.34,1030.0,,,,0,0,0,,,,,,,,,8/8 Overcast,11000.0,,OVC,11000.0,,,,,,
KRDR,02-08-2001,09:00,METAR,,360,14.0,,,9999,Cloud Development Not Observable,-17.0,-18.0,30.37,1031.1,,,,0,0,0,,,,,,,,,8/8 Overcast,11000.0,,FEW,4000.0,OVC,11000.0,,,,
KRDR,02-08-2001,08:00,METAR,,360,14.0,,,9999,Cloud Development Not Observable,-17.0,-18.0,30.37,1031.1,,,,0,0,0,,,,,,,,,8/8 Overcast,11000.0,,FEW,5900.0,OVC,11000.0,,,,
KRDR,02-08-2001,07:29,SPECI,,360,13.0,,,9999,Cloud Development Not Observable,-17.0,-18.0,30.38,,,,,0,0,0,,,,,,,,,8/8 Overcast,10000.0,,FEW,3000.0,SCT,5900.0,OVC,9900.0,,
KRDR,02-08-2001,07:00,METAR,,360,15.0,,,9999,Light Snow/Cloud Development Not Observable,-17.0,-18.0,30.37,1031.1,,,,71,0,0,,,,,,,,,8/8 Overcast,10000.0,,SCT,3000.0,OVC,9900.0,,,,
KRDR,02-08-2001,06:00,METAR,,360,14.0,,,9999,Light Snow/Cloud Development Not Observable,-16.0,-18.0,30.38,1031.4,,,,71,0,0,,,,,,,,,8/8 Overcast,6000.0,,BKN,5900.0,OVC,12000.0,,,,
KRDR,02-08-2001,05:00,METAR,,350,15.0,,,9999,Cloud Development Not Observable,-16.0,-17.0,30.37,1031.1,,,,0,0,0,,,,,,,,,8/8 Overcast,13000.0,,FEW,5900.0,SCT,8900.0,OVC,13000.0,,
KRDR,02-08-2001,03:00,METAR,,350,13.0,,,9999,Cloud Development Not Observable,-16.0,-17.0,30.37,1031.1,,,,0,0,0,,,,,,,,,8/8 Overcast,13000.0,,FEW,5900.0,SCT,8900.0,OVC,13000.0,,
KRDR,02-08-2001,02:00,METAR,,360,11.0,,,9999,Cloud Development Not Observable,-16.0,-17.0,30.37,1031.1,,,,0,0,0,,,,,,,,,8/8 Overcast,9000.0,,SCT,5900.0,OVC,8900.0,,,,
KRDR,02-08-2001,01:00,METAR,,360,12.0,,,9999,Cloud Development Not Observable,-16.0,-17.0,30.35,1030.6,,,,0,0,0,,,,,,,,,8/8 Overcast,9000.0,,SCT,5900.0,OVC,8900.0,,,,
KRDR,02-08-2001,00:00,METAR,,360,13.0,,,9999,Cloud Development Not Observable,-15.0,-16.0,30.33,1029.9,,,,0,0,0,,,,,,,,,8/8 Overcast,9000.0,,SCT,5900.0,OVC,8900.0,,,,
KRDR,02-07-2001,23:00,METAR,,360,13.0,,,9999,Cloud Development Not Observable,-14.0,-15.0,30.33,1029.8,,,,0,0,0,,,,,,,,,8/8 Overcast,9000.0,,SCT,5900.0,BKN,8900.0,OVC,12000.0,,
KRDR,02-07-2001,22:00,METAR,,10,12.0,,,9999,Cloud Development Not Observable,-13.0,-14.0,30.34,1030.0,,,,0,0,0,,,,,,,,,8/8 Overcast,9000.0,,BKN,8900.0,OVC,12000.0,,,,
KRDR,02-07-2001,21:00,METAR,,10,11.0,,,9999,Cloud Development Not Observable,-13.0,-15.0,30.33,1029.7,,,,0,0,0,,,,,,,,,7/8 Mostly Cloudy,9000.0,,BKN,8900.0,,,,,,
KRDR,02-07-2001,20:00,METAR,,10,12.0,,,9999,Cloud Development Not Observable,-13.0,-14.0,30.33,1029.8,,,,0,0,0,,,,,,,,,7/8 Mostly Cloudy,9000.0,,BKN,8900.0,,,,,,
KRDR,02-07-2001,19:00,METAR,,350,9.0,,,9999,Cloud Development Not Observable,-13.0,-15.0,30.35,1030.4,,,,0,0,0,,,,,,,,,7/8 Mostly Cloudy,12000.0,,SCT,4000.0,SCT,7900.0,BKN,12000.0,,
KRDR,02-07-2001,18:00,METAR,,340,8.0,,,9999,Cloud Development Not Observable,-14.0,-16.0,30.36,1030.6,,,,0,0,0,,,,,,,,,7/8 Mostly Cloudy,12000.0,,SCT,4000.0,SCT,7900.0,BKN,12000.0,,
KRDR,02-07-2001,17:47,SPECI,,340,8.0,,,9999,Cloud Development Not Observable,-14.0,-15.0,30.35,,,,,0,0,0,,,,,,,,,7/8 Mostly Cloudy,12000.0,,SCT,4000.0,SCT,7900.0,BKN,12000.0,,
KRDR,02-07-2001,17:33,SPECI,,340,8.0,,,9999,Light Snow/Cloud Development Not Observable,-14.0,-15.0,30.35,,,,,71,0,0,,,,,,,,,7/8 Mostly Cloudy,12000.0,,SCT,4000.0,SCT,7900.0,BKN,12000.0,,
KRDR,02-07-2001,17:00,METAR,,340,8.0,,,9999,Cloud Development Not Observable,-14.0,-15.0,30.35,1030.2,,,,0,0,0,,,,,,,,,7/8 Mostly Cloudy,12000.0,,SCT,4000.0,SCT,7900.0,BKN,12000.0,,
KRDR,02-07-2001,16:27,SPECI,,340,9.0,,,9999,Cloud Development Not Observable,-14.0,-15.0,30.34,,,,,0,0,0,,,,,,,,,7/8 Mostly Cloudy,8000.0,,BKN,7900.0,,,,,,
KRDR,02-07-2001,16:00,METAR,,360,9.0,,,9999,Light Snow/Cloud Development Not Observable,-14.0,-15.0,30.33,1029.6,,,,71,0,0,,,,,,,,,7/8 Mostly Cloudy,8000.0,,FEW,1000.0,BKN,7900.0,,,,
KRDR,02-07-2001,15:00,METAR,,330,7.0,,,8000,Light Snow/Cloud Development Not Observable,-15.0,-15.0,30.33,1029.6,,,,71,0,0,,,,,,,,,7/8 Mostly Cloudy,8000.0,,FEW,1000.0,BKN,7900.0,,,,
KRDR,02-07-2001,14:37,SPECI,,330,7.0,,,8000,Light Snow/Cloud Development Not Observable,-15.0,-15.0,30.31,,,,,71,0,0,,,,,,,,,7/8 Mostly Cloudy,8000.0,,SCT,1000.0,BKN,7900.0,,,,
KRDR,02-07-2001,14:00,METAR,,330,4.0,,,9999,Cloud Development Not Observable,-15.0,-16.0,30.31,1028.9,,,,0,0,0,,,,,,,,,7/8 Mostly Cloudy,8500.0,,BKN,8400.0,,,,,,
KRDR,02-07-2001,13:00,METAR,,200,3.0,,,9999,Cloud Development Not Observable,-16.0,-16.0,30.31,1028.7,,,,0,0,0,,,,,,,,,7/8 Mostly Cloudy,10000.0,,BKN,9900.0,,,,,,
KRDR,02-07-2001,12:00,METAR,,,,,,9999,Cloud Development Not Observable,-17.0,-18.0,30.27,1027.5,,,,0,0,0,,,,,,,,,7/8 Mostly Cloudy,10000.0,,SCT,800.0,BKN,9900.0,,,,
KRDR,02-07-2001,11:00,METAR,,210,4.0,,,9999,Cloud Development Not Observable,-17.0,-17.0,30.27,1027.5,,,,0,0,0,,,,,,,,,4/8 Partly Cloudy,72000.0,,FEW,2000.0,SCT,8900.0,,,,
KRDR,02-07-2001,10:00,METAR,,,2.0,,,9999,Cloud Development Not Observable,-17.0,-17.0,30.25,1026.8,,,,0,0,0,,,,,,,,,4/8 Partly Cloudy,72000.0,,FEW,2000.0,SCT,8900.0,,,,
KRDR,02-07-2001,09:00,METAR,,290,4.0,,,9999,Cloud Development Not Observable,-18.0,-18.0,30.25,1026.8,,,,0,0,0,,,,,,,,,4/8 Partly Cloudy,72000.0,,FEW,2000.0,SCT,8900.0,,,,
KRDR,02-07-2001,08:00,METAR,,240,4.0,,,9999,Cloud Development Not Observable,-17.0,-17.0,30.24,1026.4,,,,0,0,0,,,,,,,,,4/8 Partly Cloudy,72000.0,,SCT,2000.0,,,,,,
KRDR,02-07-2001,07:48,SPECI,,230,3.0,,,9999,Cloud Development Not Observable,-17.0,-17.0,30.24,,,,,0,0,0,,,,,,,,,4/8 Partly Cloudy,72000.0,,SCT,2000.0,,,,,,
KRDR,02-07-2001,07:19,SPECI,,290,4.0,,,9999,Cloud Development Not Observable,-16.0,-16.0,30.24,,,,,0,0,0,,,,,,,,,7/8 Mostly Cloudy,2000.0,,BKN,2000.0,,,,,,
KRDR,02-07-2001,07:00,METAR,,240,6.0,,,9999,Cloud Development Not Observable,-17.0,-17.0,30.24,1026.5,,,,0,0,0,,,,,,,,,4/8 Partly Cloudy,72000.0,,SCT,2000.0,,,,,,
KRDR,02-07-2001,06:00,METAR,,290,5.0,,,9999,Cloud Development Not Observable,-14.0,-14.0,30.22,1025.7,,,,0,0,0,,,,,,,,,4/8 Partly Cloudy,72000.0,,FEW,2000.0,FEW,3000.0,SCT,4000.0,,
KRDR,02-07-2001,05:00,METAR,,350,7.0,,,9999,Cloud Development Not Observable,-13.0,-14.0,30.19,1024.7,,,,0,0,0,,,,,,,,,7/8 Mostly Cloudy,3900.0,,FEW,2000.0,SCT,3000.0,BKN,4000.0,,
KRDR,02-07-2001,04:00,METAR,,340,8.0,,,9999,Light Snow/Cloud Development Not Observable,-12.0,-13.0,30.17,1024.0,,,,71,0,0,,,,,,,,,7/8 Mostly Cloudy,3900.0,,FEW,2000.0,SCT,3000.0,BKN,4000.0,,
KRDR,02-07-2001,03:00,METAR,,350,12.0,,,9999,Light Snow/Cloud Development Not Observable,-10.0,-11.0,30.16,1023.5,,,,71,0,0,,,,,,,,,7/8 Mostly Cloudy,3900.0,,FEW,3000.0,BKN,4000.0,,,,
KRDR,02-07-2001,02:26,SPECI,,350,10.0,,,9999,Light Snow/Cloud Development Not Observable,-10.0,-11.0,30.17,,,,,71,0,0,,,,,,,,,7/8 Mostly Cloudy,3900.0,,FEW,1800.0,SCT,3000.0,BKN,4000.0,,
KRDR,02-07-2001,02:00,METAR,,330,13.0,,,8000,Light Snow/Cloud Development Not Observable,-10.0,-11.0,30.15,1023.2,,,,71,0,0,,,,,,,,,7/8 Mostly Cloudy,1800.0,,BKN,1800.0,BKN,3000.0,,,,
KRDR,02-07-2001,01:11,SPECI,,290,12.0,,,8000,Light Snow/Cloud Development Not Observable,-9.0,-11.0,30.14,,,,,71,0,0,,,,,,,,,7/8 Mostly Cloudy,2000.0,,BKN,2000.0,BKN,3000.0,,,,
KRDR,02-07-2001,01:00,METAR,,290,12.0,,,9999,Cloud Development Not Observable,-9.0,-11.0,30.13,1022.2,,,,0,0,0,,,,,,,,,7/8 Mostly Cloudy,3000.0,,SCT,2500.0,BKN,3000.0,,,,
KRDR,02-07-2001,00:00,METAR,,280,16.0,,,9999,Cloud Development Not Observable,-8.0,-11.0,30.12,1022.0,,,,0,0,0,,,,,,,,,7/8 Mostly Cloudy,3000.0,,SCT,2000.0,BKN,3000.0,,,,
KRDR,02-06-2001,23:00,METAR,,270,13.0,,,9999,Cloud Development Not Observable,-7.0,-10.0,30.10,1021.3,,,,0,0,0,,,,,,,,,7/8 Mostly Cloudy,3900.0,,SCT,2000.0,BKN,4000.0,,,,
KRDR,02-06-2001,22:00,METAR,,280,16.0,,,9999,Cloud Development Not Observable,-5.0,-9.0,30.08,1020.2,,,,0,0,0,,,,,,,,,4/8 Partly Cloudy,72000.0,,SCT,2000.0,SCT,4000.0,,,,
KRDR,02-06-2001,21:00,METAR,,280,10.0,,,9999,Cloud Development Not Observable,-4.0,-7.0,30.06,1019.8,,,,0,0,0,,,,,,,,,7/8 Mostly Cloudy,3900.0,,BKN,4000.0,BKN,9900.0,,,,
KRDR,02-06-2001,20:00,METAR,,250,8.0,,,9999,Cloud Development Not Observable,-4.0,-8.0,30.07,1020.0,,,,0,0,0,,,,,,,,,4/8 Partly Cloudy,72000.0,,FEW,4600.0,SCT,12000.0,,,,
KRDR,02-06-2001,19:00,METAR,,230,9.0,,,9999,Cloud Development Not Observable,-5.0,-8.0,30.08,1020.1,,,,0,0,0,,,,,,,,,4/8 Partly Cloudy,72000.0,,SCT,12000.0,,,,,,
KRDR,02-06-2001,17:00,METAR,,,2.0,,,9999,Cloud Development Not Observable,-7.0,-9.0,30.09,1020.6,,,,0,0,0,,,,,,,,,7/8 Mostly Cloudy,9000.0,,FEW,3000.0,BKN,8900.0,,,,
KRDR,02-06-2001,16:32,SPECI,,340,5.0,,,9999,Cloud Development Not Observable,-8.0,-10.0,30.09,,,,,0,0,0,,,,,,,,,7/8 Mostly Cloudy,8000.0,,SCT,2500.0,BKN,7900.0,,,,
KRDR,02-06-2001,16:27,SPECI,,340,5.0,,,9999,Cloud Development Not Observable,-8.0,-10.0,30.09,,,,,0,0,0,,,,,,,,,7/8 Mostly Cloudy,8000.0,,SCT,2500.0,BKN,7900.0,,,,
KRDR,02-06-2001,16:00,METAR,,360,6.0,,,9999,Light Snow/Cloud Development Not Observable,-8.0,-10.0,30.09,1020.7,,,,71,0,0,,,,,,,,,7/8 Mostly Cloudy,2000.0,,BKN,2000.0,BKN,3500.0,,,,
KRDR,02-06-2001,15:00,METAR,,20,8.0,,,9999,Light Snow/Cloud Development Not Observable,-8.0,-10.0,30.07,1020.1,,,,71,0,0,,,,,,,,,7/8 Mostly Cloudy,1500.0,,BKN,1500.0,BKN,3500.0,,,,
KRDR,02-06-2001,14:00,METAR,,330,9.0,,,8000,Light Snow/Cloud Development Not Observable,-8.0,-9.0,30.05,1019.6,,,,71,0,0,,,,,,,,,8/8 Overcast,2000.0,,OVC,2000.0,,,,,,
KRDR,02-06-2001,13:00,METAR,,330,8.0,,,9999,Light Snow/Cloud Development Not Observable,-7.0,-9.0,30.04,1019.3,,,,71,0,0,,,,,,,,,8/8 Overcast,2000.0,,OVC,2000.0,,,,,,
KRDR,02-06-2001,12:30,METAR,,330,9.0,,,9999,Light Snow/Cloud Development Not Observable,-7.0,-9.0,30.04,,,,,71,0,0,,,,,,,,,8/8 Overcast,2000.0,,OVC,2000.0,,,,,,
KRDR,02-06-2001,12:00,METAR,,360,8.0,,,9999,Cloud Development Not Observable,-7.0,-9.0,30.03,1018.9,,,,0,0,0,,,,,,,,,8/8 Overcast,2000.0,,OVC,2000.0,,,,,,
KRDR,02-06-2001,11:00,METAR,,10,10.0,,,9999,Cloud Development Not Observable,-7.0,-9.0,30.01,1018.2,,,,0,0,0,,,,,,,,,8/8 Overcast,2000.0,,OVC,2000.0,,,,,,
KRDR,02-06-2001,10:20,METAR,,360,12.0,,,9999,Cloud Development Not Observable,-6.0,-8.0,30.01,,,,,0,0,0,,,,,,,,,8/8 Overcast,2000.0,,OVC,2000.0,,,,,,
KRDR,02-06-2001,10:00,METAR,,360,9.0,,,9999,Cloud Development Not Observable,-5.0,-8.0,30.01,1017.8,,,,0,0,0,,,,,,,,,8/8 Overcast,3000.0,,BKN,3000.0,OVC,5000.0,,,,
KRDR,02-06-2001,09:00,METAR,,40,7.0,,,9999,Cloud Development Not Observable,-4.0,-5.0,29.99,1017.3,,,,0,0,0,,,,,,,,,8/8 Overcast,3900.0,,BKN,4000.0,OVC,5000.0,,,,
KRDR,02-06-2001,08:00,METAR,,290,4.0,,,9999,Cloud Development Not Observable,-4.0,-5.0,29.98,1016.9,,,,0,0,0,,,,,,,,,8/8 Overcast,3900.0,,BKN,4000.0,OVC,5000.0,,,,
KRDR,02-06-2001,07:00,METAR,,290,7.0,,,9999,Cloud Development Not Observable,-4.0,-5.0,29.98,1016.9,,,,0,0,0,,,,,,,,,8/8 Overcast,3900.0,,BKN,4000.0,OVC,5000.0,,,,
KRDR,02-06-2001,06:00,METAR,,290,10.0,,,9999,Cloud Development Not Observable,-4.0,-6.0,29.98,1016.7,,,,0,0,0,,,,,,,,,8/8 Overcast,3900.0,,BKN,4000.0,OVC,5000.0,,,,
KRDR,02-06-2001,05:00,METAR,,290,11.0,,,9999,Light Snow/Cloud Development Not Observable,-4.0,-6.0,29.97,1016.5,,,,71,0,0,,,,,,,,,8/8 Overcast,3900.0,,SCT,1700.0,BKN,4000.0,OVC,5000.0,,
KRDR,02-06-2001,04:00,METAR,,280,9.0,,,9999,Light Snow/Cloud Development Not Observable,-4.0,-6.0,29.95,1016.0,,,,71,0,0,,,,,,,,,7/8 Mostly Cloudy,3400.0,,SCT,1700.0,BKN,3500.0,,,,
KRDR,02-06-2001,03:28,SPECI,,280,8.0,,,9999,Light Snow/Cloud Development Not Observable,-4.0,-6.0,29.95,,,,,71,0,0,,,,,,,,,7/8 Mostly Cloudy,3400.0,,SCT,1700.0,BKN,3500.0,,,,
KRDR,02-06-2001,03:00,METAR,,290,9.0,,,9999,Cloud Development Not Observable,-4.0,-6.0,29.94,1015.7,,,,0,0,0,,,,,,,,,7/8 Mostly Cloudy,1700.0,,BKN,1700.0,BKN,4000.0,,,,
KRDR,02-06-2001,02:35,SPECI,,290,9.0,,,9999,Cloud Development Not Observable,-4.0,-6.0,29.94,,,,,0,0,0,,,,,,,,,7/8 Mostly Cloudy,1900.0,,BKN,1900.0,BKN,4000.0,,,,
KRDR,02-06-2001,02:00,METAR,,300,9.0,,,9999,Cloud Development Not Observable,-4.0,-6.0,29.93,1015.3,,,,0,0,0,,,,,,,,,7/8 Mostly Cloudy,3900.0,,SCT,1900.0,BKN,4000.0,,,,
KRDR,02-06-2001,01:00,METAR,,290,9.0,,,9999,Cloud Development Not Observable,-5.0,-7.0,29.91,1014.6,,,,0,0,0,,,,,,,,,7/8 Mostly Cloudy,3900.0,,BKN,4000.0,,,,,,
KRDR,02-06-2001,00:00,METAR,,300,12.0,,,9999,Cloud Development Not Observable,-5.0,-7.0,29.89,1013.7,,,,0,0,0,,,,,,,,,4/8 Partly Cloudy,72000.0,,FEW,2900.0,SCT,4500.0,,,,
KRDR,02-05-2001,23:00,METAR,,280,10.0,,,9999,Cloud Development Not Observable,-5.0,-8.0,29.86,1013.0,,,,0,0,0,,,,,,,,,4/8 Partly Cloudy,72000.0,,SCT,7900.0,,,,,,
KRDR,02-05-2001,22:00,METAR,,280,8.0,,,9999,Cloud Development Not Observable,-3.0,-7.0,29.85,1012.4,,,,0,0,0,,,,,,,,,2/8 Mostly Clear,72000.0,,FEW,9900.0,FEW,20000.0,,,,
KRDR,02-05-2001,21:00,METAR,,290,12.0,,,9999,Cloud Development Not Observable,-3.0,-7.0,29.83,1011.7,,,,0,0,0,,,,,,,,,2/8 Mostly Clear,72000.0,,FEW,9900.0,FEW,20000.0,,,,
KRDR,02-05-2001,20:00,METAR,,300,12.0,,,9999,Cloud Development Not Observable,-3.0,-8.0,29.82,1011.5,,,,0,0,0,,,,,,,,,2/8 Mostly Clear,72000.0,,FEW,7900.0,,,,,,
KRDR,02-05-2001,19:00,METAR,,310,14.0,,,9999,Cloud Development Not Observable,-3.0,-8.0,29.82,1011.3,,,,0,0,0,,,,,,,,,2/8 Mostly Clear,72000.0,,FEW,7900.0,,,,,,
KRDR,02-05-2001,18:00,METAR,,300,17.0,,,9999,Cloud Development Not Observable,-3.0,-8.0,29.82,1011.5,,,,0,0,0,,,,,,,,,2/8 Mostly Clear,72000.0,,FEW,7900.0,FEW,20000.0,,,,
KRDR,02-05-2001,17:00,METAR,,300,12.0,,,9999,Cloud Development Not Observable,-4.0,-9.0,29.82,1011.4,,,,0,0,0,,,,,,,,,4/8 Partly Cloudy,72000.0,,FEW,11000.0,SCT,20000.0,,,,
KRDR,02-05-2001,16:00,METAR,,,4.0,,,9999,Cloud Development Not Observable,-6.0,-9.0,29.82,1011.5,,,,0,0,0,,,,,,,,,4/8 Partly Cloudy,72000.0,,FEW,7900.0,FEW,11000.0,SCT,20000.0,,
KRDR,02-05-2001,15:00,METAR,,340,6.0,,,9999,Cloud Development Not Observable,-8.0,-9.0,29.80,1011.0,,,,0,0,0,,,,,,,,,7/8 Mostly Cloudy,20000.0,,FEW,7900.0,SCT,11000.0,BKN,20000.0,,
KRDR,02-05-2001,14:00,METAR,,280,7.0,,,9999,Cloud Development Not Observable,-7.0,-9.0,29.80,1011.1,,,,0,0,0,,,,,,,,,7/8 Mostly Cloudy,20000.0,,SCT,7900.0,SCT,11000.0,BKN,20000.0,,
KRDR,02-05-2001,13:34,SPECI,,280,7.0,,,9999,Cloud Development Not Observable,-8.0,-9.0,29.79,,,,,0,0,0,,,,,,,,,7/8 Mostly Cloudy,11000.0,,SCT,7900.0,BKN,11000.0,BKN,20000.0,,
KRDR,02-05-2001,13:00,METAR,,240,2.0,,,9999,Cloud Development Not Observable,-6.0,-7.0,29.79,1010.7,,,,0,0,0,,,,,,,,,7/8 Mostly Cloudy,8000.0,,BKN,7900.0,BKN,11000.0,BKN,20000.0,,
KRDR,02-05-2001,12:00,METAR,,230,7.0,,,9999,Cloud Development Not Observable,-5.0,-7.0,29.79,1010.6,,,,0,0,0,,,,,,,,,8/8 Overcast,8000.0,,BKN,7900.0,OVC,20000.0,,,,
KRDR,02-05-2001,11:00,METAR,,230,8.0,,,9999,Cloud Development Not Observable,-5.0,-7.0,29.81,1011.1,,,,0,0,0,,,,,,,,,8/8 Overcast,8000.0,,BKN,7900.0,OVC,20000.0,,,,
KRDR,02-05-2001,10:00,METAR,,250,7.0,,,9999,Cloud Development Not Observable,-3.0,-6.0,29.82,1011.2,,,,0,0,0,,,,,,,,,8/8 Overcast,8000.0,,BKN,7900.0,OVC,20000.0,,,,
KRDR,02-05-2001,09:00,METAR,,290,8.0,,,9999,Cloud Development Not Observable,-4.0,-6.0,29.83,1011.8,,,,0,0,0,,,,,,,,,8/8 Overcast,10000.0,,BKN,9900.0,OVC,20000.0,,,,
KRDR,02-05-2001,08:00,METAR,,290,9.0,,,9999,Cloud Development Not Observable,-3.0,-6.0,29.84,1012.2,,,,0,0,0,,,,,,,,,8/8 Overcast,10000.0,,BKN,9900.0,OVC,20000.0,,,,
KRDR,02-05-2001,07:00,METAR,,280,10.0,,,9999,Cloud Development Not Observable,-4.0,-6.0,29.85,1012.4,,,,0,0,0,,,,,,,,,7/8 Mostly Cloudy,10000.0,,BKN,9900.0,,,,,,
KRDR,02-05-2001,06:00,METAR,,290,8.0,,,9999,Cloud Development Not Observable,-3.0,-7.0,29.88,1013.6,,,,0,0,0,,,,,,,,,4/8 Partly Cloudy,72000.0,,SCT,9900.0,,,,,,
KRDR,02-05-2001,05:00,METAR,,280,9.0,,,9999,Cloud Development Not Observable,-5.0,-7.0,29.89,1013.9,,,,0,0,0,,,,,,,,,4/8 Partly Cloudy,72000.0,,FEW,9900.0,SCT,20000.0,,,,
KRDR,02-05-2001,04:00,METAR,,280,7.0,,,9999,Cloud Development Not Observable,-6.0,-8.0,29.92,1015.0,,,,0,0,0,,,,,,,,,4/8 Partly Cloudy,72000.0,,SCT,20000.0,,,,,,
KRDR,02-05-2001,03:00,METAR,,280,7.0,,,9999,Cloud Development Not Observable,-5.0,-7.0,29.93,1015.4,,,,0,0,0,,,,,,,,,4/8 Partly Cloudy,72000.0,,SCT,20000.0,,,,,,
KRDR,02-05-2001,02:00,METAR,,230,4.0,,,9999,Cloud Development Not Observable,-8.0,-9.0,29.95,1016.1,,,,0,0,0,,,,,,,,,4/8 Partly Cloudy,72000.0,,SCT,20000.0,,,,,,
KRDR,02-05-2001,01:00,METAR,,200,7.0,,,9999,Cloud Development Not Observable,-6.0,-8.0,29.97,1016.8,,,,0,0,0,,,,,,,,,4/8 Partly Cloudy,72000.0,,SCT,20000.0,,,,,,
KRDR,02-05-2001,00:00,METAR,,210,7.0,,,9999,Cloud Development Not Observable,-5.0,-7.0,29.99,1017.4,,,,0,0,0,,,,,,,,,4/8 Partly Cloudy,72000.0,,FEW,9900.0,SCT,20000.0,,,,
KRDR,02-04-2001,23:00,METAR,,200,7.0,,,9999,Cloud Development Not Observable,-2.0,-5.0,30.00,1017.6,,,,0,0,0,,,,,,,,,4/8 Partly Cloudy,72000.0,,FEW,9900.0,SCT,20000.0,,,,
KRDR,02-04-2001,22:00,METAR,,220,9.0,,,9999,Cloud Development Not Observable,-1.0,-5.0,30.01,1017.9,,,,0,0,0,,,,,,,,,4/8 Partly Cloudy,72000.0,,FEW,1200.0,FEW,9900.0,SCT,20000.0,,
KRDR,02-04-2001,21:00,METAR,,200,10.0,,,9999,Cloud Development Not Observable,-1.0,-4.0,30.02,1018.5,,,,0,0,0,,,,,,,,,4/8 Partly Cloudy,72000.0,,SCT,1200.0,SCT,9900.0,,,,
KRDR,02-04-2001,20:16,SPECI,,200,12.0,,,9999,Cloud Development Not Observable,-1.0,-4.0,30.03,,,,,0,0,0,,,,,,,,,4/8 Partly Cloudy,72000.0,,SCT,1200.0,SCT,20000.0,,,,
KRDR,02-04-2001,20:00,METAR,,190,10.0,,,9999,Cloud Development Not Observable,-2.0,-4.0,30.04,1019.2,,,,0,0,0,,,,,,,,,7/8 Mostly Cloudy,1200.0,,BKN,1200.0,,,,,,
KRDR,02-04-2001,19:00,METAR,,190,11.0,,,9999,Cloud Development Not Observable,-4.0,-5.0,30.09,1020.7,,,,0,0,0,,,,,,,,,8/8 Overcast,1200.0,,OVC,1200.0,,,,,,
KRDR,02-04-2001,18:00,METAR,,200,11.0,,,9999,Cloud Development Not Observable,-5.0,-7.0,30.10,1021.1,,,,0,0,0,,,,,,,,,8/8 Overcast,1200.0,,OVC,1200.0,,,,,,
KRDR,02-04-2001,17:00,METAR,,180,11.0,,,9999,Cloud Development Not Observable,-6.0,-8.0,30.11,1021.4,,,,0,0,0,,,,,,,,,8/8 Overcast,1200.0,,OVC,1200.0,,,,,,
KRDR,02-04-2001,16:00,METAR,,160,8.0,,,9999,Mist/Cloud Development Not Observable,-8.0,-9.0,30.12,1021.9,,,,10,0,0,,,,,,,,,8/8 Overcast,1200.0,,OVC,1200.0,,,,,,
KRDR,02-04-2001,15:00,METAR,,200,6.0,,,9999,Mist/Cloud Development Not Observable,-8.0,-9.0,30.13,1022.2,,,,10,0,0,,,,,,,,,8/8 Overcast,1200.0,,OVC,1200.0,,,,,,
KRDR,02-04-2001,14:00,METAR,,240,4.0,,,9999,Cloud Development Not Observable,-9.0,-10.0,30.14,1022.6,,,,0,0,0,,,,,,,,,8/8 Overcast,1200.0,,OVC,1200.0,,,,,,
KRDR,02-04-2001,13:00,METAR,,320,4.0,,,9999,Cloud Development Not Observable,-9.0,-10.0,30.13,1022.2,,,,0,0,0,,,,,,,,,8/8 Overcast,1200.0,,OVC,1200.0,,,,,,
KRDR,02-04-2001,12:31,SPECI,,340,5.0,,,9999,Cloud Development Not Observable,-9.0,-10.0,30.13,,,,,0,0,0,,,,,,,,,8/8 Overcast,1200.0,,OVC,1200.0,,,,,,
KRDR,02-04-2001,12:00,METAR,,340,7.0,,,9999,Cloud Development Not Observable,-9.0,-10.0,30.12,1021.9,,,,0,0,0,,,,,,,,,8/8 Overcast,900.0,,OVC,900.0,,,,,,
KRDR,02-04-2001,11:00,METAR,,340,7.0,,,9999,Cloud Development Not Observable,-9.0,-9.0,30.11,1021.4,,,,0,0,0,,,,,,,,,8/8 Overcast,900.0,,OVC,900.0,,,,,,
KRDR,02-04-2001,10:30,METAR,,340,8.0,,,9999,Cloud Development Not Observable,-9.0,-9.0,30.10,,,,,0,0,0,,,,,,,,,8/8 Overcast,800.0,,OVC,800.0,,,,,,
KRDR,02-04-2001,10:00,METAR,,350,11.0,,,9999,Light Snow/Cloud Development Not Observable,-9.0,-9.0,30.10,1021.0,,,,71,0,0,,,,,,,,,8/8 Overcast,800.0,,OVC,800.0,,,,,,
KRDR,02-04-2001,09:25,METAR,,350,12.0,,,8000,Light Snow/Cloud Development Not Observable,-9.0,-9.0,30.10,,,,,71,0,0,,,,,,,,,8/8 Overcast,800.0,,OVC,800.0,,,,,,
KRDR,02-04-2001,09:00,METAR,,350,13.0,,,9999,Diamond Dust/Mist/Cloud Development Not Observable,-9.0,-9.0,30.10,1020.9,,,,76,10,0,,,,,,,,,8/8 Overcast,600.0,,BKN,600.0,OVC,1200.0,,,,
KRDR,02-04-2001,08:15,SPECI,,330,10.0,,,9999,Diamond Dust/Mist/Cloud Development Not Observable,-9.0,-9.0,30.08,,,,,76,10,0,,,,,,,,,8/8 Overcast,600.0,,BKN,600.0,OVC,1200.0,,,,
KRDR,02-04-2001,08:00,METAR,,330,11.0,,,9999,Mist/Cloud Development Not Observable,-9.0,-9.0,30.07,1020.0,,,,10,0,0,,,,,,,,,8/8 Overcast,600.0,,BKN,600.0,OVC,1200.0,,,,
KRDR,02-04-2001,07:48,SPECI,,340,11.0,,,9999,Mist/Cloud Development Not Observable,-9.0,-9.0,30.07,,,,,10,0,0,,,,,,,,,8/8 Overcast,600.0,,OVC,600.0,,,,,,
KRDR,02-04-2001,07:00,METAR,,340,13.0,,,9999,Mist/Cloud Development Not Observable,-9.0,-9.0,30.05,1019.5,,,,10,0,0,,,,,,,,,8/8 Overcast,1200.0,,OVC,1200.0,,,,,,
KRDR,02-04-2001,06:00,METAR,,350,14.0,,,9999,Mist/Cloud Development Not Observable,-9.0,-10.0,30.03,1018.7,,,,10,0,0,,,,,,,,,8/8 Overcast,1200.0,,OVC,1200.0,,,,,,
KRDR,02-04-2001,05:00,METAR,,350,14.0,,,8000,Mist/Cloud Development Not Observable,-9.0,-10.0,30.00,1017.9,,,,10,0,0,,,,,,,,,8/8 Overcast,1200.0,,SCT,800.0,OVC,1200.0,,,,
KRDR,02-04-2001,04:00,METAR,,350,18.0,,,8000,Mist/Cloud Development Not Observable,-9.0,-10.0,29.97,1016.8,,,,10,0,0,,,,,,,,,8/8 Overcast,1200.0,,SCT,700.0,OVC,1200.0,,,,
KRDR,02-04-2001,03:00,METAR,,350,16.0,,,6400,Mist/Cloud Development Not Observable,-9.0,-9.0,29.94,1016.0,,,,10,0,0,,,,,,,,,8/8 Overcast,1200.0,,SCT,700.0,OVC,1200.0,,,,
KRDR,02-04-2001,02:00,METAR,,350,20.0,,,6400,Mist/Cloud Development Not Observable,-8.0,-9.0,29.90,1014.6,,,,10,0,0,,,,,,,,,8/8 Overcast,1400.0,,SCT,700.0,OVC,1400.0,,,,
KRDR,02-04-2001,01:00,METAR,,360,18.0,,,6400,Mist/Cloud Development Not Observable,-7.0,-8.0,29.86,1013.8,,,,10,0,0,,,,,,,,,8/8 Overcast,1400.0,,SCT,700.0,BKN,1400.0,OVC,2500.0,,
KRDR,02-04-2001,00:00,METAR,,350,17.0,,,4800,Mist/Cloud Development Not Observable,-7.0,-7.0,29.82,1011.9,,,,10,0,0,,,,,,,,,8/8 Overcast,1400.0,,SCT,700.0,BKN,1400.0,OVC,2500.0,,
KRDR,02-03-2001,23:00,METAR,,350,17.0,,,6400,Mist/Cloud Development Not Observable,-5.0,-6.0,29.78,1010.3,,,,10,0,0,,,,,,,,,8/8 Overcast,2000.0,,SCT,700.0,BKN,2000.0,OVC,5000.0,,
KRDR,02-03-2001,22:47,SPECI,,350,17.0,,,8000,Mist/Cloud Development Not Observable,-5.0,-6.0,29.77,,,,,10,0,0,,,,,,,,,8/8 Overcast,2000.0,,SCT,700.0,BKN,2000.0,OVC,5000.0,,
KRDR,02-03-2001,22:00,METAR,,360,16.0,,,9999,Cloud Development Not Observable,-3.0,-4.0,29.72,1008.3,,,,0,0,0,,,,,,,,,8/8 Overcast,4900.0,,FEW,2000.0,BKN,5000.0,OVC,20000.0,,
KRDR,02-03-2001,21:00,METAR,,30,4.0,,,9999,Cloud Development Not Observable,1.0,-3.0,29.67,1006.4,,,,0,0,0,,,,,,,,,7/8 Mostly Cloudy,4900.0,,FEW,2500.0,BKN,5000.0,BKN,20000.0,,
KRDR,02-03-2001,20:00,METAR,,340,8.0,,,9999,Cloud Development Not Observable,1.0,-3.0,29.65,1005.8,,,,0,0,0,,,,,,,,,7/8 Mostly Cloudy,4900.0,,BKN,5000.0,BKN,20000.0,,,,
KRDR,02-03-2001,19:00,METAR,,170,5.0,,,9999,Cloud Development Not Observable,-2.0,-4.0,29.65,1005.8,,,,0,0,0,,,,,,,,,7/8 Mostly Cloudy,20000.0,,SCT,5000.0,BKN,20000.0,,,,
KRDR,02-03-2001,18:10,SPECI,,140,6.0,,,9999,Cloud Development Not Observable,-3.0,-6.0,29.66,,,,,0,0,0,,,,,,,,,7/8 Mostly Cloudy,4900.0,,FEW,2000.0,BKN,5000.0,BKN,20000.0,,
KRDR,02-03-2001,18:00,METAR,,150,6.0,,,9999,Cloud Development Not Observable,-4.0,-6.0,29.66,1006.3,,,,0,0,0,,,,,,,,,7/8 Mostly Cloudy,4900.0,,FEW,2000.0,BKN,5000.0,BKN,20000.0,,
KRDR,02-03-2001,17:12,SPECI,,160,8.0,,,9999,Cloud Development Not Observable,-6.0,-8.0,29.66,,,,,0,0,0,,,,,,,,,7/8 Mostly Cloudy,4900.0,,FEW,2000.0,BKN,5000.0,BKN,20000.0,,
KRDR,02-03-2001,17:00,METAR,,160,8.0,,,9999,Cloud Development Not Observable,-6.0,-8.0,29.66,1006.3,,,,0,0,0,,,,,,,,,7/8 Mostly Cloudy,4900.0,,FEW,2000.0,BKN,5000.0,BKN,20000.0,,
KRDR,02-03-2001,16:10,SPECI,,180,14.0,,,9999,Cloud Development Not Observable,-7.0,-9.0,29.66,,,,,0,0,0,,,,,,,,,7/8 Mostly Cloudy,4900.0,,SCT,2000.0,BKN,5000.0,BKN,6900.0,,
KRDR,02-03-2001,16:00,METAR,,180,13.0,,,9999,Cloud Development Not Observable,-8.0,-9.0,29.66,1006.5,,,,0,0,0,,,,,,,,,7/8 Mostly Cloudy,3900.0,,SCT,2500.0,BKN,4000.0,BKN,6900.0,,
KRDR,02-03-2001,15:33,SPECI,,180,15.0,,,9999,Cloud Development Not Observable,-9.0,-10.0,29.66,,,,,0,0,0,,,,,,,,,7/8 Mostly Cloudy,3900.0,,SCT,2500.0,BKN,4000.0,BKN,6900.0,,
KRDR,02-03-2001,15:00,METAR,,180,15.0,,,9999,Cloud Development Not Observable,-9.0,-10.0,29.68,1007.2,,,,0,0,0,,,,,,,,,8/8 Overcast,2500.0,,BKN,2500.0,OVC,4000.0,,,,
KRDR,02-03-2001,14:45,METAR,,180,16.0,,,9999,Cloud Development Not Observable,-9.0,-10.0,29.68,,,,,0,0,0,,,,,,,,,8/8 Overcast,2500.0,,BKN,2500.0,OVC,4000.0,,,,
KRDR,02-03-2001,14:00,METAR,,170,14.0,,,8000,Light Snow/Cloud Development Not Observable,-10.0,-11.0,29.67,1006.9,,,,71,0,0,,,,,,,,,8/8 Overcast,3900.0,,SCT,2500.0,BKN,4000.0,OVC,6900.0,,
KRDR,02-03-2001,13:00,METAR,,180,13.0,,,8000,Light Snow/Cloud Development Not Observable,-10.0,-11.0,29.69,1007.6,,,,71,0,0,,,,,,,,,8/8 Overcast,3000.0,,SCT,1500.0,OVC,3000.0,,,,
KRDR,02-03-2001,12:37,SPECI,,180,14.0,,,9999,Light Snow/Cloud Development Not Observable,-10.0,-11.0,29.69,,,,,71,0,0,,,,,,,,,8/8 Overcast,3000.0,,SCT,1000.0,OVC,3000.0,,,,
KRDR,02-03-2001,12:00,METAR,,180,16.0,,,9999,Light Snow/Cloud Development Not Observable,-10.0,-11.0,29.70,1008.0,,,,71,0,0,,,,,,,,,8/8 Overcast,3000.0,,FEW,1000.0,BKN,3000.0,OVC,4000.0,,
KRDR,02-03-2001,11:45,METAR,,180,17.0,,,9999,Light Snow/Cloud Development Not Observable,-10.0,-11.0,29.70,,,,,71,0,0,,,,,,,,,8/8 Overcast,3000.0,,SCT,1000.0,BKN,3000.0,OVC,5900.0,,
KRDR,02-03-2001,11:00,METAR,,180,20.0,,,9999,Cloud Development Not Observable,-11.0,-12.0,29.71,1008.4,,,,0,0,0,,,,,,,,,8/8 Overcast,1000.0,,FEW,200.0,BKN,1000.0,OVC,5000.0,,
KRDR,02-03-2001,10:24,SPECI,,170,17.0,,,9999,Cloud Development Not Observable,-11.0,-12.0,29.72,,,,,0,0,0,,,,,,,,,8/8 Overcast,1000.0,,FEW,200.0,BKN,1000.0,OVC,3000.0,,
KRDR,02-03-2001,10:00,METAR,,170,15.0,,,9999,Diamond Dust/Cloud Development Not Observable,-12.0,-13.0,29.73,1009.0,,,,76,0,0,,,,,,,,,8/8 Overcast,200.0,,BKN,200.0,OVC,1000.0,,,,
KRDR,02-03-2001,09:48,SPECI,,170,14.0,,,9999,Diamond Dust/Cloud Development Not Observable,-12.0,-13.0,29.73,,,,,76,0,0,,,,,,,,,8/8 Overcast,200.0,,BKN,200.0,OVC,1000.0,,,,
KRDR,02-03-2001,09:00,METAR,,170,15.0,,,9999,Cloud Development Not Observable,-12.0,-13.0,29.74,1009.4,,,,0,0,0,,,,,,,,,8/8 Overcast,1000.0,,SCT,200.0,OVC,1000.0,,,,
KRDR,02-03-2001,08:00,METAR,,160,14.0,,,9999,Mist/Cloud Development Not Observable,-13.0,-13.0,29.77,1010.4,,,,10,0,0,,,,,,,,,8/8 Overcast,1000.0,,SCT,200.0,OVC,1000.0,,,,
KRDR,02-03-2001,07:38,SPECI,,170,16.0,,,8000,Mist/Cloud Development Not Observable,-13.0,-13.0,29.77,,,,,10,0,0,,,,,,,,,8/8 Overcast,1000.0,,SCT,200.0,OVC,1000.0,,,,
KRDR,02-03-2001,07:00,METAR,,170,16.0,,,8000,Mist/Cloud Development Not Observable,-13.0,-13.0,29.78,1011.1,,,,10,0,0,,,,,,,,,8/8 Overcast,200.0,,BKN,200.0,OVC,1000.0,,,,
KRDR,02-03-2001,06:00,METAR,,180,17.0,,,4800,Mist/Cloud Development Not Observable,-13.0,-14.0,29.80,1011.8,,,,10,0,0,,,,,,,,,7/8 Mostly Cloudy,1000.0,,SCT,200.0,BKN,1000.0,,,,
KRDR,02-03-2001,05:38,SPECI,,180,16.0,,,4800,Light Snow/Mist/Cloud Development Not Observable,-13.0,-14.0,29.82,,,,,71,10,0,,,,,,,,,8/8 Overcast,200.0,,BKN,200.0,OVC,1000.0,,,,
KRDR,02-03-2001,05:00,METAR,,180,17.0,,,4800,Mist/Cloud Development Not Observable,-13.0,-14.0,29.82,1012.5,,,,10,0,0,,,,,,,,,8/8 Overcast,2000.0,,SCT,1000.0,OVC,2000.0,,,,
KRDR,02-03-2001,04:00,METAR,,190,17.0,,,4800,Mist/Cloud Development Not Observable,-14.0,-14.0,29.84,1013.2,,,,10,0,0,,,,,,,,,8/8 Overcast,2000.0,,SCT,1000.0,OVC,2000.0,,,,
KRDR,02-03-2001,03:00,METAR,,180,17.0,,,4800,Mist/Cloud Development Not Observable,-14.0,-15.0,29.85,1013.6,,,,10,0,0,,,,,,,,,8/8 Overcast,2200.0,,SCT,1000.0,OVC,2200.0,,,,
KRDR,02-03-2001,02:00,METAR,,180,17.0,,,4800,Mist/Cloud Development Not Observable,-15.0,-15.0,29.89,1014.7,,,,10,0,0,,,,,,,,,8/8 Overcast,2200.0,,SCT,1000.0,OVC,2200.0,,,,
KRDR,02-03-2001,01:00,METAR,,180,18.0,,,4800,Mist/Cloud Development Not Observable,-15.0,-16.0,29.90,1015.4,,,,10,0,0,,,,,,,,,8/8 Overcast,2200.0,,SCT,1000.0,OVC,2200.0,,,,
KRDR,02-03-2001,00:00,METAR,,180,17.0,,,8000,Mist/Cloud Development Not Observable,-15.0,-16.0,29.92,1016.1,,,,10,0,0,,,,,,,,,8/8 Overcast,2400.0,,SCT,1000.0,OVC,2400.0,,,,
KRDR,02-02-2001,23:43,SPECI,,180,17.0,,,6400,Mist/Cloud Development Not Observable,-15.0,-17.0,29.92,,,,,10,0,0,,,,,,,,,8/8 Overcast,2400.0,,SCT,1000.0,OVC,2400.0,,,,
KRDR,02-02-2001,23:00,METAR,,180,19.0,,,6400,Mist/Cloud Development Not Observable,-16.0,-17.0,29.92,1016.1,,,,10,0,0,,,,,,,,,8/8 Overcast,3000.0,,SCT,1000.0,OVC,3000.0,,,,
KRDR,02-02-2001,22:47,SPECI,,180,18.0,,,4800,Mist/Cloud Development Not Observable,-16.0,-17.0,29.91,,,,,10,0,0,,,,,,,,,8/8 Overcast,3000.0,,SCT,1000.0,OVC,3000.0,,,,
KRDR,02-02-2001,22:00,METAR,,180,20.0,,,6400,Blowing Snow/Cloud Development Not Observable,-16.0,-17.0,29.92,1016.1,,,,38,0,0,,,,,,,,,8/8 Overcast,3000.0,,SCT,1500.0,OVC,3000.0,,,,
KRDR,02-02-2001,21:00,METAR,,170,19.0,,,6400,Blowing Snow/Cloud Development Not Observable,-16.0,-18.0,29.93,1016.6,,,,38,0,0,,,,,,,,,7/8 Mostly Cloudy,3900.0,,SCT,1200.0,BKN,4000.0,,,,
KRDR,02-02-2001,20:50,METAR,,180,18.0,,,6400,Blowing Snow/Cloud Development Not Observable,-16.0,-18.0,29.93,,,,,38,0,0,,,,,,,,,7/8 Mostly Cloudy,3900.0,,SCT,1200.0,BKN,4000.0,,,,
KRDR,02-02-2001,20:00,METAR,,180,18.0,,,4000,Light Snow/Cloud Development Not Observable,-16.0,-18.0,29.97,1018.0,,,,71,0,0,,,,,,,,,8/8 Overcast,1200.0,,BKN,1200.0,BKN,2000.0,OVC,5000.0,,
KRDR,02-02-2001,19:35,SPECI,,180,19.0,,,4000,Light Snow/Cloud Development Not Observable,-16.0,-18.0,29.97,,,,,71,0,0,,,,,,,,,8/8 Overcast,2000.0,,SCT,900.0,BKN,2000.0,OVC,5000.0,,
KRDR,02-02-2001,19:11,SPECI,,170,17.0,,,2400,Light Snow/Cloud Development Not Observable,-17.0,-18.0,29.97,,,,,71,0,0,,,,,,,,,8/8 Overcast,900.0,,OVC,900.0,,,,,,
KRDR,02-02-2001,19:00,METAR,,180,20.0,,170/25KTS,800,Light Snow/Cloud Development Not Observable,-17.0,-18.0,29.98,1018.3,,,,71,0,0,,,,,,,,,8/8 Overcast,900.0,,OVC,900.0,,,,,,
KRDR,02-02-2001,18:17,SPECI,,170,17.0,,,1200,Light Snow/Cloud Development Not Observable,-18.0,-19.0,30.00,,,,,71,0,0,,,,,,,,,8/8 Overcast,900.0,,BKN,900.0,OVC,1200.0,,,,
KRDR,02-02-2001,18:00,METAR,,170,19.0,,160/28KTS,2400,Light Snow/Cloud Development Not Observable,-18.0,-19.0,30.02,,,,,71,0,0,,,,,,,,,8/8 Overcast,1200.0,,SCT,900.0,OVC,1200.0,,,,
KRDR,02-02-2001,17:43,SPECI,,170,19.0,,,2400,Light Snow/Cloud Development Not Observable,-18.0,-19.0,30.02,,,,,71,0,0,,,,,,,,,8/8 Overcast,1200.0,,SCT,900.0,BKN,1200.0,OVC,3000.0,,
KRDR,02-02-2001,17:13,SPECI,,170,19.0,,,6400,Light Snow/Cloud Development Not Observable,-18.0,-20.0,30.02,,,,,71,0,0,,,,,,,,,8/8 Overcast,900.0,,BKN,900.0,OVC,1500.0,,,,
KRDR,02-02-2001,17:00,METAR,,170,19.0,,,4000,Light Snow/Cloud Development Not Observable,-18.0,-20.0,30.02,1019.8,,,,71,0,0,,,,,,,,,8/8 Overcast,900.0,,FEW,200.0,OVC,900.0,,,,
KRDR,02-02-2001,16:40,SPECI,,160,18.0,,,4000,Light Snow/Cloud Development Not Observable,-18.0,-20.0,30.02,,,,,71,0,0,,,,,,,,,8/8 Overcast,900.0,,FEW,200.0,OVC,900.0,,,,
KRDR,02-02-2001,16:21,SPECI,,160,15.0,,,2000,Light Snow/Cloud Development Not Observable,-18.0,-20.0,30.05,,,,,71,0,0,,,,,,,,,8/8 Overcast,1000.0,,SCT,500.0,OVC,1000.0,,,,
KRDR,02-02-2001,16:10,SPECI,,160,15.0,,,2800,Light Snow/Cloud Development Not Observable,-18.0,-20.0,30.05,,,,,71,0,0,,,,,,,,,8/8 Overcast,1000.0,,SCT,500.0,OVC,1000.0,,,,
KRDR,02-02-2001,16:00,METAR,,170,15.0,,,1200,Light Snow/Cloud Development Not Observable,-19.0,-20.0,30.06,1021.2,,,,71,0,0,,,,,,,,,8/8 Overcast,2000.0,,SCT,500.0,OVC,2000.0,,,,
KRDR,02-02-2001,15:40,SPECI,,170,16.0,,,2400,Light Snow/Cloud Development Not Observable,-19.0,-20.0,30.07,,,,,71,0,0,,,,,,,,,8/8 Overcast,3000.0,,BKN,3000.0,OVC,7900.0,,,,
KRDR,02-02-2001,15:35,SPECI,,160,15.0,,,4000,Light Snow/Cloud Development Not Observable,-19.0,-20.0,30.08,,,,,71,0,0,,,,,,,,,8/8 Overcast,8000.0,,SCT,3000.0,OVC,7900.0,,,,
KRDR,02-02-2001,15:26,SPECI,,170,15.0,,,4800,Light Snow/Cloud Development Not Observable,-19.0,-20.0,30.09,,,,,71,0,0,,,,,,,,,8/8 Overcast,8000.0,,SCT,4000.0,OVC,7900.0,,,,
KRDR,02-02-2001,15:00,METAR,,170,16.0,,,9999,Cloud Development Not Observable,-19.0,-21.0,30.09,1022.1,,,,0,0,0,,,,,,,,,8/8 Overcast,8000.0,,BKN,7900.0,OVC,20000.0,,,,
KRDR,02-02-2001,14:00,METAR,,180,15.0,,,9999,Cloud Development Not Observable,-20.0,-22.0,30.13,1023.4,,,,0,0,0,,,,,,,,,8/8 Overcast,8000.0,,BKN,7900.0,OVC,20000.0,,,,
KRDR,02-02-2001,13:00,METAR,,170,14.0,,,9999,Cloud Development Not Observable,-21.0,-22.0,30.14,1023.8,,,,0,0,0,,,,,,,,,8/8 Overcast,8000.0,,BKN,7900.0,OVC,20000.0,,,,
KRDR,02-02-2001,12:00,METAR,,180,11.0,,,9999,Cloud Development Not Observable,-22.0,-23.0,30.17,1024.9,,,,0,0,0,,,,,,,,,4/8 Partly Cloudy,72000.0,,SCT,9400.0,SCT,20000.0,,,,
KRDR,02-02-2001,11:00,METAR,,180,11.0,,,9999,Cloud Development Not Observable,-22.0,-23.0,30.22,1026.5,,,,0,0,0,,,,,,,,,4/8 Partly Cloudy,72000.0,,SCT,9400.0,SCT,20000.0,,,,
KRDR,02-02-2001,10:00,METAR,,180,10.0,,,9999,Cloud Development Not Observable,-23.0,-24.0,30.25,1027.7,,,,0,0,0,,,,,,,,,4/8 Partly Cloudy,72000.0,,FEW,7900.0,SCT,20000.0,,,,
KRDR,02-02-2001,09:00,METAR,,170,9.0,,,9999,Cloud Development Not Observable,-24.0,-25.0,30.28,1028.7,,,,0,0,0,,,,,,,,,4/8 Partly Cloudy,72000.0,,SCT,20000.0,,,,,,
KRDR,02-02-2001,08:00,METAR,,190,8.0,,,9999,Cloud Development Not Observable,-24.0,-25.0,30.31,1029.7,,,,0,0,0,,,,,,,,,Clear,72000.0,,,73000.0,,,,,,
KRDR,02-02-2001,07:00,METAR,,180,8.0,,,9999,Cloud Development Not Observable,-25.0,-25.0,30.33,1030.4,,,,0,0,0,,,,,,,,,Clear,72000.0,,,73000.0,,,,,,
KRDR,02-02-2001,06:00,METAR,,150,7.0,,,9999,Cloud Development Not Observable,-24.0,-25.0,30.34,1030.9,,,,0,0,0,,,,,,,,,Clear,72000.0,,,73000.0,,,,,,
KRDR,02-02-2001,05:00,METAR,,170,5.0,,,9999,Cloud Development Not Observable,-24.0,-25.0,30.35,1031.3,,,,0,0,0,,,,,,,,,Clear,72000.0,,,73000.0,,,,,,
KRDR,02-02-2001,04:00,METAR,,,2.0,,,9999,Cloud Development Not Observable,-24.0,-25.0,30.37,1031.9,,,,0,0,0,,,,,,,,,2/8 Mostly Clear,72000.0,,FEW,20000.0,,,,,,
KRDR,02-02-2001,03:00,METAR,,310,7.0,,,9999,Cloud Development Not Observable,-24.0,-25.0,30.38,1032.4,,,,0,0,0,,,,,,,,,2/8 Mostly Clear,72000.0,,FEW,20000.0,,,,,,
KRDR,02-02-2001,02:00,METAR,,320,8.0,,,9999,Cloud Development Not Observable,-23.0,-24.0,30.38,1032.3,,,,0,0,0,,,,,,,,,2/8 Mostly Clear,72000.0,,FEW,20000.0,,,,,,
KRDR,02-02-2001,01:00,METAR,,320,9.0,,,9999,Cloud Development Not Observable,-23.0,-24.0,30.39,1032.7,,,,0,0,0,,,,,,,,,2/8 Mostly Clear,72000.0,,FEW,20000.0,,,,,,
KRDR,02-02-2001,00:00,METAR,,320,9.0,,,9999,Cloud Development Not Observable,-22.0,-24.0,30.38,1032.2,,,,0,0,0,,,,,,,,,2/8 Mostly Clear,72000.0,,FEW,20000.0,,,,,,
KRDR,02-01-2001,23:00,METAR,,330,11.0,,,9999,Cloud Development Not Observable,-21.0,-23.0,30.37,1031.8,,,,0,0,0,,,,,,,,,2/8 Mostly Clear,72000.0,,FEW,20000.0,,,,,,
KRDR,02-01-2001,22:00,METAR,,300,18.0,,,9999,Cloud Development Not Observable,-21.0,-24.0,30.38,1032.0,,,,0,0,0,,,,,,,,,Clear,72000.0,,,73000.0,,,,,,
KRDR,02-01-2001,21:00,METAR,,330,18.0,,,9999,Diamond Dust/Cloud Development Not Observable,-21.0,-23.0,30.37,1031.6,,,,76,0,0,,,,,,,,,2/8 Mostly Clear,72000.0,,FEW,2000.0,,,,,,
KRDR,02-01-2001,20:00,METAR,,330,18.0,,,9999,Diamond Dust/Cloud Development Not Observable,-22.0,-24.0,30.36,1031.4,,,,76,0,0,,,,,,,,,2/8 Mostly Clear,72000.0,,FEW,2000.0,,,,,,
KRDR,02-01-2001,19:00,METAR,,340,17.0,,350/26KTS,9999,Diamond Dust/Blowing Snow/Cloud Development Not Observable,-22.0,-24.0,30.36,1030.7,,,,76,38,0,,,,,,,,,2/8 Mostly Clear,72000.0,,FEW,2000.0,,,,,,
KRDR,02-01-2001,18:00,METAR,,340,21.0,,330/27KTS,9999,Diamond Dust/Blowing Snow/Cloud Development Not Observable,-23.0,-25.0,30.37,1031.9,,,,76,38,0,,,,,,,,,4/8 Partly Cloudy,72000.0,,SCT,2000.0,,,,,,
KRDR,02-01-2001,17:00,METAR,,350,22.0,,350/28KTS,9999,Diamond Dust/Blowing Snow/Cloud Development Not Observable,-23.0,-25.0,30.37,1031.9,,,,76,38,0,,,,,,,,,2/8 Mostly Clear,72000.0,,FEW,2000.0,,,,,,
KRDR,02-01-2001,16:36,SPECI,,330,23.0,,,9999,Diamond Dust/Blowing Snow/Cloud Development Not Observable,-23.0,-25.0,30.37,,,,,76,38,0,,,,,,,,,4/8 Partly Cloudy,72000.0,,SCT,2000.0,,,,,,
KRDR,02-01-2001,16:00,METAR,,330,20.0,,330/27KTS,9999,Diamond Dust/Blowing Snow/Cloud Development Not Observable,-24.0,-25.0,30.37,1031.9,,,,76,38,0,,,,,,,,,7/8 Mostly Cloudy,2000.0,,BKN,2000.0,,,,,,
KRDR,02-01-2001,15:11,SPECI,,330,20.0,,,6400,Light Snow/Blowing Snow/Cloud Development Not Observable,-24.0,-25.0,30.36,,,,,71,38,0,,,,,,,,,7/8 Mostly Cloudy,2000.0,,BKN,2000.0,,,,,,
KRDR,02-01-2001,15:00,METAR,,340,19.0,,330/25KTS,9999,Cloud Development Not Observable,-24.0,-25.0,30.35,1031.0,,,,0,0,0,,,,,,,,,4/8 Partly Cloudy,72000.0,,SCT,2000.0,,,,,,
KRDR,02-01-2001,14:00,METAR,,340,18.0,,340/26KTS,9999,Cloud Development Not Observable,-24.0,-25.0,30.30,1029.1,,,,0,0,0,,,,,,,,,Clear,72000.0,,,73000.0,,,,,,
KRDR,02-01-2001,13:32,SPECI,,340,18.0,,,9999,Cloud Development Not Observable,-24.0,-25.0,30.29,,,,,0,0,0,,,,,,,,,4/8 Partly Cloudy,72000.0,,SCT,1500.0,,,,,,
KRDR,02-01-2001,13:00,METAR,,340,21.0,,330/28KTS,9999,Diamond Dust/Drifting Snow/Cloud Development Not Observable,-23.0,-25.0,30.29,1028.7,,,,76,36,0,,,,,,,,,7/8 Mostly Cloudy,3000.0,,SCT,1500.0,BKN,3000.0,,,,
KRDR,02-01-2001,12:00,METAR,,320,20.0,,320/26KTS,6400,Light Snow/Blowing Snow/Cloud Development Not Observable,-23.0,-24.0,30.26,1027.8,,,,71,38,0,,,,,,,,,7/8 Mostly Cloudy,3000.0,,SCT,2000.0,BKN,3000.0,,,,
KRDR,02-01-2001,11:00,METAR,,330,22.0,,320/28KTS,6400,Light Snow/Blowing Snow/Cloud Development Not Observable,-22.0,-23.0,30.22,1025.4,,,,71,38,0,,,,,,,,,7/8 Mostly Cloudy,3000.0,,SCT,1500.0,BKN,3000.0,,,,
KRDR,02-01-2001,10:00,METAR,,320,19.0,,,6400,Light Snow/Blowing Snow/Cloud Development Not Observable,-21.0,-23.0,30.20,1025.4,,,,71,38,0,,,,,,,,,7/8 Mostly Cloudy,3000.0,,SCT,1500.0,BKN,3000.0,,,,
KRDR,02-01-2001,09:24,SPECI,,320,23.0,,,8000,Light Snow/Cloud Development Not Observable,-21.0,-23.0,30.18,,,,,71,0,0,,,,,,,,,7/8 Mostly Cloudy,3000.0,,SCT,1500.0,BKN,3000.0,,,,
KRDR,02-01-2001,09:00,METAR,,320,19.0,,,9999,Cloud Development Not Observable,-21.0,-23.0,30.18,1024.7,,,,0,0,0,,,,,,,,,7/8 Mostly Cloudy,3000.0,,BKN,3000.0,,,,,,
KRDR,02-01-2001,08:00,METAR,,320,15.0,,,9999,Cloud Development Not Observable,-22.0,-23.0,30.16,1024.0,,,,0,0,0,,,,,,,,,4/8 Partly Cloudy,72000.0,,SCT,2500.0,SCT,20000.0,,,,
KRDR,02-01-2001,07:00,METAR,,310,15.0,,,9999,Cloud Development Not Observable,-22.0,-23.0,30.13,1022.8,,,,0,0,0,,,,,,,,,4/8 Partly Cloudy,72000.0,,FEW,2900.0,SCT,6900.0,SCT,20000.0,,
KRDR,02-01-2001,06:50,METAR,,310,15.0,,,9999,Cloud Development Not Observable,-22.0,-23.0,30.13,,,,,0,0,0,,,,,,,,,4/8 Partly Cloudy,72000.0,,FEW,2900.0,SCT,6900.0,SCT,20000.0,,
KRDR,02-01-2001,06:00,METAR,,310,15.0,,,9999,Light Snow/Cloud Development Not Observable,-21.0,-23.0,30.11,1021.9,,,,71,0,0,,,,,,,,,7/8 Mostly Cloudy,20000.0,,FEW,2900.0,SCT,6900.0,BKN,20000.0,,
KRDR,02-01-2001,05:23,SPECI,,300,16.0,,,9999,Light Snow/Cloud Development Not Observable,-21.0,-23.0,30.10,,,,,71,0,0,,,,,,,,,7/8 Mostly Cloudy,20000.0,,FEW,2000.0,SCT,6900.0,BKN,20000.0,,
KRDR,02-01-2001,05:00,METAR,,320,18.0,,,9999,Cloud Development Not Observable,-21.0,-23.0,30.08,1021.1,,,,0,0,0,,,,,,,,,7/8 Mostly Cloudy,20000.0,,FEW,2100.0,SCT,6900.0,BKN,20000.0,,
KRDR,02-01-2001,04:19,SPECI,,330,20.0,,,9999,Cloud Development Not Observable,-20.0,-22.0,30.08,,,,,0,0,0,,,,,,,,,7/8 Mostly Cloudy,20000.0,,FEW,1600.0,SCT,6900.0,BKN,20000.0,,
KRDR,02-01-2001,04:00,METAR,,320,18.0,,,8000,Light Snow/Cloud Development Not Observable,-20.0,-22.0,30.05,1020.2,,,,71,0,0,,,,,,,,,7/8 Mostly Cloudy,20000.0,,FEW,4000.0,SCT,6900.0,BKN,20000.0,,
KRDR,02-01-2001,03:38,SPECI,,310,16.0,,,8000,Light Snow/Cloud Development Not Observable,-20.0,-22.0,30.05,,,,,71,0,0,,,,,,,,,7/8 Mostly Cloudy,20000.0,,SCT,6900.0,BKN,20000.0,,,,
KRDR,02-01-2001,03:00,METAR,,330,18.0,,,9999,Cloud Development Not Observable,-20.0,-22.0,30.05,1020.1,,,,0,0,0,,,,,,,,,4/8 Partly Cloudy,72000.0,,FEW,9900.0,SCT,20000.0,,,,
KRDR,02-01-2001,02:00,METAR,,340,19.0,,,9999,Cloud Development Not Observable,-19.0,-22.0,30.03,1019.6,,,,0,0,0,,,,,,,,,4/8 Partly Cloudy,72000.0,,FEW,2000.0,SCT,20000.0,,,,
KRDR,02-01-2001,01:00,METAR,,350,15.0,,,9999,Cloud Development Not Observable,-18.0,-20.0,30.00,1018.2,,,,0,0,0,,,,,,,,,7/8 Mostly Cloudy,20000.0,,SCT,2000.0,BKN,20000.0,,,,
KRDR,02-01-2001,00:05,SPECI,,350,15.0,,,9999,Cloud Development Not Observable,-17.0,-19.0,29.97,,,,,0,0,0,,,,,,,,,7/8 Mostly Cloudy,20000.0,,SCT,1500.0,BKN,20000.0,,,,
KRDR,02-01-2001,00:00,METAR,,350,15.0,,,9999,Cloud Development Not Observable,-17.0,-19.0,29.96,1017.0,,,,0,0,0,,,,,,,,,4/8 Partly Cloudy,72000.0,,FEW,6900.0,SCT,20000.0,,,,
KRDR,01-31-2001,23:00,METAR,,340,19.0,,,9999,Cloud Development Not Observable,-16.0,-18.0,29.93,1015.7,,,,0,0,0,,,,,,,,,4/8 Partly Cloudy,72000.0,,SCT,5000.0,SCT,20000.0,,,,
KRDR,01-31-2001,22:00,METAR,,360,16.0,,,4800,Light Snow/Cloud Development Not Observable,-14.0,-15.0,29.87,1013.7,,,,71,0,0,,,,,,,,,8/8 Overcast,10000.0,,SCT,2000.0,OVC,9900.0,,,,
KRDR,01-31-2001,21:00,METAR,,360,16.0,,,9999,Mist/Cloud Development Not Observable,-12.0,-14.0,29.83,1012.4,,,,10,0,0,,,,,,,,,7/8 Mostly Cloudy,10000.0,,FEW,2000.0,FEW,3000.0,BKN,9900.0,,
KRDR,01-31-2001,20:32,SPECI,,360,19.0,,,8000,Mist/Cloud Development Not Observable,-12.0,-14.0,29.83,,,,,10,0,0,,,,,,,,,7/8 Mostly Cloudy,10000.0,,FEW,2000.0,SCT,3000.0,BKN,9900.0,,
KRDR,01-31-2001,20:00,METAR,,360,19.0,,300/31KTS,4800,Light Snow/Cloud Development Not Observable,-11.0,-13.0,29.81,1011.4,,,,71,0,0,,,,,,,,,8/8 Overcast,2000.0,,BKN,2000.0,OVC,4000.0,,,,
KRDR,01-31-2001,19:40,SPECI,,360,16.0,,,4800,Light Snow/Cloud Development Not Observable,-10.0,-11.0,29.80,,,,,71,0,0,,,,,,,,,8/8 Overcast,2000.0,,OVC,2000.0,,,,,,
KRDR,01-31-2001,19:33,SPECI,,360,17.0,,,2400,Light Snow/Cloud Development Not Observable,-10.0,-12.0,29.80,,,,,71,0,0,,,,,,,,,8/8 Overcast,2000.0,,OVC,2000.0,,,,,,
KRDR,01-31-2001,19:24,SPECI,,360,20.0,,,2400,Light Snow/Cloud Development Not Observable,-9.0,-11.0,29.79,,,,,71,0,0,,,,,,,,,8/8 Overcast,2000.0,,OVC,2000.0,,,,,,
KRDR,01-31-2001,19:13,SPECI,,350,20.0,,,8000,Light Snow/Cloud Development Not Observable,-8.0,-10.0,29.79,,,,,71,0,0,,,,,,,,,8/8 Overcast,2000.0,,BKN,2000.0,OVC,4000.0,,,,
KRDR,01-31-2001,19:00,METAR,,300,27.0,,300/32KTS,9999,Light Snow/Cloud Development Not Observable,-4.0,-8.0,29.77,1010.0,,,,71,0,0,,,,,,,,,8/8 Overcast,3900.0,,SCT,2000.0,OVC,4000.0,,,,
KRDR,01-31-2001,18:00,METAR,,280,20.0,,280/27KTS,9999,Cloud Development Not Observable,-5.0,-8.0,29.77,1009.8,,,,0,0,0,,,,,,,,,7/8 Mostly Cloudy,6000.0,,FEW,3000.0,BKN,5900.0,,,,
KRDR,01-31-2001,17:00,METAR,,270,16.0,,,9999,Cloud Development Not Observable,-6.0,-9.0,29.77,1010.0,,,,0,0,0,,,,,,,,,7/8 Mostly Cloudy,6000.0,,FEW,3100.0,BKN,5900.0,,,,
KRDR,01-31-2001,16:00,METAR,,270,16.0,,,9999,Cloud Development Not Observable,-7.0,-10.0,29.77,1009.9,,,,0,0,0,,,,,,,,,7/8 Mostly Cloudy,6000.0,,BKN,5900.0,BKN,8900.0,,,,
KRDR,01-31-2001,15:00,METAR,,270,12.0,,,9999,Cloud Development Not Observable,-9.0,-12.0,29.77,1010.2,,,,0,0,0,,,,,,,,,2/8 Mostly Clear,72000.0,,FEW,8900.0,,,,,,
KRDR,01-31-2001,14:00,METAR,,270,11.0,,,9999,Cloud Development Not Observable,-9.0,-11.0,29.77,1010.1,,,,0,0,0,,,,,,,,,2/8 Mostly Clear,72000.0,,FEW,8900.0,,,,,,
KRDR,01-31-2001,13:25,METAR,,270,10.0,,,9999,Cloud Development Not Observable,-9.0,-11.0,29.77,,,,,0,0,0,,,,,,,,,7/8 Mostly Cloudy,8500.0,,FEW,5900.0,BKN,8400.0,,,,
KRDR,01-31-2001,13:00,METAR,,270,14.0,,,9999,Cloud Development Not Observable,-9.0,-11.0,29.77,1010.1,,,,0,0,0,,,,,,,,,4/8 Partly Cloudy,72000.0,,SCT,8900.0,,,,,,
KRDR,01-31-2001,12:00,METAR,,260,12.0,,,9999,Cloud Development Not Observable,-10.0,-12.0,29.77,1009.9,,,,0,0,0,,,,,,,,,2/8 Mostly Clear,72000.0,,FEW,8900.0,,,,,,
KRDR,01-31-2001,11:00,METAR,,260,12.0,,,9999,Cloud Development Not Observable,-9.0,-11.0,29.77,1009.9,,,,0,0,0,,,,,,,,,2/8 Mostly Clear,72000.0,,FEW,8900.0,,,,,,
KRDR,01-31-2001,10:00,METAR,,270,11.0,,,9999,Cloud Development Not Observable,-8.0,-11.0,29.76,1009.5,,,,0,0,0,,,,,,,,,Clear,72000.0,,,73000.0,,,,,,
KRDR,01-31-2001,09:00,METAR,,270,13.0,,,9999,Cloud Development Not Observable,-9.0,-11.0,29.75,1009.2,,,,0,0,0,,,,,,,,,Clear,72000.0,,,73000.0,,,,,,
KRDR,01-31-2001,08:00,METAR,,270,11.0,,,9999,Cloud Development Not Observable,-8.0,-10.0,29.74,1008.9,,,,0,0,0,,,,,,,,,Clear,72000.0,,,73000.0,,,,,,
KRDR,01-31-2001,07:00,METAR,,300,12.0,,,9999,Cloud Development Not Observable,-8.0,-10.0,29.74,1009.1,,,,0,0,0,,,,,,,,,2/8 Mostly Clear,72000.0,,FEW,7400.0,,,,,,
KRDR,01-31-2001,06:00,METAR,,290,12.0,,,9999,Cloud Development Not Observable,-8.0,-10.0,29.73,1008.5,,,,0,0,0,,,,,,,,,2/8 Mostly Clear,72000.0,,FEW,3000.0,FEW,20000.0,,,,
KRDR,01-31-2001,05:00,METAR,,290,11.0,,,9999,Cloud Development Not Observable,-7.0,-9.0,29.72,1008.2,,,,0,0,0,,,,,,,,,2/8 Mostly Clear,72000.0,,FEW,3000.0,FEW,20000.0,,,,
KRDR,01-31-2001,04:00,METAR,,280,9.0,,,9999,Cloud Development Not Observable,-7.0,-9.0,29.71,1007.8,,,,0,0,0,,,,,,,,,4/8 Partly Cloudy,72000.0,,FEW,3000.0,SCT,20000.0,,,,
KRDR,01-31-2001,03:00,METAR,,270,6.0,,,9999,Cloud Development Not Observable,-9.0,-10.0,29.70,1007.7,,,,0,0,0,,,,,,,,,4/8 Partly Cloudy,72000.0,,FEW,2300.0,SCT,20000.0,,,,
KRDR,01-31-2001,01:25,METAR,,360,7.0,,,9999,Cloud Development Not Observable,-8.0,-9.0,29.70,,,,,0,0,0,,,,,,,,,8/8 Overcast,2100.0,,OVC,2100.0,,,,,,
KRDR,01-31-2001,01:00,METAR,,350,7.0,,,9999,Cloud Development Not Observable,-7.0,-9.0,29.68,1006.8,,,,0,0,0,,,,,,,,,8/8 Overcast,1700.0,,OVC,1700.0,,,,,,
KRDR,01-31-2001,00:00,METAR,,350,8.0,,,9999,Cloud Development Not Observable,-7.0,-9.0,29.67,1006.5,,,,0,0,0,,,,,,,,,8/8 Overcast,1700.0,,OVC,1700.0,,,,,,
KRDR,01-30-2001,23:24,SPECI,,360,8.0,,,9999,Cloud Development Not Observable,-7.0,-9.0,29.65,,,,,0,0,0,,,,,,,,,8/8 Overcast,1700.0,,BKN,1700.0,BKN,15000.0,OVC,20000.0,,
KRDR,01-30-2001,23:00,METAR,,350,7.0,,,9999,Cloud Development Not Observable,-7.0,-9.0,29.64,1005.6,,,,0,0,0,,,,,,,,,7/8 Mostly Cloudy,20000.0,,FEW,15000.0,BKN,20000.0,,,,
KRDR,01-30-2001,22:00,METAR,,350,9.0,,,9999,Cloud Development Not Observable,-7.0,-9.0,29.61,1004.4,,,,0,0,0,,,,,,,,,7/8 Mostly Cloudy,20000.0,,FEW,15000.0,BKN,20000.0,,,,
KRDR,01-30-2001,21:00,METAR,,350,6.0,,,9999,Cloud Development Not Observable,-7.0,-8.0,29.57,1003.0,,,,0,0,0,,,,,,,,,4/8 Partly Cloudy,72000.0,,FEW,1000.0,SCT,20000.0,,,,
KRDR,01-30-2001,20:12,SPECI,,350,7.0,,,9999,Cloud Development Not Observable,-8.0,-8.0,29.55,,,,,0,0,0,,,,,,,,,4/8 Partly Cloudy,72000.0,,FEW,1000.0,SCT,20000.0,,,,
KRDR,01-30-2001,20:00,METAR,,350,5.0,,,9999,Cloud Development Not Observable,-8.0,-9.0,29.54,1002.2,,,,0,0,0,,,,,,,,,4/8 Partly Cloudy,72000.0,,FEW,1000.0,SCT,20000.0,,,,
KRDR,01-30-2001,19:32,SPECI,,350,6.0,,,9999,Cloud Development Not Observable,-8.0,-9.0,29.54,,,,,0,0,0,,,,,,,,,4/8 Partly Cloudy,72000.0,,SCT,1000.0,SCT,20000.0,,,,
KRDR,01-30-2001,19:00,METAR,,350,5.0,,,9999,Cloud Development Not Observable,-9.0,-9.0,29.53,1001.8,,,,0,0,0,,,,,,,,,7/8 Mostly Cloudy,600.0,,BKN,600.0,BKN,900.0,BKN,23000.0,,
KRDR,01-30-2001,18:41,SPECI,,360,6.0,,,8000,Mist/Cloud Development Not Observable,-9.0,-9.0,29.54,,,,,10,0,0,,,,,,,,,8/8 Overcast,400.0,,OVC,400.0,,,,,,
KRDR,01-30-2001,18:24,SPECI,,340,4.0,,,2400,Mist/Cloud Development Not Observable,-9.0,-9.0,29.53,,,,,10,0,0,,,,,,,,,8/8 Overcast,300.0,,OVC,300.0,,,,,,
KRDR,01-30-2001,18:00,METAR,,350,4.0,,,4400,Mist/Cloud Development Not Observable,-9.0,-9.0,29.54,1002.2,,,,10,0,0,,,,,,,,,Sky Obscured (Unable to Estimate),0.0,100.0,,0.0,,,,,,
KRDR,01-30-2001,17:40,SPECI,,350,4.0,,,1000,Mist/Cloud Development Not Observable,-9.0,-9.0,29.55,,,,,10,0,0,,,,,,,,,Sky Obscured (Unable to Estimate),0.0,100.0,,0.0,,,,,,
KRDR,01-30-2001,17:00,METAR,,360,8.0,,,2400,Mist/Cloud Development Not Observable,-8.0,-8.0,29.54,1002.2,,,,10,0,0,,,,,,,,,Sky Obscured (Unable to Estimate),0.0,100.0,,0.0,,,,,,
KRDR,01-30-2001,16:51,SPECI,,360,7.0,,,2400,Mist/Cloud Development Not Observable,-8.0,-8.0,29.54,,,,,10,0,0,,,,,,,,,Sky Obscured (Unable to Estimate),0.0,100.0,,0.0,,,,,,
KRDR,01-30-2001,16:15,SPECI,,360,9.0,,,1200,Mist/Cloud Development Not Observable,-8.0,-8.0,29.51,,,,,10,0,0,,,,,,,,,Sky Obscured (Unable to Estimate),0.0,100.0,,0.0,,,,,,
KRDR,01-30-2001,16:00,METAR,,360,7.0,,,1600,Mist/Cloud Development Not Observable,-8.0,-8.0,29.51,1001.0,,,,10,0,0,,,,,,,,,Sky Obscured (Unable to Estimate),0.0,100.0,,0.0,,,,,,
KRDR,01-30-2001,15:23,SPECI,,360,6.0,,,1600,Mist/Cloud Development Not Observable,-8.0,-8.0,29.51,,,,,10,0,0,,,,,,,,,Sky Obscured (Unable to Estimate),0.0,100.0,,0.0,,,,,,
KRDR,01-30-2001,15:10,SPECI,,360,8.0,,,1200,Fog with Rime/Cloud Development Not Observable,-8.0,-8.0,29.51,,,,,49,0,0,,,,,,,,,Sky Obscured (Unable to Estimate),0.0,100.0,,0.0,,,,,,
KRDR,01-30-2001,15:00,METAR,,360,6.0,,,800,Fog with Rime/Cloud Development Not Observable,-8.0,-8.0,29.50,1000.7,,,,49,0,0,,,,,,,,,Sky Obscured (Unable to Estimate),0.0,100.0,,0.0,,,,,,
KRDR,01-30-2001,14:14,SPECI,,360,10.0,,,800,Fog with Rime/Cloud Development Not Observable,-8.0,-8.0,29.50,,,,,49,0,0,,,,,,,,,Sky Obscured (Unable to Estimate),0.0,100.0,,0.0,,,,,,
KRDR,01-30-2001,14:00,METAR,,360,10.0,,,400,Fog with Rime/Cloud Development Not Observable,-7.0,-7.0,29.49,1000.5,,,,49,0,0,,,,,,,,,Sky Obscured (Unable to Estimate),0.0,100.0,,0.0,,,,,,
KRDR,01-30-2001,13:45,METAR,,360,9.0,,,400,Fog with Rime/Cloud Development Not Observable,-7.0,-7.0,29.49,,,,,49,0,0,,,,,,,,,Sky Obscured (Unable to Estimate),0.0,100.0,,0.0,,,,,,
KRDR,01-30-2001,13:00,METAR,,360,10.0,,,800,Fog with Rime/Cloud Development Not Observable,-7.0,-7.0,29.48,1000.0,,,,49,0,0,,,,,,,,,Sky Obscured (Unable to Estimate),0.0,100.0,,0.0,,,,,,
KRDR,01-30-2001,12:49,SPECI,,360,11.0,,,800,Fog with Rime/Cloud Development Not Observable,-7.0,-7.0,29.76,,,,,49,0,0,,,,,,,,,Sky Obscured (Unable to Estimate),500.0,100.0,OVC,1000.0,,,,,,
KRDR,01-30-2001,12:31,SPECI,,360,11.0,,,800,Fog with Rime/Cloud Development Not Observable,-7.0,-7.0,29.47,,,,,48,0,0,,,,,,,,,8/8 Overcast,100.0,,OVC,100.0,,,,,,
KRDR,01-30-2001,12:00,SPECI,,,,,,800,Cloud Development Not Observable,,,,,,,,0,0,0,,,,,,,,,,72000.0,,,,,,,,,
KRDR,01-30-2001,11:56,METAR,,350,14.0,,,800,Fog with Rime/Cloud Development Not Observable,-7.0,-7.0,29.46,999.4,,,,48,0,0,,,,,,,,,8/8 Overcast,100.0,,OVC,100.0,,,,,,
KRDR,01-30-2001,11:55,METAR,,350,12.0,,,800,Fog with Rime/Cloud Development Not Observable,-7.0,-7.0,29.46,999.4,,,,48,0,0,,,,,,,,,8/8 Overcast,100.0,,OVC,100.0,,,,,,
KRDR,01-30-2001,11:00,METAR,,340,10.0,,,800,Fog with Rime/Cloud Development Not Observable,-6.0,-6.0,29.48,999.9,,,,48,0,0,,,,,,,,,8/8 Overcast,100.0,,OVC,100.0,,,,,,
KRDR,01-30-2001,10:00,METAR,,340,7.0,,,800,Fog with Rime/Cloud Development Not Observable,-6.0,-6.0,29.49,1000.2,,,,48,0,0,,,,,,,,,8/8 Overcast,100.0,,OVC,100.0,,,,,,
KRDR,01-30-2001,09:00,METAR,,340,8.0,,,800,Fog with Rime/Cloud Development Not Observable,-6.0,-6.0,29.50,1000.5,,,,48,0,0,,,,,,,,,8/8 Overcast,100.0,,OVC,100.0,,,,,,
KRDR,01-30-2001,08:00,METAR,,350,10.0,,,800,Fog with Rime/Cloud Development Not Observable,-6.0,-6.0,29.51,1000.8,,,,48,0,0,,,,,,,,,8/8 Overcast,100.0,,OVC,100.0,,,,,,
KRDR,01-30-2001,07:00,METAR,,340,9.0,,,800,Fog with Rime/Cloud Development Not Observable,-5.0,-6.0,29.51,1000.9,,,,48,0,0,,,,,,,,,8/8 Overcast,100.0,,OVC,100.0,,,,,,
KRDR,01-30-2001,06:48,SPECI,,340,9.0,,,800,Fog with Rime/Cloud Development Not Observable,-5.0,-6.0,29.51,,,,,48,0,0,,,,,,,,,8/8 Overcast,100.0,,OVC,100.0,,,,,,
KRDR,01-30-2001,06:00,METAR,,350,9.0,,,400,Fog with Rime/Cloud Development Not Observable,-7.0,-7.0,29.53,1001.7,,,,48,0,0,,,,,,,,,8/8 Overcast,100.0,,OVC,100.0,,,,,,
KRDR,01-30-2001,05:00,METAR,,360,8.0,,,400,Fog with Rime/Cloud Development Not Observable,-7.0,-7.0,29.55,1002.3,,,,48,0,0,,,,,,,,,8/8 Overcast,100.0,,OVC,100.0,,,,,,
KRDR,01-30-2001,04:34,SPECI,,20,7.0,,,400,Fog with Rime/Cloud Development Not Observable,-7.0,-7.0,29.55,,,,,48,0,0,,,,,,,,,8/8 Overcast,100.0,,OVC,100.0,,,,,,
KRDR,01-30-2001,04:00,METAR,,30,6.0,,,400,Freezing Drizzle/Fog with Rime/Cloud Development Not Observable,-7.0,-7.0,29.55,1002.5,,,,56,48,0,,,,,,,,,8/8 Overcast,100.0,,OVC,100.0,,,,,,
KRDR,01-30-2001,03:00,METAR,,30,7.0,,,400,Freezing Drizzle/Fog with Rime/Cloud Development Not Observable,-6.0,-6.0,29.57,1003.0,,,,56,48,0,,,,,,,,,8/8 Overcast,100.0,,OVC,100.0,,,,,,
KRDR,01-30-2001,02:00,METAR,,50,7.0,,,400,Freezing Drizzle/Fog with Rime/Cloud Development Not Observable,-6.0,-6.0,29.59,1004.0,,,,56,48,0,,,,,,,,,8/8 Overcast,100.0,,OVC,100.0,,,,,,
KRDR,01-30-2001,01:00,METAR,,80,6.0,,,400,Freezing Drizzle/Fog with Rime/Cloud Development Not Observable,-6.0,-6.0,29.60,1004.3,,,,56,48,0,,,,,,,,,8/8 Overcast,100.0,,OVC,100.0,,,,,,
KRDR,01-30-2001,00:42,SPECI,,60,7.0,,,400,Freezing Drizzle/Fog with Rime/Cloud Development Not Observable,-6.0,-6.0,29.61,,,,,56,48,0,,,,,,,,,8/8 Overcast,100.0,,OVC,100.0,,,,,,
KRDR,01-30-2001,00:00,METAR,,,,,,400,Fog with Rime/Cloud Development Not Observable,-5.0,-5.0,29.63,1005.3,,,,48,0,0,,,,,,,,,8/8 Overcast,100.0,,OVC,100.0,,,,,,
KRDR,01-29-2001,23:00,METAR,,140,6.0,,,400,Fog with Rime/Cloud Development Not Observable,-4.0,-5.0,29.63,1005.1,,,,48,0,0,,,,,,,,,8/8 Overcast,100.0,,OVC,100.0,,,,,,
KRDR,01-29-2001,22:44,SPECI,,140,7.0,,,400,Fog with Rime/Cloud Development Not Observable,-4.0,-4.0,29.63,,,,,48,0,0,,,,,,,,,8/8 Overcast,200.0,,OVC,200.0,,,,,,
KRDR,01-29-2001,22:19,SPECI,,150,5.0,,,400,Fog with Rime/Cloud Development Not Observable,-4.0,-5.0,29.62,,,,,48,0,0,,,,,,,,,8/8 Overcast,300.0,,OVC,300.0,,,,,,
KRDR,01-29-2001,22:05,SPECI,,160,6.0,,,800,Light Snow/Mist/Cloud Development Not Observable,-4.0,-5.0,29.62,,,,,71,10,0,,,,,,,,,8/8 Overcast,500.0,,OVC,500.0,,,,,,
KRDR,01-29-2001,22:00,METAR,,,,,,4800,Light Snow/Mist/Cloud Development Not Observable,-4.0,-4.0,29.62,1004.8,,,,71,10,0,,,,,,,,,8/8 Overcast,500.0,,BKN,500.0,OVC,20000.0,,,,
KRDR,01-29-2001,21:00,METAR,,190,9.0,,,9999,Cloud Development Not Observable,-3.0,-4.0,29.64,1005.6,,,,0,0,0,,,,,,,,,7/8 Mostly Cloudy,500.0,,BKN,500.0,BKN,20000.0,,,,
KRDR,01-29-2001,20:27,SPECI,,170,9.0,,,9999,Cloud Development Not Observable,-4.0,-5.0,29.65,,,,,0,0,0,,,,,,,,,7/8 Mostly Cloudy,500.0,,BKN,500.0,BKN,20000.0,,,,
KRDR,01-29-2001,20:00,METAR,,150,9.0,,,9999,Cloud Development Not Observable,-4.0,-5.0,29.67,1006.5,,,,0,0,0,,,,,,,,,8/8 Overcast,20000.0,,SCT,600.0,OVC,20000.0,,,,
KRDR,01-29-2001,19:00,METAR,,150,10.0,,,9999,Cloud Development Not Observable,-5.0,-6.0,29.71,1007.8,,,,0,0,0,,,,,,,,,7/8 Mostly Cloudy,20000.0,,BKN,20000.0,,,,,,
KRDR,01-29-2001,18:00,METAR,,150,8.0,,,9999,Cloud Development Not Observable,-5.0,-7.0,29.74,1008.9,,,,0,0,0,,,,,,,,,7/8 Mostly Cloudy,20000.0,,SCT,600.0,BKN,20000.0,,,,
KRDR,01-29-2001,17:00,METAR,,280,4.0,,,9999,Cloud Development Not Observable,-6.0,-8.0,29.76,1009.5,,,,0,0,0,,,,,,,,,7/8 Mostly Cloudy,20000.0,,SCT,600.0,BKN,20000.0,,,,
KRDR,01-29-2001,16:44,SPECI,,240,2.0,,,9999,Cloud Development Not Observable,-6.0,-7.0,29.77,,,,,0,0,0,,,,,,,,,7/8 Mostly Cloudy,20000.0,,SCT,600.0,BKN,20000.0,,,,
KRDR,01-29-2001,16:00,METAR,,100,3.0,,,9999,Cloud Development Not Observable,-8.0,-9.0,29.75,1009.3,,,,0,0,0,,,,,,,,,7/8 Mostly Cloudy,600.0,,BKN,600.0,BKN,20000.0,,,,
KRDR,01-29-2001,15:24,SPECI,,160,3.0,,,9999,Cloud Development Not Observable,-8.0,-9.0,29.78,,,,,0,0,0,,,,,,,,,4/8 Partly Cloudy,72000.0,,SCT,600.0,SCT,20000.0,,,,
KRDR,01-29-2001,15:15,SPECI,,200,3.0,,,9999,Mist/Cloud Development Not Observable,-9.0,-9.0,29.78,,,,,10,0,0,,,,,,,,,7/8 Mostly Cloudy,600.0,,FEW,300.0,BKN,600.0,BKN,20000.0,,
KRDR,01-29-2001,15:00,METAR,,200,12.0,,,9999,Cloud Development Not Observable,-9.0,-9.0,29.76,1009.7,,,,0,0,0,,,,,,,,,4/8 Partly Cloudy,72000.0,,SCT,400.0,SCT,20000.0,,,,
KRDR,01-29-2001,14:00,METAR,,220,7.0,,,9999,Cloud Development Not Observable,-10.0,-10.0,29.75,1009.2,,,,0,0,0,,,,,,,,,2/8 Mostly Clear,72000.0,,FEW,20000.0,,,,,,
KRDR,01-29-2001,13:00,METAR,,190,9.0,,,9999,Cloud Development Not Observable,-10.0,-10.0,29.76,1009.5,,,,0,0,0,,,,,,,,,Clear,72000.0,,,73000.0,,,,,,
KRDR,01-29-2001,12:00,METAR,,190,12.0,,,9999,Cloud Development Not Observable,-10.0,-10.0,29.75,1009.2,,,,0,0,0,,,,,,,,,Clear,72000.0,,,73000.0,,,,,,
KRDR,01-29-2001,10:00,METAR,,200,11.0,,,9999,Cloud Development Not Observable,-10.0,-10.0,29.79,1010.5,,,,0,0,0,,,,,,,,,Clear,72000.0,,,73000.0,,,,,,
KRDR,01-29-2001,09:00,METAR,,200,10.0,,,9999,Cloud Development Not Observable,-10.0,-11.0,29.81,1011.2,,,,0,0,0,,,,,,,,,Clear,72000.0,,,73000.0,,,,,,
KRDR,01-29-2001,08:00,METAR,,170,11.0,,,9999,Cloud Development Not Observable,-10.0,-11.0,29.82,1011.6,,,,0,0,0,,,,,,,,,Clear,72000.0,,,73000.0,,,,,,
KRDR,01-29-2001,07:00,METAR,,190,7.0,,,9999,Cloud Development Not Observable,-9.0,-11.0,29.83,1011.9,,,,0,0,0,,,,,,,,,Clear,72000.0,,,73000.0,,,,,,
KRDR,01-29-2001,06:00,METAR,,190,11.0,,,9999,Cloud Development Not Observable,-8.0,-10.0,29.83,1012.0,,,,0,0,0,,,,,,,,,2/8 Mostly Clear,72000.0,,FEW,20000.0,,,,,,
KRDR,01-29-2001,05:00,METAR,,190,17.0,,,9999,Cloud Development Not Observable,-8.0,-10.0,29.83,1012.8,,,,0,0,0,,,,,,,,,2/8 Mostly Clear,72000.0,,FEW,20000.0,,,,,,
KRDR,01-29-2001,04:00,METAR,,200,12.0,,,9999,Cloud Development Not Observable,-7.0,-9.0,29.85,1012.8,,,,0,0,0,,,,,,,,,2/8 Mostly Clear,72000.0,,FEW,20000.0,,,,,,
KRDR,01-29-2001,03:00,METAR,,190,14.0,,,9999,Cloud Development Not Observable,-6.0,-8.0,29.86,1013.2,,,,0,0,0,,,,,,,,,2/8 Mostly Clear,72000.0,,FEW,20000.0,,,,,,
KRDR,01-29-2001,02:00,METAR,,190,14.0,,,9999,Cloud Development Not Observable,-6.0,-8.0,29.88,1014.0,,,,0,0,0,,,,,,,,,2/8 Mostly Clear,72000.0,,FEW,20000.0,,,,,,
KRDR,01-29-2001,01:00,METAR,,190,15.0,,,9999,Cloud Development Not Observable,-5.0,-7.0,29.91,1014.8,,,,0,0,0,,,,,,,,,2/8 Mostly Clear,72000.0,,FEW,20000.0,,,,,,
KRDR,01-29-2001,00:00,METAR,,190,14.0,,,9999,Cloud Development Not Observable,-5.0,-7.0,29.91,1014.9,,,,0,0,0,,,,,,,,,2/8 Mostly Clear,72000.0,,FEW,20000.0,,,,,,
KRDR,01-28-2001,23:00,METAR,,190,16.0,,,9999,Cloud Development Not Observable,-4.0,-7.0,29.92,1015.1,,,,0,0,0,,,,,,,,,2/8 Mostly Clear,72000.0,,FEW,20000.0,,,,,,
KRDR,01-28-2001,22:00,METAR,,190,17.0,,,9999,Cloud Development Not Observable,-3.0,-7.0,29.93,1015.4,,,,0,0,0,,,,,,,,,2/8 Mostly Clear,72000.0,,FEW,20000.0,,,,,,
KRDR,01-28-2001,21:00,METAR,,200,16.0,,,9999,Cloud Development Not Observable,-3.0,-7.0,29.94,1015.7,,,,0,0,0,,,,,,,,,2/8 Mostly Clear,72000.0,,FEW,20000.0,,,,,,
KRDR,01-28-2001,20:00,METAR,,180,13.0,,,9999,Cloud Development Not Observable,-4.0,-7.0,29.95,1016.0,,,,0,0,0,,,,,,,,,2/8 Mostly Clear,72000.0,,FEW,20000.0,,,,,,
KRDR,01-28-2001,19:00,METAR,,180,12.0,,,9999,Cloud Development Not Observable,-4.0,-9.0,29.99,1017.2,,,,0,0,0,,,,,,,,,2/8 Mostly Clear,72000.0,,FEW,20000.0,,,,,,
KRDR,01-28-2001,18:00,METAR,,190,13.0,,,9999,Cloud Development Not Observable,-6.0,-10.0,30.01,1018.1,,,,0,0,0,,,,,,,,,Clear,72000.0,,,73000.0,,,,,,
KRDR,01-28-2001,17:00,METAR,,200,8.0,,,9999,Cloud Development Not Observable,-8.0,-11.0,30.03,1018.9,,,,0,0,0,,,,,,,,,Clear,72000.0,,,73000.0,,,,,,
KRDR,01-28-2001,16:00,METAR,,190,10.0,,,9999,Cloud Development Not Observable,-10.0,-12.0,30.04,1019.3,,,,0,0,0,,,,,,,,,Clear,72000.0,,,73000.0,,,,,,
KRDR,01-28-2001,15:00,METAR,,180,9.0,,,9999,Cloud Development Not Observable,-12.0,-13.0,30.05,1019.6,,,,0,0,0,,,,,,,,,Clear,72000.0,,,73000.0,,,,,,
KRDR,01-28-2001,14:00,METAR,,160,8.0,,,9999,Cloud Development Not Observable,-14.0,-14.0,30.06,1020.0,,,,0,0,0,,,,,,,,,Clear,72000.0,,,73000.0,,,,,,
KRDR,01-28-2001,13:00,METAR,,160,7.0,,,9999,Cloud Development Not Observable,-14.0,-14.0,30.08,1020.7,,,,0,0,0,,,,,,,,,Clear,72000.0,,,73000.0,,,,,,
KRDR,01-28-2001,12:00,METAR,,220,7.0,,,9999,Cloud Development Not Observable,-13.0,-13.0,30.09,1020.9,,,,0,0,0,,,,,,,,,2/8 Mostly Clear,72000.0,,FEW,1800.0,,,,,,
KRDR,01-28-2001,11:00,METAR,,220,9.0,,,9999,Cloud Development Not Observable,-11.0,-12.0,30.11,1021.4,,,,0,0,0,,,,,,,,,4/8 Partly Cloudy,72000.0,,SCT,1800.0,,,,,,
KRDR,01-28-2001,10:00,METAR,,210,7.0,,,9999,Cloud Development Not Observable,-10.0,-10.0,30.11,1021.4,,,,0,0,0,,,,,,,,,4/8 Partly Cloudy,72000.0,,SCT,1800.0,,,,,,
KRDR,01-28-2001,09:00,METAR,,190,7.0,,,9999,Cloud Development Not Observable,-9.0,-10.0,30.13,1022.1,,,,0,0,0,,,,,,,,,7/8 Mostly Cloudy,1800.0,,BKN,1800.0,,,,,,
KRDR,01-28-2001,08:00,METAR,,260,8.0,,,9999,Cloud Development Not Observable,-6.0,-8.0,30.12,1021.6,,,,0,0,0,,,,,,,,,8/8 Overcast,1800.0,,BKN,1800.0,OVC,4000.0,,,,
KRDR,01-28-2001,07:00,METAR,,270,8.0,,,9999,Cloud Development Not Observable,-6.0,-8.0,30.12,1021.6,,,,0,0,0,,,,,,,,,8/8 Overcast,1800.0,,BKN,1800.0,OVC,4000.0,,,,
KRDR,01-28-2001,06:00,METAR,,270,7.0,,,9999,Cloud Development Not Observable,-5.0,-7.0,30.13,1021.9,,,,0,0,0,,,,,,,,,8/8 Overcast,1800.0,,BKN,1800.0,OVC,4000.0,,,,
KRDR,01-28-2001,05:00,METAR,,280,8.0,,,9999,Cloud Development Not Observable,-5.0,-7.0,30.13,1021.9,,,,0,0,0,,,,,,,,,8/8 Overcast,2200.0,,BKN,2200.0,OVC,4000.0,,,,
KRDR,01-28-2001,04:00,METAR,,300,9.0,,,9999,Cloud Development Not Observable,-5.0,-7.0,30.12,1021.6,,,,0,0,0,,,,,,,,,8/8 Overcast,2200.0,,BKN,2200.0,OVC,4000.0,,,,
KRDR,01-28-2001,03:00,METAR,,310,8.0,,,9999,Cloud Development Not Observable,-5.0,-7.0,30.12,1021.6,,,,0,0,0,,,,,,,,,8/8 Overcast,2200.0,,BKN,2200.0,OVC,4000.0,,,,
KRDR,01-28-2001,02:00,METAR,,300,11.0,,,9999,Cloud Development Not Observable,-5.0,-7.0,30.12,1021.6,,,,0,0,0,,,,,,,,,8/8 Overcast,2200.0,,BKN,2200.0,OVC,4000.0,,,,
KRDR,01-28-2001,01:00,METAR,,290,10.0,,,9999,Cloud Development Not Observable,-5.0,-7.0,30.10,1021.1,,,,0,0,0,,,,,,,,,8/8 Overcast,2200.0,,BKN,2200.0,OVC,4000.0,,,,
KRDR,01-28-2001,00:00,METAR,,310,11.0,,,9999,Cloud Development Not Observable,-5.0,-7.0,30.08,1020.5,,,,0,0,0,,,,,,,,,8/8 Overcast,2400.0,,BKN,2400.0,OVC,9900.0,,,,
KRDR,01-27-2001,23:00,METAR,,290,9.0,,,9999,Cloud Development Not Observable,-5.0,-7.0,30.06,1020.0,,,,0,0,0,,,,,,,,,8/8 Overcast,2400.0,,BKN,2400.0,OVC,9900.0,,,,
KRDR,01-27-2001,22:40,SPECI,,310,11.0,,,9999,Cloud Development Not Observable,-5.0,-7.0,30.06,,,,,0,0,0,,,,,,,,,8/8 Overcast,2400.0,,BKN,2400.0,OVC,9900.0,,,,
KRDR,01-27-2001,22:00,METAR,,310,13.0,,,9999,Cloud Development Not Observable,-4.0,-7.0,30.05,1019.4,,,,0,0,0,,,,,,,,,8/8 Overcast,10000.0,,SCT,3000.0,BKN,9900.0,OVC,20000.0,,
KRDR,01-27-2001,21:00,METAR,,300,18.0,,,9999,Cloud Development Not Observable,-4.0,-7.0,30.03,1018.8,,,,0,0,0,,,,,,,,,7/8 Mostly Cloudy,20000.0,,FEW,9900.0,BKN,20000.0,,,,
KRDR,01-27-2001,20:00,METAR,,300,19.0,,,9999,Cloud Development Not Observable,-4.0,-8.0,29.99,1017.4,,,,0,0,0,,,,,,,,,2/8 Mostly Clear,72000.0,,FEW,20000.0,,,,,,
KRDR,01-27-2001,19:00,METAR,,300,21.0,,300/28KTS,9999,Cloud Development Not Observable,-4.0,-8.0,29.99,1017.4,,,,0,0,0,,,,,,,,,2/8 Mostly Clear,72000.0,,FEW,20000.0,,,,,,
KRDR,01-27-2001,18:00,METAR,,300,22.0,,290/29KTS,9999,Cloud Development Not Observable,-4.0,-8.0,29.98,1017.0,,,,0,0,0,,,,,,,,,2/8 Mostly Clear,72000.0,,FEW,20000.0,,,,,,
KRDR,01-27-2001,17:00,METAR,,300,20.0,25.0,270/26KTS,9999,Cloud Development Not Observable,-4.0,-8.0,29.96,1016.5,,,,0,0,0,,,,,,,,,2/8 Mostly Clear,72000.0,,FEW,20000.0,,,,,,
KRDR,01-27-2001,16:00,METAR,,280,21.0,26.0,270/32KTS,9999,Cloud Development Not Observable,-5.0,-9.0,29.94,1015.7,,,,0,0,0,,,,,,,,,7/8 Mostly Cloudy,20000.0,,BKN,20000.0,,,,,,
KRDR,01-27-2001,15:00,METAR,,270,23.0,29.0,270/32KTS,9999,Cloud Development Not Observable,-6.0,-10.0,29.92,1015.2,,,,0,0,0,,,,,,,,,2/8 Mostly Clear,72000.0,,FEW,20000.0,,,,,,
KRDR,01-27-2001,14:00,METAR,,260,23.0,29.0,,9999,Cloud Development Not Observable,-6.0,-10.0,29.88,1013.9,,,,0,0,0,,,,,,,,,4/8 Partly Cloudy,72000.0,,FEW,3000.0,SCT,20000.0,,,,
KRDR,01-27-2001,13:00,METAR,,260,23.0,31.0,,9999,Cloud Development Not Observable,-6.0,-10.0,29.90,1014.6,,,,0,0,0,,,,,,,,,7/8 Mostly Cloudy,20000.0,,SCT,3000.0,BKN,20000.0,,,,
KRDR,01-27-2001,12:00,METAR,,220,16.0,,,9999,Cloud Development Not Observable,-7.0,-10.0,29.93,1015.6,,,,0,0,0,,,,,,,,,4/8 Partly Cloudy,72000.0,,SCT,1600.0,SCT,3500.0,,,,
KRDR,01-27-2001,11:00,METAR,,200,13.0,,,9999,Cloud Development Not Observable,-8.0,-10.0,29.99,1018.2,,,,0,0,0,,,,,,,,,4/8 Partly Cloudy,72000.0,,SCT,1600.0,SCT,3500.0,,,,
KRDR,01-27-2001,10:34,SPECI,,210,14.0,,,9999,Cloud Development Not Observable,-7.0,-9.0,30.01,,,,,0,0,0,,,,,,,,,4/8 Partly Cloudy,72000.0,,SCT,1600.0,SCT,3500.0,,,,
KRDR,01-27-2001,10:00,METAR,,210,18.0,25.0,220/32KTS,9999,Cloud Development Not Observable,-7.0,-9.0,30.02,1018.7,,,,0,0,0,,,,,,,,,7/8 Mostly Cloudy,1600.0,,BKN,1600.0,BKN,3500.0,,,,
KRDR,01-27-2001,09:00,METAR,,230,19.0,,230/28KTS,9999,Cloud Development Not Observable,-6.0,-8.0,30.06,1020.0,,,,0,0,0,,,,,,,,,7/8 Mostly Cloudy,1600.0,,BKN,1600.0,BKN,3500.0,,,,
KRDR,01-27-2001,08:00,METAR,,230,19.0,,,9999,Cloud Development Not Observable,-7.0,-9.0,30.12,1021.8,,,,0,0,0,,,,,,,,,7/8 Mostly Cloudy,2000.0,,BKN,2000.0,BKN,3500.0,,,,
KRDR,01-27-2001,07:00,METAR,,240,16.0,,,9999,Cloud Development Not Observable,-7.0,-9.0,30.15,1022.8,,,,0,0,0,,,,,,,,,7/8 Mostly Cloudy,2500.0,,BKN,2500.0,BKN,3500.0,,,,
KRDR,01-27-2001,06:32,SPECI,,220,10.0,,,9999,Cloud Development Not Observable,-8.0,-9.0,30.16,,,,,0,0,0,,,,,,,,,7/8 Mostly Cloudy,2500.0,,BKN,2500.0,BKN,3500.0,,,,
KRDR,01-27-2001,06:00,METAR,,210,10.0,,,9999,Light Snow/Cloud Development Not Observable,-9.0,-10.0,30.17,1023.8,,,,71,0,0,,,,,,,,,7/8 Mostly Cloudy,2000.0,,BKN,2000.0,BKN,3500.0,,,,
KRDR,01-27-2001,05:00,METAR,,180,8.0,,,9999,Light Snow/Cloud Development Not Observable,-11.0,-12.0,30.19,1024.4,,,,71,0,0,,,,,,,,,7/8 Mostly Cloudy,2000.0,,BKN,2000.0,BKN,3500.0,,,,
KRDR,01-27-2001,04:24,SPECI,,160,6.0,,,9999,Light Snow/Cloud Development Not Observable,-11.0,-12.0,30.19,,,,,71,0,0,,,,,,,,,8/8 Overcast,2000.0,,BKN,2000.0,OVC,3000.0,,,,
KRDR,01-27-2001,04:00,METAR,,180,7.0,,,9999,Cloud Development Not Observable,-12.0,-12.0,30.20,1024.9,,,,0,0,0,,,,,,,,,7/8 Mostly Cloudy,3500.0,,SCT,2200.0,BKN,3600.0,,,,
KRDR,01-27-2001,03:00,METAR,,210,5.0,,,9999,Cloud Development Not Observable,-14.0,-15.0,30.22,1025.8,,,,0,0,0,,,,,,,,,4/8 Partly Cloudy,72000.0,,SCT,4000.0,,,,,,
KRDR,01-27-2001,02:00,METAR,,230,4.0,,,9999,Cloud Development Not Observable,-15.0,-16.0,30.23,1025.8,,,,0,0,0,,,,,,,,,4/8 Partly Cloudy,72000.0,,SCT,4000.0,,,,,,
KRDR,01-27-2001,01:00,METAR,,240,4.0,,,9999,Cloud Development Not Observable,-14.0,-15.0,30.24,1026.0,,,,0,0,0,,,,,,,,,4/8 Partly Cloudy,72000.0,,SCT,4000.0,,,,,,
KRDR,01-27-2001,00:00,METAR,,350,7.0,,,9999,Cloud Development Not Observable,-12.0,-14.0,30.24,1026.2,,,,0,0,0,,,,,,,,,4/8 Partly Cloudy,72000.0,,FEW,3000.0,SCT,7900.0,,,,
KRDR,01-26-2001,22:00,METAR,,350,14.0,,,9999,Cloud Development Not Observable,-9.0,-14.0,30.21,1025.2,,,,0,0,0,,,,,,,,,7/8 Mostly Cloudy,8000.0,,SCT,3000.0,BKN,7900.0,,,,
KRDR,01-26-2001,21:00,METAR,,350,20.0,,,9999,Cloud Development Not Observable,-8.0,-13.0,30.20,1024.7,,,,0,0,0,,,,,,,,,4/8 Partly Cloudy,72000.0,,SCT,1500.0,SCT,3000.0,,,,
KRDR,01-26-2001,19:00,METAR,,350,18.0,,340/27KTS,9999,Cloud Development Not Observable,-8.0,-11.0,30.17,1023.8,,,,0,0,0,,,,,,,,,4/8 Partly Cloudy,72000.0,,SCT,1500.0,,,,,,
KRDR,01-26-2001,18:00,METAR,,360,22.0,,340/27KTS,9999,Light Snow/Cloud Development Not Observable,-8.0,-11.0,30.16,1023.4,,,,71,0,0,,,,,,,,,7/8 Mostly Cloudy,1500.0,,BKN,1500.0,BKN,3000.0,,,,
KRDR,01-26-2001,17:36,SPECI,,360,19.0,,,9999,Light Snow/Cloud Development Not Observable,-7.0,-10.0,30.16,,,,,71,0,0,,,,,,,,,7/8 Mostly Cloudy,1500.0,,BKN,1500.0,BKN,3000.0,,,,
KRDR,01-26-2001,17:00,METAR,,360,22.0,,,9999,Cloud Development Not Observable,-7.0,-10.0,30.14,1022.6,,,,0,0,0,,,,,,,,,7/8 Mostly Cloudy,3900.0,,SCT,2200.0,BKN,4000.0,,,,
KRDR,01-26-2001,16:45,METAR,,360,19.0,,,9999,Cloud Development Not Observable,-7.0,-10.0,30.14,,,,,0,0,0,,,,,,,,,4/8 Partly Cloudy,72000.0,,SCT,2200.0,SCT,4000.0,,,,
KRDR,01-26-2001,16:00,METAR,,350,18.0,,,9999,Light Snow/Cloud Development Not Observable,-7.0,-9.0,30.12,1021.9,,,,71,0,0,,,,,,,,,7/8 Mostly Cloudy,2200.0,,BKN,2200.0,BKN,4000.0,,,,
KRDR,01-26-2001,15:00,METAR,,350,14.0,,,9999,Light Snow/Cloud Development Not Observable,-8.0,-9.0,30.09,1020.8,,,,71,0,0,,,,,,,,,7/8 Mostly Cloudy,2700.0,,BKN,2700.0,BKN,4000.0,,,,
KRDR,01-26-2001,14:00,METAR,,360,18.0,,,9999,Light Snow/Cloud Development Not Observable,-8.0,-10.0,30.05,1019.8,,,,71,0,0,,,,,,,,,8/8 Overcast,2700.0,,OVC,2700.0,,,,,,
KRDR,01-26-2001,13:00,METAR,,360,17.0,,360/28KTS,9999,Light Snow/Cloud Development Not Observable,-8.0,-10.0,30.02,1018.6,,,,71,0,0,,,,,,,,,8/8 Overcast,2700.0,,OVC,2700.0,,,,,,
KRDR,01-26-2001,12:00,METAR,,340,21.0,,360/29KTS,9999,Light Snow/Cloud Development Not Observable,-8.0,-10.0,30.00,1017.7,,,,71,0,0,,,,,,,,,8/8 Overcast,1800.0,,BKN,1800.0,OVC,3000.0,,,,
KRDR,01-26-2001,11:36,SPECI,,350,22.0,,,9999,Light Snow/Cloud Development Not Observable,-8.0,-10.0,29.99,,,,,71,0,0,,,,,,,,,8/8 Overcast,1800.0,,BKN,1800.0,OVC,3000.0,,,,
KRDR,01-26-2001,11:00,METAR,,340,25.0,,343/3/KTS,9999,Cloud Development Not Observable,-9.0,-11.0,29.97,1016.8,,,,0,0,0,,,,,,,,,7/8 Mostly Cloudy,1800.0,,SCT,1000.0,BKN,1800.0,BKN,3000.0,,
KRDR,01-26-2001,10:34,SPECI,,340,25.0,,,9999,Cloud Development Not Observable,-8.0,-10.0,29.96,,,,,0,0,0,,,,,,,,,7/8 Mostly Cloudy,1800.0,,SCT,1000.0,BKN,1800.0,BKN,3000.0,,
KRDR,01-26-2001,10:00,METAR,,340,25.0,,353/2/KTS,9999,Light Snow/Cloud Development Not Observable,-8.0,-10.0,29.93,1015.4,,,,71,0,0,,,,,,,,,7/8 Mostly Cloudy,1600.0,,SCT,1000.0,BKN,1600.0,BKN,3000.0,,
KRDR,01-26-2001,09:00,METAR,,340,26.0,31.0,343/1/KTS,9999,Light Snow/Cloud Development Not Observable,-8.0,-9.0,29.90,1014.3,,,,71,0,0,,,,,,,,,7/8 Mostly Cloudy,1600.0,,SCT,1000.0,BKN,1600.0,BKN,3000.0,,
KRDR,01-26-2001,08:47,SPECI,,340,27.0,,,9999,Light Snow/Cloud Development Not Observable,-7.0,-9.0,29.90,,,,,71,0,0,,,,,,,,,8/8 Overcast,1600.0,,BKN,1600.0,OVC,3000.0,,,,
KRDR,01-26-2001,08:00,METAR,,350,22.0,,,9999,Cloud Development Not Observable,-7.0,-9.0,29.86,1012.9,,,,0,0,0,,,,,,,,,8/8 Overcast,1600.0,,BKN,1600.0,OVC,3000.0,,,,
KRDR,01-26-2001,07:00,METAR,,350,20.0,,,9999,Cloud Development Not Observable,-8.0,-10.0,29.84,1012.3,,,,0,0,0,,,,,,,,,8/8 Overcast,2400.0,,BKN,2400.0,OVC,3000.0,,,,
KRDR,01-26-2001,06:00,METAR,,340,20.0,,,9999,Cloud Development Not Observable,-9.0,-10.0,29.81,1011.3,,,,0,0,0,,,,,,,,,8/8 Overcast,2400.0,,BKN,2400.0,OVC,9900.0,,,,
KRDR,01-26-2001,05:42,SPECI,,340,18.0,,,9999,Cloud Development Not Observable,-9.0,-10.0,29.81,,,,,0,0,0,,,,,,,,,8/8 Overcast,2400.0,,BKN,2400.0,OVC,9900.0,,,,
KRDR,01-26-2001,05:00,METAR,,340,18.0,,,9999,Cloud Development Not Observable,-9.0,-11.0,29.78,1010.5,,,,0,0,0,,,,,,,,,7/8 Mostly Cloudy,18000.0,,SCT,9900.0,BKN,18000.0,,,,
KRDR,01-26-2001,04:00,METAR,,350,14.0,,,9999,Cloud Development Not Observable,-9.0,-10.0,29.75,1009.6,,,,0,0,0,,,,,,,,,7/8 Mostly Cloudy,10000.0,,BKN,9900.0,BKN,18000.0,,,,
KRDR,01-26-2001,03:00,METAR,,290,6.0,,,9999,Cloud Development Not Observable,-8.0,-9.0,29.73,1009.0,,,,0,0,0,,,,,,,,,7/8 Mostly Cloudy,10000.0,,SCT,2300.0,BKN,9900.0,BKN,18000.0,,
KRDR,01-26-2001,02:00,METAR,,240,8.0,,,9999,Cloud Development Not Observable,-8.0,-9.0,29.71,1008.3,,,,0,0,0,,,,,,,,,7/8 Mostly Cloudy,10000.0,,BKN,9900.0,BKN,20000.0,,,,
KRDR,01-26-2001,01:00,METAR,,220,10.0,,,9999,Cloud Development Not Observable,-6.0,-8.0,29.71,1008.3,,,,0,0,0,,,,,,,,,7/8 Mostly Cloudy,10000.0,,BKN,9900.0,BKN,20000.0,,,,
KRDR,01-25-2001,23:55,METAR,,210,16.0,,,9999,Cloud Development Not Observable,-5.0,-8.0,29.70,1007.8,,,,0,0,0,,,,,,,,,7/8 Mostly Cloudy,10000.0,,BKN,9900.0,BKN,20000.0,,,,
KRDR,01-25-2001,23:00,METAR,,200,18.0,,,9999,Cloud Development Not Observable,-5.0,-7.0,29.70,1007.7,,,,0,0,0,,,,,,,,,7/8 Mostly Cloudy,20000.0,,SCT,9900.0,BKN,20000.0,,,,
KRDR,01-25-2001,22:00,METAR,,190,16.0,,,9999,Cloud Development Not Observable,-5.0,-8.0,29.71,1008.1,,,,0,0,0,,,,,,,,,7/8 Mostly Cloudy,20000.0,,SCT,9900.0,BKN,20000.0,,,,
KRDR,01-25-2001,21:00,METAR,,160,14.0,,,9999,Cloud Development Not Observable,-5.0,-8.0,29.73,1008.8,,,,0,0,0,,,,,,,,,7/8 Mostly Cloudy,20000.0,,SCT,9900.0,BKN,20000.0,,,,
KRDR,01-25-2001,20:00,METAR,,180,20.0,,190/27KTS,9999,Cloud Development Not Observable,-6.0,-9.0,29.75,1009.7,,,,0,0,0,,,,,,,,,7/8 Mostly Cloudy,20000.0,,SCT,9900.0,BKN,20000.0,,,,
KRDR,01-25-2001,19:00,METAR,,190,21.0,,190/30KTS,9999,Cloud Development Not Observable,-7.0,-10.0,29.77,1010.5,,,,0,0,0,,,,,,,,,8/8 Overcast,20000.0,,SCT,9900.0,OVC,20000.0,,,,
KRDR,01-25-2001,18:00,METAR,,190,24.0,,190/31KTS,9999,Cloud Development Not Observable,-8.0,-11.0,29.82,1012.3,,,,0,0,0,,,,,,,,,7/8 Mostly Cloudy,20000.0,,FEW,9900.0,BKN,20000.0,,,,
KRDR,01-25-2001,17:00,METAR,,190,20.0,,,9999,Cloud Development Not Observable,-10.0,-12.0,29.86,1013.8,,,,0,0,0,,,,,,,,,7/8 Mostly Cloudy,20000.0,,FEW,9900.0,BKN,20000.0,,,,
KRDR,01-25-2001,16:00,METAR,,180,19.0,,,9999,Cloud Development Not Observable,-12.0,-14.0,29.90,1015.1,,,,0,0,0,,,,,,,,,7/8 Mostly Cloudy,20000.0,,FEW,9900.0,BKN,20000.0,,,,
KRDR,01-25-2001,15:00,METAR,,180,16.0,,,9999,Cloud Development Not Observable,-14.0,-16.0,29.93,1016.2,,,,0,0,0,,,,,,,,,4/8 Partly Cloudy,72000.0,,FEW,9900.0,SCT,20000.0,,,,
KRDR,01-25-2001,14:00,METAR,,180,16.0,,,9999,Cloud Development Not Observable,-15.0,-16.0,29.97,1017.5,,,,0,0,0,,,,,,,,,2/8 Mostly Clear,72000.0,,FEW,9900.0,FEW,20000.0,,,,
KRDR,01-25-2001,13:00,METAR,,180,16.0,,,9999,Cloud Development Not Observable,-16.0,-17.0,30.01,1019.0,,,,0,0,0,,,,,,,,,Clear,72000.0,,,73000.0,,,,,,
KRDR,01-25-2001,12:00,METAR,,160,14.0,,,9999,Cloud Development Not Observable,-16.0,-17.0,30.04,1020.1,,,,0,0,0,,,,,,,,,Clear,72000.0,,,73000.0,,,,,,
KRDR,01-25-2001,11:00,METAR,,140,10.0,,,9999,Cloud Development Not Observable,-17.0,-18.0,30.08,1021.1,,,,0,0,0,,,,,,,,,Clear,72000.0,,,73000.0,,,,,,
KRDR,01-25-2001,10:00,METAR,,160,14.0,,,9999,Cloud Development Not Observable,-17.0,-18.0,30.12,1022.5,,,,0,0,0,,,,,,,,,Clear,72000.0,,,73000.0,,,,,,
KRDR,01-25-2001,09:00,METAR,,160,14.0,,,9999,Cloud Development Not Observable,-17.0,-18.0,30.15,1023.5,,,,0,0,0,,,,,,,,,Clear,72000.0,,,73000.0,,,,,,
KRDR,01-25-2001,08:00,METAR,,170,13.0,,,9999,Cloud Development Not Observable,-17.0,-18.0,30.18,1024.6,,,,0,0,0,,,,,,,,,Clear,72000.0,,,73000.0,,,,,,
KRDR,01-25-2001,07:00,METAR,,180,13.0,,,9999,Cloud Development Not Observable,-18.0,-19.0,30.21,1025.9,,,,0,0,0,,,,,,,,,Clear,72000.0,,,73000.0,,,,,,
KRDR,01-25-2001,06:00,METAR,,180,14.0,,,9999,Cloud Development Not Observable,-18.0,-19.0,30.23,1026.6,,,,0,0,0,,,,,,,,,Clear,72000.0,,,73000.0,,,,,,
KRDR,01-25-2001,05:00,METAR,,170,15.0,,,9999,Cloud Development Not Observable,-18.0,-19.0,30.26,1027.9,,,,0,0,0,,,,,,,,,Clear,72000.0,,,73000.0,,,,,,
KRDR,01-25-2001,04:00,METAR,,180,13.0,,,9999,Cloud Development Not Observable,-18.0,-19.0,30.30,1028.9,,,,0,0,0,,,,,,,,,Clear,72000.0,,,73000.0,,,,,,
KRDR,01-25-2001,03:00,METAR,,180,12.0,,,9999,Cloud Development Not Observable,-18.0,-19.0,30.32,1029.7,,,,0,0,0,,,,,,,,,Clear,72000.0,,,73000.0,,,,,,
KRDR,01-25-2001,02:00,METAR,,170,11.0,,,9999,Cloud Development Not Observable,-17.0,-18.0,30.36,1031.1,,,,0,0,0,,,,,,,,,Clear,72000.0,,,73000.0,,,,,,
KRDR,01-25-2001,01:00,METAR,,180,11.0,,,9999,Cloud Development Not Observable,-17.0,-18.0,30.40,1032.4,,,,0,0,0,,,,,,,,,Clear,72000.0,,,73000.0,,,,,,
KRDR,01-25-2001,00:00,METAR,,180,11.0,,,9999,Cloud Development Not Observable,-16.0,-18.0,30.44,1033.8,,,,0,0,0,,,,,,,,,Clear,72000.0,,,73000.0,,,,,,
KRDR,01-24-2001,23:00,METAR,,200,8.0,,,9999,Cloud Development Not Observable,-14.0,-16.0,30.46,1034.2,,,,0,0,0,,,,,,,,,2/8 Mostly Clear,72000.0,,FEW,20000.0,,,,,,
KRDR,01-24-2001,22:00,METAR,,210,9.0,,,9999,Cloud Development Not Observable,-13.0,-16.0,30.47,1034.3,,,,0,0,0,,,,,,,,,2/8 Mostly Clear,72000.0,,FEW,20000.0,,,,,,
KRDR,01-24-2001,21:00,METAR,,240,9.0,,,9999,Cloud Development Not Observable,-13.0,-17.0,30.48,1034.7,,,,0,0,0,,,,,,,,,2/8 Mostly Clear,72000.0,,FEW,20000.0,,,,,,
KRDR,01-24-2001,20:00,METAR,,250,7.0,,,9999,Cloud Development Not Observable,-13.0,-17.0,30.48,1034.6,,,,0,0,0,,,,,,,,,2/8 Mostly Clear,72000.0,,FEW,20000.0,,,,,,
KRDR,01-24-2001,19:00,METAR,,250,7.0,,,9999,Cloud Development Not Observable,-14.0,-17.0,30.51,1035.6,,,,0,0,0,,,,,,,,,Clear,72000.0,,,73000.0,,,,,,
KRDR,01-24-2001,18:00,METAR,,260,6.0,,,9999,Cloud Development Not Observable,-15.0,-18.0,30.54,1036.7,,,,0,0,0,,,,,,,,,Clear,72000.0,,,73000.0,,,,,,
KRDR,01-24-2001,17:00,METAR,,280,7.0,,,9999,Cloud Development Not Observable,-16.0,-20.0,30.55,1037.0,,,,0,0,0,,,,,,,,,Clear,72000.0,,,73000.0,,,,,,
KRDR,01-24-2001,16:00,METAR,,260,6.0,,,9999,Cloud Development Not Observable,-18.0,-20.0,30.52,1036.1,,,,0,0,0,,,,,,,,,Clear,72000.0,,,73000.0,,,,,,
KRDR,01-24-2001,15:00,METAR,,300,9.0,,,9999,Cloud Development Not Observable,-19.0,-20.0,30.52,1036.1,,,,0,0,0,,,,,,,,,2/8 Mostly Clear,72000.0,,FEW,20000.0,,,,,,
KRDR,01-24-2001,14:00,METAR,,300,11.0,,,9999,Cloud Development Not Observable,-19.0,-20.0,30.50,1035.4,,,,0,0,0,,,,,,,,,Clear,72000.0,,,73000.0,,,,,,
KRDR,01-24-2001,13:00,METAR,,320,10.0,,,9999,Cloud Development Not Observable,-19.0,-20.0,30.49,1035.0,,,,0,0,0,,,,,,,,,Clear,72000.0,,,73000.0,,,,,,
KRDR,01-24-2001,12:00,METAR,,320,10.0,,,9999,Cloud Development Not Observable,-17.0,-19.0,30.49,1034.9,,,,0,0,0,,,,,,,,,Clear,72000.0,,,73000.0,,,,,,
KRDR,01-24-2001,11:00,METAR,,330,11.0,,,9999,Cloud Development Not Observable,-17.0,-18.0,30.47,1034.1,,,,0,0,0,,,,,,,,,Clear,72000.0,,,73000.0,,,,,,
KRDR,01-24-2001,10:00,METAR,,330,12.0,,,9999,Cloud Development Not Observable,-16.0,-18.0,30.44,1033.2,,,,0,0,0,,,,,,,,,Clear,72000.0,,,73000.0,,,,,,
KRDR,01-24-2001,09:00,METAR,,340,13.0,,,9999,Cloud Development Not Observable,-16.0,-18.0,30.43,1032.7,,,,0,0,0,,,,,,,,,Clear,72000.0,,,73000.0,,,,,,
KRDR,01-24-2001,08:00,METAR,,340,13.0,,,9999,Cloud Development Not Observable,-14.0,-17.0,30.40,1031.8,,,,0,0,0,,,,,,,,,4/8 Partly Cloudy,72000.0,,SCT,2500.0,,,,,,
KRDR,01-24-2001,07:21,SPECI,,340,15.0,,,9999,Cloud Development Not Observable,-14.0,-16.0,30.39,,,,,0,0,0,,,,,,,,,4/8 Partly Cloudy,72000.0,,SCT,2500.0,,,,,,
KRDR,01-24-2001,07:00,METAR,,350,15.0,,362/7/KTS,9999,Cloud Development Not Observable,-13.0,-15.0,30.38,1031.0,,,,0,0,0,,,,,,,,,7/8 Mostly Cloudy,2500.0,,BKN,2500.0,,,,,,
KRDR,01-24-2001,06:14,SPECI,,360,20.0,,,9999,Cloud Development Not Observable,-12.0,-15.0,30.37,,,,,0,0,0,,,,,,,,,7/8 Mostly Cloudy,2500.0,,SCT,1500.0,BKN,2500.0,,,,
KRDR,01-24-2001,06:00,METAR,,360,19.0,,362/9/KTS,9999,Light Snow/Cloud Development Not Observable,-11.0,-13.0,30.36,1028.0,,,,71,0,0,,,,,,,,,7/8 Mostly Cloudy,2500.0,,SCT,1500.0,BKN,2500.0,,,,
KRDR,01-24-2001,05:10,SPECI,,350,17.0,,,9999,Light Snow/Cloud Development Not Observable,-10.0,-11.0,30.33,,,,,71,0,0,,,,,,,,,7/8 Mostly Cloudy,2500.0,,BKN,2500.0,,,,,,
KRDR,01-24-2001,05:00,METAR,,340,15.0,,332/9/KTS,8000,Light Snow/Cloud Development Not Observable,-10.0,-11.0,30.32,1028.7,,,,71,0,0,,,,,,,,,7/8 Mostly Cloudy,3000.0,,SCT,2000.0,BKN,3000.0,,,,
KRDR,01-24-2001,04:36,SPECI,,340,16.0,,,9999,Light Snow/Cloud Development Not Observable,-9.0,-11.0,30.31,,,,,71,0,0,,,,,,,,,7/8 Mostly Cloudy,3400.0,,SCT,1500.0,BKN,3500.0,,,,
KRDR,01-24-2001,04:00,METAR,,340,20.0,25.0,,9999,Light Snow/Cloud Development Not Observable,-9.0,-10.0,30.31,,,,,71,0,0,,,,,,,,,7/8 Mostly Cloudy,1500.0,,BKN,1500.0,,,,,,
KRDR,01-24-2001,03:00,METAR,,340,12.0,,,9999,Cloud Development Not Observable,-10.0,-11.0,30.27,1027.0,,,,0,0,0,,,,,,,,,2/8 Mostly Clear,72000.0,,FEW,2000.0,,,,,,
KRDR,01-24-2001,02:00,METAR,,340,13.0,,,9999,Cloud Development Not Observable,-9.0,-11.0,30.25,1026.6,,,,0,0,0,,,,,,,,,2/8 Mostly Clear,72000.0,,FEW,1500.0,,,,,,
KRDR,01-24-2001,01:00,METAR,,300,12.0,,,9999,Cloud Development Not Observable,-10.0,-11.0,30.19,1025.2,,,,0,0,0,,,,,,,,,Clear,72000.0,,,73000.0,,,,,,
KRDR,01-24-2001,00:00,METAR,,280,8.0,,,9999,Cloud Development Not Observable,-9.0,-10.0,30.19,1024.5,,,,0,0,0,,,,,,,,,Clear,72000.0,,,73000.0,,,,,,
KRDR,01-23-2001,23:00,METAR,,290,10.0,,,9999,Cloud Development Not Observable,-7.0,-9.0,30.19,1024.2,,,,0,0,0,,,,,,,,,Clear,72000.0,,,73000.0,,,,,,
KRDR,01-23-2001,22:00,METAR,,300,11.0,,,9999,Cloud Development Not Observable,-5.0,-8.0,30.18,1023.8,,,,0,0,0,,,,,,,,,Clear,72000.0,,,73000.0,,,,,,
KRDR,01-23-2001,21:00,METAR,,300,13.0,,,9999,Cloud Development Not Observable,-5.0,-8.0,30.17,1023.5,,,,0,0,0,,,,,,,,,Clear,72000.0,,,73000.0,,,,,,
KRDR,01-23-2001,20:00,METAR,,310,14.0,,,9999,Cloud Development Not Observable,-5.0,-9.0,30.16,1023.3,,,,0,0,0,,,,,,,,,2/8 Mostly Clear,72000.0,,FEW,9900.0,,,,,,
KRDR,01-23-2001,19:00,METAR,,310,16.0,,,9999,Cloud Development Not Observable,-5.0,-9.0,30.17,1023.5,,,,0,0,0,,,,,,,,,4/8 Partly Cloudy,72000.0,,FEW,9900.0,SCT,20000.0,,,,
KRDR,01-23-2001,18:00,METAR,,300,13.0,,,9999,Cloud Development Not Observable,-6.0,-9.0,30.17,1023.5,,,,0,0,0,,,,,,,,,7/8 Mostly Cloudy,20000.0,,SCT,9900.0,BKN,20000.0,,,,
KRDR,01-23-2001,17:00,METAR,,300,14.0,,,7000,Cloud Development Not Observable,,-10.0,30.17,1023.5,,,,0,0,0,,,,,,,,,7/8 Mostly Cloudy,10000.0,,BKN,9900.0,BKN,20000.0,,,,
KRDR,01-23-2001,16:00,METAR,,310,12.0,,,9999,Cloud Development Not Observable,-7.0,-9.0,30.16,1013.2,,,,0,0,0,,,,,,,,,7/8 Mostly Cloudy,10000.0,,BKN,9900.0,BKN,20000.0,,,,
KRDR,01-23-2001,15:00,METAR,,290,9.0,,,9999,Cloud Development Not Observable,-8.0,-10.0,30.14,1022.5,,,,0,0,0,,,,,,,,,7/8 Mostly Cloudy,10000.0,,BKN,9900.0,BKN,20000.0,,,,
KRDR,01-23-2001,14:00,METAR,,270,7.0,,,9999,Cloud Development Not Observable,-11.0,-12.0,30.14,1022.6,,,,0,0,0,,,,,,,,,4/8 Partly Cloudy,72000.0,,SCT,5900.0,SCT,20000.0,,,,
KRDR,01-23-2001,13:00,METAR,,280,11.0,,,9999,Cloud Development Not Observable,-7.0,-10.0,30.13,1022.1,,,,0,0,0,,,,,,,,,Clear,72000.0,,,73000.0,,,,,,
KRDR,01-23-2001,12:00,METAR,,290,12.0,,,9999,Cloud Development Not Observable,-8.0,-10.0,30.14,1022.4,,,,0,0,0,,,,,,,,,Clear,72000.0,,,73000.0,,,,,,
KRDR,01-23-2001,11:00,METAR,,290,13.0,,,9999,Cloud Development Not Observable,-7.0,-10.0,30.15,1022.5,,,,0,0,0,,,,,,,,,Clear,72000.0,,,73000.0,,,,,,
KRDR,01-23-2001,10:00,METAR,,270,11.0,,,9999,Cloud Development Not Observable,-8.0,-10.0,30.15,1022.6,,,,0,0,0,,,,,,,,,Clear,72000.0,,,73000.0,,,,,,
KRDR,01-23-2001,09:00,METAR,,280,13.0,,,9999,Cloud Development Not Observable,-7.0,-9.0,30.15,1022.7,,,,0,0,0,,,,,,,,,Clear,72000.0,,,73000.0,,,,,,
KRDR,01-23-2001,08:00,METAR,,280,14.0,,,9999,Cloud Development Not Observable,-7.0,-9.0,30.15,1022.4,,,,0,0,0,,,,,,,,,Clear,72000.0,,,73000.0,,,,,,
KRDR,01-23-2001,07:00,METAR,,290,12.0,,,9999,Cloud Development Not Observable,-6.0,-8.0,30.14,1022.3,,,,0,0,0,,,,,,,,,Clear,72000.0,,,73000.0,,,,,,
KRDR,01-23-2001,06:00,METAR,,270,14.0,,,9999,Cloud Development Not Observable,-5.0,-8.0,30.14,1022.1,,,,0,0,0,,,,,,,,,Clear,72000.0,,,73000.0,,,,,,
KRDR,01-23-2001,05:00,METAR,,280,14.0,,,9999,Cloud Development Not Observable,-4.0,-8.0,30.13,1021.7,,,,0,0,0,,,,,,,,,Clear,72000.0,,,73000.0,,,,,,
KRDR,01-23-2001,04:00,METAR,,290,16.0,,,9999,Cloud Development Not Observable,-3.0,-7.0,30.11,1021.2,,,,0,0,0,,,,,,,,,Clear,72000.0,,,73000.0,,,,,,
KRDR,01-23-2001,03:00,METAR,,290,20.0,,,9999,Cloud Development Not Observable,-2.0,-6.0,30.10,1020.7,,,,0,0,0,,,,,,,,,Clear,72000.0,,,73000.0,,,,,,
KRDR,01-23-2001,02:00,METAR,,290,21.0,,,9999,Cloud Development Not Observable,-2.0,-5.0,30.08,1020.2,,,,0,0,0,,,,,,,,,Clear,72000.0,,,73000.0,,,,,,
KRDR,01-23-2001,01:00,METAR,,290,24.0,,,9999,Cloud Development Not Observable,-1.0,-4.0,30.06,1019.4,,,,0,0,0,,,,,,,,,Clear,72000.0,,,73000.0,,,,,,
KRDR,01-23-2001,00:00,METAR,,280,19.0,,,9999,Cloud Development Not Observable,-1.0,-4.0,30.04,1018.9,,,,0,0,0,,,,,,,,,Clear,72000.0,,,73000.0,,,,,,
KRDR,01-22-2001,23:00,METAR,,280,19.0,,,9999,Cloud Development Not Observable,0.0,-3.0,30.03,1018.4,,,,0,0,0,,,,,,,,,Clear,72000.0,,,73000.0,,,,,,
KRDR,01-22-2001,22:00,METAR,,280,21.0,,280/27KTS,9999,Cloud Development Not Observable,0.0,-3.0,30.01,1018.0,,,,0,0,0,,,,,,,,,Clear,72000.0,,,73000.0,,,,,,
KRDR,01-22-2001,21:00,METAR,,290,20.0,,,9999,Cloud Development Not Observable,1.0,-2.0,30.00,1017.4,,,,0,0,0,,,,,,,,,4/8 Partly Cloudy,72000.0,,FEW,2000.0,SCT,20000.0,,,,
KRDR,01-22-2001,20:00,METAR,,290,13.0,20.0,,9999,Cloud Development Not Observable,2.0,-2.0,29.97,1016.5,,,,0,0,0,,,,,,,,,4/8 Partly Cloudy,72000.0,,SCT,9900.0,SCT,20000.0,,,,
KRDR,01-22-2001,19:00,METAR,,300,17.0,,,9999,Cloud Development Not Observable,0.0,-3.0,29.97,1016.5,,,,0,0,0,,,,,,,,,7/8 Mostly Cloudy,10000.0,,FEW,3000.0,BKN,9900.0,BKN,20000.0,,
KRDR,01-22-2001,18:00,METAR,,300,19.0,25.0,,9999,Cloud Development Not Observable,0.0,-4.0,29.97,1016.5,,,,0,0,0,,,,,,,,,7/8 Mostly Cloudy,10000.0,,FEW,6900.0,BKN,9900.0,BKN,20000.0,,
KRDR,01-22-2001,17:30,METAR,,290,21.0,,,9999,Cloud Development Not Observable,0.0,-4.0,29.96,,,,,0,0,0,,,,,,,,,7/8 Mostly Cloudy,10000.0,,FEW,5900.0,BKN,9900.0,,,,
KRDR,01-22-2001,17:00,METAR,,280,13.0,,,9999,Cloud Development Not Observable,0.0,-4.0,29.95,1015.8,,,,0,0,0,,,,,,,,,8/8 Overcast,10000.0,,FEW,5000.0,OVC,9900.0,,,,
KRDR,01-22-2001,16:00,METAR,,270,13.0,,,9999,Cloud Development Not Observable,-1.0,-4.0,29.93,1015.1,,,,0,0,0,,,,,,,,,8/8 Overcast,10000.0,,SCT,5000.0,OVC,9900.0,,,,
KRDR,01-22-2001,15:49,SPECI,,270,13.0,,,9999,Cloud Development Not Observable,-1.0,-4.0,29.92,,,,,0,0,0,,,,,,,,,8/8 Overcast,10000.0,,SCT,5000.0,OVC,9900.0,,,,
KRDR,01-22-2001,15:00,METAR,,,,,,9999,Cloud Development Not Observable,-2.0,-5.0,29.91,1014.5,,,,0,0,0,,,,,,,,,8/8 Overcast,10000.0,,FEW,5000.0,OVC,9900.0,,,,
KRDR,01-22-2001,14:43,SPECI,,270,10.0,,,9999,Cloud Development Not Observable,-1.0,-5.0,29.92,,,,,0,0,0,,,,,,,,,8/8 Overcast,10000.0,,OVC,9900.0,,,,,,
KRDR,01-22-2001,14:00,METAR,,240,7.0,,,9999,Cloud Development Not Observable,-2.0,-5.0,29.92,1014.9,,,,0,0,0,,,,,,,,,8/8 Overcast,10000.0,,OVC,9900.0,,,,,,
KRDR,01-22-2001,13:38,SPECI,,210,5.0,,,9999,Cloud Development Not Observable,-2.0,-5.0,29.92,,,,,0,0,0,,,,,,,,,8/8 Overcast,10000.0,,OVC,9900.0,,,,,,
KRDR,01-22-2001,13:00,METAR,,220,9.0,,,9999,Cloud Development Not Observable,-2.0,-5.0,29.91,1014.4,,,,0,0,0,,,,,,,,,8/8 Overcast,10000.0,,OVC,9900.0,,,,,,
KRDR,01-22-2001,12:00,METAR,,190,7.0,,,9999,Cloud Development Not Observable,-3.0,-5.0,29.93,1015.2,,,,0,0,0,,,,,,,,,8/8 Overcast,11000.0,,BKN,11000.0,OVC,20000.0,,,,
KRDR,01-22-2001,11:00,METAR,,170,13.0,,,9999,Cloud Development Not Observable,-5.0,-7.0,29.95,1015.9,,,,0,0,0,,,,,,,,,7/8 Mostly Cloudy,12000.0,,BKN,12000.0,BKN,20000.0,,,,
KRDR,01-22-2001,10:00,METAR,,170,11.0,,,9999,Cloud Development Not Observable,-6.0,-7.0,29.96,1016.5,,,,0,0,0,,,,,,,,,7/8 Mostly Cloudy,20000.0,,SCT,12000.0,BKN,20000.0,,,,
KRDR,01-22-2001,09:00,METAR,,170,13.0,,,9999,Cloud Development Not Observable,-8.0,-9.0,29.99,1017.4,,,,0,0,0,,,,,,,,,7/8 Mostly Cloudy,20000.0,,SCT,12000.0,BKN,20000.0,,,,
KRDR,01-22-2001,08:00,METAR,,170,12.0,,,9999,Cloud Development Not Observable,-10.0,-11.0,30.00,1018.0,,,,0,0,0,,,,,,,,,7/8 Mostly Cloudy,20000.0,,SCT,12000.0,BKN,20000.0,,,,
KRDR,01-22-2001,07:00,METAR,,170,13.0,,,9999,Cloud Development Not Observable,-10.0,-11.0,30.03,1019.1,,,,0,0,0,,,,,,,,,7/8 Mostly Cloudy,20000.0,,BKN,20000.0,,,,,,
KRDR,01-22-2001,06:00,METAR,,180,13.0,,,9999,Cloud Development Not Observable,-9.0,-10.0,30.06,1020.3,,,,0,0,0,,,,,,,,,4/8 Partly Cloudy,72000.0,,SCT,20000.0,,,,,,
KRDR,01-22-2001,05:00,METAR,,180,12.0,,,9999,Cloud Development Not Observable,-10.0,-11.0,30.08,1020.7,,,,0,0,0,,,,,,,,,7/8 Mostly Cloudy,20000.0,,BKN,20000.0,,,,,,
KRDR,01-22-2001,04:00,METAR,,180,13.0,,,9999,Cloud Development Not Observable,-9.0,-10.0,30.10,1021.3,,,,0,0,0,,,,,,,,,7/8 Mostly Cloudy,20000.0,,BKN,20000.0,,,,,,
KRDR,01-22-2001,03:00,METAR,,180,13.0,,,9999,Cloud Development Not Observable,-10.0,-10.0,30.13,1022.6,,,,0,0,0,,,,,,,,,7/8 Mostly Cloudy,20000.0,,BKN,20000.0,,,,,,
KRDR,01-22-2001,02:00,METAR,,170,13.0,,,9999,Cloud Development Not Observable,-10.0,-11.0,30.16,1023.4,,,,0,0,0,,,,,,,,,7/8 Mostly Cloudy,20000.0,,BKN,20000.0,,,,,,
KRDR,01-22-2001,01:00,METAR,,150,8.0,,,9999,Cloud Development Not Observable,-9.0,-10.0,30.17,1024.0,,,,0,0,0,,,,,,,,,7/8 Mostly Cloudy,20000.0,,BKN,20000.0,,,,,,
KRDR,01-21-2001,23:55,METAR,,150,9.0,,,9999,Cloud Development Not Observable,-9.0,-10.0,30.19,1024.6,,,,0,0,0,,,,,,,,,4/8 Partly Cloudy,72000.0,,SCT,20000.0,,,,,,
KRDR,01-21-2001,23:00,METAR,,180,11.0,,,9999,Cloud Development Not Observable,-8.0,-9.0,30.20,1024.8,,,,0,0,0,,,,,,,,,2/8 Mostly Clear,72000.0,,FEW,20000.0,,,,,,
KRDR,01-21-2001,22:00,METAR,,180,11.0,,,9999,Cloud Development Not Observable,-7.0,-9.0,30.20,1024.8,,,,0,0,0,,,,,,,,,Clear,72000.0,,,73000.0,,,,,,
KRDR,01-21-2001,21:00,METAR,,190,12.0,,,9999,Cloud Development Not Observable,-6.0,-9.0,30.21,1025.1,,,,0,0,0,,,,,,,,,Clear,72000.0,,,73000.0,,,,,,
KRDR,01-21-2001,20:00,METAR,,170,10.0,,,9999,Cloud Development Not Observable,-7.0,-9.0,30.22,1025.4,,,,0,0,0,,,,,,,,,Clear,72000.0,,,73000.0,,,,,,
KRDR,01-21-2001,19:00,METAR,,180,9.0,,,9999,Cloud Development Not Observable,-9.0,-10.0,30.23,1026.0,,,,0,0,0,,,,,,,,,2/8 Mostly Clear,72000.0,,FEW,20000.0,,,,,,
KRDR,01-21-2001,18:00,METAR,,200,8.0,,,9999,Cloud Development Not Observable,-11.0,-11.0,30.27,1027.1,,,,0,0,0,,,,,,,,,4/8 Partly Cloudy,72000.0,,FEW,1600.0,SCT,20000.0,,,,
KRDR,01-21-2001,17:00,METAR,,200,8.0,,,9999,Mist/Cloud Development Not Observable,-12.0,-12.0,30.26,1026.9,,,,10,0,0,,,,,,,,,7/8 Mostly Cloudy,20000.0,,SCT,1400.0,BKN,20000.0,,,,
KRDR,01-21-2001,16:00,METAR,,210,9.0,,,9999,Cloud Development Not Observable,-12.0,-12.0,30.25,1026.8,,,,0,0,0,,,,,,,,,4/8 Partly Cloudy,72000.0,,FEW,1500.0,SCT,20000.0,,,,
KRDR,01-21-2001,15:38,SPECI,,200,7.0,,,9999,Cloud Development Not Observable,-12.0,-12.0,30.25,,,,,0,0,0,,,,,,,,,4/8 Partly Cloudy,72000.0,,SCT,1500.0,SCT,20000.0,,,,
KRDR,01-21-2001,15:15,SPECI,,190,10.0,,,9999,Cloud Development Not Observable,-12.0,-12.0,30.25,,,,,0,0,0,,,,,,,,,7/8 Mostly Cloudy,1300.0,,SCT,800.0,BKN,1300.0,,,,
KRDR,01-21-2001,15:00,METAR,,200,8.0,,,9999,Mist/Cloud Development Not Observable,-11.0,-12.0,30.26,1026.9,,,,10,0,0,,,,,,,,,7/8 Mostly Cloudy,900.0,,SCT,400.0,BKN,900.0,,,,
KRDR,01-21-2001,14:00,METAR,,220,7.0,,,6400,Mist/Cloud Development Not Observable,-11.0,-11.0,30.26,1027.0,,,,10,0,0,,,,,,,,,8/8 Overcast,700.0,,SCT,400.0,OVC,700.0,,,,
KRDR,01-21-2001,13:00,METAR,,240,7.0,,,9999,Mist/Cloud Development Not Observable,-11.0,-11.0,30.27,1027.2,,,,10,0,0,,,,,,,,,7/8 Mostly Cloudy,800.0,,SCT,400.0,BKN,800.0,,,,
KRDR,01-21-2001,12:00,METAR,,250,8.0,,,9999,Mist/Cloud Development Not Observable,-10.0,-10.0,30.25,1026.8,,,,10,0,0,,,,,,,,,7/8 Mostly Cloudy,800.0,,SCT,400.0,BKN,800.0,,,,
KRDR,01-21-2001,11:00,METAR,,260,10.0,,,6400,Mist/Cloud Development Not Observable,-9.0,-9.0,30.25,1026.8,,,,10,0,0,,,,,,,,,8/8 Overcast,800.0,,SCT,400.0,OVC,800.0,,,,
KRDR,01-21-2001,10:00,METAR,,190,6.0,,,6400,Mist/Cloud Development Not Observable,-9.0,-9.0,30.24,1026.2,,,,10,0,0,,,,,,,,,8/8 Overcast,800.0,,SCT,400.0,OVC,800.0,,,,
KRDR,01-21-2001,09:00,METAR,,180,4.0,,,6400,Mist/Cloud Development Not Observable,-9.0,-9.0,30.23,1026.0,,,,10,0,0,,,,,,,,,8/8 Overcast,800.0,,SCT,400.0,OVC,800.0,,,,
KRDR,01-21-2001,08:00,METAR,,160,4.0,,,6400,Mist/Cloud Development Not Observable,-9.0,-9.0,30.22,1025.6,,,,10,0,0,,,,,,,,,8/8 Overcast,800.0,,SCT,400.0,OVC,800.0,,,,
KRDR,01-21-2001,07:00,METAR,,80,4.0,,,6400,Mist/Cloud Development Not Observable,-9.0,-9.0,30.22,1025.6,,,,10,0,0,,,,,,,,,8/8 Overcast,800.0,,SCT,400.0,OVC,800.0,,,,
KRDR,01-21-2001,06:00,METAR,,30,5.0,,,6400,Mist/Cloud Development Not Observable,-9.0,-9.0,30.23,1025.9,,,,10,0,0,,,,,,,,,8/8 Overcast,800.0,,SCT,400.0,OVC,800.0,,,,
KRDR,01-21-2001,05:37,SPECI,,10,5.0,,,6400,Mist/Cloud Development Not Observable,-9.0,-9.0,30.23,,,,,10,0,0,,,,,,,,,8/8 Overcast,800.0,,SCT,400.0,OVC,800.0,,,,
KRDR,01-21-2001,05:00,METAR,,350,6.0,,,6400,Freezing Drizzle/Cloud Development Not Observable,-9.0,-9.0,30.22,1025.7,,,,56,0,0,,,,,,,,,8/8 Overcast,600.0,,OVC,600.0,,,,,,
KRDR,01-21-2001,04:00,METAR,,350,3.0,,,6400,Freezing Drizzle/Mist/Cloud Development Not Observable,-10.0,-10.0,30.21,1025.5,,,,56,10,0,,,,,,,,,8/8 Overcast,800.0,,OVC,800.0,,,,,,
KRDR,01-21-2001,03:00,METAR,,30,2.0,,,6400,Freezing Drizzle/Mist/Cloud Development Not Observable,-10.0,-10.0,30.19,1024.9,,,,56,10,0,,,,,,,,,8/8 Overcast,800.0,,OVC,800.0,,,,,,
KRDR,01-21-2001,02:10,SPECI,,350,1.0,,,6400,Freezing Drizzle/Mist/Cloud Development Not Observable,-11.0,-11.0,30.19,,,,,56,10,0,,,,,,,,,8/8 Overcast,400.0,,OVC,400.0,,,,,,
KRDR,01-21-2001,02:00,METAR,,340,3.0,,,8000,Fog with Rime/Cloud Development Not Observable,-11.0,-12.0,30.19,1024.9,,,,48,0,0,,,,,,,,,8/8 Overcast,500.0,,OVC,500.0,,,,,,
KRDR,01-21-2001,01:40,SPECI,,330,4.0,,,9999,Cloud Development Not Observable,-11.0,-11.0,30.18,,,,,0,0,0,,,,,,,,,7/8 Mostly Cloudy,500.0,,BKN,500.0,,,,,,
KRDR,01-21-2001,01:00,METAR,,20,2.0,,,9999,Cloud Development Not Observable,-11.0,-12.0,30.17,1024.1,,,,0,0,0,,,,,,,,,7/8 Mostly Cloudy,600.0,,BKN,600.0,,,,,,
KRDR,01-21-2001,00:00,METAR,,30,5.0,,,9999,Cloud Development Not Observable,-11.0,-13.0,30.15,1023.5,,,,0,0,0,,,,,,,,,7/8 Mostly Cloudy,800.0,,BKN,800.0,,,,,,
KRDR,01-20-2001,23:20,METAR,,40,3.0,,,9999,Cloud Development Not Observable,-11.0,-12.0,30.14,,,,,0,0,0,,,,,,,,,7/8 Mostly Cloudy,800.0,,BKN,800.0,,,,,,
KRDR,01-20-2001,23:00,METAR,,30,4.0,,,9999,Cloud Development Not Observable,-11.0,-13.0,30.13,1022.6,,,,0,0,0,,,,,,,,,4/8 Partly Cloudy,72000.0,,SCT,800.0,,,,,,
KRDR,01-20-2001,22:00,METAR,,10,10.0,,,9999,Cloud Development Not Observable,-10.0,-12.0,30.10,1021.6,,,,0,0,0,,,,,,,,,Clear,72000.0,,,73000.0,,,,,,
KRDR,01-20-2001,21:00,METAR,,360,9.0,,,9999,Cloud Development Not Observable,-9.0,-11.0,30.06,1020.4,,,,0,0,0,,,,,,,,,Clear,72000.0,,,73000.0,,,,,,
KRDR,01-20-2001,20:00,METAR,,340,10.0,,,9999,Cloud Development Not Observable,-9.0,-11.0,30.04,1019.7,,,,0,0,0,,,,,,,,,Clear,72000.0,,,73000.0,,,,,,
KRDR,01-20-2001,19:00,METAR,,330,7.0,,,9999,Cloud Development Not Observable,-10.0,-12.0,30.03,1019.2,,,,0,0,0,,,,,,,,,Clear,72000.0,,,73000.0,,,,,,
KRDR,01-20-2001,18:00,METAR,,350,7.0,,,9999,Cloud Development Not Observable,-11.0,-13.0,30.02,1019.1,,,,0,0,0,,,,,,,,,Clear,72000.0,,,73000.0,,,,,,
KRDR,01-20-2001,17:00,METAR,,290,7.0,,,9999,Cloud Development Not Observable,-12.0,-14.0,30.00,1018.5,,,,0,0,0,,,,,,,,,Clear,72000.0,,,73000.0,,,,,,
KRDR,01-20-2001,16:00,METAR,,210,7.0,,,9999,Cloud Development Not Observable,-15.0,-16.0,29.99,1018.2,,,,0,0,0,,,,,,,,,Clear,72000.0,,,73000.0,,,,,,
KRDR,01-20-2001,15:00,METAR,,190,7.0,,,9999,Cloud Development Not Observable,-17.0,-18.0,29.98,1018.1,,,,0,0,0,,,,,,,,,Clear,72000.0,,,73000.0,,,,,,
KRDR,01-20-2001,14:00,METAR,,190,8.0,,,9999,Cloud Development Not Observable,-19.0,-19.0,29.98,1018.1,,,,0,0,0,,,,,,,,,Clear,72000.0,,,73000.0,,,,,,
KRDR,01-20-2001,13:00,METAR,,160,11.0,,,9999,Cloud Development Not Observable,-18.0,-18.0,29.97,1017.6,,,,0,0,0,,,,,,,,,2/8 Mostly Clear,72000.0,,FEW,20000.0,,,,,,
KRDR,01-20-2001,12:00,METAR,,120,8.0,,,9999,Cloud Development Not Observable,-16.0,-17.0,29.96,1017.2,,,,0,0,0,,,,,,,,,2/8 Mostly Clear,72000.0,,FEW,20000.0,,,,,,
KRDR,01-20-2001,11:00,METAR,,160,9.0,,,9999,Cloud Development Not Observable,-16.0,-17.0,29.95,1016.8,,,,0,0,0,,,,,,,,,2/8 Mostly Clear,72000.0,,FEW,20000.0,,,,,,
KRDR,01-20-2001,10:00,METAR,,180,11.0,,,9999,Cloud Development Not Observable,-17.0,-18.0,29.97,1017.4,,,,0,0,0,,,,,,,,,4/8 Partly Cloudy,72000.0,,SCT,20000.0,,,,,,
KRDR,01-20-2001,08:00,METAR,,170,13.0,,,9999,Cloud Development Not Observable,-16.0,-17.0,29.99,1018.1,,,,0,0,0,,,,,,,,,4/8 Partly Cloudy,72000.0,,FEW,15000.0,SCT,20000.0,,,,
KRDR,01-20-2001,07:00,METAR,,190,9.0,,,9999,Cloud Development Not Observable,-15.0,-16.0,30.00,1018.6,,,,0,0,0,,,,,,,,,4/8 Partly Cloudy,72000.0,,FEW,15000.0,SCT,20000.0,,,,
KRDR,01-20-2001,06:00,METAR,,170,8.0,,,9999,Cloud Development Not Observable,-15.0,-16.0,30.03,1019.5,,,,0,0,0,,,,,,,,,4/8 Partly Cloudy,72000.0,,FEW,15000.0,SCT,20000.0,,,,
KRDR,01-20-2001,05:00,METAR,,200,13.0,,,9999,Cloud Development Not Observable,-16.0,-17.0,30.03,1019.7,,,,0,0,0,,,,,,,,,4/8 Partly Cloudy,72000.0,,FEW,15000.0,SCT,20000.0,,,,
KRDR,01-20-2001,04:00,METAR,,200,9.0,,,9999,Cloud Development Not Observable,-16.0,-17.0,30.04,1020.3,,,,0,0,0,,,,,,,,,4/8 Partly Cloudy,72000.0,,FEW,15000.0,SCT,20000.0,,,,
KRDR,01-20-2001,03:00,METAR,,190,11.0,,,9999,Cloud Development Not Observable,-16.0,-17.0,30.05,1020.5,,,,0,0,0,,,,,,,,,4/8 Partly Cloudy,72000.0,,FEW,15000.0,SCT,20000.0,,,,
KRDR,01-20-2001,02:00,METAR,,190,15.0,,,9999,Cloud Development Not Observable,-16.0,-17.0,30.08,1021.7,,,,0,0,0,,,,,,,,,4/8 Partly Cloudy,72000.0,,FEW,15000.0,SCT,20000.0,,,,
KRDR,01-20-2001,01:00,METAR,,190,14.0,,,9999,Cloud Development Not Observable,-15.0,-17.0,30.10,1022.4,,,,0,0,0,,,,,,,,,7/8 Mostly Cloudy,20000.0,,FEW,15000.0,BKN,20000.0,,,,
KRDR,01-20-2001,00:00,METAR,,180,14.0,,,9999,Cloud Development Not Observable,-15.0,-17.0,30.14,1023.8,,,,0,0,0,,,,,,,,,7/8 Mostly Cloudy,20000.0,,FEW,15000.0,BKN,20000.0,,,,
KRDR,01-19-2001,23:00,METAR,,200,10.0,,,9999,Cloud Development Not Observable,-15.0,-16.0,30.18,1025.1,,,,0,0,0,,,,,,,,,7/8 Mostly Cloudy,20000.0,,FEW,15000.0,BKN,20000.0,,,,
KRDR,01-19-2001,22:00,METAR,,190,11.0,,,9999,Cloud Development Not Observable,-13.0,-16.0,30.20,1025.7,,,,0,0,0,,,,,,,,,2/8 Mostly Clear,72000.0,,FEW,20000.0,,,,,,
KRDR,01-19-2001,21:00,METAR,,190,12.0,,,9999,Cloud Development Not Observable,-14.0,-16.0,30.21,1026.1,,,,0,0,0,,,,,,,,,2/8 Mostly Clear,72000.0,,FEW,20000.0,,,,,,
KRDR,01-19-2001,20:00,METAR,,190,15.0,,,9999,Cloud Development Not Observable,-14.0,-17.0,30.24,1027.1,,,,0,0,0,,,,,,,,,2/8 Mostly Clear,72000.0,,FEW,20000.0,,,,,,
KRDR,01-19-2001,19:00,METAR,,190,12.0,,,9999,Cloud Development Not Observable,-15.0,-17.0,30.27,1028.0,,,,0,0,0,,,,,,,,,2/8 Mostly Clear,72000.0,,FEW,20000.0,,,,,,
KRDR,01-19-2001,18:00,METAR,,210,9.0,,,9999,Cloud Development Not Observable,-16.0,-18.0,30.31,1029.4,,,,0,0,0,,,,,,,,,2/8 Mostly Clear,72000.0,,FEW,20000.0,,,,,,
KRDR,01-19-2001,17:00,METAR,,200,10.0,,,9999,Cloud Development Not Observable,-18.0,-19.0,30.33,1029.9,,,,0,0,0,,,,,,,,,2/8 Mostly Clear,72000.0,,FEW,20000.0,,,,,,
KRDR,01-19-2001,16:00,METAR,,190,8.0,,,9999,Cloud Development Not Observable,-20.0,-21.0,30.34,1030.4,,,,0,0,0,,,,,,,,,Clear,72000.0,,,73000.0,,,,,,
KRDR,01-19-2001,15:00,METAR,,180,4.0,,,9999,Cloud Development Not Observable,-23.0,-24.0,30.35,1030.8,,,,0,0,0,,,,,,,,,Clear,72000.0,,,73000.0,,,,,,
KRDR,01-19-2001,14:00,METAR,,190,7.0,,,9999,Cloud Development Not Observable,-24.0,-24.0,30.34,1030.7,,,,0,0,0,,,,,,,,,Clear,72000.0,,,73000.0,,,,,,
KRDR,01-19-2001,13:00,METAR,,230,7.0,,,9999,Cloud Development Not Observable,-25.0,-25.0,30.37,1031.6,,,,0,0,0,,,,,,,,,Clear,72000.0,,,73000.0,,,,,,
KRDR,01-19-2001,12:00,METAR,,220,6.0,,,9999,Cloud Development Not Observable,-25.0,-25.0,30.37,1031.6,,,,0,0,0,,,,,,,,,Clear,72000.0,,,73000.0,,,,,,
KRDR,01-19-2001,11:00,METAR,,220,8.0,,,9999,Cloud Development Not Observable,-24.0,-25.0,30.40,1032.7,,,,0,0,0,,,,,,,,,Clear,72000.0,,,73000.0,,,,,,
KRDR,01-19-2001,10:00,METAR,,270,8.0,,,9999,Cloud Development Not Observable,-24.0,-25.0,30.40,1032.7,,,,0,0,0,,,,,,,,,Clear,72000.0,,,73000.0,,,,,,
KRDR,01-19-2001,09:00,METAR,,270,8.0,,,9999,Cloud Development Not Observable,-24.0,-24.0,30.40,1032.7,,,,0,0,0,,,,,,,,,Clear,72000.0,,,73000.0,,,,,,
KRDR,01-19-2001,08:00,METAR,,300,9.0,,,9999,Cloud Development Not Observable,-22.0,-23.0,30.40,1032.5,,,,0,0,0,,,,,,,,,Clear,72000.0,,,73000.0,,,,,,
KRDR,01-19-2001,07:00,METAR,,310,9.0,,,9999,Cloud Development Not Observable,-21.0,-22.0,30.39,1032.0,,,,0,0,0,,,,,,,,,2/8 Mostly Clear,72000.0,,FEW,2000.0,,,,,,
KRDR,01-19-2001,06:00,METAR,,340,11.0,,,9999,Cloud Development Not Observable,-20.0,-21.0,30.39,1032.0,,,,0,0,0,,,,,,,,,4/8 Partly Cloudy,72000.0,,SCT,2000.0,,,,,,
KRDR,01-19-2001,05:43,SPECI,,330,11.0,,,9999,Cloud Development Not Observable,-20.0,-21.0,30.39,,,,,0,0,0,,,,,,,,,4/8 Partly Cloudy,72000.0,,SCT,2000.0,,,,,,
KRDR,01-19-2001,05:05,SPECI,,340,13.0,,,9999,Cloud Development Not Observable,-19.0,-20.0,30.38,,,,,0,0,0,,,,,,,,,7/8 Mostly Cloudy,2000.0,,BKN,2000.0,,,,,,
KRDR,01-19-2001,05:00,METAR,,350,16.0,,,9999,Light Snow/Cloud Development Not Observable,-18.0,-19.0,30.38,1031.6,,,,71,0,0,,,,,,,,,7/8 Mostly Cloudy,1500.0,,BKN,1500.0,,,,,,
KRDR,01-19-2001,04:31,SPECI,,350,12.0,,,9999,Light Snow/Cloud Development Not Observable,-18.0,-18.0,30.37,,,,,71,0,0,,,,,,,,,8/8 Overcast,1500.0,,OVC,1500.0,,,,,,
KRDR,01-19-2001,04:00,METAR,,350,12.0,,,9999,Cloud Development Not Observable,-17.0,-18.0,30.35,1030.5,,,,0,0,0,,,,,,,,,8/8 Overcast,2000.0,,OVC,2000.0,,,,,,
KRDR,01-19-2001,03:00,METAR,,350,10.0,,,9999,Cloud Development Not Observable,-18.0,-18.0,30.34,1030.2,,,,0,0,0,,,,,,,,,8/8 Overcast,2000.0,,OVC,2000.0,,,,,,
KRDR,01-19-2001,02:00,METAR,,350,13.0,,,9999,Cloud Development Not Observable,-18.0,-18.0,30.33,1029.7,,,,0,0,0,,,,,,,,,7/8 Mostly Cloudy,2000.0,,BKN,2000.0,BKN,20000.0,,,,
KRDR,01-19-2001,01:00,METAR,,340,18.0,,,9999,Cloud Development Not Observable,-18.0,-19.0,30.31,1029.0,,,,0,0,0,,,,,,,,,7/8 Mostly Cloudy,2000.0,,BKN,2000.0,BKN,20000.0,,,,
KRDR,01-19-2001,00:00,METAR,,340,15.0,,,9999,Cloud Development Not Observable,-17.0,-18.0,30.29,1028.2,,,,0,0,0,,,,,,,,,7/8 Mostly Cloudy,20000.0,,SCT,2500.0,BKN,20000.0,,,,
KRDR,01-18-2001,23:00,METAR,,350,20.0,,,9999,Blowing Snow/Cloud Development Not Observable,-17.0,-18.0,30.27,1027.4,,,,38,0,0,,,,,,,,,4/8 Partly Cloudy,72000.0,,FEW,1500.0,SCT,20000.0,,,,
KRDR,01-18-2001,22:17,SPECI,,350,19.0,,,9999,Blowing Snow/Cloud Development Not Observable,-16.0,-18.0,30.25,,,,,38,0,0,,,,,,,,,4/8 Partly Cloudy,72000.0,,SCT,1500.0,SCT,2000.0,,,,
KRDR,01-18-2001,22:00,METAR,,350,19.0,,350/27KTS,9999,Blowing Snow/Cloud Development Not Observable,-16.0,-18.0,30.24,1026.6,,,,38,0,0,,,,,,,,,4/8 Partly Cloudy,72000.0,,SCT,1500.0,SCT,2000.0,,,,
KRDR,01-18-2001,21:05,SPECI,,350,20.0,,,4800,Blowing Snow/Cloud Development Not Observable,-16.0,-18.0,30.22,,,,,38,0,0,,,,,,,,,4/8 Partly Cloudy,72000.0,,SCT,1500.0,SCT,2000.0,,,,
KRDR,01-18-2001,21:00,METAR,,360,23.0,,350/29KTS,2400,Blowing Snow/Cloud Development Not Observable,-16.0,-18.0,30.21,1025.4,,,,38,0,0,,,,,,,,,4/8 Partly Cloudy,72000.0,,SCT,1500.0,SCT,2000.0,,,,
KRDR,01-18-2001,20:00,METAR,,350,22.0,,360/29KTS,9999,Blowing Snow/Cloud Development Not Observable,-16.0,-18.0,30.19,1024.6,,,,38,0,0,,,,,,,,,4/8 Partly Cloudy,72000.0,,SCT,1500.0,SCT,2000.0,,,,
KRDR,01-18-2001,19:22,SPECI,,350,22.0,,,4800,Blowing Snow/Cloud Development Not Observable,-17.0,-18.0,30.18,,,,,38,0,0,,,,,,,,,4/8 Partly Cloudy,72000.0,,SCT,1500.0,SCT,2000.0,,,,
KRDR,01-18-2001,19:03,SPECI,,360,21.0,,,1600,Blowing Snow/Cloud Development Not Observable,-17.0,-18.0,30.18,,,,,38,0,0,,,,,,,,,4/8 Partly Cloudy,72000.0,,SCT,1500.0,SCT,2000.0,,,,
KRDR,01-18-2001,19:00,METAR,,350,23.0,,350/31KTS,4000,Blowing Snow/Cloud Development Not Observable,-16.0,-18.0,30.18,1024.2,,,,38,0,0,,,,,,,,,4/8 Partly Cloudy,72000.0,,SCT,1500.0,SCT,2000.0,,,,
KRDR,01-18-2001,18:31,SPECI,,350,24.0,,,4000,Blowing Snow/Cloud Development Not Observable,-16.0,-18.0,30.18,,,,,38,0,0,,,,,,,,,4/8 Partly Cloudy,72000.0,,SCT,1500.0,SCT,3000.0,,,,
KRDR,01-18-2001,18:00,METAR,,340,22.0,,340/32KTS,6400,Blowing Snow/Cloud Development Not Observable,-16.0,-18.0,30.18,1024.1,,,,38,0,0,,,,,,,,,4/8 Partly Cloudy,72000.0,,FEW,1500.0,SCT,3000.0,SCT,20000.0,,
KRDR,01-18-2001,17:00,METAR,,350,24.0,30.0,,6400,Blowing Snow/Cloud Development Not Observable,-16.0,-18.0,30.16,1023.3,,,,38,0,0,,,,,,,,,4/8 Partly Cloudy,72000.0,,FEW,1500.0,SCT,3000.0,,,,
KRDR,01-18-2001,16:00,METAR,,350,23.0,,350/35KTS,9999,Blowing Snow/Cloud Development Not Observable,-17.0,-18.0,30.13,1022.4,,,,38,0,0,,,,,,,,,4/8 Partly Cloudy,72000.0,,SCT,3000.0,,,,,,
KRDR,01-18-2001,15:00,METAR,,340,23.0,,,4800,Blowing Snow/Cloud Development Not Observable,-16.0,-17.0,30.09,1020.9,,,,38,0,0,,,,,,,,,4/8 Partly Cloudy,72000.0,,FEW,3000.0,SCT,6900.0,,,,
KRDR,01-18-2001,14:15,SPECI,,340,23.0,,,4800,Blowing Snow/Cloud Development Not Observable,-16.0,-17.0,30.06,,,,,38,0,0,,,,,,,,,7/8 Mostly Cloudy,7000.0,,FEW,1500.0,BKN,6900.0,,,,
KRDR,01-18-2001,14:00,METAR,,340,28.0,,350/32KTS,4800,Blowing Snow/Cloud Development Not Observable,-14.0,-15.0,30.05,1019.8,,,,38,0,0,,,,,,,,,7/8 Mostly Cloudy,7000.0,,SCT,1500.0,BKN,6900.0,,,,
KRDR,01-18-2001,13:00,METAR,,350,23.0,,350/31KTS,4800,Light Snow/Blowing Snow/Cloud Development Not Observable,-12.0,-14.0,30.02,1018.6,,,,71,38,0,,,,,,,,,8/8 Overcast,6000.0,,FEW,2000.0,SCT,3000.0,OVC,5900.0,,
KRDR,01-18-2001,12:00,METAR,,340,26.0,32.0,,8000,Light Snow/Blowing Snow/Cloud Development Not Observable,-11.0,-12.0,29.98,1017.0,,,,71,38,0,,,,,,,,,8/8 Overcast,3000.0,,SCT,2000.0,BKN,3000.0,OVC,6900.0,,
KRDR,01-18-2001,11:32,SPECI,,330,22.0,,,9999,Light Snow/Drifting Snow/Cloud Development Not Observable,-10.0,-12.0,29.97,,,,,71,36,0,,,,,,,,,8/8 Overcast,7000.0,,FEW,2000.0,SCT,3000.0,OVC,6900.0,,
KRDR,01-18-2001,11:00,METAR,,340,20.0,,340/31KTS,9999,Drifting Snow/Cloud Development Not Observable,-10.0,-11.0,29.95,1015.9,,,,36,0,0,,,,,,,,,7/8 Mostly Cloudy,7500.0,,SCT,3000.0,BKN,7400.0,,,,
KRDR,01-18-2001,10:15,SPECI,,340,21.0,31.0,,8000,Light Snow/Drifting Snow/Cloud Development Not Observable,-9.0,-10.0,29.93,,,,,71,36,0,,,,,,,,,8/8 Overcast,7500.0,,FEW,2000.0,SCT,3000.0,OVC,7400.0,,
KRDR,01-18-2001,10:00,METAR,,350,21.0,28.0,350/33KTS,2400,Light Snow/Drifting Snow/Cloud Development Not Observable,-8.0,-10.0,29.93,1015.3,,,,71,36,0,,,,,,,,,8/8 Overcast,2000.0,,FEW,500.0,BKN,2000.0,OVC,3000.0,,
KRDR,01-18-2001,09:06,SPECI,,350,25.0,,,2400,Light Snow/Drifting Snow/Cloud Development Not Observable,-7.0,-9.0,29.91,,,,,71,36,0,,,,,,,,,8/8 Overcast,2000.0,,FEW,500.0,BKN,2000.0,OVC,3000.0,,
KRDR,01-18-2001,09:00,METAR,,360,21.0,,360/36KTS,1600,Light Snow/Drifting Snow/Cloud Development Not Observable,-6.0,-8.0,29.90,1014.2,,,,71,36,0,,,,,,,,,8/8 Overcast,1500.0,,FEW,500.0,BKN,1500.0,OVC,2500.0,,
KRDR,01-18-2001,08:32,SPECI,,360,25.0,32.0,,1600,Light Snow/Blowing Snow/Cloud Development Not Observable,-6.0,-7.0,29.89,,,,,71,38,0,,,,,,,,,8/8 Overcast,1500.0,,FEW,500.0,OVC,1500.0,,,,
KRDR,01-18-2001,08:02,SPECI,,360,29.0,33.0,,800,Light Snow/Blowing Snow/Cloud Development Not Observable,-5.0,-6.0,29.85,,,,,71,38,0,,,,,,,,,8/8 Overcast,2000.0,,FEW,500.0,OVC,2000.0,,,,
KRDR,01-18-2001,08:00,METAR,,350,21.0,29.0,,3200,Light Snow/Blowing Snow/Cloud Development Not Observable,-3.0,-4.0,29.84,1012.2,,,,71,38,0,,,,,,,,,8/8 Overcast,2000.0,,BKN,2000.0,OVC,4000.0,,,,
KRDR,01-18-2001,07:35,SPECI,,300,14.0,,,4000,Light Snow/Cloud Development Not Observable,-2.0,-3.0,29.82,,,,,71,0,0,,,,,,,,,8/8 Overcast,2000.0,,BKN,2000.0,OVC,4000.0,,,,
KRDR,01-18-2001,07:00,METAR,,290,15.0,,,8000,Light Snow/Cloud Development Not Observable,-2.0,-4.0,29.81,1011.1,,,,71,0,0,,,,,,,,,8/8 Overcast,3900.0,,OVC,4000.0,,,,,,
KRDR,01-18-2001,06:00,METAR,,290,14.0,,,9999,Cloud Development Not Observable,-2.0,-4.0,29.81,1011.0,,,,0,0,0,,,,,,,,,8/8 Overcast,4400.0,,FEW,3500.0,OVC,4500.0,,,,
KRDR,01-18-2001,05:00,METAR,,290,13.0,,,9999,Cloud Development Not Observable,-2.0,-4.0,29.80,1010.8,,,,0,0,0,,,,,,,,,8/8 Overcast,3400.0,,OVC,3500.0,,,,,,
KRDR,01-18-2001,04:00,METAR,,290,14.0,,,9999,Cloud Development Not Observable,-3.0,-5.0,29.81,1011.1,,,,0,0,0,,,,,,,,,7/8 Mostly Cloudy,3400.0,,BKN,3500.0,BKN,4500.0,,,,
KRDR,01-18-2001,03:46,SPECI,,290,15.0,,,9999,Cloud Development Not Observable,-3.0,-5.0,29.81,,,,,0,0,0,,,,,,,,,7/8 Mostly Cloudy,3400.0,,BKN,3500.0,BKN,4500.0,,,,
KRDR,01-18-2001,03:00,METAR,,290,14.0,,,9999,Cloud Development Not Observable,-3.0,-5.0,29.81,1011.2,,,,0,0,0,,,,,,,,,7/8 Mostly Cloudy,2900.0,,BKN,2900.0,BKN,11000.0,,,,
KRDR,01-18-2001,02:28,SPECI,,290,14.0,,,9999,Cloud Development Not Observable,-3.0,-5.0,29.80,,,,,0,0,0,,,,,,,,,7/8 Mostly Cloudy,2800.0,,BKN,2800.0,BKN,11000.0,,,,
KRDR,01-18-2001,02:00,METAR,,290,12.0,,,9999,Cloud Development Not Observable,-3.0,-5.0,29.80,1011.1,,,,0,0,0,,,,,,,,,4/8 Partly Cloudy,72000.0,,SCT,11000.0,,,,,,
KRDR,01-18-2001,01:00,METAR,,280,15.0,,,9999,Cloud Development Not Observable,-2.0,-4.0,29.80,1010.9,,,,0,0,0,,,,,,,,,7/8 Mostly Cloudy,11000.0,,BKN,11000.0,,,,,,
KRDR,01-18-2001,00:00,METAR,,300,10.0,,,9999,Cloud Development Not Observable,-2.0,-4.0,29.80,1010.9,,,,0,0,0,,,,,,,,,7/8 Mostly Cloudy,11000.0,,FEW,1200.0,BKN,11000.0,,,,
KRDR,01-17-2001,23:13,SPECI,,290,17.0,,,9999,Cloud Development Not Observable,-1.0,-4.0,29.79,,,,,0,0,0,,,,,,,,,8/8 Overcast,13000.0,,FEW,1200.0,OVC,13000.0,,,,
KRDR,01-17-2001,23:00,METAR,,280,15.0,,,9999,Cloud Development Not Observable,-2.0,-4.0,29.79,1010.6,,,,0,0,0,,,,,,,,,8/8 Overcast,1200.0,,FEW,200.0,BKN,1200.0,OVC,13000.0,,
KRDR,01-17-2001,22:41,SPECI,,270,17.0,,,4800,Light Snow/Mist/Cloud Development Not Observable,-2.0,-3.0,29.78,,,,,71,10,0,,,,,,,,,8/8 Overcast,1200.0,,FEW,200.0,BKN,1200.0,OVC,11000.0,,
KRDR,01-17-2001,22:11,SPECI,,270,15.0,,,800,Snow/Mist/Cloud Development Not Observable,-2.0,-4.0,29.78,,,,,73,10,0,,,,,,,,,8/8 Overcast,1200.0,,SCT,200.0,OVC,1200.0,,,,
KRDR,01-17-2001,21:00,METAR,,290,11.0,,,6400,Light Snow/Cloud Development Not Observable,-2.0,-5.0,29.79,1010.7,,,,71,0,0,,,,,,,,,8/8 Overcast,1500.0,,BKN,1500.0,OVC,11000.0,,,,
KRDR,01-17-2001,20:00,METAR,,240,10.0,,,9999,Cloud Development Not Observable,-3.0,-7.0,29.79,1011.0,,,,0,0,0,,,,,,,,,8/8 Overcast,11000.0,,OVC,11000.0,,,,,,
KRDR,01-17-2001,19:00,METAR,,240,13.0,,,9999,Cloud Development Not Observable,-3.0,-7.0,29.82,1012.0,,,,0,0,0,,,,,,,,,8/8 Overcast,11000.0,,OVC,11000.0,,,,,,
KRDR,01-17-2001,18:00,METAR,,220,17.0,,,9999,Cloud Development Not Observable,-4.0,-8.0,29.85,1013.2,,,,0,0,0,,,,,,,,,8/8 Overcast,11000.0,,FEW,4000.0,OVC,11000.0,,,,
KRDR,01-17-2001,17:00,METAR,,210,16.0,,,9999,Cloud Development Not Observable,-5.0,-8.0,29.86,1013.5,,,,0,0,0,,,,,,,,,8/8 Overcast,11000.0,,FEW,4000.0,OVC,11000.0,,,,
KRDR,01-17-2001,16:00,METAR,,200,12.0,,,9999,Cloud Development Not Observable,-7.0,-9.0,29.89,1014.4,,,,0,0,0,,,,,,,,,8/8 Overcast,11000.0,,OVC,11000.0,,,,,,
KRDR,01-17-2001,15:00,METAR,,200,15.0,,,9999,Cloud Development Not Observable,-9.0,-10.0,29.91,1015.1,,,,0,0,0,,,,,,,,,8/8 Overcast,11000.0,,OVC,11000.0,,,,,,
KRDR,01-17-2001,14:00,METAR,,190,15.0,,,9999,Cloud Development Not Observable,-11.0,-12.0,29.94,1016.1,,,,0,0,0,,,,,,,,,7/8 Mostly Cloudy,11000.0,,BKN,11000.0,,,,,,
KRDR,01-17-2001,13:00,METAR,,190,15.0,,,9999,Cloud Development Not Observable,-13.0,-14.0,29.99,1017.9,,,,0,0,0,,,,,,,,,7/8 Mostly Cloudy,11000.0,,FEW,1200.0,BKN,11000.0,,,,
KRDR,01-17-2001,12:00,METAR,,190,18.0,,,9999,Cloud Development Not Observable,-13.0,-14.0,30.04,1019.7,,,,0,0,0,,,,,,,,,7/8 Mostly Cloudy,11000.0,,SCT,1200.0,BKN,11000.0,,,,
KRDR,01-17-2001,11:40,SPECI,,180,16.0,,,9999,Cloud Development Not Observable,-13.0,-14.0,30.04,,,,,0,0,0,,,,,,,,,8/8 Overcast,10000.0,,SCT,1200.0,OVC,9900.0,,,,
KRDR,01-17-2001,11:00,METAR,,180,14.0,,,9999,Cloud Development Not Observable,-14.0,-14.0,30.08,1020.9,,,,0,0,0,,,,,,,,,8/8 Overcast,1200.0,,BKN,1200.0,OVC,9900.0,,,,
KRDR,01-17-2001,10:00,METAR,,180,12.0,,,9999,Cloud Development Not Observable,-15.0,-16.0,30.14,1023.1,,,,0,0,0,,,,,,,,,8/8 Overcast,1200.0,,OVC,1200.0,,,,,,
KRDR,01-17-2001,09:42,SPECI,,180,9.0,,,9999,Cloud Development Not Observable,-15.0,-16.0,30.15,,,,,0,0,0,,,,,,,,,8/8 Overcast,1200.0,,BKN,1200.0,OVC,12000.0,,,,
KRDR,01-17-2001,09:00,METAR,,200,10.0,,,9999,Cloud Development Not Observable,-17.0,-17.0,30.18,1024.7,,,,0,0,0,,,,,,,,,7/8 Mostly Cloudy,20000.0,,FEW,12000.0,BKN,20000.0,,,,
KRDR,01-17-2001,08:00,METAR,,210,9.0,,,9999,Cloud Development Not Observable,-17.0,-17.0,30.21,1025.8,,,,0,0,0,,,,,,,,,7/8 Mostly Cloudy,20000.0,,FEW,12000.0,BKN,20000.0,,,,
KRDR,01-17-2001,07:00,METAR,,190,9.0,,,9999,Cloud Development Not Observable,-17.0,-18.0,30.25,1027.0,,,,0,0,0,,,,,,,,,4/8 Partly Cloudy,72000.0,,SCT,20000.0,,,,,,
KRDR,01-17-2001,06:00,METAR,,200,9.0,,,9999,Cloud Development Not Observable,-18.0,-18.0,30.29,1028.4,,,,0,0,0,,,,,,,,,2/8 Mostly Clear,72000.0,,FEW,20000.0,,,,,,
KRDR,01-17-2001,05:00,METAR,,200,6.0,,,9999,Cloud Development Not Observable,-18.0,-18.0,30.31,1029.0,,,,0,0,0,,,,,,,,,2/8 Mostly Clear,72000.0,,FEW,20000.0,,,,,,
KRDR,01-17-2001,04:00,METAR,,170,6.0,,,9999,Cloud Development Not Observable,-20.0,-20.0,30.30,1028.8,,,,0,0,0,,,,,,,,,Clear,72000.0,,,73000.0,,,,,,
KRDR,01-17-2001,03:00,METAR,,220,5.0,,,9999,Cloud Development Not Observable,-18.0,-18.0,30.33,1029.7,,,,0,0,0,,,,,,,,,2/8 Mostly Clear,72000.0,,FEW,3200.0,,,,,,
KRDR,01-17-2001,02:39,SPECI,,210,5.0,,,9999,Cloud Development Not Observable,-17.0,-17.0,30.33,,,,,0,0,0,,,,,,,,,2/8 Mostly Clear,72000.0,,FEW,3200.0,,,,,,
KRDR,01-17-2001,02:00,METAR,,240,5.0,,,9999,Light Snow/Cloud Development Not Observable,-15.0,-16.0,30.33,1029.6,,,,71,0,0,,,,,,,,,8/8 Overcast,3100.0,,OVC,3200.0,,,,,,
KRDR,01-17-2001,01:40,SPECI,,230,5.0,,,9999,Light Snow/Cloud Development Not Observable,-15.0,-15.0,30.33,,,,,71,0,0,,,,,,,,,8/8 Overcast,3100.0,,OVC,3200.0,,,,,,
KRDR,01-17-2001,01:00,METAR,,310,4.0,,,9999,Cloud Development Not Observable,-14.0,-15.0,30.35,1030.3,,,,0,0,0,,,,,,,,,8/8 Overcast,3200.0,,OVC,3300.0,,,,,,
KRDR,01-17-2001,00:00,METAR,,,,,,9999,Cloud Development Not Observable,-14.0,-16.0,30.35,1030.4,,,,0,0,0,,,,,,,,,8/8 Overcast,3400.0,,OVC,3500.0,,,,,,
KRDR,01-16-2001,23:00,METAR,,330,5.0,,,9999,Light Snow/Cloud Development Not Observable,-13.0,-15.0,30.35,1030.4,,,,71,0,0,,,,,,,,,8/8 Overcast,3400.0,,OVC,3500.0,,,,,,
KRDR,01-16-2001,22:00,METAR,,350,6.0,,,9999,Light Snow/Cloud Development Not Observable,-13.0,-15.0,30.36,1030.5,,,,71,0,0,,,,,,,,,8/8 Overcast,3400.0,,OVC,3500.0,,,,,,
KRDR,01-16-2001,21:00,METAR,,340,11.0,,,9999,Light Snow/Cloud Development Not Observable,-13.0,-15.0,30.36,1030.4,,,,71,0,0,,,,,,,,,8/8 Overcast,3400.0,,OVC,3500.0,,,,,,
KRDR,01-16-2001,20:00,METAR,,330,11.0,,,9999,Light Snow/Cloud Development Not Observable,-13.0,-15.0,30.35,1030.3,,,,71,0,0,,,,,,,,,8/8 Overcast,3400.0,,OVC,3500.0,,,,,,
KRDR,01-16-2001,19:00,METAR,,320,12.0,,,8000,Light Snow/Mist/Cloud Development Not Observable,-13.0,-14.0,30.35,1030.3,,,,71,10,0,,,,,,,,,8/8 Overcast,3900.0,,OVC,4000.0,,,,,,
KRDR,01-16-2001,18:00,METAR,,320,13.0,,,4800,Light Snow/Mist/Cloud Development Not Observable,-13.0,-14.0,30.37,1031.0,,,,71,10,0,,,,,,,,,8/8 Overcast,3900.0,,OVC,4000.0,,,,,,
KRDR,01-16-2001,17:36,SPECI,,330,13.0,,,4800,Light Snow/Mist/Cloud Development Not Observable,-13.0,-14.0,30.37,,,,,71,10,0,,,,,,,,,8/8 Overcast,3900.0,,OVC,4000.0,,,,,,
KRDR,01-16-2001,17:00,METAR,,350,10.0,,,4800,Light Snow/Mist/Cloud Development Not Observable,-13.0,-14.0,30.36,1030.6,,,,71,10,0,,,,,,,,,8/8 Overcast,3900.0,,OVC,4000.0,,,,,,
KRDR,01-16-2001,16:46,SPECI,,340,11.0,,,4800,Light Snow/Mist/Cloud Development Not Observable,-13.0,-14.0,30.36,,,,,71,10,0,,,,,,,,,8/8 Overcast,3900.0,,OVC,4000.0,,,,,,
KRDR,01-16-2001,16:00,METAR,,320,10.0,,,3200,Light Snow/Mist/Cloud Development Not Observable,-14.0,-14.0,30.35,1030.4,,,,71,10,0,,,,,,,,,8/8 Overcast,3000.0,,SCT,2000.0,OVC,3000.0,,,,
KRDR,01-16-2001,15:43,SPECI,,320,10.0,,,3200,Light Snow/Mist/Cloud Development Not Observable,-13.0,-14.0,30.35,,,,,71,10,0,,,,,,,,,8/8 Overcast,3000.0,,SCT,2000.0,OVC,3000.0,,,,
KRDR,01-16-2001,15:00,METAR,,320,9.0,,,9999,Light Snow/Cloud Development Not Observable,-14.0,-15.0,30.35,1030.3,,,,71,0,0,,,,,,,,,8/8 Overcast,3900.0,,BKN,4000.0,OVC,8900.0,,,,
KRDR,01-16-2001,14:46,SPECI,,320,10.0,,,9999,Light Snow/Cloud Development Not Observable,-14.0,-15.0,30.36,,,,,71,0,0,,,,,,,,,8/8 Overcast,3900.0,,BKN,4000.0,OVC,8900.0,,,,
KRDR,01-16-2001,14:30,METAR,,320,9.0,,,8900,Light Snow/Mist/Cloud Development Not Observable,-14.0,-15.0,30.36,,,,,71,10,0,,,,,,,,,8/8 Overcast,3900.0,,BKN,4000.0,OVC,8900.0,,,,
KRDR,01-16-2001,14:00,METAR,,320,10.0,,,9999,Light Snow/Cloud Development Not Observable,-14.0,-15.0,30.35,1030.3,,,,71,0,0,,,,,,,,,8/8 Overcast,3900.0,,BKN,4000.0,OVC,8900.0,,,,
KRDR,01-16-2001,13:30,METAR,,330,10.0,,,9999,Light Snow/Cloud Development Not Observable,-15.0,-15.0,30.35,,,,,71,0,0,,,,,,,,,7/8 Mostly Cloudy,7000.0,,SCT,2500.0,BKN,6900.0,,,,
KRDR,01-16-2001,13:00,METAR,,330,11.0,,,9999,Light Snow/Cloud Development Not Observable,-15.0,-15.0,30.33,1029.5,,,,71,0,0,,,,,,,,,8/8 Overcast,2500.0,,BKN,2500.0,OVC,8900.0,,,,
KRDR,01-16-2001,12:00,METAR,,320,11.0,,,9999,Light Snow/Cloud Development Not Observable,-14.0,-15.0,30.33,1029.5,,,,71,0,0,,,,,,,,,8/8 Overcast,2500.0,,BKN,2500.0,OVC,3000.0,,,,
KRDR,01-16-2001,11:00,METAR,,350,9.0,,,9999,Light Snow/Cloud Development Not Observable,-13.0,-14.0,30.32,1029.1,,,,71,0,0,,,,,,,,,8/8 Overcast,2000.0,,BKN,2000.0,OVC,4000.0,,,,
KRDR,01-16-2001,10:39,SPECI,,350,9.0,,,9999,Light Snow/Cloud Development Not Observable,-13.0,-14.0,30.32,,,,,71,0,0,,,,,,,,,8/8 Overcast,2000.0,,BKN,2000.0,OVC,4000.0,,,,
KRDR,01-16-2001,10:00,METAR,,330,12.0,,,9999,Light Snow/Cloud Development Not Observable,-13.0,-14.0,30.32,1029.1,,,,71,0,0,,,,,,,,,8/8 Overcast,4400.0,,FEW,2000.0,BKN,4500.0,OVC,7900.0,,
KRDR,01-16-2001,09:00,METAR,,340,11.0,,,9999,Light Snow/Cloud Development Not Observable,-12.0,-13.0,30.31,1028.5,,,,71,0,0,,,,,,,,,8/8 Overcast,4400.0,,FEW,1000.0,BKN,4500.0,OVC,7900.0,,
KRDR,01-16-2001,08:00,METAR,,330,12.0,,,9999,Light Snow/Cloud Development Not Observable,-12.0,-14.0,30.29,1028.0,,,,71,0,0,,,,,,,,,8/8 Overcast,4400.0,,FEW,1000.0,OVC,4500.0,,,,
KRDR,01-16-2001,07:00,METAR,,330,13.0,,,9999,Light Snow/Cloud Development Not Observable,-12.0,-13.0,30.29,1028.1,,,,71,0,0,,,,,,,,,8/8 Overcast,4400.0,,FEW,1000.0,OVC,4500.0,,,,
KRDR,01-16-2001,06:00,METAR,,340,12.0,,,9999,Light Snow/Cloud Development Not Observable,-12.0,-13.0,30.28,1027.7,,,,71,0,0,,,,,,,,,8/8 Overcast,3900.0,,FEW,1000.0,OVC,4000.0,,,,
KRDR,01-16-2001,05:00,METAR,,330,12.0,,,9999,Light Snow/Cloud Development Not Observable,-12.0,-12.0,30.28,1027.6,,,,71,0,0,,,,,,,,,8/8 Overcast,3900.0,,FEW,1000.0,BKN,4000.0,OVC,7900.0,,
KRDR,01-16-2001,04:00,METAR,,360,12.0,,,9999,Light Snow/Cloud Development Not Observable,-12.0,-13.0,30.27,1027.3,,,,71,0,0,,,,,,,,,8/8 Overcast,3900.0,,FEW,2000.0,BKN,4000.0,OVC,7900.0,,
KRDR,01-16-2001,03:00,METAR,,10,12.0,,,9999,Light Snow/Cloud Development Not Observable,-11.0,-12.0,30.26,1027.0,,,,71,0,0,,,,,,,,,8/8 Overcast,3200.0,,BKN,3300.0,OVC,7900.0,,,,
KRDR,01-16-2001,02:00,METAR,,350,12.0,,,9999,Light Snow/Cloud Development Not Observable,-10.0,-11.0,30.24,1026.5,,,,71,0,0,,,,,,,,,8/8 Overcast,7000.0,,FEW,2000.0,OVC,6900.0,,,,
KRDR,01-16-2001,01:00,METAR,,360,10.0,,,9999,Cloud Development Not Observable,-10.0,-11.0,30.23,1026.0,,,,0,0,0,,,,,,,,,8/8 Overcast,7000.0,,FEW,2000.0,OVC,6900.0,,,,
KRDR,01-16-2001,00:00,METAR,,360,11.0,,,9999,Cloud Development Not Observable,-9.0,-10.0,30.22,1025.5,,,,0,0,0,,,,,,,,,8/8 Overcast,7000.0,,SCT,2000.0,OVC,6900.0,,,,
KRDR,01-15-2001,23:00,METAR,,350,10.0,,,9999,Cloud Development Not Observable,-9.0,-10.0,30.20,1024.8,,,,0,0,0,,,,,,,,,8/8 Overcast,7000.0,,FEW,1400.0,OVC,6900.0,,,,
KRDR,01-15-2001,22:00,METAR,,340,9.0,,,9999,Cloud Development Not Observable,-9.0,-10.0,30.16,1023.6,,,,0,0,0,,,,,,,,,8/8 Overcast,7000.0,,FEW,1400.0,OVC,6900.0,,,,
KRDR,01-15-2001,21:00,METAR,,320,10.0,,,9999,Cloud Development Not Observable,-9.0,-10.0,30.16,1023.6,,,,0,0,0,,,,,,,,,8/8 Overcast,8000.0,,SCT,1400.0,OVC,7900.0,,,,
KRDR,01-15-2001,20:00,METAR,,330,7.0,,,9999,Cloud Development Not Observable,-9.0,-10.0,30.16,1023.6,,,,0,0,0,,,,,,,,,8/8 Overcast,1400.0,,BKN,1400.0,OVC,7900.0,,,,
KRDR,01-15-2001,19:15,SPECI,,330,7.0,,,9999,Cloud Development Not Observable,-10.0,-11.0,30.17,,,,,0,0,0,,,,,,,,,8/8 Overcast,8000.0,,SCT,1400.0,OVC,7900.0,,,,
KRDR,01-15-2001,19:00,METAR,,330,9.0,,,9999,Light Snow/Cloud Development Not Observable,-10.0,-11.0,30.17,1024.0,,,,71,0,0,,,,,,,,,8/8 Overcast,1200.0,,BKN,1200.0,OVC,7900.0,,,,
KRDR,01-15-2001,18:00,METAR,,330,8.0,,,8000,Light Snow/Cloud Development Not Observable,-11.0,-12.0,30.18,1024.3,,,,71,0,0,,,,,,,,,8/8 Overcast,1200.0,,OVC,1200.0,,,,,,
KRDR,01-15-2001,17:45,METAR,,330,6.0,,,8000,Light Snow/Cloud Development Not Observable,-11.0,-12.0,30.18,,,,,71,0,0,,,,,,,,,8/8 Overcast,1200.0,,OVC,1200.0,,,,,,
KRDR,01-15-2001,17:00,METAR,,330,6.0,,,9999,Cloud Development Not Observable,-12.0,-13.0,30.19,1024.5,,,,0,0,0,,,,,,,,,7/8 Mostly Cloudy,1200.0,,BKN,1200.0,BKN,20000.0,,,,
KRDR,01-15-2001,16:00,METAR,,330,3.0,,,9999,Cloud Development Not Observable,-12.0,-13.0,30.17,1024.0,,,,0,0,0,,,,,,,,,7/8 Mostly Cloudy,1200.0,,BKN,1200.0,,,,,,
KRDR,01-15-2001,15:00,METAR,,340,4.0,,,9999,Cloud Development Not Observable,-11.0,-12.0,30.16,1023.5,,,,0,0,0,,,,,,,,,7/8 Mostly Cloudy,1200.0,,BKN,1200.0,,,,,,
KRDR,01-15-2001,14:40,SPECI,,340,5.0,,,9999,Cloud Development Not Observable,-12.0,-13.0,30.16,,,,,0,0,0,,,,,,,,,7/8 Mostly Cloudy,1200.0,,BKN,1200.0,,,,,,
KRDR,01-15-2001,14:00,METAR,,320,4.0,,,9999,Cloud Development Not Observable,-12.0,-13.0,30.15,1023.2,,,,0,0,0,,,,,,,,,7/8 Mostly Cloudy,800.0,,BKN,800.0,BKN,1500.0,,,,
KRDR,01-15-2001,13:00,METAR,,340,2.0,,,9999,Cloud Development Not Observable,-12.0,-12.0,30.14,1022.8,,,,0,0,0,,,,,,,,,7/8 Mostly Cloudy,800.0,,BKN,800.0,BKN,1500.0,,,,
KRDR,01-15-2001,12:00,METAR,,330,6.0,,,9999,Light Snow/Cloud Development Not Observable,-12.0,-12.0,30.13,1022.5,,,,71,0,0,,,,,,,,,7/8 Mostly Cloudy,600.0,,BKN,600.0,BKN,1700.0,,,,
KRDR,01-15-2001,11:00,METAR,,340,8.0,,,9999,Light Snow/Cloud Development Not Observable,-12.0,-12.0,30.13,1022.3,,,,71,0,0,,,,,,,,,8/8 Overcast,600.0,,BKN,600.0,OVC,1000.0,,,,
KRDR,01-15-2001,10:00,METAR,,330,7.0,,,9999,Light Snow/Cloud Development Not Observable,-12.0,-12.0,30.12,1021.9,,,,71,0,0,,,,,,,,,8/8 Overcast,600.0,,BKN,600.0,OVC,1000.0,,,,
KRDR,01-15-2001,09:00,METAR,,340,9.0,,,9999,Light Snow/Cloud Development Not Observable,-11.0,-12.0,30.11,1021.5,,,,71,0,0,,,,,,,,,8/8 Overcast,600.0,,OVC,600.0,,,,,,
KRDR,01-15-2001,08:00,METAR,,330,8.0,,,8000,Light Snow/Mist/Cloud Development Not Observable,-12.0,-12.0,30.10,1021.4,,,,71,10,0,,,,,,,,,8/8 Overcast,600.0,,OVC,600.0,,,,,,
KRDR,01-15-2001,07:00,METAR,,330,8.0,,,8000,Light Snow/Mist/Cloud Development Not Observable,-10.0,-11.0,30.10,1021.2,,,,71,10,0,,,,,,,,,8/8 Overcast,600.0,,OVC,600.0,,,,,,
KRDR,01-15-2001,06:00,METAR,,340,7.0,,,8000,Light Snow/Mist/Cloud Development Not Observable,-9.0,-9.0,30.10,1021.2,,,,71,10,0,,,,,,,,,8/8 Overcast,600.0,,OVC,600.0,,,,,,
KRDR,01-15-2001,05:33,SPECI,,340,8.0,,,8000,Light Snow/Mist/Cloud Development Not Observable,-9.0,-9.0,30.10,,,,,71,10,0,,,,,,,,,8/8 Overcast,600.0,,OVC,600.0,,,,,,
KRDR,01-15-2001,05:02,SPECI,,340,9.0,,,8000,Mist/Cloud Development Not Observable,-8.0,-8.0,30.10,,,,,10,0,0,,,,,,,,,8/8 Overcast,600.0,,OVC,600.0,,,,,,
KRDR,01-15-2001,05:00,METAR,,340,9.0,,,8000,Freezing Drizzle/Mist/Cloud Development Not Observable,-8.0,-8.0,30.10,1021.1,,,,56,10,0,,,,,,,,,8/8 Overcast,600.0,,OVC,600.0,,,,,,
KRDR,01-15-2001,04:00,METAR,,360,3.0,,,4800,Freezing Drizzle/Mist/Cloud Development Not Observable,-8.0,-8.0,30.09,1020.9,,,,56,10,0,,,,,,,,,8/8 Overcast,600.0,,OVC,600.0,,,,,,
KRDR,01-15-2001,03:15,SPECI,,350,3.0,,,1600,Freezing Drizzle/Mist/Cloud Development Not Observable,-7.0,-7.0,30.10,,,,,56,10,0,,,,,,,,,8/8 Overcast,500.0,,OVC,500.0,,,,,,
KRDR,01-15-2001,03:00,METAR,,360,2.0,,,1200,Freezing Drizzle/Mist/Cloud Development Not Observable,-7.0,-7.0,30.10,1021.2,,,,56,10,0,,,,,,,,,8/8 Overcast,500.0,,OVC,500.0,,,,,,
KRDR,01-15-2001,02:00,METAR,,350,3.0,,,1200,Freezing Drizzle/Mist/Cloud Development Not Observable,-7.0,-7.0,30.10,1021.2,,,,56,10,0,,,,,,,,,Sky Obscured (Unable to Estimate),0.0,100.0,,0.0,,,,,,
KRDR,01-15-2001,01:00,METAR,,360,2.0,,,1200,Snow Grains/Mist/Cloud Development Not Observable,-7.0,-7.0,30.10,1021.2,,,,77,10,0,,,,,,,,,Sky Obscured (Unable to Estimate),0.0,100.0,,0.0,,,,,,
KRDR,01-15-2001,00:00,METAR,,350,3.0,,,1200,Light Snow/Mist/Cloud Development Not Observable,-7.0,-8.0,30.09,1020.8,,,,71,10,0,,,,,,,,,Sky Obscured (Unable to Estimate),0.0,100.0,,0.0,,,,,,
KRDR,01-14-2001,23:16,SPECI,,350,3.0,,,1200,Light Snow/Mist/Cloud Development Not Observable,-7.0,-8.0,30.09,,,,,71,10,0,,,,,,,,,Sky Obscured (Unable to Estimate),0.0,100.0,,0.0,,,,,,
KRDR,01-14-2001,23:00,METAR,,350,3.0,,,1200,Mist/Cloud Development Not Observable,-6.0,-7.0,30.09,1020.8,,,,10,0,0,,,,,,,,,Sky Obscured (Unable to Estimate),0.0,100.0,,0.0,,,,,,
KRDR,01-14-2001,22:00,METAR,,340,3.0,,,1200,Mist/Cloud Development Not Observable,-6.0,-7.0,30.08,1020.4,,,,10,0,0,,,,,,,,,Sky Obscured (Unable to Estimate),0.0,100.0,,0.0,,,,,,
KRDR,01-14-2001,21:33,SPECI,,350,3.0,,,1200,Mist/Cloud Development Not Observable,-6.0,-7.0,30.07,,,,,10,0,0,,,,,,,,,Sky Obscured (Unable to Estimate),0.0,100.0,,0.0,,,,,,
KRDR,01-14-2001,21:00,METAR,,350,2.0,,,800,Fog with Rime/Cloud Development Not Observable,-6.0,-7.0,30.07,1020.1,,,,49,0,0,,,,,,,,,Sky Obscured (Unable to Estimate),0.0,100.0,,0.0,,,,,,
KRDR,01-14-2001,20:40,SPECI,,350,2.0,,,800,Fog with Rime/Cloud Development Not Observable,-7.0,-8.0,30.07,,,,,49,0,0,,,,,,,,,Sky Obscured (Unable to Estimate),0.0,100.0,,0.0,,,,,,
KRDR,01-14-2001,20:00,METAR,,350,3.0,,,800,Light Snow/Fog with Rime/Cloud Development Not Observable,-7.0,-8.0,30.06,1020.0,,,,71,49,0,,,,,,,,,Sky Obscured (Unable to Estimate),0.0,100.0,,0.0,,,,,,
KRDR,01-14-2001,19:00,METAR,,340,3.0,,,800,Light Snow/Fog with Rime/Cloud Development Not Observable,-7.0,-8.0,30.06,1020.0,,,,71,49,0,,,,,,,,,Sky Obscured (Unable to Estimate),0.0,100.0,,0.0,,,,,,
KRDR,01-14-2001,18:00,METAR,,340,3.0,,,800,Light Snow/Fog with Rime/Cloud Development Not Observable,-7.0,-8.0,30.08,1020.5,,,,71,49,0,,,,,,,,,Sky Obscured (Unable to Estimate),0.0,100.0,,0.0,,,,,,
KRDR,01-14-2001,17:00,METAR,,340,3.0,,,800,Light Snow/Fog with Rime/Cloud Development Not Observable,-7.0,-7.0,30.10,1020.9,,,,71,49,0,,,,,,,,,Sky Obscured (Unable to Estimate),0.0,100.0,,0.0,,,,,,
KRDR,01-14-2001,16:00,METAR,,10,3.0,,,800,Light Snow/Fog with Rime/Cloud Development Not Observable,-6.0,-6.0,30.08,1020.4,,,,71,49,0,,,,,,,,,Sky Obscured (Unable to Estimate),0.0,100.0,,0.0,,,,,,
KRDR,01-14-2001,15:45,METAR,,10,3.0,,,800,Light Snow/Fog with Rime/Cloud Development Not Observable,-6.0,-6.0,30.09,,,,,71,49,0,,,,,,,,,Sky Obscured (Unable to Estimate),0.0,100.0,,0.0,,,,,,
KRDR,01-14-2001,15:00,METAR,,10,2.0,,,800,Fog with Rime/Cloud Development Not Observable,-6.0,-6.0,30.08,1020.4,,,,49,0,0,,,,,,,,,Sky Obscured (Unable to Estimate),0.0,100.0,,0.0,,,,,,
KRDR,01-14-2001,14:40,SPECI,,10,2.0,,,800,Fog with Rime/Cloud Development Not Observable,-6.0,-6.0,30.08,,,,,49,0,0,,,,,,,,,Sky Obscured (Unable to Estimate),0.0,100.0,,0.0,,,,,,
KRDR,01-14-2001,14:00,METAR,,10,6.0,,,800,Light Snow/Fog with Rime/Cloud Development Not Observable,-6.0,-6.0,30.08,1020.2,,,,71,49,0,,,,,,,,,Sky Obscured (Unable to Estimate),0.0,100.0,,0.0,,,,,,
KRDR,01-14-2001,13:00,METAR,,10,8.0,,,800,Light Snow/Fog with Rime/Cloud Development Not Observable,-5.0,-5.0,30.05,1019.5,,,,71,49,0,,,,,,,,,Sky Obscured (Unable to Estimate),0.0,100.0,,0.0,,,,,,
KRDR,01-14-2001,12:00,METAR,,360,9.0,,,800,Light Snow/Fog with Rime/Cloud Development Not Observable,-5.0,-5.0,30.05,1019.5,,,,71,49,0,,,,,,,,,Sky Obscured (Unable to Estimate),0.0,100.0,,0.0,,,,,,
KRDR,01-14-2001,11:42,SPECI,,360,10.0,,,800,Light Snow/Fog with Rime/Cloud Development Not Observable,-5.0,-5.0,30.05,,,,,71,49,0,,,,,,,,,Sky Obscured (Unable to Estimate),0.0,100.0,,0.0,,,,,,
KRDR,01-14-2001,11:00,METAR,,360,10.0,,,800,Freezing Drizzle/Fog with Rime/Cloud Development Not Observable,-5.0,-5.0,30.05,1019.4,,,,56,49,0,,,,,,,,,Sky Obscured (Unable to Estimate),0.0,100.0,,0.0,,,,,,
KRDR,01-14-2001,10:11,SPECI,,360,12.0,,,800,Freezing Drizzle/Fog with Rime/Cloud Development Not Observable,-4.0,-4.0,30.05,,,,,56,49,0,,,,,,,,,Sky Obscured (Unable to Estimate),0.0,100.0,,0.0,,,,,,
KRDR,01-14-2001,10:00,METAR,,360,11.0,,,800,Fog with Rime/Cloud Development Not Observable,-4.0,-4.0,30.05,1019.4,,,,49,0,0,,,,,,,,,Sky Obscured (Unable to Estimate),0.0,100.0,,0.0,,,,,,
KRDR,01-14-2001,09:00,METAR,,350,11.0,,,800,Fog with Rime/Cloud Development Not Observable,-5.0,-5.0,30.05,1019.6,,,,49,0,0,,,,,,,,,Sky Obscured (Unable to Estimate),0.0,100.0,,0.0,,,,,,
KRDR,01-14-2001,08:00,METAR,,360,11.0,,,800,Fog with Rime/Cloud Development Not Observable,-6.0,-6.0,30.05,1019.6,,,,49,0,0,,,,,,,,,Sky Obscured (Unable to Estimate),0.0,100.0,,0.0,,,,,,
KRDR,01-14-2001,07:00,METAR,,350,10.0,,,800,Fog with Rime/Cloud Development Not Observable,-5.0,-5.0,30.05,1020.0,,,,49,0,0,,,,,,,,,Sky Obscured (Unable to Estimate),0.0,100.0,,0.0,,,,,,
KRDR,01-14-2001,06:22,SPECI,,350,11.0,,,800,Fog with Rime/Cloud Development Not Observable,-5.0,-5.0,30.08,,,,,49,0,0,,,,,,,,,Sky Obscured (Unable to Estimate),0.0,100.0,,0.0,,,,,,
KRDR,01-14-2001,06:00,METAR,,350,10.0,,,800,Freezing Drizzle/Fog with Rime/Cloud Development Not Observable,-5.0,-5.0,30.08,1020.3,,,,56,49,0,,,,,,,,,Sky Obscured (Unable to Estimate),0.0,100.0,,0.0,,,,,,
KRDR,01-14-2001,05:00,METAR,,360,10.0,,,800,Freezing Drizzle/Fog with Rime/Cloud Development Not Observable,-4.0,-4.0,30.08,1020.3,,,,56,49,0,,,,,,,,,Sky Obscured (Unable to Estimate),0.0,100.0,,0.0,,,,,,
KRDR,01-14-2001,04:06,SPECI,,10,13.0,,,800,Freezing Drizzle/Fog with Rime/Cloud Development Not Observable,-5.0,-5.0,30.07,,,,,56,49,0,,,,,,,,,Sky Obscured (Unable to Estimate),0.0,100.0,,0.0,,,,,,
KRDR,01-14-2001,03:28,SPECI,,10,11.0,,,1200,Mist/Cloud Development Not Observable,-5.0,-5.0,30.08,,,,,10,0,0,,,,,,,,,Sky Obscured (Unable to Estimate),0.0,100.0,,0.0,,,,,,
KRDR,01-14-2001,03:00,METAR,,10,9.0,,,3200,Mist/Cloud Development Not Observable,-4.0,-4.0,30.08,1020.3,,,,10,0,0,,,,,,,,,8/8 Overcast,400.0,,OVC,400.0,,,,,,
KRDR,01-14-2001,02:00,METAR,,10,11.0,,,3200,Mist/Cloud Development Not Observable,-5.0,-5.0,30.08,1020.3,,,,10,0,0,,,,,,,,,8/8 Overcast,400.0,,OVC,400.0,,,,,,
KRDR,01-14-2001,01:00,METAR,,10,11.0,,,3200,Mist/Cloud Development Not Observable,-6.0,-6.0,30.08,1020.4,,,,10,0,0,,,,,,,,,8/8 Overcast,400.0,,OVC,400.0,,,,,,
KRDR,01-14-2001,00:00,METAR,,10,12.0,,,3200,Mist/Cloud Development Not Observable,-6.0,-6.0,30.07,1020.2,,,,10,0,0,,,,,,,,,8/8 Overcast,400.0,,OVC,400.0,,,,,,
KRDR,01-13-2001,23:32,SPECI,,10,12.0,,,3200,Mist/Cloud Development Not Observable,-6.0,-6.0,30.07,,,,,10,0,0,,,,,,,,,8/8 Overcast,400.0,,OVC,400.0,,,,,,
KRDR,01-13-2001,23:00,METAR,,10,12.0,,,1600,Mist/Cloud Development Not Observable,-5.0,-5.0,30.05,1019.4,,,,10,0,0,,,,,,,,,8/8 Overcast,500.0,,OVC,500.0,,,,,,
KRDR,01-13-2001,22:12,SPECI,,10,9.0,,,1600,Mist/Cloud Development Not Observable,-5.0,-5.0,30.05,,,,,10,0,0,,,,,,,,,8/8 Overcast,500.0,,OVC,500.0,,,,,,
KRDR,01-13-2001,22:00,METAR,,10,7.0,,,1200,Mist/Cloud Development Not Observable,-6.0,-6.0,30.06,1020.0,,,,10,0,0,,,,,,,,,8/8 Overcast,400.0,,OVC,400.0,,,,,,
KRDR,01-13-2001,21:20,METAR,,10,10.0,,,1200,Mist/Cloud Development Not Observable,-6.0,-6.0,30.05,,,,,10,0,0,,,,,,,,,8/8 Overcast,400.0,,OVC,400.0,,,,,,
KRDR,01-13-2001,21:00,METAR,,10,10.0,,,800,Fog with Rime/Cloud Development Not Observable,-7.0,-7.0,30.05,1019.7,,,,49,0,0,,,,,,,,,Sky Obscured (Unable to Estimate),0.0,100.0,,0.0,,,,,,
KRDR,01-13-2001,20:00,METAR,,10,14.0,,,800,Fog with Rime/Cloud Development Not Observable,-7.0,-7.0,30.07,1020.2,,,,49,0,0,,,,,,,,,Sky Obscured (Unable to Estimate),0.0,100.0,,0.0,,,,,,
KRDR,01-13-2001,19:00,METAR,,10,15.0,,,800,Fog with Rime/Cloud Development Not Observable,-8.0,-8.0,30.10,1021.2,,,,49,0,0,,,,,,,,,Sky Obscured (Unable to Estimate),0.0,100.0,,0.0,,,,,,
KRDR,01-13-2001,18:00,METAR,,10,12.0,,,800,Fog with Rime/Cloud Development Not Observable,-9.0,-9.0,30.11,1021.5,,,,49,0,0,,,,,,,,,Sky Obscured (Unable to Estimate),0.0,100.0,,0.0,,,,,,
KRDR,01-13-2001,17:00,METAR,,10,14.0,,,800,Fog with Rime/Cloud Development Not Observable,-9.0,-9.0,30.11,1021.6,,,,49,0,0,,,,,,,,,Sky Obscured (Unable to Estimate),0.0,100.0,,0.0,,,,,,
KRDR,01-13-2001,16:00,METAR,,10,12.0,,,800,Fog with Rime/Cloud Development Not Observable,-9.0,-9.0,30.11,1021.6,,,,49,0,0,,,,,,,,,Sky Obscured (Unable to Estimate),0.0,100.0,,0.0,,,,,,
KRDR,01-13-2001,15:23,SPECI,,10,14.0,,,200,Fog with Rime/Cloud Development Not Observable,-9.0,-9.0,30.10,,,,,49,0,0,,,,,,,,,Sky Obscured (Unable to Estimate),0.0,100.0,,0.0,,,,,,
KRDR,01-13-2001,15:00,METAR,,360,9.0,,,400,Fog with Rime/Cloud Development Not Observable,-9.0,-9.0,30.10,1021.2,,,,49,0,0,,,,,,,,,Sky Obscured (Unable to Estimate),0.0,100.0,,0.0,,,,,,
KRDR,01-13-2001,14:05,SPECI,,10,11.0,,,400,Fog with Rime/Cloud Development Not Observable,-8.0,-8.0,30.09,,,,,49,0,0,,,,,,,,,Sky Obscured (Unable to Estimate),0.0,100.0,,0.0,,,,,,
KRDR,01-13-2001,14:00,METAR,,10,11.0,,,400,Fog with Rime/Cloud Development Not Observable,-8.0,-8.0,30.09,1020.8,,,,49,0,0,,,,,,,,,Sky Obscured (Unable to Estimate),0.0,100.0,,0.0,,,,,,
KRDR,01-13-2001,13:00,METAR,,10,10.0,,,800,Fog with Rime/Cloud Development Not Observable,-8.0,-8.0,30.08,1020.4,,,,49,0,0,,,,,,,,,Sky Obscured (Unable to Estimate),0.0,100.0,,0.0,,,,,,
KRDR,01-13-2001,12:00,METAR,,340,9.0,,,800,Fog with Rime/Cloud Development Not Observable,-8.0,-8.0,30.10,1021.1,,,,49,0,0,,,,,,,,,Sky Obscured (Unable to Estimate),0.0,100.0,,0.0,,,,,,
KRDR,01-13-2001,11:00,METAR,,350,8.0,,,800,Fog with Rime/Cloud Development Not Observable,-8.0,-8.0,30.11,1021.4,,,,49,0,0,,,,,,,,,Sky Obscured (Unable to Estimate),0.0,100.0,,0.0,,,,,,
KRDR,01-13-2001,10:00,METAR,,360,8.0,,,800,Fog with Rime/Cloud Development Not Observable,-8.0,-8.0,30.10,1021.1,,,,49,0,0,,,,,,,,,Sky Obscured (Unable to Estimate),0.0,100.0,,0.0,,,,,,
KRDR,01-13-2001,09:00,METAR,,340,5.0,,,800,Fog with Rime/Cloud Development Not Observable,-8.0,-8.0,30.11,1021.4,,,,49,0,0,,,,,,,,,Sky Obscured (Unable to Estimate),0.0,100.0,,0.0,,,,,,
KRDR,01-13-2001,08:00,METAR,,330,4.0,,,800,Fog with Rime/Cloud Development Not Observable,-8.0,-8.0,30.10,1021.1,,,,49,0,0,,,,,,,,,Sky Obscured (Unable to Estimate),0.0,100.0,,0.0,,,,,,
KRDR,01-13-2001,07:00,METAR,,330,5.0,,,800,Fog with Rime/Cloud Development Not Observable,-8.0,-8.0,30.10,1021.1,,,,49,0,0,,,,,,,,,Sky Obscured (Unable to Estimate),0.0,100.0,,0.0,,,,,,
KRDR,01-13-2001,06:00,METAR,,250,2.0,,,800,Fog with Rime/Cloud Development Not Observable,-8.0,-8.0,30.09,1020.7,,,,49,0,0,,,,,,,,,Sky Obscured (Unable to Estimate),0.0,100.0,,0.0,,,,,,
KRDR,01-13-2001,05:00,METAR,,150,7.0,,,800,Fog with Rime/Cloud Development Not Observable,-9.0,-9.0,30.08,1020.5,,,,49,0,0,,,,,,,,,Sky Obscured (Unable to Estimate),0.0,100.0,,0.0,,,,,,
KRDR,01-13-2001,04:33,SPECI,,140,9.0,,,800,Fog with Rime/Cloud Development Not Observable,-9.0,-9.0,30.08,,,,,49,0,0,,,,,,,,,Sky Obscured (Unable to Estimate),0.0,100.0,,0.0,,,,,,
KRDR,01-13-2001,04:14,SPECI,,160,10.0,,,800,Fog or Ice Fog/Cloud Development Not Observable,-9.0,-9.0,30.08,,,,,44,0,0,,,,,,,,,4/8 Partly Cloudy,72000.0,,FEW,12000.0,SCT,20000.0,,,,
KRDR,01-13-2001,04:00,METAR,,170,8.0,,,8000,Mist/Cloud Development Not Observable,-9.0,-9.0,30.08,1020.6,,,,10,0,0,,,,,,,,,4/8 Partly Cloudy,72000.0,,FEW,12000.0,SCT,20000.0,,,,
KRDR,01-13-2001,03:00,METAR,,150,6.0,,,9999,Cloud Development Not Observable,-8.0,-8.0,30.07,1020.5,,,,0,0,0,,,,,,,,,4/8 Partly Cloudy,72000.0,,FEW,12000.0,SCT,20000.0,,,,
KRDR,01-13-2001,02:00,METAR,,180,7.0,,,9999,Cloud Development Not Observable,-8.0,-8.0,30.06,1020.4,,,,0,0,0,,,,,,,,,7/8 Mostly Cloudy,20000.0,,SCT,12000.0,BKN,20000.0,,,,
KRDR,01-13-2001,01:00,METAR,,140,6.0,,,9999,Cloud Development Not Observable,-7.0,-8.0,30.06,1020.3,,,,0,0,0,,,,,,,,,7/8 Mostly Cloudy,12000.0,,BKN,12000.0,BKN,20000.0,,,,
KRDR,01-13-2001,00:00,METAR,,120,6.0,,,9999,Cloud Development Not Observable,-7.0,-8.0,30.05,1020.0,,,,0,0,0,,,,,,,,,7/8 Mostly Cloudy,12000.0,,BKN,12000.0,BKN,20000.0,,,,
KRDR,01-12-2001,23:00,METAR,,180,9.0,,,9999,Cloud Development Not Observable,-7.0,-8.0,30.06,1020.3,,,,0,0,0,,,,,,,,,7/8 Mostly Cloudy,20000.0,,SCT,12000.0,BKN,20000.0,,,,
KRDR,01-12-2001,22:00,METAR,,170,7.0,,,9999,Cloud Development Not Observable,-6.0,-8.0,30.04,1019.5,,,,0,0,0,,,,,,,,,7/8 Mostly Cloudy,20000.0,,SCT,12000.0,BKN,20000.0,,,,
KRDR,01-12-2001,21:00,METAR,,180,7.0,,,9999,Cloud Development Not Observable,-6.0,-7.0,30.03,1019.1,,,,0,0,0,,,,,,,,,7/8 Mostly Cloudy,20000.0,,FEW,12000.0,BKN,20000.0,,,,
KRDR,01-12-2001,20:00,METAR,,180,8.0,,,9999,Cloud Development Not Observable,-6.0,-8.0,30.03,1019.1,,,,0,0,0,,,,,,,,,4/8 Partly Cloudy,72000.0,,FEW,12000.0,SCT,20000.0,,,,
KRDR,01-12-2001,19:00,METAR,,170,8.0,,,9999,Cloud Development Not Observable,-6.0,-8.0,30.04,1019.5,,,,0,0,0,,,,,,,,,4/8 Partly Cloudy,72000.0,,FEW,12000.0,SCT,20000.0,,,,
KRDR,01-12-2001,18:00,METAR,,210,5.0,,,9999,Cloud Development Not Observable,-7.0,-8.0,30.05,1019.8,,,,0,0,0,,,,,,,,,4/8 Partly Cloudy,72000.0,,FEW,12000.0,SCT,20000.0,,,,
KRDR,01-12-2001,17:00,METAR,,200,6.0,,,9999,Cloud Development Not Observable,-9.0,-10.0,30.06,1020.3,,,,0,0,0,,,,,,,,,2/8 Mostly Clear,72000.0,,FEW,20000.0,,,,,,
KRDR,01-12-2001,16:00,METAR,,190,7.0,,,9999,Cloud Development Not Observable,-12.0,-12.0,30.06,1020.1,,,,0,0,0,,,,,,,,,2/8 Mostly Clear,72000.0,,FEW,20000.0,,,,,,
KRDR,01-12-2001,15:00,METAR,,200,7.0,,,9999,Cloud Development Not Observable,-14.0,-15.0,30.05,1020.1,,,,0,0,0,,,,,,,,,2/8 Mostly Clear,72000.0,,FEW,9900.0,FEW,20000.0,,,,
KRDR,01-12-2001,14:00,METAR,,160,4.0,,,9999,Cloud Development Not Observable,-14.0,-15.0,30.05,1020.1,,,,0,0,0,,,,,,,,,2/8 Mostly Clear,72000.0,,FEW,500.0,,,,,,
KRDR,01-12-2001,13:00,METAR,,220,7.0,,,9999,Cloud Development Not Observable,-14.0,-14.0,30.05,1020.1,,,,0,0,0,,,,,,,,,2/8 Mostly Clear,72000.0,,FEW,500.0,,,,,,
KRDR,01-12-2001,12:00,METAR,,200,7.0,,,9999,Cloud Development Not Observable,-15.0,-15.0,30.03,1019.4,,,,0,0,0,,,,,,,,,2/8 Mostly Clear,72000.0,,FEW,500.0,,,,,,
KRDR,01-12-2001,11:00,METAR,,200,5.0,,,9999,Cloud Development Not Observable,-14.0,-14.0,30.01,1018.6,,,,0,0,0,,,,,,,,,4/8 Partly Cloudy,72000.0,,SCT,500.0,,,,,,
KRDR,01-12-2001,10:00,METAR,,190,6.0,,,9999,Cloud Development Not Observable,-13.0,-13.0,30.03,1019.0,,,,0,0,0,,,,,,,,,4/8 Partly Cloudy,72000.0,,SCT,500.0,,,,,,
KRDR,01-12-2001,09:25,METAR,,200,6.0,,,9999,Cloud Development Not Observable,-14.0,-14.0,30.03,,,,,0,0,0,,,,,,,,,4/8 Partly Cloudy,72000.0,,SCT,500.0,,,,,,
KRDR,01-12-2001,09:00,METAR,,,,,,9999,Cloud Development Not Observable,-13.0,-13.0,30.02,1018.6,,,,0,0,0,,,,,,,,,7/8 Mostly Cloudy,500.0,,BKN,500.0,,,,,,
KRDR,01-12-2001,08:35,SPECI,,220,3.0,,,9999,Cloud Development Not Observable,-13.0,-13.0,30.01,,,,,0,0,0,,,,,,,,,7/8 Mostly Cloudy,500.0,,BKN,500.0,,,,,,
KRDR,01-12-2001,08:00,METAR,,,,,,9999,Cloud Development Not Observable,-13.0,-13.0,30.01,1018.5,,,,0,0,0,,,,,,,,,4/8 Partly Cloudy,72000.0,,SCT,500.0,,,,,,
KRDR,01-12-2001,07:00,METAR,,220,6.0,,,9999,Cloud Development Not Observable,-12.0,-12.0,30.01,1018.4,,,,0,0,0,,,,,,,,,4/8 Partly Cloudy,72000.0,,FEW,1000.0,SCT,12000.0,,,,
KRDR,01-12-2001,06:00,METAR,,280,4.0,,,9999,Cloud Development Not Observable,-11.0,-11.0,30.01,1018.3,,,,0,0,0,,,,,,,,,7/8 Mostly Cloudy,14000.0,,FEW,1000.0,SCT,7900.0,BKN,14000.0,,
KRDR,01-12-2001,05:00,METAR,,290,5.0,,,9999,Cloud Development Not Observable,-12.0,-12.0,30.01,1018.4,,,,0,0,0,,,,,,,,,4/8 Partly Cloudy,72000.0,,SCT,12000.0,,,,,,
KRDR,01-12-2001,04:00,METAR,,330,4.0,,,9999,Cloud Development Not Observable,-11.0,-11.0,29.99,1017.9,,,,0,0,0,,,,,,,,,4/8 Partly Cloudy,72000.0,,SCT,8900.0,,,,,,
KRDR,01-12-2001,03:00,METAR,,310,5.0,,,9999,Cloud Development Not Observable,-11.0,-11.0,30.00,1018.1,,,,0,0,0,,,,,,,,,4/8 Partly Cloudy,72000.0,,SCT,20000.0,,,,,,
KRDR,01-12-2001,02:00,METAR,,330,6.0,,,9999,Cloud Development Not Observable,-10.0,-10.0,29.99,1017.9,,,,0,0,0,,,,,,,,,7/8 Mostly Cloudy,20000.0,,SCT,8900.0,BKN,20000.0,,,,
KRDR,01-12-2001,01:00,METAR,,310,6.0,,,9999,Mist/Cloud Development Not Observable,-10.0,-10.0,29.99,1017.9,,,,10,0,0,,,,,,,,,7/8 Mostly Cloudy,20000.0,,SCT,8900.0,BKN,20000.0,,,,
KRDR,01-12-2001,00:00,METAR,,350,4.0,,,9999,Mist/Cloud Development Not Observable,-9.0,-9.0,29.97,1017.1,,,,10,0,0,,,,,,,,,7/8 Mostly Cloudy,20000.0,,SCT,8900.0,BKN,20000.0,,,,
KRDR,01-11-2001,23:00,METAR,,360,6.0,,,9999,Mist/Cloud Development Not Observable,-8.0,-8.0,29.96,1016.8,,,,10,0,0,,,,,,,,,7/8 Mostly Cloudy,20000.0,,SCT,8900.0,BKN,20000.0,,,,
KRDR,01-11-2001,22:00,METAR,,350,9.0,,,9999,Mist/Cloud Development Not Observable,-6.0,-8.0,29.96,1016.6,,,,10,0,0,,,,,,,,,4/8 Partly Cloudy,72000.0,,SCT,8900.0,SCT,20000.0,,,,
KRDR,01-11-2001,21:00,METAR,,340,11.0,,,9999,Mist/Cloud Development Not Observable,-6.0,-8.0,29.96,1016.6,,,,10,0,0,,,,,,,,,7/8 Mostly Cloudy,20000.0,,SCT,8900.0,BKN,20000.0,,,,
KRDR,01-11-2001,20:00,METAR,,360,11.0,,,9999,Mist/Cloud Development Not Observable,-7.0,-8.0,29.95,1016.3,,,,10,0,0,,,,,,,,,7/8 Mostly Cloudy,9000.0,,BKN,8900.0,BKN,20000.0,,,,
KRDR,01-11-2001,19:00,METAR,,350,11.0,,,9999,Mist/Cloud Development Not Observable,-7.0,-8.0,29.96,1016.6,,,,10,0,0,,,,,,,,,7/8 Mostly Cloudy,9000.0,,BKN,8900.0,BKN,20000.0,,,,
KRDR,01-11-2001,18:00,METAR,,330,11.0,,,9999,Mist/Cloud Development Not Observable,-9.0,-9.0,29.98,1017.4,,,,10,0,0,,,,,,,,,7/8 Mostly Cloudy,9000.0,,BKN,8900.0,BKN,20000.0,,,,
KRDR,01-11-2001,17:00,METAR,,340,10.0,,,9999,Cloud Development Not Observable,-10.0,-10.0,29.99,1017.8,,,,0,0,0,,,,,,,,,7/8 Mostly Cloudy,20000.0,,FEW,5000.0,SCT,9900.0,BKN,20000.0,,
KRDR,01-11-2001,16:00,METAR,,340,6.0,,,8000,Mist/Cloud Development Not Observable,-11.0,-11.0,29.99,1017.8,,,,10,0,0,,,,,,,,,7/8 Mostly Cloudy,12000.0,,FEW,300.0,BKN,12000.0,BKN,20000.0,,
KRDR,01-11-2001,15:00,METAR,,360,9.0,,,6400,Mist/Cloud Development Not Observable,-12.0,-12.0,29.98,1017.5,,,,10,0,0,,,,,,,,,7/8 Mostly Cloudy,12000.0,,FEW,300.0,BKN,12000.0,BKN,20000.0,,
KRDR,01-11-2001,14:09,SPECI,,350,8.0,,,4800,Mist/Cloud Development Not Observable,-12.0,-12.0,29.98,,,,,10,0,0,,,,,,,,,7/8 Mostly Cloudy,12000.0,,SCT,300.0,BKN,12000.0,BKN,20000.0,,
KRDR,01-11-2001,14:00,METAR,,340,10.0,,,3200,Mist/Cloud Development Not Observable,-12.0,-12.0,29.98,1017.5,,,,10,0,0,,,,,,,,,8/8 Overcast,300.0,,BKN,300.0,OVC,12000.0,,,,
KRDR,01-11-2001,13:45,METAR,,330,9.0,,,3200,Mist/Cloud Development Not Observable,-12.0,-12.0,29.98,,,,,10,0,0,,,,,,,,,8/8 Overcast,300.0,,BKN,300.0,OVC,12000.0,,,,
KRDR,01-11-2001,13:25,METAR,,330,9.0,,,2400,Mist/Cloud Development Not Observable,-12.0,-12.0,29.97,,,,,10,0,0,,,,,,,,,8/8 Overcast,300.0,,BKN,300.0,BKN,800.0,OVC,12000.0,,
KRDR,01-11-2001,13:00,METAR,,320,8.0,,,2400,Mist/Cloud Development Not Observable,-12.0,-12.0,29.98,1017.4,,,,10,0,0,,,,,,,,,8/8 Overcast,800.0,,FEW,300.0,BKN,800.0,OVC,12000.0,,
KRDR,01-11-2001,12:00,METAR,,340,8.0,,,9999,Cloud Development Not Observable,-12.0,-12.0,29.97,1016.9,,,,0,0,0,,,,,,,,,7/8 Mostly Cloudy,14000.0,,FEW,4000.0,BKN,14000.0,BKN,20000.0,,
KRDR,01-11-2001,11:00,METAR,,340,8.0,,,9999,Cloud Development Not Observable,-12.0,-12.0,29.96,1016.4,,,,0,0,0,,,,,,,,,7/8 Mostly Cloudy,20000.0,,SCT,12000.0,BKN,20000.0,,,,
KRDR,01-11-2001,10:00,METAR,,350,9.0,,,9999,Cloud Development Not Observable,-11.0,-11.0,29.97,1016.7,,,,0,0,0,,,,,,,,,7/8 Mostly Cloudy,20000.0,,SCT,12000.0,BKN,20000.0,,,,
KRDR,01-11-2001,09:00,METAR,,350,10.0,,,9999,Cloud Development Not Observable,-10.0,-10.0,29.95,1016.2,,,,0,0,0,,,,,,,,,4/8 Partly Cloudy,72000.0,,FEW,12000.0,SCT,20000.0,,,,
KRDR,01-11-2001,08:00,METAR,,350,7.0,,,9999,Cloud Development Not Observable,-10.0,-10.0,29.96,1016.5,,,,0,0,0,,,,,,,,,4/8 Partly Cloudy,72000.0,,FEW,12000.0,SCT,20000.0,,,,
KRDR,01-11-2001,07:00,METAR,,330,7.0,,,9999,Cloud Development Not Observable,-10.0,-10.0,29.96,1016.5,,,,0,0,0,,,,,,,,,4/8 Partly Cloudy,72000.0,,FEW,12000.0,SCT,20000.0,,,,
KRDR,01-11-2001,06:00,METAR,,350,9.0,,,9999,Cloud Development Not Observable,-10.0,-10.0,29.95,1016.2,,,,0,0,0,,,,,,,,,4/8 Partly Cloudy,72000.0,,FEW,12000.0,SCT,20000.0,,,,
KRDR,01-11-2001,05:00,METAR,,350,7.0,,,9999,Cloud Development Not Observable,-10.0,-10.0,29.96,1016.4,,,,0,0,0,,,,,,,,,4/8 Partly Cloudy,72000.0,,SCT,20000.0,,,,,,
KRDR,01-11-2001,04:00,METAR,,350,7.0,,,9999,Cloud Development Not Observable,-9.0,-9.0,29.95,1016.3,,,,0,0,0,,,,,,,,,4/8 Partly Cloudy,72000.0,,SCT,20000.0,,,,,,
KRDR,01-11-2001,03:00,METAR,,350,9.0,,,9999,Cloud Development Not Observable,-8.0,-9.0,29.94,1015.9,,,,0,0,0,,,,,,,,,4/8 Partly Cloudy,72000.0,,FEW,12000.0,SCT,20000.0,,,,
KRDR,01-11-2001,02:00,METAR,,350,10.0,,,9999,Cloud Development Not Observable,-8.0,-8.0,29.92,1015.3,,,,0,0,0,,,,,,,,,7/8 Mostly Cloudy,20000.0,,FEW,12000.0,BKN,20000.0,,,,
KRDR,01-11-2001,01:00,METAR,,340,10.0,,,9999,Cloud Development Not Observable,-7.0,-8.0,29.91,1014.9,,,,0,0,0,,,,,,,,,7/8 Mostly Cloudy,20000.0,,FEW,12000.0,BKN,20000.0,,,,
KRDR,01-10-2001,23:00,METAR,,340,9.0,,,9999,Cloud Development Not Observable,-5.0,-6.0,29.89,1014.1,,,,0,0,0,,,,,,,,,7/8 Mostly Cloudy,20000.0,,SCT,12000.0,BKN,20000.0,,,,
KRDR,01-10-2001,22:00,METAR,,350,9.0,,,9999,Cloud Development Not Observable,-4.0,-5.0,29.86,1013.1,,,,0,0,0,,,,,,,,,7/8 Mostly Cloudy,20000.0,,SCT,12000.0,BKN,20000.0,,,,
KRDR,01-10-2001,21:00,METAR,,360,11.0,,,9999,Cloud Development Not Observable,-4.0,-6.0,29.84,1012.3,,,,0,0,0,,,,,,,,,7/8 Mostly Cloudy,20000.0,,FEW,12000.0,BKN,20000.0,,,,
KRDR,01-10-2001,20:00,METAR,,350,9.0,,,9999,Cloud Development Not Observable,-4.0,-6.0,29.84,1012.3,,,,0,0,0,,,,,,,,,7/8 Mostly Cloudy,20000.0,,FEW,12000.0,BKN,20000.0,,,,
KRDR,01-10-2001,19:00,METAR,,350,8.0,,,9999,Cloud Development Not Observable,-4.0,-6.0,29.82,1011.5,,,,0,0,0,,,,,,,,,7/8 Mostly Cloudy,20000.0,,FEW,15000.0,BKN,20000.0,,,,
KRDR,01-10-2001,18:00,METAR,,350,7.0,,,9999,Cloud Development Not Observable,-4.0,-6.0,29.82,1011.5,,,,0,0,0,,,,,,,,,7/8 Mostly Cloudy,20000.0,,FEW,15000.0,BKN,20000.0,,,,
KRDR,01-10-2001,17:00,METAR,,350,9.0,,,9999,Cloud Development Not Observable,-4.0,-6.0,29.81,1011.2,,,,0,0,0,,,,,,,,,4/8 Partly Cloudy,72000.0,,FEW,12000.0,SCT,20000.0,,,,
KRDR,01-10-2001,16:00,METAR,,330,7.0,,,9999,Cloud Development Not Observable,-7.0,-8.0,29.79,1010.6,,,,0,0,0,,,,,,,,,4/8 Partly Cloudy,72000.0,,FEW,12000.0,SCT,20000.0,,,,
KRDR,01-10-2001,15:00,METAR,,330,6.0,,,9999,Cloud Development Not Observable,-9.0,-10.0,29.77,1010.0,,,,0,0,0,,,,,,,,,4/8 Partly Cloudy,72000.0,,FEW,12000.0,SCT,20000.0,,,,
KRDR,01-10-2001,14:00,METAR,,310,5.0,,,9999,Cloud Development Not Observable,-10.0,-10.0,29.74,1009.0,,,,0,0,0,,,,,,,,,4/8 Partly Cloudy,72000.0,,SCT,12000.0,SCT,20000.0,,,,
KRDR,01-10-2001,13:37,SPECI,,300,6.0,,,9999,Cloud Development Not Observable,-10.0,-11.0,29.74,,,,,0,0,0,,,,,,,,,4/8 Partly Cloudy,72000.0,,SCT,12000.0,SCT,20000.0,,,,
KRDR,01-10-2001,13:00,METAR,,270,3.0,,,9999,Cloud Development Not Observable,-12.0,-12.0,29.73,1008.6,,,,0,0,0,,,,,,,,,4/8 Partly Cloudy,72000.0,,SCT,12000.0,SCT,20000.0,,,,
KRDR,01-10-2001,12:00,METAR,,240,6.0,,,9999,Cloud Development Not Observable,-11.0,-12.0,29.72,1008.1,,,,0,0,0,,,,,,,,,2/8 Mostly Clear,72000.0,,FEW,5900.0,,,,,,
KRDR,01-10-2001,11:00,METAR,,220,7.0,,,9999,Cloud Development Not Observable,-10.0,-11.0,29.71,1007.7,,,,0,0,0,,,,,,,,,2/8 Mostly Clear,72000.0,,FEW,5900.0,,,,,,
KRDR,01-10-2001,10:00,METAR,,190,9.0,,,9999,Cloud Development Not Observable,-12.0,-12.0,29.70,1007.3,,,,0,0,0,,,,,,,,,Clear,72000.0,,,73000.0,,,,,,
KRDR,01-10-2001,09:00,METAR,,180,8.0,,,9999,Cloud Development Not Observable,-10.0,-10.0,29.70,1007.3,,,,0,0,0,,,,,,,,,Clear,72000.0,,,73000.0,,,,,,
KRDR,01-10-2001,08:00,METAR,,200,9.0,,,9999,Cloud Development Not Observable,-10.0,-11.0,29.70,1007.3,,,,0,0,0,,,,,,,,,Clear,72000.0,,,73000.0,,,,,,
KRDR,01-10-2001,07:00,METAR,,190,12.0,,,9999,Cloud Development Not Observable,-9.0,-10.0,29.69,1007.2,,,,0,0,0,,,,,,,,,Clear,72000.0,,,73000.0,,,,,,
KRDR,01-10-2001,06:00,METAR,,160,8.0,,,9999,Cloud Development Not Observable,-6.0,-8.0,29.70,1007.3,,,,0,0,0,,,,,,,,,Clear,72000.0,,,73000.0,,,,,,
KRDR,01-10-2001,05:00,METAR,,170,9.0,,,9999,Cloud Development Not Observable,-8.0,-9.0,29.72,1008.0,,,,0,0,0,,,,,,,,,Clear,72000.0,,,73000.0,,,,,,
KRDR,01-10-2001,04:00,METAR,,170,9.0,,,9999,Cloud Development Not Observable,-8.0,-9.0,29.73,1008.6,,,,0,0,0,,,,,,,,,Clear,72000.0,,,73000.0,,,,,,
KRDR,01-10-2001,03:00,METAR,,190,9.0,,,9999,Cloud Development Not Observable,-9.0,-9.0,29.75,1009.5,,,,0,0,0,,,,,,,,,Clear,72000.0,,,73000.0,,,,,,
KRDR,01-10-2001,02:00,METAR,,180,9.0,,,9999,Cloud Development Not Observable,-8.0,-8.0,29.75,1009.3,,,,0,0,0,,,,,,,,,Clear,72000.0,,,73000.0,,,,,,
KRDR,01-10-2001,01:00,METAR,,160,8.0,,,9999,Cloud Development Not Observable,-7.0,-8.0,29.76,1009.7,,,,0,0,0,,,,,,,,,2/8 Mostly Clear,72000.0,,FEW,20000.0,,,,,,
KRDR,01-10-2001,00:00,METAR,,170,8.0,,,9999,Cloud Development Not Observable,-4.0,-6.0,29.76,1009.5,,,,0,0,0,,,,,,,,,4/8 Partly Cloudy,72000.0,,SCT,20000.0,,,,,,
KRDR,01-09-2001,23:00,METAR,,180,12.0,,,9999,Cloud Development Not Observable,-3.0,-5.0,29.76,1009.7,,,,0,0,0,,,,,,,,,4/8 Partly Cloudy,72000.0,,SCT,20000.0,,,,,,
KRDR,01-09-2001,22:00,METAR,,190,11.0,,,9999,Cloud Development Not Observable,-1.0,-4.0,29.78,1010.1,,,,0,0,0,,,,,,,,,4/8 Partly Cloudy,72000.0,,SCT,20000.0,,,,,,
KRDR,01-09-2001,21:00,METAR,,200,10.0,,,9999,Cloud Development Not Observable,0.0,-5.0,29.79,1010.7,,,,0,0,0,,,,,,,,,2/8 Mostly Clear,72000.0,,FEW,20000.0,,,,,,
KRDR,01-09-2001,20:00,METAR,,190,18.0,,,9999,Cloud Development Not Observable,-1.0,-5.0,29.80,1010.8,,,,0,0,0,,,,,,,,,Clear,72000.0,,,73000.0,,,,,,
KRDR,01-09-2001,19:00,METAR,,180,17.0,,,9999,Cloud Development Not Observable,-3.0,-6.0,29.84,1012.3,,,,0,0,0,,,,,,,,,2/8 Mostly Clear,72000.0,,FEW,20000.0,,,,,,
KRDR,01-09-2001,18:00,METAR,,180,17.0,,,9999,Cloud Development Not Observable,-4.0,-7.0,29.88,1013.8,,,,0,0,0,,,,,,,,,Clear,72000.0,,,73000.0,,,,,,
KRDR,01-09-2001,17:00,METAR,,180,15.0,,,9999,Cloud Development Not Observable,-5.0,-8.0,29.91,1014.9,,,,0,0,0,,,,,,,,,Clear,72000.0,,,73000.0,,,,,,
KRDR,01-09-2001,16:00,METAR,,170,15.0,,,9999,Cloud Development Not Observable,-7.0,-9.0,29.92,1015.3,,,,0,0,0,,,,,,,,,Clear,72000.0,,,73000.0,,,,,,
KRDR,01-09-2001,15:21,SPECI,,170,15.0,,,9999,Cloud Development Not Observable,-9.0,-11.0,29.93,,,,,0,0,0,,,,,,,,,Clear,72000.0,,,73000.0,,,,,,
KRDR,01-09-2001,15:00,METAR,,160,12.0,,,9999,Cloud Development Not Observable,-10.0,-11.0,29.94,1016.2,,,,0,0,0,,,,,,,,,Clear,72000.0,,,73000.0,,,,,,
KRDR,01-09-2001,14:00,METAR,,170,14.0,,,9999,Cloud Development Not Observable,-11.0,-12.0,29.96,1016.7,,,,0,0,0,,,,,,,,,Clear,72000.0,,,73000.0,,,,,,
KRDR,01-09-2001,13:34,SPECI,,170,12.0,,,9999,Cloud Development Not Observable,-11.0,-12.0,29.97,,,,,0,0,0,,,,,,,,,Clear,72000.0,,,73000.0,,,,,,
KRDR,01-09-2001,13:00,METAR,,180,13.0,,,9999,Cloud Development Not Observable,-11.0,-12.0,29.98,1017.6,,,,0,0,0,,,,,,,,,Clear,72000.0,,,73000.0,,,,,,
KRDR,01-09-2001,12:28,SPECI,,180,13.0,,,9999,Cloud Development Not Observable,-11.0,-12.0,29.99,,,,,0,0,0,,,,,,,,,Clear,72000.0,,,73000.0,,,,,,
KRDR,01-09-2001,12:00,METAR,,170,12.0,,,9999,Cloud Development Not Observable,-11.0,-12.0,29.99,1017.9,,,,0,0,0,,,,,,,,,Clear,72000.0,,,73000.0,,,,,,
KRDR,01-09-2001,11:00,METAR,,170,12.0,,,9999,Cloud Development Not Observable,-11.0,-12.0,30.02,1018.8,,,,0,0,0,,,,,,,,,2/8 Mostly Clear,72000.0,,FEW,25000.0,,,,,,
KRDR,01-09-2001,10:00,METAR,,170,12.0,,,9999,Cloud Development Not Observable,-12.0,-12.0,30.04,1019.7,,,,0,0,0,,,,,,,,,2/8 Mostly Clear,72000.0,,FEW,25000.0,,,,,,
KRDR,01-09-2001,09:00,METAR,,170,14.0,,,9999,Cloud Development Not Observable,-12.0,-12.0,30.06,,,,,0,0,0,,,,,,,,,2/8 Mostly Clear,72000.0,,FEW,25000.0,,,,,,
KRDR,01-09-2001,08:00,METAR,,170,15.0,,,9999,Cloud Development Not Observable,-12.0,-12.0,30.06,,,,,0,0,0,,,,,,,,,2/8 Mostly Clear,72000.0,,FEW,25000.0,,,,,,
KRDR,01-09-2001,07:00,METAR,,170,15.0,,,9999,Cloud Development Not Observable,-12.0,-12.0,30.06,,,,,0,0,0,,,,,,,,,2/8 Mostly Clear,72000.0,,FEW,25000.0,,,,,,
KRDR,01-09-2001,06:00,METAR,,170,13.0,,,9999,Cloud Development Not Observable,-12.0,-13.0,30.08,,,,,0,0,0,,,,,,,,,4/8 Partly Cloudy,72000.0,,SCT,25000.0,,,,,,
KRDR,01-09-2001,05:00,METAR,,180,15.0,,,9999,Cloud Development Not Observable,-11.0,-12.0,30.09,1021.1,,,,0,0,0,,,,,,,,,4/8 Partly Cloudy,72000.0,,SCT,25000.0,,,,,,
KRDR,01-09-2001,04:00,METAR,,200,14.0,,,9999,Cloud Development Not Observable,-11.0,-13.0,30.10,1021.6,,,,0,0,0,,,,,,,,,4/8 Partly Cloudy,72000.0,,SCT,25000.0,,,,,,
KRDR,01-09-2001,03:00,METAR,,190,15.0,,,9999,Cloud Development Not Observable,-12.0,-13.0,30.12,1022.4,,,,0,0,0,,,,,,,,,4/8 Partly Cloudy,72000.0,,SCT,25000.0,,,,,,
KRDR,01-09-2001,02:00,METAR,,180,13.0,,,9999,Cloud Development Not Observable,-12.0,-14.0,30.14,1023.1,,,,0,0,0,,,,,,,,,4/8 Partly Cloudy,72000.0,,SCT,25000.0,,,,,,
KRDR,01-09-2001,01:00,METAR,,180,11.0,,,9999,Cloud Development Not Observable,-13.0,-14.0,30.14,1023.2,,,,0,0,0,,,,,,,,,4/8 Partly Cloudy,72000.0,,SCT,25000.0,,,,,,
KRDR,01-09-2001,00:00,METAR,,180,11.0,,,9999,Cloud Development Not Observable,-12.0,-14.0,30.16,1023.9,,,,0,0,0,,,,,,,,,4/8 Partly Cloudy,72000.0,,SCT,25000.0,,,,,,
KRDR,01-08-2001,23:00,METAR,,180,10.0,,,9999,Cloud Development Not Observable,-11.0,-13.0,30.15,1023.3,,,,0,0,0,,,,,,,,,4/8 Partly Cloudy,72000.0,,SCT,25000.0,,,,,,
KRDR,01-08-2001,22:00,METAR,,200,10.0,,,7000,Cloud Development Not Observable,-11.0,-13.0,30.15,,,,,0,0,0,,,,,,,,,4/8 Partly Cloudy,72000.0,,SCT,25000.0,,,,,,
KRDR,01-08-2001,21:00,METAR,,190,8.0,,,9999,Cloud Development Not Observable,-10.0,-13.0,30.16,1023.5,,,,0,0,0,,,,,,,,,7/8 Mostly Cloudy,25000.0,,BKN,25000.0,,,,,,
KRDR,01-08-2001,20:00,METAR,,200,9.0,,,9999,Cloud Development Not Observable,-10.0,-13.0,30.16,1023.3,,,,0,0,0,,,,,,,,,4/8 Partly Cloudy,72000.0,,SCT,25000.0,,,,,,
KRDR,01-08-2001,19:00,METAR,,190,8.0,,,9999,Cloud Development Not Observable,-11.0,-14.0,30.18,1024.1,,,,0,0,0,,,,,,,,,4/8 Partly Cloudy,72000.0,,SCT,25000.0,,,,,,
KRDR,01-08-2001,18:00,METAR,,190,7.0,,,9999,Cloud Development Not Observable,-12.0,-14.0,30.19,1024.4,,,,0,0,0,,,,,,,,,7/8 Mostly Cloudy,25000.0,,BKN,25000.0,,,,,,
KRDR,01-08-2001,17:00,METAR,,,,,,9999,Cloud Development Not Observable,-12.0,-13.0,30.22,1025.5,,,,0,0,0,,,,,,,,,7/8 Mostly Cloudy,25000.0,,FEW,12000.0,BKN,25000.0,,,,
KRDR,01-08-2001,16:00,METAR,,,,,,9999,Cloud Development Not Observable,-15.0,-15.0,30.21,1025.2,,,,0,0,0,,,,,,,,,7/8 Mostly Cloudy,25000.0,,FEW,12000.0,BKN,25000.0,,,,
KRDR,01-08-2001,15:00,METAR,,,,,,9999,Cloud Development Not Observable,-17.0,-17.0,30.20,1025.0,,,,0,0,0,,,,,,,,,7/8 Mostly Cloudy,25000.0,,BKN,25000.0,,,,,,
KRDR,01-08-2001,14:00,METAR,,270,4.0,,,9999,Cloud Development Not Observable,-17.0,-17.0,30.19,1024.6,,,,0,0,0,,,,,,,,,4/8 Partly Cloudy,72000.0,,SCT,25000.0,,,,,,
KRDR,01-08-2001,13:00,METAR,,320,5.0,,,9999,Cloud Development Not Observable,-16.0,-16.0,30.18,1024.2,,,,0,0,0,,,,,,,,,4/8 Partly Cloudy,72000.0,,FEW,2500.0,SCT,12000.0,,,,
KRDR,01-08-2001,12:00,METAR,,350,6.0,,,9999,Cloud Development Not Observable,-15.0,-15.0,30.18,1024.4,,,,0,0,0,,,,,,,,,4/8 Partly Cloudy,72000.0,,SCT,2500.0,,,,,,
KRDR,01-08-2001,11:00,METAR,,10,8.0,,,9999,Cloud Development Not Observable,-12.0,-13.0,30.17,1023.6,,,,0,0,0,,,,,,,,,4/8 Partly Cloudy,72000.0,,SCT,2500.0,,,,,,
KRDR,01-08-2001,10:41,SPECI,,10,7.0,,,9999,Cloud Development Not Observable,-12.0,-12.0,30.17,,,,,0,0,0,,,,,,,,,4/8 Partly Cloudy,72000.0,,SCT,2500.0,,,,,,
KRDR,01-08-2001,10:00,METAR,,10,9.0,,,9999,Cloud Development Not Observable,-10.0,-11.0,30.16,1023.3,,,,0,0,0,,,,,,,,,8/8 Overcast,2500.0,,OVC,2500.0,,,,,,
KRDR,01-08-2001,09:00,METAR,,20,11.0,,,9999,Cloud Development Not Observable,-9.0,-11.0,30.16,1023.3,,,,0,0,0,,,,,,,,,8/8 Overcast,2500.0,,OVC,2500.0,,,,,,
KRDR,01-08-2001,08:00,METAR,,360,9.0,,,9999,Cloud Development Not Observable,-9.0,-10.0,30.14,1022.4,,,,0,0,0,,,,,,,,,8/8 Overcast,2500.0,,OVC,2500.0,,,,,,
KRDR,01-08-2001,07:00,METAR,,360,10.0,,,9999,Cloud Development Not Observable,-8.0,-9.0,30.13,1022.2,,,,0,0,0,,,,,,,,,8/8 Overcast,2500.0,,BKN,2500.0,OVC,3000.0,,,,
KRDR,01-08-2001,06:12,SPECI,,360,11.0,,,9999,Cloud Development Not Observable,-7.0,-8.0,30.13,,,,,0,0,0,,,,,,,,,8/8 Overcast,2500.0,,BKN,2500.0,OVC,3000.0,,,,
KRDR,01-08-2001,06:00,METAR,,360,11.0,,,9999,Cloud Development Not Observable,-7.0,-8.0,30.13,1022.2,,,,0,0,0,,,,,,,,,8/8 Overcast,3000.0,,SCT,2000.0,OVC,3000.0,,,,
KRDR,01-08-2001,05:00,METAR,,350,7.0,,,9999,Cloud Development Not Observable,-6.0,-8.0,30.11,1021.5,,,,0,0,0,,,,,,,,,8/8 Overcast,3000.0,,SCT,2000.0,OVC,3000.0,,,,
KRDR,01-08-2001,04:00,METAR,,300,4.0,,,9999,Cloud Development Not Observable,-6.0,-7.0,30.11,1021.4,,,,0,0,0,,,,,,,,,8/8 Overcast,3000.0,,SCT,2500.0,OVC,3000.0,,,,
KRDR,01-08-2001,03:00,METAR,,290,4.0,,,9999,Cloud Development Not Observable,-7.0,-7.0,30.11,1021.6,,,,0,0,0,,,,,,,,,8/8 Overcast,3000.0,,SCT,2500.0,OVC,3000.0,,,,
KRDR,01-08-2001,02:00,METAR,,20,4.0,,,9999,Cloud Development Not Observable,-6.0,-7.0,30.12,1021.8,,,,0,0,0,,,,,,,,,8/8 Overcast,3000.0,,SCT,2500.0,OVC,3000.0,,,,
KRDR,01-08-2001,01:00,METAR,,330,6.0,,,9999,Cloud Development Not Observable,-6.0,-7.0,30.12,1021.8,,,,0,0,0,,,,,,,,,8/8 Overcast,3000.0,,SCT,2000.0,OVC,3000.0,,,,
KRDR,01-08-2001,00:00,METAR,,330,7.0,,,9999,Cloud Development Not Observable,-7.0,-8.0,30.11,1021.5,,,,0,0,0,,,,,,,,,7/8 Mostly Cloudy,3400.0,,BKN,3500.0,BKN,7900.0,,,,
KRDR,01-07-2001,23:00,METAR,,350,8.0,,,9999,Cloud Development Not Observable,-5.0,-6.0,30.10,1021.1,,,,0,0,0,,,,,,,,,7/8 Mostly Cloudy,2000.0,,BKN,2000.0,BKN,7900.0,,,,
KRDR,01-07-2001,22:44,SPECI,,350,9.0,,,9999,Cloud Development Not Observable,-5.0,-6.0,30.10,,,,,0,0,0,,,,,,,,,7/8 Mostly Cloudy,2000.0,,BKN,2000.0,BKN,7900.0,,,,
KRDR,01-07-2001,22:00,METAR,,340,13.0,,,9999,Light Snow/Cloud Development Not Observable,-3.0,-5.0,30.08,1020.5,,,,71,0,0,,,,,,,,,8/8 Overcast,1500.0,,OVC,1500.0,,,,,,
KRDR,01-07-2001,21:00,METAR,,340,8.0,,,9999,Light Snow/Cloud Development Not Observable,-3.0,-5.0,30.05,1019.4,,,,71,0,0,,,,,,,,,8/8 Overcast,1500.0,,BKN,1500.0,OVC,2000.0,,,,
KRDR,01-07-2001,20:00,METAR,,210,6.0,,,9999,Light Snow/Cloud Development Not Observable,-4.0,-5.0,30.04,1019.2,,,,71,0,0,,,,,,,,,8/8 Overcast,1500.0,,OVC,1500.0,,,,,,
KRDR,01-07-2001,19:00,METAR,,170,6.0,,,9999,Light Snow/Cloud Development Not Observable,-5.0,-6.0,30.06,1019.9,,,,71,0,0,,,,,,,,,8/8 Overcast,2200.0,,OVC,2200.0,,,,,,
KRDR,01-07-2001,18:35,SPECI,,200,7.0,,,9999,Light Snow/Cloud Development Not Observable,-5.0,-6.0,30.06,,,,,71,0,0,,,,,,,,,8/8 Overcast,2200.0,,OVC,2200.0,,,,,,
KRDR,01-07-2001,18:00,METAR,,200,6.0,,,9999,Light Snow/Cloud Development Not Observable,-5.0,-7.0,30.06,1019.9,,,,71,0,0,,,,,,,,,8/8 Overcast,2000.0,,BKN,2000.0,OVC,5400.0,,,,
KRDR,01-07-2001,17:26,SPECI,,220,8.0,,,9999,Light Snow/Cloud Development Not Observable,-6.0,-7.0,30.07,,,,,71,0,0,,,,,,,,,8/8 Overcast,1900.0,,OVC,1900.0,,,,,,
KRDR,01-07-2001,17:00,METAR,,200,7.0,,,4800,Light Snow/Cloud Development Not Observable,-7.0,-8.0,30.08,1020.6,,,,71,0,0,,,,,,,,,8/8 Overcast,1300.0,,BKN,1300.0,OVC,2000.0,,,,
KRDR,01-07-2001,16:00,METAR,,200,7.0,,,9999,Light Snow/Cloud Development Not Observable,-8.0,-8.0,30.08,1020.6,,,,71,0,0,,,,,,,,,8/8 Overcast,1000.0,,BKN,1000.0,OVC,2000.0,,,,
KRDR,01-07-2001,15:05,SPECI,,180,6.0,,,9999,Light Snow/Cloud Development Not Observable,-8.0,-9.0,30.07,,,,,71,0,0,,,,,,,,,8/8 Overcast,1000.0,,BKN,1000.0,OVC,1500.0,,,,
KRDR,01-07-2001,15:00,METAR,,210,6.0,,,9999,Cloud Development Not Observable,-8.0,-9.0,30.07,1020.3,,,,0,0,0,,,,,,,,,8/8 Overcast,1000.0,,OVC,1000.0,,,,,,
KRDR,01-07-2001,14:42,SPECI,,200,5.0,,,9999,Cloud Development Not Observable,-8.0,-9.0,30.08,,,,,0,0,0,,,,,,,,,8/8 Overcast,1000.0,,OVC,1000.0,,,,,,
KRDR,01-07-2001,14:00,METAR,,220,4.0,,,9999,Cloud Development Not Observable,-9.0,-9.0,30.07,1020.4,,,,0,0,0,,,,,,,,,8/8 Overcast,1400.0,,FEW,500.0,OVC,1400.0,,,,
KRDR,01-07-2001,13:30,METAR,,290,5.0,,,9999,Cloud Development Not Observable,-9.0,-9.0,30.08,,,,,0,0,0,,,,,,,,,8/8 Overcast,1200.0,,SCT,500.0,OVC,1200.0,,,,
KRDR,01-07-2001,13:00,METAR,,310,5.0,,,9999,Cloud Development Not Observable,-9.0,-9.0,30.06,1020.2,,,,0,0,0,,,,,,,,,8/8 Overcast,500.0,,BKN,500.0,OVC,1300.0,,,,
KRDR,01-07-2001,12:00,METAR,,350,5.0,,,9999,Cloud Development Not Observable,-9.0,-9.0,30.05,1019.8,,,,0,0,0,,,,,,,,,8/8 Overcast,500.0,,OVC,500.0,,,,,,
KRDR,01-07-2001,11:37,SPECI,,320,8.0,,,9999,Cloud Development Not Observable,-9.0,-10.0,30.06,,,,,0,0,0,,,,,,,,,8/8 Overcast,500.0,,BKN,500.0,OVC,1300.0,,,,
KRDR,01-07-2001,11:00,METAR,,340,7.0,,,9999,Cloud Development Not Observable,-10.0,-11.0,30.05,1019.8,,,,0,0,0,,,,,,,,,8/8 Overcast,1300.0,,FEW,800.0,OVC,1300.0,,,,
KRDR,01-07-2001,10:00,METAR,,340,9.0,,,9999,Cloud Development Not Observable,-10.0,-11.0,30.05,1019.7,,,,0,0,0,,,,,,,,,8/8 Overcast,1300.0,,FEW,800.0,OVC,1300.0,,,,
KRDR,01-07-2001,09:31,SPECI,,330,9.0,,,9999,Cloud Development Not Observable,-10.0,-11.0,30.05,,,,,0,0,0,,,,,,,,,8/8 Overcast,1300.0,,OVC,1300.0,,,,,,
KRDR,01-07-2001,09:00,METAR,,330,11.0,,,9999,Cloud Development Not Observable,-10.0,-11.0,30.04,1019.3,,,,0,0,0,,,,,,,,,8/8 Overcast,2000.0,,OVC,2000.0,,,,,,
KRDR,01-07-2001,08:00,METAR,,340,9.0,,,9999,Cloud Development Not Observable,-10.0,-11.0,30.01,1018.3,,,,0,0,0,,,,,,,,,8/8 Overcast,2000.0,,BKN,2000.0,OVC,3000.0,,,,
KRDR,01-07-2001,07:00,METAR,,350,12.0,,,9999,Cloud Development Not Observable,-10.0,-11.0,29.99,1017.5,,,,0,0,0,,,,,,,,,8/8 Overcast,3900.0,,OVC,4000.0,,,,,,
KRDR,01-07-2001,06:00,METAR,,360,13.0,,,9999,Cloud Development Not Observable,-9.0,-10.0,29.96,1016.4,,,,0,0,0,,,,,,,,,8/8 Overcast,6000.0,,OVC,5900.0,,,,,,
KRDR,01-07-2001,05:00,METAR,,350,13.0,,,9999,Cloud Development Not Observable,-9.0,-10.0,29.93,1015.3,,,,0,0,0,,,,,,,,,7/8 Mostly Cloudy,4900.0,,BKN,5000.0,,,,,,
KRDR,01-07-2001,04:00,METAR,,350,17.0,,,9999,Cloud Development Not Observable,-9.0,-10.0,29.91,1014.6,,,,0,0,0,,,,,,,,,7/8 Mostly Cloudy,4900.0,,BKN,5000.0,,,,,,
KRDR,01-07-2001,03:00,METAR,,350,12.0,,,9999,Cloud Development Not Observable,-9.0,-10.0,29.88,1013.5,,,,0,0,0,,,,,,,,,7/8 Mostly Cloudy,3900.0,,BKN,4000.0,,,,,,
KRDR,01-07-2001,02:00,METAR,,330,10.0,,,9999,Cloud Development Not Observable,-9.0,-10.0,29.87,1013.1,,,,0,0,0,,,,,,,,,4/8 Partly Cloudy,72000.0,,SCT,12000.0,SCT,20000.0,,,,
KRDR,01-07-2001,01:04,SPECI,,350,12.0,,,9999,Cloud Development Not Observable,-9.0,-10.0,29.84,,,,,0,0,0,,,,,,,,,4/8 Partly Cloudy,72000.0,,FEW,12000.0,SCT,20000.0,,,,
KRDR,01-07-2001,01:00,METAR,,350,12.0,,,9999,Cloud Development Not Observable,-9.0,-10.0,29.84,1012.0,,,,0,0,0,,,,,,,,,7/8 Mostly Cloudy,1200.0,,BKN,1200.0,BKN,12000.0,BKN,20000.0,,
KRDR,01-07-2001,00:00,METAR,,350,16.0,,,9999,Cloud Development Not Observable,-7.0,-8.0,29.81,1010.9,,,,0,0,0,,,,,,,,,8/8 Overcast,1100.0,,OVC,1100.0,,,,,,
KRDR,01-06-2001,23:00,METAR,,360,18.0,,,9999,Cloud Development Not Observable,-6.0,-7.0,29.77,1009.4,,,,0,0,0,,,,,,,,,8/8 Overcast,1200.0,,OVC,1200.0,,,,,,
KRDR,01-06-2001,22:00,METAR,,10,12.0,,,9999,Cloud Development Not Observable,-5.0,-6.0,29.73,1008.0,,,,0,0,0,,,,,,,,,8/8 Overcast,2000.0,,OVC,2000.0,,,,,,
KRDR,01-06-2001,21:00,METAR,,10,9.0,,,9999,Cloud Development Not Observable,-4.0,-5.0,29.68,1006.5,,,,0,0,0,,,,,,,,,8/8 Overcast,1500.0,,OVC,1500.0,,,,,,
KRDR,01-06-2001,20:00,METAR,,360,12.0,,,9999,Cloud Development Not Observable,-4.0,-5.0,29.66,1005.6,,,,0,0,0,,,,,,,,,8/8 Overcast,2800.0,,OVC,2800.0,,,,,,
KRDR,01-06-2001,19:29,SPECI,,360,12.0,,,9999,Cloud Development Not Observable,-4.0,-5.0,29.65,,,,,0,0,0,,,,,,,,,8/8 Overcast,1500.0,,BKN,1500.0,OVC,3000.0,,,,
KRDR,01-06-2001,19:00,METAR,,10,12.0,,,9999,Light Snow/Cloud Development Not Observable,-3.0,-5.0,29.64,1005.2,,,,71,0,0,,,,,,,,,8/8 Overcast,1100.0,,BKN,1100.0,OVC,1500.0,,,,
KRDR,01-06-2001,18:44,SPECI,,360,12.0,,,9999,Light Snow/Cloud Development Not Observable,-3.0,-4.0,29.63,,,,,71,0,0,,,,,,,,,8/8 Overcast,1100.0,,BKN,1100.0,OVC,1500.0,,,,
KRDR,01-06-2001,18:00,METAR,,10,12.0,,,9999,Cloud Development Not Observable,-2.0,-4.0,29.61,1004.1,,,,0,0,0,,,,,,,,,8/8 Overcast,2500.0,,BKN,2500.0,OVC,3000.0,,,,
KRDR,01-06-2001,17:00,METAR,,350,12.0,,,9999,Cloud Development Not Observable,-2.0,-4.0,29.60,1004.0,,,,0,0,0,,,,,,,,,8/8 Overcast,2000.0,,OVC,2000.0,,,,,,
KRDR,01-06-2001,16:00,METAR,,40,9.0,,,9999,Cloud Development Not Observable,-1.0,-3.0,29.57,1002.9,,,,0,0,0,,,,,,,,,8/8 Overcast,2000.0,,OVC,2000.0,,,,,,
KRDR,01-06-2001,15:00,METAR,,340,13.0,,,9999,Cloud Development Not Observable,1.0,-1.0,29.53,1001.5,,,,0,0,0,,,,,,,,,8/8 Overcast,1900.0,,OVC,1900.0,,,,,,
KRDR,01-06-2001,14:00,METAR,,330,14.0,,,9999,Cloud Development Not Observable,1.0,-1.0,29.51,1000.6,,,,0,0,0,,,,,,,,,8/8 Overcast,2000.0,,OVC,2000.0,,,,,,
KRDR,01-06-2001,13:00,METAR,,320,17.0,24.0,310/31KTS,9999,Cloud Development Not Observable,2.0,-1.0,29.47,999.6,,,,0,0,0,,,,,,,,,8/8 Overcast,2300.0,,OVC,2300.0,,,,,,
KRDR,01-06-2001,12:00,METAR,,310,28.0,33.0,,9999,Cloud Development Not Observable,3.0,-1.0,29.45,998.6,,,,0,0,0,,,,,,,,,7/8 Mostly Cloudy,2500.0,,BKN,2500.0,BKN,12000.0,,,,
KRDR,01-06-2001,11:00,METAR,,300,25.0,32.0,300/35KTS,9999,Cloud Development Not Observable,3.0,-1.0,29.43,997.9,,,,0,0,0,,,,,,,,,7/8 Mostly Cloudy,2500.0,,BKN,2500.0,BKN,12000.0,,,,
KRDR,01-06-2001,10:00,METAR,,300,24.0,31.0,310/40KTS,9999,Cloud Development Not Observable,3.0,0.0,29.40,996.9,,,,0,0,0,,,,,,,,,7/8 Mostly Cloudy,2500.0,,BKN,2500.0,BKN,12000.0,,,,
KRDR,01-06-2001,09:23,SPECI,,290,24.0,35.0,,9999,Cloud Development Not Observable,4.0,0.0,29.39,,,,,0,0,0,,,,,,,,,7/8 Mostly Cloudy,2500.0,,BKN,2500.0,BKN,12000.0,,,,
KRDR,01-06-2001,09:00,METAR,,290,22.0,30.0,290/32KTS,9999,Cloud Development Not Observable,4.0,0.0,29.37,995.8,,,,0,0,0,,,,,,,,,7/8 Mostly Cloudy,2500.0,,BKN,2500.0,BKN,12000.0,,,,
KRDR,01-06-2001,06:00,METAR,,190,22.0,,,9999,Cloud Development Not Observable,-5.0,-6.0,29.42,997.9,,,,0,0,0,,,,,,,,,7/8 Mostly Cloudy,6000.0,,BKN,5900.0,BKN,12000.0,,,,
KRDR,01-06-2001,05:00,METAR,,180,24.0,,160/32KTS,9999,Cloud Development Not Observable,-6.0,-7.0,29.47,999.8,,,,0,0,0,,,,,,,,,8/8 Overcast,6000.0,,BKN,5900.0,OVC,12000.0,,,,
KRDR,01-06-2001,04:34,SPECI,,160,26.0,32.0,,9999,Ice Pellets/Light Snow/Cloud Development Not Observable,-6.0,-7.0,29.46,,,,,71,79,0,,,,,,,,,8/8 Overcast,6000.0,,BKN,5900.0,OVC,12000.0,,,,
KRDR,01-06-2001,04:00,METAR,,160,21.0,,170/28KTS,9999,Cloud Development Not Observable,-6.0,-8.0,29.56,1002.9,,,,0,0,0,,,,,,,,,8/8 Overcast,6000.0,,BKN,5900.0,OVC,12000.0,,,,
KRDR,01-06-2001,03:00,METAR,,150,17.0,,,9999,Cloud Development Not Observable,-7.0,-9.0,29.64,1005.7,,,,0,0,0,,,,,,,,,8/8 Overcast,6000.0,,BKN,5900.0,OVC,12000.0,,,,
KRDR,01-06-2001,02:40,SPECI,,150,15.0,,,9999,Cloud Development Not Observable,-7.0,-9.0,29.62,,,,,0,0,0,,,,,,,,,8/8 Overcast,4900.0,,BKN,5000.0,OVC,12000.0,,,,
KRDR,01-06-2001,02:00,METAR,,150,11.0,,,9999,Ice Pellets/Light Snow/Cloud Development Not Observable,-8.0,-9.0,29.72,1008.3,,,,71,79,0,,,,,,,,,8/8 Overcast,4900.0,,OVC,5000.0,,,,,,
KRDR,01-06-2001,01:45,METAR,,150,12.0,,,9999,Ice Pellets/Light Snow/Cloud Development Not Observable,-8.0,-9.0,29.71,,,,,71,79,0,,,,,,,,,8/8 Overcast,4900.0,,OVC,5000.0,,,,,,
KRDR,01-06-2001,01:00,METAR,,160,16.0,,,9999,Cloud Development Not Observable,-8.0,-10.0,29.72,1008.2,,,,0,0,0,,,,,,,,,8/8 Overcast,6000.0,,BKN,5900.0,OVC,12000.0,,,,
KRDR,01-06-2001,00:00,METAR,,160,16.0,,,9999,Cloud Development Not Observable,-8.0,-10.0,29.76,1009.6,,,,0,0,0,,,,,,,,,8/8 Overcast,7000.0,,BKN,6900.0,OVC,12000.0,,,,
KRDR,01-05-2001,23:00,METAR,,150,12.0,,,9999,Cloud Development Not Observable,-8.0,-10.0,29.82,1011.5,,,,0,0,0,,,,,,,,,8/8 Overcast,8000.0,,BKN,7900.0,OVC,12000.0,,,,
KRDR,01-05-2001,22:00,METAR,,140,10.0,,,9999,Cloud Development Not Observable,-8.0,-11.0,29.87,1013.2,,,,0,0,0,,,,,,,,,8/8 Overcast,10000.0,,BKN,9900.0,OVC,20000.0,,,,
KRDR,01-05-2001,21:00,METAR,,140,5.0,,,9999,Cloud Development Not Observable,-8.0,-12.0,29.91,1014.5,,,,0,0,0,,,,,,,,,7/8 Mostly Cloudy,20000.0,,SCT,12000.0,BKN,20000.0,,,,
KRDR,01-05-2001,20:33,SPECI,,,,,,9999,Cloud Development Not Observable,-8.0,-12.0,29.93,,,,,0,0,0,,,,,,,,,7/8 Mostly Cloudy,20000.0,,SCT,12000.0,BKN,20000.0,,,,
KRDR,01-05-2001,20:00,METAR,,,,,,9999,Cloud Development Not Observable,-8.0,-12.0,29.93,1015.1,,,,0,0,0,,,,,,,,,7/8 Mostly Cloudy,20000.0,,SCT,12000.0,BKN,20000.0,,,,
KRDR,01-05-2001,19:00,METAR,,,,,,9999,Cloud Development Not Observable,-9.0,-13.0,29.96,1016.3,,,,0,0,0,,,,,,,,,7/8 Mostly Cloudy,20000.0,,FEW,12000.0,BKN,20000.0,,,,
KRDR,01-05-2001,18:00,METAR,,350,6.0,,,9999,Cloud Development Not Observable,-10.0,-13.0,29.99,1017.4,,,,0,0,0,,,,,,,,,4/8 Partly Cloudy,72000.0,,FEW,12000.0,SCT,20000.0,,,,
KRDR,01-05-2001,17:00,METAR,,350,10.0,,,9999,Cloud Development Not Observable,-10.0,-13.0,30.02,1018.3,,,,0,0,0,,,,,,,,,4/8 Partly Cloudy,72000.0,,FEW,12000.0,SCT,20000.0,,,,
KRDR,01-05-2001,16:00,METAR,,350,11.0,,,9999,Cloud Development Not Observable,-10.0,-13.0,30.01,1017.9,,,,0,0,0,,,,,,,,,4/8 Partly Cloudy,72000.0,,FEW,12000.0,SCT,20000.0,,,,
KRDR,01-05-2001,15:00,METAR,,340,14.0,,,9999,Cloud Development Not Observable,-10.0,-13.0,30.00,1017.7,,,,0,0,0,,,,,,,,,4/8 Partly Cloudy,72000.0,,FEW,2000.0,SCT,20000.0,,,,
KRDR,01-05-2001,14:00,METAR,,340,11.0,,,9999,Cloud Development Not Observable,-10.0,-12.0,29.97,1016.6,,,,0,0,0,,,,,,,,,2/8 Mostly Clear,72000.0,,FEW,2000.0,FEW,20000.0,,,,
KRDR,01-05-2001,13:00,METAR,,340,14.0,,,9999,Cloud Development Not Observable,-9.0,-11.0,29.94,1015.7,,,,0,0,0,,,,,,,,,Clear,72000.0,,,73000.0,,,,,,
KRDR,01-05-2001,12:00,METAR,,350,17.0,,,9999,Cloud Development Not Observable,-8.0,-10.0,29.91,1014.4,,,,0,0,0,,,,,,,,,2/8 Mostly Clear,72000.0,,FEW,2500.0,,,,,,
KRDR,01-05-2001,11:27,SPECI,,350,16.0,,,9999,Cloud Development Not Observable,-7.0,-10.0,29.90,,,,,0,0,0,,,,,,,,,4/8 Partly Cloudy,72000.0,,SCT,2500.0,,,,,,
KRDR,01-05-2001,11:00,METAR,,360,20.0,,,9999,Cloud Development Not Observable,-5.0,-8.0,29.88,1013.3,,,,0,0,0,,,,,,,,,7/8 Mostly Cloudy,2000.0,,BKN,2000.0,,,,,,
KRDR,01-05-2001,10:45,METAR,,350,23.0,,,9999,Cloud Development Not Observable,-5.0,-8.0,29.87,,,,,0,0,0,,,,,,,,,7/8 Mostly Cloudy,2500.0,,BKN,2500.0,,,,,,
KRDR,01-05-2001,10:00,METAR,,10,21.0,,320/29KTS,9999,Cloud Development Not Observable,-3.0,-5.0,29.85,1012.3,,,,0,0,0,,,,,,,,,4/8 Partly Cloudy,72000.0,,SCT,2500.0,SCT,9900.0,,,,
KRDR,01-05-2001,09:00,METAR,,300,23.0,30.0,300/32KTS,9999,Cloud Development Not Observable,-1.0,-5.0,29.80,1010.5,,,,0,0,0,,,,,,,,,4/8 Partly Cloudy,72000.0,,SCT,4000.0,SCT,9900.0,,,,
KRDR,01-05-2001,08:00,METAR,,290,25.0,,290/35KTS,9999,Cloud Development Not Observable,0.0,-5.0,29.76,1009.1,,,,0,0,0,,,,,,,,,Clear,72000.0,,,73000.0,,,,,,
KRDR,01-05-2001,07:00,METAR,,290,29.0,35.0,290/36KTS,9999,Cloud Development Not Observable,0.0,-5.0,29.73,1007.9,,,,0,0,0,,,,,,,,,Clear,72000.0,,,73000.0,,,,,,
KRDR,01-05-2001,06:00,METAR,,290,27.0,34.0,290/39KTS,9999,Cloud Development Not Observable,0.0,-4.0,29.71,1007.2,,,,0,0,0,,,,,,,,,Clear,72000.0,,,73000.0,,,,,,
KRDR,01-05-2001,05:00,METAR,,290,24.0,30.0,280/33KTS,9999,Cloud Development Not Observable,0.0,-4.0,29.69,1006.5,,,,0,0,0,,,,,,,,,Clear,72000.0,,,73000.0,,,,,,
KRDR,01-05-2001,04:00,METAR,,280,26.0,30.0,290/34KTS,9999,Cloud Development Not Observable,0.0,-3.0,29.68,1006.2,,,,0,0,0,,,,,,,,,Clear,72000.0,,,73000.0,,,,,,
KRDR,01-05-2001,03:00,METAR,,280,23.0,31.0,230/33KTS,9999,Cloud Development Not Observable,1.0,-3.0,29.68,1006.1,,,,0,0,0,,,,,,,,,Clear,72000.0,,,73000.0,,,,,,
KRDR,01-05-2001,02:00,METAR,,290,25.0,32.0,290/36KTS,9999,Cloud Development Not Observable,2.0,-2.0,29.67,1005.8,,,,0,0,0,,,,,,,,,Clear,72000.0,,,73000.0,,,,,,
KRDR,01-04-2001,19:00,METAR,,310,22.0,,310/28KTS,9999,Cloud Development Not Observable,4.0,-1.0,29.49,999.3,,,,0,0,0,,,,,,,,,4/8 Partly Cloudy,72000.0,,SCT,15000.0,SCT,20000.0,,,,
KRDR,01-04-2001,18:19,SPECI,,300,20.0,,,9999,Cloud Development Not Observable,4.0,-1.0,29.46,,,,,0,0,0,,,,,,,,,4/8 Partly Cloudy,72000.0,,SCT,15000.0,SCT,20000.0,,,,
KRDR,01-04-2001,18:00,METAR,,290,24.0,29.0,290/30KTS,9999,Cloud Development Not Observable,4.0,-1.0,29.44,998.1,,,,0,0,0,,,,,,,,,7/8 Mostly Cloudy,15000.0,,BKN,15000.0,BKN,20000.0,,,,
KRDR,01-04-2001,17:00,METAR,,280,24.0,33.0,270/33KTS,9999,Cloud Development Not Observable,5.0,-1.0,29.43,997.8,,,,0,0,0,,,,,,,,,7/8 Mostly Cloudy,15000.0,,BKN,15000.0,BKN,20000.0,,,,
KRDR,01-04-2001,15:00,METAR,,270,22.0,30.0,27O/31KTS,9999,Cloud Development Not Observable,5.0,-2.0,29.43,997.9,,,,0,0,0,,,,,,,,,8/8 Overcast,20000.0,,SCT,12000.0,SCT,15000.0,OVC,20000.0,,
KRDR,01-04-2001,14:00,METAR,,240,13.0,,,9999,Cloud Development Not Observable,2.0,-2.0,29.47,999.4,,,,0,0,0,,,,,,,,,8/8 Overcast,12000.0,,BKN,12000.0,BKN,15000.0,OVC,20000.0,,
KRDR,01-04-2001,13:00,METAR,,230,12.0,,,9999,Cloud Development Not Observable,0.0,-2.0,29.54,1001.8,,,,0,0,0,,,,,,,,,8/8 Overcast,10000.0,,BKN,9900.0,OVC,20000.0,,,,
KRDR,01-04-2001,12:30,METAR,,220,15.0,,,9999,Cloud Development Not Observable,-1.0,-3.0,29.55,,,,,0,0,0,,,,,,,,,8/8 Overcast,10000.0,,BKN,9900.0,OVC,20000.0,,,,
KRDR,01-04-2001,12:00,METAR,,200,17.0,,,9999,Cloud Development Not Observable,-2.0,-4.0,29.58,1003.1,,,,0,0,0,,,,,,,,,8/8 Overcast,10000.0,,OVC,9900.0,,,,,,
KRDR,01-04-2001,11:00,METAR,,190,18.0,,,9999,Cloud Development Not Observable,-3.0,-4.0,29.63,1004.7,,,,0,0,0,,,,,,,,,8/8 Overcast,9000.0,,BKN,8900.0,OVC,20000.0,,,,
KRDR,01-04-2001,10:00,METAR,,180,14.0,,,9999,Cloud Development Not Observable,-3.0,-5.0,29.69,1006.8,,,,0,0,0,,,,,,,,,8/8 Overcast,9000.0,,BKN,8900.0,OVC,20000.0,,,,
KRDR,01-04-2001,09:00,METAR,,170,13.0,,,9999,Cloud Development Not Observable,-3.0,-5.0,29.75,1008.8,,,,0,0,0,,,,,,,,,8/8 Overcast,9000.0,,BKN,8900.0,OVC,20000.0,,,,
KRDR,01-04-2001,08:00,METAR,,150,7.0,,,9999,Cloud Development Not Observable,-4.0,-5.0,29.80,1010.7,,,,0,0,0,,,,,,,,,8/8 Overcast,9000.0,,BKN,8900.0,OVC,20000.0,,,,
KRDR,01-04-2001,07:00,METAR,,170,8.0,,,9999,Cloud Development Not Observable,-5.0,-6.0,29.86,1012.8,,,,0,0,0,,,,,,,,,8/8 Overcast,9000.0,,BKN,8900.0,OVC,20000.0,,,,
KRDR,01-04-2001,06:00,METAR,,190,8.0,,,9999,Cloud Development Not Observable,-5.0,-6.0,29.88,1013.6,,,,0,0,0,,,,,,,,,8/8 Overcast,9000.0,,BKN,8900.0,OVC,20000.0,,,,
KRDR,01-04-2001,05:00,METAR,,190,5.0,,,9999,Cloud Development Not Observable,-5.0,-7.0,29.91,1014.4,,,,0,0,0,,,,,,,,,7/8 Mostly Cloudy,20000.0,,SCT,8900.0,BKN,20000.0,,,,
KRDR,01-04-2001,04:00,METAR,,180,9.0,,,9999,Cloud Development Not Observable,-6.0,-7.0,29.93,1015.1,,,,0,0,0,,,,,,,,,7/8 Mostly Cloudy,20000.0,,SCT,8900.0,BKN,20000.0,,,,
KRDR,01-03-2001,22:00,METAR,,210,3.0,,,9999,Cloud Development Not Observable,-2.0,-4.0,30.03,1018.6,,,,0,0,0,,,,,,,,,7/8 Mostly Cloudy,9000.0,,BKN,8900.0,BKN,20000.0,,,,
KRDR,01-03-2001,21:00,METAR,,250,4.0,,,9999,Cloud Development Not Observable,-2.0,-5.0,30.03,1018.6,,,,0,0,0,,,,,,,,,7/8 Mostly Cloudy,9500.0,,BKN,9400.0,,,,,,
KRDR,01-03-2001,20:00,METAR,,220,8.0,,,9999,Cloud Development Not Observable,-3.0,-5.0,30.02,1018.4,,,,0,0,0,,,,,,,,,7/8 Mostly Cloudy,9500.0,,BKN,9400.0,,,,,,
KRDR,01-03-2001,19:00,METAR,,190,8.0,,,9999,Cloud Development Not Observable,-4.0,-6.0,30.04,1019.0,,,,0,0,0,,,,,,,,,7/8 Mostly Cloudy,9000.0,,BKN,8900.0,,,,,,
KRDR,01-03-2001,18:00,METAR,,230,6.0,,,9999,Cloud Development Not Observable,-7.0,-7.0,30.08,1020.5,,,,0,0,0,,,,,,,,,7/8 Mostly Cloudy,9000.0,,BKN,8900.0,BKN,20000.0,,,,
KRDR,01-03-2001,17:00,METAR,,220,7.0,,,9999,Cloud Development Not Observable,-4.0,-4.0,30.09,1020.6,,,,0,0,0,,,,,,,,,7/8 Mostly Cloudy,20000.0,,SCT,9900.0,BKN,20000.0,,,,
KRDR,01-03-2001,16:39,SPECI,,220,8.0,,,9999,Cloud Development Not Observable,-4.0,-4.0,30.09,,,,,0,0,0,,,,,,,,,7/8 Mostly Cloudy,10000.0,,FEW,200.0,BKN,9900.0,BKN,20000.0,,
KRDR,01-03-2001,16:30,METAR,,220,9.0,,,800,Fog with Rime/Cloud Development Not Observable,-4.0,-4.0,30.09,,,,,48,0,0,,,,,,,,,7/8 Mostly Cloudy,200.0,,BKN,200.0,BKN,9900.0,,,,
KRDR,01-03-2001,16:00,METAR,,250,9.0,,,400,Fog with Rime/Cloud Development Not Observable,-4.0,-4.0,30.08,1020.4,,,,49,0,0,,,,,,,,,Sky Obscured (Unable to Estimate),0.0,100.0,,0.0,,,,,,
KRDR,01-03-2001,15:38,SPECI,,250,10.0,,,400,Fog with Rime/Cloud Development Not Observable,-4.0,-4.0,30.09,,,,,49,0,0,,,,,,,,,Sky Obscured (Unable to Estimate),0.0,100.0,,0.0,,,,,,
KRDR,01-03-2001,15:25,METAR,,250,9.0,,,800,Fog with Rime/Cloud Development Not Observable,-4.0,-4.0,30.08,,,,,48,0,0,,,,,,,,,8/8 Overcast,200.0,,OVC,200.0,,,,,,
KRDR,01-03-2001,15:15,SPECI,,240,11.0,,,800,Fog with Rime/Cloud Development Not Observable,-4.0,-4.0,30.08,,,,,48,0,0,,,,,,,,,8/8 Overcast,200.0,,OVC,200.0,,,,,,
KRDR,01-03-2001,15:00,METAR,,260,7.0,,,2400,Mist/Cloud Development Not Observable,-4.0,-4.0,30.09,1020.6,,,,10,0,0,,,,,,,,,8/8 Overcast,200.0,,OVC,200.0,,,,,,
KRDR,01-03-2001,14:39,SPECI,,250,5.0,,,2400,Mist/Cloud Development Not Observable,-4.0,-4.0,30.08,,,,,10,0,0,,,,,,,,,8/8 Overcast,200.0,,OVC,200.0,,,,,,
KRDR,01-03-2001,14:26,SPECI,,250,8.0,,,4000,Mist/Cloud Development Not Observable,-4.0,-4.0,30.09,,,,,10,0,0,,,,,,,,,8/8 Overcast,200.0,,OVC,200.0,,,,,,
KRDR,01-03-2001,14:00,METAR,,210,3.0,,,4000,Mist/Cloud Development Not Observable,-4.0,-4.0,30.07,1021.0,,,,10,0,0,,,,,,,,,8/8 Overcast,400.0,,BKN,400.0,OVC,1000.0,,,,
KRDR,01-03-2001,13:45,METAR,,210,4.0,,,4800,Mist/Cloud Development Not Observable,-5.0,-5.0,30.08,,,,,10,0,0,,,,,,,,,8/8 Overcast,400.0,,BKN,400.0,OVC,1000.0,,,,
KRDR,01-03-2001,13:00,METAR,,190,6.0,,,4800,Mist/Cloud Development Not Observable,-5.0,-5.0,30.08,1020.9,,,,10,0,0,,,,,,,,,8/8 Overcast,500.0,,BKN,500.0,OVC,1000.0,,,,
KRDR,01-03-2001,12:35,SPECI,,190,9.0,,,4800,Mist/Cloud Development Not Observable,-5.0,-5.0,30.06,,,,,10,0,0,,,,,,,,,8/8 Overcast,500.0,,BKN,500.0,OVC,1000.0,,,,
KRDR,01-03-2001,12:00,METAR,,170,6.0,,,8000,Mist/Cloud Development Not Observable,-5.0,-5.0,30.07,1020.1,,,,10,0,0,,,,,,,,,8/8 Overcast,900.0,,SCT,500.0,OVC,900.0,,,,
KRDR,01-03-2001,11:28,SPECI,,150,5.0,,,8000,Mist/Cloud Development Not Observable,-6.0,-6.0,30.07,,,,,10,0,0,,,,,,,,,8/8 Overcast,800.0,,OVC,800.0,,,,,,
KRDR,01-03-2001,11:00,METAR,,160,7.0,,,6400,Mist/Cloud Development Not Observable,-6.0,-6.0,30.07,1020.1,,,,10,0,0,,,,,,,,,8/8 Overcast,1000.0,,SCT,400.0,OVC,1000.0,,,,
KRDR,01-03-2001,10:38,SPECI,,160,5.0,,,6400,Mist/Cloud Development Not Observable,-6.0,-6.0,30.08,,,,,10,0,0,,,,,,,,,8/8 Overcast,1000.0,,SCT,400.0,OVC,1000.0,,,,
KRDR,01-03-2001,10:00,METAR,,150,5.0,,,4800,Mist/Cloud Development Not Observable,-6.0,-6.0,30.08,1020.5,,,,10,0,0,,,,,,,,,8/8 Overcast,400.0,,BKN,400.0,OVC,1100.0,,,,
KRDR,01-03-2001,09:00,METAR,,110,5.0,,,9999,Mist/Cloud Development Not Observable,-6.0,-6.0,30.09,1020.8,,,,10,0,0,,,,,,,,,8/8 Overcast,400.0,,BKN,400.0,OVC,1000.0,,,,
KRDR,01-03-2001,08:41,SPECI,,120,6.0,,,9999,Mist/Cloud Development Not Observable,-6.0,-6.0,30.08,,,,,10,0,0,,,,,,,,,8/8 Overcast,400.0,,BKN,400.0,OVC,1000.0,,,,
KRDR,01-03-2001,08:00,METAR,,90,5.0,,,9999,Cloud Development Not Observable,-6.0,-6.0,30.07,1020.2,,,,0,0,0,,,,,,,,,8/8 Overcast,600.0,,BKN,600.0,OVC,1200.0,,,,
KRDR,01-03-2001,07:33,SPECI,,200,2.0,,,9999,Cloud Development Not Observable,-6.0,-6.0,30.07,,,,,0,0,0,,,,,,,,,8/8 Overcast,600.0,,BKN,600.0,OVC,1200.0,,,,
KRDR,01-03-2001,07:00,METAR,,,,,,9999,Cloud Development Not Observable,-6.0,-7.0,30.07,1020.2,,,,0,0,0,,,,,,,,,8/8 Overcast,1100.0,,OVC,1100.0,,,,,,
KRDR,01-03-2001,06:00,METAR,,80,5.0,,,9999,Cloud Development Not Observable,-6.0,-7.0,30.08,1020.6,,,,0,0,0,,,,,,,,,8/8 Overcast,1200.0,,OVC,1200.0,,,,,,
KRDR,01-03-2001,05:36,SPECI,,70,3.0,,,9999,Cloud Development Not Observable,-6.0,-7.0,30.09,,,,,0,0,0,,,,,,,,,8/8 Overcast,1200.0,,OVC,1200.0,,,,,,
KRDR,01-03-2001,05:00,METAR,,60,4.0,,,9999,Light Snow/Cloud Development Not Observable,-6.0,-7.0,30.09,1021.0,,,,71,0,0,,,,,,,,,8/8 Overcast,1500.0,,SCT,800.0,OVC,1500.0,,,,
KRDR,01-03-2001,04:41,SPECI,,30,2.0,,,6000,Light Snow/Cloud Development Not Observable,-6.0,-7.0,,,,,,71,0,0,,,,,,,,,8/8 Overcast,1500.0,,SCT,800.0,OVC,1500.0,,,,
KRDR,01-03-2001,04:00,METAR,,310,3.0,,,9999,Cloud Development Not Observable,-6.0,-7.0,30.11,1021.9,,,,0,0,0,,,,,,,,,8/8 Overcast,1500.0,,SCT,800.0,OVC,1500.0,,,,
KRDR,01-03-2001,03:00,METAR,,170,2.0,,,9999,Cloud Development Not Observable,-6.0,-6.0,30.11,1021.9,,,,0,0,0,,,,,,,,,8/8 Overcast,1500.0,,SCT,800.0,BKN,1500.0,OVC,4500.0,,
KRDR,01-03-2001,01:00,METAR,,330,9.0,,,9999,Cloud Development Not Observable,-7.0,-8.0,30.12,1022.4,,,,0,0,0,,,,,,,,,7/8 Mostly Cloudy,1500.0,,BKN,1500.0,BKN,4500.0,,,,
KRDR,01-03-2001,00:00,METAR,,310,9.0,,,9999,Cloud Development Not Observable,-8.0,-8.0,30.12,1022.2,,,,0,0,0,,,,,,,,,7/8 Mostly Cloudy,1500.0,,BKN,1500.0,BKN,4500.0,,,,
KRDR,01-02-2001,23:00,METAR,,310,12.0,,,9999,Cloud Development Not Observable,-6.0,-8.0,30.11,,,,,0,0,0,,,,,,,,,7/8 Mostly Cloudy,2500.0,,BKN,2500.0,BKN,5000.0,,,,
KRDR,01-02-2001,22:00,METAR,,310,14.0,,,9999,Cloud Development Not Observable,-6.0,-8.0,30.11,,,,,0,0,0,,,,,,,,,8/8 Overcast,2500.0,,BKN,2500.0,OVC,5000.0,,,,
KRDR,01-02-2001,21:00,METAR,,310,13.0,,,4800,Light Snow/Cloud Development Not Observable,-7.0,-8.0,30.11,,,,,71,0,0,,,,,,,,,8/8 Overcast,2500.0,,BKN,2500.0,OVC,5000.0,,,,
KRDR,01-02-2001,20:00,METAR,,310,14.0,,,3200,Light Snow/Cloud Development Not Observable,-8.0,-9.0,30.11,,,,,71,0,0,,,,,,,,,8/8 Overcast,2500.0,,BKN,2500.0,OVC,3000.0,,,,
KRDR,01-02-2001,19:30,METAR,,290,14.0,,,1000,Light Snow/Cloud Development Not Observable,-8.0,-9.0,,,,,,71,0,0,,,,,,,,,8/8 Overcast,1500.0,,OVC,1500.0,,,,,,
KRDR,01-02-2001,19:18,SPECI,,300,12.0,,,3000,Light Snow/Cloud Development Not Observable,-8.0,-10.0,,,,,,71,0,0,,,,,,,,,8/8 Overcast,1500.0,,OVC,1500.0,,,,,,
KRDR,01-02-2001,19:00,METAR,,300,13.0,,,9999,Cloud Development Not Observable,-8.0,-10.0,30.11,,,,,0,0,0,,,,,,,,,8/8 Overcast,1500.0,,OVC,1500.0,,,,,,
KRDR,01-02-2001,17:00,METAR,,280,5.0,,,9999,Light Snow/Cloud Development Not Observable,-11.0,-12.0,30.13,,,,,71,0,0,,,,,,,,,8/8 Overcast,1500.0,,SCT,1000.0,OVC,1500.0,,,,
KRDR,01-02-2001,16:00,METAR,,140,4.0,,,9999,Cloud Development Not Observable,-14.0,-15.0,30.14,,,,,0,0,0,,,,,,,,,7/8 Mostly Cloudy,7000.0,,FEW,1000.0,SCT,2500.0,BKN,6900.0,,
KRDR,01-02-2001,15:15,SPECI,,200,9.0,,,7000,Cloud Development Not Observable,-15.0,-16.0,,,,,,0,0,0,,,,,,,,,2/8 Mostly Clear,72000.0,,FEW,2000.0,,,,,,
KRDR,01-02-2001,15:00,METAR,,200,9.0,,,9999,Cloud Development Not Observable,-15.0,-16.0,30.12,,,,,0,0,0,,,,,,,,,2/8 Mostly Clear,72000.0,,FEW,5000.0,,,,,,
KRDR,01-02-2001,14:00,METAR,,170,10.0,,,9999,Cloud Development Not Observable,-16.0,-17.0,30.14,,,,,0,0,0,,,,,,,,,Clear,72000.0,,,73000.0,,,,,,
KRDR,01-02-2001,13:00,METAR,,170,7.0,,,9999,Cloud Development Not Observable,-17.0,-18.0,30.17,,,,,0,0,0,,,,,,,,,4/8 Partly Cloudy,72000.0,,SCT,25000.0,,,,,,
KRDR,01-02-2001,12:00,METAR,,180,11.0,,,9999,Cloud Development Not Observable,-17.0,-18.0,30.16,,,,,0,0,0,,,,,,,,,2/8 Mostly Clear,72000.0,,FEW,25000.0,,,,,,
KRDR,12-30-2000,00:00,METAR,,360,14.0,,,9999,Cloud Development Not Observable,-15.0,-16.0,30.41,1032.6,,,,0,0,0,,,,,,,,,8/8 Overcast,9000.0,,OVC,8900.0,,,,,,
KRDR,12-29-2000,23:00,METAR,,360,13.0,,,9999,Cloud Development Not Observable,-14.0,-15.0,30.40,1032.3,,,,0,0,0,,,,,,,,,8/8 Overcast,9000.0,,OVC,8900.0,,,,,,
KRDR,12-29-2000,22:40,SPECI,,360,11.0,,,9999,Cloud Development Not Observable,-14.0,-15.0,30.39,,,,,0,0,0,,,,,,,,,8/8 Overcast,9000.0,,OVC,8900.0,,,,,,
KRDR,12-29-2000,22:00,METAR,,350,10.0,,,9999,Light Snow/Cloud Development Not Observable,-14.0,-15.0,30.38,1031.5,,,,71,0,0,,,,,,,,,8/8 Overcast,9000.0,,FEW,5900.0,OVC,8900.0,,,,
KRDR,12-29-2000,21:00,METAR,,360,11.0,,,9999,Light Snow/Cloud Development Not Observable,-13.0,-15.0,30.37,1031.1,,,,71,0,0,,,,,,,,,7/8 Mostly Cloudy,9000.0,,SCT,5000.0,BKN,8900.0,,,,
KRDR,12-29-2000,20:00,METAR,,350,12.0,,,9999,Light Snow/Cloud Development Not Observable,-13.0,-15.0,30.37,1031.1,,,,71,0,0,,,,,,,,,7/8 Mostly Cloudy,4900.0,,BKN,5000.0,,,,,,
KRDR,12-29-2000,18:30,METAR,,330,7.0,,,8000,Light Snow/Cloud Development Not Observable,-13.0,-15.0,30.37,,,,,71,0,0,,,,,,,,,8/8 Overcast,4900.0,,SCT,3000.0,OVC,5000.0,,,,
KRDR,12-29-2000,18:00,METAR,,350,8.0,,,4000,Light Snow/Cloud Development Not Observable,-14.0,-15.0,30.38,1031.3,,,,71,0,0,,,,,,,,,8/8 Overcast,4900.0,,FEW,500.0,SCT,3000.0,OVC,5000.0,,
KRDR,12-29-2000,17:05,SPECI,,350,8.0,,,4000,Light Snow/Cloud Development Not Observable,-14.0,-15.0,30.38,,,,,71,0,0,,,,,,,,,8/8 Overcast,3000.0,,FEW,500.0,OVC,3000.0,,,,
KRDR,12-29-2000,17:00,METAR,,340,6.0,,,4800,Light Snow/Cloud Development Not Observable,-14.0,-15.0,30.39,1031.8,,,,71,0,0,,,,,,,,,8/8 Overcast,3000.0,,FEW,1000.0,OVC,3000.0,,,,
KRDR,12-29-2000,16:07,SPECI,,350,6.0,,,6400,Light Snow/Cloud Development Not Observable,-14.0,-15.0,30.38,,,,,71,0,0,,,,,,,,,8/8 Overcast,3000.0,,OVC,3000.0,,,,,,
KRDR,12-29-2000,16:00,METAR,,330,6.0,,,6400,Light Snow/Cloud Development Not Observable,-14.0,-15.0,30.38,1031.5,,,,71,0,0,,,,,,,,,8/8 Overcast,3000.0,,OVC,3000.0,,,,,,
KRDR,12-29-2000,15:15,SPECI,,310,7.0,,,9999,Light Snow/Cloud Development Not Observable,-14.0,-15.0,30.37,,,,,71,0,0,,,,,,,,,8/8 Overcast,3000.0,,OVC,3000.0,,,,,,
KRDR,12-29-2000,15:00,METAR,,330,5.0,,,9999,Cloud Development Not Observable,-15.0,-15.0,30.36,1031.0,,,,0,0,0,,,,,,,,,8/8 Overcast,3000.0,,OVC,3000.0,,,,,,
KRDR,12-29-2000,14:00,METAR,,340,4.0,,,9999,Cloud Development Not Observable,-15.0,-16.0,30.36,1031.0,,,,0,0,0,,,,,,,,,8/8 Overcast,3000.0,,OVC,3000.0,,,,,,
KRDR,12-29-2000,13:00,METAR,,340,4.0,,,9999,Light Snow/Cloud Development Not Observable,-15.0,-16.0,30.36,1030.8,,,,71,0,0,,,,,,,,,8/8 Overcast,2500.0,,BKN,2500.0,OVC,3500.0,,,,
KRDR,12-29-2000,12:21,SPECI,,330,2.0,,,9999,Light Snow/Cloud Development Not Observable,-15.0,-16.0,30.35,,,,,71,0,0,,,,,,,,,8/8 Overcast,2500.0,,BKN,2500.0,OVC,3500.0,,,,
KRDR,12-29-2000,12:00,METAR,,,2.0,,,7000,Cloud Development Not Observable,-15.0,-16.0,30.35,1030.5,,,,0,0,0,,,,,,,,,8/8 Overcast,2500.0,,OVC,2500.0,,,,,,
KRDR,12-29-2000,11:00,METAR,,90,3.0,,,7000,Cloud Development Not Observable,-16.0,-16.0,30.35,1030.5,,,,0,0,0,,,,,,,,,7/8 Mostly Cloudy,3400.0,,BKN,3500.0,,,,,,
KRDR,12-29-2000,10:00,METAR,,60,5.0,,,7000,Cloud Development Not Observable,-14.0,-15.0,30.34,1030.1,,,,0,0,0,,,,,,,,,7/8 Mostly Cloudy,3900.0,,BKN,4000.0,,,,,,
KRDR,12-29-2000,08:00,METAR,,320,5.0,,,7000,Cloud Development Not Observable,-14.0,-14.0,30.33,1029.7,,,,0,0,0,,,,,,,,,7/8 Mostly Cloudy,3900.0,,SCT,3000.0,BKN,4000.0,,,,
KRDR,12-29-2000,07:15,SPECI,,330,3.0,,,7000,Cloud Development Not Observable,-14.0,-15.0,30.33,,,,,0,0,0,,,,,,,,,7/8 Mostly Cloudy,3900.0,,SCT,3000.0,BKN,4000.0,,,,
KRDR,12-29-2000,07:00,METAR,,340,3.0,,,7000,Light Snow/Cloud Development Not Observable,-14.0,-15.0,30.33,1029.7,,,,71,0,0,,,,,,,,,7/8 Mostly Cloudy,3900.0,,SCT,3000.0,BKN,4000.0,,,,
KRDR,12-29-2000,06:00,METAR,,300,7.0,,,7000,Light Snow/Cloud Development Not Observable,-15.0,-15.0,30.33,1029.7,,,,71,0,0,,,,,,,,,7/8 Mostly Cloudy,4400.0,,SCT,3000.0,BKN,4500.0,,,,
KRDR,12-29-2000,05:02,SPECI,,310,7.0,,,7000,Light Snow/Cloud Development Not Observable,-15.0,-16.0,30.33,,,,,71,0,0,,,,,,,,,7/8 Mostly Cloudy,3000.0,,BKN,3000.0,BKN,7900.0,,,,
KRDR,12-29-2000,05:00,METAR,,310,7.0,,,7000,Cloud Development Not Observable,-16.0,-17.0,30.33,1029.7,,,,0,0,0,,,,,,,,,7/8 Mostly Cloudy,8000.0,,SCT,3000.0,BKN,7900.0,,,,
KRDR,12-29-2000,04:00,METAR,,280,4.0,,,7000,Cloud Development Not Observable,-18.0,-18.0,30.33,1029.8,,,,0,0,0,,,,,,,,,7/8 Mostly Cloudy,8000.0,,SCT,3000.0,BKN,7900.0,,,,
KRDR,12-29-2000,03:00,METAR,,280,7.0,,,9999,Cloud Development Not Observable,-18.0,-18.0,30.35,1030.2,,,,0,0,0,,,,,,,,,7/8 Mostly Cloudy,8000.0,,BKN,7900.0,,,,,,
KRDR,12-29-2000,02:00,METAR,,310,7.0,,,9999,Cloud Development Not Observable,-17.0,-18.0,30.34,1030.2,,,,0,0,0,,,,,,,,,7/8 Mostly Cloudy,8000.0,,BKN,7900.0,,,,,,
KRDR,12-29-2000,01:00,METAR,,310,6.0,,,9999,Cloud Development Not Observable,-17.0,-17.0,30.34,1030.2,,,,0,0,0,,,,,,,,,7/8 Mostly Cloudy,6500.0,,BKN,6400.0,,,,,,
KRDR,12-29-2000,00:00,METAR,,350,8.0,,,9999,Cloud Development Not Observable,-16.0,-17.0,30.34,1030.1,,,,0,0,0,,,,,,,,,8/8 Overcast,3000.0,,SCT,1000.0,BKN,3000.0,OVC,5900.0,,
KRDR,12-28-2000,23:00,METAR,,350,10.0,,,9999,Cloud Development Not Observable,-15.0,-16.0,30.33,1029.6,,,,0,0,0,,,,,,,,,8/8 Overcast,3000.0,,SCT,1000.0,BKN,3000.0,OVC,5900.0,,
KRDR,12-28-2000,22:39,SPECI,,350,12.0,,,9999,Cloud Development Not Observable,-15.0,-16.0,30.33,,,,,0,0,0,,,,,,,,,8/8 Overcast,3000.0,,SCT,1000.0,BKN,3000.0,OVC,5900.0,,
KRDR,12-28-2000,22:18,SPECI,,350,12.0,,,3200,Light Snow/Cloud Development Not Observable,-14.0,-15.0,30.36,,,,,71,0,0,,,,,,,,,8/8 Overcast,1500.0,,SCT,1000.0,BKN,1500.0,OVC,5900.0,,
KRDR,12-28-2000,22:00,METAR,,350,14.0,,,800,Light Snow/Cloud Development Not Observable,-14.0,-15.0,30.31,1028.9,,,,71,0,0,,,,,,,,,8/8 Overcast,1500.0,,SCT,1000.0,OVC,1500.0,,,,
KRDR,12-28-2000,21:28,SPECI,,350,12.0,,,2800,Light Snow/Cloud Development Not Observable,-14.0,-15.0,30.28,,,,,71,0,0,,,,,,,,,8/8 Overcast,1500.0,,SCT,1000.0,OVC,1500.0,,,,
KRDR,12-28-2000,21:00,METAR,,350,15.0,,,4800,Light Snow/Cloud Development Not Observable,-14.0,-15.0,30.30,1028.6,,,,71,0,0,,,,,,,,,8/8 Overcast,1800.0,,OVC,1800.0,,,,,,
KRDR,12-28-2000,20:27,SPECI,,350,17.0,,,3200,Light Snow/Cloud Development Not Observable,-14.0,-15.0,30.28,,,,,71,0,0,,,,,,,,,8/8 Overcast,1000.0,,OVC,1000.0,,,,,,
KRDR,12-28-2000,20:00,METAR,,340,17.0,,,3200,Light Snow/Cloud Development Not Observable,-14.0,-15.0,30.29,1028.2,,,,71,0,0,,,,,,,,,8/8 Overcast,1000.0,,OVC,1000.0,,,,,,
KRDR,12-28-2000,19:05,SPECI,,350,17.0,,,4400,Light Snow/Cloud Development Not Observable,-14.0,-15.0,30.28,,,,,71,0,0,,,,,,,,,8/8 Overcast,1000.0,,OVC,1000.0,,,,,,
KRDR,12-28-2000,19:00,METAR,,350,16.0,,,4400,Light Snow/Cloud Development Not Observable,-14.0,-15.0,30.26,1027.2,,,,71,0,0,,,,,,,,,8/8 Overcast,1000.0,,FEW,500.0,OVC,1000.0,,,,
KRDR,12-28-2000,18:34,SPECI,,360,16.0,,,4400,Light Snow/Cloud Development Not Observable,-14.0,-15.0,30.26,,,,,71,0,0,,,,,,,,,8/8 Overcast,1000.0,,FEW,500.0,OVC,1000.0,,,,
KRDR,12-28-2000,18:07,SPECI,,360,15.0,,,2400,Light Snow/Cloud Development Not Observable,-13.0,-14.0,30.26,,,,,71,0,0,,,,,,,,,8/8 Overcast,1000.0,,SCT,500.0,OVC,1000.0,,,,
KRDR,12-28-2000,18:00,METAR,,360,13.0,,,3200,Light Snow/Cloud Development Not Observable,-13.0,-14.0,30.25,1026.9,,,,71,0,0,,,,,,,,,8/8 Overcast,1000.0,,FEW,500.0,OVC,1000.0,,,,
KRDR,12-28-2000,17:00,METAR,,20,11.0,,,4800,Light Snow/Cloud Development Not Observable,-12.0,-13.0,30.23,1026.1,,,,71,0,0,,,,,,,,,8/8 Overcast,2000.0,,BKN,2000.0,OVC,3000.0,,,,
KRDR,12-28-2000,16:22,SPECI,,40,11.0,,,4000,Light Snow/Cloud Development Not Observable,-12.0,-13.0,30.22,,,,,71,0,0,,,,,,,,,8/8 Overcast,1000.0,,SCT,500.0,BKN,1000.0,OVC,3000.0,,
KRDR,12-28-2000,16:00,METAR,,40,11.0,,,4800,Light Snow/Cloud Development Not Observable,-12.0,-13.0,30.20,1025.0,,,,71,0,0,,,,,,,,,8/8 Overcast,500.0,,BKN,500.0,BKN,1000.0,OVC,3000.0,,
KRDR,12-28-2000,15:00,METAR,,30,12.0,,,2000,Light Snow/Cloud Development Not Observable,-13.0,-13.0,,,,,,71,0,0,,,,,,,,,8/8 Overcast,500.0,,SCT,200.0,OVC,500.0,,,,
KRDR,12-28-2000,14:35,SPECI,,30,12.0,,,2000,Light Snow/Cloud Development Not Observable,-13.0,-13.0,,,,,,71,0,0,,,,,,,,,8/8 Overcast,500.0,,SCT,200.0,OVC,500.0,,,,
KRDR,12-28-2000,14:08,SPECI,,40,12.0,,,2400,Light Snow/Cloud Development Not Observable,-13.0,-13.0,30.14,,,,,71,0,0,,,,,,,,,8/8 Overcast,500.0,,SCT,200.0,OVC,500.0,,,,
KRDR,12-28-2000,14:00,METAR,,30,12.0,,,1000,Light Snow/Cloud Development Not Observable,-13.0,-13.0,,,,,,71,0,0,,,,,,,,,Sky Obscured (Unable to Estimate),0.0,100.0,,0.0,,,,,,
KRDR,12-28-2000,13:00,METAR,,50,13.0,,,1000,Light Snow/Cloud Development Not Observable,-13.0,-13.0,,,,,,71,0,0,,,,,,,,,Sky Obscured (Unable to Estimate),0.0,100.0,,0.0,,,,,,
KRDR,12-28-2000,12:32,SPECI,,60,10.0,,,1000,Light Snow/Cloud Development Not Observable,-13.0,-13.0,,,,,,71,0,0,,,,,,,,,Sky Obscured (Unable to Estimate),0.0,100.0,,0.0,,,,,,
KRDR,12-28-2000,12:00,SPECI,,,,,,1000,Cloud Development Not Observable,,,,,,,,0,0,0,,,,,,,,,,72000.0,,,,,,,,,
KRDR,12-28-2000,11:55,METAR,,80,13.0,,,1600,Light Snow/Cloud Development Not Observable,-12.0,-13.0,30.07,1020.7,,,,71,0,0,,,,,,,,,8/8 Overcast,2000.0,,OVC,2000.0,,,,,,
KRDR,12-28-2000,09:12,SPECI,,110,17.0,,,1200,Light Snow/Cloud Development Not Observable,-12.0,-13.0,30.03,,,,,71,0,0,,,,,,,,,8/8 Overcast,2000.0,,OVC,2000.0,,,,,,
KRDR,12-28-2000,09:00,METAR,,120,18.0,,,1200,Light Snow/Cloud Development Not Observable,-12.0,-13.0,30.02,1019.2,,,,71,0,0,,,,,,,,,8/8 Overcast,2000.0,,OVC,2000.0,,,,,,
KRDR,12-28-2000,08:00,METAR,,120,17.0,,,1200,Light Snow/Cloud Development Not Observable,-12.0,-13.0,30.04,1019.8,,,,71,0,0,,,,,,,,,8/8 Overcast,2000.0,,BKN,2000.0,OVC,4000.0,,,,
KRDR,12-28-2000,07:00,METAR,,130,12.0,,,4800,Light Snow/Cloud Development Not Observable,-12.0,-13.0,30.07,1020.7,,,,71,0,0,,,,,,,,,8/8 Overcast,2000.0,,BKN,2000.0,OVC,5900.0,,,,
KRDR,12-28-2000,06:00,METAR,,140,15.0,,,6400,Light Snow/Cloud Development Not Observable,-11.0,-13.0,30.07,1020.6,,,,71,0,0,,,,,,,,,8/8 Overcast,2000.0,,BKN,2000.0,OVC,5900.0,,,,
KRDR,12-28-2000,05:36,SPECI,,140,13.0,,,9999,Light Snow/Cloud Development Not Observable,-11.0,-13.0,30.08,,,,,71,0,0,,,,,,,,,8/8 Overcast,2000.0,,BKN,2000.0,OVC,7900.0,,,,
KRDR,12-28-2000,05:00,METAR,,120,12.0,,,9999,Cloud Development Not Observable,-12.0,-13.0,30.08,1020.9,,,,0,0,0,,,,,,,,,8/8 Overcast,7000.0,,SCT,2000.0,BKN,6900.0,OVC,12000.0,,
KRDR,12-28-2000,04:00,METAR,,130,12.0,,,9999,Cloud Development Not Observable,-13.0,-14.0,30.11,1022.0,,,,0,0,0,,,,,,,,,8/8 Overcast,7000.0,,SCT,2000.0,BKN,6900.0,OVC,20000.0,,
KRDR,12-28-2000,03:00,METAR,,120,11.0,,,9999,Cloud Development Not Observable,-14.0,-16.0,30.13,1022.8,,,,0,0,0,,,,,,,,,8/8 Overcast,20000.0,,FEW,2000.0,SCT,6900.0,OVC,20000.0,,
KRDR,12-28-2000,02:00,METAR,,100,8.0,,,9999,Cloud Development Not Observable,-14.0,-16.0,30.15,1023.5,,,,0,0,0,,,,,,,,,8/8 Overcast,20000.0,,FEW,2000.0,SCT,6900.0,OVC,20000.0,,
KRDR,12-28-2000,01:00,METAR,,70,4.0,,,9999,Cloud Development Not Observable,-15.0,-16.0,30.19,1024.9,,,,0,0,0,,,,,,,,,8/8 Overcast,18000.0,,SCT,6900.0,OVC,18000.0,,,,
KRDR,12-28-2000,00:00,METAR,,90,6.0,,,9999,Cloud Development Not Observable,-15.0,-16.0,30.19,1024.9,,,,0,0,0,,,,,,,,,8/8 Overcast,18000.0,,SCT,6900.0,OVC,18000.0,,,,
KRDR,12-27-2000,23:00,METAR,,100,9.0,,,9999,Cloud Development Not Observable,-15.0,-16.0,30.21,,,,,0,0,0,,,,,,,,,8/8 Overcast,18000.0,,SCT,6900.0,OVC,18000.0,,,,
KRDR,12-27-2000,22:00,METAR,,90,7.0,,,9999,Cloud Development Not Observable,-14.0,-16.0,30.23,,,,,0,0,0,,,,,,,,,7/8 Mostly Cloudy,18000.0,,SCT,6900.0,BKN,18000.0,,,,
KRDR,12-27-2000,21:00,METAR,,80,8.0,,,9999,Cloud Development Not Observable,-14.0,-16.0,30.24,,,,,0,0,0,,,,,,,,,7/8 Mostly Cloudy,18000.0,,SCT,6900.0,BKN,18000.0,,,,
KRDR,12-27-2000,20:00,METAR,,60,5.0,,,9999,Cloud Development Not Observable,-14.0,-16.0,30.25,,,,,0,0,0,,,,,,,,,7/8 Mostly Cloudy,18000.0,,FEW,6900.0,BKN,18000.0,,,,
KRDR,12-27-2000,19:00,METAR,,70,6.0,,,9999,Cloud Development Not Observable,-14.0,-16.0,30.27,,,,,0,0,0,,,,,,,,,7/8 Mostly Cloudy,18000.0,,SCT,15000.0,BKN,18000.0,,,,
KRDR,12-27-2000,17:00,METAR,,80,7.0,,,9999,Cloud Development Not Observable,-15.0,-17.0,30.30,,,,,0,0,0,,,,,,,,,8/8 Overcast,18000.0,,FEW,2000.0,SCT,5000.0,OVC,18000.0,,
KRDR,12-27-2000,16:00,METAR,,70,8.0,,,9999,Cloud Development Not Observable,-16.0,-18.0,30.29,,,,,0,0,0,,,,,,,,,8/8 Overcast,4900.0,,FEW,2000.0,BKN,5000.0,BKN,6900.0,OVC,18000.0
KRDR,12-27-2000,15:00,METAR,,60,9.0,,,7000,Cloud Development Not Observable,-16.0,-18.0,,,,,,0,0,0,,,,,,,,,8/8 Overcast,4900.0,,FEW,2000.0,BKN,5000.0,BKN,6900.0,OVC,18000.0
KRDR,12-27-2000,14:00,METAR,,70,7.0,,,9999,Cloud Development Not Observable,-16.0,-17.0,30.28,,,,,0,0,0,,,,,,,,,7/8 Mostly Cloudy,4900.0,,FEW,2000.0,BKN,5000.0,BKN,6900.0,,
KRDR,12-27-2000,13:00,METAR,,80,7.0,,,9999,Cloud Development Not Observable,-15.0,-16.0,30.29,,,,,0,0,0,,,,,,,,,7/8 Mostly Cloudy,5500.0,,FEW,2000.0,BKN,5400.0,,,,
KRDR,12-27-2000,12:00,METAR,,80,9.0,,,9999,Cloud Development Not Observable,-15.0,-16.0,30.28,,,,,0,0,0,,,,,,,,,7/8 Mostly Cloudy,5500.0,,BKN,5400.0,,,,,,
