Platform Id,Date,Time (UTC),Report Type,Wind Condition,Wind Direction,Wind Speed (Knots),Wind Gust Speed,Peak Wind (Knots),Visibility (M),Weather,Air Temp (C),Dew Point (C),Altimeter (inHg),SLP (Millibars),Present Automated 1,Present Automated 2,Present Automated 3,Present Manual 1,Present Manual 2,Present Manual 3,Present Manual 4,Present Manual 5,Present Manual 6,Present Manual 7,Precip Hr1,Precip Hr3,Precip Hr6,Precip Hr24,Cloud Cover,Cloud Ceiling (Feet),Lowest Cloud Base Height (Feet),Cloud Cover1,Cloudbase 1,Cloud Cover2,Cloudbase 2,Cloud Cover3,Cloudbase 3,Cloud Cover4,Cloudbase 4
KRDR,10-19-2017,23:56,METAR,Normal,180,11,,,9999.0,,16.7,4.1,29.71,1007.0,,,,,,,,,,,,,,,Clear,72000.0,,,,,,,,,
KRDR,10-19-2017,22:56,METAR,Normal,180,9,,,9999.0,,19.7,3.8,29.72,1007.2,,,,,,,,,,,,,,,Clear,72000.0,,,,,,,,,
KRDR,10-19-2017,21:56,METAR,Normal,190,12,,,9999.0,,21.7,3.4,29.72,1007.2,,,,,,,,,,,,,,,Clear,72000.0,,,,,,,,,
KRDR,10-19-2017,20:56,METAR,Normal,180,10,,,9999.0,,21.7,2.9,29.73,1007.5,,,,,,,,,,,,,,,Clear,72000.0,,,,,,,,,
KRDR,10-19-2017,19:56,METAR,Normal,180,11,,,9999.0,,20.6,2.4,29.74,1007.8,,,,,,,,,,,,,,,Clear,72000.0,,,,,,,,,
KRDR,10-19-2017,18:56,METAR,Normal,190,11,,,9999.0,,18.4,2.2,29.77,1008.9,,,,,,,,,,,,,,,,,24000.0,FEW,24000.0,,,,,,
KRDR,10-19-2017,17:56,METAR,Normal,190,12,,,9999.0,,16.3,1.2,29.78,1009.2,,,,,,,,,,,,,,,,,18000.0,FEW,18000.0,,,,,,
KRDR,10-19-2017,16:56,METAR,Normal,180,12,,,9999.0,,14.2,0.1,29.80,1010.0,,,,,,,,,,,,,,,Clear,72000.0,,,,,,,,,
KRDR,10-19-2017,15:56,METAR,Normal,180,13,,,9999.0,,11.9,-1.6,29.81,1010.3,,,,,,,,,,,,,,,Clear,72000.0,,,,,,,,,
KRDR,10-19-2017,14:56,METAR,Normal,170,9,,,9999.0,,7.8,-1.7,29.83,1011.1,,,,,,,,,,,,,,,Clear,72000.0,,,,,,,,,
KRDR,10-19-2017,13:56,METAR,Normal,170,7,,,9999.0,,4.1,-2.7,29.84,1011.6,,,,,,,,,,,,,,,Clear,72000.0,,,,,,,,,
KRDR,10-19-2017,12:56,METAR,Normal,190,8,,,9999.0,,1.7,-3.2,29.85,1011.9,,,,,,,,,,,,,,,Clear,72000.0,,,,,,,,,
KRDR,10-19-2017,11:56,METAR,Normal,190,6,,,9999.0,,0.3,-3.8,29.86,1012.3,,,,,,,,,,,,,,,Clear,72000.0,,,,,,,,,
KRDR,10-19-2017,10:56,METAR,Normal,190,5,,,9999.0,,1.1,-3.8,29.87,1012.6,,,,,,,,,,,,,,,Clear,72000.0,,,,,,,,,
KRDR,10-19-2017,09:56,METAR,Normal,210,4,,,9999.0,,2.8,-4.0,29.89,1013.2,,,,,,,,,,,,,,,Clear,72000.0,,,,,,,,,
KRDR,10-19-2017,08:56,METAR,Normal,220,7,,,9999.0,,2.5,-4.0,29.90,1013.5,,,,,,,,,,,,,,,Clear,72000.0,,,,,,,,,
KRDR,10-19-2017,07:56,METAR,Normal,230,8,,,9999.0,,3.8,-4.2,29.90,1013.4,,,,,,,,,,,,,,,Clear,72000.0,,,,,,,,,
KRDR,10-19-2017,06:56,METAR,Normal,240,7,,,9999.0,,5.8,-4.7,29.91,1013.7,,,,,,,,,,,,,,,Clear,72000.0,,,,,,,,,
KRDR,10-19-2017,05:56,METAR,Normal,250,10,,,9999.0,,7.8,-5.0,29.89,1013.0,,,,,,,,,,,,,,,Clear,72000.0,,,,,,,,,
KRDR,10-19-2017,04:56,METAR,Normal,260,10,,,9999.0,,8.5,-4.7,29.88,1012.6,,,,,,,,,,,,,,,Clear,72000.0,,,,,,,,,
KRDR,10-19-2017,03:56,METAR,Normal,270,13,20.0,,9999.0,,10.1,-5.1,29.88,1012.7,,,,,,,,,,,,,,,Clear,72000.0,,,,,,,,,
KRDR,10-19-2017,02:56,METAR,Normal,270,16,22.0,,9999.0,,9.9,-6.0,29.87,1012.3,,,,,,,,,,,,,,,Clear,72000.0,,,,,,,,,
KRDR,10-19-2017,01:56,METAR,Normal,260,14,20.0,,9999.0,,9.6,-7.1,29.88,1012.7,,,,,,,,,,,,,,,Clear,72000.0,,,,,,,,,
KRDR,10-19-2017,00:56,METAR,Normal,260,11,,,9999.0,,11.0,-7.3,29.87,1012.2,,,,,,,,,,,,,,,Clear,72000.0,,,,,,,,,
KRDR,10-18-2017,23:56,METAR,Normal,260,13,20.0,,9999.0,,12.3,-8.3,29.86,1011.8,,,,,,,,,,,,,,,Clear,72000.0,,,,,,,,,
KRDR,10-18-2017,22:56,METAR,Normal,280,15,26.0,270/32KTS,9999.0,,14.0,-9.3,29.85,1011.4,,,,,,,,,,,,,,,Clear,72000.0,,,,,,,,,
KRDR,10-18-2017,21:56,METAR,Normal,290,18,32.0,280/35KTS,9999.0,,15.1,-10.6,29.83,1010.7,,,,,,,,,,,,,,,Clear,72000.0,,,,,,,,,
KRDR,10-18-2017,20:56,METAR,Normal,290,23,27.0,280/33KTS,9999.0,,15.5,-11.1,29.81,1010.0,,,,,,,,,,,,,,,Clear,72000.0,,,,,,,,,
KRDR,10-18-2017,19:56,METAR,Normal,290,25,30.0,260/36KTS,9999.0,,15.7,-10.1,29.80,1009.6,,,,,,,,,,,,,,,Clear,72000.0,,,,,,,,,
KRDR,10-18-2017,18:56,METAR,Normal,270,24,31.0,290/33KTS,9999.0,,15.8,-10.0,29.79,1009.3,,,,,,,,,,,,,,,Clear,72000.0,,,,,,,,,
KRDR,10-18-2017,17:56,METAR,Normal,290,21,31.0,290/36KTS,9999.0,,15.0,-7.8,29.80,1009.6,,,,,,,,,,,,,,,Clear,72000.0,,,,,,,,,
KRDR,10-18-2017,16:56,METAR,Normal,290,24,31.0,290/33KTS,9999.0,,14.6,-6.9,29.78,1009.0,,,,,,,,,,,,,,,Clear,72000.0,,,,,,,,,
KRDR,10-18-2017,15:56,METAR,Normal,280,17,22.0,,9999.0,,12.3,-3.1,29.77,1008.7,,,,,,,,,,,,,,,2/8 Mostly Clear,72000.0,19000.0,FEW,19000.0,,,,,,
KRDR,10-18-2017,14:56,METAR,Normal,290,14,22.0,300/32KTS,9999.0,,11.7,-0.5,29.75,1008.2,,,,,,,,,,,,,,,4/8 Partly Cloudy,72000.0,18000.0,SCT,18000.0,,,,,,
KRDR,10-18-2017,13:56,METAR,Normal,300,20,33.0,310/35KTS,9999.0,,12.9,1.2,29.70,1006.4,,,,,,,,,,,,,,,2/8 Mostly Clear,72000.0,20000.0,FEW,20000.0,,,,,,
KRDR,10-18-2017,12:56,METAR,Normal,280,12,,,9999.0,,14.7,0.2,29.64,1004.2,,,,,,,,,,,,,,,Clear,72000.0,,,,,,,,,
KRDR,10-18-2017,11:56,METAR,Normal,280,9,,,9999.0,,15.4,-0.4,29.59,1002.4,,,,,,,,,,,,,,,Clear,72000.0,,,,,,,,,
KRDR,10-18-2017,10:56,METAR,Normal,280,12,,,9999.0,,16.4,0.1,29.57,1001.6,,,,,,,,,,,,,,,Clear,72000.0,,,,,,,,,
KRDR,10-18-2017,09:56,METAR,Normal,250,12,,,9999.0,,15.5,1.2,29.54,1000.5,,,,,,,,,,,,,,,Clear,72000.0,,,,,,,,,
KRDR,10-18-2017,08:56,METAR,Normal,220,13,,,9999.0,,14.8,3.0,29.49,998.8,,,,,,,,,,,,,,,Clear,72000.0,,,,,,,,,
KRDR,10-18-2017,07:56,METAR,Normal,230,11,,,9999.0,,16.0,2.0,29.53,1000.1,,,,,,,,,,,,,,,Clear,72000.0,,,,,,,,,
KRDR,10-18-2017,06:56,METAR,Normal,230,10,,,9999.0,,15.8,1.1,29.56,1001.2,,,,,,,,,,,,,,,Clear,72000.0,,,,,,,,,
KRDR,10-18-2017,05:56,METAR,Normal,230,11,,,9999.0,,16.5,0.6,29.56,1001.3,,,,,,,,,,,,,,,Clear,72000.0,,,,,,,,,
KRDR,10-18-2017,04:56,METAR,Normal,230,12,18.0,,9999.0,,16.3,0.8,29.58,1002.1,,,,,,,,,,,,,,,Clear,72000.0,,,,,,,,,
KRDR,10-18-2017,03:56,METAR,Normal,220,10,,,9999.0,,15.1,0.9,29.59,1002.5,,,,,,,,,,,,,,,Clear,72000.0,,,,,,,,,
KRDR,10-18-2017,02:56,METAR,Normal,190,6,,,9999.0,,12.8,1.2,29.60,,,,,,,,,,,,,,,,Clear,72000.0,,,,,,,,,
KRDR,10-18-2017,01:56,METAR,Normal,180,9,,,9999.0,,13.5,0.5,29.62,1003.8,,,,,,,,,,,,,,,Clear,72000.0,,,,,,,,,
KRDR,10-18-2017,00:56,METAR,Normal,200,10,,,9999.0,,17.8,-1.0,29.64,1004.5,,,,,,,,,,,,,,,Clear,72000.0,,,,,,,,,
KRDR,10-17-2017,23:56,METAR,Normal,230,8,,,9999.0,,19.1,-0.9,29.66,1005.1,,,,,,,,,,,,,,,Clear,72000.0,,,,,,,,,
KRDR,10-17-2017,22:56,METAR,Normal,240,8,,,9999.0,,22.6,-0.8,29.68,1005.7,,,,,,,,,,,,,,,Clear,72000.0,,,,,,,,,
KRDR,10-17-2017,21:56,METAR,Normal,240,14,,260/27KTS,9999.0,,24.9,-1.1,29.68,1005.7,,,,,,,,,,,,,,,Clear,72000.0,,,,,,,,,
KRDR,10-17-2017,20:56,METAR,Normal,230,18,24.0,,9999.0,,25.9,-1.9,29.70,1006.4,,,,,,,,,,,,,,,Clear,72000.0,,,,,,,,,
KRDR,10-17-2017,19:56,METAR,Normal,220,14,,,9999.0,,25.3,0.7,29.72,1007.0,,,,,,,,,,,,,,,Clear,72000.0,,,,,,,,,
KRDR,10-17-2017,18:56,METAR,Normal,200,15,,,9999.0,,22.9,1.8,29.75,,,,,,,,,,,,,,,,Clear,72000.0,,,,,,,,,
KRDR,10-17-2017,17:56,METAR,Normal,220,17,,,9999.0,,21.7,1.9,29.79,,,,,,,,,,,,,,,,Clear,72000.0,,,,,,,,,
KRDR,10-17-2017,16:56,METAR,Normal,210,15,,,9999.0,,18.8,2.6,29.81,,,,,,,,,,,,,,,,Clear,72000.0,,,,,,,,,
KRDR,10-17-2017,15:56,METAR,Normal,210,15,,,9999.0,,17.1,1.9,29.83,,,,,,,,,,,,,,,,Clear,72000.0,,,,,,,,,
KRDR,10-17-2017,14:56,METAR,Normal,180,9,,,9999.0,,12.0,2.7,29.86,1011.9,,,,,,,,,,,,,,,Clear,72000.0,,,,,,,,,
KRDR,10-17-2017,11:56,METAR,Normal,230,6,,,9999.0,,4.8,1.1,29.88,1012.7,,,,,,,,,,,,,,,Clear,72000.0,,,,,,,,,
KRDR,10-17-2017,10:56,METAR,Normal,240,4,,,9999.0,,4.1,0.8,29.89,1013.0,,,,,,,,,,,,,,,Clear,72000.0,,,,,,,,,
KRDR,10-17-2017,09:56,METAR,Normal,240,4,,,9999.0,,2.9,0.3,29.88,1012.6,,,,,,,,,,,,,,,Clear,72000.0,,,,,,,,,
KRDR,10-17-2017,08:56,METAR,Normal,230,4,,,9999.0,,2.7,0.1,29.88,1012.6,,,,,,,,,,,,,,,Clear,72000.0,,,,,,,,,
KRDR,10-17-2017,06:56,METAR,Normal,270,5,,,9999.0,,3.7,0.6,29.90,1013.3,,,,,,,,,,,,,,,Clear,72000.0,,,,,,,,,
KRDR,10-17-2017,05:56,METAR,Normal,240,4,,,9999.0,,4.9,0.7,29.89,1013.0,,,,,,,,,,,,,,,Clear,72000.0,,,,,,,,,
KRDR,10-17-2017,04:56,METAR,Normal,260,4,,,9999.0,,8.1,1.3,29.89,1012.9,,,,,,,,,,,,,,,Clear,72000.0,,,,,,,,,
KRDR,10-17-2017,03:56,METAR,Normal,290,5,,,9999.0,,9.5,1.6,29.89,1013.0,,,,,,,,,,,,,,,Clear,72000.0,,,,,,,,,
KRDR,10-17-2017,02:56,METAR,Normal,280,7,,,9999.0,,11.0,1.8,29.87,1012.4,,,,,,,,,,,,,,,Clear,72000.0,,,,,,,,,
KRDR,10-17-2017,01:56,METAR,Normal,290,7,,,9999.0,,12.7,1.7,29.87,1012.4,,,,,,,,,,,,,,,Clear,72000.0,,,,,,,,,
KRDR,10-17-2017,00:56,METAR,Normal,270,7,,,9999.0,,12.0,1.6,29.87,1012.5,,,,,,,,,,,,,,,Clear,72000.0,,,,,,,,,
KRDR,10-16-2017,23:56,METAR,Normal,280,7,,,9999.0,,14.4,2.0,29.85,1011.9,,,,,,,,,,,,,,,Clear,72000.0,,,,,,,,,
KRDR,10-16-2017,22:56,METAR,Normal,280,8,,,9999.0,,17.6,1.9,29.84,1011.4,,,,,,,,,,,,,,,Clear,72000.0,,,,,,,,,
KRDR,10-16-2017,21:56,METAR,Normal,290,15,,,9999.0,,20.7,1.0,29.83,1011.0,,,,,,,,,,,,,,,Clear,72000.0,,,,,,,,,
KRDR,10-16-2017,20:56,METAR,Normal,280,12,22.0,,9999.0,,21.0,1.3,29.82,1010.6,,,,,,,,,,,,,,,Clear,72000.0,,,,,,,,,
KRDR,10-16-2017,19:56,METAR,Normal,270,15,21.0,,9999.0,,21.0,1.8,29.82,1010.6,,,,,,,,,,,,,,,Clear,72000.0,,,,,,,,,
KRDR,10-16-2017,18:56,METAR,Normal,260,11,,,9999.0,,,,29.84,,,,,,,,,,,,,,,,,,,,,,,,,,
KRDR,10-16-2017,17:56,METAR,Normal,240,19,25.0,230/26KTS,9999.0,,19.4,1.4,29.85,1011.7,,,,,,,,,,,,,,,2/8 Mostly Clear,72000.0,20000.0,FEW,20000.0,,,,,,
KRDR,10-16-2017,16:56,METAR,Normal,240,20,24.0,260/26KTS,9999.0,,17.2,0.8,29.88,1012.8,,,,,,,,,,,,,,,Clear,72000.0,,,,,,,,,
KRDR,10-16-2017,15:56,METAR,Normal,200,15,,,9999.0,,13.4,0.7,29.90,1013.6,,,,,,,,,,,,,,,Clear,72000.0,,,,,,,,,
KRDR,10-16-2017,14:56,METAR,Normal,190,12,,,9999.0,,8.7,0.4,29.93,1014.8,,,,,,,,,,,,,,,Clear,72000.0,,,,,,,,,
KRDR,10-16-2017,13:56,METAR,Normal,190,10,,,9999.0,,6.3,-0.7,29.97,1016.2,,,,,,,,,,,,,,,Clear,72000.0,,,,,,,,,
KRDR,10-16-2017,12:56,METAR,Normal,200,11,,,9999.0,,4.0,-1.2,30.00,1017.2,,,,,,,,,,,,,,,Clear,72000.0,,,,,,,,,
KRDR,10-16-2017,11:56,METAR,Normal,220,7,,,9999.0,,1.9,-1.5,30.03,1018.2,,,,,,,,,,,,,,,Clear,72000.0,,,,,,,,,
KRDR,10-16-2017,10:56,METAR,Normal,220,7,,,9999.0,,1.6,-1.7,30.05,1018.8,,,,,,,,,,,,,,,Clear,72000.0,,,,,,,,,
KRDR,10-16-2017,09:56,METAR,Normal,220,7,,,9999.0,,1.3,-1.9,30.07,1019.5,,,,,,,,,,,,,,,Clear,72000.0,,,,,,,,,
KRDR,10-16-2017,08:56,METAR,Normal,220,6,,,9999.0,,1.1,-1.8,30.09,1020.2,,,,,,,,,,,,,,,Clear,72000.0,,,,,,,,,
KRDR,10-16-2017,07:56,METAR,Normal,240,5,,,9999.0,,1.1,-1.8,30.10,1020.5,,,,,,,,,,,,,,,Clear,72000.0,,,,,,,,,
KRDR,10-16-2017,06:56,METAR,Normal,240,6,,,9999.0,,1.3,-1.4,30.11,1020.9,,,,,,,,,,,,,,,Clear,72000.0,,,,,,,,,
KRDR,10-16-2017,05:56,METAR,Normal,240,6,,,9999.0,,1.3,-1.3,30.12,1021.2,,,,,,,,,,,,,,,Clear,72000.0,,,,,,,,,
KRDR,10-16-2017,04:56,METAR,Normal,250,6,,,9999.0,,0.5,-1.7,30.13,1021.6,,,,,,,,,,,,,,,Clear,72000.0,,,,,,,,,
KRDR,10-16-2017,03:56,METAR,Normal,240,7,,,9999.0,,0.1,-2.0,30.14,1022.1,,,,,,,,,,,,,,,Clear,72000.0,,,,,,,,,
KRDR,10-16-2017,02:56,METAR,Normal,260,6,,,9999.0,,1.5,-1.2,30.14,1022.1,,,,,,,,,,,,,,,Clear,72000.0,,,,,,,,,
KRDR,10-16-2017,01:56,METAR,Normal,280,6,,,9999.0,,1.8,-1.1,30.13,1021.9,,,,,,,,,,,,,,,Clear,72000.0,,,,,,,,,
KRDR,10-16-2017,00:56,METAR,Normal,230,5,,,9999.0,,5.3,0.3,30.12,1021.5,,,,,,,,,,,,,,,,6500.0,6500.0,BKN,6500.0,,,,,,
KRDR,10-15-2017,23:56,METAR,Normal,310,3,,,9999.0,,8.5,0.9,30.11,1021.0,,,,,,,,,,,,,,,,7000.0,7000.0,BKN,7000.0,,,,,,
KRDR,10-15-2017,22:56,METAR,Normal,300,8,,,9999.0,,10.5,1.1,30.10,1020.7,,,,,,,,,,,,,,,,8000.0,8000.0,OVC,8000.0,,,,,,
KRDR,10-15-2017,21:56,METAR,Normal,310,13,17.0,,9999.0,,11.6,0.7,30.09,1020.3,,,,,,,,,,,,,,,,9500.0,6000.0,FEW,6000.0,OVC,9600.0,,,,
KRDR,10-15-2017,20:56,METAR,Normal,300,12,,,9999.0,,10.8,0.5,30.08,1020.1,,,,,,,,,,,,,,,,6500.0,6500.0,BKN,6500.0,OVC,9100.0,,,,
KRDR,10-15-2017,19:56,METAR,Normal,310,13,,,9999.0,,11.1,-0.1,30.06,1019.4,,,,,,,,,,,,,,,,10000.0,8000.0,SCT,8000.0,BKN,10000.0,,,,
KRDR,10-15-2017,18:56,METAR,Normal,310,11,20.0,,9999.0,,11.6,-1.2,30.06,1019.3,,,,,,,,,,,,,,,,7000.0,7000.0,BKN,7000.0,,,,,,
KRDR,10-15-2017,17:56,METAR,Normal,300,11,,,9999.0,,11.2,0.6,30.06,1019.3,,,,,,,,,,,,,,,,9000.0,8000.0,SCT,8000.0,BKN,9100.0,,,,
KRDR,10-15-2017,16:56,METAR,Normal,250,11,,,9999.0,,10.6,0.9,30.06,1019.2,,,,,,,,,,,,,,,4/8 Partly Cloudy,72000.0,9000.0,SCT,9100.0,,,,,,
KRDR,10-15-2017,15:56,METAR,Normal,260,10,,,9999.0,,5.5,0.7,30.06,1019.4,,,,,,,,,,,,,,,,9000.0,4900.0,FEW,4900.0,FEW,6000.0,BKN,9100.0,,
KRDR,10-15-2017,14:56,METAR,Normal,230,8,,,9999.0,,4.1,1.1,30.07,1019.7,,,,,,,,,,,,,,,,7500.0,4600.0,FEW,4600.0,BKN,7500.0,,,,
KRDR,10-15-2017,13:56,METAR,Normal,170,6,,,9999.0,,0.6,-1.2,30.08,1020.1,,,,,,,,,,,,,,,,9000.0,7000.0,SCT,7000.0,BKN,9100.0,,,,
KRDR,10-15-2017,12:56,METAR,Normal,180,8,,,9999.0,,-1.9,-3.3,30.08,1020.1,,,,,,,,,,,,,,,Clear,72000.0,,,,,,,,,
KRDR,10-15-2017,11:56,METAR,Normal,210,7,,,9999.0,,-2.0,-3.3,30.10,1020.8,,,,,,,,,,,,,,,Clear,72000.0,,,,,,,,,
KRDR,10-15-2017,10:56,METAR,Normal,210,5,,,9999.0,,-3.0,-4.3,30.11,1021.2,,,,,,,,,,,,,,,Clear,72000.0,,,,,,,,,
KRDR,10-15-2017,09:56,METAR,Normal,230,6,,,9999.0,,-4.6,-5.9,30.11,1021.2,,,,,,,,,,,,,,,Clear,72000.0,,,,,,,,,
KRDR,10-15-2017,08:56,METAR,Normal,200,3,,,9999.0,,-4.2,-5.3,30.12,1021.5,,,,,,,,,,,,,,,Clear,72000.0,,,,,,,,,
KRDR,10-15-2017,07:56,METAR,Normal,240,5,,,9999.0,,-4.4,-5.5,30.13,1021.8,,,,,,,,,,,,,,,Clear,72000.0,,,,,,,,,
KRDR,10-15-2017,06:56,METAR,Normal,280,4,,,9999.0,,-3.4,-4.5,30.13,1021.8,,,,,,,,,,,,,,,Clear,72000.0,,,,,,,,,
KRDR,10-15-2017,05:56,METAR,Normal,290,6,,,9999.0,,-3.0,-4.4,30.14,1022.2,,,,,,,,,,,,,,,Clear,72000.0,,,,,,,,,
KRDR,10-15-2017,04:56,METAR,Normal,300,4,,,9999.0,,-1.8,-3.2,30.15,1022.5,,,,,,,,,,,,,,,Clear,72000.0,,,,,,,,,
KRDR,10-15-2017,03:56,METAR,Normal,310,7,,,9999.0,,0.2,-2.2,30.15,1022.5,,,,,,,,,,,,,,,Clear,72000.0,,,,,,,,,
KRDR,10-15-2017,02:56,METAR,Normal,340,7,,,9999.0,,1.8,-1.5,30.14,1022.2,,,,,,,,,,,,,,,Clear,72000.0,,,,,,,,,
KRDR,10-15-2017,01:56,METAR,Normal,340,10,,,9999.0,,4.0,-1.2,30.13,1021.9,,,,,,,,,,,,,,,Clear,72000.0,,,,,,,,,
KRDR,10-15-2017,00:56,METAR,Normal,10,10,,,9999.0,,5.1,-0.7,30.11,1021.2,,,,,,,,,,,,,,,2/8 Mostly Clear,72000.0,6000.0,FEW,6000.0,,,,,,
KRDR,10-14-2017,23:56,METAR,Normal,10,11,,,9999.0,,5.8,-0.5,30.08,1020.1,,,,,,,,,,,,,,,4/8 Partly Cloudy,72000.0,7000.0,FEW,7000.0,SCT,9600.0,,,,
KRDR,10-14-2017,22:56,METAR,Normal,360,12,,,9999.0,,6.8,-0.2,30.08,1020.1,,,,,,,,,,,,,,,Clear,72000.0,,,,,,,,,
KRDR,10-14-2017,21:56,METAR,Normal,360,9,,,9999.0,,7.7,0.2,30.08,1020.1,,,,,,,,,,,,,,,2/8 Mostly Clear,72000.0,15000.0,FEW,15000.0,,,,,,
KRDR,10-14-2017,20:56,METAR,Normal,10,8,,,9999.0,,7.5,0.7,30.07,1019.7,,,,,,,,,,,,,,,4/8 Partly Cloudy,72000.0,9000.0,SCT,9100.0,,,,,,
KRDR,10-14-2017,19:56,METAR,Normal,10,9,,,9999.0,,7.6,-0.1,30.07,1019.7,,,,,,,,,,,,,,,,8000.0,6500.0,FEW,6500.0,BKN,8000.0,OVC,10000.0,,
KRDR,10-14-2017,18:56,METAR,Normal,20,8,,,9999.0,,6.5,-0.5,30.10,1020.8,,,,,,,,,,,,,,,,9500.0,8000.0,SCT,8000.0,BKN,9600.0,,,,
KRDR,10-14-2017,17:56,METAR,Normal,360,9,,,9999.0,,5.7,-0.6,30.12,1021.4,,,,,,,,,,,,,,,,8500.0,7000.0,FEW,7000.0,BKN,8600.0,,,,
KRDR,10-14-2017,16:56,METAR,Normal,360,7,,,9999.0,Haze Smoke or Dust,5.2,-0.6,30.11,1021.1,05,,,,,,,,,,,,,,,7500.0,7500.0,BKN,7500.0,,,,,,
KRDR,10-14-2017,15:56,METAR,Normal,30,5,,,8000.0,Haze Smoke or Dust,3.7,-0.5,30.11,1021.1,05,,,,,,,,,,,,,,,9000.0,9000.0,BKN,9100.0,,,,,,
KRDR,10-14-2017,14:56,METAR,Normal,20,4,,,9999.0,Haze Smoke or Dust,1.9,-1.0,30.12,1021.5,05,,,,,,,,,,,,,,2/8 Mostly Clear,72000.0,7000.0,FEW,7000.0,,,,,,
KRDR,10-14-2017,13:56,METAR,Normal,360,6,,,9999.0,,-1.5,-3.4,30.12,1021.6,,,,,,,,,,,,,,,Clear,72000.0,,,,,,,,,
KRDR,10-14-2017,12:56,METAR,Normal,360,7,,,9999.0,,-2.2,-4.2,30.13,1021.8,,,,,,,,,,,,,,,4/8 Partly Cloudy,72000.0,10000.0,SCT,10000.0,,,,,,
KRDR,10-14-2017,11:56,METAR,Calm,,0,,,9999.0,,-1.9,-3.9,30.12,1021.3,,,,,,,,,,,,,,,Clear,72000.0,,,,,,,,,
KRDR,10-14-2017,10:56,METAR,Normal,360,5,,,9999.0,,-1.6,-3.5,30.12,1021.3,,,,,,,,,,,,,,,Clear,72000.0,,,,,,,,,
KRDR,10-14-2017,09:56,METAR,Normal,330,3,,,9999.0,,-2.5,-4.2,30.12,1021.3,,,,,,,,,,,,,,,Clear,72000.0,,,,,,,,,
KRDR,10-14-2017,08:56,METAR,Normal,330,3,,,9999.0,,-2.7,-4.1,30.12,1021.3,,,,,,,,,,,,,,,Clear,72000.0,,,,,,,,,
KRDR,10-14-2017,07:56,METAR,Normal,30,3,,,9999.0,,-1.9,-3.5,30.12,1021.2,,,,,,,,,,,,,,,2/8 Mostly Clear,72000.0,10000.0,FEW,10000.0,,,,,,
KRDR,10-14-2017,06:56,METAR,Normal,350,4,,,9999.0,,-2.1,-3.5,30.14,1022.0,,,,,,,,,,,,,,,2/8 Mostly Clear,72000.0,17000.0,FEW,17000.0,,,,,,
KRDR,10-14-2017,05:56,METAR,Calm,,0,,,9999.0,,-0.6,-2.7,30.14,1022.0,,,,,,,,,,,,,,,Clear,72000.0,,,,,,,,,
KRDR,10-14-2017,04:56,METAR,Normal,40,3,,,9999.0,,0.0,-1.9,30.14,1022.0,,,,,,,,,,,,,,,4/8 Partly Cloudy,72000.0,10000.0,SCT,10000.0,,,,,,
KRDR,10-14-2017,03:56,METAR,Calm,,0,,,9999.0,,1.4,-1.2,30.14,1022.0,,,,,,,,,,,,,,,2/8 Mostly Clear,72000.0,11000.0,FEW,11000.0,,,,,,
KRDR,10-14-2017,02:56,METAR,Calm,,0,,,9999.0,,1.6,-1.0,30.14,1022.0,,,,,,,,,,,,,,,2/8 Mostly Clear,72000.0,11000.0,FEW,11000.0,,,,,,
KRDR,10-14-2017,01:56,METAR,Calm,,0,,,9999.0,,4.0,0.0,30.13,1021.8,,,,,,,,,,,,,,,,12000.0,12000.0,BKN,12000.0,,,,,,
KRDR,10-14-2017,00:56,METAR,Calm,,0,,,9999.0,,6.0,0.3,30.12,1021.5,,,,,,,,,,,,,,,,11000.0,11000.0,OVC,11000.0,,,,,,
KRDR,10-13-2017,23:56,METAR,Calm,,0,,,9999.0,,9.2,0.4,30.10,1020.7,,,,,,,,,,,,,,,,8000.0,8000.0,OVC,8000.0,,,,,,
KRDR,10-13-2017,22:56,METAR,Normal,10,4,,,9999.0,,11.5,-0.3,30.09,1020.3,,,,,,,,,,,,,,,4/8 Partly Cloudy,72000.0,9000.0,FEW,9100.0,SCT,11000.0,,,,
KRDR,10-13-2017,21:56,METAR,Calm,,0,,,9999.0,,12.5,-1.4,30.10,1020.5,,,,,,,,,,,,,,,4/8 Partly Cloudy,72000.0,10000.0,SCT,10000.0,,,,,,
KRDR,10-13-2017,20:56,METAR,Normal,320,7,,,9999.0,,12.8,-1.5,30.10,1020.5,,,,,,,,,,,,,,,,13000.0,13000.0,BKN,13000.0,,,,,,
KRDR,10-13-2017,19:56,METAR,Normal,290,5,,,9999.0,,13.3,-1.5,30.10,1020.5,,,,,,,,,,,,,,,Clear,72000.0,,,,,,,,,
KRDR,10-13-2017,18:56,METAR,Normal,300,6,,,9999.0,,12.6,-1.4,30.12,1021.1,,,,,,,,,,,,,,,Clear,72000.0,,,,,,,,,
KRDR,10-13-2017,17:56,METAR,Normal,330,7,,,9999.0,,11.8,-1.4,30.14,1021.7,,,,,,,,,,,,,,,Clear,72000.0,,,,,,,,,
KRDR,10-13-2017,16:56,METAR,Normal,300,10,,,9999.0,,10.2,-1.2,30.15,1022.2,,,,,,,,,,,,,,,Clear,72000.0,,,,,,,,,
KRDR,10-13-2017,15:56,METAR,Normal,310,12,,,9999.0,,8.2,-1.3,30.15,1022.2,,,,,,,,,,,,,,,Clear,72000.0,,,,,,,,,
KRDR,10-13-2017,14:56,METAR,Normal,290,10,,,9999.0,,5.2,-1.1,30.16,1022.5,,,,,,,,,,,,,,,Clear,72000.0,,,,,,,,,
KRDR,10-13-2017,13:56,METAR,Normal,260,6,,,9999.0,,1.7,-1.7,30.14,1021.9,,,,,,,,,,,,,,,Clear,72000.0,,,,,,,,,
KRDR,10-13-2017,12:56,METAR,Normal,220,6,,,9999.0,,-2.6,-3.9,30.12,1021.3,,,,,,,,,,,,,,,Clear,72000.0,,,,,,,,,
KRDR,10-13-2017,11:56,METAR,Normal,240,7,,,9999.0,,-1.5,-3.2,30.10,1020.5,,,,,,,,,,,,,,,Clear,72000.0,,,,,,,,,
KRDR,10-13-2017,10:56,METAR,Normal,260,6,,,9999.0,,-1.6,-3.2,30.09,1020.1,,,,,,,,,,,,,,,Clear,72000.0,,,,,,,,,
KRDR,10-13-2017,09:56,METAR,Normal,240,5,,,9999.0,,-1.4,-3.0,30.09,1020.0,,,,,,,,,,,,,,,Clear,72000.0,,,,,,,,,
KRDR,10-13-2017,08:56,METAR,Normal,230,6,,,9999.0,,0.0,-2.2,30.07,1019.3,,,,,,,,,,,,,,,Clear,72000.0,,,,,,,,,
KRDR,10-13-2017,07:56,METAR,Normal,270,5,,,9999.0,,1.4,-1.8,30.05,1018.5,,,,,,,,,,,,,,,Clear,72000.0,,,,,,,,,
KRDR,10-13-2017,06:56,METAR,Normal,260,6,,,9999.0,,0.1,-2.3,30.04,1018.3,,,,,,,,,,,,,,,Clear,72000.0,,,,,,,,,
KRDR,10-13-2017,05:56,METAR,Normal,280,6,,,9999.0,,3.3,-1.3,30.02,1017.6,,,,,,,,,,,,,TRACE,,Clear,72000.0,,,,,,,,,
KRDR,10-13-2017,04:56,METAR,Normal,310,10,19.0,,9999.0,,4.4,-0.8,29.98,1016.2,,,,,,,,,,,,,,,Clear,72000.0,,,,,,,,,
KRDR,10-13-2017,03:56,METAR,Normal,300,18,22.0,,9999.0,,6.4,0.5,29.93,1014.5,,,,,,,,,,,TRACE,,,,Clear,72000.0,,,,,,,,,
KRDR,10-13-2017,02:56,METAR,Normal,300,15,23.0,,9999.0,,8.6,0.8,29.89,1013.1,,,,,,,,,,,,,,,Clear,72000.0,,,,,,,,,
KRDR,10-13-2017,01:56,METAR,Normal,330,11,18.0,320/29KTS,9999.0,,10.1,1.0,29.86,1012.1,,,,,,,,,,,,,,,2/8 Mostly Clear,72000.0,18000.0,FEW,18000.0,,,,,,
KRDR,10-13-2017,00:56,METAR,Normal,310,19,32.0,310/32KTS,9999.0,,12.3,1.6,29.82,1010.7,,,,,,,,,,,,,,,2/8 Mostly Clear,72000.0,17000.0,FEW,17000.0,FEW,23000.0,,,,
KRDR,10-12-2017,23:56,METAR,Normal,300,13,19.0,,9999.0,,14.5,4.8,29.77,1008.9,,,,,,,,,,,,,,,2/8 Mostly Clear,72000.0,5000.0,FEW,5000.0,FEW,17000.0,,,,
KRDR,10-12-2017,23:41,SPECI,Normal,280,17,22.0,,9999.0,,16.0,6.0,29.76,1008.5,,,,,,,,,,,,,,,,21000.0,17000.0,SCT,17000.0,BKN,21000.0,,,,
KRDR,10-12-2017,22:56,METAR,Normal,270,7,,,9999.0,,16.3,6.7,29.72,1007.2,,,,,,,,,,,,,,,Clear,72000.0,,,,,,,,,
KRDR,10-12-2017,21:56,METAR,Normal,250,9,,,9999.0,,18.1,6.9,29.70,1006.4,,,,,,,,,,,,,,,2/8 Mostly Clear,72000.0,5000.0,FEW,5000.0,,,,,,
KRDR,10-12-2017,20:56,METAR,Normal,200,10,,,9999.0,,18.5,7.6,29.69,1006.0,,,,,,,,,,,,,,,Clear,72000.0,,,,,,,,,
KRDR,10-12-2017,19:56,METAR,Normal,180,17,22.0,,9999.0,,18.7,6.8,29.69,1006.0,,,,,,,,,,,,,,,Clear,72000.0,,,,,,,,,
KRDR,10-12-2017,18:56,METAR,Normal,180,17,,,9999.0,,17.4,6.3,29.72,1007.0,,,,,,,,,,,,,,,4/8 Partly Cloudy,72000.0,12000.0,FEW,12000.0,SCT,20000.0,,,,
KRDR,10-12-2017,17:56,METAR,Normal,170,15,,,9999.0,,15.1,5.3,29.73,1007.5,,,,,,,,,,,,,,,2/8 Mostly Clear,72000.0,17000.0,FEW,17000.0,FEW,20000.0,,,,
KRDR,10-12-2017,16:56,METAR,Normal,180,18,,,9999.0,,13.3,5.2,29.76,1008.6,,,,,,,,,,,,,,,Clear,72000.0,,,,,,,,,
KRDR,10-12-2017,15:56,METAR,Normal,180,14,,,9999.0,,12.0,4.9,29.78,1009.3,,,,,,,,,,,,,,,Clear,72000.0,,,,,,,,,
KRDR,10-12-2017,14:56,METAR,Normal,180,15,,,9999.0,,10.0,4.6,29.79,1009.7,,,,,,,,,,,,,,,Clear,72000.0,,,,,,,,,
KRDR,10-12-2017,13:56,METAR,Normal,170,12,,,9999.0,,8.3,4.1,29.79,1009.7,,,,,,,,,,,,,,,Clear,72000.0,,,,,,,,,
KRDR,10-12-2017,12:56,METAR,Normal,170,9,,,9999.0,,7.1,3.9,29.79,1009.7,,,,,,,,,,,,,,,Clear,72000.0,,,,,,,,,
KRDR,10-12-2017,11:56,METAR,Normal,160,11,,,9999.0,,7.5,4.1,29.79,1009.7,,,,,,,,,,,,,,,Clear,72000.0,,,,,,,,,
KRDR,10-12-2017,10:56,METAR,Normal,160,10,,,9999.0,,7.7,4.3,29.80,1010.0,,,,,,,,,,,,,,,Clear,72000.0,,,,,,,,,
KRDR,10-12-2017,09:56,METAR,Normal,170,12,,,9999.0,,8.2,4.4,29.81,1010.3,,,,,,,,,,,,,,,Clear,72000.0,,,,,,,,,
KRDR,10-12-2017,08:56,METAR,Normal,170,13,,,9999.0,,8.7,4.5,29.82,1010.6,,,,,,,,,,,,,,,Clear,72000.0,,,,,,,,,
KRDR,10-12-2017,07:56,METAR,Normal,170,12,,,9999.0,,9.3,4.3,29.84,1011.3,,,,,,,,,,,,,,,Clear,72000.0,,,,,,,,,
KRDR,10-12-2017,06:56,METAR,Normal,170,14,21.0,,9999.0,,10.1,3.6,29.85,1011.6,,,,,,,,,,,,,,,Clear,72000.0,,,,,,,,,
KRDR,10-12-2017,05:56,METAR,Normal,160,14,,,9999.0,,9.3,2.8,29.86,1012.0,,,,,,,,,,,,,,,Clear,72000.0,,,,,,,,,
KRDR,10-12-2017,04:56,METAR,Normal,160,10,,,9999.0,,8.0,2.0,29.88,1012.8,,,,,,,,,,,,,,,Clear,72000.0,,,,,,,,,
KRDR,10-12-2017,03:56,METAR,Normal,160,12,,,9999.0,,8.4,1.3,29.89,1013.2,,,,,,,,,,,,,,,Clear,72000.0,,,,,,,,,
KRDR,10-12-2017,02:56,METAR,Normal,180,11,,,9999.0,,9.5,0.7,29.89,1013.2,,,,,,,,,,,,,,,Clear,72000.0,,,,,,,,,
KRDR,10-12-2017,01:56,METAR,Normal,170,11,,,9999.0,,10.1,-0.1,29.90,1013.7,,,,,,,,,,,,,,,Clear,72000.0,,,,,,,,,
KRDR,10-12-2017,00:56,METAR,Normal,160,12,,,9999.0,,11.3,-0.8,29.91,1014.0,,,,,,,,,,,,,,,Clear,72000.0,,,,,,,,,
KRDR,10-11-2017,23:56,METAR,Normal,160,11,,,9999.0,,12.4,-1.2,29.90,1013.7,,,,,,,,,,,,,,,Clear,72000.0,,,,,,,,,
KRDR,10-11-2017,22:56,METAR,Normal,150,15,23.0,150/29KTS,9999.0,,13.8,-1.8,29.90,1013.6,,,,,,,,,,,,,,,Clear,72000.0,,,,,,,,,
KRDR,10-11-2017,21:56,METAR,Normal,160,19,25.0,180/27KTS,9999.0,,14.9,-2.1,29.93,1014.5,,,,,,,,,,,,,,,Clear,72000.0,,,,,,,,,
KRDR,10-11-2017,20:56,METAR,Normal,160,18,26.0,160/28KTS,9999.0,,14.9,-2.1,29.95,1015.2,,,,,,,,,,,,,,,Clear,72000.0,,,,,,,,,
KRDR,10-11-2017,19:56,METAR,Normal,160,17,26.0,160/27KTS,9999.0,,14.8,-1.7,29.97,1015.8,,,,,,,,,,,,,,,Clear,72000.0,,,,,,,,,
KRDR,10-11-2017,18:56,METAR,Normal,170,21,29.0,150/30KTS,9999.0,,13.6,-2.0,30.00,1016.9,,,,,,,,,,,,,,,2/8 Mostly Clear,72000.0,20000.0,FEW,20000.0,,,,,,
KRDR,10-11-2017,17:56,METAR,Normal,170,20,26.0,160/30KTS,9999.0,,12.5,-1.4,30.04,1018.3,,,,,,,,,,,,,,,Clear,72000.0,,,,,,,,,
KRDR,10-11-2017,16:56,METAR,Normal,180,18,28.0,170/30KTS,9999.0,,10.6,-1.2,30.06,1018.9,,,,,,,,,,,,,,,Clear,72000.0,,,,,,,,,
KRDR,10-11-2017,15:56,METAR,Normal,170,15,26.0,190/26KTS,9999.0,,8.5,-0.8,30.08,1019.6,,,,,,,,,,,,,,,Clear,72000.0,,,,,,,,,
KRDR,10-11-2017,14:56,METAR,Normal,170,11,,,9999.0,,5.1,-1.2,30.10,1020.5,,,,,,,,,,,,,,,Clear,72000.0,,,,,,,,,
KRDR,10-11-2017,13:56,METAR,Normal,150,9,,,9999.0,,2.2,-1.8,30.11,1020.9,,,,,,,,,,,,,,,Clear,72000.0,,,,,,,,,
KRDR,10-11-2017,12:56,METAR,Normal,160,8,,,9999.0,,0.1,-2.6,30.11,1020.9,,,,,,,,,,,,,,,Clear,72000.0,,,,,,,,,
KRDR,10-11-2017,11:56,METAR,Normal,150,7,,,9999.0,,1.0,-2.2,30.12,1021.1,,,,,,,,,,,,,,,Clear,72000.0,,,,,,,,,
KRDR,10-11-2017,10:56,METAR,Normal,150,7,,,9999.0,,1.4,-2.4,30.12,1021.0,,,,,,,,,,,,,,,Clear,72000.0,,,,,,,,,
KRDR,10-11-2017,09:56,METAR,Normal,170,8,,,9999.0,,2.4,-2.3,30.13,1021.3,,,,,,,,,,,,,,,Clear,72000.0,,,,,,,,,
KRDR,10-11-2017,08:56,METAR,Normal,170,9,,,9999.0,,3.5,-1.9,30.14,1021.5,,,,,,,,,,,,,,,Clear,72000.0,,,,,,,,,
KRDR,10-11-2017,07:56,METAR,Normal,180,8,,,9999.0,,4.5,-1.3,30.15,1021.8,,,,,,,,,,,,,,,Clear,72000.0,,,,,,,,,
KRDR,10-11-2017,06:56,METAR,Normal,200,6,,,9999.0,,4.3,-1.3,30.15,1021.9,,,,,,,,,,,,,,,Clear,72000.0,,,,,,,,,
KRDR,10-11-2017,05:56,METAR,Normal,180,7,,,9999.0,,5.8,-1.1,30.15,1021.9,,,,,,,,,,,,,,,Clear,72000.0,,,,,,,,,
KRDR,10-11-2017,04:56,METAR,Normal,190,8,,,9999.0,,6.7,-0.7,30.16,1022.2,,,,,,,,,,,,,,,Clear,72000.0,,,,,,,,,
KRDR,10-11-2017,03:56,METAR,Normal,190,9,,,9999.0,,8.2,-1.1,30.17,1022.6,,,,,,,,,,,,,,,Clear,72000.0,,,,,,,,,
KRDR,10-11-2017,02:56,METAR,Normal,180,11,,,9999.0,,9.4,-1.3,30.17,1022.8,,,,,,,,,,,,,,,Clear,72000.0,,,,,,,,,
KRDR,10-11-2017,01:56,METAR,Normal,180,11,,,9999.0,,10.8,-2.3,30.16,1022.5,,,,,,,,,,,,,,,Clear,72000.0,,,,,,,,,
KRDR,10-11-2017,00:56,METAR,Normal,180,9,,,9999.0,,9.5,-2.2,30.15,1022.3,,,,,,,,,,,,,,,Clear,72000.0,,,,,,,,,
KRDR,10-10-2017,23:56,METAR,Normal,180,10,,,9999.0,,12.6,-2.1,30.14,1021.9,,,,,,,,,,,,,,,Clear,72000.0,,,,,,,,,
KRDR,10-10-2017,22:56,METAR,Normal,180,9,,,9999.0,,16.9,-2.2,30.13,1021.4,,,,,,,,,,,,,,,Clear,72000.0,,,,,,,,,
KRDR,10-10-2017,21:56,METAR,Normal,220,10,,,9999.0,,18.8,-2.8,30.14,1021.7,,,,,,,,,,,,,,,Clear,72000.0,,,,,,,,,
KRDR,10-10-2017,20:56,METAR,Normal,210,11,,,9999.0,,18.8,-2.2,30.15,1022.0,,,,,,,,,,,,,,,Clear,72000.0,,,,,,,,,
KRDR,10-10-2017,19:56,METAR,Normal,220,11,,,9999.0,,19.1,-2.5,30.17,1022.7,,,,,,,,,,,,,,,Clear,72000.0,,,,,,,,,
KRDR,10-10-2017,19:48,SPECI,Normal,230,12,,,9999.0,,19.0,-2.0,30.17,1022.7,,,,,,,,,,,,,,,Clear,72000.0,,,,,,,,,
KRDR,10-10-2017,18:56,METAR,Normal,230,12,,,9999.0,,17.8,-2.5,30.19,1023.4,,,,,,,,,,,,,,,Clear,72000.0,,,,,,,,,
KRDR,10-10-2017,17:56,METAR,Normal,210,15,,,9999.0,,16.8,-2.8,30.22,1024.5,,,,,,,,,,,,,,,Clear,72000.0,,,,,,,,,
KRDR,10-10-2017,17:23,SPECI,Normal,230,13,,,9999.0,,16.0,0.0,30.22,1024.5,,,,,,,,,,,,,,,Clear,72000.0,,,,,,,,,
KRDR,10-10-2017,16:56,METAR,Normal,190,12,,,9999.0,,14.5,-0.8,30.22,1024.5,,,,,,,,,,,,,,,Clear,72000.0,,,,,,,,,
KRDR,10-10-2017,15:56,METAR,Normal,200,12,,,9999.0,,11.1,-2.0,30.22,1024.8,,,,,,,,,,,,,,,Clear,72000.0,,,,,,,,,
KRDR,10-10-2017,14:56,METAR,Normal,200,13,,,9999.0,,6.7,-2.2,30.23,1025.2,,,,,,,,,,,,,,,Clear,72000.0,,,,,,,,,
KRDR,10-10-2017,13:56,METAR,Normal,200,10,,,9999.0,,3.4,-2.8,30.23,1025.3,,,,,,,,,,,,,,,Clear,72000.0,,,,,,,,,
KRDR,10-10-2017,12:56,METAR,Normal,180,9,,,9999.0,,-0.9,-4.1,30.22,1025.0,,,,,,,,,,,,,,,Clear,72000.0,,,,,,,,,
KRDR,10-10-2017,11:56,METAR,Normal,170,8,,,9999.0,,-0.9,-4.1,30.22,1024.9,,,,,,,,,,,,,,,Clear,72000.0,,,,,,,,,
KRDR,10-10-2017,10:56,METAR,Normal,220,7,,,9999.0,,-0.3,-4.2,30.23,1025.1,,,,,,,,,,,,,,,Clear,72000.0,,,,,,,,,
KRDR,10-10-2017,09:56,METAR,Normal,230,7,,,9999.0,,-0.7,-4.1,30.22,1024.8,,,,,,,,,,,,,,,Clear,72000.0,,,,,,,,,
KRDR,10-10-2017,08:56,METAR,Normal,220,8,,,9999.0,,-0.5,-4.2,30.22,1024.8,,,,,,,,,,,,,,,Clear,72000.0,,,,,,,,,
KRDR,10-10-2017,07:56,METAR,Normal,220,7,,,9999.0,,-0.7,-4.4,30.23,1025.1,,,,,,,,,,,,,,,Clear,72000.0,,,,,,,,,
KRDR,10-10-2017,06:56,METAR,Normal,230,6,,,9999.0,,-0.2,-4.6,30.22,1024.8,,,,,,,,,,,,,,,Clear,72000.0,,,,,,,,,
KRDR,10-10-2017,05:56,METAR,Normal,230,6,,,9999.0,,-0.9,-4.8,30.22,1024.8,,,,,,,,,,,,,,,Clear,72000.0,,,,,,,,,
KRDR,10-10-2017,04:56,METAR,Normal,220,5,,,9999.0,,-1.4,-4.7,30.22,1024.8,,,,,,,,,,,,,,,Clear,72000.0,,,,,,,,,
KRDR,10-10-2017,03:56,METAR,Normal,230,5,,,9999.0,,-2.5,-5.0,30.21,1024.5,,,,,,,,,,,,,,,Clear,72000.0,,,,,,,,,
KRDR,10-10-2017,02:56,METAR,Normal,230,5,,,9999.0,,-2.0,-5.0,30.21,1024.6,,,,,,,,,,,,,,,Clear,72000.0,,,,,,,,,
KRDR,10-10-2017,01:56,METAR,Normal,210,3,,,9999.0,,-0.6,-4.5,30.21,1024.6,,,,,,,,,,,,,,,,,,,,,,,,,
KRDR,10-10-2017,00:56,METAR,Calm,,0,,,9999.0,,0.9,-5.4,30.21,1024.6,,,,,,,,,,,,,,,Clear,72000.0,,,,,,,,,
KRDR,10-09-2017,23:56,METAR,Normal,300,4,,,9999.0,,4.2,-5.0,30.20,1024.1,,,,,,,,,,,,,,,Clear,72000.0,,,,,,,,,
KRDR,10-09-2017,22:56,METAR,Normal,320,5,,,9999.0,,7.6,-5.5,30.19,1023.7,,,,,,,,,,,,,,,,6000.0,6000.0,OVC,6000.0,,,,,,
KRDR,10-09-2017,21:56,METAR,Normal,300,7,,,9999.0,,7.3,-5.4,30.19,1023.7,,,,,,,,,,,,,,,,6000.0,6000.0,BKN,6000.0,,,,,,
KRDR,10-09-2017,20:56,METAR,Normal,300,11,19.0,,9999.0,,8.3,-4.9,30.18,1023.3,,,,,,,,,,,,,,,,5500.0,5500.0,OVC,5500.0,,,,,,
KRDR,10-09-2017,19:56,METAR,Normal,300,10,,,9999.0,,9.0,-4.6,30.17,1022.9,,,,,,,,,,,,,,,,5500.0,5500.0,OVC,5500.0,,,,,,
KRDR,10-09-2017,18:56,METAR,Normal,300,9,,,9999.0,,7.8,-4.0,30.18,1023.3,,,,,,,,,,,,,,,,5000.0,5000.0,OVC,5000.0,,,,,,
KRDR,10-09-2017,17:56,METAR,Normal,330,8,,,9999.0,,7.5,-4.6,30.18,1023.3,,,,,,,,,,,,,,,,5000.0,5000.0,OVC,5000.0,,,,,,
KRDR,10-09-2017,16:56,METAR,Normal,320,10,,,9999.0,,7.0,-5.7,30.17,1022.9,,,,,,,,,,,,,,,,5500.0,5500.0,BKN,5500.0,,,,,,
KRDR,10-09-2017,15:56,METAR,Normal,330,12,16.0,,9999.0,,7.7,-3.5,30.16,1022.4,,,,,,,,,,,,,,,Clear,72000.0,,,,,,,,,
KRDR,10-09-2017,14:56,METAR,Normal,280,5,,,9999.0,,5.8,-2.1,30.15,1022.1,,,,,,,,,,,,,,,4/8 Partly Cloudy,72000.0,5500.0,SCT,5500.0,,,,,,
KRDR,10-09-2017,13:56,METAR,Normal,280,6,,,9999.0,,3.0,-2.5,30.13,1021.5,,,,,,,,,,,,,,,,5500.0,5500.0,OVC,5500.0,,,,,,
KRDR,10-09-2017,12:56,METAR,Normal,270,6,,,9999.0,,2.3,-2.8,30.11,1020.9,,,,,,,,,,,,,,,,5500.0,5500.0,OVC,5500.0,,,,,,
KRDR,10-09-2017,11:56,METAR,Normal,300,7,,,9999.0,,2.3,-3.0,30.09,1020.1,,,,,,,,,,,,,,,,5500.0,5500.0,OVC,5500.0,,,,,,
KRDR,10-09-2017,10:56,METAR,Normal,290,8,,,9999.0,,2.2,-3.3,30.08,1019.7,,,,,,,,,,,,,,,,5000.0,5000.0,BKN,5000.0,,,,,,
KRDR,10-09-2017,09:56,METAR,Normal,290,8,,,9999.0,,2.1,-2.8,30.07,1019.3,,,,,,,,,,,,,,,Clear,72000.0,,,,,,,,,
KRDR,10-09-2017,08:56,METAR,Normal,290,7,,,9999.0,,2.1,-2.2,30.03,1017.9,,,,,,,,,,,,,,,Clear,72000.0,,,,,,,,,
KRDR,10-09-2017,07:56,METAR,Normal,280,6,,,9999.0,,3.0,-1.9,30.02,1017.6,,,,,,,,,,,,,,,Clear,72000.0,,,,,,,,,
KRDR,10-09-2017,06:56,METAR,Normal,300,7,,,9999.0,,3.2,-1.2,30.00,1016.9,,,,,,,,,,,,,,,Clear,72000.0,,,,,,,,,
KRDR,10-09-2017,05:56,METAR,Normal,310,8,,,9999.0,,3.6,-1.8,29.99,1016.6,,,,,,,,,,,,,,,Clear,72000.0,,,,,,,,,
KRDR,10-09-2017,04:56,METAR,Normal,300,8,,,9999.0,,4.5,-1.1,29.96,1015.5,,,,,,,,,,,,,,,Clear,72000.0,,,,,,,,,
KRDR,10-09-2017,03:56,METAR,Normal,320,7,,,9999.0,,7.3,-1.4,29.92,1014.2,,,,,,,,,,,,,,,Clear,72000.0,,,,,,,,,
KRDR,10-09-2017,02:56,METAR,Normal,320,8,,,9999.0,,9.0,-1.7,29.89,1013.1,,,,,,,,,,,,,,,Clear,72000.0,,,,,,,,,
KRDR,10-09-2017,01:56,METAR,Normal,310,9,,,9999.0,,10.2,-0.6,29.85,1011.8,,,,,,,,,,,,,,,Clear,72000.0,,,,,,,,,
KRDR,10-09-2017,00:56,METAR,Normal,310,7,,,9999.0,,9.1,-0.2,29.81,1010.4,,,,,,,,,,,,,,,Clear,72000.0,,,,,,,,,
KRDR,10-08-2017,23:56,METAR,Normal,290,6,,,9999.0,,11.9,0.0,29.78,1009.3,,,,,,,,,,,,,,,Clear,72000.0,,,,,,,,,
KRDR,10-08-2017,22:56,METAR,Normal,290,10,17.0,,9999.0,,14.2,0.1,29.76,1008.5,,,,,,,,,,,,,,,2/8 Mostly Clear,72000.0,6500.0,FEW,6500.0,,,,,,
KRDR,10-08-2017,21:56,METAR,Normal,320,10,,,9999.0,,15.2,0.6,29.73,1007.4,,,,,,,,,,,,,,,Clear,72000.0,,,,,,,,,
KRDR,10-08-2017,20:56,METAR,Normal,310,9,18.0,,9999.0,,15.5,1.2,29.71,1006.7,,,,,,,,,,,,,,,Clear,72000.0,,,,,,,,,
KRDR,10-08-2017,19:56,METAR,Normal,320,8,18.0,,9999.0,,15.4,1.5,29.70,1006.4,,,,,,,,,,,,,,,Clear,72000.0,,,,,,,,,
KRDR,10-08-2017,18:56,METAR,Normal,300,13,22.0,,9999.0,,14.7,1.6,29.68,1005.7,,,,,,,,,,,,,,,Clear,72000.0,,,,,,,,,
KRDR,10-08-2017,17:56,METAR,Normal,320,12,17.0,,9999.0,,14.3,1.6,29.69,1006.0,,,,,,,,,,,,,,,Clear,72000.0,,,,,,,,,
KRDR,10-08-2017,16:56,METAR,Normal,320,13,21.0,,9999.0,,13.0,1.6,29.68,1005.7,,,,,,,,,,,,,,,Clear,72000.0,,,,,,,,,
KRDR,10-08-2017,15:56,METAR,Normal,290,13,17.0,,9999.0,,11.0,2.0,29.68,1005.9,,,,,,,,,,,,,,,Clear,72000.0,,,,,,,,,
KRDR,10-08-2017,14:56,METAR,Normal,300,13,18.0,,9999.0,,11.3,1.8,29.66,1005.2,,,,,,,,,,,,,,,,17000.0,17000.0,BKN,17000.0,,,,,,
KRDR,10-08-2017,13:56,METAR,Normal,290,7,,,9999.0,,8.8,1.2,29.63,1004.3,,,,,,,,,,,,,,,4/8 Partly Cloudy,72000.0,18000.0,SCT,18000.0,,,,,,
KRDR,10-08-2017,12:56,METAR,Normal,280,7,,,9999.0,,8.8,0.7,29.58,1002.5,,,,,,,,,,,,,,,,16000.0,16000.0,BKN,16000.0,,,,,,
KRDR,10-08-2017,11:56,METAR,Normal,300,9,,,9999.0,,9.5,-0.1,29.57,1002.0,,,,,,,,,,,,,,,,14000.0,14000.0,OVC,14000.0,,,,,,
KRDR,10-08-2017,10:56,METAR,Normal,310,7,,,9999.0,,9.8,0.4,29.54,1000.8,,,,,,,,,,,,,,,,14000.0,14000.0,BKN,14000.0,,,,,,
KRDR,10-08-2017,09:56,METAR,Normal,310,9,16.0,,9999.0,,10.6,-0.2,29.54,1000.8,,,,,,,,,,,,,,,2/8 Mostly Clear,72000.0,14000.0,FEW,14000.0,,,,,,
KRDR,10-08-2017,08:56,METAR,Normal,300,9,17.0,,9999.0,,11.2,-0.3,29.51,999.8,,,,,,,,,,,,,,,4/8 Partly Cloudy,72000.0,13000.0,SCT,13000.0,,,,,,
KRDR,10-08-2017,07:56,METAR,Normal,290,10,,,9999.0,,11.9,-0.6,29.51,,,,,,,,,,,,,,,,Clear,72000.0,,,,,,,,,
KRDR,10-08-2017,06:56,METAR,Normal,310,10,,,9999.0,,12.8,1.5,29.47,998.3,,,,,,,,,,,,,,,Clear,72000.0,,,,,,,,,
KRDR,10-08-2017,05:56,METAR,Normal,290,13,19.0,,9999.0,,14.3,4.0,29.43,996.9,,,,,,,,,,,,,,,Clear,72000.0,,,,,,,,,
KRDR,10-08-2017,04:56,METAR,Normal,280,12,19.0,,9999.0,,14.9,2.1,29.39,995.5,,,,,,,,,,,,,,,2/8 Mostly Clear,72000.0,16000.0,FEW,16000.0,,,,,,
KRDR,10-08-2017,03:56,METAR,Normal,250,7,,,9999.0,,11.1,3.4,29.37,995.1,,,,,,,,,,,,,,,2/8 Mostly Clear,72000.0,17000.0,FEW,17000.0,,,,,,
KRDR,10-08-2017,02:56,METAR,Normal,230,6,,,9999.0,,9.1,4.3,29.37,995.2,,,,,,,,,,,,,,,2/8 Mostly Clear,72000.0,17000.0,FEW,17000.0,,,,,,
KRDR,10-08-2017,01:56,METAR,Normal,230,6,,,9999.0,,9.1,4.1,29.37,995.4,,,,,,,,,,,,,,,Clear,72000.0,,,,,,,,,
KRDR,10-08-2017,00:56,METAR,Normal,260,4,,,9999.0,,11.2,4.2,29.38,995.8,,,,,,,,,,,,,,,Clear,72000.0,,,,,,,,,
KRDR,10-07-2017,23:56,METAR,Normal,270,7,,,9999.0,,15.1,4.2,29.36,995.0,,,,,,,,,,,,,,,Clear,72000.0,,,,,,,,,
KRDR,10-07-2017,22:56,METAR,Normal,290,10,20.0,,9999.0,,19.3,3.4,29.34,994.1,,,,,,,,,,,,,,,Clear,72000.0,,,,,,,,,
KRDR,10-07-2017,21:56,METAR,Normal,300,17,22.0,,9999.0,,20.7,4.3,29.32,993.4,,,,,,,,,,,,,,,Clear,72000.0,,,,,,,,,
KRDR,10-07-2017,20:56,METAR,Normal,310,12,25.0,,9999.0,,21.1,3.3,29.31,993.0,,,,,,,,,,,,,,,Clear,72000.0,,,,,,,,,
KRDR,10-07-2017,19:56,METAR,Normal,300,15,29.0,290/31KTS,9999.0,,21.5,2.7,29.30,992.7,,,,,,,,,,,,,,,Clear,72000.0,,,,,,,,,
KRDR,10-07-2017,18:56,METAR,Normal,280,18,22.0,280/27KTS,9999.0,,21.2,3.8,29.29,992.3,,,,,,,,,,,,,,,4/8 Partly Cloudy,72000.0,14000.0,SCT,14000.0,,,,,,
KRDR,10-07-2017,17:56,METAR,Normal,290,14,24.0,,9999.0,,21.7,4.3,29.29,992.3,,,,,,,,,,,,,,,Clear,72000.0,,,,,,,,,
KRDR,10-07-2017,16:56,METAR,Normal,270,15,20.0,,9999.0,,20.1,5.3,29.29,992.3,,,,,,,,,,,,,,,4/8 Partly Cloudy,72000.0,15000.0,SCT,15000.0,,,,,,
KRDR,10-07-2017,15:56,METAR,Normal,260,15,20.0,,9999.0,,17.6,6.5,29.32,993.4,,,,,,,,,,,,,,,Clear,72000.0,,,,,,,,,
KRDR,10-07-2017,14:56,METAR,Normal,260,13,,,9999.0,,15.0,7.5,29.33,993.9,,,,,,,,,,,,,,,Clear,72000.0,,,,,,,,,
KRDR,10-07-2017,13:56,METAR,Normal,220,11,,,9999.0,,10.4,6.4,29.34,994.3,,,,,,,,,,,,,,,Clear,72000.0,,,,,,,,,
KRDR,10-07-2017,12:56,METAR,Normal,220,9,,,9999.0,,7.7,5.5,29.37,995.4,,,,,,,,,,,,,,,Clear,72000.0,,,,,,,,,
KRDR,10-07-2017,11:56,METAR,Normal,220,8,,,9999.0,,7.6,5.1,29.41,996.7,,,,,,,,,,,,,,,Clear,72000.0,,,,,,,,,
KRDR,10-07-2017,10:56,METAR,Normal,220,10,,,9999.0,,8.5,4.7,29.43,997.2,,,,,,,,,,,,,,,Clear,72000.0,,,,,,,,,
KRDR,10-07-2017,09:56,METAR,Normal,210,10,,,9999.0,,7.8,4.4,29.46,998.2,,,,,,,,,,,,,,,Clear,72000.0,,,,,,,,,
KRDR,10-07-2017,08:56,METAR,Normal,230,9,,,9999.0,,8.5,4.5,29.47,998.6,,,,,,,,,,,,,,,Clear,72000.0,,,,,,,,,
KRDR,10-07-2017,07:56,METAR,Normal,190,9,,,9999.0,,7.9,4.5,29.51,999.9,,,,,,,,,,,,,,,Clear,72000.0,,,,,,,,,
KRDR,10-07-2017,06:56,METAR,Normal,190,9,,,9999.0,,8.4,4.4,29.55,1001.4,,,,,,,,,,,,,,,Clear,72000.0,,,,,,,,,
KRDR,10-07-2017,05:56,METAR,Normal,210,9,,,9999.0,,8.6,4.6,29.57,1002.1,,,,,,,,,,,,,,,Clear,72000.0,,,,,,,,,
KRDR,10-07-2017,04:56,METAR,Normal,200,8,,,9999.0,,9.3,5.1,29.60,1003.1,,,,,,,,,,,,,,,Clear,72000.0,,,,,,,,,
KRDR,10-07-2017,03:56,METAR,Normal,200,8,,,9999.0,,9.6,5.6,29.64,1004.5,,,,,,,,,,,,,,,Clear,72000.0,,,,,,,,,
KRDR,10-07-2017,02:56,METAR,Normal,180,8,,,9999.0,,8.6,4.6,29.66,,,,,,,,,,,,,,,,Clear,72000.0,,,,,,,,,
KRDR,10-07-2017,01:56,METAR,Normal,180,8,,,9999.0,,9.1,4.1,29.68,1006.1,,,,,,,,,,,,,,,Clear,72000.0,,,,,,,,,
KRDR,10-07-2017,00:56,METAR,Normal,180,7,,,9999.0,,10.1,4.5,29.71,1007.2,,,,,,,,,,,,,,,Clear,72000.0,,,,,,,,,
KRDR,10-06-2017,23:56,METAR,Normal,190,7,,,9999.0,,12.6,4.6,29.72,1007.5,,,,,,,,,,,,,,,Clear,72000.0,,,,,,,,,
KRDR,10-06-2017,22:56,METAR,Normal,200,9,,,9999.0,,16.6,4.0,29.74,1008.0,,,,,,,,,,,,,,,Clear,72000.0,,,,,,,,,
KRDR,10-06-2017,21:56,METAR,Normal,200,10,,,9999.0,,17.5,3.4,29.76,1008.7,,,,,,,,,,,,,,,2/8 Mostly Clear,72000.0,13000.0,FEW,13000.0,,,,,,
KRDR,10-06-2017,20:56,METAR,Normal,200,13,,,9999.0,,17.7,3.9,29.79,1009.7,,,,,,,,,,,,,,,Clear,72000.0,,,,,,,,,
KRDR,10-06-2017,19:56,METAR,Normal,210,8,,,9999.0,,17.4,2.9,29.83,1011.1,,,,,,,,,,,,,,,Clear,72000.0,,,,,,,,,
KRDR,10-06-2017,18:56,METAR,Normal,200,11,,,9999.0,,15.2,3.0,29.88,1012.9,,,,,,,,,,,,,,,,13000.0,13000.0,BKN,13000.0,BKN,16000.0,,,,
KRDR,10-06-2017,17:56,METAR,Normal,180,10,,,9999.0,,13.8,3.3,29.92,1014.2,,,,,,,,,,,,,,,,11000.0,11000.0,BKN,11000.0,OVC,14000.0,,,,
KRDR,10-06-2017,16:56,METAR,Normal,180,10,,,9999.0,,14.7,3.5,29.95,1015.2,,,,,,,,,,,,,,,Clear,72000.0,,,,,,,,,
KRDR,10-06-2017,15:56,METAR,Normal,180,11,,,9999.0,,11.0,5.1,29.98,1016.4,,,,,,,,,,,,,,,Clear,72000.0,,,,,,,,,
KRDR,10-06-2017,14:56,METAR,Normal,180,6,,,9999.0,,8.0,5.0,29.98,,,,,,,,,,,,,,,,Clear,72000.0,,,,,,,,,
KRDR,10-06-2017,13:56,METAR,Normal,190,3,,,9999.0,,4.4,2.9,29.98,1016.6,,,,,,,,,,,,,,,Clear,72000.0,,,,,,,,,
KRDR,10-06-2017,12:56,METAR,Normal,200,5,,,9999.0,,1.9,1.0,30.00,1017.2,,,,,,,,,,,,,,,Clear,72000.0,,,,,,,,,
KRDR,10-06-2017,11:56,METAR,Normal,190,3,,,9999.0,,1.6,0.4,30.01,1017.4,,,,,,,,,,,,,,,Clear,72000.0,,,,,,,,,
KRDR,10-06-2017,10:56,METAR,Normal,230,4,,,9999.0,,1.0,0.3,30.04,1018.3,,,,,,,,,,,,,,,Clear,72000.0,,,,,,,,,
KRDR,10-06-2017,09:56,METAR,Normal,230,5,,,9999.0,,0.2,-0.4,30.04,1018.3,,,,,,,,,,,,,,,Clear,72000.0,,,,,,,,,
KRDR,10-06-2017,08:56,METAR,Normal,220,3,,,9999.0,,1.0,0.3,30.04,1018.3,,,,,,,,,,,,,,,Clear,72000.0,,,,,,,,,
KRDR,10-06-2017,07:56,METAR,Calm,,0,,,9999.0,,1.0,0.3,30.06,1019.0,,,,,,,,,,,,,,,Clear,72000.0,,,,,,,,,
KRDR,10-06-2017,06:56,METAR,Calm,,0,,,9999.0,,0.8,0.2,30.07,1019.4,,,,,,,,,,,,,,,Clear,72000.0,,,,,,,,,
KRDR,10-06-2017,05:56,METAR,Normal,240,3,,,9999.0,,1.7,1.0,30.08,1019.7,,,,,,,,,,,,,,,Clear,72000.0,,,,,,,,,
KRDR,10-06-2017,04:56,METAR,Normal,230,3,,,9999.0,,2.1,1.2,30.09,1020.1,,,,,,,,,,,,,,,Clear,72000.0,,,,,,,,,
KRDR,10-06-2017,03:56,METAR,Normal,270,3,,,9999.0,,2.7,1.8,30.09,,,,,,,,,,,,,,,,Clear,72000.0,,,,,,,,,
KRDR,10-06-2017,02:56,METAR,Calm,,0,,,9999.0,,2.8,1.5,30.09,,,,,,,,,,,,,,,,Clear,72000.0,,,,,,,,,
KRDR,10-06-2017,01:56,METAR,Calm,,0,,,9999.0,,4.4,2.4,30.08,,,,,,,,,,,,,,,,Clear,72000.0,,,,,,,,,
KRDR,10-06-2017,00:56,METAR,Normal,50,3,,,9999.0,,7.2,2.9,30.08,1019.9,,,,,,,,,,,,,,,Clear,72000.0,,,,,,,,,
KRDR,10-05-2017,23:56,METAR,Normal,40,5,,,9999.0,,11.2,3.2,30.07,1019.4,,,,,,,,,,,,,,,Clear,72000.0,,,,,,,,,
KRDR,10-05-2017,22:56,METAR,Normal,40,5,,,9999.0,,14.2,3.0,30.08,1019.6,,,,,,,,,,,,,,,Clear,72000.0,,,,,,,,,
KRDR,10-05-2017,21:56,METAR,Normal,20,6,,,9999.0,,15.3,2.8,30.08,1019.6,,,,,,,,,,,,,,,Clear,72000.0,,,,,,,,,
KRDR,10-05-2017,20:56,METAR,Normal,10,7,,,9999.0,,16.0,2.0,30.09,1019.8,,,,,,,,,,,,,,,Clear,72000.0,,,,,,,,,
KRDR,10-05-2017,19:56,METAR,Normal,10,6,,,9999.0,,15.8,2.2,30.10,1020.2,,,,,,,,,,,,,,,Clear,72000.0,,,,,,,,,
KRDR,10-05-2017,18:56,METAR,Normal,30,6,,,9999.0,,15.0,1.8,30.11,1020.6,,,,,,,,,,,,,,,Clear,72000.0,,,,,,,,,
KRDR,10-05-2017,17:56,METAR,Normal,360,6,,,9999.0,,14.0,1.9,30.13,1021.3,,,,,,,,,,,,,,,Clear,72000.0,,,,,,,,,
KRDR,10-05-2017,16:56,METAR,Normal,340,4,,,9999.0,,12.0,3.0,30.14,1021.7,,,,,,,,,,,,,,,Clear,72000.0,,,,,,,,,
KRDR,10-05-2017,15:56,METAR,Normal,340,7,,,9999.0,,8.0,2.0,30.18,,,,,,,,,,,,,,,,2/8 Mostly Clear,72000.0,12000.0,FEW,12000.0,FEW,18000.0,,,,
KRDR,10-05-2017,14:56,METAR,Normal,330,6,,,9999.0,,8.0,3.0,30.18,,,,,,,,,,,,,,,,4/8 Partly Cloudy,72000.0,12000.0,FEW,12000.0,SCT,18000.0,,,,
KRDR,10-05-2017,13:56,METAR,Normal,340,5,,,9999.0,,6.0,4.3,30.12,1021.1,,,,,,,,,,,,,,,4/8 Partly Cloudy,72000.0,14000.0,SCT,14000.0,,,,,,
KRDR,10-05-2017,12:56,METAR,Normal,290,3,,,9999.0,,3.7,2.7,30.12,1021.2,,,,,,,,,,,,,,,2/8 Mostly Clear,72000.0,14000.0,FEW,14000.0,,,,,,
KRDR,10-05-2017,11:56,METAR,Calm,,0,,,9999.0,,3.6,2.4,30.12,1021.1,,,,,,,,,,,,,,,Clear,72000.0,,,,,,,,,
KRDR,10-05-2017,10:56,METAR,Normal,260,3,,,9999.0,,5.5,3.7,30.12,1020.9,,,,,,,,,,,,,,,4/8 Partly Cloudy,72000.0,7500.0,SCT,7500.0,,,,,,
KRDR,10-05-2017,09:56,METAR,Normal,280,3,,,9999.0,,5.9,4.1,30.13,1021.3,,,,,,,,,,,,,,,,8000.0,8000.0,BKN,8000.0,,,,,,
KRDR,10-05-2017,08:56,METAR,Normal,260,5,,,9999.0,,6.3,4.5,30.13,1021.3,,,,,,,,,,,,,,,,7500.0,7500.0,OVC,7500.0,,,,,,
KRDR,10-05-2017,07:56,METAR,Normal,260,5,,,9999.0,,3.9,2.6,30.13,1021.4,,,,,,,,,,,,,,,Clear,72000.0,,,,,,,,,
KRDR,10-05-2017,06:56,METAR,Normal,260,7,,,9999.0,,4.7,3.0,30.14,1021.7,,,,,,,,,,,,,,,2/8 Mostly Clear,72000.0,8000.0,FEW,8000.0,,,,,,
KRDR,10-05-2017,05:56,METAR,Normal,260,6,,,9999.0,,3.3,2.4,30.13,1021.5,,,,,,,,,,,,,,,Clear,72000.0,,,,,,,,,
KRDR,10-05-2017,04:56,METAR,Normal,240,5,,,9999.0,,3.9,2.7,30.15,,,,,,,,,,,,,,,,Clear,72000.0,,,,,,,,,
KRDR,10-05-2017,03:56,METAR,Normal,250,5,,,9999.0,,3.8,2.5,30.15,,,,,,,,,,,,,,,,Clear,72000.0,,,,,,,,,
KRDR,10-05-2017,02:56,METAR,Normal,240,5,,,9999.0,,4.8,2.8,30.15,,,,,,,,,,,,,,,,Clear,72000.0,,,,,,,,,
KRDR,10-05-2017,01:56,METAR,Calm,,0,,,9999.0,,6.9,3.9,30.15,1022.1,,,,,,,,,,,,,,,Clear,72000.0,,,,,,,,,
KRDR,10-05-2017,00:56,METAR,Normal,240,5,,,9999.0,,8.4,3.8,30.15,1022.2,,,,,,,,,,,,,,,Clear,72000.0,,,,,,,,,
KRDR,10-04-2017,23:56,METAR,Normal,250,7,,,9999.0,,11.9,4.1,30.15,1021.9,,,,,,,,,,,,,,,Clear,72000.0,,,,,,,,,
KRDR,10-04-2017,22:56,METAR,Normal,270,9,,,9999.0,,13.9,3.9,30.15,1021.9,,,,,,,,,,,,,,,Clear,72000.0,,,,,,,,,
KRDR,10-04-2017,21:56,METAR,Normal,250,9,,,9999.0,,14.3,4.0,30.18,1023.0,,,,,,,,,,,,,,,Clear,72000.0,,,,,,,,,
KRDR,10-04-2017,20:56,METAR,Normal,260,12,16.0,,9999.0,,14.0,4.0,30.20,1023.6,,,,,,,,,,,,,,,Clear,72000.0,,,,,,,,,
KRDR,10-04-2017,19:56,METAR,Normal,270,12,17.0,,9999.0,,12.9,3.5,30.22,1024.3,,,,,,,,,,,,,,,Clear,72000.0,,,,,,,,,
KRDR,10-04-2017,19:06,SPECI,Normal,250,14,18.0,,9999.0,,12.0,3.0,30.25,1025.4,,,,,,,,,,,,,,,,3000.0,3000.0,BKN,3000.0,,,,,,
KRDR,10-04-2017,18:56,METAR,Normal,250,11,,,9999.0,,11.6,3.4,30.25,1025.4,,,,,,,,,,,,,,,,2800.0,2800.0,BKN,2800.0,,,,,,
KRDR,10-04-2017,17:56,METAR,Normal,250,11,21.0,,9999.0,,10.9,3.7,30.28,1026.4,,,,,,,,,,,,,,,,2800.0,2800.0,OVC,2800.0,,,,,,
KRDR,10-04-2017,17:40,SPECI,Normal,250,13,,,9999.0,,11.0,4.0,30.28,1026.4,,,,,,,,,,,,,,,,2800.0,2800.0,BKN,2800.0,,,,,,
KRDR,10-04-2017,16:56,METAR,Normal,290,13,,,9999.0,,11.0,4.0,30.34,,,,,,,,,,,,,,,,4/8 Partly Cloudy,72000.0,3000.0,SCT,3000.0,,,,,,
KRDR,10-04-2017,15:56,METAR,Normal,260,12,,,9999.0,,10.0,4.0,30.35,,,,,,,,,,,,,,,,2/8 Mostly Clear,72000.0,5000.0,FEW,5000.0,,,,,,
KRDR,10-04-2017,14:56,METAR,Normal,270,15,,,9999.0,,9.0,4.0,30.34,,,,,,,,,,,,,,,,Clear,72000.0,,,,,,,,,
KRDR,10-04-2017,13:56,METAR,Normal,290,13,21.0,,9999.0,,8.3,3.7,30.28,1026.5,,,,,,,,,,,,,,,Clear,72000.0,,,,,,,,,
KRDR,10-04-2017,12:56,METAR,Normal,300,10,,,9999.0,,6.4,3.4,30.28,1026.5,,,,,,,,,,,,,,,4/8 Partly Cloudy,72000.0,5000.0,SCT,5000.0,,,,,,
KRDR,10-04-2017,11:56,METAR,Normal,280,9,,,9999.0,,7.0,3.4,30.27,1026.0,,,,,,,,,,,,,,.05 IN,,4900.0,4900.0,OVC,4900.0,,,,,,
KRDR,10-04-2017,10:56,METAR,Normal,300,8,,,9999.0,,7.1,3.0,30.25,1025.3,,,,,,,,,,,,,,,,5000.0,5000.0,OVC,5000.0,,,,,,
KRDR,10-04-2017,09:56,METAR,Normal,290,7,,,9999.0,,5.9,1.8,30.25,1025.3,,,,,,,,,,,,,,,,4700.0,4700.0,BKN,4700.0,,,,,,
KRDR,10-04-2017,08:56,METAR,Normal,300,10,,,9999.0,,7.4,3.3,30.24,1024.9,,,,,,,,,,,,,,,,3600.0,3600.0,BKN,3600.0,,,,,,
KRDR,10-04-2017,07:56,METAR,Normal,290,9,,,9999.0,,8.2,4.6,30.22,,,,,,,,,,,,,,,,,3800.0,2800.0,FEW,2800.0,BKN,3800.0,BKN,6500.0,,
KRDR,10-04-2017,06:56,METAR,Normal,280,8,16.0,,9999.0,,8.4,4.4,30.19,,,,,,,,,,,,,,,,,4100.0,4100.0,OVC,4100.0,,,,,,
KRDR,10-04-2017,05:56,METAR,Normal,280,11,,,9999.0,,8.6,3.8,30.19,1023.3,,,,,,,,,,,,,,,,8000.0,8000.0,OVC,8000.0,,,,,,
KRDR,10-04-2017,04:56,METAR,Normal,260,9,,,9999.0,,8.2,3.5,30.18,1023.0,,,,,,,,,,,,,,,,8500.0,8500.0,OVC,8600.0,,,,,,
KRDR,10-04-2017,03:56,METAR,Normal,250,6,,,9999.0,,8.0,3.3,30.18,1023.1,,,,,,,,,,,,,,,,9000.0,9000.0,BKN,9100.0,,,,,,
KRDR,10-04-2017,02:56,METAR,Normal,270,11,,,9999.0,,10.0,2.8,30.17,1022.6,,,,,,,,,,,,,,,,11000.0,11000.0,OVC,11000.0,,,,,,
KRDR,10-04-2017,01:56,METAR,Normal,270,8,,,9999.0,,10.7,2.3,30.16,1022.2,,,,,,,,,,,,,,,,8500.0,8500.0,OVC,8600.0,,,,,,
KRDR,10-04-2017,00:56,METAR,Normal,260,7,,,9999.0,,12.0,1.6,30.14,1021.5,,,,,,,,,,,,,,,,7500.0,7500.0,OVC,7500.0,,,,,,
KRDR,10-03-2017,23:56,METAR,Normal,260,9,,,9999.0,,13.7,1.0,30.12,1020.8,,,,,,,,,,,,,,,,7000.0,7000.0,BKN,7000.0,,,,,,
KRDR,10-03-2017,22:56,METAR,Normal,240,14,,,9999.0,,15.6,1.7,30.11,1020.4,,,,,,,,,,,,,,,Clear,72000.0,,,,,,,,,
KRDR,10-03-2017,21:56,METAR,Normal,240,10,17.0,,9999.0,,16.6,1.8,30.10,1020.0,,,,,,,,,,,,,,,Clear,72000.0,,,,,,,,,
KRDR,10-03-2017,20:56,METAR,Normal,190,12,,,9999.0,,16.3,5.0,30.09,1019.7,,,,,,,,,,,,,,,Clear,72000.0,,,,,,,,,
KRDR,10-03-2017,19:56,METAR,Normal,210,10,,,9999.0,,16.0,9.0,30.10,,,,,,,,,,,,,,,,4/8 Partly Cloudy,72000.0,6000.0,FEW,6000.0,SCT,15000.0,,,,
KRDR,10-03-2017,18:56,METAR,Normal,200,6,,,9999.0,,15.0,7.0,30.15,,,,,,,,,,,,,,,,,15000.0,12000.0,SCT,12000.0,BKN,15000.0,,,,
KRDR,10-03-2017,17:56,METAR,Normal,210,6,,,9999.0,,13.6,5.5,30.11,1020.5,,,,,,,,,,,,,.05 IN,,,10000.0,10000.0,OVC,10000.0,,,,,,
KRDR,10-03-2017,16:56,METAR,Normal,250,3,,,9999.0,,11.0,5.3,30.10,1020.3,,,,,,,,,,,TRACE,,,,,8000.0,6000.0,FEW,6000.0,BKN,8000.0,,,,
KRDR,10-03-2017,16:15,SPECI,Calm,,0,,,9999.0,,9.0,6.0,30.10,1020.4,,,,,,,,,,,,,,,Clear,72000.0,,,,,,,,,
KRDR,10-03-2017,16:09,SPECI,Calm,,0,,,9999.0,Light Drizzle,9.0,6.0,30.09,1020.0,51,,,,,,,,,,,,,,2/8 Mostly Clear,72000.0,3700.0,FEW,3700.0,FEW,4900.0,,,,
KRDR,10-03-2017,16:06,SPECI,Calm,,0,,,9999.0,,9.0,6.0,30.09,1020.0,,,,,,,,,,,,,,,4/8 Partly Cloudy,72000.0,3700.0,FEW,3700.0,SCT,4800.0,,,,
KRDR,10-03-2017,15:56,METAR,Calm,,0,,,9999.0,Light Rain,8.5,6.3,30.09,1020.0,61,,,,,,,,,,.05 IN,,,,,4500.0,3700.0,FEW,3700.0,BKN,4500.0,,,,
KRDR,10-03-2017,15:10,SPECI,Normal,290,8,,,9999.0,Light Drizzle,10.0,3.0,30.08,1019.6,51,,,,,,,,,,,,,,,6000.0,4400.0,SCT,4400.0,BKN,6000.0,,,,
KRDR,10-03-2017,14:56,METAR,Normal,290,9,,,9999.0,,10.2,3.2,30.07,1019.2,,,,,,,,,,,,TRACE,,,,6500.0,4900.0,SCT,4900.0,OVC,6500.0,,,,
KRDR,10-03-2017,13:56,METAR,Normal,290,7,,,9999.0,,9.9,3.4,30.03,1017.8,,,,,,,,,,,TRACE,,,,,6000.0,6000.0,BKN,6000.0,,,,,,
KRDR,10-03-2017,13:48,SPECI,Normal,290,7,,,9999.0,,10.0,4.0,30.03,1017.8,,,,,,,,,,,,,,,,5500.0,5500.0,BKN,5500.0,,,,,,
KRDR,10-03-2017,13:37,SPECI,Normal,290,8,,,9999.0,Light Drizzle,10.0,3.0,30.02,1017.5,51,,,,,,,,,,,,,,,6000.0,6000.0,BKN,6000.0,,,,,,
KRDR,10-03-2017,13:32,SPECI,Normal,280,8,,,9999.0,,10.0,3.0,30.02,1017.5,,,,,,,,,,,,,,,,6000.0,6000.0,BKN,6000.0,,,,,,
KRDR,10-03-2017,13:30,SPECI,Normal,290,7,,,9999.0,Light Drizzle,10.0,3.0,30.02,1017.5,51,,,,,,,,,,,,,,,6000.0,6000.0,BKN,6000.0,,,,,,
KRDR,10-03-2017,13:27,SPECI,Normal,300,7,,,9999.0,,10.0,3.0,30.02,1017.5,,,,,,,,,,,,,,,2/8 Mostly Clear,72000.0,6000.0,FEW,6000.0,,,,,,
KRDR,10-03-2017,13:16,SPECI,Normal,310,8,,,9999.0,Light Drizzle,10.0,2.0,30.02,1017.5,51,,,,,,,,,,,,,,,6000.0,6000.0,OVC,6000.0,,,,,,
KRDR,10-03-2017,12:56,METAR,Normal,300,7,,,9999.0,,10.2,2.8,30.01,1017.1,,,,,,,,,,,,,,,,6000.0,2900.0,FEW,2900.0,OVC,6000.0,,,,
KRDR,10-03-2017,11:56,METAR,Normal,320,5,,,9999.0,,9.5,4.9,29.95,1015.0,,,,,,,,,,,,,,,4/8 Partly Cloudy,72000.0,7500.0,SCT,7500.0,,,,,,
KRDR,10-03-2017,10:56,METAR,Normal,350,5,,,9999.0,,9.5,5.7,29.94,1014.6,,,,,,,,,,,,,,,4/8 Partly Cloudy,72000.0,8000.0,SCT,8000.0,,,,,,
KRDR,10-03-2017,09:56,METAR,Normal,310,5,,,9999.0,,10.4,6.0,29.95,1014.9,,,,,,,,,,,,,,,,8000.0,8000.0,OVC,8000.0,,,,,,
KRDR,10-03-2017,08:56,METAR,Normal,290,4,,,9999.0,,10.3,6.8,29.93,,,,,,,,,,,,,,,,,8500.0,8500.0,OVC,8600.0,,,,,,
KRDR,10-03-2017,07:56,METAR,Normal,270,4,,,9999.0,,9.2,8.1,29.93,,,,,,,,,,,,,,,,,8500.0,8500.0,OVC,8600.0,,,,,,
KRDR,10-03-2017,06:56,METAR,Calm,,0,,,9999.0,,8.8,7.7,29.92,,,,,,,,,,,,,,,,,8500.0,8500.0,OVC,8600.0,,,,,,
KRDR,10-03-2017,05:56,METAR,Calm,,0,,,9999.0,,9.0,7.6,29.91,1013.6,,,,,,,,,,,,,,,,8500.0,8500.0,OVC,8600.0,,,,,,
KRDR,10-03-2017,04:56,METAR,Calm,,0,,,9999.0,,6.8,6.1,29.91,1013.7,,,,,,,,,,,,,,,,8500.0,8500.0,BKN,8600.0,,,,,,
KRDR,10-03-2017,03:56,METAR,Normal,250,3,,,9999.0,,7.3,6.4,29.91,1013.8,,,,,,,,,,,,,,,Clear,72000.0,,,,,,,,,
KRDR,10-03-2017,02:56,METAR,Normal,210,5,,,9999.0,,8.9,6.7,29.93,1014.4,,,,,,,,,,,,,,,Clear,72000.0,,,,,,,,,
KRDR,10-03-2017,01:56,METAR,Normal,210,5,,,9999.0,,11.7,7.6,29.92,1014.0,,,,,,,,,,,,,,,2/8 Mostly Clear,72000.0,11000.0,FEW,11000.0,,,,,,
KRDR,10-03-2017,00:56,METAR,Normal,220,5,,,9999.0,,12.2,7.9,29.90,1013.3,,,,,,,,,,,,,,,,15000.0,12000.0,SCT,12000.0,BKN,15000.0,BKN,19000.0,,
KRDR,10-02-2017,23:56,METAR,Normal,200,6,,,9999.0,,14.5,7.8,29.87,1012.2,,,,,,,,,,,,,,,2/8 Mostly Clear,72000.0,12000.0,FEW,12000.0,,,,,,
KRDR,10-02-2017,22:56,METAR,Normal,220,7,,,9999.0,,15.7,7.5,29.85,1011.5,,,,,,,,,,,,,,,2/8 Mostly Clear,72000.0,13000.0,FEW,13000.0,,,,,,
KRDR,10-02-2017,21:56,METAR,Normal,240,7,,,9999.0,,16.1,7.1,29.83,1010.8,,,,,,,,,,,,,,,2/8 Mostly Clear,72000.0,14000.0,FEW,14000.0,,,,,,
KRDR,10-02-2017,20:56,METAR,Normal,210,8,,,9999.0,,18.0,8.0,29.86,,,,,,,,,,,,,,,,,6000.0,6000.0,BKN,6000.0,BKN,20000.0,,,,
KRDR,10-02-2017,19:56,METAR,Normal,260,8,,,9999.0,,17.0,7.0,29.85,,,,,,,,,,,,,,,,,6000.0,2000.0,FEW,2000.0,BKN,6000.0,BKN,20000.0,,
KRDR,10-02-2017,18:56,METAR,Normal,320,10,,,9999.0,,15.0,10.0,29.85,,,,,,,,,,,,,,,,,6000.0,2000.0,FEW,2000.0,BKN,6000.0,BKN,20000.0,,
KRDR,10-02-2017,17:56,METAR,Normal,260,10,,,9999.0,,15.7,7.5,29.80,1009.7,,,,,,,,,,,,,,,,3300.0,3300.0,OVC,3300.0,,,,,,
KRDR,10-02-2017,17:16,SPECI,Normal,250,12,,,9999.0,,15.0,8.0,29.79,1009.4,,,,,,,,,,,,,,,,3100.0,3100.0,BKN,3100.0,,,,,,
KRDR,10-02-2017,16:56,METAR,Normal,250,10,,,9999.0,,13.9,7.7,29.79,1009.4,,,,,,,,,,,,,,,,2700.0,2700.0,BKN,2700.0,,,,,,
KRDR,10-02-2017,16:51,SPECI,Normal,250,12,,,9999.0,,14.0,8.0,29.79,1009.4,,,,,,,,,,,,,,,,2700.0,2700.0,BKN,2700.0,,,,,,
KRDR,10-02-2017,15:56,METAR,Normal,250,10,,,9999.0,,13.2,8.3,29.76,1008.4,,,,,,,,,,,,,,,2/8 Mostly Clear,72000.0,19000.0,FEW,19000.0,,,,,,
KRDR,10-02-2017,14:56,METAR,Normal,240,13,,,9999.0,,13.4,9.8,29.75,1008.1,,,,,,,,,,,,,,,2/8 Mostly Clear,72000.0,20000.0,FEW,20000.0,,,,,,
KRDR,10-02-2017,13:56,METAR,Normal,210,6,,,9999.0,,12.4,10.1,29.72,1007.1,,,,,,,,,,,,,,,2/8 Mostly Clear,72000.0,10000.0,FEW,10000.0,,,,,,
KRDR,10-02-2017,12:56,METAR,Normal,210,5,,,9999.0,,11.5,9.7,29.70,1006.4,,,,,,,,,,,,,,,4/8 Partly Cloudy,72000.0,9500.0,SCT,9600.0,,,,,,
KRDR,10-02-2017,11:56,METAR,Normal,240,7,,,9999.0,,12.3,10.0,29.70,1006.4,,,,,,,,,,,,,,.18 IN,,9000.0,2500.0,FEW,2500.0,OVC,9100.0,,,,
KRDR,10-02-2017,11:41,SPECI,Normal,240,8,,,9999.0,,13.0,10.0,29.68,1005.7,,,,,,,,,,,,,,,,9000.0,2100.0,SCT,2100.0,OVC,9100.0,,,,
KRDR,10-02-2017,11:11,SPECI,Normal,220,7,,,9999.0,,13.0,12.0,29.67,1005.3,,,,,,,,,,,,,,,,1600.0,1600.0,SCT,1600.0,OVC,2200.0,,,,
KRDR,10-02-2017,10:56,METAR,Normal,210,7,,,9999.0,,12.9,12.0,29.67,1005.3,,,,,,,,,,,,,,,,1600.0,1600.0,OVC,1600.0,,,,,,
KRDR,10-02-2017,10:16,SPECI,Normal,210,5,,,9999.0,,13.0,12.0,29.65,1004.7,,,,,,,,,,,,,,,,1500.0,1500.0,BKN,1500.0,OVC,2300.0,,,,
KRDR,10-02-2017,09:56,METAR,Normal,220,7,,,9999.0,,12.9,11.8,29.65,1004.7,,,,,,,,,,,,,,,,2400.0,2400.0,OVC,2400.0,,,,,,
KRDR,10-02-2017,09:16,SPECI,Normal,220,6,,,9999.0,,13.0,12.0,29.64,1004.3,,,,,,,,,,,,,,,,2800.0,2800.0,BKN,2800.0,,,,,,
KRDR,10-02-2017,08:56,METAR,Normal,190,7,,,9999.0,,12.5,11.9,29.63,1004.0,,,,,,,,,,,,,,,Clear,72000.0,,,,,,,,,
KRDR,10-02-2017,08:26,SPECI,Normal,220,6,,,9999.0,,13.0,12.0,29.63,1004.0,,,,,,,,,,,,,,,4/8 Partly Cloudy,72000.0,1600.0,SCT,1600.0,SCT,2200.0,,,,
KRDR,10-02-2017,08:21,SPECI,Normal,200,6,,,9999.0,,14.0,13.0,29.63,1003.9,,,,,,,,,,,,,,,,1700.0,1600.0,SCT,1600.0,BKN,2100.0,,,,
KRDR,10-02-2017,07:56,METAR,Normal,240,6,,,9999.0,,14.0,12.5,29.64,1004.2,,,,,,,,,,,,,,,,1800.0,1800.0,OVC,1800.0,,,,,,
KRDR,10-02-2017,07:36,SPECI,Normal,230,6,,,9999.0,,14.0,13.0,29.62,1003.6,,,,,,,,,,,,,,,,1400.0,1600.0,OVC,1600.0,,,,,,
KRDR,10-02-2017,07:16,SPECI,Normal,230,8,,,9999.0,,15.0,14.0,29.63,1003.9,,,,,,,,,,,,,,,,1000.0,1300.0,OVC,1300.0,,,,,,
KRDR,10-02-2017,07:06,SPECI,Normal,210,8,,,9999.0,,15.0,14.0,29.62,1003.6,,,,,,,,,,,,,,,,1000.0,1100.0,OVC,1100.0,,,,,,
KRDR,10-02-2017,06:56,METAR,Normal,190,8,,,9999.0,,14.6,14.4,29.62,1003.6,,,,,,,,,,,,,,,,900.0,900.0,OVC,900.0,,,,,,
KRDR,10-02-2017,06:50,SPECI,Normal,190,9,,,9999.0,,15.0,14.0,29.62,1003.6,,,,,,,,,,,,,,,,900.0,900.0,OVC,900.0,,,,,,
KRDR,10-02-2017,06:10,SPECI,Normal,180,7,,,9999.0,,15.0,14.0,29.60,1002.9,,,,,,,,,,,,,,,,1100.0,1100.0,BKN,1100.0,,,,,,
KRDR,10-02-2017,06:01,SPECI,Normal,170,9,,,9999.0,,14.0,14.0,29.61,1003.2,,,,,,,,,,,,,,,,1300.0,1300.0,BKN,1300.0,,,,,,
KRDR,10-02-2017,05:56,METAR,Normal,170,10,,,9999.0,,14.3,14.1,29.61,1003.2,,,,,,,,,,,,,.18 IN,,4/8 Partly Cloudy,72000.0,1300.0,SCT,1300.0,,,,,,
KRDR,10-02-2017,04:56,METAR,Normal,180,8,,,9999.0,,14.7,14.1,29.60,1003.0,,,,,,,,,,,,,,,Clear,72000.0,,,,,,,,,
KRDR,10-02-2017,03:56,METAR,Normal,160,8,,,9999.0,,14.5,14.3,29.60,1003.0,,,,,,,,,,,,,,,,3800.0,1900.0,SCT,1900.0,BKN,3800.0,BKN,9100.0,,
KRDR,10-02-2017,02:56,METAR,Normal,130,5,,,9999.0,,14.2,14.0,29.60,1003.0,,,,,,,,,,,.15 IN,.18 IN,,,4/8 Partly Cloudy,72000.0,1800.0,SCT,1800.0,SCT,3800.0,,,,
KRDR,10-02-2017,02:37,SPECI,Normal,140,6,,,9999.0,,15.0,14.0,29.59,1002.5,,,,,,,,,,,,,,,,1800.0,1900.0,BKN,1900.0,OVC,3900.0,,,,
KRDR,10-02-2017,02:19,SPECI,Normal,150,8,,,9999.0,Dry Thunderstorm,14.0,14.0,29.60,1003.0,91,,,,,,,,,,,,,,,1900.0,1000.0,FEW,1000.0,BKN,1900.0,OVC,3700.0,,
KRDR,10-02-2017,02:12,SPECI,Normal,160,10,,,8000.0,Thunderstorm and Rain or Snow Showers/Mist,14.0,14.0,29.60,1002.9,92,10,,,,,,,,,,,,,,1300.0,900.0,FEW,900.0,OVC,1900.0,,,,
KRDR,10-02-2017,02:07,SPECI,Normal,160,9,,,3600.0,Heavy Thunderstorm and Rain or Snow Showers/Mist,15.0,14.0,29.60,1002.9,95,10,,,,,,,,,,,,,,1100.0,900.0,FEW,900.0,BKN,1800.0,OVC,3300.0,,
KRDR,10-02-2017,02:02,SPECI,Normal,190,6,,,4000.0,Heavy Thunderstorm and Rain or Snow Showers/Mist,15.0,14.0,29.61,1003.2,95,10,,,,,,,,,,,,,,1100.0,1100.0,BKN,1100.0,BKN,1900.0,OVC,3300.0,,
KRDR,10-02-2017,01:57,SPECI,Normal,210,5,,,9999.0,Thunderstorm and Rain or Snow Showers/Mist,15.0,14.0,29.61,1003.2,92,10,,,,,,,,,,,,,,1700.0,1000.0,FEW,1000.0,BKN,1700.0,OVC,3300.0,,
KRDR,10-02-2017,01:56,METAR,Normal,210,4,,,9999.0,Thunderstorm and Rain or Snow Showers,14.7,13.9,29.61,1003.2,92,,,,,,,,,,.03 IN,,,,,1900.0,1300.0,SCT,1300.0,BKN,1900.0,OVC,3300.0,,
KRDR,10-02-2017,01:52,SPECI,Normal,180,4,,,9999.0,Thunderstorm and Rain or Snow Showers,15.0,14.0,29.60,1002.9,92,,,,,,,,,,,,,,,3300.0,1400.0,FEW,1400.0,SCT,1800.0,OVC,3300.0,,
KRDR,10-02-2017,01:50,SPECI,Normal,180,4,,,9999.0,Light Rain,15.0,14.0,29.60,1002.9,61,,,,,,,,,,,,,,,3300.0,2000.0,SCT,2000.0,OVC,3300.0,,,,
KRDR,10-02-2017,00:56,METAR,Normal,170,7,,,9999.0,,14.1,13.5,29.59,1002.6,,,,,,,,,,,,,,,4/8 Partly Cloudy,72000.0,3200.0,FEW,3200.0,SCT,8600.0,,,,
KRDR,10-02-2017,00:41,SPECI,Normal,160,9,,,9999.0,,14.0,14.0,29.58,1002.3,,,,,,,,,,,,,,,,3500.0,2700.0,SCT,2700.0,BKN,3500.0,,,,
KRDR,10-02-2017,00:16,SPECI,Normal,160,9,,,9999.0,,14.0,14.0,29.58,1002.3,,,,,,,,,,,,,,,,1500.0,800.0,FEW,800.0,SCT,1500.0,OVC,2400.0,,
KRDR,10-02-2017,00:06,SPECI,Normal,170,7,,,9999.0,,14.0,14.0,29.59,1002.6,,,,,,,,,,,,,,,,800.0,900.0,SCT,900.0,BKN,1600.0,OVC,2200.0,,
KRDR,10-01-2017,23:56,METAR,Normal,170,8,,,9999.0,,14.2,13.7,29.59,1002.6,,,,,,,,,,,TRACE,,TRACE,,,700.0,800.0,BKN,800.0,OVC,1500.0,,,,
KRDR,10-01-2017,23:51,SPECI,Normal,170,10,,,9999.0,,14.0,14.0,29.59,1002.6,,,,,,,,,,,,,,,,700.0,800.0,BKN,800.0,OVC,1500.0,,,,
KRDR,10-01-2017,23:41,SPECI,Normal,170,10,,,9999.0,Light Rain,14.0,14.0,29.59,1002.6,61,,,,,,,,,,,,,,,600.0,800.0,BKN,800.0,BKN,1300.0,OVC,2100.0,,
KRDR,10-01-2017,23:21,SPECI,Normal,170,11,,,9999.0,,15.0,14.0,29.59,1002.5,,,,,,,,,,,,,,,,800.0,800.0,OVC,800.0,,,,,,
KRDR,10-01-2017,22:56,METAR,Normal,170,13,,,9999.0,,14.9,12.9,29.58,1002.2,,,,,,,,,,,,,,,,1000.0,1100.0,OVC,1100.0,,,,,,
KRDR,10-01-2017,21:56,METAR,Normal,180,12,,,9999.0,,14.7,12.7,29.58,1002.2,,,,,,,,,,,,,,,,1000.0,1000.0,OVC,1000.0,,,,,,
KRDR,10-01-2017,21:27,SPECI,Normal,170,13,,,9999.0,,15.0,13.0,29.58,1002.2,,,,,,,,,,,,,,,,1100.0,1100.0,OVC,1100.0,,,,,,
KRDR,10-01-2017,20:56,METAR,Normal,170,15,,,9999.0,,15.0,12.5,29.58,1002.2,,,,,,,,,,,,,,,,1300.0,1300.0,OVC,1300.0,,,,,,
KRDR,10-01-2017,19:56,METAR,Normal,170,13,,,9999.0,,15.4,12.3,29.59,1002.5,,,,,,,,,,,,,,,,1200.0,1200.0,OVC,1200.0,,,,,,
KRDR,10-01-2017,19:54,SPECI,Normal,170,13,,,9999.0,,15.0,12.0,29.59,1002.5,,,,,,,,,,,,,,,,1200.0,1200.0,OVC,1200.0,,,,,,
KRDR,10-01-2017,18:59,SPECI,Normal,170,16,22.0,,9999.0,,15.0,12.0,29.60,1002.9,,,,,,,,,,,,,,,,1100.0,1100.0,OVC,1100.0,,,,,,
KRDR,10-01-2017,18:56,METAR,Normal,160,12,22.0,,9999.0,,14.8,12.1,29.60,1002.9,,,,,,,,,,,,,,,,1200.0,1200.0,OVC,1200.0,,,,,,
KRDR,10-01-2017,17:56,METAR,Normal,180,17,22.0,140/26KTS,9999.0,,15.0,11.9,29.62,1003.6,,,,,,,,,,,,,,,,1200.0,1200.0,OVC,1200.0,,,,,,
KRDR,10-01-2017,17:16,SPECI,Normal,170,16,22.0,,9999.0,,14.0,12.0,29.63,1003.9,,,,,,,,,,,,,,,,1000.0,1000.0,OVC,1000.0,,,,,,
KRDR,10-01-2017,16:56,METAR,Normal,170,19,23.0,,9999.0,,13.7,11.7,29.64,1004.2,,,,,,,,,,,,,,,,900.0,900.0,OVC,900.0,,,,,,
KRDR,10-01-2017,16:06,SPECI,Normal,160,17,24.0,,9999.0,,14.0,12.0,29.65,1004.6,,,,,,,,,,,,,,,,900.0,900.0,OVC,900.0,,,,,,
KRDR,10-01-2017,15:56,METAR,Normal,170,18,25.0,180/28KTS,9999.0,,13.8,11.7,29.65,1004.6,,,,,,,,,,,,,,,,1100.0,1100.0,OVC,1100.0,,,,,,
KRDR,10-01-2017,15:52,SPECI,Normal,160,15,25.0,,9999.0,,14.0,12.0,29.66,1004.9,,,,,,,,,,,,,,,,1100.0,1100.0,OVC,1100.0,,,,,,
KRDR,10-01-2017,14:56,METAR,Normal,160,18,25.0,160/32KTS,9999.0,,14.3,11.4,29.66,1004.9,,,,,,,,,,,,,,,,1400.0,1400.0,OVC,1400.0,,,,,,
KRDR,10-01-2017,14:31,SPECI,Normal,160,18,32.0,,9999.0,,15.0,12.0,29.66,1004.9,,,,,,,,,,,,,,,,1400.0,1400.0,OVC,1400.0,,,,,,
KRDR,10-01-2017,13:56,METAR,Normal,160,18,26.0,170/31KTS,9999.0,,15.1,12.0,29.67,1005.2,,,,,,,,,,,,,,,,1600.0,1600.0,OVC,1600.0,,,,,,
KRDR,10-01-2017,13:26,SPECI,Normal,160,16,25.0,,9999.0,,15.0,11.0,29.67,1005.2,,,,,,,,,,,,,,,,1800.0,1800.0,BKN,1800.0,,,,,,
KRDR,10-01-2017,12:56,METAR,Normal,160,15,26.0,180/26KTS,9999.0,,14.8,10.4,29.67,1005.2,,,,,,,,,,,,,,,Clear,72000.0,,,,,,,,,
KRDR,10-01-2017,11:56,METAR,Normal,170,15,21.0,,9999.0,,14.5,10.1,29.68,1005.6,,,,,,,,,,,,,,,Clear,72000.0,,,,,,,,,
KRDR,10-01-2017,10:56,METAR,Normal,170,12,,,9999.0,,14.5,10.3,29.69,1005.9,,,,,,,,,,,,,,,Clear,72000.0,,,,,,,,,
KRDR,10-01-2017,09:56,METAR,Normal,170,14,,,9999.0,,14.7,10.3,29.71,1006.5,,,,,,,,,,,,,,,Clear,72000.0,,,,,,,,,
KRDR,10-01-2017,08:56,METAR,Normal,180,15,,,9999.0,,14.9,10.3,29.73,1007.2,,,,,,,,,,,,,,,Clear,72000.0,,,,,,,,,
KRDR,10-01-2017,07:56,METAR,Normal,180,15,20.0,,9999.0,,15.2,10.2,29.76,1008.2,,,,,,,,,,,,,,,Clear,72000.0,,,,,,,,,
KRDR,10-01-2017,06:56,METAR,Normal,180,15,21.0,,9999.0,,15.6,10.4,29.78,1008.8,,,,,,,,,,,,,,,Clear,72000.0,,,,,,,,,
KRDR,10-01-2017,05:56,METAR,Normal,180,16,22.0,,9999.0,,16.0,10.3,29.81,1009.9,,,,,,,,,,,,,,,Clear,72000.0,,,,,,,,,
KRDR,10-01-2017,04:56,METAR,Normal,190,17,24.0,,9999.0,,16.2,9.8,29.82,1010.3,,,,,,,,,,,,,,,Clear,72000.0,,,,,,,,,
KRDR,10-01-2017,03:56,METAR,Normal,180,14,,,9999.0,,16.1,9.7,29.83,1010.7,,,,,,,,,,,,,,,Clear,72000.0,,,,,,,,,
KRDR,10-01-2017,02:56,METAR,Normal,180,17,24.0,,9999.0,,17.1,10.0,29.85,1011.4,,,,,,,,,,,,,,,,4300.0,4300.0,BKN,4300.0,,,,,,
KRDR,10-01-2017,01:56,METAR,Normal,180,19,,170/26KTS,9999.0,,17.9,10.3,29.87,1012.2,,,,,,,,,,,,,,,,3900.0,3900.0,BKN,3900.0,OVC,5000.0,,,,
KRDR,10-01-2017,00:56,METAR,Normal,180,15,,160/26KTS,9999.0,,17.8,9.9,29.88,1012.6,,,,,,,,,,,,,,,,4000.0,4000.0,OVC,4000.0,,,,,,
KRDR,09-30-2017,23:56,METAR,Normal,160,16,22.0,160/29KTS,9999.0,,17.5,9.9,29.87,1012.3,,,,,,,,,,,,,,,,4700.0,4700.0,OVC,4700.0,,,,,,
KRDR,09-30-2017,22:56,METAR,Normal,160,18,28.0,180/28KTS,9999.0,,17.6,9.5,29.89,1013.0,,,,,,,,,,,,,,,,5500.0,5500.0,OVC,5500.0,,,,,,
KRDR,09-30-2017,21:56,METAR,Normal,170,15,30.0,180/30KTS,9999.0,,18.3,9.9,29.91,1013.6,,,,,,,,,,,,,,,,6500.0,6500.0,BKN,6500.0,OVC,8000.0,,,,
KRDR,09-30-2017,20:56,METAR,Normal,150,14,25.0,170/28KTS,9999.0,,19.3,9.8,29.93,1014.3,,,,,,,,,,,,,,,,7500.0,7500.0,BKN,7500.0,OVC,16000.0,,,,
KRDR,09-30-2017,19:56,METAR,Normal,160,14,,,6400.0,,19.4,9.3,29.96,1015.3,,,,,,,,,,,,,,,,,,,,,,,,,
KRDR,09-30-2017,18:56,METAR,Normal,180,17,,,9999.0,,20.0,9.3,30.00,1016.6,,,,,,,,,,,,,,,4/8 Partly Cloudy,72000.0,10000.0,SCT,10000.0,,,,,,
KRDR,09-30-2017,17:56,METAR,Normal,180,17,24.0,,9999.0,,19.5,8.8,30.04,1018.0,,,,,,,,,,,,,,,2/8 Mostly Clear,72000.0,10000.0,FEW,10000.0,,,,,,
KRDR,09-30-2017,16:56,METAR,Normal,180,17,22.0,,9999.0,,16.5,7.7,30.07,1019.1,,,,,,,,,,,,,,,4/8 Partly Cloudy,72000.0,9500.0,SCT,9600.0,,,,,,
KRDR,09-30-2017,15:56,METAR,Normal,180,15,20.0,,9999.0,,14.3,7.3,30.09,1019.9,,,,,,,,,,,,,,,4/8 Partly Cloudy,72000.0,10000.0,FEW,10000.0,SCT,14000.0,,,,
KRDR,09-30-2017,14:56,METAR,Normal,180,14,,,9999.0,,12.7,7.8,30.10,1020.3,,,,,,,,,,,,,,,Clear,72000.0,,,,,,,,,
KRDR,09-30-2017,13:56,METAR,Normal,170,9,,,9999.0,,9.0,7.0,30.13,1021.4,,,,,,,,,,,,,,,,12000.0,12000.0,BKN,12000.0,,,,,,
KRDR,09-30-2017,12:56,METAR,Normal,170,9,,,9999.0,,7.2,5.8,30.15,1022.0,,,,,,,,,,,,,,,4/8 Partly Cloudy,72000.0,11000.0,SCT,11000.0,,,,,,
KRDR,09-30-2017,11:56,METAR,Normal,160,9,,,9999.0,,6.3,5.4,30.17,1022.6,,,,,,,,,,,,,,,Clear,72000.0,,,,,,,,,
KRDR,09-30-2017,10:56,METAR,Normal,150,7,,,9999.0,,5.7,5.0,30.19,1023.3,,,,,,,,,,,,,,,Clear,72000.0,,,,,,,,,
KRDR,09-30-2017,09:56,METAR,Normal,160,7,,,9999.0,,6.2,5.3,30.21,1023.9,,,,,,,,,,,,,,,Clear,72000.0,,,,,,,,,
KRDR,09-30-2017,08:56,METAR,Normal,160,6,,,9999.0,,6.3,5.1,30.22,1024.3,,,,,,,,,,,,,,,Clear,72000.0,,,,,,,,,
KRDR,09-30-2017,07:56,METAR,Normal,150,7,,,9999.0,,6.2,4.7,30.23,1024.6,,,,,,,,,,,,,,,Clear,72000.0,,,,,,,,,
KRDR,09-30-2017,06:56,METAR,Normal,140,7,,,9999.0,,6.4,4.4,30.23,1024.7,,,,,,,,,,,,,,,Clear,72000.0,,,,,,,,,
KRDR,09-30-2017,05:56,METAR,Normal,160,5,,,9999.0,,6.2,4.2,30.24,1025.0,,,,,,,,,,,,,,,Clear,72000.0,,,,,,,,,
KRDR,09-30-2017,04:56,METAR,Normal,150,3,,,9999.0,,6.9,4.7,30.26,1025.7,,,,,,,,,,,,,,,Clear,72000.0,,,,,,,,,
KRDR,09-30-2017,03:56,METAR,Calm,,0,,,9999.0,,6.1,5.1,30.27,1026.2,,,,,,,,,,,,,,,Clear,72000.0,,,,,,,,,
KRDR,09-30-2017,02:56,METAR,Calm,,0,,,9999.0,,5.3,4.4,30.28,1026.6,,,,,,,,,,,,,,,Clear,72000.0,,,,,,,,,
KRDR,09-30-2017,01:56,METAR,Normal,160,4,,,9999.0,,7.7,4.8,30.28,1026.6,,,,,,,,,,,,,,,Clear,72000.0,,,,,,,,,
KRDR,09-30-2017,00:56,METAR,Normal,150,5,,,9999.0,,11.1,5.4,30.28,1026.7,,,,,,,,,,,,,,,Clear,72000.0,,,,,,,,,
KRDR,09-29-2017,23:56,METAR,Normal,130,5,,,9999.0,,13.3,5.7,30.29,1026.9,,,,,,,,,,,,,,,Clear,72000.0,,,,,,,,,
KRDR,09-29-2017,22:56,METAR,Normal,130,6,,,9999.0,,15.4,5.3,30.31,1027.5,,,,,,,,,,,,,,,Clear,72000.0,,,,,,,,,
KRDR,09-29-2017,21:56,METAR,Normal,150,6,,,9999.0,,15.8,5.4,30.32,1027.8,,,,,,,,,,,,,,,Clear,72000.0,,,,,,,,,
KRDR,09-29-2017,20:56,METAR,Normal,160,4,,,9999.0,,15.7,5.6,30.34,1028.4,,,,,,,,,,,,,,,Clear,72000.0,,,,,,,,,
KRDR,09-29-2017,19:56,METAR,Normal,180,3,,,9999.0,,15.9,4.9,30.36,1029.1,,,,,,,,,,,,,,,Clear,72000.0,,,,,,,,,
KRDR,09-29-2017,18:56,METAR,Calm,,0,,,9999.0,,14.8,5.3,30.38,1029.8,,,,,,,,,,,,,,,4/8 Partly Cloudy,72000.0,3700.0,SCT,3700.0,,,,,,
KRDR,09-29-2017,17:56,METAR,Calm,,0,,,9999.0,,13.4,5.5,30.40,1030.5,,,,,,,,,,,,,,,4/8 Partly Cloudy,72000.0,3200.0,SCT,3200.0,,,,,,
KRDR,09-29-2017,16:56,METAR,Calm,,0,,,9999.0,,13.0,6.8,30.41,1030.9,,,,,,,,,,,,,,,Clear,72000.0,,,,,,,,,
KRDR,09-29-2017,15:56,METAR,Calm,,0,,,9999.0,,10.8,6.5,30.41,1030.9,,,,,,,,,,,,,,,Clear,72000.0,,,,,,,,,
KRDR,09-29-2017,14:56,METAR,Calm,,0,,,9999.0,,8.3,5.8,30.41,1031.0,,,,,,,,,,,,,,,Clear,72000.0,,,,,,,,,
KRDR,09-29-2017,13:56,METAR,Normal,330,4,,,9999.0,,5.8,5.7,30.40,1030.6,,,,,,,,,,,,,,,Clear,72000.0,,,,,,,,,
KRDR,09-29-2017,12:56,METAR,Normal,310,4,,,9999.0,,1.2,1.1,30.40,1030.8,,,,,,,,,,,,,,,Clear,72000.0,,,,,,,,,
KRDR,09-29-2017,11:56,METAR,Normal,340,3,,,9999.0,,1.8,1.7,30.38,1029.9,,,,,,,,,,,,,,.01 IN,Clear,72000.0,,,,,,,,,
KRDR,09-29-2017,10:56,METAR,Calm,,0,,,9999.0,,1.8,1.7,30.37,1029.4,,,,,,,,,,,,,,,Clear,72000.0,,,,,,,,,
KRDR,09-29-2017,09:56,METAR,Normal,330,3,,,9999.0,,2.3,1.9,30.35,1028.8,,,,,,,,,,,,,,,Clear,72000.0,,,,,,,,,
KRDR,09-29-2017,08:56,METAR,Normal,360,4,,,9999.0,,3.8,3.5,30.34,1028.3,,,,,,,,,,,,,,,Clear,72000.0,,,,,,,,,
KRDR,09-29-2017,07:56,METAR,Normal,360,4,,,9999.0,,3.7,3.1,30.33,1028.0,,,,,,,,,,,,,,,Clear,72000.0,,,,,,,,,
KRDR,09-29-2017,06:56,METAR,Normal,330,4,,,9999.0,,4.2,3.6,30.32,1027.6,,,,,,,,,,,,,,,Clear,72000.0,,,,,,,,,
KRDR,09-29-2017,05:56,METAR,Normal,340,4,,,9999.0,,5.1,4.5,30.32,1027.6,,,,,,,,,,,,,,,Clear,72000.0,,,,,,,,,
KRDR,09-29-2017,04:56,METAR,Normal,360,4,,,9999.0,,5.7,4.7,30.31,1027.3,,,,,,,,,,,,,,,Clear,72000.0,,,,,,,,,
KRDR,09-29-2017,03:56,METAR,Normal,350,4,,,9999.0,,7.2,5.7,30.30,1027.1,,,,,,,,,,,,,,,Clear,72000.0,,,,,,,,,
KRDR,09-29-2017,02:56,METAR,Normal,10,6,,,9999.0,,7.9,5.5,30.28,,,,,,,,,,,,,,,,Clear,72000.0,,,,,,,,,
KRDR,09-29-2017,01:56,METAR,Normal,10,7,,,9999.0,,10.4,4.7,30.25,,,,,,,,,,,,,,,,Clear,72000.0,,,,,,,,,
KRDR,09-29-2017,00:56,METAR,Normal,360,8,,,9999.0,,11.1,4.3,30.23,1024.6,,,,,,,,,,,,,,,Clear,72000.0,,,,,,,,,
KRDR,09-28-2017,23:56,METAR,Normal,20,11,,,9999.0,,14.6,4.9,30.21,1023.8,,,,,,,,,,,,,,,Clear,72000.0,,,,,,,,,
KRDR,09-28-2017,22:56,METAR,Normal,20,13,,,9999.0,,17.3,6.8,30.19,1023.1,,,,,,,,,,,,,,,Clear,72000.0,,,,,,,,,
KRDR,09-28-2017,21:56,METAR,Normal,20,15,20.0,,9999.0,,18.8,6.6,30.18,1022.7,,,,,,,,,,,,,,,Clear,72000.0,,,,,,,,,
KRDR,09-28-2017,20:56,METAR,Normal,360,15,18.0,,9999.0,,19.7,5.3,30.17,1022.4,,,,,,,,,,,,,,,Clear,72000.0,,,,,,,,,
KRDR,09-28-2017,20:07,SPECI,Normal,20,12,,,9999.0,,21.0,7.0,30.16,1022.0,,,,,,,,,,,,,,,Clear,72000.0,,,,,,,,,
KRDR,09-28-2017,19:56,METAR,Normal,350,10,18.0,,9999.0,,19.8,6.9,30.16,1022.0,,,,,,,,,,,,,,,Clear,72000.0,,,,,,,,,
KRDR,09-28-2017,19:53,SPECI,Normal,340,11,18.0,,9999.0,,20.0,7.0,30.16,1022.0,,,,,,,,,,,,,,,Clear,72000.0,,,,,,,,,
KRDR,09-28-2017,18:56,METAR,Normal,10,12,16.0,,9999.0,,19.4,7.5,30.16,1022.0,,,,,,,,,,,,,,,Clear,72000.0,,,,,,,,,
KRDR,09-28-2017,17:56,METAR,Normal,20,10,,,9999.0,,19.0,8.3,30.16,1022.0,,,,,,,,,,,,,.01 IN,,Clear,72000.0,,,,,,,,,
KRDR,09-28-2017,16:56,METAR,Normal,360,7,,,9999.0,,16.7,8.4,30.16,1022.1,,,,,,,,,,,,,,,Clear,72000.0,,,,,,,,,
KRDR,09-28-2017,15:56,METAR,Normal,340,7,,,9999.0,,13.8,8.8,30.16,1022.2,,,,,,,,,,,,,,,,7500.0,7500.0,BKN,7500.0,,,,,,
KRDR,09-28-2017,14:56,METAR,Normal,310,6,,,9999.0,,12.8,9.8,30.14,1021.4,,,,,,,,,,,.01 IN,.01 IN,,,,7000.0,7000.0,OVC,7000.0,,,,,,
KRDR,09-28-2017,14:20,SPECI,Normal,290,5,,,9999.0,,12.0,9.0,30.13,1021.1,,,,,,,,,,,,,,,4/8 Partly Cloudy,72000.0,5000.0,FEW,5000.0,SCT,7000.0,,,,
KRDR,09-28-2017,13:56,METAR,Normal,300,5,,,9999.0,Light Rain,11.8,8.8,30.12,1020.7,61,,,,,,,,,,TRACE,,,,4/8 Partly Cloudy,72000.0,4300.0,FEW,4300.0,FEW,6000.0,SCT,7500.0,,
KRDR,09-28-2017,13:31,SPECI,Normal,340,4,,,9999.0,Light Rain,11.0,8.0,30.12,1020.7,61,,,,,,,,,,,,,,2/8 Mostly Clear,72000.0,8000.0,FEW,8000.0,,,,,,
KRDR,09-28-2017,13:27,SPECI,Normal,330,4,,,9999.0,,11.0,8.0,30.12,1020.7,,,,,,,,,,,,,,,2/8 Mostly Clear,72000.0,8000.0,FEW,8000.0,,,,,,
KRDR,09-28-2017,13:17,SPECI,Normal,330,3,,,9999.0,Light Rain,11.0,8.0,30.12,1020.7,61,,,,,,,,,,,,,,4/8 Partly Cloudy,72000.0,8000.0,SCT,8000.0,,,,,,
KRDR,09-28-2017,12:56,METAR,Normal,360,4,,,9999.0,,11.9,7.4,30.12,1020.6,,,,,,,,,,,,,,,,8000.0,8000.0,OVC,8000.0,,,,,,
KRDR,09-28-2017,11:56,METAR,Normal,260,4,,,9999.0,,11.3,7.6,30.10,1019.9,,,,,,,,,,,,,,,,8500.0,8500.0,OVC,8600.0,,,,,,
KRDR,09-28-2017,10:56,METAR,Normal,260,6,,,9999.0,,9.6,7.0,30.09,1019.5,,,,,,,,,,,,,,,,7500.0,7500.0,BKN,7500.0,BKN,9600.0,,,,
KRDR,09-28-2017,09:56,METAR,Normal,260,4,,,9999.0,,9.3,7.1,30.10,1019.9,,,,,,,,,,,,,,,Clear,72000.0,,,,,,,,,
KRDR,09-28-2017,08:56,METAR,Normal,260,5,,,9999.0,,8.0,6.5,30.10,1019.9,,,,,,,,,,,,,,,Clear,72000.0,,,,,,,,,
KRDR,09-28-2017,07:56,METAR,Normal,270,4,,,9999.0,,8.4,6.5,30.10,1019.9,,,,,,,,,,,,,,,2/8 Mostly Clear,72000.0,17000.0,FEW,17000.0,,,,,,
KRDR,09-28-2017,06:56,METAR,Normal,300,8,,,9999.0,,9.9,6.8,30.10,1019.9,,,,,,,,,,,,,,,,17000.0,17000.0,BKN,17000.0,,,,,,
KRDR,09-28-2017,05:56,METAR,Normal,290,5,,,9999.0,,10.2,7.3,30.10,1019.9,,,,,,,,,,,,,,,,19000.0,19000.0,OVC,19000.0,,,,,,
KRDR,09-28-2017,04:56,METAR,Normal,310,6,,,9999.0,,9.9,7.3,30.10,1020.0,,,,,,,,,,,,,,,Clear,72000.0,,,,,,,,,
KRDR,09-28-2017,03:56,METAR,Normal,300,6,,,9999.0,,10.9,7.9,30.10,1020.0,,,,,,,,,,,,,,,2/8 Mostly Clear,72000.0,22000.0,FEW,22000.0,,,,,,
KRDR,09-28-2017,02:56,METAR,Normal,280,6,,,9999.0,,12.0,8.3,30.10,1020.1,,,,,,,,,,,,,,,2/8 Mostly Clear,72000.0,22000.0,FEW,22000.0,,,,,,
KRDR,09-28-2017,01:56,METAR,Normal,320,6,,,9999.0,,16.1,9.0,30.09,1019.7,,,,,,,,,,,,,,,4/8 Partly Cloudy,72000.0,7000.0,FEW,7000.0,SCT,9100.0,,,,
KRDR,09-28-2017,00:56,METAR,Normal,300,6,,,9999.0,,17.0,9.4,30.07,1019.1,,,,,,,,,,,,,,,,7500.0,7500.0,BKN,7500.0,OVC,9600.0,,,,
KRDR,09-27-2017,23:56,METAR,Normal,310,7,,,9999.0,,19.8,9.4,30.07,1019.0,,,,,,,,,,,,,,,,6000.0,6000.0,BKN,6000.0,OVC,8000.0,,,,
KRDR,09-27-2017,22:56,METAR,Normal,300,10,,,9999.0,,21.3,9.2,30.06,1018.6,,,,,,,,,,,,,,,,9000.0,9000.0,BKN,9100.0,,,,,,
KRDR,09-27-2017,21:56,METAR,Normal,320,10,,,9999.0,,21.9,9.1,30.07,1019.0,,,,,,,,,,,,,,,2/8 Mostly Clear,72000.0,5500.0,FEW,5500.0,,,,,,
KRDR,09-27-2017,20:56,METAR,Normal,310,9,,,9999.0,,21.8,9.3,30.07,1018.8,,,,,,,,,,,,,,,2/8 Mostly Clear,72000.0,5000.0,FEW,5000.0,,,,,,
KRDR,09-27-2017,19:56,METAR,Normal,290,11,,,9999.0,,21.9,9.1,30.07,1018.9,,,,,,,,,,,,,,,Clear,72000.0,,,,,,,,,
KRDR,09-27-2017,18:56,METAR,Normal,290,10,,,9999.0,,20.9,8.5,30.08,1019.2,,,,,,,,,,,,,,,Clear,72000.0,,,,,,,,,
KRDR,09-27-2017,17:56,METAR,Normal,290,10,,,9999.0,,19.8,8.8,30.10,1020.0,,,,,,,,,,,,,,,Clear,72000.0,,,,,,,,,
KRDR,09-27-2017,16:56,METAR,Normal,270,7,,,9999.0,,18.2,8.2,30.11,1020.4,,,,,,,,,,,,,,,Clear,72000.0,,,,,,,,,
KRDR,09-27-2017,15:56,METAR,Normal,270,8,,,9999.0,,16.9,8.1,30.11,1020.5,,,,,,,,,,,,,,,Clear,72000.0,,,,,,,,,
KRDR,09-27-2017,14:56,METAR,Normal,270,8,,,9999.0,,12.5,7.6,30.12,1021.0,,,,,,,,,,,,,,,,7500.0,7500.0,BKN,7500.0,,,,,,
KRDR,09-27-2017,13:56,METAR,Normal,250,5,,,9999.0,,11.1,7.8,30.12,1021.1,,,,,,,,,,,,,,,,7500.0,7500.0,BKN,7500.0,,,,,,
KRDR,09-27-2017,12:56,METAR,Normal,230,5,,,9999.0,,7.0,6.3,30.12,1021.1,,,,,,,,,,,,,,,Clear,72000.0,,,,,,,,,
KRDR,09-27-2017,11:56,METAR,Normal,260,5,,,9999.0,,6.3,5.9,30.12,1021.1,,,,,,,,,,,,,,.75 IN,Clear,72000.0,,,,,,,,,
KRDR,09-27-2017,10:56,METAR,Normal,260,6,,,9999.0,,7.3,6.2,30.11,1020.7,,,,,,,,,,,,,,,Clear,72000.0,,,,,,,,,
KRDR,09-27-2017,09:56,METAR,Normal,260,6,,,9999.0,,6.3,5.6,30.11,1020.7,,,,,,,,,,,,,,,Clear,72000.0,,,,,,,,,
KRDR,09-27-2017,08:56,METAR,Normal,230,4,,,9999.0,,9.0,7.1,30.11,1020.6,,,,,,,,,,,,,,,,7000.0,5500.0,FEW,5500.0,OVC,7000.0,,,,
KRDR,09-27-2017,07:56,METAR,Normal,220,4,,,9999.0,,8.7,7.2,30.12,1020.9,,,,,,,,,,,,,,,,7000.0,4200.0,FEW,4200.0,OVC,7000.0,,,,
KRDR,09-27-2017,06:56,METAR,Normal,220,5,,,9999.0,,8.5,7.4,30.13,1021.3,,,,,,,,,,,,,,,,3900.0,3900.0,OVC,3900.0,,,,,,
KRDR,09-27-2017,05:56,METAR,Normal,230,5,,,9999.0,,7.9,7.1,30.13,1021.3,,,,,,,,,,,,,,,,5000.0,4300.0,FEW,4300.0,BKN,5000.0,OVC,7000.0,,
KRDR,09-27-2017,04:56,METAR,Normal,220,3,,,9999.0,,7.3,6.9,30.13,1021.4,,,,,,,,,,,,,,,,7000.0,7000.0,OVC,7000.0,,,,,,
KRDR,09-27-2017,03:56,METAR,Normal,230,5,,,9999.0,,5.1,5.0,30.13,1021.5,,,,,,,,,,,,,,,,7000.0,7000.0,OVC,7000.0,,,,,,
KRDR,09-27-2017,02:56,METAR,Normal,270,4,,,9999.0,,4.9,4.6,30.12,1021.1,,,,,,,,,,,,,,,4/8 Partly Cloudy,72000.0,6500.0,SCT,6500.0,,,,,,
KRDR,09-27-2017,01:56,METAR,Normal,270,4,,,9999.0,,5.5,4.8,30.12,,,,,,,,,,,,,,,,Clear,72000.0,,,,,,,,,
KRDR,09-27-2017,00:56,METAR,Normal,320,4,,,9999.0,,7.6,5.2,30.11,,,,,,,,,,,,,,,,Clear,72000.0,,,,,,,,,
KRDR,09-27-2017,00:21,SPECI,Normal,340,4,,,9999.0,,9.0,6.0,30.10,1020.3,,,,,,,,,,,,,,,,3200.0,2500.0,SCT,2500.0,BKN,3200.0,,,,
KRDR,09-26-2017,23:56,METAR,Normal,350,4,,,9999.0,,10.1,6.4,30.10,1020.3,,,,,,,,,,,,,.08 IN,,,2800.0,2800.0,BKN,2800.0,,,,,,
KRDR,09-26-2017,23:46,SPECI,Normal,360,6,,,9999.0,,10.0,6.0,30.10,1020.3,,,,,,,,,,,,,,,,2700.0,2800.0,OVC,2800.0,,,,,,
KRDR,09-26-2017,23:21,SPECI,Normal,10,6,,,9999.0,,10.0,7.0,30.09,1020.0,,,,,,,,,,,,,,,,3200.0,2400.0,SCT,2400.0,OVC,3200.0,,,,
KRDR,09-26-2017,23:16,SPECI,Normal,360,6,,,9999.0,,10.0,6.0,30.09,1020.0,,,,,,,,,,,,,,,,2300.0,2300.0,BKN,2300.0,OVC,3200.0,,,,
KRDR,09-26-2017,23:01,SPECI,Normal,330,9,,,9999.0,,11.0,6.0,30.09,1019.9,,,,,,,,,,,,,,,,3100.0,2500.0,SCT,2500.0,OVC,3100.0,,,,
KRDR,09-26-2017,22:56,METAR,Normal,340,7,,,9999.0,,10.6,5.6,30.09,1019.9,,,,,,,,,,,,,,,,2500.0,2500.0,BKN,2500.0,BKN,3400.0,OVC,4400.0,,
KRDR,09-26-2017,22:51,SPECI,Normal,340,8,,,9999.0,,11.0,6.0,30.09,1019.9,,,,,,,,,,,,,,,,2500.0,2500.0,BKN,2500.0,OVC,4100.0,,,,
KRDR,09-26-2017,22:21,SPECI,Normal,350,7,,,9999.0,,11.0,6.0,30.09,1019.9,,,,,,,,,,,,,,,,3200.0,1900.0,FEW,1900.0,SCT,2300.0,OVC,3200.0,,
KRDR,09-26-2017,21:56,METAR,Normal,340,7,,,9999.0,,11.1,7.0,30.08,1019.6,,,,,,,,,,,,,,,,2800.0,1900.0,SCT,1900.0,BKN,2800.0,OVC,4700.0,,
KRDR,09-26-2017,21:06,SPECI,Normal,320,9,,,9999.0,,11.0,7.0,30.08,1019.6,,,,,,,,,,,,,,,,3000.0,1600.0,SCT,1600.0,OVC,3000.0,,,,
KRDR,09-26-2017,20:56,METAR,Normal,330,11,,,9999.0,,10.9,6.8,30.08,1019.6,,,,,,,,,,,,.08 IN,,,,1600.0,1600.0,BKN,1600.0,OVC,3700.0,,,,
KRDR,09-26-2017,20:44,SPECI,Normal,330,11,16.0,,9999.0,,11.0,8.0,30.08,1019.6,,,,,,,,,,,,,,,,1500.0,1600.0,BKN,1600.0,OVC,3600.0,,,,
KRDR,09-26-2017,20:29,SPECI,Normal,320,11,,,9999.0,,11.0,7.0,30.08,1019.6,,,,,,,,,,,,,,,,1500.0,1500.0,BKN,1500.0,OVC,3500.0,,,,
KRDR,09-26-2017,20:24,SPECI,Normal,340,11,,,9999.0,,11.0,8.0,30.08,1019.6,,,,,,,,,,,,,,,,3500.0,1000.0,FEW,1000.0,SCT,1500.0,OVC,3500.0,,
KRDR,09-26-2017,20:14,SPECI,Normal,320,11,,,9999.0,,11.0,8.0,30.08,1019.6,,,,,,,,,,,,,,,,1000.0,1000.0,SCT,1000.0,BKN,1500.0,OVC,3400.0,,
KRDR,09-26-2017,20:11,SPECI,Normal,340,12,,,9999.0,,11.0,8.0,30.08,1019.6,,,,,,,,,,,,,,,,1200.0,1200.0,BKN,1200.0,OVC,3400.0,,,,
KRDR,09-26-2017,19:56,METAR,Normal,320,11,,,9999.0,,10.7,9.5,30.08,1019.6,,,,,,,,,,,TRACE,,,,,800.0,1000.0,BKN,1000.0,BKN,1600.0,OVC,3700.0,,
KRDR,09-26-2017,19:51,SPECI,Normal,330,9,,,9999.0,,11.0,10.0,30.08,1019.6,,,,,,,,,,,,,,,,800.0,800.0,BKN,800.0,BKN,1600.0,OVC,3700.0,,
KRDR,09-26-2017,19:45,SPECI,Normal,330,12,,,9999.0,Light Rain,11.0,10.0,30.08,1019.6,61,,,,,,,,,,,,,,,700.0,800.0,BKN,800.0,OVC,3700.0,,,,
KRDR,09-26-2017,19:40,SPECI,Normal,340,9,,,9999.0,Light Rain,11.0,9.0,30.08,1019.6,61,,,,,,,,,,,,,,,3000.0,800.0,SCT,800.0,BKN,3000.0,OVC,3800.0,,
KRDR,09-26-2017,19:30,SPECI,Normal,330,11,,,9999.0,Light Rain,10.0,10.0,30.08,1019.6,61,,,,,,,,,,,,,,,700.0,700.0,BKN,700.0,BKN,3000.0,OVC,4000.0,,
KRDR,09-26-2017,19:15,SPECI,Normal,330,9,,,9999.0,Light Drizzle,10.0,10.0,30.08,1019.6,51,,,,,,,,,,,,,,,3100.0,700.0,FEW,700.0,BKN,3100.0,OVC,4000.0,,
KRDR,09-26-2017,19:00,SPECI,Normal,330,9,,,9999.0,Light Rain,10.0,9.0,30.08,1019.6,61,,,,,,,,,,,,,,,2700.0,700.0,FEW,700.0,BKN,2700.0,OVC,3200.0,,
KRDR,09-26-2017,18:56,METAR,Normal,340,10,,,9999.0,Light Rain,9.3,9.0,30.08,1019.6,61,,,,,,,,,,.08 IN,,,,,2500.0,2500.0,BKN,2500.0,OVC,3200.0,,,,
KRDR,09-26-2017,18:36,SPECI,Normal,350,8,,,9999.0,Light Rain,9.0,9.0,30.09,1020.0,61,,,,,,,,,,,,,,,700.0,700.0,SCT,700.0,OVC,2300.0,,,,
KRDR,09-26-2017,18:26,SPECI,Normal,340,8,,,9999.0,Rain,9.0,9.0,30.09,1020.0,62,,,,,,,,,,,,,,,700.0,700.0,BKN,700.0,OVC,2100.0,,,,
KRDR,09-26-2017,17:56,METAR,Normal,330,8,,,9999.0,Light Rain,9.1,8.9,30.09,1020.0,61,,,,,,,,,,.12 IN,,.67 IN,,,600.0,600.0,OVC,600.0,,,,,,
KRDR,09-26-2017,17:46,SPECI,Normal,330,8,,,9999.0,Light Rain,9.0,9.0,30.09,1020.0,61,,,,,,,,,,,,,,,600.0,600.0,BKN,600.0,OVC,1800.0,,,,
KRDR,09-26-2017,16:56,METAR,Normal,320,7,,,9999.0,Rain/Mist,8.9,8.7,30.10,1020.3,62,10,,,,,,,,,.19 IN,,,,,500.0,500.0,OVC,500.0,,,,,,
KRDR,09-26-2017,15:56,METAR,Normal,320,6,,,9999.0,Rain,8.8,8.6,30.09,1019.9,62,,,,,,,,,,.13 IN,,,,,500.0,500.0,OVC,500.0,,,,,,
KRDR,09-26-2017,15:01,SPECI,Normal,340,8,,,9999.0,Rain,9.0,9.0,30.08,1019.6,62,,,,,,,,,,,,,,,500.0,500.0,OVC,500.0,,,,,,
KRDR,09-26-2017,14:56,METAR,Normal,360,5,,,9999.0,Light Rain,9.0,9.0,30.09,,61,,,,,,,,,,.11 IN,.23 IN,,,,500.0,600.0,OVC,600.0,,,,,,
KRDR,09-26-2017,14:26,SPECI,Normal,340,6,,,9999.0,Light Rain,9.0,9.0,30.09,,61,,,,,,,,,,,,,,,500.0,500.0,OVC,500.0,,,,,,
KRDR,09-26-2017,14:04,SPECI,Normal,360,7,,,9999.0,Light Rain,9.0,9.0,30.08,,61,,,,,,,,,,,,,,,500.0,500.0,OVC,500.0,,,,,,
KRDR,09-26-2017,13:56,METAR,Normal,10,9,,,9999.0,Rain,9.0,9.0,30.08,,62,,,,,,,,,,.08 IN,,,,,500.0,2000.0,OVC,2000.0,,,,,,
KRDR,09-26-2017,13:41,SPECI,Normal,360,9,,,9999.0,Light Rain,9.0,9.0,30.08,,61,,,,,,,,,,,,,,,500.0,500.0,BKN,500.0,,,,,,
KRDR,09-26-2017,13:31,SPECI,Normal,10,8,,,9999.0,Light Rain,9.0,9.0,30.08,,61,,,,,,,,,,,,,,,500.0,800.0,OVC,800.0,,,,,,
KRDR,09-26-2017,12:56,METAR,Normal,360,7,,,9999.0,Light Rain,9.0,9.0,30.09,,61,,,,,,,,,,.04 IN,,,,,500.0,600.0,OVC,600.0,,,,,,
KRDR,09-26-2017,11:56,METAR,Normal,360,8,,,9999.0,Light Rain,8.9,8.7,30.07,1019.2,61,,,,,,,,,,.02 IN,,.04 IN,.04 IN,,500.0,500.0,OVC,500.0,,,,,,
KRDR,09-26-2017,11:36,SPECI,Normal,360,9,,,9999.0,Light Rain,9.0,9.0,30.06,1018.9,61,,,,,,,,,,,,,,,400.0,500.0,OVC,500.0,,,,,,
KRDR,09-26-2017,10:56,METAR,Normal,10,8,,,9999.0,Light Rain,8.9,8.7,30.05,1018.5,61,,,,,,,,,,.01 IN,,,,,500.0,500.0,OVC,500.0,,,,,,
KRDR,09-26-2017,10:51,SPECI,Normal,10,8,,,9999.0,Light Rain,9.0,9.0,30.05,1018.5,61,,,,,,,,,,,,,,,500.0,500.0,OVC,500.0,,,,,,
KRDR,09-26-2017,10:01,SPECI,Normal,360,7,,,9999.0,Light Rain,9.0,9.0,30.07,1019.2,61,,,,,,,,,,,,,,,700.0,700.0,OVC,700.0,,,,,,
KRDR,09-26-2017,09:56,METAR,Normal,360,7,,,9999.0,Light Drizzle,9.0,8.8,30.07,1019.2,51,,,,,,,,,,.01 IN,,,,,600.0,600.0,BKN,600.0,,,,,,
KRDR,09-26-2017,09:54,SPECI,Normal,360,7,,,9999.0,Light Drizzle,9.0,9.0,30.07,1019.2,51,,,,,,,,,,,,,,,600.0,600.0,BKN,600.0,,,,,,
KRDR,09-26-2017,09:47,SPECI,Normal,360,8,,,9999.0,,9.0,9.0,30.07,1019.2,,,,,,,,,,,,,,,,600.0,600.0,BKN,600.0,,,,,,
KRDR,09-26-2017,09:42,SPECI,Normal,360,7,,,9999.0,,9.0,9.0,30.08,1019.6,,,,,,,,,,,,,,,,,600.0,SCT,600.0,,,,,,
KRDR,09-26-2017,09:30,SPECI,Normal,10,5,,,9999.0,Light Rain,9.0,9.0,30.08,1019.6,61,,,,,,,,,,,,,,,,700.0,FEW,700.0,SCT,2600.0,,,,
KRDR,09-26-2017,09:21,SPECI,Normal,10,5,,,9999.0,Light Rain,9.0,9.0,30.08,1019.6,61,,,,,,,,,,,,,,,,2600.0,SCT,2600.0,,,,,,
KRDR,09-26-2017,08:56,METAR,Normal,10,6,,,9999.0,Light Rain,9.2,8.7,30.08,1019.6,61,,,,,,,,,,TRACE,TRACE,,,,2400.0,2700.0,BKN,2700.0,BKN,3400.0,,,,
KRDR,09-26-2017,08:45,SPECI,Normal,10,6,,,9999.0,Light Rain,9.0,9.0,30.08,1019.6,61,,,,,,,,,,,,,,,2400.0,2700.0,BKN,2700.0,OVC,3300.0,,,,
KRDR,09-26-2017,07:56,METAR,Normal,360,5,,,9999.0,,9.4,8.8,30.09,1019.9,,,,,,,,,,,,,,,,700.0,700.0,SCT,700.0,SCT,1600.0,OVC,2300.0,,
KRDR,09-26-2017,07:51,SPECI,Normal,360,6,,,9999.0,,9.0,9.0,30.09,1019.9,,,,,,,,,,,,,,,,700.0,700.0,SCT,700.0,BKN,1500.0,OVC,2300.0,,
KRDR,09-26-2017,07:46,SPECI,Normal,10,6,,,9999.0,,9.0,9.0,30.10,1020.2,,,,,,,,,,,,,,,,700.0,700.0,BKN,700.0,BKN,1600.0,OVC,2300.0,,
KRDR,09-26-2017,07:31,SPECI,Normal,10,7,,,9999.0,,10.0,9.0,30.10,1020.2,,,,,,,,,,,,,,,,800.0,800.0,BKN,800.0,OVC,2200.0,,,,
KRDR,09-26-2017,07:21,SPECI,Normal,20,8,,,9999.0,,10.0,9.0,30.09,1019.8,,,,,,,,,,,,,,,,2200.0,800.0,FEW,800.0,OVC,2200.0,,,,
KRDR,09-26-2017,07:01,SPECI,Normal,10,5,,,9999.0,,10.0,9.0,30.10,1020.2,,,,,,,,,,,,,,,,2100.0,2300.0,BKN,2300.0,OVC,3000.0,,,,
KRDR,09-26-2017,06:56,METAR,Normal,10,7,,,9999.0,,9.5,8.7,30.10,1020.2,,,,,,,,,,,,,,,,3000.0,2300.0,SCT,2300.0,OVC,3000.0,,,,
KRDR,09-26-2017,06:51,SPECI,Normal,360,5,,,9999.0,,10.0,9.0,30.10,1020.2,,,,,,,,,,,,,,,,3000.0,1400.0,FEW,1400.0,SCT,2500.0,OVC,3000.0,,
KRDR,09-26-2017,05:56,METAR,Normal,20,8,,,9999.0,,9.8,8.4,30.09,1019.9,,,,,,,,,,,,,,,,2700.0,2700.0,OVC,2700.0,,,,,,
KRDR,09-26-2017,05:26,SPECI,Normal,20,7,,,9999.0,,10.0,8.0,30.10,1020.2,,,,,,,,,,,,,,,,2400.0,2900.0,BKN,2900.0,BKN,3600.0,,,,
KRDR,09-26-2017,05:01,SPECI,Normal,20,5,,,9999.0,,10.0,8.0,30.10,1020.2,,,,,,,,,,,,,,,,2300.0,2300.0,BKN,2300.0,OVC,3100.0,,,,
KRDR,09-26-2017,04:56,METAR,Normal,20,6,,,9999.0,,9.8,7.9,30.10,1020.2,,,,,,,,,,,,,,,,3000.0,2300.0,SCT,2300.0,OVC,3000.0,,,,
KRDR,09-26-2017,03:56,METAR,Normal,10,6,,,9999.0,,10.1,7.3,30.11,1020.6,,,,,,,,,,,,,,,,3200.0,3200.0,OVC,3200.0,,,,,,
KRDR,09-26-2017,03:46,SPECI,Normal,10,6,,,9999.0,,10.0,7.0,30.11,1020.6,,,,,,,,,,,,,,,,3000.0,3000.0,OVC,3000.0,,,,,,
KRDR,09-26-2017,02:56,METAR,Normal,10,7,,,9999.0,,10.1,7.5,30.11,1020.6,,,,,,,,,,,,,,,,2400.0,2600.0,OVC,2600.0,,,,,,
KRDR,09-26-2017,01:56,METAR,Normal,10,5,,,9999.0,,10.1,7.7,30.12,1021.0,,,,,,,,,,,,,,,,2700.0,2700.0,OVC,2700.0,,,,,,
KRDR,09-26-2017,01:21,SPECI,Normal,20,6,,,9999.0,,10.0,8.0,30.12,1021.0,,,,,,,,,,,,,,,,2900.0,2900.0,OVC,2900.0,,,,,,
KRDR,09-26-2017,00:56,METAR,Normal,360,6,,,9999.0,,10.2,7.6,30.13,,,,,,,,,,,,,,,,,3000.0,3000.0,OVC,3000.0,,,,,,
KRDR,09-26-2017,00:41,SPECI,Normal,350,5,,,9999.0,,10.0,8.0,30.13,,,,,,,,,,,,,,,,,3000.0,3000.0,OVC,3000.0,,,,,,
KRDR,09-25-2017,23:56,METAR,Normal,360,6,,,9999.0,,10.7,7.6,30.13,,,,,,,,,,,,,,,,,2300.0,2300.0,OVC,2300.0,,,,,,
KRDR,09-25-2017,22:56,METAR,Normal,10,10,,,9999.0,,11.0,7.7,30.12,,,,,,,,,,,,,,,,,2000.0,2000.0,OVC,2000.0,,,,,,
KRDR,09-25-2017,22:36,SPECI,Normal,20,9,,,9999.0,,11.0,8.0,30.13,,,,,,,,,,,,,,,,,2000.0,2000.0,OVC,2000.0,,,,,,
KRDR,09-25-2017,22:16,SPECI,Normal,20,9,,,9999.0,,11.0,8.0,30.12,,,,,,,,,,,,,,,,,1800.0,1800.0,OVC,1800.0,,,,,,
KRDR,09-25-2017,22:01,SPECI,Normal,40,10,,,9999.0,,11.0,7.0,30.11,,,,,,,,,,,,,,,,,1800.0,2000.0,OVC,2000.0,,,,,,
KRDR,09-25-2017,21:56,METAR,Normal,50,11,,,9999.0,,11.0,7.3,30.11,,,,,,,,,,,,,,,,,1800.0,1800.0,OVC,1800.0,,,,,,
KRDR,09-25-2017,21:06,SPECI,Normal,20,10,,,9999.0,,11.0,7.0,30.13,,,,,,,,,,,,,,,,,1700.0,1800.0,OVC,1800.0,,,,,,
KRDR,09-25-2017,21:01,SPECI,Normal,30,11,,,9999.0,,11.0,7.0,30.13,,,,,,,,,,,,,,,,,1700.0,2000.0,OVC,2000.0,,,,,,
KRDR,09-25-2017,20:56,METAR,Normal,30,12,,,9999.0,,11.3,7.2,30.13,,,,,,,,,,,,,,,,,1900.0,1900.0,OVC,1900.0,,,,,,
KRDR,09-25-2017,19:56,METAR,Normal,40,13,,,9999.0,,11.6,7.1,30.12,,,,,,,,,,,,,,,,,1900.0,1900.0,OVC,1900.0,,,,,,
KRDR,09-25-2017,18:56,METAR,Normal,20,10,,,9999.0,,10.9,6.8,30.13,,,,,,,,,,,,,,,,,1800.0,1800.0,OVC,1800.0,,,,,,
KRDR,09-25-2017,17:56,METAR,Normal,20,8,,,9999.0,,10.6,6.9,30.14,,,,,,,,,,,,,,,,,1600.0,1600.0,OVC,1600.0,,,,,,
KRDR,09-25-2017,16:56,METAR,Normal,20,11,,,9999.0,,10.0,6.7,30.14,,,,,,,,,,,,,,,,,1500.0,1600.0,OVC,1600.0,,,,,,
KRDR,09-25-2017,16:11,SPECI,Normal,30,11,,,9999.0,,9.0,7.0,30.14,,,,,,,,,,,,,,,,,1500.0,1500.0,OVC,1500.0,,,,,,
KRDR,09-25-2017,15:56,METAR,Normal,10,9,,,9999.0,,9.3,6.6,30.14,,,,,,,,,,,,,,,,,1400.0,1400.0,OVC,1400.0,,,,,,
KRDR,09-25-2017,15:11,SPECI,Normal,30,14,,,9999.0,,9.0,7.0,30.13,,,,,,,,,,,,,,,,,1400.0,1400.0,OVC,1400.0,,,,,,
KRDR,09-25-2017,14:56,METAR,Normal,20,12,,,9999.0,,9.5,7.4,30.12,,,,,,,,,,,,,,,,,1400.0,1500.0,BKN,1500.0,,,,,,
KRDR,09-25-2017,14:51,SPECI,Normal,20,10,,,9999.0,,9.0,7.0,30.12,,,,,,,,,,,,,,,,,1500.0,1500.0,BKN,1500.0,,,,,,
KRDR,09-25-2017,14:46,SPECI,Normal,10,12,,,9999.0,,9.0,7.0,30.12,,,,,,,,,,,,,,,,4/8 Partly Cloudy,72000.0,1700.0,SCT,1700.0,,,,,,
KRDR,09-25-2017,14:21,SPECI,Normal,10,11,,,9999.0,,9.0,7.0,30.13,,,,,,,,,,,,,,,,,1400.0,1500.0,OVC,1500.0,,,,,,
KRDR,09-25-2017,14:06,SPECI,Normal,360,10,15.0,,9999.0,,9.0,7.0,30.13,,,,,,,,,,,,,,,,,1400.0,1400.0,OVC,1400.0,,,,,,
KRDR,09-25-2017,14:01,SPECI,Normal,10,10,,,9999.0,,9.0,7.0,30.13,,,,,,,,,,,,,,,,,1400.0,1500.0,OVC,1500.0,,,,,,
KRDR,09-25-2017,13:56,METAR,Normal,360,10,,,9999.0,,8.6,7.1,30.13,,,,,,,,,,,,,,,,,1400.0,1500.0,BKN,1500.0,OVC,2100.0,,,,
KRDR,09-25-2017,13:41,SPECI,Normal,360,10,,,9999.0,,9.0,7.0,30.13,,,,,,,,,,,,,,,,,1900.0,1900.0,BKN,1900.0,,,,,,
KRDR,09-25-2017,12:56,METAR,Normal,360,5,,,9999.0,,9.0,8.0,30.15,,,,,,,,,,,,,,,,,2000.0,2100.0,OVC,2100.0,,,,,,
KRDR,09-25-2017,11:56,METAR,Normal,10,6,,,9999.0,,9.0,8.0,30.13,,,,,,,,,,,,,,.01 IN,.46 IN,,2200.0,2200.0,OVC,2200.0,,,,,,
KRDR,09-25-2017,10:56,METAR,Normal,10,6,,,9999.0,,9.0,8.0,30.10,,,,,,,,,,,,,,,,,2300.0,1400.0,FEW,1400.0,OVC,2300.0,,,,
KRDR,09-25-2017,09:56,METAR,Normal,360,7,,,9999.0,,9.0,9.0,30.10,,,,,,,,,,,,,,,,,2300.0,1400.0,FEW,1400.0,OVC,2300.0,,,,
KRDR,09-25-2017,09:06,SPECI,Normal,360,8,,,9999.0,,10.0,9.0,30.09,,,,,,,,,,,,,,,,,1900.0,2000.0,OVC,2000.0,,,,,,
KRDR,09-25-2017,08:56,METAR,Normal,360,9,,,9999.0,,10.0,9.0,30.08,,,,,,,,,,,,TRACE,.01 IN,,,,1600.0,1600.0,OVC,1600.0,,,,,,
KRDR,09-25-2017,08:50,SPECI,Normal,360,10,,,9999.0,,10.0,9.0,30.08,,,,,,,,,,,,,,,,,1600.0,700.0,FEW,700.0,FEW,1000.0,OVC,1600.0,,
KRDR,09-25-2017,08:35,SPECI,Normal,10,9,18.0,,9999.0,Light Rain,10.0,10.0,30.07,,61,,,,,,,,,,,,,,,600.0,800.0,SCT,800.0,OVC,1600.0,,,,
KRDR,09-25-2017,08:25,SPECI,Normal,10,12,,,9999.0,Light Rain,10.0,10.0,30.07,,61,,,,,,,,,,,,,,,700.0,800.0,SCT,800.0,OVC,1700.0,,,,
KRDR,09-25-2017,08:15,SPECI,Normal,10,8,,,9999.0,Light Drizzle,10.0,10.0,30.07,,51,,,,,,,,,,,,,,,1400.0,600.0,FEW,600.0,BKN,1700.0,OVC,2200.0,,
KRDR,09-25-2017,08:07,SPECI,Normal,10,7,,,9999.0,,10.0,10.0,30.07,,,,,,,,,,,,,,,,,600.0,700.0,SCT,700.0,OVC,1900.0,,,,
KRDR,09-25-2017,08:02,SPECI,Normal,10,9,,,9999.0,,10.0,10.0,30.07,,,,,,,,,,,,,,,,,600.0,600.0,BKN,600.0,OVC,1700.0,,,,
KRDR,09-25-2017,07:56,METAR,Normal,10,9,,,9999.0,Light Drizzle,10.0,10.0,30.06,,51,,,,,,,,,,.01 IN,,,,,600.0,600.0,BKN,600.0,OVC,1700.0,,,,
KRDR,09-25-2017,07:31,SPECI,Normal,10,10,,,9999.0,Light Rain,10.0,10.0,30.06,,61,,,,,,,,,,,,,,,600.0,700.0,OVC,700.0,,,,,,
KRDR,09-25-2017,07:26,SPECI,Normal,10,6,,,9999.0,Light Rain,10.0,10.0,30.06,,61,,,,,,,,,,,,,,,600.0,600.0,BKN,600.0,OVC,1100.0,,,,
KRDR,09-25-2017,07:16,SPECI,Normal,360,6,,,9999.0,Light Drizzle,10.0,10.0,30.07,,51,,,,,,,,,,,,,,,800.0,800.0,BKN,800.0,BKN,1100.0,OVC,2200.0,,
KRDR,09-25-2017,07:11,SPECI,Normal,10,7,,,9999.0,Light Drizzle,10.0,10.0,30.07,,51,,,,,,,,,,,,,,,1000.0,1000.0,BKN,1000.0,OVC,2200.0,,,,
KRDR,09-25-2017,07:01,SPECI,Normal,360,6,,,9999.0,,10.0,10.0,30.07,,,,,,,,,,,,,,,,,600.0,1000.0,BKN,1000.0,OVC,2200.0,,,,
KRDR,09-25-2017,06:56,METAR,Normal,360,8,,,9999.0,,10.0,10.0,30.07,,,,,,,,,,,,TRACE,,,,,600.0,700.0,SCT,700.0,BKN,1200.0,OVC,2200.0,,
KRDR,09-25-2017,06:42,SPECI,Normal,10,6,,,9999.0,,10.0,10.0,30.06,,,,,,,,,,,,,,,,,600.0,600.0,BKN,600.0,OVC,1200.0,,,,
KRDR,09-25-2017,06:40,SPECI,Normal,10,7,,,9999.0,Light Rain,10.0,10.0,30.06,,61,,,,,,,,,,,,,,,600.0,600.0,BKN,600.0,OVC,1200.0,,,,
KRDR,09-25-2017,06:25,SPECI,Normal,360,7,,,9999.0,Light Drizzle,10.0,10.0,30.05,,51,,,,,,,,,,,,,,,500.0,700.0,OVC,700.0,,,,,,
KRDR,09-25-2017,06:17,SPECI,Normal,340,6,,,9999.0,,10.0,10.0,30.05,,,,,,,,,,,,,,,,,500.0,700.0,OVC,700.0,,,,,,
KRDR,09-25-2017,06:16,SPECI,Normal,340,6,,,9999.0,Light Drizzle,10.0,10.0,30.05,,51,,,,,,,,,,,,,,,500.0,700.0,OVC,700.0,,,,,,
KRDR,09-25-2017,06:06,SPECI,Normal,350,7,,,9999.0,Light Drizzle,10.0,10.0,30.04,,51,,,,,,,,,,,,,,,400.0,600.0,BKN,600.0,OVC,1000.0,,,,
KRDR,09-25-2017,06:01,SPECI,Normal,350,8,,,9999.0,Light Drizzle,10.0,9.0,30.04,,51,,,,,,,,,,,,,,,600.0,700.0,OVC,700.0,,,,,,
KRDR,09-25-2017,05:56,METAR,Normal,350,7,,,9999.0,Light Drizzle,10.0,9.0,30.04,,51,,,,,,,,,,TRACE,,TRACE,,,600.0,800.0,OVC,800.0,,,,,,
KRDR,09-25-2017,05:37,SPECI,Normal,360,8,,,9999.0,Light Drizzle,10.0,10.0,30.04,,51,,,,,,,,,,,,,,,600.0,800.0,BKN,800.0,OVC,1300.0,,,,
KRDR,09-25-2017,05:22,SPECI,Normal,350,8,,,9999.0,,10.0,10.0,30.03,,,,,,,,,,,,,,,,,600.0,800.0,BKN,800.0,OVC,1500.0,,,,
KRDR,09-25-2017,05:02,SPECI,Normal,350,8,,,9999.0,,10.0,10.0,30.04,,,,,,,,,,,,,,,,,600.0,700.0,BKN,700.0,OVC,1100.0,,,,
KRDR,09-25-2017,04:56,METAR,Normal,350,8,,,9999.0,Light Drizzle,10.0,10.0,30.04,,51,,,,,,,,,,TRACE,,,,,600.0,700.0,BKN,700.0,OVC,1100.0,,,,
KRDR,09-25-2017,04:52,SPECI,Normal,350,6,,,9999.0,Light Drizzle,10.0,10.0,30.04,,51,,,,,,,,,,,,,,,600.0,900.0,OVC,900.0,,,,,,
KRDR,09-25-2017,04:51,SPECI,Normal,350,8,,,9999.0,,10.0,10.0,30.04,,,,,,,,,,,,,,,,,600.0,900.0,OVC,900.0,,,,,,
KRDR,09-25-2017,04:16,SPECI,Normal,340,8,,,9999.0,,10.0,10.0,30.03,,,,,,,,,,,,,,,,,700.0,700.0,BKN,700.0,OVC,1300.0,,,,
KRDR,09-25-2017,04:01,SPECI,Normal,330,7,,,9999.0,,10.0,10.0,30.03,,,,,,,,,,,,,,,,,600.0,800.0,OVC,800.0,,,,,,
KRDR,09-25-2017,03:56,METAR,Normal,330,8,,,9999.0,,10.0,10.0,30.03,,,,,,,,,,,,,,,,,600.0,600.0,BKN,600.0,OVC,1100.0,,,,
KRDR,09-25-2017,03:46,SPECI,Normal,330,8,,,9999.0,,10.0,10.0,30.03,,,,,,,,,,,,,,,,,600.0,600.0,BKN,600.0,OVC,1000.0,,,,
KRDR,09-25-2017,03:31,SPECI,Normal,330,7,,,9999.0,,10.0,10.0,30.03,,,,,,,,,,,,,,,,,700.0,700.0,BKN,700.0,OVC,1400.0,,,,
KRDR,09-25-2017,03:06,SPECI,Normal,330,9,,,9999.0,,10.0,10.0,30.02,,,,,,,,,,,,,,,,,700.0,800.0,OVC,800.0,,,,,,
KRDR,09-25-2017,02:56,METAR,Normal,330,7,,,9999.0,,10.0,10.0,30.02,,,,,,,,,,,,,,,,,600.0,700.0,BKN,700.0,OVC,1200.0,,,,
KRDR,09-25-2017,02:51,SPECI,Normal,340,7,,,9999.0,,10.0,9.0,30.02,,,,,,,,,,,,,,,,,600.0,700.0,BKN,700.0,OVC,1200.0,,,,
KRDR,09-25-2017,02:46,SPECI,Normal,340,11,,,9999.0,,10.0,9.0,30.01,,,,,,,,,,,,,,,,,600.0,700.0,BKN,700.0,OVC,1200.0,,,,
KRDR,09-25-2017,02:31,SPECI,Normal,340,9,,,9999.0,,10.0,9.0,30.01,,,,,,,,,,,,,,,,,600.0,800.0,BKN,800.0,OVC,1500.0,,,,
KRDR,09-25-2017,01:56,METAR,Normal,350,11,,,9999.0,,10.0,9.0,30.00,,,,,,,,,,,,,,,,,1100.0,1100.0,OVC,1100.0,,,,,,
KRDR,09-25-2017,01:46,SPECI,Normal,340,12,,,9999.0,,10.0,9.0,30.00,,,,,,,,,,,,,,,,,1100.0,1100.0,OVC,1100.0,,,,,,
KRDR,09-25-2017,01:27,SPECI,Normal,340,9,,,9999.0,,10.0,9.0,29.99,,,,,,,,,,,,,,,,,1100.0,1200.0,OVC,1200.0,,,,,,
KRDR,09-25-2017,01:17,SPECI,Normal,350,10,,,9999.0,,10.0,9.0,29.98,,,,,,,,,,,,,,,,,1100.0,1100.0,BKN,1100.0,OVC,1700.0,,,,
KRDR,09-25-2017,01:07,SPECI,Normal,350,11,,,9999.0,,11.0,10.0,29.97,,,,,,,,,,,,,,,,,1200.0,1200.0,BKN,1200.0,OVC,1700.0,,,,
KRDR,09-25-2017,00:57,SPECI,Normal,350,12,,,9999.0,,11.0,10.0,29.98,,,,,,,,,,,,,,,,,1100.0,1100.0,OVC,1100.0,,,,,,
KRDR,09-25-2017,00:56,METAR,Normal,340,12,,,9999.0,,11.0,10.0,29.98,,,,,,,,,,,,,,,,,1200.0,1300.0,OVC,1300.0,,,,,,
KRDR,09-24-2017,23:56,METAR,Normal,360,12,,,9999.0,,12.0,12.0,29.96,,,,,,,,,,,,,,.1 IN,,,1200.0,1300.0,OVC,1300.0,,,,,,
KRDR,09-24-2017,22:56,METAR,Normal,350,15,19.0,,9999.0,,12.0,12.0,29.94,,,,,,,,,,,,,,,,,1000.0,1100.0,OVC,1100.0,,,,,,
KRDR,09-24-2017,22:11,SPECI,Normal,10,13,19.0,,9999.0,,12.0,12.0,29.91,,,,,,,,,,,,,,,,,800.0,1000.0,OVC,1000.0,,,,,,
KRDR,09-24-2017,21:56,METAR,Normal,10,12,,,9999.0,,12.0,12.0,29.91,,,,,,,,,,,,.02 IN,,,,,700.0,700.0,BKN,700.0,OVC,1400.0,,,,
KRDR,09-24-2017,21:41,SPECI,Normal,350,12,21.0,,9999.0,,12.0,12.0,29.93,,,,,,,,,,,,,,,,,600.0,700.0,BKN,700.0,OVC,1400.0,,,,
KRDR,09-24-2017,21:37,SPECI,Normal,350,15,21.0,,9999.0,Light Drizzle,12.0,12.0,29.93,,51,,,,,,,,,,,,,,,600.0,700.0,BKN,700.0,OVC,1400.0,,,,
KRDR,09-24-2017,20:56,METAR,Normal,340,12,,,9999.0,Light Rain,12.0,12.0,29.93,,61,,,,,,,,,,.01 IN,.08 IN,,,,800.0,800.0,OVC,800.0,,,,,,
KRDR,09-24-2017,19:56,METAR,Normal,350,11,17.0,,9999.0,Light Rain,12.0,12.0,29.91,,61,,,,,,,,,,.02 IN,,,,,700.0,800.0,OVC,800.0,,,,,,
KRDR,09-24-2017,19:13,SPECI,Normal,10,10,,,9999.0,Light Rain,12.0,12.0,29.90,,61,,,,,,,,,,,,,,,700.0,800.0,OVC,800.0,,,,,,
KRDR,09-24-2017,18:56,METAR,Normal,360,12,16.0,,9999.0,Light Rain,,,29.89,,61,,,,,,,,,,.05 IN,,,,,700.0,700.0,BKN,700.0,OVC,1300.0,,,,
KRDR,09-24-2017,17:56,METAR,Normal,350,10,,,6400.0,Heavy Rain,12.0,12.0,29.91,,63,,,,,,,,,,.08 IN,,.35 IN,,,600.0,700.0,OVC,700.0,,,,,,
KRDR,09-24-2017,16:56,METAR,Normal,10,14,17.0,,9999.0,Rain,11.0,11.0,29.88,,62,,,,,,,,,,.05 IN,,,,,500.0,700.0,OVC,700.0,,,,,,
KRDR,09-24-2017,16:41,SPECI,Normal,10,13,,,9999.0,Light Rain,11.0,11.0,29.89,,61,,,,,,,,,,,,,,,500.0,700.0,OVC,700.0,,,,,,
KRDR,09-24-2017,16:36,SPECI,Normal,10,13,,,9999.0,Light Rain,11.0,11.0,29.88,,61,,,,,,,,,,,,,,,400.0,500.0,BKN,500.0,OVC,900.0,,,,
KRDR,09-24-2017,16:06,SPECI,Normal,20,12,,,4800.0,Light Rain,11.0,11.0,29.89,,61,,,,,,,,,,,,,,,400.0,500.0,SCT,500.0,OVC,900.0,,,,
KRDR,09-24-2017,15:56,METAR,Normal,10,10,,,3200.0,Rain,11.0,11.0,29.90,,62,,,,,,,,,,.09 IN,,,,,500.0,700.0,OVC,700.0,,,,,,
KRDR,09-24-2017,15:46,SPECI,Normal,10,11,,,4400.0,Rain,,,29.90,,62,,,,,,,,,,,,,,,500.0,600.0,OVC,600.0,,,,,,
KRDR,09-24-2017,15:41,SPECI,Normal,10,8,,,6400.0,Rain,,,29.90,,62,,,,,,,,,,,,,,,500.0,600.0,OVC,600.0,,,,,,
KRDR,09-24-2017,14:56,METAR,Normal,20,12,,,9999.0,Light Rain,10.0,10.0,29.88,,61,,,,,,,,,,.02 IN,.13 IN,,,,500.0,500.0,OVC,500.0,,,,,,
KRDR,09-24-2017,13:56,METAR,Normal,20,13,19.0,,9999.0,Light Rain,10.0,10.0,29.89,,61,,,,,,,,,,.03 IN,,,,,500.0,500.0,OVC,500.0,,,,,,
KRDR,09-24-2017,12:59,METAR,Normal,10,10,,,6400.0,Rain,10.0,10.0,29.92,,,,,63,,,,,,,.08 IN,,,,,500.0,500.0,OVC,500.0,,,,,,
KRDR,09-24-2017,12:51,SPECI,Normal,20,12,,,8000.0,Rain,10.0,10.0,29.92,,62,,,,,,,,,,,,,,,500.0,500.0,OVC,500.0,,,,,,
KRDR,09-24-2017,12:21,SPECI,Normal,30,12,19.0,,9999.0,Light Rain,10.0,10.0,29.92,,61,,,,,,,,,,,,,,,500.0,600.0,OVC,600.0,,,,,,
KRDR,09-24-2017,12:11,SPECI,Normal,30,14,,,9999.0,Light Rain,10.0,10.0,29.91,,61,,,,,,,,,,,,,,,500.0,500.0,OVC,500.0,,,,,,
KRDR,09-24-2017,11:56,METAR,Normal,10,12,,,9999.0,Rain,10.0,10.0,29.93,,62,,,,,,,,,,.11 IN,,.46 IN,.51 IN,,500.0,600.0,OVC,600.0,,,,,,
KRDR,09-24-2017,10:56,METAR,Normal,10,11,,,8000.0,Rain,10.0,10.0,29.93,,62,,,,,,,,,,.16 IN,,,,,400.0,600.0,OVC,600.0,,,,,,
KRDR,09-24-2017,09:56,METAR,Normal,10,12,17.0,,9999.0,Rain,11.0,11.0,29.95,,62,,,,,,,,,,.08 IN,,,,,400.0,600.0,OVC,600.0,,,,,,
KRDR,09-24-2017,09:31,SPECI,Normal,10,10,,,8000.0,Rain,11.0,11.0,29.96,,62,,,,,,,,,,,,,,,400.0,600.0,OVC,600.0,,,,,,
KRDR,09-24-2017,08:26,SPECI,Normal,20,12,,,9999.0,Light Rain,11.0,11.0,29.96,,61,,,,,,,,,,,,,,,400.0,400.0,OVC,400.0,,,,,,
KRDR,09-24-2017,08:17,SPECI,Normal,20,12,,,9999.0,,11.0,11.0,29.96,,,,,,,,,,,,,,,,,400.0,500.0,OVC,500.0,,,,,,
KRDR,09-24-2017,07:56,METAR,Normal,20,11,,,8000.0,Light Rain,11.0,11.0,29.96,,61,,,,,,,,,,.06 IN,,,,,400.0,500.0,OVC,500.0,,,,,,
KRDR,09-24-2017,07:36,SPECI,Normal,10,12,,,9999.0,Rain,11.0,11.0,29.97,,62,,,,,,,,,,,,,,,400.0,500.0,OVC,500.0,,,,,,
KRDR,09-24-2017,07:11,SPECI,Normal,20,10,,,9999.0,Light Rain,11.0,11.0,29.98,,61,,,,,,,,,,,,,,,400.0,400.0,OVC,400.0,,,,,,
KRDR,09-24-2017,06:56,METAR,Normal,20,9,,,9999.0,Light Rain,11.2,11.0,29.98,1016.0,61,,,,,,,,,,.03 IN,,,,,400.0,500.0,OVC,500.0,,,,,,
KRDR,09-24-2017,06:52,SPECI,Normal,30,10,,,9999.0,Light Rain,11.0,11.0,29.97,1015.6,61,,,,,,,,,,,,,,,400.0,400.0,BKN,400.0,OVC,800.0,,,,
KRDR,09-24-2017,06:37,SPECI,Normal,40,9,,,9999.0,Light Rain,11.0,11.0,29.97,1015.6,61,,,,,,,,,,,,,,,500.0,400.0,FEW,400.0,BKN,1100.0,OVC,1700.0,,
KRDR,09-24-2017,06:27,SPECI,Normal,20,10,,,9999.0,Light Rain,11.0,11.0,29.97,1015.6,61,,,,,,,,,,,,,,,1200.0,500.0,SCT,500.0,BKN,1200.0,OVC,1900.0,,
KRDR,09-24-2017,06:17,SPECI,Normal,30,9,,,9999.0,Light Rain,11.0,11.0,29.99,1016.3,61,,,,,,,,,,,,,,,1900.0,600.0,FEW,600.0,OVC,1900.0,,,,
KRDR,09-24-2017,05:56,METAR,Normal,40,7,,,9999.0,Light Rain,11.2,11.0,30.00,1016.6,61,,,,,,,,,,.01 IN,,.05 IN,,,1900.0,1900.0,OVC,1900.0,,,,,,
KRDR,09-24-2017,05:52,SPECI,Normal,40,8,,,9999.0,Light Rain,11.0,11.0,30.00,1016.6,61,,,,,,,,,,,,,,,1900.0,1900.0,OVC,1900.0,,,,,,
KRDR,09-24-2017,05:27,SPECI,Normal,30,8,,,9999.0,Light Rain,11.0,11.0,30.01,1017.0,61,,,,,,,,,,,,,,,2000.0,2100.0,OVC,2100.0,,,,,,
KRDR,09-24-2017,05:20,SPECI,Normal,30,9,,,9999.0,,11.0,11.0,30.02,1017.3,,,,,,,,,,,,,,,,2000.0,2100.0,OVC,2100.0,,,,,,
KRDR,09-24-2017,04:56,METAR,Normal,30,9,,,9999.0,Light Rain,11.2,10.9,30.01,1017.0,61,,,,,,,,,,.04 IN,,,,,2100.0,2100.0,OVC,2100.0,,,,,,
KRDR,09-24-2017,03:58,SPECI,Normal,20,8,,,9999.0,Light Rain,11.0,10.0,30.03,1017.7,61,,,,,,,,,,,,,,,2600.0,2600.0,OVC,2600.0,,,,,,
KRDR,09-24-2017,03:56,METAR,Normal,20,8,,,9999.0,,11.4,10.1,30.02,1017.4,,,,,,,,,,,TRACE,,,,,2600.0,2700.0,OVC,2700.0,,,,,,
KRDR,09-24-2017,03:44,SPECI,Normal,30,10,,,9999.0,,11.0,10.0,30.01,1017.0,,,,,,,,,,,,,,,,2700.0,2700.0,OVC,2700.0,,,,,,
KRDR,09-24-2017,03:26,SPECI,Normal,30,10,,,9999.0,Light Rain,12.0,10.0,30.02,1017.4,61,,,,,,,,,,,,,,,2800.0,2800.0,OVC,2800.0,,,,,,
KRDR,09-24-2017,03:00,SPECI,Normal,30,13,,,9999.0,,12.0,10.0,30.02,1017.4,,,,,,,,,,,,,,,,2800.0,2800.0,OVC,2800.0,,,,,,
KRDR,09-24-2017,02:56,METAR,Normal,40,13,,,9999.0,Light Rain,11.8,10.0,30.02,1017.4,61,,,,,,,,,,TRACE,TRACE,,,,2800.0,2800.0,OVC,2800.0,,,,,,
KRDR,09-24-2017,02:29,SPECI,Normal,30,10,,,9999.0,Light Rain,13.0,9.0,30.04,1018.1,61,,,,,,,,,,,,,,,2700.0,2800.0,OVC,2800.0,,,,,,
KRDR,09-24-2017,02:01,SPECI,Normal,30,13,,,9999.0,,13.0,9.0,30.02,1017.4,,,,,,,,,,,,,,,,2900.0,2900.0,OVC,2900.0,,,,,,
KRDR,09-24-2017,01:56,METAR,Normal,30,13,,,9999.0,,13.1,9.0,30.03,1017.7,,,,,,,,,,,TRACE,,,,,3000.0,3000.0,OVC,3000.0,,,,,,
KRDR,09-24-2017,01:48,SPECI,Normal,20,13,,,9999.0,,13.0,9.0,30.03,1017.7,,,,,,,,,,,,,,,,3000.0,3000.0,OVC,3000.0,,,,,,
KRDR,09-24-2017,01:33,SPECI,Normal,20,11,,,9999.0,Light Drizzle,14.0,9.0,30.04,1018.1,51,,,,,,,,,,,,,,,3100.0,3100.0,OVC,3100.0,,,,,,
KRDR,09-24-2017,00:56,METAR,Normal,20,8,,,9999.0,,14.0,8.8,30.06,1018.8,,,,,,,,,,,,,,,,3200.0,3200.0,OVC,3200.0,,,,,,
KRDR,09-23-2017,23:56,METAR,Normal,10,8,,,9999.0,,14.7,8.9,30.07,1019.0,,,,,,,,,,,,,,,,3200.0,3200.0,OVC,3200.0,,,,,,
KRDR,09-23-2017,22:56,METAR,Normal,20,11,,,9999.0,,15.2,8.4,30.05,1018.4,,,,,,,,,,,,,,,,3200.0,3200.0,OVC,3200.0,,,,,,
KRDR,09-23-2017,22:26,SPECI,Normal,20,9,,,9999.0,,16.0,9.0,30.06,1018.7,,,,,,,,,,,,,,,,3100.0,3100.0,OVC,3100.0,,,,,,
KRDR,09-23-2017,22:16,SPECI,Normal,20,8,,,9999.0,,16.0,9.0,30.07,1019.0,,,,,,,,,,,,,,,,2900.0,2900.0,OVC,2900.0,,,,,,
KRDR,09-23-2017,21:56,METAR,Normal,30,6,,,9999.0,,15.9,8.6,30.07,1019.0,,,,,,,,,,,,,,,,3000.0,3000.0,OVC,3000.0,,,,,,
KRDR,09-23-2017,21:41,SPECI,Normal,20,10,,,9999.0,,16.0,9.0,30.06,1018.7,,,,,,,,,,,,,,,,3000.0,3000.0,OVC,3000.0,,,,,,
KRDR,09-23-2017,21:21,SPECI,Normal,20,12,,,9999.0,,16.0,9.0,30.05,1018.4,,,,,,,,,,,,,,,,2900.0,2900.0,BKN,2900.0,BKN,3800.0,,,,
KRDR,09-23-2017,20:56,METAR,Normal,10,10,,,9999.0,,16.1,9.0,30.04,1018.0,,,,,,,,,,,,,,,,4000.0,4000.0,OVC,4000.0,,,,,,
KRDR,09-23-2017,20:01,SPECI,Normal,360,10,,,9999.0,,16.0,9.0,30.05,1018.4,,,,,,,,,,,,,,,,4000.0,2700.0,SCT,2700.0,OVC,4000.0,,,,
KRDR,09-23-2017,19:56,METAR,Normal,360,13,,,9999.0,,16.1,8.6,30.05,1018.4,,,,,,,,,,,,,,,,2600.0,2600.0,BKN,2600.0,OVC,4000.0,,,,
KRDR,09-23-2017,19:11,SPECI,Normal,20,11,15.0,,9999.0,,16.0,9.0,30.06,1018.6,,,,,,,,,,,,,,,,2500.0,2600.0,BKN,2600.0,OVC,4000.0,,,,
KRDR,09-23-2017,18:56,METAR,Normal,10,10,,,9999.0,,15.6,8.8,30.06,1018.6,,,,,,,,,,,,,,,,3900.0,2400.0,FEW,2400.0,OVC,3900.0,,,,
KRDR,09-23-2017,17:56,METAR,Normal,20,11,17.0,,9999.0,,14.8,8.9,30.05,1018.4,,,,,,,,,,,,,,,,3600.0,2200.0,SCT,2200.0,OVC,3600.0,,,,
KRDR,09-23-2017,17:11,SPECI,Normal,10,13,,,9999.0,,14.0,9.0,30.05,1018.4,,,,,,,,,,,,,,,,3400.0,2000.0,FEW,2000.0,SCT,2700.0,OVC,3400.0,,
KRDR,09-23-2017,16:56,METAR,Normal,10,11,16.0,,9999.0,,13.7,8.5,30.06,1018.7,,,,,,,,,,,,,,,,2700.0,2100.0,FEW,2100.0,BKN,2700.0,OVC,3400.0,,
KRDR,09-23-2017,16:26,SPECI,Normal,360,10,,,9999.0,,14.0,8.0,30.06,1018.7,,,,,,,,,,,,,,,,2800.0,2100.0,FEW,2100.0,BKN,2800.0,OVC,3500.0,,
KRDR,09-23-2017,16:11,SPECI,Normal,360,11,,,9999.0,,14.0,8.0,30.04,1018.0,,,,,,,,,,,,,,,,3500.0,2900.0,SCT,2900.0,OVC,3500.0,,,,
KRDR,09-23-2017,15:56,METAR,Normal,360,13,,,9999.0,,13.2,8.3,30.05,1018.4,,,,,,,,,,,,,,,,2800.0,2800.0,OVC,2800.0,,,,,,
KRDR,09-23-2017,14:56,METAR,Normal,10,8,,,9999.0,,12.2,7.9,30.03,1017.7,,,,,,,,,,,,,,,,2500.0,2500.0,OVC,2500.0,,,,,,
KRDR,09-23-2017,13:56,METAR,Normal,350,11,,,9999.0,,11.0,7.9,30.02,1017.4,,,,,,,,,,,,,,,,2200.0,2300.0,OVC,2300.0,,,,,,
KRDR,09-23-2017,12:56,METAR,Normal,340,7,,,9999.0,,10.4,7.8,30.03,1017.7,,,,,,,,,,,,,,,,2000.0,2100.0,OVC,2100.0,,,,,,
KRDR,09-23-2017,12:36,SPECI,Normal,350,8,,,9999.0,,10.0,8.0,30.00,1016.7,,,,,,,,,,,,,,,,2000.0,2100.0,OVC,2100.0,,,,,,
KRDR,09-23-2017,11:56,METAR,Normal,340,13,,,9999.0,,10.3,7.7,29.98,1016.0,,,,,,,,,,,,,TRACE,.04 IN,,1500.0,1500.0,OVC,1500.0,,,,,,
KRDR,09-23-2017,10:56,METAR,Normal,360,10,,,9999.0,,10.2,8.0,29.95,1014.8,,,,,,,,,,,,,,,,1500.0,1600.0,OVC,1600.0,,,,,,
KRDR,09-23-2017,10:01,SPECI,Normal,350,9,,,9999.0,,10.0,9.0,29.96,1015.1,,,,,,,,,,,,,,,,1300.0,1500.0,OVC,1500.0,,,,,,
KRDR,09-23-2017,09:56,METAR,Normal,340,8,,,9999.0,,10.2,8.6,29.97,1015.4,,,,,,,,,,,,,,,,1300.0,1300.0,OVC,1300.0,,,,,,
KRDR,09-23-2017,09:31,SPECI,Normal,10,11,,,9999.0,,10.0,9.0,29.93,1014.1,,,,,,,,,,,,,,,,1100.0,1200.0,OVC,1200.0,,,,,,
KRDR,09-23-2017,09:21,SPECI,Normal,360,12,,,9999.0,,10.0,9.0,29.92,1013.8,,,,,,,,,,,,,,,,700.0,1000.0,OVC,1000.0,,,,,,
KRDR,09-23-2017,09:16,SPECI,Normal,360,9,,,9999.0,,10.0,10.0,29.92,1013.8,,,,,,,,,,,,,,,,800.0,800.0,OVC,800.0,,,,,,
KRDR,09-23-2017,08:56,METAR,Normal,350,7,,,9999.0,,9.9,9.7,29.93,1014.1,,,,,,,,,,,TRACE,TRACE,,,,600.0,700.0,OVC,700.0,,,,,,
KRDR,09-23-2017,08:54,SPECI,Normal,350,8,,,9999.0,,10.0,10.0,29.93,1014.1,,,,,,,,,,,,,,,,600.0,700.0,OVC,700.0,,,,,,
KRDR,09-23-2017,08:34,SPECI,Normal,350,10,,,9999.0,,10.0,10.0,29.93,1014.1,,,,,,,,,,,,,,,,600.0,600.0,OVC,600.0,,,,,,
KRDR,09-23-2017,08:24,SPECI,Normal,360,13,18.0,,9999.0,,10.0,10.0,29.92,1013.8,,,,,,,,,,,,,,,,700.0,800.0,OVC,800.0,,,,,,
KRDR,09-23-2017,08:18,SPECI,Normal,340,13,17.0,,9999.0,Light Drizzle,10.0,10.0,29.92,1013.8,51,,,,,,,,,,,,,,,800.0,800.0,OVC,800.0,,,,,,
KRDR,09-23-2017,08:16,SPECI,Normal,340,10,17.0,,9999.0,,10.0,10.0,29.92,1013.8,,,,,,,,,,,,,,,,800.0,800.0,OVC,800.0,,,,,,
KRDR,09-23-2017,08:14,SPECI,Normal,350,13,19.0,,9999.0,Light Drizzle,10.0,10.0,29.92,1013.8,51,,,,,,,,,,,,,,,800.0,800.0,OVC,800.0,,,,,,
KRDR,09-23-2017,08:08,SPECI,Normal,340,11,19.0,,9999.0,,10.0,10.0,29.92,1013.8,,,,,,,,,,,,,,,,700.0,800.0,OVC,800.0,,,,,,
KRDR,09-23-2017,07:56,METAR,Normal,330,11,,,9999.0,Light Drizzle,10.0,9.5,29.93,1014.1,51,,,,,,,,,,TRACE,,,,,700.0,800.0,OVC,800.0,,,,,,
KRDR,09-23-2017,07:22,SPECI,Normal,360,12,,,9999.0,Light Drizzle,11.0,9.0,29.92,1013.7,51,,,,,,,,,,,,,,,900.0,900.0,OVC,900.0,,,,,,
KRDR,09-23-2017,07:16,SPECI,Normal,350,9,,,9999.0,,11.0,9.0,29.92,1013.7,,,,,,,,,,,,,,,,900.0,900.0,OVC,900.0,,,,,,
KRDR,09-23-2017,06:56,METAR,Normal,360,10,20.0,,9999.0,,11.1,9.5,29.89,1012.8,,,,,,,,,,,,,,,,1000.0,1000.0,OVC,1000.0,,,,,,
KRDR,09-23-2017,05:56,METAR,Normal,360,16,24.0,,9999.0,,11.4,9.8,29.81,1010.1,,,,,,,,,,,,,.04 IN,,,1000.0,1100.0,OVC,1100.0,,,,,,
KRDR,09-23-2017,04:56,METAR,Normal,10,15,22.0,350/26KTS,9999.0,,11.6,10.0,29.80,1009.8,,,,,,,,,,,TRACE,,,,,1100.0,1100.0,OVC,1100.0,,,,,,
KRDR,09-23-2017,04:41,SPECI,Normal,360,15,22.0,,9999.0,,12.0,10.0,29.79,1009.4,,,,,,,,,,,,,,,,1000.0,1000.0,OVC,1000.0,,,,,,
KRDR,09-23-2017,04:29,SPECI,Normal,360,16,23.0,,9999.0,Light Drizzle,12.0,10.0,29.80,1009.8,51,,,,,,,,,,,,,,,1000.0,1000.0,OVC,1000.0,,,,,,
KRDR,09-23-2017,03:56,METAR,Normal,360,14,18.0,350/27KTS,9999.0,,11.8,10.4,29.79,1009.5,,,,,,,,,,,,,,,,1100.0,1100.0,OVC,1100.0,,,,,,
KRDR,09-23-2017,03:11,SPECI,Normal,360,16,23.0,,9999.0,,12.0,11.0,29.75,1008.1,,,,,,,,,,,,,,,,900.0,1000.0,OVC,1000.0,,,,,,
KRDR,09-23-2017,02:56,METAR,Normal,360,19,27.0,360/30KTS,9999.0,,11.9,11.0,29.73,1007.4,,,,,,,,,,,TRACE,.04 IN,,,,900.0,900.0,OVC,900.0,,,,,,
KRDR,09-23-2017,02:26,SPECI,Normal,10,16,24.0,,9999.0,,12.0,11.0,29.73,1007.4,,,,,,,,,,,,,,,,800.0,900.0,BKN,900.0,OVC,3000.0,,,,
KRDR,09-23-2017,02:11,SPECI,Normal,10,17,26.0,,9999.0,,12.0,11.0,29.72,1007.1,,,,,,,,,,,,,,,,3000.0,900.0,FEW,900.0,OVC,3000.0,,,,
KRDR,09-23-2017,02:08,SPECI,Normal,360,18,26.0,,9999.0,,12.0,11.0,29.73,1007.4,,,,,,,,,,,,,,,,3000.0,3000.0,OVC,3000.0,,,,,,
KRDR,09-23-2017,01:56,METAR,Normal,360,20,25.0,250/47KTS,9999.0,Light Rain,12.5,11.4,29.72,1007.1,61,,,,,,,,,,.04 IN,,,,,3000.0,3000.0,OVC,3000.0,,,,,,
KRDR,09-23-2017,01:52,SPECI,Normal,360,15,25.0,,9999.0,Light Rain,13.0,11.0,29.73,1007.4,61,,,,,,,,,,,,,,,3000.0,3000.0,BKN,3000.0,,,,,,
KRDR,09-23-2017,01:31,SPECI,Normal,350,17,28.0,,9999.0,,14.0,12.0,29.71,1006.7,,,,,,,,,,,,,,,4/8 Partly Cloudy,72000.0,1300.0,FEW,1300.0,SCT,3100.0,SCT,4500.0,,
KRDR,09-23-2017,01:23,SPECI,Normal,360,20,45.0,,9999.0,Light Rain/Mist,13.0,11.0,29.71,1006.8,61,10,,,,,,,,,,,,,4/8 Partly Cloudy,72000.0,1300.0,FEW,1300.0,SCT,3100.0,,,,
KRDR,09-23-2017,01:17,SPECI,Normal,360,22,45.0,,9999.0,Thunderstorm and Rain or Snow Showers,13.0,11.0,29.74,1007.8,92,,,,,,,,,,,,,,4/8 Partly Cloudy,72000.0,1200.0,FEW,1200.0,SCT,3100.0,,,,
KRDR,09-23-2017,01:16,SPECI,Normal,310,28,45.0,,9999.0,Thunderstorm and Rain or Snow Showers,13.0,11.0,29.79,1009.5,92,,,,,,,,,,,,,,4/8 Partly Cloudy,72000.0,1200.0,FEW,1200.0,SCT,3100.0,,,,
KRDR,09-23-2017,01:12,SPECI,Normal,290,18,33.0,,9999.0,Dry Thunderstorm,13.0,11.0,29.73,1007.4,91,,,,,,,,,,,,,,4/8 Partly Cloudy,72000.0,3100.0,FEW,3100.0,SCT,4800.0,,,,
KRDR,09-23-2017,01:08,SPECI,Normal,10,15,24.0,,9999.0,Thunderstorm,13.0,11.0,29.68,1005.7,,,,17,,,,,,,,,,,,3100.0,3100.0,BKN,3100.0,BKN,4800.0,BKN,6500.0,,
KRDR,09-23-2017,00:59,SPECI,Normal,20,16,22.0,,9999.0,,14.0,11.0,29.67,1005.3,,,,,,,,,,,,,,,2/8 Mostly Clear,72000.0,3300.0,FEW,3300.0,,,,,,
KRDR,09-23-2017,00:56,METAR,Normal,20,15,22.0,010/31KTS,9999.0,Light Rain,13.6,11.3,29.68,1005.7,61,,,,,,,,,,TRACE,,,,2/8 Mostly Clear,72000.0,3300.0,FEW,3300.0,,,,,,
KRDR,09-23-2017,00:47,SPECI,Normal,360,15,26.0,,9999.0,Light Rain,14.0,11.0,29.69,1006.0,61,,,,,,,,,,,,,,,3300.0,3300.0,BKN,3300.0,BKN,7500.0,,,,
KRDR,09-23-2017,00:01,SPECI,Normal,10,26,30.0,,9999.0,,16.0,11.0,29.72,1007.0,,,,,,,,,,,,,,,,3200.0,2600.0,SCT,2600.0,BKN,3200.0,BKN,6500.0,,
KRDR,09-22-2017,23:56,METAR,Normal,350,20,25.0,020/30KTS,9999.0,,16.1,11.0,29.69,1006.0,,,,,,,,,,,,,,,,2600.0,2600.0,BKN,2600.0,BKN,3400.0,OVC,6500.0,,
KRDR,09-22-2017,23:54,SPECI,Normal,340,17,25.0,,9999.0,,16.0,11.0,29.69,1006.0,,,,,,,,,,,,,,,,3500.0,2700.0,SCT,2700.0,BKN,3500.0,OVC,6500.0,,
KRDR,09-22-2017,23:49,SPECI,Normal,320,12,25.0,,9999.0,,17.0,11.0,29.70,1006.3,,,,,,,,,,,,,,,,3500.0,2800.0,FEW,2800.0,BKN,3500.0,BKN,6500.0,,
KRDR,09-22-2017,22:56,METAR,Normal,360,14,,,9999.0,,20.1,14.7,29.70,1006.2,,,,,,,,,,,,,,,,3300.0,3300.0,OVC,3300.0,,,,,,
KRDR,09-22-2017,21:56,METAR,Normal,10,11,,,9999.0,,21.1,14.9,29.68,1005.5,,,,,,,,,,,,,,,,3400.0,3400.0,OVC,3400.0,,,,,,
KRDR,09-22-2017,21:37,SPECI,Normal,40,11,,,9999.0,,21.0,15.0,29.68,1005.5,,,,,,,,,,,,,,,,3300.0,3300.0,BKN,3300.0,,,,,,
KRDR,09-22-2017,21:34,SPECI,Normal,30,11,,,9999.0,Rain,21.0,15.0,29.69,1005.8,,,,61,,,,,,,,,,,,3300.0,3300.0,BKN,3300.0,,,,,,
KRDR,09-22-2017,20:56,METAR,Normal,10,9,,,9999.0,,20.2,13.6,29.71,1006.5,,,,,,,,,,,,,,,,3200.0,3200.0,OVC,3200.0,,,,,,
KRDR,09-22-2017,19:56,METAR,Normal,40,14,,,9999.0,,20.5,13.0,29.71,1006.4,,,,,,,,,,,,,,,,3000.0,2300.0,SCT,2300.0,OVC,3000.0,,,,
KRDR,09-22-2017,19:16,SPECI,Normal,30,14,,,9999.0,,21.0,13.0,29.72,1006.8,,,,,,,,,,,,,,,4/8 Partly Cloudy,72000.0,2100.0,SCT,2100.0,SCT,4100.0,,,,
KRDR,09-22-2017,18:56,METAR,Normal,30,15,21.0,,9999.0,,19.8,12.5,29.73,1007.2,,,,,,,,,,,,,,,,2200.0,2200.0,BKN,2200.0,,,,,,
KRDR,09-22-2017,17:56,METAR,Normal,30,10,,,9999.0,,17.9,12.3,29.75,1007.9,,,,,,,,,,,,,,,,2100.0,2100.0,OVC,2100.0,,,,,,
KRDR,09-22-2017,16:56,METAR,Normal,40,12,,,9999.0,,15.9,11.3,29.77,1008.6,,,,,,,,,,,,,,,,2400.0,2400.0,OVC,2400.0,,,,,,
KRDR,09-22-2017,15:56,METAR,Normal,30,13,,,9999.0,,14.9,10.7,29.80,1009.6,,,,,,,,,,,,,,,,2600.0,2600.0,OVC,2600.0,,,,,,
KRDR,09-22-2017,14:56,METAR,Normal,20,14,21.0,,9999.0,,13.7,10.1,29.81,1009.9,,,,,,,,,,,,,,,,2200.0,2200.0,OVC,2200.0,,,,,,
KRDR,09-22-2017,13:56,METAR,Normal,20,11,,,9999.0,,13.2,10.0,29.83,1010.6,,,,,,,,,,,,,,,,2800.0,2800.0,OVC,2800.0,,,,,,
KRDR,09-22-2017,13:36,SPECI,Normal,10,14,,,9999.0,,13.0,10.0,29.83,1010.6,,,,,,,,,,,,,,,,2800.0,2800.0,OVC,2800.0,,,,,,
KRDR,09-22-2017,12:56,METAR,Normal,30,13,18.0,,9999.0,,13.1,9.9,29.83,1010.6,,,,,,,,,,,,,,,,3100.0,3100.0,OVC,3100.0,,,,,,
KRDR,09-22-2017,11:56,METAR,Normal,20,12,,,9999.0,,13.0,10.2,29.83,1010.5,,,,,,,,,,,,,,,,3300.0,3300.0,BKN,3300.0,,,,,,
KRDR,09-22-2017,10:56,METAR,Normal,20,11,,,9999.0,,13.0,10.5,29.81,1009.8,,,,,,,,,,,,,,,Clear,72000.0,,,,,,,,,
KRDR,09-22-2017,09:56,METAR,Normal,10,10,,,9999.0,,12.8,10.9,29.80,1009.4,,,,,,,,,,,,,,,Clear,72000.0,,,,,,,,,
KRDR,09-22-2017,08:56,METAR,Normal,10,8,,,9999.0,,13.2,10.9,29.79,1009.1,,,,,,,,,,,,,,,Clear,72000.0,,,,,,,,,
KRDR,09-22-2017,07:56,METAR,Normal,360,10,,,9999.0,,14.3,12.5,29.74,1007.4,,,,,,,,,,,,,,,Clear,72000.0,,,,,,,,,
KRDR,09-22-2017,06:56,METAR,Normal,40,7,,,9999.0,,14.4,13.8,29.73,1007.1,,,,,,,,,,,,,,,Clear,72000.0,,,,,,,,,
KRDR,09-22-2017,05:56,METAR,Normal,360,4,,,9999.0,,15.0,13.5,29.74,1007.4,,,,,,,,,,,,,,,Clear,72000.0,,,,,,,,,
KRDR,09-22-2017,04:56,METAR,Normal,310,7,,,9999.0,,16.2,13.5,29.73,1007.1,,,,,,,,,,,,,,,Clear,72000.0,,,,,,,,,
KRDR,09-22-2017,03:56,METAR,Normal,150,5,,,9999.0,,18.1,13.6,29.72,1006.7,,,,,,,,,,,,,,,2/8 Mostly Clear,72000.0,7000.0,FEW,7000.0,,,,,,
KRDR,09-22-2017,02:56,METAR,Normal,150,5,,,9999.0,,19.3,13.2,29.71,1006.4,,,,,,,,,,,,,,,Clear,72000.0,,,,,,,,,
KRDR,09-22-2017,01:56,METAR,Normal,140,9,,,9999.0,,20.0,12.5,29.70,1006.2,,,,,,,,,,,,,,,Clear,72000.0,,,,,,,,,
KRDR,09-22-2017,00:56,METAR,Normal,150,9,,,9999.0,,21.3,11.3,29.70,1006.2,,,,,,,,,,,,,,,4/8 Partly Cloudy,72000.0,7000.0,SCT,7000.0,,,,,,
KRDR,09-21-2017,23:56,METAR,Normal,170,6,,,9999.0,,23.8,10.1,29.69,1005.7,,,,,,,,,,,,,,,,6000.0,6000.0,BKN,6000.0,,,,,,
KRDR,09-21-2017,22:56,METAR,Normal,170,9,,,9999.0,,25.6,8.6,29.67,1005.0,,,,,,,,,,,,,,,Clear,72000.0,,,,,,,,,
KRDR,09-21-2017,21:56,METAR,Normal,170,12,,,9999.0,,26.4,7.4,29.67,1005.1,,,,,,,,,,,,,,,Clear,72000.0,,,,,,,,,
KRDR,09-21-2017,20:56,METAR,Normal,150,15,20.0,,9999.0,,26.2,6.7,29.68,1005.4,,,,,,,,,,,,,,,Clear,72000.0,,,,,,,,,
KRDR,09-21-2017,19:56,METAR,Normal,160,16,22.0,,9999.0,,25.7,7.3,29.71,1006.4,,,,,,,,,,,,,,,Clear,72000.0,,,,,,,,,
KRDR,09-21-2017,18:56,METAR,Normal,170,16,22.0,,9999.0,,24.8,7.9,29.74,1007.5,,,,,,,,,,,,,,,Clear,72000.0,,,,,,,,,
KRDR,09-21-2017,17:56,METAR,Normal,170,18,23.0,,9999.0,,23.8,7.8,29.76,1008.2,,,,,,,,,,,,,,,Clear,72000.0,,,,,,,,,
KRDR,09-21-2017,16:56,METAR,Normal,180,17,24.0,180/26KTS,9999.0,,21.6,9.1,29.79,1009.2,,,,,,,,,,,,,,,Clear,72000.0,,,,,,,,,
KRDR,09-21-2017,15:56,METAR,Normal,170,18,,170/30KTS,9999.0,,19.6,9.2,29.80,1009.6,,,,,,,,,,,,,,,Clear,72000.0,,,,,,,,,
KRDR,09-21-2017,14:56,METAR,Normal,180,16,22.0,180/26KTS,9999.0,,18.0,9.1,29.80,1009.6,,,,,,,,,,,,,,,2/8 Mostly Clear,72000.0,15000.0,FEW,15000.0,,,,,,
KRDR,09-21-2017,13:56,METAR,Normal,180,14,22.0,,9999.0,,14.8,8.5,29.81,1010.0,,,,,,,,,,,,,,,,12000.0,12000.0,OVC,12000.0,,,,,,
KRDR,09-21-2017,12:56,METAR,Normal,170,13,19.0,,9999.0,,13.8,7.8,29.79,1009.4,,,,,,,,,,,,,,,,13000.0,13000.0,BKN,13000.0,,,,,,
KRDR,09-21-2017,11:56,METAR,Normal,190,14,22.0,,9999.0,,13.7,7.2,29.81,1010.0,,,,,,,,,,,,,,,,15000.0,15000.0,BKN,15000.0,,,,,,
KRDR,09-21-2017,10:56,METAR,Normal,190,12,,,9999.0,,12.6,6.8,29.80,1009.6,,,,,,,,,,,,,,,,17000.0,17000.0,BKN,17000.0,,,,,,
KRDR,09-21-2017,09:56,METAR,Normal,190,10,,,9999.0,,10.6,6.7,29.80,1009.6,,,,,,,,,,,,,,,Clear,72000.0,,,,,,,,,
KRDR,09-21-2017,08:56,METAR,Normal,180,8,,,9999.0,,9.5,6.6,29.80,1009.6,,,,,,,,,,,,,,,Clear,72000.0,,,,,,,,,
KRDR,09-21-2017,07:56,METAR,Normal,200,6,,,9999.0,,10.5,6.4,29.81,1010.0,,,,,,,,,,,,,,,Clear,72000.0,,,,,,,,,
KRDR,09-21-2017,06:56,METAR,Normal,190,7,,,9999.0,,10.9,6.2,29.81,1010.0,,,,,,,,,,,,,,,Clear,72000.0,,,,,,,,,
KRDR,09-21-2017,05:56,METAR,Normal,200,7,,,9999.0,,11.8,6.1,29.81,1009.9,,,,,,,,,,,,,,,Clear,72000.0,,,,,,,,,
KRDR,09-21-2017,04:56,METAR,Normal,190,8,,,9999.0,,12.6,6.2,29.80,1009.6,,,,,,,,,,,,,,,Clear,72000.0,,,,,,,,,
KRDR,09-21-2017,03:56,METAR,Normal,180,9,,,9999.0,,12.4,6.2,29.80,1009.7,,,,,,,,,,,,,,,Clear,72000.0,,,,,,,,,
KRDR,09-21-2017,02:56,METAR,Normal,180,9,,,9999.0,,13.7,6.3,29.79,1009.4,,,,,,,,,,,,,,,Clear,72000.0,,,,,,,,,
KRDR,09-21-2017,01:56,METAR,Normal,180,8,,,9999.0,,13.9,6.5,29.78,1009.1,,,,,,,,,,,,,,,Clear,72000.0,,,,,,,,,
KRDR,09-21-2017,00:56,METAR,Normal,190,7,,,9999.0,,13.6,5.2,29.76,1008.5,,,,,,,,,,,,,,,Clear,72000.0,,,,,,,,,
KRDR,09-20-2017,23:56,METAR,Normal,250,6,,,9999.0,,19.0,5.1,29.74,1007.7,,,,,,,,,,,,,,,Clear,72000.0,,,,,,,,,
KRDR,09-20-2017,22:56,METAR,Normal,250,9,18.0,240/27KTS,9999.0,,21.2,2.9,29.73,1007.2,,,,,,,,,,,,,,,Clear,72000.0,,,,,,,,,
KRDR,09-20-2017,21:56,METAR,Normal,250,16,21.0,,9999.0,,21.9,2.6,29.71,1006.4,,,,,,,,,,,,,,,Clear,72000.0,,,,,,,,,
KRDR,09-20-2017,20:56,METAR,Normal,240,13,21.0,,9999.0,,22.1,3.2,29.70,1006.1,,,,,,,,,,,,,,,2/8 Mostly Clear,72000.0,8000.0,FEW,8000.0,,,,,,
KRDR,09-20-2017,19:56,METAR,Normal,250,15,23.0,,9999.0,,22.0,3.6,29.71,1006.4,,,,,,,,,,,,,,,2/8 Mostly Clear,72000.0,8500.0,FEW,8600.0,,,,,,
KRDR,09-20-2017,18:56,METAR,Normal,240,10,,,9999.0,,21.5,2.7,29.71,1006.4,,,,,,,,,,,,,,,Clear,72000.0,,,,,,,,,
KRDR,09-20-2017,17:56,METAR,Normal,240,10,18.0,,9999.0,,20.9,4.9,29.70,1006.0,,,,,,,,,,,,,,,Clear,72000.0,,,,,,,,,
KRDR,09-20-2017,16:56,METAR,Normal,260,10,,,9999.0,,19.6,6.0,29.68,1005.4,,,,,,,,,,,,,,,Clear,72000.0,,,,,,,,,
KRDR,09-20-2017,15:56,METAR,Normal,250,10,,,9999.0,,17.3,7.9,29.68,1005.4,,,,,,,,,,,,,,,Clear,72000.0,,,,,,,,,
KRDR,09-20-2017,14:56,METAR,Normal,270,9,19.0,,9999.0,,15.0,8.2,29.66,1004.8,,,,,,,,,,,,,,,Clear,72000.0,,,,,,,,,
KRDR,09-20-2017,13:56,METAR,Normal,290,10,,,9999.0,,13.0,8.9,29.65,1004.5,,,,,,,,,,,,,,,Clear,72000.0,,,,,,,,,
KRDR,09-20-2017,12:56,METAR,Normal,260,6,,,9999.0,,10.1,9.3,29.62,1003.6,,,,,,,,,,,,,,,Clear,72000.0,,,,,,,,,
KRDR,09-20-2017,11:56,METAR,Normal,270,8,,,9999.0,,11.3,10.0,29.58,1002.2,,,,,,,,,,,,,TRACE,.35 IN,Clear,72000.0,,,,,,,,,
KRDR,09-20-2017,10:56,METAR,Normal,280,13,18.0,,9999.0,,12.5,10.9,29.53,1000.4,,,,,,,,,,,,,,,4/8 Partly Cloudy,72000.0,6500.0,SCT,6500.0,,,,,,
KRDR,09-20-2017,09:56,METAR,Normal,290,9,,,9999.0,,13.3,11.3,29.50,999.3,,,,,,,,,,,,,,,,7000.0,7000.0,BKN,7000.0,,,,,,
KRDR,09-20-2017,08:56,METAR,Normal,290,12,22.0,,9999.0,,14.3,12.3,29.48,998.6,,,,,,,,,,,,TRACE,,,,3500.0,1600.0,FEW,1600.0,OVC,3500.0,,,,
KRDR,09-20-2017,07:56,METAR,Normal,290,8,,,9999.0,,15.2,15.0,29.41,996.2,,,,,,,,,,,,,,,4/8 Partly Cloudy,72000.0,3000.0,FEW,3000.0,SCT,10000.0,,,,
KRDR,09-20-2017,06:56,METAR,Normal,330,3,,,9999.0,,16.2,16.2,29.42,996.6,,,,,,,,,,,TRACE,,,,,10000.0,900.0,FEW,900.0,OVC,10000.0,,,,
KRDR,09-20-2017,06:01,SPECI,Normal,240,3,,,9999.0,,17.0,17.0,29.44,997.2,,,,,,,,,,,,,,,,3500.0,800.0,FEW,800.0,BKN,3500.0,OVC,9600.0,,
KRDR,09-20-2017,05:56,METAR,Normal,270,5,,,9999.0,Light Rain,16.8,16.8,29.45,997.6,61,,,,,,,,,,.09 IN,,.2 IN,,,3500.0,900.0,FEW,900.0,SCT,1600.0,BKN,3500.0,OVC,9600.0
KRDR,09-20-2017,05:47,SPECI,Normal,280,4,,,8000.0,Light Rain/Mist,17.0,17.0,29.45,997.6,61,10,,,,,,,,,,,,,4/8 Partly Cloudy,72000.0,900.0,FEW,900.0,SCT,1400.0,,,,
KRDR,09-20-2017,05:43,SPECI,Normal,310,4,,,4000.0,Heavy Rain/Mist,17.0,17.0,29.44,997.2,63,10,,,,,,,,,,,,,,1400.0,1400.0,SCT,1400.0,OVC,2800.0,,,,
KRDR,09-20-2017,05:28,SPECI,Normal,250,9,,,9999.0,Light Rain,18.0,18.0,29.46,997.9,61,,,,,,,,,,,,,,,1400.0,1500.0,BKN,1500.0,OVC,2000.0,,,,
KRDR,09-20-2017,05:25,SPECI,Normal,260,8,,,9999.0,,18.0,18.0,29.46,997.9,,,,,,,,,,,,,,,,1400.0,1500.0,BKN,1500.0,BKN,2000.0,OVC,4300.0,,
KRDR,09-20-2017,05:09,SPECI,Normal,230,5,,,9999.0,Light Rain,18.0,18.0,29.45,997.7,61,,,,,,,,,,,,,,,1700.0,1700.0,BKN,1700.0,OVC,4400.0,,,,
KRDR,09-20-2017,05:02,SPECI,Normal,210,6,,,9999.0,,18.0,18.0,29.44,997.3,,,,,,,,,,,,,,,,1500.0,1700.0,BKN,1700.0,OVC,4400.0,,,,
KRDR,09-20-2017,04:56,METAR,Normal,220,5,,,9999.0,Light Drizzle,17.7,17.7,29.44,997.3,51,,,,,,,,,,.03 IN,,,,,1500.0,1600.0,BKN,1600.0,BKN,2000.0,OVC,3500.0,,
KRDR,09-20-2017,04:54,SPECI,Normal,220,5,,,9999.0,Light Drizzle,18.0,18.0,29.44,997.3,51,,,,,,,,,,,,,,,1500.0,1600.0,BKN,1600.0,BKN,2100.0,OVC,3500.0,,
KRDR,09-20-2017,04:53,SPECI,Normal,230,4,,,9999.0,,18.0,18.0,29.44,997.3,,,,,,,,,,,,,,,,1500.0,1600.0,BKN,1600.0,BKN,2100.0,OVC,3500.0,,
KRDR,09-20-2017,04:47,SPECI,Normal,240,6,,,9999.0,Light Rain,18.0,18.0,29.43,997.0,61,,,,,,,,,,,,,,,1500.0,1600.0,BKN,1600.0,BKN,4100.0,OVC,4800.0,,
KRDR,09-20-2017,04:27,SPECI,Normal,250,7,,,9999.0,Light Rain,18.0,18.0,29.45,997.7,61,,,,,,,,,,,,,,,1300.0,1000.0,SCT,1000.0,OVC,1400.0,,,,
KRDR,09-20-2017,04:25,SPECI,Normal,240,7,,,9999.0,Light Rain,18.0,18.0,29.45,997.7,61,,,,,,,,,,,,,,,900.0,1200.0,BKN,1200.0,,,,,,
KRDR,09-20-2017,04:20,SPECI,Normal,250,5,,,9999.0,Light Rain,18.0,18.0,29.45,997.7,61,,,,,,,,,,,,,,,1100.0,1100.0,BKN,1100.0,,,,,,
KRDR,09-20-2017,04:10,SPECI,Normal,240,8,,,9999.0,Light Rain,18.0,18.0,29.44,997.3,61,,,,,,,,,,,,,,,900.0,900.0,BKN,900.0,BKN,3600.0,,,,
KRDR,09-20-2017,04:00,SPECI,Normal,220,5,,,9999.0,Light Rain,18.0,18.0,29.42,996.6,61,,,,,,,,,,,,,,,7500.0,1000.0,FEW,1000.0,SCT,4100.0,BKN,7500.0,,
KRDR,09-20-2017,03:56,METAR,Normal,210,5,,100/26KTS,9999.0,Light Rain,18.1,17.9,29.42,996.6,61,,,,,,,,,,.05 IN,,,,,4200.0,4200.0,BKN,4200.0,BKN,10000.0,,,,
KRDR,09-20-2017,03:04,SPECI,Normal,120,16,23.0,,9999.0,Light Rain,19.0,19.0,29.44,997.3,61,,,,,,,,,,,,,,,7000.0,7000.0,OVC,7000.0,,,,,,
KRDR,09-20-2017,02:56,METAR,Normal,120,13,21.0,140/33KTS,9999.0,,18.6,18.4,29.44,997.3,,,,,,,,,,,.02 IN,.03 IN,,,,7000.0,7000.0,OVC,7000.0,,,,,,
KRDR,09-20-2017,02:53,SPECI,Normal,120,14,21.0,,9999.0,,19.0,18.0,29.45,997.7,,,,,,,,,,,,,,,,7000.0,7000.0,BKN,7000.0,,,,,,
KRDR,09-20-2017,02:51,SPECI,Normal,120,18,21.0,,9999.0,Light Rain,19.0,18.0,29.45,997.7,61,,,,,,,,,,,,,,,7000.0,5000.0,FEW,5000.0,OVC,7000.0,,,,
KRDR,09-20-2017,02:34,SPECI,Normal,120,18,27.0,,9999.0,Thunderstorm and Rain or Snow Showers,19.0,18.0,29.42,996.6,92,,,,,,,,,,,,,,,8500.0,4000.0,FEW,4000.0,FEW,4900.0,SCT,6000.0,SCT,7000.0
KRDR,09-20-2017,02:29,SPECI,Normal,120,20,27.0,,9999.0,Light Drizzle,19.0,18.0,29.42,996.6,51,,,,,,,,,,,,,,,9000.0,4800.0,FEW,4800.0,SCT,6500.0,OVC,9100.0,,
KRDR,09-20-2017,01:56,METAR,Normal,120,16,32.0,110/40KTS,9999.0,,19.3,18.0,29.40,996.0,,,,,,,,,,,,,,,4/8 Partly Cloudy,72000.0,6500.0,FEW,6500.0,FEW,8000.0,SCT,10000.0,,
KRDR,09-20-2017,00:56,METAR,Normal,130,30,40.0,140/45KTS,9999.0,Distant Lightning,19.6,17.9,29.37,,12,,,,,,,,,,.01 IN,,,,4/8 Partly Cloudy,72000.0,8500.0,SCT,8600.0,,,,,,
KRDR,09-20-2017,00:13,SPECI,Normal,110,19,25.0,,9999.0,Light Rain,19.0,18.0,29.42,,61,,,,,,,,,,,,,,,5000.0,5000.0,BKN,5000.0,,,,,,
KRDR,09-19-2017,23:58,METAR,Normal,100,17,24.0,130/34KTS,9999.0,Thunderstorm,19.3,18.5,29.42,,,,,17,,,,,,,.08 IN,,.15 IN,,2/8 Mostly Clear,72000.0,6000.0,FEW,6000.0,,,,,,
KRDR,09-19-2017,22:56,METAR,Normal,140,16,,,9999.0,Thunderstorm and Rain or Snow Showers,19.8,18.6,29.50,,92,,,,,,,,,,.07 IN,,,,,7500.0,7500.0,OVC,7500.0,,,,,,
KRDR,09-19-2017,22:46,SPECI,Normal,140,16,,,9999.0,Thunderstorm and Rain or Snow Showers,20.0,19.0,29.50,,92,,,,,,,,,,,,,,,7500.0,7500.0,OVC,7500.0,,,,,,
KRDR,09-19-2017,22:39,SPECI,Normal,140,17,24.0,,9999.0,Thunderstorm with Rain or Snow,20.0,19.0,29.50,,,,,95,,,,,,,,,,,,7000.0,2900.0,FEW,2900.0,OVC,7000.0,,,,
KRDR,09-19-2017,22:26,SPECI,Normal,150,17,23.0,,9999.0,Light Rain,21.0,18.0,29.52,,61,,,,,,,,,,,,,,,7000.0,2900.0,SCT,2900.0,OVC,7000.0,,,,
KRDR,09-19-2017,22:11,SPECI,Normal,150,14,,,9999.0,Light Rain,22.0,18.0,29.54,,61,,,,,,,,,,,,,,,2900.0,2900.0,BKN,2900.0,OVC,3500.0,,,,
KRDR,09-19-2017,22:06,SPECI,Normal,170,12,,,9999.0,Light Drizzle,22.0,17.0,29.54,,51,,,,,,,,,,,,,,,3000.0,3000.0,BKN,3000.0,BKN,3500.0,,,,
KRDR,09-19-2017,22:02,SPECI,Normal,170,12,,,9999.0,Light Rain,22.0,17.0,29.55,,61,,,,,,,,,,,,,,,3000.0,3000.0,BKN,3000.0,BKN,3500.0,,,,
KRDR,09-19-2017,22:01,SPECI,Normal,170,12,,,9999.0,Rain,22.0,17.0,29.55,,,,,61,,,,,,,,,,,,3000.0,3000.0,BKN,3000.0,BKN,3500.0,,,,
KRDR,09-19-2017,21:56,METAR,Normal,170,16,,,9999.0,,22.5,17.2,29.55,,,,,,,,,,,,,,,,,3500.0,3000.0,SCT,3000.0,BKN,3500.0,,,,
KRDR,09-19-2017,20:56,METAR,Normal,150,17,25.0,,9999.0,,23.2,16.9,29.55,,,,,,,,,,,,,,,,4/8 Partly Cloudy,72000.0,16000.0,SCT,16000.0,SCT,18000.0,,,,
KRDR,09-19-2017,19:56,METAR,Normal,160,12,,,9999.0,,23.8,17.7,29.55,,,,,,,,,,,,,,,,,3100.0,3100.0,OVC,3100.0,,,,,,
KRDR,09-19-2017,19:46,SPECI,Normal,160,4,,,9999.0,,23.0,18.0,29.56,,,,,,,,,,,,,,,,,3000.0,3000.0,BKN,3000.0,OVC,3500.0,,,,
KRDR,09-19-2017,19:01,SPECI,Normal,180,8,,,9999.0,,21.0,18.0,29.61,,,,,,,,,,,,,,,,,2100.0,2100.0,OVC,2100.0,,,,,,
KRDR,09-19-2017,18:56,METAR,Normal,160,9,,,9999.0,,20.3,17.3,29.61,,,,,,,,,,,,,,,,,1900.0,1900.0,OVC,1900.0,,,,,,
KRDR,09-19-2017,18:16,SPECI,Normal,140,14,19.0,,9999.0,,19.0,17.0,29.61,,,,,,,,,,,,,,,,,1500.0,1600.0,OVC,1600.0,,,,,,
KRDR,09-19-2017,17:56,METAR,Normal,130,14,20.0,,9999.0,,18.3,17.3,29.62,,,,,,,,,,,,,,,,,1300.0,1300.0,OVC,1300.0,,,,,,
KRDR,09-19-2017,17:52,SPECI,Normal,130,16,20.0,,9999.0,,18.0,17.0,29.62,,,,,,,,,,,,,,,,,1300.0,1300.0,OVC,1300.0,,,,,,
KRDR,09-19-2017,17:47,SPECI,Normal,140,11,,,9999.0,,18.0,17.0,29.62,,,,,,,,,,,,,,,,,800.0,1000.0,BKN,1000.0,OVC,1600.0,,,,
KRDR,09-19-2017,17:46,SPECI,Normal,150,13,,,9999.0,,18.0,17.0,29.63,,,,,,,,,,,,,,,,,800.0,1200.0,OVC,1200.0,,,,,,
KRDR,09-19-2017,17:41,SPECI,Normal,140,11,,,9999.0,,18.0,18.0,29.63,,,,,,,,,,,,,,,,,800.0,800.0,BKN,800.0,OVC,1200.0,,,,
KRDR,09-19-2017,17:26,SPECI,Normal,130,10,,,9999.0,,17.0,17.0,29.64,,,,,,,,,,,,,,,,,600.0,800.0,OVC,800.0,,,,,,
KRDR,09-19-2017,17:11,SPECI,Normal,140,13,20.0,,9999.0,,17.0,17.0,29.65,,,,,,,,,,,,,,,,,400.0,600.0,OVC,600.0,,,,,,
KRDR,09-19-2017,16:56,METAR,Normal,140,15,19.0,,9999.0,,16.9,16.9,29.66,,,,,,,,,,,,,,,,,400.0,400.0,OVC,400.0,,,,,,
KRDR,09-19-2017,16:51,SPECI,Normal,140,14,18.0,,9999.0,,17.0,17.0,29.66,,,,,,,,,,,,,,,,,400.0,400.0,OVC,400.0,,,,,,
KRDR,09-19-2017,15:56,METAR,Normal,140,14,21.0,,8000.0,Mist,16.2,16.2,29.68,,10,,,,,,,,,,,,,,,300.0,300.0,OVC,300.0,,,,,,
KRDR,09-19-2017,15:31,SPECI,Normal,130,15,20.0,,4800.0,Mist,16.0,16.0,29.70,,10,,,,,,,,,,,,,,,200.0,300.0,OVC,300.0,,,,,,
KRDR,09-19-2017,15:06,SPECI,Normal,140,14,,,4000.0,Mist,16.0,16.0,29.71,,10,,,,,,,,,,,,,,,200.0,300.0,OVC,300.0,,,,,,
KRDR,09-19-2017,14:56,METAR,Normal,140,11,,,6400.0,Mist,15.4,15.4,29.71,,10,,,,,,,,,,,,,,,200.0,300.0,OVC,300.0,,,,,,
KRDR,09-19-2017,14:46,SPECI,Normal,140,12,,,4800.0,Mist,15.0,15.0,29.71,,10,,,,,,,,,,,,,,,200.0,300.0,OVC,300.0,,,,,,
KRDR,09-19-2017,14:31,SPECI,Normal,140,13,19.0,,3600.0,Mist,15.0,15.0,29.70,,10,,,,,,,,,,,,,,,200.0,300.0,OVC,300.0,,,,,,
KRDR,09-19-2017,14:21,SPECI,Normal,140,11,19.0,,3200.0,Mist,15.0,15.0,29.71,,10,,,,,,,,,,,,,,,200.0,200.0,OVC,200.0,,,,,,
KRDR,09-19-2017,14:06,SPECI,Normal,150,13,,,2400.0,Mist,15.0,15.0,29.71,,10,,,,,,,,,,,,,,,200.0,200.0,OVC,200.0,,,,,,
KRDR,09-19-2017,14:01,SPECI,Normal,150,10,,,2200.0,Mist,15.0,15.0,29.72,,10,,,,,,,,,,,,,,,200.0,200.0,OVC,200.0,,,,,,
KRDR,09-19-2017,13:56,METAR,Normal,130,12,,,2200.0,Mist,15.0,15.0,29.72,,10,,,,,,,,,,,,,,,200.0,200.0,OVC,200.0,,,,,,
KRDR,09-19-2017,13:46,SPECI,Normal,140,12,,,2200.0,Mist,15.0,15.0,29.72,,10,,,,,,,,,,,,,,,200.0,200.0,OVC,200.0,,,,,,
KRDR,09-19-2017,13:36,SPECI,Normal,130,11,,,2000.0,Mist,15.0,15.0,29.72,,10,,,,,,,,,,,,,,,200.0,200.0,OVC,200.0,,,,,,
KRDR,09-19-2017,13:06,SPECI,Normal,140,14,,,1600.0,Mist,15.0,15.0,29.74,,10,,,,,,,,,,,,,,Sky Obscured (Unable to Estimate),200.0,200.0,,200.0,,,,,,
KRDR,09-19-2017,12:56,METAR,Normal,140,9,,,1800.0,Mist,,,29.75,,10,,,,,,,,,,,,,,,200.0,200.0,OVC,200.0,,,,,,
KRDR,09-19-2017,12:51,SPECI,Normal,140,10,,,1800.0,Mist,15.0,15.0,29.75,,10,,,,,,,,,,,,,,,200.0,200.0,OVC,200.0,,,,,,
KRDR,09-19-2017,12:31,SPECI,Normal,130,10,,,1600.0,Mist,15.0,14.0,29.75,,10,,,,,,,,,,,,,,Sky Obscured (Unable to Estimate),200.0,200.0,,200.0,,,,,,
KRDR,09-19-2017,12:21,SPECI,Normal,140,10,,,2400.0,Mist,,,29.76,,10,,,,,,,,,,,,,,,200.0,200.0,OVC,200.0,,,,,,
KRDR,09-19-2017,11:56,METAR,Normal,150,9,,,3600.0,Mist,15.0,15.0,29.77,,10,,,,,,,,,,,,,.02 IN,,200.0,200.0,OVC,200.0,,,,,,
KRDR,09-19-2017,10:56,METAR,Normal,150,8,,,4000.0,Mist,15.0,15.0,29.78,,10,,,,,,,,,,,,,,,200.0,200.0,OVC,200.0,,,,,,
KRDR,09-19-2017,10:51,SPECI,Normal,140,7,,,4400.0,Mist,15.0,15.0,29.78,,10,,,,,,,,,,,,,,,200.0,200.0,OVC,200.0,,,,,,
KRDR,09-19-2017,10:36,SPECI,Normal,150,7,,,4800.0,Mist,15.0,15.0,29.79,,10,,,,,,,,,,,,,,,200.0,200.0,OVC,200.0,,,,,,
KRDR,09-19-2017,10:16,SPECI,Normal,160,7,,,4800.0,Mist,15.0,15.0,29.80,,10,,,,,,,,,,,,,,,300.0,300.0,OVC,300.0,,,,,,
KRDR,09-19-2017,10:06,SPECI,Normal,160,6,,,4400.0,Mist,15.0,15.0,29.80,,10,,,,,,,,,,,,,,,200.0,300.0,OVC,300.0,,,,,,
KRDR,09-19-2017,10:01,SPECI,Normal,170,7,,,4400.0,Mist,15.0,15.0,29.80,,10,,,,,,,,,,,,,,,400.0,400.0,OVC,400.0,,,,,,
KRDR,09-19-2017,09:56,METAR,Normal,170,7,,,4800.0,Mist,15.0,15.0,29.80,,10,,,,,,,,,,,,,,,300.0,300.0,BKN,300.0,OVC,700.0,,,,
KRDR,09-19-2017,09:41,SPECI,Normal,150,6,,,6400.0,Mist,15.0,15.0,29.80,,10,,,,,,,,,,,,,,,400.0,400.0,OVC,400.0,,,,,,
KRDR,09-19-2017,08:56,METAR,Normal,150,6,,,6400.0,Mist,15.0,15.0,29.80,,10,,,,,,,,,,,,,,,300.0,300.0,OVC,300.0,,,,,,
KRDR,09-19-2017,08:01,SPECI,Normal,150,7,,,9999.0,Mist,15.0,14.0,29.81,,10,,,,,,,,,,,,,,,300.0,300.0,OVC,300.0,,,,,,
KRDR,09-19-2017,07:56,METAR,Normal,150,7,,,9999.0,Haze Smoke or Dust,15.0,14.0,29.81,,05,,,,,,,,,,,,,,,300.0,400.0,OVC,400.0,,,,,,
KRDR,09-19-2017,07:46,SPECI,Normal,130,6,,,9999.0,Haze Smoke or Dust,15.0,14.0,29.81,,05,,,,,,,,,,,,,,,400.0,400.0,OVC,400.0,,,,,,
KRDR,09-19-2017,07:36,SPECI,Normal,140,7,,,9999.0,,,,29.81,,,,,,,,,,,,,,,,,500.0,500.0,OVC,500.0,,,,,,
KRDR,09-19-2017,06:56,METAR,Normal,130,8,,,9999.0,,15.0,14.0,29.82,,,,,,,,,,,,,,,,,600.0,600.0,OVC,600.0,,,,,,
KRDR,09-19-2017,06:36,SPECI,Normal,130,8,,,9999.0,,15.0,14.0,29.83,,,,,,,,,,,,,,,,,900.0,900.0,OVC,900.0,,,,,,
KRDR,09-19-2017,05:56,METAR,Normal,130,7,,,9999.0,,15.0,13.0,29.84,,,,,,,,,,,,,,,,,1000.0,1000.0,OVC,1000.0,,,,,,
KRDR,09-19-2017,05:30,SPECI,Normal,150,8,,,9999.0,,15.0,13.0,29.84,,,,,,,,,,,,,,,,,1100.0,1100.0,BKN,1100.0,BKN,1400.0,BKN,2400.0,OVC,3000.0
KRDR,09-19-2017,05:25,SPECI,Normal,140,8,,,9999.0,,15.0,13.0,29.84,,,,,,,,,,,,,,,,,1200.0,1100.0,SCT,1100.0,BKN,2400.0,OVC,3000.0,,
KRDR,09-19-2017,05:21,SPECI,Normal,140,8,,,9999.0,,15.0,13.0,29.84,,,,,,,,,,,,,,,,,3000.0,1400.0,FEW,1400.0,SCT,2400.0,OVC,3000.0,,
KRDR,09-19-2017,05:16,SPECI,Normal,150,8,,,9999.0,,15.0,13.0,29.84,,,,,,,,,,,,,,,,,3000.0,1400.0,FEW,1400.0,SCT,2400.0,OVC,3000.0,,
KRDR,09-19-2017,05:01,SPECI,Normal,140,9,,,9999.0,,15.0,13.0,29.84,,,,,,,,,,,,,,,,,1500.0,1500.0,SCT,1500.0,OVC,2600.0,,,,
KRDR,09-19-2017,04:56,METAR,Normal,130,8,,,9999.0,,15.0,13.0,29.84,,,,,,,,,,,,,,,,,1500.0,1500.0,BKN,1500.0,OVC,2400.0,,,,
KRDR,09-19-2017,04:21,SPECI,Normal,130,5,,,9999.0,,15.0,13.0,29.85,,,,,,,,,,,,,,,,,1500.0,1500.0,OVC,1500.0,,,,,,
KRDR,09-19-2017,04:06,SPECI,Normal,140,6,,,9999.0,,15.0,13.0,29.85,,,,,,,,,,,,,,,,,1400.0,1400.0,OVC,1400.0,,,,,,
KRDR,09-19-2017,03:56,METAR,Normal,140,6,,,9999.0,,15.0,13.0,29.84,,,,,,,,,,,,,,,,,1600.0,1600.0,OVC,1600.0,,,,,,
KRDR,09-19-2017,03:06,SPECI,Normal,140,8,,,9999.0,,14.0,13.0,29.83,,,,,,,,,,,,,,,,,1500.0,1500.0,BKN,1500.0,,,,,,
KRDR,09-19-2017,02:56,METAR,Normal,140,8,,,9999.0,,14.0,13.0,29.83,,,,,,,,,,,,,,,,Clear,72000.0,,,,,,,,,
KRDR,09-19-2017,01:56,METAR,Normal,140,10,,,9999.0,,15.0,13.0,29.84,,,,,,,,,,,,,,,,Clear,72000.0,,,,,,,,,
KRDR,09-19-2017,00:56,METAR,Normal,160,9,,,9999.0,,17.0,13.0,29.84,,,,,,,,,,,,,,,,Clear,72000.0,,,,,,,,,
KRDR,09-18-2017,23:56,METAR,Normal,160,9,,,9999.0,,19.0,14.0,29.82,,,,,,,,,,,,,,,,,3800.0,3000.0,SCT,3000.0,BKN,3800.0,,,,
KRDR,09-18-2017,22:56,METAR,Normal,130,7,,,9999.0,,24.0,15.0,29.81,,,,,,,,,,,,,,,,4/8 Partly Cloudy,72000.0,4100.0,SCT,4100.0,SCT,6000.0,,,,
KRDR,09-18-2017,21:56,METAR,Normal,100,5,,,9999.0,,21.0,13.0,29.82,,,,,,,,,,,,,,,,,4300.0,4300.0,BKN,4300.0,OVC,5000.0,,,,
KRDR,09-18-2017,20:56,METAR,Normal,90,6,,,9999.0,,21.0,13.0,29.82,,,,,,,,,,,,,,,,,4100.0,4100.0,OVC,4100.0,,,,,,
KRDR,09-18-2017,19:56,METAR,Normal,110,8,,,9999.0,,20.0,12.0,29.85,,,,,,,,,,,,,,,,,4000.0,4000.0,OVC,4000.0,,,,,,
KRDR,09-18-2017,18:56,METAR,Normal,120,8,,,9999.0,,23.0,13.0,29.85,,,,,,,,,,,,,,,,,6000.0,6000.0,BKN,6000.0,,,,,,
KRDR,09-18-2017,17:56,METAR,Normal,110,5,,,9999.0,,19.0,13.0,29.89,,,,,,,,,,,,,,.02 IN,,2/8 Mostly Clear,72000.0,9000.0,FEW,9100.0,,,,,,
KRDR,09-18-2017,15:59,METAR,Normal,120,4,,,9999.0,,12.0,11.0,29.96,,,,,,,,,,,,,,,,,7000.0,7000.0,OVC,7000.0,,,,,,
KRDR,09-18-2017,15:02,SPECI,Normal,140,8,,,9999.0,,,,29.93,,,,,,,,,,,,,,,,,6000.0,6000.0,BKN,6000.0,BKN,8000.0,OVC,9600.0,,
KRDR,09-18-2017,14:56,METAR,Normal,130,7,,,9999.0,Light Rain,10.0,10.0,29.93,,61,,,,,,,,,,.02 IN,.02 IN,,,,6500.0,6500.0,BKN,6500.0,OVC,8600.0,,,,
KRDR,09-18-2017,14:36,SPECI,Normal,170,8,,,9999.0,Light Rain,11.0,8.0,29.96,,61,,,,,,,,,,,,,,,8500.0,1000.0,FEW,1000.0,SCT,7000.0,BKN,8600.0,,
KRDR,09-18-2017,14:31,SPECI,Normal,150,6,,,9999.0,Light Rain,11.0,8.0,29.96,,61,,,,,,,,,,,,,,,7500.0,7500.0,BKN,7500.0,OVC,8600.0,,,,
KRDR,09-18-2017,13:56,METAR,Normal,130,4,,,9999.0,,10.0,7.0,29.95,,,,,,,,,,,,,,,,4/8 Partly Cloudy,72000.0,8000.0,FEW,8000.0,SCT,9600.0,,,,
KRDR,09-18-2017,12:56,METAR,Calm,,0,,,9999.0,,8.0,5.0,29.96,,,,,,,,,,,,,,,,4/8 Partly Cloudy,72000.0,9000.0,SCT,9100.0,,,,,,
KRDR,09-18-2017,11:56,METAR,Normal,170,5,,,9999.0,,8.0,6.0,29.97,,,,,,,,,,,,,,,,,6500.0,6500.0,BKN,6500.0,OVC,8600.0,,,,
KRDR,09-18-2017,10:56,METAR,Normal,150,4,,,9999.0,,7.0,6.0,29.97,,,,,,,,,,,,,,,,,6000.0,6000.0,OVC,6000.0,,,,,,
KRDR,09-18-2017,09:56,METAR,Normal,160,5,,,9999.0,,7.0,5.0,29.97,,,,,,,,,,,,,,,,,5500.0,5500.0,BKN,5500.0,,,,,,
KRDR,09-18-2017,08:56,METAR,Normal,160,3,,,9999.0,,7.0,5.0,29.98,,,,,,,,,,,,,,,,4/8 Partly Cloudy,72000.0,6500.0,SCT,6500.0,,,,,,
KRDR,09-18-2017,07:56,METAR,Normal,170,4,,,9999.0,,7.0,5.0,30.01,,,,,,,,,,,,,,,,Clear,72000.0,,,,,,,,,
KRDR,09-18-2017,06:56,METAR,Normal,170,7,,,9999.0,,7.0,6.0,30.03,,,,,,,,,,,,,,,,Clear,72000.0,,,,,,,,,
KRDR,09-18-2017,05:56,METAR,Normal,190,4,,,9999.0,,,,30.03,,,,,,,,,,,,,,,,Clear,72000.0,,,,,,,,,
KRDR,09-18-2017,04:56,METAR,Normal,190,7,,,9999.0,,8.0,5.0,30.05,,,,,,,,,,,,,,,,4/8 Partly Cloudy,72000.0,6000.0,SCT,6000.0,,,,,,
KRDR,09-18-2017,03:56,METAR,Normal,200,4,,,9999.0,,,,30.06,,,,,,,,,,,,,,,,,6000.0,6000.0,BKN,6000.0,,,,,,
KRDR,09-18-2017,02:56,METAR,Normal,180,4,,,9999.0,,8.0,5.0,30.05,,,,,,,,,,,,,,,,Clear,72000.0,,,,,,,,,
KRDR,09-18-2017,01:56,METAR,Normal,190,4,,,9999.0,,9.0,7.0,30.06,,,,,,,,,,,,,,,,4/8 Partly Cloudy,72000.0,6000.0,SCT,6000.0,,,,,,
KRDR,09-18-2017,00:56,METAR,Normal,200,4,,,9999.0,,11.0,7.0,30.06,,,,,,,,,,,,,,,,Clear,72000.0,,,,,,,,,
KRDR,09-17-2017,23:56,METAR,Normal,210,5,,,9999.0,,13.0,6.0,30.06,,,,,,,,,,,,,,,,Clear,72000.0,,,,,,,,,
KRDR,09-17-2017,22:56,METAR,Normal,260,7,,,9999.0,,16.0,5.0,30.06,,,,,,,,,,,,,,,,Clear,72000.0,,,,,,,,,
KRDR,09-17-2017,21:56,METAR,Normal,280,12,,,9999.0,,17.0,5.0,30.06,,,,,,,,,,,,,,,,Clear,72000.0,,,,,,,,,
KRDR,09-17-2017,20:56,METAR,Normal,270,10,,,9999.0,,18.0,5.0,30.08,,,,,,,,,,,,,,,,Clear,72000.0,,,,,,,,,
KRDR,09-17-2017,19:56,METAR,Normal,270,12,18.0,,9999.0,,17.0,5.0,30.09,,,,,,,,,,,,,,,,2/8 Mostly Clear,72000.0,4500.0,FEW,4500.0,,,,,,
KRDR,09-17-2017,18:56,METAR,Normal,270,14,20.0,,9999.0,,15.0,4.0,30.11,,,,,,,,,,,,,,,,2/8 Mostly Clear,72000.0,4400.0,FEW,4400.0,,,,,,
KRDR,09-17-2017,18:45,SPECI,Normal,250,13,16.0,,9999.0,,,,30.10,,,,,,,,,,,,,,,,2/8 Mostly Clear,72000.0,4200.0,FEW,4200.0,,,,,,
KRDR,09-17-2017,17:56,METAR,Normal,280,13,,,9999.0,,14.0,4.0,30.12,,,,,,,,,,,,,,,,4/8 Partly Cloudy,72000.0,4000.0,SCT,4000.0,,,,,,
KRDR,09-17-2017,17:13,SPECI,Normal,270,10,,,9999.0,,13.0,5.0,30.11,,,,,,,,,,,,,,,,4/8 Partly Cloudy,72000.0,3400.0,SCT,3400.0,,,,,,
KRDR,09-17-2017,16:56,METAR,Normal,290,12,20.0,,9999.0,,13.0,5.0,30.11,,,,,,,,,,,,,,,,,3300.0,3300.0,BKN,3300.0,,,,,,
KRDR,09-17-2017,15:56,METAR,Normal,290,11,17.0,,9999.0,,12.0,5.0,30.13,,,,,,,,,,,,,,,,,3100.0,3100.0,OVC,3100.0,,,,,,
KRDR,09-17-2017,15:41,SPECI,Normal,270,10,,,9999.0,,,,30.13,,,,,,,,,,,,,,,,,3100.0,3100.0,BKN,3100.0,,,,,,
KRDR,09-17-2017,15:31,SPECI,Normal,270,9,,,9999.0,,10.0,5.0,30.12,,,,,,,,,,,,,,,,,2900.0,2900.0,BKN,2900.0,,,,,,
KRDR,09-17-2017,15:06,SPECI,Normal,270,7,,,9999.0,,10.0,5.0,30.11,,,,,,,,,,,,,,,,4/8 Partly Cloudy,72000.0,2500.0,SCT,2500.0,,,,,,
KRDR,09-17-2017,14:56,METAR,Normal,270,8,,,9999.0,,9.0,6.0,30.12,,,,,,,,,,,,,,,,,2500.0,2500.0,BKN,2500.0,,,,,,
KRDR,09-17-2017,13:56,METAR,Normal,330,8,,,9999.0,,8.0,6.0,30.11,,,,,,,,,,,,,,,,,2100.0,2200.0,OVC,2200.0,,,,,,
KRDR,09-17-2017,12:56,METAR,Normal,280,7,,,9999.0,,8.0,6.0,30.10,,,,,,,,,,,,,,,,,2100.0,2100.0,OVC,2100.0,,,,,,
KRDR,09-17-2017,11:56,METAR,Normal,300,9,,,9999.0,,8.0,7.0,30.07,,,,,,,,,,,,,,,,,2200.0,2200.0,OVC,2200.0,,,,,,
KRDR,09-17-2017,10:56,METAR,Normal,320,11,,,9999.0,,8.0,7.0,30.04,,,,,,,,,,,,,,,.01 IN,,2100.0,2200.0,OVC,2200.0,,,,,,
KRDR,09-17-2017,09:56,METAR,Normal,290,5,,,9999.0,,8.0,7.0,30.03,,,,,,,,,,,,,,,,4/8 Partly Cloudy,72000.0,2200.0,SCT,2200.0,,,,,,
KRDR,09-17-2017,09:21,SPECI,Normal,300,7,18.0,,9999.0,,,,30.02,,,,,,,,,,,,,,,,,3400.0,2300.0,SCT,2300.0,BKN,3400.0,,,,
KRDR,09-17-2017,08:56,METAR,Normal,290,10,18.0,,9999.0,,8.0,7.0,30.01,,,,,,,,,,,,,,,,,1800.0,2000.0,BKN,2000.0,OVC,2500.0,,,,
KRDR,09-17-2017,08:21,SPECI,Normal,300,9,,,9999.0,,8.0,7.0,30.00,,,,,,,,,,,,,,,,,2400.0,2400.0,BKN,2400.0,,,,,,
KRDR,09-17-2017,07:56,METAR,Normal,290,9,,,9999.0,,,,30.00,,,,,,,,,,,,,,,,Clear,72000.0,,,,,,,,,
KRDR,09-17-2017,06:56,METAR,Normal,280,7,,,9999.0,,,,29.98,,,,,,,,,,,,,,,,Clear,72000.0,,,,,,,,,
KRDR,09-17-2017,05:56,METAR,Normal,280,6,,,9999.0,,,,29.97,,,,,,,,,,,,,,,,Clear,72000.0,,,,,,,,,
KRDR,09-17-2017,05:14,SPECI,Normal,280,6,,,9999.0,,8.0,8.0,29.97,,,,,,,,,,,,,,,,2/8 Mostly Clear,72000.0,1100.0,FEW,1100.0,,,,,,
KRDR,09-17-2017,04:56,METAR,Normal,270,6,,,9999.0,,8.0,8.0,29.97,,,,,,,,,,,,,,,,Clear,72000.0,,,,,,,,,
KRDR,09-17-2017,03:56,METAR,Normal,260,6,,,9999.0,,9.0,8.0,29.97,,,,,,,,,,,,,,,,Clear,72000.0,,,,,,,,,
KRDR,09-17-2017,02:55,METAR,Normal,260,4,,,9999.0,,10.0,9.0,29.97,,,,,,,,,,,,,,,,Clear,72000.0,,,,,,,,,
KRDR,09-17-2017,01:56,METAR,Normal,250,4,,,9999.0,,10.0,9.0,29.97,,,,,,,,,,,,,,,,,5000.0,1600.0,SCT,1600.0,SCT,3200.0,SCT,4100.0,OVC,5000.0
KRDR,09-17-2017,00:56,METAR,Normal,260,4,,,9999.0,,11.0,10.0,29.96,,,,,,,,,,,,,,,,,2200.0,900.0,FEW,900.0,OVC,2500.0,,,,
KRDR,09-17-2017,00:03,SPECI,Normal,280,3,,,9999.0,,11.0,10.0,29.95,,,,,,,,,,,,,,,,,700.0,700.0,SCT,700.0,SCT,1200.0,BKN,2400.0,OVC,2900.0
KRDR,09-16-2017,23:56,METAR,Normal,310,4,,,9999.0,Light Drizzle,11.0,10.0,29.95,,51,,,,,,,,,,,,TRACE,,,700.0,700.0,SCT,700.0,BKN,1300.0,BKN,2100.0,OVC,2900.0
KRDR,09-16-2017,23:46,SPECI,Normal,300,4,,,9999.0,Light Drizzle,11.0,10.0,29.95,,51,,,,,,,,,,,,,,,700.0,700.0,BKN,700.0,OVC,1100.0,,,,
KRDR,09-16-2017,23:31,SPECI,Normal,300,7,,,9999.0,,11.0,10.0,29.96,,,,,,,,,,,,,,,,,900.0,900.0,BKN,900.0,OVC,2900.0,,,,
KRDR,09-16-2017,23:11,SPECI,Normal,300,4,,,9999.0,,11.0,10.0,29.95,,,,,,,,,,,,,,,,,1700.0,800.0,FEW,800.0,SCT,1600.0,BKN,2100.0,OVC,3000.0
KRDR,09-16-2017,23:01,SPECI,Normal,310,5,,,9999.0,,11.0,10.0,29.95,,,,,,,,,,,,,,,,,800.0,800.0,SCT,800.0,OVC,1700.0,,,,
KRDR,09-16-2017,22:56,METAR,Normal,310,5,,,9999.0,,11.0,10.0,29.95,,,,,,,,,,,,,,,,,800.0,1000.0,BKN,1000.0,OVC,1700.0,,,,
KRDR,09-16-2017,22:37,SPECI,Normal,320,4,,,9999.0,,11.0,10.0,29.97,,,,,,,,,,,,,,,,,900.0,900.0,BKN,900.0,BKN,1400.0,OVC,1900.0,,
KRDR,09-16-2017,22:31,SPECI,Normal,320,5,,,9999.0,,11.0,10.0,29.97,,,,,,,,,,,,,,,,,1000.0,1000.0,BKN,1000.0,OVC,1900.0,,,,
KRDR,09-16-2017,22:16,SPECI,Normal,320,3,,,9999.0,,11.0,10.0,29.96,,,,,,,,,,,,,,,,,1400.0,600.0,FEW,600.0,BKN,1600.0,OVC,2100.0,,
KRDR,09-16-2017,21:56,METAR,Normal,310,6,,,9999.0,,11.0,10.0,29.96,,,,,,,,,,,,,,,,,600.0,600.0,SCT,600.0,BKN,1600.0,OVC,2200.0,,
KRDR,09-16-2017,21:09,SPECI,Normal,300,5,,,9999.0,,12.0,10.0,29.96,,,,,,,,,,,,,,,,,1400.0,800.0,FEW,800.0,BKN,1400.0,OVC,2100.0,,
KRDR,09-16-2017,20:56,METAR,Normal,330,6,,,9999.0,,12.0,10.0,29.97,,,,,,,,,,,,TRACE,TRACE,,,,1400.0,1400.0,BKN,1400.0,OVC,2100.0,,,,
KRDR,09-16-2017,20:43,SPECI,Normal,320,3,,,9999.0,,12.0,10.0,29.97,,,,,,,,,,,,,,,,,1000.0,1300.0,BKN,1300.0,OVC,2000.0,,,,
KRDR,09-16-2017,19:56,METAR,Normal,360,5,,,9999.0,,12.0,10.0,29.95,,,,,,,,,,,,,,,,,1100.0,1100.0,OVC,1100.0,,,,,,
KRDR,09-16-2017,19:45,SPECI,Normal,340,7,,,9999.0,,12.0,10.0,29.95,,,,,,,,,,,,,,,,,1100.0,1100.0,OVC,1100.0,,,,,,
KRDR,09-16-2017,19:36,SPECI,Normal,350,7,,,9999.0,,11.0,10.0,29.94,,,,,,,,,,,,,,,,,1000.0,1300.0,OVC,1300.0,,,,,,
KRDR,09-16-2017,18:56,METAR,Normal,350,8,,,9999.0,,11.0,10.0,29.95,,,,,,,,,,,,,,,,,1000.0,1000.0,OVC,1000.0,,,,,,
KRDR,09-16-2017,18:51,SPECI,Normal,350,9,,,9999.0,,11.0,10.0,29.95,,,,,,,,,,,,,,,,,900.0,1000.0,OVC,1000.0,,,,,,
KRDR,09-16-2017,17:56,METAR,Normal,360,8,,,9999.0,,11.0,10.0,29.96,,,,,,,,,,,,TRACE,,TRACE,,,800.0,800.0,BKN,800.0,OVC,1300.0,,,,
KRDR,09-16-2017,17:36,SPECI,Normal,360,7,,,9999.0,Light Drizzle,11.0,10.0,29.96,,51,,,,,,,,,,,,,,,700.0,800.0,BKN,800.0,OVC,1400.0,,,,
KRDR,09-16-2017,17:24,SPECI,Normal,360,8,,,9999.0,,11.0,10.0,29.96,,,,,,,,,,,,,,,,,700.0,700.0,BKN,700.0,OVC,1300.0,,,,
KRDR,09-16-2017,16:59,SPECI,Normal,350,10,,,9999.0,,11.0,10.0,29.95,,,,,,,,,,,,,,,,,600.0,600.0,OVC,600.0,,,,,,
KRDR,09-16-2017,16:56,METAR,Normal,350,9,,,9999.0,Light Drizzle,11.0,10.0,29.96,,51,,,,,,,,,,TRACE,,,,,500.0,500.0,BKN,500.0,OVC,900.0,,,,
KRDR,09-16-2017,16:41,SPECI,Normal,360,9,,,9999.0,,,,29.96,,,,,,,,,,,,,,,,,500.0,500.0,BKN,500.0,OVC,900.0,,,,
KRDR,09-16-2017,16:41,METAR,Normal,360,9,,,9999.0,,11.0,10.0,29.96,,,,,,,,,,,,,,,,,500.0,500.0,BKN,500.0,OVC,900.0,,,,
KRDR,09-16-2017,16:36,METAR,Normal,350,7,,,9999.0,Light Drizzle,10.0,10.0,29.97,,51,,,,,,,,,,,,,,,500.0,500.0,BKN,500.0,OVC,900.0,,,,
KRDR,09-16-2017,16:36,SPECI,Normal,350,7,,,9999.0,Light Drizzle,,,29.97,,51,,,,,,,,,,,,,,,500.0,500.0,BKN,500.0,OVC,900.0,,,,
KRDR,09-16-2017,16:27,SPECI,Normal,360,9,,,9999.0,,10.0,10.0,29.97,,,,,,,,,,,,,,,,,600.0,600.0,OVC,600.0,,,,,,
KRDR,09-16-2017,16:22,SPECI,Normal,350,9,,,9999.0,,9.0,9.0,29.97,,,,,,,,,,,,,,,,,500.0,500.0,OVC,500.0,,,,,,
KRDR,09-16-2017,16:22,METAR,Normal,350,9,,,9999.0,,10.0,10.0,29.97,,,,,,,,,,,,,,,,,500.0,500.0,OVC,500.0,,,,,,
KRDR,09-16-2017,16:20,SPECI,Normal,360,10,,,9999.0,Light Drizzle,,,29.97,,51,,,,,,,,,,,,,,,500.0,500.0,OVC,500.0,,,,,,
KRDR,09-16-2017,16:20,METAR,Normal,360,10,,,9999.0,Light Drizzle,10.0,10.0,29.97,,51,,,,,,,,,,,,,,,500.0,500.0,OVC,500.0,,,,,,
KRDR,09-16-2017,15:56,METAR,Normal,360,11,,,8000.0,Mist,10.0,10.0,29.96,,10,,,,,,,,,,TRACE,,,,,500.0,500.0,OVC,500.0,,,,,,
KRDR,09-16-2017,15:30,SPECI,Normal,360,10,,,8000.0,Light Drizzle,9.0,9.0,29.96,,51,,,,,,,,,,,,,,,600.0,600.0,OVC,600.0,,,,,,
KRDR,09-16-2017,14:56,METAR,Normal,10,10,,,8000.0,Mist,9.0,9.0,29.96,,10,,,,,,,,,,TRACE,,,,,500.0,500.0,OVC,500.0,,,,,,
KRDR,09-16-2017,14:24,SPECI,Normal,10,9,16.0,,8000.0,Haze Smoke or Dust,9.0,9.0,29.96,,05,,,,,,,,,,,,,,,500.0,500.0,OVC,500.0,,,,,,
KRDR,09-16-2017,13:56,METAR,Normal,360,10,17.0,,4800.0,Light Drizzle,9.0,9.0,29.94,,51,,,,,,,,,,TRACE,,,,,400.0,400.0,BKN,400.0,OVC,800.0,,,,
KRDR,09-16-2017,13:47,SPECI,Normal,360,11,17.0,,4800.0,Light Drizzle,,,29.94,,51,,,,,,,,,,,,,,,500.0,500.0,OVC,500.0,,,,,,
KRDR,09-16-2017,12:56,METAR,Normal,360,12,,,8000.0,Light Drizzle,9.0,9.0,29.93,,51,,,,,,,,,,TRACE,,,,,500.0,500.0,OVC,500.0,,,,,,
KRDR,09-16-2017,12:07,SPECI,Normal,10,13,17.0,,8000.0,Light Drizzle,9.0,9.0,29.90,,51,,,,,,,,,,,,,,,400.0,500.0,OVC,500.0,,,,,,
KRDR,09-16-2017,11:56,METAR,Normal,10,11,,,8000.0,Light Rain,8.0,8.0,29.90,,61,,,,,,,,,,.01 IN,,.03 IN,2.26 IN,,400.0,500.0,OVC,500.0,,,,,,
KRDR,09-16-2017,11:44,SPECI,Normal,360,13,19.0,,6400.0,Light Rain,9.0,9.0,29.90,,61,,,,,,,,,,,,,,,400.0,500.0,OVC,500.0,,,,,,
KRDR,09-16-2017,11:21,SPECI,Normal,10,13,19.0,,4800.0,Light Rain,9.0,9.0,29.89,,61,,,,,,,,,,,,,,,400.0,600.0,OVC,600.0,,,,,,
KRDR,09-16-2017,11:01,SPECI,Normal,10,15,18.0,,6400.0,Light Rain/Mist,8.0,8.0,29.88,1012.7,61,10,,,,,,,,,,,,,,400.0,500.0,OVC,500.0,,,,,,
KRDR,09-16-2017,10:56,METAR,Normal,10,13,,,6400.0,Light Rain/Mist,8.1,8.0,29.89,1013.1,61,10,,,,,,,,,TRACE,,,,,400.0,400.0,OVC,400.0,,,,,,
KRDR,09-16-2017,10:21,SPECI,Normal,10,12,19.0,,6400.0,Light Rain/Mist,8.0,8.0,29.87,1012.5,61,10,,,,,,,,,,,,,,400.0,400.0,OVC,400.0,,,,,,
KRDR,09-16-2017,09:56,METAR,Normal,10,14,,,6400.0,Light Drizzle/Mist,8.1,8.0,29.86,1012.1,51,10,,,,,,,,,TRACE,,,,,500.0,500.0,OVC,500.0,,,,,,
KRDR,09-16-2017,09:36,SPECI,Normal,20,15,22.0,,8000.0,Light Rain/Mist,8.0,8.0,29.86,1012.1,61,10,,,,,,,,,,,,,,400.0,500.0,OVC,500.0,,,,,,
KRDR,09-16-2017,09:26,SPECI,Normal,20,16,20.0,,6400.0,Light Drizzle/Mist,8.0,8.0,29.85,1011.8,51,10,,,,,,,,,,,,,,400.0,400.0,OVC,400.0,,,,,,
KRDR,09-16-2017,08:56,METAR,Normal,20,14,21.0,,6400.0,Light Rain/Mist,8.2,8.1,29.84,1011.4,61,10,,,,,,,,,TRACE,.02 IN,,,,500.0,500.0,OVC,500.0,,,,,,
KRDR,09-16-2017,07:56,METAR,Normal,20,14,22.0,,9999.0,Light Rain/Mist,8.3,8.2,29.83,1011.0,61,10,,,,,,,,,.01 IN,,,,,500.0,500.0,OVC,500.0,,,,,,
KRDR,09-16-2017,06:59,SPECI,Normal,20,14,22.0,,6400.0,Light Rain/Mist,9.0,8.0,29.83,1011.0,61,10,,,,,,,,,,,,,,500.0,500.0,OVC,500.0,,,,,,
KRDR,09-16-2017,06:57,SPECI,Normal,10,14,22.0,,6400.0,Mist,9.0,8.0,29.83,1011.0,10,,,,,,,,,,,,,,,500.0,500.0,OVC,500.0,,,,,,
KRDR,09-16-2017,06:56,METAR,Normal,10,13,22.0,,6400.0,Light Rain/Mist,8.6,8.4,29.83,1011.0,61,10,,,,,,,,,.01 IN,,,,,500.0,500.0,OVC,500.0,,,,,,
KRDR,09-16-2017,06:55,SPECI,Normal,10,12,22.0,,6400.0,Light Rain/Mist,9.0,8.0,29.83,1011.0,61,10,,,,,,,,,,,,,,500.0,500.0,OVC,500.0,,,,,,
KRDR,09-16-2017,06:54,SPECI,Normal,10,13,22.0,,6400.0,Mist,9.0,8.0,29.83,1011.0,10,,,,,,,,,,,,,,,500.0,500.0,OVC,500.0,,,,,,
KRDR,09-16-2017,06:51,SPECI,Normal,10,15,22.0,,6400.0,Light Rain/Mist,9.0,8.0,29.83,1011.0,61,10,,,,,,,,,,,,,,400.0,500.0,OVC,500.0,,,,,,
KRDR,09-16-2017,06:21,SPECI,Normal,10,15,,,4800.0,Light Rain/Mist,9.0,9.0,29.82,1010.6,61,10,,,,,,,,,,,,,,400.0,400.0,OVC,400.0,,,,,,
KRDR,09-16-2017,06:06,SPECI,Normal,20,15,,,4800.0,Light Rain/Mist,9.0,9.0,29.81,1010.3,61,10,,,,,,,,,,,,,,500.0,500.0,OVC,500.0,,,,,,
KRDR,09-16-2017,06:01,SPECI,Normal,20,13,21.0,,4400.0,Light Rain/Mist,9.0,9.0,29.81,1010.3,61,10,,,,,,,,,,,,,,500.0,500.0,OVC,500.0,,,,,,
KRDR,09-16-2017,05:56,METAR,Normal,20,16,21.0,,6400.0,Light Rain/Mist,9.1,8.9,29.80,1010.0,61,10,,,,,,,,,TRACE,,1.5 IN,,,500.0,500.0,OVC,500.0,,,,,,
KRDR,09-16-2017,05:43,SPECI,Normal,20,15,,,9999.0,Light Drizzle,9.0,9.0,29.82,1010.6,51,,,,,,,,,,,,,,,500.0,500.0,OVC,500.0,,,,,,
KRDR,09-16-2017,05:41,SPECI,Normal,20,14,,,9999.0,,9.0,9.0,29.82,1010.6,,,,,,,,,,,,,,,,500.0,500.0,OVC,500.0,,,,,,
KRDR,09-16-2017,05:26,SPECI,Normal,20,13,,,9999.0,,9.0,9.0,29.81,1010.3,,,,,,,,,,,,,,,,500.0,600.0,OVC,600.0,,,,,,
KRDR,09-16-2017,04:56,METAR,Normal,20,14,20.0,,9999.0,,9.5,9.3,29.81,1010.3,,,,,,,,,,,.07 IN,,,,,500.0,500.0,OVC,500.0,,,,,,
KRDR,09-16-2017,04:53,SPECI,Normal,20,14,,,9999.0,,10.0,9.0,29.81,1010.3,,,,,,,,,,,,,,,,500.0,500.0,OVC,500.0,,,,,,
KRDR,09-16-2017,04:23,SPECI,Normal,30,14,,,9999.0,Light Rain,10.0,9.0,29.82,1010.6,61,,,,,,,,,,,,,,,500.0,500.0,BKN,500.0,OVC,1500.0,,,,
KRDR,09-16-2017,04:18,SPECI,Normal,40,14,,,9999.0,Light Rain,10.0,9.0,29.81,1010.3,61,,,,,,,,,,,,,,,500.0,500.0,SCT,500.0,OVC,1600.0,,,,
KRDR,09-16-2017,04:10,SPECI,Normal,40,18,,,4800.0,Mist,10.0,9.0,29.81,1010.3,10,,,,,,,,,,,,,,,500.0,500.0,FEW,500.0,OVC,1600.0,,,,
KRDR,09-16-2017,04:03,SPECI,Normal,40,18,24.0,,4800.0,Light Rain/Mist,10.0,9.0,29.82,1010.6,61,10,,,,,,,,,,,,,,400.0,1400.0,OVC,1400.0,,,,,,
KRDR,09-16-2017,04:01,SPECI,Normal,40,17,24.0,,4800.0,Light Rain/Mist,10.0,9.0,29.82,1010.6,61,10,,,,,,,,,,,,,,400.0,1400.0,OVC,1400.0,,,,,,
KRDR,09-16-2017,03:56,METAR,Normal,30,16,22.0,020/26KTS,4800.0,Light Rain/Mist,9.6,9.4,29.82,1010.6,61,10,,,,,,,,,.61 IN,,,,,400.0,1500.0,OVC,1500.0,,,,,,
KRDR,09-16-2017,03:49,SPECI,Normal,40,15,,,2600.0,Light Rain/Mist,10.0,9.0,29.82,1010.6,61,10,,,,,,,,,,,,,,400.0,1500.0,OVC,1500.0,,,,,,
KRDR,09-16-2017,03:47,SPECI,Normal,30,18,,,2200.0,Mist,10.0,10.0,29.81,1010.3,10,,,,,,,,,,,,,,,400.0,1500.0,OVC,1500.0,,,,,,
KRDR,09-16-2017,03:43,SPECI,Normal,30,18,,,1600.0,Light Rain/Mist,10.0,10.0,29.82,1010.6,61,10,,,,,,,,,,,,,Sky Obscured (Unable to Estimate),400.0,1500.0,,1500.0,,,,,,
KRDR,09-16-2017,03:38,SPECI,Normal,30,19,25.0,,1800.0,Heavy Rain/Mist,10.0,10.0,29.82,1010.6,63,10,,,,,,,,,,,,,,400.0,1500.0,OVC,1500.0,,,,,,
KRDR,09-16-2017,03:32,SPECI,Normal,30,21,25.0,,3000.0,Heavy Rain/Mist,10.0,10.0,29.82,1010.6,,,,65,10,,,,,,,,,,,400.0,1500.0,OVC,1500.0,,,,,,
KRDR,09-16-2017,03:27,SPECI,Normal,20,16,,,4000.0,Heavy Rain/Mist,10.0,10.0,29.83,1011.0,63,10,,,,,,,,,,,,,,400.0,900.0,OVC,900.0,,,,,,
KRDR,09-16-2017,03:12,SPECI,Normal,10,16,,,4000.0,Heavy Rain/Mist,10.0,10.0,29.84,1011.3,63,10,,,,,,,,,,,,,,400.0,800.0,OVC,800.0,,,,,,
KRDR,09-16-2017,03:01,SPECI,Normal,10,15,,,4000.0,Heavy Rain/Mist,10.0,10.0,29.85,1011.7,63,10,,,,,,,,,,,,,,300.0,1000.0,OVC,1000.0,,,,,,
KRDR,09-16-2017,02:56,METAR,Normal,10,14,,,3600.0,Heavy Rain/Mist,10.1,9.9,29.84,1011.3,63,10,,,,,,,,,.73 IN,.83 IN,,,,300.0,1000.0,OVC,1000.0,,,,,,
KRDR,09-16-2017,02:44,SPECI,Normal,20,14,,,3200.0,Heavy Rain/Mist,10.0,10.0,29.85,1011.7,63,10,,,,,,,,,,,,,,300.0,1000.0,OVC,1000.0,,,,,,
KRDR,09-16-2017,02:41,SPECI,Normal,10,13,,,3600.0,Heavy Rain/Mist,10.0,10.0,29.85,1011.7,63,10,,,,,,,,,,,,,,300.0,1200.0,OVC,1200.0,,,,,,
KRDR,09-16-2017,02:36,SPECI,Normal,20,13,,,3600.0,Heavy Rain/Mist,10.0,10.0,29.85,1011.7,63,10,,,,,,,,,,,,,,200.0,1800.0,OVC,1800.0,,,,,,
KRDR,09-16-2017,02:31,SPECI,Normal,20,13,,,2400.0,Heavy Rain/Mist,10.0,10.0,29.85,1011.7,63,10,,,,,,,,,,,,,,200.0,1800.0,OVC,1800.0,,,,,,
KRDR,09-16-2017,02:26,SPECI,Normal,10,12,,,2200.0,Heavy Rain/Mist,11.0,10.0,29.85,1011.7,63,10,,,,,,,,,,,,,,200.0,1800.0,OVC,1800.0,,,,,,
KRDR,09-16-2017,02:21,SPECI,Normal,30,13,,,3000.0,Heavy Rain/Mist,11.0,10.0,29.84,1011.3,63,10,,,,,,,,,,,,,,400.0,2000.0,OVC,2000.0,,,,,,
KRDR,09-16-2017,02:16,SPECI,Normal,10,10,,,4000.0,Heavy Rain/Mist,11.0,10.0,29.85,1011.7,63,10,,,,,,,,,,,,,,400.0,500.0,FEW,500.0,OVC,1800.0,,,,
KRDR,09-16-2017,02:11,SPECI,Normal,10,11,,,4800.0,Rain/Mist,11.0,10.0,29.85,1011.7,62,10,,,,,,,,,,,,,,400.0,500.0,FEW,500.0,OVC,1800.0,,,,
KRDR,09-16-2017,02:06,SPECI,Normal,30,13,,,8000.0,Heavy Rain/Distant Lightning/Mist,11.0,11.0,29.84,1011.3,63,10,12,,,,,,,,,,,,,400.0,500.0,FEW,500.0,OVC,1300.0,,,,
KRDR,09-16-2017,02:01,SPECI,Normal,10,12,,,8000.0,Light Rain/Distant Lightning/Mist,11.0,11.0,29.85,1011.7,61,10,12,,,,,,,,,,,,,500.0,500.0,SCT,500.0,OVC,1100.0,,,,
KRDR,09-16-2017,01:56,METAR,Normal,360,9,,,4800.0,Heavy Rain/Distant Lightning/Mist,10.8,10.6,29.87,1012.3,63,10,12,,,,,,,,.09 IN,,,,,500.0,500.0,BKN,500.0,OVC,1100.0,,,,
KRDR,09-16-2017,01:51,SPECI,Normal,30,10,,,4800.0,Rain/Mist,11.0,11.0,29.84,1011.3,62,10,,,,,,,,,,,,,,500.0,500.0,BKN,500.0,OVC,1100.0,,,,
KRDR,09-16-2017,01:46,SPECI,Normal,50,12,,,4400.0,Rain/Mist,11.0,11.0,29.83,1011.0,62,10,,,,,,,,,,,,,,500.0,500.0,BKN,500.0,OVC,1100.0,,,,
KRDR,09-16-2017,01:31,SPECI,Normal,40,13,20.0,,9999.0,Light Rain,11.0,11.0,29.81,1010.3,61,,,,,,,,,,,,,,,500.0,500.0,OVC,500.0,,,,,,
KRDR,09-16-2017,00:58,SPECI,Normal,50,13,,,9999.0,,11.0,11.0,29.83,1011.0,,,,,,,,,,,,,,,,500.0,500.0,OVC,500.0,,,,,,
KRDR,09-16-2017,00:56,METAR,Normal,40,13,,,9999.0,Light Drizzle/Mist,10.8,10.6,29.82,1010.6,51,10,,,,,,,,,.01 IN,,,,,500.0,500.0,OVC,500.0,,,,,,
KRDR,09-16-2017,00:21,SPECI,Normal,50,12,,,8000.0,Light Rain/Mist,11.0,11.0,29.83,1011.0,61,10,,,,,,,,,,,,,,500.0,500.0,OVC,500.0,,,,,,
KRDR,09-15-2017,23:56,METAR,Normal,50,14,20.0,,4800.0,Light Rain/Mist,10.9,10.7,29.84,1011.3,61,10,,,,,,,,,TRACE,,.73 IN,,,600.0,600.0,OVC,600.0,,,,,,
KRDR,09-15-2017,23:54,SPECI,Normal,50,14,20.0,,4800.0,Light Rain/Mist,11.0,11.0,29.84,1011.3,61,10,,,,,,,,,,,,,,600.0,600.0,OVC,600.0,,,,,,
KRDR,09-15-2017,23:34,SPECI,Normal,40,14,,,4400.0,Light Rain/Mist,11.0,11.0,29.85,1011.7,61,10,,,,,,,,,,,,,,600.0,600.0,OVC,600.0,,,,,,
KRDR,09-15-2017,23:29,SPECI,Normal,40,15,21.0,,6400.0,Light Rain/Mist,11.0,11.0,29.84,1011.3,61,10,,,,,,,,,,,,,,600.0,600.0,OVC,600.0,,,,,,
KRDR,09-15-2017,23:19,SPECI,Normal,50,15,,,9999.0,Light Drizzle/Mist,11.0,11.0,29.84,1011.4,51,10,,,,,,,,,,,,,,600.0,700.0,OVC,700.0,,,,,,
KRDR,09-15-2017,23:18,SPECI,Normal,40,15,,,9999.0,Mist,11.0,11.0,29.84,1011.4,10,,,,,,,,,,,,,,,600.0,700.0,OVC,700.0,,,,,,
KRDR,09-15-2017,23:17,SPECI,Normal,50,17,,,9999.0,Light Drizzle/Mist,11.0,11.0,29.84,1011.4,51,10,,,,,,,,,,,,,,600.0,700.0,OVC,700.0,,,,,,
KRDR,09-15-2017,23:11,SPECI,Normal,50,14,,,9999.0,Mist,11.0,11.0,29.85,1011.7,10,,,,,,,,,,,,,,,600.0,700.0,OVC,700.0,,,,,,
KRDR,09-15-2017,22:56,METAR,Normal,40,14,21.0,,9999.0,Light Rain,11.0,10.8,29.86,1012.0,61,,,,,,,,,,.04 IN,,,,,600.0,700.0,OVC,700.0,,,,,,
KRDR,09-15-2017,22:36,SPECI,Normal,50,14,,,9999.0,Light Rain,11.0,11.0,29.86,1012.0,61,,,,,,,,,,,,,,,600.0,700.0,OVC,700.0,,,,,,
KRDR,09-15-2017,22:31,SPECI,Normal,50,13,,,9999.0,Light Rain,11.0,11.0,29.87,1012.3,61,,,,,,,,,,,,,,,600.0,700.0,OVC,700.0,,,,,,
KRDR,09-15-2017,22:06,SPECI,Normal,40,13,,,9999.0,Light Rain,11.0,11.0,29.88,1012.7,61,,,,,,,,,,,,,,,600.0,800.0,OVC,800.0,,,,,,
KRDR,09-15-2017,21:56,METAR,Normal,40,11,,,9999.0,Light Rain,10.9,10.7,29.89,1013.0,61,,,,,,,,,,.21 IN,,,,,600.0,600.0,BKN,600.0,OVC,1000.0,,,,
KRDR,09-15-2017,21:51,SPECI,Normal,40,10,19.0,,6400.0,Light Rain/Mist,11.0,11.0,29.89,1013.0,61,10,,,,,,,,,,,,,,600.0,800.0,OVC,800.0,,,,,,
KRDR,09-15-2017,21:36,SPECI,Normal,40,13,,,9999.0,Light Rain/Mist,11.0,11.0,29.88,1012.7,61,10,,,,,,,,,,,,,,500.0,700.0,BKN,700.0,OVC,1200.0,,,,
KRDR,09-15-2017,21:31,SPECI,Normal,40,13,,,6400.0,Light Rain/Mist,11.0,11.0,29.88,1012.7,61,10,,,,,,,,,,,,,,500.0,700.0,SCT,700.0,OVC,1200.0,,,,
KRDR,09-15-2017,21:26,SPECI,Normal,50,14,,,3000.0,Rain/Mist,11.0,11.0,29.87,1012.3,62,10,,,,,,,,,,,,,,500.0,600.0,FEW,600.0,OVC,1200.0,,,,
KRDR,09-15-2017,21:21,SPECI,Normal,50,18,,,1800.0,Heavy Rain/Mist,11.0,11.0,29.86,1012.0,63,10,,,,,,,,,,,,,,500.0,600.0,FEW,600.0,OVC,1200.0,,,,
KRDR,09-15-2017,21:16,SPECI,Normal,50,16,,,2000.0,Heavy Rain/Mist,11.0,11.0,29.87,1012.3,63,10,,,,,,,,,,,,,,500.0,600.0,FEW,600.0,OVC,1200.0,,,,
KRDR,09-15-2017,21:11,SPECI,Normal,30,13,,,3000.0,Heavy Rain/Mist,11.0,11.0,29.88,1012.7,63,10,,,,,,,,,,,,,,600.0,600.0,FEW,600.0,OVC,1200.0,,,,
KRDR,09-15-2017,21:06,SPECI,Normal,30,13,,,4000.0,Heavy Rain/Mist,11.0,11.0,29.88,1012.7,63,10,,,,,,,,,,,,,,600.0,700.0,SCT,700.0,OVC,1200.0,,,,
KRDR,09-15-2017,20:56,METAR,Normal,60,18,21.0,,2600.0,Heavy Rain/Mist,11.0,10.7,29.85,1011.7,63,10,,,,,,,,,.27 IN,.48 IN,,,,600.0,700.0,SCT,700.0,OVC,1100.0,,,,
KRDR,09-15-2017,20:53,SPECI,Normal,50,17,21.0,,2600.0,Rain/Mist,11.0,11.0,29.86,1012.0,62,10,,,,,,,,,,,,,,600.0,700.0,SCT,700.0,OVC,1400.0,,,,
KRDR,09-15-2017,20:38,SPECI,Normal,40,16,20.0,,4400.0,Light Rain/Mist,11.0,11.0,29.88,1012.7,61,10,,,,,,,,,,,,,,700.0,700.0,BKN,700.0,OVC,1600.0,,,,
KRDR,09-15-2017,20:33,SPECI,Normal,40,14,23.0,,4000.0,Rain/Mist,11.0,11.0,29.88,1012.7,62,10,,,,,,,,,,,,,,700.0,800.0,SCT,800.0,OVC,1600.0,,,,
KRDR,09-15-2017,20:28,SPECI,Normal,40,14,23.0,,2800.0,Light Rain/Mist,11.0,11.0,29.87,1012.3,61,10,,,,,,,,,,,,,,1200.0,800.0,SCT,800.0,OVC,1600.0,,,,
KRDR,09-15-2017,20:23,SPECI,Normal,40,19,23.0,,2200.0,Rain/Mist,11.0,11.0,29.85,1011.7,62,10,,,,,,,,,,,,,,1200.0,900.0,SCT,900.0,OVC,1600.0,,,,
KRDR,09-15-2017,20:18,SPECI,Normal,40,19,23.0,,2800.0,Rain/Mist,11.0,11.0,29.86,1012.0,62,10,,,,,,,,,,,,,,1200.0,900.0,SCT,900.0,OVC,1600.0,,,,
KRDR,09-15-2017,20:13,SPECI,Normal,40,18,23.0,,4000.0,Light Rain/Mist,11.0,11.0,29.87,1012.3,61,10,,,,,,,,,,,,,,1000.0,900.0,SCT,900.0,OVC,1500.0,,,,
KRDR,09-15-2017,20:01,SPECI,Normal,30,16,24.0,,4800.0,Mist,11.0,11.0,29.88,1012.7,10,,,,,,,,,,,,,,,1000.0,1000.0,SCT,1000.0,OVC,1500.0,,,,
KRDR,09-15-2017,20:00,SPECI,Normal,30,15,24.0,,4800.0,Light Rain/Mist,11.0,11.0,29.88,1012.7,61,10,,,,,,,,,,,,,,1000.0,1000.0,SCT,1000.0,OVC,1500.0,,,,
KRDR,09-15-2017,19:59,SPECI,Normal,30,15,24.0,,4400.0,Mist,11.0,11.0,29.87,1012.3,10,,,,,,,,,,,,,,,1000.0,1000.0,SCT,1000.0,OVC,1500.0,,,,
KRDR,09-15-2017,19:56,METAR,Normal,30,18,24.0,,4000.0,Light Rain/Mist,11.3,10.7,29.87,1012.3,61,10,,,,,,,,,.16 IN,,,,,1000.0,900.0,SCT,900.0,OVC,1500.0,,,,
KRDR,09-15-2017,19:44,SPECI,Normal,20,13,24.0,,4000.0,Rain/Mist,12.0,11.0,29.88,1012.7,62,10,,,,,,,,,,,,,,1100.0,900.0,FEW,900.0,OVC,1500.0,,,,
KRDR,09-15-2017,19:43,SPECI,Normal,30,13,24.0,,4400.0,Rain/Mist,12.0,11.0,29.88,1012.7,62,10,,,,,,,,,,,,,,1100.0,1300.0,OVC,1300.0,,,,,,
KRDR,09-15-2017,19:40,SPECI,Normal,30,17,24.0,,4800.0,Mist,12.0,11.0,29.87,1012.3,10,,,,,,,,,,,,,,,1100.0,900.0,FEW,900.0,OVC,1300.0,,,,
KRDR,09-15-2017,19:28,SPECI,Normal,30,18,24.0,,6400.0,Mist,12.0,11.0,29.89,1013.0,10,,,,,,,,,,,,,,,1200.0,1200.0,OVC,1200.0,,,,,,
KRDR,09-15-2017,19:07,SPECI,Normal,40,17,22.0,,4800.0,Light Rain/Mist,12.0,11.0,29.88,1012.6,61,10,,,,,,,,,,,,,,1300.0,1400.0,OVC,1400.0,,,,,,
KRDR,09-15-2017,19:03,SPECI,Normal,30,18,22.0,,4800.0,Mist,12.0,11.0,29.88,1012.6,10,,,,,,,,,,,,,,,1300.0,1400.0,OVC,1400.0,,,,,,
KRDR,09-15-2017,19:01,SPECI,Normal,40,15,22.0,,4400.0,Light Rain/Mist,12.0,11.0,29.88,1012.6,61,10,,,,,,,,,,,,,,1300.0,1400.0,OVC,1400.0,,,,,,
KRDR,09-15-2017,18:56,METAR,Normal,40,16,,,4800.0,Rain/Mist,12.0,10.7,29.88,1012.6,62,10,,,,,,,,,.05 IN,,,,,1400.0,1400.0,OVC,1400.0,,,,,,
KRDR,09-15-2017,18:36,SPECI,Normal,40,16,,,9999.0,Light Rain,13.0,10.0,29.89,1013.0,61,,,,,,,,,,,,,,,1400.0,1400.0,OVC,1400.0,,,,,,
KRDR,09-15-2017,18:16,SPECI,Normal,30,16,,,9999.0,Rain,13.0,9.0,29.90,1013.3,,,,61,,,,,,,,,,,,1400.0,1400.0,OVC,1400.0,,,,,,
KRDR,09-15-2017,17:56,METAR,Normal,30,16,,,9999.0,,12.5,9.3,29.91,1013.6,,,,,,,,,,,,,,,,1300.0,1300.0,OVC,1300.0,,,,,,
KRDR,09-15-2017,17:31,SPECI,Normal,20,16,,,9999.0,,13.0,10.0,29.92,1014.0,,,,,,,,,,,,,,,,1200.0,1200.0,OVC,1200.0,,,,,,
KRDR,09-15-2017,16:56,METAR,Normal,40,17,,,9999.0,,12.2,9.4,29.91,1013.6,,,,,,,,,,,,,,,,1000.0,1100.0,OVC,1100.0,,,,,,
KRDR,09-15-2017,15:56,METAR,Normal,30,12,,,9999.0,,12.1,9.1,29.95,1015.0,,,,,,,,,,,,,,,,1000.0,1000.0,OVC,1000.0,,,,,,
KRDR,09-15-2017,14:56,METAR,Normal,40,15,,,9999.0,,11.8,8.8,29.94,1014.6,,,,,,,,,,,,,,,,1000.0,1000.0,OVC,1000.0,,,,,,
KRDR,09-15-2017,14:11,SPECI,Normal,30,15,,,9999.0,,11.0,9.0,29.94,1014.6,,,,,,,,,,,,,,,,1000.0,1000.0,OVC,1000.0,,,,,,
KRDR,09-15-2017,13:56,METAR,Normal,30,14,,,9999.0,,10.9,8.3,29.95,1014.9,,,,,,,,,,,,,,,,900.0,900.0,OVC,900.0,,,,,,
KRDR,09-15-2017,13:36,SPECI,Normal,30,15,21.0,,9999.0,,11.0,8.0,29.95,1014.9,,,,,,,,,,,,,,,,900.0,900.0,OVC,900.0,,,,,,
KRDR,09-15-2017,12:56,METAR,Normal,30,10,,,9999.0,,10.5,8.1,29.96,1015.3,,,,,,,,,,,,,,,,1000.0,1000.0,OVC,1000.0,,,,,,
KRDR,09-15-2017,11:56,METAR,Normal,20,12,,,9999.0,,10.1,7.9,29.95,1014.9,,,,,,,,,,,,,,.03 IN,,1000.0,1000.0,OVC,1000.0,,,,,,
KRDR,09-15-2017,11:41,SPECI,Normal,30,11,,,9999.0,,10.0,8.0,29.95,1014.9,,,,,,,,,,,,,,,,1000.0,1000.0,OVC,1000.0,,,,,,
KRDR,09-15-2017,10:56,METAR,Normal,30,11,,,9999.0,,10.0,7.6,29.94,1014.6,,,,,,,,,,,,,,,,1300.0,1300.0,OVC,1300.0,,,,,,
KRDR,09-15-2017,10:16,SPECI,Normal,20,9,,,9999.0,,10.0,8.0,29.95,1014.9,,,,,,,,,,,,,,,,1200.0,1200.0,OVC,1200.0,,,,,,
KRDR,09-15-2017,09:56,METAR,Normal,20,11,,,9999.0,,10.3,7.7,29.95,1014.9,,,,,,,,,,,,,,,,1100.0,1100.0,OVC,1100.0,,,,,,
KRDR,09-15-2017,08:56,METAR,Normal,20,12,,,9999.0,,10.4,8.0,29.92,1014.0,,,,,,,,,,,,,,,,1100.0,1100.0,OVC,1100.0,,,,,,
KRDR,09-15-2017,08:48,SPECI,Normal,20,12,17.0,,9999.0,,11.0,8.0,29.92,1014.0,,,,,,,,,,,,,,,,1100.0,1100.0,OVC,1100.0,,,,,,
KRDR,09-15-2017,07:56,METAR,Normal,10,11,,,9999.0,,10.5,8.3,29.93,1014.3,,,,,,,,,,,,,,,,1300.0,1300.0,OVC,1300.0,,,,,,
KRDR,09-15-2017,07:31,SPECI,Normal,20,11,,,9999.0,,11.0,8.0,29.93,1014.3,,,,,,,,,,,,,,,,1400.0,1400.0,OVC,1400.0,,,,,,
KRDR,09-15-2017,06:56,METAR,Normal,20,11,,,9999.0,,11.1,8.7,29.93,1014.3,,,,,,,,,,,,,,,,1600.0,1700.0,OVC,1700.0,,,,,,
KRDR,09-15-2017,06:01,SPECI,Normal,10,10,,,9999.0,,11.0,9.0,29.92,1013.9,,,,,,,,,,,,,,,,1900.0,1900.0,BKN,1900.0,,,,,,
KRDR,09-15-2017,05:56,METAR,Normal,10,11,,,9999.0,,10.9,8.6,29.92,1013.9,,,,,,,,,,,,,,,4/8 Partly Cloudy,72000.0,1900.0,SCT,1900.0,,,,,,
KRDR,09-15-2017,04:56,METAR,Normal,360,10,,,9999.0,,11.9,8.6,29.90,1013.2,,,,,,,,,,,,,,,4/8 Partly Cloudy,72000.0,6500.0,SCT,6500.0,,,,,,
KRDR,09-15-2017,03:56,METAR,Normal,10,13,,,9999.0,,12.7,8.6,29.89,1012.8,,,,,,,,,,,,,,,Clear,72000.0,,,,,,,,,
KRDR,09-15-2017,03:06,SPECI,Normal,10,12,16.0,,9999.0,,13.0,9.0,29.87,1012.2,,,,,,,,,,,,,,,4/8 Partly Cloudy,72000.0,2200.0,SCT,2200.0,SCT,6500.0,,,,
KRDR,09-15-2017,02:56,METAR,Normal,10,11,,,9999.0,,13.5,9.2,29.87,1012.1,,,,,,,,,,,,,,,,2300.0,2300.0,BKN,2300.0,BKN,6500.0,,,,
KRDR,09-15-2017,01:56,METAR,Normal,10,12,,,9999.0,,14.1,9.7,29.86,1011.7,,,,,,,,,,,,,,,,6000.0,6000.0,BKN,6000.0,,,,,,
KRDR,09-15-2017,00:56,METAR,Normal,10,14,,,9999.0,,15.1,10.3,29.84,1011.1,,,,,,,,,,,,,,,,6000.0,6000.0,BKN,6000.0,,,,,,
KRDR,09-14-2017,23:56,METAR,Normal,10,11,,,9999.0,,16.6,11.5,29.82,1010.3,,,,,,,,,,,,,.03 IN,,,5500.0,5500.0,BKN,5500.0,,,,,,
KRDR,09-14-2017,22:56,METAR,Normal,10,12,,,9999.0,,16.4,11.7,29.80,1009.6,,,,,,,,,,,,,,,,5500.0,5500.0,BKN,5500.0,,,,,,
KRDR,09-14-2017,21:56,METAR,Normal,10,12,,,9999.0,,14.8,12.5,29.79,1009.4,,,,,,,,,,,,,,,2/8 Mostly Clear,72000.0,5000.0,FEW,5000.0,,,,,,
KRDR,09-14-2017,20:56,METAR,Normal,360,9,,,9999.0,,12.8,11.9,29.79,1009.4,,,,,,,,,,,TRACE,.03 IN,,,4/8 Partly Cloudy,72000.0,10000.0,SCT,10000.0,,,,,,
KRDR,09-14-2017,19:58,SPECI,Normal,360,10,,,9999.0,,13.0,13.0,29.79,1009.4,,,,,,,,,,,,,,,4/8 Partly Cloudy,72000.0,700.0,FEW,700.0,SCT,10000.0,,,,
KRDR,09-14-2017,19:57,SPECI,Normal,360,10,,,9999.0,,13.0,13.0,29.79,1009.4,,,,,,,,,,,,,,,2/8 Mostly Clear,72000.0,10000.0,FEW,10000.0,,,,,,
KRDR,09-14-2017,19:56,METAR,Normal,360,10,,,9999.0,Light Drizzle,13.3,12.5,29.79,1009.4,51,,,,,,,,,,.03 IN,,,,4/8 Partly Cloudy,72000.0,10000.0,SCT,10000.0,,,,,,
KRDR,09-14-2017,19:42,SPECI,Normal,10,11,,,9999.0,Light Drizzle,13.0,12.0,29.77,1008.7,51,,,,,,,,,,,,,,,10000.0,10000.0,BKN,10000.0,,,,,,
KRDR,09-14-2017,19:28,SPECI,Normal,10,11,,,9999.0,,13.0,12.0,29.78,1009.1,,,,,,,,,,,,,,,,10000.0,4300.0,SCT,4300.0,OVC,10000.0,,,,
KRDR,09-14-2017,19:21,SPECI,Normal,10,10,,,9999.0,Light Rain,13.0,12.0,29.77,1008.7,61,,,,,,,,,,,,,,,4300.0,4300.0,BKN,4300.0,BKN,10000.0,,,,
KRDR,09-14-2017,19:06,SPECI,Normal,10,10,,,9999.0,Thunderstorm and Rain or Snow Showers,13.0,12.0,29.77,1008.7,92,,,,,,,,,,,,,,,6500.0,4300.0,SCT,4300.0,BKN,6500.0,BKN,10000.0,,
KRDR,09-14-2017,18:56,METAR,Normal,10,10,,,9999.0,Light Rain,13.3,11.3,29.77,1008.7,61,,,,,,,,,,TRACE,,,,,5000.0,5000.0,BKN,5000.0,BKN,6500.0,BKN,8000.0,BKN,10000.0
KRDR,09-14-2017,18:48,SPECI,Normal,20,9,,,9999.0,Light Drizzle,14.0,11.0,29.77,1008.7,51,,,,,,,,,,,,,,4/8 Partly Cloudy,72000.0,10000.0,SCT,10000.0,,,,,,
KRDR,09-14-2017,17:56,METAR,Normal,20,9,,,9999.0,,14.5,11.5,29.75,1008.1,,,,,,,,,,,TRACE,,TRACE,,,4000.0,4000.0,BKN,4000.0,,,,,,
KRDR,09-14-2017,17:29,SPECI,Normal,330,9,,,9999.0,,14.0,12.0,29.76,1008.4,,,,,,,,,,,,,,,,3000.0,3000.0,BKN,3000.0,,,,,,
KRDR,09-14-2017,17:24,SPECI,Normal,20,10,,,9999.0,,14.0,12.0,29.74,1007.7,,,,,,,,,,,,,,,,2000.0,2000.0,OVC,2000.0,,,,,,
KRDR,09-14-2017,17:19,SPECI,Normal,360,9,,,9999.0,,14.0,12.0,29.75,1008.0,,,,,,,,,,,,,,,,2000.0,2000.0,OVC,2000.0,,,,,,
KRDR,09-14-2017,17:12,SPECI,Normal,350,10,,,9999.0,Light Rain,14.0,11.0,29.75,1008.0,61,,,,,,,,,,,,,,,2000.0,2000.0,OVC,2000.0,,,,,,
KRDR,09-14-2017,17:05,SPECI,Normal,20,12,,,9999.0,Light Rain,15.0,11.0,29.75,1008.0,61,,,,,,,,,,,,,,2/8 Mostly Clear,72000.0,10000.0,FEW,10000.0,,,,,,
KRDR,09-14-2017,16:59,SPECI,Normal,340,9,,,9999.0,Light Rain,15.0,10.0,29.76,1008.3,61,,,,,,,,,,,,,,2/8 Mostly Clear,72000.0,10000.0,FEW,10000.0,,,,,,
KRDR,09-14-2017,16:56,METAR,Normal,30,10,,,9999.0,,14.7,10.1,29.74,1007.6,,,,,,,,,,,TRACE,,,,2/8 Mostly Clear,72000.0,10000.0,FEW,10000.0,,,,,,
KRDR,09-14-2017,16:01,SPECI,Normal,50,11,,,9999.0,,14.0,10.0,29.74,1007.7,,,,,,,,,,,,,,,Clear,72000.0,,,,,,,,,
KRDR,09-14-2017,15:57,SPECI,Normal,50,10,,,9999.0,Light Drizzle,14.0,10.0,29.75,1008.0,51,,,,,,,,,,,,,,2/8 Mostly Clear,72000.0,3500.0,FEW,3500.0,,,,,,
KRDR,09-14-2017,15:56,METAR,Normal,40,11,,,9999.0,,14.0,10.0,29.74,1007.7,,,,,,,,,,,TRACE,,,,2/8 Mostly Clear,72000.0,3500.0,FEW,3500.0,,,,,,
KRDR,09-14-2017,15:50,SPECI,Normal,20,11,,,9999.0,,14.0,10.0,29.75,1008.0,,,,,,,,,,,,,,,2/8 Mostly Clear,72000.0,3500.0,FEW,3500.0,,,,,,
KRDR,09-14-2017,15:36,SPECI,Normal,360,14,18.0,,9999.0,Light Drizzle,15.0,9.0,29.76,1008.3,51,,,,,,,,,,,,,,4/8 Partly Cloudy,72000.0,3500.0,SCT,3500.0,,,,,,
KRDR,09-14-2017,15:01,SPECI,Normal,360,15,20.0,,9999.0,,15.0,9.0,29.76,1008.3,,,,,,,,,,,,,,,4/8 Partly Cloudy,72000.0,3000.0,SCT,3000.0,,,,,,
KRDR,09-14-2017,14:56,METAR,Normal,360,11,16.0,,9999.0,,15.2,9.5,29.76,1008.3,,,,,,,,,,,,,,,,2900.0,2200.0,FEW,2200.0,BKN,2900.0,,,,
KRDR,09-14-2017,14:51,SPECI,Normal,10,13,17.0,,9999.0,,15.0,10.0,29.75,1007.9,,,,,,,,,,,,,,,,2900.0,2200.0,FEW,2200.0,BKN,2900.0,,,,
KRDR,09-14-2017,13:56,METAR,Normal,20,14,,,9999.0,,15.7,10.0,29.71,1006.4,,,,,,,,,,,,,,,4/8 Partly Cloudy,72000.0,2100.0,SCT,2100.0,,,,,,
KRDR,09-14-2017,12:56,METAR,Normal,350,7,,,9999.0,,15.5,9.8,29.75,1007.8,,,,,,,,,,,,,,,,2300.0,2300.0,OVC,2300.0,,,,,,
KRDR,09-14-2017,11:56,METAR,Normal,350,9,,,9999.0,,14.9,9.3,29.73,1007.1,,,,,,,,,,,,,,,,2300.0,2300.0,BKN,2300.0,,,,,,
KRDR,09-14-2017,10:56,METAR,Normal,330,12,,,9999.0,,15.0,9.4,29.73,1007.0,,,,,,,,,,,,,,,,2200.0,2200.0,OVC,2200.0,,,,,,
KRDR,09-14-2017,10:41,SPECI,Normal,320,10,,,9999.0,,15.0,10.0,29.73,1007.0,,,,,,,,,,,,,,,,2100.0,2100.0,BKN,2100.0,BKN,17000.0,,,,
KRDR,09-14-2017,09:56,METAR,Normal,350,8,,,9999.0,,14.7,10.3,29.69,1005.6,,,,,,,,,,,,,,,,17000.0,17000.0,BKN,17000.0,,,,,,
KRDR,09-14-2017,08:56,METAR,Normal,330,10,,,9999.0,,16.0,11.2,29.70,1005.9,,,,,,,,,,,,,,,,20000.0,2300.0,FEW,2300.0,SCT,17000.0,BKN,20000.0,,
KRDR,09-14-2017,07:56,METAR,Normal,290,7,,,9999.0,Haze Smoke or Dust,16.3,11.6,29.66,1004.6,04,,,,,,,,,,,,,,Clear,72000.0,,,,,,,,,
KRDR,09-14-2017,06:56,METAR,Normal,350,9,,,9999.0,Haze Smoke or Dust,14.5,10.9,29.66,1004.7,04,,,,,,,,,,,,,,,,,,,,,,,,
KRDR,09-14-2017,05:56,METAR,Normal,290,4,,,9999.0,Haze Smoke or Dust,13.5,10.3,29.68,1005.4,04,,,,,,,,,,,,,,Clear,72000.0,,,,,,,,,
KRDR,09-14-2017,04:56,METAR,Normal,30,3,,,9999.0,Haze Smoke or Dust,16.0,10.3,29.69,1005.7,04,,,,,,,,,,,,,,,,,,,,,,,,
KRDR,09-14-2017,03:56,METAR,Normal,20,9,,,9999.0,Haze Smoke or Dust,16.7,10.3,29.71,1006.4,04,,,,,,,,,,,,,,,,,,,,,,,,
KRDR,09-14-2017,02:56,METAR,Normal,10,13,,,9999.0,,17.6,10.7,29.70,1006.2,,,,,,,,,,,,,,,Clear,72000.0,,,,,,,,,
KRDR,09-14-2017,01:56,METAR,Normal,10,12,,,9999.0,Haze Smoke or Dust,19.8,9.9,29.69,1005.8,04,,,,,,,,,,,,,,Clear,72000.0,,,,,,,,,
KRDR,09-14-2017,00:56,METAR,Normal,20,12,,,9999.0,Haze Smoke or Dust,21.4,11.4,29.67,1005.2,04,,,,,,,,,,,,,,Clear,72000.0,,,,,,,,,
KRDR,09-13-2017,23:56,METAR,Normal,20,9,,,9999.0,Haze Smoke or Dust,22.9,11.3,29.65,1004.4,04,,,,,,,,,,,,,,Clear,72000.0,,,,,,,,,
KRDR,09-13-2017,22:56,METAR,Normal,10,10,,,9999.0,Haze Smoke or Dust,25.1,11.3,29.64,1003.9,04,,,,,,,,,,,,,,Clear,72000.0,,,,,,,,,
KRDR,09-13-2017,21:56,METAR,Normal,10,11,,,9999.0,Haze Smoke or Dust,26.9,13.2,29.63,1003.5,04,,,,,,,,,,,,,,Clear,72000.0,,,,,,,,,
KRDR,09-13-2017,20:56,METAR,Normal,30,9,,,9999.0,Haze Smoke or Dust,27.0,13.3,29.64,1003.8,04,,,,,,,,,,,,,,Clear,72000.0,,,,,,,,,
KRDR,09-13-2017,19:56,METAR,Normal,10,9,,,9999.0,Haze Smoke or Dust,26.2,13.3,29.65,1004.2,04,,,,,,,,,,,,,,Clear,72000.0,,,,,,,,,
KRDR,09-13-2017,18:56,METAR,Normal,30,9,,,9999.0,Haze Smoke or Dust,23.5,13.1,29.65,1004.2,04,,,,,,,,,,,,,,Clear,72000.0,,,,,,,,,
KRDR,09-13-2017,17:56,METAR,Normal,20,10,,,9999.0,Haze Smoke or Dust,22.2,12.4,29.66,1004.6,04,,,,,,,,,,,,,,Clear,72000.0,,,,,,,,,
KRDR,09-13-2017,16:56,METAR,Normal,10,13,16.0,,9999.0,,21.5,12.6,29.68,1005.3,,,,,,,,,,,,,,,2/8 Mostly Clear,72000.0,22000.0,FEW,22000.0,,,,,,
KRDR,09-13-2017,15:56,METAR,Normal,20,13,,,9999.0,Haze Smoke or Dust,19.5,12.5,29.69,1005.7,04,,,,,,,,,,,,,,Clear,72000.0,,,,,,,,,
KRDR,09-13-2017,14:56,METAR,Normal,360,10,,,9999.0,Haze Smoke or Dust,16.7,11.6,29.69,1005.8,04,,,,,,,,,,,,,,Clear,72000.0,,,,,,,,,
KRDR,09-13-2017,14:07,SPECI,Normal,360,9,,,9999.0,Smoke or Ash,16.0,12.0,29.68,,,,,04,,,,,,,,,,,Clear,72000.0,,,,,,,,,
KRDR,09-13-2017,13:56,METAR,Normal,360,8,,,9999.0,,15.4,11.6,29.68,1005.5,,,,,,,,,,,,,,,Clear,72000.0,,,,,,,,,
KRDR,09-13-2017,12:56,METAR,Normal,350,6,,,9999.0,,12.8,10.7,29.68,1005.4,,,,,,,,,,,,,,,Clear,72000.0,,,,,,,,,
KRDR,09-13-2017,11:56,METAR,Normal,340,4,,,9999.0,,13.2,10.4,29.66,1004.5,,,,,,,,,,,,,,,Clear,72000.0,,,,,,,,,
KRDR,09-13-2017,10:56,METAR,Normal,360,5,,,9999.0,,14.4,10.6,29.65,1004.1,,,,,,,,,,,,,,,Clear,72000.0,,,,,,,,,
KRDR,09-13-2017,09:56,METAR,Normal,350,6,,,9999.0,,15.0,11.6,29.65,1004.0,,,,,,,,,,,,,,,Clear,72000.0,,,,,,,,,
KRDR,09-13-2017,08:56,METAR,Normal,20,5,,,9999.0,,16.5,13.8,29.65,1004.0,,,,,,,,,,,,,,,Clear,72000.0,,,,,,,,,
KRDR,09-13-2017,07:56,METAR,Calm,,0,,,9999.0,,17.1,15.4,29.65,1004.0,,,,,,,,,,,,,,,Clear,72000.0,,,,,,,,,
KRDR,09-13-2017,06:56,METAR,Normal,350,8,,,9999.0,,19.1,16.3,29.66,1004.4,,,,,,,,,,,,,,,Clear,72000.0,,,,,,,,,
KRDR,09-13-2017,05:56,METAR,Normal,210,5,,,9999.0,,19.7,15.3,29.65,1004.0,,,,,,,,,,,,,,,Clear,72000.0,,,,,,,,,
KRDR,09-13-2017,04:56,METAR,Normal,210,5,,,9999.0,,17.3,13.8,29.66,1004.5,,,,,,,,,,,,,,,Clear,72000.0,,,,,,,,,
KRDR,09-13-2017,03:56,METAR,Normal,230,5,,,9999.0,,17.4,13.5,29.67,1004.9,,,,,,,,,,,,,,,Clear,72000.0,,,,,,,,,
KRDR,09-13-2017,02:56,METAR,Normal,210,3,,,9999.0,,17.6,13.3,29.68,1005.3,,,,,,,,,,,,,,,Clear,72000.0,,,,,,,,,
KRDR,09-13-2017,01:56,METAR,Normal,180,3,,,9999.0,,19.2,14.2,29.68,1005.4,,,,,,,,,,,,,,,Clear,72000.0,,,,,,,,,
KRDR,09-13-2017,00:56,METAR,Calm,,0,,,9999.0,,24.4,15.3,29.68,1005.3,,,,,,,,,,,,,,,Clear,72000.0,,,,,,,,,
KRDR,09-12-2017,23:56,METAR,Calm,,0,,,9999.0,,31.5,15.4,29.69,1005.5,,,,,,,,,,,,,,,Clear,72000.0,,,,,,,,,
KRDR,09-12-2017,22:56,METAR,Normal,300,3,,,9999.0,,33.4,14.4,29.70,1005.8,,,,,,,,,,,,,,,Clear,72000.0,,,,,,,,,
KRDR,09-12-2017,21:56,METAR,Normal,290,7,,,9999.0,,34.2,12.5,29.71,1006.1,,,,,,,,,,,,,,,Clear,72000.0,,,,,,,,,
KRDR,09-12-2017,20:56,METAR,Normal,250,7,,,9999.0,,34.2,15.1,29.72,1006.4,,,,,,,,,,,,,,,Clear,72000.0,,,,,,,,,
KRDR,09-12-2017,19:56,METAR,Normal,210,9,,,9999.0,,33.2,16.9,29.74,1007.1,,,,,,,,,,,,,,,Clear,72000.0,,,,,,,,,
KRDR,09-12-2017,18:56,METAR,Normal,190,7,,,9999.0,,31.6,18.2,29.76,1007.8,,,,,,,,,,,,,,,Clear,72000.0,,,,,,,,,
KRDR,09-12-2017,17:56,METAR,Normal,220,10,20.0,,9999.0,,29.7,17.8,29.79,1008.9,,,,,,,,,,,,,,,Clear,72000.0,,,,,,,,,
KRDR,09-12-2017,16:56,METAR,Normal,210,10,,,9999.0,,28.0,17.5,29.81,1009.7,,,,,,,,,,,,,,,Clear,72000.0,,,,,,,,,
KRDR,09-12-2017,15:56,METAR,Normal,190,10,,,9999.0,,25.6,16.7,29.82,1010.0,,,,,,,,,,,,,,,Clear,72000.0,,,,,,,,,
KRDR,09-12-2017,14:56,METAR,Normal,200,11,,,9999.0,,22.8,15.9,29.84,1010.8,,,,,,,,,,,,,,,Clear,72000.0,,,,,,,,,
KRDR,09-12-2017,13:56,METAR,Normal,190,10,,,9999.0,,19.3,14.1,29.86,1011.6,,,,,,,,,,,,,,,Clear,72000.0,,,,,,,,,
KRDR,09-12-2017,12:56,METAR,Normal,180,9,,,9999.0,,16.1,11.9,29.87,1012.0,,,,,,,,,,,,,,,Clear,72000.0,,,,,,,,,
KRDR,09-12-2017,11:56,METAR,Normal,190,6,,,9999.0,,14.6,10.2,29.89,1012.5,,,,,,,,,,,,,,,Clear,72000.0,,,,,,,,,
KRDR,09-12-2017,10:56,METAR,Normal,180,6,,,9999.0,,14.2,9.2,29.90,1012.8,,,,,,,,,,,,,,,Clear,72000.0,,,,,,,,,
KRDR,09-12-2017,09:56,METAR,Normal,190,7,,,9999.0,,16.0,8.2,29.92,1013.4,,,,,,,,,,,,,,,Clear,72000.0,,,,,,,,,
KRDR,09-12-2017,08:56,METAR,Normal,190,7,,,9999.0,,15.0,6.3,29.93,1013.8,,,,,,,,,,,,,,,Clear,72000.0,,,,,,,,,
KRDR,09-12-2017,07:56,METAR,Normal,210,7,,,9999.0,,16.3,5.3,29.94,1014.1,,,,,,,,,,,,,,,Clear,72000.0,,,,,,,,,
KRDR,09-12-2017,06:56,METAR,Normal,210,7,,,9999.0,,15.6,6.6,29.96,1014.8,,,,,,,,,,,,,,,Clear,72000.0,,,,,,,,,
KRDR,09-12-2017,05:56,METAR,Normal,220,8,,,9999.0,,16.7,5.9,29.98,1015.4,,,,,,,,,,,,,,,Clear,72000.0,,,,,,,,,
KRDR,09-12-2017,04:56,METAR,Normal,220,7,,,9999.0,,14.6,5.4,29.99,1015.9,,,,,,,,,,,,,,,Clear,72000.0,,,,,,,,,
KRDR,09-12-2017,03:56,METAR,Normal,210,6,,,9999.0,,16.0,5.9,30.00,1016.3,,,,,,,,,,,,,,,Clear,72000.0,,,,,,,,,
KRDR,09-12-2017,02:56,METAR,Normal,210,7,,,9999.0,,15.5,6.8,30.00,1016.3,,,,,,,,,,,,,,,Clear,72000.0,,,,,,,,,
KRDR,09-12-2017,01:56,METAR,Normal,220,3,,,9999.0,,14.9,7.4,30.02,1017.1,,,,,,,,,,,,,,,Clear,72000.0,,,,,,,,,
KRDR,09-12-2017,00:56,METAR,Normal,190,6,,,9999.0,,18.3,7.4,30.03,1017.5,,,,,,,,,,,,,,,Clear,72000.0,,,,,,,,,
KRDR,09-11-2017,23:56,METAR,Normal,210,3,,,9999.0,,23.6,6.8,30.04,1017.7,,,,,,,,,,,,,,,Clear,72000.0,,,,,,,,,
KRDR,09-11-2017,22:56,METAR,Normal,260,5,,,9999.0,,25.6,4.7,30.05,1018.0,,,,,,,,,,,,,,,Clear,72000.0,,,,,,,,,
KRDR,09-11-2017,21:56,METAR,Normal,220,8,,,9999.0,,27.7,2.0,30.06,1018.3,,,,,,,,,,,,,,,Clear,72000.0,,,,,,,,,
KRDR,09-11-2017,20:56,METAR,Normal,260,7,,,9999.0,,27.7,3.4,30.08,1018.9,,,,,,,,,,,,,,,Clear,72000.0,,,,,,,,,
KRDR,09-11-2017,19:56,METAR,Normal,240,3,,,9999.0,,27.9,3.5,30.10,1019.5,,,,,,,,,,,,,,,Clear,72000.0,,,,,,,,,
KRDR,09-11-2017,18:56,METAR,Normal,300,5,,,9999.0,,26.6,3.1,30.11,1019.9,,,,,,,,,,,,,,,Clear,72000.0,,,,,,,,,
KRDR,09-11-2017,17:56,METAR,Normal,320,5,,,9999.0,,26.0,1.3,30.13,1020.5,,,,,,,,,,,,,,,Clear,72000.0,,,,,,,,,
KRDR,09-11-2017,16:56,METAR,Normal,320,5,,,9999.0,,24.9,1.7,30.14,1020.8,,,,,,,,,,,,,,,Clear,72000.0,,,,,,,,,
KRDR,09-11-2017,15:56,METAR,Calm,,0,,,9999.0,,22.7,3.2,30.14,1020.8,,,,,,,,,,,,,,,Clear,72000.0,,,,,,,,,
KRDR,09-11-2017,14:56,METAR,Normal,330,6,,,9999.0,,20.2,6.2,30.14,1020.9,,,,,,,,,,,,,,,Clear,72000.0,,,,,,,,,
KRDR,09-11-2017,13:56,METAR,Normal,320,4,,,9999.0,,16.8,7.2,30.13,1020.6,,,,,,,,,,,,,,,Clear,72000.0,,,,,,,,,
KRDR,09-11-2017,12:56,METAR,Normal,290,3,,,9999.0,,11.9,6.0,30.12,1020.4,,,,,,,,,,,,,,,Clear,72000.0,,,,,,,,,
KRDR,09-11-2017,11:56,METAR,Normal,300,6,,,9999.0,,11.7,6.2,30.10,1019.7,,,,,,,,,,,,,,,Clear,72000.0,,,,,,,,,
KRDR,09-11-2017,10:56,METAR,Normal,300,7,,,9999.0,,12.2,7.1,30.09,1019.3,,,,,,,,,,,,,,,Clear,72000.0,,,,,,,,,
KRDR,09-11-2017,09:56,METAR,Normal,310,7,,,9999.0,,12.2,8.1,30.07,1018.5,,,,,,,,,,,,,,,Clear,72000.0,,,,,,,,,
KRDR,09-11-2017,08:56,METAR,Normal,310,6,,,9999.0,,13.6,9.2,30.05,1017.9,,,,,,,,,,,,,,,Clear,72000.0,,,,,,,,,
KRDR,09-11-2017,07:56,METAR,Normal,320,6,,,9999.0,,16.6,10.7,30.03,1017.1,,,,,,,,,,,,,,,Clear,72000.0,,,,,,,,,
KRDR,09-11-2017,06:56,METAR,Normal,340,8,,,9999.0,,16.6,13.3,30.00,1016.1,,,,,,,,,,,,,,,Clear,72000.0,,,,,,,,,
KRDR,09-11-2017,05:56,METAR,Normal,300,6,,,9999.0,,19.1,15.6,29.98,1015.4,,,,,,,,,,,,,,,Clear,72000.0,,,,,,,,,
KRDR,09-11-2017,04:56,METAR,Normal,250,8,,,9999.0,,21.8,15.8,29.96,1014.6,,,,,,,,,,,,,,,2/8 Mostly Clear,72000.0,17000.0,FEW,17000.0,,,,,,
KRDR,09-11-2017,03:56,METAR,Normal,220,9,,,9999.0,,23.5,15.8,29.94,1014.0,,,,,,,,,,,,,,,,7000.0,7000.0,BKN,7000.0,,,,,,
KRDR,09-11-2017,02:56,METAR,Normal,200,8,,,9999.0,,22.8,15.6,29.93,1013.7,,,,,,,,,,,,,,,Clear,72000.0,,,,,,,,,
KRDR,09-11-2017,01:56,METAR,Normal,200,7,,,9999.0,,22.8,15.6,29.92,1013.4,,,,,,,,,,,,,,,Clear,72000.0,,,,,,,,,
KRDR,09-11-2017,00:56,METAR,Normal,190,8,,,9999.0,,24.5,15.7,29.91,1013.1,,,,,,,,,,,,,,,Clear,72000.0,,,,,,,,,
KRDR,09-10-2017,23:56,METAR,Normal,190,9,,,9999.0,,27.0,15.7,29.91,1013.1,,,,,,,,,,,,,,,2/8 Mostly Clear,72000.0,14000.0,FEW,14000.0,,,,,,
KRDR,09-10-2017,22:56,METAR,Normal,200,10,,,9999.0,,28.7,15.2,29.90,1012.7,,,,,,,,,,,,,,,Clear,72000.0,,,,,,,,,
KRDR,09-10-2017,21:56,METAR,Normal,200,16,,,9999.0,,29.3,14.7,29.90,1012.6,,,,,,,,,,,,,,,Clear,72000.0,,,,,,,,,
KRDR,09-10-2017,20:56,METAR,Normal,210,17,22.0,,9999.0,,29.0,14.8,29.91,1013.0,,,,,,,,,,,,,,,Clear,72000.0,,,,,,,,,
KRDR,09-10-2017,19:56,METAR,Normal,180,17,21.0,,9999.0,,28.5,15.0,29.92,1013.3,,,,,,,,,,,,,,,Clear,72000.0,,,,,,,,,
KRDR,09-10-2017,18:56,METAR,Normal,180,21,,,9999.0,,27.7,14.7,29.93,1013.7,,,,,,,,,,,,,,,Clear,72000.0,,,,,,,,,
KRDR,09-10-2017,17:56,METAR,Normal,200,12,17.0,,9999.0,,26.7,15.4,29.97,1015.1,,,,,,,,,,,,,,,2/8 Mostly Clear,72000.0,4000.0,FEW,4000.0,,,,,,
KRDR,09-10-2017,16:56,METAR,Normal,220,14,,,9999.0,,25.0,15.6,29.98,1015.4,,,,,,,,,,,,,,,Clear,72000.0,,,,,,,,,
KRDR,09-10-2017,15:56,METAR,Normal,190,18,22.0,,9999.0,,23.4,15.7,29.99,1015.8,,,,,,,,,,,,,,,Clear,72000.0,,,,,,,,,
KRDR,09-10-2017,14:56,METAR,Normal,190,13,18.0,,9999.0,,21.3,16.0,30.01,1016.6,,,,,,,,,,,,,,,Clear,72000.0,,,,,,,,,
KRDR,09-10-2017,13:56,METAR,Normal,170,13,,,9999.0,,18.4,15.6,30.02,1016.9,,,,,,,,,,,,,,,Clear,72000.0,,,,,,,,,
KRDR,09-10-2017,12:56,METAR,Normal,170,10,,,9999.0,,16.4,15.9,30.03,1017.3,,,,,,,,,,,,,,,Clear,72000.0,,,,,,,,,
KRDR,09-10-2017,11:56,METAR,Normal,170,8,,,9999.0,,15.5,15.3,30.04,1017.6,,,,,,,,,,,,,,,Clear,72000.0,,,,,,,,,
KRDR,09-10-2017,10:56,METAR,Normal,180,9,,,9999.0,,15.9,15.6,30.04,1017.5,,,,,,,,,,,,,,,Clear,72000.0,,,,,,,,,
KRDR,09-10-2017,09:56,METAR,Normal,180,8,,,9999.0,,16.5,15.7,30.05,1017.8,,,,,,,,,,,,,,,Clear,72000.0,,,,,,,,,
KRDR,09-10-2017,08:56,METAR,Normal,180,8,,,9999.0,,16.0,15.2,30.05,1017.9,,,,,,,,,,,,,,,Clear,72000.0,,,,,,,,,
KRDR,09-10-2017,07:56,METAR,Normal,180,8,,,9999.0,,16.0,15.0,30.07,1018.5,,,,,,,,,,,,,,,Clear,72000.0,,,,,,,,,
KRDR,09-10-2017,06:56,METAR,Normal,180,8,,,9999.0,,16.1,15.0,30.07,1018.5,,,,,,,,,,,,,,,Clear,72000.0,,,,,,,,,
KRDR,09-10-2017,05:56,METAR,Normal,170,10,,,9999.0,,17.2,14.8,30.07,1018.6,,,,,,,,,,,,,,,Clear,72000.0,,,,,,,,,
KRDR,09-10-2017,04:56,METAR,Normal,180,8,,,9999.0,,18.4,14.7,30.09,1019.3,,,,,,,,,,,,,,,Clear,72000.0,,,,,,,,,
KRDR,09-10-2017,03:56,METAR,Normal,190,13,,,9999.0,,19.4,14.8,30.09,1019.3,,,,,,,,,,,,,,,Clear,72000.0,,,,,,,,,
KRDR,09-10-2017,02:56,METAR,Normal,180,10,16.0,,9999.0,,19.7,14.5,30.09,1019.4,,,,,,,,,,,,,,,Clear,72000.0,,,,,,,,,
KRDR,09-10-2017,01:56,METAR,Normal,190,11,,,9999.0,,21.1,14.2,30.08,1019.2,,,,,,,,,,,,,,,Clear,72000.0,,,,,,,,,
KRDR,09-10-2017,00:56,METAR,Normal,170,11,,,9999.0,,22.5,14.3,30.07,1018.8,,,,,,,,,,,,,,,Clear,72000.0,,,,,,,,,
KRDR,09-09-2017,23:56,METAR,Normal,190,13,,,9999.0,,24.6,14.4,30.06,1018.5,,,,,,,,,,,,,,,Clear,72000.0,,,,,,,,,
KRDR,09-09-2017,22:56,METAR,Normal,170,19,,,9999.0,,25.9,14.0,30.06,1018.5,,,,,,,,,,,,,,,Clear,72000.0,,,,,,,,,
KRDR,09-09-2017,21:56,METAR,Normal,180,17,23.0,,9999.0,,26.6,14.0,30.07,1018.8,,,,,,,,,,,,,,,Clear,72000.0,,,,,,,,,
KRDR,09-09-2017,20:56,METAR,Normal,170,16,23.0,,9999.0,,26.7,13.4,30.08,1019.1,,,,,,,,,,,,,,,Clear,72000.0,,,,,,,,,
KRDR,09-09-2017,19:56,METAR,Normal,160,15,19.0,,9999.0,,26.6,12.6,30.10,1019.7,,,,,,,,,,,,,,,Clear,72000.0,,,,,,,,,
KRDR,09-09-2017,18:56,METAR,Normal,170,12,,,9999.0,,25.3,12.5,30.12,1020.5,,,,,,,,,,,,,,,Clear,72000.0,,,,,,,,,
KRDR,09-09-2017,17:56,METAR,Normal,160,13,,,9999.0,,23.4,12.4,30.13,1020.9,,,,,,,,,,,,,,,Clear,72000.0,,,,,,,,,
KRDR,09-09-2017,16:56,METAR,Normal,160,11,,,9999.0,,20.7,11.6,30.14,1021.2,,,,,,,,,,,,,,,Clear,72000.0,,,,,,,,,
KRDR,09-09-2017,15:56,METAR,Normal,160,13,,,9999.0,,18.0,10.6,30.15,1021.6,,,,,,,,,,,,,,,Clear,72000.0,,,,,,,,,
KRDR,09-09-2017,14:56,METAR,Normal,190,15,20.0,,9999.0,,15.5,9.8,30.17,1022.4,,,,,,,,,,,,,,,Clear,72000.0,,,,,,,,,
KRDR,09-09-2017,13:56,METAR,Normal,170,7,,,9999.0,,11.5,8.0,30.18,1022.8,,,,,,,,,,,,,,,Clear,72000.0,,,,,,,,,
KRDR,09-09-2017,12:56,METAR,Normal,160,6,,,9999.0,,8.2,6.5,30.19,1023.2,,,,,,,,,,,,,,,Clear,72000.0,,,,,,,,,
KRDR,09-09-2017,11:56,METAR,Normal,160,6,,,9999.0,,7.1,5.9,30.19,1023.1,,,,,,,,,,,,,,,Clear,72000.0,,,,,,,,,
KRDR,09-09-2017,10:56,METAR,Normal,160,6,,,9999.0,,6.9,5.7,30.19,1023.0,,,,,,,,,,,,,,,Clear,72000.0,,,,,,,,,
KRDR,09-09-2017,09:56,METAR,Normal,150,6,,,9999.0,,7.4,5.9,30.20,1023.3,,,,,,,,,,,,,,,Clear,72000.0,,,,,,,,,
KRDR,09-09-2017,08:56,METAR,Normal,170,6,,,9999.0,,7.6,5.7,30.20,1023.3,,,,,,,,,,,,,,,Clear,72000.0,,,,,,,,,
KRDR,09-09-2017,07:56,METAR,Normal,160,6,,,9999.0,,8.1,5.7,30.21,1023.7,,,,,,,,,,,,,,,Clear,72000.0,,,,,,,,,
KRDR,09-09-2017,06:56,METAR,Normal,160,7,,,9999.0,,8.5,5.8,30.20,1023.3,,,,,,,,,,,,,,,Clear,72000.0,,,,,,,,,
KRDR,09-09-2017,05:56,METAR,Normal,160,7,,,9999.0,,9.3,6.0,30.20,1023.3,,,,,,,,,,,,,,,Clear,72000.0,,,,,,,,,
KRDR,09-09-2017,04:56,METAR,Normal,170,7,,,9999.0,,10.2,5.6,30.21,1023.7,,,,,,,,,,,,,,,Clear,72000.0,,,,,,,,,
KRDR,09-09-2017,03:56,METAR,Normal,170,8,,,9999.0,,12.2,5.6,30.20,1023.4,,,,,,,,,,,,,,,Clear,72000.0,,,,,,,,,
KRDR,09-09-2017,02:56,METAR,Normal,180,6,,,9999.0,,12.2,5.6,30.20,1023.5,,,,,,,,,,,,,,,Clear,72000.0,,,,,,,,,
KRDR,09-09-2017,01:56,METAR,Normal,150,8,,,9999.0,,14.8,5.0,30.18,1022.8,,,,,,,,,,,,,,,Clear,72000.0,,,,,,,,,
KRDR,09-09-2017,00:56,METAR,Normal,140,7,,,9999.0,,17.0,5.0,30.17,1022.6,,,,,,,,,,,,,,,Clear,72000.0,,,,,,,,,
KRDR,09-08-2017,23:56,METAR,Normal,150,9,,,9999.0,,20.6,3.3,30.17,1022.6,,,,,,,,,,,,,,,Clear,72000.0,,,,,,,,,
KRDR,09-08-2017,22:56,METAR,Normal,150,10,,,9999.0,,22.0,2.6,30.18,1022.8,,,,,,,,,,,,,,,Clear,72000.0,,,,,,,,,
KRDR,09-08-2017,21:56,METAR,Normal,150,13,,,9999.0,,22.2,2.3,30.18,1022.8,,,,,,,,,,,,,,,Clear,72000.0,,,,,,,,,
KRDR,09-08-2017,20:56,METAR,Normal,140,10,,,9999.0,,22.2,2.3,30.20,1023.5,,,,,,,,,,,,,,,Clear,72000.0,,,,,,,,,
KRDR,09-08-2017,19:57,SPECI,Normal,120,13,,,9999.0,,22.0,3.0,30.22,1024.1,,,,,,,,,,,,,,,Clear,72000.0,,,,,,,,,
KRDR,09-08-2017,19:56,METAR,Normal,130,11,,,9999.0,,22.1,2.7,30.22,1024.1,,,,,,,,,,,,,,,Clear,72000.0,,,,,,,,,
KRDR,09-08-2017,18:56,METAR,Normal,150,9,18.0,,9999.0,,21.1,3.3,30.23,1024.5,,,,,,,,,,,,,,,Clear,72000.0,,,,,,,,,
KRDR,09-08-2017,17:56,METAR,Normal,130,13,17.0,,9999.0,,20.0,3.2,30.25,1025.0,,,,,,,,,,,,,,,Clear,72000.0,,,,,,,,,
KRDR,09-08-2017,17:23,SPECI,Normal,140,13,,,9999.0,,20.0,4.0,30.25,1025.0,,,,,,,,,,,,,,,Clear,72000.0,,,,,,,,,
KRDR,09-08-2017,16:56,METAR,Normal,180,10,15.0,,9999.0,,18.8,4.2,30.25,1025.0,,,,,,,,,,,,,,,Clear,72000.0,,,,,,,,,
KRDR,09-08-2017,15:56,METAR,Normal,130,12,,,9999.0,,16.8,6.0,30.26,1025.4,,,,,,,,,,,,,,,Clear,72000.0,,,,,,,,,
KRDR,09-08-2017,14:56,METAR,Normal,140,9,,,9999.0,,13.7,8.9,30.25,1025.1,,,,,,,,,,,,,,,Clear,72000.0,,,,,,,,,
KRDR,09-08-2017,13:56,METAR,Normal,140,6,,,9999.0,,10.0,10.0,30.24,1024.8,,,,,,,,,,,,,,,Clear,72000.0,,,,,,,,,
KRDR,09-08-2017,12:56,METAR,Calm,,0,,,9999.0,Fog or Ice Fog,3.7,3.6,30.23,1024.5,31,,,,,,,,,,,,,,Clear,72000.0,,,,,,,,,
KRDR,09-08-2017,12:51,SPECI,Calm,,0,,,600.0,,3.0,3.0,30.23,1024.6,,,,,,,,,,,,,,,,,,,,,,,,,
KRDR,09-08-2017,11:56,METAR,Calm,,0,,,6400.0,Fog or Ice Fog,1.5,1.4,30.21,1023.9,31,,,,,,,,,,,,,,4/8 Partly Cloudy,72000.0,0.0,SCT,0.0,,,,,,
KRDR,09-08-2017,10:56,METAR,Normal,20,3,,,9999.0,,2.1,2.0,30.19,1023.1,,,,,,,,,,,,,,,Clear,72000.0,,,,,,,,,
KRDR,09-08-2017,10:15,SPECI,Calm,,0,,,9999.0,,2.0,2.0,30.18,1022.7,,,,,,,,,,,,,,,Clear,72000.0,,,,,,,,,
KRDR,09-08-2017,10:10,SPECI,Calm,,0,,,800.0,,2.0,2.0,30.18,1022.7,,,,,,,,,,,,,,,,,,,,,,,,,
KRDR,09-08-2017,09:56,METAR,Calm,,0,,,9999.0,,2.1,2.0,30.18,1022.7,,,,,,,,,,,,,,,Clear,72000.0,,,,,,,,,
KRDR,09-08-2017,08:56,METAR,Calm,,0,,,9999.0,,2.4,2.3,30.18,1022.7,,,,,,,,,,,,,,,Clear,72000.0,,,,,,,,,
KRDR,09-08-2017,08:11,SPECI,Normal,300,3,,,9999.0,,4.0,4.0,30.16,1022.0,,,,,,,,,,,,,,,Clear,72000.0,,,,,,,,,
KRDR,09-08-2017,08:06,SPECI,Calm,,0,,,3200.0,,4.0,4.0,30.15,1021.6,,,,,,,,,,,,,,,,,,,,,,,,,
KRDR,09-08-2017,07:56,METAR,Calm,,0,,,9999.0,,4.0,3.7,30.15,1021.6,,,,,,,,,,,,,,,Clear,72000.0,,,,,,,,,
KRDR,09-08-2017,06:56,METAR,Normal,300,3,,,9999.0,,4.8,4.1,30.14,1021.2,,,,,,,,,,,,,,,Clear,72000.0,,,,,,,,,
KRDR,09-08-2017,05:56,METAR,Normal,90,4,,,9999.0,,10.4,7.3,30.12,1020.4,,,,,,,,,,,,,,,Clear,72000.0,,,,,,,,,
KRDR,09-08-2017,04:56,METAR,Normal,70,4,,,9999.0,,11.8,7.7,30.10,1019.7,,,,,,,,,,,,,,,Clear,72000.0,,,,,,,,,
KRDR,09-08-2017,03:56,METAR,Normal,80,6,,,9999.0,,13.1,8.2,30.08,1019.1,,,,,,,,,,,,,,,Clear,72000.0,,,,,,,,,
KRDR,09-08-2017,02:56,METAR,Normal,90,7,,,9999.0,,14.8,8.9,30.05,1018.0,,,,,,,,,,,,,,,Clear,72000.0,,,,,,,,,
KRDR,09-08-2017,01:56,METAR,Normal,70,9,,,9999.0,,17.4,9.3,30.02,1017.1,,,,,,,,,,,,,,,Clear,72000.0,,,,,,,,,
KRDR,09-08-2017,00:56,METAR,Normal,60,8,,,9999.0,,19.5,9.1,29.99,1016.1,,,,,,,,,,,,,,,Clear,72000.0,,,,,,,,,
KRDR,09-07-2017,23:56,METAR,Normal,70,13,,,9999.0,,22.6,9.4,29.96,1015.0,,,,,,,,,,,,,,,Clear,72000.0,,,,,,,,,
KRDR,09-07-2017,22:56,METAR,Normal,30,12,19.0,,9999.0,,24.7,6.4,29.94,1014.3,,,,,,,,,,,,,,,Clear,72000.0,,,,,,,,,
KRDR,09-07-2017,21:56,METAR,Normal,40,15,,,9999.0,,25.6,7.7,29.92,1013.7,,,,,,,,,,,,,,,Clear,72000.0,,,,,,,,,
KRDR,09-07-2017,20:56,METAR,Normal,360,14,21.0,,9999.0,,25.5,8.5,29.93,1014.1,,,,,,,,,,,,,,,Clear,72000.0,,,,,,,,,
KRDR,09-07-2017,19:56,METAR,Normal,30,16,,,9999.0,,26.6,8.5,29.91,1013.3,,,,,,,,,,,,,,,Clear,72000.0,,,,,,,,,
KRDR,09-07-2017,18:56,METAR,Normal,20,10,18.0,,9999.0,,26.8,7.8,29.90,1013.0,,,,,,,,,,,,,,,Clear,72000.0,,,,,,,,,
KRDR,09-07-2017,17:56,METAR,Normal,330,11,,,9999.0,,27.5,6.3,29.89,1012.6,,,,,,,,,,,,,,,Clear,72000.0,,,,,,,,,
KRDR,09-07-2017,16:56,METAR,Normal,350,11,,,9999.0,,26.1,5.6,29.89,1012.6,,,,,,,,,,,,,,,Clear,72000.0,,,,,,,,,
KRDR,09-07-2017,15:56,METAR,Normal,310,9,,,9999.0,,23.6,7.2,29.89,1012.5,,,,,,,,,,,,,,,2/8 Mostly Clear,72000.0,10000.0,FEW,10000.0,,,,,,
KRDR,09-07-2017,14:56,METAR,Normal,300,10,,,9999.0,,20.3,7.3,29.89,1012.6,,,,,,,,,,,,,,,2/8 Mostly Clear,72000.0,10000.0,FEW,10000.0,,,,,,
KRDR,09-07-2017,13:56,METAR,Normal,290,8,,,9999.0,,17.1,6.9,29.89,1012.7,,,,,,,,,,,,,,,2/8 Mostly Clear,72000.0,10000.0,FEW,10000.0,,,,,,
KRDR,09-07-2017,12:56,METAR,Normal,280,7,,,9999.0,,12.8,5.9,29.90,1013.1,,,,,,,,,,,,,,,Clear,72000.0,,,,,,,,,
KRDR,09-07-2017,11:56,METAR,Normal,270,8,,,9999.0,,11.6,5.7,29.90,1013.1,,,,,,,,,,,,,,,Clear,72000.0,,,,,,,,,
KRDR,09-07-2017,10:56,METAR,Normal,250,4,,,9999.0,,11.1,7.0,29.92,1013.7,,,,,,,,,,,,,,,,11000.0,11000.0,OVC,11000.0,,,,,,
KRDR,09-07-2017,09:56,METAR,Normal,250,6,,,9999.0,,8.8,6.1,29.93,1014.1,,,,,,,,,,,,,,,Clear,72000.0,,,,,,,,,
KRDR,09-07-2017,08:56,METAR,Normal,260,5,,,9999.0,,6.7,5.3,29.94,1014.5,,,,,,,,,,,,,,,Clear,72000.0,,,,,,,,,
KRDR,09-07-2017,07:56,METAR,Normal,240,5,,,9999.0,,6.4,5.2,29.95,1014.9,,,,,,,,,,,,,,,Clear,72000.0,,,,,,,,,
KRDR,09-07-2017,06:56,METAR,Normal,220,4,,,9999.0,,6.4,5.2,29.97,1015.6,,,,,,,,,,,,,,,Clear,72000.0,,,,,,,,,
KRDR,09-07-2017,05:56,METAR,Normal,190,4,,,9999.0,,8.0,5.6,29.98,1015.9,,,,,,,,,,,,,,,Clear,72000.0,,,,,,,,,
KRDR,09-07-2017,04:56,METAR,Normal,170,3,,,9999.0,,9.4,6.3,29.99,1016.2,,,,,,,,,,,,,,,Clear,72000.0,,,,,,,,,
KRDR,09-07-2017,03:56,METAR,Normal,140,6,,,9999.0,,13.2,7.0,30.00,1016.5,,,,,,,,,,,,,,,Clear,72000.0,,,,,,,,,
KRDR,09-07-2017,02:56,METAR,Normal,130,6,,,9999.0,,15.3,6.8,30.02,1017.3,,,,,,,,,,,,,,,4/8 Partly Cloudy,72000.0,11000.0,SCT,11000.0,,,,,,
KRDR,09-07-2017,01:56,METAR,Normal,150,4,,,9999.0,,16.4,7.6,30.01,1017.0,,,,,,,,,,,,,,,,11000.0,11000.0,OVC,11000.0,,,,,,
KRDR,09-07-2017,00:56,METAR,Normal,130,3,,,9999.0,,18.4,5.9,30.00,1016.8,,,,,,,,,,,,,,,,,,,,,,,,,
KRDR,09-06-2017,23:56,METAR,Calm,,0,,,9999.0,,20.4,6.3,30.02,1017.4,,,,,,,,,,,,,,,Clear,72000.0,,,,,,,,,
KRDR,09-06-2017,22:56,METAR,Normal,300,4,,,9999.0,,21.8,5.2,30.03,1017.7,,,,,,,,,,,,,,,Clear,72000.0,,,,,,,,,
KRDR,09-06-2017,21:56,METAR,Calm,,0,,,9999.0,,21.5,4.5,30.04,1018.1,,,,,,,,,,,,,,,2/8 Mostly Clear,72000.0,21000.0,FEW,21000.0,,,,,,
KRDR,09-06-2017,20:56,METAR,Normal,260,3,,,9999.0,,20.9,5.3,30.07,1019.1,,,,,,,,,,,,,,,,21000.0,7000.0,SCT,7000.0,BKN,21000.0,,,,
KRDR,09-06-2017,19:56,METAR,Normal,350,4,,,9999.0,,21.0,5.3,30.09,1019.7,,,,,,,,,,,,,,,,6000.0,6000.0,OVC,6000.0,,,,,,
KRDR,09-06-2017,18:56,METAR,Normal,360,3,,,9999.0,,19.3,5.7,30.11,1020.5,,,,,,,,,,,,,,,,7000.0,5500.0,SCT,5500.0,BKN,7000.0,,,,
KRDR,09-06-2017,17:56,METAR,Normal,320,8,,,9999.0,,19.7,6.1,30.13,1021.1,,,,,,,,,,,,,TRACE,,Clear,72000.0,,,,,,,,,
KRDR,09-06-2017,16:56,METAR,Normal,310,5,,,9999.0,,18.3,5.8,30.15,1021.8,,,,,,,,,,,,,,,Clear,72000.0,,,,,,,,,
KRDR,09-06-2017,15:56,METAR,Normal,340,5,,,9999.0,,17.1,7.2,30.17,1022.5,,,,,,,,,,,,,,,Clear,72000.0,,,,,,,,,
KRDR,09-06-2017,14:56,METAR,Calm,,0,,,9999.0,,13.9,7.2,30.17,1022.5,,,,,,,,,,,,,,,2/8 Mostly Clear,72000.0,6000.0,FEW,6000.0,,,,,,
KRDR,09-06-2017,14:45,SPECI,Calm,,0,,,9999.0,,14.0,7.0,30.17,1022.5,,,,,,,,,,,,,,,Clear,72000.0,,,,,,,,,
KRDR,09-06-2017,14:42,SPECI,Calm,,0,,,8000.0,Light Rain,14.0,7.0,30.17,1022.5,61,,,,,,,,,,,,,,Clear,72000.0,,,,,,,,,
KRDR,09-06-2017,13:56,METAR,Calm,,0,,,9999.0,,10.2,7.3,30.17,1022.6,,,,,,,,,,,,,,,Clear,72000.0,,,,,,,,,
KRDR,09-06-2017,12:56,METAR,Calm,,0,,,9999.0,,4.7,4.0,30.18,1023.0,,,,,,,,,,,,,,,Clear,72000.0,,,,,,,,,
KRDR,09-06-2017,11:56,METAR,Normal,300,3,,,9999.0,,3.6,3.0,30.18,1022.9,,,,,,,,,,,,,,,Clear,72000.0,,,,,,,,,
KRDR,09-06-2017,10:56,METAR,Calm,,0,,,9999.0,,4.3,3.4,30.17,1022.5,,,,,,,,,,,,,,,Clear,72000.0,,,,,,,,,
KRDR,09-06-2017,09:56,METAR,Normal,290,3,,,9999.0,,2.8,1.9,30.17,1022.6,,,,,,,,,,,,,,,Clear,72000.0,,,,,,,,,
KRDR,09-06-2017,08:56,METAR,Normal,290,4,,,9999.0,,3.8,2.3,30.17,1022.5,,,,,,,,,,,,,,,Clear,72000.0,,,,,,,,,
KRDR,09-06-2017,07:56,METAR,Normal,300,4,,,9999.0,,4.2,2.7,30.17,1022.5,,,,,,,,,,,,,,,Clear,72000.0,,,,,,,,,
KRDR,09-06-2017,06:56,METAR,Normal,320,4,,,9999.0,,5.3,3.1,30.17,1022.5,,,,,,,,,,,,,,,Clear,72000.0,,,,,,,,,
KRDR,09-06-2017,05:56,METAR,Normal,320,6,,,9999.0,,6.3,2.9,30.16,1022.2,,,,,,,,,,,,,,,Clear,72000.0,,,,,,,,,
KRDR,09-06-2017,04:56,METAR,Normal,310,5,,,9999.0,,6.0,1.5,30.16,1022.2,,,,,,,,,,,,,,,Clear,72000.0,,,,,,,,,
KRDR,09-06-2017,03:56,METAR,Normal,330,6,,,9999.0,,7.7,1.1,30.15,1021.8,,,,,,,,,,,,,,,Clear,72000.0,,,,,,,,,
KRDR,09-06-2017,02:56,METAR,Normal,340,6,,,9999.0,,9.2,0.9,30.15,1021.8,,,,,,,,,,,,,,,Clear,72000.0,,,,,,,,,
KRDR,09-06-2017,01:56,METAR,Normal,360,5,,,9999.0,,10.0,1.1,30.14,1021.5,,,,,,,,,,,,,,,Clear,72000.0,,,,,,,,,
KRDR,09-06-2017,00:56,METAR,Normal,10,8,,,9999.0,,13.9,0.2,30.13,1021.1,,,,,,,,,,,,,,,Clear,72000.0,,,,,,,,,
KRDR,09-05-2017,23:56,METAR,Normal,20,11,18.0,,9999.0,,17.8,-0.5,30.13,1021.0,,,,,,,,,,,,,,,Clear,72000.0,,,,,,,,,
KRDR,09-05-2017,22:56,METAR,Normal,10,16,22.0,,9999.0,,19.4,-1.1,30.13,1021.0,,,,,,,,,,,,,,,Clear,72000.0,,,,,,,,,
KRDR,09-05-2017,21:56,METAR,Normal,10,15,21.0,,9999.0,,19.4,-0.1,30.13,1021.0,,,,,,,,,,,,,,,Clear,72000.0,,,,,,,,,
KRDR,09-05-2017,21:13,SPECI,Normal,20,15,22.0,,9999.0,,19.0,0.0,30.13,1021.0,,,,,,,,,,,,,,,Clear,72000.0,,,,,,,,,
KRDR,09-05-2017,20:56,METAR,Normal,350,17,23.0,330/27KTS,9999.0,,19.8,2.6,30.13,1020.9,,,,,,,,,,,,,,,Clear,72000.0,,,,,,,,,
KRDR,09-05-2017,18:56,METAR,Normal,350,16,25.0,330/29KTS,9999.0,,19.5,1.5,30.14,1021.3,,,,,,,,,,,,,,,Clear,72000.0,,,,,,,,,
KRDR,09-05-2017,17:56,METAR,Normal,10,18,24.0,020/26KTS,9999.0,,18.9,3.1,30.14,1021.3,,,,,,,,,,,,,,,Clear,72000.0,,,,,,,,,
KRDR,09-05-2017,16:56,METAR,Normal,360,14,21.0,,9999.0,,17.9,6.4,30.15,1021.6,,,,,,,,,,,,,,,Clear,72000.0,,,,,,,,,
KRDR,09-05-2017,15:56,METAR,Normal,360,14,19.0,,9999.0,,16.7,8.1,30.15,1021.7,,,,,,,,,,,,,,,Clear,72000.0,,,,,,,,,
KRDR,09-05-2017,14:56,METAR,Normal,360,12,19.0,,9999.0,,14.7,8.0,30.14,1021.4,,,,,,,,,,,,,,,Clear,72000.0,,,,,,,,,
KRDR,09-05-2017,13:56,METAR,Normal,350,13,18.0,,9999.0,,12.9,7.3,30.13,1021.1,,,,,,,,,,,,,,,Clear,72000.0,,,,,,,,,
KRDR,09-05-2017,12:56,METAR,Normal,330,9,,,9999.0,,10.2,6.5,30.13,1021.1,,,,,,,,,,,,,,,Clear,72000.0,,,,,,,,,
KRDR,09-05-2017,11:56,METAR,Normal,320,10,,,9999.0,,9.1,5.8,30.11,1020.4,,,,,,,,,,,,,,,Clear,72000.0,,,,,,,,,
KRDR,09-05-2017,10:56,METAR,Normal,320,10,,,9999.0,,9.6,5.6,30.10,1020.0,,,,,,,,,,,,,,,Clear,72000.0,,,,,,,,,
KRDR,09-05-2017,09:56,METAR,Normal,320,10,,,9999.0,,9.8,4.6,30.08,1019.3,,,,,,,,,,,,,,,Clear,72000.0,,,,,,,,,
KRDR,09-05-2017,08:56,METAR,Normal,320,10,,,9999.0,,9.6,4.0,30.08,1019.2,,,,,,,,,,,,,,,Clear,72000.0,,,,,,,,,
KRDR,09-05-2017,07:56,METAR,Normal,330,11,,,9999.0,,10.3,3.1,30.07,1018.8,,,,,,,,,,,,,,,Clear,72000.0,,,,,,,,,
KRDR,09-05-2017,06:56,METAR,Normal,330,10,,,9999.0,,10.2,2.5,30.06,1018.5,,,,,,,,,,,,,,,Clear,72000.0,,,,,,,,,
KRDR,09-05-2017,05:56,METAR,Normal,320,9,,,9999.0,,10.5,2.3,30.06,1018.5,,,,,,,,,,,,,,,Clear,72000.0,,,,,,,,,
KRDR,09-05-2017,04:56,METAR,Normal,320,11,,,9999.0,,11.0,2.3,30.05,1018.3,,,,,,,,,,,,,,,Clear,72000.0,,,,,,,,,
KRDR,09-05-2017,03:56,METAR,Normal,310,6,,,9999.0,,10.4,3.0,30.04,1017.9,,,,,,,,,,,,,,,Clear,72000.0,,,,,,,,,
KRDR,09-05-2017,02:56,METAR,Normal,340,8,,,9999.0,,10.7,3.5,30.03,1017.6,,,,,,,,,,,,,,,Clear,72000.0,,,,,,,,,
KRDR,09-05-2017,01:56,METAR,Normal,340,7,,,9999.0,,12.6,2.7,30.01,1016.9,,,,,,,,,,,,,,,Clear,72000.0,,,,,,,,,
KRDR,09-05-2017,00:56,METAR,Normal,360,9,,,9999.0,,15.4,1.9,29.99,1016.2,,,,,,,,,,,,,,,Clear,72000.0,,,,,,,,,
KRDR,09-04-2017,23:56,METAR,Normal,350,8,,,9999.0,,17.7,3.6,29.97,1015.5,,,,,,,,,,,,,TRACE,,Clear,72000.0,,,,,,,,,
KRDR,09-04-2017,22:56,METAR,Normal,340,9,,,9999.0,,17.8,8.1,29.96,1015.1,,,,,,,,,,,TRACE,,,,Clear,72000.0,,,,,,,,,
KRDR,09-04-2017,22:17,SPECI,Normal,330,11,,,9999.0,,17.0,9.0,29.96,1015.2,,,,,,,,,,,,,,,2/8 Mostly Clear,72000.0,5500.0,FEW,5500.0,,,,,,
KRDR,09-04-2017,22:04,SPECI,Normal,320,16,21.0,,9999.0,Light Rain,18.0,8.0,29.96,1015.1,61,,,,,,,,,,,,,,2/8 Mostly Clear,72000.0,5500.0,FEW,5500.0,,,,,,
KRDR,09-04-2017,21:56,METAR,Normal,340,12,18.0,350/35KTS,9999.0,,17.6,7.0,29.95,1014.8,,,,,,,,,,,TRACE,,,,Clear,72000.0,,,,,,,,,
KRDR,09-04-2017,21:24,SPECI,Normal,330,17,35.0,,9999.0,,20.0,7.0,29.94,1014.4,,,,,,,,,,,,,,,Clear,72000.0,,,,,,,,,
KRDR,09-04-2017,20:56,METAR,Normal,340,17,32.0,010/39KTS,9999.0,,20.5,7.8,29.93,1014.0,,,,,,,,,,,TRACE,TRACE,,,Clear,72000.0,,,,,,,,,
KRDR,09-04-2017,19:56,METAR,Normal,350,22,31.0,330/32KTS,9999.0,,22.2,4.7,29.91,1013.3,,,,,,,,,,,,,,,Clear,72000.0,,,,,,,,,
KRDR,09-04-2017,18:56,METAR,Normal,340,21,27.0,360/31KTS,9999.0,,21.2,5.5,29.91,1013.4,,,,,,,,,,,,,,,Clear,72000.0,,,,,,,,,
KRDR,09-04-2017,18:48,SPECI,Normal,330,22,28.0,,9999.0,,21.0,6.0,29.91,1013.4,,,,,,,,,,,,,,,Clear,72000.0,,,,,,,,,
KRDR,09-04-2017,18:32,SPECI,Normal,310,12,19.0,,9999.0,,20.0,9.0,29.92,1013.7,,,,,,,,,,,,,,,Clear,72000.0,,,,,,,,,
KRDR,09-04-2017,17:56,METAR,Normal,340,14,19.0,,9999.0,,20.8,9.4,29.92,1013.7,,,,,,,,,,,,,TRACE,,Clear,72000.0,,,,,,,,,
KRDR,09-04-2017,16:56,METAR,Normal,320,13,,,9999.0,,17.1,9.3,29.94,1014.5,,,,,,,,,,,TRACE,,,,Clear,72000.0,,,,,,,,,
KRDR,09-04-2017,15:56,METAR,Normal,340,13,20.0,,9999.0,,19.4,10.4,29.93,1014.0,,,,,,,,,,,,,,,Clear,72000.0,,,,,,,,,
KRDR,09-04-2017,14:56,METAR,Normal,320,9,,,9999.0,,17.8,11.8,29.92,1013.7,,,,,,,,,,,,,,,Clear,72000.0,,,,,,,,,
KRDR,09-04-2017,13:56,METAR,Normal,310,7,,,9999.0,,14.5,11.6,29.92,1013.7,,,,,,,,,,,,,,,2/8 Mostly Clear,72000.0,8500.0,FEW,8600.0,,,,,,
KRDR,09-04-2017,12:56,METAR,Normal,260,6,,,9999.0,,13.2,13.0,29.91,1013.4,,,,,,,,,,,,,,,2/8 Mostly Clear,72000.0,8000.0,FEW,8000.0,FEW,9600.0,,,,
KRDR,09-04-2017,11:56,METAR,Normal,260,8,,,9999.0,,12.0,11.2,29.92,1013.6,,,,,,,,,,,.05 IN,,.1 IN,.1 IN,Clear,72000.0,,,,,,,,,
KRDR,09-04-2017,11:48,SPECI,Normal,260,5,,,9999.0,,13.0,12.0,29.92,1013.5,,,,,,,,,,,,,,,2/8 Mostly Clear,72000.0,1000.0,FEW,1000.0,,,,,,
KRDR,09-04-2017,11:35,SPECI,Calm,,0,,,9999.0,,13.0,12.0,29.92,1013.5,,,,,,,,,,,,,,,4/8 Partly Cloudy,72000.0,1900.0,SCT,1900.0,SCT,4800.0,,,,
KRDR,09-04-2017,11:07,SPECI,Normal,340,7,,,9999.0,Light Rain,13.0,12.0,29.94,1014.2,61,,,,,,,,,,,,,,2/8 Mostly Clear,72000.0,5000.0,FEW,5000.0,FEW,7000.0,,,,
KRDR,09-04-2017,10:58,METAR,Normal,290,6,,,9999.0,,13.1,11.5,29.92,1013.5,,,,,,,,,,,.01 IN,,.05 IN,.05 IN,2/8 Mostly Clear,72000.0,7000.0,FEW,7000.0,,,,,,
KRDR,09-04-2017,10:56,METAR,Normal,280,6,,,9999.0,,13.0,11.6,29.92,1013.5,,,,,,,,,,,.02 IN,,,,2/8 Mostly Clear,72000.0,7000.0,FEW,7000.0,,,,,,
KRDR,09-04-2017,10:45,SPECI,Normal,270,5,,,9999.0,Dry Thunderstorm,13.0,12.0,29.92,1013.5,91,,,,,,,,,,,,,,Clear,72000.0,,,,,,,,,
KRDR,09-04-2017,10:18,SPECI,Normal,290,7,,,9999.0,,14.0,12.0,29.93,1013.8,,,,,,,,,,,,,,,2/8 Mostly Clear,72000.0,3200.0,FEW,3200.0,,,,,,
KRDR,09-04-2017,09:56,METAR,Normal,270,10,17.0,,9999.0,Rain,14.0,12.0,29.93,1013.8,62,,,,,,,,,,.03 IN,,,,4/8 Partly Cloudy,72000.0,2800.0,SCT,2800.0,,,,,,
KRDR,09-04-2017,09:44,SPECI,Normal,250,10,,,9999.0,Light Rain,14.0,12.0,29.92,1013.4,61,,,,,,,,,,,,,,2/8 Mostly Clear,72000.0,2100.0,FEW,2100.0,,,,,,
KRDR,09-04-2017,09:35,SPECI,Normal,290,9,,,9999.0,,14.0,12.0,29.92,1013.4,,,,,,,,,,,,,,,Clear,72000.0,,,,,,,,,
KRDR,09-04-2017,09:24,SPECI,Normal,280,7,,,9999.0,Light Rain,14.0,11.0,29.91,1013.0,61,,,,,,,,,,,,,,2/8 Mostly Clear,72000.0,6500.0,FEW,6500.0,,,,,,
KRDR,09-04-2017,08:56,METAR,Normal,290,6,,,9999.0,,13.7,11.0,29.89,1012.3,,,,,,,,,,,,,,,Clear,72000.0,,,,,,,,,
KRDR,09-04-2017,07:56,METAR,Normal,300,6,,,9999.0,,11.8,10.0,29.88,1012.0,,,,,,,,,,,,,,,Clear,72000.0,,,,,,,,,
KRDR,09-04-2017,06:56,METAR,Normal,300,6,,,9999.0,,11.7,9.8,29.88,1012.0,,,,,,,,,,,,,,,Clear,72000.0,,,,,,,,,
KRDR,09-04-2017,05:56,METAR,Normal,320,6,,,9999.0,,11.6,9.7,29.87,1011.7,,,,,,,,,,,,,,,Clear,72000.0,,,,,,,,,
KRDR,09-04-2017,04:56,METAR,Normal,330,5,,,9999.0,,12.7,9.7,29.86,1011.3,,,,,,,,,,,,,,,Clear,72000.0,,,,,,,,,
KRDR,09-04-2017,03:56,METAR,Normal,10,7,,,9999.0,,14.6,10.4,29.85,1011.0,,,,,,,,,,,,,,,Clear,72000.0,,,,,,,,,
KRDR,09-04-2017,02:56,METAR,Normal,360,7,,,9999.0,,15.4,11.0,29.84,1010.9,,,,,,,,,,,,,,,Clear,72000.0,,,,,,,,,
KRDR,09-04-2017,01:56,METAR,Normal,20,7,,,9999.0,,19.5,10.7,29.82,1010.2,,,,,,,,,,,,,,,Clear,72000.0,,,,,,,,,
KRDR,09-04-2017,00:56,METAR,Normal,10,6,,,9999.0,,19.6,10.0,29.78,1008.9,,,,,,,,,,,,,,,Clear,72000.0,,,,,,,,,
KRDR,09-03-2017,23:56,METAR,Normal,20,9,,,9999.0,,23.8,8.6,29.76,1008.2,,,,,,,,,,,,,,,Clear,72000.0,,,,,,,,,
KRDR,09-03-2017,22:56,METAR,Normal,30,13,24.0,020/30KTS,9999.0,,25.5,7.6,29.74,1007.4,,,,,,,,,,,,,,,Clear,72000.0,,,,,,,,,
KRDR,09-03-2017,21:56,METAR,Normal,10,17,28.0,360/28KTS,9999.0,,28.2,10.8,29.71,1006.3,,,,,,,,,,,,,,,Clear,72000.0,,,,,,,,,
KRDR,09-03-2017,20:56,METAR,Normal,330,11,,,9999.0,,31.7,15.2,29.67,1004.9,,,,,,,,,,,,,,,Clear,72000.0,,,,,,,,,
KRDR,09-03-2017,19:56,METAR,Normal,300,7,,,9999.0,,32.6,16.4,29.65,1004.2,,,,,,,,,,,,,,,Clear,72000.0,,,,,,,,,
KRDR,09-03-2017,18:56,METAR,Normal,280,10,,,9999.0,,32.0,15.5,29.67,1004.9,,,,,,,,,,,,,,,Clear,72000.0,,,,,,,,,
KRDR,09-03-2017,17:56,METAR,Normal,230,11,23.0,220/26KTS,9999.0,,31.1,13.8,29.68,1005.2,,,,,,,,,,,,,,,Clear,72000.0,,,,,,,,,
KRDR,09-03-2017,16:56,METAR,Normal,240,15,20.0,,9999.0,,30.0,12.8,29.72,1006.6,,,,,,,,,,,,,,,Clear,72000.0,,,,,,,,,
KRDR,09-03-2017,15:56,METAR,Normal,220,9,,,9999.0,,26.3,14.4,29.75,1007.7,,,,,,,,,,,,,,,Clear,72000.0,,,,,,,,,
KRDR,09-03-2017,14:56,METAR,Normal,190,6,,,9999.0,,20.0,13.2,29.78,1008.9,,,,,,,,,,,,,,,Clear,72000.0,,,,,,,,,
KRDR,09-03-2017,13:56,METAR,Normal,160,5,,,9999.0,,16.2,11.6,29.81,1010.0,,,,,,,,,,,,,,,Clear,72000.0,,,,,,,,,
KRDR,09-03-2017,12:56,METAR,Normal,130,6,,,9999.0,,14.6,10.2,29.81,1009.9,,,,,,,,,,,,,,,Clear,72000.0,,,,,,,,,
KRDR,09-03-2017,11:56,METAR,Normal,180,4,,,9999.0,,12.1,9.1,29.82,1010.1,,,,,,,,,,,,,,,Clear,72000.0,,,,,,,,,
KRDR,09-03-2017,10:56,METAR,Normal,220,3,,,9999.0,,12.4,9.4,29.83,1010.5,,,,,,,,,,,,,,,Clear,72000.0,,,,,,,,,
KRDR,09-03-2017,09:56,METAR,Normal,230,5,,,9999.0,,14.2,9.2,29.84,1010.7,,,,,,,,,,,,,,,Clear,72000.0,,,,,,,,,
KRDR,09-03-2017,08:56,METAR,Normal,240,6,,,9999.0,,12.9,9.5,29.84,1010.7,,,,,,,,,,,,,,,Clear,72000.0,,,,,,,,,
KRDR,09-03-2017,07:56,METAR,Normal,230,4,,,9999.0,,12.0,9.2,29.85,1011.1,,,,,,,,,,,,,,,Clear,72000.0,,,,,,,,,
KRDR,09-03-2017,06:56,METAR,Normal,240,4,,,9999.0,,12.7,9.3,29.86,1011.4,,,,,,,,,,,,,,,Clear,72000.0,,,,,,,,,
KRDR,09-03-2017,05:56,METAR,Normal,230,3,,,9999.0,,12.9,9.7,29.87,1011.8,,,,,,,,,,,,,TRACE,,Clear,72000.0,,,,,,,,,
KRDR,09-03-2017,04:56,METAR,Normal,230,3,,,9999.0,,12.7,10.1,29.88,1012.2,,,,,,,,,,,,,,,Clear,72000.0,,,,,,,,,
KRDR,09-03-2017,03:56,METAR,Normal,240,5,,,9999.0,,13.4,10.6,29.88,1012.2,,,,,,,,,,,TRACE,,,,Clear,72000.0,,,,,,,,,
KRDR,09-03-2017,02:56,METAR,Normal,230,5,,,9999.0,,13.6,10.2,29.89,1012.7,,,,,,,,,,,TRACE,TRACE,,,Clear,72000.0,,,,,,,,,
KRDR,09-03-2017,01:56,METAR,Normal,250,4,,,9999.0,,15.9,10.2,29.88,1012.4,,,,,,,,,,,,,,,Clear,72000.0,,,,,,,,,
KRDR,09-03-2017,00:56,METAR,Normal,270,5,,,9999.0,,20.2,10.9,29.88,1012.3,,,,,,,,,,,,,,,Clear,72000.0,,,,,,,,,
KRDR,09-02-2017,23:56,METAR,Normal,290,5,,,9999.0,,25.3,8.3,29.89,1012.5,,,,,,,,,,,,,,,Clear,72000.0,,,,,,,,,
KRDR,09-02-2017,22:56,METAR,Normal,300,9,,,9999.0,,26.8,8.2,29.90,1012.7,,,,,,,,,,,,,,,Clear,72000.0,,,,,,,,,
KRDR,09-02-2017,21:56,METAR,Normal,290,13,,,9999.0,,27.4,7.3,29.90,1012.7,,,,,,,,,,,,,,,Clear,72000.0,,,,,,,,,
KRDR,09-02-2017,20:56,METAR,Normal,310,15,19.0,,9999.0,,28.2,6.9,29.91,1013.1,,,,,,,,,,,,,,,Clear,72000.0,,,,,,,,,
KRDR,09-02-2017,19:56,METAR,Normal,330,10,22.0,,9999.0,,27.9,7.7,29.92,1013.4,,,,,,,,,,,,,,,Clear,72000.0,,,,,,,,,
KRDR,09-02-2017,18:56,METAR,Normal,310,9,,,9999.0,,27.1,7.5,29.94,1014.1,,,,,,,,,,,,,,,Clear,72000.0,,,,,,,,,
KRDR,09-02-2017,17:56,METAR,Normal,330,12,16.0,,9999.0,,26.6,8.1,29.94,1014.1,,,,,,,,,,,,,,,Clear,72000.0,,,,,,,,,
KRDR,09-02-2017,16:56,METAR,Normal,320,12,18.0,,9999.0,,25.1,7.7,29.95,1014.5,,,,,,,,,,,,,,,2/8 Mostly Clear,72000.0,19000.0,FEW,19000.0,,,,,,
KRDR,09-02-2017,15:56,METAR,Normal,310,11,16.0,,9999.0,,23.0,9.0,29.95,1014.5,,,,,,,,,,,,,,,Clear,72000.0,,,,,,,,,
KRDR,09-02-2017,14:56,METAR,Normal,300,10,,,9999.0,,20.1,9.6,29.95,1014.6,,,,,,,,,,,,,,,Clear,72000.0,,,,,,,,,
KRDR,09-02-2017,13:56,METAR,Normal,300,10,,,9999.0,,16.7,8.9,29.94,1014.3,,,,,,,,,,,,,,,Clear,72000.0,,,,,,,,,
KRDR,09-02-2017,12:56,METAR,Normal,300,7,,,9999.0,,14.8,8.5,29.93,1014.0,,,,,,,,,,,,,,,Clear,72000.0,,,,,,,,,
KRDR,09-02-2017,11:56,METAR,Normal,300,8,,,9999.0,,13.3,8.1,29.92,1013.7,,,,,,,,,,,,,,.04 IN,Clear,72000.0,,,,,,,,,
KRDR,09-02-2017,10:56,METAR,Normal,290,8,,,9999.0,,14.1,8.1,29.91,1013.3,,,,,,,,,,,,,,,Clear,72000.0,,,,,,,,,
KRDR,09-02-2017,09:56,METAR,Normal,300,8,,,9999.0,,14.2,7.9,29.89,1012.7,,,,,,,,,,,,,,,Clear,72000.0,,,,,,,,,
KRDR,09-02-2017,08:56,METAR,Normal,300,7,,,9999.0,,14.6,7.9,29.88,1012.3,,,,,,,,,,,,,,,Clear,72000.0,,,,,,,,,
KRDR,09-02-2017,07:56,METAR,Normal,300,8,,,9999.0,,14.6,8.3,29.88,1012.3,,,,,,,,,,,,,,,Clear,72000.0,,,,,,,,,
KRDR,09-02-2017,06:56,METAR,Normal,290,8,,,9999.0,,15.2,10.2,29.87,1012.0,,,,,,,,,,,,,,,4/8 Partly Cloudy,72000.0,20000.0,SCT,20000.0,,,,,,
KRDR,09-02-2017,05:56,METAR,Normal,310,8,,,9999.0,,16.4,11.7,29.87,1012.0,,,,,,,,,,,,,,,Clear,72000.0,,,,,,,,,
KRDR,09-02-2017,04:56,METAR,Normal,290,6,,,9999.0,,17.5,14.9,29.87,1011.9,,,,,,,,,,,,,,,Clear,72000.0,,,,,,,,,
KRDR,09-02-2017,03:56,METAR,Normal,290,6,,,9999.0,,16.0,16.0,29.85,1011.3,,,,,,,,,,,,,,,Clear,72000.0,,,,,,,,,
KRDR,09-02-2017,02:56,METAR,Normal,250,4,,,9999.0,,17.3,17.1,29.85,1011.3,,,,,,,,,,,,,,,Clear,72000.0,,,,,,,,,
KRDR,09-02-2017,01:56,METAR,Normal,230,5,,,9999.0,,18.4,18.4,29.83,1010.6,,,,,,,,,,,,,,,Clear,72000.0,,,,,,,,,
KRDR,09-02-2017,00:56,METAR,Normal,210,5,,,9999.0,,19.9,18.9,29.82,1010.2,,,,,,,,,,,,,,,Clear,72000.0,,,,,,,,,
KRDR,09-01-2017,23:56,METAR,Normal,190,11,,,9999.0,,20.9,18.6,29.82,1010.2,,,,,,,,,,,,,TRACE,,2/8 Mostly Clear,72000.0,1200.0,FEW,1200.0,,,,,,
KRDR,09-01-2017,23:36,SPECI,Normal,190,12,,,9999.0,,21.0,19.0,29.82,1010.2,,,,,,,,,,,,,,,4/8 Partly Cloudy,72000.0,1200.0,SCT,1200.0,,,,,,
KRDR,09-01-2017,23:31,SPECI,Normal,180,14,,,9999.0,,21.0,18.0,29.82,1010.2,,,,,,,,,,,,,,,,1200.0,1200.0,BKN,1200.0,,,,,,
KRDR,09-01-2017,23:26,SPECI,Normal,180,13,,,9999.0,,21.0,19.0,29.81,1009.9,,,,,,,,,,,,,,,4/8 Partly Cloudy,72000.0,1200.0,SCT,1200.0,,,,,,
KRDR,09-01-2017,23:01,SPECI,Normal,180,16,,,9999.0,,21.0,19.0,29.81,1009.9,,,,,,,,,,,,,,,,900.0,1000.0,BKN,1000.0,,,,,,
KRDR,09-01-2017,22:56,METAR,Normal,180,15,,,9999.0,,20.7,18.4,29.82,1010.2,,,,,,,,,,,,,,,,900.0,900.0,OVC,900.0,,,,,,
KRDR,09-01-2017,21:56,METAR,Normal,180,15,,,9999.0,,20.1,18.4,29.84,1010.9,,,,,,,,,,,TRACE,,,,,800.0,800.0,OVC,800.0,,,,,,
KRDR,09-01-2017,21:22,SPECI,Normal,180,14,22.0,,9999.0,,20.0,18.0,29.83,1010.5,,,,,,,,,,,,,,,,800.0,800.0,OVC,800.0,,,,,,
KRDR,09-01-2017,21:15,SPECI,Normal,170,13,22.0,,9999.0,Light Drizzle,20.0,18.0,29.83,1010.5,51,,,,,,,,,,,,,,,800.0,800.0,OVC,800.0,,,,,,
KRDR,09-01-2017,20:56,METAR,Normal,170,16,,,9999.0,,19.8,18.3,29.84,1010.9,,,,,,,,,,,,,,,,800.0,800.0,OVC,800.0,,,,,,
KRDR,09-01-2017,19:56,METAR,Normal,180,14,,,9999.0,,19.5,18.0,29.87,1011.9,,,,,,,,,,,,,,,,900.0,900.0,OVC,900.0,,,,,,
KRDR,09-01-2017,19:51,SPECI,Normal,180,15,,,9999.0,,20.0,18.0,29.87,1011.9,,,,,,,,,,,,,,,,900.0,900.0,OVC,900.0,,,,,,
KRDR,09-01-2017,18:56,METAR,Normal,180,19,22.0,,9999.0,,19.8,18.3,29.88,1012.2,,,,,,,,,,,,,,,,1000.0,1000.0,OVC,1000.0,,,,,,
KRDR,09-01-2017,18:41,SPECI,Normal,190,17,21.0,,9999.0,,20.0,18.0,29.88,1012.2,,,,,,,,,,,,,,,,1000.0,1000.0,OVC,1000.0,,,,,,
KRDR,09-01-2017,17:56,METAR,Normal,180,16,23.0,180/27KTS,9999.0,,18.6,18.1,29.89,1012.6,,,,,,,,,,,TRACE,,.04 IN,,,900.0,900.0,OVC,900.0,,,,,,
KRDR,09-01-2017,17:41,SPECI,Normal,180,17,,,9999.0,,19.0,18.0,29.89,1012.6,,,,,,,,,,,,,,,,900.0,900.0,BKN,900.0,BKN,1300.0,,,,
KRDR,09-01-2017,17:28,SPECI,Normal,170,18,,,9999.0,,19.0,18.0,29.89,1012.6,,,,,,,,,,,,,,,,1100.0,1200.0,BKN,1200.0,BKN,11000.0,,,,
KRDR,09-01-2017,16:58,SPECI,Normal,170,16,,,9999.0,,18.0,18.0,29.91,1013.3,,,,,,,,,,,,,,,,12000.0,1300.0,FEW,1300.0,SCT,2500.0,BKN,12000.0,BKN,17000.0
KRDR,09-01-2017,16:56,METAR,Normal,180,15,,,9999.0,Light Rain,17.8,17.5,29.91,1013.3,61,,,,,,,,,,.03 IN,,,,,2400.0,1300.0,FEW,1300.0,BKN,2400.0,BKN,3800.0,BKN,12000.0
KRDR,09-01-2017,16:44,SPECI,Normal,180,17,,,9999.0,Light Rain,18.0,17.0,29.91,1013.3,61,,,,,,,,,,,,,,,1000.0,1000.0,SCT,1000.0,BKN,2600.0,,,,
KRDR,09-01-2017,16:39,SPECI,Normal,180,16,,,9999.0,Light Rain,18.0,17.0,29.91,1013.3,61,,,,,,,,,,,,,,,1000.0,1000.0,SCT,1000.0,BKN,1600.0,OVC,2800.0,,
KRDR,09-01-2017,16:25,SPECI,Normal,180,12,,,9999.0,,18.0,17.0,29.91,1013.3,,,,,,,,,,,,,,,,1100.0,1100.0,OVC,1100.0,,,,,,
KRDR,09-01-2017,16:11,SPECI,Normal,190,9,,,9999.0,Light Rain,17.0,17.0,29.90,1013.0,61,,,,,,,,,,,,,,,1100.0,1100.0,OVC,1100.0,,,,,,
KRDR,09-01-2017,15:56,METAR,Normal,180,12,,,9999.0,,17.2,16.5,29.89,1012.7,,,,,,,,,,,.01 IN,,,,,1000.0,1000.0,OVC,1000.0,,,,,,
KRDR,09-01-2017,15:48,SPECI,Normal,170,11,,,9999.0,,17.0,17.0,29.89,1012.7,,,,,,,,,,,,,,,,1000.0,1000.0,OVC,1000.0,,,,,,
KRDR,09-01-2017,15:16,SPECI,Normal,180,12,20.0,,9999.0,Light Rain,17.0,16.0,29.91,1013.3,61,,,,,,,,,,,,,,,1000.0,1000.0,OVC,1000.0,,,,,,
KRDR,09-01-2017,15:06,SPECI,Normal,170,11,21.0,,9999.0,,17.0,16.0,29.91,1013.3,,,,,,,,,,,,,,,,1000.0,1000.0,OVC,1000.0,,,,,,
KRDR,09-01-2017,15:00,SPECI,Normal,180,16,21.0,,9999.0,Light Rain,17.0,16.0,29.91,1013.3,61,,,,,,,,,,,,,,,1100.0,1100.0,OVC,1100.0,,,,,,
KRDR,09-01-2017,14:56,METAR,Normal,170,14,,,9999.0,Light Rain,17.5,15.5,29.91,1013.3,61,,,,,,,,,,,,,,,1100.0,1100.0,OVC,1100.0,,,,,,
KRDR,09-01-2017,14:53,SPECI,Normal,180,13,,,9999.0,Rain,17.0,15.0,29.91,1013.3,,,,61,,,,,,,,,,,,1000.0,1000.0,OVC,1000.0,,,,,,
KRDR,09-01-2017,14:26,SPECI,Normal,180,15,,,9999.0,,17.0,15.0,29.91,1013.3,,,,,,,,,,,,,,,,1000.0,1000.0,OVC,1000.0,,,,,,
KRDR,09-01-2017,13:56,METAR,Normal,180,15,,,9999.0,,16.9,15.1,29.91,1013.3,,,,,,,,,,,,,,,,800.0,800.0,OVC,800.0,,,,,,
KRDR,09-01-2017,13:46,SPECI,Normal,180,14,,,9999.0,,17.0,15.0,29.91,1013.3,,,,,,,,,,,,,,,,700.0,700.0,OVC,700.0,,,,,,
KRDR,09-01-2017,13:21,SPECI,Normal,180,14,19.0,,9999.0,,16.0,15.0,29.92,1013.6,,,,,,,,,,,,,,,,600.0,600.0,OVC,600.0,,,,,,
KRDR,09-01-2017,13:11,SPECI,Normal,170,15,19.0,,9999.0,,16.0,15.0,29.92,1013.6,,,,,,,,,,,,,,,,500.0,500.0,OVC,500.0,,,,,,
KRDR,09-01-2017,12:56,METAR,Normal,180,12,,,9999.0,,15.8,15.0,29.93,1013.9,,,,,,,,,,,,,,,,600.0,600.0,OVC,600.0,,,,,,
KRDR,09-01-2017,12:21,SPECI,Normal,160,14,,,9999.0,,16.0,15.0,29.92,1013.5,,,,,,,,,,,,,,,,700.0,700.0,OVC,700.0,,,,,,
KRDR,09-01-2017,12:06,SPECI,Normal,180,14,,,9999.0,,16.0,15.0,29.92,1013.5,,,,,,,,,,,,,,,,700.0,800.0,OVC,800.0,,,,,,
KRDR,09-01-2017,11:56,METAR,Normal,180,14,20.0,,9999.0,,15.8,14.5,29.92,1013.5,,,,,,,,,,,,,,,,700.0,700.0,OVC,700.0,,,,,,
KRDR,09-01-2017,11:31,SPECI,Normal,180,16,20.0,,9999.0,,16.0,14.0,29.92,1013.5,,,,,,,,,,,,,,,,700.0,700.0,OVC,700.0,,,,,,
KRDR,09-01-2017,10:56,METAR,Normal,190,12,,,9999.0,,15.7,13.9,29.93,1013.8,,,,,,,,,,,,,,,,800.0,900.0,OVC,900.0,,,,,,
KRDR,09-01-2017,10:47,SPECI,Normal,190,13,,,9999.0,,16.0,14.0,29.94,1014.2,,,,,,,,,,,,,,,,900.0,900.0,OVC,900.0,,,,,,
KRDR,09-01-2017,10:12,SPECI,Normal,180,13,21.0,,9999.0,,16.0,13.0,29.95,1014.5,,,,,,,,,,,,,,,,1100.0,1100.0,OVC,1100.0,,,,,,
KRDR,09-01-2017,09:56,METAR,Normal,190,17,22.0,,9999.0,,15.9,13.0,29.95,1014.5,,,,,,,,,,,,,,,,1100.0,1200.0,OVC,1200.0,,,,,,
KRDR,09-01-2017,09:31,SPECI,Normal,190,18,24.0,,9999.0,,16.0,13.0,29.96,1014.8,,,,,,,,,,,,,,,,1400.0,1400.0,OVC,1400.0,,,,,,
KRDR,09-01-2017,09:16,SPECI,Normal,190,12,,,9999.0,,16.0,12.0,29.97,1015.1,,,,,,,,,,,,,,,,1500.0,1500.0,BKN,1500.0,,,,,,
KRDR,09-01-2017,08:56,METAR,Normal,190,12,,,9999.0,,15.3,12.1,29.97,1015.2,,,,,,,,,,,,,,,Clear,72000.0,,,,,,,,,
KRDR,09-01-2017,07:56,METAR,Normal,180,14,,,9999.0,,15.5,11.7,29.97,1015.1,,,,,,,,,,,,,,,Clear,72000.0,,,,,,,,,
KRDR,09-01-2017,06:56,METAR,Normal,180,11,,,9999.0,,15.6,11.8,29.99,1015.9,,,,,,,,,,,,,,,Clear,72000.0,,,,,,,,,
KRDR,09-01-2017,05:56,METAR,Normal,180,10,,,9999.0,,16.0,11.8,30.00,1016.2,,,,,,,,,,,,,,,Clear,72000.0,,,,,,,,,
KRDR,09-01-2017,04:56,METAR,Normal,180,11,,,9999.0,,17.0,11.7,30.01,1016.6,,,,,,,,,,,,,,,Clear,72000.0,,,,,,,,,
KRDR,09-01-2017,03:56,METAR,Normal,170,14,,,9999.0,,17.8,11.6,30.01,1016.6,,,,,,,,,,,,,,,Clear,72000.0,,,,,,,,,
KRDR,09-01-2017,02:56,METAR,Normal,160,12,,,9999.0,,18.3,11.8,30.02,1017.1,,,,,,,,,,,,,,,Clear,72000.0,,,,,,,,,
KRDR,09-01-2017,01:56,METAR,Normal,160,10,,,9999.0,,19.6,11.9,30.03,1017.4,,,,,,,,,,,,,,,Clear,72000.0,,,,,,,,,
KRDR,09-01-2017,00:56,METAR,Normal,150,11,,,9999.0,,21.2,11.8,30.04,1017.8,,,,,,,,,,,,,,,Clear,72000.0,,,,,,,,,
KRDR,08-31-2017,23:56,METAR,Normal,160,15,21.0,,9999.0,,23.0,11.7,30.04,1017.8,,,,,,,,,,,,,,,Clear,72000.0,,,,,,,,,
KRDR,08-31-2017,22:56,METAR,Normal,170,15,24.0,,9999.0,,24.2,10.8,30.05,1018.0,,,,,,,,,,,,,,,Clear,72000.0,,,,,,,,,
KRDR,08-31-2017,21:56,METAR,Normal,170,16,22.0,,9999.0,,25.1,10.5,30.06,1018.4,,,,,,,,,,,,,,,Clear,72000.0,,,,,,,,,
KRDR,08-31-2017,20:56,METAR,Normal,160,16,21.0,,9999.0,,25.3,9.9,30.08,1019.1,,,,,,,,,,,,,,,Clear,72000.0,,,,,,,,,
KRDR,08-31-2017,19:56,METAR,Normal,150,16,19.0,,9999.0,,25.6,9.4,30.10,1019.7,,,,,,,,,,,,,,,2/8 Mostly Clear,72000.0,17000.0,FEW,17000.0,,,,,,
KRDR,08-31-2017,18:56,METAR,Normal,160,17,,,9999.0,,24.6,8.9,30.11,1020.0,,,,,,,,,,,,,,,2/8 Mostly Clear,72000.0,20000.0,FEW,20000.0,,,,,,
KRDR,08-31-2017,17:56,METAR,Normal,160,15,23.0,,9999.0,,23.6,10.3,30.13,1020.8,,,,,,,,,,,,,,,Clear,72000.0,,,,,,,,,
KRDR,08-31-2017,16:56,METAR,Normal,150,16,,,9999.0,,22.0,10.2,30.15,1021.5,,,,,,,,,,,,,,,Clear,72000.0,,,,,,,,,
KRDR,08-31-2017,15:56,METAR,Normal,170,16,21.0,,9999.0,,19.2,10.2,30.16,1021.9,,,,,,,,,,,,,,,Clear,72000.0,,,,,,,,,
KRDR,08-31-2017,14:56,METAR,Normal,170,14,,,9999.0,,16.1,10.0,30.17,1022.3,,,,,,,,,,,,,,,Clear,72000.0,,,,,,,,,
KRDR,08-31-2017,13:56,METAR,Normal,160,6,,,9999.0,,13.6,10.4,30.17,1022.3,,,,,,,,,,,,,,,Clear,72000.0,,,,,,,,,
KRDR,08-31-2017,12:56,METAR,Normal,150,7,,,9999.0,,11.8,9.7,30.17,1022.3,,,,,,,,,,,,,,,Clear,72000.0,,,,,,,,,
KRDR,08-31-2017,11:56,METAR,Normal,150,6,,,9999.0,,11.1,9.0,30.16,1021.8,,,,,,,,,,,,,,,Clear,72000.0,,,,,,,,,
KRDR,08-31-2017,10:56,METAR,Normal,150,6,,,9999.0,,11.5,9.1,30.16,1021.7,,,,,,,,,,,,,,,Clear,72000.0,,,,,,,,,
KRDR,08-31-2017,09:56,METAR,Normal,170,4,,,9999.0,,11.3,8.7,30.16,1021.7,,,,,,,,,,,,,,,Clear,72000.0,,,,,,,,,
KRDR,08-31-2017,08:56,METAR,Normal,190,4,,,9999.0,,10.4,8.0,30.16,1021.8,,,,,,,,,,,,,,,Clear,72000.0,,,,,,,,,
KRDR,08-31-2017,07:56,METAR,Normal,160,4,,,9999.0,,11.0,8.0,30.15,1021.4,,,,,,,,,,,,,,,Clear,72000.0,,,,,,,,,
KRDR,08-31-2017,06:56,METAR,Normal,160,4,,,9999.0,,12.1,8.0,30.15,1021.4,,,,,,,,,,,,,,,Clear,72000.0,,,,,,,,,
KRDR,08-31-2017,05:56,METAR,Calm,,0,,,9999.0,,10.4,8.0,30.15,1021.5,,,,,,,,,,,,,,,Clear,72000.0,,,,,,,,,
KRDR,08-31-2017,04:56,METAR,Calm,,0,,,9999.0,,11.8,8.1,30.15,1021.4,,,,,,,,,,,,,,,Clear,72000.0,,,,,,,,,
KRDR,08-31-2017,03:56,METAR,Normal,200,3,,,9999.0,,13.9,8.5,30.14,1021.2,,,,,,,,,,,,,,,Clear,72000.0,,,,,,,,,
KRDR,08-31-2017,02:56,METAR,Normal,180,6,,,9999.0,,16.9,9.1,30.13,1020.8,,,,,,,,,,,,,,,Clear,72000.0,,,,,,,,,
KRDR,08-31-2017,01:56,METAR,Calm,,0,,,9999.0,,17.8,11.4,30.12,1020.5,,,,,,,,,,,,,,,Clear,72000.0,,,,,,,,,
KRDR,08-31-2017,00:56,METAR,Normal,340,4,,,9999.0,,20.0,13.7,30.12,1020.5,,,,,,,,,,,,,,,Clear,72000.0,,,,,,,,,
KRDR,08-30-2017,23:56,METAR,Calm,,0,,,9999.0,,24.8,10.6,30.12,1020.4,,,,,,,,,,,,,,,Clear,72000.0,,,,,,,,,
KRDR,08-30-2017,22:56,METAR,Normal,70,3,,,9999.0,,26.1,8.1,30.12,1020.4,,,,,,,,,,,,,,,Clear,72000.0,,,,,,,,,
KRDR,08-30-2017,21:56,METAR,Normal,30,3,,,9999.0,,26.7,7.7,30.13,1020.6,,,,,,,,,,,,,,,Clear,72000.0,,,,,,,,,
KRDR,08-30-2017,20:56,METAR,Normal,30,4,,,9999.0,,26.4,6.4,30.14,1020.9,,,,,,,,,,,,,,,Clear,72000.0,,,,,,,,,
KRDR,08-30-2017,19:56,METAR,Normal,90,5,,,9999.0,,26.5,8.0,30.16,1021.6,,,,,,,,,,,,,,,Clear,72000.0,,,,,,,,,
KRDR,08-30-2017,18:56,METAR,Normal,30,3,,,9999.0,,25.3,7.9,30.17,1021.9,,,,,,,,,,,,,,,Clear,72000.0,,,,,,,,,
KRDR,08-30-2017,17:56,METAR,Normal,40,6,,,9999.0,,24.5,6.7,30.17,1021.9,,,,,,,,,,,,,,,Clear,72000.0,,,,,,,,,
KRDR,08-30-2017,16:56,METAR,Normal,30,8,,,9999.0,,23.5,7.6,30.17,1021.9,,,,,,,,,,,,,,,Clear,72000.0,,,,,,,,,
KRDR,08-30-2017,15:56,METAR,Normal,360,8,,,9999.0,,20.8,9.7,30.17,1021.9,,,,,,,,,,,,,,,Clear,72000.0,,,,,,,,,
KRDR,08-30-2017,14:56,METAR,Normal,20,5,,,9999.0,,17.6,9.5,30.17,1021.9,,,,,,,,,,,,,,,Clear,72000.0,,,,,,,,,
KRDR,08-30-2017,13:56,METAR,Normal,20,11,,,9999.0,,15.4,9.1,30.16,1021.8,,,,,,,,,,,,,,,Clear,72000.0,,,,,,,,,
KRDR,08-30-2017,12:56,METAR,Normal,10,8,,,9999.0,,13.0,8.7,30.15,1021.3,,,,,,,,,,,,,,,Clear,72000.0,,,,,,,,,
KRDR,08-30-2017,11:56,METAR,Normal,350,6,,,9999.0,,11.3,8.0,30.13,1020.6,,,,,,,,,,,,,,,Clear,72000.0,,,,,,,,,
KRDR,08-30-2017,10:56,METAR,Normal,360,6,,,9999.0,,12.5,7.8,30.11,1019.9,,,,,,,,,,,,,,,Clear,72000.0,,,,,,,,,
KRDR,08-30-2017,09:56,METAR,Normal,10,7,,,9999.0,,13.4,8.0,30.09,1019.2,,,,,,,,,,,,,,,Clear,72000.0,,,,,,,,,
KRDR,08-30-2017,08:56,METAR,Normal,10,7,,,9999.0,,15.2,8.2,30.08,1018.8,,,,,,,,,,,,,,,Clear,72000.0,,,,,,,,,
KRDR,08-30-2017,07:56,METAR,Normal,10,9,,,9999.0,,17.1,8.8,30.07,1018.4,,,,,,,,,,,,,,,2/8 Mostly Clear,72000.0,7000.0,FEW,7000.0,,,,,,
KRDR,08-30-2017,06:56,METAR,Normal,360,8,,,9999.0,,16.9,9.3,30.07,1018.4,,,,,,,,,,,,,,,Clear,72000.0,,,,,,,,,
KRDR,08-30-2017,05:56,METAR,Normal,20,9,,,9999.0,,18.3,10.4,30.06,1018.0,,,,,,,,,,,,,,,Clear,72000.0,,,,,,,,,
KRDR,08-30-2017,04:56,METAR,Normal,10,8,,,9999.0,,19.7,13.2,30.04,1017.3,,,,,,,,,,,,,,,Clear,72000.0,,,,,,,,,
KRDR,08-30-2017,03:56,METAR,Normal,360,8,,,9999.0,,21.0,14.2,30.02,1016.7,,,,,,,,,,,,,,,Clear,72000.0,,,,,,,,,
KRDR,08-30-2017,02:56,METAR,Normal,350,8,,,9999.0,,23.2,16.2,29.99,1015.7,,,,,,,,,,,,,,,Clear,72000.0,,,,,,,,,
KRDR,08-30-2017,00:56,METAR,Normal,230,6,,,9999.0,,26.3,16.2,29.95,1014.4,,,,,,,,,,,,,,,Clear,72000.0,,,,,,,,,
KRDR,08-29-2017,23:56,METAR,Normal,220,6,,,9999.0,,29.8,15.5,29.95,1014.3,,,,,,,,,,,,,,,Clear,72000.0,,,,,,,,,
KRDR,08-29-2017,22:56,METAR,Normal,240,10,,,9999.0,,30.9,14.5,29.95,1014.3,,,,,,,,,,,,,,,Clear,72000.0,,,,,,,,,
KRDR,08-29-2017,21:56,METAR,Normal,230,10,,,9999.0,,31.5,13.2,29.96,1014.6,,,,,,,,,,,,,,,Clear,72000.0,,,,,,,,,
KRDR,08-29-2017,20:56,METAR,Normal,240,13,,,9999.0,,31.9,13.1,29.97,1015.0,,,,,,,,,,,,,,,Clear,72000.0,,,,,,,,,
KRDR,08-29-2017,20:51,SPECI,Normal,260,11,,,9999.0,,32.0,13.0,29.97,1015.0,,,,,,,,,,,,,,,Clear,72000.0,,,,,,,,,
KRDR,08-29-2017,19:56,METAR,Normal,220,12,,,9999.0,,31.7,12.5,29.98,1015.3,,,,,,,,,,,,,,,Clear,72000.0,,,,,,,,,
KRDR,08-29-2017,18:56,METAR,Normal,220,12,,,9999.0,,31.1,11.9,30.00,1016.0,,,,,,,,,,,,,,,Clear,72000.0,,,,,,,,,
KRDR,08-29-2017,17:56,METAR,Normal,240,11,,,9999.0,,30.7,11.6,30.00,1016.0,,,,,,,,,,,,,,,Clear,72000.0,,,,,,,,,
KRDR,08-29-2017,16:56,METAR,Normal,240,10,,,9999.0,,29.5,12.0,30.01,1016.4,,,,,,,,,,,,,,,Clear,72000.0,,,,,,,,,
KRDR,08-29-2017,15:56,METAR,Normal,220,10,,,9999.0,,26.9,13.9,30.01,1016.4,,,,,,,,,,,,,,,Clear,72000.0,,,,,,,,,
KRDR,08-29-2017,14:56,METAR,Normal,220,8,,,9999.0,,23.7,13.5,30.02,1016.8,,,,,,,,,,,,,,,Clear,72000.0,,,,,,,,,
KRDR,08-29-2017,13:56,METAR,Normal,210,6,,,9999.0,,20.3,14.2,30.02,1016.8,,,,,,,,,,,,,,,Clear,72000.0,,,,,,,,,
KRDR,08-29-2017,12:56,METAR,Normal,200,5,,,9999.0,,17.3,14.0,30.02,1016.8,,,,,,,,,,,,,,,Clear,72000.0,,,,,,,,,
KRDR,08-29-2017,11:56,METAR,Normal,220,4,,,9999.0,,15.2,13.0,30.02,1016.8,,,,,,,,,,,,,,,2/8 Mostly Clear,72000.0,8000.0,FEW,8000.0,,,,,,
KRDR,08-29-2017,10:56,METAR,Normal,230,4,,,9999.0,,15.4,13.1,30.02,1016.8,,,,,,,,,,,,,,,Clear,72000.0,,,,,,,,,
KRDR,08-29-2017,09:56,METAR,Normal,220,6,,,9999.0,,15.9,13.6,30.02,1016.7,,,,,,,,,,,,,,,2/8 Mostly Clear,72000.0,8000.0,FEW,8000.0,,,,,,
KRDR,08-29-2017,08:56,METAR,Normal,220,6,,,9999.0,,16.3,13.6,30.03,1017.1,,,,,,,,,,,,,,,Clear,72000.0,,,,,,,,,
KRDR,08-29-2017,07:56,METAR,Normal,230,6,,,9999.0,,15.6,13.6,30.02,1016.7,,,,,,,,,,,,,,,Clear,72000.0,,,,,,,,,
KRDR,08-29-2017,06:56,METAR,Normal,200,4,,,9999.0,,15.8,13.5,30.03,1017.1,,,,,,,,,,,,,,,Clear,72000.0,,,,,,,,,
KRDR,08-29-2017,05:56,METAR,Normal,230,5,,,9999.0,,15.7,13.9,30.03,1017.1,,,,,,,,,,,,,,,Clear,72000.0,,,,,,,,,
KRDR,08-29-2017,04:56,METAR,Normal,210,3,,,9999.0,,16.2,14.0,30.02,1016.8,,,,,,,,,,,,,,,Clear,72000.0,,,,,,,,,
KRDR,08-29-2017,03:56,METAR,Normal,200,3,,,9999.0,,16.5,14.5,30.03,1017.2,,,,,,,,,,,,,,,Clear,72000.0,,,,,,,,,
KRDR,08-29-2017,02:56,METAR,Normal,180,3,,,9999.0,,18.4,14.9,30.02,1016.8,,,,,,,,,,,,,,,Clear,72000.0,,,,,,,,,
KRDR,08-29-2017,01:56,METAR,Normal,170,5,,,9999.0,,21.6,14.2,30.01,1016.4,,,,,,,,,,,,,,,Clear,72000.0,,,,,,,,,
KRDR,08-29-2017,00:56,METAR,Normal,160,5,,,9999.0,,25.6,15.0,30.00,1016.2,,,,,,,,,,,,,,,Clear,72000.0,,,,,,,,,
KRDR,08-28-2017,23:56,METAR,Normal,190,6,,,9999.0,,29.0,12.8,30.01,1016.6,,,,,,,,,,,,,,,Clear,72000.0,,,,,,,,,
KRDR,08-28-2017,22:56,METAR,Normal,190,5,,,9999.0,,27.9,13.8,30.01,1016.6,,,,,,,,,,,,,,,Clear,72000.0,,,,,,,,,
KRDR,08-28-2017,21:56,METAR,Normal,180,3,,,9999.0,,30.2,13.0,30.02,1016.8,,,,,,,,,,,,,,,Clear,72000.0,,,,,,,,,
KRDR,08-28-2017,20:56,METAR,Calm,,0,,,9999.0,,30.4,12.7,30.02,1016.8,,,,,,,,,,,,,,,Clear,72000.0,,,,,,,,,
KRDR,08-28-2017,19:56,METAR,Normal,240,5,,,9999.0,,30.1,12.9,30.04,1017.5,,,,,,,,,,,,,,,Clear,72000.0,,,,,,,,,
KRDR,08-28-2017,18:56,METAR,Normal,270,3,,,9999.0,,29.5,13.3,30.05,1017.8,,,,,,,,,,,,,,,Clear,72000.0,,,,,,,,,
KRDR,08-28-2017,17:56,METAR,Calm,,0,,,9999.0,,28.7,11.7,30.06,1018.2,,,,,,,,,,,,,,,Clear,72000.0,,,,,,,,,
KRDR,08-28-2017,16:56,METAR,Normal,280,5,,,9999.0,,27.6,11.2,30.07,1018.5,,,,,,,,,,,,,,,Clear,72000.0,,,,,,,,,
KRDR,08-28-2017,15:56,METAR,Calm,,0,,,9999.0,,25.5,14.6,30.08,1018.9,,,,,,,,,,,,,,,Clear,72000.0,,,,,,,,,
KRDR,08-28-2017,14:56,METAR,Normal,100,4,,,9999.0,,23.3,14.3,30.08,1019.0,,,,,,,,,,,,,,,Clear,72000.0,,,,,,,,,
KRDR,08-28-2017,13:56,METAR,Calm,,0,,,9999.0,,21.0,13.2,30.08,1019.0,,,,,,,,,,,,,,,Clear,72000.0,,,,,,,,,
KRDR,08-28-2017,12:56,METAR,Normal,210,3,,,9999.0,,14.9,12.4,30.08,1019.0,,,,,,,,,,,,,,,Clear,72000.0,,,,,,,,,
KRDR,08-28-2017,11:56,METAR,Normal,230,3,,,9999.0,,11.8,10.5,30.08,1019.1,,,,,,,,,,,,,,,Clear,72000.0,,,,,,,,,
KRDR,08-28-2017,10:56,METAR,Normal,240,3,,,9999.0,,12.3,11.0,30.07,1018.7,,,,,,,,,,,,,,,Clear,72000.0,,,,,,,,,
KRDR,08-28-2017,09:56,METAR,Normal,250,5,,,9999.0,,11.8,11.2,30.08,1019.0,,,,,,,,,,,,,,,Clear,72000.0,,,,,,,,,
KRDR,08-28-2017,08:56,METAR,Normal,250,4,,,9999.0,,13.0,11.6,30.08,1019.0,,,,,,,,,,,,,,,Clear,72000.0,,,,,,,,,
KRDR,08-28-2017,07:56,METAR,Normal,240,5,,,9999.0,,13.7,11.9,30.07,1018.7,,,,,,,,,,,,,,,Clear,72000.0,,,,,,,,,
KRDR,08-28-2017,06:56,METAR,Normal,260,6,,,9999.0,,13.7,11.7,30.06,1018.4,,,,,,,,,,,,,,,Clear,72000.0,,,,,,,,,
KRDR,08-28-2017,05:56,METAR,Normal,250,6,,,9999.0,,13.9,12.1,30.07,1018.7,,,,,,,,,,,,,,,Clear,72000.0,,,,,,,,,
KRDR,08-28-2017,04:56,METAR,Normal,250,5,,,9999.0,,13.6,12.3,30.07,1018.8,,,,,,,,,,,,,,,Clear,72000.0,,,,,,,,,
KRDR,08-28-2017,03:56,METAR,Normal,260,6,,,9999.0,,13.6,12.5,30.08,1019.2,,,,,,,,,,,,,,,Clear,72000.0,,,,,,,,,
KRDR,08-28-2017,02:56,METAR,Normal,250,5,,,9999.0,,15.1,12.9,30.08,1019.2,,,,,,,,,,,,,,,Clear,72000.0,,,,,,,,,
KRDR,08-28-2017,01:56,METAR,Normal,250,6,,,9999.0,,16.1,13.4,30.08,1019.2,,,,,,,,,,,,,,,Clear,72000.0,,,,,,,,,
KRDR,08-28-2017,00:56,METAR,Calm,,0,,,9999.0,,23.2,11.9,30.07,1018.7,,,,,,,,,,,,,,,Clear,72000.0,,,,,,,,,
KRDR,08-27-2017,23:56,METAR,Normal,50,4,,,9999.0,,24.9,10.7,30.07,1018.7,,,,,,,,,,,,,,,Clear,72000.0,,,,,,,,,
KRDR,08-27-2017,22:56,METAR,Normal,10,7,,,9999.0,,25.7,10.3,30.08,1018.9,,,,,,,,,,,,,,,Clear,72000.0,,,,,,,,,
KRDR,08-27-2017,21:56,METAR,Normal,10,9,,,9999.0,,25.7,12.5,30.09,1019.3,,,,,,,,,,,,,,,Clear,72000.0,,,,,,,,,
KRDR,08-27-2017,20:56,METAR,Normal,10,11,15.0,,9999.0,,24.6,14.4,30.09,1019.3,,,,,,,,,,,,,,,Clear,72000.0,,,,,,,,,
KRDR,08-27-2017,19:56,METAR,Normal,10,11,18.0,,9999.0,,24.1,13.6,30.10,1019.7,,,,,,,,,,,,,,,Clear,72000.0,,,,,,,,,
KRDR,08-27-2017,18:56,METAR,Normal,20,10,,,9999.0,,22.4,15.7,30.11,1020.1,,,,,,,,,,,,,,,4/8 Partly Cloudy,72000.0,2200.0,SCT,2200.0,,,,,,
KRDR,08-27-2017,18:46,SPECI,Normal,20,9,,,9999.0,,22.0,16.0,30.11,1020.1,,,,,,,,,,,,,,,4/8 Partly Cloudy,72000.0,2100.0,FEW,2100.0,SCT,2600.0,,,,
KRDR,08-27-2017,18:36,SPECI,Normal,360,11,,,9999.0,,22.0,16.0,30.12,1020.4,,,,,,,,,,,,,,,,2000.0,2000.0,BKN,2000.0,,,,,,
KRDR,08-27-2017,18:31,SPECI,Normal,20,10,,,9999.0,,22.0,16.0,30.12,1020.4,,,,,,,,,,,,,,,4/8 Partly Cloudy,72000.0,1900.0,SCT,1900.0,,,,,,
KRDR,08-27-2017,18:26,SPECI,Normal,360,10,,,9999.0,,22.0,16.0,30.12,1020.4,,,,,,,,,,,,,,,4/8 Partly Cloudy,72000.0,1900.0,SCT,1900.0,,,,,,
KRDR,08-27-2017,18:11,SPECI,Normal,340,10,,,9999.0,,22.0,16.0,30.12,1020.4,,,,,,,,,,,,,,,,1900.0,1900.0,BKN,1900.0,,,,,,
KRDR,08-27-2017,18:01,SPECI,Normal,360,8,17.0,,9999.0,,22.0,16.0,30.12,1020.4,,,,,,,,,,,,,,,4/8 Partly Cloudy,72000.0,1700.0,SCT,1700.0,,,,,,
KRDR,08-27-2017,17:56,METAR,Normal,10,11,17.0,,9999.0,,21.5,16.2,30.12,1020.4,,,,,,,,,,,,,,,,1600.0,1600.0,BKN,1600.0,BKN,2300.0,,,,
KRDR,08-27-2017,17:06,SPECI,Normal,340,7,,,9999.0,,19.0,16.0,30.13,1020.9,,,,,,,,,,,,,,,,800.0,800.0,SCT,800.0,OVC,2500.0,,,,
KRDR,08-27-2017,16:56,METAR,Normal,340,5,,,9999.0,,18.8,15.8,30.13,1020.9,,,,,,,,,,,,,,,,800.0,800.0,BKN,800.0,OVC,2500.0,,,,
KRDR,08-27-2017,16:36,SPECI,Normal,360,8,,,9999.0,,19.0,16.0,30.13,1020.8,,,,,,,,,,,,,,,,900.0,900.0,OVC,900.0,,,,,,
KRDR,08-27-2017,16:06,SPECI,Normal,10,8,,,9999.0,,18.0,16.0,30.12,1020.5,,,,,,,,,,,,,,,,1000.0,1000.0,OVC,1000.0,,,,,,
KRDR,08-27-2017,15:56,METAR,Normal,10,7,,,9999.0,,18.8,15.8,30.12,1020.5,,,,,,,,,,,,,,,,900.0,900.0,OVC,900.0,,,,,,
KRDR,08-27-2017,15:21,SPECI,Normal,10,8,,,9999.0,,17.0,16.0,30.11,1020.2,,,,,,,,,,,,,,,,800.0,800.0,OVC,800.0,,,,,,
KRDR,08-27-2017,14:56,METAR,Normal,350,10,,,9999.0,,16.5,16.5,30.10,1019.9,,,,,,,,,,,,,,,,700.0,700.0,OVC,700.0,,,,,,
KRDR,08-27-2017,14:11,SPECI,Normal,350,6,,,9999.0,,16.0,16.0,30.09,1019.6,,,,,,,,,,,,,,,,500.0,700.0,OVC,700.0,,,,,,
KRDR,08-27-2017,14:01,SPECI,Normal,340,5,,,9999.0,,15.0,15.0,30.09,1019.6,,,,,,,,,,,,,,,,500.0,500.0,OVC,500.0,,,,,,
KRDR,08-27-2017,13:56,METAR,Normal,340,4,,,9999.0,,15.1,15.1,30.09,1019.6,,,,,,,,,,,,,,,,400.0,400.0,BKN,400.0,OVC,800.0,,,,
KRDR,08-27-2017,13:01,SPECI,Normal,320,9,,,9999.0,,14.0,14.0,30.09,1019.5,,,,,,,,,,,,,,,,400.0,400.0,OVC,400.0,,,,,,
KRDR,08-27-2017,12:56,METAR,Normal,320,8,,,9999.0,,13.9,13.9,30.09,1019.5,,,,,,,,,,,,,,,,500.0,500.0,BKN,500.0,OVC,900.0,,,,
KRDR,08-27-2017,12:49,SPECI,Normal,320,8,,,9999.0,,14.0,14.0,30.09,1019.5,,,,,,,,,,,,,,,,500.0,500.0,BKN,500.0,BKN,900.0,OVC,4300.0,,
KRDR,08-27-2017,12:39,SPECI,Normal,310,6,,,9999.0,,13.0,13.0,30.08,1019.2,,,,,,,,,,,,,,,,800.0,800.0,BKN,800.0,OVC,4300.0,,,,
KRDR,08-27-2017,12:29,SPECI,Normal,310,7,,,9999.0,,13.0,13.0,30.08,1019.2,,,,,,,,,,,,,,,,4300.0,900.0,FEW,900.0,BKN,4300.0,,,,
KRDR,08-27-2017,11:56,METAR,Normal,320,6,,,9999.0,,12.7,12.7,30.08,1019.2,,,,,,,,,,,,,,.2 IN,Clear,72000.0,,,,,,,,,
KRDR,08-27-2017,10:56,METAR,Normal,340,6,,,9999.0,,13.2,13.2,30.06,1018.5,,,,,,,,,,,,,,,Clear,72000.0,,,,,,,,,
KRDR,08-27-2017,10:26,SPECI,Normal,330,4,,,4800.0,,12.0,12.0,30.06,1018.5,,,,,,,,,,,,,,,,,,,,,,,,,
KRDR,08-27-2017,10:21,SPECI,Normal,320,4,,,3000.0,,12.0,12.0,30.06,1018.5,,,,,,,,,,,,,,,,,,,,,,,,,
KRDR,08-27-2017,10:16,SPECI,Normal,320,4,,,2400.0,,12.0,12.0,30.05,1018.2,,,,,,,,,,,,,,,,,,,,,,,,,
KRDR,08-27-2017,10:11,SPECI,Normal,320,4,,,1600.0,,12.0,12.0,30.06,1018.5,,,,,,,,,,,,,,,,,,,,,,,,,
KRDR,08-27-2017,10:06,SPECI,Normal,320,4,,,2200.0,,12.0,12.0,30.05,1018.2,,,,,,,,,,,,,,,,,,,,,,,,,
KRDR,08-27-2017,09:56,METAR,Normal,300,5,,,3200.0,,12.0,12.0,30.05,1018.2,,,,,,,,,,,,,,,,,,,,,,,,,
KRDR,08-27-2017,09:51,SPECI,Normal,310,4,,,1600.0,,12.0,12.0,30.04,1017.8,,,,,,,,,,,,,,,,,,,,,,,,,
KRDR,08-27-2017,09:46,SPECI,Normal,310,5,,,1000.0,,12.0,12.0,30.04,1017.8,,,,,,,,,,,,,,,,,,,,,,,,,
KRDR,08-27-2017,09:31,SPECI,Normal,320,4,,,1200.0,,12.0,12.0,30.05,1018.2,,,,,,,,,,,,,,,,,,,,,,,,,
KRDR,08-27-2017,09:21,SPECI,Calm,,0,,,1000.0,,12.0,12.0,30.05,1018.2,,,,,,,,,,,,,,,,,,,,,,,,,
KRDR,08-27-2017,09:06,SPECI,Calm,,0,,,800.0,Fog,13.0,13.0,30.04,1017.8,30,,,,,,,,,,,,,,2/8 Mostly Clear,72000.0,3900.0,FEW,3900.0,,,,,,
KRDR,08-27-2017,08:56,METAR,Normal,310,3,,,600.0,Fog,12.3,12.3,30.05,1018.2,30,,,,,,,,,,,,,,Clear,72000.0,,,,,,,,,
KRDR,08-27-2017,08:52,SPECI,Calm,,0,,,600.0,Fog,12.0,12.0,30.05,1018.2,30,,,,,,,,,,,,,,Clear,72000.0,,,,,,,,,
KRDR,08-27-2017,08:47,SPECI,Calm,,0,,,1200.0,,12.0,12.0,30.05,1018.2,,,,,,,,,,,,,,,,,,,,,,,,,
KRDR,08-27-2017,08:42,SPECI,Normal,300,3,,,2800.0,,13.0,13.0,30.05,1018.2,,,,,,,,,,,,,,,,,,,,,,,,,
KRDR,08-27-2017,08:22,SPECI,Normal,290,3,,,3600.0,,13.0,13.0,30.05,1018.2,,,,,,,,,,,,,,,,,,,,,,,,,
KRDR,08-27-2017,08:10,METAR,Normal,280,3,,,9999.0,,13.2,13.2,30.05,1018.2,,,,,,,,,,,,,,,Clear,72000.0,,,,,,,,,
KRDR,08-27-2017,06:56,METAR,Normal,300,6,,,9999.0,,13.0,13.0,30.05,1018.2,,,,,,,,,,,,,,,Clear,72000.0,,,,,,,,,
KRDR,08-27-2017,06:36,SPECI,Normal,330,3,,,9999.0,,14.0,14.0,30.05,1018.2,,,,,,,,,,,,,,,Clear,72000.0,,,,,,,,,
KRDR,08-27-2017,06:31,SPECI,Normal,320,3,,,4000.0,,14.0,14.0,30.05,1018.2,,,,,,,,,,,,,,,,,,,,,,,,,
KRDR,08-27-2017,05:56,METAR,Normal,300,5,,,9999.0,,13.5,13.5,30.05,1018.2,,,,,,,,,,,,,,,Clear,72000.0,,,,,,,,,
KRDR,08-27-2017,05:36,SPECI,Normal,290,3,,,9999.0,,13.0,13.0,30.05,1018.2,,,,,,,,,,,,,,,Clear,72000.0,,,,,,,,,
KRDR,08-27-2017,04:56,METAR,Normal,300,4,,,8000.0,,13.8,13.8,30.04,1017.9,,,,,,,,,,,,,,,,,,,,,,,,,
KRDR,08-27-2017,03:56,METAR,Normal,300,5,,,9999.0,,14.7,14.7,30.05,1018.2,,,,,,,,,,,,,,,2/8 Mostly Clear,72000.0,5500.0,FEW,5500.0,,,,,,
KRDR,08-27-2017,02:56,METAR,Normal,300,4,,,9999.0,,13.9,13.9,30.04,1017.9,,,,,,,,,,,,,,,2/8 Mostly Clear,72000.0,24000.0,FEW,24000.0,,,,,,
KRDR,08-27-2017,01:56,METAR,Normal,10,3,,,9999.0,,15.0,14.8,30.03,1017.5,,,,,,,,,,,,,,,,5500.0,5500.0,BKN,5500.0,,,,,,
KRDR,08-27-2017,00:56,METAR,Calm,,0,,,9999.0,,17.5,16.0,30.03,1017.4,,,,,,,,,,,,,,,2/8 Mostly Clear,72000.0,1600.0,FEW,1600.0,,,,,,
KRDR,08-27-2017,00:06,SPECI,Normal,10,4,,,9999.0,,19.0,16.0,30.02,1017.0,,,,,,,,,,,,,,,4/8 Partly Cloudy,72000.0,1500.0,SCT,1500.0,,,,,,
KRDR,08-26-2017,23:56,METAR,Normal,30,5,,,9999.0,,19.6,15.8,30.02,1017.0,,,,,,,,,,,,,,,,1500.0,1500.0,OVC,1500.0,,,,,,
KRDR,08-26-2017,23:31,SPECI,Normal,10,6,,,9999.0,,20.0,16.0,30.02,1017.0,,,,,,,,,,,,,,,,1500.0,1500.0,BKN,1500.0,BKN,4700.0,,,,
KRDR,08-26-2017,23:01,SPECI,Normal,30,6,,,9999.0,,20.0,16.0,30.02,1017.0,,,,,,,,,,,,,,,,4600.0,1300.0,SCT,1300.0,OVC,4600.0,,,,
KRDR,08-26-2017,22:56,METAR,Normal,20,6,,,9999.0,,19.8,16.2,30.02,1017.0,,,,,,,,,,,,,,,,1200.0,1200.0,BKN,1200.0,OVC,4400.0,,,,
KRDR,08-26-2017,22:33,SPECI,Normal,30,6,,,9999.0,,19.0,16.0,30.02,1017.0,,,,,,,,,,,,,,,,1200.0,1200.0,BKN,1200.0,OVC,4300.0,,,,
KRDR,08-26-2017,22:18,SPECI,Normal,40,5,,,9999.0,,19.0,16.0,30.03,1017.4,,,,,,,,,,,,,,,,4100.0,1100.0,SCT,1100.0,OVC,4100.0,,,,
KRDR,08-26-2017,22:11,SPECI,Normal,40,6,,,9999.0,,19.0,16.0,30.03,1017.4,,,,,,,,,,,,,,,,1200.0,1200.0,BKN,1200.0,OVC,3900.0,,,,
KRDR,08-26-2017,21:56,METAR,Normal,10,5,,,9999.0,,19.1,15.9,30.03,1017.4,,,,,,,,,,,,,,,,1100.0,1100.0,BKN,1100.0,OVC,3500.0,,,,
KRDR,08-26-2017,20:56,METAR,Normal,360,8,,,9999.0,,18.6,16.2,30.03,1017.4,,,,,,,,,,,,,,,,1100.0,1100.0,OVC,1100.0,,,,,,
KRDR,08-26-2017,20:38,SPECI,Normal,360,10,,,9999.0,,19.0,16.0,30.03,1017.4,,,,,,,,,,,,,,,,1100.0,1100.0,OVC,1100.0,,,,,,
KRDR,08-26-2017,20:16,SPECI,Normal,10,8,,,9999.0,,19.0,16.0,30.03,1017.4,,,,,,,,,,,,,,,,1100.0,1200.0,OVC,1200.0,,,,,,
KRDR,08-26-2017,19:56,METAR,Normal,360,7,,,9999.0,,18.7,16.1,30.03,1017.4,,,,,,,,,,,,,,,,1100.0,1100.0,OVC,1100.0,,,,,,
KRDR,08-26-2017,19:16,SPECI,Normal,10,8,,,9999.0,,19.0,17.0,30.02,1017.0,,,,,,,,,,,,,,,,1000.0,1000.0,OVC,1000.0,,,,,,
KRDR,08-26-2017,18:56,METAR,Normal,360,6,,,9999.0,,17.9,16.4,30.03,1017.4,,,,,,,,,,,,,,,,900.0,900.0,OVC,900.0,,,,,,
KRDR,08-26-2017,18:26,SPECI,Normal,360,8,,,9999.0,,18.0,17.0,30.02,1017.0,,,,,,,,,,,,,,,,800.0,800.0,OVC,800.0,,,,,,
KRDR,08-26-2017,17:56,METAR,Normal,30,6,,,9999.0,,18.0,17.3,30.02,1017.0,,,,,,,,,,,,,.2 IN,,,700.0,700.0,OVC,700.0,,,,,,
KRDR,08-26-2017,17:51,SPECI,Normal,20,7,,,9999.0,,18.0,17.0,30.02,1017.0,,,,,,,,,,,,,,,,700.0,700.0,OVC,700.0,,,,,,
KRDR,08-26-2017,17:31,SPECI,Normal,360,6,,,9999.0,,17.0,17.0,30.02,1017.1,,,,,,,,,,,,,,,,600.0,600.0,OVC,600.0,,,,,,
KRDR,08-26-2017,16:56,METAR,Normal,10,5,,,9999.0,,16.4,16.4,30.03,1017.4,,,,,,,,,,,.06 IN,,,,,500.0,500.0,OVC,500.0,,,,,,
KRDR,08-26-2017,16:37,SPECI,Normal,20,5,,,9999.0,,16.0,16.0,30.02,1017.1,,,,,,,,,,,,,,,,500.0,500.0,BKN,500.0,BKN,1300.0,OVC,3800.0,,
KRDR,08-26-2017,16:36,SPECI,Normal,10,5,,,9999.0,Light Drizzle,16.0,16.0,30.02,1017.1,51,,,,,,,,,,,,,,,500.0,500.0,BKN,500.0,BKN,1300.0,OVC,3800.0,,
KRDR,08-26-2017,16:31,SPECI,Normal,10,5,,,9999.0,Light Rain,16.0,16.0,30.02,1017.1,61,,,,,,,,,,,,,,,600.0,500.0,SCT,500.0,BKN,2100.0,BKN,3800.0,OVC,4900.0
KRDR,08-26-2017,16:16,SPECI,Normal,50,6,,,9999.0,Rain,16.0,16.0,30.01,1016.7,62,,,,,,,,,,,,,,,3900.0,600.0,SCT,600.0,SCT,2500.0,BKN,3900.0,OVC,4900.0
KRDR,08-26-2017,16:06,SPECI,Normal,20,5,,,9999.0,Rain/Mist,16.0,16.0,30.02,1017.1,62,10,,,,,,,,,,,,,,500.0,600.0,SCT,600.0,BKN,2400.0,OVC,5000.0,,
KRDR,08-26-2017,15:56,METAR,Normal,360,5,,,9999.0,Light Rain/Mist,15.9,15.9,30.02,1017.1,61,10,,,,,,,,,.04 IN,,,,,500.0,600.0,BKN,600.0,OVC,1500.0,,,,
KRDR,08-26-2017,15:41,SPECI,Normal,360,5,,,9999.0,Light Drizzle,16.0,16.0,30.02,1017.1,51,,,,,,,,,,,,,,,500.0,600.0,BKN,600.0,BKN,1000.0,BKN,1400.0,OVC,5000.0
KRDR,08-26-2017,15:36,SPECI,Normal,10,4,,,9999.0,Light Rain,16.0,16.0,30.02,1017.1,61,,,,,,,,,,,,,,,500.0,800.0,BKN,800.0,BKN,1400.0,OVC,5000.0,,
KRDR,08-26-2017,15:06,SPECI,Normal,20,4,,,9999.0,Light Rain,16.0,16.0,30.02,1017.1,61,,,,,,,,,,,,,,,600.0,600.0,BKN,600.0,OVC,1000.0,,,,
KRDR,08-26-2017,15:01,SPECI,Normal,20,4,,,9999.0,Rain,16.0,16.0,30.02,1017.1,62,,,,,,,,,,,,,,,600.0,700.0,OVC,700.0,,,,,,
KRDR,08-26-2017,14:56,METAR,Normal,20,4,,,9999.0,Rain,15.8,15.8,30.02,1017.1,62,,,,,,,,,,.03 IN,.1 IN,,,,600.0,600.0,BKN,600.0,OVC,1000.0,,,,
KRDR,08-26-2017,14:51,SPECI,Normal,20,4,,,9999.0,Light Rain,16.0,16.0,30.02,1017.1,61,,,,,,,,,,,,,,,500.0,600.0,BKN,600.0,OVC,1000.0,,,,
KRDR,08-26-2017,14:41,SPECI,Normal,10,3,,,9999.0,Light Rain,16.0,16.0,30.02,1017.1,61,,,,,,,,,,,,,,,500.0,600.0,SCT,600.0,OVC,1400.0,,,,
KRDR,08-26-2017,14:21,SPECI,Normal,10,4,,,9999.0,Light Drizzle,16.0,16.0,30.02,1017.1,51,,,,,,,,,,,,,,,500.0,700.0,SCT,700.0,OVC,2200.0,,,,
KRDR,08-26-2017,14:16,SPECI,Normal,10,3,,,9999.0,Light Rain/Mist,16.0,16.0,30.02,1017.1,61,10,,,,,,,,,,,,,4/8 Partly Cloudy,72000.0,700.0,SCT,700.0,,,,,,
KRDR,08-26-2017,14:06,SPECI,Normal,10,3,,,8000.0,Light Rain/Mist,16.0,16.0,30.02,1017.1,61,10,,,,,,,,,,,,,,500.0,700.0,OVC,700.0,,,,,,
KRDR,08-26-2017,13:56,METAR,Calm,,0,,,9999.0,Light Rain/Mist,15.8,15.8,30.02,1017.1,61,10,,,,,,,,,.06 IN,,,,,500.0,600.0,OVC,600.0,,,,,,
KRDR,08-26-2017,13:46,SPECI,Calm,,0,,,8000.0,Light Rain/Mist,16.0,16.0,30.02,1017.1,61,10,,,,,,,,,,,,,,600.0,600.0,OVC,600.0,,,,,,
KRDR,08-26-2017,13:01,SPECI,Calm,,0,,,8000.0,Light Rain/Mist,16.0,16.0,30.02,1017.1,61,10,,,,,,,,,,,,,,700.0,700.0,OVC,700.0,,,,,,
KRDR,08-26-2017,12:56,METAR,Normal,50,4,,,8000.0,Light Rain/Mist,16.0,15.8,30.01,1016.7,61,10,,,,,,,,,.01 IN,,,,,800.0,800.0,OVC,800.0,,,,,,
KRDR,08-26-2017,12:26,SPECI,Calm,,0,,,9999.0,Light Drizzle,16.0,16.0,30.01,1016.7,51,,,,,,,,,,,,,,,900.0,900.0,OVC,900.0,,,,,,
KRDR,08-26-2017,11:56,METAR,Calm,,0,,,9999.0,,16.2,15.9,30.01,1016.7,,,,,,,,,,,TRACE,,.02 IN,.02 IN,,900.0,900.0,OVC,900.0,,,,,,
KRDR,08-26-2017,11:32,SPECI,Normal,60,3,,,9999.0,,16.0,16.0,30.00,1016.3,,,,,,,,,,,,,,,,900.0,900.0,OVC,900.0,,,,,,
KRDR,08-26-2017,11:12,SPECI,Normal,80,4,,,9999.0,,16.0,16.0,30.00,1016.3,,,,,,,,,,,,,,,,900.0,900.0,OVC,900.0,,,,,,
KRDR,08-26-2017,10:56,METAR,Calm,,0,,,9999.0,Light Drizzle,16.4,16.2,30.00,1016.3,51,,,,,,,,,,TRACE,,,,,900.0,900.0,OVC,900.0,,,,,,
KRDR,08-26-2017,10:52,SPECI,Normal,70,3,,,9999.0,Light Drizzle,16.0,16.0,30.00,1016.3,51,,,,,,,,,,,,,,,900.0,900.0,OVC,900.0,,,,,,
KRDR,08-26-2017,10:47,SPECI,Normal,80,3,,,9999.0,Light Drizzle,16.0,16.0,30.00,1016.3,51,,,,,,,,,,,,,,,900.0,1000.0,OVC,1000.0,,,,,,
KRDR,08-26-2017,09:58,METAR,Normal,70,3,,,9999.0,,16.5,16.3,30.00,1016.3,,,,,,,,,,,,,,,,1100.0,1100.0,OVC,1100.0,,,,,,
KRDR,08-26-2017,08:58,METAR,Normal,110,3,,,9999.0,,16.6,16.4,30.01,1016.6,,,,,,,,,,,.01 IN,.02 IN,,,,1100.0,1100.0,BKN,1100.0,,,,,,
KRDR,08-26-2017,07:56,METAR,Normal,90,5,,,9999.0,Light Rain,16.8,16.3,30.01,1016.6,61,,,,,,,,,,.01 IN,,,,,1400.0,1400.0,BKN,1400.0,,,,,,
KRDR,08-26-2017,07:31,SPECI,Normal,100,5,,,9999.0,Light Rain,17.0,16.0,30.01,1016.6,61,,,,,,,,,,,,,,4/8 Partly Cloudy,72000.0,1500.0,SCT,1500.0,,,,,,
KRDR,08-26-2017,06:56,METAR,Normal,70,5,,,9999.0,Light Rain,17.1,16.3,30.02,1016.9,61,,,,,,,,,,TRACE,,,,,1500.0,1500.0,OVC,1500.0,,,,,,
KRDR,08-26-2017,06:41,SPECI,Normal,70,4,,,9999.0,Light Rain,17.0,16.0,30.02,1016.9,61,,,,,,,,,,,,,,,1500.0,1500.0,OVC,1500.0,,,,,,
KRDR,08-26-2017,05:56,METAR,Normal,110,5,,,9999.0,,17.3,15.8,30.02,1016.9,,,,,,,,,,,,,TRACE,,,1500.0,1500.0,OVC,1500.0,,,,,,
KRDR,08-26-2017,05:16,SPECI,Normal,120,5,,,9999.0,,17.0,16.0,30.02,1016.9,,,,,,,,,,,,,,,,1500.0,1500.0,OVC,1500.0,,,,,,
KRDR,08-26-2017,04:56,METAR,Normal,120,7,,,9999.0,,17.3,16.1,30.02,1017.0,,,,,,,,,,,,,,,,1200.0,1300.0,OVC,1300.0,,,,,,
KRDR,08-26-2017,04:17,SPECI,Normal,120,8,,,9999.0,,17.0,16.0,30.02,1017.0,,,,,,,,,,,,,,,,1100.0,1200.0,BKN,1200.0,,,,,,
KRDR,08-26-2017,03:56,METAR,Normal,120,7,,,9999.0,,17.1,16.6,30.02,1017.0,,,,,,,,,,,TRACE,,,,,1000.0,1000.0,BKN,1000.0,,,,,,
KRDR,08-26-2017,03:13,SPECI,Normal,140,8,,,9999.0,,17.0,17.0,30.02,1017.0,,,,,,,,,,,,,,,,900.0,900.0,BKN,900.0,,,,,,
KRDR,08-26-2017,03:10,SPECI,Normal,140,7,,,9999.0,Light Rain,17.0,17.0,30.02,1017.0,61,,,,,,,,,,,,,,4/8 Partly Cloudy,72000.0,1000.0,SCT,1000.0,,,,,,
KRDR,08-26-2017,03:00,SPECI,Normal,130,9,,,9999.0,Light Drizzle,18.0,16.0,30.02,1017.0,51,,,,,,,,,,,,,,,900.0,900.0,BKN,900.0,,,,,,
KRDR,08-26-2017,02:56,METAR,Normal,130,9,,,9999.0,,17.7,16.0,30.02,1017.0,,,,,,,,,,,,,,,,900.0,900.0,BKN,900.0,BKN,1400.0,,,,
KRDR,08-26-2017,02:51,SPECI,Normal,140,7,,,9999.0,,18.0,16.0,30.02,1017.1,,,,,,,,,,,,,,,,900.0,1100.0,BKN,1100.0,,,,,,
KRDR,08-26-2017,02:36,SPECI,Normal,140,7,,,9999.0,,18.0,16.0,30.01,1016.7,,,,,,,,,,,,,,,4/8 Partly Cloudy,72000.0,1100.0,SCT,1100.0,,,,,,
KRDR,08-26-2017,01:56,METAR,Normal,120,8,,,9999.0,,18.4,15.6,29.99,1016.1,,,,,,,,,,,,,,,,1300.0,1300.0,OVC,1300.0,,,,,,
KRDR,08-26-2017,01:36,SPECI,Normal,90,6,,,9999.0,,18.0,16.0,29.98,1015.8,,,,,,,,,,,,,,,,1300.0,1300.0,BKN,1300.0,BKN,1900.0,OVC,2300.0,,
KRDR,08-26-2017,00:56,METAR,Normal,140,8,,,9999.0,,18.7,15.6,30.02,1017.1,,,,,,,,,,,,,,,,1600.0,1600.0,OVC,1600.0,,,,,,
KRDR,08-26-2017,00:21,SPECI,Normal,140,9,,,9999.0,,19.0,16.0,30.02,1017.2,,,,,,,,,,,,,,,,1600.0,1800.0,BKN,1800.0,OVC,2400.0,,,,
KRDR,08-26-2017,00:16,SPECI,Normal,140,8,,,9999.0,,19.0,16.0,30.03,1017.5,,,,,,,,,,,,,,,,1600.0,1600.0,SCT,1600.0,OVC,2400.0,,,,
KRDR,08-26-2017,00:06,SPECI,Normal,140,9,,,9999.0,,19.0,16.0,30.02,1017.2,,,,,,,,,,,,,,,,1600.0,1600.0,BKN,1600.0,OVC,2300.0,,,,
KRDR,08-25-2017,23:56,METAR,Normal,150,9,,,9999.0,,19.1,15.7,30.02,1017.2,,,,,,,,,,,,,,,,1700.0,1700.0,SCT,1700.0,OVC,2300.0,,,,
KRDR,08-25-2017,23:46,SPECI,Normal,150,9,,,9999.0,,19.0,16.0,30.03,1017.5,,,,,,,,,,,,,,,,1700.0,1700.0,BKN,1700.0,OVC,2300.0,,,,
KRDR,08-25-2017,22:56,METAR,Normal,170,10,,,9999.0,,20.1,15.5,30.03,1017.5,,,,,,,,,,,,,,,,2400.0,2400.0,OVC,2400.0,,,,,,
KRDR,08-25-2017,21:56,METAR,Normal,170,8,,,9999.0,,20.8,15.1,30.02,1017.2,,,,,,,,,,,,,,,,2600.0,2700.0,OVC,2700.0,,,,,,
KRDR,08-25-2017,20:56,METAR,Normal,170,12,,,9999.0,,21.9,15.0,30.03,1017.4,,,,,,,,,,,,,,,,2900.0,2900.0,OVC,2900.0,,,,,,
KRDR,08-25-2017,19:56,METAR,Normal,160,10,,,9999.0,,21.9,14.8,30.03,1017.4,,,,,,,,,,,,,,,,3000.0,3000.0,OVC,3000.0,,,,,,
KRDR,08-25-2017,18:56,METAR,Normal,180,11,,,9999.0,,22.8,14.9,30.03,1017.4,,,,,,,,,,,,,,,,3000.0,3000.0,BKN,3000.0,,,,,,
KRDR,08-25-2017,18:16,SPECI,Normal,120,7,,,9999.0,,24.0,15.0,30.02,1017.0,,,,,,,,,,,,,,,,3100.0,3100.0,BKN,3100.0,,,,,,
KRDR,08-25-2017,17:56,METAR,Normal,130,9,,,9999.0,,22.7,14.8,30.02,1017.0,,,,,,,,,,,,,,,,2900.0,2900.0,BKN,2900.0,,,,,,
KRDR,08-25-2017,17:51,SPECI,Normal,120,8,,,9999.0,,23.0,15.0,30.02,1017.0,,,,,,,,,,,,,,,,2900.0,2900.0,BKN,2900.0,,,,,,
KRDR,08-25-2017,17:31,SPECI,Normal,130,7,,,9999.0,,23.0,15.0,30.02,1017.0,,,,,,,,,,,,,,,4/8 Partly Cloudy,72000.0,2400.0,SCT,2400.0,,,,,,
KRDR,08-25-2017,17:21,SPECI,Normal,150,9,,,9999.0,,23.0,14.0,30.03,1017.4,,,,,,,,,,,,,,,,2400.0,2400.0,BKN,2400.0,,,,,,
KRDR,08-25-2017,16:56,METAR,Normal,160,10,,,9999.0,,21.3,14.0,30.03,1017.4,,,,,,,,,,,,,,,,2300.0,2400.0,OVC,2400.0,,,,,,
KRDR,08-25-2017,16:41,SPECI,Normal,160,9,,,9999.0,,21.0,14.0,30.04,1017.7,,,,,,,,,,,,,,,,2300.0,2300.0,BKN,2300.0,,,,,,
KRDR,08-25-2017,15:56,METAR,Normal,150,8,,,9999.0,,20.3,13.5,30.05,1018.0,,,,,,,,,,,,,,,Clear,72000.0,,,,,,,,,
KRDR,08-25-2017,14:56,METAR,Normal,140,9,,,9999.0,,17.1,12.8,30.06,1018.4,,,,,,,,,,,,,,,,4900.0,4900.0,BKN,4900.0,,,,,,
KRDR,08-25-2017,13:56,METAR,Normal,150,9,,,9999.0,,14.0,12.2,30.06,1018.5,,,,,,,,,,,,,,,4/8 Partly Cloudy,72000.0,6000.0,SCT,6000.0,,,,,,
KRDR,08-25-2017,12:56,METAR,Normal,110,5,,,9999.0,,12.5,11.2,30.05,1018.1,,,,,,,,,,,,,,,Clear,72000.0,,,,,,,,,
KRDR,08-25-2017,11:56,METAR,Normal,120,3,,,9999.0,,10.9,10.6,30.06,1018.4,,,,,,,,,,,,,,,Clear,72000.0,,,,,,,,,
KRDR,08-25-2017,10:56,METAR,Normal,150,4,,,9999.0,,10.9,10.4,30.06,1018.4,,,,,,,,,,,,,,,Clear,72000.0,,,,,,,,,
KRDR,08-25-2017,09:56,METAR,Normal,170,4,,,9999.0,,9.9,9.6,30.06,1018.4,,,,,,,,,,,,,,,Clear,72000.0,,,,,,,,,
KRDR,08-25-2017,08:56,METAR,Normal,170,3,,,9999.0,,11.3,10.5,30.06,1018.4,,,,,,,,,,,,,,,Clear,72000.0,,,,,,,,,
KRDR,08-25-2017,07:56,METAR,Normal,150,5,,,9999.0,,12.1,11.0,30.06,1018.4,,,,,,,,,,,,,,,Clear,72000.0,,,,,,,,,
KRDR,08-25-2017,06:56,METAR,Normal,150,5,,,9999.0,,12.6,11.2,30.06,1018.4,,,,,,,,,,,,,,,Clear,72000.0,,,,,,,,,
KRDR,08-25-2017,05:56,METAR,Normal,150,6,,,9999.0,,13.6,11.3,30.06,1018.4,,,,,,,,,,,,,,,Clear,72000.0,,,,,,,,,
KRDR,08-25-2017,04:56,METAR,Normal,150,6,,,9999.0,,14.1,10.7,30.06,1018.4,,,,,,,,,,,,,,,Clear,72000.0,,,,,,,,,
KRDR,08-25-2017,03:56,METAR,Normal,150,8,,,9999.0,,15.6,10.6,30.05,1018.0,,,,,,,,,,,,,,,Clear,72000.0,,,,,,,,,
KRDR,08-25-2017,02:56,METAR,Normal,140,6,,,9999.0,,16.6,11.1,30.05,1018.1,,,,,,,,,,,,,,,Clear,72000.0,,,,,,,,,
KRDR,08-25-2017,01:56,METAR,Normal,130,6,,,9999.0,,18.9,11.7,30.04,1017.8,,,,,,,,,,,,,,,Clear,72000.0,,,,,,,,,
KRDR,08-25-2017,00:56,METAR,Normal,140,6,,,9999.0,,21.1,12.0,30.04,1017.8,,,,,,,,,,,,,,,Clear,72000.0,,,,,,,,,
KRDR,08-24-2017,23:56,METAR,Normal,160,9,,,9999.0,,23.1,11.8,30.04,1017.8,,,,,,,,,,,,,,,Clear,72000.0,,,,,,,,,
KRDR,08-24-2017,22:56,METAR,Normal,150,11,,,9999.0,,24.1,12.4,30.04,1017.8,,,,,,,,,,,,,,,Clear,72000.0,,,,,,,,,
KRDR,08-24-2017,21:56,METAR,Normal,100,10,,,9999.0,,24.5,12.4,30.06,1018.4,,,,,,,,,,,,,,,2/8 Mostly Clear,72000.0,4800.0,FEW,4800.0,,,,,,
KRDR,08-24-2017,20:56,METAR,Normal,90,9,,,9999.0,,24.1,12.1,30.07,1018.8,,,,,,,,,,,,,,,4/8 Partly Cloudy,72000.0,4600.0,SCT,4600.0,,,,,,
KRDR,08-24-2017,19:56,METAR,Normal,170,6,,,9999.0,,24.0,12.3,30.08,1019.2,,,,,,,,,,,,,,,Clear,72000.0,,,,,,,,,
KRDR,08-24-2017,18:56,METAR,Normal,100,7,,,9999.0,,23.0,12.0,30.09,1019.5,,,,,,,,,,,,,,,Clear,72000.0,,,,,,,,,
KRDR,08-24-2017,17:56,METAR,Normal,90,7,,,9999.0,,21.4,12.2,30.11,1020.3,,,,,,,,,,,,,,,4/8 Partly Cloudy,72000.0,3300.0,SCT,3300.0,,,,,,
KRDR,08-24-2017,16:56,METAR,Normal,110,6,,,9999.0,,20.5,12.5,30.11,1020.1,,,,,,,,,,,,,,,Clear,72000.0,,,,,,,,,
KRDR,08-24-2017,15:56,METAR,Normal,110,6,,,9999.0,,19.0,12.0,30.11,1020.2,,,,,,,,,,,,,,,Clear,72000.0,,,,,,,,,
KRDR,08-24-2017,14:56,METAR,Normal,140,7,,,9999.0,,16.6,11.9,30.13,1020.9,,,,,,,,,,,,,,,Clear,72000.0,,,,,,,,,
KRDR,08-24-2017,13:56,METAR,Normal,70,6,,,9999.0,,13.3,11.2,30.12,1020.7,,,,,,,,,,,,,,,2/8 Mostly Clear,72000.0,8000.0,FEW,8000.0,,,,,,
KRDR,08-24-2017,12:56,METAR,Calm,,0,,,9999.0,,10.4,10.2,30.12,1020.7,,,,,,,,,,,,,,,Clear,72000.0,,,,,,,,,
KRDR,08-24-2017,11:56,METAR,Calm,,0,,,9999.0,,8.5,8.4,30.12,1020.7,,,,,,,,,,,,,,,,6500.0,6500.0,OVC,6500.0,,,,,,
KRDR,08-24-2017,10:56,METAR,Normal,70,4,,,9999.0,,9.7,9.5,30.10,1019.9,,,,,,,,,,,,,,,4/8 Partly Cloudy,72000.0,7500.0,SCT,7500.0,,,,,,
KRDR,08-24-2017,09:56,METAR,Normal,60,3,,,9999.0,,10.5,10.3,30.10,1019.8,,,,,,,,,,,,,,,,7500.0,7500.0,OVC,7500.0,,,,,,
KRDR,08-24-2017,08:56,METAR,Normal,50,3,,,9999.0,,9.2,9.0,30.11,1020.1,,,,,,,,,,,,,,,,7000.0,7000.0,BKN,7000.0,,,,,,
KRDR,08-24-2017,08:54,SPECI,Normal,40,3,,,9999.0,,9.0,9.0,30.11,1020.1,,,,,,,,,,,,,,,,7000.0,7000.0,BKN,7000.0,,,,,,
KRDR,08-24-2017,08:49,SPECI,Normal,40,3,,,3600.0,Mist,9.0,9.0,30.11,1020.1,10,,,,,,,,,,,,,,4/8 Partly Cloudy,72000.0,7000.0,SCT,7000.0,,,,,,
KRDR,08-24-2017,08:44,SPECI,Calm,,0,,,2000.0,Mist,9.0,9.0,30.11,1020.1,10,,,,,,,,,,,,,,4/8 Partly Cloudy,72000.0,300.0,FEW,300.0,SCT,7500.0,,,,
KRDR,08-24-2017,08:33,SPECI,Calm,,0,,,1200.0,Mist,8.0,8.0,30.11,1020.2,10,,,,,,,,,,,,,,2/8 Mostly Clear,72000.0,300.0,FEW,300.0,,,,,,
KRDR,08-24-2017,08:23,SPECI,Normal,40,3,,,1000.0,Mist,8.0,8.0,30.10,1019.9,10,,,,,,,,,,,,,,2/8 Mostly Clear,72000.0,400.0,FEW,400.0,,,,,,
KRDR,08-24-2017,08:13,SPECI,Calm,,0,,,1200.0,Mist,9.0,8.0,30.10,1019.8,10,,,,,,,,,,,,,,2/8 Mostly Clear,72000.0,400.0,FEW,400.0,,,,,,
KRDR,08-24-2017,08:11,SPECI,Normal,30,3,,,1200.0,Mist,9.0,8.0,30.10,1019.8,10,,,,,,,,,,,,,,Clear,72000.0,,,,,,,,,
KRDR,08-24-2017,08:01,SPECI,Calm,,0,,,1000.0,Mist,9.0,8.0,30.10,1019.8,10,,,,,,,,,,,,,,Clear,72000.0,,,,,,,,,
KRDR,08-24-2017,07:56,METAR,Calm,,0,,,1200.0,Mist,8.7,8.5,30.10,1019.9,10,,,,,,,,,,,,,,Clear,72000.0,,,,,,,,,
KRDR,08-24-2017,07:46,SPECI,Calm,,0,,,4400.0,Mist,9.0,9.0,30.10,1019.9,10,,,,,,,,,,,,,,Clear,72000.0,,,,,,,,,
KRDR,08-24-2017,07:41,SPECI,Calm,,0,,,2200.0,Mist,9.0,9.0,30.10,1019.9,10,,,,,,,,,,,,,,Clear,72000.0,,,,,,,,,
KRDR,08-24-2017,07:36,SPECI,Normal,40,3,,,1000.0,Mist,10.0,10.0,30.10,1019.8,10,,,,,,,,,,,,,,Clear,72000.0,,,,,,,,,
KRDR,08-24-2017,07:31,SPECI,Normal,50,3,,,800.0,Fog,11.0,10.0,30.10,1019.8,30,,,,,,,,,,,,,,Clear,72000.0,,,,,,,,,
KRDR,08-24-2017,07:26,SPECI,Normal,50,3,,,1000.0,Mist,11.0,11.0,30.10,1019.8,10,,,,,,,,,,,,,,Clear,72000.0,,,,,,,,,
KRDR,08-24-2017,07:21,SPECI,Normal,50,3,,,3600.0,Mist,11.0,11.0,30.10,1019.8,10,,,,,,,,,,,,,,Clear,72000.0,,,,,,,,,
KRDR,08-24-2017,06:56,METAR,Normal,40,3,,,9999.0,,11.3,11.1,30.10,1019.8,,,,,,,,,,,,,,,4/8 Partly Cloudy,72000.0,100.0,SCT,100.0,,,,,,
KRDR,08-24-2017,06:38,SPECI,Normal,40,4,,,9999.0,,11.0,11.0,30.10,1019.8,,,,,,,,,,,,,,,2/8 Mostly Clear,72000.0,100.0,FEW,100.0,,,,,,
KRDR,08-24-2017,05:56,METAR,Normal,30,5,,,9999.0,,9.9,9.6,30.09,1019.5,,,,,,,,,,,,,TRACE,,Clear,72000.0,,,,,,,,,
KRDR,08-24-2017,04:56,METAR,Normal,20,4,,,9999.0,,12.6,11.8,30.08,1019.1,,,,,,,,,,,,,,,,10000.0,7500.0,SCT,7500.0,OVC,10000.0,,,,
KRDR,08-24-2017,03:56,METAR,Normal,100,3,,,9999.0,,12.7,11.8,30.08,1019.1,,,,,,,,,,,,,,,Clear,72000.0,,,,,,,,,
KRDR,08-24-2017,02:56,METAR,Normal,50,4,,,9999.0,,13.2,11.6,30.08,1019.2,,,,,,,,,,,TRACE,TRACE,,,,7500.0,7500.0,BKN,7500.0,BKN,9600.0,OVC,12000.0,,
KRDR,08-24-2017,02:06,SPECI,Normal,50,7,15.0,,9999.0,,14.0,11.0,30.05,1018.3,,,,,,,,,,,,,,,,7500.0,1400.0,FEW,1400.0,OVC,7500.0,,,,
KRDR,08-24-2017,01:57,SPECI,Normal,40,5,,,9999.0,Light Rain,15.0,11.0,30.05,1018.3,61,,,,,,,,,,,,,,,8000.0,8000.0,BKN,8000.0,,,,,,
KRDR,08-24-2017,01:56,METAR,Normal,120,3,,,9999.0,,14.6,10.6,30.06,1018.6,,,,,,,,,,,TRACE,,,,,7500.0,7500.0,OVC,7500.0,,,,,,
KRDR,08-24-2017,01:17,SPECI,Normal,90,7,,,9999.0,,16.0,10.0,30.05,1018.3,,,,,,,,,,,,,,,,9500.0,9500.0,BKN,9600.0,,,,,,
KRDR,08-24-2017,01:08,SPECI,Normal,110,10,18.0,,9999.0,Light Rain,16.0,9.0,30.03,1017.6,61,,,,,,,,,,,,,,,10000.0,7500.0,FEW,7500.0,BKN,10000.0,,,,
KRDR,08-24-2017,00:56,METAR,Normal,100,8,21.0,80/26KTS,9999.0,,16.8,9.0,30.03,1017.7,,,,,,,,,,,,,,,,10000.0,10000.0,BKN,10000.0,,,,,,
KRDR,08-23-2017,23:56,METAR,Normal,90,18,24.0,,9999.0,,18.3,10.6,30.03,1017.7,,,,,,,,,,,,,,,2/8 Mostly Clear,72000.0,11000.0,FEW,11000.0,,,,,,
KRDR,08-23-2017,22:56,METAR,Normal,70,16,20.0,,9999.0,,21.3,11.0,30.03,1017.6,,,,,,,,,,,,,,,,11000.0,7000.0,FEW,7000.0,BKN,11000.0,,,,
KRDR,08-23-2017,21:56,METAR,Normal,70,5,,,9999.0,,23.1,9.5,30.00,1016.5,,,,,,,,,,,,,,,,11000.0,11000.0,OVC,11000.0,,,,,,
KRDR,08-23-2017,20:56,METAR,Normal,170,10,,,9999.0,,24.9,10.0,30.00,1016.5,,,,,,,,,,,,,,,2/8 Mostly Clear,72000.0,11000.0,FEW,11000.0,,,,,,
KRDR,08-23-2017,19:56,METAR,Normal,130,8,,,9999.0,,23.7,10.4,30.03,1017.5,,,,,,,,,,,,,,,2/8 Mostly Clear,72000.0,11000.0,FEW,11000.0,,,,,,
KRDR,08-23-2017,18:56,METAR,Normal,110,5,,,9999.0,,22.2,10.3,30.06,1018.6,,,,,,,,,,,,,,,,12000.0,12000.0,BKN,12000.0,BKN,18000.0,,,,
KRDR,08-23-2017,17:56,METAR,Normal,120,5,,,9999.0,,21.1,9.7,30.07,1018.9,,,,,,,,,,,,,,,,12000.0,10000.0,SCT,10000.0,BKN,12000.0,,,,
KRDR,08-23-2017,16:56,METAR,Normal,140,7,,,9999.0,,21.6,10.1,30.08,1019.2,,,,,,,,,,,,,,,,14000.0,14000.0,BKN,14000.0,BKN,20000.0,,,,
KRDR,08-23-2017,15:56,METAR,Normal,160,8,,,9999.0,,20.0,10.7,30.09,1019.6,,,,,,,,,,,,,,,Clear,72000.0,,,,,,,,,
KRDR,08-23-2017,14:56,METAR,Normal,150,4,,,9999.0,,17.4,11.0,30.10,1020.0,,,,,,,,,,,,,,,Clear,72000.0,,,,,,,,,
KRDR,08-23-2017,13:56,METAR,Calm,,0,,,9999.0,,13.7,10.1,30.11,1020.3,,,,,,,,,,,,,,,2/8 Mostly Clear,72000.0,9500.0,FEW,9600.0,,,,,,
KRDR,08-23-2017,12:56,METAR,Normal,120,3,,,9999.0,,9.8,8.9,30.10,1020.0,,,,,,,,,,,,,,,2/8 Mostly Clear,72000.0,10000.0,FEW,10000.0,,,,,,
KRDR,08-23-2017,11:56,METAR,Calm,,0,,,9999.0,,7.9,7.3,30.10,1019.9,,,,,,,,,,,,,,,,9000.0,9000.0,OVC,9100.0,,,,,,
KRDR,08-23-2017,10:56,METAR,Calm,,0,,,9999.0,,6.1,5.5,30.09,1019.6,,,,,,,,,,,,,,,Clear,72000.0,,,,,,,,,
KRDR,08-23-2017,09:56,METAR,Calm,,0,,,9999.0,,7.0,6.4,30.09,1019.6,,,,,,,,,,,,,,,Clear,72000.0,,,,,,,,,
KRDR,08-23-2017,08:56,METAR,Calm,,0,,,9999.0,,7.5,6.7,30.09,1019.5,,,,,,,,,,,,,,,Clear,72000.0,,,,,,,,,
KRDR,08-23-2017,07:56,METAR,Normal,260,3,,,9999.0,,7.2,6.3,30.09,1019.5,,,,,,,,,,,,,,,Clear,72000.0,,,,,,,,,
KRDR,08-23-2017,06:56,METAR,Normal,240,3,,,9999.0,,7.4,6.3,30.09,1019.5,,,,,,,,,,,,,,,Clear,72000.0,,,,,,,,,
KRDR,08-23-2017,05:56,METAR,Normal,310,4,,,9999.0,,8.6,6.7,30.09,1019.5,,,,,,,,,,,,,,,Clear,72000.0,,,,,,,,,
KRDR,08-23-2017,04:56,METAR,Normal,300,4,,,9999.0,,9.0,7.0,30.09,1019.5,,,,,,,,,,,,,,,Clear,72000.0,,,,,,,,,
KRDR,08-23-2017,03:56,METAR,Normal,310,4,,,9999.0,,9.4,7.7,30.09,1019.6,,,,,,,,,,,,,,,Clear,72000.0,,,,,,,,,
KRDR,08-23-2017,02:56,METAR,Calm,,0,,,9999.0,,11.7,8.0,30.08,1019.2,,,,,,,,,,,,,,,Clear,72000.0,,,,,,,,,
KRDR,08-23-2017,01:56,METAR,Normal,320,4,,,9999.0,,13.3,8.1,30.07,1018.9,,,,,,,,,,,,,,,Clear,72000.0,,,,,,,,,
KRDR,08-23-2017,00:56,METAR,Normal,360,4,,,9999.0,,18.1,8.9,30.06,1018.6,,,,,,,,,,,,,,,Clear,72000.0,,,,,,,,,
KRDR,08-22-2017,23:56,METAR,Normal,360,5,,,9999.0,,21.4,7.2,30.06,1018.6,,,,,,,,,,,,,,,Clear,72000.0,,,,,,,,,
KRDR,08-22-2017,22:56,METAR,Normal,360,10,,,9999.0,,23.6,6.4,30.06,1018.4,,,,,,,,,,,,,,,Clear,72000.0,,,,,,,,,
KRDR,08-22-2017,21:56,METAR,Normal,10,15,,,9999.0,,23.9,6.2,30.07,1018.8,,,,,,,,,,,,,,,Clear,72000.0,,,,,,,,,
KRDR,08-22-2017,20:56,METAR,Normal,350,10,18.0,,9999.0,,24.2,4.5,30.06,1018.4,,,,,,,,,,,,,,,Clear,72000.0,,,,,,,,,
KRDR,08-22-2017,19:56,METAR,Normal,330,17,22.0,350/26KTS,9999.0,,24.1,4.4,30.07,1018.7,,,,,,,,,,,,,,,Clear,72000.0,,,,,,,,,
KRDR,08-22-2017,18:56,METAR,Normal,10,16,26.0,340/26KTS,9999.0,,24.1,4.4,30.07,1018.7,,,,,,,,,,,,,,,Clear,72000.0,,,,,,,,,
KRDR,08-22-2017,17:56,METAR,Normal,350,17,25.0,340/28KTS,9999.0,,23.2,4.7,30.07,1018.8,,,,,,,,,,,,,,,Clear,72000.0,,,,,,,,,
KRDR,08-22-2017,16:56,METAR,Normal,320,10,19.0,,9999.0,,22.9,6.2,30.08,1019.2,,,,,,,,,,,,,,,Clear,72000.0,,,,,,,,,
KRDR,08-22-2017,15:56,METAR,Normal,320,12,20.0,,9999.0,,21.4,8.3,30.07,1018.8,,,,,,,,,,,,,,,Clear,72000.0,,,,,,,,,
KRDR,08-22-2017,14:56,METAR,Normal,320,12,,,9999.0,,19.2,8.2,30.06,1018.4,,,,,,,,,,,,,,,Clear,72000.0,,,,,,,,,
KRDR,08-22-2017,13:56,METAR,Normal,310,9,16.0,,9999.0,,15.8,8.3,30.06,1018.4,,,,,,,,,,,,,,,Clear,72000.0,,,,,,,,,
KRDR,08-22-2017,12:56,METAR,Normal,290,8,,,9999.0,,12.7,7.6,30.06,1018.5,,,,,,,,,,,,,,,Clear,72000.0,,,,,,,,,
KRDR,08-22-2017,11:56,METAR,Normal,300,8,,,9999.0,,9.7,6.8,30.04,1017.8,,,,,,,,,,,,,,,Clear,72000.0,,,,,,,,,
KRDR,08-22-2017,10:56,METAR,Normal,300,7,,,9999.0,,10.3,6.4,30.02,1017.1,,,,,,,,,,,,,,,Clear,72000.0,,,,,,,,,
KRDR,08-22-2017,09:56,METAR,Normal,310,6,,,9999.0,,10.6,6.5,30.00,1016.4,,,,,,,,,,,,,,,Clear,72000.0,,,,,,,,,
KRDR,08-22-2017,08:56,METAR,Normal,310,7,,,9999.0,,11.1,7.4,30.00,1016.4,,,,,,,,,,,,,,,Clear,72000.0,,,,,,,,,
KRDR,08-22-2017,07:56,METAR,Normal,300,7,,,9999.0,,11.3,8.0,30.00,1016.5,,,,,,,,,,,,,,,Clear,72000.0,,,,,,,,,
KRDR,08-22-2017,06:56,METAR,Normal,300,7,,,9999.0,,11.1,8.0,30.00,1016.5,,,,,,,,,,,,,,,Clear,72000.0,,,,,,,,,
KRDR,08-22-2017,05:56,METAR,Normal,290,7,,,9999.0,,10.0,8.3,30.00,1016.5,,,,,,,,,,,,,,,Clear,72000.0,,,,,,,,,
KRDR,08-22-2017,04:56,METAR,Normal,310,4,,,9999.0,,9.9,9.3,30.00,1016.5,,,,,,,,,,,,,,,Clear,72000.0,,,,,,,,,
KRDR,08-22-2017,03:56,METAR,Normal,70,8,,,9999.0,,12.1,11.2,30.00,1016.5,,,,,,,,,,,,,,,Clear,72000.0,,,,,,,,,
KRDR,08-22-2017,02:56,METAR,Normal,350,7,,,9999.0,,15.0,12.5,29.99,1016.1,,,,,,,,,,,,,,,Clear,72000.0,,,,,,,,,
KRDR,08-22-2017,01:56,METAR,Normal,10,10,16.0,,9999.0,,17.1,12.2,29.97,1015.4,,,,,,,,,,,,,,,Clear,72000.0,,,,,,,,,
KRDR,08-22-2017,00:56,METAR,Normal,360,17,23.0,,9999.0,,20.0,11.5,29.93,1014.0,,,,,,,,,,,,,,,Clear,72000.0,,,,,,,,,
KRDR,08-21-2017,23:56,METAR,Normal,320,11,,,9999.0,,21.8,12.1,29.90,1012.9,,,,,,,,,,,,,TRACE,,4/8 Partly Cloudy,72000.0,5000.0,SCT,5000.0,,,,,,
KRDR,08-21-2017,22:56,METAR,Normal,330,5,,,9999.0,,22.8,13.0,29.89,1012.7,,,,,,,,,,,,,,,4/8 Partly Cloudy,72000.0,5000.0,SCT,5000.0,,,,,,
KRDR,08-21-2017,21:56,METAR,Normal,350,4,,,9999.0,,22.7,12.9,29.89,1012.7,,,,,,,,,,,,,,,,6000.0,4400.0,FEW,4400.0,OVC,6000.0,,,,
KRDR,08-21-2017,20:56,METAR,Normal,290,6,,,9999.0,,22.8,13.0,29.88,1012.3,,,,,,,,,,,,TRACE,,,2/8 Mostly Clear,72000.0,3700.0,FEW,3700.0,,,,,,
KRDR,08-21-2017,19:56,METAR,Normal,70,3,,,9999.0,,20.5,13.7,29.89,1012.7,,,,,,,,,,,TRACE,,,,,5500.0,3000.0,FEW,3000.0,FEW,4200.0,BKN,5500.0,BKN,7000.0
KRDR,08-21-2017,19:46,SPECI,Normal,110,5,,,9999.0,,20.0,14.0,29.88,1012.4,,,,,,,,,,,,,,,,6000.0,6000.0,BKN,6000.0,BKN,7500.0,BKN,9600.0,,
KRDR,08-21-2017,19:31,SPECI,Normal,110,4,,,9999.0,Light Rain,21.0,13.0,29.90,1013.1,61,,,,,,,,,,,,,,,10000.0,6000.0,FEW,6000.0,SCT,8600.0,BKN,10000.0,,
KRDR,08-21-2017,18:56,METAR,Normal,50,7,,,9999.0,,21.3,12.7,29.91,1013.4,,,,,,,,,,,,,,,,15000.0,8500.0,SCT,8600.0,BKN,15000.0,,,,
KRDR,08-21-2017,17:56,METAR,Normal,290,5,,,9999.0,,20.8,12.5,29.93,1014.1,,,,,,,,,,,,,,,,7500.0,7500.0,OVC,7500.0,,,,,,
KRDR,08-21-2017,16:56,METAR,Normal,190,7,,,9999.0,,21.7,11.4,29.92,1013.7,,,,,,,,,,,,,,,4/8 Partly Cloudy,72000.0,7500.0,FEW,7500.0,SCT,9600.0,SCT,15000.0,SCT,17000.0
KRDR,08-21-2017,15:56,METAR,Normal,180,6,,,9999.0,,19.4,10.7,29.94,1014.5,,,,,,,,,,,,,,,,9000.0,9000.0,BKN,9100.0,,,,,,
KRDR,08-21-2017,14:56,METAR,Normal,160,7,,,9999.0,,18.6,9.6,29.96,1015.1,,,,,,,,,,,,,,,,10000.0,10000.0,BKN,10000.0,,,,,,
KRDR,08-21-2017,13:56,METAR,Calm,,0,,,9999.0,,16.8,10.2,29.98,1015.8,,,,,,,,,,,,,,,,10000.0,10000.0,BKN,10000.0,,,,,,
KRDR,08-21-2017,12:56,METAR,Calm,,0,,,9999.0,,14.7,11.7,29.99,1016.0,,,,,,,,,,,,,,,,11000.0,11000.0,BKN,11000.0,,,,,,
KRDR,08-21-2017,11:56,METAR,Normal,240,3,,,9999.0,,13.1,11.3,30.02,1017.0,,,,,,,,,,,,,,,,11000.0,11000.0,OVC,11000.0,,,,,,
KRDR,08-21-2017,10:56,METAR,Normal,300,5,,,9999.0,,11.9,10.5,30.02,1017.0,,,,,,,,,,,,,,,,12000.0,12000.0,BKN,12000.0,,,,,,
KRDR,08-21-2017,09:56,METAR,Calm,,0,,,9999.0,,11.9,9.8,29.99,1015.9,,,,,,,,,,,,,,,4/8 Partly Cloudy,72000.0,12000.0,SCT,12000.0,,,,,,
KRDR,08-21-2017,08:56,METAR,Calm,,0,,,9999.0,,10.8,9.5,29.99,1016.0,,,,,,,,,,,,,,,2/8 Mostly Clear,72000.0,13000.0,FEW,13000.0,,,,,,
KRDR,08-21-2017,07:56,METAR,Calm,,0,,,9999.0,,11.4,9.8,30.00,1016.3,,,,,,,,,,,,,,,2/8 Mostly Clear,72000.0,14000.0,FEW,14000.0,,,,,,
KRDR,08-21-2017,06:56,METAR,Normal,230,4,,,9999.0,,11.3,9.4,30.01,1016.7,,,,,,,,,,,,,,,4/8 Partly Cloudy,72000.0,13000.0,SCT,13000.0,,,,,,
KRDR,08-21-2017,05:56,METAR,Normal,230,3,,,9999.0,,10.7,9.1,30.02,1017.0,,,,,,,,,,,,,,,Clear,72000.0,,,,,,,,,
KRDR,08-21-2017,04:56,METAR,Calm,,0,,,9999.0,,10.6,9.0,30.02,1017.1,,,,,,,,,,,,,,,Clear,72000.0,,,,,,,,,
KRDR,08-21-2017,03:56,METAR,Calm,,0,,,9999.0,,11.7,9.8,30.02,1017.1,,,,,,,,,,,,,,,Clear,72000.0,,,,,,,,,
KRDR,08-21-2017,02:56,METAR,Calm,,0,,,9999.0,,13.0,10.2,30.01,1016.8,,,,,,,,,,,,,,,Clear,72000.0,,,,,,,,,
KRDR,08-21-2017,01:56,METAR,Calm,,0,,,9999.0,,15.7,10.9,30.00,1016.5,,,,,,,,,,,,,,,Clear,72000.0,,,,,,,,,
KRDR,08-21-2017,00:56,METAR,Calm,,0,,,9999.0,,21.8,10.3,29.99,1015.9,,,,,,,,,,,,,,,Clear,72000.0,,,,,,,,,
KRDR,08-20-2017,23:56,METAR,Normal,290,4,,,9999.0,,23.5,7.1,29.99,1015.9,,,,,,,,,,,,,,,Clear,72000.0,,,,,,,,,
KRDR,08-20-2017,22:56,METAR,Normal,330,9,,,9999.0,,24.7,5.9,29.98,1015.5,,,,,,,,,,,,,,,Clear,72000.0,,,,,,,,,
KRDR,08-20-2017,21:56,METAR,Normal,340,10,16.0,,9999.0,,25.1,5.8,29.98,1015.5,,,,,,,,,,,,,,,Clear,72000.0,,,,,,,,,
KRDR,08-20-2017,20:56,METAR,Normal,360,10,15.0,,9999.0,,25.1,7.2,29.98,1015.5,,,,,,,,,,,,,,,Clear,72000.0,,,,,,,,,
KRDR,08-20-2017,19:56,METAR,Normal,340,9,,,9999.0,,25.4,7.5,29.98,1015.4,,,,,,,,,,,,,,,Clear,72000.0,,,,,,,,,
KRDR,08-20-2017,18:56,METAR,Normal,340,8,,,9999.0,,24.4,7.5,29.98,1015.4,,,,,,,,,,,,,,,Clear,72000.0,,,,,,,,,
KRDR,08-20-2017,17:56,METAR,Normal,310,9,,,9999.0,,24.4,6.6,29.98,1015.4,,,,,,,,,,,,,,,2/8 Mostly Clear,72000.0,20000.0,FEW,20000.0,,,,,,
KRDR,08-20-2017,16:56,METAR,Normal,340,9,17.0,,9999.0,,23.4,7.1,30.00,1016.1,,,,,,,,,,,,,,,Clear,72000.0,,,,,,,,,
KRDR,08-20-2017,15:56,METAR,Normal,330,8,,,9999.0,,21.9,9.1,29.98,1015.4,,,,,,,,,,,,,,,Clear,72000.0,,,,,,,,,
KRDR,08-20-2017,14:56,METAR,Normal,340,8,,,9999.0,,17.9,10.0,29.96,1014.9,,,,,,,,,,,,,,,Clear,72000.0,,,,,,,,,
KRDR,08-20-2017,13:56,METAR,Normal,320,8,15.0,,9999.0,,16.3,9.5,29.95,1014.5,,,,,,,,,,,,,,,,,,,,,,,,,
KRDR,08-20-2017,12:56,METAR,Normal,310,9,,,9999.0,,16.3,9.0,29.93,1013.8,,,,,,,,,,,,,,,Clear,72000.0,,,,,,,,,
KRDR,08-20-2017,11:56,METAR,Normal,320,9,,,9999.0,,15.0,8.7,29.90,1012.7,,,,,,,,,,,,,,,Clear,72000.0,,,,,,,,,
KRDR,08-20-2017,10:56,METAR,Normal,320,10,,,9999.0,,15.1,9.4,29.87,1011.7,,,,,,,,,,,,,,,Clear,72000.0,,,,,,,,,
KRDR,08-20-2017,09:56,METAR,Normal,320,9,17.0,,9999.0,,16.0,10.3,29.84,1010.7,,,,,,,,,,,,,,,Clear,72000.0,,,,,,,,,
KRDR,08-20-2017,08:56,METAR,Normal,330,8,,,9999.0,,17.4,10.5,29.80,1009.2,,,,,,,,,,,,,,,Clear,72000.0,,,,,,,,,
KRDR,08-20-2017,07:56,METAR,Normal,330,11,,,9999.0,,18.6,12.1,29.79,1008.8,,,,,,,,,,,,,,,Clear,72000.0,,,,,,,,,
KRDR,08-20-2017,06:56,METAR,Normal,340,10,,,9999.0,,20.1,14.4,29.77,1008.1,,,,,,,,,,,,,,,Clear,72000.0,,,,,,,,,
KRDR,08-20-2017,05:56,METAR,Normal,280,8,,,9999.0,,19.8,17.2,29.75,1007.5,,,,,,,,,,,,,,,Clear,72000.0,,,,,,,,,
KRDR,08-20-2017,04:56,METAR,Normal,220,9,,,9999.0,,20.6,18.0,29.73,1006.8,,,,,,,,,,,,,,,Clear,72000.0,,,,,,,,,
KRDR,08-20-2017,03:56,METAR,Normal,200,9,,,9999.0,,21.3,17.9,29.72,1006.5,,,,,,,,,,,,,,,Clear,72000.0,,,,,,,,,
KRDR,08-20-2017,02:56,METAR,Normal,190,8,,,9999.0,,22.1,18.1,29.72,1006.5,,,,,,,,,,,,,,,Clear,72000.0,,,,,,,,,
KRDR,08-20-2017,01:56,METAR,Normal,180,9,,,9999.0,,23.1,16.9,29.72,1006.6,,,,,,,,,,,,,,,2/8 Mostly Clear,72000.0,18000.0,FEW,18000.0,,,,,,
KRDR,08-20-2017,00:56,METAR,Normal,200,8,,,9999.0,,24.9,15.5,29.72,1006.6,,,,,,,,,,,,,,,Clear,72000.0,,,,,,,,,
KRDR,08-19-2017,23:56,METAR,Normal,200,10,18.0,,9999.0,,27.3,15.6,29.72,1006.7,,,,,,,,,,,,,,,Clear,72000.0,,,,,,,,,
KRDR,08-19-2017,22:56,METAR,Normal,200,13,,,9999.0,,27.5,15.5,29.72,1006.6,,,,,,,,,,,,,,,Clear,72000.0,,,,,,,,,
KRDR,08-19-2017,21:56,METAR,Normal,190,15,,,9999.0,,28.4,14.2,29.72,1006.6,,,,,,,,,,,,,,,Clear,72000.0,,,,,,,,,
KRDR,08-19-2017,20:56,METAR,Normal,200,13,19.0,,9999.0,,29.0,14.8,29.74,1007.3,,,,,,,,,,,,,,,Clear,72000.0,,,,,,,,,
KRDR,08-19-2017,19:56,METAR,Normal,210,15,19.0,,9999.0,,29.7,13.8,29.76,1007.9,,,,,,,,,,,,,,,Clear,72000.0,,,,,,,,,
KRDR,08-19-2017,18:56,METAR,Normal,210,12,,,9999.0,,29.1,14.9,29.77,1008.3,,,,,,,,,,,,,,,Clear,72000.0,,,,,,,,,
KRDR,08-19-2017,17:56,METAR,Normal,210,11,16.0,,9999.0,,28.7,16.2,29.79,1009.0,,,,,,,,,,,,,,,Clear,72000.0,,,,,,,,,
KRDR,08-19-2017,16:56,METAR,Normal,210,9,,,9999.0,,27.4,15.4,29.80,1009.3,,,,,,,,,,,,,,,Clear,72000.0,,,,,,,,,
KRDR,08-19-2017,15:56,METAR,Normal,230,7,,,9999.0,,25.9,15.6,29.81,1009.7,,,,,,,,,,,,,,,Clear,72000.0,,,,,,,,,
KRDR,08-19-2017,14:56,METAR,Normal,240,7,,,9999.0,,23.4,15.2,29.83,1010.4,,,,,,,,,,,,,,,Clear,72000.0,,,,,,,,,
KRDR,08-19-2017,13:56,METAR,Normal,240,5,,,9999.0,,20.2,14.1,29.83,1010.5,,,,,,,,,,,,,,,Clear,72000.0,,,,,,,,,
KRDR,08-19-2017,12:56,METAR,Normal,240,5,,,9999.0,,16.6,12.9,29.84,1010.7,,,,,,,,,,,,,,,Clear,72000.0,,,,,,,,,
KRDR,08-19-2017,11:56,METAR,Normal,240,5,,,9999.0,,13.8,11.7,29.84,1010.8,,,,,,,,,,,,,,,Clear,72000.0,,,,,,,,,
KRDR,08-19-2017,10:56,METAR,Normal,240,6,,,9999.0,,13.3,11.7,29.83,1010.4,,,,,,,,,,,,,,,Clear,72000.0,,,,,,,,,
KRDR,08-19-2017,09:56,METAR,Normal,250,5,,,9999.0,,13.9,12.1,29.83,1010.4,,,,,,,,,,,,,,,Clear,72000.0,,,,,,,,,
KRDR,08-19-2017,08:56,METAR,Normal,240,6,,,9999.0,,13.8,12.2,29.84,1010.7,,,,,,,,,,,,,,,Clear,72000.0,,,,,,,,,
KRDR,08-19-2017,07:56,METAR,Normal,240,6,,,9999.0,,14.0,12.4,29.84,1010.8,,,,,,,,,,,,,,,Clear,72000.0,,,,,,,,,
KRDR,08-19-2017,06:56,METAR,Normal,250,4,,,9999.0,,13.4,12.4,29.85,1011.1,,,,,,,,,,,,,,,Clear,72000.0,,,,,,,,,
KRDR,08-19-2017,05:56,METAR,Normal,240,4,,,9999.0,,14.1,13.5,29.86,1011.5,,,,,,,,,,,,,,,Clear,72000.0,,,,,,,,,
KRDR,08-19-2017,04:56,METAR,Normal,230,5,,,9999.0,,15.2,13.9,29.85,1011.1,,,,,,,,,,,,,,,Clear,72000.0,,,,,,,,,
KRDR,08-19-2017,03:56,METAR,Normal,260,5,,,9999.0,,15.3,13.8,29.86,1011.5,,,,,,,,,,,,,,,Clear,72000.0,,,,,,,,,
KRDR,08-19-2017,02:56,METAR,Normal,250,4,,,9999.0,,16.2,14.4,29.86,1011.5,,,,,,,,,,,,,,,Clear,72000.0,,,,,,,,,
KRDR,08-19-2017,01:56,METAR,Normal,250,5,,,9999.0,,18.7,15.4,29.85,1011.2,,,,,,,,,,,,,,,Clear,72000.0,,,,,,,,,
KRDR,08-19-2017,00:56,METAR,Normal,260,3,,,9999.0,,24.2,15.7,29.85,,,,,,,,,,,,,,,,Clear,72000.0,,,,,,,,,
KRDR,08-18-2017,23:56,METAR,Normal,300,3,,,9999.0,,25.8,14.3,29.84,,,,,,,,,,,,,,,,Clear,72000.0,,,,,,,,,
KRDR,08-18-2017,22:56,METAR,Normal,360,6,,,9999.0,,26.9,12.9,29.84,,,,,,,,,,,,,,,,2/8 Mostly Clear,72000.0,7000.0,FEW,7000.0,,,,,,
KRDR,08-18-2017,21:56,METAR,Normal,10,7,,,9999.0,,26.7,12.7,29.84,,,,,,,,,,,,,,,,Clear,72000.0,,,,,,,,,
KRDR,08-18-2017,20:56,METAR,Normal,280,5,,,9999.0,,27.2,14.9,29.84,,,,,,,,,,,,,,,,Clear,72000.0,,,,,,,,,
KRDR,08-18-2017,19:56,METAR,Normal,280,6,,,9999.0,,26.8,14.2,29.85,,,,,,,,,,,,,,,,Clear,72000.0,,,,,,,,,
KRDR,08-18-2017,18:56,METAR,Normal,340,7,,,9999.0,,26.2,13.6,29.86,,,,,,,,,,,,,,,,Clear,72000.0,,,,,,,,,
KRDR,08-18-2017,17:56,METAR,Normal,310,7,,,9999.0,,24.7,15.3,29.87,,,,,,,,,,,,,,,,Clear,72000.0,,,,,,,,,
KRDR,08-18-2017,16:56,METAR,Normal,330,6,,,9999.0,,24.2,14.8,29.86,,,,,,,,,,,,,,,,Clear,72000.0,,,,,,,,,
KRDR,08-18-2017,15:56,METAR,Normal,320,4,,,9999.0,,23.1,15.1,29.86,,,,,,,,,,,,,,,,Clear,72000.0,,,,,,,,,
KRDR,08-18-2017,14:56,METAR,Normal,360,7,,,9999.0,,22.7,14.0,29.86,,,,,,,,,,,,,,,,Clear,72000.0,,,,,,,,,
KRDR,08-18-2017,13:55,METAR,Normal,340,7,,,9999.0,,19.0,16.0,29.88,,,,,,,,,,,,,,,,,15000.0,10000.0,SCT,10000.0,BKN,15000.0,,,,
KRDR,08-18-2017,12:58,METAR,Normal,340,6,,,9999.0,,16.0,15.0,29.87,,,,,,,,,,,,,,,,,15000.0,15000.0,BKN,15000.0,,,,,,
KRDR,08-18-2017,11:58,METAR,Variable,,4,,,9999.0,,14.0,13.0,29.83,,,,,,,,,,,,,,,,4/8 Partly Cloudy,72000.0,10000.0,SCT,10000.0,,,,,,
KRDR,08-18-2017,10:58,METAR,Variable,,2,,,9999.0,,14.0,13.0,29.83,1010.4,,,,,,,,,,,,,,,2/8 Mostly Clear,72000.0,15000.0,FEW,15000.0,,,,,,
KRDR,08-18-2017,09:57,METAR,Variable,,2,,,9999.0,,16.0,16.0,29.83,,,,,,,,,,,,,,,,Clear,72000.0,,,,,,,,,
KRDR,08-18-2017,08:58,METAR,Variable,,3,,,9999.0,,16.0,16.0,29.83,,,,,,,,,,,,,,,,2/8 Mostly Clear,72000.0,15000.0,FEW,15000.0,,,,,,
KRDR,08-18-2017,07:58,METAR,Variable,,5,,,9999.0,,16.0,15.0,29.86,,,,,,,,,,,,,,,,2/8 Mostly Clear,72000.0,10000.0,FEW,10000.0,,,,,,
KRDR,08-18-2017,05:58,METAR,Variable,,3,,,9999.0,,20.0,15.0,29.87,1011.7,,,,,,,,,,,,,,,4/8 Partly Cloudy,72000.0,10000.0,SCT,10000.0,,,,,,
KRDR,08-18-2017,04:58,METAR,Calm,,0,,,9999.0,,22.0,15.0,29.89,1012.4,,,,,,,,,,,,,,,4/8 Partly Cloudy,72000.0,10000.0,SCT,10000.0,,,,,,
KRDR,08-18-2017,04:04,METAR,Variable,,4,,,9999.0,,22.0,14.0,29.88,1012.1,,,,,,,,,,,,,,,2/8 Mostly Clear,72000.0,10000.0,FEW,10000.0,,,,,,
KRDR,08-18-2017,02:56,METAR,Variable,,1,,,9999.0,,22.0,17.0,29.90,,,,,,,,,,,,,,,,2/8 Mostly Clear,72000.0,10000.0,FEW,10000.0,,,,,,
KRDR,08-18-2017,01:56,METAR,Normal,10,2,,,9999.0,,24.0,17.0,29.88,,,,,,,,,,,,,,,,4/8 Partly Cloudy,72000.0,10000.0,SCT,10000.0,,,,,,
KRDR,08-18-2017,00:56,METAR,Normal,10,1,,,9999.0,,27.0,17.0,29.88,,,,,,,,,,,,,,,,4/8 Partly Cloudy,72000.0,10000.0,SCT,10000.0,,,,,,
KRDR,08-17-2017,23:56,METAR,Normal,20,3,,,9999.0,,27.0,16.0,29.88,,,,,,,,,,,,,,,,2/8 Mostly Clear,72000.0,10000.0,FEW,10000.0,,,,,,
KRDR,08-17-2017,22:56,METAR,Calm,,0,,,9999.0,,26.5,16.1,29.83,1010.4,,,,,,,,,,,,,,,,11000.0,11000.0,BKN,11000.0,,,,,,
KRDR,08-17-2017,21:56,METAR,Normal,350,3,,,9999.0,,25.9,15.9,29.84,1010.7,,,,,,,,,,,,,,,Clear,72000.0,,,,,,,,,
KRDR,08-17-2017,20:56,METAR,Normal,330,5,,,9999.0,,25.6,16.1,29.84,1010.8,,,,,,,,,,,,,,,Clear,72000.0,,,,,,,,,
KRDR,08-17-2017,19:56,METAR,Normal,310,3,,,9999.0,,24.7,15.6,29.85,1011.1,,,,,,,,,,,,,,,Clear,72000.0,,,,,,,,,
KRDR,08-17-2017,18:56,METAR,Normal,360,5,,,9999.0,,23.7,16.2,29.86,1011.5,,,,,,,,,,,,,,,Clear,72000.0,,,,,,,,,
KRDR,08-17-2017,17:56,METAR,Normal,10,8,,,9999.0,,22.7,16.7,29.86,1011.5,,,,,,,,,,,,,,,2/8 Mostly Clear,72000.0,2200.0,FEW,2200.0,,,,,,
KRDR,08-17-2017,16:56,METAR,Normal,10,3,,,9999.0,,21.5,16.4,29.86,1011.6,,,,,,,,,,,,,,,2/8 Mostly Clear,72000.0,1500.0,FEW,1500.0,,,,,,
KRDR,08-17-2017,15:56,METAR,Normal,20,7,,,9999.0,,20.0,16.6,29.85,1011.2,,,,,,,,,,,,,,,2/8 Mostly Clear,72000.0,900.0,FEW,900.0,,,,,,
KRDR,08-17-2017,15:51,SPECI,Normal,70,5,,,9999.0,,20.0,16.0,29.85,1011.2,,,,,,,,,,,,,,,4/8 Partly Cloudy,72000.0,900.0,SCT,900.0,,,,,,
KRDR,08-17-2017,15:41,SPECI,Normal,50,5,,,9999.0,,19.0,18.0,29.85,1011.3,,,,,,,,,,,,,,,,700.0,800.0,BKN,800.0,,,,,,
KRDR,08-17-2017,15:16,SPECI,Normal,50,7,,,9999.0,,18.0,18.0,29.85,1011.3,,,,,,,,,,,,,,,,500.0,700.0,BKN,700.0,,,,,,
KRDR,08-17-2017,14:56,METAR,Normal,10,5,,,9999.0,,17.1,17.1,29.85,1011.3,,,,,,,,,,,,,,,,300.0,500.0,BKN,500.0,,,,,,
KRDR,08-17-2017,14:36,SPECI,Normal,360,6,,,9999.0,,16.0,16.0,29.85,1011.3,,,,,,,,,,,,,,,,300.0,300.0,OVC,300.0,,,,,,
KRDR,08-17-2017,14:16,SPECI,Normal,10,5,,,6400.0,Mist,16.0,16.0,29.85,1011.3,10,,,,,,,,,,,,,,,200.0,200.0,OVC,200.0,,,,,,
KRDR,08-17-2017,14:11,SPECI,Normal,10,5,,,3600.0,Mist,16.0,16.0,29.85,1011.3,10,,,,,,,,,,,,,,,200.0,200.0,OVC,200.0,,,,,,
KRDR,08-17-2017,14:06,SPECI,Normal,350,5,,,2000.0,Mist,16.0,16.0,29.85,1011.3,10,,,,,,,,,,,,,,,200.0,200.0,OVC,200.0,,,,,,
KRDR,08-17-2017,14:01,SPECI,Normal,340,4,,,3600.0,Mist,16.0,16.0,29.85,1011.3,10,,,,,,,,,,,,,,,200.0,200.0,OVC,200.0,,,,,,
KRDR,08-17-2017,13:56,METAR,Normal,350,5,,,1400.0,Mist,15.8,15.8,29.85,1011.3,10,,,,,,,,,,,,,,Sky Obscured (Unable to Estimate),100.0,200.0,,200.0,,,,,,
KRDR,08-17-2017,13:51,SPECI,Normal,330,3,,,1200.0,Mist,16.0,16.0,29.85,1011.3,10,,,,,,,,,,,,,,Sky Obscured (Unable to Estimate),100.0,200.0,,200.0,,,,,,
KRDR,08-17-2017,13:46,SPECI,Normal,340,4,,,800.0,Fog,16.0,16.0,29.85,1011.3,30,,,,,,,,,,,,,,Sky Obscured (Unable to Estimate),100.0,100.0,,100.0,,,,,,
KRDR,08-17-2017,13:31,SPECI,Normal,330,5,,,600.0,Fog,15.0,15.0,29.85,1011.3,30,,,,,,,,,,,,,,Sky Obscured (Unable to Estimate),100.0,100.0,,100.0,,,,,,
KRDR,08-17-2017,13:16,SPECI,Normal,320,5,,,400.0,Fog,15.0,15.0,29.84,1010.9,30,,,,,,,,,,,,,,Sky Obscured (Unable to Estimate),100.0,100.0,,100.0,,,,,,
KRDR,08-17-2017,13:06,SPECI,Normal,330,6,,,600.0,Fog,15.0,15.0,29.84,1010.9,30,,,,,,,,,,,,,,Sky Obscured (Unable to Estimate),0.0,0.0,,0.0,,,,,,
KRDR,08-17-2017,13:01,SPECI,Normal,330,5,,,600.0,Fog,15.0,15.0,29.85,1011.3,30,,,,,,,,,,,,,,Sky Obscured (Unable to Estimate),100.0,100.0,,100.0,,,,,,
KRDR,08-17-2017,12:56,METAR,Normal,340,4,,,400.0,Fog,15.1,15.1,29.84,1010.9,30,,,,,,,,,,,,,,Sky Obscured (Unable to Estimate),100.0,100.0,,100.0,,,,,,
KRDR,08-17-2017,12:41,SPECI,Normal,350,5,,,400.0,Fog,15.0,15.0,29.84,1010.9,30,,,,,,,,,,,,,,Sky Obscured (Unable to Estimate),100.0,100.0,,100.0,,,,,,
KRDR,08-17-2017,11:56,METAR,Normal,350,7,,,600.0,Fog,15.1,15.1,29.84,1010.9,30,,,,,,,,,,,,,.17 IN,Sky Obscured (Unable to Estimate),100.0,100.0,,100.0,,,,,,
KRDR,08-17-2017,11:36,SPECI,Normal,360,7,,,600.0,Fog,15.0,15.0,29.84,1010.9,30,,,,,,,,,,,,,,Sky Obscured (Unable to Estimate),100.0,100.0,,100.0,,,,,,
KRDR,08-17-2017,11:31,SPECI,Normal,350,7,,,800.0,Fog,15.0,15.0,29.84,1010.9,30,,,,,,,,,,,,,,Sky Obscured (Unable to Estimate),100.0,100.0,,100.0,,,,,,
KRDR,08-17-2017,11:26,SPECI,Normal,350,5,,,1200.0,Mist,15.0,15.0,29.84,1010.9,10,,,,,,,,,,,,,,Sky Obscured (Unable to Estimate),100.0,100.0,,100.0,,,,,,
KRDR,08-17-2017,10:56,METAR,Normal,10,7,,,800.0,Fog,15.1,15.1,29.84,,30,,,,,,,,,,,,,,Sky Obscured (Unable to Estimate),100.0,100.0,,100.0,,,,,,
KRDR,08-17-2017,10:46,SPECI,Normal,10,8,,,1000.0,Mist,15.0,15.0,29.83,,10,,,,,,,,,,,,,,Sky Obscured (Unable to Estimate),100.0,100.0,,100.0,,,,,,
KRDR,08-17-2017,10:41,SPECI,Normal,360,9,,,800.0,Fog,15.0,15.0,29.83,,30,,,,,,,,,,,,,,Sky Obscured (Unable to Estimate),100.0,100.0,,100.0,,,,,,
KRDR,08-17-2017,10:26,SPECI,Normal,360,7,,,600.0,Fog,15.0,15.0,29.83,,30,,,,,,,,,,,,,,Sky Obscured (Unable to Estimate),100.0,100.0,,100.0,,,,,,
KRDR,08-17-2017,10:21,SPECI,Normal,360,7,,,800.0,Fog,15.0,15.0,29.83,,30,,,,,,,,,,,,,,Sky Obscured (Unable to Estimate),100.0,100.0,,100.0,,,,,,
KRDR,08-17-2017,09:56,METAR,Normal,350,10,,,1000.0,Mist,15.3,15.3,29.83,1010.5,10,,,,,,,,,,,,,,Sky Obscured (Unable to Estimate),100.0,100.0,,100.0,,,,,,
KRDR,08-17-2017,09:36,SPECI,Normal,350,7,,,1000.0,Mist,15.0,15.0,29.82,1010.3,10,,,,,,,,,,,,,,Sky Obscured (Unable to Estimate),100.0,100.0,,100.0,,,,,,
KRDR,08-17-2017,09:26,SPECI,Normal,340,9,,,800.0,Fog,15.0,15.0,29.82,1010.3,30,,,,,,,,,,,,,,Sky Obscured (Unable to Estimate),100.0,100.0,,100.0,,,,,,
KRDR,08-17-2017,09:21,SPECI,Normal,350,7,,,800.0,Fog,15.0,15.0,29.82,1010.3,30,,,,,,,,,,,,,,Sky Obscured (Unable to Estimate),200.0,200.0,,200.0,,,,,,
KRDR,08-17-2017,09:16,SPECI,Normal,350,9,,,1000.0,Mist,15.0,15.0,29.82,1010.3,10,,,,,,,,,,,,,,Sky Obscured (Unable to Estimate),200.0,200.0,,200.0,,,,,,
KRDR,08-17-2017,09:11,SPECI,Normal,350,9,,,1200.0,Mist,15.0,15.0,29.82,1010.3,10,,,,,,,,,,,,,,Sky Obscured (Unable to Estimate),200.0,200.0,,200.0,,,,,,
KRDR,08-17-2017,09:06,SPECI,Normal,350,9,,,3600.0,Mist,15.0,15.0,29.82,1010.3,10,,,,,,,,,,,,,,,300.0,400.0,OVC,400.0,,,,,,
KRDR,08-17-2017,08:56,METAR,Normal,340,9,,,9999.0,,14.7,14.7,29.82,1010.3,,,,,,,,,,,,,,,,400.0,400.0,OVC,400.0,,,,,,
KRDR,08-17-2017,08:41,SPECI,Normal,330,8,,,9999.0,,15.0,15.0,29.82,1010.3,,,,,,,,,,,,,,,,400.0,400.0,BKN,400.0,,,,,,
KRDR,08-17-2017,08:31,SPECI,Normal,330,8,,,9999.0,,15.0,15.0,29.81,1009.9,,,,,,,,,,,,,,,2/8 Mostly Clear,72000.0,300.0,FEW,300.0,,,,,,
KRDR,08-17-2017,07:56,METAR,Normal,330,7,,,9999.0,,14.7,14.7,29.81,1009.9,,,,,,,,,,,,,,,Clear,72000.0,,,,,,,,,
KRDR,08-17-2017,07:11,SPECI,Normal,340,5,,,6400.0,Mist,15.0,15.0,29.82,1010.3,10,,,,,,,,,,,,,,Clear,72000.0,,,,,,,,,
KRDR,08-17-2017,07:06,SPECI,Normal,340,4,,,4000.0,Mist,15.0,15.0,29.82,1010.3,10,,,,,,,,,,,,,,Clear,72000.0,,,,,,,,,
KRDR,08-17-2017,06:56,METAR,Normal,330,5,,,9999.0,,14.8,14.8,29.83,1010.6,,,,,,,,,,,,,,,Clear,72000.0,,,,,,,,,
KRDR,08-17-2017,05:56,METAR,Normal,340,6,,,9999.0,,14.8,14.8,29.83,1010.6,,,,,,,,,,,,,,,4/8 Partly Cloudy,72000.0,1100.0,SCT,1100.0,,,,,,
KRDR,08-17-2017,05:48,SPECI,Normal,340,6,,,9999.0,Mist,15.0,15.0,29.83,1010.6,10,,,,,,,,,,,,,,2/8 Mostly Clear,72000.0,1100.0,FEW,1100.0,,,,,,
KRDR,08-17-2017,05:46,SPECI,Normal,330,6,,,8000.0,Mist,14.0,14.0,29.83,1010.7,10,,,,,,,,,,,,,,Clear,72000.0,,,,,,,,,
KRDR,08-17-2017,05:41,SPECI,Normal,330,6,,,2400.0,Mist,14.0,14.0,29.83,1010.7,10,,,,,,,,,,,,,,Clear,72000.0,,,,,,,,,
KRDR,08-17-2017,04:56,METAR,Normal,10,4,,,6400.0,Mist,14.1,14.1,29.84,1011.0,10,,,,,,,,,,,,,,Clear,72000.0,,,,,,,,,
KRDR,08-17-2017,04:51,SPECI,Normal,10,4,,,3200.0,Mist,14.0,14.0,29.84,1011.0,10,,,,,,,,,,,,,,Clear,72000.0,,,,,,,,,
KRDR,08-17-2017,04:46,SPECI,Normal,10,3,,,3000.0,Mist,14.0,14.0,29.84,1011.0,10,,,,,,,,,,,,,,Clear,72000.0,,,,,,,,,
KRDR,08-17-2017,03:56,METAR,Normal,350,5,,,9999.0,,15.2,15.2,29.84,,,,,,,,,,,,,,,,Clear,72000.0,,,,,,,,,
KRDR,08-17-2017,02:56,METAR,Normal,10,5,,,9999.0,,16.2,16.2,29.84,1010.9,,,,,,,,,,,,,,,Clear,72000.0,,,,,,,,,
KRDR,08-17-2017,01:56,METAR,Normal,340,7,,,9999.0,,17.4,17.1,29.84,1010.9,,,,,,,,,,,,,,,Clear,72000.0,,,,,,,,,
KRDR,08-17-2017,00:56,METAR,Normal,30,6,,,9999.0,,19.4,17.2,29.84,1010.9,,,,,,,,,,,,,,,Clear,72000.0,,,,,,,,,
KRDR,08-16-2017,23:56,METAR,Normal,40,6,,,9999.0,,20.3,16.9,29.84,1010.8,,,,,,,,,,,,,TRACE,,,5500.0,5500.0,BKN,5500.0,,,,,,
KRDR,08-16-2017,22:56,METAR,Normal,20,9,,,9999.0,,20.9,17.1,29.85,1011.2,,,,,,,,,,,,,,,,5500.0,1900.0,SCT,1900.0,OVC,5500.0,,,,
KRDR,08-16-2017,22:48,SPECI,Normal,10,10,,,9999.0,,21.0,17.0,29.85,1011.2,,,,,,,,,,,,,,,,5500.0,1900.0,SCT,1900.0,SCT,2500.0,OVC,5500.0,,
KRDR,08-16-2017,22:43,SPECI,Normal,10,10,,,9999.0,,21.0,17.0,29.85,1011.2,,,,,,,,,,,,,,,,2500.0,1800.0,SCT,1800.0,BKN,2500.0,BKN,3400.0,OVC,5500.0
KRDR,08-16-2017,22:18,SPECI,Normal,10,10,,,9999.0,,20.0,18.0,29.85,1011.2,,,,,,,,,,,,,,,,3000.0,1400.0,FEW,1400.0,SCT,2400.0,OVC,3000.0,,
KRDR,08-16-2017,21:56,METAR,Normal,10,9,,,9999.0,,20.5,17.9,29.85,1011.2,,,,,,,,,,,TRACE,,,,,2400.0,1400.0,FEW,1400.0,SCT,1900.0,BKN,2400.0,BKN,3000.0
KRDR,08-16-2017,21:26,SPECI,Normal,20,7,,,9999.0,,19.0,18.0,29.85,1011.2,,,,,,,,,,,,,,,,1900.0,2100.0,OVC,2100.0,,,,,,
KRDR,08-16-2017,21:12,SPECI,Normal,30,5,,,9999.0,Light Drizzle,19.0,18.0,29.86,1011.6,51,,,,,,,,,,,,,,,1900.0,1200.0,FEW,1200.0,OVC,1900.0,,,,
KRDR,08-16-2017,20:56,METAR,Normal,10,5,,,9999.0,,19.4,17.7,29.86,1011.6,,,,,,,,,,,,,,,,1900.0,1100.0,FEW,1100.0,OVC,1900.0,,,,
KRDR,08-16-2017,20:51,SPECI,Normal,20,5,,,9999.0,,19.0,18.0,29.86,1011.6,,,,,,,,,,,,,,,,1900.0,1100.0,FEW,1100.0,OVC,1900.0,,,,
KRDR,08-16-2017,20:36,SPECI,Normal,10,5,,,9999.0,,19.0,18.0,29.86,1011.6,,,,,,,,,,,,,,,,1100.0,1700.0,BKN,1700.0,OVC,2200.0,,,,
KRDR,08-16-2017,20:16,SPECI,Normal,10,6,,,9999.0,,19.0,18.0,29.86,1011.6,,,,,,,,,,,,,,,,1000.0,1400.0,OVC,1400.0,,,,,,
KRDR,08-16-2017,20:06,SPECI,Normal,10,6,,,9999.0,,19.0,18.0,29.86,1011.6,,,,,,,,,,,,,,,,800.0,1000.0,BKN,1000.0,OVC,1400.0,,,,
KRDR,08-16-2017,20:01,SPECI,Normal,10,6,,,9999.0,,19.0,18.0,29.86,1011.6,,,,,,,,,,,,,,,,800.0,800.0,SCT,800.0,OVC,1400.0,,,,
KRDR,08-16-2017,19:56,METAR,Normal,360,5,,,9999.0,,19.2,18.0,29.86,1011.6,,,,,,,,,,,,,,,,800.0,800.0,BKN,800.0,OVC,1400.0,,,,
KRDR,08-16-2017,19:38,SPECI,Normal,350,4,,,9999.0,,20.0,18.0,29.86,1011.5,,,,,,,,,,,,,,,,800.0,800.0,BKN,800.0,OVC,1500.0,,,,
KRDR,08-16-2017,19:33,SPECI,Normal,10,4,,,9999.0,,20.0,18.0,29.86,1011.5,,,,,,,,,,,,,,,,1000.0,1000.0,BKN,1000.0,OVC,1500.0,,,,
KRDR,08-16-2017,19:23,SPECI,Normal,20,4,,,9999.0,,20.0,18.0,29.86,1011.5,,,,,,,,,,,,,,,,900.0,800.0,SCT,800.0,OVC,1500.0,,,,
KRDR,08-16-2017,19:18,SPECI,Normal,40,4,,,9999.0,,20.0,18.0,29.86,1011.5,,,,,,,,,,,,,,,,700.0,1000.0,BKN,1000.0,OVC,1700.0,,,,
KRDR,08-16-2017,19:16,SPECI,Normal,50,4,,,9999.0,,20.0,18.0,29.86,1011.5,,,,,,,,,,,,,,,,700.0,1200.0,BKN,1200.0,OVC,1700.0,,,,
KRDR,08-16-2017,19:11,SPECI,Normal,40,5,,,9999.0,,20.0,19.0,29.86,1011.5,,,,,,,,,,,,,,,,700.0,800.0,SCT,800.0,OVC,1500.0,,,,
KRDR,08-16-2017,18:56,METAR,Normal,20,5,,,9999.0,,19.2,18.5,29.86,1011.6,,,,,,,,,,,,,,,,700.0,700.0,BKN,700.0,OVC,1300.0,,,,
KRDR,08-16-2017,18:46,SPECI,Normal,40,5,,,9999.0,,19.0,19.0,29.86,1011.6,,,,,,,,,,,,,,,,700.0,700.0,OVC,700.0,,,,,,
KRDR,08-16-2017,18:36,SPECI,Normal,30,3,,,9999.0,,19.0,18.0,29.86,1011.5,,,,,,,,,,,,,,,,600.0,800.0,OVC,800.0,,,,,,
KRDR,08-16-2017,18:26,SPECI,Normal,40,4,,,9999.0,,19.0,19.0,29.86,1011.6,,,,,,,,,,,,,,,,600.0,600.0,BKN,600.0,OVC,1000.0,,,,
KRDR,08-16-2017,18:06,SPECI,Normal,40,3,,,9999.0,,18.0,18.0,29.86,1011.6,,,,,,,,,,,,,,,,800.0,800.0,OVC,800.0,,,,,,
KRDR,08-16-2017,17:56,METAR,Normal,30,4,,,9999.0,,18.1,18.1,29.87,1011.9,,,,,,,,,,,,,.17 IN,,,700.0,700.0,OVC,700.0,,,,,,
KRDR,08-16-2017,17:46,SPECI,Normal,40,4,,,9999.0,,18.0,18.0,29.87,1011.9,,,,,,,,,,,,,,,,700.0,700.0,OVC,700.0,,,,,,
KRDR,08-16-2017,17:36,SPECI,Normal,40,3,,,9999.0,,18.0,18.0,29.87,1011.9,,,,,,,,,,,,,,,,600.0,600.0,OVC,600.0,,,,,,
KRDR,08-16-2017,17:26,SPECI,Normal,70,3,,,9999.0,,18.0,18.0,29.87,1011.9,,,,,,,,,,,,,,,,600.0,800.0,OVC,800.0,,,,,,
KRDR,08-16-2017,16:56,METAR,Normal,90,3,,,9999.0,,18.1,18.1,29.87,1011.9,,,,,,,,,,,,,,,,500.0,600.0,OVC,600.0,,,,,,
KRDR,08-16-2017,16:43,SPECI,Normal,130,3,,,9999.0,Mist,18.0,18.0,29.87,1011.9,10,,,,,,,,,,,,,,,500.0,600.0,OVC,600.0,,,,,,
KRDR,08-16-2017,16:33,SPECI,Normal,100,3,,,8000.0,Mist,18.0,18.0,29.86,1011.6,10,,,,,,,,,,,,,,,500.0,500.0,OVC,500.0,,,,,,
KRDR,08-16-2017,16:01,SPECI,Normal,90,5,,,9999.0,,18.0,18.0,29.87,1011.9,,,,,,,,,,,,,,,,400.0,600.0,OVC,600.0,,,,,,
KRDR,08-16-2017,15:56,METAR,Normal,90,5,,,9999.0,,18.0,18.0,29.87,1011.8,,,,,,,,,,,.01 IN,,,,,600.0,600.0,OVC,600.0,,,,,,
KRDR,08-16-2017,15:46,SPECI,Normal,90,3,,,9999.0,,18.0,18.0,29.87,1011.9,,,,,,,,,,,,,,,,400.0,400.0,OVC,400.0,,,,,,
KRDR,08-16-2017,15:22,SPECI,Normal,70,4,,,9999.0,Mist,17.0,17.0,29.86,1011.6,10,,,,,,,,,,,,,,,300.0,300.0,OVC,300.0,,,,,,
KRDR,08-16-2017,14:56,METAR,Normal,90,4,,,9999.0,Light Rain/Mist,17.2,17.2,29.86,1011.6,61,10,,,,,,,,,.07 IN,.16 IN,,,,300.0,300.0,OVC,300.0,,,,,,
KRDR,08-16-2017,14:38,SPECI,Normal,70,7,,,6400.0,Rain/Mist,17.0,17.0,29.86,1011.6,,,,61,10,,,,,,,,,,,400.0,400.0,OVC,400.0,,,,,,
KRDR,08-16-2017,13:56,METAR,Normal,80,4,,,9999.0,Light Drizzle/Mist,16.9,16.9,29.86,1011.6,51,10,,,,,,,,,.03 IN,,,,,400.0,400.0,OVC,400.0,,,,,,
KRDR,08-16-2017,13:43,SPECI,Normal,70,4,,,9999.0,Light Rain,17.0,17.0,29.86,1011.6,61,,,,,,,,,,,,,,,400.0,400.0,OVC,400.0,,,,,,
KRDR,08-16-2017,13:28,SPECI,Normal,90,5,,,9999.0,Light Rain,17.0,17.0,29.86,1011.6,61,,,,,,,,,,,,,,,500.0,500.0,BKN,500.0,OVC,1500.0,,,,
KRDR,08-16-2017,13:16,SPECI,Normal,90,6,,,9999.0,Light Rain,17.0,17.0,29.86,1011.6,61,,,,,,,,,,,,,,,500.0,500.0,BKN,500.0,OVC,1600.0,,,,
KRDR,08-16-2017,12:56,METAR,Normal,100,5,,,9999.0,Light Rain,16.8,16.8,29.86,1011.6,61,,,,,,,,,,.05 IN,,,,,1600.0,500.0,FEW,500.0,BKN,1600.0,OVC,3500.0,,
KRDR,08-16-2017,12:55,SPECI,Normal,110,5,,,9999.0,Light Rain,17.0,17.0,29.86,1011.6,61,,,,,,,,,,,,,,,1600.0,500.0,FEW,500.0,BKN,1600.0,OVC,3500.0,,
KRDR,08-16-2017,12:54,SPECI,Normal,110,6,,,9999.0,Light Rain,17.0,17.0,29.86,1011.6,61,,,,,,,,,,,,,,,1600.0,1600.0,BKN,1600.0,OVC,3500.0,,,,
KRDR,08-16-2017,12:52,SPECI,Normal,110,5,,,9999.0,,17.0,17.0,29.86,1011.6,,,,,,,,,,,,,,,,1600.0,1600.0,BKN,1600.0,OVC,3500.0,,,,
KRDR,08-16-2017,12:46,SPECI,Normal,120,7,,,9999.0,Light Drizzle,17.0,17.0,29.86,1011.6,51,,,,,,,,,,,,,,,1700.0,1700.0,BKN,1700.0,OVC,3500.0,,,,
KRDR,08-16-2017,12:41,SPECI,Normal,120,7,,,9999.0,Light Rain,17.0,17.0,29.86,1011.6,61,,,,,,,,,,,,,,,3600.0,1700.0,SCT,1700.0,OVC,3600.0,,,,
KRDR,08-16-2017,12:16,SPECI,Normal,130,7,,,9999.0,Light Rain/Mist,17.0,17.0,29.86,1011.6,61,10,,,,,,,,,,,,,,1700.0,1700.0,BKN,1700.0,OVC,3600.0,,,,
KRDR,08-16-2017,11:56,METAR,Normal,130,8,,,9999.0,Light Rain/Mist,17.1,16.6,29.86,1011.6,61,10,,,,,,,,,.03 IN,,.1 IN,.14 IN,,4100.0,1800.0,FEW,1800.0,OVC,4100.0,,,,
KRDR,08-16-2017,11:46,SPECI,Normal,130,10,,,9999.0,Light Rain,17.0,17.0,29.86,1011.5,61,,,,,,,,,,,,,,,4300.0,1800.0,SCT,1800.0,OVC,4300.0,,,,
KRDR,08-16-2017,11:26,SPECI,Normal,130,8,,,9999.0,Light Rain,18.0,17.0,29.86,1011.4,61,,,,,,,,,,,,,,,1800.0,1800.0,OVC,1800.0,,,,,,
KRDR,08-16-2017,10:56,METAR,Normal,120,6,,,9999.0,,17.5,16.5,29.86,1011.4,,,,,,,,,,,TRACE,,,,,1800.0,1800.0,BKN,1800.0,OVC,2700.0,,,,
KRDR,08-16-2017,10:07,SPECI,Normal,100,5,,,9999.0,,18.0,17.0,29.86,1011.4,,,,,,,,,,,,,,,,1700.0,1700.0,BKN,1700.0,BKN,2400.0,OVC,6500.0,,
KRDR,08-16-2017,10:06,SPECI,Normal,110,5,,,9999.0,Light Drizzle,18.0,17.0,29.86,1011.4,51,,,,,,,,,,,,,,,1700.0,1700.0,BKN,1700.0,BKN,2400.0,OVC,6500.0,,
KRDR,08-16-2017,10:01,SPECI,Normal,110,5,,,9999.0,Light Drizzle,18.0,17.0,29.86,1011.4,51,,,,,,,,,,,,,,,1800.0,1800.0,SCT,1800.0,BKN,2600.0,OVC,6500.0,,
KRDR,08-16-2017,09:56,METAR,Normal,110,5,,,9999.0,Light Drizzle,17.5,16.8,29.87,1011.8,51,,,,,,,,,,TRACE,,,,,6500.0,1800.0,SCT,1800.0,SCT,2700.0,OVC,6500.0,,
KRDR,08-16-2017,09:53,SPECI,Normal,110,5,,,9999.0,Light Drizzle,18.0,17.0,29.87,1011.8,51,,,,,,,,,,,,,,,6500.0,1800.0,SCT,1800.0,OVC,6500.0,,,,
KRDR,08-16-2017,08:56,METAR,Normal,120,5,,,9999.0,,17.7,16.5,29.87,1011.8,,,,,,,,,,,,.07 IN,,,,7000.0,7000.0,OVC,7000.0,,,,,,
KRDR,08-16-2017,07:56,METAR,Normal,100,5,,,9999.0,,17.7,16.7,29.87,1011.8,,,,,,,,,,,TRACE,,,,,7000.0,7000.0,OVC,7000.0,,,,,,
KRDR,08-16-2017,07:05,SPECI,Normal,100,4,,,9999.0,,18.0,17.0,29.88,1012.1,,,,,,,,,,,,,,,,7500.0,7500.0,OVC,7500.0,,,,,,
KRDR,08-16-2017,06:56,METAR,Normal,110,4,,,9999.0,Light Rain,17.8,16.8,29.88,1012.1,61,,,,,,,,,,.07 IN,,,,,7500.0,7500.0,OVC,7500.0,,,,,,
KRDR,08-16-2017,05:56,METAR,Normal,100,4,,,9999.0,Light Rain,18.2,16.9,29.89,1012.4,61,,,,,,,,,,.02 IN,,.03 IN,,,8000.0,8000.0,OVC,8000.0,,,,,,
KRDR,08-16-2017,05:29,SPECI,Normal,80,4,,,9999.0,Light Rain,18.0,17.0,29.88,1012.1,61,,,,,,,,,,,,,,,8500.0,8500.0,OVC,8600.0,,,,,,
KRDR,08-16-2017,04:56,METAR,Normal,350,3,,,9999.0,,17.4,16.7,29.89,1012.5,,,,,,,,,,,,,,,,6000.0,6000.0,BKN,6000.0,OVC,8600.0,,,,
KRDR,08-16-2017,03:56,METAR,Calm,,0,,,9999.0,,18.7,16.1,29.88,1012.1,,,,,,,,,,,,,,,,8000.0,8000.0,OVC,8000.0,,,,,,
KRDR,08-16-2017,02:56,METAR,Normal,100,3,,,9999.0,,18.8,16.4,29.88,1012.1,,,,,,,,,,,,.01 IN,,,,10000.0,8000.0,SCT,8000.0,OVC,10000.0,,,,
KRDR,08-16-2017,01:56,METAR,Normal,60,5,,,9999.0,,18.6,16.7,29.87,1011.8,,,,,,,,,,,TRACE,,,,,10000.0,10000.0,BKN,10000.0,,,,,,
KRDR,08-16-2017,01:22,SPECI,Normal,70,5,,,9999.0,,19.0,17.0,29.87,1011.9,,,,,,,,,,,,,,,,9000.0,9000.0,OVC,9100.0,,,,,,
KRDR,08-16-2017,01:10,SPECI,Normal,60,3,,,9999.0,Light Drizzle,19.0,17.0,29.88,1012.3,51,,,,,,,,,,,,,,,9000.0,9000.0,OVC,9100.0,,,,,,
KRDR,08-16-2017,01:08,SPECI,Normal,70,3,,,9999.0,,19.0,17.0,29.88,1012.3,,,,,,,,,,,,,,,,9000.0,9000.0,BKN,9100.0,,,,,,
KRDR,08-16-2017,00:56,METAR,Normal,70,3,,,9999.0,Light Drizzle,19.2,17.0,29.88,1012.3,51,,,,,,,,,,.01 IN,,,,,8500.0,6000.0,FEW,6000.0,BKN,8600.0,BKN,11000.0,,
KRDR,08-16-2017,00:52,SPECI,Normal,60,3,,,9999.0,Light Drizzle,19.0,17.0,29.88,1012.3,51,,,,,,,,,,,,,,,8500.0,6000.0,FEW,6000.0,BKN,8600.0,,,,
KRDR,08-16-2017,00:50,SPECI,Normal,70,3,,,9999.0,,19.0,17.0,29.88,1012.3,,,,,,,,,,,,,,,,8500.0,6000.0,FEW,6000.0,BKN,8600.0,BKN,10000.0,,
KRDR,08-15-2017,23:56,METAR,Normal,190,4,,,9999.0,Light Rain,19.8,16.2,29.90,1013.1,61,,,,,,,,,,.01 IN,,.01 IN,,,9000.0,9000.0,OVC,9100.0,,,,,,
KRDR,08-15-2017,23:33,SPECI,Normal,170,7,,,9999.0,Light Rain,21.0,15.0,29.91,1013.4,61,,,,,,,,,,,,,,,9000.0,9000.0,OVC,9100.0,,,,,,
KRDR,08-15-2017,22:56,METAR,Normal,160,9,,,9999.0,,22.0,14.4,29.90,1013.0,,,,,,,,,,,,,,,,9000.0,9000.0,OVC,9100.0,,,,,,
KRDR,08-15-2017,21:56,METAR,Normal,160,6,,,9999.0,,21.9,15.5,29.90,1013.0,,,,,,,,,,,,,,,,8500.0,8500.0,OVC,8600.0,,,,,,
KRDR,08-15-2017,20:56,METAR,Normal,170,11,,,9999.0,,22.8,15.1,29.90,1012.9,,,,,,,,,,,,TRACE,,,,9000.0,9000.0,OVC,9100.0,,,,,,
KRDR,08-15-2017,16:56,METAR,Normal,170,9,,,9999.0,,23.4,16.4,29.92,1013.5,,,,,,,,,,,,,,,,20000.0,3000.0,FEW,3000.0,SCT,15000.0,BKN,20000.0,,
KRDR,08-15-2017,15:56,METAR,Normal,160,9,,,9999.0,,21.2,16.4,29.93,1013.9,,,,,,,,,,,,,,,,13000.0,13000.0,OVC,13000.0,,,,,,
KRDR,08-15-2017,14:56,METAR,Normal,170,7,,,9999.0,,21.5,16.7,29.93,1013.8,,,,,,,,,,,,,,,,17000.0,12000.0,FEW,12000.0,OVC,17000.0,,,,
KRDR,08-15-2017,13:56,METAR,Normal,180,5,,,9999.0,,18.1,16.6,29.93,1013.9,,,,,,,,,,,,,,,,20000.0,10000.0,FEW,10000.0,SCT,12000.0,BKN,20000.0,,
KRDR,08-15-2017,12:56,METAR,Normal,200,3,,,9999.0,,14.3,14.3,29.92,1013.5,,,,,,,,,,,,,,,Clear,72000.0,,,,,,,,,
KRDR,08-15-2017,11:56,METAR,Calm,,0,,,9999.0,,11.4,11.2,29.90,1012.9,,,,,,,,,,,,,,,Clear,72000.0,,,,,,,,,
KRDR,08-15-2017,10:56,METAR,Normal,160,3,,,9999.0,,12.2,12.0,29.90,1012.9,,,,,,,,,,,,,,,Clear,72000.0,,,,,,,,,
KRDR,08-15-2017,09:56,METAR,Calm,,0,,,9999.0,,12.7,12.5,29.90,1012.8,,,,,,,,,,,,,,,Clear,72000.0,,,,,,,,,
KRDR,08-15-2017,08:56,METAR,Calm,,0,,,9999.0,,12.4,12.2,29.90,1012.9,,,,,,,,,,,,,,,Clear,72000.0,,,,,,,,,
KRDR,08-15-2017,07:56,METAR,Calm,,0,,,9999.0,,12.8,12.6,29.89,1012.5,,,,,,,,,,,,,,,Clear,72000.0,,,,,,,,,
KRDR,08-15-2017,06:56,METAR,Normal,230,3,,,9999.0,,14.0,13.8,29.89,1012.5,,,,,,,,,,,,,,,Clear,72000.0,,,,,,,,,
KRDR,08-15-2017,05:56,METAR,Calm,,0,,,9999.0,,14.6,14.0,29.89,1012.5,,,,,,,,,,,,,,,Clear,72000.0,,,,,,,,,
KRDR,08-15-2017,04:56,METAR,Calm,,0,,,9999.0,,15.5,15.0,29.88,1012.2,,,,,,,,,,,,,,,Clear,72000.0,,,,,,,,,
KRDR,08-15-2017,03:56,METAR,Normal,190,3,,,9999.0,,16.3,15.6,29.86,1011.6,,,,,,,,,,,,,,,Clear,72000.0,,,,,,,,,
KRDR,08-15-2017,02:56,METAR,Normal,220,3,,,9999.0,,17.1,16.6,29.86,1011.6,,,,,,,,,,,,,,,Clear,72000.0,,,,,,,,,
KRDR,08-15-2017,01:56,METAR,Calm,,0,,,9999.0,,19.9,16.9,29.86,1011.6,,,,,,,,,,,,,,,Clear,72000.0,,,,,,,,,
KRDR,08-15-2017,00:56,METAR,Normal,310,3,,,9999.0,,23.3,17.3,29.86,1011.6,,,,,,,,,,,,,,,Clear,72000.0,,,,,,,,,
KRDR,08-14-2017,23:56,METAR,Normal,50,3,,,9999.0,,24.6,14.1,29.85,1011.2,,,,,,,,,,,,,,,Clear,72000.0,,,,,,,,,
KRDR,08-14-2017,22:56,METAR,Normal,60,7,,,9999.0,,25.9,14.0,29.85,1011.2,,,,,,,,,,,,,,,Clear,72000.0,,,,,,,,,
KRDR,08-14-2017,21:56,METAR,Calm,,0,,,9999.0,,26.2,13.6,29.85,1011.2,,,,,,,,,,,,,,,2/8 Mostly Clear,72000.0,4900.0,FEW,4900.0,,,,,,
KRDR,08-14-2017,20:56,METAR,Normal,120,5,,,9999.0,,25.8,13.9,29.86,1011.6,,,,,,,,,,,,,,,Clear,72000.0,,,,,,,,,
KRDR,08-14-2017,19:56,METAR,Normal,50,7,,,9999.0,,26.0,13.8,29.87,1011.9,,,,,,,,,,,,,,,Clear,72000.0,,,,,,,,,
KRDR,08-14-2017,18:56,METAR,Normal,100,5,,,9999.0,,24.9,13.7,29.87,1011.9,,,,,,,,,,,,,,,Clear,72000.0,,,,,,,,,
KRDR,08-14-2017,17:56,METAR,Normal,30,6,,,9999.0,,23.4,14.4,29.89,1012.7,,,,,,,,,,,,,,,Clear,72000.0,,,,,,,,,
KRDR,08-14-2017,16:56,METAR,Calm,,0,,,9999.0,,21.8,14.9,29.89,1012.7,,,,,,,,,,,,,,,Clear,72000.0,,,,,,,,,
KRDR,08-14-2017,15:56,METAR,Calm,,0,,,9999.0,,18.8,18.6,29.90,1013.1,,,,,,,,,,,,,,,Clear,72000.0,,,,,,,,,
KRDR,08-14-2017,15:31,SPECI,Calm,,0,,,9999.0,,18.0,18.0,29.90,1013.1,,,,,,,,,,,,,,,4/8 Partly Cloudy,72000.0,800.0,SCT,800.0,,,,,,
KRDR,08-14-2017,15:21,SPECI,Calm,,0,,,9999.0,,18.0,18.0,29.90,1013.1,,,,,,,,,,,,,,,,500.0,700.0,BKN,700.0,,,,,,
KRDR,08-14-2017,15:06,SPECI,Normal,10,3,,,9999.0,,17.0,17.0,29.90,1013.1,,,,,,,,,,,,,,,,300.0,500.0,OVC,500.0,,,,,,
KRDR,08-14-2017,14:56,METAR,Normal,330,3,,,9999.0,,16.0,16.0,29.90,1013.1,,,,,,,,,,,,,,,,200.0,300.0,OVC,300.0,,,,,,
KRDR,08-14-2017,14:49,SPECI,Calm,,0,,,9999.0,,16.0,16.0,29.90,1013.1,,,,,,,,,,,,,,,,200.0,200.0,BKN,200.0,,,,,,
KRDR,08-14-2017,14:46,SPECI,Calm,,0,,,9999.0,,16.0,16.0,29.90,1013.1,,,,,,,,,,,,,,,,200.0,200.0,BKN,200.0,,,,,,
KRDR,08-14-2017,14:41,SPECI,Calm,,0,,,9999.0,,16.0,16.0,29.90,1013.1,,,,,,,,,,,,,,,,100.0,100.0,OVC,100.0,,,,,,
KRDR,08-14-2017,14:36,SPECI,Calm,,0,,,6400.0,Mist,15.0,15.0,29.90,1013.1,10,,,,,,,,,,,,,,,100.0,100.0,OVC,100.0,,,,,,
KRDR,08-14-2017,14:26,SPECI,Calm,,0,,,2400.0,Mist,15.0,15.0,29.90,1013.1,10,,,,,,,,,,,,,,Sky Obscured (Unable to Estimate),100.0,100.0,,100.0,,,,,,
KRDR,08-14-2017,14:16,SPECI,Calm,,0,,,800.0,Fog,15.0,15.0,29.90,1013.1,30,,,,,,,,,,,,,,Sky Obscured (Unable to Estimate),100.0,100.0,,100.0,,,,,,
KRDR,08-14-2017,14:11,SPECI,Calm,,0,,,600.0,Fog,14.0,14.0,29.90,1013.1,30,,,,,,,,,,,,,,Sky Obscured (Unable to Estimate),100.0,100.0,,100.0,,,,,,
KRDR,08-14-2017,13:56,METAR,Normal,20,3,,,400.0,Fog,13.9,13.9,29.89,1012.7,30,,,,,,,,,,,,,,Sky Obscured (Unable to Estimate),100.0,100.0,,100.0,,,,,,
KRDR,08-14-2017,13:50,SPECI,Calm,,0,,,200.0,Fog or Ice Fog,14.0,14.0,29.89,1012.7,,,,44,,,,,,,,,,,Sky Obscured (Unable to Estimate),100.0,100.0,,100.0,,,,,,
KRDR,08-14-2017,13:46,SPECI,Calm,,0,,,200.0,Fog,14.0,14.0,29.89,1012.7,30,,,,,,,,,,,,,,Sky Obscured (Unable to Estimate),100.0,100.0,,100.0,,,,,,
KRDR,08-14-2017,13:31,SPECI,Calm,,0,,,400.0,Fog or Ice Fog,13.0,13.0,29.89,1012.7,31,,,,,,,,,,,,,,Sky Obscured (Unable to Estimate),200.0,200.0,,200.0,,,,,,
KRDR,08-14-2017,13:25,SPECI,Calm,,0,,,4800.0,Mist,13.0,13.0,29.89,1012.7,,,,10,,,,,,,,,,,,200.0,300.0,OVC,300.0,,,,,,
KRDR,08-14-2017,13:21,SPECI,Calm,,0,,,6400.0,Mist,13.0,13.0,29.89,1012.7,10,,,,,,,,,,,,,,,200.0,300.0,OVC,300.0,,,,,,
KRDR,08-14-2017,13:16,SPECI,Calm,,0,,,4400.0,Mist,13.0,13.0,29.89,1012.7,10,,,,,,,,,,,,,,,200.0,200.0,OVC,200.0,,,,,,
KRDR,08-14-2017,12:56,METAR,Calm,,0,,,9999.0,,11.8,11.8,29.90,1013.1,,,,,,,,,,,,,,,,200.0,200.0,OVC,200.0,,,,,,
KRDR,08-14-2017,12:46,SPECI,Calm,,0,,,9999.0,,11.0,11.0,29.89,1012.7,,,,,,,,,,,,,,,,200.0,200.0,OVC,200.0,,,,,,
KRDR,08-14-2017,12:31,SPECI,Normal,360,3,,,8000.0,Mist,10.0,10.0,29.89,1012.7,10,,,,,,,,,,,,,,,300.0,300.0,BKN,300.0,,,,,,
KRDR,08-14-2017,12:26,SPECI,Calm,,0,,,8000.0,Fog or Ice Fog,10.0,10.0,29.89,1012.7,31,,,,,,,,,,,,,,4/8 Partly Cloudy,72000.0,0.0,FEW,0.0,SCT,300.0,,,,
KRDR,08-14-2017,11:56,METAR,Calm,,0,,,8000.0,Fog or Ice Fog,10.2,10.2,29.88,1012.4,31,,,,,,,,,,,,,.06 IN,2/8 Mostly Clear,72000.0,0.0,FEW,0.0,,,,,,
KRDR,08-14-2017,11:26,SPECI,Calm,,0,,,2000.0,Mist,10.0,10.0,29.88,1012.4,10,,,,,,,,,,,,,,Clear,72000.0,,,,,,,,,
KRDR,08-14-2017,10:56,METAR,Normal,360,4,,,9999.0,,10.3,10.3,29.87,1012.0,,,,,,,,,,,,,,,Clear,72000.0,,,,,,,,,
KRDR,08-14-2017,10:48,SPECI,Normal,360,5,,,4800.0,Mist,10.0,10.0,29.87,1012.0,10,,,,,,,,,,,,,,Clear,72000.0,,,,,,,,,
KRDR,08-14-2017,09:57,METAR,Normal,340,5,,,4800.0,Mist,10.0,9.8,29.88,1012.3,,,,10,,,,,,,,,,,Clear,72000.0,,,,,,,,,
KRDR,08-14-2017,08:56,METAR,Normal,340,5,,,4800.0,Mist,9.9,9.7,29.88,1012.3,,,,10,,,,,,,,,,,Clear,72000.0,,,,,,,,,
KRDR,08-14-2017,07:56,METAR,Normal,340,5,,,9999.0,Mist,9.9,9.7,29.88,1012.3,,,,10,,,,,,,,,,,Clear,72000.0,,,,,,,,,
KRDR,08-14-2017,06:56,METAR,Normal,340,3,,,9999.0,Mist,10.1,9.9,29.87,1012.0,10,,,,,,,,,,,,,,Clear,72000.0,,,,,,,,,
KRDR,08-14-2017,06:55,SPECI,Normal,340,3,,,9999.0,Mist,10.0,10.0,29.87,1012.0,,,,10,,,,,,,,,,,Clear,72000.0,,,,,,,,,
KRDR,08-14-2017,06:41,SPECI,Normal,340,4,,,800.0,Fog,10.0,10.0,29.87,1012.0,30,,,,,,,,,,,,,,Clear,72000.0,,,,,,,,,
KRDR,08-14-2017,06:21,SPECI,Normal,340,3,,,9999.0,Mist,10.0,10.0,29.87,1012.0,,,,10,,,,,,,,,,,Clear,72000.0,,,,,,,,,
KRDR,08-14-2017,06:16,SPECI,Calm,,0,,,800.0,Fog,10.0,10.0,29.87,1012.0,30,,,,,,,,,,,,,,Clear,72000.0,,,,,,,,,
KRDR,08-14-2017,06:11,SPECI,Normal,330,3,,,1000.0,Mist,11.0,10.0,29.87,1012.0,10,,,,,,,,,,,,,,Clear,72000.0,,,,,,,,,
KRDR,08-14-2017,06:06,SPECI,Normal,330,3,,,3000.0,Mist,11.0,10.0,29.87,1012.0,10,,,,,,,,,,,,,,Clear,72000.0,,,,,,,,,
KRDR,08-14-2017,05:56,METAR,Normal,340,3,,,9999.0,,10.7,10.5,29.88,1012.4,,,,,,,,,,,,,,,Clear,72000.0,,,,,,,,,
KRDR,08-14-2017,04:56,METAR,Calm,,0,,,9999.0,,11.7,11.5,29.88,1012.4,,,,,,,,,,,,,,,Clear,72000.0,,,,,,,,,
KRDR,08-14-2017,03:56,METAR,Normal,360,3,,,9999.0,,12.1,11.5,29.88,1012.4,,,,,,,,,,,,,,,Clear,72000.0,,,,,,,,,
KRDR,08-14-2017,02:56,METAR,Normal,130,4,,,9999.0,,16.3,13.2,29.88,1012.3,,,,,,,,,,,,,,,Clear,72000.0,,,,,,,,,
KRDR,08-14-2017,01:56,METAR,Normal,100,5,,,9999.0,,17.8,13.3,29.87,1012.0,,,,,,,,,,,,,,,Clear,72000.0,,,,,,,,,
KRDR,08-14-2017,00:56,METAR,Normal,90,6,,,9999.0,,20.5,12.2,29.87,1011.9,,,,,,,,,,,,,,,Clear,72000.0,,,,,,,,,
KRDR,08-13-2017,23:56,METAR,Normal,80,10,,,9999.0,,22.1,12.1,29.87,1011.8,,,,,,,,,,,,,,,Clear,72000.0,,,,,,,,,
KRDR,08-13-2017,22:56,METAR,Normal,100,10,,,9999.0,,23.1,12.7,29.88,1012.2,,,,,,,,,,,,,,,Clear,72000.0,,,,,,,,,
KRDR,08-13-2017,21:56,METAR,Normal,80,8,15.0,,9999.0,,23.5,13.1,29.90,1012.9,,,,,,,,,,,,,,,2/8 Mostly Clear,72000.0,4900.0,FEW,4900.0,,,,,,
KRDR,08-13-2017,20:56,METAR,Normal,100,12,,,9999.0,,23.1,13.3,29.90,1012.9,,,,,,,,,,,,,,,4/8 Partly Cloudy,72000.0,4200.0,SCT,4200.0,,,,,,
KRDR,08-13-2017,19:56,METAR,Normal,120,7,,,9999.0,,22.9,13.6,29.92,1013.5,,,,,,,,,,,,,,,2/8 Mostly Clear,72000.0,3800.0,FEW,3800.0,,,,,,
KRDR,08-13-2017,18:56,METAR,Normal,80,7,,,9999.0,,22.9,14.4,29.94,1014.2,,,,,,,,,,,,,,,,4100.0,2900.0,FEW,2900.0,BKN,4100.0,BKN,5000.0,,
KRDR,08-13-2017,18:16,SPECI,Normal,120,9,,,9999.0,,22.0,14.0,29.94,1014.2,,,,,,,,,,,,,,,,3900.0,2900.0,SCT,2900.0,OVC,3900.0,,,,
KRDR,08-13-2017,17:56,METAR,Normal,130,6,,,9999.0,,21.4,15.0,29.94,1014.3,,,,,,,,,,,,,.06 IN,,,2600.0,2900.0,BKN,2900.0,BKN,3400.0,OVC,5000.0,,
KRDR,08-13-2017,17:51,SPECI,Normal,90,6,,,9999.0,,22.0,15.0,29.95,1014.6,,,,,,,,,,,,,,,,2600.0,2600.0,BKN,2600.0,BKN,3200.0,OVC,5000.0,,
KRDR,08-13-2017,16:56,METAR,Normal,120,3,,,9999.0,,19.7,15.9,29.95,1014.7,,,,,,,,,,,,,,,,9000.0,9000.0,OVC,9100.0,,,,,,
KRDR,08-13-2017,15:56,METAR,Normal,150,3,,,9999.0,,17.9,16.0,29.97,1015.4,,,,,,,,,,,,,,,,10000.0,6000.0,FEW,6000.0,OVC,10000.0,,,,
KRDR,08-13-2017,14:56,METAR,Normal,140,4,,,9999.0,,17.3,16.0,29.98,1015.8,,,,,,,,,,,,.06 IN,,,,4400.0,4400.0,OVC,4400.0,,,,,,
KRDR,08-13-2017,13:56,METAR,Normal,170,4,,,9999.0,,16.8,16.6,29.98,1015.7,,,,,,,,,,,.01 IN,,,,,4800.0,4800.0,BKN,4800.0,BKN,11000.0,,,,
KRDR,08-13-2017,13:45,SPECI,Normal,200,3,,,9999.0,,17.0,16.0,29.97,1015.3,,,,,,,,,,,,,,,,5000.0,5000.0,BKN,5000.0,BKN,11000.0,,,,
KRDR,08-13-2017,13:34,SPECI,Normal,190,5,,,9999.0,Light Drizzle,16.0,16.0,29.97,1015.3,51,,,,,,,,,,,,,,,5000.0,5000.0,BKN,5000.0,OVC,9600.0,,,,
KRDR,08-13-2017,13:30,SPECI,Normal,200,5,,,9999.0,,16.0,16.0,29.97,1015.3,,,,,,,,,,,,,,,,5000.0,5000.0,OVC,5000.0,,,,,,
KRDR,08-13-2017,13:09,SPECI,Normal,190,5,,,9999.0,Light Rain,16.0,16.0,29.97,1015.3,61,,,,,,,,,,,,,,,5500.0,5500.0,OVC,5500.0,,,,,,
KRDR,08-13-2017,13:00,SPECI,Normal,220,4,,,9999.0,,16.0,15.0,29.97,1015.3,,,,,,,,,,,,,,,,6000.0,6000.0,OVC,6000.0,,,,,,
KRDR,08-13-2017,12:56,METAR,Normal,210,5,,,9999.0,Light Rain,15.6,15.4,29.97,1015.3,61,,,,,,,,,,.05 IN,,,,,6000.0,6000.0,OVC,6000.0,,,,,,
KRDR,08-13-2017,12:01,SPECI,Normal,170,7,,,9999.0,Light Rain,15.0,15.0,29.98,1015.7,61,,,,,,,,,,,,,,,7000.0,300.0,FEW,300.0,SCT,4900.0,OVC,7000.0,,
KRDR,08-13-2017,11:56,METAR,Normal,190,4,,,9999.0,Light Rain/Mist,15.0,14.8,29.98,1015.7,61,10,,,,,,,,,.16 IN,,.17 IN,.17 IN,,6500.0,4900.0,SCT,4900.0,BKN,6500.0,OVC,8000.0,,
KRDR,08-13-2017,11:31,SPECI,Normal,260,4,,,9999.0,Light Rain,15.0,15.0,29.97,1015.3,61,,,,,,,,,,,,,,,6000.0,400.0,SCT,400.0,OVC,6000.0,,,,
KRDR,08-13-2017,11:26,SPECI,Normal,270,4,,,6400.0,Light Rain/Mist,15.0,15.0,29.97,1015.3,61,10,,,,,,,,,,,,,,300.0,300.0,BKN,300.0,OVC,6000.0,,,,
KRDR,08-13-2017,11:21,SPECI,Normal,240,3,,,4400.0,Light Rain/Mist,15.0,15.0,29.97,1015.3,61,10,,,,,,,,,,,,,,300.0,300.0,BKN,300.0,OVC,5500.0,,,,
KRDR,08-13-2017,10:56,METAR,Normal,190,7,,,9999.0,Light Rain,15.5,14.4,29.97,1015.2,61,,,,,,,,,,.01 IN,,,,,5500.0,500.0,FEW,500.0,FEW,4500.0,BKN,5500.0,BKN,7000.0
KRDR,08-13-2017,10:52,SPECI,Calm,,0,,,9999.0,Light Rain,16.0,14.0,29.97,1015.2,61,,,,,,,,,,,,,,,5500.0,500.0,FEW,500.0,BKN,5500.0,BKN,7000.0,OVC,8600.0
KRDR,08-13-2017,10:38,SPECI,Calm,,0,,,9999.0,Light Drizzle,15.0,14.0,29.96,1014.9,51,,,,,,,,,,,,,,,5500.0,5500.0,BKN,5500.0,OVC,8600.0,,,,
KRDR,08-13-2017,10:35,SPECI,Calm,,0,,,9999.0,,15.0,14.0,29.96,1014.9,,,,,,,,,,,,,,,,6000.0,6000.0,BKN,6000.0,OVC,9100.0,,,,
KRDR,08-13-2017,10:11,SPECI,Calm,,0,,,9999.0,Light Rain,15.0,14.0,29.96,1014.9,61,,,,,,,,,,,,,,,10000.0,6000.0,SCT,6000.0,SCT,7500.0,BKN,10000.0,OVC,12000.0
KRDR,08-13-2017,09:56,METAR,Calm,,0,,,9999.0,,14.7,14.1,29.96,1014.9,,,,,,,,,,,,,,,,9000.0,7000.0,SCT,7000.0,BKN,9100.0,,,,
KRDR,08-13-2017,08:56,METAR,Normal,40,3,,,9999.0,,14.2,14.0,29.97,1015.3,,,,,,,,,,,,,,,,10000.0,10000.0,BKN,10000.0,OVC,12000.0,,,,
KRDR,08-13-2017,07:56,METAR,Normal,310,5,,,9999.0,,14.0,13.7,29.98,1015.6,,,,,,,,,,,,,,,,13000.0,6500.0,SCT,6500.0,BKN,13000.0,,,,
KRDR,08-13-2017,06:56,METAR,Calm,,0,,,9999.0,,14.8,14.2,29.99,1015.9,,,,,,,,,,,,,,,,13000.0,13000.0,OVC,13000.0,,,,,,
KRDR,08-13-2017,05:56,METAR,Calm,,0,,,9999.0,,13.9,13.6,30.00,1016.3,,,,,,,,,,,,,,,,14000.0,14000.0,OVC,14000.0,,,,,,
KRDR,08-13-2017,04:56,METAR,Calm,,0,,,9999.0,,13.7,12.6,30.00,1016.3,,,,,,,,,,,,,,,,17000.0,14000.0,FEW,14000.0,BKN,17000.0,,,,
KRDR,08-13-2017,03:56,METAR,Calm,,0,,,9999.0,,14.8,13.8,30.00,1016.3,,,,,,,,,,,,,,,,17000.0,17000.0,BKN,17000.0,,,,,,
KRDR,08-13-2017,02:56,METAR,Calm,,0,,,9999.0,,15.6,14.1,30.01,1016.7,,,,,,,,,,,,,,,2/8 Mostly Clear,72000.0,6000.0,FEW,6000.0,,,,,,
KRDR,08-13-2017,01:56,METAR,Calm,,0,,,9999.0,,19.6,16.0,30.00,1016.3,,,,,,,,,,,,,,,,17000.0,17000.0,OVC,17000.0,,,,,,
KRDR,08-13-2017,00:56,METAR,Calm,,0,,,9999.0,,21.4,16.8,30.00,1016.3,,,,,,,,,,,,,,,Clear,72000.0,,,,,,,,,
KRDR,08-12-2017,23:56,METAR,Calm,,0,,,9999.0,,21.8,16.3,30.02,1017.1,,,,,,,,,,,,,,,Clear,72000.0,,,,,,,,,
KRDR,08-12-2017,22:56,METAR,Normal,230,4,,,9999.0,,23.1,13.3,30.04,1017.8,,,,,,,,,,,,,,,Clear,72000.0,,,,,,,,,
KRDR,08-12-2017,21:56,METAR,Calm,,0,,,9999.0,,23.8,11.5,30.04,1017.8,,,,,,,,,,,,,,,2/8 Mostly Clear,72000.0,20000.0,FEW,20000.0,,,,,,
KRDR,08-12-2017,20:56,METAR,Normal,210,4,,,9999.0,,24.2,11.5,30.07,1018.8,,,,,,,,,,,,,,,Clear,72000.0,,,,,,,,,
KRDR,08-12-2017,19:56,METAR,Normal,140,4,,,9999.0,,24.7,10.5,30.08,1019.1,,,,,,,,,,,,,,,2/8 Mostly Clear,72000.0,16000.0,FEW,16000.0,FEW,20000.0,,,,
KRDR,08-12-2017,18:56,METAR,Normal,160,5,,,9999.0,,24.7,10.9,30.08,1019.1,,,,,,,,,,,,,,,2/8 Mostly Clear,72000.0,18000.0,FEW,18000.0,FEW,21000.0,,,,
KRDR,08-12-2017,17:56,METAR,Normal,140,4,,,9999.0,,24.4,10.3,30.10,1019.7,,,,,,,,,,,,,,,2/8 Mostly Clear,72000.0,20000.0,FEW,20000.0,,,,,,
KRDR,08-12-2017,16:56,METAR,Calm,,0,,,9999.0,,24.8,12.4,30.11,1020.0,,,,,,,,,,,,,,,Clear,72000.0,,,,,,,,,
KRDR,08-12-2017,15:56,METAR,Calm,,0,,,9999.0,,21.8,12.6,30.11,1020.1,,,,,,,,,,,,,,,Clear,72000.0,,,,,,,,,
KRDR,08-12-2017,14:56,METAR,Normal,110,3,,,9999.0,,20.8,12.7,30.11,1020.1,,,,,,,,,,,,,,,Clear,72000.0,,,,,,,,,
KRDR,08-12-2017,13:56,METAR,Calm,,0,,,9999.0,,18.1,11.2,30.11,1020.1,,,,,,,,,,,,,,,Clear,72000.0,,,,,,,,,
KRDR,08-12-2017,12:56,METAR,Normal,50,3,,,9999.0,,15.2,12.5,30.11,1020.0,,,,,,,,,,,,,,,Clear,72000.0,,,,,,,,,
KRDR,08-12-2017,11:56,METAR,Calm,,0,,,9999.0,,9.6,9.1,30.11,1020.1,,,,,,,,,,,,,,,Clear,72000.0,,,,,,,,,
KRDR,08-12-2017,10:56,METAR,Normal,240,3,,,9999.0,,9.0,8.4,30.10,1019.8,,,,,,,,,,,,,,,Clear,72000.0,,,,,,,,,
KRDR,08-12-2017,09:56,METAR,Calm,,0,,,9999.0,,10.0,9.2,30.10,1019.7,,,,,,,,,,,,,,,Clear,72000.0,,,,,,,,,
KRDR,08-12-2017,08:56,METAR,Calm,,0,,,9999.0,,9.5,8.4,30.10,1019.7,,,,,,,,,,,,,,,Clear,72000.0,,,,,,,,,
KRDR,08-12-2017,07:56,METAR,Normal,240,3,,,9999.0,,10.3,9.7,30.10,1019.7,,,,,,,,,,,,,,,Clear,72000.0,,,,,,,,,
KRDR,08-12-2017,06:56,METAR,Normal,250,4,,,9999.0,,10.7,9.9,30.10,1019.7,,,,,,,,,,,,,,,Clear,72000.0,,,,,,,,,
KRDR,08-12-2017,05:56,METAR,Calm,,0,,,9999.0,,11.2,9.9,30.10,1019.7,,,,,,,,,,,,,,,Clear,72000.0,,,,,,,,,
KRDR,08-12-2017,04:56,METAR,Calm,,0,,,9999.0,,12.4,10.8,30.09,1019.4,,,,,,,,,,,,,,,Clear,72000.0,,,,,,,,,
KRDR,08-12-2017,03:56,METAR,Calm,,0,,,9999.0,,13.7,11.0,30.09,,,,,,,,,,,,,,,,Clear,72000.0,,,,,,,,,
KRDR,08-12-2017,02:56,METAR,Normal,280,3,,,9999.0,,14.1,11.4,30.08,,,,,,,,,,,,,,,,Clear,72000.0,,,,,,,,,
KRDR,08-12-2017,01:56,METAR,Calm,,0,,,9999.0,,18.6,12.1,30.09,1019.4,,,,,,,,,,,,,,,Clear,72000.0,,,,,,,,,
KRDR,08-12-2017,00:56,METAR,Normal,40,3,,,9999.0,,23.7,8.9,30.09,1019.3,,,,,,,,,,,,,,,Clear,72000.0,,,,,,,,,
KRDR,08-11-2017,23:56,METAR,Normal,30,4,,,9999.0,,25.0,8.9,30.10,1019.8,,,,,,,,,,,,,,,Clear,72000.0,,,,,,,,,
KRDR,08-11-2017,22:56,METAR,Calm,,0,,,9999.0,,26.0,8.5,30.10,1019.8,,,,,,,,,,,,,,,Clear,72000.0,,,,,,,,,
KRDR,08-11-2017,21:56,METAR,Normal,60,5,,,9999.0,,26.3,8.3,30.11,1020.1,,,,,,,,,,,,,,,4/8 Partly Cloudy,72000.0,7000.0,SCT,7000.0,,,,,,
KRDR,08-11-2017,19:56,METAR,Calm,,0,,,9999.0,,26.2,9.5,30.14,1021.1,,,,,,,,,,,,,,,Clear,72000.0,,,,,,,,,
KRDR,08-11-2017,18:56,METAR,Normal,340,6,,,9999.0,,25.6,9.0,30.14,1021.0,,,,,,,,,,,,,,,Clear,72000.0,,,,,,,,,
KRDR,08-11-2017,17:57,METAR,Calm,,0,,,9999.0,,25.4,9.6,30.16,1021.8,,,,,,,,,,,,,,,Clear,72000.0,,,,,,,,,
KRDR,08-11-2017,17:56,METAR,Normal,330,8,,,9999.0,,25.4,9.6,30.15,1021.4,,,,,,,,,,,,,,,Clear,72000.0,,,,,,,,,
KRDR,08-11-2017,16:57,METAR,Variable,,3,,,9999.0,,24.9,10.0,30.17,1022.1,,,,,,,,,,,,,,,2/8 Mostly Clear,72000.0,5000.0,FEW,5000.0,FEW,12000.0,,,,
KRDR,08-11-2017,16:56,METAR,Normal,310,3,,,,,24.7,9.8,30.17,1022.1,,,,,,,,,,,,,,,,,,,,,,,,,
KRDR,08-11-2017,15:58,METAR,Normal,350,2,,,9999.0,,24.0,10.0,30.22,,,,,,,,,,,,,,,,2/8 Mostly Clear,72000.0,5000.0,FEW,5000.0,FEW,10000.0,,,,
KRDR,08-11-2017,14:58,METAR,Normal,330,3,,,9999.0,,22.0,14.0,30.20,,,,,,,,,,,,,,,,2/8 Mostly Clear,72000.0,3000.0,FEW,3000.0,FEW,7000.0,FEW,12000.0,,
KRDR,08-11-2017,13:56,METAR,Normal,340,3,,,9999.0,,17.5,11.5,30.18,1022.5,,,,,,,,,,,,,,,Clear,72000.0,,,,,,,,,
KRDR,08-11-2017,12:56,METAR,Calm,,0,,,9999.0,,13.5,11.9,30.17,1022.1,,,,,,,,,,,,,,,Clear,72000.0,,,,,,,,,
KRDR,08-11-2017,11:56,METAR,Normal,310,3,,,9999.0,,8.5,8.4,30.16,1021.9,,,,,,,,,,,,,,,Clear,72000.0,,,,,,,,,
KRDR,08-11-2017,10:56,METAR,Normal,310,3,,,9999.0,,8.6,8.4,30.15,1021.5,,,,,,,,,,,,,,,Clear,72000.0,,,,,,,,,
KRDR,08-11-2017,09:56,METAR,Normal,300,3,,,9999.0,,8.7,8.2,30.15,1021.5,,,,,,,,,,,,,,,Clear,72000.0,,,,,,,,,
KRDR,08-11-2017,08:56,METAR,Normal,310,4,,,9999.0,,9.3,8.7,30.14,1021.1,,,,,,,,,,,,,,,Clear,72000.0,,,,,,,,,
KRDR,08-11-2017,07:56,METAR,Calm,,0,,,9999.0,,10.3,9.2,30.13,1020.8,,,,,,,,,,,,,,,Clear,72000.0,,,,,,,,,
KRDR,08-11-2017,06:56,METAR,Calm,,0,,,9999.0,,11.3,9.9,30.14,1021.1,,,,,,,,,,,,,,,Clear,72000.0,,,,,,,,,
KRDR,08-11-2017,05:56,METAR,Calm,,0,,,9999.0,,12.0,10.4,30.14,1021.1,,,,,,,,,,,,,,,Clear,72000.0,,,,,,,,,
KRDR,08-11-2017,04:56,METAR,Normal,310,4,,,9999.0,,12.9,11.0,30.14,1021.1,,,,,,,,,,,,,,,Clear,72000.0,,,,,,,,,
KRDR,08-11-2017,03:56,METAR,Normal,320,3,,,9999.0,,13.0,11.2,30.14,1021.2,,,,,,,,,,,,,,,Clear,72000.0,,,,,,,,,
KRDR,08-11-2017,02:56,METAR,Normal,330,3,,,9999.0,,15.1,11.5,30.14,1021.1,,,,,,,,,,,,,,,Clear,72000.0,,,,,,,,,
KRDR,08-11-2017,01:56,METAR,Normal,340,4,,,9999.0,,17.5,12.6,30.13,1020.8,,,,,,,,,,,,,,,Clear,72000.0,,,,,,,,,
KRDR,08-11-2017,00:56,METAR,Normal,30,5,,,9999.0,,22.3,11.4,30.12,1020.4,,,,,,,,,,,,,,,2/8 Mostly Clear,72000.0,9000.0,FEW,9100.0,,,,,,
KRDR,08-10-2017,23:56,METAR,Normal,10,8,,,9999.0,,25.0,11.2,30.12,1020.3,,,,,,,,,,,,,,,4/8 Partly Cloudy,72000.0,6000.0,SCT,6000.0,SCT,8600.0,,,,
KRDR,08-10-2017,22:56,METAR,Normal,40,10,,,9999.0,,24.5,11.1,30.12,1020.3,,,,,,,,,,,,,,,,6000.0,6000.0,BKN,6000.0,BKN,7000.0,,,,
KRDR,08-10-2017,21:56,METAR,Normal,20,8,,,9999.0,,25.1,11.3,30.11,1020.0,,,,,,,,,,,,,,,4/8 Partly Cloudy,72000.0,6000.0,SCT,6000.0,SCT,8000.0,,,,
KRDR,08-10-2017,20:56,METAR,Normal,30,7,,,9999.0,,25.7,9.1,30.12,1020.2,,,,,,,,,,,,,,,,7000.0,7000.0,BKN,7000.0,,,,,,
KRDR,08-10-2017,19:56,METAR,Normal,20,8,15.0,,9999.0,,24.9,10.0,30.12,1020.2,,,,,,,,,,,,,,,2/8 Mostly Clear,72000.0,6500.0,FEW,6500.0,,,,,,
KRDR,08-10-2017,18:56,METAR,Normal,50,12,17.0,,9999.0,,24.3,11.6,30.12,1020.3,,,,,,,,,,,,,,,2/8 Mostly Clear,72000.0,5500.0,FEW,5500.0,,,,,,
KRDR,08-10-2017,17:56,METAR,Normal,50,9,15.0,,9999.0,,24.3,13.5,30.11,1020.0,,,,,,,,,,,,,,,4/8 Partly Cloudy,72000.0,4500.0,SCT,4500.0,,,,,,
KRDR,08-10-2017,16:56,METAR,Normal,30,11,15.0,,9999.0,,22.3,14.1,30.11,1020.0,,,,,,,,,,,,,,,2/8 Mostly Clear,72000.0,3200.0,FEW,3200.0,,,,,,
KRDR,08-10-2017,15:56,METAR,Normal,50,11,,,9999.0,,21.5,14.9,30.10,1019.7,,,,,,,,,,,,,,,2/8 Mostly Clear,72000.0,2300.0,FEW,2300.0,,,,,,
KRDR,08-10-2017,14:56,METAR,Normal,10,9,,,9999.0,,20.0,15.6,30.10,1019.7,,,,,,,,,,,,,,,2/8 Mostly Clear,72000.0,1700.0,FEW,1700.0,,,,,,
KRDR,08-10-2017,14:41,SPECI,Normal,30,9,,,9999.0,,20.0,16.0,30.10,1019.7,,,,,,,,,,,,,,,4/8 Partly Cloudy,72000.0,1300.0,SCT,1300.0,SCT,1900.0,,,,
KRDR,08-10-2017,14:36,SPECI,Normal,20,8,,,9999.0,,19.0,16.0,30.10,1019.7,,,,,,,,,,,,,,,,1300.0,1300.0,BKN,1300.0,,,,,,
KRDR,08-10-2017,14:26,SPECI,Normal,10,9,,,9999.0,,20.0,16.0,30.10,1019.7,,,,,,,,,,,,,,,,9000.0,1300.0,SCT,1300.0,BKN,9100.0,,,,
KRDR,08-10-2017,14:21,SPECI,Normal,360,9,,,9999.0,,19.0,16.0,30.10,1019.7,,,,,,,,,,,,,,,,1300.0,1300.0,BKN,1300.0,BKN,9100.0,,,,
KRDR,08-10-2017,13:56,METAR,Normal,20,8,,,9999.0,,17.5,15.5,30.09,1019.4,,,,,,,,,,,,,,,,9000.0,900.0,FEW,900.0,BKN,9100.0,,,,
KRDR,08-10-2017,12:56,METAR,Normal,360,8,,,9999.0,,16.3,16.3,30.08,1019.1,,,,,,,,,,,,,,,,11000.0,600.0,SCT,600.0,BKN,11000.0,,,,
KRDR,08-10-2017,12:09,SPECI,Normal,340,7,,,9999.0,,15.0,15.0,30.07,1018.8,,,,,,,,,,,,,,,,11000.0,700.0,FEW,700.0,FEW,2300.0,BKN,11000.0,,
KRDR,08-10-2017,11:56,METAR,Normal,340,8,,,9999.0,,15.1,15.1,30.07,1018.8,,,,,,,,,,,,,,.05 IN,4/8 Partly Cloudy,72000.0,11000.0,SCT,11000.0,,,,,,
KRDR,08-10-2017,11:36,SPECI,Normal,350,8,,,9999.0,,15.0,15.0,30.06,1018.4,,,,,,,,,,,,,,,,10000.0,400.0,SCT,400.0,BKN,10000.0,,,,
KRDR,08-10-2017,11:21,SPECI,Normal,340,7,,,9999.0,,15.0,15.0,30.06,1018.4,,,,,,,,,,,,,,,,400.0,400.0,OVC,400.0,,,,,,
KRDR,08-10-2017,10:56,METAR,Normal,340,8,,,9999.0,,15.7,15.7,30.05,1018.0,,,,,,,,,,,,,,,,500.0,500.0,OVC,500.0,,,,,,
KRDR,08-10-2017,10:51,SPECI,Normal,350,8,,,9999.0,,16.0,16.0,30.05,1018.0,,,,,,,,,,,,,,,,500.0,500.0,BKN,500.0,OVC,13000.0,,,,
KRDR,08-10-2017,10:36,SPECI,Normal,360,6,,,9999.0,,15.0,15.0,30.05,1018.1,,,,,,,,,,,,,,,,500.0,600.0,BKN,600.0,OVC,13000.0,,,,
KRDR,08-10-2017,10:21,SPECI,Normal,350,6,,,9999.0,,16.0,16.0,30.04,1017.6,,,,,,,,,,,,,,,,13000.0,500.0,SCT,500.0,OVC,13000.0,,,,
KRDR,08-10-2017,09:56,METAR,Normal,340,6,,,9999.0,,15.7,15.7,30.04,1017.6,,,,,,,,,,,,,,,,600.0,600.0,OVC,600.0,,,,,,
KRDR,08-10-2017,09:31,SPECI,Normal,360,7,,,9999.0,,15.0,15.0,30.04,1017.6,,,,,,,,,,,,,,,,500.0,600.0,BKN,600.0,,,,,,
KRDR,08-10-2017,09:21,SPECI,Normal,350,7,,,9999.0,,15.0,15.0,30.04,1017.6,,,,,,,,,,,,,,,,500.0,500.0,BKN,500.0,,,,,,
KRDR,08-10-2017,09:16,SPECI,Normal,350,7,,,9999.0,,16.0,15.0,30.04,1017.6,,,,,,,,,,,,,,,,13000.0,500.0,SCT,500.0,BKN,13000.0,,,,
KRDR,08-10-2017,09:11,SPECI,Normal,360,6,,,9999.0,,16.0,16.0,30.04,1017.6,,,,,,,,,,,,,,,,500.0,500.0,BKN,500.0,BKN,12000.0,,,,
KRDR,08-10-2017,08:56,METAR,Normal,350,7,,,9999.0,,15.8,15.6,30.03,1017.3,,,,,,,,,,,,,,,,600.0,600.0,BKN,600.0,BKN,7000.0,OVC,12000.0,,
KRDR,08-10-2017,08:41,SPECI,Normal,350,8,,,9999.0,,16.0,16.0,30.03,1017.3,,,,,,,,,,,,,,,,600.0,600.0,BKN,600.0,OVC,7000.0,,,,
KRDR,08-10-2017,07:56,METAR,Normal,360,9,,,9999.0,,16.0,15.8,30.02,1016.9,,,,,,,,,,,,,,,,700.0,700.0,OVC,700.0,,,,,,
KRDR,08-10-2017,07:33,SPECI,Normal,360,8,,,9999.0,,16.0,16.0,30.02,1016.9,,,,,,,,,,,,,,,,600.0,600.0,BKN,600.0,OVC,7000.0,,,,
KRDR,08-10-2017,07:18,SPECI,Normal,350,10,,,9999.0,,16.0,16.0,30.02,1016.9,,,,,,,,,,,,,,,,7000.0,700.0,FEW,700.0,OVC,7000.0,,,,
KRDR,08-10-2017,06:56,METAR,Normal,350,8,,,9999.0,,15.7,15.2,30.02,1016.9,,,,,,,,,,,,,,,,10000.0,7000.0,SCT,7000.0,BKN,10000.0,OVC,16000.0,,
KRDR,08-10-2017,05:56,METAR,Normal,360,7,,,9999.0,,16.1,15.0,30.01,1016.6,,,,,,,,,,,,,.01 IN,,,7500.0,1000.0,FEW,1000.0,OVC,7500.0,,,,
KRDR,08-10-2017,05:44,SPECI,Normal,350,8,,,9999.0,,16.0,15.0,30.01,1016.6,,,,,,,,,,,,,,,,7500.0,1000.0,SCT,1000.0,SCT,2100.0,OVC,7500.0,,
KRDR,08-10-2017,05:14,SPECI,Normal,10,8,,,9999.0,,16.0,15.0,30.01,1016.6,,,,,,,,,,,,,,,,1900.0,1100.0,FEW,1100.0,OVC,2100.0,,,,
KRDR,08-10-2017,04:56,METAR,Normal,360,8,,,9999.0,,16.3,15.2,30.01,1016.6,,,,,,,,,,,,,,,,2200.0,1900.0,FEW,1900.0,BKN,2400.0,OVC,5500.0,,
KRDR,08-10-2017,03:56,METAR,Normal,360,8,,,9999.0,,16.6,14.8,29.99,1015.9,,,,,,,,,,,,,,,,5500.0,5500.0,BKN,5500.0,OVC,7500.0,,,,
KRDR,08-10-2017,02:56,METAR,Normal,20,12,,,9999.0,,17.1,15.3,29.97,1015.3,,,,,,,,,,,TRACE,.01 IN,,,,14000.0,11000.0,FEW,11000.0,BKN,14000.0,BKN,18000.0,OVC,22000.0
KRDR,08-10-2017,01:57,SPECI,Normal,360,6,,,9999.0,,18.0,16.0,29.96,1015.0,,,,,,,,,,,,,,,,10000.0,3100.0,FEW,3100.0,FEW,5500.0,OVC,10000.0,,
KRDR,08-10-2017,01:56,METAR,Normal,10,6,,,9999.0,Light Drizzle,17.8,15.6,29.96,1015.0,51,,,,,,,,,,TRACE,,,,,10000.0,3100.0,FEW,3100.0,FEW,5500.0,OVC,10000.0,,
KRDR,08-10-2017,01:48,SPECI,Normal,10,6,,,9999.0,Light Drizzle,18.0,16.0,29.96,1015.0,51,,,,,,,,,,,,,,,10000.0,3100.0,FEW,3100.0,BKN,10000.0,,,,
KRDR,08-10-2017,01:47,SPECI,Normal,10,6,,,9999.0,,18.0,16.0,29.96,1015.0,,,,,,,,,,,,,,,,10000.0,3100.0,FEW,3100.0,BKN,10000.0,,,,
KRDR,08-10-2017,01:31,SPECI,Normal,10,6,,,9999.0,Light Drizzle,19.0,16.0,29.95,1014.6,51,,,,,,,,,,,,,,,10000.0,3100.0,SCT,3100.0,BKN,10000.0,,,,
KRDR,08-10-2017,00:56,METAR,Normal,30,7,,,9999.0,,19.8,15.2,29.96,1015.0,,,,,,,,,,,.01 IN,,,,,11000.0,3600.0,FEW,3600.0,SCT,9600.0,BKN,11000.0,,
KRDR,08-10-2017,00:16,SPECI,Normal,30,7,,,9999.0,,20.0,17.0,29.95,1014.6,,,,,,,,,,,,,,,,4200.0,2500.0,FEW,2500.0,FEW,3000.0,BKN,4200.0,BKN,10000.0
KRDR,08-10-2017,00:06,SPECI,Normal,10,6,,,9999.0,Light Rain,19.0,17.0,29.95,1014.6,61,,,,,,,,,,,,,,,3100.0,2500.0,SCT,2500.0,BKN,3100.0,BKN,3800.0,OVC,10000.0
KRDR,08-09-2017,23:56,METAR,Normal,20,6,,,9999.0,Light Rain,18.3,16.3,29.94,1014.4,61,,,,,,,,,,TRACE,,TRACE,,,2500.0,2600.0,BKN,2600.0,BKN,3300.0,BKN,10000.0,,
KRDR,08-09-2017,23:48,SPECI,Normal,10,5,,,9999.0,Light Rain,18.0,16.0,29.95,1014.7,61,,,,,,,,,,,,,,,2400.0,2600.0,BKN,2600.0,BKN,3100.0,OVC,10000.0,,
KRDR,08-09-2017,23:38,SPECI,Normal,330,6,,,9999.0,Light Rain,18.0,15.0,29.95,1014.7,61,,,,,,,,,,,,,,,2600.0,2600.0,BKN,2600.0,OVC,3100.0,,,,
KRDR,08-09-2017,23:33,SPECI,Normal,310,5,,,9999.0,Light Rain,19.0,15.0,29.95,1014.6,61,,,,,,,,,,,,,,,3000.0,2500.0,SCT,2500.0,BKN,3000.0,BKN,3600.0,OVC,9600.0
KRDR,08-09-2017,23:08,SPECI,Normal,320,7,,,9999.0,Light Drizzle,19.0,15.0,29.95,1014.6,51,,,,,,,,,,,,,,,10000.0,2700.0,FEW,2700.0,FEW,3600.0,BKN,10000.0,,
KRDR,08-09-2017,22:56,METAR,Normal,340,7,,,9999.0,,19.4,14.8,29.94,1014.3,,,,,,,,,,,TRACE,,,,4/8 Partly Cloudy,72000.0,2600.0,SCT,2600.0,SCT,10000.0,,,,
KRDR,08-09-2017,22:28,SPECI,Normal,340,8,,,9999.0,,21.0,17.0,29.93,1013.9,,,,,,,,,,,,,,,,2700.0,2700.0,BKN,2700.0,,,,,,
KRDR,08-09-2017,22:25,SPECI,Normal,350,9,,,9999.0,Light Rain,21.0,17.0,29.93,1013.9,61,,,,,,,,,,,,,,,2700.0,2700.0,BKN,2700.0,,,,,,
KRDR,08-09-2017,22:10,SPECI,Normal,20,9,,,9999.0,Light Rain,22.0,17.0,29.93,1013.9,61,,,,,,,,,,,,,,2/8 Mostly Clear,72000.0,2700.0,FEW,2700.0,,,,,,
KRDR,08-09-2017,21:56,METAR,Normal,20,8,,,9999.0,,21.8,16.1,29.93,1013.9,,,,,,,,,,,,,,,2/8 Mostly Clear,72000.0,19000.0,FEW,19000.0,,,,,,
KRDR,08-09-2017,20:56,METAR,Normal,20,7,,,9999.0,,22.8,16.3,29.94,1014.2,,,,,,,,,,,,,,,,15000.0,5500.0,FEW,5500.0,SCT,7500.0,SCT,12000.0,BKN,15000.0
KRDR,08-09-2017,19:56,METAR,Calm,,0,,,9999.0,,23.9,15.6,29.93,1013.8,,,,,,,,,,,,,,,,7000.0,3500.0,FEW,3500.0,BKN,7000.0,,,,
KRDR,08-09-2017,18:56,METAR,Normal,120,3,,,9999.0,,23.5,15.3,29.94,1014.2,,,,,,,,,,,,,,,,11000.0,3300.0,SCT,3300.0,BKN,11000.0,OVC,13000.0,,
KRDR,08-09-2017,17:56,METAR,Calm,,0,,,9999.0,,22.8,15.1,29.95,1014.5,,,,,,,,,,,,,.04 IN,,,10000.0,10000.0,BKN,10000.0,BKN,14000.0,,,,
KRDR,08-09-2017,16:56,METAR,Normal,220,4,,,9999.0,,22.3,15.1,29.95,1014.5,,,,,,,,,,,,,,,,14000.0,14000.0,BKN,14000.0,BKN,17000.0,BKN,20000.0,,
KRDR,08-09-2017,15:56,METAR,Normal,110,6,,,9999.0,,21.1,15.8,29.96,1014.9,,,,,,,,,,,,,,,2/8 Mostly Clear,72000.0,15000.0,FEW,15000.0,,,,,,
KRDR,08-09-2017,14:56,METAR,Normal,110,3,,,9999.0,,18.4,15.8,29.96,1014.9,,,,,,,,,,,,.04 IN,,,,11000.0,11000.0,BKN,11000.0,,,,,,
KRDR,08-09-2017,13:56,METAR,Normal,350,6,,,9999.0,,16.9,16.1,29.97,1015.2,,,,,,,,,,,.01 IN,,,,4/8 Partly Cloudy,72000.0,4500.0,FEW,4500.0,FEW,8000.0,SCT,13000.0,,
KRDR,08-09-2017,13:42,SPECI,Normal,300,6,,,9999.0,,17.0,16.0,29.96,1014.9,,,,,,,,,,,,,,,,8000.0,3200.0,FEW,3200.0,FEW,4500.0,SCT,6000.0,BKN,8000.0
KRDR,08-09-2017,12:56,METAR,Normal,220,6,,,9999.0,Light Rain,16.3,15.2,29.97,1015.2,61,,,,,,,,,,.03 IN,,,,,9000.0,7000.0,FEW,7000.0,OVC,9100.0,,,,
KRDR,08-09-2017,12:30,SPECI,Normal,200,6,,,9999.0,Light Rain,17.0,15.0,29.97,1015.1,61,,,,,,,,,,,,,,,6500.0,6500.0,BKN,6500.0,BKN,7500.0,BKN,10000.0,OVC,12000.0
KRDR,08-09-2017,11:56,METAR,Normal,190,9,,,9999.0,,16.3,14.6,29.96,1014.8,,,,,,,,,,,,,,,4/8 Partly Cloudy,72000.0,10000.0,SCT,10000.0,,,,,,
KRDR,08-09-2017,10:56,METAR,Calm,,0,,,9999.0,,16.5,14.3,29.95,1014.4,,,,,,,,,,,,,,,2/8 Mostly Clear,72000.0,17000.0,FEW,17000.0,,,,,,
KRDR,08-09-2017,09:56,METAR,Calm,,0,,,9999.0,,16.4,14.2,29.95,1014.4,,,,,,,,,,,,,,,Clear,72000.0,,,,,,,,,
KRDR,08-09-2017,08:56,METAR,Normal,130,4,,,9999.0,,16.6,14.1,29.96,1014.7,,,,,,,,,,,,,,,4/8 Partly Cloudy,72000.0,11000.0,SCT,11000.0,,,,,,
KRDR,08-09-2017,07:56,METAR,Normal,160,4,,,9999.0,,15.9,13.7,29.97,1015.1,,,,,,,,,,,,,,,,11000.0,11000.0,OVC,11000.0,,,,,,
KRDR,08-09-2017,06:56,METAR,Normal,140,5,,,9999.0,,16.9,13.6,29.98,1015.4,,,,,,,,,,,,,,,4/8 Partly Cloudy,72000.0,12000.0,SCT,12000.0,,,,,,
KRDR,08-09-2017,05:56,METAR,Calm,,0,,,9999.0,,17.9,13.4,30.00,1016.1,,,,,,,,,,,,,,,,10000.0,10000.0,OVC,10000.0,,,,,,
KRDR,08-09-2017,04:56,METAR,Normal,140,4,,,9999.0,,18.4,13.5,30.00,1016.1,,,,,,,,,,,,,,,,11000.0,11000.0,BKN,11000.0,,,,,,
KRDR,08-09-2017,03:56,METAR,Normal,120,4,,,9999.0,,19.5,13.6,30.01,1016.4,,,,,,,,,,,,,,,4/8 Partly Cloudy,72000.0,10000.0,SCT,10000.0,,,,,,
KRDR,08-09-2017,02:56,METAR,Normal,140,5,,,9999.0,,19.9,13.6,30.01,1016.5,,,,,,,,,,,,,,,2/8 Mostly Clear,72000.0,7500.0,FEW,7500.0,,,,,,
KRDR,08-09-2017,01:56,METAR,Normal,130,7,,,9999.0,,22.7,12.9,30.00,1016.2,,,,,,,,,,,,,,,Clear,72000.0,,,,,,,,,
KRDR,08-09-2017,00:56,METAR,Normal,120,6,,,9999.0,,25.0,13.2,30.00,1016.2,,,,,,,,,,,,,,,Clear,72000.0,,,,,,,,,
KRDR,08-08-2017,23:56,METAR,Normal,120,8,,,9999.0,,26.1,13.9,30.01,1016.6,,,,,,,,,,,,,,,Clear,72000.0,,,,,,,,,
KRDR,08-08-2017,22:56,METAR,Normal,110,8,,,9999.0,,26.9,13.2,30.02,1016.9,,,,,,,,,,,,,,,Clear,72000.0,,,,,,,,,
KRDR,08-08-2017,21:56,METAR,Normal,270,8,,,9999.0,,28.9,11.0,30.03,1017.2,,,,,,,,,,,,,,,2/8 Mostly Clear,72000.0,7500.0,FEW,7500.0,,,,,,
KRDR,08-08-2017,20:56,METAR,Normal,230,6,,,9999.0,,28.8,10.0,30.04,1017.5,,,,,,,,,,,,,,,Clear,72000.0,,,,,,,,,
KRDR,08-08-2017,19:56,METAR,Normal,250,4,,,9999.0,,28.0,11.5,30.06,1018.3,,,,,,,,,,,,,,,2/8 Mostly Clear,72000.0,7000.0,FEW,7000.0,,,,,,
KRDR,08-08-2017,18:56,METAR,Normal,280,9,,,9999.0,,28.2,12.5,30.07,1018.6,,,,,,,,,,,,,,,Clear,72000.0,,,,,,,,,
KRDR,08-08-2017,17:56,METAR,Normal,280,3,,,9999.0,,26.7,15.4,30.09,1019.3,,,,,,,,,,,,,,,2/8 Mostly Clear,72000.0,9500.0,FEW,9600.0,,,,,,
KRDR,08-08-2017,16:56,METAR,Normal,340,5,,,9999.0,,25.8,15.5,30.10,1019.6,,,,,,,,,,,,,,,Clear,72000.0,,,,,,,,,
KRDR,08-08-2017,15:56,METAR,Normal,320,7,,,9999.0,,23.8,14.8,30.10,1019.7,,,,,,,,,,,,,,,Clear,72000.0,,,,,,,,,
KRDR,08-08-2017,14:56,METAR,Normal,300,5,,,9999.0,,21.9,14.0,30.11,1020.0,,,,,,,,,,,,,,,Clear,72000.0,,,,,,,,,
KRDR,08-08-2017,13:56,METAR,Normal,290,4,,,9999.0,,19.5,14.1,30.11,1020.0,,,,,,,,,,,,,,,Clear,72000.0,,,,,,,,,
KRDR,08-08-2017,12:56,METAR,Normal,280,5,,,9999.0,,15.8,13.6,30.11,1019.9,,,,,,,,,,,,,,,Clear,72000.0,,,,,,,,,
KRDR,08-08-2017,11:56,METAR,Normal,340,4,,,9999.0,,13.2,11.3,30.10,1019.6,,,,,,,,,,,,,,,Clear,72000.0,,,,,,,,,
KRDR,08-08-2017,10:56,METAR,Normal,360,6,,,9999.0,,12.5,10.4,30.09,1019.3,,,,,,,,,,,,,,,Clear,72000.0,,,,,,,,,
KRDR,08-08-2017,09:56,METAR,Calm,,0,,,9999.0,,11.3,9.5,30.08,1019.0,,,,,,,,,,,,,,,Clear,72000.0,,,,,,,,,
KRDR,08-08-2017,08:56,METAR,Normal,330,3,,,9999.0,,12.4,10.3,30.09,1019.3,,,,,,,,,,,,,,,Clear,72000.0,,,,,,,,,
KRDR,08-08-2017,07:56,METAR,Normal,240,5,,,9999.0,,12.7,10.2,30.09,1019.3,,,,,,,,,,,,,,,Clear,72000.0,,,,,,,,,
KRDR,08-08-2017,06:56,METAR,Normal,250,6,,,9999.0,,12.8,10.7,30.09,1019.3,,,,,,,,,,,,,,,Clear,72000.0,,,,,,,,,
KRDR,08-08-2017,05:56,METAR,Normal,250,6,,,9999.0,,13.1,11.2,30.10,1019.6,,,,,,,,,,,,,,,Clear,72000.0,,,,,,,,,
KRDR,08-08-2017,04:56,METAR,Normal,240,5,,,9999.0,,13.0,11.2,30.10,1019.7,,,,,,,,,,,,,,,Clear,72000.0,,,,,,,,,
KRDR,08-07-2017,23:56,METAR,Normal,270,4,,,9999.0,,26.3,12.3,30.10,1019.7,,,,,,,,,,,,,,,Clear,72000.0,,,,,,,,,
KRDR,08-07-2017,22:56,METAR,Normal,280,5,,,9999.0,,26.8,11.3,30.10,1019.7,,,,,,,,,,,,,,,Clear,72000.0,,,,,,,,,
KRDR,08-07-2017,21:56,METAR,Normal,270,8,,,9999.0,,26.9,10.5,30.11,1020.0,,,,,,,,,,,,,,,Clear,72000.0,,,,,,,,,
KRDR,08-07-2017,20:56,METAR,Normal,300,6,,,9999.0,,26.9,11.0,30.13,1020.7,,,,,,,,,,,,,,,Clear,72000.0,,,,,,,,,
KRDR,08-07-2017,19:56,METAR,Normal,260,5,,,9999.0,,27.0,9.8,30.14,1021.0,,,,,,,,,,,,,,,Clear,72000.0,,,,,,,,,
KRDR,08-07-2017,18:56,METAR,Normal,290,8,,,9999.0,,26.0,10.6,30.15,1021.4,,,,,,,,,,,,,,,Clear,72000.0,,,,,,,,,
KRDR,08-07-2017,17:56,METAR,Normal,270,5,,,9999.0,,26.3,10.4,30.16,1021.7,,,,,,,,,,,,,,,Clear,72000.0,,,,,,,,,
KRDR,08-07-2017,16:56,METAR,Calm,,0,,,9999.0,,25.4,10.0,30.17,1022.1,,,,,,,,,,,,,,,Clear,72000.0,,,,,,,,,
KRDR,08-07-2017,15:56,METAR,Normal,320,5,,,9999.0,,24.5,10.7,30.17,1022.1,,,,,,,,,,,,,,,Clear,72000.0,,,,,,,,,
KRDR,08-07-2017,14:56,METAR,Normal,330,3,,,9999.0,,22.1,12.3,30.17,1022.1,,,,,,,,,,,,,,,Clear,72000.0,,,,,,,,,
KRDR,08-07-2017,13:56,METAR,Normal,350,4,,,9999.0,,19.0,11.1,30.16,1021.8,,,,,,,,,,,,,,,Clear,72000.0,,,,,,,,,
KRDR,08-07-2017,12:56,METAR,Normal,310,3,,,9999.0,,15.4,10.8,30.16,1021.7,,,,,,,,,,,,,,,Clear,72000.0,,,,,,,,,
KRDR,08-07-2017,11:56,METAR,Normal,300,3,,,9999.0,,10.2,8.5,30.14,1021.2,,,,,,,,,,,,,,,Clear,72000.0,,,,,,,,,
KRDR,08-07-2017,10:56,METAR,Normal,300,5,,,9999.0,,9.8,8.2,30.14,1021.1,,,,,,,,,,,,,,,Clear,72000.0,,,,,,,,,
KRDR,08-07-2017,09:56,METAR,Normal,290,3,,,9999.0,,10.1,8.7,30.13,1020.8,,,,,,,,,,,,,,,Clear,72000.0,,,,,,,,,
KRDR,08-07-2017,08:56,METAR,Calm,,0,,,9999.0,,11.1,8.8,30.13,1020.8,,,,,,,,,,,,,,,Clear,72000.0,,,,,,,,,
KRDR,08-07-2017,07:56,METAR,Normal,320,4,,,9999.0,,11.4,9.5,30.12,1020.4,,,,,,,,,,,,,,,Clear,72000.0,,,,,,,,,
KRDR,08-07-2017,06:56,METAR,Normal,320,6,,,9999.0,,11.1,9.8,30.12,1020.4,,,,,,,,,,,,,,,Clear,72000.0,,,,,,,,,
KRDR,08-07-2017,05:56,METAR,Calm,,0,,,9999.0,,11.6,9.5,30.11,1020.1,,,,,,,,,,,,,,,Clear,72000.0,,,,,,,,,
KRDR,08-07-2017,04:56,METAR,Normal,310,3,,,9999.0,,11.9,10.6,30.11,1020.1,,,,,,,,,,,,,,,Clear,72000.0,,,,,,,,,
KRDR,08-07-2017,03:56,METAR,Normal,350,3,,,9999.0,,13.6,11.5,30.10,1019.8,,,,,,,,,,,,,,,Clear,72000.0,,,,,,,,,
KRDR,08-07-2017,02:56,METAR,Normal,330,5,,,9999.0,,15.6,12.3,30.10,1019.8,,,,,,,,,,,,,,,Clear,72000.0,,,,,,,,,
KRDR,08-07-2017,01:56,METAR,Normal,340,5,,,9999.0,,18.0,13.3,30.07,1018.8,,,,,,,,,,,,,,,Clear,72000.0,,,,,,,,,
KRDR,08-07-2017,00:56,METAR,Normal,350,6,,,9999.0,,22.4,12.6,30.06,1018.4,,,,,,,,,,,,,,,Clear,72000.0,,,,,,,,,
KRDR,08-06-2017,23:56,METAR,Normal,320,5,,,9999.0,,24.1,11.7,30.06,1018.4,,,,,,,,,,,,,,,Clear,72000.0,,,,,,,,,
KRDR,08-06-2017,22:56,METAR,Calm,,0,,,9999.0,,25.3,8.3,30.06,1018.4,,,,,,,,,,,,,,,Clear,72000.0,,,,,,,,,
KRDR,08-06-2017,21:56,METAR,Normal,50,6,,,9999.0,,25.3,9.1,30.06,1018.4,,,,,,,,,,,,,,,4/8 Partly Cloudy,72000.0,7000.0,SCT,7000.0,,,,,,
KRDR,08-06-2017,20:56,METAR,Normal,40,9,,,9999.0,,25.4,9.6,30.06,1018.4,,,,,,,,,,,,,,,Clear,72000.0,,,,,,,,,
KRDR,08-06-2017,19:56,METAR,Normal,70,6,,,9999.0,,25.4,10.8,30.07,1018.7,,,,,,,,,,,,,,,2/8 Mostly Clear,72000.0,6000.0,FEW,6000.0,,,,,,
KRDR,08-06-2017,18:56,METAR,Normal,30,5,,,9999.0,,24.6,9.7,30.07,1018.7,,,,,,,,,,,,,,,Clear,72000.0,,,,,,,,,
KRDR,08-06-2017,17:56,METAR,Normal,50,6,,,9999.0,,23.9,11.6,30.07,1018.7,,,,,,,,,,,,,,,Clear,72000.0,,,,,,,,,
KRDR,08-06-2017,16:56,METAR,Calm,,0,,,9999.0,,22.7,12.0,30.08,1019.1,,,,,,,,,,,,,,,Clear,72000.0,,,,,,,,,
KRDR,08-06-2017,15:56,METAR,Calm,,0,,,9999.0,,20.8,12.5,30.08,1019.1,,,,,,,,,,,,,,,Clear,72000.0,,,,,,,,,
KRDR,08-06-2017,14:56,METAR,Normal,30,4,,,9999.0,,18.3,12.3,30.07,1018.8,,,,,,,,,,,,,,,Clear,72000.0,,,,,,,,,
KRDR,08-06-2017,13:56,METAR,Normal,10,5,,,9999.0,,15.5,12.4,30.08,1019.1,,,,,,,,,,,,,,,Clear,72000.0,,,,,,,,,
KRDR,08-06-2017,12:56,METAR,Normal,340,3,,,9999.0,,13.3,11.5,30.06,1018.4,,,,,,,,,,,,,,,Clear,72000.0,,,,,,,,,
KRDR,08-06-2017,11:56,METAR,Normal,330,3,,,9999.0,,10.6,10.1,30.05,1018.0,,,,,,,,,,,,,,,Clear,72000.0,,,,,,,,,
KRDR,08-06-2017,10:56,METAR,Normal,10,5,,,9999.0,,11.0,10.8,30.03,1017.4,,,,,,,,,,,,,,,Clear,72000.0,,,,,,,,,
KRDR,08-06-2017,09:56,METAR,Normal,10,7,,,9999.0,,9.0,8.8,30.02,1017.1,,,,,,,,,,,,,,,Clear,72000.0,,,,,,,,,
KRDR,08-06-2017,09:36,SPECI,Normal,360,4,,,9999.0,,10.0,10.0,30.02,1017.1,,,,,,,,,,,,,,,,,,,,,,,,,
KRDR,08-06-2017,09:31,SPECI,Normal,10,3,,,3600.0,,10.0,10.0,30.03,1017.4,,,,,,,,,,,,,,,,,,,,,,,,,
KRDR,08-06-2017,08:56,METAR,Calm,,0,,,9999.0,,10.9,10.7,30.02,1017.0,,,,,,,,,,,,,,,Clear,72000.0,,,,,,,,,
KRDR,08-06-2017,07:56,METAR,Normal,350,4,,,9999.0,,11.6,11.3,30.01,1016.7,,,,,,,,,,,,,,,Clear,72000.0,,,,,,,,,
KRDR,08-06-2017,06:56,METAR,Normal,360,4,,,9999.0,,12.5,12.3,30.01,1016.7,,,,,,,,,,,,,,,Clear,72000.0,,,,,,,,,
KRDR,08-06-2017,05:56,METAR,Normal,330,4,,,9999.0,,12.1,11.5,30.01,1016.7,,,,,,,,,,,,,,,Clear,72000.0,,,,,,,,,
KRDR,08-06-2017,04:56,METAR,Normal,340,4,,,9999.0,,12.5,11.7,30.00,1016.3,,,,,,,,,,,,,,,Clear,72000.0,,,,,,,,,
KRDR,08-06-2017,03:56,METAR,Normal,330,3,,,9999.0,,13.9,12.6,30.00,1016.3,,,,,,,,,,,,,,,Clear,72000.0,,,,,,,,,
KRDR,08-06-2017,02:56,METAR,Normal,20,3,,,9999.0,,15.7,13.7,29.99,1016.0,,,,,,,,,,,,,,,Clear,72000.0,,,,,,,,,
KRDR,08-06-2017,01:56,METAR,Normal,350,3,,,9999.0,,17.3,13.8,29.98,1015.8,,,,,,,,,,,,,,,Clear,72000.0,,,,,,,,,
KRDR,08-06-2017,00:56,METAR,Normal,360,5,,,9999.0,,21.1,13.8,29.98,1015.7,,,,,,,,,,,,,,,Clear,72000.0,,,,,,,,,
KRDR,08-05-2017,23:56,METAR,Normal,330,3,,,9999.0,,24.3,12.9,29.97,1015.3,,,,,,,,,,,,,,,2/8 Mostly Clear,72000.0,5500.0,FEW,5500.0,FEW,20000.0,,,,
KRDR,08-05-2017,22:56,METAR,Normal,20,3,,,9999.0,,24.8,11.7,29.97,1015.4,,,,,,,,,,,,,,,Clear,72000.0,,,,,,,,,
KRDR,08-05-2017,21:56,METAR,Calm,,0,,,9999.0,,24.3,11.3,29.97,1015.3,,,,,,,,,,,,,,,Clear,72000.0,,,,,,,,,
KRDR,08-05-2017,20:56,METAR,Calm,,0,,,9999.0,,24.2,11.5,29.98,1015.7,,,,,,,,,,,,,,,2/8 Mostly Clear,72000.0,15000.0,FEW,15000.0,,,,,,
KRDR,08-05-2017,19:56,METAR,Normal,80,3,,,9999.0,,23.9,11.9,29.98,1015.7,,,,,,,,,,,,,,,4/8 Partly Cloudy,72000.0,4800.0,FEW,4800.0,SCT,8000.0,SCT,20000.0,,
KRDR,08-05-2017,18:56,METAR,Normal,60,5,,,9999.0,,23.5,11.2,29.98,1015.7,,,,,,,,,,,,,,,4/8 Partly Cloudy,72000.0,4700.0,FEW,4700.0,SCT,20000.0,,,,
KRDR,08-05-2017,17:56,METAR,Normal,10,3,,,9999.0,,23.6,12.2,29.99,1015.9,,,,,,,,,,,,,,,2/8 Mostly Clear,72000.0,15000.0,FEW,15000.0,,,,,,
KRDR,08-05-2017,16:56,METAR,Calm,,0,,,9999.0,,22.4,13.4,29.99,1016.1,,,,,,,,,,,,,,,4/8 Partly Cloudy,72000.0,14000.0,FEW,14000.0,FEW,17000.0,SCT,20000.0,,
KRDR,08-05-2017,15:56,METAR,Normal,30,3,,,9999.0,,21.7,13.8,29.99,1016.0,,,,,,,,,,,,,,,2/8 Mostly Clear,72000.0,11000.0,FEW,11000.0,FEW,18000.0,FEW,21000.0,,
KRDR,08-05-2017,14:56,METAR,Calm,,0,,,9999.0,,19.2,14.2,29.99,1016.1,,,,,,,,,,,,,,,Clear,72000.0,,,,,,,,,
KRDR,08-05-2017,13:56,METAR,Normal,20,3,,,9999.0,,15.8,14.5,29.99,1016.0,,,,,,,,,,,,,,,Clear,72000.0,,,,,,,,,
KRDR,08-05-2017,12:56,METAR,Calm,,0,,,9999.0,,13.4,13.4,29.98,1015.7,,,,,,,,,,,,,,,Clear,72000.0,,,,,,,,,
KRDR,08-05-2017,11:56,METAR,Calm,,0,,,9999.0,,10.9,10.7,29.97,1015.3,,,,,,,,,,,,,,,2/8 Mostly Clear,72000.0,22000.0,FEW,22000.0,,,,,,
KRDR,08-05-2017,11:16,SPECI,Calm,,0,,,9999.0,,10.0,10.0,29.96,1015.0,,,,,,,,,,,,,,,Clear,72000.0,,,,,,,,,
KRDR,08-05-2017,11:11,SPECI,Calm,,0,,,9999.0,,10.0,10.0,29.96,1015.0,,,,,,,,,,,,,,,Clear,72000.0,,,,,,,,,
KRDR,08-05-2017,10:56,METAR,Normal,350,3,,,9999.0,,9.9,9.7,29.96,1015.0,,,,,,,,,,,,,,,Clear,72000.0,,,,,,,,,
KRDR,08-05-2017,10:46,SPECI,Calm,,0,,,9999.0,,10.0,9.0,29.96,1015.0,,,,,,,,,,,,,,,Clear,72000.0,,,,,,,,,
KRDR,08-05-2017,10:41,SPECI,Normal,310,3,,,9999.0,,10.0,10.0,29.96,1015.0,,,,,,,,,,,,,,,Clear,72000.0,,,,,,,,,
KRDR,08-05-2017,09:56,METAR,Normal,10,3,,,9999.0,,11.1,10.9,29.95,1014.6,,,,,,,,,,,,,,,Clear,72000.0,,,,,,,,,
KRDR,08-05-2017,08:56,METAR,Normal,300,3,,,9999.0,,10.2,9.9,29.96,1015.0,,,,,,,,,,,,,,,Clear,72000.0,,,,,,,,,
KRDR,08-05-2017,07:56,METAR,Calm,,0,,,9999.0,,11.5,11.0,29.97,1015.3,,,,,,,,,,,,,,,Clear,72000.0,,,,,,,,,
KRDR,08-05-2017,06:56,METAR,Calm,,0,,,9999.0,,12.4,11.9,29.97,1015.3,,,,,,,,,,,,,,,Clear,72000.0,,,,,,,,,
KRDR,08-05-2017,05:56,METAR,Calm,,0,,,9999.0,,13.9,13.3,29.96,1015.0,,,,,,,,,,,,,,,,6500.0,6500.0,BKN,6500.0,BKN,8000.0,,,,
KRDR,08-05-2017,04:56,METAR,Calm,,0,,,9999.0,,12.7,12.1,29.96,1014.9,,,,,,,,,,,,,,,2/8 Mostly Clear,72000.0,7500.0,FEW,7500.0,,,,,,
KRDR,08-05-2017,03:56,METAR,Normal,240,3,,,9999.0,,13.6,12.3,29.97,1015.3,,,,,,,,,,,,,,,Clear,72000.0,,,,,,,,,
KRDR,08-05-2017,02:56,METAR,Calm,,0,,,9999.0,,15.0,12.8,29.97,1015.3,,,,,,,,,,,,,,,2/8 Mostly Clear,72000.0,10000.0,FEW,10000.0,,,,,,
KRDR,08-05-2017,01:56,METAR,Normal,80,5,,,9999.0,,19.5,12.0,29.96,1014.9,,,,,,,,,,,,,,,Clear,72000.0,,,,,,,,,
KRDR,08-05-2017,00:56,METAR,Calm,,0,,,9999.0,,22.4,13.4,29.95,1014.6,,,,,,,,,,,,,,,Clear,72000.0,,,,,,,,,
KRDR,08-04-2017,23:56,METAR,Calm,,0,,,9999.0,,24.1,12.4,29.95,1014.6,,,,,,,,,,,,,,,Clear,72000.0,,,,,,,,,
KRDR,08-04-2017,22:56,METAR,Normal,260,3,,,9999.0,,25.0,8.9,29.96,1015.0,,,,,,,,,,,,,,,Clear,72000.0,,,,,,,,,
KRDR,08-04-2017,21:56,METAR,Normal,290,4,,,9999.0,,26.1,9.0,29.96,1015.0,,,,,,,,,,,,,,,Clear,72000.0,,,,,,,,,
KRDR,08-04-2017,20:56,METAR,Normal,270,7,,,9999.0,,26.3,10.4,29.98,1015.7,,,,,,,,,,,,,,,2/8 Mostly Clear,72000.0,6500.0,FEW,6500.0,,,,,,
KRDR,08-04-2017,19:56,METAR,Normal,270,5,,,9999.0,,26.6,10.7,29.99,1016.0,,,,,,,,,,,,,,,Clear,72000.0,,,,,,,,,
KRDR,08-04-2017,18:56,METAR,Normal,350,5,,,9999.0,,25.8,10.8,30.00,1016.3,,,,,,,,,,,,,,,2/8 Mostly Clear,72000.0,10000.0,FEW,10000.0,,,,,,
KRDR,08-04-2017,17:56,METAR,Normal,340,3,,,9999.0,,22.8,12.1,30.03,1017.4,,,,,,,,,,,,,,,2/8 Mostly Clear,72000.0,6500.0,FEW,6500.0,,,,,,
KRDR,08-04-2017,16:56,METAR,Normal,350,4,,,9999.0,,24.3,11.3,30.03,1017.4,,,,,,,,,,,,,,,Clear,72000.0,,,,,,,,,
KRDR,08-04-2017,15:56,METAR,Normal,340,6,,,9999.0,,23.3,12.9,30.04,1017.8,,,,,,,,,,,,,,,Clear,72000.0,,,,,,,,,
KRDR,08-04-2017,14:56,METAR,Normal,310,7,,,9999.0,,22.5,13.3,30.05,1018.0,,,,,,,,,,,,,,,Clear,72000.0,,,,,,,,,
KRDR,08-04-2017,13:56,METAR,Calm,,0,,,9999.0,,19.2,13.8,30.05,1018.0,,,,,,,,,,,,,,,Clear,72000.0,,,,,,,,,
KRDR,08-04-2017,12:56,METAR,Normal,300,4,,,9999.0,,15.4,12.7,30.05,1018.0,,,,,,,,,,,,,,,Clear,72000.0,,,,,,,,,
KRDR,08-04-2017,11:56,METAR,Normal,280,4,,,9999.0,,11.3,10.8,30.05,1018.2,,,,,,,,,,,,,,,Clear,72000.0,,,,,,,,,
KRDR,08-04-2017,10:56,METAR,Normal,250,3,,,9999.0,,10.9,9.8,30.05,1018.1,,,,,,,,,,,,,,,Clear,72000.0,,,,,,,,,
KRDR,08-04-2017,09:56,METAR,Normal,280,5,,,9999.0,,9.5,9.2,30.06,1018.5,,,,,,,,,,,,,,,Clear,72000.0,,,,,,,,,
KRDR,08-04-2017,08:56,METAR,Calm,,0,,,9999.0,,8.5,8.2,30.07,1018.8,,,,,,,,,,,,,,,Clear,72000.0,,,,,,,,,
KRDR,08-04-2017,07:56,METAR,Normal,260,3,,,9999.0,,9.8,9.0,30.07,1018.8,,,,,,,,,,,,,,,Clear,72000.0,,,,,,,,,
KRDR,08-04-2017,06:56,METAR,Normal,260,3,,,9999.0,,11.2,9.8,30.08,1019.2,,,,,,,,,,,,,,,Clear,72000.0,,,,,,,,,
KRDR,08-04-2017,05:56,METAR,Normal,290,3,,,9999.0,,10.8,9.7,30.09,1019.5,,,,,,,,,,,,,,,Clear,72000.0,,,,,,,,,
KRDR,08-04-2017,04:56,METAR,Normal,300,4,,,9999.0,,11.4,9.8,30.09,1019.5,,,,,,,,,,,,,,,Clear,72000.0,,,,,,,,,
KRDR,08-04-2017,03:56,METAR,Normal,290,3,,,9999.0,,11.8,10.9,30.10,1019.9,,,,,,,,,,,,,,,Clear,72000.0,,,,,,,,,
KRDR,08-04-2017,02:56,METAR,Normal,310,4,,,9999.0,,13.1,10.8,30.10,1020.0,,,,,,,,,,,,,,,Clear,72000.0,,,,,,,,,
KRDR,08-04-2017,01:56,METAR,Normal,330,4,,,9999.0,,17.3,11.8,30.10,1019.9,,,,,,,,,,,,,,,Clear,72000.0,,,,,,,,,
KRDR,08-04-2017,00:56,METAR,Normal,330,5,,,9999.0,,20.4,11.6,30.11,1020.2,,,,,,,,,,,,,,,Clear,72000.0,,,,,,,,,
KRDR,08-03-2017,23:56,METAR,Normal,340,7,,,9999.0,,21.9,11.0,30.12,1020.5,,,,,,,,,,,,,,,2/8 Mostly Clear,72000.0,5500.0,FEW,5500.0,,,,,,
KRDR,08-03-2017,22:56,METAR,Normal,350,9,,,9999.0,,22.3,10.7,30.13,1020.8,,,,,,,,,,,,,,,Clear,72000.0,,,,,,,,,
KRDR,08-03-2017,21:56,METAR,Normal,340,11,18.0,,9999.0,,22.3,10.1,30.13,1020.8,,,,,,,,,,,,,,,Clear,72000.0,,,,,,,,,
KRDR,08-03-2017,21:48,SPECI,Normal,20,11,18.0,,9999.0,,22.0,10.0,30.13,1020.8,,,,,,,,,,,,,,,Clear,72000.0,,,,,,,,,
KRDR,08-03-2017,20:56,METAR,Normal,10,9,,,9999.0,,22.0,9.2,30.14,1021.2,,,,,,,,,,,,,,,Clear,72000.0,,,,,,,,,
KRDR,08-03-2017,19:56,METAR,Normal,360,11,,,9999.0,,22.2,8.3,30.14,1021.2,,,,,,,,,,,,,,,Clear,72000.0,,,,,,,,,
KRDR,08-03-2017,18:56,METAR,Normal,20,11,,,9999.0,,21.9,8.4,30.16,1021.9,,,,,,,,,,,,,,,Clear,72000.0,,,,,,,,,
KRDR,08-03-2017,17:56,METAR,Normal,10,12,,,9999.0,,21.2,8.5,30.17,1022.2,,,,,,,,,,,,,,,2/8 Mostly Clear,72000.0,5000.0,FEW,5000.0,,,,,,
KRDR,08-03-2017,16:56,METAR,Normal,40,14,17.0,,9999.0,,20.6,9.8,30.18,1022.5,,,,,,,,,,,,,,,Clear,72000.0,,,,,,,,,
KRDR,08-03-2017,15:56,METAR,Normal,10,11,,,9999.0,,17.4,11.0,30.18,1022.6,,,,,,,,,,,,,,,Clear,72000.0,,,,,,,,,
KRDR,08-03-2017,14:56,METAR,Normal,10,10,,,9999.0,,15.9,10.9,30.19,1023.0,,,,,,,,,,,,,,,Clear,72000.0,,,,,,,,,
KRDR,08-03-2017,13:56,METAR,Normal,350,8,,,9999.0,,13.8,11.0,30.19,1023.0,,,,,,,,,,,,,,,2/8 Mostly Clear,72000.0,16000.0,FEW,16000.0,,,,,,
KRDR,08-03-2017,12:56,METAR,Normal,360,5,,,9999.0,,12.7,10.9,30.19,1023.0,,,,,,,,,,,,,,,Clear,72000.0,,,,,,,,,
KRDR,08-03-2017,11:56,METAR,Normal,350,5,,,9999.0,,12.9,11.6,30.18,1022.7,,,,,,,,,,,,,.07 IN,.83 IN,2/8 Mostly Clear,72000.0,8000.0,FEW,8000.0,,,,,,
KRDR,08-03-2017,10:56,METAR,Normal,320,7,,,9999.0,,12.8,11.5,30.17,1022.4,,,,,,,,,,,,,,,,6500.0,6500.0,OVC,6500.0,,,,,,
KRDR,08-03-2017,09:56,METAR,Normal,310,6,,,9999.0,,12.3,11.7,30.17,1022.4,,,,,,,,,,,.02 IN,,,,,5500.0,5500.0,OVC,5500.0,,,,,,
KRDR,08-03-2017,09:26,SPECI,Normal,300,5,,,9999.0,,12.0,12.0,30.17,1022.4,,,,,,,,,,,,,,,,5500.0,5500.0,OVC,5500.0,,,,,,
KRDR,08-03-2017,08:56,METAR,Normal,280,3,,,9999.0,Light Rain,12.4,11.6,30.18,1022.7,61,,,,,,,,,,.03 IN,.05 IN,,,,5000.0,1900.0,FEW,1900.0,OVC,5000.0,,,,
KRDR,08-03-2017,07:56,METAR,Normal,320,9,,,9999.0,Light Rain,12.3,11.4,30.18,1022.7,61,,,,,,,,,,.01 IN,,,,,5000.0,5000.0,OVC,5000.0,,,,,,
KRDR,08-03-2017,07:23,SPECI,Normal,350,7,,,9999.0,Light Rain,12.0,11.0,30.19,1022.9,61,,,,,,,,,,,,,,,5000.0,2500.0,FEW,2500.0,BKN,5000.0,OVC,6000.0,,
KRDR,08-03-2017,07:13,SPECI,Normal,350,7,,,9999.0,,12.0,11.0,30.19,1022.9,,,,,,,,,,,,,,,,4700.0,2900.0,FEW,2900.0,BKN,4700.0,OVC,5500.0,,
KRDR,08-03-2017,06:56,METAR,Normal,10,6,,,9999.0,Light Drizzle,12.2,11.6,30.19,1022.9,51,,,,,,,,,,.01 IN,,,,,4200.0,1100.0,FEW,1100.0,FEW,2900.0,FEW,3500.0,BKN,4200.0
KRDR,08-03-2017,06:54,SPECI,Normal,10,6,,,9999.0,Light Rain,12.0,12.0,30.19,1022.9,61,,,,,,,,,,,,,,,4200.0,1100.0,FEW,1100.0,FEW,3500.0,BKN,4200.0,BKN,5500.0
KRDR,08-03-2017,05:56,METAR,Normal,10,9,,,9999.0,Light Rain,13.1,12.6,30.19,1022.9,61,,,,,,,,,,.02 IN,,.08 IN,,,7500.0,7500.0,OVC,7500.0,,,,,,
KRDR,08-03-2017,04:56,METAR,Normal,10,8,,,9999.0,Light Rain,14.0,13.8,30.19,1022.9,61,,,,,,,,,,.01 IN,,,,,7000.0,3900.0,FEW,3900.0,SCT,4900.0,BKN,7000.0,,
KRDR,08-03-2017,03:56,METAR,Normal,20,7,,,9999.0,Light Rain,14.1,13.8,30.19,1022.9,61,,,,,,,,,,.02 IN,,,,,7500.0,7500.0,OVC,7500.0,,,,,,
KRDR,08-03-2017,03:44,SPECI,Normal,20,7,,,9999.0,Light Rain,14.0,14.0,30.19,1022.9,61,,,,,,,,,,,,,,,7500.0,7500.0,BKN,7500.0,,,,,,
KRDR,08-03-2017,03:34,SPECI,Normal,30,8,,,9999.0,,15.0,14.0,30.19,1022.8,,,,,,,,,,,,,,,Clear,72000.0,,,,,,,,,
KRDR,08-03-2017,02:56,METAR,Normal,30,7,,,9999.0,Light Rain,14.8,14.6,30.18,1022.5,61,,,,,,,,,,.02 IN,.03 IN,,,,6000.0,6000.0,BKN,6000.0,BKN,7500.0,,,,
KRDR,08-03-2017,01:56,METAR,Normal,30,7,,,9999.0,Light Rain,15.3,15.0,30.17,1022.3,61,,,,,,,,,,.01 IN,,,,,6500.0,700.0,FEW,700.0,BKN,6500.0,,,,
KRDR,08-03-2017,01:36,SPECI,Normal,40,10,,,9999.0,Light Rain,16.0,15.0,30.17,1022.3,61,,,,,,,,,,,,,,,7000.0,700.0,SCT,700.0,BKN,7000.0,,,,
KRDR,08-03-2017,01:26,SPECI,Normal,40,11,,,9999.0,Light Rain,16.0,16.0,30.16,1021.9,61,,,,,,,,,,,,,,,600.0,800.0,BKN,800.0,,,,,,
KRDR,08-03-2017,00:56,METAR,Normal,40,9,,,9999.0,Light Rain,16.3,16.1,30.16,1022.0,61,,,,,,,,,,TRACE,,,,,500.0,700.0,OVC,700.0,,,,,,
KRDR,08-03-2017,00:34,SPECI,Normal,30,6,,,9999.0,Light Drizzle,16.0,16.0,30.16,1022.0,51,,,,,,,,,,,,,,,500.0,700.0,BKN,700.0,,,,,,
KRDR,08-02-2017,23:56,METAR,Normal,30,6,,,9999.0,,16.1,15.8,30.16,1022.0,,,,,,,,,,,TRACE,,.68 IN,,4/8 Partly Cloudy,72000.0,500.0,SCT,500.0,SCT,7500.0,,,,
KRDR,08-02-2017,23:23,SPECI,Normal,20,11,,,9999.0,,16.0,16.0,30.17,1022.4,,,,,,,,,,,,,,,,7000.0,600.0,FEW,600.0,FEW,2200.0,SCT,2900.0,OVC,7000.0
KRDR,08-02-2017,23:12,SPECI,Normal,10,10,,,9999.0,,16.0,16.0,30.17,1022.4,,,,,,,,,,,,,,,,7000.0,2400.0,SCT,2400.0,SCT,3100.0,OVC,7000.0,,
KRDR,08-02-2017,23:11,SPECI,Normal,10,9,,,9999.0,Light Drizzle,16.0,16.0,30.17,1022.4,51,,,,,,,,,,,,,,,7000.0,2100.0,FEW,2100.0,SCT,2600.0,SCT,3100.0,OVC,7000.0
KRDR,08-02-2017,23:06,SPECI,Normal,360,10,,,9999.0,Light Rain,16.0,15.0,30.17,1022.4,61,,,,,,,,,,,,,,,2900.0,2200.0,SCT,2200.0,BKN,2900.0,OVC,7500.0,,
KRDR,08-02-2017,22:56,METAR,Normal,350,7,,,9999.0,Light Rain,15.6,14.6,30.18,1022.8,61,,,,,,,,,,.05 IN,,,,,3400.0,2000.0,FEW,2000.0,BKN,3400.0,OVC,7500.0,,
KRDR,08-02-2017,21:56,METAR,Normal,350,5,,,9999.0,Light Rain,15.3,14.8,30.19,1023.1,61,,,,,,,,,,.1 IN,,,,,3700.0,3700.0,OVC,3700.0,,,,,,
KRDR,08-02-2017,21:36,SPECI,Normal,350,6,,,9999.0,Rain/Mist,16.0,15.0,30.18,1022.7,62,10,,,,,,,,,,,,,,3100.0,3100.0,OVC,3100.0,,,,,,
KRDR,08-02-2017,21:16,SPECI,Normal,300,7,,,9999.0,Light Rain,16.0,15.0,30.18,1022.7,61,,,,,,,,,,,,,,,2900.0,2900.0,OVC,2900.0,,,,,,
KRDR,08-02-2017,20:56,METAR,Normal,310,7,,,9999.0,Light Rain,15.7,15.1,30.17,1022.4,61,,,,,,,,,,.12 IN,.53 IN,,,,4800.0,4800.0,OVC,4800.0,,,,,,
KRDR,08-02-2017,20:11,SPECI,Normal,330,7,,,8000.0,Rain/Mist,16.0,16.0,30.17,1022.4,62,10,,,,,,,,,,,,,,3100.0,3100.0,OVC,3100.0,,,,,,
KRDR,08-02-2017,20:06,SPECI,Normal,340,7,,,6400.0,Light Rain/Mist,16.0,16.0,30.17,1022.4,61,10,,,,,,,,,,,,,,2300.0,2900.0,OVC,2900.0,,,,,,
KRDR,08-02-2017,20:01,SPECI,Normal,330,4,,,3200.0,Rain/Mist,16.0,15.0,30.16,1022.0,62,10,,,,,,,,,,,,,,1700.0,2700.0,OVC,2700.0,,,,,,
KRDR,08-02-2017,19:56,METAR,Normal,320,4,,,1800.0,Heavy Rain/Mist,16.1,15.0,30.16,1022.0,63,10,,,,,,,,,.41 IN,,,,,1500.0,2100.0,OVC,2100.0,,,,,,
KRDR,08-02-2017,19:55,SPECI,Normal,310,3,,,1600.0,Heavy Rain/Mist,16.0,15.0,30.16,1022.0,63,10,,,,,,,,,,,,,Sky Obscured (Unable to Estimate),1500.0,2000.0,,2000.0,,,,,,
KRDR,08-02-2017,19:50,SPECI,Normal,350,4,,,1000.0,Heavy Rain/Mist,16.0,15.0,30.16,1022.0,63,10,,,,,,,,,,,,,Sky Obscured (Unable to Estimate),1600.0,1600.0,,1600.0,,,,,,
KRDR,08-02-2017,19:45,SPECI,Normal,340,3,,,800.0,Heavy Rain/Mist,17.0,15.0,30.15,1021.7,63,10,,,,,,,,,,,,,,1500.0,1500.0,BKN,1500.0,OVC,2300.0,,,,
KRDR,08-02-2017,19:40,SPECI,Normal,350,5,,,3600.0,Heavy Rain,17.0,15.0,30.16,1022.0,63,,,,,,,,,,,,,,,1700.0,1700.0,BKN,1700.0,BKN,2500.0,,,,
KRDR,08-02-2017,19:35,SPECI,Calm,,0,,,9999.0,Light Rain,18.0,15.0,30.15,1021.6,61,,,,,,,,,,,,,,,1900.0,1900.0,BKN,1900.0,BKN,2500.0,,,,
KRDR,08-02-2017,19:30,SPECI,Normal,190,5,,,9999.0,Light Rain,19.0,15.0,30.15,1021.6,61,,,,,,,,,,,,,,,2300.0,1500.0,FEW,1500.0,BKN,2300.0,,,,
KRDR,08-02-2017,19:20,SPECI,Calm,,0,,,9999.0,Light Rain,20.0,17.0,30.15,1021.6,61,,,,,,,,,,,,,,2/8 Mostly Clear,72000.0,2600.0,FEW,2600.0,,,,,,
KRDR,08-02-2017,18:59,SPECI,Normal,350,5,,,9999.0,Light Rain,20.0,16.0,30.15,1021.6,61,,,,,,,,,,,,,,2/8 Mostly Clear,72000.0,3700.0,FEW,3700.0,,,,,,
KRDR,08-02-2017,18:56,METAR,Normal,350,4,,,,Light Rain,20.6,15.8,,1021.5,61,,,,,,,,,,TRACE,,,,,,,,,,,,,,
KRDR,08-02-2017,18:31,SPECI,Calm,,0,,,,Rain,,,,1021.9,,,,61,,,,,,,,,,,,,,,,,,,,,
KRDR,08-02-2017,17:56,METAR,Calm,,0,,,9999.0,,21.5,14.4,30.18,1022.5,,,,,,,,,,,,,,,2/8 Mostly Clear,72000.0,2900.0,FEW,2900.0,,,,,,
KRDR,08-02-2017,16:56,METAR,Normal,150,3,,,9999.0,,20.7,14.6,30.18,1022.5,,,,,,,,,,,,,,,2/8 Mostly Clear,72000.0,17000.0,FEW,17000.0,,,,,,
KRDR,08-02-2017,15:56,METAR,Calm,,0,,,9999.0,,20.6,14.0,30.19,1022.7,,,,,,,,,,,,,,,Clear,72000.0,,,,,,,,,
KRDR,08-02-2017,14:56,METAR,Calm,,0,,,9999.0,,18.6,12.8,30.19,1022.8,,,,,,,,,,,,,,,Clear,72000.0,,,,,,,,,
KRDR,08-02-2017,13:56,METAR,Normal,30,4,,,9999.0,,16.2,13.1,30.19,1022.8,,,,,,,,,,,,,,,2/8 Mostly Clear,72000.0,14000.0,FEW,14000.0,,,,,,
KRDR,08-02-2017,12:56,METAR,Normal,360,5,,,9999.0,,14.1,12.8,30.19,1022.7,,,,,,,,,,,,,,,Clear,72000.0,,,,,,,,,
KRDR,08-02-2017,11:56,METAR,Normal,330,3,,,9999.0,,11.9,11.1,30.19,1022.7,,,,,,,,,,,,,,,4/8 Partly Cloudy,72000.0,12000.0,FEW,12000.0,SCT,15000.0,,,,
KRDR,08-02-2017,10:56,METAR,Normal,330,5,,,9999.0,,11.0,10.4,30.19,1022.7,,,,,,,,,,,,,,,Clear,72000.0,,,,,,,,,
KRDR,08-02-2017,09:56,METAR,Normal,330,4,,,9999.0,,11.6,10.8,30.19,1022.7,,,,,,,,,,,,,,,Clear,72000.0,,,,,,,,,
KRDR,08-02-2017,08:56,METAR,Normal,330,5,,,9999.0,,12.4,11.5,30.18,1022.3,,,,,,,,,,,,,,,Clear,72000.0,,,,,,,,,
KRDR,08-02-2017,07:56,METAR,Normal,310,5,,,9999.0,,12.4,11.6,30.18,1022.3,,,,,,,,,,,,,,,Clear,72000.0,,,,,,,,,
KRDR,08-02-2017,06:56,METAR,Normal,10,5,,,9999.0,,12.2,11.1,30.18,1022.4,,,,,,,,,,,,,,,Clear,72000.0,,,,,,,,,
KRDR,08-02-2017,05:56,METAR,Normal,340,4,,,9999.0,,13.3,12.0,30.18,1022.4,,,,,,,,,,,,,,,Clear,72000.0,,,,,,,,,
KRDR,08-02-2017,04:56,METAR,Normal,10,5,,,9999.0,,15.2,12.5,30.17,,,,,,,,,,,,,,,,Clear,72000.0,,,,,,,,,
KRDR,08-02-2017,03:56,METAR,Normal,10,6,,,9999.0,,16.9,12.6,30.15,,,,,,,,,,,,,,,,Clear,72000.0,,,,,,,,,
KRDR,08-02-2017,02:56,METAR,Normal,350,7,,,9999.0,,16.8,12.3,30.15,1021.3,,,,,,,,,,,,,,,Clear,72000.0,,,,,,,,,
KRDR,08-02-2017,01:56,METAR,Normal,20,7,,,9999.0,,19.9,12.1,30.14,,,,,,,,,,,,,,,,Clear,72000.0,,,,,,,,,
KRDR,08-02-2017,00:56,METAR,Normal,20,9,,,9999.0,,23.6,11.9,30.13,1020.6,,,,,,,,,,,,,,,Clear,72000.0,,,,,,,,,
KRDR,08-01-2017,23:56,METAR,Normal,10,15,21.0,,9999.0,,25.0,10.4,30.13,1020.6,,,,,,,,,,,,,,,Clear,72000.0,,,,,,,,,
KRDR,08-01-2017,22:56,METAR,Normal,10,14,,,9999.0,,26.6,11.9,30.11,1019.9,,,,,,,,,,,,,,,Clear,72000.0,,,,,,,,,
KRDR,08-01-2017,21:56,METAR,Normal,10,15,20.0,020/31KTS,9999.0,,27.2,12.4,30.10,1019.5,,,,,,,,,,,,,,,Clear,72000.0,,,,,,,,,
KRDR,08-01-2017,20:56,METAR,Normal,360,16,21.0,,9999.0,,27.7,13.2,30.10,1019.5,,,,,,,,,,,,,,,Clear,72000.0,,,,,,,,,
KRDR,08-01-2017,20:46,SPECI,Normal,30,15,20.0,,9999.0,,28.0,15.0,30.10,1019.4,,,,,,,,,,,,,,,,,4900.0,FEW,4900.0,,,,,,
KRDR,08-01-2017,19:56,METAR,Normal,360,12,,,9999.0,,27.8,16.7,30.10,1019.4,,,,,,,,,,,,,,,,,3900.0,FEW,3900.0,,,,,,
KRDR,08-01-2017,18:56,METAR,Normal,10,11,17.0,,9999.0,,26.2,16.7,30.11,1019.8,,,,,,,,,,,,,,,Clear,72000.0,,,,,,,,,
KRDR,08-01-2017,18:08,SPECI,Normal,30,12,19.0,,9999.0,,26.0,17.0,30.10,1019.5,,,,,,,,,,,,,,,Clear,72000.0,,,,,,,,,
KRDR,08-01-2017,17:56,METAR,Normal,360,9,,,9999.0,,25.9,15.6,30.10,1019.5,,,,,,,,,,,,,,,Clear,72000.0,,,,,,,,,
KRDR,08-01-2017,16:56,METAR,Normal,350,9,,,9999.0,,24.7,15.3,30.10,1019.5,,,,,,,,,,,,,,,Clear,72000.0,,,,,,,,,
KRDR,08-01-2017,14:56,METAR,Normal,360,9,,,9999.0,,22.4,14.5,30.09,1019.2,,,,,,,,,,,,,,,Clear,72000.0,,,,,,,,,
KRDR,08-01-2017,13:56,METAR,Normal,330,7,,,9999.0,,19.6,14.4,30.09,1019.2,,,,,,,,,,,,,,,Clear,72000.0,,,,,,,,,
KRDR,08-01-2017,12:56,METAR,Normal,320,7,,,9999.0,,17.8,14.7,30.08,1018.8,,,,,,,,,,,,,,,Clear,72000.0,,,,,,,,,
KRDR,08-01-2017,11:56,METAR,Normal,300,6,,,9999.0,,16.6,15.3,30.07,1018.5,,,,,,,,,,,,,,,Clear,72000.0,,,,,,,,,
KRDR,08-01-2017,10:56,METAR,Normal,280,3,,,9999.0,,15.8,14.8,30.06,1018.1,,,,,,,,,,,,,,,Clear,72000.0,,,,,,,,,
KRDR,08-01-2017,09:56,METAR,Normal,310,6,,,9999.0,,18.4,16.0,30.06,1018.0,,,,,,,,,,,,,,,,,2400.0,FEW,2400.0,SCT,5000.0,,,,
KRDR,08-01-2017,08:56,METAR,Normal,300,6,,,9999.0,,18.7,15.7,30.05,1017.7,,,,,,,,,,,,,,,,,6000.0,SCT,6000.0,,,,,,
KRDR,08-01-2017,07:56,METAR,Normal,290,5,,,9999.0,,19.3,16.3,30.06,1018.0,,,,,,,,,,,,,,,,6000.0,6000.0,OVC,6000.0,,,,,,
KRDR,08-01-2017,06:56,METAR,Normal,310,4,,,9999.0,,19.2,16.8,30.05,1017.7,,,,,,,,,,,,,,,,7000.0,7000.0,BKN,7000.0,,,,,,
KRDR,08-01-2017,05:56,METAR,Normal,310,6,,,9999.0,,19.5,16.9,30.03,1017.0,,,,,,,,,,,,,TRACE,,Clear,72000.0,,,,,,,,,
KRDR,08-01-2017,04:56,METAR,Normal,330,6,,,9999.0,,20.1,17.1,30.03,1017.0,,,,,,,,,,,,,,,Clear,72000.0,,,,,,,,,
KRDR,08-01-2017,03:56,METAR,Normal,340,6,,,9999.0,,21.0,17.8,30.02,1016.7,,,,,,,,,,,,,,,Clear,72000.0,,,,,,,,,
KRDR,08-01-2017,02:56,METAR,Normal,330,6,,,9999.0,,22.6,19.1,30.01,1016.3,,,,,,,,,,,TRACE,TRACE,,,Clear,72000.0,,,,,,,,,
KRDR,08-01-2017,01:56,METAR,Normal,350,10,,,9999.0,,24.9,19.9,29.97,1015.0,,,,,,,,,,,TRACE,,,,Clear,72000.0,,,,,,,,,
KRDR,08-01-2017,01:34,SPECI,Normal,210,4,,,9999.0,,25.0,20.0,29.98,1015.3,,,,,,,,,,,,,,,4/8 Partly Cloudy,72000.0,5000.0,SCT,5000.0,,,,,,
KRDR,08-01-2017,01:18,SPECI,Calm,,0,,,9999.0,Dry Thunderstorm,26.0,19.0,29.97,1015.0,91,,,,,,,,,,,,,,4/8 Partly Cloudy,72000.0,5000.0,SCT,5000.0,,,,,,
KRDR,08-01-2017,01:15,SPECI,Normal,220,5,,,9999.0,,26.0,19.0,29.96,,,,,,,,,,,,,,,,4/8 Partly Cloudy,72000.0,5000.0,SCT,5000.0,,,,,,
KRDR,08-01-2017,00:56,METAR,Normal,220,6,,,9999.0,Distant Lightning,26.0,19.8,29.97,1015.0,12,,,,,,,,,,,,,,Clear,72000.0,,,,,,,,,
KRDR,08-01-2017,00:14,SPECI,Normal,240,10,,,9999.0,Lightning,26.0,20.0,29.97,1015.0,,,,13,,,,,,,,,,,,3000.0,3000.0,BKN,3000.0,BKN,10000.0,,,,
KRDR,07-31-2017,23:56,METAR,Normal,240,7,,,9999.0,,27.1,20.9,29.97,1015.0,,,,,,,,,,,TRACE,,TRACE,,2/8 Mostly Clear,72000.0,9000.0,FEW,9100.0,FEW,17000.0,,,,
KRDR,07-31-2017,23:55,SPECI,Normal,240,6,,,9999.0,,27.0,21.0,29.96,1014.7,,,,,,,,,,,,,,,2/8 Mostly Clear,72000.0,9000.0,FEW,9100.0,FEW,17000.0,,,,
KRDR,07-31-2017,23:44,SPECI,Normal,220,6,,,9999.0,Light Drizzle,28.0,20.0,29.96,1014.7,51,,,,,,,,,,,,,,4/8 Partly Cloudy,72000.0,7500.0,FEW,7500.0,SCT,17000.0,,,,
KRDR,07-31-2017,23:35,SPECI,Normal,210,7,,,9999.0,Distant Lightning,29.0,19.0,29.95,1014.3,12,,,,,,,,,,,,,,4/8 Partly Cloudy,72000.0,17000.0,SCT,17000.0,,,,,,
KRDR,07-31-2017,23:24,SPECI,Normal,210,9,,,9999.0,Dry Thunderstorm,29.0,19.0,29.95,1014.3,91,,,,,,,,,,,,,,2/8 Mostly Clear,72000.0,7000.0,FEW,7000.0,FEW,16000.0,,,,
KRDR,07-31-2017,23:21,SPECI,Normal,210,10,,,9999.0,Thunderstorm,29.0,19.0,29.94,1014.0,,,,17,,,,,,,,,,,,10000.0,,BKN,,BKN,10000.0,,,,
KRDR,07-31-2017,23:19,SPECI,Normal,210,10,,,9999.0,Dry Thunderstorm,29.0,19.0,29.94,1014.0,91,,,,,,,,,,,,,,Clear,72000.0,,,,,,,,,
KRDR,07-31-2017,23:18,SPECI,Normal,200,9,,,9999.0,Lightning,29.0,19.0,29.94,1014.0,,,,13,,,,,,,,,,,,3000.0,3000.0,BKN,3000.0,BKN,10000.0,,,,
KRDR,07-31-2017,22:56,METAR,Normal,210,12,,,9999.0,,29.8,18.8,29.95,1014.3,,,,,,,,,,,,,,,Clear,72000.0,,,,,,,,,
KRDR,07-31-2017,21:56,METAR,Normal,210,13,19.0,,9999.0,,31.6,19.2,29.98,1015.3,,,,,,,,,,,,,,,Clear,72000.0,,,,,,,,,
KRDR,07-31-2017,20:56,METAR,Normal,230,12,20.0,,9999.0,,31.7,19.0,29.99,1015.6,,,,,,,,,,,,,,,Clear,72000.0,,,,,,,,,
KRDR,07-31-2017,19:56,METAR,Normal,230,12,21.0,,9999.0,,31.3,19.9,30.01,1016.3,,,,,,,,,,,,,,,Clear,72000.0,,,,,,,,,
KRDR,07-31-2017,18:56,METAR,Normal,210,15,21.0,,9999.0,,30.7,19.4,30.02,1016.6,,,,,,,,,,,,,,,Clear,72000.0,,,,,,,,,
KRDR,07-31-2017,17:56,METAR,Normal,220,14,,,9999.0,,30.0,19.3,30.04,1017.3,,,,,,,,,,,,,,,Clear,72000.0,,,,,,,,,
KRDR,07-31-2017,16:56,METAR,Normal,230,13,19.0,,9999.0,,29.1,19.7,30.06,1017.9,,,,,,,,,,,,,,,Clear,72000.0,,,,,,,,,
KRDR,07-31-2017,15:56,METAR,Normal,220,10,,,9999.0,,27.9,19.4,30.07,1018.3,,,,,,,,,,,,,,,Clear,72000.0,,,,,,,,,
KRDR,07-31-2017,14:56,METAR,Normal,230,9,,,9999.0,,25.9,19.3,30.07,1018.3,,,,,,,,,,,,,,,Clear,72000.0,,,,,,,,,
KRDR,07-31-2017,13:56,METAR,Normal,230,7,,,9999.0,,23.9,18.7,30.08,1018.7,,,,,,,,,,,,,,,Clear,72000.0,,,,,,,,,
KRDR,07-31-2017,12:56,METAR,Normal,190,7,,,9999.0,,20.5,18.1,30.08,1018.7,,,,,,,,,,,,,,,Clear,72000.0,,,,,,,,,
KRDR,07-31-2017,11:56,METAR,Normal,200,6,,,9999.0,,18.4,17.7,30.07,1018.4,,,,,,,,,,,,,,,Clear,72000.0,,,,,,,,,
KRDR,07-31-2017,10:56,METAR,Normal,180,7,,,9999.0,,17.3,16.8,30.07,1018.4,,,,,,,,,,,,,,,Clear,72000.0,,,,,,,,,
KRDR,07-31-2017,09:56,METAR,Normal,190,5,,,9999.0,,17.7,16.9,30.07,1018.3,,,,,,,,,,,,,,,Clear,72000.0,,,,,,,,,
KRDR,07-31-2017,08:56,METAR,Normal,180,6,,,9999.0,,18.7,17.4,30.08,1018.7,,,,,,,,,,,,,,,Clear,72000.0,,,,,,,,,
KRDR,07-31-2017,07:56,METAR,Normal,210,5,,,9999.0,,19.7,18.3,30.09,1019.0,,,,,,,,,,,,,,,Clear,72000.0,,,,,,,,,
KRDR,07-31-2017,06:56,METAR,Normal,210,6,,,9999.0,,20.0,18.8,30.09,1019.0,,,,,,,,,,,,,,,Clear,72000.0,,,,,,,,,
KRDR,07-31-2017,05:56,METAR,Normal,210,6,,,9999.0,,21.3,18.7,30.09,1019.0,,,,,,,,,,,,,,,Clear,72000.0,,,,,,,,,
KRDR,07-31-2017,04:56,METAR,Normal,200,7,,,9999.0,,22.0,19.1,30.10,1019.3,,,,,,,,,,,,,,,Clear,72000.0,,,,,,,,,
KRDR,07-31-2017,03:56,METAR,Normal,160,6,,,9999.0,,23.1,19.4,30.10,1019.4,,,,,,,,,,,,,,,Clear,72000.0,,,,,,,,,
KRDR,07-31-2017,02:56,METAR,Normal,150,5,,,9999.0,,23.8,19.7,30.10,1019.4,,,,,,,,,,,,,,,Clear,72000.0,,,,,,,,,
KRDR,07-31-2017,01:56,METAR,Normal,170,5,,,9999.0,,26.1,20.2,30.09,1019.0,,,,,,,,,,,,,,,Clear,72000.0,,,,,,,,,
KRDR,07-31-2017,00:56,METAR,Normal,180,7,,,9999.0,,28.9,19.8,30.09,1019.0,,,,,,,,,,,,,,,Clear,72000.0,,,,,,,,,
KRDR,07-30-2017,23:56,METAR,Normal,170,7,,,9999.0,,30.0,19.0,30.09,1019.1,,,,,,,,,,,,,,,Clear,72000.0,,,,,,,,,
KRDR,07-30-2017,22:56,METAR,Normal,200,9,,,9999.0,,30.9,18.6,30.09,1019.1,,,,,,,,,,,,,,,Clear,72000.0,,,,,,,,,
KRDR,07-30-2017,21:56,METAR,Normal,210,9,,,9999.0,,31.3,18.6,30.10,1019.4,,,,,,,,,,,,,,,Clear,72000.0,,,,,,,,,
KRDR,07-30-2017,20:56,METAR,Normal,220,9,,,9999.0,,31.0,20.3,30.11,1019.7,,,,,,,,,,,,,,,Clear,72000.0,,,,,,,,,
KRDR,07-30-2017,19:56,METAR,Normal,180,10,,,9999.0,,31.8,18.7,30.13,1020.4,,,,,,,,,,,,,,,2/8 Mostly Clear,72000.0,5000.0,FEW,5000.0,,,,,,
KRDR,07-30-2017,18:56,METAR,Normal,210,8,,,9999.0,,31.4,18.0,30.13,1020.4,,,,,,,,,,,,,,,Clear,72000.0,,,,,,,,,
KRDR,07-30-2017,17:56,METAR,Normal,200,6,,,9999.0,,30.7,20.0,30.14,1020.7,,,,,,,,,,,,,,,Clear,72000.0,,,,,,,,,
KRDR,07-30-2017,16:56,METAR,Normal,170,4,,,9999.0,,29.1,20.2,30.14,1020.7,,,,,,,,,,,,,,,Clear,72000.0,,,,,,,,,
KRDR,07-30-2017,15:56,METAR,Normal,170,3,,,9999.0,,26.9,20.2,30.13,1020.4,,,,,,,,,,,,,,,2/8 Mostly Clear,72000.0,19000.0,FEW,19000.0,,,,,,
KRDR,07-30-2017,14:56,METAR,Calm,,0,,,9999.0,,26.0,19.4,30.13,1020.4,,,,,,,,,,,,,,,Clear,72000.0,,,,,,,,,
KRDR,07-30-2017,13:56,METAR,Normal,170,4,,,9999.0,,23.3,18.4,30.14,1020.8,,,,,,,,,,,,,,,Clear,72000.0,,,,,,,,,
KRDR,07-30-2017,12:56,METAR,Calm,,0,,,9999.0,,20.5,17.7,30.13,1020.4,,,,,,,,,,,,,,,Clear,72000.0,,,,,,,,,
KRDR,07-30-2017,11:56,METAR,Calm,,0,,,9999.0,,17.6,17.1,30.11,1019.7,,,,,,,,,,,,,,,Clear,72000.0,,,,,,,,,
KRDR,07-30-2017,10:56,METAR,Calm,,0,,,9999.0,,16.3,15.8,30.11,1019.8,,,,,,,,,,,,,,,Clear,72000.0,,,,,,,,,
KRDR,07-30-2017,09:56,METAR,Normal,180,6,,,9999.0,,17.5,16.3,30.11,1019.7,,,,,,,,,,,,,,,Clear,72000.0,,,,,,,,,
KRDR,07-30-2017,08:56,METAR,Normal,190,5,,,9999.0,,18.0,16.3,30.11,1019.7,,,,,,,,,,,,,,,2/8 Mostly Clear,72000.0,13000.0,FEW,13000.0,FEW,15000.0,,,,
KRDR,07-30-2017,07:56,METAR,Calm,,0,,,9999.0,,18.9,16.3,30.10,1019.4,,,,,,,,,,,,,,,4/8 Partly Cloudy,72000.0,15000.0,SCT,15000.0,,,,,,
KRDR,07-30-2017,06:56,METAR,Calm,,0,,,9999.0,,19.9,16.5,30.10,1019.4,,,,,,,,,,,,,,,,16000.0,16000.0,BKN,16000.0,,,,,,
KRDR,07-30-2017,05:56,METAR,Calm,,0,,,9999.0,,20.1,16.7,30.09,1019.0,,,,,,,,,,,,,,,Clear,72000.0,,,,,,,,,
KRDR,07-30-2017,04:56,METAR,Normal,180,7,,,9999.0,,20.9,17.5,30.08,1018.7,,,,,,,,,,,,,,,Clear,72000.0,,,,,,,,,
KRDR,07-30-2017,03:56,METAR,Normal,170,7,,,9999.0,,22.5,18.7,30.07,1018.3,,,,,,,,,,,,,,,Clear,72000.0,,,,,,,,,
KRDR,07-30-2017,02:56,METAR,Normal,190,7,,,9999.0,,22.8,18.3,30.06,1018.0,,,,,,,,,,,,,,,Clear,72000.0,,,,,,,,,
KRDR,07-30-2017,01:56,METAR,Normal,180,8,,,9999.0,,23.8,18.9,30.05,1017.7,,,,,,,,,,,,,,,Clear,72000.0,,,,,,,,,
KRDR,07-30-2017,00:56,METAR,Normal,190,6,,,9999.0,,26.7,18.8,30.06,1018.0,,,,,,,,,,,,,,,Clear,72000.0,,,,,,,,,
KRDR,07-29-2017,23:56,METAR,Normal,200,9,,,9999.0,,29.6,16.7,30.06,1018.0,,,,,,,,,,,,,,,4/8 Partly Cloudy,72000.0,6000.0,SCT,6000.0,,,,,,
KRDR,07-29-2017,22:56,METAR,Normal,190,9,,,9999.0,,30.3,16.3,30.06,1018.0,,,,,,,,,,,,,,,Clear,72000.0,,,,,,,,,
KRDR,07-29-2017,21:56,METAR,Normal,200,10,,,9999.0,,30.6,16.6,30.06,1018.0,,,,,,,,,,,,,,,2/8 Mostly Clear,72000.0,5500.0,FEW,5500.0,,,,,,
KRDR,07-29-2017,20:56,METAR,Normal,170,8,,,9999.0,,30.6,16.9,30.07,1018.3,,,,,,,,,,,,,,,2/8 Mostly Clear,72000.0,5000.0,FEW,5000.0,,,,,,
KRDR,07-29-2017,19:56,METAR,Normal,220,10,,,9999.0,,30.6,17.3,30.05,1017.7,,,,,,,,,,,,,,,Clear,72000.0,,,,,,,,,
KRDR,07-29-2017,18:56,METAR,Normal,200,10,,,9999.0,,28.6,18.3,30.06,1018.1,,,,,,,,,,,,,,,2/8 Mostly Clear,72000.0,17000.0,FEW,17000.0,FEW,20000.0,,,,
KRDR,07-29-2017,17:56,METAR,Normal,210,10,15.0,,9999.0,,29.5,18.3,30.07,1018.3,,,,,,,,,,,,,,,Clear,72000.0,,,,,,,,,
KRDR,07-29-2017,16:56,METAR,Normal,220,11,15.0,,9999.0,,29.0,17.5,30.08,1018.7,,,,,,,,,,,,,,,Clear,72000.0,,,,,,,,,
KRDR,07-29-2017,15:56,METAR,Normal,210,7,,,9999.0,,27.8,18.5,30.07,1018.4,,,,,,,,,,,,,,,Clear,72000.0,,,,,,,,,
KRDR,07-29-2017,14:56,METAR,Normal,200,11,,,9999.0,,26.4,18.0,30.08,1018.7,,,,,,,,,,,,,,,Clear,72000.0,,,,,,,,,
KRDR,07-29-2017,13:56,METAR,Normal,230,6,,,9999.0,,24.3,17.5,30.08,1018.7,,,,,,,,,,,,,,,Clear,72000.0,,,,,,,,,
KRDR,07-29-2017,12:56,METAR,Normal,200,4,,,9999.0,,21.0,16.8,30.07,1018.4,,,,,,,,,,,,,,,Clear,72000.0,,,,,,,,,
KRDR,07-29-2017,11:56,METAR,Normal,180,6,,,9999.0,,17.6,15.8,30.06,1018.1,,,,,,,,,,,,,,,Clear,72000.0,,,,,,,,,
KRDR,07-29-2017,10:56,METAR,Normal,180,6,,,9999.0,,17.1,15.4,30.05,1017.8,,,,,,,,,,,,,,,Clear,72000.0,,,,,,,,,
KRDR,07-29-2017,09:56,METAR,Normal,200,7,,,9999.0,,17.2,15.4,30.04,1017.4,,,,,,,,,,,,,,,Clear,72000.0,,,,,,,,,
KRDR,07-29-2017,08:56,METAR,Normal,210,7,,,9999.0,,18.4,16.0,30.04,1017.4,,,,,,,,,,,,,,,Clear,72000.0,,,,,,,,,
KRDR,07-29-2017,07:56,METAR,Normal,200,5,,,9999.0,,17.2,15.4,30.03,1017.0,,,,,,,,,,,,,,,Clear,72000.0,,,,,,,,,
KRDR,07-29-2017,06:56,METAR,Normal,200,6,,,9999.0,,17.7,15.9,30.03,1017.1,,,,,,,,,,,,,,,Clear,72000.0,,,,,,,,,
KRDR,07-29-2017,05:56,METAR,Normal,200,6,,,9999.0,,19.3,16.3,30.03,1017.0,,,,,,,,,,,,,,,Clear,72000.0,,,,,,,,,
KRDR,07-29-2017,04:56,METAR,Normal,200,5,,,9999.0,,18.8,16.4,30.03,1017.0,,,,,,,,,,,,,,,Clear,72000.0,,,,,,,,,
KRDR,07-29-2017,03:56,METAR,Normal,190,5,,,9999.0,,20.4,17.0,30.02,1016.7,,,,,,,,,,,,,,,Clear,72000.0,,,,,,,,,
KRDR,07-29-2017,02:56,METAR,Normal,150,6,,,9999.0,,22.0,16.9,30.00,1016.0,,,,,,,,,,,,,,,Clear,72000.0,,,,,,,,,
KRDR,07-29-2017,01:56,METAR,Normal,150,6,,,9999.0,,24.6,17.3,30.00,1016.0,,,,,,,,,,,,,,,Clear,72000.0,,,,,,,,,
KRDR,07-29-2017,00:56,METAR,Normal,150,5,,,9999.0,,27.3,17.1,30.01,1016.4,,,,,,,,,,,,,,,Clear,72000.0,,,,,,,,,
KRDR,07-28-2017,23:56,METAR,Normal,180,9,,,9999.0,,28.6,16.2,30.02,1016.8,,,,,,,,,,,,,,,Clear,72000.0,,,,,,,,,
KRDR,07-28-2017,22:56,METAR,Normal,170,9,,,9999.0,,29.3,15.4,30.03,1017.2,,,,,,,,,,,,,,,Clear,72000.0,,,,,,,,,
KRDR,07-28-2017,21:56,METAR,Normal,180,6,,,9999.0,,29.5,15.9,30.04,1017.5,,,,,,,,,,,,,,,2/8 Mostly Clear,72000.0,6000.0,FEW,6000.0,,,,,,
KRDR,07-28-2017,20:56,METAR,Normal,190,11,,,9999.0,,29.8,14.7,30.05,1017.8,,,,,,,,,,,,,,,Clear,72000.0,,,,,,,,,
KRDR,07-28-2017,19:56,METAR,Normal,200,6,,,9999.0,,30.0,15.3,30.05,1017.8,,,,,,,,,,,,,,,2/8 Mostly Clear,72000.0,5500.0,FEW,5500.0,,,,,,
KRDR,07-28-2017,18:56,METAR,Normal,220,5,,,9999.0,,28.9,15.0,30.06,1018.2,,,,,,,,,,,,,,,Clear,72000.0,,,,,,,,,
KRDR,07-28-2017,17:56,METAR,Normal,180,5,,,9999.0,,29.0,14.8,30.07,1018.5,,,,,,,,,,,,,,,Clear,72000.0,,,,,,,,,
KRDR,07-28-2017,16:56,METAR,Normal,200,7,,,9999.0,,28.2,16.1,30.08,1018.8,,,,,,,,,,,,,,,Clear,72000.0,,,,,,,,,
KRDR,07-28-2017,15:56,METAR,Normal,210,7,,,9999.0,,27.0,16.6,30.08,1018.8,,,,,,,,,,,,,,,Clear,72000.0,,,,,,,,,
KRDR,07-28-2017,14:56,METAR,Normal,180,5,,,9999.0,,24.7,16.9,30.09,1019.2,,,,,,,,,,,,,,,Clear,72000.0,,,,,,,,,
KRDR,07-28-2017,13:56,METAR,Normal,200,3,,,9999.0,,22.5,16.5,30.10,1019.5,,,,,,,,,,,,,,,Clear,72000.0,,,,,,,,,
KRDR,07-28-2017,12:56,METAR,Calm,,0,,,9999.0,,18.8,15.6,30.09,1019.1,,,,,,,,,,,,,,,Clear,72000.0,,,,,,,,,
KRDR,07-28-2017,11:56,METAR,Calm,,0,,,9999.0,,13.5,13.0,30.08,1018.9,,,,,,,,,,,,,,,Clear,72000.0,,,,,,,,,
KRDR,07-28-2017,10:56,METAR,Calm,,0,,,9999.0,,13.3,13.0,30.08,1018.9,,,,,,,,,,,,,,,Clear,72000.0,,,,,,,,,
KRDR,07-28-2017,09:56,METAR,Calm,,0,,,9999.0,,13.5,13.3,30.07,1018.5,,,,,,,,,,,,,,,Clear,72000.0,,,,,,,,,
KRDR,07-28-2017,08:56,METAR,Calm,,0,,,9999.0,,13.8,13.6,30.07,1018.5,,,,,,,,,,,,,,,Clear,72000.0,,,,,,,,,
KRDR,07-28-2017,07:56,METAR,Calm,,0,,,9999.0,,14.0,13.0,30.06,1018.2,,,,,,,,,,,,,,,Clear,72000.0,,,,,,,,,
KRDR,07-28-2017,06:56,METAR,Calm,,0,,,9999.0,,14.3,13.3,30.06,1018.2,,,,,,,,,,,,,,,Clear,72000.0,,,,,,,,,
KRDR,07-28-2017,05:56,METAR,Normal,230,3,,,9999.0,,15.4,14.6,30.06,1018.2,,,,,,,,,,,,,,,Clear,72000.0,,,,,,,,,
KRDR,07-28-2017,04:56,METAR,Normal,220,3,,,9999.0,,16.1,14.8,30.06,1018.2,,,,,,,,,,,,,,,Clear,72000.0,,,,,,,,,
KRDR,07-28-2017,03:56,METAR,Calm,,0,,,9999.0,,17.6,15.6,30.06,1018.2,,,,,,,,,,,,,,,Clear,72000.0,,,,,,,,,
KRDR,07-28-2017,02:56,METAR,Calm,,0,,,9999.0,,19.0,16.4,30.06,1018.2,,,,,,,,,,,,,,,Clear,72000.0,,,,,,,,,
KRDR,07-28-2017,01:56,METAR,Calm,,0,,,9999.0,,23.1,16.1,30.05,1017.9,,,,,,,,,,,,,,,Clear,72000.0,,,,,,,,,
KRDR,07-28-2017,00:56,METAR,Calm,,0,,,9999.0,,26.7,14.4,30.06,1018.2,,,,,,,,,,,,,,,Clear,72000.0,,,,,,,,,
KRDR,07-27-2017,23:56,METAR,Normal,200,4,,,9999.0,,27.8,13.7,30.07,1018.5,,,,,,,,,,,,,,,Clear,72000.0,,,,,,,,,
KRDR,07-27-2017,22:56,METAR,Calm,,0,,,9999.0,,28.8,13.0,30.07,1018.6,,,,,,,,,,,,,,,Clear,72000.0,,,,,,,,,
KRDR,07-27-2017,21:56,METAR,Calm,,0,,,9999.0,,28.5,13.6,30.07,1018.6,,,,,,,,,,,,,,,Clear,72000.0,,,,,,,,,
KRDR,07-27-2017,20:56,METAR,Normal,210,5,,,9999.0,,28.4,13.5,30.09,1019.2,,,,,,,,,,,,,,,Clear,72000.0,,,,,,,,,
KRDR,07-27-2017,19:56,METAR,Normal,180,5,,,9999.0,,28.3,13.4,30.10,1019.6,,,,,,,,,,,,,,,Clear,72000.0,,,,,,,,,
KRDR,07-27-2017,18:56,METAR,Calm,,0,,,9999.0,,28.1,13.6,30.11,1019.9,,,,,,,,,,,,,,,Clear,72000.0,,,,,,,,,
KRDR,07-27-2017,17:56,METAR,Calm,,0,,,9999.0,,28.1,13.2,30.12,1020.2,,,,,,,,,,,,,,,Clear,72000.0,,,,,,,,,
KRDR,07-27-2017,16:56,METAR,Normal,330,3,,,9999.0,,26.7,14.1,30.13,1020.6,,,,,,,,,,,,,,,Clear,72000.0,,,,,,,,,
KRDR,07-27-2017,15:56,METAR,Normal,290,4,,,9999.0,,26.0,16.2,30.13,1020.6,,,,,,,,,,,,,,,Clear,72000.0,,,,,,,,,
KRDR,07-27-2017,14:56,METAR,Normal,310,3,,,9999.0,,21.8,17.2,30.13,1020.6,,,,,,,,,,,,,,,Clear,72000.0,,,,,,,,,
KRDR,07-27-2017,13:56,METAR,Normal,290,4,,,9999.0,,19.7,15.9,30.14,1021.0,,,,,,,,,,,,,,,Clear,72000.0,,,,,,,,,
KRDR,07-27-2017,12:56,METAR,Calm,,0,,,9999.0,,17.7,16.0,30.13,1020.6,,,,,,,,,,,,,,,Clear,72000.0,,,,,,,,,
KRDR,07-27-2017,11:56,METAR,Calm,,0,,,9999.0,,13.3,13.0,30.12,1020.3,,,,,,,,,,,,,,,Clear,72000.0,,,,,,,,,
KRDR,07-27-2017,10:56,METAR,Normal,250,4,,,9999.0,,11.4,11.2,30.12,1020.4,,,,,,,,,,,,,,,Clear,72000.0,,,,,,,,,
KRDR,07-27-2017,09:56,METAR,Calm,,0,,,9999.0,,11.7,11.5,30.10,1019.6,,,,,,,,,,,,,,,Clear,72000.0,,,,,,,,,
KRDR,07-27-2017,08:56,METAR,Calm,,0,,,9999.0,,13.6,13.3,30.11,1019.9,,,,,,,,,,,,,,,Clear,72000.0,,,,,,,,,
KRDR,07-27-2017,07:56,METAR,Normal,290,3,,,9999.0,,13.1,12.5,30.11,1020.0,,,,,,,,,,,,,,,Clear,72000.0,,,,,,,,,
KRDR,07-27-2017,06:56,METAR,Normal,270,3,,,9999.0,,14.5,13.7,30.11,1019.9,,,,,,,,,,,,,,,Clear,72000.0,,,,,,,,,
KRDR,07-27-2017,05:56,METAR,Normal,290,3,,,9999.0,,14.4,13.6,30.11,1020.0,,,,,,,,,,,,,,,Clear,72000.0,,,,,,,,,
KRDR,07-27-2017,04:56,METAR,Normal,290,3,,,9999.0,,14.9,14.1,30.10,1019.6,,,,,,,,,,,,,,,Clear,72000.0,,,,,,,,,
KRDR,07-27-2017,03:56,METAR,Normal,300,3,,,9999.0,,16.1,14.4,30.09,1019.3,,,,,,,,,,,,,,,Clear,72000.0,,,,,,,,,
KRDR,07-27-2017,02:56,METAR,Normal,340,3,,,9999.0,,18.1,15.5,30.08,1018.9,,,,,,,,,,,,,,,Clear,72000.0,,,,,,,,,
KRDR,07-27-2017,01:56,METAR,Normal,340,3,,,9999.0,,21.0,16.0,30.07,1018.5,,,,,,,,,,,,,,,Clear,72000.0,,,,,,,,,
KRDR,07-27-2017,00:56,METAR,Normal,10,6,,,9999.0,,24.5,15.1,30.07,1018.5,,,,,,,,,,,,,,,Clear,72000.0,,,,,,,,,
KRDR,07-26-2017,23:56,METAR,Normal,10,8,,,9999.0,,26.1,15.1,30.07,1018.5,,,,,,,,,,,,,,,Clear,72000.0,,,,,,,,,
KRDR,07-26-2017,22:56,METAR,Normal,20,11,,,9999.0,,27.0,14.7,30.07,1018.5,,,,,,,,,,,,,,,Clear,72000.0,,,,,,,,,
KRDR,07-26-2017,21:56,METAR,Normal,360,10,,,9999.0,,27.0,14.7,30.07,1018.5,,,,,,,,,,,,,,,Clear,72000.0,,,,,,,,,
KRDR,07-26-2017,20:56,METAR,Normal,10,13,17.0,,9999.0,,27.2,15.2,30.07,1018.5,,,,,,,,,,,,,,,4/8 Partly Cloudy,72000.0,4500.0,SCT,4500.0,,,,,,
KRDR,07-26-2017,19:56,METAR,Normal,10,7,,,9999.0,,26.7,15.1,30.07,1018.5,,,,,,,,,,,,,,,2/8 Mostly Clear,72000.0,4300.0,FEW,4300.0,,,,,,
KRDR,07-26-2017,18:56,METAR,Normal,10,10,,,9999.0,,25.9,15.6,30.07,1018.5,,,,,,,,,,,,,,,2/8 Mostly Clear,72000.0,4200.0,FEW,4200.0,,,,,,
KRDR,07-26-2017,17:56,METAR,Normal,350,7,,,9999.0,,25.0,15.6,30.08,1018.9,,,,,,,,,,,,,,,2/8 Mostly Clear,72000.0,3700.0,FEW,3700.0,,,,,,
KRDR,07-26-2017,16:56,METAR,Normal,350,7,,,9999.0,,25.1,16.2,30.07,1018.5,,,,,,,,,,,,,,,Clear,72000.0,,,,,,,,,
KRDR,07-26-2017,15:56,METAR,Normal,340,9,,,9999.0,,24.2,16.7,30.06,1018.3,,,,,,,,,,,,,,,Clear,72000.0,,,,,,,,,
KRDR,07-26-2017,14:56,METAR,Normal,340,10,,,9999.0,,22.6,16.4,30.05,1017.9,,,,,,,,,,,,,,,Clear,72000.0,,,,,,,,,
KRDR,07-26-2017,13:56,METAR,Normal,350,8,,,9999.0,,20.9,15.9,30.04,1017.5,,,,,,,,,,,,,,,Clear,72000.0,,,,,,,,,
KRDR,07-26-2017,12:56,METAR,Normal,340,8,,,9999.0,,19.3,15.4,30.02,1016.8,,,,,,,,,,,,,,,Clear,72000.0,,,,,,,,,
KRDR,07-26-2017,11:56,METAR,Normal,330,8,,,9999.0,,17.3,14.6,30.01,1016.4,,,,,,,,,,,,,,,Clear,72000.0,,,,,,,,,
KRDR,07-26-2017,10:56,METAR,Normal,300,5,,,9999.0,,16.2,14.5,30.01,1016.4,,,,,,,,,,,,,,,Clear,72000.0,,,,,,,,,
KRDR,07-26-2017,09:56,METAR,Normal,310,6,,,9999.0,,17.0,14.4,30.00,1016.0,,,,,,,,,,,,,,,Clear,72000.0,,,,,,,,,
KRDR,07-26-2017,08:56,METAR,Normal,300,6,,,9999.0,,16.5,14.1,29.99,1015.7,,,,,,,,,,,,,,,Clear,72000.0,,,,,,,,,
KRDR,07-26-2017,07:56,METAR,Normal,280,4,,,9999.0,,15.8,14.3,29.98,1015.4,,,,,,,,,,,,,,,Clear,72000.0,,,,,,,,,
KRDR,07-26-2017,06:56,METAR,Normal,250,5,,,9999.0,,15.4,14.3,30.00,1016.1,,,,,,,,,,,,,,,Clear,72000.0,,,,,,,,,
KRDR,07-26-2017,05:56,METAR,Normal,260,5,,,9999.0,,16.3,14.6,30.00,1016.1,,,,,,,,,,,,,,,Clear,72000.0,,,,,,,,,
KRDR,07-26-2017,04:56,METAR,Normal,230,6,,,9999.0,,16.5,14.7,29.98,1015.5,,,,,,,,,,,,,,,Clear,72000.0,,,,,,,,,
KRDR,07-26-2017,03:56,METAR,Normal,280,3,,,9999.0,,16.4,14.0,29.96,1014.9,,,,,,,,,,,,,,,Clear,72000.0,,,,,,,,,
KRDR,07-26-2017,02:56,METAR,Normal,320,4,,,9999.0,,19.4,14.6,29.95,1014.5,,,,,,,,,,,,,,,Clear,72000.0,,,,,,,,,
KRDR,07-26-2017,01:56,METAR,Normal,340,9,,,9999.0,,22.8,14.6,29.94,1014.1,,,,,,,,,,,,,,,Clear,72000.0,,,,,,,,,
KRDR,07-26-2017,00:56,METAR,Normal,300,6,,,9999.0,,25.7,15.1,29.90,1012.6,,,,,,,,,,,,,,,Clear,72000.0,,,,,,,,,
KRDR,07-25-2017,23:56,METAR,Normal,300,12,,,9999.0,,26.7,14.1,29.90,1012.6,,,,,,,,,,,,,,,Clear,72000.0,,,,,,,,,
KRDR,07-25-2017,22:56,METAR,Normal,300,12,,,9999.0,,27.7,13.6,29.90,1012.6,,,,,,,,,,,,,,,Clear,72000.0,,,,,,,,,
KRDR,07-25-2017,21:56,METAR,Normal,300,8,,,9999.0,,28.5,14.3,29.89,1012.2,,,,,,,,,,,,,,,Clear,72000.0,,,,,,,,,
KRDR,07-25-2017,20:56,METAR,Normal,290,13,,,9999.0,,29.1,12.5,29.88,1011.9,,,,,,,,,,,,,,,Clear,72000.0,,,,,,,,,
KRDR,07-25-2017,19:56,METAR,Normal,320,9,,,9999.0,,30.1,15.0,29.87,1011.5,,,,,,,,,,,,,,,Clear,72000.0,,,,,,,,,
KRDR,07-25-2017,18:56,METAR,Normal,310,8,,,9999.0,,29.1,17.6,29.85,1010.9,,,,,,,,,,,,,,,Clear,72000.0,,,,,,,,,
KRDR,07-25-2017,17:56,METAR,Normal,240,7,,,9999.0,,28.3,19.8,29.87,1011.6,,,,,,,,,,,,,,,Clear,72000.0,,,,,,,,,
KRDR,07-25-2017,16:56,METAR,Normal,240,7,,,9999.0,,25.7,21.1,29.89,1012.3,,,,,,,,,,,,,,,2/8 Mostly Clear,72000.0,20000.0,FEW,20000.0,,,,,,
KRDR,07-25-2017,15:56,METAR,Normal,200,8,,,9999.0,,24.1,20.0,29.87,1011.7,,,,,,,,,,,,,,,Clear,72000.0,,,,,,,,,
KRDR,07-25-2017,14:56,METAR,Normal,190,6,,,9999.0,,21.6,19.5,29.87,1011.7,,,,,,,,,,,,,,,4/8 Partly Cloudy,72000.0,6500.0,SCT,6500.0,,,,,,
KRDR,07-25-2017,13:56,METAR,Normal,180,8,,,9999.0,,21.1,19.0,29.87,1011.7,,,,,,,,,,,,,,,,15000.0,2900.0,SCT,2900.0,OVC,15000.0,,,,
KRDR,07-25-2017,13:29,SPECI,Normal,170,10,,,9999.0,,20.0,19.0,29.86,1011.3,,,,,,,,,,,,,,,,5000.0,5000.0,BKN,5000.0,OVC,20000.0,,,,
KRDR,07-25-2017,12:56,METAR,Normal,180,8,,,9999.0,,19.9,18.9,29.87,1011.7,,,,,,,,,,,,,,,Clear,72000.0,,,,,,,,,
KRDR,07-25-2017,11:56,METAR,Normal,160,9,,,9999.0,,18.4,18.4,29.85,1011.0,,,,,,,,,,,,,,,Clear,72000.0,,,,,,,,,
KRDR,07-25-2017,11:26,SPECI,Normal,150,5,,,9999.0,,18.0,18.0,29.87,1011.7,,,,,,,,,,,,,,,4/8 Partly Cloudy,72000.0,1100.0,SCT,1100.0,,,,,,
KRDR,07-25-2017,10:56,METAR,Calm,,0,,,9999.0,,17.8,17.6,29.88,1012.0,,,,,,,,,,,,,,,,1100.0,1100.0,BKN,1100.0,OVC,22000.0,,,,
KRDR,07-25-2017,10:41,SPECI,Calm,,0,,,9999.0,,18.0,17.0,29.87,1011.7,,,,,,,,,,,,,,,,1000.0,1000.0,BKN,1000.0,BKN,22000.0,,,,
KRDR,07-25-2017,10:31,SPECI,Calm,,0,,,9999.0,,18.0,18.0,29.86,1011.3,,,,,,,,,,,,,,,,22000.0,1000.0,SCT,1000.0,BKN,22000.0,,,,
KRDR,07-25-2017,10:21,SPECI,Calm,,0,,,9999.0,,18.0,18.0,29.87,1011.7,,,,,,,,,,,,,,,,1000.0,1000.0,BKN,1000.0,,,,,,
KRDR,07-25-2017,09:56,METAR,Normal,330,5,,,9999.0,,18.4,17.7,29.86,1011.3,,,,,,,,,,,,,,,2/8 Mostly Clear,72000.0,1100.0,FEW,1100.0,,,,,,
KRDR,07-25-2017,09:53,SPECI,Normal,320,7,,,9999.0,,19.0,18.0,29.86,1011.3,,,,,,,,,,,,,,,2/8 Mostly Clear,72000.0,1100.0,FEW,1100.0,,,,,,
KRDR,07-25-2017,08:56,METAR,Normal,200,7,,,9999.0,,19.2,17.7,29.85,1010.9,,,,,,,,,,,,,,,Clear,72000.0,,,,,,,,,
KRDR,07-25-2017,07:56,METAR,Normal,180,13,,,9999.0,,19.7,17.6,29.85,1010.9,,,,,,,,,,,,,,,Clear,72000.0,,,,,,,,,
KRDR,07-25-2017,06:56,METAR,Normal,170,13,,,9999.0,,19.9,17.5,29.85,1010.9,,,,,,,,,,,,,,,Clear,72000.0,,,,,,,,,
KRDR,07-25-2017,05:56,METAR,Normal,170,11,,,9999.0,,20.2,17.2,29.85,1011.0,,,,,,,,,,,,,,,Clear,72000.0,,,,,,,,,
KRDR,07-25-2017,04:56,METAR,Normal,170,12,,,9999.0,,20.5,17.5,29.86,1011.3,,,,,,,,,,,,,,,Clear,72000.0,,,,,,,,,
KRDR,07-25-2017,03:56,METAR,Normal,160,12,,,9999.0,,20.6,17.4,29.85,1011.0,,,,,,,,,,,,,,,Clear,72000.0,,,,,,,,,
KRDR,07-25-2017,02:56,METAR,Normal,150,9,,,9999.0,,21.1,17.5,29.87,1011.7,,,,,,,,,,,,,,,Clear,72000.0,,,,,,,,,
KRDR,07-25-2017,01:56,METAR,Normal,170,9,,,9999.0,,22.5,17.6,29.87,1011.7,,,,,,,,,,,,,,,Clear,72000.0,,,,,,,,,
KRDR,07-25-2017,00:56,METAR,Normal,170,13,,,9999.0,,24.2,17.4,29.85,1011.0,,,,,,,,,,,,,,,Clear,72000.0,,,,,,,,,
KRDR,07-24-2017,23:56,METAR,Normal,180,18,23.0,170/26KTS,9999.0,,25.3,17.2,29.86,1011.4,,,,,,,,,,,,,,,Clear,72000.0,,,,,,,,,
KRDR,07-24-2017,22:56,METAR,Normal,180,19,,,9999.0,,26.0,17.6,29.87,1011.7,,,,,,,,,,,,,,,Clear,72000.0,,,,,,,,,
KRDR,07-24-2017,21:56,METAR,Normal,170,18,22.0,,9999.0,,26.8,17.8,29.87,1011.7,,,,,,,,,,,,,,,Clear,72000.0,,,,,,,,,
KRDR,07-24-2017,20:56,METAR,Normal,170,17,22.0,,9999.0,,26.9,17.9,29.89,1012.4,,,,,,,,,,,,,,,4/8 Partly Cloudy,72000.0,3400.0,SCT,3400.0,SCT,19000.0,,,,
KRDR,07-24-2017,19:56,METAR,Normal,180,14,,,9999.0,,25.5,17.9,29.90,1012.7,,,,,,,,,,,,,,,4/8 Partly Cloudy,72000.0,14000.0,FEW,14000.0,FEW,16000.0,SCT,18000.0,,
KRDR,07-24-2017,18:56,METAR,Normal,180,17,21.0,,9999.0,,25.5,18.2,29.90,1012.7,,,,,,,,,,,,,,,4/8 Partly Cloudy,72000.0,2800.0,FEW,2800.0,SCT,20000.0,,,,
KRDR,07-24-2017,18:36,SPECI,Normal,160,13,,,9999.0,,25.0,18.0,29.91,1013.1,,,,,,,,,,,,,,,4/8 Partly Cloudy,72000.0,2600.0,SCT,2600.0,SCT,20000.0,,,,
KRDR,07-24-2017,18:26,SPECI,Normal,170,15,21.0,,9999.0,,25.0,18.0,29.91,1013.1,,,,,,,,,,,,,,,,2600.0,2600.0,BKN,2600.0,BKN,16000.0,BKN,20000.0,,
KRDR,07-24-2017,17:56,METAR,Normal,160,12,,,9999.0,,24.7,17.7,29.91,1013.1,,,,,,,,,,,,,,,4/8 Partly Cloudy,72000.0,15000.0,FEW,15000.0,SCT,19000.0,,,,
KRDR,07-24-2017,17:27,SPECI,Normal,160,12,,,9999.0,,25.0,18.0,29.92,1013.4,,,,,,,,,,,,,,,Clear,72000.0,,,,,,,,,
KRDR,07-24-2017,16:56,METAR,Normal,170,14,21.0,,9999.0,,24.4,17.6,29.92,1013.5,,,,,,,,,,,,,,,Clear,72000.0,,,,,,,,,
KRDR,07-24-2017,15:56,METAR,Normal,190,13,,,9999.0,,23.4,17.4,29.95,1014.5,,,,,,,,,,,,,,,Clear,72000.0,,,,,,,,,
KRDR,07-24-2017,14:56,METAR,Normal,180,11,,,9999.0,,22.1,17.0,29.96,1014.9,,,,,,,,,,,,,,,Clear,72000.0,,,,,,,,,
KRDR,07-24-2017,13:56,METAR,Normal,180,11,,,9999.0,,20.2,16.4,29.97,1015.1,,,,,,,,,,,,,,,Clear,72000.0,,,,,,,,,
KRDR,07-24-2017,12:56,METAR,Normal,180,8,,,9999.0,,18.2,16.2,29.97,1015.1,,,,,,,,,,,,,,,Clear,72000.0,,,,,,,,,
KRDR,07-24-2017,11:56,METAR,Normal,180,6,,,9999.0,,16.1,15.5,29.97,1015.2,,,,,,,,,,,,,,,Clear,72000.0,,,,,,,,,
KRDR,07-24-2017,10:56,METAR,Normal,200,4,,,9999.0,,15.6,15.3,29.96,1014.8,,,,,,,,,,,,,,,Clear,72000.0,,,,,,,,,
KRDR,07-24-2017,09:56,METAR,Normal,190,8,,,9999.0,,15.3,15.1,29.93,1013.8,,,,,,,,,,,,,,,Clear,72000.0,,,,,,,,,
KRDR,07-24-2017,08:56,METAR,Normal,170,6,,,9999.0,,15.1,14.9,29.95,1014.5,,,,,,,,,,,,,,,Clear,72000.0,,,,,,,,,
KRDR,07-24-2017,07:56,METAR,Normal,200,4,,,9999.0,,15.0,14.8,29.96,1014.9,,,,,,,,,,,,,,,Clear,72000.0,,,,,,,,,
KRDR,07-24-2017,06:56,METAR,Normal,180,3,,,9999.0,,15.3,14.7,29.97,1015.3,,,,,,,,,,,,,,,Clear,72000.0,,,,,,,,,
KRDR,07-24-2017,05:56,METAR,Normal,190,5,,,9999.0,,16.2,15.4,29.98,1015.6,,,,,,,,,,,,,,,Clear,72000.0,,,,,,,,,
KRDR,07-24-2017,04:56,METAR,Normal,200,4,,,9999.0,,15.7,14.9,29.98,1015.7,,,,,,,,,,,,,,,Clear,72000.0,,,,,,,,,
KRDR,07-24-2017,03:56,METAR,Normal,220,3,,,9999.0,,16.8,15.8,29.99,1016.0,,,,,,,,,,,,,,,Clear,72000.0,,,,,,,,,
KRDR,07-24-2017,02:56,METAR,Normal,200,4,,,9999.0,,18.7,16.5,29.98,1015.6,,,,,,,,,,,,,,,Clear,72000.0,,,,,,,,,
KRDR,07-24-2017,01:56,METAR,Normal,200,5,,,9999.0,,21.3,17.1,29.97,1015.2,,,,,,,,,,,,,,,Clear,72000.0,,,,,,,,,
KRDR,07-24-2017,00:56,METAR,Normal,200,4,,,9999.0,,23.9,16.7,29.97,1015.2,,,,,,,,,,,,,,,Clear,72000.0,,,,,,,,,
KRDR,07-23-2017,23:56,METAR,Normal,200,5,,,9999.0,,24.6,16.3,29.98,1015.5,,,,,,,,,,,,,,,Clear,72000.0,,,,,,,,,
KRDR,07-23-2017,22:56,METAR,Calm,,0,,,9999.0,,25.2,15.8,29.99,1015.8,,,,,,,,,,,,,,,4/8 Partly Cloudy,72000.0,3900.0,SCT,3900.0,,,,,,
KRDR,07-23-2017,21:56,METAR,Calm,,0,,,9999.0,,25.1,16.0,29.99,1015.9,,,,,,,,,,,,,,,4/8 Partly Cloudy,72000.0,3900.0,SCT,3900.0,,,,,,
KRDR,07-23-2017,20:56,METAR,Normal,160,3,,,9999.0,,24.6,16.0,30.01,1016.5,,,,,,,,,,,,,,,2/8 Mostly Clear,72000.0,3300.0,FEW,3300.0,,,,,,
KRDR,07-23-2017,19:56,METAR,Normal,300,3,,,9999.0,,23.8,16.3,30.02,1016.9,,,,,,,,,,,,,,,,3000.0,3000.0,BKN,3000.0,,,,,,
KRDR,07-23-2017,19:41,SPECI,Calm,,0,,,9999.0,,23.0,16.0,30.02,1016.9,,,,,,,,,,,,,,,,3000.0,3000.0,BKN,3000.0,,,,,,
KRDR,07-23-2017,19:21,SPECI,Calm,,0,,,9999.0,,23.0,16.0,30.02,1016.9,,,,,,,,,,,,,,,,2800.0,2900.0,OVC,2900.0,,,,,,
KRDR,07-23-2017,19:16,SPECI,Normal,30,3,,,9999.0,,23.0,16.0,30.02,1016.9,,,,,,,,,,,,,,,,3000.0,3000.0,BKN,3000.0,,,,,,
KRDR,07-23-2017,18:56,METAR,Normal,70,4,,,9999.0,,23.0,15.8,30.02,1017.0,,,,,,,,,,,,,,,,2600.0,2600.0,BKN,2600.0,,,,,,
KRDR,07-23-2017,17:56,METAR,Normal,70,5,,,9999.0,,21.2,15.9,30.03,1017.4,,,,,,,,,,,,,,,,2200.0,2200.0,OVC,2200.0,,,,,,
KRDR,07-23-2017,17:16,SPECI,Normal,20,5,,,9999.0,,21.0,16.0,30.03,1017.3,,,,,,,,,,,,,,,,1800.0,2000.0,OVC,2000.0,,,,,,
KRDR,07-23-2017,16:56,METAR,Normal,50,5,,,9999.0,,20.6,16.2,30.03,1017.3,,,,,,,,,,,,,,,,1600.0,1600.0,BKN,1600.0,,,,,,
KRDR,07-23-2017,16:41,SPECI,Normal,50,7,,,9999.0,,20.0,16.0,30.02,1017.0,,,,,,,,,,,,,,,,1600.0,1600.0,BKN,1600.0,,,,,,
KRDR,07-23-2017,15:56,METAR,Normal,30,6,,,9999.0,,19.1,15.7,30.02,1017.0,,,,,,,,,,,,,,,,1100.0,1300.0,OVC,1300.0,,,,,,
KRDR,07-23-2017,14:56,METAR,Normal,70,6,,,9999.0,,18.6,15.5,30.02,1017.0,,,,,,,,,,,,,,,,1200.0,1300.0,OVC,1300.0,,,,,,
KRDR,07-23-2017,14:45,SPECI,Normal,40,5,,,9999.0,,19.0,16.0,30.02,1017.0,,,,,,,,,,,,,,,,1200.0,1300.0,OVC,1300.0,,,,,,
KRDR,07-23-2017,13:58,METAR,Normal,20,6,,,9999.0,,18.3,15.2,30.01,1016.6,,,,,,,,,,,,,,,4/8 Partly Cloudy,72000.0,1300.0,SCT,1300.0,,,,,,
KRDR,07-23-2017,13:27,SPECI,Normal,20,8,,,9999.0,,17.0,15.0,30.00,1016.3,,,,,,,,,,,,,,,4/8 Partly Cloudy,72000.0,1000.0,SCT,1000.0,,,,,,
KRDR,07-23-2017,13:06,SPECI,Normal,20,7,,,9999.0,,17.0,15.0,29.99,1015.9,,,,,,,,,,,,,,,,1000.0,1000.0,BKN,1000.0,,,,,,
KRDR,07-23-2017,12:56,METAR,Normal,360,6,,,9999.0,,16.9,14.9,29.99,1015.9,,,,,,,,,,,,,,,2/8 Mostly Clear,72000.0,1100.0,FEW,1100.0,,,,,,
KRDR,07-23-2017,12:49,SPECI,Normal,360,6,,,9999.0,,17.0,15.0,29.99,1015.9,,,,,,,,,,,,,,,2/8 Mostly Clear,72000.0,1100.0,FEW,1100.0,,,,,,
KRDR,07-23-2017,12:36,SPECI,Normal,350,5,,,9999.0,,17.0,15.0,29.99,1015.9,,,,,,,,,,,,,,,4/8 Partly Cloudy,72000.0,1400.0,SCT,1400.0,,,,,,
KRDR,07-23-2017,12:16,SPECI,Normal,340,6,,,9999.0,,16.0,15.0,29.98,1015.5,,,,,,,,,,,,,,,,1400.0,1400.0,BKN,1400.0,,,,,,
KRDR,07-23-2017,11:56,METAR,Normal,360,5,,,9999.0,,16.1,15.1,29.97,1015.3,,,,,,,,,,,,,,,4/8 Partly Cloudy,72000.0,1100.0,SCT,1100.0,,,,,,
KRDR,07-23-2017,11:54,SPECI,Normal,360,6,,,9999.0,,16.0,15.0,29.97,1015.3,,,,,,,,,,,,,,,4/8 Partly Cloudy,72000.0,1100.0,SCT,1100.0,,,,,,
KRDR,07-23-2017,11:09,SPECI,Normal,20,10,,,9999.0,,16.0,16.0,29.95,1014.5,,,,,,,,,,,,,,,,1100.0,1100.0,OVC,1100.0,,,,,,
KRDR,07-23-2017,10:56,METAR,Normal,10,7,,,9999.0,,16.3,15.8,29.95,1014.5,,,,,,,,,,,,,,,,1200.0,1200.0,OVC,1200.0,,,,,,
KRDR,07-23-2017,10:41,SPECI,Normal,360,7,,,9999.0,,16.0,16.0,29.95,1014.5,,,,,,,,,,,,,,,,1400.0,1400.0,BKN,1400.0,OVC,1900.0,,,,
KRDR,07-23-2017,10:01,SPECI,Normal,340,6,,,9999.0,,16.0,15.0,29.94,1014.2,,,,,,,,,,,,,,,,1900.0,1900.0,BKN,1900.0,BKN,3200.0,,,,
KRDR,07-23-2017,09:56,METAR,Normal,340,7,,,9999.0,,15.6,15.3,29.94,1014.2,,,,,,,,,,,,,,,,3200.0,2000.0,SCT,2000.0,BKN,3200.0,,,,
KRDR,07-23-2017,09:26,SPECI,Normal,350,5,,,9999.0,,16.0,15.0,29.94,1014.1,,,,,,,,,,,,,,,4/8 Partly Cloudy,72000.0,2000.0,SCT,2000.0,,,,,,
KRDR,07-23-2017,08:56,METAR,Normal,350,8,,,9999.0,,17.1,15.6,29.93,1013.7,,,,,,,,,,,,,,,,2000.0,2100.0,BKN,2100.0,OVC,4000.0,,,,
KRDR,07-23-2017,08:51,SPECI,Normal,350,10,,,9999.0,,17.0,16.0,29.93,1013.7,,,,,,,,,,,,,,,,2000.0,2100.0,BKN,2100.0,OVC,4000.0,,,,
KRDR,07-23-2017,08:46,SPECI,Normal,350,8,,,9999.0,,17.0,16.0,29.92,1013.4,,,,,,,,,,,,,,,,1900.0,1900.0,BKN,1900.0,OVC,4000.0,,,,
KRDR,07-23-2017,07:56,METAR,Normal,350,7,,,9999.0,,16.9,15.6,29.92,1013.4,,,,,,,,,,,,,,,,3900.0,3900.0,OVC,3900.0,,,,,,
KRDR,07-23-2017,06:56,METAR,Normal,330,6,,,9999.0,,15.7,15.2,29.92,1013.4,,,,,,,,,,,,,,,2/8 Mostly Clear,72000.0,3500.0,FEW,3500.0,,,,,,
KRDR,07-23-2017,05:56,METAR,Normal,320,7,,,9999.0,,15.8,14.8,29.92,1013.4,,,,,,,,,,,,,,,Clear,72000.0,,,,,,,,,
KRDR,07-23-2017,04:56,METAR,Normal,350,7,,,9999.0,,17.1,14.7,29.92,1013.4,,,,,,,,,,,,,,,Clear,72000.0,,,,,,,,,
KRDR,07-23-2017,03:56,METAR,Normal,340,7,,,9999.0,,18.9,14.6,29.91,1013.0,,,,,,,,,,,,,,,,4500.0,3200.0,SCT,3200.0,BKN,4500.0,,,,
KRDR,07-23-2017,02:56,METAR,Normal,330,5,,,9999.0,,19.5,13.6,29.89,1012.4,,,,,,,,,,,,,,,,5500.0,5500.0,BKN,5500.0,,,,,,
KRDR,07-23-2017,01:56,METAR,Normal,360,8,,,9999.0,,20.3,13.5,29.88,1012.0,,,,,,,,,,,,,,,Clear,72000.0,,,,,,,,,
KRDR,07-23-2017,00:56,METAR,Normal,350,10,15.0,,9999.0,,22.4,14.0,29.87,1011.7,,,,,,,,,,,,,,,Clear,72000.0,,,,,,,,,
KRDR,07-22-2017,23:56,METAR,Normal,330,13,,,9999.0,,22.7,12.9,29.87,1011.8,,,,,,,,,,,,,,,4/8 Partly Cloudy,72000.0,6000.0,FEW,6000.0,SCT,7000.0,,,,
KRDR,07-22-2017,22:56,METAR,Normal,340,12,19.0,,9999.0,,24.0,13.5,29.86,1011.4,,,,,,,,,,,,,,,4/8 Partly Cloudy,72000.0,10000.0,SCT,10000.0,,,,,,
KRDR,07-22-2017,21:56,METAR,Normal,320,10,,,9999.0,,24.4,13.0,29.86,1011.4,,,,,,,,,,,,,,,4/8 Partly Cloudy,72000.0,6000.0,SCT,6000.0,,,,,,
KRDR,07-22-2017,20:56,METAR,Normal,320,15,20.0,320/26KTS,9999.0,,26.3,13.7,29.85,1010.9,,,,,,,,,,,,,,,Clear,72000.0,,,,,,,,,
KRDR,07-22-2017,19:56,METAR,Normal,300,12,,,9999.0,,26.1,13.2,29.85,1010.9,,,,,,,,,,,,,,,Clear,72000.0,,,,,,,,,
KRDR,07-22-2017,18:56,METAR,Normal,310,11,,,9999.0,,25.9,14.3,29.85,1010.9,,,,,,,,,,,,,,,Clear,72000.0,,,,,,,,,
KRDR,07-22-2017,17:56,METAR,Normal,320,16,21.0,,9999.0,,25.5,13.7,29.85,1010.9,,,,,,,,,,,,,,,Clear,72000.0,,,,,,,,,
KRDR,07-22-2017,16:56,METAR,Normal,280,16,22.0,,9999.0,,25.2,12.7,29.86,1011.3,,,,,,,,,,,,,,,Clear,72000.0,,,,,,,,,
KRDR,07-22-2017,15:56,METAR,Normal,300,16,21.0,,9999.0,,25.4,15.4,29.85,1010.9,,,,,,,,,,,,,,,Clear,72000.0,,,,,,,,,
KRDR,07-22-2017,14:56,METAR,Normal,310,13,,,9999.0,,24.4,17.4,29.83,1010.3,,,,,,,,,,,,,,,Clear,72000.0,,,,,,,,,
KRDR,07-22-2017,13:56,METAR,Normal,280,10,,,9999.0,,23.5,18.6,29.82,1009.9,,,,,,,,,,,,,,,Clear,72000.0,,,,,,,,,
KRDR,07-22-2017,12:56,METAR,Normal,280,7,,,9999.0,,20.5,18.4,29.80,1009.2,,,,,,,,,,,,,,,Clear,72000.0,,,,,,,,,
KRDR,07-22-2017,11:56,METAR,Normal,250,6,,,9999.0,,17.8,17.8,29.78,1008.6,,,,,,,,,,,,,.02 IN,.05 IN,Clear,72000.0,,,,,,,,,
KRDR,07-22-2017,10:56,METAR,Normal,250,8,,,9999.0,,15.8,15.8,29.78,1008.7,,,,,,,,,,,,,,,Clear,72000.0,,,,,,,,,
KRDR,07-22-2017,10:01,SPECI,Normal,250,5,,,9999.0,,17.0,17.0,29.78,1008.7,,,,,,,,,,,,,,,Clear,72000.0,,,,,,,,,
KRDR,07-22-2017,09:56,METAR,Normal,260,4,,,1800.0,Mist,17.5,17.5,29.78,1008.7,10,,,,,,,,,,,,,,Clear,72000.0,,,,,,,,,
KRDR,07-22-2017,09:51,SPECI,Normal,250,4,,,800.0,Fog,18.0,18.0,29.78,1008.7,30,,,,,,,,,,,,,,Clear,72000.0,,,,,,,,,
KRDR,07-22-2017,09:46,SPECI,Normal,230,5,,,1000.0,Mist,18.0,18.0,29.78,1008.7,10,,,,,,,,,,,,,,Clear,72000.0,,,,,,,,,
KRDR,07-22-2017,09:36,SPECI,Normal,240,3,,,1800.0,Mist,18.0,18.0,29.80,1009.3,10,,,,,,,,,,,,,,Clear,72000.0,,,,,,,,,
KRDR,07-22-2017,09:31,SPECI,Normal,190,4,,,1400.0,Mist,19.0,19.0,29.79,1009.0,10,,,,,,,,,,,,,,Clear,72000.0,,,,,,,,,
KRDR,07-22-2017,09:26,SPECI,Normal,200,4,,,4400.0,Mist,19.0,19.0,29.79,1009.0,10,,,,,,,,,,,,,,Clear,72000.0,,,,,,,,,
KRDR,07-22-2017,08:56,METAR,Normal,350,4,,,9999.0,,20.1,20.1,29.81,1009.6,,,,,,,,,,,,.02 IN,,,2/8 Mostly Clear,72000.0,600.0,FEW,600.0,,,,,,
KRDR,07-22-2017,08:36,SPECI,Normal,350,12,,,9999.0,,20.0,20.0,29.81,1009.6,,,,,,,,,,,,,,,2/8 Mostly Clear,72000.0,700.0,FEW,700.0,FEW,4400.0,,,,
KRDR,07-22-2017,07:56,METAR,Normal,270,8,,,9999.0,,20.9,20.9,29.78,1008.6,,,,,,,,,,,TRACE,,,,2/8 Mostly Clear,72000.0,14000.0,FEW,14000.0,,,,,,
KRDR,07-22-2017,07:10,SPECI,Normal,210,6,,,9999.0,,21.0,21.0,29.76,1007.8,,,,,,,,,,,,,,,2/8 Mostly Clear,72000.0,400.0,FEW,400.0,,,,,,
KRDR,07-22-2017,06:56,METAR,Normal,210,8,,,9999.0,Light Rain/Distant Lightning,20.8,20.8,29.78,1008.5,61,12,,,,,,,,,.02 IN,,,,4/8 Partly Cloudy,72000.0,400.0,SCT,400.0,,,,,,
KRDR,07-22-2017,06:55,SPECI,Normal,210,8,,,9999.0,Light Rain/Distant Lightning,21.0,21.0,29.78,1008.4,61,12,,,,,,,,,,,,,4/8 Partly Cloudy,72000.0,400.0,SCT,400.0,,,,,,
KRDR,07-22-2017,06:34,SPECI,Normal,20,11,,,8000.0,Light Rain,21.0,21.0,29.75,1007.4,61,,,,,,,,,,,,,,2/8 Mostly Clear,72000.0,200.0,FEW,200.0,,,,,,
KRDR,07-22-2017,06:06,SPECI,Normal,340,3,,,9999.0,Light Rain,20.0,20.0,29.77,1008.1,61,,,,,,,,,,,,,,4/8 Partly Cloudy,72000.0,15000.0,SCT,15000.0,,,,,,
KRDR,07-22-2017,05:56,METAR,Normal,340,5,,,9999.0,,20.1,20.1,29.76,1007.8,,,,,,,,,,,,,,,,,,,,,,,,,
KRDR,07-22-2017,04:56,METAR,Normal,160,3,,,9999.0,,21.6,21.6,29.76,1007.8,,,,,,,,,,,,,,,,16000.0,16000.0,BKN,16000.0,,,,,,
KRDR,07-22-2017,03:56,METAR,Normal,120,4,,,9999.0,,21.8,21.8,29.74,1007.1,,,,,,,,,,,,,,,Clear,72000.0,,,,,,,,,
KRDR,07-22-2017,02:56,METAR,Normal,100,3,,,9999.0,,22.9,21.9,29.76,1007.8,,,,,,,,,,,,,,,Clear,72000.0,,,,,,,,,
KRDR,07-22-2017,01:56,METAR,Normal,80,9,,,9999.0,,24.8,22.1,29.74,1007.1,,,,,,,,,,,,,,,4/8 Partly Cloudy,72000.0,16000.0,SCT,16000.0,,,,,,
KRDR,07-22-2017,00:56,METAR,Normal,30,4,,,9999.0,,27.9,20.9,29.74,1007.1,,,,,,,,,,,,,,,2/8 Mostly Clear,72000.0,20000.0,FEW,20000.0,,,,,,
KRDR,07-21-2017,23:56,METAR,Normal,340,5,,,9999.0,,26.8,21.7,29.75,1007.5,,,,,,,,,,,,,.03 IN,,Clear,72000.0,,,,,,,,,
KRDR,07-21-2017,22:56,METAR,Normal,360,7,,,9999.0,,26.2,22.0,29.74,1007.2,,,,,,,,,,,,,,,,19000.0,19000.0,BKN,19000.0,,,,,,
KRDR,07-21-2017,21:56,METAR,Normal,190,8,,180/27KTS,9999.0,,23.7,21.7,29.71,1006.2,,,,,,,,,,,.01 IN,,,,4/8 Partly Cloudy,72000.0,3800.0,FEW,3800.0,SCT,19000.0,,,,
KRDR,07-21-2017,21:41,SPECI,Calm,,0,,,9999.0,,24.0,21.0,29.72,1006.6,,,,,,,,,,,,,,,4/8 Partly Cloudy,72000.0,6000.0,SCT,6000.0,,,,,,
KRDR,07-21-2017,21:36,SPECI,Normal,140,3,,,9999.0,Light Rain,24.0,21.0,29.71,1006.2,61,,,,,,,,,,,,,,,11000.0,6000.0,SCT,6000.0,BKN,11000.0,,,,
KRDR,07-21-2017,21:29,SPECI,Normal,150,15,,,9999.0,Thunderstorm and Rain or Snow Showers,24.0,22.0,,,92,,,,,,,,,,,,,,,12000.0,6000.0,SCT,6000.0,BKN,12000.0,,,,
KRDR,07-21-2017,21:21,SPECI,Normal,180,13,,,9999.0,Thunderstorm and Rain or Snow Showers,24.0,22.0,29.78,1008.6,92,,,,,,,,,,,,,,,12000.0,8000.0,SCT,8000.0,OVC,12000.0,,,,
KRDR,07-21-2017,21:04,SPECI,Normal,240,4,,,9999.0,Light Rain,25.0,21.0,29.79,1009.0,61,,,,,,,,,,,,,,,13000.0,13000.0,OVC,13000.0,,,,,,
KRDR,07-21-2017,20:56,METAR,Normal,260,6,,,9999.0,,24.9,21.2,29.79,1009.0,,,,,,,,,,,.01 IN,.02 IN,,,,13000.0,13000.0,BKN,13000.0,,,,,,
KRDR,07-21-2017,20:43,SPECI,Normal,270,7,,,9999.0,,25.0,22.0,29.79,1009.0,,,,,,,,,,,,,,,4/8 Partly Cloudy,72000.0,12000.0,FEW,12000.0,SCT,14000.0,,,,
KRDR,07-21-2017,20:33,SPECI,Normal,280,4,,,9999.0,Light Drizzle,26.0,23.0,29.79,1008.9,51,,,,,,,,,,,,,,2/8 Mostly Clear,72000.0,12000.0,FEW,12000.0,,,,,,
KRDR,07-21-2017,20:19,SPECI,Normal,200,3,,,9999.0,,26.0,24.0,29.77,1008.2,,,,,,,,,,,,,,,4/8 Partly Cloudy,72000.0,4700.0,FEW,4700.0,SCT,13000.0,,,,
KRDR,07-21-2017,20:04,SPECI,Calm,,0,,,9999.0,Light Rain/Distant Lightning,25.0,23.0,29.78,1008.6,61,12,,,,,,,,,,,,,,10000.0,4800.0,FEW,4800.0,SCT,6000.0,BKN,10000.0,,
KRDR,07-21-2017,19:56,METAR,Normal,280,3,,,9999.0,Thunderstorm and Rain or Snow Showers,25.9,21.7,29.78,1008.6,92,,,,,,,,,,.01 IN,,,,,6000.0,6000.0,BKN,6000.0,BKN,10000.0,,,,
KRDR,07-21-2017,19:51,SPECI,Normal,250,4,,,9999.0,Heavy Thunderstorm with Rain or Snow,27.0,22.0,29.78,1008.5,,,,97,,,,,,,,,,,,7000.0,7000.0,BKN,7000.0,BKN,10000.0,,,,
KRDR,07-21-2017,19:45,SPECI,Normal,260,5,,,9999.0,Thunderstorm and Hail/Rain,28.0,22.0,29.80,1009.2,,,,96,61,,,,,,,,,,,,,,,,,,,,
KRDR,07-21-2017,19:44,SPECI,Normal,260,5,,,9999.0,Thunderstorm and Hail/Rain,28.0,22.0,29.79,1008.8,,,,96,61,,,,,,,,,,,,,,,,,,,,
KRDR,07-21-2017,18:56,METAR,Calm,,0,,,9999.0,,30.0,21.1,29.76,1007.8,,,,,,,,,,,,,,,2/8 Mostly Clear,72000.0,15000.0,FEW,15000.0,,,,,,
KRDR,07-21-2017,17:56,METAR,Normal,200,3,,,9999.0,,30.0,20.5,29.79,1008.8,,,,,,,,,,,TRACE,,TRACE,,,12000.0,8500.0,FEW,8600.0,BKN,12000.0,BKN,15000.0,,
KRDR,07-21-2017,17:37,SPECI,Normal,250,3,,,9999.0,,29.0,22.0,29.79,1008.8,,,,,,,,,,,,,,,,17000.0,2600.0,FEW,2600.0,SCT,8600.0,SCT,13000.0,BKN,17000.0
KRDR,07-21-2017,17:27,SPECI,Normal,200,4,,,9999.0,Light Drizzle,28.0,22.0,29.80,1009.2,51,,,,,,,,,,,,,,4/8 Partly Cloudy,72000.0,2600.0,FEW,2600.0,SCT,8600.0,SCT,18000.0,,
KRDR,07-21-2017,16:56,METAR,Normal,190,3,,,9999.0,,28.3,22.5,29.79,1008.8,,,,,,,,,,,,,,,Clear,72000.0,,,,,,,,,
KRDR,07-21-2017,15:56,METAR,Normal,180,6,,,9999.0,,26.9,22.3,29.79,1008.8,,,,,,,,,,,,,,,2/8 Mostly Clear,72000.0,1600.0,FEW,1600.0,,,,,,
KRDR,07-21-2017,14:56,METAR,Calm,,0,,,9999.0,,25.5,21.8,29.82,1009.8,,,,,,,,,,,,,,,4/8 Partly Cloudy,72000.0,1400.0,SCT,1400.0,,,,,,
KRDR,07-21-2017,14:52,SPECI,Normal,170,3,,,9999.0,,25.0,22.0,29.81,1009.5,,,,,,,,,,,,,,,4/8 Partly Cloudy,72000.0,1400.0,SCT,1400.0,,,,,,
KRDR,07-21-2017,14:47,SPECI,Normal,150,4,,,9999.0,,25.0,21.0,29.82,1009.8,,,,,,,,,,,,,,,,1400.0,1400.0,BKN,1400.0,,,,,,
KRDR,07-21-2017,14:07,SPECI,Normal,180,4,,,9999.0,,23.0,20.0,29.83,1010.2,,,,,,,,,,,,,,,2/8 Mostly Clear,72000.0,1100.0,FEW,1100.0,,,,,,
KRDR,07-21-2017,13:56,METAR,Normal,130,5,,,9999.0,,23.1,20.4,29.82,1009.9,,,,,,,,,,,,,,,2/8 Mostly Clear,72000.0,13000.0,FEW,13000.0,,,,,,
KRDR,07-21-2017,12:56,METAR,Normal,80,3,,,9999.0,,21.1,19.9,29.80,1009.2,,,,,,,,,,,,,,,2/8 Mostly Clear,72000.0,13000.0,FEW,13000.0,,,,,,
KRDR,07-21-2017,11:56,METAR,Normal,90,5,,,9999.0,,20.2,19.4,29.79,1008.9,,,,,,,,,,,,,,,4/8 Partly Cloudy,72000.0,14000.0,SCT,14000.0,SCT,16000.0,,,,
KRDR,07-21-2017,10:56,METAR,Normal,130,6,,,9999.0,,20.0,18.8,29.82,1009.9,,,,,,,,,,,,,,,,19000.0,14000.0,FEW,14000.0,FEW,16000.0,OVC,19000.0,,
KRDR,07-21-2017,09:56,METAR,Normal,120,5,,,9999.0,,20.5,18.6,29.83,1010.2,,,,,,,,,,,,,,,,15000.0,15000.0,BKN,15000.0,,,,,,
KRDR,07-21-2017,08:56,METAR,Normal,110,5,,,9999.0,,19.8,17.9,29.84,1010.5,,,,,,,,,,,,,,,,13000.0,13000.0,BKN,13000.0,,,,,,
KRDR,07-21-2017,07:56,METAR,Normal,70,5,,,9999.0,,20.1,17.5,29.86,1011.2,,,,,,,,,,,,,,,,13000.0,13000.0,BKN,13000.0,BKN,17000.0,,,,
KRDR,07-21-2017,06:56,METAR,Normal,150,4,,,9999.0,,20.5,16.9,29.87,1011.6,,,,,,,,,,,,,,,,19000.0,19000.0,OVC,19000.0,,,,,,
KRDR,07-21-2017,05:56,METAR,Normal,160,5,,,9999.0,,20.0,17.0,29.87,1011.6,,,,,,,,,,,,,,,2/8 Mostly Clear,72000.0,20000.0,FEW,20000.0,,,,,,
KRDR,07-21-2017,04:56,METAR,Normal,140,4,,,9999.0,,21.0,17.4,29.88,1012.0,,,,,,,,,,,,,,,Clear,72000.0,,,,,,,,,
KRDR,07-21-2017,03:56,METAR,Normal,60,4,,,9999.0,,21.9,17.7,29.92,1013.4,,,,,,,,,,,,,,,,13000.0,13000.0,BKN,13000.0,BKN,20000.0,,,,
KRDR,07-21-2017,02:56,METAR,Normal,70,4,,,9999.0,,24.0,17.2,29.92,1013.4,,,,,,,,,,,,,,,,14000.0,14000.0,OVC,14000.0,,,,,,
KRDR,07-21-2017,01:56,METAR,Normal,140,5,,,9999.0,,25.0,17.7,29.92,1013.4,,,,,,,,,,,,,,,,23000.0,15000.0,FEW,15000.0,SCT,19000.0,BKN,23000.0,,
KRDR,07-21-2017,00:56,METAR,Normal,130,6,,,9999.0,,25.9,18.8,29.92,1013.4,,,,,,,,,,,,,,,Clear,72000.0,,,,,,,,,
KRDR,07-20-2017,23:56,METAR,Normal,70,3,,,9999.0,,27.0,18.0,29.94,1014.1,,,,,,,,,,,,,,,Clear,72000.0,,,,,,,,,
KRDR,07-20-2017,22:56,METAR,Normal,140,6,,,9999.0,,28.4,16.6,29.94,1014.1,,,,,,,,,,,,,,,Clear,72000.0,,,,,,,,,
KRDR,07-20-2017,21:56,METAR,Normal,160,8,,,9999.0,,28.2,17.1,29.96,1014.8,,,,,,,,,,,,,,,Clear,72000.0,,,,,,,,,
KRDR,07-20-2017,20:56,METAR,Normal,220,3,,,9999.0,,27.7,16.3,29.97,1015.1,,,,,,,,,,,,,,,Clear,72000.0,,,,,,,,,
KRDR,07-20-2017,19:56,METAR,Normal,200,3,,,9999.0,,27.2,15.8,29.98,1015.4,,,,,,,,,,,,,,,Clear,72000.0,,,,,,,,,
KRDR,07-20-2017,18:56,METAR,Calm,,0,,,9999.0,,26.3,15.3,30.00,1016.2,,,,,,,,,,,,,,,Clear,72000.0,,,,,,,,,
KRDR,07-20-2017,17:56,METAR,Calm,,0,,,9999.0,,25.3,15.9,30.02,1016.9,,,,,,,,,,,,,,,Clear,72000.0,,,,,,,,,
KRDR,07-20-2017,16:56,METAR,Normal,130,4,,,9999.0,,23.6,16.1,30.03,1017.2,,,,,,,,,,,,,,,Clear,72000.0,,,,,,,,,
KRDR,07-20-2017,15:56,METAR,Normal,20,5,,,9999.0,,21.2,16.2,30.04,1017.6,,,,,,,,,,,,,,,Clear,72000.0,,,,,,,,,
KRDR,07-20-2017,14:56,METAR,Normal,20,3,,,9999.0,,20.0,15.4,30.02,1016.8,,,,,,,,,,,,,,,2/8 Mostly Clear,72000.0,14000.0,FEW,14000.0,,,,,,
KRDR,07-20-2017,13:56,METAR,Normal,340,3,,,9999.0,,18.8,15.3,30.04,1017.5,,,,,,,,,,,,,,,Clear,72000.0,,,,,,,,,
KRDR,07-20-2017,12:56,METAR,Normal,10,6,,,9999.0,,17.0,15.2,30.02,1016.8,,,,,,,,,,,,,,,Clear,72000.0,,,,,,,,,
KRDR,07-20-2017,11:56,METAR,Calm,,0,,,9999.0,,14.0,13.4,30.00,1016.2,,,,,,,,,,,,,,,Clear,72000.0,,,,,,,,,
KRDR,07-20-2017,10:56,METAR,Normal,320,5,,,9999.0,,14.9,14.3,29.99,1015.8,,,,,,,,,,,,,,,Clear,72000.0,,,,,,,,,
KRDR,07-20-2017,09:56,METAR,Normal,300,7,,,9999.0,,14.2,14.2,29.98,1015.5,,,,,,,,,,,,,,,Clear,72000.0,,,,,,,,,
KRDR,07-20-2017,08:56,METAR,Normal,320,5,,,9999.0,,15.3,15.1,29.96,1014.8,,,,,,,,,,,,,,,Clear,72000.0,,,,,,,,,
KRDR,07-20-2017,07:56,METAR,Normal,320,5,,,9999.0,,16.1,16.1,29.95,1014.5,,,,,,,,,,,,,,,Clear,72000.0,,,,,,,,,
KRDR,07-20-2017,06:56,METAR,Normal,320,3,,,9999.0,,15.0,15.0,29.95,1014.6,,,,,,,,,,,,,,,Clear,72000.0,,,,,,,,,
KRDR,07-20-2017,05:56,METAR,Calm,,0,,,9999.0,,15.5,15.5,29.95,1014.5,,,,,,,,,,,,,,,Clear,72000.0,,,,,,,,,
KRDR,07-20-2017,04:56,METAR,Normal,310,4,,,9999.0,,16.3,16.1,29.93,1013.9,,,,,,,,,,,,,,,Clear,72000.0,,,,,,,,,
KRDR,07-20-2017,03:56,METAR,Normal,350,6,,,9999.0,,18.7,17.7,29.91,,,,,,,,,,,,,,,,Clear,72000.0,,,,,,,,,
KRDR,07-20-2017,02:56,METAR,Normal,350,6,,,9999.0,,21.2,18.0,29.89,1012.5,,,,,,,,,,,,,,,Clear,72000.0,,,,,,,,,
KRDR,07-20-2017,01:56,METAR,Calm,,0,,,9999.0,,24.7,17.7,29.86,1011.3,,,,,,,,,,,,,,,Clear,72000.0,,,,,,,,,
KRDR,07-20-2017,00:56,METAR,Normal,270,4,,,9999.0,,27.8,18.5,29.85,1010.9,,,,,,,,,,,,,,,Clear,72000.0,,,,,,,,,
KRDR,07-19-2017,23:56,METAR,Normal,280,6,,,9999.0,,28.8,18.5,29.86,1011.3,,,,,,,,,,,,,,,Clear,72000.0,,,,,,,,,
KRDR,07-19-2017,22:56,METAR,Normal,260,8,,,9999.0,,29.0,18.4,29.86,1011.4,,,,,,,,,,,,,,,Clear,72000.0,,,,,,,,,
KRDR,07-19-2017,21:56,METAR,Normal,250,11,,,9999.0,,27.5,16.7,29.88,1012.1,,,,,,,,,,,,,,,Clear,72000.0,,,,,,,,,
KRDR,07-19-2017,20:56,METAR,Normal,220,9,,,9999.0,,27.0,17.7,29.90,1012.9,,,,,,,,,,,,,,,2/8 Mostly Clear,72000.0,19000.0,FEW,19000.0,,,,,,
KRDR,07-19-2017,19:56,METAR,Normal,210,6,,,9999.0,,25.5,17.9,29.92,1013.5,,,,,,,,,,,,,,,Clear,72000.0,,,,,,,,,
KRDR,07-19-2017,18:56,METAR,Calm,,0,,,9999.0,,23.7,16.7,29.93,1013.9,,,,,,,,,,,,,,,2/8 Mostly Clear,72000.0,20000.0,FEW,20000.0,,,,,,
KRDR,07-19-2017,17:56,METAR,Calm,,0,,,9999.0,,23.3,16.3,29.93,1013.9,,,,,,,,,,,,,,,2/8 Mostly Clear,72000.0,2900.0,FEW,2900.0,FEW,19000.0,,,,
KRDR,07-19-2017,16:56,METAR,Normal,190,15,,,9999.0,,21.7,16.2,29.95,1014.6,,,,,,,,,,,,,,,Clear,72000.0,,,,,,,,,
KRDR,07-19-2017,15:56,METAR,Normal,200,11,,,9999.0,,19.6,15.6,29.97,1015.3,,,,,,,,,,,,,,,,12000.0,12000.0,BKN,12000.0,BKN,19000.0,,,,
KRDR,07-19-2017,14:56,METAR,Normal,180,11,,,9999.0,,19.3,15.9,29.97,1015.3,,,,,,,,,,,,,,,4/8 Partly Cloudy,72000.0,13000.0,FEW,13000.0,SCT,15000.0,SCT,21000.0,,
KRDR,07-19-2017,11:56,METAR,Normal,190,6,,,9999.0,,14.6,14.0,30.02,1016.8,,,,,,,,,,,,,,,Clear,72000.0,,,,,,,,,
KRDR,07-19-2017,10:56,METAR,Normal,170,3,,,9999.0,,12.1,11.9,30.04,1017.6,,,,,,,,,,,,,,,Clear,72000.0,,,,,,,,,
KRDR,07-19-2017,09:56,METAR,Normal,220,3,,,9999.0,,12.2,12.0,30.06,1018.3,,,,,,,,,,,,,,,Clear,72000.0,,,,,,,,,
KRDR,07-19-2017,08:56,METAR,Calm,,0,,,9999.0,,11.7,11.5,30.07,1018.7,,,,,,,,,,,,,,,Clear,72000.0,,,,,,,,,
KRDR,07-19-2017,07:56,METAR,Calm,,0,,,9999.0,,13.4,12.6,30.08,1018.9,,,,,,,,,,,,,,,Clear,72000.0,,,,,,,,,
KRDR,07-19-2017,06:56,METAR,Calm,,0,,,9999.0,,14.2,13.4,30.09,1019.3,,,,,,,,,,,,,,,Clear,72000.0,,,,,,,,,
KRDR,07-19-2017,05:56,METAR,Normal,310,3,,,9999.0,,14.3,13.0,30.09,1019.3,,,,,,,,,,,,,,,Clear,72000.0,,,,,,,,,
KRDR,07-19-2017,04:56,METAR,Normal,360,3,,,9999.0,,15.9,13.2,30.08,1019.0,,,,,,,,,,,,,,,Clear,72000.0,,,,,,,,,
KRDR,07-19-2017,03:56,METAR,Normal,350,4,,,9999.0,,19.0,13.8,30.07,1018.6,,,,,,,,,,,,,,,Clear,72000.0,,,,,,,,,
KRDR,07-19-2017,02:56,METAR,Normal,210,6,,,9999.0,,17.9,15.7,30.06,1018.3,,,,,,,,,,,,,,,Clear,72000.0,,,,,,,,,
KRDR,07-19-2017,01:56,METAR,Normal,220,4,,,9999.0,,22.0,16.7,30.05,1017.9,,,,,,,,,,,,,,,Clear,72000.0,,,,,,,,,
KRDR,07-19-2017,00:56,METAR,Normal,240,3,,,9999.0,,24.8,16.7,30.04,1017.6,,,,,,,,,,,,,,,Clear,72000.0,,,,,,,,,
KRDR,07-18-2017,23:56,METAR,Normal,270,4,,,9999.0,,26.0,15.1,30.05,1017.9,,,,,,,,,,,,,,,Clear,72000.0,,,,,,,,,
KRDR,07-18-2017,22:56,METAR,Normal,280,5,,,9999.0,,26.8,12.4,30.05,1017.9,,,,,,,,,,,,,,,Clear,72000.0,,,,,,,,,
KRDR,07-18-2017,21:56,METAR,Normal,260,7,,,9999.0,,26.8,13.5,30.05,1017.9,,,,,,,,,,,,,,,Clear,72000.0,,,,,,,,,
KRDR,07-18-2017,20:56,METAR,Normal,290,9,,,9999.0,,26.5,12.2,30.04,1017.5,,,,,,,,,,,,,,,Clear,72000.0,,,,,,,,,
KRDR,07-18-2017,19:56,METAR,Normal,310,5,,,9999.0,,26.4,12.4,30.04,1017.5,,,,,,,,,,,,,,,Clear,72000.0,,,,,,,,,
KRDR,07-18-2017,18:56,METAR,Normal,310,7,,,9999.0,,25.6,12.1,30.04,1017.5,,,,,,,,,,,,,,,Clear,72000.0,,,,,,,,,
KRDR,07-18-2017,17:56,METAR,Normal,320,6,,,9999.0,,24.5,11.8,30.04,1017.5,,,,,,,,,,,,,,,Clear,72000.0,,,,,,,,,
KRDR,07-18-2017,16:56,METAR,Normal,310,6,,,9999.0,,21.3,13.7,30.03,1017.3,,,,,,,,,,,,,,,,20000.0,12000.0,FEW,12000.0,SCT,15000.0,SCT,18000.0,OVC,20000.0
KRDR,07-18-2017,15:56,METAR,Normal,330,4,,,9999.0,,21.9,14.0,30.01,1016.6,,,,,,,,,,,,,,,2/8 Mostly Clear,72000.0,20000.0,FEW,20000.0,,,,,,
KRDR,07-18-2017,14:56,METAR,Normal,250,4,,,9999.0,,19.1,13.9,30.02,1017.0,,,,,,,,,,,,,,,Clear,72000.0,,,,,,,,,
KRDR,07-18-2017,13:56,METAR,Calm,,0,,,9999.0,,16.9,15.2,30.02,1016.9,,,,,,,,,,,,,,,Clear,72000.0,,,,,,,,,
KRDR,07-18-2017,12:56,METAR,Normal,230,3,,,9999.0,,15.6,13.1,30.00,1016.2,,,,,,,,,,,,,,,Clear,72000.0,,,,,,,,,
KRDR,07-18-2017,11:56,METAR,Calm,,0,,,9999.0,,15.1,12.4,29.97,1015.1,,,,,,,,,,,,,,.05 IN,Clear,72000.0,,,,,,,,,
KRDR,07-18-2017,10:56,METAR,Normal,320,4,,,9999.0,,14.5,12.2,29.96,1014.7,,,,,,,,,,,,,,,Clear,72000.0,,,,,,,,,
KRDR,07-18-2017,09:56,METAR,Calm,,0,,,9999.0,,14.8,11.2,29.95,1014.4,,,,,,,,,,,,,,,2/8 Mostly Clear,72000.0,11000.0,FEW,11000.0,,,,,,
KRDR,07-18-2017,08:56,METAR,Normal,340,5,,,9999.0,,15.7,12.3,29.93,1013.7,,,,,,,,,,,,,,,2/8 Mostly Clear,72000.0,12000.0,FEW,12000.0,,,,,,
KRDR,07-18-2017,07:56,METAR,Normal,330,7,,,9999.0,,15.5,13.0,29.94,1014.0,,,,,,,,,,,,,,,2/8 Mostly Clear,72000.0,10000.0,FEW,10000.0,,,,,,
KRDR,07-18-2017,06:56,METAR,Normal,340,7,,,9999.0,,17.0,14.4,29.93,1013.7,,,,,,,,,,,,,,,Clear,72000.0,,,,,,,,,
KRDR,07-18-2017,05:56,METAR,Normal,340,7,,,9999.0,,17.5,15.8,29.92,1013.4,,,,,,,,,,,,,,,Clear,72000.0,,,,,,,,,
KRDR,07-18-2017,04:56,METAR,Normal,330,7,,,9999.0,,17.6,17.1,29.92,1013.4,,,,,,,,,,,,,,,Clear,72000.0,,,,,,,,,
KRDR,07-18-2017,03:56,METAR,Normal,330,5,,,9999.0,,17.6,16.4,29.91,1013.1,,,,,,,,,,,,,,,Clear,72000.0,,,,,,,,,
KRDR,07-18-2017,02:56,METAR,Normal,20,5,,,9999.0,,19.1,16.9,29.88,1012.1,,,,,,,,,,,,,,,2/8 Mostly Clear,72000.0,3600.0,FEW,3600.0,,,,,,
KRDR,07-18-2017,01:56,METAR,Normal,30,6,,,9999.0,,22.6,16.8,29.84,1010.6,,,,,,,,,,,,,,,Clear,72000.0,,,,,,,,,
KRDR,07-18-2017,00:56,METAR,Normal,40,10,,,9999.0,,25.1,17.0,29.82,1009.9,,,,,,,,,,,,,,,Clear,72000.0,,,,,,,,,
KRDR,07-17-2017,23:56,METAR,Normal,30,11,,,9999.0,,27.0,20.3,29.81,1009.5,,,,,,,,,,,,,,,2/8 Mostly Clear,72000.0,2900.0,FEW,2900.0,,,,,,
KRDR,07-17-2017,22:56,METAR,Normal,20,12,,,9999.0,,28.6,21.3,29.81,1009.5,,,,,,,,,,,,,,,Clear,72000.0,,,,,,,,,
KRDR,07-17-2017,21:56,METAR,Normal,70,7,,,9999.0,,29.3,20.7,29.79,1008.8,,,,,,,,,,,,,,,Clear,72000.0,,,,,,,,,
KRDR,07-17-2017,20:56,METAR,Normal,20,8,,,9999.0,,29.9,21.0,29.80,1009.1,,,,,,,,,,,,,,,Clear,72000.0,,,,,,,,,
KRDR,07-17-2017,19:56,METAR,Normal,200,3,,,9999.0,,29.4,22.1,29.79,1008.7,,,,,,,,,,,,,,,Clear,72000.0,,,,,,,,,
KRDR,07-17-2017,18:56,METAR,Calm,,0,,,9999.0,,28.0,22.0,29.78,1008.4,,,,,,,,,,,,,,,Clear,72000.0,,,,,,,,,
KRDR,07-17-2017,17:56,METAR,Normal,310,5,,320/27KTS,9999.0,,26.2,21.4,29.79,1008.8,,,,,,,,,,,TRACE,,.05 IN,,2/8 Mostly Clear,72000.0,13000.0,FEW,13000.0,,,,,,
KRDR,07-17-2017,17:06,SPECI,Normal,350,7,,,9999.0,,26.0,18.0,29.73,1006.8,,,,,,,,,,,,,,,Clear,72000.0,,,,,,,,,
KRDR,07-17-2017,16:56,METAR,Normal,320,8,,,9999.0,Light Rain,25.7,17.8,29.74,1007.1,61,,,,,,,,,,TRACE,,,,2/8 Mostly Clear,72000.0,5500.0,FEW,5500.0,FEW,10000.0,,,,
KRDR,07-17-2017,16:29,SPECI,Calm,,0,,,9999.0,Light Drizzle,24.0,21.0,29.76,1007.9,51,,,,,,,,,,,,,,,9500.0,4900.0,FEW,4900.0,FEW,6500.0,BKN,9600.0,OVC,12000.0
KRDR,07-17-2017,16:13,SPECI,Normal,230,7,,,9999.0,,23.0,20.0,29.78,1008.6,,,,,,,,,,,,,,,,7000.0,5000.0,FEW,5000.0,BKN,7000.0,BKN,12000.0,,
KRDR,07-17-2017,15:56,METAR,Normal,220,12,,,9999.0,Light Rain,21.8,19.5,29.80,1009.3,61,,,,,,,,,,.05 IN,,,,,8500.0,8500.0,OVC,8600.0,,,,,,
KRDR,07-17-2017,15:49,SPECI,Normal,230,13,,,9999.0,Rain,22.0,19.0,29.80,1009.3,62,,,,,,,,,,,,,,,9000.0,9000.0,OVC,9100.0,,,,,,
KRDR,07-17-2017,15:30,SPECI,Normal,230,13,,,9999.0,,21.0,20.0,29.79,1009.0,,,,,,,,,,,,,,,,6500.0,5500.0,FEW,5500.0,OVC,6500.0,,,,
KRDR,07-17-2017,14:56,METAR,Normal,250,13,17.0,,9999.0,Light Rain,21.2,19.7,29.79,1009.0,61,,,,,,,,,,TRACE,TRACE,,,,9000.0,7500.0,FEW,7500.0,BKN,9100.0,BKN,10000.0,OVC,13000.0
KRDR,07-17-2017,14:38,SPECI,Normal,240,8,,,9999.0,Light Drizzle,22.0,19.0,29.77,1008.2,51,,,,,,,,,,,,,,,13000.0,6500.0,FEW,6500.0,BKN,13000.0,BKN,15000.0,,
KRDR,07-17-2017,13:56,METAR,Normal,200,9,,,9999.0,,22.1,19.2,29.74,1007.2,,,,,,,,,,,,,,,,18000.0,18000.0,OVC,18000.0,,,,,,
KRDR,07-17-2017,12:56,METAR,Normal,190,9,,,9999.0,,20.6,18.9,29.72,1006.5,,,,,,,,,,,TRACE,,,,4/8 Partly Cloudy,72000.0,19000.0,SCT,19000.0,,,,,,
KRDR,07-17-2017,12:08,SPECI,Normal,220,7,,,9999.0,,20.0,19.0,29.74,1007.1,,,,,,,,,,,,,,,,18000.0,15000.0,SCT,15000.0,BKN,18000.0,,,,
KRDR,07-17-2017,11:59,SPECI,Normal,200,9,,,9999.0,Light Drizzle,20.0,19.0,29.72,1006.5,51,,,,,,,,,,,,,,,15000.0,15000.0,BKN,15000.0,,,,,,
KRDR,07-17-2017,11:56,METAR,Normal,200,8,,,9999.0,,20.2,19.0,29.73,1006.8,,,,,,,,,,,,,.47 IN,.47 IN,,15000.0,15000.0,BKN,15000.0,,,,,,
KRDR,07-17-2017,10:56,METAR,Normal,190,17,22.0,,9999.0,,19.6,19.6,29.72,1006.5,,,,,,,,,,,,,,,,19000.0,16000.0,SCT,16000.0,BKN,19000.0,,,,
KRDR,07-17-2017,09:56,METAR,Normal,170,8,,,9999.0,,19.7,19.7,29.78,1008.5,,,,,,,,,,,.17 IN,,,,,13000.0,8500.0,SCT,8600.0,BKN,13000.0,BKN,16000.0,,
KRDR,07-17-2017,09:30,SPECI,Normal,160,9,,,9999.0,Distant Lightning,20.0,19.0,29.81,1009.5,12,,,,,,,,,,,,,,,6000.0,3300.0,SCT,3300.0,BKN,6000.0,OVC,8600.0,,
KRDR,07-17-2017,09:24,SPECI,Normal,200,6,,,9999.0,Light Rain/Distant Lightning,20.0,19.0,29.83,1010.2,61,12,,,,,,,,,,,,,,4000.0,4000.0,BKN,4000.0,BKN,6500.0,OVC,8600.0,,
KRDR,07-17-2017,09:09,SPECI,Normal,210,6,,,9999.0,Thunderstorm and Rain or Snow Showers,20.0,19.0,29.84,1010.5,92,,,,,,,,,,,,,,,3800.0,3800.0,BKN,3800.0,OVC,6000.0,,,,
KRDR,07-17-2017,09:04,SPECI,Normal,200,7,,,8000.0,Rain/Distant Lightning,20.0,19.0,29.83,1010.2,62,12,,,,,,,,,,,,,,3600.0,3600.0,BKN,3600.0,,,,,,
KRDR,07-17-2017,09:01,SPECI,Normal,200,9,,,4800.0,Heavy Thunderstorm and Rain or Snow Showers/Mist,20.0,19.0,29.84,1010.5,95,10,,,,,,,,,,,,,,3600.0,3600.0,BKN,3600.0,,,,,,
KRDR,07-17-2017,08:56,METAR,Normal,210,8,27.0,290/27KTS,2400.0,Thunderstorm and Rain or Snow Showers/Mist,20.1,19.1,29.86,1011.2,92,10,,,,,,,,,.3 IN,.3 IN,,,,3400.0,3400.0,BKN,3400.0,,,,,,
KRDR,07-17-2017,08:53,SPECI,Normal,240,12,27.0,,2200.0,Heavy Thunderstorm and Rain or Snow Showers/Mist,20.0,19.0,29.87,1011.6,95,10,,,,,,,,,,,,,,2700.0,2700.0,BKN,2700.0,,,,,,
KRDR,07-17-2017,08:43,SPECI,Normal,300,8,,,9999.0,Thunderstorm and Rain or Snow Showers,21.0,18.0,29.88,1011.9,92,,,,,,,,,,,,,,4/8 Partly Cloudy,72000.0,2000.0,FEW,2000.0,SCT,4600.0,,,,
KRDR,07-17-2017,08:37,SPECI,Normal,250,5,,,9999.0,Light Rain/Distant Lightning,21.0,18.0,29.85,1010.9,61,12,,,,,,,,,,,,,2/8 Mostly Clear,72000.0,1100.0,FEW,1100.0,,,,,,
KRDR,07-17-2017,08:35,SPECI,Normal,230,5,,,9999.0,Light Rain/Distant Lightning,21.0,17.0,29.84,1010.5,61,12,,,,,,,,,,,,,2/8 Mostly Clear,72000.0,1300.0,FEW,1300.0,,,,,,
KRDR,07-17-2017,08:34,SPECI,Normal,230,5,,,9999.0,Distant Lightning,21.0,17.0,29.83,1010.2,12,,,,,,,,,,,,,,2/8 Mostly Clear,72000.0,1300.0,FEW,1300.0,,,,,,
KRDR,07-17-2017,08:31,SPECI,Normal,230,5,,,9999.0,Light Drizzle,21.0,17.0,29.83,1010.2,51,,,,,,,,,,,,,,2/8 Mostly Clear,72000.0,1300.0,FEW,1300.0,,,,,,
KRDR,07-17-2017,08:28,SPECI,Normal,210,4,,,9999.0,,21.0,17.0,29.82,1009.9,,,,,,,,,,,,,,,2/8 Mostly Clear,72000.0,1300.0,FEW,1300.0,FEW,14000.0,,,,
KRDR,07-17-2017,08:16,SPECI,Normal,200,6,,,9999.0,Light Rain,22.0,16.0,29.82,1009.8,61,,,,,,,,,,,,,,4/8 Partly Cloudy,72000.0,14000.0,SCT,14000.0,,,,,,
KRDR,07-17-2017,07:56,METAR,Normal,190,7,,,9999.0,,22.2,16.2,29.82,1009.8,,,,,,,,,,,,,,,,14000.0,14000.0,BKN,14000.0,,,,,,
KRDR,07-17-2017,06:56,METAR,Normal,280,13,23.0,290/26KTS,9999.0,,23.1,15.7,29.87,1011.5,,,,,,,,,,,,,,,,14000.0,3700.0,FEW,3700.0,BKN,14000.0,OVC,16000.0,,
KRDR,07-17-2017,06:38,SPECI,Normal,300,19,24.0,,9999.0,,22.0,16.0,29.89,1012.2,,,,,,,,,,,,,,,,16000.0,14000.0,SCT,14000.0,BKN,16000.0,,,,
KRDR,07-17-2017,05:56,METAR,Normal,180,12,,,9999.0,,21.7,16.0,29.79,1008.8,,,,,,,,,,,,,,,2/8 Mostly Clear,72000.0,21000.0,FEW,21000.0,,,,,,
KRDR,07-17-2017,04:56,METAR,Normal,180,10,,,9999.0,,21.5,16.0,29.81,1009.6,,,,,,,,,,,,,,,Clear,72000.0,,,,,,,,,
KRDR,07-17-2017,03:56,METAR,Normal,180,10,,,9999.0,,21.9,16.2,29.81,1009.6,,,,,,,,,,,,,,,Clear,72000.0,,,,,,,,,
KRDR,07-17-2017,02:56,METAR,Normal,170,11,,,9999.0,,23.2,16.5,29.83,1010.3,,,,,,,,,,,,,,,Clear,72000.0,,,,,,,,,
KRDR,07-17-2017,01:56,METAR,Normal,170,7,,,9999.0,,24.8,17.0,29.86,1011.4,,,,,,,,,,,,,,,Clear,72000.0,,,,,,,,,
KRDR,07-17-2017,00:56,METAR,Normal,180,9,,,9999.0,,26.9,16.8,29.88,1012.1,,,,,,,,,,,,,,,4/8 Partly Cloudy,72000.0,22000.0,SCT,22000.0,,,,,,
KRDR,07-16-2017,23:56,METAR,Normal,170,10,,,9999.0,,28.0,16.3,29.89,1012.5,,,,,,,,,,,,,,,Clear,72000.0,,,,,,,,,
KRDR,07-16-2017,22:56,METAR,Normal,180,15,21.0,,9999.0,,28.7,15.6,29.90,1012.9,,,,,,,,,,,,,,,2/8 Mostly Clear,72000.0,20000.0,FEW,20000.0,,,,,,
KRDR,07-16-2017,21:56,METAR,Normal,190,13,,,9999.0,,28.5,16.4,29.94,1014.2,,,,,,,,,,,,,,,Clear,72000.0,,,,,,,,,
KRDR,07-16-2017,20:56,METAR,Normal,170,12,,,9999.0,,27.9,15.5,29.97,1015.3,,,,,,,,,,,,,,,Clear,72000.0,,,,,,,,,
KRDR,07-16-2017,19:56,METAR,Normal,170,16,,,9999.0,,27.4,15.4,29.98,1015.7,,,,,,,,,,,,,,,Clear,72000.0,,,,,,,,,
KRDR,07-16-2017,18:56,METAR,Normal,160,13,17.0,,9999.0,,26.5,14.9,30.01,1016.7,,,,,,,,,,,,,,,Clear,72000.0,,,,,,,,,
KRDR,07-16-2017,17:56,METAR,Normal,170,10,,,9999.0,,25.6,15.9,30.03,1017.4,,,,,,,,,,,,,,,Clear,72000.0,,,,,,,,,
KRDR,07-16-2017,16:56,METAR,Normal,200,10,,,9999.0,,24.4,16.1,30.06,1018.4,,,,,,,,,,,,,,,Clear,72000.0,,,,,,,,,
KRDR,07-16-2017,15:56,METAR,Normal,190,6,,,9999.0,,22.6,16.1,30.08,1019.1,,,,,,,,,,,,,,,Clear,72000.0,,,,,,,,,
KRDR,07-16-2017,14:56,METAR,Normal,220,7,,,9999.0,,20.7,14.8,30.11,1020.1,,,,,,,,,,,,,,,Clear,72000.0,,,,,,,,,
KRDR,07-16-2017,13:56,METAR,Normal,200,6,,,9999.0,,17.8,13.1,30.11,1020.0,,,,,,,,,,,,,,,Clear,72000.0,,,,,,,,,
KRDR,07-16-2017,12:56,METAR,Normal,140,3,,,9999.0,,14.6,14.6,30.12,1020.4,,,,,,,,,,,,,,,Clear,72000.0,,,,,,,,,
KRDR,07-16-2017,11:56,METAR,Calm,,0,,,9999.0,,9.7,9.5,30.12,1020.5,,,,,,,,,,,,,,,Clear,72000.0,,,,,,,,,
KRDR,07-16-2017,11:41,SPECI,Calm,,0,,,9999.0,Mist,8.0,8.0,30.13,1020.9,10,,,,,,,,,,,,,,Clear,72000.0,,,,,,,,,
KRDR,07-16-2017,11:36,SPECI,Calm,,0,,,3600.0,Mist,8.0,8.0,30.12,1020.5,10,,,,,,,,,,,,,,Clear,72000.0,,,,,,,,,
KRDR,07-16-2017,11:31,SPECI,Calm,,0,,,2400.0,Mist,8.0,8.0,30.12,1020.5,10,,,,,,,,,,,,,,Clear,72000.0,,,,,,,,,
KRDR,07-16-2017,11:26,SPECI,Calm,,0,,,1400.0,Mist,8.0,8.0,30.12,1020.5,10,,,,,,,,,,,,,,Clear,72000.0,,,,,,,,,
KRDR,07-16-2017,11:21,SPECI,Calm,,0,,,800.0,Fog,8.0,8.0,30.12,1020.5,30,,,,,,,,,,,,,,Clear,72000.0,,,,,,,,,
KRDR,07-16-2017,11:16,SPECI,Calm,,0,,,1000.0,Mist,8.0,8.0,30.13,1020.9,10,,,,,,,,,,,,,,Clear,72000.0,,,,,,,,,
KRDR,07-16-2017,11:11,SPECI,Normal,340,3,,,800.0,Fog,8.0,8.0,30.13,1020.9,30,,,,,,,,,,,,,,Clear,72000.0,,,,,,,,,
KRDR,07-16-2017,10:56,METAR,Calm,,0,,,400.0,Fog,7.2,7.1,30.12,1020.5,30,,,,,,,,,,,,,,Clear,72000.0,,,,,,,,,
KRDR,07-16-2017,10:31,SPECI,Calm,,0,,,400.0,Fog,7.0,7.0,30.12,1020.5,30,,,,,,,,,,,,,,Clear,72000.0,,,,,,,,,
KRDR,07-16-2017,10:26,SPECI,Calm,,0,,,800.0,Fog,7.0,7.0,30.12,1020.5,30,,,,,,,,,,,,,,Clear,72000.0,,,,,,,,,
KRDR,07-16-2017,10:21,SPECI,Calm,,0,,,1200.0,Mist,7.0,7.0,30.13,1020.9,10,,,,,,,,,,,,,,Clear,72000.0,,,,,,,,,
KRDR,07-16-2017,10:16,SPECI,Calm,,0,,,1800.0,Mist,7.0,7.0,30.13,1020.9,10,,,,,,,,,,,,,,Clear,72000.0,,,,,,,,,
KRDR,07-16-2017,09:56,METAR,Calm,,0,,,9999.0,,8.5,8.2,30.13,1020.8,,,,,,,,,,,,,,,Clear,72000.0,,,,,,,,,
KRDR,07-16-2017,08:56,METAR,Normal,290,3,,,9999.0,,9.5,9.3,30.15,1021.4,,,,,,,,,,,,,,,Clear,72000.0,,,,,,,,,
KRDR,07-16-2017,07:56,METAR,Normal,260,3,,,9999.0,,9.3,9.1,30.15,1021.5,,,,,,,,,,,,,,,Clear,72000.0,,,,,,,,,
KRDR,07-16-2017,06:56,METAR,Calm,,0,,,9999.0,,9.9,9.7,30.15,1021.5,,,,,,,,,,,,,,,Clear,72000.0,,,,,,,,,
KRDR,07-16-2017,05:56,METAR,Calm,,0,,,9999.0,,10.4,9.9,30.14,1021.2,,,,,,,,,,,,,,,Clear,72000.0,,,,,,,,,
KRDR,07-16-2017,04:56,METAR,Normal,350,4,,,9999.0,,12.7,11.9,30.14,1021.2,,,,,,,,,,,,,,,Clear,72000.0,,,,,,,,,
KRDR,07-16-2017,03:56,METAR,Normal,10,3,,,9999.0,,14.0,12.2,30.13,1020.8,,,,,,,,,,,,,,,Clear,72000.0,,,,,,,,,
KRDR,07-16-2017,02:56,METAR,Normal,10,6,,,9999.0,,15.5,12.6,30.13,1020.8,,,,,,,,,,,,,,,Clear,72000.0,,,,,,,,,
KRDR,07-16-2017,01:56,METAR,Normal,10,6,,,9999.0,,19.5,13.9,30.13,1020.6,,,,,,,,,,,,,,,Clear,72000.0,,,,,,,,,
KRDR,07-16-2017,00:56,METAR,Normal,20,8,,,9999.0,,23.2,13.9,30.13,1020.6,,,,,,,,,,,,,,,Clear,72000.0,,,,,,,,,
KRDR,07-15-2017,23:56,METAR,Normal,10,10,,,9999.0,,24.2,13.4,30.14,1020.9,,,,,,,,,,,,,,,Clear,72000.0,,,,,,,,,
KRDR,07-15-2017,22:56,METAR,Normal,30,12,,,9999.0,,25.3,12.8,30.14,1020.9,,,,,,,,,,,,,,,Clear,72000.0,,,,,,,,,
KRDR,07-15-2017,21:56,METAR,Normal,20,13,,,9999.0,,25.4,14.5,30.15,1021.2,,,,,,,,,,,,,,,Clear,72000.0,,,,,,,,,
KRDR,07-15-2017,20:56,METAR,Normal,20,10,14.0,,9999.0,,25.4,15.1,30.17,1021.9,,,,,,,,,,,,,,,2/8 Mostly Clear,72000.0,3900.0,FEW,3900.0,,,,,,
KRDR,07-15-2017,19:56,METAR,Normal,360,12,18.0,,9999.0,,25.2,15.5,30.17,1021.8,,,,,,,,,,,,,,,4/8 Partly Cloudy,72000.0,3700.0,SCT,3700.0,,,,,,
KRDR,07-15-2017,19:46,SPECI,Normal,340,12,,,9999.0,,25.0,16.0,30.17,1021.8,,,,,,,,,,,,,,,4/8 Partly Cloudy,72000.0,3500.0,SCT,3500.0,,,,,,
KRDR,07-15-2017,19:28,SPECI,Normal,350,13,,,9999.0,,25.0,16.0,30.17,1021.8,,,,,,,,,,,,,,,4/8 Partly Cloudy,72000.0,3300.0,SCT,3300.0,,,,,,
KRDR,07-15-2017,18:56,METAR,Normal,20,13,17.0,,9999.0,,24.5,16.2,30.17,1021.8,,,,,,,,,,,,,,,2/8 Mostly Clear,72000.0,2900.0,FEW,2900.0,,,,,,
KRDR,07-15-2017,18:54,SPECI,Normal,20,12,17.0,,9999.0,,24.0,16.0,30.17,1021.8,,,,,,,,,,,,,,,4/8 Partly Cloudy,72000.0,2900.0,SCT,2900.0,,,,,,
KRDR,07-15-2017,18:34,SPECI,Normal,340,13,,,9999.0,,24.0,16.0,30.17,1021.8,,,,,,,,,,,,,,,,2400.0,2600.0,BKN,2600.0,,,,,,
KRDR,07-15-2017,17:56,METAR,Normal,350,13,17.0,,9999.0,,22.4,16.6,30.18,1022.3,,,,,,,,,,,,,,,,2200.0,2200.0,OVC,2200.0,,,,,,
KRDR,07-15-2017,17:31,SPECI,Normal,10,14,,,9999.0,,22.0,17.0,30.17,1021.9,,,,,,,,,,,,,,,,2000.0,2100.0,OVC,2100.0,,,,,,
KRDR,07-15-2017,16:56,METAR,Normal,360,14,,,9999.0,,21.5,16.9,30.17,1021.9,,,,,,,,,,,,,,,,1600.0,1600.0,OVC,1600.0,,,,,,
KRDR,07-15-2017,16:21,SPECI,Normal,10,14,19.0,,9999.0,,20.0,17.0,30.16,1021.7,,,,,,,,,,,,,,,,1400.0,1500.0,OVC,1500.0,,,,,,
KRDR,07-15-2017,16:01,SPECI,Normal,360,15,,,9999.0,,21.0,17.0,30.15,1021.3,,,,,,,,,,,,,,,,1400.0,1400.0,OVC,1400.0,,,,,,
KRDR,07-15-2017,15:56,METAR,Normal,350,15,,,9999.0,,20.5,16.7,30.15,1021.3,,,,,,,,,,,,,,,,1400.0,1500.0,OVC,1500.0,,,,,,
KRDR,07-15-2017,14:56,METAR,Normal,10,13,19.0,,9999.0,,20.4,16.6,30.15,1021.2,,,,,,,,,,,,,,,,1600.0,1800.0,OVC,1800.0,,,,,,
KRDR,07-15-2017,14:01,SPECI,Normal,360,14,,,9999.0,,21.0,17.0,30.13,1020.5,,,,,,,,,,,,,,,,1400.0,1500.0,OVC,1500.0,,,,,,
KRDR,07-15-2017,13:56,METAR,Normal,20,11,18.0,,9999.0,,20.4,17.0,30.13,1020.5,,,,,,,,,,,,,,,,1400.0,1400.0,OVC,1400.0,,,,,,
KRDR,07-15-2017,13:06,SPECI,Normal,10,12,,,9999.0,,20.0,17.0,30.11,1019.8,,,,,,,,,,,,,,,,1200.0,1300.0,BKN,1300.0,,,,,,
KRDR,07-15-2017,12:56,METAR,Normal,360,12,17.0,,9999.0,,19.7,17.3,30.11,1019.8,,,,,,,,,,,,,,,2/8 Mostly Clear,72000.0,1400.0,FEW,1400.0,,,,,,
KRDR,07-15-2017,11:56,METAR,Normal,360,9,,,9999.0,,18.7,17.2,30.09,1019.2,,,,,,,,,,,,,,,Clear,72000.0,,,,,,,,,
KRDR,07-15-2017,10:56,METAR,Normal,350,8,,,9999.0,,18.0,17.2,30.06,1018.2,,,,,,,,,,,,,,,Clear,72000.0,,,,,,,,,
KRDR,07-15-2017,09:56,METAR,Normal,350,8,,,9999.0,,18.8,17.1,30.04,1017.4,,,,,,,,,,,,,,,Clear,72000.0,,,,,,,,,
KRDR,07-15-2017,08:56,METAR,Normal,330,7,,,9999.0,,19.7,17.6,30.04,1017.4,,,,,,,,,,,,,,,Clear,72000.0,,,,,,,,,
KRDR,07-15-2017,07:56,METAR,Normal,350,8,,,9999.0,,21.0,18.0,30.01,1016.4,,,,,,,,,,,,,,,2/8 Mostly Clear,72000.0,8500.0,FEW,8600.0,,,,,,
KRDR,07-15-2017,06:56,METAR,Normal,330,8,,,9999.0,,22.6,17.7,30.00,1016.0,,,,,,,,,,,,,,,Clear,72000.0,,,,,,,,,
KRDR,07-15-2017,05:56,METAR,Normal,310,8,,,9999.0,,20.4,15.4,29.96,1014.7,,,,,,,,,,,,,,,Clear,72000.0,,,,,,,,,
KRDR,07-15-2017,04:56,METAR,Calm,,0,,,9999.0,,19.3,17.1,29.97,1015.1,,,,,,,,,,,,,,,Clear,72000.0,,,,,,,,,
KRDR,07-15-2017,03:56,METAR,Normal,230,4,,,9999.0,,21.9,17.9,29.95,1014.4,,,,,,,,,,,,,,,,10000.0,10000.0,BKN,10000.0,BKN,13000.0,,,,
KRDR,07-15-2017,02:56,METAR,Normal,180,7,,,9999.0,,24.1,17.3,29.94,1014.1,,,,,,,,,,,,,,,2/8 Mostly Clear,72000.0,11000.0,FEW,11000.0,,,,,,
KRDR,07-15-2017,01:56,METAR,Normal,200,5,,,9999.0,,23.8,18.0,29.95,1014.5,,,,,,,,,,,,,,,4/8 Partly Cloudy,72000.0,12000.0,SCT,12000.0,,,,,,
KRDR,07-15-2017,00:56,METAR,Normal,160,11,,,9999.0,,25.2,17.4,29.95,1014.5,,,,,,,,,,,,,,,4/8 Partly Cloudy,72000.0,14000.0,SCT,14000.0,,,,,,
KRDR,07-15-2017,00:13,SPECI,Normal,190,7,,,9999.0,,25.0,18.0,29.98,1015.5,,,,,,,,,,,,,,,2/8 Mostly Clear,72000.0,14000.0,FEW,14000.0,,,,,,
KRDR,07-14-2017,23:58,SPECI,Normal,190,9,,,9999.0,Thunderstorm and Rain or Snow Showers,25.0,18.0,29.99,1015.9,92,,,,,,,,,,,,,,,14000.0,14000.0,BKN,14000.0,,,,,,
KRDR,07-14-2017,23:56,METAR,Normal,210,7,,,9999.0,Dry Thunderstorm,25.2,17.6,30.00,1016.3,91,,,,,,,,,,TRACE,,,,,14000.0,14000.0,BKN,14000.0,,,,,,
KRDR,07-14-2017,23:48,SPECI,Normal,230,5,,,9999.0,Thunderstorm,26.0,17.0,30.01,1016.6,,,,17,,,,,,,,,,,,14000.0,14000.0,BKN,14000.0,,,,,,
KRDR,07-14-2017,23:43,SPECI,Normal,210,6,,,9999.0,Thunderstorm with Rain or Snow,26.0,17.0,29.99,1015.9,,,,95,,,,,,,,,,,4/8 Partly Cloudy,72000.0,14000.0,SCT,14000.0,,,,,,
KRDR,07-14-2017,22:56,METAR,Normal,200,15,19.0,180/28KTS,9999.0,,26.9,16.8,29.95,1014.5,,,,,,,,,,,,,,,Clear,72000.0,,,,,,,,,
KRDR,07-14-2017,21:56,METAR,Normal,210,20,26.0,200/29KTS,9999.0,,27.8,16.1,29.96,1014.9,,,,,,,,,,,,,,,Clear,72000.0,,,,,,,,,
KRDR,07-14-2017,20:56,METAR,Normal,200,16,22.0,,9999.0,,26.9,16.2,30.02,1017.0,,,,,,,,,,,,,,,Clear,72000.0,,,,,,,,,
KRDR,07-14-2017,19:56,METAR,Normal,200,14,19.0,,9999.0,,25.8,16.1,30.05,1018.0,,,,,,,,,,,,,,,Clear,72000.0,,,,,,,,,
KRDR,07-14-2017,18:56,METAR,Normal,210,10,,,9999.0,,25.2,14.9,30.11,1020.1,,,,,,,,,,,,,,,,19000.0,13000.0,FEW,13000.0,SCT,16000.0,BKN,19000.0,BKN,21000.0
KRDR,07-14-2017,17:56,METAR,Normal,200,14,20.0,,9999.0,,23.9,14.3,30.11,1020.1,,,,,,,,,,,,,,,Clear,72000.0,,,,,,,,,
KRDR,07-14-2017,16:56,METAR,Normal,190,11,,,9999.0,,22.7,13.7,30.13,1020.8,,,,,,,,,,,,,,,Clear,72000.0,,,,,,,,,
KRDR,07-14-2017,15:56,METAR,Normal,200,13,19.0,,9999.0,,21.3,13.2,30.14,1021.2,,,,,,,,,,,,,,,Clear,72000.0,,,,,,,,,
KRDR,07-14-2017,14:56,METAR,Normal,190,15,20.0,,9999.0,,19.6,12.8,30.15,1021.5,,,,,,,,,,,,,,,Clear,72000.0,,,,,,,,,
KRDR,07-14-2017,13:56,METAR,Normal,210,10,,,9999.0,,18.3,12.9,30.16,1021.7,,,,,,,,,,,,,,,Clear,72000.0,,,,,,,,,
KRDR,07-14-2017,12:56,METAR,Normal,210,12,,,9999.0,,15.8,12.7,30.16,1021.7,,,,,,,,,,,,,,,Clear,72000.0,,,,,,,,,
KRDR,07-14-2017,11:56,METAR,Normal,230,7,,,9999.0,,13.8,12.4,30.17,1022.1,,,,,,,,,,,,,,,Clear,72000.0,,,,,,,,,
KRDR,07-14-2017,10:56,METAR,Normal,200,6,,,9999.0,,12.0,11.8,30.17,1022.2,,,,,,,,,,,,,,,Clear,72000.0,,,,,,,,,
KRDR,07-14-2017,09:56,METAR,Normal,220,5,,,9999.0,,10.0,9.8,30.17,1022.3,,,,,,,,,,,,,,,Clear,72000.0,,,,,,,,,
KRDR,07-14-2017,08:56,METAR,Normal,230,4,,,9999.0,,9.6,9.4,30.17,1022.3,,,,,,,,,,,,,,,Clear,72000.0,,,,,,,,,
KRDR,07-14-2017,07:56,METAR,Normal,220,4,,,9999.0,,10.8,10.2,30.17,1022.3,,,,,,,,,,,,,,,Clear,72000.0,,,,,,,,,
KRDR,07-14-2017,06:56,METAR,Normal,240,4,,,9999.0,,10.9,10.7,30.18,1022.6,,,,,,,,,,,,,,,Clear,72000.0,,,,,,,,,
KRDR,07-14-2017,05:56,METAR,Normal,240,4,,,9999.0,,11.1,10.8,30.18,1022.6,,,,,,,,,,,,,,,Clear,72000.0,,,,,,,,,
KRDR,07-14-2017,04:56,METAR,Normal,250,3,,,9999.0,,10.6,10.3,30.18,1022.7,,,,,,,,,,,,,,,Clear,72000.0,,,,,,,,,
KRDR,07-14-2017,03:56,METAR,Normal,230,3,,,9999.0,,11.8,10.7,30.18,1022.7,,,,,,,,,,,,,,,Clear,72000.0,,,,,,,,,
KRDR,07-14-2017,02:56,METAR,Calm,,0,,,9999.0,,14.6,10.0,30.17,1022.3,,,,,,,,,,,,,,,Clear,72000.0,,,,,,,,,
KRDR,07-14-2017,01:56,METAR,Normal,100,4,,,9999.0,,19.7,9.0,30.17,1022.1,,,,,,,,,,,,,,,Clear,72000.0,,,,,,,,,
KRDR,07-14-2017,00:56,METAR,Normal,100,5,,,9999.0,,22.0,9.0,30.18,,,,,,,,,,,,,,,,Clear,72000.0,,,,,,,,,
KRDR,07-13-2017,23:56,METAR,Normal,90,6,,,9999.0,,22.2,9.7,30.18,,,,,,,,,,,,,,,,Clear,72000.0,,,,,,,,,
KRDR,07-13-2017,22:56,METAR,Calm,,0,,,9999.0,,22.7,10.8,30.19,,,,,,,,,,,,,,,,Clear,72000.0,,,,,,,,,
KRDR,07-13-2017,21:56,METAR,Normal,80,8,,,9999.0,,22.6,10.7,30.23,,,,,,,,,,,,,,,,Clear,72000.0,,,,,,,,,
KRDR,07-13-2017,20:56,METAR,Normal,100,9,,,9999.0,,22.1,10.2,30.19,,,,,,,,,,,,,,,,2/8 Mostly Clear,72000.0,4900.0,FEW,4900.0,,,,,,
KRDR,07-13-2017,19:56,METAR,Normal,110,9,,,9999.0,,20.7,11.0,30.20,1023.1,,,,,,,,,,,,,,,,4500.0,4500.0,BKN,4500.0,,,,,,
KRDR,07-13-2017,18:56,METAR,Normal,80,11,,,9999.0,,20.8,10.9,30.21,1023.5,,,,,,,,,,,,,,,,4300.0,4300.0,BKN,4300.0,,,,,,
KRDR,07-13-2017,17:56,METAR,Normal,60,8,,,9999.0,,20.5,11.4,30.22,1023.9,,,,,,,,,,,,,,,2/8 Mostly Clear,72000.0,3800.0,FEW,3800.0,,,,,,
KRDR,07-13-2017,17:34,SPECI,Normal,80,11,,,9999.0,,20.0,11.0,30.23,1024.2,,,,,,,,,,,,,,,2/8 Mostly Clear,72000.0,3600.0,FEW,3600.0,,,,,,
KRDR,07-13-2017,16:56,METAR,Normal,100,9,,,9999.0,,19.5,11.3,30.23,1024.2,,,,,,,,,,,,,,,Clear,72000.0,,,,,,,,,
KRDR,07-13-2017,16:06,SPECI,Normal,40,9,,,9999.0,,18.0,12.0,30.23,1024.2,,,,,,,,,,,,,,,4/8 Partly Cloudy,72000.0,2300.0,SCT,2300.0,,,,,,
KRDR,07-13-2017,16:01,SPECI,Normal,50,10,,,9999.0,,18.0,12.0,30.23,1024.2,,,,,,,,,,,,,,,,2300.0,2300.0,BKN,2300.0,,,,,,
KRDR,07-13-2017,15:56,METAR,Normal,70,8,,,9999.0,,18.4,11.9,30.23,1024.2,,,,,,,,,,,,,,,4/8 Partly Cloudy,72000.0,2300.0,SCT,2300.0,,,,,,
KRDR,07-13-2017,15:51,SPECI,Normal,40,10,,,9999.0,,19.0,12.0,30.23,1024.2,,,,,,,,,,,,,,,,2300.0,2300.0,BKN,2300.0,BKN,2900.0,,,,
KRDR,07-13-2017,15:11,SPECI,Normal,90,10,,,9999.0,,18.0,11.0,30.22,1023.9,,,,,,,,,,,,,,,4/8 Partly Cloudy,72000.0,2300.0,SCT,2300.0,,,,,,
KRDR,07-13-2017,14:56,METAR,Normal,50,8,,,9999.0,,17.7,11.9,30.22,1023.9,,,,,,,,,,,,,,,,2200.0,2200.0,BKN,2200.0,,,,,,
KRDR,07-13-2017,13:56,METAR,Normal,50,11,,,9999.0,,15.9,11.7,30.21,1023.6,,,,,,,,,,,,,,,4/8 Partly Cloudy,72000.0,1600.0,FEW,1600.0,SCT,2100.0,,,,
KRDR,07-13-2017,13:41,SPECI,Normal,50,13,,,9999.0,,15.0,12.0,30.21,1023.6,,,,,,,,,,,,,,,4/8 Partly Cloudy,72000.0,1400.0,FEW,1400.0,SCT,1800.0,,,,
KRDR,07-13-2017,13:26,SPECI,Normal,30,10,,,9999.0,,15.0,12.0,30.21,1023.6,,,,,,,,,,,,,,,,1900.0,1900.0,OVC,1900.0,,,,,,
KRDR,07-13-2017,13:01,SPECI,Normal,50,9,,,9999.0,,14.0,11.0,30.20,1023.3,,,,,,,,,,,,,,,,2000.0,2000.0,OVC,2000.0,,,,,,
KRDR,07-13-2017,12:56,METAR,Normal,40,9,,,9999.0,,13.9,11.1,30.21,1023.6,,,,,,,,,,,,,,,,1900.0,1900.0,OVC,1900.0,,,,,,
KRDR,07-13-2017,12:36,SPECI,Normal,50,11,,,9999.0,,13.0,11.0,30.20,1023.3,,,,,,,,,,,,,,,,1900.0,1900.0,BKN,1900.0,,,,,,
KRDR,07-13-2017,11:56,METAR,Normal,40,9,,,9999.0,,13.1,11.2,30.19,1023.0,,,,,,,,,,,,,,IN,Clear,72000.0,,,,,,,,,
KRDR,07-13-2017,10:56,METAR,Normal,20,7,,,9999.0,,12.4,12.1,30.17,1022.3,,,,,,,,,,,,,,,Clear,72000.0,,,,,,,,,
KRDR,07-13-2017,10:06,SPECI,Normal,10,6,,,9999.0,,13.0,13.0,30.16,1021.9,,,,,,,,,,,,,,,4/8 Partly Cloudy,72000.0,2600.0,SCT,2600.0,,,,,,
KRDR,07-13-2017,09:56,METAR,Normal,10,7,,,9999.0,,14.0,12.9,30.15,1021.6,,,,,,,,,,,,,,,,2600.0,1400.0,FEW,1400.0,BKN,2600.0,,,,
KRDR,07-13-2017,08:56,METAR,Normal,40,6,,,9999.0,,14.8,13.5,30.16,1021.9,,,,,,,,,,,,,,,,1900.0,2000.0,OVC,2000.0,,,,,,
KRDR,07-13-2017,07:56,METAR,Normal,40,4,,,9999.0,,15.0,13.5,30.15,1021.6,,,,,,,,,,,,,,,,2300.0,1700.0,FEW,1700.0,OVC,2500.0,,,,
KRDR,07-13-2017,06:56,METAR,Normal,40,5,,,9999.0,,14.9,13.4,30.14,1021.2,,,,,,,,,,,,,,,,2100.0,2100.0,OVC,2100.0,,,,,,
KRDR,07-13-2017,06:21,SPECI,Normal,20,5,,,9999.0,,14.0,14.0,30.13,1020.9,,,,,,,,,,,,,,,,2000.0,2000.0,BKN,2000.0,BKN,3600.0,OVC,6500.0,,
KRDR,07-13-2017,05:56,METAR,Normal,360,3,,,9999.0,,13.9,13.7,30.13,1020.9,,,,,,,,,,,,,,,,6500.0,6500.0,OVC,6500.0,,,,,,
KRDR,07-13-2017,04:56,METAR,Normal,20,4,,,9999.0,,13.8,12.7,30.12,1020.5,,,,,,,,,,,,,,,,4200.0,4200.0,BKN,4200.0,,,,,,
KRDR,07-13-2017,03:56,METAR,Normal,40,6,,,9999.0,,15.4,13.6,30.11,1020.2,,,,,,,,,,,,,,,,4100.0,4100.0,OVC,4100.0,,,,,,
KRDR,07-13-2017,02:56,METAR,Normal,60,10,,,9999.0,,15.9,13.4,30.10,1019.9,,,,,,,,,,,,,,,,3700.0,3700.0,OVC,3700.0,,,,,,
KRDR,07-13-2017,01:56,METAR,Normal,40,13,17.0,,9999.0,,16.8,13.5,30.08,1019.2,,,,,,,,,,,,,,,,4300.0,4300.0,OVC,4300.0,,,,,,
KRDR,07-13-2017,01:06,SPECI,Normal,40,11,18.0,,9999.0,,18.0,14.0,30.07,1018.8,,,,,,,,,,,,,,,,3800.0,1800.0,SCT,1800.0,SCT,2500.0,BKN,3800.0,OVC,4600.0
KRDR,07-13-2017,01:01,SPECI,Normal,30,12,18.0,,9999.0,,18.0,14.0,30.06,1018.4,,,,,,,,,,,,,,,,2400.0,1800.0,SCT,1800.0,BKN,2400.0,OVC,4600.0,,
KRDR,07-13-2017,00:56,METAR,Normal,30,11,,,9999.0,,17.4,14.8,30.06,1018.4,,,,,,,,,,,,,,,,4600.0,2100.0,SCT,2100.0,OVC,4600.0,,,,
KRDR,07-13-2017,00:36,SPECI,Normal,20,11,,,9999.0,,17.0,15.0,30.06,1018.4,,,,,,,,,,,,,,,,4400.0,2200.0,FEW,2200.0,SCT,2900.0,OVC,4400.0,,
KRDR,07-13-2017,00:16,SPECI,Normal,40,10,,,9999.0,,17.0,15.0,30.05,1018.1,,,,,,,,,,,,,,,,1700.0,1700.0,SCT,1700.0,BKN,2300.0,OVC,2800.0,,
KRDR,07-12-2017,23:56,METAR,Normal,30,10,,,9999.0,,17.7,16.4,30.04,1017.8,,,,,,,,,,,.01 IN,,.02 IN,,,1600.0,1700.0,BKN,1700.0,BKN,2400.0,BKN,3200.0,OVC,4400.0
KRDR,07-12-2017,23:49,SPECI,Normal,20,12,,,9999.0,,18.0,17.0,30.04,1017.8,,,,,,,,,,,,,,,,1700.0,1700.0,BKN,1700.0,BKN,3300.0,OVC,4300.0,,
KRDR,07-12-2017,23:29,SPECI,Normal,10,10,,,9999.0,,17.0,17.0,30.04,1017.8,,,,,,,,,,,,,,,,4100.0,1100.0,FEW,1100.0,SCT,3300.0,OVC,4100.0,,
KRDR,07-12-2017,23:24,SPECI,Normal,10,13,,,9999.0,,18.0,17.0,30.03,1017.4,,,,,,,,,,,,,,,,1200.0,1100.0,FEW,1100.0,SCT,1800.0,BKN,2800.0,OVC,3700.0
KRDR,07-12-2017,23:19,SPECI,Normal,10,12,,,9999.0,,17.0,17.0,30.03,1017.4,,,,,,,,,,,,,,,,1200.0,700.0,FEW,700.0,BKN,1200.0,BKN,2800.0,OVC,3500.0
KRDR,07-12-2017,23:14,SPECI,Normal,10,13,,,9999.0,,17.0,17.0,30.03,1017.4,,,,,,,,,,,,,,,,1400.0,700.0,FEW,700.0,SCT,1200.0,BKN,1800.0,OVC,2800.0
KRDR,07-12-2017,23:09,SPECI,Normal,10,9,,,9999.0,,17.0,17.0,30.03,1017.4,,,,,,,,,,,,,,,,2100.0,700.0,FEW,700.0,SCT,1300.0,BKN,2100.0,OVC,2800.0
KRDR,07-12-2017,23:01,SPECI,Normal,10,11,,,9999.0,Light Rain,18.0,17.0,30.03,1017.4,61,,,,,,,,,,,,,,,1400.0,700.0,FEW,700.0,SCT,1500.0,BKN,2200.0,BKN,2800.0
KRDR,07-12-2017,22:56,METAR,Normal,10,11,,030/27KTS,9999.0,Light Rain,18.2,16.7,30.03,1017.4,61,,,,,,,,,,TRACE,,,,,1400.0,800.0,FEW,800.0,BKN,1400.0,BKN,2300.0,OVC,4300.0
KRDR,07-12-2017,22:54,SPECI,Normal,20,11,,,9999.0,Light Rain,18.0,17.0,30.03,1017.4,61,,,,,,,,,,,,,,,1400.0,800.0,FEW,800.0,BKN,1400.0,BKN,2300.0,OVC,4300.0
KRDR,07-12-2017,22:49,SPECI,Normal,20,15,23.0,,9999.0,Light Rain,19.0,16.0,30.02,1017.0,61,,,,,,,,,,,,,,,1800.0,800.0,FEW,800.0,SCT,1300.0,BKN,1800.0,BKN,2300.0
KRDR,07-12-2017,22:38,SPECI,Normal,20,11,,,9999.0,,18.0,16.0,30.02,1017.1,,,,,,,,,,,,,,,,1300.0,1100.0,FEW,1100.0,SCT,1800.0,BKN,2300.0,BKN,3300.0
KRDR,07-12-2017,22:37,SPECI,Normal,20,12,,,9999.0,,18.0,16.0,30.02,1017.1,,,,,,,,,,,,,,,,4300.0,1400.0,SCT,1400.0,SCT,2200.0,OVC,4300.0,,
KRDR,07-12-2017,22:32,SPECI,Normal,20,12,,,9999.0,,18.0,17.0,30.02,1017.1,,,,,,,,,,,,,,,,1300.0,1400.0,SCT,1400.0,BKN,2000.0,BKN,2500.0,BKN,3600.0
KRDR,07-12-2017,22:29,SPECI,Normal,20,10,,,9999.0,Light Rain,18.0,17.0,30.02,1017.1,61,,,,,,,,,,,,,,,1300.0,1000.0,FEW,1000.0,BKN,1300.0,BKN,2000.0,BKN,2500.0
KRDR,07-12-2017,22:27,SPECI,Normal,30,8,,,9999.0,Light Rain,18.0,16.0,30.02,1017.1,61,,,,,,,,,,,,,,,1300.0,1300.0,BKN,1300.0,BKN,2000.0,BKN,2500.0,OVC,3400.0
KRDR,07-12-2017,22:17,SPECI,Normal,20,17,19.0,,9999.0,Light Drizzle,19.0,16.0,30.01,1016.7,51,,,,,,,,,,,,,,,1500.0,1400.0,SCT,1400.0,BKN,2100.0,BKN,2600.0,OVC,3400.0
KRDR,07-12-2017,21:56,METAR,Normal,20,10,,30/26KTS,9999.0,,18.6,16.2,30.01,1016.7,,,,,,,,,,,TRACE,,,,,2200.0,1400.0,FEW,1400.0,SCT,2100.0,BKN,2700.0,OVC,3600.0
KRDR,07-12-2017,21:51,SPECI,Normal,40,16,,,9999.0,,19.0,16.0,30.01,1016.7,,,,,,,,,,,,,,,,2200.0,1500.0,SCT,1500.0,BKN,2200.0,BKN,3000.0,,
KRDR,07-12-2017,21:16,SPECI,Normal,30,12,,,9999.0,,18.0,17.0,29.99,1016.0,,,,,,,,,,,,,,,,3000.0,2100.0,SCT,2100.0,BKN,3000.0,,,,
KRDR,07-12-2017,21:15,SPECI,Normal,30,12,,,9999.0,Light Rain,18.0,17.0,29.99,1016.0,61,,,,,,,,,,,,,,,3000.0,2100.0,SCT,2100.0,BKN,3000.0,,,,
KRDR,07-12-2017,21:10,SPECI,Normal,30,12,,,8000.0,Light Rain,18.0,17.0,29.99,1016.0,61,,,,,,,,,,,,,,,2200.0,2200.0,BKN,2200.0,BKN,3300.0,,,,
KRDR,07-12-2017,21:05,SPECI,Normal,40,15,26.0,,9999.0,Light Rain,19.0,17.0,29.99,1016.0,61,,,,,,,,,,,,,,,3600.0,2000.0,SCT,2000.0,BKN,3600.0,,,,
KRDR,07-12-2017,20:56,METAR,Normal,20,15,,020/26KTS,9999.0,,19.8,15.8,29.98,1015.6,,,,,,,,,,,TRACE,.01 IN,,,4/8 Partly Cloudy,72000.0,1700.0,FEW,1700.0,SCT,3600.0,,,,
KRDR,07-12-2017,20:02,SPECI,Normal,10,14,,,9999.0,,17.0,17.0,29.97,1015.4,,,,,,,,,,,,,,,,3700.0,800.0,FEW,800.0,SCT,1400.0,BKN,3700.0,,
KRDR,07-12-2017,19:57,SPECI,Normal,10,16,,,9999.0,,17.0,17.0,29.97,1015.4,,,,,,,,,,,,,,,,1400.0,800.0,FEW,800.0,BKN,1400.0,,,,
KRDR,07-12-2017,19:56,METAR,Normal,10,14,,,9999.0,Light Drizzle,17.2,17.0,29.97,1015.4,51,,,,,,,,,,TRACE,,,,,1400.0,800.0,FEW,800.0,BKN,1400.0,,,,
KRDR,07-12-2017,19:33,SPECI,Normal,360,9,,,9999.0,Light Rain,18.0,17.0,29.96,1015.0,61,,,,,,,,,,,,,,,700.0,800.0,FEW,800.0,OVC,1400.0,,,,
KRDR,07-12-2017,19:13,SPECI,Normal,20,12,,,9999.0,Light Rain,18.0,17.0,29.96,1014.9,61,,,,,,,,,,,,,,,700.0,900.0,FEW,900.0,BKN,1700.0,,,,
KRDR,07-12-2017,19:12,SPECI,Normal,20,13,,,9999.0,,18.0,17.0,29.95,1014.6,,,,,,,,,,,,,,,,1200.0,900.0,FEW,900.0,BKN,1700.0,,,,
KRDR,07-12-2017,19:07,SPECI,Normal,10,12,17.0,,9999.0,,18.0,17.0,29.95,1014.6,,,,,,,,,,,,,,,,2000.0,900.0,FEW,900.0,SCT,1300.0,BKN,2000.0,,
KRDR,07-12-2017,19:01,SPECI,Normal,20,13,21.0,,9999.0,Light Rain,18.0,17.0,29.95,1014.6,61,,,,,,,,,,,,,,,1300.0,900.0,FEW,900.0,SCT,1300.0,OVC,2000.0,,
KRDR,07-12-2017,18:56,METAR,Normal,20,16,21.0,,9999.0,Light Rain,17.9,16.6,29.95,1014.6,61,,,,,,,,,,.01 IN,,,,,1300.0,900.0,FEW,900.0,BKN,1300.0,BKN,2200.0,,
KRDR,07-12-2017,18:51,SPECI,Normal,20,15,21.0,,9999.0,Light Rain,18.0,16.0,29.95,1014.6,61,,,,,,,,,,,,,,,1300.0,900.0,FEW,900.0,BKN,1300.0,BKN,2100.0,,
KRDR,07-12-2017,18:50,SPECI,Normal,20,14,,,9999.0,,18.0,16.0,29.94,1014.2,,,,,,,,,,,,,,,,1300.0,900.0,FEW,900.0,BKN,1300.0,BKN,2100.0,,
KRDR,07-12-2017,18:31,SPECI,Normal,20,13,,,9999.0,,18.0,17.0,29.94,1014.2,,,,,,,,,,,,,,,,1300.0,1400.0,SCT,1400.0,BKN,2300.0,,,,
KRDR,07-12-2017,18:26,SPECI,Normal,10,10,,,9999.0,,18.0,17.0,29.94,1014.2,,,,,,,,,,,,,,,,1200.0,1300.0,BKN,1300.0,BKN,2200.0,,,,
KRDR,07-12-2017,18:21,SPECI,Normal,360,10,,,9999.0,,18.0,17.0,29.94,1014.2,,,,,,,,,,,,,,,,1200.0,1300.0,SCT,1300.0,BKN,2200.0,,,,
KRDR,07-12-2017,18:12,SPECI,Normal,10,9,,,9999.0,Light Rain,17.0,17.0,29.94,1014.3,61,,,,,,,,,,,,,,,1000.0,1100.0,SCT,1100.0,BKN,2000.0,,,,
KRDR,07-12-2017,18:06,SPECI,Normal,10,11,18.0,,9999.0,Light Rain,18.0,17.0,29.93,1013.9,61,,,,,,,,,,,,,,,1000.0,1200.0,BKN,1200.0,,,,,,
KRDR,07-12-2017,18:01,SPECI,Normal,10,13,18.0,,9999.0,Light Rain,18.0,17.0,29.93,1013.9,61,,,,,,,,,,,,,,,1000.0,1000.0,BKN,1000.0,BKN,3300.0,,,,
KRDR,07-12-2017,17:56,METAR,Normal,20,10,,,9999.0,,17.5,17.2,29.93,1013.9,,,,,,,,,,,TRACE,,,,,1000.0,1000.0,BKN,1000.0,,,,,,
KRDR,07-12-2017,17:53,SPECI,Normal,20,10,,,9999.0,,17.0,17.0,29.93,1013.9,,,,,,,,,,,,,,,,900.0,1000.0,BKN,1000.0,,,,,,
KRDR,07-12-2017,17:52,SPECI,Normal,20,10,,,9999.0,Light Drizzle,17.0,17.0,29.93,1013.9,51,,,,,,,,,,,,,,,900.0,1000.0,BKN,1000.0,,,,,,
KRDR,07-12-2017,17:12,SPECI,Normal,10,10,,,9999.0,Light Rain,18.0,17.0,29.91,1013.2,61,,,,,,,,,,,,,,,700.0,900.0,BKN,900.0,BKN,1300.0,OVC,2200.0,,
KRDR,07-12-2017,16:56,METAR,Normal,10,9,15.0,,9999.0,,17.2,17.2,29.91,1013.3,,,,,,,,,,,TRACE,,,,,800.0,900.0,BKN,900.0,OVC,2200.0,,,,
KRDR,07-12-2017,16:51,SPECI,Normal,10,10,15.0,,9999.0,,17.0,17.0,29.91,1013.3,,,,,,,,,,,,,,,,800.0,900.0,BKN,900.0,OVC,2200.0,,,,
KRDR,07-12-2017,16:39,SPECI,Normal,10,11,,,9999.0,Light Drizzle,17.0,17.0,29.91,1013.3,51,,,,,,,,,,,,,,,800.0,900.0,BKN,900.0,OVC,2800.0,,,,
KRDR,07-12-2017,16:35,SPECI,Normal,20,10,,,9999.0,,17.0,17.0,29.90,1012.9,,,,,,,,,,,,,,,,800.0,900.0,BKN,900.0,OVC,2800.0,,,,
KRDR,07-12-2017,16:30,SPECI,Normal,10,10,,,9999.0,,17.0,17.0,29.90,1012.9,,,,,,,,,,,,,,,,800.0,800.0,SCT,800.0,BKN,1500.0,OVC,2700.0,,
KRDR,07-12-2017,16:25,SPECI,Normal,10,10,,,9999.0,,17.0,17.0,29.90,1012.9,,,,,,,,,,,,,,,,800.0,800.0,SCT,800.0,BKN,1300.0,OVC,2700.0,,
KRDR,07-12-2017,16:20,SPECI,Normal,10,9,,,9999.0,,17.0,17.0,29.90,1012.9,,,,,,,,,,,,,,,,600.0,800.0,SCT,800.0,OVC,2600.0,,,,
KRDR,07-12-2017,16:10,SPECI,Normal,360,10,,,9999.0,,17.0,17.0,29.89,1012.5,,,,,,,,,,,,,,,,600.0,600.0,BKN,600.0,OVC,2600.0,,,,
KRDR,07-12-2017,16:05,SPECI,Normal,10,10,,,9999.0,,17.0,17.0,29.89,1012.5,,,,,,,,,,,,,,,,500.0,500.0,SCT,500.0,BKN,1000.0,OVC,2500.0,,
KRDR,07-12-2017,16:00,SPECI,Normal,360,10,,,9999.0,,17.0,17.0,29.89,1012.5,,,,,,,,,,,,,,,,500.0,500.0,SCT,500.0,OVC,2500.0,,,,
KRDR,07-12-2017,15:56,METAR,Normal,10,10,,,9999.0,Light Rain,16.3,16.3,29.89,1012.6,61,,,,,,,,,,TRACE,,,,,500.0,500.0,BKN,500.0,OVC,2500.0,,,,
KRDR,07-12-2017,15:04,SPECI,Normal,360,9,,,9999.0,Light Rain/Mist,16.0,16.0,29.87,1011.9,61,10,,,,,,,,,,,,,,500.0,500.0,OVC,500.0,,,,,,
KRDR,07-12-2017,14:57,SPECI,Normal,360,10,,,9999.0,,16.0,16.0,29.87,1011.9,,,,,,,,,,,,,,,,500.0,500.0,OVC,500.0,,,,,,
KRDR,07-12-2017,14:56,METAR,Normal,360,10,,,9999.0,Light Rain,16.2,16.2,29.87,1011.9,61,,,,,,,,,,,,,,,500.0,500.0,OVC,500.0,,,,,,
KRDR,07-12-2017,14:33,SPECI,Normal,340,10,,,9999.0,Light Drizzle,16.0,16.0,29.86,1011.5,51,,,,,,,,,,,,,,,400.0,400.0,OVC,400.0,,,,,,
KRDR,07-12-2017,14:29,SPECI,Normal,340,11,,,9999.0,Light Drizzle,16.0,16.0,29.86,1011.5,51,,,,,,,,,,,,,,,600.0,600.0,OVC,600.0,,,,,,
KRDR,07-12-2017,14:14,SPECI,Normal,330,11,,,9999.0,Mist,16.0,16.0,29.85,1011.1,10,,,,,,,,,,,,,,,600.0,600.0,OVC,600.0,,,,,,
KRDR,07-12-2017,13:56,METAR,Normal,330,13,,,9999.0,,15.8,15.6,29.85,1011.1,,,,,,,,,,,,,,,,600.0,600.0,OVC,600.0,,,,,,
KRDR,07-12-2017,13:31,SPECI,Normal,320,12,,,9999.0,,16.0,15.0,29.84,1010.8,,,,,,,,,,,,,,,,600.0,600.0,OVC,600.0,,,,,,
KRDR,07-12-2017,13:11,SPECI,Normal,310,12,,,9999.0,,16.0,15.0,29.83,1010.4,,,,,,,,,,,,,,,,700.0,700.0,OVC,700.0,,,,,,
KRDR,07-12-2017,12:56,METAR,Normal,320,11,,,9999.0,,16.1,14.8,29.82,1010.0,,,,,,,,,,,,,,,,900.0,900.0,OVC,900.0,,,,,,
KRDR,07-12-2017,12:36,SPECI,Normal,320,10,,,9999.0,,16.0,15.0,29.81,1009.7,,,,,,,,,,,,,,,,900.0,900.0,OVC,900.0,,,,,,
KRDR,07-12-2017,11:56,METAR,Normal,320,12,,,9999.0,,16.1,14.6,29.80,1009.5,,,,,,,,,,,,,.01 IN,.17 IN,,1000.0,1000.0,OVC,1000.0,,,,,,
KRDR,07-12-2017,11:06,SPECI,Normal,320,12,,,9999.0,,16.0,15.0,29.79,1009.0,,,,,,,,,,,,,,,,1000.0,1000.0,OVC,1000.0,,,,,,
KRDR,07-12-2017,10:56,METAR,Normal,320,12,,,9999.0,,16.3,15.2,29.78,1008.6,,,,,,,,,,,,,,,,900.0,900.0,OVC,900.0,,,,,,
KRDR,07-12-2017,09:56,METAR,Normal,320,13,19.0,,9999.0,,16.8,15.8,29.76,1007.8,,,,,,,,,,,,,,,,900.0,900.0,OVC,900.0,,,,,,
KRDR,07-12-2017,09:16,SPECI,Normal,320,14,,,9999.0,,17.0,16.0,29.74,1007.1,,,,,,,,,,,,,,,,900.0,900.0,OVC,900.0,,,,,,
KRDR,07-12-2017,08:56,METAR,Normal,310,12,,,9999.0,,17.4,16.9,29.74,1007.2,,,,,,,,,,,,.01 IN,,,,1000.0,1000.0,OVC,1000.0,,,,,,
KRDR,07-12-2017,08:51,SPECI,Normal,320,11,,,9999.0,,17.0,17.0,29.74,1007.2,,,,,,,,,,,,,,,,1000.0,1000.0,OVC,1000.0,,,,,,
KRDR,07-12-2017,07:56,METAR,Normal,320,10,,,9999.0,,17.9,17.9,29.73,1006.8,,,,,,,,,,,.01 IN,,,,,700.0,800.0,OVC,800.0,,,,,,
KRDR,07-12-2017,07:49,SPECI,Normal,310,10,,,9999.0,,18.0,18.0,29.73,1006.8,,,,,,,,,,,,,,,,600.0,800.0,BKN,800.0,OVC,1800.0,,,,
KRDR,07-12-2017,07:44,SPECI,Normal,320,10,18.0,,9999.0,,18.0,18.0,29.73,1006.9,,,,,,,,,,,,,,,,500.0,700.0,OVC,700.0,,,,,,
KRDR,07-12-2017,07:34,SPECI,Normal,330,10,,,9999.0,,18.0,18.0,29.72,1006.6,,,,,,,,,,,,,,,,500.0,600.0,OVC,600.0,,,,,,
KRDR,07-12-2017,07:19,SPECI,Normal,340,13,,,9999.0,,19.0,19.0,29.72,1006.6,,,,,,,,,,,,,,,,500.0,500.0,OVC,500.0,,,,,,
KRDR,07-12-2017,07:09,SPECI,Normal,330,9,,,9999.0,,19.0,19.0,29.72,1006.5,,,,,,,,,,,,,,,,600.0,600.0,OVC,600.0,,,,,,
KRDR,07-12-2017,06:57,SPECI,Normal,330,13,,,9999.0,Light Drizzle,20.0,20.0,29.72,1006.5,51,,,,,,,,,,,,,,,600.0,600.0,OVC,600.0,,,,,,
KRDR,07-12-2017,06:56,METAR,Normal,330,13,,,9999.0,,19.5,19.5,29.72,1006.5,,,,,,,,,,,,,,,,600.0,600.0,OVC,600.0,,,,,,
KRDR,07-12-2017,06:33,SPECI,Normal,330,8,,,9999.0,,19.0,19.0,29.72,1006.5,,,,,,,,,,,,,,,,600.0,600.0,OVC,600.0,,,,,,
KRDR,07-12-2017,06:23,SPECI,Normal,330,11,,,9999.0,,19.0,19.0,29.72,1006.5,,,,,,,,,,,,,,,,500.0,500.0,BKN,500.0,OVC,900.0,,,,
KRDR,07-12-2017,06:18,SPECI,Normal,330,10,,,9999.0,,19.0,19.0,29.71,1006.2,,,,,,,,,,,,,,,,700.0,700.0,BKN,700.0,,,,,,
KRDR,07-12-2017,06:13,SPECI,Normal,320,13,,,9999.0,,19.0,19.0,29.71,1006.2,,,,,,,,,,,,,,,,900.0,900.0,BKN,900.0,,,,,,
KRDR,07-12-2017,06:08,SPECI,Normal,340,7,,,9999.0,,19.0,19.0,29.71,1006.2,,,,,,,,,,,,,,,,900.0,1000.0,SCT,1000.0,BKN,1900.0,,,,
KRDR,07-12-2017,05:58,SPECI,Normal,320,8,,,9999.0,,19.0,19.0,29.70,1005.8,,,,,,,,,,,,,,,4/8 Partly Cloudy,72000.0,1100.0,FEW,1100.0,SCT,1800.0,,,,
KRDR,07-12-2017,05:56,METAR,Normal,320,6,,,9999.0,,18.9,18.9,29.70,1005.8,,,,,,,,,,,,,,,4/8 Partly Cloudy,72000.0,1800.0,SCT,1800.0,,,,,,
KRDR,07-12-2017,05:51,SPECI,Normal,320,5,,,9999.0,,19.0,19.0,29.70,1005.8,,,,,,,,,,,,,,,4/8 Partly Cloudy,72000.0,1800.0,SCT,1800.0,,,,,,
KRDR,07-12-2017,05:36,SPECI,Normal,320,6,,,9999.0,,19.0,19.0,29.69,1005.5,,,,,,,,,,,,,,,,1900.0,1900.0,BKN,1900.0,,,,,,
KRDR,07-12-2017,04:56,METAR,Normal,320,7,,,9999.0,,18.8,18.8,29.67,1004.9,,,,,,,,,,,,,,,Clear,72000.0,,,,,,,,,
KRDR,07-12-2017,03:56,METAR,Normal,320,9,,,9999.0,,20.4,20.4,29.65,1004.2,,,,,,,,,,,,,,,Clear,72000.0,,,,,,,,,
KRDR,07-12-2017,02:56,METAR,Normal,260,4,,,9999.0,,20.9,20.9,29.66,1004.6,,,,,,,,,,,,,,,Clear,72000.0,,,,,,,,,
KRDR,07-12-2017,01:56,METAR,Normal,140,4,,,9999.0,,23.9,21.6,29.63,1003.5,,,,,,,,,,,,,,,Clear,72000.0,,,,,,,,,
KRDR,07-12-2017,00:56,METAR,Normal,70,7,,,9999.0,,25.2,20.2,29.62,1003.2,,,,,,,,,,,,,,,Clear,72000.0,,,,,,,,,
KRDR,07-11-2017,23:56,METAR,Normal,180,19,22.0,210/26KTS,9999.0,Distant Lightning,22.1,20.2,29.62,1003.3,12,,,,,,,,,,.14 IN,,.14 IN,,,12000.0,4100.0,SCT,4100.0,SCT,7000.0,SCT,9600.0,BKN,12000.0
KRDR,07-11-2017,23:55,SPECI,Normal,180,19,24.0,,9999.0,Distant Lightning,22.0,20.0,29.62,1003.3,12,,,,,,,,,,,,,,,9500.0,4100.0,SCT,4100.0,SCT,7000.0,BKN,9600.0,BKN,12000.0
KRDR,07-11-2017,23:53,SPECI,Normal,170,15,24.0,,9999.0,Dry Thunderstorm,22.0,20.0,29.63,1003.6,91,,,,,,,,,,,,,,,9500.0,4100.0,SCT,4100.0,SCT,7000.0,BKN,9600.0,BKN,12000.0
KRDR,07-11-2017,23:39,SPECI,Normal,210,21,26.0,,6400.0,Heavy Thunderstorm and Rain or Snow Showers,24.0,21.0,29.67,1004.9,95,,,,,,,,,,,,,,,5000.0,4200.0,FEW,4200.0,BKN,5000.0,OVC,7000.0,,
KRDR,07-11-2017,23:34,SPECI,Normal,190,17,25.0,,4000.0,Heavy Thunderstorm and Rain or Snow Showers/Mist,25.0,23.0,29.65,1004.2,95,10,,,,,,,,,,,,,,5500.0,4200.0,FEW,4200.0,OVC,5500.0,,,,
KRDR,07-11-2017,23:09,SPECI,Normal,150,8,,,9999.0,Thunderstorm and Rain or Snow Showers,28.0,21.0,29.59,1002.1,92,,,,,,,,,,,,,,4/8 Partly Cloudy,72000.0,5000.0,FEW,5000.0,SCT,6500.0,SCT,19000.0,,
KRDR,07-11-2017,22:59,SPECI,Normal,170,12,,,9999.0,Dry Thunderstorm,28.0,21.0,29.57,1001.4,91,,,,,,,,,,,,,,2/8 Mostly Clear,72000.0,19000.0,FEW,19000.0,,,,,,
KRDR,07-11-2017,22:56,METAR,Normal,150,12,,,9999.0,,27.9,20.4,29.57,1001.4,,,,,,,,,,,,,,,2/8 Mostly Clear,72000.0,18000.0,FEW,18000.0,,,,,,
KRDR,07-11-2017,21:56,METAR,Normal,170,14,,,9999.0,,30.2,21.0,29.63,1003.4,,,,,,,,,,,,,,,4/8 Partly Cloudy,72000.0,21000.0,SCT,21000.0,,,,,,
KRDR,07-11-2017,20:56,METAR,Normal,180,13,,,9999.0,,29.7,21.3,29.64,1003.7,,,,,,,,,,,,,,,2/8 Mostly Clear,72000.0,14000.0,FEW,14000.0,FEW,19000.0,,,,
KRDR,07-11-2017,19:56,METAR,Normal,180,12,,,9999.0,,27.4,21.4,29.65,1004.1,,,,,,,,,,,,,,,,17000.0,12000.0,SCT,12000.0,BKN,17000.0,BKN,19000.0,,
KRDR,07-11-2017,18:56,METAR,Normal,200,15,,,9999.0,,26.3,20.8,29.66,1004.5,,,,,,,,,,,,,,,,15000.0,13000.0,SCT,13000.0,BKN,15000.0,BKN,17000.0,,
KRDR,07-11-2017,17:56,METAR,Normal,190,14,19.0,,9999.0,,26.1,20.2,29.66,1004.5,,,,,,,,,,,,,.02 IN,,,19000.0,10000.0,FEW,10000.0,SCT,13000.0,SCT,16000.0,BKN,19000.0
KRDR,07-11-2017,16:56,METAR,Normal,180,12,,,9999.0,,23.2,19.3,29.67,1004.9,,,,,,,,,,,,,,,,15000.0,10000.0,FEW,10000.0,BKN,15000.0,BKN,17000.0,BKN,19000.0
KRDR,07-11-2017,15:56,METAR,Normal,170,11,,,9999.0,,21.1,18.3,29.69,1005.6,,,,,,,,,,,TRACE,,,,4/8 Partly Cloudy,72000.0,15000.0,SCT,15000.0,SCT,18000.0,,,,
KRDR,07-11-2017,15:23,SPECI,Normal,160,10,,,9999.0,,20.0,18.0,29.69,1005.6,,,,,,,,,,,,,,,,10000.0,6000.0,SCT,6000.0,BKN,10000.0,BKN,16000.0,,
KRDR,07-11-2017,15:09,SPECI,Normal,170,11,,,9999.0,Light Rain,20.0,17.0,29.70,1005.9,61,,,,,,,,,,,,,,,10000.0,10000.0,OVC,10000.0,,,,,,
KRDR,07-11-2017,14:56,METAR,Normal,160,9,,,9999.0,,19.4,17.3,29.70,1006.0,,,,,,,,,,,,.02 IN,,,,10000.0,10000.0,OVC,10000.0,,,,,,
KRDR,07-11-2017,13:56,METAR,Normal,150,11,,,9999.0,,19.1,16.9,29.71,1006.2,,,,,,,,,,,,,,,,12000.0,12000.0,BKN,12000.0,BKN,14000.0,,,,
KRDR,07-11-2017,12:56,METAR,Normal,160,12,,,9999.0,,18.0,16.7,29.72,1006.6,,,,,,,,,,,.02 IN,,,,4/8 Partly Cloudy,72000.0,14000.0,SCT,14000.0,,,,,,
KRDR,07-11-2017,12:36,SPECI,Normal,160,15,22.0,,9999.0,,18.0,16.0,29.73,1006.9,,,,,,,,,,,,,,,,14000.0,6000.0,SCT,6000.0,BKN,14000.0,,,,
KRDR,07-11-2017,11:56,METAR,Normal,160,13,,,9999.0,Light Rain,18.3,15.9,29.76,1007.9,61,,,,,,,,,,.01 IN,,.01 IN,.01 IN,,8000.0,8000.0,BKN,8000.0,OVC,10000.0,,,,
KRDR,07-11-2017,11:45,SPECI,Normal,160,13,,,9999.0,Light Rain,19.0,15.0,29.76,1007.9,61,,,,,,,,,,,,,,,10000.0,10000.0,OVC,10000.0,,,,,,
KRDR,07-11-2017,11:21,SPECI,Normal,160,9,,,9999.0,,19.0,16.0,29.77,1008.2,,,,,,,,,,,,,,,,10000.0,10000.0,OVC,10000.0,,,,,,
KRDR,07-11-2017,11:12,SPECI,Normal,180,8,,,9999.0,Light Rain,19.0,15.0,29.77,1008.2,61,,,,,,,,,,,,,,4/8 Partly Cloudy,72000.0,11000.0,SCT,11000.0,,,,,,
KRDR,07-11-2017,10:56,METAR,Normal,160,8,,,9999.0,,18.3,15.2,29.76,1007.9,,,,,,,,,,,,,,,4/8 Partly Cloudy,72000.0,11000.0,SCT,11000.0,,,,,,
KRDR,07-11-2017,09:56,METAR,Normal,110,5,,,9999.0,,18.6,15.3,29.77,1008.2,,,,,,,,,,,,,,,Clear,72000.0,,,,,,,,,
KRDR,07-11-2017,08:56,METAR,Normal,150,6,,,9999.0,,20.0,15.0,29.78,1008.5,,,,,,,,,,,,,,,,13000.0,13000.0,BKN,13000.0,,,,,,
KRDR,07-11-2017,07:56,METAR,Normal,170,9,,,9999.0,,20.7,14.6,29.77,1008.2,,,,,,,,,,,,,,,,13000.0,13000.0,BKN,13000.0,BKN,15000.0,,,,
KRDR,07-11-2017,06:56,METAR,Normal,180,9,,,9999.0,,20.4,14.7,29.77,1008.2,,,,,,,,,,,,,,,Clear,72000.0,,,,,,,,,
KRDR,07-11-2017,05:56,METAR,Normal,190,8,,,9999.0,,19.7,14.7,29.82,1009.9,,,,,,,,,,,,,,,Clear,72000.0,,,,,,,,,
KRDR,07-11-2017,04:56,METAR,Normal,160,6,,,9999.0,,19.9,15.1,29.81,1009.6,,,,,,,,,,,,,,,Clear,72000.0,,,,,,,,,
KRDR,07-11-2017,03:56,METAR,Normal,170,6,,,9999.0,,20.6,15.4,29.83,1010.3,,,,,,,,,,,,,,,Clear,72000.0,,,,,,,,,
KRDR,07-11-2017,02:56,METAR,Normal,170,7,,,9999.0,,21.8,15.6,29.83,1010.3,,,,,,,,,,,,,,,Clear,72000.0,,,,,,,,,
KRDR,07-11-2017,01:56,METAR,Normal,170,6,,,9999.0,,24.2,16.7,29.83,1010.3,,,,,,,,,,,,,,,Clear,72000.0,,,,,,,,,
KRDR,07-11-2017,00:56,METAR,Normal,180,6,,,9999.0,,26.5,16.1,29.84,1010.6,,,,,,,,,,,,,,,Clear,72000.0,,,,,,,,,
KRDR,07-10-2017,23:56,METAR,Normal,190,8,,,9999.0,,27.5,15.5,29.85,1011.0,,,,,,,,,,,,,,,Clear,72000.0,,,,,,,,,
KRDR,07-10-2017,22:56,METAR,Normal,220,6,,,9999.0,,28.2,15.1,29.86,1011.4,,,,,,,,,,,,,,,Clear,72000.0,,,,,,,,,
KRDR,07-10-2017,21:56,METAR,Normal,190,5,,,9999.0,,28.1,14.3,29.87,1011.7,,,,,,,,,,,,,,,Clear,72000.0,,,,,,,,,
KRDR,07-10-2017,20:56,METAR,Normal,210,5,,,9999.0,,27.5,14.1,29.88,1012.1,,,,,,,,,,,,,,,Clear,72000.0,,,,,,,,,
KRDR,07-10-2017,19:56,METAR,Normal,170,4,,,9999.0,,27.2,13.9,29.89,1012.4,,,,,,,,,,,,,,,Clear,72000.0,,,,,,,,,
KRDR,07-10-2017,18:56,METAR,Normal,240,5,,,9999.0,,27.1,13.1,29.90,1012.7,,,,,,,,,,,,,,,Clear,72000.0,,,,,,,,,
KRDR,07-10-2017,17:56,METAR,Normal,160,4,,,9999.0,,26.8,12.8,29.90,1012.7,,,,,,,,,,,,,,,Clear,72000.0,,,,,,,,,
KRDR,07-10-2017,16:56,METAR,Normal,240,3,,,9999.0,,25.9,14.0,29.92,1013.4,,,,,,,,,,,,,,,Clear,72000.0,,,,,,,,,
KRDR,07-10-2017,15:56,METAR,Calm,,0,,,9999.0,,24.4,13.3,29.93,1013.8,,,,,,,,,,,,,,,Clear,72000.0,,,,,,,,,
KRDR,07-10-2017,14:56,METAR,Calm,,0,,,9999.0,,23.4,12.7,29.92,1013.4,,,,,,,,,,,,,,,Clear,72000.0,,,,,,,,,
KRDR,07-10-2017,13:56,METAR,Calm,,0,,,9999.0,,20.8,14.0,29.92,1013.4,,,,,,,,,,,,,,,Clear,72000.0,,,,,,,,,
KRDR,07-10-2017,12:56,METAR,Calm,,0,,,9999.0,,18.4,15.8,29.91,1013.0,,,,,,,,,,,,,,,Clear,72000.0,,,,,,,,,
KRDR,07-10-2017,11:56,METAR,Normal,270,3,,,9999.0,,13.8,13.8,29.91,1013.1,,,,,,,,,,,,,,,Clear,72000.0,,,,,,,,,
KRDR,07-10-2017,10:56,METAR,Normal,350,3,,,9999.0,,12.9,12.9,29.89,1012.5,,,,,,,,,,,,,,,Clear,72000.0,,,,,,,,,
KRDR,07-10-2017,09:56,METAR,Normal,340,3,,,9999.0,,13.7,13.5,29.88,1012.1,,,,,,,,,,,,,,,Clear,72000.0,,,,,,,,,
KRDR,07-10-2017,08:56,METAR,Normal,310,4,,,9999.0,,13.4,13.2,29.88,1012.1,,,,,,,,,,,,,,,Clear,72000.0,,,,,,,,,
KRDR,07-10-2017,07:56,METAR,Calm,,0,,,9999.0,,14.3,13.8,29.87,1011.7,,,,,,,,,,,,,,,Clear,72000.0,,,,,,,,,
KRDR,07-10-2017,06:56,METAR,Normal,350,4,,,9999.0,,15.3,14.8,29.87,1011.7,,,,,,,,,,,,,,,Clear,72000.0,,,,,,,,,
KRDR,07-10-2017,05:56,METAR,Normal,340,5,,,9999.0,,15.7,14.9,29.87,1011.7,,,,,,,,,,,,,,,Clear,72000.0,,,,,,,,,
KRDR,07-10-2017,04:56,METAR,Normal,20,5,,,9999.0,,16.8,15.3,29.86,1011.3,,,,,,,,,,,,,,,Clear,72000.0,,,,,,,,,
KRDR,07-10-2017,03:56,METAR,Normal,10,6,,,9999.0,,17.2,15.5,29.86,1011.4,,,,,,,,,,,,,,,Clear,72000.0,,,,,,,,,
KRDR,07-10-2017,02:56,METAR,Normal,20,4,,,9999.0,,20.1,16.7,29.85,1011.0,,,,,,,,,,,,,,,Clear,72000.0,,,,,,,,,
KRDR,07-10-2017,01:56,METAR,Normal,20,5,,,9999.0,,23.2,17.6,29.84,1010.7,,,,,,,,,,,,,,,Clear,72000.0,,,,,,,,,
KRDR,07-10-2017,00:56,METAR,Normal,10,6,,,9999.0,,25.9,17.2,29.83,1010.3,,,,,,,,,,,,,,,Clear,72000.0,,,,,,,,,
KRDR,07-09-2017,23:56,METAR,Normal,10,7,,,9999.0,,26.4,17.7,29.83,1010.3,,,,,,,,,,,,,TRACE,,Clear,72000.0,,,,,,,,,
KRDR,07-09-2017,22:56,METAR,Normal,40,6,,,9999.0,,27.1,18.1,29.83,1010.3,,,,,,,,,,,,,,,Clear,72000.0,,,,,,,,,
KRDR,07-09-2017,21:56,METAR,Normal,50,6,,,9999.0,,27.2,17.9,29.84,1010.6,,,,,,,,,,,,,,,Clear,72000.0,,,,,,,,,
KRDR,07-09-2017,20:56,METAR,Normal,80,9,,,9999.0,,28.0,18.4,29.84,1010.5,,,,,,,,,,,TRACE,TRACE,,,2/8 Mostly Clear,72000.0,4100.0,FEW,4100.0,,,,,,
KRDR,07-09-2017,20:17,SPECI,Normal,100,10,,,9999.0,,27.0,18.0,29.83,1010.2,,,,,,,,,,,,,,,2/8 Mostly Clear,72000.0,3700.0,FEW,3700.0,,,,,,
KRDR,07-09-2017,20:12,SPECI,Normal,90,8,,,9999.0,Light Drizzle,27.0,19.0,29.84,1010.5,51,,,,,,,,,,,,,,2/8 Mostly Clear,72000.0,3700.0,FEW,3700.0,,,,,,
KRDR,07-09-2017,19:56,METAR,Normal,80,9,,,9999.0,,27.2,18.7,29.83,1010.3,,,,,,,,,,,,,,,4/8 Partly Cloudy,72000.0,3800.0,SCT,3800.0,SCT,5000.0,,,,
KRDR,07-09-2017,18:56,METAR,Normal,130,7,,,9999.0,,27.9,17.4,29.83,1010.2,,,,,,,,,,,,,,,Clear,72000.0,,,,,,,,,
KRDR,07-09-2017,17:56,METAR,Normal,160,9,,,9999.0,,27.5,16.7,29.83,1010.3,,,,,,,,,,,,,,,Clear,72000.0,,,,,,,,,
KRDR,07-09-2017,16:56,METAR,Normal,160,8,,,9999.0,,26.3,17.1,29.84,1010.7,,,,,,,,,,,,,,,Clear,72000.0,,,,,,,,,
KRDR,07-09-2017,15:56,METAR,Normal,190,7,,,9999.0,,23.8,18.0,29.83,1010.4,,,,,,,,,,,,,,,2/8 Mostly Clear,72000.0,17000.0,FEW,17000.0,,,,,,
KRDR,07-09-2017,14:56,METAR,Normal,180,12,,,9999.0,,22.8,18.5,29.81,1009.7,,,,,,,,,,,,,,,Clear,72000.0,,,,,,,,,
KRDR,07-09-2017,13:56,METAR,Normal,160,6,,,9999.0,,20.1,18.2,29.87,1011.7,,,,,,,,,,,,,,,4/8 Partly Cloudy,72000.0,9000.0,SCT,9100.0,,,,,,
KRDR,07-09-2017,12:56,METAR,Normal,70,5,,,9999.0,,19.2,17.7,29.88,1012.0,,,,,,,,,,,,,,,2/8 Mostly Clear,72000.0,10000.0,FEW,10000.0,,,,,,
KRDR,07-09-2017,11:56,METAR,Normal,170,3,,,9999.0,,18.7,18.2,29.88,1012.0,,,,,,,,,,,TRACE,,.03 IN,.03 IN,4/8 Partly Cloudy,72000.0,12000.0,SCT,12000.0,,,,,,
KRDR,07-09-2017,11:01,SPECI,Normal,130,4,,,9999.0,,19.0,19.0,29.89,1012.2,,,,,,,,,,,,,,,,12000.0,8500.0,SCT,8600.0,BKN,12000.0,,,,
KRDR,07-09-2017,10:56,METAR,Normal,130,5,,,9999.0,Light Rain,18.5,18.5,29.89,1012.3,61,,,,,,,,,,.01 IN,,,,,12000.0,8500.0,SCT,8600.0,BKN,12000.0,,,,
KRDR,07-09-2017,10:49,SPECI,Normal,70,4,,,9999.0,Light Rain,18.0,18.0,29.90,1012.6,61,,,,,,,,,,,,,,,8500.0,8500.0,BKN,8600.0,,,,,,
KRDR,07-09-2017,10:43,SPECI,Normal,30,6,,,9999.0,,18.0,18.0,29.91,1013.0,,,,,,,,,,,,,,,,8500.0,8500.0,BKN,8600.0,,,,,,
KRDR,07-09-2017,10:30,SPECI,Calm,,0,,,9999.0,Light Rain,19.0,18.0,29.91,1012.9,61,,,,,,,,,,,,,,,9500.0,5500.0,FEW,5500.0,BKN,9600.0,,,,
KRDR,07-09-2017,10:02,SPECI,Normal,200,5,,,9999.0,,19.0,18.0,29.91,1012.9,,,,,,,,,,,,,,,,10000.0,6000.0,SCT,6000.0,SCT,8000.0,BKN,10000.0,,
KRDR,07-09-2017,09:56,METAR,Normal,200,4,,,9999.0,Light Rain,18.7,17.5,29.91,1012.9,61,,,,,,,,,,.02 IN,,,,,6000.0,6000.0,BKN,6000.0,BKN,8000.0,BKN,10000.0,,
KRDR,07-09-2017,09:36,SPECI,Normal,280,6,,,9999.0,Light Drizzle,19.0,17.0,29.95,1014.3,51,,,,,,,,,,,,,,,11000.0,7000.0,FEW,7000.0,SCT,8600.0,OVC,11000.0,,
KRDR,07-09-2017,09:04,SPECI,Normal,270,3,,,9999.0,,19.0,17.0,29.93,1013.6,,,,,,,,,,,,,,,,11000.0,5000.0,SCT,5000.0,BKN,11000.0,,,,
KRDR,07-09-2017,08:56,METAR,Normal,230,3,,,9999.0,Light Rain,19.2,17.0,29.92,1013.3,61,,,,,,,,,,TRACE,TRACE,,,,5000.0,5000.0,BKN,5000.0,BKN,11000.0,,,,
KRDR,07-09-2017,08:39,SPECI,Normal,290,8,,,9999.0,Light Rain,19.0,16.0,29.96,1014.6,61,,,,,,,,,,,,,,,11000.0,5500.0,FEW,5500.0,FEW,7000.0,BKN,11000.0,BKN,13000.0
KRDR,07-09-2017,07:56,METAR,Normal,190,6,,,9999.0,,19.4,15.2,29.91,1012.9,,,,,,,,,,,TRACE,,,,2/8 Mostly Clear,72000.0,12000.0,FEW,12000.0,,,,,,
KRDR,07-09-2017,07:04,SPECI,Normal,200,3,,,9999.0,,20.0,17.0,29.93,1013.6,,,,,,,,,,,,,,,2/8 Mostly Clear,72000.0,14000.0,FEW,14000.0,,,,,,
KRDR,07-09-2017,07:03,SPECI,Normal,210,4,,,9999.0,Light Rain,20.0,17.0,29.93,1013.6,61,,,,,,,,,,,,,,2/8 Mostly Clear,72000.0,14000.0,FEW,14000.0,,,,,,
KRDR,07-09-2017,06:58,SPECI,Calm,,0,,,9999.0,,20.0,16.0,29.93,1013.6,,,,,,,,,,,,,,,Clear,72000.0,,,,,,,,,
KRDR,07-09-2017,06:56,METAR,Calm,,0,,,9999.0,Light Rain,19.5,15.5,29.93,1013.6,61,,,,,,,,,,TRACE,,,,2/8 Mostly Clear,72000.0,12000.0,FEW,12000.0,,,,,,
KRDR,07-09-2017,06:38,SPECI,Normal,260,4,,,9999.0,Light Rain,19.0,16.0,29.95,1014.3,61,,,,,,,,,,,,,,,12000.0,12000.0,BKN,12000.0,,,,,,
KRDR,07-09-2017,05:56,METAR,Calm,,0,,,9999.0,,17.9,15.9,29.93,1013.7,,,,,,,,,,,,,,,4/8 Partly Cloudy,72000.0,13000.0,FEW,13000.0,SCT,15000.0,,,,
KRDR,07-09-2017,04:56,METAR,Calm,,0,,,9999.0,,18.0,15.4,29.93,1013.7,,,,,,,,,,,,,,,2/8 Mostly Clear,72000.0,17000.0,FEW,17000.0,,,,,,
KRDR,07-09-2017,03:56,METAR,Calm,,0,,,9999.0,,18.3,14.6,29.94,1014.1,,,,,,,,,,,,,,,4/8 Partly Cloudy,72000.0,17000.0,FEW,17000.0,SCT,22000.0,,,,
KRDR,07-09-2017,02:56,METAR,Calm,,0,,,9999.0,,19.4,14.6,29.95,1014.4,,,,,,,,,,,,,,,Clear,72000.0,,,,,,,,,
KRDR,07-09-2017,01:56,METAR,Calm,,0,,,9999.0,,22.9,13.9,29.94,1014.0,,,,,,,,,,,,,,,4/8 Partly Cloudy,72000.0,18000.0,SCT,18000.0,,,,,,
KRDR,07-09-2017,00:56,METAR,Normal,10,5,,,9999.0,,26.3,15.9,29.95,1014.3,,,,,,,,,,,,,,,Clear,72000.0,,,,,,,,,
KRDR,07-08-2017,23:56,METAR,Normal,10,5,,,9999.0,,27.9,15.2,29.96,1014.7,,,,,,,,,,,,,,,2/8 Mostly Clear,72000.0,7000.0,FEW,7000.0,,,,,,
KRDR,07-08-2017,22:56,METAR,Normal,10,6,,,9999.0,,27.9,15.2,29.96,1014.9,,,,,,,,,,,,,,,Clear,72000.0,,,,,,,,,
KRDR,07-08-2017,21:56,METAR,Normal,340,7,,,9999.0,,28.8,13.4,29.97,1015.2,,,,,,,,,,,,,,,Clear,72000.0,,,,,,,,,
KRDR,07-08-2017,20:56,METAR,Normal,330,7,,,9999.0,,29.2,13.4,29.98,1015.5,,,,,,,,,,,,,,,Clear,72000.0,,,,,,,,,
KRDR,07-08-2017,19:56,METAR,Normal,340,8,,,9999.0,,28.1,14.3,30.00,1016.2,,,,,,,,,,,,,,,4/8 Partly Cloudy,72000.0,6500.0,FEW,6500.0,SCT,18000.0,,,,
KRDR,07-08-2017,18:56,METAR,Normal,320,9,,,9999.0,,28.9,14.7,30.01,1016.5,,,,,,,,,,,,,,,Clear,72000.0,,,,,,,,,
KRDR,07-08-2017,17:56,METAR,Normal,320,10,,,9999.0,,28.3,15.2,30.02,1016.8,,,,,,,,,,,,,,,Clear,72000.0,,,,,,,,,
KRDR,07-08-2017,16:56,METAR,Normal,280,8,,,9999.0,,27.4,14.0,30.04,1017.5,,,,,,,,,,,,,,,2/8 Mostly Clear,72000.0,5500.0,FEW,5500.0,,,,,,
KRDR,07-08-2017,15:56,METAR,Normal,300,8,,,9999.0,,26.5,15.2,30.04,1017.5,,,,,,,,,,,,,,,Clear,72000.0,,,,,,,,,
KRDR,07-08-2017,14:56,METAR,Normal,300,11,15.0,,9999.0,,24.6,15.5,30.05,1017.9,,,,,,,,,,,,,,,Clear,72000.0,,,,,,,,,
KRDR,07-08-2017,13:56,METAR,Normal,290,7,,,9999.0,,22.1,14.5,30.05,1017.8,,,,,,,,,,,,,,,2/8 Mostly Clear,72000.0,7000.0,FEW,7000.0,,,,,,
KRDR,07-08-2017,12:56,METAR,Normal,270,7,,,9999.0,,20.1,14.0,30.05,1017.9,,,,,,,,,,,,,,,2/8 Mostly Clear,72000.0,8000.0,FEW,8000.0,,,,,,
KRDR,07-08-2017,11:56,METAR,Normal,260,6,,,9999.0,,16.4,13.1,30.04,1017.6,,,,,,,,,,,,,,,Clear,72000.0,,,,,,,,,
KRDR,07-08-2017,10:56,METAR,Normal,260,4,,,9999.0,,11.8,11.3,30.03,1017.3,,,,,,,,,,,,,,,Clear,72000.0,,,,,,,,,
KRDR,07-08-2017,09:56,METAR,Normal,250,4,,,9999.0,,11.6,11.0,30.03,1017.4,,,,,,,,,,,,,,,Clear,72000.0,,,,,,,,,
KRDR,07-08-2017,08:56,METAR,Normal,260,5,,,9999.0,,12.7,11.4,30.04,1017.6,,,,,,,,,,,,,,,Clear,72000.0,,,,,,,,,
KRDR,07-08-2017,07:56,METAR,Normal,260,5,,,9999.0,,12.5,11.9,30.04,1017.6,,,,,,,,,,,,,,,Clear,72000.0,,,,,,,,,
KRDR,07-08-2017,06:56,METAR,Calm,,0,,,9999.0,,13.0,12.1,30.05,1018.0,,,,,,,,,,,,,,,Clear,72000.0,,,,,,,,,
KRDR,07-08-2017,05:56,METAR,Normal,260,4,,,9999.0,,13.3,12.3,30.05,1018.0,,,,,,,,,,,,,,,Clear,72000.0,,,,,,,,,
KRDR,07-08-2017,04:56,METAR,Calm,,0,,,9999.0,,15.0,12.1,30.06,1018.3,,,,,,,,,,,,,,,Clear,72000.0,,,,,,,,,
KRDR,07-08-2017,03:56,METAR,Normal,300,4,,,9999.0,,15.4,12.1,30.06,1018.4,,,,,,,,,,,,,,,Clear,72000.0,,,,,,,,,
KRDR,07-08-2017,02:56,METAR,Normal,320,4,,,9999.0,,17.2,12.9,30.06,1018.3,,,,,,,,,,,,,,,Clear,72000.0,,,,,,,,,
KRDR,07-08-2017,01:56,METAR,Normal,350,3,,,9999.0,,21.4,13.6,30.06,1018.2,,,,,,,,,,,,,,,,6500.0,6500.0,BKN,6500.0,,,,,,
KRDR,07-08-2017,00:56,METAR,Normal,360,5,,,9999.0,,21.9,13.0,30.07,1018.5,,,,,,,,,,,,,,,Clear,72000.0,,,,,,,,,
KRDR,07-07-2017,23:56,METAR,Normal,10,6,,,9999.0,,23.8,11.5,30.07,1018.6,,,,,,,,,,,,,,,Clear,72000.0,,,,,,,,,
KRDR,07-07-2017,22:56,METAR,Normal,340,7,,,9999.0,,25.2,12.4,30.08,1019.0,,,,,,,,,,,,,,,Clear,72000.0,,,,,,,,,
KRDR,07-07-2017,21:56,METAR,Normal,40,7,15.0,,9999.0,,24.4,12.7,30.09,1019.4,,,,,,,,,,,,,,,Clear,72000.0,,,,,,,,,
KRDR,07-07-2017,20:56,METAR,Normal,350,8,,,9999.0,,24.9,12.8,30.10,1019.7,,,,,,,,,,,,,,,Clear,72000.0,,,,,,,,,
KRDR,07-07-2017,19:56,METAR,Normal,10,11,,,9999.0,,24.8,13.3,30.11,1020.0,,,,,,,,,,,,,,,Clear,72000.0,,,,,,,,,
KRDR,07-07-2017,18:56,METAR,Normal,360,11,,,9999.0,,23.4,12.7,30.12,1020.3,,,,,,,,,,,,,,,2/8 Mostly Clear,72000.0,4600.0,FEW,4600.0,,,,,,
KRDR,07-07-2017,17:56,METAR,Normal,20,10,,,9999.0,,23.2,13.1,30.13,1020.7,,,,,,,,,,,,,,,Clear,72000.0,,,,,,,,,
KRDR,07-07-2017,16:56,METAR,Normal,20,12,,,9999.0,,22.3,14.7,30.14,1021.0,,,,,,,,,,,,,,,2/8 Mostly Clear,72000.0,3100.0,FEW,3100.0,,,,,,
KRDR,07-07-2017,15:56,METAR,Normal,10,13,,,9999.0,,21.4,14.5,30.13,1020.7,,,,,,,,,,,,,,,2/8 Mostly Clear,72000.0,2300.0,FEW,2300.0,,,,,,
KRDR,07-07-2017,14:56,METAR,Normal,10,11,18.0,,9999.0,,21.4,15.0,30.12,1020.3,,,,,,,,,,,,,,,Clear,72000.0,,,,,,,,,
KRDR,07-07-2017,13:56,METAR,Normal,350,14,19.0,,9999.0,,20.7,14.3,30.11,1019.9,,,,,,,,,,,,,,,Clear,72000.0,,,,,,,,,
KRDR,07-07-2017,12:56,METAR,Normal,320,8,,,9999.0,,20.0,15.4,30.09,1019.1,,,,,,,,,,,,,,,Clear,72000.0,,,,,,,,,
KRDR,07-07-2017,11:56,METAR,Normal,260,4,,,9999.0,,16.5,14.7,30.08,1018.9,,,,,,,,,,,,,,,Clear,72000.0,,,,,,,,,
KRDR,07-07-2017,10:56,METAR,Normal,280,4,,,9999.0,,12.9,12.4,30.09,1019.3,,,,,,,,,,,,,,,Clear,72000.0,,,,,,,,,
KRDR,07-07-2017,09:56,METAR,Normal,280,3,,,9999.0,,12.7,12.1,30.08,1018.9,,,,,,,,,,,,,,,Clear,72000.0,,,,,,,,,
KRDR,07-07-2017,08:56,METAR,Normal,280,4,,,9999.0,,13.4,12.6,30.08,1018.9,,,,,,,,,,,,,,,Clear,72000.0,,,,,,,,,
KRDR,07-07-2017,07:56,METAR,Normal,300,4,,,9999.0,,14.2,12.2,30.08,1018.9,,,,,,,,,,,,,,,Clear,72000.0,,,,,,,,,
KRDR,07-07-2017,06:56,METAR,Normal,320,6,,,9999.0,,16.1,12.8,30.08,1018.8,,,,,,,,,,,,,,,Clear,72000.0,,,,,,,,,
KRDR,07-07-2017,05:56,METAR,Normal,310,5,,,9999.0,,15.0,12.8,30.09,1019.2,,,,,,,,,,,,,,,2/8 Mostly Clear,72000.0,6500.0,FEW,6500.0,,,,,,
KRDR,07-07-2017,04:56,METAR,Normal,280,3,,,9999.0,,15.8,13.1,30.08,1018.9,,,,,,,,,,,,,,,Clear,72000.0,,,,,,,,,
KRDR,07-07-2017,03:56,METAR,Normal,10,6,,,9999.0,,16.9,13.4,30.07,1018.5,,,,,,,,,,,,,,,Clear,72000.0,,,,,,,,,
KRDR,07-07-2017,02:56,METAR,Normal,10,5,,,9999.0,,18.9,13.5,30.06,1018.2,,,,,,,,,,,,,,,Clear,72000.0,,,,,,,,,
KRDR,07-07-2017,01:56,METAR,Normal,10,7,,,9999.0,,22.9,12.8,30.05,1017.7,,,,,,,,,,,,,,,Clear,72000.0,,,,,,,,,
KRDR,07-07-2017,00:56,METAR,Normal,10,10,,,9999.0,,25.0,12.9,30.05,1017.7,,,,,,,,,,,,,,,Clear,72000.0,,,,,,,,,
KRDR,07-06-2017,23:56,METAR,Normal,10,8,,,9999.0,,24.5,13.4,30.04,1017.4,,,,,,,,,,,,,,,2/8 Mostly Clear,72000.0,7500.0,FEW,7500.0,,,,,,
KRDR,07-06-2017,22:56,METAR,Normal,10,11,,,9999.0,,26.9,12.9,30.04,1017.4,,,,,,,,,,,,,,,Clear,72000.0,,,,,,,,,
KRDR,07-06-2017,21:56,METAR,Normal,360,13,,,9999.0,,27.2,11.2,30.04,1017.4,,,,,,,,,,,,,,,Clear,72000.0,,,,,,,,,
KRDR,07-06-2017,20:56,METAR,Normal,360,14,20.0,,9999.0,,27.2,11.2,30.03,1017.0,,,,,,,,,,,,,,,Clear,72000.0,,,,,,,,,
KRDR,07-06-2017,19:56,METAR,Normal,10,11,18.0,,9999.0,,27.5,11.1,30.02,1016.6,,,,,,,,,,,,,,,Clear,72000.0,,,,,,,,,
KRDR,07-06-2017,18:56,METAR,Normal,10,12,20.0,,9999.0,,27.2,11.2,30.02,1016.6,,,,,,,,,,,,,,,Clear,72000.0,,,,,,,,,
KRDR,07-06-2017,17:56,METAR,Normal,10,12,23.0,,9999.0,,27.0,11.5,30.00,1015.9,,,,,,,,,,,,,,,Clear,72000.0,,,,,,,,,
KRDR,07-06-2017,16:56,METAR,Normal,10,16,21.0,010/26KTS,9999.0,,26.4,13.5,29.98,1015.3,,,,,,,,,,,,,,,Clear,72000.0,,,,,,,,,
KRDR,07-06-2017,15:56,METAR,Normal,360,17,21.0,,9999.0,,25.7,16.8,29.96,1014.6,,,,,,,,,,,,,,,Clear,72000.0,,,,,,,,,
KRDR,07-06-2017,14:56,METAR,Normal,350,11,,,9999.0,,25.5,17.4,29.95,1014.2,,,,,,,,,,,,,,,Clear,72000.0,,,,,,,,,
KRDR,07-06-2017,13:56,METAR,Normal,340,11,,,9999.0,,24.6,16.3,29.95,1014.2,,,,,,,,,,,,,,,Clear,72000.0,,,,,,,,,
KRDR,07-06-2017,12:56,METAR,Normal,330,6,,,9999.0,,23.8,18.9,29.92,1013.1,,,,,,,,,,,,,,,Clear,72000.0,,,,,,,,,
KRDR,07-06-2017,11:56,METAR,Normal,330,6,,,9999.0,,22.1,19.4,29.89,1012.1,,,,,,,,,,,,,,,Clear,72000.0,,,,,,,,,
KRDR,07-06-2017,10:56,METAR,Normal,360,6,,,9999.0,,20.5,17.3,29.86,1011.1,,,,,,,,,,,,,,,Clear,72000.0,,,,,,,,,
KRDR,07-06-2017,09:56,METAR,Normal,260,8,,,9999.0,,21.8,17.8,29.86,1011.1,,,,,,,,,,,,,,,Clear,72000.0,,,,,,,,,
KRDR,07-06-2017,08:56,METAR,Normal,240,9,,,9999.0,,21.3,18.8,29.88,1011.8,,,,,,,,,,,,,,,Clear,72000.0,,,,,,,,,
KRDR,07-06-2017,07:56,METAR,Normal,210,7,,,9999.0,,21.7,20.7,29.87,1011.5,,,,,,,,,,,,,,,Clear,72000.0,,,,,,,,,
KRDR,07-06-2017,06:56,METAR,Normal,240,7,,,9999.0,,23.2,21.4,29.91,1012.8,,,,,,,,,,,,,,,4/8 Partly Cloudy,72000.0,2200.0,FEW,2200.0,FEW,3800.0,SCT,6000.0,,
KRDR,07-06-2017,05:56,METAR,Calm,,0,,,9999.0,,22.2,22.2,29.85,1010.8,,,,,,,,,,,,,,,,13000.0,13000.0,BKN,13000.0,,,,,,
KRDR,07-06-2017,04:56,METAR,Normal,30,6,,,9999.0,,21.9,21.9,29.86,1011.2,,,,,,,,,,,,,,,Clear,72000.0,,,,,,,,,
KRDR,07-06-2017,03:56,METAR,Normal,70,3,,,9999.0,,24.3,21.8,29.87,1011.5,,,,,,,,,,,,,,,Clear,72000.0,,,,,,,,,
KRDR,07-06-2017,02:56,METAR,Normal,130,3,,,9999.0,,25.9,21.9,29.86,1011.1,,,,,,,,,,,,,,,Clear,72000.0,,,,,,,,,
KRDR,07-06-2017,01:56,METAR,Normal,140,6,,,9999.0,,27.8,21.6,29.87,1011.5,,,,,,,,,,,,,,,Clear,72000.0,,,,,,,,,
KRDR,07-06-2017,00:56,METAR,Normal,150,6,,,9999.0,,29.4,21.8,29.89,1012.2,,,,,,,,,,,,,,,Clear,72000.0,,,,,,,,,
KRDR,07-05-2017,23:56,METAR,Normal,150,8,,,9999.0,,29.7,21.6,29.90,1012.6,,,,,,,,,,,,,,,Clear,72000.0,,,,,,,,,
KRDR,07-05-2017,22:56,METAR,Normal,140,7,,,9999.0,,30.6,20.5,29.91,1013.0,,,,,,,,,,,,,,,Clear,72000.0,,,,,,,,,
KRDR,07-05-2017,21:56,METAR,Normal,140,6,,,9999.0,,30.6,19.0,29.93,1013.7,,,,,,,,,,,,,,,Clear,72000.0,,,,,,,,,
KRDR,07-05-2017,20:56,METAR,Normal,120,8,,,9999.0,,30.3,20.2,29.95,1014.3,,,,,,,,,,,,,,,Clear,72000.0,,,,,,,,,
KRDR,07-05-2017,19:56,METAR,Normal,50,3,,,9999.0,,29.7,20.5,29.96,1014.6,,,,,,,,,,,,,,,Clear,72000.0,,,,,,,,,
KRDR,07-05-2017,18:56,METAR,Normal,60,5,,,9999.0,,29.4,20.8,29.96,1014.6,,,,,,,,,,,,,,,Clear,72000.0,,,,,,,,,
KRDR,07-05-2017,17:56,METAR,Normal,150,4,,,9999.0,,28.4,20.1,29.98,1015.3,,,,,,,,,,,,,,,Clear,72000.0,,,,,,,,,
KRDR,07-05-2017,16:56,METAR,Normal,60,6,,,9999.0,,27.7,20.7,29.99,1015.5,,,,,,,,,,,,,,,Clear,72000.0,,,,,,,,,
KRDR,07-05-2017,15:56,METAR,Normal,40,5,,,9999.0,,26.7,20.0,29.99,1015.5,,,,,,,,,,,,,,,Clear,72000.0,,,,,,,,,
KRDR,07-05-2017,14:56,METAR,Normal,60,5,,,9999.0,,25.2,19.5,29.99,1015.5,,,,,,,,,,,,,,,Clear,72000.0,,,,,,,,,
KRDR,07-05-2017,13:56,METAR,Normal,10,3,,,9999.0,,23.5,19.0,29.99,1015.5,,,,,,,,,,,,,,,Clear,72000.0,,,,,,,,,
KRDR,07-05-2017,12:56,METAR,Normal,10,6,,,9999.0,,21.7,18.7,29.99,1015.5,,,,,,,,,,,,,,,Clear,72000.0,,,,,,,,,
KRDR,07-05-2017,11:56,METAR,Normal,360,3,,,9999.0,,17.9,17.9,29.98,1015.3,,,,,,,,,,,,,,,Clear,72000.0,,,,,,,,,
KRDR,07-05-2017,10:56,METAR,Normal,270,3,,,9999.0,,15.9,15.9,29.99,1015.6,,,,,,,,,,,,,,,Clear,72000.0,,,,,,,,,
KRDR,07-05-2017,09:56,METAR,Normal,270,3,,,9999.0,,15.5,15.5,29.98,1015.3,,,,,,,,,,,,,,,Clear,72000.0,,,,,,,,,
KRDR,07-05-2017,08:56,METAR,Calm,,0,,,9999.0,,16.8,16.6,29.96,1014.6,,,,,,,,,,,,,,,4/8 Partly Cloudy,72000.0,12000.0,SCT,12000.0,,,,,,
KRDR,07-05-2017,07:56,METAR,Normal,30,5,,,9999.0,,19.5,16.9,29.95,1014.2,,,,,,,,,,,,,,,Clear,72000.0,,,,,,,,,
KRDR,07-05-2017,06:56,METAR,Normal,20,6,,,9999.0,,20.3,17.1,29.94,1013.9,,,,,,,,,,,,,,,Clear,72000.0,,,,,,,,,
KRDR,07-05-2017,05:56,METAR,Normal,350,4,,,9999.0,,22.2,17.5,29.94,1013.8,,,,,,,,,,,,,,,2/8 Mostly Clear,72000.0,4900.0,FEW,4900.0,,,,,,
KRDR,07-05-2017,04:56,METAR,Normal,30,9,,,9999.0,,24.2,17.9,29.91,1012.8,,,,,,,,,,,,,,,4/8 Partly Cloudy,72000.0,4700.0,SCT,4700.0,,,,,,
KRDR,07-05-2017,03:56,METAR,Normal,20,8,,,9999.0,,25.1,20.1,29.90,1012.5,,,,,,,,,,,,,,,2/8 Mostly Clear,72000.0,12000.0,FEW,12000.0,,,,,,
KRDR,07-05-2017,01:56,METAR,Normal,100,6,,,9999.0,,28.3,21.8,29.87,1011.5,,,,,,,,,,,,,,,,,15000.0,FEW,15000.0,,,,,,
KRDR,07-05-2017,00:56,METAR,Normal,350,10,,,9999.0,,30.9,21.6,29.82,1009.8,,,,,,,,,,,,,,,Clear,72000.0,,,,,,,,,
KRDR,07-04-2017,23:56,METAR,Normal,290,3,,,9999.0,,32.2,21.4,29.82,1009.8,,,,,,,,,,,,,TRACE,,,,7000.0,FEW,7000.0,,,,,,
KRDR,07-04-2017,22:56,METAR,Normal,240,6,,,9999.0,,34.0,20.3,29.83,1010.1,,,,,,,,,,,,,,,Clear,72000.0,,,,,,,,,
KRDR,07-04-2017,21:56,METAR,Normal,190,8,,,9999.0,,32.9,22.6,29.84,1010.5,,,,,,,,,,,,,,,Clear,72000.0,,,,,,,,,
KRDR,07-04-2017,20:56,METAR,Normal,190,7,,,9999.0,,30.1,21.7,29.85,1010.9,,,,,,,,,,,TRACE,TRACE,,,,,13000.0,FEW,13000.0,,,,,,
KRDR,07-04-2017,19:56,METAR,Normal,200,12,20.0,,9999.0,,31.0,21.7,29.85,1010.8,,,,,,,,,,,,,,,,,13000.0,FEW,13000.0,,,,,,
KRDR,07-04-2017,18:56,METAR,Normal,190,10,,,9999.0,,30.0,21.6,29.86,1011.2,,,,,,,,,,,,,,,,,20000.0,FEW,20000.0,,,,,,
KRDR,07-04-2017,17:56,METAR,Normal,190,13,,,9999.0,,30.3,21.4,29.87,1011.6,,,,,,,,,,,,,,,,,17000.0,FEW,17000.0,,,,,,
KRDR,07-04-2017,16:56,METAR,Normal,200,10,,,9999.0,,28.3,20.5,29.88,1011.9,,,,,,,,,,,,,,,Clear,72000.0,,,,,,,,,
KRDR,07-04-2017,15:56,METAR,Normal,210,11,,,9999.0,,26.5,19.4,29.88,1011.9,,,,,,,,,,,,,,,Clear,72000.0,,,,,,,,,
KRDR,07-04-2017,14:56,METAR,Normal,210,11,16.0,,9999.0,,24.3,17.8,29.90,1012.7,,,,,,,,,,,,,,,Clear,72000.0,,,,,,,,,
KRDR,07-04-2017,13:56,METAR,Normal,200,11,,,9999.0,,22.1,16.4,29.91,1013.0,,,,,,,,,,,,,,,Clear,72000.0,,,,,,,,,
KRDR,07-04-2017,12:56,METAR,Normal,200,9,,,9999.0,,20.3,15.3,29.90,1012.6,,,,,,,,,,,,,,,Clear,72000.0,,,,,,,,,
KRDR,07-04-2017,11:56,METAR,Normal,190,10,,,9999.0,,18.5,14.6,29.91,1013.0,,,,,,,,,,,,,,,Clear,72000.0,,,,,,,,,
KRDR,07-04-2017,10:56,METAR,Normal,180,10,,,9999.0,,17.0,14.8,29.90,1012.7,,,,,,,,,,,,,,,Clear,72000.0,,,,,,,,,
KRDR,07-04-2017,09:56,METAR,Normal,170,10,,,9999.0,,17.4,15.0,29.90,1012.7,,,,,,,,,,,,,,,Clear,72000.0,,,,,,,,,
KRDR,07-04-2017,08:56,METAR,Normal,160,6,,,9999.0,,17.7,14.8,29.91,1013.0,,,,,,,,,,,,,,,,,13000.0,FEW,13000.0,,,,,,
KRDR,07-04-2017,07:56,METAR,Normal,180,9,,,9999.0,,18.9,15.0,29.91,1013.0,,,,,,,,,,,,,,,,16000.0,13000.0,SCT,13000.0,BKN,16000.0,,,,
KRDR,07-04-2017,06:56,METAR,Normal,180,10,,,9999.0,,18.5,15.2,29.92,1013.4,,,,,,,,,,,,,,,,,12000.0,FEW,12000.0,,,,,,
KRDR,07-04-2017,05:56,METAR,Normal,160,6,,,9999.0,,18.8,14.7,29.93,1013.7,,,,,,,,,,,,,,,,,14000.0,SCT,14000.0,SCT,16000.0,,,,
KRDR,07-04-2017,04:56,METAR,Normal,170,7,,,9999.0,,20.4,14.7,29.93,1013.8,,,,,,,,,,,,,,,,,13000.0,FEW,13000.0,,,,,,
KRDR,07-04-2017,03:56,METAR,Normal,170,9,,,9999.0,,20.1,14.7,29.94,1014.1,,,,,,,,,,,,,,,,13000.0,13000.0,BKN,13000.0,,,,,,
KRDR,07-04-2017,02:56,METAR,Normal,170,6,,,9999.0,,20.8,15.1,29.94,1014.2,,,,,,,,,,,,,,,,,13000.0,SCT,13000.0,,,,,,
KRDR,07-04-2017,01:56,METAR,Normal,170,6,,,9999.0,,22.8,14.9,29.94,,,,,,,,,,,,,,,,Clear,72000.0,,,,,,,,,
KRDR,07-04-2017,00:56,METAR,Normal,180,9,,,9999.0,,25.6,13.8,29.94,,,,,,,,,,,,,,,,Clear,72000.0,,,,,,,,,
KRDR,07-03-2017,23:56,METAR,Normal,180,13,,,9999.0,,26.5,14.2,29.95,,,,,,,,,,,,,,,,Clear,72000.0,,,,,,,,,
KRDR,07-03-2017,22:56,METAR,Normal,190,13,,,9999.0,,27.1,14.5,29.96,,,,,,,,,,,,,,,,Clear,72000.0,,,,,,,,,
KRDR,07-03-2017,21:56,METAR,Normal,170,13,,,9999.0,,26.8,14.8,29.98,,,,,,,,,,,,,,,,Clear,72000.0,,,,,,,,,
KRDR,07-03-2017,20:56,METAR,Normal,180,8,,,9999.0,,26.4,14.8,29.99,,,,,,,,,,,,,,,,Clear,72000.0,,,,,,,,,
KRDR,07-03-2017,19:56,METAR,Normal,180,8,,,9999.0,,25.6,15.6,30.00,,,,,,,,,,,,,,,,Clear,72000.0,,,,,,,,,
KRDR,07-03-2017,18:56,METAR,Normal,180,9,14.0,,9999.0,,24.6,16.3,30.01,,,,,,,,,,,,,,,,Clear,72000.0,,,,,,,,,
KRDR,07-03-2017,17:56,METAR,Normal,200,8,,,9999.0,,24.4,15.3,30.03,1017.4,,,,,,,,,,,,,TRACE,,Clear,72000.0,,,,,,,,,
KRDR,07-03-2017,16:56,METAR,Normal,210,7,,,9999.0,,22.9,15.5,30.05,1018.0,,,,,,,,,,,,,,,Clear,72000.0,,,,,,,,,
KRDR,07-03-2017,15:56,METAR,Normal,190,8,,,9999.0,,22.0,15.3,30.06,1018.4,,,,,,,,,,,,,,,Clear,72000.0,,,,,,,,,
KRDR,07-03-2017,14:56,METAR,Normal,200,5,,,9999.0,,19.0,14.7,30.06,1018.3,,,,,,,,,,,TRACE,TRACE,,,Clear,72000.0,,,,,,,,,
KRDR,07-03-2017,14:06,SPECI,Normal,180,5,,,9999.0,,17.0,14.0,30.06,1018.4,,,,,,,,,,,,,,,2/8 Mostly Clear,72000.0,11000.0,FEW,11000.0,,,,,,
KRDR,07-03-2017,13:56,METAR,Normal,170,5,,,9999.0,Light Rain,16.9,14.2,30.06,1018.4,61,,,,,,,,,,,,,,2/8 Mostly Clear,72000.0,5500.0,FEW,5500.0,FEW,8000.0,FEW,11000.0,,
KRDR,07-03-2017,13:55,SPECI,Normal,170,5,,,9999.0,Light Rain,17.0,14.0,30.06,1018.4,61,,,,,,,,,,,,,,2/8 Mostly Clear,72000.0,5500.0,FEW,5500.0,FEW,8000.0,FEW,11000.0,,
KRDR,07-03-2017,12:56,METAR,Normal,190,5,,,9999.0,,15.5,14.0,30.07,1018.7,,,,,,,,,,,TRACE,,,,4/8 Partly Cloudy,72000.0,11000.0,SCT,11000.0,,,,,,
KRDR,07-03-2017,11:56,METAR,Normal,160,4,,,9999.0,,15.1,13.8,30.06,1018.4,,,,,,,,,,,TRACE,,TRACE,,Clear,72000.0,,,,,,,,,
KRDR,07-03-2017,10:56,METAR,Normal,140,4,,,9999.0,,14.3,14.1,30.07,1018.7,,,,,,,,,,,,,,,,13000.0,13000.0,BKN,13000.0,,,,,,
KRDR,07-03-2017,09:56,METAR,Normal,90,4,,,9999.0,,14.5,13.7,30.07,1018.7,,,,,,,,,,,TRACE,,,,4/8 Partly Cloudy,72000.0,1800.0,FEW,1800.0,SCT,15000.0,,,,
KRDR,07-03-2017,09:46,SPECI,Calm,,0,,,9999.0,,14.0,14.0,30.07,1018.7,,,,,,,,,,,,,,,4/8 Partly Cloudy,72000.0,1800.0,FEW,1800.0,SCT,15000.0,,,,
KRDR,07-03-2017,09:34,SPECI,Calm,,0,,,9999.0,Light Rain,15.0,14.0,30.07,1018.7,61,,,,,,,,,,,,,,4/8 Partly Cloudy,72000.0,1800.0,FEW,1800.0,FEW,5500.0,SCT,9100.0,SCT,12000.0
KRDR,07-03-2017,08:56,METAR,Calm,,0,,,9999.0,,14.0,12.7,30.07,1018.7,,,,,,,,,,,TRACE,TRACE,,,,14000.0,12000.0,FEW,12000.0,BKN,14000.0,,,,
KRDR,07-03-2017,08:10,SPECI,Calm,,0,,,9999.0,,14.0,14.0,30.07,1018.7,,,,,,,,,,,,,,,,12000.0,12000.0,BKN,12000.0,,,,,,
KRDR,07-03-2017,08:00,SPECI,Calm,,0,,,9999.0,Light Rain,14.0,14.0,30.08,1019.1,61,,,,,,,,,,,,,,4/8 Partly Cloudy,72000.0,12000.0,SCT,12000.0,,,,,,
KRDR,07-03-2017,07:56,METAR,Calm,,0,,,9999.0,,14.0,13.8,30.08,1019.1,,,,,,,,,,,,,,,,12000.0,12000.0,BKN,12000.0,BKN,17000.0,,,,
KRDR,07-03-2017,06:56,METAR,Calm,,0,,,9999.0,,12.1,12.1,30.08,1019.2,,,,,,,,,,,,,,,,14000.0,14000.0,BKN,14000.0,BKN,17000.0,,,,
KRDR,07-03-2017,06:55,METAR,Calm,,0,,,9999.0,,12.0,12.0,30.08,,,,,,,,,,,,,,,,,14000.0,14000.0,BKN,14000.0,BKN,17000.0,,,,
KRDR,07-03-2017,06:28,SPECI,Calm,,0,,,8000.0,Mist,11.0,11.0,30.08,1019.2,10,,,,,,,,,,,,,,2/8 Mostly Clear,72000.0,17000.0,FEW,17000.0,,,,,,
KRDR,07-03-2017,06:23,SPECI,Calm,,0,,,4400.0,Mist,11.0,11.0,30.08,1019.2,10,,,,,,,,,,,,,,2/8 Mostly Clear,72000.0,17000.0,FEW,17000.0,,,,,,
KRDR,07-03-2017,05:56,METAR,Calm,,0,,,8000.0,Mist,12.5,12.5,30.09,1019.5,10,,,,,,,,,,,,,,Clear,72000.0,,,,,,,,,
KRDR,07-03-2017,04:56,METAR,Normal,290,3,,,9999.0,,12.1,11.9,30.09,1019.5,,,,,,,,,,,,,,,2/8 Mostly Clear,72000.0,15000.0,FEW,15000.0,,,,,,
KRDR,07-03-2017,03:56,METAR,Normal,150,3,,,9999.0,,13.2,12.2,30.09,1019.5,,,,,,,,,,,,,,,Clear,72000.0,,,,,,,,,
KRDR,07-03-2017,02:56,METAR,Normal,110,3,,,9999.0,,18.1,12.1,30.08,1019.1,,,,,,,,,,,,,,,Clear,72000.0,,,,,,,,,
KRDR,07-03-2017,01:56,METAR,Normal,70,5,,,9999.0,,19.7,11.5,30.05,1018.0,,,,,,,,,,,,,,,Clear,72000.0,,,,,,,,,
KRDR,07-03-2017,00:56,METAR,Normal,110,5,,,9999.0,,21.2,11.8,30.06,1018.4,,,,,,,,,,,,,,,Clear,72000.0,,,,,,,,,
KRDR,07-02-2017,23:56,METAR,Normal,90,5,,,9999.0,,21.5,12.1,30.07,1018.8,,,,,,,,,,,,,,,2/8 Mostly Clear,72000.0,4400.0,FEW,4400.0,,,,,,
KRDR,07-02-2017,22:56,METAR,Normal,20,4,,,9999.0,,22.5,11.8,30.09,1019.5,,,,,,,,,,,,,,,2/8 Mostly Clear,72000.0,4400.0,FEW,4400.0,,,,,,
KRDR,07-02-2017,21:56,METAR,Normal,50,3,,,9999.0,,21.7,11.4,30.10,1019.9,,,,,,,,,,,,,,,,4700.0,4700.0,BKN,4700.0,,,,,,
KRDR,07-02-2017,20:56,METAR,Normal,40,8,,,9999.0,,21.4,12.2,30.11,1020.3,,,,,,,,,,,,,,,4/8 Partly Cloudy,72000.0,5000.0,SCT,5000.0,,,,,,
KRDR,07-02-2017,19:56,METAR,Normal,40,6,,,9999.0,,22.1,11.5,30.11,1020.2,,,,,,,,,,,,,,,4/8 Partly Cloudy,72000.0,4700.0,SCT,4700.0,,,,,,
KRDR,07-02-2017,18:56,METAR,Normal,30,3,,,9999.0,,20.8,11.4,30.11,1020.3,,,,,,,,,,,,,,,4/8 Partly Cloudy,72000.0,4300.0,SCT,4300.0,SCT,20000.0,,,,
KRDR,07-02-2017,17:56,METAR,Normal,360,7,,,9999.0,,20.6,12.3,30.12,1020.6,,,,,,,,,,,,,,,4/8 Partly Cloudy,72000.0,4100.0,SCT,4100.0,,,,,,
KRDR,07-02-2017,16:56,METAR,Normal,360,7,,,9999.0,,20.1,12.6,30.12,1020.5,,,,,,,,,,,,,,,4/8 Partly Cloudy,72000.0,3100.0,SCT,3100.0,,,,,,
KRDR,07-02-2017,16:41,SPECI,Normal,10,7,,,9999.0,,19.0,13.0,30.11,1020.2,,,,,,,,,,,,,,,4/8 Partly Cloudy,72000.0,2800.0,SCT,2800.0,,,,,,
KRDR,07-02-2017,16:36,SPECI,Normal,360,7,,,9999.0,,20.0,13.0,30.11,1020.2,,,,,,,,,,,,,,,,2700.0,2800.0,BKN,2800.0,,,,,,
KRDR,07-02-2017,15:56,METAR,Normal,10,7,,,9999.0,,18.8,12.8,30.11,1020.2,,,,,,,,,,,,,,,Clear,72000.0,,,,,,,,,
KRDR,07-02-2017,14:56,METAR,Normal,360,5,,,9999.0,,18.2,12.6,30.11,1020.1,,,,,,,,,,,,,,,Clear,72000.0,,,,,,,,,
KRDR,07-02-2017,13:56,METAR,Normal,340,4,,,9999.0,,16.5,12.4,30.10,1019.7,,,,,,,,,,,,,,,Clear,72000.0,,,,,,,,,
KRDR,07-02-2017,12:56,METAR,Normal,10,6,,,9999.0,,14.5,12.0,30.08,1019.1,,,,,,,,,,,,,,,Clear,72000.0,,,,,,,,,
KRDR,07-02-2017,11:56,METAR,Normal,350,4,,,9999.0,,12.0,11.2,30.06,1018.4,,,,,,,,,,,,,,.02 IN,Clear,72000.0,,,,,,,,,
KRDR,07-02-2017,10:56,METAR,Normal,330,4,,,9999.0,,8.5,8.4,30.04,1017.8,,,,,,,,,,,,,,,Clear,72000.0,,,,,,,,,
KRDR,07-02-2017,09:56,METAR,Normal,300,5,,,9999.0,,9.1,8.9,30.02,1017.2,,,,,,,,,,,,,,,Clear,72000.0,,,,,,,,,
KRDR,07-02-2017,08:56,METAR,Normal,320,4,,,9999.0,,8.8,8.6,30.01,1016.9,,,,,,,,,,,,,,,Clear,72000.0,,,,,,,,,
KRDR,07-02-2017,07:56,METAR,Normal,300,5,,,9999.0,,9.4,9.2,30.01,1016.9,,,,,,,,,,,,,,,Clear,72000.0,,,,,,,,,
KRDR,07-02-2017,06:56,METAR,Normal,300,4,,,9999.0,,9.5,9.3,30.01,1016.8,,,,,,,,,,,,,,,Clear,72000.0,,,,,,,,,
KRDR,07-02-2017,05:56,METAR,Normal,280,3,,,9999.0,,9.7,9.5,30.00,1016.5,,,,,,,,,,,,,,,Clear,72000.0,,,,,,,,,
KRDR,07-02-2017,04:56,METAR,Normal,360,3,,,9999.0,,11.7,10.1,29.99,1016.2,,,,,,,,,,,,,,,Clear,72000.0,,,,,,,,,
KRDR,07-02-2017,03:56,METAR,Normal,30,4,,,9999.0,,13.3,11.2,29.98,1015.9,,,,,,,,,,,,,,,Clear,72000.0,,,,,,,,,
KRDR,07-02-2017,02:56,METAR,Normal,40,6,,,9999.0,,15.8,11.8,29.96,1015.2,,,,,,,,,,,,,,,,6000.0,6000.0,BKN,6000.0,,,,,,
KRDR,07-02-2017,01:56,METAR,Normal,40,7,,,9999.0,,19.1,12.6,29.94,1014.4,,,,,,,,,,,,,,,Clear,72000.0,,,,,,,,,
KRDR,07-02-2017,00:56,METAR,Normal,40,8,,,9999.0,,21.3,11.9,29.92,1013.6,,,,,,,,,,,,,,,Clear,72000.0,,,,,,,,,
KRDR,07-01-2017,23:56,METAR,Normal,360,6,,,9999.0,,21.5,12.3,29.91,1013.2,,,,,,,,,,,,,,,2/8 Mostly Clear,72000.0,6500.0,FEW,6500.0,,,,,,
KRDR,07-01-2017,22:56,METAR,Normal,10,11,,,9999.0,,22.1,12.3,29.90,1012.9,,,,,,,,,,,,,,,Clear,72000.0,,,,,,,,,
KRDR,07-01-2017,21:56,METAR,Normal,10,8,,,9999.0,,21.8,14.2,29.90,1012.9,,,,,,,,,,,,,,,,4400.0,3300.0,FEW,3300.0,BKN,4400.0,,,,
KRDR,07-01-2017,20:56,METAR,Normal,40,10,,,9999.0,,21.4,14.3,29.89,1012.7,,,,,,,,,,,,,,,4/8 Partly Cloudy,72000.0,2900.0,FEW,2900.0,SCT,3900.0,,,,
KRDR,07-01-2017,19:56,METAR,Normal,40,10,,,9999.0,,21.8,14.9,29.88,1012.3,,,,,,,,,,,,,,,2/8 Mostly Clear,72000.0,3000.0,FEW,3000.0,,,,,,
KRDR,07-01-2017,18:56,METAR,Normal,20,9,,,9999.0,,21.8,15.8,29.87,1012.0,,,,,,,,,,,,,,,Clear,72000.0,,,,,,,,,
KRDR,07-01-2017,17:56,METAR,Normal,20,3,,,9999.0,,20.2,14.8,29.87,1012.0,,,,,,,,,,,,,.02 IN,,2/8 Mostly Clear,72000.0,18000.0,FEW,18000.0,,,,,,
KRDR,07-01-2017,16:56,METAR,Normal,320,3,,,9999.0,,18.7,14.2,29.87,1012.0,,,,,,,,,,,,,,,2/8 Mostly Clear,72000.0,7000.0,FEW,7000.0,,,,,,
KRDR,07-01-2017,15:56,METAR,Normal,80,3,,,9999.0,,15.4,13.9,29.86,1011.8,,,,,,,,,,,,,,,,8000.0,8000.0,BKN,8000.0,,,,,,
KRDR,07-01-2017,14:56,METAR,Normal,180,5,,,9999.0,,14.7,13.9,29.86,1011.7,,,,,,,,,,,TRACE,.02 IN,,,,7000.0,7000.0,BKN,7000.0,,,,,,
KRDR,07-01-2017,14:41,SPECI,Normal,170,5,,,9999.0,,15.0,14.0,29.86,1011.7,,,,,,,,,,,,,,,,6000.0,6000.0,BKN,6000.0,,,,,,
KRDR,07-01-2017,14:24,SPECI,Normal,210,3,,,9999.0,Light Drizzle,15.0,13.0,29.87,1012.0,51,,,,,,,,,,,,,,,6500.0,6500.0,OVC,6500.0,,,,,,
KRDR,07-01-2017,13:56,METAR,Normal,220,5,,,9999.0,,14.5,12.9,29.87,1012.0,,,,,,,,,,,.01 IN,,,,,7000.0,7000.0,OVC,7000.0,,,,,,
KRDR,07-01-2017,13:52,SPECI,Normal,230,5,,,9999.0,,15.0,13.0,29.87,1012.0,,,,,,,,,,,,,,,,7000.0,4100.0,FEW,4100.0,OVC,7000.0,,,,
KRDR,07-01-2017,13:40,SPECI,Normal,240,5,,,9999.0,Light Drizzle,15.0,13.0,29.88,1012.4,51,,,,,,,,,,,,,,,7000.0,4300.0,FEW,4300.0,SCT,5000.0,BKN,7000.0,,
KRDR,07-01-2017,13:38,SPECI,Normal,250,4,,,9999.0,,15.0,13.0,29.88,1012.4,,,,,,,,,,,,,,,,7000.0,4300.0,FEW,4300.0,SCT,5000.0,BKN,7000.0,,
KRDR,07-01-2017,12:56,METAR,Normal,250,4,,,9999.0,Light Rain,14.5,12.5,29.88,1012.3,61,,,,,,,,,,.01 IN,,,,4/8 Partly Cloudy,72000.0,3900.0,FEW,3900.0,SCT,8000.0,,,,
KRDR,07-01-2017,12:04,SPECI,Normal,260,4,,,9999.0,Light Rain,15.0,12.0,29.87,1012.0,61,,,,,,,,,,,,,,,9000.0,7000.0,SCT,7000.0,BKN,9100.0,,,,
KRDR,07-01-2017,11:56,METAR,Normal,250,4,,,9999.0,,15.1,11.3,29.87,1012.0,,,,,,,,,,,,,,,,9000.0,7500.0,SCT,7500.0,BKN,9100.0,,,,
KRDR,07-01-2017,10:56,METAR,Normal,270,7,,,9999.0,,14.8,11.0,29.86,1011.6,,,,,,,,,,,,,,,4/8 Partly Cloudy,72000.0,8500.0,SCT,8600.0,,,,,,
KRDR,07-01-2017,09:56,METAR,Normal,240,4,,,9999.0,,13.5,12.1,29.86,1011.6,,,,,,,,,,,,,,,,9000.0,9000.0,BKN,9100.0,OVC,11000.0,,,,
KRDR,07-01-2017,08:56,METAR,Normal,240,5,,,9999.0,,13.0,11.7,29.86,1011.6,,,,,,,,,,,,,,,2/8 Mostly Clear,72000.0,17000.0,FEW,17000.0,,,,,,
KRDR,07-01-2017,07:56,METAR,Normal,220,5,,,9999.0,,12.0,11.1,29.88,1012.4,,,,,,,,,,,,,,,Clear,72000.0,,,,,,,,,
KRDR,07-01-2017,06:56,METAR,Normal,230,3,,,9999.0,,11.5,11.3,29.90,1013.1,,,,,,,,,,,,,,,Clear,72000.0,,,,,,,,,
KRDR,07-01-2017,05:56,METAR,Normal,240,4,,,9999.0,,11.5,11.3,29.91,1013.4,,,,,,,,,,,,,,,Clear,72000.0,,,,,,,,,
KRDR,07-01-2017,04:56,METAR,Normal,240,4,,,9999.0,,12.1,11.9,29.91,1013.5,,,,,,,,,,,,,,,Clear,72000.0,,,,,,,,,
KRDR,07-01-2017,03:56,METAR,Normal,250,3,,,9999.0,,12.6,12.0,29.92,1013.8,,,,,,,,,,,,,,,Clear,72000.0,,,,,,,,,
KRDR,07-01-2017,02:56,METAR,Normal,280,3,,,9999.0,,14.7,11.8,29.93,1014.1,,,,,,,,,,,,,,,,7000.0,7000.0,BKN,7000.0,,,,,,
KRDR,07-01-2017,01:56,METAR,Normal,310,4,,,9999.0,,17.3,11.8,29.93,1014.1,,,,,,,,,,,,,,,,7000.0,7000.0,OVC,7000.0,,,,,,
KRDR,07-01-2017,00:56,METAR,Normal,330,8,,,9999.0,,18.3,10.6,29.93,1014.0,,,,,,,,,,,,,,,,7000.0,7000.0,OVC,7000.0,,,,,,
KRDR,06-30-2017,23:56,METAR,Normal,320,10,,,9999.0,,18.9,10.4,29.92,1013.7,,,,,,,,,,,,,,,,7000.0,7000.0,BKN,7000.0,,,,,,
KRDR,06-30-2017,22:56,METAR,Normal,330,10,18.0,,9999.0,,19.5,9.9,29.91,1013.3,,,,,,,,,,,,,,,,7000.0,7000.0,OVC,7000.0,,,,,,
KRDR,06-30-2017,21:56,METAR,Normal,320,10,,,9999.0,,21.1,11.1,29.91,1013.3,,,,,,,,,,,,,,,2/8 Mostly Clear,72000.0,4500.0,FEW,4500.0,FEW,6000.0,,,,
KRDR,06-30-2017,20:56,METAR,Normal,310,8,,,9999.0,,21.0,9.2,29.91,1013.3,,,,,,,,,,,,,,,2/8 Mostly Clear,72000.0,4900.0,FEW,4900.0,,,,,,
KRDR,06-30-2017,19:56,METAR,Normal,340,10,,,9999.0,,20.5,11.7,29.92,1013.7,,,,,,,,,,,,,,,4/8 Partly Cloudy,72000.0,6000.0,FEW,6000.0,SCT,17000.0,,,,
KRDR,06-30-2017,19:26,SPECI,Normal,340,9,,,9999.0,,20.0,12.0,29.92,1013.7,,,,,,,,,,,,,,,,3900.0,2900.0,SCT,2900.0,BKN,3900.0,BKN,6000.0,BKN,20000.0
KRDR,06-30-2017,19:11,SPECI,Normal,350,8,,,9999.0,,19.0,13.0,29.92,1013.7,,,,,,,,,,,,,,,,2900.0,2900.0,BKN,2900.0,,,,,,
KRDR,06-30-2017,18:56,METAR,Normal,320,7,,,9999.0,,19.7,13.2,29.92,1013.7,,,,,,,,,,,,,,,2/8 Mostly Clear,72000.0,6000.0,FEW,6000.0,FEW,19000.0,,,,
KRDR,06-30-2017,17:56,METAR,Normal,330,8,,,9999.0,,19.5,13.4,29.93,1014.0,,,,,,,,,,,,,,,4/8 Partly Cloudy,72000.0,2200.0,FEW,2200.0,FEW,3300.0,SCT,20000.0,,
KRDR,06-30-2017,17:16,SPECI,Normal,350,10,,,9999.0,,18.0,13.0,29.94,1014.4,,,,,,,,,,,,,,,,3000.0,2100.0,SCT,2100.0,OVC,3000.0,,,,
KRDR,06-30-2017,16:56,METAR,Normal,360,9,,,9999.0,,17.8,13.5,29.94,1014.4,,,,,,,,,,,,,,,,2400.0,1800.0,FEW,1800.0,OVC,2600.0,,,,
KRDR,06-30-2017,16:36,SPECI,Normal,340,9,,,9999.0,,18.0,14.0,29.94,1014.4,,,,,,,,,,,,,,,,1700.0,1700.0,SCT,1700.0,OVC,2600.0,,,,
KRDR,06-30-2017,16:11,SPECI,Normal,340,9,,,9999.0,,17.0,14.0,29.94,1014.4,,,,,,,,,,,,,,,,1600.0,1900.0,BKN,1900.0,OVC,2500.0,,,,
KRDR,06-30-2017,16:06,SPECI,Normal,350,8,,,9999.0,,17.0,13.0,29.94,1014.4,,,,,,,,,,,,,,,,1400.0,1500.0,SCT,1500.0,OVC,2100.0,,,,
KRDR,06-30-2017,15:56,METAR,Normal,350,9,,,9999.0,,16.9,13.8,29.94,1014.4,,,,,,,,,,,,,,,,1200.0,1600.0,OVC,1600.0,,,,,,
KRDR,06-30-2017,15:11,SPECI,Normal,360,9,,,9999.0,,16.0,15.0,29.92,1013.7,,,,,,,,,,,,,,,,1300.0,1400.0,BKN,1400.0,OVC,2000.0,,,,
KRDR,06-30-2017,14:56,METAR,Normal,350,10,,,9999.0,,16.8,14.4,29.92,1013.6,,,,,,,,,,,,,,,,1500.0,1700.0,OVC,1700.0,,,,,,
KRDR,06-30-2017,14:41,SPECI,Normal,360,11,,,9999.0,,16.0,15.0,29.92,1013.7,,,,,,,,,,,,,,,,1000.0,1100.0,SCT,1100.0,OVC,1700.0,,,,
KRDR,06-30-2017,13:56,METAR,Normal,350,10,,,9999.0,,15.5,15.0,29.92,1013.6,,,,,,,,,,,,,,,,900.0,1000.0,OVC,1000.0,,,,,,
KRDR,06-30-2017,13:41,SPECI,Normal,340,8,,,9999.0,,16.0,15.0,29.92,1013.6,,,,,,,,,,,,,,,,900.0,1000.0,OVC,1000.0,,,,,,
KRDR,06-30-2017,13:01,SPECI,Normal,360,8,,,9999.0,,15.0,15.0,29.91,1013.2,,,,,,,,,,,,,,,,700.0,800.0,OVC,800.0,,,,,,
KRDR,06-30-2017,12:56,METAR,Normal,350,9,,,9999.0,,15.2,15.2,29.91,1013.2,,,,,,,,,,,,,,,,700.0,700.0,OVC,700.0,,,,,,
KRDR,06-30-2017,11:43,SPECI,Normal,360,7,,,9999.0,,15.0,15.0,29.88,1012.2,,,,,,,,,,,,,,,,900.0,1100.0,BKN,1100.0,,,,,,
KRDR,06-30-2017,10:56,METAR,Normal,340,8,,,9999.0,,14.7,14.7,29.88,1012.2,,,,,,,,,,,,,,,,11000.0,11000.0,BKN,11000.0,,,,,,
KRDR,06-30-2017,09:56,METAR,Normal,320,5,,,9999.0,,14.5,14.5,29.86,1011.5,,,,,,,,,,,,,,,,9500.0,9500.0,BKN,9600.0,,,,,,
KRDR,06-30-2017,07:56,METAR,Calm,,0,,,9999.0,,12.3,12.3,29.86,1011.6,,,,,,,,,,,,,,,4/8 Partly Cloudy,72000.0,11000.0,SCT,11000.0,,,,,,
KRDR,06-30-2017,06:56,METAR,Normal,10,5,,,9999.0,,12.8,12.8,29.86,1011.6,,,,,,,,,,,,,,,4/8 Partly Cloudy,72000.0,22000.0,SCT,22000.0,,,,,,
KRDR,06-30-2017,05:56,METAR,Normal,310,3,,,9999.0,,13.2,13.2,29.87,1012.0,,,,,,,,,,,,,,,Clear,72000.0,,,,,,,,,
KRDR,06-30-2017,04:56,METAR,Normal,300,3,,,9999.0,,14.4,13.9,29.87,1012.0,,,,,,,,,,,,,,,4/8 Partly Cloudy,72000.0,17000.0,SCT,17000.0,,,,,,
KRDR,06-30-2017,03:56,METAR,Normal,10,7,,,9999.0,,17.4,13.9,29.87,1011.9,,,,,,,,,,,,,,,2/8 Mostly Clear,72000.0,10000.0,FEW,10000.0,,,,,,
KRDR,06-30-2017,01:56,METAR,Normal,350,4,,,9999.0,,19.5,15.9,29.82,1010.2,,,,,,,,,,,,,,,4/8 Partly Cloudy,72000.0,12000.0,SCT,12000.0,,,,,,
KRDR,06-30-2017,00:56,METAR,Normal,340,8,,,9999.0,,22.4,14.7,29.81,1009.8,,,,,,,,,,,,,,,Clear,72000.0,,,,,,,,,
KRDR,06-29-2017,23:56,METAR,Normal,310,4,,,9999.0,,23.7,16.7,29.81,1009.8,,,,,,,,,,,,,,,2/8 Mostly Clear,72000.0,7000.0,FEW,7000.0,,,,,,
KRDR,06-29-2017,22:56,METAR,Normal,320,5,,,9999.0,,23.4,16.7,29.82,1010.1,,,,,,,,,,,,,,,,14000.0,14000.0,BKN,14000.0,,,,,,
KRDR,06-29-2017,21:56,METAR,Normal,290,3,,,9999.0,,23.7,16.5,29.82,1010.1,,,,,,,,,,,,,,,,,17000.0,FEW,17000.0,,,,,,
KRDR,06-29-2017,20:56,METAR,Normal,290,4,,,9999.0,,23.8,15.8,29.82,1010.1,,,,,,,,,,,,,,,,,20000.0,FEW,20000.0,,,,,,
KRDR,06-29-2017,19:56,METAR,Normal,360,3,,,9999.0,,24.0,16.0,29.82,1010.1,,,,,,,,,,,,,,,,,2800.0,FEW,2800.0,FEW,20000.0,,,,
KRDR,06-29-2017,18:56,METAR,Calm,,0,,,9999.0,,23.4,16.9,29.83,1010.5,,,,,,,,,,,,,,,,,2800.0,FEW,2800.0,SCT,18000.0,SCT,20000.0,,
KRDR,06-29-2017,17:56,METAR,Calm,,0,,,9999.0,,21.9,16.6,29.83,1010.5,,,,,,,,,,,,,,,,,16000.0,SCT,16000.0,,,,,,
KRDR,06-29-2017,16:56,METAR,Calm,,0,,,9999.0,,20.3,17.1,29.82,1010.3,,,,,,,,,,,,,,,,,18000.0,SCT,18000.0,SCT,20000.0,,,,
KRDR,06-29-2017,16:10,SPECI,Normal,10,5,,,9999.0,,19.0,18.0,29.81,1010.0,,,,,,,,,,,,,,,,,1100.0,FEW,1100.0,,,,,,
KRDR,06-29-2017,15:56,METAR,Normal,340,4,,,9999.0,,19.4,18.0,29.80,1009.6,,,,,,,,,,,,,,,,,1200.0,FEW,1200.0,FEW,20000.0,,,,
KRDR,06-29-2017,15:46,SPECI,Normal,360,5,,,9999.0,,19.0,19.0,29.80,1009.6,,,,,,,,,,,,,,,,,1200.0,SCT,1200.0,,,,,,
KRDR,06-29-2017,15:06,SPECI,Calm,,0,,,9999.0,,18.0,18.0,29.80,1009.6,,,,,,,,,,,,,,,,900.0,1000.0,BKN,1000.0,BKN,1400.0,,,,
KRDR,06-29-2017,14:56,METAR,Calm,,0,,,9999.0,,17.6,17.6,29.80,1009.6,,,,,,,,,,,,,,,,900.0,900.0,BKN,900.0,,,,,,
KRDR,06-29-2017,14:21,SPECI,Calm,,0,,,9999.0,,17.0,17.0,29.80,1009.6,,,,,,,,,,,,,,,,600.0,800.0,BKN,800.0,,,,,,
KRDR,06-29-2017,14:16,SPECI,Calm,,0,,,9999.0,,17.0,17.0,29.80,1009.6,,,,,,,,,,,,,,,,700.0,700.0,OVC,700.0,,,,,,
KRDR,06-29-2017,14:01,SPECI,Calm,,0,,,9999.0,,16.0,16.0,29.80,1009.6,,,,,,,,,,,,,,,,400.0,600.0,OVC,600.0,,,,,,
KRDR,06-29-2017,13:56,METAR,Calm,,0,,,9999.0,,16.3,16.3,29.81,1009.9,,,,,,,,,,,,,,,,400.0,400.0,OVC,400.0,,,,,,
KRDR,06-29-2017,13:46,SPECI,Calm,,0,,,9999.0,,16.0,16.0,29.81,1009.9,,,,,,,,,,,,,,,,200.0,400.0,OVC,400.0,,,,,,
KRDR,06-29-2017,13:01,SPECI,Normal,50,4,,,9999.0,Mist,16.0,16.0,29.77,1008.5,10,,,,,,,,,,,,,,,200.0,200.0,OVC,200.0,,,,,,
KRDR,06-29-2017,12:56,METAR,Normal,40,5,,,9999.0,,16.2,16.2,29.76,1008.2,,,,,,,,,,,,,,,,300.0,300.0,OVC,300.0,,,,,,
KRDR,06-29-2017,12:31,SPECI,Normal,30,6,,,6400.0,Mist,16.0,16.0,29.75,1007.8,10,,,,,,,,,,,,,,,300.0,300.0,BKN,300.0,OVC,700.0,,,,
KRDR,06-29-2017,12:16,SPECI,Normal,20,4,,,9999.0,Mist,16.0,16.0,29.75,1007.8,10,,,,,,,,,,,,,,,300.0,500.0,OVC,500.0,,,,,,
KRDR,06-29-2017,12:11,SPECI,Normal,30,3,,,9999.0,Mist,16.0,16.0,29.75,1007.8,10,,,,,,,,,,,,,,,300.0,700.0,OVC,700.0,,,,,,
KRDR,06-29-2017,12:06,SPECI,Normal,30,3,,,9999.0,,16.0,16.0,29.75,1007.8,,,,,,,,,,,,,,,,300.0,300.0,BKN,300.0,OVC,700.0,,,,
KRDR,06-29-2017,12:01,SPECI,Normal,30,3,,,9999.0,,15.0,15.0,29.75,1007.9,,,,,,,,,,,,,,,,600.0,600.0,BKN,600.0,,,,,,
KRDR,06-29-2017,11:56,METAR,Normal,40,4,,,9999.0,,14.4,14.4,29.75,1007.9,,,,,,,,,,,,,,1.05 IN,,800.0,800.0,BKN,800.0,,,,,,
KRDR,06-29-2017,11:52,SPECI,Normal,30,3,,,9999.0,Mist,14.0,14.0,29.75,1007.9,10,,,,,,,,,,,,,,,800.0,800.0,BKN,800.0,,,,,,
KRDR,06-29-2017,11:47,SPECI,Normal,30,3,,,2000.0,Mist,13.0,13.0,29.75,1007.9,10,,,,,,,,,,,,,,,,800.0,SCT,800.0,,,,,,
KRDR,06-29-2017,11:42,SPECI,Normal,20,3,,,400.0,Fog,14.0,14.0,29.76,1008.2,30,,,,,,,,,,,,,,,,700.0,FEW,700.0,,,,,,
KRDR,06-29-2017,11:31,SPECI,Normal,20,3,,,400.0,Fog,13.0,13.0,29.76,1008.2,30,,,,,,,,,,,,,,Clear,72000.0,,,,,,,,,
KRDR,06-29-2017,11:11,SPECI,Normal,360,3,,,200.0,Fog,14.0,14.0,29.75,1007.9,30,,,,,,,,,,,,,,,,900.0,FEW,900.0,,,,,,
KRDR,06-29-2017,11:06,SPECI,Normal,340,3,,,400.0,Fog,14.0,14.0,29.75,1007.9,30,,,,,,,,,,,,,,,,900.0,FEW,900.0,,,,,,
KRDR,06-29-2017,11:01,SPECI,Normal,310,3,,,1800.0,Mist,14.0,14.0,29.76,1008.2,10,,,,,,,,,,,,,,,,900.0,FEW,900.0,,,,,,
KRDR,06-29-2017,10:56,METAR,Calm,,0,,,3200.0,Mist,14.1,14.1,29.76,1008.2,10,,,,,,,,,,,,,,,,900.0,SCT,900.0,,,,,,
KRDR,06-29-2017,10:52,SPECI,Calm,,0,,,2400.0,Mist,14.0,14.0,29.76,1008.2,10,,,,,,,,,,,,,,,,900.0,SCT,900.0,,,,,,
KRDR,06-29-2017,10:47,SPECI,Normal,270,4,,,600.0,Fog,14.0,14.0,29.76,1008.2,30,,,,,,,,,,,,,,,,900.0,SCT,900.0,,,,,,
KRDR,06-29-2017,10:42,SPECI,Normal,260,6,,,200.0,Fog,13.0,13.0,29.76,1008.3,30,,,,,,,,,,,,,,,,900.0,FEW,900.0,,,,,,
KRDR,06-29-2017,10:26,SPECI,Normal,320,3,,,200.0,Fog,14.0,14.0,29.74,1007.6,30,,,,,,,,,,,,,,Clear,72000.0,,,,,,,,,
KRDR,06-29-2017,10:11,SPECI,Calm,,0,,,400.0,Fog,14.0,14.0,29.74,1007.6,30,,,,,,,,,,,,,,,,900.0,FEW,900.0,,,,,,
KRDR,06-29-2017,10:01,SPECI,Normal,300,3,,,600.0,Fog,15.0,15.0,29.73,1007.2,30,,,,,,,,,,,,,,,,900.0,FEW,900.0,,,,,,
KRDR,06-29-2017,09:56,METAR,Normal,310,3,,,800.0,Fog,14.8,14.8,29.73,1007.2,30,,,,,,,,,,,,,,,,1000.0,SCT,1000.0,,,,,,
KRDR,06-29-2017,09:46,SPECI,Normal,300,3,,,1000.0,Mist,15.0,15.0,29.73,1007.2,10,,,,,,,,,,,,,,,1000.0,1000.0,BKN,1000.0,,,,,,
KRDR,06-29-2017,09:41,SPECI,Calm,,0,,,1400.0,Mist,16.0,16.0,29.73,1007.2,10,,,,,,,,,,,,,,,1000.0,1000.0,BKN,1000.0,,,,,,
KRDR,06-29-2017,08:56,METAR,Calm,,0,,,9999.0,,16.0,16.0,29.72,1006.9,,,,,,,,,,,,,,,,1100.0,1100.0,OVC,1100.0,,,,,,
KRDR,06-29-2017,07:56,METAR,Normal,310,4,,,9999.0,,15.8,15.8,29.72,1006.9,,,,,,,,,,,,,,,,1000.0,1000.0,OVC,1000.0,,,,,,
KRDR,06-29-2017,07:41,SPECI,Calm,,0,,,9999.0,,16.0,16.0,29.72,1006.9,,,,,,,,,,,,,,,,1000.0,1000.0,OVC,1000.0,,,,,,
KRDR,06-29-2017,06:56,METAR,Calm,,0,,,9999.0,,15.7,15.7,29.72,1006.9,,,,,,,,,,,,,,,,900.0,900.0,OVC,900.0,,,,,,
KRDR,06-29-2017,06:36,SPECI,Normal,280,3,,,9999.0,,15.0,15.0,29.72,1006.9,,,,,,,,,,,,,,,,800.0,800.0,OVC,800.0,,,,,,
KRDR,06-29-2017,06:06,SPECI,Calm,,0,,,6400.0,Mist,15.0,15.0,29.71,1006.6,10,,,,,,,,,,,,,,,700.0,700.0,OVC,700.0,,,,,,
KRDR,06-29-2017,06:01,SPECI,Calm,,0,,,4000.0,Mist,15.0,15.0,29.71,1006.6,10,,,,,,,,,,,,,,,700.0,700.0,OVC,700.0,,,,,,
KRDR,06-29-2017,05:56,METAR,Calm,,0,,,3600.0,Mist,14.7,14.7,29.71,1006.6,10,,,,,,,,,,,,,,,700.0,700.0,OVC,700.0,,,,,,
KRDR,06-29-2017,05:51,SPECI,Calm,,0,,,4400.0,Mist,15.0,15.0,29.72,1007.0,10,,,,,,,,,,,,,,,700.0,700.0,OVC,700.0,,,,,,
KRDR,06-29-2017,05:46,SPECI,Calm,,0,,,2800.0,Mist,14.0,14.0,29.71,1006.6,10,,,,,,,,,,,,,,,700.0,700.0,OVC,700.0,,,,,,
KRDR,06-29-2017,05:31,SPECI,Calm,,0,,,1200.0,Mist,14.0,14.0,29.71,1006.6,10,,,,,,,,,,,,,,,700.0,700.0,OVC,700.0,,,,,,
KRDR,06-29-2017,05:26,SPECI,Calm,,0,,,1000.0,Mist,14.0,14.0,29.71,1006.6,10,,,,,,,,,,,,,,,700.0,700.0,OVC,700.0,,,,,,
KRDR,06-29-2017,05:21,SPECI,Calm,,0,,,800.0,Fog,14.0,14.0,29.72,1007.0,30,,,,,,,,,,,,,,,700.0,700.0,OVC,700.0,,,,,,
KRDR,06-29-2017,05:06,SPECI,Normal,350,3,,,400.0,Fog,13.0,13.0,29.71,1006.6,30,,,,,,,,,,,,,,,700.0,700.0,BKN,700.0,,,,,,
KRDR,06-29-2017,04:56,METAR,Normal,10,3,,,400.0,Fog,12.7,12.7,29.70,1006.3,30,,,,,,,,,,,,,,,,700.0,SCT,700.0,,,,,,
KRDR,06-29-2017,04:47,SPECI,Normal,10,3,,,400.0,Fog,12.0,12.0,29.70,1006.4,30,,,,,,,,,,,,,,,,700.0,FEW,700.0,,,,,,
KRDR,06-29-2017,04:01,SPECI,Calm,,0,,,600.0,Fog,14.0,14.0,29.69,1006.0,30,,,,,,,,,,,,,,Clear,72000.0,,,,,,,,,
KRDR,06-29-2017,03:56,METAR,Calm,,0,,,800.0,Fog,14.3,14.3,29.69,1006.0,30,,,,,,,,,,,,,,Clear,72000.0,,,,,,,,,
KRDR,06-29-2017,03:51,SPECI,Calm,,0,,,800.0,Fog,15.0,15.0,29.69,1006.0,30,,,,,,,,,,,,,,Clear,72000.0,,,,,,,,,
KRDR,06-29-2017,03:46,SPECI,Calm,,0,,,600.0,Fog,15.0,15.0,29.69,1006.0,30,,,,,,,,,,,,,,Clear,72000.0,,,,,,,,,
KRDR,06-29-2017,03:36,SPECI,Calm,,0,,,600.0,Fog,14.0,14.0,29.69,1006.0,30,,,,,,,,,,,,,,Clear,72000.0,,,,,,,,,
KRDR,06-29-2017,03:16,SPECI,Calm,,0,,,800.0,Fog,14.0,14.0,29.68,1005.6,30,,,,,,,,,,,,,,Clear,72000.0,,,,,,,,,
KRDR,06-29-2017,03:11,SPECI,Normal,360,3,,,2400.0,Mist,15.0,15.0,29.68,1005.6,10,,,,,,,,,,,,,,Clear,72000.0,,,,,,,,,
KRDR,06-29-2017,02:56,METAR,Normal,10,4,,,9999.0,,15.6,15.6,29.67,1005.2,,,,,,,,,,,,,,,Clear,72000.0,,,,,,,,,
KRDR,06-29-2017,01:56,METAR,Normal,20,4,,,9999.0,,18.5,17.3,29.66,1004.7,,,,,,,,,,,,,,,Clear,72000.0,,,,,,,,,
KRDR,06-29-2017,00:56,METAR,Normal,10,6,,,9999.0,,20.4,17.0,29.65,1004.4,,,,,,,,,,,,,,,Clear,72000.0,,,,,,,,,
KRDR,06-28-2017,23:56,METAR,Normal,360,5,,,9999.0,,19.7,17.1,29.63,1003.7,,,,,,,,,,,,,.02 IN,,Clear,72000.0,,,,,,,,,
KRDR,06-28-2017,23:21,SPECI,Normal,10,4,,,9999.0,,20.0,17.0,29.62,1003.4,,,,,,,,,,,,,,,,5000.0,1200.0,SCT,1200.0,BKN,5000.0,,,,
KRDR,06-28-2017,23:16,SPECI,Normal,10,4,,,9999.0,,20.0,17.0,29.62,1003.4,,,,,,,,,,,,,,,,1200.0,1200.0,BKN,1200.0,BKN,5000.0,,,,
KRDR,06-28-2017,22:56,METAR,Normal,10,5,,,9999.0,,19.3,17.4,29.62,1003.4,,,,,,,,,,,,,,,,1000.0,1000.0,BKN,1000.0,BKN,5000.0,,,,
KRDR,06-28-2017,22:41,SPECI,Normal,10,5,,,9999.0,,19.0,18.0,29.62,1003.4,,,,,,,,,,,,,,,,4700.0,900.0,FEW,900.0,SCT,2900.0,BKN,4700.0,,
KRDR,06-28-2017,22:36,SPECI,Normal,350,6,,,9999.0,,19.0,17.0,29.62,1003.4,,,,,,,,,,,,,,,,2900.0,1100.0,SCT,1100.0,BKN,2900.0,BKN,4700.0,,
KRDR,06-28-2017,22:26,SPECI,Normal,10,6,,,9999.0,,18.0,18.0,29.62,1003.4,,,,,,,,,,,,,,,,1100.0,1200.0,SCT,1200.0,BKN,2900.0,BKN,3600.0,,
KRDR,06-28-2017,21:56,METAR,Normal,350,7,,,9999.0,,18.1,17.1,29.61,1003.1,,,,,,,,,,,,,,,,1000.0,1200.0,BKN,1200.0,OVC,3900.0,,,,
KRDR,06-28-2017,21:16,SPECI,Normal,360,7,,,9999.0,,18.0,18.0,29.60,1002.8,,,,,,,,,,,,,,,,1200.0,1200.0,OVC,1200.0,,,,,,
KRDR,06-28-2017,20:56,METAR,Normal,360,8,,,9999.0,,18.0,17.7,29.60,1002.8,,,,,,,,,,,,.02 IN,,,,1000.0,1000.0,BKN,1000.0,OVC,2500.0,,,,
KRDR,06-28-2017,20:50,SPECI,Normal,360,8,,,9999.0,,18.0,18.0,29.60,1002.8,,,,,,,,,,,,,,,,1000.0,1000.0,BKN,1000.0,OVC,2500.0,,,,
KRDR,06-28-2017,20:35,SPECI,Normal,20,8,,,9999.0,,18.0,18.0,29.59,1002.4,,,,,,,,,,,,,,,,1000.0,1100.0,SCT,1100.0,OVC,2600.0,,,,
KRDR,06-28-2017,20:30,SPECI,Normal,20,9,,,9999.0,,18.0,18.0,29.58,1002.1,,,,,,,,,,,,,,,,1000.0,1000.0,BKN,1000.0,BKN,1400.0,OVC,2600.0,,
KRDR,06-28-2017,20:26,SPECI,Normal,10,8,,,9999.0,,18.0,18.0,29.58,1002.1,,,,,,,,,,,,,,,,1200.0,1200.0,BKN,1200.0,OVC,2600.0,,,,
KRDR,06-28-2017,20:16,SPECI,Normal,30,8,,,9999.0,,18.0,18.0,29.58,1002.1,,,,,,,,,,,,,,,,800.0,1000.0,OVC,1000.0,,,,,,
KRDR,06-28-2017,19:56,METAR,Normal,10,8,,,9999.0,,17.9,17.9,29.58,1002.1,,,,,,,,,,,TRACE,,,,,800.0,800.0,OVC,800.0,,,,,,
KRDR,06-28-2017,19:12,SPECI,Normal,30,8,,,9999.0,,17.0,17.0,29.56,1001.5,,,,,,,,,,,,,,,,600.0,700.0,OVC,700.0,,,,,,
KRDR,06-28-2017,19:02,SPECI,Normal,20,8,,,9999.0,,17.0,17.0,29.56,1001.5,,,,,,,,,,,,,,,,600.0,600.0,OVC,600.0,,,,,,
KRDR,06-28-2017,18:56,METAR,Normal,10,8,,,9999.0,Light Drizzle,16.6,16.6,29.57,1001.8,51,,,,,,,,,,.02 IN,,,,,600.0,600.0,BKN,600.0,OVC,1300.0,,,,
KRDR,06-28-2017,18:51,SPECI,Normal,10,8,,,9999.0,Light Drizzle,17.0,17.0,29.57,1001.7,51,,,,,,,,,,,,,,,600.0,600.0,BKN,600.0,OVC,1700.0,,,,
KRDR,06-28-2017,18:44,SPECI,Normal,20,9,,,9999.0,,17.0,17.0,29.56,1001.4,,,,,,,,,,,,,,,,600.0,600.0,BKN,600.0,OVC,1700.0,,,,
KRDR,06-28-2017,18:42,SPECI,Normal,30,8,,,9999.0,Light Drizzle,17.0,17.0,29.56,1001.4,51,,,,,,,,,,,,,,,600.0,600.0,BKN,600.0,OVC,1700.0,,,,
KRDR,06-28-2017,18:27,SPECI,Normal,40,7,,,6400.0,Light Rain/Mist,16.0,16.0,29.55,1001.1,61,10,,,,,,,,,,,,,,1400.0,700.0,FEW,700.0,OVC,1800.0,,,,
KRDR,06-28-2017,18:22,SPECI,Normal,40,7,,,4000.0,Light Rain/Mist,16.0,16.0,29.56,1001.4,61,10,,,,,,,,,,,,,,800.0,900.0,SCT,900.0,OVC,1800.0,,,,
KRDR,06-28-2017,18:13,SPECI,Normal,20,7,,,4000.0,Rain/Mist,16.0,16.0,29.56,1001.4,,,,61,10,,,,,,,,,,,800.0,800.0,BKN,800.0,OVC,1500.0,,,,
KRDR,06-28-2017,18:01,SPECI,Normal,10,9,,,9999.0,Light Rain,16.0,16.0,29.56,1001.4,61,,,,,,,,,,,,,,,600.0,800.0,OVC,800.0,,,,,,
KRDR,06-28-2017,17:56,METAR,Normal,10,9,,,9999.0,Light Rain,15.7,15.7,29.55,1001.1,61,,,,,,,,,,.01 IN,,1.03 IN,,,600.0,600.0,OVC,600.0,,,,,,
KRDR,06-28-2017,17:46,SPECI,Normal,360,9,,,9999.0,Light Rain,16.0,16.0,29.55,1001.1,61,,,,,,,,,,,,,,,600.0,600.0,OVC,600.0,,,,,,
KRDR,06-28-2017,17:11,SPECI,Normal,20,9,,,9999.0,Light Rain,16.0,16.0,29.53,1000.4,61,,,,,,,,,,,,,,,500.0,500.0,OVC,500.0,,,,,,
KRDR,06-28-2017,16:56,METAR,Normal,60,7,,,9999.0,Light Rain,16.2,16.2,29.51,999.7,61,,,,,,,,,,.07 IN,,,,,400.0,400.0,OVC,400.0,,,,,,
KRDR,06-28-2017,16:01,SPECI,Normal,30,7,,,9999.0,Light Rain,16.0,16.0,29.51,999.7,61,,,,,,,,,,,,,,,400.0,400.0,OVC,400.0,,,,,,
KRDR,06-28-2017,15:56,METAR,Normal,20,9,,,9999.0,Light Rain,16.0,16.0,29.51,999.7,61,,,,,,,,,,.14 IN,,,,,500.0,500.0,OVC,500.0,,,,,,
KRDR,06-28-2017,15:01,SPECI,Normal,20,8,,,8000.0,Heavy Rain/Mist,16.0,16.0,29.51,999.6,63,10,,,,,,,,,,,,,,500.0,500.0,OVC,500.0,,,,,,
KRDR,06-28-2017,14:56,METAR,Normal,20,9,,,8000.0,Heavy Rain/Mist,15.8,15.8,29.51,999.6,63,10,,,,,,,,,.3 IN,.81 IN,,,,400.0,400.0,BKN,400.0,OVC,900.0,,,,
KRDR,06-28-2017,14:36,SPECI,Normal,40,5,,,8000.0,Heavy Rain/Mist,16.0,16.0,29.51,999.6,63,10,,,,,,,,,,,,,,400.0,400.0,OVC,400.0,,,,,,
KRDR,06-28-2017,13:56,METAR,Normal,40,7,,,4800.0,Heavy Rain/Mist,16.0,16.0,29.50,999.2,63,10,,,,,,,,,.22 IN,,,,,200.0,300.0,OVC,300.0,,,,,,
KRDR,06-28-2017,13:46,SPECI,Normal,40,8,,,4400.0,Heavy Rain/Mist,16.0,16.0,29.50,999.2,63,10,,,,,,,,,,,,,,200.0,300.0,OVC,300.0,,,,,,
KRDR,06-28-2017,13:36,SPECI,Normal,20,7,,,6400.0,Heavy Rain/Mist,16.0,16.0,29.50,999.2,63,10,,,,,,,,,,,,,,300.0,300.0,BKN,300.0,OVC,1200.0,,,,
KRDR,06-28-2017,13:31,SPECI,Normal,10,6,,,4400.0,Rain/Mist,16.0,16.0,29.50,999.2,62,10,,,,,,,,,,,,,,300.0,300.0,BKN,300.0,OVC,1200.0,,,,
KRDR,06-28-2017,13:26,SPECI,Normal,30,7,,,4800.0,Rain/Mist,16.0,16.0,29.50,999.2,62,10,,,,,,,,,,,,,,300.0,300.0,BKN,300.0,BKN,1200.0,OVC,2700.0,,
KRDR,06-28-2017,13:21,SPECI,Normal,30,6,,,6400.0,Rain/Mist,16.0,16.0,29.51,999.5,62,10,,,,,,,,,,,,,,1200.0,400.0,SCT,400.0,BKN,1200.0,OVC,3600.0,,
KRDR,06-28-2017,12:56,METAR,Normal,40,7,,,6400.0,Rain/Mist,15.9,15.9,29.50,999.2,62,10,,,,,,,,,.29 IN,,,,,3700.0,200.0,FEW,200.0,OVC,3700.0,,,,
KRDR,06-28-2017,12:47,SPECI,Normal,40,6,,,4800.0,Heavy Rain/Mist,16.0,16.0,29.51,999.5,63,10,,,,,,,,,,,,,,3700.0,200.0,FEW,200.0,FEW,700.0,OVC,3700.0,,
KRDR,06-28-2017,12:45,SPECI,Normal,30,6,,,4800.0,Heavy Thunderstorm and Rain or Snow Showers/Mist,16.0,16.0,29.51,999.5,95,10,,,,,,,,,,,,,,3600.0,200.0,FEW,200.0,BKN,3600.0,,,,
KRDR,06-28-2017,12:32,SPECI,Normal,20,6,,,3000.0,Heavy Thunderstorm and Rain or Snow Showers/Mist,15.0,15.0,29.52,999.9,95,10,,,,,,,,,,,,,,1900.0,200.0,FEW,200.0,SCT,600.0,BKN,2100.0,OVC,3300.0
KRDR,06-28-2017,12:17,SPECI,Normal,20,9,,,9999.0,Thunderstorm and Rain or Snow Showers,15.0,15.0,29.52,999.9,92,,,,,,,,,,,,,,,1600.0,300.0,FEW,300.0,OVC,2100.0,,,,
KRDR,06-28-2017,12:01,SPECI,Normal,20,11,,,3600.0,Thunderstorm and Rain or Snow Showers/Mist,15.0,15.0,29.52,999.9,92,10,,,,,,,,,,,,,,300.0,300.0,BKN,300.0,BKN,1500.0,OVC,2000.0,,
KRDR,06-28-2017,11:56,METAR,Normal,20,10,,,3600.0,Thunderstorm and Rain or Snow Showers,15.3,15.3,29.53,1000.2,92,,,,,,,,,,.35 IN,,.62 IN,.62 IN,,1500.0,300.0,SCT,300.0,BKN,1500.0,BKN,2000.0,OVC,2700.0
KRDR,06-28-2017,11:39,SPECI,Normal,30,5,,,9999.0,Heavy Thunderstorm and Rain or Snow Showers,16.0,16.0,29.53,1000.2,95,,,,,,,,,,,,,,,2500.0,400.0,FEW,400.0,FEW,1500.0,OVC,2600.0,,
KRDR,06-28-2017,11:17,SPECI,Normal,10,8,,,9999.0,Thunderstorm and Rain or Snow Showers,16.0,16.0,29.52,999.9,92,,,,,,,,,,,,,,,2400.0,2500.0,BKN,2500.0,OVC,3000.0,,,,
KRDR,06-28-2017,11:06,SPECI,Normal,20,8,,,9999.0,Thunderstorm and Rain or Snow Showers,16.0,16.0,29.53,1000.2,92,,,,,,,,,,,,,,,2600.0,400.0,FEW,400.0,FEW,1200.0,OVC,2600.0,,
KRDR,06-28-2017,11:01,SPECI,Normal,30,9,,,9999.0,Thunderstorm and Rain or Snow Showers/Mist,16.0,16.0,29.53,1000.1,92,10,,,,,,,,,,,,,,2600.0,2800.0,OVC,2800.0,,,,,,
KRDR,06-28-2017,10:56,METAR,Normal,20,9,,,4800.0,Light Rain/Mist,15.6,15.6,29.53,1000.1,61,10,,,,,,,,,.06 IN,,,,,2600.0,400.0,FEW,400.0,BKN,2700.0,OVC,3500.0,,
KRDR,06-28-2017,10:48,SPECI,Normal,10,5,,,9999.0,Light Rain,16.0,16.0,29.53,1000.1,61,,,,,,,,,,,,,,,2600.0,400.0,FEW,400.0,BKN,2700.0,BKN,3500.0,OVC,4400.0
KRDR,06-28-2017,10:43,SPECI,Normal,10,6,,,9999.0,Light Rain,16.0,15.0,29.54,1000.5,61,,,,,,,,,,,,,,,2600.0,2700.0,BKN,2700.0,BKN,3500.0,OVC,4400.0,,
KRDR,06-28-2017,10:38,SPECI,Normal,360,5,,,9999.0,Light Rain,16.0,15.0,29.53,1000.1,61,,,,,,,,,,,,,,,3500.0,2700.0,SCT,2700.0,BKN,3500.0,BKN,4400.0,OVC,6000.0
KRDR,06-28-2017,09:56,METAR,Normal,160,5,,,9999.0,,15.9,14.8,29.50,999.1,,,,,,,,,,,,,,,,5500.0,4500.0,SCT,4500.0,BKN,5500.0,BKN,12000.0,OVC,15000.0
KRDR,06-28-2017,08:56,METAR,Normal,160,7,,,9999.0,,15.4,14.8,29.50,999.1,,,,,,,,,,,.02 IN,.21 IN,,,,16000.0,13000.0,SCT,13000.0,BKN,16000.0,OVC,18000.0,,
KRDR,06-28-2017,08:26,SPECI,Normal,170,8,,,9999.0,,15.0,15.0,29.54,1000.5,,,,,,,,,,,,,,,,6500.0,2000.0,SCT,2000.0,SCT,2600.0,SCT,3500.0,BKN,6500.0
KRDR,06-28-2017,08:11,SPECI,Normal,150,8,,,9999.0,Rain,15.0,15.0,29.52,999.8,,,,61,,,,,,,,,,,,7500.0,7500.0,OVC,7500.0,,,,,,
KRDR,06-28-2017,07:56,METAR,Normal,170,9,,,9999.0,Thunderstorm and Rain or Snow Showers,15.4,15.4,29.53,1000.1,92,,,,,,,,,,.17 IN,,,,,8000.0,8000.0,OVC,8000.0,,,,,,
KRDR,06-28-2017,07:05,SPECI,Normal,220,6,,,9999.0,Thunderstorm and Rain or Snow Showers,16.0,14.0,29.56,1001.2,92,,,,,,,,,,,,,,,7000.0,2700.0,SCT,2700.0,BKN,7000.0,OVC,9600.0,,
KRDR,06-28-2017,06:56,METAR,Normal,200,10,,,9999.0,Thunderstorm and Rain or Snow Showers,15.9,13.9,29.59,1002.2,92,,,,,,,,,,.02 IN,,,,,7000.0,2700.0,FEW,2700.0,OVC,7000.0,,,,
KRDR,06-28-2017,06:38,SPECI,Normal,200,7,,,9999.0,Thunderstorm with Rain or Snow,17.0,13.0,29.59,1002.2,,,,95,,,,,,,,,,,,10000.0,7000.0,SCT,7000.0,BKN,10000.0,,,,
KRDR,06-28-2017,06:15,SPECI,Normal,170,7,,,9999.0,Light Rain,19.0,10.0,29.57,1001.5,61,,,,,,,,,,,,,,,10000.0,8000.0,SCT,8000.0,OVC,10000.0,,,,
KRDR,06-28-2017,05:56,METAR,Normal,140,8,,,9999.0,,18.5,9.8,29.56,1001.1,,,,,,,,,,,,,,,,7500.0,7500.0,OVC,7500.0,,,,,,
KRDR,06-28-2017,04:56,METAR,Normal,130,10,,,9999.0,,18.5,9.3,29.57,1001.5,,,,,,,,,,,,,,,,8000.0,8000.0,OVC,8000.0,,,,,,
KRDR,06-28-2017,03:56,METAR,Normal,130,9,,,9999.0,,18.6,9.1,29.62,1003.2,,,,,,,,,,,,,,,4/8 Partly Cloudy,72000.0,20000.0,SCT,20000.0,,,,,,
KRDR,06-28-2017,02:56,METAR,Normal,140,12,,,9999.0,,20.1,9.0,29.61,1002.9,,,,,,,,,,,,,,,Clear,72000.0,,,,,,,,,
KRDR,06-28-2017,01:56,METAR,Normal,140,13,,,9999.0,,22.2,9.4,29.61,1003.0,,,,,,,,,,,,,,,Clear,72000.0,,,,,,,,,
KRDR,06-28-2017,00:56,METAR,Normal,150,10,,,9999.0,,23.7,10.0,29.63,1003.6,,,,,,,,,,,,,,,Clear,72000.0,,,,,,,,,
KRDR,06-27-2017,23:56,METAR,Normal,160,16,21.0,,9999.0,,24.7,9.0,29.65,1004.3,,,,,,,,,,,,,,,2/8 Mostly Clear,72000.0,20000.0,FEW,20000.0,,,,,,
KRDR,06-27-2017,22:56,METAR,Normal,170,19,26.0,160/28KTS,9999.0,,25.3,8.7,29.67,1005.1,,,,,,,,,,,,,,,Clear,72000.0,,,,,,,,,
KRDR,06-27-2017,21:56,METAR,Normal,170,18,27.0,,9999.0,,25.4,9.2,29.68,1005.5,,,,,,,,,,,,,,,Clear,72000.0,,,,,,,,,
KRDR,06-27-2017,20:56,METAR,Normal,170,18,24.0,170/28KTS,9999.0,,26.0,7.5,29.69,1005.8,,,,,,,,,,,,,,,Clear,72000.0,,,,,,,,,
KRDR,06-27-2017,19:56,METAR,Normal,170,23,27.0,180/28KTS,9999.0,,26.3,7.3,29.71,1006.4,,,,,,,,,,,,,,,Clear,72000.0,,,,,,,,,
KRDR,06-27-2017,18:56,METAR,Normal,190,17,24.0,190/28KTS,9999.0,,25.6,7.7,29.73,1007.1,,,,,,,,,,,,,,,2/8 Mostly Clear,72000.0,21000.0,FEW,21000.0,,,,,,
KRDR,06-27-2017,17:56,METAR,Normal,190,21,27.0,,9999.0,,25.2,7.3,29.75,1007.9,,,,,,,,,,,,,,,Clear,72000.0,,,,,,,,,
KRDR,06-27-2017,16:56,METAR,Normal,190,19,26.0,190/27KTS,9999.0,,23.0,6.7,29.78,1009.0,,,,,,,,,,,,,,,4/8 Partly Cloudy,72000.0,14000.0,FEW,14000.0,FEW,17000.0,SCT,20000.0,,
KRDR,06-27-2017,15:56,METAR,Normal,180,17,,,9999.0,,22.2,6.8,29.82,1010.3,,,,,,,,,,,,,,,Clear,72000.0,,,,,,,,,
KRDR,06-27-2017,14:56,METAR,Normal,190,17,21.0,,9999.0,,20.4,7.0,29.85,1011.3,,,,,,,,,,,,,,,Clear,72000.0,,,,,,,,,
KRDR,06-27-2017,13:56,METAR,Normal,200,13,,,9999.0,,17.0,6.8,29.88,1012.2,,,,,,,,,,,,,,,4/8 Partly Cloudy,72000.0,17000.0,FEW,17000.0,SCT,20000.0,,,,
KRDR,06-27-2017,12:56,METAR,Normal,200,11,,,9999.0,,15.6,6.3,29.91,1013.2,,,,,,,,,,,,,,,2/8 Mostly Clear,72000.0,21000.0,FEW,21000.0,,,,,,
KRDR,06-27-2017,11:56,METAR,Normal,200,9,,,9999.0,,13.2,5.6,29.93,1013.9,,,,,,,,,,,,,,,2/8 Mostly Clear,72000.0,17000.0,FEW,17000.0,,,,,,
KRDR,06-27-2017,10:56,METAR,Normal,190,6,,,9999.0,,11.5,6.0,29.93,1013.9,,,,,,,,,,,,,,,Clear,72000.0,,,,,,,,,
KRDR,06-27-2017,09:56,METAR,Normal,200,6,,,9999.0,,9.3,5.3,29.94,1014.4,,,,,,,,,,,,,,,2/8 Mostly Clear,72000.0,23000.0,FEW,23000.0,,,,,,
KRDR,06-27-2017,08:56,METAR,Normal,190,5,,,9999.0,,9.6,4.6,29.95,1014.8,,,,,,,,,,,,,,,Clear,72000.0,,,,,,,,,
KRDR,06-27-2017,07:56,METAR,Normal,210,4,,,9999.0,,10.1,5.1,29.97,1015.4,,,,,,,,,,,,,,,Clear,72000.0,,,,,,,,,
KRDR,06-27-2017,06:56,METAR,Normal,190,8,,,9999.0,,9.9,4.7,29.98,1015.8,,,,,,,,,,,,,,,Clear,72000.0,,,,,,,,,
KRDR,06-27-2017,05:56,METAR,Normal,200,4,,,9999.0,,8.9,5.8,30.01,1016.9,,,,,,,,,,,,,,,Clear,72000.0,,,,,,,,,
KRDR,06-27-2017,04:56,METAR,Normal,190,4,,,9999.0,,9.9,6.8,30.02,1017.2,,,,,,,,,,,,,,,Clear,72000.0,,,,,,,,,
KRDR,06-27-2017,03:56,METAR,Calm,,0,,,9999.0,,10.2,6.3,30.03,1017.5,,,,,,,,,,,,,,,Clear,72000.0,,,,,,,,,
KRDR,06-27-2017,02:56,METAR,Calm,,0,,,9999.0,,13.9,7.0,30.05,1018.1,,,,,,,,,,,,,,,Clear,72000.0,,,,,,,,,
KRDR,06-27-2017,01:56,METAR,Normal,280,4,,,9999.0,,18.4,5.9,30.06,1018.4,,,,,,,,,,,,,,,Clear,72000.0,,,,,,,,,
KRDR,06-27-2017,00:56,METAR,Normal,290,5,,,9999.0,,21.7,4.3,30.07,1018.7,,,,,,,,,,,,,,,Clear,72000.0,,,,,,,,,
KRDR,06-26-2017,23:56,METAR,Normal,300,5,,,9999.0,,22.3,4.8,30.08,1019.2,,,,,,,,,,,,,,,Clear,72000.0,,,,,,,,,
KRDR,06-26-2017,22:56,METAR,Normal,270,4,,,9999.0,,23.0,4.0,30.10,1019.9,,,,,,,,,,,,,,,Clear,72000.0,,,,,,,,,
KRDR,06-26-2017,21:56,METAR,Normal,270,6,14.0,,9999.0,,22.9,4.4,30.12,1020.7,,,,,,,,,,,,,,,2/8 Mostly Clear,72000.0,8000.0,FEW,8000.0,,,,,,
KRDR,06-26-2017,20:56,METAR,Normal,330,5,,,9999.0,,22.3,3.4,30.14,1021.4,,,,,,,,,,,,,,,Clear,72000.0,,,,,,,,,
KRDR,06-26-2017,19:56,METAR,Normal,320,9,,,9999.0,,23.0,5.4,30.15,1021.7,,,,,,,,,,,,,,,2/8 Mostly Clear,72000.0,8000.0,FEW,8000.0,,,,,,
KRDR,06-26-2017,18:56,METAR,Normal,310,5,,,9999.0,,21.8,3.9,30.17,1022.4,,,,,,,,,,,,,,,2/8 Mostly Clear,72000.0,7500.0,FEW,7500.0,,,,,,
KRDR,06-26-2017,17:56,METAR,Normal,280,11,14.0,,9999.0,,21.6,4.6,30.18,1022.7,,,,,,,,,,,,,,,Clear,72000.0,,,,,,,,,
KRDR,06-26-2017,16:56,METAR,Normal,290,6,,,9999.0,,20.7,4.7,30.20,1023.4,,,,,,,,,,,,,,,Clear,72000.0,,,,,,,,,
KRDR,06-26-2017,15:56,METAR,Normal,310,8,,,9999.0,,19.8,4.7,30.22,1024.1,,,,,,,,,,,,,,,Clear,72000.0,,,,,,,,,
KRDR,06-26-2017,14:56,METAR,Normal,330,8,,,9999.0,,19.0,6.1,30.23,1024.4,,,,,,,,,,,,,,,Clear,72000.0,,,,,,,,,
KRDR,06-26-2017,13:56,METAR,Normal,310,7,,,9999.0,,17.2,7.0,30.23,1024.3,,,,,,,,,,,,,,,Clear,72000.0,,,,,,,,,
KRDR,06-26-2017,12:56,METAR,Normal,310,6,,,9999.0,,14.2,7.3,30.23,,,,,,,,,,,,,,,,Clear,72000.0,,,,,,,,,
KRDR,06-26-2017,11:56,METAR,Normal,300,5,,,9999.0,,10.3,6.6,30.22,,,,,,,,,,,,,,,,Clear,72000.0,,,,,,,,,
KRDR,06-26-2017,10:56,METAR,Normal,290,7,,,9999.0,,6.7,4.9,30.21,1023.8,,,,,,,,,,,,,,,Clear,72000.0,,,,,,,,,
KRDR,06-26-2017,09:56,METAR,Normal,290,5,,,9999.0,,5.0,4.1,30.20,1023.5,,,,,,,,,,,,,,,Clear,72000.0,,,,,,,,,
KRDR,06-26-2017,08:56,METAR,Normal,290,5,,,9999.0,,5.9,4.5,30.20,1023.5,,,,,,,,,,,,,,,Clear,72000.0,,,,,,,,,
KRDR,06-26-2017,07:56,METAR,Normal,300,6,,,9999.0,,5.3,4.6,30.21,1023.9,,,,,,,,,,,,,,,Clear,72000.0,,,,,,,,,
KRDR,06-26-2017,06:56,METAR,Normal,290,5,,,9999.0,,6.0,4.8,30.21,1023.9,,,,,,,,,,,,,,,Clear,72000.0,,,,,,,,,
KRDR,06-26-2017,05:56,METAR,Normal,300,3,,,9999.0,,5.7,4.8,30.21,1023.9,,,,,,,,,,,,,,,Clear,72000.0,,,,,,,,,
KRDR,06-26-2017,04:56,METAR,Normal,310,3,,,9999.0,,6.6,5.4,30.21,1023.9,,,,,,,,,,,,,,,Clear,72000.0,,,,,,,,,
KRDR,06-26-2017,03:56,METAR,Normal,280,3,,,9999.0,,7.1,5.6,30.21,1023.9,,,,,,,,,,,,,,,Clear,72000.0,,,,,,,,,
KRDR,06-26-2017,02:56,METAR,Normal,20,4,,,9999.0,,10.3,6.3,30.20,1023.5,,,,,,,,,,,,,,,Clear,72000.0,,,,,,,,,
KRDR,06-26-2017,01:56,METAR,Normal,40,7,,,9999.0,,14.7,5.7,30.19,1023.0,,,,,,,,,,,,,,,4/8 Partly Cloudy,72000.0,8500.0,SCT,8600.0,,,,,,
KRDR,06-26-2017,00:56,METAR,Normal,20,9,,,9999.0,,16.9,3.6,30.19,1023.1,,,,,,,,,,,,,,,Clear,72000.0,,,,,,,,,
KRDR,06-25-2017,23:56,METAR,Normal,350,10,,,9999.0,,17.4,5.0,30.19,1023.1,,,,,,,,,,,,,,,4/8 Partly Cloudy,72000.0,9000.0,SCT,9100.0,,,,,,
KRDR,06-25-2017,23:08,SPECI,Normal,30,10,18.0,,9999.0,,19.0,5.0,30.18,1022.8,,,,,,,,,,,,,,,4/8 Partly Cloudy,72000.0,6000.0,FEW,6000.0,SCT,8000.0,,,,
KRDR,06-25-2017,22:56,METAR,Normal,350,13,,,9999.0,,18.3,5.2,30.18,1022.8,,,,,,,,,,,,,,,2/8 Mostly Clear,72000.0,6000.0,FEW,6000.0,,,,,,
KRDR,06-25-2017,21:56,METAR,Normal,30,12,20.0,,9999.0,,18.2,5.4,30.18,1022.8,,,,,,,,,,,,,,,4/8 Partly Cloudy,72000.0,8500.0,SCT,8600.0,,,,,,
KRDR,06-25-2017,21:42,SPECI,Normal,10,13,19.0,,9999.0,,19.0,4.0,30.18,1022.8,,,,,,,,,,,,,,,2/8 Mostly Clear,72000.0,9000.0,FEW,9100.0,,,,,,
KRDR,06-25-2017,20:56,METAR,Normal,10,11,,,9999.0,,18.9,5.7,30.19,1023.1,,,,,,,,,,,,,,,4/8 Partly Cloudy,72000.0,5500.0,FEW,5500.0,SCT,7500.0,SCT,9100.0,,
KRDR,06-25-2017,19:56,METAR,Normal,330,7,,,9999.0,,18.0,5.9,30.20,1023.5,,,,,,,,,,,,,,,4/8 Partly Cloudy,72000.0,6000.0,FEW,6000.0,SCT,9600.0,,,,
KRDR,06-25-2017,18:56,METAR,Normal,10,13,16.0,,9999.0,,18.4,5.6,30.21,1023.8,,,,,,,,,,,,,,,4/8 Partly Cloudy,72000.0,5000.0,FEW,5000.0,FEW,6500.0,SCT,20000.0,,
KRDR,06-25-2017,17:56,METAR,Normal,350,10,,,9999.0,,17.6,7.3,30.22,1024.1,,,,,,,,,,,,,,,2/8 Mostly Clear,72000.0,8000.0,FEW,8000.0,,,,,,
KRDR,06-25-2017,16:56,METAR,Normal,20,11,,,9999.0,,16.7,7.3,30.23,1024.4,,,,,,,,,,,,,,,Clear,72000.0,,,,,,,,,
KRDR,06-25-2017,15:56,METAR,Normal,340,9,,,9999.0,,15.4,6.7,30.23,1024.5,,,,,,,,,,,,,,,4/8 Partly Cloudy,72000.0,4000.0,FEW,4000.0,SCT,7500.0,,,,
KRDR,06-25-2017,14:56,METAR,Normal,350,7,,,9999.0,,15.4,7.7,30.24,1024.8,,,,,,,,,,,,,,,,7500.0,7500.0,BKN,7500.0,,,,,,
KRDR,06-25-2017,13:56,METAR,Normal,320,8,,,9999.0,,14.3,7.1,30.24,1024.8,,,,,,,,,,,,,,,,6000.0,6000.0,OVC,6000.0,,,,,,
KRDR,06-25-2017,12:56,METAR,Normal,310,3,,,9999.0,,11.0,6.9,30.23,1024.6,,,,,,,,,,,,,,,2/8 Mostly Clear,72000.0,6500.0,FEW,6500.0,,,,,,
KRDR,06-25-2017,11:56,METAR,Normal,320,4,,,9999.0,,8.8,5.5,30.23,1024.7,,,,,,,,,,,,,,.03 IN,Clear,72000.0,,,,,,,,,
KRDR,06-25-2017,10:56,METAR,Normal,320,5,,,9999.0,,5.8,4.1,30.21,1024.1,,,,,,,,,,,,,,,Clear,72000.0,,,,,,,,,
KRDR,06-25-2017,09:56,METAR,Normal,310,6,,,9999.0,,6.3,4.3,30.20,1023.7,,,,,,,,,,,,,,,Clear,72000.0,,,,,,,,,
KRDR,06-25-2017,08:56,METAR,Normal,320,6,,,9999.0,,6.8,4.6,30.20,1023.7,,,,,,,,,,,,,,,Clear,72000.0,,,,,,,,,
KRDR,06-25-2017,07:56,METAR,Normal,320,6,,,9999.0,,7.7,5.2,30.20,1023.7,,,,,,,,,,,,,,,Clear,72000.0,,,,,,,,,
KRDR,06-25-2017,06:56,METAR,Normal,320,5,,,9999.0,,7.5,5.1,30.19,1023.3,,,,,,,,,,,,,,,Clear,72000.0,,,,,,,,,
KRDR,06-25-2017,05:56,METAR,Normal,310,7,,,9999.0,,8.6,5.5,30.20,1023.6,,,,,,,,,,,,,TRACE,,Clear,72000.0,,,,,,,,,
KRDR,06-25-2017,04:56,METAR,Normal,330,8,,,9999.0,,11.0,6.1,30.19,1023.2,,,,,,,,,,,,,,,,11000.0,8500.0,FEW,8600.0,OVC,11000.0,,,,
KRDR,06-25-2017,03:56,METAR,Normal,330,7,,,9999.0,,11.0,7.7,30.19,1023.2,,,,,,,,,,,,,,,,8000.0,8000.0,OVC,8000.0,,,,,,
KRDR,06-25-2017,02:56,METAR,Normal,330,7,,,9999.0,,10.8,7.7,30.18,1022.8,,,,,,,,,,,,TRACE,,,,6000.0,5000.0,FEW,5000.0,OVC,6000.0,,,,
KRDR,06-25-2017,01:56,METAR,Normal,360,13,19.0,,9999.0,,11.2,5.5,30.16,1022.2,,,,,,,,,,,,,,,,5500.0,3800.0,SCT,3800.0,OVC,5500.0,,,,
KRDR,06-25-2017,00:56,METAR,Normal,350,15,21.0,350/29KTS,9999.0,,10.8,7.5,30.15,1021.9,,,,,,,,,,,TRACE,,,,,3800.0,3800.0,OVC,3800.0,,,,,,
KRDR,06-25-2017,00:42,SPECI,Normal,360,14,26.0,,9999.0,,10.0,8.0,30.15,1021.9,,,,,,,,,,,,,,,,3300.0,3300.0,OVC,3300.0,,,,,,
KRDR,06-25-2017,00:32,SPECI,Normal,350,18,23.0,,9999.0,Light Rain,11.0,8.0,30.15,1021.9,61,,,,,,,,,,,,,,,3300.0,3300.0,OVC,3300.0,,,,,,
KRDR,06-25-2017,00:26,SPECI,Normal,350,16,22.0,,9999.0,,10.0,8.0,30.15,1021.9,,,,,,,,,,,,,,,,3000.0,1100.0,FEW,1100.0,OVC,3000.0,,,,
KRDR,06-25-2017,00:21,SPECI,Normal,350,15,,,9999.0,Light Rain,10.0,8.0,30.15,1021.9,61,,,,,,,,,,,,,,,3000.0,1000.0,FEW,1000.0,FEW,2200.0,BKN,3000.0,OVC,3500.0
KRDR,06-25-2017,00:11,SPECI,Normal,350,14,,,9999.0,Light Rain,10.0,9.0,30.15,1021.9,61,,,,,,,,,,,,,,,2300.0,1000.0,FEW,1000.0,BKN,2800.0,OVC,3500.0,,
KRDR,06-25-2017,00:07,SPECI,Normal,340,15,20.0,,9999.0,,10.0,9.0,30.15,1021.9,,,,,,,,,,,,,,,,2300.0,1000.0,FEW,1000.0,BKN,2500.0,OVC,3000.0,,
KRDR,06-24-2017,23:56,METAR,Normal,360,14,22.0,,9999.0,Light Rain,10.4,9.6,30.15,1021.9,61,,,,,,,,,,.01 IN,,.02 IN,,,2600.0,1000.0,FEW,1000.0,FEW,2100.0,OVC,2600.0,,
KRDR,06-24-2017,23:24,SPECI,Normal,360,17,21.0,,9999.0,Light Rain,11.0,10.0,30.13,1021.3,61,,,,,,,,,,,,,,,700.0,1100.0,FEW,1100.0,SCT,1700.0,OVC,2100.0,,
KRDR,06-24-2017,23:16,SPECI,Normal,360,15,21.0,,9999.0,Light Rain,11.0,10.0,30.13,1021.3,61,,,,,,,,,,,,,,,1500.0,1200.0,SCT,1200.0,OVC,2100.0,,,,
KRDR,06-24-2017,23:01,SPECI,Normal,350,12,20.0,,9999.0,Light Rain,11.0,9.0,30.13,1021.3,61,,,,,,,,,,,,,,,1700.0,1900.0,OVC,1900.0,,,,,,
KRDR,06-24-2017,22:56,METAR,Normal,350,14,,,9999.0,Light Drizzle,11.0,8.9,30.13,1021.3,51,,,,,,,,,,TRACE,,,,,2000.0,2000.0,OVC,2000.0,,,,,,
KRDR,06-24-2017,22:55,SPECI,Normal,350,14,,,9999.0,Light Drizzle,11.0,9.0,30.13,1021.3,51,,,,,,,,,,,,,,,2000.0,2000.0,OVC,2000.0,,,,,,
KRDR,06-24-2017,22:45,SPECI,Normal,330,12,,,9999.0,,11.0,9.0,30.12,1020.9,,,,,,,,,,,,,,,,2000.0,2000.0,OVC,2000.0,,,,,,
KRDR,06-24-2017,22:30,SPECI,Normal,340,14,18.0,,9999.0,,11.0,9.0,30.12,1020.9,,,,,,,,,,,,,,,,1900.0,1900.0,BKN,1900.0,OVC,2600.0,,,,
KRDR,06-24-2017,22:26,SPECI,Normal,340,14,18.0,,9999.0,,11.0,10.0,30.12,1020.9,,,,,,,,,,,,,,,,2000.0,1900.0,SCT,1900.0,OVC,2800.0,,,,
KRDR,06-24-2017,21:56,METAR,Normal,340,16,22.0,,9999.0,Light Rain,11.4,10.1,30.11,1020.5,61,,,,,,,,,,.01 IN,,,,,1300.0,700.0,FEW,700.0,FEW,1300.0,OVC,2300.0,,
KRDR,06-24-2017,21:47,SPECI,Normal,360,15,21.0,,9999.0,Light Drizzle,11.0,10.0,30.10,1020.2,51,,,,,,,,,,,,,,,1300.0,700.0,FEW,700.0,OVC,2200.0,,,,
KRDR,06-24-2017,21:45,SPECI,Normal,350,14,21.0,,9999.0,,11.0,10.0,30.10,1020.2,,,,,,,,,,,,,,,,1900.0,700.0,FEW,700.0,OVC,2200.0,,,,
KRDR,06-24-2017,21:31,SPECI,Normal,360,17,25.0,,9999.0,Rain/Mist,11.0,10.0,30.10,1020.2,62,10,,,,,,,,,,,,,,1300.0,800.0,FEW,800.0,OVC,2000.0,,,,
KRDR,06-24-2017,21:22,SPECI,Normal,350,13,,,8000.0,Light Rain/Mist,12.0,10.0,30.10,1020.2,61,10,,,,,,,,,,,,,,1900.0,2000.0,OVC,2000.0,,,,,,
KRDR,06-24-2017,21:12,SPECI,Normal,10,13,,,9999.0,Light Rain,12.0,10.0,30.09,1019.8,61,,,,,,,,,,,,,,,2000.0,1700.0,SCT,1700.0,OVC,2600.0,,,,
KRDR,06-24-2017,20:56,METAR,Normal,10,14,23.0,,9999.0,,13.3,8.6,30.09,1019.8,,,,,,,,,,,,TRACE,,,,2200.0,2500.0,OVC,2500.0,,,,,,
KRDR,06-24-2017,19:56,METAR,Normal,350,16,23.0,330/27KTS,9999.0,,12.7,8.8,30.07,1019.2,,,,,,,,,,,TRACE,,,,,2100.0,2100.0,OVC,2100.0,,,,,,
KRDR,06-24-2017,19:31,SPECI,Normal,360,17,23.0,,9999.0,,13.0,9.0,30.06,1018.8,,,,,,,,,,,,,,,,1900.0,2100.0,OVC,2100.0,,,,,,
KRDR,06-24-2017,19:11,SPECI,Normal,340,13,,,9999.0,,12.0,10.0,30.06,1018.9,,,,,,,,,,,,,,,,1700.0,1700.0,OVC,1700.0,,,,,,
KRDR,06-24-2017,18:56,METAR,Normal,340,15,20.0,,9999.0,Light Rain,12.5,10.2,30.05,1018.5,61,,,,,,,,,,TRACE,,,,,1700.0,1700.0,OVC,1700.0,,,,,,
KRDR,06-24-2017,18:54,SPECI,Normal,340,14,20.0,,9999.0,Light Rain,13.0,10.0,30.05,1018.5,61,,,,,,,,,,,,,,,1700.0,1700.0,OVC,1700.0,,,,,,
KRDR,06-24-2017,18:47,SPECI,Normal,330,15,23.0,,9999.0,,13.0,10.0,30.05,1018.5,,,,,,,,,,,,,,,,1400.0,1900.0,BKN,1900.0,OVC,2500.0,,,,
KRDR,06-24-2017,18:35,SPECI,Normal,330,14,23.0,,9999.0,Light Rain,12.0,10.0,30.05,1018.5,61,,,,,,,,,,,,,,,1900.0,900.0,FEW,900.0,BKN,1900.0,OVC,2500.0,,
KRDR,06-24-2017,18:34,SPECI,Normal,340,15,23.0,,9999.0,,12.0,10.0,30.05,1018.5,,,,,,,,,,,,,,,,1900.0,900.0,FEW,900.0,BKN,1900.0,OVC,2500.0,,
KRDR,06-24-2017,18:32,SPECI,Normal,330,14,23.0,,9999.0,,12.0,10.0,30.05,1018.5,,,,,,,,,,,,,,,,1900.0,1900.0,BKN,1900.0,OVC,2400.0,,,,
KRDR,06-24-2017,18:31,SPECI,Normal,330,17,23.0,,9999.0,Light Drizzle,12.0,10.0,30.05,1018.5,51,,,,,,,,,,,,,,,1800.0,1900.0,BKN,1900.0,OVC,2400.0,,,,
KRDR,06-24-2017,17:56,METAR,Normal,330,12,23.0,330/26KTS,9999.0,Light Rain,12.2,9.7,30.04,1018.1,61,,,,,,,,,,.01 IN,,.01 IN,,,1400.0,1700.0,SCT,1700.0,OVC,2400.0,,,,
KRDR,06-24-2017,17:43,SPECI,Normal,330,16,21.0,,9999.0,Light Drizzle,12.0,10.0,30.04,1018.1,51,,,,,,,,,,,,,,,1300.0,1500.0,SCT,1500.0,OVC,2400.0,,,,
KRDR,06-24-2017,17:37,SPECI,Normal,310,12,18.0,,9999.0,,12.0,11.0,30.04,1018.1,,,,,,,,,,,,,,,,1300.0,1500.0,SCT,1500.0,BKN,2100.0,OVC,2500.0,,
KRDR,06-24-2017,17:24,SPECI,Normal,330,13,21.0,,9999.0,Light Rain,12.0,10.0,30.04,1018.1,61,,,,,,,,,,,,,,,1600.0,1100.0,FEW,1100.0,SCT,2000.0,OVC,2500.0,,
KRDR,06-24-2017,16:56,METAR,Normal,340,17,22.0,,9999.0,Light Rain,13.0,8.9,30.03,1017.7,61,,,,,,,,,,TRACE,,,,,2400.0,2500.0,OVC,2500.0,,,,,,
KRDR,06-24-2017,16:46,SPECI,Normal,320,15,22.0,,9999.0,Light Drizzle,14.0,8.0,30.03,1017.7,51,,,,,,,,,,,,,,,2400.0,2500.0,OVC,2500.0,,,,,,
KRDR,06-24-2017,16:29,SPECI,Normal,310,14,19.0,,9999.0,,13.0,8.0,30.02,1017.3,,,,,,,,,,,,,,,,2400.0,2500.0,OVC,2500.0,,,,,,
KRDR,06-24-2017,16:19,SPECI,Normal,330,13,18.0,,9999.0,Light Drizzle,13.0,8.0,30.02,1017.4,51,,,,,,,,,,,,,,,2600.0,2600.0,BKN,2600.0,BKN,3200.0,OVC,3900.0,,
KRDR,06-24-2017,16:04,SPECI,Normal,320,13,19.0,,9999.0,,13.0,7.0,30.02,1017.3,,,,,,,,,,,,,,,,2600.0,2700.0,BKN,2700.0,OVC,3700.0,,,,
KRDR,06-24-2017,15:59,SPECI,Normal,320,16,19.0,,9999.0,,12.0,8.0,30.02,1017.4,,,,,,,,,,,,,,,,2600.0,2700.0,BKN,2700.0,OVC,3500.0,,,,
KRDR,06-24-2017,15:56,METAR,Normal,330,11,,,9999.0,Light Drizzle,12.4,7.7,30.02,1017.4,51,,,,,,,,,,TRACE,,,,,2600.0,2700.0,BKN,2700.0,OVC,3300.0,,,,
KRDR,06-24-2017,15:50,SPECI,Normal,330,14,22.0,,9999.0,Light Drizzle,13.0,7.0,30.02,1017.3,51,,,,,,,,,,,,,,,2600.0,2900.0,BKN,2900.0,OVC,3600.0,,,,
KRDR,06-24-2017,15:26,SPECI,Normal,320,14,22.0,,9999.0,,13.0,7.0,30.02,1017.3,,,,,,,,,,,,,,,,2900.0,2900.0,BKN,2900.0,OVC,3500.0,,,,
KRDR,06-24-2017,14:56,METAR,Normal,330,13,,,9999.0,,13.9,7.2,30.01,1016.9,,,,,,,,,,,,TRACE,,,,3600.0,2900.0,FEW,2900.0,BKN,3600.0,,,,
KRDR,06-24-2017,14:46,SPECI,Normal,330,15,22.0,,9999.0,,13.0,7.0,30.01,1017.0,,,,,,,,,,,,,,,,3600.0,2900.0,SCT,2900.0,BKN,3600.0,,,,
KRDR,06-24-2017,14:41,SPECI,Normal,330,16,22.0,,9999.0,,14.0,7.0,30.01,1016.9,,,,,,,,,,,,,,,,2900.0,2900.0,BKN,2900.0,BKN,3500.0,,,,
KRDR,06-24-2017,13:56,METAR,Normal,330,12,17.0,,9999.0,,12.5,7.8,30.00,1016.6,,,,,,,,,,,,,,,Clear,72000.0,,,,,,,,,
KRDR,06-24-2017,12:56,METAR,Normal,310,7,,,9999.0,,10.3,8.7,30.00,1016.6,,,,,,,,,,,TRACE,,,,,4700.0,3600.0,FEW,3600.0,OVC,4700.0,,,,
KRDR,06-24-2017,12:29,SPECI,Normal,310,7,,,9999.0,,10.0,9.0,29.99,1016.3,,,,,,,,,,,,,,,,3600.0,3600.0,BKN,3600.0,OVC,4600.0,,,,
KRDR,06-24-2017,12:14,SPECI,Normal,320,8,,,9999.0,Light Rain,10.0,9.0,29.99,1016.3,61,,,,,,,,,,,,,,,3800.0,3800.0,BKN,3800.0,OVC,4800.0,,,,
KRDR,06-24-2017,12:08,SPECI,Normal,320,6,,,9999.0,,10.0,9.0,29.99,1016.3,,,,,,,,,,,,,,,,3800.0,3800.0,BKN,3800.0,OVC,4800.0,,,,
KRDR,06-24-2017,11:56,METAR,Normal,330,9,,,9999.0,Rain,10.0,8.4,29.99,1016.3,62,,,,,,,,,,.01 IN,,.04 IN,.04 IN,,5500.0,4000.0,SCT,4000.0,BKN,5500.0,BKN,9100.0,,
KRDR,06-24-2017,11:39,SPECI,Normal,330,10,,,9999.0,Light Drizzle,10.0,8.0,29.99,1016.3,51,,,,,,,,,,,,,,4/8 Partly Cloudy,72000.0,5000.0,FEW,5000.0,FEW,7000.0,SCT,9100.0,,
KRDR,06-24-2017,10:56,METAR,Normal,310,7,,,9999.0,,9.3,7.6,29.98,1016.0,,,,,,,,,,,.03 IN,,,,,4300.0,2900.0,SCT,2900.0,OVC,4300.0,,,,
KRDR,06-24-2017,10:51,SPECI,Normal,310,7,,,9999.0,,9.0,8.0,29.98,1016.0,,,,,,,,,,,,,,,,4300.0,2900.0,SCT,2900.0,OVC,4300.0,,,,
KRDR,06-24-2017,10:05,SPECI,Normal,330,11,16.0,,9999.0,Light Drizzle,11.0,5.0,29.97,1015.6,51,,,,,,,,,,,,,,,7000.0,4000.0,FEW,4000.0,SCT,4700.0,BKN,7000.0,OVC,9100.0
KRDR,06-24-2017,09:56,METAR,Normal,320,10,,,9999.0,,10.6,5.1,29.97,1015.5,,,,,,,,,,,,,,,,7000.0,7000.0,BKN,7000.0,OVC,9100.0,,,,
KRDR,06-24-2017,08:56,METAR,Normal,300,6,,,9999.0,,8.4,5.0,29.96,1015.3,,,,,,,,,,,,,,,4/8 Partly Cloudy,72000.0,7000.0,SCT,7000.0,,,,,,
KRDR,06-24-2017,07:56,METAR,Normal,290,6,,,9999.0,,8.8,5.0,29.97,1015.6,,,,,,,,,,,,,,,Clear,72000.0,,,,,,,,,
KRDR,06-24-2017,06:56,METAR,Normal,300,6,,,9999.0,,8.8,4.8,29.98,1015.9,,,,,,,,,,,,,,,Clear,72000.0,,,,,,,,,
KRDR,06-24-2017,05:56,METAR,Normal,310,5,,,9999.0,,10.0,4.6,29.98,1015.9,,,,,,,,,,,,,,,Clear,72000.0,,,,,,,,,
KRDR,06-24-2017,04:56,METAR,Normal,310,7,,,9999.0,,11.5,4.5,29.98,1015.9,,,,,,,,,,,,,,,,6500.0,6500.0,BKN,6500.0,,,,,,
KRDR,06-24-2017,03:56,METAR,Normal,320,10,,,9999.0,,12.5,4.7,29.99,1016.2,,,,,,,,,,,,,,,,6000.0,6000.0,BKN,6000.0,,,,,,
KRDR,06-24-2017,02:56,METAR,Normal,320,11,,,9999.0,,13.3,4.2,29.98,1015.9,,,,,,,,,,,,,,,,6000.0,6000.0,OVC,6000.0,,,,,,
KRDR,06-24-2017,01:56,METAR,Normal,320,10,19.0,310/27KTS,9999.0,,13.9,3.1,29.98,1015.9,,,,,,,,,,,,,,,,5500.0,5500.0,OVC,5500.0,,,,,,
KRDR,06-24-2017,00:56,METAR,Normal,340,15,22.0,350/26KTS,9999.0,,15.2,4.8,29.96,1015.2,,,,,,,,,,,,,,,,6000.0,6000.0,OVC,6000.0,,,,,,
KRDR,06-23-2017,23:56,METAR,Normal,340,18,27.0,330/27KTS,9999.0,,16.2,4.6,29.94,1014.5,,,,,,,,,,,,,,,,6000.0,6000.0,BKN,6000.0,,,,,,
KRDR,06-23-2017,22:56,METAR,Normal,340,12,23.0,340/30KTS,9999.0,,17.0,5.0,29.93,1014.1,,,,,,,,,,,,,,,,6500.0,6500.0,BKN,6500.0,,,,,,
KRDR,06-23-2017,21:56,METAR,Normal,320,14,23.0,,9999.0,,18.4,5.6,29.91,1013.4,,,,,,,,,,,,,,,,6500.0,6500.0,BKN,6500.0,,,,,,
KRDR,06-23-2017,20:56,METAR,Normal,330,16,23.0,330/27KTS,9999.0,,17.9,5.1,29.90,1013.0,,,,,,,,,,,,,,,,6000.0,6000.0,BKN,6000.0,BKN,16000.0,,,,
KRDR,06-23-2017,19:56,METAR,Normal,330,16,25.0,340/28KTS,9999.0,,18.7,5.5,29.90,1013.0,,,,,,,,,,,,,,,2/8 Mostly Clear,72000.0,5500.0,FEW,5500.0,,,,,,
KRDR,06-23-2017,18:56,METAR,Normal,320,15,24.0,320/28KTS,9999.0,,18.3,7.4,29.89,1012.7,,,,,,,,,,,,,,,,5000.0,5000.0,BKN,5000.0,,,,,,
KRDR,06-23-2017,17:56,METAR,Normal,330,13,28.0,350/28KTS,9999.0,,17.4,8.0,29.89,1012.7,,,,,,,,,,,,,TRACE,,,3900.0,3900.0,BKN,3900.0,,,,,,
KRDR,06-23-2017,17:01,SPECI,Normal,330,14,20.0,,9999.0,,16.0,9.0,29.89,1012.7,,,,,,,,,,,,,,,,3200.0,3200.0,BKN,3200.0,OVC,5000.0,,,,
KRDR,06-23-2017,16:56,METAR,Normal,330,15,,,9999.0,,15.5,8.7,29.89,1012.7,,,,,,,,,,,,,,,,2900.0,2900.0,BKN,2900.0,OVC,3700.0,,,,
KRDR,06-23-2017,16:31,SPECI,Normal,350,14,20.0,,9999.0,,15.0,9.0,29.88,1012.4,,,,,,,,,,,,,,,,2800.0,2800.0,OVC,2800.0,,,,,,
KRDR,06-23-2017,16:21,SPECI,Normal,350,16,24.0,,9999.0,,15.0,9.0,29.88,1012.4,,,,,,,,,,,,,,,,3000.0,3000.0,OVC,3000.0,,,,,,
KRDR,06-23-2017,15:56,METAR,Normal,330,17,22.0,,9999.0,,15.4,9.1,29.87,1012.0,,,,,,,,,,,,,,,,2700.0,2700.0,OVC,2700.0,,,,,,
KRDR,06-23-2017,14:56,METAR,Normal,340,15,23.0,,9999.0,,15.0,9.4,29.85,1011.3,,,,,,,,,,,,TRACE,,,,2500.0,2500.0,OVC,2500.0,,,,,,
KRDR,06-23-2017,13:56,METAR,Normal,340,14,18.0,,9999.0,,14.5,9.9,29.84,1010.9,,,,,,,,,,,TRACE,,,,,2000.0,2100.0,OVC,2100.0,,,,,,
KRDR,06-23-2017,13:31,SPECI,Normal,330,13,22.0,,9999.0,,14.0,10.0,29.84,1010.9,,,,,,,,,,,,,,,,1900.0,2000.0,OVC,2000.0,,,,,,
KRDR,06-23-2017,13:18,SPECI,Normal,330,17,23.0,,9999.0,Light Rain,14.0,10.0,29.83,1010.6,61,,,,,,,,,,,,,,,2000.0,2100.0,OVC,2100.0,,,,,,
KRDR,06-23-2017,12:56,METAR,Normal,320,16,21.0,,9999.0,,14.7,10.3,29.82,1010.2,,,,,,,,,,,,,,,,2000.0,2100.0,BKN,2100.0,OVC,8000.0,,,,
KRDR,06-23-2017,11:56,METAR,Normal,320,16,20.0,,9999.0,,14.9,10.7,29.79,1009.1,,,,,,,,,,,,,,,,2100.0,2100.0,BKN,2100.0,BKN,2900.0,OVC,7500.0,,
KRDR,06-23-2017,11:46,SPECI,Normal,320,14,,,9999.0,,15.0,11.0,29.79,1009.1,,,,,,,,,,,,,,,,2300.0,2100.0,SCT,2100.0,BKN,2900.0,BKN,3800.0,BKN,7500.0
KRDR,06-23-2017,11:21,SPECI,Normal,320,11,,,9999.0,,15.0,11.0,29.78,1008.8,,,,,,,,,,,,,,,,3100.0,3100.0,BKN,3100.0,,,,,,
KRDR,06-23-2017,10:56,METAR,Normal,340,12,,,9999.0,,14.9,11.1,29.76,1008.1,,,,,,,,,,,,,,,,2800.0,2800.0,OVC,2800.0,,,,,,
KRDR,06-23-2017,10:41,SPECI,Normal,330,11,,,9999.0,,15.0,11.0,29.76,1008.1,,,,,,,,,,,,,,,,2400.0,2500.0,BKN,2500.0,BKN,8000.0,,,,
KRDR,06-23-2017,09:56,METAR,Normal,330,12,,,9999.0,,14.8,11.6,29.74,1007.5,,,,,,,,,,,,,,,4/8 Partly Cloudy,72000.0,8000.0,SCT,8000.0,,,,,,
KRDR,06-23-2017,08:56,METAR,Normal,320,13,21.0,,9999.0,,15.5,11.3,29.72,1006.7,,,,,,,,,,,,,,,,5000.0,5000.0,BKN,5000.0,,,,,,
KRDR,06-23-2017,07:56,METAR,Normal,310,13,18.0,,9999.0,,15.8,11.2,29.70,1006.0,,,,,,,,,,,,,,,,9000.0,9000.0,BKN,9100.0,,,,,,
KRDR,06-23-2017,06:56,METAR,Normal,290,10,,,9999.0,,14.8,10.2,29.70,1006.0,,,,,,,,,,,,,,,Clear,72000.0,,,,,,,,,
KRDR,06-23-2017,05:56,METAR,Normal,300,10,16.0,,9999.0,,14.9,9.0,29.70,1006.0,,,,,,,,,,,,,,,Clear,72000.0,,,,,,,,,
KRDR,06-23-2017,04:56,METAR,Normal,310,14,25.0,,9999.0,,15.4,8.2,29.70,1006.0,,,,,,,,,,,,,,,Clear,72000.0,,,,,,,,,
KRDR,06-23-2017,03:56,METAR,Normal,310,11,21.0,340/28KTS,9999.0,,16.1,7.3,29.71,1006.4,,,,,,,,,,,,,,,2/8 Mostly Clear,72000.0,14000.0,FEW,14000.0,,,,,,
KRDR,06-23-2017,02:56,METAR,Normal,300,6,,,9999.0,,16.8,6.6,29.70,1006.2,,,,,,,,,,,,,,,Clear,72000.0,,,,,,,,,
KRDR,06-23-2017,01:56,METAR,Normal,300,10,18.0,,9999.0,,19.3,5.7,29.69,1005.8,,,,,,,,,,,,,,,4/8 Partly Cloudy,72000.0,12000.0,SCT,12000.0,,,,,,
KRDR,06-23-2017,00:56,METAR,Normal,320,13,23.0,300/26KTS,9999.0,,21.2,4.7,29.68,1005.4,,,,,,,,,,,,,,,Clear,72000.0,,,,,,,,,
KRDR,06-22-2017,23:56,METAR,Normal,300,18,25.0,300/28KTS,9999.0,,22.0,3.1,29.67,1005.1,,,,,,,,,,,,,,,2/8 Mostly Clear,72000.0,12000.0,FEW,12000.0,,,,,,
KRDR,06-22-2017,22:56,METAR,Normal,310,20,27.0,290/29KTS,9999.0,,22.1,3.2,29.68,1005.5,,,,,,,,,,,,,,,4/8 Partly Cloudy,72000.0,9000.0,FEW,9100.0,SCT,11000.0,,,,
KRDR,06-22-2017,21:56,METAR,Normal,300,15,23.0,290/31KTS,9999.0,,22.0,2.6,29.69,1005.8,,,,,,,,,,,,,,,2/8 Mostly Clear,72000.0,9500.0,FEW,9600.0,,,,,,
KRDR,06-22-2017,20:56,METAR,Normal,290,20,28.0,290/29KTS,9999.0,,23.3,3.8,29.69,1005.8,,,,,,,,,,,,,,,2/8 Mostly Clear,72000.0,9000.0,FEW,9100.0,,,,,,
KRDR,06-22-2017,19:56,METAR,Normal,310,19,30.0,290/33KTS,9999.0,,23.3,4.3,29.68,1005.4,,,,,,,,,,,,,,,Clear,72000.0,,,,,,,,,
KRDR,06-22-2017,18:56,METAR,Normal,290,13,25.0,290/28KTS,9999.0,,22.8,7.3,29.68,1005.4,,,,,,,,,,,,,,,2/8 Mostly Clear,72000.0,7000.0,FEW,7000.0,,,,,,
KRDR,06-22-2017,17:56,METAR,Normal,330,13,23.0,,9999.0,,22.6,7.9,29.69,1005.8,,,,,,,,,,,,,,,2/8 Mostly Clear,72000.0,6500.0,FEW,6500.0,,,,,,
KRDR,06-22-2017,16:56,METAR,Normal,300,9,17.0,,9999.0,,22.7,10.8,29.69,1005.7,,,,,,,,,,,,,,,Clear,72000.0,,,,,,,,,
KRDR,06-22-2017,15:56,METAR,Normal,270,10,,,9999.0,,21.2,10.4,29.70,1006.0,,,,,,,,,,,,,,,Clear,72000.0,,,,,,,,,
KRDR,06-22-2017,15:42,SPECI,Normal,270,12,,,9999.0,,21.0,10.0,29.70,1006.0,,,,,,,,,,,,,,,Clear,72000.0,,,,,,,,,
KRDR,06-22-2017,14:56,METAR,Normal,240,6,,,9999.0,,17.3,10.7,29.72,1006.8,,,,,,,,,,,,,,,,14000.0,10000.0,FEW,10000.0,BKN,14000.0,,,,
KRDR,06-22-2017,13:56,METAR,Normal,250,6,,,9999.0,,15.8,9.5,29.72,1006.7,,,,,,,,,,,,,,,,11000.0,11000.0,BKN,11000.0,,,,,,
KRDR,06-22-2017,12:56,METAR,Normal,280,6,,,9999.0,,15.8,8.3,29.72,1006.6,,,,,,,,,,,,,,,,10000.0,10000.0,BKN,10000.0,,,,,,
KRDR,06-22-2017,11:56,METAR,Normal,290,11,,,9999.0,,14.3,7.8,29.73,1007.0,,,,,,,,,,,,,,.03 IN,4/8 Partly Cloudy,72000.0,10000.0,SCT,10000.0,,,,,,
KRDR,06-22-2017,10:56,METAR,Normal,260,5,,,9999.0,,11.0,6.9,29.70,1006.0,,,,,,,,,,,,,,,,15000.0,12000.0,SCT,12000.0,BKN,15000.0,,,,
KRDR,06-22-2017,09:56,METAR,Normal,290,4,,,9999.0,,11.6,6.3,29.68,1005.3,,,,,,,,,,,,,,,Clear,72000.0,,,,,,,,,
KRDR,06-22-2017,08:56,METAR,Normal,300,4,,,9999.0,,12.4,6.0,29.67,1005.0,,,,,,,,,,,,,,,,17000.0,17000.0,BKN,17000.0,,,,,,
KRDR,06-22-2017,07:56,METAR,Normal,310,6,,,9999.0,,12.2,5.8,29.68,1005.4,,,,,,,,,,,,,,,Clear,72000.0,,,,,,,,,
KRDR,06-22-2017,06:56,METAR,Normal,300,7,,,9999.0,,12.5,6.3,29.69,1005.7,,,,,,,,,,,,,,,Clear,72000.0,,,,,,,,,
KRDR,06-22-2017,05:56,METAR,Normal,300,7,,,9999.0,,13.1,7.5,29.69,1005.8,,,,,,,,,,,,,,,Clear,72000.0,,,,,,,,,
KRDR,06-22-2017,04:56,METAR,Normal,280,3,,,9999.0,,14.7,9.3,29.69,1005.8,,,,,,,,,,,,,,,Clear,72000.0,,,,,,,,,
KRDR,06-22-2017,03:56,METAR,Normal,320,5,,,9999.0,,18.2,9.3,29.69,,,,,,,,,,,,,,,,Clear,72000.0,,,,,,,,,
KRDR,06-22-2017,02:56,METAR,Normal,330,7,,,9999.0,,19.6,10.0,29.67,,,,,,,,,,,,,,,,Clear,72000.0,,,,,,,,,
KRDR,06-22-2017,01:56,METAR,Normal,330,10,,,9999.0,,23.2,10.3,29.64,,,,,,,,,,,,,,,,Clear,72000.0,,,,,,,,,
KRDR,06-22-2017,00:56,METAR,Normal,330,15,19.0,,9999.0,,25.2,12.7,29.63,1003.5,,,,,,,,,,,,,,,Clear,72000.0,,,,,,,,,
KRDR,06-21-2017,23:56,METAR,Normal,300,17,22.0,300/28KTS,9999.0,,26.4,15.1,29.61,1002.9,,,,,,,,,,,,,,,Clear,72000.0,,,,,,,,,
KRDR,06-21-2017,22:56,METAR,Normal,290,14,,,9999.0,,28.3,14.9,29.60,1002.6,,,,,,,,,,,,,,,2/8 Mostly Clear,72000.0,6000.0,FEW,6000.0,,,,,,
KRDR,06-21-2017,21:56,METAR,Normal,260,10,,,9999.0,,28.2,17.1,29.60,1002.5,,,,,,,,,,,,,,,,6000.0,6000.0,BKN,6000.0,BKN,8600.0,,,,
KRDR,06-21-2017,20:56,METAR,Normal,210,14,,,9999.0,,28.7,15.9,29.61,1002.8,,,,,,,,,,,,,,,,6000.0,6000.0,BKN,6000.0,,,,,,
KRDR,06-21-2017,19:56,METAR,Normal,180,15,23.0,,9999.0,,26.4,14.2,29.63,1003.6,,,,,,,,,,,,,,,Clear,72000.0,,,,,,,,,
KRDR,06-21-2017,18:56,METAR,Normal,160,14,22.0,,9999.0,,24.1,13.9,29.66,1004.7,,,,,,,,,,,,,,,2/8 Mostly Clear,72000.0,14000.0,FEW,14000.0,,,,,,
KRDR,06-21-2017,17:56,METAR,Normal,140,14,19.0,,9999.0,,21.8,14.4,29.69,1005.8,,,,,,,,,,,TRACE,,.03 IN,,2/8 Mostly Clear,72000.0,2800.0,FEW,2800.0,FEW,15000.0,,,,
KRDR,06-21-2017,17:36,SPECI,Normal,140,10,,,9999.0,,21.0,15.0,29.71,1006.6,,,,,,,,,,,,,,,,8500.0,3100.0,SCT,3100.0,SCT,6500.0,BKN,8600.0,,
KRDR,06-21-2017,17:22,SPECI,Normal,150,11,,,9999.0,Light Drizzle,20.0,15.0,29.73,1007.3,51,,,,,,,,,,,,,,,8000.0,4200.0,FEW,4200.0,FEW,6000.0,BKN,8000.0,OVC,12000.0
KRDR,06-21-2017,16:56,METAR,Normal,130,10,,,9999.0,,19.7,14.7,29.72,,,,,,,,,,,,.03 IN,,,,,13000.0,9500.0,FEW,9600.0,BKN,13000.0,BKN,17000.0,BKN,19000.0
KRDR,06-21-2017,16:33,SPECI,Normal,130,8,,,9999.0,,19.0,16.0,29.75,,,,,,,,,,,,,,,,,9000.0,3800.0,SCT,3800.0,SCT,7500.0,BKN,9100.0,OVC,14000.0
KRDR,06-21-2017,15:56,METAR,Normal,290,4,,,9999.0,Light Rain,19.5,12.5,29.80,,61,,,,,,,,,,TRACE,,,,,9000.0,9000.0,OVC,9100.0,,,,,,
KRDR,06-21-2017,15:51,SPECI,Calm,,0,,,9999.0,Light Rain,20.0,12.0,29.77,,61,,,,,,,,,,,,,,,8500.0,8500.0,BKN,8600.0,OVC,11000.0,,,,
KRDR,06-21-2017,14:56,METAR,Normal,150,10,,,9999.0,,19.7,11.7,29.75,,,,,,,,,,,,,,,,4/8 Partly Cloudy,72000.0,12000.0,FEW,12000.0,FEW,16000.0,SCT,18000.0,,
KRDR,06-21-2017,13:56,METAR,Normal,160,8,,,9999.0,,17.8,11.1,29.79,,,,,,,,,,,,,,,,2/8 Mostly Clear,72000.0,19000.0,FEW,19000.0,,,,,,
KRDR,06-21-2017,12:56,METAR,Normal,170,10,,,9999.0,,16.4,11.1,29.79,1009.1,,,,,,,,,,,,,,,Clear,72000.0,,,,,,,,,
KRDR,06-21-2017,11:56,METAR,Normal,130,4,,,9999.0,,15.0,10.4,29.81,1009.9,,,,,,,,,,,,,,,,,,,,,,,,,
KRDR,06-21-2017,10:56,METAR,Normal,170,3,,,9999.0,,11.7,9.1,29.83,1010.6,,,,,,,,,,,,,,,Clear,72000.0,,,,,,,,,
KRDR,06-21-2017,09:56,METAR,Normal,200,4,,,9999.0,,13.1,9.5,29.85,1011.3,,,,,,,,,,,,,,,Clear,72000.0,,,,,,,,,
KRDR,06-21-2017,08:56,METAR,Normal,180,5,,,9999.0,,14.5,10.3,29.86,1011.6,,,,,,,,,,,,,,,,14000.0,14000.0,OVC,14000.0,,,,,,
KRDR,06-21-2017,07:56,METAR,Normal,190,6,,,9999.0,,14.3,10.5,29.88,1012.3,,,,,,,,,,,,,,,,14000.0,14000.0,OVC,14000.0,,,,,,
KRDR,06-21-2017,06:56,METAR,Normal,180,5,,,9999.0,,11.4,9.5,29.89,1012.7,,,,,,,,,,,,,,,Clear,72000.0,,,,,,,,,
KRDR,06-21-2017,05:56,METAR,Normal,200,3,,,9999.0,,11.3,10.2,29.91,1013.5,,,,,,,,,,,,,,,2/8 Mostly Clear,72000.0,6000.0,FEW,6000.0,FEW,23000.0,,,,
KRDR,06-21-2017,04:56,METAR,Normal,180,4,,,9999.0,,12.5,10.0,29.91,1013.4,,,,,,,,,,,,,,,Clear,72000.0,,,,,,,,,
KRDR,06-21-2017,03:56,METAR,Normal,190,3,,,9999.0,,12.8,10.0,29.92,1013.8,,,,,,,,,,,,,,,Clear,72000.0,,,,,,,,,
KRDR,06-21-2017,03:11,SPECI,Normal,160,3,,,9999.0,,17.0,10.0,29.92,1013.7,,,,,,,,,,,,,,,Clear,72000.0,,,,,,,,,
KRDR,06-21-2017,02:56,METAR,Normal,150,4,,,4400.0,Haze Smoke or Dust,16.9,9.6,29.92,1013.7,05,,,,,,,,,,,,,,Clear,72000.0,,,,,,,,,
KRDR,06-21-2017,01:56,METAR,Normal,160,3,,,9999.0,,18.6,9.9,29.93,1014.1,,,,,,,,,,,,,,,2/8 Mostly Clear,72000.0,6000.0,FEW,6000.0,,,,,,
KRDR,06-21-2017,00:56,METAR,Calm,,0,,,9999.0,,21.5,8.7,29.94,1014.4,,,,,,,,,,,,,,,Clear,72000.0,,,,,,,,,
KRDR,06-20-2017,23:56,METAR,Normal,210,4,,,9999.0,,21.6,8.1,29.94,1014.4,,,,,,,,,,,,,,,Clear,72000.0,,,,,,,,,
KRDR,06-20-2017,22:56,METAR,Calm,,0,,,9999.0,,22.3,8.8,29.94,1014.5,,,,,,,,,,,,,,,Clear,72000.0,,,,,,,,,
KRDR,06-20-2017,21:56,METAR,Normal,300,3,,,9999.0,,21.4,8.6,29.96,1015.2,,,,,,,,,,,,,,,Clear,72000.0,,,,,,,,,
KRDR,06-20-2017,20:56,METAR,Calm,,0,,,9999.0,,21.0,8.6,29.97,1015.5,,,,,,,,,,,,,,,Clear,72000.0,,,,,,,,,
KRDR,06-20-2017,19:56,METAR,Calm,,0,,,9999.0,,20.9,8.5,29.98,1015.8,,,,,,,,,,,,,,,2/8 Mostly Clear,72000.0,4700.0,FEW,4700.0,,,,,,
KRDR,06-20-2017,18:56,METAR,Normal,20,3,,,9999.0,,20.3,10.1,29.99,1016.2,,,,,,,,,,,,,,,Clear,72000.0,,,,,,,,,
KRDR,06-20-2017,17:56,METAR,Normal,360,5,,,9999.0,,19.2,11.0,30.00,1016.5,,,,,,,,,,,,,,,4/8 Partly Cloudy,72000.0,3400.0,SCT,3400.0,,,,,,
KRDR,06-20-2017,16:56,METAR,Normal,360,6,,,9999.0,,18.2,11.3,30.00,1016.6,,,,,,,,,,,,,,,,3400.0,2700.0,FEW,2700.0,BKN,3400.0,,,,
KRDR,06-20-2017,16:46,SPECI,Normal,340,6,,,9999.0,,18.0,11.0,30.00,1016.6,,,,,,,,,,,,,,,,3200.0,2600.0,SCT,2600.0,BKN,3200.0,,,,
KRDR,06-20-2017,16:11,SPECI,Normal,320,7,,,9999.0,,18.0,12.0,30.00,1016.5,,,,,,,,,,,,,,,,2300.0,2300.0,BKN,2300.0,,,,,,
KRDR,06-20-2017,15:56,METAR,Normal,340,5,,,9999.0,,17.6,11.8,30.00,1016.5,,,,,,,,,,,,,,,4/8 Partly Cloudy,72000.0,2100.0,SCT,2100.0,,,,,,
KRDR,06-20-2017,15:46,SPECI,Normal,360,6,,,9999.0,,17.0,12.0,30.00,1016.6,,,,,,,,,,,,,,,,1900.0,1900.0,BKN,1900.0,,,,,,
KRDR,06-20-2017,15:36,SPECI,Normal,340,5,,,9999.0,,17.0,12.0,30.00,1016.5,,,,,,,,,,,,,,,4/8 Partly Cloudy,72000.0,1800.0,SCT,1800.0,,,,,,
KRDR,06-20-2017,15:26,SPECI,Normal,330,6,,,9999.0,,17.0,12.0,30.01,1016.9,,,,,,,,,,,,,,,,1800.0,1800.0,BKN,1800.0,,,,,,
KRDR,06-20-2017,14:56,METAR,Normal,330,6,,,9999.0,,15.9,11.9,30.00,1016.5,,,,,,,,,,,,,,,Clear,72000.0,,,,,,,,,
KRDR,06-20-2017,13:56,METAR,Normal,360,5,,,9999.0,,13.8,11.5,30.00,1016.5,,,,,,,,,,,,,,,2/8 Mostly Clear,72000.0,1100.0,FEW,1100.0,,,,,,
KRDR,06-20-2017,13:38,SPECI,Normal,360,8,,,9999.0,,14.0,12.0,29.99,1016.2,,,,,,,,,,,,,,,2/8 Mostly Clear,72000.0,1000.0,FEW,1000.0,,,,,,
KRDR,06-20-2017,12:56,METAR,Normal,350,6,,,9999.0,,12.5,11.1,29.98,1015.8,,,,,,,,,,,,,,,Clear,72000.0,,,,,,,,,
KRDR,06-20-2017,11:56,METAR,Normal,340,6,,,9999.0,,11.1,10.2,29.96,1015.3,,,,,,,,,,,,,,.13 IN,Clear,72000.0,,,,,,,,,
KRDR,06-20-2017,10:56,METAR,Normal,330,5,,,9999.0,,8.9,8.6,29.95,1014.8,,,,,,,,,,,,,,,Clear,72000.0,,,,,,,,,
KRDR,06-20-2017,09:56,METAR,Normal,320,5,,,9999.0,,8.6,8.4,29.94,1014.4,,,,,,,,,,,,,,,Clear,72000.0,,,,,,,,,
KRDR,06-20-2017,08:56,METAR,Normal,360,4,,,9999.0,,8.1,8.0,29.94,1014.5,,,,,,,,,,,,,,,Clear,72000.0,,,,,,,,,
KRDR,06-20-2017,07:56,METAR,Normal,300,7,,,9999.0,,8.9,8.7,29.92,1013.8,,,,,,,,,,,,,,,Clear,72000.0,,,,,,,,,
KRDR,06-20-2017,06:56,METAR,Normal,310,4,,,9999.0,,9.9,9.7,29.92,1013.8,,,,,,,,,,,,,,,Clear,72000.0,,,,,,,,,
KRDR,06-20-2017,05:56,METAR,Normal,290,5,,,9999.0,,10.7,10.5,29.91,1013.4,,,,,,,,,,,,,.08 IN,,Clear,72000.0,,,,,,,,,
KRDR,06-20-2017,04:56,METAR,Normal,270,4,,,9999.0,,9.2,9.0,29.90,1013.1,,,,,,,,,,,,,,,Clear,72000.0,,,,,,,,,
KRDR,06-20-2017,03:56,METAR,Normal,330,5,,330/29KTS,9999.0,,11.8,10.7,29.92,1013.7,,,,,,,,,,,.08 IN,,,,2/8 Mostly Clear,72000.0,15000.0,FEW,15000.0,,,,,,
KRDR,06-20-2017,03:30,SPECI,Normal,240,4,,,9999.0,,12.0,11.0,29.92,1013.8,,,,,,,,,,,,,,,4/8 Partly Cloudy,72000.0,2600.0,FEW,2600.0,SCT,6000.0,,,,
KRDR,06-20-2017,03:27,SPECI,Normal,230,3,,,9999.0,Dry Thunderstorm,12.0,11.0,29.92,1013.8,91,,,,,,,,,,,,,,,8000.0,2600.0,FEW,2600.0,SCT,6000.0,BKN,8000.0,,
KRDR,06-20-2017,03:16,SPECI,Normal,360,13,29.0,,9999.0,Heavy Thunderstorm and Rain or Snow Showers,14.0,12.0,29.92,1013.7,95,,,,,,,,,,,,,,,6500.0,2700.0,SCT,2700.0,SCT,5000.0,BKN,6500.0,BKN,8000.0
KRDR,06-20-2017,03:12,SPECI,Normal,330,19,29.0,,9999.0,Thunderstorm and Rain or Snow Showers,15.0,14.0,29.95,1014.7,92,,,,,,,,,,,,,,,6500.0,2400.0,FEW,2400.0,FEW,3300.0,SCT,5000.0,BKN,6500.0
KRDR,06-20-2017,03:06,SPECI,Normal,320,9,,,9999.0,Light Rain,14.0,14.0,29.92,1013.7,61,,,,,,,,,,,,,,,13000.0,6500.0,FEW,6500.0,SCT,8000.0,BKN,13000.0,,
KRDR,06-20-2017,02:56,METAR,Normal,300,4,,,9999.0,,14.0,13.5,29.90,1013.1,,,,,,,,,,,,,,,2/8 Mostly Clear,72000.0,12000.0,FEW,12000.0,FEW,14000.0,,,,
KRDR,06-20-2017,02:30,SPECI,Normal,320,3,,,9999.0,,15.0,14.0,29.89,1012.7,,,,,,,,,,,,,,,,10000.0,10000.0,BKN,10000.0,,,,,,
KRDR,06-20-2017,01:56,METAR,Calm,,0,,,9999.0,,15.9,14.1,29.88,1012.3,,,,,,,,,,,,,,,2/8 Mostly Clear,72000.0,11000.0,FEW,11000.0,,,,,,
KRDR,06-20-2017,00:56,METAR,Normal,290,3,,,9999.0,,17.4,13.1,29.89,1012.7,,,,,,,,,,,,,,,2/8 Mostly Clear,72000.0,14000.0,FEW,14000.0,,,,,,
KRDR,06-19-2017,23:56,METAR,Normal,310,6,,310/42KTS,9999.0,,15.2,13.9,29.91,1013.5,,,,,,,,,,,.05 IN,,.05 IN,,4/8 Partly Cloudy,72000.0,2800.0,SCT,2800.0,SCT,6500.0,SCT,12000.0,,
KRDR,06-19-2017,23:54,SPECI,Normal,310,6,,,9999.0,,15.0,14.0,29.91,1013.5,,,,,,,,,,,,,,,,6500.0,2800.0,SCT,2800.0,BKN,6500.0,,,,
KRDR,06-19-2017,23:51,SPECI,Normal,300,5,,,9999.0,Light Rain,15.0,14.0,29.91,1013.5,61,,,,,,,,,,,,,,,6500.0,2800.0,SCT,2800.0,BKN,6500.0,,,,
KRDR,06-19-2017,23:46,SPECI,Normal,310,7,,,9999.0,Light Rain,15.0,13.0,29.92,1013.9,61,,,,,,,,,,,,,,,2800.0,2800.0,BKN,2800.0,BKN,6500.0,,,,
KRDR,06-19-2017,23:26,SPECI,Normal,320,17,25.0,,9999.0,Light Drizzle,21.0,8.0,29.90,1013.0,51,,,,,,,,,,,,,,,6000.0,6000.0,BKN,6000.0,,,,,,
KRDR,06-19-2017,22:56,METAR,Normal,330,6,,,9999.0,,22.0,9.2,29.88,1012.3,,,,,,,,,,,,,,,4/8 Partly Cloudy,72000.0,6500.0,SCT,6500.0,,,,,,
KRDR,06-19-2017,21:56,METAR,Normal,330,6,,,9999.0,,22.3,9.8,29.90,1013.0,,,,,,,,,,,,,,,Clear,72000.0,,,,,,,,,
KRDR,06-19-2017,20:56,METAR,Normal,350,9,,,9999.0,,21.6,9.8,29.91,1013.3,,,,,,,,,,,,,,,2/8 Mostly Clear,72000.0,8000.0,FEW,8000.0,,,,,,
KRDR,06-19-2017,19:56,METAR,Normal,30,8,,,9999.0,,20.8,10.0,29.92,1013.7,,,,,,,,,,,,,,,4/8 Partly Cloudy,72000.0,6000.0,SCT,6000.0,,,,,,
KRDR,06-19-2017,19:47,SPECI,Normal,10,14,,,9999.0,,22.0,10.0,29.91,1013.3,,,,,,,,,,,,,,,4/8 Partly Cloudy,72000.0,6000.0,FEW,6000.0,SCT,18000.0,,,,
KRDR,06-19-2017,18:56,METAR,Normal,340,10,,,9999.0,,20.3,9.2,29.92,1013.7,,,,,,,,,,,,,,,,8500.0,6000.0,SCT,6000.0,BKN,8600.0,,,,
KRDR,06-19-2017,17:56,METAR,Normal,360,10,,,9999.0,,20.4,9.0,29.93,1014.1,,,,,,,,,,,,,,,4/8 Partly Cloudy,72000.0,6000.0,SCT,6000.0,,,,,,
KRDR,06-19-2017,16:56,METAR,Normal,330,9,18.0,,9999.0,,20.3,8.6,29.93,1014.1,,,,,,,,,,,,,,,4/8 Partly Cloudy,72000.0,4900.0,FEW,4900.0,SCT,8600.0,,,,
KRDR,06-19-2017,15:56,METAR,Normal,330,9,,,9999.0,,19.3,8.6,29.92,1013.7,,,,,,,,,,,,,,,2/8 Mostly Clear,72000.0,8500.0,FEW,8600.0,,,,,,
KRDR,06-19-2017,14:56,METAR,Normal,360,9,,,9999.0,,18.4,10.2,29.92,1013.7,,,,,,,,,,,,,,,4/8 Partly Cloudy,72000.0,8500.0,SCT,8600.0,,,,,,
KRDR,06-19-2017,13:56,METAR,Normal,330,9,,,9999.0,,17.0,11.0,29.92,1013.7,,,,,,,,,,,,,,,,8500.0,8500.0,BKN,8600.0,,,,,,
KRDR,06-19-2017,12:56,METAR,Normal,350,9,,,9999.0,,15.8,10.3,29.91,1013.3,,,,,,,,,,,,,,,Clear,72000.0,,,,,,,,,
KRDR,06-19-2017,11:56,METAR,Normal,320,5,,,9999.0,,14.2,10.8,29.89,1012.7,,,,,,,,,,,,,,,Clear,72000.0,,,,,,,,,
KRDR,06-19-2017,10:56,METAR,Normal,310,5,,,9999.0,,12.9,11.0,29.88,1012.4,,,,,,,,,,,,,,,,7500.0,7500.0,OVC,7500.0,,,,,,
KRDR,06-19-2017,09:56,METAR,Normal,300,4,,,9999.0,,12.1,11.0,29.86,1011.7,,,,,,,,,,,,,,,,8000.0,8000.0,OVC,8000.0,,,,,,
KRDR,06-19-2017,08:56,METAR,Normal,330,4,,,9999.0,,12.6,10.8,29.85,1011.3,,,,,,,,,,,,,,,,8000.0,8000.0,OVC,8000.0,,,,,,
KRDR,06-19-2017,07:56,METAR,Normal,320,5,,,9999.0,,12.4,10.8,29.86,1011.7,,,,,,,,,,,,,,,,8000.0,8000.0,OVC,8000.0,,,,,,
KRDR,06-19-2017,06:56,METAR,Normal,310,5,,,9999.0,,11.2,10.4,29.86,1011.7,,,,,,,,,,,,,,,,8500.0,8500.0,OVC,8600.0,,,,,,
KRDR,06-19-2017,05:56,METAR,Normal,320,5,,,9999.0,,10.0,9.2,29.85,1011.4,,,,,,,,,,,,,,,Clear,72000.0,,,,,,,,,
KRDR,06-19-2017,04:56,METAR,Normal,360,6,,,9999.0,,11.4,9.8,29.84,1011.1,,,,,,,,,,,,,,,Clear,72000.0,,,,,,,,,
KRDR,06-19-2017,03:56,METAR,Normal,350,7,,,9999.0,,14.8,10.0,29.83,1010.7,,,,,,,,,,,,,,,,5500.0,5500.0,BKN,5500.0,,,,,,
KRDR,06-19-2017,02:56,METAR,Normal,10,5,,,9999.0,,15.3,10.3,29.82,1010.3,,,,,,,,,,,,,,,,5500.0,5500.0,OVC,5500.0,,,,,,
KRDR,06-19-2017,01:56,METAR,Normal,360,7,,,9999.0,,15.4,10.0,29.81,1010.0,,,,,,,,,,,,,,,2/8 Mostly Clear,72000.0,6500.0,FEW,6500.0,,,,,,
KRDR,06-19-2017,00:56,METAR,Normal,20,10,,,9999.0,,17.1,10.9,29.81,1010.0,,,,,,,,,,,,,,,,6000.0,6000.0,BKN,6000.0,,,,,,
KRDR,06-18-2017,23:56,METAR,Normal,350,10,,,9999.0,,18.3,10.9,29.79,1009.4,,,,,,,,,,,,,TRACE,,,5000.0,4000.0,SCT,4000.0,BKN,5000.0,BKN,8600.0,,
KRDR,06-18-2017,22:56,METAR,Normal,330,5,,,9999.0,,18.7,12.0,29.77,1008.6,,,,,,,,,,,TRACE,,,,,7000.0,3700.0,FEW,3700.0,SCT,5000.0,BKN,7000.0,BKN,9100.0
KRDR,06-18-2017,22:34,SPECI,Normal,320,6,,,9999.0,,17.0,12.0,29.77,1008.7,,,,,,,,,,,,,,,,5500.0,3600.0,SCT,3600.0,SCT,4500.0,BKN,5500.0,,
KRDR,06-18-2017,22:13,SPECI,Normal,300,8,,,9999.0,Light Drizzle,17.0,12.0,29.77,1008.7,51,,,,,,,,,,,,,,,3900.0,3900.0,BKN,3900.0,BKN,4800.0,OVC,6000.0,,
KRDR,06-18-2017,22:08,SPECI,Normal,290,8,,,9999.0,,17.0,13.0,29.77,1008.7,,,,,,,,,,,,,,,,4200.0,4200.0,BKN,4200.0,OVC,6000.0,,,,
KRDR,06-18-2017,22:03,SPECI,Normal,300,7,,,9999.0,Light Drizzle,17.0,13.0,29.77,1008.7,51,,,,,,,,,,,,,,,4200.0,4200.0,BKN,4200.0,BKN,6000.0,,,,
KRDR,06-18-2017,20:58,METAR,Normal,10,10,,,9999.0,,18.8,11.4,29.76,1008.3,,,,,,,,,,,,,,,,4200.0,4200.0,BKN,4200.0,BKN,6000.0,,,,
KRDR,06-18-2017,19:58,METAR,Normal,360,10,,,9999.0,,20.0,10.1,29.76,1008.2,,,,,,,,,,,,,,,2/8 Mostly Clear,72000.0,3900.0,FEW,3900.0,,,,,,
KRDR,06-18-2017,18:56,METAR,Normal,360,10,,,9999.0,,19.0,10.8,29.77,1008.6,,,,,,,,,,,,,,,,4500.0,4500.0,BKN,4500.0,,,,,,
KRDR,06-18-2017,17:56,METAR,Normal,360,8,,,9999.0,,19.0,11.5,29.78,1008.9,,,,,,,,,,,,,,,,4200.0,3400.0,SCT,3400.0,BKN,4200.0,,,,
KRDR,06-18-2017,17:50,SPECI,Normal,10,7,16.0,,2800.0,Haze Smoke or Dust,19.0,12.0,29.78,1008.9,05,,,,,,,,,,,,,,,4000.0,4000.0,OVC,4000.0,,,,,,
KRDR,06-18-2017,16:56,METAR,Normal,350,12,,,9999.0,,17.8,11.1,29.78,1008.9,,,,,,,,,,,,,,,,2900.0,2900.0,BKN,2900.0,OVC,3600.0,,,,
KRDR,06-18-2017,15:56,METAR,Normal,360,12,,,9999.0,,17.2,11.0,29.78,1009.0,,,,,,,,,,,,,,,,3000.0,3000.0,BKN,3000.0,BKN,3500.0,,,,
KRDR,06-18-2017,15:28,METAR,Normal,360,12,,,8000.0,Haze,16.3,10.6,29.78,1009.0,,,,05,,,,,,,,,,,,2800.0,2800.0,BKN,2800.0,,,,,,
KRDR,06-18-2017,13:56,METAR,Normal,330,11,,,8000.0,Haze Smoke or Dust,15.5,11.5,29.77,1008.6,05,,,,,,,,,,,,,,,1600.0,1600.0,BKN,1600.0,BKN,2100.0,OVC,11000.0,,
KRDR,06-18-2017,13:01,SPECI,Normal,350,10,,,2200.0,Haze Smoke or Dust,14.0,11.0,29.78,1009.0,05,,,,,,,,,,,,,,,10000.0,4400.0,FEW,4400.0,BKN,10000.0,,,,
KRDR,06-18-2017,12:56,METAR,Normal,350,10,,,9999.0,,13.7,11.0,29.78,1009.0,,,,,,,,,,,,,,,,10000.0,4300.0,SCT,4300.0,BKN,10000.0,,,,
KRDR,06-18-2017,11:56,METAR,Normal,340,8,,,9999.0,,12.9,11.1,29.77,1008.6,,,,,,,,,,,,,,,,9000.0,9000.0,BKN,9100.0,,,,,,
KRDR,06-18-2017,10:56,METAR,Normal,330,5,,,9999.0,,12.4,11.1,29.76,1008.3,,,,,,,,,,,,,,,,3200.0,3200.0,BKN,3200.0,OVC,9100.0,,,,
KRDR,06-18-2017,09:56,METAR,Normal,340,7,,,9999.0,,13.4,10.9,29.75,1007.9,,,,,,,,,,,,,,,,3500.0,3500.0,OVC,3500.0,,,,,,
KRDR,06-18-2017,09:16,SPECI,Normal,340,7,,,9999.0,,14.0,11.0,29.74,1007.5,,,,,,,,,,,,,,,,9500.0,3800.0,SCT,3800.0,OVC,9600.0,,,,
KRDR,06-18-2017,08:56,METAR,Normal,340,8,,,9999.0,,13.7,10.9,29.74,1007.5,,,,,,,,,,,,,,,,9500.0,9500.0,OVC,9600.0,,,,,,
KRDR,06-18-2017,07:56,METAR,Normal,360,6,,,9999.0,,13.8,11.3,29.73,1007.2,,,,,,,,,,,,,,,,6000.0,3500.0,FEW,3500.0,BKN,6000.0,OVC,8600.0,,
KRDR,06-18-2017,06:56,METAR,Normal,350,8,,,9999.0,Haze Smoke or Dust,14.0,10.8,29.72,1006.9,05,,,,,,,,,,,,,,,6000.0,4500.0,FEW,4500.0,BKN,6000.0,,,,
KRDR,06-18-2017,06:46,SPECI,Normal,350,8,,,9999.0,,14.0,11.0,29.72,1006.9,,,,,,,,,,,,,,,,6000.0,4500.0,FEW,4500.0,BKN,6000.0,,,,
KRDR,06-18-2017,05:56,METAR,Normal,10,8,,,9999.0,,14.8,10.8,29.72,1006.9,,,,,,,,,,,,,TRACE,,,5000.0,4300.0,FEW,4300.0,OVC,5000.0,,,,
KRDR,06-18-2017,05:01,SPECI,Normal,360,5,,,9999.0,,15.0,12.0,29.71,1006.5,,,,,,,,,,,,,,,,4900.0,4900.0,BKN,4900.0,BKN,6000.0,,,,
KRDR,06-18-2017,04:56,METAR,Normal,360,5,,,9999.0,,15.1,11.5,29.71,1006.5,,,,,,,,,,,,,,,,4900.0,4900.0,BKN,4900.0,BKN,6000.0,,,,
KRDR,06-18-2017,03:56,METAR,Normal,10,7,,,9999.0,,15.9,11.7,29.71,1006.6,,,,,,,,,,,,,,,,5000.0,5000.0,OVC,5000.0,,,,,,
KRDR,06-18-2017,02:56,METAR,Normal,20,6,,,9999.0,,15.7,12.1,29.70,1006.2,,,,,,,,,,,,TRACE,,,,5000.0,5000.0,BKN,5000.0,OVC,7000.0,,,,
KRDR,06-18-2017,01:56,METAR,Normal,10,6,,,9999.0,,15.9,13.0,29.68,1005.6,,,,,,,,,,,TRACE,,,,,4800.0,3700.0,SCT,3700.0,BKN,4800.0,BKN,6000.0,,
KRDR,06-18-2017,01:54,SPECI,Normal,10,6,,,9999.0,,16.0,13.0,29.68,1005.6,,,,,,,,,,,,,,,,4800.0,3700.0,SCT,3700.0,BKN,4800.0,BKN,6000.0,,
KRDR,06-18-2017,01:37,SPECI,Normal,20,7,,,9999.0,Light Rain,17.0,12.0,29.68,1005.6,61,,,,,,,,,,,,,,,5000.0,3500.0,SCT,3500.0,BKN,5000.0,OVC,7000.0,,
KRDR,06-18-2017,00:56,METAR,Normal,20,7,,,9999.0,,17.9,12.3,29.66,1004.9,,,,,,,,,,,,,,,,4900.0,3000.0,SCT,3000.0,BKN,4900.0,OVC,6000.0,,
KRDR,06-17-2017,23:56,METAR,Normal,30,7,,,9999.0,,18.2,11.7,29.65,1004.5,,,,,,,,,,,,,,,,4800.0,4800.0,OVC,4800.0,,,,,,
KRDR,06-17-2017,22:56,METAR,Normal,20,6,,,9999.0,,18.5,12.2,29.63,1003.8,,,,,,,,,,,,,,,,5000.0,4300.0,SCT,4300.0,BKN,5000.0,,,,
KRDR,06-17-2017,21:56,METAR,Normal,50,6,,,9999.0,,19.3,12.5,29.63,1003.8,,,,,,,,,,,,,,,,6000.0,4900.0,SCT,4900.0,BKN,6000.0,,,,
KRDR,06-17-2017,20:56,METAR,Normal,30,5,,,9999.0,,20.4,12.6,29.62,1003.5,,,,,,,,,,,,,,,2/8 Mostly Clear,72000.0,3000.0,FEW,3000.0,FEW,4200.0,,,,
KRDR,06-17-2017,19:56,METAR,Normal,40,7,,,9999.0,Haze Smoke or Dust,20.5,13.7,29.63,1003.8,05,,,,,,,,,,,,,,4/8 Partly Cloudy,72000.0,2700.0,SCT,2700.0,SCT,3400.0,,,,
KRDR,06-17-2017,19:51,SPECI,Normal,350,7,,,9999.0,Haze Smoke or Dust,20.0,13.0,29.63,1003.8,05,,,,,,,,,,,,,,,3200.0,2700.0,SCT,2700.0,BKN,3200.0,,,,
KRDR,06-17-2017,19:21,SPECI,Normal,360,5,,,9999.0,,19.0,13.0,29.63,1003.8,,,,,,,,,,,,,,,,2400.0,2800.0,BKN,2800.0,,,,,,
KRDR,06-17-2017,18:56,METAR,Normal,40,8,,,9999.0,,18.7,13.3,29.63,1003.9,,,,,,,,,,,,,,,,2400.0,2400.0,BKN,2400.0,BKN,2900.0,,,,
KRDR,06-17-2017,18:01,SPECI,Normal,50,7,,,9999.0,,19.0,13.0,29.64,1004.2,,,,,,,,,,,,,,,,2200.0,2200.0,BKN,2200.0,BKN,18000.0,,,,
KRDR,06-17-2017,17:56,METAR,Normal,30,5,,,9999.0,,18.7,13.1,29.64,1004.2,,,,,,,,,,,,,TRACE,,,10000.0,2200.0,SCT,2200.0,BKN,10000.0,BKN,18000.0,,
KRDR,06-17-2017,17:01,SPECI,Normal,40,7,,,9999.0,,18.0,13.0,29.63,1003.8,,,,,,,,,,,,,,,,7000.0,2200.0,SCT,2200.0,BKN,7000.0,,,,
KRDR,06-17-2017,16:56,METAR,Normal,30,9,,,9999.0,,18.6,13.2,29.63,1003.8,,,,,,,,,,,,,,,,2200.0,2300.0,BKN,2300.0,BKN,7500.0,,,,
KRDR,06-17-2017,15:56,METAR,Normal,10,6,,,9999.0,,16.6,12.5,29.63,1003.8,,,,,,,,,,,,,,,,6000.0,3500.0,FEW,3500.0,BKN,6000.0,,,,
KRDR,06-17-2017,14:56,METAR,Normal,20,8,,,9999.0,,16.6,13.1,29.62,1003.4,,,,,,,,,,,,TRACE,,,4/8 Partly Cloudy,72000.0,5500.0,FEW,5500.0,SCT,7000.0,,,,
KRDR,06-17-2017,13:56,METAR,Normal,20,7,,,9999.0,,16.0,13.5,29.62,1003.4,,,,,,,,,,,,,,,4/8 Partly Cloudy,72000.0,4600.0,SCT,4600.0,,,,,,
KRDR,06-17-2017,12:56,METAR,Normal,20,7,,,9999.0,,14.7,14.7,29.61,1003.1,,,,,,,,,,,TRACE,,,,4/8 Partly Cloudy,72000.0,8500.0,SCT,8600.0,,,,,,
KRDR,06-17-2017,12:30,SPECI,Normal,10,5,,,9999.0,,14.0,14.0,29.61,1003.0,,,,,,,,,,,,,,,,7000.0,7000.0,BKN,7000.0,BKN,8600.0,,,,
KRDR,06-17-2017,12:21,SPECI,Normal,10,5,,,9999.0,Light Drizzle,14.0,14.0,29.61,1003.0,51,,,,,,,,,,,,,,,8500.0,7000.0,SCT,7000.0,OVC,8600.0,,,,
KRDR,06-17-2017,11:56,METAR,Normal,20,6,,,9999.0,,13.9,13.9,29.60,1002.6,,,,,,,,,,,TRACE,,TRACE,.02 IN,,9500.0,9500.0,BKN,9600.0,,,,,,
KRDR,06-17-2017,11:23,SPECI,Normal,10,4,,,9999.0,,14.0,14.0,29.60,1002.6,,,,,,,,,,,,,,,,8000.0,8000.0,BKN,8000.0,,,,,,
KRDR,06-17-2017,11:11,SPECI,Normal,350,3,,,9999.0,Light Drizzle,14.0,14.0,29.60,1002.6,51,,,,,,,,,,,,,,,9000.0,9000.0,BKN,9100.0,,,,,,
KRDR,06-17-2017,10:56,METAR,Calm,,0,,,9999.0,,13.3,13.3,29.60,1002.7,,,,,,,,,,,,,,,,10000.0,10000.0,BKN,10000.0,,,,,,
KRDR,06-17-2017,09:56,METAR,Normal,340,3,,,9999.0,,12.5,12.5,29.58,1002.0,,,,,,,,,,,,,,,,11000.0,11000.0,BKN,11000.0,,,,,,
KRDR,06-17-2017,08:56,METAR,Normal,320,3,,,9999.0,,12.9,12.9,29.58,1002.0,,,,,,,,,,,,,,,,7500.0,7500.0,BKN,7500.0,OVC,10000.0,,,,
KRDR,06-17-2017,07:56,METAR,Normal,310,3,,,9999.0,,11.4,11.4,29.57,1001.7,,,,,,,,,,,,,,,Clear,72000.0,,,,,,,,,
KRDR,06-17-2017,07:06,SPECI,Calm,,0,,,9999.0,,11.0,11.0,29.57,1001.6,,,,,,,,,,,,,,,Clear,72000.0,,,,,,,,,
KRDR,06-17-2017,06:56,METAR,Normal,280,4,,,9999.0,,11.3,11.3,29.57,1001.7,,,,,,,,,,,,,,,Clear,72000.0,,,,,,,,,
KRDR,06-17-2017,06:51,SPECI,Normal,280,4,,,6400.0,Mist,11.0,11.0,29.58,1002.0,10,,,,,,,,,,,,,,Clear,72000.0,,,,,,,,,
KRDR,06-17-2017,06:46,SPECI,Normal,280,3,,,9999.0,,11.0,11.0,29.58,1002.0,,,,,,,,,,,,,,,Clear,72000.0,,,,,,,,,
KRDR,06-17-2017,06:41,SPECI,Normal,280,3,,,9999.0,,12.0,12.0,29.58,1002.0,,,,,,,,,,,,,,,Clear,72000.0,,,,,,,,,
KRDR,06-17-2017,05:56,METAR,Calm,,0,,,9999.0,,12.5,12.5,29.59,1002.3,,,,,,,,,,,,,.02 IN,,Clear,72000.0,,,,,,,,,
KRDR,06-17-2017,04:56,METAR,Normal,350,3,,,9999.0,,14.9,14.6,29.59,1002.2,,,,,,,,,,,,,,,4/8 Partly Cloudy,72000.0,9000.0,SCT,9100.0,,,,,,
KRDR,06-17-2017,03:56,METAR,Normal,20,4,,,9999.0,,16.2,15.1,29.61,1002.9,,,,,,,,,,,,,,,,8500.0,8500.0,BKN,8600.0,,,,,,
KRDR,06-17-2017,02:56,METAR,Calm,,0,,,9999.0,,17.9,14.6,29.60,1002.6,,,,,,,,,,,TRACE,.02 IN,,,,9000.0,9000.0,BKN,9100.0,,,,,,
KRDR,06-17-2017,02:48,SPECI,Normal,50,3,,,9999.0,,18.0,15.0,29.60,1002.6,,,,,,,,,,,,,,,,8500.0,8500.0,BKN,8600.0,,,,,,
KRDR,06-17-2017,02:36,SPECI,Normal,50,4,,,9999.0,Light Drizzle,18.0,16.0,29.59,1002.2,51,,,,,,,,,,,,,,,9000.0,9000.0,BKN,9100.0,,,,,,
KRDR,06-17-2017,02:28,SPECI,Calm,,0,,,9999.0,,18.0,16.0,29.59,1002.2,,,,,,,,,,,,,,,,9000.0,9000.0,BKN,9100.0,,,,,,
KRDR,06-17-2017,02:04,SPECI,Calm,,0,,,9999.0,Light Drizzle,18.0,15.0,29.59,1002.3,51,,,,,,,,,,,,,,,9000.0,5500.0,FEW,5500.0,FEW,7500.0,BKN,9100.0,,
KRDR,06-17-2017,01:56,METAR,Normal,270,3,,,9999.0,,18.4,15.3,29.59,1002.3,,,,,,,,,,,.01 IN,,,,,9000.0,6000.0,SCT,6000.0,SCT,8000.0,BKN,9100.0,,
KRDR,06-17-2017,01:09,SPECI,Normal,40,6,,,9999.0,,19.0,16.0,29.58,1002.0,,,,,,,,,,,,,,,,8000.0,4500.0,SCT,4500.0,BKN,8000.0,BKN,9100.0,,
KRDR,06-17-2017,00:56,METAR,Normal,10,4,,,9999.0,Light Rain,19.5,15.3,29.59,1002.2,61,,,,,,,,,,.01 IN,,,,,8000.0,4300.0,SCT,4300.0,SCT,6000.0,BKN,8000.0,,
KRDR,06-17-2017,00:43,SPECI,Normal,40,7,,,9999.0,Light Rain,21.0,13.0,29.58,1001.9,61,,,,,,,,,,,,,,4/8 Partly Cloudy,72000.0,6500.0,FEW,6500.0,SCT,8600.0,,,,
KRDR,06-16-2017,23:56,METAR,Normal,300,7,,,9999.0,,23.1,10.8,29.58,1001.9,,,,,,,,,,,,,,,Clear,72000.0,,,,,,,,,
KRDR,06-16-2017,22:56,METAR,Normal,290,9,,,9999.0,,23.6,11.3,29.58,1002.0,,,,,,,,,,,,,,,Clear,72000.0,,,,,,,,,
KRDR,06-16-2017,21:56,METAR,Normal,290,8,,,9999.0,,24.0,12.3,29.59,1002.4,,,,,,,,,,,,,,,4/8 Partly Cloudy,72000.0,6000.0,FEW,6000.0,SCT,11000.0,,,,
KRDR,06-16-2017,20:56,METAR,Normal,290,12,18.0,,9999.0,,24.4,11.3,29.59,1002.3,,,,,,,,,,,,,,,4/8 Partly Cloudy,72000.0,6500.0,FEW,6500.0,SCT,10000.0,SCT,19000.0,,
KRDR,06-16-2017,19:56,METAR,Normal,310,10,,,9999.0,,23.8,10.5,29.61,1003.0,,,,,,,,,,,,,,,,10000.0,7000.0,FEW,7000.0,BKN,10000.0,,,,
KRDR,06-16-2017,18:56,METAR,Normal,290,13,22.0,,9999.0,,25.8,12.3,29.62,1003.2,,,,,,,,,,,,,,,2/8 Mostly Clear,72000.0,6000.0,FEW,6000.0,FEW,10000.0,,,,
KRDR,06-16-2017,17:56,METAR,Normal,300,12,18.0,,9999.0,,24.8,12.4,29.63,1003.5,,,,,,,,,,,,,,,Clear,72000.0,,,,,,,,,
KRDR,06-16-2017,16:56,METAR,Normal,290,12,18.0,,9999.0,,24.2,11.8,29.65,1004.3,,,,,,,,,,,,,,,Clear,72000.0,,,,,,,,,
KRDR,06-16-2017,15:56,METAR,Normal,270,13,18.0,,9999.0,,23.2,12.5,29.65,1004.3,,,,,,,,,,,,,,,Clear,72000.0,,,,,,,,,
KRDR,06-16-2017,14:56,METAR,Normal,290,10,,,9999.0,,22.2,12.4,29.67,1005.0,,,,,,,,,,,,,,,4/8 Partly Cloudy,72000.0,11000.0,SCT,11000.0,,,,,,
KRDR,06-16-2017,13:56,METAR,Normal,290,8,,,9999.0,,20.0,12.2,29.68,1005.3,,,,,,,,,,,,,,,Clear,72000.0,,,,,,,,,
KRDR,06-16-2017,12:56,METAR,Normal,270,8,,,9999.0,,19.0,13.6,29.68,1005.3,,,,,,,,,,,,,,,2/8 Mostly Clear,72000.0,12000.0,FEW,12000.0,,,,,,
KRDR,06-16-2017,11:56,METAR,Normal,250,8,,,9999.0,,16.0,13.7,29.69,1005.7,,,,,,,,,,,,,,,Clear,72000.0,,,,,,,,,
KRDR,06-16-2017,10:56,METAR,Normal,230,5,,,9999.0,,12.8,12.6,29.69,1005.8,,,,,,,,,,,,,,,Clear,72000.0,,,,,,,,,
KRDR,06-16-2017,09:56,METAR,Normal,260,4,,,9999.0,,12.7,11.9,29.68,1005.4,,,,,,,,,,,,,,,Clear,72000.0,,,,,,,,,
KRDR,06-16-2017,08:56,METAR,Normal,290,4,,,9999.0,,13.3,12.2,29.67,1005.1,,,,,,,,,,,,,,,2/8 Mostly Clear,72000.0,12000.0,FEW,12000.0,,,,,,
KRDR,06-16-2017,07:56,METAR,Normal,290,5,,,9999.0,,14.7,12.7,29.66,1004.7,,,,,,,,,,,,,,,Clear,72000.0,,,,,,,,,
KRDR,06-16-2017,06:56,METAR,Normal,300,7,,,9999.0,,16.1,12.8,29.66,1004.7,,,,,,,,,,,,,,,2/8 Mostly Clear,72000.0,10000.0,FEW,10000.0,,,,,,
KRDR,06-16-2017,05:56,METAR,Normal,290,8,,,9999.0,,16.5,11.8,29.67,1005.0,,,,,,,,,,,,,,,Clear,72000.0,,,,,,,,,
KRDR,06-16-2017,04:56,METAR,Normal,270,6,,,9999.0,,16.2,11.3,29.66,1004.7,,,,,,,,,,,,,,,Clear,72000.0,,,,,,,,,
KRDR,06-16-2017,03:56,METAR,Normal,240,5,,,9999.0,,15.8,13.1,29.66,1004.7,,,,,,,,,,,,,,,Clear,72000.0,,,,,,,,,
KRDR,06-16-2017,02:56,METAR,Normal,270,5,,,9999.0,,18.7,12.7,29.66,1004.7,,,,,,,,,,,,,,,2/8 Mostly Clear,72000.0,16000.0,FEW,16000.0,,,,,,
KRDR,06-16-2017,01:56,METAR,Normal,280,7,16.0,,9999.0,,21.2,12.1,29.67,1005.0,,,,,,,,,,,,,,,Clear,72000.0,,,,,,,,,
KRDR,06-16-2017,00:56,METAR,Normal,290,10,,,9999.0,,22.0,11.7,29.67,1005.0,,,,,,,,,,,,,,,4/8 Partly Cloudy,72000.0,11000.0,SCT,11000.0,,,,,,
KRDR,06-15-2017,23:56,METAR,Normal,300,14,20.0,,9999.0,,23.0,12.3,29.68,1005.3,,,,,,,,,,,,,,,2/8 Mostly Clear,72000.0,9000.0,FEW,9100.0,FEW,15000.0,,,,
KRDR,06-15-2017,22:56,METAR,Normal,280,18,23.0,,9999.0,,22.2,12.2,29.68,1005.4,,,,,,,,,,,,,,,4/8 Partly Cloudy,72000.0,9500.0,SCT,9600.0,,,,,,
KRDR,06-15-2017,21:56,METAR,Normal,290,16,24.0,270/28KTS,9999.0,,23.6,11.6,29.69,1005.7,,,,,,,,,,,,,,,4/8 Partly Cloudy,72000.0,9500.0,SCT,9600.0,,,,,,
KRDR,06-15-2017,20:56,METAR,Normal,280,18,29.0,300/29KTS,9999.0,,23.5,11.2,29.69,1005.7,,,,,,,,,,,,,,,2/8 Mostly Clear,72000.0,6000.0,FEW,6000.0,FEW,7500.0,,,,
KRDR,06-15-2017,19:56,METAR,Normal,290,16,,270/28KTS,9999.0,,22.8,11.8,29.69,1005.7,,,,,,,,,,,,,,,2/8 Mostly Clear,72000.0,7000.0,FEW,7000.0,,,,,,
KRDR,06-15-2017,18:56,METAR,Normal,290,18,24.0,280/27KTS,9999.0,,22.8,12.1,29.68,1005.4,,,,,,,,,,,,,,,2/8 Mostly Clear,72000.0,4900.0,FEW,4900.0,,,,,,
KRDR,06-15-2017,17:56,METAR,Normal,290,13,27.0,300/27KTS,9999.0,,22.0,12.3,29.68,1005.4,,,,,,,,,,,,,,,4/8 Partly Cloudy,72000.0,4700.0,SCT,4700.0,SCT,15000.0,SCT,19000.0,,
KRDR,06-15-2017,16:56,METAR,Normal,270,19,24.0,280/30KTS,9999.0,,21.4,11.7,29.68,1005.4,,,,,,,,,,,,,,,2/8 Mostly Clear,72000.0,5500.0,FEW,5500.0,,,,,,
KRDR,06-15-2017,15:56,METAR,Normal,280,18,27.0,270/29KTS,9999.0,,20.9,11.0,29.68,1005.4,,,,,,,,,,,,,,,Clear,72000.0,,,,,,,,,
KRDR,06-15-2017,14:56,METAR,Normal,270,20,27.0,,9999.0,,19.7,11.2,29.67,1005.0,,,,,,,,,,,,,,,Clear,72000.0,,,,,,,,,
KRDR,06-15-2017,13:56,METAR,Normal,260,16,23.0,,9999.0,,18.7,11.5,29.67,1005.0,,,,,,,,,,,,,,,2/8 Mostly Clear,72000.0,14000.0,FEW,14000.0,,,,,,
KRDR,06-15-2017,12:56,METAR,Normal,250,13,,,9999.0,,17.2,11.9,29.66,1004.7,,,,,,,,,,,,,,,2/8 Mostly Clear,72000.0,17000.0,FEW,17000.0,,,,,,
KRDR,06-15-2017,11:56,METAR,Normal,240,11,,,9999.0,,16.3,12.4,29.65,1004.4,,,,,,,,,,,,,,.04 IN,,16000.0,16000.0,BKN,16000.0,,,,,,
KRDR,06-15-2017,10:56,METAR,Normal,250,9,,,9999.0,,15.6,13.4,29.64,1003.9,,,,,,,,,,,,,,,Clear,72000.0,,,,,,,,,
KRDR,06-15-2017,09:56,METAR,Normal,240,8,,,9999.0,,15.3,13.8,29.64,1003.9,,,,,,,,,,,,,,,4/8 Partly Cloudy,72000.0,13000.0,SCT,13000.0,,,,,,
KRDR,06-15-2017,08:56,METAR,Normal,260,9,,,9999.0,,15.6,13.6,29.63,1003.6,,,,,,,,,,,,,,,2/8 Mostly Clear,72000.0,7000.0,FEW,7000.0,,,,,,
KRDR,06-15-2017,07:56,METAR,Normal,240,8,,,9999.0,,15.3,13.1,29.63,1003.6,,,,,,,,,,,,,,,Clear,72000.0,,,,,,,,,
KRDR,06-15-2017,06:56,METAR,Normal,220,5,,,9999.0,,14.6,13.0,29.64,1003.9,,,,,,,,,,,,,,,,,,,,,,,,,
KRDR,06-15-2017,05:56,METAR,Normal,260,10,,,9999.0,,16.4,11.5,29.64,1003.9,,,,,,,,,,,,,.01 IN,,Clear,72000.0,,,,,,,,,
KRDR,06-15-2017,04:56,METAR,Normal,260,13,,,9999.0,,17.2,11.2,29.65,1004.3,,,,,,,,,,,,,,,Clear,72000.0,,,,,,,,,
KRDR,06-15-2017,03:56,METAR,Normal,250,7,,,9999.0,,17.0,13.1,29.65,1004.3,,,,,,,,,,,,,,,Clear,72000.0,,,,,,,,,
KRDR,06-15-2017,02:56,METAR,Normal,240,8,,,9999.0,,18.9,13.1,29.63,1003.6,,,,,,,,,,,,.01 IN,,,,10000.0,7500.0,SCT,7500.0,OVC,10000.0,,,,
KRDR,06-15-2017,01:56,METAR,Normal,270,11,,,9999.0,,20.0,15.0,29.61,1002.9,,,,,,,,,,,,,,,2/8 Mostly Clear,72000.0,10000.0,FEW,10000.0,,,,,,
KRDR,06-15-2017,00:56,METAR,Normal,260,11,,,9999.0,,21.0,15.1,29.58,1002.0,,,,,,,,,,,.01 IN,,,,,12000.0,9500.0,SCT,9600.0,BKN,12000.0,,,,
KRDR,06-15-2017,00:53,SPECI,Normal,260,11,,,9999.0,,21.0,15.0,29.58,1002.0,,,,,,,,,,,,,,,,12000.0,9500.0,SCT,9600.0,BKN,12000.0,,,,
KRDR,06-15-2017,00:43,SPECI,Normal,270,10,,,9999.0,Light Drizzle,20.0,15.0,29.58,1002.0,51,,,,,,,,,,,,,,4/8 Partly Cloudy,72000.0,5500.0,FEW,5500.0,FEW,7000.0,SCT,11000.0,,
KRDR,06-15-2017,00:28,SPECI,Normal,280,9,,,9999.0,,19.0,15.0,29.57,1001.7,,,,,,,,,,,,,,,,6000.0,6000.0,BKN,6000.0,BKN,8600.0,,,,
KRDR,06-15-2017,00:00,SPECI,Normal,270,11,,,9999.0,Light Drizzle,20.0,15.0,29.57,1001.7,51,,,,,,,,,,,,,,,6000.0,4700.0,FEW,4700.0,BKN,6000.0,OVC,7500.0,,
KRDR,06-14-2017,23:56,METAR,Normal,280,11,,230/30KTS,9999.0,,20.2,15.2,29.57,1001.7,,,,,,,,,,,.03 IN,,.03 IN,,,6500.0,4400.0,FEW,4400.0,BKN,6500.0,OVC,7500.0,,
KRDR,06-14-2017,23:21,SPECI,Normal,240,11,,,9999.0,,20.0,15.0,29.54,1000.7,,,,,,,,,,,,,,,,6000.0,6000.0,BKN,6000.0,BKN,7500.0,,,,
KRDR,06-14-2017,23:03,SPECI,Normal,240,15,21.0,,9999.0,Light Rain,24.0,13.0,29.54,1000.6,61,,,,,,,,,,,,,,,6500.0,6500.0,BKN,6500.0,BKN,11000.0,,,,
KRDR,06-14-2017,22:56,METAR,Normal,230,18,21.0,230/27KTS,9999.0,,24.1,13.0,29.54,1000.6,,,,,,,,,,,,,,,,12000.0,6000.0,SCT,6000.0,BKN,12000.0,,,,
KRDR,06-14-2017,21:56,METAR,Normal,240,16,26.0,230/30KTS,9999.0,,24.5,14.0,29.54,1000.5,,,,,,,,,,,,,,,Clear,72000.0,,,,,,,,,
KRDR,06-14-2017,20:56,METAR,Normal,250,21,30.0,270/30KTS,9999.0,,24.0,13.5,29.54,1000.5,,,,,,,,,,,,,,,Clear,72000.0,,,,,,,,,
KRDR,06-14-2017,19:56,METAR,Normal,250,16,31.0,240/31KTS,9999.0,,24.2,14.3,29.53,1000.2,,,,,,,,,,,,,,,,16000.0,5500.0,SCT,5500.0,SCT,8000.0,BKN,16000.0,BKN,20000.0
KRDR,06-14-2017,18:56,METAR,Normal,230,19,,230/26KTS,9999.0,,24.1,15.0,29.51,999.5,,,,,,,,,,,,,,,Clear,72000.0,,,,,,,,,
KRDR,06-14-2017,17:56,METAR,Normal,230,18,27.0,,9999.0,,23.3,16.3,29.51,999.5,,,,,,,,,,,,,,,4/8 Partly Cloudy,72000.0,3100.0,SCT,3100.0,SCT,3800.0,SCT,20000.0,,
KRDR,06-14-2017,16:56,METAR,Normal,220,17,28.0,220/28KTS,9999.0,,22.0,16.5,29.49,,,,,,,,,,,,,,,,,3200.0,2300.0,FEW,2300.0,BKN,3200.0,BKN,10000.0,,
KRDR,06-14-2017,16:01,SPECI,Normal,210,11,,,9999.0,,21.0,17.0,29.48,,,,,,,,,,,,,,,,4/8 Partly Cloudy,72000.0,2500.0,SCT,2500.0,SCT,3200.0,,,,
KRDR,06-14-2017,15:56,METAR,Normal,210,14,,,9999.0,,21.6,17.0,29.48,,,,,,,,,,,,,,,,,2400.0,2500.0,BKN,2500.0,BKN,3300.0,,,,
KRDR,06-14-2017,14:56,METAR,Normal,220,13,,,9999.0,,21.5,16.0,29.48,,,,,,,,,,,,,,,,,2400.0,2400.0,BKN,2400.0,,,,,,
KRDR,06-14-2017,14:21,SPECI,Normal,210,15,22.0,,9999.0,,21.0,17.0,29.48,,,,,,,,,,,,,,,,,1500.0,1400.0,SCT,1400.0,BKN,2100.0,,,,
KRDR,06-14-2017,14:06,SPECI,Normal,190,14,,,9999.0,,21.0,19.0,29.46,,,,,,,,,,,,,,,,,900.0,800.0,SCT,800.0,BKN,1500.0,,,,
KRDR,06-14-2017,14:01,SPECI,Normal,170,12,,,9999.0,,21.0,20.0,29.47,,,,,,,,,,,,,,,,,900.0,1000.0,BKN,1000.0,OVC,1600.0,,,,
KRDR,06-14-2017,13:56,METAR,Normal,170,12,,,9999.0,,20.1,20.1,29.47,,,,,,,,,,,,,,,,,700.0,900.0,BKN,900.0,BKN,1600.0,,,,
KRDR,06-14-2017,13:51,SPECI,Normal,170,11,,,9999.0,,20.0,20.0,29.47,,,,,,,,,,,,,,,,,700.0,900.0,BKN,900.0,BKN,1400.0,,,,
KRDR,06-14-2017,13:31,SPECI,Normal,150,9,,,9999.0,,19.0,19.0,29.47,,,,,,,,,,,,,,,,,500.0,700.0,BKN,700.0,OVC,1300.0,,,,
KRDR,06-14-2017,13:16,SPECI,Normal,160,10,,,9999.0,,18.0,18.0,29.47,,,,,,,,,,,,,,,,,300.0,500.0,BKN,500.0,OVC,900.0,,,,
KRDR,06-14-2017,12:56,METAR,Normal,150,12,,,9999.0,Mist,17.1,17.1,29.47,,10,,,,,,,,,,,,,,,200.0,300.0,OVC,300.0,,,,,,
KRDR,06-14-2017,12:35,SPECI,Normal,150,8,,,9999.0,,17.0,17.0,29.47,,,,,,,,,,,,,,,,,200.0,300.0,OVC,300.0,,,,,,
KRDR,06-14-2017,12:26,SPECI,Normal,150,8,,,9999.0,,16.0,16.0,29.48,,,,,,,,,,,,,,,,,200.0,300.0,OVC,300.0,,,,,,
KRDR,06-14-2017,11:56,METAR,Normal,170,8,,,9999.0,,15.9,15.9,29.49,,,,,,,,,,,,,,,.77 IN,,400.0,400.0,OVC,400.0,,,,,,
KRDR,06-14-2017,11:46,SPECI,Normal,180,9,,,9999.0,,16.0,16.0,29.49,999.0,,,,,,,,,,,,,,,,400.0,400.0,OVC,400.0,,,,,,
KRDR,06-14-2017,11:31,SPECI,Normal,170,7,,,9999.0,,15.0,15.0,29.49,999.0,,,,,,,,,,,,,,,,500.0,500.0,OVC,500.0,,,,,,
KRDR,06-14-2017,11:01,SPECI,Normal,150,5,,,9999.0,,15.0,15.0,29.49,999.0,,,,,,,,,,,,,,,,400.0,400.0,OVC,400.0,,,,,,
KRDR,06-14-2017,10:56,METAR,Normal,150,4,,,9999.0,,14.8,14.8,29.49,999.0,,,,,,,,,,,,,,,,300.0,300.0,OVC,300.0,,,,,,
KRDR,06-14-2017,09:56,METAR,Normal,150,9,,,9999.0,,15.4,15.4,29.48,998.6,,,,,,,,,,,,,,,,200.0,300.0,BKN,300.0,,,,,,
KRDR,06-14-2017,09:49,SPECI,Normal,150,9,,,9999.0,,15.0,15.0,29.48,998.6,,,,,,,,,,,,,,,,200.0,300.0,BKN,300.0,,,,,,
KRDR,06-14-2017,09:29,SPECI,Normal,150,7,,,9999.0,,15.0,15.0,29.48,998.6,,,,,,,,,,,,,,,2/8 Mostly Clear,72000.0,200.0,FEW,200.0,,,,,,
KRDR,06-14-2017,08:56,METAR,Normal,140,5,,,9999.0,,15.3,15.3,29.48,998.5,,,,,,,,,,,,,,,Clear,72000.0,,,,,,,,,
KRDR,06-14-2017,07:56,METAR,Normal,180,6,,,9999.0,,16.1,16.1,29.51,999.5,,,,,,,,,,,,,,,,6500.0,6500.0,BKN,6500.0,,,,,,
KRDR,06-14-2017,06:56,METAR,Normal,180,8,,,9999.0,,16.5,16.5,29.49,998.8,,,,,,,,,,,,,,,Clear,72000.0,,,,,,,,,
KRDR,06-14-2017,05:56,METAR,Normal,200,7,,,9999.0,,16.4,16.4,29.50,999.2,,,,,,,,,,,,,.58 IN,,Clear,72000.0,,,,,,,,,
KRDR,06-14-2017,04:56,METAR,Normal,340,9,,020/28KTS,9999.0,,16.7,16.7,29.49,998.9,,,,,,,,,,,.28 IN,,,,,12000.0,4800.0,SCT,4800.0,BKN,12000.0,,,,
KRDR,06-14-2017,04:54,SPECI,Normal,340,9,24.0,,9999.0,,17.0,17.0,29.49,998.9,,,,,,,,,,,,,,,,12000.0,4800.0,SCT,4800.0,BKN,12000.0,,,,
KRDR,06-14-2017,04:45,SPECI,Normal,20,18,25.0,,9999.0,Light Rain,17.0,17.0,29.43,996.8,61,,,,,,,,,,,,,,,4900.0,500.0,FEW,500.0,OVC,4900.0,,,,
KRDR,06-14-2017,04:41,SPECI,Normal,360,23,,,9999.0,Rain,17.0,17.0,29.39,995.5,62,,,,,,,,,,,,,,,5000.0,500.0,SCT,500.0,BKN,5000.0,BKN,6000.0,,
KRDR,06-14-2017,04:31,SPECI,Normal,330,10,,,6400.0,Heavy Rain/Mist,17.0,17.0,29.47,998.2,63,10,,,,,,,,,,,,,,500.0,500.0,SCT,500.0,BKN,2100.0,BKN,2900.0,BKN,3800.0
KRDR,06-14-2017,04:21,SPECI,Normal,300,7,,,6400.0,Heavy Rain/Mist,17.0,17.0,29.52,999.9,63,10,,,,,,,,,,,,,,500.0,500.0,BKN,500.0,BKN,900.0,BKN,2200.0,OVC,2900.0
KRDR,06-14-2017,04:11,SPECI,Normal,320,11,,,8000.0,Heavy Rain/Mist,17.0,17.0,29.53,1000.3,63,10,,,,,,,,,,,,,,900.0,500.0,SCT,500.0,BKN,900.0,BKN,1400.0,BKN,2200.0
KRDR,06-14-2017,04:06,SPECI,Normal,310,13,,,8000.0,Rain/Mist,17.0,17.0,29.52,1000.0,62,10,,,,,,,,,,,,,,1100.0,500.0,SCT,500.0,BKN,1100.0,OVC,2200.0,,
KRDR,06-14-2017,03:56,METAR,Normal,310,12,,,9999.0,Heavy Rain/Mist,17.6,17.6,29.53,1000.3,63,10,,,,,,,,,.15 IN,,,,,1100.0,500.0,SCT,500.0,BKN,1100.0,OVC,2300.0,,
KRDR,06-14-2017,03:53,SPECI,Normal,300,12,,,9999.0,Rain/Mist,18.0,18.0,29.53,1000.3,62,10,,,,,,,,,,,,,,1100.0,600.0,FEW,600.0,BKN,1100.0,OVC,2300.0,,
KRDR,06-14-2017,03:33,SPECI,Normal,290,7,,,9999.0,Rain,19.0,19.0,29.56,1001.3,62,,,,,,,,,,,,,,,2600.0,700.0,FEW,700.0,BKN,2700.0,OVC,3500.0,,
KRDR,06-14-2017,03:26,SPECI,Normal,180,4,,,9999.0,Light Rain,19.0,19.0,29.56,1001.3,61,,,,,,,,,,,,,,,2800.0,2900.0,BKN,2900.0,BKN,3700.0,BKN,4400.0,OVC,9100.0
KRDR,06-14-2017,03:06,SPECI,Normal,110,8,,,9999.0,Light Rain/Distant Lightning,18.0,18.0,29.55,1001.1,61,12,,,,,,,,,,,,,,7000.0,400.0,FEW,400.0,SCT,900.0,BKN,7000.0,OVC,9600.0
KRDR,06-14-2017,03:01,SPECI,Normal,100,9,,,8000.0,Light Rain/Distant Lightning/Mist,18.0,18.0,29.55,1001.1,61,10,12,,,,,,,,,,,,,700.0,400.0,FEW,400.0,BKN,900.0,BKN,7000.0,OVC,10000.0
KRDR,06-14-2017,02:56,METAR,Normal,100,10,,,4400.0,Rain/Distant Lightning/Mist,17.8,17.8,29.54,1000.7,62,10,12,,,,,,,,.12 IN,.15 IN,,,,700.0,700.0,BKN,700.0,,,,,,
KRDR,06-14-2017,02:50,SPECI,Normal,80,11,,,9999.0,Heavy Rain/Distant Lightning,18.0,18.0,29.53,1000.4,63,12,,,,,,,,,,,,,,700.0,700.0,BKN,700.0,OVC,1200.0,,,,
KRDR,06-14-2017,02:35,SPECI,Normal,60,8,20.0,,9999.0,Thunderstorm and Rain or Snow Showers,17.0,17.0,29.52,1000.1,92,,,,,,,,,,,,,,,800.0,800.0,BKN,800.0,OVC,1300.0,,,,
KRDR,06-14-2017,02:17,SPECI,Normal,70,14,,,9999.0,Light Rain,17.0,17.0,29.54,1000.8,61,,,,,,,,,,,,,,,800.0,800.0,OVC,800.0,,,,,,
KRDR,06-14-2017,01:56,METAR,Normal,60,13,,,9999.0,,17.4,17.4,29.55,1001.1,,,,,,,,,,,TRACE,,,,,800.0,800.0,OVC,800.0,,,,,,
KRDR,06-14-2017,01:30,SPECI,Normal,70,12,,,9999.0,,18.0,18.0,29.57,1001.8,,,,,,,,,,,,,,,,600.0,800.0,OVC,800.0,,,,,,
KRDR,06-14-2017,01:10,SPECI,Normal,70,11,,,9999.0,,18.0,18.0,29.58,1002.1,,,,,,,,,,,,,,,,600.0,600.0,OVC,600.0,,,,,,
KRDR,06-14-2017,01:03,SPECI,Normal,70,12,,,9999.0,Light Rain,18.0,18.0,29.58,1002.1,61,,,,,,,,,,,,,,,500.0,600.0,OVC,600.0,,,,,,
KRDR,06-14-2017,00:58,SPECI,Normal,70,11,,,9999.0,Light Drizzle,18.0,18.0,29.58,1002.1,51,,,,,,,,,,,,,,,500.0,500.0,OVC,500.0,,,,,,
KRDR,06-14-2017,00:56,METAR,Normal,70,12,,,9999.0,,18.0,18.0,29.59,1002.5,,,,,,,,,,,.03 IN,,,,,500.0,500.0,OVC,500.0,,,,,,
KRDR,06-14-2017,00:55,SPECI,Normal,70,12,,,9999.0,,18.0,18.0,29.59,1002.5,,,,,,,,,,,,,,,,500.0,500.0,OVC,500.0,,,,,,
KRDR,06-14-2017,00:31,SPECI,Normal,70,14,,,9999.0,Light Rain,18.0,18.0,29.60,1002.8,61,,,,,,,,,,,,,,,400.0,500.0,OVC,500.0,,,,,,
KRDR,06-14-2017,00:06,SPECI,Normal,80,12,,,6400.0,Light Rain/Mist,19.0,19.0,29.63,1003.8,61,10,,,,,,,,,,,,,,400.0,400.0,OVC,400.0,,,,,,
KRDR,06-14-2017,00:01,SPECI,Normal,80,12,,,4400.0,Light Rain/Mist,19.0,19.0,29.63,1003.8,61,10,,,,,,,,,,,,,,500.0,500.0,OVC,500.0,,,,,,
KRDR,06-13-2017,23:56,METAR,Normal,80,11,,,4800.0,Light Rain/Mist,18.8,18.8,29.63,1003.8,61,10,,,,,,,,,.05 IN,,.07 IN,,,500.0,500.0,OVC,500.0,,,,,,
KRDR,06-13-2017,23:32,SPECI,Normal,90,9,,,9999.0,Light Drizzle,19.0,19.0,29.65,1004.5,51,,,,,,,,,,,,,,,500.0,500.0,OVC,500.0,,,,,,
KRDR,06-13-2017,23:27,SPECI,Normal,90,12,,,9999.0,Mist,19.0,19.0,29.66,1004.9,10,,,,,,,,,,,,,,,500.0,500.0,OVC,500.0,,,,,,
KRDR,06-13-2017,23:26,SPECI,Normal,80,11,,,8000.0,Light Drizzle/Mist,19.0,19.0,29.66,1004.9,51,10,,,,,,,,,,,,,,500.0,500.0,OVC,500.0,,,,,,
KRDR,06-13-2017,23:16,SPECI,Normal,100,9,,,8000.0,Light Rain/Mist,19.0,19.0,29.66,1004.9,61,10,,,,,,,,,,,,,,600.0,600.0,OVC,600.0,,,,,,
KRDR,06-13-2017,22:56,METAR,Normal,100,11,,,6400.0,Light Rain/Mist,19.0,19.0,29.68,1005.6,61,10,,,,,,,,,.02 IN,,,,,500.0,500.0,BKN,500.0,OVC,1100.0,,,,
KRDR,06-13-2017,22:54,SPECI,Normal,110,12,,,6400.0,Light Rain/Mist,19.0,19.0,29.68,1005.6,61,10,,,,,,,,,,,,,,500.0,500.0,BKN,500.0,OVC,1100.0,,,,
KRDR,06-13-2017,22:49,SPECI,Normal,100,9,,,4400.0,Light Drizzle/Mist,19.0,19.0,29.68,1005.6,51,10,,,,,,,,,,,,,,500.0,500.0,BKN,500.0,BKN,1200.0,OVC,2900.0,,
KRDR,06-13-2017,22:44,SPECI,Normal,110,9,,,4000.0,Light Drizzle/Mist,19.0,19.0,29.68,1005.6,51,10,,,,,,,,,,,,,,1200.0,600.0,SCT,600.0,BKN,1200.0,OVC,2900.0,,
KRDR,06-13-2017,22:43,SPECI,Normal,110,9,,,4000.0,Mist,19.0,19.0,29.68,1005.6,10,,,,,,,,,,,,,,,900.0,600.0,SCT,600.0,BKN,1200.0,BKN,1700.0,OVC,2900.0
KRDR,06-13-2017,22:35,SPECI,Normal,110,12,,,9999.0,Light Rain,20.0,19.0,29.68,1005.6,61,,,,,,,,,,,,,,,900.0,600.0,FEW,600.0,BKN,1200.0,BKN,1700.0,OVC,3200.0
KRDR,06-13-2017,22:30,SPECI,Normal,100,12,,,9999.0,Light Drizzle,20.0,19.0,29.68,1005.6,51,,,,,,,,,,,,,,,1400.0,800.0,FEW,800.0,BKN,1400.0,OVC,3500.0,,
KRDR,06-13-2017,21:56,METAR,Normal,120,12,,,9999.0,,21.0,18.9,29.69,1005.8,,,,,,,,,,,TRACE,,,,,3200.0,400.0,FEW,400.0,FEW,1000.0,FEW,1300.0,SCT,2500.0
KRDR,06-13-2017,21:52,SPECI,Normal,110,11,,,8000.0,Haze Smoke or Dust,21.0,19.0,29.69,1005.8,05,,,,,,,,,,,,,,,2500.0,500.0,FEW,500.0,FEW,1000.0,SCT,1700.0,BKN,2500.0
KRDR,06-13-2017,21:50,SPECI,Normal,120,14,,,9999.0,Light Drizzle,22.0,19.0,29.69,1005.8,51,,,,,,,,,,,,,,,2500.0,500.0,FEW,500.0,FEW,1300.0,SCT,2000.0,BKN,2500.0
KRDR,06-13-2017,21:45,SPECI,Normal,120,10,,,9999.0,Light Drizzle,22.0,18.0,29.69,1005.8,51,,,,,,,,,,,,,,,3200.0,500.0,FEW,500.0,FEW,1300.0,SCT,2000.0,OVC,3200.0
KRDR,06-13-2017,21:39,SPECI,Normal,110,11,,,9999.0,Light Drizzle,23.0,17.0,29.69,1005.7,51,,,,,,,,,,,,,,,3200.0,3200.0,OVC,3200.0,,,,,,
KRDR,06-13-2017,20:56,METAR,Normal,120,7,,,9999.0,,24.0,17.7,29.69,1005.7,,,,,,,,,,,,,,,,3100.0,3100.0,BKN,3100.0,OVC,7000.0,,,,
KRDR,06-13-2017,20:46,SPECI,Normal,130,8,,,9999.0,,24.0,18.0,29.69,1005.7,,,,,,,,,,,,,,,,3100.0,3100.0,BKN,3100.0,OVC,7000.0,,,,
KRDR,06-13-2017,19:56,METAR,Normal,110,11,,,9999.0,,23.5,17.2,29.72,1006.7,,,,,,,,,,,,,,,,2700.0,2800.0,OVC,2800.0,,,,,,
KRDR,06-13-2017,18:56,METAR,Normal,120,8,,,9999.0,,22.2,17.1,29.73,1007.1,,,,,,,,,,,,,,,,2100.0,2200.0,SCT,2200.0,BKN,2900.0,OVC,12000.0,,
KRDR,06-13-2017,17:56,METAR,Normal,130,11,18.0,140/26KTS,9999.0,,20.9,16.1,29.73,1007.1,,,,,,,,,,,,,.12 IN,,,1900.0,2100.0,OVC,2100.0,,,,,,
KRDR,06-13-2017,17:52,SPECI,Normal,130,9,18.0,,9999.0,,21.0,16.0,29.73,1007.1,,,,,,,,,,,,,,,,1900.0,1900.0,BKN,1900.0,OVC,2400.0,,,,
KRDR,06-13-2017,17:21,SPECI,Normal,150,20,,,9999.0,,20.0,16.0,29.74,1007.5,,,,,,,,,,,,,,,,2200.0,2200.0,BKN,2200.0,,,,,,
KRDR,06-13-2017,16:56,METAR,Normal,150,14,,,9999.0,,20.7,14.6,29.71,1006.4,,,,,,,,,,,,,,,2/8 Mostly Clear,72000.0,18000.0,FEW,18000.0,,,,,,
KRDR,06-13-2017,15:56,METAR,Normal,130,7,17.0,60/28KTS,9999.0,,19.2,15.3,29.65,1004.4,,,,,,,,,,,,,,,2/8 Mostly Clear,72000.0,20000.0,FEW,20000.0,,,,,,
KRDR,06-13-2017,14:56,METAR,Normal,90,18,36.0,100/42KTS,9999.0,,15.7,13.5,29.64,1004.1,,,,,,,,,,,.07 IN,.12 IN,,,Clear,72000.0,,,,,,,,,
KRDR,06-13-2017,14:31,SPECI,Normal,110,27,36.0,,9999.0,,15.0,14.0,29.65,1004.5,,,,,,,,,,,,,,,,4400.0,4400.0,BKN,4400.0,,,,,,
KRDR,06-13-2017,14:20,SPECI,Normal,100,28,40.0,,6400.0,Light Rain/Mist,14.0,14.0,29.69,1005.8,61,10,,,,,,,,,,,,,,5000.0,5000.0,OVC,5000.0,,,,,,
KRDR,06-13-2017,14:17,SPECI,Normal,100,26,40.0,,3600.0,Mist,14.0,14.0,29.69,1005.8,10,,,,,,,,,,,,,,,5500.0,5500.0,OVC,5500.0,,,,,,
KRDR,06-13-2017,14:16,SPECI,Normal,100,26,40.0,,4000.0,Light Rain/Mist,14.0,14.0,29.69,1005.8,61,10,,,,,,,,,,,,,,5500.0,5500.0,OVC,5500.0,,,,,,
KRDR,06-13-2017,14:01,SPECI,Normal,110,9,,,9999.0,Light Rain,14.0,14.0,29.85,1011.3,61,,,,,,,,,,,,,,,8000.0,5000.0,FEW,5000.0,SCT,6500.0,BKN,8000.0,,
KRDR,06-13-2017,13:58,SPECI,Normal,110,8,,,9999.0,,14.0,13.0,29.86,1011.6,,,,,,,,,,,,,,,,8000.0,5000.0,FEW,5000.0,SCT,6500.0,BKN,8000.0,,
KRDR,06-13-2017,13:56,METAR,Normal,110,7,,,9999.0,Light Rain,14.0,13.4,29.86,1011.6,61,,,,,,,,,,.01 IN,,,,,7500.0,5000.0,SCT,5000.0,BKN,7500.0,,,,
KRDR,06-13-2017,13:45,SPECI,Normal,120,6,,,9999.0,Light Rain,14.0,13.0,29.87,1011.9,61,,,,,,,,,,,,,,,5500.0,4500.0,FEW,4500.0,BKN,5500.0,BKN,9600.0,,
KRDR,06-13-2017,13:19,SPECI,Normal,40,5,,,9999.0,,13.0,13.0,29.86,1011.6,,,,,,,,,,,,,,,,5000.0,5000.0,BKN,5000.0,BKN,6500.0,,,,
KRDR,06-13-2017,12:56,METAR,Normal,20,4,,,9999.0,Light Rain,13.1,12.5,29.88,1012.2,61,,,,,,,,,,.04 IN,,,,,4300.0,4300.0,BKN,4300.0,BKN,7000.0,BKN,11000.0,,
KRDR,06-13-2017,11:56,METAR,Normal,330,4,,,9999.0,Light Rain,13.9,10.7,29.92,1013.5,61,,,,,,,,,,TRACE,,TRACE,,,9500.0,7000.0,SCT,7000.0,OVC,9600.0,,,,
KRDR,06-13-2017,11:50,SPECI,Normal,280,4,,,9999.0,Light Rain,14.0,11.0,29.93,1013.9,61,,,,,,,,,,,,,,,9500.0,7000.0,FEW,7000.0,OVC,9600.0,,,,
KRDR,06-13-2017,10:56,METAR,Normal,20,7,,,9999.0,,12.9,10.4,29.87,1011.8,,,,,,,,,,,,,,,,13000.0,13000.0,BKN,13000.0,,,,,,
KRDR,06-13-2017,09:56,METAR,Normal,60,5,,,9999.0,,13.8,10.0,29.89,1012.5,,,,,,,,,,,,,,,Clear,72000.0,,,,,,,,,
KRDR,06-13-2017,08:56,METAR,Normal,90,6,,,9999.0,,15.0,9.8,29.89,1012.5,,,,,,,,,,,,,,,Clear,72000.0,,,,,,,,,
KRDR,06-13-2017,07:56,METAR,Normal,90,7,,,9999.0,,15.4,10.4,29.91,1013.2,,,,,,,,,,,,,,,Clear,72000.0,,,,,,,,,
KRDR,06-13-2017,06:56,METAR,Normal,110,6,,,9999.0,,15.1,9.4,29.93,1013.9,,,,,,,,,,,,,,,Clear,72000.0,,,,,,,,,
KRDR,06-13-2017,05:56,METAR,Normal,80,8,,,9999.0,,15.9,8.4,29.94,1014.2,,,,,,,,,,,,,,,Clear,72000.0,,,,,,,,,
KRDR,06-13-2017,04:56,METAR,Normal,80,7,,,9999.0,,16.6,9.0,29.94,1014.2,,,,,,,,,,,,,,,Clear,72000.0,,,,,,,,,
KRDR,06-13-2017,03:56,METAR,Normal,80,7,,,9999.0,,17.6,9.2,29.95,1014.5,,,,,,,,,,,,,,,Clear,72000.0,,,,,,,,,
KRDR,06-13-2017,02:56,METAR,Normal,50,7,,,9999.0,,18.8,9.0,29.95,1014.5,,,,,,,,,,,,,,,Clear,72000.0,,,,,,,,,
KRDR,06-13-2017,01:56,METAR,Normal,50,8,,,9999.0,,20.7,10.2,29.93,1013.8,,,,,,,,,,,,,,,Clear,72000.0,,,,,,,,,
KRDR,06-13-2017,00:56,METAR,Normal,60,8,,,9999.0,,22.7,10.5,29.92,1013.4,,,,,,,,,,,,,,,Clear,72000.0,,,,,,,,,
KRDR,06-12-2017,23:56,METAR,Normal,70,11,,,9999.0,,23.4,10.8,29.92,,,,,,,,,,,,,,,,Clear,72000.0,,,,,,,,,
KRDR,06-12-2017,22:56,METAR,Normal,50,8,,,9999.0,,24.1,11.1,29.94,,,,,,,,,,,,,,,,Clear,72000.0,,,,,,,,,
KRDR,06-12-2017,21:56,METAR,Normal,80,10,,,9999.0,,24.0,10.6,29.95,,,,,,,,,,,,,,,,Clear,72000.0,,,,,,,,,
KRDR,06-12-2017,20:56,METAR,Normal,70,5,,,9999.0,,23.9,10.2,29.98,,,,,,,,,,,,,,,,Clear,72000.0,,,,,,,,,
KRDR,06-12-2017,19:56,METAR,Normal,20,6,,,9999.0,,23.0,10.1,29.98,,,,,,,,,,,,,,,,,19000.0,13000.0,SCT,13000.0,BKN,19000.0,,,,
KRDR,06-12-2017,18:56,METAR,Normal,40,7,,,9999.0,,23.8,10.5,29.94,,,,,,,,,,,,,,,,4/8 Partly Cloudy,72000.0,15000.0,FEW,15000.0,SCT,21000.0,,,,
KRDR,06-12-2017,17:56,METAR,Normal,30,8,,,9999.0,,23.4,11.4,29.95,1014.6,,,,,,,,,,,,,,,2/8 Mostly Clear,72000.0,18000.0,FEW,18000.0,,,,,,
KRDR,06-12-2017,16:56,METAR,Normal,20,3,,,9999.0,,23.5,9.5,29.98,1015.5,,,,,,,,,,,,,,,4/8 Partly Cloudy,72000.0,16000.0,FEW,16000.0,SCT,20000.0,,,,
KRDR,06-12-2017,15:56,METAR,Normal,10,6,,,9999.0,,22.8,9.6,29.97,1015.2,,,,,,,,,,,,,,,,19000.0,17000.0,SCT,17000.0,BKN,19000.0,,,,
KRDR,06-12-2017,14:56,METAR,Normal,20,5,,,9999.0,,22.2,9.0,29.96,1014.9,,,,,,,,,,,,,,,2/8 Mostly Clear,72000.0,16000.0,FEW,16000.0,,,,,,
KRDR,06-12-2017,13:56,METAR,Normal,30,4,,,9999.0,,20.7,9.6,29.95,1014.4,,,,,,,,,,,,,,,Clear,72000.0,,,,,,,,,
KRDR,06-12-2017,12:56,METAR,Calm,,0,,,9999.0,,18.7,11.3,29.94,1014.1,,,,,,,,,,,,,,,Clear,72000.0,,,,,,,,,
KRDR,06-12-2017,11:56,METAR,Calm,,0,,,9999.0,,14.9,9.9,29.93,1013.8,,,,,,,,,,,,,,,Clear,72000.0,,,,,,,,,
KRDR,06-12-2017,10:56,METAR,Normal,300,3,,,9999.0,,11.2,8.1,29.91,1013.1,,,,,,,,,,,,,,,Clear,72000.0,,,,,,,,,
KRDR,06-12-2017,09:56,METAR,Normal,310,7,,,9999.0,,11.5,8.2,29.88,1012.1,,,,,,,,,,,,,,,Clear,72000.0,,,,,,,,,
KRDR,06-12-2017,08:56,METAR,Normal,300,6,,,9999.0,,11.7,8.0,29.86,1011.5,,,,,,,,,,,,,,,Clear,72000.0,,,,,,,,,
KRDR,06-12-2017,07:56,METAR,Normal,300,5,,,9999.0,,12.8,8.1,29.83,1010.4,,,,,,,,,,,,,,,Clear,72000.0,,,,,,,,,
KRDR,06-12-2017,06:56,METAR,Normal,340,6,,,9999.0,,14.3,7.8,29.81,1009.7,,,,,,,,,,,,,,,Clear,72000.0,,,,,,,,,
KRDR,06-12-2017,05:56,METAR,Normal,320,5,,,9999.0,,14.7,7.5,29.80,1009.4,,,,,,,,,,,,,,,Clear,72000.0,,,,,,,,,
KRDR,06-12-2017,04:56,METAR,Normal,320,8,,,9999.0,,17.8,6.0,29.78,1008.6,,,,,,,,,,,,,,,Clear,72000.0,,,,,,,,,
KRDR,06-12-2017,03:56,METAR,Normal,300,5,,,9999.0,,17.6,5.5,29.75,1007.6,,,,,,,,,,,,,,,Clear,72000.0,,,,,,,,,
KRDR,06-12-2017,02:56,METAR,Normal,310,5,,,9999.0,,18.8,5.6,29.72,1006.6,,,,,,,,,,,,,,,Clear,72000.0,,,,,,,,,
KRDR,06-12-2017,01:56,METAR,Normal,320,7,,,9999.0,,23.1,5.0,29.70,1005.9,,,,,,,,,,,,,,,Clear,72000.0,,,,,,,,,
KRDR,06-12-2017,00:56,METAR,Normal,310,12,,,9999.0,,25.7,4.7,29.67,1004.9,,,,,,,,,,,,,,,Clear,72000.0,,,,,,,,,
KRDR,06-11-2017,23:56,METAR,Normal,310,14,21.0,310/26KTS,9999.0,,27.0,4.7,29.65,1004.1,,,,,,,,,,,,,TRACE,,Clear,72000.0,,,,,,,,,
KRDR,06-11-2017,22:56,METAR,Normal,300,13,22.0,,9999.0,,28.0,8.8,29.65,1004.1,,,,,,,,,,,,,,,Clear,72000.0,,,,,,,,,
KRDR,06-11-2017,21:56,METAR,Normal,280,10,,,9999.0,,27.7,13.2,29.65,1004.1,,,,,,,,,,,TRACE,,,,4/8 Partly Cloudy,72000.0,8000.0,SCT,8000.0,,,,,,
KRDR,06-11-2017,21:33,SPECI,Normal,280,9,,,9999.0,,25.0,13.0,29.66,1004.5,,,,,,,,,,,,,,,,8000.0,6000.0,SCT,6000.0,BKN,8000.0,OVC,10000.0,,
KRDR,06-11-2017,21:18,SPECI,Normal,270,11,,,9999.0,Light Drizzle,26.0,14.0,29.66,1004.5,51,,,,,,,,,,,,,,,10000.0,6500.0,SCT,6500.0,BKN,10000.0,,,,
KRDR,06-11-2017,20:56,METAR,Normal,250,13,18.0,,9999.0,,26.2,13.6,29.65,1004.2,,,,,,,,,,,,,,,4/8 Partly Cloudy,72000.0,6500.0,FEW,6500.0,SCT,12000.0,,,,
KRDR,06-11-2017,19:56,METAR,Normal,230,15,20.0,,9999.0,,27.1,15.1,29.67,1004.9,,,,,,,,,,,,,,,2/8 Mostly Clear,72000.0,5500.0,FEW,5500.0,,,,,,
KRDR,06-11-2017,18:56,METAR,Normal,220,14,21.0,190/26KTS,9999.0,,26.5,15.2,29.68,1005.2,,,,,,,,,,,,,,,4/8 Partly Cloudy,72000.0,5500.0,SCT,5500.0,,,,,,
KRDR,06-11-2017,17:56,METAR,Normal,220,14,22.0,,9999.0,,25.6,14.1,29.68,1005.3,,,,,,,,,,,,,,,Clear,72000.0,,,,,,,,,
KRDR,06-11-2017,16:56,METAR,Normal,220,18,23.0,,9999.0,,25.5,13.0,29.67,1004.9,,,,,,,,,,,,,,,Clear,72000.0,,,,,,,,,
KRDR,06-11-2017,15:56,METAR,Normal,230,14,,,9999.0,,24.9,13.7,29.66,1004.6,,,,,,,,,,,,,,,Clear,72000.0,,,,,,,,,
KRDR,06-11-2017,14:56,METAR,Normal,240,13,17.0,,9999.0,,23.3,14.0,29.64,1003.9,,,,,,,,,,,,,,,Clear,72000.0,,,,,,,,,
KRDR,06-11-2017,13:56,METAR,Normal,230,9,,,9999.0,,20.6,14.0,29.63,1003.5,,,,,,,,,,,,,,,4/8 Partly Cloudy,72000.0,19000.0,SCT,19000.0,,,,,,
KRDR,06-11-2017,12:56,METAR,Normal,240,8,,,9999.0,,18.9,13.5,29.63,1003.5,,,,,,,,,,,,,,,2/8 Mostly Clear,72000.0,12000.0,FEW,12000.0,FEW,18000.0,,,,
KRDR,06-11-2017,11:56,METAR,Normal,230,10,,,9999.0,,18.4,12.8,29.66,1004.6,,,,,,,,,,,,,,.1 IN,,17000.0,17000.0,OVC,17000.0,,,,,,
KRDR,06-11-2017,10:56,METAR,Normal,220,8,,,9999.0,,18.6,12.1,29.63,1003.5,,,,,,,,,,,,,,,Clear,72000.0,,,,,,,,,
KRDR,06-11-2017,09:56,METAR,Normal,230,8,,,9999.0,,18.2,10.5,29.59,1002.1,,,,,,,,,,,,,,,2/8 Mostly Clear,72000.0,17000.0,FEW,17000.0,,,,,,
KRDR,06-11-2017,08:56,METAR,Normal,220,8,,,9999.0,,18.3,10.1,29.59,1002.1,,,,,,,,,,,,,,,Clear,72000.0,,,,,,,,,
KRDR,06-11-2017,07:56,METAR,Normal,230,6,,,9999.0,,17.8,11.6,29.63,1003.5,,,,,,,,,,,,,,,,12000.0,12000.0,OVC,12000.0,,,,,,
KRDR,06-11-2017,06:56,METAR,Normal,240,5,,,9999.0,,17.1,11.4,29.61,1002.9,,,,,,,,,,,,,,,,12000.0,12000.0,BKN,12000.0,,,,,,
KRDR,06-11-2017,05:56,METAR,Normal,230,5,,,9999.0,,16.5,12.2,29.60,1002.5,,,,,,,,,,,,,,,,16000.0,13000.0,SCT,13000.0,OVC,16000.0,,,,
KRDR,06-11-2017,04:56,METAR,Normal,200,4,,,9999.0,,15.8,11.6,29.58,1001.9,,,,,,,,,,,,,,,Clear,72000.0,,,,,,,,,
KRDR,06-11-2017,03:56,METAR,Normal,190,7,,,9999.0,,15.7,11.3,29.58,1002.0,,,,,,,,,,,,,,,Clear,72000.0,,,,,,,,,
KRDR,06-11-2017,02:56,METAR,Calm,,0,,,9999.0,,19.3,10.0,29.55,1000.9,,,,,,,,,,,,,,,Clear,72000.0,,,,,,,,,
KRDR,06-11-2017,01:56,METAR,Normal,290,3,,,9999.0,,22.4,11.1,29.55,1000.8,,,,,,,,,,,,,,,Clear,72000.0,,,,,,,,,
KRDR,06-11-2017,00:56,METAR,Normal,290,6,,,9999.0,,25.6,9.8,29.53,1000.1,,,,,,,,,,,,,,,Clear,72000.0,,,,,,,,,
KRDR,06-10-2017,23:56,METAR,Normal,310,7,,,9999.0,,24.8,10.3,29.51,999.4,,,,,,,,,,,,,,,Clear,72000.0,,,,,,,,,
KRDR,06-10-2017,22:56,METAR,Normal,320,12,25.0,290/27KTS,9999.0,,24.9,6.1,29.50,999.1,,,,,,,,,,,,,,,Clear,72000.0,,,,,,,,,
KRDR,06-10-2017,21:56,METAR,Normal,310,15,22.0,330/26KTS,9999.0,,25.5,8.0,29.48,998.3,,,,,,,,,,,,,,,Clear,72000.0,,,,,,,,,
KRDR,06-10-2017,20:56,METAR,Normal,300,17,22.0,,9999.0,,25.3,9.5,29.46,997.8,,,,,,,,,,,,,,,Clear,72000.0,,,,,,,,,
KRDR,06-10-2017,19:56,METAR,Normal,320,11,,310/27KTS,9999.0,,24.8,13.3,29.44,997.1,,,,,,,,,,,,,,,2/8 Mostly Clear,72000.0,4900.0,FEW,4900.0,,,,,,
KRDR,06-10-2017,18:56,METAR,Normal,320,17,28.0,290/31KTS,9999.0,,23.8,13.9,29.43,996.7,,,,,,,,,,,,,,,2/8 Mostly Clear,72000.0,4300.0,FEW,4300.0,,,,,,
KRDR,06-10-2017,17:56,METAR,Normal,300,17,22.0,290/28KTS,9999.0,,24.1,14.8,29.41,996.0,,,,,,,,,,,,,.1 IN,,2/8 Mostly Clear,72000.0,4300.0,FEW,4300.0,,,,,,
KRDR,06-10-2017,16:56,METAR,Normal,300,12,19.0,,9999.0,,24.1,16.1,29.38,995.0,,,,,,,,,,,,,,,Clear,72000.0,,,,,,,,,
KRDR,06-10-2017,15:56,METAR,Normal,340,9,,340/27KTS,9999.0,,21.8,14.2,29.32,992.9,,,,,,,,,,,,,,,,11000.0,11000.0,BKN,11000.0,,,,,,
KRDR,06-10-2017,14:56,METAR,Normal,320,17,26.0,330/30KTS,9999.0,,21.1,16.5,29.35,994.0,,,,,,,,,,,,.1 IN,,,4/8 Partly Cloudy,72000.0,2200.0,FEW,2200.0,SCT,10000.0,,,,
KRDR,06-10-2017,14:46,SPECI,Normal,320,22,28.0,,9999.0,,20.0,17.0,29.35,994.0,,,,,,,,,,,,,,,,10000.0,2100.0,SCT,2100.0,BKN,10000.0,,,,
KRDR,06-10-2017,14:21,SPECI,Normal,310,19,27.0,,9999.0,,21.0,17.0,29.34,993.6,,,,,,,,,,,,,,,,2200.0,2200.0,BKN,2200.0,BKN,9100.0,BKN,12000.0,,
KRDR,06-10-2017,13:56,METAR,Normal,300,15,25.0,,9999.0,,20.8,17.6,29.33,993.2,,,,,,,,,,,TRACE,,,,2/8 Mostly Clear,72000.0,9500.0,FEW,9600.0,,,,,,
KRDR,06-10-2017,13:01,SPECI,Normal,180,4,,,9999.0,,19.0,19.0,29.27,991.2,,,,,,,,,,,,,,,4/8 Partly Cloudy,72000.0,3800.0,FEW,3800.0,SCT,11000.0,,,,
KRDR,06-10-2017,12:59,SPECI,Normal,200,6,,,9999.0,Light Rain,19.0,19.0,29.28,991.5,61,,,,,,,,,,,,,,4/8 Partly Cloudy,72000.0,3800.0,FEW,3800.0,SCT,11000.0,SCT,13000.0,,
KRDR,06-10-2017,12:56,METAR,Normal,240,6,,,9999.0,Thunderstorm and Rain or Snow Showers,18.7,18.5,29.30,992.2,92,,,,,,,,,,.1 IN,,,,,11000.0,3800.0,SCT,3800.0,BKN,11000.0,BKN,14000.0,,
KRDR,06-10-2017,12:44,SPECI,Normal,170,9,,,9999.0,Thunderstorm and Rain or Snow Showers,19.0,18.0,29.29,991.9,92,,,,,,,,,,,,,,,11000.0,200.0,FEW,200.0,FEW,6000.0,BKN,11000.0,BKN,14000.0
KRDR,06-10-2017,12:43,SPECI,Normal,170,9,,,9999.0,Light Rain,19.0,18.0,29.29,991.9,61,,,,,,,,,,,,,,,11000.0,200.0,FEW,200.0,FEW,6000.0,BKN,11000.0,BKN,14000.0
KRDR,06-10-2017,12:41,SPECI,Normal,160,6,,,9999.0,Light Rain,19.0,18.0,29.29,991.9,61,,,,,,,,,,,,,,,11000.0,6500.0,FEW,6500.0,BKN,11000.0,BKN,14000.0,,
KRDR,06-10-2017,12:05,SPECI,Normal,350,8,,,9999.0,,19.0,18.0,29.22,989.5,,,,,,,,,,,,,,,,12000.0,3800.0,FEW,3800.0,BKN,12000.0,,,,
KRDR,06-10-2017,11:56,METAR,Normal,340,10,,270/29KTS,9999.0,Light Rain,19.3,17.8,29.24,990.2,61,,,,,,,,,,TRACE,,TRACE,.01 IN,,12000.0,3800.0,FEW,3800.0,BKN,12000.0,OVC,15000.0,,
KRDR,06-10-2017,11:53,SPECI,Normal,330,9,,,9999.0,Light Rain,19.0,18.0,29.26,990.8,61,,,,,,,,,,,,,,,12000.0,5500.0,FEW,5500.0,BKN,12000.0,OVC,15000.0,,
KRDR,06-10-2017,11:35,SPECI,Normal,330,14,22.0,,9999.0,,19.0,18.0,29.23,989.8,,,,,,,,,,,,,,,,15000.0,3000.0,FEW,3000.0,SCT,12000.0,BKN,15000.0,OVC,18000.0
KRDR,06-10-2017,11:26,SPECI,Normal,330,14,29.0,,9999.0,Light Rain/Distant Lightning,18.0,18.0,29.21,989.1,61,12,,,,,,,,,,,,,,15000.0,2800.0,FEW,2800.0,SCT,12000.0,BKN,15000.0,BKN,18000.0
KRDR,06-10-2017,11:25,SPECI,Normal,10,11,29.0,,9999.0,Light Rain/Distant Lightning,18.0,18.0,29.14,986.7,61,12,,,,,,,,,,,,,,15000.0,2800.0,FEW,2800.0,SCT,12000.0,BKN,15000.0,BKN,18000.0
KRDR,06-10-2017,10:56,METAR,Normal,340,6,,,9999.0,,17.0,17.0,29.19,988.5,,,,,,,,,,,TRACE,,,,2/8 Mostly Clear,72000.0,18000.0,FEW,18000.0,,,,,,
KRDR,06-10-2017,10:14,SPECI,Normal,20,10,16.0,,9999.0,,19.0,18.0,29.17,987.7,,,,,,,,,,,,,,,4/8 Partly Cloudy,72000.0,8000.0,FEW,8000.0,FEW,11000.0,SCT,14000.0,,
KRDR,06-10-2017,10:13,SPECI,Normal,10,11,16.0,,9999.0,,19.0,18.0,29.17,987.7,,,,,,,,,,,,,,,4/8 Partly Cloudy,72000.0,8000.0,FEW,8000.0,FEW,11000.0,SCT,14000.0,,
KRDR,06-10-2017,09:56,METAR,Normal,330,10,,,9999.0,Light Rain,19.6,18.1,29.22,989.4,61,,,,,,,,,,TRACE,,,,,13000.0,6000.0,FEW,6000.0,FEW,8000.0,SCT,10000.0,BKN,13000.0
KRDR,06-10-2017,09:44,SPECI,Normal,300,10,,,9999.0,Light Rain,20.0,18.0,29.26,990.8,61,,,,,,,,,,,,,,,13000.0,3900.0,FEW,3900.0,BKN,13000.0,,,,
KRDR,06-10-2017,08:56,METAR,Calm,,0,,,9999.0,,15.2,15.2,29.20,988.9,,,,,,,,,,,,,,,4/8 Partly Cloudy,72000.0,22000.0,SCT,22000.0,,,,,,
KRDR,06-10-2017,07:56,METAR,Normal,160,3,,,9999.0,,17.8,17.3,29.22,989.5,,,,,,,,,,,,,,,Clear,72000.0,,,,,,,,,
KRDR,06-10-2017,06:56,METAR,Normal,120,6,,,9999.0,,19.7,16.9,29.26,990.8,,,,,,,,,,,,,,,4/8 Partly Cloudy,72000.0,14000.0,SCT,14000.0,,,,,,
KRDR,06-10-2017,05:56,METAR,Normal,100,9,,,9999.0,,20.0,17.2,29.30,992.2,,,,,,,,,,,,,.01 IN,,Clear,72000.0,,,,,,,,,
KRDR,06-10-2017,04:56,METAR,Normal,110,9,,,9999.0,,20.6,17.6,29.34,993.6,,,,,,,,,,,,,,,Clear,72000.0,,,,,,,,,
KRDR,06-10-2017,03:56,METAR,Normal,110,8,,,9999.0,,21.2,17.8,29.39,995.3,,,,,,,,,,,TRACE,,,,2/8 Mostly Clear,72000.0,11000.0,FEW,11000.0,,,,,,
KRDR,06-10-2017,03:31,SPECI,Normal,70,7,,,9999.0,,22.0,18.0,29.39,995.3,,,,,,,,,,,,,,,,11000.0,2900.0,FEW,2900.0,SCT,8600.0,BKN,11000.0,,
KRDR,06-10-2017,03:18,SPECI,Normal,140,6,,,9999.0,Light Rain,22.0,17.0,29.40,995.6,61,,,,,,,,,,,,,,4/8 Partly Cloudy,72000.0,9000.0,FEW,9100.0,SCT,11000.0,SCT,13000.0,SCT,18000.0
KRDR,06-10-2017,03:16,SPECI,Normal,150,7,,,9999.0,,22.0,17.0,29.40,995.6,,,,,,,,,,,,,,,,13000.0,8500.0,FEW,8600.0,SCT,11000.0,BKN,13000.0,BKN,18000.0
KRDR,06-10-2017,03:04,SPECI,Normal,280,10,,,9999.0,Dry Thunderstorm,23.0,17.0,29.43,996.6,91,,,,,,,,,,,,,,,13000.0,11000.0,SCT,11000.0,BKN,13000.0,BKN,18000.0,,
KRDR,06-10-2017,03:00,SPECI,Normal,210,8,,,9999.0,Thunderstorm and Rain or Snow Showers,23.0,17.0,29.42,996.3,92,,,,,,,,,,,,,,,18000.0,12000.0,SCT,12000.0,SCT,14000.0,BKN,18000.0,,
KRDR,06-10-2017,02:57,SPECI,Normal,160,12,,,9999.0,Light Rain,23.0,17.0,29.40,995.6,61,,,,,,,,,,,,,,4/8 Partly Cloudy,72000.0,11000.0,FEW,11000.0,SCT,13000.0,SCT,18000.0,,
KRDR,06-10-2017,02:56,METAR,Normal,160,13,,150/28KTS,9999.0,,22.9,17.1,29.39,995.3,,,,,,,,,,,.01 IN,.01 IN,,,4/8 Partly Cloudy,72000.0,6500.0,FEW,6500.0,SCT,11000.0,SCT,14000.0,SCT,18000.0
KRDR,06-10-2017,02:34,SPECI,Normal,150,16,25.0,,9999.0,,23.0,17.0,29.35,993.9,,,,,,,,,,,,,,,,6000.0,6000.0,BKN,6000.0,BKN,7000.0,BKN,12000.0,,
KRDR,06-10-2017,01:56,METAR,Normal,140,12,,,9999.0,Light Rain,25.4,15.4,29.36,994.2,61,,,,,,,,,,TRACE,,,,4/8 Partly Cloudy,72000.0,12000.0,FEW,12000.0,FEW,14000.0,SCT,16000.0,,
KRDR,06-10-2017,01:53,SPECI,Normal,140,14,,,9999.0,Light Rain,26.0,15.0,29.35,993.9,61,,,,,,,,,,,,,,,16000.0,12000.0,FEW,12000.0,FEW,14000.0,BKN,16000.0,,
KRDR,06-10-2017,01:17,SPECI,Normal,120,14,,,9999.0,,26.0,15.0,29.37,994.6,,,,,,,,,,,,,,,2/8 Mostly Clear,72000.0,9000.0,FEW,9100.0,,,,,,
KRDR,06-10-2017,01:07,SPECI,Normal,110,15,21.0,,9999.0,Light Drizzle,27.0,15.0,29.38,994.9,51,,,,,,,,,,,,,,4/8 Partly Cloudy,72000.0,9000.0,SCT,9100.0,,,,,,
KRDR,06-10-2017,00:56,METAR,Normal,120,14,,130/26KTS,9999.0,,26.6,14.0,29.39,995.3,,,,,,,,,,,,,,,2/8 Mostly Clear,72000.0,9500.0,FEW,9600.0,,,,,,
KRDR,06-09-2017,23:56,METAR,Normal,130,18,22.0,140/27KTS,9999.0,,27.4,14.7,29.43,996.8,,,,,,,,,,,,,,,Clear,72000.0,,,,,,,,,
KRDR,06-09-2017,22:56,METAR,Normal,130,19,26.0,120/26KTS,9999.0,,28.8,14.9,29.47,998.2,,,,,,,,,,,,,,,2/8 Mostly Clear,72000.0,15000.0,FEW,15000.0,,,,,,
KRDR,06-09-2017,21:56,METAR,Normal,130,16,24.0,,9999.0,,28.7,15.2,29.52,999.9,,,,,,,,,,,,,,,4/8 Partly Cloudy,72000.0,15000.0,SCT,15000.0,,,,,,
KRDR,06-09-2017,20:56,METAR,Normal,150,15,22.0,,9999.0,,27.3,14.3,29.56,1001.2,,,,,,,,,,,,,,,,19000.0,13000.0,FEW,13000.0,SCT,16000.0,BKN,19000.0,,
KRDR,06-09-2017,19:56,METAR,Normal,150,13,22.0,,9999.0,,27.4,14.4,29.60,1002.6,,,,,,,,,,,,,,,,9500.0,9500.0,BKN,9600.0,BKN,17000.0,,,,
KRDR,06-09-2017,18:56,METAR,Normal,150,15,23.0,,9999.0,,27.7,14.0,29.63,1003.6,,,,,,,,,,,,,,,,19000.0,13000.0,SCT,13000.0,SCT,17000.0,BKN,19000.0,,
KRDR,06-09-2017,17:56,METAR,Normal,150,11,18.0,,9999.0,,26.9,14.6,29.67,1004.9,,,,,,,,,,,,,,,4/8 Partly Cloudy,72000.0,19000.0,SCT,19000.0,,,,,,
KRDR,06-09-2017,16:56,METAR,Normal,160,12,,,9999.0,,25.5,14.3,29.70,1005.9,,,,,,,,,,,,,,,4/8 Partly Cloudy,72000.0,16000.0,FEW,16000.0,FEW,18000.0,SCT,20000.0,,
KRDR,06-09-2017,15:56,METAR,Normal,160,10,,,9999.0,,23.7,13.8,29.71,1006.2,,,,,,,,,,,,,,,,15000.0,15000.0,BKN,15000.0,BKN,21000.0,,,,
KRDR,06-09-2017,14:56,METAR,Normal,160,8,,,9999.0,,23.0,13.2,29.75,1007.6,,,,,,,,,,,,,,,,11000.0,11000.0,BKN,11000.0,BKN,18000.0,,,,
KRDR,06-09-2017,13:56,METAR,Normal,160,8,,,9999.0,,21.5,13.1,29.78,1008.6,,,,,,,,,,,,,,,Clear,72000.0,,,,,,,,,
KRDR,06-09-2017,12:56,METAR,Normal,180,6,,,9999.0,,18.5,13.6,29.79,1009.0,,,,,,,,,,,,,,,Clear,72000.0,,,,,,,,,
KRDR,06-09-2017,11:56,METAR,Calm,,0,,,9999.0,,13.3,12.7,29.80,1009.5,,,,,,,,,,,,,,,Clear,72000.0,,,,,,,,,
KRDR,06-09-2017,10:56,METAR,Calm,,0,,,9999.0,,9.9,9.7,29.80,1009.5,,,,,,,,,,,,,,,Clear,72000.0,,,,,,,,,
KRDR,06-09-2017,09:56,METAR,Calm,,0,,,9999.0,,10.8,9.5,29.80,1009.5,,,,,,,,,,,,,,,Clear,72000.0,,,,,,,,,
KRDR,06-09-2017,08:56,METAR,Calm,,0,,,9999.0,,11.9,10.6,29.81,1009.8,,,,,,,,,,,,,,,Clear,72000.0,,,,,,,,,
KRDR,06-09-2017,07:56,METAR,Calm,,0,,,9999.0,,12.0,10.4,29.82,1010.2,,,,,,,,,,,,,,,Clear,72000.0,,,,,,,,,
KRDR,06-09-2017,06:56,METAR,Calm,,0,,,9999.0,,12.6,10.5,29.83,1010.5,,,,,,,,,,,,,,,Clear,72000.0,,,,,,,,,
KRDR,06-09-2017,05:56,METAR,Calm,,0,,,9999.0,,15.8,10.1,29.85,1011.1,,,,,,,,,,,,,,,Clear,72000.0,,,,,,,,,
KRDR,06-09-2017,04:56,METAR,Normal,130,4,,,9999.0,,18.1,10.2,29.86,1011.4,,,,,,,,,,,,,,,Clear,72000.0,,,,,,,,,
KRDR,06-09-2017,03:56,METAR,Normal,120,5,,,9999.0,,19.5,9.9,29.87,1011.8,,,,,,,,,,,,,,,Clear,72000.0,,,,,,,,,
KRDR,06-09-2017,02:56,METAR,Normal,110,4,,,9999.0,,20.7,10.8,29.87,1011.8,,,,,,,,,,,,,,,Clear,72000.0,,,,,,,,,
KRDR,06-09-2017,01:56,METAR,Normal,120,3,,,9999.0,,23.2,11.9,29.87,1011.7,,,,,,,,,,,,,,,Clear,72000.0,,,,,,,,,
KRDR,06-09-2017,00:56,METAR,Normal,100,7,,,9999.0,,25.2,11.4,29.88,1012.1,,,,,,,,,,,,,,,Clear,72000.0,,,,,,,,,
KRDR,06-08-2017,23:56,METAR,Normal,120,8,,,9999.0,,26.0,11.3,29.89,1012.4,,,,,,,,,,,,,,,Clear,72000.0,,,,,,,,,
KRDR,06-08-2017,22:56,METAR,Normal,100,7,,,9999.0,,26.5,11.8,29.89,1012.4,,,,,,,,,,,,,,,Clear,72000.0,,,,,,,,,
KRDR,06-08-2017,21:56,METAR,Normal,90,8,,,9999.0,,26.3,13.4,29.92,1013.5,,,,,,,,,,,,,,,2/8 Mostly Clear,72000.0,5500.0,FEW,5500.0,,,,,,
KRDR,06-08-2017,20:56,METAR,Normal,90,11,,,9999.0,,25.6,14.4,29.94,1014.1,,,,,,,,,,,,,,,2/8 Mostly Clear,72000.0,5000.0,FEW,5000.0,,,,,,
KRDR,06-08-2017,19:56,METAR,Normal,110,6,,,9999.0,,24.9,14.0,29.95,1014.5,,,,,,,,,,,,,,,2/8 Mostly Clear,72000.0,4500.0,FEW,4500.0,,,,,,
KRDR,06-08-2017,18:56,METAR,Normal,50,10,,,9999.0,,24.6,16.0,29.97,1015.2,,,,,,,,,,,,,,,4/8 Partly Cloudy,72000.0,3600.0,FEW,3600.0,SCT,4400.0,,,,
KRDR,06-08-2017,17:56,METAR,Normal,60,9,,,9999.0,,23.6,15.6,29.98,1015.5,,,,,,,,,,,,,,,4/8 Partly Cloudy,72000.0,3100.0,SCT,3100.0,,,,,,
KRDR,06-08-2017,16:56,METAR,Normal,40,8,,,9999.0,,22.2,16.0,29.99,1015.9,,,,,,,,,,,,,,,4/8 Partly Cloudy,72000.0,2800.0,SCT,2800.0,,,,,,
KRDR,06-08-2017,16:16,SPECI,Normal,350,5,,,9999.0,,22.0,16.0,30.00,1016.3,,,,,,,,,,,,,,,4/8 Partly Cloudy,72000.0,2100.0,SCT,2100.0,,,,,,
KRDR,06-08-2017,15:56,METAR,Normal,10,6,,,9999.0,,20.5,15.9,30.00,1016.3,,,,,,,,,,,,,,,,2100.0,2100.0,BKN,2100.0,,,,,,
KRDR,06-08-2017,15:51,SPECI,Normal,20,5,,,9999.0,,21.0,16.0,30.00,1016.3,,,,,,,,,,,,,,,4/8 Partly Cloudy,72000.0,2000.0,SCT,2000.0,,,,,,
KRDR,06-08-2017,14:56,METAR,Normal,40,9,,,9999.0,,19.8,16.4,30.00,1016.3,,,,,,,,,,,,,,,,1400.0,1500.0,BKN,1500.0,BKN,1900.0,,,,
KRDR,06-08-2017,14:52,SPECI,Normal,20,8,,,9999.0,,20.0,17.0,30.00,1016.3,,,,,,,,,,,,,,,,1400.0,1500.0,BKN,1500.0,BKN,1900.0,,,,
KRDR,06-08-2017,13:56,METAR,Normal,20,7,,,9999.0,,18.6,16.4,30.01,1016.6,,,,,,,,,,,,,,,2/8 Mostly Clear,72000.0,1000.0,FEW,1000.0,,,,,,
KRDR,06-08-2017,13:52,SPECI,Normal,20,7,,,9999.0,,19.0,17.0,30.01,1016.6,,,,,,,,,,,,,,,2/8 Mostly Clear,72000.0,1000.0,FEW,1000.0,,,,,,
KRDR,06-08-2017,12:56,METAR,Normal,10,7,,,9999.0,,16.7,16.4,30.00,1016.3,,,,,,,,,,,,,,,Clear,72000.0,,,,,,,,,
KRDR,06-08-2017,11:56,METAR,Normal,10,6,,,9999.0,,15.1,15.1,30.00,1016.3,,,,,,,,,,,,,,.43 IN,Clear,72000.0,,,,,,,,,
KRDR,06-08-2017,10:56,METAR,Normal,360,7,,,9999.0,,14.5,14.5,29.99,1015.9,,,,,,,,,,,,,,,Clear,72000.0,,,,,,,,,
KRDR,06-08-2017,09:56,METAR,Normal,360,7,,,9999.0,,14.6,14.6,29.98,1015.6,,,,,,,,,,,,,,,Clear,72000.0,,,,,,,,,
KRDR,06-08-2017,08:56,METAR,Normal,340,5,,,9999.0,,15.0,15.0,29.98,1015.6,,,,,,,,,,,,,,,Clear,72000.0,,,,,,,,,
KRDR,06-08-2017,07:56,METAR,Normal,330,7,,,9999.0,,15.0,14.8,29.98,1015.7,,,,,,,,,,,,,,,Clear,72000.0,,,,,,,,,
KRDR,06-08-2017,06:56,METAR,Normal,310,6,,,9999.0,,14.1,14.1,29.97,1015.4,,,,,,,,,,,,,,,Clear,72000.0,,,,,,,,,
KRDR,06-08-2017,05:56,METAR,Calm,,0,,,9999.0,,15.9,15.7,29.97,1015.3,,,,,,,,,,,TRACE,,TRACE,,2/8 Mostly Clear,72000.0,7500.0,FEW,7500.0,,,,,,
KRDR,06-08-2017,05:15,SPECI,Calm,,0,,,9999.0,,16.0,16.0,29.98,1015.5,,,,,,,,,,,,,,,,8000.0,8000.0,BKN,8000.0,,,,,,
KRDR,06-08-2017,05:06,SPECI,Calm,,0,,,9999.0,Light Rain,15.0,15.0,29.98,1015.6,61,,,,,,,,,,,,,,,8000.0,8000.0,BKN,8000.0,,,,,,
KRDR,06-08-2017,04:56,METAR,Calm,,0,,,9999.0,,15.0,15.0,29.98,1015.6,,,,,,,,,,,,,,,4/8 Partly Cloudy,72000.0,7500.0,SCT,7500.0,,,,,,
KRDR,06-08-2017,03:56,METAR,Normal,320,3,,,9999.0,,14.3,14.3,29.98,1015.7,,,,,,,,,,,,,,,Clear,72000.0,,,,,,,,,
KRDR,06-08-2017,02:56,METAR,Normal,30,3,,,9999.0,,16.1,14.6,29.97,1015.3,,,,,,,,,,,,,,,Clear,72000.0,,,,,,,,,
KRDR,06-08-2017,01:56,METAR,Normal,360,3,,,9999.0,,18.6,15.5,29.96,1014.9,,,,,,,,,,,,,,,Clear,72000.0,,,,,,,,,
KRDR,06-08-2017,00:56,METAR,Normal,30,6,,,9999.0,,21.3,13.5,29.96,1014.9,,,,,,,,,,,,,,,Clear,72000.0,,,,,,,,,
KRDR,06-07-2017,23:56,METAR,Normal,40,6,,,9999.0,,21.8,14.7,29.96,1015.0,,,,,,,,,,,,,.43 IN,,Clear,72000.0,,,,,,,,,
KRDR,06-07-2017,22:56,METAR,Normal,60,6,,,9999.0,,22.0,13.9,29.95,1014.6,,,,,,,,,,,,,,,2/8 Mostly Clear,72000.0,8000.0,FEW,8000.0,,,,,,
KRDR,06-07-2017,21:56,METAR,Normal,90,10,,,9999.0,,23.2,16.0,29.96,1014.9,,,,,,,,,,,,,,,2/8 Mostly Clear,72000.0,3200.0,FEW,3200.0,,,,,,
KRDR,06-07-2017,20:56,METAR,Normal,70,7,,,9999.0,,22.3,15.4,29.96,1014.9,,,,,,,,,,,,.43 IN,,,Clear,72000.0,,,,,,,,,
KRDR,06-07-2017,19:56,METAR,Normal,40,8,,,9999.0,,19.9,16.1,29.97,1015.3,,,,,,,,,,,TRACE,,,,4/8 Partly Cloudy,72000.0,4600.0,FEW,4600.0,FEW,8000.0,FEW,17000.0,SCT,20000.0
KRDR,06-07-2017,19:16,SPECI,Normal,30,5,,,9999.0,Distant Lightning,17.0,16.0,29.98,1015.7,12,,,,,,,,,,,,,,,7000.0,2800.0,FEW,2800.0,BKN,7000.0,OVC,8600.0,,
KRDR,06-07-2017,19:12,SPECI,Normal,20,9,,,9999.0,Light Rain/Distant Lightning,17.0,17.0,29.99,1016.1,61,12,,,,,,,,,,,,,,7000.0,2800.0,FEW,2800.0,OVC,7000.0,,,,
KRDR,06-07-2017,18:52,METAR,Normal,40,8,,,9999.0,Thunderstorm with Rain or Snow,16.9,15.4,29.98,1015.7,,,,95,,,,,,,.43 IN,,,,,2500.0,400.0,FEW,400.0,FEW,2200.0,BKN,2900.0,OVC,7000.0
KRDR,06-07-2017,18:17,SPECI,Normal,160,11,,,9999.0,Thunderstorm and Hail/Rain,,,,1015.3,,,,96,61,,,,,,,,,,,,,,,,,,,,
KRDR,06-07-2017,18:05,SPECI,Normal,140,7,,,9999.0,Thunderstorm with Rain or Snow/Funnel Cloud,22.0,17.0,29.98,1015.5,,,,19,95,,,,,,,,,,,4100.0,2200.0,FEW,2200.0,SCT,3400.0,BKN,4100.0,BKN,10000.0
KRDR,06-07-2017,17:56,METAR,Normal,120,7,,,9999.0,Light Rain,22.6,16.6,29.98,1015.5,61,,,,,,,,,,TRACE,,TRACE,,,14000.0,1600.0,FEW,1600.0,SCT,3500.0,SCT,6000.0,SCT,10000.0
KRDR,06-07-2017,17:48,SPECI,Normal,130,8,17.0,,9999.0,Light Drizzle,23.0,16.0,29.97,1015.1,51,,,,,,,,,,,,,,4/8 Partly Cloudy,72000.0,3300.0,FEW,3300.0,SCT,14000.0,,,,
KRDR,06-07-2017,17:26,SPECI,Normal,150,8,,,9999.0,,24.0,16.0,29.98,1015.5,,,,,,,,,,,,,,,4/8 Partly Cloudy,72000.0,3000.0,SCT,3000.0,,,,,,
KRDR,06-07-2017,17:11,SPECI,Normal,150,7,,,9999.0,,24.0,16.0,29.99,1015.8,,,,,,,,,,,,,,,,2900.0,2900.0,BKN,2900.0,,,,,,
KRDR,06-07-2017,16:56,METAR,Normal,130,6,,,9999.0,,23.3,16.3,30.00,1016.2,,,,,,,,,,,,,,,,2700.0,2700.0,BKN,2700.0,BKN,7500.0,,,,
KRDR,06-07-2017,15:56,METAR,Normal,120,6,,,9999.0,,22.1,16.6,30.01,1016.5,,,,,,,,,,,,,,,,11000.0,2300.0,FEW,2300.0,BKN,11000.0,,,,
KRDR,06-07-2017,14:56,METAR,Normal,140,5,,,9999.0,,21.4,17.0,30.02,1016.8,,,,,,,,,,,,,,,4/8 Partly Cloudy,72000.0,11000.0,SCT,11000.0,,,,,,
KRDR,06-07-2017,13:56,METAR,Normal,210,5,,,9999.0,,20.1,17.5,30.03,1017.2,,,,,,,,,,,,,,,Clear,72000.0,,,,,,,,,
KRDR,06-07-2017,12:56,METAR,Calm,,0,,,8000.0,Mist,15.8,15.8,30.03,1017.3,10,,,,,,,,,,,,,,Clear,72000.0,,,,,,,,,
KRDR,06-07-2017,11:56,METAR,Calm,,0,,,9999.0,Fog or Ice Fog,13.6,13.6,30.03,1017.3,31,,,,,,,,,,,,.1 IN,.1 IN,4/8 Partly Cloudy,72000.0,0.0,SCT,0.0,SCT,8000.0,,,,
KRDR,06-07-2017,11:01,SPECI,Calm,,0,,,9999.0,Mist,15.0,15.0,30.04,1017.6,10,,,,,,,,,,,,,,Clear,72000.0,,,,,,,,,
KRDR,06-07-2017,10:56,METAR,Calm,,0,,,2400.0,Mist,15.0,15.0,30.04,1017.5,10,,,,,,,,,,,,,,Clear,72000.0,,,,,,,,,
KRDR,06-07-2017,09:56,METAR,Normal,180,4,,,9999.0,,16.1,16.1,30.04,1017.5,,,,,,,,,,,.02 IN,,,,,9500.0,9500.0,OVC,9600.0,,,,,,
KRDR,06-07-2017,09:28,SPECI,Normal,180,3,,,9999.0,,16.0,16.0,30.03,1017.1,,,,,,,,,,,,,,,,9000.0,4000.0,FEW,4000.0,OVC,9100.0,,,,
KRDR,06-07-2017,09:05,SPECI,Calm,,0,,,9999.0,Light Rain,17.0,16.0,30.03,1017.1,61,,,,,,,,,,,,,,,8500.0,8500.0,OVC,8600.0,,,,,,
KRDR,06-07-2017,08:56,METAR,Normal,130,3,,,9999.0,,16.7,16.5,30.02,1016.7,,,,,,,,,,,.01 IN,.08 IN,,,,8500.0,6000.0,FEW,6000.0,OVC,8600.0,,,,
KRDR,06-07-2017,08:46,SPECI,Calm,,0,,,9999.0,,17.0,17.0,30.03,1017.1,,,,,,,,,,,,,,,,8500.0,4000.0,FEW,4000.0,OVC,8600.0,,,,
KRDR,06-07-2017,08:23,SPECI,Normal,290,4,,,9999.0,Light Rain,17.0,16.0,30.02,1016.7,61,,,,,,,,,,,,,,,8000.0,700.0,FEW,700.0,OVC,8000.0,,,,
KRDR,06-07-2017,08:22,SPECI,Normal,290,4,,,9999.0,Light Rain,17.0,16.0,30.02,1016.7,61,,,,,,,,,,,,,,,8000.0,8000.0,OVC,8000.0,,,,,,
KRDR,06-07-2017,08:09,SPECI,Calm,,0,,,9999.0,,17.0,15.0,30.02,1016.7,,,,,,,,,,,,,,,,8000.0,900.0,FEW,900.0,OVC,8000.0,,,,
KRDR,06-07-2017,07:59,SPECI,Normal,60,3,,,9999.0,,17.0,15.0,30.01,1016.3,,,,,,,,,,,,,,,,8000.0,2800.0,FEW,2800.0,BKN,8000.0,,,,
KRDR,06-07-2017,07:56,METAR,Normal,60,4,,,9999.0,Light Rain,17.4,15.6,30.01,1016.3,61,,,,,,,,,,.07 IN,,,,,8000.0,2800.0,FEW,2800.0,BKN,8000.0,,,,
KRDR,06-07-2017,06:56,METAR,Normal,310,6,,,9999.0,Light Rain,18.3,15.2,30.03,1017.0,61,,,,,,,,,,TRACE,,,,,6000.0,3500.0,SCT,3500.0,SCT,4700.0,BKN,6000.0,OVC,11000.0
KRDR,06-07-2017,06:49,SPECI,Normal,300,4,,,9999.0,Light Rain,18.0,15.0,30.03,1017.1,61,,,,,,,,,,,,,,,11000.0,1100.0,FEW,1100.0,SCT,7000.0,BKN,11000.0,,
KRDR,06-07-2017,06:48,SPECI,Normal,300,4,,,9999.0,Light Rain,18.0,15.0,30.03,1017.1,61,,,,,,,,,,,,,,,11000.0,1700.0,FEW,1700.0,FEW,5500.0,SCT,7000.0,BKN,11000.0
KRDR,06-07-2017,06:36,SPECI,Normal,290,6,,,9999.0,,18.0,15.0,30.04,1017.4,,,,,,,,,,,,,,,,11000.0,2000.0,FEW,2000.0,FEW,6000.0,BKN,11000.0,,
KRDR,06-07-2017,06:14,SPECI,Normal,270,3,,,9999.0,Light Rain,18.0,15.0,30.03,1017.1,61,,,,,,,,,,,,,,,10000.0,6000.0,FEW,6000.0,BKN,10000.0,BKN,12000.0,,
KRDR,06-07-2017,05:56,METAR,Normal,270,5,,,9999.0,,18.4,14.5,30.03,1017.1,,,,,,,,,,,TRACE,,TRACE,,,10000.0,10000.0,BKN,10000.0,,,,,,
KRDR,06-07-2017,05:23,SPECI,Normal,280,3,,,9999.0,,18.0,15.0,30.03,1017.1,,,,,,,,,,,,,,,,10000.0,10000.0,BKN,10000.0,,,,,,
KRDR,06-07-2017,05:13,SPECI,Normal,260,4,,,9999.0,Light Rain,18.0,15.0,30.03,1017.1,61,,,,,,,,,,,,,,,10000.0,10000.0,BKN,10000.0,,,,,,
KRDR,06-07-2017,04:56,METAR,Normal,310,3,,,9999.0,,17.9,14.6,30.02,1016.7,,,,,,,,,,,,,,,,10000.0,10000.0,BKN,10000.0,,,,,,
KRDR,06-07-2017,03:56,METAR,Calm,,0,,,9999.0,,19.7,14.1,30.03,1017.1,,,,,,,,,,,,,,,,10000.0,10000.0,BKN,10000.0,,,,,,
KRDR,06-07-2017,02:56,METAR,Normal,300,3,,,9999.0,,20.8,13.5,30.01,,,,,,,,,,,,,,,,,8000.0,8000.0,BKN,8000.0,,,,,,
KRDR,06-07-2017,01:56,METAR,Normal,340,7,,,9999.0,,22.3,13.1,29.99,,,,,,,,,,,,,,,,4/8 Partly Cloudy,72000.0,8000.0,FEW,8000.0,SCT,9100.0,SCT,15000.0,,
KRDR,06-07-2017,00:56,METAR,Normal,330,10,,,9999.0,,22.0,12.8,29.99,1015.8,,,,,,,,,,,,,,,2/8 Mostly Clear,72000.0,9000.0,FEW,9100.0,,,,,,
KRDR,06-06-2017,23:56,METAR,Normal,300,16,22.0,,9999.0,,23.8,12.4,29.98,1015.5,,,,,,,,,,,,,,,2/8 Mostly Clear,72000.0,13000.0,FEW,13000.0,,,,,,
KRDR,06-06-2017,22:56,METAR,Normal,300,16,20.0,,9999.0,,26.2,14.6,29.98,1015.5,,,,,,,,,,,,,,,Clear,72000.0,,,,,,,,,
KRDR,06-06-2017,21:56,METAR,Normal,280,14,,,9999.0,,28.8,16.0,29.97,1015.0,,,,,,,,,,,,,,,Clear,72000.0,,,,,,,,,
KRDR,06-06-2017,20:56,METAR,Normal,270,7,14.0,,9999.0,,29.6,16.4,29.97,1015.0,,,,,,,,,,,,,,,Clear,72000.0,,,,,,,,,
KRDR,06-06-2017,19:56,METAR,Normal,230,9,,,9999.0,,30.0,14.1,29.98,1015.3,,,,,,,,,,,,,,,,,11000.0,FEW,11000.0,,,,,,
KRDR,06-06-2017,18:56,METAR,Normal,200,8,,,9999.0,,29.2,13.4,29.99,1015.7,,,,,,,,,,,,,,,,,20000.0,FEW,20000.0,,,,,,
KRDR,06-06-2017,17:56,METAR,Normal,200,10,,,9999.0,,28.6,12.5,30.00,1015.9,,,,,,,,,,,,,,,Clear,72000.0,,,,,,,,,
KRDR,06-06-2017,16:56,METAR,Normal,200,10,,,9999.0,,26.9,11.8,30.01,1016.3,,,,,,,,,,,,,,,Clear,72000.0,,,,,,,,,
KRDR,06-06-2017,16:55,METAR,Normal,180,10,,,9999.0,,27.2,12.0,30.01,1016.3,,,,,,,,,,,,,,,Clear,72000.0,,,,,,,,,
KRDR,06-06-2017,15:56,METAR,Normal,170,12,,,9999.0,,25.1,10.2,30.02,1016.7,,,,,,,,,,,,,,,Clear,72000.0,,,,,,,,,
KRDR,06-06-2017,14:58,METAR,Normal,160,15,21.0,,9999.0,,23.1,6.9,30.03,,,,,,,,,,,,,,,,,,7000.0,FEW,7000.0,FEW,12000.0,,,,
KRDR,06-06-2017,12:56,METAR,Normal,180,13,,,9999.0,,19.6,8.9,30.04,1017.4,,,,,,,,,,,,,,,Clear,72000.0,,,,,,,,,
KRDR,06-06-2017,11:56,METAR,Normal,180,12,,,9999.0,,18.3,9.1,30.04,1017.4,,,,,,,,,,,,,,,Clear,72000.0,,,,,,,,,
KRDR,06-06-2017,10:56,METAR,Normal,200,6,,,9999.0,,16.2,9.8,30.04,1017.5,,,,,,,,,,,,,,,,,10000.0,FEW,10000.0,,,,,,
KRDR,06-06-2017,09:56,METAR,Normal,170,7,,,9999.0,,16.4,9.3,30.02,1016.8,,,,,,,,,,,,,,,Clear,72000.0,,,,,,,,,
KRDR,06-06-2017,08:56,METAR,Normal,160,7,,,9999.0,,16.7,9.1,30.01,1016.4,,,,,,,,,,,,,,,Clear,72000.0,,,,,,,,,
KRDR,06-06-2017,07:56,METAR,Normal,160,8,,,9999.0,,18.2,9.0,30.00,1016.1,,,,,,,,,,,,,,,Clear,72000.0,,,,,,,,,
KRDR,06-06-2017,06:56,METAR,Normal,160,10,,,9999.0,,19.4,9.3,29.99,1015.8,,,,,,,,,,,,,,,Clear,72000.0,,,,,,,,,
KRDR,06-06-2017,05:56,METAR,Normal,160,11,,,9999.0,,20.6,10.7,29.98,1015.4,,,,,,,,,,,,,,,Clear,72000.0,,,,,,,,,
KRDR,06-06-2017,04:56,METAR,Normal,160,9,,,9999.0,,21.5,11.5,29.98,1015.4,,,,,,,,,,,,,,,Clear,72000.0,,,,,,,,,
KRDR,06-06-2017,03:56,METAR,Normal,150,7,,,9999.0,,21.3,11.6,29.98,1015.4,,,,,,,,,,,,,,,Clear,72000.0,,,,,,,,,
KRDR,06-06-2017,02:56,METAR,Normal,150,6,,,9999.0,,22.6,12.5,29.97,1015.1,,,,,,,,,,,,,,,Clear,72000.0,,,,,,,,,
KRDR,06-06-2017,01:57,METAR,Normal,150,7,,,9999.0,,24.7,12.3,29.94,1014.1,,,,,,,,,,,,,,,Clear,72000.0,,,,,,,,,
KRDR,06-06-2017,00:56,METAR,Normal,140,7,,,9999.0,,27.4,12.2,29.94,,,,,,,,,,,,,,,,Clear,72000.0,,,,,,,,,
KRDR,06-05-2017,23:56,METAR,Normal,120,7,,,9999.0,,27.8,12.9,29.94,,,,,,,,,,,,,,,,Clear,72000.0,,,,,,,,,
KRDR,06-05-2017,22:56,METAR,Normal,120,7,,,9999.0,,28.3,13.4,29.94,,,,,,,,,,,,,,,,,,7000.0,FEW,7000.0,,,,,,
KRDR,06-05-2017,21:56,METAR,Normal,130,6,,,9999.0,,28.0,13.9,29.95,,,,,,,,,,,,,,,,2/8 Mostly Clear,72000.0,6500.0,FEW,6500.0,,,,,,
KRDR,06-05-2017,20:56,METAR,Normal,160,7,,,9999.0,,27.2,13.9,29.96,,,,,,,,,,,,,,,,2/8 Mostly Clear,72000.0,5500.0,FEW,5500.0,,,,,,
KRDR,06-05-2017,19:56,METAR,Normal,170,8,,,9999.0,,26.7,14.1,29.98,,,,,,,,,,,,,,,,Clear,72000.0,,,,,,,,,
KRDR,06-05-2017,18:56,METAR,Normal,140,9,,,9999.0,,25.9,14.0,29.98,,,,,,,,,,,,,,,,Clear,72000.0,,,,,,,,,
KRDR,06-05-2017,17:56,METAR,Normal,180,3,,,9999.0,,24.8,14.3,29.99,1015.8,,,,,,,,,,,,,,,2/8 Mostly Clear,72000.0,4100.0,FEW,4100.0,,,,,,
KRDR,06-05-2017,16:56,METAR,Normal,170,6,,,9999.0,,24.2,14.3,30.00,1016.2,,,,,,,,,,,,,,,Clear,72000.0,,,,,,,,,
KRDR,06-05-2017,15:56,METAR,Normal,140,6,,,9999.0,,22.8,14.9,30.01,1016.5,,,,,,,,,,,,,,,Clear,72000.0,,,,,,,,,
KRDR,06-05-2017,14:56,METAR,Normal,170,3,,,9999.0,,21.5,15.1,30.01,1016.5,,,,,,,,,,,,,,,Clear,72000.0,,,,,,,,,
KRDR,06-05-2017,13:56,METAR,Normal,140,4,,,9999.0,,19.8,15.4,30.01,1016.5,,,,,,,,,,,,,,,Clear,72000.0,,,,,,,,,
KRDR,06-05-2017,12:56,METAR,Normal,130,5,,,9999.0,,17.9,14.6,30.00,1016.2,,,,,,,,,,,,,,,Clear,72000.0,,,,,,,,,
KRDR,06-05-2017,11:56,METAR,Calm,,0,,,9999.0,,15.5,14.9,29.99,1015.9,,,,,,,,,,,,,,,Clear,72000.0,,,,,,,,,
KRDR,06-05-2017,10:56,METAR,Normal,110,4,,,9999.0,,13.0,13.0,29.98,1015.6,,,,,,,,,,,,,,,Clear,72000.0,,,,,,,,,
KRDR,06-05-2017,09:56,METAR,Calm,,0,,,9999.0,,11.5,11.5,29.97,1015.3,,,,,,,,,,,,,,,Clear,72000.0,,,,,,,,,
KRDR,06-05-2017,08:56,METAR,Normal,30,3,,,9999.0,,12.0,11.8,29.97,1015.3,,,,,,,,,,,,,,,Clear,72000.0,,,,,,,,,
KRDR,06-05-2017,07:56,METAR,Calm,,0,,,9999.0,,11.7,11.1,29.96,1014.9,,,,,,,,,,,,,,,Clear,72000.0,,,,,,,,,
KRDR,06-05-2017,06:56,METAR,Normal,90,3,,,9999.0,,16.0,11.8,29.96,1014.8,,,,,,,,,,,,,,,Clear,72000.0,,,,,,,,,
KRDR,06-05-2017,05:56,METAR,Normal,80,7,,,9999.0,,17.0,11.9,29.95,1014.5,,,,,,,,,,,,,,,Clear,72000.0,,,,,,,,,
KRDR,06-05-2017,04:56,METAR,Normal,80,5,,,9999.0,,16.1,11.5,29.94,1014.2,,,,,,,,,,,,,,,Clear,72000.0,,,,,,,,,
KRDR,06-05-2017,03:56,METAR,Normal,80,6,,,9999.0,,19.0,11.8,29.94,1014.1,,,,,,,,,,,,,,,Clear,72000.0,,,,,,,,,
KRDR,06-05-2017,02:56,METAR,Normal,70,7,,,9999.0,,20.4,12.1,29.93,1013.8,,,,,,,,,,,,,,,Clear,72000.0,,,,,,,,,
KRDR,06-05-2017,01:56,METAR,Normal,50,6,,,9999.0,,21.2,12.3,29.91,1013.1,,,,,,,,,,,,,,,Clear,72000.0,,,,,,,,,
KRDR,06-05-2017,00:56,METAR,Normal,20,7,,,9999.0,,22.4,12.9,29.90,1012.7,,,,,,,,,,,,,,,Clear,72000.0,,,,,,,,,
KRDR,06-04-2017,23:56,METAR,Normal,30,11,,,9999.0,,24.5,11.8,29.89,1012.4,,,,,,,,,,,,,,,2/8 Mostly Clear,72000.0,6000.0,FEW,6000.0,,,,,,
KRDR,06-04-2017,22:56,METAR,Normal,30,13,,,9999.0,,25.6,12.4,29.89,1012.4,,,,,,,,,,,,,,,2/8 Mostly Clear,72000.0,6000.0,FEW,6000.0,,,,,,
KRDR,06-04-2017,21:56,METAR,Normal,10,11,,,9999.0,,25.7,12.2,29.89,1012.4,,,,,,,,,,,,,,,2/8 Mostly Clear,72000.0,6000.0,FEW,6000.0,,,,,,
KRDR,06-04-2017,21:00,SPECI,Normal,350,13,,,9999.0,,25.0,13.0,29.89,1012.4,,,,,,,,,,,,,,,Clear,72000.0,,,,,,,,,
KRDR,06-04-2017,20:56,METAR,Normal,20,13,16.0,,9999.0,,25.4,12.9,29.89,1012.4,,,,,,,,,,,,,,,Clear,72000.0,,,,,,,,,
KRDR,06-04-2017,20:49,SPECI,Normal,30,13,,,9999.0,,26.0,13.0,29.89,1012.4,,,,,,,,,,,,,,,Clear,72000.0,,,,,,,,,
KRDR,06-04-2017,19:56,METAR,Normal,30,13,20.0,,9999.0,,25.1,13.9,29.89,1012.4,,,,,,,,,,,,,,,Clear,72000.0,,,,,,,,,
KRDR,06-04-2017,18:56,METAR,Normal,340,8,,,9999.0,,25.3,13.8,29.88,1012.1,,,,,,,,,,,,,,,Clear,72000.0,,,,,,,,,
KRDR,06-04-2017,18:18,SPECI,Normal,340,14,,,9999.0,,25.0,13.0,29.89,1012.4,,,,,,,,,,,,,,,2/8 Mostly Clear,72000.0,5000.0,FEW,5000.0,,,,,,
KRDR,06-04-2017,18:07,SPECI,Normal,20,13,17.0,,9999.0,,25.0,13.0,29.89,1012.4,,,,,,,,,,,,,,,2/8 Mostly Clear,72000.0,5000.0,FEW,5000.0,,,,,,
KRDR,06-04-2017,17:56,METAR,Normal,350,15,21.0,,9999.0,,24.8,13.3,29.89,1012.4,,,,,,,,,,,,,,,Clear,72000.0,,,,,,,,,
KRDR,06-04-2017,16:56,METAR,Normal,350,17,20.0,,9999.0,,24.3,12.2,29.89,1012.4,,,,,,,,,,,,,,,Clear,72000.0,,,,,,,,,
KRDR,06-04-2017,15:56,METAR,Normal,350,13,22.0,,9999.0,,23.3,12.6,29.89,1012.4,,,,,,,,,,,,,,,Clear,72000.0,,,,,,,,,
KRDR,06-04-2017,14:56,METAR,Normal,360,10,16.0,,9999.0,,22.5,11.8,29.88,1012.1,,,,,,,,,,,,,,,Clear,72000.0,,,,,,,,,
KRDR,06-04-2017,13:56,METAR,Normal,350,11,,,9999.0,,21.2,10.9,29.88,1012.0,,,,,,,,,,,,,,,Clear,72000.0,,,,,,,,,
KRDR,06-04-2017,12:56,METAR,Normal,320,9,,,9999.0,,19.3,9.8,29.88,1012.0,,,,,,,,,,,,,,,Clear,72000.0,,,,,,,,,
KRDR,06-04-2017,11:56,METAR,Normal,320,9,,,9999.0,,17.5,7.8,29.87,1011.7,,,,,,,,,,,,,,,Clear,72000.0,,,,,,,,,
KRDR,06-04-2017,10:56,METAR,Normal,310,9,,,9999.0,,15.0,7.0,29.85,1011.0,,,,,,,,,,,,,,,Clear,72000.0,,,,,,,,,
KRDR,06-04-2017,09:56,METAR,Normal,300,8,,,9999.0,,15.8,6.0,29.84,1010.7,,,,,,,,,,,,,,,Clear,72000.0,,,,,,,,,
KRDR,06-04-2017,08:56,METAR,Normal,290,8,,,9999.0,,16.0,6.7,29.85,1011.0,,,,,,,,,,,,,,,Clear,72000.0,,,,,,,,,
KRDR,06-04-2017,07:56,METAR,Normal,280,9,,,9999.0,,17.1,6.6,29.85,1011.0,,,,,,,,,,,,,,,Clear,72000.0,,,,,,,,,
KRDR,06-04-2017,06:56,METAR,Normal,280,7,,,9999.0,,16.8,6.9,29.85,1011.0,,,,,,,,,,,,,,,Clear,72000.0,,,,,,,,,
KRDR,06-04-2017,05:56,METAR,Normal,280,7,,,9999.0,,17.5,7.2,29.85,1011.0,,,,,,,,,,,,,,,Clear,72000.0,,,,,,,,,
KRDR,06-04-2017,04:56,METAR,Normal,280,8,,,9999.0,,18.7,7.5,29.85,1010.9,,,,,,,,,,,,,,,Clear,72000.0,,,,,,,,,
KRDR,06-04-2017,03:56,METAR,Normal,290,7,,,9999.0,,19.0,8.3,29.85,1011.0,,,,,,,,,,,,,,,Clear,72000.0,,,,,,,,,
KRDR,06-04-2017,02:56,METAR,Normal,270,6,,,9999.0,,18.8,8.7,29.84,1010.7,,,,,,,,,,,,,,,Clear,72000.0,,,,,,,,,
KRDR,06-04-2017,01:56,METAR,Normal,290,5,,,9999.0,,22.4,8.5,29.85,1011.0,,,,,,,,,,,,,,,Clear,72000.0,,,,,,,,,
KRDR,06-04-2017,00:56,METAR,Normal,310,9,,,9999.0,,25.6,7.7,29.84,1010.6,,,,,,,,,,,,,,,Clear,72000.0,,,,,,,,,
KRDR,06-03-2017,23:56,METAR,Normal,320,14,19.0,280/26KTS,9999.0,,26.4,6.9,29.84,1010.7,,,,,,,,,,,,,,,Clear,72000.0,,,,,,,,,
KRDR,06-03-2017,22:56,METAR,Normal,300,16,24.0,310/27KTS,9999.0,,27.0,7.4,29.84,1010.7,,,,,,,,,,,,,,,Clear,72000.0,,,,,,,,,
KRDR,06-03-2017,21:56,METAR,Normal,320,17,25.0,310/29KTS,9999.0,,27.3,6.6,29.85,1010.9,,,,,,,,,,,,,,,Clear,72000.0,,,,,,,,,
KRDR,06-03-2017,20:56,METAR,Normal,300,12,22.0,,9999.0,,27.3,6.6,29.84,1010.6,,,,,,,,,,,,,,,Clear,72000.0,,,,,,,,,
KRDR,06-03-2017,19:56,METAR,Normal,310,13,18.0,,9999.0,,26.8,11.7,29.86,1011.3,,,,,,,,,,,,,,,Clear,72000.0,,,,,,,,,
KRDR,06-03-2017,18:56,METAR,Normal,330,13,19.0,,9999.0,,26.3,12.7,29.87,1011.7,,,,,,,,,,,,,,,Clear,72000.0,,,,,,,,,
KRDR,06-03-2017,17:56,METAR,Normal,320,15,21.0,,9999.0,,26.6,13.7,29.86,1011.3,,,,,,,,,,,,,,,Clear,72000.0,,,,,,,,,
KRDR,06-03-2017,16:56,METAR,Normal,300,12,,,9999.0,,27.2,13.5,29.85,1010.9,,,,,,,,,,,,,,,Clear,72000.0,,,,,,,,,
KRDR,06-03-2017,15:56,METAR,Normal,280,10,,,9999.0,,25.3,15.6,29.85,1011.0,,,,,,,,,,,,,,,Clear,72000.0,,,,,,,,,
KRDR,06-03-2017,14:56,METAR,Normal,310,9,,,9999.0,,24.1,15.3,29.85,1010.8,,,,,,,,,,,,,,,Clear,72000.0,,,,,,,,,
KRDR,06-03-2017,13:56,METAR,Normal,310,8,,,9999.0,,22.5,15.8,29.84,1010.4,,,,,,,,,,,,,,,Clear,72000.0,,,,,,,,,
KRDR,06-03-2017,12:56,METAR,Normal,270,7,,,9999.0,,19.5,14.5,29.82,1009.8,,,,,,,,,,,,,,,Clear,72000.0,,,,,,,,,
KRDR,06-03-2017,11:56,METAR,Normal,250,7,,,9999.0,,17.1,14.9,29.81,1009.5,,,,,,,,,,,,,.05 IN,.49 IN,Clear,72000.0,,,,,,,,,
KRDR,06-03-2017,10:56,METAR,Normal,220,7,,,9999.0,,17.0,16.7,29.80,1009.1,,,,,,,,,,,,,,,2/8 Mostly Clear,72000.0,21000.0,FEW,21000.0,,,,,,
KRDR,06-03-2017,09:56,METAR,Normal,200,6,,,9999.0,,18.2,18.2,29.80,1009.1,,,,,,,,,,,.01 IN,,,,,11000.0,7000.0,FEW,7000.0,OVC,11000.0,,,,
KRDR,06-03-2017,09:13,SPECI,Normal,180,9,,,9999.0,,18.0,18.0,29.80,1009.1,,,,,,,,,,,,,,,,10000.0,2200.0,FEW,2200.0,FEW,5000.0,FEW,7000.0,OVC,10000.0
KRDR,06-03-2017,09:02,SPECI,Normal,190,11,,,9999.0,Light Rain,18.0,18.0,29.80,1009.1,61,,,,,,,,,,,,,,,9000.0,2200.0,FEW,2200.0,FEW,5000.0,SCT,7000.0,OVC,9100.0
KRDR,06-03-2017,08:58,SPECI,Normal,190,14,,,9999.0,,18.0,18.0,29.80,1009.1,,,,,,,,,,,,,,,,9000.0,900.0,FEW,900.0,FEW,4900.0,SCT,6000.0,BKN,9100.0
KRDR,06-03-2017,08:56,METAR,Normal,190,15,20.0,,9999.0,,18.3,18.3,29.81,1009.4,,,,,,,,,,,.04 IN,.04 IN,,,,9000.0,4800.0,FEW,4800.0,FEW,6000.0,BKN,9100.0,OVC,11000.0
KRDR,06-03-2017,08:51,SPECI,Normal,190,15,20.0,,9999.0,,18.0,18.0,29.81,1009.5,,,,,,,,,,,,,,,,10000.0,4800.0,FEW,4800.0,SCT,5500.0,SCT,7000.0,OVC,10000.0
KRDR,06-03-2017,08:23,SPECI,Normal,210,5,,,9999.0,Light Rain,18.0,18.0,29.75,1007.4,61,,,,,,,,,,,,,,,14000.0,7500.0,FEW,7500.0,OVC,14000.0,,,,
KRDR,06-03-2017,07:56,METAR,Normal,180,6,,,9999.0,,17.9,17.9,29.75,1007.4,,,,,,,,,,,,,,,,12000.0,12000.0,BKN,12000.0,BKN,15000.0,OVC,17000.0,,
KRDR,06-03-2017,06:56,METAR,Calm,,0,,,9999.0,,17.7,17.7,29.75,1007.4,,,,,,,,,,,TRACE,,,,4/8 Partly Cloudy,72000.0,13000.0,SCT,13000.0,,,,,,
KRDR,06-03-2017,06:24,SPECI,Normal,140,5,,,9999.0,,18.0,18.0,29.76,1007.8,,,,,,,,,,,,,,,4/8 Partly Cloudy,72000.0,14000.0,SCT,14000.0,,,,,,
KRDR,06-03-2017,05:58,SPECI,Normal,190,8,,,9999.0,Light Rain,19.0,18.0,29.76,1007.8,61,,,,,,,,,,,,,,4/8 Partly Cloudy,72000.0,6000.0,SCT,6000.0,SCT,9600.0,,,,
KRDR,06-03-2017,05:56,METAR,Normal,220,8,,,9999.0,,18.8,17.8,29.76,1007.8,,,,,,,,,,,.04 IN,,.44 IN,,,9500.0,5500.0,SCT,5500.0,BKN,9600.0,,,,
KRDR,06-03-2017,05:43,SPECI,Normal,210,10,,,9999.0,,19.0,18.0,29.76,1007.8,,,,,,,,,,,,,,,,6000.0,6000.0,BKN,6000.0,,,,,,
KRDR,06-03-2017,04:56,METAR,Normal,180,6,,,9999.0,Light Rain,18.9,17.6,29.79,1008.8,61,,,,,,,,,,.1 IN,,,,,8500.0,7000.0,FEW,7000.0,BKN,8600.0,OVC,10000.0,,
KRDR,06-03-2017,04:22,SPECI,Normal,40,6,,,9999.0,Light Rain/Distant Lightning,18.0,18.0,29.79,1008.9,61,12,,,,,,,,,,,,,,8500.0,8500.0,OVC,8600.0,,,,,,
KRDR,06-03-2017,04:07,SPECI,Normal,20,12,,,9999.0,Thunderstorm and Rain or Snow Showers,18.0,18.0,29.79,1008.9,92,,,,,,,,,,,,,,,8500.0,8500.0,OVC,8600.0,,,,,,
KRDR,06-03-2017,03:56,METAR,Normal,20,10,,300/50KTS,9999.0,Light Rain,18.3,17.5,29.80,1009.2,61,,,,,,,,,,.3 IN,,,,,8500.0,8500.0,BKN,8600.0,BKN,11000.0,,,,
KRDR,06-03-2017,03:37,SPECI,Normal,330,20,23.0,,9999.0,Light Rain/Distant Lightning,18.0,18.0,29.80,1009.3,61,12,,,,,,,,,,,,,4/8 Partly Cloudy,72000.0,3200.0,FEW,3200.0,FEW,9100.0,SCT,11000.0,SCT,14000.0
KRDR,06-03-2017,03:23,SPECI,Normal,330,20,30.0,,9999.0,Light Rain/Distant Lightning,19.0,19.0,29.77,1008.3,61,12,,,,,,,,,,,,,,9500.0,200.0,FEW,200.0,SCT,4300.0,SCT,6000.0,BKN,9600.0
KRDR,06-03-2017,03:15,SPECI,Normal,340,22,38.0,,6400.0,Thunderstorm and Rain or Snow Showers/Mist,19.0,19.0,29.78,1008.6,92,10,,,,,,,,,,,,,,4600.0,200.0,FEW,200.0,BKN,4600.0,BKN,6000.0,OVC,8600.0
KRDR,06-03-2017,03:10,SPECI,Normal,330,27,41.0,,4800.0,Heavy Thunderstorm and Rain or Snow Showers/Mist,20.0,19.0,29.78,1008.6,95,10,,,,,,,,,,,,,,4600.0,200.0,FEW,200.0,BKN,4600.0,BKN,6000.0,OVC,8600.0
KRDR,06-03-2017,03:09,SPECI,Normal,330,26,42.0,,1200.0,Heavy Thunderstorm and Rain or Snow Showers/Mist,20.0,19.0,29.77,1008.3,95,10,,,,,,,,,,,,,,6000.0,200.0,FEW,200.0,SCT,4600.0,BKN,6000.0,OVC,8600.0
KRDR,06-03-2017,03:04,SPECI,Normal,300,29,50.0,,8000.0,Heavy Thunderstorm and Rain or Snow Showers,23.0,20.0,29.78,1008.5,95,,,,,,,,,,,,,,,6000.0,400.0,FEW,400.0,SCT,5000.0,BKN,6000.0,BKN,8600.0
KRDR,06-03-2017,02:58,SPECI,Normal,290,28,50.0,,9999.0,Thunderstorm and Rain or Snow Showers/Squalls,26.0,16.0,29.78,1008.5,92,18,,,,,,,,,,,,,,8000.0,6000.0,SCT,6000.0,BKN,8000.0,BKN,9600.0,BKN,14000.0
KRDR,06-03-2017,02:57,SPECI,Normal,320,15,22.0,,9999.0,Dry Thunderstorm/Light Drizzle,27.0,16.0,29.76,1007.7,91,51,,,,,,,,,,,,,,8500.0,6500.0,FEW,6500.0,BKN,8600.0,BKN,14000.0,,
KRDR,06-03-2017,02:56,METAR,Normal,320,10,15.0,280/37KTS,9999.0,Light Drizzle/Distant Lightning,27.1,15.4,29.74,1007.0,51,12,,,,,,,,,TRACE,TRACE,,,,8500.0,6500.0,FEW,6500.0,BKN,8600.0,BKN,14000.0,,
KRDR,06-03-2017,02:53,SPECI,Normal,320,10,15.0,,9999.0,Light Drizzle/Distant Lightning,27.0,15.0,29.72,1006.4,51,12,,,,,,,,,,,,,,8500.0,8500.0,BKN,8600.0,BKN,14000.0,,,,
KRDR,06-03-2017,01:56,METAR,Normal,140,11,,,9999.0,,28.4,13.5,29.65,1004.0,,,,,,,,,,,,,,,4/8 Partly Cloudy,72000.0,10000.0,FEW,10000.0,FEW,13000.0,SCT,21000.0,SCT,23000.0
KRDR,06-03-2017,00:56,METAR,Normal,150,10,,,9999.0,,30.2,13.0,29.66,1004.4,,,,,,,,,,,,,,,4/8 Partly Cloudy,72000.0,8500.0,SCT,8600.0,,,,,,
KRDR,06-02-2017,23:56,METAR,Normal,150,11,,,9999.0,,31.5,12.8,29.67,1004.8,,,,,,,,,,,,,,,,9000.0,9000.0,BKN,9100.0,,,,,,
KRDR,06-02-2017,22:56,METAR,Normal,180,14,19.0,190/26KTS,9999.0,,33.4,13.9,29.67,1004.8,,,,,,,,,,,,,,,2/8 Mostly Clear,72000.0,9500.0,FEW,9600.0,,,,,,
KRDR,06-02-2017,21:56,METAR,Normal,160,16,20.0,,9999.0,,33.3,12.8,29.69,1005.4,,,,,,,,,,,,,,,Clear,72000.0,,,,,,,,,
KRDR,06-02-2017,21:51,SPECI,Normal,150,14,20.0,,9999.0,,33.0,13.0,29.69,1005.4,,,,,,,,,,,,,,,Clear,72000.0,,,,,,,,,
KRDR,06-02-2017,20:56,METAR,Normal,200,15,21.0,,9999.0,,33.0,13.6,29.73,1006.8,,,,,,,,,,,,,,,Clear,72000.0,,,,,,,,,
KRDR,06-02-2017,20:18,SPECI,Normal,170,13,,,9999.0,,33.0,14.0,29.74,1007.1,,,,,,,,,,,,,,,Clear,72000.0,,,,,,,,,
KRDR,06-02-2017,20:10,SPECI,Normal,210,10,18.0,,9999.0,,33.0,13.0,29.75,1007.4,,,,,,,,,,,,,,,Clear,72000.0,,,,,,,,,
KRDR,06-02-2017,19:56,METAR,Normal,180,15,21.0,,9999.0,,32.5,13.6,29.75,1007.4,,,,,,,,,,,,,,,Clear,72000.0,,,,,,,,,
KRDR,06-02-2017,18:56,METAR,Normal,170,16,23.0,190/27KTS,9999.0,,31.7,13.0,29.77,1008.1,,,,,,,,,,,,,,,Clear,72000.0,,,,,,,,,
KRDR,06-02-2017,17:56,METAR,Normal,170,19,24.0,180/26KTS,9999.0,,30.7,13.5,29.79,1008.8,,,,,,,,,,,,,,,Clear,72000.0,,,,,,,,,
KRDR,06-02-2017,16:56,METAR,Normal,170,13,20.0,,9999.0,,29.4,14.0,29.81,1009.5,,,,,,,,,,,,,,,Clear,72000.0,,,,,,,,,
KRDR,06-02-2017,15:56,METAR,Normal,170,13,,,9999.0,,27.0,11.8,29.82,1009.9,,,,,,,,,,,,,,,Clear,72000.0,,,,,,,,,
KRDR,06-02-2017,14:56,METAR,Normal,170,11,,,9999.0,,24.3,9.1,29.84,1010.6,,,,,,,,,,,,,,,Clear,72000.0,,,,,,,,,
KRDR,06-02-2017,13:56,METAR,Normal,170,10,,,9999.0,,21.4,6.5,29.85,1011.0,,,,,,,,,,,,,,,Clear,72000.0,,,,,,,,,
KRDR,06-02-2017,12:56,METAR,Normal,170,11,,,9999.0,,18.3,5.8,29.86,1011.3,,,,,,,,,,,,,,,Clear,72000.0,,,,,,,,,
KRDR,06-02-2017,11:56,METAR,Normal,160,8,,,9999.0,,15.2,4.8,29.86,,,,,,,,,,,,,,,,Clear,72000.0,,,,,,,,,
KRDR,06-02-2017,10:56,METAR,Normal,160,9,,,9999.0,,14.7,3.8,29.86,1011.3,,,,,,,,,,,,,,,Clear,72000.0,,,,,,,,,
KRDR,06-02-2017,09:56,METAR,Normal,170,12,,,9999.0,,15.1,3.2,29.86,1011.3,,,,,,,,,,,,,,,Clear,72000.0,,,,,,,,,
KRDR,06-02-2017,08:56,METAR,Normal,160,12,,,9999.0,,15.6,3.7,29.88,1012.0,,,,,,,,,,,,,,,Clear,72000.0,,,,,,,,,
KRDR,06-02-2017,07:56,METAR,Normal,160,8,,,9999.0,,17.1,3.4,29.88,1012.0,,,,,,,,,,,,,,,Clear,72000.0,,,,,,,,,
KRDR,06-02-2017,06:56,METAR,Normal,160,10,,,9999.0,,17.5,3.4,29.88,1012.0,,,,,,,,,,,,,,,Clear,72000.0,,,,,,,,,
KRDR,06-02-2017,05:56,METAR,Normal,160,10,,,9999.0,,18.1,3.6,29.88,1012.0,,,,,,,,,,,,,,,Clear,72000.0,,,,,,,,,
KRDR,06-02-2017,04:56,METAR,Normal,160,11,,,9999.0,,19.6,3.3,29.88,1012.0,,,,,,,,,,,,,,,Clear,72000.0,,,,,,,,,
KRDR,06-02-2017,03:56,METAR,Normal,150,11,,,9999.0,,20.9,3.6,29.88,1012.0,,,,,,,,,,,,,,,Clear,72000.0,,,,,,,,,
KRDR,06-02-2017,02:56,METAR,Normal,140,12,,,9999.0,,21.4,4.9,29.87,1011.7,,,,,,,,,,,,,,,Clear,72000.0,,,,,,,,,
KRDR,06-02-2017,01:56,METAR,Normal,150,7,,,9999.0,,23.1,5.9,29.86,1011.3,,,,,,,,,,,,,,,Clear,72000.0,,,,,,,,,
KRDR,06-02-2017,00:56,METAR,Normal,160,8,,,9999.0,,26.3,5.8,29.87,1011.7,,,,,,,,,,,,,,,Clear,72000.0,,,,,,,,,
KRDR,06-01-2017,23:56,METAR,Normal,190,10,17.0,,9999.0,,27.4,5.0,29.88,,,,,,,,,,,,,,,,Clear,72000.0,,,,,,,,,
KRDR,06-01-2017,22:56,METAR,Normal,180,13,,,9999.0,,28.1,5.6,29.88,1012.1,,,,,,,,,,,,,,,Clear,72000.0,,,,,,,,,
KRDR,06-01-2017,21:56,METAR,Normal,200,11,,,9999.0,,28.1,5.0,29.89,1012.5,,,,,,,,,,,,,,,Clear,72000.0,,,,,,,,,
KRDR,06-01-2017,20:56,METAR,Normal,180,9,,,9999.0,,27.8,4.8,29.91,1013.2,,,,,,,,,,,,,,,Clear,72000.0,,,,,,,,,
KRDR,06-01-2017,19:56,METAR,Normal,170,11,,,9999.0,,27.2,3.6,29.93,1013.9,,,,,,,,,,,,,,,Clear,72000.0,,,,,,,,,
KRDR,06-01-2017,19:47,SPECI,Normal,180,12,19.0,,9999.0,,27.0,4.0,29.93,1013.9,,,,,,,,,,,,,,,2/8 Mostly Clear,72000.0,17000.0,FEW,17000.0,FEW,21000.0,,,,
KRDR,06-01-2017,19:41,SPECI,Normal,210,12,19.0,,9999.0,,27.0,4.0,29.94,1014.2,,,,,,,,,,,,,,,2/8 Mostly Clear,72000.0,16000.0,FEW,16000.0,FEW,21000.0,,,,
KRDR,06-01-2017,18:56,METAR,Normal,190,10,19.0,,9999.0,,26.6,4.4,29.94,1014.2,,,,,,,,,,,,,,,Clear,72000.0,,,,,,,,,
KRDR,06-01-2017,17:56,METAR,Normal,190,8,18.0,,9999.0,,25.9,3.8,29.96,1014.9,,,,,,,,,,,,,,,Clear,72000.0,,,,,,,,,
KRDR,06-01-2017,16:56,METAR,Normal,210,16,,,9999.0,,25.4,3.3,29.98,1015.6,,,,,,,,,,,,,,,Clear,72000.0,,,,,,,,,
KRDR,06-01-2017,16:42,SPECI,Normal,220,15,24.0,,9999.0,,25.0,4.0,29.98,1015.5,,,,,,,,,,,,,,,Clear,72000.0,,,,,,,,,
KRDR,06-01-2017,15:56,METAR,Normal,220,14,,,9999.0,,24.3,4.6,29.99,1016.0,,,,,,,,,,,,,,,Clear,72000.0,,,,,,,,,
KRDR,06-01-2017,14:56,METAR,Normal,190,11,,,9999.0,,22.7,4.7,30.01,1016.6,,,,,,,,,,,,,,,Clear,72000.0,,,,,,,,,
KRDR,06-01-2017,13:56,METAR,Normal,200,12,,,9999.0,,20.3,3.5,30.01,1016.6,,,,,,,,,,,,,,,Clear,72000.0,,,,,,,,,
KRDR,06-01-2017,12:56,METAR,Normal,190,7,,,9999.0,,16.8,4.5,30.02,1017.0,,,,,,,,,,,,,,,Clear,72000.0,,,,,,,,,
KRDR,06-01-2017,11:56,METAR,Normal,220,4,,,9999.0,,12.4,5.6,30.02,1017.0,,,,,,,,,,,,,,,Clear,72000.0,,,,,,,,,
KRDR,06-01-2017,10:56,METAR,Normal,200,8,,,9999.0,,11.1,4.1,30.01,1016.7,,,,,,,,,,,,,,,Clear,72000.0,,,,,,,,,
KRDR,06-01-2017,09:56,METAR,Normal,210,7,,,9999.0,,11.5,3.5,30.01,1016.7,,,,,,,,,,,,,,,Clear,72000.0,,,,,,,,,
KRDR,06-01-2017,08:56,METAR,Normal,220,6,,,9999.0,,10.5,3.5,30.01,1016.7,,,,,,,,,,,,,,,Clear,72000.0,,,,,,,,,
KRDR,06-01-2017,07:56,METAR,Normal,200,8,,,9999.0,,11.9,3.9,30.01,1016.7,,,,,,,,,,,,,,,Clear,72000.0,,,,,,,,,
KRDR,06-01-2017,06:56,METAR,Normal,190,6,,,9999.0,,11.9,3.6,30.01,1016.7,,,,,,,,,,,,,,,Clear,72000.0,,,,,,,,,
KRDR,06-01-2017,05:56,METAR,Normal,160,3,,,9999.0,,11.7,5.1,30.02,1017.1,,,,,,,,,,,,,,,Clear,72000.0,,,,,,,,,
KRDR,06-01-2017,04:56,METAR,Calm,,0,,,9999.0,,13.0,5.4,30.01,1016.7,,,,,,,,,,,,,,,Clear,72000.0,,,,,,,,,
KRDR,06-01-2017,03:56,METAR,Calm,,0,,,9999.0,,12.6,7.5,30.00,1016.5,,,,,,,,,,,,,,,Clear,72000.0,,,,,,,,,
KRDR,06-01-2017,02:56,METAR,Calm,,0,,,9999.0,,14.6,7.9,29.99,1016.1,,,,,,,,,,,,,,,Clear,72000.0,,,,,,,,,
KRDR,06-01-2017,01:56,METAR,Calm,,0,,,9999.0,,20.3,5.5,29.99,1016.0,,,,,,,,,,,,,,,Clear,72000.0,,,,,,,,,
KRDR,06-01-2017,00:56,METAR,Calm,,0,,,9999.0,,21.9,7.3,30.00,1016.3,,,,,,,,,,,,,,,Clear,72000.0,,,,,,,,,
KRDR,05-31-2017,23:56,METAR,Normal,340,3,,,9999.0,,23.6,3.5,30.00,1016.3,,,,,,,,,,,,,,,4/8 Partly Cloudy,72000.0,9500.0,SCT,9600.0,,,,,,
KRDR,05-31-2017,22:56,METAR,Normal,30,8,,,9999.0,,22.0,5.0,30.01,1016.8,,,,,,,,,,,,,,,Clear,72000.0,,,,,,,,,
KRDR,05-31-2017,21:56,METAR,Normal,10,6,,,9999.0,,23.8,3.1,30.02,1017.1,,,,,,,,,,,,,,,2/8 Mostly Clear,72000.0,9500.0,FEW,9600.0,,,,,,
KRDR,05-31-2017,20:56,METAR,Normal,60,7,,,9999.0,,23.6,3.0,30.02,1017.0,,,,,,,,,,,,,,,Clear,72000.0,,,,,,,,,
KRDR,05-31-2017,19:56,METAR,Normal,60,9,,,9999.0,,23.4,3.3,30.03,1017.4,,,,,,,,,,,,,,,Clear,72000.0,,,,,,,,,
KRDR,05-31-2017,18:56,METAR,Normal,30,7,17.0,,9999.0,,23.0,4.0,30.04,1017.8,,,,,,,,,,,,,,,Clear,72000.0,,,,,,,,,
KRDR,05-31-2017,17:56,METAR,Normal,10,13,18.0,,9999.0,,22.0,4.1,30.04,1017.8,,,,,,,,,,,,,,,Clear,72000.0,,,,,,,,,
KRDR,05-31-2017,16:56,METAR,Normal,350,7,,,9999.0,,20.9,4.0,30.04,1017.8,,,,,,,,,,,,,,,Clear,72000.0,,,,,,,,,
KRDR,05-31-2017,15:56,METAR,Normal,10,8,,,9999.0,,19.9,4.4,30.05,1018.2,,,,,,,,,,,,,,,Clear,72000.0,,,,,,,,,
KRDR,05-31-2017,14:56,METAR,Normal,350,6,,,9999.0,,18.4,4.2,30.05,1018.2,,,,,,,,,,,,,,,Clear,72000.0,,,,,,,,,
KRDR,05-31-2017,13:56,METAR,Normal,340,8,,,9999.0,,16.3,4.7,30.04,1017.8,,,,,,,,,,,,,,,Clear,72000.0,,,,,,,,,
KRDR,05-31-2017,12:56,METAR,Normal,320,7,,,9999.0,,13.8,3.8,30.04,1017.8,,,,,,,,,,,,,,,Clear,72000.0,,,,,,,,,
KRDR,05-31-2017,11:56,METAR,Normal,310,6,,,9999.0,,10.9,3.4,30.03,1017.6,,,,,,,,,,,,,,,Clear,72000.0,,,,,,,,,
KRDR,05-31-2017,10:56,METAR,Normal,310,8,,,9999.0,,9.9,2.3,30.01,1016.9,,,,,,,,,,,,,,,Clear,72000.0,,,,,,,,,
KRDR,05-31-2017,09:56,METAR,Normal,340,8,,,9999.0,,9.6,2.2,30.00,1016.6,,,,,,,,,,,,,,,Clear,72000.0,,,,,,,,,
KRDR,05-31-2017,08:56,METAR,Normal,310,9,,,9999.0,,11.3,2.8,29.98,1015.9,,,,,,,,,,,,,,,,8500.0,8500.0,BKN,8600.0,,,,,,
KRDR,05-31-2017,07:56,METAR,Normal,300,8,,,9999.0,,11.3,2.8,29.98,1016.0,,,,,,,,,,,,,,,,8500.0,8500.0,BKN,8600.0,,,,,,
KRDR,05-31-2017,06:56,METAR,Normal,300,7,,,9999.0,,10.2,2.5,29.98,1016.0,,,,,,,,,,,,,,,Clear,72000.0,,,,,,,,,
KRDR,05-31-2017,05:56,METAR,Normal,300,7,,,9999.0,,10.5,2.3,29.97,1015.7,,,,,,,,,,,,,,,Clear,72000.0,,,,,,,,,
KRDR,05-31-2017,04:56,METAR,Normal,300,8,,,9999.0,,10.2,2.5,29.98,1016.1,,,,,,,,,,,,,,,2/8 Mostly Clear,72000.0,8000.0,FEW,8000.0,,,,,,
KRDR,05-31-2017,03:56,METAR,Normal,300,8,,,9999.0,,10.5,2.3,29.97,1015.8,,,,,,,,,,,,,,,Clear,72000.0,,,,,,,,,
KRDR,05-31-2017,02:56,METAR,Normal,300,7,,,9999.0,,11.8,2.0,29.97,1015.8,,,,,,,,,,,,,,,Clear,72000.0,,,,,,,,,
KRDR,05-31-2017,01:56,METAR,Normal,340,8,,,9999.0,,15.9,1.6,29.96,1015.3,,,,,,,,,,,,,,,Clear,72000.0,,,,,,,,,
KRDR,05-31-2017,00:56,METAR,Normal,10,11,18.0,,9999.0,,17.3,1.3,29.96,1015.3,,,,,,,,,,,,,,,Clear,72000.0,,,,,,,,,
KRDR,05-30-2017,23:56,METAR,Normal,350,11,23.0,,9999.0,,17.7,1.2,29.96,1015.3,,,,,,,,,,,,,,,Clear,72000.0,,,,,,,,,
KRDR,05-30-2017,22:56,METAR,Normal,360,17,23.0,350/27KTS,9999.0,,18.4,1.0,29.95,1014.9,,,,,,,,,,,,,,,Clear,72000.0,,,,,,,,,
KRDR,05-30-2017,21:56,METAR,Normal,350,14,21.0,,9999.0,,18.1,2.4,29.95,1014.9,,,,,,,,,,,,,,,2/8 Mostly Clear,72000.0,6000.0,FEW,6000.0,,,,,,
KRDR,05-30-2017,20:56,METAR,Normal,350,12,21.0,,9999.0,,16.9,4.9,29.96,1015.3,,,,,,,,,,,,,,,Clear,72000.0,,,,,,,,,
KRDR,05-30-2017,19:56,METAR,Normal,330,15,23.0,,9999.0,,15.4,6.1,29.96,1015.3,,,,,,,,,,,,,,,,13000.0,3900.0,SCT,3900.0,BKN,13000.0,BKN,15000.0,,
KRDR,05-30-2017,18:56,METAR,Normal,340,15,22.0,,9999.0,,13.4,6.5,29.98,1016.1,,,,,,,,,,,,,,,,3100.0,3100.0,OVC,3100.0,,,,,,
KRDR,05-30-2017,18:31,SPECI,Normal,350,13,20.0,,9999.0,,13.0,6.0,29.98,1016.1,,,,,,,,,,,,,,,,3100.0,3100.0,OVC,3100.0,,,,,,
KRDR,05-30-2017,17:56,METAR,Normal,330,13,,,9999.0,,12.8,6.2,29.98,1016.1,,,,,,,,,,,,,,,,2900.0,2900.0,BKN,2900.0,OVC,6000.0,,,,
KRDR,05-30-2017,17:31,SPECI,Normal,350,15,21.0,,9999.0,,13.0,6.0,29.98,1016.1,,,,,,,,,,,,,,,,3300.0,2500.0,SCT,2500.0,BKN,3300.0,OVC,6000.0,,
KRDR,05-30-2017,17:06,SPECI,Normal,340,12,,,9999.0,,12.0,6.0,29.98,1016.2,,,,,,,,,,,,,,,,2500.0,2500.0,BKN,2500.0,BKN,3200.0,OVC,4500.0,,
KRDR,05-30-2017,16:56,METAR,Normal,330,11,21.0,,9999.0,,11.4,6.1,29.98,1016.2,,,,,,,,,,,,,,,,3100.0,2300.0,SCT,2300.0,BKN,3100.0,OVC,4500.0,,
KRDR,05-30-2017,16:31,SPECI,Normal,340,10,,,9999.0,,11.0,7.0,29.99,1016.5,,,,,,,,,,,,,,,,4500.0,1900.0,SCT,1900.0,OVC,4500.0,,,,
KRDR,05-30-2017,15:56,METAR,Normal,340,13,,,9999.0,,9.5,6.0,29.99,1016.5,,,,,,,,,,,,,,,,1700.0,1700.0,OVC,1700.0,,,,,,
KRDR,05-30-2017,15:01,SPECI,Normal,330,14,,,9999.0,,9.0,6.0,29.98,1016.2,,,,,,,,,,,,,,,,1400.0,1500.0,OVC,1500.0,,,,,,
KRDR,05-30-2017,14:56,METAR,Normal,340,13,19.0,,9999.0,,8.7,6.1,29.98,1016.2,,,,,,,,,,,,,,,,1400.0,1400.0,OVC,1400.0,,,,,,
KRDR,05-30-2017,13:56,METAR,Normal,350,11,,,9999.0,,8.5,6.5,29.97,1015.8,,,,,,,,,,,,,,,,1300.0,1400.0,OVC,1400.0,,,,,,
KRDR,05-30-2017,13:54,SPECI,Normal,350,11,18.0,,9999.0,,9.0,6.0,29.97,1015.8,,,,,,,,,,,,,,,,1300.0,1400.0,OVC,1400.0,,,,,,
KRDR,05-30-2017,13:09,SPECI,Normal,350,12,,,9999.0,,8.0,7.0,29.97,1015.9,,,,,,,,,,,,,,,,1600.0,1100.0,FEW,1100.0,BKN,1700.0,OVC,2300.0,,
KRDR,05-30-2017,13:08,SPECI,Normal,350,11,,,9999.0,,8.0,7.0,29.97,1015.9,,,,,,,,,,,,,,,,1600.0,1700.0,BKN,1700.0,OVC,2300.0,,,,
KRDR,05-30-2017,13:01,SPECI,Normal,350,10,,,9999.0,,8.0,7.0,29.97,1015.9,,,,,,,,,,,,,,,,1300.0,1300.0,SCT,1300.0,OVC,2200.0,,,,
KRDR,05-30-2017,12:56,METAR,Normal,350,9,,,9999.0,,8.0,6.9,29.97,1015.9,,,,,,,,,,,,,,,,1500.0,1500.0,BKN,1500.0,OVC,2200.0,,,,
KRDR,05-30-2017,11:56,METAR,Normal,330,9,,,9999.0,,8.1,7.3,29.95,1015.1,,,,,,,,,,,TRACE,,TRACE,.06 IN,,1200.0,1200.0,OVC,1200.0,,,,,,
KRDR,05-30-2017,11:48,SPECI,Normal,330,10,,,9999.0,,8.0,7.0,29.95,1015.1,,,,,,,,,,,,,,,,1300.0,1300.0,OVC,1300.0,,,,,,
KRDR,05-30-2017,11:27,SPECI,Normal,350,9,,,9999.0,Light Rain,8.0,7.0,29.95,1015.1,61,,,,,,,,,,,,,,,900.0,1400.0,BKN,1400.0,OVC,2000.0,,,,
KRDR,05-30-2017,11:17,SPECI,Normal,340,9,,,9999.0,,8.0,7.0,29.94,1014.8,,,,,,,,,,,,,,,,1200.0,1200.0,OVC,1200.0,,,,,,
KRDR,05-30-2017,11:02,SPECI,Normal,340,9,,,9999.0,,8.0,7.0,29.95,1015.1,,,,,,,,,,,,,,,,800.0,1100.0,OVC,1100.0,,,,,,
KRDR,05-30-2017,10:56,METAR,Normal,350,12,,,9999.0,,8.1,6.7,29.94,1014.8,,,,,,,,,,,,,,,,800.0,1300.0,OVC,1300.0,,,,,,
KRDR,05-30-2017,09:56,METAR,Normal,340,9,,,9999.0,,7.9,6.7,29.93,1014.4,,,,,,,,,,,,,,,,1200.0,1400.0,OVC,1400.0,,,,,,
KRDR,05-30-2017,08:56,METAR,Normal,350,11,,,9999.0,,8.1,6.2,29.92,1014.1,,,,,,,,,,,,,,,,1300.0,1400.0,OVC,1400.0,,,,,,
KRDR,05-30-2017,08:51,SPECI,Normal,350,14,,,9999.0,,8.0,6.0,29.92,1014.1,,,,,,,,,,,,,,,,1300.0,1400.0,OVC,1400.0,,,,,,
KRDR,05-30-2017,07:56,METAR,Normal,330,7,,,9999.0,,8.4,5.9,29.92,1014.0,,,,,,,,,,,,,,,,1900.0,1900.0,OVC,1900.0,,,,,,
KRDR,05-30-2017,07:26,SPECI,Normal,340,6,,,9999.0,,8.0,6.0,29.92,1014.0,,,,,,,,,,,,,,,,1900.0,2000.0,OVC,2000.0,,,,,,
KRDR,05-30-2017,06:56,METAR,Normal,350,11,,,9999.0,,8.4,5.5,29.92,1014.1,,,,,,,,,,,,,,,,1700.0,1800.0,OVC,1800.0,,,,,,
KRDR,05-30-2017,06:31,SPECI,Normal,360,11,,,9999.0,,8.0,6.0,29.92,1014.0,,,,,,,,,,,,,,,,1700.0,1800.0,OVC,1800.0,,,,,,
KRDR,05-30-2017,05:56,METAR,Normal,10,11,18.0,,9999.0,,8.5,5.2,29.92,1014.0,,,,,,,,,,,,,TRACE,,,2200.0,2200.0,OVC,2200.0,,,,,,
KRDR,05-30-2017,04:56,METAR,Normal,360,13,,,9999.0,,8.9,5.6,29.92,1014.0,,,,,,,,,,,,,,,,2300.0,2300.0,OVC,2300.0,,,,,,
KRDR,05-30-2017,03:56,METAR,Normal,360,13,20.0,,9999.0,,9.0,6.1,29.92,1014.1,,,,,,,,,,,,,,,,2200.0,2200.0,OVC,2200.0,,,,,,
KRDR,05-30-2017,02:56,METAR,Normal,360,11,,,9999.0,,9.3,5.8,29.92,1014.1,,,,,,,,,,,,TRACE,,,,2700.0,2700.0,OVC,2700.0,,,,,,
KRDR,05-30-2017,01:56,METAR,Normal,360,9,14.0,,9999.0,,10.0,6.7,29.90,1013.4,,,,,,,,,,,TRACE,,,,,2700.0,2700.0,OVC,2700.0,,,,,,
KRDR,05-30-2017,01:46,SPECI,Normal,360,8,,,9999.0,,10.0,7.0,29.90,1013.4,,,,,,,,,,,,,,,,2500.0,2500.0,BKN,2500.0,BKN,3200.0,OVC,5000.0,,
KRDR,05-30-2017,01:37,SPECI,Normal,10,8,,,9999.0,Light Drizzle,10.0,7.0,29.90,1013.5,51,,,,,,,,,,,,,,,2500.0,2500.0,BKN,2500.0,BKN,3200.0,OVC,4800.0,,
KRDR,05-30-2017,00:56,METAR,Normal,350,14,,,9999.0,,10.7,6.3,29.89,1013.1,,,,,,,,,,,TRACE,,,,,4500.0,4500.0,BKN,4500.0,OVC,6500.0,,,,
KRDR,05-30-2017,00:14,SPECI,Normal,350,15,21.0,,9999.0,,11.0,6.0,29.89,1013.1,,,,,,,,,,,,,,,,6000.0,4800.0,SCT,4800.0,OVC,6000.0,,,,
KRDR,05-30-2017,00:02,SPECI,Normal,340,15,,,9999.0,Light Rain,11.0,7.0,29.89,1013.1,61,,,,,,,,,,,,,,,4700.0,3500.0,SCT,3500.0,BKN,4700.0,OVC,5500.0,,
KRDR,05-29-2017,23:56,METAR,Normal,350,12,,,9999.0,,11.5,7.0,29.89,1013.0,,,,,,,,,,,,,.02 IN,,,5000.0,3700.0,SCT,3700.0,OVC,5000.0,,,,
KRDR,05-29-2017,22:56,METAR,Normal,10,8,,,9999.0,,11.8,8.5,29.90,1013.4,,,,,,,,,,,,,,,,3300.0,3300.0,OVC,3300.0,,,,,,
KRDR,05-29-2017,21:56,METAR,Normal,360,12,,360/26KTS,9999.0,,12.2,8.3,29.89,1013.0,,,,,,,,,,,TRACE,,,,,4700.0,4700.0,BKN,4700.0,BKN,5500.0,OVC,7000.0,,
KRDR,05-29-2017,21:25,SPECI,Normal,10,11,22.0,,9999.0,,11.0,10.0,29.89,1013.1,,,,,,,,,,,,,,,,3800.0,2600.0,FEW,2600.0,BKN,3800.0,BKN,5500.0,OVC,7000.0
KRDR,05-29-2017,21:17,SPECI,Normal,10,14,25.0,,9999.0,Light Rain,12.0,9.0,29.89,1013.0,61,,,,,,,,,,,,,,,3800.0,2500.0,FEW,2500.0,BKN,3800.0,OVC,6500.0,,
KRDR,05-29-2017,21:13,SPECI,Normal,10,16,25.0,,9999.0,Light Rain,13.0,9.0,29.89,1013.0,61,,,,,,,,,,,,,,,6500.0,2600.0,SCT,2600.0,SCT,3500.0,OVC,6500.0,,
KRDR,05-29-2017,20:56,METAR,Normal,340,10,16.0,,9999.0,,12.4,9.9,29.88,1012.7,,,,,,,,,,,.01 IN,.02 IN,,,,6000.0,4800.0,FEW,4800.0,OVC,6000.0,,,,
KRDR,05-29-2017,20:34,SPECI,Normal,350,12,,,9999.0,,12.0,10.0,29.88,1012.7,,,,,,,,,,,,,,,,4600.0,2100.0,FEW,2100.0,SCT,3400.0,BKN,4600.0,OVC,5500.0
KRDR,05-29-2017,19:56,METAR,Normal,360,7,,,9999.0,Light Rain,13.1,9.7,29.88,1012.6,61,,,,,,,,,,.01 IN,,,,,3300.0,2700.0,SCT,2700.0,BKN,3300.0,BKN,4700.0,BKN,5500.0
KRDR,05-29-2017,19:48,SPECI,Normal,360,7,,,9999.0,Light Rain,14.0,9.0,29.87,1012.3,61,,,,,,,,,,,,,,,3300.0,2700.0,SCT,2700.0,BKN,3300.0,BKN,5000.0,BKN,8000.0
KRDR,05-29-2017,19:02,SPECI,Normal,340,11,18.0,,9999.0,,13.0,10.0,29.88,1012.6,,,,,,,,,,,,,,,,4900.0,3600.0,FEW,3600.0,BKN,4900.0,BKN,5500.0,,
KRDR,05-29-2017,18:56,METAR,Normal,330,13,18.0,,9999.0,Light Rain,12.6,10.1,29.88,1012.6,61,,,,,,,,,,TRACE,,,,,5000.0,3600.0,SCT,3600.0,OVC,5000.0,,,,
KRDR,05-29-2017,18:38,SPECI,Normal,340,17,24.0,,9999.0,Light Rain,14.0,8.0,29.88,1012.6,61,,,,,,,,,,,,,,,5000.0,5000.0,BKN,5000.0,,,,,,
KRDR,05-29-2017,18:04,SPECI,Normal,330,14,,,9999.0,,14.0,9.0,29.87,1012.3,,,,,,,,,,,,,,,,5500.0,2900.0,FEW,2900.0,BKN,5500.0,BKN,7000.0,,
KRDR,05-29-2017,17:56,METAR,Normal,330,14,,,9999.0,Light Rain,14.0,8.6,29.87,1012.3,61,,,,,,,,,,TRACE,,.04 IN,,,4800.0,3000.0,SCT,3000.0,SCT,3900.0,BKN,4800.0,OVC,6500.0
KRDR,05-29-2017,17:53,SPECI,Normal,330,15,,,9999.0,Light Rain,14.0,8.0,29.87,1012.3,61,,,,,,,,,,,,,,,4800.0,3000.0,FEW,3000.0,SCT,3900.0,BKN,4800.0,BKN,5500.0
KRDR,05-29-2017,17:21,SPECI,Normal,330,18,22.0,,9999.0,,15.0,9.0,29.86,1011.9,,,,,,,,,,,,,,,,3100.0,2500.0,SCT,2500.0,BKN,3100.0,BKN,4000.0,BKN,7500.0
KRDR,05-29-2017,16:56,METAR,Normal,350,12,23.0,,9999.0,,13.2,9.3,29.87,1012.3,,,,,,,,,,,,,,,,2200.0,2200.0,BKN,2200.0,OVC,3400.0,,,,
KRDR,05-29-2017,16:31,SPECI,Normal,340,13,19.0,,9999.0,,13.0,9.0,29.86,1011.9,,,,,,,,,,,,,,,,2200.0,2200.0,BKN,2200.0,OVC,3100.0,,,,
KRDR,05-29-2017,16:16,SPECI,Normal,320,13,,,9999.0,,12.0,10.0,29.86,1011.9,,,,,,,,,,,,,,,,1800.0,1800.0,BKN,1800.0,OVC,2500.0,,,,
KRDR,05-29-2017,16:06,SPECI,Normal,330,13,18.0,,9999.0,,12.0,10.0,29.87,1012.3,,,,,,,,,,,,,,,,1900.0,2000.0,OVC,2000.0,,,,,,
KRDR,05-29-2017,15:56,METAR,Normal,330,12,,,9999.0,,11.5,10.1,29.87,1012.3,,,,,,,,,,,TRACE,,,,,1700.0,1700.0,BKN,1700.0,OVC,2300.0,,,,
KRDR,05-29-2017,15:55,SPECI,Normal,330,13,,,9999.0,,11.0,10.0,29.87,1012.3,,,,,,,,,,,,,,,,1700.0,1700.0,BKN,1700.0,OVC,2300.0,,,,
KRDR,05-29-2017,15:50,SPECI,Normal,330,12,,,9999.0,,11.0,10.0,29.87,1012.3,,,,,,,,,,,,,,,,1500.0,2000.0,OVC,2000.0,,,,,,
KRDR,05-29-2017,15:30,SPECI,Normal,340,14,,,9999.0,,11.0,10.0,29.87,1012.3,,,,,,,,,,,,,,,,1300.0,1600.0,BKN,1600.0,OVC,2300.0,,,,
KRDR,05-29-2017,15:25,SPECI,Normal,330,13,,,9999.0,,11.0,11.0,29.87,1012.3,,,,,,,,,,,,,,,,1400.0,1400.0,BKN,1400.0,OVC,1900.0,,,,
KRDR,05-29-2017,15:21,SPECI,Normal,330,12,,,9999.0,Light Rain,11.0,10.0,29.87,1012.3,61,,,,,,,,,,,,,,,1400.0,1400.0,BKN,1400.0,OVC,2300.0,,,,
KRDR,05-29-2017,15:11,SPECI,Normal,340,13,,,9999.0,Light Drizzle,11.0,10.0,29.87,1012.3,51,,,,,,,,,,,,,,,1400.0,1600.0,BKN,1600.0,BKN,2300.0,OVC,3000.0,,
KRDR,05-29-2017,15:06,SPECI,Normal,350,12,,,9999.0,,12.0,10.0,29.87,1012.3,,,,,,,,,,,,,,,,1400.0,1600.0,BKN,1600.0,BKN,2300.0,BKN,3000.0,,
KRDR,05-29-2017,15:01,SPECI,Normal,340,11,,,9999.0,,12.0,11.0,29.87,1012.3,,,,,,,,,,,,,,,,1400.0,1400.0,BKN,1400.0,BKN,2300.0,BKN,3000.0,BKN,3700.0
KRDR,05-29-2017,14:56,METAR,Normal,350,11,,,9999.0,,11.5,10.9,29.87,1012.3,,,,,,,,,,,TRACE,.04 IN,,,,3000.0,900.0,FEW,900.0,SCT,1400.0,BKN,3000.0,BKN,3800.0
KRDR,05-29-2017,14:24,SPECI,Normal,340,9,,,9999.0,,10.0,10.0,29.87,1012.3,,,,,,,,,,,,,,,,4300.0,900.0,FEW,900.0,FEW,2200.0,BKN,4300.0,,
KRDR,05-29-2017,14:15,SPECI,Normal,340,7,,,9999.0,,10.0,10.0,29.87,1012.3,,,,,,,,,,,,,,,,4700.0,1900.0,SCT,1900.0,BKN,4700.0,BKN,12000.0,,
KRDR,05-29-2017,14:11,SPECI,Normal,340,9,,,9999.0,Light Drizzle,9.0,9.0,29.87,1012.4,51,,,,,,,,,,,,,,4/8 Partly Cloudy,72000.0,1900.0,SCT,1900.0,,,,,,
KRDR,05-29-2017,14:06,SPECI,Normal,350,9,,,9999.0,Light Rain,9.0,9.0,29.87,1012.4,61,,,,,,,,,,,,,,,2000.0,2000.0,BKN,2000.0,BKN,2700.0,,,,
KRDR,05-29-2017,14:01,SPECI,Normal,360,9,,,9999.0,Light Rain,9.0,9.0,29.87,1012.4,61,,,,,,,,,,,,,,,1800.0,1800.0,BKN,1800.0,OVC,2400.0,,,,
KRDR,05-29-2017,13:56,METAR,Normal,10,11,,,9999.0,Light Rain,9.1,9.1,29.87,1012.4,61,,,,,,,,,,.03 IN,,,,,1400.0,1000.0,FEW,1000.0,SCT,1500.0,OVC,2100.0,,
KRDR,05-29-2017,13:54,SPECI,Normal,10,13,,,9999.0,Light Rain,9.0,9.0,29.87,1012.3,61,,,,,,,,,,,,,,,1400.0,1000.0,FEW,1000.0,SCT,1500.0,OVC,2300.0,,
KRDR,05-29-2017,13:49,SPECI,Normal,10,12,,,9999.0,Light Rain,9.0,9.0,29.87,1012.3,61,,,,,,,,,,,,,,,1400.0,800.0,FEW,800.0,BKN,1400.0,BKN,2000.0,OVC,2700.0
KRDR,05-29-2017,13:39,SPECI,Normal,10,11,,,9999.0,Light Rain/Mist,9.0,9.0,29.87,1012.3,61,10,,,,,,,,,,,,,,1100.0,1000.0,SCT,1000.0,OVC,1600.0,,,,
KRDR,05-29-2017,13:37,SPECI,Normal,10,13,,,8000.0,Light Rain/Mist,9.0,9.0,29.87,1012.3,61,10,,,,,,,,,,,,,,1200.0,1200.0,OVC,1200.0,,,,,,
KRDR,05-29-2017,13:32,SPECI,Normal,20,13,,,8000.0,Light Rain/Mist,9.0,9.0,29.86,1012.0,61,10,,,,,,,,,,,,,,1000.0,1100.0,BKN,1100.0,OVC,1800.0,,,,
KRDR,05-29-2017,13:11,SPECI,Normal,340,11,,,9999.0,Light Rain,10.0,10.0,29.86,1012.0,61,,,,,,,,,,,,,,,1200.0,1300.0,BKN,1300.0,OVC,3700.0,,,,
KRDR,05-29-2017,13:01,SPECI,Normal,340,13,,,9999.0,Light Rain,10.0,10.0,29.86,1012.0,61,,,,,,,,,,,,,,,1200.0,1500.0,BKN,1500.0,OVC,3700.0,,,,
KRDR,05-29-2017,12:56,METAR,Normal,340,11,,,9999.0,Light Rain,9.9,9.9,29.86,1012.0,61,,,,,,,,,,.01 IN,,,,,1200.0,1300.0,BKN,1300.0,BKN,3700.0,,,,
KRDR,05-29-2017,12:38,SPECI,Normal,340,10,,,9999.0,Light Rain,10.0,10.0,29.86,1011.9,61,,,,,,,,,,,,,,,1000.0,1300.0,BKN,1300.0,OVC,2500.0,,,,
KRDR,05-29-2017,12:36,SPECI,Normal,340,11,,,9999.0,,10.0,10.0,29.86,1011.9,,,,,,,,,,,,,,,,1200.0,1300.0,BKN,1300.0,OVC,2500.0,,,,
KRDR,05-29-2017,12:32,SPECI,Normal,350,10,,,9999.0,Light Rain,10.0,10.0,29.86,1011.9,61,,,,,,,,,,,,,,,800.0,1100.0,SCT,1100.0,BKN,1700.0,OVC,2400.0,,
KRDR,05-29-2017,12:27,SPECI,Normal,350,12,,,9999.0,Light Rain,10.0,10.0,29.86,1011.9,61,,,,,,,,,,,,,,,600.0,1100.0,SCT,1100.0,SCT,1700.0,OVC,2400.0,,
KRDR,05-29-2017,12:22,SPECI,Normal,350,14,19.0,,9999.0,Light Rain,10.0,10.0,29.86,1011.9,61,,,,,,,,,,,,,,,600.0,1100.0,SCT,1100.0,BKN,1600.0,OVC,2400.0,,
KRDR,05-29-2017,12:02,SPECI,Normal,330,13,17.0,,9999.0,Light Rain,10.0,10.0,29.85,1011.7,61,,,,,,,,,,,,,,,600.0,1100.0,BKN,1100.0,BKN,1600.0,OVC,2200.0,,
KRDR,05-29-2017,11:56,METAR,Normal,340,13,,,9999.0,Light Rain,9.6,9.6,29.85,1011.6,61,,,,,,,,,,TRACE,,.05 IN,.13 IN,,600.0,1200.0,BKN,1200.0,OVC,2200.0,,,,
KRDR,05-29-2017,11:42,SPECI,Normal,350,9,,,9999.0,Light Rain,10.0,9.0,29.85,1011.6,61,,,,,,,,,,,,,,,1400.0,1400.0,BKN,1400.0,OVC,2000.0,,,,
KRDR,05-29-2017,11:37,SPECI,Normal,360,10,20.0,,9999.0,Light Rain,10.0,10.0,29.85,1011.6,61,,,,,,,,,,,,,,,1500.0,1800.0,OVC,1800.0,,,,,,
KRDR,05-29-2017,11:32,SPECI,Normal,340,17,20.0,,9999.0,Light Rain,10.0,10.0,29.84,1011.3,61,,,,,,,,,,,,,,,1500.0,2000.0,OVC,2000.0,,,,,,
KRDR,05-29-2017,11:31,SPECI,Normal,340,15,20.0,,9999.0,,10.0,10.0,29.84,1011.3,,,,,,,,,,,,,,,,1500.0,2000.0,OVC,2000.0,,,,,,
KRDR,05-29-2017,10:56,METAR,Normal,340,10,,,9999.0,,9.6,9.6,29.84,1011.3,,,,,,,,,,,.01 IN,,,,,1600.0,700.0,FEW,700.0,BKN,1800.0,OVC,2400.0,,
KRDR,05-29-2017,10:47,SPECI,Normal,340,10,,,9999.0,,10.0,10.0,29.84,1011.3,,,,,,,,,,,,,,,,800.0,800.0,SCT,800.0,OVC,1800.0,,,,
KRDR,05-29-2017,10:42,SPECI,Normal,350,10,18.0,,9999.0,,10.0,10.0,29.84,1011.3,,,,,,,,,,,,,,,,800.0,800.0,BKN,800.0,BKN,1800.0,OVC,2400.0,,
KRDR,05-29-2017,10:16,SPECI,Normal,350,11,,,9999.0,Light Rain,10.0,10.0,29.83,1010.9,61,,,,,,,,,,,,,,,900.0,900.0,BKN,900.0,BKN,1900.0,OVC,3100.0,,
KRDR,05-29-2017,09:56,METAR,Normal,350,11,,,9999.0,Light Rain,9.8,9.8,29.82,1010.5,61,,,,,,,,,,.03 IN,,,,,1100.0,1100.0,BKN,1100.0,BKN,1900.0,OVC,2700.0,,
KRDR,05-29-2017,09:44,SPECI,Normal,340,10,,,9999.0,Light Rain,10.0,10.0,29.82,1010.5,61,,,,,,,,,,,,,,,1100.0,1100.0,BKN,1100.0,BKN,2800.0,OVC,3300.0,,
KRDR,05-29-2017,09:36,SPECI,Normal,340,11,16.0,,9999.0,Light Rain,10.0,10.0,29.82,1010.5,61,,,,,,,,,,,,,,,1200.0,1300.0,BKN,1300.0,BKN,2700.0,OVC,3200.0,,
KRDR,05-29-2017,09:26,SPECI,Normal,350,12,,,9999.0,Light Rain,10.0,10.0,29.82,1010.5,61,,,,,,,,,,,,,,,1100.0,1500.0,BKN,1500.0,BKN,2700.0,OVC,3200.0,,
KRDR,05-29-2017,09:21,SPECI,Normal,340,13,,,9999.0,Light Rain,10.0,10.0,29.82,1010.5,61,,,,,,,,,,,,,,,1100.0,1400.0,BKN,1400.0,OVC,3200.0,,,,
KRDR,05-29-2017,09:11,SPECI,Normal,340,11,,,9999.0,Light Rain,10.0,10.0,29.81,1010.1,61,,,,,,,,,,,,,,,1100.0,1600.0,BKN,1600.0,OVC,3200.0,,,,
KRDR,05-29-2017,08:56,METAR,Normal,340,10,,,9999.0,Light Rain,9.8,9.8,29.81,1010.2,61,,,,,,,,,,.01 IN,.01 IN,,,,3000.0,1300.0,FEW,1300.0,SCT,2400.0,OVC,3000.0,,
KRDR,05-29-2017,08:43,SPECI,Normal,350,9,,,9999.0,Light Rain,10.0,10.0,29.81,1010.2,61,,,,,,,,,,,,,,,1200.0,1400.0,SCT,1400.0,OVC,2300.0,,,,
KRDR,05-29-2017,08:18,SPECI,Normal,350,16,20.0,,9999.0,Light Rain,10.0,9.0,29.81,1010.2,61,,,,,,,,,,,,,,,1300.0,1400.0,OVC,1400.0,,,,,,
KRDR,05-29-2017,08:05,SPECI,Normal,350,12,19.0,,9999.0,,10.0,10.0,29.81,1010.1,,,,,,,,,,,,,,,,1400.0,1400.0,OVC,1400.0,,,,,,
KRDR,05-29-2017,08:02,SPECI,Normal,350,14,19.0,,9999.0,Light Drizzle,10.0,10.0,29.81,1010.1,51,,,,,,,,,,,,,,,1100.0,1400.0,OVC,1400.0,,,,,,
KRDR,05-29-2017,07:57,SPECI,Normal,350,12,,,9999.0,Light Drizzle,10.0,10.0,29.81,1010.1,51,,,,,,,,,,,,,,,1100.0,1100.0,BKN,1100.0,OVC,1700.0,,,,
KRDR,05-29-2017,07:56,METAR,Normal,340,10,,,9999.0,Light Drizzle,10.5,9.7,29.81,1010.1,51,,,,,,,,,,TRACE,,,,,1400.0,1400.0,OVC,1400.0,,,,,,
KRDR,05-29-2017,07:52,SPECI,Normal,340,9,17.0,,9999.0,Light Drizzle,11.0,10.0,29.81,1010.1,51,,,,,,,,,,,,,,,1500.0,1600.0,OVC,1600.0,,,,,,
KRDR,05-29-2017,06:56,METAR,Normal,340,13,19.0,,9999.0,,10.4,10.1,29.80,1009.9,,,,,,,,,,,TRACE,,,,,1600.0,1700.0,OVC,1700.0,,,,,,
KRDR,05-29-2017,06:09,SPECI,Normal,340,10,17.0,,9999.0,,10.0,10.0,29.80,1009.7,,,,,,,,,,,,,,,,1800.0,1800.0,BKN,1800.0,OVC,2500.0,,,,
KRDR,05-29-2017,06:04,SPECI,Normal,340,11,17.0,,9999.0,,10.0,10.0,29.80,1009.7,,,,,,,,,,,,,,,,1800.0,2000.0,OVC,2000.0,,,,,,
KRDR,05-29-2017,05:59,SPECI,Normal,350,11,17.0,,9999.0,,10.0,10.0,29.80,1009.8,,,,,,,,,,,,,,,,1800.0,1800.0,BKN,1800.0,OVC,2500.0,,,,
KRDR,05-29-2017,05:56,METAR,Normal,350,13,,,9999.0,Light Rain,10.0,9.8,29.80,1009.8,61,,,,,,,,,,.02 IN,,.02 IN,,,2100.0,1700.0,SCT,1700.0,OVC,2400.0,,,,
KRDR,05-29-2017,05:38,SPECI,Normal,360,12,,,9999.0,Light Rain,10.0,10.0,29.80,1009.8,61,,,,,,,,,,,,,,,1300.0,1400.0,SCT,1400.0,OVC,2600.0,,,,
KRDR,05-29-2017,05:33,SPECI,Normal,360,12,18.0,,9999.0,Light Rain,10.0,10.0,29.80,1009.8,61,,,,,,,,,,,,,,,1300.0,1000.0,FEW,1000.0,BKN,1600.0,OVC,2400.0,,
KRDR,05-29-2017,05:15,SPECI,Normal,350,9,,,9999.0,Rain,11.0,9.0,29.80,1009.8,62,,,,,,,,,,,,,,,1700.0,1800.0,OVC,1800.0,,,,,,
KRDR,05-29-2017,04:56,METAR,Normal,340,9,,,9999.0,,11.1,9.4,29.80,1009.8,,,,,,,,,,,,,,,,1700.0,1800.0,OVC,1800.0,,,,,,
KRDR,05-29-2017,03:56,METAR,Normal,350,11,,,9999.0,,11.0,9.3,29.80,1009.8,,,,,,,,,,,TRACE,,,,,1600.0,1600.0,BKN,1600.0,OVC,2500.0,,,,
KRDR,05-29-2017,03:47,SPECI,Normal,350,11,,,9999.0,,11.0,9.0,29.80,1009.8,,,,,,,,,,,,,,,,1600.0,1600.0,BKN,1600.0,OVC,2300.0,,,,
KRDR,05-29-2017,03:17,SPECI,Normal,350,11,,,9999.0,,11.0,10.0,29.80,1009.9,,,,,,,,,,,,,,,,2200.0,2200.0,OVC,2200.0,,,,,,
KRDR,05-29-2017,03:02,SPECI,Normal,360,15,22.0,,9999.0,,11.0,10.0,29.80,1009.9,,,,,,,,,,,,,,,,1300.0,1700.0,BKN,1700.0,OVC,2500.0,,,,
KRDR,05-29-2017,02:56,METAR,Normal,350,13,22.0,,9999.0,Light Rain,10.9,9.3,29.80,1009.9,61,,,,,,,,,,TRACE,TRACE,,,,1300.0,1900.0,BKN,1900.0,OVC,2400.0,,,,
KRDR,05-29-2017,02:53,SPECI,Normal,350,17,22.0,,9999.0,Light Rain,11.0,9.0,29.80,1009.9,61,,,,,,,,,,,,,,,1300.0,1900.0,BKN,1900.0,OVC,2400.0,,,,
KRDR,05-29-2017,02:48,SPECI,Normal,350,16,22.0,,9999.0,Light Drizzle,11.0,9.0,29.80,1009.9,51,,,,,,,,,,,,,,,1600.0,1600.0,SCT,1600.0,OVC,2200.0,,,,
KRDR,05-29-2017,02:33,SPECI,Normal,340,15,,,9999.0,Light Drizzle,12.0,8.0,29.79,1009.5,51,,,,,,,,,,,,,,,2200.0,2300.0,BKN,2300.0,OVC,2800.0,,,,
KRDR,05-29-2017,02:13,SPECI,Normal,340,10,,,9999.0,,12.0,9.0,29.79,1009.5,,,,,,,,,,,,,,,,2200.0,2300.0,BKN,2300.0,OVC,3000.0,,,,
KRDR,05-29-2017,01:58,SPECI,Normal,340,10,,,9999.0,Light Drizzle,12.0,8.0,29.79,1009.5,51,,,,,,,,,,,,,,,2200.0,2800.0,BKN,2800.0,OVC,4100.0,,,,
KRDR,05-29-2017,01:56,METAR,Normal,340,11,,,9999.0,,12.0,8.3,29.79,1009.5,,,,,,,,,,,TRACE,,,,,2800.0,2800.0,BKN,2800.0,OVC,3900.0,,,,
KRDR,05-29-2017,01:42,SPECI,Normal,340,14,19.0,,9999.0,,12.0,8.0,29.78,1009.2,,,,,,,,,,,,,,,,2600.0,2600.0,BKN,2600.0,OVC,4900.0,,,,
KRDR,05-29-2017,01:41,SPECI,Normal,340,14,19.0,,9999.0,Light Rain,12.0,8.0,29.78,1009.2,61,,,,,,,,,,,,,,,2600.0,2600.0,BKN,2600.0,OVC,4900.0,,,,
KRDR,05-29-2017,01:31,SPECI,Normal,340,10,20.0,,9999.0,Light Rain,12.0,8.0,29.78,1009.2,61,,,,,,,,,,,,,,,4900.0,2500.0,FEW,2500.0,FEW,3500.0,OVC,4900.0,,
KRDR,05-29-2017,00:56,METAR,Normal,340,12,20.0,,9999.0,,13.0,8.3,29.78,1009.2,,,,,,,,,,,TRACE,,,,,3900.0,3900.0,BKN,3900.0,OVC,5000.0,,,,
KRDR,05-29-2017,00:55,SPECI,Normal,340,13,20.0,,9999.0,,13.0,8.0,29.78,1009.2,,,,,,,,,,,,,,,,3900.0,2500.0,FEW,2500.0,BKN,3900.0,OVC,5000.0,,
KRDR,05-29-2017,00:46,SPECI,Normal,340,13,20.0,,9999.0,Light Drizzle,13.0,8.0,29.77,1008.9,51,,,,,,,,,,,,,,,3700.0,2600.0,FEW,2600.0,BKN,3700.0,OVC,5000.0,,
KRDR,05-29-2017,00:03,SPECI,Normal,360,15,22.0,,9999.0,,13.0,8.0,29.77,1008.9,,,,,,,,,,,,,,,,3700.0,3000.0,SCT,3000.0,BKN,3700.0,OVC,4800.0,,
KRDR,05-28-2017,23:56,METAR,Normal,360,16,25.0,,9999.0,Light Rain,13.3,8.1,29.77,1008.9,61,,,,,,,,,,TRACE,,.06 IN,,,3500.0,2800.0,SCT,2800.0,BKN,3500.0,OVC,6000.0,,
KRDR,05-28-2017,23:52,SPECI,Normal,360,18,25.0,,9999.0,Light Rain,14.0,8.0,29.77,1008.8,61,,,,,,,,,,,,,,,3300.0,2800.0,SCT,2800.0,BKN,3300.0,OVC,5500.0,,
KRDR,05-28-2017,23:47,SPECI,Normal,360,18,24.0,,9999.0,Light Rain,14.0,9.0,29.77,1008.8,61,,,,,,,,,,,,,,,2900.0,2900.0,BKN,2900.0,BKN,4700.0,OVC,5500.0,,
KRDR,05-28-2017,22:56,METAR,Normal,360,20,25.0,360/26KTS,9999.0,,13.5,8.5,29.76,1008.5,,,,,,,,,,,,,,,,5000.0,3800.0,SCT,3800.0,BKN,5000.0,OVC,7000.0,,
KRDR,05-28-2017,22:18,SPECI,Normal,340,13,,,9999.0,,15.0,8.0,29.74,1007.8,,,,,,,,,,,,,,,,4700.0,3600.0,SCT,3600.0,BKN,4700.0,BKN,6000.0,,
KRDR,05-28-2017,21:56,METAR,Normal,20,19,27.0,350/27KTS,9999.0,,16.5,8.5,29.73,1007.4,,,,,,,,,,,,,,,,5500.0,3300.0,SCT,3300.0,SCT,4100.0,BKN,5500.0,,
KRDR,05-28-2017,21:53,SPECI,Normal,10,19,27.0,,9999.0,,17.0,8.0,29.72,1007.0,,,,,,,,,,,,,,,4/8 Partly Cloudy,72000.0,3500.0,FEW,3500.0,FEW,4200.0,SCT,5500.0,,
KRDR,05-28-2017,21:34,SPECI,Normal,10,16,21.0,,9999.0,,17.0,9.0,29.72,1007.0,,,,,,,,,,,,,,,4/8 Partly Cloudy,72000.0,3900.0,FEW,3900.0,SCT,5500.0,,,,
KRDR,05-28-2017,20:56,METAR,Normal,320,11,17.0,350/26KTS,9999.0,,15.8,9.9,29.72,1007.1,,,,,,,,,,,TRACE,.06 IN,,,,6000.0,3700.0,SCT,3700.0,BKN,6000.0,BKN,8000.0,,
KRDR,05-28-2017,20:38,SPECI,Normal,360,9,,,9999.0,,15.0,9.0,29.73,1007.4,,,,,,,,,,,,,,,,6500.0,3300.0,FEW,3300.0,FEW,4100.0,SCT,5000.0,BKN,6500.0
KRDR,05-28-2017,20:20,SPECI,Normal,340,16,,,9999.0,Light Rain,17.0,9.0,29.73,1007.4,61,,,,,,,,,,,,,,,10000.0,5000.0,FEW,5000.0,SCT,6000.0,BKN,10000.0,,
KRDR,05-28-2017,19:56,METAR,Normal,340,19,29.0,330/29KTS,9999.0,,17.3,9.2,29.72,1007.0,,,,,,,,,,,TRACE,,,,2/8 Mostly Clear,72000.0,7500.0,FEW,7500.0,FEW,9600.0,,,,
KRDR,05-28-2017,19:02,SPECI,Normal,330,13,27.0,,9999.0,Distant Lightning,13.0,9.0,29.73,1007.5,12,,,,,,,,,,,,,,,6000.0,3600.0,FEW,3600.0,FEW,4800.0,BKN,6000.0,,
KRDR,05-28-2017,18:56,METAR,Normal,340,18,27.0,340/30KTS,9999.0,Rain,13.6,9.0,29.74,1007.8,62,,,,,,,,,,.06 IN,,,,,6000.0,3600.0,FEW,3600.0,SCT,4800.0,BKN,6000.0,,
KRDR,05-28-2017,18:49,SPECI,Normal,340,17,23.0,,9999.0,Light Rain,14.0,8.0,29.75,1008.2,61,,,,,,,,,,,,,,4/8 Partly Cloudy,72000.0,5000.0,SCT,5000.0,SCT,6000.0,,,,
KRDR,05-28-2017,18:33,SPECI,Normal,360,16,27.0,,9999.0,,16.0,10.0,29.73,1007.4,,,,,,,,,,,,,,,4/8 Partly Cloudy,72000.0,4900.0,SCT,4900.0,SCT,6000.0,,,,
KRDR,05-28-2017,18:26,SPECI,Normal,350,17,30.0,,9999.0,Light Drizzle,17.0,8.0,29.74,1007.7,51,,,,,,,,,,,,,,4/8 Partly Cloudy,72000.0,4900.0,SCT,4900.0,,,,,,
KRDR,05-28-2017,18:24,SPECI,Normal,350,17,30.0,,9999.0,Light Drizzle,18.0,7.0,29.74,1007.7,51,,,,,,,,,,,,,,4/8 Partly Cloudy,72000.0,4800.0,SCT,4800.0,,,,,,
KRDR,05-28-2017,17:56,METAR,Normal,330,12,22.0,,9999.0,,18.5,7.9,29.74,1007.7,,,,,,,,,,,TRACE,,TRACE,,4/8 Partly Cloudy,72000.0,4600.0,FEW,4600.0,SCT,12000.0,,,,
KRDR,05-28-2017,17:30,SPECI,Normal,320,15,,,9999.0,,16.0,9.0,29.75,1008.1,,,,,,,,,,,,,,,,7000.0,4100.0,SCT,4100.0,SCT,4900.0,BKN,7000.0,BKN,12000.0
KRDR,05-28-2017,17:17,SPECI,Normal,340,18,24.0,,9999.0,Light Rain,17.0,8.0,29.75,1008.1,61,,,,,,,,,,,,,,,4800.0,3900.0,SCT,3900.0,BKN,4800.0,BKN,7000.0,,
KRDR,05-28-2017,16:56,METAR,Normal,320,13,21.0,,9999.0,,17.2,8.9,29.76,1008.4,,,,,,,,,,,,,,,,7000.0,3500.0,SCT,3500.0,BKN,7000.0,,,,
KRDR,05-28-2017,15:56,METAR,Normal,340,15,21.0,,9999.0,,14.8,9.6,29.77,1008.8,,,,,,,,,,,,,,,,7000.0,2200.0,FEW,2200.0,SCT,5500.0,BKN,7000.0,BKN,9100.0
KRDR,05-28-2017,15:21,SPECI,Normal,340,13,18.0,,9999.0,,14.0,10.0,29.77,1008.9,,,,,,,,,,,,,,,,3400.0,1800.0,FEW,1800.0,SCT,2400.0,BKN,3400.0,,
KRDR,05-28-2017,15:16,SPECI,Normal,330,15,18.0,,9999.0,,13.0,10.0,29.77,1008.9,,,,,,,,,,,,,,,,1900.0,2000.0,SCT,2000.0,BKN,2600.0,OVC,3400.0,,
KRDR,05-28-2017,14:56,METAR,Normal,360,15,21.0,,9999.0,,13.2,10.2,29.78,1009.2,,,,,,,,,,,,TRACE,,,,1900.0,1900.0,OVC,1900.0,,,,,,
KRDR,05-28-2017,14:46,SPECI,Normal,10,12,,,9999.0,,14.0,10.0,29.77,1008.8,,,,,,,,,,,,,,,,1800.0,1900.0,OVC,1900.0,,,,,,
KRDR,05-28-2017,14:31,SPECI,Normal,350,15,,,9999.0,,14.0,10.0,29.77,1008.8,,,,,,,,,,,,,,,,1900.0,2100.0,BKN,2100.0,OVC,2900.0,,,,
KRDR,05-28-2017,13:56,METAR,Normal,320,11,,,9999.0,,12.6,9.4,29.76,1008.5,,,,,,,,,,,TRACE,,,,,4600.0,3500.0,FEW,3500.0,BKN,4600.0,OVC,6000.0,,
KRDR,05-28-2017,13:48,SPECI,Normal,320,9,,,9999.0,,13.0,9.0,29.76,1008.5,,,,,,,,,,,,,,,,5000.0,3300.0,FEW,3300.0,SCT,4100.0,BKN,5000.0,OVC,6000.0
KRDR,05-28-2017,13:37,SPECI,Normal,310,10,,,9999.0,Light Rain,12.0,9.0,29.76,1008.5,61,,,,,,,,,,,,,,,6000.0,4000.0,SCT,4000.0,OVC,6000.0,,,,
KRDR,05-28-2017,13:10,SPECI,Normal,310,6,,,9999.0,,12.0,9.0,29.76,1008.3,,,,,,,,,,,,,,,,4000.0,4000.0,OVC,4000.0,,,,,,
KRDR,05-28-2017,13:08,SPECI,Normal,320,7,,,9999.0,Light Drizzle,12.0,9.0,29.76,1008.3,51,,,,,,,,,,,,,,,4000.0,4000.0,OVC,4000.0,,,,,,
KRDR,05-28-2017,12:56,METAR,Normal,310,7,,,9999.0,,11.9,9.3,29.75,1007.9,,,,,,,,,,,,,,,,4100.0,4100.0,BKN,4100.0,OVC,5500.0,,,,
KRDR,05-28-2017,11:56,METAR,Normal,320,7,,,9999.0,,11.3,8.7,29.75,1007.9,,,,,,,,,,,,,TRACE,.02 IN,,4600.0,4600.0,BKN,4600.0,OVC,9600.0,,,,
KRDR,05-28-2017,10:56,METAR,Normal,320,7,,,9999.0,,10.6,8.2,29.74,1007.6,,,,,,,,,,,,,,,,9500.0,6000.0,FEW,6000.0,OVC,9600.0,,,,
KRDR,05-28-2017,09:56,METAR,Normal,320,8,,,9999.0,,10.0,7.6,29.74,1007.5,,,,,,,,,,,,,,,Clear,72000.0,,,,,,,,,
KRDR,05-28-2017,08:56,METAR,Normal,310,8,,,9999.0,,10.6,8.2,29.74,1007.5,,,,,,,,,,,,TRACE,,,4/8 Partly Cloudy,72000.0,10000.0,SCT,10000.0,,,,,,
KRDR,05-28-2017,07:56,METAR,Normal,310,7,,,9999.0,,11.4,8.6,29.74,1007.5,,,,,,,,,,,,,,,,7500.0,7500.0,OVC,7500.0,,,,,,
KRDR,05-28-2017,06:56,METAR,Normal,280,5,,,9999.0,,10.5,9.6,29.74,1007.5,,,,,,,,,,,TRACE,,,,,6000.0,6000.0,OVC,6000.0,,,,,,
KRDR,05-28-2017,05:57,SPECI,Normal,300,8,,,9999.0,,11.0,10.0,29.73,1007.2,,,,,,,,,,,,,,,,4500.0,3800.0,FEW,3800.0,BKN,4500.0,OVC,6000.0,,
KRDR,05-28-2017,05:56,METAR,Normal,300,8,,,9999.0,Light Drizzle,11.1,9.4,29.73,1007.2,51,,,,,,,,,,.02 IN,,.02 IN,,,4300.0,4300.0,BKN,4300.0,OVC,6000.0,,,,
KRDR,05-28-2017,05:31,SPECI,Normal,320,10,,,9999.0,Light Rain,12.0,8.0,29.74,1007.5,61,,,,,,,,,,,,,,,4500.0,4500.0,BKN,4500.0,OVC,5000.0,,,,
KRDR,05-28-2017,04:56,METAR,Normal,320,10,,,9999.0,,11.0,8.4,29.75,1007.9,,,,,,,,,,,,,,,,4800.0,4800.0,BKN,4800.0,OVC,7000.0,,,,
KRDR,05-28-2017,03:56,METAR,Normal,340,9,16.0,,9999.0,,10.7,8.6,29.74,1007.5,,,,,,,,,,,TRACE,,,,,5500.0,5500.0,BKN,5500.0,,,,,,
KRDR,05-28-2017,03:02,SPECI,Normal,350,12,,,9999.0,,11.0,9.0,29.74,1007.6,,,,,,,,,,,,,,,,7000.0,7000.0,BKN,7000.0,BKN,11000.0,,,,
KRDR,05-28-2017,02:56,METAR,Normal,10,11,,340/28KTS,9999.0,Light Rain,11.3,9.4,29.74,1007.6,61,,,,,,,,,,TRACE,TRACE,,,,7000.0,3900.0,FEW,3900.0,BKN,7000.0,,,,
KRDR,05-28-2017,02:18,SPECI,Normal,320,13,21.0,,9999.0,Light Rain,13.0,8.0,29.75,1007.9,61,,,,,,,,,,,,,,4/8 Partly Cloudy,72000.0,7000.0,SCT,7000.0,SCT,12000.0,,,,
KRDR,05-28-2017,02:12,SPECI,Normal,330,16,25.0,,9999.0,,13.0,8.0,29.74,1007.6,,,,,,,,,,,,,,,,12000.0,7500.0,SCT,7500.0,SCT,10000.0,BKN,12000.0,,
KRDR,05-28-2017,02:00,SPECI,Normal,330,19,28.0,,9999.0,Light Drizzle,14.0,7.0,29.74,1007.6,51,,,,,,,,,,,,,,,10000.0,10000.0,BKN,10000.0,,,,,,
KRDR,05-28-2017,01:56,METAR,Normal,330,20,27.0,340/35KTS,9999.0,,13.8,6.4,29.75,1007.9,,,,,,,,,,,,,,,,10000.0,10000.0,BKN,10000.0,,,,,,
KRDR,05-28-2017,00:56,METAR,Normal,320,6,,,9999.0,,20.7,5.1,29.69,1005.8,,,,,,,,,,,,,,,,10000.0,10000.0,BKN,10000.0,,,,,,
KRDR,05-27-2017,23:56,METAR,Normal,280,8,,,9999.0,,20.6,4.2,29.70,1006.2,,,,,,,,,,,,,,,4/8 Partly Cloudy,72000.0,9500.0,SCT,9600.0,,,,,,
KRDR,05-27-2017,22:56,METAR,Normal,290,5,,,9999.0,,22.0,5.0,29.72,1006.9,,,,,,,,,,,,,,,2/8 Mostly Clear,72000.0,8500.0,FEW,8600.0,,,,,,
KRDR,05-27-2017,22:42,SPECI,Normal,260,13,,,9999.0,,21.0,4.0,29.72,1007.0,,,,,,,,,,,,,,,4/8 Partly Cloudy,72000.0,8500.0,FEW,8600.0,SCT,12000.0,,,,
KRDR,05-27-2017,22:28,SPECI,Normal,230,15,24.0,,9999.0,,21.0,5.0,29.72,1007.0,,,,,,,,,,,,,,,,13000.0,9000.0,SCT,9100.0,SCT,10000.0,BKN,13000.0,,
KRDR,05-27-2017,21:56,METAR,Normal,260,11,17.0,,9999.0,,23.9,3.8,29.71,1006.5,,,,,,,,,,,,,,,4/8 Partly Cloudy,72000.0,9000.0,FEW,9100.0,SCT,13000.0,,,,
KRDR,05-27-2017,20:56,METAR,Normal,280,12,,,9999.0,,23.2,4.2,29.73,1007.3,,,,,,,,,,,,,,,4/8 Partly Cloudy,72000.0,12000.0,SCT,12000.0,,,,,,
KRDR,05-27-2017,19:56,METAR,Normal,270,11,17.0,,9999.0,,22.1,4.2,29.74,1007.6,,,,,,,,,,,,,,,,11000.0,8000.0,FEW,8000.0,BKN,11000.0,,,,
KRDR,05-27-2017,18:57,SPECI,Normal,310,16,25.0,,9999.0,,24.0,5.0,29.75,1007.9,,,,,,,,,,,,,,,2/8 Mostly Clear,72000.0,11000.0,FEW,11000.0,,,,,,
KRDR,05-27-2017,18:56,METAR,Normal,290,14,25.0,300/29KTS,9999.0,,24.3,5.1,29.75,1007.9,,,,,,,,,,,,,,,2/8 Mostly Clear,72000.0,11000.0,FEW,11000.0,,,,,,
KRDR,05-27-2017,17:56,METAR,Normal,280,18,28.0,280/28KTS,9999.0,,22.8,4.8,29.77,1008.6,,,,,,,,,,,,,,,2/8 Mostly Clear,72000.0,7500.0,FEW,7500.0,,,,,,
KRDR,05-27-2017,16:56,METAR,Normal,300,17,23.0,,9999.0,,22.1,6.3,29.78,1009.0,,,,,,,,,,,,,,,Clear,72000.0,,,,,,,,,
KRDR,05-27-2017,15:56,METAR,Normal,290,10,21.0,,9999.0,,21.9,6.5,29.78,1009.0,,,,,,,,,,,,,,,Clear,72000.0,,,,,,,,,
KRDR,05-27-2017,14:56,METAR,Normal,250,12,16.0,,9999.0,,20.5,7.5,29.78,1008.9,,,,,,,,,,,,,,,Clear,72000.0,,,,,,,,,
KRDR,05-27-2017,13:56,METAR,Normal,260,7,,,9999.0,,17.6,7.3,29.78,1008.9,,,,,,,,,,,,,,,Clear,72000.0,,,,,,,,,
KRDR,05-27-2017,12:56,METAR,Normal,280,9,,,9999.0,,14.3,5.9,29.78,1009.0,,,,,,,,,,,,,,,Clear,72000.0,,,,,,,,,
KRDR,05-27-2017,11:56,METAR,Normal,270,7,,,9999.0,,11.8,5.2,29.79,1009.4,,,,,,,,,,,,,,,Clear,72000.0,,,,,,,,,
KRDR,05-27-2017,10:56,METAR,Normal,270,8,,,9999.0,,9.2,4.8,29.77,1008.7,,,,,,,,,,,,,,,Clear,72000.0,,,,,,,,,
KRDR,05-27-2017,09:56,METAR,Normal,240,7,,,9999.0,,9.1,5.1,29.77,1008.7,,,,,,,,,,,,,,,Clear,72000.0,,,,,,,,,
KRDR,05-27-2017,08:56,METAR,Normal,240,6,,,9999.0,,9.2,5.4,29.78,1009.1,,,,,,,,,,,,,,,2/8 Mostly Clear,72000.0,20000.0,FEW,20000.0,,,,,,
KRDR,05-27-2017,07:56,METAR,Normal,240,7,,,9999.0,,9.0,5.6,29.78,1009.1,,,,,,,,,,,,,,,4/8 Partly Cloudy,72000.0,20000.0,SCT,20000.0,,,,,,
KRDR,05-27-2017,06:56,METAR,Normal,240,6,,,9999.0,,9.1,5.8,29.79,1009.4,,,,,,,,,,,,,,,Clear,72000.0,,,,,,,,,
KRDR,05-27-2017,05:56,METAR,Normal,240,6,,,9999.0,,9.1,5.7,29.78,1009.1,,,,,,,,,,,,,,,Clear,72000.0,,,,,,,,,
KRDR,05-27-2017,04:56,METAR,Normal,240,6,,,9999.0,,10.1,5.7,29.78,1009.0,,,,,,,,,,,,,,,Clear,72000.0,,,,,,,,,
KRDR,05-27-2017,03:56,METAR,Normal,240,6,,,9999.0,,10.8,5.5,29.77,1008.7,,,,,,,,,,,,,,,Clear,72000.0,,,,,,,,,
KRDR,05-27-2017,02:56,METAR,Normal,260,5,,,9999.0,,12.8,5.7,29.76,1008.3,,,,,,,,,,,,,,,Clear,72000.0,,,,,,,,,
KRDR,05-27-2017,01:56,METAR,Normal,270,6,,,9999.0,,15.9,5.8,29.74,1007.6,,,,,,,,,,,,,,,Clear,72000.0,,,,,,,,,
KRDR,05-27-2017,00:56,METAR,Normal,290,13,,,9999.0,,18.4,5.6,29.73,1007.3,,,,,,,,,,,,,,,Clear,72000.0,,,,,,,,,
KRDR,05-26-2017,23:56,METAR,Normal,270,9,,,9999.0,,18.9,7.6,29.72,1007.0,,,,,,,,,,,,,,,,8000.0,8000.0,BKN,8000.0,,,,,,
KRDR,05-26-2017,22:56,METAR,Normal,260,13,,,9999.0,,18.7,7.2,29.72,1007.0,,,,,,,,,,,,,,,2/8 Mostly Clear,72000.0,8000.0,FEW,8000.0,,,,,,
KRDR,05-26-2017,21:56,METAR,Normal,260,15,21.0,,9999.0,,19.6,7.3,29.71,1006.6,,,,,,,,,,,,,,,,6000.0,6000.0,OVC,6000.0,,,,,,
KRDR,05-26-2017,20:56,METAR,Normal,270,7,,,9999.0,,18.5,6.7,29.70,1006.4,,,,,,,,,,,,,,,,6000.0,6000.0,BKN,6000.0,,,,,,
KRDR,05-26-2017,19:56,METAR,Normal,250,9,,,9999.0,,18.0,7.1,29.70,1006.4,,,,,,,,,,,,,,,,6000.0,6000.0,OVC,6000.0,,,,,,
KRDR,05-26-2017,18:56,METAR,Normal,270,10,,,9999.0,,17.9,7.3,29.69,1006.0,,,,,,,,,,,,,,,,6000.0,6000.0,OVC,6000.0,,,,,,
KRDR,05-26-2017,17:59,SPECI,Normal,260,17,22.0,,9999.0,,19.0,8.0,29.68,1005.6,,,,,,,,,,,,,,,4/8 Partly Cloudy,72000.0,4900.0,FEW,4900.0,SCT,6000.0,,,,
KRDR,05-26-2017,17:56,METAR,Normal,280,15,21.0,,9999.0,,18.9,7.9,29.68,1005.6,,,,,,,,,,,,,,,4/8 Partly Cloudy,72000.0,4900.0,SCT,4900.0,SCT,6000.0,,,,
KRDR,05-26-2017,16:56,METAR,Normal,290,16,20.0,,9999.0,,19.1,8.7,29.66,1004.8,,,,,,,,,,,,,,,4/8 Partly Cloudy,72000.0,3900.0,SCT,3900.0,,,,,,
KRDR,05-26-2017,16:17,SPECI,Normal,290,13,19.0,,9999.0,,19.0,9.0,29.66,1004.7,,,,,,,,,,,,,,,Clear,72000.0,,,,,,,,,
KRDR,05-26-2017,15:56,METAR,Normal,260,11,,,9999.0,,18.8,9.3,29.65,1004.4,,,,,,,,,,,,,,,Clear,72000.0,,,,,,,,,
KRDR,05-26-2017,14:56,METAR,Normal,290,10,,,9999.0,,17.6,9.7,29.64,1004.1,,,,,,,,,,,,,,,Clear,72000.0,,,,,,,,,
KRDR,05-26-2017,13:56,METAR,Normal,280,9,,,9999.0,,16.0,9.0,29.63,1003.8,,,,,,,,,,,,,,,Clear,72000.0,,,,,,,,,
KRDR,05-26-2017,12:56,METAR,Normal,270,8,,,9999.0,,14.1,8.3,29.62,1003.4,,,,,,,,,,,,,,,Clear,72000.0,,,,,,,,,
KRDR,05-26-2017,11:56,METAR,Normal,260,8,,,9999.0,,11.7,7.8,29.61,1003.2,,,,,,,,,,,,,,,Clear,72000.0,,,,,,,,,
KRDR,05-26-2017,10:56,METAR,Normal,250,7,,,9999.0,,8.5,6.8,29.60,1003.0,,,,,,,,,,,,,,,Clear,72000.0,,,,,,,,,
KRDR,05-26-2017,09:56,METAR,Normal,250,7,,,9999.0,,9.1,6.7,29.59,1002.6,,,,,,,,,,,,,,,Clear,72000.0,,,,,,,,,
KRDR,05-26-2017,08:56,METAR,Normal,250,7,,,9999.0,,9.1,6.9,29.57,1001.9,,,,,,,,,,,,,,,Clear,72000.0,,,,,,,,,
KRDR,05-26-2017,07:56,METAR,Normal,240,6,,,9999.0,,10.4,7.8,29.57,1001.9,,,,,,,,,,,,,,,Clear,72000.0,,,,,,,,,
KRDR,05-26-2017,06:56,METAR,Normal,250,6,,,9999.0,,11.1,8.8,29.56,1001.5,,,,,,,,,,,,,,,Clear,72000.0,,,,,,,,,
KRDR,05-26-2017,05:56,METAR,Normal,250,6,,,9999.0,,11.4,9.6,29.55,1001.2,,,,,,,,,,,,,,,Clear,72000.0,,,,,,,,,
KRDR,05-26-2017,04:56,METAR,Normal,170,6,,,9999.0,,14.7,11.1,29.54,1000.7,,,,,,,,,,,,,,,4/8 Partly Cloudy,72000.0,4000.0,FEW,4000.0,SCT,10000.0,SCT,12000.0,,
KRDR,05-26-2017,03:56,METAR,Normal,240,6,,,9999.0,,16.0,10.7,29.55,1001.1,,,,,,,,,,,,,,,,7000.0,3600.0,FEW,3600.0,SCT,4800.0,BKN,7000.0,,
KRDR,05-26-2017,02:56,METAR,Normal,150,11,,,9999.0,,16.5,10.3,29.51,999.8,,,,,,,,,,,,,,,Clear,72000.0,,,,,,,,,
KRDR,05-26-2017,01:56,METAR,Normal,180,15,,,9999.0,,18.0,10.6,29.49,999.1,,,,,,,,,,,,,,,Clear,72000.0,,,,,,,,,
KRDR,05-26-2017,00:56,METAR,Normal,170,13,21.0,,9999.0,,19.4,10.4,29.48,998.8,,,,,,,,,,,,,,,4/8 Partly Cloudy,72000.0,15000.0,SCT,15000.0,,,,,,
KRDR,05-25-2017,23:56,METAR,Normal,180,16,23.0,,9999.0,,19.1,10.1,29.47,998.5,,,,,,,,,,,,,,,2/8 Mostly Clear,72000.0,17000.0,FEW,17000.0,,,,,,
KRDR,05-25-2017,22:56,METAR,Normal,180,14,20.0,,9999.0,,18.7,9.7,29.48,998.9,,,,,,,,,,,,,,,,5000.0,5000.0,OVC,5000.0,,,,,,
KRDR,05-25-2017,21:56,METAR,Normal,170,16,,180/27KTS,9999.0,,18.5,9.0,29.48,998.9,,,,,,,,,,,,,,,,5500.0,5500.0,OVC,5500.0,,,,,,
KRDR,05-25-2017,20:56,METAR,Normal,170,15,22.0,180/26KTS,9999.0,,18.6,8.8,29.47,998.5,,,,,,,,,,,,,,,,5000.0,5000.0,OVC,5000.0,,,,,,
KRDR,05-25-2017,19:56,METAR,Normal,180,17,26.0,170/29KTS,9999.0,,18.6,8.5,29.48,998.9,,,,,,,,,,,,,,,,5000.0,5000.0,OVC,5000.0,,,,,,
KRDR,05-25-2017,18:56,METAR,Normal,180,20,27.0,190/32KTS,9999.0,,18.8,8.2,29.48,998.8,,,,,,,,,,,,,,,,4900.0,4900.0,OVC,4900.0,,,,,,
KRDR,05-25-2017,17:56,METAR,Normal,180,22,33.0,170/33KTS,9999.0,,19.1,7.8,29.47,998.5,,,,,,,,,,,,,,,4/8 Partly Cloudy,72000.0,5000.0,FEW,5000.0,SCT,6500.0,SCT,8600.0,SCT,11000.0
KRDR,05-25-2017,15:56,METAR,Normal,170,20,31.0,190/31KTS,9999.0,,17.5,7.8,29.51,999.8,,,,,,,,,,,,,,,4/8 Partly Cloudy,72000.0,12000.0,SCT,12000.0,,,,,,
KRDR,05-25-2017,14:56,METAR,Normal,170,22,29.0,180/29KTS,9999.0,,15.2,8.0,29.52,1000.2,,,,,,,,,,,,,,,4/8 Partly Cloudy,72000.0,12000.0,SCT,12000.0,,,,,,
KRDR,05-25-2017,13:56,METAR,Normal,160,12,19.0,,9999.0,,11.8,6.9,29.54,1000.9,,,,,,,,,,,,,,,,11000.0,11000.0,OVC,11000.0,,,,,,
KRDR,05-25-2017,12:56,METAR,Normal,160,11,18.0,,9999.0,,11.4,6.5,29.54,1000.9,,,,,,,,,,,,,,,,12000.0,12000.0,BKN,12000.0,BKN,15000.0,OVC,17000.0,,
KRDR,05-25-2017,11:56,METAR,Normal,140,11,,,9999.0,,9.7,5.9,29.53,1000.6,,,,,,,,,,,,,,,Clear,72000.0,,,,,,,,,
KRDR,05-25-2017,10:56,METAR,Normal,150,7,,,9999.0,,9.3,5.5,29.56,1001.6,,,,,,,,,,,,,,,Clear,72000.0,,,,,,,,,
KRDR,05-25-2017,09:56,METAR,Normal,150,8,,,9999.0,,8.4,5.5,29.57,1002.0,,,,,,,,,,,,,,,Clear,72000.0,,,,,,,,,
KRDR,05-25-2017,08:56,METAR,Normal,150,7,,,9999.0,,8.8,5.2,29.58,1002.3,,,,,,,,,,,,,,,Clear,72000.0,,,,,,,,,
KRDR,05-25-2017,07:56,METAR,Normal,140,9,,,9999.0,,9.5,5.5,29.60,1002.9,,,,,,,,,,,,,,,Clear,72000.0,,,,,,,,,
KRDR,05-25-2017,06:56,METAR,Normal,150,8,,,9999.0,,10.2,5.8,29.59,1002.5,,,,,,,,,,,,,,,Clear,72000.0,,,,,,,,,
KRDR,05-25-2017,05:56,METAR,Normal,150,11,,,9999.0,,11.8,6.1,29.60,1002.9,,,,,,,,,,,,,,,Clear,72000.0,,,,,,,,,
KRDR,05-25-2017,04:56,METAR,Normal,150,11,,,9999.0,,12.2,5.8,29.60,1002.9,,,,,,,,,,,,,,,Clear,72000.0,,,,,,,,,
KRDR,05-25-2017,03:56,METAR,Normal,150,10,,,9999.0,,13.0,5.7,29.60,1002.9,,,,,,,,,,,,,,,Clear,72000.0,,,,,,,,,
KRDR,05-25-2017,02:56,METAR,Normal,170,13,,,9999.0,,14.4,5.5,29.60,1003.0,,,,,,,,,,,,,,,Clear,72000.0,,,,,,,,,
KRDR,05-25-2017,01:56,METAR,Normal,160,14,,,9999.0,,15.4,5.0,29.59,1002.6,,,,,,,,,,,,,,,2/8 Mostly Clear,72000.0,20000.0,FEW,20000.0,,,,,,
KRDR,05-25-2017,00:56,METAR,Normal,170,13,21.0,,9999.0,,17.4,5.0,29.59,1002.6,,,,,,,,,,,,,,,4/8 Partly Cloudy,72000.0,5500.0,SCT,5500.0,,,,,,
KRDR,05-24-2017,23:56,METAR,Normal,170,15,,160/26KTS,9999.0,,16.8,4.8,29.60,1003.1,,,,,,,,,,,,,,,Clear,72000.0,,,,,,,,,
KRDR,05-24-2017,22:56,METAR,Normal,170,20,23.0,170/27KTS,9999.0,,18.7,5.2,29.60,1003.1,,,,,,,,,,,,,,,2/8 Mostly Clear,72000.0,6000.0,FEW,6000.0,,,,,,
KRDR,05-24-2017,21:56,METAR,Normal,160,16,23.0,,9999.0,,18.5,5.0,29.62,1003.8,,,,,,,,,,,,,,,,6000.0,6000.0,BKN,6000.0,,,,,,
KRDR,05-24-2017,20:56,METAR,Normal,160,17,24.0,180/26KTS,9999.0,,19.2,4.9,29.64,1004.4,,,,,,,,,,,,,,,,6000.0,6000.0,BKN,6000.0,,,,,,
KRDR,05-24-2017,19:56,METAR,Normal,150,18,23.0,150/27KTS,9999.0,,19.0,4.7,29.65,1004.8,,,,,,,,,,,,,,,2/8 Mostly Clear,72000.0,6000.0,FEW,6000.0,,,,,,
KRDR,05-24-2017,18:56,METAR,Normal,170,16,23.0,160/26KTS,9999.0,,19.1,5.2,29.68,1005.7,,,,,,,,,,,,,,,2/8 Mostly Clear,72000.0,5500.0,FEW,5500.0,,,,,,
KRDR,05-24-2017,17:56,METAR,Normal,160,12,22.0,,9999.0,,18.1,5.0,29.71,1006.8,,,,,,,,,,,,,,,4/8 Partly Cloudy,72000.0,5000.0,SCT,5000.0,SCT,21000.0,,,,
KRDR,05-24-2017,16:56,METAR,Normal,150,11,19.0,,9999.0,,17.0,5.0,29.74,1007.9,,,,,,,,,,,,,,,4/8 Partly Cloudy,72000.0,4500.0,SCT,4500.0,,,,,,
KRDR,05-24-2017,15:56,METAR,Normal,150,11,,,9999.0,,16.2,6.3,29.77,1008.9,,,,,,,,,,,,,,,Clear,72000.0,,,,,,,,,
KRDR,05-24-2017,14:56,METAR,Normal,150,10,,,9999.0,,14.9,6.2,29.79,1009.5,,,,,,,,,,,,,,,Clear,72000.0,,,,,,,,,
KRDR,05-24-2017,13:56,METAR,Normal,140,5,,,9999.0,,13.0,6.8,29.81,1010.2,,,,,,,,,,,,,,,Clear,72000.0,,,,,,,,,
KRDR,05-24-2017,12:56,METAR,Calm,,0,,,9999.0,,10.3,7.0,29.83,1010.9,,,,,,,,,,,,,,,Clear,72000.0,,,,,,,,,
KRDR,05-24-2017,11:56,METAR,Calm,,0,,,9999.0,,5.7,5.4,29.84,1011.3,,,,,,,,,,,,,,,Clear,72000.0,,,,,,,,,
KRDR,05-24-2017,10:56,METAR,Normal,210,3,,,9999.0,,2.6,2.5,29.84,1011.4,,,,,,,,,,,,,,,Clear,72000.0,,,,,,,,,
KRDR,05-24-2017,09:56,METAR,Calm,,0,,,9999.0,,3.5,3.4,29.86,1012.1,,,,,,,,,,,,,,,Clear,72000.0,,,,,,,,,
KRDR,05-24-2017,08:56,METAR,Calm,,0,,,9999.0,,4.2,4.1,29.87,1012.4,,,,,,,,,,,,,,,Clear,72000.0,,,,,,,,,
KRDR,05-24-2017,07:56,METAR,Calm,,0,,,9999.0,,5.4,4.5,29.89,1013.0,,,,,,,,,,,,,,,Clear,72000.0,,,,,,,,,
KRDR,05-24-2017,06:56,METAR,Normal,260,3,,,9999.0,,6.4,5.2,29.90,1013.4,,,,,,,,,,,,,,,2/8 Mostly Clear,72000.0,8000.0,FEW,8000.0,,,,,,
KRDR,05-24-2017,05:56,METAR,Normal,280,3,,,9999.0,,6.8,5.3,29.91,,,,,,,,,,,,,,,,,8000.0,8000.0,BKN,8000.0,,,,,,
KRDR,05-24-2017,04:56,METAR,Normal,260,5,,,9999.0,,5.6,4.6,29.93,1014.4,,,,,,,,,,,,,,,Clear,72000.0,,,,,,,,,
KRDR,05-24-2017,03:56,METAR,Calm,,0,,,9999.0,,6.4,5.0,29.94,1014.9,,,,,,,,,,,,,,,Clear,72000.0,,,,,,,,,
KRDR,05-24-2017,02:56,METAR,Calm,,0,,,9999.0,,9.7,5.5,29.95,1015.1,,,,,,,,,,,,,,,Clear,72000.0,,,,,,,,,
KRDR,05-24-2017,01:56,METAR,Normal,140,3,,,9999.0,,13.4,5.8,29.96,1015.3,,,,,,,,,,,,,,,Clear,72000.0,,,,,,,,,
KRDR,05-24-2017,00:56,METAR,Normal,130,5,,,9999.0,,15.4,5.3,29.96,1015.3,,,,,,,,,,,,,,,Clear,72000.0,,,,,,,,,
KRDR,05-23-2017,23:56,METAR,Normal,70,8,,,9999.0,,16.8,4.5,29.96,1015.3,,,,,,,,,,,,,,,Clear,72000.0,,,,,,,,,
KRDR,05-23-2017,22:56,METAR,Normal,60,10,,,9999.0,,16.3,5.3,29.97,1015.7,,,,,,,,,,,,,,,,7000.0,7000.0,OVC,7000.0,,,,,,
KRDR,05-23-2017,21:56,METAR,Normal,50,14,,,9999.0,,16.1,5.1,29.98,1016.0,,,,,,,,,,,,,,,,7000.0,7000.0,OVC,7000.0,,,,,,
KRDR,05-23-2017,20:56,METAR,Normal,50,15,24.0,,9999.0,,16.0,4.7,29.99,1016.4,,,,,,,,,,,,,,,,6500.0,4700.0,FEW,4700.0,BKN,6500.0,,,,
KRDR,05-23-2017,19:56,METAR,Normal,60,16,22.0,,9999.0,,16.0,5.3,29.99,1016.4,,,,,,,,,,,,,,,,6500.0,6500.0,BKN,6500.0,,,,,,
KRDR,05-23-2017,18:53,METAR,Normal,50,11,,,9999.0,,15.4,6.1,30.00,1016.7,,,,,,,,,,,,,,,,6000.0,4000.0,FEW,4000.0,OVC,6000.0,,,,
KRDR,05-23-2017,17:58,METAR,Normal,30,12,,,9999.0,,14.0,6.0,30.09,,,,,,,,,,,,,,,,,4000.0,3400.0,FEW,3400.0,BKN,4000.0,BKN,5000.0,,
KRDR,05-23-2017,16:58,METAR,Normal,50,16,,,9999.0,,12.7,5.7,30.02,1017.5,,,,,,,,,,,,,,,,4000.0,3200.0,FEW,3200.0,BKN,4000.0,OVC,4900.0,,
KRDR,05-23-2017,15:58,METAR,Normal,40,13,17.0,,9999.0,,10.9,6.1,30.02,1017.5,,,,,,,,,,,,,,,,3300.0,2600.0,SCT,2600.0,OVC,3300.0,,,,
KRDR,05-23-2017,14:58,METAR,Normal,30,15,24.0,,9999.0,,10.5,6.7,30.01,1017.2,,,,,,,,,,,,,,,,2300.0,2300.0,BKN,2300.0,BKN,3000.0,OVC,3500.0,,
KRDR,05-23-2017,14:24,SPECI,Normal,20,16,,,9999.0,,10.0,7.0,30.01,1017.2,,,,,,,,,,,,,,,,2100.0,2100.0,BKN,2100.0,OVC,2900.0,,,,
KRDR,05-23-2017,14:13,SPECI,Normal,30,14,22.0,,9999.0,,10.0,7.0,30.02,1017.5,,,,,,,,,,,,,,,,3000.0,1900.0,SCT,1900.0,OVC,3000.0,,,,
KRDR,05-23-2017,13:58,METAR,Normal,30,19,,,9999.0,,9.6,6.8,30.01,1017.2,,,,,,,,,,,,,,,,2200.0,1700.0,SCT,1700.0,OVC,2900.0,,,,
KRDR,05-23-2017,13:23,SPECI,Normal,20,15,,,9999.0,,9.0,7.0,30.00,1016.8,,,,,,,,,,,,,,,,2000.0,2000.0,OVC,2000.0,,,,,,
KRDR,05-23-2017,12:58,METAR,Normal,20,12,,,9999.0,,8.7,7.2,30.00,1016.8,,,,,,,,,,,,,,,,1800.0,1800.0,OVC,1800.0,,,,,,
KRDR,05-23-2017,12:38,SPECI,Normal,20,14,,,9999.0,,9.0,7.0,29.99,1016.5,,,,,,,,,,,,,,,,1800.0,1300.0,FEW,1300.0,OVC,1900.0,,,,
KRDR,05-23-2017,12:28,SPECI,Normal,30,15,,,9999.0,,9.0,7.0,29.99,1016.5,,,,,,,,,,,,,,,,2200.0,1500.0,FEW,1500.0,OVC,2200.0,,,,
KRDR,05-23-2017,11:58,METAR,Normal,30,14,21.0,,9999.0,,8.4,7.3,29.98,1016.2,,,,,,,,,,,,,TRACE,.01 IN,,2100.0,2100.0,OVC,2100.0,,,,,,
KRDR,05-23-2017,11:21,SPECI,Normal,20,13,20.0,,9999.0,,8.0,8.0,29.97,1015.9,,,,,,,,,,,,,,,,2100.0,1100.0,FEW,1100.0,OVC,2100.0,,,,
KRDR,05-23-2017,10:58,METAR,Normal,20,13,,,9999.0,,7.9,7.6,29.96,1015.5,,,,,,,,,,,,,,,,2500.0,2500.0,OVC,2500.0,,,,,,
KRDR,05-23-2017,10:03,SPECI,Normal,30,13,,,9999.0,,8.0,8.0,29.96,1015.5,,,,,,,,,,,,,,,,2000.0,2000.0,OVC,2000.0,,,,,,
KRDR,05-23-2017,09:58,METAR,Normal,20,14,,,9999.0,,8.2,7.9,29.96,1015.5,,,,,,,,,,,,,,,,1900.0,1900.0,OVC,1900.0,,,,,,
KRDR,05-23-2017,09:03,SPECI,Normal,20,15,,,9999.0,,8.0,8.0,29.95,1015.2,,,,,,,,,,,,,,,,1900.0,1100.0,FEW,1100.0,OVC,1900.0,,,,
KRDR,05-23-2017,08:58,METAR,Normal,20,12,,,9999.0,,8.2,7.7,29.95,1015.2,,,,,,,,,,,TRACE,TRACE,,,,2000.0,1100.0,FEW,1100.0,OVC,2000.0,,,,
KRDR,05-23-2017,08:55,SPECI,Normal,20,14,,,9999.0,,8.0,8.0,29.95,1015.2,,,,,,,,,,,,,,,,1900.0,1100.0,FEW,1100.0,OVC,1900.0,,,,
KRDR,05-23-2017,08:39,SPECI,Normal,20,11,,,9999.0,,8.0,8.0,29.95,1015.2,,,,,,,,,,,,,,,,1900.0,1900.0,OVC,1900.0,,,,,,
KRDR,05-23-2017,08:25,SPECI,Normal,20,13,,,9999.0,Light Rain,8.0,8.0,29.95,1015.2,61,,,,,,,,,,,,,,,1600.0,1600.0,BKN,1600.0,OVC,2300.0,,,,
KRDR,05-23-2017,08:13,SPECI,Normal,30,14,,,9999.0,,8.0,8.0,29.95,1015.2,,,,,,,,,,,,,,,,1500.0,1500.0,BKN,1500.0,OVC,2700.0,,,,
KRDR,05-23-2017,08:03,SPECI,Normal,20,12,,,9999.0,,8.0,7.0,29.95,1015.2,,,,,,,,,,,,,,,,1300.0,1300.0,BKN,1300.0,BKN,2000.0,OVC,2600.0,,
KRDR,05-23-2017,07:58,METAR,Normal,20,13,,,9999.0,,8.4,7.5,29.95,1015.2,,,,,,,,,,,,,,,,2600.0,1300.0,SCT,1300.0,SCT,2000.0,OVC,2600.0,,
KRDR,05-23-2017,07:08,SPECI,Normal,10,12,,,9999.0,,9.0,7.0,29.95,1015.1,,,,,,,,,,,,,,,,2400.0,2400.0,BKN,2400.0,BKN,3900.0,OVC,5000.0,,
KRDR,05-23-2017,06:58,METAR,Normal,20,13,,,9999.0,,8.7,7.3,29.95,1015.1,,,,,,,,,,,,,,,,3800.0,3800.0,BKN,3800.0,OVC,5500.0,,,,
KRDR,05-23-2017,05:58,METAR,Normal,20,14,,,9999.0,,8.9,7.4,29.95,1015.1,,,,,,,,,,,,,,,,6000.0,4100.0,FEW,4100.0,BKN,6000.0,OVC,10000.0,,
KRDR,05-23-2017,04:58,METAR,Normal,10,9,,,9999.0,,9.0,8.0,29.95,1015.1,,,,,,,,,,,,,,,,3600.0,2200.0,FEW,2200.0,SCT,2900.0,OVC,3600.0,,
KRDR,05-23-2017,04:48,SPECI,Normal,10,11,,,9999.0,,9.0,8.0,29.95,1015.1,,,,,,,,,,,,,,,,2400.0,2200.0,FEW,2200.0,BKN,2800.0,OVC,3500.0,,
KRDR,05-23-2017,03:58,METAR,Normal,10,14,20.0,,9999.0,,9.2,7.9,29.93,1014.4,,,,,,,,,,,,,,,,3600.0,3600.0,BKN,3600.0,OVC,4600.0,,,,
KRDR,05-23-2017,02:58,METAR,Normal,10,12,,,9999.0,,9.5,7.9,29.93,1014.4,,,,,,,,,,,,,,,,3700.0,3700.0,OVC,3700.0,,,,,,
KRDR,05-23-2017,02:03,SPECI,Normal,10,15,22.0,,9999.0,,10.0,8.0,29.91,1013.7,,,,,,,,,,,,,,,,4100.0,2000.0,FEW,2000.0,BKN,4100.0,OVC,5500.0,,
KRDR,05-23-2017,01:58,METAR,Normal,360,13,,,9999.0,,10.0,8.0,29.91,1013.7,,,,,,,,,,,,,,,,2600.0,2000.0,FEW,2000.0,BKN,2600.0,OVC,5500.0,,
KRDR,05-23-2017,01:53,SPECI,Normal,360,13,,,9999.0,,10.0,8.0,29.91,1013.7,,,,,,,,,,,,,,,,3000.0,2100.0,SCT,2100.0,BKN,3000.0,OVC,4700.0,,
KRDR,05-23-2017,01:28,SPECI,Normal,360,12,,,9999.0,,10.0,8.0,29.91,1013.8,,,,,,,,,,,,,,,,1600.0,1600.0,SCT,1600.0,BKN,2900.0,OVC,8000.0,,
KRDR,05-23-2017,01:13,SPECI,Normal,350,10,16.0,,9999.0,,10.0,8.0,29.90,1013.4,,,,,,,,,,,,,,,,1600.0,1600.0,BKN,1600.0,BKN,2900.0,OVC,10000.0,,
KRDR,05-23-2017,00:58,METAR,Normal,360,13,,,9999.0,,10.8,7.9,29.90,1013.4,,,,,,,,,,,,,,,,4700.0,4700.0,BKN,4700.0,OVC,10000.0,,,,
KRDR,05-22-2017,23:58,METAR,Normal,10,15,20.0,,9999.0,,10.1,8.1,29.89,1013.1,,,,,,,,,,,TRACE,,.01 IN,,,5500.0,1900.0,FEW,1900.0,BKN,5500.0,OVC,8600.0,,
KRDR,05-22-2017,23:09,SPECI,Normal,10,11,,,9999.0,,10.0,10.0,29.88,1012.7,,,,,,,,,,,,,,,,3700.0,1500.0,SCT,1500.0,SCT,2900.0,BKN,3700.0,,
KRDR,05-22-2017,23:04,SPECI,Normal,10,9,,,9999.0,,10.0,9.0,29.88,1012.8,,,,,,,,,,,,,,,,1800.0,1200.0,FEW,1200.0,BKN,2900.0,OVC,6000.0,,
KRDR,05-22-2017,22:58,METAR,Normal,10,10,,,9999.0,Light Rain/Mist,9.5,8.5,29.89,1013.2,61,10,,,,,,,,,.01 IN,,,,,1800.0,1300.0,FEW,1300.0,BKN,1800.0,OVC,3100.0,,
KRDR,05-22-2017,22:48,SPECI,Normal,20,11,,,9999.0,Light Rain/Mist,10.0,8.0,29.89,1013.1,61,10,,,,,,,,,,,,,,1800.0,1200.0,FEW,1200.0,BKN,1800.0,OVC,5500.0,,
KRDR,05-22-2017,22:32,SPECI,Normal,10,13,20.0,,9999.0,Light Drizzle,11.0,7.0,29.88,1012.7,51,,,,,,,,,,,,,,,2400.0,1700.0,SCT,1700.0,BKN,2400.0,OVC,5500.0,,
KRDR,05-22-2017,22:19,SPECI,Normal,360,15,21.0,,9999.0,,11.0,8.0,29.88,1012.7,,,,,,,,,,,,,,,,3500.0,1600.0,FEW,1600.0,SCT,2200.0,BKN,3500.0,,
KRDR,05-22-2017,21:58,METAR,Normal,350,16,20.0,,9999.0,Light Rain,10.3,7.3,29.88,1012.8,61,,,,,,,,,,TRACE,,,,,3100.0,2000.0,SCT,2000.0,SCT,2600.0,OVC,3100.0,,
KRDR,05-22-2017,21:46,SPECI,Normal,350,12,19.0,,9999.0,Light Drizzle,10.0,7.0,29.88,1012.8,51,,,,,,,,,,,,,,,2400.0,1800.0,FEW,1800.0,BKN,3100.0,OVC,3900.0,,
KRDR,05-22-2017,21:45,SPECI,Normal,350,13,19.0,,9999.0,,11.0,7.0,29.88,1012.7,,,,,,,,,,,,,,,,2400.0,1800.0,FEW,1800.0,BKN,3100.0,OVC,3900.0,,
KRDR,05-22-2017,21:44,SPECI,Normal,350,14,19.0,,9999.0,Light Rain,11.0,7.0,29.88,1012.7,61,,,,,,,,,,,,,,,2400.0,2000.0,SCT,2000.0,BKN,2900.0,OVC,3900.0,,
KRDR,05-22-2017,21:39,SPECI,Normal,340,10,,,9999.0,Light Rain,11.0,8.0,29.88,1012.7,61,,,,,,,,,,,,,,,3000.0,1900.0,SCT,1900.0,OVC,3000.0,,,,
KRDR,05-22-2017,21:29,SPECI,Normal,360,10,,,9999.0,Light Rain,11.0,8.0,29.88,1012.7,61,,,,,,,,,,,,,,,2900.0,1700.0,FEW,1700.0,BKN,2900.0,OVC,4000.0,,
KRDR,05-22-2017,21:24,SPECI,Normal,360,11,,,9999.0,Light Rain,11.0,7.0,29.88,1012.7,61,,,,,,,,,,,,,,,3000.0,2400.0,SCT,2400.0,BKN,3000.0,OVC,3900.0,,
KRDR,05-22-2017,21:09,SPECI,Normal,10,11,,,9999.0,Light Drizzle,11.0,7.0,29.88,1012.7,51,,,,,,,,,,,,,,,2700.0,2300.0,SCT,2300.0,BKN,2900.0,OVC,3900.0,,
KRDR,05-22-2017,21:06,SPECI,Normal,360,12,,,9999.0,,10.0,7.0,29.88,1012.8,,,,,,,,,,,,,,,,2700.0,2400.0,SCT,2400.0,BKN,2900.0,OVC,3900.0,,
KRDR,05-22-2017,21:03,SPECI,Normal,10,13,,,9999.0,Light Rain,10.0,7.0,29.89,1013.2,61,,,,,,,,,,,,,,,2900.0,2300.0,SCT,2300.0,BKN,2900.0,OVC,3900.0,,
KRDR,05-22-2017,20:58,METAR,Normal,360,14,,,9999.0,Light Rain,10.1,6.7,29.89,1013.2,61,,,,,,,,,,TRACE,TRACE,,,,3000.0,2300.0,SCT,2300.0,BKN,3000.0,OVC,3800.0,,
KRDR,05-22-2017,20:55,SPECI,Normal,10,14,,,9999.0,Light Rain,10.0,7.0,29.89,1013.2,61,,,,,,,,,,,,,,,3100.0,2300.0,SCT,2300.0,BKN,3100.0,OVC,3800.0,,
KRDR,05-22-2017,20:40,SPECI,Normal,10,17,22.0,,9999.0,Light Rain,10.0,6.0,29.89,1013.2,61,,,,,,,,,,,,,,,2300.0,2300.0,BKN,2300.0,BKN,3400.0,,,,
KRDR,05-22-2017,20:33,SPECI,Normal,360,14,22.0,,9999.0,,10.0,7.0,29.88,1012.8,,,,,,,,,,,,,,,,2500.0,2000.0,SCT,2000.0,BKN,2500.0,OVC,3900.0,,
KRDR,05-22-2017,20:23,SPECI,Normal,10,14,,,9999.0,,10.0,8.0,29.89,1013.2,,,,,,,,,,,,,,,,3100.0,1800.0,FEW,1800.0,BKN,3100.0,OVC,3900.0,,
KRDR,05-22-2017,20:08,SPECI,Normal,360,10,20.0,,9999.0,Light Rain,10.0,8.0,29.89,1013.2,61,,,,,,,,,,,,,,,3100.0,1900.0,FEW,1900.0,BKN,3100.0,OVC,3900.0,,
KRDR,05-22-2017,20:03,SPECI,Normal,10,15,20.0,,9999.0,Light Rain,10.0,7.0,29.88,1012.8,61,,,,,,,,,,,,,,,2300.0,2200.0,SCT,2200.0,BKN,2900.0,OVC,3700.0,,
KRDR,05-22-2017,19:58,METAR,Normal,10,14,,,9999.0,Light Drizzle,9.7,6.4,29.88,1012.8,51,,,,,,,,,,TRACE,,,,,3200.0,2300.0,SCT,2300.0,OVC,3200.0,,,,
KRDR,05-22-2017,19:55,SPECI,Normal,360,14,,,9999.0,Light Drizzle,10.0,6.0,29.88,1012.8,51,,,,,,,,,,,,,,,2300.0,2300.0,BKN,2300.0,OVC,3200.0,,,,
KRDR,05-22-2017,19:31,SPECI,Normal,10,10,,,9999.0,,11.0,7.0,29.88,1012.7,,,,,,,,,,,,,,,,2800.0,2300.0,SCT,2300.0,BKN,2800.0,OVC,4700.0,,
KRDR,05-22-2017,19:06,SPECI,Normal,20,11,,,9999.0,,10.0,6.0,29.87,1012.5,,,,,,,,,,,,,,,,4400.0,2800.0,FEW,2800.0,BKN,4400.0,OVC,5500.0,,
KRDR,05-22-2017,18:59,SPECI,Normal,20,7,,,9999.0,Light Drizzle,10.0,6.0,29.87,1012.5,51,,,,,,,,,,,,,,,3700.0,2400.0,SCT,2400.0,BKN,3700.0,OVC,4400.0,,
KRDR,05-22-2017,18:58,METAR,Normal,20,8,,,9999.0,,10.4,5.9,29.87,1012.5,,,,,,,,,,,,,,,,3500.0,2400.0,SCT,2400.0,BKN,3500.0,OVC,4400.0,,
KRDR,05-22-2017,18:33,SPECI,Normal,20,13,21.0,,9999.0,,11.0,6.0,29.87,1012.5,,,,,,,,,,,,,,,,2500.0,2500.0,BKN,2500.0,BKN,3400.0,OVC,5500.0,,
KRDR,05-22-2017,18:28,SPECI,Normal,20,13,,,9999.0,,11.0,6.0,29.87,1012.5,,,,,,,,,,,,,,,,3100.0,2600.0,FEW,2600.0,BKN,3100.0,OVC,5000.0,,
KRDR,05-22-2017,17:58,METAR,Normal,10,17,22.0,,9999.0,,11.7,5.8,29.86,1012.1,,,,,,,,,,,,,.01 IN,,,2700.0,3000.0,FEW,3000.0,BKN,3600.0,BKN,4700.0,,
KRDR,05-22-2017,17:38,SPECI,Normal,350,17,22.0,,9999.0,,11.0,6.0,29.86,1012.1,,,,,,,,,,,,,,,,3000.0,3000.0,BKN,3000.0,BKN,3700.0,OVC,7500.0,,
KRDR,05-22-2017,17:28,SPECI,Normal,350,15,22.0,,9999.0,,12.0,6.0,29.86,1012.1,,,,,,,,,,,,,,,,2900.0,2900.0,BKN,2900.0,BKN,3900.0,OVC,7500.0,,
KRDR,05-22-2017,17:13,SPECI,Normal,350,19,,,9999.0,,12.0,6.0,29.85,1011.7,,,,,,,,,,,,,,,,3400.0,2700.0,SCT,2700.0,BKN,3400.0,OVC,7500.0,,
KRDR,05-22-2017,16:58,METAR,Normal,360,12,20.0,,9999.0,,11.5,5.7,29.86,1012.1,,,,,,,,,,,TRACE,,,,,2800.0,2800.0,BKN,2800.0,BKN,3600.0,OVC,4400.0,,
KRDR,05-22-2017,16:56,SPECI,Normal,360,11,20.0,,9999.0,,11.0,6.0,29.86,1012.1,,,,,,,,,,,,,,,,2800.0,2800.0,BKN,2800.0,BKN,3600.0,OVC,4400.0,,
KRDR,05-22-2017,16:51,SPECI,Normal,360,14,20.0,,9999.0,,12.0,6.0,29.86,1012.1,,,,,,,,,,,,,,,,3000.0,3000.0,BKN,3000.0,BKN,3600.0,OVC,4400.0,,
KRDR,05-22-2017,16:46,SPECI,Normal,360,15,20.0,,9999.0,,12.0,6.0,29.86,1012.1,,,,,,,,,,,,,,,,2900.0,2900.0,BKN,2900.0,BKN,3700.0,OVC,4700.0,,
KRDR,05-22-2017,16:21,SPECI,Normal,350,17,21.0,,9999.0,,12.0,6.0,29.85,1011.7,,,,,,,,,,,,,,,,4500.0,3400.0,SCT,3400.0,BKN,4500.0,,,,
KRDR,05-22-2017,16:13,SPECI,Normal,350,15,21.0,,9999.0,Light Rain,11.0,6.0,29.86,1012.1,61,,,,,,,,,,,,,,,4400.0,2900.0,FEW,2900.0,SCT,3500.0,OVC,4400.0,,
KRDR,05-22-2017,15:58,METAR,Normal,340,12,,,9999.0,,11.4,5.7,29.85,1011.8,,,,,,,,,,,,,,,,3700.0,2800.0,SCT,2800.0,BKN,3700.0,OVC,5500.0,,
KRDR,05-22-2017,15:13,SPECI,Normal,360,15,,,9999.0,,11.0,6.0,29.85,1011.8,,,,,,,,,,,,,,,,3900.0,3000.0,SCT,3000.0,BKN,3900.0,,,,
KRDR,05-22-2017,14:58,METAR,Normal,350,18,23.0,,9999.0,,12.6,6.7,29.85,1011.7,,,,,,,,,,,,TRACE,,,,2700.0,2700.0,BKN,2700.0,,,,,,
KRDR,05-22-2017,13:58,METAR,Normal,350,14,,,9999.0,,11.2,7.1,29.85,1011.7,,,,,,,,,,,TRACE,,,,,9000.0,9000.0,BKN,9100.0,,,,,,
KRDR,05-22-2017,12:59,SPECI,Normal,340,11,,,9999.0,,9.0,6.0,29.84,1011.4,,,,,,,,,,,,,,,4/8 Partly Cloudy,72000.0,7000.0,SCT,7000.0,,,,,,
KRDR,05-22-2017,12:58,METAR,Normal,340,11,,,9999.0,Light Drizzle,9.4,6.1,29.84,1011.4,51,,,,,,,,,,TRACE,,,,4/8 Partly Cloudy,72000.0,7000.0,SCT,7000.0,SCT,9100.0,,,,
KRDR,05-22-2017,12:47,SPECI,Normal,340,12,,,9999.0,Light Drizzle,9.0,6.0,29.84,1011.4,51,,,,,,,,,,,,,,4/8 Partly Cloudy,72000.0,8000.0,SCT,8000.0,,,,,,
KRDR,05-22-2017,11:58,METAR,Normal,330,11,,,9999.0,,9.0,5.6,29.84,,,,,,,,,,,,,,.01 IN,.12 IN,,6500.0,7000.0,SCT,7000.0,SCT,12000.0,,,,
KRDR,05-22-2017,10:58,METAR,Normal,310,8,,,9999.0,,8.5,5.6,29.84,1011.4,,,,,,,,,,,,,,,Clear,72000.0,,,,,,,,,
KRDR,05-22-2017,09:58,METAR,Normal,320,7,,,9999.0,,7.9,5.6,29.85,1011.7,,,,,,,,,,,TRACE,,,,,4600.0,4600.0,SCT,4600.0,BKN,9100.0,,,,
KRDR,05-22-2017,09:43,SPECI,Normal,310,7,,,9999.0,,8.0,6.0,29.85,1011.7,,,,,,,,,,,,,,,,4400.0,4400.0,BKN,4400.0,BKN,5000.0,,,,
KRDR,05-22-2017,09:26,SPECI,Normal,310,6,,,9999.0,Unknown Precipitation,8.0,6.0,29.85,1011.7,40,,,,,,,,,,,,,,4/8 Partly Cloudy,72000.0,4400.0,SCT,4400.0,,,,,,
KRDR,05-22-2017,08:58,METAR,Normal,320,7,,,9999.0,,7.9,6.2,29.85,1011.7,,,,,,,,,,,.01 IN,.01 IN,,,,11000.0,8000.0,SCT,8000.0,BKN,11000.0,,,,
KRDR,05-22-2017,08:40,SPECI,Normal,320,9,,,9999.0,,8.0,6.0,29.85,1011.7,,,,,,,,,,,,,,,2/8 Mostly Clear,72000.0,6000.0,FEW,6000.0,,,,,,
KRDR,05-22-2017,08:29,SPECI,Normal,320,7,,,9999.0,Light Drizzle,8.0,6.0,29.85,1011.8,51,,,,,,,,,,,,,,4/8 Partly Cloudy,72000.0,6500.0,SCT,6500.0,,,,,,
KRDR,05-22-2017,08:26,SPECI,Normal,320,8,,,9999.0,,8.0,6.0,29.85,1011.8,,,,,,,,,,,,,,,,6500.0,6500.0,BKN,6500.0,,,,,,
KRDR,05-22-2017,08:16,SPECI,Normal,320,8,,,9999.0,Light Drizzle,8.0,6.0,29.85,1011.8,51,,,,,,,,,,,,,,,4300.0,4100.0,FEW,4100.0,OVC,6500.0,,,,
KRDR,05-22-2017,08:14,SPECI,Normal,320,9,,,9999.0,,8.0,6.0,29.85,1011.8,,,,,,,,,,,,,,,,7000.0,4100.0,SCT,4100.0,OVC,7000.0,,,,
KRDR,05-22-2017,07:58,METAR,Normal,310,8,,,9999.0,Light Drizzle,7.8,6.5,29.86,1012.1,51,,,,,,,,,,TRACE,,,,,4300.0,3200.0,FEW,3200.0,OVC,4300.0,,,,
KRDR,05-22-2017,07:27,SPECI,Normal,300,7,,,9999.0,Light Drizzle,8.0,6.0,29.86,1012.1,51,,,,,,,,,,,,,,,6000.0,4400.0,FEW,4400.0,BKN,6000.0,,,,
KRDR,05-22-2017,07:19,SPECI,Normal,300,7,,,9999.0,,8.0,6.0,29.87,1012.5,,,,,,,,,,,,,,,,5500.0,4400.0,FEW,4400.0,BKN,5500.0,,,,
KRDR,05-22-2017,06:58,METAR,Normal,300,7,,,9999.0,Unknown Precipitation,7.4,6.0,29.87,1012.5,40,,,,,,,,,,TRACE,,,,,4300.0,4300.0,SCT,4300.0,BKN,5500.0,,,,
KRDR,05-22-2017,06:48,SPECI,Normal,310,7,,,9999.0,Unknown Precipitation,7.0,6.0,29.88,1012.9,40,,,,,,,,,,,,,,,5500.0,4100.0,FEW,4100.0,BKN,5500.0,,,,
KRDR,05-22-2017,06:45,SPECI,Normal,310,7,,,9999.0,,7.0,6.0,29.88,1012.9,,,,,,,,,,,,,,,,5500.0,4100.0,FEW,4100.0,OVC,5500.0,,,,
KRDR,05-22-2017,06:30,SPECI,Normal,300,9,,,9999.0,Unknown Precipitation,7.0,6.0,29.88,1012.9,40,,,,,,,,,,,,,,,5000.0,3700.0,SCT,3700.0,BKN,5000.0,OVC,10000.0,,
KRDR,05-22-2017,05:58,METAR,Normal,300,6,,,9999.0,,6.8,5.8,29.88,1012.9,,,,,,,,,,,,,TRACE,,,3600.0,2400.0,FEW,2400.0,BKN,3600.0,,,,
KRDR,05-22-2017,05:38,SPECI,Normal,310,6,,,9999.0,,7.0,6.0,29.88,1012.9,,,,,,,,,,,,,,,,3700.0,2100.0,SCT,2100.0,BKN,3700.0,,,,
KRDR,05-22-2017,05:03,SPECI,Normal,310,6,,,9999.0,,7.0,6.0,29.88,1012.9,,,,,,,,,,,,,,,,2900.0,2300.0,SCT,2300.0,BKN,2900.0,,,,
KRDR,05-22-2017,04:58,METAR,Normal,320,5,,,9999.0,,7.0,6.0,29.88,1012.9,,,,,,,,,,,,,,,4/8 Partly Cloudy,72000.0,2400.0,FEW,2400.0,SCT,2900.0,SCT,11000.0,,
KRDR,05-22-2017,03:58,METAR,Normal,330,7,,,9999.0,,7.3,5.9,29.89,1013.3,,,,,,,,,,,,,,,4/8 Partly Cloudy,72000.0,2300.0,SCT,2300.0,,,,,,
KRDR,05-22-2017,02:58,METAR,Normal,340,7,,,9999.0,,7.5,6.3,29.88,1013.0,,,,,,,,,,,,TRACE,,,2/8 Mostly Clear,72000.0,6000.0,FEW,6000.0,,,,,,
KRDR,05-22-2017,00:58,METAR,Normal,350,12,,,9999.0,,9.5,7.4,29.88,1012.9,,,,,,,,,,,TRACE,,,,4/8 Partly Cloudy,72000.0,4300.0,FEW,4300.0,SCT,12000.0,,,,
KRDR,05-22-2017,00:06,SPECI,Normal,350,11,,,9999.0,,9.0,8.0,29.89,1013.3,,,,,,,,,,,,,,,,8500.0,2600.0,FEW,2600.0,SCT,4000.0,BKN,8600.0,,
KRDR,05-21-2017,23:58,METAR,Normal,360,10,,350/31KTS,8000.0,Light Rain/Mist,8.5,7.7,29.89,1013.3,61,10,,,,,,,,,.04 IN,,.07 IN,,,4100.0,2800.0,FEW,2800.0,BKN,4100.0,,,,
KRDR,05-21-2017,23:48,SPECI,Normal,10,10,26.0,,4800.0,Light Rain/Mist,9.0,7.0,29.89,1013.3,61,10,,,,,,,,,,,,,,2900.0,2900.0,SCT,2900.0,OVC,3900.0,,,,
KRDR,05-21-2017,21:58,METAR,Normal,10,11,,,9999.0,Light Drizzle,11.2,6.6,29.89,1013.2,51,,,,,,,,,,TRACE,,,,,2800.0,2200.0,SCT,2200.0,BKN,2900.0,BKN,8000.0,,
KRDR,05-21-2017,21:30,SPECI,Normal,340,14,,,9999.0,Light Rain,11.0,6.0,29.90,1013.6,61,,,,,,,,,,,,,,,2700.0,2200.0,SCT,2200.0,BKN,2800.0,BKN,3500.0,,
KRDR,05-21-2017,21:25,SPECI,Normal,350,14,20.0,,9999.0,Light Drizzle,11.0,6.0,29.90,1013.6,51,,,,,,,,,,,,,,,3300.0,2200.0,FEW,2200.0,BKN,3300.0,OVC,12000.0,,
KRDR,05-21-2017,21:18,SPECI,Normal,350,14,,,9999.0,,11.0,6.0,29.90,1013.6,,,,,,,,,,,,,,,,2200.0,2200.0,SCT,2200.0,BKN,2700.0,BKN,3200.0,,
KRDR,05-21-2017,21:13,SPECI,Normal,350,12,,,9999.0,,11.0,6.0,29.90,1013.6,,,,,,,,,,,,,,,,3200.0,2200.0,SCT,2200.0,SCT,2700.0,BKN,3200.0,,
KRDR,05-21-2017,21:08,SPECI,Normal,340,13,,,9999.0,,11.0,6.0,29.90,1013.6,,,,,,,,,,,,,,,,2200.0,2300.0,BKN,2300.0,BKN,3200.0,,,,
KRDR,05-21-2017,20:58,METAR,Normal,350,12,,,9999.0,,10.8,6.6,29.90,1013.6,,,,,,,,,,,,.03 IN,,,,4500.0,2200.0,SCT,2200.0,SCT,3400.0,BKN,4500.0,,
KRDR,05-21-2017,20:28,SPECI,Normal,360,15,,,9999.0,,10.0,6.0,29.91,1014.0,,,,,,,,,,,,,,,,2500.0,2100.0,SCT,2100.0,BKN,3000.0,OVC,3700.0,,
KRDR,05-21-2017,20:13,SPECI,Normal,350,15,18.0,,9999.0,,10.0,6.0,29.90,1013.6,,,,,,,,,,,,,,,,2000.0,2000.0,BKN,2000.0,BKN,3100.0,OVC,4000.0,,
KRDR,05-21-2017,20:03,SPECI,Normal,350,14,21.0,,9999.0,,10.0,7.0,29.90,1013.6,,,,,,,,,,,,,,,,1900.0,1900.0,BKN,1900.0,BKN,2400.0,OVC,2900.0,,
KRDR,05-21-2017,19:58,METAR,Normal,350,17,21.0,,9999.0,,9.7,6.9,29.90,1013.6,,,,,,,,,,,TRACE,,,,,1800.0,1800.0,BKN,1800.0,BKN,2500.0,OVC,3200.0,,
KRDR,05-21-2017,19:42,SPECI,Normal,360,12,,,9999.0,,10.0,7.0,29.91,1013.9,,,,,,,,,,,,,,,,1500.0,1700.0,BKN,1700.0,OVC,2200.0,,,,
KRDR,05-21-2017,19:37,SPECI,Normal,10,11,,,9999.0,,10.0,8.0,29.91,1013.9,,,,,,,,,,,,,,,,1500.0,1500.0,SCT,1500.0,BKN,2100.0,,,,
KRDR,05-21-2017,19:18,SPECI,Normal,360,13,20.0,,9999.0,Light Rain,9.0,7.0,29.91,1014.0,61,,,,,,,,,,,,,,,1700.0,1700.0,BKN,1700.0,BKN,2400.0,OVC,2900.0,,
KRDR,05-21-2017,18:58,METAR,Normal,360,14,21.0,,9999.0,Light Rain,8.7,7.1,29.91,1014.0,61,,,,,,,,,,.03 IN,,,,,2600.0,1200.0,FEW,1200.0,BKN,2600.0,OVC,3500.0,,
KRDR,05-21-2017,18:43,SPECI,Normal,360,14,23.0,,9999.0,Light Drizzle,8.0,7.0,29.92,1014.3,51,,,,,,,,,,,,,,,1100.0,1200.0,SCT,1200.0,BKN,2200.0,OVC,3600.0,,
KRDR,05-21-2017,18:38,SPECI,Normal,350,18,23.0,,9999.0,Light Rain,8.0,8.0,29.92,1014.3,61,,,,,,,,,,,,,,,1100.0,1100.0,BKN,1100.0,OVC,2100.0,,,,
KRDR,05-21-2017,18:33,SPECI,Normal,350,13,,,9999.0,Light Rain,8.0,7.0,29.92,1014.3,61,,,,,,,,,,,,,,,1400.0,1100.0,SCT,1100.0,BKN,1700.0,OVC,2200.0,,
KRDR,05-21-2017,18:28,SPECI,Normal,350,9,,,8000.0,Light Rain/Mist,8.0,7.0,29.92,1014.3,61,10,,,,,,,,,,,,,,1600.0,1100.0,FEW,1100.0,BKN,1600.0,OVC,2200.0,,
KRDR,05-21-2017,18:19,SPECI,Normal,360,12,,,9999.0,Light Rain,8.0,7.0,29.92,1014.3,61,,,,,,,,,,,,,,,1300.0,1200.0,SCT,1200.0,SCT,1800.0,BKN,2400.0,,
KRDR,05-21-2017,18:09,SPECI,Normal,360,12,,,9999.0,Light Drizzle,9.0,7.0,29.92,1014.3,51,,,,,,,,,,,,,,,1200.0,1100.0,FEW,1100.0,SCT,1600.0,BKN,2400.0,,
KRDR,05-21-2017,18:05,SPECI,Normal,340,12,,,9999.0,Light Drizzle,9.0,7.0,29.92,1014.3,51,,,,,,,,,,,,,,,1200.0,1200.0,SCT,1200.0,SCT,1900.0,BKN,2700.0,,
KRDR,05-21-2017,18:04,SPECI,Normal,340,12,,,9999.0,,9.0,7.0,29.92,1014.3,,,,,,,,,,,,,,,,1200.0,1200.0,SCT,1200.0,SCT,1900.0,BKN,2700.0,,
KRDR,05-21-2017,17:59,SPECI,Normal,330,11,,,9999.0,,9.0,7.0,29.92,1014.3,,,,,,,,,,,,,,,,1200.0,1100.0,FEW,1100.0,SCT,1900.0,BKN,3400.0,,
KRDR,05-21-2017,17:58,METAR,Normal,340,11,,,9999.0,Light Drizzle,8.2,7.5,29.92,1014.3,51,,,,,,,,,,.01 IN,,.04 IN,,,3400.0,1100.0,FEW,1100.0,SCT,2600.0,BKN,3400.0,,
KRDR,05-21-2017,17:48,SPECI,Normal,340,11,,,9999.0,Light Rain,8.0,7.0,29.92,1014.3,61,,,,,,,,,,,,,,,2100.0,1000.0,FEW,1000.0,BKN,2700.0,OVC,3300.0,,
KRDR,05-21-2017,17:47,SPECI,Normal,340,11,,,9999.0,Light Rain,8.0,7.0,29.92,1014.3,61,,,,,,,,,,,,,,,2100.0,1200.0,SCT,1200.0,BKN,2700.0,OVC,3300.0,,
KRDR,05-21-2017,17:42,SPECI,Normal,350,10,,,9999.0,Light Rain,7.0,7.0,29.92,1014.4,61,,,,,,,,,,,,,,,3000.0,1000.0,FEW,1000.0,SCT,1300.0,OVC,3000.0,,
KRDR,05-21-2017,17:35,SPECI,Normal,360,11,,,9999.0,Light Rain,8.0,6.0,29.92,1014.3,61,,,,,,,,,,,,,,,2500.0,1300.0,FEW,1300.0,BKN,2500.0,OVC,3100.0,,
KRDR,05-21-2017,17:30,SPECI,Normal,350,11,,,9999.0,Light Drizzle,8.0,7.0,29.93,1014.7,51,,,,,,,,,,,,,,,3000.0,1300.0,FEW,1300.0,SCT,2500.0,OVC,3000.0,,
KRDR,05-21-2017,17:10,SPECI,Normal,360,10,,,9999.0,Light Rain,7.0,6.0,29.93,1014.7,61,,,,,,,,,,,,,,,1000.0,1000.0,FEW,1000.0,BKN,2300.0,OVC,3100.0,,
KRDR,05-21-2017,17:05,SPECI,Normal,360,11,,,9999.0,Light Rain,7.0,6.0,29.93,1014.7,61,,,,,,,,,,,,,,,1000.0,1100.0,BKN,1100.0,BKN,2400.0,OVC,3100.0,,
KRDR,05-21-2017,17:04,SPECI,Normal,360,11,,,9999.0,Light Rain,7.0,6.0,29.93,1014.7,61,,,,,,,,,,,,,,,1000.0,1200.0,BKN,1200.0,BKN,2200.0,OVC,3100.0,,
KRDR,05-21-2017,16:59,SPECI,Normal,10,11,,,9999.0,Light Rain,7.0,6.0,29.93,1014.7,61,,,,,,,,,,,,,,,1200.0,1000.0,SCT,1000.0,BKN,1600.0,OVC,2800.0,,
KRDR,05-21-2017,16:58,METAR,Normal,10,10,,,9999.0,Light Rain,7.4,5.9,29.93,1014.7,61,,,,,,,,,,TRACE,,,,,1200.0,1200.0,BKN,1200.0,BKN,2200.0,OVC,2800.0,,
KRDR,05-21-2017,16:53,SPECI,Normal,10,12,,,9999.0,Light Rain,7.0,6.0,29.93,1014.7,61,,,,,,,,,,,,,,,1300.0,1200.0,SCT,1200.0,BKN,1700.0,OVC,2800.0,,
KRDR,05-21-2017,16:48,SPECI,Normal,360,10,,,9999.0,Light Rain,8.0,6.0,29.92,1014.3,61,,,,,,,,,,,,,,,1300.0,1300.0,BKN,1300.0,BKN,2300.0,OVC,3400.0,,
KRDR,05-21-2017,16:43,SPECI,Normal,10,10,,,9999.0,Light Drizzle,8.0,6.0,29.93,1014.7,51,,,,,,,,,,,,,,,1200.0,1300.0,SCT,1300.0,BKN,1900.0,OVC,3100.0,,
KRDR,05-21-2017,16:33,SPECI,Normal,20,10,,,9999.0,Unknown Precipitation,7.0,5.0,29.93,1014.7,40,,,,,,,,,,,,,,,1300.0,1300.0,BKN,1300.0,OVC,2000.0,,,,
KRDR,05-21-2017,16:23,SPECI,Normal,10,9,,,9999.0,,7.0,5.0,29.93,1014.7,,,,,,,,,,,,,,,,1400.0,1400.0,OVC,1400.0,,,,,,
KRDR,05-21-2017,16:18,SPECI,Normal,360,10,,,9999.0,,7.0,6.0,29.93,1014.7,,,,,,,,,,,,,,,,1500.0,1500.0,OVC,1500.0,,,,,,
KRDR,05-21-2017,16:13,SPECI,Normal,20,10,,,9999.0,,7.0,5.0,29.93,1014.7,,,,,,,,,,,,,,,,1400.0,1400.0,OVC,1400.0,,,,,,
KRDR,05-21-2017,16:03,SPECI,Normal,30,13,,,9999.0,,6.0,5.0,29.93,1014.7,,,,,,,,,,,,,,,,1600.0,1600.0,OVC,1600.0,,,,,,
KRDR,05-21-2017,15:58,METAR,Normal,20,13,,,9999.0,,6.1,4.8,29.93,1014.7,,,,,,,,,,,TRACE,,,,,1400.0,1400.0,OVC,1400.0,,,,,,
KRDR,05-21-2017,15:33,SPECI,Normal,10,10,,,9999.0,,6.0,5.0,29.93,1014.7,,,,,,,,,,,,,,,,1300.0,1300.0,OVC,1300.0,,,,,,
KRDR,05-21-2017,15:26,SPECI,Normal,20,14,,,9999.0,Unknown Precipitation,6.0,5.0,29.93,1014.7,40,,,,,,,,,,,,,,,1200.0,1200.0,BKN,1200.0,OVC,1900.0,,,,
KRDR,05-21-2017,14:58,METAR,Normal,20,12,,,9999.0,,5.0,5.0,29.93,1014.7,,,,,,,,,,,TRACE,.03 IN,,,,1200.0,1200.0,BKN,1200.0,OVC,1800.0,,,,
KRDR,05-21-2017,14:56,SPECI,Normal,20,13,,,9999.0,,5.0,5.0,29.93,1014.7,,,,,,,,,,,,,,,,1200.0,1200.0,BKN,1200.0,OVC,1800.0,,,,
KRDR,05-21-2017,14:51,SPECI,Normal,20,11,18.0,,9999.0,,5.0,5.0,29.93,1014.7,,,,,,,,,,,,,,,,1100.0,1100.0,OVC,1100.0,,,,,,
KRDR,05-21-2017,14:43,SPECI,Normal,10,13,,,9999.0,Light Drizzle,5.0,5.0,29.93,1014.7,51,,,,,,,,,,,,,,,1100.0,1100.0,BKN,1100.0,OVC,1700.0,,,,
KRDR,05-21-2017,14:42,SPECI,Normal,10,13,,,9999.0,,5.0,5.0,29.93,1014.7,,,,,,,,,,,,,,,,1100.0,1100.0,BKN,1100.0,OVC,1700.0,,,,
KRDR,05-21-2017,14:39,SPECI,Normal,20,13,,,9999.0,,5.0,5.0,29.92,1014.4,,,,,,,,,,,,,,,,1200.0,1200.0,BKN,1200.0,OVC,1700.0,,,,
KRDR,05-21-2017,14:34,SPECI,Normal,20,11,,,9999.0,Light Rain,5.0,5.0,29.93,1014.7,61,,,,,,,,,,,,,,,1200.0,1200.0,BKN,1200.0,OVC,1700.0,,,,
KRDR,05-21-2017,14:24,SPECI,Normal,20,11,,,9999.0,Light Rain,5.0,5.0,29.92,1014.4,61,,,,,,,,,,,,,,,1100.0,1100.0,OVC,1100.0,,,,,,
KRDR,05-21-2017,14:13,SPECI,Normal,20,13,20.0,,9999.0,Light Rain,5.0,5.0,29.92,1014.4,61,,,,,,,,,,,,,,,1300.0,1300.0,OVC,1300.0,,,,,,
KRDR,05-21-2017,13:58,METAR,Normal,20,12,19.0,,9999.0,Light Rain,5.0,4.9,29.93,1014.7,61,,,,,,,,,,.01 IN,,,,,1000.0,1000.0,BKN,1000.0,OVC,1500.0,,,,
KRDR,05-21-2017,13:48,SPECI,Normal,20,12,,,9999.0,Light Drizzle,5.0,5.0,29.92,1014.4,51,,,,,,,,,,,,,,,900.0,900.0,BKN,900.0,OVC,1600.0,,,,
KRDR,05-21-2017,13:13,SPECI,Normal,30,14,22.0,,9999.0,Light Rain,4.0,4.0,29.93,1014.7,61,,,,,,,,,,,,,,,1000.0,1000.0,BKN,1000.0,OVC,1500.0,,,,
KRDR,05-21-2017,13:03,SPECI,Normal,10,14,,,9999.0,Light Rain,4.0,4.0,29.93,1014.7,61,,,,,,,,,,,,,,,800.0,900.0,BKN,900.0,OVC,1300.0,,,,
KRDR,05-21-2017,12:58,METAR,Normal,20,11,17.0,,9999.0,Light Rain,4.3,4.2,29.93,1014.7,61,,,,,,,,,,.02 IN,,,,,700.0,800.0,BKN,800.0,OVC,1300.0,,,,
KRDR,05-21-2017,12:42,SPECI,Normal,10,11,,,9999.0,Light Rain,4.0,4.0,29.93,1014.7,61,,,,,,,,,,,,,,,700.0,700.0,BKN,700.0,OVC,1300.0,,,,
KRDR,05-21-2017,12:27,SPECI,Normal,10,15,20.0,,9999.0,Light Rain,4.0,4.0,29.93,1014.7,61,,,,,,,,,,,,,,,700.0,700.0,OVC,700.0,,,,,,
KRDR,05-21-2017,12:17,SPECI,Normal,10,10,,,9999.0,Light Rain,4.0,4.0,29.93,1014.7,61,,,,,,,,,,,,,,,700.0,900.0,BKN,900.0,OVC,1700.0,,,,
KRDR,05-21-2017,12:12,SPECI,Normal,10,9,,,9999.0,Light Rain,4.0,4.0,29.93,1014.7,61,,,,,,,,,,,,,,,1200.0,700.0,SCT,700.0,BKN,1200.0,OVC,1900.0,,
KRDR,05-21-2017,12:07,SPECI,Normal,10,10,,,9999.0,Light Rain,4.0,4.0,29.93,1014.7,61,,,,,,,,,,,,,,,1700.0,700.0,SCT,700.0,OVC,1700.0,,,,
KRDR,05-21-2017,12:02,SPECI,Normal,10,9,,,9999.0,Unknown Precipitation,4.0,4.0,29.93,1014.7,40,,,,,,,,,,,,,,,1700.0,700.0,FEW,700.0,OVC,1700.0,,,,
KRDR,05-21-2017,12:01,SPECI,Normal,10,9,,,9999.0,Unknown Precipitation,4.0,4.0,29.93,1014.7,40,,,,,,,,,,,,,,,1500.0,1700.0,OVC,1700.0,,,,,,
KRDR,05-21-2017,11:58,METAR,Normal,10,10,,,9999.0,,3.8,3.6,29.93,1014.7,,,,,,,,,,,.01 IN,,.35 IN,.7 IN,,1700.0,1700.0,OVC,1700.0,,,,,,
KRDR,05-21-2017,11:34,SPECI,Normal,30,8,,,9999.0,,4.0,4.0,29.94,1015.1,,,,,,,,,,,,,,,,1000.0,1500.0,OVC,1500.0,,,,,,
KRDR,05-21-2017,11:29,SPECI,Normal,30,11,,,9999.0,,4.0,4.0,29.94,1015.1,,,,,,,,,,,,,,,,900.0,1300.0,BKN,1300.0,OVC,1800.0,,,,
KRDR,05-21-2017,11:28,SPECI,Normal,30,9,,,9999.0,Light Drizzle,4.0,4.0,29.94,1015.1,51,,,,,,,,,,,,,,,900.0,1300.0,BKN,1300.0,OVC,1800.0,,,,
KRDR,05-21-2017,11:23,SPECI,Normal,30,11,,,9999.0,Light Drizzle,4.0,4.0,29.94,1015.1,51,,,,,,,,,,,,,,,900.0,900.0,BKN,900.0,OVC,1500.0,,,,
KRDR,05-21-2017,11:18,SPECI,Normal,30,10,,,9999.0,Light Drizzle,4.0,4.0,29.94,1015.1,51,,,,,,,,,,,,,,,900.0,900.0,SCT,900.0,OVC,1500.0,,,,
KRDR,05-21-2017,10:58,METAR,Normal,40,10,,,9999.0,Light Rain,3.9,3.7,29.94,1015.0,61,,,,,,,,,,.04 IN,,,,,900.0,900.0,BKN,900.0,OVC,1700.0,,,,
KRDR,05-21-2017,10:28,SPECI,Normal,40,8,,,9999.0,Light Rain,4.0,4.0,29.94,1014.9,61,,,,,,,,,,,,,,,800.0,800.0,OVC,800.0,,,,,,
KRDR,05-21-2017,10:18,SPECI,Normal,50,10,,,9999.0,Light Rain,4.0,4.0,29.94,1014.9,61,,,,,,,,,,,,,,,800.0,900.0,BKN,900.0,BKN,1400.0,OVC,2100.0,,
KRDR,05-21-2017,10:03,SPECI,Normal,40,8,,,9999.0,Light Rain,4.0,4.0,29.94,1014.9,61,,,,,,,,,,,,,,,900.0,900.0,BKN,900.0,OVC,1300.0,,,,
KRDR,05-21-2017,09:58,METAR,Normal,40,9,,,9999.0,Light Rain,3.8,3.7,29.95,1015.3,61,,,,,,,,,,.08 IN,,,,,1100.0,1100.0,OVC,1100.0,,,,,,
KRDR,05-21-2017,09:49,SPECI,Normal,30,10,,,9999.0,Light Rain,4.0,4.0,29.95,1015.3,61,,,,,,,,,,,,,,,1100.0,1100.0,BKN,1100.0,OVC,1900.0,,,,
KRDR,05-21-2017,09:48,SPECI,Normal,40,11,,,9999.0,Light Rain,4.0,4.0,29.95,1015.3,61,,,,,,,,,,,,,,,1200.0,1200.0,BKN,1200.0,OVC,1900.0,,,,
KRDR,05-21-2017,09:38,SPECI,Normal,40,15,,,9999.0,Light Rain,4.0,4.0,29.95,1015.3,61,,,,,,,,,,,,,,,1100.0,1100.0,BKN,1100.0,OVC,2000.0,,,,
KRDR,05-21-2017,09:33,SPECI,Normal,30,11,,,9999.0,Light Rain,4.0,4.0,29.95,1015.3,61,,,,,,,,,,,,,,,800.0,800.0,FEW,800.0,BKN,1200.0,OVC,2000.0,,
KRDR,05-21-2017,09:23,SPECI,Normal,40,8,,,9999.0,Light Rain,4.0,4.0,29.95,1015.3,61,,,,,,,,,,,,,,,1000.0,1000.0,BKN,1000.0,OVC,2100.0,,,,
KRDR,05-21-2017,09:18,SPECI,Normal,40,10,,,9999.0,Light Rain,4.0,4.0,29.95,1015.3,61,,,,,,,,,,,,,,,900.0,900.0,BKN,900.0,OVC,2200.0,,,,
KRDR,05-21-2017,08:58,METAR,Normal,30,9,,,9999.0,Light Rain,4.1,4.0,29.95,1015.3,61,,,,,,,,,,.08 IN,.22 IN,,,,1100.0,1100.0,BKN,1100.0,OVC,2000.0,,,,
KRDR,05-21-2017,08:53,SPECI,Normal,30,11,,,9999.0,Light Rain,4.0,4.0,29.95,1015.3,61,,,,,,,,,,,,,,,1100.0,1100.0,BKN,1100.0,OVC,2000.0,,,,
KRDR,05-21-2017,08:43,SPECI,Normal,30,9,,,9999.0,Light Rain/Mist,4.0,4.0,29.95,1015.3,61,10,,,,,,,,,,,,,,1000.0,1000.0,BKN,1000.0,BKN,1400.0,OVC,2000.0,,
KRDR,05-21-2017,08:33,SPECI,Normal,50,12,,,9999.0,Light Rain/Mist,4.0,4.0,29.96,1015.6,61,10,,,,,,,,,,,,,,1000.0,1000.0,SCT,1000.0,BKN,1400.0,OVC,2100.0,,
KRDR,05-21-2017,08:23,SPECI,Normal,30,12,,,9999.0,Light Rain/Mist,4.0,4.0,29.96,1015.6,61,10,,,,,,,,,,,,,,700.0,1000.0,BKN,1000.0,BKN,1600.0,OVC,2100.0,,
KRDR,05-21-2017,08:18,SPECI,Normal,30,9,,,9999.0,Light Rain/Mist,4.0,4.0,29.96,1015.6,61,10,,,,,,,,,,,,,,700.0,1000.0,SCT,1000.0,BKN,1500.0,OVC,2100.0,,
KRDR,05-21-2017,08:03,SPECI,Normal,40,10,,,8000.0,Rain/Mist,4.0,4.0,29.96,1015.6,62,10,,,,,,,,,,,,,,1300.0,800.0,FEW,800.0,BKN,1300.0,OVC,2100.0,,
KRDR,05-21-2017,07:58,METAR,Normal,60,10,,,9999.0,Rain/Mist,4.4,4.2,29.96,1015.6,62,10,,,,,,,,,.06 IN,,,,,1300.0,1300.0,OVC,1300.0,,,,,,
KRDR,05-21-2017,07:53,SPECI,Normal,60,10,,,9999.0,Light Rain/Mist,4.0,4.0,29.96,1015.6,61,10,,,,,,,,,,,,,,1300.0,1300.0,OVC,1300.0,,,,,,
KRDR,05-21-2017,07:48,SPECI,Normal,60,9,,,9999.0,Light Rain,4.0,4.0,29.96,1015.6,61,,,,,,,,,,,,,,,1000.0,1300.0,OVC,1300.0,,,,,,
KRDR,05-21-2017,07:43,SPECI,Normal,60,11,,,9999.0,Light Rain,5.0,4.0,29.96,1015.5,61,,,,,,,,,,,,,,,900.0,1000.0,BKN,1000.0,OVC,1500.0,,,,
KRDR,05-21-2017,07:38,SPECI,Normal,60,10,,,9999.0,Light Rain,5.0,4.0,29.96,1015.5,61,,,,,,,,,,,,,,,800.0,900.0,BKN,900.0,OVC,1400.0,,,,
KRDR,05-21-2017,07:33,SPECI,Normal,80,9,,,9999.0,Light Rain,5.0,5.0,29.96,1015.5,61,,,,,,,,,,,,,,,700.0,700.0,SCT,700.0,OVC,1300.0,,,,
KRDR,05-21-2017,07:28,SPECI,Normal,70,10,,,9999.0,Light Rain,5.0,5.0,29.96,1015.5,61,,,,,,,,,,,,,,,700.0,800.0,SCT,800.0,OVC,1300.0,,,,
KRDR,05-21-2017,07:23,SPECI,Normal,80,11,,,9999.0,Light Rain,5.0,5.0,29.96,1015.5,61,,,,,,,,,,,,,,,700.0,700.0,BKN,700.0,BKN,1300.0,OVC,1800.0,,
KRDR,05-21-2017,07:08,SPECI,Normal,70,9,,,9999.0,Light Rain,5.0,5.0,29.96,1015.5,61,,,,,,,,,,,,,,,700.0,700.0,BKN,700.0,BKN,1200.0,OVC,2700.0,,
KRDR,05-21-2017,07:03,SPECI,Normal,70,9,,,9999.0,Light Rain,5.0,5.0,29.96,1015.5,61,,,,,,,,,,,,,,,800.0,800.0,BKN,800.0,BKN,2000.0,OVC,2700.0,,
KRDR,05-21-2017,06:58,METAR,Normal,60,11,,,9999.0,Light Rain,5.3,5.1,29.97,1015.9,61,,,,,,,,,,.08 IN,,,,,700.0,700.0,BKN,700.0,OVC,2700.0,,,,
KRDR,05-21-2017,06:51,SPECI,Normal,40,12,,,9999.0,Light Rain,5.0,5.0,29.97,1015.9,61,,,,,,,,,,,,,,,700.0,700.0,BKN,700.0,OVC,2700.0,,,,
KRDR,05-21-2017,06:46,SPECI,Normal,40,11,,,9999.0,Light Rain,5.0,5.0,29.97,1015.9,61,,,,,,,,,,,,,,,1000.0,700.0,SCT,700.0,SCT,1200.0,OVC,2700.0,,
KRDR,05-21-2017,06:41,SPECI,Normal,50,10,,,9999.0,Light Rain,5.0,5.0,29.97,1015.9,61,,,,,,,,,,,,,,,1000.0,600.0,FEW,600.0,BKN,1800.0,OVC,2700.0,,
KRDR,05-21-2017,06:31,SPECI,Normal,30,10,,,9999.0,Light Rain,5.0,5.0,29.98,1016.2,61,,,,,,,,,,,,,,,1000.0,500.0,SCT,500.0,BKN,1000.0,OVC,2600.0,,
KRDR,05-21-2017,06:26,SPECI,Normal,10,5,,,9999.0,Light Rain,5.0,5.0,29.98,1016.2,61,,,,,,,,,,,,,,,600.0,500.0,FEW,500.0,BKN,1800.0,OVC,2700.0,,
KRDR,05-21-2017,06:21,SPECI,Normal,30,5,,,9999.0,Light Rain,5.0,5.0,29.98,1016.2,61,,,,,,,,,,,,,,,2700.0,1100.0,FEW,1100.0,SCT,1800.0,OVC,2700.0,,
KRDR,05-21-2017,05:58,METAR,Normal,50,5,,,9999.0,Light Rain,5.2,5.0,29.99,1016.6,61,,,,,,,,,,.05 IN,,.34 IN,,,700.0,1300.0,FEW,1300.0,BKN,2100.0,OVC,2900.0,,
KRDR,05-21-2017,05:38,SPECI,Normal,70,7,,,9999.0,Light Rain,5.0,5.0,29.99,1016.6,61,,,,,,,,,,,,,,,600.0,700.0,FEW,700.0,BKN,2000.0,OVC,3000.0,,
KRDR,05-21-2017,05:28,SPECI,Normal,50,8,,,9999.0,Light Rain,6.0,6.0,30.00,1016.8,61,,,,,,,,,,,,,,,1900.0,800.0,FEW,800.0,BKN,1900.0,OVC,3000.0,,
KRDR,05-21-2017,04:58,METAR,Normal,50,7,,,9999.0,Light Rain,5.7,5.5,30.01,1017.2,61,,,,,,,,,,.05 IN,,,,,2000.0,900.0,FEW,900.0,BKN,2000.0,OVC,2800.0,,
KRDR,05-21-2017,04:34,SPECI,Normal,60,8,,,9999.0,Light Rain,6.0,6.0,30.02,1017.6,61,,,,,,,,,,,,,,,2000.0,900.0,FEW,900.0,BKN,2100.0,OVC,2900.0,,
KRDR,05-21-2017,04:29,SPECI,Normal,60,5,,,9999.0,Light Rain/Mist,6.0,5.0,30.02,1017.6,61,10,,,,,,,,,,,,,,2000.0,1000.0,FEW,1000.0,BKN,2000.0,OVC,2900.0,,
KRDR,05-21-2017,04:28,SPECI,Normal,60,6,,,9999.0,Light Rain/Mist,6.0,5.0,30.02,1017.6,61,10,,,,,,,,,,,,,,2000.0,1200.0,FEW,1200.0,BKN,2000.0,OVC,3000.0,,
KRDR,05-21-2017,04:23,SPECI,Normal,60,7,,,9999.0,Light Rain,6.0,5.0,30.02,1017.6,61,,,,,,,,,,,,,,,3100.0,2000.0,SCT,2000.0,OVC,3100.0,,,,
KRDR,05-21-2017,03:58,METAR,Normal,50,6,,,9999.0,Light Rain,5.5,5.4,30.04,1018.3,61,,,,,,,,,,.08 IN,,,,,3100.0,3100.0,OVC,3100.0,,,,,,
KRDR,05-21-2017,03:43,SPECI,Normal,50,6,,,9999.0,Light Rain/Mist,5.0,5.0,30.04,1018.3,61,10,,,,,,,,,,,,,,3000.0,3000.0,OVC,3000.0,,,,,,
KRDR,05-21-2017,03:08,SPECI,Normal,80,7,,,9999.0,Light Rain,5.0,5.0,30.05,1018.7,61,,,,,,,,,,,,,,,2100.0,1300.0,FEW,1300.0,BKN,2100.0,OVC,2600.0,,
KRDR,05-21-2017,02:58,METAR,Normal,90,9,,,9999.0,Light Rain,5.6,5.5,30.06,1018.9,61,,,,,,,,,,.06 IN,.16 IN,,,,600.0,800.0,FEW,800.0,SCT,1300.0,OVC,2000.0,,
KRDR,05-21-2017,02:50,SPECI,Normal,100,5,,,9999.0,Light Rain,6.0,6.0,30.06,1019.0,61,,,,,,,,,,,,,,,600.0,800.0,FEW,800.0,SCT,1300.0,OVC,2000.0,,
KRDR,05-21-2017,02:45,SPECI,Normal,100,7,,,9999.0,Light Rain,6.0,6.0,30.06,1019.0,61,,,,,,,,,,,,,,,600.0,700.0,BKN,700.0,OVC,1700.0,,,,
KRDR,05-21-2017,02:40,SPECI,Normal,60,4,,,9999.0,Light Rain,6.0,6.0,30.06,1019.0,61,,,,,,,,,,,,,,,1700.0,600.0,SCT,600.0,OVC,1700.0,,,,
KRDR,05-21-2017,02:27,SPECI,Normal,60,3,,,9999.0,Light Rain,6.0,6.0,30.06,1019.0,61,,,,,,,,,,,,,,,1700.0,800.0,FEW,800.0,BKN,1700.0,OVC,2300.0,,
KRDR,05-21-2017,02:22,SPECI,Normal,60,4,,,9999.0,Light Rain,6.0,6.0,30.06,1019.0,61,,,,,,,,,,,,,,,1800.0,800.0,FEW,800.0,OVC,1800.0,,,,
KRDR,05-21-2017,02:13,SPECI,Normal,60,4,,,9999.0,Light Rain,6.0,6.0,30.06,1019.0,61,,,,,,,,,,,,,,,1800.0,1800.0,BKN,1800.0,BKN,2300.0,OVC,3000.0,,
KRDR,05-21-2017,02:08,SPECI,Normal,60,3,,,9999.0,Light Rain,6.0,6.0,30.06,1019.0,61,,,,,,,,,,,,,,,1800.0,1800.0,SCT,1800.0,BKN,2300.0,OVC,3200.0,,
KRDR,05-21-2017,01:58,METAR,Normal,60,6,,,9999.0,Light Rain/Mist,5.9,5.8,30.07,1019.4,61,10,,,,,,,,,.06 IN,,,,,1800.0,1800.0,BKN,1800.0,BKN,2300.0,OVC,3200.0,,
KRDR,05-21-2017,01:53,SPECI,Normal,60,6,,,9999.0,Light Rain,6.0,6.0,30.07,1019.4,61,,,,,,,,,,,,,,,1800.0,1800.0,BKN,1800.0,BKN,2400.0,OVC,3300.0,,
KRDR,05-21-2017,01:48,SPECI,Normal,60,6,,,9999.0,Light Rain,6.0,6.0,30.07,1019.4,61,,,,,,,,,,,,,,,1900.0,2000.0,BKN,2000.0,OVC,3300.0,,,,
KRDR,05-21-2017,01:43,SPECI,Normal,60,7,,,9999.0,Light Rain,6.0,6.0,30.07,1019.4,61,,,,,,,,,,,,,,,1900.0,1900.0,BKN,1900.0,OVC,3300.0,,,,
KRDR,05-21-2017,00:58,METAR,Normal,50,9,,,9999.0,Light Rain,6.8,5.4,30.08,1019.7,61,,,,,,,,,,.04 IN,,,,,2500.0,2000.0,SCT,2000.0,BKN,2500.0,OVC,3000.0,,
KRDR,05-21-2017,00:37,SPECI,Normal,40,7,,,9999.0,Light Rain,7.0,6.0,30.08,1019.7,61,,,,,,,,,,,,,,,1800.0,1100.0,FEW,1100.0,BKN,2000.0,OVC,3100.0,,
KRDR,05-21-2017,00:34,SPECI,Normal,30,8,,,9999.0,Light Rain,7.0,6.0,30.08,1019.7,61,,,,,,,,,,,,,,,2200.0,1200.0,FEW,1200.0,BKN,2200.0,OVC,3100.0,,
KRDR,05-21-2017,00:19,SPECI,Normal,20,7,,,9999.0,Light Rain,7.0,4.0,30.08,1019.7,61,,,,,,,,,,,,,,,1800.0,1100.0,FEW,1100.0,BKN,1800.0,OVC,3600.0,,
KRDR,05-21-2017,00:14,SPECI,Normal,40,7,,,9999.0,Light Rain,7.0,4.0,30.08,1019.7,61,,,,,,,,,,,,,,,1800.0,600.0,FEW,600.0,BKN,1800.0,OVC,3500.0,,
KRDR,05-21-2017,00:09,SPECI,Normal,40,8,,,9999.0,Light Rain,8.0,4.0,30.08,1019.7,61,,,,,,,,,,,,,,,3500.0,600.0,FEW,600.0,SCT,1400.0,OVC,3500.0,,
KRDR,05-20-2017,23:58,METAR,Normal,40,10,18.0,,9999.0,Light Rain,7.6,4.5,30.08,1019.7,61,,,,,,,,,,.01 IN,,.01 IN,,,3700.0,1400.0,FEW,1400.0,BKN,3700.0,,,,
KRDR,05-20-2017,23:41,SPECI,Normal,20,9,,,9999.0,Light Rain,7.0,5.0,30.09,1020.0,61,,,,,,,,,,,,,,,4200.0,2100.0,FEW,2100.0,SCT,3300.0,BKN,4200.0,,
KRDR,05-20-2017,23:35,SPECI,Normal,10,7,,,9999.0,,7.0,5.0,30.08,1019.7,,,,,,,,,,,,,,,,3000.0,2100.0,FEW,2100.0,BKN,3000.0,,,,
KRDR,05-20-2017,23:28,SPECI,Normal,40,5,,,9999.0,Light Rain,7.0,4.0,30.09,1020.0,61,,,,,,,,,,,,,,,3500.0,2100.0,FEW,2100.0,SCT,2900.0,OVC,3500.0,,
KRDR,05-20-2017,23:18,SPECI,Normal,60,6,,,9999.0,Light Rain,7.0,4.0,30.10,1020.4,61,,,,,,,,,,,,,,,2800.0,1400.0,FEW,1400.0,BKN,2800.0,OVC,3700.0,,
KRDR,05-20-2017,22:58,METAR,Normal,110,13,,,9999.0,Light Rain,9.3,1.6,30.10,1020.4,61,,,,,,,,,,TRACE,,,,,3500.0,2300.0,SCT,2300.0,BKN,3500.0,OVC,4700.0,,
KRDR,05-20-2017,22:54,SPECI,Normal,110,11,21.0,,9999.0,Light Drizzle,9.0,2.0,30.10,1020.4,51,,,,,,,,,,,,,,,3500.0,2300.0,SCT,2300.0,BKN,3500.0,OVC,5000.0,,
KRDR,05-20-2017,22:52,SPECI,Normal,90,13,21.0,,9999.0,,9.0,0.0,30.09,1020.0,,,,,,,,,,,,,,,,3500.0,2400.0,FEW,2400.0,BKN,3500.0,OVC,6000.0,,
KRDR,05-20-2017,22:50,SPECI,Normal,70,11,21.0,,9999.0,,10.0,0.0,30.09,1020.0,,,,,,,,,,,,,,,,4700.0,1900.0,FEW,1900.0,SCT,3500.0,BKN,4700.0,,
KRDR,05-20-2017,22:40,SPECI,Normal,80,13,22.0,,9999.0,Light Rain,10.0,-1.0,30.09,1020.0,61,,,,,,,,,,,,,,,4400.0,1900.0,SCT,1900.0,SCT,3300.0,BKN,4400.0,,
KRDR,05-20-2017,21:58,METAR,Normal,90,14,,,9999.0,,11.3,-2.5,30.08,1019.7,,,,,,,,,,,,,,,2/8 Mostly Clear,72000.0,6500.0,FEW,6500.0,,,,,,
KRDR,05-20-2017,20:58,METAR,Normal,100,12,,,9999.0,,12.0,-4.5,30.08,1019.6,,,,,,,,,,,,,,,Clear,72000.0,,,,,,,,,
KRDR,05-20-2017,19:58,METAR,Normal,110,7,,,9999.0,,12.4,-4.9,30.08,1019.6,,,,,,,,,,,,,,,Clear,72000.0,,,,,,,,,
KRDR,05-20-2017,18:58,METAR,Normal,100,11,,,9999.0,,12.5,-5.8,30.11,1020.5,,,,,,,,,,,,,,,Clear,72000.0,,,,,,,,,
KRDR,05-20-2017,17:58,METAR,Normal,100,14,,,9999.0,,12.9,-3.0,30.12,1020.8,,,,,,,,,,,,,,,Clear,72000.0,,,,,,,,,
KRDR,05-20-2017,16:58,METAR,Normal,110,12,17.0,,9999.0,,12.7,-2.8,30.13,1021.1,,,,,,,,,,,,,,,Clear,10000.0,,,,,,,,,
KRDR,05-20-2017,15:58,METAR,Normal,80,10,,,9999.0,,12.1,-1.5,30.14,1021.5,,,,,,,,,,,,,,,4/8 Partly Cloudy,72000.0,10000.0,SCT,10000.0,,,,,,
KRDR,05-20-2017,14:58,METAR,Normal,120,9,,,9999.0,,10.5,-3.2,30.16,1022.2,,,,,,,,,,,,,,,4/8 Partly Cloudy,72000.0,11000.0,SCT,11000.0,,,,,,
KRDR,05-20-2017,13:58,METAR,Normal,100,9,,,9999.0,,9.9,-2.2,30.16,1022.2,,,,,,,,,,,,,,,2/8 Mostly Clear,72000.0,12000.0,FEW,12000.0,,,,,,
KRDR,05-20-2017,12:58,METAR,Normal,90,6,,,9999.0,,8.6,-0.9,30.18,1022.8,,,,,,,,,,,,,,,4/8 Partly Cloudy,72000.0,11000.0,SCT,11000.0,,,,,,
KRDR,05-20-2017,11:58,METAR,Normal,80,5,,,9999.0,,8.1,-1.0,30.18,1022.8,,,,,,,,,,,,,,,2/8 Mostly Clear,72000.0,12000.0,FEW,12000.0,,,,,,
KRDR,05-20-2017,10:58,METAR,Normal,40,3,,,9999.0,,6.2,1.4,30.18,1022.9,,,,,,,,,,,,,,,2/8 Mostly Clear,72000.0,12000.0,FEW,12000.0,,,,,,
KRDR,05-20-2017,09:58,METAR,Normal,40,4,,,9999.0,,5.0,1.6,30.19,1023.3,,,,,,,,,,,,,,,Clear,72000.0,,,,,,,,,
KRDR,05-20-2017,08:58,METAR,Normal,90,4,,,9999.0,,8.0,-0.8,30.21,1023.8,,,,,,,,,,,,,,,Clear,72000.0,,,,,,,,,
KRDR,05-20-2017,07:58,METAR,Normal,120,5,,,9999.0,,7.8,-0.9,30.22,1024.1,,,,,,,,,,,,,,,Clear,72000.0,,,,,,,,,
KRDR,05-20-2017,06:58,METAR,Calm,,0,,,9999.0,,8.8,-1.7,30.22,1024.1,,,,,,,,,,,,,,,Clear,72000.0,,,,,,,,,
KRDR,05-20-2017,05:58,METAR,Normal,170,4,,,9999.0,,9.6,-2.1,30.23,1024.5,,,,,,,,,,,,,,,Clear,72000.0,,,,,,,,,
KRDR,05-20-2017,04:58,METAR,Normal,90,5,,,9999.0,,10.3,-2.7,30.21,1023.8,,,,,,,,,,,,,,,Clear,72000.0,,,,,,,,,
KRDR,05-20-2017,03:58,METAR,Normal,110,3,,,9999.0,,11.1,-4.0,30.23,1024.5,,,,,,,,,,,,,,,Clear,72000.0,,,,,,,,,
KRDR,05-20-2017,02:58,METAR,Normal,110,4,,,9999.0,,11.8,-4.2,30.22,1024.2,,,,,,,,,,,,,,,Clear,72000.0,,,,,,,,,
KRDR,05-20-2017,01:58,METAR,Normal,110,5,,,9999.0,,13.0,-4.5,30.22,1024.3,,,,,,,,,,,,,,,Clear,72000.0,,,,,,,,,
KRDR,05-20-2017,00:58,METAR,Normal,110,7,,,9999.0,,14.7,-5.6,30.22,1024.3,,,,,,,,,,,,,,,Clear,72000.0,,,,,,,,,
KRDR,05-19-2017,23:58,METAR,Normal,110,10,,,9999.0,,16.0,-5.6,30.23,1024.7,,,,,,,,,,,,,,,Clear,72000.0,,,,,,,,,
KRDR,05-19-2017,22:58,METAR,Normal,120,5,,,9999.0,,15.7,-5.8,30.25,1025.5,,,,,,,,,,,,,,,Clear,72000.0,,,,,,,,,
KRDR,05-19-2017,21:58,METAR,Normal,130,11,,,9999.0,,17.3,-4.8,30.25,1025.4,,,,,,,,,,,,,,,Clear,72000.0,,,,,,,,,
KRDR,05-19-2017,20:58,METAR,Normal,100,8,,,9999.0,,16.8,-4.2,30.26,1025.8,,,,,,,,,,,,,,,2/8 Mostly Clear,72000.0,11000.0,FEW,11000.0,,,,,,
KRDR,05-19-2017,19:58,METAR,Normal,100,8,,,9999.0,,16.6,-4.6,30.27,1026.1,,,,,,,,,,,,,,,Clear,72000.0,,,,,,,,,
KRDR,05-19-2017,19:55,SPECI,Normal,120,13,,,9999.0,,17.0,-5.0,30.27,1026.1,,,,,,,,,,,,,,,Clear,72000.0,,,,,,,,,
KRDR,05-19-2017,18:58,METAR,Normal,80,5,,,9999.0,,16.4,-3.6,30.28,1026.5,,,,,,,,,,,,,,,Clear,72000.0,,,,,,,,,
KRDR,05-19-2017,17:58,METAR,Normal,130,9,,,9999.0,,15.4,-4.9,30.30,1027.2,,,,,,,,,,,,,,,Clear,72000.0,,,,,,,,,
KRDR,05-19-2017,16:58,METAR,Normal,100,10,,,9999.0,,15.1,-4.9,30.31,1027.5,,,,,,,,,,,,,,,Clear,72000.0,,,,,,,,,
KRDR,05-19-2017,15:58,METAR,Normal,120,5,,,9999.0,,12.8,-2.3,30.31,1027.4,,,,,,,,,,,,,,,Clear,72000.0,,,,,,,,,
KRDR,05-19-2017,14:58,METAR,Normal,50,3,,,9999.0,,10.3,-0.3,30.32,1027.9,,,,,,,,,,,,,,,Clear,72000.0,,,,,,,,,
KRDR,05-19-2017,13:58,METAR,Normal,30,5,,,9999.0,,7.6,-1.3,30.31,1027.5,,,,,,,,,,,,,,,Clear,72000.0,,,,,,,,,
KRDR,05-19-2017,12:58,METAR,Normal,20,7,,,9999.0,,5.5,-2.4,30.32,1027.7,,,,,,,,,,,,,,,Clear,72000.0,,,,,,,,,
KRDR,05-19-2017,11:58,METAR,Normal,350,4,,,9999.0,,1.8,-2.1,30.32,1027.8,,,,,,,,,,,,,,,Clear,72000.0,,,,,,,,,
KRDR,05-19-2017,10:58,METAR,Normal,330,4,,,9999.0,,0.8,-3.5,30.30,1027.2,,,,,,,,,,,,,,,Clear,72000.0,,,,,,,,,
KRDR,05-19-2017,09:58,METAR,Normal,340,5,,,9999.0,,0.6,-2.9,30.28,1026.5,,,,,,,,,,,,,,,Clear,72000.0,,,,,,,,,
KRDR,05-19-2017,08:58,METAR,Normal,340,4,,,9999.0,,0.5,-3.6,30.29,1026.9,,,,,,,,,,,,,,,Clear,72000.0,,,,,,,,,
KRDR,05-19-2017,07:58,METAR,Normal,340,3,,,9999.0,,1.4,-2.9,30.28,1026.5,,,,,,,,,,,,,,,Clear,72000.0,,,,,,,,,
KRDR,05-19-2017,06:58,METAR,Normal,30,4,,,9999.0,,1.1,-3.2,30.28,1026.5,,,,,,,,,,,,,,,Clear,72000.0,,,,,,,,,
KRDR,05-19-2017,05:58,METAR,Normal,30,7,,,9999.0,,1.5,-3.2,30.25,1025.5,,,,,,,,,,,,,,,Clear,72000.0,,,,,,,,,
KRDR,05-19-2017,04:58,METAR,Normal,30,6,,,9999.0,,2.6,-3.2,30.24,1025.2,,,,,,,,,,,,,,,Clear,72000.0,,,,,,,,,
KRDR,05-19-2017,03:58,METAR,Normal,30,7,,,9999.0,,5.6,-3.8,30.20,1023.8,,,,,,,,,,,,,,,Clear,72000.0,,,,,,,,,
KRDR,05-19-2017,02:58,METAR,Normal,30,8,,,9999.0,,5.5,-4.2,30.20,1023.9,,,,,,,,,,,,,,,Clear,72000.0,,,,,,,,,
KRDR,05-19-2017,01:58,METAR,Normal,10,8,,,9999.0,,9.8,-4.0,30.20,1023.8,,,,,,,,,,,,,,,Clear,72000.0,,,,,,,,,
KRDR,05-19-2017,00:58,METAR,Normal,20,12,,,9999.0,,13.6,-5.2,30.18,1023.0,,,,,,,,,,,,,,,Clear,72000.0,,,,,,,,,
KRDR,05-18-2017,23:58,METAR,Normal,10,13,,,9999.0,,14.9,-5.8,30.18,1023.0,,,,,,,,,,,,,,,Clear,72000.0,,,,,,,,,
KRDR,05-18-2017,22:58,METAR,Normal,20,16,22.0,,9999.0,,15.5,-5.9,30.16,1022.4,,,,,,,,,,,,,,,Clear,72000.0,,,,,,,,,
KRDR,05-18-2017,21:58,METAR,Normal,20,15,19.0,,9999.0,,15.5,-4.9,30.15,1022.0,,,,,,,,,,,,,,,Clear,72000.0,,,,,,,,,
KRDR,05-18-2017,21:14,SPECI,Normal,20,12,,,9999.0,,15.0,-5.0,30.15,1021.9,,,,,,,,,,,,,,,Clear,72000.0,,,,,,,,,
KRDR,05-18-2017,20:58,METAR,Normal,40,13,,,9999.0,,14.9,-4.4,30.15,1021.9,,,,,,,,,,,,,,,Clear,72000.0,,,,,,,,,
KRDR,05-18-2017,20:54,SPECI,Normal,50,12,19.0,,9999.0,,15.0,-4.0,30.14,1021.6,,,,,,,,,,,,,,,Clear,72000.0,,,,,,,,,
KRDR,05-18-2017,19:58,METAR,Normal,40,15,20.0,,9999.0,,14.6,-3.5,30.15,1021.9,,,,,,,,,,,,,,,Clear,72000.0,,,,,,,,,
KRDR,05-18-2017,18:58,METAR,Normal,20,11,23.0,,9999.0,,14.0,-2.3,30.15,1021.9,,,,,,,,,,,,,,,Clear,72000.0,,,,,,,,,
KRDR,05-18-2017,18:44,SPECI,Normal,50,11,22.0,,9999.0,,14.0,-1.0,30.15,1021.9,,,,,,,,,,,,,,,Clear,72000.0,,,,,,,,,
KRDR,05-18-2017,17:58,METAR,Normal,20,18,22.0,010/26KTS,9999.0,,13.0,-1.5,30.15,1021.9,,,,,,,,,,,,,,,Clear,72000.0,,,,,,,,,
KRDR,05-18-2017,16:58,METAR,Normal,20,16,22.0,,9999.0,,11.0,-1.0,30.13,1021.3,,,,,,,,,,,,,,,Clear,72000.0,,,,,,,,,
KRDR,05-18-2017,15:58,METAR,Normal,30,17,,,9999.0,,8.9,0.0,30.11,1020.7,,,,,,,,,,,,,,,Clear,72000.0,,,,,,,,,
KRDR,05-18-2017,14:58,METAR,Normal,30,17,,010/26KTS,9999.0,,7.0,0.2,30.10,1020.4,,,,,,,,,,,,,,,Clear,72000.0,,,,,,,,,
KRDR,05-18-2017,13:58,METAR,Normal,10,19,23.0,,9999.0,,5.6,0.0,30.08,1019.7,,,,,,,,,,,,,,,Clear,72000.0,,,,,,,,,
KRDR,05-18-2017,12:58,METAR,Normal,10,17,23.0,,9999.0,,4.1,-0.3,30.06,1019.0,,,,,,,,,,,,,,,Clear,72000.0,,,,,,,,,
KRDR,05-18-2017,11:58,METAR,Normal,20,16,,,9999.0,,3.2,-0.5,30.04,1018.3,,,,,,,,,,,,,,IN,Clear,72000.0,,,,,,,,,
KRDR,05-18-2017,10:58,METAR,Normal,20,14,22.0,,9999.0,,3.2,-0.6,30.01,1017.2,,,,,,,,,,,,,,,Clear,72000.0,,,,,,,,,
KRDR,05-18-2017,09:58,METAR,Normal,20,16,21.0,,9999.0,,3.4,-0.6,29.98,1016.3,,,,,,,,,,,,,,,Clear,72000.0,,,,,,,,,
KRDR,05-18-2017,08:58,METAR,Normal,20,17,24.0,,9999.0,,3.9,0.1,29.95,,,,,,,,,,,,,,,,Clear,72000.0,,,,,,,,,
KRDR,05-18-2017,07:58,METAR,Normal,10,16,25.0,010/28KTS,9999.0,,5.0,1.0,29.93,,,,,,,,,,,,,,,,Clear,72000.0,,,,,,,,,
KRDR,05-18-2017,06:58,METAR,Normal,20,23,30.0,010/33KTS,9999.0,,6.6,2.0,29.91,,,,,,,,,,,,,,,,,5500.0,5500.0,OVC,5500.0,,,,,,
KRDR,05-18-2017,05:58,METAR,Normal,20,20,29.0,010/29KTS,9999.0,,7.0,2.1,29.88,1012.9,,,,,,,,,,,,,,,,4800.0,4800.0,OVC,4800.0,,,,,,
KRDR,05-18-2017,04:58,METAR,Normal,10,22,28.0,010/31KTS,9999.0,,7.2,2.2,29.86,1012.2,,,,,,,,,,,,,,,2/8 Mostly Clear,72000.0,5500.0,FEW,5500.0,,,,,,
KRDR,05-18-2017,03:58,METAR,Normal,20,19,32.0,020/32KTS,9999.0,,8.0,2.5,29.85,1011.9,,,,,,,,,,,,,,,,4900.0,4900.0,BKN,4900.0,,,,,,
KRDR,05-18-2017,02:58,METAR,Normal,20,21,28.0,010/35KTS,9999.0,,8.4,3.1,29.83,1011.1,,,,,,,,,,,,,,,2/8 Mostly Clear,72000.0,5000.0,FEW,5000.0,,,,,,
KRDR,05-18-2017,01:58,METAR,Normal,20,20,32.0,020/33KTS,9999.0,,10.4,4.5,29.80,1010.0,,,,,,,,,,,,,,,Clear,72000.0,,,,,,,,,
KRDR,05-18-2017,00:58,METAR,Normal,20,23,31.0,360/34KTS,9999.0,,12.2,5.6,29.77,1008.9,,,,,,,,,,,,,,,Clear,72000.0,,,,,,,,,
KRDR,05-17-2017,23:58,METAR,Normal,20,20,27.0,020/32KTS,9999.0,,13.5,6.3,29.76,1008.5,,,,,,,,,,,,,,,4/8 Partly Cloudy,72000.0,4000.0,SCT,4000.0,,,,,,
KRDR,05-17-2017,22:58,METAR,Normal,40,24,31.0,020/32KTS,9999.0,,14.1,6.7,29.75,1008.3,,,,,,,,,,,,,,,,3200.0,3200.0,BKN,3200.0,,,,,,
KRDR,05-17-2017,22:38,SPECI,Normal,30,25,31.0,,9999.0,,14.0,7.0,29.74,1007.9,,,,,,,,,,,,,,,,3100.0,3100.0,BKN,3100.0,,,,,,
KRDR,05-17-2017,21:58,METAR,Normal,20,20,28.0,010/30KTS,9999.0,,12.4,6.8,29.74,1008.0,,,,,,,,,,,,,,,,2400.0,2400.0,OVC,2400.0,,,,,,
KRDR,05-17-2017,21:44,SPECI,Normal,20,21,28.0,,9999.0,,12.0,7.0,29.74,1008.0,,,,,,,,,,,,,,,,2400.0,2400.0,BKN,2400.0,,,,,,
KRDR,05-17-2017,21:24,SPECI,Normal,20,20,26.0,,9999.0,,,,,1008.3,,,,,,,,,,,,,,,,,,,,,,,,,
KRDR,05-17-2017,20:58,METAR,Normal,360,19,27.0,,9999.0,,11.3,6.0,29.84,,,,,,,,,,,,,,,,,2100.0,1800.0,SCT,1800.0,OVC,2100.0,,,,
KRDR,05-17-2017,19:58,METAR,Normal,360,18,25.0,,9999.0,,10.2,6.1,29.86,,,,,,,,,,,,,,,,,1500.0,1200.0,FEW,1200.0,OVC,1500.0,,,,
KRDR,05-17-2017,18:58,METAR,Normal,360,19,26.0,020/31KTS,9999.0,,8.7,5.6,29.86,,,,,,,,,,,,,,,,,1000.0,1000.0,BKN,1000.0,,,,,,
KRDR,05-17-2017,17:58,METAR,Normal,20,20,29.0,020/30KTS,9999.0,,8.0,6.7,29.77,1009.1,,,,,,,,,,,,,,,,800.0,800.0,OVC,800.0,,,,,,
KRDR,05-17-2017,17:28,SPECI,Normal,30,21,29.0,,9999.0,,8.0,7.0,29.77,1009.1,,,,,,,,,,,,,,,,800.0,800.0,OVC,800.0,,,,,,
KRDR,05-17-2017,16:58,METAR,Normal,20,21,25.0,010/29KTS,9999.0,,7.7,6.9,29.77,1009.1,,,,,,,,,,,,,,,,700.0,700.0,OVC,700.0,,,,,,
KRDR,05-17-2017,15:58,METAR,Normal,20,17,27.0,020/27KTS,9999.0,,8.0,7.4,29.75,1008.4,,,,,,,,,,,,,,,,700.0,700.0,OVC,700.0,,,,,,
KRDR,05-17-2017,15:25,SPECI,Normal,30,18,25.0,,9999.0,,8.0,8.0,29.75,1008.4,,,,,,,,,,,,,,,,700.0,700.0,OVC,700.0,,,,,,
KRDR,05-17-2017,15:10,SPECI,Normal,30,14,24.0,,9999.0,,9.0,8.0,29.75,1008.3,,,,,,,,,,,,,,,,800.0,800.0,OVC,800.0,,,,,,
KRDR,05-17-2017,14:58,METAR,Normal,30,16,22.0,020/26KTS,9999.0,,8.7,8.2,29.75,1008.3,,,,,,,,,,,,,,,,700.0,700.0,BKN,700.0,OVC,900.0,,,,
KRDR,05-17-2017,14:08,SPECI,Normal,20,18,24.0,,9999.0,,9.0,9.0,29.74,1008.0,,,,,,,,,,,,,,,,900.0,900.0,OVC,900.0,,,,,,
KRDR,05-17-2017,13:58,METAR,Normal,20,17,25.0,,9999.0,,8.9,8.8,29.73,1007.6,,,,,,,,,,,,,,,,900.0,900.0,OVC,900.0,,,,,,
KRDR,05-17-2017,13:13,SPECI,Normal,20,16,,,9999.0,,9.0,9.0,29.74,1007.8,,,,,,,,,,,,,,,,800.0,800.0,OVC,800.0,,,,,,
KRDR,05-17-2017,12:58,METAR,Normal,20,15,22.0,,9999.0,,9.0,9.0,29.73,1007.4,,,,,,,,,,,,,,,,700.0,700.0,OVC,700.0,,,,,,
KRDR,05-17-2017,12:38,SPECI,Normal,20,14,,,9999.0,,9.0,9.0,29.74,1007.8,,,,,,,,,,,,,,,,700.0,700.0,OVC,700.0,,,,,,
KRDR,05-17-2017,12:23,SPECI,Normal,30,17,22.0,,9999.0,,9.0,9.0,29.73,1007.4,,,,,,,,,,,,,,,,800.0,800.0,OVC,800.0,,,,,,
KRDR,05-17-2017,12:08,SPECI,Normal,30,19,24.0,,9999.0,,9.0,9.0,29.72,1007.1,,,,,,,,,,,,,,,,700.0,700.0,OVC,700.0,,,,,,
KRDR,05-17-2017,11:58,METAR,Normal,30,15,26.0,040/26KTS,9999.0,,8.7,8.7,29.72,1007.1,,,,,,,,,,,,,,,,400.0,600.0,OVC,600.0,,,,,,
KRDR,05-17-2017,11:53,SPECI,Normal,30,20,26.0,,9999.0,,9.0,9.0,29.72,1007.1,,,,,,,,,,,,,,,,500.0,500.0,OVC,500.0,,,,,,
KRDR,05-17-2017,11:23,SPECI,Normal,30,14,,,9999.0,,8.0,8.0,29.70,1006.5,,,,,,,,,,,,,,,,400.0,400.0,OVC,400.0,,,,,,
KRDR,05-17-2017,10:58,METAR,Normal,30,18,,,9999.0,,7.5,7.5,29.68,1005.8,,,,,,,,,,,,,,,,500.0,500.0,OVC,500.0,,,,,,
KRDR,05-17-2017,10:48,SPECI,Normal,20,16,21.0,,9999.0,,8.0,8.0,29.68,1005.8,,,,,,,,,,,,,,,,500.0,500.0,BKN,500.0,OVC,900.0,,,,
KRDR,05-17-2017,10:38,SPECI,Normal,20,14,,,9999.0,,8.0,8.0,29.68,1005.8,,,,,,,,,,,,,,,,700.0,700.0,BKN,700.0,,,,,,
KRDR,05-17-2017,10:28,SPECI,Normal,10,14,,,9999.0,,8.0,8.0,29.67,1005.5,,,,,,,,,,,,,,,,900.0,900.0,BKN,900.0,,,,,,
KRDR,05-17-2017,10:13,SPECI,Normal,20,12,,,9999.0,,8.0,8.0,29.67,1005.5,,,,,,,,,,,,,,,2/8 Mostly Clear,72000.0,1000.0,FEW,1000.0,,,,,,
KRDR,05-17-2017,09:58,METAR,Normal,30,11,,,9999.0,,8.0,8.0,29.66,1005.1,,,,,,,,,,,,,,,Clear,72000.0,,,,,,,,,
KRDR,05-17-2017,08:58,METAR,Normal,10,11,,,9999.0,,8.6,8.5,29.66,1005.1,,,,,,,,,,,,,,,Clear,72000.0,,,,,,,,,
KRDR,05-17-2017,07:58,METAR,Normal,10,9,,,9999.0,,9.2,9.0,29.66,1005.1,,,,,,,,,,,,,,,Clear,72000.0,,,,,,,,,
KRDR,05-17-2017,06:58,METAR,Normal,10,8,,,9999.0,,8.8,8.8,29.66,1005.1,,,,,,,,,,,,,,,Clear,72000.0,,,,,,,,,
KRDR,05-17-2017,05:58,METAR,Normal,10,6,,,9999.0,,9.0,8.8,29.66,1005.1,,,,,,,,,,,,,,,Clear,72000.0,,,,,,,,,
KRDR,05-17-2017,04:58,METAR,Normal,20,6,,,9999.0,,9.7,9.5,29.63,1004.1,,,,,,,,,,,,,,,Clear,72000.0,,,,,,,,,
KRDR,05-17-2017,03:58,METAR,Normal,30,6,,,9999.0,,9.4,9.2,29.64,1004.4,,,,,,,,,,,,,,,Clear,72000.0,,,,,,,,,
KRDR,05-17-2017,02:58,METAR,Normal,10,7,,,9999.0,,10.5,9.7,29.61,1003.4,,,,,,,,,,,,,,,Clear,72000.0,,,,,,,,,
KRDR,05-17-2017,01:58,METAR,Normal,20,6,,,9999.0,,12.5,9.3,29.62,1003.8,,,,,,,,,,,,,,,Clear,72000.0,,,,,,,,,
KRDR,05-17-2017,00:58,METAR,Normal,30,10,,,9999.0,,15.7,11.0,29.61,1003.2,,,,,,,,,,,,,,,4/8 Partly Cloudy,72000.0,2600.0,SCT,2600.0,,,,,,
KRDR,05-17-2017,00:53,SPECI,Normal,30,12,,,9999.0,,16.0,11.0,29.61,1003.3,,,,,,,,,,,,,,,4/8 Partly Cloudy,72000.0,2600.0,SCT,2600.0,,,,,,
KRDR,05-17-2017,00:43,SPECI,Normal,30,14,,,9999.0,,16.0,11.0,29.61,1003.3,,,,,,,,,,,,,,,,2600.0,2600.0,BKN,2600.0,BKN,3200.0,,,,
KRDR,05-17-2017,00:23,SPECI,Normal,30,10,,,9999.0,,16.0,11.0,29.60,1003.0,,,,,,,,,,,,,,,,3200.0,2700.0,SCT,2700.0,BKN,3200.0,,,,
KRDR,05-17-2017,00:18,SPECI,Normal,20,11,,,9999.0,,16.0,11.0,29.60,1003.0,,,,,,,,,,,,,,,,2900.0,2900.0,BKN,2900.0,,,,,,
KRDR,05-16-2017,23:58,METAR,Normal,10,10,,,9999.0,,15.5,11.3,29.59,1002.6,,,,,,,,,,,,,,,,3000.0,2100.0,FEW,2100.0,OVC,3000.0,,,,
KRDR,05-16-2017,23:38,SPECI,Normal,360,11,,,9999.0,,16.0,12.0,29.60,1003.0,,,,,,,,,,,,,,,,2000.0,2000.0,BKN,2000.0,OVC,2700.0,,,,
KRDR,05-16-2017,23:28,SPECI,Normal,360,11,17.0,,9999.0,,16.0,12.0,29.60,1002.9,,,,,,,,,,,,,,,,1900.0,1900.0,BKN,1900.0,OVC,2600.0,,,,
KRDR,05-16-2017,23:03,SPECI,Normal,10,13,,,9999.0,,16.0,11.0,29.59,1002.5,,,,,,,,,,,,,,,,2000.0,2000.0,BKN,2000.0,,,,,,
KRDR,05-16-2017,22:58,METAR,Normal,10,12,18.0,,9999.0,,16.1,11.5,29.59,1002.5,,,,,,,,,,,,,,,,1900.0,1900.0,BKN,1900.0,,,,,,
KRDR,05-16-2017,21:58,METAR,Normal,10,12,,,9999.0,,15.2,12.0,29.58,1002.3,,,,,,,,,,,,,,,,1700.0,1700.0,OVC,1700.0,,,,,,
KRDR,05-16-2017,21:03,SPECI,Normal,10,16,20.0,,9999.0,,15.0,11.0,29.57,1001.9,,,,,,,,,,,,,,,,1600.0,1600.0,BKN,1600.0,OVC,3400.0,,,,
KRDR,05-16-2017,20:58,METAR,Normal,20,14,21.0,,9999.0,,15.2,10.9,29.57,1001.9,,,,,,,,,,,,,,,,3400.0,1700.0,SCT,1700.0,OVC,3400.0,,,,
KRDR,05-16-2017,20:23,SPECI,Normal,20,15,,,9999.0,,15.0,11.0,29.57,1001.9,,,,,,,,,,,,,,,,1700.0,1700.0,SCT,1700.0,OVC,3300.0,,,,
KRDR,05-16-2017,20:03,SPECI,Normal,360,14,,,9999.0,,15.0,11.0,29.57,1001.9,,,,,,,,,,,,,,,,1700.0,1700.0,BKN,1700.0,OVC,2900.0,,,,
KRDR,05-16-2017,19:58,METAR,Normal,10,13,,,9999.0,,14.6,11.2,29.57,1001.9,,,,,,,,,,,,,,,,1700.0,1700.0,SCT,1700.0,OVC,3000.0,,,,
KRDR,05-16-2017,19:43,SPECI,Normal,360,12,,,9999.0,,15.0,11.0,29.57,1001.9,,,,,,,,,,,,,,,,1800.0,1800.0,SCT,1800.0,OVC,2800.0,,,,
KRDR,05-16-2017,19:33,SPECI,Normal,10,10,,,9999.0,,14.0,11.0,29.56,1001.6,,,,,,,,,,,,,,,,1800.0,1800.0,BKN,1800.0,OVC,2700.0,,,,
KRDR,05-16-2017,18:58,METAR,Normal,360,11,,,9999.0,,13.7,10.7,29.56,1001.5,,,,,,,,,,,,,,,,1700.0,1700.0,BKN,1700.0,OVC,2400.0,,,,
KRDR,05-16-2017,18:38,SPECI,Normal,350,11,,,9999.0,,14.0,11.0,29.55,1001.2,,,,,,,,,,,,,,,,1600.0,1600.0,BKN,1600.0,OVC,2400.0,,,,
KRDR,05-16-2017,18:23,SPECI,Normal,10,10,,,9999.0,,14.0,11.0,29.55,1001.2,,,,,,,,,,,,,,,,1500.0,1500.0,SCT,1500.0,OVC,2200.0,,,,
KRDR,05-16-2017,18:08,SPECI,Normal,340,8,,,9999.0,,14.0,12.0,29.55,1001.2,,,,,,,,,,,,,,,,1500.0,1500.0,BKN,1500.0,OVC,2100.0,,,,
KRDR,05-16-2017,17:58,METAR,Normal,350,9,,,9999.0,,14.4,12.2,29.55,1001.2,,,,,,,,,,,,,TRACE,,,1400.0,1400.0,OVC,1400.0,,,,,,
KRDR,05-16-2017,17:38,SPECI,Normal,340,8,,,9999.0,,15.0,12.0,29.54,1000.8,,,,,,,,,,,,,,,,1400.0,1400.0,BKN,1400.0,OVC,2400.0,,,,
KRDR,05-16-2017,16:58,METAR,Calm,,0,,,9999.0,,14.4,11.9,29.54,1000.8,,,,,,,,,,,,,,,,2400.0,2400.0,BKN,2400.0,OVC,9100.0,,,,
KRDR,05-16-2017,16:48,SPECI,Normal,340,4,,,9999.0,,14.0,12.0,29.54,1000.8,,,,,,,,,,,,,,,,2400.0,1300.0,FEW,1300.0,BKN,2500.0,BKN,9100.0,,
KRDR,05-16-2017,15:58,METAR,Normal,320,5,,,9999.0,,13.6,11.5,29.52,1000.1,,,,,,,,,,,,,,,4/8 Partly Cloudy,72000.0,9000.0,SCT,9100.0,,,,,,
KRDR,05-16-2017,14:58,METAR,Calm,,0,,,9999.0,,13.8,10.5,29.51,999.8,,,,,,,,,,,,TRACE,,,Clear,72000.0,,,,,,,,,
KRDR,05-16-2017,13:58,METAR,Normal,100,4,,,9999.0,,11.7,10.2,29.55,1001.1,,,,,,,,,,,,,,,4/8 Partly Cloudy,72000.0,10000.0,SCT,10000.0,,,,,,
KRDR,05-16-2017,12:58,METAR,Normal,320,5,,,9999.0,,12.5,9.8,29.57,1001.7,,,,,,,,,,,TRACE,,,,4/8 Partly Cloudy,72000.0,3700.0,SCT,3700.0,,,,,,
KRDR,05-16-2017,12:17,SPECI,Normal,80,13,,,9999.0,,12.0,9.0,29.55,1001.0,,,,,,,,,,,,,,,2/8 Mostly Clear,72000.0,10000.0,FEW,10000.0,,,,,,
KRDR,05-16-2017,12:05,SPECI,Normal,70,11,,,9999.0,Light Rain,12.0,10.0,29.55,1001.0,61,,,,,,,,,,,,,,4/8 Partly Cloudy,72000.0,11000.0,SCT,11000.0,,,,,,
KRDR,05-16-2017,11:58,METAR,Normal,60,10,,,9999.0,,11.8,10.8,29.58,1002.0,,,,,,,,,,,TRACE,,.04 IN,IN,,11000.0,11000.0,BKN,11000.0,,,,,,
KRDR,05-16-2017,11:00,SPECI,Normal,20,3,,,9999.0,,13.0,12.0,29.64,1004.0,,,,,,,,,,,,,,,4/8 Partly Cloudy,72000.0,4200.0,FEW,4200.0,SCT,9100.0,SCT,11000.0,,
KRDR,05-16-2017,10:58,METAR,Calm,,0,,,9999.0,Light Rain,13.2,11.7,29.64,1004.0,61,,,,,,,,,,.01 IN,,,,4/8 Partly Cloudy,72000.0,5000.0,SCT,5000.0,SCT,11000.0,,,,
KRDR,05-16-2017,10:24,SPECI,Normal,280,9,,,9999.0,Light Rain,14.0,12.0,29.66,1004.6,61,,,,,,,,,,,,,,,10000.0,4600.0,FEW,4600.0,BKN,10000.0,,,,
KRDR,05-16-2017,10:09,SPECI,Normal,200,10,,,9999.0,,13.0,11.0,29.63,,,,,,,,,,,,,,,,,10000.0,6000.0,SCT,6000.0,OVC,10000.0,,,,
KRDR,05-16-2017,10:03,SPECI,Normal,260,9,,,9999.0,Light Rain,13.0,11.0,29.61,,61,,,,,,,,,,,,,,,5500.0,5500.0,BKN,5500.0,BKN,9100.0,OVC,11000.0,,
KRDR,05-16-2017,09:58,METAR,Normal,50,3,,,9999.0,Light Rain,13.5,10.2,29.58,,61,,,,,,,,,,.03 IN,,,,,5500.0,5500.0,OVC,5500.0,,,,,,
KRDR,05-16-2017,09:34,SPECI,Normal,100,12,,,9999.0,Light Rain,14.0,9.0,29.59,,61,,,,,,,,,,,,,,,5500.0,4400.0,FEW,4400.0,BKN,5500.0,BKN,11000.0,,
KRDR,05-16-2017,09:24,SPECI,Normal,90,9,,,9999.0,Light Rain,14.0,8.0,29.61,,61,,,,,,,,,,,,,,4/8 Partly Cloudy,72000.0,10000.0,SCT,10000.0,,,,,,
KRDR,05-16-2017,09:13,SPECI,Normal,70,6,,,9999.0,,13.0,7.0,29.63,,,,,,,,,,,,,,,,,10000.0,10000.0,OVC,10000.0,,,,,,
KRDR,05-16-2017,08:59,SPECI,Normal,350,3,,,9999.0,Dry Thunderstorm,14.0,7.0,29.65,,91,,,,,,,,,,,,,,,10000.0,10000.0,OVC,10000.0,,,,,,
KRDR,05-16-2017,08:58,METAR,Normal,350,3,,,9999.0,,13.6,7.0,29.65,,,,,,,,,,,,,,,,,10000.0,10000.0,OVC,10000.0,,,,,,
KRDR,05-16-2017,07:58,METAR,Normal,160,5,,,9999.0,,13.8,5.4,29.62,,,,,,,,,,,,,,,,Clear,72000.0,,,,,,,,,
KRDR,05-16-2017,06:58,METAR,Normal,150,5,,,9999.0,,15.0,4.7,29.68,,,,,,,,,,,,,,,,,10000.0,10000.0,OVC,10000.0,,,,,,
KRDR,05-16-2017,05:58,METAR,Normal,150,5,,,9999.0,,15.5,3.8,29.69,1005.7,,,,,,,,,,,,,,,Clear,72000.0,,,,,,,,,
KRDR,05-16-2017,04:58,METAR,Normal,130,7,,,9999.0,,16.7,2.9,29.68,1005.4,,,,,,,,,,,,,,,Clear,72000.0,,,,,,,,,
KRDR,05-16-2017,03:58,METAR,Normal,120,6,,,9999.0,,16.7,2.7,29.70,1006.1,,,,,,,,,,,,,,,Clear,72000.0,,,,,,,,,
KRDR,05-16-2017,02:58,METAR,Normal,120,5,,,9999.0,,18.1,3.0,29.71,1006.5,,,,,,,,,,,,,,,Clear,72000.0,,,,,,,,,
KRDR,05-16-2017,01:58,METAR,Normal,110,7,,,9999.0,,18.9,2.3,29.71,1006.5,,,,,,,,,,,,,,,Clear,72000.0,,,,,,,,,
KRDR,05-16-2017,00:58,METAR,Normal,100,5,,,9999.0,,23.2,1.5,29.73,1007.1,,,,,,,,,,,,,,,Clear,72000.0,,,,,,,,,
KRDR,05-15-2017,23:58,METAR,Normal,80,8,,,9999.0,,24.7,-1.1,29.75,,,,,,,,,,,,,,,,Clear,72000.0,,,,,,,,,
KRDR,05-15-2017,22:58,METAR,Normal,100,5,,,9999.0,,24.6,-1.3,29.76,,,,,,,,,,,,,,,,Clear,72000.0,,,,,,,,,
KRDR,05-15-2017,21:58,METAR,Normal,70,7,,,9999.0,,25.2,-1.8,29.77,1009.4,,,,,,,,,,,,,,,Clear,72000.0,,,,,,,,,
KRDR,05-15-2017,20:58,METAR,Variable,,5,,,9999.0,,25.0,-1.0,29.79,1010.1,,,,,,,,,,,,,,,Clear,72000.0,,,,,,,,,
KRDR,05-15-2017,19:58,METAR,Normal,120,5,,,9999.0,,29.0,2.0,29.85,,,,,,,,,,,,,,,,2/8 Mostly Clear,72000.0,6000.0,FEW,6000.0,,,,,,
KRDR,05-15-2017,18:59,METAR,Normal,60,6,,,9999.0,,24.0,-3.0,29.88,,,,,,,,,,,,,,,,2/8 Mostly Clear,72000.0,6000.0,FEW,6000.0,,,,,,
KRDR,05-15-2017,17:58,METAR,Normal,60,5,,,9999.0,,22.9,0.7,29.87,1011.8,,,,,,,,,,,,,,,Clear,72000.0,,,,,,,,,
KRDR,05-15-2017,16:58,METAR,Normal,90,5,,,9999.0,,20.8,3.3,29.90,1012.9,,,,,,,,,,,,,,,Clear,72000.0,,,,,,,,,
KRDR,05-15-2017,15:58,METAR,Normal,60,7,,,9999.0,,18.5,5.4,29.91,1013.3,,,,,,,,,,,,,,,Clear,72000.0,,,,,,,,,
KRDR,05-15-2017,14:58,METAR,Normal,60,5,,,9999.0,,16.1,5.1,29.93,1013.9,,,,,,,,,,,,,,,Clear,72000.0,,,,,,,,,
KRDR,05-15-2017,13:58,METAR,Normal,360,6,,,9999.0,,14.1,3.9,29.94,1014.3,,,,,,,,,,,,,,,Clear,72000.0,,,,,,,,,
KRDR,05-15-2017,12:58,METAR,Normal,330,5,,,9999.0,,12.2,3.5,29.93,1013.9,,,,,,,,,,,,,,,Clear,72000.0,,,,,,,,,
KRDR,05-15-2017,11:58,METAR,Normal,320,3,,,9999.0,,10.3,3.0,29.92,1013.7,,,,,,,,,,,,,,.04 IN,Clear,72000.0,,,,,,,,,
KRDR,05-15-2017,10:58,METAR,Normal,340,5,,,9999.0,,10.1,2.5,29.90,1013.0,,,,,,,,,,,,,,,Clear,72000.0,,,,,,,,,
KRDR,05-15-2017,09:58,METAR,Normal,310,4,,,9999.0,,10.0,2.1,29.90,1013.0,,,,,,,,,,,,,,,Clear,72000.0,,,,,,,,,
KRDR,05-15-2017,08:58,METAR,Normal,330,6,,,9999.0,,11.0,1.5,29.89,1012.7,,,,,,,,,,,,,,,Clear,72000.0,,,,,,,,,
KRDR,05-15-2017,07:58,METAR,Normal,340,7,,,9999.0,,11.7,1.5,29.87,1012.0,,,,,,,,,,,,,,,Clear,72000.0,,,,,,,,,
KRDR,05-15-2017,06:58,METAR,Normal,330,8,,,9999.0,,13.4,1.0,29.86,1011.6,,,,,,,,,,,,,,,Clear,72000.0,,,,,,,,,
KRDR,05-15-2017,05:58,METAR,Normal,320,6,,,9999.0,,14.0,3.7,29.85,1011.3,,,,,,,,,,,,,,,Clear,72000.0,,,,,,,,,
KRDR,05-15-2017,04:58,METAR,Normal,320,7,,,9999.0,,15.5,3.0,29.84,1011.0,,,,,,,,,,,,,,,Clear,72000.0,,,,,,,,,
KRDR,05-15-2017,03:58,METAR,Normal,320,7,,,9999.0,,16.7,3.6,29.83,1010.7,,,,,,,,,,,,,,,Clear,72000.0,,,,,,,,,
KRDR,05-15-2017,02:58,METAR,Normal,320,6,,,9999.0,,18.7,4.6,29.80,1009.6,,,,,,,,,,,,,,,Clear,72000.0,,,,,,,,,
KRDR,05-15-2017,01:58,METAR,Normal,290,6,,,9999.0,,20.8,8.1,29.77,1008.5,,,,,,,,,,,,,,,Clear,72000.0,,,,,,,,,
KRDR,05-15-2017,00:58,METAR,Normal,300,10,,,9999.0,,23.2,9.5,29.75,1007.8,,,,,,,,,,,,,,,Clear,72000.0,,,,,,,,,
KRDR,05-14-2017,23:58,METAR,Normal,330,4,,,9999.0,,24.0,12.3,29.74,1007.5,,,,,,,,,,,,,,,4/8 Partly Cloudy,72000.0,6000.0,SCT,6000.0,,,,,,
KRDR,05-14-2017,22:58,METAR,Normal,60,4,,,9999.0,,23.3,12.5,29.75,1007.9,,,,,,,,,,,,,,,4/8 Partly Cloudy,72000.0,6000.0,SCT,6000.0,,,,,,
KRDR,05-14-2017,21:58,METAR,Calm,,0,,,9999.0,,23.5,12.1,29.74,1007.5,,,,,,,,,,,,,,,Clear,72000.0,,,,,,,,,
KRDR,05-14-2017,20:58,METAR,Normal,140,3,,,9999.0,,22.5,11.4,29.75,1007.8,,,,,,,,,,,,,,,4/8 Partly Cloudy,72000.0,7500.0,SCT,7500.0,,,,,,
KRDR,05-14-2017,19:58,METAR,Normal,270,3,,,9999.0,,20.9,9.8,29.76,1008.2,,,,,,,,,,,,,,,,8000.0,8000.0,BKN,8000.0,,,,,,
KRDR,05-14-2017,18:58,METAR,Normal,250,4,,,9999.0,,20.0,9.3,29.76,1008.2,,,,,,,,,,,,,,,4/8 Partly Cloudy,72000.0,8000.0,SCT,8000.0,,,,,,
KRDR,05-14-2017,17:58,METAR,Normal,230,8,,,9999.0,,17.9,8.8,29.77,1008.6,,,,,,,,,,,,,.04 IN,,4/8 Partly Cloudy,72000.0,8500.0,SCT,8600.0,,,,,,
KRDR,05-14-2017,16:58,METAR,Normal,200,9,,,9999.0,,16.4,9.2,29.74,1007.6,,,,,,,,,,,,,,,2/8 Mostly Clear,72000.0,12000.0,FEW,12000.0,,,,,,
KRDR,05-14-2017,15:58,METAR,Calm,,0,,,9999.0,,12.8,8.4,29.70,1006.3,,,,,,,,,,,.03 IN,,,,2/8 Mostly Clear,72000.0,11000.0,FEW,11000.0,,,,,,
KRDR,05-14-2017,15:32,SPECI,Normal,120,11,,,9999.0,,12.0,8.0,29.68,1005.7,,,,,,,,,,,,,,,,10000.0,4300.0,FEW,4300.0,BKN,10000.0,,,,
KRDR,05-14-2017,15:20,SPECI,Normal,130,17,,,9999.0,Light Rain,12.0,8.0,29.65,1004.6,61,,,,,,,,,,,,,,,5500.0,4900.0,FEW,4900.0,BKN,5500.0,OVC,10000.0,,
KRDR,05-14-2017,14:58,METAR,Normal,90,8,,,9999.0,Light Rain,13.3,7.6,29.71,1006.6,61,,,,,,,,,,.01 IN,.01 IN,,,,7000.0,7000.0,BKN,7000.0,OVC,9100.0,,,,
KRDR,05-14-2017,14:29,SPECI,Normal,190,6,,,9999.0,Light Drizzle,14.0,5.0,29.76,1008.3,51,,,,,,,,,,,,,,,10000.0,10000.0,BKN,10000.0,,,,,,
KRDR,05-14-2017,13:58,METAR,Normal,190,4,,,9999.0,,14.5,4.0,29.75,1007.9,,,,,,,,,,,,,,,2/8 Mostly Clear,72000.0,12000.0,FEW,12000.0,,,,,,
KRDR,05-14-2017,12:58,METAR,Normal,150,3,,,9999.0,,13.2,3.6,29.73,1007.1,,,,,,,,,,,,,,,Clear,72000.0,,,,,,,,,
KRDR,05-14-2017,11:58,METAR,Normal,70,4,,,9999.0,,10.5,3.8,29.71,1006.5,,,,,,,,,,,,,,,Clear,72000.0,,,,,,,,,
KRDR,05-14-2017,10:58,METAR,Normal,70,5,,,9999.0,,8.1,3.3,29.70,1006.2,,,,,,,,,,,,,,,Clear,72000.0,,,,,,,,,
KRDR,05-14-2017,09:58,METAR,Normal,80,5,,,9999.0,,10.7,3.1,29.71,1006.4,,,,,,,,,,,,,,,Clear,72000.0,,,,,,,,,
KRDR,05-14-2017,08:58,METAR,Normal,110,5,,,9999.0,,12.0,2.2,29.69,1005.8,,,,,,,,,,,,,,,Clear,72000.0,,,,,,,,,
KRDR,05-14-2017,07:58,METAR,Normal,120,11,,,9999.0,,13.4,1.8,29.69,1005.7,,,,,,,,,,,,,,,Clear,72000.0,,,,,,,,,
KRDR,05-14-2017,06:58,METAR,Normal,120,10,,,9999.0,,13.7,1.5,29.70,1006.1,,,,,,,,,,,,,,,Clear,72000.0,,,,,,,,,
KRDR,05-14-2017,05:58,METAR,Normal,120,11,,,9999.0,,14.3,1.7,29.70,1006.1,,,,,,,,,,,,,,,Clear,72000.0,,,,,,,,,
KRDR,05-14-2017,04:58,METAR,Normal,110,11,,,9999.0,,14.7,1.8,29.70,1006.2,,,,,,,,,,,,,,,Clear,72000.0,,,,,,,,,
KRDR,05-14-2017,03:58,METAR,Normal,110,13,,,9999.0,,15.8,1.8,29.70,1006.2,,,,,,,,,,,,,,,Clear,72000.0,,,,,,,,,
KRDR,05-14-2017,02:58,METAR,Normal,110,14,,,9999.0,,17.3,2.5,29.68,1005.6,,,,,,,,,,,,,,,Clear,72000.0,,,,,,,,,
KRDR,05-14-2017,01:58,METAR,Normal,90,12,,,9999.0,,19.1,3.4,29.67,1005.2,,,,,,,,,,,,,,,Clear,72000.0,,,,,,,,,
KRDR,05-14-2017,00:58,METAR,Normal,90,14,20.0,,9999.0,,21.6,4.6,29.67,1005.2,,,,,,,,,,,,,,,Clear,72000.0,,,,,,,,,
KRDR,05-13-2017,23:58,METAR,Normal,80,14,21.0,,9999.0,,23.4,4.5,29.67,1005.3,,,,,,,,,,,,,,,Clear,72000.0,,,,,,,,,
KRDR,05-13-2017,22:58,METAR,Normal,90,15,24.0,,9999.0,,24.5,4.6,29.68,1005.7,,,,,,,,,,,,,,,Clear,72000.0,,,,,,,,,
KRDR,05-13-2017,21:58,METAR,Normal,80,13,19.0,,9999.0,,25.2,4.1,29.71,1006.7,,,,,,,,,,,,,,,Clear,72000.0,,,,,,,,,
KRDR,05-13-2017,20:58,METAR,Normal,80,12,,,9999.0,,24.4,3.9,29.74,1007.7,,,,,,,,,,,,,,,Clear,72000.0,,,,,,,,,
KRDR,05-13-2017,19:58,METAR,Normal,110,12,18.0,,9999.0,,23.5,3.2,29.76,1008.4,,,,,,,,,,,,,,,Clear,72000.0,,,,,,,,,
KRDR,05-13-2017,18:58,METAR,Normal,120,11,19.0,,9999.0,,22.1,2.2,29.78,1009.1,,,,,,,,,,,,,,,Clear,72000.0,,,,,,,,,
KRDR,05-13-2017,17:58,METAR,Normal,110,14,19.0,,9999.0,,20.5,1.1,29.81,1010.1,,,,,,,,,,,,,,,Clear,72000.0,,,,,,,,,
KRDR,05-13-2017,16:58,METAR,Normal,120,13,,,9999.0,,18.9,0.3,29.84,1011.2,,,,,,,,,,,,,,,Clear,72000.0,,,,,,,,,
KRDR,05-13-2017,15:58,METAR,Normal,100,15,,,9999.0,,17.2,1.6,29.86,1011.9,,,,,,,,,,,,,,,Clear,72000.0,,,,,,,,,
KRDR,05-13-2017,14:58,METAR,Normal,90,13,,,9999.0,,15.1,2.4,29.88,1012.6,,,,,,,,,,,,,,,Clear,72000.0,,,,,,,,,
KRDR,05-13-2017,13:58,METAR,Normal,100,9,,,9999.0,,12.2,2.5,29.90,1013.2,,,,,,,,,,,,,,,Clear,72000.0,,,,,,,,,
KRDR,05-13-2017,12:58,METAR,Normal,70,5,,,9999.0,,8.4,2.1,29.91,1013.6,,,,,,,,,,,,,,,Clear,72000.0,,,,,,,,,
KRDR,05-13-2017,11:58,METAR,Normal,30,3,,,9999.0,,3.5,1.3,29.90,1013.4,,,,,,,,,,,,,,,Clear,72000.0,,,,,,,,,
KRDR,05-13-2017,10:58,METAR,Normal,30,5,,,9999.0,,1.9,0.3,29.90,1013.4,,,,,,,,,,,,,,,Clear,72000.0,,,,,,,,,
KRDR,05-13-2017,09:58,METAR,Normal,20,5,,,9999.0,,2.5,0.1,29.91,1013.7,,,,,,,,,,,,,,,Clear,72000.0,,,,,,,,,
KRDR,05-13-2017,08:58,METAR,Normal,20,5,,,9999.0,,2.6,0.3,29.91,1013.8,,,,,,,,,,,,,,,Clear,72000.0,,,,,,,,,
KRDR,05-13-2017,07:58,METAR,Normal,20,5,,,9999.0,,4.1,0.4,29.92,1014.1,,,,,,,,,,,,,,,2/8 Mostly Clear,72000.0,11000.0,FEW,11000.0,,,,,,
KRDR,05-13-2017,06:58,METAR,Normal,10,4,,,9999.0,,5.0,0.4,29.92,1014.0,,,,,,,,,,,,,,,Clear,72000.0,,,,,,,,,
KRDR,05-13-2017,05:58,METAR,Normal,40,8,,,9999.0,,7.0,0.1,29.92,1013.9,,,,,,,,,,,,,,,4/8 Partly Cloudy,72000.0,11000.0,SCT,11000.0,,,,,,
KRDR,05-13-2017,04:58,METAR,Normal,40,5,,,9999.0,,7.4,0.4,29.93,1014.3,,,,,,,,,,,,,,,Clear,72000.0,,,,,,,,,
KRDR,05-13-2017,03:58,METAR,Normal,50,9,,,9999.0,,8.0,0.3,29.92,1014.0,,,,,,,,,,,,,,,Clear,72000.0,,,,,,,,,
KRDR,05-13-2017,02:58,METAR,Normal,40,7,,,9999.0,,9.2,1.0,29.92,1014.0,,,,,,,,,,,,,,,Clear,72000.0,,,,,,,,,
KRDR,05-13-2017,01:58,METAR,Normal,40,7,,,9999.0,,13.8,1.4,29.92,1014.0,,,,,,,,,,,,,,,Clear,72000.0,,,,,,,,,
KRDR,05-13-2017,00:58,METAR,Normal,40,12,,,9999.0,,17.3,1.7,29.91,1013.6,,,,,,,,,,,,,,,Clear,11000.0,,,,,,,,,
KRDR,05-12-2017,23:58,METAR,Normal,40,9,,,9999.0,,18.5,2.3,29.92,1013.9,,,,,,,,,,,,,TRACE,,4/8 Partly Cloudy,72000.0,11000.0,SCT,11000.0,,,,,,
KRDR,05-12-2017,22:58,METAR,Normal,20,5,,,9999.0,,18.9,2.7,29.94,1014.7,,,,,,,,,,,,,,,Clear,72000.0,,,,,,,,,
KRDR,05-12-2017,21:58,METAR,Normal,10,7,,,9999.0,,19.1,3.5,29.95,1015.1,,,,,,,,,,,,,,,2/8 Mostly Clear,72000.0,11000.0,FEW,11000.0,,,,,,
KRDR,05-12-2017,20:58,METAR,Normal,10,6,,,9999.0,,17.5,4.2,29.96,1015.4,,,,,,,,,,,TRACE,TRACE,,,2/8 Mostly Clear,72000.0,10000.0,FEW,10000.0,,,,,,
KRDR,05-12-2017,20:27,SPECI,Normal,10,6,,,9999.0,,16.0,7.0,29.96,1015.4,,,,,,,,,,,,,,,,9000.0,9000.0,BKN,9100.0,,,,,,
KRDR,05-12-2017,19:58,METAR,Normal,40,8,,,9999.0,Light Drizzle,15.4,5.7,29.97,1015.8,51,,,,,,,,,,TRACE,,,,,9000.0,2400.0,FEW,2400.0,BKN,9100.0,,,,
KRDR,05-12-2017,19:27,SPECI,Normal,40,8,,,9999.0,Light Rain,17.0,3.0,29.98,1016.0,61,,,,,,,,,,,,,,4/8 Partly Cloudy,72000.0,2400.0,FEW,2400.0,SCT,9600.0,,,,
KRDR,05-12-2017,18:58,METAR,Normal,60,10,,,9999.0,,17.5,3.0,29.98,1016.0,,,,,,,,,,,,,,,2/8 Mostly Clear,72000.0,10000.0,FEW,10000.0,,,,,,
KRDR,05-12-2017,17:58,METAR,Normal,50,13,,,9999.0,,18.1,3.2,30.00,1016.6,,,,,,,,,,,,,,,Clear,72000.0,,,,,,,,,
KRDR,05-12-2017,16:58,METAR,Normal,50,13,17.0,,9999.0,,17.1,2.5,30.00,1016.6,,,,,,,,,,,,,,,Clear,72000.0,,,,,,,,,
KRDR,05-12-2017,16:56,SPECI,Normal,40,12,17.0,,9999.0,,17.0,3.0,30.00,1016.6,,,,,,,,,,,,,,,Clear,72000.0,,,,,,,,,
KRDR,05-12-2017,15:58,METAR,Normal,50,13,,,9999.0,,15.2,2.5,30.01,1017.0,,,,,,,,,,,,,,,Clear,72000.0,,,,,,,,,
KRDR,05-12-2017,14:58,METAR,Normal,50,11,,,9999.0,,13.0,4.1,30.01,1017.0,,,,,,,,,,,,,,,Clear,72000.0,,,,,,,,,
KRDR,05-12-2017,13:58,METAR,Normal,30,14,,,9999.0,,9.8,4.0,30.02,1017.3,,,,,,,,,,,,,,,2/8 Mostly Clear,72000.0,10000.0,FEW,10000.0,,,,,,
KRDR,05-12-2017,12:58,METAR,Normal,30,9,,,9999.0,,6.3,3.1,30.02,1017.4,,,,,,,,,,,,,,,4/8 Partly Cloudy,72000.0,10000.0,SCT,10000.0,,,,,,
KRDR,05-12-2017,11:58,METAR,Normal,20,10,,,9999.0,,5.7,3.1,30.03,1017.7,,,,,,,,,,,,,,,,10000.0,10000.0,BKN,10000.0,,,,,,
KRDR,05-12-2017,10:58,METAR,Normal,10,7,,,9999.0,,3.2,2.0,30.03,1017.7,,,,,,,,,,,,,,,2/8 Mostly Clear,72000.0,10000.0,FEW,10000.0,,,,,,
KRDR,05-12-2017,09:58,METAR,Normal,30,6,,,9999.0,,3.3,1.8,30.03,1017.7,,,,,,,,,,,,,,,2/8 Mostly Clear,72000.0,11000.0,FEW,11000.0,,,,,,
KRDR,05-12-2017,08:58,METAR,Normal,40,5,,,9999.0,,3.7,1.8,30.03,1017.7,,,,,,,,,,,,,,,2/8 Mostly Clear,72000.0,11000.0,FEW,11000.0,,,,,,
KRDR,05-12-2017,07:58,METAR,Normal,20,3,,,9999.0,,5.5,2.7,30.03,1017.7,,,,,,,,,,,,,,,,10000.0,11000.0,BKN,11000.0,,,,,,
KRDR,05-12-2017,06:58,METAR,Normal,10,3,,,9999.0,,6.3,3.5,30.04,1018.1,,,,,,,,,,,,,,,Clear,72000.0,,,,,,,,,
KRDR,05-12-2017,05:58,METAR,Normal,70,7,,,9999.0,,10.2,2.6,30.04,1018.0,,,,,,,,,,,,,,,Clear,72000.0,,,,,,,,,
KRDR,05-12-2017,04:58,METAR,Normal,70,9,,,9999.0,,11.3,3.1,30.03,1017.7,,,,,,,,,,,,,,,Clear,72000.0,,,,,,,,,
KRDR,05-12-2017,03:58,METAR,Normal,30,8,,,9999.0,,9.1,4.6,30.03,1017.8,,,,,,,,,,,,,,,Clear,72000.0,,,,,,,,,
KRDR,05-12-2017,02:58,METAR,Calm,,0,,,9999.0,,13.7,4.5,30.02,1017.3,,,,,,,,,,,,,,,Clear,72000.0,,,,,,,,,
KRDR,05-12-2017,02:08,SPECI,Normal,160,4,,,9999.0,,16.0,4.0,30.02,1017.3,,,,,,,,,,,,,,,2/8 Mostly Clear,72000.0,12000.0,FEW,12000.0,,,,,,
KRDR,05-12-2017,02:03,SPECI,Normal,140,3,,,2400.0,Haze Smoke or Dust,16.0,4.0,30.02,1017.3,05,,,,,,,,,,,,,,Clear,72000.0,,,,,,,,,
KRDR,05-12-2017,01:58,METAR,Normal,160,4,,,9999.0,,15.9,4.8,30.02,1017.3,,,,,,,,,,,,,,,Clear,72000.0,,,,,,,,,
KRDR,05-12-2017,00:58,METAR,Normal,50,4,,,9999.0,,18.2,4.8,30.02,1017.3,,,,,,,,,,,,,,,Clear,72000.0,,,,,,,,,
KRDR,05-11-2017,23:58,METAR,Calm,,0,,,9999.0,,19.7,2.7,30.02,1017.5,,,,,,,,,,,,,,,4/8 Partly Cloudy,72000.0,10000.0,SCT,10000.0,,,,,,
KRDR,05-11-2017,22:58,METAR,Normal,20,4,,,9999.0,,19.9,4.1,30.04,1018.2,,,,,,,,,,,,,,,Clear,72000.0,,,,,,,,,
KRDR,05-11-2017,21:58,METAR,Calm,,0,,,9999.0,,19.3,3.2,30.05,1018.5,,,,,,,,,,,,,,,,9500.0,9500.0,BKN,9600.0,,,,,,
KRDR,05-11-2017,20:58,METAR,Normal,310,5,,,9999.0,,19.3,3.9,30.07,1019.2,,,,,,,,,,,,,,,2/8 Mostly Clear,72000.0,10000.0,FEW,10000.0,,,,,,
KRDR,05-11-2017,19:58,METAR,Calm,,0,,,9999.0,,18.0,2.8,30.09,1019.9,,,,,,,,,,,,,,,Clear,72000.0,,,,,,,,,
KRDR,05-11-2017,18:58,METAR,Normal,200,3,,,9999.0,,16.4,2.5,30.11,1020.6,,,,,,,,,,,,,,,Clear,72000.0,,,,,,,,,
KRDR,05-11-2017,17:58,METAR,Normal,190,8,,,9999.0,,15.7,1.8,30.12,1021.0,,,,,,,,,,,,,,,Clear,72000.0,,,,,,,,,
KRDR,05-11-2017,16:58,METAR,Normal,190,3,,,9999.0,,14.9,0.6,30.14,1021.7,,,,,,,,,,,,,,,Clear,72000.0,,,,,,,,,
KRDR,05-11-2017,15:58,METAR,Calm,,0,,,9999.0,,13.4,0.4,30.16,1022.4,,,,,,,,,,,,,,,Clear,72000.0,,,,,,,,,
KRDR,05-11-2017,14:58,METAR,Normal,250,4,,,9999.0,,12.5,-0.8,30.16,1022.4,,,,,,,,,,,,,,,Clear,72000.0,,,,,,,,,
KRDR,05-11-2017,13:58,METAR,Calm,,0,,,9999.0,,10.0,0.6,30.15,1021.9,,,,,,,,,,,,,,,Clear,72000.0,,,,,,,,,
KRDR,05-11-2017,12:58,METAR,Calm,,0,,,9999.0,,6.9,3.2,30.15,1021.9,,,,,,,,,,,,,,,Clear,72000.0,,,,,,,,,
KRDR,05-11-2017,11:58,METAR,Calm,,0,,,9999.0,,1.3,1.2,30.14,1021.8,,,,,,,,,,,,,,,Clear,72000.0,,,,,,,,,
KRDR,05-11-2017,10:58,METAR,Calm,,0,,,9999.0,,-0.1,-0.2,30.12,1021.2,,,,,,,,,,,,,,,Clear,72000.0,,,,,,,,,
KRDR,05-11-2017,09:58,METAR,Normal,270,5,,,9999.0,,0.3,0.2,30.11,1020.9,,,,,,,,,,,,,,,Clear,72000.0,,,,,,,,,
KRDR,05-11-2017,08:58,METAR,Normal,260,3,,,9999.0,,0.1,0.0,30.10,1020.5,,,,,,,,,,,,,,,Clear,72000.0,,,,,,,,,
KRDR,05-11-2017,07:58,METAR,Normal,300,3,,,9999.0,,1.2,1.1,30.10,1020.5,,,,,,,,,,,,,,,Clear,72000.0,,,,,,,,,
KRDR,05-11-2017,06:58,METAR,Calm,,0,,,9999.0,,1.6,1.3,30.10,1020.5,,,,,,,,,,,,,,,Clear,72000.0,,,,,,,,,
KRDR,05-11-2017,05:58,METAR,Normal,290,3,,,9999.0,,2.3,1.6,30.09,,,,,,,,,,,,,,,,Clear,72000.0,,,,,,,,,
KRDR,05-11-2017,04:58,METAR,Calm,,0,,,9999.0,,2.9,0.7,30.09,,,,,,,,,,,,,,,,Clear,72000.0,,,,,,,,,
KRDR,05-11-2017,03:58,METAR,Normal,20,3,,,9999.0,,4.5,0.8,30.08,,,,,,,,,,,,,,,,Clear,72000.0,,,,,,,,,
KRDR,05-11-2017,02:58,METAR,Normal,30,6,,,9999.0,,6.4,1.3,30.07,1019.4,,,,,,,,,,,,,,,,5500.0,5500.0,BKN,5500.0,,,,,,
KRDR,05-11-2017,01:58,METAR,Normal,40,8,,,9999.0,,9.0,2.2,30.04,,,,,,,,,,,,,,,,,5500.0,5500.0,OVC,5500.0,,,,,,
KRDR,05-11-2017,00:58,METAR,Normal,330,3,,,9999.0,,11.5,3.5,30.03,1017.9,,,,,,,,,,,,,,,,5500.0,5500.0,OVC,5500.0,,,,,,
KRDR,05-10-2017,23:58,METAR,Normal,330,6,,,9999.0,,11.8,2.5,30.02,1017.6,,,,,,,,,,,,,,,,5000.0,5000.0,OVC,5000.0,,,,,,
KRDR,05-10-2017,22:58,METAR,Normal,350,8,,,9999.0,,12.0,2.2,30.01,1017.2,,,,,,,,,,,,,,,,4800.0,4800.0,OVC,4800.0,,,,,,
KRDR,05-10-2017,21:58,METAR,Normal,330,10,,,9999.0,,11.6,2.5,30.00,1016.9,,,,,,,,,,,,,,,,4400.0,4400.0,OVC,4400.0,,,,,,
KRDR,05-10-2017,20:58,METAR,Normal,330,10,,,9999.0,,12.0,2.8,30.00,1016.9,,,,,,,,,,,,,,,,4000.0,4000.0,OVC,4000.0,,,,,,
KRDR,05-10-2017,19:58,METAR,Normal,360,11,,,9999.0,,11.8,3.1,29.99,1016.5,,,,,,,,,,,,,,,,4000.0,4000.0,OVC,4000.0,,,,,,
KRDR,05-10-2017,18:59,METAR,Normal,360,7,,,9999.0,,10.6,3.5,30.00,1016.8,,,,,,,,,,,,,,,,3300.0,3300.0,BKN,3300.0,OVC,3900.0,,,,
KRDR,05-10-2017,17:58,METAR,Normal,310,12,,,9999.0,,10.0,4.0,30.06,1015.9,,,,,,,,,,,,,,,,2000.0,2000.0,BKN,2000.0,,,,,,
KRDR,05-10-2017,16:55,METAR,Normal,320,5,,,9999.0,,9.0,4.0,30.05,1015.6,,,,,,,,,,,,,,,,2000.0,2000.0,BKN,2000.0,BKN,2500.0,,,,
KRDR,05-10-2017,15:55,METAR,Normal,310,7,,,9999.0,,9.0,3.0,30.05,1015.7,,,,,,,,,,,,,,,,4000.0,3000.0,FEW,3000.0,OVC,4000.0,,,,
KRDR,05-10-2017,14:58,METAR,Normal,330,11,,,9999.0,,9.0,4.0,30.05,1015.4,,,,,,,,,,,,,,,,4500.0,2000.0,FEW,2000.0,OVC,4500.0,,,,
KRDR,05-10-2017,13:58,METAR,Normal,330,9,,,9999.0,,8.0,3.4,30.04,1015.2,,,,,,,,,,,,,,,,4000.0,4000.0,BKN,4000.0,,,,,,
KRDR,05-10-2017,12:58,METAR,Normal,360,8,,,9999.0,,7.3,3.3,29.95,1014.9,,,,,,,,,,,,,,,,3600.0,3600.0,BKN,3600.0,,,,,,
KRDR,05-10-2017,11:58,METAR,Normal,330,6,,,9999.0,,6.1,3.6,29.93,1014.3,,,,,,,,,,,,,,,Clear,72000.0,,,,,,,,,
KRDR,05-10-2017,10:58,METAR,Normal,320,4,,,9999.0,,5.3,3.3,29.92,1013.9,,,,,,,,,,,,,,,4/8 Partly Cloudy,72000.0,9000.0,SCT,9100.0,,,,,,
KRDR,05-10-2017,09:58,METAR,Normal,340,5,,,9999.0,,5.6,3.3,29.90,1013.2,,,,,,,,,,,,,,,,9500.0,9500.0,BKN,9600.0,,,,,,
KRDR,05-10-2017,08:58,METAR,Normal,360,6,,,9999.0,,6.2,3.0,29.88,1012.6,,,,,,,,,,,,,,,2/8 Mostly Clear,72000.0,10000.0,FEW,10000.0,,,,,,
KRDR,05-10-2017,07:58,METAR,Normal,360,7,,,9999.0,,6.7,3.3,29.88,1012.5,,,,,,,,,,,,,,,Clear,72000.0,,,,,,,,,
KRDR,05-10-2017,06:58,METAR,Normal,10,9,,,9999.0,,8.7,3.9,29.87,1012.2,,,,,,,,,,,,,,,Clear,72000.0,,,,,,,,,
KRDR,05-10-2017,05:58,METAR,Normal,10,13,,,9999.0,,11.4,5.3,29.85,1011.4,,,,,,,,,,,,,,,Clear,72000.0,,,,,,,,,
KRDR,05-10-2017,04:58,METAR,Normal,320,7,,,9999.0,,13.9,5.8,29.83,1010.7,,,,,,,,,,,,,,,Clear,72000.0,,,,,,,,,
KRDR,05-10-2017,03:58,METAR,Normal,270,6,,,9999.0,,15.2,5.1,29.82,1010.4,,,,,,,,,,,,,,,4/8 Partly Cloudy,72000.0,10000.0,SCT,10000.0,,,,,,
KRDR,05-10-2017,02:58,METAR,Normal,260,6,,,9999.0,,14.7,5.5,29.82,1010.5,,,,,,,,,,,,,,,,10000.0,10000.0,OVC,10000.0,,,,,,
KRDR,05-10-2017,01:58,METAR,Normal,260,7,,,9999.0,,16.7,4.5,29.81,1010.0,,,,,,,,,,,,,,,,10000.0,10000.0,OVC,10000.0,,,,,,
KRDR,05-10-2017,00:58,METAR,Normal,260,6,,,9999.0,,18.3,4.4,29.83,,,,,,,,,,,,,,,,,10000.0,10000.0,OVC,10000.0,,,,,,
KRDR,05-09-2017,23:58,METAR,Normal,280,6,,,9999.0,,19.7,3.3,29.85,,,,,,,,,,,,,,,,,9500.0,9500.0,BKN,9600.0,,,,,,
KRDR,05-09-2017,22:58,METAR,Normal,290,10,,,9999.0,,20.1,2.7,29.87,,,,,,,,,,,,,,,,,,9000.0,FEW,9100.0,,,,,,
KRDR,05-09-2017,22:01,SPECI,Normal,280,14,18.0,,9999.0,,20.0,3.0,29.89,,,,,,,,,,,,,,,,,8000.0,8000.0,OVC,8000.0,,,,,,
KRDR,05-09-2017,21:58,METAR,Normal,290,14,18.0,,9999.0,,20.9,3.6,29.88,,,,,,,,,,,,,,,,,8000.0,8000.0,OVC,8000.0,,,,,,
KRDR,05-09-2017,21:38,SPECI,Normal,330,12,,,9999.0,,20.0,3.0,29.89,,,,,,,,,,,,,,,,,8000.0,8000.0,OVC,8000.0,,,,,,
KRDR,05-09-2017,20:58,METAR,Normal,320,11,,,9999.0,,19.7,2.9,29.90,,,,,,,,,,,,,,,,,7500.0,7500.0,BKN,7500.0,,,,,,
KRDR,05-09-2017,19:58,METAR,Normal,320,16,23.0,,9999.0,,19.5,4.2,29.91,,,,,,,,,,,,,,,,,,6000.0,FEW,6000.0,,,,,,
KRDR,05-09-2017,18:58,METAR,Normal,330,14,21.0,,9999.0,,18.6,5.2,29.93,,,,,,,,,,,,,,,,,,5500.0,FEW,5500.0,,,,,,
KRDR,05-09-2017,17:58,METAR,Normal,320,16,21.0,,9999.0,,17.7,6.1,29.95,,,,,,,,,,,,,,,,,,4900.0,FEW,4900.0,,,,,,
KRDR,05-09-2017,16:58,METAR,Normal,330,11,,,9999.0,,15.8,5.6,29.98,,,,,,,,,,,,,,,,Clear,72000.0,,,,,,,,,
KRDR,05-09-2017,15:58,METAR,Normal,360,14,20.0,,9999.0,,14.5,5.1,29.98,,,,,,,,,,,,,,,,Clear,72000.0,,,,,,,,,
KRDR,05-09-2017,14:58,METAR,Normal,340,16,20.0,,9999.0,,13.2,5.4,29.99,,,,,,,,,,,,,,,,Clear,72000.0,,,,,,,,,
KRDR,05-09-2017,13:58,METAR,Normal,330,13,,,9999.0,,12.0,6.0,29.99,1016.3,,,,,,,,,,,,,,,Clear,72000.0,,,,,,,,,
KRDR,05-09-2017,12:58,METAR,Normal,310,11,,,9999.0,,10.4,6.2,29.99,1016.4,,,,,,,,,,,,,,,Clear,72000.0,,,,,,,,,
KRDR,05-09-2017,11:58,METAR,Normal,250,6,,,9999.0,,7.7,4.7,29.98,1016.1,,,,,,,,,,,,,,.26 IN,Clear,72000.0,,,,,,,,,
KRDR,05-09-2017,10:58,METAR,Normal,270,6,,,9999.0,,6.4,3.4,29.97,1015.8,,,,,,,,,,,,,,,Clear,72000.0,,,,,,,,,
KRDR,05-09-2017,09:58,METAR,Normal,280,6,,,9999.0,,6.7,4.0,29.97,1015.8,,,,,,,,,,,,,,,Clear,72000.0,,,,,,,,,
KRDR,05-09-2017,08:58,METAR,Normal,300,7,,,9999.0,,8.7,5.3,29.97,1015.8,,,,,,,,,,,,,,,Clear,72000.0,,,,,,,,,
KRDR,05-09-2017,07:58,METAR,Normal,310,7,,,9999.0,,8.8,6.7,29.98,1016.1,,,,,,,,,,,,,,,,,5500.0,SCT,5500.0,,,,,,
KRDR,05-09-2017,06:58,METAR,Normal,270,5,,,9999.0,,7.5,6.3,29.96,1015.3,,,,,,,,,,,,,,,Clear,72000.0,,,,,,,,,
KRDR,05-09-2017,05:58,METAR,Normal,270,5,,,9999.0,,8.2,7.2,29.96,1015.2,,,,,,,,,,,,,,,Clear,72000.0,,,,,,,,,
KRDR,05-09-2017,04:58,METAR,Normal,300,6,,,9999.0,,10.9,8.1,29.95,1014.8,,,,,,,,,,,,,,,Clear,72000.0,,,,,,,,,
KRDR,05-09-2017,03:58,METAR,Normal,310,5,,,9999.0,,12.4,10.7,29.95,1014.8,,,,,,,,,,,,,,,,5500.0,5500.0,BKN,5500.0,,,,,,
KRDR,05-09-2017,02:58,METAR,Normal,340,8,,,9999.0,,14.1,11.6,29.92,1013.8,,,,,,,,,,,,,,,,3900.0,3900.0,OVC,3900.0,,,,,,
KRDR,05-08-2017,23:09,SPECI,Normal,220,6,,,9999.0,,14.0,12.0,29.91,1013.6,,,,,,,,,,,,,,,,1700.0,1700.0,BKN,1700.0,OVC,2200.0,,,,
KRDR,05-08-2017,22:58,METAR,Normal,210,6,,,9999.0,,13.4,11.7,29.91,1013.6,,,,,,,,,,,,,,,,2000.0,2000.0,OVC,2000.0,,,,,,
KRDR,05-08-2017,22:38,SPECI,Normal,200,6,,,9999.0,,14.0,12.0,29.91,1013.6,,,,,,,,,,,,,,,,2000.0,2000.0,BKN,2000.0,OVC,3800.0,,,,
KRDR,05-08-2017,21:58,METAR,Normal,210,6,,,9999.0,,13.5,10.9,29.90,1013.3,,,,,,,,,,,,,,,,3500.0,3500.0,OVC,3500.0,,,,,,
KRDR,05-08-2017,20:58,METAR,Normal,230,10,,,9999.0,,12.6,11.9,29.90,1013.2,,,,,,,,,,,.11 IN,.26 IN,,,,3200.0,3200.0,OVC,3200.0,,,,,,
KRDR,05-08-2017,20:35,SPECI,Normal,250,8,,,9999.0,,12.0,12.0,29.91,1013.6,,,,,,,,,,,,,,,,3400.0,3400.0,BKN,3400.0,OVC,4600.0,,,,
KRDR,05-08-2017,20:23,SPECI,Normal,250,9,,,6400.0,Light Rain/Mist,12.0,11.0,29.90,1013.3,61,10,,,,,,,,,,,,,,5500.0,3500.0,SCT,3500.0,OVC,5500.0,,,,
KRDR,05-08-2017,20:18,SPECI,Normal,250,7,,,3200.0,Light Rain/Mist,12.0,11.0,29.90,1013.3,61,10,,,,,,,,,,,,,,5500.0,3500.0,FEW,3500.0,OVC,5500.0,,,,
KRDR,05-08-2017,20:13,SPECI,Normal,260,10,,,2800.0,Rain/Mist,12.0,11.0,29.90,1013.3,62,10,,,,,,,,,,,,,,6000.0,6000.0,OVC,6000.0,,,,,,
KRDR,05-08-2017,20:08,SPECI,Normal,260,10,,,4000.0,Light Rain/Mist,12.0,11.0,29.89,1013.0,61,10,,,,,,,,,,,,,,6500.0,6500.0,OVC,6500.0,,,,,,
KRDR,05-08-2017,19:58,METAR,Normal,250,12,,,3200.0,Rain/Mist,11.8,10.8,29.89,1013.0,62,10,,,,,,,,,.15 IN,,,,,6500.0,6500.0,OVC,6500.0,,,,,,
KRDR,05-08-2017,19:57,SPECI,Normal,250,12,,,3200.0,Rain/Mist,12.0,11.0,29.89,1013.0,62,10,,,,,,,,,,,,,,6500.0,6500.0,OVC,6500.0,,,,,,
KRDR,05-08-2017,19:42,SPECI,Normal,220,15,,,9999.0,Light Rain,12.0,10.0,29.87,1012.3,61,,,,,,,,,,,,,,,8000.0,8000.0,OVC,8000.0,,,,,,
KRDR,05-08-2017,19:31,SPECI,Normal,210,11,,,9999.0,,13.0,10.0,29.87,1012.2,,,,,,,,,,,,,,,,8000.0,8000.0,OVC,8000.0,,,,,,
KRDR,05-08-2017,19:14,SPECI,Normal,200,11,,,8000.0,Rain,16.0,10.0,29.86,1011.7,62,,,,,,,,,,,,,,,7000.0,500.0,FEW,500.0,SCT,5500.0,OVC,7000.0,,
KRDR,05-08-2017,19:09,SPECI,Normal,180,9,,,9999.0,Rain,18.0,8.0,29.86,1011.7,62,,,,,,,,,,,,,,,7000.0,5500.0,SCT,5500.0,OVC,7000.0,,,,
KRDR,05-08-2017,19:03,SPECI,Normal,190,7,,,9999.0,Thunderstorm and Rain or Snow Showers,19.0,6.0,29.86,1011.7,92,,,,,,,,,,,,,,,5500.0,5500.0,BKN,5500.0,OVC,7000.0,,,,
KRDR,05-08-2017,18:58,METAR,Normal,170,7,,,9999.0,Dry Thunderstorm,18.9,5.1,29.86,1011.7,91,,,,,,,,,,,,,,,5500.0,5500.0,BKN,5500.0,OVC,12000.0,,,,
KRDR,05-08-2017,18:54,SPECI,Normal,180,7,,,9999.0,Dry Thunderstorm,19.0,5.0,29.85,1011.3,91,,,,,,,,,,,,,,,5500.0,5500.0,BKN,5500.0,OVC,12000.0,,,,
KRDR,05-08-2017,17:58,METAR,Normal,220,12,,,9999.0,,20.8,4.0,29.85,1011.3,,,,,,,,,,,,,,,Clear,72000.0,,,,,,,,,
KRDR,05-08-2017,16:58,METAR,Normal,180,14,20.0,,9999.0,,19.5,3.2,29.84,1010.9,,,,,,,,,,,,,,,Clear,72000.0,,,,,,,,,
KRDR,05-08-2017,15:58,METAR,Normal,140,18,22.0,,9999.0,,18.1,1.0,29.84,1010.9,,,,,,,,,,,,,,,Clear,72000.0,,,,,,,,,
KRDR,05-08-2017,14:58,METAR,Normal,150,15,24.0,,9999.0,,15.8,0.2,29.85,1011.3,,,,,,,,,,,,,,,Clear,72000.0,,,,,,,,,
KRDR,05-08-2017,13:58,METAR,Normal,150,16,,,9999.0,,14.2,0.1,29.87,1012.1,,,,,,,,,,,,,,,Clear,72000.0,,,,,,,,,
KRDR,05-08-2017,12:58,METAR,Normal,140,11,,,9999.0,,12.6,-0.3,29.87,1012.0,,,,,,,,,,,,,,,Clear,72000.0,,,,,,,,,
KRDR,05-08-2017,11:58,METAR,Normal,130,12,,,9999.0,,11.1,0.9,29.84,1011.1,,,,,,,,,,,,,,,Clear,72000.0,,,,,,,,,
KRDR,05-08-2017,10:58,METAR,Normal,140,13,,,9999.0,,10.6,1.9,29.83,1010.6,,,,,,,,,,,,,,,Clear,72000.0,,,,,,,,,
KRDR,05-08-2017,09:58,METAR,Normal,130,9,,,9999.0,,11.5,2.7,29.84,1010.9,,,,,,,,,,,,,,,Clear,72000.0,,,,,,,,,
KRDR,05-08-2017,08:58,METAR,Normal,130,11,,,9999.0,,12.3,2.8,29.86,1011.6,,,,,,,,,,,,,,,Clear,72000.0,,,,,,,,,
KRDR,05-08-2017,07:58,METAR,Normal,130,11,,,9999.0,,12.0,3.3,29.85,1011.2,,,,,,,,,,,,,,,Clear,72000.0,,,,,,,,,
KRDR,05-08-2017,06:58,METAR,Normal,140,11,,,9999.0,,13.0,3.6,29.87,1011.9,,,,,,,,,,,,,,,Clear,72000.0,,,,,,,,,
KRDR,05-08-2017,05:58,METAR,Normal,130,7,,,9999.0,,12.3,3.9,29.89,1012.7,,,,,,,,,,,,,TRACE,,Clear,72000.0,,,,,,,,,
KRDR,05-08-2017,04:58,METAR,Normal,140,7,,,9999.0,,13.1,4.3,29.88,,,,,,,,,,,,,,,,Clear,72000.0,,,,,,,,,
KRDR,05-08-2017,03:58,METAR,Normal,130,11,,,9999.0,,15.0,4.5,29.87,,,,,,,,,,,,,,,,Clear,72000.0,,,,,,,,,
KRDR,05-08-2017,02:58,METAR,Normal,130,10,,,9999.0,,15.5,5.8,29.88,,,,,,,,,,,,,TRACE,,,4/8 Partly Cloudy,72000.0,12000.0,SCT,12000.0,,,,,,
KRDR,05-08-2017,01:58,METAR,Normal,140,10,,,9999.0,,16.0,6.5,29.88,,,,,,,,,,,,,,,,Clear,72000.0,,,,,,,,,
KRDR,05-08-2017,00:58,METAR,Normal,120,10,,,9999.0,,17.6,7.6,29.87,,,,,,,,,,,,TRACE,,,,Clear,72000.0,,,,,,,,,
KRDR,05-08-2017,00:35,SPECI,Normal,120,13,,,9999.0,,18.0,8.0,29.86,,,,,,,,,,,,,,,,2/8 Mostly Clear,72000.0,12000.0,FEW,12000.0,,,,,,
KRDR,05-08-2017,00:22,SPECI,Normal,120,12,,,9999.0,Light Rain,18.0,9.0,29.86,,61,,,,,,,,,,,,,,4/8 Partly Cloudy,72000.0,12000.0,SCT,12000.0,,,,,,
KRDR,05-08-2017,00:13,SPECI,Normal,120,12,,,9999.0,,18.0,9.0,29.86,,,,,,,,,,,,,,,,,12000.0,1100.0,FEW,1100.0,BKN,12000.0,,,,
KRDR,05-07-2017,23:59,SPECI,Normal,130,10,,,9999.0,,18.0,9.0,29.86,,,,,,,,,,,,,,,,,11000.0,3700.0,SCT,3700.0,SCT,5500.0,BKN,11000.0,,
KRDR,05-07-2017,23:58,METAR,Normal,130,10,,,9999.0,Light Rain,17.7,8.5,29.86,,61,,,,,,,,,,.02 IN,,.02 IN,,,11000.0,3300.0,SCT,3300.0,SCT,5500.0,BKN,11000.0,,
KRDR,05-07-2017,23:38,SPECI,Normal,130,13,,,9999.0,Light Rain,21.0,6.0,29.88,,61,,,,,,,,,,,,,,,7000.0,5500.0,SCT,5500.0,BKN,7000.0,BKN,10000.0,,
KRDR,05-07-2017,22:58,METAR,Normal,110,12,,,9999.0,,21.8,3.8,29.89,,,,,,,,,,,,,,,,,11000.0,11000.0,BKN,11000.0,,,,,,
KRDR,05-07-2017,21:58,METAR,Normal,130,16,19.0,,9999.0,,23.9,4.2,29.87,,,,,,,,,,,,,,,,Clear,72000.0,,,,,,,,,
KRDR,05-07-2017,20:58,METAR,Normal,120,15,,,9999.0,,23.7,4.7,29.88,,,,,,,,,,,,,,,,Clear,72000.0,,,,,,,,,
KRDR,05-07-2017,19:58,METAR,Normal,130,13,,,9999.0,,23.2,3.9,29.90,,,,,,,,,,,,,,,,Clear,72000.0,,,,,,,,,
KRDR,05-07-2017,18:58,METAR,Normal,130,13,22.0,140/26KTS,9999.0,,21.5,4.0,29.92,,,,,,,,,,,,,,,,Clear,72000.0,,,,,,,,,
KRDR,05-07-2017,17:58,METAR,Normal,110,13,19.0,,9999.0,,20.5,4.0,29.95,,,,,,,,,,,,,,,,Clear,72000.0,,,,,,,,,
KRDR,05-07-2017,16:58,METAR,Normal,130,13,,,9999.0,,19.1,4.4,29.97,1015.5,,,,,,,,,,,,,,,Clear,72000.0,,,,,,,,,
KRDR,05-07-2017,15:58,METAR,Normal,140,13,,,9999.0,,17.3,4.0,29.98,1015.9,,,,,,,,,,,,,,,Clear,72000.0,,,,,,,,,
KRDR,05-07-2017,14:58,METAR,Normal,130,13,,,9999.0,,14.9,3.4,29.99,1016.2,,,,,,,,,,,,,,,Clear,72000.0,,,,,,,,,
KRDR,05-07-2017,13:58,METAR,Normal,130,14,,,9999.0,,12.9,2.8,29.99,1016.2,,,,,,,,,,,,,,,Clear,72000.0,,,,,,,,,
KRDR,05-07-2017,12:58,METAR,Normal,120,11,,,9999.0,,10.3,2.9,29.98,1015.8,,,,,,,,,,,,,,,Clear,72000.0,,,,,,,,,
KRDR,05-07-2017,11:58,METAR,Normal,120,7,,,9999.0,,7.6,2.4,29.99,1016.2,,,,,,,,,,,,,,,Clear,72000.0,,,,,,,,,
KRDR,05-07-2017,10:58,METAR,Normal,110,5,,,9999.0,,6.9,2.6,29.99,1016.2,,,,,,,,,,,,,,,Clear,72000.0,,,,,,,,,
KRDR,05-07-2017,09:58,METAR,Normal,110,7,,,9999.0,,7.1,3.2,29.99,1016.2,,,,,,,,,,,,,,,Clear,72000.0,,,,,,,,,
KRDR,05-07-2017,08:58,METAR,Normal,120,4,,,9999.0,,5.6,2.7,30.00,1016.6,,,,,,,,,,,,,,,Clear,72000.0,,,,,,,,,
KRDR,05-07-2017,07:58,METAR,Calm,,0,,,9999.0,,6.2,3.7,30.00,1016.6,,,,,,,,,,,,,,,Clear,72000.0,,,,,,,,,
KRDR,05-07-2017,06:58,METAR,Normal,100,7,,,9999.0,,7.8,4.5,29.99,1016.2,,,,,,,,,,,,,,,Clear,72000.0,,,,,,,,,
KRDR,05-07-2017,05:58,METAR,Normal,80,4,,,9999.0,,8.8,4.4,30.00,1016.5,,,,,,,,,,,,,,,Clear,72000.0,,,,,,,,,
KRDR,05-07-2017,04:58,METAR,Normal,80,6,,,9999.0,,9.8,4.4,29.99,1016.2,,,,,,,,,,,,,,,Clear,72000.0,,,,,,,,,
KRDR,05-07-2017,03:58,METAR,Normal,90,8,,,9999.0,,11.0,4.7,29.98,1015.9,,,,,,,,,,,,,,,Clear,72000.0,,,,,,,,,
KRDR,05-07-2017,02:58,METAR,Normal,90,10,,,9999.0,,12.7,4.8,29.98,1015.9,,,,,,,,,,,,,,,Clear,72000.0,,,,,,,,,
KRDR,05-07-2017,01:58,METAR,Normal,90,12,,,9999.0,,15.0,4.8,29.95,1014.9,,,,,,,,,,,,,,,Clear,72000.0,,,,,,,,,
KRDR,05-07-2017,00:58,METAR,Normal,90,12,,,9999.0,,18.8,2.3,29.93,1014.1,,,,,,,,,,,,,,,Clear,72000.0,,,,,,,,,
KRDR,05-06-2017,23:58,METAR,Normal,100,11,,,9999.0,,21.0,0.4,29.93,1014.2,,,,,,,,,,,,,,,Clear,72000.0,,,,,,,,,
KRDR,05-06-2017,22:58,METAR,Normal,90,9,,,9999.0,,21.7,-1.1,29.93,1014.2,,,,,,,,,,,,,,,Clear,72000.0,,,,,,,,,
KRDR,05-06-2017,21:58,METAR,Normal,90,7,,,9999.0,,21.7,-0.4,29.95,1014.9,,,,,,,,,,,,,,,Clear,72000.0,,,,,,,,,
KRDR,05-06-2017,20:58,METAR,Normal,120,10,,,9999.0,,21.7,-0.6,29.96,1015.2,,,,,,,,,,,,,,,Clear,72000.0,,,,,,,,,
KRDR,05-06-2017,19:58,METAR,Normal,90,8,,,9999.0,,22.1,-0.5,29.97,1015.5,,,,,,,,,,,,,,,Clear,72000.0,,,,,,,,,
KRDR,05-06-2017,18:58,METAR,Normal,30,4,,,9999.0,,21.0,-0.5,29.98,1015.9,,,,,,,,,,,,,,,Clear,72000.0,,,,,,,,,
KRDR,05-06-2017,17:58,METAR,Normal,70,9,,,9999.0,,20.4,0.0,29.99,1016.2,,,,,,,,,,,,,,,Clear,72000.0,,,,,,,,,
KRDR,05-06-2017,16:58,METAR,Normal,60,7,,,9999.0,,19.0,0.2,30.00,1016.6,,,,,,,,,,,,,,,Clear,72000.0,,,,,,,,,
KRDR,05-06-2017,15:58,METAR,Normal,60,4,,,9999.0,,17.3,2.5,30.00,1016.6,,,,,,,,,,,,,,,Clear,72000.0,,,,,,,,,
KRDR,05-06-2017,14:58,METAR,Calm,,0,,,9999.0,,15.1,2.0,30.01,1016.8,,,,,,,,,,,,,,,Clear,72000.0,,,,,,,,,
KRDR,05-06-2017,13:58,METAR,Normal,10,3,,,9999.0,,12.3,2.4,30.01,1016.9,,,,,,,,,,,,,,,Clear,72000.0,,,,,,,,,
KRDR,05-06-2017,12:58,METAR,Normal,20,5,,,9999.0,,9.6,2.9,30.00,1016.5,,,,,,,,,,,,,,,Clear,72000.0,,,,,,,,,
KRDR,05-06-2017,11:58,METAR,Normal,360,6,,,9999.0,,5.3,2.0,29.99,1016.2,,,,,,,,,,,,,,,Clear,72000.0,,,,,,,,,
KRDR,05-06-2017,10:58,METAR,Normal,340,5,,,9999.0,,4.3,0.7,29.98,1015.8,,,,,,,,,,,,,,,Clear,72000.0,,,,,,,,,
KRDR,05-06-2017,09:58,METAR,Normal,340,6,,,9999.0,,5.2,0.9,29.97,1015.4,,,,,,,,,,,,,,,Clear,72000.0,,,,,,,,,
KRDR,05-06-2017,08:58,METAR,Normal,330,4,,,9999.0,,5.0,1.7,29.96,1015.1,,,,,,,,,,,,,,,Clear,72000.0,,,,,,,,,
KRDR,05-06-2017,07:58,METAR,Normal,10,4,,,9999.0,,6.9,1.7,29.94,1014.4,,,,,,,,,,,,,,,Clear,72000.0,,,,,,,,,
KRDR,05-06-2017,06:58,METAR,Normal,360,4,,,9999.0,,6.7,1.8,29.94,1014.4,,,,,,,,,,,,,,,Clear,72000.0,,,,,,,,,
KRDR,05-06-2017,05:58,METAR,Normal,20,8,,,9999.0,,8.3,1.2,29.94,1014.4,,,,,,,,,,,,,,,Clear,72000.0,,,,,,,,,
KRDR,05-06-2017,04:58,METAR,Normal,360,5,,,9999.0,,9.4,2.0,29.94,1014.4,,,,,,,,,,,,,,,Clear,72000.0,,,,,,,,,
KRDR,05-06-2017,03:58,METAR,Normal,30,4,,,9999.0,,11.2,0.4,29.93,1014.0,,,,,,,,,,,,,,,Clear,72000.0,,,,,,,,,
KRDR,05-06-2017,02:58,METAR,Normal,40,8,,,9999.0,,16.0,0.0,29.92,1013.5,,,,,,,,,,,,,,,Clear,72000.0,,,,,,,,,
KRDR,05-06-2017,01:58,SPECI,Normal,70,8,,,9999.0,,18.0,2.2,29.90,1013.7,,,,,,,,,,,,,,,Clear,72000.0,,,,,,,,,
KRDR,05-06-2017,01:58,METAR,Normal,70,8,,,9999.0,,18.0,2.2,29.90,1012.9,,,,,,,,,,,,,,,Clear,72000.0,,,,,,,,,
KRDR,05-06-2017,00:58,METAR,Normal,60,10,,,9999.0,,21.1,3.2,29.88,1012.2,,,,,,,,,,,,,,,Clear,72000.0,,,,,,,,,
KRDR,05-05-2017,23:58,METAR,Normal,30,13,,,9999.0,,23.8,2.2,29.87,1012.0,,,,,,,,,,,,,,,Clear,72000.0,,,,,,,,,
KRDR,05-05-2017,22:58,METAR,Normal,20,18,22.0,,9999.0,,24.9,1.1,29.86,1011.6,,,,,,,,,,,,,,,Clear,72000.0,,,,,,,,,
KRDR,05-05-2017,21:58,METAR,Normal,20,18,22.0,,9999.0,,25.5,1.0,29.86,1011.6,,,,,,,,,,,,,,,Clear,72000.0,,,,,,,,,
KRDR,05-05-2017,20:58,METAR,Normal,30,21,25.0,010/33KTS,9999.0,,25.9,1.6,29.86,1011.6,,,,,,,,,,,,,,,Clear,72000.0,,,,,,,,,
KRDR,05-05-2017,19:58,METAR,Normal,20,16,21.0,,9999.0,,25.7,0.9,29.87,1012.0,,,,,,,,,,,,,,,Clear,72000.0,,,,,,,,,
KRDR,05-05-2017,18:58,METAR,Normal,30,12,24.0,,9999.0,,25.3,2.5,29.88,1012.2,,,,,,,,,,,,,,,Clear,72000.0,,,,,,,,,
KRDR,05-05-2017,17:58,METAR,Normal,20,14,21.0,,9999.0,,24.9,3.0,29.88,1012.2,,,,,,,,,,,,,,,Clear,72000.0,,,,,,,,,
KRDR,05-05-2017,16:58,METAR,Normal,10,13,,,9999.0,,23.8,5.3,29.89,1012.6,,,,,,,,,,,,,,,Clear,72000.0,,,,,,,,,
KRDR,05-05-2017,15:58,METAR,Normal,360,11,,,9999.0,,21.9,4.8,29.88,1012.2,,,,,,,,,,,,,,,Clear,72000.0,,,,,,,,,
KRDR,05-05-2017,14:58,METAR,Normal,360,13,,,9999.0,,20.7,5.5,29.88,1012.3,,,,,,,,,,,,,,,Clear,72000.0,,,,,,,,,
KRDR,05-05-2017,13:58,METAR,Normal,300,8,,,9999.0,,18.3,5.0,29.88,1012.2,,,,,,,,,,,,,,,Clear,72000.0,,,,,,,,,
KRDR,05-05-2017,12:58,METAR,Normal,240,5,,,9999.0,,14.0,5.6,29.89,1012.7,,,,,,,,,,,,,,,Clear,72000.0,,,,,,,,,
KRDR,05-05-2017,11:58,METAR,Calm,,0,,,9999.0,,8.3,3.9,29.90,1013.1,,,,,,,,,,,,,,,Clear,72000.0,,,,,,,,,
KRDR,05-05-2017,10:58,METAR,Normal,220,6,,,9999.0,,9.3,4.1,29.89,1012.7,,,,,,,,,,,,,,,,10000.0,10000.0,BKN,10000.0,,,,,,
KRDR,05-05-2017,09:58,METAR,Normal,220,6,,,9999.0,,9.5,3.9,29.91,1013.3,,,,,,,,,,,,,,,2/8 Mostly Clear,72000.0,11000.0,FEW,11000.0,,,,,,
KRDR,05-05-2017,08:58,METAR,Normal,220,5,,,9999.0,,8.9,4.3,29.92,1013.7,,,,,,,,,,,,,,,,10000.0,10000.0,BKN,10000.0,,,,,,
KRDR,05-05-2017,07:58,METAR,Normal,210,5,,,9999.0,,8.4,3.8,29.92,1013.8,,,,,,,,,,,,,,,Clear,72000.0,,,,,,,,,
KRDR,05-05-2017,06:58,METAR,Normal,180,5,,,9999.0,,10.2,3.4,29.94,1014.4,,,,,,,,,,,,,,,,10000.0,10000.0,BKN,10000.0,,,,,,
KRDR,05-05-2017,05:58,METAR,Normal,180,6,,,9999.0,,11.9,2.5,29.95,1014.8,,,,,,,,,,,,,,,Clear,72000.0,,,,,,,,,
KRDR,05-05-2017,04:58,METAR,Normal,170,6,,,9999.0,,11.3,2.3,29.96,1015.1,,,,,,,,,,,,,,,Clear,72000.0,,,,,,,,,
KRDR,05-05-2017,03:58,METAR,Normal,140,6,,,9999.0,,13.6,2.5,29.97,1015.4,,,,,,,,,,,,,,,Clear,72000.0,,,,,,,,,
KRDR,05-05-2017,02:58,METAR,Calm,,0,,,9999.0,,12.3,5.4,29.99,1016.2,,,,,,,,,,,,,,,Clear,72000.0,,,,,,,,,
KRDR,05-05-2017,01:58,METAR,Normal,110,5,,,9999.0,,16.9,1.9,29.98,1015.8,,,,,,,,,,,,,,,Clear,72000.0,,,,,,,,,
KRDR,05-05-2017,00:58,METAR,Normal,60,6,,,9999.0,,19.0,2.8,29.98,1015.8,,,,,,,,,,,,,,,Clear,72000.0,,,,,,,,,
KRDR,05-04-2017,23:58,METAR,Normal,360,6,,,9999.0,,21.9,0.1,29.98,1015.8,,,,,,,,,,,,,,,Clear,72000.0,,,,,,,,,
KRDR,05-04-2017,22:58,METAR,Normal,300,8,,,9999.0,,22.5,0.4,29.99,1016.2,,,,,,,,,,,,,,,Clear,72000.0,,,,,,,,,
KRDR,05-04-2017,21:58,METAR,Normal,10,10,14.0,,9999.0,,22.7,-0.2,30.00,1016.6,,,,,,,,,,,,,,,Clear,72000.0,,,,,,,,,
KRDR,05-04-2017,20:58,METAR,Normal,330,10,,,9999.0,,22.4,0.7,30.01,1016.9,,,,,,,,,,,,,,,Clear,72000.0,,,,,,,,,
KRDR,05-04-2017,19:58,METAR,Normal,340,12,16.0,,9999.0,,21.8,0.9,30.02,1017.3,,,,,,,,,,,,,,,Clear,72000.0,,,,,,,,,
KRDR,05-04-2017,18:58,METAR,Normal,340,8,20.0,,9999.0,,21.2,1.1,30.03,1017.6,,,,,,,,,,,,,,,2/8 Mostly Clear,72000.0,8500.0,FEW,8600.0,,,,,,
KRDR,05-04-2017,17:58,METAR,Normal,330,7,17.0,,9999.0,,20.2,0.3,30.05,1018.4,,,,,,,,,,,,,,,2/8 Mostly Clear,72000.0,8500.0,FEW,8600.0,,,,,,
KRDR,05-04-2017,16:58,METAR,Normal,340,8,,,9999.0,,19.9,1.2,30.06,1018.7,,,,,,,,,,,,,,,2/8 Mostly Clear,72000.0,8000.0,FEW,8000.0,,,,,,
KRDR,05-04-2017,15:58,METAR,Normal,330,7,,,9999.0,,19.4,2.8,30.08,1019.4,,,,,,,,,,,,,,,Clear,72000.0,,,,,,,,,
KRDR,05-04-2017,14:58,METAR,Normal,300,6,,,9999.0,,16.8,5.0,30.08,1019.4,,,,,,,,,,,,,,,Clear,72000.0,,,,,,,,,
KRDR,05-04-2017,13:58,METAR,Normal,300,10,,,9999.0,,12.6,5.1,30.08,1019.4,,,,,,,,,,,,,,,Clear,72000.0,,,,,,,,,
KRDR,05-04-2017,12:58,METAR,Normal,300,7,,,9999.0,,10.4,4.7,30.08,1019.4,,,,,,,,,,,,,,,Clear,72000.0,,,,,,,,,
KRDR,05-04-2017,11:58,METAR,Normal,270,3,,,9999.0,,6.8,3.0,30.06,1018.7,,,,,,,,,,,,,,,Clear,72000.0,,,,,,,,,
KRDR,05-04-2017,10:58,METAR,Normal,270,3,,,9999.0,,4.4,2.1,30.05,1018.4,,,,,,,,,,,,,,,Clear,72000.0,,,,,,,,,
KRDR,05-04-2017,09:58,METAR,Normal,250,4,,,9999.0,,5.1,2.8,30.05,1018.4,,,,,,,,,,,,,,,Clear,72000.0,,,,,,,,,
KRDR,05-04-2017,08:58,METAR,Normal,260,7,,,9999.0,,5.7,2.9,30.06,1018.8,,,,,,,,,,,,,,,2/8 Mostly Clear,72000.0,9000.0,FEW,9100.0,,,,,,
KRDR,05-04-2017,07:58,METAR,Normal,270,5,,,9999.0,,5.5,2.8,30.05,1018.5,,,,,,,,,,,,,,,Clear,72000.0,,,,,,,,,
KRDR,05-04-2017,06:58,METAR,Normal,270,4,,,9999.0,,5.7,3.2,30.05,1018.5,,,,,,,,,,,,,,,Clear,72000.0,,,,,,,,,
KRDR,05-04-2017,05:58,METAR,Normal,260,4,,,9999.0,,6.4,2.6,30.05,1018.5,,,,,,,,,,,,,,,Clear,72000.0,,,,,,,,,
KRDR,05-04-2017,04:58,METAR,Normal,280,5,,,9999.0,,6.2,3.4,30.05,,,,,,,,,,,,,,,,Clear,72000.0,,,,,,,,,
KRDR,05-04-2017,03:58,METAR,Calm,,0,,,9999.0,,7.5,3.9,30.05,,,,,,,,,,,,,,,,Clear,72000.0,,,,,,,,,
KRDR,05-04-2017,02:58,METAR,Normal,310,6,,,9999.0,,9.3,3.1,30.04,,,,,,,,,,,,,,,,Clear,72000.0,,,,,,,,,
KRDR,05-04-2017,01:58,METAR,Normal,330,4,,,9999.0,,11.9,2.4,30.02,,,,,,,,,,,,,,,,Clear,72000.0,,,,,,,,,
KRDR,05-04-2017,00:58,METAR,Normal,10,6,,,9999.0,,13.4,-0.3,30.00,1016.8,,,,,,,,,,,,,,,Clear,72000.0,,,,,,,,,
KRDR,05-03-2017,23:58,METAR,Normal,30,11,,,9999.0,,17.8,-1.7,29.99,1016.4,,,,,,,,,,,,,TRACE,,Clear,72000.0,,,,,,,,,
KRDR,05-03-2017,22:58,METAR,Normal,20,14,,,9999.0,,18.6,-1.2,29.98,1016.0,,,,,,,,,,,,,,,Clear,72000.0,,,,,,,,,
KRDR,05-03-2017,21:58,METAR,Normal,340,7,18.0,,9999.0,,18.6,1.6,29.97,1015.6,,,,,,,,,,,,,,,Clear,72000.0,,,,,,,,,
KRDR,05-03-2017,20:58,METAR,Normal,10,8,,,9999.0,,17.8,2.6,29.98,1016.0,,,,,,,,,,,,TRACE,,,Clear,72000.0,,,,,,,,,
KRDR,05-03-2017,19:58,METAR,Normal,340,12,,,9999.0,,16.4,6.2,29.99,1016.3,,,,,,,,,,,,,,,4/8 Partly Cloudy,72000.0,4100.0,SCT,4100.0,,,,,,
KRDR,05-03-2017,18:58,METAR,Normal,360,10,,,9999.0,,14.5,7.3,30.00,1016.7,,,,,,,,,,,TRACE,,,,4/8 Partly Cloudy,72000.0,10000.0,SCT,10000.0,,,,,,
KRDR,05-03-2017,18:12,SPECI,Normal,350,11,,,9999.0,,13.0,8.0,30.00,1016.8,,,,,,,,,,,,,,,4/8 Partly Cloudy,72000.0,7000.0,SCT,7000.0,,,,,,
KRDR,05-03-2017,18:01,SPECI,Normal,360,10,,,9999.0,Light Drizzle,12.0,8.0,30.00,1016.8,51,,,,,,,,,,,,,,2/8 Mostly Clear,72000.0,7000.0,FEW,7000.0,,,,,,
KRDR,05-03-2017,17:59,SPECI,Normal,350,12,,,9999.0,,13.0,8.0,30.00,1016.8,,,,,,,,,,,,,,,2/8 Mostly Clear,72000.0,7500.0,FEW,7500.0,,,,,,
KRDR,05-03-2017,17:58,METAR,Normal,350,11,,,9999.0,Light Drizzle,12.6,7.8,30.00,1016.8,51,,,,,,,,,,TRACE,,TRACE,,2/8 Mostly Clear,72000.0,7500.0,FEW,7500.0,,,,,,
KRDR,05-03-2017,17:49,SPECI,Normal,360,12,,,9999.0,Light Rain,13.0,8.0,30.00,1016.8,61,,,,,,,,,,,,,,2/8 Mostly Clear,72000.0,7500.0,FEW,7500.0,,,,,,
KRDR,05-03-2017,17:45,SPECI,Normal,360,13,,,9999.0,,13.0,7.0,30.00,1016.8,,,,,,,,,,,,,,,Clear,72000.0,,,,,,,,,
KRDR,05-03-2017,17:43,SPECI,Normal,350,14,,,9999.0,Light Drizzle,13.0,7.0,30.00,1016.8,51,,,,,,,,,,,,,,2/8 Mostly Clear,72000.0,8500.0,FEW,8600.0,,,,,,
KRDR,05-03-2017,16:58,METAR,Normal,360,13,,,9999.0,,14.7,7.9,29.99,1016.4,,,,,,,,,,,,,,,4/8 Partly Cloudy,72000.0,6000.0,SCT,6000.0,SCT,7500.0,,,,
KRDR,05-03-2017,15:58,METAR,Normal,360,13,,,9999.0,,14.6,6.4,29.97,1015.6,,,,,,,,,,,,,,,,5500.0,7500.0,BKN,7500.0,,,,,,
KRDR,05-03-2017,14:58,METAR,Normal,360,10,,,9999.0,,12.5,6.8,29.96,1015.3,,,,,,,,,,,,,,,,6500.0,6500.0,OVC,6500.0,,,,,,
KRDR,05-03-2017,13:58,METAR,Normal,350,10,,,9999.0,,11.7,6.4,29.95,1014.9,,,,,,,,,,,,,,,Clear,72000.0,,,,,,,,,
KRDR,05-03-2017,12:58,METAR,Normal,310,8,,,9999.0,,8.9,6.1,29.94,1014.6,,,,,,,,,,,,,,,Clear,72000.0,,,,,,,,,
KRDR,05-03-2017,11:58,METAR,Normal,300,6,,,9999.0,,5.7,4.5,29.92,1014.0,,,,,,,,,,,,,,,Clear,72000.0,,,,,,,,,
KRDR,05-03-2017,10:58,METAR,Normal,290,3,,,9999.0,,6.8,5.0,29.91,1013.6,,,,,,,,,,,,,,,4/8 Partly Cloudy,72000.0,6500.0,SCT,6500.0,,,,,,
KRDR,05-03-2017,09:58,METAR,Normal,310,6,,,9999.0,,8.6,5.4,29.90,1013.2,,,,,,,,,,,,,,,,8000.0,8000.0,OVC,8000.0,,,,,,
KRDR,05-03-2017,08:58,METAR,Normal,260,5,,,9999.0,,7.4,5.5,29.89,1012.9,,,,,,,,,,,,,,,,7500.0,7500.0,OVC,7500.0,,,,,,
KRDR,05-03-2017,07:58,METAR,Normal,220,4,,,9999.0,,7.7,4.7,29.88,1012.5,,,,,,,,,,,,,,,4/8 Partly Cloudy,72000.0,10000.0,SCT,10000.0,,,,,,
KRDR,05-03-2017,06:58,METAR,Calm,,0,,,9999.0,,9.1,5.1,29.88,1012.5,,,,,,,,,,,,,,,4/8 Partly Cloudy,72000.0,12000.0,SCT,12000.0,,,,,,
KRDR,05-03-2017,05:58,METAR,Normal,330,6,,,9999.0,,9.1,5.4,29.88,1012.5,,,,,,,,,,,,,,,,10000.0,10000.0,BKN,10000.0,,,,,,
KRDR,05-03-2017,04:58,METAR,Normal,320,5,,,9999.0,,9.7,5.8,29.89,1012.9,,,,,,,,,,,,,,,,10000.0,10000.0,BKN,10000.0,BKN,11000.0,,,,
KRDR,05-03-2017,03:58,METAR,Normal,310,5,,,9999.0,,9.7,6.0,29.89,1013.0,,,,,,,,,,,,,,,,11000.0,11000.0,BKN,11000.0,,,,,,
KRDR,05-03-2017,02:58,METAR,Normal,120,5,,,9999.0,,11.9,5.1,29.88,1012.6,,,,,,,,,,,,,,,,10000.0,10000.0,OVC,10000.0,,,,,,
KRDR,05-03-2017,01:58,METAR,Normal,100,7,,,9999.0,,14.1,4.9,29.87,1012.2,,,,,,,,,,,,,,,,10000.0,10000.0,BKN,10000.0,BKN,12000.0,,,,
KRDR,05-03-2017,00:58,METAR,Calm,,0,,,9999.0,,16.4,2.4,29.86,1011.9,,,,,,,,,,,,,,,,10000.0,10000.0,BKN,10000.0,,,,,,
KRDR,05-02-2017,23:58,METAR,Normal,290,6,,,9999.0,,18.4,1.3,29.86,1011.9,,,,,,,,,,,,,,,2/8 Mostly Clear,72000.0,11000.0,FEW,11000.0,,,,,,
KRDR,05-02-2017,22:58,METAR,Normal,260,7,,,9999.0,,18.1,1.9,29.85,1011.6,,,,,,,,,,,,,,,2/8 Mostly Clear,72000.0,8500.0,FEW,8600.0,,,,,,
KRDR,05-02-2017,21:58,METAR,Calm,,0,,,9999.0,,18.5,-0.6,29.85,1011.5,,,,,,,,,,,,,,,2/8 Mostly Clear,72000.0,9500.0,FEW,9600.0,,,,,,
KRDR,05-02-2017,20:58,METAR,Normal,290,4,,,9999.0,,19.1,-1.0,29.85,1011.5,,,,,,,,,,,,,,,2/8 Mostly Clear,72000.0,9000.0,FEW,9100.0,,,,,,
KRDR,05-02-2017,19:58,METAR,Normal,10,4,,,9999.0,,19.3,-1.5,29.86,1011.8,,,,,,,,,,,,,,,Clear,72000.0,,,,,,,,,
KRDR,05-02-2017,18:58,METAR,Normal,310,4,,,9999.0,,17.5,1.5,29.86,1011.9,,,,,,,,,,,,,,,,10000.0,7000.0,SCT,7000.0,BKN,10000.0,,,,
KRDR,05-02-2017,17:58,METAR,Calm,,0,,,9999.0,,17.5,2.4,29.86,1011.9,,,,,,,,,,,,,,,2/8 Mostly Clear,72000.0,9000.0,FEW,9100.0,,,,,,
KRDR,05-02-2017,16:58,METAR,Calm,,0,,,9999.0,,15.7,3.3,29.87,1012.3,,,,,,,,,,,,,,,,9000.0,9000.0,BKN,9100.0,,,,,,
KRDR,05-02-2017,15:58,METAR,Normal,50,3,,,9999.0,,14.2,2.5,29.86,1012.0,,,,,,,,,,,,,,,,8500.0,8500.0,BKN,8600.0,,,,,,
KRDR,05-02-2017,14:58,METAR,Normal,30,6,,,9999.0,,14.0,3.0,29.85,1011.7,,,,,,,,,,,,,,,Clear,72000.0,,,,,,,,,
KRDR,05-02-2017,13:58,METAR,Normal,360,6,,,9999.0,,12.6,3.3,29.84,1011.3,,,,,,,,,,,,,,,2/8 Mostly Clear,72000.0,8500.0,FEW,8600.0,,,,,,
KRDR,05-02-2017,12:58,METAR,Normal,300,5,,,9999.0,,7.9,2.4,29.82,1010.6,,,,,,,,,,,,,,,,8000.0,8000.0,BKN,8000.0,,,,,,
KRDR,05-02-2017,11:58,METAR,Normal,290,5,,,9999.0,,6.0,1.7,29.81,1010.4,,,,,,,,,,,,,,,Clear,72000.0,,,,,,,,,
KRDR,05-02-2017,10:58,METAR,Normal,300,5,,,9999.0,,5.7,1.5,29.79,1009.6,,,,,,,,,,,,,,,Clear,72000.0,,,,,,,,,
KRDR,05-02-2017,09:58,METAR,Normal,310,6,,,9999.0,,6.1,1.0,29.78,1009.3,,,,,,,,,,,,,,,Clear,72000.0,,,,,,,,,
KRDR,05-02-2017,08:58,METAR,Normal,320,5,,,9999.0,,7.7,0.7,29.77,1008.9,,,,,,,,,,,,,,,,10000.0,8000.0,FEW,8000.0,OVC,10000.0,,,,
KRDR,05-02-2017,07:58,METAR,Normal,310,6,,,9999.0,,7.8,1.0,29.76,1008.5,,,,,,,,,,,,,,,2/8 Mostly Clear,72000.0,8000.0,FEW,8000.0,,,,,,
KRDR,05-02-2017,06:58,METAR,Normal,280,6,,,9999.0,,6.8,1.8,29.75,1008.3,,,,,,,,,,,,,,,,9000.0,6000.0,FEW,6000.0,BKN,9100.0,,,,
KRDR,05-02-2017,05:58,METAR,Normal,260,3,,,9999.0,,7.7,-1.3,29.75,1008.3,,,,,,,,,,,,,,,,8500.0,8500.0,BKN,8600.0,,,,,,
KRDR,05-02-2017,04:58,METAR,Calm,,0,,,9999.0,,6.0,0.7,29.73,1007.6,,,,,,,,,,,,,,,Clear,72000.0,,,,,,,,,
KRDR,05-02-2017,03:58,METAR,Normal,300,6,,,9999.0,,6.6,1.2,29.73,1007.7,,,,,,,,,,,,,,,Clear,72000.0,,,,,,,,,
KRDR,05-02-2017,02:58,METAR,Normal,310,4,,,9999.0,,7.2,0.6,29.72,1007.4,,,,,,,,,,,,,,,Clear,72000.0,,,,,,,,,
KRDR,05-02-2017,01:58,METAR,Calm,,0,,,9999.0,,10.1,-3.4,29.72,1007.4,,,,,,,,,,,,,,,Clear,72000.0,,,,,,,,,
KRDR,05-02-2017,00:58,METAR,Normal,70,7,,,9999.0,,13.0,-5.0,29.71,1007.0,,,,,,,,,,,,,,,Clear,72000.0,,,,,,,,,
KRDR,05-01-2017,23:58,METAR,Normal,50,11,,,9999.0,,14.4,-5.6,29.70,1006.8,,,,,,,,,,,,,,,Clear,72000.0,,,,,,,,,
KRDR,05-01-2017,22:58,METAR,Normal,60,11,,,9999.0,,15.4,-6.3,29.68,1006.1,,,,,,,,,,,,,,,Clear,72000.0,,,,,,,,,
KRDR,05-01-2017,21:58,METAR,Normal,20,13,,,9999.0,,15.1,-6.7,29.67,,,,,,,,,,,,,,,,Clear,72000.0,,,,,,,,,
KRDR,05-01-2017,20:58,METAR,Normal,40,12,,,9999.0,,15.9,-6.0,29.67,,,,,,,,,,,,,,,,Clear,72000.0,,,,,,,,,
KRDR,05-01-2017,19:58,METAR,Normal,40,12,,,9999.0,,15.6,-4.9,29.67,,,,,,,,,,,,,,,,Clear,72000.0,,,,,,,,,
KRDR,05-01-2017,18:58,METAR,Normal,50,11,15.0,,9999.0,,15.1,-4.6,29.68,,,,,,,,,,,,,,,,Clear,72000.0,,,,,,,,,
KRDR,05-01-2017,17:58,METAR,Normal,50,11,,,9999.0,,13.7,-5.8,29.71,1007.0,,,,,,,,,,,,,,,Clear,72000.0,,,,,,,,,
KRDR,05-01-2017,16:58,METAR,Normal,30,10,,,9999.0,,12.4,-5.6,29.73,1007.7,,,,,,,,,,,,,,,Clear,72000.0,,,,,,,,,
KRDR,05-01-2017,15:58,METAR,Normal,40,8,,,9999.0,,11.3,-7.1,29.73,1007.8,,,,,,,,,,,,,,,Clear,72000.0,,,,,,,,,
KRDR,05-01-2017,14:58,METAR,Normal,60,7,,,9999.0,,8.7,-3.4,29.74,1008.1,,,,,,,,,,,,,,,Clear,72000.0,,,,,,,,,
KRDR,05-01-2017,13:58,METAR,Normal,30,6,,,9999.0,,7.0,-2.9,29.76,1008.6,,,,,,,,,,,,,,,Clear,72000.0,,,,,,,,,
KRDR,05-01-2017,12:58,METAR,Normal,10,5,,,9999.0,,3.9,-1.9,29.76,1008.7,,,,,,,,,,,,,,,Clear,72000.0,,,,,,,,,
KRDR,05-01-2017,11:58,METAR,Normal,360,4,,,9999.0,,0.4,-2.5,29.77,1009.1,,,,,,,,,,,,,,,Clear,72000.0,,,,,,,,,
KRDR,05-01-2017,10:58,METAR,Normal,360,4,,,9999.0,,-0.3,-2.4,29.77,1009.1,,,,,,,,,,,,,,,Clear,72000.0,,,,,,,,,
KRDR,05-01-2017,09:58,METAR,Normal,350,6,,,9999.0,,0.3,-1.9,29.77,1009.1,,,,,,,,,,,,,,,Clear,72000.0,,,,,,,,,
KRDR,05-01-2017,08:58,METAR,Calm,,0,,,9999.0,,2.4,-2.8,29.78,1009.4,,,,,,,,,,,,,,,Clear,72000.0,,,,,,,,,
KRDR,05-01-2017,07:58,METAR,Normal,90,6,,,9999.0,,4.0,-2.7,29.80,1010.0,,,,,,,,,,,,,,,Clear,72000.0,,,,,,,,,
KRDR,05-01-2017,06:58,METAR,Normal,90,6,,,9999.0,,3.5,-2.1,29.82,1010.7,,,,,,,,,,,,,,,Clear,72000.0,,,,,,,,,
KRDR,05-01-2017,05:58,METAR,Normal,80,6,,,9999.0,,4.0,-1.2,29.83,1011.1,,,,,,,,,,,,,,,Clear,72000.0,,,,,,,,,
KRDR,05-01-2017,04:58,METAR,Normal,40,3,,,9999.0,,4.7,-0.7,29.85,1011.8,,,,,,,,,,,,,,,Clear,72000.0,,,,,,,,,
KRDR,05-01-2017,03:58,METAR,Normal,40,5,,,9999.0,,5.0,2.8,29.87,1012.5,,,,,,,,,,,,,,,Clear,72000.0,,,,,,,,,
KRDR,05-01-2017,02:58,METAR,Calm,,0,,,9999.0,,5.7,1.3,29.88,1012.8,,,,,,,,,,,,,,,Clear,72000.0,,,,,,,,,
KRDR,05-01-2017,01:58,METAR,Normal,100,3,,,9999.0,,11.8,-3.1,29.89,1013.0,,,,,,,,,,,,,,,Clear,72000.0,,,,,,,,,
KRDR,05-01-2017,00:58,METAR,Normal,100,6,,,9999.0,,13.6,-3.1,29.89,1013.1,,,,,,,,,,,,,,,Clear,72000.0,,,,,,,,,
KRDR,04-30-2017,23:58,METAR,Normal,90,10,,,9999.0,,15.6,-6.1,29.90,1013.5,,,,,,,,,,,,,,,Clear,72000.0,,,,,,,,,
KRDR,04-30-2017,22:58,METAR,Normal,90,8,,,9999.0,,16.0,-3.7,29.90,1013.5,,,,,,,,,,,,,,,Clear,72000.0,,,,,,,,,
KRDR,04-30-2017,21:58,METAR,Normal,90,12,,,9999.0,,16.4,-3.4,29.92,1014.2,,,,,,,,,,,,,,,Clear,72000.0,,,,,,,,,
KRDR,04-30-2017,20:58,METAR,Normal,80,12,15.0,,9999.0,,16.5,-3.1,29.95,1015.1,,,,,,,,,,,,,,,Clear,72000.0,,,,,,,,,
KRDR,04-30-2017,19:58,METAR,Normal,80,11,19.0,,9999.0,,15.9,-2.9,29.98,1016.1,,,,,,,,,,,,,,,Clear,72000.0,,,,,,,,,
KRDR,04-30-2017,18:58,METAR,Normal,120,7,,,9999.0,,15.5,-3.7,30.00,1016.8,,,,,,,,,,,,,,,Clear,72000.0,,,,,,,,,
KRDR,04-30-2017,17:58,METAR,Normal,110,8,,,9999.0,,14.2,-3.3,30.04,1018.2,,,,,,,,,,,,,,,Clear,72000.0,,,,,,,,,
KRDR,04-30-2017,16:58,METAR,Normal,150,9,,,9999.0,,13.2,-2.8,30.08,1019.5,,,,,,,,,,,,,,,Clear,72000.0,,,,,,,,,
KRDR,04-30-2017,15:58,METAR,Normal,170,6,,,9999.0,,12.2,-0.7,30.09,1019.8,,,,,,,,,,,,,,,Clear,72000.0,,,,,,,,,
KRDR,04-30-2017,14:58,METAR,Normal,170,4,,,9999.0,,11.3,-1.0,30.11,1020.6,,,,,,,,,,,,,,,Clear,72000.0,,,,,,,,,
KRDR,04-30-2017,13:58,METAR,Normal,200,6,,,9999.0,,8.5,0.0,30.13,1021.3,,,,,,,,,,,,,,,Clear,72000.0,,,,,,,,,
KRDR,04-30-2017,12:58,METAR,Normal,170,5,,,9999.0,,6.1,-0.7,30.14,1021.6,,,,,,,,,,,,,,,Clear,72000.0,,,,,,,,,
KRDR,04-30-2017,11:58,METAR,Normal,180,6,,,9999.0,,2.7,-2.6,30.15,1022.0,,,,,,,,,,,,,,,Clear,72000.0,,,,,,,,,
KRDR,04-30-2017,10:58,METAR,Normal,180,5,,,9999.0,,1.6,-2.5,30.17,1022.7,,,,,,,,,,,,,,,Clear,72000.0,,,,,,,,,
KRDR,04-30-2017,09:58,METAR,Calm,,0,,,9999.0,,1.7,0.0,30.15,1022.0,,,,,,,,,,,,,,,Clear,72000.0,,,,,,,,,
KRDR,04-30-2017,08:58,METAR,Calm,,0,,,9999.0,,3.0,0.3,30.15,1022.0,,,,,,,,,,,,,,,Clear,72000.0,,,,,,,,,
KRDR,04-30-2017,07:58,METAR,Normal,200,3,,,9999.0,,5.6,-1.5,30.16,1022.3,,,,,,,,,,,,,,,Clear,72000.0,,,,,,,,,
KRDR,04-30-2017,06:58,METAR,Normal,200,6,,,9999.0,,4.0,-0.2,30.19,1023.4,,,,,,,,,,,,,,,Clear,72000.0,,,,,,,,,
KRDR,04-30-2017,05:58,METAR,Normal,190,4,,,9999.0,,5.7,-0.6,30.19,1023.3,,,,,,,,,,,,,,,Clear,72000.0,,,,,,,,,
KRDR,04-30-2017,04:58,METAR,Normal,180,7,,,9999.0,,7.7,-0.7,30.21,1024.0,,,,,,,,,,,,,,,Clear,72000.0,,,,,,,,,
KRDR,04-30-2017,03:58,METAR,Normal,150,7,,,9999.0,,8.7,-1.5,30.22,1024.3,,,,,,,,,,,,,,,Clear,72000.0,,,,,,,,,
KRDR,04-30-2017,02:58,METAR,Normal,150,5,,,9999.0,,9.1,-2.4,30.21,1024.1,,,,,,,,,,,,,,,Clear,72000.0,,,,,,,,,
KRDR,04-30-2017,01:58,METAR,Normal,150,5,,,9999.0,,11.4,-2.0,30.21,1024.1,,,,,,,,,,,,,,,Clear,72000.0,,,,,,,,,
KRDR,04-30-2017,00:58,METAR,Normal,120,6,,,9999.0,,13.6,-5.0,30.22,1024.4,,,,,,,,,,,,,,,Clear,72000.0,,,,,,,,,
KRDR,04-29-2017,23:58,METAR,Normal,150,5,,,9999.0,,14.4,-6.7,30.23,1025.0,,,,,,,,,,,,,,,Clear,72000.0,,,,,,,,,
KRDR,04-29-2017,22:58,METAR,Normal,90,3,,,9999.0,,14.9,-6.1,30.26,1026.0,,,,,,,,,,,,,,,Clear,72000.0,,,,,,,,,
KRDR,04-29-2017,21:58,METAR,Normal,150,5,,,9999.0,,15.0,-6.5,30.29,1026.9,,,,,,,,,,,,,,,Clear,72000.0,,,,,,,,,
KRDR,04-29-2017,20:58,METAR,Calm,,0,,,9999.0,,14.7,-6.8,30.31,1027.6,,,,,,,,,,,,,,,Clear,72000.0,,,,,,,,,
KRDR,04-29-2017,19:58,METAR,Normal,120,4,,,9999.0,,13.9,-5.9,30.30,1027.3,,,,,,,,,,,,,,,Clear,72000.0,,,,,,,,,
KRDR,04-29-2017,18:58,METAR,Normal,210,7,,,9999.0,,13.6,-5.0,30.30,1027.3,,,,,,,,,,,,,,,Clear,72000.0,,,,,,,,,
KRDR,04-29-2017,17:58,METAR,Normal,160,5,,,9999.0,,12.9,-5.3,30.33,1028.3,,,,,,,,,,,,,,,Clear,72000.0,,,,,,,,,
KRDR,04-29-2017,16:58,METAR,Normal,210,4,,,9999.0,,11.5,-6.0,30.33,1028.3,,,,,,,,,,,,,,,Clear,72000.0,,,,,,,,,
KRDR,04-29-2017,15:58,METAR,Normal,180,8,,,9999.0,,10.6,-4.2,30.35,1029.0,,,,,,,,,,,,,,,Clear,72000.0,,,,,,,,,
KRDR,04-29-2017,14:58,METAR,Normal,210,5,,,9999.0,,8.6,-6.8,30.34,1028.7,,,,,,,,,,,,,,,Clear,72000.0,,,,,,,,,
KRDR,04-29-2017,13:58,METAR,Calm,,0,,,9999.0,,5.3,-4.8,30.32,1028.1,,,,,,,,,,,,,,,Clear,72000.0,,,,,,,,,
KRDR,04-29-2017,12:58,METAR,Calm,,0,,,9999.0,,3.1,-4.3,30.29,1027.0,,,,,,,,,,,,,,,Clear,72000.0,,,,,,,,,
KRDR,04-29-2017,11:58,METAR,Normal,340,4,,,9999.0,,-1.9,-4.1,30.26,1026.1,,,,,,,,,,,,,,,Clear,72000.0,,,,,,,,,
KRDR,04-29-2017,10:58,METAR,Calm,,0,,,9999.0,,-2.6,-3.9,30.26,1026.1,,,,,,,,,,,,,,,Clear,72000.0,,,,,,,,,
KRDR,04-29-2017,09:58,METAR,Normal,300,3,,,9999.0,,-2.4,-4.1,30.25,1025.7,,,,,,,,,,,,,,,Clear,72000.0,,,,,,,,,
KRDR,04-29-2017,08:58,METAR,Calm,,0,,,9999.0,,-1.8,-3.9,30.24,1025.4,,,,,,,,,,,,,,,Clear,72000.0,,,,,,,,,
KRDR,04-29-2017,07:58,METAR,Calm,,0,,,9999.0,,-1.0,-3.8,30.23,1025.0,,,,,,,,,,,,,,,Clear,72000.0,,,,,,,,,
KRDR,04-29-2017,06:58,METAR,Normal,340,4,,,9999.0,,-0.4,-4.3,30.21,1024.4,,,,,,,,,,,,,,,Clear,72000.0,,,,,,,,,
KRDR,04-29-2017,05:58,METAR,Normal,330,4,,,9999.0,,0.4,-3.6,30.21,1024.4,,,,,,,,,,,,,,,Clear,72000.0,,,,,,,,,
KRDR,04-29-2017,04:58,METAR,Normal,350,4,,,9999.0,,1.9,-4.3,30.19,1023.7,,,,,,,,,,,,,,,Clear,72000.0,,,,,,,,,
KRDR,04-29-2017,03:58,METAR,Normal,340,4,,,9999.0,,2.0,-3.7,30.17,1023.0,,,,,,,,,,,,,,,Clear,72000.0,,,,,,,,,
KRDR,04-29-2017,02:58,METAR,Normal,340,4,,,9999.0,,3.5,-2.7,30.15,1022.4,,,,,,,,,,,,,,,Clear,72000.0,,,,,,,,,
KRDR,04-29-2017,01:58,METAR,Normal,340,5,,,9999.0,,5.2,-1.9,30.13,1021.7,,,,,,,,,,,,,,,Clear,72000.0,,,,,,,,,
KRDR,04-29-2017,00:58,METAR,Normal,10,9,,,9999.0,,8.7,-5.7,30.10,1020.6,,,,,,,,,,,,,,,Clear,72000.0,,,,,,,,,
KRDR,04-28-2017,23:58,METAR,Normal,20,13,,,9999.0,,10.6,-8.2,30.07,1019.5,,,,,,,,,,,,,,,Clear,72000.0,,,,,,,,,
KRDR,04-28-2017,22:58,METAR,Normal,20,14,,,9999.0,,11.0,-7.0,30.05,1018.9,,,,,,,,,,,,,,,Clear,72000.0,,,,,,,,,
KRDR,04-28-2017,21:58,METAR,Normal,360,14,,,9999.0,,11.6,-6.5,30.03,1018.1,,,,,,,,,,,,,,,Clear,72000.0,,,,,,,,,
KRDR,04-28-2017,20:58,METAR,Normal,20,17,22.0,040/27KTS,9999.0,,11.3,-7.5,30.02,1017.9,,,,,,,,,,,,,,,Clear,72000.0,,,,,,,,,
KRDR,04-28-2017,19:58,METAR,Normal,20,13,20.0,,9999.0,,10.8,-5.0,30.02,1017.9,,,,,,,,,,,,,,,Clear,72000.0,,,,,,,,,
KRDR,04-28-2017,18:58,METAR,Normal,10,11,,,9999.0,,9.5,-4.6,30.01,1017.5,,,,,,,,,,,,,,,Clear,72000.0,,,,,,,,,
KRDR,04-28-2017,17:58,METAR,Normal,20,12,,,9999.0,,8.7,-4.2,30.00,1017.3,,,,,,,,,,,,,,,Clear,72000.0,,,,,,,,,
KRDR,04-28-2017,16:58,METAR,Normal,10,14,,,9999.0,,7.8,-5.2,29.99,1016.9,,,,,,,,,,,,,,,Clear,72000.0,,,,,,,,,
KRDR,04-28-2017,15:58,METAR,Normal,360,14,,,9999.0,,6.5,-5.6,29.98,1016.6,,,,,,,,,,,,,,,Clear,72000.0,,,,,,,,,
KRDR,04-28-2017,14:58,METAR,Normal,350,11,,,9999.0,,4.2,-4.3,29.96,1016.0,,,,,,,,,,,,,,,Clear,72000.0,,,,,,,,,
KRDR,04-28-2017,13:58,METAR,Normal,350,11,,,9999.0,,3.1,-2.8,29.95,1015.6,,,,,,,,,,,,,,,Clear,72000.0,,,,,,,,,
KRDR,04-28-2017,12:58,METAR,Normal,310,7,,,9999.0,,1.4,-2.6,29.94,1015.3,,,,,,,,,,,,,,,Clear,72000.0,,,,,,,,,
KRDR,04-28-2017,11:58,METAR,Normal,330,5,,,9999.0,,-0.7,-4.0,29.93,1014.9,,,,,,,,,,,,,,.02 IN,Clear,72000.0,,,,,,,,,
KRDR,04-28-2017,10:58,METAR,Normal,300,6,,,9999.0,,-1.7,-3.8,29.92,1014.6,,,,,,,,,,,,,,,Clear,72000.0,,,,,,,,,
KRDR,04-28-2017,09:58,METAR,Normal,320,6,,,9999.0,,-1.3,-3.3,29.90,1013.9,,,,,,,,,,,,,,,Clear,72000.0,,,,,,,,,
KRDR,04-28-2017,08:58,METAR,Normal,310,4,,,9999.0,,-1.9,-2.9,29.87,1012.9,,,,,,,,,,,,,,,4/8 Partly Cloudy,72000.0,4900.0,SCT,4900.0,,,,,,
KRDR,04-28-2017,07:58,METAR,Normal,310,4,,,9999.0,,-2.2,-3.6,29.86,1012.6,,,,,,,,,,,,,,,Clear,72000.0,,,,,,,,,
KRDR,04-28-2017,06:58,METAR,Normal,300,5,,,9999.0,,-1.3,-3.2,29.85,1012.3,,,,,,,,,,,,,,,2/8 Mostly Clear,72000.0,2900.0,FEW,2900.0,,,,,,
KRDR,04-28-2017,05:58,METAR,Normal,310,5,,,9999.0,,-1.1,-2.3,29.85,1012.4,,,,,,,,,,,,,,,Clear,72000.0,,,,,,,,,
KRDR,04-28-2017,04:58,METAR,Normal,300,5,,,9999.0,,-0.6,-2.3,29.83,1011.7,,,,,,,,,,,,,,,,6000.0,6000.0,BKN,6000.0,,,,,,
KRDR,04-28-2017,03:58,METAR,Normal,360,5,,,9999.0,,-0.4,-2.3,29.82,1011.4,,,,,,,,,,,,,,,4/8 Partly Cloudy,72000.0,5000.0,SCT,5000.0,,,,,,
KRDR,04-28-2017,03:08,SPECI,Normal,30,10,,,9999.0,,2.0,-2.0,29.81,1011.0,,,,,,,,,,,,,,,,3000.0,3000.0,BKN,3000.0,,,,,,
KRDR,04-28-2017,02:58,METAR,Normal,30,14,,,9999.0,,2.0,-1.7,29.80,1010.6,,,,,,,,,,,,,,,,2800.0,2800.0,BKN,2800.0,,,,,,
KRDR,04-28-2017,02:54,SPECI,Normal,40,13,,,9999.0,,2.0,-2.0,29.80,1010.6,,,,,,,,,,,,,,,,2900.0,2900.0,BKN,2900.0,,,,,,
KRDR,04-28-2017,01:58,METAR,Normal,10,17,,,9999.0,,3.0,-1.2,29.75,1008.9,,,,,,,,,,,,,,,Clear,72000.0,,,,,,,,,
KRDR,04-28-2017,00:58,METAR,Normal,50,5,,,9999.0,,4.3,-0.6,29.72,1008.0,,,,,,,,,,,,,,,,4400.0,4400.0,BKN,4400.0,,,,,,
KRDR,04-27-2017,23:58,METAR,Normal,40,13,,,9999.0,,5.9,-0.8,29.69,1006.9,,,,,,,,,,,,,,,,4700.0,4700.0,OVC,4700.0,,,,,,
KRDR,04-27-2017,22:58,METAR,Normal,40,16,24.0,020/26KTS,9999.0,,7.0,-0.5,29.67,1006.1,,,,,,,,,,,,,,,,4500.0,4500.0,OVC,4500.0,,,,,,
KRDR,04-27-2017,21:58,METAR,Normal,20,17,22.0,030/27KTS,9999.0,,6.7,-0.7,29.65,1005.5,,,,,,,,,,,,,,,,4200.0,4200.0,OVC,4200.0,,,,,,
KRDR,04-27-2017,20:58,METAR,Normal,10,16,22.0,,9999.0,,7.0,-1.0,29.66,1005.8,,,,,,,,,,,,,,,,4500.0,4500.0,BKN,4500.0,,,,,,
KRDR,04-27-2017,19:58,METAR,Normal,10,16,20.0,,9999.0,,6.0,-0.9,29.67,1006.1,,,,,,,,,,,,,,,,3800.0,3800.0,BKN,3800.0,BKN,4700.0,,,,
KRDR,04-27-2017,18:58,METAR,Normal,30,12,,,9999.0,,4.2,-2.4,29.68,1006.6,,,,,,,,,,,,,,,,4600.0,3700.0,FEW,3700.0,BKN,4600.0,,,,
KRDR,04-27-2017,18:44,SPECI,Normal,40,11,,,9999.0,,4.0,-3.0,29.68,1006.6,,,,,,,,,,,,,,,4/8 Partly Cloudy,72000.0,3700.0,SCT,3700.0,SCT,4600.0,,,,
KRDR,04-27-2017,17:58,METAR,Normal,20,12,,,9999.0,,2.4,-4.3,29.69,1007.0,,,,,,,,,,,,,,,Clear,72000.0,,,,,,,,,
KRDR,04-27-2017,16:58,METAR,Normal,10,13,,,9999.0,,1.3,-6.0,29.70,1007.3,,,,,,,,,,,.01 IN,,,,2/8 Mostly Clear,72000.0,4000.0,FEW,4000.0,,,,,,
KRDR,04-27-2017,15:58,METAR,Normal,20,10,,,9999.0,,0.6,-5.8,29.71,1007.6,,,,,,,,,,,.01 IN,,,,,4100.0,4100.0,OVC,4100.0,,,,,,
KRDR,04-27-2017,14:58,METAR,Normal,360,8,,,9999.0,,-0.8,-5.7,29.71,1007.6,,,,,,,,,,,,,,,Clear,72000.0,,,,,,,,,
KRDR,04-27-2017,13:58,METAR,Normal,10,8,,,9999.0,,-1.6,-6.0,29.72,1008.1,,,,,,,,,,,,,,,Clear,72000.0,,,,,,,,,
KRDR,04-27-2017,12:58,METAR,Normal,350,7,,,9999.0,,-3.6,-6.2,29.74,1008.8,,,,,,,,,,,,,,,Clear,72000.0,,,,,,,,,
KRDR,04-27-2017,11:58,METAR,Normal,350,8,,,9999.0,,-5.4,-6.8,29.73,1008.5,,,,,,,,,,,,,TRACE,,Clear,72000.0,,,,,,,,,
KRDR,04-27-2017,10:58,METAR,Normal,40,11,,,9999.0,,-3.0,-5.3,29.73,1008.4,,,,,,,,,,,,,,,,8000.0,4500.0,SCT,4500.0,OVC,8000.0,,,,
KRDR,04-27-2017,09:58,METAR,Normal,30,8,,,9999.0,,-3.0,-4.1,29.74,1008.8,,,,,,,,,,,TRACE,,,,,3900.0,3900.0,OVC,3900.0,,,,,,
KRDR,04-27-2017,09:41,SPECI,Normal,30,6,,,9999.0,,-3.0,-4.0,29.74,1008.8,,,,,,,,,,,,,,,,3500.0,1000.0,FEW,1000.0,SCT,1400.0,OVC,3500.0,,
KRDR,04-27-2017,09:34,SPECI,Normal,30,8,,,9999.0,,-3.0,-4.0,29.74,1008.8,,,,,,,,,,,,,,,,3500.0,1200.0,SCT,1200.0,SCT,2200.0,OVC,3500.0,,
KRDR,04-27-2017,09:29,SPECI,Normal,30,8,,,9999.0,,-3.0,-4.0,29.74,1008.8,,,,,,,,,,,,,,,,1100.0,1300.0,SCT,1300.0,BKN,2300.0,OVC,3500.0,,
KRDR,04-27-2017,09:24,SPECI,Normal,40,9,,,9999.0,,-3.0,-4.0,29.74,1008.8,,,,,,,,,,,,,,,,1100.0,1000.0,SCT,1000.0,BKN,1500.0,OVC,2300.0,,
KRDR,04-27-2017,09:19,SPECI,Normal,40,8,,,9999.0,,-3.0,-4.0,29.74,1008.7,,,,,,,,,,,,,,,,1100.0,1100.0,BKN,1100.0,OVC,2500.0,,,,
KRDR,04-27-2017,09:00,SPECI,Normal,40,8,,,9999.0,,-3.0,-4.0,29.73,1008.5,,,,,,,,,,,,,,,,2700.0,2700.0,OVC,2700.0,,,,,,
KRDR,04-27-2017,08:58,METAR,Normal,40,8,,,9999.0,Unknown Precipitation,-2.9,-4.3,29.73,1008.5,40,,,,,,,,,,TRACE,TRACE,,,,2800.0,2000.0,FEW,2000.0,OVC,2800.0,,,,
KRDR,04-27-2017,08:48,SPECI,Normal,50,10,,,9999.0,Unknown Precipitation,-3.0,-4.0,29.73,1008.5,40,,,,,,,,,,,,,,,2600.0,2800.0,BKN,2800.0,OVC,3500.0,,,,
KRDR,04-27-2017,08:43,SPECI,Normal,50,9,,,9999.0,Unknown Precipitation,-3.0,-4.0,29.73,1008.5,40,,,,,,,,,,,,,,,2800.0,2400.0,SCT,2400.0,BKN,3000.0,OVC,3600.0,,
KRDR,04-27-2017,08:23,SPECI,Normal,50,12,,,9999.0,Unknown Precipitation,-3.0,-4.0,29.74,1008.8,40,,,,,,,,,,,,,,,900.0,900.0,SCT,900.0,BKN,2600.0,,,,
KRDR,04-27-2017,08:13,SPECI,Normal,50,11,,,9999.0,Unknown Precipitation,-3.0,-4.0,29.74,1008.8,40,,,,,,,,,,,,,,,900.0,900.0,BKN,900.0,BKN,3900.0,,,,
KRDR,04-27-2017,08:08,SPECI,Normal,50,14,,,9999.0,Unknown Precipitation,-2.0,-4.0,29.74,1008.8,40,,,,,,,,,,,,,,,1000.0,1000.0,BKN,1000.0,BKN,3900.0,BKN,4700.0,,
KRDR,04-27-2017,07:58,METAR,Normal,50,12,,,9999.0,Unknown Precipitation,-2.4,-3.7,29.74,1008.8,40,,,,,,,,,,TRACE,,,,,3900.0,1000.0,SCT,1000.0,SCT,1700.0,BKN,3900.0,,
KRDR,04-27-2017,07:23,SPECI,Normal,50,12,,,9999.0,Unknown Precipitation,-2.0,-3.0,29.75,1009.2,40,,,,,,,,,,,,,,,4800.0,800.0,FEW,800.0,SCT,1300.0,OVC,4800.0,,
KRDR,04-27-2017,07:13,SPECI,Normal,50,10,,,9999.0,Unknown Precipitation,-2.0,-3.0,29.74,1008.8,40,,,,,,,,,,,,,,,700.0,700.0,SCT,700.0,BKN,1300.0,OVC,4900.0,,
KRDR,04-27-2017,07:08,SPECI,Normal,50,11,,,9999.0,Unknown Precipitation,-2.0,-3.0,29.75,1009.2,40,,,,,,,,,,,,,,,700.0,700.0,SCT,700.0,BKN,1300.0,OVC,2700.0,,
KRDR,04-27-2017,06:58,METAR,Normal,50,14,,,9999.0,Unknown Precipitation,-1.9,-2.6,29.76,1009.5,40,,,,,,,,,,TRACE,,,,,700.0,700.0,BKN,700.0,OVC,1700.0,,,,
KRDR,04-27-2017,06:43,SPECI,Normal,40,13,,,9999.0,Unknown Precipitation,-2.0,-2.0,29.76,1009.5,40,,,,,,,,,,,,,,,700.0,700.0,BKN,700.0,BKN,1100.0,OVC,1600.0,,
KRDR,04-27-2017,06:33,SPECI,Normal,40,13,,,9999.0,Unknown Precipitation,-2.0,-2.0,29.75,1009.2,40,,,,,,,,,,,,,,,600.0,600.0,BKN,600.0,OVC,1200.0,,,,
KRDR,04-27-2017,06:28,SPECI,Normal,30,12,,,9999.0,Unknown Precipitation/Mist,-2.0,-2.0,29.75,1009.2,40,10,,,,,,,,,,,,,,600.0,600.0,BKN,600.0,OVC,1300.0,,,,
KRDR,04-27-2017,06:08,SPECI,Normal,30,13,,,6400.0,Unknown Precipitation/Mist,-2.0,-2.0,29.75,1009.2,40,10,,,,,,,,,,,,,,600.0,600.0,BKN,600.0,OVC,1500.0,,,,
KRDR,04-27-2017,06:03,SPECI,Normal,30,14,,,6400.0,Unknown Precipitation/Mist,-2.0,-2.0,29.75,1009.2,40,10,,,,,,,,,,,,,,500.0,600.0,SCT,600.0,OVC,1400.0,,,,
KRDR,04-27-2017,05:58,METAR,Normal,30,14,,,6400.0,Unknown Precipitation,-1.8,-2.4,29.75,1009.2,40,,,,,,,,,,TRACE,,TRACE,,,600.0,600.0,BKN,600.0,OVC,1400.0,,,,
KRDR,04-27-2017,05:53,SPECI,Normal,40,13,,,4800.0,Unknown Precipitation,-2.0,-2.0,29.75,1009.2,40,,,,,,,,,,,,,,,600.0,600.0,BKN,600.0,OVC,1500.0,,,,
KRDR,04-27-2017,05:48,SPECI,Normal,30,15,,,4800.0,Unknown Precipitation,-2.0,-2.0,29.75,1009.2,40,,,,,,,,,,,,,,,1500.0,600.0,SCT,600.0,OVC,1500.0,,,,
KRDR,04-27-2017,05:43,SPECI,Normal,40,14,,,4800.0,Unknown Precipitation/Mist,-2.0,-2.0,29.75,1009.2,40,10,,,,,,,,,,,,,,600.0,600.0,SCT,600.0,OVC,1500.0,,,,
KRDR,04-27-2017,05:33,SPECI,Normal,40,13,,,4800.0,Unknown Precipitation/Mist,-2.0,-2.0,29.76,1009.4,40,10,,,,,,,,,,,,,,600.0,700.0,SCT,700.0,OVC,1400.0,,,,
KRDR,04-27-2017,05:28,SPECI,Normal,40,14,,,4000.0,Unknown Precipitation/Mist,-2.0,-2.0,29.76,1009.4,40,10,,,,,,,,,,,,,,1400.0,700.0,SCT,700.0,OVC,1400.0,,,,
KRDR,04-27-2017,05:23,SPECI,Normal,40,14,,,4800.0,Unknown Precipitation/Mist,-2.0,-2.0,29.76,1009.4,40,10,,,,,,,,,,,,,,1400.0,700.0,FEW,700.0,OVC,1400.0,,,,
KRDR,04-27-2017,05:03,SPECI,Normal,40,14,,,4800.0,Light Snow/Mist,-1.0,-2.0,29.76,1009.4,71,10,,,,,,,,,,,,,,1200.0,700.0,FEW,700.0,OVC,1200.0,,,,
KRDR,04-27-2017,04:58,METAR,Normal,40,15,,,4000.0,Unknown Precipitation/Mist,-1.4,-2.1,29.77,1009.8,40,10,,,,,,,,,TRACE,,,,,1100.0,700.0,SCT,700.0,OVC,1100.0,,,,
KRDR,04-27-2017,04:53,SPECI,Normal,40,16,,,4000.0,Unknown Precipitation/Mist,-1.0,-2.0,29.77,1009.8,40,10,,,,,,,,,,,,,,1100.0,700.0,SCT,700.0,OVC,1100.0,,,,
KRDR,04-27-2017,04:48,SPECI,Normal,40,16,,,4000.0,Light Snow/Mist,-1.0,-2.0,29.77,1009.8,71,10,,,,,,,,,,,,,,700.0,700.0,SCT,700.0,OVC,1300.0,,,,
KRDR,04-27-2017,04:43,SPECI,Normal,40,15,,,4000.0,Light Snow/Mist,-1.0,-2.0,29.77,1009.8,71,10,,,,,,,,,,,,,,700.0,700.0,SCT,700.0,OVC,1700.0,,,,
KRDR,04-27-2017,04:38,SPECI,Normal,40,13,,,4800.0,Light Snow/Mist,-1.0,-2.0,29.77,1009.8,71,10,,,,,,,,,,,,,,2000.0,700.0,SCT,700.0,OVC,2000.0,,,,
KRDR,04-27-2017,03:58,METAR,Normal,20,15,22.0,,6400.0,Unknown Precipitation/Mist,-1.2,-1.9,29.77,1009.8,40,10,,,,,,,,,TRACE,,,,,2100.0,700.0,SCT,700.0,OVC,2100.0,,,,
KRDR,04-27-2017,03:43,SPECI,Normal,30,17,,,4800.0,Unknown Precipitation/Mist,-1.0,-2.0,29.78,1010.1,40,10,,,,,,,,,,,,,,1600.0,700.0,SCT,700.0,OVC,1600.0,,,,
KRDR,04-27-2017,03:33,SPECI,Normal,20,15,,,4800.0,Unknown Precipitation/Mist,-1.0,-2.0,29.78,1010.1,40,10,,,,,,,,,,,,,,1300.0,600.0,FEW,600.0,OVC,1300.0,,,,
KRDR,04-27-2017,03:28,SPECI,Normal,30,16,,,4800.0,Unknown Precipitation/Mist,-1.0,-2.0,29.78,1010.1,40,10,,,,,,,,,,,,,,1200.0,600.0,FEW,600.0,OVC,1200.0,,,,
KRDR,04-27-2017,03:23,SPECI,Normal,20,16,,,4000.0,Light Snow/Mist,-1.0,-2.0,29.78,1010.1,71,10,,,,,,,,,,,,,,1200.0,600.0,FEW,600.0,OVC,1200.0,,,,
KRDR,04-27-2017,03:18,SPECI,Normal,20,14,,,2800.0,Light Snow/Mist,-1.0,-2.0,29.78,1010.1,71,10,,,,,,,,,,,,,,1000.0,1000.0,OVC,1000.0,,,,,,
KRDR,04-27-2017,03:13,SPECI,Normal,20,14,,,2400.0,Light Snow/Mist,-1.0,-2.0,29.78,1010.1,71,10,,,,,,,,,,,,,,1000.0,600.0,FEW,600.0,OVC,1000.0,,,,
KRDR,04-27-2017,03:08,SPECI,Normal,20,14,,,2800.0,Light Snow/Mist,-1.0,-2.0,29.79,1010.5,71,10,,,,,,,,,,,,,,1000.0,600.0,FEW,600.0,OVC,1000.0,,,,
KRDR,04-27-2017,02:58,METAR,Normal,20,13,,,3200.0,Light Snow/Mist,-1.2,-1.6,29.79,,71,10,,,,,,,,,.5 IN,1.5 IN,,,,1000.0,600.0,FEW,600.0,OVC,1000.0,,,,
KRDR,04-27-2017,02:53,SPECI,Normal,20,14,,,2800.0,Light Snow/Mist,-1.0,-2.0,29.79,,71,10,,,,,,,,,,,,,,1000.0,600.0,FEW,600.0,OVC,1000.0,,,,
KRDR,04-27-2017,02:38,SPECI,Normal,30,16,,,3200.0,Light Snow/Mist,-1.0,-2.0,29.79,,71,10,,,,,,,,,,,,,,1000.0,600.0,FEW,600.0,OVC,1000.0,,,,
KRDR,04-27-2017,02:33,SPECI,Normal,20,14,,,2800.0,Light Snow/Mist,-1.0,-2.0,29.79,,71,10,,,,,,,,,,,,,,1000.0,1000.0,OVC,1000.0,,,,,,
KRDR,04-27-2017,02:18,SPECI,Normal,20,15,,,2400.0,Light Snow/Mist,-1.0,-2.0,29.79,,71,10,,,,,,,,,,,,,,1000.0,1000.0,OVC,1000.0,,,,,,
KRDR,04-27-2017,01:58,METAR,Normal,30,16,,,2400.0,Light Snow/Mist,-1.3,-1.9,29.78,,71,10,,,,,,,,,.75 IN,,,,,900.0,900.0,OVC,900.0,,,,,,
KRDR,04-27-2017,01:54,SPECI,Normal,30,17,,,1600.0,Light Snow/Mist,-1.0,-2.0,29.78,,71,10,,,,,,,,,,,,,Sky Obscured (Unable to Estimate),900.0,900.0,,900.0,,,,,,
KRDR,04-27-2017,01:49,SPECI,Normal,30,18,,,1200.0,Light Snow/Mist,-1.0,-2.0,29.78,1010.1,71,10,,,,,,,,,,,,,Sky Obscured (Unable to Estimate),900.0,900.0,,900.0,,,,,,
KRDR,04-27-2017,01:44,SPECI,Normal,20,17,,,1600.0,Light Snow/Mist,-1.0,-2.0,29.78,1010.1,71,10,,,,,,,,,,,,,,1200.0,500.0,SCT,500.0,OVC,1200.0,,,,
KRDR,04-27-2017,01:39,SPECI,Normal,20,17,22.0,,1600.0,Light Snow/Mist,-1.0,-1.0,29.78,1010.1,71,10,,,,,,,,,,,,,Sky Obscured (Unable to Estimate),1000.0,1000.0,,1000.0,,,,,,
KRDR,04-27-2017,01:33,SPECI,Normal,30,13,,,1600.0,Light Snow/Mist,-1.0,-2.0,29.78,1010.1,71,10,,,,,,,,,,,,,Sky Obscured (Unable to Estimate),1000.0,1000.0,,1000.0,,,,,,
KRDR,04-27-2017,01:28,SPECI,Normal,40,13,,,1600.0,Light Snow/Mist,-1.0,-2.0,29.78,1010.1,71,10,,,,,,,,,,,,,Sky Obscured (Unable to Estimate),900.0,900.0,,900.0,,,,,,
KRDR,04-27-2017,01:23,SPECI,Normal,40,15,,,1600.0,Light Snow/Mist,-1.0,-2.0,29.78,1010.1,71,10,,,,,,,,,,,,,Sky Obscured (Unable to Estimate),900.0,900.0,,900.0,,,,,,
KRDR,04-27-2017,01:13,SPECI,Normal,40,16,,,1600.0,Light Snow/Mist,-1.0,-2.0,29.78,1010.1,71,10,,,,,,,,,,,,,,800.0,600.0,FEW,600.0,OVC,1000.0,,,,
KRDR,04-27-2017,01:03,SPECI,Normal,30,15,,,1600.0,Light Snow/Mist,0.0,-1.0,29.78,1010.0,71,10,,,,,,,,,,,,,Sky Obscured (Unable to Estimate),800.0,800.0,,800.0,,,,,,
KRDR,04-27-2017,00:58,METAR,Normal,30,14,,,2000.0,Light Snow/Mist,-0.7,-1.4,29.78,1010.0,71,10,,,,,,,,,.25 IN,,,,,600.0,600.0,SCT,600.0,OVC,1100.0,,,,
KRDR,04-27-2017,00:53,SPECI,Normal,30,14,,,2400.0,Light Snow/Mist,0.0,-1.0,29.78,1010.0,71,10,,,,,,,,,,,,,,600.0,600.0,SCT,600.0,OVC,1100.0,,,,
KRDR,04-27-2017,00:43,SPECI,Normal,30,13,,,3200.0,Light Snow/Mist,0.0,-1.0,29.78,1010.0,71,10,,,,,,,,,,,,,,600.0,600.0,BKN,600.0,OVC,1300.0,,,,
KRDR,04-27-2017,00:38,SPECI,Normal,30,13,,,2800.0,Light Snow/Mist,0.0,-1.0,29.78,1010.0,71,10,,,,,,,,,,,,,,600.0,600.0,BKN,600.0,OVC,1400.0,,,,
KRDR,04-27-2017,00:33,SPECI,Normal,30,12,,,2400.0,Light Snow/Mist,0.0,-2.0,29.78,1010.0,71,10,,,,,,,,,,,,,,600.0,600.0,SCT,600.0,OVC,1400.0,,,,
KRDR,04-27-2017,00:28,SPECI,Normal,30,13,,,2400.0,Light Snow/Mist,0.0,-2.0,29.78,1010.0,71,10,,,,,,,,,,,,,,600.0,600.0,SCT,600.0,OVC,1500.0,,,,
KRDR,04-27-2017,00:03,SPECI,Normal,30,13,,,3200.0,Light Snow/Mist,0.0,-2.0,29.78,1010.1,71,10,,,,,,,,,,,,,,600.0,700.0,SCT,700.0,OVC,1300.0,,,,
KRDR,04-26-2017,23:58,METAR,Normal,30,15,,,2400.0,Light Snow/Mist,-0.8,-1.8,29.78,1010.1,71,10,,,,,,,,,TRACE,,.13 IN,,,700.0,700.0,SCT,700.0,OVC,1100.0,,,,
KRDR,04-26-2017,23:53,SPECI,Normal,30,15,,,2400.0,Light Snow/Mist,0.0,-2.0,29.78,1010.1,71,10,,,,,,,,,,,,,,700.0,700.0,SCT,700.0,OVC,1100.0,,,,
KRDR,04-26-2017,23:43,SPECI,Normal,30,14,,,4000.0,Light Snow/Mist,0.0,-2.0,29.78,1010.1,71,10,,,,,,,,,,,,,,700.0,800.0,SCT,800.0,OVC,1200.0,,,,
KRDR,04-26-2017,23:33,SPECI,Normal,30,13,,,8000.0,Light Snow/Mist,0.0,-2.0,29.77,1009.7,71,10,,,,,,,,,,,,,,900.0,900.0,OVC,900.0,,,,,,
KRDR,04-26-2017,23:18,SPECI,Normal,20,14,,,6400.0,Light Snow/Mist,0.0,-2.0,29.78,1010.0,71,10,,,,,,,,,,,,,,1100.0,700.0,SCT,700.0,OVC,1100.0,,,,
KRDR,04-26-2017,23:13,SPECI,Normal,20,13,,,4800.0,Light Snow/Mist,0.0,-2.0,29.78,1010.0,71,10,,,,,,,,,,,,,,900.0,900.0,OVC,900.0,,,,,,
KRDR,04-26-2017,23:08,SPECI,Normal,20,11,,,3200.0,Light Snow/Mist,0.0,-2.0,29.78,1010.0,71,10,,,,,,,,,,,,,,900.0,900.0,OVC,900.0,,,,,,
KRDR,04-26-2017,23:03,SPECI,Normal,20,11,,,2800.0,Light Snow/Mist,0.0,-2.0,29.78,1010.0,71,10,,,,,,,,,,,,,,1100.0,700.0,FEW,700.0,OVC,1100.0,,,,
KRDR,04-26-2017,22:58,METAR,Normal,30,12,,,1600.0,Light Snow/Mist,-0.9,-2.0,29.78,1010.0,71,10,,,,,,,,,TRACE,,,,Sky Obscured (Unable to Estimate),1000.0,1000.0,,1000.0,,,,,,
KRDR,04-26-2017,22:54,SPECI,Normal,20,12,,,1600.0,Light Snow/Mist,0.0,-2.0,29.78,1010.0,71,10,,,,,,,,,,,,,,1000.0,700.0,FEW,700.0,OVC,1000.0,,,,
KRDR,04-26-2017,22:49,SPECI,Normal,20,12,,,1200.0,Light Snow/Mist,-1.0,-2.0,29.78,1010.1,71,10,,,,,,,,,,,,,,1100.0,700.0,FEW,700.0,OVC,1100.0,,,,
KRDR,04-26-2017,22:44,SPECI,Normal,30,12,,,1600.0,Light Snow/Mist,0.0,-2.0,29.78,1010.0,71,10,,,,,,,,,,,,,,1200.0,700.0,FEW,700.0,OVC,1200.0,,,,
KRDR,04-26-2017,22:39,SPECI,Normal,30,12,,,2000.0,Light Snow/Mist,0.0,-2.0,29.78,1010.0,71,10,,,,,,,,,,,,,,1300.0,700.0,SCT,700.0,OVC,1300.0,,,,
KRDR,04-26-2017,22:29,SPECI,Normal,30,14,,,2800.0,Light Snow/Mist,-1.0,-2.0,29.78,1010.1,71,10,,,,,,,,,,,,,,1300.0,800.0,SCT,800.0,OVC,1300.0,,,,
KRDR,04-26-2017,22:24,SPECI,Normal,30,13,,,4000.0,Light Snow/Mist,0.0,-2.0,29.79,1010.4,71,10,,,,,,,,,,,,,,1200.0,700.0,FEW,700.0,OVC,1200.0,,,,
KRDR,04-26-2017,22:19,SPECI,Normal,30,14,,,4800.0,Light Snow/Mist,-1.0,-2.0,29.79,1010.5,71,10,,,,,,,,,,,,,,1200.0,800.0,FEW,800.0,OVC,1200.0,,,,
KRDR,04-26-2017,22:14,SPECI,Normal,30,15,,,4000.0,Light Snow/Mist,-1.0,-2.0,29.79,1010.5,71,10,,,,,,,,,,,,,,1000.0,1000.0,OVC,1000.0,,,,,,
KRDR,04-26-2017,22:09,SPECI,Normal,20,14,,,2400.0,Light Snow/Mist,-1.0,-2.0,29.79,1010.5,71,10,,,,,,,,,,,,,,1100.0,1100.0,OVC,1100.0,,,,,,
KRDR,04-26-2017,22:04,SPECI,Normal,30,14,,,1600.0,Light Snow/Mist,-1.0,-2.0,29.79,1010.5,71,10,,,,,,,,,,,,,Sky Obscured (Unable to Estimate),1000.0,1000.0,,1000.0,,,,,,
KRDR,04-26-2017,21:59,METAR,Normal,30,14,,,1200.0,Light Snow/Mist,-1.0,-2.0,29.79,1010.5,71,10,,,,,,,,,TRACE,,,,Sky Obscured (Unable to Estimate),1000.0,1000.0,,1000.0,,,,,,
KRDR,04-26-2017,21:54,SPECI,Normal,30,14,,,1200.0,Light Snow/Mist,-1.0,-3.0,29.79,1010.5,71,10,,,,,,,,,,,,,Sky Obscured (Unable to Estimate),1100.0,1100.0,,1100.0,,,,,,
KRDR,04-26-2017,21:52,SPECI,Normal,30,12,,,1600.0,Light Snow/Mist,-1.0,-3.0,29.79,1010.5,71,10,,,,,,,,,,,,,Sky Obscured (Unable to Estimate),1200.0,1200.0,,1200.0,,,,,,
KRDR,04-26-2017,21:42,SPECI,Normal,30,16,,,1200.0,Light Snow/Mist,-1.0,-3.0,29.79,1010.4,71,10,,,,,,,,,,,,,Sky Obscured (Unable to Estimate),1100.0,1100.0,,1100.0,,,,,,
KRDR,04-26-2017,21:38,SPECI,Normal,40,15,20.0,,2000.0,Light Snow/Mist,-1.0,-3.0,29.79,1010.4,71,10,,,,,,,,,,,,,,900.0,1200.0,OVC,1200.0,,,,,,
KRDR,04-26-2017,21:33,SPECI,Normal,30,16,20.0,,2400.0,Light Snow/Mist,-1.0,-3.0,29.79,1010.4,71,10,,,,,,,,,,,,,,900.0,1000.0,SCT,1000.0,OVC,1500.0,,,,
KRDR,04-26-2017,21:28,SPECI,Normal,30,14,,,3200.0,Light Snow/Mist,-1.0,-3.0,29.79,1010.4,71,10,,,,,,,,,,,,,,1000.0,1000.0,BKN,1000.0,OVC,1600.0,,,,
KRDR,04-26-2017,21:18,SPECI,Normal,40,14,,,8000.0,Light Snow/Mist,0.0,-3.0,29.79,1010.4,71,10,,,,,,,,,,,,,,1000.0,1000.0,BKN,1000.0,OVC,2100.0,,,,
KRDR,04-26-2017,21:13,SPECI,Normal,30,13,,,9999.0,Light Snow/Mist,0.0,-3.0,29.79,1010.4,71,10,,,,,,,,,,,,,,900.0,900.0,OVC,900.0,,,,,,
KRDR,04-26-2017,21:08,SPECI,Normal,30,12,,,8000.0,Light Snow/Mist,-1.0,-3.0,29.79,1010.4,71,10,,,,,,,,,,,,,,1000.0,1000.0,BKN,1000.0,OVC,1400.0,,,,
KRDR,04-26-2017,20:58,METAR,Normal,30,14,,,8000.0,Light Snow/Mist,-1.1,-3.0,29.79,1010.4,71,10,,,,,,,,,TRACE,TRACE,,,,900.0,900.0,BKN,900.0,OVC,1600.0,,,,
KRDR,04-26-2017,20:47,SPECI,Normal,30,16,,,6400.0,Light Snow/Mist,-1.0,-3.0,29.79,1010.4,71,10,,,,,,,,,,,,,,900.0,900.0,BKN,900.0,OVC,1600.0,,,,
KRDR,04-26-2017,20:37,SPECI,Normal,30,12,,,4800.0,Light Snow/Mist,-1.0,-3.0,29.79,1010.4,71,10,,,,,,,,,,,,,,1000.0,1000.0,BKN,1000.0,OVC,1700.0,,,,
KRDR,04-26-2017,20:27,SPECI,Normal,20,12,,,4000.0,Light Snow/Mist,-1.0,-3.0,29.79,1010.4,71,10,,,,,,,,,,,,,,1600.0,1100.0,SCT,1100.0,OVC,1600.0,,,,
KRDR,04-26-2017,19:59,SPECI,Normal,40,17,,,2800.0,Light Snow/Mist,-2.0,-3.0,29.79,1010.5,71,10,,,,,,,,,,,,,,1500.0,1000.0,FEW,1000.0,OVC,1500.0,,,,
KRDR,04-26-2017,19:58,METAR,Normal,30,17,,,2400.0,Unknown Precipitation/Mist,-1.7,-3.3,29.79,1010.5,40,10,,,,,,,,,TRACE,,,,,1500.0,1500.0,OVC,1500.0,,,,,,
KRDR,04-26-2017,19:53,SPECI,Normal,30,17,,,2000.0,Light Snow/Mist,-2.0,-3.0,29.79,1010.5,71,10,,,,,,,,,,,,,,1400.0,1400.0,OVC,1400.0,,,,,,
KRDR,04-26-2017,19:48,SPECI,Normal,30,17,,,1600.0,Light Snow/Mist,-2.0,-3.0,29.79,1010.5,71,10,,,,,,,,,,,,,Sky Obscured (Unable to Estimate),1400.0,1400.0,,1400.0,,,,,,
KRDR,04-26-2017,19:43,SPECI,Normal,30,17,,,1600.0,Unknown Precipitation/Mist,-2.0,-3.0,29.79,1010.5,40,10,,,,,,,,,,,,,Sky Obscured (Unable to Estimate),1400.0,1400.0,,1400.0,,,,,,
KRDR,04-26-2017,19:33,SPECI,Normal,40,17,,,1600.0,Light Snow/Mist,-2.0,-3.0,29.79,1010.5,71,10,,,,,,,,,,,,,Sky Obscured (Unable to Estimate),1300.0,1300.0,,1300.0,,,,,,
KRDR,04-26-2017,19:28,SPECI,Normal,40,16,,,1600.0,Light Snow/Mist,-2.0,-3.0,29.79,1010.5,71,10,,,,,,,,,,,,,Sky Obscured (Unable to Estimate),1400.0,1400.0,,1400.0,,,,,,
KRDR,04-26-2017,19:18,SPECI,Normal,30,18,21.0,,2400.0,Light Snow/Mist,-2.0,-3.0,29.79,1010.5,71,10,,,,,,,,,,,,,,1300.0,1300.0,OVC,1300.0,,,,,,
KRDR,04-26-2017,19:08,SPECI,Normal,30,14,,,2000.0,Light Snow/Mist,-2.0,-3.0,29.79,1010.5,71,10,,,,,,,,,,,,,,1000.0,1000.0,OVC,1000.0,,,,,,
KRDR,04-26-2017,19:03,SPECI,Normal,40,15,,,1600.0,Light Snow/Mist,-2.0,-3.0,29.80,1010.8,71,10,,,,,,,,,,,,,Sky Obscured (Unable to Estimate),1000.0,1000.0,,1000.0,,,,,,
KRDR,04-26-2017,18:58,METAR,Normal,30,16,,,1200.0,Light Snow/Mist,-2.1,-3.4,29.79,1010.5,71,10,,,,,,,,,TRACE,,,,Sky Obscured (Unable to Estimate),1000.0,1000.0,,1000.0,,,,,,
KRDR,04-26-2017,18:38,SPECI,Normal,40,14,,,1200.0,Light Snow/Mist,-2.0,-3.0,29.79,1010.5,71,10,,,,,,,,,,,,,Sky Obscured (Unable to Estimate),1100.0,1100.0,,1100.0,,,,,,
KRDR,04-26-2017,18:33,SPECI,Normal,30,16,,,1200.0,Light Snow/Mist,-2.0,-3.0,29.80,1010.8,71,10,,,,,,,,,,,,,Sky Obscured (Unable to Estimate),1200.0,1200.0,,1200.0,,,,,,
KRDR,04-26-2017,18:28,SPECI,Normal,30,17,,,1200.0,Light Snow/Mist,-2.0,-3.0,29.80,1010.8,71,10,,,,,,,,,,,,,Sky Obscured (Unable to Estimate),1300.0,1300.0,,1300.0,,,,,,
KRDR,04-26-2017,18:23,SPECI,Normal,40,17,,,1600.0,Light Snow/Mist,-2.0,-4.0,29.80,1010.8,71,10,,,,,,,,,,,,,Sky Obscured (Unable to Estimate),1400.0,1400.0,,1400.0,,,,,,
KRDR,04-26-2017,18:13,SPECI,Normal,40,18,,,1200.0,Light Snow/Mist,-2.0,-4.0,29.80,1010.8,71,10,,,,,,,,,,,,,Sky Obscured (Unable to Estimate),1400.0,1400.0,,1400.0,,,,,,
KRDR,04-26-2017,18:08,SPECI,Normal,30,18,24.0,,1600.0,Light Snow,-2.0,-4.0,29.80,1010.8,71,,,,,,,,,,,,,,Sky Obscured (Unable to Estimate),1500.0,1500.0,,1500.0,,,,,,
KRDR,04-26-2017,18:03,SPECI,Normal,30,18,24.0,,3200.0,Light Snow,-2.0,-4.0,29.80,1010.8,71,,,,,,,,,,,,,,,1600.0,1600.0,OVC,1600.0,,,,,,
KRDR,04-26-2017,17:58,METAR,Normal,30,16,,,4800.0,Light Snow,-1.7,-4.1,29.81,1011.1,71,,,,,,,,,,TRACE,,TRACE,,,1400.0,1400.0,BKN,1400.0,OVC,2000.0,,,,
KRDR,04-26-2017,17:39,SPECI,Normal,40,18,,,4800.0,Light Snow,-1.0,-4.0,29.81,1011.1,71,,,,,,,,,,,,,,,1400.0,1400.0,OVC,1400.0,,,,,,
KRDR,04-26-2017,17:01,SPECI,Normal,30,18,24.0,,9999.0,Light Snow,-2.0,-5.0,29.82,1011.5,,,,71,,,,,,,,,,,,1500.0,1500.0,OVC,1500.0,,,,,,
KRDR,04-26-2017,16:59,SPECI,Normal,30,17,,,9999.0,Unknown Precipitation,-1.0,-5.0,29.82,1011.4,40,,,,,,,,,,,,,,,1500.0,1500.0,OVC,1500.0,,,,,,
KRDR,04-26-2017,16:58,METAR,Normal,30,18,,,9999.0,,-1.5,-5.3,29.82,1011.4,,,,,,,,,,,,,,,,1500.0,1500.0,OVC,1500.0,,,,,,
KRDR,04-26-2017,16:23,SPECI,Normal,30,14,,,9999.0,,-1.0,-5.0,29.83,1011.7,,,,,,,,,,,,,,,,1500.0,1500.0,OVC,1500.0,,,,,,
KRDR,04-26-2017,15:58,METAR,Normal,40,17,,,9999.0,,-1.4,-4.9,29.84,1012.1,,,,,,,,,,,,,,,,1400.0,1400.0,OVC,1400.0,,,,,,
KRDR,04-26-2017,15:39,SPECI,Normal,30,16,,,9999.0,,-1.0,-5.0,29.84,1012.1,,,,,,,,,,,,,,,,1400.0,1400.0,OVC,1400.0,,,,,,
KRDR,04-26-2017,15:03,SPECI,Normal,50,17,,,9999.0,,-1.0,-5.0,29.84,1012.1,,,,,,,,,,,,,,,,1500.0,1500.0,OVC,1500.0,,,,,,
KRDR,04-26-2017,14:58,METAR,Normal,50,18,,,9999.0,,-1.4,-4.9,29.83,1011.7,,,,,,,,,,,,TRACE,,,,1400.0,1400.0,OVC,1400.0,,,,,,
KRDR,04-26-2017,13:55,METAR,Normal,40,13,,,9999.0,,-1.0,-5.0,29.85,1011.9,,,,,,,,,,,TRACE,,,,,1600.0,1600.0,OVC,1600.0,,,,,,
KRDR,04-26-2017,13:06,SPECI,Normal,50,18,24.0,,9999.0,,-1.0,-5.0,29.85,1012.4,,,,,,,,,,,,,,,,1500.0,1500.0,OVC,1500.0,,,,,,
KRDR,04-26-2017,12:59,SPECI,Normal,30,14,,,9999.0,Unknown Precipitation,-1.0,-4.0,29.85,1012.4,40,,,,,,,,,,,,,,,1500.0,1500.0,OVC,1500.0,,,,,,
KRDR,04-26-2017,12:58,METAR,Normal,30,15,,,9999.0,,-1.4,-4.6,29.84,1012.1,,,,,,,,,,,,,,,,1600.0,1600.0,OVC,1600.0,,,,,,
KRDR,04-26-2017,11:58,METAR,Normal,50,17,25.0,,9999.0,,-1.5,-4.9,29.83,1011.7,,,,,,,,,,,,,,,,1700.0,1700.0,OVC,1700.0,,,,,,
KRDR,04-26-2017,10:58,METAR,Normal,40,17,23.0,,9999.0,,-1.3,-4.5,29.83,1011.7,,,,,,,,,,,,,,,,1600.0,1600.0,OVC,1600.0,,,,,,
KRDR,04-26-2017,09:58,METAR,Normal,50,16,22.0,,9999.0,,-1.0,-4.7,29.84,1012.1,,,,,,,,,,,,,,,,1600.0,1600.0,OVC,1600.0,,,,,,
KRDR,04-26-2017,08:58,METAR,Normal,50,14,20.0,,9999.0,,-0.8,-4.1,29.85,1012.4,,,,,,,,,,,,,,,,1700.0,1700.0,OVC,1700.0,,,,,,
KRDR,04-26-2017,07:58,METAR,Normal,40,16,22.0,,9999.0,,-0.7,-3.9,29.85,1012.4,,,,,,,,,,,,,,,,1700.0,1700.0,OVC,1700.0,,,,,,
KRDR,04-26-2017,06:58,METAR,Normal,50,17,23.0,,9999.0,,-0.5,-3.8,29.86,1012.7,,,,,,,,,,,,,,,,1800.0,1800.0,OVC,1800.0,,,,,,
KRDR,04-26-2017,05:58,METAR,Normal,50,16,24.0,,9999.0,,-0.4,-4.1,29.87,1013.1,,,,,,,,,,,,,,,,1900.0,1900.0,OVC,1900.0,,,,,,
KRDR,04-26-2017,04:58,METAR,Normal,40,14,,,9999.0,,-0.1,-3.5,29.90,1014.1,,,,,,,,,,,,,,,,1900.0,1900.0,OVC,1900.0,,,,,,
KRDR,04-26-2017,04:38,SPECI,Normal,40,16,23.0,,9999.0,,0.0,-4.0,29.90,1014.1,,,,,,,,,,,,,,,,1900.0,1900.0,BKN,1900.0,OVC,2400.0,,,,
KRDR,04-26-2017,04:33,SPECI,Normal,40,18,23.0,,9999.0,,0.0,-3.0,29.90,1014.1,,,,,,,,,,,,,,,,1900.0,1900.0,BKN,1900.0,OVC,2400.0,,,,
KRDR,04-26-2017,03:58,METAR,Normal,50,17,,,9999.0,,0.5,-3.3,29.91,1014.5,,,,,,,,,,,,,,,,2400.0,2400.0,OVC,2400.0,,,,,,
KRDR,04-26-2017,02:58,METAR,Normal,50,13,,,9999.0,,1.0,-2.7,29.91,1014.4,,,,,,,,,,,,,,,,2300.0,2300.0,OVC,2300.0,,,,,,
KRDR,04-26-2017,01:58,METAR,Normal,40,14,19.0,,9999.0,,1.1,-2.3,29.89,1013.7,,,,,,,,,,,,,,,,2200.0,2200.0,OVC,2200.0,,,,,,
KRDR,04-26-2017,00:58,METAR,Normal,40,16,,,9999.0,,1.3,-2.8,29.88,1013.4,,,,,,,,,,,,,,,,2300.0,2300.0,OVC,2300.0,,,,,,
KRDR,04-25-2017,23:58,METAR,Normal,40,19,25.0,,9999.0,,1.5,-2.7,29.88,1013.4,,,,,,,,,,,,,,,,2300.0,2300.0,OVC,2300.0,,,,,,
KRDR,04-25-2017,22:58,METAR,Normal,30,20,,,9999.0,,1.6,-2.6,29.87,1013.0,,,,,,,,,,,,,,,,2200.0,2200.0,OVC,2200.0,,,,,,
KRDR,04-25-2017,21:58,METAR,Normal,30,16,25.0,030/29KTS,9999.0,,1.5,-2.8,29.85,1012.4,,,,,,,,,,,,,,,,2100.0,2100.0,OVC,2100.0,,,,,,
KRDR,04-25-2017,21:18,SPECI,Normal,20,23,28.0,,9999.0,,1.0,-3.0,29.84,1012.0,,,,,,,,,,,,,,,,2000.0,2000.0,OVC,2000.0,,,,,,
KRDR,04-25-2017,21:03,SPECI,Normal,30,22,27.0,,9999.0,,1.0,-3.0,29.84,1012.0,,,,,,,,,,,,,,,,1900.0,1900.0,OVC,1900.0,,,,,,
KRDR,04-25-2017,20:58,METAR,Normal,20,21,27.0,020/28KTS,9999.0,,1.4,-2.6,29.84,1012.0,,,,,,,,,,,,,,,,2000.0,2000.0,OVC,2000.0,,,,,,
KRDR,04-25-2017,19:58,METAR,Normal,30,20,26.0,020/27KTS,9999.0,,1.2,-2.8,29.85,1012.4,,,,,,,,,,,,,,,,1900.0,1900.0,OVC,1900.0,,,,,,
KRDR,04-25-2017,18:58,METAR,Normal,20,19,25.0,030/27KTS,9999.0,,1.1,-2.6,29.85,1012.4,,,,,,,,,,,,,,,,1900.0,1900.0,OVC,1900.0,,,,,,
KRDR,04-25-2017,17:58,METAR,Normal,30,23,29.0,030/32KTS,9999.0,,0.5,-2.9,29.84,1012.1,,,,,,,,,,,,,,,,1700.0,1700.0,OVC,1700.0,,,,,,
KRDR,04-25-2017,16:58,METAR,Normal,30,24,29.0,020/30KTS,9999.0,,0.2,-3.0,29.81,1011.1,,,,,,,,,,,,,,,,1500.0,1500.0,OVC,1500.0,,,,,,
KRDR,04-25-2017,16:48,SPECI,Normal,30,23,28.0,,9999.0,,0.0,-3.0,29.82,1011.4,,,,,,,,,,,,,,,,1400.0,1400.0,OVC,1400.0,,,,,,
KRDR,04-25-2017,16:43,SPECI,Normal,40,20,26.0,,9999.0,,0.0,-3.0,29.83,1011.7,,,,,,,,,,,,,,,,1500.0,1500.0,OVC,1500.0,,,,,,
KRDR,04-25-2017,15:58,METAR,Normal,30,22,28.0,040/28KTS,9999.0,,-0.4,-3.1,29.82,1011.4,,,,,,,,,,,,,,,,1300.0,1300.0,OVC,1300.0,,,,,,
KRDR,04-25-2017,14:58,METAR,Normal,20,22,27.0,010/27KTS,9999.0,,-0.5,-2.8,29.80,1010.7,,,,,,,,,,,,,,,,1300.0,1300.0,OVC,1300.0,,,,,,
KRDR,04-25-2017,14:44,SPECI,Normal,30,21,28.0,,9999.0,,0.0,-3.0,29.81,1011.1,,,,,,,,,,,,,,,,1200.0,1200.0,OVC,1200.0,,,,,,
KRDR,04-25-2017,13:58,METAR,Normal,10,20,,010/27KTS,9999.0,,-0.9,-2.6,29.81,1011.1,,,,,,,,,,,,,,,,1100.0,1100.0,OVC,1100.0,,,,,,
KRDR,04-25-2017,13:08,SPECI,Normal,10,21,,,9999.0,,-1.0,-2.0,29.79,1010.4,,,,,,,,,,,,,,,,1000.0,1000.0,OVC,1000.0,,,,,,
KRDR,04-25-2017,12:58,METAR,Normal,10,18,22.0,360/26KTS,9999.0,,-1.1,-2.5,29.79,1010.4,,,,,,,,,,,,,,,,900.0,900.0,OVC,900.0,,,,,,
KRDR,04-25-2017,12:23,SPECI,Normal,10,19,24.0,,9999.0,,-1.0,-2.0,29.79,1010.4,,,,,,,,,,,,,,,,900.0,900.0,OVC,900.0,,,,,,
KRDR,04-25-2017,12:18,SPECI,Normal,10,18,24.0,,9999.0,,-1.0,-2.0,29.79,1010.4,,,,,,,,,,,,,,,,1000.0,1000.0,OVC,1000.0,,,,,,
KRDR,04-25-2017,12:08,SPECI,Normal,20,16,23.0,,9999.0,,-1.0,-2.0,29.79,1010.4,,,,,,,,,,,,,,,,900.0,900.0,OVC,900.0,,,,,,
KRDR,04-25-2017,11:58,METAR,Normal,20,16,23.0,,9999.0,,-1.1,-2.4,29.78,1010.0,,,,,,,,,,,,,,.67 IN,,1000.0,1000.0,OVC,1000.0,,,,,,
KRDR,04-25-2017,11:43,SPECI,Normal,20,18,23.0,,9999.0,,-1.0,-2.0,29.77,1009.7,,,,,,,,,,,,,,,,1000.0,1000.0,OVC,1000.0,,,,,,
KRDR,04-25-2017,10:58,METAR,Normal,20,20,24.0,,9999.0,,-1.1,-2.2,29.75,1009.0,,,,,,,,,,,,,,,,800.0,800.0,OVC,800.0,,,,,,
KRDR,04-25-2017,09:58,METAR,Normal,20,17,25.0,,9999.0,,-1.0,-2.0,29.74,1008.7,,,,,,,,,,,,,,,,800.0,800.0,OVC,800.0,,,,,,
KRDR,04-25-2017,08:58,METAR,Normal,20,17,21.0,,9999.0,,-0.9,-2.0,29.73,1008.3,,,,,,,,,,,,,,,,900.0,900.0,OVC,900.0,,,,,,
KRDR,04-25-2017,08:13,SPECI,Normal,20,19,,,9999.0,,0.0,-2.0,29.73,1008.3,,,,,,,,,,,,,,,,800.0,800.0,OVC,800.0,,,,,,
KRDR,04-25-2017,07:58,METAR,Normal,20,15,24.0,,9999.0,,-0.9,-1.6,29.72,1007.9,,,,,,,,,,,,,,,,700.0,700.0,OVC,700.0,,,,,,
KRDR,04-25-2017,07:38,SPECI,Normal,10,18,,,9999.0,,0.0,-1.0,29.72,1007.9,,,,,,,,,,,,,,,,700.0,700.0,OVC,700.0,,,,,,
KRDR,04-25-2017,06:58,METAR,Normal,10,14,,,9999.0,,-0.6,-1.5,29.73,1008.3,,,,,,,,,,,,,,,,800.0,800.0,OVC,800.0,,,,,,
KRDR,04-25-2017,06:03,SPECI,Normal,20,15,,,9999.0,,0.0,-1.0,29.71,1007.6,,,,,,,,,,,,,,,,800.0,800.0,OVC,800.0,,,,,,
KRDR,04-25-2017,05:58,METAR,Normal,10,15,,,9999.0,,-0.5,-1.0,29.71,1007.6,,,,,,,,,,,,,TRACE,,,700.0,700.0,OVC,700.0,,,,,,
KRDR,04-25-2017,05:28,SPECI,Normal,10,15,20.0,,9999.0,,0.0,-1.0,29.70,1007.3,,,,,,,,,,,,,,,,700.0,700.0,OVC,700.0,,,,,,
KRDR,04-25-2017,04:58,METAR,Normal,20,14,21.0,,9999.0,,-0.2,-0.9,29.70,1007.3,,,,,,,,,,,,,,,,800.0,800.0,OVC,800.0,,,,,,
KRDR,04-25-2017,04:13,SPECI,Normal,20,15,20.0,,9999.0,,0.0,0.0,29.69,1007.0,,,,,,,,,,,,,,,,800.0,800.0,OVC,800.0,,,,,,
KRDR,04-25-2017,03:58,METAR,Normal,20,17,,,9999.0,,0.0,-0.1,29.69,1007.0,,,,,,,,,,,,,,,,700.0,700.0,OVC,700.0,,,,,,
KRDR,04-25-2017,03:48,SPECI,Normal,20,17,21.0,,9999.0,,0.0,0.0,29.69,1007.0,,,,,,,,,,,,,,,,700.0,700.0,OVC,700.0,,,,,,
KRDR,04-25-2017,03:18,SPECI,Normal,20,14,,,9999.0,,0.0,0.0,29.69,1007.0,,,,,,,,,,,,,,,,600.0,600.0,OVC,600.0,,,,,,
KRDR,04-25-2017,02:58,METAR,Normal,20,15,21.0,,9999.0,,0.3,0.2,29.69,1007.0,,,,,,,,,,,TRACE,TRACE,,,,500.0,500.0,OVC,500.0,,,,,,
KRDR,04-25-2017,02:03,SPECI,Normal,20,13,,,9999.0,,0.0,0.0,29.68,1006.6,,,,,,,,,,,,,,,,500.0,500.0,OVC,500.0,,,,,,
KRDR,04-25-2017,01:59,SPECI,Normal,20,17,,,9999.0,Unknown Precipitation,0.0,0.0,29.67,1006.3,40,,,,,,,,,,,,,,,500.0,500.0,OVC,500.0,,,,,,
KRDR,04-25-2017,01:58,METAR,Normal,20,16,,,9999.0,,0.5,0.3,29.67,1006.3,,,,,,,,,,,TRACE,,,,,400.0,400.0,OVC,400.0,,,,,,
KRDR,04-25-2017,01:53,SPECI,Normal,20,16,,,9999.0,,0.0,0.0,29.67,1006.3,,,,,,,,,,,,,,,,400.0,400.0,OVC,400.0,,,,,,
KRDR,04-25-2017,01:21,SPECI,Normal,10,14,,,9999.0,,0.0,0.0,29.66,1005.9,,,,,,,,,,,,,,,,400.0,400.0,OVC,400.0,,,,,,
KRDR,04-25-2017,01:12,SPECI,Normal,20,14,,,9999.0,Unknown Precipitation/Mist,0.0,0.0,29.66,1005.9,40,10,,,,,,,,,,,,,,400.0,400.0,OVC,400.0,,,,,,
KRDR,04-25-2017,00:58,METAR,Normal,20,14,,,9999.0,,0.6,0.5,29.65,1005.6,,,,,,,,,,,,,,,,400.0,400.0,OVC,400.0,,,,,,
KRDR,04-24-2017,23:58,METAR,Normal,20,15,,,9999.0,,0.7,0.5,29.64,1005.3,,,,,,,,,,,,,.14 IN,,,400.0,400.0,OVC,400.0,,,,,,
KRDR,04-24-2017,23:18,SPECI,Normal,30,14,,,9999.0,,0.0,0.0,29.64,1005.3,,,,,,,,,,,,,,,,400.0,400.0,OVC,400.0,,,,,,
KRDR,04-24-2017,22:58,METAR,Normal,30,15,,,9999.0,,0.7,0.6,29.63,1004.9,,,,,,,,,,,,,,,,500.0,500.0,OVC,500.0,,,,,,
KRDR,04-24-2017,22:33,SPECI,Normal,30,14,,,9999.0,,0.0,0.0,29.63,1004.9,,,,,,,,,,,,,,,,500.0,500.0,OVC,500.0,,,,,,
KRDR,04-24-2017,21:58,METAR,Normal,20,14,,,9999.0,,0.7,0.6,29.63,1004.9,,,,,,,,,,,.01 IN,,,,,400.0,400.0,OVC,400.0,,,,,,
KRDR,04-24-2017,21:27,SPECI,Normal,20,13,,,9999.0,,0.0,0.0,29.63,1004.9,,,,,,,,,,,,,,,,400.0,400.0,OVC,400.0,,,,,,
KRDR,04-24-2017,21:18,SPECI,Normal,20,14,,,9999.0,Light Rain,0.0,0.0,29.62,1004.6,61,,,,,,,,,,,,,,,400.0,400.0,OVC,400.0,,,,,,
KRDR,04-24-2017,20:58,METAR,Normal,20,14,,,9999.0,Light Rain,0.6,0.5,29.62,1004.6,61,,,,,,,,,,TRACE,.13 IN,,,,300.0,300.0,OVC,300.0,,,,,,
KRDR,04-24-2017,20:56,SPECI,Normal,20,14,,,9999.0,Light Rain,0.0,0.0,29.62,1004.6,61,,,,,,,,,,,,,,,300.0,300.0,OVC,300.0,,,,,,
KRDR,04-24-2017,20:31,SPECI,Normal,10,11,,,9999.0,Light Rain,0.0,0.0,29.63,1004.9,61,,,,,,,,,,,,,,,400.0,400.0,OVC,400.0,,,,,,
KRDR,04-24-2017,20:06,SPECI,Normal,20,11,,,9999.0,,0.0,0.0,29.63,1004.9,,,,,,,,,,,,,,,,400.0,400.0,OVC,400.0,,,,,,
KRDR,04-24-2017,20:05,SPECI,Normal,20,11,,,9999.0,Light Drizzle,0.0,0.0,29.63,1004.9,51,,,,,,,,,,,,,,,400.0,400.0,OVC,400.0,,,,,,
KRDR,04-24-2017,20:03,SPECI,Normal,20,12,,,9999.0,,0.0,0.0,29.63,1004.9,,,,,,,,,,,,,,,,400.0,400.0,OVC,400.0,,,,,,
KRDR,04-24-2017,19:58,METAR,Normal,20,11,,,9999.0,Light Drizzle,1.0,0.9,29.62,1004.5,51,,,,,,,,,,.04 IN,,,,,500.0,500.0,OVC,500.0,,,,,,
KRDR,04-24-2017,18:58,METAR,Normal,50,10,,,9999.0,Rain/Mist,0.9,0.8,29.62,1004.6,62,10,,,,,,,,,.09 IN,,,,,500.0,500.0,OVC,500.0,,,,,,
KRDR,04-24-2017,17:58,METAR,Normal,60,8,,,6400.0,Rain/Mist,0.6,0.5,29.63,1004.9,62,10,,,,,,,,,.17 IN,,.53 IN,,,500.0,500.0,OVC,500.0,,,,,,
KRDR,04-24-2017,17:48,SPECI,Normal,60,9,,,4800.0,Rain/Mist,0.0,0.0,29.64,1005.3,62,10,,,,,,,,,,,,,,500.0,500.0,OVC,500.0,,,,,,
KRDR,04-24-2017,17:43,SPECI,Normal,50,11,,,4000.0,Rain/Mist,0.0,0.0,29.64,1005.3,62,10,,,,,,,,,,,,,,500.0,500.0,OVC,500.0,,,,,,
KRDR,04-24-2017,17:33,SPECI,Normal,50,10,,,4800.0,Rain/Mist,0.0,0.0,29.64,1005.3,62,10,,,,,,,,,,,,,,500.0,500.0,BKN,500.0,OVC,2700.0,,,,
KRDR,04-24-2017,17:28,SPECI,Normal,60,8,,,4800.0,Rain/Mist,0.0,0.0,29.64,1005.3,62,10,,,,,,,,,,,,,,400.0,400.0,BKN,400.0,OVC,3000.0,,,,
KRDR,04-24-2017,17:23,SPECI,Normal,80,9,,,4000.0,Rain/Mist,0.0,0.0,29.64,1005.3,62,10,,,,,,,,,,,,,,400.0,400.0,BKN,400.0,OVC,3300.0,,,,
KRDR,04-24-2017,17:13,SPECI,Normal,90,11,,,4800.0,Rain/Mist,0.0,0.0,29.64,1005.3,62,10,,,,,,,,,,,,,,400.0,400.0,BKN,400.0,OVC,3100.0,,,,
KRDR,04-24-2017,16:58,METAR,Normal,70,11,,,4800.0,Rain/Mist,0.5,0.4,29.64,1005.3,62,10,,,,,,,,,.15 IN,,,,,3000.0,300.0,SCT,300.0,OVC,3000.0,,,,
KRDR,04-24-2017,16:56,SPECI,Normal,70,11,,,4800.0,Rain/Mist,0.0,0.0,29.64,1005.3,62,10,,,,,,,,,,,,,,3100.0,300.0,SCT,300.0,OVC,3100.0,,,,
KRDR,04-24-2017,16:51,SPECI,Normal,70,12,,,4800.0,Rain/Mist,0.0,0.0,29.64,1005.3,62,10,,,,,,,,,,,,,,1000.0,300.0,SCT,300.0,SCT,1000.0,OVC,2900.0,,
KRDR,04-24-2017,16:46,SPECI,Normal,60,10,,,4800.0,Rain/Mist,0.0,0.0,29.65,1005.6,62,10,,,,,,,,,,,,,,900.0,500.0,SCT,500.0,SCT,1000.0,OVC,3000.0,,
KRDR,04-24-2017,16:41,SPECI,Normal,50,11,,,4000.0,Rain/Mist,0.0,0.0,29.65,1005.6,62,10,,,,,,,,,,,,,,700.0,500.0,SCT,500.0,BKN,1000.0,OVC,2400.0,,
KRDR,04-24-2017,16:36,SPECI,Normal,50,11,,,4000.0,Rain/Mist,0.0,0.0,29.65,1005.6,62,10,,,,,,,,,,,,,,700.0,700.0,SCT,700.0,BKN,1200.0,OVC,2500.0,,
KRDR,04-24-2017,16:23,SPECI,Normal,50,8,,,6400.0,Light Rain/Mist,0.0,0.0,29.67,1006.3,61,10,,,,,,,,,,,,,,700.0,700.0,OVC,700.0,,,,,,
KRDR,04-24-2017,16:20,SPECI,Normal,40,8,,,8000.0,Rain/Mist,0.0,0.0,29.67,1006.3,,,,61,10,,,,,,,,,,,600.0,600.0,OVC,600.0,,,,,,
KRDR,04-24-2017,16:12,SPECI,Normal,50,7,,,4800.0,Ice Pellets/Rain/Mist,0.0,0.0,29.67,1006.3,,,,79,61,10,,,,,,,,,,,,,,,,,,,
KRDR,04-24-2017,16:08,SPECI,Normal,40,7,,,4000.0,Rain/Mist,0.0,0.0,29.68,1006.6,62,10,,,,,,,,,,,,,,600.0,600.0,BKN,600.0,OVC,1000.0,,,,
KRDR,04-24-2017,15:58,METAR,Normal,20,7,,,8000.0,Light Rain/Mist,0.6,0.2,29.69,1007.0,61,10,,,,,,,,,.05 IN,,,,,600.0,600.0,OVC,600.0,,,,,,
KRDR,04-24-2017,15:57,SPECI,Normal,20,7,,,8000.0,Ice Pellets/Light Snow/Mist,0.0,0.0,29.69,1007.0,,,,79,71,10,,,,,,,,,,,,,,,,,,,
KRDR,04-24-2017,14:58,METAR,Normal,90,9,,,9999.0,Light Rain,0.7,0.2,29.68,1006.6,61,,,,,,,,,,.15 IN,.16 IN,,,,700.0,700.0,BKN,700.0,OVC,1100.0,,,,
KRDR,04-24-2017,14:51,SPECI,Normal,90,7,,,9999.0,Light Rain,0.0,0.0,29.69,1007.0,61,,,,,,,,,,,,,,,700.0,700.0,BKN,700.0,OVC,1100.0,,,,
KRDR,04-24-2017,14:46,SPECI,Normal,80,11,,,9999.0,Light Rain,0.0,0.0,29.67,1006.3,61,,,,,,,,,,,,,,,900.0,900.0,BKN,900.0,OVC,6000.0,,,,
KRDR,04-24-2017,14:41,SPECI,Normal,90,9,,,8000.0,Light Rain/Mist,0.0,0.0,29.67,1006.3,61,10,,,,,,,,,,,,,,1000.0,1000.0,BKN,1000.0,OVC,5500.0,,,,
KRDR,04-24-2017,14:36,SPECI,Normal,70,11,,,4000.0,Light Rain/Mist,0.0,0.0,29.65,1005.6,61,10,,,,,,,,,,,,,,1100.0,1100.0,BKN,1100.0,OVC,5000.0,,,,
KRDR,04-24-2017,14:31,SPECI,Normal,60,15,,,4800.0,Light Rain/Mist,0.0,0.0,29.63,1004.9,61,10,,,,,,,,,,,,,,5500.0,1100.0,SCT,1100.0,OVC,5500.0,,,,
KRDR,04-24-2017,14:28,SPECI,Normal,60,13,,,6400.0,Unknown Precipitation/Mist,0.0,0.0,29.65,1005.6,40,10,,,,,,,,,,,,,,5500.0,1200.0,FEW,1200.0,OVC,5500.0,,,,
KRDR,04-24-2017,14:23,SPECI,Normal,60,14,,,3200.0,Light Rain/Mist,0.0,0.0,29.64,1005.3,61,10,,,,,,,,,,,,,,5500.0,5500.0,OVC,5500.0,,,,,,
KRDR,04-24-2017,14:18,SPECI,Normal,60,14,,,2800.0,Heavy Rain/Mist,0.0,0.0,29.66,1005.9,63,10,,,,,,,,,,,,,,5000.0,5000.0,OVC,5000.0,,,,,,
KRDR,04-24-2017,13:58,METAR,Normal,80,10,,,9999.0,Light Rain,0.9,-0.2,29.70,1007.3,61,,,,,,,,,,TRACE,,,,4/8 Partly Cloudy,72000.0,3800.0,FEW,3800.0,SCT,5000.0,,,,
KRDR,04-24-2017,13:48,SPECI,Normal,80,11,,,9999.0,Light Rain,0.0,0.0,29.71,1007.6,61,,,,,,,,,,,,,,2/8 Mostly Clear,72000.0,5000.0,FEW,5000.0,,,,,,
KRDR,04-24-2017,13:40,SPECI,Normal,80,11,,,9999.0,,0.0,0.0,29.71,1007.6,,,,,,,,,,,,,,,Clear,72000.0,,,,,,,,,
KRDR,04-24-2017,13:31,SPECI,Normal,80,12,,,9999.0,Light Rain,0.0,0.0,29.71,1007.6,61,,,,,,,,,,,,,,2/8 Mostly Clear,72000.0,7500.0,FEW,7500.0,,,,,,
KRDR,04-24-2017,12:58,METAR,Normal,60,8,,,9999.0,,0.9,-0.4,29.74,1008.7,,,,,,,,,,,.01 IN,,,,4/8 Partly Cloudy,72000.0,1500.0,FEW,1500.0,SCT,10000.0,,,,
KRDR,04-24-2017,12:33,SPECI,Normal,70,8,,,9999.0,,0.0,0.0,29.74,1008.7,,,,,,,,,,,,,,,4/8 Partly Cloudy,72000.0,1300.0,SCT,1300.0,,,,,,
KRDR,04-24-2017,11:58,METAR,Normal,70,10,,,9999.0,,0.7,-0.5,29.74,1008.7,,,,,,,,,,,,,,,,1200.0,1200.0,OVC,1200.0,,,,,,
KRDR,04-24-2017,11:47,SPECI,Normal,70,12,,,9999.0,,0.0,0.0,29.73,1008.3,,,,,,,,,,,,,,,,1200.0,1200.0,BKN,1200.0,OVC,2100.0,,,,
KRDR,04-24-2017,11:37,SPECI,Normal,70,10,,,9999.0,,0.0,0.0,29.74,1008.7,,,,,,,,,,,,,,,,1000.0,1100.0,BKN,1100.0,BKN,2100.0,,,,
KRDR,04-24-2017,11:33,SPECI,Normal,70,10,,,9999.0,,0.0,0.0,29.74,1008.7,,,,,,,,,,,,,,,,1000.0,1200.0,BKN,1200.0,BKN,2100.0,,,,
KRDR,04-24-2017,11:28,SPECI,Normal,70,10,,,9999.0,,0.0,0.0,29.75,1009.0,,,,,,,,,,,,,,,,1000.0,1000.0,SCT,1000.0,BKN,2100.0,,,,
KRDR,04-24-2017,10:58,METAR,Normal,70,10,,,9999.0,,0.6,-0.7,29.76,1009.4,,,,,,,,,,,,,,,,1000.0,1000.0,OVC,1000.0,,,,,,
KRDR,04-24-2017,09:58,METAR,Normal,80,10,,,9999.0,,0.5,-0.8,29.78,1010.0,,,,,,,,,,,,,,,,1000.0,1000.0,OVC,1000.0,,,,,,
KRDR,04-24-2017,09:33,SPECI,Normal,80,11,,,9999.0,,0.0,-1.0,29.80,1010.7,,,,,,,,,,,,,,,,1100.0,1100.0,OVC,1100.0,,,,,,
KRDR,04-24-2017,09:13,SPECI,Normal,80,14,,,9999.0,,0.0,-1.0,29.79,1010.4,,,,,,,,,,,,,,,,1200.0,1200.0,OVC,1200.0,,,,,,
KRDR,04-24-2017,08:58,METAR,Normal,80,11,,,9999.0,,0.0,-1.0,29.81,1011.1,,,,,,,,,,,,,,,,1100.0,1100.0,OVC,1100.0,,,,,,
KRDR,04-24-2017,08:55,SPECI,Normal,80,11,,,9999.0,,0.0,-1.0,29.82,1011.4,,,,,,,,,,,,,,,,1100.0,1100.0,OVC,1100.0,,,,,,
KRDR,04-24-2017,08:38,SPECI,Normal,70,13,,,9999.0,,0.0,-1.0,29.82,1011.4,,,,,,,,,,,,,,,,1400.0,1400.0,BKN,1400.0,OVC,4500.0,,,,
KRDR,04-24-2017,08:18,SPECI,Normal,70,13,,,9999.0,,0.0,-1.0,29.83,1011.7,,,,,,,,,,,,,,,,1100.0,1600.0,BKN,1600.0,OVC,4500.0,,,,
KRDR,04-24-2017,07:58,METAR,Normal,70,13,,,9999.0,,0.2,-1.2,29.85,1012.4,,,,,,,,,,,,,,,,1200.0,1100.0,FEW,1100.0,OVC,4700.0,,,,
KRDR,04-24-2017,07:23,SPECI,Normal,60,14,,,9999.0,,0.0,-1.0,29.87,1013.2,,,,,,,,,,,,,,,,4700.0,1100.0,SCT,1100.0,OVC,4700.0,,,,
KRDR,04-24-2017,06:58,METAR,Normal,70,11,,,9999.0,,0.0,-1.6,29.89,1013.8,,,,,,,,,,,,,,,,1100.0,1100.0,OVC,1100.0,,,,,,
KRDR,04-24-2017,05:58,METAR,Normal,70,12,,,9999.0,,-0.2,-1.8,29.91,1014.5,,,,,,,,,,,,,TRACE,,,1100.0,1100.0,OVC,1100.0,,,,,,
KRDR,04-24-2017,05:08,SPECI,Normal,70,12,,,9999.0,,0.0,-2.0,29.93,1015.2,,,,,,,,,,,,,,,,1000.0,1000.0,OVC,1000.0,,,,,,
KRDR,04-24-2017,04:58,METAR,Normal,70,11,,,9999.0,,-0.5,-1.8,29.93,1015.2,,,,,,,,,,,,,,,,900.0,900.0,OVC,900.0,,,,,,
KRDR,04-24-2017,03:58,METAR,Normal,70,12,,,9999.0,,-0.8,-1.9,29.96,1016.2,,,,,,,,,,,TRACE,,,,,800.0,800.0,OVC,800.0,,,,,,
KRDR,04-24-2017,03:50,SPECI,Normal,80,14,,,9999.0,,0.0,-2.0,29.96,1016.2,,,,,,,,,,,,,,,,800.0,800.0,OVC,800.0,,,,,,
KRDR,04-24-2017,03:27,SPECI,Normal,80,12,,,9999.0,Unknown Precipitation,0.0,-2.0,29.97,1016.5,40,,,,,,,,,,,,,,,800.0,800.0,OVC,800.0,,,,,,
KRDR,04-24-2017,03:16,SPECI,Normal,80,13,,,9999.0,,0.0,-2.0,29.98,1016.9,,,,,,,,,,,,,,,,800.0,800.0,OVC,800.0,,,,,,
KRDR,04-24-2017,03:01,SPECI,Normal,80,15,,,9999.0,Unknown Precipitation,0.0,-2.0,29.98,1016.9,40,,,,,,,,,,,,,,,800.0,800.0,BKN,800.0,OVC,8600.0,,,,
KRDR,04-24-2017,02:58,METAR,Normal,80,16,,,9999.0,,-0.9,-2.0,29.98,1016.9,,,,,,,,,,,.04 IN,.1 IN,,,,800.0,800.0,OVC,800.0,,,,,,
KRDR,04-24-2017,02:54,SPECI,Normal,80,15,,,9999.0,,0.0,-2.0,29.98,1016.9,,,,,,,,,,,,,,,,800.0,800.0,OVC,800.0,,,,,,
KRDR,04-24-2017,02:49,SPECI,Normal,70,14,,,9999.0,Unknown Precipitation,0.0,-2.0,29.99,1017.2,40,,,,,,,,,,,,,,,700.0,700.0,OVC,700.0,,,,,,
KRDR,04-24-2017,02:04,SPECI,Normal,80,14,,,9999.0,Unknown Precipitation,0.0,-2.0,30.01,1017.9,40,,,,,,,,,,,,,,,800.0,800.0,OVC,800.0,,,,,,
KRDR,04-24-2017,01:59,SPECI,Normal,80,12,,,9999.0,Unknown Precipitation,0.0,-2.0,30.01,1017.9,40,,,,,,,,,,,,,,,700.0,700.0,OVC,700.0,,,,,,
KRDR,04-24-2017,01:58,METAR,Normal,80,15,,,9999.0,,-0.9,-2.0,30.01,1017.9,,,,,,,,,,,,,,,,700.0,700.0,OVC,700.0,,,,,,
KRDR,04-24-2017,01:23,SPECI,Normal,90,13,20.0,,9999.0,,0.0,-2.0,30.02,1018.2,,,,,,,,,,,,,,,,700.0,900.0,BKN,900.0,OVC,3500.0,,,,
KRDR,04-24-2017,01:08,SPECI,Normal,90,13,20.0,,9999.0,,-1.0,-2.0,30.02,1018.2,,,,,,,,,,,,,,,,700.0,700.0,BKN,700.0,BKN,1100.0,OVC,3500.0,,
KRDR,04-24-2017,01:03,SPECI,Normal,80,13,,,9999.0,,-1.0,-2.0,30.03,1018.6,,,,,,,,,,,,,,,,800.0,800.0,BKN,800.0,OVC,3500.0,,,,
KRDR,04-24-2017,00:58,METAR,Normal,80,11,,,9999.0,,-1.0,-2.0,30.03,1018.6,,,,,,,,,,,.03 IN,,,,,700.0,700.0,BKN,700.0,OVC,3300.0,,,,
KRDR,04-24-2017,00:50,SPECI,Normal,90,11,,,9999.0,,-1.0,-2.0,30.03,1018.6,,,,,,,,,,,,,,,,700.0,700.0,BKN,700.0,OVC,3400.0,,,,
KRDR,04-24-2017,00:45,SPECI,Normal,80,11,,,9999.0,,-1.0,-2.0,30.03,1018.6,,,,,,,,,,,,,,,,900.0,900.0,BKN,900.0,OVC,3400.0,,,,
KRDR,04-24-2017,00:27,SPECI,Normal,80,13,,,4800.0,Unknown Precipitation/Mist,-1.0,-2.0,30.03,1018.6,40,10,,,,,,,,,,,,,,900.0,900.0,BKN,900.0,OVC,3500.0,,,,
KRDR,04-24-2017,00:17,SPECI,Normal,90,14,,,3200.0,Light Snow/Mist,-1.0,-2.0,30.03,1018.6,71,10,,,,,,,,,,,,,,1100.0,700.0,FEW,700.0,OVC,1100.0,,,,
KRDR,04-24-2017,00:07,SPECI,Normal,80,13,,,2400.0,Light Snow/Mist,-1.0,-2.0,30.04,1018.9,71,10,,,,,,,,,,,,,,1100.0,1100.0,OVC,1100.0,,,,,,
KRDR,04-23-2017,23:58,METAR,Normal,90,15,20.0,,2400.0,Light Snow/Mist,-1.1,-2.3,30.04,1019.0,71,10,,,,,,,,,.03 IN,,.1 IN,,,1200.0,1200.0,OVC,1200.0,,,,,,
KRDR,04-23-2017,23:48,SPECI,Normal,80,15,,,2800.0,Light Snow/Mist,-1.0,-2.0,30.04,1019.0,71,10,,,,,,,,,,,,,,800.0,800.0,FEW,800.0,OVC,1200.0,,,,
KRDR,04-23-2017,23:43,SPECI,Normal,90,14,,,3200.0,Unknown Precipitation/Mist,-1.0,-2.0,30.04,1019.0,40,10,,,,,,,,,,,,,,800.0,800.0,FEW,800.0,OVC,1200.0,,,,
KRDR,04-23-2017,23:39,SPECI,Normal,80,14,,,3200.0,Unknown Precipitation/Mist,-1.0,-2.0,30.05,1019.3,40,10,,,,,,,,,,,,,,800.0,1300.0,OVC,1300.0,,,,,,
KRDR,04-23-2017,23:34,SPECI,Normal,80,13,,,2800.0,Light Snow/Mist,-1.0,-2.0,30.05,1019.3,71,10,,,,,,,,,,,,,,800.0,800.0,FEW,800.0,OVC,1300.0,,,,
KRDR,04-23-2017,23:29,SPECI,Normal,90,12,,,2000.0,Light Snow/Mist,-1.0,-2.0,30.06,1019.7,71,10,,,,,,,,,,,,,,1100.0,800.0,FEW,800.0,OVC,1100.0,,,,
KRDR,04-23-2017,23:24,SPECI,Normal,90,13,,,2000.0,Light Snow/Mist,-1.0,-2.0,30.06,1019.7,71,10,,,,,,,,,,,,,,1300.0,900.0,FEW,900.0,OVC,1300.0,,,,
KRDR,04-23-2017,23:19,SPECI,Normal,90,12,,,2400.0,Light Snow/Mist,-1.0,-3.0,30.06,1019.7,71,10,,,,,,,,,,,,,,900.0,900.0,SCT,900.0,OVC,1400.0,,,,
KRDR,04-23-2017,23:14,SPECI,Normal,100,16,,,2800.0,Light Snow/Mist,0.0,-3.0,30.07,1019.9,71,10,,,,,,,,,,,,,,900.0,900.0,SCT,900.0,OVC,1500.0,,,,
KRDR,04-23-2017,23:09,SPECI,Normal,100,14,,,3200.0,Light Snow/Mist,0.0,-2.0,30.07,1019.9,71,10,,,,,,,,,,,,,,900.0,900.0,BKN,900.0,OVC,1600.0,,,,
KRDR,04-23-2017,22:59,SPECI,Normal,90,12,,,8000.0,Unknown Precipitation/Mist,0.0,-2.0,30.07,1019.9,40,10,,,,,,,,,,,,,,800.0,800.0,BKN,800.0,OVC,2200.0,,,,
KRDR,04-23-2017,22:58,METAR,Normal,90,11,,,9999.0,Mist,-0.8,-2.4,30.08,1020.3,10,,,,,,,,,,.03 IN,,,,,800.0,800.0,BKN,800.0,OVC,2300.0,,,,
KRDR,04-23-2017,22:52,SPECI,Normal,100,13,,,9999.0,,0.0,-2.0,30.07,1019.9,,,,,,,,,,,,,,,,800.0,800.0,OVC,800.0,,,,,,
KRDR,04-23-2017,22:22,SPECI,Normal,80,11,,,9999.0,Mist,0.0,-2.0,30.08,1020.3,10,,,,,,,,,,,,,,,700.0,700.0,BKN,700.0,BKN,1900.0,OVC,3000.0,,
KRDR,04-23-2017,22:18,SPECI,Normal,90,12,,,9999.0,Light Drizzle/Mist,0.0,-2.0,30.07,1019.9,51,10,,,,,,,,,,,,,,800.0,800.0,BKN,800.0,BKN,1700.0,OVC,3000.0,,
KRDR,04-23-2017,21:58,METAR,Normal,80,11,,,4800.0,Unknown Precipitation/Mist,-0.9,-2.4,30.08,1020.3,40,10,,,,,,,,,TRACE,,,,,700.0,700.0,BKN,700.0,OVC,1300.0,,,,
KRDR,04-23-2017,21:53,SPECI,Normal,80,15,,,4800.0,Light Snow/Mist,0.0,-2.0,30.08,1020.3,71,10,,,,,,,,,,,,,,700.0,700.0,BKN,700.0,OVC,1100.0,,,,
KRDR,04-23-2017,21:48,SPECI,Normal,80,13,,,4000.0,Light Snow/Mist,0.0,-2.0,30.08,1020.3,71,10,,,,,,,,,,,,,,700.0,700.0,OVC,700.0,,,,,,
KRDR,04-23-2017,21:43,SPECI,Normal,80,11,,,3200.0,Light Snow/Mist,0.0,-2.0,30.09,1020.6,71,10,,,,,,,,,,,,,,500.0,700.0,SCT,700.0,OVC,1100.0,,,,
KRDR,04-23-2017,21:33,SPECI,Normal,90,12,,,2400.0,Light Snow/Mist,-1.0,-3.0,30.09,1020.7,71,10,,,,,,,,,,,,,,900.0,900.0,OVC,900.0,,,,,,
KRDR,04-23-2017,21:03,SPECI,Normal,80,13,,,2400.0,Light Snow/Mist,-1.0,-2.0,30.11,1021.4,71,10,,,,,,,,,,,,,,1000.0,600.0,FEW,600.0,OVC,1000.0,,,,
KRDR,04-23-2017,20:58,METAR,Normal,80,12,,,2000.0,Light Snow/Mist,-1.1,-2.4,30.11,1021.4,71,10,,,,,,,,,TRACE,TRACE,,,,1000.0,600.0,FEW,600.0,OVC,1000.0,,,,
KRDR,04-23-2017,20:48,SPECI,Normal,80,13,,,2000.0,Light Snow/Mist,-1.0,-2.0,30.11,1021.4,71,10,,,,,,,,,,,,,,1100.0,600.0,FEW,600.0,OVC,1100.0,,,,
KRDR,04-23-2017,20:43,SPECI,Normal,80,13,,,2000.0,Light Snow/Mist,-1.0,-2.0,30.11,1021.4,71,10,,,,,,,,,,,,,,1000.0,600.0,FEW,600.0,OVC,1000.0,,,,
KRDR,04-23-2017,20:38,SPECI,Normal,70,10,,,1600.0,Light Snow/Mist,-1.0,-2.0,30.12,1021.7,71,10,,,,,,,,,,,,,,900.0,600.0,FEW,600.0,OVC,900.0,,,,
KRDR,04-23-2017,20:33,SPECI,Normal,70,10,,,1600.0,Light Snow/Mist,-1.0,-2.0,30.12,1021.7,71,10,,,,,,,,,,,,,Sky Obscured (Unable to Estimate),900.0,900.0,,900.0,,,,,,
KRDR,04-23-2017,20:28,SPECI,Normal,80,12,,,1600.0,Light Snow/Mist,-1.0,-2.0,30.11,1021.4,71,10,,,,,,,,,,,,,Sky Obscured (Unable to Estimate),1000.0,1000.0,,1000.0,,,,,,
KRDR,04-23-2017,20:13,SPECI,Normal,90,11,,,1200.0,Light Snow/Mist,-1.0,-2.0,30.12,1021.7,71,10,,,,,,,,,,,,,Sky Obscured (Unable to Estimate),1000.0,1000.0,,1000.0,,,,,,
KRDR,04-23-2017,20:08,SPECI,Normal,90,13,,,1600.0,Light Snow/Mist,-1.0,-3.0,30.12,1021.6,71,10,,,,,,,,,,,,,Sky Obscured (Unable to Estimate),1100.0,1100.0,,1100.0,,,,,,
KRDR,04-23-2017,19:58,METAR,Normal,80,11,,,1600.0,Light Snow/Mist,-1.4,-2.7,30.13,1022.0,71,10,,,,,,,,,.03 IN,,,,Sky Obscured (Unable to Estimate),1200.0,1200.0,,1200.0,,,,,,
KRDR,04-23-2017,19:54,SPECI,Normal,80,11,,,1600.0,Light Snow/Mist,-1.0,-3.0,30.13,1022.0,71,10,,,,,,,,,,,,,Sky Obscured (Unable to Estimate),1100.0,1100.0,,1100.0,,,,,,
KRDR,04-23-2017,19:49,SPECI,Normal,100,12,,,2000.0,Light Snow/Mist,-2.0,-3.0,30.13,1022.1,71,10,,,,,,,,,,,,,,1100.0,1100.0,OVC,1100.0,,,,,,
KRDR,04-23-2017,19:44,SPECI,Normal,90,11,,,1600.0,Light Snow/Mist,-2.0,-3.0,30.13,1022.1,71,10,,,,,,,,,,,,,Sky Obscured (Unable to Estimate),1100.0,1100.0,,1100.0,,,,,,
KRDR,04-23-2017,19:39,SPECI,Normal,80,11,,,1200.0,Light Snow/Mist,-2.0,-3.0,30.13,1022.1,71,10,,,,,,,,,,,,,Sky Obscured (Unable to Estimate),700.0,900.0,,900.0,,,,,,
KRDR,04-23-2017,19:04,SPECI,Normal,100,12,,,800.0,Snow,-2.0,-4.0,30.15,1022.7,72,,,,,,,,,,,,,,Sky Obscured (Unable to Estimate),900.0,900.0,,900.0,,,,,,
KRDR,04-23-2017,18:59,SPECI,Normal,100,12,,,1200.0,Light Snow,-1.0,-4.0,30.15,1022.7,71,,,,,,,,,,,,,,Sky Obscured (Unable to Estimate),1100.0,1100.0,,1100.0,,,,,,
KRDR,04-23-2017,18:58,METAR,Normal,100,11,,,1200.0,Light Snow,-1.3,-4.5,30.15,1022.7,71,,,,,,,,,,TRACE,,,,Sky Obscured (Unable to Estimate),1300.0,1300.0,,1300.0,,,,,,
KRDR,04-23-2017,18:56,SPECI,Normal,100,11,,,1200.0,Light Snow,-1.0,-4.0,30.15,1022.7,71,,,,,,,,,,,,,,Sky Obscured (Unable to Estimate),1300.0,1300.0,,1300.0,,,,,,
KRDR,04-23-2017,18:51,SPECI,Normal,110,12,,,1200.0,Light Snow,-1.0,-5.0,30.15,1022.7,71,,,,,,,,,,,,,,Sky Obscured (Unable to Estimate),1600.0,1600.0,,1600.0,,,,,,
KRDR,04-23-2017,18:46,SPECI,Normal,100,14,,,2000.0,Light Snow,0.0,-6.0,30.16,1023.0,71,,,,,,,,,,,,,,,1900.0,1900.0,OVC,1900.0,,,,,,
KRDR,04-23-2017,18:41,SPECI,Normal,100,14,,,6400.0,Snow,0.0,-6.0,30.16,1023.0,72,,,,,,,,,,,,,,,2300.0,2300.0,BKN,2300.0,,,,,,
KRDR,04-23-2017,18:37,SPECI,Normal,90,12,18.0,,9999.0,Haze Smoke or Dust,0.0,-7.0,30.16,1023.0,05,,,,,,,,,,,,,,,2500.0,2500.0,BKN,2500.0,,,,,,
KRDR,04-23-2017,18:30,SPECI,Normal,90,13,,,9999.0,Light Rain,0.0,-7.0,30.16,1023.0,61,,,,,,,,,,,,,,,2900.0,2900.0,BKN,2900.0,,,,,,
KRDR,04-23-2017,18:05,SPECI,Normal,100,15,,,9999.0,Light Snow,0.0,-5.0,30.16,1023.0,71,,,,,,,,,,,,,,,5000.0,5000.0,BKN,5000.0,,,,,,
KRDR,04-23-2017,17:58,METAR,Normal,130,12,,,9999.0,,0.5,-3.2,30.15,1022.7,,,,,,,,,,,TRACE,,TRACE,,,5500.0,2900.0,FEW,2900.0,SCT,4600.0,BKN,5500.0,,
KRDR,04-23-2017,17:39,SPECI,Normal,120,11,,,9999.0,,0.0,-2.0,30.17,1023.3,,,,,,,,,,,,,,,,3400.0,1300.0,FEW,1300.0,SCT,2800.0,BKN,4400.0,,
KRDR,04-23-2017,17:34,SPECI,Normal,140,9,,,9999.0,,0.0,-2.0,30.18,1023.7,,,,,,,,,,,,,,,,2800.0,1500.0,FEW,1500.0,SCT,2000.0,BKN,2800.0,,
KRDR,04-23-2017,17:29,SPECI,Normal,150,11,17.0,,9999.0,,0.0,-2.0,30.17,1023.3,,,,,,,,,,,,,,,4/8 Partly Cloudy,72000.0,1500.0,SCT,1500.0,SCT,2800.0,,,,
KRDR,04-23-2017,17:15,SPECI,Normal,120,13,,,8000.0,Light Rain,0.0,-3.0,30.17,1023.3,61,,,,,,,,,,,,,,4/8 Partly Cloudy,72000.0,1700.0,SCT,1700.0,,,,,,
KRDR,04-23-2017,17:10,SPECI,Normal,120,12,,,9999.0,Light Rain,0.0,-4.0,30.18,1023.7,61,,,,,,,,,,,,,,,1700.0,1700.0,BKN,1700.0,,,,,,
KRDR,04-23-2017,16:59,SPECI,Normal,110,10,,,9999.0,,0.0,-4.0,30.18,1023.6,,,,,,,,,,,,,,,,1700.0,1700.0,BKN,1700.0,,,,,,
KRDR,04-23-2017,16:58,METAR,Normal,100,13,,,9999.0,Light Rain,0.4,-3.0,30.18,1023.6,61,,,,,,,,,,TRACE,,,,,1700.0,1700.0,BKN,1700.0,,,,,,
KRDR,04-23-2017,16:51,SPECI,Normal,100,11,,,8000.0,Light Rain,0.0,-3.0,30.18,1023.6,61,,,,,,,,,,,,,,,1500.0,1500.0,OVC,1500.0,,,,,,
KRDR,04-23-2017,16:26,SPECI,Normal,110,11,,,3200.0,Light Snow,0.0,-3.0,30.19,1024.0,71,,,,,,,,,,,,,,,1900.0,1900.0,OVC,1900.0,,,,,,
KRDR,04-23-2017,15:58,METAR,Normal,110,11,,,6400.0,Light Snow,0.7,-4.5,30.19,1024.0,71,,,,,,,,,,TRACE,,,,,2400.0,2400.0,BKN,2400.0,,,,,,
KRDR,04-23-2017,15:55,SPECI,Normal,110,11,,,6400.0,Light Rain,0.0,-4.0,30.19,1024.0,61,,,,,,,,,,,,,,,2500.0,2500.0,BKN,2500.0,,,,,,
KRDR,04-23-2017,15:45,SPECI,Normal,100,13,,,9999.0,Unknown Precipitation,0.0,-5.0,30.20,1024.4,40,,,,,,,,,,,,,,2/8 Mostly Clear,72000.0,2300.0,FEW,2300.0,,,,,,
KRDR,04-23-2017,14:58,METAR,Normal,90,14,17.0,,9999.0,,0.5,-4.9,30.21,1024.7,,,,,,,,,,,,,,,Clear,5000.0,,,,,,,,,
KRDR,04-23-2017,13:58,METAR,Normal,80,13,,,9999.0,,0.0,-4.9,30.21,1024.6,,,,,,,,,,,,,,,Clear,6000.0,,,,,,,,,
KRDR,04-23-2017,12:58,METAR,Normal,80,9,,,9999.0,,-0.6,-5.4,30.21,1024.6,,,,,,,,,,,,,,,,7500.0,7500.0,BKN,7500.0,,,,,,
KRDR,04-23-2017,11:58,METAR,Normal,70,9,,,9999.0,,-1.0,-6.3,30.23,1025.3,,,,,,,,,,,,,TRACE,,,7000.0,7000.0,OVC,7000.0,,,,,,
KRDR,04-23-2017,10:58,METAR,Normal,60,11,,,9999.0,,-1.3,-7.4,30.22,1024.9,,,,,,,,,,,TRACE,,,,,7000.0,7000.0,OVC,7000.0,,,,,,
KRDR,04-23-2017,10:16,SPECI,Normal,40,9,,,9999.0,,-1.0,-7.0,30.24,,,,,,,,,,,,,,,,,7000.0,7000.0,OVC,7000.0,,,,,,
KRDR,04-23-2017,10:04,SPECI,Normal,40,10,,,9999.0,Unknown Precipitation,-1.0,-7.0,30.24,1025.5,40,,,,,,,,,,,,,,,7000.0,7000.0,OVC,7000.0,,,,,,
KRDR,04-23-2017,09:58,METAR,Normal,50,11,,,9999.0,,-1.3,-7.4,30.24,1025.5,,,,,,,,,,,,,,,,7000.0,7000.0,OVC,7000.0,,,,,,
KRDR,04-23-2017,08:58,METAR,Normal,40,14,,,9999.0,,-1.3,-7.8,30.23,1025.1,,,,,,,,,,,,,,,,7000.0,7000.0,OVC,7000.0,,,,,,
KRDR,04-23-2017,07:58,METAR,Normal,40,15,20.0,,9999.0,,-0.7,-7.2,30.25,1025.7,,,,,,,,,,,,,,,,6500.0,6500.0,OVC,6500.0,,,,,,
KRDR,04-23-2017,06:58,METAR,Normal,30,13,,,9999.0,,-0.2,-6.4,30.25,1025.7,,,,,,,,,,,,,,,,6000.0,6000.0,OVC,6000.0,,,,,,
KRDR,04-23-2017,05:58,METAR,Normal,40,14,,,9999.0,,0.4,-4.9,30.24,1025.4,,,,,,,,,,,,,TRACE,,,6000.0,6000.0,OVC,6000.0,,,,,,
KRDR,04-23-2017,04:58,METAR,Normal,40,12,,,9999.0,,1.0,-3.3,30.23,1025.0,,,,,,,,,,,TRACE,,,,,5500.0,5500.0,OVC,5500.0,,,,,,
KRDR,04-23-2017,04:15,SPECI,Normal,40,15,18.0,,9999.0,,0.0,-2.0,30.23,1025.0,,,,,,,,,,,,,,,,5500.0,5500.0,OVC,5500.0,,,,,,
KRDR,04-23-2017,03:59,SPECI,Normal,40,12,,,9999.0,Unknown Precipitation,0.0,-2.0,30.23,1025.0,40,,,,,,,,,,,,,,,5000.0,5000.0,OVC,5000.0,,,,,,
KRDR,04-23-2017,03:58,METAR,Normal,40,11,,,9999.0,,0.5,-1.6,30.23,1025.0,,,,,,,,,,,,,,,,5000.0,5000.0,OVC,5000.0,,,,,,
KRDR,04-23-2017,02:58,METAR,Normal,50,12,,,9999.0,,-0.2,-1.4,30.23,1025.0,,,,,,,,,,,TRACE,TRACE,,,,4800.0,800.0,FEW,800.0,OVC,4800.0,,,,
KRDR,04-23-2017,02:51,SPECI,Normal,50,11,,,9999.0,,0.0,-1.0,30.23,1025.0,,,,,,,,,,,,,,,,2900.0,1000.0,SCT,1000.0,OVC,4800.0,,,,
KRDR,04-23-2017,02:50,SPECI,Normal,50,10,,,9999.0,Unknown Precipitation,0.0,-1.0,30.23,1025.0,40,,,,,,,,,,,,,,,2900.0,1000.0,SCT,1000.0,BKN,4800.0,OVC,6000.0,,
KRDR,04-23-2017,02:45,SPECI,Normal,50,13,,,9999.0,Unknown Precipitation,0.0,-2.0,30.23,1025.0,40,,,,,,,,,,,,,,,4900.0,1100.0,SCT,1100.0,BKN,4900.0,OVC,6000.0,,
KRDR,04-23-2017,02:40,SPECI,Normal,60,13,,,6400.0,Unknown Precipitation/Mist,0.0,-2.0,30.22,1024.6,40,10,,,,,,,,,,,,,,900.0,900.0,BKN,900.0,BKN,1500.0,OVC,6000.0,,
KRDR,04-23-2017,02:35,SPECI,Normal,50,14,,,4000.0,Unknown Precipitation/Mist,0.0,-2.0,30.23,1025.0,40,10,,,,,,,,,,,,,,1000.0,1000.0,BKN,1000.0,BKN,1700.0,BKN,7000.0,,
KRDR,04-23-2017,02:30,SPECI,Normal,50,19,,,4800.0,Unknown Precipitation,0.0,-2.0,30.22,1024.6,40,,,,,,,,,,,,,,,1100.0,1100.0,BKN,1100.0,BKN,1700.0,BKN,12000.0,,
KRDR,04-23-2017,02:26,SPECI,Normal,40,20,,,8000.0,Light Rain,0.0,-2.0,30.23,1025.0,61,,,,,,,,,,,,,,,6500.0,1400.0,SCT,1400.0,BKN,6500.0,BKN,11000.0,,
KRDR,04-23-2017,02:16,SPECI,Normal,40,19,,,9999.0,Unknown Precipitation,1.0,-3.0,30.23,1025.0,40,,,,,,,,,,,,,,,11000.0,1600.0,FEW,1600.0,SCT,5000.0,OVC,11000.0,,
KRDR,04-23-2017,01:58,METAR,Normal,30,17,25.0,,9999.0,,1.7,-3.6,30.22,1024.5,,,,,,,,,,,,,,,,11000.0,7000.0,FEW,7000.0,BKN,11000.0,,,,
KRDR,04-23-2017,00:58,METAR,Normal,30,18,25.0,,9999.0,,2.1,-2.7,30.21,1024.3,,,,,,,,,,,,,,,,12000.0,12000.0,OVC,12000.0,,,,,,
KRDR,04-23-2017,00:28,SPECI,Normal,30,19,,,9999.0,,3.0,-2.0,30.20,1024.0,,,,,,,,,,,,,,,,12000.0,1900.0,SCT,1900.0,BKN,12000.0,,,,
KRDR,04-22-2017,23:58,METAR,Normal,30,17,,,9999.0,,3.4,-0.8,30.20,1024.0,,,,,,,,,,,,,,,,1500.0,1500.0,OVC,1500.0,,,,,,
KRDR,04-22-2017,23:03,SPECI,Normal,20,17,,,9999.0,,4.0,0.0,30.19,1023.7,,,,,,,,,,,,,,,,1400.0,1400.0,OVC,1400.0,,,,,,
KRDR,04-22-2017,22:58,METAR,Normal,20,17,,,9999.0,,4.9,0.6,30.19,1023.6,,,,,,,,,,,,,,,,1500.0,1500.0,OVC,1500.0,,,,,,
KRDR,04-22-2017,22:55,SPECI,Normal,20,21,,,9999.0,,5.0,0.0,30.19,1023.6,,,,,,,,,,,,,,,,1400.0,1400.0,OVC,1400.0,,,,,,
KRDR,04-22-2017,22:38,SPECI,Normal,10,17,,,9999.0,,7.0,1.0,30.17,,,,,,,,,,,,,,,,,1600.0,1600.0,OVC,1600.0,,,,,,
KRDR,04-22-2017,20:58,METAR,Normal,20,15,,,9999.0,,7.9,2.3,30.19,1023.5,,,,,,,,,,,,,,,,1700.0,1700.0,OVC,1700.0,,,,,,
KRDR,04-22-2017,19:58,METAR,Normal,20,15,,,9999.0,,9.7,3.7,30.19,1023.4,,,,,,,,,,,,,,,,1700.0,1700.0,OVC,1700.0,,,,,,
KRDR,04-22-2017,18:58,METAR,Normal,10,11,21.0,,9999.0,,9.8,4.4,30.19,1023.5,,,,,,,,,,,,,,,,1500.0,1500.0,OVC,1500.0,,,,,,
KRDR,04-22-2017,18:23,SPECI,Normal,20,16,,,9999.0,,10.0,5.0,30.20,1023.8,,,,,,,,,,,,,,,,1400.0,1500.0,BKN,1500.0,OVC,2100.0,,,,
KRDR,04-22-2017,18:18,SPECI,Normal,30,16,,,9999.0,,10.0,5.0,30.19,1023.5,,,,,,,,,,,,,,,,1400.0,1400.0,BKN,1400.0,OVC,2100.0,,,,
KRDR,04-22-2017,18:13,SPECI,Normal,20,18,,,9999.0,,10.0,5.0,30.19,1023.5,,,,,,,,,,,,,,,,1300.0,1400.0,SCT,1400.0,OVC,2100.0,,,,
KRDR,04-22-2017,18:03,SPECI,Normal,30,16,,,9999.0,,9.0,4.0,30.20,1023.8,,,,,,,,,,,,,,,,1300.0,1300.0,OVC,1300.0,,,,,,
KRDR,04-22-2017,17:58,METAR,Normal,40,18,,,9999.0,,8.3,4.1,30.20,1023.8,,,,,,,,,,,,,,,,1100.0,1100.0,OVC,1100.0,,,,,,
KRDR,04-22-2017,17:38,SPECI,Normal,20,16,22.0,,9999.0,,8.0,4.0,30.20,1023.9,,,,,,,,,,,,,,,,1000.0,1000.0,OVC,1000.0,,,,,,
KRDR,04-22-2017,17:13,SPECI,Normal,20,17,,,9999.0,,7.0,4.0,30.20,1023.9,,,,,,,,,,,,,,,,800.0,800.0,OVC,800.0,,,,,,
KRDR,04-22-2017,16:58,METAR,Normal,30,18,22.0,,9999.0,,7.3,4.4,30.20,1023.8,,,,,,,,,,,,,,,,700.0,700.0,OVC,700.0,,,,,,
KRDR,04-22-2017,16:53,SPECI,Normal,20,14,,,9999.0,,7.0,4.0,30.20,1023.8,,,,,,,,,,,,,,,,700.0,700.0,OVC,700.0,,,,,,
KRDR,04-22-2017,16:28,SPECI,Normal,20,16,,,9999.0,,7.0,5.0,30.20,1023.9,,,,,,,,,,,,,,,,600.0,600.0,OVC,600.0,,,,,,
KRDR,04-22-2017,16:23,SPECI,Normal,30,18,,,9999.0,,8.0,6.0,30.20,1023.8,,,,,,,,,,,,,,,,700.0,700.0,OVC,700.0,,,,,,
KRDR,04-22-2017,16:08,SPECI,Normal,30,16,,,9999.0,,9.0,6.0,30.19,1023.5,,,,,,,,,,,,,,,,800.0,800.0,BKN,800.0,,,,,,
KRDR,04-22-2017,15:58,METAR,Normal,30,16,,,9999.0,,11.1,6.6,30.19,1023.4,,,,,,,,,,,,,,,4/8 Partly Cloudy,72000.0,900.0,FEW,900.0,SCT,7000.0,,,,
KRDR,04-22-2017,15:54,SPECI,Normal,20,18,,,9999.0,,11.0,7.0,30.19,1023.3,,,,,,,,,,,,,,,2/8 Mostly Clear,72000.0,1000.0,FEW,1000.0,,,,,,
KRDR,04-22-2017,14:58,METAR,Normal,350,7,,,9999.0,,11.8,5.8,30.17,1022.6,,,,,,,,,,,,,,,4/8 Partly Cloudy,72000.0,7000.0,SCT,7000.0,,,,,,
KRDR,04-22-2017,13:58,METAR,Normal,350,6,,,9999.0,,10.7,4.8,30.18,1022.9,,,,,,,,,,,,,,,,7000.0,7000.0,BKN,7000.0,,,,,,
KRDR,04-22-2017,12:58,METAR,Normal,340,4,,,9999.0,,8.9,4.4,30.18,1022.8,,,,,,,,,,,,,,,Clear,72000.0,,,,,,,,,
KRDR,04-22-2017,11:58,METAR,Normal,240,6,,,9999.0,,5.6,3.6,30.17,1022.5,,,,,,,,,,,,,,IN,Clear,72000.0,,,,,,,,,
KRDR,04-22-2017,10:58,METAR,Normal,240,7,,,9999.0,,5.9,3.6,30.17,1022.5,,,,,,,,,,,,,,,Clear,72000.0,,,,,,,,,
KRDR,04-22-2017,09:58,METAR,Normal,260,8,,,9999.0,,6.9,4.1,30.17,1022.5,,,,,,,,,,,,,,,Clear,72000.0,,,,,,,,,
KRDR,04-22-2017,08:58,METAR,Normal,250,8,,,9999.0,,7.1,4.3,30.18,1022.8,,,,,,,,,,,,,,,Clear,72000.0,,,,,,,,,
KRDR,04-22-2017,07:58,METAR,Normal,260,7,,,9999.0,,6.7,3.5,30.18,1022.9,,,,,,,,,,,,,,,Clear,72000.0,,,,,,,,,
KRDR,04-22-2017,06:58,METAR,Normal,230,5,,,9999.0,,5.8,4.4,30.19,,,,,,,,,,,,,,,,Clear,72000.0,,,,,,,,,
KRDR,04-22-2017,05:58,METAR,Normal,20,3,,,9999.0,,6.7,4.6,30.19,,,,,,,,,,,,,,,,Clear,72000.0,,,,,,,,,
KRDR,04-22-2017,04:58,METAR,Normal,230,5,,,9999.0,,7.8,3.3,30.19,1023.3,,,,,,,,,,,,,,,Clear,72000.0,,,,,,,,,
KRDR,04-22-2017,03:58,METAR,Normal,250,3,,,9999.0,,7.7,4.3,30.19,1023.4,,,,,,,,,,,,,,,Clear,72000.0,,,,,,,,,
KRDR,04-22-2017,02:58,METAR,Normal,210,4,,,9999.0,,9.3,5.5,30.19,1023.4,,,,,,,,,,,,,,,Clear,72000.0,,,,,,,,,
KRDR,04-22-2017,01:58,METAR,Calm,,0,,,9999.0,,10.6,4.5,30.20,,,,,,,,,,,,,,,,Clear,72000.0,,,,,,,,,
KRDR,04-22-2017,00:58,METAR,Normal,310,3,,,9999.0,,14.9,2.8,30.21,,,,,,,,,,,,,,,,Clear,72000.0,,,,,,,,,
