Platform Id,Date,Time (UTC),Report Type,Wind Condition,Wind Direction,Wind Speed (Knots),Wind Gust Speed,Peak Wind (Knots),Visibility (M),Weather,Air Temp (C),Dew Point (C),Altimeter (inHg),SLP (Millibars),Present Automated 1,Present Automated 2,Present Automated 3,Present Manual 1,Present Manual 2,Present Manual 3,Present Manual 4,Present Manual 5,Present Manual 6,Present Manual 7,Precip Hr1,Precip Hr3,Precip Hr6,Precip Hr24,Cloud Cover,Cloud Ceiling (Feet),Lowest Cloud Base Height (Feet),Cloud Cover1,Cloudbase 1,Cloud Cover2,Cloudbase 2,Cloud Cover3,Cloudbase 3,Cloud Cover4,Cloudbase 4
KRDR,11-05-2012,23:00,METAR,,170,14.0,,,9999.0,,2.0,0.0,29.91,1013.8,,,,,,,,,,,.01 IN,,,,8/8 Overcast,1500.0,,OVC,1800.0,,,,,,
KRDR,11-05-2012,22:09,SPECI,,170,13.0,,,9999.0,,2.0,0.0,29.93,1014.6,,,,,,,,,,,,,,,8/8 Overcast,1500.0,,OVC,1500.0,,,,,,
KRDR,11-05-2012,22:00,METAR,,170,13.0,,,9999.0,,2.0,0.0,29.95,1015.1,,,,,,,,,,,.01 IN,,,,8/8 Overcast,1000.0,,OVC,1200.0,,,,,,
KRDR,11-05-2012,21:46,SPECI,,180,12.0,,,9999.0,,2.0,0.0,29.96,1015.4,,,,,,,,,,,,,,,8/8 Overcast,900.0,,OVC,1200.0,,,,,,
KRDR,11-05-2012,21:00,METAR,,200,12.0,20.0,,9999.0,,2.0,0.0,29.99,1016.6,,,,,,,,,,,.03 IN,.12 IN,,,8/8 Overcast,1000.0,,OVC,1000.0,,,,,,
KRDR,11-05-2012,20:32,SPECI,,200,13.0,,,9999.0,,2.0,0.0,30.00,1016.8,,,,,,,,,,,,,,,7/8 Mostly Cloudy,900.0,,BKN,1000.0,,,,,,
KRDR,11-05-2012,20:22,SPECI,,200,14.0,21.0,,9999.0,,2.0,0.0,30.00,1016.9,,,,,,,,,,,,,,,7/8 Mostly Cloudy,900.0,,BKN,900.0,,,,,,
KRDR,11-05-2012,20:13,SPECI,,200,14.0,,,9999.0,,2.0,0.0,30.01,1017.2,,,,,,,,,,,,,,,2/8 Mostly Clear,72000.0,,FEW,1100.0,,,,,,
KRDR,11-05-2012,20:00,METAR,,190,12.0,,,9999.0,,2.0,0.0,30.02,1017.5,,,,,,,,,,,.05 IN,,,,Clear,72000.0,,,73000.0,,,,,,
KRDR,11-05-2012,19:21,SPECI,,190,12.0,,,9999.0,,2.0,0.0,30.03,1017.9,,,,,,,,,,,,,,,Clear,72000.0,,,73000.0,,,,,,
KRDR,11-05-2012,19:12,SPECI,,190,13.0,,,9999.0,,2.0,0.0,30.04,1018.1,,,,,,,,,,,,,,,Clear,72000.0,,,73000.0,,,,,,
KRDR,11-05-2012,19:00,METAR,,180,11.0,,,9999.0,,2.0,0.0,30.04,1018.2,,,,,,,,,,,.04 IN,,,,Clear,72000.0,,,73000.0,,,,,,
KRDR,11-05-2012,18:00,METAR,,180,9.0,,,9999.0,,2.0,-1.0,30.10,1020.1,,,,,,,,,,,.01 IN,,.01 IN,,Clear,72000.0,,,73000.0,,,,,,
KRDR,11-05-2012,17:00,METAR,,180,9.0,,,9999.0,,0.0,-2.0,30.14,1021.4,,,,,,,,,,,,,,,Clear,72000.0,,,73000.0,,,,,,
KRDR,11-05-2012,16:00,METAR,,200,5.0,,,9999.0,,-1.0,-3.0,30.17,1022.3,,,,,,,,,,,,,,,2/8 Mostly Clear,72000.0,,FEW,5000.0,,,,,,
KRDR,11-05-2012,15:00,METAR,,260,3.0,,,9999.0,,-3.0,-4.0,30.18,1022.9,,,,,,,,,,,,,,,8/8 Overcast,4900.0,,OVC,5000.0,,,,,,
KRDR,11-05-2012,14:00,METAR,,,0.0,,,9999.0,,-4.0,-5.0,30.18,1022.9,,,,,,,,,,,,,,,8/8 Overcast,4900.0,,OVC,5000.0,,,,,,
KRDR,11-05-2012,13:00,METAR,,270,4.0,,,9999.0,,-3.0,-4.0,30.19,1023.0,,,,,,,,,,,,,,,8/8 Overcast,4900.0,,FEW,1400.0,OVC,5000.0,,,,
KRDR,11-05-2012,12:49,SPECI,,260,3.0,,,9999.0,,-3.0,-4.0,30.19,1022.9,,,,,,,,,,,,,,,8/8 Overcast,4900.0,,FEW,1400.0,OVC,5000.0,,,,
KRDR,11-05-2012,12:24,SPECI,,250,3.0,,,6400.0,Mist,-4.0,-4.0,30.20,1023.4,10,,,,,,,,,,,,,,8/8 Overcast,4900.0,,FEW,100.0,OVC,5000.0,,,,
KRDR,11-05-2012,12:20,SPECI,,250,4.0,,,4800.0,Mist,-4.0,-4.0,30.20,1023.5,10,,,,,,,,,,,,,,8/8 Overcast,4900.0,,SCT,100.0,OVC,5000.0,,,,
KRDR,11-05-2012,12:18,SPECI,,250,4.0,,,3200.0,Mist,-4.0,-4.0,30.20,1023.5,10,,,,,,,,,,,,,,8/8 Overcast,4900.0,,SCT,100.0,OVC,5000.0,,,,
KRDR,11-05-2012,12:15,SPECI,,250,3.0,,,1600.0,Mist,-4.0,-4.0,30.20,1023.5,10,,,,,,,,,,,,,,8/8 Overcast,4900.0,,SCT,100.0,OVC,5000.0,,,,
KRDR,11-05-2012,12:13,SPECI,,,0.0,,,1200.0,Mist,-4.0,-5.0,30.20,1023.5,10,,,,,,,,,,,,,,8/8 Overcast,4900.0,,SCT,100.0,OVC,5000.0,,,,
KRDR,11-05-2012,12:09,SPECI,,,0.0,,,800.0,Fog with Rime,-4.0,-5.0,30.20,1023.5,35,,,,,,,,,,,,,,8/8 Overcast,100.0,,BKN,100.0,OVC,5000.0,,,,
KRDR,11-05-2012,12:00,METAR,,,0.0,,,400.0,Fog with Rime,-4.0,-4.0,30.21,1023.6,35,,,,,,,,,,,,,.07 IN,Sky Obscured (Unable to Estimate),100.0,100.0,,100.0,,,,,,
KRDR,11-05-2012,11:48,SPECI,,,0.0,,,400.0,Fog with Rime,-4.0,-4.0,30.21,1023.7,35,,,,,,,,,,,,,,Sky Obscured (Unable to Estimate),100.0,100.0,,100.0,,,,,,
KRDR,11-05-2012,11:47,SPECI,,,0.0,,,800.0,Fog with Rime,-4.0,-4.0,30.21,1023.7,35,,,,,,,,,,,,,,Sky Obscured (Unable to Estimate),100.0,100.0,,100.0,,,,,,
KRDR,11-05-2012,11:43,SPECI,,,0.0,,,1200.0,Mist,-4.0,-4.0,30.21,1023.7,10,,,,,,,,,,,,,,Sky Obscured (Unable to Estimate),100.0,100.0,,100.0,,,,,,
KRDR,11-05-2012,11:42,SPECI,,,0.0,,,1200.0,Mist,-4.0,-4.0,30.21,1023.7,10,,,,,,,,,,,,,,Sky Obscured (Unable to Estimate),100.0,100.0,,100.0,,,,,,
KRDR,11-05-2012,11:40,SPECI,,,0.0,,,1600.0,Mist,-4.0,-4.0,30.21,1023.7,10,,,,,,,,,,,,,,Sky Obscured (Unable to Estimate),100.0,100.0,,100.0,,,,,,
KRDR,11-05-2012,11:39,SPECI,,,0.0,,,2000.0,Mist,-4.0,-4.0,30.21,1023.7,10,,,,,,,,,,,,,,4/8 Partly Cloudy,72000.0,,SCT,100.0,,,,,,
KRDR,11-05-2012,11:36,SPECI,,,0.0,,,3200.0,Mist,-3.0,-4.0,30.21,1023.7,10,,,,,,,,,,,,,,2/8 Mostly Clear,72000.0,,FEW,100.0,,,,,,
KRDR,11-05-2012,11:33,SPECI,,,0.0,,,2400.0,Mist,-3.0,-4.0,30.21,1023.7,10,,,,,,,,,,,,,,2/8 Mostly Clear,72000.0,,FEW,100.0,,,,,,
KRDR,11-05-2012,11:28,SPECI,,,0.0,,,2800.0,Mist,-3.0,-4.0,30.21,1023.7,10,,,,,,,,,,,,,,2/8 Mostly Clear,72000.0,,FEW,4900.0,,,,,,
KRDR,11-05-2012,11:25,SPECI,,,0.0,,,4000.0,Mist,-3.0,-4.0,30.21,1023.8,10,,,,,,,,,,,,,,2/8 Mostly Clear,72000.0,,FEW,4900.0,,,,,,
KRDR,11-05-2012,11:15,SPECI,,,0.0,,,8000.0,Mist,-3.0,-3.0,30.22,1023.9,10,,,,,,,,,,,,,,2/8 Mostly Clear,72000.0,,FEW,4900.0,,,,,,
KRDR,11-05-2012,11:00,METAR,,,0.0,,,9999.0,,-2.0,-2.0,30.21,1023.9,,,,,,,,,,,,,,,7/8 Mostly Cloudy,4800.0,,BKN,4900.0,,,,,,
KRDR,11-05-2012,10:00,METAR,,,0.0,,,9999.0,,-1.0,-2.0,30.23,1024.4,,,,,,,,,,,,,,,8/8 Overcast,4800.0,,OVC,4900.0,,,,,,
KRDR,11-05-2012,09:00,METAR,,300,3.0,,,9999.0,,-1.0,-1.0,30.24,1024.6,,,,,,,,,,,,,,,8/8 Overcast,4800.0,,FEW,2400.0,OVC,4900.0,,,,
KRDR,11-05-2012,07:51,SPECI,,,0.0,,,9999.0,,0.0,-1.0,30.23,1024.4,,,,,,,,,,,,,,,8/8 Overcast,2400.0,,SCT,2400.0,OVC,4900.0,,,,
KRDR,11-05-2012,07:00,METAR,,,0.0,,,9999.0,,0.0,-1.0,30.23,1024.6,,,,,,,,,,,,,,,8/8 Overcast,2700.0,,OVC,2700.0,,,,,,
KRDR,11-05-2012,06:00,METAR,,,0.0,,,9999.0,,0.0,-1.0,30.24,1024.6,,,,,,,,,,,,,,,8/8 Overcast,2700.0,,OVC,2700.0,,,,,,
KRDR,11-05-2012,05:00,METAR,,350,3.0,,,9999.0,,0.0,-1.0,30.23,1024.5,,,,,,,,,,,,,,,8/8 Overcast,3000.0,,OVC,3000.0,,,,,,
KRDR,11-05-2012,04:00,METAR,,340,3.0,,,9999.0,,0.0,-1.0,30.24,1024.8,,,,,,,,,,,,,,,8/8 Overcast,3000.0,,OVC,3000.0,,,,,,
KRDR,11-05-2012,03:00,METAR,,320,4.0,,,9999.0,Mist,-1.0,-1.0,30.24,1024.6,10,,,,,,,,,,,,,,8/8 Overcast,4100.0,,OVC,4200.0,,,,,,
KRDR,11-05-2012,02:00,METAR,,330,3.0,,,9999.0,,-1.0,-1.0,30.22,1024.1,,,,,,,,,,,,,,,8/8 Overcast,4200.0,,OVC,4300.0,,,,,,
KRDR,11-05-2012,01:00,METAR,,,0.0,,,9999.0,,0.0,-1.0,30.22,1024.0,,,,,,,,,,,,,,,8/8 Overcast,4000.0,,OVC,4100.0,,,,,,
KRDR,11-05-2012,00:00,METAR,,,0.0,,,9999.0,,0.0,-1.0,30.20,1023.5,,,,,,,,,,,.01 IN,,.05 IN,,8/8 Overcast,4100.0,,OVC,4200.0,,,,,,
KRDR,11-04-2012,23:00,METAR,,30,4.0,,,9999.0,,0.0,-1.0,30.19,1023.2,,,,,,,,,,,,,,,8/8 Overcast,3700.0,,OVC,3800.0,,,,,,
KRDR,11-04-2012,22:22,SPECI,,40,3.0,,,9999.0,,0.0,-1.0,30.19,1023.1,,,,,,,,,,,,,,,8/8 Overcast,3900.0,,SCT,500.0,OVC,4000.0,,,,
KRDR,11-04-2012,22:00,METAR,,50,3.0,,,9999.0,,0.0,-1.0,30.19,1023.1,,,,,,,,,,,.01 IN,,,,8/8 Overcast,500.0,,OVC,500.0,,,,,,
KRDR,11-04-2012,21:18,SPECI,,,0.0,,,9999.0,,0.0,-1.0,30.18,1022.9,,,,,,,,,,,,,,,8/8 Overcast,500.0,,OVC,500.0,,,,,,
KRDR,11-04-2012,21:00,METAR,,,0.0,,,9999.0,,0.0,-1.0,30.18,1022.8,,,,,,,,,,,.02 IN,.03 IN,,,8/8 Overcast,500.0,,OVC,600.0,,,,,,
KRDR,11-04-2012,20:25,SPECI,,40,4.0,,,9999.0,,0.0,-1.0,30.18,1022.7,,,,,,,,,,,,,,,8/8 Overcast,600.0,,BKN,600.0,OVC,4000.0,,,,
KRDR,11-04-2012,20:17,SPECI,,30,3.0,,,9999.0,,0.0,-1.0,30.18,1022.6,,,,,,,,,,,,,,,8/8 Overcast,600.0,,SCT,600.0,OVC,3800.0,,,,
KRDR,11-04-2012,20:12,SPECI,,60,3.0,,,9999.0,,0.0,-1.0,30.18,1022.7,,,,,,,,,,,,,,,8/8 Overcast,600.0,,BKN,600.0,OVC,3800.0,,,,
KRDR,11-04-2012,20:00,METAR,,,0.0,,,9999.0,,1.0,-1.0,30.18,1022.7,,,,,,,,,,,.01 IN,,,,8/8 Overcast,3600.0,,SCT,600.0,OVC,3700.0,,,,
KRDR,11-04-2012,19:47,SPECI,,20,3.0,,,9999.0,,1.0,-1.0,30.18,1022.7,,,,,,,,,,,,,,,8/8 Overcast,3600.0,,SCT,600.0,OVC,3700.0,,,,
KRDR,11-04-2012,19:00,METAR,,350,3.0,,,9999.0,,0.0,-1.0,30.18,1022.8,,,,,,,,,,,,,,,8/8 Overcast,600.0,,BKN,600.0,BKN,1200.0,OVC,3600.0,,
KRDR,11-04-2012,18:00,METAR,,340,3.0,,,9999.0,,0.0,-1.0,30.19,1023.2,,,,,,,,,,,.01 IN,,.02 IN,,8/8 Overcast,600.0,,OVC,600.0,,,,,,
KRDR,11-04-2012,17:18,SPECI,,40,3.0,,,9999.0,,0.0,-1.0,30.19,1023.3,,,,,,,,,,,,,,,8/8 Overcast,600.0,,BKN,600.0,OVC,4400.0,,,,
KRDR,11-04-2012,17:11,SPECI,,,0.0,,,9999.0,,0.0,-1.0,30.19,1023.2,,,,,,,,,,,,,,,8/8 Overcast,4200.0,,SCT,600.0,OVC,4300.0,,,,
KRDR,11-04-2012,17:00,METAR,,,0.0,,,9999.0,,0.0,-1.0,30.19,1023.2,,,,,,,,,,,.01 IN,,,,8/8 Overcast,600.0,,SCT,600.0,OVC,4300.0,,,,
KRDR,11-04-2012,16:07,SPECI,,30,3.0,,,9999.0,,0.0,-1.0,30.19,1023.2,,,,,,,,,,,,,,,8/8 Overcast,400.0,,FEW,500.0,OVC,4200.0,,,,
KRDR,11-04-2012,16:00,METAR,,,0.0,,,9999.0,,0.0,-2.0,30.20,1023.3,,,,,,,,,,,,,,,8/8 Overcast,4100.0,,OVC,4200.0,,,,,,
KRDR,11-04-2012,15:00,METAR,,20,4.0,,,9999.0,,-1.0,-2.0,30.21,1023.6,,,,,,,,,,,,,,,8/8 Overcast,3900.0,,SCT,400.0,OVC,4000.0,,,,
KRDR,11-04-2012,14:41,SPECI,,20,3.0,,,9999.0,,-1.0,-2.0,30.20,1023.5,,,,,,,,,,,,,,,8/8 Overcast,3800.0,,FEW,500.0,OVC,3900.0,,,,
KRDR,11-04-2012,14:28,SPECI,,30,4.0,,,9999.0,,-1.0,-2.0,30.20,1023.4,,,,,,,,,,,,,,,8/8 Overcast,3800.0,,FEW,400.0,OVC,3900.0,,,,
KRDR,11-04-2012,14:00,METAR,,20,3.0,,,9999.0,,-1.0,-2.0,30.20,1023.5,,,,,,,,,,,,,,,8/8 Overcast,3900.0,,FEW,400.0,OVC,4000.0,,,,
KRDR,11-04-2012,13:35,SPECI,,20,3.0,,,9999.0,,-1.0,-2.0,30.20,1023.6,,,,,,,,,,,,,,,8/8 Overcast,3900.0,,SCT,400.0,OVC,4000.0,,,,
KRDR,11-04-2012,13:00,SPECI,,340,3.0,,,9999.0,,-1.0,-2.0,30.21,1023.7,,,,,,,,,,,,,,,8/8 Overcast,400.0,,OVC,400.0,,,,,,
KRDR,11-04-2012,13:00,METAR,,330,4.0,,,9999.0,,-1.0,-2.0,30.21,1023.7,,,,,,,,,,,,,,,8/8 Overcast,400.0,,OVC,500.0,,,,,,
KRDR,11-04-2012,12:49,SPECI,,320,4.0,,,9999.0,,-1.0,-2.0,30.21,1023.8,,,,,,,,,,,,,,,8/8 Overcast,400.0,,OVC,500.0,,,,,,
KRDR,11-04-2012,12:35,SPECI,,320,3.0,,,9999.0,,-1.0,-2.0,30.21,1023.8,,,,,,,,,,,,,,,8/8 Overcast,600.0,,BKN,600.0,OVC,4000.0,,,,
KRDR,11-04-2012,12:23,SPECI,,310,4.0,,,9999.0,,-1.0,-2.0,30.22,1023.9,,,,,,,,,,,,,,,8/8 Overcast,3900.0,,FEW,600.0,OVC,4000.0,,,,
KRDR,11-04-2012,12:00,METAR,,330,3.0,,,9999.0,,-1.0,-2.0,30.22,1023.9,,,,,,,,,,,,,.01 IN,.05 IN,8/8 Overcast,4100.0,,OVC,4200.0,,,,,,
KRDR,11-04-2012,11:28,SPECI,,330,3.0,,,9999.0,,-1.0,-2.0,30.22,1023.9,,,,,,,,,,,,,,,8/8 Overcast,700.0,,SCT,600.0,OVC,4300.0,,,,
KRDR,11-04-2012,11:00,METAR,,320,3.0,,,9999.0,,-1.0,-2.0,30.22,1024.2,,,,,,,,,,,,,,,8/8 Overcast,600.0,,BKN,600.0,OVC,4400.0,,,,
KRDR,11-04-2012,10:50,SPECI,,320,3.0,,,9999.0,,-1.0,-2.0,30.22,1024.2,,,,,,,,,,,,,,,8/8 Overcast,600.0,,BKN,600.0,OVC,4400.0,,,,
KRDR,11-04-2012,10:41,SPECI,,,0.0,,,9999.0,,-1.0,-2.0,30.22,1024.2,,,,,,,,,,,,,,,8/8 Overcast,4300.0,,FEW,600.0,OVC,4400.0,,,,
KRDR,11-04-2012,10:00,METAR,,,0.0,,,9999.0,,-1.0,-2.0,30.22,1023.9,,,,,,,,,,,,,,,8/8 Overcast,4700.0,,OVC,4800.0,,,,,,
KRDR,11-04-2012,09:28,SPECI,,340,3.0,,,9999.0,,-1.0,-2.0,30.23,1024.3,,,,,,,,,,,,,,,8/8 Overcast,4800.0,,SCT,600.0,OVC,4900.0,,,,
KRDR,11-04-2012,09:03,SPECI,,,0.0,,,9999.0,,-1.0,-2.0,30.23,1024.5,,,,,,,,,,,,,,,8/8 Overcast,600.0,,BKN,600.0,OVC,4300.0,,,,
KRDR,11-04-2012,09:00,METAR,,320,3.0,,,9999.0,,-1.0,-2.0,30.23,1024.4,,,,,,,,,,,,.01 IN,,,8/8 Overcast,4200.0,,OVC,4300.0,,,,,,
KRDR,11-04-2012,08:54,SPECI,,320,3.0,,,9999.0,,-1.0,-2.0,30.23,1024.4,,,,,,,,,,,,,,,8/8 Overcast,4200.0,,FEW,700.0,OVC,4300.0,,,,
KRDR,11-04-2012,08:00,METAR,,,0.0,,,9999.0,,-1.0,-2.0,30.23,1024.5,,,,,,,,,,,,,,,8/8 Overcast,4600.0,,SCT,600.0,BKN,4700.0,OVC,5900.0,,
KRDR,11-04-2012,07:37,SPECI,,340,3.0,,,9999.0,,-1.0,-2.0,30.23,1024.6,,,,,,,,,,,,,,,8/8 Overcast,6000.0,,SCT,600.0,OVC,5900.0,,,,
KRDR,11-04-2012,07:10,SPECI,,330,3.0,,,9999.0,,-1.0,-2.0,30.23,1024.6,,,,,,,,,,,,,,,8/8 Overcast,600.0,,BKN,600.0,OVC,5900.0,,,,
KRDR,11-04-2012,07:00,METAR,,340,3.0,,,9999.0,,-1.0,-2.0,30.24,1024.6,,,,,,,,,,,.01 IN,,,,8/8 Overcast,600.0,,SCT,700.0,OVC,5900.0,,,,
KRDR,11-04-2012,06:36,SPECI,,330,4.0,,,9999.0,,-1.0,-2.0,30.24,1024.8,,,,,,,,,,,,,,,8/8 Overcast,6000.0,,FEW,900.0,OVC,5900.0,,,,
KRDR,11-04-2012,06:00,METAR,,,0.0,,,9999.0,,-1.0,-2.0,30.24,1024.6,,,,,,,,,,,,,.01 IN,,8/8 Overcast,6000.0,,OVC,5900.0,,,,,,
KRDR,11-04-2012,05:00,METAR,,330,4.0,,,9999.0,,-1.0,-2.0,30.24,1024.6,,,,,,,,,,,,,,,8/8 Overcast,6000.0,,FEW,3700.0,OVC,5900.0,,,,
KRDR,11-04-2012,04:18,SPECI,,330,6.0,,,9999.0,,-1.0,-2.0,30.24,1024.8,,,,,,,,,,,,,,,8/8 Overcast,3500.0,,SCT,1700.0,BKN,3600.0,OVC,5900.0,,
KRDR,11-04-2012,04:00,METAR,,340,5.0,,,9999.0,,-1.0,-2.0,30.25,1025.1,,,,,,,,,,,,,,,8/8 Overcast,600.0,,BKN,600.0,BKN,1800.0,OVC,3800.0,,
KRDR,11-04-2012,03:44,SPECI,,340,5.0,,,9999.0,,-1.0,-1.0,30.25,1025.2,,,,,,,,,,,,,,,8/8 Overcast,600.0,,BKN,600.0,BKN,1900.0,OVC,3800.0,,
KRDR,11-04-2012,03:33,SPECI,,340,6.0,,,9999.0,,-1.0,-2.0,30.25,1025.2,,,,,,,,,,,,,,,8/8 Overcast,1800.0,,FEW,500.0,BKN,1900.0,OVC,5900.0,,
KRDR,11-04-2012,03:26,SPECI,,350,6.0,,,9999.0,,-1.0,-1.0,30.25,1025.2,,,,,,,,,,,,,,,8/8 Overcast,2000.0,,FEW,500.0,SCT,2200.0,OVC,3800.0,,
KRDR,11-04-2012,03:15,SPECI,,350,5.0,,,9999.0,,-1.0,-1.0,30.26,1025.3,,,,,,,,,,,,,,,8/8 Overcast,500.0,,SCT,500.0,BKN,2000.0,OVC,3800.0,,
KRDR,11-04-2012,03:13,SPECI,,340,5.0,,,9999.0,,-1.0,-1.0,30.26,1025.3,,,,,,,,,,,,,,,8/8 Overcast,500.0,,BKN,500.0,BKN,2000.0,OVC,3800.0,,
KRDR,11-04-2012,03:10,SPECI,,340,6.0,,,9999.0,,-1.0,-1.0,30.26,1025.4,,,,,,,,,,,,,,,8/8 Overcast,500.0,,SCT,500.0,BKN,2000.0,OVC,3700.0,,
KRDR,11-04-2012,03:00,METAR,,340,5.0,,,9999.0,,-1.0,-1.0,30.25,1025.2,,,,,,,,,,,,.01 IN,,,8/8 Overcast,1800.0,,FEW,500.0,BKN,3700.0,OVC,5900.0,,
KRDR,11-04-2012,02:44,SPECI,,350,6.0,,,9999.0,,-1.0,-1.0,30.25,1025.1,,,,,,,,,,,,,,,8/8 Overcast,1800.0,,SCT,500.0,BKN,3600.0,OVC,5900.0,,
KRDR,11-04-2012,02:41,SPECI,,350,6.0,,,9999.0,,-1.0,-1.0,30.25,1025.1,,,,,,,,,,,,,,,8/8 Overcast,1800.0,,SCT,500.0,BKN,1800.0,OVC,5900.0,,
KRDR,11-04-2012,02:31,SPECI,,350,5.0,,,9999.0,,-1.0,-1.0,30.25,1025.1,,,,,,,,,,,,,,,8/8 Overcast,500.0,,BKN,500.0,BKN,1700.0,OVC,3600.0,,
KRDR,11-04-2012,02:00,METAR,,350,4.0,,,9999.0,,-1.0,-2.0,30.25,1025.1,,,,,,,,,,,.01 IN,,,,8/8 Overcast,1600.0,,FEW,500.0,BKN,1600.0,OVC,3300.0,,
KRDR,11-04-2012,01:43,SPECI,,350,4.0,,,9999.0,,-1.0,-2.0,30.25,1025.1,,,,,,,,,,,,,,,8/8 Overcast,1600.0,,FEW,600.0,BKN,1600.0,OVC,3300.0,,
KRDR,11-04-2012,01:39,SPECI,,340,5.0,,,9999.0,,-1.0,-2.0,30.25,1025.1,,,,,,,,,,,,,,,8/8 Overcast,1600.0,,BKN,1600.0,OVC,3300.0,,,,
KRDR,11-04-2012,01:00,METAR,,10,6.0,,,9999.0,,0.0,-2.0,30.25,1025.2,,,,,,,,,,,,,,,8/8 Overcast,3200.0,,BKN,3300.0,OVC,6900.0,,,,
KRDR,11-04-2012,00:36,SPECI,,20,6.0,,,9999.0,,0.0,-2.0,30.25,1025.1,,,,,,,,,,,,,,,8/8 Overcast,3100.0,,FEW,800.0,OVC,3200.0,,,,
KRDR,11-04-2012,00:25,SPECI,,20,6.0,,,9999.0,,0.0,-2.0,30.25,1025.1,,,,,,,,,,,,,,,8/8 Overcast,3200.0,,FEW,1000.0,BKN,3300.0,OVC,5900.0,,
KRDR,11-04-2012,00:22,SPECI,,20,6.0,,,9999.0,,0.0,-2.0,30.25,1025.0,,,,,,,,,,,,,,,8/8 Overcast,3100.0,,SCT,1200.0,BKN,3200.0,OVC,5900.0,,
KRDR,11-04-2012,00:19,SPECI,,20,8.0,,,9999.0,,0.0,-2.0,30.25,1025.0,,,,,,,,,,,,,,,8/8 Overcast,900.0,,BKN,1200.0,BKN,3200.0,OVC,5900.0,,
KRDR,11-04-2012,00:17,SPECI,,20,6.0,,,9999.0,,0.0,-2.0,30.25,1025.0,,,,,,,,,,,,,,,8/8 Overcast,1000.0,,SCT,1000.0,BKN,1500.0,OVC,5900.0,,
KRDR,11-04-2012,00:11,SPECI,,10,6.0,,,9999.0,,0.0,-2.0,30.25,1025.1,,,,,,,,,,,,,,,8/8 Overcast,900.0,,OVC,1200.0,,,,,,
KRDR,11-04-2012,00:00,METAR,,360,6.0,,,9999.0,,0.0,-2.0,30.25,1025.0,,,,,,,,,,,,,,,8/8 Overcast,800.0,,OVC,1100.0,,,,,,
KRDR,11-03-2012,23:00,METAR,,360,7.0,,,9999.0,,0.0,-2.0,30.24,1024.7,,,,,,,,,,,,,,,8/8 Overcast,800.0,,OVC,800.0,,,,,,
KRDR,11-03-2012,22:00,METAR,,350,6.0,,,9999.0,,0.0,-2.0,30.23,1024.4,,,,,,,,,,,,,,,8/8 Overcast,700.0,,OVC,700.0,,,,,,
KRDR,11-03-2012,21:00,METAR,,20,5.0,,,9999.0,,0.0,-2.0,30.22,1024.1,,,,,,,,,,,,TRACE,,,8/8 Overcast,700.0,,OVC,700.0,,,,,,
KRDR,11-03-2012,20:00,METAR,,70,5.0,,,9999.0,,0.0,-2.0,30.22,1024.1,,,,,,,,,,,,,,,8/8 Overcast,700.0,,OVC,700.0,,,,,,
KRDR,11-03-2012,19:11,SPECI,,20,4.0,,,9999.0,,0.0,-2.0,30.22,1024.0,,,,,,,,,,,,,,,8/8 Overcast,500.0,,BKN,700.0,OVC,2200.0,,,,
KRDR,11-03-2012,19:00,METAR,,20,5.0,,,9999.0,,0.0,-2.0,30.22,1024.0,,,,,,,,,,,TRACE,,,,8/8 Overcast,500.0,,OVC,500.0,,,,,,
KRDR,11-03-2012,18:31,SPECI,,20,6.0,,,9999.0,,0.0,-2.0,30.22,1024.1,,,,,,,,,,,,,,,8/8 Overcast,400.0,,OVC,500.0,,,,,,
KRDR,11-03-2012,18:05,SPECI,,40,4.0,,,8000.0,Unknown Precipitation/Mist,0.0,-1.0,30.22,1024.1,40,10,,,,,,,,,,,,,8/8 Overcast,400.0,,BKN,500.0,OVC,900.0,,,,
KRDR,11-03-2012,18:00,METAR,,30,5.0,,,9999.0,Unknown Precipitation/Mist,0.0,-2.0,30.22,1024.1,40,10,,,,,,,,,,,,,8/8 Overcast,400.0,,BKN,400.0,OVC,900.0,,,,
KRDR,11-03-2012,17:00,METAR,,30,5.0,,,6400.0,Unknown Precipitation/Mist,-1.0,-2.0,30.22,1024.0,40,10,,,,,,,,,TRACE,,,,8/8 Overcast,300.0,,OVC,400.0,,,,,,
KRDR,11-03-2012,16:10,SPECI,,20,4.0,,,4800.0,Light Snow/Mist,-1.0,-2.0,30.21,1023.7,71,10,,,,,,,,,,,,,8/8 Overcast,400.0,,BKN,400.0,BKN,2500.0,OVC,5900.0,,
KRDR,11-03-2012,15:51,SPECI,,20,5.0,,,6400.0,Light Snow/Mist,-1.0,-2.0,30.21,1023.7,71,10,,,,,,,,,,,,,8/8 Overcast,500.0,,BKN,500.0,OVC,5000.0,,,,
KRDR,11-03-2012,15:30,SPECI,,20,4.0,,,4800.0,Light Snow/Mist,-1.0,-2.0,30.21,1023.7,71,10,,,,,,,,,,,,,8/8 Overcast,2300.0,,FEW,500.0,OVC,3800.0,,,,
KRDR,11-03-2012,15:27,SPECI,,20,4.0,,,4000.0,Light Snow/Mist,-1.0,-2.0,30.21,1023.7,71,10,,,,,,,,,,,,,8/8 Overcast,2100.0,,FEW,500.0,OVC,3000.0,,,,
KRDR,11-03-2012,15:20,SPECI,,20,3.0,,,3200.0,Light Snow/Mist,-1.0,-2.0,30.21,1023.7,71,10,,,,,,,,,,,,,8/8 Overcast,1600.0,,FEW,500.0,OVC,1600.0,,,,
KRDR,11-03-2012,15:17,SPECI,,30,4.0,,,3200.0,Light Snow/Mist,-1.0,-2.0,30.21,1023.7,71,10,,,,,,,,,,,,,8/8 Overcast,1300.0,,SCT,500.0,OVC,1300.0,,,,
KRDR,11-03-2012,15:10,SPECI,,30,4.0,,,3200.0,Light Snow/Mist,-1.0,-2.0,30.21,1023.8,71,10,,,,,,,,,,,,,8/8 Overcast,1100.0,,FEW,400.0,OVC,1100.0,,,,
KRDR,11-03-2012,15:01,SPECI,,30,4.0,,,3200.0,Light Snow/Mist,-1.0,-2.0,30.21,1023.9,71,10,,,,,,,,,,,,,8/8 Overcast,1200.0,,FEW,400.0,OVC,1200.0,,,,
KRDR,11-03-2012,15:00,METAR,,30,3.0,,,2800.0,Light Snow/Mist,-1.0,-2.0,30.21,1023.8,71,10,,,,,,,,,,,,,8/8 Overcast,1200.0,,FEW,400.0,OVC,1200.0,,,,
KRDR,11-03-2012,14:46,SPECI,,30,4.0,,,3200.0,Light Snow/Mist,-1.0,-2.0,30.21,1023.8,71,10,,,,,,,,,,,,,8/8 Overcast,1100.0,,OVC,1100.0,,,,,,
KRDR,11-03-2012,14:21,SPECI,,30,4.0,,,2400.0,Light Snow/Mist,-1.0,-2.0,30.21,1023.6,71,10,,,,,,,,,,,,,8/8 Overcast,1000.0,,OVC,1000.0,,,,,,
KRDR,11-03-2012,14:20,SPECI,,30,4.0,,,2000.0,Light Snow/Mist,-1.0,-2.0,30.21,1023.6,71,10,,,,,,,,,,,,,8/8 Overcast,1000.0,,OVC,1000.0,,,,,,
KRDR,11-03-2012,14:13,SPECI,,30,3.0,,,2000.0,Light Snow/Mist,-1.0,-2.0,30.20,1023.6,71,10,,,,,,,,,,,,,8/8 Overcast,900.0,,OVC,900.0,,,,,,
KRDR,11-03-2012,14:09,SPECI,,30,3.0,,,1600.0,Light Snow/Mist,-1.0,-2.0,30.20,1023.6,71,10,,,,,,,,,,,,,Sky Obscured (Unable to Estimate),900.0,100.0,,900.0,,,,,,
KRDR,11-03-2012,14:00,METAR,,30,4.0,,,1600.0,Light Snow/Mist,-1.0,-2.0,30.20,1023.5,71,10,,,,,,,,,TRACE,,,,Sky Obscured (Unable to Estimate),900.0,100.0,,900.0,,,,,,
KRDR,11-03-2012,13:43,SPECI,,30,4.0,,,1600.0,Light Snow/Mist,-1.0,-2.0,30.20,1023.5,71,10,,,,,,,,,,,,,Sky Obscured (Unable to Estimate),900.0,100.0,,900.0,,,,,,
KRDR,11-03-2012,13:30,SPECI,,30,4.0,,,1600.0,Light Snow/Mist,-1.0,-2.0,30.20,1023.4,71,10,,,,,,,,,,,,,Sky Obscured (Unable to Estimate),1100.0,100.0,,1100.0,,,,,,
KRDR,11-03-2012,13:24,SPECI,,30,4.0,,,1600.0,Light Snow/Mist,-1.0,-2.0,30.20,1023.3,71,10,,,,,,,,,,,,,Sky Obscured (Unable to Estimate),1100.0,100.0,,1100.0,,,,,,
KRDR,11-03-2012,13:19,SPECI,,30,3.0,,,1600.0,Light Snow/Mist,-1.0,-2.0,30.19,1023.2,71,10,,,,,,,,,,,,,Sky Obscured (Unable to Estimate),1200.0,100.0,,1200.0,,,,,,
KRDR,11-03-2012,13:18,SPECI,,30,3.0,,,1600.0,Light Snow/Mist,-1.0,-2.0,30.19,1023.2,71,10,,,,,,,,,,,,,Sky Obscured (Unable to Estimate),1200.0,100.0,,1200.0,,,,,,
KRDR,11-03-2012,13:13,SPECI,,30,3.0,,,2000.0,Light Snow/Mist,-1.0,-2.0,30.19,1023.2,71,10,,,,,,,,,,,,,8/8 Overcast,1300.0,,OVC,1300.0,,,,,,
KRDR,11-03-2012,13:10,SPECI,,30,3.0,,,2800.0,Light Snow/Mist,-1.0,-2.0,30.19,1023.2,71,10,,,,,,,,,,,,,8/8 Overcast,1300.0,,OVC,1300.0,,,,,,
KRDR,11-03-2012,13:07,SPECI,,30,3.0,,,2800.0,Light Snow/Mist,-1.0,-2.0,30.19,1023.2,71,10,,,,,,,,,,,,,8/8 Overcast,1400.0,,OVC,1400.0,,,,,,
KRDR,11-03-2012,13:00,METAR,,40,3.0,,,2800.0,Light Snow/Mist,-1.0,-2.0,30.19,1023.0,71,10,,,,,,,,,TRACE,,,,8/8 Overcast,1700.0,,SCT,400.0,OVC,1700.0,,,,
KRDR,11-03-2012,13:00,SPECI,,40,3.0,,,3200.0,Light Snow/Mist,-1.0,-2.0,30.19,1023.1,71,10,,,,,,,,,,,,,8/8 Overcast,1600.0,,FEW,400.0,OVC,1600.0,,,,
KRDR,11-03-2012,12:47,SPECI,,40,4.0,,,2800.0,Light Snow/Mist,-1.0,-2.0,30.19,1023.0,71,10,,,,,,,,,,,,,8/8 Overcast,1800.0,,SCT,400.0,OVC,1800.0,,,,
KRDR,11-03-2012,12:43,SPECI,,40,3.0,,,2800.0,Light Snow/Mist,-1.0,-2.0,30.19,1023.0,71,10,,,,,,,,,,,,,8/8 Overcast,400.0,,BKN,400.0,OVC,2000.0,,,,
KRDR,11-03-2012,12:03,SPECI,,50,4.0,,,4000.0,Light Snow/Mist,-1.0,-2.0,30.18,1022.8,71,10,,,,,,,,,,,,,8/8 Overcast,400.0,,BKN,400.0,OVC,2800.0,,,,
KRDR,11-03-2012,11:51,SPECI,,60,3.0,,,4000.0,Light Snow/Mist,-1.0,-2.0,30.18,1022.7,71,10,,,,,,,,,,,,,8/8 Overcast,2300.0,,FEW,600.0,OVC,2300.0,,,,
KRDR,11-03-2012,11:38,SPECI,,70,3.0,,,3200.0,Light Snow/Mist,-1.0,-2.0,30.18,1022.7,71,10,,,,,,,,,,,,,8/8 Overcast,1500.0,,OVC,1500.0,,,,,,
KRDR,11-03-2012,11:26,SPECI,,60,4.0,,,3200.0,Light Snow/Mist,-1.0,-2.0,30.18,1022.7,71,10,,,,,,,,,,,,,8/8 Overcast,1200.0,,OVC,1200.0,,,,,,
KRDR,11-03-2012,11:23,SPECI,,60,4.0,,,3200.0,Light Snow/Mist,-1.0,-2.0,30.18,1022.7,71,10,,,,,,,,,,,,,8/8 Overcast,1100.0,,OVC,1100.0,,,,,,
KRDR,11-03-2012,11:18,SPECI,,60,4.0,,,2800.0,Light Snow/Mist,-1.0,-2.0,30.18,1022.7,71,10,,,,,,,,,,,,,8/8 Overcast,1100.0,,OVC,1100.0,,,,,,
KRDR,11-03-2012,11:14,SPECI,,70,4.0,,,2800.0,Light Snow/Mist,-1.0,-2.0,30.18,1022.7,71,10,,,,,,,,,,,,,8/8 Overcast,900.0,,OVC,900.0,,,,,,
KRDR,11-03-2012,11:06,SPECI,,70,5.0,,,3200.0,Light Snow/Mist,-1.0,-2.0,30.18,1022.6,71,10,,,,,,,,,,,,,8/8 Overcast,900.0,,OVC,900.0,,,,,,
KRDR,11-03-2012,11:00,SPECI,,70,3.0,,,3200.0,Light Snow/Mist,-1.0,-2.0,30.18,1022.6,71,10,,,,,,,,,,,,,8/8 Overcast,1100.0,,FEW,300.0,OVC,1100.0,,,,
KRDR,11-03-2012,11:00,METAR,,60,4.0,,,3200.0,Light Snow/Mist,-1.0,-2.0,30.17,1022.6,71,10,,,,,,,,,,,,,8/8 Overcast,1400.0,,FEW,300.0,OVC,1400.0,,,,
KRDR,11-03-2012,10:54,SPECI,,60,4.0,,,3200.0,Light Snow/Mist,-1.0,-2.0,30.17,1022.6,71,10,,,,,,,,,,,,,8/8 Overcast,1500.0,,FEW,300.0,OVC,1500.0,,,,
KRDR,11-03-2012,10:50,SPECI,,60,4.0,,,4000.0,Light Snow/Mist,-1.0,-2.0,30.17,1022.6,71,10,,,,,,,,,,,,,8/8 Overcast,1600.0,,OVC,1600.0,,,,,,
KRDR,11-03-2012,10:26,SPECI,,70,4.0,,,4800.0,Light Snow/Mist,-1.0,-2.0,30.17,1022.4,71,10,,,,,,,,,,,,,8/8 Overcast,2800.0,,OVC,2800.0,,,,,,
KRDR,11-03-2012,10:16,SPECI,,70,3.0,,,8000.0,Light Snow/Mist,-1.0,-2.0,30.17,1022.4,71,10,,,,,,,,,,,,,8/8 Overcast,3700.0,,FEW,800.0,SCT,2900.0,OVC,3800.0,,
KRDR,11-03-2012,10:08,SPECI,,70,3.0,,,4800.0,Light Snow/Mist,-1.0,-2.0,30.17,1022.4,71,10,,,,,,,,,,,,,8/8 Overcast,2700.0,,FEW,400.0,SCT,800.0,OVC,2700.0,,
KRDR,11-03-2012,10:06,SPECI,,70,3.0,,,4000.0,Light Snow/Mist,-1.0,-2.0,30.17,1022.4,71,10,,,,,,,,,,,,,8/8 Overcast,2800.0,,SCT,400.0,BKN,2800.0,OVC,3300.0,,
KRDR,11-03-2012,10:05,SPECI,,70,3.0,,,4000.0,Light Snow/Mist,-1.0,-2.0,30.17,1022.4,71,10,,,,,,,,,,,,,8/8 Overcast,3000.0,,SCT,400.0,OVC,3000.0,,,,
KRDR,11-03-2012,10:03,SPECI,,70,3.0,,,4000.0,Light Snow/Mist,-1.0,-2.0,30.17,1022.4,71,10,,,,,,,,,,,,,8/8 Overcast,3000.0,,SCT,400.0,OVC,3000.0,,,,
KRDR,11-03-2012,10:00,SPECI,,,0.0,,,4000.0,Light Snow/Mist,-1.0,-2.0,30.17,1022.4,71,10,,,,,,,,,,,,,8/8 Overcast,2600.0,,SCT,400.0,BKN,2600.0,OVC,3300.0,,
KRDR,11-03-2012,10:00,METAR,,70,3.0,,,4000.0,Light Snow/Mist,-1.0,-2.0,30.17,1022.4,71,10,,,,,,,,,TRACE,,,,8/8 Overcast,400.0,,BKN,400.0,OVC,1700.0,,,,
KRDR,11-03-2012,09:44,SPECI,,,0.0,,,4000.0,Light Snow/Mist,-1.0,-2.0,30.17,1022.4,71,10,,,,,,,,,,,,,8/8 Overcast,400.0,,BKN,400.0,OVC,2800.0,,,,
KRDR,11-03-2012,09:33,SPECI,,,0.0,,,4000.0,Light Snow/Mist,-1.0,-2.0,30.17,1022.3,71,10,,,,,,,,,,,,,8/8 Overcast,300.0,,BKN,300.0,BKN,700.0,OVC,2700.0,,
KRDR,11-03-2012,09:17,SPECI,,,0.0,,,4000.0,Light Snow/Mist,-1.0,-2.0,30.17,1022.3,71,10,,,,,,,,,,,,,8/8 Overcast,2300.0,,FEW,400.0,OVC,2300.0,,,,
KRDR,11-03-2012,09:06,SPECI,,,0.0,,,3200.0,Light Snow/Mist,-1.0,-2.0,30.17,1022.4,71,10,,,,,,,,,,,,,8/8 Overcast,1900.0,,OVC,1900.0,,,,,,
KRDR,11-03-2012,09:00,METAR,,,0.0,,,2800.0,Light Snow/Mist,-1.0,-2.0,30.17,1022.5,71,10,,,,,,,,,.01 IN,.01 IN,,,8/8 Overcast,1500.0,,FEW,300.0,OVC,1500.0,,,,
KRDR,11-03-2012,08:46,SPECI,,,0.0,,,2800.0,Light Snow/Mist,-1.0,-2.0,30.17,1022.5,71,10,,,,,,,,,,,,,8/8 Overcast,1600.0,,FEW,300.0,OVC,1600.0,,,,
KRDR,11-03-2012,08:23,SPECI,,,0.0,,,4000.0,Light Snow/Mist,-1.0,-2.0,30.18,1022.7,71,10,,,,,,,,,,,,,8/8 Overcast,2300.0,,FEW,400.0,OVC,2300.0,,,,
KRDR,11-03-2012,08:00,METAR,,,0.0,,,4000.0,Light Snow/Mist,-1.0,-2.0,30.18,1022.7,71,10,,,,,,,,,TRACE,,,,8/8 Overcast,2500.0,,OVC,2500.0,,,,,,
KRDR,11-03-2012,07:27,SPECI,,,0.0,,,3200.0,Light Snow/Mist,-1.0,-2.0,30.18,1022.8,71,10,,,,,,,,,,,,,8/8 Overcast,1600.0,,OVC,1600.0,,,,,,
KRDR,11-03-2012,07:24,SPECI,,,0.0,,,2800.0,Light Snow/Mist,-1.0,-2.0,30.18,1022.8,71,10,,,,,,,,,,,,,8/8 Overcast,1600.0,,OVC,1600.0,,,,,,
KRDR,11-03-2012,07:00,METAR,,,0.0,,,2400.0,Light Snow/Mist,-1.0,-2.0,30.19,1023.0,71,10,,,,,,,,,TRACE,,,,8/8 Overcast,1200.0,,OVC,1200.0,,,,,,
KRDR,11-03-2012,06:43,SPECI,,,0.0,,,2800.0,Light Snow/Mist,-1.0,-2.0,30.19,1023.0,71,10,,,,,,,,,,,,,8/8 Overcast,1200.0,,OVC,1200.0,,,,,,
KRDR,11-03-2012,06:00,METAR,,,0.0,,,3200.0,Light Snow/Mist,-1.0,-2.0,30.18,1022.8,71,10,,,,,,,,,,,,,8/8 Overcast,1400.0,,OVC,1400.0,,,,,,
KRDR,11-03-2012,05:19,SPECI,,,0.0,,,3200.0,Light Snow/Mist,-1.0,-2.0,30.18,1022.8,71,10,,,,,,,,,,,,,8/8 Overcast,1600.0,,OVC,1600.0,,,,,,
KRDR,11-03-2012,05:09,SPECI,,,0.0,,,3200.0,Light Snow/Mist,-1.0,-2.0,30.18,1022.8,71,10,,,,,,,,,,,,,8/8 Overcast,1400.0,,OVC,1400.0,,,,,,
KRDR,11-03-2012,05:00,METAR,,110,3.0,,,4000.0,Light Snow/Mist,-1.0,-2.0,30.18,1022.8,71,10,,,,,,,,,TRACE,,,,8/8 Overcast,1600.0,,SCT,300.0,OVC,1600.0,,,,
KRDR,11-03-2012,04:53,SPECI,,110,3.0,,,4000.0,Light Snow/Mist,-1.0,-2.0,30.18,1022.8,71,10,,,,,,,,,,,,,8/8 Overcast,1600.0,,FEW,300.0,OVC,1600.0,,,,
KRDR,11-03-2012,04:49,SPECI,,110,3.0,,,4000.0,Light Snow/Mist,-1.0,-2.0,30.18,1022.8,71,10,,,,,,,,,,,,,8/8 Overcast,2100.0,,SCT,300.0,OVC,2100.0,,,,
KRDR,11-03-2012,04:37,SPECI,,110,3.0,,,6400.0,Light Snow/Mist,-1.0,-2.0,30.18,1022.8,71,10,,,,,,,,,,,,,8/8 Overcast,2600.0,,SCT,300.0,BKN,2600.0,OVC,11000.0,,
KRDR,11-03-2012,04:27,SPECI,,110,3.0,,,6400.0,Light Snow/Mist,-1.0,-2.0,30.18,1022.8,71,10,,,,,,,,,,,,,8/8 Overcast,300.0,,BKN,300.0,BKN,3700.0,OVC,11000.0,,
KRDR,11-03-2012,04:19,SPECI,,110,3.0,,,6400.0,Unknown Precipitation/Mist,-1.0,-2.0,30.18,1022.8,40,10,,,,,,,,,,,,,8/8 Overcast,3100.0,,SCT,300.0,BKN,3100.0,OVC,11000.0,,
KRDR,11-03-2012,04:15,SPECI,,110,3.0,,,6400.0,Light Snow/Mist,-1.0,-2.0,30.18,1022.7,71,10,,,,,,,,,,,,,8/8 Overcast,300.0,,SCT,300.0,BKN,1500.0,OVC,11000.0,,
KRDR,11-03-2012,04:13,SPECI,,110,3.0,,,6400.0,Light Snow/Mist,-1.0,-2.0,30.18,1022.8,71,10,,,,,,,,,,,,,8/8 Overcast,300.0,,SCT,300.0,BKN,1200.0,OVC,11000.0,,
KRDR,11-03-2012,04:00,METAR,,110,3.0,,,6400.0,Light Snow/Mist,-1.0,-2.0,30.18,1022.7,71,10,,,,,,,,,,,,,8/8 Overcast,300.0,,OVC,300.0,,,,,,
KRDR,11-03-2012,03:24,SPECI,,,0.0,,,9999.0,Unknown Precipitation,-1.0,-2.0,30.18,1022.8,40,,,,,,,,,,,,,,8/8 Overcast,300.0,,OVC,300.0,,,,,,
KRDR,11-03-2012,03:21,SPECI,,,0.0,,,9999.0,Unknown Precipitation,-1.0,-2.0,30.18,1022.7,40,,,,,,,,,,,,,,8/8 Overcast,300.0,,OVC,300.0,,,,,,
KRDR,11-03-2012,03:13,SPECI,,,0.0,,,9999.0,,-1.0,-2.0,30.18,1022.7,,,,,,,,,,,,,,,8/8 Overcast,300.0,,OVC,300.0,,,,,,
KRDR,11-03-2012,03:00,METAR,,,0.0,,,9999.0,,-1.0,-2.0,30.17,1022.5,,,,,,,,,,,TRACE,0 IN,,,8/8 Overcast,400.0,,OVC,400.0,,,,,,
KRDR,11-03-2012,02:30,SPECI,,,0.0,,,9999.0,,-1.0,-2.0,30.17,1022.5,,,,,,,,,,,,,,,8/8 Overcast,300.0,,OVC,400.0,,,,,,
KRDR,11-03-2012,02:28,SPECI,,,0.0,,,9999.0,Unknown Precipitation,-1.0,-2.0,30.17,1022.5,40,,,,,,,,,,,,,,8/8 Overcast,400.0,,OVC,400.0,,,,,,
KRDR,11-03-2012,02:00,METAR,,,0.0,,,9999.0,Light Snow,-1.0,-2.0,30.17,1022.3,71,,,,,,,,,,TRACE,,,,8/8 Overcast,400.0,,OVC,400.0,,,,,,
KRDR,11-03-2012,01:35,SPECI,,,0.0,,,9999.0,Light Snow/Mist,-1.0,-2.0,30.16,1022.1,71,10,,,,,,,,,,,,,8/8 Overcast,400.0,,BKN,400.0,OVC,800.0,,,,
KRDR,11-03-2012,01:28,SPECI,,,0.0,,,6400.0,Light Snow/Mist,-1.0,-2.0,30.16,1022.1,71,10,,,,,,,,,,,,,8/8 Overcast,900.0,,SCT,400.0,OVC,900.0,,,,
KRDR,11-03-2012,01:26,SPECI,,90,3.0,,,4800.0,Light Snow/Mist,-1.0,-2.0,30.16,1022.1,71,10,,,,,,,,,,,,,8/8 Overcast,900.0,,FEW,400.0,OVC,900.0,,,,
KRDR,11-03-2012,01:23,SPECI,,80,3.0,,,4800.0,Light Snow/Mist,-1.0,-2.0,30.16,1022.1,71,10,,,,,,,,,,,,,8/8 Overcast,1000.0,,FEW,400.0,OVC,1000.0,,,,
KRDR,11-03-2012,01:18,SPECI,,90,4.0,,,3200.0,Light Snow/Mist,-1.0,-2.0,30.16,1022.1,71,10,,,,,,,,,,,,,8/8 Overcast,1000.0,,OVC,1000.0,,,,,,
KRDR,11-03-2012,01:04,SPECI,,100,4.0,,,3200.0,Light Snow/Mist,-1.0,-2.0,30.16,1022.2,71,10,,,,,,,,,,,,,8/8 Overcast,1100.0,,OVC,1100.0,,,,,,
KRDR,11-03-2012,01:02,SPECI,,100,4.0,,,2800.0,Light Snow/Mist,-1.0,-2.0,30.16,1022.2,71,10,,,,,,,,,,,,,8/8 Overcast,1100.0,,FEW,400.0,OVC,1100.0,,,,
KRDR,11-03-2012,01:00,METAR,,110,3.0,,,3200.0,Light Snow/Mist,-1.0,-2.0,30.16,1022.3,71,10,,,,,,,,,TRACE,,,,8/8 Overcast,1000.0,,FEW,400.0,OVC,1000.0,,,,
KRDR,11-03-2012,00:53,SPECI,,110,3.0,,,3200.0,Light Snow/Mist,-1.0,-2.0,30.17,1022.3,71,10,,,,,,,,,,,,,8/8 Overcast,900.0,,FEW,400.0,OVC,900.0,,,,
KRDR,11-03-2012,00:50,SPECI,,110,3.0,,,4000.0,Light Snow/Mist,-1.0,-2.0,30.17,1022.3,71,10,,,,,,,,,,,,,8/8 Overcast,1000.0,,FEW,400.0,OVC,1000.0,,,,
KRDR,11-03-2012,00:29,SPECI,,80,4.0,,,4800.0,Light Snow/Mist,-1.0,-2.0,30.16,1022.2,71,10,,,,,,,,,,,,,8/8 Overcast,1100.0,,SCT,400.0,OVC,1100.0,,,,
KRDR,11-03-2012,00:13,SPECI,,100,3.0,,,4800.0,Light Snow/Mist,-1.0,-2.0,30.17,1022.3,71,10,,,,,,,,,,,,,8/8 Overcast,400.0,,BKN,400.0,OVC,1300.0,,,,
KRDR,11-03-2012,00:06,SPECI,,110,4.0,,,6400.0,Light Snow/Mist,-1.0,-2.0,30.16,1022.2,71,10,,,,,,,,,,,,,7/8 Mostly Cloudy,1300.0,,SCT,400.0,BKN,1300.0,,,,
KRDR,11-03-2012,00:05,SPECI,,110,4.0,,,6400.0,Light Snow/Mist,-1.0,-2.0,30.16,1022.2,71,10,,,,,,,,,,,,,7/8 Mostly Cloudy,1300.0,,SCT,400.0,BKN,1300.0,,,,
KRDR,11-03-2012,00:00,METAR,,110,5.0,,,9999.0,Light Snow,-1.0,-2.0,30.16,1022.1,71,,,,,,,,,,TRACE,,TRACE,,4/8 Partly Cloudy,72000.0,,FEW,400.0,SCT,900.0,,,,
KRDR,11-02-2012,23:54,SPECI,,100,5.0,,,9999.0,Light Snow,-1.0,-2.0,30.16,1022.1,71,,,,,,,,,,,,,,7/8 Mostly Cloudy,900.0,,FEW,400.0,BKN,900.0,,,,
KRDR,11-02-2012,23:53,SPECI,,100,5.0,,,9999.0,Light Snow,-1.0,-2.0,30.16,1022.1,71,,,,,,,,,,,,,,4/8 Partly Cloudy,72000.0,,FEW,400.0,SCT,900.0,,,,
KRDR,11-02-2012,23:49,SPECI,,100,6.0,,,9999.0,Light Snow,-1.0,-2.0,30.16,1022.0,71,,,,,,,,,,,,,,4/8 Partly Cloudy,72000.0,,SCT,900.0,,,,,,
KRDR,11-02-2012,23:47,SPECI,,100,6.0,,,9999.0,,-1.0,-2.0,30.16,1022.0,,,,,,,,,,,,,,,2/8 Mostly Clear,72000.0,,FEW,1100.0,,,,,,
KRDR,11-02-2012,23:39,SPECI,,100,6.0,,,9999.0,,-1.0,-2.0,30.15,1021.9,,,,,,,,,,,,,,,2/8 Mostly Clear,72000.0,,FEW,1100.0,,,,,,
KRDR,11-02-2012,23:37,SPECI,,110,5.0,,,9999.0,,-1.0,-2.0,30.15,1021.9,,,,,,,,,,,,,,,2/8 Mostly Clear,72000.0,,FEW,1200.0,,,,,,
KRDR,11-02-2012,23:35,SPECI,,110,5.0,,,9999.0,Light Snow,-1.0,-2.0,30.15,1021.9,71,,,,,,,,,,,,,,2/8 Mostly Clear,72000.0,,FEW,1300.0,,,,,,
KRDR,11-02-2012,23:20,SPECI,,100,7.0,,,9999.0,Light Snow,-1.0,-2.0,30.15,1021.7,71,,,,,,,,,,,,,,4/8 Partly Cloudy,72000.0,,SCT,1400.0,,,,,,
KRDR,11-02-2012,23:15,SPECI,,100,7.0,,,9999.0,Light Snow,-1.0,-2.0,30.15,1021.7,71,,,,,,,,,,,,,,7/8 Mostly Cloudy,1300.0,,BKN,1300.0,,,,,,
KRDR,11-02-2012,23:10,SPECI,,90,6.0,,,9999.0,Light Snow/Mist,-1.0,-2.0,30.15,1021.7,71,10,,,,,,,,,,,,,7/8 Mostly Cloudy,1300.0,,FEW,500.0,BKN,1300.0,,,,
KRDR,11-02-2012,23:00,METAR,,90,6.0,,,8000.0,Light Snow/Mist,-1.0,-2.0,30.15,1021.8,71,10,,,,,,,,,,,,,7/8 Mostly Cloudy,1100.0,,SCT,500.0,BKN,1100.0,BKN,1600.0,,
KRDR,11-02-2012,22:51,SPECI,,90,4.0,,,9999.0,Unknown Precipitation,-1.0,-2.0,30.15,1021.9,40,,,,,,,,,,,,,,7/8 Mostly Cloudy,1400.0,,SCT,500.0,BKN,1400.0,,,,
KRDR,11-02-2012,22:35,SPECI,,90,4.0,,,9999.0,Unknown Precipitation,-1.0,-2.0,30.15,1021.9,40,,,,,,,,,,,,,,8/8 Overcast,500.0,,BKN,500.0,OVC,1500.0,,,,
KRDR,11-02-2012,22:22,SPECI,,110,3.0,,,9999.0,,-1.0,-2.0,30.16,1022.0,,,,,,,,,,,,,,,8/8 Overcast,500.0,,BKN,500.0,OVC,1300.0,,,,
KRDR,11-02-2012,22:06,SPECI,,80,3.0,,,9999.0,,-1.0,-2.0,30.16,1022.0,,,,,,,,,,,,,,,8/8 Overcast,1100.0,,FEW,500.0,OVC,1300.0,,,,
KRDR,11-02-2012,22:00,METAR,,70,3.0,,,9999.0,,-1.0,-2.0,30.15,1021.9,,,,,,,,,,,,,,,8/8 Overcast,1100.0,,OVC,1300.0,,,,,,
KRDR,11-02-2012,21:57,SPECI,,70,4.0,,,9999.0,Light Snow,-1.0,-2.0,30.15,1021.8,71,,,,,,,,,,,,,,8/8 Overcast,1000.0,,OVC,1300.0,,,,,,
KRDR,11-02-2012,21:51,SPECI,,70,3.0,,,9999.0,Light Snow,-1.0,-2.0,30.15,1021.9,71,,,,,,,,,,,,,,8/8 Overcast,1000.0,,OVC,1100.0,,,,,,
KRDR,11-02-2012,21:47,SPECI,,60,3.0,,,9999.0,Light Snow,-1.0,-2.0,30.15,1021.9,71,,,,,,,,,,,,,,8/8 Overcast,1000.0,,OVC,1200.0,,,,,,
KRDR,11-02-2012,21:40,SPECI,,70,3.0,,,8000.0,Light Snow/Mist,-1.0,-2.0,30.15,1021.9,71,10,,,,,,,,,,,,,8/8 Overcast,1100.0,,OVC,1100.0,,,,,,
KRDR,11-02-2012,21:19,SPECI,,80,3.0,,,9999.0,Unknown Precipitation,0.0,-3.0,30.15,1021.8,40,,,,,,,,,,,,,,8/8 Overcast,1300.0,,OVC,1300.0,,,,,,
KRDR,11-02-2012,21:00,METAR,,80,3.0,,,9999.0,,0.0,-3.0,30.14,1021.6,,,,,,,,,,,,,,,8/8 Overcast,1200.0,,OVC,1200.0,,,,,,
KRDR,11-02-2012,20:20,SPECI,,130,3.0,,,9999.0,,0.0,-3.0,30.15,1021.9,,,,,,,,,,,,,,,8/8 Overcast,1200.0,,OVC,1200.0,,,,,,
KRDR,11-02-2012,19:51,SPECI,,,0.0,,,9999.0,,0.0,-3.0,30.16,1022.1,,,,,,,,,,,,,,,8/8 Overcast,1100.0,,OVC,1100.0,,,,,,
KRDR,11-02-2012,19:00,METAR,,140,5.0,,,9999.0,,0.0,-3.0,30.16,1022.1,,,,,,,,,,,,,,,8/8 Overcast,1100.0,,OVC,1100.0,,,,,,
KRDR,11-02-2012,18:15,SPECI,,120,5.0,,,9999.0,,0.0,-3.0,30.17,1022.4,,,,,,,,,,,,,,,8/8 Overcast,1100.0,,OVC,1100.0,,,,,,
KRDR,11-02-2012,18:00,METAR,,120,6.0,,,9999.0,,-1.0,-4.0,30.17,1022.5,,,,,,,,,,,,,,,8/8 Overcast,1200.0,,OVC,1200.0,,,,,,
KRDR,11-02-2012,17:48,SPECI,,110,4.0,,,9999.0,,-1.0,-4.0,30.17,1022.5,,,,,,,,,,,,,,,8/8 Overcast,1200.0,,OVC,1200.0,,,,,,
KRDR,11-02-2012,17:15,SPECI,,100,5.0,,,9999.0,,-1.0,-4.0,30.18,1022.6,,,,,,,,,,,,,,,8/8 Overcast,1100.0,,OVC,1100.0,,,,,,
KRDR,11-02-2012,17:00,METAR,,100,6.0,,,9999.0,,-1.0,-4.0,30.17,1022.6,,,,,,,,,,,,,,,8/8 Overcast,1200.0,,OVC,1200.0,,,,,,
KRDR,11-02-2012,16:47,SPECI,,100,5.0,,,9999.0,,-1.0,-4.0,30.17,1022.6,,,,,,,,,,,,,,,8/8 Overcast,1200.0,,OVC,1200.0,,,,,,
KRDR,11-02-2012,16:00,METAR,,80,4.0,,,9999.0,,-1.0,-4.0,30.18,1022.8,,,,,,,,,,,,,,,8/8 Overcast,1100.0,,OVC,1100.0,,,,,,
KRDR,11-02-2012,15:00,METAR,,100,3.0,,,9999.0,,-2.0,-4.0,30.18,1022.7,,,,,,,,,,,,,,,8/8 Overcast,1000.0,,OVC,1000.0,,,,,,
KRDR,11-02-2012,14:00,METAR,,90,5.0,,,9999.0,,-2.0,-4.0,30.17,1022.5,,,,,,,,,,,,,,,8/8 Overcast,1000.0,,OVC,1000.0,,,,,,
KRDR,11-02-2012,13:00,METAR,,90,6.0,,,9999.0,,-2.0,-5.0,30.16,1022.1,,,,,,,,,,,,,,,8/8 Overcast,1100.0,,OVC,1100.0,,,,,,
KRDR,11-02-2012,12:43,SPECI,,90,6.0,,,9999.0,,-2.0,-5.0,30.16,1022.0,,,,,,,,,,,,,,,8/8 Overcast,1100.0,,OVC,1100.0,,,,,,
KRDR,11-02-2012,12:00,METAR,,70,6.0,,,9999.0,,-2.0,-5.0,30.15,1021.7,,,,,,,,,,,,,,,8/8 Overcast,1200.0,,OVC,1200.0,,,,,,
KRDR,11-02-2012,11:00,METAR,,50,4.0,,,9999.0,,-2.0,-5.0,30.15,1021.9,,,,,,,,,,,,,,,8/8 Overcast,1300.0,,OVC,1300.0,,,,,,
KRDR,11-02-2012,10:00,METAR,,90,5.0,,,9999.0,,-2.0,-5.0,30.15,1021.8,,,,,,,,,,,,,,,8/8 Overcast,1200.0,,OVC,1200.0,,,,,,
KRDR,11-02-2012,09:00,METAR,,90,8.0,,,9999.0,,-2.0,-5.0,30.15,1021.7,,,,,,,,,,,,,,,8/8 Overcast,1300.0,,OVC,1300.0,,,,,,
KRDR,11-02-2012,08:10,SPECI,,60,5.0,,,9999.0,,-2.0,-5.0,30.15,1021.9,,,,,,,,,,,,,,,8/8 Overcast,1400.0,,OVC,1400.0,,,,,,
KRDR,11-02-2012,08:00,METAR,,50,4.0,,,9999.0,,-2.0,-5.0,30.15,1021.8,,,,,,,,,,,,,,,8/8 Overcast,1500.0,,OVC,1500.0,,,,,,
KRDR,11-02-2012,07:00,METAR,,50,6.0,,,9999.0,,-2.0,-5.0,30.14,1021.3,,,,,,,,,,,,,,,8/8 Overcast,1500.0,,OVC,1500.0,,,,,,
KRDR,11-02-2012,06:38,SPECI,,30,5.0,,,9999.0,,-2.0,-5.0,30.14,1021.5,,,,,,,,,,,,,,,8/8 Overcast,1500.0,,OVC,1500.0,,,,,,
KRDR,11-02-2012,06:00,METAR,,60,7.0,,,9999.0,,-2.0,-5.0,30.13,1021.2,,,,,,,,,,,,,,,8/8 Overcast,1400.0,,OVC,1400.0,,,,,,
KRDR,11-02-2012,05:00,METAR,,70,6.0,,,9999.0,,-2.0,-6.0,30.16,1022.0,,,,,,,,,,,,,,,8/8 Overcast,1400.0,,OVC,1400.0,,,,,,
KRDR,11-02-2012,04:00,METAR,,60,8.0,,,9999.0,,-2.0,-5.0,30.14,1021.3,,,,,,,,,,,,,,,8/8 Overcast,1400.0,,OVC,1400.0,,,,,,
KRDR,11-02-2012,03:37,SPECI,,60,9.0,,,9999.0,,-2.0,-5.0,30.13,1021.2,,,,,,,,,,,,,,,8/8 Overcast,1400.0,,OVC,1400.0,,,,,,
KRDR,11-02-2012,03:00,METAR,,40,9.0,,,9999.0,,-2.0,-6.0,30.14,1021.4,,,,,,,,,,,,,,,8/8 Overcast,1700.0,,OVC,1700.0,,,,,,
KRDR,11-02-2012,02:00,METAR,,50,10.0,,,9999.0,,-1.0,-6.0,30.14,1021.5,,,,,,,,,,,,,,,8/8 Overcast,2000.0,,OVC,2000.0,,,,,,
KRDR,11-02-2012,01:00,METAR,,50,9.0,,,9999.0,,-1.0,-6.0,30.15,1021.7,,,,,,,,,,,,,,,8/8 Overcast,2000.0,,OVC,2000.0,,,,,,
KRDR,11-02-2012,00:00,METAR,,30,11.0,,,9999.0,,-1.0,-6.0,30.14,1021.5,,,,,,,,,,,,,,,8/8 Overcast,2100.0,,OVC,2100.0,,,,,,
KRDR,11-01-2012,23:33,SPECI,,10,8.0,,,9999.0,,-1.0,-2.0,,,,,,,,,,,,,,,,,8/8 Overcast,400.0,,OVC,400.0,,,,,,
KRDR,11-01-2012,23:00,METAR,,20,8.0,,,9999.0,,-1.0,-6.0,30.14,1021.3,,,,,,,,,,,,,,,8/8 Overcast,2200.0,,OVC,2200.0,,,,,,
KRDR,11-01-2012,22:00,METAR,,30,10.0,,,9999.0,,-1.0,-6.0,30.14,1021.3,,,,,,,,,,,,,,,8/8 Overcast,2100.0,,OVC,2100.0,,,,,,
KRDR,11-01-2012,21:00,METAR,,20,10.0,,,9999.0,,-1.0,-6.0,30.14,1021.5,,,,,,,,,,,,,,,8/8 Overcast,2000.0,,OVC,2000.0,,,,,,
KRDR,11-01-2012,20:00,METAR,,10,8.0,,,9999.0,,-1.0,-6.0,30.15,1021.6,,,,,,,,,,,,,,,8/8 Overcast,1700.0,,OVC,1900.0,,,,,,
KRDR,11-01-2012,19:00,METAR,,30,10.0,,,9999.0,,-2.0,-7.0,30.14,1021.5,,,,,,,,,,,,,,,8/8 Overcast,1800.0,,OVC,1800.0,,,,,,
KRDR,11-01-2012,18:00,METAR,,10,12.0,18.0,,9999.0,,-2.0,-7.0,30.18,1022.8,,,,,,,,,,,,,,,8/8 Overcast,1800.0,,OVC,1800.0,,,,,,
KRDR,11-01-2012,17:00,METAR,,30,11.0,19.0,,9999.0,,-2.0,-7.0,30.18,1022.7,,,,,,,,,,,,,,,8/8 Overcast,1900.0,,OVC,1900.0,,,,,,
KRDR,11-01-2012,16:00,METAR,,360,15.0,18.0,,9999.0,,-2.0,-8.0,30.19,1023.0,,,,,,,,,,,,,,,8/8 Overcast,2000.0,,OVC,2000.0,,,,,,
KRDR,11-01-2012,15:00,METAR,,30,15.0,,,9999.0,,-3.0,-8.0,30.18,1022.7,,,,,,,,,,,,,,,8/8 Overcast,2000.0,,OVC,2000.0,,,,,,
KRDR,11-01-2012,14:00,METAR,,30,14.0,22.0,,9999.0,,-3.0,-8.0,30.17,1022.5,,,,,,,,,,,,,,,8/8 Overcast,1900.0,,OVC,1900.0,,,,,,
KRDR,11-01-2012,13:00,METAR,,10,14.0,20.0,,9999.0,,-3.0,-7.0,30.17,1022.3,,,,,,,,,,,,,,,8/8 Overcast,2000.0,,OVC,2000.0,,,,,,
KRDR,11-01-2012,12:00,METAR,,10,12.0,,,9999.0,,-2.0,-6.0,30.15,1021.9,,,,,,,,,,,,,,,8/8 Overcast,2700.0,,FEW,1900.0,OVC,2700.0,,,,
KRDR,11-01-2012,11:00,METAR,,360,11.0,,,9999.0,,-1.0,-6.0,30.16,1022.0,,,,,,,,,,,,,,,8/8 Overcast,2800.0,,OVC,2800.0,,,,,,
KRDR,11-01-2012,10:00,METAR,,10,12.0,16.0,,9999.0,,-1.0,-5.0,30.14,1021.4,,,,,,,,,,,,,,,8/8 Overcast,3000.0,,OVC,3000.0,,,,,,
KRDR,11-01-2012,09:00,METAR,,360,12.0,19.0,,9999.0,,-1.0,-5.0,30.14,1021.3,,,,,,,,,,,,,,,8/8 Overcast,3200.0,,OVC,3300.0,,,,,,
KRDR,11-01-2012,08:00,METAR,,10,15.0,,,9999.0,,0.0,-4.0,30.13,1021.3,,,,,,,,,,,,,,,8/8 Overcast,3100.0,,OVC,3200.0,,,,,,
KRDR,11-01-2012,07:00,METAR,,20,13.0,,,9999.0,,0.0,-4.0,30.12,1020.8,,,,,,,,,,,,,,,8/8 Overcast,3200.0,,OVC,3300.0,,,,,,
KRDR,11-01-2012,06:00,METAR,,10,13.0,,,9999.0,,1.0,-3.0,30.11,1020.6,,,,,,,,,,,,,,,8/8 Overcast,3200.0,,SCT,1800.0,OVC,3300.0,,,,
KRDR,11-01-2012,05:45,SPECI,,10,11.0,,,9999.0,,1.0,-3.0,30.11,1020.5,,,,,,,,,,,,,,,8/8 Overcast,3300.0,,SCT,1800.0,OVC,3400.0,,,,
KRDR,11-01-2012,05:00,METAR,,10,13.0,,,9999.0,,2.0,-1.0,30.10,1020.1,,,,,,,,,,,,,,,8/8 Overcast,1500.0,,BKN,1700.0,OVC,2300.0,,,,
KRDR,11-01-2012,04:00,METAR,,10,10.0,20.0,,9999.0,,2.0,-1.0,30.09,1019.7,,,,,,,,,,,,,,,8/8 Overcast,1500.0,,OVC,1600.0,,,,,,
KRDR,11-01-2012,03:18,SPECI,,10,13.0,22.0,,9999.0,,3.0,0.0,30.08,1019.6,,,,,,,,,,,,,,,8/8 Overcast,1300.0,,OVC,1500.0,,,,,,
KRDR,11-01-2012,03:00,METAR,,10,15.0,22.0,,9999.0,,3.0,0.0,30.08,1019.6,,,,,,,,,,,,,,,8/8 Overcast,1300.0,,OVC,1300.0,,,,,,
KRDR,11-01-2012,02:20,SPECI,,10,18.0,23.0,,9999.0,,4.0,0.0,30.08,1019.3,,,,,,,,,,,,,,,8/8 Overcast,1400.0,,OVC,1400.0,,,,,,
KRDR,11-01-2012,02:00,METAR,,10,16.0,21.0,,9999.0,,4.0,0.0,30.07,1019.0,,,,,,,,,,,,,,,8/8 Overcast,1400.0,,OVC,1600.0,,,,,,
KRDR,11-01-2012,01:38,SPECI,,360,15.0,21.0,,9999.0,,4.0,1.0,30.07,1019.0,,,,,,,,,,,,,,,8/8 Overcast,1300.0,,OVC,1600.0,,,,,,
KRDR,11-01-2012,01:01,SPECI,,360,16.0,22.0,,9999.0,,5.0,2.0,30.06,1018.8,,,,,,,,,,,,,,,8/8 Overcast,1000.0,,OVC,1300.0,,,,,,
KRDR,11-01-2012,01:00,METAR,,360,14.0,21.0,,9999.0,,5.0,2.0,30.05,1018.6,,,,,,,,,,,,,,,8/8 Overcast,1100.0,,OVC,1100.0,,,,,,
KRDR,11-01-2012,00:32,SPECI,,10,15.0,25.0,,9999.0,,5.0,2.0,30.05,1018.4,,,,,,,,,,,,,,,8/8 Overcast,800.0,,OVC,1000.0,,,,,,
KRDR,11-01-2012,00:00,METAR,,10,13.0,,,9999.0,,5.0,3.0,30.03,1017.8,,,,,,,,,,,,,,,8/8 Overcast,700.0,,OVC,700.0,,,,,,
KRDR,10-31-2012,23:10,SPECI,,10,16.0,22.0,,9999.0,,6.0,4.0,30.01,1017.2,,,,,,,,,,,,,,,8/8 Overcast,900.0,,BKN,900.0,OVC,1400.0,,,,
KRDR,10-31-2012,23:00,METAR,,10,12.0,21.0,,9999.0,,7.0,4.0,30.00,1016.8,,,,,,,,,,,,,,,8/8 Overcast,1200.0,,OVC,1600.0,,,,,,
KRDR,10-31-2012,22:00,METAR,,10,13.0,,,9999.0,,9.0,4.0,29.98,1016.1,,,,,,,,,,,,,,,8/8 Overcast,2100.0,,BKN,2100.0,OVC,5900.0,,,,
KRDR,10-31-2012,21:39,SPECI,,10,14.0,,,9999.0,,9.0,4.0,29.97,1015.8,,,,,,,,,,,,,,,8/8 Overcast,2200.0,,BKN,2200.0,OVC,5900.0,,,,
KRDR,10-31-2012,21:00,METAR,,350,10.0,,,9999.0,,10.0,3.0,29.96,1015.4,,,,,,,,,,,,,,,7/8 Mostly Cloudy,7000.0,,BKN,6900.0,,,,,,
KRDR,10-31-2012,20:00,METAR,,330,5.0,,,9999.0,,10.0,2.0,29.94,1015.0,,,,,,,,,,,,,,,8/8 Overcast,8000.0,,BKN,7900.0,OVC,8900.0,,,,
KRDR,10-31-2012,19:00,METAR,,250,3.0,,,9999.0,,8.0,1.0,29.95,1015.3,,,,,,,,,,,,,,,8/8 Overcast,8000.0,,OVC,7900.0,,,,,,
KRDR,10-31-2012,18:00,METAR,,210,3.0,,,9999.0,,7.0,1.0,29.96,1015.6,,,,,,,,,,,TRACE,,TRACE,,7/8 Mostly Cloudy,10000.0,,BKN,9900.0,,,,,,
KRDR,10-31-2012,17:20,SPECI,,190,4.0,,,9999.0,,7.0,1.0,29.97,1015.8,,,,,,,,,,,,,,,7/8 Mostly Cloudy,9000.0,,FEW,2300.0,SCT,6900.0,BKN,8900.0,,
KRDR,10-31-2012,17:02,SPECI,,170,4.0,,,9999.0,Light Rain,6.0,0.0,29.97,1015.7,61,,,,,,,,,,,,,,7/8 Mostly Cloudy,7000.0,,BKN,6900.0,BKN,9900.0,,,,
KRDR,10-31-2012,17:00,METAR,,230,5.0,,,9999.0,,7.0,0.0,29.97,1015.9,,,,,,,,,,,,,,,4/8 Partly Cloudy,72000.0,,FEW,7900.0,SCT,9900.0,,,,
KRDR,10-31-2012,16:00,METAR,,220,7.0,,,9999.0,,5.0,-1.0,29.98,1016.2,,,,,,,,,,,,,,,8/8 Overcast,11000.0,,OVC,11000.0,,,,,,
KRDR,10-31-2012,15:00,METAR,,180,9.0,,,9999.0,,4.0,-1.0,29.98,1016.2,,,,,,,,,,,,,,,Clear,72000.0,,,73000.0,,,,,,
KRDR,10-31-2012,14:00,METAR,,150,7.0,,,9999.0,,2.0,-1.0,29.98,1016.3,,,,,,,,,,,,,,,Clear,72000.0,,,73000.0,,,,,,
KRDR,10-31-2012,13:00,METAR,,160,7.0,,,9999.0,,2.0,-1.0,29.98,1016.3,,,,,,,,,,,,,,,Clear,72000.0,,,73000.0,,,,,,
KRDR,10-31-2012,12:00,METAR,,170,7.0,,,9999.0,,3.0,0.0,30.00,1016.7,,,,,,,,,,,,,TRACE,,7/8 Mostly Cloudy,3800.0,,BKN,3900.0,,,,,,
KRDR,10-31-2012,11:00,METAR,,150,6.0,,,9999.0,,4.0,0.0,30.01,1017.0,,,,,,,,,,,,,,,8/8 Overcast,3600.0,,OVC,3700.0,,,,,,
KRDR,10-31-2012,10:00,METAR,,160,6.0,,,9999.0,,3.0,0.0,30.01,1017.3,,,,,,,,,,,,,,,8/8 Overcast,3800.0,,OVC,3900.0,,,,,,
KRDR,10-31-2012,09:00,METAR,,160,8.0,,,9999.0,,3.0,0.0,30.03,1017.7,,,,,,,,,,,,TRACE,,,7/8 Mostly Cloudy,4900.0,,BKN,5000.0,,,,,,
KRDR,10-31-2012,08:00,METAR,,140,8.0,,,9999.0,,3.0,0.0,30.05,1018.3,,,,,,,,,,,,,,,8/8 Overcast,4900.0,,OVC,5000.0,,,,,,
KRDR,10-31-2012,07:00,METAR,,140,5.0,,,9999.0,,3.0,0.0,30.06,1018.7,,,,,,,,,,,TRACE,,,,8/8 Overcast,4900.0,,OVC,5000.0,,,,,,
KRDR,10-31-2012,06:35,SPECI,,140,6.0,,,9999.0,,3.0,0.0,30.06,1018.7,,,,,,,,,,,,,,,8/8 Overcast,4900.0,,OVC,5000.0,,,,,,
KRDR,10-31-2012,06:18,SPECI,,140,6.0,,,9999.0,Light Rain,3.0,0.0,30.06,1018.8,61,,,,,,,,,,,,,,8/8 Overcast,4900.0,,OVC,5000.0,,,,,,
KRDR,10-31-2012,06:14,SPECI,,140,6.0,,,9999.0,,3.0,0.0,30.06,1018.7,,,,,,,,,,,,,,,8/8 Overcast,4900.0,,OVC,5000.0,,,,,,
KRDR,10-31-2012,06:03,SPECI,,140,8.0,,,9999.0,Unknown Precipitation,3.0,-1.0,30.05,1018.6,40,,,,,,,,,,,,,,8/8 Overcast,4900.0,,OVC,5000.0,,,,,,
KRDR,10-31-2012,06:00,METAR,,130,7.0,,,9999.0,,3.0,-1.0,30.05,1018.6,,,,,,,,,,,,,,,8/8 Overcast,4900.0,,OVC,5000.0,,,,,,
KRDR,10-31-2012,05:00,METAR,,120,4.0,,,9999.0,,2.0,-1.0,30.06,1018.9,,,,,,,,,,,,,,,8/8 Overcast,6000.0,,BKN,5900.0,OVC,6900.0,,,,
KRDR,10-31-2012,04:00,METAR,,150,5.0,,,9999.0,,1.0,-2.0,30.07,1019.3,,,,,,,,,,,,,,,2/8 Mostly Clear,72000.0,,FEW,6900.0,,,,,,
KRDR,10-31-2012,03:00,METAR,,140,5.0,,,9999.0,,2.0,-2.0,30.08,1019.6,,,,,,,,,,,,,,,2/8 Mostly Clear,72000.0,,FEW,7900.0,,,,,,
KRDR,10-31-2012,02:00,METAR,,150,6.0,,,9999.0,,2.0,-2.0,30.07,1019.3,,,,,,,,,,,,,,,Clear,72000.0,,,73000.0,,,,,,
KRDR,10-31-2012,01:00,METAR,,150,8.0,,,9999.0,,3.0,-2.0,30.08,1019.6,,,,,,,,,,,,,,,Clear,9000.0,,,73000.0,,,,,,
KRDR,10-31-2012,00:00,METAR,,140,6.0,,,9999.0,,5.0,-2.0,30.09,1019.9,,,,,,,,,,,,,,,7/8 Mostly Cloudy,8000.0,,BKN,7900.0,,,,,,
KRDR,10-30-2012,23:00,METAR,,140,12.0,,,9999.0,,6.0,-2.0,30.09,1019.7,,,,,,,,,,,,,,,4/8 Partly Cloudy,72000.0,,FEW,8900.0,SCT,11000.0,,,,
KRDR,10-30-2012,22:00,METAR,,160,14.0,,,9999.0,,6.0,-2.0,30.11,1020.4,,,,,,,,,,,,,,,8/8 Overcast,4100.0,,OVC,4200.0,,,,,,
KRDR,10-30-2012,21:00,METAR,,150,14.0,,,9999.0,,6.0,0.0,30.11,1020.5,,,,,,,,,,,,,,,8/8 Overcast,3800.0,,OVC,3900.0,,,,,,
KRDR,10-30-2012,20:00,METAR,,150,12.0,,,9999.0,,6.0,-1.0,30.13,1021.1,,,,,,,,,,,,,,,8/8 Overcast,3500.0,,OVC,3600.0,,,,,,
KRDR,10-30-2012,19:00,METAR,,180,13.0,,,9999.0,,6.0,-1.0,30.13,1021.3,,,,,,,,,,,,,,,8/8 Overcast,3800.0,,OVC,3900.0,,,,,,
KRDR,10-30-2012,18:00,METAR,,160,14.0,,,9999.0,,6.0,-1.0,30.15,1021.6,,,,,,,,,,,TRACE,,TRACE,,8/8 Overcast,4400.0,,BKN,4500.0,OVC,5000.0,,,,
KRDR,10-30-2012,17:41,SPECI,,160,13.0,,,9999.0,,6.0,-1.0,30.15,1021.8,,,,,,,,,,,,,,,8/8 Overcast,4300.0,,BKN,4400.0,OVC,5000.0,,,,
KRDR,10-30-2012,17:24,SPECI,,150,14.0,,,9999.0,Unknown Precipitation,6.0,-2.0,30.16,1022.0,40,,,,,,,,,,,,,,8/8 Overcast,4300.0,,BKN,4400.0,OVC,5000.0,,,,
KRDR,10-30-2012,17:00,METAR,,160,12.0,,,9999.0,,6.0,-2.0,30.16,1022.0,,,,,,,,,,,TRACE,,,,8/8 Overcast,4400.0,,OVC,4500.0,,,,,,
KRDR,10-30-2012,16:04,SPECI,,150,12.0,19.0,,9999.0,,5.0,-2.0,30.15,1021.7,,,,,,,,,,,,,,,8/8 Overcast,4900.0,,SCT,4600.0,OVC,5000.0,,,,
KRDR,10-30-2012,16:00,METAR,,140,14.0,19.0,,9999.0,,5.0,-2.0,30.15,1021.8,,,,,,,,,,,,,,,8/8 Overcast,4900.0,,FEW,4700.0,OVC,5000.0,,,,
KRDR,10-30-2012,15:53,SPECI,,140,13.0,19.0,,9999.0,Unknown Precipitation,5.0,-2.0,30.15,1021.7,40,,,,,,,,,,,,,,8/8 Overcast,4900.0,,FEW,4700.0,OVC,5000.0,,,,
KRDR,10-30-2012,15:00,METAR,,140,11.0,,,9999.0,,4.0,-1.0,30.14,1021.5,,,,,,,,,,,,,,,7/8 Mostly Cloudy,8000.0,,BKN,7900.0,,,,,,
KRDR,10-30-2012,14:00,METAR,,140,10.0,,,9999.0,,3.0,-1.0,30.13,1021.2,,,,,,,,,,,,,,,8/8 Overcast,7000.0,,OVC,6900.0,,,,,,
KRDR,10-30-2012,13:00,METAR,,130,8.0,,,9999.0,,2.0,-1.0,30.13,1021.1,,,,,,,,,,,,,,,8/8 Overcast,9000.0,,BKN,8900.0,OVC,11000.0,,,,
KRDR,10-30-2012,12:00,METAR,,120,7.0,,,9999.0,,2.0,-1.0,30.14,1021.6,,,,,,,,,,,,,,,7/8 Mostly Cloudy,6000.0,,BKN,5900.0,,,,,,
KRDR,10-30-2012,11:00,METAR,,140,6.0,,,9999.0,,3.0,-1.0,30.15,1021.7,,,,,,,,,,,,,,,Clear,72000.0,,,73000.0,,,,,,
KRDR,10-30-2012,10:00,METAR,,140,6.0,,,9999.0,,2.0,-1.0,30.14,1021.5,,,,,,,,,,,,,,,2/8 Mostly Clear,72000.0,,FEW,12000.0,,,,,,
KRDR,10-30-2012,09:00,METAR,,150,7.0,,,9999.0,,3.0,-1.0,30.14,1021.6,,,,,,,,,,,,,,,Clear,72000.0,,,73000.0,,,,,,
KRDR,10-30-2012,08:00,METAR,,150,9.0,,,9999.0,,2.0,-2.0,30.15,1021.8,,,,,,,,,,,,,,,Clear,72000.0,,,73000.0,,,,,,
KRDR,10-30-2012,07:00,METAR,,140,8.0,,,9999.0,,2.0,-2.0,30.15,1021.9,,,,,,,,,,,,,,,Clear,72000.0,,,73000.0,,,,,,
KRDR,10-30-2012,06:00,METAR,,140,6.0,,,9999.0,,2.0,-2.0,30.17,1022.3,,,,,,,,,,,,,,,4/8 Partly Cloudy,72000.0,,SCT,12000.0,,,,,,
KRDR,10-30-2012,05:00,METAR,,140,9.0,,,9999.0,,3.0,-3.0,30.16,1022.1,,,,,,,,,,,,,,,Clear,72000.0,,,73000.0,,,,,,
KRDR,10-30-2012,04:00,METAR,,130,9.0,,,9999.0,,2.0,-2.0,30.15,1021.9,,,,,,,,,,,,,,,Clear,72000.0,,,73000.0,,,,,,
KRDR,10-30-2012,03:00,METAR,,130,9.0,,,9999.0,,2.0,-2.0,30.15,1021.7,,,,,,,,,,,,,,,Clear,72000.0,,,73000.0,,,,,,
KRDR,10-30-2012,02:00,METAR,,120,7.0,,,9999.0,,2.0,-1.0,30.15,1021.8,,,,,,,,,,,,,,,Clear,72000.0,,,73000.0,,,,,,
KRDR,10-30-2012,01:00,METAR,,120,7.0,,,9999.0,,3.0,-1.0,30.15,1021.7,,,,,,,,,,,,,,,Clear,72000.0,,,73000.0,,,,,,
KRDR,10-30-2012,00:00,METAR,,120,7.0,,,9999.0,,5.0,0.0,30.14,1021.6,,,,,,,,,,,,,,,Clear,72000.0,,,73000.0,,,,,,
KRDR,10-29-2012,23:00,METAR,,140,7.0,,,9999.0,,8.0,1.0,30.13,1021.3,,,,,,,,,,,,,,,Clear,72000.0,,,73000.0,,,,,,
KRDR,10-29-2012,22:00,METAR,,160,10.0,,,9999.0,,9.0,1.0,30.14,1021.4,,,,,,,,,,,,,,,Clear,72000.0,,,73000.0,,,,,,
KRDR,10-29-2012,21:00,METAR,,140,10.0,,,9999.0,,10.0,1.0,30.12,1020.9,,,,,,,,,,,,,,,Clear,72000.0,,,73000.0,,,,,,
KRDR,10-29-2012,20:00,METAR,,140,10.0,,,9999.0,,9.0,1.0,30.13,1021.2,,,,,,,,,,,,,,,Clear,72000.0,,,73000.0,,,,,,
KRDR,10-29-2012,19:00,METAR,,150,11.0,,,9999.0,,8.0,0.0,30.14,1021.6,,,,,,,,,,,,,,,Clear,72000.0,,,73000.0,,,,,,
KRDR,10-29-2012,18:00,METAR,,150,12.0,,,9999.0,,8.0,0.0,30.15,1021.9,,,,,,,,,,,,,,,8/8 Overcast,8000.0,,BKN,7900.0,OVC,9900.0,,,,
KRDR,10-29-2012,17:00,METAR,,150,10.0,,,9999.0,,6.0,0.0,30.16,1022.1,,,,,,,,,,,,,,,8/8 Overcast,8000.0,,OVC,7900.0,,,,,,
KRDR,10-29-2012,16:00,METAR,,130,8.0,,,9999.0,,4.0,0.0,30.16,1022.2,,,,,,,,,,,,,,,8/8 Overcast,8000.0,,BKN,7900.0,OVC,8900.0,,,,
KRDR,10-29-2012,15:00,METAR,,100,8.0,,,9999.0,,2.0,0.0,30.17,1022.3,,,,,,,,,,,,,,,8/8 Overcast,7000.0,,BKN,6900.0,OVC,8900.0,,,,
KRDR,10-29-2012,14:00,METAR,,80,5.0,,,9999.0,,1.0,0.0,30.17,1022.5,,,,,,,,,,,,,,,8/8 Overcast,7000.0,,BKN,6900.0,OVC,11000.0,,,,
KRDR,10-29-2012,13:00,METAR,,90,6.0,,,9999.0,,1.0,-1.0,30.16,1022.2,,,,,,,,,,,,,,,8/8 Overcast,7000.0,,FEW,5900.0,BKN,6900.0,OVC,8900.0,,
KRDR,10-29-2012,12:00,METAR,,90,8.0,,,9999.0,,1.0,-1.0,30.16,1022.0,,,,,,,,,,,,,TRACE,,8/8 Overcast,7000.0,,OVC,6900.0,,,,,,
KRDR,10-29-2012,11:00,METAR,,90,8.0,,,9999.0,,0.0,-1.0,30.15,1021.9,,,,,,,,,,,,,,,8/8 Overcast,7000.0,,OVC,6900.0,,,,,,
KRDR,10-29-2012,10:00,METAR,,90,8.0,,,9999.0,,0.0,-1.0,30.16,1022.3,,,,,,,,,,,,,,,8/8 Overcast,3500.0,,BKN,3600.0,OVC,5000.0,,,,
KRDR,10-29-2012,09:00,METAR,,80,6.0,,,9999.0,,0.0,-1.0,30.18,1022.7,,,,,,,,,,,TRACE,0 IN,,,7/8 Mostly Cloudy,6000.0,,FEW,3800.0,SCT,4700.0,BKN,5900.0,,
KRDR,10-29-2012,08:30,SPECI,,80,7.0,,,9999.0,,0.0,-1.0,30.19,1023.0,,,,,,,,,,,,,,,7/8 Mostly Cloudy,3700.0,,BKN,3800.0,,,,,,
KRDR,10-29-2012,08:05,SPECI,,70,7.0,,,9999.0,Unknown Precipitation,0.0,-2.0,30.19,1023.1,40,,,,,,,,,,,,,,8/8 Overcast,4200.0,,FEW,3500.0,BKN,4300.0,OVC,5900.0,,
KRDR,10-29-2012,08:00,METAR,,70,6.0,,,9999.0,,0.0,-2.0,30.19,1023.2,,,,,,,,,,,TRACE,,,,8/8 Overcast,6000.0,,FEW,2400.0,BKN,5900.0,OVC,6900.0,,
KRDR,10-29-2012,07:29,SPECI,,80,6.0,,,9999.0,,0.0,-2.0,30.20,1023.4,,,,,,,,,,,,,,,7/8 Mostly Cloudy,3800.0,,FEW,2200.0,BKN,3900.0,,,,
KRDR,10-29-2012,07:20,SPECI,,80,7.0,,,9999.0,Unknown Precipitation,0.0,-2.0,30.20,1023.3,40,,,,,,,,,,,,,,4/8 Partly Cloudy,72000.0,,SCT,4000.0,,,,,,
KRDR,10-29-2012,07:17,SPECI,,80,7.0,,,9999.0,Unknown Precipitation,0.0,-2.0,30.20,1023.3,40,,,,,,,,,,,,,,7/8 Mostly Cloudy,3900.0,,BKN,4000.0,,,,,,
KRDR,10-29-2012,07:04,SPECI,,80,6.0,,,9999.0,Unknown Precipitation,0.0,-2.0,30.20,1023.4,40,,,,,,,,,,,,,,2/8 Mostly Clear,72000.0,,FEW,6900.0,,,,,,
KRDR,10-29-2012,07:00,METAR,,70,5.0,,,9999.0,,-1.0,-2.0,30.21,1023.7,,,,,,,,,,,TRACE,,,,4/8 Partly Cloudy,72000.0,,SCT,6900.0,,,,,,
KRDR,10-29-2012,06:24,SPECI,,70,6.0,,,9999.0,,-1.0,-2.0,30.21,1023.9,,,,,,,,,,,,,,,4/8 Partly Cloudy,72000.0,,FEW,1500.0,SCT,4500.0,SCT,5900.0,,
KRDR,10-29-2012,06:15,SPECI,,60,5.0,,,9999.0,Light Snow,-1.0,-2.0,30.22,1024.0,71,,,,,,,,,,,,,,7/8 Mostly Cloudy,3700.0,,FEW,1500.0,BKN,3800.0,,,,
KRDR,10-29-2012,06:01,SPECI,,70,5.0,,,6400.0,Light Snow/Mist,-1.0,-3.0,30.22,1024.0,71,10,,,,,,,,,,,,,8/8 Overcast,1300.0,,FEW,1500.0,OVC,3400.0,,,,
KRDR,10-29-2012,06:00,METAR,,60,5.0,,,8000.0,Light Snow/Mist,-1.0,-3.0,30.22,1024.2,71,10,,,,,,,,,TRACE,,TRACE,,8/8 Overcast,2500.0,,OVC,3200.0,,,,,,
KRDR,10-29-2012,05:39,SPECI,,80,5.0,,,9999.0,Light Snow/Mist,-1.0,-3.0,30.22,1024.2,71,10,,,,,,,,,,,,,8/8 Overcast,2100.0,,OVC,3100.0,,,,,,
KRDR,10-29-2012,05:29,SPECI,,70,5.0,,,9999.0,Light Snow,-1.0,-3.0,30.23,1024.3,71,,,,,,,,,,,,,,8/8 Overcast,1400.0,,FEW,1900.0,OVC,3100.0,,,,
KRDR,10-29-2012,05:04,SPECI,,80,7.0,,,9999.0,Light Snow,-1.0,-3.0,30.23,1024.3,71,,,,,,,,,,,,,,8/8 Overcast,1600.0,,BKN,1600.0,OVC,2300.0,,,,
KRDR,10-29-2012,05:00,METAR,,80,7.0,,,9999.0,Unknown Precipitation,-1.0,-4.0,30.23,1024.4,40,,,,,,,,,,TRACE,,,,8/8 Overcast,1500.0,,OVC,1500.0,,,,,,
KRDR,10-29-2012,04:45,SPECI,,70,7.0,,,9999.0,Unknown Precipitation,-1.0,-4.0,30.23,1024.5,40,,,,,,,,,,,,,,8/8 Overcast,1500.0,,OVC,1500.0,,,,,,
KRDR,10-29-2012,04:35,SPECI,,80,6.0,,,9999.0,,-1.0,-4.0,30.23,1024.6,,,,,,,,,,,,,,,8/8 Overcast,1500.0,,OVC,1500.0,,,,,,
KRDR,10-29-2012,04:00,METAR,,80,7.0,,,9999.0,,-1.0,-4.0,30.23,1024.5,,,,,,,,,,,,,,,8/8 Overcast,1500.0,,OVC,1500.0,,,,,,
KRDR,10-29-2012,03:00,METAR,,70,6.0,,,9999.0,,-1.0,-4.0,30.24,1024.8,,,,,,,,,,,,,,,8/8 Overcast,1600.0,,BKN,1600.0,OVC,8900.0,,,,
KRDR,10-29-2012,02:48,SPECI,,70,5.0,,,9999.0,,-1.0,-4.0,30.24,1024.8,,,,,,,,,,,,,,,8/8 Overcast,1600.0,,BKN,1600.0,OVC,8900.0,,,,
KRDR,10-29-2012,02:00,METAR,,70,5.0,,,9999.0,,-1.0,-4.0,30.24,1024.8,,,,,,,,,,,,,,,2/8 Mostly Clear,72000.0,,FEW,12000.0,,,,,,
KRDR,10-29-2012,01:00,METAR,,100,6.0,,,9999.0,,-1.0,-4.0,30.24,1024.8,,,,,,,,,,,,,,,4/8 Partly Cloudy,72000.0,,SCT,2700.0,,,,,,
KRDR,10-29-2012,00:50,SPECI,,80,7.0,,,9999.0,,-1.0,-4.0,30.24,1024.8,,,,,,,,,,,,,,,4/8 Partly Cloudy,72000.0,,SCT,2700.0,,,,,,
KRDR,10-29-2012,00:35,SPECI,,80,5.0,,,9999.0,,-1.0,-4.0,30.24,1024.7,,,,,,,,,,,,,,,7/8 Mostly Cloudy,2600.0,,BKN,2600.0,,,,,,
KRDR,10-29-2012,00:00,METAR,,70,5.0,,,9999.0,,-2.0,-5.0,30.24,1024.8,,,,,,,,,,,,,,,2/8 Mostly Clear,72000.0,,FEW,2900.0,,,,,,
KRDR,10-28-2012,23:00,METAR,,70,6.0,,,9999.0,,0.0,-5.0,30.24,1024.7,,,,,,,,,,,,,,,7/8 Mostly Cloudy,6000.0,,FEW,3100.0,SCT,6900.0,BKN,8900.0,,
KRDR,10-28-2012,22:21,SPECI,,70,7.0,,,9999.0,,1.0,-5.0,30.24,1024.9,,,,,,,,,,,,,,,7/8 Mostly Cloudy,3000.0,,BKN,3000.0,,,,,,
KRDR,10-28-2012,22:00,METAR,,90,7.0,,,9999.0,,2.0,-5.0,30.25,1025.0,,,,,,,,,,,,,,,8/8 Overcast,2600.0,,OVC,2700.0,,,,,,
KRDR,10-28-2012,21:20,SPECI,,100,9.0,,,9999.0,,2.0,-4.0,30.24,1024.9,,,,,,,,,,,,,,,8/8 Overcast,2500.0,,BKN,2700.0,OVC,12000.0,,,,
KRDR,10-28-2012,21:00,METAR,,90,9.0,,,9999.0,,2.0,-5.0,30.24,1024.9,,,,,,,,,,,,,,,8/8 Overcast,12000.0,,OVC,12000.0,,,,,,
KRDR,10-28-2012,20:00,METAR,,90,9.0,,,9999.0,,2.0,-6.0,30.26,1025.3,,,,,,,,,,,,,,,Clear,72000.0,,,73000.0,,,,,,
KRDR,10-28-2012,19:15,SPECI,,100,6.0,,,9999.0,,2.0,-6.0,30.27,1025.9,,,,,,,,,,,,,,,7/8 Mostly Cloudy,2800.0,,SCT,2800.0,BKN,8900.0,,,,
KRDR,10-28-2012,19:11,SPECI,,110,8.0,,,9999.0,,1.0,-6.0,30.27,1025.9,,,,,,,,,,,,,,,8/8 Overcast,2800.0,,BKN,2800.0,OVC,8900.0,,,,
KRDR,10-28-2012,19:00,METAR,,100,6.0,,,9999.0,,2.0,-6.0,30.28,1026.0,,,,,,,,,,,,,,,7/8 Mostly Cloudy,3000.0,,BKN,3000.0,BKN,8900.0,,,,
KRDR,10-28-2012,18:40,SPECI,,120,5.0,,,9999.0,,1.0,-6.0,30.28,1026.2,,,,,,,,,,,,,,,7/8 Mostly Cloudy,2800.0,,BKN,2800.0,BKN,8900.0,,,,
KRDR,10-28-2012,18:28,SPECI,,120,7.0,,,9999.0,,1.0,-6.0,30.28,1026.2,,,,,,,,,,,,,,,4/8 Partly Cloudy,72000.0,,SCT,2800.0,,,,,,
KRDR,10-28-2012,18:25,SPECI,,110,8.0,,,9999.0,,1.0,-6.0,30.28,1026.1,,,,,,,,,,,,,,,7/8 Mostly Cloudy,2500.0,,BKN,2800.0,,,,,,
KRDR,10-28-2012,18:02,SPECI,,140,6.0,,,9999.0,,0.0,-6.0,30.29,1026.4,,,,,,,,,,,,,,,4/8 Partly Cloudy,72000.0,,SCT,2400.0,,,,,,
KRDR,10-28-2012,18:00,METAR,,110,7.0,,,9999.0,,0.0,-6.0,30.29,1026.5,,,,,,,,,,,,,,,7/8 Mostly Cloudy,2200.0,,SCT,2200.0,BKN,7900.0,,,,
KRDR,10-28-2012,17:24,SPECI,,140,6.0,,,9999.0,,0.0,-5.0,30.30,1026.6,,,,,,,,,,,,,,,7/8 Mostly Cloudy,9000.0,,SCT,1800.0,BKN,8900.0,,,,
KRDR,10-28-2012,17:17,SPECI,,110,6.0,,,9999.0,,0.0,-4.0,30.30,1026.6,,,,,,,,,,,,,,,7/8 Mostly Cloudy,1200.0,,BKN,1600.0,,,,,,
KRDR,10-28-2012,17:11,SPECI,,80,7.0,,,9999.0,,0.0,-5.0,30.30,1026.6,,,,,,,,,,,,,,,7/8 Mostly Cloudy,1000.0,,BKN,1400.0,,,,,,
KRDR,10-28-2012,17:05,SPECI,,110,6.0,,,9999.0,,-1.0,-5.0,30.30,1026.6,,,,,,,,,,,,,,,4/8 Partly Cloudy,72000.0,,SCT,1100.0,,,,,,
KRDR,10-28-2012,17:00,METAR,,120,7.0,,,9999.0,,-1.0,-4.0,30.30,1026.7,,,,,,,,,,,,,,,8/8 Overcast,900.0,,OVC,1200.0,,,,,,
KRDR,10-28-2012,16:48,SPECI,,130,6.0,,,9999.0,,-1.0,-4.0,30.30,1026.7,,,,,,,,,,,,,,,8/8 Overcast,800.0,,OVC,1000.0,,,,,,
KRDR,10-28-2012,16:20,SPECI,,100,6.0,,,9999.0,,-2.0,-4.0,30.30,1026.8,,,,,,,,,,,,,,,7/8 Mostly Cloudy,900.0,,BKN,900.0,BKN,9900.0,,,,
KRDR,10-28-2012,16:09,SPECI,,120,4.0,,,9999.0,,-2.0,-5.0,30.31,1026.9,,,,,,,,,,,,,,,4/8 Partly Cloudy,72000.0,,FEW,1000.0,SCT,9900.0,,,,
KRDR,10-28-2012,16:00,METAR,,,0.0,,,9999.0,,-3.0,-5.0,30.31,1026.9,,,,,,,,,,,,,,,2/8 Mostly Clear,72000.0,,FEW,9900.0,,,,,,
KRDR,10-28-2012,15:00,METAR,,,0.0,,,9999.0,,-6.0,-7.0,30.31,1027.1,,,,,,,,,,,,,,,4/8 Partly Cloudy,72000.0,,SCT,500.0,,,,,,
KRDR,10-28-2012,14:45,SPECI,,,0.0,,,9999.0,,-6.0,-7.0,30.31,1027.1,,,,,,,,,,,,,,,4/8 Partly Cloudy,72000.0,,SCT,500.0,,,,,,
KRDR,10-28-2012,14:13,SPECI,,,0.0,,,9999.0,,-7.0,-8.0,30.32,1027.5,,,,,,,,,,,,,,,7/8 Mostly Cloudy,500.0,,BKN,500.0,,,,,,
KRDR,10-28-2012,14:00,METAR,,,0.0,,,9999.0,,-10.0,-12.0,30.32,1027.5,,,,,,,,,,,,,,,2/8 Mostly Clear,72000.0,,FEW,500.0,,,,,,
KRDR,10-28-2012,13:35,SPECI,,,0.0,,,9999.0,,-10.0,-12.0,30.32,1027.5,,,,,,,,,,,,,,,2/8 Mostly Clear,72000.0,,FEW,500.0,,,,,,
KRDR,10-28-2012,13:00,METAR,,,0.0,,,9999.0,,-10.0,-12.0,30.32,1027.4,,,,,,,,,,,,,,,Clear,72000.0,,,73000.0,,,,,,
KRDR,10-28-2012,12:00,METAR,,,0.0,,,9999.0,,-10.0,-11.0,30.31,1027.2,,,,,,,,,,,,,,,Clear,72000.0,,,73000.0,,,,,,
KRDR,10-28-2012,11:00,METAR,,,0.0,,,9999.0,,-10.0,-11.0,30.31,1027.0,,,,,,,,,,,,,,,Clear,72000.0,,,73000.0,,,,,,
KRDR,10-28-2012,10:00,METAR,,,0.0,,,9999.0,Mist,-9.0,-11.0,30.31,1027.0,10,,,,,,,,,,,,,,Clear,72000.0,,,73000.0,,,,,,
KRDR,10-28-2012,09:47,SPECI,,,0.0,,,4800.0,Mist,-9.0,-10.0,30.31,1027.0,10,,,,,,,,,,,,,,Clear,72000.0,,,73000.0,,,,,,
KRDR,10-28-2012,09:45,SPECI,,,0.0,,,4800.0,Mist,-9.0,-10.0,30.31,1027.0,10,,,,,,,,,,,,,,Clear,72000.0,,,73000.0,,,,,,
KRDR,10-28-2012,09:00,METAR,,,0.0,,,9999.0,,-9.0,-10.0,30.31,1026.9,,,,,,,,,,,,,,,Clear,72000.0,,,73000.0,,,,,,
KRDR,10-28-2012,08:00,METAR,,,0.0,,,9999.0,Mist,-8.0,-9.0,30.31,1026.9,10,,,,,,,,,,,,,,2/8 Mostly Clear,72000.0,,FEW,5000.0,,,,,,
KRDR,10-28-2012,07:00,METAR,,,0.0,,,9999.0,,-6.0,-7.0,30.31,1027.0,,,,,,,,,,,,,,,8/8 Overcast,4900.0,,OVC,5000.0,,,,,,
KRDR,10-28-2012,06:00,METAR,,,0.0,,,9999.0,,-7.0,-8.0,30.31,1027.0,,,,,,,,,,,,,,,2/8 Mostly Clear,72000.0,,FEW,5000.0,,,,,,
KRDR,10-28-2012,05:28,SPECI,,,0.0,,,4800.0,Mist,-6.0,-7.0,30.31,1027.0,10,,,,,,,,,,,,,,Clear,72000.0,,,73000.0,,,,,,
KRDR,10-28-2012,05:26,SPECI,,,0.0,,,3200.0,Mist,-7.0,-8.0,30.31,1027.1,10,,,,,,,,,,,,,,Clear,72000.0,,,73000.0,,,,,,
KRDR,10-28-2012,05:24,SPECI,,,0.0,,,2400.0,Mist,-7.0,-8.0,30.31,1027.1,10,,,,,,,,,,,,,,Clear,72000.0,,,73000.0,,,,,,
KRDR,10-28-2012,05:21,SPECI,,,0.0,,,2000.0,Mist,-7.0,-8.0,30.31,1027.1,10,,,,,,,,,,,,,,Clear,72000.0,,,73000.0,,,,,,
KRDR,10-28-2012,05:18,SPECI,,,0.0,,,2000.0,Mist,-6.0,-7.0,30.31,1027.1,10,,,,,,,,,,,,,,Clear,72000.0,,,73000.0,,,,,,
KRDR,10-28-2012,05:16,SPECI,,,0.0,,,2800.0,Mist,-6.0,-7.0,30.31,1027.1,10,,,,,,,,,,,,,,Clear,72000.0,,,73000.0,,,,,,
KRDR,10-28-2012,05:00,SPECI,,,0.0,,,6400.0,Mist,-7.0,-8.0,30.31,1027.1,10,,,,,,,,,,,,,,Clear,72000.0,,,73000.0,,,,,,
KRDR,10-28-2012,05:00,METAR,,,0.0,,,6400.0,Mist,-7.0,-8.0,30.31,1027.1,10,,,,,,,,,,,,,,Clear,72000.0,,,73000.0,,,,,,
KRDR,10-28-2012,04:00,METAR,,,0.0,,,9999.0,,-4.0,-6.0,30.31,1027.2,,,,,,,,,,,,,,,7/8 Mostly Cloudy,11000.0,,FEW,4700.0,BKN,11000.0,,,,
KRDR,10-28-2012,03:00,METAR,,240,3.0,,,9999.0,,-4.0,-6.0,30.31,1027.0,,,,,,,,,,,,,,,8/8 Overcast,4600.0,,BKN,4700.0,OVC,7900.0,,,,
KRDR,10-28-2012,02:00,METAR,,220,4.0,,,9999.0,,-3.0,-7.0,30.30,1026.8,,,,,,,,,,,,,,,8/8 Overcast,4300.0,,OVC,4400.0,,,,,,
KRDR,10-28-2012,01:00,METAR,,,0.0,,,9999.0,,-2.0,-8.0,30.30,1026.8,,,,,,,,,,,,,,,8/8 Overcast,4700.0,,OVC,4800.0,,,,,,
KRDR,10-28-2012,00:00,METAR,,,0.0,,,9999.0,,-1.0,-9.0,30.29,1026.4,,,,,,,,,,,,,,,8/8 Overcast,4900.0,,OVC,5000.0,,,,,,
KRDR,10-27-2012,23:00,METAR,,,0.0,,,9999.0,,0.0,-9.0,30.28,1026.2,,,,,,,,,,,,,,,8/8 Overcast,4300.0,,SCT,4200.0,OVC,5900.0,,,,
KRDR,10-27-2012,22:00,METAR,,,0.0,,,9999.0,,0.0,-10.0,30.28,1026.1,,,,,,,,,,,,,,,8/8 Overcast,6000.0,,OVC,5900.0,,,,,,
KRDR,10-27-2012,21:00,METAR,,,0.0,,,9999.0,,0.0,-10.0,30.29,1026.2,,,,,,,,,,,,,,,8/8 Overcast,6000.0,,OVC,5900.0,,,,,,
KRDR,10-27-2012,20:00,METAR,,,0.0,,,9999.0,,0.0,-10.0,30.29,1026.3,,,,,,,,,,,,,,,8/8 Overcast,6000.0,,FEW,4500.0,OVC,5900.0,,,,
KRDR,10-27-2012,19:00,METAR,,330,5.0,,,9999.0,,0.0,-10.0,30.30,1026.8,,,,,,,,,,,,,,,8/8 Overcast,4400.0,,OVC,4500.0,,,,,,
KRDR,10-27-2012,18:00,METAR,,10,3.0,,,9999.0,,0.0,-10.0,30.31,1027.0,,,,,,,,,,,,,,,8/8 Overcast,4100.0,,OVC,4200.0,,,,,,
KRDR,10-27-2012,17:00,METAR,,330,7.0,,,9999.0,,-1.0,-10.0,30.32,1027.4,,,,,,,,,,,,,,,8/8 Overcast,4500.0,,OVC,4600.0,,,,,,
KRDR,10-27-2012,16:00,METAR,,330,7.0,,,9999.0,,-1.0,-7.0,30.33,1027.6,,,,,,,,,,,,,,,8/8 Overcast,6000.0,,SCT,5000.0,OVC,5900.0,,,,
KRDR,10-27-2012,15:00,METAR,,320,5.0,,,9999.0,,-2.0,-6.0,30.32,1027.3,,,,,,,,,,,,,,,8/8 Overcast,3000.0,,OVC,5900.0,,,,,,
KRDR,10-27-2012,14:00,METAR,,,0.0,,,9999.0,,-4.0,-6.0,30.30,1026.8,,,,,,,,,,,,,,,8/8 Overcast,4900.0,,SCT,3500.0,SCT,4200.0,OVC,5000.0,,
KRDR,10-27-2012,13:00,METAR,,260,5.0,,,9999.0,,-4.0,-7.0,30.29,1026.5,,,,,,,,,,,,,,,8/8 Overcast,4300.0,,OVC,4400.0,,,,,,
KRDR,10-27-2012,12:00,METAR,,250,3.0,,,9999.0,,-6.0,-7.0,30.28,1026.0,,,,,,,,,,,,,,,8/8 Overcast,10000.0,,FEW,5000.0,SCT,7900.0,OVC,9900.0,,
KRDR,10-27-2012,11:00,METAR,,260,5.0,,,9999.0,,-7.0,-9.0,30.28,1025.9,,,,,,,,,,,,,,,8/8 Overcast,4900.0,,FEW,4400.0,BKN,5000.0,OVC,12000.0,,
KRDR,10-27-2012,10:00,METAR,,280,4.0,,,9999.0,,-7.0,-9.0,30.27,1025.7,,,,,,,,,,,,,,,Clear,72000.0,,,73000.0,,,,,,
KRDR,10-27-2012,09:00,METAR,,270,5.0,,,9999.0,,-7.0,-8.0,30.27,1025.6,,,,,,,,,,,,,,,Clear,72000.0,,,73000.0,,,,,,
KRDR,10-27-2012,08:00,METAR,,290,3.0,,,9999.0,,-4.0,-7.0,30.26,1025.5,,,,,,,,,,,,,,,Clear,72000.0,,,73000.0,,,,,,
KRDR,10-27-2012,07:00,METAR,,270,6.0,,,9999.0,,-4.0,-6.0,30.26,1025.4,,,,,,,,,,,,,,,4/8 Partly Cloudy,72000.0,,SCT,5900.0,,,,,,
KRDR,10-27-2012,06:00,METAR,,260,4.0,,,9999.0,,-2.0,-5.0,30.26,1025.4,,,,,,,,,,,,,TRACE,,8/8 Overcast,6000.0,,OVC,5900.0,,,,,,
KRDR,10-27-2012,05:00,METAR,,270,3.0,,,9999.0,,-2.0,-4.0,30.26,1025.4,,,,,,,,,,,,,,,8/8 Overcast,4900.0,,BKN,5000.0,OVC,6900.0,,,,
KRDR,10-27-2012,04:00,METAR,,340,3.0,,,9999.0,,-2.0,-4.0,30.26,1025.5,,,,,,,,,,,,,,,8/8 Overcast,3800.0,,SCT,3900.0,BKN,4800.0,OVC,6900.0,,
KRDR,10-27-2012,03:00,METAR,,260,4.0,,,9999.0,,-2.0,-4.0,30.26,1025.3,,,,,,,,,,,,TRACE,,,8/8 Overcast,7000.0,,FEW,5000.0,OVC,6900.0,,,,
KRDR,10-27-2012,02:00,METAR,,290,3.0,,,9999.0,,-1.0,-4.0,30.26,1025.5,,,,,,,,,,,,,,,8/8 Overcast,7000.0,,OVC,6900.0,,,,,,
KRDR,10-27-2012,01:00,METAR,,310,4.0,,,9999.0,,-1.0,-4.0,30.27,1025.7,,,,,,,,,,,TRACE,,,,8/8 Overcast,8000.0,,OVC,7900.0,,,,,,
KRDR,10-27-2012,00:09,SPECI,,310,9.0,,,9999.0,,-1.0,-5.0,30.26,1025.4,,,,,,,,,,,,,,,7/8 Mostly Cloudy,8000.0,,FEW,4000.0,BKN,7900.0,,,,
KRDR,10-27-2012,00:00,METAR,,280,6.0,,,9999.0,,-1.0,-5.0,30.26,1025.3,,,,,,,,,,,,,TRACE,,2/8 Mostly Clear,72000.0,,FEW,7900.0,,,,,,
KRDR,10-26-2012,23:00,METAR,,290,12.0,,,9999.0,,1.0,-6.0,30.25,1025.0,,,,,,,,,,,,,,,8/8 Overcast,3700.0,,FEW,3300.0,OVC,4700.0,,,,
KRDR,10-26-2012,22:00,METAR,,310,6.0,,,9999.0,,1.0,-6.0,30.25,1025.0,,,,,,,,,,,TRACE,,,,8/8 Overcast,7000.0,,FEW,4200.0,OVC,6900.0,,,,
KRDR,10-26-2012,21:34,SPECI,,320,10.0,,,9999.0,,1.0,-7.0,30.25,1025.1,,,,,,,,,,,,,,,8/8 Overcast,4700.0,,FEW,1800.0,SCT,4400.0,OVC,5900.0,,
KRDR,10-26-2012,21:12,SPECI,,310,15.0,20.0,,9999.0,Light Snow,1.0,-8.0,30.25,1025.2,71,,,,,,,,,,,,,,8/8 Overcast,4600.0,,FEW,1600.0,BKN,4700.0,OVC,5900.0,,
KRDR,10-26-2012,21:00,METAR,,320,15.0,,,9999.0,,2.0,-9.0,30.25,1025.1,,,,,,,,,,,,,,,8/8 Overcast,4700.0,,BKN,4800.0,OVC,5900.0,,,,
KRDR,10-26-2012,20:00,METAR,,320,11.0,21.0,280/27KTS,9999.0,,2.0,-9.0,30.25,1025.1,,,,,,,,,,,,,,,4/8 Partly Cloudy,72000.0,,SCT,4400.0,SCT,5000.0,,,,
KRDR,10-26-2012,19:00,METAR,,310,17.0,22.0,,9999.0,,2.0,-8.0,30.25,1025.0,,,,,,,,,,,,,,,7/8 Mostly Cloudy,3900.0,,BKN,4000.0,,,,,,
KRDR,10-26-2012,18:00,METAR,,300,17.0,23.0,310/26KTS,9999.0,,2.0,-8.0,30.25,1025.2,,,,,,,,,,,,,,,7/8 Mostly Cloudy,3500.0,,BKN,3600.0,,,,,,
KRDR,10-26-2012,17:00,METAR,,310,14.0,21.0,,9999.0,,1.0,-7.0,30.26,1025.4,,,,,,,,,,,,,,,7/8 Mostly Cloudy,3300.0,,BKN,3400.0,,,,,,
KRDR,10-26-2012,16:00,METAR,,310,17.0,24.0,310/26KTS,9999.0,,1.0,-7.0,30.25,1025.2,,,,,,,,,,,,,,,4/8 Partly Cloudy,72000.0,,SCT,3100.0,,,,,,
KRDR,10-26-2012,15:00,METAR,,300,20.0,28.0,300/28KTS,9999.0,,0.0,-7.0,30.24,1024.7,,,,,,,,,,,,,,,4/8 Partly Cloudy,72000.0,,SCT,6900.0,,,,,,
KRDR,10-26-2012,14:00,METAR,,290,8.0,,,9999.0,,-1.0,-5.0,30.24,1024.6,,,,,,,,,,,,,,,7/8 Mostly Cloudy,6000.0,,BKN,5900.0,,,,,,
KRDR,10-26-2012,13:00,METAR,,320,7.0,,,9999.0,,-2.0,-6.0,30.22,1024.0,,,,,,,,,,,,,,,7/8 Mostly Cloudy,4500.0,,BKN,4600.0,,,,,,
KRDR,10-26-2012,12:00,METAR,,310,10.0,,,9999.0,,-1.0,-5.0,30.20,1023.5,,,,,,,,,,,,,,,8/8 Overcast,4400.0,,OVC,4500.0,,,,,,
KRDR,10-26-2012,11:00,METAR,,360,5.0,,,9999.0,,-2.0,-5.0,30.18,1022.8,,,,,,,,,,,,,,,7/8 Mostly Cloudy,4100.0,,BKN,4200.0,,,,,,
KRDR,10-26-2012,10:00,METAR,,310,5.0,,,9999.0,,-2.0,-6.0,30.16,1022.2,,,,,,,,,,,,,,,4/8 Partly Cloudy,72000.0,,SCT,4300.0,,,,,,
KRDR,10-26-2012,09:00,METAR,,320,15.0,24.0,320/28KTS,9999.0,,0.0,-7.0,30.16,1022.0,,,,,,,,,,,,,,,Clear,72000.0,,,73000.0,,,,,,
KRDR,10-26-2012,08:00,METAR,,310,11.0,,,9999.0,,1.0,-5.0,30.14,1021.6,,,,,,,,,,,,,,,8/8 Overcast,3600.0,,OVC,3700.0,,,,,,
KRDR,10-26-2012,07:00,METAR,,310,13.0,,,9999.0,,1.0,-5.0,30.13,1021.0,,,,,,,,,,,,,,,7/8 Mostly Cloudy,4200.0,,BKN,4300.0,,,,,,
KRDR,10-26-2012,06:00,METAR,,320,12.0,19.0,,9999.0,,1.0,-5.0,30.12,1020.6,,,,,,,,,,,,,TRACE,,Clear,72000.0,,,73000.0,,,,,,
KRDR,10-26-2012,05:00,METAR,,310,15.0,,,9999.0,,1.0,-4.0,30.10,1020.0,,,,,,,,,,,,,,,Clear,72000.0,,,73000.0,,,,,,
KRDR,10-26-2012,04:00,METAR,,310,15.0,23.0,,9999.0,,2.0,-4.0,30.08,1019.5,,,,,,,,,,,,,,,8/8 Overcast,4900.0,,OVC,5000.0,,,,,,
KRDR,10-26-2012,03:00,METAR,,310,13.0,19.0,,9999.0,,1.0,-3.0,30.06,1019.0,,,,,,,,,,,,TRACE,,,4/8 Partly Cloudy,72000.0,,SCT,5900.0,,,,,,
KRDR,10-26-2012,02:00,METAR,,300,13.0,23.0,,9999.0,,1.0,-2.0,30.05,1018.5,,,,,,,,,,,,,,,7/8 Mostly Cloudy,12000.0,,FEW,5900.0,BKN,12000.0,,,,
KRDR,10-26-2012,01:00,METAR,,290,11.0,,,9999.0,,1.0,-2.0,30.04,1018.2,,,,,,,,,,,TRACE,,,,4/8 Partly Cloudy,72000.0,,SCT,5900.0,,,,,,
KRDR,10-26-2012,00:00,METAR,,300,18.0,24.0,310/26KTS,9999.0,Light Rain,3.0,-3.0,30.02,1017.6,61,,,,,,,,,,TRACE,,TRACE,,7/8 Mostly Cloudy,6000.0,,FEW,4500.0,BKN,5900.0,,,,
KRDR,10-25-2012,23:49,SPECI,,300,18.0,24.0,310/26KTS,9999.0,Light Rain,3.0,-3.0,30.03,1017.7,61,,,,,,,,,,,,,,7/8 Mostly Cloudy,4700.0,,FEW,4600.0,BKN,5900.0,,,,
KRDR,10-25-2012,23:00,METAR,,310,13.0,,,9999.0,,3.0,-3.0,30.00,1016.8,,,,,,,,,,,,,,,8/8 Overcast,4900.0,,OVC,5000.0,,,,,,
KRDR,10-25-2012,22:00,METAR,,310,18.0,22.0,310/26KTS,9999.0,,4.0,-4.0,29.98,1016.1,,,,,,,,,,,,,,,8/8 Overcast,4100.0,,BKN,4200.0,OVC,5000.0,,,,
KRDR,10-25-2012,21:00,METAR,,320,16.0,21.0,,9999.0,,4.0,-4.0,29.96,1015.5,,,,,,,,,,,,,,,8/8 Overcast,4000.0,,OVC,4100.0,,,,,,
KRDR,10-25-2012,20:00,METAR,,320,18.0,28.0,320/28KTS,9999.0,,4.0,-4.0,29.95,1015.2,,,,,,,,,,,,,,,8/8 Overcast,4000.0,,BKN,4100.0,OVC,4800.0,,,,
KRDR,10-25-2012,19:00,METAR,,320,16.0,26.0,320/29KTS,9999.0,,4.0,-3.0,29.95,1015.2,,,,,,,,,,,,,,,8/8 Overcast,3700.0,,OVC,3800.0,,,,,,
KRDR,10-25-2012,18:00,METAR,,320,17.0,27.0,340/27KTS,9999.0,,5.0,-3.0,29.95,1015.3,,,,,,,,,,,,,,,4/8 Partly Cloudy,72000.0,,SCT,3300.0,,,,,,
KRDR,10-25-2012,17:00,METAR,,320,18.0,29.0,310/29KTS,9999.0,,4.0,-4.0,29.96,1015.7,,,,,,,,,,,,,,,8/8 Overcast,3400.0,,OVC,3500.0,,,,,,
KRDR,10-25-2012,16:00,METAR,,320,13.0,19.0,,9999.0,,3.0,-3.0,29.97,1015.7,,,,,,,,,,,,,,,8/8 Overcast,3500.0,,OVC,3600.0,,,,,,
KRDR,10-25-2012,15:00,METAR,,310,8.0,,,9999.0,,2.0,-3.0,29.97,1015.7,,,,,,,,,,,,,,,8/8 Overcast,3400.0,,OVC,3500.0,,,,,,
KRDR,10-25-2012,14:00,METAR,,320,10.0,,,9999.0,,1.0,-4.0,29.98,1016.2,,,,,,,,,,,,,,,7/8 Mostly Cloudy,3200.0,,BKN,3300.0,,,,,,
KRDR,10-25-2012,13:00,METAR,,310,10.0,,,9999.0,,1.0,-3.0,29.98,1016.3,,,,,,,,,,,,,,,Clear,72000.0,,,73000.0,,,,,,
KRDR,10-25-2012,12:00,METAR,,300,9.0,,,9999.0,,0.0,-3.0,29.99,1016.4,,,,,,,,,,,,,,,Clear,72000.0,,,73000.0,,,,,,
KRDR,10-25-2012,11:00,METAR,,310,6.0,,,9999.0,,0.0,-4.0,30.00,1016.8,,,,,,,,,,,,,,,Clear,72000.0,,,73000.0,,,,,,
KRDR,10-25-2012,10:00,METAR,,310,7.0,,,9999.0,,0.0,-3.0,29.98,1016.2,,,,,,,,,,,,,,,Clear,72000.0,,,73000.0,,,,,,
KRDR,10-25-2012,09:00,METAR,,310,7.0,,,9999.0,,0.0,-3.0,29.96,1015.7,,,,,,,,,,,,,,,Clear,72000.0,,,73000.0,,,,,,
KRDR,10-25-2012,08:00,METAR,,310,4.0,,,9999.0,,0.0,-3.0,29.98,1016.2,,,,,,,,,,,,,,,Clear,72000.0,,,73000.0,,,,,,
KRDR,10-25-2012,07:00,METAR,,330,6.0,,,9999.0,,0.0,-3.0,30.00,1016.7,,,,,,,,,,,,,,,Clear,72000.0,,,73000.0,,,,,,
KRDR,10-25-2012,06:00,METAR,,320,5.0,,,9999.0,,0.0,-3.0,30.00,1016.8,,,,,,,,,,,,,,,Clear,72000.0,,,73000.0,,,,,,
KRDR,10-25-2012,05:00,METAR,,310,5.0,,,9999.0,,0.0,-3.0,30.02,1017.5,,,,,,,,,,,,,,,Clear,72000.0,,,73000.0,,,,,,
KRDR,10-25-2012,04:00,METAR,,330,7.0,,,9999.0,,1.0,-3.0,30.01,1017.2,,,,,,,,,,,,,,,Clear,72000.0,,,73000.0,,,,,,
KRDR,10-25-2012,03:00,METAR,,330,11.0,18.0,,9999.0,,1.0,-3.0,30.01,1017.2,,,,,,,,,,,,,,,Clear,72000.0,,,73000.0,,,,,,
KRDR,10-25-2012,02:00,METAR,,330,11.0,19.0,,9999.0,,2.0,-3.0,30.01,1017.0,,,,,,,,,,,,,,,2/8 Mostly Clear,72000.0,,FEW,12000.0,,,,,,
KRDR,10-25-2012,01:00,METAR,,330,9.0,,,9999.0,,2.0,-2.0,29.98,1016.3,,,,,,,,,,,,,,,2/8 Mostly Clear,72000.0,,FEW,12000.0,,,,,,
KRDR,10-25-2012,00:25,SPECI,,330,8.0,,,9999.0,,2.0,-2.0,29.99,1016.3,,,,,,,,,,,,,,,4/8 Partly Cloudy,72000.0,,SCT,2200.0,,,,,,
KRDR,10-25-2012,00:00,METAR,,330,11.0,,,9999.0,,3.0,-1.0,29.98,1016.2,,,,,,,,,,,,,,,8/8 Overcast,2100.0,,OVC,2100.0,,,,,,
KRDR,10-24-2012,23:00,METAR,,320,10.0,,,9999.0,,3.0,-1.0,29.99,1016.4,,,,,,,,,,,,,,,8/8 Overcast,1900.0,,OVC,2100.0,,,,,,
KRDR,10-24-2012,22:00,METAR,,310,8.0,,,9999.0,,4.0,0.0,29.98,1016.3,,,,,,,,,,,,,,,8/8 Overcast,1900.0,,OVC,2100.0,,,,,,
KRDR,10-24-2012,21:00,METAR,,320,7.0,,,9999.0,,4.0,0.0,29.97,1015.9,,,,,,,,,,,,,,,7/8 Mostly Cloudy,1800.0,,BKN,1900.0,,,,,,
KRDR,10-24-2012,20:00,METAR,,320,8.0,,,9999.0,,4.0,0.0,29.97,1015.7,,,,,,,,,,,,,,,8/8 Overcast,1900.0,,OVC,1900.0,,,,,,
KRDR,10-24-2012,19:00,METAR,,320,9.0,,,9999.0,,4.0,1.0,29.95,1015.3,,,,,,,,,,,,,,,8/8 Overcast,1500.0,,OVC,1600.0,,,,,,
KRDR,10-24-2012,18:00,METAR,,320,10.0,,,9999.0,,4.0,0.0,29.96,1015.6,,,,,,,,,,,,,,,8/8 Overcast,1900.0,,OVC,1900.0,,,,,,
KRDR,10-24-2012,17:00,METAR,,320,12.0,,,9999.0,,4.0,0.0,29.97,1015.9,,,,,,,,,,,,,,,8/8 Overcast,1900.0,,OVC,2000.0,,,,,,
KRDR,10-24-2012,16:00,METAR,,310,8.0,,,9999.0,,4.0,1.0,29.96,1015.5,,,,,,,,,,,,,,,8/8 Overcast,1500.0,,OVC,2000.0,,,,,,
KRDR,10-24-2012,15:00,METAR,,310,9.0,,,9999.0,,4.0,1.0,29.96,1015.6,,,,,,,,,,,,,,,8/8 Overcast,2200.0,,OVC,2200.0,,,,,,
KRDR,10-24-2012,14:00,METAR,,310,9.0,,,9999.0,,4.0,1.0,29.94,1015.0,,,,,,,,,,,,,,,8/8 Overcast,1900.0,,OVC,1900.0,,,,,,
KRDR,10-24-2012,13:00,METAR,,300,9.0,,,9999.0,,4.0,2.0,29.93,1014.4,,,,,,,,,,,,,,,8/8 Overcast,1700.0,,OVC,1700.0,,,,,,
KRDR,10-24-2012,12:00,METAR,,300,7.0,,,9999.0,,5.0,3.0,29.92,1014.2,,,,,,,,,,,,,,.31 IN,8/8 Overcast,1400.0,,OVC,1400.0,,,,,,
KRDR,10-24-2012,11:30,SPECI,,290,3.0,,,9999.0,,5.0,3.0,29.91,1013.7,,,,,,,,,,,,,,,8/8 Overcast,1400.0,,OVC,1400.0,,,,,,
KRDR,10-24-2012,11:00,METAR,,320,5.0,,,9999.0,,5.0,3.0,29.87,1012.6,,,,,,,,,,,,,,,8/8 Overcast,1500.0,,OVC,1500.0,,,,,,
KRDR,10-24-2012,10:00,METAR,,320,8.0,,,9999.0,,5.0,3.0,29.85,1012.0,,,,,,,,,,,,,,,8/8 Overcast,1400.0,,OVC,1600.0,,,,,,
KRDR,10-24-2012,09:44,SPECI,,320,7.0,,,9999.0,,5.0,3.0,29.85,1011.8,,,,,,,,,,,,,,,8/8 Overcast,1300.0,,OVC,1600.0,,,,,,
KRDR,10-24-2012,09:00,METAR,,320,5.0,,,9999.0,,5.0,3.0,29.85,1012.0,,,,,,,,,,,,,,,8/8 Overcast,1300.0,,OVC,1300.0,,,,,,
KRDR,10-24-2012,08:00,METAR,,320,7.0,,,9999.0,,5.0,3.0,29.84,1011.5,,,,,,,,,,,,,,,8/8 Overcast,1100.0,,OVC,1300.0,,,,,,
KRDR,10-24-2012,07:17,SPECI,,310,13.0,,,9999.0,,5.0,3.0,29.85,1011.9,,,,,,,,,,,,,,,8/8 Overcast,900.0,,OVC,1200.0,,,,,,
KRDR,10-24-2012,07:00,METAR,,290,8.0,16.0,,9999.0,,6.0,4.0,29.83,1011.3,,,,,,,,,,,,,,,8/8 Overcast,900.0,,OVC,1000.0,,,,,,
KRDR,10-24-2012,06:03,SPECI,,300,9.0,,,9999.0,,7.0,5.0,29.80,1010.2,,,,,,,,,,,,,,,8/8 Overcast,1000.0,,OVC,1100.0,,,,,,
KRDR,10-24-2012,06:00,METAR,,320,12.0,,,9999.0,,7.0,5.0,29.78,1009.7,,,,,,,,,,,,,.01 IN,,8/8 Overcast,1200.0,,OVC,1200.0,,,,,,
KRDR,10-24-2012,05:00,METAR,,310,9.0,,,9999.0,,8.0,6.0,29.75,1008.6,,,,,,,,,,,,,,,7/8 Mostly Cloudy,1200.0,,BKN,1200.0,,,,,,
KRDR,10-24-2012,04:41,SPECI,,320,9.0,,,9999.0,,8.0,6.0,29.75,1008.6,,,,,,,,,,,,,,,7/8 Mostly Cloudy,1300.0,,BKN,1300.0,BKN,3300.0,,,,
KRDR,10-24-2012,04:11,SPECI,,310,10.0,,,9999.0,,9.0,7.0,29.75,1008.6,,,,,,,,,,,,,,,8/8 Overcast,3100.0,,SCT,1300.0,OVC,3200.0,,,,
KRDR,10-24-2012,04:00,METAR,,310,10.0,,,9999.0,,9.0,7.0,29.74,1008.2,,,,,,,,,,,,,,,8/8 Overcast,1100.0,,OVC,1300.0,,,,,,
KRDR,10-24-2012,03:28,SPECI,,290,13.0,17.0,,9999.0,,9.0,8.0,29.73,1007.9,,,,,,,,,,,,,,,8/8 Overcast,1100.0,,OVC,1400.0,,,,,,
KRDR,10-24-2012,03:07,SPECI,,290,10.0,,,9999.0,,9.0,8.0,29.73,1008.0,,,,,,,,,,,,,,,8/8 Overcast,1200.0,,OVC,1500.0,,,,,,
KRDR,10-24-2012,03:00,METAR,,290,10.0,,,9999.0,,10.0,8.0,29.72,1007.6,,,,,,,,,,,,.01 IN,,,8/8 Overcast,1200.0,,OVC,1300.0,,,,,,
KRDR,10-24-2012,02:06,SPECI,,290,7.0,,,9999.0,,10.0,8.0,29.69,1006.7,,,,,,,,,,,,,,,8/8 Overcast,1400.0,,OVC,1400.0,,,,,,
KRDR,10-24-2012,02:00,METAR,,270,6.0,,,9999.0,,10.0,9.0,29.68,1006.4,,,,,,,,,,,.01 IN,,,,8/8 Overcast,1100.0,,OVC,1500.0,,,,,,
KRDR,10-24-2012,01:49,SPECI,,270,5.0,,,9999.0,,10.0,9.0,29.68,1006.4,,,,,,,,,,,,,,,8/8 Overcast,1100.0,,OVC,1500.0,,,,,,
KRDR,10-24-2012,01:20,SPECI,,230,5.0,,,9999.0,,10.0,10.0,29.67,1006.0,,,,,,,,,,,,,,,8/8 Overcast,1400.0,,BKN,1400.0,OVC,7900.0,,,,
KRDR,10-24-2012,01:14,SPECI,,200,4.0,,,9999.0,,10.0,10.0,29.67,1005.8,,,,,,,,,,,,,,,8/8 Overcast,1400.0,,BKN,1400.0,BKN,4000.0,OVC,7900.0,,
KRDR,10-24-2012,01:11,SPECI,,210,5.0,,,9999.0,,10.0,10.0,29.67,1005.8,,,,,,,,,,,,,,,8/8 Overcast,1600.0,,FEW,1100.0,BKN,1600.0,OVC,7900.0,,
KRDR,10-24-2012,01:09,SPECI,,210,6.0,,,9999.0,,10.0,10.0,29.67,1006.0,,,,,,,,,,,,,,,8/8 Overcast,1600.0,,BKN,1600.0,BKN,4000.0,OVC,7900.0,,
KRDR,10-24-2012,01:06,SPECI,,200,6.0,,,9999.0,Light Rain,10.0,10.0,29.67,1006.0,61,,,,,,,,,,,,,,8/8 Overcast,1600.0,,BKN,1600.0,BKN,4100.0,OVC,7900.0,,
KRDR,10-24-2012,01:00,METAR,,230,3.0,,,9999.0,Light Rain,10.0,10.0,29.66,1005.8,61,,,,,,,,,,TRACE,,,,8/8 Overcast,1700.0,,FEW,700.0,BKN,1700.0,OVC,5900.0,,
KRDR,10-24-2012,00:32,SPECI,,180,4.0,,,9999.0,Light Rain,10.0,10.0,29.66,1005.6,61,,,,,,,,,,,,,,8/8 Overcast,1200.0,,OVC,1500.0,,,,,,
KRDR,10-24-2012,00:29,SPECI,,180,4.0,,,9999.0,,10.0,10.0,29.66,1005.5,,,,,,,,,,,,,,,8/8 Overcast,1200.0,,OVC,1500.0,,,,,,
KRDR,10-24-2012,00:21,SPECI,,220,4.0,,,9999.0,,10.0,10.0,29.66,1005.6,,,,,,,,,,,,,,,8/8 Overcast,1100.0,,OVC,1400.0,,,,,,
KRDR,10-24-2012,00:19,SPECI,,210,4.0,,,9999.0,,10.0,10.0,29.66,1005.6,,,,,,,,,,,,,,,8/8 Overcast,1700.0,,SCT,1200.0,OVC,1700.0,,,,
KRDR,10-24-2012,00:00,METAR,,190,4.0,,,9999.0,Mist,10.0,10.0,29.65,1005.4,10,,,,,,,,,,.01 IN,,.28 IN,,8/8 Overcast,1100.0,,OVC,1300.0,,,,,,
KRDR,10-23-2012,23:40,SPECI,,190,5.0,,,9999.0,,10.0,10.0,29.65,1005.3,,,,,,,,,,,,,,,8/8 Overcast,1400.0,,BKN,1400.0,OVC,2000.0,,,,
KRDR,10-23-2012,23:31,SPECI,,190,4.0,,,9999.0,Mist,10.0,10.0,29.65,1005.2,10,,,,,,,,,,,,,,8/8 Overcast,1500.0,,BKN,1500.0,OVC,2100.0,,,,
KRDR,10-23-2012,23:14,SPECI,,190,3.0,,,6400.0,Mist,10.0,10.0,29.64,1004.9,10,,,,,,,,,,,,,,8/8 Overcast,1700.0,,FEW,500.0,BKN,1700.0,OVC,2200.0,,
KRDR,10-23-2012,23:09,SPECI,,190,3.0,,,6400.0,Mist,10.0,10.0,29.64,1004.9,10,,,,,,,,,,,,,,8/8 Overcast,1300.0,,FEW,500.0,BKN,1300.0,OVC,2000.0,,
KRDR,10-23-2012,23:04,SPECI,,190,4.0,,,8000.0,Mist,10.0,10.0,29.64,1004.9,10,,,,,,,,,,,,,,8/8 Overcast,1100.0,,FEW,400.0,OVC,1100.0,,,,
KRDR,10-23-2012,23:01,SPECI,,190,5.0,,,6400.0,Mist,10.0,10.0,29.64,1005.0,10,,,,,,,,,,,,,,8/8 Overcast,900.0,,FEW,400.0,OVC,900.0,,,,
KRDR,10-23-2012,23:00,METAR,,190,4.0,,,4800.0,Light Drizzle/Mist,10.0,10.0,29.64,1005.0,51,10,,,,,,,,,,,,,8/8 Overcast,400.0,,SCT,400.0,OVC,900.0,,,,
KRDR,10-23-2012,22:53,SPECI,,220,4.0,,,3200.0,Light Drizzle/Mist,10.0,10.0,29.64,1005.1,51,10,,,,,,,,,,,,,8/8 Overcast,700.0,,SCT,300.0,OVC,700.0,,,,
KRDR,10-23-2012,22:46,SPECI,,220,5.0,,,2800.0,Light Rain/Mist,10.0,10.0,29.64,1005.1,61,10,,,,,,,,,,,,,8/8 Overcast,500.0,,OVC,500.0,,,,,,
KRDR,10-23-2012,22:38,SPECI,,230,7.0,,,2800.0,Mist,11.0,10.0,29.65,1005.2,,10,,,,,,,,,,,,,8/8 Overcast,300.0,,OVC,300.0,,,,,,
KRDR,10-23-2012,22:31,SPECI,,230,5.0,,,4000.0,Light Drizzle/Mist,11.0,10.0,29.64,1005.0,51,10,,,,,,,,,,,,,8/8 Overcast,300.0,,OVC,300.0,,,,,,
KRDR,10-23-2012,22:00,METAR,,160,8.0,,,9999.0,Light Drizzle,10.0,10.0,29.63,1004.5,51,,,,,,,,,,TRACE,,,,8/8 Overcast,300.0,,OVC,300.0,,,,,,
KRDR,10-23-2012,21:44,SPECI,,160,7.0,,,9999.0,Light Drizzle,10.0,10.0,29.63,1004.6,51,,,,,,,,,,,,,,8/8 Overcast,300.0,,OVC,300.0,,,,,,
KRDR,10-23-2012,21:28,SPECI,,150,9.0,,,9999.0,,10.0,10.0,29.62,1004.3,,,,,,,,,,,,,,,8/8 Overcast,300.0,,OVC,300.0,,,,,,
KRDR,10-23-2012,21:22,SPECI,,150,8.0,,,9999.0,,10.0,10.0,29.62,1004.5,,,,,,,,,,,,,,,8/8 Overcast,300.0,,OVC,400.0,,,,,,
KRDR,10-23-2012,21:11,SPECI,,150,6.0,,,9999.0,,10.0,10.0,29.63,1004.5,,,,,,,,,,,,,,,8/8 Overcast,300.0,,OVC,300.0,,,,,,
KRDR,10-23-2012,21:00,METAR,,120,9.0,,,9999.0,Light Rain,10.0,10.0,29.60,1003.8,61,,,,,,,,,,,,,,8/8 Overcast,300.0,,OVC,300.0,,,,,,
KRDR,10-23-2012,20:43,SPECI,,130,7.0,,,9999.0,,10.0,10.0,29.61,1004.1,,,,,,,,,,,,,,,8/8 Overcast,300.0,,OVC,300.0,,,,,,
KRDR,10-23-2012,20:33,SPECI,,120,8.0,,,9999.0,Light Drizzle,10.0,10.0,29.62,1004.3,51,,,,,,,,,,,,,,8/8 Overcast,300.0,,BKN,300.0,BKN,700.0,OVC,4800.0,,
KRDR,10-23-2012,20:21,SPECI,,100,8.0,,,9999.0,Light Rain,10.0,10.0,29.61,1004.0,61,,,,,,,,,,,,,,8/8 Overcast,300.0,,SCT,300.0,BKN,900.0,OVC,4800.0,,
KRDR,10-23-2012,20:19,SPECI,,110,9.0,,,9999.0,Light Rain,10.0,9.0,29.61,1004.1,61,,,,,,,,,,,,,,8/8 Overcast,300.0,,SCT,300.0,BKN,1100.0,OVC,4800.0,,
KRDR,10-23-2012,20:17,SPECI,,110,7.0,,,9999.0,Light Rain,10.0,9.0,29.62,1004.3,61,,,,,,,,,,,,,,8/8 Overcast,300.0,,SCT,300.0,BKN,1300.0,OVC,4800.0,,
KRDR,10-23-2012,20:15,SPECI,,110,8.0,,,9999.0,Light Drizzle,10.0,9.0,29.62,1004.4,51,,,,,,,,,,,,,,8/8 Overcast,400.0,,SCT,300.0,BKN,1900.0,OVC,4800.0,,
KRDR,10-23-2012,20:12,SPECI,,110,7.0,,,9999.0,Light Rain,10.0,9.0,29.63,1004.5,61,,,,,,,,,,,,,,8/8 Overcast,900.0,,SCT,300.0,BKN,3100.0,OVC,4800.0,,
KRDR,10-23-2012,20:00,METAR,,130,3.0,,,4800.0,Light Rain/Mist,10.0,9.0,29.65,1005.3,61,10,,,,,,,,,.22 IN,,,,8/8 Overcast,300.0,,OVC,300.0,,,,,,
KRDR,10-23-2012,19:44,SPECI,,180,3.0,,,6400.0,Rain/Mist,10.0,9.0,29.67,1005.8,62,10,,,,,,,,,,,,,8/8 Overcast,300.0,,OVC,300.0,,,,,,
KRDR,10-23-2012,19:32,SPECI,,140,4.0,,,4800.0,Thunderstorm and Rain or Snow Showers/Mist,9.0,9.0,29.66,1005.6,92,10,,,,,,,,,,,,,8/8 Overcast,200.0,,OVC,300.0,,,,,,
KRDR,10-23-2012,19:29,SPECI,,130,3.0,,,4000.0,Thunderstorm and Rain or Snow Showers/Mist,9.0,9.0,29.66,1005.5,92,10,,,,,,,,,,,,,8/8 Overcast,200.0,,OVC,300.0,,,,,,
KRDR,10-23-2012,19:26,SPECI,,150,4.0,,,4000.0,Light Rain/Mist,9.0,9.0,29.66,1005.6,61,10,,,,,,,,,,,,,8/8 Overcast,200.0,,OVC,300.0,,,,,,
KRDR,10-23-2012,19:03,SPECI,,130,7.0,,,4000.0,Thunderstorm and Rain or Snow Showers/Mist,9.0,9.0,29.66,1005.5,92,10,,,,,,,,,,,,,8/8 Overcast,300.0,,OVC,300.0,,,,,,
KRDR,10-23-2012,19:01,SPECI,,130,6.0,,,4800.0,Thunderstorm and Rain or Snow Showers/Mist,9.0,9.0,29.66,1005.5,92,10,,,,,,,,,,,,,8/8 Overcast,200.0,,OVC,200.0,,,,,,
KRDR,10-23-2012,19:00,METAR,,120,7.0,,,3200.0,Mist,9.0,9.0,29.66,1005.7,10,,,,,,,,,,,,,,8/8 Overcast,300.0,,OVC,300.0,,,,,,
KRDR,10-23-2012,18:54,SPECI,,130,7.0,,,3200.0,Dry Thunderstorm/Mist,9.0,9.0,29.66,1005.6,91,10,,,,,,,,,,,,,8/8 Overcast,300.0,,OVC,300.0,,,,,,
KRDR,10-23-2012,18:13,SPECI,,120,7.0,,,4000.0,Mist,9.0,9.0,29.68,1006.3,10,,,,,,,,,,,,,,8/8 Overcast,300.0,,OVC,300.0,,,,,,
KRDR,10-23-2012,18:00,METAR,,140,7.0,,,4000.0,Mist,9.0,9.0,29.70,1006.8,10,,,,,,,,,,,,.02 IN,,8/8 Overcast,300.0,,OVC,300.0,,,,,,
KRDR,10-23-2012,17:54,SPECI,,130,9.0,,,4800.0,Mist,9.0,9.0,29.70,1006.8,10,,,,,,,,,,,,,,8/8 Overcast,300.0,,OVC,300.0,,,,,,
KRDR,10-23-2012,17:43,SPECI,,130,8.0,,,4000.0,Mist,9.0,9.0,29.69,1006.8,10,,,,,,,,,,,,,,8/8 Overcast,300.0,,OVC,300.0,,,,,,
KRDR,10-23-2012,17:00,METAR,,130,8.0,,,4800.0,Mist,9.0,8.0,29.71,1007.4,10,,,,,,,,,,,,,,8/8 Overcast,300.0,,OVC,300.0,,,,,,
KRDR,10-23-2012,16:21,SPECI,,130,10.0,,,4800.0,Mist,9.0,9.0,29.72,1007.5,10,,,,,,,,,,,,,,8/8 Overcast,300.0,,OVC,300.0,,,,,,
KRDR,10-23-2012,16:02,SPECI,,130,9.0,,,3200.0,Mist,9.0,8.0,29.72,1007.5,10,,,,,,,,,,,,,,8/8 Overcast,200.0,,OVC,300.0,,,,,,
KRDR,10-23-2012,16:00,METAR,,120,9.0,,,2800.0,Mist,9.0,8.0,29.72,1007.6,10,,,,,,,,,,,,,,8/8 Overcast,200.0,,OVC,300.0,,,,,,
KRDR,10-23-2012,15:07,SPECI,,120,10.0,,,2800.0,Mist,8.0,8.0,29.73,1008.0,10,,,,,,,,,,,,,,8/8 Overcast,300.0,,OVC,300.0,,,,,,
KRDR,10-23-2012,14:51,SPECI,,120,8.0,,,3200.0,Mist,8.0,8.0,29.73,1008.0,10,,,,,,,,,,,,,,8/8 Overcast,300.0,,OVC,300.0,,,,,,
KRDR,10-23-2012,14:26,SPECI,,120,9.0,,,2800.0,Mist,8.0,8.0,29.74,1008.2,10,,,,,,,,,,,,,,8/8 Overcast,200.0,,OVC,300.0,,,,,,
KRDR,10-23-2012,14:00,METAR,,120,8.0,,,3200.0,Mist,8.0,7.0,29.75,1008.5,10,,,,,,,,,,TRACE,,,,8/8 Overcast,200.0,,OVC,300.0,,,,,,
KRDR,10-23-2012,13:41,SPECI,,120,8.0,,,3200.0,Mist,8.0,7.0,29.75,1008.5,10,,,,,,,,,,,,,,8/8 Overcast,200.0,,OVC,300.0,,,,,,
KRDR,10-23-2012,13:40,SPECI,,120,8.0,,,3200.0,Light Drizzle/Mist,8.0,7.0,29.75,1008.6,51,10,,,,,,,,,,,,,8/8 Overcast,200.0,,OVC,300.0,,,,,,
KRDR,10-23-2012,13:30,SPECI,,110,9.0,,,2800.0,Light Rain/Mist,8.0,7.0,29.75,1008.7,61,10,,,,,,,,,,,,,8/8 Overcast,200.0,,OVC,300.0,,,,,,
KRDR,10-23-2012,13:26,SPECI,,120,8.0,,,3200.0,Light Drizzle/Mist,8.0,7.0,29.76,1008.9,51,10,,,,,,,,,,,,,8/8 Overcast,200.0,,OVC,300.0,,,,,,
KRDR,10-23-2012,13:20,SPECI,,120,8.0,,,4000.0,Mist,8.0,7.0,29.76,1009.0,10,,,,,,,,,,,,,,8/8 Overcast,300.0,,OVC,300.0,,,,,,
KRDR,10-23-2012,13:17,SPECI,,130,8.0,,,4800.0,Mist,8.0,7.0,29.76,1008.9,10,,,,,,,,,,,,,,8/8 Overcast,300.0,,OVC,300.0,,,,,,
KRDR,10-23-2012,13:00,SPECI,,120,7.0,,,6400.0,Mist,8.0,7.0,29.76,1008.9,10,,,,,,,,,,,,,,8/8 Overcast,300.0,,OVC,300.0,,,,,,
KRDR,10-23-2012,13:00,METAR,,120,8.0,,,8000.0,Mist,8.0,7.0,29.76,1009.0,10,,,,,,,,,,.01 IN,,,,8/8 Overcast,300.0,,OVC,300.0,,,,,,
KRDR,10-23-2012,12:36,SPECI,,110,10.0,,,8000.0,Mist,8.0,7.0,29.76,1009.0,10,,,,,,,,,,,,,,8/8 Overcast,300.0,,OVC,300.0,,,,,,
KRDR,10-23-2012,12:26,SPECI,,110,9.0,,,4800.0,Mist,8.0,7.0,29.77,1009.2,10,,,,,,,,,,,,,,8/8 Overcast,300.0,,OVC,300.0,,,,,,
KRDR,10-23-2012,12:11,SPECI,,110,8.0,,,4800.0,Mist,8.0,7.0,29.78,1009.4,10,,,,,,,,,,,,,,8/8 Overcast,300.0,,OVC,400.0,,,,,,
KRDR,10-23-2012,11:51,SPECI,,110,7.0,,,9999.0,Mist,8.0,7.0,29.79,1009.8,10,,,,,,,,,,,,,,8/8 Overcast,400.0,,OVC,400.0,,,,,,
KRDR,10-23-2012,11:38,SPECI,,110,9.0,,,8000.0,Mist,8.0,7.0,29.79,1009.7,10,,,,,,,,,,,,,,8/8 Overcast,500.0,,OVC,500.0,,,,,,
KRDR,10-23-2012,11:17,SPECI,,100,8.0,,,6400.0,Mist,7.0,7.0,29.78,1009.6,10,,,,,,,,,,,,,,8/8 Overcast,400.0,,OVC,500.0,,,,,,
KRDR,10-23-2012,11:16,SPECI,,100,9.0,,,6400.0,Light Rain/Mist,7.0,7.0,29.78,1009.7,61,10,,,,,,,,,,,,,8/8 Overcast,400.0,,OVC,500.0,,,,,,
KRDR,10-23-2012,11:07,SPECI,,100,8.0,,,8000.0,Light Rain/Mist,7.0,7.0,29.78,1009.6,61,10,,,,,,,,,,,,,8/8 Overcast,400.0,,OVC,500.0,,,,,,
KRDR,10-23-2012,11:01,SPECI,,100,8.0,,,6400.0,Mist,7.0,7.0,29.78,1009.7,10,,,,,,,,,,,,,,8/8 Overcast,400.0,,OVC,500.0,,,,,,
KRDR,10-23-2012,11:00,METAR,,100,7.0,,,8000.0,Mist,7.0,7.0,29.79,1009.9,10,,,,,,,,,,,,,,8/8 Overcast,400.0,,OVC,500.0,,,,,,
KRDR,10-23-2012,10:53,SPECI,,100,7.0,,,8000.0,Mist,7.0,7.0,29.79,1009.9,10,,,,,,,,,,,,,,8/8 Overcast,400.0,,OVC,500.0,,,,,,
KRDR,10-23-2012,10:41,SPECI,,110,8.0,,,9999.0,,7.0,7.0,29.79,1009.7,,,,,,,,,,,,,,,8/8 Overcast,500.0,,OVC,700.0,,,,,,
KRDR,10-23-2012,10:00,METAR,,110,8.0,,,9999.0,,7.0,7.0,29.79,1010.0,,,,,,,,,,,.01 IN,,,,8/8 Overcast,900.0,,OVC,1000.0,,,,,,
KRDR,10-23-2012,09:44,SPECI,,120,6.0,,,9999.0,,7.0,7.0,29.80,1010.2,,,,,,,,,,,,,,,8/8 Overcast,1100.0,,OVC,1100.0,,,,,,
KRDR,10-23-2012,09:19,SPECI,,110,7.0,,,9999.0,,7.0,7.0,29.81,1010.5,,,,,,,,,,,,,,,8/8 Overcast,1100.0,,OVC,1400.0,,,,,,
KRDR,10-23-2012,09:15,SPECI,,110,6.0,,,9999.0,,7.0,6.0,29.81,1010.5,,,,,,,,,,,,,,,8/8 Overcast,1100.0,,OVC,1500.0,,,,,,
KRDR,10-23-2012,09:00,METAR,,100,6.0,,,9999.0,Light Drizzle,7.0,6.0,29.81,1010.6,51,,,,,,,,,,.08 IN,.2 IN,,,8/8 Overcast,2000.0,,BKN,2000.0,OVC,3700.0,,,,
KRDR,10-23-2012,08:48,SPECI,,100,7.0,,,9999.0,Light Drizzle,7.0,6.0,29.81,1010.6,51,,,,,,,,,,,,,,8/8 Overcast,2000.0,,BKN,2000.0,OVC,3800.0,,,,
KRDR,10-23-2012,08:22,SPECI,,100,10.0,,,9999.0,Light Rain,6.0,6.0,29.81,1010.4,61,,,,,,,,,,,,,,8/8 Overcast,4000.0,,FEW,700.0,SCT,3100.0,OVC,4100.0,,
KRDR,10-23-2012,08:11,SPECI,,100,13.0,,,4800.0,Light Rain/Mist,6.0,6.0,29.81,1010.5,61,10,,,,,,,,,,,,,8/8 Overcast,500.0,,SCT,700.0,OVC,3800.0,,,,
KRDR,10-23-2012,08:09,SPECI,,100,13.0,,,4800.0,Light Rain/Mist,6.0,6.0,29.81,1010.5,61,10,,,,,,,,,,,,,8/8 Overcast,500.0,,SCT,700.0,OVC,3500.0,,,,
KRDR,10-23-2012,08:07,SPECI,,100,11.0,,,4800.0,Rain/Mist,6.0,5.0,29.82,1010.7,62,10,,,,,,,,,,,,,8/8 Overcast,700.0,,BKN,700.0,OVC,3300.0,,,,
KRDR,10-23-2012,08:00,METAR,,60,6.0,,,8000.0,Light Rain/Mist,6.0,5.0,29.85,1011.9,61,10,,,,,,,,,.1 IN,,,,8/8 Overcast,600.0,,OVC,700.0,,,,,,
KRDR,10-23-2012,07:45,SPECI,,10,4.0,,,6400.0,Heavy Rain/Mist,6.0,5.0,29.87,1012.5,63,10,,,,,,,,,,,,,8/8 Overcast,600.0,,OVC,700.0,,,,,,
KRDR,10-23-2012,07:00,SPECI,,70,4.0,,,9999.0,Light Rain,6.0,5.0,29.86,1012.3,61,,,,,,,,,,,,,,8/8 Overcast,900.0,,OVC,900.0,,,,,,
KRDR,10-23-2012,06:51,SPECI,,60,3.0,,,9999.0,Light Rain,6.0,5.0,29.87,1012.5,61,,,,,,,,,,,,,,8/8 Overcast,1000.0,,OVC,1100.0,,,,,,
KRDR,10-23-2012,06:20,SPECI,,80,9.0,,,9999.0,Light Rain,6.0,5.0,29.86,1012.3,61,,,,,,,,,,,,,,8/8 Overcast,1400.0,,OVC,1400.0,,,,,,
KRDR,10-23-2012,06:00,METAR,,90,7.0,,,9999.0,Light Rain,6.0,4.0,29.88,1013.0,61,,,,,,,,,,.01 IN,,.02 IN,,8/8 Overcast,2100.0,,BKN,2100.0,OVC,2600.0,,,,
KRDR,10-23-2012,05:37,SPECI,,80,6.0,,,9999.0,Light Rain,6.0,4.0,29.89,1013.1,61,,,,,,,,,,,,,,8/8 Overcast,2100.0,,BKN,2100.0,BKN,3700.0,OVC,6900.0,,
KRDR,10-23-2012,05:06,SPECI,,70,5.0,,,9999.0,Light Rain,6.0,4.0,29.90,1013.6,61,,,,,,,,,,,,,,7/8 Mostly Cloudy,3800.0,,BKN,3900.0,,,,,,
KRDR,10-23-2012,05:00,METAR,,70,6.0,,,9999.0,,6.0,4.0,29.91,1013.8,,,,,,,,,,,,,,,7/8 Mostly Cloudy,4000.0,,BKN,4100.0,,,,,,
KRDR,10-23-2012,04:00,METAR,,30,6.0,,,9999.0,,5.0,4.0,29.95,1015.3,,,,,,,,,,,TRACE,,,,2/8 Mostly Clear,72000.0,,FEW,7900.0,,,,,,
KRDR,10-23-2012,03:34,SPECI,,30,5.0,,,9999.0,,5.0,4.0,29.96,1015.7,,,,,,,,,,,,,,,2/8 Mostly Clear,72000.0,,FEW,5000.0,,,,,,
KRDR,10-23-2012,03:19,SPECI,,30,8.0,,,9999.0,Unknown Precipitation,6.0,4.0,29.96,1015.4,40,,,,,,,,,,,,,,2/8 Mostly Clear,72000.0,,FEW,4900.0,,,,,,
KRDR,10-23-2012,03:00,METAR,,30,7.0,,,9999.0,,6.0,4.0,29.97,1016.0,,,,,,,,,,,.01 IN,.01 IN,,,Clear,72000.0,,,73000.0,,,,,,
KRDR,10-23-2012,02:42,SPECI,,30,6.0,,,9999.0,,6.0,4.0,29.98,1016.0,,,,,,,,,,,,,,,Clear,72000.0,,,73000.0,,,,,,
KRDR,10-23-2012,02:33,SPECI,,40,6.0,,,9999.0,,6.0,4.0,29.98,1016.2,,,,,,,,,,,,,,,2/8 Mostly Clear,72000.0,,FEW,3600.0,,,,,,
KRDR,10-23-2012,02:31,SPECI,,40,7.0,,,9999.0,,6.0,4.0,29.98,1016.2,,,,,,,,,,,,,,,2/8 Mostly Clear,72000.0,,FEW,3600.0,,,,,,
KRDR,10-23-2012,02:00,METAR,,60,7.0,,,9999.0,,6.0,4.0,29.99,1016.4,,,,,,,,,,,TRACE,,,,2/8 Mostly Clear,72000.0,,FEW,4900.0,,,,,,
KRDR,10-23-2012,01:26,SPECI,,60,8.0,,,9999.0,Unknown Precipitation,6.0,4.0,29.99,1016.6,40,,,,,,,,,,,,,,Clear,72000.0,,,73000.0,,,,,,
KRDR,10-23-2012,01:00,METAR,,50,8.0,,,9999.0,,6.0,4.0,29.99,1016.6,,,,,,,,,,,,,,,Clear,72000.0,,,73000.0,,,,,,
KRDR,10-23-2012,00:00,METAR,,40,8.0,,,9999.0,,6.0,4.0,30.01,1017.3,,,,,,,,,,,,,,,2/8 Mostly Clear,72000.0,,FEW,11000.0,,,,,,
KRDR,10-22-2012,23:00,METAR,,40,11.0,,,9999.0,,6.0,4.0,30.01,1017.3,,,,,,,,,,,,,,,2/8 Mostly Clear,72000.0,,FEW,1200.0,,,,,,
KRDR,10-22-2012,22:10,SPECI,,50,11.0,,,9999.0,,6.0,4.0,30.02,1017.4,,,,,,,,,,,,,,,2/8 Mostly Clear,72000.0,,FEW,1100.0,,,,,,
KRDR,10-22-2012,22:00,METAR,,50,14.0,,,9999.0,,6.0,4.0,30.02,1017.6,,,,,,,,,,,,,,,7/8 Mostly Cloudy,11000.0,,BKN,11000.0,,,,,,
KRDR,10-22-2012,21:00,METAR,,40,13.0,,,9999.0,,6.0,3.0,30.04,1018.1,,,,,,,,,,,,,,,8/8 Overcast,12000.0,,OVC,12000.0,,,,,,
KRDR,10-22-2012,20:00,METAR,,40,11.0,,,9999.0,,6.0,2.0,30.06,1018.9,,,,,,,,,,,,,,,7/8 Mostly Cloudy,10000.0,,BKN,9900.0,,,,,,
KRDR,10-22-2012,19:00,METAR,,30,10.0,,,9999.0,,6.0,2.0,30.08,1019.4,,,,,,,,,,,,,,,8/8 Overcast,9000.0,,OVC,8900.0,,,,,,
KRDR,10-22-2012,18:00,METAR,,20,8.0,,,9999.0,,6.0,2.0,30.11,1020.5,,,,,,,,,,,,,,,8/8 Overcast,8000.0,,OVC,7900.0,,,,,,
KRDR,10-22-2012,17:00,METAR,,40,8.0,,,9999.0,,5.0,1.0,30.12,1020.7,,,,,,,,,,,,,,,7/8 Mostly Cloudy,8000.0,,BKN,7900.0,,,,,,
KRDR,10-22-2012,16:00,METAR,,10,8.0,,,9999.0,,4.0,1.0,30.13,1021.0,,,,,,,,,,,,,,,8/8 Overcast,9000.0,,OVC,8900.0,,,,,,
KRDR,10-22-2012,15:00,METAR,,30,3.0,,,9999.0,,3.0,0.0,30.13,1021.1,,,,,,,,,,,,,,,8/8 Overcast,10000.0,,OVC,9900.0,,,,,,
KRDR,10-22-2012,14:00,METAR,,20,7.0,,,9999.0,,2.0,0.0,30.13,1021.1,,,,,,,,,,,,,,,7/8 Mostly Cloudy,11000.0,,BKN,11000.0,,,,,,
KRDR,10-22-2012,12:00,METAR,,10,5.0,,,9999.0,,2.0,0.0,30.12,1020.8,,,,,,,,,,,,,,,Clear,72000.0,,,73000.0,,,,,,
KRDR,10-22-2012,11:00,METAR,,10,3.0,,,9999.0,,2.0,0.0,30.12,1020.9,,,,,,,,,,,,,,,Clear,72000.0,,,73000.0,,,,,,
KRDR,10-22-2012,10:00,METAR,,360,3.0,,,9999.0,,2.0,0.0,30.11,1020.5,,,,,,,,,,,,,,,4/8 Partly Cloudy,72000.0,,SCT,12000.0,,,,,,
KRDR,10-22-2012,09:00,METAR,,30,4.0,,,9999.0,,2.0,0.0,30.09,1019.9,,,,,,,,,,,,,,,Clear,72000.0,,,73000.0,,,,,,
KRDR,10-22-2012,08:00,METAR,,350,5.0,,,9999.0,,3.0,1.0,30.08,1019.5,,,,,,,,,,,,,,,Clear,72000.0,,,73000.0,,,,,,
KRDR,10-22-2012,07:00,METAR,,330,4.0,,,9999.0,,3.0,1.0,30.09,1019.7,,,,,,,,,,,,,,,Clear,72000.0,,,73000.0,,,,,,
KRDR,10-22-2012,06:00,METAR,,340,4.0,,,9999.0,,4.0,1.0,30.08,1019.3,,,,,,,,,,,,,,,8/8 Overcast,11000.0,,OVC,11000.0,,,,,,
KRDR,10-22-2012,05:00,METAR,,,0.0,,,9999.0,,3.0,1.0,30.06,1018.8,,,,,,,,,,,,,,,2/8 Mostly Clear,72000.0,,FEW,12000.0,,,,,,
KRDR,10-22-2012,04:00,METAR,,340,4.0,,,9999.0,,2.0,1.0,30.06,1018.7,,,,,,,,,,,,,,,2/8 Mostly Clear,72000.0,,FEW,12000.0,,,,,,
KRDR,10-22-2012,03:00,METAR,,,0.0,,,9999.0,,3.0,2.0,30.04,1018.1,,,,,,,,,,,,,,,2/8 Mostly Clear,72000.0,,FEW,12000.0,,,,,,
KRDR,10-22-2012,02:00,METAR,,340,3.0,,,9999.0,,4.0,3.0,30.03,1017.9,,,,,,,,,,,,,,,Clear,72000.0,,,73000.0,,,,,,
KRDR,10-22-2012,01:00,METAR,,,0.0,,,9999.0,,5.0,3.0,30.03,1017.7,,,,,,,,,,,,,,,Clear,72000.0,,,73000.0,,,,,,
KRDR,10-22-2012,00:00,METAR,,,0.0,,,9999.0,,6.0,3.0,30.00,1016.8,,,,,,,,,,,,,,,Clear,72000.0,,,73000.0,,,,,,
KRDR,10-21-2012,23:00,METAR,,40,5.0,,,9999.0,,8.0,4.0,29.97,1015.7,,,,,,,,,,,,,,,Clear,72000.0,,,73000.0,,,,,,
KRDR,10-21-2012,22:00,METAR,,360,9.0,,,9999.0,,9.0,4.0,29.95,1015.3,,,,,,,,,,,,,,,Clear,72000.0,,,73000.0,,,,,,
KRDR,10-21-2012,21:00,METAR,,360,10.0,,,9999.0,,9.0,4.0,29.92,1014.1,,,,,,,,,,,,,,,8/8 Overcast,7000.0,,OVC,6900.0,,,,,,
KRDR,10-21-2012,20:00,METAR,,350,11.0,,,9999.0,,9.0,5.0,29.90,1013.6,,,,,,,,,,,,,,,8/8 Overcast,6000.0,,OVC,5900.0,,,,,,
KRDR,10-21-2012,19:00,METAR,,350,12.0,,,9999.0,,8.0,5.0,29.88,1013.0,,,,,,,,,,,,,,,8/8 Overcast,4900.0,,OVC,5000.0,,,,,,
KRDR,10-21-2012,18:00,METAR,,360,9.0,,,9999.0,,8.0,4.0,29.88,1013.0,,,,,,,,,,,,,,,7/8 Mostly Cloudy,4900.0,,BKN,5000.0,BKN,6900.0,,,,
KRDR,10-21-2012,17:00,METAR,,350,10.0,,,9999.0,,9.0,5.0,29.86,1012.3,,,,,,,,,,,,,,,8/8 Overcast,7000.0,,OVC,6900.0,,,,,,
KRDR,10-21-2012,16:00,METAR,,340,8.0,,,9999.0,,9.0,6.0,29.84,1011.5,,,,,,,,,,,,,,,8/8 Overcast,7000.0,,OVC,6900.0,,,,,,
KRDR,10-21-2012,15:00,METAR,,340,8.0,,,9999.0,,11.0,9.0,29.78,1009.7,,,,,,,,,,,,,,,7/8 Mostly Cloudy,7000.0,,SCT,6900.0,BKN,12000.0,,,,
KRDR,10-21-2012,14:00,METAR,,220,4.0,,,9999.0,,8.0,7.0,29.76,1009.0,,,,,,,,,,,,,,,2/8 Mostly Clear,72000.0,,FEW,12000.0,,,,,,
KRDR,10-21-2012,13:00,METAR,,190,5.0,,,9999.0,,8.0,8.0,29.73,1007.9,,,,,,,,,,,,,,,7/8 Mostly Cloudy,12000.0,,BKN,12000.0,,,,,,
KRDR,10-21-2012,12:00,METAR,,200,5.0,,,9999.0,,9.0,8.0,29.71,1007.3,,,,,,,,,,,TRACE,,.12 IN,.12 IN,2/8 Mostly Clear,72000.0,,FEW,12000.0,,,,,,
KRDR,10-21-2012,11:31,SPECI,,130,7.0,,,9999.0,,10.0,9.0,29.69,1006.5,,,,,,,,,,,,,,,2/8 Mostly Clear,72000.0,,FEW,6900.0,,,,,,
KRDR,10-21-2012,11:09,SPECI,,20,6.0,,,9999.0,Light Rain,10.0,9.0,29.68,1006.4,61,,,,,,,,,,,,,,4/8 Partly Cloudy,72000.0,,FEW,7900.0,SCT,12000.0,,,,
KRDR,10-21-2012,11:00,METAR,,360,5.0,,,9999.0,,11.0,9.0,29.69,1006.5,,,,,,,,,,,.05 IN,,,,7/8 Mostly Cloudy,12000.0,,FEW,4100.0,SCT,5900.0,BKN,12000.0,,
KRDR,10-21-2012,10:07,SPECI,,300,7.0,,,9999.0,Rain/Mist,10.0,9.0,29.71,1007.2,62,10,,,,,,,,,,,,,8/8 Overcast,6000.0,,OVC,5900.0,,,,,,
KRDR,10-21-2012,10:00,METAR,,220,9.0,,,9999.0,Light Rain,11.0,9.0,29.72,1007.6,61,,,,,,,,,,.06 IN,,,,8/8 Overcast,7000.0,,OVC,6900.0,,,,,,
KRDR,10-21-2012,10:00,SPECI,,290,8.0,,,9999.0,Rain/Mist,10.0,9.0,29.71,1007.3,62,10,,,,,,,,,,,,,8/8 Overcast,6000.0,,OVC,5900.0,,,,,,
KRDR,10-21-2012,09:00,METAR,,230,8.0,,,9999.0,Light Rain,9.0,8.0,29.68,1006.3,61,,,,,,,,,,.01 IN,.01 IN,,,7/8 Mostly Cloudy,6000.0,,BKN,5900.0,,,,,,
KRDR,10-21-2012,08:18,SPECI,,190,8.0,,,9999.0,Light Rain,9.0,8.0,29.67,1006.0,61,,,,,,,,,,,,,,7/8 Mostly Cloudy,9000.0,,BKN,8900.0,,,,,,
KRDR,10-21-2012,08:00,METAR,,170,8.0,,,9999.0,,9.0,8.0,29.67,1005.8,,,,,,,,,,,,,,,4/8 Partly Cloudy,72000.0,,FEW,5000.0,SCT,8900.0,,,,
KRDR,10-21-2012,07:44,SPECI,,210,6.0,,,9999.0,Light Rain,9.0,8.0,29.66,1005.8,61,,,,,,,,,,,,,,2/8 Mostly Clear,72000.0,,FEW,5000.0,,,,,,
KRDR,10-21-2012,07:37,SPECI,,220,6.0,,,9999.0,,9.0,8.0,29.67,1006.0,,,,,,,,,,,,,,,Clear,7000.0,,,73000.0,,,,,,
KRDR,10-21-2012,07:05,SPECI,,220,7.0,,,9999.0,Light Rain,9.0,8.0,29.68,1006.3,61,,,,,,,,,,,,,,2/8 Mostly Clear,72000.0,,FEW,8900.0,,,,,,
KRDR,10-21-2012,07:00,METAR,,220,6.0,,,9999.0,,8.0,7.0,29.68,1006.3,,,,,,,,,,,TRACE,,,,4/8 Partly Cloudy,72000.0,,FEW,5900.0,SCT,8900.0,,,,
KRDR,10-21-2012,06:46,SPECI,,230,5.0,,,9999.0,,8.0,7.0,29.68,1006.1,,,,,,,,,,,,,,,7/8 Mostly Cloudy,9000.0,,FEW,5900.0,BKN,8900.0,,,,
KRDR,10-21-2012,06:01,SPECI,,190,8.0,,,9999.0,Light Rain,8.0,7.0,29.65,1005.3,61,,,,,,,,,,,,,,4/8 Partly Cloudy,72000.0,,SCT,9900.0,,,,,,
KRDR,10-21-2012,06:00,METAR,,200,8.0,,,9999.0,,8.0,7.0,29.65,1005.3,,,,,,,,,,,,,,,7/8 Mostly Cloudy,10000.0,,BKN,9900.0,,,,,,
KRDR,10-21-2012,05:00,METAR,,170,10.0,,,9999.0,,8.0,7.0,29.64,1004.9,,,,,,,,,,,,,,,Clear,72000.0,,,73000.0,,,,,,
KRDR,10-21-2012,04:00,METAR,,200,9.0,,,9999.0,,8.0,7.0,29.65,1005.2,,,,,,,,,,,,,,,2/8 Mostly Clear,72000.0,,FEW,12000.0,,,,,,
KRDR,10-21-2012,03:00,METAR,,190,11.0,,,9999.0,,9.0,7.0,29.64,1004.9,,,,,,,,,,,,,,,2/8 Mostly Clear,72000.0,,FEW,12000.0,,,,,,
KRDR,10-21-2012,02:00,METAR,,180,12.0,,,9999.0,,9.0,7.0,29.62,1004.3,,,,,,,,,,,,,,,2/8 Mostly Clear,72000.0,,FEW,12000.0,,,,,,
KRDR,10-21-2012,01:00,METAR,,180,11.0,,,9999.0,,9.0,7.0,29.62,1004.3,,,,,,,,,,,,,,,4/8 Partly Cloudy,72000.0,,SCT,12000.0,,,,,,
KRDR,10-21-2012,00:00,METAR,,190,12.0,,,9999.0,,9.0,7.0,29.61,1003.9,,,,,,,,,,,,,,,4/8 Partly Cloudy,72000.0,,SCT,12000.0,,,,,,
KRDR,10-20-2012,23:00,METAR,,180,12.0,,,9999.0,,10.0,6.0,29.59,1003.4,,,,,,,,,,,,,,,2/8 Mostly Clear,72000.0,,FEW,1600.0,,,,,,
KRDR,10-20-2012,22:00,METAR,,180,15.0,21.0,,9999.0,,10.0,6.0,29.60,1003.7,,,,,,,,,,,,,,,4/8 Partly Cloudy,72000.0,,FEW,1700.0,SCT,12000.0,,,,
KRDR,10-20-2012,21:01,SPECI,,190,14.0,22.0,,9999.0,,11.0,6.0,29.61,1004.0,,,,,,,,,,,,,,,4/8 Partly Cloudy,72000.0,,SCT,1600.0,,,,,,
KRDR,10-20-2012,21:00,METAR,,180,16.0,,,9999.0,,11.0,6.0,29.60,1003.7,,,,,,,,,,,,,,,4/8 Partly Cloudy,72000.0,,SCT,1500.0,,,,,,
KRDR,10-20-2012,20:00,METAR,,170,17.0,,,9999.0,,10.0,6.0,29.60,1003.6,,,,,,,,,,,,,,,4/8 Partly Cloudy,72000.0,,SCT,1500.0,,,,,,
KRDR,10-20-2012,19:00,METAR,,190,18.0,,,9999.0,,9.0,6.0,29.62,1004.4,,,,,,,,,,,,,,,4/8 Partly Cloudy,72000.0,,SCT,1500.0,,,,,,
KRDR,10-20-2012,18:00,METAR,,190,16.0,,,9999.0,,9.0,5.0,29.60,1004.9,,,,,,,,,,,,,,,8/8 Overcast,1400.0,,OVC,1400.0,,,,,,
KRDR,10-20-2012,17:00,METAR,,190,13.0,19.0,,9999.0,,8.0,5.0,29.67,1005.5,,,,,,,,,,,,,,,8/8 Overcast,1400.0,,OVC,1400.0,,,,,,
KRDR,10-20-2012,16:00,METAR,,200,15.0,,,9999.0,,7.0,4.0,29.67,1006.1,,,,,,,,,,,,,,,8/8 Overcast,1200.0,,OVC,1200.0,,,,,,
KRDR,10-20-2012,15:00,METAR,,190,15.0,,,9999.0,,6.0,4.0,29.67,1005.9,,,,,,,,,,,,,,,8/8 Overcast,1400.0,,OVC,1400.0,,,,,,
KRDR,10-20-2012,14:00,METAR,,190,9.0,,,9999.0,,6.0,3.0,29.68,1006.3,,,,,,,,,,,,,,,8/8 Overcast,1400.0,,OVC,1400.0,,,,,,
KRDR,10-20-2012,13:26,SPECI,,200,9.0,,,9999.0,,5.0,3.0,29.69,1006.5,,,,,,,,,,,,,,,8/8 Overcast,1400.0,,OVC,1400.0,,,,,,
KRDR,10-20-2012,13:00,METAR,,200,8.0,,,9999.0,,5.0,3.0,29.69,1006.7,,,,,,,,,,,,,,,8/8 Overcast,1500.0,,OVC,1500.0,,,,,,
KRDR,10-20-2012,12:14,SPECI,,170,9.0,,,9999.0,,5.0,4.0,29.67,1006.1,,,,,,,,,,,,,,,8/8 Overcast,1500.0,,OVC,1500.0,,,,,,
KRDR,10-20-2012,12:00,METAR,,190,7.0,,,9999.0,,5.0,4.0,29.68,1006.4,,,,,,,,,,,,,,.02 IN,8/8 Overcast,1400.0,,OVC,1400.0,,,,,,
KRDR,10-20-2012,10:51,SPECI,,180,6.0,,,9999.0,,5.0,4.0,29.68,1006.4,,,,,,,,,,,,,,,8/8 Overcast,1400.0,,OVC,1400.0,,,,,,
KRDR,10-20-2012,10:48,SPECI,,180,6.0,,,9999.0,,5.0,4.0,29.69,1006.6,,,,,,,,,,,,,,,8/8 Overcast,1500.0,,OVC,1500.0,,,,,,
KRDR,10-20-2012,10:36,SPECI,,180,6.0,,,9999.0,,5.0,4.0,29.69,1006.6,,,,,,,,,,,,,,,8/8 Overcast,1300.0,,OVC,1400.0,,,,,,
KRDR,10-20-2012,10:00,METAR,,180,7.0,,,9999.0,,5.0,4.0,29.70,1006.8,,,,,,,,,,,,,,,8/8 Overcast,1400.0,,OVC,1600.0,,,,,,
KRDR,10-20-2012,09:00,METAR,,180,6.0,,,9999.0,,5.0,4.0,29.71,1007.2,,,,,,,,,,,,,,,8/8 Overcast,1300.0,,OVC,1700.0,,,,,,
KRDR,10-20-2012,08:00,METAR,,160,5.0,,,9999.0,,5.0,4.0,29.71,1007.3,,,,,,,,,,,,,,,8/8 Overcast,800.0,,FEW,800.0,OVC,2000.0,,,,
KRDR,10-20-2012,07:41,SPECI,,170,4.0,,,9999.0,,5.0,4.0,29.71,1007.3,,,,,,,,,,,,,,,8/8 Overcast,800.0,,SCT,900.0,OVC,2000.0,,,,
KRDR,10-20-2012,07:00,METAR,,210,3.0,,,9999.0,,5.0,4.0,29.72,1007.6,,,,,,,,,,,,,,,8/8 Overcast,700.0,,OVC,800.0,,,,,,
KRDR,10-20-2012,06:27,SPECI,,,0.0,,,9999.0,,5.0,4.0,29.72,1007.7,,,,,,,,,,,,,,,8/8 Overcast,800.0,,OVC,900.0,,,,,,
KRDR,10-20-2012,06:06,SPECI,,240,3.0,,,9999.0,,5.0,4.0,29.72,1007.5,,,,,,,,,,,,,,,8/8 Overcast,1100.0,,OVC,1100.0,,,,,,
KRDR,10-20-2012,06:00,METAR,,,0.0,,,9999.0,,5.0,4.0,29.71,1007.4,,,,,,,,,,,,,,,8/8 Overcast,1200.0,,BKN,1200.0,OVC,3800.0,,,,
KRDR,10-20-2012,05:17,SPECI,,,0.0,,,9999.0,,5.0,4.0,29.71,1007.4,,,,,,,,,,,,,,,8/8 Overcast,500.0,,SCT,600.0,BKN,1300.0,OVC,3800.0,,
KRDR,10-20-2012,05:07,SPECI,,,0.0,,,9999.0,,5.0,4.0,29.72,1007.6,,,,,,,,,,,,,,,8/8 Overcast,500.0,,OVC,600.0,,,,,,
KRDR,10-20-2012,05:00,METAR,,,0.0,,,9999.0,,5.0,4.0,29.73,1007.9,,,,,,,,,,,,,,,8/8 Overcast,400.0,,OVC,500.0,,,,,,
KRDR,10-20-2012,04:49,SPECI,,,0.0,,,9999.0,,5.0,4.0,29.73,1007.9,,,,,,,,,,,,,,,8/8 Overcast,400.0,,OVC,600.0,,,,,,
KRDR,10-20-2012,04:35,SPECI,,280,3.0,,,9999.0,,5.0,4.0,29.74,1008.1,,,,,,,,,,,,,,,8/8 Overcast,400.0,,OVC,500.0,,,,,,
KRDR,10-20-2012,04:05,SPECI,,,0.0,,,9999.0,,5.0,4.0,29.74,1008.1,,,,,,,,,,,,,,,8/8 Overcast,500.0,,OVC,600.0,,,,,,
KRDR,10-20-2012,04:00,METAR,,,0.0,,,9999.0,,5.0,4.0,29.74,1008.2,,,,,,,,,,,,,,,8/8 Overcast,500.0,,OVC,500.0,,,,,,
KRDR,10-20-2012,03:00,METAR,,,0.0,,,9999.0,,5.0,4.0,29.75,1008.4,,,,,,,,,,,,,,,8/8 Overcast,500.0,,OVC,500.0,,,,,,
KRDR,10-20-2012,02:50,SPECI,,,0.0,,,9999.0,,5.0,4.0,29.74,1008.4,,,,,,,,,,,,,,,8/8 Overcast,500.0,,OVC,500.0,,,,,,
KRDR,10-20-2012,02:30,SPECI,,,0.0,,,9999.0,,5.0,4.0,29.75,1008.6,,,,,,,,,,,,,,,8/8 Overcast,600.0,,OVC,600.0,,,,,,
KRDR,10-20-2012,02:00,METAR,,,0.0,,,9999.0,,5.0,4.0,29.75,1008.5,,,,,,,,,,,,,,,8/8 Overcast,500.0,,BKN,700.0,OVC,1100.0,,,,
KRDR,10-20-2012,01:16,SPECI,,40,4.0,,,9999.0,,5.0,4.0,29.74,1008.2,,,,,,,,,,,,,,,8/8 Overcast,900.0,,FEW,600.0,OVC,1100.0,,,,
KRDR,10-20-2012,01:07,SPECI,,20,3.0,,,9999.0,,5.0,4.0,29.74,1008.3,,,,,,,,,,,,,,,8/8 Overcast,900.0,,SCT,600.0,OVC,1200.0,,,,
KRDR,10-20-2012,01:00,METAR,,20,4.0,,,9999.0,,5.0,4.0,29.75,1008.4,,,,,,,,,,,,,,,8/8 Overcast,900.0,,OVC,900.0,,,,,,
KRDR,10-20-2012,00:55,SPECI,,20,4.0,,,9999.0,,5.0,4.0,29.75,1008.4,,,,,,,,,,,,,,,8/8 Overcast,800.0,,SCT,700.0,OVC,1200.0,,,,
KRDR,10-20-2012,00:49,SPECI,,10,3.0,,,9999.0,,5.0,4.0,29.75,1008.5,,,,,,,,,,,,,,,8/8 Overcast,900.0,,OVC,900.0,,,,,,
KRDR,10-20-2012,00:47,SPECI,,20,4.0,,,9999.0,,5.0,4.0,29.75,1008.5,,,,,,,,,,,,,,,8/8 Overcast,600.0,,BKN,600.0,OVC,1000.0,,,,
KRDR,10-20-2012,00:42,SPECI,,10,3.0,,,9999.0,,5.0,4.0,29.75,1008.5,,,,,,,,,,,,,,,8/8 Overcast,500.0,,OVC,900.0,,,,,,
KRDR,10-20-2012,00:39,SPECI,,360,3.0,,,9999.0,,5.0,4.0,29.75,1008.5,,,,,,,,,,,,,,,8/8 Overcast,600.0,,BKN,600.0,OVC,1000.0,,,,
KRDR,10-20-2012,00:29,SPECI,,360,4.0,,,9999.0,,5.0,4.0,29.75,1008.6,,,,,,,,,,,,,,,8/8 Overcast,500.0,,SCT,600.0,OVC,1100.0,,,,
KRDR,10-20-2012,00:24,SPECI,,10,5.0,,,9999.0,,5.0,4.0,29.75,1008.6,,,,,,,,,,,,,,,8/8 Overcast,600.0,,BKN,600.0,OVC,1100.0,,,,
KRDR,10-20-2012,00:20,SPECI,,10,5.0,,,9999.0,,5.0,4.0,29.75,1008.6,,,,,,,,,,,,,,,8/8 Overcast,500.0,,BKN,500.0,OVC,1000.0,,,,
KRDR,10-20-2012,00:19,SPECI,,350,5.0,,,9999.0,,5.0,4.0,29.75,1008.6,,,,,,,,,,,,,,,8/8 Overcast,300.0,,BKN,600.0,OVC,1200.0,,,,
KRDR,10-20-2012,00:00,METAR,,360,4.0,,,9999.0,,5.0,4.0,29.76,1008.9,,,,,,,,,,,,,,,8/8 Overcast,400.0,,BKN,500.0,OVC,1000.0,,,,
KRDR,10-19-2012,23:41,SPECI,,360,4.0,,,9999.0,,5.0,4.0,29.75,1008.7,,,,,,,,,,,,,,,8/8 Overcast,600.0,,OVC,900.0,,,,,,
KRDR,10-19-2012,23:39,SPECI,,360,5.0,,,9999.0,,5.0,4.0,29.75,1008.7,,,,,,,,,,,,,,,8/8 Overcast,1000.0,,SCT,700.0,OVC,1100.0,,,,
KRDR,10-19-2012,23:37,SPECI,,10,6.0,,,9999.0,,5.0,4.0,29.75,1008.7,,,,,,,,,,,,,,,8/8 Overcast,1000.0,,SCT,700.0,OVC,1200.0,,,,
KRDR,10-19-2012,23:33,SPECI,,10,6.0,,,9999.0,,5.0,4.0,29.75,1008.7,,,,,,,,,,,,,,,8/8 Overcast,700.0,,BKN,1000.0,OVC,1300.0,,,,
KRDR,10-19-2012,23:20,SPECI,,10,7.0,,,9999.0,,5.0,4.0,29.75,1008.6,,,,,,,,,,,,,,,8/8 Overcast,700.0,,BKN,700.0,OVC,1300.0,,,,
KRDR,10-19-2012,23:18,SPECI,,360,7.0,,,9999.0,,5.0,4.0,29.75,1008.6,,,,,,,,,,,,,,,8/8 Overcast,600.0,,BKN,600.0,OVC,1300.0,,,,
KRDR,10-19-2012,23:12,SPECI,,10,6.0,,,9999.0,,5.0,4.0,29.75,1008.6,,,,,,,,,,,,,,,8/8 Overcast,600.0,,SCT,600.0,OVC,1300.0,,,,
KRDR,10-19-2012,23:06,SPECI,,10,7.0,,,9999.0,,5.0,5.0,29.75,1008.6,,,,,,,,,,,,,,,8/8 Overcast,600.0,,BKN,600.0,OVC,1400.0,,,,
KRDR,10-19-2012,23:00,METAR,,10,6.0,,,9999.0,Light Drizzle,5.0,5.0,29.75,1008.7,51,,,,,,,,,,TRACE,,,,8/8 Overcast,400.0,,BKN,500.0,OVC,1000.0,,,,
KRDR,10-19-2012,22:53,SPECI,,360,5.0,,,9999.0,,5.0,5.0,29.75,1008.7,,,,,,,,,,,,,,,8/8 Overcast,400.0,,BKN,500.0,OVC,1000.0,,,,
KRDR,10-19-2012,22:37,SPECI,,10,7.0,,,9999.0,Unknown Precipitation,5.0,4.0,29.75,1008.7,40,,,,,,,,,,,,,,8/8 Overcast,500.0,,OVC,500.0,,,,,,
KRDR,10-19-2012,22:35,SPECI,,10,8.0,,,9999.0,,5.0,4.0,29.75,1008.7,,,,,,,,,,,,,,,8/8 Overcast,500.0,,BKN,500.0,OVC,1000.0,,,,
KRDR,10-19-2012,22:12,SPECI,,350,7.0,,,9999.0,,5.0,4.0,29.76,1008.9,,,,,,,,,,,,,,,8/8 Overcast,600.0,,BKN,600.0,OVC,1100.0,,,,
KRDR,10-19-2012,22:01,SPECI,,350,10.0,,,9999.0,Light Drizzle,5.0,4.0,29.75,1008.7,51,,,,,,,,,,,,,,8/8 Overcast,600.0,,BKN,600.0,OVC,1100.0,,,,
KRDR,10-19-2012,22:00,METAR,,350,7.0,,,9999.0,,5.0,4.0,29.75,1008.7,,,,,,,,,,,TRACE,,,,8/8 Overcast,600.0,,BKN,600.0,OVC,1100.0,,,,
KRDR,10-19-2012,21:47,SPECI,,360,8.0,,,9999.0,Mist,5.0,4.0,29.75,1008.7,10,,,,,,,,,,,,,,8/8 Overcast,700.0,,SCT,600.0,OVC,1100.0,,,,
KRDR,10-19-2012,21:45,SPECI,,360,8.0,,,9999.0,Light Drizzle/Mist,5.0,4.0,29.75,1008.6,51,10,,,,,,,,,,,,,8/8 Overcast,700.0,,SCT,600.0,OVC,1100.0,,,,
KRDR,10-19-2012,21:41,SPECI,,360,10.0,,,9999.0,Light Drizzle/Mist,5.0,4.0,29.75,1008.7,51,10,,,,,,,,,,,,,8/8 Overcast,500.0,,BKN,800.0,OVC,1100.0,,,,
KRDR,10-19-2012,21:39,SPECI,,360,9.0,,,9999.0,Light Drizzle,5.0,4.0,29.75,1008.7,51,,,,,,,,,,,,,,8/8 Overcast,500.0,,BKN,600.0,OVC,1100.0,,,,
KRDR,10-19-2012,21:35,SPECI,,350,10.0,,,9999.0,Light Drizzle,5.0,4.0,29.76,1008.8,51,,,,,,,,,,,,,,8/8 Overcast,600.0,,BKN,800.0,OVC,1200.0,,,,
KRDR,10-19-2012,21:32,SPECI,,350,11.0,,,9999.0,Light Drizzle,6.0,4.0,29.76,1008.8,51,,,,,,,,,,,,,,8/8 Overcast,700.0,,OVC,1000.0,,,,,,
KRDR,10-19-2012,21:25,SPECI,,360,10.0,,,9999.0,,6.0,4.0,29.75,1008.8,,,,,,,,,,,,,,,8/8 Overcast,800.0,,OVC,1000.0,,,,,,
KRDR,10-19-2012,21:20,SPECI,,350,8.0,,,9999.0,Light Drizzle,6.0,4.0,29.76,1008.8,51,,,,,,,,,,,,,,8/8 Overcast,700.0,,OVC,1000.0,,,,,,
KRDR,10-19-2012,21:16,SPECI,,360,10.0,,,9999.0,Light Drizzle,6.0,4.0,29.76,1008.8,51,,,,,,,,,,,,,,8/8 Overcast,700.0,,OVC,900.0,,,,,,
KRDR,10-19-2012,21:00,METAR,,360,10.0,,,9999.0,Light Drizzle,5.0,4.0,29.75,1008.6,51,,,,,,,,,,TRACE,.01 IN,,,8/8 Overcast,700.0,,OVC,900.0,,,,,,
KRDR,10-19-2012,20:42,SPECI,,360,10.0,,,9999.0,Light Rain,6.0,4.0,29.75,1008.6,61,,,,,,,,,,,,,,8/8 Overcast,800.0,,OVC,900.0,,,,,,
KRDR,10-19-2012,20:37,SPECI,,10,10.0,,,9999.0,,6.0,4.0,29.75,1008.5,,,,,,,,,,,,,,,8/8 Overcast,800.0,,OVC,900.0,,,,,,
KRDR,10-19-2012,20:09,SPECI,,10,12.0,,,9999.0,,6.0,4.0,29.74,1008.4,,,,,,,,,,,,,,,8/8 Overcast,1000.0,,OVC,1100.0,,,,,,
KRDR,10-19-2012,20:00,METAR,,20,11.0,,,9999.0,,6.0,4.0,29.75,1008.5,,,,,,,,,,,,,,,8/8 Overcast,1000.0,,OVC,1400.0,,,,,,
KRDR,10-19-2012,19:48,SPECI,,20,13.0,,,9999.0,,6.0,4.0,29.75,1008.4,,,,,,,,,,,,,,,8/8 Overcast,900.0,,OVC,1300.0,,,,,,
KRDR,10-19-2012,19:30,SPECI,,10,13.0,,,9999.0,,6.0,4.0,29.75,1008.7,,,,,,,,,,,,,,,8/8 Overcast,1000.0,,OVC,1100.0,,,,,,
KRDR,10-19-2012,19:00,METAR,,360,14.0,,,9999.0,,6.0,4.0,29.77,1009.2,,,,,,,,,,,.01 IN,,,,8/8 Overcast,1000.0,,OVC,1200.0,,,,,,
KRDR,10-19-2012,18:35,SPECI,,360,13.0,,,9999.0,,6.0,4.0,29.77,1009.2,,,,,,,,,,,,,,,8/8 Overcast,900.0,,OVC,1200.0,,,,,,
KRDR,10-19-2012,18:09,SPECI,,360,13.0,,,9999.0,,5.0,4.0,29.77,1009.3,,,,,,,,,,,,,,,8/8 Overcast,800.0,,OVC,1000.0,,,,,,
KRDR,10-19-2012,18:00,METAR,,360,13.0,,,9999.0,,5.0,4.0,29.78,1009.5,,,,,,,,,,,TRACE,,.01 IN,,8/8 Overcast,700.0,,BKN,1000.0,OVC,1400.0,,,,
KRDR,10-19-2012,18:00,SPECI,,350,13.0,,,9999.0,,5.0,4.0,29.78,1009.4,,,,,,,,,,,,,,,8/8 Overcast,800.0,,OVC,900.0,,,,,,
KRDR,10-19-2012,17:45,SPECI,,10,14.0,,,9999.0,,5.0,4.0,29.78,1009.6,,,,,,,,,,,,,,,8/8 Overcast,700.0,,OVC,1000.0,,,,,,
KRDR,10-19-2012,17:36,SPECI,,10,12.0,,,9999.0,,5.0,4.0,29.78,1009.6,,,,,,,,,,,,,,,8/8 Overcast,700.0,,BKN,700.0,OVC,1200.0,,,,
KRDR,10-19-2012,17:00,METAR,,10,15.0,,,9999.0,Light Rain,5.0,4.0,29.79,1009.8,61,,,,,,,,,,.01 IN,,,,8/8 Overcast,600.0,,BKN,600.0,OVC,1400.0,,,,
KRDR,10-19-2012,16:54,SPECI,,10,14.0,,,9999.0,Light Rain,5.0,4.0,29.79,1009.8,61,,,,,,,,,,,,,,8/8 Overcast,700.0,,BKN,700.0,OVC,1400.0,,,,
KRDR,10-19-2012,16:32,SPECI,,10,13.0,19.0,,6400.0,Unknown Precipitation/Mist,5.0,4.0,29.79,1009.8,40,10,,,,,,,,,,,,,8/8 Overcast,600.0,,BKN,600.0,OVC,1600.0,,,,
KRDR,10-19-2012,16:15,SPECI,,10,13.0,,,9999.0,Light Rain,5.0,4.0,29.79,1009.8,61,,,,,,,,,,,,,,8/8 Overcast,600.0,,BKN,700.0,OVC,2500.0,,,,
KRDR,10-19-2012,16:10,SPECI,,10,14.0,19.0,,9999.0,,5.0,4.0,29.79,1009.8,,,,,,,,,,,,,,,8/8 Overcast,600.0,,OVC,700.0,,,,,,
KRDR,10-19-2012,16:00,METAR,,10,11.0,,,9999.0,Light Rain/Mist,5.0,4.0,29.78,1009.7,61,10,,,,,,,,,TRACE,,,,8/8 Overcast,600.0,,OVC,800.0,,,,,,
KRDR,10-19-2012,15:47,SPECI,,10,13.0,20.0,,9999.0,,5.0,4.0,29.78,1009.7,,,,,,,,,,,,,,,8/8 Overcast,700.0,,OVC,800.0,,,,,,
KRDR,10-19-2012,15:18,SPECI,,10,14.0,21.0,,9999.0,,5.0,3.0,29.78,1009.4,,,,,,,,,,,,,,,8/8 Overcast,900.0,,BKN,900.0,OVC,2300.0,,,,
KRDR,10-19-2012,15:06,SPECI,,10,16.0,20.0,,9999.0,Light Rain,4.0,3.0,29.77,1009.3,61,,,,,,,,,,,,,,8/8 Overcast,900.0,,BKN,900.0,OVC,2300.0,,,,
KRDR,10-19-2012,15:03,SPECI,,10,15.0,21.0,,9999.0,Light Rain,4.0,3.0,29.77,1009.3,61,,,,,,,,,,,,,,8/8 Overcast,800.0,,BKN,1000.0,OVC,2300.0,,,,
KRDR,10-19-2012,14:51,SPECI,,360,15.0,22.0,,9999.0,Light Rain,4.0,3.0,29.77,1009.3,61,,,,,,,,,,,,,,8/8 Overcast,800.0,,BKN,900.0,OVC,2300.0,,,,
KRDR,10-19-2012,14:26,SPECI,,360,15.0,21.0,,9999.0,Light Rain,5.0,3.0,29.77,1009.3,61,,,,,,,,,,,,,,8/8 Overcast,900.0,,BKN,1000.0,OVC,2300.0,,,,
KRDR,10-19-2012,14:13,SPECI,,360,15.0,,,9999.0,,5.0,3.0,29.77,1009.3,,,,,,,,,,,,,,,8/8 Overcast,900.0,,OVC,1000.0,,,,,,
KRDR,10-19-2012,14:00,METAR,,360,18.0,,,9999.0,,5.0,3.0,29.77,1009.2,,,,,,,,,,,TRACE,,,,8/8 Overcast,1000.0,,OVC,1200.0,,,,,,
KRDR,10-19-2012,13:54,SPECI,,360,17.0,,,9999.0,Light Rain,5.0,3.0,29.77,1009.2,61,,,,,,,,,,,,,,8/8 Overcast,1000.0,,OVC,1100.0,,,,,,
KRDR,10-19-2012,13:53,SPECI,,360,18.0,,,9999.0,Unknown Precipitation,5.0,3.0,29.77,1009.2,40,,,,,,,,,,,,,,8/8 Overcast,1000.0,,OVC,1200.0,,,,,,
KRDR,10-19-2012,13:47,SPECI,,360,17.0,,,9999.0,,5.0,3.0,29.76,1009.1,,,,,,,,,,,,,,,8/8 Overcast,1000.0,,OVC,1300.0,,,,,,
KRDR,10-19-2012,13:09,SPECI,,360,16.0,22.0,,9999.0,,4.0,3.0,29.76,1008.9,,,,,,,,,,,,,,,8/8 Overcast,1100.0,,OVC,1100.0,,,,,,
KRDR,10-19-2012,13:00,METAR,,360,16.0,20.0,,9999.0,,4.0,3.0,29.76,1008.9,,,,,,,,,,,TRACE,,,,8/8 Overcast,1000.0,,OVC,1100.0,,,,,,
KRDR,10-19-2012,12:48,SPECI,,360,14.0,20.0,,9999.0,Light Rain,4.0,3.0,29.76,1008.9,61,,,,,,,,,,,,,,8/8 Overcast,1000.0,,OVC,1100.0,,,,,,
KRDR,10-19-2012,12:43,SPECI,,360,14.0,,,9999.0,Light Rain,5.0,3.0,29.76,1008.9,61,,,,,,,,,,,,,,8/8 Overcast,1100.0,,OVC,1200.0,,,,,,
KRDR,10-19-2012,12:24,SPECI,,360,16.0,,,9999.0,Light Rain,5.0,3.0,29.76,1008.8,61,,,,,,,,,,,,,,8/8 Overcast,1100.0,,OVC,1100.0,,,,,,
KRDR,10-19-2012,12:03,SPECI,,360,17.0,24.0,,9999.0,Unknown Precipitation,5.0,3.0,29.76,1008.8,40,,,,,,,,,,,,,,8/8 Overcast,1300.0,,OVC,1300.0,,,,,,
KRDR,10-19-2012,12:00,METAR,,360,16.0,26.0,010/26KTS,9999.0,,5.0,3.0,29.76,1008.8,,,,,,,,,,,TRACE,,TRACE,.38 IN,8/8 Overcast,1200.0,,OVC,1200.0,,,,,,
KRDR,10-19-2012,11:10,SPECI,,360,15.0,22.0,,9999.0,,5.0,3.0,29.75,1008.6,,,,,,,,,,,,,,,8/8 Overcast,1200.0,,OVC,1200.0,,,,,,
KRDR,10-19-2012,11:00,METAR,,360,17.0,24.0,010/27KTS,9999.0,,5.0,3.0,29.75,1008.6,,,,,,,,,,,,,,,8/8 Overcast,1300.0,,OVC,1300.0,,,,,,
KRDR,10-19-2012,10:54,SPECI,,360,16.0,24.0,,9999.0,Unknown Precipitation,5.0,3.0,29.75,1008.6,40,,,,,,,,,,,,,,8/8 Overcast,1300.0,,OVC,1300.0,,,,,,
KRDR,10-19-2012,10:00,METAR,,10,18.0,27.0,010/30KTS,9999.0,,5.0,3.0,29.75,1008.7,,,,,,,,,,,,,,,8/8 Overcast,1200.0,,OVC,1200.0,,,,,,
KRDR,10-19-2012,09:00,METAR,,360,18.0,25.0,010/30KTS,9999.0,,5.0,3.0,29.74,1008.3,,,,,,,,,,,,TRACE,,,8/8 Overcast,1200.0,,OVC,1200.0,,,,,,
KRDR,10-19-2012,08:49,SPECI,,360,20.0,30.0,010/30KTS,9999.0,,5.0,3.0,29.74,1008.2,,,,,,,,,,,,,,,8/8 Overcast,1200.0,,OVC,1200.0,,,,,,
KRDR,10-19-2012,08:00,METAR,,360,23.0,31.0,010/33KTS,9999.0,,5.0,3.0,29.73,1007.9,,,,,,,,,,,TRACE,,,,8/8 Overcast,1100.0,,OVC,1100.0,,,,,,
KRDR,10-19-2012,07:37,SPECI,,10,24.0,31.0,010/33KTS,9999.0,,5.0,3.0,29.73,1007.8,,,,,,,,,,,,,,,8/8 Overcast,900.0,,OVC,1000.0,,,,,,
KRDR,10-19-2012,07:21,SPECI,,10,20.0,29.0,010/33KTS,9999.0,,5.0,3.0,29.73,1007.8,,,,,,,,,,,,,,,8/8 Overcast,800.0,,OVC,900.0,,,,,,
KRDR,10-19-2012,07:08,SPECI,,10,25.0,33.0,010/33KTS,9999.0,Light Rain,5.0,3.0,29.72,1007.6,61,,,,,,,,,,,,,,8/8 Overcast,800.0,,OVC,900.0,,,,,,
KRDR,10-19-2012,07:03,SPECI,,360,23.0,33.0,010/33KTS,9999.0,Light Rain,5.0,3.0,29.72,1007.7,61,,,,,,,,,,,,,,8/8 Overcast,800.0,,OVC,1000.0,,,,,,
KRDR,10-19-2012,07:00,METAR,,360,22.0,34.0,010/34KTS,9999.0,,5.0,3.0,29.72,1007.5,,,,,,,,,,,,,,,8/8 Overcast,900.0,,OVC,1000.0,,,,,,
KRDR,10-19-2012,05:51,SPECI,,360,24.0,31.0,010/35KTS,9999.0,,5.0,3.0,29.70,1007.0,,,,,,,,,,,,,,,8/8 Overcast,1100.0,,OVC,1100.0,,,,,,
KRDR,10-19-2012,05:40,SPECI,,360,25.0,31.0,010/35KTS,9999.0,,5.0,3.0,29.70,1007.0,,,,,,,,,,,,,,,8/8 Overcast,1200.0,,OVC,1200.0,,,,,,
KRDR,10-19-2012,05:15,SPECI,,10,22.0,35.0,010/35KTS,9999.0,,5.0,3.0,29.70,1007.0,,,,,,,,,,,,,,,8/8 Overcast,1100.0,,OVC,1100.0,,,,,,
KRDR,10-19-2012,05:00,METAR,,10,23.0,33.0,360/35KTS,9999.0,,5.0,3.0,29.69,1006.8,,,,,,,,,,,TRACE,,,,8/8 Overcast,1200.0,,OVC,1200.0,,,,,,
KRDR,10-19-2012,04:47,SPECI,,360,23.0,33.0,360/35KTS,9999.0,,5.0,3.0,29.69,1006.7,,,,,,,,,,,,,,,8/8 Overcast,1200.0,,OVC,1200.0,,,,,,
KRDR,10-19-2012,04:40,SPECI,,360,27.0,32.0,360/35KTS,9999.0,,5.0,4.0,29.68,1006.4,,,,,,,,,,,,,,,8/8 Overcast,1100.0,,OVC,1100.0,,,,,,
KRDR,10-19-2012,04:16,SPECI,,360,25.0,34.0,360/34KTS,9999.0,Light Rain,5.0,3.0,29.68,1006.3,61,,,,,,,,,,,,,,8/8 Overcast,900.0,,OVC,1100.0,,,,,,
KRDR,10-19-2012,04:10,SPECI,,360,24.0,34.0,010/34KTS,9999.0,Unknown Precipitation,5.0,3.0,29.69,1006.5,40,,,,,,,,,,,,,,8/8 Overcast,1000.0,,OVC,1200.0,,,,,,
KRDR,10-19-2012,04:00,METAR,,10,25.0,33.0,020/37KTS,9999.0,,5.0,4.0,29.68,1006.4,,,,,,,,,,,TRACE,,,,8/8 Overcast,1200.0,,OVC,1200.0,,,,,,
KRDR,10-19-2012,03:30,SPECI,,360,23.0,32.0,020/37KTS,9999.0,,5.0,4.0,29.68,1006.3,,,,,,,,,,,,,,,8/8 Overcast,1200.0,,OVC,1200.0,,,,,,
KRDR,10-19-2012,03:11,SPECI,,360,25.0,34.0,010/34KTS,9999.0,Light Rain,5.0,4.0,29.67,1005.9,61,,,,,,,,,,,,,,8/8 Overcast,1200.0,,OVC,1200.0,,,,,,
KRDR,10-19-2012,03:03,SPECI,,360,23.0,33.0,010/33KTS,9999.0,,5.0,4.0,29.67,1005.9,,,,,,,,,,,,,,,8/8 Overcast,1100.0,,OVC,1300.0,,,,,,
KRDR,10-19-2012,03:00,METAR,,360,27.0,35.0,360/38KTS,9999.0,Light Rain,5.0,4.0,29.66,1005.7,61,,,,,,,,,,.01 IN,.1 IN,,,8/8 Overcast,1100.0,,OVC,1200.0,,,,,,
KRDR,10-19-2012,02:00,METAR,,360,23.0,35.0,010/37KTS,9999.0,Unknown Precipitation,5.0,4.0,29.64,1004.9,40,,,,,,,,,,.03 IN,,,,8/8 Overcast,1200.0,,OVC,1200.0,,,,,,
KRDR,10-19-2012,01:00,METAR,,10,24.0,36.0,360/35KTS,9999.0,Unknown Precipitation,6.0,4.0,29.62,1004.2,40,,,,,,,,,,,,,,8/8 Overcast,1200.0,,OVC,1200.0,,,,,,
KRDR,10-19-2012,00:44,SPECI,,360,26.0,41.0,010/41KTS,9999.0,Unknown Precipitation,6.0,4.0,29.61,1004.0,40,,,,,,,,,,,,,,8/8 Overcast,1100.0,,OVC,1200.0,,,,,,
KRDR,10-19-2012,00:18,SPECI,,360,24.0,39.0,010/39KTS,9999.0,Unknown Precipitation,6.0,4.0,29.60,1003.6,40,,,,,,,,,,,,,,8/8 Overcast,1100.0,,OVC,1200.0,,,,,,
KRDR,10-19-2012,00:14,SPECI,,360,24.0,39.0,010/39KTS,9999.0,Unknown Precipitation,6.0,4.0,29.60,1003.5,40,,,,,,,,,,,,,,8/8 Overcast,1100.0,,OVC,1200.0,,,,,,
KRDR,10-19-2012,00:00,METAR,,360,22.0,41.0,010/41KTS,9999.0,Unknown Precipitation,6.0,4.0,29.59,1003.2,40,,,,,,,,,,.02 IN,,.24 IN,,8/8 Overcast,1100.0,,OVC,1200.0,,,,,,
KRDR,10-18-2012,23:02,SPECI,,360,26.0,40.0,360/40KTS,9999.0,Light Rain,6.0,4.0,29.56,1002.2,61,,,,,,,,,,,,,,8/8 Overcast,1000.0,,OVC,1200.0,,,,,,
KRDR,10-18-2012,23:00,METAR,,360,25.0,38.0,350/39KTS,9999.0,Light Rain,6.0,5.0,29.55,1002.1,61,,,,,,,,,,.03 IN,,,,8/8 Overcast,1000.0,,OVC,1100.0,,,,,,
KRDR,10-18-2012,22:44,SPECI,,360,25.0,37.0,350/39KTS,9999.0,Unknown Precipitation,6.0,5.0,29.55,1002.0,40,,,,,,,,,,,,,,8/8 Overcast,1000.0,,OVC,1100.0,,,,,,
KRDR,10-18-2012,22:15,SPECI,,360,28.0,39.0,360/39KTS,9999.0,Unknown Precipitation,6.0,5.0,29.53,1001.4,40,,,,,,,,,,,,,,8/8 Overcast,1200.0,,OVC,1200.0,,,,,,
KRDR,10-18-2012,22:00,METAR,,360,24.0,35.0,350/41KTS,9999.0,Unknown Precipitation,6.0,5.0,29.52,1001.0,40,,,,,,,,,,.04 IN,,,,8/8 Overcast,1000.0,,OVC,1100.0,,,,,,
KRDR,10-18-2012,21:09,SPECI,,360,24.0,41.0,350/41KTS,9999.0,Unknown Precipitation,7.0,6.0,29.49,1000.2,40,,,,,,,,,,,,,,8/8 Overcast,700.0,,OVC,1000.0,,,,,,
KRDR,10-18-2012,21:00,METAR,,360,26.0,35.0,020/40KTS,9999.0,Unknown Precipitation/Mist,7.0,6.0,29.48,999.7,40,10,,,,,,,,,.03 IN,.15 IN,,,8/8 Overcast,700.0,,OVC,900.0,,,,,,
KRDR,10-18-2012,20:33,SPECI,,360,27.0,39.0,020/40KTS,6400.0,Unknown Precipitation/Mist,7.0,6.0,29.47,999.4,40,10,,,,,,,,,,,,,8/8 Overcast,700.0,,OVC,900.0,,,,,,
KRDR,10-18-2012,20:12,SPECI,,360,23.0,40.0,020/40KTS,9999.0,Light Rain,7.0,6.0,29.46,999.2,61,,,,,,,,,,,,,,8/8 Overcast,1000.0,,OVC,1100.0,,,,,,
KRDR,10-18-2012,20:11,SPECI,,10,24.0,40.0,020/40KTS,9999.0,,7.0,6.0,29.46,999.2,,,,,,,,,,,,,,,8/8 Overcast,1100.0,,OVC,1100.0,,,,,,
KRDR,10-18-2012,20:09,SPECI,,10,30.0,40.0,020/40KTS,9999.0,,7.0,6.0,29.46,999.0,,,,,,,,,,,,,,,8/8 Overcast,1000.0,,OVC,1200.0,,,,,,
KRDR,10-18-2012,20:04,SPECI,,360,22.0,39.0,010/39KTS,9999.0,Light Rain,7.0,6.0,29.46,999.2,61,,,,,,,,,,,,,,8/8 Overcast,1000.0,,OVC,1200.0,,,,,,
KRDR,10-18-2012,20:00,METAR,,10,27.0,40.0,010/40KTS,9999.0,Rain,8.0,6.0,29.45,998.7,62,,,,,,,,,,.05 IN,,,,8/8 Overcast,1000.0,,OVC,1100.0,,,,,,
KRDR,10-18-2012,19:00,METAR,,360,23.0,34.0,350/37KTS,9999.0,Light Rain,8.0,6.0,29.42,997.9,61,,,,,,,,,,.07 IN,,,,8/8 Overcast,800.0,,OVC,1000.0,,,,,,
KRDR,10-18-2012,18:48,SPECI,,10,27.0,34.0,350/37KTS,9999.0,Rain,8.0,6.0,29.42,997.8,62,,,,,,,,,,,,,,8/8 Overcast,800.0,,OVC,1000.0,,,,,,
KRDR,10-18-2012,18:00,METAR,,360,20.0,31.0,350/33KTS,9999.0,Rain/Mist,8.0,7.0,29.41,997.5,62,10,,,,,,,,,.03 IN,,.04 IN,,8/8 Overcast,600.0,,OVC,700.0,,,,,,
KRDR,10-18-2012,17:05,SPECI,,350,19.0,33.0,360/33KTS,9999.0,,8.0,7.0,29.40,997.0,,,,,,,,,,,,,,,8/8 Overcast,500.0,,OVC,700.0,,,,,,
KRDR,10-18-2012,17:01,SPECI,,360,26.0,33.0,360/33KTS,9999.0,,8.0,7.0,29.39,996.9,,,,,,,,,,,,,,,8/8 Overcast,500.0,,OVC,600.0,,,,,,
KRDR,10-18-2012,17:00,METAR,,360,21.0,33.0,010/33KTS,9999.0,,8.0,7.0,29.39,996.9,,,,,,,,,,,.01 IN,,,,8/8 Overcast,400.0,,OVC,500.0,,,,,,
KRDR,10-18-2012,16:54,SPECI,,360,22.0,33.0,010/30KTS,9999.0,,8.0,7.0,29.39,996.8,,,,,,,,,,,,,,,8/8 Overcast,400.0,,OVC,600.0,,,,,,
KRDR,10-18-2012,16:37,SPECI,,360,17.0,28.0,360/28KTS,9999.0,,8.0,7.0,29.39,996.8,,,,,,,,,,,,,,,8/8 Overcast,400.0,,OVC,500.0,,,,,,
KRDR,10-18-2012,16:24,SPECI,,360,17.0,28.0,360/28KTS,9999.0,,8.0,8.0,29.39,996.7,,,,,,,,,,,,,,,8/8 Overcast,400.0,,OVC,400.0,,,,,,
KRDR,10-18-2012,16:22,SPECI,,360,22.0,28.0,360/28KTS,9999.0,,8.0,8.0,29.39,996.6,,,,,,,,,,,,,,,8/8 Overcast,400.0,,OVC,500.0,,,,,,
KRDR,10-18-2012,16:10,SPECI,,360,19.0,25.0,,8000.0,Light Rain/Mist,9.0,8.0,29.38,996.4,61,10,,,,,,,,,,,,,8/8 Overcast,500.0,,OVC,500.0,,,,,,
KRDR,10-18-2012,16:09,SPECI,,360,18.0,25.0,,6400.0,Mist,9.0,8.0,29.38,996.4,10,,,,,,,,,,,,,,8/8 Overcast,500.0,,OVC,500.0,,,,,,
KRDR,10-18-2012,16:04,SPECI,,10,20.0,25.0,,6400.0,Mist,9.0,8.0,29.38,996.3,10,,,,,,,,,,,,,,8/8 Overcast,500.0,,OVC,600.0,,,,,,
KRDR,10-18-2012,16:01,SPECI,,10,16.0,24.0,,6400.0,Light Rain/Mist,9.0,8.0,29.38,996.3,61,10,,,,,,,,,,,,,8/8 Overcast,500.0,,OVC,600.0,,,,,,
KRDR,10-18-2012,16:00,METAR,,10,18.0,25.0,,6400.0,Mist,9.0,8.0,29.38,996.3,10,,,,,,,,,,TRACE,,,,8/8 Overcast,500.0,,OVC,600.0,,,,,,
KRDR,10-18-2012,15:49,SPECI,,10,18.0,25.0,,6400.0,Mist,9.0,8.0,29.37,996.2,10,,,,,,,,,,,,,,8/8 Overcast,500.0,,OVC,600.0,,,,,,
KRDR,10-18-2012,15:37,SPECI,,10,17.0,22.0,,9999.0,,9.0,8.0,29.37,996.0,,,,,,,,,,,,,,,8/8 Overcast,600.0,,OVC,700.0,,,,,,
KRDR,10-18-2012,15:23,SPECI,,20,12.0,19.0,,9999.0,,9.0,8.0,29.36,995.7,,,,,,,,,,,,,,,8/8 Overcast,600.0,,OVC,700.0,,,,,,
KRDR,10-18-2012,15:00,METAR,,10,10.0,,,9999.0,,8.0,8.0,29.34,995.2,,,,,,,,,,,,TRACE,,,8/8 Overcast,600.0,,OVC,600.0,,,,,,
KRDR,10-18-2012,14:34,SPECI,,20,13.0,,,9999.0,,8.0,7.0,29.34,995.1,,,,,,,,,,,,,,,8/8 Overcast,600.0,,BKN,600.0,BKN,1300.0,OVC,1800.0,,
KRDR,10-18-2012,14:17,SPECI,,20,13.0,18.0,,9999.0,,8.0,7.0,29.33,994.8,,,,,,,,,,,,,,,8/8 Overcast,1100.0,,FEW,800.0,OVC,1400.0,,,,
KRDR,10-18-2012,14:15,SPECI,,10,12.0,,,9999.0,,8.0,7.0,29.33,994.8,,,,,,,,,,,,,,,8/8 Overcast,1100.0,,FEW,800.0,OVC,1400.0,,,,
KRDR,10-18-2012,14:06,SPECI,,20,11.0,,,9999.0,,8.0,7.0,29.32,994.6,,,,,,,,,,,,,,,8/8 Overcast,800.0,,OVC,1200.0,,,,,,
KRDR,10-18-2012,14:00,METAR,,30,15.0,,,9999.0,,8.0,7.0,29.32,994.4,,,,,,,,,,,,,,,8/8 Overcast,800.0,,OVC,1100.0,,,,,,
KRDR,10-18-2012,13:23,SPECI,,40,15.0,,,9999.0,,8.0,7.0,29.30,993.9,,,,,,,,,,,,,,,8/8 Overcast,500.0,,OVC,800.0,,,,,,
KRDR,10-18-2012,13:14,SPECI,,30,13.0,,,9999.0,,8.0,7.0,29.29,993.6,,,,,,,,,,,,,,,8/8 Overcast,400.0,,OVC,600.0,,,,,,
KRDR,10-18-2012,13:00,METAR,,30,11.0,,,9999.0,,8.0,7.0,29.27,992.8,,,,,,,,,,,TRACE,,,,8/8 Overcast,400.0,,OVC,500.0,,,,,,
KRDR,10-18-2012,12:46,SPECI,,30,11.0,,,9999.0,Mist,8.0,7.0,29.27,992.6,10,,,,,,,,,,,,,,8/8 Overcast,400.0,,OVC,500.0,,,,,,
KRDR,10-18-2012,12:44,SPECI,,30,12.0,,,9999.0,Mist,8.0,7.0,29.26,992.5,10,,,,,,,,,,,,,,8/8 Overcast,400.0,,OVC,500.0,,,,,,
KRDR,10-18-2012,12:33,SPECI,,30,14.0,,,9999.0,,8.0,7.0,29.25,992.1,,,,,,,,,,,,,,,8/8 Overcast,500.0,,OVC,500.0,,,,,,
KRDR,10-18-2012,12:28,SPECI,,30,12.0,,,9999.0,Mist,8.0,7.0,29.25,992.0,10,,,,,,,,,,,,,,8/8 Overcast,500.0,,OVC,500.0,,,,,,
KRDR,10-18-2012,12:11,SPECI,,40,11.0,,,9999.0,Mist,8.0,7.0,29.24,991.8,10,,,,,,,,,,,,,,8/8 Overcast,400.0,,OVC,500.0,,,,,,
KRDR,10-18-2012,12:07,SPECI,,50,13.0,,,9999.0,Light Drizzle,8.0,8.0,29.24,991.7,51,,,,,,,,,,,,,,8/8 Overcast,400.0,,OVC,500.0,,,,,,
KRDR,10-18-2012,12:01,SPECI,,50,13.0,,,9999.0,Light Drizzle,8.0,8.0,29.23,991.6,51,,,,,,,,,,,,,,8/8 Overcast,300.0,,OVC,400.0,,,,,,
KRDR,10-18-2012,11:51,SPECI,,50,14.0,,,9999.0,,8.0,8.0,29.23,991.3,,,,,,,,,,,,,,,8/8 Overcast,300.0,,OVC,400.0,,,,,,
KRDR,10-18-2012,11:44,SPECI,,30,14.0,,,9999.0,,8.0,8.0,29.22,991.0,,,,,,,,,,,,,,,8/8 Overcast,400.0,,OVC,400.0,,,,,,
KRDR,10-18-2012,11:12,SPECI,,30,11.0,,,6400.0,Mist,9.0,8.0,29.19,990.1,10,,,,,,,,,,,,,,8/8 Overcast,200.0,,OVC,200.0,,,,,,
KRDR,10-18-2012,11:10,SPECI,,30,11.0,,,4800.0,Mist,9.0,8.0,29.19,990.0,10,,,,,,,,,,,,,,8/8 Overcast,200.0,,OVC,200.0,,,,,,
KRDR,10-18-2012,11:09,SPECI,,30,12.0,,,4000.0,Mist,9.0,8.0,29.18,989.9,10,,,,,,,,,,,,,,8/8 Overcast,200.0,,OVC,200.0,,,,,,
KRDR,10-18-2012,11:07,SPECI,,30,12.0,,,3200.0,Mist,9.0,8.0,29.18,989.8,10,,,,,,,,,,,,,,8/8 Overcast,200.0,,OVC,200.0,,,,,,
KRDR,10-18-2012,11:05,SPECI,,30,11.0,,,2400.0,Mist,9.0,9.0,29.18,989.8,10,,,,,,,,,,,,,,8/8 Overcast,200.0,,OVC,200.0,,,,,,
KRDR,10-18-2012,11:04,SPECI,,30,9.0,,,2400.0,Mist,9.0,9.0,29.18,989.7,10,,,,,,,,,,,,,,8/8 Overcast,200.0,,OVC,200.0,,,,,,
KRDR,10-18-2012,11:00,METAR,,30,9.0,,,1600.0,Mist,9.0,9.0,29.18,989.7,10,,,,,,,,,,,,,,Sky Obscured (Unable to Estimate),200.0,100.0,,200.0,,,,,,
KRDR,10-18-2012,10:55,SPECI,,30,10.0,,,1600.0,Light Drizzle/Mist,9.0,9.0,29.17,989.6,51,10,,,,,,,,,,,,,Sky Obscured (Unable to Estimate),200.0,100.0,,200.0,,,,,,
KRDR,10-18-2012,10:53,SPECI,,30,11.0,,,2000.0,Light Rain/Mist,9.0,9.0,29.17,989.5,61,10,,,,,,,,,,,,,8/8 Overcast,200.0,,OVC,200.0,,,,,,
KRDR,10-18-2012,10:51,SPECI,,30,9.0,18.0,,2800.0,Light Rain/Mist,10.0,9.0,29.17,989.4,61,10,,,,,,,,,,,,,8/8 Overcast,200.0,,OVC,200.0,,,,,,
KRDR,10-18-2012,10:48,SPECI,,30,9.0,18.0,,4000.0,Light Rain/Mist,10.0,9.0,29.17,989.3,61,10,,,,,,,,,,,,,8/8 Overcast,300.0,,OVC,300.0,,,,,,
KRDR,10-18-2012,10:25,SPECI,,350,12.0,,,8000.0,Light Rain/Mist,9.0,9.0,29.16,989.0,61,10,,,,,,,,,,,,,8/8 Overcast,300.0,,OVC,300.0,,,,,,
KRDR,10-18-2012,10:17,SPECI,,350,12.0,,,9999.0,Light Rain,9.0,9.0,29.15,988.9,61,,,,,,,,,,,,,,8/8 Overcast,300.0,,OVC,300.0,,,,,,
KRDR,10-18-2012,10:03,SPECI,,340,12.0,,,9999.0,Light Drizzle,9.0,9.0,29.15,988.7,51,,,,,,,,,,,,,,8/8 Overcast,400.0,,OVC,400.0,,,,,,
KRDR,10-18-2012,10:00,METAR,,340,12.0,,,9999.0,,9.0,8.0,29.14,988.6,,,,,,,,,,,,,,,8/8 Overcast,400.0,,OVC,400.0,,,,,,
KRDR,10-18-2012,09:44,SPECI,,330,14.0,,,9999.0,,9.0,8.0,29.14,988.4,,,,,,,,,,,,,,,8/8 Overcast,500.0,,OVC,500.0,,,,,,
KRDR,10-18-2012,09:34,SPECI,,320,13.0,,,9999.0,,9.0,8.0,29.13,988.3,,,,,,,,,,,,,,,8/8 Overcast,600.0,,OVC,600.0,,,,,,
KRDR,10-18-2012,09:13,SPECI,,320,12.0,,,9999.0,Light Drizzle,9.0,8.0,29.13,988.1,51,,,,,,,,,,,,,,8/8 Overcast,500.0,,OVC,600.0,,,,,,
KRDR,10-18-2012,09:05,SPECI,,320,12.0,,,9999.0,Light Rain,9.0,8.0,29.13,988.0,61,,,,,,,,,,,,,,8/8 Overcast,500.0,,OVC,600.0,,,,,,
KRDR,10-18-2012,09:00,METAR,,310,14.0,,,9999.0,Light Drizzle,9.0,8.0,29.12,987.9,51,,,,,,,,,,,,,,8/8 Overcast,500.0,,OVC,600.0,,,,,,
KRDR,10-18-2012,08:48,SPECI,,310,15.0,,,9999.0,Light Drizzle,9.0,8.0,29.13,988.1,51,,,,,,,,,,,,,,8/8 Overcast,600.0,,OVC,600.0,,,,,,
KRDR,10-18-2012,08:42,SPECI,,310,16.0,,,9999.0,Light Drizzle,9.0,8.0,29.13,988.1,51,,,,,,,,,,,,,,8/8 Overcast,600.0,,OVC,800.0,,,,,,
KRDR,10-18-2012,08:36,SPECI,,310,14.0,,,9999.0,Light Drizzle,9.0,8.0,29.13,988.1,51,,,,,,,,,,,,,,8/8 Overcast,600.0,,OVC,800.0,,,,,,
KRDR,10-18-2012,08:00,METAR,,320,16.0,23.0,310/28KTS,9999.0,,9.0,7.0,29.13,988.0,,,,,,,,,,,,,,,8/8 Overcast,700.0,,OVC,900.0,,,,,,
KRDR,10-18-2012,07:07,SPECI,,320,16.0,27.0,310/27KTS,9999.0,,9.0,7.0,29.11,987.6,,,,,,,,,,,,,,,8/8 Overcast,800.0,,OVC,900.0,,,,,,
KRDR,10-18-2012,07:00,METAR,,310,17.0,28.0,310/28KTS,9999.0,,9.0,8.0,29.11,987.6,,,,,,,,,,,.01 IN,,,,8/8 Overcast,800.0,,OVC,1100.0,,,,,,
KRDR,10-18-2012,06:43,SPECI,,310,20.0,28.0,310/28KTS,9999.0,,9.0,7.0,29.11,987.5,,,,,,,,,,,,,,,8/8 Overcast,800.0,,OVC,1100.0,,,,,,
KRDR,10-18-2012,06:41,SPECI,,310,18.0,25.0,310/26KTS,9999.0,,9.0,7.0,29.11,987.5,,,,,,,,,,,,,,,8/8 Overcast,800.0,,OVC,1200.0,,,,,,
KRDR,10-18-2012,06:25,SPECI,,310,19.0,26.0,310/26KTS,9999.0,,9.0,8.0,29.10,987.2,,,,,,,,,,,,,,,8/8 Overcast,800.0,,OVC,1100.0,,,,,,
KRDR,10-18-2012,06:23,SPECI,,310,20.0,26.0,310/26KTS,9999.0,,9.0,8.0,29.10,987.3,,,,,,,,,,,,,,,8/8 Overcast,1200.0,,OVC,1200.0,,,,,,
KRDR,10-18-2012,06:06,SPECI,,310,17.0,25.0,,9999.0,Light Rain,9.0,8.0,29.10,987.3,61,,,,,,,,,,,,,,8/8 Overcast,1100.0,,OVC,1200.0,,,,,,
KRDR,10-18-2012,06:00,METAR,,310,17.0,24.0,,9999.0,Light Rain,9.0,8.0,29.10,987.2,61,,,,,,,,,,.03 IN,,.2 IN,,8/8 Overcast,1000.0,,OVC,1100.0,,,,,,
KRDR,10-18-2012,05:00,METAR,,310,17.0,25.0,,9999.0,Light Rain,9.0,8.0,29.09,986.9,61,,,,,,,,,,.03 IN,,,,8/8 Overcast,900.0,,OVC,1100.0,,,,,,
KRDR,10-18-2012,04:00,METAR,,310,18.0,25.0,,9999.0,Rain,9.0,8.0,29.10,987.1,62,,,,,,,,,,,,,,8/8 Overcast,800.0,,BKN,1000.0,OVC,1400.0,,,,
KRDR,10-18-2012,03:40,SPECI,,310,16.0,22.0,,9999.0,Rain,9.0,8.0,29.10,987.1,62,,,,,,,,,,,,,,8/8 Overcast,800.0,,OVC,900.0,,,,,,
KRDR,10-18-2012,03:00,METAR,,300,16.0,,300/27KTS,9999.0,Light Rain,9.0,7.0,29.09,986.8,61,,,,,,,,,,.03 IN,.09 IN,,,8/8 Overcast,1100.0,,OVC,1100.0,,,,,,
KRDR,10-18-2012,02:46,SPECI,,300,17.0,22.0,300/27KTS,9999.0,Light Rain,8.0,7.0,29.09,986.9,61,,,,,,,,,,,,,,8/8 Overcast,1000.0,,OVC,1100.0,,,,,,
KRDR,10-18-2012,02:00,METAR,,300,18.0,26.0,300/28KTS,9999.0,Light Rain,8.0,7.0,29.09,986.9,61,,,,,,,,,,.02 IN,,,,8/8 Overcast,1200.0,,OVC,1300.0,,,,,,
KRDR,10-18-2012,01:00,METAR,,310,19.0,31.0,310/31KTS,9999.0,Light Rain,8.0,6.0,29.10,987.3,61,,,,,,,,,,.04 IN,,,,8/8 Overcast,1300.0,,BKN,1300.0,BKN,1800.0,OVC,2300.0,,
KRDR,10-18-2012,00:45,SPECI,,310,23.0,31.0,310/31KTS,9999.0,Light Rain,8.0,6.0,29.10,987.2,61,,,,,,,,,,,,,,8/8 Overcast,1200.0,,BKN,1300.0,OVC,2100.0,,,,
KRDR,10-18-2012,00:27,SPECI,,310,21.0,28.0,310/28KTS,9999.0,Light Rain,8.0,6.0,29.10,987.3,61,,,,,,,,,,,,,,8/8 Overcast,1200.0,,BKN,1500.0,OVC,2400.0,,,,
KRDR,10-18-2012,00:15,SPECI,,310,17.0,26.0,310/28KTS,9999.0,Light Rain,8.0,6.0,29.11,987.4,61,,,,,,,,,,,,,,8/8 Overcast,1200.0,,OVC,1400.0,,,,,,
KRDR,10-18-2012,00:09,SPECI,,310,18.0,26.0,310/28KTS,9999.0,Light Rain,8.0,6.0,29.11,987.6,61,,,,,,,,,,,,,,8/8 Overcast,1200.0,,BKN,1600.0,OVC,2600.0,,,,
KRDR,10-18-2012,00:00,SPECI,,310,19.0,28.0,310/28KTS,9999.0,Light Rain,8.0,6.0,29.11,987.6,61,,,,,,,,,,,,,,8/8 Overcast,1400.0,,BKN,1400.0,BKN,2100.0,OVC,2600.0,,
KRDR,10-18-2012,00:00,METAR,,310,20.0,28.0,310/28KTS,9999.0,Light Rain,8.0,6.0,29.11,987.5,61,,,,,,,,,,.06 IN,,.35 IN,,8/8 Overcast,1400.0,,BKN,1400.0,BKN,2100.0,OVC,2500.0,,
KRDR,10-17-2012,23:57,SPECI,,310,20.0,28.0,310/28KTS,9999.0,Light Rain,8.0,6.0,29.11,987.5,61,,,,,,,,,,,,,,8/8 Overcast,1500.0,,BKN,1500.0,BKN,2100.0,OVC,2600.0,,
KRDR,10-17-2012,23:50,SPECI,,310,21.0,28.0,310/28KTS,9999.0,Light Rain,8.0,7.0,29.11,987.5,61,,,,,,,,,,,,,,8/8 Overcast,1400.0,,BKN,1400.0,BKN,2100.0,OVC,2600.0,,
KRDR,10-17-2012,23:34,SPECI,,310,21.0,27.0,300/27KTS,9999.0,Rain,8.0,7.0,29.11,987.5,62,,,,,,,,,,,,,,8/8 Overcast,1200.0,,OVC,1500.0,,,,,,
KRDR,10-17-2012,23:02,SPECI,,310,18.0,26.0,310/26KTS,9999.0,Light Rain,8.0,7.0,29.11,987.6,61,,,,,,,,,,,,,,8/8 Overcast,1400.0,,OVC,1400.0,,,,,,
KRDR,10-17-2012,23:00,METAR,,310,16.0,22.0,320/28KTS,9999.0,Rain,9.0,7.0,29.11,987.6,62,,,,,,,,,,.11 IN,,,,8/8 Overcast,1500.0,,BKN,1500.0,OVC,2000.0,,,,
KRDR,10-17-2012,22:30,SPECI,,320,19.0,28.0,320/28KTS,9999.0,Rain/Mist,9.0,7.0,29.11,987.4,62,10,,,,,,,,,,,,,8/8 Overcast,1600.0,,SCT,1000.0,BKN,1600.0,OVC,2100.0,,
KRDR,10-17-2012,22:25,SPECI,,310,19.0,28.0,300/28KTS,9999.0,Rain,9.0,7.0,29.11,987.4,62,,,,,,,,,,,,,,8/8 Overcast,800.0,,BKN,1300.0,OVC,1800.0,,,,
KRDR,10-17-2012,22:23,SPECI,,310,18.0,28.0,300/28KTS,9999.0,Rain,9.0,8.0,29.11,987.4,62,,,,,,,,,,,,,,8/8 Overcast,1100.0,,OVC,1500.0,,,,,,
KRDR,10-17-2012,22:15,SPECI,,310,16.0,22.0,310/26KTS,9999.0,Rain,9.0,8.0,29.11,987.3,62,,,,,,,,,,,,,,8/8 Overcast,1300.0,,FEW,800.0,BKN,1300.0,OVC,1900.0,,
KRDR,10-17-2012,22:12,SPECI,,310,18.0,26.0,310/26KTS,9999.0,Rain,9.0,8.0,29.10,987.3,62,,,,,,,,,,,,,,8/8 Overcast,1000.0,,BKN,1000.0,OVC,1600.0,,,,
KRDR,10-17-2012,22:00,METAR,,310,15.0,23.0,310/28KTS,9999.0,Rain,9.0,8.0,29.10,987.2,62,,,,,,,,,,.09 IN,,,,8/8 Overcast,1300.0,,OVC,1300.0,,,,,,
KRDR,10-17-2012,21:15,SPECI,,310,15.0,21.0,310/28KTS,9999.0,Light Rain,10.0,8.0,29.09,986.8,61,,,,,,,,,,,,,,8/8 Overcast,1300.0,,OVC,1300.0,,,,,,
KRDR,10-17-2012,21:11,SPECI,,310,14.0,28.0,310/28KTS,9999.0,Light Rain,10.0,8.0,29.09,986.9,61,,,,,,,,,,,,,,8/8 Overcast,1000.0,,SCT,1000.0,OVC,1500.0,,,,
KRDR,10-17-2012,21:00,METAR,,310,13.0,24.0,,9999.0,Light Rain/Mist,10.0,8.0,29.09,986.8,61,10,,,,,,,,,.04 IN,.09 IN,,,8/8 Overcast,800.0,,SCT,1000.0,OVC,1500.0,,,,
KRDR,10-17-2012,20:50,SPECI,,310,18.0,24.0,,9999.0,Light Rain/Mist,10.0,8.0,29.09,986.8,61,10,,,,,,,,,,,,,8/8 Overcast,1400.0,,SCT,1000.0,OVC,1500.0,,,,
KRDR,10-17-2012,20:40,SPECI,,310,15.0,24.0,,9999.0,Light Rain,10.0,9.0,29.09,986.7,61,,,,,,,,,,,,,,8/8 Overcast,800.0,,BKN,1100.0,OVC,1500.0,,,,
KRDR,10-17-2012,20:26,SPECI,,310,15.0,22.0,,9999.0,Light Rain,10.0,9.0,29.08,986.6,61,,,,,,,,,,,,,,8/8 Overcast,700.0,,OVC,900.0,,,,,,
KRDR,10-17-2012,20:22,SPECI,,310,14.0,22.0,,9999.0,Light Rain,10.0,9.0,29.08,986.6,61,,,,,,,,,,,,,,8/8 Overcast,700.0,,OVC,1000.0,,,,,,
KRDR,10-17-2012,20:10,SPECI,,310,14.0,,,9999.0,Light Rain,10.0,9.0,29.08,986.6,61,,,,,,,,,,,,,,8/8 Overcast,700.0,,OVC,900.0,,,,,,
KRDR,10-17-2012,20:00,METAR,,300,15.0,19.0,,9999.0,Light Rain,10.0,9.0,29.09,986.7,61,,,,,,,,,,.04 IN,,,,8/8 Overcast,1100.0,,OVC,1100.0,,,,,,
KRDR,10-17-2012,19:00,SPECI,,310,11.0,,,9999.0,Light Rain,10.0,9.0,29.09,986.9,61,,,,,,,,,,,,,,8/8 Overcast,900.0,,BKN,1000.0,BKN,1700.0,OVC,2200.0,,
KRDR,10-17-2012,19:00,METAR,,310,11.0,,,9999.0,Light Rain,10.0,9.0,29.09,986.9,61,,,,,,,,,,.01 IN,,,,8/8 Overcast,1600.0,,SCT,1000.0,OVC,1900.0,,,,
KRDR,10-17-2012,18:00,METAR,,300,12.0,,,9999.0,Light Rain,10.0,9.0,29.11,987.4,61,,,,,,,,,,.01 IN,,.17 IN,,8/8 Overcast,1700.0,,FEW,900.0,OVC,1700.0,,,,
KRDR,10-17-2012,17:31,SPECI,,300,9.0,,,9999.0,Light Rain,10.0,9.0,29.11,987.6,61,,,,,,,,,,,,,,8/8 Overcast,1700.0,,FEW,900.0,BKN,1700.0,OVC,4900.0,,
KRDR,10-17-2012,17:21,SPECI,,300,9.0,,,9999.0,Light Rain,10.0,9.0,29.12,987.7,61,,,,,,,,,,,,,,8/8 Overcast,1600.0,,BKN,1600.0,BKN,4000.0,OVC,4800.0,,
KRDR,10-17-2012,17:00,METAR,,290,8.0,,,9999.0,Light Rain,10.0,9.0,29.12,988.0,61,,,,,,,,,,.06 IN,,,,8/8 Overcast,3700.0,,OVC,3800.0,,,,,,
KRDR,10-17-2012,16:01,SPECI,,290,8.0,,,9999.0,Light Rain/Mist,9.0,8.0,29.14,988.6,61,10,,,,,,,,,,,,,8/8 Overcast,3100.0,,SCT,2100.0,BKN,3100.0,OVC,4200.0,,
KRDR,10-17-2012,16:00,METAR,,280,6.0,,,9999.0,Light Rain,9.0,8.0,29.15,988.7,61,,,,,,,,,,.06 IN,,,,8/8 Overcast,3200.0,,SCT,2000.0,SCT,2400.0,OVC,3300.0,,
KRDR,10-17-2012,15:53,SPECI,,280,6.0,,,9999.0,Light Rain,9.0,8.0,29.15,988.7,61,,,,,,,,,,,,,,8/8 Overcast,2200.0,,BKN,2200.0,OVC,3300.0,,,,
KRDR,10-17-2012,15:00,METAR,,300,5.0,,,9999.0,Light Rain/Mist,10.0,8.0,29.15,988.8,61,10,,,,,,,,,,,,,8/8 Overcast,2500.0,,SCT,2900.0,BKN,4700.0,OVC,5900.0,,
KRDR,10-17-2012,14:53,SPECI,,300,5.0,,,8000.0,Light Rain/Mist,10.0,8.0,29.15,988.8,61,10,,,,,,,,,,,,,8/8 Overcast,2900.0,,BKN,2900.0,BKN,4700.0,OVC,5900.0,,
KRDR,10-17-2012,14:29,SPECI,,280,4.0,,,9999.0,Rain,10.0,8.0,29.15,,,,,61,,,,,,,,,,,Sky Obscured (Unable to Estimate),10000.0,100.0,,9900.0,,,,,,
KRDR,10-17-2012,14:00,METAR,,310,4.0,,,9999.0,Light Rain,10.0,9.0,29.15,989.0,61,,,,,,,,,,.02 IN,,,,Clear,6000.0,,,73000.0,,,,,,
KRDR,10-17-2012,12:51,SPECI,,270,6.0,,,9999.0,Light Drizzle,11.0,10.0,29.16,989.0,51,,,,,,,,,,,,,,7/8 Mostly Cloudy,6000.0,,SCT,1300.0,BKN,5900.0,,,,
KRDR,10-17-2012,12:45,SPECI,,270,4.0,,,9999.0,,11.0,10.0,29.16,989.0,,,,,,,,,,,,,,,7/8 Mostly Cloudy,6000.0,,SCT,1200.0,BKN,5900.0,,,,
KRDR,10-17-2012,12:13,SPECI,,280,3.0,,,9999.0,Light Rain,12.0,10.0,29.16,989.1,61,,,,,,,,,,,,,,8/8 Overcast,7000.0,,FEW,1100.0,OVC,6900.0,,,,
KRDR,10-17-2012,12:00,METAR,,270,5.0,,,9999.0,Light Rain,12.0,10.0,29.16,989.3,61,,,,,,,,,,TRACE,,TRACE,,8/8 Overcast,7000.0,,OVC,6900.0,,,,,,
KRDR,10-17-2012,11:25,SPECI,,260,7.0,,,9999.0,Light Drizzle,13.0,10.0,29.16,989.1,51,,,,,,,,,,,,,,7/8 Mostly Cloudy,9000.0,,SCT,6900.0,BKN,8900.0,BKN,11000.0,,
KRDR,10-17-2012,11:00,METAR,,250,6.0,,,9999.0,,13.0,11.0,29.16,989.1,,,,,,,,,,,,,,,4/8 Partly Cloudy,72000.0,,SCT,9900.0,,,,,,
KRDR,10-17-2012,10:00,METAR,,260,5.0,,,9999.0,,13.0,11.0,29.17,989.4,,,,,,,,,,,TRACE,,,,2/8 Mostly Clear,72000.0,,FEW,7900.0,,,,,,
KRDR,10-17-2012,09:44,SPECI,,260,6.0,,,9999.0,,13.0,11.0,29.17,989.3,,,,,,,,,,,,,,,2/8 Mostly Clear,72000.0,,FEW,7900.0,,,,,,
KRDR,10-17-2012,09:27,SPECI,,250,5.0,,,9999.0,,13.0,10.0,29.17,989.6,,,,,,,,,,,,,,,4/8 Partly Cloudy,72000.0,,SCT,6900.0,,,,,,
KRDR,10-17-2012,09:12,SPECI,,250,6.0,,,9999.0,,13.0,10.0,29.18,989.7,,,,,,,,,,,,,,,8/8 Overcast,7000.0,,FEW,5000.0,OVC,6900.0,,,,
KRDR,10-17-2012,09:00,METAR,,240,6.0,,,9999.0,Light Drizzle,12.0,10.0,29.18,989.9,51,,,,,,,,,,,,,,8/8 Overcast,7000.0,,SCT,5000.0,OVC,6900.0,,,,
KRDR,10-17-2012,08:00,METAR,,200,5.0,,,9999.0,,13.0,9.0,29.21,990.9,,,,,,,,,,,TRACE,,,,Clear,72000.0,,,73000.0,,,,,,
KRDR,10-17-2012,07:04,SPECI,,200,8.0,,,9999.0,,14.0,8.0,29.22,991.2,,,,,,,,,,,,,,,7/8 Mostly Cloudy,8000.0,,FEW,5000.0,SCT,6900.0,BKN,7900.0,,
KRDR,10-17-2012,07:00,METAR,,220,7.0,,,9999.0,,14.0,8.0,29.22,991.1,,,,,,,,,,,,,,,8/8 Overcast,9000.0,,FEW,6900.0,BKN,8900.0,OVC,12000.0,,
KRDR,10-17-2012,06:53,SPECI,,210,7.0,,,9999.0,Light Rain,14.0,8.0,29.22,991.1,61,,,,,,,,,,,,,,7/8 Mostly Cloudy,9000.0,,FEW,6900.0,BKN,8900.0,,,,
KRDR,10-17-2012,06:00,METAR,,170,8.0,,,9999.0,,13.0,7.0,29.22,991.1,,,,,,,,,,,,,,,Clear,72000.0,,,73000.0,,,,,,
KRDR,10-17-2012,05:00,METAR,,160,8.0,,,9999.0,,12.0,7.0,29.24,991.7,,,,,,,,,,,,,,,Clear,72000.0,,,73000.0,,,,,,
KRDR,10-17-2012,04:00,METAR,,170,9.0,,,9999.0,,12.0,7.0,29.25,992.1,,,,,,,,,,,,,,,Clear,72000.0,,,73000.0,,,,,,
KRDR,10-17-2012,03:00,METAR,,150,5.0,,,9999.0,,12.0,7.0,29.27,992.6,,,,,,,,,,,,,,,Clear,72000.0,,,73000.0,,,,,,
KRDR,10-17-2012,02:00,METAR,,150,8.0,,,9999.0,,14.0,7.0,29.28,993.0,,,,,,,,,,,,,,,Clear,72000.0,,,73000.0,,,,,,
KRDR,10-17-2012,01:00,METAR,,150,9.0,,,9999.0,,16.0,8.0,29.29,993.5,,,,,,,,,,,,,,,Clear,72000.0,,,73000.0,,,,,,
KRDR,10-17-2012,00:00,METAR,,150,7.0,,,9999.0,,15.0,7.0,29.31,994.2,,,,,,,,,,,,,,,Clear,72000.0,,,73000.0,,,,,,
KRDR,10-16-2012,23:00,METAR,,140,6.0,,,9999.0,,17.0,8.0,29.33,994.6,,,,,,,,,,,,,,,Clear,72000.0,,,73000.0,,,,,,
KRDR,10-16-2012,22:00,METAR,,150,6.0,,,9999.0,,20.0,8.0,29.34,995.2,,,,,,,,,,,,,,,Clear,72000.0,,,73000.0,,,,,,
KRDR,10-16-2012,21:00,METAR,,180,6.0,,,9999.0,,20.0,8.0,29.37,996.0,,,,,,,,,,,,,,,Clear,72000.0,,,73000.0,,,,,,
KRDR,10-16-2012,20:00,METAR,,,0.0,,,9999.0,,20.0,8.0,29.40,996.9,,,,,,,,,,,,,,,Clear,72000.0,,,73000.0,,,,,,
KRDR,10-16-2012,19:00,METAR,,190,4.0,,,9999.0,,19.0,8.0,29.41,997.4,,,,,,,,,,,,,,,Clear,72000.0,,,73000.0,,,,,,
KRDR,10-16-2012,18:00,METAR,,180,4.0,,,9999.0,,18.0,8.0,29.44,998.5,,,,,,,,,,,,,,,Clear,72000.0,,,73000.0,,,,,,
KRDR,10-16-2012,17:00,METAR,,110,4.0,,,9999.0,,15.0,8.0,29.47,999.5,,,,,,,,,,,,,,,Clear,72000.0,,,73000.0,,,,,,
KRDR,10-16-2012,16:00,METAR,,,0.0,,,9999.0,,13.0,7.0,29.49,1000.1,,,,,,,,,,,,,,,Clear,72000.0,,,73000.0,,,,,,
KRDR,10-16-2012,15:00,METAR,,350,4.0,,,9999.0,,11.0,7.0,29.51,1000.6,,,,,,,,,,,,,,,Clear,72000.0,,,73000.0,,,,,,
KRDR,10-16-2012,14:00,METAR,,310,4.0,,,9999.0,,7.0,5.0,29.51,1000.7,,,,,,,,,,,,,,,Clear,72000.0,,,73000.0,,,,,,
KRDR,10-16-2012,13:00,METAR,,320,4.0,,,9999.0,,4.0,3.0,29.52,1001.0,,,,,,,,,,,,,,,Clear,72000.0,,,73000.0,,,,,,
KRDR,10-16-2012,12:00,METAR,,280,6.0,,,9999.0,,6.0,4.0,29.52,1001.0,,,,,,,,,,,,,,,Clear,72000.0,,,73000.0,,,,,,
KRDR,10-16-2012,11:00,METAR,,270,6.0,,,9999.0,,8.0,5.0,29.51,1000.8,,,,,,,,,,,,,,,Clear,72000.0,,,73000.0,,,,,,
KRDR,10-16-2012,10:00,METAR,,290,6.0,,,9999.0,,10.0,5.0,29.51,1000.7,,,,,,,,,,,,,,,Clear,72000.0,,,73000.0,,,,,,
KRDR,10-16-2012,09:00,METAR,,270,4.0,,,9999.0,,12.0,6.0,29.51,1000.8,,,,,,,,,,,,,,,7/8 Mostly Cloudy,11000.0,,BKN,11000.0,,,,,,
KRDR,10-16-2012,08:00,METAR,,270,7.0,,,9999.0,,13.0,6.0,29.52,1001.1,,,,,,,,,,,,,,,2/8 Mostly Clear,72000.0,,FEW,11000.0,,,,,,
KRDR,10-16-2012,07:00,METAR,,270,8.0,,,9999.0,,13.0,6.0,29.52,1001.1,,,,,,,,,,,,,,,Clear,72000.0,,,73000.0,,,,,,
KRDR,10-16-2012,06:00,METAR,,270,6.0,,,9999.0,,12.0,5.0,29.52,1001.0,,,,,,,,,,,,,,,Clear,72000.0,,,73000.0,,,,,,
KRDR,10-16-2012,05:00,METAR,,210,7.0,,,9999.0,,12.0,4.0,29.52,1001.0,,,,,,,,,,,,,,,Clear,72000.0,,,73000.0,,,,,,
KRDR,10-16-2012,04:00,METAR,,180,7.0,,,9999.0,,13.0,5.0,29.53,1001.2,,,,,,,,,,,,,,,Clear,72000.0,,,73000.0,,,,,,
KRDR,10-16-2012,03:00,METAR,,180,7.0,,,9999.0,,14.0,4.0,29.53,1001.5,,,,,,,,,,,,,,,Clear,72000.0,,,73000.0,,,,,,
KRDR,10-16-2012,02:00,METAR,,200,11.0,,,9999.0,,15.0,4.0,29.54,1001.5,,,,,,,,,,,,,,,Clear,72000.0,,,73000.0,,,,,,
KRDR,10-16-2012,01:00,METAR,,160,10.0,,,9999.0,,14.0,4.0,29.54,1001.8,,,,,,,,,,,,,,,Clear,72000.0,,,73000.0,,,,,,
KRDR,10-16-2012,00:00,METAR,,140,10.0,,,9999.0,,15.0,4.0,29.56,1002.2,,,,,,,,,,,,,,,Clear,72000.0,,,73000.0,,,,,,
KRDR,10-15-2012,23:00,METAR,,160,12.0,,,9999.0,,18.0,4.0,29.57,1002.6,,,,,,,,,,,,,,,Clear,72000.0,,,73000.0,,,,,,
KRDR,10-15-2012,22:00,METAR,,180,16.0,,,9999.0,,19.0,4.0,29.59,1003.3,,,,,,,,,,,,,,,8/8 Overcast,11000.0,,OVC,11000.0,,,,,,
KRDR,10-15-2012,21:00,METAR,,170,15.0,22.0,170/27KTS,9999.0,,16.0,4.0,29.61,1004.1,,,,,,,,,,,,,,,7/8 Mostly Cloudy,11000.0,,BKN,11000.0,,,,,,
KRDR,10-15-2012,20:00,METAR,,160,18.0,24.0,,9999.0,,15.0,4.0,29.63,1004.5,,,,,,,,,,,,,,,8/8 Overcast,11000.0,,OVC,11000.0,,,,,,
KRDR,10-15-2012,19:00,METAR,,170,15.0,25.0,,9999.0,,15.0,4.0,29.67,1006.1,,,,,,,,,,,,,,,7/8 Mostly Cloudy,10000.0,,BKN,9900.0,,,,,,
KRDR,10-15-2012,18:00,METAR,,170,16.0,19.0,,9999.0,,12.0,4.0,29.71,1007.4,,,,,,,,,,,TRACE,,TRACE,,7/8 Mostly Cloudy,12000.0,,BKN,12000.0,,,,,,
KRDR,10-15-2012,17:12,SPECI,,170,13.0,21.0,,9999.0,,10.0,5.0,29.73,1008.1,,,,,,,,,,,,,,,8/8 Overcast,8000.0,,SCT,6900.0,OVC,7900.0,,,,
KRDR,10-15-2012,17:04,SPECI,,170,15.0,,,9999.0,Light Rain,10.0,5.0,29.74,1008.3,61,,,,,,,,,,,,,,8/8 Overcast,8000.0,,SCT,6900.0,OVC,7900.0,,,,
KRDR,10-15-2012,17:00,METAR,,170,15.0,,,9999.0,,10.0,4.0,29.75,1008.5,,,,,,,,,,,TRACE,,,,8/8 Overcast,7000.0,,BKN,6900.0,OVC,8900.0,,,,
KRDR,10-15-2012,16:00,METAR,,160,10.0,,,9999.0,Light Drizzle,6.0,4.0,29.77,1009.3,51,,,,,,,,,,TRACE,,,,8/8 Overcast,7000.0,,OVC,6900.0,,,,,,
KRDR,10-15-2012,16:00,SPECI,,160,11.0,,,9999.0,,7.0,5.0,29.76,1009.0,,,,,,,,,,,,,,,8/8 Overcast,7000.0,,FEW,5900.0,BKN,6900.0,OVC,9900.0,,
KRDR,10-15-2012,15:01,SPECI,,170,9.0,,,9999.0,Unknown Precipitation,5.0,3.0,29.81,1010.5,40,,,,,,,,,,,,,,2/8 Mostly Clear,72000.0,,FEW,6900.0,,,,,,
KRDR,10-15-2012,15:00,METAR,,160,10.0,,,9999.0,,5.0,3.0,29.81,1010.4,,,,,,,,,,,,,,,2/8 Mostly Clear,72000.0,,FEW,8900.0,,,,,,
KRDR,10-15-2012,14:00,METAR,,150,9.0,,,9999.0,,3.0,1.0,29.82,1010.8,,,,,,,,,,,,,,,Clear,72000.0,,,73000.0,,,,,,
KRDR,10-15-2012,13:00,METAR,,150,5.0,,,9999.0,,0.0,-2.0,29.82,1010.9,,,,,,,,,,,,,,,Clear,72000.0,,,73000.0,,,,,,
KRDR,10-15-2012,12:00,METAR,,160,7.0,,,9999.0,,1.0,0.0,29.82,1011.0,,,,,,,,,,,,,,,Clear,72000.0,,,73000.0,,,,,,
KRDR,10-15-2012,11:00,METAR,,160,5.0,,,9999.0,,0.0,-2.0,29.83,1011.4,,,,,,,,,,,,,,,Clear,72000.0,,,73000.0,,,,,,
KRDR,10-15-2012,10:00,METAR,,170,4.0,,,9999.0,,-1.0,-2.0,29.84,1011.5,,,,,,,,,,,,,,,Clear,72000.0,,,73000.0,,,,,,
KRDR,10-15-2012,09:00,METAR,,180,3.0,,,9999.0,,-1.0,-2.0,29.85,1012.0,,,,,,,,,,,,,,,Clear,72000.0,,,73000.0,,,,,,
KRDR,10-15-2012,08:00,METAR,,170,4.0,,,9999.0,,-1.0,-2.0,29.87,1012.5,,,,,,,,,,,,,,,Clear,72000.0,,,73000.0,,,,,,
KRDR,10-15-2012,07:00,METAR,,140,5.0,,,9999.0,,1.0,0.0,29.88,1012.7,,,,,,,,,,,,,,,Clear,72000.0,,,73000.0,,,,,,
KRDR,10-15-2012,06:00,METAR,,150,4.0,,,9999.0,,3.0,1.0,29.88,1012.8,,,,,,,,,,,,,TRACE,,Clear,72000.0,,,73000.0,,,,,,
KRDR,10-15-2012,05:00,METAR,,210,4.0,,,9999.0,,5.0,3.0,29.88,1012.9,,,,,,,,,,,,,,,2/8 Mostly Clear,72000.0,,FEW,12000.0,,,,,,
KRDR,10-15-2012,04:00,METAR,,260,6.0,,,9999.0,,5.0,3.0,29.90,1013.5,,,,,,,,,,,,,,,2/8 Mostly Clear,72000.0,,FEW,12000.0,,,,,,
KRDR,10-15-2012,03:00,METAR,,170,5.0,,,9999.0,,4.0,2.0,29.90,1013.5,,,,,,,,,,,TRACE,0 IN,,,4/8 Partly Cloudy,72000.0,,FEW,3500.0,SCT,4900.0,SCT,12000.0,,
KRDR,10-15-2012,02:50,SPECI,,190,6.0,,,9999.0,,4.0,2.0,29.90,1013.6,,,,,,,,,,,,,,,4/8 Partly Cloudy,72000.0,,FEW,3500.0,SCT,4900.0,SCT,7900.0,,
KRDR,10-15-2012,02:28,SPECI,,180,4.0,,,9999.0,,3.0,1.0,29.92,1014.2,,,,,,,,,,,,,,,2/8 Mostly Clear,72000.0,,FEW,4800.0,,,,,,
KRDR,10-15-2012,02:00,METAR,,,0.0,,,9999.0,,2.0,0.0,29.94,1014.7,,,,,,,,,,,,,,,7/8 Mostly Cloudy,6000.0,,BKN,5900.0,,,,,,
KRDR,10-15-2012,01:00,METAR,,,0.0,,,9999.0,,4.0,1.0,29.92,1014.1,,,,,,,,,,,,,,,Clear,72000.0,,,73000.0,,,,,,
KRDR,10-15-2012,00:00,METAR,,,0.0,,,9999.0,,8.0,3.0,29.91,1013.8,,,,,,,,,,,,,,,Clear,72000.0,,,73000.0,,,,,,
KRDR,10-14-2012,23:00,METAR,,50,3.0,,,9999.0,,12.0,3.0,29.91,1013.9,,,,,,,,,,,,,,,Clear,72000.0,,,73000.0,,,,,,
KRDR,10-14-2012,22:00,METAR,,330,5.0,,,9999.0,,12.0,2.0,29.91,1013.9,,,,,,,,,,,,,,,Clear,72000.0,,,73000.0,,,,,,
KRDR,10-14-2012,21:00,METAR,,360,4.0,,,9999.0,,11.0,2.0,29.91,1013.8,,,,,,,,,,,,,,,Clear,72000.0,,,73000.0,,,,,,
KRDR,10-14-2012,20:00,METAR,,350,7.0,,,9999.0,,10.0,3.0,29.92,1014.3,,,,,,,,,,,,,,,Clear,72000.0,,,73000.0,,,,,,
KRDR,10-14-2012,19:00,METAR,,340,7.0,,,9999.0,,7.0,3.0,29.93,1014.6,,,,,,,,,,,,,,,4/8 Partly Cloudy,72000.0,,SCT,1300.0,,,,,,
KRDR,10-14-2012,18:50,SPECI,,340,7.0,,,9999.0,,7.0,3.0,29.94,1014.7,,,,,,,,,,,,,,,4/8 Partly Cloudy,72000.0,,SCT,1300.0,,,,,,
KRDR,10-14-2012,18:31,SPECI,,340,6.0,,,9999.0,,7.0,2.0,29.94,1015.0,,,,,,,,,,,,,,,8/8 Overcast,1200.0,,OVC,1200.0,,,,,,
KRDR,10-14-2012,17:51,SPECI,,350,9.0,,,9999.0,,6.0,2.0,29.95,1015.3,,,,,,,,,,,,,,,8/8 Overcast,900.0,,OVC,1000.0,,,,,,
KRDR,10-14-2012,17:00,METAR,,360,6.0,,,9999.0,,5.0,2.0,29.96,1015.4,,,,,,,,,,,,,,,8/8 Overcast,800.0,,OVC,800.0,,,,,,
KRDR,10-14-2012,16:00,METAR,,340,11.0,,,9999.0,,4.0,2.0,29.96,1015.6,,,,,,,,,,,,,,,8/8 Overcast,700.0,,OVC,700.0,,,,,,
KRDR,10-14-2012,15:00,METAR,,360,9.0,,,9999.0,,4.0,2.0,29.97,1015.8,,,,,,,,,,,,,,,8/8 Overcast,700.0,,OVC,700.0,,,,,,
KRDR,10-14-2012,14:34,SPECI,,360,9.0,,,9999.0,,3.0,2.0,29.97,1015.8,,,,,,,,,,,,,,,8/8 Overcast,700.0,,OVC,700.0,,,,,,
KRDR,10-14-2012,14:14,SPECI,,340,11.0,,,9999.0,,3.0,2.0,29.96,1015.6,,,,,,,,,,,,,,,7/8 Mostly Cloudy,600.0,,BKN,600.0,,,,,,
KRDR,10-14-2012,14:01,SPECI,,340,9.0,,,9999.0,,3.0,1.0,29.96,1015.6,,,,,,,,,,,,,,,2/8 Mostly Clear,72000.0,,FEW,800.0,,,,,,
KRDR,10-14-2012,14:00,METAR,,340,7.0,,,9999.0,,2.0,1.0,29.96,1015.6,,,,,,,,,,,,,,,Clear,72000.0,,,73000.0,,,,,,
KRDR,10-14-2012,13:00,METAR,,340,7.0,,,9999.0,,1.0,0.0,29.94,1015.0,,,,,,,,,,,,,,,Clear,72000.0,,,73000.0,,,,,,
KRDR,10-14-2012,12:00,METAR,,340,6.0,,,9999.0,,1.0,0.0,29.94,1015.0,,,,,,,,,,,,,,,Clear,72000.0,,,73000.0,,,,,,
KRDR,10-14-2012,11:00,METAR,,350,7.0,,,9999.0,,2.0,1.0,29.94,1014.7,,,,,,,,,,,,,,,8/8 Overcast,9000.0,,OVC,8900.0,,,,,,
KRDR,10-14-2012,10:00,METAR,,350,8.0,,,9999.0,,1.0,0.0,29.93,1014.7,,,,,,,,,,,,,,,Clear,72000.0,,,73000.0,,,,,,
KRDR,10-14-2012,09:00,METAR,,330,7.0,,,9999.0,,1.0,0.0,29.92,1014.2,,,,,,,,,,,,,,,Clear,72000.0,,,73000.0,,,,,,
KRDR,10-14-2012,08:00,METAR,,340,6.0,,,9999.0,,2.0,0.0,29.90,1013.6,,,,,,,,,,,,,,,Clear,72000.0,,,73000.0,,,,,,
KRDR,10-14-2012,07:00,METAR,,350,7.0,,,9999.0,,3.0,1.0,29.89,1013.1,,,,,,,,,,,,,,,Clear,72000.0,,,73000.0,,,,,,
KRDR,10-14-2012,06:00,METAR,,10,10.0,,,9999.0,,4.0,1.0,29.87,1012.5,,,,,,,,,,,,,,,Clear,72000.0,,,73000.0,,,,,,
KRDR,10-14-2012,05:00,METAR,,360,9.0,,,9999.0,,5.0,1.0,29.88,1012.9,,,,,,,,,,,,,,,Clear,72000.0,,,73000.0,,,,,,
KRDR,10-14-2012,04:00,METAR,,350,9.0,,,9999.0,,6.0,0.0,29.87,1012.6,,,,,,,,,,,,,,,Clear,72000.0,,,73000.0,,,,,,
KRDR,10-14-2012,03:00,METAR,,350,9.0,,,9999.0,,6.0,0.0,29.85,1011.9,,,,,,,,,,,,,,,Clear,72000.0,,,73000.0,,,,,,
KRDR,10-14-2012,02:00,METAR,,350,7.0,,,9999.0,,7.0,0.0,29.83,1011.2,,,,,,,,,,,,,,,Clear,72000.0,,,73000.0,,,,,,
KRDR,10-14-2012,01:00,METAR,,350,6.0,,,9999.0,,6.0,-1.0,29.82,1010.7,,,,,,,,,,,,,,,Clear,72000.0,,,73000.0,,,,,,
KRDR,10-14-2012,00:00,METAR,,10,9.0,,,9999.0,,10.0,0.0,29.78,1009.5,,,,,,,,,,,,,,,Clear,72000.0,,,73000.0,,,,,,
KRDR,10-13-2012,23:00,METAR,,10,12.0,,,9999.0,,12.0,0.0,29.75,1008.6,,,,,,,,,,,,,,,Clear,72000.0,,,73000.0,,,,,,
KRDR,10-13-2012,20:00,METAR,,10,8.0,,,9999.0,,15.0,0.0,29.68,1009.0,,,,,,,,,,,,,,,Clear,72000.0,,,73000.0,,,,,,
KRDR,10-13-2012,19:00,METAR,,20,7.0,,,9999.0,,13.0,0.0,29.68,1009.0,,,,,,,,,,,,,,,Clear,72000.0,,,73000.0,,,,,,
KRDR,10-13-2012,15:00,METAR,,260,5.0,,,9999.0,,7.0,1.0,29.67,1005.9,,,,,,,,,,,,,,,Clear,72000.0,,,73000.0,,,,,,
KRDR,10-13-2012,14:00,METAR,,210,6.0,,,9999.0,,4.0,0.0,29.66,1005.6,,,,,,,,,,,,,,,Clear,72000.0,,,73000.0,,,,,,
KRDR,10-13-2012,13:00,METAR,,180,9.0,,,9999.0,,2.0,-1.0,29.66,1005.5,,,,,,,,,,,,,,,Clear,72000.0,,,73000.0,,,,,,
KRDR,10-13-2012,12:00,METAR,,170,7.0,,,9999.0,,1.0,-3.0,29.65,1005.4,,,,,,,,,,,,,,,Clear,72000.0,,,73000.0,,,,,,
KRDR,10-13-2012,11:00,METAR,,170,8.0,,,9999.0,,0.0,-4.0,29.64,1005.0,,,,,,,,,,,,,,,Clear,72000.0,,,73000.0,,,,,,
KRDR,10-13-2012,10:00,METAR,,170,7.0,,,9999.0,,2.0,-4.0,29.65,1005.4,,,,,,,,,,,,,,,Clear,72000.0,,,73000.0,,,,,,
KRDR,10-13-2012,09:00,METAR,,170,7.0,,,9999.0,,3.0,-5.0,29.67,1006.0,,,,,,,,,,,,,,,Clear,72000.0,,,73000.0,,,,,,
KRDR,10-13-2012,08:00,METAR,,160,11.0,,,9999.0,,2.0,-5.0,29.69,1006.7,,,,,,,,,,,,,,,Clear,72000.0,,,73000.0,,,,,,
KRDR,10-13-2012,07:00,METAR,,160,8.0,,,9999.0,,1.0,-5.0,29.74,1008.1,,,,,,,,,,,,,,,Clear,72000.0,,,73000.0,,,,,,
KRDR,10-13-2012,06:00,METAR,,160,11.0,,,9999.0,,3.0,-6.0,29.76,1008.8,,,,,,,,,,,,,,,Clear,72000.0,,,73000.0,,,,,,
KRDR,10-13-2012,05:00,METAR,,160,9.0,,,9999.0,,4.0,-6.0,29.77,1009.1,,,,,,,,,,,,,,,Clear,72000.0,,,73000.0,,,,,,
KRDR,10-13-2012,04:00,METAR,,160,12.0,,,9999.0,,5.0,-6.0,29.78,1009.7,,,,,,,,,,,,,,,Clear,72000.0,,,73000.0,,,,,,
KRDR,10-13-2012,03:00,METAR,,160,12.0,,,9999.0,,5.0,-6.0,29.80,1010.2,,,,,,,,,,,,,,,Clear,72000.0,,,73000.0,,,,,,
KRDR,10-13-2012,02:00,METAR,,150,10.0,,,9999.0,,5.0,-6.0,29.83,1011.2,,,,,,,,,,,,,,,Clear,72000.0,,,73000.0,,,,,,
KRDR,10-13-2012,01:00,METAR,,160,9.0,,,9999.0,,6.0,-6.0,29.88,1012.7,,,,,,,,,,,,,,,Clear,72000.0,,,73000.0,,,,,,
KRDR,10-13-2012,00:00,METAR,,170,10.0,,,9999.0,,8.0,-7.0,29.90,1013.6,,,,,,,,,,,,,,,Clear,72000.0,,,73000.0,,,,,,
KRDR,10-12-2012,23:00,METAR,,170,17.0,25.0,170/32KTS,9999.0,,11.0,-7.0,29.91,1013.9,,,,,,,,,,,,,,,Clear,72000.0,,,73000.0,,,,,,
KRDR,10-12-2012,22:00,METAR,,170,22.0,29.0,160/32KTS,9999.0,,11.0,-7.0,29.93,1014.4,,,,,,,,,,,,,,,Clear,72000.0,,,73000.0,,,,,,
KRDR,10-12-2012,21:00,METAR,,180,16.0,30.0,160/33KTS,9999.0,,11.0,-7.0,29.97,1015.8,,,,,,,,,,,,,,,Clear,72000.0,,,73000.0,,,,,,
KRDR,10-12-2012,20:00,METAR,,180,23.0,29.0,180/32KTS,9999.0,,10.0,-6.0,30.02,1017.6,,,,,,,,,,,,,,,Clear,72000.0,,,73000.0,,,,,,
KRDR,10-12-2012,19:00,METAR,,180,22.0,28.0,180/30KTS,9999.0,,10.0,-6.0,30.07,1019.2,,,,,,,,,,,,,,,4/8 Partly Cloudy,72000.0,,SCT,6900.0,,,,,,
KRDR,10-12-2012,18:00,METAR,,180,22.0,26.0,180/26KTS,9999.0,,8.0,-5.0,30.13,1021.1,,,,,,,,,,,,,,,4/8 Partly Cloudy,72000.0,,SCT,7900.0,,,,,,
KRDR,10-12-2012,17:00,METAR,,170,16.0,22.0,,9999.0,,4.0,-4.0,30.18,1022.6,,,,,,,,,,,,,,,8/8 Overcast,7000.0,,OVC,6900.0,,,,,,
KRDR,10-12-2012,16:00,METAR,,170,11.0,,,9999.0,,2.0,-4.0,30.21,1023.6,,,,,,,,,,,,,,,8/8 Overcast,7000.0,,OVC,6900.0,,,,,,
KRDR,10-12-2012,15:00,METAR,,170,14.0,,,9999.0,,1.0,-4.0,30.22,1024.2,,,,,,,,,,,,,,,8/8 Overcast,7000.0,,OVC,6900.0,,,,,,
KRDR,10-12-2012,14:00,METAR,,170,11.0,,,9999.0,,-1.0,-4.0,30.26,1025.6,,,,,,,,,,,,,,,8/8 Overcast,7000.0,,OVC,6900.0,,,,,,
KRDR,10-12-2012,13:00,METAR,,180,10.0,,,9999.0,,-2.0,-5.0,30.28,1026.1,,,,,,,,,,,,,,,Clear,72000.0,,,73000.0,,,,,,
KRDR,10-12-2012,12:00,METAR,,180,10.0,,,9999.0,,-3.0,-6.0,30.31,1026.9,,,,,,,,,,,,,,,Clear,72000.0,,,73000.0,,,,,,
KRDR,10-12-2012,11:00,METAR,,180,7.0,,,9999.0,,-3.0,-6.0,30.32,1027.5,,,,,,,,,,,,,,,Clear,72000.0,,,73000.0,,,,,,
KRDR,10-12-2012,10:00,METAR,,210,8.0,,,9999.0,,-2.0,-5.0,30.32,1027.5,,,,,,,,,,,,,,,Clear,72000.0,,,73000.0,,,,,,
KRDR,10-12-2012,09:00,METAR,,210,6.0,,,9999.0,,-2.0,-5.0,30.34,1028.1,,,,,,,,,,,,,,,Clear,72000.0,,,73000.0,,,,,,
KRDR,10-12-2012,08:00,METAR,,210,5.0,,,9999.0,,-4.0,-6.0,30.36,1028.6,,,,,,,,,,,,,,,Clear,72000.0,,,73000.0,,,,,,
KRDR,10-12-2012,07:00,METAR,,210,3.0,,,9999.0,,-5.0,-7.0,30.36,1028.8,,,,,,,,,,,,,,,Clear,72000.0,,,73000.0,,,,,,
KRDR,10-12-2012,06:00,METAR,,220,4.0,,,9999.0,,-7.0,-8.0,30.37,1029.0,,,,,,,,,,,,,,,Clear,72000.0,,,73000.0,,,,,,
KRDR,10-12-2012,05:00,METAR,,220,5.0,,,9999.0,,-5.0,-8.0,30.37,1029.0,,,,,,,,,,,,,,,Clear,72000.0,,,73000.0,,,,,,
KRDR,10-12-2012,04:00,METAR,,210,5.0,,,9999.0,,-6.0,-8.0,30.37,1029.0,,,,,,,,,,,,,,,Clear,72000.0,,,73000.0,,,,,,
KRDR,10-12-2012,03:00,METAR,,230,3.0,,,9999.0,,-5.0,-7.0,30.36,1028.8,,,,,,,,,,,,,,,Clear,72000.0,,,73000.0,,,,,,
KRDR,10-12-2012,02:00,METAR,,,0.0,,,9999.0,,-4.0,-6.0,30.36,1028.5,,,,,,,,,,,,,,,Clear,72000.0,,,73000.0,,,,,,
KRDR,10-12-2012,01:00,METAR,,,0.0,,,9999.0,,-2.0,-5.0,30.35,1028.2,,,,,,,,,,,,,,,Clear,72000.0,,,73000.0,,,,,,
KRDR,10-12-2012,00:00,METAR,,20,4.0,,,9999.0,,2.0,-5.0,30.33,1027.8,,,,,,,,,,,,,,,Clear,72000.0,,,73000.0,,,,,,
KRDR,10-11-2012,23:00,METAR,,10,8.0,,,9999.0,,6.0,-6.0,30.32,1027.3,,,,,,,,,,,,,,,2/8 Mostly Clear,72000.0,,FEW,5000.0,,,,,,
KRDR,10-11-2012,22:00,METAR,,350,14.0,,,9999.0,,6.0,-6.0,30.31,1026.9,,,,,,,,,,,,,,,Clear,72000.0,,,73000.0,,,,,,
KRDR,10-11-2012,21:00,METAR,,330,7.0,,,9999.0,,7.0,-6.0,30.30,1026.6,,,,,,,,,,,,,,,2/8 Mostly Clear,72000.0,,FEW,4600.0,,,,,,
KRDR,10-11-2012,20:00,METAR,,340,12.0,,,9999.0,,7.0,-5.0,30.28,1026.1,,,,,,,,,,,,,,,2/8 Mostly Clear,72000.0,,FEW,4200.0,,,,,,
KRDR,10-11-2012,19:00,METAR,,340,9.0,,,9999.0,,5.0,-5.0,30.28,1026.0,,,,,,,,,,,,,,,2/8 Mostly Clear,72000.0,,FEW,3900.0,,,,,,
KRDR,10-11-2012,18:00,METAR,,360,11.0,,,9999.0,,5.0,-4.0,30.28,1026.1,,,,,,,,,,,,,,,4/8 Partly Cloudy,72000.0,,SCT,3700.0,,,,,,
KRDR,10-11-2012,17:00,METAR,,350,13.0,,,9999.0,,4.0,-3.0,30.27,1025.8,,,,,,,,,,,,,,,2/8 Mostly Clear,72000.0,,FEW,3200.0,,,,,,
KRDR,10-11-2012,16:00,METAR,,340,13.0,17.0,,9999.0,,3.0,-3.0,30.25,1025.1,,,,,,,,,,,,,,,Clear,72000.0,,,73000.0,,,,,,
KRDR,10-11-2012,15:00,METAR,,330,10.0,,,9999.0,,1.0,-3.0,30.23,1024.4,,,,,,,,,,,,,,,Clear,72000.0,,,73000.0,,,,,,
KRDR,10-11-2012,14:00,METAR,,320,10.0,,,9999.0,,-1.0,-4.0,30.20,1023.5,,,,,,,,,,,,,,,Clear,72000.0,,,73000.0,,,,,,
KRDR,10-11-2012,13:00,METAR,,330,9.0,,,9999.0,,-1.0,-4.0,30.16,1022.2,,,,,,,,,,,,,,,Clear,72000.0,,,73000.0,,,,,,
KRDR,10-11-2012,12:00,METAR,,310,8.0,,,9999.0,,-1.0,-4.0,30.14,1021.3,,,,,,,,,,,,,,.07 IN,Clear,72000.0,,,73000.0,,,,,,
KRDR,10-11-2012,11:00,METAR,,340,7.0,,,9999.0,,-1.0,-3.0,30.11,1020.5,,,,,,,,,,,,,,,Clear,72000.0,,,73000.0,,,,,,
KRDR,10-11-2012,10:00,METAR,,320,5.0,,,9999.0,,0.0,-2.0,30.08,1019.5,,,,,,,,,,,,,,,Clear,72000.0,,,73000.0,,,,,,
KRDR,10-11-2012,09:00,METAR,,340,5.0,,,9999.0,,0.0,-1.0,30.05,1018.4,,,,,,,,,,,,,,,Clear,72000.0,,,73000.0,,,,,,
KRDR,10-11-2012,08:00,METAR,,340,7.0,,,9999.0,,1.0,-1.0,30.02,1017.6,,,,,,,,,,,,,,,Clear,72000.0,,,73000.0,,,,,,
KRDR,10-11-2012,07:00,METAR,,340,8.0,,,9999.0,,2.0,0.0,29.99,1016.6,,,,,,,,,,,,,,,Clear,72000.0,,,73000.0,,,,,,
KRDR,10-11-2012,06:00,METAR,,300,5.0,,,9999.0,,1.0,1.0,29.98,1016.0,,,,,,,,,,,,,.02 IN,,Clear,72000.0,,,73000.0,,,,,,
KRDR,10-11-2012,05:00,METAR,,300,5.0,,,9999.0,,1.0,1.0,29.97,1015.8,,,,,,,,,,,,,,,2/8 Mostly Clear,72000.0,,FEW,11000.0,,,,,,
KRDR,10-11-2012,04:00,METAR,,310,3.0,,,9999.0,,1.0,1.0,29.96,1015.5,,,,,,,,,,,,,,,7/8 Mostly Cloudy,8000.0,,FEW,5900.0,BKN,7900.0,,,,
KRDR,10-11-2012,03:01,SPECI,,,0.0,,,9999.0,,3.0,2.0,29.94,1014.9,,,,,,,,,,,,,,,8/8 Overcast,3000.0,,OVC,3000.0,,,,,,
KRDR,10-11-2012,03:00,METAR,,,0.0,,,9999.0,,3.0,2.0,29.94,1014.9,,,,,,,,,,,,.02 IN,,,8/8 Overcast,2600.0,,OVC,2700.0,,,,,,
KRDR,10-11-2012,02:00,METAR,,,0.0,,,9999.0,,3.0,2.0,29.93,1014.4,,,,,,,,,,,.01 IN,,,,8/8 Overcast,1700.0,,SCT,1100.0,OVC,1900.0,,,,
KRDR,10-11-2012,01:48,SPECI,,40,3.0,,,9999.0,,3.0,2.0,29.93,1014.4,,,,,,,,,,,,,,,8/8 Overcast,1900.0,,SCT,1100.0,OVC,1900.0,,,,
KRDR,10-11-2012,01:46,SPECI,,40,3.0,,,9999.0,,3.0,2.0,29.93,1014.4,,,,,,,,,,,,,,,8/8 Overcast,1000.0,,BKN,1000.0,OVC,2000.0,,,,
KRDR,10-11-2012,01:23,SPECI,,40,3.0,,,9999.0,Light Drizzle,3.0,2.0,29.93,1014.5,51,,,,,,,,,,,,,,8/8 Overcast,1000.0,,BKN,1100.0,OVC,1800.0,,,,
KRDR,10-11-2012,01:13,SPECI,,50,4.0,,,9999.0,Light Drizzle,3.0,2.0,29.92,1014.3,51,,,,,,,,,,,,,,8/8 Overcast,1000.0,,BKN,1200.0,OVC,1800.0,,,,
KRDR,10-11-2012,01:07,SPECI,,50,4.0,,,9999.0,Light Drizzle,3.0,2.0,29.92,1014.3,51,,,,,,,,,,,,,,8/8 Overcast,800.0,,BKN,1100.0,OVC,1800.0,,,,
KRDR,10-11-2012,01:06,SPECI,,50,5.0,,,9999.0,Light Drizzle,3.0,2.0,29.92,1014.3,51,,,,,,,,,,,,,,8/8 Overcast,1000.0,,FEW,700.0,BKN,1200.0,OVC,1800.0,,
KRDR,10-11-2012,01:03,SPECI,,40,5.0,,,9999.0,Light Drizzle,3.0,2.0,29.93,1014.4,51,,,,,,,,,,,,,,8/8 Overcast,1000.0,,FEW,700.0,OVC,1200.0,,,,
KRDR,10-11-2012,01:00,METAR,,40,5.0,,,9999.0,Light Drizzle,3.0,2.0,29.92,1014.4,51,,,,,,,,,,,,,,8/8 Overcast,1000.0,,FEW,700.0,OVC,1300.0,,,,
KRDR,10-11-2012,00:49,SPECI,,40,4.0,,,9999.0,Light Rain,3.0,2.0,29.92,1014.2,61,,,,,,,,,,,,,,8/8 Overcast,600.0,,OVC,1100.0,,,,,,
KRDR,10-11-2012,00:39,SPECI,,80,5.0,,,9999.0,Light Rain,3.0,2.0,29.91,1014.0,61,,,,,,,,,,,,,,8/8 Overcast,600.0,,BKN,900.0,OVC,1200.0,,,,
KRDR,10-11-2012,00:35,SPECI,,,0.0,,,9999.0,Light Rain,3.0,2.0,29.91,1014.0,61,,,,,,,,,,,,,,8/8 Overcast,1100.0,,SCT,700.0,OVC,1200.0,,,,
KRDR,10-11-2012,00:31,SPECI,,40,3.0,,,9999.0,Light Rain,3.0,2.0,29.91,1013.9,61,,,,,,,,,,,,,,8/8 Overcast,700.0,,BKN,800.0,OVC,1300.0,,,,
KRDR,10-11-2012,00:29,SPECI,,,0.0,,,9999.0,Light Rain,3.0,2.0,29.91,1013.9,61,,,,,,,,,,,,,,8/8 Overcast,1100.0,,SCT,800.0,OVC,1300.0,,,,
KRDR,10-11-2012,00:05,SPECI,,,0.0,,,9999.0,Light Rain,3.0,2.0,29.91,1013.9,61,,,,,,,,,,,,,,8/8 Overcast,800.0,,BKN,800.0,OVC,1200.0,,,,
KRDR,10-11-2012,00:00,METAR,,360,4.0,,,9999.0,Light Rain,3.0,2.0,29.91,1013.8,61,,,,,,,,,,,,,,8/8 Overcast,1200.0,,SCT,800.0,OVC,1200.0,,,,
KRDR,10-10-2012,23:50,SPECI,,,0.0,,,9999.0,Light Rain,4.0,3.0,29.91,1013.8,61,,,,,,,,,,,,,,8/8 Overcast,700.0,,BKN,700.0,OVC,1200.0,,,,
KRDR,10-10-2012,23:40,SPECI,,,0.0,,,9999.0,Light Rain,4.0,3.0,29.91,1013.8,61,,,,,,,,,,,,,,8/8 Overcast,1200.0,,FEW,700.0,BKN,1200.0,OVC,2400.0,,
KRDR,10-10-2012,23:22,SPECI,,,0.0,,,9999.0,Light Rain,4.0,3.0,29.90,1013.6,61,,,,,,,,,,,,,,8/8 Overcast,1200.0,,BKN,1200.0,OVC,2400.0,,,,
KRDR,10-10-2012,23:12,SPECI,,,0.0,,,9999.0,Light Rain,4.0,2.0,29.90,1013.7,61,,,,,,,,,,,,,,8/8 Overcast,1000.0,,SCT,1200.0,OVC,2400.0,,,,
KRDR,10-10-2012,23:03,SPECI,,,0.0,,,9999.0,Light Rain,4.0,2.0,29.90,1013.7,61,,,,,,,,,,,,,,8/8 Overcast,1200.0,,BKN,1200.0,OVC,2300.0,,,,
KRDR,10-10-2012,23:00,METAR,,320,4.0,,,9999.0,Light Rain,4.0,2.0,29.91,1013.7,61,,,,,,,,,,.03 IN,,,,8/8 Overcast,1300.0,,BKN,1300.0,OVC,2400.0,,,,
KRDR,10-10-2012,22:53,SPECI,,320,4.0,,,9999.0,Light Rain,4.0,2.0,29.91,1013.7,61,,,,,,,,,,,,,,8/8 Overcast,1300.0,,SCT,1300.0,OVC,2400.0,,,,
KRDR,10-10-2012,22:48,SPECI,,320,4.0,,,9999.0,Light Rain,4.0,3.0,29.90,1013.7,61,,,,,,,,,,,,,,8/8 Overcast,1300.0,,BKN,1300.0,OVC,2400.0,,,,
KRDR,10-10-2012,22:45,SPECI,,310,3.0,,,9999.0,Light Rain,4.0,3.0,29.91,1013.8,61,,,,,,,,,,,,,,8/8 Overcast,1100.0,,BKN,1100.0,OVC,2400.0,,,,
KRDR,10-10-2012,22:41,SPECI,,310,3.0,,,9999.0,Light Rain,4.0,3.0,29.91,1013.7,61,,,,,,,,,,,,,,8/8 Overcast,1200.0,,SCT,1100.0,OVC,2400.0,,,,
KRDR,10-10-2012,22:18,SPECI,,290,5.0,,,9999.0,Light Rain/Mist,4.0,3.0,29.91,1013.7,61,10,,,,,,,,,,,,,8/8 Overcast,1500.0,,SCT,1400.0,OVC,2300.0,,,,
KRDR,10-10-2012,22:05,SPECI,,300,5.0,,,9999.0,Rain,5.0,3.0,29.91,1013.8,,,,61,,,,,,,,,,,8/8 Overcast,1400.0,,BKN,1400.0,OVC,2500.0,,,,
KRDR,10-10-2012,22:00,METAR,,300,6.0,,,9999.0,Rain,5.0,2.0,29.91,1013.8,,,,61,,,,,,,TRACE,,,,8/8 Overcast,2300.0,,FEW,1600.0,OVC,2300.0,,,,
KRDR,10-10-2012,21:13,SPECI,,290,8.0,19.0,,9999.0,,6.0,1.0,29.90,1013.6,,,,,,,,,,,,,,,8/8 Overcast,3600.0,,BKN,3700.0,OVC,4600.0,,,,
KRDR,10-10-2012,21:00,METAR,,150,3.0,,,9999.0,,7.0,-1.0,29.91,1013.8,,,,,,,,,,,TRACE,0 IN,,,8/8 Overcast,4600.0,,BKN,4700.0,OVC,5000.0,,,,
KRDR,10-10-2012,20:14,SPECI,,180,3.0,,,9999.0,,7.0,-1.0,29.91,1013.8,,,,,,,,,,,,,,,8/8 Overcast,7000.0,,FEW,4500.0,OVC,6900.0,,,,
KRDR,10-10-2012,20:00,METAR,,,0.0,,,9999.0,Rain,7.0,-1.0,29.92,1014.3,,,,61,,,,,,,TRACE,,,,8/8 Overcast,7000.0,,FEW,3600.0,SCT,5900.0,OVC,6900.0,,
KRDR,10-10-2012,19:41,SPECI,,250,4.0,,,9999.0,Rain,7.0,-1.0,29.92,1014.3,,,,61,,,,,,,,,,,8/8 Overcast,6000.0,,FEW,3700.0,BKN,5900.0,OVC,6900.0,,
KRDR,10-10-2012,19:00,METAR,,230,6.0,,,9999.0,,7.0,-1.0,29.93,1014.5,,,,,,,,,,,,,,,8/8 Overcast,9000.0,,FEW,6900.0,OVC,8900.0,,,,
KRDR,10-10-2012,18:00,METAR,,250,6.0,,,9999.0,,7.0,0.0,29.96,1015.6,,,,,,,,,,,,,,,7/8 Mostly Cloudy,9000.0,,BKN,8900.0,,,,,,
KRDR,10-10-2012,17:00,METAR,,240,6.0,,,9999.0,,5.0,0.0,29.98,1016.1,,,,,,,,,,,,,,,8/8 Overcast,10000.0,,OVC,9900.0,,,,,,
KRDR,10-10-2012,16:00,METAR,,250,7.0,,,9999.0,,4.0,0.0,29.99,1016.5,,,,,,,,,,,,,,,2/8 Mostly Clear,72000.0,,FEW,9900.0,,,,,,
KRDR,10-10-2012,15:00,METAR,,280,4.0,,,9999.0,,2.0,0.0,29.98,1016.2,,,,,,,,,,,,,,,Clear,72000.0,,,73000.0,,,,,,
KRDR,10-10-2012,14:00,METAR,,240,4.0,,,9999.0,,0.0,-2.0,29.98,1016.1,,,,,,,,,,,,,,,Clear,72000.0,,,73000.0,,,,,,
KRDR,10-10-2012,13:00,METAR,,260,5.0,,,9999.0,,-2.0,-3.0,29.97,1015.7,,,,,,,,,,,,,,,Clear,72000.0,,,73000.0,,,,,,
KRDR,10-10-2012,12:00,METAR,,240,6.0,,,9999.0,,-3.0,-5.0,29.98,1016.1,,,,,,,,,,,,,,.01 IN,Clear,72000.0,,,73000.0,,,,,,
KRDR,10-10-2012,11:00,METAR,,260,5.0,,,9999.0,,-3.0,-5.0,29.98,1016.3,,,,,,,,,,,,,,,Clear,72000.0,,,73000.0,,,,,,
KRDR,10-10-2012,10:00,METAR,,240,4.0,,,9999.0,,-2.0,-4.0,29.99,1016.6,,,,,,,,,,,,,,,8/8 Overcast,4900.0,,BKN,5000.0,OVC,6900.0,,,,
KRDR,10-10-2012,09:00,METAR,,270,4.0,,,9999.0,,-3.0,-5.0,29.99,1016.4,,,,,,,,,,,,,,,2/8 Mostly Clear,72000.0,,FEW,11000.0,,,,,,
KRDR,10-10-2012,08:00,METAR,,250,4.0,,,9999.0,,-2.0,-4.0,29.99,1016.6,,,,,,,,,,,,,,,8/8 Overcast,11000.0,,SCT,5900.0,OVC,11000.0,,,,
KRDR,10-10-2012,07:00,METAR,,290,5.0,,,9999.0,,-2.0,-4.0,30.00,1016.7,,,,,,,,,,,,,,,7/8 Mostly Cloudy,6000.0,,BKN,5900.0,,,,,,
KRDR,10-10-2012,06:00,METAR,,270,6.0,,,9999.0,,-2.0,-4.0,29.99,1016.5,,,,,,,,,,,,,,,8/8 Overcast,12000.0,,OVC,12000.0,,,,,,
KRDR,10-10-2012,05:00,METAR,,290,5.0,,,9999.0,,-1.0,-4.0,30.00,1016.7,,,,,,,,,,,,,,,Clear,72000.0,,,73000.0,,,,,,
KRDR,10-10-2012,04:00,METAR,,290,4.0,,,9999.0,,1.0,-2.0,29.99,1016.6,,,,,,,,,,,,,,,8/8 Overcast,7000.0,,OVC,6900.0,,,,,,
KRDR,10-10-2012,03:00,METAR,,330,5.0,,,9999.0,,2.0,-2.0,29.99,1016.5,,,,,,,,,,,,,,,8/8 Overcast,7000.0,,OVC,6900.0,,,,,,
KRDR,10-10-2012,02:00,METAR,,300,5.0,,,9999.0,,2.0,-2.0,29.99,1016.5,,,,,,,,,,,,,,,8/8 Overcast,7000.0,,OVC,6900.0,,,,,,
KRDR,10-10-2012,01:00,METAR,,320,5.0,,,9999.0,,2.0,-2.0,29.98,1016.2,,,,,,,,,,,,,,,7/8 Mostly Cloudy,4800.0,,BKN,4900.0,BKN,5900.0,BKN,7900.0,,
KRDR,10-10-2012,00:00,METAR,,310,7.0,,,9999.0,,3.0,-2.0,29.97,1015.8,,,,,,,,,,,TRACE,,TRACE,,7/8 Mostly Cloudy,8000.0,,FEW,1800.0,BKN,7900.0,,,,
KRDR,10-09-2012,23:44,SPECI,,310,6.0,,,9999.0,,3.0,-2.0,29.97,1015.7,,,,,,,,,,,,,,,7/8 Mostly Cloudy,8000.0,,FEW,2000.0,SCT,5900.0,BKN,7900.0,,
KRDR,10-09-2012,23:29,SPECI,,320,7.0,,,9999.0,Light Rain,4.0,-2.0,29.97,1015.7,61,,,,,,,,,,,,,,7/8 Mostly Cloudy,6000.0,,FEW,1600.0,SCT,3700.0,BKN,5900.0,,
KRDR,10-09-2012,23:16,SPECI,,320,8.0,,,9999.0,,3.0,-2.0,29.96,1015.6,,,,,,,,,,,,,,,8/8 Overcast,4900.0,,FEW,3400.0,BKN,5000.0,OVC,7900.0,,
KRDR,10-09-2012,23:00,METAR,,330,9.0,,,9999.0,Light Rain,4.0,-3.0,29.96,1015.4,61,,,,,,,,,,,,,,8/8 Overcast,4900.0,,SCT,4700.0,BKN,5000.0,OVC,6900.0,,
KRDR,10-09-2012,22:00,METAR,,340,13.0,,,9999.0,,5.0,-4.0,29.94,1014.8,,,,,,,,,,,,,,,8/8 Overcast,7000.0,,FEW,3900.0,OVC,6900.0,,,,
KRDR,10-09-2012,21:00,METAR,,340,13.0,17.0,,9999.0,,5.0,-4.0,29.92,1014.4,,,,,,,,,,,TRACE,0 IN,,,8/8 Overcast,6000.0,,OVC,5900.0,,,,,,
KRDR,10-09-2012,20:00,METAR,,340,17.0,21.0,,9999.0,,4.0,-2.0,29.91,1014.0,,,,,,,,,,,,,,,8/8 Overcast,4100.0,,SCT,3400.0,BKN,4200.0,OVC,5000.0,,
KRDR,10-09-2012,19:42,SPECI,,10,14.0,,,9999.0,Light Rain,4.0,-1.0,29.91,1013.8,61,,,,,,,,,,,,,,8/8 Overcast,3100.0,,BKN,3200.0,BKN,4000.0,OVC,5900.0,,
KRDR,10-09-2012,19:21,SPECI,,350,12.0,,,9999.0,,5.0,-2.0,29.90,1013.4,,,,,,,,,,,,,,,7/8 Mostly Cloudy,4900.0,,FEW,3400.0,BKN,5000.0,,,,
KRDR,10-09-2012,19:10,SPECI,,340,15.0,20.0,,9999.0,Light Rain,5.0,-2.0,29.90,1013.4,61,,,,,,,,,,,,,,8/8 Overcast,6000.0,,OVC,5900.0,,,,,,
KRDR,10-09-2012,19:00,METAR,,340,12.0,18.0,,9999.0,,5.0,-2.0,29.90,1013.4,,,,,,,,,,,TRACE,,,,8/8 Overcast,4900.0,,FEW,3200.0,OVC,5000.0,,,,
KRDR,10-09-2012,18:41,SPECI,,350,13.0,22.0,,9999.0,,4.0,-2.0,29.90,1013.4,,,,,,,,,,,,,,,8/8 Overcast,4800.0,,FEW,2800.0,BKN,4900.0,OVC,5900.0,,
KRDR,10-09-2012,18:22,SPECI,,350,14.0,21.0,,9999.0,Light Rain,4.0,-2.0,29.90,1013.4,61,,,,,,,,,,,,,,8/8 Overcast,6000.0,,SCT,2800.0,OVC,5900.0,,,,
KRDR,10-09-2012,18:00,METAR,,350,17.0,22.0,350/26KTS,9999.0,Light Rain,4.0,-2.0,29.89,1013.1,61,,,,,,,,,,TRACE,,.01 IN,,8/8 Overcast,4800.0,,FEW,2400.0,SCT,3100.0,OVC,4900.0,,
KRDR,10-09-2012,17:53,SPECI,,350,17.0,22.0,,9999.0,,4.0,-2.0,29.89,1013.1,,,,,,,,,,,,,,,8/8 Overcast,4900.0,,FEW,2400.0,SCT,3100.0,OVC,5000.0,,
KRDR,10-09-2012,17:38,SPECI,,360,15.0,22.0,350/26KTS,9999.0,Light Rain,4.0,-2.0,29.89,1013.1,61,,,,,,,,,,,,,,8/8 Overcast,2400.0,,SCT,2500.0,BKN,3000.0,OVC,5000.0,,
KRDR,10-09-2012,17:36,SPECI,,360,17.0,22.0,350/26KTS,9999.0,,4.0,-2.0,29.88,1013.0,,,,,,,,,,,,,,,8/8 Overcast,2400.0,,SCT,2500.0,BKN,3000.0,OVC,5000.0,,
KRDR,10-09-2012,17:27,SPECI,,340,15.0,24.0,350/26KTS,9999.0,Light Rain,4.0,-2.0,29.88,1012.9,61,,,,,,,,,,,,,,8/8 Overcast,2500.0,,BKN,2500.0,OVC,5000.0,,,,
KRDR,10-09-2012,17:22,SPECI,,360,18.0,24.0,350/26KTS,9999.0,,5.0,-1.0,29.88,1012.8,,,,,,,,,,,,,,,8/8 Overcast,2600.0,,BKN,2600.0,BKN,3200.0,OVC,5000.0,,
KRDR,10-09-2012,17:00,METAR,,350,18.0,27.0,350/27KTS,9999.0,,5.0,-1.0,29.87,1015.5,,,,,,,,,,,.01 IN,,,,8/8 Overcast,3100.0,,SCT,2400.0,BKN,3200.0,OVC,5000.0,,
KRDR,10-09-2012,16:51,SPECI,,350,19.0,27.0,350/27KTS,9999.0,,5.0,-1.0,29.87,1012.5,,,,,,,,,,,,,,,8/8 Overcast,3100.0,,SCT,2400.0,BKN,3200.0,OVC,5000.0,,
KRDR,10-09-2012,16:45,SPECI,,350,14.0,25.0,340/27KTS,9999.0,,4.0,-1.0,29.86,1012.3,,,,,,,,,,,,,,,8/8 Overcast,2000.0,,BKN,2400.0,BKN,3100.0,OVC,5000.0,,
KRDR,10-09-2012,16:43,SPECI,,360,16.0,25.0,340/27KTS,9999.0,,4.0,-1.0,29.86,1012.3,,,,,,,,,,,,,,,8/8 Overcast,2300.0,,SCT,2400.0,BKN,3100.0,OVC,4900.0,,
KRDR,10-09-2012,16:15,SPECI,,360,16.0,23.0,340/27KTS,9999.0,,3.0,0.0,29.85,1012.1,,,,,,,,,,,,,,,8/8 Overcast,2100.0,,SCT,1600.0,BKN,2100.0,OVC,4600.0,,
KRDR,10-09-2012,16:07,SPECI,,350,18.0,27.0,340/27KTS,9999.0,,3.0,0.0,29.85,1012.0,,,,,,,,,,,,,,,8/8 Overcast,1900.0,,SCT,1300.0,BKN,1900.0,OVC,4700.0,,
KRDR,10-09-2012,16:03,SPECI,,360,17.0,27.0,340/27KTS,9999.0,Light Rain,3.0,0.0,29.85,1011.9,61,,,,,,,,,,,,,,8/8 Overcast,1400.0,,BKN,1400.0,OVC,2000.0,,,,
KRDR,10-09-2012,16:00,METAR,,350,14.0,20.0,,9999.0,Light Rain,3.0,1.0,29.84,1011.7,61,,,,,,,,,,TRACE,,,,8/8 Overcast,1200.0,,BKN,1200.0,OVC,1900.0,,,,
KRDR,10-09-2012,15:53,SPECI,,350,16.0,20.0,,9999.0,Light Rain,3.0,1.0,29.84,1011.7,61,,,,,,,,,,,,,,8/8 Overcast,1400.0,,FEW,900.0,BKN,1400.0,OVC,1900.0,,
KRDR,10-09-2012,15:32,SPECI,,350,16.0,24.0,,9999.0,Light Rain,3.0,1.0,29.83,1011.4,61,,,,,,,,,,,,,,8/8 Overcast,1300.0,,FEW,900.0,OVC,1300.0,,,,
KRDR,10-09-2012,15:25,SPECI,,360,18.0,24.0,,9999.0,Light Rain,3.0,0.0,29.83,1011.1,61,,,,,,,,,,,,,,8/8 Overcast,1100.0,,OVC,1300.0,,,,,,
KRDR,10-09-2012,15:00,METAR,,360,19.0,23.0,360/26KTS,9999.0,,2.0,0.0,29.81,1010.5,,,,,,,,,,,TRACE,0 IN,,,8/8 Overcast,1100.0,,OVC,1300.0,,,,,,
KRDR,10-09-2012,14:06,SPECI,,360,18.0,23.0,,9999.0,,2.0,0.0,29.78,1009.5,,,,,,,,,,,,,,,8/8 Overcast,1000.0,,OVC,1200.0,,,,,,
KRDR,10-09-2012,14:03,SPECI,,350,14.0,,,9999.0,Light Rain,2.0,0.0,29.78,1009.5,61,,,,,,,,,,,,,,8/8 Overcast,1000.0,,OVC,1200.0,,,,,,
KRDR,10-09-2012,14:00,METAR,,360,17.0,23.0,,9999.0,,2.0,0.0,29.77,1009.2,,,,,,,,,,,TRACE,,,,8/8 Overcast,900.0,,OVC,1000.0,,,,,,
KRDR,10-09-2012,13:54,SPECI,,360,15.0,23.0,,9999.0,Light Rain,2.0,0.0,29.77,1009.3,61,,,,,,,,,,,,,,8/8 Overcast,900.0,,OVC,1100.0,,,,,,
KRDR,10-09-2012,13:47,SPECI,,360,17.0,21.0,,9999.0,,2.0,0.0,29.76,1009.0,,,,,,,,,,,,,,,8/8 Overcast,800.0,,OVC,1000.0,,,,,,
KRDR,10-09-2012,13:23,SPECI,,350,19.0,23.0,,9999.0,,2.0,0.0,29.75,1008.6,,,,,,,,,,,,,,,8/8 Overcast,700.0,,OVC,800.0,,,,,,
KRDR,10-09-2012,13:11,SPECI,,360,16.0,,,9999.0,Light Rain,1.0,0.0,29.74,1008.3,61,,,,,,,,,,,,,,8/8 Overcast,700.0,,OVC,700.0,,,,,,
KRDR,10-09-2012,13:06,SPECI,,350,15.0,22.0,,9999.0,,1.0,0.0,29.74,1008.2,,,,,,,,,,,,,,,8/8 Overcast,700.0,,OVC,700.0,,,,,,
KRDR,10-09-2012,13:00,METAR,,350,15.0,21.0,350/27KTS,9999.0,Light Rain,1.0,0.0,29.73,1007.8,61,,,,,,,,,,TRACE,,,,8/8 Overcast,700.0,,OVC,700.0,,,,,,
KRDR,10-09-2012,12:19,SPECI,,350,15.0,,350/27KTS,9999.0,Light Rain,1.0,0.0,29.70,1007.1,61,,,,,,,,,,,,,,8/8 Overcast,900.0,,BKN,900.0,BKN,1400.0,OVC,2700.0,,
KRDR,10-09-2012,12:15,SPECI,,330,14.0,,,9999.0,Light Rain,1.0,0.0,29.70,1007.0,61,,,,,,,,,,,,,,8/8 Overcast,900.0,,BKN,900.0,OVC,2700.0,,,,
KRDR,10-09-2012,12:10,SPECI,,350,13.0,21.0,350/27KTS,9999.0,Light Rain,2.0,0.0,29.70,1006.9,61,,,,,,,,,,,,,,8/8 Overcast,1000.0,,SCT,1000.0,BKN,1700.0,OVC,2700.0,,
KRDR,10-09-2012,12:04,SPECI,,350,16.0,27.0,350/27KTS,9999.0,Light Rain,2.0,0.0,29.69,1006.7,61,,,,,,,,,,,,,,8/8 Overcast,800.0,,BKN,1300.0,BKN,2000.0,OVC,2700.0,,
KRDR,10-09-2012,12:00,METAR,,360,17.0,27.0,350/27KTS,9999.0,Light Rain,3.0,1.0,29.69,1006.6,61,,,,,,,,,,,,,,8/8 Overcast,1600.0,,SCT,1000.0,OVC,1600.0,,,,
KRDR,10-09-2012,11:54,SPECI,,350,16.0,23.0,,9999.0,Light Rain,3.0,1.0,29.68,1006.4,61,,,,,,,,,,,,,,8/8 Overcast,800.0,,BKN,1100.0,OVC,1600.0,,,,
KRDR,10-09-2012,11:48,SPECI,,320,12.0,,,9999.0,Light Drizzle,3.0,1.0,29.67,1006.1,51,,,,,,,,,,,,,,8/8 Overcast,1100.0,,BKN,1400.0,OVC,2000.0,,,,
KRDR,10-09-2012,11:35,SPECI,,310,10.0,16.0,,9999.0,,3.0,1.0,29.67,1005.8,,,,,,,,,,,,,,,8/8 Overcast,1300.0,,BKN,1500.0,OVC,2500.0,,,,
KRDR,10-09-2012,11:24,SPECI,,310,11.0,,,9999.0,Light Drizzle,3.0,1.0,29.66,1005.7,51,,,,,,,,,,,,,,8/8 Overcast,1600.0,,SCT,1500.0,BKN,2400.0,OVC,5900.0,,
KRDR,10-09-2012,11:21,SPECI,,310,9.0,,,9999.0,,3.0,1.0,29.66,1005.7,,,,,,,,,,,,,,,8/8 Overcast,1500.0,,FEW,1600.0,BKN,2500.0,OVC,5900.0,,
KRDR,10-09-2012,11:10,SPECI,,310,9.0,,,9999.0,,3.0,1.0,29.66,1005.6,,,,,,,,,,,,,,,7/8 Mostly Cloudy,4100.0,,FEW,2100.0,BKN,4200.0,BKN,5000.0,,
KRDR,10-09-2012,11:00,METAR,,310,11.0,,,9999.0,Light Drizzle,3.0,1.0,29.66,1005.5,51,,,,,,,,,,,,,,8/8 Overcast,4200.0,,FEW,1700.0,BKN,4300.0,OVC,5000.0,,
KRDR,10-09-2012,10:00,METAR,,310,9.0,,,9999.0,,4.0,0.0,29.64,1005.1,,,,,,,,,,,TRACE,,,,7/8 Mostly Cloudy,6000.0,,BKN,5900.0,,,,,,
KRDR,10-09-2012,09:49,SPECI,,310,9.0,,,9999.0,,4.0,0.0,29.64,1005.1,,,,,,,,,,,,,,,7/8 Mostly Cloudy,6000.0,,BKN,5900.0,,,,,,
KRDR,10-09-2012,09:00,METAR,,290,9.0,,,9999.0,,4.0,0.0,29.64,1004.9,,,,,,,,,,,,,,,8/8 Overcast,4500.0,,OVC,4600.0,,,,,,
KRDR,10-09-2012,08:00,METAR,,300,10.0,,,9999.0,,3.0,-1.0,29.65,1005.1,,,,,,,,,,,,,,,4/8 Partly Cloudy,72000.0,,FEW,4400.0,SCT,9900.0,,,,
KRDR,10-09-2012,07:00,METAR,,290,12.0,,,9999.0,,4.0,-1.0,29.63,1004.8,,,,,,,,,,,,,,,Clear,72000.0,,,73000.0,,,,,,
KRDR,10-09-2012,06:00,METAR,,280,13.0,18.0,,9999.0,,5.0,-1.0,29.63,1004.6,,,,,,,,,,,,,,,Clear,72000.0,,,73000.0,,,,,,
KRDR,10-09-2012,05:00,METAR,,290,10.0,,,9999.0,,5.0,0.0,29.63,1004.6,,,,,,,,,,,,,,,Clear,72000.0,,,73000.0,,,,,,
KRDR,10-09-2012,04:00,METAR,,290,9.0,,,9999.0,,5.0,0.0,29.63,1004.7,,,,,,,,,,,,,,,Clear,72000.0,,,73000.0,,,,,,
KRDR,10-09-2012,03:00,METAR,,290,7.0,,,9999.0,,6.0,1.0,29.63,1004.8,,,,,,,,,,,,,,,Clear,72000.0,,,73000.0,,,,,,
KRDR,10-09-2012,02:00,METAR,,290,6.0,,,9999.0,,6.0,2.0,29.63,1004.7,,,,,,,,,,,,,,,2/8 Mostly Clear,72000.0,,FEW,6900.0,,,,,,
KRDR,10-09-2012,01:00,METAR,,310,9.0,,,9999.0,,8.0,2.0,29.62,1004.4,,,,,,,,,,,,,,,8/8 Overcast,7000.0,,OVC,6900.0,,,,,,
KRDR,10-09-2012,00:00,METAR,,310,9.0,,,9999.0,,8.0,3.0,29.62,1004.2,,,,,,,,,,,TRACE,,TRACE,,8/8 Overcast,7000.0,,OVC,6900.0,,,,,,
KRDR,10-08-2012,23:00,METAR,,310,12.0,,,9999.0,,9.0,3.0,29.60,1003.7,,,,,,,,,,,,,,,7/8 Mostly Cloudy,6000.0,,FEW,3400.0,BKN,5900.0,,,,
KRDR,10-08-2012,22:45,SPECI,,310,16.0,26.0,290/26KTS,9999.0,Light Rain,10.0,3.0,29.60,1003.6,61,,,,,,,,,,,,,,7/8 Mostly Cloudy,4900.0,,FEW,3400.0,BKN,5900.0,BKN,8900.0,,
KRDR,10-08-2012,22:00,METAR,,300,14.0,18.0,,9999.0,,11.0,4.0,29.58,1002.9,,,,,,,,,,,,,,,8/8 Overcast,3900.0,,FEW,3200.0,SCT,4000.0,OVC,6900.0,,
KRDR,10-08-2012,21:00,METAR,,300,9.0,,,9999.0,,10.0,6.0,29.57,1002.7,,,,,,,,,,,TRACE,0 IN,,,8/8 Overcast,4900.0,,SCT,2400.0,BKN,5000.0,OVC,6900.0,,
KRDR,10-08-2012,20:42,SPECI,,310,9.0,,,9999.0,,9.0,5.0,29.57,1002.8,,,,,,,,,,,,,,,8/8 Overcast,4000.0,,FEW,2300.0,BKN,4100.0,OVC,5000.0,,
KRDR,10-08-2012,20:38,SPECI,,300,10.0,,,9999.0,Light Drizzle,9.0,6.0,29.57,1002.8,51,,,,,,,,,,,,,,8/8 Overcast,2600.0,,SCT,2300.0,BKN,4100.0,OVC,5000.0,,
KRDR,10-08-2012,20:33,SPECI,,300,10.0,,,9999.0,Light Drizzle,9.0,5.0,29.57,1002.8,51,,,,,,,,,,,,,,8/8 Overcast,2300.0,,BKN,2500.0,OVC,3800.0,,,,
KRDR,10-08-2012,20:30,SPECI,,310,12.0,,,9999.0,Light Drizzle,9.0,5.0,29.57,1002.8,51,,,,,,,,,,,,,,8/8 Overcast,2600.0,,SCT,2500.0,OVC,3800.0,,,,
KRDR,10-08-2012,20:03,SPECI,,320,12.0,,,9999.0,,9.0,5.0,29.57,1002.5,,,,,,,,,,,,,,,8/8 Overcast,3300.0,,SCT,1900.0,SCT,2400.0,OVC,3400.0,,
KRDR,10-08-2012,20:00,METAR,,320,13.0,,,9999.0,,9.0,5.0,29.56,1002.4,,,,,,,,,,,,,,,8/8 Overcast,1700.0,,BKN,2000.0,OVC,2800.0,,,,
KRDR,10-08-2012,19:27,SPECI,,340,10.0,,,9999.0,,8.0,5.0,29.56,1002.3,,,,,,,,,,,,,,,8/8 Overcast,1600.0,,SCT,1200.0,OVC,1900.0,,,,
KRDR,10-08-2012,19:21,SPECI,,320,8.0,,,9999.0,,8.0,5.0,29.56,1002.3,,,,,,,,,,,,,,,8/8 Overcast,1000.0,,BKN,1400.0,OVC,1900.0,,,,
KRDR,10-08-2012,19:08,SPECI,,330,8.0,,,9999.0,,8.0,5.0,29.56,1002.2,,,,,,,,,,,,,,,8/8 Overcast,800.0,,BKN,1100.0,BKN,1700.0,OVC,2900.0,,
KRDR,10-08-2012,19:05,SPECI,,340,8.0,,,9999.0,,8.0,5.0,29.55,1002.1,,,,,,,,,,,,,,,8/8 Overcast,1200.0,,SCT,900.0,BKN,1400.0,OVC,3000.0,,
KRDR,10-08-2012,19:00,METAR,,330,9.0,,,9999.0,,8.0,5.0,29.55,1002.1,,,,,,,,,,,,,,,8/8 Overcast,900.0,,BKN,1000.0,OVC,2900.0,,,,
KRDR,10-08-2012,18:51,SPECI,,320,9.0,,,9999.0,,8.0,5.0,29.55,1002.1,,,,,,,,,,,,,,,8/8 Overcast,2700.0,,SCT,800.0,OVC,2900.0,,,,
KRDR,10-08-2012,18:44,SPECI,,320,8.0,,,9999.0,,7.0,5.0,29.55,1001.9,,,,,,,,,,,,,,,8/8 Overcast,700.0,,SCT,700.0,OVC,3000.0,,,,
KRDR,10-08-2012,18:33,SPECI,,320,8.0,,,9999.0,,6.0,5.0,29.54,1001.8,,,,,,,,,,,,,,,8/8 Overcast,2700.0,,SCT,700.0,OVC,2900.0,,,,
KRDR,10-08-2012,18:26,SPECI,,330,9.0,,,9999.0,,6.0,5.0,29.54,1001.8,,,,,,,,,,,,,,,8/8 Overcast,600.0,,BKN,700.0,OVC,2700.0,,,,
KRDR,10-08-2012,18:00,METAR,,330,12.0,,,9999.0,,6.0,5.0,29.53,1001.5,,,,,,,,,,,,,.04 IN,,8/8 Overcast,500.0,,OVC,600.0,,,,,,
KRDR,10-08-2012,17:36,SPECI,,330,10.0,,,9999.0,,6.0,5.0,29.52,1001.1,,,,,,,,,,,,,,,8/8 Overcast,600.0,,OVC,600.0,,,,,,
KRDR,10-08-2012,17:00,METAR,,330,9.0,,,9999.0,,7.0,5.0,29.50,1000.4,,,,,,,,,,,,,,,8/8 Overcast,600.0,,BKN,700.0,OVC,1700.0,,,,
KRDR,10-08-2012,16:44,SPECI,,330,6.0,,,9999.0,,7.0,6.0,29.50,1000.2,,,,,,,,,,,,,,,8/8 Overcast,600.0,,BKN,600.0,OVC,1700.0,,,,
KRDR,10-08-2012,16:35,SPECI,,340,6.0,,,9999.0,,7.0,6.0,29.49,1000.1,,,,,,,,,,,,,,,8/8 Overcast,1700.0,,SCT,600.0,OVC,1700.0,,,,
KRDR,10-08-2012,16:29,SPECI,,,6.0,,,9999.0,,7.0,6.0,29.49,1000.1,,,,,,,,,,,,,,,8/8 Overcast,600.0,,BKN,600.0,OVC,1800.0,,,,
KRDR,10-08-2012,16:12,SPECI,,330,5.0,,,9999.0,,7.0,5.0,29.49,1000.1,,,,,,,,,,,,,,,8/8 Overcast,1900.0,,FEW,600.0,BKN,1900.0,OVC,4100.0,,
KRDR,10-08-2012,16:05,SPECI,,300,3.0,,,9999.0,,7.0,5.0,29.49,1000.0,,,,,,,,,,,,,,,7/8 Mostly Cloudy,4000.0,,FEW,700.0,BKN,4100.0,,,,
KRDR,10-08-2012,16:00,METAR,,,0.0,,,9999.0,,6.0,5.0,29.49,1000.0,,,,,,,,,,,,,,,4/8 Partly Cloudy,72000.0,,SCT,4200.0,SCT,5900.0,,,,
KRDR,10-08-2012,15:26,SPECI,,,0.0,,,9999.0,,5.0,4.0,29.49,999.9,,,,,,,,,,,,,,,7/8 Mostly Cloudy,2500.0,,SCT,2400.0,BKN,4600.0,BKN,5900.0,,
KRDR,10-08-2012,15:00,METAR,,130,3.0,,,9999.0,,5.0,4.0,29.50,1000.4,,,,,,,,,,,.03 IN,.04 IN,,,8/8 Overcast,2500.0,,BKN,2500.0,OVC,4600.0,,,,
KRDR,10-08-2012,14:49,SPECI,,140,3.0,,,9999.0,,5.0,4.0,29.50,1000.4,,,,,,,,,,,,,,,8/8 Overcast,2600.0,,BKN,2600.0,OVC,4600.0,,,,
KRDR,10-08-2012,14:41,SPECI,,150,3.0,,,9999.0,,5.0,4.0,29.50,1000.5,,,,,,,,,,,,,,,8/8 Overcast,4400.0,,FEW,2600.0,OVC,4500.0,,,,
KRDR,10-08-2012,14:00,METAR,,150,4.0,,,9999.0,Light Rain,5.0,3.0,29.51,1000.8,61,,,,,,,,,,.01 IN,,,,8/8 Overcast,3900.0,,BKN,4000.0,OVC,4800.0,,,,
KRDR,10-08-2012,13:21,SPECI,,170,5.0,,,9999.0,Light Drizzle,5.0,3.0,29.52,1000.9,51,,,,,,,,,,,,,,8/8 Overcast,4800.0,,OVC,4900.0,,,,,,
KRDR,10-08-2012,13:20,SPECI,,170,5.0,,,9999.0,,5.0,3.0,29.52,1000.9,,,,,,,,,,,,,,,8/8 Overcast,4800.0,,OVC,4900.0,,,,,,
KRDR,10-08-2012,13:07,SPECI,,160,6.0,,,9999.0,Light Rain,5.0,2.0,29.52,1000.9,61,,,,,,,,,,,,,,8/8 Overcast,4800.0,,OVC,4900.0,,,,,,
KRDR,10-08-2012,13:00,METAR,,150,6.0,,,9999.0,Light Rain,5.0,3.0,29.52,1001.1,61,,,,,,,,,,TRACE,,,,8/8 Overcast,4900.0,,OVC,5000.0,,,,,,
KRDR,10-08-2012,12:40,SPECI,,150,5.0,,,9999.0,Light Drizzle,5.0,3.0,29.53,1001.3,51,,,,,,,,,,,,,,8/8 Overcast,4900.0,,OVC,5000.0,,,,,,
KRDR,10-08-2012,12:11,SPECI,,150,5.0,,,9999.0,,5.0,3.0,29.54,1001.7,,,,,,,,,,,,,,,7/8 Mostly Cloudy,4900.0,,BKN,5000.0,,,,,,
KRDR,10-08-2012,12:09,SPECI,,150,4.0,,,9999.0,Light Drizzle,5.0,3.0,29.54,1001.8,51,,,,,,,,,,,,,,7/8 Mostly Cloudy,4900.0,,BKN,5000.0,,,,,,
KRDR,10-08-2012,12:06,SPECI,,140,4.0,,,9999.0,,5.0,3.0,29.54,1001.8,,,,,,,,,,,,,,,7/8 Mostly Cloudy,4900.0,,BKN,5000.0,,,,,,
KRDR,10-08-2012,12:00,METAR,,160,4.0,,,9999.0,,5.0,2.0,29.55,1002.1,,,,,,,,,,,TRACE,,TRACE,,2/8 Mostly Clear,72000.0,,FEW,5900.0,,,,,,
KRDR,10-08-2012,11:00,METAR,,210,6.0,,,9999.0,,5.0,2.0,29.58,1003.0,,,,,,,,,,,,,,,8/8 Overcast,7000.0,,BKN,6900.0,OVC,8900.0,,,,
KRDR,10-08-2012,10:00,METAR,,190,3.0,,,9999.0,,3.0,1.0,29.60,1003.6,,,,,,,,,,,,,,,Clear,72000.0,,,73000.0,,,,,,
KRDR,10-08-2012,09:00,METAR,,190,4.0,,,9999.0,,3.0,0.0,29.62,1004.3,,,,,,,,,,,,,,,2/8 Mostly Clear,72000.0,,FEW,11000.0,,,,,,
KRDR,10-08-2012,08:00,METAR,,170,4.0,,,9999.0,,4.0,1.0,29.66,1005.5,,,,,,,,,,,,,,,8/8 Overcast,11000.0,,OVC,11000.0,,,,,,
KRDR,10-08-2012,07:00,METAR,,230,3.0,,,9999.0,,3.0,1.0,29.69,1006.6,,,,,,,,,,,,,,,8/8 Overcast,7000.0,,BKN,6900.0,OVC,9900.0,,,,
KRDR,10-08-2012,06:00,METAR,,,0.0,,,9999.0,,1.0,-1.0,29.71,1007.1,,,,,,,,,,,,,,,2/8 Mostly Clear,72000.0,,FEW,6900.0,,,,,,
KRDR,10-08-2012,05:00,METAR,,240,3.0,,,9999.0,,2.0,-1.0,29.72,1007.6,,,,,,,,,,,,,,,2/8 Mostly Clear,72000.0,,FEW,5900.0,,,,,,
KRDR,10-08-2012,04:00,METAR,,,0.0,,,9999.0,,3.0,0.0,29.74,1008.2,,,,,,,,,,,,,,,7/8 Mostly Cloudy,7000.0,,BKN,6900.0,,,,,,
KRDR,10-08-2012,03:00,METAR,,300,5.0,,,9999.0,,4.0,-1.0,29.75,1008.8,,,,,,,,,,,,,,,Clear,72000.0,,,73000.0,,,,,,
KRDR,10-08-2012,02:00,METAR,,280,5.0,,,9999.0,,7.0,0.0,29.77,1009.1,,,,,,,,,,,,,,,7/8 Mostly Cloudy,7000.0,,BKN,6900.0,,,,,,
KRDR,10-08-2012,01:00,METAR,,250,4.0,,,9999.0,,7.0,1.0,29.77,1009.3,,,,,,,,,,,,,,,8/8 Overcast,7000.0,,OVC,6900.0,,,,,,
KRDR,10-08-2012,00:00,METAR,,260,4.0,,,9999.0,,9.0,-1.0,29.78,1009.5,,,,,,,,,,,,,,,7/8 Mostly Cloudy,6000.0,,BKN,5900.0,,,,,,
KRDR,10-07-2012,23:00,METAR,,290,13.0,,,9999.0,,12.0,-1.0,29.78,1009.5,,,,,,,,,,,,,,,2/8 Mostly Clear,72000.0,,FEW,5000.0,,,,,,
KRDR,10-07-2012,22:00,METAR,,270,10.0,17.0,,9999.0,,14.0,-3.0,29.78,1009.5,,,,,,,,,,,,,,,2/8 Mostly Clear,72000.0,,FEW,8900.0,,,,,,
KRDR,10-07-2012,21:00,METAR,,280,11.0,,,9999.0,,14.0,-4.0,29.79,1010.0,,,,,,,,,,,,,,,8/8 Overcast,7000.0,,OVC,6900.0,,,,,,
KRDR,10-07-2012,20:00,METAR,,240,12.0,17.0,,9999.0,,13.0,-3.0,29.80,1010.3,,,,,,,,,,,,,,,7/8 Mostly Cloudy,9000.0,,SCT,6900.0,BKN,8900.0,,,,
KRDR,10-07-2012,19:00,METAR,,220,12.0,,,9999.0,,13.0,-3.0,29.83,1011.2,,,,,,,,,,,,,,,8/8 Overcast,10000.0,,OVC,9900.0,,,,,,
KRDR,10-07-2012,18:00,METAR,,230,12.0,,,9999.0,,12.0,-3.0,29.85,1012.0,,,,,,,,,,,,,,,2/8 Mostly Clear,72000.0,,FEW,9900.0,,,,,,
KRDR,10-07-2012,17:00,METAR,,240,10.0,,,9999.0,,10.0,-2.0,29.87,1012.6,,,,,,,,,,,,,,,8/8 Overcast,11000.0,,OVC,11000.0,,,,,,
KRDR,10-07-2012,16:00,METAR,,230,13.0,,,9999.0,,7.0,-3.0,29.89,1013.1,,,,,,,,,,,,,,,8/8 Overcast,12000.0,,OVC,12000.0,,,,,,
KRDR,10-07-2012,15:00,METAR,,240,10.0,,,9999.0,,5.0,-3.0,29.90,1013.5,,,,,,,,,,,,,,,8/8 Overcast,12000.0,,OVC,12000.0,,,,,,
KRDR,10-07-2012,14:00,METAR,,230,11.0,,,9999.0,,3.0,-4.0,29.90,1013.7,,,,,,,,,,,,,,,8/8 Overcast,12000.0,,OVC,12000.0,,,,,,
KRDR,10-07-2012,13:00,METAR,,230,9.0,,,9999.0,,2.0,-4.0,29.92,1014.2,,,,,,,,,,,,,,,8/8 Overcast,10000.0,,BKN,9900.0,OVC,12000.0,,,,
KRDR,10-07-2012,12:00,METAR,,230,8.0,,,9999.0,,3.0,-5.0,29.93,1014.6,,,,,,,,,,,,,,,8/8 Overcast,12000.0,,OVC,12000.0,,,,,,
KRDR,10-07-2012,11:00,METAR,,250,10.0,,,9999.0,,2.0,-5.0,29.95,1015.3,,,,,,,,,,,,,,,8/8 Overcast,10000.0,,OVC,9900.0,,,,,,
KRDR,10-07-2012,10:00,METAR,,250,9.0,,,9999.0,,2.0,-5.0,29.98,1016.1,,,,,,,,,,,,,,,Clear,72000.0,,,73000.0,,,,,,
KRDR,10-07-2012,09:00,METAR,,250,9.0,,,9999.0,,1.0,-6.0,30.00,1016.9,,,,,,,,,,,,,,,Clear,72000.0,,,73000.0,,,,,,
KRDR,10-07-2012,08:00,METAR,,240,8.0,,,9999.0,,0.0,-5.0,30.03,1017.8,,,,,,,,,,,,,,,Clear,72000.0,,,73000.0,,,,,,
KRDR,10-07-2012,07:00,METAR,,250,8.0,,,9999.0,,0.0,-5.0,30.05,1018.6,,,,,,,,,,,,,,,Clear,72000.0,,,73000.0,,,,,,
KRDR,10-07-2012,06:00,METAR,,240,7.0,,,9999.0,,0.0,-5.0,30.08,1019.4,,,,,,,,,,,,,,,Clear,72000.0,,,73000.0,,,,,,
KRDR,10-07-2012,05:00,METAR,,240,6.0,,,9999.0,,-1.0,-4.0,30.10,1020.2,,,,,,,,,,,,,,,Clear,72000.0,,,73000.0,,,,,,
KRDR,10-07-2012,04:00,METAR,,240,6.0,,,9999.0,,0.0,-5.0,30.13,1021.1,,,,,,,,,,,,,,,Clear,72000.0,,,73000.0,,,,,,
KRDR,10-07-2012,03:00,METAR,,230,7.0,,,9999.0,,1.0,-4.0,30.15,1021.7,,,,,,,,,,,,,,,Clear,72000.0,,,73000.0,,,,,,
KRDR,10-07-2012,02:00,METAR,,210,7.0,,,9999.0,,1.0,-4.0,30.17,1022.3,,,,,,,,,,,,,,,Clear,72000.0,,,73000.0,,,,,,
KRDR,10-07-2012,01:00,METAR,,210,3.0,,,9999.0,,1.0,-4.0,30.18,1022.8,,,,,,,,,,,,,,,Clear,72000.0,,,73000.0,,,,,,
KRDR,10-07-2012,00:00,METAR,,290,4.0,,,9999.0,,5.0,-4.0,30.20,1023.3,,,,,,,,,,,,,,,Clear,72000.0,,,73000.0,,,,,,
KRDR,10-06-2012,23:00,METAR,,280,7.0,,,9999.0,,7.0,-5.0,30.21,1023.9,,,,,,,,,,,,,,,Clear,72000.0,,,73000.0,,,,,,
KRDR,10-06-2012,22:00,METAR,,300,7.0,,,9999.0,,8.0,-4.0,30.23,1024.4,,,,,,,,,,,,,,,Clear,72000.0,,,73000.0,,,,,,
KRDR,10-06-2012,21:00,METAR,,290,6.0,,,9999.0,,8.0,-4.0,30.25,1025.2,,,,,,,,,,,,,,,2/8 Mostly Clear,72000.0,,FEW,4700.0,,,,,,
KRDR,10-06-2012,20:00,METAR,,280,7.0,,,9999.0,,8.0,-3.0,30.28,1026.0,,,,,,,,,,,,,,,2/8 Mostly Clear,72000.0,,FEW,4200.0,,,,,,
KRDR,10-06-2012,19:00,METAR,,290,8.0,,,9999.0,,7.0,-3.0,30.31,1027.1,,,,,,,,,,,,,,,7/8 Mostly Cloudy,3400.0,,BKN,3500.0,,,,,,
KRDR,10-06-2012,18:27,SPECI,,330,8.0,,,9999.0,,6.0,-2.0,30.33,1027.6,,,,,,,,,,,,,,,7/8 Mostly Cloudy,3100.0,,BKN,3100.0,,,,,,
KRDR,10-06-2012,18:00,METAR,,330,8.0,,,9999.0,,6.0,-1.0,30.34,1028.1,,,,,,,,,,,,,,,4/8 Partly Cloudy,72000.0,,SCT,2800.0,,,,,,
KRDR,10-06-2012,17:33,SPECI,,300,10.0,,,9999.0,,5.0,-1.0,30.35,1028.3,,,,,,,,,,,,,,,4/8 Partly Cloudy,72000.0,,SCT,2700.0,,,,,,
KRDR,10-06-2012,17:30,SPECI,,310,9.0,,,9999.0,,5.0,-1.0,30.35,1028.4,,,,,,,,,,,,,,,7/8 Mostly Cloudy,2500.0,,BKN,2700.0,,,,,,
KRDR,10-06-2012,17:19,SPECI,,300,9.0,,,9999.0,,6.0,-1.0,30.35,1028.4,,,,,,,,,,,,,,,4/8 Partly Cloudy,72000.0,,SCT,2600.0,,,,,,
KRDR,10-06-2012,17:09,SPECI,,310,10.0,,,9999.0,,5.0,-1.0,30.35,1028.5,,,,,,,,,,,,,,,7/8 Mostly Cloudy,2100.0,,BKN,2400.0,,,,,,
KRDR,10-06-2012,17:00,METAR,,310,8.0,,,9999.0,,5.0,0.0,30.36,1028.6,,,,,,,,,,,,,,,4/8 Partly Cloudy,72000.0,,SCT,2200.0,,,,,,
KRDR,10-06-2012,16:00,METAR,,290,9.0,,,9999.0,,4.0,0.0,30.36,1028.9,,,,,,,,,,,,,,,Clear,72000.0,,,73000.0,,,,,,
KRDR,10-06-2012,15:00,METAR,,290,7.0,,,9999.0,,2.0,-1.0,30.36,1028.8,,,,,,,,,,,,,,,Clear,72000.0,,,73000.0,,,,,,
KRDR,10-06-2012,14:00,METAR,,300,6.0,,,9999.0,,-1.0,-2.0,30.36,1028.6,,,,,,,,,,,,,,,Clear,72000.0,,,73000.0,,,,,,
KRDR,10-06-2012,13:00,METAR,,290,6.0,,,9999.0,,-3.0,-5.0,30.35,1028.3,,,,,,,,,,,,,,,Clear,72000.0,,,73000.0,,,,,,
KRDR,10-06-2012,12:00,METAR,,310,5.0,,,9999.0,,-3.0,-5.0,30.34,1028.1,,,,,,,,,,,,,,.06 IN,Clear,72000.0,,,73000.0,,,,,,
KRDR,10-06-2012,11:00,METAR,,320,6.0,,,9999.0,,-2.0,-4.0,30.33,1027.7,,,,,,,,,,,,,,,Clear,72000.0,,,73000.0,,,,,,
KRDR,10-06-2012,10:00,METAR,,340,6.0,,,9999.0,,-2.0,-3.0,30.33,1027.7,,,,,,,,,,,,,,,Clear,72000.0,,,73000.0,,,,,,
KRDR,10-06-2012,09:00,METAR,,350,6.0,,,9999.0,,-1.0,-2.0,30.33,1027.6,,,,,,,,,,,,,,,Clear,72000.0,,,73000.0,,,,,,
KRDR,10-06-2012,08:26,SPECI,,360,7.0,,,9999.0,,0.0,-2.0,30.33,1027.6,,,,,,,,,,,,,,,4/8 Partly Cloudy,72000.0,,SCT,2000.0,,,,,,
KRDR,10-06-2012,08:00,METAR,,20,9.0,,,9999.0,,0.0,-2.0,30.33,1027.7,,,,,,,,,,,,,,,8/8 Overcast,1800.0,,OVC,2100.0,,,,,,
KRDR,10-06-2012,07:00,METAR,,10,14.0,20.0,,9999.0,,1.0,-2.0,30.32,1027.4,,,,,,,,,,,,,,,8/8 Overcast,1800.0,,OVC,2200.0,,,,,,
KRDR,10-06-2012,06:00,METAR,,10,7.0,,,9999.0,,0.0,-1.0,30.31,1027.1,,,,,,,,,,,,,,,7/8 Mostly Cloudy,2400.0,,BKN,2400.0,BKN,3200.0,,,,
KRDR,10-06-2012,05:21,SPECI,,10,10.0,,,9999.0,,0.0,-1.0,30.31,1027.0,,,,,,,,,,,,,,,7/8 Mostly Cloudy,3300.0,,SCT,1400.0,BKN,3400.0,,,,
KRDR,10-06-2012,05:00,METAR,,360,9.0,,,9999.0,,1.0,-1.0,30.31,1027.0,,,,,,,,,,,,,,,8/8 Overcast,1400.0,,OVC,1700.0,,,,,,
KRDR,10-06-2012,04:00,METAR,,10,12.0,,,9999.0,,1.0,-1.0,30.30,1026.8,,,,,,,,,,,,,,,8/8 Overcast,2000.0,,BKN,2300.0,OVC,3400.0,,,,
KRDR,10-06-2012,03:29,SPECI,,360,12.0,15.0,,9999.0,,1.0,-1.0,30.30,1026.7,,,,,,,,,,,,,,,8/8 Overcast,2800.0,,SCT,2700.0,OVC,3600.0,,,,
KRDR,10-06-2012,03:07,SPECI,,10,14.0,18.0,,9999.0,,1.0,-1.0,30.30,1026.6,,,,,,,,,,,,,,,8/8 Overcast,2800.0,,BKN,2800.0,BKN,3300.0,OVC,4900.0,,
KRDR,10-06-2012,03:00,METAR,,360,12.0,19.0,,9999.0,,1.0,-1.0,30.30,1026.6,,,,,,,,,,,TRACE,.02 IN,,,8/8 Overcast,3200.0,,SCT,3300.0,OVC,4500.0,,,,
KRDR,10-06-2012,02:25,SPECI,,360,13.0,,,9999.0,,1.0,-1.0,30.29,1026.5,,,,,,,,,,,,,,,8/8 Overcast,1300.0,,SCT,1300.0,BKN,3200.0,OVC,3900.0,,
KRDR,10-06-2012,02:12,SPECI,,10,12.0,19.0,,9999.0,,1.0,0.0,30.29,1026.5,,,,,,,,,,,,,,,8/8 Overcast,1300.0,,BKN,1300.0,OVC,3200.0,,,,
KRDR,10-06-2012,02:01,SPECI,,10,12.0,19.0,,9999.0,Light Snow,1.0,0.0,30.29,1026.3,71,,,,,,,,,,,,,,8/8 Overcast,1300.0,,OVC,1300.0,,,,,,
KRDR,10-06-2012,02:00,METAR,,10,12.0,19.0,,9999.0,Light Snow,1.0,0.0,30.29,1026.3,71,,,,,,,,,,,,,,8/8 Overcast,1100.0,,OVC,1100.0,,,,,,
KRDR,10-06-2012,01:49,SPECI,,10,13.0,,,9999.0,Light Snow,1.0,0.0,30.29,1026.2,71,,,,,,,,,,,,,,8/8 Overcast,900.0,,SCT,700.0,OVC,1300.0,,,,
KRDR,10-06-2012,01:31,SPECI,,10,15.0,,,9999.0,Light Snow,1.0,0.0,30.28,1026.2,71,,,,,,,,,,,,,,8/8 Overcast,800.0,,OVC,800.0,,,,,,
KRDR,10-06-2012,01:00,METAR,,360,11.0,,,9999.0,Light Snow,1.0,0.0,30.28,1026.0,71,,,,,,,,,,.01 IN,,,,8/8 Overcast,600.0,,BKN,600.0,OVC,1600.0,,,,
KRDR,10-06-2012,00:34,SPECI,,360,9.0,,,9999.0,Unknown Precipitation,1.0,0.0,30.27,1025.8,40,,,,,,,,,,,,,,8/8 Overcast,600.0,,BKN,600.0,OVC,1700.0,,,,
KRDR,10-06-2012,00:28,SPECI,,10,10.0,,,9999.0,Light Snow,1.0,0.0,30.27,1025.7,71,,,,,,,,,,,,,,8/8 Overcast,700.0,,BKN,700.0,BKN,1100.0,OVC,1600.0,,
KRDR,10-06-2012,00:26,SPECI,,10,12.0,,,9999.0,Light Snow,1.0,0.0,30.27,1025.7,71,,,,,,,,,,,,,,8/8 Overcast,1100.0,,SCT,700.0,BKN,1100.0,OVC,1600.0,,
KRDR,10-06-2012,00:10,SPECI,,350,12.0,,,9999.0,Light Rain,1.0,0.0,30.27,1025.6,61,,,,,,,,,,,,,,8/8 Overcast,900.0,,BKN,900.0,OVC,1700.0,,,,
KRDR,10-05-2012,23:51,SPECI,,350,14.0,,,9999.0,Light Rain,1.0,0.0,30.26,1025.4,61,,,,,,,,,,,,,,8/8 Overcast,1100.0,,BKN,1100.0,OVC,1700.0,,,,
KRDR,10-05-2012,23:27,SPECI,,350,15.0,,,9999.0,Light Rain,2.0,0.0,30.25,1025.1,61,,,,,,,,,,,,,,8/8 Overcast,1000.0,,SCT,900.0,OVC,1400.0,,,,
KRDR,10-05-2012,23:20,SPECI,,350,15.0,,,9999.0,Light Rain,2.0,0.0,30.25,1025.0,61,,,,,,,,,,,,,,8/8 Overcast,1200.0,,OVC,1200.0,,,,,,
KRDR,10-05-2012,23:19,SPECI,,340,15.0,,,9999.0,,2.0,0.0,30.25,1025.1,,,,,,,,,,,,,,,8/8 Overcast,900.0,,BKN,900.0,OVC,1400.0,,,,
KRDR,10-05-2012,23:18,SPECI,,350,17.0,,,9999.0,Light Rain,2.0,0.0,30.25,1025.0,61,,,,,,,,,,,,,,8/8 Overcast,1000.0,,SCT,900.0,OVC,1400.0,,,,
KRDR,10-05-2012,23:16,SPECI,,350,15.0,,,9999.0,,2.0,0.0,30.25,1025.0,,,,,,,,,,,,,,,8/8 Overcast,1000.0,,SCT,900.0,OVC,1400.0,,,,
KRDR,10-05-2012,23:14,SPECI,,350,14.0,,,9999.0,,2.0,0.0,30.25,1025.0,,,,,,,,,,,,,,,8/8 Overcast,1000.0,,SCT,900.0,OVC,1400.0,,,,
KRDR,10-05-2012,23:10,SPECI,,350,16.0,,,9999.0,Light Rain,2.0,0.0,30.25,1025.0,61,,,,,,,,,,,,,,8/8 Overcast,1000.0,,SCT,900.0,OVC,1400.0,,,,
KRDR,10-05-2012,23:01,SPECI,,340,11.0,,,9999.0,Light Rain,2.0,0.0,30.24,1024.8,61,,,,,,,,,,,,,,8/8 Overcast,900.0,,BKN,900.0,OVC,1600.0,,,,
KRDR,10-05-2012,23:00,METAR,,350,12.0,19.0,,9999.0,Light Snow,1.0,0.0,30.24,1024.8,71,,,,,,,,,,.01 IN,,,,8/8 Overcast,900.0,,SCT,900.0,OVC,1500.0,,,,
KRDR,10-05-2012,22:39,SPECI,,340,11.0,,,9999.0,Light Snow,1.0,0.0,30.24,1024.7,71,,,,,,,,,,,,,,8/8 Overcast,800.0,,FEW,900.0,OVC,1500.0,,,,
KRDR,10-05-2012,22:11,SPECI,,340,13.0,20.0,,9999.0,Light Snow,2.0,0.0,30.24,1024.6,71,,,,,,,,,,,,,,8/8 Overcast,900.0,,FEW,1000.0,OVC,1400.0,,,,
KRDR,10-05-2012,22:00,METAR,,340,15.0,20.0,,9999.0,Light Snow,1.0,0.0,30.23,1024.4,71,,,,,,,,,,,,,,8/8 Overcast,1500.0,,SCT,900.0,OVC,1500.0,,,,
KRDR,10-05-2012,21:53,SPECI,,350,16.0,20.0,,9999.0,Light Snow,1.0,0.0,30.23,1024.4,71,,,,,,,,,,,,,,8/8 Overcast,1300.0,,SCT,1000.0,OVC,1300.0,,,,
KRDR,10-05-2012,21:47,SPECI,,340,14.0,22.0,,9999.0,Light Snow,2.0,0.0,30.23,1024.4,71,,,,,,,,,,,,,,8/8 Overcast,1400.0,,FEW,800.0,OVC,1400.0,,,,
KRDR,10-05-2012,21:11,SPECI,,340,15.0,22.0,,9999.0,Light Rain,2.0,1.0,30.22,1024.1,61,,,,,,,,,,,,,,8/8 Overcast,1400.0,,OVC,1400.0,,,,,,
KRDR,10-05-2012,21:00,SPECI,,340,17.0,21.0,,9999.0,Light Snow,2.0,0.0,30.22,1024.1,71,,,,,,,,,,,,,,8/8 Overcast,1600.0,,SCT,1000.0,OVC,1600.0,,,,
KRDR,10-05-2012,21:00,METAR,,360,16.0,23.0,,9999.0,Light Snow,2.0,0.0,30.22,1024.1,71,,,,,,,,,,,,,,8/8 Overcast,1300.0,,OVC,1300.0,,,,,,
KRDR,10-05-2012,20:50,SPECI,,340,16.0,23.0,,9999.0,Light Snow,2.0,0.0,30.22,1024.0,71,,,,,,,,,,,,,,8/8 Overcast,1000.0,,SCT,1000.0,OVC,1500.0,,,,
KRDR,10-05-2012,20:43,SPECI,,340,18.0,23.0,,9999.0,Light Snow,2.0,0.0,30.22,1024.0,71,,,,,,,,,,,,,,8/8 Overcast,1000.0,,BKN,1000.0,OVC,1500.0,,,,
KRDR,10-05-2012,20:38,SPECI,,340,14.0,23.0,,9999.0,Light Snow,2.0,0.0,30.22,1024.0,71,,,,,,,,,,,,,,8/8 Overcast,900.0,,BKN,900.0,OVC,1600.0,,,,
KRDR,10-05-2012,20:30,SPECI,,350,15.0,23.0,,9999.0,Light Snow,2.0,0.0,30.22,1024.0,71,,,,,,,,,,,,,,8/8 Overcast,1000.0,,SCT,900.0,OVC,1700.0,,,,
KRDR,10-05-2012,20:22,SPECI,,340,13.0,21.0,,9999.0,Light Snow,2.0,0.0,30.22,1024.0,71,,,,,,,,,,,,,,8/8 Overcast,900.0,,BKN,900.0,BKN,1400.0,OVC,1800.0,,
KRDR,10-05-2012,20:14,SPECI,,340,14.0,20.0,,9999.0,Light Snow,2.0,0.0,30.22,1024.0,71,,,,,,,,,,,,,,8/8 Overcast,1000.0,,SCT,900.0,SCT,1400.0,OVC,1900.0,,
KRDR,10-05-2012,20:06,SPECI,,340,13.0,19.0,,9999.0,Light Snow,1.0,0.0,30.22,1024.0,71,,,,,,,,,,,,,,8/8 Overcast,1000.0,,SCT,1000.0,BKN,1400.0,OVC,2000.0,,
KRDR,10-05-2012,20:05,SPECI,,340,11.0,19.0,,9999.0,Light Snow,1.0,0.0,30.22,1023.9,71,,,,,,,,,,,,,,8/8 Overcast,1000.0,,SCT,1000.0,BKN,1500.0,OVC,2000.0,,
KRDR,10-05-2012,20:01,SPECI,,350,14.0,20.0,,9999.0,Light Snow,1.0,0.0,30.22,1023.9,71,,,,,,,,,,,,,,8/8 Overcast,1500.0,,SCT,1000.0,BKN,1500.0,OVC,2000.0,,
KRDR,10-05-2012,20:00,METAR,,340,13.0,20.0,350/26KTS,9999.0,Light Snow,1.0,0.0,30.21,1023.8,71,,,,,,,,,,.01 IN,,,,8/8 Overcast,1000.0,,FEW,1000.0,OVC,1700.0,,,,
KRDR,10-05-2012,19:43,SPECI,,350,16.0,20.0,350/26KTS,9999.0,Light Snow,2.0,0.0,30.21,1023.8,71,,,,,,,,,,,,,,8/8 Overcast,1000.0,,SCT,1000.0,OVC,1700.0,,,,
KRDR,10-05-2012,19:42,SPECI,,340,16.0,20.0,350/26KTS,9999.0,Light Snow,2.0,0.0,30.21,1023.8,71,,,,,,,,,,,,,,8/8 Overcast,1000.0,,SCT,1200.0,OVC,1700.0,,,,
KRDR,10-05-2012,19:17,SPECI,,350,14.0,23.0,350/26KTS,9999.0,Light Snow,2.0,0.0,30.21,1023.7,71,,,,,,,,,,,,,,7/8 Mostly Cloudy,1400.0,,BKN,1400.0,,,,,,
KRDR,10-05-2012,19:15,SPECI,,350,19.0,23.0,350/26KTS,9999.0,Light Snow,2.0,0.0,30.21,1023.7,71,,,,,,,,,,,,,,8/8 Overcast,1500.0,,FEW,1000.0,OVC,1500.0,,,,
KRDR,10-05-2012,19:13,SPECI,,340,17.0,23.0,350/26KTS,9999.0,Light Snow,2.0,0.0,30.21,1023.7,71,,,,,,,,,,,,,,8/8 Overcast,1300.0,,OVC,1300.0,,,,,,
KRDR,10-05-2012,19:10,SPECI,,340,16.0,20.0,350/26KTS,9999.0,Light Snow,2.0,0.0,30.21,1023.8,71,,,,,,,,,,,,,,8/8 Overcast,1000.0,,SCT,1000.0,OVC,1500.0,,,,
KRDR,10-05-2012,19:03,SPECI,,340,15.0,26.0,350/26KTS,9999.0,Light Snow,2.0,0.0,30.21,1023.8,71,,,,,,,,,,,,,,8/8 Overcast,1000.0,,FEW,1000.0,OVC,1400.0,,,,
KRDR,10-05-2012,19:00,METAR,,340,13.0,24.0,,9999.0,Light Snow,2.0,0.0,30.22,1024.0,71,,,,,,,,,,.01 IN,,,,8/8 Overcast,1500.0,,SCT,900.0,OVC,1500.0,,,,
KRDR,10-05-2012,18:38,SPECI,,340,15.0,23.0,,9999.0,Light Snow,2.0,1.0,30.21,1023.8,71,,,,,,,,,,,,,,8/8 Overcast,1500.0,,SCT,800.0,OVC,1500.0,,,,
KRDR,10-05-2012,18:34,SPECI,,340,13.0,24.0,,9999.0,Light Rain,2.0,1.0,30.21,1023.8,61,,,,,,,,,,,,,,8/8 Overcast,800.0,,BKN,800.0,OVC,1500.0,,,,
KRDR,10-05-2012,18:32,SPECI,,340,13.0,24.0,,9999.0,Unknown Precipitation,2.0,1.0,30.21,1023.9,40,,,,,,,,,,,,,,8/8 Overcast,900.0,,SCT,900.0,OVC,1500.0,,,,
KRDR,10-05-2012,18:30,SPECI,,340,14.0,24.0,,9999.0,Unknown Precipitation,2.0,1.0,30.21,1023.9,40,,,,,,,,,,,,,,8/8 Overcast,900.0,,BKN,900.0,OVC,1500.0,,,,
KRDR,10-05-2012,18:05,SPECI,,330,14.0,22.0,,9999.0,Light Snow,2.0,0.0,30.21,1023.8,71,,,,,,,,,,,,,,8/8 Overcast,1600.0,,SCT,1000.0,OVC,1600.0,,,,
KRDR,10-05-2012,18:03,SPECI,,330,14.0,23.0,,9999.0,Light Snow,2.0,0.0,30.21,1023.8,71,,,,,,,,,,,,,,8/8 Overcast,1700.0,,SCT,1200.0,OVC,1700.0,,,,
KRDR,10-05-2012,18:00,METAR,,340,14.0,26.0,340/27KTS,8000.0,Light Snow/Mist,2.0,0.0,30.21,1023.7,71,10,,,,,,,,,TRACE,,TRACE,,7/8 Mostly Cloudy,1500.0,,BKN,1500.0,,,,,,
KRDR,10-05-2012,17:53,SPECI,,340,15.0,26.0,,9999.0,Light Snow/Mist,2.0,0.0,30.21,1023.8,71,10,,,,,,,,,,,,,7/8 Mostly Cloudy,1400.0,,BKN,1400.0,,,,,,
KRDR,10-05-2012,17:00,METAR,,340,18.0,25.0,340/28KTS,9999.0,Light Snow,2.0,-1.0,30.20,1023.3,71,,,,,,,,,,TRACE,,,,8/8 Overcast,1900.0,,BKN,1900.0,OVC,2500.0,,,,
KRDR,10-05-2012,16:00,METAR,,330,17.0,26.0,340/26KTS,9999.0,Light Rain,2.0,-1.0,30.19,1023.1,61,,,,,,,,,,TRACE,,,,8/8 Overcast,1900.0,,OVC,1900.0,,,,,,
KRDR,10-05-2012,15:00,METAR,,330,16.0,24.0,330/26KTS,9999.0,Light Rain,2.0,-2.0,30.17,1022.5,61,,,,,,,,,,TRACE,0 IN,,,8/8 Overcast,1900.0,,OVC,1900.0,,,,,,
KRDR,10-05-2012,14:04,SPECI,,330,17.0,25.0,320/26KTS,9999.0,Light Rain,1.0,-2.0,30.16,1022.1,61,,,,,,,,,,,,,,8/8 Overcast,1700.0,,OVC,2000.0,,,,,,
KRDR,10-05-2012,14:00,METAR,,320,19.0,23.0,320/27KTS,9999.0,,1.0,-2.0,30.16,1022.1,,,,,,,,,,,,,,,8/8 Overcast,1700.0,,OVC,2000.0,,,,,,
KRDR,10-05-2012,13:00,METAR,,320,17.0,22.0,320/27KTS,9999.0,,1.0,-3.0,30.15,1021.7,,,,,,,,,,,TRACE,,,,8/8 Overcast,2200.0,,OVC,2200.0,,,,,,
KRDR,10-05-2012,12:02,SPECI,,320,15.0,24.0,,9999.0,,1.0,-3.0,30.14,1021.5,,,,,,,,,,,,,,,7/8 Mostly Cloudy,2300.0,,BKN,2300.0,BKN,3700.0,,,,
KRDR,10-05-2012,12:00,METAR,,320,16.0,24.0,,9999.0,Light Rain,1.0,-3.0,30.14,1021.6,61,,,,,,,,,,,,,,7/8 Mostly Cloudy,2000.0,,BKN,2300.0,BKN,3600.0,,,,
KRDR,10-05-2012,11:53,SPECI,,320,17.0,24.0,,9999.0,Light Rain,1.0,-3.0,30.14,1021.6,61,,,,,,,,,,,,,,7/8 Mostly Cloudy,2100.0,,SCT,2300.0,BKN,3600.0,,,,
KRDR,10-05-2012,11:43,SPECI,,320,17.0,22.0,,9999.0,,0.0,-3.0,30.14,1021.6,,,,,,,,,,,,,,,4/8 Partly Cloudy,72000.0,,SCT,2300.0,SCT,3700.0,,,,
KRDR,10-05-2012,11:04,SPECI,,330,15.0,22.0,,9999.0,Light Rain,1.0,-3.0,30.14,1021.5,61,,,,,,,,,,,,,,4/8 Partly Cloudy,72000.0,,SCT,2300.0,,,,,,
KRDR,10-05-2012,11:00,METAR,,320,17.0,24.0,320/27KTS,9999.0,Rain,1.0,-3.0,30.15,1021.7,,,,61,,,,,,,TRACE,,,,7/8 Mostly Cloudy,2000.0,,BKN,2200.0,,,,,,
KRDR,10-05-2012,10:51,SPECI,,330,15.0,24.0,320/27KTS,9999.0,Light Rain,1.0,-3.0,30.15,1021.7,61,,,,,,,,,,,,,,7/8 Mostly Cloudy,2000.0,,BKN,2200.0,,,,,,
KRDR,10-05-2012,10:39,SPECI,,320,18.0,24.0,320/27KTS,9999.0,Light Rain,1.0,-3.0,30.14,1021.6,61,,,,,,,,,,,,,,4/8 Partly Cloudy,72000.0,,SCT,2300.0,,,,,,
KRDR,10-05-2012,10:22,SPECI,,320,17.0,23.0,320/27KTS,9999.0,,1.0,-3.0,30.15,1021.6,,,,,,,,,,,,,,,Clear,2200.0,,,73000.0,,,,,,
KRDR,10-05-2012,09:51,SPECI,,330,17.0,23.0,330/28KTS,9999.0,Unknown Precipitation,1.0,-3.0,30.15,1021.7,40,,,,,,,,,,,,,,2/8 Mostly Clear,72000.0,,FEW,3600.0,,,,,,
KRDR,10-05-2012,09:00,METAR,,320,14.0,20.0,,9999.0,,1.0,-3.0,30.15,1021.7,,,,,,,,,,,,,,,Clear,72000.0,,,73000.0,,,,,,
KRDR,10-05-2012,08:00,METAR,,320,15.0,21.0,,9999.0,,1.0,-3.0,30.15,1021.9,,,,,,,,,,,,,,,7/8 Mostly Cloudy,3700.0,,BKN,3800.0,BKN,4500.0,,,,
KRDR,10-05-2012,07:00,METAR,,320,17.0,22.0,,9999.0,,1.0,-3.0,30.16,1022.1,,,,,,,,,,,,,,,Clear,72000.0,,,73000.0,,,,,,
KRDR,10-05-2012,06:00,METAR,,330,16.0,22.0,,9999.0,,1.0,-3.0,30.16,1022.1,,,,,,,,,,,,,TRACE,,Clear,72000.0,,,73000.0,,,,,,
KRDR,10-05-2012,05:12,SPECI,,320,16.0,23.0,,9999.0,,1.0,-3.0,30.17,1022.3,,,,,,,,,,,,,,,4/8 Partly Cloudy,72000.0,,SCT,2600.0,,,,,,
KRDR,10-05-2012,05:00,METAR,,320,17.0,22.0,,9999.0,,1.0,-2.0,30.17,1022.4,,,,,,,,,,,,,,,7/8 Mostly Cloudy,2600.0,,BKN,2600.0,,,,,,
KRDR,10-05-2012,04:00,METAR,,320,15.0,23.0,,9999.0,,2.0,-2.0,30.17,1022.4,,,,,,,,,,,,,,,8/8 Overcast,2500.0,,OVC,2500.0,,,,,,
KRDR,10-05-2012,03:00,METAR,,330,16.0,23.0,330/26KTS,9999.0,,2.0,-2.0,30.17,1022.3,,,,,,,,,,,,TRACE,,,8/8 Overcast,2600.0,,OVC,2600.0,,,,,,
KRDR,10-05-2012,02:17,SPECI,,320,18.0,24.0,330/26KTS,9999.0,,2.0,-1.0,30.16,1022.2,,,,,,,,,,,,,,,7/8 Mostly Cloudy,2500.0,,BKN,2700.0,,,,,,
KRDR,10-05-2012,02:00,METAR,,330,17.0,26.0,330/30KTS,9999.0,,3.0,-1.0,30.16,1022.1,,,,,,,,,,,,,,,4/8 Partly Cloudy,72000.0,,SCT,2700.0,,,,,,
KRDR,10-05-2012,01:00,METAR,,320,20.0,27.0,320/31KTS,9999.0,,3.0,-1.0,30.16,1022.0,,,,,,,,,,,TRACE,,,,8/8 Overcast,2200.0,,OVC,2500.0,,,,,,
KRDR,10-05-2012,00:00,METAR,,330,23.0,29.0,340/34KTS,9999.0,,4.0,0.0,30.15,1021.7,,,,,,,,,,,.01 IN,,.03 IN,,8/8 Overcast,2300.0,,BKN,2500.0,OVC,3000.0,,,,
KRDR,10-04-2012,23:11,SPECI,,340,21.0,30.0,340/34KTS,9999.0,,4.0,0.0,30.13,1021.3,,,,,,,,,,,,,,,8/8 Overcast,2200.0,,OVC,2400.0,,,,,,
KRDR,10-04-2012,23:00,METAR,,330,24.0,34.0,330/34KTS,9999.0,,4.0,1.0,30.13,1021.1,,,,,,,,,,,TRACE,,,,8/8 Overcast,2100.0,,OVC,2400.0,,,,,,
KRDR,10-04-2012,22:00,METAR,,330,24.0,32.0,340/35KTS,9999.0,,4.0,1.0,30.11,1020.6,,,,,,,,,,,TRACE,,,,8/8 Overcast,1900.0,,OVC,2000.0,,,,,,
KRDR,10-04-2012,21:00,METAR,,340,23.0,33.0,350/33KTS,9999.0,Rain,4.0,1.0,30.10,1020.0,,,,61,,,,,,,.01 IN,.02 IN,,,8/8 Overcast,1700.0,,OVC,1700.0,,,,,,
KRDR,10-04-2012,20:00,METAR,,350,18.0,28.0,340/30KTS,9999.0,Rain,4.0,1.0,30.08,1019.6,,,,61,,,,,,,TRACE,,,,8/8 Overcast,1600.0,,BKN,1600.0,OVC,2100.0,,,,
KRDR,10-04-2012,19:00,METAR,,340,18.0,27.0,360/34KTS,9999.0,Rain,3.0,1.0,30.07,1019.3,,,,61,,,,,,,.01 IN,,,,8/8 Overcast,2000.0,,SCT,1300.0,OVC,2000.0,,,,
KRDR,10-04-2012,18:00,METAR,,340,20.0,30.0,330/31KTS,9999.0,Rain,2.0,0.0,30.07,1019.1,,,,61,,,,,,,TRACE,,.3 IN,,8/8 Overcast,1600.0,,BKN,1600.0,BKN,2200.0,OVC,3100.0,,
KRDR,10-04-2012,17:00,METAR,,340,24.0,30.0,330/33KTS,9999.0,Rain,2.0,0.0,30.05,1018.5,,,,61,,,,,,,.01 IN,,,,8/8 Overcast,1900.0,,OVC,1900.0,,,,,,
KRDR,10-04-2012,16:00,METAR,,340,23.0,30.0,330/31KTS,9999.0,Light Snow/Rain,2.0,0.0,30.03,1017.9,,,,61,71,,,,,,.1 IN,,,,8/8 Overcast,1400.0,,BKN,1400.0,OVC,2000.0,,,,
KRDR,10-04-2012,15:00,METAR,,340,24.0,31.0,340/34KTS,9999.0,Light Snow,1.0,0.0,30.02,1017.5,,,,71,,,,,,,.1 IN,.19 IN,,,8/8 Overcast,1100.0,,OVC,1100.0,,,,,,
KRDR,10-04-2012,14:33,SPECI,,340,26.0,34.0,340/34KTS,9999.0,Light Snow,1.0,0.0,30.01,1017.3,,,,71,,,,,,,,,,,8/8 Overcast,1000.0,,BKN,1000.0,OVC,1500.0,,,,
KRDR,10-04-2012,14:00,METAR,,350,23.0,31.0,340/32KTS,4000.0,Light Snow/Mist,1.0,0.0,30.00,1017.0,,,,71,10,,,,,,.05 IN,,,,8/8 Overcast,1100.0,,FEW,700.0,OVC,1100.0,,,,
KRDR,10-04-2012,13:32,SPECI,,350,22.0,30.0,340/32KTS,4800.0,Light Snow/Mist,1.0,0.0,30.00,1016.9,,,,71,10,,,,,,,,,,8/8 Overcast,1000.0,,FEW,700.0,OVC,1000.0,,,,
KRDR,10-04-2012,13:03,SPECI,,350,22.0,29.0,350/29KTS,3200.0,Light Snow/Mist,1.0,0.0,30.00,1016.9,,,,71,10,,,,,,,,,,8/8 Overcast,1000.0,,OVC,1000.0,,,,,,
KRDR,10-04-2012,13:00,METAR,,350,22.0,29.0,360/31KTS,2800.0,Light Snow/Mist,1.0,0.0,30.00,1016.9,,,,71,10,,,,,,.04 IN,,,,8/8 Overcast,800.0,,OVC,800.0,,,,,,
KRDR,10-04-2012,12:36,SPECI,,350,21.0,29.0,350/29KTS,4000.0,Light Snow/Mist,1.0,0.0,30.00,1017.0,,,,71,10,,,,,,,,,,8/8 Overcast,800.0,,OVC,800.0,,,,,,
KRDR,10-04-2012,12:00,METAR,,350,24.0,32.0,340/35KTS,2800.0,Light Snow/Mist,1.0,0.0,30.01,1017.2,,,,71,10,,,,,,.04 IN,,.3 IN,.55 IN,8/8 Overcast,700.0,,OVC,700.0,,,,,,
KRDR,10-04-2012,11:51,SPECI,,350,24.0,32.0,340/35KTS,2800.0,Light Snow/Mist,1.0,0.0,30.01,1017.2,,,,71,10,,,,,,,,,,8/8 Overcast,700.0,,OVC,700.0,,,,,,
KRDR,10-04-2012,11:00,METAR,,350,23.0,30.0,350/30KTS,3200.0,Light Snow/Mist,1.0,0.0,30.01,1017.3,,,,71,10,,,,,,.04 IN,,,,8/8 Overcast,800.0,,OVC,800.0,,,,,,
KRDR,10-04-2012,10:00,METAR,,350,20.0,25.0,350/27KTS,4000.0,Light Snow/Mist,0.0,0.0,30.01,1017.3,,,,71,10,,,,,,.03 IN,,,,8/8 Overcast,800.0,,OVC,800.0,,,,,,
KRDR,10-04-2012,09:32,SPECI,,330,20.0,26.0,340/26KTS,1200.0,Light Snow/Mist,0.0,0.0,30.01,1017.1,,,,71,10,,,,,,,,,,Sky Obscured (Unable to Estimate),700.0,100.0,,700.0,,,,,,
KRDR,10-04-2012,09:24,SPECI,,330,18.0,,340/26KTS,1600.0,Light Snow/Mist,0.0,0.0,30.01,1017.2,,,,71,10,,,,,,,,,,Sky Obscured (Unable to Estimate),700.0,100.0,,700.0,,,,,,
KRDR,10-04-2012,09:06,SPECI,,340,20.0,,,2000.0,Light Snow/Mist,0.0,0.0,30.01,1017.3,,,,71,10,,,,,,,,,,8/8 Overcast,700.0,,OVC,700.0,,,,,,
KRDR,10-04-2012,09:00,METAR,,340,18.0,26.0,350/27KTS,2400.0,Light Snow/Mist,0.0,0.0,30.01,1017.2,,,,71,10,,,,,,.01 IN,.19 IN,,,8/8 Overcast,700.0,,FEW,400.0,OVC,700.0,,,,
KRDR,10-04-2012,08:23,SPECI,,350,21.0,26.0,350/27KTS,2400.0,Light Snow/Mist,0.0,0.0,30.00,1016.9,,,,71,10,,,,,,,,,,8/8 Overcast,800.0,,SCT,400.0,OVC,800.0,,,,
KRDR,10-04-2012,08:18,SPECI,,350,20.0,27.0,350/27KTS,2800.0,Light Snow/Mist,1.0,0.0,30.00,1016.8,,,,71,10,,,,,,,,,,8/8 Overcast,400.0,,BKN,400.0,OVC,800.0,,,,
KRDR,10-04-2012,08:15,SPECI,,350,19.0,27.0,350/27KTS,3200.0,Light Snow/Mist,1.0,0.0,30.00,1016.8,,,,71,10,,,,,,,,,,8/8 Overcast,400.0,,BKN,400.0,OVC,800.0,,,,
KRDR,10-04-2012,08:11,SPECI,,350,20.0,27.0,350/27KTS,4000.0,Light Snow/Mist,1.0,0.0,30.00,1016.7,,,,71,10,,,,,,,,,,8/8 Overcast,400.0,,BKN,400.0,OVC,1000.0,,,,
KRDR,10-04-2012,08:00,SPECI,,350,19.0,25.0,,4800.0,Light Snow/Mist,1.0,0.0,30.00,1016.8,,,,71,10,,,,,,,,,,8/8 Overcast,400.0,,BKN,400.0,OVC,1000.0,,,,
KRDR,10-04-2012,08:00,METAR,,350,18.0,,010/34KTS,8000.0,Light Snow/Mist,1.0,0.0,30.00,1016.7,,,,71,10,,,,,,.13 IN,,,,8/8 Overcast,500.0,,OVC,500.0,,,,,,
KRDR,10-04-2012,07:32,SPECI,,350,23.0,30.0,010/34KTS,9999.0,Light Snow/Mist,1.0,0.0,30.00,1016.9,,,,71,10,,,,,,,,,,8/8 Overcast,500.0,,OVC,500.0,,,,,,
KRDR,10-04-2012,07:31,SPECI,,360,21.0,30.0,010/34KTS,9999.0,Light Snow,1.0,0.0,30.00,1016.8,,,,71,,,,,,,,,,,8/8 Overcast,500.0,,OVC,500.0,,,,,,
KRDR,10-04-2012,07:15,SPECI,,360,23.0,34.0,010/34KTS,9999.0,Light Snow/Rain,2.0,1.0,30.00,1016.8,,,,61,71,,,,,,,,,,8/8 Overcast,700.0,,OVC,700.0,,,,,,
KRDR,10-04-2012,07:00,METAR,,360,24.0,33.0,360/35KTS,9999.0,Rain,3.0,2.0,30.00,1016.9,,,,61,,,,,,,.05 IN,,,,8/8 Overcast,800.0,,OVC,800.0,,,,,,
KRDR,10-04-2012,06:00,METAR,,360,22.0,31.0,360/31KTS,9999.0,Rain,4.0,3.0,30.02,1017.4,,,,61,,,,,,,.11 IN,,.11 IN,,8/8 Overcast,900.0,,OVC,1000.0,,,,,,
KRDR,10-04-2012,05:05,SPECI,,20,20.0,27.0,010/27KTS,9999.0,Rain,5.0,3.0,30.05,1018.6,,,,61,,,,,,,,,,,8/8 Overcast,1000.0,,OVC,1100.0,,,,,,
KRDR,10-04-2012,05:00,METAR,,10,21.0,25.0,010/26KTS,9999.0,,5.0,3.0,30.06,1018.7,,,,,,,,,,,TRACE,,,,8/8 Overcast,1200.0,,OVC,1200.0,,,,,,
KRDR,10-04-2012,04:15,SPECI,,10,21.0,25.0,,9999.0,Rain,5.0,3.0,30.05,1018.3,,,,61,,,,,,,,,,,8/8 Overcast,1000.0,,OVC,1100.0,,,,,,
KRDR,10-04-2012,04:02,SPECI,,10,15.0,23.0,,9999.0,,5.0,3.0,30.07,1019.0,,,,,,,,,,,,,,,8/8 Overcast,1000.0,,OVC,1100.0,,,,,,
KRDR,10-04-2012,04:00,METAR,,10,16.0,,360/29KTS,9999.0,Rain,5.0,3.0,30.08,1019.3,,,,61,,,,,,,TRACE,,,,8/8 Overcast,1000.0,,OVC,1100.0,,,,,,
KRDR,10-04-2012,03:00,METAR,,10,17.0,26.0,010/30KTS,9999.0,,5.0,3.0,30.06,1018.9,,,,,,,,,,,TRACE,0 IN,,,8/8 Overcast,1200.0,,OVC,1200.0,,,,,,
KRDR,10-04-2012,02:00,METAR,,10,19.0,25.0,,9999.0,Rain,5.0,3.0,30.05,1018.5,,,,61,,,,,,,,,,,8/8 Overcast,1300.0,,OVC,1300.0,,,,,,
KRDR,10-04-2012,01:00,METAR,,20,21.0,31.0,020/31KTS,9999.0,,6.0,4.0,30.05,1018.5,,,,,,,,,,,TRACE,,,,8/8 Overcast,1000.0,,OVC,1200.0,,,,,,
KRDR,10-04-2012,00:24,SPECI,,20,18.0,29.0,360/30KTS,9999.0,,6.0,4.0,30.06,1018.7,,,,,,,,,,,,,,,7/8 Mostly Cloudy,1200.0,,BKN,1300.0,BKN,8900.0,,,,
KRDR,10-04-2012,00:17,SPECI,,20,20.0,29.0,360/30KTS,9999.0,,6.0,4.0,30.06,1018.7,,,,,,,,,,,,,,,2/8 Mostly Clear,72000.0,,FEW,1400.0,,,,,,
KRDR,10-04-2012,00:04,SPECI,,20,20.0,27.0,360/30KTS,9999.0,Rain,6.0,4.0,30.03,1017.9,,,,61,,,,,,,,,,,4/8 Partly Cloudy,72000.0,,SCT,1500.0,SCT,8900.0,SCT,12000.0,,
KRDR,10-03-2012,23:18,SPECI,,20,20.0,26.0,010/27KTS,9999.0,,6.0,4.0,30.04,1018.0,,,,,,,,,,,,,,,7/8 Mostly Cloudy,9000.0,,FEW,1200.0,BKN,8900.0,,,,
KRDR,10-03-2012,23:00,METAR,,20,18.0,28.0,010/28KTS,9999.0,Rain,7.0,5.0,30.01,1017.1,,,,61,,,,,,,.06 IN,,,,2/8 Mostly Clear,72000.0,,FEW,1900.0,,,,,,
KRDR,10-03-2012,22:39,SPECI,,20,17.0,25.0,010/28KTS,9999.0,Rain,7.0,5.0,30.00,1017.0,,,,61,,,,,,,,,,,4/8 Partly Cloudy,72000.0,,FEW,1100.0,SCT,2300.0,,,,
KRDR,10-03-2012,22:27,SPECI,,20,17.0,28.0,010/28KTS,9999.0,Light Rain,7.0,5.0,30.01,1017.2,61,,,,,,,,,,,,,,8/8 Overcast,2500.0,,FEW,1000.0,SCT,1400.0,OVC,2500.0,,
KRDR,10-03-2012,22:18,SPECI,,10,22.0,27.0,020/27KTS,9999.0,Unknown Precipitation,7.0,6.0,30.00,1016.9,40,,,,,,,,,,,,,,8/8 Overcast,1400.0,,SCT,1000.0,BKN,1400.0,OVC,6900.0,,
KRDR,10-03-2012,22:04,SPECI,,10,17.0,24.0,,9999.0,Light Rain,7.0,6.0,30.02,1017.5,61,,,,,,,,,,,,,,8/8 Overcast,1000.0,,BKN,1200.0,BKN,2400.0,OVC,6900.0,,
KRDR,10-03-2012,22:00,METAR,,20,16.0,25.0,,9999.0,Light Rain,7.0,6.0,30.02,1017.4,61,,,,,,,,,,,,,,8/8 Overcast,1200.0,,SCT,1200.0,BKN,2600.0,OVC,6900.0,,
KRDR,10-03-2012,21:53,SPECI,,10,18.0,25.0,,9999.0,Light Rain,8.0,6.0,30.02,1017.3,61,,,,,,,,,,,,,,7/8 Mostly Cloudy,1200.0,,SCT,1200.0,BKN,6900.0,,,,
KRDR,10-03-2012,21:51,SPECI,,10,17.0,25.0,,9999.0,Light Rain,8.0,6.0,30.01,1017.3,61,,,,,,,,,,,,,,7/8 Mostly Cloudy,1100.0,,BKN,1200.0,BKN,6900.0,,,,
KRDR,10-03-2012,21:41,SPECI,,10,17.0,25.0,,9999.0,Light Rain,8.0,6.0,30.01,1017.1,61,,,,,,,,,,,,,,8/8 Overcast,7000.0,,FEW,1000.0,OVC,6900.0,,,,
KRDR,10-03-2012,21:36,SPECI,,20,18.0,25.0,,9999.0,Light Rain,8.0,6.0,30.01,1017.2,61,,,,,,,,,,,,,,8/8 Overcast,7000.0,,FEW,1400.0,OVC,6900.0,,,,
KRDR,10-03-2012,21:22,SPECI,,10,14.0,,,9999.0,,8.0,6.0,30.01,1017.2,,,,,,,,,,,,,,,8/8 Overcast,2200.0,,SCT,1400.0,OVC,6900.0,,,,
KRDR,10-03-2012,21:05,SPECI,,10,17.0,23.0,,9999.0,,8.0,7.0,30.00,1016.7,,,,,,,,,,,,,,,8/8 Overcast,1100.0,,BKN,1300.0,OVC,5900.0,,,,
KRDR,10-03-2012,21:00,METAR,,10,15.0,19.0,,9999.0,,9.0,7.0,30.00,1016.7,,,,,,,,,,,,.01 IN,,,8/8 Overcast,6000.0,,FEW,1100.0,OVC,5900.0,,,,
KRDR,10-03-2012,20:00,METAR,,40,12.0,,,9999.0,,9.0,6.0,29.98,1016.2,,,,,,,,,,,TRACE,,,,8/8 Overcast,7000.0,,OVC,6900.0,,,,,,
KRDR,10-03-2012,19:16,SPECI,,20,14.0,21.0,,9999.0,,9.0,7.0,29.97,1015.9,,,,,,,,,,,,,,,7/8 Mostly Cloudy,7000.0,,BKN,6900.0,,,,,,
KRDR,10-03-2012,19:00,METAR,,20,17.0,24.0,,9999.0,Light Rain,8.0,7.0,29.97,1015.7,61,,,,,,,,,,.01 IN,,,,4/8 Partly Cloudy,72000.0,,FEW,5000.0,SCT,6900.0,,,,
KRDR,10-03-2012,18:00,METAR,,10,13.0,,,9999.0,Light Rain,8.0,6.0,29.97,1016.0,61,,,,,,,,,,.07 IN,,.07 IN,,8/8 Overcast,4500.0,,OVC,4600.0,,,,,,
KRDR,10-03-2012,17:00,METAR,,30,13.0,,,9999.0,Light Rain,10.0,4.0,29.95,1015.1,61,,,,,,,,,,,,,,4/8 Partly Cloudy,72000.0,,SCT,8900.0,,,,,,
KRDR,10-03-2012,16:00,METAR,,10,12.0,,,9999.0,,10.0,2.0,29.96,1015.4,,,,,,,,,,,,,,,8/8 Overcast,9000.0,,OVC,8900.0,,,,,,
KRDR,10-03-2012,15:00,METAR,,20,8.0,,,9999.0,,9.0,2.0,29.96,1015.6,,,,,,,,,,,,,,,4/8 Partly Cloudy,72000.0,,FEW,9900.0,SCT,12000.0,,,,
KRDR,10-03-2012,14:00,METAR,,,0.0,,,9999.0,,6.0,1.0,29.93,1014.4,,,,,,,,,,,,,,,Clear,72000.0,,,73000.0,,,,,,
KRDR,10-03-2012,13:00,METAR,,330,7.0,,,9999.0,,7.0,1.0,29.93,1014.4,,,,,,,,,,,,,,,Clear,72000.0,,,73000.0,,,,,,
KRDR,10-03-2012,12:00,METAR,,340,6.0,,,9999.0,,6.0,2.0,29.92,1014.2,,,,,,,,,,,,,,,Clear,72000.0,,,73000.0,,,,,,
KRDR,10-03-2012,11:00,METAR,,350,4.0,,,9999.0,,7.0,2.0,29.91,1013.8,,,,,,,,,,,,,,,Clear,72000.0,,,73000.0,,,,,,
KRDR,10-03-2012,10:00,METAR,,360,11.0,,,9999.0,,8.0,2.0,29.87,1012.5,,,,,,,,,,,,,,,Clear,72000.0,,,73000.0,,,,,,
KRDR,10-03-2012,09:00,METAR,,340,9.0,,,9999.0,,10.0,4.0,29.85,1011.7,,,,,,,,,,,,,,,Clear,72000.0,,,73000.0,,,,,,
KRDR,10-03-2012,08:00,METAR,,320,9.0,,,9999.0,,12.0,4.0,29.82,1011.0,,,,,,,,,,,,,,,Clear,72000.0,,,73000.0,,,,,,
KRDR,10-03-2012,07:00,METAR,,300,9.0,,,9999.0,,13.0,4.0,29.80,1010.2,,,,,,,,,,,,,,,Clear,72000.0,,,73000.0,,,,,,
KRDR,10-03-2012,06:00,METAR,,300,10.0,,,9999.0,,14.0,4.0,29.78,1009.5,,,,,,,,,,,,,,,Clear,72000.0,,,73000.0,,,,,,
KRDR,10-03-2012,05:00,METAR,,290,10.0,,,9999.0,,13.0,4.0,29.78,1009.5,,,,,,,,,,,,,,,Clear,72000.0,,,73000.0,,,,,,
KRDR,10-03-2012,04:00,METAR,,300,8.0,,,9999.0,,15.0,4.0,29.76,1008.9,,,,,,,,,,,,,,,Clear,72000.0,,,73000.0,,,,,,
KRDR,10-03-2012,03:00,METAR,,300,6.0,,,9999.0,,15.0,4.0,29.74,1008.4,,,,,,,,,,,,,,,Clear,72000.0,,,73000.0,,,,,,
KRDR,10-03-2012,02:00,METAR,,310,8.0,,,9999.0,,17.0,4.0,29.73,1007.9,,,,,,,,,,,,,,,Clear,72000.0,,,73000.0,,,,,,
KRDR,10-03-2012,01:00,METAR,,310,6.0,,,9999.0,,17.0,4.0,29.71,1007.3,,,,,,,,,,,,,,,Clear,72000.0,,,73000.0,,,,,,
KRDR,10-03-2012,00:00,METAR,,290,9.0,,,9999.0,,21.0,4.0,29.70,1006.8,,,,,,,,,,,,,,,Clear,72000.0,,,73000.0,,,,,,
KRDR,10-02-2012,23:00,METAR,,300,12.0,,,9999.0,,23.0,5.0,29.67,1005.9,,,,,,,,,,,,,,,Clear,72000.0,,,73000.0,,,,,,
KRDR,10-02-2012,22:00,METAR,,280,14.0,,,9999.0,,25.0,4.0,29.63,1004.7,,,,,,,,,,,,,,,Clear,72000.0,,,73000.0,,,,,,
KRDR,10-02-2012,21:00,METAR,,260,12.0,,230/28KTS,9999.0,,26.0,2.0,29.62,1004.4,,,,,,,,,,,,,,,Clear,72000.0,,,73000.0,,,,,,
KRDR,10-02-2012,20:00,METAR,,210,19.0,25.0,210/32KTS,9999.0,,26.0,1.0,29.62,1004.2,,,,,,,,,,,,,,,Clear,72000.0,,,73000.0,,,,,,
KRDR,10-02-2012,19:00,METAR,,210,23.0,30.0,210/36KTS,9999.0,,24.0,-1.0,29.62,1004.4,,,,,,,,,,,,,,,Clear,72000.0,,,73000.0,,,,,,
KRDR,10-02-2012,18:00,METAR,,210,27.0,37.0,190/40KTS,9999.0,,22.0,-2.0,29.65,1005.2,,,,,,,,,,,,,,,Clear,72000.0,,,73000.0,,,,,,
KRDR,10-02-2012,17:00,METAR,,190,29.0,35.0,200/38KTS,9999.0,,20.0,-2.0,29.65,1005.2,,,,,,,,,,,,,,,Clear,72000.0,,,73000.0,,,,,,
KRDR,10-02-2012,16:00,METAR,,190,25.0,38.0,180/38KTS,9999.0,,18.0,-3.0,29.67,1006.0,,,,,,,,,,,,,,,Clear,72000.0,,,73000.0,,,,,,
KRDR,10-02-2012,15:00,METAR,,190,22.0,30.0,180/30KTS,9999.0,,15.0,-3.0,29.71,1007.4,,,,,,,,,,,,,,,Clear,72000.0,,,73000.0,,,,,,
KRDR,10-02-2012,14:00,METAR,,170,14.0,,,9999.0,,12.0,-2.0,29.75,1008.5,,,,,,,,,,,,,,,Clear,72000.0,,,73000.0,,,,,,
KRDR,10-02-2012,13:00,METAR,,180,12.0,,,9999.0,,10.0,-2.0,29.78,1009.7,,,,,,,,,,,,,,,Clear,72000.0,,,73000.0,,,,,,
KRDR,10-02-2012,12:00,METAR,,180,12.0,,,9999.0,,9.0,-2.0,29.79,1010.0,,,,,,,,,,,,,,,Clear,72000.0,,,73000.0,,,,,,
KRDR,10-02-2012,11:00,METAR,,180,11.0,,,9999.0,,9.0,-2.0,29.81,1010.6,,,,,,,,,,,,,,,Clear,72000.0,,,73000.0,,,,,,
KRDR,10-02-2012,10:00,METAR,,190,8.0,,,9999.0,,7.0,-2.0,29.84,1011.5,,,,,,,,,,,,,,,Clear,72000.0,,,73000.0,,,,,,
KRDR,10-02-2012,09:00,METAR,,220,5.0,,,9999.0,,6.0,-2.0,29.85,1011.9,,,,,,,,,,,,,,,Clear,72000.0,,,73000.0,,,,,,
KRDR,10-02-2012,08:00,METAR,,220,6.0,,,9999.0,,6.0,-1.0,29.87,1012.5,,,,,,,,,,,,,,,Clear,72000.0,,,73000.0,,,,,,
KRDR,10-02-2012,07:00,METAR,,220,5.0,,,9999.0,,7.0,-1.0,29.89,1013.2,,,,,,,,,,,,,,,Clear,72000.0,,,73000.0,,,,,,
KRDR,10-02-2012,06:00,METAR,,240,6.0,,,9999.0,,7.0,-2.0,29.91,1013.8,,,,,,,,,,,,,,,Clear,72000.0,,,73000.0,,,,,,
KRDR,10-02-2012,05:00,METAR,,240,5.0,,,9999.0,,7.0,-1.0,29.94,1014.7,,,,,,,,,,,,,,,Clear,72000.0,,,73000.0,,,,,,
KRDR,10-02-2012,04:00,METAR,,240,4.0,,,9999.0,,7.0,-1.0,29.96,1015.4,,,,,,,,,,,,,,,Clear,72000.0,,,73000.0,,,,,,
KRDR,10-02-2012,03:00,METAR,,240,3.0,,,9999.0,,9.0,-2.0,29.98,1016.0,,,,,,,,,,,,,,,Clear,72000.0,,,73000.0,,,,,,
KRDR,10-02-2012,02:00,METAR,,250,5.0,,,9999.0,,7.0,-3.0,29.98,1016.1,,,,,,,,,,,,,,,Clear,72000.0,,,73000.0,,,,,,
KRDR,10-02-2012,01:00,METAR,,,0.0,,,9999.0,,10.0,-3.0,29.98,1016.3,,,,,,,,,,,,,,,Clear,72000.0,,,73000.0,,,,,,
KRDR,10-02-2012,00:00,METAR,,320,3.0,,,9999.0,,16.0,-3.0,30.00,1016.9,,,,,,,,,,,,,,,Clear,72000.0,,,73000.0,,,,,,
KRDR,10-01-2012,23:00,METAR,,330,9.0,,,9999.0,,19.0,-3.0,30.01,1017.0,,,,,,,,,,,,,,,Clear,72000.0,,,73000.0,,,,,,
KRDR,10-01-2012,22:00,METAR,,340,10.0,,,9999.0,,21.0,-3.0,30.02,1017.4,,,,,,,,,,,,,,,Clear,72000.0,,,73000.0,,,,,,
KRDR,10-01-2012,21:00,METAR,,340,9.0,17.0,,9999.0,,20.0,-2.0,30.03,1018.0,,,,,,,,,,,,,,,Clear,72000.0,,,73000.0,,,,,,
KRDR,10-01-2012,20:00,METAR,,320,14.0,18.0,,9999.0,,21.0,-1.0,30.05,1018.4,,,,,,,,,,,,,,,Clear,72000.0,,,73000.0,,,,,,
KRDR,10-01-2012,19:00,METAR,,340,13.0,19.0,,9999.0,,20.0,-2.0,30.07,1019.0,,,,,,,,,,,,,,,Clear,72000.0,,,73000.0,,,,,,
KRDR,10-01-2012,18:00,METAR,,360,15.0,19.0,,9999.0,,19.0,-2.0,30.08,1019.5,,,,,,,,,,,,,,,Clear,72000.0,,,73000.0,,,,,,
KRDR,10-01-2012,17:00,METAR,,350,12.0,19.0,,9999.0,,18.0,1.0,30.10,1020.3,,,,,,,,,,,,,,,Clear,72000.0,,,73000.0,,,,,,
KRDR,10-01-2012,16:00,METAR,,340,11.0,,,9999.0,,17.0,2.0,30.10,1020.2,,,,,,,,,,,,,,,Clear,72000.0,,,73000.0,,,,,,
KRDR,10-01-2012,15:00,METAR,,330,8.0,,,9999.0,,14.0,2.0,30.10,1020.2,,,,,,,,,,,,,,,Clear,72000.0,,,73000.0,,,,,,
KRDR,10-01-2012,14:00,METAR,,320,10.0,,,9999.0,,11.0,2.0,30.09,1019.7,,,,,,,,,,,,,,,Clear,72000.0,,,73000.0,,,,,,
KRDR,10-01-2012,13:00,METAR,,320,8.0,,,9999.0,,9.0,2.0,30.07,1019.1,,,,,,,,,,,,,,,Clear,72000.0,,,73000.0,,,,,,
KRDR,10-01-2012,12:00,METAR,,320,7.0,,,9999.0,,12.0,4.0,30.05,1018.6,,,,,,,,,,,,,,,2/8 Mostly Clear,72000.0,,FEW,6900.0,,,,,,
KRDR,10-01-2012,11:00,METAR,,330,7.0,,,9999.0,,14.0,5.0,30.04,1018.2,,,,,,,,,,,,,,,8/8 Overcast,7000.0,,OVC,6900.0,,,,,,
KRDR,10-01-2012,10:00,METAR,,330,8.0,,,9999.0,,14.0,5.0,30.02,1017.6,,,,,,,,,,,,,,,8/8 Overcast,7000.0,,BKN,6900.0,OVC,7900.0,,,,
KRDR,10-01-2012,09:00,METAR,,310,8.0,,,9999.0,,14.0,5.0,30.02,1017.4,,,,,,,,,,,,,,,8/8 Overcast,6000.0,,BKN,5900.0,OVC,11000.0,,,,
KRDR,10-01-2012,08:00,METAR,,320,7.0,,,9999.0,,14.0,4.0,30.01,1017.1,,,,,,,,,,,,,,,8/8 Overcast,8000.0,,OVC,7900.0,,,,,,
KRDR,10-01-2012,07:00,METAR,,320,6.0,,,9999.0,,12.0,3.0,30.00,1017.0,,,,,,,,,,,,,,,7/8 Mostly Cloudy,10000.0,,SCT,9900.0,BKN,12000.0,,,,
KRDR,10-01-2012,06:00,METAR,,320,6.0,,,9999.0,,12.0,3.0,29.99,1016.6,,,,,,,,,,,,,,,Clear,72000.0,,,73000.0,,,,,,
KRDR,10-01-2012,05:00,METAR,,350,9.0,,,9999.0,,15.0,3.0,29.98,1016.2,,,,,,,,,,,,,,,Clear,72000.0,,,73000.0,,,,,,
KRDR,10-01-2012,03:00,METAR,,360,10.0,19.0,,9999.0,,17.0,2.0,29.95,1015.1,,,,,,,,,,,,,,,Clear,72000.0,,,73000.0,,,,,,
KRDR,10-01-2012,02:00,METAR,,20,8.0,,,9999.0,,19.0,6.0,29.92,1014.2,,,,,,,,,,,,,,,Clear,72000.0,,,73000.0,,,,,,
KRDR,10-01-2012,01:00,METAR,,350,13.0,20.0,,9999.0,,20.0,9.0,29.89,1013.4,,,,,,,,,,,,,,,Clear,72000.0,,,73000.0,,,,,,
KRDR,10-01-2012,00:00,METAR,,330,7.0,,,9999.0,,22.0,7.0,29.85,1012.0,,,,,,,,,,,,,,,Clear,72000.0,,,73000.0,,,,,,
KRDR,09-30-2012,23:00,METAR,,320,14.0,,,9999.0,,24.0,7.0,29.85,1011.9,,,,,,,,,,,,,,,Clear,72000.0,,,73000.0,,,,,,
KRDR,09-30-2012,22:00,METAR,,320,15.0,23.0,,9999.0,,26.0,8.0,29.83,1011.3,,,,,,,,,,,,,,,Clear,72000.0,,,73000.0,,,,,,
KRDR,09-30-2012,21:00,METAR,,290,14.0,,,9999.0,,27.0,8.0,29.83,1011.1,,,,,,,,,,,,,,,Clear,72000.0,,,73000.0,,,,,,
KRDR,09-30-2012,20:00,METAR,,290,12.0,21.0,,9999.0,,28.0,8.0,29.82,1010.9,,,,,,,,,,,,,,,Clear,72000.0,,,73000.0,,,,,,
KRDR,09-30-2012,19:00,METAR,,260,13.0,18.0,,9999.0,,28.0,7.0,29.82,1010.9,,,,,,,,,,,,,,,Clear,72000.0,,,73000.0,,,,,,
KRDR,09-30-2012,18:00,METAR,,280,9.0,,,9999.0,,28.0,7.0,29.84,1011.6,,,,,,,,,,,,,,,Clear,72000.0,,,73000.0,,,,,,
KRDR,09-30-2012,17:00,METAR,,,5.0,,,9999.0,,26.0,6.0,29.85,1012.0,,,,,,,,,,,,,,,Clear,72000.0,,,73000.0,,,,,,
KRDR,09-30-2012,16:00,METAR,,290,7.0,,,9999.0,,22.0,5.0,29.87,1012.5,,,,,,,,,,,,,,,Clear,72000.0,,,73000.0,,,,,,
KRDR,09-30-2012,15:00,METAR,,220,6.0,,,9999.0,,19.0,3.0,29.86,1012.3,,,,,,,,,,,,,,,Clear,72000.0,,,73000.0,,,,,,
KRDR,09-30-2012,14:00,METAR,,180,6.0,,,9999.0,,14.0,3.0,29.86,1012.2,,,,,,,,,,,,,,,Clear,72000.0,,,73000.0,,,,,,
KRDR,09-30-2012,13:00,METAR,,180,6.0,,,9999.0,,10.0,2.0,29.86,1012.3,,,,,,,,,,,,,,,Clear,72000.0,,,73000.0,,,,,,
KRDR,09-30-2012,12:00,METAR,,180,8.0,,,9999.0,,11.0,2.0,29.86,1012.3,,,,,,,,,,,,,,,Clear,72000.0,,,73000.0,,,,,,
KRDR,09-30-2012,11:00,METAR,,180,9.0,,,9999.0,,11.0,1.0,29.87,1012.7,,,,,,,,,,,,,,,Clear,72000.0,,,73000.0,,,,,,
KRDR,09-30-2012,10:00,METAR,,190,7.0,,,9999.0,,12.0,1.0,29.89,1013.2,,,,,,,,,,,,,,,Clear,72000.0,,,73000.0,,,,,,
KRDR,09-30-2012,09:00,METAR,,190,7.0,,,9999.0,,10.0,0.0,29.90,1013.5,,,,,,,,,,,,,,,Clear,72000.0,,,73000.0,,,,,,
KRDR,09-30-2012,08:00,METAR,,190,7.0,,,9999.0,,13.0,0.0,29.90,1013.7,,,,,,,,,,,,,,,Clear,72000.0,,,73000.0,,,,,,
KRDR,09-30-2012,07:00,METAR,,200,6.0,,,9999.0,,13.0,0.0,29.92,1014.1,,,,,,,,,,,,,,,Clear,72000.0,,,73000.0,,,,,,
KRDR,09-30-2012,06:00,METAR,,190,7.0,,,9999.0,,14.0,0.0,29.93,1014.4,,,,,,,,,,,,,,,Clear,72000.0,,,73000.0,,,,,,
KRDR,09-30-2012,05:00,METAR,,190,8.0,,,9999.0,,14.0,-1.0,29.94,1014.7,,,,,,,,,,,,,,,Clear,72000.0,,,73000.0,,,,,,
KRDR,09-30-2012,04:00,METAR,,190,7.0,,,9999.0,,14.0,0.0,29.94,1014.9,,,,,,,,,,,,,,,Clear,72000.0,,,73000.0,,,,,,
KRDR,09-30-2012,03:00,METAR,,180,6.0,,,9999.0,,11.0,-1.0,29.94,1015.0,,,,,,,,,,,,,,,Clear,72000.0,,,73000.0,,,,,,
KRDR,09-30-2012,02:00,METAR,,160,6.0,,,9999.0,,16.0,-1.0,29.94,1015.0,,,,,,,,,,,,,,,Clear,72000.0,,,73000.0,,,,,,
KRDR,09-30-2012,01:00,METAR,,160,7.0,,,9999.0,,19.0,-1.0,29.94,1014.9,,,,,,,,,,,,,,,Clear,72000.0,,,73000.0,,,,,,
KRDR,09-30-2012,00:00,METAR,,150,6.0,,,9999.0,,23.0,-1.0,29.95,1015.2,,,,,,,,,,,,,,,Clear,72000.0,,,73000.0,,,,,,
KRDR,09-29-2012,23:00,METAR,,160,11.0,,,9999.0,,28.0,-2.0,29.95,1015.3,,,,,,,,,,,,,,,Clear,72000.0,,,73000.0,,,,,,
KRDR,09-29-2012,22:00,METAR,,170,13.0,,,9999.0,,29.0,-2.0,29.96,1015.5,,,,,,,,,,,,,,,Clear,72000.0,,,73000.0,,,,,,
KRDR,09-29-2012,21:00,METAR,,170,10.0,,,9999.0,,29.0,-2.0,29.98,1016.0,,,,,,,,,,,,,,,Clear,72000.0,,,73000.0,,,,,,
KRDR,09-29-2012,20:00,METAR,,200,11.0,17.0,,9999.0,,29.0,-2.0,29.99,1016.7,,,,,,,,,,,,,,,Clear,72000.0,,,73000.0,,,,,,
KRDR,09-29-2012,19:00,METAR,,170,9.0,,,9999.0,,28.0,-4.0,30.02,1017.6,,,,,,,,,,,,,,,Clear,72000.0,,,73000.0,,,,,,
KRDR,09-29-2012,18:00,METAR,,180,6.0,,,9999.0,,26.0,-2.0,30.05,1018.4,,,,,,,,,,,,,,,Clear,72000.0,,,73000.0,,,,,,
KRDR,09-29-2012,17:00,METAR,,200,7.0,,,9999.0,,25.0,1.0,30.06,1018.9,,,,,,,,,,,,,,,Clear,72000.0,,,73000.0,,,,,,
KRDR,09-29-2012,16:00,METAR,,180,6.0,,,9999.0,,22.0,1.0,30.07,1019.3,,,,,,,,,,,,,,,Clear,72000.0,,,73000.0,,,,,,
KRDR,09-29-2012,15:00,METAR,,190,5.0,,,9999.0,,19.0,4.0,30.08,1019.4,,,,,,,,,,,,,,,Clear,72000.0,,,73000.0,,,,,,
KRDR,09-29-2012,14:00,METAR,,220,3.0,,,9999.0,,12.0,5.0,30.08,1019.5,,,,,,,,,,,,,,,Clear,72000.0,,,73000.0,,,,,,
KRDR,09-29-2012,13:00,METAR,,,0.0,,,9999.0,,5.0,2.0,30.08,1019.5,,,,,,,,,,,,,,,Clear,72000.0,,,73000.0,,,,,,
KRDR,09-29-2012,12:00,METAR,,,0.0,,,9999.0,,4.0,2.0,30.08,1019.4,,,,,,,,,,,,,,,Clear,72000.0,,,73000.0,,,,,,
KRDR,09-29-2012,11:13,SPECI,,,0.0,,,9999.0,,4.0,1.0,30.07,1019.2,,,,,,,,,,,,,,,Clear,72000.0,,,73000.0,,,,,,
KRDR,09-29-2012,11:00,METAR,,,0.0,,,9999.0,,5.0,1.0,30.07,1019.1,,,,,,,,,,,,,,,Clear,72000.0,,,73000.0,,,,,,
KRDR,09-29-2012,10:38,SPECI,,,0.0,,,9999.0,,5.0,2.0,30.07,1019.0,,,,,,,,,,,,,,,Clear,72000.0,,,73000.0,,,,,,
KRDR,09-29-2012,10:12,SPECI,,,0.0,,,9999.0,Haze Smoke or Dust,6.0,2.0,30.07,1019.1,4,,,,,,,,,,,,,,Clear,72000.0,,,73000.0,,,,,,
KRDR,09-29-2012,10:00,METAR,,,0.0,,,9999.0,Haze Smoke or Dust,5.0,2.0,30.07,1019.0,4,,,,,,,,,,,,,,Clear,72000.0,,,73000.0,,,,,,
KRDR,09-29-2012,09:04,SPECI,,,0.0,,,9999.0,,6.0,2.0,30.07,1019.2,,,,,,,,,,,,,,,Clear,72000.0,,,73000.0,,,,,,
KRDR,09-29-2012,08:51,SPECI,,,0.0,,,9999.0,Haze Smoke or Dust,6.0,2.0,30.07,1019.1,4,,,,,,,,,,,,,,Clear,72000.0,,,73000.0,,,,,,
KRDR,09-29-2012,08:47,SPECI,,,0.0,,,9999.0,Haze Smoke or Dust,6.0,2.0,30.07,1019.1,4,,,,,,,,,,,,,,Clear,72000.0,,,73000.0,,,,,,
KRDR,09-29-2012,08:00,METAR,,,0.0,,,9999.0,,7.0,3.0,30.07,1019.2,,,,,,,,,,,,,,,Clear,72000.0,,,73000.0,,,,,,
KRDR,09-29-2012,07:00,METAR,,,0.0,,,9999.0,,8.0,3.0,30.07,1019.2,,,,,,,,,,,,,,,Clear,72000.0,,,73000.0,,,,,,
KRDR,09-29-2012,06:00,METAR,,,0.0,,,9999.0,,8.0,2.0,30.07,1019.1,,,,,,,,,,,,,,,Clear,72000.0,,,73000.0,,,,,,
KRDR,09-29-2012,05:00,METAR,,240,3.0,,,9999.0,,9.0,3.0,30.07,1019.1,,,,,,,,,,,,,,,Clear,72000.0,,,73000.0,,,,,,
KRDR,09-29-2012,04:06,SPECI,,,0.0,,,9999.0,,10.0,3.0,30.07,1019.1,,,,,,,,,,,,,,,Clear,72000.0,,,73000.0,,,,,,
KRDR,09-29-2012,04:00,METAR,,250,3.0,,,8000.0,Haze Smoke or Dust,10.0,3.0,30.07,1019.1,4,,,,,,,,,,,,,,Clear,72000.0,,,73000.0,,,,,,
KRDR,09-29-2012,03:00,METAR,,,0.0,,,9999.0,,11.0,4.0,30.06,1018.9,,,,,,,,,,,,,,,Clear,72000.0,,,73000.0,,,,,,
KRDR,09-29-2012,02:00,METAR,,,0.0,,,9999.0,,13.0,5.0,30.06,1018.9,,,,,,,,,,,,,,,Clear,72000.0,,,73000.0,,,,,,
KRDR,09-29-2012,01:00,METAR,,100,4.0,,,9999.0,,20.0,6.0,30.05,1018.6,,,,,,,,,,,,,,,Clear,72000.0,,,73000.0,,,,,,
KRDR,09-29-2012,00:00,METAR,,90,3.0,,,9999.0,,23.0,5.0,30.06,1018.8,,,,,,,,,,,,,,,Clear,72000.0,,,73000.0,,,,,,
KRDR,09-28-2012,23:00,METAR,,50,3.0,,,9999.0,,25.0,5.0,30.06,1018.9,,,,,,,,,,,,,,,Clear,72000.0,,,73000.0,,,,,,
KRDR,09-28-2012,22:00,METAR,,20,3.0,,,9999.0,,26.0,4.0,30.07,1019.1,,,,,,,,,,,,,,,Clear,72000.0,,,73000.0,,,,,,
KRDR,09-28-2012,21:00,METAR,,,3.0,,,9999.0,,26.0,5.0,30.08,1019.5,,,,,,,,,,,,,,,Clear,72000.0,,,73000.0,,,,,,
KRDR,09-28-2012,20:00,METAR,,,0.0,,,9999.0,,25.0,5.0,30.09,1019.8,,,,,,,,,,,,,,,Clear,72000.0,,,73000.0,,,,,,
KRDR,09-28-2012,19:00,METAR,,,3.0,,,9999.0,,23.0,4.0,30.10,1020.2,,,,,,,,,,,,,,,Clear,72000.0,,,73000.0,,,,,,
KRDR,09-28-2012,18:00,METAR,,50,4.0,,,9999.0,,22.0,4.0,30.12,1020.9,,,,,,,,,,,,,,,Clear,72000.0,,,73000.0,,,,,,
KRDR,09-28-2012,17:00,METAR,,,3.0,,,9999.0,,19.0,3.0,30.13,1021.3,,,,,,,,,,,,,,,Clear,72000.0,,,73000.0,,,,,,
KRDR,09-28-2012,16:00,METAR,,,4.0,,,9999.0,,17.0,3.0,30.13,1021.1,,,,,,,,,,,,,,,Clear,72000.0,,,73000.0,,,,,,
KRDR,09-28-2012,15:00,METAR,,330,6.0,,,9999.0,,14.0,3.0,30.13,1021.0,,,,,,,,,,,,,,,Clear,72000.0,,,73000.0,,,,,,
KRDR,09-28-2012,14:00,METAR,,300,4.0,,,9999.0,,10.0,4.0,30.12,1020.7,,,,,,,,,,,,,,,Clear,72000.0,,,73000.0,,,,,,
KRDR,09-28-2012,13:00,METAR,,270,6.0,,,9999.0,,4.0,0.0,30.10,1020.3,,,,,,,,,,,,,,,Clear,72000.0,,,73000.0,,,,,,
KRDR,09-28-2012,12:00,METAR,,220,5.0,,,9999.0,,4.0,0.0,30.09,1019.9,,,,,,,,,,,,,,,Clear,72000.0,,,73000.0,,,,,,
KRDR,09-28-2012,11:00,METAR,,200,4.0,,,9999.0,,6.0,0.0,30.09,1019.7,,,,,,,,,,,,,,,Clear,72000.0,,,73000.0,,,,,,
KRDR,09-28-2012,10:00,METAR,,210,5.0,,,9999.0,,6.0,0.0,30.08,1019.6,,,,,,,,,,,,,,,Clear,72000.0,,,73000.0,,,,,,
KRDR,09-28-2012,09:00,METAR,,,0.0,,,9999.0,,7.0,0.0,30.08,1019.5,,,,,,,,,,,,,,,Clear,72000.0,,,73000.0,,,,,,
KRDR,09-28-2012,08:00,METAR,,150,5.0,,,9999.0,,5.0,1.0,30.09,1019.9,,,,,,,,,,,,,,,Clear,72000.0,,,73000.0,,,,,,
KRDR,09-28-2012,07:00,METAR,,,0.0,,,9999.0,,9.0,1.0,30.09,1019.8,,,,,,,,,,,,,,,Clear,72000.0,,,73000.0,,,,,,
KRDR,09-28-2012,06:00,METAR,,180,7.0,,,9999.0,,9.0,1.0,30.08,1019.6,,,,,,,,,,,,,,,Clear,72000.0,,,73000.0,,,,,,
KRDR,09-28-2012,05:00,METAR,,160,6.0,,,9999.0,,10.0,1.0,30.08,1019.5,,,,,,,,,,,,,,,Clear,72000.0,,,73000.0,,,,,,
KRDR,09-28-2012,04:00,METAR,,120,4.0,,,9999.0,,14.0,2.0,30.09,1019.8,,,,,,,,,,,,,,,Clear,72000.0,,,73000.0,,,,,,
KRDR,09-28-2012,03:00,METAR,,180,8.0,,,9999.0,,13.0,2.0,30.08,1019.5,,,,,,,,,,,,,,,Clear,72000.0,,,73000.0,,,,,,
KRDR,09-28-2012,02:00,METAR,,190,7.0,,,9999.0,,14.0,1.0,30.07,1019.0,,,,,,,,,,,,,,,Clear,72000.0,,,73000.0,,,,,,
KRDR,09-28-2012,01:00,METAR,,160,7.0,,,9999.0,,16.0,2.0,30.06,1018.9,,,,,,,,,,,,,,,Clear,72000.0,,,73000.0,,,,,,
KRDR,09-28-2012,00:00,METAR,,150,9.0,,,9999.0,,21.0,2.0,30.07,1019.0,,,,,,,,,,,,,,,Clear,72000.0,,,73000.0,,,,,,
KRDR,09-27-2012,23:00,METAR,,170,10.0,,,9999.0,,23.0,2.0,30.08,1019.3,,,,,,,,,,,,,,,Clear,72000.0,,,73000.0,,,,,,
KRDR,09-27-2012,22:00,METAR,,180,14.0,,,9999.0,,24.0,1.0,30.07,1019.3,,,,,,,,,,,,,,,Clear,72000.0,,,73000.0,,,,,,
KRDR,09-27-2012,21:00,METAR,,180,13.0,,,9999.0,,24.0,1.0,30.08,1019.5,,,,,,,,,,,,,,,Clear,72000.0,,,73000.0,,,,,,
KRDR,09-27-2012,20:00,METAR,,170,13.0,,,9999.0,,24.0,1.0,30.09,1019.8,,,,,,,,,,,,,,,Clear,72000.0,,,73000.0,,,,,,
KRDR,09-27-2012,19:00,METAR,,190,12.0,,,9999.0,,22.0,1.0,30.11,1020.3,,,,,,,,,,,,,,,Clear,72000.0,,,73000.0,,,,,,
KRDR,09-27-2012,18:00,METAR,,160,12.0,,,9999.0,,21.0,0.0,30.13,1021.2,,,,,,,,,,,,,,,Clear,72000.0,,,73000.0,,,,,,
KRDR,09-27-2012,17:00,METAR,,170,14.0,,,9999.0,,18.0,0.0,30.14,1021.5,,,,,,,,,,,,,,,Clear,72000.0,,,73000.0,,,,,,
KRDR,09-27-2012,16:00,METAR,,180,14.0,,,9999.0,,16.0,-1.0,30.16,1022.2,,,,,,,,,,,,,,,Clear,72000.0,,,73000.0,,,,,,
KRDR,09-27-2012,15:00,METAR,,160,7.0,,,9999.0,,11.0,0.0,30.17,1022.3,,,,,,,,,,,,,,,Clear,72000.0,,,73000.0,,,,,,
KRDR,09-27-2012,14:00,METAR,,170,7.0,,,9999.0,,8.0,-1.0,30.18,1022.6,,,,,,,,,,,,,,,Clear,72000.0,,,73000.0,,,,,,
KRDR,09-27-2012,13:00,METAR,,160,6.0,,,9999.0,,5.0,-1.0,30.18,1022.7,,,,,,,,,,,,,,,Clear,72000.0,,,73000.0,,,,,,
KRDR,09-27-2012,12:00,METAR,,160,6.0,,,9999.0,,3.0,-2.0,30.18,1022.7,,,,,,,,,,,,,,,Clear,72000.0,,,73000.0,,,,,,
KRDR,09-27-2012,11:00,METAR,,130,5.0,,,9999.0,,4.0,-2.0,30.18,1022.7,,,,,,,,,,,,,,,Clear,72000.0,,,73000.0,,,,,,
KRDR,09-27-2012,10:00,METAR,,180,3.0,,,9999.0,,3.0,-3.0,30.17,1022.3,,,,,,,,,,,,,,,Clear,72000.0,,,73000.0,,,,,,
KRDR,09-27-2012,09:00,METAR,,180,3.0,,,9999.0,,3.0,-3.0,30.17,1022.5,,,,,,,,,,,,,,,Clear,72000.0,,,73000.0,,,,,,
KRDR,09-27-2012,08:00,METAR,,180,4.0,,,9999.0,,4.0,-2.0,30.17,1022.5,,,,,,,,,,,,,,,Clear,72000.0,,,73000.0,,,,,,
KRDR,09-27-2012,07:00,METAR,,190,4.0,,,9999.0,,5.0,-2.0,30.17,1022.5,,,,,,,,,,,,,,,Clear,72000.0,,,73000.0,,,,,,
KRDR,09-27-2012,06:00,METAR,,190,5.0,,,9999.0,,5.0,-2.0,30.16,1022.1,,,,,,,,,,,,,,,Clear,72000.0,,,73000.0,,,,,,
KRDR,09-27-2012,05:00,METAR,,160,5.0,,,9999.0,,7.0,-2.0,30.15,1021.9,,,,,,,,,,,,,,,Clear,72000.0,,,73000.0,,,,,,
KRDR,09-27-2012,04:00,METAR,,180,5.0,,,9999.0,,7.0,-2.0,30.16,1022.0,,,,,,,,,,,,,,,Clear,72000.0,,,73000.0,,,,,,
KRDR,09-27-2012,03:00,METAR,,150,6.0,,,9999.0,,7.0,-2.0,30.15,1021.8,,,,,,,,,,,,,,,Clear,72000.0,,,73000.0,,,,,,
KRDR,09-27-2012,02:00,METAR,,160,6.0,,,9999.0,,9.0,-2.0,30.15,1021.7,,,,,,,,,,,,,,,Clear,72000.0,,,73000.0,,,,,,
KRDR,09-27-2012,01:00,METAR,,140,6.0,,,9999.0,,12.0,-2.0,30.14,1021.3,,,,,,,,,,,,,,,Clear,72000.0,,,73000.0,,,,,,
KRDR,09-27-2012,00:00,METAR,,150,5.0,,,9999.0,,15.0,-1.0,30.14,1021.3,,,,,,,,,,,,,,,Clear,72000.0,,,73000.0,,,,,,
KRDR,09-26-2012,23:00,METAR,,170,4.0,,,9999.0,,18.0,-1.0,30.13,1021.2,,,,,,,,,,,,,,,Clear,72000.0,,,73000.0,,,,,,
KRDR,09-26-2012,22:00,METAR,,,0.0,,,9999.0,,18.0,-1.0,30.13,1021.2,,,,,,,,,,,,,,,Clear,72000.0,,,73000.0,,,,,,
KRDR,09-26-2012,21:00,METAR,,180,4.0,,,9999.0,,18.0,-1.0,30.14,1021.4,,,,,,,,,,,,,,,Clear,72000.0,,,73000.0,,,,,,
KRDR,09-26-2012,20:00,METAR,,,0.0,,,9999.0,,17.0,-1.0,30.15,1021.6,,,,,,,,,,,,,,,Clear,72000.0,,,73000.0,,,,,,
KRDR,09-26-2012,19:00,METAR,,,0.0,,,9999.0,,15.0,0.0,30.15,1021.9,,,,,,,,,,,,,,,Clear,72000.0,,,73000.0,,,,,,
KRDR,09-26-2012,18:00,METAR,,,4.0,,,9999.0,,14.0,1.0,30.18,1022.6,,,,,,,,,,,,,,,Clear,72000.0,,,73000.0,,,,,,
KRDR,09-26-2012,17:00,METAR,,,0.0,,,9999.0,,13.0,1.0,30.18,1022.6,,,,,,,,,,,,,,,Clear,72000.0,,,73000.0,,,,,,
KRDR,09-26-2012,16:00,METAR,,190,3.0,,,9999.0,,11.0,1.0,30.18,1022.8,,,,,,,,,,,,,,,Clear,72000.0,,,73000.0,,,,,,
KRDR,09-26-2012,15:00,METAR,,,0.0,,,9999.0,,8.0,1.0,30.18,1022.6,,,,,,,,,,,,,,,Clear,72000.0,,,73000.0,,,,,,
KRDR,09-26-2012,14:00,METAR,,,0.0,,,9999.0,,3.0,0.0,30.16,1022.2,,,,,,,,,,,,,,,Clear,72000.0,,,73000.0,,,,,,
KRDR,09-26-2012,13:00,METAR,,260,3.0,,,9999.0,,-3.0,-5.0,30.15,1021.8,,,,,,,,,,,,,,,Clear,72000.0,,,73000.0,,,,,,
KRDR,09-26-2012,12:00,METAR,,,0.0,,,9999.0,,-4.0,-6.0,30.13,1021.1,,,,,,,,,,,,,,,Clear,72000.0,,,73000.0,,,,,,
KRDR,09-26-2012,11:00,METAR,,,0.0,,,9999.0,,-5.0,-6.0,30.10,1020.1,,,,,,,,,,,,,,,Clear,72000.0,,,73000.0,,,,,,
KRDR,09-26-2012,10:00,METAR,,,0.0,,,9999.0,,-4.0,-5.0,30.09,1019.7,,,,,,,,,,,,,,,Clear,72000.0,,,73000.0,,,,,,
KRDR,09-26-2012,09:00,METAR,,,0.0,,,9999.0,,-2.0,-5.0,30.08,1019.6,,,,,,,,,,,,,,,Clear,72000.0,,,73000.0,,,,,,
KRDR,09-26-2012,08:00,METAR,,260,3.0,,,9999.0,,-3.0,-5.0,30.08,1019.4,,,,,,,,,,,,,,,Clear,72000.0,,,73000.0,,,,,,
KRDR,09-26-2012,07:00,METAR,,,0.0,,,9999.0,,-2.0,-4.0,30.07,1019.2,,,,,,,,,,,,,,,Clear,72000.0,,,73000.0,,,,,,
KRDR,09-26-2012,06:00,METAR,,330,3.0,,,9999.0,,-1.0,-3.0,30.06,1018.7,,,,,,,,,,,,,,,Clear,72000.0,,,73000.0,,,,,,
KRDR,09-26-2012,05:00,METAR,,290,4.0,,,9999.0,,-1.0,-3.0,30.05,1018.4,,,,,,,,,,,,,,,Clear,72000.0,,,73000.0,,,,,,
KRDR,09-26-2012,04:00,METAR,,,0.0,,,9999.0,,0.0,-3.0,30.04,1018.0,,,,,,,,,,,,,,,Clear,72000.0,,,73000.0,,,,,,
KRDR,09-26-2012,03:00,METAR,,,0.0,,,9999.0,,1.0,-3.0,30.02,1017.4,,,,,,,,,,,,,,,Clear,72000.0,,,73000.0,,,,,,
KRDR,09-26-2012,02:00,METAR,,,0.0,,,9999.0,,5.0,-1.0,30.00,1016.8,,,,,,,,,,,,,,,Clear,72000.0,,,73000.0,,,,,,
KRDR,09-26-2012,01:00,METAR,,40,4.0,,,9999.0,,9.0,0.0,29.99,1016.6,,,,,,,,,,,,,,,Clear,72000.0,,,73000.0,,,,,,
KRDR,09-26-2012,00:00,METAR,,40,7.0,,,9999.0,,12.0,1.0,29.99,1016.4,,,,,,,,,,,,,,,Clear,72000.0,,,73000.0,,,,,,
KRDR,09-25-2012,23:00,METAR,,350,7.0,,,9999.0,,14.0,0.0,29.98,1016.1,,,,,,,,,,,,,,,Clear,72000.0,,,73000.0,,,,,,
KRDR,09-25-2012,22:00,METAR,,10,5.0,,,9999.0,,15.0,0.0,29.97,1015.9,,,,,,,,,,,,,,,Clear,72000.0,,,73000.0,,,,,,
KRDR,09-25-2012,21:00,METAR,,30,6.0,,,9999.0,,15.0,1.0,29.97,1016.0,,,,,,,,,,,,,,,Clear,72000.0,,,73000.0,,,,,,
KRDR,09-25-2012,20:00,METAR,,360,9.0,,,9999.0,,14.0,1.0,29.98,1016.2,,,,,,,,,,,,,,,Clear,72000.0,,,73000.0,,,,,,
KRDR,09-25-2012,19:00,METAR,,30,7.0,,,9999.0,,13.0,1.0,29.99,1016.5,,,,,,,,,,,,,,,Clear,72000.0,,,73000.0,,,,,,
KRDR,09-25-2012,18:00,METAR,,30,10.0,15.0,,9999.0,,13.0,1.0,30.00,1016.7,,,,,,,,,,,,,,,Clear,72000.0,,,73000.0,,,,,,
KRDR,09-25-2012,17:00,METAR,,30,11.0,16.0,,9999.0,,12.0,2.0,30.00,1016.9,,,,,,,,,,,,,,,Clear,72000.0,,,73000.0,,,,,,
KRDR,09-25-2012,16:00,METAR,,30,9.0,,,9999.0,,10.0,2.0,30.00,1016.9,,,,,,,,,,,,,,,Clear,72000.0,,,73000.0,,,,,,
KRDR,09-25-2012,15:00,METAR,,20,9.0,,,9999.0,,8.0,2.0,30.00,1016.7,,,,,,,,,,,,,,,Clear,72000.0,,,73000.0,,,,,,
KRDR,09-25-2012,14:00,METAR,,340,6.0,,,9999.0,,4.0,1.0,29.99,1016.6,,,,,,,,,,,,,,,Clear,72000.0,,,73000.0,,,,,,
KRDR,09-25-2012,13:00,METAR,,330,5.0,,,9999.0,,-1.0,-2.0,29.98,1016.1,,,,,,,,,,,,,,,Clear,72000.0,,,73000.0,,,,,,
KRDR,09-25-2012,12:00,METAR,,340,4.0,,,9999.0,,-1.0,-2.0,29.97,1015.8,,,,,,,,,,,,,,,Clear,72000.0,,,73000.0,,,,,,
KRDR,09-25-2012,11:00,METAR,,320,4.0,,,9999.0,,-2.0,-3.0,29.96,1015.4,,,,,,,,,,,,,,,Clear,72000.0,,,73000.0,,,,,,
KRDR,09-25-2012,10:00,METAR,,330,4.0,,,9999.0,,0.0,-2.0,29.95,1015.2,,,,,,,,,,,,,,,Clear,72000.0,,,73000.0,,,,,,
KRDR,09-25-2012,09:00,METAR,,340,4.0,,,9999.0,,0.0,-2.0,29.94,1015.0,,,,,,,,,,,,,,,Clear,72000.0,,,73000.0,,,,,,
KRDR,09-25-2012,08:00,METAR,,330,5.0,,,9999.0,,0.0,-2.0,29.94,1014.9,,,,,,,,,,,,,,,Clear,72000.0,,,73000.0,,,,,,
KRDR,09-25-2012,07:00,METAR,,330,4.0,,,9999.0,,0.0,-2.0,29.94,1014.7,,,,,,,,,,,,,,,Clear,72000.0,,,73000.0,,,,,,
KRDR,09-25-2012,06:00,METAR,,320,3.0,,,9999.0,,1.0,-2.0,29.92,1014.3,,,,,,,,,,,,,,,Clear,72000.0,,,73000.0,,,,,,
KRDR,09-25-2012,05:00,METAR,,350,3.0,,,9999.0,,2.0,-1.0,29.91,1014.0,,,,,,,,,,,,,,,Clear,72000.0,,,73000.0,,,,,,
KRDR,09-25-2012,04:00,METAR,,20,4.0,,,9999.0,,5.0,0.0,29.90,1013.6,,,,,,,,,,,,,,,Clear,72000.0,,,73000.0,,,,,,
KRDR,09-25-2012,03:00,METAR,,60,8.0,,,9999.0,,9.0,1.0,29.88,1013.0,,,,,,,,,,,,,,,Clear,72000.0,,,73000.0,,,,,,
KRDR,09-25-2012,02:00,METAR,,40,8.0,,,9999.0,,9.0,1.0,29.87,1012.5,,,,,,,,,,,,,,,Clear,72000.0,,,73000.0,,,,,,
KRDR,09-25-2012,01:00,METAR,,30,9.0,,,9999.0,,12.0,1.0,29.85,1011.8,,,,,,,,,,,,,,,Clear,72000.0,,,73000.0,,,,,,
KRDR,09-25-2012,00:00,METAR,,30,12.0,,,9999.0,,16.0,1.0,29.83,1011.4,,,,,,,,,,,,,,,Clear,72000.0,,,73000.0,,,,,,
KRDR,09-24-2012,23:00,METAR,,20,17.0,22.0,,9999.0,,19.0,2.0,29.81,1010.6,,,,,,,,,,,,,,,Clear,72000.0,,,73000.0,,,,,,
KRDR,09-24-2012,22:00,METAR,,30,17.0,24.0,,9999.0,,21.0,2.0,29.78,1009.7,,,,,,,,,,,,,,,Clear,72000.0,,,73000.0,,,,,,
KRDR,09-24-2012,21:00,METAR,,350,14.0,20.0,,9999.0,,23.0,7.0,29.78,1009.4,,,,,,,,,,,,,,,Clear,72000.0,,,73000.0,,,,,,
KRDR,09-24-2012,20:00,METAR,,10,15.0,21.0,,9999.0,,23.0,5.0,29.78,1009.5,,,,,,,,,,,,,,,Clear,72000.0,,,73000.0,,,,,,
KRDR,09-24-2012,19:00,METAR,,360,10.0,,,9999.0,,23.0,4.0,29.78,1009.5,,,,,,,,,,,,,,,Clear,72000.0,,,73000.0,,,,,,
KRDR,09-24-2012,18:00,METAR,,340,10.0,16.0,,9999.0,,23.0,2.0,29.79,1009.8,,,,,,,,,,,,,,,Clear,72000.0,,,73000.0,,,,,,
KRDR,09-24-2012,17:00,METAR,,330,14.0,,,9999.0,,22.0,2.0,29.78,1009.7,,,,,,,,,,,,,,,Clear,72000.0,,,73000.0,,,,,,
KRDR,09-24-2012,16:00,METAR,,310,14.0,18.0,,9999.0,,21.0,1.0,29.78,1009.6,,,,,,,,,,,,,,,Clear,72000.0,,,73000.0,,,,,,
KRDR,09-24-2012,15:00,METAR,,290,11.0,18.0,,9999.0,,17.0,0.0,29.79,1009.9,,,,,,,,,,,,,,,Clear,72000.0,,,73000.0,,,,,,
KRDR,09-24-2012,14:00,METAR,,260,14.0,,,9999.0,,13.0,-2.0,29.80,1010.1,,,,,,,,,,,,,,,Clear,72000.0,,,73000.0,,,,,,
KRDR,09-24-2012,13:00,METAR,,260,13.0,20.0,,9999.0,,11.0,-3.0,29.81,1010.5,,,,,,,,,,,,,,,Clear,72000.0,,,73000.0,,,,,,
KRDR,09-24-2012,12:00,METAR,,260,13.0,20.0,,9999.0,,12.0,-4.0,29.83,1011.1,,,,,,,,,,,,,,,Clear,72000.0,,,73000.0,,,,,,
KRDR,09-24-2012,11:00,METAR,,260,14.0,21.0,,9999.0,,11.0,-4.0,29.85,1011.7,,,,,,,,,,,,,,,Clear,72000.0,,,73000.0,,,,,,
KRDR,09-24-2012,10:00,METAR,,250,11.0,19.0,,9999.0,,11.0,-4.0,29.88,1012.8,,,,,,,,,,,,,,,Clear,72000.0,,,73000.0,,,,,,
KRDR,09-24-2012,09:00,METAR,,250,11.0,,,9999.0,,11.0,-4.0,29.90,1013.7,,,,,,,,,,,,,,,Clear,72000.0,,,73000.0,,,,,,
KRDR,09-24-2012,08:00,METAR,,230,6.0,,,9999.0,,9.0,-4.0,29.94,1014.9,,,,,,,,,,,,,,,Clear,72000.0,,,73000.0,,,,,,
KRDR,09-24-2012,07:00,METAR,,230,10.0,,,9999.0,,9.0,-5.0,29.96,1015.6,,,,,,,,,,,,,,,Clear,72000.0,,,73000.0,,,,,,
KRDR,09-24-2012,06:00,METAR,,240,7.0,,,9999.0,,8.0,-5.0,29.99,1016.4,,,,,,,,,,,,,,,Clear,72000.0,,,73000.0,,,,,,
KRDR,09-24-2012,05:00,METAR,,230,7.0,,,9999.0,,7.0,-5.0,30.02,1017.4,,,,,,,,,,,,,,,Clear,72000.0,,,73000.0,,,,,,
KRDR,09-24-2012,04:00,METAR,,230,5.0,,,9999.0,,6.0,-5.0,30.05,1018.5,,,,,,,,,,,,,,,Clear,72000.0,,,73000.0,,,,,,
KRDR,09-24-2012,03:00,METAR,,230,7.0,,,9999.0,,5.0,-5.0,30.06,1018.8,,,,,,,,,,,,,,,Clear,72000.0,,,73000.0,,,,,,
KRDR,09-24-2012,02:00,METAR,,220,5.0,,,9999.0,,6.0,-5.0,30.09,1019.8,,,,,,,,,,,,,,,Clear,72000.0,,,73000.0,,,,,,
KRDR,09-24-2012,01:00,METAR,,210,3.0,,,9999.0,,9.0,-5.0,30.11,1020.4,,,,,,,,,,,,,,,Clear,72000.0,,,73000.0,,,,,,
KRDR,09-24-2012,00:00,METAR,,260,6.0,,,9999.0,,15.0,-7.0,30.12,1020.9,,,,,,,,,,,,,,,Clear,72000.0,,,73000.0,,,,,,
KRDR,09-23-2012,23:00,METAR,,250,5.0,,,9999.0,,17.0,-6.0,30.15,1021.7,,,,,,,,,,,,,,,Clear,72000.0,,,73000.0,,,,,,
KRDR,09-23-2012,22:00,METAR,,290,6.0,,,9999.0,,17.0,-6.0,30.17,1022.4,,,,,,,,,,,,,,,Clear,72000.0,,,73000.0,,,,,,
KRDR,09-23-2012,21:00,METAR,,240,5.0,,,9999.0,,17.0,-5.0,30.20,1023.4,,,,,,,,,,,,,,,Clear,72000.0,,,73000.0,,,,,,
KRDR,09-23-2012,20:00,METAR,,270,6.0,,,9999.0,,16.0,-4.0,30.23,1024.6,,,,,,,,,,,,,,,Clear,72000.0,,,73000.0,,,,,,
KRDR,09-23-2012,19:00,METAR,,,4.0,,,9999.0,,15.0,-4.0,30.26,1025.5,,,,,,,,,,,,,,,Clear,72000.0,,,73000.0,,,,,,
KRDR,09-23-2012,18:00,METAR,,270,5.0,,,9999.0,,14.0,-3.0,30.29,1026.4,,,,,,,,,,,,,,,Clear,72000.0,,,73000.0,,,,,,
KRDR,09-23-2012,17:00,METAR,,,0.0,,,9999.0,,11.0,-2.0,30.31,1026.9,,,,,,,,,,,,,,,Clear,72000.0,,,73000.0,,,,,,
KRDR,09-23-2012,16:00,METAR,,,0.0,,,9999.0,,9.0,0.0,30.31,1027.2,,,,,,,,,,,,,,,Clear,72000.0,,,73000.0,,,,,,
KRDR,09-23-2012,15:00,METAR,,,0.0,,,9999.0,,6.0,-1.0,30.32,1027.4,,,,,,,,,,,,,,,Clear,72000.0,,,73000.0,,,,,,
KRDR,09-23-2012,14:00,METAR,,,0.0,,,9999.0,,2.0,-2.0,30.32,1027.5,,,,,,,,,,,,,,,Clear,72000.0,,,73000.0,,,,,,
KRDR,09-23-2012,13:00,METAR,,300,3.0,,,9999.0,,-5.0,-7.0,30.32,1027.3,,,,,,,,,,,,,,,Clear,72000.0,,,73000.0,,,,,,
KRDR,09-23-2012,12:00,METAR,,,0.0,,,9999.0,,-6.0,-8.0,30.31,1027.0,,,,,,,,,,,,,,,Clear,72000.0,,,73000.0,,,,,,
KRDR,09-23-2012,11:00,METAR,,330,3.0,,,9999.0,,-5.0,-7.0,30.30,1026.8,,,,,,,,,,,,,,,Clear,72000.0,,,73000.0,,,,,,
KRDR,09-23-2012,10:00,METAR,,350,3.0,,,9999.0,,-3.0,-6.0,30.30,1026.6,,,,,,,,,,,,,,,Clear,72000.0,,,73000.0,,,,,,
KRDR,09-23-2012,09:00,METAR,,270,4.0,,,9999.0,,-4.0,-6.0,30.29,1026.5,,,,,,,,,,,,,,,Clear,72000.0,,,73000.0,,,,,,
KRDR,09-23-2012,08:00,METAR,,270,3.0,,,9999.0,,-4.0,-6.0,30.29,1026.4,,,,,,,,,,,,,,,Clear,72000.0,,,73000.0,,,,,,
KRDR,09-23-2012,07:00,METAR,,,0.0,,,9999.0,,-3.0,-5.0,30.29,1026.3,,,,,,,,,,,,,,,Clear,72000.0,,,73000.0,,,,,,
KRDR,09-23-2012,06:00,METAR,,260,3.0,,,9999.0,,-3.0,-5.0,30.29,1026.2,,,,,,,,,,,,,,,Clear,72000.0,,,73000.0,,,,,,
KRDR,09-23-2012,05:00,METAR,,,0.0,,,9999.0,,-2.0,-5.0,30.28,1026.1,,,,,,,,,,,,,,,Clear,72000.0,,,73000.0,,,,,,
KRDR,09-23-2012,04:00,METAR,,250,3.0,,,9999.0,,-1.0,-5.0,30.28,1026.0,,,,,,,,,,,,,,,Clear,72000.0,,,73000.0,,,,,,
KRDR,09-23-2012,03:00,METAR,,270,3.0,,,9999.0,,0.0,-4.0,30.28,1026.0,,,,,,,,,,,,,,,Clear,72000.0,,,73000.0,,,,,,
KRDR,09-23-2012,02:00,METAR,,310,3.0,,,9999.0,,1.0,-4.0,30.27,1025.6,,,,,,,,,,,,,,,Clear,72000.0,,,73000.0,,,,,,
KRDR,09-23-2012,01:00,METAR,,,0.0,,,9999.0,,6.0,-2.0,30.26,1025.4,,,,,,,,,,,,,,,Clear,72000.0,,,73000.0,,,,,,
KRDR,09-23-2012,00:00,METAR,,360,5.0,,,9999.0,,11.0,-3.0,30.26,1025.6,,,,,,,,,,,,,,,Clear,72000.0,,,73000.0,,,,,,
KRDR,09-22-2012,23:00,METAR,,360,9.0,,,9999.0,,12.0,-3.0,30.27,1025.8,,,,,,,,,,,,,,,Clear,72000.0,,,73000.0,,,,,,
KRDR,09-22-2012,22:00,METAR,,330,12.0,,,9999.0,,13.0,-3.0,30.27,1025.9,,,,,,,,,,,,,,,2/8 Mostly Clear,72000.0,,FEW,5900.0,,,,,,
KRDR,09-22-2012,21:00,METAR,,20,9.0,17.0,,9999.0,,13.0,-2.0,30.29,1026.2,,,,,,,,,,,,,,,4/8 Partly Cloudy,72000.0,,SCT,5000.0,,,,,,
KRDR,09-22-2012,20:00,METAR,,10,12.0,,,9999.0,,12.0,-1.0,30.30,1026.6,,,,,,,,,,,,,,,7/8 Mostly Cloudy,4900.0,,BKN,5000.0,,,,,,
KRDR,09-22-2012,19:00,METAR,,350,12.0,17.0,,9999.0,,11.0,-2.0,30.31,1027.0,,,,,,,,,,,,,,,4/8 Partly Cloudy,72000.0,,SCT,4800.0,,,,,,
KRDR,09-22-2012,18:00,METAR,,10,13.0,20.0,,9999.0,,12.0,-1.0,30.32,1027.4,,,,,,,,,,,,,,,4/8 Partly Cloudy,72000.0,,SCT,4200.0,,,,,,
KRDR,09-22-2012,17:00,METAR,,350,14.0,19.0,,9999.0,,10.0,-1.0,30.32,1027.5,,,,,,,,,,,,,,,7/8 Mostly Cloudy,3600.0,,BKN,3700.0,,,,,,
KRDR,09-22-2012,16:00,METAR,,10,10.0,17.0,,9999.0,,9.0,-1.0,30.32,1027.5,,,,,,,,,,,,,,,Clear,72000.0,,,73000.0,,,,,,
KRDR,09-22-2012,15:00,METAR,,350,11.0,,,9999.0,,6.0,-1.0,30.33,1027.7,,,,,,,,,,,,,,,Clear,72000.0,,,73000.0,,,,,,
KRDR,09-22-2012,14:00,METAR,,340,10.0,,,9999.0,,3.0,-2.0,30.32,1027.2,,,,,,,,,,,,,,,Clear,72000.0,,,73000.0,,,,,,
KRDR,09-22-2012,13:00,METAR,,340,8.0,,,9999.0,,0.0,-3.0,30.30,1026.7,,,,,,,,,,,,,,,Clear,72000.0,,,73000.0,,,,,,
KRDR,09-22-2012,12:00,METAR,,340,7.0,,,9999.0,,0.0,-3.0,30.28,1025.9,,,,,,,,,,,,,,,Clear,72000.0,,,73000.0,,,,,,
KRDR,09-22-2012,11:00,METAR,,340,6.0,,,9999.0,,0.0,-2.0,30.25,1025.2,,,,,,,,,,,,,,,Clear,72000.0,,,73000.0,,,,,,
KRDR,09-22-2012,10:00,METAR,,330,7.0,,,9999.0,,0.0,-3.0,30.23,1024.5,,,,,,,,,,,,,,,Clear,72000.0,,,73000.0,,,,,,
KRDR,09-22-2012,09:00,METAR,,340,6.0,,,9999.0,,1.0,-2.0,30.21,1023.6,,,,,,,,,,,,,,,Clear,72000.0,,,73000.0,,,,,,
KRDR,09-22-2012,08:00,METAR,,360,7.0,,,9999.0,,2.0,-2.0,30.18,1022.9,,,,,,,,,,,,,,,Clear,72000.0,,,73000.0,,,,,,
KRDR,09-22-2012,07:00,METAR,,360,9.0,,,9999.0,,4.0,-2.0,30.16,1022.0,,,,,,,,,,,,,,,Clear,72000.0,,,73000.0,,,,,,
KRDR,09-22-2012,06:00,METAR,,10,13.0,,,9999.0,,4.0,-2.0,30.13,1021.2,,,,,,,,,,,,,,,Clear,72000.0,,,73000.0,,,,,,
KRDR,09-22-2012,05:00,METAR,,360,12.0,19.0,,9999.0,,4.0,-3.0,30.12,1020.7,,,,,,,,,,,,,,,2/8 Mostly Clear,72000.0,,FEW,3500.0,,,,,,
KRDR,09-22-2012,04:00,METAR,,10,16.0,21.0,,9999.0,,5.0,-4.0,30.11,1020.3,,,,,,,,,,,,,,,Clear,72000.0,,,73000.0,,,,,,
KRDR,09-22-2012,03:00,METAR,,350,13.0,20.0,,9999.0,,5.0,-4.0,30.08,1019.6,,,,,,,,,,,,,,,Clear,72000.0,,,73000.0,,,,,,
KRDR,09-22-2012,02:00,METAR,,350,14.0,22.0,,9999.0,,5.0,-4.0,30.06,1018.9,,,,,,,,,,,,,,,Clear,72000.0,,,73000.0,,,,,,
KRDR,09-22-2012,01:00,METAR,,10,14.0,27.0,020/28KTS,9999.0,,6.0,-6.0,30.04,1018.1,,,,,,,,,,,,,,,Clear,72000.0,,,73000.0,,,,,,
KRDR,09-22-2012,00:00,METAR,,10,18.0,27.0,020/37KTS,9999.0,,7.0,-4.0,30.00,1016.7,,,,,,,,,,,,,TRACE,,Clear,72000.0,,,73000.0,,,,,,
KRDR,09-21-2012,23:00,METAR,,20,26.0,37.0,360/37KTS,9999.0,,9.0,-3.0,29.95,1015.3,,,,,,,,,,,,,,,8/8 Overcast,6000.0,,FEW,4400.0,BKN,5900.0,OVC,7900.0,,
KRDR,09-21-2012,22:00,METAR,,10,20.0,31.0,010/42KTS,9999.0,,11.0,1.0,29.91,1014.0,,,,,,,,,,,TRACE,,,,4/8 Partly Cloudy,72000.0,,FEW,6900.0,SCT,8900.0,,,,
KRDR,09-21-2012,21:18,SPECI,,20,24.0,33.0,010/42KTS,9999.0,,9.0,5.0,29.89,1013.2,,,,,,,,,,,,,,,4/8 Partly Cloudy,72000.0,,SCT,6900.0,,,,,,
KRDR,09-21-2012,21:00,SPECI,,20,29.0,39.0,010/39KTS,9999.0,Light Rain,14.0,4.0,29.87,1012.5,61,,,,,,,,,,,,,,7/8 Mostly Cloudy,6000.0,,SCT,6900.0,BKN,7900.0,,,,
KRDR,09-21-2012,21:00,METAR,,360,21.0,29.0,330/35KTS,9999.0,,15.0,0.0,29.84,1011.5,,,,,,,,,,,TRACE,0 IN,,,7/8 Mostly Cloudy,8000.0,,BKN,7900.0,,,,,,
KRDR,09-21-2012,20:46,SPECI,,360,20.0,33.0,330/35KTS,9999.0,,15.0,-1.0,29.83,1011.4,,,,,,,,,,,,,,,4/8 Partly Cloudy,72000.0,,SCT,7900.0,,,,,,
KRDR,09-21-2012,20:36,SPECI,,340,25.0,35.0,330/35KTS,9999.0,Light Rain,16.0,-2.0,29.84,1011.6,61,,,,,,,,,,,,,,4/8 Partly Cloudy,72000.0,,FEW,7900.0,SCT,8900.0,,,,
KRDR,09-21-2012,20:00,METAR,,330,13.0,29.0,310/29KTS,9999.0,,17.0,-2.0,29.83,1011.4,,,,,,,,,,,,,,,4/8 Partly Cloudy,72000.0,,FEW,7900.0,SCT,9900.0,,,,
KRDR,09-21-2012,19:00,METAR,,320,15.0,23.0,,9999.0,,17.0,-1.0,29.85,1012.0,,,,,,,,,,,,,,,7/8 Mostly Cloudy,10000.0,,FEW,5900.0,BKN,9900.0,,,,
KRDR,09-21-2012,18:00,METAR,,330,12.0,21.0,,9999.0,,16.0,0.0,29.87,1012.6,,,,,,,,,,,,,,,Clear,72000.0,,,73000.0,,,,,,
KRDR,09-21-2012,17:00,METAR,,310,10.0,,,9999.0,,15.0,2.0,29.89,1013.1,,,,,,,,,,,,,,,Clear,72000.0,,,73000.0,,,,,,
KRDR,09-21-2012,16:00,METAR,,330,8.0,,,9999.0,,12.0,4.0,29.91,1013.7,,,,,,,,,,,,,,,Clear,72000.0,,,73000.0,,,,,,
KRDR,09-21-2012,15:00,METAR,,320,6.0,,,9999.0,,10.0,5.0,29.91,1013.7,,,,,,,,,,,,,,,Clear,72000.0,,,73000.0,,,,,,
KRDR,09-21-2012,14:00,METAR,,330,6.0,,,9999.0,,7.0,4.0,29.91,1013.8,,,,,,,,,,,,,,,Clear,72000.0,,,73000.0,,,,,,
KRDR,09-21-2012,13:00,METAR,,340,6.0,,,9999.0,,4.0,2.0,29.90,1013.7,,,,,,,,,,,,,,,Clear,72000.0,,,73000.0,,,,,,
KRDR,09-21-2012,12:00,METAR,,320,5.0,,,9999.0,,3.0,2.0,29.89,1013.1,,,,,,,,,,,,,.01 IN,.01 IN,4/8 Partly Cloudy,72000.0,,SCT,6900.0,,,,,,
KRDR,09-21-2012,11:00,METAR,,350,3.0,,,9999.0,,4.0,3.0,29.87,1012.7,,,,,,,,,,,,,,,Clear,72000.0,,,73000.0,,,,,,
KRDR,09-21-2012,10:00,METAR,,300,4.0,,,9999.0,,6.0,5.0,29.86,1012.3,,,,,,,,,,,,,,,7/8 Mostly Cloudy,8000.0,,BKN,7900.0,,,,,,
KRDR,09-21-2012,09:00,METAR,,290,4.0,,,9999.0,,7.0,5.0,29.87,1012.6,,,,,,,,,,,.01 IN,.01 IN,,,7/8 Mostly Cloudy,9000.0,,BKN,8900.0,BKN,12000.0,,,,
KRDR,09-21-2012,08:07,SPECI,,310,4.0,,,9999.0,,7.0,5.0,29.87,1012.5,,,,,,,,,,,,,,,7/8 Mostly Cloudy,8000.0,,FEW,3300.0,BKN,7900.0,,,,
KRDR,09-21-2012,08:00,METAR,,310,3.0,,,9999.0,Light Rain,8.0,5.0,29.87,1012.7,61,,,,,,,,,,TRACE,,,,7/8 Mostly Cloudy,3700.0,,FEW,2500.0,BKN,3800.0,,,,
KRDR,09-21-2012,07:00,METAR,,360,5.0,,,9999.0,,8.0,5.0,29.87,1012.6,,,,,,,,,,,,,,,Clear,6000.0,,,73000.0,,,,,,
KRDR,09-21-2012,06:54,SPECI,,350,4.0,,,9999.0,,8.0,5.0,29.87,1012.6,,,,,,,,,,,,,,,Clear,6000.0,,,73000.0,,,,,,
KRDR,09-21-2012,06:00,METAR,,,0.0,,,9999.0,,7.0,5.0,29.86,1012.2,,,,,,,,,,,,,TRACE,,4/8 Partly Cloudy,72000.0,,SCT,7900.0,SCT,12000.0,,,,
KRDR,09-21-2012,05:00,METAR,,280,5.0,,,9999.0,,8.0,5.0,29.87,1012.5,,,,,,,,,,,,,,,8/8 Overcast,7000.0,,OVC,6900.0,,,,,,
KRDR,09-21-2012,04:00,METAR,,80,3.0,,,9999.0,,10.0,5.0,29.85,1012.0,,,,,,,,,,,,,,,8/8 Overcast,8000.0,,BKN,7900.0,OVC,8900.0,,,,
KRDR,09-21-2012,03:00,METAR,,270,4.0,,,9999.0,,8.0,5.0,29.85,1011.9,,,,,,,,,,,,TRACE,,,7/8 Mostly Cloudy,9000.0,,SCT,8900.0,BKN,12000.0,,,,
KRDR,09-21-2012,02:00,METAR,,,0.0,,,9999.0,,10.0,6.0,29.85,1012.0,,,,,,,,,,,TRACE,,,,4/8 Partly Cloudy,72000.0,,SCT,6900.0,,,,,,
KRDR,09-21-2012,01:12,SPECI,,350,4.0,,,9999.0,,11.0,5.0,29.86,1012.3,,,,,,,,,,,,,,,7/8 Mostly Cloudy,8000.0,,FEW,2900.0,BKN,7900.0,,,,
KRDR,09-21-2012,01:00,METAR,,350,5.0,,,9999.0,,11.0,6.0,29.87,1012.7,,,,,,,,,,,TRACE,,,,4/8 Partly Cloudy,72000.0,,FEW,3200.0,SCT,3900.0,,,,
KRDR,09-21-2012,00:00,METAR,,340,10.0,17.0,,9999.0,Light Rain,13.0,3.0,29.88,1012.8,61,,,,,,,,,,TRACE,,TRACE,,8/8 Overcast,4500.0,,FEW,3300.0,BKN,4600.0,OVC,5900.0,,
KRDR,09-20-2012,23:01,SPECI,,10,11.0,19.0,,9999.0,Light Rain,16.0,2.0,29.85,1012.0,61,,,,,,,,,,,,,,4/8 Partly Cloudy,72000.0,,FEW,4400.0,SCT,6900.0,,,,
KRDR,09-20-2012,23:00,METAR,,340,11.0,,,9999.0,,16.0,1.0,29.84,1011.6,,,,,,,,,,,,,,,Clear,6000.0,,,73000.0,,,,,,
KRDR,09-20-2012,22:00,METAR,,320,11.0,,,9999.0,,17.0,1.0,29.83,1011.4,,,,,,,,,,,,,,,4/8 Partly Cloudy,72000.0,,SCT,6900.0,SCT,11000.0,,,,
KRDR,09-20-2012,21:00,METAR,,310,14.0,,,9999.0,,17.0,1.0,29.84,1011.7,,,,,,,,,,,,,,,7/8 Mostly Cloudy,7000.0,,BKN,6900.0,BKN,7900.0,,,,
KRDR,09-20-2012,20:00,METAR,,320,14.0,19.0,,9999.0,,17.0,1.0,29.86,1012.4,,,,,,,,,,,,,,,7/8 Mostly Cloudy,7000.0,,SCT,6900.0,BKN,8900.0,,,,
KRDR,09-20-2012,19:00,METAR,,310,13.0,19.0,,9999.0,,17.0,1.0,29.88,1012.9,,,,,,,,,,,,,,,4/8 Partly Cloudy,72000.0,,FEW,5900.0,SCT,12000.0,,,,
KRDR,09-20-2012,18:00,METAR,,320,12.0,,,9999.0,,17.0,1.0,29.89,1013.3,,,,,,,,,,,,,,,2/8 Mostly Clear,72000.0,,FEW,11000.0,,,,,,
KRDR,09-20-2012,17:00,METAR,,300,14.0,20.0,,9999.0,,16.0,1.0,29.91,1013.9,,,,,,,,,,,,,,,7/8 Mostly Cloudy,10000.0,,BKN,9900.0,,,,,,
KRDR,09-20-2012,16:00,METAR,,290,7.0,,,9999.0,,15.0,1.0,29.92,1014.4,,,,,,,,,,,,,,,7/8 Mostly Cloudy,12000.0,,FEW,8900.0,BKN,12000.0,,,,
KRDR,09-20-2012,15:00,METAR,,290,7.0,,,9999.0,,11.0,0.0,29.93,1014.5,,,,,,,,,,,,,,,8/8 Overcast,11000.0,,OVC,11000.0,,,,,,
KRDR,09-20-2012,14:00,METAR,,290,6.0,,,9999.0,,8.0,0.0,29.93,1014.5,,,,,,,,,,,,,,,Clear,72000.0,,,73000.0,,,,,,
KRDR,09-20-2012,13:00,METAR,,300,7.0,,,9999.0,,5.0,-1.0,29.94,1014.7,,,,,,,,,,,,,,,4/8 Partly Cloudy,72000.0,,SCT,12000.0,,,,,,
KRDR,09-20-2012,12:00,METAR,,290,7.0,,,9999.0,,5.0,-1.0,29.93,1014.6,,,,,,,,,,,,,,,2/8 Mostly Clear,72000.0,,FEW,12000.0,,,,,,
KRDR,09-20-2012,11:00,METAR,,300,7.0,,,9999.0,,6.0,-1.0,29.92,1014.2,,,,,,,,,,,,,,,Clear,72000.0,,,73000.0,,,,,,
KRDR,09-20-2012,10:00,METAR,,290,8.0,,,9999.0,,6.0,-1.0,29.91,1013.9,,,,,,,,,,,,,,,Clear,72000.0,,,73000.0,,,,,,
KRDR,09-20-2012,09:00,METAR,,280,7.0,,,9999.0,,7.0,0.0,29.90,1013.5,,,,,,,,,,,,,,,7/8 Mostly Cloudy,12000.0,,BKN,12000.0,,,,,,
KRDR,09-20-2012,08:00,METAR,,280,8.0,,,9999.0,,7.0,0.0,29.90,1013.5,,,,,,,,,,,,,,,Clear,72000.0,,,73000.0,,,,,,
KRDR,09-20-2012,07:00,METAR,,280,8.0,,,9999.0,,8.0,1.0,29.90,1013.5,,,,,,,,,,,,,,,Clear,72000.0,,,73000.0,,,,,,
KRDR,09-20-2012,06:00,METAR,,280,8.0,,,9999.0,,7.0,1.0,29.89,1013.4,,,,,,,,,,,,,,,Clear,72000.0,,,73000.0,,,,,,
KRDR,09-20-2012,05:00,METAR,,300,6.0,,,9999.0,,6.0,1.0,29.90,1013.4,,,,,,,,,,,,,,,Clear,72000.0,,,73000.0,,,,,,
KRDR,09-20-2012,04:00,METAR,,350,7.0,,,9999.0,,8.0,1.0,29.89,1013.2,,,,,,,,,,,,,,,Clear,72000.0,,,73000.0,,,,,,
KRDR,09-20-2012,03:00,METAR,,340,5.0,,,9999.0,,8.0,1.0,29.88,1013.0,,,,,,,,,,,,,,,Clear,72000.0,,,73000.0,,,,,,
KRDR,09-20-2012,02:00,METAR,,360,3.0,,,9999.0,,8.0,1.0,29.86,1012.2,,,,,,,,,,,,,,,Clear,72000.0,,,73000.0,,,,,,
KRDR,09-20-2012,01:00,METAR,,10,4.0,,,9999.0,,13.0,2.0,29.84,1011.4,,,,,,,,,,,,,,,8/8 Overcast,8000.0,,OVC,7900.0,,,,,,
KRDR,09-20-2012,00:11,SPECI,,20,10.0,,,9999.0,,15.0,2.0,29.83,1011.2,,,,,,,,,,,,,,,8/8 Overcast,8000.0,,OVC,7900.0,,,,,,
KRDR,09-20-2012,00:00,METAR,,340,17.0,24.0,350/27KTS,9999.0,,17.0,-1.0,29.81,1010.7,,,,,,,,,,,,,TRACE,,8/8 Overcast,8000.0,,OVC,7900.0,,,,,,
KRDR,09-19-2012,23:00,METAR,,340,20.0,27.0,320/30KTS,9999.0,,18.0,-1.0,29.79,1010.0,,,,,,,,,,,,,,,7/8 Mostly Cloudy,7000.0,,BKN,6900.0,,,,,,
KRDR,09-19-2012,22:00,METAR,,330,22.0,27.0,330/31KTS,9999.0,,18.0,0.0,29.77,1009.4,,,,,,,,,,,,,,,7/8 Mostly Cloudy,7000.0,,BKN,6900.0,,,,,,
KRDR,09-19-2012,21:00,METAR,,330,19.0,28.0,320/30KTS,9999.0,,17.0,0.0,29.77,1009.1,,,,,,,,,,,,TRACE,,,7/8 Mostly Cloudy,7000.0,,BKN,6900.0,,,,,,
KRDR,09-19-2012,20:00,METAR,,320,17.0,27.0,320/30KTS,9999.0,,17.0,2.0,29.75,1008.7,,,,,,,,,,,,,,,7/8 Mostly Cloudy,6000.0,,BKN,5900.0,,,,,,
KRDR,09-19-2012,19:00,METAR,,330,23.0,30.0,340/30KTS,9999.0,,15.0,3.0,29.75,1008.6,,,,,,,,,,,TRACE,,,,8/8 Overcast,4900.0,,OVC,5000.0,,,,,,
KRDR,09-19-2012,18:23,SPECI,,320,20.0,26.0,340/26KTS,9999.0,,15.0,4.0,29.74,1008.3,,,,,,,,,,,,,,,8/8 Overcast,4800.0,,OVC,4900.0,,,,,,
KRDR,09-19-2012,18:11,SPECI,,330,19.0,24.0,320/26KTS,9999.0,,15.0,4.0,29.74,1008.3,,,,,,,,,,,,,,,8/8 Overcast,4600.0,,OVC,4700.0,,,,,,
KRDR,09-19-2012,18:00,METAR,,330,23.0,29.0,340/32KTS,9999.0,,15.0,4.0,29.73,1008.1,,,,,,,,,,,,,,,8/8 Overcast,4700.0,,BKN,4800.0,OVC,5900.0,,,,
KRDR,09-19-2012,17:00,METAR,,340,20.0,29.0,330/33KTS,9999.0,,17.0,4.0,29.70,1007.0,,,,,,,,,,,,,,,4/8 Partly Cloudy,72000.0,,FEW,4500.0,SCT,6900.0,,,,
KRDR,09-19-2012,16:00,METAR,,330,22.0,33.0,330/33KTS,9999.0,,16.0,5.0,29.68,1006.3,,,,,,,,,,,,,,,4/8 Partly Cloudy,72000.0,,SCT,6900.0,,,,,,
KRDR,09-19-2012,15:00,METAR,,330,18.0,31.0,310/31KTS,9999.0,,15.0,6.0,29.66,1005.7,,,,,,,,,,,,,,,8/8 Overcast,6000.0,,OVC,5900.0,,,,,,
KRDR,09-19-2012,14:00,METAR,,320,19.0,29.0,330/29KTS,9999.0,,14.0,6.0,29.63,1004.8,,,,,,,,,,,,,,,4/8 Partly Cloudy,72000.0,,SCT,5000.0,,,,,,
KRDR,09-19-2012,13:00,METAR,,310,15.0,22.0,,9999.0,,13.0,6.0,29.61,1004.1,,,,,,,,,,,,,,,2/8 Mostly Clear,72000.0,,FEW,5000.0,,,,,,
KRDR,09-19-2012,12:00,METAR,,310,13.0,21.0,,9999.0,,14.0,6.0,29.60,1003.6,,,,,,,,,,,,,,,Clear,72000.0,,,73000.0,,,,,,
KRDR,09-19-2012,11:00,METAR,,310,14.0,22.0,,9999.0,,15.0,6.0,29.58,1002.9,,,,,,,,,,,,,,,Clear,72000.0,,,73000.0,,,,,,
KRDR,09-19-2012,10:00,METAR,,300,14.0,20.0,,9999.0,,16.0,6.0,29.56,1002.3,,,,,,,,,,,,,,,Clear,72000.0,,,73000.0,,,,,,
KRDR,09-19-2012,09:00,METAR,,300,16.0,23.0,,9999.0,,17.0,5.0,29.55,1002.1,,,,,,,,,,,,,,,Clear,72000.0,,,73000.0,,,,,,
KRDR,09-19-2012,08:00,METAR,,280,11.0,,,9999.0,,16.0,5.0,29.55,1001.8,,,,,,,,,,,,,,,Clear,72000.0,,,73000.0,,,,,,
KRDR,09-19-2012,07:00,METAR,,250,8.0,,,9999.0,,13.0,3.0,29.54,1001.7,,,,,,,,,,,,,,,2/8 Mostly Clear,72000.0,,FEW,12000.0,,,,,,
KRDR,09-19-2012,06:00,METAR,,200,12.0,,,9999.0,,13.0,3.0,29.55,1002.2,,,,,,,,,,,,,,,4/8 Partly Cloudy,72000.0,,SCT,12000.0,,,,,,
KRDR,09-19-2012,05:00,METAR,,180,16.0,,,9999.0,,12.0,1.0,29.58,1003.1,,,,,,,,,,,,,,,2/8 Mostly Clear,72000.0,,FEW,11000.0,,,,,,
KRDR,09-19-2012,04:00,METAR,,180,13.0,,,9999.0,,12.0,1.0,29.65,1005.4,,,,,,,,,,,,,,,2/8 Mostly Clear,72000.0,,FEW,11000.0,,,,,,
KRDR,09-19-2012,03:00,METAR,,170,13.0,,,9999.0,,12.0,0.0,29.68,1006.2,,,,,,,,,,,,,,,Clear,72000.0,,,73000.0,,,,,,
KRDR,09-19-2012,02:00,METAR,,170,11.0,,,9999.0,,13.0,1.0,29.71,1007.3,,,,,,,,,,,,,,,2/8 Mostly Clear,72000.0,,FEW,12000.0,,,,,,
KRDR,09-19-2012,01:00,METAR,,170,12.0,,,9999.0,,13.0,0.0,29.73,1007.8,,,,,,,,,,,,,,,Clear,72000.0,,,73000.0,,,,,,
KRDR,09-19-2012,00:00,METAR,,160,12.0,,,9999.0,,14.0,-1.0,29.74,1008.2,,,,,,,,,,,,,,,Clear,72000.0,,,73000.0,,,,,,
KRDR,09-18-2012,23:00,METAR,,170,16.0,,,9999.0,,15.0,-1.0,29.77,1009.4,,,,,,,,,,,,,,,Clear,72000.0,,,73000.0,,,,,,
KRDR,09-18-2012,22:00,METAR,,170,16.0,,,9999.0,,16.0,-1.0,29.80,1010.1,,,,,,,,,,,,,,,Clear,72000.0,,,73000.0,,,,,,
KRDR,09-18-2012,21:00,METAR,,180,16.0,23.0,,9999.0,,16.0,-1.0,29.82,1010.9,,,,,,,,,,,,,,,Clear,72000.0,,,73000.0,,,,,,
KRDR,09-18-2012,20:00,METAR,,170,14.0,,,9999.0,,14.0,2.0,29.85,1011.9,,,,,,,,,,,,,,,8/8 Overcast,11000.0,,OVC,11000.0,,,,,,
KRDR,09-18-2012,19:00,METAR,,170,12.0,,,9999.0,,12.0,3.0,29.88,1012.9,,,,,,,,,,,,,,,8/8 Overcast,10000.0,,OVC,9900.0,,,,,,
KRDR,09-18-2012,18:00,METAR,,170,8.0,,,9999.0,,10.0,4.0,29.91,1014.0,,,,,,,,,,,,,,,8/8 Overcast,8000.0,,OVC,7900.0,,,,,,
KRDR,09-18-2012,17:00,METAR,,180,9.0,,,9999.0,,9.0,4.0,29.93,1014.6,,,,,,,,,,,,,,,8/8 Overcast,8000.0,,OVC,7900.0,,,,,,
KRDR,09-18-2012,16:00,METAR,,180,8.0,,,9999.0,,8.0,4.0,29.95,1015.3,,,,,,,,,,,,,,,8/8 Overcast,8000.0,,OVC,7900.0,,,,,,
KRDR,09-18-2012,15:00,METAR,,170,7.0,,,9999.0,,8.0,4.0,29.97,1015.7,,,,,,,,,,,,,,,8/8 Overcast,10000.0,,OVC,9900.0,,,,,,
KRDR,09-18-2012,14:00,METAR,,180,5.0,,,9999.0,,6.0,4.0,29.98,1016.3,,,,,,,,,,,,,,,7/8 Mostly Cloudy,12000.0,,BKN,12000.0,,,,,,
KRDR,09-18-2012,13:00,METAR,,220,5.0,,,9999.0,,5.0,3.0,30.00,1016.7,,,,,,,,,,,,,,,8/8 Overcast,11000.0,,OVC,11000.0,,,,,,
KRDR,09-18-2012,12:00,METAR,,200,4.0,,,9999.0,,4.0,2.0,30.00,1016.7,,,,,,,,,,,,,,.02 IN,7/8 Mostly Cloudy,12000.0,,BKN,12000.0,,,,,,
KRDR,09-18-2012,11:00,METAR,,170,6.0,,,9999.0,,4.0,2.0,30.00,1016.9,,,,,,,,,,,,,,,2/8 Mostly Clear,72000.0,,FEW,12000.0,,,,,,
KRDR,09-18-2012,10:00,METAR,,220,4.0,,,9999.0,,4.0,2.0,30.01,1017.2,,,,,,,,,,,,,,,2/8 Mostly Clear,72000.0,,FEW,12000.0,,,,,,
KRDR,09-18-2012,09:00,METAR,,,0.0,,,9999.0,,3.0,1.0,30.02,1017.5,,,,,,,,,,,,,,,4/8 Partly Cloudy,72000.0,,SCT,12000.0,,,,,,
KRDR,09-18-2012,08:00,METAR,,230,3.0,,,9999.0,,2.0,0.0,30.04,1018.1,,,,,,,,,,,,,,,Clear,72000.0,,,73000.0,,,,,,
KRDR,09-18-2012,07:00,METAR,,,0.0,,,9999.0,,1.0,0.0,30.05,1018.6,,,,,,,,,,,,,,,Clear,72000.0,,,73000.0,,,,,,
KRDR,09-18-2012,06:00,METAR,,,0.0,,,9999.0,,1.0,-1.0,30.06,1018.8,,,,,,,,,,,,,,,Clear,72000.0,,,73000.0,,,,,,
KRDR,09-18-2012,05:00,METAR,,270,3.0,,,9999.0,,0.0,-1.0,30.07,1019.3,,,,,,,,,,,,,,,Clear,72000.0,,,73000.0,,,,,,
KRDR,09-18-2012,04:00,METAR,,,0.0,,,9999.0,,1.0,-1.0,30.07,1019.2,,,,,,,,,,,,,,,Clear,72000.0,,,73000.0,,,,,,
KRDR,09-18-2012,03:00,METAR,,,0.0,,,9999.0,,2.0,0.0,30.07,1019.0,,,,,,,,,,,,,,,Clear,72000.0,,,73000.0,,,,,,
KRDR,09-18-2012,02:00,METAR,,310,4.0,,,9999.0,,3.0,1.0,30.08,1019.4,,,,,,,,,,,,,,,Clear,72000.0,,,73000.0,,,,,,
KRDR,09-18-2012,01:00,METAR,,310,4.0,,,9999.0,,6.0,1.0,30.07,1019.3,,,,,,,,,,,,,,,Clear,72000.0,,,73000.0,,,,,,
KRDR,09-18-2012,00:00,METAR,,10,8.0,,,9999.0,,10.0,2.0,30.08,1019.5,,,,,,,,,,,,,.02 IN,,Clear,72000.0,,,73000.0,,,,,,
KRDR,09-17-2012,23:00,METAR,,350,13.0,,,9999.0,,11.0,4.0,30.08,1019.4,,,,,,,,,,,,,,,Clear,72000.0,,,73000.0,,,,,,
KRDR,09-17-2012,22:00,METAR,,20,4.0,,,9999.0,,9.0,4.0,30.08,1019.4,,,,,,,,,,,.01 IN,,,,7/8 Mostly Cloudy,9000.0,,FEW,5000.0,SCT,6900.0,BKN,8900.0,,
KRDR,09-17-2012,21:40,SPECI,,60,6.0,,,,,8.0,5.0,30.07,,,,,,,,,,,,,,,,8/8 Overcast,7000.0,,FEW,600.0,BKN,6900.0,OVC,8900.0,,
KRDR,09-17-2012,21:29,SPECI,,,,,,,,7.0,3.0,,,,,,,,,,,,,,,,,8/8 Overcast,3800.0,,SCT,600.0,BKN,3900.0,OVC,5900.0,,
KRDR,09-17-2012,21:21,SPECI,,70,5.0,,,,Unknown Precipitation,7.0,4.0,30.08,1019.6,40,,,,,,,,,,,,,,8/8 Overcast,2400.0,,SCT,600.0,BKN,2400.0,OVC,3200.0,,
KRDR,09-17-2012,21:19,SPECI,,20,7.0,,,,Unknown Precipitation,,,30.09,1019.9,40,,,,,,,,,,,,,,8/8 Overcast,1100.0,,SCT,400.0,BKN,1100.0,OVC,2800.0,,
KRDR,09-17-2012,21:16,SPECI,,,,,,,,,,,,,,,,,,,,,,,,,,8/8 Overcast,1300.0,,SCT,400.0,BKN,1300.0,OVC,4500.0,,
KRDR,09-17-2012,21:06,SPECI,,,,,,,,9.0,4.0,,,,,,,,,,,,,,,,,7/8 Mostly Cloudy,2800.0,,SCT,600.0,BKN,2800.0,BKN,3600.0,,
KRDR,09-17-2012,21:04,SPECI,,,,,,,,9.0,4.0,,,,,,,,,,,,,,,,,7/8 Mostly Cloudy,3300.0,,SCT,600.0,SCT,2900.0,BKN,3400.0,,
KRDR,09-17-2012,21:01,SPECI,,,,,,,,9.0,4.0,,,,,,,,,,,,,,,,,7/8 Mostly Cloudy,2800.0,,FEW,600.0,BKN,2800.0,BKN,3500.0,,
KRDR,09-17-2012,21:00,METAR,,,,,,,,9.0,4.0,,,,,,,,,,,,,,,,,7/8 Mostly Cloudy,4400.0,,FEW,800.0,SCT,3000.0,BKN,4500.0,,
KRDR,09-17-2012,20:00,METAR,,10,10.0,,350/27KTS,9999.0,,9.0,6.0,30.10,1020.0,,,,,,,,,,,.01 IN,,,,7/8 Mostly Cloudy,10000.0,,SCT,2600.0,BKN,9900.0,,,,
KRDR,09-17-2012,19:46,SPECI,,10,8.0,,350/27KTS,9999.0,,8.0,5.0,30.10,1020.0,,,,,,,,,,,,,,,7/8 Mostly Cloudy,10000.0,,SCT,2600.0,SCT,3800.0,BKN,9900.0,,
KRDR,09-17-2012,19:39,SPECI,,20,7.0,,350/27KTS,9999.0,Light Rain,8.0,5.0,30.10,1020.0,61,,,,,,,,,,,,,,7/8 Mostly Cloudy,4200.0,,SCT,2600.0,BKN,4300.0,,,,
KRDR,09-17-2012,19:34,SPECI,,20,8.0,24.0,350/27KTS,9999.0,Rain,8.0,4.0,30.09,1019.9,62,,,,,,,,,,,,,,8/8 Overcast,2700.0,,BKN,2700.0,OVC,4400.0,,,,
KRDR,09-17-2012,19:13,SPECI,,350,20.0,27.0,350/27KTS,9999.0,Light Rain,11.0,4.0,30.09,1019.9,61,,,,,,,,,,,,,,8/8 Overcast,4700.0,,FEW,3800.0,OVC,4800.0,,,,
KRDR,09-17-2012,19:00,METAR,,360,11.0,,,9999.0,,13.0,0.0,30.09,1019.8,,,,,,,,,,,,,,,8/8 Overcast,4900.0,,BKN,5000.0,BKN,5900.0,OVC,6900.0,,
KRDR,09-17-2012,18:00,METAR,,350,9.0,,,9999.0,,12.0,1.0,30.11,1020.4,,,,,,,,,,,,,,,7/8 Mostly Cloudy,6000.0,,FEW,4700.0,BKN,5900.0,,,,
KRDR,09-17-2012,17:00,METAR,,340,10.0,,,9999.0,,12.0,0.0,30.12,1020.8,,,,,,,,,,,,,,,4/8 Partly Cloudy,72000.0,,SCT,4400.0,,,,,,
KRDR,09-17-2012,16:00,METAR,,20,7.0,,,9999.0,,11.0,1.0,30.12,1020.9,,,,,,,,,,,,,,,Clear,72000.0,,,73000.0,,,,,,
KRDR,09-17-2012,15:00,METAR,,10,8.0,,,9999.0,,9.0,1.0,30.12,1020.9,,,,,,,,,,,,,,,Clear,72000.0,,,73000.0,,,,,,
KRDR,09-17-2012,14:00,METAR,,360,7.0,,,9999.0,,7.0,3.0,30.12,1020.9,,,,,,,,,,,,,,,2/8 Mostly Clear,72000.0,,FEW,3800.0,,,,,,
KRDR,09-17-2012,13:00,METAR,,10,5.0,,,9999.0,,6.0,3.0,30.12,1020.7,,,,,,,,,,,,,,,8/8 Overcast,3600.0,,BKN,3700.0,OVC,7900.0,,,,
KRDR,09-17-2012,12:00,METAR,,340,4.0,,,9999.0,,6.0,3.0,30.11,1020.4,,,,,,,,,,,,,TRACE,,8/8 Overcast,4900.0,,BKN,5000.0,OVC,6900.0,,,,
KRDR,09-17-2012,11:00,METAR,,320,5.0,,,9999.0,,4.0,3.0,30.10,1020.3,,,,,,,,,,,,,,,8/8 Overcast,6000.0,,BKN,5900.0,OVC,6900.0,,,,
KRDR,09-17-2012,10:00,METAR,,310,3.0,,,9999.0,,5.0,3.0,30.10,1020.0,,,,,,,,,,,,,,,7/8 Mostly Cloudy,6000.0,,BKN,5900.0,BKN,7900.0,,,,
KRDR,09-17-2012,08:51,SPECI,,330,3.0,,,9999.0,,7.0,4.0,30.09,1019.8,,,,,,,,,,,,,,,7/8 Mostly Cloudy,7000.0,,BKN,6900.0,,,,,,
KRDR,09-17-2012,08:24,SPECI,,340,4.0,,,9999.0,Light Rain,7.0,3.0,30.09,1019.8,61,,,,,,,,,,,,,,8/8 Overcast,4700.0,,SCT,4800.0,OVC,7900.0,,,,
KRDR,09-17-2012,08:11,SPECI,,350,6.0,,,9999.0,,7.0,3.0,30.09,1019.8,,,,,,,,,,,,,,,8/8 Overcast,4700.0,,OVC,4800.0,,,,,,
KRDR,09-17-2012,08:00,METAR,,350,6.0,,,9999.0,,7.0,2.0,30.09,1019.9,,,,,,,,,,,,,,,8/8 Overcast,4900.0,,OVC,5000.0,,,,,,
KRDR,09-17-2012,08:00,SPECI,,350,7.0,,,9999.0,,7.0,2.0,30.09,1019.9,,,,,,,,,,,,,,,8/8 Overcast,4900.0,,OVC,5000.0,,,,,,
KRDR,09-17-2012,07:00,METAR,,330,6.0,,,9999.0,,7.0,2.0,30.10,1020.1,,,,,,,,,,,,,,,8/8 Overcast,7000.0,,SCT,5000.0,OVC,6900.0,,,,
KRDR,09-17-2012,06:17,SPECI,,330,5.0,,,9999.0,,7.0,2.0,30.09,1019.9,,,,,,,,,,,,,,,8/8 Overcast,6000.0,,BKN,5900.0,OVC,6900.0,,,,
KRDR,09-17-2012,06:15,SPECI,,330,5.0,,,9999.0,,7.0,2.0,30.09,1019.9,,,,,,,,,,,,,,,8/8 Overcast,6000.0,,BKN,5900.0,BKN,6900.0,OVC,12000.0,,
KRDR,09-17-2012,06:01,SPECI,,340,5.0,,,6400.0,Haze Smoke or Dust,6.0,2.0,30.10,1020.1,4,,,,,,,,,,,,,,7/8 Mostly Cloudy,7000.0,,FEW,5900.0,SCT,6900.0,BKN,12000.0,,
KRDR,09-17-2012,06:00,METAR,,330,6.0,,,4800.0,Haze Smoke or Dust,6.0,2.0,30.10,1020.1,4,,,,,,,,,,,,,,4/8 Partly Cloudy,72000.0,,SCT,6900.0,,,,,,
KRDR,09-17-2012,05:35,SPECI,,330,5.0,,,6400.0,Haze Smoke or Dust,5.0,1.0,30.10,1020.1,4,,,,,,,,,,,,,,7/8 Mostly Cloudy,7000.0,,BKN,6900.0,,,,,,
KRDR,09-17-2012,05:31,SPECI,,330,5.0,,,8000.0,Haze Smoke or Dust,5.0,1.0,30.10,1020.2,4,,,,,,,,,,,,,,8/8 Overcast,7000.0,,OVC,6900.0,,,,,,
KRDR,09-17-2012,05:00,METAR,,300,5.0,,,9999.0,,5.0,0.0,30.11,1020.5,,,,,,,,,,,,,,,Clear,72000.0,,,73000.0,,,,,,
KRDR,09-17-2012,04:00,METAR,,330,5.0,,,9999.0,,5.0,1.0,30.11,1020.4,,,,,,,,,,,,,,,Clear,72000.0,,,73000.0,,,,,,
KRDR,09-17-2012,03:00,METAR,,340,5.0,,,9999.0,,7.0,1.0,30.10,1020.2,,,,,,,,,,,,,,,Clear,72000.0,,,73000.0,,,,,,
KRDR,09-17-2012,02:00,METAR,,350,5.0,,,9999.0,,10.0,1.0,30.11,1020.3,,,,,,,,,,,,,,,7/8 Mostly Cloudy,11000.0,,BKN,11000.0,,,,,,
KRDR,09-17-2012,01:00,METAR,,360,8.0,,,9999.0,,12.0,2.0,30.10,1020.2,,,,,,,,,,,,,,,2/8 Mostly Clear,72000.0,,FEW,12000.0,,,,,,
KRDR,09-17-2012,00:00,METAR,,360,12.0,,,9999.0,,13.0,3.0,30.10,1020.0,,,,,,,,,,,,,TRACE,,4/8 Partly Cloudy,72000.0,,FEW,6900.0,SCT,12000.0,,,,
KRDR,09-16-2012,23:00,METAR,,340,14.0,,,9999.0,,14.0,4.0,30.10,1020.1,,,,,,,,,,,,,,,8/8 Overcast,4000.0,,BKN,4100.0,OVC,8900.0,,,,
KRDR,09-16-2012,22:00,METAR,,340,9.0,,,9999.0,,13.0,5.0,30.08,1019.6,,,,,,,,,,,TRACE,,,,8/8 Overcast,9000.0,,OVC,8900.0,,,,,,
KRDR,09-16-2012,21:50,SPECI,,340,7.0,,,9999.0,,13.0,5.0,30.08,1019.6,,,,,,,,,,,,,,,8/8 Overcast,9000.0,,OVC,8900.0,,,,,,
KRDR,09-16-2012,21:40,SPECI,,350,8.0,,,9999.0,,13.0,4.0,30.08,1019.6,,,,,,,,,,,,,,,8/8 Overcast,9000.0,,FEW,4500.0,OVC,8900.0,,,,
KRDR,09-16-2012,21:00,METAR,,360,12.0,,,9999.0,,13.0,4.0,30.08,1019.4,,,,,,,,,,,TRACE,0 IN,,,8/8 Overcast,10000.0,,OVC,9900.0,,,,,,
KRDR,09-16-2012,20:28,SPECI,,350,12.0,21.0,,9999.0,,13.0,5.0,30.08,1019.6,,,,,,,,,,,,,,,7/8 Mostly Cloudy,8000.0,,FEW,3800.0,SCT,6900.0,BKN,7900.0,,
KRDR,09-16-2012,20:18,SPECI,,360,15.0,,,9999.0,Light Rain,13.0,5.0,30.08,1019.5,61,,,,,,,,,,,,,,8/8 Overcast,7000.0,,FEW,3600.0,BKN,6900.0,OVC,7900.0,,
KRDR,09-16-2012,20:06,SPECI,,350,14.0,,,9999.0,,13.0,5.0,30.08,1019.5,,,,,,,,,,,,,,,8/8 Overcast,7000.0,,FEW,4900.0,BKN,6900.0,OVC,8900.0,,
KRDR,09-16-2012,20:00,METAR,,350,14.0,20.0,,9999.0,Light Rain,13.0,5.0,30.09,1019.7,61,,,,,,,,,,TRACE,,,,8/8 Overcast,6000.0,,FEW,4000.0,SCT,5900.0,OVC,6900.0,,
KRDR,09-16-2012,19:00,METAR,,350,14.0,,,9999.0,Light Rain,12.0,7.0,30.09,1019.7,61,,,,,,,,,,TRACE,,,,8/8 Overcast,7000.0,,FEW,3900.0,BKN,6900.0,OVC,8900.0,,
KRDR,09-16-2012,18:00,SPECI,,360,14.0,20.0,,9999.0,Light Rain,14.0,5.0,30.10,1020.0,61,,,,,,,,,,,,,,7/8 Mostly Cloudy,10000.0,,SCT,5000.0,SCT,6900.0,BKN,9900.0,,
KRDR,09-16-2012,18:00,METAR,,350,15.0,20.0,,9999.0,,14.0,5.0,30.09,1020.0,,,,,,,,,,,,,,,7/8 Mostly Cloudy,10000.0,,FEW,5900.0,BKN,9900.0,BKN,12000.0,,
KRDR,09-16-2012,17:00,METAR,,360,13.0,18.0,,9999.0,,14.0,6.0,30.09,1019.7,,,,,,,,,,,,,,,7/8 Mostly Cloudy,11000.0,,BKN,11000.0,,,,,,
KRDR,09-16-2012,16:00,METAR,,10,12.0,,,9999.0,,14.0,6.0,30.07,1019.3,,,,,,,,,,,,,,,4/8 Partly Cloudy,72000.0,,SCT,12000.0,,,,,,
KRDR,09-16-2012,15:00,METAR,,360,17.0,21.0,,9999.0,,12.0,7.0,30.07,1019.3,,,,,,,,,,,,,,,2/8 Mostly Clear,72000.0,,FEW,12000.0,,,,,,
KRDR,09-16-2012,14:00,METAR,,360,14.0,,,9999.0,,12.0,7.0,30.06,1018.8,,,,,,,,,,,,,,,Clear,72000.0,,,73000.0,,,,,,
KRDR,09-16-2012,13:00,METAR,,340,11.0,,,9999.0,,11.0,7.0,30.05,1018.3,,,,,,,,,,,,,,,Clear,72000.0,,,73000.0,,,,,,
KRDR,09-16-2012,12:00,METAR,,10,12.0,16.0,,9999.0,,11.0,7.0,30.03,1017.9,,,,,,,,,,,,,,,Clear,72000.0,,,73000.0,,,,,,
KRDR,09-16-2012,11:00,METAR,,360,12.0,,,9999.0,,12.0,6.0,30.00,1016.9,,,,,,,,,,,,,,,Clear,72000.0,,,73000.0,,,,,,
KRDR,09-16-2012,10:00,METAR,,10,12.0,,,9999.0,,13.0,5.0,29.97,1015.9,,,,,,,,,,,,,,,Clear,72000.0,,,73000.0,,,,,,
KRDR,09-16-2012,09:00,METAR,,10,11.0,16.0,,9999.0,,14.0,5.0,29.94,1015.0,,,,,,,,,,,,,,,Clear,72000.0,,,73000.0,,,,,,
KRDR,09-16-2012,08:00,METAR,,360,10.0,,,9999.0,,15.0,5.0,29.92,1014.1,,,,,,,,,,,,,,,Clear,72000.0,,,73000.0,,,,,,
KRDR,09-16-2012,07:00,METAR,,10,13.0,19.0,,9999.0,,16.0,5.0,29.89,1013.4,,,,,,,,,,,,,,,Clear,72000.0,,,73000.0,,,,,,
KRDR,09-16-2012,06:00,METAR,,360,9.0,,,9999.0,,16.0,4.0,29.88,1012.8,,,,,,,,,,,,,TRACE,,Clear,72000.0,,,73000.0,,,,,,
KRDR,09-16-2012,05:00,METAR,,350,7.0,,,9999.0,,16.0,4.0,29.87,1012.4,,,,,,,,,,,,,,,Clear,72000.0,,,73000.0,,,,,,
KRDR,09-16-2012,04:00,METAR,,320,9.0,,,9999.0,,14.0,5.0,29.85,1011.8,,,,,,,,,,,,,,,Clear,72000.0,,,73000.0,,,,,,
KRDR,09-16-2012,03:00,METAR,,320,3.0,,,9999.0,,14.0,6.0,29.83,1011.1,,,,,,,,,,,,TRACE,,,Clear,72000.0,,,73000.0,,,,,,
KRDR,09-16-2012,02:28,SPECI,,10,3.0,,,6400.0,Haze Smoke or Dust,16.0,6.0,29.83,1011.1,4,,,,,,,,,,,,,,Clear,72000.0,,,73000.0,,,,,,
KRDR,09-16-2012,02:26,SPECI,,10,3.0,,,4800.0,Haze Smoke or Dust,16.0,6.0,29.83,1011.1,4,,,,,,,,,,,,,,Clear,72000.0,,,73000.0,,,,,,
KRDR,09-16-2012,02:17,SPECI,,,0.0,,,4800.0,Haze Smoke or Dust,16.0,7.0,29.83,1011.1,4,,,,,,,,,,,,,,Clear,72000.0,,,73000.0,,,,,,
KRDR,09-16-2012,02:06,SPECI,,360,3.0,,,8000.0,Haze Smoke or Dust,17.0,7.0,29.82,1011.0,4,,,,,,,,,,,,,,Clear,72000.0,,,73000.0,,,,,,
KRDR,09-16-2012,02:03,SPECI,,360,3.0,,,6400.0,Haze Smoke or Dust,17.0,7.0,29.82,1010.9,4,,,,,,,,,,,,,,Clear,72000.0,,,73000.0,,,,,,
KRDR,09-16-2012,02:00,METAR,,20,4.0,,,9999.0,,17.0,6.0,29.82,1010.8,,,,,,,,,,,,,,,Clear,72000.0,,,73000.0,,,,,,
KRDR,09-16-2012,01:00,METAR,,90,4.0,,,9999.0,,22.0,6.0,29.81,1010.5,,,,,,,,,,,TRACE,,,,Clear,72000.0,,,73000.0,,,,,,
KRDR,09-16-2012,00:18,SPECI,,,0.0,,,9999.0,,25.0,6.0,29.81,1010.6,,,,,,,,,,,,,,,Clear,72000.0,,,73000.0,,,,,,
KRDR,09-16-2012,00:08,SPECI,,110,3.0,,,9999.0,Light Rain,26.0,5.0,29.81,1010.6,61,,,,,,,,,,,,,,Clear,72000.0,,,73000.0,,,,,,
KRDR,09-16-2012,00:00,METAR,,150,3.0,,,9999.0,,26.0,6.0,29.81,1010.7,,,,,,,,,,,TRACE,,TRACE,,Clear,72000.0,,,73000.0,,,,,,
KRDR,09-15-2012,23:36,SPECI,,160,4.0,,,9999.0,,27.0,6.0,29.82,1010.8,,,,,,,,,,,,,,,Clear,72000.0,,,73000.0,,,,,,
KRDR,09-15-2012,23:27,SPECI,,180,6.0,,,9999.0,,28.0,5.0,29.82,1010.8,,,,,,,,,,,,,,,Clear,72000.0,,,73000.0,,,,,,
KRDR,09-15-2012,23:00,METAR,,190,11.0,,,9999.0,,28.0,4.0,29.82,1011.0,,,,,,,,,,,,,,,Clear,72000.0,,,73000.0,,,,,,
KRDR,09-15-2012,22:00,METAR,,180,13.0,,,9999.0,,28.0,3.0,29.83,1011.3,,,,,,,,,,,,,,,Clear,72000.0,,,73000.0,,,,,,
KRDR,09-15-2012,21:00,METAR,,150,13.0,,,9999.0,,28.0,3.0,29.84,1011.5,,,,,,,,,,,,,,,Clear,72000.0,,,73000.0,,,,,,
KRDR,09-15-2012,20:00,METAR,,160,12.0,,,9999.0,,27.0,3.0,29.87,1012.5,,,,,,,,,,,,,,,Clear,72000.0,,,73000.0,,,,,,
KRDR,09-15-2012,19:00,METAR,,170,11.0,,,9999.0,,26.0,3.0,29.91,1013.7,,,,,,,,,,,,,,,Clear,72000.0,,,73000.0,,,,,,
KRDR,09-15-2012,18:00,METAR,,170,12.0,,,9999.0,,24.0,3.0,29.93,1014.4,,,,,,,,,,,,,,,Clear,72000.0,,,73000.0,,,,,,
KRDR,09-15-2012,17:00,METAR,,150,9.0,,,9999.0,,22.0,4.0,29.95,1015.2,,,,,,,,,,,,,,,Clear,72000.0,,,73000.0,,,,,,
KRDR,09-15-2012,16:00,METAR,,150,10.0,,,9999.0,,19.0,3.0,29.98,1016.2,,,,,,,,,,,,,,,Clear,72000.0,,,73000.0,,,,,,
KRDR,09-15-2012,15:00,METAR,,170,12.0,,,9999.0,,16.0,3.0,30.01,1017.3,,,,,,,,,,,,,,,Clear,72000.0,,,73000.0,,,,,,
KRDR,09-15-2012,14:00,METAR,,170,11.0,,,9999.0,,13.0,3.0,30.03,1018.0,,,,,,,,,,,,,,,Clear,72000.0,,,73000.0,,,,,,
KRDR,09-15-2012,13:00,METAR,,180,10.0,,,9999.0,,10.0,2.0,30.06,1018.7,,,,,,,,,,,,,,,Clear,72000.0,,,73000.0,,,,,,
KRDR,09-15-2012,12:00,METAR,,170,5.0,,,9999.0,,8.0,2.0,30.07,1019.1,,,,,,,,,,,,,,,Clear,72000.0,,,73000.0,,,,,,
KRDR,09-15-2012,11:00,METAR,,160,7.0,,,9999.0,,9.0,2.0,30.08,1019.5,,,,,,,,,,,,,,,Clear,72000.0,,,73000.0,,,,,,
KRDR,09-15-2012,10:00,METAR,,170,7.0,,,9999.0,,8.0,2.0,30.10,1020.1,,,,,,,,,,,,,,,Clear,72000.0,,,73000.0,,,,,,
KRDR,09-15-2012,09:00,METAR,,170,9.0,,,9999.0,,9.0,1.0,30.11,1020.6,,,,,,,,,,,,,,,Clear,72000.0,,,73000.0,,,,,,
KRDR,09-15-2012,08:00,METAR,,170,7.0,,,9999.0,,10.0,1.0,30.12,1020.9,,,,,,,,,,,,,,,Clear,72000.0,,,73000.0,,,,,,
KRDR,09-15-2012,07:00,METAR,,140,8.0,,,9999.0,,7.0,0.0,30.14,1021.3,,,,,,,,,,,,,,,Clear,72000.0,,,73000.0,,,,,,
KRDR,09-15-2012,06:00,METAR,,150,6.0,,,9999.0,,8.0,0.0,30.15,1021.7,,,,,,,,,,,,,,,Clear,72000.0,,,73000.0,,,,,,
KRDR,09-15-2012,05:00,METAR,,150,5.0,,,9999.0,,10.0,0.0,30.16,1022.2,,,,,,,,,,,,,,,Clear,72000.0,,,73000.0,,,,,,
KRDR,09-15-2012,04:00,METAR,,180,7.0,,,9999.0,,12.0,0.0,30.17,1022.5,,,,,,,,,,,,,,,Clear,72000.0,,,73000.0,,,,,,
KRDR,09-15-2012,03:00,METAR,,160,7.0,,,9999.0,,11.0,0.0,30.18,1022.8,,,,,,,,,,,,,,,Clear,72000.0,,,73000.0,,,,,,
KRDR,09-15-2012,02:00,METAR,,160,6.0,,,9999.0,,14.0,0.0,30.19,1023.1,,,,,,,,,,,,,,,Clear,72000.0,,,73000.0,,,,,,
KRDR,09-15-2012,01:00,METAR,,160,6.0,,,9999.0,,18.0,-1.0,30.19,1023.3,,,,,,,,,,,,,,,Clear,72000.0,,,73000.0,,,,,,
KRDR,09-15-2012,00:00,METAR,,180,6.0,,,9999.0,,22.0,0.0,30.21,1023.8,,,,,,,,,,,,,,,Clear,72000.0,,,73000.0,,,,,,
KRDR,09-14-2012,23:00,METAR,,170,9.0,,,9999.0,,23.0,-1.0,30.22,1024.1,,,,,,,,,,,,,,,Clear,72000.0,,,73000.0,,,,,,
KRDR,09-14-2012,22:00,METAR,,,3.0,,,9999.0,,23.0,-1.0,30.24,1024.7,,,,,,,,,,,,,,,Clear,72000.0,,,73000.0,,,,,,
KRDR,09-14-2012,21:00,METAR,,220,5.0,,,9999.0,,23.0,-1.0,30.26,1025.4,,,,,,,,,,,,,,,Clear,72000.0,,,73000.0,,,,,,
KRDR,09-14-2012,20:00,METAR,,,3.0,,,9999.0,,22.0,0.0,30.28,1026.0,,,,,,,,,,,,,,,Clear,72000.0,,,73000.0,,,,,,
KRDR,09-14-2012,19:00,METAR,,160,7.0,,,9999.0,,21.0,0.0,30.30,1026.8,,,,,,,,,,,,,,,Clear,72000.0,,,73000.0,,,,,,
KRDR,09-14-2012,18:00,METAR,,150,8.0,,,9999.0,,19.0,0.0,30.33,1027.6,,,,,,,,,,,,,,,Clear,72000.0,,,73000.0,,,,,,
KRDR,09-14-2012,17:00,METAR,,,5.0,,,9999.0,,17.0,1.0,30.35,1028.3,,,,,,,,,,,,,,,Clear,72000.0,,,73000.0,,,,,,
KRDR,09-14-2012,16:00,METAR,,,0.0,,,9999.0,,14.0,2.0,30.36,1028.8,,,,,,,,,,,,,,,Clear,72000.0,,,73000.0,,,,,,
KRDR,09-14-2012,15:00,METAR,,,0.0,,,9999.0,,10.0,2.0,30.36,1028.9,,,,,,,,,,,,,,,Clear,72000.0,,,73000.0,,,,,,
KRDR,09-14-2012,14:00,METAR,,,0.0,,,9999.0,,6.0,2.0,30.36,1028.8,,,,,,,,,,,,,,,Clear,72000.0,,,73000.0,,,,,,
KRDR,09-14-2012,13:00,METAR,,,0.0,,,9999.0,,0.0,-1.0,30.35,1028.5,,,,,,,,,,,,,,,Clear,72000.0,,,73000.0,,,,,,
KRDR,09-14-2012,12:00,METAR,,,0.0,,,9999.0,,-1.0,-3.0,30.35,1028.2,,,,,,,,,,,,,,.08 IN,Clear,72000.0,,,73000.0,,,,,,
KRDR,09-14-2012,11:00,METAR,,,0.0,,,9999.0,,-1.0,-3.0,30.34,1028.0,,,,,,,,,,,,,,,Clear,72000.0,,,73000.0,,,,,,
KRDR,09-14-2012,10:00,METAR,,,0.0,,,9999.0,,-1.0,-2.0,30.34,1028.0,,,,,,,,,,,,,,,Clear,72000.0,,,73000.0,,,,,,
KRDR,09-14-2012,09:00,METAR,,350,3.0,,,9999.0,,0.0,-2.0,30.34,1028.0,,,,,,,,,,,,,,,Clear,72000.0,,,73000.0,,,,,,
KRDR,09-14-2012,08:00,METAR,,,0.0,,,9999.0,,1.0,-1.0,30.33,1027.7,,,,,,,,,,,,,,,Clear,72000.0,,,73000.0,,,,,,
KRDR,09-14-2012,07:00,METAR,,,0.0,,,9999.0,,1.0,-1.0,30.34,1027.9,,,,,,,,,,,,,,,Clear,72000.0,,,73000.0,,,,,,
KRDR,09-14-2012,06:00,METAR,,,0.0,,,9999.0,,2.0,-1.0,30.33,1027.6,,,,,,,,,,,,,,,Clear,72000.0,,,73000.0,,,,,,
KRDR,09-14-2012,05:00,METAR,,,0.0,,,9999.0,,3.0,0.0,30.32,1027.4,,,,,,,,,,,,,,,Clear,72000.0,,,73000.0,,,,,,
KRDR,09-14-2012,04:00,METAR,,,0.0,,,9999.0,,5.0,0.0,30.31,1027.0,,,,,,,,,,,,,,,Clear,72000.0,,,73000.0,,,,,,
KRDR,09-14-2012,03:00,METAR,,,0.0,,,9999.0,,10.0,1.0,30.30,1026.6,,,,,,,,,,,,,,,Clear,72000.0,,,73000.0,,,,,,
KRDR,09-14-2012,02:00,METAR,,110,8.0,,,9999.0,,13.0,2.0,30.28,1026.0,,,,,,,,,,,,,,,2/8 Mostly Clear,72000.0,,FEW,12000.0,,,,,,
KRDR,09-14-2012,01:00,METAR,,80,12.0,,,9999.0,,15.0,1.0,30.27,1025.9,,,,,,,,,,,,,,,Clear,11000.0,,,73000.0,,,,,,
KRDR,09-14-2012,00:00,METAR,,70,12.0,,,9999.0,,16.0,-1.0,30.28,1026.2,,,,,,,,,,,,,.03 IN,,4/8 Partly Cloudy,72000.0,,SCT,8900.0,,,,,,
KRDR,09-13-2012,23:00,METAR,,40,16.0,,,9999.0,,19.0,-2.0,30.27,1025.8,,,,,,,,,,,,,,,8/8 Overcast,10000.0,,FEW,6900.0,OVC,9900.0,,,,
KRDR,09-13-2012,22:00,METAR,,30,14.0,,,9999.0,,19.0,-2.0,30.27,1025.8,,,,,,,,,,,,,,,2/8 Mostly Clear,72000.0,,FEW,8900.0,,,,,,
KRDR,09-13-2012,21:00,METAR,,340,10.0,,,9999.0,,19.0,-3.0,30.26,1025.5,,,,,,,,,,,,,,,7/8 Mostly Cloudy,9000.0,,BKN,8900.0,,,,,,
KRDR,09-13-2012,20:00,METAR,,350,10.0,21.0,,9999.0,,21.0,-3.0,30.26,1025.5,,,,,,,,,,,,,,,7/8 Mostly Cloudy,11000.0,,BKN,11000.0,,,,,,
KRDR,09-13-2012,19:05,SPECI,,330,7.0,,,6400.0,Haze Smoke or Dust,21.0,-2.0,30.27,1025.7,4,,,,,,,,,,,,,,4/8 Partly Cloudy,72000.0,,SCT,12000.0,,,,,,
KRDR,09-13-2012,19:00,METAR,,340,9.0,,,400.0,Haze Smoke or Dust,20.0,-2.0,30.27,1025.7,5,,,,,,,,,,,,,,4/8 Partly Cloudy,72000.0,,SCT,12000.0,,,,,,
KRDR,09-13-2012,18:57,SPECI,,340,11.0,,,,,20.0,-2.0,30.27,1025.7,,,,,,,,,,,,,,,4/8 Partly Cloudy,72000.0,,SCT,11000.0,,,,,,
KRDR,09-13-2012,18:55,METAR,,350,10.0,,340/61KTS,,,20.0,-2.0,30.27,1025.8,,,,,,,,,,,.03 IN,,,,2/8 Mostly Clear,72000.0,,FEW,12000.0,,,,,,
KRDR,09-13-2012,18:43,SPECI,,10,11.0,,,,,20.0,-2.0,30.27,1025.7,,,,,,,,,,,,,,,2/8 Mostly Clear,72000.0,,FEW,12000.0,,,,,,
KRDR,09-13-2012,18:00,METAR,,,0.0,,,8000.0,Light Rain,22.0,-1.0,30.28,1026.1,61,,,,,,,,,,.05 IN,,.05 IN,,2/8 Mostly Clear,72000.0,,FEW,8900.0,,,,,,
KRDR,09-13-2012,17:55,METAR,,,0.0,,,9999.0,,22.0,-1.0,30.28,1026.1,,,,,,,,,,,.05 IN,,.05 IN,,2/8 Mostly Clear,72000.0,,FEW,8900.0,,,,,,
KRDR,09-13-2012,17:48,SPECI,,10,8.0,,,8000.0,Light Rain,20.0,-1.0,30.28,1026.1,61,,,,,,,,,,,,,,4/8 Partly Cloudy,72000.0,,SCT,8900.0,,,,,,
KRDR,09-13-2012,17:00,METAR,,20,8.0,,,9999.0,,20.0,1.0,30.29,1026.3,,,,,,,,,,,,,,,Clear,72000.0,,,73000.0,,,,,,
KRDR,09-13-2012,16:00,METAR,,,3.0,,,9999.0,,17.0,1.0,30.29,1026.5,,,,,,,,,,,,,,,Clear,72000.0,,,73000.0,,,,,,
KRDR,09-13-2012,15:00,METAR,,350,3.0,,,9999.0,,13.0,2.0,30.29,1026.5,,,,,,,,,,,,,,,Clear,72000.0,,,73000.0,,,,,,
KRDR,09-13-2012,14:00,METAR,,,0.0,,,9999.0,,9.0,2.0,30.29,1026.3,,,,,,,,,,,,,,,Clear,72000.0,,,73000.0,,,,,,
KRDR,09-13-2012,13:00,METAR,,,0.0,,,9999.0,,5.0,1.0,30.28,1026.1,,,,,,,,,,,,,,,Clear,72000.0,,,73000.0,,,,,,
KRDR,09-13-2012,12:00,METAR,,,0.0,,,9999.0,,4.0,0.0,30.27,1025.7,,,,,,,,,,,,,,,Clear,72000.0,,,73000.0,,,,,,
KRDR,09-13-2012,11:00,METAR,,,0.0,,,9999.0,,2.0,-1.0,30.26,1025.5,,,,,,,,,,,,,,,4/8 Partly Cloudy,72000.0,,SCT,9900.0,,,,,,
KRDR,09-13-2012,10:00,METAR,,20,5.0,,,9999.0,,5.0,-1.0,30.26,1025.3,,,,,,,,,,,,,,,Clear,72000.0,,,73000.0,,,,,,
KRDR,09-13-2012,09:00,METAR,,,0.0,,,9999.0,,6.0,-2.0,30.24,1024.7,,,,,,,,,,,,,,,Clear,72000.0,,,73000.0,,,,,,
KRDR,09-13-2012,08:00,METAR,,280,6.0,,,9999.0,,6.0,-2.0,30.23,1024.3,,,,,,,,,,,,,,,Clear,72000.0,,,73000.0,,,,,,
KRDR,09-13-2012,07:00,METAR,,290,5.0,,,9999.0,,7.0,-2.0,30.21,1023.9,,,,,,,,,,,,,,,Clear,72000.0,,,73000.0,,,,,,
KRDR,09-13-2012,06:00,METAR,,280,7.0,,,9999.0,,7.0,-2.0,30.20,1023.4,,,,,,,,,,,,,,,Clear,72000.0,,,73000.0,,,,,,
KRDR,09-13-2012,05:00,METAR,,260,6.0,,,9999.0,,8.0,-2.0,30.20,1023.5,,,,,,,,,,,,,,,Clear,72000.0,,,73000.0,,,,,,
KRDR,09-13-2012,04:00,METAR,,280,5.0,,,9999.0,,8.0,-3.0,30.20,1023.3,,,,,,,,,,,,,,,Clear,72000.0,,,73000.0,,,,,,
KRDR,09-13-2012,03:00,METAR,,270,6.0,,,9999.0,,10.0,-4.0,30.19,1023.2,,,,,,,,,,,,,,,Clear,72000.0,,,73000.0,,,,,,
KRDR,09-13-2012,02:00,METAR,,290,7.0,,,9999.0,,12.0,-5.0,30.17,1022.5,,,,,,,,,,,,,,,Clear,72000.0,,,73000.0,,,,,,
KRDR,09-13-2012,01:00,METAR,,300,7.0,,,9999.0,,16.0,-5.0,30.15,1021.7,,,,,,,,,,,,,,,Clear,72000.0,,,73000.0,,,,,,
KRDR,09-13-2012,00:00,METAR,,320,14.0,23.0,,9999.0,,19.0,-6.0,30.12,1020.8,,,,,,,,,,,,,,,Clear,72000.0,,,73000.0,,,,,,
KRDR,09-12-2012,23:00,METAR,,300,18.0,30.0,290/35KTS,9999.0,,20.0,-8.0,30.10,1020.1,,,,,,,,,,,,,,,Clear,72000.0,,,73000.0,,,,,,
KRDR,09-12-2012,22:00,METAR,,300,19.0,30.0,290/33KTS,9999.0,,21.0,-9.0,30.08,1019.5,,,,,,,,,,,,,,,Clear,72000.0,,,73000.0,,,,,,
KRDR,09-12-2012,21:00,METAR,,290,19.0,31.0,290/36KTS,9999.0,,21.0,-7.0,30.08,1019.5,,,,,,,,,,,,,,,Clear,72000.0,,,73000.0,,,,,,
KRDR,09-12-2012,20:00,METAR,,280,25.0,34.0,280/34KTS,9999.0,,22.0,-7.0,30.08,1019.3,,,,,,,,,,,,,,,Clear,72000.0,,,73000.0,,,,,,
KRDR,09-12-2012,19:00,METAR,,290,22.0,33.0,270/33KTS,9999.0,,22.0,-6.0,30.09,1019.7,,,,,,,,,,,,,,,Clear,72000.0,,,73000.0,,,,,,
KRDR,09-12-2012,18:00,METAR,,290,23.0,31.0,300/39KTS,9999.0,,21.0,-4.0,30.08,1019.4,,,,,,,,,,,,,,,Clear,72000.0,,,73000.0,,,,,,
KRDR,09-12-2012,17:00,METAR,,310,20.0,30.0,310/31KTS,9999.0,,20.0,-2.0,30.08,1019.4,,,,,,,,,,,,,,,Clear,72000.0,,,73000.0,,,,,,
KRDR,09-12-2012,16:00,METAR,,290,17.0,24.0,290/26KTS,9999.0,,19.0,-2.0,30.07,1019.2,,,,,,,,,,,,,,,Clear,72000.0,,,73000.0,,,,,,
KRDR,09-12-2012,15:00,METAR,,290,17.0,21.0,,9999.0,,16.0,-1.0,30.07,1019.0,,,,,,,,,,,,,,,Clear,72000.0,,,73000.0,,,,,,
KRDR,09-12-2012,14:00,METAR,,290,11.0,19.0,,9999.0,,13.0,-1.0,30.06,1018.7,,,,,,,,,,,,,,,Clear,72000.0,,,73000.0,,,,,,
KRDR,09-12-2012,13:00,METAR,,260,8.0,,,9999.0,,10.0,-1.0,30.03,1018.0,,,,,,,,,,,,,,,Clear,72000.0,,,73000.0,,,,,,
KRDR,09-12-2012,12:00,METAR,,260,9.0,,,9999.0,,8.0,0.0,30.03,1017.7,,,,,,,,,,,,,,,Clear,72000.0,,,73000.0,,,,,,
KRDR,09-12-2012,11:00,METAR,,250,8.0,,,9999.0,,9.0,0.0,30.01,1017.3,,,,,,,,,,,,,,,Clear,72000.0,,,73000.0,,,,,,
KRDR,09-12-2012,10:00,METAR,,220,8.0,,,9999.0,,8.0,0.0,30.01,1017.0,,,,,,,,,,,,,,,Clear,72000.0,,,73000.0,,,,,,
KRDR,09-12-2012,09:00,METAR,,250,7.0,,,9999.0,,11.0,1.0,29.99,1016.7,,,,,,,,,,,,,,,Clear,72000.0,,,73000.0,,,,,,
KRDR,09-12-2012,08:00,METAR,,260,7.0,,,9999.0,,12.0,1.0,29.97,1015.8,,,,,,,,,,,,,,,Clear,72000.0,,,73000.0,,,,,,
KRDR,09-12-2012,07:00,METAR,,270,8.0,,,9999.0,,14.0,1.0,29.96,1015.4,,,,,,,,,,,,,,,Clear,72000.0,,,73000.0,,,,,,
KRDR,09-12-2012,06:00,METAR,,250,7.0,,,9999.0,,12.0,1.0,29.93,1014.5,,,,,,,,,,,,,,,Clear,72000.0,,,73000.0,,,,,,
KRDR,09-12-2012,05:00,METAR,,240,7.0,,,9999.0,,10.0,3.0,29.92,1014.2,,,,,,,,,,,,,,,Clear,72000.0,,,73000.0,,,,,,
KRDR,09-12-2012,04:00,METAR,,240,7.0,,,9999.0,,11.0,2.0,29.91,1013.9,,,,,,,,,,,,,,,Clear,72000.0,,,73000.0,,,,,,
KRDR,09-12-2012,03:00,METAR,,260,6.0,,,9999.0,,12.0,1.0,29.90,1013.5,,,,,,,,,,,,,,,Clear,72000.0,,,73000.0,,,,,,
KRDR,09-12-2012,02:00,METAR,,270,6.0,,,9999.0,,11.0,0.0,29.88,1012.8,,,,,,,,,,,,,,,Clear,72000.0,,,73000.0,,,,,,
KRDR,09-12-2012,01:00,METAR,,300,6.0,,,9999.0,,16.0,-1.0,29.85,1011.8,,,,,,,,,,,,,,,Clear,72000.0,,,73000.0,,,,,,
KRDR,09-12-2012,00:00,METAR,,320,12.0,,,9999.0,,20.0,-2.0,29.83,1011.2,,,,,,,,,,,,,,,Clear,72000.0,,,73000.0,,,,,,
KRDR,09-11-2012,23:00,METAR,,310,14.0,17.0,,9999.0,,22.0,-2.0,29.81,1010.6,,,,,,,,,,,,,,,Clear,72000.0,,,73000.0,,,,,,
KRDR,09-11-2012,22:00,METAR,,340,13.0,20.0,,9999.0,,23.0,-2.0,29.78,1009.6,,,,,,,,,,,,,,,Clear,72000.0,,,73000.0,,,,,,
KRDR,09-11-2012,21:00,METAR,,330,17.0,24.0,320/27KTS,9999.0,,23.0,-1.0,29.76,1009.1,,,,,,,,,,,,,,,Clear,72000.0,,,73000.0,,,,,,
KRDR,09-11-2012,20:00,METAR,,350,16.0,,,9999.0,,24.0,1.0,29.74,1008.4,,,,,,,,,,,,,,,Clear,72000.0,,,73000.0,,,,,,
KRDR,09-11-2012,19:00,METAR,,340,18.0,25.0,340/28KTS,9999.0,,24.0,0.0,29.73,1007.8,,,,,,,,,,,,,,,Clear,72000.0,,,73000.0,,,,,,
KRDR,09-11-2012,18:00,METAR,,340,17.0,23.0,,9999.0,,24.0,1.0,29.71,1007.4,,,,,,,,,,,,,TRACE,,Clear,72000.0,,,73000.0,,,,,,
KRDR,09-11-2012,17:00,METAR,,340,15.0,22.0,,9999.0,,23.0,3.0,29.71,1007.2,,,,,,,,,,,TRACE,,,,Clear,72000.0,,,73000.0,,,,,,
KRDR,09-11-2012,16:22,SPECI,,360,11.0,,,9999.0,,24.0,3.0,29.70,1007.1,,,,,,,,,,,,,,,Clear,72000.0,,,73000.0,,,,,,
KRDR,09-11-2012,16:13,SPECI,,350,15.0,,,9999.0,,22.0,3.0,29.70,1006.8,,,,,,,,,,,,,,,2/8 Mostly Clear,72000.0,,FEW,7900.0,,,,,,
KRDR,09-11-2012,16:00,METAR,,10,15.0,20.0,,9999.0,,22.0,4.0,29.68,1006.2,,,,,,,,,,,TRACE,,,,Clear,72000.0,,,73000.0,,,,,,
KRDR,09-11-2012,15:28,SPECI,,10,14.0,,,9999.0,,21.0,6.0,29.68,1006.3,,,,,,,,,,,,,,,Clear,72000.0,,,73000.0,,,,,,
KRDR,09-11-2012,15:16,SPECI,,10,8.0,,,9999.0,Light Rain,20.0,6.0,29.69,1006.7,61,,,,,,,,,,,,,,Clear,72000.0,,,73000.0,,,,,,
KRDR,09-11-2012,15:00,METAR,,40,3.0,,,9999.0,,21.0,7.0,29.71,1007.4,,,,,,,,,,,,,,,Clear,72000.0,,,73000.0,,,,,,
KRDR,09-11-2012,14:00,METAR,,30,6.0,,,9999.0,,19.0,9.0,29.66,1005.5,,,,,,,,,,,,,,,Clear,72000.0,,,73000.0,,,,,,
KRDR,09-11-2012,13:00,METAR,,30,5.0,,,9999.0,,14.0,10.0,29.62,1004.3,,,,,,,,,,,,,,,Clear,72000.0,,,73000.0,,,,,,
KRDR,09-11-2012,12:00,METAR,,80,6.0,,,9999.0,,15.0,10.0,29.62,1004.4,,,,,,,,,,,,,TRACE,,Clear,72000.0,,,73000.0,,,,,,
KRDR,09-11-2012,11:00,METAR,,60,4.0,,,9999.0,,14.0,11.0,29.60,1003.8,,,,,,,,,,,TRACE,,,,Clear,72000.0,,,73000.0,,,,,,
KRDR,09-11-2012,10:15,SPECI,,,0.0,,,9999.0,,13.0,10.0,29.62,1004.2,,,,,,,,,,,,,,,2/8 Mostly Clear,72000.0,,FEW,11000.0,,,,,,
KRDR,09-11-2012,10:04,SPECI,,270,3.0,,,9999.0,Light Rain,12.0,10.0,29.62,1004.4,61,,,,,,,,,,,,,,2/8 Mostly Clear,72000.0,,FEW,11000.0,,,,,,
KRDR,09-11-2012,10:00,METAR,,330,3.0,,,9999.0,,12.0,9.0,29.60,1003.8,,,,,,,,,,,,,,,Clear,72000.0,,,73000.0,,,,,,
KRDR,09-11-2012,09:00,METAR,,,0.0,,,9999.0,,13.0,9.0,29.57,1002.8,,,,,,,,,,,,,,,Clear,72000.0,,,73000.0,,,,,,
KRDR,09-11-2012,08:00,METAR,,170,7.0,,,9999.0,,11.0,9.0,29.59,1003.4,,,,,,,,,,,,,,,Clear,72000.0,,,73000.0,,,,,,
KRDR,09-11-2012,07:00,METAR,,,0.0,,,9999.0,,14.0,10.0,29.60,1003.6,,,,,,,,,,,,,,,Clear,72000.0,,,73000.0,,,,,,
KRDR,09-11-2012,06:00,METAR,,110,4.0,,,9999.0,,16.0,10.0,29.61,1003.8,,,,,,,,,,,,,,,Clear,72000.0,,,73000.0,,,,,,
KRDR,09-11-2012,05:00,METAR,,,0.0,,,9999.0,,18.0,11.0,29.61,1004.0,,,,,,,,,,,,,,,Clear,72000.0,,,73000.0,,,,,,
KRDR,09-11-2012,04:00,METAR,,,0.0,,,9999.0,,17.0,10.0,29.61,1004.0,,,,,,,,,,,,,,,Clear,72000.0,,,73000.0,,,,,,
KRDR,09-11-2012,03:00,METAR,,200,5.0,,,9999.0,,19.0,10.0,29.60,1003.6,,,,,,,,,,,,,,,Clear,72000.0,,,73000.0,,,,,,
KRDR,09-11-2012,02:00,METAR,,170,4.0,,,9999.0,,20.0,11.0,29.59,1003.2,,,,,,,,,,,,,,,Clear,72000.0,,,73000.0,,,,,,
KRDR,09-11-2012,01:00,METAR,,150,5.0,,,9999.0,,24.0,10.0,29.57,1002.8,,,,,,,,,,,,,,,Clear,72000.0,,,73000.0,,,,,,
KRDR,09-11-2012,00:00,METAR,,190,8.0,,,9999.0,,29.0,9.0,29.57,1002.5,,,,,,,,,,,,,,,Clear,72000.0,,,73000.0,,,,,,
KRDR,09-10-2012,23:00,METAR,,190,13.0,,,9999.0,,30.0,8.0,29.56,1002.4,,,,,,,,,,,,,,,Clear,72000.0,,,73000.0,,,,,,
KRDR,09-10-2012,22:00,METAR,,210,16.0,21.0,,9999.0,,31.0,7.0,29.56,1002.4,,,,,,,,,,,,,,,Clear,72000.0,,,73000.0,,,,,,
KRDR,09-10-2012,21:00,METAR,,180,14.0,21.0,,9999.0,,30.0,8.0,29.57,1002.7,,,,,,,,,,,,,,,Clear,72000.0,,,73000.0,,,,,,
KRDR,09-10-2012,20:00,METAR,,210,16.0,,,9999.0,,30.0,8.0,29.60,1003.6,,,,,,,,,,,,,,,Clear,72000.0,,,73000.0,,,,,,
KRDR,09-10-2012,19:00,METAR,,200,17.0,23.0,,9999.0,,29.0,7.0,29.60,1003.6,,,,,,,,,,,,,,,Clear,72000.0,,,73000.0,,,,,,
KRDR,09-10-2012,18:00,METAR,,160,16.0,,,9999.0,,27.0,8.0,29.61,1003.9,,,,,,,,,,,,,,,Clear,72000.0,,,73000.0,,,,,,
KRDR,09-10-2012,17:00,METAR,,170,15.0,,,9999.0,,24.0,8.0,29.64,1004.9,,,,,,,,,,,,,,,Clear,72000.0,,,73000.0,,,,,,
KRDR,09-10-2012,16:00,METAR,,180,16.0,,,9999.0,,21.0,7.0,29.66,1005.5,,,,,,,,,,,,,,,Clear,72000.0,,,73000.0,,,,,,
KRDR,09-10-2012,15:00,METAR,,170,17.0,,,9999.0,,19.0,7.0,29.68,1006.2,,,,,,,,,,,,,,,Clear,72000.0,,,73000.0,,,,,,
KRDR,09-10-2012,14:00,METAR,,170,13.0,,,9999.0,,15.0,7.0,29.70,1007.0,,,,,,,,,,,,,,,Clear,72000.0,,,73000.0,,,,,,
KRDR,09-10-2012,13:00,METAR,,170,9.0,,,9999.0,,12.0,6.0,29.72,1007.6,,,,,,,,,,,,,,,Clear,72000.0,,,73000.0,,,,,,
KRDR,09-10-2012,12:00,METAR,,180,12.0,,,9999.0,,12.0,6.0,29.74,1008.1,,,,,,,,,,,,,,,Clear,72000.0,,,73000.0,,,,,,
KRDR,09-10-2012,11:00,METAR,,170,10.0,,,9999.0,,12.0,6.0,29.75,1008.6,,,,,,,,,,,,,,,Clear,72000.0,,,73000.0,,,,,,
KRDR,09-10-2012,10:00,METAR,,160,11.0,,,9999.0,,11.0,5.0,29.77,1009.2,,,,,,,,,,,,,,,Clear,72000.0,,,73000.0,,,,,,
KRDR,09-10-2012,09:00,METAR,,160,11.0,,,9999.0,,11.0,5.0,29.79,1010.0,,,,,,,,,,,,,,,Clear,72000.0,,,73000.0,,,,,,
KRDR,09-10-2012,08:00,METAR,,160,9.0,,,9999.0,,11.0,5.0,29.83,1011.2,,,,,,,,,,,,,,,Clear,72000.0,,,73000.0,,,,,,
KRDR,09-10-2012,07:00,METAR,,160,8.0,,,9999.0,,12.0,5.0,29.86,1012.2,,,,,,,,,,,,,,,Clear,72000.0,,,73000.0,,,,,,
KRDR,09-10-2012,06:00,METAR,,160,12.0,,,9999.0,,14.0,4.0,29.88,1012.8,,,,,,,,,,,,,,,Clear,72000.0,,,73000.0,,,,,,
KRDR,09-10-2012,05:00,METAR,,160,12.0,,,9999.0,,14.0,4.0,29.90,1013.6,,,,,,,,,,,,,,,Clear,72000.0,,,73000.0,,,,,,
KRDR,09-10-2012,04:00,METAR,,160,10.0,,,9999.0,,15.0,4.0,29.92,1014.4,,,,,,,,,,,,,,,Clear,72000.0,,,73000.0,,,,,,
KRDR,09-10-2012,03:00,METAR,,160,13.0,,,9999.0,,16.0,4.0,29.94,1014.8,,,,,,,,,,,,,,,Clear,72000.0,,,73000.0,,,,,,
KRDR,09-10-2012,02:00,METAR,,160,8.0,,,9999.0,,17.0,5.0,29.95,1015.1,,,,,,,,,,,,,,,Clear,72000.0,,,73000.0,,,,,,
KRDR,09-10-2012,01:00,METAR,,160,9.0,,,9999.0,,19.0,5.0,29.95,1015.3,,,,,,,,,,,,,,,Clear,72000.0,,,73000.0,,,,,,
KRDR,09-10-2012,00:00,METAR,,180,11.0,,,9999.0,,22.0,3.0,29.97,1015.8,,,,,,,,,,,,,,,Clear,72000.0,,,73000.0,,,,,,
KRDR,09-09-2012,23:00,METAR,,170,13.0,,,9999.0,,23.0,3.0,29.99,1016.5,,,,,,,,,,,,,,,Clear,72000.0,,,73000.0,,,,,,
KRDR,09-09-2012,22:00,METAR,,170,12.0,,,9999.0,,24.0,3.0,30.02,1017.4,,,,,,,,,,,,,,,Clear,72000.0,,,73000.0,,,,,,
KRDR,09-09-2012,21:00,METAR,,170,11.0,,,9999.0,,23.0,4.0,30.05,1018.5,,,,,,,,,,,,,,,Clear,72000.0,,,73000.0,,,,,,
KRDR,09-09-2012,20:00,METAR,,180,8.0,,,9999.0,,23.0,4.0,30.08,1019.6,,,,,,,,,,,,,,,Clear,72000.0,,,73000.0,,,,,,
KRDR,09-09-2012,19:00,METAR,,200,9.0,,,9999.0,,21.0,5.0,30.11,1020.6,,,,,,,,,,,,,,,Clear,72000.0,,,73000.0,,,,,,
KRDR,09-09-2012,18:00,METAR,,180,9.0,,,9999.0,,20.0,6.0,30.15,1021.8,,,,,,,,,,,,,,,Clear,72000.0,,,73000.0,,,,,,
KRDR,09-09-2012,17:00,METAR,,190,9.0,,,9999.0,,19.0,7.0,30.17,1022.6,,,,,,,,,,,,,,,Clear,72000.0,,,73000.0,,,,,,
KRDR,09-09-2012,16:00,METAR,,220,8.0,,,9999.0,,18.0,7.0,30.19,1023.2,,,,,,,,,,,,,,,Clear,72000.0,,,73000.0,,,,,,
KRDR,09-09-2012,15:00,METAR,,210,5.0,,,9999.0,,15.0,7.0,30.20,1023.5,,,,,,,,,,,,,,,Clear,72000.0,,,73000.0,,,,,,
KRDR,09-09-2012,14:00,METAR,,220,3.0,,,9999.0,,10.0,7.0,30.21,1023.7,,,,,,,,,,,,,,,Clear,72000.0,,,73000.0,,,,,,
KRDR,09-09-2012,13:00,METAR,,200,3.0,,,9999.0,,4.0,3.0,30.21,1023.9,,,,,,,,,,,,,,,Clear,72000.0,,,73000.0,,,,,,
KRDR,09-09-2012,12:00,METAR,,,0.0,,,9999.0,,2.0,1.0,30.22,1024.0,,,,,,,,,,,,,,,Clear,72000.0,,,73000.0,,,,,,
KRDR,09-09-2012,11:00,METAR,,,0.0,,,9999.0,,3.0,2.0,30.21,1023.6,,,,,,,,,,,,,,,Clear,72000.0,,,73000.0,,,,,,
KRDR,09-09-2012,10:00,METAR,,270,3.0,,,9999.0,,3.0,2.0,30.19,1023.1,,,,,,,,,,,,,,,Clear,72000.0,,,73000.0,,,,,,
KRDR,09-09-2012,09:00,METAR,,,0.0,,,9999.0,,4.0,3.0,30.18,1022.8,,,,,,,,,,,,,,,Clear,72000.0,,,73000.0,,,,,,
KRDR,09-09-2012,08:00,METAR,,300,4.0,,,9999.0,,4.0,3.0,30.18,1022.8,,,,,,,,,,,,,,,Clear,72000.0,,,73000.0,,,,,,
KRDR,09-09-2012,07:00,METAR,,300,5.0,,,9999.0,,5.0,4.0,30.18,1022.7,,,,,,,,,,,,,,,Clear,72000.0,,,73000.0,,,,,,
KRDR,09-09-2012,06:00,METAR,,300,3.0,,,9999.0,,5.0,4.0,30.18,1022.6,,,,,,,,,,,,,,,Clear,72000.0,,,73000.0,,,,,,
KRDR,09-09-2012,05:00,METAR,,320,4.0,,,9999.0,,6.0,5.0,30.17,1022.3,,,,,,,,,,,,,,,Clear,72000.0,,,73000.0,,,,,,
KRDR,09-09-2012,04:00,METAR,,310,3.0,,,9999.0,,7.0,5.0,30.16,1022.0,,,,,,,,,,,,,,,Clear,72000.0,,,73000.0,,,,,,
KRDR,09-09-2012,03:00,METAR,,360,3.0,,,9999.0,,10.0,6.0,30.15,1021.8,,,,,,,,,,,,,,,Clear,72000.0,,,73000.0,,,,,,
KRDR,09-09-2012,02:00,METAR,,20,4.0,,,9999.0,,11.0,7.0,30.14,1021.4,,,,,,,,,,,,,,,Clear,72000.0,,,73000.0,,,,,,
KRDR,09-09-2012,01:00,METAR,,30,9.0,,,9999.0,,16.0,7.0,30.11,1020.6,,,,,,,,,,,,,,,2/8 Mostly Clear,72000.0,,FEW,5000.0,,,,,,
KRDR,09-09-2012,00:00,METAR,,10,15.0,22.0,020/26KTS,9999.0,,19.0,6.0,30.10,1020.3,,,,,,,,,,,,,,,4/8 Partly Cloudy,72000.0,,SCT,5000.0,,,,,,
KRDR,09-08-2012,23:00,METAR,,20,18.0,26.0,030/28KTS,9999.0,,19.0,6.0,30.09,1019.9,,,,,,,,,,,,,,,8/8 Overcast,4900.0,,OVC,5000.0,,,,,,
KRDR,09-08-2012,22:00,METAR,,10,21.0,29.0,360/29KTS,9999.0,,20.0,6.0,30.08,1019.4,,,,,,,,,,,,,,,8/8 Overcast,6000.0,,OVC,5900.0,,,,,,
KRDR,09-08-2012,21:00,METAR,,10,18.0,29.0,360/31KTS,9999.0,,19.0,6.0,30.07,1019.1,,,,,,,,,,,,,,,7/8 Mostly Cloudy,4900.0,,BKN,5000.0,,,,,,
KRDR,09-08-2012,20:00,METAR,,360,19.0,29.0,350/32KTS,9999.0,,20.0,6.0,30.05,1018.6,,,,,,,,,,,,,,,7/8 Mostly Cloudy,4900.0,,BKN,5000.0,,,,,,
KRDR,09-08-2012,19:00,METAR,,20,20.0,29.0,010/30KTS,9999.0,,20.0,6.0,30.04,1018.2,,,,,,,,,,,,,,,7/8 Mostly Cloudy,4900.0,,BKN,5000.0,,,,,,
KRDR,09-08-2012,18:00,METAR,,360,24.0,29.0,360/30KTS,9999.0,,19.0,5.0,30.02,1017.5,,,,,,,,,,,,,,,2/8 Mostly Clear,72000.0,,FEW,4800.0,,,,,,
KRDR,09-08-2012,17:00,METAR,,10,18.0,27.0,360/30KTS,9999.0,,18.0,6.0,30.01,1017.3,,,,,,,,,,,,,,,Clear,72000.0,,,73000.0,,,,,,
KRDR,09-08-2012,16:00,METAR,,360,21.0,27.0,350/29KTS,9999.0,,17.0,6.0,30.00,1016.9,,,,,,,,,,,,,,,2/8 Mostly Clear,72000.0,,FEW,3800.0,,,,,,
KRDR,09-08-2012,15:00,METAR,,10,16.0,22.0,,9999.0,,16.0,7.0,29.99,1016.4,,,,,,,,,,,,,,,2/8 Mostly Clear,72000.0,,FEW,2800.0,,,,,,
KRDR,09-08-2012,14:36,SPECI,,20,20.0,25.0,,9999.0,,16.0,7.0,29.97,1016.0,,,,,,,,,,,,,,,4/8 Partly Cloudy,72000.0,,SCT,2700.0,,,,,,
KRDR,09-08-2012,14:00,METAR,,350,12.0,19.0,,9999.0,,15.0,8.0,29.96,1015.5,,,,,,,,,,,,,,,8/8 Overcast,2500.0,,OVC,2500.0,,,,,,
KRDR,09-08-2012,13:30,SPECI,,350,12.0,16.0,,9999.0,,15.0,8.0,29.96,1015.5,,,,,,,,,,,,,,,7/8 Mostly Cloudy,2600.0,,BKN,2600.0,BKN,8900.0,,,,
KRDR,09-08-2012,13:00,METAR,,340,10.0,,,9999.0,,14.0,7.0,29.94,1014.9,,,,,,,,,,,,,,,2/8 Mostly Clear,72000.0,,FEW,8900.0,,,,,,
KRDR,09-08-2012,12:00,METAR,,330,10.0,,,9999.0,,13.0,6.0,29.91,1014.0,,,,,,,,,,,,,,,Clear,72000.0,,,73000.0,,,,,,
KRDR,09-08-2012,11:00,METAR,,280,11.0,,,9999.0,,14.0,6.0,29.89,1013.2,,,,,,,,,,,,,,,Clear,72000.0,,,73000.0,,,,,,
KRDR,09-08-2012,10:00,METAR,,280,9.0,,,9999.0,,13.0,6.0,29.92,1014.1,,,,,,,,,,,,,,,Clear,72000.0,,,73000.0,,,,,,
KRDR,09-08-2012,09:00,METAR,,260,7.0,,,9999.0,,11.0,6.0,29.94,1014.9,,,,,,,,,,,,,,,Clear,72000.0,,,73000.0,,,,,,
KRDR,09-08-2012,08:00,METAR,,260,9.0,,,9999.0,,12.0,6.0,29.96,1015.6,,,,,,,,,,,,,,,Clear,72000.0,,,73000.0,,,,,,
KRDR,09-08-2012,07:00,METAR,,260,7.0,,,9999.0,,11.0,7.0,29.99,1016.4,,,,,,,,,,,,,,,Clear,72000.0,,,73000.0,,,,,,
KRDR,09-08-2012,06:00,METAR,,260,7.0,,,9999.0,,11.0,7.0,30.02,1017.4,,,,,,,,,,,,,,,Clear,72000.0,,,73000.0,,,,,,
KRDR,09-08-2012,05:00,METAR,,260,7.0,,,9999.0,,11.0,7.0,30.02,1017.6,,,,,,,,,,,,,,,Clear,72000.0,,,73000.0,,,,,,
KRDR,09-08-2012,04:00,METAR,,260,7.0,,,9999.0,,10.0,6.0,30.04,1018.2,,,,,,,,,,,,,,,Clear,72000.0,,,73000.0,,,,,,
KRDR,09-08-2012,03:00,METAR,,280,7.0,,,9999.0,,13.0,7.0,30.06,1018.8,,,,,,,,,,,,,,,Clear,72000.0,,,73000.0,,,,,,
KRDR,09-08-2012,02:00,METAR,,280,6.0,,,9999.0,,13.0,7.0,30.07,1019.3,,,,,,,,,,,,,,,Clear,72000.0,,,73000.0,,,,,,
KRDR,09-08-2012,01:00,METAR,,300,6.0,,,9999.0,,16.0,6.0,30.07,1019.0,,,,,,,,,,,,,,,Clear,72000.0,,,73000.0,,,,,,
KRDR,09-08-2012,00:00,METAR,,330,12.0,16.0,,9999.0,,19.0,5.0,30.07,1019.2,,,,,,,,,,,,,,,Clear,72000.0,,,73000.0,,,,,,
KRDR,09-07-2012,23:00,METAR,,320,11.0,17.0,,9999.0,,20.0,5.0,30.07,1019.3,,,,,,,,,,,,,,,7/8 Mostly Cloudy,6000.0,,BKN,5900.0,,,,,,
KRDR,09-07-2012,22:00,METAR,,340,11.0,18.0,,9999.0,,20.0,5.0,30.08,1019.4,,,,,,,,,,,,,,,7/8 Mostly Cloudy,6000.0,,BKN,5900.0,,,,,,
KRDR,09-07-2012,21:00,METAR,,10,12.0,18.0,,9999.0,,20.0,5.0,30.08,1019.6,,,,,,,,,,,,,,,7/8 Mostly Cloudy,6000.0,,BKN,5900.0,,,,,,
KRDR,09-07-2012,20:00,METAR,,10,16.0,20.0,,9999.0,,20.0,6.0,30.09,1019.8,,,,,,,,,,,,,,,7/8 Mostly Cloudy,4900.0,,BKN,5000.0,,,,,,
KRDR,09-07-2012,19:00,METAR,,360,11.0,19.0,,9999.0,,19.0,6.0,30.10,1020.1,,,,,,,,,,,,,,,4/8 Partly Cloudy,72000.0,,SCT,5000.0,,,,,,
KRDR,09-07-2012,18:00,METAR,,330,12.0,20.0,,9999.0,,17.0,6.0,30.11,1020.5,,,,,,,,,,,,,,,7/8 Mostly Cloudy,4500.0,,BKN,4600.0,,,,,,
KRDR,09-07-2012,17:00,METAR,,340,14.0,18.0,,9999.0,,17.0,7.0,30.11,1020.6,,,,,,,,,,,,,,,7/8 Mostly Cloudy,3600.0,,BKN,3700.0,BKN,4700.0,,,,
KRDR,09-07-2012,16:00,METAR,,360,13.0,,,9999.0,,15.0,8.0,30.12,1020.7,,,,,,,,,,,,,,,7/8 Mostly Cloudy,8000.0,,BKN,7900.0,,,,,,
KRDR,09-07-2012,15:00,METAR,,350,11.0,17.0,,9999.0,,14.0,7.0,30.12,1020.7,,,,,,,,,,,,,,,7/8 Mostly Cloudy,8000.0,,BKN,7900.0,,,,,,
KRDR,09-07-2012,14:00,METAR,,340,11.0,,,9999.0,,12.0,8.0,30.12,1020.6,,,,,,,,,,,,,,,8/8 Overcast,7000.0,,BKN,6900.0,OVC,7900.0,,,,
KRDR,09-07-2012,13:00,METAR,,310,5.0,,,9999.0,,11.0,8.0,30.10,1020.2,,,,,,,,,,,,,,,8/8 Overcast,7000.0,,OVC,6900.0,,,,,,
KRDR,09-07-2012,12:00,METAR,,300,6.0,,,9999.0,,9.0,8.0,30.08,1019.5,,,,,,,,,,,,,,.04 IN,8/8 Overcast,8000.0,,OVC,7900.0,,,,,,
KRDR,09-07-2012,11:00,METAR,,340,5.0,,,9999.0,,10.0,8.0,30.06,1019.0,,,,,,,,,,,,,,,4/8 Partly Cloudy,72000.0,,SCT,7900.0,,,,,,
KRDR,09-07-2012,10:00,METAR,,350,7.0,,,9999.0,,11.0,9.0,30.05,1018.6,,,,,,,,,,,,,,,8/8 Overcast,8000.0,,OVC,7900.0,,,,,,
KRDR,09-07-2012,09:00,METAR,,350,7.0,,,9999.0,,12.0,9.0,30.04,1018.2,,,,,,,,,,,,,,,8/8 Overcast,8000.0,,OVC,7900.0,,,,,,
KRDR,09-07-2012,08:00,METAR,,340,4.0,,,9999.0,,12.0,9.0,30.04,1018.0,,,,,,,,,,,,,,,8/8 Overcast,9000.0,,OVC,8900.0,,,,,,
KRDR,09-07-2012,07:00,METAR,,310,5.0,,,9999.0,,12.0,9.0,30.04,1018.0,,,,,,,,,,,,,,,8/8 Overcast,7000.0,,FEW,5900.0,OVC,8900.0,,,,
KRDR,09-07-2012,06:00,METAR,,320,4.0,,,9999.0,,11.0,8.0,30.02,1017.6,,,,,,,,,,,,,,,8/8 Overcast,8000.0,,OVC,7900.0,,,,,,
KRDR,09-07-2012,05:00,METAR,,10,6.0,,,9999.0,,12.0,9.0,30.01,1017.3,,,,,,,,,,,,,,,7/8 Mostly Cloudy,8000.0,,BKN,7900.0,,,,,,
KRDR,09-07-2012,04:00,METAR,,360,4.0,,,9999.0,,14.0,10.0,30.01,1017.1,,,,,,,,,,,,,,,8/8 Overcast,8000.0,,OVC,7900.0,,,,,,
KRDR,09-07-2012,03:00,METAR,,350,4.0,,,9999.0,,14.0,13.0,29.99,1016.5,,,,,,,,,,,,,,,8/8 Overcast,8000.0,,FEW,5900.0,OVC,7900.0,,,,
KRDR,09-07-2012,02:00,METAR,,300,5.0,,,9999.0,,14.0,13.0,29.97,1015.8,,,,,,,,,,,,,,,8/8 Overcast,8000.0,,OVC,7900.0,,,,,,
KRDR,09-07-2012,01:00,METAR,,270,4.0,,,9999.0,,14.0,13.0,29.96,1015.5,,,,,,,,,,,,,,,7/8 Mostly Cloudy,9000.0,,BKN,8900.0,,,,,,
KRDR,09-07-2012,00:00,METAR,,300,4.0,,,9999.0,,15.0,14.0,29.94,1015.0,,,,,,,,,,,,,.03 IN,,8/8 Overcast,10000.0,,OVC,9900.0,,,,,,
KRDR,09-06-2012,23:00,METAR,,290,4.0,,,9999.0,,15.0,14.0,29.94,1014.9,,,,,,,,,,,.03 IN,,,,7/8 Mostly Cloudy,9000.0,,FEW,4300.0,BKN,8900.0,,,,
KRDR,09-06-2012,22:41,SPECI,,280,4.0,,,9999.0,,15.0,14.0,29.94,1014.9,,,,,,,,,,,,,,,7/8 Mostly Cloudy,9000.0,,SCT,5000.0,BKN,8900.0,,,,
KRDR,09-06-2012,22:01,SPECI,,340,8.0,,,9999.0,Light Rain,19.0,11.0,29.94,1014.7,61,,,,,,,,,,,,,,7/8 Mostly Cloudy,3600.0,,SCT,3800.0,SCT,4900.0,BKN,5900.0,,
KRDR,09-06-2012,22:00,METAR,,340,9.0,,,9999.0,,19.0,10.0,29.93,1014.6,,,,,,,,,,,,,,,4/8 Partly Cloudy,72000.0,,FEW,4300.0,SCT,5900.0,,,,
KRDR,09-06-2012,21:00,METAR,,360,6.0,,,9999.0,,18.0,13.0,29.93,1014.6,,,,,,,,,,,,TRACE,,,7/8 Mostly Cloudy,1800.0,,BKN,2100.0,BKN,2700.0,BKN,3300.0,,
KRDR,09-06-2012,20:33,SPECI,,300,6.0,,,9999.0,,17.0,13.0,29.94,1014.7,,,,,,,,,,,,,,,7/8 Mostly Cloudy,2800.0,,SCT,2100.0,BKN,2800.0,BKN,3300.0,,
KRDR,09-06-2012,20:31,SPECI,,310,5.0,,,9999.0,,17.0,13.0,29.94,1014.7,,,,,,,,,,,,,,,7/8 Mostly Cloudy,3000.0,,SCT,2100.0,BKN,3000.0,BKN,8900.0,,
KRDR,09-06-2012,20:29,SPECI,,310,5.0,,,9999.0,,17.0,13.0,29.94,1014.7,,,,,,,,,,,,,,,7/8 Mostly Cloudy,2800.0,,SCT,2100.0,BKN,2800.0,BKN,8900.0,,
KRDR,09-06-2012,20:00,METAR,,350,5.0,,,9999.0,,16.0,12.0,29.94,1014.7,,,,,,,,,,,TRACE,,,,7/8 Mostly Cloudy,8000.0,,BKN,7900.0,,,,,,
KRDR,09-06-2012,19:28,SPECI,,10,4.0,,,9999.0,,16.0,12.0,29.94,1014.8,,,,,,,,,,,,,,,7/8 Mostly Cloudy,8000.0,,BKN,7900.0,,,,,,
KRDR,09-06-2012,19:00,METAR,,350,7.0,,,9999.0,Drizzle,16.0,13.0,29.95,1015.1,,,,51,,,,,,,TRACE,,,,7/8 Mostly Cloudy,8000.0,,BKN,7900.0,,,,,,
KRDR,09-06-2012,17:53,SPECI,,340,3.0,,,9999.0,Light Drizzle,15.0,12.0,29.95,1015.3,51,,,,,,,,,,,,,,7/8 Mostly Cloudy,7000.0,,FEW,1100.0,BKN,6900.0,,,,
KRDR,09-06-2012,17:51,SPECI,,340,4.0,,,9999.0,,15.0,12.0,29.95,1015.3,,,,,,,,,,,,,,,7/8 Mostly Cloudy,7000.0,,FEW,1100.0,BKN,6900.0,,,,
KRDR,09-06-2012,17:49,SPECI,,340,4.0,,,9999.0,,15.0,12.0,29.95,1015.2,,,,,,,,,,,,,,,7/8 Mostly Cloudy,7000.0,,FEW,2400.0,BKN,6900.0,,,,
KRDR,09-06-2012,17:00,METAR,,20,3.0,,,9999.0,Light Drizzle,15.0,12.0,29.95,1015.0,51,,,,,,,,,,TRACE,,,,7/8 Mostly Cloudy,9000.0,,FEW,1900.0,BKN,8900.0,,,,
KRDR,09-06-2012,16:37,SPECI,,30,6.0,,,9999.0,,16.0,12.0,29.95,1015.1,,,,,,,,,,,,,,,7/8 Mostly Cloudy,8000.0,,FEW,5000.0,BKN,7900.0,,,,
KRDR,09-06-2012,16:00,METAR,,10,6.0,,,9999.0,,15.0,11.0,29.95,1015.1,,,,,,,,,,,TRACE,,,,2/8 Mostly Clear,72000.0,,FEW,8900.0,,,,,,
KRDR,09-06-2012,15:54,SPECI,,10,8.0,,,9999.0,,15.0,11.0,29.95,1015.2,,,,,,,,,,,,,,,2/8 Mostly Clear,72000.0,,FEW,8900.0,,,,,,
KRDR,09-06-2012,15:36,SPECI,,360,5.0,,,9999.0,,15.0,11.0,29.94,1014.9,,,,,,,,,,,,,,,2/8 Mostly Clear,72000.0,,FEW,6900.0,,,,,,
KRDR,09-06-2012,15:00,METAR,,350,7.0,,,9999.0,,15.0,11.0,29.95,1015.3,,,,,,,,,,,TRACE,0 IN,,,8/8 Overcast,7000.0,,OVC,6900.0,,,,,,
KRDR,09-06-2012,14:43,SPECI,,350,7.0,,,9999.0,,15.0,11.0,29.95,1015.2,,,,,,,,,,,,,,,8/8 Overcast,7000.0,,OVC,6900.0,,,,,,
KRDR,09-06-2012,14:32,SPECI,,350,7.0,,,9999.0,,15.0,11.0,29.95,1015.1,,,,,,,,,,,,,,,8/8 Overcast,7000.0,,OVC,6900.0,,,,,,
KRDR,09-06-2012,14:00,METAR,,350,6.0,,,9999.0,,15.0,11.0,29.94,1014.9,,,,,,,,,,,,,,,8/8 Overcast,7000.0,,OVC,6900.0,,,,,,
KRDR,09-06-2012,13:00,METAR,,340,7.0,,,9999.0,,14.0,11.0,29.93,1014.4,,,,,,,,,,,TRACE,,,,7/8 Mostly Cloudy,7000.0,,BKN,6900.0,,,,,,
KRDR,09-06-2012,12:21,SPECI,,280,3.0,,,9999.0,,12.0,10.0,29.92,1014.1,,,,,,,,,,,,,,,7/8 Mostly Cloudy,7000.0,,BKN,6900.0,BKN,8900.0,,,,
KRDR,09-06-2012,11:51,SPECI,,260,5.0,,,9999.0,Light Rain,12.0,10.0,29.91,1013.8,61,,,,,,,,,,,,,,8/8 Overcast,8000.0,,FEW,5900.0,BKN,7900.0,OVC,12000.0,,
KRDR,09-06-2012,11:38,SPECI,,,0.0,,,9999.0,,12.0,9.0,29.90,1013.5,,,,,,,,,,,,,,,4/8 Partly Cloudy,72000.0,,SCT,8900.0,SCT,12000.0,,,,
KRDR,09-06-2012,11:28,SPECI,,340,3.0,,,9999.0,Light Rain,12.0,9.0,29.90,1013.5,61,,,,,,,,,,,,,,2/8 Mostly Clear,72000.0,,FEW,9900.0,,,,,,
KRDR,09-06-2012,11:00,METAR,,310,4.0,,,9999.0,,11.0,9.0,29.89,1013.2,,,,,,,,,,,,,,,4/8 Partly Cloudy,72000.0,,SCT,9900.0,SCT,12000.0,,,,
KRDR,09-06-2012,10:00,METAR,,,0.0,,,9999.0,,11.0,8.0,29.88,1012.9,,,,,,,,,,,,,,,4/8 Partly Cloudy,72000.0,,SCT,9900.0,,,,,,
KRDR,09-06-2012,09:00,METAR,,,0.0,,,9999.0,,9.0,7.0,29.89,1013.1,,,,,,,,,,,,,,,Clear,72000.0,,,73000.0,,,,,,
KRDR,09-06-2012,08:00,METAR,,250,4.0,,,9999.0,,9.0,7.0,29.88,1012.9,,,,,,,,,,,,,,,Clear,72000.0,,,73000.0,,,,,,
KRDR,09-06-2012,07:00,METAR,,,0.0,,,9999.0,,10.0,8.0,29.88,1013.0,,,,,,,,,,,,,,,Clear,72000.0,,,73000.0,,,,,,
KRDR,09-06-2012,06:00,METAR,,300,5.0,,,9999.0,,13.0,8.0,29.88,1012.8,,,,,,,,,,,,,,,Clear,72000.0,,,73000.0,,,,,,
KRDR,09-06-2012,05:00,METAR,,300,8.0,,,9999.0,,13.0,8.0,29.87,1012.5,,,,,,,,,,,,,,,Clear,72000.0,,,73000.0,,,,,,
KRDR,09-06-2012,04:00,METAR,,280,4.0,,,9999.0,,11.0,8.0,29.86,1012.2,,,,,,,,,,,,,,,Clear,72000.0,,,73000.0,,,,,,
KRDR,09-06-2012,03:00,METAR,,280,4.0,,,9999.0,,13.0,8.0,29.86,1012.2,,,,,,,,,,,,,,,Clear,72000.0,,,73000.0,,,,,,
KRDR,09-06-2012,02:00,METAR,,270,3.0,,,9999.0,,16.0,8.0,29.85,1012.0,,,,,,,,,,,,,,,7/8 Mostly Cloudy,7000.0,,BKN,6900.0,BKN,8900.0,,,,
KRDR,09-06-2012,01:00,METAR,,,0.0,,,9999.0,,20.0,8.0,29.84,1011.6,,,,,,,,,,,,,,,7/8 Mostly Cloudy,8000.0,,BKN,7900.0,,,,,,
KRDR,09-06-2012,00:00,METAR,,310,9.0,,,9999.0,,23.0,7.0,29.84,1011.4,,,,,,,,,,,,,,,4/8 Partly Cloudy,72000.0,,SCT,7900.0,,,,,,
KRDR,09-05-2012,23:00,METAR,,300,9.0,,,9999.0,,23.0,7.0,29.84,1011.5,,,,,,,,,,,,,,,4/8 Partly Cloudy,72000.0,,SCT,7900.0,,,,,,
KRDR,09-05-2012,22:00,METAR,,300,11.0,,,9999.0,,24.0,8.0,29.84,1011.4,,,,,,,,,,,,,,,2/8 Mostly Clear,72000.0,,FEW,5900.0,,,,,,
KRDR,09-05-2012,21:00,METAR,,310,12.0,18.0,,9999.0,,23.0,8.0,29.84,1011.4,,,,,,,,,,,,,,,2/8 Mostly Clear,72000.0,,FEW,5900.0,,,,,,
KRDR,09-05-2012,20:00,METAR,,310,15.0,19.0,,9999.0,,23.0,8.0,29.84,1011.5,,,,,,,,,,,,,,,2/8 Mostly Clear,72000.0,,FEW,5900.0,,,,,,
KRDR,09-05-2012,19:00,METAR,,300,13.0,,,9999.0,,22.0,8.0,29.84,1011.7,,,,,,,,,,,,,,,Clear,4900.0,,,73000.0,,,,,,
KRDR,09-05-2012,18:00,METAR,,300,15.0,22.0,,9999.0,,22.0,9.0,29.85,1011.9,,,,,,,,,,,,,,,Clear,72000.0,,,73000.0,,,,,,
KRDR,09-05-2012,17:00,METAR,,300,15.0,24.0,,9999.0,,22.0,9.0,29.86,1012.3,,,,,,,,,,,,,,,Clear,72000.0,,,73000.0,,,,,,
KRDR,09-05-2012,16:00,METAR,,330,12.0,20.0,,9999.0,,20.0,9.0,29.87,1012.7,,,,,,,,,,,,,,,Clear,72000.0,,,73000.0,,,,,,
KRDR,09-05-2012,15:00,METAR,,310,12.0,16.0,,9999.0,,19.0,9.0,29.87,1012.7,,,,,,,,,,,,,,,Clear,72000.0,,,73000.0,,,,,,
KRDR,09-05-2012,14:00,METAR,,310,9.0,,,9999.0,,17.0,8.0,29.87,1012.5,,,,,,,,,,,,,,,Clear,72000.0,,,73000.0,,,,,,
KRDR,09-05-2012,13:00,METAR,,300,9.0,,,9999.0,,14.0,8.0,29.87,1012.4,,,,,,,,,,,,,,,7/8 Mostly Cloudy,10000.0,,BKN,9900.0,,,,,,
KRDR,09-05-2012,12:00,METAR,,300,6.0,,,9999.0,,13.0,7.0,29.86,1012.3,,,,,,,,,,,,,TRACE,,Clear,72000.0,,,73000.0,,,,,,
KRDR,09-05-2012,11:00,METAR,,300,6.0,,,9999.0,,15.0,7.0,29.87,1012.4,,,,,,,,,,,TRACE,,,,8/8 Overcast,8000.0,,OVC,7900.0,,,,,,
KRDR,09-05-2012,10:33,SPECI,,290,9.0,,,9999.0,,15.0,8.0,29.87,1012.5,,,,,,,,,,,,,,,8/8 Overcast,8000.0,,OVC,7900.0,,,,,,
KRDR,09-05-2012,10:22,SPECI,,280,8.0,,,9999.0,Light Rain,15.0,7.0,29.87,1012.5,61,,,,,,,,,,,,,,7/8 Mostly Cloudy,9000.0,,BKN,8900.0,,,,,,
KRDR,09-05-2012,10:18,SPECI,,280,8.0,,,9999.0,,15.0,8.0,29.87,1012.6,,,,,,,,,,,,,,,7/8 Mostly Cloudy,9000.0,,BKN,8900.0,,,,,,
KRDR,09-05-2012,10:00,METAR,,290,5.0,,,9999.0,,15.0,6.0,29.87,1012.6,,,,,,,,,,,,,,,8/8 Overcast,9000.0,,OVC,8900.0,,,,,,
KRDR,09-05-2012,09:00,METAR,,280,7.0,,,9999.0,,16.0,5.0,29.87,1012.4,,,,,,,,,,,,TRACE,,,8/8 Overcast,9000.0,,OVC,8900.0,,,,,,
KRDR,09-05-2012,08:00,METAR,,280,4.0,,,9999.0,,16.0,7.0,29.86,1012.2,,,,,,,,,,,TRACE,,,,7/8 Mostly Cloudy,9000.0,,BKN,8900.0,,,,,,
KRDR,09-05-2012,07:39,SPECI,,280,4.0,,,9999.0,,16.0,6.0,29.85,1012.1,,,,,,,,,,,,,,,4/8 Partly Cloudy,72000.0,,SCT,8900.0,,,,,,
KRDR,09-05-2012,07:29,SPECI,,270,3.0,,,9999.0,,17.0,5.0,29.84,1011.6,,,,,,,,,,,,,,,2/8 Mostly Clear,72000.0,,FEW,9900.0,,,,,,
KRDR,09-05-2012,07:00,METAR,,320,8.0,,,9999.0,,18.0,5.0,29.83,1011.2,,,,,,,,,,,,,,,4/8 Partly Cloudy,72000.0,,SCT,11000.0,,,,,,
KRDR,09-05-2012,06:00,METAR,,330,5.0,,,9999.0,,18.0,6.0,29.82,1011.0,,,,,,,,,,,,,,,7/8 Mostly Cloudy,12000.0,,BKN,12000.0,,,,,,
KRDR,09-05-2012,05:00,METAR,,330,7.0,,,9999.0,,19.0,7.0,29.80,1010.4,,,,,,,,,,,,,,,Clear,72000.0,,,73000.0,,,,,,
KRDR,09-05-2012,04:00,METAR,,300,8.0,,,9999.0,,18.0,8.0,29.81,1010.7,,,,,,,,,,,,,,,Clear,72000.0,,,73000.0,,,,,,
KRDR,09-05-2012,03:00,METAR,,300,7.0,,,9999.0,,17.0,8.0,29.80,1010.4,,,,,,,,,,,,,,,Clear,72000.0,,,73000.0,,,,,,
KRDR,09-05-2012,02:00,METAR,,310,6.0,,,9999.0,,19.0,10.0,29.79,1009.9,,,,,,,,,,,,,,,Clear,72000.0,,,73000.0,,,,,,
KRDR,09-05-2012,01:00,METAR,,280,6.0,,,9999.0,,23.0,10.0,29.79,1009.8,,,,,,,,,,,,,,,Clear,72000.0,,,73000.0,,,,,,
KRDR,09-05-2012,00:00,METAR,,290,8.0,,,9999.0,,26.0,9.0,29.78,1009.4,,,,,,,,,,,,,,,Clear,72000.0,,,73000.0,,,,,,
KRDR,09-04-2012,23:00,METAR,,290,8.0,,,9999.0,,28.0,8.0,29.77,1009.2,,,,,,,,,,,,,,,Clear,72000.0,,,73000.0,,,,,,
KRDR,09-04-2012,22:00,METAR,,290,10.0,,,9999.0,,28.0,7.0,29.76,1009.1,,,,,,,,,,,,,,,Clear,72000.0,,,73000.0,,,,,,
KRDR,09-04-2012,21:00,METAR,,290,9.0,,,9999.0,,29.0,9.0,29.77,1009.1,,,,,,,,,,,,,,,Clear,72000.0,,,73000.0,,,,,,
KRDR,09-04-2012,20:00,METAR,,310,12.0,18.0,,9999.0,,29.0,6.0,29.77,1009.1,,,,,,,,,,,,,,,Clear,72000.0,,,73000.0,,,,,,
KRDR,09-04-2012,19:00,METAR,,270,15.0,20.0,,9999.0,,28.0,10.0,29.78,1009.4,,,,,,,,,,,,,,,Clear,72000.0,,,73000.0,,,,,,
KRDR,09-04-2012,18:00,METAR,,240,8.0,,,9999.0,,26.0,13.0,29.80,1010.1,,,,,,,,,,,,,,,Clear,72000.0,,,73000.0,,,,,,
KRDR,09-04-2012,17:00,METAR,,220,7.0,,,9999.0,,25.0,12.0,29.81,1010.5,,,,,,,,,,,,,,,Clear,72000.0,,,73000.0,,,,,,
KRDR,09-04-2012,16:00,METAR,,220,5.0,,,9999.0,,23.0,14.0,29.82,1010.9,,,,,,,,,,,,,,,Clear,72000.0,,,73000.0,,,,,,
KRDR,09-04-2012,15:00,METAR,,240,4.0,,,9999.0,,20.0,13.0,29.83,1011.3,,,,,,,,,,,,,,,Clear,72000.0,,,73000.0,,,,,,
KRDR,09-04-2012,14:00,METAR,,250,3.0,,,9999.0,,16.0,13.0,29.84,1011.6,,,,,,,,,,,,,,,Clear,72000.0,,,73000.0,,,,,,
KRDR,09-04-2012,13:00,METAR,,230,3.0,,,9999.0,,11.0,11.0,29.84,1011.7,,,,,,,,,,,,,,,Clear,72000.0,,,73000.0,,,,,,
KRDR,09-04-2012,12:00,METAR,,290,7.0,,,9999.0,,9.0,8.0,29.85,1011.8,,,,,,,,,,,,,,.17 IN,Clear,72000.0,,,73000.0,,,,,,
KRDR,09-04-2012,11:00,METAR,,270,3.0,,,9999.0,,8.0,8.0,29.85,1011.7,,,,,,,,,,,,,,,Clear,72000.0,,,73000.0,,,,,,
KRDR,09-04-2012,10:00,METAR,,220,4.0,,,9999.0,,9.0,9.0,29.86,1012.2,,,,,,,,,,,,,,,Clear,72000.0,,,73000.0,,,,,,
KRDR,09-04-2012,09:00,METAR,,,0.0,,,9999.0,,9.0,8.0,29.85,1011.8,,,,,,,,,,,,,,,Clear,72000.0,,,73000.0,,,,,,
KRDR,09-04-2012,08:00,METAR,,150,3.0,,,9999.0,,10.0,9.0,29.85,1011.9,,,,,,,,,,,,,,,Clear,72000.0,,,73000.0,,,,,,
KRDR,09-04-2012,07:00,METAR,,,0.0,,,9999.0,,11.0,10.0,29.85,1011.9,,,,,,,,,,,,,,,Clear,72000.0,,,73000.0,,,,,,
KRDR,09-04-2012,06:00,METAR,,220,5.0,,,9999.0,,12.0,11.0,29.86,1012.4,,,,,,,,,,,,,,,Clear,72000.0,,,73000.0,,,,,,
KRDR,09-04-2012,05:00,METAR,,,0.0,,,9999.0,,13.0,11.0,29.87,1012.7,,,,,,,,,,,,,,,4/8 Partly Cloudy,72000.0,,SCT,8900.0,,,,,,
KRDR,09-04-2012,04:00,METAR,,20,5.0,,,9999.0,,12.0,11.0,29.86,1012.3,,,,,,,,,,,,,,,4/8 Partly Cloudy,72000.0,,SCT,8900.0,,,,,,
KRDR,09-04-2012,03:00,METAR,,250,5.0,,,9999.0,,15.0,12.0,29.86,1012.3,,,,,,,,,,,,,,,Clear,72000.0,,,73000.0,,,,,,
KRDR,09-04-2012,02:00,METAR,,220,6.0,,,9999.0,,16.0,12.0,29.85,1011.7,,,,,,,,,,,,,,,Clear,72000.0,,,73000.0,,,,,,
KRDR,09-04-2012,01:00,METAR,,180,9.0,,,9999.0,,19.0,12.0,29.83,1011.3,,,,,,,,,,,,,,,Clear,72000.0,,,73000.0,,,,,,
KRDR,09-04-2012,00:00,METAR,,180,9.0,,,9999.0,,21.0,13.0,29.84,1011.4,,,,,,,,,,,,,.17 IN,,Clear,72000.0,,,73000.0,,,,,,
KRDR,09-03-2012,23:00,METAR,,180,15.0,24.0,,9999.0,,21.0,13.0,29.83,1011.2,,,,,,,,,,,.03 IN,,,,Clear,72000.0,,,73000.0,,,,,,
KRDR,09-03-2012,22:20,SPECI,,180,16.0,,,9999.0,,18.0,13.0,29.83,1011.3,,,,,,,,,,,,,,,4/8 Partly Cloudy,72000.0,,SCT,5900.0,,,,,,
KRDR,09-03-2012,22:09,SPECI,,190,16.0,24.0,,9999.0,Light Rain,18.0,14.0,29.87,1012.6,61,,,,,,,,,,,,,,8/8 Overcast,6000.0,,OVC,5900.0,,,,,,
KRDR,09-03-2012,22:06,SPECI,,200,18.0,24.0,,9999.0,,18.0,13.0,29.89,1013.2,,,,,,,,,,,,,,,8/8 Overcast,6000.0,,OVC,5900.0,,,,,,
KRDR,09-03-2012,22:00,METAR,,220,15.0,20.0,,9999.0,Light Rain,18.0,14.0,29.92,1014.3,61,,,,,,,,,,.11 IN,,,,7/8 Mostly Cloudy,4900.0,,BKN,5000.0,BKN,8900.0,,,,
KRDR,09-03-2012,21:00,METAR,,300,13.0,21.0,230/27KTS,9999.0,Light Rain,20.0,13.0,29.97,1015.9,61,,,,,,,,,,.03 IN,,,,8/8 Overcast,4400.0,,BKN,4500.0,BKN,5900.0,OVC,7900.0,,
KRDR,09-03-2012,20:00,METAR,,230,9.0,,,9999.0,,22.0,11.0,29.89,1013.3,,,,,,,,,,,TRACE,,,,7/8 Mostly Cloudy,11000.0,,FEW,3000.0,BKN,11000.0,,,,
KRDR,09-03-2012,19:19,SPECI,,250,7.0,,,9999.0,Light Rain,21.0,12.0,29.92,1014.1,61,,,,,,,,,,,,,,Clear,72000.0,,,73000.0,,,,,,
KRDR,09-03-2012,19:10,SPECI,,230,5.0,,,9999.0,,22.0,13.0,29.90,1013.7,,,,,,,,,,,,,,,Clear,72000.0,,,73000.0,,,,,,
KRDR,09-03-2012,19:00,METAR,,290,12.0,,240/30KTS,9999.0,,23.0,11.0,29.92,1014.2,,,,,,,,,,,TRACE,,,,Clear,72000.0,,,73000.0,,,,,,
KRDR,09-03-2012,18:43,SPECI,,280,11.0,,240/30KTS,9999.0,,23.0,11.0,29.93,1014.5,,,,,,,,,,,,,,,Clear,72000.0,,,73000.0,,,,,,
KRDR,09-03-2012,18:00,METAR,,220,8.0,,,9999.0,,27.0,8.0,29.87,1012.7,,,,,,,,,,,,,,,2/8 Mostly Clear,72000.0,,FEW,12000.0,,,,,,
KRDR,09-03-2012,17:00,METAR,,220,5.0,,,9999.0,,30.0,9.0,29.85,1012.0,,,,,,,,,,,,,,,Clear,72000.0,,,73000.0,,,,,,
KRDR,09-03-2012,16:00,METAR,,230,5.0,,,9999.0,,27.0,10.0,29.85,1011.8,,,,,,,,,,,,,,,Clear,72000.0,,,73000.0,,,,,,
KRDR,09-03-2012,15:00,METAR,,220,6.0,,,9999.0,,24.0,8.0,29.86,1012.3,,,,,,,,,,,,,,,Clear,72000.0,,,73000.0,,,,,,
KRDR,09-03-2012,14:00,METAR,,250,4.0,,,9999.0,,19.0,8.0,29.87,1012.6,,,,,,,,,,,,,,,Clear,72000.0,,,73000.0,,,,,,
KRDR,09-03-2012,13:00,METAR,,230,5.0,,,9999.0,,13.0,7.0,29.87,1012.5,,,,,,,,,,,,,,,Clear,72000.0,,,73000.0,,,,,,
KRDR,09-03-2012,12:00,METAR,,230,6.0,,,9999.0,,9.0,6.0,29.86,1012.2,,,,,,,,,,,,,,.01 IN,Clear,72000.0,,,73000.0,,,,,,
KRDR,09-03-2012,11:00,METAR,,230,6.0,,,9999.0,,11.0,6.0,29.85,1012.0,,,,,,,,,,,,,,,Clear,72000.0,,,73000.0,,,,,,
KRDR,09-03-2012,10:00,METAR,,230,4.0,,,9999.0,,11.0,7.0,29.85,1012.0,,,,,,,,,,,,,,,Clear,72000.0,,,73000.0,,,,,,
KRDR,09-03-2012,09:00,METAR,,240,3.0,,,9999.0,,13.0,9.0,29.85,1011.8,,,,,,,,,,,,,,,Clear,72000.0,,,73000.0,,,,,,
KRDR,09-03-2012,08:00,METAR,,260,6.0,,,9999.0,,14.0,10.0,29.85,1011.8,,,,,,,,,,,,,,,Clear,72000.0,,,73000.0,,,,,,
KRDR,09-03-2012,07:00,METAR,,260,7.0,,,9999.0,,14.0,11.0,29.85,1011.8,,,,,,,,,,,,,,,Clear,72000.0,,,73000.0,,,,,,
KRDR,09-03-2012,06:00,METAR,,230,6.0,,,9999.0,,14.0,11.0,29.84,1011.5,,,,,,,,,,,,,,,Clear,72000.0,,,73000.0,,,,,,
KRDR,09-03-2012,05:00,METAR,,240,5.0,,,9999.0,,15.0,12.0,29.84,1011.4,,,,,,,,,,,,,,,Clear,72000.0,,,73000.0,,,,,,
KRDR,09-03-2012,04:00,METAR,,240,6.0,,,9999.0,,14.0,11.0,29.84,1011.5,,,,,,,,,,,,,,,Clear,72000.0,,,73000.0,,,,,,
KRDR,09-03-2012,03:00,METAR,,230,4.0,,,9999.0,,16.0,12.0,29.84,1011.5,,,,,,,,,,,,,,,Clear,72000.0,,,73000.0,,,,,,
KRDR,09-03-2012,02:00,METAR,,260,4.0,,,9999.0,,18.0,13.0,29.83,1011.2,,,,,,,,,,,,,,,Clear,72000.0,,,73000.0,,,,,,
KRDR,09-03-2012,01:00,METAR,,260,5.0,,,9999.0,,23.0,14.0,29.81,1010.6,,,,,,,,,,,,,,,Clear,72000.0,,,73000.0,,,,,,
KRDR,09-03-2012,00:00,METAR,,290,6.0,,,9999.0,,26.0,13.0,29.80,1010.2,,,,,,,,,,,,,TRACE,,Clear,72000.0,,,73000.0,,,,,,
KRDR,09-02-2012,23:00,METAR,,340,6.0,,,9999.0,,27.0,13.0,29.78,1009.7,,,,,,,,,,,,,,,Clear,72000.0,,,73000.0,,,,,,
KRDR,09-02-2012,22:00,METAR,,330,13.0,,300/29KTS,9999.0,,28.0,13.0,29.78,1009.6,,,,,,,,,,,,,,,2/8 Mostly Clear,72000.0,,FEW,12000.0,,,,,,
KRDR,09-02-2012,21:00,METAR,,300,21.0,29.0,300/29KTS,9999.0,,29.0,14.0,29.76,1008.9,,,,,,,,,,,,TRACE,,,2/8 Mostly Clear,72000.0,,FEW,6900.0,,,,,,
KRDR,09-02-2012,20:00,METAR,,240,5.0,,,9999.0,,29.0,18.0,29.75,1008.5,,,,,,,,,,,,,,,Clear,72000.0,,,73000.0,,,,,,
KRDR,09-02-2012,19:00,METAR,,200,10.0,,,9999.0,,25.0,17.0,29.75,1008.7,,,,,,,,,,,TRACE,,,,Clear,72000.0,,,73000.0,,,,,,
KRDR,09-02-2012,18:25,SPECI,,200,9.0,,,9999.0,,23.0,17.0,29.75,1008.7,,,,,,,,,,,,,,,Clear,72000.0,,,73000.0,,,,,,
KRDR,09-02-2012,18:10,SPECI,,190,10.0,,,9999.0,,23.0,16.0,29.75,1008.5,,,,,,,,,,,,,,,Clear,72000.0,,,73000.0,,,,,,
KRDR,09-02-2012,18:04,SPECI,,180,11.0,,,9999.0,,22.0,16.0,29.74,1008.4,,,,,,,,,,,,,,,Clear,72000.0,,,73000.0,,,,,,
KRDR,09-02-2012,18:00,METAR,,170,9.0,,,9999.0,,22.0,16.0,29.75,1008.7,,,,,,,,,,,,,.01 IN,,Clear,72000.0,,,73000.0,,,,,,
KRDR,09-02-2012,17:53,SPECI,,170,8.0,,,9999.0,Light Rain,22.0,16.0,29.75,1008.6,61,,,,,,,,,,,,,,Clear,72000.0,,,73000.0,,,,,,
KRDR,09-02-2012,17:00,METAR,,180,13.0,,,9999.0,,23.0,16.0,29.76,1008.9,,,,,,,,,,,,,,,Clear,72000.0,,,73000.0,,,,,,
KRDR,09-02-2012,16:00,METAR,,180,12.0,,,9999.0,,22.0,16.0,29.75,1008.5,,,,,,,,,,,,,,,2/8 Mostly Clear,72000.0,,FEW,9900.0,,,,,,
KRDR,09-02-2012,15:00,METAR,,170,14.0,,,9999.0,,21.0,16.0,29.74,1008.4,,,,,,,,,,,,.01 IN,,,Clear,72000.0,,,73000.0,,,,,,
KRDR,09-02-2012,14:00,METAR,,180,11.0,,,9999.0,Light Rain,19.0,16.0,29.75,1008.6,61,,,,,,,,,,.01 IN,,,,4/8 Partly Cloudy,72000.0,,FEW,5000.0,SCT,12000.0,,,,
KRDR,09-02-2012,13:53,SPECI,,180,11.0,,,9999.0,,19.0,16.0,29.75,1008.5,,,,,,,,,,,,,,,4/8 Partly Cloudy,72000.0,,FEW,5000.0,SCT,12000.0,,,,
KRDR,09-02-2012,13:50,SPECI,,180,10.0,,,9999.0,Light Rain,19.0,16.0,29.75,1008.6,61,,,,,,,,,,,,,,4/8 Partly Cloudy,72000.0,,SCT,5000.0,SCT,12000.0,,,,
KRDR,09-02-2012,13:36,SPECI,,160,11.0,,,9999.0,Thunderstorm and Rain or Snow Showers,20.0,15.0,29.72,1007.8,92,,,,,,,,,,,,,,2/8 Mostly Clear,72000.0,,FEW,12000.0,,,,,,
KRDR,09-02-2012,13:28,SPECI,,170,12.0,,,9999.0,Dry Thunderstorm,20.0,15.0,29.74,1008.2,91,,,,,,,,,,,,,,Clear,72000.0,,,73000.0,,,,,,
KRDR,09-02-2012,13:11,SPECI,,160,13.0,,,9999.0,,19.0,15.0,29.73,1008.0,,,,,,,,,,,,,,,2/8 Mostly Clear,72000.0,,FEW,5000.0,,,,,,
KRDR,09-02-2012,12:00,METAR,,160,14.0,,,9999.0,,20.0,13.0,29.74,1008.3,,,,,,,,,,,TRACE,,TRACE,,Clear,72000.0,,,73000.0,,,,,,
KRDR,09-02-2012,11:00,METAR,,160,15.0,,,9999.0,Thunderstorm,21.0,12.0,29.75,,,,,17,,,,,,,,,,,4/8 Partly Cloudy,72000.0,,FEW,9900.0,SCT,12000.0,,,,
KRDR,09-02-2012,10:00,METAR,,180,13.0,,160/27KTS,9999.0,,22.0,12.0,29.77,1009.4,,,,,,,,,,,TRACE,,,,Clear,72000.0,,,73000.0,,,,,,
KRDR,09-02-2012,09:00,METAR,,180,13.0,,170/31KTS,9999.0,Light Rain,21.0,12.0,29.77,1009.3,61,,,,,,,,,,TRACE,0 IN,,,Clear,72000.0,,,73000.0,,,,,,
KRDR,09-02-2012,08:34,SPECI,,180,18.0,23.0,170/31KTS,9999.0,Light Rain,23.0,12.0,29.78,1009.5,61,,,,,,,,,,,,,,Clear,72000.0,,,73000.0,,,,,,
KRDR,09-02-2012,08:19,SPECI,,170,19.0,27.0,170/31KTS,9999.0,,23.0,11.0,29.77,1009.4,,,,,,,,,,,,,,,Clear,72000.0,,,73000.0,,,,,,
KRDR,09-02-2012,08:10,SPECI,,160,18.0,30.0,170/31KTS,9999.0,,23.0,11.0,29.77,1009.4,,,,,,,,,,,,,,,Clear,72000.0,,,73000.0,,,,,,
KRDR,09-02-2012,08:00,METAR,,160,22.0,31.0,160/31KTS,9999.0,,23.0,11.0,29.78,1009.5,,,,,,,,,,,,,,,Clear,72000.0,,,73000.0,,,,,,
KRDR,09-02-2012,07:00,METAR,,170,17.0,26.0,170/27KTS,9999.0,,23.0,11.0,29.80,1010.2,,,,,,,,,,,,,,,2/8 Mostly Clear,72000.0,,FEW,11000.0,,,,,,
KRDR,09-02-2012,06:00,METAR,,160,17.0,,160/28KTS,9999.0,,23.0,11.0,29.80,1010.1,,,,,,,,,,,,,,,Clear,72000.0,,,73000.0,,,,,,
KRDR,09-02-2012,05:00,METAR,,160,21.0,30.0,180/30KTS,9999.0,,24.0,12.0,29.79,1010.0,,,,,,,,,,,,,,,Clear,72000.0,,,73000.0,,,,,,
KRDR,09-02-2012,04:00,METAR,,160,20.0,31.0,160/31KTS,9999.0,,25.0,12.0,29.80,1010.2,,,,,,,,,,,,,,,Clear,72000.0,,,73000.0,,,,,,
KRDR,09-02-2012,03:00,METAR,,150,18.0,30.0,160/30KTS,9999.0,,26.0,13.0,29.81,1010.7,,,,,,,,,,,,,,,Clear,72000.0,,,73000.0,,,,,,
KRDR,09-02-2012,02:00,METAR,,170,22.0,29.0,160/30KTS,9999.0,,27.0,12.0,29.81,1010.6,,,,,,,,,,,,,,,Clear,72000.0,,,73000.0,,,,,,
KRDR,09-02-2012,01:00,METAR,,140,19.0,27.0,150/32KTS,9999.0,,28.0,13.0,29.82,1010.9,,,,,,,,,,,,,,,Clear,72000.0,,,73000.0,,,,,,
KRDR,09-02-2012,00:00,METAR,,150,22.0,32.0,150/33KTS,9999.0,,29.0,13.0,29.82,1011.0,,,,,,,,,,,,,,,Clear,72000.0,,,73000.0,,,,,,
KRDR,09-01-2012,23:00,METAR,,150,19.0,27.0,150/30KTS,9999.0,,30.0,13.0,29.84,1011.5,,,,,,,,,,,,,,,Clear,72000.0,,,73000.0,,,,,,
KRDR,09-01-2012,22:00,METAR,,160,17.0,32.0,170/32KTS,9999.0,,31.0,13.0,29.86,1012.2,,,,,,,,,,,,,,,Clear,72000.0,,,73000.0,,,,,,
KRDR,09-01-2012,21:00,METAR,,160,19.0,26.0,150/29KTS,9999.0,,31.0,11.0,29.88,1013.0,,,,,,,,,,,,,,,Clear,72000.0,,,73000.0,,,,,,
KRDR,09-01-2012,20:00,METAR,,160,22.0,26.0,160/30KTS,9999.0,,32.0,9.0,29.92,1014.1,,,,,,,,,,,,,,,Clear,72000.0,,,73000.0,,,,,,
KRDR,09-01-2012,19:00,METAR,,150,19.0,27.0,130/28KTS,9999.0,,31.0,9.0,29.94,1014.8,,,,,,,,,,,,,,,Clear,72000.0,,,73000.0,,,,,,
KRDR,09-01-2012,18:00,METAR,,150,20.0,28.0,160/28KTS,9999.0,,29.0,8.0,29.97,1015.8,,,,,,,,,,,,,,,Clear,72000.0,,,73000.0,,,,,,
KRDR,09-01-2012,17:00,METAR,,140,18.0,32.0,150/32KTS,9999.0,,26.0,8.0,30.01,1017.1,,,,,,,,,,,,,,,Clear,72000.0,,,73000.0,,,,,,
KRDR,09-01-2012,16:00,METAR,,140,17.0,22.0,,9999.0,,25.0,7.0,30.03,1017.8,,,,,,,,,,,,,,,Clear,72000.0,,,73000.0,,,,,,
KRDR,09-01-2012,15:00,METAR,,140,13.0,21.0,,9999.0,,22.0,9.0,30.06,1018.7,,,,,,,,,,,,,,,Clear,72000.0,,,73000.0,,,,,,
KRDR,09-01-2012,14:00,METAR,,130,11.0,,,9999.0,,20.0,11.0,30.09,1019.7,,,,,,,,,,,,,,,Clear,72000.0,,,73000.0,,,,,,
KRDR,09-01-2012,13:00,METAR,,130,9.0,,,9999.0,,17.0,11.0,30.10,1020.1,,,,,,,,,,,,,,,Clear,72000.0,,,73000.0,,,,,,
KRDR,09-01-2012,12:00,METAR,,130,8.0,,,9999.0,,17.0,11.0,30.10,1020.2,,,,,,,,,,,,,TRACE,,Clear,72000.0,,,73000.0,,,,,,
KRDR,09-01-2012,11:00,METAR,,130,6.0,,,9999.0,,17.0,11.0,30.10,1020.3,,,,,,,,,,,TRACE,,,,2/8 Mostly Clear,72000.0,,FEW,8900.0,,,,,,
KRDR,09-01-2012,10:53,SPECI,,130,6.0,,,9999.0,,17.0,11.0,30.10,1020.3,,,,,,,,,,,,,,,2/8 Mostly Clear,72000.0,,FEW,8900.0,,,,,,
KRDR,09-01-2012,10:39,SPECI,,120,7.0,,,9999.0,,18.0,11.0,30.10,1020.2,,,,,,,,,,,,,,,4/8 Partly Cloudy,72000.0,,FEW,7900.0,SCT,12000.0,,,,
KRDR,09-01-2012,10:00,METAR,,160,5.0,,,9999.0,,18.0,11.0,30.12,1020.8,,,,,,,,,,,TRACE,,,,Clear,72000.0,,,73000.0,,,,,,
KRDR,09-01-2012,09:53,SPECI,,160,4.0,,,9999.0,,18.0,11.0,30.12,1020.8,,,,,,,,,,,,,,,Clear,72000.0,,,73000.0,,,,,,
KRDR,09-01-2012,09:44,SPECI,,160,7.0,,,9999.0,,18.0,11.0,30.12,1020.8,,,,,,,,,,,,,,,Clear,72000.0,,,73000.0,,,,,,
KRDR,09-01-2012,09:00,METAR,,170,3.0,,,9999.0,,17.0,10.0,30.12,1020.9,,,,,,,,,,,,,,,Clear,72000.0,,,73000.0,,,,,,
KRDR,09-01-2012,08:00,METAR,,180,4.0,,,9999.0,,18.0,10.0,30.11,1020.4,,,,,,,,,,,,,,,Clear,72000.0,,,73000.0,,,,,,
KRDR,09-01-2012,07:00,METAR,,140,5.0,,,9999.0,,18.0,10.0,30.11,1020.4,,,,,,,,,,,,,,,Clear,72000.0,,,73000.0,,,,,,
KRDR,09-01-2012,06:00,METAR,,,0.0,,,9999.0,,15.0,11.0,30.13,1021.0,,,,,,,,,,,,,,,Clear,72000.0,,,73000.0,,,,,,
KRDR,09-01-2012,05:00,METAR,,,0.0,,,9999.0,,16.0,11.0,30.13,1021.0,,,,,,,,,,,,,,,Clear,72000.0,,,73000.0,,,,,,
KRDR,09-01-2012,04:00,METAR,,,0.0,,,9999.0,,16.0,10.0,30.11,1020.6,,,,,,,,,,,,,,,Clear,72000.0,,,73000.0,,,,,,
KRDR,09-01-2012,03:00,METAR,,,0.0,,,9999.0,,17.0,10.0,30.11,1020.5,,,,,,,,,,,,,,,Clear,72000.0,,,73000.0,,,,,,
KRDR,09-01-2012,02:00,METAR,,200,4.0,,,9999.0,,19.0,9.0,30.09,1020.0,,,,,,,,,,,,,,,Clear,72000.0,,,73000.0,,,,,,
KRDR,09-01-2012,01:00,METAR,,160,7.0,,,9999.0,,23.0,8.0,30.09,1019.7,,,,,,,,,,,,,,,Clear,72000.0,,,73000.0,,,,,,
KRDR,09-01-2012,00:00,METAR,,130,4.0,,,9999.0,,26.0,8.0,30.09,1019.8,,,,,,,,,,,,,,,Clear,72000.0,,,73000.0,,,,,,
KRDR,08-31-2012,23:00,METAR,,140,8.0,,,9999.0,,29.0,6.0,30.09,1019.8,,,,,,,,,,,,,,,Clear,72000.0,,,73000.0,,,,,,
KRDR,08-31-2012,22:00,METAR,,150,8.0,,,9999.0,,29.0,5.0,30.11,1020.3,,,,,,,,,,,,,,,Clear,72000.0,,,73000.0,,,,,,
KRDR,08-31-2012,21:00,METAR,,120,9.0,,,9999.0,,29.0,5.0,30.10,1020.3,,,,,,,,,,,,,,,Clear,72000.0,,,73000.0,,,,,,
KRDR,08-31-2012,20:00,METAR,,180,9.0,18.0,,9999.0,,30.0,4.0,30.12,1020.8,,,,,,,,,,,,,,,Clear,72000.0,,,73000.0,,,,,,
KRDR,08-31-2012,19:00,METAR,,,5.0,,,9999.0,,29.0,4.0,30.13,1021.1,,,,,,,,,,,,,,,Clear,72000.0,,,73000.0,,,,,,
KRDR,08-31-2012,18:00,METAR,,210,6.0,,,9999.0,,28.0,5.0,30.14,1021.5,,,,,,,,,,,,,,,Clear,72000.0,,,73000.0,,,,,,
KRDR,08-31-2012,17:00,METAR,,,6.0,,,9999.0,,27.0,6.0,30.14,1021.5,,,,,,,,,,,,,,,Clear,72000.0,,,73000.0,,,,,,
KRDR,08-31-2012,16:00,METAR,,200,6.0,,,9999.0,,26.0,7.0,30.13,1021.2,,,,,,,,,,,,,,,Clear,72000.0,,,73000.0,,,,,,
KRDR,08-31-2012,15:00,METAR,,230,5.0,,,9999.0,,23.0,9.0,30.13,1021.0,,,,,,,,,,,,,,,Clear,72000.0,,,73000.0,,,,,,
KRDR,08-31-2012,14:00,METAR,,230,3.0,,,9999.0,,18.0,10.0,30.12,1020.9,,,,,,,,,,,,,,,Clear,72000.0,,,73000.0,,,,,,
KRDR,08-31-2012,13:00,METAR,,210,4.0,,,9999.0,,11.0,9.0,30.11,1020.5,,,,,,,,,,,,,,,Clear,72000.0,,,73000.0,,,,,,
KRDR,08-31-2012,12:00,METAR,,200,5.0,,,9999.0,,8.0,6.0,30.09,1019.9,,,,,,,,,,,,,,,Clear,72000.0,,,73000.0,,,,,,
KRDR,08-31-2012,11:00,METAR,,230,5.0,,,9999.0,,9.0,6.0,30.08,1019.6,,,,,,,,,,,,,,,Clear,72000.0,,,73000.0,,,,,,
KRDR,08-31-2012,10:00,METAR,,300,3.0,,,9999.0,,10.0,6.0,30.07,1019.1,,,,,,,,,,,,,,,Clear,72000.0,,,73000.0,,,,,,
KRDR,08-31-2012,09:00,METAR,,230,4.0,,,9999.0,,10.0,7.0,30.06,1018.8,,,,,,,,,,,,,,,Clear,72000.0,,,73000.0,,,,,,
KRDR,08-31-2012,08:00,METAR,,,0.0,,,9999.0,,12.0,7.0,30.06,1018.7,,,,,,,,,,,,,,,Clear,72000.0,,,73000.0,,,,,,
KRDR,08-31-2012,07:00,METAR,,300,6.0,,,9999.0,,14.0,7.0,30.04,1018.1,,,,,,,,,,,,,,,Clear,72000.0,,,73000.0,,,,,,
KRDR,08-31-2012,06:00,METAR,,300,7.0,,,9999.0,,13.0,7.0,30.03,1017.7,,,,,,,,,,,,,,,Clear,72000.0,,,73000.0,,,,,,
KRDR,08-31-2012,05:00,METAR,,300,6.0,,,9999.0,,14.0,7.0,30.00,1016.9,,,,,,,,,,,,,,,Clear,72000.0,,,73000.0,,,,,,
KRDR,08-31-2012,04:00,METAR,,300,6.0,,,9999.0,,16.0,7.0,29.98,1016.2,,,,,,,,,,,,,,,Clear,72000.0,,,73000.0,,,,,,
KRDR,08-31-2012,03:00,METAR,,300,8.0,,,9999.0,,15.0,8.0,29.96,1015.6,,,,,,,,,,,,,,,Clear,72000.0,,,73000.0,,,,,,
KRDR,08-31-2012,02:00,METAR,,280,3.0,,,9999.0,,16.0,9.0,29.94,1014.9,,,,,,,,,,,,,,,Clear,72000.0,,,73000.0,,,,,,
KRDR,08-31-2012,01:00,METAR,,290,4.0,,,9999.0,,22.0,9.0,29.93,1014.4,,,,,,,,,,,,,,,Clear,72000.0,,,73000.0,,,,,,
KRDR,08-31-2012,00:00,METAR,,320,4.0,,,9999.0,,24.0,6.0,29.91,1014.0,,,,,,,,,,,,,,,Clear,72000.0,,,73000.0,,,,,,
KRDR,08-30-2012,23:00,METAR,,340,8.0,,,9999.0,,27.0,4.0,29.90,1013.6,,,,,,,,,,,,,,,Clear,72000.0,,,73000.0,,,,,,
KRDR,08-30-2012,22:00,METAR,,350,11.0,,,9999.0,,27.0,4.0,29.90,1013.6,,,,,,,,,,,,,,,Clear,72000.0,,,73000.0,,,,,,
KRDR,08-30-2012,21:00,METAR,,350,10.0,,,9999.0,,27.0,6.0,29.90,1013.6,,,,,,,,,,,,,,,Clear,72000.0,,,73000.0,,,,,,
KRDR,08-30-2012,20:00,METAR,,350,15.0,19.0,,9999.0,,27.0,6.0,29.90,1013.5,,,,,,,,,,,,,,,Clear,72000.0,,,73000.0,,,,,,
KRDR,08-30-2012,19:00,METAR,,360,15.0,19.0,,9999.0,,26.0,7.0,29.90,1013.5,,,,,,,,,,,,,,,Clear,72000.0,,,73000.0,,,,,,
KRDR,08-30-2012,18:00,METAR,,350,8.0,,,9999.0,,25.0,8.0,29.90,1013.6,,,,,,,,,,,,,,,Clear,72000.0,,,73000.0,,,,,,
KRDR,08-30-2012,17:00,METAR,,10,9.0,,,9999.0,,22.0,9.0,29.89,1013.4,,,,,,,,,,,,,,,Clear,72000.0,,,73000.0,,,,,,
KRDR,08-30-2012,16:00,METAR,,350,8.0,,,9999.0,,20.0,11.0,29.88,1012.9,,,,,,,,,,,,,,,Clear,72000.0,,,73000.0,,,,,,
KRDR,08-30-2012,15:00,METAR,,320,7.0,,,9999.0,,19.0,12.0,29.87,1012.5,,,,,,,,,,,,,,,Clear,72000.0,,,73000.0,,,,,,
KRDR,08-30-2012,14:00,METAR,,360,6.0,,,9999.0,,18.0,12.0,29.81,1010.5,,,,,,,,,,,,,,,Clear,72000.0,,,73000.0,,,,,,
KRDR,08-30-2012,13:00,METAR,,350,8.0,,,9999.0,,17.0,12.0,29.79,1010.0,,,,,,,,,,,,,,,Clear,72000.0,,,73000.0,,,,,,
KRDR,08-30-2012,12:00,METAR,,350,7.0,,,9999.0,,17.0,11.0,29.77,1009.2,,,,,,,,,,,,,,.06 IN,Clear,72000.0,,,73000.0,,,,,,
KRDR,08-30-2012,11:00,METAR,,350,5.0,,,9999.0,,16.0,10.0,29.74,1008.3,,,,,,,,,,,,,,,Clear,72000.0,,,73000.0,,,,,,
KRDR,08-30-2012,10:00,METAR,,350,6.0,,,9999.0,,17.0,11.0,29.73,1007.9,,,,,,,,,,,,,,,Clear,72000.0,,,73000.0,,,,,,
KRDR,08-30-2012,09:00,METAR,,350,6.0,,,9999.0,,19.0,12.0,29.73,1008.1,,,,,,,,,,,,,,,Clear,72000.0,,,73000.0,,,,,,
KRDR,08-30-2012,08:00,METAR,,350,10.0,,,9999.0,,22.0,16.0,29.71,1007.3,,,,,,,,,,,,,,,Clear,72000.0,,,73000.0,,,,,,
KRDR,08-30-2012,07:00,METAR,,,0.0,,,9999.0,,22.0,20.0,29.69,1006.6,,,,,,,,,,,,,,,Clear,72000.0,,,73000.0,,,,,,
KRDR,08-30-2012,06:00,METAR,,260,5.0,,,9999.0,,24.0,21.0,29.67,1006.0,,,,,,,,,,,,,.06 IN,,Clear,72000.0,,,73000.0,,,,,,
KRDR,08-30-2012,05:00,METAR,,190,9.0,,,9999.0,,24.0,21.0,29.66,1005.6,,,,,,,,,,,.01 IN,,,,Clear,72000.0,,,73000.0,,,,,,
KRDR,08-30-2012,04:35,SPECI,,180,11.0,,,9999.0,,24.0,21.0,29.65,1005.5,,,,,,,,,,,,,,,Clear,72000.0,,,73000.0,,,,,,
KRDR,08-30-2012,04:11,SPECI,,180,5.0,,,9999.0,Light Rain,23.0,21.0,29.68,1006.2,61,,,,,,,,,,,,,,7/8 Mostly Cloudy,12000.0,,FEW,3800.0,BKN,12000.0,,,,
KRDR,08-30-2012,04:04,SPECI,,160,7.0,,,9999.0,Thunderstorm and Rain or Snow Showers,23.0,21.0,29.68,1006.4,92,,,,,,,,,,,,,,7/8 Mostly Cloudy,12000.0,,FEW,3900.0,BKN,12000.0,,,,
KRDR,08-30-2012,04:00,METAR,,150,3.0,,300/28KTS,9999.0,Thunderstorm with Rain or Snow/Light Rain Showers,23.0,20.0,29.68,1006.3,,,,95,80,,,,,,.05 IN,,,,7/8 Mostly Cloudy,8000.0,,SCT,3600.0,SCT,5000.0,BKN,12000.0,,
KRDR,08-30-2012,03:31,SPECI,,320,17.0,28.0,300/28KTS,9999.0,Thunderstorm with Rain or Snow/Light Rain Showers,29.0,19.0,29.74,1008.1,,,,95,80,,,,,,,,,,4/8 Partly Cloudy,72000.0,,FEW,4700.0,SCT,12000.0,,,,
KRDR,08-30-2012,03:27,SPECI,,290,11.0,25.0,,9999.0,Thunderstorm with Rain or Snow/Light Rain Showers,29.0,19.0,29.71,1007.4,,,,95,80,,,,,,,,,,4/8 Partly Cloudy,72000.0,,FEW,4800.0,SCT,12000.0,,,,
KRDR,08-30-2012,03:20,SPECI,,310,16.0,25.0,,9999.0,Thunderstorm,28.0,19.0,29.72,1007.8,,,,17,,,,,,,,,,,4/8 Partly Cloudy,72000.0,,SCT,12000.0,,,,,,
KRDR,08-30-2012,03:00,METAR,,190,11.0,,,9999.0,,28.0,19.0,29.62,1004.4,,,,,,,,,,,,,,,Clear,72000.0,,,73000.0,,,,,,
KRDR,08-30-2012,02:00,METAR,,210,7.0,,,9999.0,,28.0,18.0,29.63,1004.6,,,,,,,,,,,,,,,Clear,72000.0,,,73000.0,,,,,,
KRDR,08-30-2012,01:00,METAR,,170,12.0,,,9999.0,,30.0,19.0,29.62,1004.4,,,,,,,,,,,,,,,Clear,72000.0,,,73000.0,,,,,,
KRDR,08-30-2012,00:00,METAR,,170,13.0,,,9999.0,,33.0,18.0,29.64,1005.0,,,,,,,,,,,,,,,Clear,72000.0,,,73000.0,,,,,,
KRDR,08-29-2012,23:00,METAR,,170,14.0,,,9999.0,,35.0,18.0,29.65,1005.4,,,,,,,,,,,,,,,Clear,72000.0,,,73000.0,,,,,,
KRDR,08-29-2012,22:00,METAR,,170,17.0,,,9999.0,,36.0,17.0,29.66,1005.7,,,,,,,,,,,,,,,Clear,72000.0,,,73000.0,,,,,,
KRDR,08-29-2012,21:00,METAR,,180,14.0,22.0,,9999.0,,36.0,16.0,29.69,1006.5,,,,,,,,,,,,,,,Clear,72000.0,,,73000.0,,,,,,
KRDR,08-29-2012,20:00,METAR,,180,15.0,23.0,,9999.0,,35.0,17.0,29.72,1007.5,,,,,,,,,,,,,,,Clear,72000.0,,,73000.0,,,,,,
KRDR,08-29-2012,19:00,METAR,,150,16.0,22.0,,9999.0,,33.0,18.0,29.74,1008.4,,,,,,,,,,,,,,,Clear,72000.0,,,73000.0,,,,,,
KRDR,08-29-2012,18:00,METAR,,150,10.0,,,9999.0,,32.0,19.0,29.78,1009.7,,,,,,,,,,,,,,,Clear,72000.0,,,73000.0,,,,,,
KRDR,08-29-2012,17:00,METAR,,150,9.0,,,9999.0,,29.0,19.0,29.82,1010.7,,,,,,,,,,,,,,,Clear,72000.0,,,73000.0,,,,,,
KRDR,08-29-2012,16:00,METAR,,150,8.0,,,9999.0,,27.0,19.0,29.84,1011.6,,,,,,,,,,,,,,,Clear,72000.0,,,73000.0,,,,,,
KRDR,08-29-2012,15:00,METAR,,170,12.0,,,9999.0,,24.0,19.0,29.86,1012.1,,,,,,,,,,,,,,,Clear,72000.0,,,73000.0,,,,,,
KRDR,08-29-2012,14:00,METAR,,160,6.0,,,9999.0,,20.0,17.0,29.87,1012.6,,,,,,,,,,,,,,,Clear,72000.0,,,73000.0,,,,,,
KRDR,08-29-2012,13:00,METAR,,130,4.0,,,9999.0,,17.0,16.0,29.88,1012.8,,,,,,,,,,,,,,,Clear,72000.0,,,73000.0,,,,,,
KRDR,08-29-2012,12:00,METAR,,140,4.0,,,9999.0,,15.0,14.0,29.88,1012.9,,,,,,,,,,,,,,,Clear,72000.0,,,73000.0,,,,,,
KRDR,08-29-2012,11:00,METAR,,90,3.0,,,9999.0,,15.0,14.0,29.89,1013.1,,,,,,,,,,,,,,,Clear,72000.0,,,73000.0,,,,,,
KRDR,08-29-2012,10:00,METAR,,,0.0,,,9999.0,,15.0,14.0,29.90,1013.4,,,,,,,,,,,,,,,Clear,72000.0,,,73000.0,,,,,,
KRDR,08-29-2012,09:00,METAR,,170,3.0,,,9999.0,,17.0,16.0,29.90,1013.6,,,,,,,,,,,,,,,Clear,72000.0,,,73000.0,,,,,,
KRDR,08-29-2012,08:00,METAR,,160,6.0,,,9999.0,,18.0,16.0,29.91,1013.7,,,,,,,,,,,,,,,Clear,72000.0,,,73000.0,,,,,,
KRDR,08-29-2012,07:00,METAR,,160,5.0,,,9999.0,,19.0,16.0,29.93,1014.6,,,,,,,,,,,,,,,Clear,72000.0,,,73000.0,,,,,,
KRDR,08-29-2012,06:00,METAR,,170,5.0,,,9999.0,,20.0,17.0,29.94,1014.9,,,,,,,,,,,,,,,Clear,72000.0,,,73000.0,,,,,,
KRDR,08-29-2012,05:00,METAR,,170,8.0,,,9999.0,,22.0,17.0,29.93,1014.5,,,,,,,,,,,,,,,Clear,72000.0,,,73000.0,,,,,,
KRDR,08-29-2012,04:00,METAR,,170,7.0,,,9999.0,,21.0,16.0,29.94,1014.7,,,,,,,,,,,,,,,Clear,72000.0,,,73000.0,,,,,,
KRDR,08-29-2012,03:00,METAR,,190,3.0,,,9999.0,,20.0,16.0,29.94,1014.7,,,,,,,,,,,,,,,Clear,72000.0,,,73000.0,,,,,,
KRDR,08-29-2012,02:00,METAR,,130,5.0,,,9999.0,,26.0,16.0,29.92,1014.3,,,,,,,,,,,,,,,Clear,72000.0,,,73000.0,,,,,,
KRDR,08-29-2012,01:00,METAR,,80,3.0,,,9999.0,,29.0,16.0,29.93,1014.4,,,,,,,,,,,,,,,Clear,72000.0,,,73000.0,,,,,,
KRDR,08-29-2012,00:00,METAR,,120,7.0,,,9999.0,,30.0,15.0,29.93,1014.7,,,,,,,,,,,,,,,Clear,72000.0,,,73000.0,,,,,,
KRDR,08-28-2012,23:00,METAR,,,6.0,,,9999.0,,31.0,15.0,29.95,1015.1,,,,,,,,,,,,,,,Clear,72000.0,,,73000.0,,,,,,
KRDR,08-28-2012,22:00,METAR,,130,3.0,,,9999.0,,31.0,15.0,29.95,1015.3,,,,,,,,,,,,,,,Clear,72000.0,,,73000.0,,,,,,
KRDR,08-28-2012,21:00,METAR,,,5.0,,,9999.0,,31.0,15.0,29.97,1015.8,,,,,,,,,,,,,,,Clear,72000.0,,,73000.0,,,,,,
KRDR,08-28-2012,20:00,METAR,,130,4.0,,,9999.0,,31.0,15.0,29.98,1016.2,,,,,,,,,,,,,,,Clear,72000.0,,,73000.0,,,,,,
KRDR,08-28-2012,19:00,METAR,,,4.0,,,9999.0,,29.0,15.0,30.01,1017.2,,,,,,,,,,,,,,,Clear,72000.0,,,73000.0,,,,,,
KRDR,08-28-2012,18:00,METAR,,140,4.0,,,9999.0,,27.0,16.0,30.02,1017.5,,,,,,,,,,,,,,,Clear,72000.0,,,73000.0,,,,,,
KRDR,08-28-2012,17:00,METAR,,180,6.0,,,9999.0,,26.0,16.0,30.05,1018.5,,,,,,,,,,,,,,,Clear,72000.0,,,73000.0,,,,,,
KRDR,08-28-2012,16:00,METAR,,150,7.0,,,9999.0,,24.0,15.0,30.05,1018.5,,,,,,,,,,,,,,,Clear,72000.0,,,73000.0,,,,,,
KRDR,08-28-2012,15:00,METAR,,130,4.0,,,9999.0,,21.0,15.0,30.05,1018.5,,,,,,,,,,,,,,,Clear,72000.0,,,73000.0,,,,,,
KRDR,08-28-2012,14:00,METAR,,90,5.0,,,9999.0,,18.0,14.0,30.05,1018.4,,,,,,,,,,,,,,,Clear,72000.0,,,73000.0,,,,,,
KRDR,08-28-2012,13:00,METAR,,60,3.0,,,9999.0,,15.0,13.0,30.05,1018.6,,,,,,,,,,,,,,,2/8 Mostly Clear,72000.0,,FEW,5900.0,,,,,,
KRDR,08-28-2012,12:00,METAR,,,0.0,,,9999.0,,12.0,11.0,30.08,1019.4,,,,,,,,,,,,,,,7/8 Mostly Cloudy,6000.0,,BKN,5900.0,,,,,,
KRDR,08-28-2012,11:00,METAR,,,0.0,,,9999.0,,11.0,10.0,30.07,1019.2,,,,,,,,,,,,,,,Clear,72000.0,,,73000.0,,,,,,
KRDR,08-28-2012,10:00,METAR,,,0.0,,,9999.0,,12.0,11.0,30.05,1018.7,,,,,,,,,,,,,,,Clear,72000.0,,,73000.0,,,,,,
KRDR,08-28-2012,09:00,METAR,,40,3.0,,,9999.0,,12.0,11.0,30.06,1018.8,,,,,,,,,,,,,,,Clear,72000.0,,,73000.0,,,,,,
KRDR,08-28-2012,08:00,METAR,,,0.0,,,9999.0,,12.0,11.0,30.08,1019.4,,,,,,,,,,,,,,,Clear,72000.0,,,73000.0,,,,,,
KRDR,08-28-2012,07:00,METAR,,,0.0,,,9999.0,,14.0,12.0,30.08,1019.4,,,,,,,,,,,,,,,Clear,72000.0,,,73000.0,,,,,,
KRDR,08-28-2012,06:00,METAR,,,0.0,,,9999.0,,14.0,12.0,30.09,1019.7,,,,,,,,,,,,,,,Clear,72000.0,,,73000.0,,,,,,
KRDR,08-28-2012,05:00,METAR,,250,3.0,,,9999.0,,15.0,12.0,30.09,1020.0,,,,,,,,,,,,,,,Clear,72000.0,,,73000.0,,,,,,
KRDR,08-28-2012,04:00,METAR,,230,3.0,,,9999.0,,18.0,13.0,30.08,1019.6,,,,,,,,,,,,,,,Clear,72000.0,,,73000.0,,,,,,
KRDR,08-28-2012,03:00,METAR,,140,6.0,,,9999.0,,21.0,13.0,30.06,1018.9,,,,,,,,,,,,,,,Clear,72000.0,,,73000.0,,,,,,
KRDR,08-28-2012,02:00,METAR,,170,4.0,,,9999.0,,21.0,13.0,30.07,1019.2,,,,,,,,,,,,,,,Clear,72000.0,,,73000.0,,,,,,
KRDR,08-28-2012,01:00,METAR,,140,7.0,,,9999.0,,25.0,13.0,30.07,1019.3,,,,,,,,,,,,,,,Clear,72000.0,,,73000.0,,,,,,
KRDR,08-28-2012,00:00,METAR,,180,3.0,,,9999.0,,27.0,12.0,30.08,1019.4,,,,,,,,,,,,,,,Clear,72000.0,,,73000.0,,,,,,
KRDR,08-27-2012,23:00,METAR,,,0.0,,,9999.0,,28.0,11.0,30.08,1019.5,,,,,,,,,,,,,,,Clear,72000.0,,,73000.0,,,,,,
KRDR,08-27-2012,22:00,METAR,,160,5.0,,,9999.0,,28.0,11.0,30.09,1019.8,,,,,,,,,,,,,,,Clear,72000.0,,,73000.0,,,,,,
KRDR,08-27-2012,21:00,METAR,,90,5.0,,,9999.0,,28.0,11.0,30.10,1020.0,,,,,,,,,,,,,,,Clear,72000.0,,,73000.0,,,,,,
KRDR,08-27-2012,20:00,METAR,,,0.0,,,9999.0,,27.0,12.0,30.11,1020.6,,,,,,,,,,,,,,,Clear,72000.0,,,73000.0,,,,,,
KRDR,08-27-2012,19:00,METAR,,,3.0,,,9999.0,,28.0,12.0,30.13,1021.2,,,,,,,,,,,,,,,2/8 Mostly Clear,72000.0,,FEW,5000.0,,,,,,
KRDR,08-27-2012,18:00,METAR,,,0.0,,,9999.0,,26.0,13.0,30.15,1021.9,,,,,,,,,,,,,,,4/8 Partly Cloudy,72000.0,,SCT,5000.0,,,,,,
KRDR,08-27-2012,17:00,METAR,,260,4.0,,,9999.0,,25.0,13.0,30.16,1022.1,,,,,,,,,,,,,,,Clear,72000.0,,,73000.0,,,,,,
KRDR,08-27-2012,16:00,METAR,,,0.0,,,9999.0,,23.0,13.0,30.16,1022.2,,,,,,,,,,,,,,,Clear,72000.0,,,73000.0,,,,,,
KRDR,08-27-2012,15:00,METAR,,,0.0,,,9999.0,,20.0,13.0,30.17,1022.4,,,,,,,,,,,,,,,Clear,72000.0,,,73000.0,,,,,,
KRDR,08-27-2012,14:00,METAR,,,0.0,,,9999.0,,17.0,13.0,30.16,1022.1,,,,,,,,,,,,,,,Clear,72000.0,,,73000.0,,,,,,
KRDR,08-27-2012,13:00,METAR,,,0.0,,,9999.0,,13.0,12.0,30.15,1021.9,,,,,,,,,,,,,,,Clear,72000.0,,,73000.0,,,,,,
KRDR,08-27-2012,12:00,METAR,,,0.0,,,9999.0,,10.0,9.0,30.13,1023.2,,,,,,,,,,,,,,,Clear,72000.0,,,73000.0,,,,,,
KRDR,08-27-2012,11:42,SPECI,,,0.0,,,1200.0,Mist,10.0,9.0,30.13,1021.1,10,,,,,,,,,,,,,,Clear,72000.0,,,73000.0,,,,,,
KRDR,08-27-2012,11:40,SPECI,,,0.0,,,1600.0,Mist,10.0,9.0,30.13,1021.1,10,,,,,,,,,,,,,,Clear,72000.0,,,73000.0,,,,,,
KRDR,08-27-2012,11:00,METAR,,,0.0,,,9999.0,,10.0,10.0,30.11,1020.6,,,,,,,,,,,,,,,Clear,72000.0,,,73000.0,,,,,,
KRDR,08-27-2012,10:00,METAR,,,0.0,,,9999.0,,12.0,10.0,30.10,1020.2,,,,,,,,,,,,,,,Clear,72000.0,,,73000.0,,,,,,
KRDR,08-27-2012,09:00,METAR,,,0.0,,,9999.0,,12.0,10.0,30.09,1019.9,,,,,,,,,,,,,,,Clear,72000.0,,,73000.0,,,,,,
KRDR,08-27-2012,08:00,METAR,,300,3.0,,,9999.0,,13.0,11.0,30.08,1019.6,,,,,,,,,,,,,,,Clear,72000.0,,,73000.0,,,,,,
KRDR,08-27-2012,07:00,METAR,,290,4.0,,,9999.0,,13.0,11.0,30.07,1019.2,,,,,,,,,,,,,,,Clear,72000.0,,,73000.0,,,,,,
KRDR,08-27-2012,06:00,METAR,,300,5.0,,,9999.0,,14.0,12.0,30.06,1018.8,,,,,,,,,,,,,,,Clear,72000.0,,,73000.0,,,,,,
KRDR,08-27-2012,05:00,METAR,,300,5.0,,,9999.0,,15.0,12.0,30.06,1018.7,,,,,,,,,,,,,,,Clear,72000.0,,,73000.0,,,,,,
KRDR,08-27-2012,04:00,METAR,,300,4.0,,,9999.0,,15.0,12.0,30.04,1018.2,,,,,,,,,,,,,,,Clear,72000.0,,,73000.0,,,,,,
KRDR,08-27-2012,03:00,METAR,,320,3.0,,,9999.0,,16.0,12.0,30.02,1017.6,,,,,,,,,,,,,,,Clear,72000.0,,,73000.0,,,,,,
KRDR,08-27-2012,02:00,METAR,,360,5.0,,,9999.0,,19.0,13.0,30.01,1017.1,,,,,,,,,,,,,,,Clear,72000.0,,,73000.0,,,,,,
KRDR,08-27-2012,01:00,METAR,,340,5.0,,,9999.0,,23.0,13.0,29.98,1016.3,,,,,,,,,,,,,,,Clear,72000.0,,,73000.0,,,,,,
KRDR,08-27-2012,00:00,METAR,,320,9.0,,,9999.0,,25.0,12.0,29.98,1016.1,,,,,,,,,,,,,,,2/8 Mostly Clear,72000.0,,FEW,6900.0,,,,,,
KRDR,08-26-2012,23:00,METAR,,340,10.0,,,9999.0,,26.0,12.0,29.97,1015.8,,,,,,,,,,,,,,,2/8 Mostly Clear,72000.0,,FEW,6900.0,,,,,,
KRDR,08-26-2012,22:00,METAR,,310,8.0,22.0,,9999.0,,27.0,12.0,29.96,1015.6,,,,,,,,,,,,,,,4/8 Partly Cloudy,72000.0,,SCT,5900.0,,,,,,
KRDR,08-26-2012,21:00,METAR,,310,15.0,22.0,,9999.0,,26.0,10.0,29.95,1015.3,,,,,,,,,,,,,,,Clear,72000.0,,,73000.0,,,,,,
KRDR,08-26-2012,20:00,METAR,,310,15.0,21.0,,9999.0,,27.0,9.0,29.94,1015.0,,,,,,,,,,,,,,,Clear,72000.0,,,73000.0,,,,,,
KRDR,08-26-2012,19:00,METAR,,310,14.0,,,9999.0,,26.0,10.0,29.94,1015.0,,,,,,,,,,,,,,,Clear,72000.0,,,73000.0,,,,,,
KRDR,08-26-2012,18:00,METAR,,300,12.0,19.0,,9999.0,,25.0,10.0,29.94,1014.9,,,,,,,,,,,,,,,Clear,72000.0,,,73000.0,,,,,,
KRDR,08-26-2012,17:00,METAR,,300,19.0,24.0,290/26KTS,9999.0,,24.0,10.0,29.94,1014.7,,,,,,,,,,,,,,,Clear,72000.0,,,73000.0,,,,,,
KRDR,08-26-2012,16:00,METAR,,300,15.0,21.0,,9999.0,,24.0,10.0,29.93,1014.4,,,,,,,,,,,,,,,Clear,72000.0,,,73000.0,,,,,,
KRDR,08-26-2012,15:00,METAR,,290,10.0,16.0,,9999.0,,21.0,10.0,29.92,1014.3,,,,,,,,,,,,,,,Clear,72000.0,,,73000.0,,,,,,
KRDR,08-26-2012,14:00,METAR,,260,8.0,,,9999.0,,18.0,8.0,29.92,1014.1,,,,,,,,,,,,,,,Clear,72000.0,,,73000.0,,,,,,
KRDR,08-26-2012,13:00,METAR,,270,6.0,,,9999.0,,14.0,7.0,29.90,1013.7,,,,,,,,,,,,,,,Clear,72000.0,,,73000.0,,,,,,
KRDR,08-26-2012,12:00,METAR,,260,5.0,,,9999.0,,10.0,7.0,29.88,1013.0,,,,,,,,,,,,,,,Clear,72000.0,,,73000.0,,,,,,
KRDR,08-26-2012,11:00,METAR,,270,5.0,,,9999.0,,12.0,7.0,29.87,1012.6,,,,,,,,,,,,,,,Clear,72000.0,,,73000.0,,,,,,
KRDR,08-26-2012,10:00,METAR,,260,6.0,,,9999.0,,13.0,7.0,29.86,1012.2,,,,,,,,,,,,,,,Clear,72000.0,,,73000.0,,,,,,
KRDR,08-26-2012,09:00,METAR,,240,7.0,,,9999.0,,13.0,8.0,29.85,1011.8,,,,,,,,,,,,,,,Clear,72000.0,,,73000.0,,,,,,
KRDR,08-26-2012,08:00,METAR,,230,9.0,,,9999.0,,13.0,7.0,29.84,1011.5,,,,,,,,,,,,,,,Clear,72000.0,,,73000.0,,,,,,
KRDR,08-26-2012,07:00,METAR,,230,8.0,,,9999.0,,14.0,8.0,29.85,1011.8,,,,,,,,,,,,,,,Clear,72000.0,,,73000.0,,,,,,
KRDR,08-26-2012,06:00,METAR,,220,6.0,,,9999.0,,15.0,8.0,29.85,1011.8,,,,,,,,,,,,,,,Clear,72000.0,,,73000.0,,,,,,
KRDR,08-26-2012,05:00,METAR,,220,7.0,,,9999.0,,15.0,8.0,29.85,1011.8,,,,,,,,,,,,,,,Clear,72000.0,,,73000.0,,,,,,
KRDR,08-26-2012,04:00,METAR,,220,6.0,,,9999.0,,15.0,8.0,29.85,1012.0,,,,,,,,,,,,,,,Clear,72000.0,,,73000.0,,,,,,
KRDR,08-26-2012,03:00,METAR,,220,5.0,,,9999.0,,15.0,8.0,29.86,1012.1,,,,,,,,,,,,,,,Clear,72000.0,,,73000.0,,,,,,
KRDR,08-26-2012,02:00,METAR,,230,8.0,,,9999.0,,16.0,8.0,29.85,1012.0,,,,,,,,,,,,,,,Clear,72000.0,,,73000.0,,,,,,
KRDR,08-26-2012,01:00,METAR,,240,6.0,,,9999.0,,21.0,8.0,29.85,1011.9,,,,,,,,,,,,,,,Clear,72000.0,,,73000.0,,,,,,
KRDR,08-26-2012,00:00,METAR,,260,11.0,,,9999.0,,24.0,5.0,29.85,1011.9,,,,,,,,,,,,,,,Clear,72000.0,,,73000.0,,,,,,
KRDR,08-25-2012,23:00,METAR,,260,10.0,,,9999.0,,25.0,5.0,29.85,1011.9,,,,,,,,,,,,,,,Clear,72000.0,,,73000.0,,,,,,
KRDR,08-25-2012,22:00,METAR,,280,12.0,17.0,,9999.0,,25.0,5.0,29.85,1012.0,,,,,,,,,,,,,,,Clear,72000.0,,,73000.0,,,,,,
KRDR,08-25-2012,21:00,METAR,,270,13.0,20.0,,9999.0,,25.0,6.0,29.85,1012.0,,,,,,,,,,,,,,,Clear,72000.0,,,73000.0,,,,,,
KRDR,08-25-2012,20:00,METAR,,290,9.0,17.0,,9999.0,,24.0,7.0,29.86,1012.4,,,,,,,,,,,,,,,Clear,72000.0,,,73000.0,,,,,,
KRDR,08-25-2012,19:00,METAR,,290,11.0,14.0,,9999.0,,24.0,6.0,29.87,1012.7,,,,,,,,,,,,,,,Clear,72000.0,,,73000.0,,,,,,
KRDR,08-25-2012,18:00,METAR,,290,10.0,,,9999.0,,23.0,8.0,29.88,1013.0,,,,,,,,,,,,,,,Clear,72000.0,,,73000.0,,,,,,
KRDR,08-25-2012,17:00,METAR,,290,14.0,19.0,,9999.0,,22.0,9.0,29.88,1012.9,,,,,,,,,,,,,,,Clear,72000.0,,,73000.0,,,,,,
KRDR,08-25-2012,16:00,METAR,,290,9.0,,,9999.0,,19.0,10.0,29.87,1012.6,,,,,,,,,,,,,,,Clear,72000.0,,,73000.0,,,,,,
KRDR,08-25-2012,15:00,METAR,,240,8.0,,,9999.0,,18.0,9.0,29.85,1011.9,,,,,,,,,,,,,,,Clear,72000.0,,,73000.0,,,,,,
KRDR,08-25-2012,14:00,METAR,,,0.0,,,9999.0,,15.0,9.0,29.84,1011.4,,,,,,,,,,,,,,,Clear,72000.0,,,73000.0,,,,,,
KRDR,08-25-2012,13:00,METAR,,270,4.0,,,9999.0,,15.0,8.0,29.84,1011.6,,,,,,,,,,,,,,,Clear,72000.0,,,73000.0,,,,,,
KRDR,08-25-2012,12:00,METAR,,310,7.0,,,9999.0,,16.0,8.0,29.79,1009.8,,,,,,,,,,,TRACE,,TRACE,.2 IN,2/8 Mostly Clear,72000.0,,FEW,12000.0,,,,,,
KRDR,08-25-2012,11:35,SPECI,,310,12.0,21.0,,9999.0,,16.0,8.0,29.78,1009.7,,,,,,,,,,,,,,,4/8 Partly Cloudy,72000.0,,SCT,12000.0,,,,,,
KRDR,08-25-2012,11:21,SPECI,,320,10.0,14.0,,9999.0,Light Rain,17.0,8.0,29.77,1009.3,61,,,,,,,,,,,,,,4/8 Partly Cloudy,72000.0,,SCT,12000.0,,,,,,
KRDR,08-25-2012,11:00,METAR,,320,15.0,25.0,310/26KTS,9999.0,,18.0,8.0,29.73,1007.8,,,,,,,,,,,,,,,Clear,72000.0,,,73000.0,,,,,,
KRDR,08-25-2012,10:00,METAR,,320,10.0,,,9999.0,,21.0,16.0,29.67,1006.1,,,,,,,,,,,,,,,Clear,72000.0,,,73000.0,,,,,,
KRDR,08-25-2012,09:00,METAR,,230,7.0,,,9999.0,,19.0,18.0,29.66,1005.5,,,,,,,,,,,,,,,Clear,72000.0,,,73000.0,,,,,,
KRDR,08-25-2012,08:00,METAR,,190,5.0,,,9999.0,,20.0,18.0,29.65,1005.3,,,,,,,,,,,,,,,2/8 Mostly Clear,72000.0,,FEW,5900.0,,,,,,
KRDR,08-25-2012,07:00,METAR,,,0.0,,170/27KTS,9999.0,,21.0,16.0,29.67,1005.8,,,,,,,,,,,,,,,Clear,72000.0,,,73000.0,,,,,,
KRDR,08-25-2012,06:00,METAR,,180,17.0,,180/33KTS,9999.0,,22.0,16.0,29.59,1003.5,,,,,,,,,,,TRACE,,.2 IN,,Clear,72000.0,,,73000.0,,,,,,
KRDR,08-25-2012,05:46,SPECI,,180,20.0,,180/33KTS,9999.0,,22.0,16.0,29.58,1002.9,,,,,,,,,,,,,,,Clear,72000.0,,,73000.0,,,,,,
KRDR,08-25-2012,05:38,SPECI,,180,23.0,33.0,180/33KTS,9999.0,,21.0,17.0,29.56,1002.5,,,,,,,,,,,,,,,Clear,72000.0,,,73000.0,,,,,,
KRDR,08-25-2012,05:34,SPECI,,180,26.0,33.0,180/33KTS,9999.0,Dry Thunderstorm,20.0,17.0,29.55,1002.1,91,,,,,,,,,,,,,,Clear,72000.0,,,73000.0,,,,,,
KRDR,08-25-2012,05:23,SPECI,,140,19.0,26.0,140/26KTS,9999.0,Thunderstorm and Rain or Snow Showers,20.0,16.0,29.57,1002.8,92,,,,,,,,,,,,,,Clear,72000.0,,,73000.0,,,,,,
KRDR,08-25-2012,05:09,SPECI,,150,11.0,,,9999.0,Dry Thunderstorm,20.0,17.0,29.65,1005.4,91,,,,,,,,,,,,,,Clear,72000.0,,,73000.0,,,,,,
KRDR,08-25-2012,04:51,SPECI,,160,15.0,,250/35KTS,9999.0,,19.0,16.0,29.67,1005.9,,,,,,,,,,,,,,,4/8 Partly Cloudy,72000.0,,SCT,5900.0,,,,,,
KRDR,08-25-2012,04:39,SPECI,,150,17.0,,250/35KTS,9999.0,Light Rain,19.0,16.0,29.68,1006.2,61,,,,,,,,,,,,,,8/8 Overcast,6000.0,,OVC,5900.0,,,,,,
KRDR,08-25-2012,04:20,SPECI,,220,8.0,,250/35KTS,9999.0,Rain/Thunderstorm,19.0,16.0,29.73,1007.8,,,,17,61,,,,,,,,,,8/8 Overcast,8000.0,,OVC,7900.0,,,,,,
KRDR,08-25-2012,04:15,SPECI,,230,11.0,35.0,250/35KTS,8000.0,Thunderstorm with Rain or Snow/Light Rain Showers,20.0,16.0,29.73,1007.9,,,,95,80,,,,,,,,,,8/8 Overcast,7000.0,,OVC,6900.0,,,,,,
KRDR,08-25-2012,04:11,SPECI,,230,14.0,35.0,250/35KTS,6400.0,Thunderstorm with Rain or Snow/Rain Showers,20.0,16.0,29.74,1008.1,,,,95,81,,,,,,,,,,8/8 Overcast,6000.0,,BKN,5900.0,OVC,7900.0,,,,
KRDR,08-25-2012,04:08,SPECI,,230,19.0,35.0,250/35KTS,6400.0,Thunderstorm with Rain or Snow/Rain Showers,20.0,16.0,29.74,1008.3,,,,95,81,,,,,,,,,,8/8 Overcast,7000.0,,OVC,6900.0,,,,,,
KRDR,08-25-2012,04:00,METAR,,320,12.0,24.0,,9999.0,Thunderstorm with Rain or Snow/Rain Showers,19.0,17.0,29.73,1007.8,,,,95,81,,,,,,,,,,7/8 Mostly Cloudy,6000.0,,SCT,5900.0,BKN,7900.0,,,,
KRDR,08-25-2012,03:51,SPECI,,310,15.0,30.0,270/32KTS,4800.0,Rain/Thunderstorm,20.0,17.0,29.73,1008.1,,,,17,61,,,,,,,,,,7/8 Mostly Cloudy,4900.0,,SCT,2200.0,BKN,7900.0,,,,
KRDR,08-25-2012,03:45,SPECI,,310,20.0,32.0,270/32KTS,4000.0,Heavy Rain/Thunderstorm,21.0,18.0,29.73,1008.0,,,,17,65,,,,,,,,,,4/8 Partly Cloudy,72000.0,,SCT,2500.0,SCT,7900.0,,,,
KRDR,08-25-2012,03:35,SPECI,,300,18.0,32.0,280/32KTS,9999.0,Rain/Thunderstorm,24.0,18.0,29.74,1008.3,,,,17,61,,,,,,,,,,4/8 Partly Cloudy,72000.0,,FEW,6900.0,SCT,8900.0,,,,
KRDR,08-25-2012,03:30,SPECI,,300,22.0,32.0,280/32KTS,9999.0,Thunderstorm with Rain or Snow/Light Rain Showers,27.0,18.0,29.73,1007.8,,,,95,80,,,,,,,,,,2/8 Mostly Clear,72000.0,,FEW,6900.0,,,,,,
KRDR,08-25-2012,03:26,SPECI,,240,13.0,,,9999.0,Thunderstorm with Rain or Snow/Light Rain Showers,28.0,18.0,29.71,1007.1,,,,95,80,,,,,,,,,,4/8 Partly Cloudy,72000.0,,SCT,6900.0,,,,,,
KRDR,08-25-2012,03:20,SPECI,,210,14.0,,,9999.0,Thunderstorm,28.0,17.0,29.69,1006.5,,,,17,,,,,,,,,,,4/8 Partly Cloudy,72000.0,,SCT,6900.0,,,,,,
KRDR,08-25-2012,03:00,METAR,,190,9.0,,,9999.0,Drizzle/Thunderstorm,27.0,16.0,29.67,1005.9,,,,17,51,,,,,,TRACE,0 IN,,,2/8 Mostly Clear,72000.0,,FEW,7900.0,,,,,,
KRDR,08-25-2012,02:46,SPECI,,190,7.0,,,9999.0,Drizzle/Thunderstorm,28.0,16.0,29.67,1005.9,,,,17,51,,,,,,,,,,2/8 Mostly Clear,72000.0,,FEW,6900.0,,,,,,
KRDR,08-25-2012,02:44,SPECI,,190,7.0,,,9999.0,Thunderstorm,28.0,16.0,29.67,1005.9,,,,17,,,,,,,,,,,2/8 Mostly Clear,72000.0,,FEW,6900.0,,,,,,
KRDR,08-25-2012,02:35,SPECI,,210,6.0,,,9999.0,Drizzle/Thunderstorm,27.0,16.0,29.67,1005.9,,,,17,51,,,,,,,,,,Clear,72000.0,,,73000.0,,,,,,
KRDR,08-25-2012,02:00,METAR,,170,11.0,,,9999.0,,29.0,16.0,29.61,1004.1,,,,,,,,,,,,,,,Clear,72000.0,,,73000.0,,,,,,
KRDR,08-25-2012,01:00,METAR,,150,8.0,,,9999.0,,30.0,16.0,29.61,1004.1,,,,,,,,,,,,,,,Clear,72000.0,,,73000.0,,,,,,
KRDR,08-25-2012,00:00,METAR,,140,11.0,,,9999.0,,31.0,16.0,29.61,1004.0,,,,,,,,,,,,,,,Clear,72000.0,,,73000.0,,,,,,
KRDR,08-24-2012,23:00,METAR,,140,8.0,,,9999.0,,32.0,15.0,29.64,1005.0,,,,,,,,,,,,,,,Clear,72000.0,,,73000.0,,,,,,
KRDR,08-24-2012,22:00,METAR,,140,10.0,,,9999.0,,31.0,15.0,29.67,1006.1,,,,,,,,,,,,,,,Clear,72000.0,,,73000.0,,,,,,
KRDR,08-24-2012,21:00,METAR,,120,11.0,,,9999.0,,31.0,16.0,29.68,1006.4,,,,,,,,,,,,,,,Clear,72000.0,,,73000.0,,,,,,
KRDR,08-24-2012,20:00,METAR,,130,11.0,,,9999.0,,30.0,14.0,29.70,1007.0,,,,,,,,,,,,,,,Clear,72000.0,,,73000.0,,,,,,
KRDR,08-24-2012,19:00,METAR,,140,12.0,17.0,,9999.0,,30.0,13.0,29.72,1007.5,,,,,,,,,,,,,,,Clear,72000.0,,,73000.0,,,,,,
KRDR,08-24-2012,18:00,METAR,,90,7.0,,,9999.0,,27.0,15.0,29.74,1008.2,,,,,,,,,,,,,,,Clear,72000.0,,,73000.0,,,,,,
KRDR,08-24-2012,17:00,METAR,,110,8.0,,,9999.0,,25.0,15.0,29.74,1008.3,,,,,,,,,,,,,,,Clear,72000.0,,,73000.0,,,,,,
KRDR,08-24-2012,16:00,METAR,,320,8.0,,,9999.0,,25.0,16.0,29.80,1010.2,,,,,,,,,,,,,,,7/8 Mostly Cloudy,12000.0,,BKN,12000.0,,,,,,
KRDR,08-24-2012,15:00,METAR,,,0.0,,,9999.0,,25.0,15.0,29.77,1009.4,,,,,,,,,,,,,,,Clear,72000.0,,,73000.0,,,,,,
KRDR,08-24-2012,14:00,METAR,,,0.0,,,9999.0,,20.0,15.0,29.76,1008.9,,,,,,,,,,,,,,,Clear,72000.0,,,73000.0,,,,,,
KRDR,08-24-2012,13:00,METAR,,,0.0,,,9999.0,,19.0,14.0,29.76,1009.0,,,,,,,,,,,,,,,Clear,72000.0,,,73000.0,,,,,,
KRDR,08-24-2012,12:00,METAR,,,0.0,,,9999.0,,16.0,13.0,29.74,1008.4,,,,,,,,,,,,,,,Clear,72000.0,,,73000.0,,,,,,
KRDR,08-24-2012,11:00,METAR,,190,5.0,,,9999.0,,16.0,13.0,29.73,1008.1,,,,,,,,,,,,,,,Clear,72000.0,,,73000.0,,,,,,
KRDR,08-24-2012,10:00,METAR,,290,6.0,,,9999.0,,17.0,13.0,29.75,1008.6,,,,,,,,,,,,,,,Clear,72000.0,,,73000.0,,,,,,
KRDR,08-24-2012,09:00,METAR,,300,6.0,,,9999.0,,16.0,13.0,29.75,1008.5,,,,,,,,,,,,,,,Clear,72000.0,,,73000.0,,,,,,
KRDR,08-24-2012,08:00,METAR,,,0.0,,,9999.0,,16.0,13.0,29.72,1007.6,,,,,,,,,,,,,,,Clear,72000.0,,,73000.0,,,,,,
KRDR,08-24-2012,07:00,METAR,,270,4.0,,,9999.0,,17.0,13.0,29.72,1007.4,,,,,,,,,,,,,,,Clear,72000.0,,,73000.0,,,,,,
KRDR,08-24-2012,06:00,METAR,,290,3.0,,,9999.0,,16.0,12.0,29.72,1007.6,,,,,,,,,,,,,,,Clear,72000.0,,,73000.0,,,,,,
KRDR,08-24-2012,05:00,METAR,,200,4.0,,,9999.0,,16.0,12.0,29.72,1007.7,,,,,,,,,,,,,,,Clear,72000.0,,,73000.0,,,,,,
KRDR,08-24-2012,04:00,METAR,,220,3.0,,,9999.0,,17.0,13.0,29.72,1007.7,,,,,,,,,,,,,,,Clear,72000.0,,,73000.0,,,,,,
KRDR,08-24-2012,03:00,METAR,,250,3.0,,,9999.0,,22.0,14.0,29.72,1007.5,,,,,,,,,,,,,,,Clear,72000.0,,,73000.0,,,,,,
KRDR,08-24-2012,02:00,METAR,,270,6.0,,,9999.0,,24.0,14.0,29.71,1007.3,,,,,,,,,,,,,,,2/8 Mostly Clear,72000.0,,FEW,9900.0,,,,,,
KRDR,08-24-2012,01:00,METAR,,,0.0,,,9999.0,,30.0,14.0,29.70,1007.1,,,,,,,,,,,,,,,Clear,72000.0,,,73000.0,,,,,,
KRDR,08-24-2012,00:00,METAR,,290,4.0,,,9999.0,,32.0,13.0,29.70,1007.1,,,,,,,,,,,,,,,Clear,72000.0,,,73000.0,,,,,,
KRDR,08-23-2012,23:00,METAR,,,0.0,,,9999.0,,33.0,12.0,29.71,1007.2,,,,,,,,,,,,,,,Clear,72000.0,,,73000.0,,,,,,
KRDR,08-23-2012,22:00,METAR,,240,6.0,,,9999.0,,33.0,14.0,29.71,1007.3,,,,,,,,,,,,,,,Clear,72000.0,,,73000.0,,,,,,
KRDR,08-23-2012,21:00,METAR,,260,7.0,,,9999.0,,33.0,14.0,29.71,1007.4,,,,,,,,,,,,,,,Clear,72000.0,,,73000.0,,,,,,
KRDR,08-23-2012,20:00,METAR,,280,6.0,,,9999.0,,32.0,15.0,29.72,1007.7,,,,,,,,,,,,,,,Clear,72000.0,,,73000.0,,,,,,
KRDR,08-23-2012,19:00,METAR,,230,4.0,,,9999.0,,30.0,15.0,29.74,1008.1,,,,,,,,,,,,,,,Clear,72000.0,,,73000.0,,,,,,
KRDR,08-23-2012,18:00,METAR,,20,4.0,,,9999.0,,29.0,16.0,29.75,1008.5,,,,,,,,,,,,,,,Clear,72000.0,,,73000.0,,,,,,
KRDR,08-23-2012,17:00,METAR,,340,5.0,,,9999.0,,28.0,16.0,29.76,1009.1,,,,,,,,,,,,,,,Clear,72000.0,,,73000.0,,,,,,
KRDR,08-23-2012,16:00,METAR,,320,6.0,,,9999.0,,26.0,16.0,29.78,1009.5,,,,,,,,,,,,,,,Clear,72000.0,,,73000.0,,,,,,
KRDR,08-23-2012,15:00,METAR,,,0.0,,,9999.0,,23.0,16.0,29.77,1009.2,,,,,,,,,,,,,,,Clear,72000.0,,,73000.0,,,,,,
KRDR,08-23-2012,14:00,METAR,,,0.0,,,9999.0,,21.0,15.0,29.77,1009.2,,,,,,,,,,,,,,,Clear,72000.0,,,73000.0,,,,,,
KRDR,08-23-2012,13:00,METAR,,,0.0,,,9999.0,,16.0,14.0,29.77,1009.3,,,,,,,,,,,,,,,Clear,72000.0,,,73000.0,,,,,,
KRDR,08-23-2012,12:00,METAR,,,0.0,,,9999.0,,12.0,11.0,29.77,1009.2,,,,,,,,,,,,,,,Clear,72000.0,,,73000.0,,,,,,
KRDR,08-23-2012,11:17,SPECI,,,0.0,,,4800.0,Mist,11.0,11.0,29.77,1009.3,10,,,,,,,,,,,,,,Clear,72000.0,,,73000.0,,,,,,
KRDR,08-23-2012,11:14,SPECI,,,0.0,,,2400.0,Mist,12.0,11.0,29.77,1009.2,10,,,,,,,,,,,,,,Clear,72000.0,,,73000.0,,,,,,
KRDR,08-23-2012,11:13,SPECI,,,0.0,,,2000.0,Mist,12.0,11.0,29.77,1009.2,10,,,,,,,,,,,,,,Clear,72000.0,,,73000.0,,,,,,
KRDR,08-23-2012,11:08,SPECI,,,0.0,,,2000.0,Mist,12.0,11.0,29.76,1009.1,10,,,,,,,,,,,,,,Clear,72000.0,,,73000.0,,,,,,
KRDR,08-23-2012,11:05,SPECI,,300,3.0,,,2800.0,Mist,12.0,11.0,29.76,1009.1,10,,,,,,,,,,,,,,Clear,72000.0,,,73000.0,,,,,,
KRDR,08-23-2012,11:00,SPECI,,,0.0,,,3200.0,Mist,12.0,11.0,29.76,1009.0,10,,,,,,,,,,,,,,Clear,72000.0,,,73000.0,,,,,,
KRDR,08-23-2012,11:00,METAR,,,0.0,,,9999.0,Mist,12.0,11.0,29.77,1009.1,10,,,,,,,,,,,,,,Clear,72000.0,,,73000.0,,,,,,
KRDR,08-23-2012,10:57,SPECI,,,0.0,,,4000.0,Mist,12.0,11.0,29.76,1009.1,10,,,,,,,,,,,,,,Clear,72000.0,,,73000.0,,,,,,
KRDR,08-23-2012,10:00,METAR,,,0.0,,,9999.0,,13.0,12.0,29.77,1009.4,,,,,,,,,,,,,,,Clear,72000.0,,,73000.0,,,,,,
KRDR,08-23-2012,09:00,METAR,,10,3.0,,,9999.0,,13.0,12.0,29.77,1009.3,,,,,,,,,,,,,,,Clear,72000.0,,,73000.0,,,,,,
KRDR,08-23-2012,08:00,METAR,,,0.0,,,9999.0,,15.0,14.0,29.78,1009.5,,,,,,,,,,,,,,,Clear,72000.0,,,73000.0,,,,,,
KRDR,08-23-2012,07:00,METAR,,170,4.0,,,9999.0,,19.0,15.0,29.79,1009.9,,,,,,,,,,,,,,,Clear,72000.0,,,73000.0,,,,,,
KRDR,08-23-2012,06:00,METAR,,170,7.0,,,9999.0,,21.0,15.0,29.79,1010.0,,,,,,,,,,,,,,,Clear,72000.0,,,73000.0,,,,,,
KRDR,08-23-2012,05:00,METAR,,140,5.0,,,9999.0,,21.0,15.0,29.79,1010.1,,,,,,,,,,,,,,,Clear,72000.0,,,73000.0,,,,,,
KRDR,08-23-2012,04:00,METAR,,,0.0,,,9999.0,,20.0,15.0,29.80,1010.1,,,,,,,,,,,,,,,Clear,72000.0,,,73000.0,,,,,,
KRDR,08-23-2012,03:00,METAR,,180,4.0,,,9999.0,,20.0,14.0,29.81,1010.4,,,,,,,,,,,,,,,Clear,72000.0,,,73000.0,,,,,,
KRDR,08-23-2012,02:00,METAR,,170,5.0,,,9999.0,,25.0,14.0,29.80,1010.4,,,,,,,,,,,,,,,Clear,72000.0,,,73000.0,,,,,,
KRDR,08-23-2012,01:00,METAR,,140,6.0,,,9999.0,,27.0,13.0,29.80,1010.1,,,,,,,,,,,,,,,Clear,72000.0,,,73000.0,,,,,,
KRDR,08-23-2012,00:00,METAR,,,0.0,,,9999.0,,30.0,16.0,29.80,1010.1,,,,,,,,,,,,,,,Clear,72000.0,,,73000.0,,,,,,
KRDR,08-22-2012,23:00,METAR,,150,4.0,,,9999.0,,31.0,12.0,29.80,1010.2,,,,,,,,,,,,,,,Clear,72000.0,,,73000.0,,,,,,
KRDR,08-22-2012,22:00,METAR,,150,8.0,,,9999.0,,32.0,11.0,29.80,1010.2,,,,,,,,,,,,,,,Clear,72000.0,,,73000.0,,,,,,
KRDR,08-22-2012,21:00,METAR,,180,7.0,15.0,,9999.0,,32.0,11.0,29.81,1010.5,,,,,,,,,,,,,,,Clear,72000.0,,,73000.0,,,,,,
KRDR,08-22-2012,20:00,METAR,,180,10.0,,,9999.0,,32.0,11.0,29.82,1011.0,,,,,,,,,,,,,,,Clear,72000.0,,,73000.0,,,,,,
KRDR,08-22-2012,19:00,METAR,,,5.0,,,9999.0,,31.0,12.0,29.84,1011.5,,,,,,,,,,,,,,,Clear,72000.0,,,73000.0,,,,,,
KRDR,08-22-2012,18:00,METAR,,160,7.0,,,9999.0,,30.0,13.0,29.84,1011.7,,,,,,,,,,,,,,,Clear,72000.0,,,73000.0,,,,,,
KRDR,08-22-2012,17:00,METAR,,180,10.0,,,9999.0,,28.0,14.0,29.86,1012.2,,,,,,,,,,,,,,,Clear,72000.0,,,73000.0,,,,,,
KRDR,08-22-2012,16:00,METAR,,160,9.0,,,9999.0,,25.0,14.0,29.86,1012.4,,,,,,,,,,,,,,,Clear,72000.0,,,73000.0,,,,,,
KRDR,08-22-2012,15:00,METAR,,160,8.0,,,9999.0,,22.0,14.0,29.87,1012.5,,,,,,,,,,,,,,,Clear,72000.0,,,73000.0,,,,,,
KRDR,08-22-2012,14:00,METAR,,180,5.0,,,9999.0,,18.0,12.0,29.88,1012.8,,,,,,,,,,,,,,,Clear,72000.0,,,73000.0,,,,,,
KRDR,08-22-2012,13:00,METAR,,190,5.0,,,9999.0,,14.0,11.0,29.88,1012.9,,,,,,,,,,,,,,,Clear,72000.0,,,73000.0,,,,,,
KRDR,08-22-2012,12:00,METAR,,160,4.0,,,9999.0,,12.0,10.0,29.88,1012.9,,,,,,,,,,,,,,,Clear,72000.0,,,73000.0,,,,,,
KRDR,08-22-2012,11:00,METAR,,160,4.0,,,9999.0,,12.0,10.0,29.87,1012.5,,,,,,,,,,,,,,,Clear,72000.0,,,73000.0,,,,,,
KRDR,08-22-2012,10:00,METAR,,130,4.0,,,9999.0,,13.0,11.0,29.86,1012.3,,,,,,,,,,,,,,,Clear,72000.0,,,73000.0,,,,,,
KRDR,08-22-2012,09:00,METAR,,130,5.0,,,9999.0,,15.0,11.0,29.86,1012.2,,,,,,,,,,,,,,,Clear,72000.0,,,73000.0,,,,,,
KRDR,08-22-2012,08:00,METAR,,130,6.0,,,9999.0,,16.0,12.0,29.85,1012.1,,,,,,,,,,,,,,,Clear,72000.0,,,73000.0,,,,,,
KRDR,08-22-2012,07:00,METAR,,130,3.0,,,9999.0,,17.0,12.0,29.85,1012.0,,,,,,,,,,,,,,,Clear,72000.0,,,73000.0,,,,,,
KRDR,08-22-2012,06:00,METAR,,230,6.0,,,9999.0,,18.0,12.0,29.85,1011.8,,,,,,,,,,,,,,,Clear,72000.0,,,73000.0,,,,,,
KRDR,08-22-2012,05:00,METAR,,230,6.0,,,9999.0,,20.0,13.0,29.85,1011.9,,,,,,,,,,,,,,,Clear,72000.0,,,73000.0,,,,,,
KRDR,08-22-2012,04:00,METAR,,210,7.0,,,9999.0,,21.0,12.0,29.85,1012.0,,,,,,,,,,,,,,,Clear,72000.0,,,73000.0,,,,,,
KRDR,08-22-2012,03:00,METAR,,180,7.0,,,9999.0,,22.0,12.0,29.85,1012.0,,,,,,,,,,,,,,,Clear,72000.0,,,73000.0,,,,,,
KRDR,08-22-2012,02:00,METAR,,200,7.0,,,9999.0,,23.0,12.0,29.85,1011.8,,,,,,,,,,,,,,,Clear,72000.0,,,73000.0,,,,,,
KRDR,08-22-2012,01:00,METAR,,200,8.0,,,9999.0,,28.0,12.0,29.84,1011.7,,,,,,,,,,,,,,,Clear,72000.0,,,73000.0,,,,,,
KRDR,08-22-2012,00:00,METAR,,230,10.0,,,9999.0,,30.0,12.0,29.85,1011.8,,,,,,,,,,,,,,,Clear,72000.0,,,73000.0,,,,,,
KRDR,08-21-2012,23:00,METAR,,230,9.0,,,9999.0,,32.0,10.0,29.85,1012.0,,,,,,,,,,,,,,,Clear,72000.0,,,73000.0,,,,,,
KRDR,08-21-2012,22:00,METAR,,230,14.0,21.0,,9999.0,,32.0,10.0,29.86,1012.1,,,,,,,,,,,,,,,Clear,72000.0,,,73000.0,,,,,,
KRDR,08-21-2012,21:00,METAR,,240,13.0,20.0,,9999.0,,32.0,11.0,29.87,1012.4,,,,,,,,,,,,,,,Clear,72000.0,,,73000.0,,,,,,
KRDR,08-21-2012,20:00,METAR,,250,15.0,,,9999.0,,32.0,11.0,29.88,1012.9,,,,,,,,,,,,,,,Clear,72000.0,,,73000.0,,,,,,
KRDR,08-21-2012,19:00,METAR,,240,17.0,20.0,,9999.0,,31.0,11.0,29.90,1013.4,,,,,,,,,,,,,,,Clear,72000.0,,,73000.0,,,,,,
KRDR,08-21-2012,18:00,METAR,,230,12.0,,,9999.0,,30.0,12.0,29.91,1014.0,,,,,,,,,,,,,,,Clear,72000.0,,,73000.0,,,,,,
KRDR,08-21-2012,17:00,METAR,,230,8.0,,,9999.0,,28.0,12.0,29.92,1014.3,,,,,,,,,,,,,,,Clear,72000.0,,,73000.0,,,,,,
KRDR,08-21-2012,16:00,METAR,,250,9.0,,,9999.0,,26.0,12.0,29.93,1014.6,,,,,,,,,,,,,,,Clear,72000.0,,,73000.0,,,,,,
KRDR,08-21-2012,15:00,METAR,,220,12.0,,,9999.0,,23.0,12.0,29.94,1014.7,,,,,,,,,,,,,,,Clear,72000.0,,,73000.0,,,,,,
KRDR,08-21-2012,14:00,METAR,,220,9.0,,,9999.0,,19.0,10.0,29.95,1015.1,,,,,,,,,,,,,,,Clear,72000.0,,,73000.0,,,,,,
KRDR,08-21-2012,13:00,METAR,,190,7.0,,,9999.0,,16.0,10.0,29.96,1015.6,,,,,,,,,,,,,,,Clear,72000.0,,,73000.0,,,,,,
KRDR,08-21-2012,12:00,METAR,,190,6.0,,,9999.0,,13.0,9.0,29.96,1015.6,,,,,,,,,,,,,,,Clear,72000.0,,,73000.0,,,,,,
KRDR,08-21-2012,11:00,METAR,,220,7.0,,,9999.0,,14.0,9.0,29.95,1015.2,,,,,,,,,,,,,,,Clear,72000.0,,,73000.0,,,,,,
KRDR,08-21-2012,10:00,METAR,,220,7.0,,,9999.0,,13.0,9.0,29.95,1015.3,,,,,,,,,,,,,,,Clear,72000.0,,,73000.0,,,,,,
KRDR,08-21-2012,09:00,METAR,,220,7.0,,,9999.0,,13.0,9.0,29.96,1015.4,,,,,,,,,,,,,,,Clear,72000.0,,,73000.0,,,,,,
KRDR,08-21-2012,08:00,METAR,,220,6.0,,,9999.0,,13.0,9.0,29.96,1015.4,,,,,,,,,,,,,,,Clear,72000.0,,,73000.0,,,,,,
KRDR,08-21-2012,07:00,METAR,,220,6.0,,,9999.0,,14.0,9.0,29.96,1015.5,,,,,,,,,,,,,,,Clear,72000.0,,,73000.0,,,,,,
KRDR,08-21-2012,06:00,METAR,,220,6.0,,,9999.0,,15.0,10.0,29.96,1015.5,,,,,,,,,,,,,,,Clear,72000.0,,,73000.0,,,,,,
KRDR,08-21-2012,05:00,METAR,,220,6.0,,,9999.0,,16.0,10.0,29.95,1015.3,,,,,,,,,,,,,,,Clear,72000.0,,,73000.0,,,,,,
KRDR,08-21-2012,04:00,METAR,,210,5.0,,,9999.0,,14.0,9.0,29.96,1015.5,,,,,,,,,,,,,,,Clear,72000.0,,,73000.0,,,,,,
KRDR,08-21-2012,03:00,METAR,,210,6.0,,,9999.0,,16.0,10.0,29.95,1015.3,,,,,,,,,,,,,,,Clear,72000.0,,,73000.0,,,,,,
KRDR,08-21-2012,02:00,METAR,,200,4.0,,,9999.0,,18.0,10.0,29.95,1015.4,,,,,,,,,,,,,,,Clear,72000.0,,,73000.0,,,,,,
KRDR,08-21-2012,01:00,METAR,,210,5.0,,,9999.0,,23.0,11.0,29.95,1015.3,,,,,,,,,,,,,,,Clear,72000.0,,,73000.0,,,,,,
KRDR,08-21-2012,00:00,METAR,,,0.0,,,9999.0,,26.0,8.0,29.96,1015.4,,,,,,,,,,,,,,,Clear,72000.0,,,73000.0,,,,,,
KRDR,08-20-2012,23:00,METAR,,230,4.0,,,9999.0,,26.0,8.0,29.96,1015.6,,,,,,,,,,,,,,,Clear,72000.0,,,73000.0,,,,,,
KRDR,08-20-2012,22:00,METAR,,,0.0,,,9999.0,,26.0,8.0,29.97,1015.8,,,,,,,,,,,,,,,Clear,72000.0,,,73000.0,,,,,,
KRDR,08-20-2012,21:00,METAR,,,3.0,,,9999.0,,26.0,7.0,29.98,1016.1,,,,,,,,,,,,,,,Clear,72000.0,,,73000.0,,,,,,
KRDR,08-20-2012,20:00,METAR,,,4.0,,,9999.0,,26.0,7.0,29.99,1016.5,,,,,,,,,,,,,,,Clear,72000.0,,,73000.0,,,,,,
KRDR,08-20-2012,19:00,METAR,,350,6.0,,,9999.0,,25.0,7.0,30.00,1017.0,,,,,,,,,,,,,,,2/8 Mostly Clear,72000.0,,FEW,6900.0,,,,,,
KRDR,08-20-2012,18:00,METAR,,,4.0,,,9999.0,,24.0,7.0,30.02,1017.5,,,,,,,,,,,,,,,Clear,72000.0,,,73000.0,,,,,,
KRDR,08-20-2012,17:00,METAR,,,0.0,,,9999.0,,23.0,6.0,30.03,1017.8,,,,,,,,,,,,,,,Clear,72000.0,,,73000.0,,,,,,
KRDR,08-20-2012,16:00,METAR,,340,4.0,,,9999.0,,21.0,8.0,30.03,1017.9,,,,,,,,,,,,,,,Clear,72000.0,,,73000.0,,,,,,
KRDR,08-20-2012,15:00,METAR,,,0.0,,,9999.0,,19.0,9.0,30.05,1018.3,,,,,,,,,,,,,,,Clear,72000.0,,,73000.0,,,,,,
KRDR,08-20-2012,14:00,METAR,,,0.0,,,9999.0,,15.0,9.0,30.05,1018.5,,,,,,,,,,,,,,,Clear,72000.0,,,73000.0,,,,,,
KRDR,08-20-2012,13:00,METAR,,,0.0,,,9999.0,,10.0,7.0,30.05,1018.3,,,,,,,,,,,,,,,Clear,72000.0,,,73000.0,,,,,,
KRDR,08-20-2012,12:00,METAR,,,0.0,,,9999.0,,5.0,4.0,30.04,1018.0,,,,,,,,,,,,,,,Clear,72000.0,,,73000.0,,,,,,
KRDR,08-20-2012,11:00,METAR,,,0.0,,,9999.0,,5.0,4.0,30.03,1017.8,,,,,,,,,,,,,,,Clear,72000.0,,,73000.0,,,,,,
KRDR,08-20-2012,10:00,METAR,,,0.0,,,9999.0,,5.0,4.0,30.04,1018.0,,,,,,,,,,,,,,,Clear,72000.0,,,73000.0,,,,,,
KRDR,08-20-2012,09:00,METAR,,,0.0,,,9999.0,,7.0,5.0,30.03,1017.9,,,,,,,,,,,,,,,Clear,72000.0,,,73000.0,,,,,,
KRDR,08-20-2012,08:00,METAR,,,0.0,,,9999.0,,7.0,5.0,30.03,1017.9,,,,,,,,,,,,,,,Clear,72000.0,,,73000.0,,,,,,
KRDR,08-20-2012,07:00,METAR,,270,3.0,,,9999.0,,7.0,6.0,30.03,1017.9,,,,,,,,,,,,,,,Clear,72000.0,,,73000.0,,,,,,
KRDR,08-20-2012,06:00,METAR,,230,3.0,,,9999.0,,8.0,6.0,30.03,1017.8,,,,,,,,,,,,,,,Clear,72000.0,,,73000.0,,,,,,
KRDR,08-20-2012,05:00,METAR,,,0.0,,,9999.0,,8.0,6.0,30.03,1017.9,,,,,,,,,,,,,,,Clear,72000.0,,,73000.0,,,,,,
KRDR,08-20-2012,04:00,METAR,,,0.0,,,9999.0,,9.0,7.0,30.03,1017.8,,,,,,,,,,,,,,,Clear,72000.0,,,73000.0,,,,,,
KRDR,08-20-2012,03:00,METAR,,,0.0,,,9999.0,,12.0,7.0,30.03,1017.7,,,,,,,,,,,,,,,Clear,72000.0,,,73000.0,,,,,,
KRDR,08-20-2012,02:00,METAR,,80,3.0,,,9999.0,,17.0,7.0,30.02,1017.6,,,,,,,,,,,,,,,Clear,72000.0,,,73000.0,,,,,,
KRDR,08-20-2012,01:00,METAR,,330,4.0,,,9999.0,,20.0,8.0,30.02,1017.6,,,,,,,,,,,,,,,Clear,72000.0,,,73000.0,,,,,,
KRDR,08-20-2012,00:00,METAR,,340,4.0,,,9999.0,,23.0,6.0,30.03,1017.9,,,,,,,,,,,,,,,Clear,72000.0,,,73000.0,,,,,,
KRDR,08-19-2012,23:00,METAR,,,3.0,,,9999.0,,23.0,5.0,30.04,1018.1,,,,,,,,,,,,,,,Clear,72000.0,,,73000.0,,,,,,
KRDR,08-19-2012,22:00,METAR,,,0.0,,,9999.0,,23.0,5.0,30.05,1018.4,,,,,,,,,,,,,,,Clear,72000.0,,,73000.0,,,,,,
KRDR,08-19-2012,21:00,METAR,,80,4.0,,,9999.0,,23.0,6.0,30.06,1018.8,,,,,,,,,,,,,,,Clear,72000.0,,,73000.0,,,,,,
KRDR,08-19-2012,20:00,METAR,,,3.0,,,9999.0,,23.0,6.0,30.08,1019.5,,,,,,,,,,,,,,,Clear,72000.0,,,73000.0,,,,,,
KRDR,08-19-2012,19:00,METAR,,,3.0,,,9999.0,,22.0,6.0,30.10,1020.0,,,,,,,,,,,,,,,Clear,72000.0,,,73000.0,,,,,,
KRDR,08-19-2012,18:00,METAR,,,0.0,,,9999.0,,21.0,7.0,30.11,1020.4,,,,,,,,,,,,,,,Clear,72000.0,,,73000.0,,,,,,
KRDR,08-19-2012,17:00,METAR,,,0.0,,,9999.0,,20.0,8.0,30.11,1020.6,,,,,,,,,,,,,,,Clear,72000.0,,,73000.0,,,,,,
KRDR,08-19-2012,16:00,METAR,,,0.0,,,9999.0,,18.0,11.0,30.12,1020.8,,,,,,,,,,,,,,,Clear,72000.0,,,73000.0,,,,,,
KRDR,08-19-2012,15:00,METAR,,350,5.0,,,9999.0,,15.0,11.0,30.12,1020.8,,,,,,,,,,,,,,,Clear,72000.0,,,73000.0,,,,,,
KRDR,08-19-2012,14:00,METAR,,10,4.0,,,9999.0,,12.0,10.0,30.12,1020.8,,,,,,,,,,,,,,,Clear,72000.0,,,73000.0,,,,,,
KRDR,08-19-2012,13:00,METAR,,360,5.0,,,9999.0,,10.0,9.0,30.11,1020.6,,,,,,,,,,,,,,,Clear,72000.0,,,73000.0,,,,,,
KRDR,08-19-2012,12:00,METAR,,340,3.0,,,9999.0,,8.0,7.0,30.10,1020.2,,,,,,,,,,,,,,.06 IN,Clear,72000.0,,,73000.0,,,,,,
KRDR,08-19-2012,11:00,METAR,,340,4.0,,,9999.0,,9.0,8.0,30.09,1019.7,,,,,,,,,,,,,,,Clear,72000.0,,,73000.0,,,,,,
KRDR,08-19-2012,10:00,METAR,,,0.0,,,9999.0,,10.0,9.0,30.08,1019.6,,,,,,,,,,,,,,,2/8 Mostly Clear,72000.0,,FEW,4400.0,,,,,,
KRDR,08-19-2012,09:00,METAR,,330,6.0,,,9999.0,,10.0,9.0,30.07,1019.2,,,,,,,,,,,,,,,Clear,72000.0,,,73000.0,,,,,,
KRDR,08-19-2012,08:00,METAR,,330,3.0,,,9999.0,,10.0,9.0,30.06,1018.9,,,,,,,,,,,,,,,Clear,72000.0,,,73000.0,,,,,,
KRDR,08-19-2012,07:00,METAR,,340,5.0,,,9999.0,,12.0,11.0,30.06,1018.9,,,,,,,,,,,,,,,Clear,72000.0,,,73000.0,,,,,,
KRDR,08-19-2012,06:00,METAR,,340,6.0,,,9999.0,,12.0,11.0,30.06,1018.8,,,,,,,,,,,,,,,Clear,72000.0,,,73000.0,,,,,,
KRDR,08-19-2012,05:00,METAR,,330,3.0,,,9999.0,,12.0,11.0,30.05,1018.5,,,,,,,,,,,,,,,Clear,72000.0,,,73000.0,,,,,,
KRDR,08-19-2012,04:00,METAR,,10,4.0,,,9999.0,,13.0,11.0,30.05,1018.3,,,,,,,,,,,,,,,Clear,72000.0,,,73000.0,,,,,,
KRDR,08-19-2012,03:00,METAR,,340,7.0,,,9999.0,,15.0,12.0,30.04,1018.1,,,,,,,,,,,,,,,Clear,72000.0,,,73000.0,,,,,,
KRDR,08-19-2012,02:00,METAR,,320,6.0,,,9999.0,,17.0,13.0,30.03,1017.9,,,,,,,,,,,,,,,Clear,72000.0,,,73000.0,,,,,,
KRDR,08-19-2012,01:00,METAR,,330,5.0,,,9999.0,,18.0,14.0,30.02,1017.6,,,,,,,,,,,,,,,2/8 Mostly Clear,72000.0,,FEW,9900.0,,,,,,
KRDR,08-19-2012,00:00,METAR,,10,7.0,,,9999.0,,20.0,14.0,30.01,1017.3,,,,,,,,,,,,,.06 IN,,Clear,72000.0,,,73000.0,,,,,,
KRDR,08-18-2012,23:00,METAR,,300,5.0,,,9999.0,,18.0,14.0,30.00,1016.9,,,,,,,,,,,.05 IN,,,,Clear,12000.0,,,73000.0,,,,,,
KRDR,08-18-2012,22:39,SPECI,,270,6.0,,,9999.0,,17.0,15.0,30.00,1016.9,,,,,,,,,,,,,,,Clear,9000.0,,,73000.0,,,,,,
KRDR,08-18-2012,22:00,METAR,,350,16.0,21.0,350/28KTS,9999.0,Rain,17.0,15.0,30.03,1017.7,62,,,,,,,,,,.01 IN,,,,2/8 Mostly Clear,72000.0,,FEW,7900.0,,,,,,
KRDR,08-18-2012,21:42,SPECI,,360,18.0,25.0,350/28KTS,9999.0,Light Rain,19.0,13.0,30.02,1017.6,61,,,,,,,,,,,,,,2/8 Mostly Clear,72000.0,,FEW,6900.0,,,,,,
KRDR,08-18-2012,21:00,METAR,,20,18.0,24.0,,9999.0,,27.0,9.0,29.99,1016.4,,,,,,,,,,,,,,,Clear,7000.0,,,73000.0,,,,,,
KRDR,08-18-2012,20:00,METAR,,20,8.0,,,9999.0,,26.0,9.0,29.99,1016.7,,,,,,,,,,,,,,,2/8 Mostly Clear,72000.0,,FEW,5900.0,,,,,,
KRDR,08-18-2012,19:00,METAR,,40,9.0,,,9999.0,,26.0,9.0,30.00,1017.0,,,,,,,,,,,,,,,Clear,72000.0,,,73000.0,,,,,,
KRDR,08-18-2012,18:00,METAR,,20,9.0,16.0,,9999.0,,25.0,10.0,30.01,1017.3,,,,,,,,,,,,,,,Clear,72000.0,,,73000.0,,,,,,
KRDR,08-18-2012,17:00,METAR,,20,10.0,,,9999.0,,24.0,9.0,30.02,1017.5,,,,,,,,,,,,,,,Clear,72000.0,,,73000.0,,,,,,
KRDR,08-18-2012,16:00,METAR,,,6.0,,,9999.0,,22.0,10.0,30.02,1017.3,,,,,,,,,,,,,,,Clear,72000.0,,,73000.0,,,,,,
KRDR,08-18-2012,14:00,METAR,,340,7.0,,,9999.0,,17.0,9.0,30.00,1016.8,,,,,,,,,,,,,,,Clear,72000.0,,,73000.0,,,,,,
KRDR,08-18-2012,13:00,METAR,,320,5.0,,,9999.0,,14.0,9.0,29.98,1016.3,,,,,,,,,,,,,,,Clear,72000.0,,,73000.0,,,,,,
KRDR,08-18-2012,12:00,METAR,,340,6.0,,,9999.0,,12.0,9.0,29.97,1016.0,,,,,,,,,,,,,,,Clear,72000.0,,,73000.0,,,,,,
KRDR,08-18-2012,11:00,METAR,,280,6.0,,,9999.0,,12.0,8.0,29.97,1015.8,,,,,,,,,,,,,,,Clear,72000.0,,,73000.0,,,,,,
KRDR,08-18-2012,10:00,METAR,,290,3.0,,,9999.0,,13.0,8.0,29.97,1016.0,,,,,,,,,,,,,,,2/8 Mostly Clear,72000.0,,FEW,11000.0,,,,,,
KRDR,08-18-2012,09:00,METAR,,270,8.0,,,9999.0,,14.0,8.0,29.97,1015.8,,,,,,,,,,,,,,,Clear,72000.0,,,73000.0,,,,,,
KRDR,08-18-2012,08:00,METAR,,270,7.0,,,9999.0,,12.0,7.0,29.96,1015.6,,,,,,,,,,,,,,,Clear,72000.0,,,73000.0,,,,,,
KRDR,08-18-2012,07:00,METAR,,240,6.0,,,9999.0,,11.0,7.0,29.96,1015.7,,,,,,,,,,,,,,,2/8 Mostly Clear,72000.0,,FEW,11000.0,,,,,,
KRDR,08-18-2012,06:00,METAR,,250,4.0,,,9999.0,,12.0,8.0,29.96,1015.6,,,,,,,,,,,,,,,Clear,72000.0,,,73000.0,,,,,,
KRDR,08-18-2012,05:00,METAR,,240,3.0,,,9999.0,,13.0,8.0,29.97,1015.7,,,,,,,,,,,,,,,Clear,72000.0,,,73000.0,,,,,,
KRDR,08-18-2012,04:00,METAR,,240,4.0,,,9999.0,,14.0,8.0,29.96,1015.7,,,,,,,,,,,,,,,2/8 Mostly Clear,72000.0,,FEW,12000.0,,,,,,
KRDR,08-18-2012,03:00,METAR,,240,4.0,,,9999.0,,16.0,9.0,29.97,1015.7,,,,,,,,,,,,,,,2/8 Mostly Clear,72000.0,,FEW,8900.0,,,,,,
KRDR,08-18-2012,02:00,METAR,,220,5.0,,,9999.0,,17.0,9.0,29.96,1015.5,,,,,,,,,,,,,,,Clear,72000.0,,,73000.0,,,,,,
KRDR,08-18-2012,01:00,METAR,,250,5.0,,,9999.0,,21.0,7.0,29.97,1015.8,,,,,,,,,,,,,,,Clear,72000.0,,,73000.0,,,,,,
KRDR,08-18-2012,00:00,METAR,,290,8.0,,,9999.0,,25.0,5.0,29.97,1015.9,,,,,,,,,,,,,,,Clear,72000.0,,,73000.0,,,,,,
KRDR,08-17-2012,23:00,METAR,,250,7.0,,,9999.0,,25.0,5.0,29.99,1016.4,,,,,,,,,,,,,,,Clear,72000.0,,,73000.0,,,,,,
KRDR,08-17-2012,22:00,METAR,,280,8.0,,,9999.0,,26.0,6.0,30.00,1016.8,,,,,,,,,,,,,,,Clear,72000.0,,,73000.0,,,,,,
KRDR,08-17-2012,21:00,METAR,,240,5.0,15.0,,9999.0,,26.0,6.0,30.01,1017.1,,,,,,,,,,,,,,,Clear,72000.0,,,73000.0,,,,,,
KRDR,08-17-2012,20:00,METAR,,290,9.0,21.0,,9999.0,,25.0,6.0,30.03,1017.7,,,,,,,,,,,,,,,2/8 Mostly Clear,72000.0,,FEW,6900.0,,,,,,
KRDR,08-17-2012,19:00,METAR,,260,9.0,16.0,,9999.0,,24.0,6.0,30.04,1018.2,,,,,,,,,,,,,,,Clear,72000.0,,,73000.0,,,,,,
KRDR,08-17-2012,18:00,METAR,,270,10.0,,,9999.0,,24.0,6.0,30.05,1018.6,,,,,,,,,,,,,,,Clear,72000.0,,,73000.0,,,,,,
KRDR,08-17-2012,17:00,METAR,,250,7.0,,,9999.0,,23.0,6.0,30.07,1019.2,,,,,,,,,,,,,,,Clear,72000.0,,,73000.0,,,,,,
KRDR,08-17-2012,16:00,METAR,,270,10.0,,,9999.0,,21.0,8.0,30.09,1019.7,,,,,,,,,,,,,,,Clear,72000.0,,,73000.0,,,,,,
KRDR,08-17-2012,15:00,METAR,,240,6.0,,,9999.0,,19.0,8.0,30.09,1019.9,,,,,,,,,,,,,,,Clear,72000.0,,,73000.0,,,,,,
KRDR,08-17-2012,14:00,METAR,,230,7.0,,,9999.0,,15.0,7.0,30.10,1020.2,,,,,,,,,,,,,,,Clear,72000.0,,,73000.0,,,,,,
KRDR,08-17-2012,13:00,METAR,,240,3.0,,,9999.0,,10.0,7.0,30.11,1020.5,,,,,,,,,,,,,,,Clear,72000.0,,,73000.0,,,,,,
KRDR,08-17-2012,12:00,METAR,,240,4.0,,,9999.0,,6.0,4.0,30.11,1020.4,,,,,,,,,,,,,,,Clear,72000.0,,,73000.0,,,,,,
KRDR,08-17-2012,11:00,METAR,,230,4.0,,,9999.0,,5.0,4.0,30.10,1020.2,,,,,,,,,,,,,,,Clear,72000.0,,,73000.0,,,,,,
KRDR,08-17-2012,10:00,METAR,,,0.0,,,9999.0,,5.0,4.0,30.09,1020.0,,,,,,,,,,,,,,,Clear,72000.0,,,73000.0,,,,,,
KRDR,08-17-2012,09:00,METAR,,,0.0,,,9999.0,,5.0,4.0,30.09,1019.8,,,,,,,,,,,,,,,Clear,72000.0,,,73000.0,,,,,,
KRDR,08-17-2012,08:00,METAR,,250,3.0,,,9999.0,,7.0,5.0,30.10,1020.1,,,,,,,,,,,,,,,Clear,72000.0,,,73000.0,,,,,,
KRDR,08-17-2012,07:00,METAR,,260,3.0,,,9999.0,,6.0,5.0,30.10,1020.1,,,,,,,,,,,,,,,Clear,72000.0,,,73000.0,,,,,,
KRDR,08-17-2012,06:00,METAR,,300,3.0,,,9999.0,,7.0,5.0,30.10,1020.2,,,,,,,,,,,,,,,Clear,72000.0,,,73000.0,,,,,,
KRDR,08-17-2012,05:00,METAR,,300,4.0,,,9999.0,,8.0,5.0,30.10,1020.1,,,,,,,,,,,,,,,Clear,72000.0,,,73000.0,,,,,,
KRDR,08-17-2012,04:00,METAR,,,0.0,,,9999.0,,9.0,6.0,30.10,1020.1,,,,,,,,,,,,,,,Clear,72000.0,,,73000.0,,,,,,
KRDR,08-17-2012,03:00,METAR,,350,6.0,,,9999.0,,11.0,6.0,30.09,1019.8,,,,,,,,,,,,,,,Clear,72000.0,,,73000.0,,,,,,
KRDR,08-17-2012,02:00,METAR,,340,6.0,,,9999.0,,14.0,7.0,30.08,1019.3,,,,,,,,,,,,,,,Clear,72000.0,,,73000.0,,,,,,
KRDR,08-17-2012,01:00,METAR,,350,12.0,,,9999.0,,18.0,6.0,30.06,1018.9,,,,,,,,,,,,,,,Clear,72000.0,,,73000.0,,,,,,
KRDR,08-17-2012,00:00,METAR,,360,14.0,,,9999.0,,20.0,6.0,30.06,1018.7,,,,,,,,,,,,,,,Clear,72000.0,,,73000.0,,,,,,
KRDR,08-16-2012,23:00,METAR,,340,15.0,,,9999.0,,20.0,4.0,30.05,1018.6,,,,,,,,,,,,,,,Clear,72000.0,,,73000.0,,,,,,
KRDR,08-16-2012,22:00,METAR,,330,18.0,,,9999.0,,21.0,4.0,30.06,1018.7,,,,,,,,,,,,,,,Clear,72000.0,,,73000.0,,,,,,
KRDR,08-16-2012,21:00,METAR,,340,17.0,23.0,350/28KTS,9999.0,,21.0,5.0,30.06,1018.8,,,,,,,,,,,,,,,Clear,72000.0,,,73000.0,,,,,,
KRDR,08-16-2012,20:00,METAR,,330,19.0,25.0,330/26KTS,9999.0,,21.0,5.0,30.06,1018.7,,,,,,,,,,,,,,,Clear,72000.0,,,73000.0,,,,,,
KRDR,08-16-2012,19:00,METAR,,320,14.0,25.0,,9999.0,,20.0,6.0,30.06,1018.9,,,,,,,,,,,,,,,2/8 Mostly Clear,72000.0,,FEW,5000.0,,,,,,
KRDR,08-16-2012,18:00,METAR,,330,17.0,25.0,350/28KTS,9999.0,,19.0,5.0,30.06,1018.7,,,,,,,,,,,,,,,Clear,72000.0,,,73000.0,,,,,,
KRDR,08-16-2012,17:00,METAR,,340,19.0,26.0,340/29KTS,9999.0,,18.0,5.0,30.05,1018.6,,,,,,,,,,,,,,,Clear,72000.0,,,73000.0,,,,,,
KRDR,08-16-2012,16:00,METAR,,350,16.0,25.0,340/26KTS,9999.0,,17.0,6.0,30.04,1018.2,,,,,,,,,,,,,,,2/8 Mostly Clear,72000.0,,FEW,3800.0,,,,,,
KRDR,08-16-2012,15:00,METAR,,340,13.0,24.0,,9999.0,,16.0,7.0,30.02,1017.5,,,,,,,,,,,,,,,2/8 Mostly Clear,72000.0,,FEW,4500.0,,,,,,
KRDR,08-16-2012,14:00,METAR,,320,15.0,,,9999.0,,14.0,7.0,30.01,1017.1,,,,,,,,,,,,,,,Clear,72000.0,,,73000.0,,,,,,
KRDR,08-16-2012,13:00,METAR,,330,10.0,,,9999.0,,12.0,7.0,29.99,1016.5,,,,,,,,,,,,,,,2/8 Mostly Clear,72000.0,,FEW,4900.0,,,,,,
KRDR,08-16-2012,12:00,METAR,,330,11.0,18.0,,9999.0,,12.0,8.0,29.98,1016.2,,,,,,,,,,,,,TRACE,,7/8 Mostly Cloudy,4900.0,,BKN,5000.0,,,,,,
KRDR,08-16-2012,11:00,METAR,,340,12.0,,,9999.0,,12.0,8.0,29.96,1015.5,,,,,,,,,,,,,,,Clear,72000.0,,,73000.0,,,,,,
KRDR,08-16-2012,10:00,METAR,,330,13.0,,,9999.0,,13.0,9.0,29.95,1015.1,,,,,,,,,,,,,,,Clear,72000.0,,,73000.0,,,,,,
KRDR,08-16-2012,09:00,METAR,,330,15.0,19.0,,9999.0,,14.0,9.0,29.94,1014.7,,,,,,,,,,,,TRACE,,,7/8 Mostly Cloudy,4900.0,,BKN,5000.0,BKN,6900.0,,,,
KRDR,08-16-2012,08:00,METAR,,320,10.0,,,9999.0,,14.0,9.0,29.93,1014.6,,,,,,,,,,,TRACE,,,,4/8 Partly Cloudy,72000.0,,SCT,6900.0,,,,,,
KRDR,08-16-2012,07:50,SPECI,,320,12.0,,,9999.0,,14.0,9.0,29.93,1014.6,,,,,,,,,,,,,,,4/8 Partly Cloudy,72000.0,,SCT,6900.0,,,,,,
KRDR,08-16-2012,07:40,SPECI,,320,11.0,,,9999.0,,14.0,9.0,29.93,1014.6,,,,,,,,,,,,,,,4/8 Partly Cloudy,72000.0,,FEW,3900.0,SCT,5900.0,,,,
KRDR,08-16-2012,07:20,SPECI,,320,12.0,,,9999.0,,13.0,10.0,29.93,1014.4,,,,,,,,,,,,,,,7/8 Mostly Cloudy,6000.0,,FEW,3300.0,SCT,4700.0,BKN,5900.0,,
KRDR,08-16-2012,07:00,METAR,,330,9.0,,,9999.0,,14.0,9.0,29.92,1014.4,,,,,,,,,,,,,,,4/8 Partly Cloudy,72000.0,,FEW,5000.0,SCT,6900.0,SCT,8900.0,,
KRDR,08-16-2012,07:00,SPECI,,330,12.0,18.0,,9999.0,,14.0,10.0,29.92,1014.4,,,,,,,,,,,,,,,4/8 Partly Cloudy,72000.0,,FEW,4600.0,SCT,5000.0,SCT,8900.0,,
KRDR,08-16-2012,06:00,METAR,,320,11.0,,,9999.0,,14.0,10.0,29.91,1014.0,,,,,,,,,,,,,TRACE,,7/8 Mostly Cloudy,2700.0,,SCT,2600.0,BKN,4900.0,BKN,6900.0,,
KRDR,08-16-2012,05:47,SPECI,,320,10.0,,,9999.0,,14.0,10.0,29.91,1014.0,,,,,,,,,,,,,,,7/8 Mostly Cloudy,2700.0,,SCT,2600.0,BKN,5000.0,BKN,6900.0,,
KRDR,08-16-2012,05:00,METAR,,320,10.0,,,9999.0,,14.0,11.0,29.91,1013.9,,,,,,,,,,,,,,,7/8 Mostly Cloudy,2900.0,,BKN,2900.0,BKN,7900.0,,,,
KRDR,08-16-2012,04:46,SPECI,,320,11.0,,,9999.0,,14.0,11.0,29.91,1013.8,,,,,,,,,,,,,,,7/8 Mostly Cloudy,2900.0,,BKN,2900.0,BKN,4400.0,BKN,7900.0,,
KRDR,08-16-2012,04:00,METAR,,310,13.0,18.0,,9999.0,,14.0,10.0,29.90,1013.6,,,,,,,,,,,,,,,7/8 Mostly Cloudy,7000.0,,FEW,3100.0,BKN,6900.0,,,,
KRDR,08-16-2012,03:00,METAR,,320,13.0,,,9999.0,,15.0,12.0,29.88,1012.8,,,,,,,,,,,TRACE,0 IN,,,8/8 Overcast,2900.0,,BKN,2900.0,OVC,3800.0,,,,
KRDR,08-16-2012,02:47,SPECI,,320,15.0,19.0,,9999.0,,15.0,12.0,29.88,1012.7,,,,,,,,,,,,,,,8/8 Overcast,2900.0,,FEW,1900.0,BKN,2900.0,OVC,3900.0,,
KRDR,08-16-2012,02:26,SPECI,,320,16.0,,,9999.0,,15.0,12.0,29.86,1012.4,,,,,,,,,,,,,,,8/8 Overcast,3100.0,,SCT,1900.0,SCT,2700.0,OVC,3200.0,,
KRDR,08-16-2012,02:20,SPECI,,320,14.0,23.0,,9999.0,,15.0,13.0,29.86,1012.3,,,,,,,,,,,,,,,8/8 Overcast,2700.0,,SCT,2000.0,BKN,2700.0,OVC,4800.0,,
KRDR,08-16-2012,02:10,SPECI,,320,14.0,,,9999.0,,15.0,13.0,29.86,1012.1,,,,,,,,,,,,,,,8/8 Overcast,3200.0,,SCT,2100.0,SCT,2700.0,OVC,3300.0,,
KRDR,08-16-2012,02:06,SPECI,,320,14.0,,,9999.0,,15.0,13.0,29.86,1012.1,,,,,,,,,,,,,,,8/8 Overcast,2500.0,,SCT,2100.0,BKN,2900.0,OVC,3600.0,,
KRDR,08-16-2012,02:00,METAR,,310,16.0,20.0,,9999.0,,16.0,13.0,29.85,1012.0,,,,,,,,,,,,,,,8/8 Overcast,1800.0,,BKN,2100.0,OVC,3900.0,,,,
KRDR,08-16-2012,01:58,SPECI,,310,16.0,20.0,,9999.0,,16.0,13.0,29.85,1012.0,,,,,,,,,,,,,,,8/8 Overcast,3800.0,,SCT,2100.0,OVC,3900.0,,,,
KRDR,08-16-2012,01:39,SPECI,,330,17.0,23.0,,9999.0,,16.0,12.0,29.84,1011.6,,,,,,,,,,,,,,,8/8 Overcast,4000.0,,SCT,2200.0,SCT,2800.0,OVC,4100.0,,
KRDR,08-16-2012,01:00,METAR,,320,18.0,24.0,330/26KTS,9999.0,,17.0,13.0,29.81,1010.7,,,,,,,,,,,TRACE,,,,8/8 Overcast,1800.0,,BKN,2000.0,BKN,4800.0,OVC,5900.0,,
KRDR,08-16-2012,00:42,SPECI,,330,18.0,25.0,330/26KTS,9999.0,,17.0,13.0,29.81,1010.5,,,,,,,,,,,,,,,8/8 Overcast,2200.0,,BKN,2200.0,BKN,3700.0,OVC,5900.0,,
KRDR,08-16-2012,00:17,SPECI,,320,15.0,21.0,330/26KTS,9999.0,,16.0,14.0,29.79,1010.0,,,,,,,,,,,,,,,8/8 Overcast,3500.0,,FEW,1900.0,BKN,3600.0,OVC,5000.0,,
KRDR,08-16-2012,00:10,SPECI,,310,15.0,24.0,330/26KTS,9999.0,,16.0,14.0,29.79,1009.8,,,,,,,,,,,,,,,8/8 Overcast,2700.0,,FEW,1900.0,BKN,2700.0,OVC,4400.0,,
KRDR,08-16-2012,00:00,METAR,,330,20.0,26.0,330/26KTS,9999.0,,18.0,14.0,29.78,1009.7,,,,,,,,,,,,,,,8/8 Overcast,1900.0,,BKN,2400.0,OVC,4100.0,,,,
KRDR,08-15-2012,23:03,SPECI,,330,19.0,27.0,320/27KTS,9999.0,,19.0,14.0,29.75,1008.7,,,,,,,,,,,,,,,8/8 Overcast,1700.0,,SCT,1800.0,BKN,2500.0,OVC,3200.0,,
KRDR,08-15-2012,23:01,SPECI,,320,19.0,24.0,,9999.0,,19.0,14.0,29.75,1008.6,,,,,,,,,,,,,,,8/8 Overcast,1700.0,,FEW,1600.0,SCT,2100.0,OVC,3200.0,,
KRDR,08-15-2012,23:00,METAR,,320,20.0,25.0,300/27KTS,9999.0,,19.0,15.0,29.74,1008.4,,,,,,,,,,,,,,,8/8 Overcast,2000.0,,FEW,1600.0,BKN,2000.0,OVC,3200.0,,
KRDR,08-15-2012,22:21,SPECI,,320,20.0,25.0,310/26KTS,9999.0,,20.0,15.0,29.72,1007.7,,,,,,,,,,,,,,,8/8 Overcast,2700.0,,FEW,2200.0,BKN,2700.0,OVC,5900.0,,
KRDR,08-15-2012,22:17,SPECI,,330,17.0,24.0,310/26KTS,9999.0,,21.0,15.0,29.72,1007.6,,,,,,,,,,,,,,,8/8 Overcast,3000.0,,SCT,2500.0,BKN,3000.0,OVC,5000.0,,
KRDR,08-15-2012,22:09,SPECI,,320,18.0,23.0,310/26KTS,9999.0,,21.0,15.0,29.72,1007.5,,,,,,,,,,,,,,,8/8 Overcast,2600.0,,BKN,2800.0,OVC,5000.0,,,,
KRDR,08-15-2012,22:00,METAR,,320,13.0,22.0,,9999.0,,21.0,15.0,29.72,1007.5,,,,,,,,,,,,,,,7/8 Mostly Cloudy,2900.0,,SCT,2800.0,BKN,4900.0,,,,
KRDR,08-15-2012,21:27,SPECI,,290,13.0,,,9999.0,,22.0,16.0,29.71,1007.3,,,,,,,,,,,,,,,7/8 Mostly Cloudy,2900.0,,BKN,2900.0,BKN,5900.0,BKN,12000.0,,
KRDR,08-15-2012,21:00,METAR,,280,10.0,,,9999.0,,22.0,16.0,29.70,1007.1,,,,,,,,,,,,,,,7/8 Mostly Cloudy,4200.0,,SCT,2900.0,BKN,4300.0,BKN,5900.0,,
KRDR,08-15-2012,20:51,SPECI,,290,12.0,19.0,,9999.0,,22.0,16.0,29.70,1007.1,,,,,,,,,,,,,,,8/8 Overcast,2800.0,,BKN,2900.0,BKN,4100.0,OVC,5900.0,,
KRDR,08-15-2012,20:49,SPECI,,300,11.0,19.0,,9999.0,,22.0,16.0,29.70,1007.0,,,,,,,,,,,,,,,8/8 Overcast,3200.0,,SCT,2800.0,BKN,3300.0,OVC,5000.0,,
KRDR,08-15-2012,20:47,SPECI,,290,13.0,19.0,,9999.0,,22.0,16.0,29.70,1006.9,,,,,,,,,,,,,,,8/8 Overcast,2800.0,,BKN,2800.0,BKN,3400.0,OVC,12000.0,,
KRDR,08-15-2012,20:32,SPECI,,280,12.0,20.0,,9999.0,,22.0,16.0,29.69,1006.7,,,,,,,,,,,,,,,8/8 Overcast,3500.0,,SCT,2800.0,BKN,3600.0,OVC,4300.0,,
KRDR,08-15-2012,20:27,SPECI,,280,13.0,20.0,,9999.0,,22.0,16.0,29.69,1006.7,,,,,,,,,,,,,,,8/8 Overcast,2800.0,,BKN,2800.0,BKN,4000.0,OVC,5000.0,,
KRDR,08-15-2012,20:12,SPECI,,270,15.0,20.0,,9999.0,,22.0,16.0,29.70,1007.0,,,,,,,,,,,,,,,8/8 Overcast,3700.0,,SCT,2700.0,OVC,3800.0,,,,
KRDR,08-15-2012,20:00,METAR,,290,11.0,19.0,,9999.0,,22.0,17.0,29.68,1006.4,,,,,,,,,,,TRACE,,,,7/8 Mostly Cloudy,2500.0,,BKN,2600.0,BKN,3400.0,,,,
KRDR,08-15-2012,19:38,SPECI,,280,13.0,,,9999.0,,23.0,17.0,29.68,1006.2,,,,,,,,,,,,,,,7/8 Mostly Cloudy,2600.0,,BKN,2600.0,BKN,12000.0,,,,
KRDR,08-15-2012,19:00,METAR,,290,11.0,17.0,,9999.0,Light Rain,21.0,17.0,29.65,1005.3,61,,,,,,,,,,TRACE,,,,4/8 Partly Cloudy,72000.0,,FEW,2100.0,SCT,12000.0,,,,
KRDR,08-15-2012,18:46,SPECI,,280,11.0,,,9999.0,Light Rain,21.0,17.0,29.65,1005.4,61,,,,,,,,,,,,,,7/8 Mostly Cloudy,12000.0,,SCT,1900.0,SCT,6900.0,BKN,12000.0,,
KRDR,08-15-2012,18:36,SPECI,,270,12.0,,,9999.0,,21.0,17.0,29.66,1005.5,,,,,,,,,,,,,,,7/8 Mostly Cloudy,12000.0,,SCT,1800.0,BKN,12000.0,,,,
KRDR,08-15-2012,18:18,SPECI,,260,13.0,,,9999.0,,21.0,17.0,29.67,1006.1,,,,,,,,,,,,,,,7/8 Mostly Cloudy,1600.0,,BKN,1700.0,BKN,12000.0,,,,
KRDR,08-15-2012,18:07,SPECI,,260,15.0,21.0,,9999.0,,21.0,17.0,29.67,1006.0,,,,,,,,,,,,,,,7/8 Mostly Cloudy,1700.0,,BKN,1800.0,BKN,12000.0,,,,
KRDR,08-15-2012,18:00,METAR,,250,13.0,20.0,,9999.0,,21.0,17.0,29.66,1005.7,,,,,,,,,,,TRACE,,TRACE,,7/8 Mostly Cloudy,12000.0,,SCT,1800.0,SCT,6900.0,BKN,12000.0,,
KRDR,08-15-2012,17:41,SPECI,,250,15.0,19.0,,9999.0,,21.0,17.0,29.66,1005.7,,,,,,,,,,,,,,,7/8 Mostly Cloudy,12000.0,,FEW,5000.0,SCT,6900.0,BKN,12000.0,,
KRDR,08-15-2012,17:26,SPECI,,220,9.0,,,9999.0,,22.0,18.0,29.64,1004.9,,,,,,,,,,,,,,,8/8 Overcast,7000.0,,FEW,5000.0,BKN,6900.0,OVC,11000.0,,
KRDR,08-15-2012,17:03,SPECI,,240,5.0,,,9999.0,,21.0,17.0,29.62,1004.3,,,,,,,,,,,,,,,7/8 Mostly Cloudy,9000.0,,FEW,5000.0,BKN,8900.0,BKN,12000.0,,
KRDR,08-15-2012,17:00,METAR,,230,7.0,,,9999.0,,22.0,17.0,29.62,1004.3,,,,,,,,,,,TRACE,,,,7/8 Mostly Cloudy,9000.0,,FEW,4400.0,SCT,6900.0,BKN,8900.0,,
KRDR,08-15-2012,16:49,SPECI,,190,8.0,,,9999.0,,22.0,17.0,29.61,1004.0,,,,,,,,,,,,,,,7/8 Mostly Cloudy,10000.0,,FEW,4000.0,SCT,6900.0,BKN,9900.0,,
KRDR,08-15-2012,16:36,SPECI,,200,8.0,,,9999.0,,21.0,17.0,29.64,1004.9,,,,,,,,,,,,,,,7/8 Mostly Cloudy,11000.0,,FEW,4800.0,SCT,8900.0,BKN,11000.0,,
KRDR,08-15-2012,16:23,SPECI,,210,5.0,,,9999.0,Light Rain,22.0,17.0,29.63,1004.7,61,,,,,,,,,,,,,,7/8 Mostly Cloudy,10000.0,,BKN,9900.0,BKN,12000.0,,,,
KRDR,08-15-2012,16:00,METAR,,210,12.0,,,9999.0,,21.0,16.0,29.66,1005.5,,,,,,,,,,,,,,,4/8 Partly Cloudy,72000.0,,SCT,11000.0,,,,,,
KRDR,08-15-2012,15:00,METAR,,190,15.0,,,9999.0,,20.0,15.0,29.65,1005.2,,,,,,,,,,,,,,,Clear,72000.0,,,73000.0,,,,,,
KRDR,08-15-2012,14:00,METAR,,180,14.0,,,9999.0,,17.0,14.0,29.67,1005.9,,,,,,,,,,,,,,,Clear,72000.0,,,73000.0,,,,,,
KRDR,08-15-2012,13:00,METAR,,170,7.0,,,9999.0,,15.0,12.0,29.68,1006.1,,,,,,,,,,,,,,,Clear,72000.0,,,73000.0,,,,,,
KRDR,08-15-2012,12:00,METAR,,180,7.0,,,9999.0,,13.0,11.0,29.67,1006.0,,,,,,,,,,,,,,,Clear,72000.0,,,73000.0,,,,,,
KRDR,08-15-2012,11:00,METAR,,150,7.0,,,9999.0,,12.0,11.0,29.70,1006.9,,,,,,,,,,,,,,,Clear,72000.0,,,73000.0,,,,,,
KRDR,08-15-2012,10:00,METAR,,170,5.0,,,9999.0,,13.0,11.0,29.71,1007.4,,,,,,,,,,,,,,,Clear,72000.0,,,73000.0,,,,,,
KRDR,08-15-2012,09:00,METAR,,160,5.0,,,9999.0,,14.0,11.0,29.74,1008.3,,,,,,,,,,,,,,,Clear,72000.0,,,73000.0,,,,,,
KRDR,08-15-2012,08:00,METAR,,160,5.0,,,9999.0,,14.0,11.0,29.76,1008.9,,,,,,,,,,,,,,,Clear,72000.0,,,73000.0,,,,,,
KRDR,08-15-2012,07:00,METAR,,170,7.0,,,9999.0,,15.0,11.0,29.77,1009.2,,,,,,,,,,,,,,,Clear,72000.0,,,73000.0,,,,,,
KRDR,08-15-2012,06:00,METAR,,200,5.0,,,9999.0,,15.0,10.0,29.79,1010.0,,,,,,,,,,,,,,,Clear,72000.0,,,73000.0,,,,,,
KRDR,08-15-2012,05:00,METAR,,200,6.0,,,9999.0,,15.0,10.0,29.79,1010.1,,,,,,,,,,,,,,,Clear,72000.0,,,73000.0,,,,,,
KRDR,08-15-2012,04:00,METAR,,190,7.0,,,9999.0,,16.0,11.0,29.81,1010.6,,,,,,,,,,,,,,,Clear,72000.0,,,73000.0,,,,,,
KRDR,08-15-2012,03:00,METAR,,180,7.0,,,9999.0,,17.0,11.0,29.82,1010.9,,,,,,,,,,,,,,,Clear,72000.0,,,73000.0,,,,,,
KRDR,08-15-2012,02:00,METAR,,180,8.0,,,9999.0,,20.0,12.0,29.82,1010.9,,,,,,,,,,,,,,,Clear,72000.0,,,73000.0,,,,,,
KRDR,08-15-2012,01:00,METAR,,190,8.0,,,9999.0,,23.0,12.0,29.82,1011.0,,,,,,,,,,,,,,,Clear,72000.0,,,73000.0,,,,,,
KRDR,08-15-2012,00:00,METAR,,190,8.0,,,9999.0,,25.0,12.0,29.83,1011.1,,,,,,,,,,,,,,,Clear,72000.0,,,73000.0,,,,,,
KRDR,08-14-2012,23:00,METAR,,200,7.0,,,9999.0,,25.0,11.0,29.84,1011.5,,,,,,,,,,,,,,,Clear,72000.0,,,73000.0,,,,,,
KRDR,08-14-2012,22:00,METAR,,200,7.0,,,9999.0,,26.0,11.0,29.85,1011.9,,,,,,,,,,,,,,,Clear,72000.0,,,73000.0,,,,,,
KRDR,08-14-2012,21:00,METAR,,120,3.0,,,9999.0,,26.0,9.0,29.86,1012.3,,,,,,,,,,,,,,,Clear,72000.0,,,73000.0,,,,,,
KRDR,08-14-2012,20:00,METAR,,140,7.0,,,9999.0,,26.0,10.0,29.88,1012.8,,,,,,,,,,,,,,,7/8 Mostly Cloudy,6000.0,,BKN,5900.0,,,,,,
KRDR,08-14-2012,19:00,METAR,,,6.0,,,9999.0,,25.0,11.0,29.90,1013.5,,,,,,,,,,,,,,,Clear,72000.0,,,73000.0,,,,,,
KRDR,08-14-2012,18:00,METAR,,170,7.0,,,9999.0,,24.0,11.0,29.92,1014.3,,,,,,,,,,,,,,,2/8 Mostly Clear,72000.0,,FEW,5900.0,,,,,,
KRDR,08-14-2012,17:00,METAR,,140,6.0,,,9999.0,,24.0,11.0,29.94,1014.8,,,,,,,,,,,,,,,Clear,72000.0,,,73000.0,,,,,,
KRDR,08-14-2012,16:00,METAR,,100,4.0,,,9999.0,,21.0,12.0,29.95,1015.2,,,,,,,,,,,,,,,Clear,72000.0,,,73000.0,,,,,,
KRDR,08-14-2012,15:00,METAR,,,0.0,,,9999.0,,19.0,12.0,29.96,1015.5,,,,,,,,,,,,,,,Clear,72000.0,,,73000.0,,,,,,
KRDR,08-14-2012,14:00,METAR,,,0.0,,,9999.0,,16.0,12.0,29.97,1015.8,,,,,,,,,,,,,,,Clear,72000.0,,,73000.0,,,,,,
KRDR,08-14-2012,13:00,METAR,,210,3.0,,,9999.0,,12.0,11.0,29.98,1016.0,,,,,,,,,,,,,,,Clear,72000.0,,,73000.0,,,,,,
KRDR,08-14-2012,12:00,METAR,,,0.0,,,9999.0,,8.0,7.0,29.98,1016.1,,,,,,,,,,,,,,,Clear,72000.0,,,73000.0,,,,,,
KRDR,08-14-2012,11:00,METAR,,,0.0,,,9999.0,,8.0,8.0,29.98,1016.0,,,,,,,,,,,,,,,Clear,72000.0,,,73000.0,,,,,,
KRDR,08-14-2012,10:00,METAR,,,0.0,,,9999.0,,8.0,7.0,29.97,1015.7,,,,,,,,,,,,,,,Clear,72000.0,,,73000.0,,,,,,
KRDR,08-14-2012,09:27,SPECI,,,0.0,,,4800.0,Mist,9.0,8.0,29.97,1015.9,10,,,,,,,,,,,,,,Clear,72000.0,,,73000.0,,,,,,
KRDR,08-14-2012,09:26,SPECI,,,0.0,,,4800.0,Mist,9.0,8.0,29.97,1015.9,10,,,,,,,,,,,,,,Clear,72000.0,,,73000.0,,,,,,
KRDR,08-14-2012,09:22,SPECI,,,0.0,,,3200.0,Mist,9.0,8.0,29.97,1016.0,10,,,,,,,,,,,,,,Clear,72000.0,,,73000.0,,,,,,
KRDR,08-14-2012,09:18,SPECI,,,0.0,,,2400.0,Mist,9.0,8.0,29.98,1016.1,10,,,,,,,,,,,,,,Clear,72000.0,,,73000.0,,,,,,
KRDR,08-14-2012,09:17,SPECI,,,0.0,,,2000.0,Mist,9.0,8.0,29.98,1016.1,10,,,,,,,,,,,,,,Clear,72000.0,,,73000.0,,,,,,
KRDR,08-14-2012,09:11,SPECI,,,0.0,,,2000.0,Mist,9.0,8.0,29.98,1016.2,10,,,,,,,,,,,,,,Clear,72000.0,,,73000.0,,,,,,
KRDR,08-14-2012,09:10,SPECI,,,0.0,,,2400.0,Mist,9.0,8.0,29.98,1016.2,10,,,,,,,,,,,,,,Clear,72000.0,,,73000.0,,,,,,
KRDR,08-14-2012,09:07,SPECI,,,0.0,,,2800.0,Mist,9.0,8.0,29.98,1016.2,10,,,,,,,,,,,,,,Clear,72000.0,,,73000.0,,,,,,
KRDR,08-14-2012,09:05,SPECI,,,0.0,,,4000.0,Mist,9.0,8.0,29.98,1016.2,10,,,,,,,,,,,,,,Clear,72000.0,,,73000.0,,,,,,
KRDR,08-14-2012,09:00,METAR,,,0.0,,,9999.0,,9.0,9.0,29.98,1016.3,,,,,,,,,,,,,,,Clear,72000.0,,,73000.0,,,,,,
KRDR,08-14-2012,08:00,METAR,,,0.0,,,9999.0,,10.0,9.0,29.99,1016.6,,,,,,,,,,,,,,,Clear,72000.0,,,73000.0,,,,,,
KRDR,08-14-2012,07:00,METAR,,,0.0,,,9999.0,,12.0,10.0,30.00,1016.7,,,,,,,,,,,,,,,Clear,72000.0,,,73000.0,,,,,,
KRDR,08-14-2012,06:00,METAR,,,0.0,,,9999.0,,12.0,10.0,30.01,1017.1,,,,,,,,,,,,,,,Clear,72000.0,,,73000.0,,,,,,
KRDR,08-14-2012,05:00,METAR,,270,5.0,,,9999.0,,13.0,11.0,30.01,1017.1,,,,,,,,,,,,,,,4/8 Partly Cloudy,72000.0,,SCT,7900.0,,,,,,
KRDR,08-14-2012,04:00,METAR,,,0.0,,,9999.0,,14.0,11.0,30.01,1017.0,,,,,,,,,,,,,,,4/8 Partly Cloudy,72000.0,,SCT,6900.0,,,,,,
KRDR,08-14-2012,03:00,METAR,,,0.0,,,9999.0,,14.0,11.0,30.00,1017.0,,,,,,,,,,,,,,,Clear,72000.0,,,73000.0,,,,,,
KRDR,08-14-2012,02:00,METAR,,90,3.0,,,9999.0,,20.0,11.0,30.00,1016.9,,,,,,,,,,,,,,,Clear,72000.0,,,73000.0,,,,,,
KRDR,08-14-2012,01:00,METAR,,90,5.0,,,9999.0,,22.0,10.0,30.00,1016.8,,,,,,,,,,,,,,,Clear,72000.0,,,73000.0,,,,,,
KRDR,08-14-2012,00:00,METAR,,10,4.0,,,9999.0,,24.0,10.0,30.01,1017.0,,,,,,,,,,,,,,,Clear,72000.0,,,73000.0,,,,,,
KRDR,08-13-2012,23:00,METAR,,350,5.0,,,9999.0,,24.0,10.0,30.01,1017.3,,,,,,,,,,,,,,,Clear,72000.0,,,73000.0,,,,,,
KRDR,08-13-2012,22:00,METAR,,,5.0,,,9999.0,,25.0,9.0,30.02,1017.5,,,,,,,,,,,,,,,2/8 Mostly Clear,72000.0,,FEW,5900.0,,,,,,
KRDR,08-13-2012,21:00,METAR,,,3.0,,,9999.0,,24.0,10.0,30.03,1017.9,,,,,,,,,,,,,,,2/8 Mostly Clear,72000.0,,FEW,5900.0,,,,,,
KRDR,08-13-2012,20:00,METAR,,30,8.0,,,9999.0,,25.0,10.0,30.04,1018.2,,,,,,,,,,,,,,,2/8 Mostly Clear,72000.0,,FEW,6900.0,,,,,,
KRDR,08-13-2012,19:00,METAR,,10,9.0,,,9999.0,,23.0,11.0,30.05,1018.4,,,,,,,,,,,,,,,2/8 Mostly Clear,72000.0,,FEW,5900.0,,,,,,
KRDR,08-13-2012,18:00,METAR,,320,5.0,,,9999.0,,24.0,9.0,30.06,1018.8,,,,,,,,,,,,,,,Clear,72000.0,,,73000.0,,,,,,
KRDR,08-13-2012,17:00,METAR,,350,8.0,,,9999.0,,23.0,11.0,30.07,1019.2,,,,,,,,,,,,,,,Clear,72000.0,,,73000.0,,,,,,
KRDR,08-13-2012,16:00,METAR,,290,9.0,,,9999.0,,22.0,13.0,30.08,1019.5,,,,,,,,,,,,,,,Clear,72000.0,,,73000.0,,,,,,
KRDR,08-13-2012,15:00,METAR,,330,4.0,,,9999.0,,21.0,13.0,30.08,1019.5,,,,,,,,,,,,,,,Clear,72000.0,,,73000.0,,,,,,
KRDR,08-13-2012,14:00,METAR,,310,3.0,,,9999.0,,17.0,14.0,30.08,1019.6,,,,,,,,,,,,,,,2/8 Mostly Clear,72000.0,,FEW,6900.0,,,,,,
KRDR,08-13-2012,13:00,METAR,,300,4.0,,,9999.0,,15.0,12.0,30.08,1019.6,,,,,,,,,,,,,,,Clear,72000.0,,,73000.0,,,,,,
KRDR,08-13-2012,12:00,METAR,,300,4.0,,,9999.0,,12.0,10.0,30.07,1019.1,,,,,,,,,,,,,,.01 IN,4/8 Partly Cloudy,72000.0,,SCT,6900.0,,,,,,
KRDR,08-13-2012,11:00,METAR,,310,6.0,,,9999.0,,11.0,10.0,30.06,1018.8,,,,,,,,,,,,,,,2/8 Mostly Clear,72000.0,,FEW,6900.0,,,,,,
KRDR,08-13-2012,10:00,METAR,,300,6.0,,,9999.0,,12.0,10.0,30.06,1018.7,,,,,,,,,,,,,,,2/8 Mostly Clear,72000.0,,FEW,6900.0,,,,,,
KRDR,08-13-2012,09:00,METAR,,300,5.0,,,9999.0,,12.0,11.0,30.05,1018.3,,,,,,,,,,,,,,,Clear,72000.0,,,73000.0,,,,,,
KRDR,08-13-2012,08:00,METAR,,310,6.0,,,9999.0,,14.0,12.0,30.04,1018.1,,,,,,,,,,,,,,,2/8 Mostly Clear,72000.0,,FEW,6900.0,,,,,,
KRDR,08-13-2012,07:00,METAR,,320,5.0,,,9999.0,,15.0,13.0,30.04,1018.1,,,,,,,,,,,,,,,2/8 Mostly Clear,72000.0,,FEW,6900.0,,,,,,
KRDR,08-13-2012,06:00,METAR,,320,5.0,,,9999.0,,15.0,14.0,30.03,1017.8,,,,,,,,,,,,,TRACE,,Clear,72000.0,,,73000.0,,,,,,
KRDR,08-13-2012,05:00,METAR,,330,5.0,,,9999.0,,16.0,14.0,30.03,1018.0,,,,,,,,,,,,,,,2/8 Mostly Clear,72000.0,,FEW,6900.0,,,,,,
KRDR,08-13-2012,04:00,METAR,,340,3.0,,,9999.0,,17.0,15.0,30.02,1017.5,,,,,,,,,,,TRACE,,,,4/8 Partly Cloudy,72000.0,,FEW,6900.0,SCT,8900.0,,,,
KRDR,08-13-2012,03:05,SPECI,,10,4.0,,,9999.0,,18.0,16.0,30.02,1017.4,,,,,,,,,,,,,,,7/8 Mostly Cloudy,4900.0,,FEW,1900.0,BKN,5000.0,,,,
KRDR,08-13-2012,03:00,METAR,,,0.0,,,9999.0,Light Rain,18.0,16.0,30.01,1017.3,61,,,,,,,,,,TRACE,0 IN,,,4/8 Partly Cloudy,72000.0,,FEW,1800.0,SCT,5000.0,SCT,6900.0,,
KRDR,08-13-2012,02:37,SPECI,,40,4.0,,,9999.0,Light Rain,18.0,16.0,30.01,1017.1,61,,,,,,,,,,,,,,4/8 Partly Cloudy,72000.0,,FEW,5900.0,SCT,6900.0,,,,
KRDR,08-13-2012,02:00,METAR,,,0.0,,,9999.0,,20.0,15.0,29.99,1018.2,,,,,,,,,,,TRACE,,,,4/8 Partly Cloudy,72000.0,,FEW,3100.0,SCT,9900.0,,,,
KRDR,08-13-2012,01:51,SPECI,,,0.0,,,9999.0,,20.0,15.0,29.99,1016.4,,,,,,,,,,,,,,,4/8 Partly Cloudy,72000.0,,FEW,3100.0,SCT,9900.0,,,,
KRDR,08-13-2012,01:41,SPECI,,,0.0,,,9999.0,Light Rain,21.0,15.0,29.98,1016.3,61,,,,,,,,,,,,,,2/8 Mostly Clear,72000.0,,FEW,3000.0,,,,,,
KRDR,08-13-2012,01:00,METAR,,290,7.0,,,9999.0,,22.0,16.0,29.98,1016.1,,,,,,,,,,,,,,,Clear,72000.0,,,73000.0,,,,,,
KRDR,08-13-2012,00:00,METAR,,290,9.0,,,9999.0,,24.0,16.0,29.97,1016.0,,,,,,,,,,,,,,,2/8 Mostly Clear,72000.0,,FEW,3600.0,,,,,,
KRDR,08-12-2012,23:00,METAR,,270,9.0,,,9999.0,,24.0,16.0,29.98,1016.2,,,,,,,,,,,,,,,Clear,72000.0,,,73000.0,,,,,,
KRDR,08-12-2012,22:00,METAR,,310,10.0,,,9999.0,,23.0,16.0,29.98,1016.2,,,,,,,,,,,,,,,4/8 Partly Cloudy,72000.0,,SCT,3400.0,,,,,,
KRDR,08-12-2012,21:00,METAR,,300,10.0,,,9999.0,,24.0,16.0,29.99,1016.4,,,,,,,,,,,,,,,2/8 Mostly Clear,72000.0,,FEW,3300.0,,,,,,
KRDR,08-12-2012,20:00,METAR,,300,7.0,,,9999.0,,24.0,16.0,30.00,1016.9,,,,,,,,,,,,,,,2/8 Mostly Clear,72000.0,,FEW,2800.0,,,,,,
KRDR,08-12-2012,19:00,METAR,,,5.0,,,9999.0,,21.0,16.0,30.01,1017.1,,,,,,,,,,,,,,,7/8 Mostly Cloudy,4000.0,,SCT,3300.0,BKN,4100.0,,,,
KRDR,08-12-2012,18:00,METAR,,300,5.0,,,9999.0,,20.0,16.0,30.01,1017.2,,,,,,,,,,,TRACE,,.01 IN,,7/8 Mostly Cloudy,2900.0,,BKN,2900.0,BKN,5000.0,,,,
KRDR,08-12-2012,18:00,SPECI,,290,5.0,,,9999.0,,20.0,16.0,30.01,1017.2,,,,,,,,,,,,,,,7/8 Mostly Cloudy,3000.0,,BKN,3000.0,,,,,,
KRDR,08-12-2012,17:47,SPECI,,320,5.0,,,9999.0,,20.0,17.0,30.01,1017.3,,,,,,,,,,,,,,,4/8 Partly Cloudy,72000.0,,SCT,2900.0,SCT,5000.0,,,,
KRDR,08-12-2012,17:23,SPECI,,340,7.0,,,9999.0,Light Drizzle,20.0,16.0,30.02,1017.3,51,,,,,,,,,,,,,,7/8 Mostly Cloudy,2900.0,,BKN,4600.0,,,,,,
KRDR,08-12-2012,17:01,SPECI,,320,6.0,,,9999.0,,19.0,16.0,30.02,1017.4,,,,,,,,,,,,,,,8/8 Overcast,2900.0,,SCT,2800.0,BKN,3400.0,OVC,4200.0,,
KRDR,08-12-2012,16:27,SPECI,,310,9.0,,,9999.0,,20.0,16.0,30.01,1017.3,,,,,,,,,,,,,,,7/8 Mostly Cloudy,2800.0,,BKN,2900.0,BKN,3800.0,,,,
KRDR,08-12-2012,16:00,METAR,,330,8.0,,,9999.0,,19.0,17.0,30.01,1017.2,,,,,,,,,,,.01 IN,,,,7/8 Mostly Cloudy,3000.0,,BKN,3500.0,,,,,,
KRDR,08-12-2012,15:32,SPECI,,310,8.0,,,9999.0,,19.0,16.0,30.01,1017.1,,,,,,,,,,,,,,,7/8 Mostly Cloudy,2900.0,,BKN,3500.0,,,,,,
KRDR,08-12-2012,15:12,SPECI,,290,8.0,,,9999.0,Light Rain,19.0,16.0,30.01,1017.2,61,,,,,,,,,,,,,,8/8 Overcast,2800.0,,FEW,1800.0,SCT,2700.0,OVC,3800.0,,
KRDR,08-12-2012,15:09,SPECI,,300,7.0,,,9999.0,Light Rain,19.0,16.0,30.01,1017.2,61,,,,,,,,,,,,,,8/8 Overcast,2700.0,,FEW,1700.0,BKN,2700.0,OVC,3800.0,,
KRDR,08-12-2012,15:07,SPECI,,300,5.0,,,9999.0,Rain,19.0,16.0,30.01,1017.3,62,,,,,,,,,,,,,,8/8 Overcast,2800.0,,FEW,1700.0,SCT,2700.0,OVC,3700.0,,
KRDR,08-12-2012,15:05,SPECI,,290,5.0,,,9999.0,Light Drizzle,19.0,16.0,30.01,1017.3,51,,,,,,,,,,,,,,8/8 Overcast,2700.0,,FEW,1700.0,BKN,2700.0,OVC,3700.0,,
KRDR,08-12-2012,15:00,METAR,,,0.0,,,9999.0,,19.0,16.0,30.02,1017.5,,,,,,,,,,,,,,,8/8 Overcast,2600.0,,FEW,1900.0,BKN,2700.0,OVC,3700.0,,
KRDR,08-12-2012,14:48,SPECI,,,0.0,,,9999.0,,19.0,16.0,30.02,1017.5,,,,,,,,,,,,,,,8/8 Overcast,2600.0,,BKN,2700.0,OVC,3700.0,,,,
KRDR,08-12-2012,14:00,METAR,,310,6.0,,,9999.0,,18.0,16.0,30.01,1017.2,,,,,,,,,,,,,,,7/8 Mostly Cloudy,4600.0,,BKN,4700.0,,,,,,
KRDR,08-12-2012,13:00,METAR,,260,6.0,,,9999.0,,18.0,15.0,30.01,1017.1,,,,,,,,,,,,,,,7/8 Mostly Cloudy,4700.0,,SCT,3400.0,BKN,4800.0,,,,
KRDR,08-12-2012,12:00,METAR,,250,3.0,,,9999.0,,17.0,15.0,30.00,1016.8,,,,,,,,,,,,,,,4/8 Partly Cloudy,72000.0,,SCT,8900.0,,,,,,
KRDR,08-12-2012,11:00,METAR,,300,4.0,,,9999.0,,17.0,15.0,29.99,1016.5,,,,,,,,,,,,,,,8/8 Overcast,3900.0,,OVC,4000.0,,,,,,
KRDR,08-12-2012,10:00,METAR,,280,4.0,,,9999.0,,17.0,15.0,29.99,1016.4,,,,,,,,,,,,,,,8/8 Overcast,4500.0,,OVC,4600.0,,,,,,
KRDR,08-12-2012,09:00,METAR,,260,5.0,,,9999.0,,18.0,15.0,29.99,1016.4,,,,,,,,,,,,,,,8/8 Overcast,3800.0,,OVC,3900.0,,,,,,
KRDR,08-12-2012,08:00,METAR,,290,6.0,,,9999.0,,18.0,15.0,29.97,1015.9,,,,,,,,,,,,,,,8/8 Overcast,4000.0,,OVC,4100.0,,,,,,
KRDR,08-12-2012,07:00,METAR,,260,4.0,,,9999.0,,18.0,15.0,29.98,1016.1,,,,,,,,,,,,,,,8/8 Overcast,3700.0,,OVC,3800.0,,,,,,
KRDR,08-12-2012,06:00,METAR,,200,6.0,,,9999.0,,18.0,15.0,29.99,1016.5,,,,,,,,,,,,,,,2/8 Mostly Clear,72000.0,,FEW,3900.0,,,,,,
KRDR,08-12-2012,05:00,METAR,,210,5.0,,,9999.0,,19.0,15.0,29.99,1016.5,,,,,,,,,,,,,,,8/8 Overcast,3700.0,,OVC,3800.0,,,,,,
KRDR,08-12-2012,04:00,METAR,,180,5.0,,,9999.0,,19.0,15.0,30.00,1016.7,,,,,,,,,,,,,,,8/8 Overcast,3800.0,,OVC,3900.0,,,,,,
KRDR,08-12-2012,03:00,METAR,,170,5.0,,,9999.0,,19.0,14.0,30.00,1016.7,,,,,,,,,,,,,,,8/8 Overcast,4100.0,,OVC,4200.0,,,,,,
KRDR,08-12-2012,02:00,METAR,,150,4.0,,,9999.0,,19.0,14.0,29.98,1016.1,,,,,,,,,,,,,,,4/8 Partly Cloudy,72000.0,,SCT,4800.0,,,,,,
KRDR,08-12-2012,01:00,METAR,,150,6.0,,,9999.0,,20.0,14.0,29.96,1015.6,,,,,,,,,,,,,,,2/8 Mostly Clear,72000.0,,FEW,9900.0,,,,,,
KRDR,08-12-2012,00:00,METAR,,170,8.0,,,9999.0,,21.0,15.0,29.97,1015.9,,,,,,,,,,,,,,,Clear,72000.0,,,73000.0,,,,,,
KRDR,08-11-2012,23:00,METAR,,180,9.0,,,9999.0,,22.0,14.0,29.96,1015.4,,,,,,,,,,,,,,,Clear,72000.0,,,73000.0,,,,,,
KRDR,08-11-2012,22:00,METAR,,160,11.0,,,9999.0,,23.0,14.0,29.96,1015.4,,,,,,,,,,,,,,,Clear,72000.0,,,73000.0,,,,,,
KRDR,08-11-2012,21:00,METAR,,150,13.0,,,9999.0,,23.0,14.0,29.97,1015.7,,,,,,,,,,,,,,,Clear,72000.0,,,73000.0,,,,,,
KRDR,08-11-2012,20:00,METAR,,150,10.0,,,9999.0,,23.0,14.0,29.99,1016.4,,,,,,,,,,,,,,,Clear,72000.0,,,73000.0,,,,,,
KRDR,08-11-2012,19:00,METAR,,170,12.0,,,9999.0,,22.0,13.0,30.00,1016.8,,,,,,,,,,,,,,,Clear,72000.0,,,73000.0,,,,,,
KRDR,08-11-2012,18:00,METAR,,180,15.0,,,9999.0,,22.0,13.0,30.00,1016.9,,,,,,,,,,,,,,,Clear,72000.0,,,73000.0,,,,,,
KRDR,08-11-2012,17:00,METAR,,180,13.0,,,9999.0,,22.0,12.0,30.01,1017.0,,,,,,,,,,,,,,,Clear,72000.0,,,73000.0,,,,,,
KRDR,08-11-2012,16:00,METAR,,180,15.0,,,9999.0,,21.0,13.0,30.02,1017.5,,,,,,,,,,,,,,,Clear,72000.0,,,73000.0,,,,,,
KRDR,08-11-2012,15:00,METAR,,180,14.0,,,9999.0,,19.0,12.0,30.02,1017.4,,,,,,,,,,,,,,,Clear,72000.0,,,73000.0,,,,,,
KRDR,08-11-2012,14:00,METAR,,180,9.0,,,9999.0,,17.0,13.0,30.04,1018.0,,,,,,,,,,,,,,,Clear,72000.0,,,73000.0,,,,,,
KRDR,08-11-2012,13:00,METAR,,170,7.0,,,9999.0,,14.0,12.0,30.05,1018.4,,,,,,,,,,,,,,,Clear,72000.0,,,73000.0,,,,,,
KRDR,08-11-2012,12:00,METAR,,150,5.0,,,9999.0,,11.0,10.0,30.05,1018.3,,,,,,,,,,,,,,,Clear,72000.0,,,73000.0,,,,,,
KRDR,08-11-2012,11:00,METAR,,150,5.0,,,9999.0,,12.0,10.0,30.04,1018.3,,,,,,,,,,,,,,,Clear,72000.0,,,73000.0,,,,,,
KRDR,08-11-2012,10:00,METAR,,180,6.0,,,9999.0,,11.0,10.0,30.05,1018.6,,,,,,,,,,,,,,,Clear,72000.0,,,73000.0,,,,,,
KRDR,08-11-2012,09:00,METAR,,190,4.0,,,9999.0,,12.0,11.0,30.06,1018.8,,,,,,,,,,,,,,,Clear,72000.0,,,73000.0,,,,,,
KRDR,08-11-2012,08:00,METAR,,170,3.0,,,9999.0,,11.0,10.0,30.06,1018.7,,,,,,,,,,,,,,,Clear,72000.0,,,73000.0,,,,,,
KRDR,08-11-2012,07:00,METAR,,210,4.0,,,9999.0,,12.0,10.0,30.05,1018.6,,,,,,,,,,,,,,,Clear,72000.0,,,73000.0,,,,,,
KRDR,08-11-2012,06:00,METAR,,180,4.0,,,9999.0,,12.0,11.0,30.06,1018.7,,,,,,,,,,,,,,,Clear,72000.0,,,73000.0,,,,,,
KRDR,08-11-2012,05:00,METAR,,160,3.0,,,9999.0,,13.0,11.0,30.07,1019.2,,,,,,,,,,,,,,,Clear,72000.0,,,73000.0,,,,,,
KRDR,08-11-2012,04:00,METAR,,210,3.0,,,9999.0,,14.0,11.0,30.08,1019.5,,,,,,,,,,,,,,,Clear,72000.0,,,73000.0,,,,,,
KRDR,08-11-2012,03:00,METAR,,170,6.0,,,9999.0,,17.0,12.0,30.07,1019.3,,,,,,,,,,,,,,,Clear,72000.0,,,73000.0,,,,,,
KRDR,08-11-2012,02:00,METAR,,140,5.0,,,9999.0,,19.0,12.0,30.08,1019.4,,,,,,,,,,,,,,,Clear,72000.0,,,73000.0,,,,,,
KRDR,08-11-2012,01:00,METAR,,180,7.0,,,9999.0,,22.0,12.0,30.08,1019.6,,,,,,,,,,,,,,,Clear,72000.0,,,73000.0,,,,,,
KRDR,08-11-2012,00:00,METAR,,170,10.0,,,9999.0,,23.0,11.0,30.09,1019.7,,,,,,,,,,,,,,,Clear,72000.0,,,73000.0,,,,,,
KRDR,08-10-2012,23:00,METAR,,180,8.0,,,9999.0,,23.0,12.0,30.09,1019.8,,,,,,,,,,,,,,,Clear,72000.0,,,73000.0,,,,,,
KRDR,08-10-2012,22:00,METAR,,180,10.0,,,9999.0,,24.0,11.0,30.11,1020.3,,,,,,,,,,,,,,,Clear,72000.0,,,73000.0,,,,,,
KRDR,08-10-2012,21:00,METAR,,160,9.0,,,9999.0,,25.0,12.0,30.13,1021.0,,,,,,,,,,,,,,,Clear,72000.0,,,73000.0,,,,,,
KRDR,08-10-2012,20:00,METAR,,170,7.0,,,9999.0,,24.0,12.0,30.14,1021.5,,,,,,,,,,,,,,,Clear,72000.0,,,73000.0,,,,,,
KRDR,08-10-2012,19:00,METAR,,180,7.0,16.0,,9999.0,,24.0,12.0,30.16,1022.1,,,,,,,,,,,,,,,Clear,72000.0,,,73000.0,,,,,,
KRDR,08-10-2012,18:00,METAR,,160,9.0,,,9999.0,,23.0,11.0,30.18,1022.8,,,,,,,,,,,,,,,Clear,72000.0,,,73000.0,,,,,,
KRDR,08-10-2012,17:00,METAR,,190,12.0,,,9999.0,,22.0,11.0,30.19,1023.2,,,,,,,,,,,,,,,Clear,72000.0,,,73000.0,,,,,,
KRDR,08-10-2012,16:00,METAR,,180,12.0,,,9999.0,,21.0,10.0,30.21,1023.7,,,,,,,,,,,,,,,Clear,72000.0,,,73000.0,,,,,,
KRDR,08-10-2012,15:00,METAR,,180,13.0,,,9999.0,,19.0,11.0,30.21,1023.9,,,,,,,,,,,,,,,Clear,72000.0,,,73000.0,,,,,,
KRDR,08-10-2012,14:00,METAR,,200,8.0,,,9999.0,,17.0,13.0,30.22,1024.1,,,,,,,,,,,,,,,Clear,72000.0,,,73000.0,,,,,,
KRDR,08-10-2012,13:00,METAR,,190,3.0,,,9999.0,,14.0,12.0,30.22,1024.2,,,,,,,,,,,,,,,Clear,72000.0,,,73000.0,,,,,,
KRDR,08-10-2012,12:00,METAR,,,0.0,,,4800.0,Mist,9.0,9.0,30.21,1023.9,10,,,,,,,,,,,,,,Clear,72000.0,,,73000.0,,,,,,
KRDR,08-10-2012,11:48,SPECI,,,0.0,,,4000.0,Mist,9.0,9.0,30.21,1023.8,10,,,,,,,,,,,,,,Clear,72000.0,,,73000.0,,,,,,
KRDR,08-10-2012,11:00,METAR,,170,3.0,,,9999.0,,9.0,9.0,30.20,1023.6,,,,,,,,,,,,,,,Clear,72000.0,,,73000.0,,,,,,
KRDR,08-10-2012,10:22,SPECI,,,0.0,,,9999.0,,9.0,8.0,30.21,,,,,,,,,,,,,,,,Clear,72000.0,,,73000.0,,,,,,
KRDR,08-10-2012,10:21,SPECI,,,0.0,,,9999.0,,9.0,8.0,30.21,,,,,,,,,,,,,,,,Clear,72000.0,,,73000.0,,,,,,
KRDR,08-10-2012,10:17,SPECI,,,0.0,,,9999.0,,9.0,8.0,30.21,,,,,,,,,,,,,,,,Clear,72000.0,,,73000.0,,,,,,
KRDR,08-10-2012,10:11,SPECI,,,0.0,,,9999.0,,9.0,9.0,30.21,,,,,,,,,,,,,,,,Clear,72000.0,,,73000.0,,,,,,
KRDR,08-10-2012,10:05,SPECI,,,0.0,,,9999.0,,9.0,9.0,30.20,,,,,,,,,,,,,,,,Clear,72000.0,,,73000.0,,,,,,
KRDR,08-10-2012,10:02,SPECI,,,0.0,,,9999.0,,9.0,9.0,30.20,,,,,,,,,,,,,,,,Clear,72000.0,,,73000.0,,,,,,
KRDR,08-10-2012,10:00,METAR,,,0.0,,,4800.0,Mist,9.0,9.0,30.20,1023.5,10,,,,,,,,,,,,,,Clear,72000.0,,,73000.0,,,,,,
KRDR,08-10-2012,10:00,SPECI,,,0.0,,,1600.0,Mist,9.0,9.0,30.20,1023.5,10,,,,,,,,,,,,,,Clear,72000.0,,,73000.0,,,,,,
KRDR,08-10-2012,09:59,SPECI,,,0.0,,,2000.0,Mist,9.0,9.0,30.20,1023.5,10,,,,,,,,,,,,,,Clear,72000.0,,,73000.0,,,,,,
KRDR,08-10-2012,09:57,SPECI,,,0.0,,,2000.0,Mist,9.0,9.0,30.20,1023.5,10,,,,,,,,,,,,,,Clear,72000.0,,,73000.0,,,,,,
KRDR,08-10-2012,09:55,SPECI,,,0.0,,,2800.0,Mist,9.0,9.0,30.20,1023.5,10,,,,,,,,,,,,,,Clear,72000.0,,,73000.0,,,,,,
KRDR,08-10-2012,09:53,SPECI,,,0.0,,,4000.0,Mist,9.0,9.0,30.20,1023.5,10,,,,,,,,,,,,,,Clear,72000.0,,,73000.0,,,,,,
KRDR,08-10-2012,09:50,SPECI,,,0.0,,,6400.0,Mist,9.0,9.0,30.20,1023.5,10,,,,,,,,,,,,,,Clear,72000.0,,,73000.0,,,,,,
KRDR,08-10-2012,09:48,SPECI,,,0.0,,,3200.0,Mist,9.0,9.0,30.20,1023.5,10,,,,,,,,,,,,,,Clear,72000.0,,,73000.0,,,,,,
KRDR,08-10-2012,09:46,SPECI,,,0.0,,,2400.0,Mist,9.0,9.0,30.20,1023.5,10,,,,,,,,,,,,,,Clear,72000.0,,,73000.0,,,,,,
KRDR,08-10-2012,09:44,SPECI,,,0.0,,,2000.0,Mist,10.0,9.0,30.20,1023.5,10,,,,,,,,,,,,,,Clear,72000.0,,,73000.0,,,,,,
KRDR,08-10-2012,09:43,SPECI,,,0.0,,,2000.0,Mist,10.0,9.0,30.20,1023.5,10,,,,,,,,,,,,,,Clear,72000.0,,,73000.0,,,,,,
KRDR,08-10-2012,09:39,SPECI,,,0.0,,,2000.0,Mist,9.0,9.0,30.20,1023.5,10,,,,,,,,,,,,,,Clear,72000.0,,,73000.0,,,,,,
KRDR,08-10-2012,09:37,SPECI,,,0.0,,,2800.0,Mist,9.0,9.0,30.20,1023.5,10,,,,,,,,,,,,,,Clear,72000.0,,,73000.0,,,,,,
KRDR,08-10-2012,09:35,SPECI,,,0.0,,,4000.0,Mist,9.0,9.0,30.20,1023.5,10,,,,,,,,,,,,,,Clear,72000.0,,,73000.0,,,,,,
KRDR,08-10-2012,09:20,SPECI,,,0.0,,,4800.0,Mist,10.0,9.0,30.21,1023.6,10,,,,,,,,,,,,,,Clear,72000.0,,,73000.0,,,,,,
KRDR,08-10-2012,09:13,SPECI,,,0.0,,,4000.0,Mist,10.0,9.0,30.20,1023.5,10,,,,,,,,,,,,,,Clear,72000.0,,,73000.0,,,,,,
KRDR,08-10-2012,09:00,METAR,,,0.0,,,9999.0,,11.0,10.0,30.20,1023.6,,,,,,,,,,,,,,,Clear,72000.0,,,73000.0,,,,,,
KRDR,08-10-2012,08:00,METAR,,130,4.0,,,9999.0,,14.0,11.0,30.20,1023.4,,,,,,,,,,,,,,,Clear,72000.0,,,73000.0,,,,,,
KRDR,08-10-2012,07:00,METAR,,50,3.0,,,9999.0,,13.0,12.0,30.20,1023.5,,,,,,,,,,,,,,,Clear,72000.0,,,73000.0,,,,,,
KRDR,08-10-2012,06:00,METAR,,330,3.0,,,9999.0,,12.0,11.0,30.20,1023.4,,,,,,,,,,,,,,,Clear,72000.0,,,73000.0,,,,,,
KRDR,08-10-2012,05:00,METAR,,160,3.0,,,9999.0,,16.0,12.0,30.18,1022.7,,,,,,,,,,,,,,,Clear,72000.0,,,73000.0,,,,,,
KRDR,08-10-2012,04:00,METAR,,130,5.0,,,9999.0,,16.0,12.0,30.17,1022.5,,,,,,,,,,,,,,,Clear,72000.0,,,73000.0,,,,,,
KRDR,08-10-2012,03:00,METAR,,110,4.0,,,9999.0,,18.0,13.0,30.17,1022.6,,,,,,,,,,,,,,,Clear,72000.0,,,73000.0,,,,,,
KRDR,08-10-2012,02:00,METAR,,70,6.0,,,9999.0,,19.0,13.0,30.17,1022.4,,,,,,,,,,,,,,,Clear,72000.0,,,73000.0,,,,,,
KRDR,08-10-2012,01:00,METAR,,40,6.0,,,9999.0,,21.0,13.0,30.17,1022.4,,,,,,,,,,,,,,,Clear,72000.0,,,73000.0,,,,,,
KRDR,08-10-2012,00:00,METAR,,30,8.0,,,9999.0,,21.0,12.0,30.18,1022.7,,,,,,,,,,,,,,,Clear,72000.0,,,73000.0,,,,,,
KRDR,08-09-2012,23:00,METAR,,50,8.0,,,9999.0,,22.0,12.0,30.16,1022.3,,,,,,,,,,,,,,,Clear,72000.0,,,73000.0,,,,,,
KRDR,08-09-2012,22:00,METAR,,10,9.0,,,9999.0,,22.0,12.0,30.17,1022.5,,,,,,,,,,,,,,,Clear,72000.0,,,73000.0,,,,,,
KRDR,08-09-2012,21:00,METAR,,60,9.0,,,9999.0,,22.0,12.0,30.18,1022.6,,,,,,,,,,,,,,,2/8 Mostly Clear,72000.0,,FEW,3900.0,,,,,,
KRDR,08-09-2012,20:00,METAR,,60,12.0,,,9999.0,,22.0,12.0,30.18,1022.8,,,,,,,,,,,,,,,2/8 Mostly Clear,72000.0,,FEW,4300.0,,,,,,
KRDR,08-09-2012,19:00,METAR,,40,8.0,,,9999.0,,21.0,12.0,30.18,1022.9,,,,,,,,,,,,,,,4/8 Partly Cloudy,72000.0,,FEW,3900.0,SCT,4800.0,,,,
KRDR,08-09-2012,18:00,METAR,,40,7.0,,,9999.0,,20.0,12.0,30.17,1022.5,,,,,,,,,,,,,,,4/8 Partly Cloudy,72000.0,,FEW,2900.0,SCT,3500.0,,,,
KRDR,08-09-2012,17:38,SPECI,,40,9.0,,,9999.0,,20.0,12.0,30.17,1022.5,,,,,,,,,,,,,,,4/8 Partly Cloudy,72000.0,,SCT,2900.0,,,,,,
KRDR,08-09-2012,17:00,METAR,,60,12.0,,,9999.0,,20.0,13.0,30.17,1022.5,,,,,,,,,,,,,,,7/8 Mostly Cloudy,2700.0,,BKN,2700.0,,,,,,
KRDR,08-09-2012,16:26,SPECI,,40,11.0,,,9999.0,,19.0,12.0,30.17,1022.3,,,,,,,,,,,,,,,7/8 Mostly Cloudy,2600.0,,BKN,2600.0,,,,,,
KRDR,08-09-2012,16:00,METAR,,30,9.0,,,9999.0,,18.0,13.0,30.16,1022.1,,,,,,,,,,,,,,,Clear,72000.0,,,73000.0,,,,,,
KRDR,08-09-2012,15:00,METAR,,30,10.0,,,9999.0,,17.0,13.0,30.17,1022.4,,,,,,,,,,,,,,,7/8 Mostly Cloudy,1200.0,,BKN,1300.0,,,,,,
KRDR,08-09-2012,14:40,SPECI,,40,12.0,,,9999.0,,16.0,13.0,30.17,1022.5,,,,,,,,,,,,,,,7/8 Mostly Cloudy,1100.0,,BKN,1300.0,,,,,,
KRDR,08-09-2012,14:32,SPECI,,40,12.0,,,9999.0,,16.0,13.0,30.17,1022.4,,,,,,,,,,,,,,,4/8 Partly Cloudy,72000.0,,SCT,1200.0,,,,,,
KRDR,08-09-2012,14:30,SPECI,,50,13.0,,,9999.0,,16.0,13.0,30.17,1022.3,,,,,,,,,,,,,,,7/8 Mostly Cloudy,1000.0,,BKN,1200.0,,,,,,
KRDR,08-09-2012,14:15,SPECI,,20,12.0,,,9999.0,,16.0,13.0,30.16,1022.2,,,,,,,,,,,,,,,4/8 Partly Cloudy,72000.0,,SCT,1000.0,,,,,,
KRDR,08-09-2012,14:13,SPECI,,30,10.0,,,9999.0,,16.0,13.0,30.16,1022.1,,,,,,,,,,,,,,,7/8 Mostly Cloudy,1000.0,,BKN,1000.0,,,,,,
KRDR,08-09-2012,14:08,SPECI,,20,11.0,,,9999.0,,16.0,13.0,30.16,1022.1,,,,,,,,,,,,,,,7/8 Mostly Cloudy,900.0,,BKN,900.0,,,,,,
KRDR,08-09-2012,14:00,METAR,,30,12.0,,,9999.0,,15.0,13.0,30.16,1022.0,,,,,,,,,,,,,,,4/8 Partly Cloudy,72000.0,,SCT,800.0,,,,,,
KRDR,08-09-2012,13:54,SPECI,,30,9.0,,,9999.0,,15.0,13.0,30.16,1022.0,,,,,,,,,,,,,,,7/8 Mostly Cloudy,800.0,,BKN,800.0,,,,,,
KRDR,08-09-2012,13:50,SPECI,,20,9.0,,,9999.0,,15.0,13.0,30.16,1022.0,,,,,,,,,,,,,,,7/8 Mostly Cloudy,800.0,,BKN,800.0,,,,,,
KRDR,08-09-2012,13:00,METAR,,20,8.0,,,9999.0,,14.0,13.0,30.15,1021.8,,,,,,,,,,,,,,,2/8 Mostly Clear,72000.0,,FEW,700.0,,,,,,
KRDR,08-09-2012,13:00,SPECI,,10,7.0,,,9999.0,,14.0,13.0,30.15,1021.8,,,,,,,,,,,,,,,2/8 Mostly Clear,72000.0,,FEW,800.0,,,,,,
KRDR,08-09-2012,12:09,SPECI,,360,7.0,,,9999.0,,13.0,12.0,30.15,1021.6,,,,,,,,,,,,,,,2/8 Mostly Clear,72000.0,,FEW,700.0,,,,,,
KRDR,08-09-2012,12:00,METAR,,350,6.0,,,9999.0,,13.0,12.0,30.14,1021.6,,,,,,,,,,,,,,.02 IN,Clear,72000.0,,,73000.0,,,,,,
KRDR,08-09-2012,11:00,METAR,,10,6.0,,,9999.0,,13.0,12.0,30.12,1020.9,,,,,,,,,,,,,,,Clear,72000.0,,,73000.0,,,,,,
KRDR,08-09-2012,10:00,METAR,,360,5.0,,,9999.0,,14.0,13.0,30.11,1020.5,,,,,,,,,,,,,,,Clear,72000.0,,,73000.0,,,,,,
KRDR,08-09-2012,09:00,METAR,,360,6.0,,,9999.0,,15.0,14.0,30.10,1020.3,,,,,,,,,,,,,,,Clear,72000.0,,,73000.0,,,,,,
KRDR,08-09-2012,08:00,METAR,,360,6.0,,,9999.0,,15.0,15.0,30.09,1019.9,,,,,,,,,,,,,,,Clear,72000.0,,,73000.0,,,,,,
KRDR,08-09-2012,07:00,METAR,,340,6.0,,,9999.0,,16.0,15.0,30.08,1019.4,,,,,,,,,,,,,,,Clear,72000.0,,,73000.0,,,,,,
KRDR,08-09-2012,06:00,METAR,,340,5.0,,,9999.0,,17.0,16.0,30.07,1019.1,,,,,,,,,,,,,.02 IN,,4/8 Partly Cloudy,72000.0,,SCT,6900.0,,,,,,
KRDR,08-09-2012,05:00,METAR,,,0.0,,,9999.0,,18.0,17.0,30.06,1019.0,,,,,,,,,,,.01 IN,,,,7/8 Mostly Cloudy,12000.0,,FEW,9900.0,BKN,12000.0,,,,
KRDR,08-09-2012,04:31,SPECI,,320,3.0,,,9999.0,,19.0,17.0,30.06,1018.9,,,,,,,,,,,,,,,7/8 Mostly Cloudy,7000.0,,SCT,6900.0,BKN,8900.0,,,,
KRDR,08-09-2012,04:20,SPECI,,310,6.0,,,9999.0,Light Rain,19.0,17.0,30.07,1019.0,61,,,,,,,,,,,,,,7/8 Mostly Cloudy,7000.0,,FEW,1700.0,BKN,6900.0,,,,
KRDR,08-09-2012,04:00,METAR,,330,5.0,,,9999.0,,18.0,16.0,30.05,1018.6,,,,,,,,,,,,,,,Clear,72000.0,,,73000.0,,,,,,
KRDR,08-09-2012,03:17,SPECI,,40,10.0,,,9999.0,,20.0,16.0,30.04,1018.0,,,,,,,,,,,,,,,Clear,72000.0,,,73000.0,,,,,,
KRDR,08-09-2012,03:02,SPECI,,20,9.0,,,9999.0,,20.0,17.0,30.03,1017.8,,,,,,,,,,,,,,,2/8 Mostly Clear,72000.0,,FEW,1100.0,,,,,,
KRDR,08-09-2012,03:00,SPECI,,10,9.0,,,9999.0,,20.0,17.0,30.03,1017.8,,,,,,,,,,,,,,,2/8 Mostly Clear,72000.0,,FEW,1900.0,,,,,,
KRDR,08-09-2012,03:00,METAR,,320,10.0,,,9999.0,,20.0,17.0,30.02,1017.6,,,,,,,,,,,.01 IN,.01 IN,,,2/8 Mostly Clear,72000.0,,FEW,1800.0,,,,,,
KRDR,08-09-2012,02:49,SPECI,,300,11.0,,,9999.0,,21.0,18.0,30.02,1017.5,,,,,,,,,,,,,,,4/8 Partly Cloudy,72000.0,,FEW,1800.0,SCT,6900.0,,,,
KRDR,08-09-2012,02:30,SPECI,,290,8.0,,,8000.0,Light Rain,21.0,17.0,30.02,1017.3,61,,,,,,,,,,,,,,8/8 Overcast,7000.0,,FEW,3800.0,BKN,6900.0,OVC,8900.0,,
KRDR,08-09-2012,02:00,METAR,,240,5.0,,,9999.0,,21.0,17.0,30.01,1017.1,,,,,,,,,,,,,,,Clear,72000.0,,,73000.0,,,,,,
KRDR,08-09-2012,01:00,METAR,,240,4.0,,,9999.0,,25.0,17.0,30.01,1017.3,,,,,,,,,,,,,,,Clear,72000.0,,,73000.0,,,,,,
KRDR,08-09-2012,00:00,METAR,,,0.0,,,9999.0,,27.0,14.0,30.02,1017.5,,,,,,,,,,,,,,,Clear,72000.0,,,73000.0,,,,,,
KRDR,08-08-2012,23:00,METAR,,340,4.0,,,9999.0,,27.0,15.0,30.03,1017.9,,,,,,,,,,,,,,,Clear,7000.0,,,73000.0,,,,,,
KRDR,08-08-2012,22:00,METAR,,20,7.0,,,9999.0,,27.0,14.0,30.04,1018.1,,,,,,,,,,,,,,,Clear,72000.0,,,73000.0,,,,,,
KRDR,08-08-2012,21:00,METAR,,,4.0,,,9999.0,,27.0,14.0,30.05,1018.5,,,,,,,,,,,,,,,Clear,72000.0,,,73000.0,,,,,,
KRDR,08-08-2012,20:00,METAR,,340,6.0,,,9999.0,,26.0,14.0,30.06,1018.8,,,,,,,,,,,,,,,Clear,72000.0,,,73000.0,,,,,,
KRDR,08-08-2012,19:00,METAR,,10,6.0,,,9999.0,,26.0,14.0,30.07,1019.1,,,,,,,,,,,,,,,2/8 Mostly Clear,72000.0,,FEW,4400.0,,,,,,
KRDR,08-08-2012,18:00,METAR,,,6.0,,,9999.0,,24.0,15.0,30.08,1019.4,,,,,,,,,,,,,,,2/8 Mostly Clear,72000.0,,FEW,3800.0,,,,,,
KRDR,08-08-2012,17:00,METAR,,360,4.0,,,9999.0,,23.0,16.0,30.08,1019.5,,,,,,,,,,,,,,,Clear,72000.0,,,73000.0,,,,,,
KRDR,08-08-2012,16:00,METAR,,330,4.0,,,9999.0,,21.0,17.0,30.08,1019.5,,,,,,,,,,,,,,,2/8 Mostly Clear,72000.0,,FEW,900.0,,,,,,
KRDR,08-08-2012,15:30,SPECI,,350,4.0,,,9999.0,,20.0,17.0,30.08,1019.5,,,,,,,,,,,,,,,4/8 Partly Cloudy,72000.0,,SCT,900.0,,,,,,
KRDR,08-08-2012,15:20,SPECI,,330,5.0,,,9999.0,,20.0,17.0,30.08,1019.6,,,,,,,,,,,,,,,7/8 Mostly Cloudy,800.0,,BKN,800.0,,,,,,
KRDR,08-08-2012,15:00,METAR,,360,4.0,,,9999.0,,19.0,17.0,30.08,1019.3,,,,,,,,,,,,,,,7/8 Mostly Cloudy,600.0,,BKN,600.0,,,,,,
KRDR,08-08-2012,14:40,SPECI,,30,7.0,,,9999.0,,18.0,17.0,30.07,1019.2,,,,,,,,,,,,,,,8/8 Overcast,600.0,,OVC,600.0,,,,,,
KRDR,08-08-2012,14:00,METAR,,40,6.0,,,9999.0,,17.0,17.0,30.06,1018.9,,,,,,,,,,,,,,,8/8 Overcast,500.0,,OVC,500.0,,,,,,
KRDR,08-08-2012,13:41,SPECI,,50,7.0,,,9999.0,,17.0,17.0,30.06,1018.7,,,,,,,,,,,,,,,8/8 Overcast,500.0,,OVC,500.0,,,,,,
KRDR,08-08-2012,13:34,SPECI,,40,7.0,,,9999.0,,17.0,17.0,30.06,1018.8,,,,,,,,,,,,,,,7/8 Mostly Cloudy,400.0,,BKN,400.0,,,,,,
KRDR,08-08-2012,13:31,SPECI,,40,5.0,,,9999.0,,17.0,17.0,30.06,1018.8,,,,,,,,,,,,,,,7/8 Mostly Cloudy,500.0,,BKN,500.0,,,,,,
KRDR,08-08-2012,13:25,SPECI,,40,6.0,,,9999.0,,17.0,17.0,30.06,1018.7,,,,,,,,,,,,,,,8/8 Overcast,400.0,,OVC,400.0,,,,,,
KRDR,08-08-2012,13:00,METAR,,30,8.0,,,1200.0,Mist,17.0,17.0,30.05,1018.4,10,,,,,,,,,,,,,,Sky Obscured (Unable to Estimate),200.0,100.0,,200.0,,,,,,
KRDR,08-08-2012,12:49,SPECI,,30,7.0,,,800.0,Fog,17.0,17.0,30.05,1018.4,30,,,,,,,,,,,,,,Sky Obscured (Unable to Estimate),200.0,100.0,,200.0,,,,,,
KRDR,08-08-2012,12:48,SPECI,,10,7.0,,,2800.0,Mist,17.0,17.0,30.05,1018.4,10,,,,,,,,,,,,,,8/8 Overcast,200.0,,OVC,200.0,,,,,,
KRDR,08-08-2012,12:45,SPECI,,20,7.0,,,800.0,Fog,17.0,17.0,30.05,1018.4,30,,,,,,,,,,,,,,Sky Obscured (Unable to Estimate),200.0,100.0,,200.0,,,,,,
KRDR,08-08-2012,12:42,SPECI,,20,6.0,,,1200.0,Mist,17.0,17.0,30.04,1018.3,10,,,,,,,,,,,,,,Sky Obscured (Unable to Estimate),200.0,100.0,,200.0,,,,,,
KRDR,08-08-2012,12:40,SPECI,,20,7.0,,,1600.0,Mist,17.0,17.0,30.04,1018.2,10,,,,,,,,,,,,,,Sky Obscured (Unable to Estimate),200.0,100.0,,200.0,,,,,,
KRDR,08-08-2012,12:34,SPECI,,20,6.0,,,4000.0,Mist,17.0,17.0,30.04,1018.2,10,,,,,,,,,,,,,,8/8 Overcast,200.0,,OVC,200.0,,,,,,
KRDR,08-08-2012,12:04,SPECI,,20,6.0,,,9999.0,,17.0,16.0,30.04,1018.0,,,,,,,,,,,,,,,8/8 Overcast,300.0,,BKN,300.0,OVC,7900.0,,,,
KRDR,08-08-2012,12:00,METAR,,20,6.0,,,9999.0,,17.0,16.0,30.03,1017.9,,,,,,,,,,,.01 IN,,.19 IN,.48 IN,7/8 Mostly Cloudy,300.0,,SCT,400.0,BKN,5900.0,BKN,7900.0,,
KRDR,08-08-2012,11:53,SPECI,,20,6.0,,,9999.0,,17.0,16.0,30.03,1017.9,,,,,,,,,,,,,,,7/8 Mostly Cloudy,400.0,,BKN,400.0,BKN,7900.0,,,,
KRDR,08-08-2012,11:40,SPECI,,,0.0,,,9999.0,,17.0,16.0,30.03,1017.7,,,,,,,,,,,,,,,7/8 Mostly Cloudy,300.0,,SCT,300.0,BKN,5900.0,BKN,7900.0,,
KRDR,08-08-2012,11:17,SPECI,,200,6.0,,,9999.0,Light Drizzle,17.0,16.0,30.02,1017.4,51,,,,,,,,,,,,,,7/8 Mostly Cloudy,300.0,,SCT,500.0,BKN,5900.0,,,,
KRDR,08-08-2012,11:09,SPECI,,210,5.0,,,9999.0,Light Rain,17.0,16.0,30.02,1017.5,61,,,,,,,,,,,,,,7/8 Mostly Cloudy,500.0,,BKN,500.0,BKN,5900.0,,,,
KRDR,08-08-2012,11:02,SPECI,,,0.0,,,9999.0,Light Rain,17.0,16.0,30.03,1017.7,61,,,,,,,,,,,,,,8/8 Overcast,500.0,,OVC,500.0,,,,,,
KRDR,08-08-2012,11:00,METAR,,,0.0,,,9999.0,Light Rain,17.0,16.0,30.03,1017.7,61,,,,,,,,,,.03 IN,,,,8/8 Overcast,400.0,,OVC,400.0,,,,,,
KRDR,08-08-2012,10:44,SPECI,,40,3.0,,,9999.0,Light Rain,17.0,16.0,30.02,1017.6,61,,,,,,,,,,,,,,8/8 Overcast,400.0,,OVC,400.0,,,,,,
KRDR,08-08-2012,10:37,SPECI,,20,4.0,,,9999.0,Light Rain,17.0,16.0,30.02,1017.5,61,,,,,,,,,,,,,,8/8 Overcast,500.0,,OVC,500.0,,,,,,
KRDR,08-08-2012,10:11,SPECI,,,0.0,,,9999.0,Light Rain,17.0,16.0,30.01,1017.3,61,,,,,,,,,,,,,,8/8 Overcast,400.0,,OVC,400.0,,,,,,
KRDR,08-08-2012,10:10,SPECI,,,0.0,,,9999.0,Light Rain,17.0,16.0,30.01,1017.3,61,,,,,,,,,,,,,,8/8 Overcast,300.0,,OVC,300.0,,,,,,
KRDR,08-08-2012,10:08,SPECI,,,0.0,,,9999.0,Light Rain,17.0,17.0,30.01,1017.3,61,,,,,,,,,,,,,,8/8 Overcast,300.0,,OVC,300.0,,,,,,
KRDR,08-08-2012,10:00,METAR,,,0.0,,,9999.0,Light Drizzle,17.0,16.0,30.01,1017.2,51,,,,,,,,,,.01 IN,,,,8/8 Overcast,300.0,,OVC,300.0,,,,,,
KRDR,08-08-2012,09:50,SPECI,,,0.0,,,9999.0,Light Drizzle,17.0,16.0,30.01,1017.2,51,,,,,,,,,,,,,,8/8 Overcast,300.0,,OVC,300.0,,,,,,
KRDR,08-08-2012,09:46,SPECI,,,0.0,,,9999.0,,17.0,16.0,30.01,1017.1,,,,,,,,,,,,,,,8/8 Overcast,300.0,,OVC,300.0,,,,,,
KRDR,08-08-2012,09:19,SPECI,,,0.0,,,9999.0,Light Drizzle,17.0,16.0,30.00,1016.7,51,,,,,,,,,,,,,,8/8 Overcast,200.0,,OVC,200.0,,,,,,
KRDR,08-08-2012,09:09,SPECI,,100,3.0,,,9999.0,,17.0,17.0,30.00,1016.7,,,,,,,,,,,,,,,7/8 Mostly Cloudy,300.0,,BKN,300.0,,,,,,
KRDR,08-08-2012,09:00,METAR,,50,3.0,,,9999.0,Light Rain,17.0,17.0,29.99,1016.5,61,,,,,,,,,,.04 IN,.14 IN,,,2/8 Mostly Clear,72000.0,,FEW,300.0,,,,,,
KRDR,08-08-2012,08:47,SPECI,,50,3.0,,,9999.0,Light Rain,17.0,17.0,29.99,1016.6,61,,,,,,,,,,,,,,2/8 Mostly Clear,72000.0,,FEW,400.0,,,,,,
KRDR,08-08-2012,08:44,SPECI,,30,3.0,,,9999.0,Light Rain,17.0,17.0,29.99,1016.6,61,,,,,,,,,,,,,,2/8 Mostly Clear,72000.0,,FEW,1100.0,,,,,,
KRDR,08-08-2012,08:20,SPECI,,40,4.0,,,9999.0,Light Rain,17.0,17.0,30.00,1016.9,61,,,,,,,,,,,,,,4/8 Partly Cloudy,72000.0,,SCT,2500.0,,,,,,
KRDR,08-08-2012,08:19,SPECI,,40,4.0,,,9999.0,Light Rain,17.0,17.0,30.00,1016.9,61,,,,,,,,,,,,,,4/8 Partly Cloudy,72000.0,,SCT,2500.0,,,,,,
KRDR,08-08-2012,08:12,SPECI,,30,3.0,,,9999.0,Light Rain,17.0,16.0,30.01,1017.1,61,,,,,,,,,,,,,,7/8 Mostly Cloudy,2400.0,,BKN,2400.0,,,,,,
KRDR,08-08-2012,08:04,SPECI,,30,3.0,,,9999.0,Light Rain,17.0,16.0,30.01,1017.3,61,,,,,,,,,,,,,,4/8 Partly Cloudy,72000.0,,SCT,1500.0,,,,,,
KRDR,08-08-2012,08:00,METAR,,30,3.0,,,9999.0,Light Rain,17.0,17.0,30.02,1017.5,61,,,,,,,,,,.06 IN,,,,7/8 Mostly Cloudy,3400.0,,BKN,3500.0,,,,,,
KRDR,08-08-2012,07:45,SPECI,,360,5.0,,,9999.0,Light Rain,17.0,17.0,30.03,1017.7,61,,,,,,,,,,,,,,7/8 Mostly Cloudy,4100.0,,BKN,4200.0,,,,,,
KRDR,08-08-2012,07:36,SPECI,,30,5.0,,,9999.0,Light Rain/Mist,17.0,16.0,30.02,1017.4,61,10,,,,,,,,,,,,,7/8 Mostly Cloudy,4900.0,,BKN,5000.0,,,,,,
KRDR,08-08-2012,07:18,SPECI,,,0.0,,,9999.0,Light Rain,17.0,16.0,30.01,1017.1,61,,,,,,,,,,,,,,7/8 Mostly Cloudy,4900.0,,BKN,5000.0,,,,,,
KRDR,08-08-2012,07:00,METAR,,,0.0,,,9999.0,Rain,17.0,16.0,30.01,1017.1,62,,,,,,,,,,.04 IN,,,,7/8 Mostly Cloudy,10000.0,,SCT,5000.0,BKN,9900.0,,,,
KRDR,08-08-2012,06:00,METAR,,300,4.0,,,9999.0,Light Rain,17.0,16.0,30.01,1017.1,61,,,,,,,,,,.01 IN,,.27 IN,,4/8 Partly Cloudy,72000.0,,FEW,9900.0,SCT,11000.0,,,,
KRDR,08-08-2012,05:46,SPECI,,230,3.0,,,9999.0,Light Rain,17.0,16.0,30.01,1017.1,61,,,,,,,,,,,,,,4/8 Partly Cloudy,72000.0,,FEW,800.0,SCT,11000.0,,,,
KRDR,08-08-2012,05:00,METAR,,140,5.0,,,9999.0,Light Rain,17.0,16.0,30.01,1017.3,61,,,,,,,,,,.04 IN,,,,7/8 Mostly Cloudy,4900.0,,FEW,3900.0,BKN,5000.0,BKN,11000.0,,
KRDR,08-08-2012,04:00,METAR,,140,7.0,,,9999.0,Light Rain,17.0,16.0,30.02,1017.4,61,,,,,,,,,,.02 IN,,,,4/8 Partly Cloudy,72000.0,,SCT,3400.0,SCT,5000.0,,,,
KRDR,08-08-2012,03:00,METAR,,,0.0,,,9999.0,Light Drizzle,17.0,16.0,30.03,1017.8,51,,,,,,,,,,.03 IN,.2 IN,,,8/8 Overcast,8000.0,,SCT,8900.0,OVC,11000.0,,,,
KRDR,08-08-2012,02:17,SPECI,,140,3.0,,,9999.0,Light Rain,17.0,16.0,30.03,1018.0,61,,,,,,,,,,,,,,4/8 Partly Cloudy,72000.0,,SCT,5900.0,,,,,,
KRDR,08-08-2012,02:00,METAR,,300,4.0,,,9999.0,Thunderstorm and Rain or Snow Showers,17.0,16.0,30.06,1018.8,92,,,,,,,,,,.11 IN,,,,7/8 Mostly Cloudy,3600.0,,BKN,3700.0,,,,,,
KRDR,08-08-2012,01:49,SPECI,,,0.0,,,9999.0,Thunderstorm and Rain or Snow Showers/Mist,17.0,16.0,30.06,1018.7,92,10,,,,,,,,,,,,,7/8 Mostly Cloudy,3700.0,,BKN,3800.0,,,,,,
KRDR,08-08-2012,01:43,SPECI,,320,5.0,,,6400.0,Thunderstorm and Rain or Snow Showers/Mist,17.0,16.0,30.06,1018.8,92,10,,,,,,,,,,,,,7/8 Mostly Cloudy,4000.0,,BKN,4100.0,BKN,8900.0,,,,
KRDR,08-08-2012,01:37,SPECI,,,0.0,,,6400.0,Heavy Rain/Mist,17.0,16.0,30.05,1018.5,63,10,,,,,,,,,,,,,7/8 Mostly Cloudy,4100.0,,BKN,4200.0,BKN,8900.0,,,,
KRDR,08-08-2012,01:22,SPECI,,350,7.0,,,9999.0,Thunderstorm and Rain or Snow Showers,18.0,16.0,30.03,1018.0,92,,,,,,,,,,,,,,7/8 Mostly Cloudy,7000.0,,FEW,3200.0,BKN,8900.0,,,,
KRDR,08-08-2012,01:00,METAR,,,0.0,,,8000.0,Light Rain/Mist,18.0,16.0,30.02,1017.6,61,10,,,,,,,,,.06 IN,,,,7/8 Mostly Cloudy,3600.0,,BKN,3700.0,,,,,,
KRDR,08-08-2012,00:15,SPECI,,350,5.0,,,9999.0,Light Rain,18.0,16.0,30.04,1018.0,61,,,,,,,,,,,,,,7/8 Mostly Cloudy,7000.0,,FEW,1000.0,BKN,7900.0,,,,
KRDR,08-08-2012,00:04,SPECI,,350,5.0,,,9999.0,Light Rain,19.0,16.0,30.03,1017.8,61,,,,,,,,,,,,,,7/8 Mostly Cloudy,10000.0,,FEW,800.0,BKN,9900.0,,,,
KRDR,08-08-2012,00:00,METAR,,200,6.0,,,9999.0,Thunderstorm and Rain or Snow Showers,20.0,15.0,30.00,1016.9,92,,,,,,,,,,TRACE,,.02 IN,,7/8 Mostly Cloudy,10000.0,,BKN,9900.0,,,,,,
KRDR,08-07-2012,23:50,SPECI,,200,5.0,,,9999.0,Thunderstorm and Rain or Snow Showers,20.0,15.0,30.01,1017.0,92,,,,,,,,,,,,,,7/8 Mostly Cloudy,10000.0,,BKN,9900.0,,,,,,
KRDR,08-07-2012,23:49,SPECI,,200,6.0,,,9999.0,Dry Thunderstorm,20.0,15.0,30.01,1017.1,91,,,,,,,,,,,,,,7/8 Mostly Cloudy,10000.0,,BKN,9900.0,,,,,,
KRDR,08-07-2012,23:00,METAR,,200,5.0,,,9999.0,,21.0,16.0,30.00,1017.0,,,,,,,,,,,.01 IN,,,,2/8 Mostly Clear,72000.0,,FEW,12000.0,,,,,,
KRDR,08-07-2012,22:07,SPECI,,230,4.0,,,9999.0,,21.0,18.0,30.04,1018.0,,,,,,,,,,,,,,,Clear,72000.0,,,73000.0,,,,,,
KRDR,08-07-2012,22:00,METAR,,,0.0,,,9999.0,Light Rain,21.0,17.0,30.04,1018.0,61,,,,,,,,,,TRACE,,,,4/8 Partly Cloudy,72000.0,,SCT,9900.0,,,,,,
KRDR,08-07-2012,21:43,SPECI,,,0.0,,,9999.0,Light Rain,20.0,17.0,30.04,1018.1,61,,,,,,,,,,,,,,7/8 Mostly Cloudy,10000.0,,BKN,9900.0,,,,,,
KRDR,08-07-2012,21:13,SPECI,,,0.0,,,9999.0,,21.0,17.0,30.03,1017.8,,,,,,,,,,,,,,,7/8 Mostly Cloudy,10000.0,,FEW,2400.0,BKN,9900.0,,,,
KRDR,08-07-2012,21:00,METAR,,190,3.0,,,9999.0,Light Rain,21.0,16.0,30.02,1017.4,61,,,,,,,,,,.01 IN,.01 IN,,,4/8 Partly Cloudy,72000.0,,SCT,2400.0,,,,,,
KRDR,08-07-2012,20:00,SPECI,,,0.0,,,9999.0,Light Rain,24.0,12.0,30.06,1018.8,61,,,,,,,,,,,,,,2/8 Mostly Clear,72000.0,,FEW,5000.0,,,,,,
KRDR,08-07-2012,20:00,METAR,,,3.0,,,9999.0,,25.0,11.0,30.06,1018.8,,,,,,,,,,,,,,,Clear,72000.0,,,73000.0,,,,,,
KRDR,08-07-2012,19:00,METAR,,90,4.0,,,9999.0,,25.0,11.0,30.05,1018.7,,,,,,,,,,,TRACE,,,,Clear,72000.0,,,73000.0,,,,,,
KRDR,08-07-2012,18:00,METAR,,80,5.0,,,9999.0,,24.0,12.0,30.05,1020.1,,,,,,,,,,,,,,,7/8 Mostly Cloudy,11000.0,,BKN,11000.0,,,,,,
KRDR,08-07-2012,17:28,SPECI,,,0.0,,,9999.0,,23.0,11.0,30.08,1019.5,,,,,,,,,,,,,,,Clear,11000.0,,,73000.0,,,,,,
KRDR,08-07-2012,17:00,METAR,,80,5.0,,,9999.0,,24.0,11.0,30.08,1019.5,,,,,,,,,,,,,,,Clear,72000.0,,,73000.0,,,,,,
KRDR,08-07-2012,16:00,METAR,,20,4.0,,,9999.0,,23.0,12.0,30.08,1019.6,,,,,,,,,,,,,,,Clear,72000.0,,,73000.0,,,,,,
KRDR,08-07-2012,15:00,METAR,,60,5.0,,,9999.0,,21.0,12.0,30.07,1019.1,,,,,,,,,,,,,,,Clear,72000.0,,,73000.0,,,,,,
KRDR,08-07-2012,14:00,METAR,,30,3.0,,,9999.0,,18.0,11.0,30.08,1019.6,,,,,,,,,,,,,,,Clear,72000.0,,,73000.0,,,,,,
KRDR,08-07-2012,13:00,METAR,,,0.0,,,9999.0,,15.0,12.0,30.07,1019.3,,,,,,,,,,,,,,,Clear,72000.0,,,73000.0,,,,,,
KRDR,08-07-2012,12:00,METAR,,280,3.0,,,9999.0,,11.0,10.0,30.07,1019.1,,,,,,,,,,,,,,,4/8 Partly Cloudy,72000.0,,SCT,9900.0,,,,,,
KRDR,08-07-2012,11:00,METAR,,360,3.0,,,9999.0,,11.0,9.0,30.03,1018.0,,,,,,,,,,,,,,,Clear,72000.0,,,73000.0,,,,,,
KRDR,08-07-2012,10:00,METAR,,,0.0,,,9999.0,,11.0,10.0,30.03,1017.8,,,,,,,,,,,,,,,Clear,72000.0,,,73000.0,,,,,,
KRDR,08-07-2012,09:00,METAR,,340,4.0,,,9999.0,,12.0,10.0,30.03,1017.7,,,,,,,,,,,,,,,Clear,72000.0,,,73000.0,,,,,,
KRDR,08-07-2012,08:00,METAR,,320,3.0,,,9999.0,,13.0,10.0,30.03,1017.7,,,,,,,,,,,,,,,Clear,72000.0,,,73000.0,,,,,,
KRDR,08-07-2012,07:00,METAR,,320,3.0,,,9999.0,,13.0,11.0,30.02,1017.6,,,,,,,,,,,,,,,Clear,72000.0,,,73000.0,,,,,,
KRDR,08-07-2012,06:00,METAR,,10,6.0,,,9999.0,,16.0,12.0,30.02,1017.5,,,,,,,,,,,,,,,Clear,72000.0,,,73000.0,,,,,,
KRDR,08-07-2012,05:00,METAR,,10,6.0,,,9999.0,,17.0,13.0,30.01,1017.1,,,,,,,,,,,,,,,Clear,72000.0,,,73000.0,,,,,,
KRDR,08-07-2012,04:00,METAR,,20,6.0,,,9999.0,,18.0,14.0,29.99,1016.6,,,,,,,,,,,,,,,Clear,72000.0,,,73000.0,,,,,,
KRDR,08-07-2012,03:00,METAR,,10,5.0,,,9999.0,,20.0,15.0,29.98,1016.0,,,,,,,,,,,,,,,Clear,72000.0,,,73000.0,,,,,,
KRDR,08-07-2012,02:00,METAR,,30,4.0,,,9999.0,,24.0,16.0,29.95,1015.3,,,,,,,,,,,,,,,Clear,72000.0,,,73000.0,,,,,,
KRDR,08-07-2012,01:00,METAR,,360,8.0,,,9999.0,,28.0,13.0,29.93,1014.7,,,,,,,,,,,,,,,Clear,72000.0,,,73000.0,,,,,,
KRDR,08-07-2012,00:00,METAR,,360,10.0,,,9999.0,,31.0,12.0,29.93,1014.6,,,,,,,,,,,,,,,Clear,72000.0,,,73000.0,,,,,,
KRDR,08-06-2012,23:00,METAR,,360,8.0,,,9999.0,,32.0,13.0,29.93,1014.5,,,,,,,,,,,,,,,Clear,72000.0,,,73000.0,,,,,,
KRDR,08-06-2012,22:00,METAR,,330,7.0,,,9999.0,,32.0,13.0,29.93,1014.6,,,,,,,,,,,,,,,Clear,72000.0,,,73000.0,,,,,,
KRDR,08-06-2012,21:00,METAR,,360,7.0,,,9999.0,,31.0,16.0,29.94,1014.8,,,,,,,,,,,,,,,Clear,72000.0,,,73000.0,,,,,,
KRDR,08-06-2012,20:00,METAR,,,3.0,,,9999.0,,31.0,15.0,29.94,1014.9,,,,,,,,,,,,,,,Clear,72000.0,,,73000.0,,,,,,
KRDR,08-06-2012,19:00,METAR,,360,7.0,,,9999.0,,31.0,14.0,29.95,1015.3,,,,,,,,,,,,,,,Clear,72000.0,,,73000.0,,,,,,
KRDR,08-06-2012,18:00,METAR,,320,6.0,,,9999.0,,30.0,14.0,29.96,1015.4,,,,,,,,,,,,,,,Clear,72000.0,,,73000.0,,,,,,
KRDR,08-06-2012,17:00,METAR,,310,7.0,,,9999.0,,30.0,14.0,29.96,1015.6,,,,,,,,,,,,,,,Clear,72000.0,,,73000.0,,,,,,
KRDR,08-06-2012,16:00,METAR,,290,12.0,,,9999.0,,28.0,15.0,29.96,1015.7,,,,,,,,,,,,,,,Clear,72000.0,,,73000.0,,,,,,
KRDR,08-06-2012,15:00,METAR,,270,12.0,,,9999.0,,27.0,15.0,29.97,1015.8,,,,,,,,,,,,,,,Clear,72000.0,,,73000.0,,,,,,
KRDR,08-06-2012,14:00,METAR,,270,10.0,,,9999.0,,24.0,15.0,29.97,1015.8,,,,,,,,,,,,,,,Clear,72000.0,,,73000.0,,,,,,
KRDR,08-06-2012,13:00,METAR,,260,7.0,,,9999.0,,20.0,14.0,29.97,1015.9,,,,,,,,,,,,,,,Clear,72000.0,,,73000.0,,,,,,
KRDR,08-06-2012,12:00,METAR,,250,6.0,,,9999.0,,17.0,13.0,29.96,1015.5,,,,,,,,,,,,,,,Clear,72000.0,,,73000.0,,,,,,
KRDR,08-06-2012,11:00,METAR,,250,6.0,,,9999.0,,17.0,13.0,29.96,1015.5,,,,,,,,,,,,,,,Clear,72000.0,,,73000.0,,,,,,
KRDR,08-06-2012,10:00,METAR,,240,7.0,,,9999.0,,16.0,13.0,29.96,1015.6,,,,,,,,,,,,,,,Clear,72000.0,,,73000.0,,,,,,
KRDR,08-06-2012,09:00,METAR,,240,7.0,,,9999.0,,17.0,14.0,29.97,1015.9,,,,,,,,,,,,,,,Clear,72000.0,,,73000.0,,,,,,
KRDR,08-06-2012,08:00,METAR,,230,7.0,,,9999.0,,17.0,14.0,29.98,1016.3,,,,,,,,,,,,,,,Clear,72000.0,,,73000.0,,,,,,
KRDR,08-06-2012,07:00,METAR,,250,6.0,,,9999.0,,17.0,14.0,29.99,1016.5,,,,,,,,,,,,,,,Clear,72000.0,,,73000.0,,,,,,
KRDR,08-06-2012,06:00,METAR,,230,9.0,,,9999.0,,18.0,13.0,29.99,1016.6,,,,,,,,,,,,,,,Clear,72000.0,,,73000.0,,,,,,
KRDR,08-06-2012,05:00,METAR,,230,5.0,,,9999.0,,17.0,13.0,29.99,1016.6,,,,,,,,,,,,,,,Clear,72000.0,,,73000.0,,,,,,
KRDR,08-06-2012,04:00,METAR,,220,3.0,,,9999.0,,17.0,13.0,29.99,1016.7,,,,,,,,,,,,,,,Clear,72000.0,,,73000.0,,,,,,
KRDR,08-06-2012,03:00,METAR,,220,4.0,,,9999.0,,18.0,13.0,29.99,1016.7,,,,,,,,,,,,,,,Clear,72000.0,,,73000.0,,,,,,
KRDR,08-06-2012,02:00,METAR,,190,6.0,,,9999.0,,21.0,14.0,29.99,1016.4,,,,,,,,,,,,,,,Clear,72000.0,,,73000.0,,,,,,
KRDR,08-06-2012,01:00,METAR,,240,3.0,,,9999.0,,25.0,13.0,29.99,1016.5,,,,,,,,,,,,,,,Clear,72000.0,,,73000.0,,,,,,
KRDR,08-06-2012,00:00,METAR,,250,10.0,,,9999.0,,27.0,11.0,30.00,1016.8,,,,,,,,,,,,,,,Clear,72000.0,,,73000.0,,,,,,
KRDR,08-05-2012,23:00,METAR,,250,10.0,,,9999.0,,27.0,10.0,30.01,1017.3,,,,,,,,,,,,,,,Clear,72000.0,,,73000.0,,,,,,
KRDR,08-05-2012,22:00,METAR,,240,12.0,17.0,,9999.0,,27.0,10.0,30.02,1017.5,,,,,,,,,,,,,,,Clear,72000.0,,,73000.0,,,,,,
KRDR,08-05-2012,21:00,METAR,,260,12.0,17.0,,9999.0,,27.0,11.0,30.05,1018.4,,,,,,,,,,,,,,,Clear,72000.0,,,73000.0,,,,,,
KRDR,08-05-2012,20:00,METAR,,260,12.0,18.0,,9999.0,,26.0,11.0,30.07,1019.1,,,,,,,,,,,,,,,Clear,72000.0,,,73000.0,,,,,,
KRDR,08-05-2012,19:00,METAR,,260,12.0,18.0,,9999.0,,25.0,11.0,30.08,1019.6,,,,,,,,,,,,,,,Clear,72000.0,,,73000.0,,,,,,
KRDR,08-05-2012,18:00,METAR,,290,11.0,18.0,,9999.0,,24.0,10.0,30.11,1020.4,,,,,,,,,,,,,,,Clear,72000.0,,,73000.0,,,,,,
KRDR,08-05-2012,17:00,METAR,,280,12.0,18.0,,9999.0,,23.0,9.0,30.11,1020.5,,,,,,,,,,,,,,,Clear,72000.0,,,73000.0,,,,,,
KRDR,08-05-2012,16:00,METAR,,270,13.0,,,9999.0,,23.0,10.0,30.12,1020.7,,,,,,,,,,,,,,,Clear,72000.0,,,73000.0,,,,,,
KRDR,08-05-2012,15:00,METAR,,280,9.0,,,9999.0,,21.0,11.0,30.11,1020.6,,,,,,,,,,,,,,,Clear,72000.0,,,73000.0,,,,,,
KRDR,08-05-2012,14:00,METAR,,260,7.0,,,9999.0,,17.0,12.0,30.11,1020.4,,,,,,,,,,,,,,,Clear,72000.0,,,73000.0,,,,,,
KRDR,08-05-2012,13:00,METAR,,260,6.0,,,9999.0,,14.0,11.0,30.10,1020.3,,,,,,,,,,,,,,,Clear,72000.0,,,73000.0,,,,,,
KRDR,08-05-2012,12:00,METAR,,260,6.0,,,9999.0,,10.0,8.0,30.09,1019.9,,,,,,,,,,,,,,.01 IN,Clear,72000.0,,,73000.0,,,,,,
KRDR,08-05-2012,11:00,METAR,,250,4.0,,,9999.0,,8.0,7.0,30.08,1019.5,,,,,,,,,,,,,,,Clear,72000.0,,,73000.0,,,,,,
KRDR,08-05-2012,10:00,METAR,,260,4.0,,,9999.0,,8.0,7.0,30.09,1019.7,,,,,,,,,,,,,,,Clear,72000.0,,,73000.0,,,,,,
KRDR,08-05-2012,09:00,METAR,,250,4.0,,,9999.0,,8.0,7.0,30.08,1019.6,,,,,,,,,,,,,,,Clear,72000.0,,,73000.0,,,,,,
KRDR,08-05-2012,08:00,METAR,,270,5.0,,,9999.0,,9.0,8.0,30.09,1019.6,,,,,,,,,,,,,,,Clear,72000.0,,,73000.0,,,,,,
KRDR,08-05-2012,07:00,METAR,,290,4.0,,,9999.0,,9.0,8.0,30.09,1019.7,,,,,,,,,,,,,,,Clear,72000.0,,,73000.0,,,,,,
KRDR,08-05-2012,06:00,METAR,,290,4.0,,,9999.0,,9.0,8.0,30.08,1019.4,,,,,,,,,,,,,,,Clear,72000.0,,,73000.0,,,,,,
KRDR,08-05-2012,05:00,METAR,,300,5.0,,,9999.0,,11.0,8.0,30.07,1019.2,,,,,,,,,,,,,,,Clear,72000.0,,,73000.0,,,,,,
KRDR,08-05-2012,04:00,METAR,,300,6.0,,,9999.0,,11.0,8.0,30.06,1018.8,,,,,,,,,,,,,,,Clear,72000.0,,,73000.0,,,,,,
KRDR,08-05-2012,03:00,METAR,,340,5.0,,,9999.0,,14.0,9.0,30.04,1018.2,,,,,,,,,,,,,,,Clear,72000.0,,,73000.0,,,,,,
KRDR,08-05-2012,02:00,METAR,,350,9.0,,,9999.0,,17.0,8.0,30.02,1017.5,,,,,,,,,,,,,,,Clear,72000.0,,,73000.0,,,,,,
KRDR,08-05-2012,01:00,METAR,,360,10.0,18.0,,9999.0,,19.0,10.0,30.00,1016.8,,,,,,,,,,,,,,,2/8 Mostly Clear,72000.0,,FEW,5900.0,,,,,,
KRDR,08-05-2012,00:00,METAR,,360,13.0,19.0,,9999.0,,19.0,12.0,29.97,1015.8,,,,,,,,,,,,,.01 IN,,7/8 Mostly Cloudy,6000.0,,SCT,3800.0,BKN,5900.0,,,,
KRDR,08-04-2012,23:00,METAR,,10,15.0,22.0,,9999.0,,19.0,13.0,29.94,1014.9,,,,,,,,,,,,,,,7/8 Mostly Cloudy,4500.0,,SCT,3000.0,BKN,4600.0,BKN,5000.0,,
KRDR,08-04-2012,22:00,METAR,,10,18.0,25.0,020/30KTS,9999.0,,18.0,13.0,29.91,1014.0,,,,,,,,,,,,,,,7/8 Mostly Cloudy,2900.0,,SCT,2800.0,BKN,3700.0,BKN,4500.0,,
KRDR,08-04-2012,21:17,SPECI,,10,19.0,26.0,010/26KTS,9999.0,,18.0,13.0,29.90,1013.4,,,,,,,,,,,,,,,7/8 Mostly Cloudy,2500.0,,SCT,2700.0,BKN,3500.0,,,,
KRDR,08-04-2012,21:14,SPECI,,10,18.0,26.0,010/26KTS,9999.0,,18.0,13.0,29.89,1013.3,,,,,,,,,,,,,,,7/8 Mostly Cloudy,2500.0,,BKN,2700.0,BKN,3500.0,,,,
KRDR,08-04-2012,21:00,METAR,,350,20.0,27.0,020/28KTS,9999.0,,21.0,13.0,29.87,1012.6,,,,,,,,,,,TRACE,.01 IN,,,4/8 Partly Cloudy,72000.0,,FEW,2600.0,SCT,3800.0,,,,
KRDR,08-04-2012,20:08,SPECI,,360,19.0,22.0,,9999.0,,20.0,14.0,29.84,1011.5,,,,,,,,,,,,,,,4/8 Partly Cloudy,72000.0,,FEW,3000.0,SCT,3700.0,,,,
KRDR,08-04-2012,20:00,METAR,,340,11.0,20.0,,9999.0,,20.0,14.0,29.83,1011.2,,,,,,,,,,,.01 IN,,,,4/8 Partly Cloudy,72000.0,,SCT,2700.0,SCT,4100.0,,,,
KRDR,08-04-2012,19:53,SPECI,,340,13.0,20.0,,9999.0,Light Rain,20.0,14.0,29.83,1011.2,61,,,,,,,,,,,,,,4/8 Partly Cloudy,72000.0,,FEW,2600.0,SCT,3700.0,SCT,4400.0,,
KRDR,08-04-2012,19:42,SPECI,,360,10.0,,,9999.0,,19.0,15.0,29.82,1010.9,,,,,,,,,,,,,,,4/8 Partly Cloudy,72000.0,,FEW,2700.0,SCT,3200.0,SCT,4000.0,,
KRDR,08-04-2012,19:39,SPECI,,360,10.0,,,9999.0,,18.0,15.0,29.82,1010.9,,,,,,,,,,,,,,,7/8 Mostly Cloudy,4100.0,,FEW,2700.0,SCT,3300.0,BKN,4200.0,,
KRDR,08-04-2012,19:30,SPECI,,10,16.0,19.0,,9999.0,Light Rain,19.0,15.0,29.81,1010.7,61,,,,,,,,,,,,,,7/8 Mostly Cloudy,3200.0,,SCT,2700.0,BKN,3300.0,BKN,4100.0,,
KRDR,08-04-2012,19:28,SPECI,,360,13.0,19.0,,9999.0,,19.0,15.0,29.81,1010.7,,,,,,,,,,,,,,,7/8 Mostly Cloudy,3200.0,,SCT,2700.0,BKN,3300.0,BKN,4100.0,,
KRDR,08-04-2012,19:16,SPECI,,310,12.0,17.0,,9999.0,,21.0,14.0,29.80,1010.4,,,,,,,,,,,,,,,4/8 Partly Cloudy,72000.0,,SCT,3300.0,SCT,4200.0,,,,
KRDR,08-04-2012,19:00,METAR,,320,13.0,,,9999.0,,21.0,14.0,29.79,1009.9,,,,,,,,,,,TRACE,,,,2/8 Mostly Clear,72000.0,,FEW,3300.0,,,,,,
KRDR,08-04-2012,18:27,SPECI,,340,10.0,,,9999.0,,20.0,14.0,29.78,1009.6,,,,,,,,,,,,,,,2/8 Mostly Clear,72000.0,,FEW,3700.0,,,,,,
KRDR,08-04-2012,18:14,SPECI,,330,15.0,21.0,,9999.0,,22.0,14.0,29.78,1009.5,,,,,,,,,,,,,,,2/8 Mostly Clear,72000.0,,FEW,3600.0,,,,,,
KRDR,08-04-2012,18:00,METAR,,330,14.0,,,9999.0,,22.0,13.0,29.77,1009.4,,,,,,,,,,,,,,,2/8 Mostly Clear,72000.0,,FEW,3200.0,,,,,,
KRDR,08-04-2012,17:00,METAR,,290,16.0,20.0,,9999.0,,21.0,13.0,29.77,1009.3,,,,,,,,,,,,,,,4/8 Partly Cloudy,72000.0,,FEW,2900.0,SCT,3600.0,,,,
KRDR,08-04-2012,16:00,METAR,,290,15.0,22.0,,9999.0,,20.0,13.0,29.76,1008.9,,,,,,,,,,,,,,,4/8 Partly Cloudy,72000.0,,SCT,2700.0,,,,,,
KRDR,08-04-2012,15:33,SPECI,,290,12.0,19.0,,9999.0,,19.0,14.0,29.75,1008.7,,,,,,,,,,,,,,,4/8 Partly Cloudy,72000.0,,SCT,2400.0,,,,,,
KRDR,08-04-2012,15:00,METAR,,290,10.0,,,9999.0,,19.0,14.0,29.75,1008.6,,,,,,,,,,,,,,,4/8 Partly Cloudy,72000.0,,SCT,1900.0,,,,,,
KRDR,08-04-2012,14:00,METAR,,270,14.0,18.0,,9999.0,,17.0,14.0,29.73,1009.5,,,,,,,,,,,,,,,Clear,72000.0,,,73000.0,,,,,,
KRDR,08-04-2012,13:00,METAR,,270,8.0,,,9999.0,,16.0,13.0,29.73,1009.6,,,,,,,,,,,,,,,Clear,72000.0,,,73000.0,,,,,,
KRDR,08-04-2012,12:00,METAR,,250,5.0,,,9999.0,,14.0,12.0,29.75,,,,,,,,,,,,,,,.38 IN,4/8 Partly Cloudy,72000.0,,SCT,8900.0,,,,,,
KRDR,08-04-2012,11:00,METAR,,270,6.0,,,9999.0,,14.0,12.0,29.74,1008.4,,,,,,,,,,,,,,,Clear,72000.0,,,73000.0,,,,,,
KRDR,08-04-2012,10:00,METAR,,260,5.0,,,9999.0,,14.0,13.0,29.74,1008.2,,,,,,,,,,,,,,,Clear,72000.0,,,73000.0,,,,,,
KRDR,08-04-2012,09:00,METAR,,260,6.0,,,9999.0,,14.0,13.0,29.76,1008.9,,,,,,,,,,,,,,,2/8 Mostly Clear,72000.0,,FEW,3600.0,,,,,,
KRDR,08-04-2012,08:00,METAR,,270,6.0,,,9999.0,,15.0,13.0,29.76,1008.9,,,,,,,,,,,,,,,Clear,72000.0,,,73000.0,,,,,,
KRDR,08-04-2012,07:00,METAR,,290,5.0,,,9999.0,,15.0,14.0,29.75,1008.7,,,,,,,,,,,,,,,Clear,72000.0,,,73000.0,,,,,,
KRDR,08-04-2012,06:00,METAR,,300,8.0,,,9999.0,,17.0,16.0,29.76,1008.8,,,,,,,,,,,,,.05 IN,,4/8 Partly Cloudy,72000.0,,SCT,5900.0,,,,,,
KRDR,08-04-2012,05:00,METAR,,300,5.0,,,9999.0,,18.0,16.0,29.76,1008.9,,,,,,,,,,,,,,,8/8 Overcast,4900.0,,OVC,5000.0,,,,,,
KRDR,08-04-2012,04:00,METAR,,310,4.0,,,9999.0,,18.0,16.0,29.75,1008.7,,,,,,,,,,,,,,,8/8 Overcast,4600.0,,SCT,3900.0,OVC,4700.0,,,,
KRDR,08-04-2012,03:08,SPECI,,300,7.0,,,9999.0,,18.0,17.0,29.75,1008.7,,,,,,,,,,,,,,,8/8 Overcast,2400.0,,FEW,1200.0,SCT,1900.0,OVC,3300.0,,
KRDR,08-04-2012,03:00,METAR,,320,7.0,,,9999.0,,18.0,17.0,29.74,1008.3,,,,,,,,,,,,.05 IN,,,8/8 Overcast,1200.0,,FEW,800.0,BKN,1200.0,OVC,1700.0,,
KRDR,08-04-2012,02:54,SPECI,,320,8.0,,,9999.0,,18.0,17.0,29.74,1008.4,,,,,,,,,,,,,,,8/8 Overcast,1600.0,,FEW,800.0,SCT,1200.0,OVC,1800.0,,
KRDR,08-04-2012,02:37,SPECI,,310,10.0,,,9999.0,,19.0,18.0,29.73,1008.1,,,,,,,,,,,,,,,8/8 Overcast,1100.0,,SCT,800.0,OVC,1300.0,,,,
KRDR,08-04-2012,02:14,SPECI,,320,12.0,,,9999.0,,19.0,18.0,29.71,1007.4,,,,,,,,,,,,,,,8/8 Overcast,800.0,,BKN,900.0,OVC,1500.0,,,,
KRDR,08-04-2012,02:11,SPECI,,320,11.0,,,9999.0,,19.0,18.0,29.71,1007.2,,,,,,,,,,,,,,,8/8 Overcast,800.0,,OVC,1000.0,,,,,,
KRDR,08-04-2012,02:02,SPECI,,310,9.0,,,9999.0,,19.0,19.0,29.71,1007.2,,,,,,,,,,,,,,,8/8 Overcast,800.0,,OVC,900.0,,,,,,
KRDR,08-04-2012,02:00,METAR,,310,6.0,,,9999.0,,19.0,19.0,29.71,1007.1,,,,,,,,,,,TRACE,,,,7/8 Mostly Cloudy,1000.0,,BKN,1000.0,BKN,7900.0,,,,
KRDR,08-04-2012,01:45,SPECI,,340,3.0,,,9999.0,,19.0,19.0,29.70,1007.0,,,,,,,,,,,,,,,7/8 Mostly Cloudy,1100.0,,BKN,1100.0,BKN,7900.0,BKN,12000.0,,
KRDR,08-04-2012,01:13,SPECI,,340,7.0,,,9999.0,,19.0,19.0,29.70,1006.8,,,,,,,,,,,,,,,7/8 Mostly Cloudy,9000.0,,FEW,1100.0,BKN,8900.0,BKN,11000.0,,
KRDR,08-04-2012,01:12,SPECI,,340,7.0,,,9999.0,,19.0,19.0,29.70,1006.8,,,,,,,,,,,,,,,7/8 Mostly Cloudy,9000.0,,FEW,1200.0,SCT,3200.0,BKN,8900.0,,
KRDR,08-04-2012,01:04,SPECI,,20,6.0,,,9999.0,Light Rain,19.0,19.0,29.70,1006.8,61,,,,,,,,,,,,,,8/8 Overcast,6000.0,,SCT,1100.0,BKN,5900.0,OVC,8900.0,,
KRDR,08-04-2012,01:00,SPECI,,350,6.0,,,9999.0,Light Rain,20.0,18.0,29.72,1007.6,61,,,,,,,,,,,,,,8/8 Overcast,2800.0,,SCT,1100.0,BKN,2800.0,OVC,7900.0,,
KRDR,08-04-2012,00:48,SPECI,,20,6.0,,,9999.0,Light Rain,19.0,18.0,29.73,1008.0,61,,,,,,,,,,,,,,8/8 Overcast,1000.0,,BKN,1100.0,OVC,5900.0,,,,
KRDR,08-04-2012,00:43,SPECI,,360,4.0,,,9999.0,Light Rain,20.0,18.0,29.74,1008.3,61,,,,,,,,,,,,,,8/8 Overcast,1200.0,,BKN,1200.0,OVC,5900.0,,,,
KRDR,08-04-2012,00:35,SPECI,,40,5.0,,,9999.0,Light Rain,20.0,18.0,29.74,1008.1,61,,,,,,,,,,,,,,8/8 Overcast,1100.0,,BKN,1100.0,BKN,5000.0,OVC,12000.0,,
KRDR,08-04-2012,00:29,SPECI,,50,5.0,,,9999.0,Light Rain,20.0,18.0,29.73,1007.9,61,,,,,,,,,,,,,,7/8 Mostly Cloudy,1200.0,,BKN,1200.0,BKN,4200.0,BKN,12000.0,,
KRDR,08-04-2012,00:09,SPECI,,340,9.0,,,9999.0,Light Rain,20.0,18.0,29.73,1007.9,61,,,,,,,,,,,,,,7/8 Mostly Cloudy,4400.0,,FEW,1000.0,SCT,4300.0,BKN,12000.0,,
KRDR,08-04-2012,00:00,METAR,,340,9.0,,,9999.0,Light Rain,20.0,18.0,29.73,1007.8,61,,,,,,,,,,,,,,8/8 Overcast,4200.0,,BKN,4300.0,OVC,12000.0,,,,
KRDR,08-03-2012,23:39,SPECI,,330,10.0,,,9999.0,,20.0,18.0,29.72,1007.5,,,,,,,,,,,,,,,7/8 Mostly Cloudy,12000.0,,FEW,800.0,SCT,4600.0,BKN,12000.0,,
KRDR,08-03-2012,23:09,SPECI,,350,8.0,,,9999.0,,21.0,19.0,29.69,1006.6,,,,,,,,,,,,,,,4/8 Partly Cloudy,72000.0,,FEW,3500.0,SCT,5900.0,SCT,7900.0,,
KRDR,08-03-2012,23:00,METAR,,290,9.0,,200/46KTS,9999.0,Light Rain,19.0,18.0,29.66,1005.6,61,,,,,,,,,,.33 IN,,,,7/8 Mostly Cloudy,9000.0,,SCT,3900.0,SCT,5900.0,BKN,8900.0,,
KRDR,08-03-2012,22:34,SPECI,,310,11.0,,200/46KTS,9999.0,Light Rain,19.0,18.0,29.70,1007.0,61,,,,,,,,,,,,,,7/8 Mostly Cloudy,3400.0,,FEW,1300.0,BKN,3500.0,BKN,5900.0,,
KRDR,08-03-2012,22:23,SPECI,,320,12.0,20.0,200/46KTS,9999.0,Thunderstorm and Rain or Snow Showers,19.0,18.0,29.72,1007.5,92,,,,,,,,,,,,,,8/8 Overcast,2500.0,,FEW,1100.0,BKN,4300.0,OVC,5900.0,,
KRDR,08-03-2012,22:22,SPECI,,320,11.0,20.0,200/46KTS,6400.0,Thunderstorm and Rain or Snow Showers/Mist,19.0,18.0,29.72,1007.6,92,10,,,,,,,,,,,,,8/8 Overcast,2500.0,,FEW,1300.0,BKN,5000.0,OVC,5900.0,,
KRDR,08-03-2012,22:16,SPECI,,310,13.0,33.0,200/46KTS,1200.0,Thunderstorm and Rain or Snow Showers/Mist,20.0,18.0,29.74,1008.2,92,10,,,,,,,,,,,,,8/8 Overcast,2200.0,,FEW,500.0,BKN,4900.0,OVC,8900.0,,
KRDR,08-03-2012,22:10,SPECI,,280,19.0,46.0,200/46KTS,800.0,Heavy Thunderstorm and Rain or Snow Showers,22.0,19.0,29.76,1008.8,95,,,,,,,,,,,,,,8/8 Overcast,4800.0,,FEW,500.0,BKN,4900.0,OVC,8900.0,,
KRDR,08-03-2012,22:09,SPECI,,270,23.0,46.0,200/46KTS,1200.0,Heavy Thunderstorm and Rain or Snow Showers,23.0,20.0,29.76,1008.9,95,,,,,,,,,,,,,,8/8 Overcast,4800.0,,FEW,500.0,BKN,4900.0,OVC,8900.0,,
KRDR,08-03-2012,22:07,SPECI,,240,16.0,46.0,200/46KTS,1200.0,Thunderstorm and Rain or Snow Showers,24.0,20.0,29.76,1009.1,92,,,,,,,,,,,,,,8/8 Overcast,4800.0,,FEW,1800.0,BKN,4900.0,OVC,8900.0,,
KRDR,08-03-2012,22:00,METAR,,250,5.0,,,9999.0,Thunderstorm and Rain or Snow Showers,25.0,20.0,29.71,1007.3,92,,,,,,,,,,,,,,8/8 Overcast,10000.0,,SCT,4900.0,BKN,9900.0,OVC,12000.0,,
KRDR,08-03-2012,21:53,SPECI,,240,4.0,,,9999.0,Dry Thunderstorm,25.0,20.0,29.71,1007.2,91,,,,,,,,,,,,,,8/8 Overcast,8000.0,,SCT,4900.0,BKN,7900.0,OVC,12000.0,,
KRDR,08-03-2012,21:00,METAR,,160,11.0,,,9999.0,,27.0,19.0,29.70,1006.9,,,,,,,,,,,,,,,Clear,72000.0,,,73000.0,,,,,,
KRDR,08-03-2012,20:00,METAR,,160,14.0,20.0,,9999.0,,29.0,19.0,29.71,1007.4,,,,,,,,,,,,,,,2/8 Mostly Clear,72000.0,,FEW,3700.0,,,,,,
KRDR,08-03-2012,19:00,METAR,,160,13.0,,,9999.0,,28.0,19.0,29.74,1008.1,,,,,,,,,,,,,,,2/8 Mostly Clear,72000.0,,FEW,12000.0,,,,,,
KRDR,08-03-2012,18:00,METAR,,170,17.0,21.0,,9999.0,,28.0,18.0,29.77,1009.2,,,,,,,,,,,,,,,Clear,72000.0,,,73000.0,,,,,,
KRDR,08-03-2012,17:00,METAR,,150,17.0,,,9999.0,,26.0,18.0,29.78,1009.6,,,,,,,,,,,,,,,Clear,72000.0,,,73000.0,,,,,,
KRDR,08-03-2012,16:00,METAR,,160,13.0,21.0,,9999.0,,24.0,18.0,29.80,1010.3,,,,,,,,,,,,,,,Clear,72000.0,,,73000.0,,,,,,
KRDR,08-03-2012,15:00,METAR,,150,13.0,19.0,,9999.0,,21.0,17.0,29.81,1010.6,,,,,,,,,,,,,,,4/8 Partly Cloudy,72000.0,,SCT,12000.0,,,,,,
KRDR,08-03-2012,14:00,METAR,,140,11.0,,,9999.0,,20.0,18.0,29.81,1010.7,,,,,,,,,,,,,,,Clear,72000.0,,,73000.0,,,,,,
KRDR,08-03-2012,13:00,METAR,,110,6.0,,,9999.0,,19.0,17.0,29.81,1010.6,,,,,,,,,,,,,,,7/8 Mostly Cloudy,12000.0,,BKN,12000.0,,,,,,
KRDR,08-03-2012,12:00,METAR,,160,4.0,,,9999.0,,18.0,17.0,29.80,1010.3,,,,,,,,,,,,,.07 IN,.07 IN,8/8 Overcast,11000.0,,OVC,11000.0,,,,,,
KRDR,08-03-2012,11:00,METAR,,160,13.0,,,9999.0,,18.0,17.0,29.79,1009.8,,,,,,,,,,,.02 IN,,,,2/8 Mostly Clear,72000.0,,FEW,8900.0,,,,,,
KRDR,08-03-2012,10:42,SPECI,,160,15.0,,,9999.0,,18.0,17.0,29.79,1009.9,,,,,,,,,,,,,,,4/8 Partly Cloudy,72000.0,,SCT,7900.0,,,,,,
KRDR,08-03-2012,10:05,SPECI,,180,12.0,,,9999.0,Light Rain,18.0,17.0,29.82,1011.0,61,,,,,,,,,,,,,,4/8 Partly Cloudy,72000.0,,SCT,1000.0,,,,,,
KRDR,08-03-2012,10:00,METAR,,200,8.0,,,9999.0,Light Rain,18.0,17.0,29.84,1011.6,61,,,,,,,,,,.05 IN,,,,4/8 Partly Cloudy,72000.0,,FEW,1600.0,SCT,4800.0,,,,
KRDR,08-03-2012,09:47,SPECI,,220,7.0,,,9999.0,Light Rain,18.0,17.0,29.85,1011.8,61,,,,,,,,,,,,,,7/8 Mostly Cloudy,4700.0,,SCT,2400.0,BKN,4800.0,,,,
KRDR,08-03-2012,09:40,SPECI,,170,13.0,,,9999.0,Light Rain,18.0,17.0,29.84,1011.7,61,,,,,,,,,,,,,,7/8 Mostly Cloudy,2900.0,,BKN,2900.0,BKN,4800.0,BKN,5900.0,,
KRDR,08-03-2012,09:38,SPECI,,170,13.0,,,9999.0,Light Rain,18.0,17.0,29.84,1011.7,61,,,,,,,,,,,,,,7/8 Mostly Cloudy,4800.0,,SCT,3100.0,BKN,4900.0,BKN,5900.0,,
KRDR,08-03-2012,09:28,SPECI,,180,13.0,,,9999.0,Light Rain/Mist,19.0,17.0,29.85,1011.7,61,10,,,,,,,,,,,,,7/8 Mostly Cloudy,3200.0,,BKN,3300.0,BKN,5900.0,,,,
KRDR,08-03-2012,09:24,SPECI,,180,13.0,,,9999.0,Rain,19.0,16.0,29.84,1011.7,62,,,,,,,,,,,,,,8/8 Overcast,6000.0,,SCT,4400.0,OVC,5900.0,,,,
KRDR,08-03-2012,09:22,SPECI,,190,9.0,,,9999.0,Rain,19.0,16.0,29.85,1011.8,62,,,,,,,,,,,,,,7/8 Mostly Cloudy,4900.0,,BKN,5000.0,,,,,,
KRDR,08-03-2012,08:51,SPECI,,220,4.0,,,9999.0,Dry Thunderstorm,19.0,15.0,29.84,1011.5,91,,,,,,,,,,,,,,7/8 Mostly Cloudy,9000.0,,FEW,5900.0,SCT,8900.0,BKN,11000.0,,
KRDR,08-03-2012,08:00,METAR,,150,7.0,,,9999.0,,20.0,14.0,29.83,1011.1,,,,,,,,,,,,,,,Clear,72000.0,,,73000.0,,,,,,
KRDR,08-03-2012,07:00,METAR,,140,7.0,,,9999.0,,19.0,15.0,29.84,1011.4,,,,,,,,,,,,,,,Clear,72000.0,,,73000.0,,,,,,
KRDR,08-03-2012,06:00,METAR,,200,5.0,,,9999.0,,19.0,15.0,29.85,1011.9,,,,,,,,,,,,,,,Clear,72000.0,,,73000.0,,,,,,
KRDR,08-03-2012,05:00,METAR,,230,4.0,,,9999.0,,21.0,15.0,29.86,1012.1,,,,,,,,,,,,,,,Clear,72000.0,,,73000.0,,,,,,
KRDR,08-03-2012,04:00,METAR,,140,4.0,,,9999.0,,23.0,14.0,29.86,1012.3,,,,,,,,,,,,,,,4/8 Partly Cloudy,72000.0,,SCT,7900.0,,,,,,
KRDR,08-03-2012,03:00,METAR,,130,4.0,,,9999.0,,23.0,15.0,29.86,1012.3,,,,,,,,,,,,,,,4/8 Partly Cloudy,72000.0,,SCT,8900.0,,,,,,
KRDR,08-03-2012,02:00,METAR,,120,6.0,,,9999.0,,25.0,14.0,29.85,1011.8,,,,,,,,,,,,,,,Clear,72000.0,,,73000.0,,,,,,
KRDR,08-03-2012,01:00,METAR,,120,8.0,,,9999.0,,26.0,15.0,29.85,1011.9,,,,,,,,,,,,,,,Clear,72000.0,,,73000.0,,,,,,
KRDR,08-03-2012,00:00,METAR,,100,8.0,,,9999.0,,27.0,14.0,29.85,1011.8,,,,,,,,,,,,,,,Clear,72000.0,,,73000.0,,,,,,
KRDR,08-02-2012,23:00,METAR,,80,4.0,,,9999.0,,27.0,14.0,29.86,1012.3,,,,,,,,,,,,,,,4/8 Partly Cloudy,72000.0,,SCT,5900.0,,,,,,
KRDR,08-02-2012,22:00,METAR,,,4.0,,,9999.0,,28.0,14.0,29.87,1012.4,,,,,,,,,,,,,,,2/8 Mostly Clear,72000.0,,FEW,5900.0,,,,,,
KRDR,08-02-2012,21:00,METAR,,,0.0,,,9999.0,,27.0,14.0,29.88,1012.8,,,,,,,,,,,,,,,Clear,4900.0,,,73000.0,,,,,,
KRDR,08-02-2012,20:00,METAR,,,3.0,,,9999.0,,27.0,14.0,29.89,1013.1,,,,,,,,,,,,,,,Clear,72000.0,,,73000.0,,,,,,
KRDR,08-02-2012,19:00,METAR,,,0.0,,,9999.0,,26.0,15.0,29.90,1013.5,,,,,,,,,,,,,,,2/8 Mostly Clear,72000.0,,FEW,4300.0,,,,,,
KRDR,08-02-2012,18:00,METAR,,,5.0,,,9999.0,,26.0,15.0,29.91,1013.8,,,,,,,,,,,,,,,Clear,72000.0,,,73000.0,,,,,,
KRDR,08-02-2012,17:00,METAR,,,3.0,,,9999.0,,25.0,16.0,29.91,1013.8,,,,,,,,,,,,,,,Clear,72000.0,,,73000.0,,,,,,
KRDR,08-02-2012,16:00,METAR,,40,7.0,,,9999.0,,23.0,15.0,29.91,1013.8,,,,,,,,,,,,,,,Clear,72000.0,,,73000.0,,,,,,
KRDR,08-02-2012,15:00,METAR,,20,5.0,,,9999.0,,22.0,16.0,29.91,1013.8,,,,,,,,,,,,,,,Clear,72000.0,,,73000.0,,,,,,
KRDR,08-02-2012,14:00,METAR,,350,5.0,,,9999.0,,19.0,16.0,29.91,1013.9,,,,,,,,,,,,,,,Clear,72000.0,,,73000.0,,,,,,
KRDR,08-02-2012,13:00,METAR,,360,5.0,,,9999.0,,17.0,14.0,29.90,1013.7,,,,,,,,,,,,,,,Clear,72000.0,,,73000.0,,,,,,
KRDR,08-02-2012,12:00,METAR,,,0.0,,,9999.0,,14.0,13.0,29.89,1013.2,,,,,,,,,,,,,,,Clear,72000.0,,,73000.0,,,,,,
KRDR,08-02-2012,11:00,METAR,,10,5.0,,,9999.0,,14.0,13.0,29.88,1013.0,,,,,,,,,,,,,,,Clear,72000.0,,,73000.0,,,,,,
KRDR,08-02-2012,10:00,METAR,,330,5.0,,,9999.0,,14.0,13.0,29.87,1012.7,,,,,,,,,,,,,,,Clear,72000.0,,,73000.0,,,,,,
KRDR,08-02-2012,09:00,METAR,,290,5.0,,,9999.0,,14.0,13.0,29.88,1012.9,,,,,,,,,,,,,,,Clear,72000.0,,,73000.0,,,,,,
KRDR,08-02-2012,08:00,METAR,,250,4.0,,,9999.0,,15.0,13.0,29.87,1012.5,,,,,,,,,,,,,,,Clear,72000.0,,,73000.0,,,,,,
KRDR,08-02-2012,07:00,METAR,,280,3.0,,,9999.0,,15.0,14.0,29.88,1012.8,,,,,,,,,,,,,,,Clear,72000.0,,,73000.0,,,,,,
KRDR,08-02-2012,06:00,METAR,,340,4.0,,,9999.0,,16.0,15.0,29.89,1013.1,,,,,,,,,,,,,TRACE,,Clear,72000.0,,,73000.0,,,,,,
KRDR,08-02-2012,05:00,METAR,,350,5.0,,,9999.0,,19.0,16.0,29.89,1013.2,,,,,,,,,,,,,,,Clear,72000.0,,,73000.0,,,,,,
KRDR,08-02-2012,04:00,METAR,,250,6.0,,,9999.0,,18.0,16.0,29.86,1012.2,,,,,,,,,,,,,,,Clear,72000.0,,,73000.0,,,,,,
KRDR,08-02-2012,03:00,METAR,,300,4.0,,,9999.0,,21.0,16.0,29.85,1011.7,,,,,,,,,,,,TRACE,,,Clear,72000.0,,,73000.0,,,,,,
KRDR,08-02-2012,02:00,METAR,,310,3.0,,,9999.0,,23.0,17.0,29.84,1011.6,,,,,,,,,,,,,,,Clear,72000.0,,,73000.0,,,,,,
KRDR,08-02-2012,01:00,METAR,,310,4.0,,,9999.0,,26.0,18.0,29.82,1011.1,,,,,,,,,,,TRACE,,,,2/8 Mostly Clear,72000.0,,FEW,12000.0,,,,,,
KRDR,08-02-2012,00:00,METAR,,310,3.0,,,9999.0,,26.0,18.0,29.83,1011.3,,,,,,,,,,,TRACE,,TRACE,,2/8 Mostly Clear,72000.0,,FEW,12000.0,,,,,,
KRDR,08-01-2012,23:00,METAR,,360,4.0,,,9999.0,,27.0,15.0,29.85,1012.0,,,,,,,,,,,,,,,Clear,72000.0,,,73000.0,,,,,,
KRDR,08-01-2012,22:00,METAR,,360,10.0,,,9999.0,,29.0,15.0,29.84,1011.7,,,,,,,,,,,,,,,Clear,72000.0,,,73000.0,,,,,,
KRDR,08-01-2012,21:00,METAR,,330,11.0,,,9999.0,,28.0,16.0,29.86,1012.3,,,,,,,,,,,,,,,Clear,72000.0,,,73000.0,,,,,,
KRDR,08-01-2012,20:00,METAR,,320,9.0,,,9999.0,,28.0,17.0,29.89,1013.3,,,,,,,,,,,,,,,Clear,72000.0,,,73000.0,,,,,,
KRDR,08-01-2012,19:00,METAR,,320,10.0,,,9999.0,,26.0,16.0,29.89,1013.1,,,,,,,,,,,,,,,Clear,72000.0,,,73000.0,,,,,,
KRDR,08-01-2012,18:00,METAR,,360,11.0,,,9999.0,,26.0,15.0,29.85,1012.0,,,,,,,,,,,,,,,Clear,72000.0,,,73000.0,,,,,,
KRDR,08-01-2012,17:00,METAR,,350,12.0,,,9999.0,,26.0,15.0,29.85,1011.9,,,,,,,,,,,,,,,Clear,72000.0,,,73000.0,,,,,,
KRDR,08-01-2012,16:00,METAR,,340,11.0,,,9999.0,,25.0,16.0,29.84,1011.7,,,,,,,,,,,,,,,Clear,72000.0,,,73000.0,,,,,,
KRDR,08-01-2012,15:00,METAR,,330,9.0,,,9999.0,,24.0,16.0,29.84,1011.5,,,,,,,,,,,,,,,Clear,72000.0,,,73000.0,,,,,,
KRDR,08-01-2012,14:00,METAR,,350,10.0,,,9999.0,,22.0,16.0,29.83,1011.1,,,,,,,,,,,,,,,Clear,72000.0,,,73000.0,,,,,,
KRDR,08-01-2012,13:00,METAR,,340,8.0,,,9999.0,,21.0,17.0,29.82,1010.9,,,,,,,,,,,,,,,Clear,72000.0,,,73000.0,,,,,,
KRDR,08-01-2012,12:00,METAR,,330,7.0,,,9999.0,,21.0,17.0,29.81,1010.6,,,,,,,,,,,,,,,Clear,72000.0,,,73000.0,,,,,,
KRDR,08-01-2012,11:00,METAR,,340,8.0,,,9999.0,,21.0,18.0,29.80,1010.2,,,,,,,,,,,,,,,Clear,72000.0,,,73000.0,,,,,,
KRDR,08-01-2012,10:00,METAR,,,0.0,,,9999.0,,19.0,18.0,29.78,1009.5,,,,,,,,,,,,,,,Clear,72000.0,,,73000.0,,,,,,
KRDR,08-01-2012,09:00,METAR,,,0.0,,,9999.0,,22.0,19.0,29.77,1009.2,,,,,,,,,,,,,,,Clear,72000.0,,,73000.0,,,,,,
KRDR,08-01-2012,08:00,METAR,,220,8.0,,,9999.0,,23.0,19.0,29.76,1009.0,,,,,,,,,,,,,,,Clear,72000.0,,,73000.0,,,,,,
KRDR,08-01-2012,07:00,METAR,,220,13.0,,,9999.0,,23.0,19.0,29.78,1009.6,,,,,,,,,,,,,,,Clear,72000.0,,,73000.0,,,,,,
KRDR,08-01-2012,06:00,METAR,,210,11.0,,,9999.0,,23.0,19.0,29.79,1009.8,,,,,,,,,,,,,,,Clear,72000.0,,,73000.0,,,,,,
KRDR,08-01-2012,05:00,METAR,,210,10.0,,,9999.0,,24.0,19.0,29.80,1010.1,,,,,,,,,,,,,,,Clear,72000.0,,,73000.0,,,,,,
KRDR,08-01-2012,04:00,METAR,,180,14.0,,,9999.0,,25.0,20.0,29.81,1010.5,,,,,,,,,,,,,,,Clear,72000.0,,,73000.0,,,,,,
KRDR,08-01-2012,03:00,METAR,,180,10.0,,,9999.0,,25.0,19.0,29.82,1011.0,,,,,,,,,,,,,,,Clear,72000.0,,,73000.0,,,,,,
KRDR,08-01-2012,02:00,METAR,,180,10.0,,,9999.0,,27.0,20.0,29.83,1011.1,,,,,,,,,,,,,,,Clear,72000.0,,,73000.0,,,,,,
KRDR,08-01-2012,01:00,METAR,,180,12.0,,,9999.0,,28.0,19.0,29.84,1011.5,,,,,,,,,,,,,,,Clear,72000.0,,,73000.0,,,,,,
KRDR,08-01-2012,00:00,METAR,,180,15.0,,,9999.0,,30.0,18.0,29.84,1011.7,,,,,,,,,,,,,,,Clear,72000.0,,,73000.0,,,,,,
KRDR,07-31-2012,23:00,METAR,,180,17.0,,,9999.0,,31.0,19.0,29.86,1012.1,,,,,,,,,,,,,,,Clear,72000.0,,,73000.0,,,,,,
KRDR,07-31-2012,22:00,METAR,,180,14.0,,,9999.0,,31.0,17.0,29.87,1012.5,,,,,,,,,,,,,,,Clear,72000.0,,,73000.0,,,,,,
KRDR,07-31-2012,21:00,METAR,,170,15.0,,,9999.0,,31.0,18.0,29.89,1013.1,,,,,,,,,,,,,,,Clear,72000.0,,,73000.0,,,,,,
KRDR,07-31-2012,20:00,METAR,,210,10.0,,,9999.0,,31.0,17.0,29.92,1014.2,,,,,,,,,,,,,,,Clear,72000.0,,,73000.0,,,,,,
KRDR,07-31-2012,19:00,METAR,,190,7.0,,,9999.0,,30.0,18.0,29.91,1013.9,,,,,,,,,,,,,,,Clear,72000.0,,,73000.0,,,,,,
KRDR,07-31-2012,18:00,METAR,,190,13.0,,,9999.0,,29.0,18.0,29.93,1014.5,,,,,,,,,,,,,,,Clear,72000.0,,,73000.0,,,,,,
KRDR,07-31-2012,17:00,METAR,,200,8.0,,,9999.0,,28.0,18.0,29.95,1015.3,,,,,,,,,,,,,,,4/8 Partly Cloudy,72000.0,,SCT,11000.0,,,,,,
KRDR,07-31-2012,16:00,METAR,,230,8.0,,,9999.0,,26.0,18.0,29.96,1015.6,,,,,,,,,,,,,,,2/8 Mostly Clear,72000.0,,FEW,8900.0,,,,,,
KRDR,07-31-2012,15:00,METAR,,240,11.0,,,9999.0,,25.0,18.0,29.98,1016.1,,,,,,,,,,,,,,,Clear,72000.0,,,73000.0,,,,,,
KRDR,07-31-2012,14:00,METAR,,220,7.0,,,9999.0,,24.0,18.0,29.96,1015.5,,,,,,,,,,,,,,,Clear,72000.0,,,73000.0,,,,,,
KRDR,07-31-2012,13:00,METAR,,220,7.0,,,9999.0,,21.0,17.0,29.95,1015.2,,,,,,,,,,,,,,,Clear,72000.0,,,73000.0,,,,,,
KRDR,07-31-2012,12:00,METAR,,210,5.0,,,9999.0,,18.0,15.0,29.95,1015.3,,,,,,,,,,,,,,,Clear,72000.0,,,73000.0,,,,,,
KRDR,07-31-2012,11:00,METAR,,240,6.0,,,9999.0,,16.0,15.0,29.97,1015.7,,,,,,,,,,,,,,,Clear,72000.0,,,73000.0,,,,,,
KRDR,07-31-2012,10:00,METAR,,230,3.0,,,9999.0,,17.0,15.0,29.95,1015.1,,,,,,,,,,,,,,,Clear,72000.0,,,73000.0,,,,,,
KRDR,07-31-2012,09:00,METAR,,230,5.0,,,9999.0,,17.0,15.0,29.96,1015.5,,,,,,,,,,,,,,,Clear,72000.0,,,73000.0,,,,,,
KRDR,07-31-2012,08:00,METAR,,230,4.0,,,9999.0,,17.0,16.0,29.97,1015.7,,,,,,,,,,,,,,,Clear,72000.0,,,73000.0,,,,,,
KRDR,07-31-2012,07:00,METAR,,230,5.0,,,9999.0,,17.0,15.0,29.97,1015.9,,,,,,,,,,,,,,,Clear,72000.0,,,73000.0,,,,,,
KRDR,07-31-2012,06:00,METAR,,230,4.0,,,9999.0,,18.0,16.0,29.97,1015.9,,,,,,,,,,,,,,,Clear,72000.0,,,73000.0,,,,,,
KRDR,07-31-2012,05:00,METAR,,250,3.0,,,9999.0,,18.0,16.0,29.97,1015.9,,,,,,,,,,,,,,,Clear,72000.0,,,73000.0,,,,,,
KRDR,07-31-2012,04:00,METAR,,250,3.0,,,9999.0,,19.0,17.0,29.97,1015.9,,,,,,,,,,,,,,,Clear,72000.0,,,73000.0,,,,,,
KRDR,07-31-2012,03:00,METAR,,,0.0,,,9999.0,,22.0,16.0,29.97,1015.7,,,,,,,,,,,,,,,Clear,72000.0,,,73000.0,,,,,,
KRDR,07-31-2012,02:00,METAR,,,0.0,,,9999.0,,24.0,17.0,29.95,1015.3,,,,,,,,,,,,,,,Clear,72000.0,,,73000.0,,,,,,
KRDR,07-31-2012,01:00,METAR,,360,4.0,,,9999.0,,27.0,16.0,29.95,1015.1,,,,,,,,,,,,,,,Clear,72000.0,,,73000.0,,,,,,
KRDR,07-31-2012,00:00,METAR,,10,7.0,,,9999.0,,29.0,16.0,29.94,1015.0,,,,,,,,,,,,,,,Clear,72000.0,,,73000.0,,,,,,
KRDR,07-30-2012,23:00,METAR,,330,5.0,,,9999.0,,29.0,15.0,29.94,1014.9,,,,,,,,,,,,,,,Clear,72000.0,,,73000.0,,,,,,
KRDR,07-30-2012,22:00,METAR,,10,6.0,,,9999.0,,29.0,15.0,29.95,1015.1,,,,,,,,,,,,,,,Clear,72000.0,,,73000.0,,,,,,
KRDR,07-30-2012,21:00,METAR,,,5.0,,,9999.0,,29.0,16.0,29.95,1015.3,,,,,,,,,,,,,,,2/8 Mostly Clear,72000.0,,FEW,5000.0,,,,,,
KRDR,07-30-2012,20:00,METAR,,350,9.0,,,9999.0,,28.0,16.0,29.96,1015.5,,,,,,,,,,,,,,,Clear,72000.0,,,73000.0,,,,,,
KRDR,07-30-2012,19:00,METAR,,10,8.0,,,9999.0,,28.0,17.0,29.97,1015.8,,,,,,,,,,,,,,,Clear,72000.0,,,73000.0,,,,,,
KRDR,07-30-2012,18:00,METAR,,350,11.0,,,9999.0,,27.0,17.0,29.97,1015.8,,,,,,,,,,,,,,,2/8 Mostly Clear,72000.0,,FEW,4300.0,,,,,,
KRDR,07-30-2012,17:00,METAR,,340,8.0,,,9999.0,,27.0,17.0,29.96,1015.6,,,,,,,,,,,,,,,Clear,72000.0,,,73000.0,,,,,,
KRDR,07-30-2012,16:00,METAR,,340,7.0,,,9999.0,,25.0,17.0,29.96,1015.5,,,,,,,,,,,,,,,Clear,72000.0,,,73000.0,,,,,,
KRDR,07-30-2012,15:00,METAR,,350,6.0,,,9999.0,,23.0,17.0,29.96,1015.5,,,,,,,,,,,,,,,Clear,72000.0,,,73000.0,,,,,,
KRDR,07-30-2012,14:00,METAR,,330,6.0,,,9999.0,,22.0,17.0,29.95,1015.3,,,,,,,,,,,,,,,Clear,72000.0,,,73000.0,,,,,,
KRDR,07-30-2012,13:00,METAR,,300,5.0,,,9999.0,,19.0,16.0,29.94,1014.7,,,,,,,,,,,,,,,Clear,72000.0,,,73000.0,,,,,,
KRDR,07-30-2012,12:00,METAR,,300,4.0,,,9999.0,,17.0,15.0,29.92,1014.1,,,,,,,,,,,,,,,Clear,72000.0,,,73000.0,,,,,,
KRDR,07-30-2012,11:00,METAR,,320,5.0,,,9999.0,,16.0,15.0,29.89,1013.3,,,,,,,,,,,,,,,Clear,72000.0,,,73000.0,,,,,,
KRDR,07-30-2012,10:00,METAR,,310,6.0,,,9999.0,,17.0,16.0,29.89,1013.1,,,,,,,,,,,,,,,Clear,72000.0,,,73000.0,,,,,,
KRDR,07-30-2012,09:00,METAR,,280,5.0,,,9999.0,,17.0,16.0,29.88,1012.8,,,,,,,,,,,,,,,Clear,72000.0,,,73000.0,,,,,,
KRDR,07-30-2012,08:00,METAR,,300,6.0,,,9999.0,,18.0,16.0,29.87,1012.6,,,,,,,,,,,,,,,Clear,72000.0,,,73000.0,,,,,,
KRDR,07-30-2012,07:00,METAR,,350,7.0,,,9999.0,,20.0,17.0,29.87,1012.5,,,,,,,,,,,,,,,Clear,72000.0,,,73000.0,,,,,,
KRDR,07-30-2012,06:00,METAR,,350,6.0,,,9999.0,,21.0,17.0,29.86,1012.3,,,,,,,,,,,,,,,Clear,72000.0,,,73000.0,,,,,,
KRDR,07-30-2012,05:00,METAR,,10,5.0,,,9999.0,,24.0,17.0,29.85,1011.9,,,,,,,,,,,,,,,4/8 Partly Cloudy,72000.0,,SCT,8900.0,,,,,,
KRDR,07-30-2012,04:00,METAR,,330,8.0,,,9999.0,,27.0,18.0,29.81,1010.7,,,,,,,,,,,,,,,2/8 Mostly Clear,72000.0,,FEW,8900.0,,,,,,
KRDR,07-30-2012,03:00,METAR,,240,4.0,,,9999.0,,26.0,20.0,29.79,1009.8,,,,,,,,,,,,,,,4/8 Partly Cloudy,72000.0,,FEW,6900.0,SCT,7900.0,,,,
KRDR,07-30-2012,02:00,METAR,,200,7.0,,,9999.0,,28.0,20.0,29.77,1009.2,,,,,,,,,,,,,,,Clear,72000.0,,,73000.0,,,,,,
KRDR,07-30-2012,01:00,METAR,,200,10.0,,,9999.0,,31.0,21.0,29.78,1009.5,,,,,,,,,,,,,,,Clear,72000.0,,,73000.0,,,,,,
KRDR,07-30-2012,00:00,METAR,,200,13.0,,,9999.0,,32.0,20.0,29.77,1009.3,,,,,,,,,,,,,,,Clear,72000.0,,,73000.0,,,,,,
KRDR,07-29-2012,23:00,METAR,,200,15.0,,,9999.0,,33.0,21.0,29.79,1010.1,,,,,,,,,,,,,,,Clear,72000.0,,,73000.0,,,,,,
KRDR,07-29-2012,22:00,METAR,,200,16.0,22.0,,9999.0,,33.0,21.0,29.82,1011.0,,,,,,,,,,,,,,,Clear,72000.0,,,73000.0,,,,,,
KRDR,07-29-2012,21:00,METAR,,190,19.0,25.0,190/26KTS,9999.0,,32.0,21.0,29.84,1011.5,,,,,,,,,,,,,,,2/8 Mostly Clear,72000.0,,FEW,6900.0,,,,,,
KRDR,07-29-2012,20:00,METAR,,190,14.0,,,9999.0,,32.0,20.0,29.85,1012.0,,,,,,,,,,,,,,,Clear,72000.0,,,73000.0,,,,,,
KRDR,07-29-2012,19:00,METAR,,170,11.0,,,9999.0,,31.0,20.0,29.87,1012.6,,,,,,,,,,,,,,,2/8 Mostly Clear,72000.0,,FEW,12000.0,,,,,,
KRDR,07-29-2012,18:00,METAR,,210,10.0,,,9999.0,,30.0,21.0,29.91,1013.7,,,,,,,,,,,,,,,Clear,72000.0,,,73000.0,,,,,,
KRDR,07-29-2012,17:00,METAR,,210,12.0,,,9999.0,,30.0,20.0,29.91,1013.9,,,,,,,,,,,,,,,Clear,72000.0,,,73000.0,,,,,,
KRDR,07-29-2012,16:00,METAR,,200,10.0,,,9999.0,,29.0,20.0,29.92,1014.1,,,,,,,,,,,,,,,Clear,72000.0,,,73000.0,,,,,,
KRDR,07-29-2012,15:00,METAR,,200,11.0,,,9999.0,,26.0,20.0,29.93,1014.5,,,,,,,,,,,,,,,Clear,72000.0,,,73000.0,,,,,,
KRDR,07-29-2012,14:00,METAR,,200,10.0,,,9999.0,,24.0,19.0,29.93,1014.7,,,,,,,,,,,,,,,Clear,72000.0,,,73000.0,,,,,,
KRDR,07-29-2012,13:00,METAR,,220,6.0,,,9999.0,,21.0,19.0,29.94,1014.8,,,,,,,,,,,,,,,Clear,72000.0,,,73000.0,,,,,,
KRDR,07-29-2012,12:00,METAR,,190,6.0,,,9999.0,,19.0,18.0,29.92,1014.1,,,,,,,,,,,,,,,Clear,72000.0,,,73000.0,,,,,,
KRDR,07-29-2012,11:00,METAR,,190,5.0,,,9999.0,,18.0,17.0,29.92,1014.2,,,,,,,,,,,,,,,Clear,72000.0,,,73000.0,,,,,,
KRDR,07-29-2012,10:00,METAR,,220,4.0,,,9999.0,,19.0,18.0,29.92,1014.1,,,,,,,,,,,,,,,Clear,72000.0,,,73000.0,,,,,,
KRDR,07-29-2012,09:00,METAR,,220,6.0,,,9999.0,,20.0,19.0,29.92,1014.3,,,,,,,,,,,,,,,Clear,72000.0,,,73000.0,,,,,,
KRDR,07-29-2012,08:00,METAR,,190,8.0,,,9999.0,,20.0,19.0,29.91,1013.8,,,,,,,,,,,,,,,Clear,72000.0,,,73000.0,,,,,,
KRDR,07-29-2012,07:00,METAR,,200,6.0,,,9999.0,,20.0,19.0,29.93,1014.6,,,,,,,,,,,,,,,Clear,72000.0,,,73000.0,,,,,,
KRDR,07-29-2012,06:00,METAR,,220,6.0,,,9999.0,,21.0,19.0,29.94,1015.0,,,,,,,,,,,,,,,Clear,72000.0,,,73000.0,,,,,,
KRDR,07-29-2012,05:00,METAR,,220,6.0,,,9999.0,,22.0,19.0,29.95,1015.2,,,,,,,,,,,,,,,Clear,72000.0,,,73000.0,,,,,,
KRDR,07-29-2012,04:00,METAR,,210,7.0,,,9999.0,,22.0,19.0,29.96,1015.4,,,,,,,,,,,,,,,Clear,72000.0,,,73000.0,,,,,,
KRDR,07-29-2012,03:00,METAR,,190,6.0,,,9999.0,,24.0,19.0,29.94,1014.9,,,,,,,,,,,,,,,Clear,72000.0,,,73000.0,,,,,,
KRDR,07-29-2012,02:00,METAR,,150,8.0,,,9999.0,,26.0,19.0,29.92,1014.3,,,,,,,,,,,,,,,Clear,72000.0,,,73000.0,,,,,,
KRDR,07-29-2012,01:00,METAR,,160,10.0,,,9999.0,,27.0,19.0,29.93,1014.5,,,,,,,,,,,,,,,Clear,72000.0,,,73000.0,,,,,,
KRDR,07-29-2012,00:00,METAR,,160,9.0,,,9999.0,,28.0,19.0,29.93,1014.7,,,,,,,,,,,,,,,Clear,72000.0,,,73000.0,,,,,,
KRDR,07-28-2012,23:00,METAR,,160,10.0,,,9999.0,,29.0,18.0,29.95,1015.1,,,,,,,,,,,,,,,Clear,72000.0,,,73000.0,,,,,,
KRDR,07-28-2012,22:00,METAR,,180,11.0,,,9999.0,,30.0,17.0,29.96,1015.5,,,,,,,,,,,,,,,Clear,72000.0,,,73000.0,,,,,,
KRDR,07-28-2012,21:00,METAR,,190,12.0,,,9999.0,,29.0,17.0,29.97,1015.8,,,,,,,,,,,,,,,Clear,72000.0,,,73000.0,,,,,,
KRDR,07-28-2012,20:00,METAR,,180,14.0,,,9999.0,,30.0,16.0,29.97,1015.9,,,,,,,,,,,,,,,2/8 Mostly Clear,72000.0,,FEW,9900.0,,,,,,
KRDR,07-28-2012,19:00,METAR,,140,10.0,,,9999.0,,30.0,16.0,29.98,1016.3,,,,,,,,,,,,,,,2/8 Mostly Clear,72000.0,,FEW,11000.0,,,,,,
KRDR,07-28-2012,18:00,METAR,,170,12.0,16.0,,9999.0,,29.0,16.0,30.00,1016.9,,,,,,,,,,,,,,,Clear,72000.0,,,73000.0,,,,,,
KRDR,07-28-2012,17:00,METAR,,180,8.0,,,9999.0,,27.0,17.0,30.02,1017.4,,,,,,,,,,,,,,,Clear,72000.0,,,73000.0,,,,,,
KRDR,07-28-2012,16:00,METAR,,180,9.0,,,9999.0,,26.0,16.0,30.02,1017.4,,,,,,,,,,,,,,,Clear,72000.0,,,73000.0,,,,,,
KRDR,07-28-2012,15:00,METAR,,170,10.0,,,9999.0,,24.0,16.0,30.03,1017.9,,,,,,,,,,,,,,,Clear,72000.0,,,73000.0,,,,,,
KRDR,07-28-2012,14:00,METAR,,140,5.0,,,9999.0,,19.0,16.0,30.03,1017.7,,,,,,,,,,,,,,,Clear,72000.0,,,73000.0,,,,,,
KRDR,07-28-2012,13:00,METAR,,160,5.0,,,9999.0,,18.0,15.0,30.03,1017.9,,,,,,,,,,,,,,,Clear,72000.0,,,73000.0,,,,,,
KRDR,07-28-2012,12:00,METAR,,180,6.0,,,9999.0,,15.0,14.0,30.04,1018.1,,,,,,,,,,,,,,,2/8 Mostly Clear,72000.0,,FEW,5900.0,,,,,,
KRDR,07-28-2012,11:00,METAR,,200,4.0,,,9999.0,,15.0,13.0,30.02,1017.6,,,,,,,,,,,,,,,Clear,72000.0,,,73000.0,,,,,,
KRDR,07-28-2012,10:00,METAR,,210,4.0,,,9999.0,,15.0,13.0,30.02,1017.5,,,,,,,,,,,,,,,Clear,72000.0,,,73000.0,,,,,,
KRDR,07-28-2012,09:00,METAR,,210,3.0,,,9999.0,,15.0,13.0,30.02,1017.6,,,,,,,,,,,,,,,Clear,72000.0,,,73000.0,,,,,,
KRDR,07-28-2012,08:00,METAR,,220,5.0,,,9999.0,,16.0,13.0,30.03,1017.9,,,,,,,,,,,,,,,Clear,72000.0,,,73000.0,,,,,,
KRDR,07-28-2012,07:00,METAR,,220,6.0,,,9999.0,,17.0,13.0,30.04,1018.2,,,,,,,,,,,,,,,Clear,72000.0,,,73000.0,,,,,,
KRDR,07-28-2012,06:00,METAR,,210,6.0,,,9999.0,,16.0,13.0,30.04,1018.1,,,,,,,,,,,,,,,Clear,72000.0,,,73000.0,,,,,,
KRDR,07-28-2012,05:00,METAR,,200,5.0,,,9999.0,,15.0,13.0,30.04,1018.0,,,,,,,,,,,,,,,Clear,72000.0,,,73000.0,,,,,,
KRDR,07-28-2012,04:00,METAR,,180,3.0,,,9999.0,,17.0,13.0,30.02,1017.5,,,,,,,,,,,,,,,Clear,72000.0,,,73000.0,,,,,,
KRDR,07-28-2012,03:00,METAR,,180,3.0,,,9999.0,,18.0,14.0,30.02,1017.7,,,,,,,,,,,,,,,Clear,72000.0,,,73000.0,,,,,,
KRDR,07-28-2012,02:00,METAR,,180,3.0,,,9999.0,,23.0,13.0,30.02,1017.4,,,,,,,,,,,,,,,Clear,72000.0,,,73000.0,,,,,,
KRDR,07-28-2012,01:00,METAR,,220,4.0,,,9999.0,,25.0,12.0,30.02,1017.4,,,,,,,,,,,,,,,Clear,72000.0,,,73000.0,,,,,,
KRDR,07-28-2012,00:00,METAR,,270,3.0,,,9999.0,,26.0,10.0,30.02,1017.6,,,,,,,,,,,,,,,Clear,72000.0,,,73000.0,,,,,,
KRDR,07-27-2012,23:00,METAR,,250,5.0,,,9999.0,,26.0,11.0,30.02,1017.6,,,,,,,,,,,,,,,Clear,72000.0,,,73000.0,,,,,,
KRDR,07-27-2012,22:00,METAR,,260,5.0,,,9999.0,,26.0,11.0,30.03,1018.0,,,,,,,,,,,,,,,Clear,72000.0,,,73000.0,,,,,,
KRDR,07-27-2012,21:00,METAR,,,4.0,,,9999.0,,26.0,11.0,30.04,1018.3,,,,,,,,,,,,,,,Clear,72000.0,,,73000.0,,,,,,
KRDR,07-27-2012,20:00,METAR,,230,5.0,,,9999.0,,26.0,12.0,30.06,1018.7,,,,,,,,,,,,,,,Clear,72000.0,,,73000.0,,,,,,
KRDR,07-27-2012,19:00,METAR,,320,3.0,,,9999.0,,25.0,12.0,30.06,1018.7,,,,,,,,,,,,,,,2/8 Mostly Clear,72000.0,,FEW,4900.0,,,,,,
KRDR,07-27-2012,18:00,METAR,,310,7.0,,,9999.0,,24.0,13.0,30.08,1019.4,,,,,,,,,,,,,,,Clear,72000.0,,,73000.0,,,,,,
KRDR,07-27-2012,17:00,METAR,,,3.0,,,9999.0,,23.0,12.0,30.07,1019.2,,,,,,,,,,,,,,,Clear,72000.0,,,73000.0,,,,,,
KRDR,07-27-2012,16:00,METAR,,10,3.0,,,9999.0,,22.0,13.0,30.08,1019.6,,,,,,,,,,,,,,,Clear,72000.0,,,73000.0,,,,,,
KRDR,07-27-2012,15:00,METAR,,310,3.0,,,9999.0,,20.0,14.0,30.08,1019.5,,,,,,,,,,,,,,,Clear,72000.0,,,73000.0,,,,,,
KRDR,07-27-2012,14:00,METAR,,340,3.0,,,9999.0,,18.0,13.0,30.07,1019.2,,,,,,,,,,,,,,,Clear,72000.0,,,73000.0,,,,,,
KRDR,07-27-2012,13:00,METAR,,310,5.0,,,9999.0,,16.0,13.0,30.07,1019.0,,,,,,,,,,,,,,,Clear,72000.0,,,73000.0,,,,,,
KRDR,07-27-2012,12:00,METAR,,310,5.0,,,9999.0,,12.0,11.0,30.05,1018.5,,,,,,,,,,,,,,.01 IN,Clear,72000.0,,,73000.0,,,,,,
KRDR,07-27-2012,11:00,METAR,,330,5.0,,,9999.0,,11.0,10.0,30.03,1017.7,,,,,,,,,,,,,,,Clear,72000.0,,,73000.0,,,,,,
KRDR,07-27-2012,10:00,METAR,,340,4.0,,,9999.0,,12.0,11.0,30.02,1017.6,,,,,,,,,,,,,,,Clear,72000.0,,,73000.0,,,,,,
KRDR,07-27-2012,09:00,METAR,,350,4.0,,,9999.0,,13.0,11.0,30.02,1017.6,,,,,,,,,,,,,,,Clear,72000.0,,,73000.0,,,,,,
KRDR,07-27-2012,08:00,METAR,,320,6.0,,,9999.0,,13.0,12.0,30.02,1017.6,,,,,,,,,,,,,,,Clear,72000.0,,,73000.0,,,,,,
KRDR,07-27-2012,07:00,METAR,,340,6.0,,,9999.0,,14.0,12.0,30.02,1017.4,,,,,,,,,,,,,,,Clear,72000.0,,,73000.0,,,,,,
KRDR,07-27-2012,06:00,METAR,,330,6.0,,,9999.0,,15.0,13.0,30.00,1016.9,,,,,,,,,,,,,,,Clear,72000.0,,,73000.0,,,,,,
KRDR,07-27-2012,05:00,METAR,,320,6.0,,,9999.0,,15.0,14.0,29.99,1016.4,,,,,,,,,,,,,,,Clear,72000.0,,,73000.0,,,,,,
KRDR,07-27-2012,04:00,METAR,,340,5.0,,,9999.0,,16.0,14.0,29.96,1015.7,,,,,,,,,,,,,,,Clear,72000.0,,,73000.0,,,,,,
KRDR,07-27-2012,03:00,METAR,,360,7.0,,,9999.0,,17.0,15.0,29.95,1015.2,,,,,,,,,,,,,,,Clear,72000.0,,,73000.0,,,,,,
KRDR,07-27-2012,02:00,METAR,,20,8.0,,,9999.0,,19.0,15.0,29.93,1014.5,,,,,,,,,,,,,,,Clear,72000.0,,,73000.0,,,,,,
KRDR,07-27-2012,00:51,SPECI,,10,12.0,,,9999.0,,21.0,15.0,29.91,1013.9,,,,,,,,,,,,,,,7/8 Mostly Cloudy,3000.0,,BKN,3000.0,BKN,3500.0,BKN,5000.0,,
KRDR,07-27-2012,00:46,SPECI,,10,14.0,,,9999.0,,21.0,15.0,29.91,1013.8,,,,,,,,,,,,,,,7/8 Mostly Cloudy,2900.0,,BKN,2900.0,BKN,3500.0,BKN,5000.0,,
KRDR,07-27-2012,00:00,METAR,,20,19.0,24.0,030/27KTS,9999.0,,21.0,15.0,29.89,1013.2,,,,,,,,,,,,,.01 IN,,4/8 Partly Cloudy,72000.0,,SCT,4900.0,,,,,,
KRDR,07-26-2012,23:11,SPECI,,10,17.0,27.0,360/27KTS,9999.0,,21.0,16.0,29.88,1012.8,,,,,,,,,,,,,,,8/8 Overcast,4900.0,,SCT,2400.0,OVC,5000.0,,,,
KRDR,07-26-2012,23:00,SPECI,,10,17.0,26.0,020/26KTS,9999.0,,22.0,15.0,29.87,1012.7,,,,,,,,,,,,,,,7/8 Mostly Cloudy,2400.0,,BKN,2400.0,BKN,5900.0,,,,
KRDR,07-26-2012,23:00,METAR,,20,19.0,26.0,360/27KTS,9999.0,,21.0,15.0,29.87,1012.6,,,,,,,,,,,,,,,4/8 Partly Cloudy,72000.0,,SCT,2400.0,,,,,,
KRDR,07-26-2012,22:22,SPECI,,20,19.0,26.0,360/27KTS,9999.0,,22.0,16.0,29.87,1012.5,,,,,,,,,,,,,,,4/8 Partly Cloudy,72000.0,,SCT,2300.0,,,,,,
KRDR,07-26-2012,22:06,SPECI,,10,17.0,25.0,,9999.0,,21.0,16.0,29.86,1012.3,,,,,,,,,,,,,,,7/8 Mostly Cloudy,2200.0,,BKN,2200.0,BKN,3600.0,,,,
KRDR,07-26-2012,22:01,SPECI,,20,20.0,25.0,,9999.0,,22.0,16.0,29.86,1012.3,,,,,,,,,,,,,,,7/8 Mostly Cloudy,2200.0,,SCT,2200.0,BKN,3400.0,,,,
KRDR,07-26-2012,22:00,METAR,,20,19.0,23.0,050/26KTS,9999.0,,21.0,16.0,29.86,1012.2,,,,,,,,,,,,,,,7/8 Mostly Cloudy,2200.0,,SCT,2100.0,BKN,3400.0,BKN,4400.0,,
KRDR,07-26-2012,21:32,SPECI,,20,18.0,22.0,050/26KTS,9999.0,,20.0,16.0,29.86,1012.1,,,,,,,,,,,,,,,7/8 Mostly Cloudy,2200.0,,SCT,1800.0,SCT,2400.0,BKN,3200.0,,
KRDR,07-26-2012,21:00,METAR,,360,18.0,25.0,,9999.0,,20.0,16.0,29.84,1011.5,,,,,,,,,,,TRACE,,,,7/8 Mostly Cloudy,1800.0,,BKN,1800.0,,,,,,
KRDR,07-26-2012,20:42,SPECI,,20,18.0,24.0,,9999.0,,21.0,16.0,29.83,1011.3,,,,,,,,,,,,,,,7/8 Mostly Cloudy,2400.0,,SCT,1800.0,BKN,2400.0,BKN,4400.0,,
KRDR,07-26-2012,20:37,SPECI,,20,19.0,23.0,,9999.0,,21.0,16.0,29.83,1011.2,,,,,,,,,,,,,,,7/8 Mostly Cloudy,2300.0,,SCT,1700.0,SCT,2600.0,BKN,4300.0,,
KRDR,07-26-2012,20:35,SPECI,,20,18.0,23.0,,9999.0,,21.0,16.0,29.83,1011.1,,,,,,,,,,,,,,,7/8 Mostly Cloudy,2600.0,,SCT,1700.0,BKN,2600.0,BKN,4300.0,,
KRDR,07-26-2012,20:25,SPECI,,10,17.0,23.0,,9999.0,,20.0,17.0,29.82,1010.9,,,,,,,,,,,,,,,7/8 Mostly Cloudy,3500.0,,FEW,1700.0,SCT,2700.0,BKN,4500.0,,
KRDR,07-26-2012,20:16,SPECI,,20,16.0,25.0,,9999.0,Rain,20.0,18.0,29.82,1010.8,62,,,,,,,,,,,,,,7/8 Mostly Cloudy,3500.0,,FEW,2300.0,SCT,2900.0,BKN,4300.0,,
KRDR,07-26-2012,20:14,SPECI,,20,17.0,25.0,,9999.0,Rain,21.0,17.0,29.82,1010.9,62,,,,,,,,,,,,,,7/8 Mostly Cloudy,2900.0,,FEW,2300.0,BKN,2900.0,BKN,4300.0,,
KRDR,07-26-2012,20:13,SPECI,,20,19.0,25.0,,9999.0,Rain,22.0,17.0,29.82,1010.8,62,,,,,,,,,,,,,,7/8 Mostly Cloudy,3100.0,,SCT,2500.0,SCT,3200.0,BKN,4300.0,,
KRDR,07-26-2012,20:00,METAR,,10,12.0,23.0,,9999.0,,22.0,16.0,29.81,1010.4,,,,,,,,,,,TRACE,,,,4/8 Partly Cloudy,72000.0,,SCT,2400.0,SCT,4100.0,,,,
KRDR,07-26-2012,19:02,SPECI,,350,10.0,,,9999.0,,19.0,17.0,29.79,1009.9,,,,,,,,,,,,,,,2/8 Mostly Clear,72000.0,,FEW,1900.0,,,,,,
KRDR,07-26-2012,19:00,METAR,,340,10.0,,340/28KTS,9999.0,Light Rain,19.0,17.0,29.79,1009.8,61,,,,,,,,,,.01 IN,,,,7/8 Mostly Cloudy,4100.0,,SCT,2000.0,SCT,3400.0,BKN,4200.0,,
KRDR,07-26-2012,18:38,SPECI,,350,16.0,28.0,340/28KTS,9999.0,Light Rain,23.0,16.0,29.78,1009.4,61,,,,,,,,,,,,,,4/8 Partly Cloudy,72000.0,,SCT,3300.0,SCT,4100.0,,,,
KRDR,07-26-2012,18:00,METAR,,330,11.0,16.0,,9999.0,,23.0,15.0,29.78,1009.4,,,,,,,,,,,,,,,2/8 Mostly Clear,72000.0,,FEW,2700.0,,,,,,
KRDR,07-26-2012,17:00,METAR,,320,13.0,,,9999.0,,21.0,15.0,29.77,1009.4,,,,,,,,,,,,,,,7/8 Mostly Cloudy,3700.0,,FEW,2200.0,BKN,3800.0,,,,
KRDR,07-26-2012,16:40,SPECI,,310,13.0,,,9999.0,,21.0,15.0,29.77,1009.3,,,,,,,,,,,,,,,8/8 Overcast,2200.0,,FEW,2200.0,SCT,2900.0,OVC,3500.0,,
KRDR,07-26-2012,16:10,SPECI,,320,11.0,,,9999.0,,21.0,15.0,29.77,1009.2,,,,,,,,,,,,,,,8/8 Overcast,2400.0,,BKN,2700.0,OVC,3200.0,,,,
KRDR,07-26-2012,16:04,SPECI,,310,11.0,,,9999.0,,21.0,15.0,29.77,1009.2,,,,,,,,,,,,,,,8/8 Overcast,2700.0,,SCT,2500.0,OVC,3300.0,,,,
KRDR,07-26-2012,16:00,METAR,,340,11.0,,,9999.0,,21.0,15.0,29.77,1009.1,,,,,,,,,,,,,,,8/8 Overcast,1900.0,,OVC,2500.0,,,,,,
KRDR,07-26-2012,15:00,METAR,,330,10.0,,,9999.0,,20.0,15.0,29.75,1008.7,,,,,,,,,,,,,,,7/8 Mostly Cloudy,1900.0,,BKN,1900.0,BKN,2400.0,,,,
KRDR,07-26-2012,14:26,SPECI,,320,10.0,16.0,,9999.0,,20.0,15.0,29.75,1008.7,,,,,,,,,,,,,,,7/8 Mostly Cloudy,1800.0,,BKN,1900.0,,,,,,
KRDR,07-26-2012,14:00,METAR,,310,11.0,,,9999.0,,20.0,15.0,29.73,1008.1,,,,,,,,,,,,,,,Clear,72000.0,,,73000.0,,,,,,
KRDR,07-26-2012,13:00,METAR,,290,8.0,,,9999.0,,18.0,14.0,29.72,1007.7,,,,,,,,,,,,,,,Clear,72000.0,,,73000.0,,,,,,
KRDR,07-26-2012,12:00,METAR,,280,5.0,,,9999.0,,16.0,13.0,29.72,1007.6,,,,,,,,,,,,,,,Clear,72000.0,,,73000.0,,,,,,
KRDR,07-26-2012,11:00,METAR,,300,6.0,,,9999.0,,16.0,13.0,29.72,1007.6,,,,,,,,,,,,,,,4/8 Partly Cloudy,72000.0,,SCT,6900.0,,,,,,
KRDR,07-26-2012,10:00,METAR,,290,8.0,,,9999.0,,16.0,13.0,29.71,1007.3,,,,,,,,,,,,,,,7/8 Mostly Cloudy,7000.0,,BKN,6900.0,,,,,,
KRDR,07-26-2012,09:00,METAR,,290,4.0,,,9999.0,,16.0,13.0,29.70,1006.8,,,,,,,,,,,,,,,Clear,72000.0,,,73000.0,,,,,,
KRDR,07-26-2012,08:00,METAR,,290,6.0,,,9999.0,,16.0,14.0,29.69,1006.7,,,,,,,,,,,,,,,Clear,72000.0,,,73000.0,,,,,,
KRDR,07-26-2012,07:00,METAR,,290,4.0,,,9999.0,,17.0,14.0,29.69,1006.5,,,,,,,,,,,,,,,2/8 Mostly Clear,72000.0,,FEW,6900.0,,,,,,
KRDR,07-26-2012,06:00,METAR,,280,5.0,,,9999.0,,17.0,15.0,29.70,1006.9,,,,,,,,,,,,,,,7/8 Mostly Cloudy,7000.0,,BKN,6900.0,,,,,,
KRDR,07-26-2012,05:00,METAR,,260,7.0,,,9999.0,,16.0,14.0,29.70,1006.9,,,,,,,,,,,,,,,Clear,72000.0,,,73000.0,,,,,,
KRDR,07-26-2012,04:00,METAR,,270,4.0,,,9999.0,,17.0,14.0,29.70,1007.0,,,,,,,,,,,,,,,Clear,72000.0,,,73000.0,,,,,,
KRDR,07-26-2012,03:00,METAR,,270,4.0,,,9999.0,,19.0,14.0,29.71,1007.2,,,,,,,,,,,,,,,Clear,72000.0,,,73000.0,,,,,,
KRDR,07-26-2012,02:00,METAR,,300,5.0,,,9999.0,,22.0,13.0,29.71,1007.1,,,,,,,,,,,,,,,Clear,72000.0,,,73000.0,,,,,,
KRDR,07-26-2012,01:00,METAR,,310,12.0,18.0,,9999.0,,25.0,12.0,29.69,1006.8,,,,,,,,,,,,,,,Clear,72000.0,,,73000.0,,,,,,
KRDR,07-26-2012,00:00,METAR,,310,14.0,20.0,,9999.0,,26.0,12.0,29.68,1006.4,,,,,,,,,,,,,,,Clear,72000.0,,,73000.0,,,,,,
KRDR,07-25-2012,23:00,METAR,,310,16.0,22.0,,9999.0,,28.0,13.0,29.67,1006.1,,,,,,,,,,,,,,,Clear,72000.0,,,73000.0,,,,,,
KRDR,07-25-2012,22:00,METAR,,310,17.0,22.0,300/27KTS,9999.0,,29.0,14.0,29.66,1005.7,,,,,,,,,,,,,,,Clear,72000.0,,,73000.0,,,,,,
KRDR,07-25-2012,21:00,METAR,,300,12.0,21.0,,9999.0,,30.0,15.0,29.65,1005.2,,,,,,,,,,,,,,,Clear,72000.0,,,73000.0,,,,,,
KRDR,07-25-2012,19:00,METAR,,290,9.0,17.0,,9999.0,,29.0,21.0,29.64,1004.9,,,,,,,,,,,,,,,Clear,72000.0,,,73000.0,,,,,,
KRDR,07-25-2012,18:00,METAR,,320,8.0,,,9999.0,,28.0,21.0,29.65,1005.2,,,,,,,,,,,,,,,2/8 Mostly Clear,72000.0,,FEW,2300.0,,,,,,
KRDR,07-25-2012,17:00,METAR,,310,9.0,,,9999.0,,26.0,22.0,29.65,1005.4,,,,,,,,,,,,,,,7/8 Mostly Cloudy,1700.0,,SCT,1700.0,BKN,3000.0,,,,
KRDR,07-25-2012,16:35,SPECI,,310,6.0,,,9999.0,,26.0,22.0,29.66,1005.5,,,,,,,,,,,,,,,4/8 Partly Cloudy,72000.0,,SCT,1700.0,SCT,2200.0,,,,
KRDR,07-25-2012,16:00,METAR,,310,5.0,,,9999.0,,26.0,22.0,29.66,1005.7,,,,,,,,,,,,,,,7/8 Mostly Cloudy,2000.0,,SCT,1600.0,BKN,2200.0,BKN,2700.0,,
KRDR,07-25-2012,15:26,SPECI,,290,6.0,,,9999.0,,25.0,21.0,29.66,1005.5,,,,,,,,,,,,,,,7/8 Mostly Cloudy,1600.0,,BKN,1700.0,,,,,,
KRDR,07-25-2012,15:00,METAR,,,4.0,,,9999.0,,24.0,21.0,29.66,1005.7,,,,,,,,,,,,,,,7/8 Mostly Cloudy,1900.0,,BKN,1900.0,,,,,,
KRDR,07-25-2012,14:13,SPECI,,210,4.0,,,9999.0,,22.0,21.0,29.67,1006.1,,,,,,,,,,,,,,,7/8 Mostly Cloudy,1800.0,,BKN,1800.0,,,,,,
KRDR,07-25-2012,14:00,METAR,,,0.0,,,9999.0,,21.0,20.0,29.68,1006.1,,,,,,,,,,,,,,,4/8 Partly Cloudy,72000.0,,SCT,200.0,,,,,,
KRDR,07-25-2012,13:42,SPECI,,,0.0,,,9999.0,,21.0,20.0,29.67,1006.1,,,,,,,,,,,,,,,4/8 Partly Cloudy,72000.0,,SCT,200.0,,,,,,
KRDR,07-25-2012,13:35,SPECI,,,0.0,,,9999.0,,20.0,20.0,29.67,1006.1,,,,,,,,,,,,,,,7/8 Mostly Cloudy,200.0,,BKN,200.0,,,,,,
KRDR,07-25-2012,13:19,SPECI,,,0.0,,,3200.0,Mist,20.0,19.0,29.67,1006.1,10,,,,,,,,,,,,,,8/8 Overcast,200.0,,OVC,200.0,,,,,,
KRDR,07-25-2012,13:18,SPECI,,,0.0,,,3200.0,Mist,20.0,19.0,29.67,1006.1,10,,,,,,,,,,,,,,8/8 Overcast,100.0,,OVC,100.0,,,,,,
KRDR,07-25-2012,13:16,SPECI,,,0.0,,,2400.0,Mist,20.0,19.0,29.67,1006.1,10,,,,,,,,,,,,,,8/8 Overcast,100.0,,OVC,100.0,,,,,,
KRDR,07-25-2012,13:13,SPECI,,,0.0,,,1600.0,Mist,20.0,19.0,29.68,1006.2,10,,,,,,,,,,,,,,Sky Obscured (Unable to Estimate),100.0,100.0,,100.0,,,,,,
KRDR,07-25-2012,13:12,SPECI,,,0.0,,,1200.0,Mist,20.0,19.0,29.68,1006.2,10,,,,,,,,,,,,,,Sky Obscured (Unable to Estimate),100.0,100.0,,100.0,,,,,,
KRDR,07-25-2012,13:07,SPECI,,,0.0,,,1200.0,Mist,19.0,19.0,29.67,1006.1,10,,,,,,,,,,,,,,Sky Obscured (Unable to Estimate),100.0,100.0,,100.0,,,,,,
KRDR,07-25-2012,13:00,METAR,,,0.0,,,800.0,Fog,19.0,19.0,29.68,1006.2,30,,,,,,,,,,,,,,Sky Obscured (Unable to Estimate),100.0,100.0,,100.0,,,,,,
KRDR,07-25-2012,12:58,SPECI,,,0.0,,,800.0,Fog,19.0,19.0,29.68,1006.2,30,,,,,,,,,,,,,,Sky Obscured (Unable to Estimate),100.0,100.0,,100.0,,,,,,
KRDR,07-25-2012,12:44,SPECI,,,0.0,,,400.0,Fog,19.0,19.0,29.68,1006.2,30,,,,,,,,,,,,,,Sky Obscured (Unable to Estimate),100.0,100.0,,100.0,,,,,,
KRDR,07-25-2012,12:26,SPECI,,,0.0,,,400.0,Fog,19.0,19.0,29.67,1005.9,30,,,,,,,,,,,,,,Sky Obscured (Unable to Estimate),100.0,100.0,,100.0,,,,,,
KRDR,07-25-2012,12:24,SPECI,,,0.0,,,400.0,Fog,19.0,19.0,29.67,1005.9,30,,,,,,,,,,,,,,Sky Obscured (Unable to Estimate),100.0,100.0,,100.0,,,,,,
KRDR,07-25-2012,12:22,SPECI,,,0.0,,,400.0,Fog,19.0,19.0,29.67,1005.9,30,,,,,,,,,,,,,,Sky Obscured (Unable to Estimate),100.0,100.0,,100.0,,,,,,
KRDR,07-25-2012,12:20,SPECI,,,0.0,,,400.0,Fog,19.0,19.0,29.67,1005.9,30,,,,,,,,,,,,,,Sky Obscured (Unable to Estimate),200.0,100.0,,200.0,,,,,,
KRDR,07-25-2012,12:18,SPECI,,,0.0,,,800.0,Fog,19.0,19.0,29.67,1005.9,30,,,,,,,,,,,,,,Sky Obscured (Unable to Estimate),200.0,100.0,,200.0,,,,,,
KRDR,07-25-2012,12:16,SPECI,,,0.0,,,800.0,Fog,19.0,19.0,29.67,1005.9,30,,,,,,,,,,,,,,Sky Obscured (Unable to Estimate),100.0,100.0,,100.0,,,,,,
KRDR,07-25-2012,12:15,SPECI,,,0.0,,,1200.0,Mist,19.0,19.0,29.67,1005.9,10,,,,,,,,,,,,,,Sky Obscured (Unable to Estimate),100.0,100.0,,100.0,,,,,,
KRDR,07-25-2012,12:13,SPECI,,,0.0,,,1200.0,Mist,19.0,19.0,29.67,1005.9,10,,,,,,,,,,,,,,Sky Obscured (Unable to Estimate),100.0,100.0,,100.0,,,,,,
KRDR,07-25-2012,12:11,SPECI,,,0.0,,,1600.0,Mist,19.0,19.0,29.67,1005.9,10,,,,,,,,,,,,,,Sky Obscured (Unable to Estimate),100.0,100.0,,100.0,,,,,,
KRDR,07-25-2012,12:08,SPECI,,,0.0,,,2800.0,Mist,19.0,18.0,29.66,1005.7,10,,,,,,,,,,,,,,7/8 Mostly Cloudy,100.0,,BKN,100.0,BKN,5000.0,,,,
KRDR,07-25-2012,12:07,SPECI,,,0.0,,,4000.0,Mist,19.0,18.0,29.66,1005.7,10,,,,,,,,,,,,,,7/8 Mostly Cloudy,100.0,,SCT,100.0,BKN,5000.0,,,,
KRDR,07-25-2012,12:01,SPECI,,280,3.0,,,400.0,Fog,19.0,18.0,29.66,1005.7,30,,,,,,,,,,,,,,8/8 Overcast,100.0,,BKN,100.0,OVC,3800.0,,,,
KRDR,07-25-2012,12:00,METAR,,320,3.0,,,9999.0,,18.0,18.0,29.66,1005.6,,,,,,,,,,,,,,1.39 IN,4/8 Partly Cloudy,72000.0,,FEW,200.0,SCT,4000.0,SCT,5000.0,,
KRDR,07-25-2012,11:53,SPECI,,310,2.0,,,9999.0,,18.0,18.0,29.65,,,,,,,,,,,,,,,,,72000.0,,,,,,,,,
KRDR,07-25-2012,11:52,SPECI,,310,2.0,,,9999.0,,18.0,18.0,29.65,,,,,,,,,,,,,,,,,72000.0,,,,,,,,,
KRDR,07-25-2012,11:30,SPECI,,,0.0,,,4800.0,Mist,17.0,17.0,29.67,1005.9,10,,,,,,,,,,,,,,2/8 Mostly Clear,72000.0,,FEW,3900.0,,,,,,
KRDR,07-25-2012,11:27,SPECI,,,0.0,,,3200.0,Mist,17.0,17.0,29.67,1005.9,10,,,,,,,,,,,,,,2/8 Mostly Clear,72000.0,,FEW,3900.0,,,,,,
KRDR,07-25-2012,11:25,SPECI,,,0.0,,,2400.0,Mist,17.0,17.0,29.66,1005.8,10,,,,,,,,,,,,,,Clear,72000.0,,,73000.0,,,,,,
KRDR,07-25-2012,11:21,SPECI,,,0.0,,,1600.0,Mist,17.0,17.0,29.66,1005.7,10,,,,,,,,,,,,,,Clear,72000.0,,,73000.0,,,,,,
KRDR,07-25-2012,11:11,SPECI,,310,4.0,,,9999.0,Shallow Fog or Ice Fog,17.0,17.0,29.66,,,,,12,,,,,,,,,,,Clear,72000.0,,,73000.0,,,,,,
KRDR,07-25-2012,11:08,SPECI,,300,3.0,,,9999.0,Shallow Fog or Ice Fog,17.0,17.0,29.65,,,,,12,,,,,,,,,,,Clear,72000.0,,,73000.0,,,,,,
KRDR,07-25-2012,11:07,SPECI,,,0.0,,,1600.0,Mist,18.0,17.0,29.66,1005.5,10,,,,,,,,,,,,,,Clear,72000.0,,,73000.0,,,,,,
KRDR,07-25-2012,11:02,SPECI,,,0.0,,,4800.0,Mist,18.0,17.0,29.65,1005.4,10,,,,,,,,,,,,,,Clear,72000.0,,,73000.0,,,,,,
KRDR,07-25-2012,11:00,METAR,,,0.0,,,2000.0,Mist,17.0,17.0,29.66,1005.5,10,,,,,,,,,,,,,,Clear,72000.0,,,73000.0,,,,,,
KRDR,07-25-2012,10:51,SPECI,,,0.0,,,1200.0,Mist,17.0,17.0,29.66,1005.7,10,,,,,,,,,,,,,,Clear,72000.0,,,73000.0,,,,,,
KRDR,07-25-2012,10:49,SPECI,,,0.0,,,1600.0,Mist,17.0,17.0,29.66,1005.7,10,,,,,,,,,,,,,,Clear,72000.0,,,73000.0,,,,,,
KRDR,07-25-2012,10:20,SPECI,,20,3.0,,,6400.0,Mist,17.0,17.0,29.65,1005.3,10,,,,,,,,,,,,,,Clear,72000.0,,,73000.0,,,,,,
KRDR,07-25-2012,10:18,SPECI,,20,4.0,,,3200.0,Mist,17.0,17.0,29.65,1005.4,10,,,,,,,,,,,,,,Clear,72000.0,,,73000.0,,,,,,
KRDR,07-25-2012,10:15,SPECI,,10,4.0,,,2400.0,Mist,17.0,17.0,29.65,1005.4,10,,,,,,,,,,,,,,Clear,72000.0,,,73000.0,,,,,,
KRDR,07-25-2012,10:13,SPECI,,10,4.0,,,2000.0,Mist,17.0,17.0,29.65,1005.4,10,,,,,,,,,,,,,,Clear,72000.0,,,73000.0,,,,,,
KRDR,07-25-2012,10:11,SPECI,,10,5.0,,,2400.0,Mist,17.0,17.0,29.66,1005.5,10,,,,,,,,,,,,,,Clear,72000.0,,,73000.0,,,,,,
KRDR,07-25-2012,10:10,SPECI,,10,5.0,,,2800.0,Mist,17.0,17.0,29.66,1005.5,10,,,,,,,,,,,,,,Clear,72000.0,,,73000.0,,,,,,
KRDR,07-25-2012,10:08,SPECI,,20,5.0,,,4000.0,Mist,17.0,17.0,29.66,1005.5,10,,,,,,,,,,,,,,Clear,72000.0,,,73000.0,,,,,,
KRDR,07-25-2012,10:00,METAR,,340,3.0,,,9999.0,,18.0,18.0,29.67,1006.0,,,,,,,,,,,,,,,Clear,72000.0,,,73000.0,,,,,,
KRDR,07-25-2012,09:00,METAR,,310,4.0,,,9999.0,,19.0,18.0,29.67,1006.0,,,,,,,,,,,,,,,Clear,72000.0,,,73000.0,,,,,,
KRDR,07-25-2012,08:00,METAR,,230,6.0,,,9999.0,,19.0,18.0,29.66,1005.8,,,,,,,,,,,,,,,Clear,72000.0,,,73000.0,,,,,,
KRDR,07-25-2012,07:00,METAR,,210,3.0,,,9999.0,,19.0,19.0,29.68,1006.1,,,,,,,,,,,,,,,Clear,72000.0,,,73000.0,,,,,,
KRDR,07-25-2012,06:00,METAR,,180,5.0,,,9999.0,,20.0,19.0,29.68,1006.4,,,,,,,,,,,.01 IN,,1.39 IN,,Clear,72000.0,,,73000.0,,,,,,
KRDR,07-25-2012,05:22,SPECI,,110,15.0,25.0,,9999.0,,20.0,19.0,29.66,1005.8,,,,,,,,,,,,,,,2/8 Mostly Clear,72000.0,,FEW,900.0,,,,,,
KRDR,07-25-2012,05:16,SPECI,,100,18.0,25.0,,9999.0,,21.0,20.0,29.66,1005.6,,,,,,,,,,,,,,,4/8 Partly Cloudy,72000.0,,SCT,3200.0,,,,,,
KRDR,07-25-2012,05:07,SPECI,,90,16.0,,,9999.0,Dry Thunderstorm,21.0,20.0,29.66,1005.6,91,,,,,,,,,,,,,,4/8 Partly Cloudy,72000.0,,SCT,2600.0,,,,,,
KRDR,07-25-2012,05:06,SPECI,,90,15.0,,,9999.0,Thunderstorm and Rain or Snow Showers,21.0,20.0,29.66,1005.5,92,,,,,,,,,,,,,,4/8 Partly Cloudy,72000.0,,SCT,2600.0,,,,,,
KRDR,07-25-2012,05:00,METAR,,90,14.0,29.0,,4800.0,Thunderstorm and Rain or Snow Showers/Mist,20.0,19.0,29.66,1005.5,92,10,,,,,,,,,,,,,7/8 Mostly Cloudy,2500.0,,BKN,2500.0,,,,,,
KRDR,07-25-2012,04:56,SPECI,,90,15.0,29.0,,4000.0,Thunderstorm and Rain or Snow Showers/Mist,20.0,19.0,29.66,1005.5,92,10,,,,,,,,,,,,,7/8 Mostly Cloudy,2500.0,,BKN,2500.0,,,,,,
KRDR,07-25-2012,04:54,SPECI,,100,19.0,29.0,,2400.0,Heavy Thunderstorm and Rain or Snow Showers/Mist,20.0,19.0,29.66,1005.7,95,10,,,,,,,,,,,,,8/8 Overcast,2600.0,,FEW,500.0,OVC,2600.0,,,,
KRDR,07-25-2012,04:53,SPECI,,100,21.0,29.0,,2000.0,Heavy Thunderstorm and Rain or Snow Showers/Mist,20.0,19.0,29.66,1005.6,95,10,,,,,,,,,,,,,8/8 Overcast,2600.0,,FEW,500.0,OVC,2600.0,,,,
KRDR,07-25-2012,04:50,SPECI,,100,23.0,29.0,100/29KTS,1600.0,Heavy Thunderstorm and Rain or Snow Showers/Mist,20.0,19.0,29.68,1006.3,95,10,,,,,,,,,,,,,8/8 Overcast,2400.0,,FEW,500.0,OVC,2400.0,,,,
KRDR,07-25-2012,04:49,SPECI,,90,21.0,25.0,320/29KTS,1200.0,Heavy Thunderstorm and Rain or Snow Showers/Mist,20.0,19.0,29.69,1006.7,95,10,,,,,,,,,,,,,8/8 Overcast,2200.0,,FEW,500.0,OVC,2200.0,,,,
KRDR,07-25-2012,04:47,SPECI,,80,20.0,25.0,320/29KTS,1200.0,Heavy Thunderstorm and Rain or Snow Showers/Mist,20.0,19.0,29.71,1007.2,95,10,,,,,,,,,,,,,8/8 Overcast,1700.0,,FEW,500.0,OVC,1700.0,,,,
KRDR,07-25-2012,04:46,SPECI,,80,21.0,25.0,320/29KTS,1200.0,Heavy Thunderstorm and Rain or Snow Showers/Mist,20.0,19.0,29.71,1007.3,95,10,,,,,,,,,,,,,8/8 Overcast,1300.0,,FEW,500.0,OVC,1300.0,,,,
KRDR,07-25-2012,04:44,SPECI,,80,18.0,21.0,320/29KTS,800.0,Heavy Thunderstorm and Rain or Snow Showers/Fog,20.0,20.0,29.73,1008.0,95,30,,,,,,,,,,,,,8/8 Overcast,1100.0,,FEW,500.0,OVC,1100.0,,,,
KRDR,07-25-2012,04:43,SPECI,,60,18.0,21.0,320/29KTS,800.0,Heavy Thunderstorm and Rain or Snow Showers/Fog,20.0,20.0,29.74,1008.4,95,30,,,,,,,,,,,,,8/8 Overcast,1100.0,,FEW,500.0,BKN,1100.0,OVC,3000.0,,
KRDR,07-25-2012,04:40,SPECI,,40,16.0,21.0,320/29KTS,800.0,Heavy Thunderstorm and Rain or Snow Showers/Fog,21.0,20.0,29.77,1009.3,95,30,,,,,,,,,,,,,8/8 Overcast,500.0,,FEW,500.0,BKN,900.0,OVC,3100.0,,
KRDR,07-25-2012,04:37,SPECI,,340,12.0,29.0,320/29KTS,800.0,Heavy Thunderstorm and Rain or Snow Showers/Fog,21.0,20.0,29.81,1010.5,95,30,,,,,,,,,,,,,8/8 Overcast,500.0,,FEW,500.0,BKN,900.0,OVC,3100.0,,
KRDR,07-25-2012,04:34,SPECI,,320,15.0,29.0,320/29KTS,1600.0,Heavy Thunderstorm and Rain or Snow Showers/Mist,21.0,20.0,29.81,1010.7,95,10,,,,,,,,,,,,,8/8 Overcast,1000.0,,SCT,500.0,BKN,1000.0,OVC,3200.0,,
KRDR,07-25-2012,04:33,SPECI,,330,15.0,29.0,320/29KTS,2000.0,Heavy Thunderstorm and Rain or Snow Showers/Mist,21.0,20.0,29.81,1010.6,95,10,,,,,,,,,,,,,8/8 Overcast,700.0,,SCT,500.0,BKN,1200.0,OVC,3200.0,,
KRDR,07-25-2012,04:31,SPECI,,320,21.0,29.0,320/29KTS,2800.0,Heavy Thunderstorm and Rain or Snow Showers/Mist,21.0,20.0,29.80,1010.3,95,10,,,,,,,,,,,,,8/8 Overcast,700.0,,SCT,500.0,BKN,1400.0,OVC,3200.0,,
KRDR,07-25-2012,04:29,SPECI,,320,23.0,29.0,320/29KTS,8000.0,Thunderstorm and Rain or Snow Showers/Mist,21.0,20.0,29.79,1009.8,92,10,,,,,,,,,,,,,8/8 Overcast,1500.0,,SCT,500.0,BKN,1500.0,OVC,3200.0,,
KRDR,07-25-2012,04:25,SPECI,,340,19.0,24.0,,9999.0,Thunderstorm and Rain or Snow Showers,21.0,20.0,29.76,1008.8,92,,,,,,,,,,,,,,8/8 Overcast,3100.0,,FEW,500.0,SCT,1500.0,OVC,3200.0,,
KRDR,07-25-2012,04:23,SPECI,,340,14.0,,,9999.0,Light Rain,21.0,21.0,29.75,1008.5,61,,,,,,,,,,,,,,8/8 Overcast,3100.0,,FEW,500.0,OVC,3200.0,,,,
KRDR,07-25-2012,04:11,SPECI,,30,8.0,,,9999.0,Light Rain,22.0,21.0,29.73,1007.9,61,,,,,,,,,,,,,,8/8 Overcast,3300.0,,OVC,3400.0,,,,,,
KRDR,07-25-2012,04:00,METAR,,60,6.0,,,9999.0,,22.0,21.0,29.74,1008.4,,,,,,,,,,,.2 IN,,,,7/8 Mostly Cloudy,3900.0,,BKN,4000.0,BKN,6900.0,BKN,11000.0,,
KRDR,07-25-2012,03:37,SPECI,,60,5.0,,,9999.0,,22.0,21.0,29.75,1008.7,,,,,,,,,,,,,,,8/8 Overcast,8000.0,,FEW,3300.0,BKN,7900.0,OVC,9900.0,,
KRDR,07-25-2012,03:25,SPECI,,50,6.0,,,9999.0,Light Rain/Mist,23.0,22.0,29.76,1009.0,61,10,,,,,,,,,,,,,8/8 Overcast,3200.0,,FEW,3300.0,BKN,4800.0,OVC,8900.0,,
KRDR,07-25-2012,03:00,METAR,,30,6.0,,,8000.0,Rain/Mist,23.0,22.0,29.77,1009.3,62,10,,,,,,,,,.06 IN,.09 IN,,,8/8 Overcast,3900.0,,BKN,4000.0,OVC,5900.0,,,,
KRDR,07-25-2012,02:42,SPECI,,350,6.0,,,9999.0,Heavy Rain/Mist,23.0,22.0,29.78,1009.7,63,10,,,,,,,,,,,,,8/8 Overcast,3900.0,,BKN,4000.0,OVC,5000.0,,,,
KRDR,07-25-2012,02:30,SPECI,,320,4.0,,,9999.0,Light Drizzle,24.0,22.0,29.78,1009.6,51,,,,,,,,,,,,,,8/8 Overcast,4200.0,,SCT,4100.0,BKN,5000.0,OVC,12000.0,,
KRDR,07-25-2012,02:26,SPECI,,320,5.0,,,9999.0,,24.0,22.0,29.78,1009.6,,,,,,,,,,,,,,,8/8 Overcast,4900.0,,SCT,4200.0,BKN,5000.0,OVC,12000.0,,
KRDR,07-25-2012,02:00,METAR,,30,3.0,,,9999.0,Light Drizzle,25.0,22.0,29.76,1009.0,51,,,,,,,,,,.02 IN,,,,7/8 Mostly Cloudy,4900.0,,FEW,4500.0,BKN,5000.0,,,,
KRDR,07-25-2012,01:37,SPECI,,60,4.0,,,9999.0,,26.0,22.0,29.76,1009.0,,,,,,,,,,,,,,,7/8 Mostly Cloudy,4900.0,,BKN,5000.0,,,,,,
KRDR,07-25-2012,01:21,SPECI,,,0.0,,,9999.0,,26.0,22.0,29.77,1009.2,,,,,,,,,,,,,,,4/8 Partly Cloudy,72000.0,,FEW,5000.0,SCT,6900.0,,,,
KRDR,07-25-2012,01:00,METAR,,110,4.0,,,9999.0,Light Rain,27.0,21.0,29.78,1009.6,61,,,,,,,,,,.01 IN,,,,8/8 Overcast,8000.0,,FEW,4700.0,SCT,5900.0,OVC,7900.0,,
KRDR,07-25-2012,00:41,SPECI,,140,6.0,,,9999.0,,28.0,19.0,29.78,1009.6,,,,,,,,,,,,,,,4/8 Partly Cloudy,72000.0,,FEW,4800.0,SCT,6900.0,,,,
KRDR,07-25-2012,00:00,METAR,,130,6.0,,,9999.0,,29.0,19.0,29.79,1010.0,,,,,,,,,,,,,,,8/8 Overcast,6000.0,,OVC,5900.0,,,,,,
KRDR,07-24-2012,23:00,METAR,,120,10.0,,,9999.0,,31.0,18.0,29.79,1010.0,,,,,,,,,,,,,,,Clear,72000.0,,,73000.0,,,,,,
KRDR,07-24-2012,22:00,METAR,,130,7.0,,,9999.0,,31.0,17.0,29.81,1010.5,,,,,,,,,,,,,,,Clear,72000.0,,,73000.0,,,,,,
KRDR,07-24-2012,21:00,METAR,,120,7.0,,,9999.0,,31.0,15.0,29.84,1011.5,,,,,,,,,,,,,,,Clear,72000.0,,,73000.0,,,,,,
KRDR,07-24-2012,20:00,METAR,,110,12.0,,,9999.0,,30.0,15.0,29.86,1012.2,,,,,,,,,,,,,,,Clear,72000.0,,,73000.0,,,,,,
KRDR,07-24-2012,19:00,METAR,,130,9.0,,,9999.0,,29.0,15.0,29.89,1013.1,,,,,,,,,,,,,,,2/8 Mostly Clear,72000.0,,FEW,12000.0,,,,,,
KRDR,07-24-2012,18:00,METAR,,130,11.0,,,9999.0,,29.0,14.0,29.91,1014.0,,,,,,,,,,,,,,,Clear,72000.0,,,73000.0,,,,,,
KRDR,07-24-2012,17:00,METAR,,120,11.0,,,9999.0,,27.0,15.0,29.93,1014.5,,,,,,,,,,,,,,,2/8 Mostly Clear,72000.0,,FEW,9900.0,,,,,,
KRDR,07-24-2012,16:00,METAR,,120,10.0,,,9999.0,,26.0,16.0,29.95,1015.1,,,,,,,,,,,,,,,Clear,72000.0,,,73000.0,,,,,,
KRDR,07-24-2012,15:00,METAR,,120,10.0,,,9999.0,,24.0,16.0,29.95,1015.2,,,,,,,,,,,,,,,Clear,72000.0,,,73000.0,,,,,,
KRDR,07-24-2012,14:00,METAR,,120,5.0,,,9999.0,,20.0,16.0,29.98,1016.1,,,,,,,,,,,,,,,Clear,72000.0,,,73000.0,,,,,,
KRDR,07-24-2012,13:00,METAR,,80,3.0,,,9999.0,,17.0,14.0,29.98,1016.2,,,,,,,,,,,,,,,Clear,72000.0,,,73000.0,,,,,,
KRDR,07-24-2012,12:00,METAR,,,0.0,,,9999.0,,12.0,11.0,29.99,1016.4,,,,,,,,,,,,,,,Clear,72000.0,,,73000.0,,,,,,
KRDR,07-24-2012,11:00,METAR,,20,5.0,,,9999.0,,11.0,10.0,29.99,1016.4,,,,,,,,,,,,,,,Clear,72000.0,,,73000.0,,,,,,
KRDR,07-24-2012,10:00,METAR,,,0.0,,,9999.0,,11.0,11.0,29.99,1016.6,,,,,,,,,,,,,,,Clear,72000.0,,,73000.0,,,,,,
KRDR,07-24-2012,09:00,METAR,,,0.0,,,9999.0,,12.0,11.0,29.99,1016.6,,,,,,,,,,,,,,,Clear,72000.0,,,73000.0,,,,,,
KRDR,07-24-2012,08:00,METAR,,,0.0,,,9999.0,,13.0,12.0,29.99,1016.6,,,,,,,,,,,,,,,Clear,72000.0,,,73000.0,,,,,,
KRDR,07-24-2012,07:00,METAR,,,0.0,,,9999.0,,14.0,13.0,29.99,1016.5,,,,,,,,,,,,,,,Clear,72000.0,,,73000.0,,,,,,
KRDR,07-24-2012,06:00,METAR,,340,3.0,,,9999.0,,14.0,13.0,29.98,1016.2,,,,,,,,,,,,,,,Clear,72000.0,,,73000.0,,,,,,
KRDR,07-24-2012,05:00,METAR,,,0.0,,,9999.0,,16.0,15.0,29.98,1016.1,,,,,,,,,,,,,,,Clear,72000.0,,,73000.0,,,,,,
KRDR,07-24-2012,04:00,METAR,,,0.0,,,9999.0,Mist,17.0,15.0,29.99,1016.4,,,,10,,,,,,,,,,,Clear,72000.0,,,73000.0,,,,,,
KRDR,07-24-2012,03:51,SPECI,,,0.0,,,8000.0,Mist,17.0,15.0,29.99,1016.4,10,,,,,,,,,,,,,,Clear,72000.0,,,73000.0,,,,,,
KRDR,07-24-2012,03:48,SPECI,,,0.0,,,8000.0,Mist,17.0,15.0,29.99,1016.4,10,,,,,,,,,,,,,,Clear,72000.0,,,73000.0,,,,,,
KRDR,07-24-2012,03:32,SPECI,,,0.0,,,4800.0,Mist,17.0,15.0,30.00,,,,,10,,,,,,,,,,,Clear,72000.0,,,73000.0,,,,,,
KRDR,07-24-2012,03:26,SPECI,,,0.0,,,6400.0,Mist,17.0,16.0,29.99,1016.7,10,,,,,,,,,,,,,,Clear,72000.0,,,73000.0,,,,,,
KRDR,07-24-2012,03:00,METAR,,,0.0,,,9999.0,,19.0,16.0,29.99,1016.5,,,,,,,,,,,,,,,Clear,72000.0,,,73000.0,,,,,,
KRDR,07-24-2012,02:00,METAR,,,0.0,,,9999.0,,23.0,17.0,29.98,1016.3,,,,,,,,,,,,,,,Clear,72000.0,,,73000.0,,,,,,
KRDR,07-24-2012,01:00,METAR,,,0.0,,,9999.0,,27.0,15.0,29.99,1016.4,,,,,,,,,,,,,,,Clear,72000.0,,,73000.0,,,,,,
KRDR,07-24-2012,00:00,METAR,,70,5.0,,,9999.0,,27.0,15.0,29.99,1016.5,,,,,,,,,,,,,,,Clear,72000.0,,,73000.0,,,,,,
KRDR,07-23-2012,23:00,METAR,,80,5.0,,,9999.0,,26.0,16.0,30.00,1016.7,,,,,,,,,,,,,,,Clear,72000.0,,,73000.0,,,,,,
KRDR,07-23-2012,22:00,METAR,,,6.0,,,9999.0,,26.0,16.0,30.00,1017.0,,,,,,,,,,,,,,,Clear,72000.0,,,73000.0,,,,,,
KRDR,07-23-2012,21:00,METAR,,40,3.0,,,9999.0,,26.0,15.0,30.03,1017.7,,,,,,,,,,,,,,,Clear,72000.0,,,73000.0,,,,,,
KRDR,07-23-2012,20:00,METAR,,,0.0,,,9999.0,,26.0,16.0,30.03,1017.8,,,,,,,,,,,,,,,7/8 Mostly Cloudy,4000.0,,BKN,4100.0,,,,,,
KRDR,07-23-2012,19:00,METAR,,30,9.0,,,9999.0,,25.0,16.0,30.02,1017.4,,,,,,,,,,,,,,,Clear,72000.0,,,73000.0,,,,,,
KRDR,07-23-2012,18:00,METAR,,40,8.0,,,9999.0,,25.0,17.0,30.02,1017.5,,,,,,,,,,,,,,,4/8 Partly Cloudy,72000.0,,SCT,3000.0,,,,,,
KRDR,07-23-2012,17:00,METAR,,50,6.0,,,9999.0,,24.0,18.0,30.03,1017.8,,,,,,,,,,,,,,,7/8 Mostly Cloudy,2300.0,,BKN,2500.0,,,,,,
KRDR,07-23-2012,16:45,SPECI,,40,6.0,,,9999.0,,24.0,17.0,30.03,1017.8,,,,,,,,,,,,,,,4/8 Partly Cloudy,72000.0,,SCT,2400.0,,,,,,
KRDR,07-23-2012,16:00,METAR,,30,9.0,,,9999.0,,23.0,18.0,30.01,1017.3,,,,,,,,,,,,,,,7/8 Mostly Cloudy,1700.0,,BKN,1900.0,,,,,,
KRDR,07-23-2012,15:34,SPECI,,40,8.0,,,9999.0,,23.0,17.0,30.02,1017.4,,,,,,,,,,,,,,,7/8 Mostly Cloudy,1500.0,,BKN,1800.0,,,,,,
KRDR,07-23-2012,15:03,SPECI,,30,10.0,,,9999.0,,23.0,18.0,30.01,1017.3,,,,,,,,,,,,,,,4/8 Partly Cloudy,72000.0,,SCT,1500.0,,,,,,
KRDR,07-23-2012,15:01,SPECI,,30,11.0,,,9999.0,,23.0,18.0,30.02,1017.4,,,,,,,,,,,,,,,7/8 Mostly Cloudy,1500.0,,BKN,1500.0,,,,,,
KRDR,07-23-2012,15:00,METAR,,40,9.0,,,9999.0,,22.0,17.0,30.02,1017.5,,,,,,,,,,,,,,,4/8 Partly Cloudy,72000.0,,SCT,1400.0,,,,,,
KRDR,07-23-2012,14:00,METAR,,360,10.0,,,9999.0,,21.0,17.0,30.02,1017.6,,,,,,,,,,,,,,,Clear,72000.0,,,73000.0,,,,,,
KRDR,07-23-2012,13:00,METAR,,350,7.0,,,9999.0,,19.0,17.0,30.02,1017.4,,,,,,,,,,,,,,,Clear,72000.0,,,73000.0,,,,,,
KRDR,07-23-2012,12:00,METAR,,,0.0,,,9999.0,,17.0,16.0,30.00,1016.8,,,,,,,,,,,,,,,Clear,72000.0,,,73000.0,,,,,,
KRDR,07-23-2012,11:00,METAR,,320,5.0,,,9999.0,,16.0,15.0,29.99,1016.6,,,,,,,,,,,,,,,Clear,72000.0,,,73000.0,,,,,,
KRDR,07-23-2012,10:00,METAR,,340,8.0,,,9999.0,,18.0,15.0,29.97,1016.0,,,,,,,,,,,,,,,Clear,72000.0,,,73000.0,,,,,,
KRDR,07-23-2012,09:00,METAR,,290,6.0,,,9999.0,,17.0,15.0,29.96,1015.6,,,,,,,,,,,,,,,Clear,72000.0,,,73000.0,,,,,,
KRDR,07-23-2012,08:00,METAR,,340,7.0,,,9999.0,,19.0,16.0,29.94,1014.9,,,,,,,,,,,,,,,Clear,72000.0,,,73000.0,,,,,,
KRDR,07-23-2012,07:00,METAR,,320,6.0,,,9999.0,,20.0,16.0,29.94,1015.0,,,,,,,,,,,,,,,Clear,72000.0,,,73000.0,,,,,,
KRDR,07-23-2012,06:00,METAR,,340,8.0,,,9999.0,,22.0,16.0,29.94,1014.8,,,,,,,,,,,,,,,Clear,72000.0,,,73000.0,,,,,,
KRDR,07-23-2012,05:00,METAR,,340,8.0,,,9999.0,,22.0,16.0,29.94,1014.7,,,,,,,,,,,,,,,Clear,72000.0,,,73000.0,,,,,,
KRDR,07-23-2012,04:00,METAR,,320,4.0,,,9999.0,,21.0,15.0,29.92,1014.1,,,,,,,,,,,,,,,Clear,72000.0,,,73000.0,,,,,,
KRDR,07-23-2012,03:00,METAR,,360,4.0,,,9999.0,,23.0,15.0,29.90,1013.4,,,,,,,,,,,,,,,Clear,72000.0,,,73000.0,,,,,,
KRDR,07-23-2012,02:00,METAR,,280,7.0,,,9999.0,,28.0,15.0,29.87,1012.5,,,,,,,,,,,,,,,Clear,72000.0,,,73000.0,,,,,,
KRDR,07-23-2012,01:00,METAR,,290,9.0,,,9999.0,,31.0,13.0,29.85,1012.0,,,,,,,,,,,,,,,Clear,72000.0,,,73000.0,,,,,,
KRDR,07-23-2012,00:00,METAR,,310,10.0,,,9999.0,,33.0,14.0,29.83,1011.2,,,,,,,,,,,,,,,Clear,72000.0,,,73000.0,,,,,,
KRDR,07-22-2012,23:00,METAR,,330,9.0,,,9999.0,,34.0,15.0,29.84,1011.5,,,,,,,,,,,,,,,Clear,72000.0,,,73000.0,,,,,,
KRDR,07-22-2012,22:00,METAR,,320,9.0,,,9999.0,,34.0,15.0,29.85,1011.8,,,,,,,,,,,,,,,Clear,72000.0,,,73000.0,,,,,,
KRDR,07-22-2012,21:00,METAR,,330,8.0,,,9999.0,,34.0,16.0,29.85,1011.9,,,,,,,,,,,,,,,Clear,72000.0,,,73000.0,,,,,,
KRDR,07-22-2012,20:00,METAR,,330,10.0,,,9999.0,,34.0,18.0,29.85,1011.9,,,,,,,,,,,,,,,Clear,72000.0,,,73000.0,,,,,,
KRDR,07-22-2012,19:00,METAR,,320,10.0,,,9999.0,,34.0,22.0,29.85,1012.1,,,,,,,,,,,,,,,Clear,72000.0,,,73000.0,,,,,,
KRDR,07-22-2012,18:00,METAR,,300,8.0,,,9999.0,,34.0,23.0,29.85,1012.1,,,,,,,,,,,,,,,Clear,72000.0,,,73000.0,,,,,,
KRDR,07-22-2012,17:00,METAR,,260,8.0,,,9999.0,,32.0,23.0,29.86,1012.1,,,,,,,,,,,,,,,Clear,72000.0,,,73000.0,,,,,,
KRDR,07-22-2012,16:00,METAR,,220,10.0,,,9999.0,,29.0,22.0,29.85,1012.0,,,,,,,,,,,,,,,Clear,72000.0,,,73000.0,,,,,,
KRDR,07-22-2012,15:00,METAR,,200,7.0,,,9999.0,,27.0,21.0,29.87,1012.7,,,,,,,,,,,,,,,Clear,72000.0,,,73000.0,,,,,,
KRDR,07-22-2012,14:00,METAR,,200,8.0,,,9999.0,,25.0,19.0,29.89,1013.2,,,,,,,,,,,,,,,Clear,72000.0,,,73000.0,,,,,,
KRDR,07-22-2012,13:00,METAR,,170,6.0,,,9999.0,,22.0,17.0,29.89,1013.3,,,,,,,,,,,,,,,Clear,72000.0,,,73000.0,,,,,,
KRDR,07-22-2012,12:00,METAR,,140,4.0,,,9999.0,,19.0,16.0,29.90,1013.5,,,,,,,,,,,,,,,Clear,72000.0,,,73000.0,,,,,,
KRDR,07-22-2012,11:00,METAR,,340,3.0,,,9999.0,,19.0,15.0,29.91,1013.9,,,,,,,,,,,,,,,Clear,72000.0,,,73000.0,,,,,,
KRDR,07-22-2012,10:00,METAR,,170,7.0,,,9999.0,,20.0,15.0,29.90,1013.4,,,,,,,,,,,,,,,Clear,72000.0,,,73000.0,,,,,,
KRDR,07-22-2012,09:00,METAR,,190,8.0,,,9999.0,,20.0,16.0,29.93,1014.4,,,,,,,,,,,,,,,Clear,72000.0,,,73000.0,,,,,,
KRDR,07-22-2012,08:00,METAR,,210,3.0,,,9999.0,,19.0,16.0,29.94,1014.7,,,,,,,,,,,,,,,Clear,72000.0,,,73000.0,,,,,,
KRDR,07-22-2012,07:00,METAR,,,0.0,,,9999.0,,18.0,16.0,29.95,1015.1,,,,,,,,,,,,,,,Clear,72000.0,,,73000.0,,,,,,
KRDR,07-22-2012,06:00,METAR,,220,3.0,,,9999.0,,18.0,17.0,29.95,1015.2,,,,,,,,,,,,,,,Clear,72000.0,,,73000.0,,,,,,
KRDR,07-22-2012,05:00,METAR,,200,3.0,,,9999.0,,19.0,17.0,29.95,1015.3,,,,,,,,,,,,,,,Clear,72000.0,,,73000.0,,,,,,
KRDR,07-22-2012,04:00,METAR,,,0.0,,,9999.0,,19.0,16.0,29.97,1016.0,,,,,,,,,,,,,,,Clear,72000.0,,,73000.0,,,,,,
KRDR,07-22-2012,03:00,METAR,,,0.0,,,9999.0,,22.0,17.0,29.97,1015.7,,,,,,,,,,,,,,,Clear,72000.0,,,73000.0,,,,,,
KRDR,07-22-2012,02:00,METAR,,,0.0,,,9999.0,,27.0,17.0,29.96,1015.6,,,,,,,,,,,,,,,Clear,72000.0,,,73000.0,,,,,,
KRDR,07-22-2012,01:00,METAR,,,0.0,,,9999.0,,28.0,14.0,29.98,1016.2,,,,,,,,,,,,,,,Clear,72000.0,,,73000.0,,,,,,
KRDR,07-22-2012,00:00,METAR,,150,3.0,,,9999.0,,29.0,10.0,29.99,1016.5,,,,,,,,,,,,,,,Clear,72000.0,,,73000.0,,,,,,
KRDR,07-21-2012,23:00,METAR,,150,5.0,,,9999.0,,30.0,10.0,30.00,1016.9,,,,,,,,,,,,,,,Clear,72000.0,,,73000.0,,,,,,
KRDR,07-21-2012,22:00,METAR,,,4.0,,,9999.0,,30.0,9.0,30.02,1017.6,,,,,,,,,,,,,,,Clear,72000.0,,,73000.0,,,,,,
KRDR,07-21-2012,21:00,METAR,,180,5.0,,,9999.0,,29.0,11.0,30.03,1017.9,,,,,,,,,,,,,,,Clear,72000.0,,,73000.0,,,,,,
KRDR,07-21-2012,20:00,METAR,,130,7.0,,,9999.0,,29.0,11.0,30.05,1018.4,,,,,,,,,,,,,,,Clear,72000.0,,,73000.0,,,,,,
KRDR,07-21-2012,19:00,METAR,,120,9.0,,,9999.0,,28.0,12.0,30.06,1018.7,,,,,,,,,,,,,,,Clear,72000.0,,,73000.0,,,,,,
KRDR,07-21-2012,18:00,METAR,,90,6.0,,,9999.0,,28.0,11.0,30.08,1019.5,,,,,,,,,,,,,,,Clear,72000.0,,,73000.0,,,,,,
KRDR,07-21-2012,17:00,METAR,,100,7.0,,,9999.0,,27.0,10.0,30.10,1020.3,,,,,,,,,,,,,,,Clear,72000.0,,,73000.0,,,,,,
KRDR,07-21-2012,16:00,METAR,,110,3.0,,,9999.0,,26.0,13.0,30.12,1020.8,,,,,,,,,,,,,,,Clear,72000.0,,,73000.0,,,,,,
KRDR,07-21-2012,15:00,METAR,,110,4.0,,,9999.0,,24.0,13.0,30.11,1020.4,,,,,,,,,,,,,,,Clear,72000.0,,,73000.0,,,,,,
KRDR,07-21-2012,14:00,METAR,,100,3.0,,,9999.0,,22.0,14.0,30.11,1020.3,,,,,,,,,,,,,,,Clear,72000.0,,,73000.0,,,,,,
KRDR,07-21-2012,13:00,METAR,,,0.0,,,9999.0,,19.0,14.0,30.09,1019.7,,,,,,,,,,,,,,,Clear,72000.0,,,73000.0,,,,,,
KRDR,07-21-2012,12:00,METAR,,,0.0,,,9999.0,,17.0,15.0,30.07,1019.1,,,,,,,,,,,,,,,Clear,72000.0,,,73000.0,,,,,,
KRDR,07-21-2012,11:00,METAR,,20,6.0,,,9999.0,,16.0,14.0,30.06,1018.9,,,,,,,,,,,,,,,Clear,72000.0,,,73000.0,,,,,,
KRDR,07-21-2012,10:00,METAR,,10,6.0,,,9999.0,,16.0,14.0,30.06,1018.9,,,,,,,,,,,,,,,Clear,72000.0,,,73000.0,,,,,,
KRDR,07-21-2012,09:00,METAR,,360,6.0,,,9999.0,,16.0,15.0,30.07,1019.3,,,,,,,,,,,,,,,Clear,72000.0,,,73000.0,,,,,,
KRDR,07-21-2012,08:00,METAR,,330,4.0,,,9999.0,,17.0,15.0,30.08,1019.5,,,,,,,,,,,,,,,Clear,72000.0,,,73000.0,,,,,,
KRDR,07-21-2012,07:00,METAR,,360,5.0,,,9999.0,,18.0,15.0,30.07,1019.0,,,,,,,,,,,,,,,Clear,72000.0,,,73000.0,,,,,,
KRDR,07-21-2012,06:00,METAR,,10,6.0,,,9999.0,,20.0,16.0,30.05,1018.6,,,,,,,,,,,,,,,Clear,72000.0,,,73000.0,,,,,,
KRDR,07-21-2012,05:00,METAR,,350,7.0,,,9999.0,,22.0,17.0,30.03,1017.8,,,,,,,,,,,,,,,Clear,72000.0,,,73000.0,,,,,,
KRDR,07-21-2012,04:00,METAR,,10,6.0,,,9999.0,,23.0,19.0,30.02,1017.4,,,,,,,,,,,,,,,Clear,72000.0,,,73000.0,,,,,,
KRDR,07-21-2012,03:00,METAR,,290,3.0,,,9999.0,,23.0,19.0,30.03,1017.7,,,,,,,,,,,,,,,Clear,72000.0,,,73000.0,,,,,,
KRDR,07-21-2012,02:00,METAR,,,0.0,,,9999.0,,25.0,19.0,30.02,1017.4,,,,,,,,,,,,,,,Clear,72000.0,,,73000.0,,,,,,
KRDR,07-21-2012,01:00,METAR,,30,4.0,,,9999.0,,27.0,19.0,30.01,1017.3,,,,,,,,,,,,,,,Clear,72000.0,,,73000.0,,,,,,
KRDR,07-21-2012,00:00,METAR,,10,6.0,,,9999.0,,28.0,19.0,30.00,1017.0,,,,,,,,,,,,,,,Clear,72000.0,,,73000.0,,,,,,
KRDR,07-20-2012,23:00,METAR,,10,9.0,,,9999.0,,31.0,18.0,30.00,1016.8,,,,,,,,,,,,,,,Clear,72000.0,,,73000.0,,,,,,
KRDR,07-20-2012,22:00,METAR,,20,9.0,,,9999.0,,32.0,20.0,29.99,1016.4,,,,,,,,,,,,,,,Clear,72000.0,,,73000.0,,,,,,
KRDR,07-20-2012,21:00,METAR,,10,11.0,15.0,,9999.0,,31.0,20.0,29.99,1016.7,,,,,,,,,,,,,,,Clear,72000.0,,,73000.0,,,,,,
KRDR,07-20-2012,20:00,METAR,,10,10.0,,,9999.0,,32.0,21.0,29.99,1016.6,,,,,,,,,,,,,,,Clear,72000.0,,,73000.0,,,,,,
KRDR,07-20-2012,19:00,METAR,,20,10.0,,,9999.0,,31.0,21.0,30.00,1016.7,,,,,,,,,,,,,,,Clear,72000.0,,,73000.0,,,,,,
KRDR,07-20-2012,18:00,METAR,,350,10.0,,,9999.0,,31.0,22.0,30.01,1017.1,,,,,,,,,,,,,,,Clear,72000.0,,,73000.0,,,,,,
KRDR,07-20-2012,17:00,METAR,,10,8.0,,,9999.0,,30.0,23.0,30.02,1017.5,,,,,,,,,,,,,,,Clear,72000.0,,,73000.0,,,,,,
KRDR,07-20-2012,16:00,METAR,,10,8.0,,,9999.0,,32.0,22.0,30.02,1017.4,,,,,,,,,,,,,,,Clear,72000.0,,,73000.0,,,,,,
KRDR,07-20-2012,15:00,METAR,,340,6.0,,,9999.0,,30.0,23.0,30.00,1017.0,,,,,,,,,,,,,,,Clear,72000.0,,,73000.0,,,,,,
KRDR,07-20-2012,14:00,METAR,,340,9.0,15.0,,9999.0,,30.0,20.0,29.98,1016.1,,,,,,,,,,,,,,,Clear,72000.0,,,73000.0,,,,,,
KRDR,07-20-2012,13:00,METAR,,240,10.0,,,9999.0,,26.0,22.0,29.95,1015.1,,,,,,,,,,,,,,,Clear,72000.0,,,73000.0,,,,,,
KRDR,07-20-2012,12:00,METAR,,240,5.0,,,9999.0,,24.0,22.0,29.94,1015.0,,,,,,,,,,,,,,.08 IN,Clear,72000.0,,,73000.0,,,,,,
KRDR,07-20-2012,11:00,METAR,,180,8.0,,,9999.0,,24.0,22.0,29.93,1014.6,,,,,,,,,,,,,,,Clear,72000.0,,,73000.0,,,,,,
KRDR,07-20-2012,10:00,METAR,,200,7.0,,,9999.0,,24.0,23.0,29.96,1015.5,,,,,,,,,,,,,,,7/8 Mostly Cloudy,1500.0,,BKN,1600.0,,,,,,
KRDR,07-20-2012,09:51,SPECI,,210,7.0,,,9999.0,,24.0,23.0,29.96,1015.6,,,,,,,,,,,,,,,7/8 Mostly Cloudy,1600.0,,BKN,1600.0,,,,,,
KRDR,07-20-2012,09:00,METAR,,150,9.0,,,9999.0,Thunderstorm,24.0,23.0,29.94,1014.8,,,,17,,,,,,,,,,,Clear,72000.0,,,73000.0,,,,,,
KRDR,07-20-2012,08:00,METAR,,160,9.0,,,9999.0,,25.0,23.0,29.95,1015.2,,,,,,,,,,,,,,,Clear,72000.0,,,73000.0,,,,,,
KRDR,07-20-2012,07:00,METAR,,140,7.0,,,9999.0,,25.0,23.0,29.96,1015.6,,,,,,,,,,,,,,,Clear,72000.0,,,73000.0,,,,,,
KRDR,07-20-2012,06:00,METAR,,150,5.0,,,9999.0,,26.0,23.0,29.95,1015.3,,,,,,,,,,,,,,,Clear,72000.0,,,73000.0,,,,,,
KRDR,07-20-2012,05:00,METAR,,230,9.0,,,9999.0,,26.0,23.0,29.92,1014.3,,,,,,,,,,,,,,,Clear,72000.0,,,73000.0,,,,,,
KRDR,07-20-2012,04:00,METAR,,190,12.0,,,9999.0,,26.0,23.0,29.90,1013.5,,,,,,,,,,,,,,,Clear,72000.0,,,73000.0,,,,,,
KRDR,07-20-2012,03:00,METAR,,180,12.0,,,9999.0,,25.0,20.0,29.89,1013.1,,,,,,,,,,,,,,,Clear,72000.0,,,73000.0,,,,,,
KRDR,07-20-2012,02:00,METAR,,190,9.0,,,9999.0,,24.0,18.0,29.90,1013.6,,,,,,,,,,,,,,,Clear,72000.0,,,73000.0,,,,,,
KRDR,07-20-2012,01:00,METAR,,150,8.0,,,9999.0,,26.0,19.0,29.90,1013.6,,,,,,,,,,,,,,,Clear,72000.0,,,73000.0,,,,,,
KRDR,07-20-2012,00:00,METAR,,180,11.0,,310/31KTS,9999.0,,24.0,19.0,29.94,1014.8,,,,,,,,,,,.08 IN,,.08 IN,,Clear,72000.0,,,73000.0,,,,,,
KRDR,07-19-2012,23:45,SPECI,,190,12.0,,310/31KTS,9999.0,,23.0,19.0,29.95,1015.1,,,,,,,,,,,,,,,2/8 Mostly Clear,72000.0,,FEW,1000.0,,,,,,
KRDR,07-19-2012,23:35,SPECI,,180,14.0,,310/31KTS,9999.0,,23.0,19.0,29.95,1015.3,,,,,,,,,,,,,,,2/8 Mostly Clear,72000.0,,FEW,4400.0,,,,,,
KRDR,07-19-2012,23:33,SPECI,,170,15.0,,310/31KTS,9999.0,Dry Thunderstorm,23.0,19.0,29.96,1015.4,91,,,,,,,,,,,,,,4/8 Partly Cloudy,72000.0,,SCT,5000.0,,,,,,
KRDR,07-19-2012,23:26,SPECI,,180,15.0,,310/31KTS,9999.0,Dry Thunderstorm,23.0,17.0,29.98,1016.1,91,,,,,,,,,,,,,,4/8 Partly Cloudy,72000.0,,SCT,5000.0,SCT,6900.0,,,,
KRDR,07-19-2012,23:11,SPECI,,60,9.0,,310/31KTS,8000.0,Heavy Thunderstorm and Rain or Snow Showers,23.0,17.0,29.97,1015.8,95,,,,,,,,,,,,,,8/8 Overcast,4900.0,,FEW,500.0,SCT,5900.0,OVC,7900.0,,
KRDR,07-19-2012,23:09,SPECI,,40,9.0,31.0,310/31KTS,9999.0,Thunderstorm and Rain or Snow Showers,24.0,17.0,29.98,1016.3,92,,,,,,,,,,,,,,8/8 Overcast,6000.0,,FEW,500.0,BKN,7900.0,OVC,8900.0,,
KRDR,07-19-2012,23:05,SPECI,,330,16.0,31.0,310/31KTS,9999.0,Thunderstorm and Rain or Snow Showers,26.0,18.0,29.99,1016.6,92,,,,,,,,,,,,,,7/8 Mostly Cloudy,8000.0,,FEW,4200.0,SCT,5900.0,BKN,7900.0,,
KRDR,07-19-2012,23:00,METAR,,320,24.0,31.0,320/31KTS,9999.0,,29.0,15.0,29.98,1016.0,,,,,,,,,,,,,,,7/8 Mostly Cloudy,6000.0,,FEW,4200.0,BKN,5900.0,BKN,6900.0,,
KRDR,07-19-2012,22:54,SPECI,,310,19.0,28.0,,9999.0,,30.0,16.0,29.98,1016.2,,,,,,,,,,,,,,,7/8 Mostly Cloudy,6000.0,,FEW,4200.0,BKN,5900.0,,,,
KRDR,07-19-2012,22:00,METAR,,200,11.0,,,9999.0,,33.0,23.0,29.94,1014.9,,,,,,,,,,,,,,,Clear,72000.0,,,73000.0,,,,,,
KRDR,07-19-2012,21:00,METAR,,180,15.0,,,9999.0,,32.0,23.0,29.92,1014.3,,,,,,,,,,,,,,,2/8 Mostly Clear,72000.0,,FEW,11000.0,,,,,,
KRDR,07-19-2012,20:00,METAR,,190,9.0,,,9999.0,,31.0,23.0,29.96,1015.5,,,,,,,,,,,,,,,Clear,72000.0,,,73000.0,,,,,,
KRDR,07-19-2012,19:00,METAR,,180,14.0,,,9999.0,,31.0,22.0,29.96,1015.4,,,,,,,,,,,,,,,Clear,72000.0,,,73000.0,,,,,,
KRDR,07-19-2012,18:00,METAR,,170,13.0,,,9999.0,,30.0,22.0,29.97,1015.8,,,,,,,,,,,,,,,Clear,72000.0,,,73000.0,,,,,,
KRDR,07-19-2012,17:00,METAR,,170,13.0,18.0,,9999.0,,28.0,21.0,29.97,1015.9,,,,,,,,,,,,,,,Clear,72000.0,,,73000.0,,,,,,
KRDR,07-19-2012,16:00,METAR,,150,10.0,,,9999.0,,25.0,20.0,29.97,1015.9,,,,,,,,,,,,,,,2/8 Mostly Clear,72000.0,,FEW,1300.0,,,,,,
KRDR,07-19-2012,15:00,METAR,,160,10.0,,,9999.0,,23.0,20.0,29.97,1015.9,,,,,,,,,,,,,,,8/8 Overcast,400.0,,OVC,600.0,,,,,,
KRDR,07-19-2012,14:49,SPECI,,160,10.0,,,9999.0,,23.0,20.0,29.98,1016.0,,,,,,,,,,,,,,,8/8 Overcast,400.0,,OVC,600.0,,,,,,
KRDR,07-19-2012,14:14,SPECI,,140,9.0,,,9999.0,,22.0,20.0,29.97,1015.8,,,,,,,,,,,,,,,8/8 Overcast,300.0,,OVC,500.0,,,,,,
KRDR,07-19-2012,14:02,SPECI,,150,9.0,,,9999.0,,21.0,20.0,29.97,1015.8,,,,,,,,,,,,,,,8/8 Overcast,300.0,,OVC,400.0,,,,,,
KRDR,07-19-2012,14:00,METAR,,160,10.0,,,9999.0,,21.0,20.0,29.97,1015.7,,,,,,,,,,,,,,,8/8 Overcast,300.0,,OVC,300.0,,,,,,
KRDR,07-19-2012,13:00,METAR,,160,9.0,,,9999.0,,19.0,19.0,29.96,1015.5,,,,,,,,,,,,,,,8/8 Overcast,300.0,,OVC,300.0,,,,,,
KRDR,07-19-2012,12:00,METAR,,160,8.0,,,6400.0,Mist,18.0,18.0,29.96,1015.5,10,,,,,,,,,,,,,,8/8 Overcast,200.0,,OVC,200.0,,,,,,
KRDR,07-19-2012,11:19,SPECI,,150,7.0,,,9999.0,,18.0,18.0,29.96,1015.4,,,,,,,,,,,,,,,7/8 Mostly Cloudy,300.0,,BKN,300.0,,,,,,
KRDR,07-19-2012,11:10,SPECI,,150,6.0,,,9999.0,,18.0,18.0,29.95,1015.4,,,,,,,,,,,,,,,2/8 Mostly Clear,72000.0,,FEW,300.0,,,,,,
KRDR,07-19-2012,11:00,METAR,,150,6.0,,,9999.0,,18.0,18.0,29.96,1015.4,,,,,,,,,,,,,,,Clear,72000.0,,,73000.0,,,,,,
KRDR,07-19-2012,10:00,METAR,,170,5.0,,,9999.0,,18.0,17.0,29.96,1015.5,,,,,,,,,,,,,,,Clear,72000.0,,,73000.0,,,,,,
KRDR,07-19-2012,09:00,METAR,,180,6.0,,,9999.0,,19.0,18.0,29.95,1015.2,,,,,,,,,,,,,,,Clear,72000.0,,,73000.0,,,,,,
KRDR,07-19-2012,08:00,METAR,,180,5.0,,,9999.0,,19.0,18.0,29.95,1015.1,,,,,,,,,,,,,,,Clear,72000.0,,,73000.0,,,,,,
KRDR,07-19-2012,07:00,METAR,,180,6.0,,,9999.0,,20.0,19.0,29.94,1014.9,,,,,,,,,,,,,,,Clear,72000.0,,,73000.0,,,,,,
KRDR,07-19-2012,06:00,METAR,,170,8.0,,,9999.0,,21.0,19.0,29.93,1014.5,,,,,,,,,,,,,,,Clear,72000.0,,,73000.0,,,,,,
KRDR,07-19-2012,05:00,METAR,,170,7.0,,,9999.0,,22.0,19.0,29.91,1014.0,,,,,,,,,,,,,,,Clear,72000.0,,,73000.0,,,,,,
KRDR,07-19-2012,04:00,METAR,,140,5.0,,,9999.0,,23.0,18.0,29.91,1013.9,,,,,,,,,,,,,,,Clear,72000.0,,,73000.0,,,,,,
KRDR,07-19-2012,03:00,METAR,,100,4.0,,,9999.0,,25.0,17.0,29.89,1013.4,,,,,,,,,,,,,,,Clear,72000.0,,,73000.0,,,,,,
KRDR,07-19-2012,02:00,METAR,,70,5.0,,,9999.0,,27.0,16.0,29.88,1012.9,,,,,,,,,,,,,,,Clear,72000.0,,,73000.0,,,,,,
KRDR,07-19-2012,01:00,METAR,,110,5.0,,,9999.0,,29.0,15.0,29.88,1012.9,,,,,,,,,,,,,,,Clear,72000.0,,,73000.0,,,,,,
KRDR,07-19-2012,00:00,METAR,,150,5.0,,,9999.0,,30.0,13.0,29.88,1012.7,,,,,,,,,,,,,,,Clear,72000.0,,,73000.0,,,,,,
KRDR,07-18-2012,23:00,METAR,,150,6.0,,,9999.0,,31.0,13.0,29.87,1012.7,,,,,,,,,,,,,,,Clear,72000.0,,,73000.0,,,,,,
KRDR,07-18-2012,22:00,METAR,,,3.0,,,9999.0,,30.0,14.0,29.89,1013.1,,,,,,,,,,,,,,,Clear,72000.0,,,73000.0,,,,,,
KRDR,07-18-2012,21:00,METAR,,100,8.0,,,9999.0,,29.0,15.0,29.89,1013.4,,,,,,,,,,,,,,,7/8 Mostly Cloudy,11000.0,,BKN,11000.0,,,,,,
KRDR,07-18-2012,20:00,METAR,,120,9.0,,,9999.0,,29.0,14.0,29.91,1013.8,,,,,,,,,,,,,,,7/8 Mostly Cloudy,12000.0,,BKN,12000.0,,,,,,
KRDR,07-18-2012,19:00,METAR,,90,7.0,,,9999.0,,30.0,15.0,29.91,1013.8,,,,,,,,,,,,,,,2/8 Mostly Clear,72000.0,,FEW,5900.0,,,,,,
KRDR,07-18-2012,18:00,METAR,,120,7.0,15.0,,9999.0,,29.0,16.0,29.93,1014.5,,,,,,,,,,,,,,,Clear,72000.0,,,73000.0,,,,,,
KRDR,07-18-2012,17:00,METAR,,120,4.0,,,9999.0,,28.0,15.0,29.92,1014.3,,,,,,,,,,,,,,,Clear,72000.0,,,73000.0,,,,,,
KRDR,07-18-2012,16:00,METAR,,,6.0,,,9999.0,,26.0,18.0,29.92,1014.3,,,,,,,,,,,,,,,Clear,72000.0,,,73000.0,,,,,,
KRDR,07-18-2012,15:00,METAR,,,0.0,,,9999.0,,23.0,18.0,29.94,1015.0,,,,,,,,,,,,,,,Clear,72000.0,,,73000.0,,,,,,
KRDR,07-18-2012,14:00,METAR,,70,4.0,,,9999.0,,21.0,17.0,29.94,1014.7,,,,,,,,,,,,,,,Clear,72000.0,,,73000.0,,,,,,
KRDR,07-18-2012,13:00,METAR,,,0.0,,,9999.0,,18.0,16.0,29.94,1014.9,,,,,,,,,,,,,,,Clear,72000.0,,,73000.0,,,,,,
KRDR,07-18-2012,12:00,METAR,,,0.0,,,9999.0,,17.0,16.0,29.95,1015.1,,,,,,,,,,,,,,,Clear,72000.0,,,73000.0,,,,,,
KRDR,07-18-2012,11:00,METAR,,,0.0,,,9999.0,,15.0,14.0,29.94,1014.8,,,,,,,,,,,,,,,Clear,72000.0,,,73000.0,,,,,,
KRDR,07-18-2012,10:00,METAR,,350,4.0,,,9999.0,,16.0,15.0,29.95,1015.0,,,,,,,,,,,,,,,Clear,72000.0,,,73000.0,,,,,,
KRDR,07-18-2012,09:00,METAR,,110,6.0,,,9999.0,,19.0,16.0,29.91,1013.8,,,,,,,,,,,,,,,Clear,72000.0,,,73000.0,,,,,,
KRDR,07-18-2012,08:00,METAR,,110,6.0,,,9999.0,,20.0,16.0,29.91,1013.8,,,,,,,,,,,,,,,Clear,72000.0,,,73000.0,,,,,,
KRDR,07-18-2012,07:00,METAR,,110,8.0,,,9999.0,,21.0,16.0,29.92,1014.3,,,,,,,,,,,,,,,Clear,72000.0,,,73000.0,,,,,,
KRDR,07-18-2012,06:00,METAR,,110,6.0,,,9999.0,,21.0,17.0,29.94,1014.7,,,,,,,,,,,,,,,Clear,72000.0,,,73000.0,,,,,,
KRDR,07-18-2012,05:00,METAR,,90,5.0,,,9999.0,,22.0,17.0,29.93,1014.6,,,,,,,,,,,,,,,Clear,72000.0,,,73000.0,,,,,,
KRDR,07-18-2012,04:00,METAR,,60,4.0,,,9999.0,,22.0,17.0,29.93,1014.5,,,,,,,,,,,,,,,Clear,72000.0,,,73000.0,,,,,,
KRDR,07-18-2012,03:00,METAR,,10,4.0,,,9999.0,,20.0,17.0,29.91,1014.0,,,,,,,,,,,,,,,Clear,72000.0,,,73000.0,,,,,,
KRDR,07-18-2012,02:00,METAR,,60,6.0,,,9999.0,,26.0,16.0,29.90,1013.6,,,,,,,,,,,,,,,Clear,72000.0,,,73000.0,,,,,,
KRDR,07-18-2012,01:00,METAR,,60,8.0,,,9999.0,,28.0,15.0,29.90,1013.7,,,,,,,,,,,,,,,Clear,72000.0,,,73000.0,,,,,,
KRDR,07-18-2012,00:00,METAR,,60,7.0,,,9999.0,,28.0,15.0,29.91,1013.8,,,,,,,,,,,,,,,Clear,72000.0,,,73000.0,,,,,,
KRDR,07-17-2012,23:00,METAR,,60,9.0,15.0,,9999.0,,29.0,15.0,29.91,1014.0,,,,,,,,,,,,,,,2/8 Mostly Clear,72000.0,,FEW,5000.0,,,,,,
KRDR,07-17-2012,22:00,METAR,,30,7.0,,,9999.0,,28.0,14.0,29.92,1014.1,,,,,,,,,,,,,,,Clear,72000.0,,,73000.0,,,,,,
KRDR,07-17-2012,21:00,METAR,,60,8.0,,,9999.0,,28.0,15.0,29.92,1014.1,,,,,,,,,,,,,,,Clear,72000.0,,,73000.0,,,,,,
KRDR,07-17-2012,20:00,METAR,,70,10.0,,,9999.0,,29.0,16.0,29.90,1013.6,,,,,,,,,,,,,,,2/8 Mostly Clear,72000.0,,FEW,4600.0,,,,,,
KRDR,07-17-2012,19:00,METAR,,50,8.0,,,9999.0,,27.0,16.0,29.91,1013.7,,,,,,,,,,,,,,,7/8 Mostly Cloudy,4900.0,,SCT,4000.0,BKN,5000.0,,,,
KRDR,07-17-2012,18:00,METAR,,60,8.0,15.0,,9999.0,,26.0,17.0,29.93,1014.4,,,,,,,,,,,,,,,7/8 Mostly Cloudy,4600.0,,SCT,3900.0,BKN,4700.0,,,,
KRDR,07-17-2012,17:00,METAR,,80,9.0,,,9999.0,,26.0,17.0,29.93,1014.4,,,,,,,,,,,,,,,4/8 Partly Cloudy,72000.0,,SCT,3300.0,,,,,,
KRDR,07-17-2012,16:00,METAR,,80,10.0,,,9999.0,,25.0,17.0,29.91,1014.0,,,,,,,,,,,,,,,2/8 Mostly Clear,72000.0,,FEW,2700.0,,,,,,
KRDR,07-17-2012,15:00,METAR,,70,10.0,,,9999.0,,24.0,17.0,29.90,1013.6,,,,,,,,,,,,,,,Clear,72000.0,,,73000.0,,,,,,
KRDR,07-17-2012,14:00,METAR,,70,10.0,,,9999.0,,22.0,18.0,29.89,1013.2,,,,,,,,,,,,,,,2/8 Mostly Clear,72000.0,,FEW,1500.0,,,,,,
KRDR,07-17-2012,13:02,SPECI,,30,9.0,,,9999.0,,21.0,18.0,29.89,1013.1,,,,,,,,,,,,,,,4/8 Partly Cloudy,72000.0,,FEW,1000.0,SCT,2900.0,,,,
KRDR,07-17-2012,13:00,METAR,,40,9.0,,,9999.0,,21.0,18.0,29.89,1013.1,,,,,,,,,,,,,,,7/8 Mostly Cloudy,2900.0,,FEW,1000.0,BKN,2900.0,,,,
KRDR,07-17-2012,12:00,METAR,,40,8.0,,,9999.0,,19.0,18.0,29.88,1012.9,,,,,,,,,,,,,,,7/8 Mostly Cloudy,2500.0,,BKN,2800.0,,,,,,
KRDR,07-17-2012,11:24,SPECI,,30,8.0,,,9999.0,,19.0,18.0,29.89,1013.1,,,,,,,,,,,,,,,8/8 Overcast,2900.0,,BKN,2900.0,OVC,3600.0,,,,
KRDR,07-17-2012,11:00,METAR,,20,3.0,,,9999.0,,19.0,18.0,29.89,1013.3,,,,,,,,,,,,,,,8/8 Overcast,1800.0,,BKN,1800.0,BKN,3000.0,OVC,3600.0,,
KRDR,07-17-2012,10:54,SPECI,,20,3.0,,,9999.0,,19.0,18.0,29.89,1013.2,,,,,,,,,,,,,,,8/8 Overcast,1800.0,,SCT,1800.0,BKN,3000.0,OVC,3600.0,,
KRDR,07-17-2012,10:00,METAR,,,0.0,,,9999.0,,19.0,18.0,29.90,1013.4,,,,,,,,,,,,,,,8/8 Overcast,1800.0,,OVC,1900.0,,,,,,
KRDR,07-17-2012,09:00,METAR,,20,4.0,,,9999.0,,19.0,18.0,29.86,1012.3,,,,,,,,,,,,,,,8/8 Overcast,1800.0,,OVC,1800.0,,,,,,
KRDR,07-17-2012,08:00,METAR,,30,5.0,,,9999.0,,19.0,18.0,29.86,1012.2,,,,,,,,,,,,,,,8/8 Overcast,1700.0,,OVC,1700.0,,,,,,
KRDR,07-17-2012,07:05,SPECI,,20,5.0,,,9999.0,,18.0,17.0,29.85,1011.9,,,,,,,,,,,,,,,7/8 Mostly Cloudy,1700.0,,BKN,1700.0,,,,,,
KRDR,07-17-2012,07:00,METAR,,,0.0,,,9999.0,,18.0,17.0,29.85,1012.0,,,,,,,,,,,,,,,2/8 Mostly Clear,72000.0,,FEW,1800.0,,,,,,
KRDR,07-17-2012,06:00,METAR,,360,4.0,,,9999.0,,18.0,17.0,29.85,1011.8,,,,,,,,,,,,,,,Clear,72000.0,,,73000.0,,,,,,
KRDR,07-17-2012,05:25,SPECI,,360,3.0,,,9999.0,,19.0,17.0,29.85,1011.8,,,,,,,,,,,,,,,4/8 Partly Cloudy,72000.0,,SCT,1800.0,,,,,,
KRDR,07-17-2012,05:00,METAR,,10,4.0,,,9999.0,,19.0,17.0,29.84,1011.7,,,,,,,,,,,,,,,8/8 Overcast,1800.0,,OVC,1800.0,,,,,,
KRDR,07-17-2012,04:00,METAR,,10,5.0,,,9999.0,,20.0,17.0,29.85,1011.9,,,,,,,,,,,,,,,8/8 Overcast,1600.0,,OVC,1700.0,,,,,,
KRDR,07-17-2012,03:00,METAR,,10,7.0,,,9999.0,,20.0,17.0,29.85,1011.8,,,,,,,,,,,,,,,8/8 Overcast,1700.0,,OVC,1700.0,,,,,,
KRDR,07-17-2012,02:00,METAR,,10,8.0,15.0,,9999.0,,20.0,17.0,29.83,1011.1,,,,,,,,,,,,,,,8/8 Overcast,1500.0,,OVC,1500.0,,,,,,
KRDR,07-17-2012,01:00,METAR,,10,10.0,,,9999.0,,21.0,17.0,29.82,1010.9,,,,,,,,,,,,,,,8/8 Overcast,1700.0,,OVC,1700.0,,,,,,
KRDR,07-17-2012,00:00,METAR,,20,12.0,,,9999.0,,22.0,18.0,29.81,1010.5,,,,,,,,,,,,,,,7/8 Mostly Cloudy,2600.0,,SCT,1900.0,BKN,2600.0,,,,
KRDR,07-16-2012,23:00,METAR,,10,11.0,,,9999.0,,23.0,18.0,29.80,1010.2,,,,,,,,,,,,,,,8/8 Overcast,2100.0,,OVC,2600.0,,,,,,
KRDR,07-16-2012,22:01,SPECI,,10,13.0,,,9999.0,,25.0,19.0,29.79,1009.9,,,,,,,,,,,,,,,7/8 Mostly Cloudy,2800.0,,FEW,2100.0,BKN,2800.0,,,,
KRDR,07-16-2012,22:00,METAR,,10,12.0,,,9999.0,,25.0,19.0,29.79,1009.8,,,,,,,,,,,,,,,2/8 Mostly Clear,72000.0,,FEW,2100.0,,,,,,
KRDR,07-16-2012,21:26,SPECI,,20,10.0,,,9999.0,,25.0,19.0,29.78,1009.7,,,,,,,,,,,,,,,4/8 Partly Cloudy,72000.0,,FEW,2200.0,SCT,2800.0,,,,
KRDR,07-16-2012,21:12,SPECI,,10,12.0,,,9999.0,,24.0,19.0,29.78,1009.6,,,,,,,,,,,,,,,7/8 Mostly Cloudy,2800.0,,SCT,2200.0,BKN,2800.0,,,,
KRDR,07-16-2012,21:00,METAR,,20,9.0,,,9999.0,,25.0,19.0,29.78,1009.4,,,,,,,,,,,,,,,7/8 Mostly Cloudy,2200.0,,BKN,2600.0,,,,,,
KRDR,07-16-2012,21:00,SPECI,,10,10.0,,,9999.0,,25.0,19.0,29.78,1009.5,,,,,,,,,,,,,,,4/8 Partly Cloudy,72000.0,,FEW,2200.0,SCT,2800.0,,,,
KRDR,07-16-2012,20:00,METAR,,360,11.0,,,9999.0,,26.0,19.0,29.76,1008.8,,,,,,,,,,,,,,,7/8 Mostly Cloudy,2700.0,,BKN,2700.0,,,,,,
KRDR,07-16-2012,19:00,METAR,,350,11.0,,,9999.0,,26.0,20.0,29.74,1008.4,,,,,,,,,,,,,,,7/8 Mostly Cloudy,2100.0,,BKN,2500.0,,,,,,
KRDR,07-16-2012,18:00,METAR,,320,12.0,,,9999.0,,26.0,19.0,29.73,1008.1,,,,,,,,,,,,,,,8/8 Overcast,2200.0,,OVC,2300.0,,,,,,
KRDR,07-16-2012,17:00,METAR,,300,10.0,,,9999.0,,25.0,19.0,29.73,1008.0,,,,,,,,,,,,,,,8/8 Overcast,1700.0,,OVC,2000.0,,,,,,
KRDR,07-16-2012,16:00,METAR,,310,11.0,,,9999.0,,24.0,20.0,29.72,1007.7,,,,,,,,,,,,,,,8/8 Overcast,1700.0,,OVC,1700.0,,,,,,
KRDR,07-16-2012,15:00,METAR,,320,14.0,,,9999.0,,25.0,20.0,29.70,1007.1,,,,,,,,,,,,,,,7/8 Mostly Cloudy,1900.0,,BKN,1900.0,,,,,,
KRDR,07-16-2012,14:43,SPECI,,320,13.0,,,9999.0,,26.0,20.0,29.70,1006.9,,,,,,,,,,,,,,,7/8 Mostly Cloudy,1900.0,,BKN,1900.0,,,,,,
KRDR,07-16-2012,14:00,METAR,,330,12.0,,,9999.0,,25.0,21.0,29.67,1005.9,,,,,,,,,,,,,,,Clear,72000.0,,,73000.0,,,,,,
KRDR,07-16-2012,13:00,METAR,,340,8.0,,,9999.0,,24.0,21.0,29.65,1005.3,,,,,,,,,,,,,,,2/8 Mostly Clear,72000.0,,FEW,1200.0,,,,,,
KRDR,07-16-2012,12:00,METAR,,310,11.0,,,9999.0,,25.0,22.0,29.62,1004.4,,,,,,,,,,,,,,.01 IN,Clear,72000.0,,,73000.0,,,,,,
KRDR,07-16-2012,11:00,METAR,,240,4.0,,,9999.0,,23.0,20.0,29.60,1003.5,,,,,,,,,,,,,,,Clear,72000.0,,,73000.0,,,,,,
KRDR,07-16-2012,10:00,METAR,,230,8.0,,,9999.0,,24.0,21.0,29.59,1003.3,,,,,,,,,,,,,,,Clear,72000.0,,,73000.0,,,,,,
KRDR,07-16-2012,09:00,METAR,,220,11.0,,,9999.0,,25.0,21.0,29.59,1003.4,,,,,,,,,,,,,,,Clear,72000.0,,,73000.0,,,,,,
KRDR,07-16-2012,08:00,METAR,,200,12.0,,,9999.0,,25.0,21.0,29.61,1003.8,,,,,,,,,,,,,,,Clear,72000.0,,,73000.0,,,,,,
KRDR,07-16-2012,07:00,METAR,,200,12.0,,,9999.0,,26.0,21.0,29.63,1004.6,,,,,,,,,,,,,,,Clear,72000.0,,,73000.0,,,,,,
KRDR,07-16-2012,06:00,METAR,,180,13.0,,,9999.0,,26.0,21.0,29.65,1005.2,,,,,,,,,,,,,,,Clear,72000.0,,,73000.0,,,,,,
KRDR,07-16-2012,05:00,METAR,,170,12.0,,,9999.0,,26.0,20.0,29.68,1006.1,,,,,,,,,,,,,,,Clear,72000.0,,,73000.0,,,,,,
KRDR,07-16-2012,04:00,METAR,,160,12.0,,,9999.0,,26.0,20.0,29.72,1007.6,,,,,,,,,,,,,,,Clear,72000.0,,,73000.0,,,,,,
KRDR,07-16-2012,03:00,METAR,,150,11.0,19.0,,9999.0,,27.0,20.0,29.73,1008.1,,,,,,,,,,,,,,,Clear,72000.0,,,73000.0,,,,,,
KRDR,07-16-2012,02:00,METAR,,140,12.0,,,9999.0,,28.0,20.0,29.75,1008.7,,,,,,,,,,,,,,,Clear,72000.0,,,73000.0,,,,,,
KRDR,07-16-2012,01:00,METAR,,140,12.0,,,9999.0,,28.0,20.0,29.77,1009.4,,,,,,,,,,,,,,,Clear,72000.0,,,73000.0,,,,,,
KRDR,07-16-2012,00:00,METAR,,140,16.0,,,9999.0,,29.0,20.0,29.79,1009.9,,,,,,,,,,,,,,,Clear,72000.0,,,73000.0,,,,,,
KRDR,07-15-2012,23:00,METAR,,130,14.0,,,9999.0,,29.0,21.0,29.81,1010.6,,,,,,,,,,,,,,,Clear,72000.0,,,73000.0,,,,,,
KRDR,07-15-2012,22:00,METAR,,150,15.0,23.0,150/26KTS,9999.0,,29.0,20.0,29.84,1011.4,,,,,,,,,,,,,,,Clear,72000.0,,,73000.0,,,,,,
KRDR,07-15-2012,21:00,METAR,,130,16.0,,,9999.0,,30.0,19.0,29.86,1012.4,,,,,,,,,,,,,,,Clear,72000.0,,,73000.0,,,,,,
KRDR,07-15-2012,20:00,METAR,,120,12.0,,,9999.0,,29.0,19.0,29.90,1013.5,,,,,,,,,,,,,,,Clear,72000.0,,,73000.0,,,,,,
KRDR,07-15-2012,19:00,METAR,,110,12.0,,,9999.0,,27.0,20.0,29.93,1014.4,,,,,,,,,,,,,,,Clear,72000.0,,,73000.0,,,,,,
KRDR,07-15-2012,18:00,METAR,,100,9.0,,,9999.0,,25.0,19.0,29.95,1015.2,,,,,,,,,,,,,.01 IN,,Clear,72000.0,,,73000.0,,,,,,
KRDR,07-15-2012,17:00,METAR,,50,12.0,,,9999.0,,23.0,19.0,29.98,1016.2,,,,,,,,,,,,,,,Clear,72000.0,,,73000.0,,,,,,
KRDR,07-15-2012,16:00,METAR,,80,4.0,,,9999.0,,21.0,18.0,29.99,1016.6,,,,,,,,,,,,,,,Clear,72000.0,,,73000.0,,,,,,
KRDR,07-15-2012,15:00,METAR,,,0.0,,,9999.0,,20.0,17.0,30.01,1017.1,,,,,,,,,,,TRACE,.01 IN,,,Clear,72000.0,,,73000.0,,,,,,
KRDR,07-15-2012,14:35,SPECI,,70,3.0,,,9999.0,,20.0,17.0,30.00,1017.0,,,,,,,,,,,,,,,Clear,9000.0,,,73000.0,,,,,,
KRDR,07-15-2012,14:14,SPECI,,60,4.0,,,9999.0,,20.0,17.0,30.00,1016.9,,,,,,,,,,,,,,,Clear,12000.0,,,73000.0,,,,,,
KRDR,07-15-2012,14:07,SPECI,,40,3.0,,,9999.0,,19.0,17.0,30.01,1017.1,,,,,,,,,,,,,,,Clear,10000.0,,,73000.0,,,,,,
KRDR,07-15-2012,14:00,METAR,,30,3.0,,,9999.0,Light Rain,19.0,17.0,30.02,1017.4,61,,,,,,,,,,.01 IN,,,,2/8 Mostly Clear,72000.0,,FEW,9900.0,,,,,,
KRDR,07-15-2012,13:43,SPECI,,40,4.0,,,9999.0,,20.0,17.0,30.02,1017.3,,,,,,,,,,,,,,,4/8 Partly Cloudy,72000.0,,FEW,2100.0,SCT,9900.0,,,,
KRDR,07-15-2012,13:36,SPECI,,50,3.0,,,9999.0,,20.0,16.0,30.01,1017.3,,,,,,,,,,,,,,,4/8 Partly Cloudy,72000.0,,FEW,1900.0,SCT,5900.0,SCT,9900.0,,
KRDR,07-15-2012,13:13,SPECI,,,0.0,,,9999.0,,20.0,16.0,30.01,1017.2,,,,,,,,,,,,,,,2/8 Mostly Clear,72000.0,,FEW,5000.0,,,,,,
KRDR,07-15-2012,13:00,METAR,,90,4.0,,,9999.0,,19.0,17.0,30.00,1016.8,,,,,,,,,,,TRACE,,,,Clear,12000.0,,,73000.0,,,,,,
KRDR,07-15-2012,12:49,SPECI,,90,3.0,,,9999.0,,19.0,17.0,30.00,1016.9,,,,,,,,,,,,,,,Clear,11000.0,,,73000.0,,,,,,
KRDR,07-15-2012,12:42,SPECI,,100,3.0,,,9999.0,,19.0,16.0,30.00,1017.0,,,,,,,,,,,,,,,Clear,12000.0,,,73000.0,,,,,,
KRDR,07-15-2012,12:00,METAR,,310,4.0,,,9999.0,Light Rain,19.0,16.0,30.03,1017.7,61,,,,,,,,,,TRACE,,TRACE,,4/8 Partly Cloudy,72000.0,,SCT,11000.0,,,,,,
KRDR,07-15-2012,11:35,SPECI,,40,4.0,,,9999.0,,19.0,15.0,30.02,1017.5,,,,,,,,,,,,,,,7/8 Mostly Cloudy,11000.0,,BKN,11000.0,,,,,,
KRDR,07-15-2012,11:00,METAR,,,0.0,,,9999.0,,19.0,15.0,30.01,1017.2,,,,,,,,,,,,,,,8/8 Overcast,12000.0,,OVC,12000.0,,,,,,
KRDR,07-15-2012,10:00,METAR,,10,3.0,,,9999.0,,19.0,16.0,30.03,1017.7,,,,,,,,,,,,,,,7/8 Mostly Cloudy,12000.0,,BKN,12000.0,,,,,,
KRDR,07-15-2012,09:00,METAR,,60,4.0,,,9999.0,,20.0,16.0,30.02,1017.6,,,,,,,,,,,,,,,Clear,72000.0,,,73000.0,,,,,,
KRDR,07-15-2012,08:00,METAR,,20,4.0,,,9999.0,,20.0,17.0,30.04,1018.2,,,,,,,,,,,,,,,Clear,72000.0,,,73000.0,,,,,,
KRDR,07-15-2012,07:00,METAR,,330,4.0,,,9999.0,,21.0,16.0,30.05,1018.5,,,,,,,,,,,,,,,Clear,72000.0,,,73000.0,,,,,,
KRDR,07-15-2012,06:00,METAR,,20,3.0,,,9999.0,,21.0,17.0,30.04,1018.3,,,,,,,,,,,,,,,Clear,72000.0,,,73000.0,,,,,,
KRDR,07-15-2012,05:00,METAR,,360,3.0,,,9999.0,,23.0,18.0,30.04,1018.2,,,,,,,,,,,,,,,Clear,72000.0,,,73000.0,,,,,,
KRDR,07-15-2012,04:00,METAR,,60,7.0,,,9999.0,,25.0,18.0,30.02,1017.5,,,,,,,,,,,,,,,Clear,72000.0,,,73000.0,,,,,,
KRDR,07-15-2012,03:00,METAR,,40,6.0,,,9999.0,,26.0,20.0,30.01,1017.2,,,,,,,,,,,,,,,Clear,72000.0,,,73000.0,,,,,,
KRDR,07-15-2012,02:00,METAR,,60,7.0,,,9999.0,,28.0,20.0,30.00,1016.9,,,,,,,,,,,,,,,Clear,72000.0,,,73000.0,,,,,,
KRDR,07-15-2012,01:00,METAR,,40,6.0,,,9999.0,,28.0,20.0,30.01,1017.0,,,,,,,,,,,,,,,Clear,72000.0,,,73000.0,,,,,,
KRDR,07-15-2012,00:00,METAR,,360,6.0,,,9999.0,,32.0,17.0,30.00,1016.9,,,,,,,,,,,,,,,Clear,72000.0,,,73000.0,,,,,,
KRDR,07-14-2012,23:00,METAR,,340,5.0,,,9999.0,,32.0,16.0,30.01,1017.2,,,,,,,,,,,,,,,Clear,72000.0,,,73000.0,,,,,,
KRDR,07-14-2012,22:00,METAR,,340,7.0,,,9999.0,,33.0,17.0,30.01,1017.3,,,,,,,,,,,,,,,Clear,72000.0,,,73000.0,,,,,,
KRDR,07-14-2012,21:00,METAR,,350,8.0,,,9999.0,,33.0,16.0,30.01,1017.3,,,,,,,,,,,,,,,Clear,72000.0,,,73000.0,,,,,,
KRDR,07-14-2012,20:00,METAR,,,6.0,,,9999.0,,33.0,16.0,30.02,1017.5,,,,,,,,,,,,,,,Clear,72000.0,,,73000.0,,,,,,
KRDR,07-14-2012,19:00,METAR,,310,4.0,,,9999.0,,32.0,17.0,30.03,1017.8,,,,,,,,,,,,,,,Clear,72000.0,,,73000.0,,,,,,
KRDR,07-14-2012,18:00,METAR,,340,5.0,,,9999.0,,32.0,18.0,30.04,1018.2,,,,,,,,,,,,,,,Clear,72000.0,,,73000.0,,,,,,
KRDR,07-14-2012,17:00,METAR,,,3.0,,,9999.0,,30.0,19.0,30.04,1018.3,,,,,,,,,,,,,,,Clear,72000.0,,,73000.0,,,,,,
KRDR,07-14-2012,16:00,METAR,,330,4.0,,,9999.0,,28.0,18.0,30.04,1018.3,,,,,,,,,,,,,,,Clear,72000.0,,,73000.0,,,,,,
KRDR,07-14-2012,15:00,METAR,,320,3.0,,,9999.0,,27.0,19.0,30.04,1018.3,,,,,,,,,,,,,,,Clear,72000.0,,,73000.0,,,,,,
KRDR,07-14-2012,14:00,METAR,,360,3.0,,,9999.0,,25.0,19.0,30.04,1018.1,,,,,,,,,,,,,,,Clear,72000.0,,,73000.0,,,,,,
KRDR,07-14-2012,13:00,METAR,,290,4.0,,,9999.0,,23.0,19.0,30.03,1017.7,,,,,,,,,,,,,,,Clear,72000.0,,,73000.0,,,,,,
KRDR,07-14-2012,12:00,METAR,,250,3.0,,,9999.0,,20.0,18.0,30.01,1017.3,,,,,,,,,,,,,,,Clear,72000.0,,,73000.0,,,,,,
KRDR,07-14-2012,11:00,METAR,,,0.0,,,9999.0,,18.0,16.0,30.01,1017.2,,,,,,,,,,,,,,,Clear,72000.0,,,73000.0,,,,,,
KRDR,07-14-2012,10:00,METAR,,300,7.0,,,9999.0,,18.0,16.0,30.00,1016.8,,,,,,,,,,,,,,,Clear,72000.0,,,73000.0,,,,,,
KRDR,07-14-2012,09:00,METAR,,290,3.0,,,9999.0,,18.0,16.0,29.99,1016.5,,,,,,,,,,,,,,,Clear,72000.0,,,73000.0,,,,,,
KRDR,07-14-2012,08:00,METAR,,300,3.0,,,9999.0,,18.0,17.0,29.99,1016.5,,,,,,,,,,,,,,,Clear,72000.0,,,73000.0,,,,,,
KRDR,07-14-2012,07:00,METAR,,,0.0,,,9999.0,,20.0,18.0,29.99,1016.4,,,,,,,,,,,,,,,Clear,72000.0,,,73000.0,,,,,,
KRDR,07-14-2012,06:00,METAR,,320,4.0,,,9999.0,,20.0,19.0,29.98,1016.3,,,,,,,,,,,,,,,Clear,72000.0,,,73000.0,,,,,,
KRDR,07-14-2012,05:00,METAR,,310,5.0,,,9999.0,,21.0,19.0,29.97,1015.7,,,,,,,,,,,,,,,Clear,72000.0,,,73000.0,,,,,,
KRDR,07-14-2012,04:00,METAR,,290,4.0,,,9999.0,,22.0,20.0,29.96,1015.7,,,,,,,,,,,,,,,Clear,72000.0,,,73000.0,,,,,,
KRDR,07-14-2012,03:00,METAR,,,0.0,,,9999.0,,24.0,20.0,29.95,1015.2,,,,,,,,,,,,,,,Clear,72000.0,,,73000.0,,,,,,
KRDR,07-14-2012,02:00,METAR,,350,4.0,,,9999.0,,26.0,21.0,29.95,1015.1,,,,,,,,,,,,,,,Clear,72000.0,,,73000.0,,,,,,
KRDR,07-14-2012,01:00,METAR,,20,6.0,,,9999.0,,27.0,20.0,29.93,1014.6,,,,,,,,,,,,,,,Clear,72000.0,,,73000.0,,,,,,
KRDR,07-14-2012,00:00,METAR,,10,8.0,,,9999.0,,30.0,20.0,29.92,1014.3,,,,,,,,,,,,,,,Clear,72000.0,,,73000.0,,,,,,
KRDR,07-13-2012,23:00,METAR,,360,9.0,,,9999.0,,31.0,20.0,29.92,1014.2,,,,,,,,,,,,,,,Clear,72000.0,,,73000.0,,,,,,
KRDR,07-13-2012,22:00,METAR,,360,10.0,,,9999.0,,32.0,20.0,29.92,1014.4,,,,,,,,,,,,,,,Clear,72000.0,,,73000.0,,,,,,
KRDR,07-13-2012,21:00,METAR,,350,10.0,,,9999.0,,31.0,19.0,29.94,1014.8,,,,,,,,,,,,,,,2/8 Mostly Clear,72000.0,,FEW,5000.0,,,,,,
KRDR,07-13-2012,20:00,METAR,,350,7.0,,,9999.0,,31.0,19.0,29.95,1015.1,,,,,,,,,,,,,,,Clear,4900.0,,,73000.0,,,,,,
KRDR,07-13-2012,19:00,METAR,,360,7.0,,,9999.0,,30.0,18.0,29.95,1015.3,,,,,,,,,,,,,,,Clear,72000.0,,,73000.0,,,,,,
KRDR,07-13-2012,18:00,METAR,,,3.0,,,9999.0,,29.0,16.0,29.97,1015.8,,,,,,,,,,,,,,,Clear,72000.0,,,73000.0,,,,,,
KRDR,07-13-2012,17:00,METAR,,360,7.0,,,9999.0,,28.0,17.0,29.96,1015.6,,,,,,,,,,,,,,,Clear,72000.0,,,73000.0,,,,,,
KRDR,07-13-2012,16:00,METAR,,10,7.0,,,9999.0,,27.0,17.0,29.96,1015.4,,,,,,,,,,,,,,,Clear,72000.0,,,73000.0,,,,,,
KRDR,07-13-2012,15:00,METAR,,350,10.0,,,9999.0,,25.0,18.0,29.96,1015.6,,,,,,,,,,,,,,,Clear,72000.0,,,73000.0,,,,,,
KRDR,07-13-2012,14:00,METAR,,350,7.0,,,9999.0,,22.0,17.0,29.96,1015.5,,,,,,,,,,,,,,,Clear,72000.0,,,73000.0,,,,,,
KRDR,07-13-2012,13:00,METAR,,360,6.0,,,9999.0,,22.0,17.0,29.93,1014.7,,,,,,,,,,,,,,,Clear,72000.0,,,73000.0,,,,,,
KRDR,07-13-2012,12:00,METAR,,320,7.0,,,9999.0,,19.0,17.0,29.93,1014.6,,,,,,,,,,,,,,,4/8 Partly Cloudy,72000.0,,SCT,11000.0,,,,,,
KRDR,07-13-2012,11:00,METAR,,310,7.0,,,9999.0,,19.0,17.0,29.91,1013.9,,,,,,,,,,,,,,,Clear,72000.0,,,73000.0,,,,,,
KRDR,07-13-2012,10:00,METAR,,310,6.0,,,9999.0,,20.0,18.0,29.90,1013.4,,,,,,,,,,,,,,,Clear,72000.0,,,73000.0,,,,,,
KRDR,07-13-2012,09:00,METAR,,320,4.0,,,9999.0,,20.0,18.0,29.88,1013.0,,,,,,,,,,,,,,,7/8 Mostly Cloudy,12000.0,,BKN,12000.0,,,,,,
KRDR,07-13-2012,08:00,METAR,,260,3.0,,,9999.0,,20.0,19.0,29.87,1012.6,,,,,,,,,,,,,,,7/8 Mostly Cloudy,12000.0,,BKN,12000.0,,,,,,
KRDR,07-13-2012,07:00,METAR,,310,5.0,,,9999.0,,20.0,19.0,29.87,1012.6,,,,,,,,,,,,,,,2/8 Mostly Clear,72000.0,,FEW,11000.0,,,,,,
KRDR,07-13-2012,06:00,METAR,,310,6.0,,,9999.0,,20.0,19.0,29.88,1012.9,,,,,,,,,,,,,,,4/8 Partly Cloudy,72000.0,,SCT,11000.0,,,,,,
KRDR,07-13-2012,05:00,METAR,,280,4.0,,,9999.0,,19.0,18.0,29.87,1012.6,,,,,,,,,,,,,,,Clear,72000.0,,,73000.0,,,,,,
KRDR,07-13-2012,04:00,METAR,,,0.0,,,2800.0,Mist,20.0,19.0,29.89,1013.1,10,,,,,,,,,,,,,,Clear,72000.0,,,73000.0,,,,,,
KRDR,07-13-2012,03:47,SPECI,,,0.0,,,4000.0,Mist,21.0,19.0,29.88,1013.0,10,,,,,,,,,,,,,,Clear,72000.0,,,73000.0,,,,,,
KRDR,07-13-2012,03:34,SPECI,,,0.0,,,6400.0,Mist,21.0,19.0,29.88,1012.8,10,,,,,,,,,,,,,,2/8 Mostly Clear,72000.0,,FEW,12000.0,,,,,,
KRDR,07-13-2012,03:00,METAR,,290,6.0,,,9999.0,,21.0,19.0,29.87,1012.5,,,,,,,,,,,,,,,Clear,72000.0,,,73000.0,,,,,,
KRDR,07-13-2012,02:00,METAR,,10,5.0,,,9999.0,,22.0,20.0,29.85,1011.8,,,,,,,,,,,,,,,Clear,72000.0,,,73000.0,,,,,,
KRDR,07-13-2012,01:00,METAR,,330,9.0,,,9999.0,,24.0,19.0,29.84,1011.7,,,,,,,,,,,,,,,2/8 Mostly Clear,72000.0,,FEW,11000.0,,,,,,
KRDR,07-13-2012,00:00,METAR,,300,7.0,,,9999.0,,26.0,19.0,29.84,1011.5,,,,,,,,,,,,,TRACE,,2/8 Mostly Clear,72000.0,,FEW,9900.0,,,,,,
KRDR,07-12-2012,23:00,METAR,,260,12.0,17.0,,9999.0,,28.0,20.0,29.83,1011.3,,,,,,,,,,,TRACE,,,,4/8 Partly Cloudy,72000.0,,FEW,2500.0,SCT,8900.0,,,,
KRDR,07-12-2012,22:36,SPECI,,240,11.0,,,9999.0,,28.0,18.0,29.83,1011.1,,,,,,,,,,,,,,,7/8 Mostly Cloudy,9000.0,,FEW,2500.0,SCT,4600.0,BKN,8900.0,,
KRDR,07-12-2012,22:21,SPECI,,230,11.0,,,9999.0,Light Rain,29.0,20.0,29.83,1011.2,61,,,,,,,,,,,,,,7/8 Mostly Cloudy,6000.0,,SCT,4500.0,BKN,5900.0,,,,
KRDR,07-12-2012,22:00,METAR,,240,9.0,,,9999.0,,30.0,19.0,29.83,1011.1,,,,,,,,,,,,,,,2/8 Mostly Clear,72000.0,,FEW,4500.0,,,,,,
KRDR,07-12-2012,21:27,SPECI,,230,7.0,,,9999.0,,30.0,19.0,29.83,1011.1,,,,,,,,,,,,,,,Clear,72000.0,,,73000.0,,,,,,
KRDR,07-12-2012,21:12,SPECI,,220,7.0,,,9999.0,Dry Thunderstorm,31.0,21.0,29.83,1011.4,91,,,,,,,,,,,,,,2/8 Mostly Clear,72000.0,,FEW,3600.0,,,,,,
KRDR,07-12-2012,21:00,METAR,,220,10.0,,,9999.0,,31.0,20.0,29.82,1011.1,,,,,,,,,,,,,,,7/8 Mostly Cloudy,3500.0,,BKN,3600.0,,,,,,
KRDR,07-12-2012,20:00,METAR,,170,12.0,15.0,,9999.0,,29.0,20.0,29.84,1011.5,,,,,,,,,,,,,,,2/8 Mostly Clear,72000.0,,FEW,3900.0,,,,,,
KRDR,07-12-2012,19:00,METAR,,170,11.0,16.0,,9999.0,,29.0,20.0,29.84,1011.6,,,,,,,,,,,,,,,4/8 Partly Cloudy,72000.0,,SCT,3600.0,,,,,,
KRDR,07-12-2012,18:00,METAR,,190,8.0,,,9999.0,,28.0,20.0,29.85,1011.8,,,,,,,,,,,,,TRACE,,Clear,72000.0,,,73000.0,,,,,,
KRDR,07-12-2012,17:00,METAR,,170,6.0,,,9999.0,,28.0,20.0,29.86,1012.2,,,,,,,,,,,,,,,Clear,72000.0,,,73000.0,,,,,,
KRDR,07-12-2012,16:00,METAR,,180,7.0,,,9999.0,,26.0,19.0,29.86,1012.2,,,,,,,,,,,,,,,2/8 Mostly Clear,72000.0,,FEW,2400.0,,,,,,
KRDR,07-12-2012,15:00,METAR,,150,10.0,,,9999.0,,25.0,18.0,29.86,1012.2,,,,,,,,,,,,TRACE,,,Clear,72000.0,,,73000.0,,,,,,
KRDR,07-12-2012,14:00,METAR,,140,7.0,,,9999.0,,22.0,19.0,29.87,1012.6,,,,,,,,,,,TRACE,,,,Clear,72000.0,,,73000.0,,,,,,
KRDR,07-12-2012,13:00,METAR,,140,11.0,,,9999.0,Light Drizzle,21.0,18.0,29.85,1011.9,51,,,,,,,,,,TRACE,,,,7/8 Mostly Cloudy,12000.0,,SCT,9900.0,BKN,12000.0,,,,
KRDR,07-12-2012,12:50,SPECI,,150,11.0,,,9999.0,Light Drizzle,21.0,18.0,29.85,1011.9,51,,,,,,,,,,,,,,7/8 Mostly Cloudy,12000.0,,SCT,9900.0,BKN,12000.0,,,,
KRDR,07-12-2012,12:10,SPECI,,140,7.0,,,9999.0,,21.0,19.0,29.86,1012.1,,,,,,,,,,,,,,,8/8 Overcast,11000.0,,FEW,5900.0,SCT,8900.0,OVC,11000.0,,
KRDR,07-12-2012,12:00,METAR,,,0.0,,,9999.0,Light Drizzle,21.0,18.0,29.87,1012.4,51,,,,,,,,,,TRACE,,TRACE,,8/8 Overcast,11000.0,,FEW,5900.0,SCT,7900.0,OVC,11000.0,,
KRDR,07-12-2012,11:28,SPECI,,170,4.0,,,9999.0,,21.0,18.0,29.87,1012.4,,,,,,,,,,,,,,,4/8 Partly Cloudy,72000.0,,SCT,11000.0,,,,,,
KRDR,07-12-2012,11:23,SPECI,,170,3.0,,,9999.0,,21.0,18.0,29.86,1012.2,,,,,,,,,,,,,,,4/8 Partly Cloudy,72000.0,,SCT,11000.0,,,,,,
KRDR,07-12-2012,11:11,SPECI,,150,4.0,,,9999.0,Light Rain,21.0,18.0,29.85,1011.9,61,,,,,,,,,,,,,,2/8 Mostly Clear,72000.0,,FEW,12000.0,,,,,,
KRDR,07-12-2012,11:00,METAR,,180,7.0,,,9999.0,,21.0,17.0,29.85,1011.8,,,,,,,,,,,,,,,2/8 Mostly Clear,72000.0,,FEW,12000.0,,,,,,
KRDR,07-12-2012,10:00,METAR,,200,10.0,,,9999.0,,21.0,18.0,29.83,1011.2,,,,,,,,,,,,,,,Clear,72000.0,,,73000.0,,,,,,
KRDR,07-12-2012,09:00,METAR,,200,8.0,,,9999.0,,21.0,18.0,29.82,1011.0,,,,,,,,,,,TRACE,0 IN,,,4/8 Partly Cloudy,72000.0,,SCT,12000.0,,,,,,
KRDR,07-12-2012,08:38,SPECI,,190,7.0,,,9999.0,,21.0,18.0,29.83,1011.3,,,,,,,,,,,,,,,Clear,72000.0,,,73000.0,,,,,,
KRDR,07-12-2012,08:01,SPECI,,160,11.0,,,9999.0,,23.0,19.0,29.85,1011.9,,,,,,,,,,,,,,,2/8 Mostly Clear,72000.0,,FEW,9900.0,,,,,,
KRDR,07-12-2012,08:00,METAR,,190,10.0,17.0,,9999.0,,23.0,18.0,29.85,1011.9,,,,,,,,,,,,,,,2/8 Mostly Clear,72000.0,,FEW,9900.0,,,,,,
KRDR,07-12-2012,07:00,METAR,,210,7.0,,,9999.0,,22.0,17.0,29.88,1012.9,,,,,,,,,,,,,,,4/8 Partly Cloudy,72000.0,,SCT,8900.0,,,,,,
KRDR,07-12-2012,06:00,METAR,,180,10.0,,,9999.0,,23.0,16.0,29.87,1012.4,,,,,,,,,,,,,,,Clear,72000.0,,,73000.0,,,,,,
KRDR,07-12-2012,05:00,METAR,,170,8.0,,,9999.0,,23.0,17.0,29.87,1012.6,,,,,,,,,,,,,,,Clear,72000.0,,,73000.0,,,,,,
KRDR,07-12-2012,04:00,METAR,,180,8.0,,,9999.0,,24.0,17.0,29.88,1013.0,,,,,,,,,,,,,,,Clear,72000.0,,,73000.0,,,,,,
KRDR,07-12-2012,03:00,METAR,,170,9.0,,,9999.0,,26.0,17.0,29.87,1012.6,,,,,,,,,,,,,,,Clear,72000.0,,,73000.0,,,,,,
KRDR,07-12-2012,02:00,METAR,,180,12.0,,,9999.0,,28.0,18.0,29.87,1012.5,,,,,,,,,,,,,,,Clear,72000.0,,,73000.0,,,,,,
KRDR,07-12-2012,01:00,METAR,,170,14.0,,,9999.0,,30.0,19.0,29.88,1012.7,,,,,,,,,,,,,,,Clear,72000.0,,,73000.0,,,,,,
KRDR,07-12-2012,00:00,METAR,,170,15.0,,,9999.0,,31.0,18.0,29.88,1013.0,,,,,,,,,,,,,,,Clear,72000.0,,,73000.0,,,,,,
KRDR,07-11-2012,23:00,METAR,,170,20.0,,,9999.0,,32.0,18.0,29.90,1013.5,,,,,,,,,,,,,,,Clear,72000.0,,,73000.0,,,,,,
KRDR,07-11-2012,22:00,METAR,,170,18.0,25.0,180/26KTS,9999.0,,33.0,18.0,29.90,1013.6,,,,,,,,,,,,,,,Clear,72000.0,,,73000.0,,,,,,
KRDR,07-11-2012,21:00,METAR,,190,15.0,,,9999.0,,33.0,19.0,29.91,1014.0,,,,,,,,,,,,,,,Clear,72000.0,,,73000.0,,,,,,
KRDR,07-11-2012,20:00,METAR,,200,17.0,24.0,,9999.0,,32.0,19.0,29.93,1014.5,,,,,,,,,,,,,,,Clear,72000.0,,,73000.0,,,,,,
KRDR,07-11-2012,19:00,METAR,,200,14.0,20.0,,9999.0,,32.0,19.0,29.93,1014.7,,,,,,,,,,,,,,,Clear,72000.0,,,73000.0,,,,,,
KRDR,07-11-2012,18:00,METAR,,190,13.0,,,9999.0,,31.0,19.0,29.95,1015.2,,,,,,,,,,,,,,,Clear,72000.0,,,73000.0,,,,,,
KRDR,07-11-2012,17:00,METAR,,190,11.0,,,9999.0,,29.0,18.0,29.96,1015.7,,,,,,,,,,,,,,,Clear,72000.0,,,73000.0,,,,,,
KRDR,07-11-2012,16:00,METAR,,200,11.0,,,9999.0,,28.0,17.0,29.96,1015.4,,,,,,,,,,,,,,,Clear,72000.0,,,73000.0,,,,,,
KRDR,07-11-2012,15:00,METAR,,200,11.0,,,9999.0,,26.0,18.0,29.97,1015.7,,,,,,,,,,,,,,,Clear,72000.0,,,73000.0,,,,,,
KRDR,07-11-2012,14:00,METAR,,200,12.0,,,9999.0,,24.0,16.0,29.98,1016.0,,,,,,,,,,,,,,,Clear,72000.0,,,73000.0,,,,,,
KRDR,07-11-2012,13:00,METAR,,190,9.0,,,9999.0,,22.0,16.0,29.98,1016.3,,,,,,,,,,,,,,,Clear,72000.0,,,73000.0,,,,,,
KRDR,07-11-2012,12:00,METAR,,170,9.0,,,9999.0,,20.0,16.0,29.98,1016.2,,,,,,,,,,,,,,,Clear,72000.0,,,73000.0,,,,,,
KRDR,07-11-2012,11:00,METAR,,180,9.0,,,9999.0,,19.0,16.0,29.98,1016.3,,,,,,,,,,,,,,,Clear,72000.0,,,73000.0,,,,,,
KRDR,07-11-2012,10:00,METAR,,200,7.0,,,9999.0,,19.0,17.0,29.99,1016.5,,,,,,,,,,,,,,,Clear,72000.0,,,73000.0,,,,,,
KRDR,07-11-2012,09:00,METAR,,200,7.0,,,9999.0,,20.0,17.0,30.00,1016.8,,,,,,,,,,,,,,,Clear,72000.0,,,73000.0,,,,,,
KRDR,07-11-2012,08:00,METAR,,190,7.0,,,9999.0,,20.0,17.0,30.00,1016.8,,,,,,,,,,,,,,,Clear,72000.0,,,73000.0,,,,,,
KRDR,07-11-2012,07:00,METAR,,200,7.0,,,9999.0,,21.0,17.0,30.01,1017.0,,,,,,,,,,,,,,,Clear,72000.0,,,73000.0,,,,,,
KRDR,07-11-2012,06:00,METAR,,200,7.0,,,9999.0,,22.0,17.0,30.00,1017.0,,,,,,,,,,,,,,,Clear,72000.0,,,73000.0,,,,,,
KRDR,07-11-2012,05:00,METAR,,200,7.0,,,9999.0,,22.0,17.0,30.01,1017.1,,,,,,,,,,,,,,,Clear,72000.0,,,73000.0,,,,,,
KRDR,07-11-2012,04:00,METAR,,180,9.0,,,9999.0,,22.0,17.0,30.01,1017.2,,,,,,,,,,,,,,,Clear,72000.0,,,73000.0,,,,,,
KRDR,07-11-2012,03:00,METAR,,150,6.0,,,9999.0,,24.0,17.0,30.01,1017.3,,,,,,,,,,,,,,,Clear,72000.0,,,73000.0,,,,,,
KRDR,07-11-2012,02:00,METAR,,170,6.0,,,9999.0,,26.0,17.0,30.01,1017.3,,,,,,,,,,,,,,,Clear,72000.0,,,73000.0,,,,,,
KRDR,07-11-2012,01:00,METAR,,160,9.0,,,9999.0,,29.0,17.0,30.03,1017.7,,,,,,,,,,,,,,,Clear,72000.0,,,73000.0,,,,,,
KRDR,07-11-2012,00:00,METAR,,170,10.0,,,9999.0,,30.0,16.0,30.04,1018.2,,,,,,,,,,,,,,,Clear,72000.0,,,73000.0,,,,,,
KRDR,07-10-2012,23:00,METAR,,190,7.0,,,9999.0,,30.0,15.0,30.06,1018.8,,,,,,,,,,,,,,,Clear,72000.0,,,73000.0,,,,,,
KRDR,07-10-2012,22:00,METAR,,210,9.0,,,9999.0,,31.0,14.0,30.07,1019.3,,,,,,,,,,,,,,,Clear,72000.0,,,73000.0,,,,,,
KRDR,07-10-2012,21:00,METAR,,230,8.0,,,9999.0,,31.0,14.0,30.08,1019.6,,,,,,,,,,,,,,,Clear,72000.0,,,73000.0,,,,,,
KRDR,07-10-2012,20:00,METAR,,180,7.0,,,9999.0,,31.0,14.0,30.09,1019.9,,,,,,,,,,,,,,,Clear,72000.0,,,73000.0,,,,,,
KRDR,07-10-2012,19:00,METAR,,220,8.0,,,9999.0,,30.0,15.0,30.11,1020.4,,,,,,,,,,,,,,,4/8 Partly Cloudy,72000.0,,SCT,5900.0,,,,,,
KRDR,07-10-2012,18:00,METAR,,,4.0,,,9999.0,,30.0,14.0,30.12,1020.8,,,,,,,,,,,,,,,Clear,72000.0,,,73000.0,,,,,,
KRDR,07-10-2012,17:00,METAR,,200,4.0,,,9999.0,,29.0,15.0,30.13,1021.2,,,,,,,,,,,,,,,Clear,72000.0,,,73000.0,,,,,,
KRDR,07-10-2012,16:00,METAR,,240,3.0,,,9999.0,,29.0,16.0,30.14,1021.4,,,,,,,,,,,,,,,Clear,72000.0,,,73000.0,,,,,,
KRDR,07-10-2012,15:00,METAR,,270,5.0,,,9999.0,,26.0,16.0,30.15,1021.8,,,,,,,,,,,,,,,Clear,72000.0,,,73000.0,,,,,,
KRDR,07-10-2012,14:00,METAR,,,3.0,,,9999.0,,24.0,17.0,30.16,1022.0,,,,,,,,,,,,,,,7/8 Mostly Cloudy,6000.0,,BKN,5900.0,,,,,,
KRDR,07-10-2012,13:00,METAR,,200,3.0,,,9999.0,,20.0,17.0,30.16,1022.1,,,,,,,,,,,,,,,2/8 Mostly Clear,72000.0,,FEW,5900.0,,,,,,
KRDR,07-10-2012,12:00,METAR,,,0.0,,,9999.0,,17.0,16.0,30.15,1021.9,,,,,,,,,,,,,,,Clear,72000.0,,,73000.0,,,,,,
KRDR,07-10-2012,11:40,SPECI,,,0.0,,,6400.0,Mist,15.0,15.0,30.16,1022.0,10,,,,,,,,,,,,,,Clear,72000.0,,,73000.0,,,,,,
KRDR,07-10-2012,11:36,SPECI,,,0.0,,,1200.0,Mist,15.0,14.0,30.16,1022.0,10,,,,,,,,,,,,,,Clear,72000.0,,,73000.0,,,,,,
KRDR,07-10-2012,11:30,SPECI,,280,1.0,,,9999.0,Shallow Fog or Ice Fog,15.0,14.0,30.15,,,,,12,,,,,,,,,,,Clear,72000.0,,,73000.0,,,,,,
KRDR,07-10-2012,11:29,SPECI,,,0.0,,,800.0,Fog,15.0,14.0,30.15,1021.9,30,,,,,,,,,,,,,,Clear,72000.0,,,73000.0,,,,,,
KRDR,07-10-2012,11:28,METAR,,,0.0,,,9999.0,Shallow Fog or Ice Fog,15.0,14.0,30.15,1023.2,,,,12,,,,,,,,,,,Clear,72000.0,,,73000.0,,,,,,
KRDR,07-10-2012,11:17,SPECI,,,0.0,,,9999.0,Shallow Fog or Ice Fog,14.0,13.0,30.15,,,,,12,,,,,,,,,,,Clear,72000.0,,,73000.0,,,,,,
KRDR,07-10-2012,11:00,METAR,,,0.0,,,6400.0,Mist,15.0,14.0,30.15,1021.8,10,,,,,,,,,,,,,,Clear,72000.0,,,73000.0,,,,,,
KRDR,07-10-2012,10:33,SPECI,,,0.0,,,4800.0,Mist,14.0,14.0,30.15,1021.8,10,,,,,,,,,,,,,,Clear,72000.0,,,73000.0,,,,,,
KRDR,07-10-2012,10:31,SPECI,,,0.0,,,3200.0,Mist,14.0,14.0,30.15,1021.9,10,,,,,,,,,,,,,,Clear,72000.0,,,73000.0,,,,,,
KRDR,07-10-2012,10:25,SPECI,,,0.0,,,1200.0,Mist,14.0,14.0,30.15,1021.8,10,,,,,,,,,,,,,,Clear,72000.0,,,73000.0,,,,,,
KRDR,07-10-2012,10:20,SPECI,,,0.0,,,1200.0,Mist,14.0,14.0,30.15,1021.8,10,,,,,,,,,,,,,,Clear,72000.0,,,73000.0,,,,,,
KRDR,07-10-2012,10:18,SPECI,,,0.0,,,1600.0,Mist,15.0,14.0,30.15,1021.8,10,,,,,,,,,,,,,,Clear,72000.0,,,73000.0,,,,,,
KRDR,07-10-2012,10:16,SPECI,,,0.0,,,4000.0,Mist,15.0,14.0,30.15,1021.8,10,,,,,,,,,,,,,,Clear,72000.0,,,73000.0,,,,,,
KRDR,07-10-2012,10:15,SPECI,,,0.0,,,4800.0,Mist,15.0,14.0,30.15,1021.8,10,,,,,,,,,,,,,,Clear,72000.0,,,73000.0,,,,,,
KRDR,07-10-2012,10:00,METAR,,,0.0,,,9999.0,,15.0,15.0,30.15,1021.7,,,,,,,,,,,,,,,Clear,72000.0,,,73000.0,,,,,,
KRDR,07-10-2012,09:18,SPECI,,,0.0,,,9999.0,,15.0,15.0,30.15,1021.7,,,,,,,,,,,,,,,Clear,72000.0,,,73000.0,,,,,,
KRDR,07-10-2012,09:15,SPECI,,,0.0,,,9999.0,,15.0,15.0,30.15,1021.7,,,,,,,,,,,,,,,Clear,72000.0,,,73000.0,,,,,,
KRDR,07-10-2012,09:00,METAR,,,0.0,,,9999.0,,15.0,15.0,30.15,1021.7,,,,,,,,,,,,,,,Clear,72000.0,,,73000.0,,,,,,
KRDR,07-10-2012,08:00,METAR,,,0.0,,,9999.0,,16.0,15.0,30.15,1021.7,,,,,,,,,,,,,,,Clear,72000.0,,,73000.0,,,,,,
KRDR,07-10-2012,07:00,METAR,,250,3.0,,,9999.0,,17.0,17.0,30.15,1021.7,,,,,,,,,,,,,,,Clear,72000.0,,,73000.0,,,,,,
KRDR,07-10-2012,06:00,METAR,,,0.0,,,9999.0,,17.0,16.0,30.14,1021.5,,,,,,,,,,,,,,,Clear,72000.0,,,73000.0,,,,,,
KRDR,07-10-2012,05:00,METAR,,,0.0,,,9999.0,,18.0,17.0,30.14,1021.6,,,,,,,,,,,,,,,Clear,72000.0,,,73000.0,,,,,,
KRDR,07-10-2012,04:00,METAR,,,0.0,,,9999.0,Mist,20.0,17.0,30.14,1021.6,10,,,,,,,,,,,,,,Clear,72000.0,,,73000.0,,,,,,
KRDR,07-10-2012,03:00,METAR,,,0.0,,,9999.0,,23.0,18.0,30.14,1021.4,,,,,,,,,,,,,,,Clear,72000.0,,,73000.0,,,,,,
KRDR,07-10-2012,02:00,METAR,,,0.0,,,9999.0,,27.0,18.0,30.13,1021.2,,,,,,,,,,,,,,,2/8 Mostly Clear,72000.0,,FEW,6900.0,,,,,,
KRDR,07-10-2012,01:00,METAR,,,0.0,,,9999.0,,28.0,17.0,30.13,1021.3,,,,,,,,,,,,,,,7/8 Mostly Cloudy,7000.0,,BKN,6900.0,,,,,,
KRDR,07-10-2012,00:00,METAR,,10,3.0,,,9999.0,,28.0,16.0,30.14,1021.5,,,,,,,,,,,,,,,2/8 Mostly Clear,72000.0,,FEW,6900.0,,,,,,
KRDR,07-09-2012,23:00,METAR,,10,5.0,,,9999.0,,29.0,15.0,30.15,1021.8,,,,,,,,,,,,,,,Clear,72000.0,,,73000.0,,,,,,
KRDR,07-09-2012,22:00,METAR,,360,5.0,,,9999.0,,29.0,15.0,30.16,1022.0,,,,,,,,,,,,,,,Clear,72000.0,,,73000.0,,,,,,
KRDR,07-09-2012,21:00,METAR,,,4.0,,,9999.0,,29.0,14.0,30.17,1022.3,,,,,,,,,,,,,,,Clear,72000.0,,,73000.0,,,,,,
KRDR,07-09-2012,20:00,METAR,,20,5.0,,,9999.0,,28.0,15.0,30.17,1022.5,,,,,,,,,,,,,,,2/8 Mostly Clear,72000.0,,FEW,5900.0,,,,,,
KRDR,07-09-2012,19:00,METAR,,330,8.0,,,9999.0,,29.0,16.0,30.18,1022.7,,,,,,,,,,,,,,,Clear,72000.0,,,73000.0,,,,,,
KRDR,07-09-2012,18:00,METAR,,350,7.0,,,9999.0,,28.0,16.0,30.19,1023.1,,,,,,,,,,,,,,,Clear,11000.0,,,73000.0,,,,,,
KRDR,07-09-2012,17:00,METAR,,360,7.0,,,9999.0,,28.0,16.0,30.20,1023.3,,,,,,,,,,,,,,,Clear,72000.0,,,73000.0,,,,,,
KRDR,07-09-2012,16:00,METAR,,320,6.0,,,9999.0,,27.0,17.0,30.20,1023.5,,,,,,,,,,,,,,,Clear,72000.0,,,73000.0,,,,,,
KRDR,07-09-2012,15:00,METAR,,300,6.0,,,9999.0,,26.0,17.0,30.20,1023.5,,,,,,,,,,,,,,,Clear,72000.0,,,73000.0,,,,,,
KRDR,07-09-2012,14:00,METAR,,,0.0,,,9999.0,,23.0,17.0,30.20,1023.5,,,,,,,,,,,,,,,Clear,72000.0,,,73000.0,,,,,,
KRDR,07-09-2012,13:00,METAR,,,0.0,,,9999.0,,21.0,16.0,30.19,1023.1,,,,,,,,,,,,,,,Clear,72000.0,,,73000.0,,,,,,
KRDR,07-09-2012,12:00,METAR,,,0.0,,,9999.0,,16.0,15.0,30.19,1023.1,,,,,,,,,,,,,,,Clear,72000.0,,,73000.0,,,,,,
KRDR,07-09-2012,11:00,METAR,,,0.0,,,9999.0,,14.0,13.0,30.18,1022.9,,,,,,,,,,,,,,,Clear,72000.0,,,73000.0,,,,,,
KRDR,07-09-2012,10:00,METAR,,280,3.0,,,9999.0,,14.0,13.0,30.17,1022.6,,,,,,,,,,,,,,,Clear,72000.0,,,73000.0,,,,,,
KRDR,07-09-2012,09:00,METAR,,,0.0,,,9999.0,,15.0,14.0,30.17,1022.5,,,,,,,,,,,,,,,Clear,72000.0,,,73000.0,,,,,,
KRDR,07-09-2012,08:00,METAR,,,0.0,,,9999.0,,14.0,13.0,30.18,1022.6,,,,,,,,,,,,,,,Clear,72000.0,,,73000.0,,,,,,
KRDR,07-09-2012,07:00,METAR,,,0.0,,,9999.0,,15.0,14.0,30.17,1022.6,,,,,,,,,,,,,,,Clear,72000.0,,,73000.0,,,,,,
KRDR,07-09-2012,06:00,METAR,,280,3.0,,,9999.0,,16.0,15.0,30.18,1022.6,,,,,,,,,,,,,,,Clear,72000.0,,,73000.0,,,,,,
KRDR,07-09-2012,05:00,METAR,,270,3.0,,,9999.0,,17.0,15.0,30.17,1022.5,,,,,,,,,,,,,,,Clear,72000.0,,,73000.0,,,,,,
KRDR,07-09-2012,04:00,METAR,,260,3.0,,,9999.0,,18.0,16.0,30.17,1022.4,,,,,,,,,,,,,,,Clear,72000.0,,,73000.0,,,,,,
KRDR,07-09-2012,03:00,METAR,,,0.0,,,9999.0,,20.0,15.0,30.16,1022.1,,,,,,,,,,,,,,,Clear,72000.0,,,73000.0,,,,,,
KRDR,07-09-2012,02:00,METAR,,90,4.0,,,9999.0,,25.0,15.0,30.15,1021.8,,,,,,,,,,,,,,,Clear,72000.0,,,73000.0,,,,,,
KRDR,07-09-2012,01:00,METAR,,80,8.0,,,9999.0,,27.0,14.0,30.15,1021.8,,,,,,,,,,,,,,,Clear,72000.0,,,73000.0,,,,,,
KRDR,07-09-2012,00:00,METAR,,60,9.0,,,9999.0,,28.0,14.0,30.15,1021.9,,,,,,,,,,,,,,,Clear,72000.0,,,73000.0,,,,,,
KRDR,07-08-2012,23:00,METAR,,40,7.0,,,9999.0,,28.0,13.0,30.16,1022.2,,,,,,,,,,,,,,,Clear,72000.0,,,73000.0,,,,,,
KRDR,07-08-2012,22:00,METAR,,40,6.0,,,9999.0,,29.0,14.0,30.17,1022.6,,,,,,,,,,,,,,,2/8 Mostly Clear,72000.0,,FEW,5900.0,,,,,,
KRDR,07-08-2012,21:00,METAR,,70,5.0,,,9999.0,,28.0,14.0,30.19,1023.0,,,,,,,,,,,,,,,2/8 Mostly Clear,72000.0,,FEW,5900.0,,,,,,
KRDR,07-08-2012,20:00,METAR,,50,8.0,,,9999.0,,29.0,14.0,30.19,1023.0,,,,,,,,,,,,,,,Clear,72000.0,,,73000.0,,,,,,
KRDR,07-08-2012,19:00,METAR,,30,6.0,,,9999.0,,28.0,14.0,30.19,1023.2,,,,,,,,,,,,,,,Clear,72000.0,,,73000.0,,,,,,
KRDR,07-08-2012,18:00,METAR,,80,6.0,,,9999.0,,28.0,14.0,30.20,1023.3,,,,,,,,,,,,,,,Clear,72000.0,,,73000.0,,,,,,
KRDR,07-08-2012,17:00,METAR,,60,7.0,,,9999.0,,27.0,16.0,30.20,1023.4,,,,,,,,,,,,,,,Clear,72000.0,,,73000.0,,,,,,
KRDR,07-08-2012,16:00,METAR,,40,4.0,,,9999.0,,26.0,18.0,30.20,1023.4,,,,,,,,,,,,,,,Clear,72000.0,,,73000.0,,,,,,
KRDR,07-08-2012,15:00,METAR,,50,6.0,,,9999.0,,24.0,18.0,30.20,1023.5,,,,,,,,,,,,,,,2/8 Mostly Clear,72000.0,,FEW,5000.0,,,,,,
KRDR,07-08-2012,14:00,METAR,,30,7.0,,,9999.0,,23.0,18.0,30.19,1023.1,,,,,,,,,,,,,,,Clear,72000.0,,,73000.0,,,,,,
KRDR,07-08-2012,13:00,METAR,,10,7.0,,,9999.0,,21.0,18.0,30.18,1022.8,,,,,,,,,,,,,,,Clear,72000.0,,,73000.0,,,,,,
KRDR,07-08-2012,12:00,METAR,,,0.0,,,9999.0,,19.0,17.0,30.18,1022.8,,,,,,,,,,,,,,,Clear,72000.0,,,73000.0,,,,,,
KRDR,07-08-2012,11:00,METAR,,,0.0,,,9999.0,,17.0,16.0,30.17,1022.4,,,,,,,,,,,,,,,Clear,72000.0,,,73000.0,,,,,,
KRDR,07-08-2012,10:00,METAR,,290,5.0,,,9999.0,,18.0,16.0,30.16,1022.1,,,,,,,,,,,,,,,Clear,72000.0,,,73000.0,,,,,,
KRDR,07-08-2012,09:00,METAR,,270,4.0,,,9999.0,,18.0,17.0,30.15,1021.8,,,,,,,,,,,,,,,2/8 Mostly Clear,72000.0,,FEW,12000.0,,,,,,
KRDR,07-08-2012,08:00,METAR,,250,5.0,,,9999.0,,18.0,17.0,30.16,1022.0,,,,,,,,,,,,,,,4/8 Partly Cloudy,72000.0,,SCT,5900.0,SCT,7900.0,,,,
KRDR,07-08-2012,07:00,METAR,,260,5.0,,,9999.0,,18.0,17.0,30.16,1022.1,,,,,,,,,,,,,,,2/8 Mostly Clear,72000.0,,FEW,5900.0,,,,,,
KRDR,07-08-2012,06:15,SPECI,,240,4.0,,,9999.0,,17.0,16.0,30.16,1022.0,,,,,,,,,,,,,,,Clear,72000.0,,,73000.0,,,,,,
KRDR,07-08-2012,06:02,SPECI,,240,4.0,,,9999.0,,18.0,17.0,30.16,1022.1,,,,,,,,,,,,,,,Clear,72000.0,,,73000.0,,,,,,
KRDR,07-08-2012,05:51,SPECI,,240,4.0,,,9999.0,,18.0,17.0,30.16,1022.1,,,,,,,,,,,,,,,Clear,72000.0,,,73000.0,,,,,,
KRDR,07-08-2012,05:09,SPECI,,240,3.0,,,9999.0,,18.0,17.0,30.16,1022.2,,,,,,,,,,,,,,,Clear,72000.0,,,73000.0,,,,,,
KRDR,07-08-2012,05:00,METAR,,240,4.0,,,9999.0,,18.0,17.0,30.16,1022.1,,,,,,,,,,,,,,,Clear,72000.0,,,73000.0,,,,,,
KRDR,07-08-2012,04:00,METAR,,260,3.0,,,9999.0,,20.0,18.0,30.16,1022.1,,,,,,,,,,,,,,,2/8 Mostly Clear,72000.0,,FEW,5000.0,,,,,,
KRDR,07-08-2012,03:00,METAR,,,0.0,,,9999.0,,22.0,17.0,30.15,1021.9,,,,,,,,,,,,,,,Clear,72000.0,,,73000.0,,,,,,
KRDR,07-08-2012,02:00,METAR,,290,3.0,,,9999.0,,25.0,19.0,30.15,1021.6,,,,,,,,,,,,,,,Clear,72000.0,,,73000.0,,,,,,
KRDR,07-08-2012,01:00,METAR,,290,4.0,,,9999.0,,28.0,18.0,30.14,1021.5,,,,,,,,,,,,,,,Clear,72000.0,,,73000.0,,,,,,
KRDR,07-08-2012,00:00,METAR,,300,4.0,,,9999.0,,28.0,16.0,30.15,1021.8,,,,,,,,,,,,,,,Clear,72000.0,,,73000.0,,,,,,
KRDR,07-07-2012,23:00,METAR,,300,5.0,,,9999.0,,29.0,16.0,30.16,1022.1,,,,,,,,,,,,,,,2/8 Mostly Clear,72000.0,,FEW,5900.0,,,,,,
KRDR,07-07-2012,22:00,METAR,,,3.0,,,9999.0,,29.0,16.0,30.17,1022.4,,,,,,,,,,,,,,,4/8 Partly Cloudy,72000.0,,SCT,5900.0,,,,,,
KRDR,07-07-2012,21:00,METAR,,,0.0,,,9999.0,,28.0,15.0,30.17,1022.6,,,,,,,,,,,,,,,Clear,72000.0,,,73000.0,,,,,,
KRDR,07-07-2012,20:00,METAR,,,4.0,,,9999.0,,29.0,15.0,30.19,1022.9,,,,,,,,,,,,,,,2/8 Mostly Clear,72000.0,,FEW,5900.0,,,,,,
KRDR,07-07-2012,19:00,METAR,,,6.0,,,9999.0,,29.0,15.0,30.20,1023.4,,,,,,,,,,,,,,,Clear,72000.0,,,73000.0,,,,,,
KRDR,07-07-2012,18:00,METAR,,350,5.0,,,9999.0,,28.0,16.0,30.20,1023.5,,,,,,,,,,,,,,,Clear,72000.0,,,73000.0,,,,,,
KRDR,07-07-2012,17:00,METAR,,300,4.0,,,9999.0,,27.0,18.0,30.21,1023.8,,,,,,,,,,,,,,,Clear,72000.0,,,73000.0,,,,,,
KRDR,07-07-2012,16:00,METAR,,310,5.0,,,9999.0,,26.0,18.0,30.20,1023.6,,,,,,,,,,,,,,,Clear,72000.0,,,73000.0,,,,,,
KRDR,07-07-2012,15:00,METAR,,300,7.0,,,9999.0,,25.0,18.0,30.21,1023.7,,,,,,,,,,,,,,,Clear,72000.0,,,73000.0,,,,,,
KRDR,07-07-2012,14:00,METAR,,320,5.0,,,9999.0,,23.0,19.0,30.21,1023.7,,,,,,,,,,,,,,,Clear,72000.0,,,73000.0,,,,,,
KRDR,07-07-2012,13:00,METAR,,300,5.0,,,9999.0,,20.0,17.0,30.20,1023.6,,,,,,,,,,,,,,,Clear,72000.0,,,73000.0,,,,,,
KRDR,07-07-2012,12:00,METAR,,310,5.0,,,9999.0,,16.0,15.0,30.19,1023.2,,,,,,,,,,,,,,.36 IN,Clear,72000.0,,,73000.0,,,,,,
KRDR,07-07-2012,11:00,METAR,,,0.0,,,9999.0,,14.0,13.0,30.19,1023.1,,,,,,,,,,,,,,,Clear,72000.0,,,73000.0,,,,,,
KRDR,07-07-2012,10:00,METAR,,280,5.0,,,9999.0,,14.0,13.0,30.18,1022.6,,,,,,,,,,,,,,,Clear,72000.0,,,73000.0,,,,,,
KRDR,07-07-2012,09:00,METAR,,250,3.0,,,9999.0,,15.0,14.0,30.16,1022.2,,,,,,,,,,,,,,,Clear,72000.0,,,73000.0,,,,,,
KRDR,07-07-2012,08:00,METAR,,260,3.0,,,9999.0,,14.0,14.0,30.16,1022.2,,,,,,,,,,,,,,,Clear,72000.0,,,73000.0,,,,,,
KRDR,07-07-2012,07:00,METAR,,250,4.0,,,9999.0,,15.0,14.0,30.15,1021.9,,,,,,,,,,,,,,,Clear,72000.0,,,73000.0,,,,,,
KRDR,07-07-2012,06:00,METAR,,310,5.0,,,9999.0,,16.0,15.0,30.14,1021.4,,,,,,,,,,,,,,,Clear,72000.0,,,73000.0,,,,,,
KRDR,07-07-2012,05:00,METAR,,310,4.0,,,9999.0,,16.0,16.0,30.13,1021.2,,,,,,,,,,,,,,,Clear,72000.0,,,73000.0,,,,,,
KRDR,07-07-2012,04:00,METAR,,,0.0,,,9999.0,,16.0,16.0,30.13,1021.2,,,,,,,,,,,,,,,Clear,72000.0,,,73000.0,,,,,,
KRDR,07-07-2012,03:35,SPECI,,,0.0,,,4800.0,Mist,17.0,16.0,30.13,1021.1,10,,,,,,,,,,,,,,Clear,72000.0,,,73000.0,,,,,,
KRDR,07-07-2012,03:34,SPECI,,,0.0,,,4000.0,Mist,17.0,16.0,30.13,1021.1,10,,,,,,,,,,,,,,Clear,72000.0,,,73000.0,,,,,,
KRDR,07-07-2012,03:31,SPECI,,,0.0,,,3200.0,Mist,17.0,16.0,30.13,1021.1,10,,,,,,,,,,,,,,Clear,72000.0,,,73000.0,,,,,,
KRDR,07-07-2012,03:27,SPECI,,,0.0,,,4000.0,Mist,17.0,16.0,30.13,1021.0,10,,,,,,,,,,,,,,Clear,72000.0,,,73000.0,,,,,,
KRDR,07-07-2012,03:00,METAR,,,0.0,,,9999.0,,18.0,17.0,30.12,1020.8,,,,,,,,,,,,,,,Clear,72000.0,,,73000.0,,,,,,
KRDR,07-07-2012,02:00,METAR,,20,3.0,,,9999.0,,21.0,17.0,30.11,1020.4,,,,,,,,,,,,,,,Clear,72000.0,,,73000.0,,,,,,
KRDR,07-07-2012,01:00,METAR,,10,5.0,,,9999.0,,23.0,18.0,30.10,1020.2,,,,,,,,,,,,,,,Clear,72000.0,,,73000.0,,,,,,
KRDR,07-07-2012,00:00,METAR,,360,7.0,,,9999.0,,24.0,17.0,30.09,1020.0,,,,,,,,,,,,,,,2/8 Mostly Clear,72000.0,,FEW,3600.0,,,,,,
KRDR,07-06-2012,23:00,METAR,,40,6.0,,,9999.0,,24.0,16.0,30.08,1019.6,,,,,,,,,,,,,,,2/8 Mostly Clear,72000.0,,FEW,3400.0,,,,,,
KRDR,07-06-2012,21:00,METAR,,50,6.0,,,9999.0,,23.0,16.0,30.09,1019.7,,,,,,,,,,,,,,,Clear,72000.0,,,73000.0,,,,,,
KRDR,07-06-2012,20:00,METAR,,,5.0,,,9999.0,,22.0,17.0,30.08,1019.6,,,,,,,,,,,,,,,Clear,72000.0,,,73000.0,,,,,,
KRDR,07-06-2012,19:00,METAR,,60,8.0,,,9999.0,,21.0,16.0,30.08,1019.6,,,,,,,,,,,,,,,4/8 Partly Cloudy,72000.0,,SCT,7900.0,,,,,,
KRDR,07-06-2012,16:51,SPECI,,50,8.0,,,9999.0,,17.0,15.0,30.09,1019.7,,,,,,,,,,,,,,,8/8 Overcast,4300.0,,FEW,1000.0,OVC,4400.0,,,,
KRDR,07-06-2012,16:00,METAR,,20,7.0,,,9999.0,,17.0,15.0,30.08,1019.4,,,,,,,,,,,,,,,8/8 Overcast,4700.0,,SCT,1000.0,BKN,4800.0,OVC,5900.0,,
KRDR,07-06-2012,15:47,SPECI,,30,10.0,,,9999.0,,17.0,15.0,30.07,1019.2,,,,,,,,,,,,,,,7/8 Mostly Cloudy,4900.0,,SCT,900.0,BKN,5000.0,BKN,5900.0,,
KRDR,07-06-2012,15:43,SPECI,,30,10.0,,,9999.0,,17.0,15.0,30.07,1019.0,,,,,,,,,,,,,,,7/8 Mostly Cloudy,900.0,,BKN,900.0,BKN,5900.0,,,,
KRDR,07-06-2012,15:40,SPECI,,30,9.0,,,9999.0,,17.0,15.0,30.06,1018.9,,,,,,,,,,,,,,,8/8 Overcast,1300.0,,FEW,900.0,BKN,1300.0,OVC,5900.0,,
KRDR,07-06-2012,15:19,SPECI,,40,9.0,,,9999.0,,17.0,16.0,30.05,1018.6,,,,,,,,,,,,,,,8/8 Overcast,7000.0,,FEW,800.0,OVC,6900.0,,,,
KRDR,07-06-2012,15:00,METAR,,30,11.0,,,9999.0,,16.0,15.0,30.03,1017.9,,,,,,,,,,,.05 IN,.36 IN,,,8/8 Overcast,7000.0,,OVC,6900.0,,,,,,
KRDR,07-06-2012,14:41,SPECI,,20,10.0,,,9999.0,,16.0,16.0,30.05,1018.3,,,,,,,,,,,,,,,7/8 Mostly Cloudy,7000.0,,FEW,4000.0,BKN,6900.0,,,,
KRDR,07-06-2012,14:00,METAR,,10,7.0,,,4800.0,Heavy Rain/Mist,16.0,15.0,30.05,1018.5,63,10,,,,,,,,,.15 IN,,,,8/8 Overcast,2200.0,,SCT,2200.0,OVC,3400.0,,,,
KRDR,07-06-2012,13:49,SPECI,,20,8.0,,,4800.0,Heavy Rain/Mist,16.0,15.0,30.05,1018.5,63,10,,,,,,,,,,,,,8/8 Overcast,2200.0,,SCT,2200.0,OVC,3500.0,,,,
KRDR,07-06-2012,13:41,SPECI,,350,9.0,,,4000.0,Heavy Rain/Mist,16.0,15.0,30.05,1018.6,63,10,,,,,,,,,,,,,8/8 Overcast,2100.0,,FEW,2300.0,OVC,4500.0,,,,
KRDR,07-06-2012,13:00,METAR,,60,10.0,,,9999.0,Light Rain,16.0,15.0,29.99,1016.6,61,,,,,,,,,,.16 IN,,,,7/8 Mostly Cloudy,11000.0,,SCT,3800.0,BKN,11000.0,,,,
KRDR,07-06-2012,12:00,METAR,,270,3.0,,,6400.0,Rain/Mist,17.0,16.0,30.11,1020.4,62,10,,,,,,,,,.27 IN,,.31 IN,.31 IN,8/8 Overcast,4800.0,,OVC,6900.0,,,,,,
KRDR,07-06-2012,11:54,SPECI,,280,4.0,,,6400.0,Heavy Rain/Mist,17.0,16.0,30.10,1020.2,63,10,,,,,,,,,,,,,8/8 Overcast,4900.0,,OVC,6900.0,,,,,,
KRDR,07-06-2012,11:35,SPECI,,340,8.0,,,6400.0,Heavy Rain/Mist,17.0,16.0,30.08,1019.5,63,10,,,,,,,,,,,,,8/8 Overcast,4500.0,,OVC,4600.0,,,,,,
KRDR,07-06-2012,11:00,METAR,,10,7.0,,,9999.0,Rain,18.0,17.0,30.01,1017.1,62,,,,,,,,,,.04 IN,,,,7/8 Mostly Cloudy,6000.0,,BKN,5900.0,,,,,,
KRDR,07-06-2012,10:47,SPECI,,20,9.0,,,9999.0,Rain,18.0,17.0,29.99,1016.6,62,,,,,,,,,,,,,,7/8 Mostly Cloudy,6000.0,,BKN,5900.0,,,,,,
KRDR,07-06-2012,10:31,SPECI,,30,8.0,,,9999.0,Light Rain,19.0,16.0,30.00,1016.8,61,,,,,,,,,,,,,,2/8 Mostly Clear,72000.0,,FEW,300.0,,,,,,
KRDR,07-06-2012,10:05,SPECI,,20,11.0,,,9999.0,,20.0,16.0,29.97,1015.9,,,,,,,,,,,,,,,7/8 Mostly Cloudy,11000.0,,BKN,11000.0,,,,,,
KRDR,07-06-2012,10:00,METAR,,30,8.0,,,9999.0,,20.0,16.0,30.01,1017.1,,,,,,,,,,,,,,,8/8 Overcast,11000.0,,OVC,11000.0,,,,,,
KRDR,07-06-2012,09:00,METAR,,50,3.0,,,9999.0,,20.0,17.0,29.99,1016.4,,,,,,,,,,,,TRACE,,,4/8 Partly Cloudy,72000.0,,SCT,12000.0,,,,,,
KRDR,07-06-2012,08:00,METAR,,30,6.0,,,9999.0,,19.0,17.0,29.99,1016.4,,,,,,,,,,,TRACE,,,,8/8 Overcast,11000.0,,OVC,11000.0,,,,,,
KRDR,07-06-2012,07:27,SPECI,,200,3.0,,,9999.0,,19.0,18.0,30.00,1016.8,,,,,,,,,,,,,,,7/8 Mostly Cloudy,11000.0,,FEW,5900.0,BKN,11000.0,,,,
KRDR,07-06-2012,07:16,SPECI,,,0.0,,,9999.0,Light Drizzle,19.0,17.0,30.00,1016.8,51,,,,,,,,,,,,,,8/8 Overcast,11000.0,,SCT,8900.0,OVC,11000.0,,,,
KRDR,07-06-2012,07:00,METAR,,310,5.0,,,9999.0,,19.0,17.0,30.00,1017.0,,,,,,,,,,,,,,,8/8 Overcast,11000.0,,OVC,11000.0,,,,,,
KRDR,07-06-2012,06:00,METAR,,,0.0,,,9999.0,,20.0,17.0,29.99,1016.5,,,,,,,,,,,,,,,8/8 Overcast,11000.0,,OVC,11000.0,,,,,,
KRDR,07-06-2012,05:00,METAR,,10,5.0,,,9999.0,,20.0,17.0,29.99,1016.7,,,,,,,,,,,,,,,7/8 Mostly Cloudy,12000.0,,BKN,12000.0,,,,,,
KRDR,07-06-2012,04:00,METAR,,,0.0,,,9999.0,,20.0,17.0,30.01,1017.1,,,,,,,,,,,,,,,4/8 Partly Cloudy,72000.0,,SCT,12000.0,,,,,,
KRDR,07-06-2012,03:00,METAR,,50,5.0,,,9999.0,,22.0,16.0,30.00,1016.7,,,,,,,,,,,,,,,2/8 Mostly Clear,72000.0,,FEW,12000.0,,,,,,
KRDR,07-06-2012,02:00,METAR,,20,5.0,,,9999.0,,21.0,17.0,30.00,1016.7,,,,,,,,,,,,,,,4/8 Partly Cloudy,72000.0,,SCT,12000.0,,,,,,
KRDR,07-06-2012,01:00,METAR,,20,8.0,,,9999.0,,25.0,16.0,29.99,1016.5,,,,,,,,,,,,,,,Clear,72000.0,,,73000.0,,,,,,
KRDR,07-06-2012,00:00,METAR,,10,6.0,,,9999.0,,26.0,15.0,29.98,1016.3,,,,,,,,,,,,,,,Clear,72000.0,,,73000.0,,,,,,
KRDR,07-05-2012,23:00,METAR,,350,7.0,,,9999.0,,29.0,14.0,29.97,1016.0,,,,,,,,,,,,,,,Clear,72000.0,,,73000.0,,,,,,
KRDR,07-05-2012,22:00,METAR,,10,6.0,,,9999.0,,29.0,12.0,29.98,1016.1,,,,,,,,,,,,,,,Clear,72000.0,,,73000.0,,,,,,
KRDR,07-05-2012,21:00,METAR,,350,7.0,,,9999.0,,29.0,11.0,29.98,1016.3,,,,,,,,,,,,,,,Clear,72000.0,,,73000.0,,,,,,
KRDR,07-05-2012,20:00,METAR,,310,6.0,,,9999.0,,29.0,10.0,30.00,1016.7,,,,,,,,,,,,,,,Clear,72000.0,,,73000.0,,,,,,
KRDR,07-05-2012,19:00,METAR,,340,8.0,,,9999.0,,28.0,11.0,30.00,1016.7,,,,,,,,,,,,,,,Clear,72000.0,,,73000.0,,,,,,
KRDR,07-05-2012,18:00,METAR,,310,8.0,,,9999.0,,27.0,12.0,29.99,1016.6,,,,,,,,,,,,,,,Clear,72000.0,,,73000.0,,,,,,
KRDR,07-05-2012,17:00,METAR,,320,5.0,,,9999.0,,26.0,12.0,29.99,1016.5,,,,,,,,,,,,,,,Clear,72000.0,,,73000.0,,,,,,
KRDR,07-05-2012,16:00,METAR,,350,7.0,,,9999.0,,25.0,14.0,30.00,1016.9,,,,,,,,,,,,,,,Clear,72000.0,,,73000.0,,,,,,
KRDR,07-05-2012,15:00,METAR,,350,6.0,,,9999.0,,23.0,14.0,29.98,1016.2,,,,,,,,,,,,,,,Clear,72000.0,,,73000.0,,,,,,
KRDR,07-05-2012,14:00,METAR,,290,5.0,,,9999.0,,22.0,13.0,29.99,1016.4,,,,,,,,,,,,,,,Clear,72000.0,,,73000.0,,,,,,
KRDR,07-05-2012,13:00,METAR,,,0.0,,,9999.0,,19.0,14.0,29.97,1015.8,,,,,,,,,,,,,,,Clear,72000.0,,,73000.0,,,,,,
KRDR,07-05-2012,12:00,METAR,,260,5.0,,,9999.0,,14.0,12.0,29.95,1015.3,,,,,,,,,,,,,,.24 IN,Clear,72000.0,,,73000.0,,,,,,
KRDR,07-05-2012,11:00,METAR,,260,5.0,,,9999.0,,11.0,10.0,29.93,1014.5,,,,,,,,,,,,,,,Clear,72000.0,,,73000.0,,,,,,
KRDR,07-05-2012,10:00,METAR,,240,5.0,,,9999.0,,11.0,9.0,29.91,1013.8,,,,,,,,,,,,,,,Clear,72000.0,,,73000.0,,,,,,
KRDR,07-05-2012,09:00,METAR,,230,4.0,,,9999.0,,11.0,10.0,29.92,1014.1,,,,,,,,,,,,,,,Clear,72000.0,,,73000.0,,,,,,
KRDR,07-05-2012,08:00,METAR,,250,5.0,,,9999.0,,11.0,9.0,29.89,1013.2,,,,,,,,,,,,,,,Clear,72000.0,,,73000.0,,,,,,
KRDR,07-05-2012,07:00,METAR,,240,3.0,,,9999.0,,13.0,10.0,29.88,1012.8,,,,,,,,,,,,,,,Clear,72000.0,,,73000.0,,,,,,
KRDR,07-05-2012,06:00,METAR,,350,4.0,,,9999.0,,15.0,11.0,29.86,1012.3,,,,,,,,,,,,,,,Clear,72000.0,,,73000.0,,,,,,
KRDR,07-05-2012,05:00,METAR,,350,6.0,,,9999.0,,18.0,12.0,29.84,1011.6,,,,,,,,,,,,,,,Clear,72000.0,,,73000.0,,,,,,
KRDR,07-05-2012,04:00,METAR,,330,6.0,,,9999.0,,21.0,16.0,29.80,1010.4,,,,,,,,,,,,,,,Clear,72000.0,,,73000.0,,,,,,
KRDR,07-05-2012,03:00,METAR,,320,12.0,18.0,,9999.0,,25.0,17.0,29.77,1009.3,,,,,,,,,,,,,,,Clear,72000.0,,,73000.0,,,,,,
KRDR,07-05-2012,02:00,METAR,,330,4.0,,,9999.0,,26.0,22.0,29.73,1008.0,,,,,,,,,,,,,,,Clear,72000.0,,,73000.0,,,,,,
KRDR,07-05-2012,01:00,METAR,,340,7.0,,,9999.0,,28.0,22.0,29.72,1007.6,,,,,,,,,,,,,,,Clear,72000.0,,,73000.0,,,,,,
KRDR,07-05-2012,00:00,METAR,,330,7.0,,,9999.0,,29.0,23.0,29.71,1007.2,,,,,,,,,,,,,,,2/8 Mostly Clear,72000.0,,FEW,3700.0,,,,,,
KRDR,07-04-2012,23:00,METAR,,330,9.0,,,9999.0,,29.0,23.0,29.71,1007.2,,,,,,,,,,,,,,,7/8 Mostly Cloudy,4400.0,,BKN,4500.0,,,,,,
KRDR,07-04-2012,22:20,SPECI,,320,6.0,,,9999.0,,29.0,24.0,29.70,1006.9,,,,,,,,,,,,,,,7/8 Mostly Cloudy,2700.0,,SCT,2700.0,BKN,4600.0,,,,
KRDR,07-04-2012,22:01,SPECI,,320,3.0,,,9999.0,,29.0,24.0,29.70,1006.8,,,,,,,,,,,,,,,7/8 Mostly Cloudy,2800.0,,BKN,2800.0,,,,,,
KRDR,07-04-2012,22:00,METAR,,,4.0,,,9999.0,,30.0,24.0,29.69,1006.8,,,,,,,,,,,,,,,4/8 Partly Cloudy,72000.0,,SCT,2600.0,,,,,,
KRDR,07-04-2012,21:00,METAR,,,0.0,,,9999.0,,29.0,24.0,29.69,1006.6,,,,,,,,,,,,,,,4/8 Partly Cloudy,72000.0,,SCT,2200.0,,,,,,
KRDR,07-04-2012,20:00,METAR,,,0.0,,,9999.0,,27.0,22.0,29.67,1005.8,,,,,,,,,,,,,,,Clear,72000.0,,,73000.0,,,,,,
KRDR,07-04-2012,19:00,METAR,,,0.0,,,9999.0,,26.0,22.0,29.65,1005.4,,,,,,,,,,,,,,,Clear,72000.0,,,73000.0,,,,,,
KRDR,07-04-2012,18:22,SPECI,,10,5.0,,,9999.0,,25.0,21.0,29.68,1006.2,,,,,,,,,,,,,,,4/8 Partly Cloudy,72000.0,,SCT,1900.0,,,,,,
KRDR,07-04-2012,18:16,SPECI,,30,5.0,,,9999.0,,25.0,21.0,29.68,1006.2,,,,,,,,,,,,,,,7/8 Mostly Cloudy,1900.0,,BKN,1900.0,,,,,,
KRDR,07-04-2012,18:02,SPECI,,,5.0,,,9999.0,,25.0,20.0,29.68,1006.4,,,,,,,,,,,,,,,4/8 Partly Cloudy,72000.0,,SCT,1800.0,,,,,,
KRDR,07-04-2012,18:00,METAR,,20,7.0,,,9999.0,,25.0,21.0,29.69,1006.5,,,,,,,,,,,,,.24 IN,,4/8 Partly Cloudy,72000.0,,SCT,1700.0,,,,,,
KRDR,07-04-2012,17:00,METAR,,,0.0,,,9999.0,,21.0,20.0,29.63,1004.6,,,,,,,,,,,,,,,Clear,72000.0,,,73000.0,,,,,,
KRDR,07-04-2012,16:00,METAR,,70,13.0,21.0,100/27KTS,9999.0,,21.0,20.0,29.59,1003.3,,,,,,,,,,,.06 IN,,,,2/8 Mostly Clear,72000.0,,FEW,600.0,,,,,,
KRDR,07-04-2012,15:41,SPECI,,80,17.0,27.0,100/27KTS,9999.0,,20.0,20.0,29.59,1003.2,,,,,,,,,,,,,,,4/8 Partly Cloudy,72000.0,,SCT,600.0,,,,,,
KRDR,07-04-2012,15:39,SPECI,,90,19.0,27.0,100/27KTS,9999.0,Light Rain,20.0,20.0,29.57,1002.6,61,,,,,,,,,,,,,,4/8 Partly Cloudy,72000.0,,SCT,600.0,SCT,12000.0,,,,
KRDR,07-04-2012,15:18,SPECI,,40,10.0,,,9999.0,Thunderstorm and Rain or Snow Showers,21.0,20.0,29.68,1006.3,92,,,,,,,,,,,,,,4/8 Partly Cloudy,72000.0,,FEW,500.0,SCT,1500.0,SCT,12000.0,,
KRDR,07-04-2012,15:07,SPECI,,30,5.0,,,9999.0,Thunderstorm and Rain or Snow Showers,20.0,20.0,29.69,1006.6,92,,,,,,,,,,,,,,7/8 Mostly Cloudy,1900.0,,SCT,1500.0,BKN,4500.0,,,,
KRDR,07-04-2012,15:04,SPECI,,20,6.0,,,9999.0,Thunderstorm and Rain or Snow Showers/Mist,20.0,20.0,29.70,1006.9,92,10,,,,,,,,,,,,,7/8 Mostly Cloudy,1600.0,,BKN,1600.0,BKN,2000.0,BKN,4500.0,,
KRDR,07-04-2012,15:02,SPECI,,40,7.0,,,6400.0,Thunderstorm and Rain or Snow Showers/Mist,20.0,20.0,29.69,1006.7,92,10,,,,,,,,,,,,,7/8 Mostly Cloudy,1400.0,,BKN,1400.0,BKN,2000.0,,,,
KRDR,07-04-2012,15:01,SPECI,,60,8.0,,,4800.0,Thunderstorm and Rain or Snow Showers/Mist,20.0,20.0,29.69,1006.6,92,10,,,,,,,,,,,,,7/8 Mostly Cloudy,1600.0,,BKN,1600.0,BKN,2100.0,,,,
KRDR,07-04-2012,15:00,METAR,,70,13.0,23.0,,2400.0,Thunderstorm and Rain or Snow Showers/Mist,21.0,20.0,29.67,1006.1,92,10,,,,,,,,,,,,,8/8 Overcast,1700.0,,OVC,1700.0,,,,,,
KRDR,07-04-2012,14:50,SPECI,,30,18.0,23.0,010/33KTS,2800.0,Heavy Thunderstorm and Rain or Snow Showers/Mist,22.0,20.0,29.69,1006.6,95,10,,,,,,,,,,,,,8/8 Overcast,1800.0,,OVC,1800.0,,,,,,
KRDR,07-04-2012,14:45,SPECI,,310,14.0,,010/33KTS,8000.0,Heavy Thunderstorm and Rain or Snow Showers,22.0,20.0,29.72,1007.6,95,,,,,,,,,,,,,,8/8 Overcast,1300.0,,BKN,1300.0,OVC,1900.0,,,,
KRDR,07-04-2012,14:41,SPECI,,330,13.0,22.0,010/33KTS,9999.0,Thunderstorm and Rain or Snow Showers,23.0,20.0,29.71,1007.1,92,,,,,,,,,,,,,,8/8 Overcast,1800.0,,SCT,1300.0,OVC,1800.0,,,,
KRDR,07-04-2012,14:40,SPECI,,340,13.0,22.0,010/33KTS,9999.0,,23.0,21.0,29.70,1007.0,,,,,,,,,,,,,,,8/8 Overcast,1700.0,,SCT,1300.0,OVC,1800.0,,,,
KRDR,07-04-2012,14:38,SPECI,,360,12.0,22.0,010/33KTS,9999.0,,23.0,21.0,29.69,1006.7,,,,,,,,,,,,,,,8/8 Overcast,1100.0,,BKN,1300.0,OVC,1800.0,,,,
KRDR,07-04-2012,14:32,SPECI,,30,16.0,27.0,010/33KTS,9999.0,,23.0,21.0,29.67,1006.0,,,,,,,,,,,,,,,8/8 Overcast,1000.0,,OVC,1500.0,,,,,,
KRDR,07-04-2012,14:20,SPECI,,30,19.0,33.0,010/33KTS,9999.0,,24.0,21.0,29.65,1005.2,,,,,,,,,,,,,,,7/8 Mostly Cloudy,1000.0,,BKN,1200.0,,,,,,
KRDR,07-04-2012,14:16,SPECI,,20,27.0,33.0,010/33KTS,9999.0,,24.0,21.0,29.64,1005.0,,,,,,,,,,,,,,,7/8 Mostly Cloudy,1600.0,,SCT,1200.0,BKN,1600.0,,,,
KRDR,07-04-2012,14:07,SPECI,,10,17.0,,,9999.0,,25.0,23.0,29.66,1005.5,,,,,,,,,,,,,,,2/8 Mostly Clear,72000.0,,FEW,1000.0,,,,,,
KRDR,07-04-2012,14:00,METAR,,160,12.0,,,9999.0,,25.0,23.0,29.58,1003.0,,,,,,,,,,,TRACE,,,,Clear,72000.0,,,73000.0,,,,,,
KRDR,07-04-2012,13:11,SPECI,,130,10.0,,,9999.0,,25.0,23.0,29.55,1002.0,,,,,,,,,,,,,,,2/8 Mostly Clear,72000.0,,FEW,1300.0,,,,,,
KRDR,07-04-2012,13:00,METAR,,150,14.0,20.0,,9999.0,Thunderstorm and Rain or Snow Showers,25.0,23.0,29.57,1002.5,92,,,,,,,,,,TRACE,,,,2/8 Mostly Clear,72000.0,,FEW,1300.0,,,,,,
KRDR,07-04-2012,12:48,SPECI,,170,12.0,,,9999.0,,25.0,23.0,29.59,1003.3,,,,,,,,,,,,,,,2/8 Mostly Clear,72000.0,,FEW,1300.0,,,,,,
KRDR,07-04-2012,12:00,METAR,,140,7.0,,,9999.0,,23.0,22.0,29.62,1004.5,,,,,,,,,,,,,,,Clear,72000.0,,,73000.0,,,,,,
KRDR,07-04-2012,11:00,METAR,,120,5.0,,,9999.0,,22.0,21.0,29.65,1005.4,,,,,,,,,,,,,,,Clear,72000.0,,,73000.0,,,,,,
KRDR,07-04-2012,10:00,METAR,,120,4.0,,,9999.0,,22.0,20.0,29.66,1005.6,,,,,,,,,,,,,,,Clear,72000.0,,,73000.0,,,,,,
KRDR,07-04-2012,09:00,METAR,,150,3.0,,,9999.0,,21.0,20.0,29.67,1006.0,,,,,,,,,,,,,,,Clear,72000.0,,,73000.0,,,,,,
KRDR,07-04-2012,08:00,METAR,,150,4.0,,,9999.0,,22.0,19.0,29.69,1006.5,,,,,,,,,,,,,,,Clear,72000.0,,,73000.0,,,,,,
KRDR,07-04-2012,07:00,METAR,,130,5.0,,,9999.0,,23.0,18.0,29.69,1006.6,,,,,,,,,,,,,,,Clear,72000.0,,,73000.0,,,,,,
KRDR,07-04-2012,06:00,METAR,,120,7.0,,,9999.0,,24.0,18.0,29.70,1007.1,,,,,,,,,,,,,,,Clear,72000.0,,,73000.0,,,,,,
KRDR,07-04-2012,05:00,METAR,,100,6.0,,,9999.0,,24.0,18.0,29.72,1007.7,,,,,,,,,,,,,,,Clear,72000.0,,,73000.0,,,,,,
KRDR,07-04-2012,04:00,METAR,,100,6.0,,,9999.0,,24.0,18.0,29.74,1008.1,,,,,,,,,,,,,,,Clear,72000.0,,,73000.0,,,,,,
KRDR,07-04-2012,03:00,METAR,,40,5.0,,,9999.0,,23.0,18.0,29.72,1007.7,,,,,,,,,,,,,,,Clear,72000.0,,,73000.0,,,,,,
KRDR,07-04-2012,02:00,METAR,,90,3.0,,,9999.0,,28.0,18.0,29.68,1006.3,,,,,,,,,,,,,,,Clear,72000.0,,,73000.0,,,,,,
KRDR,07-04-2012,01:00,METAR,,100,4.0,,,9999.0,,30.0,17.0,29.70,1006.9,,,,,,,,,,,,,,,Clear,72000.0,,,73000.0,,,,,,
KRDR,07-04-2012,00:00,METAR,,130,6.0,,,9999.0,,31.0,17.0,29.72,1007.7,,,,,,,,,,,,,TRACE,,Clear,72000.0,,,73000.0,,,,,,
KRDR,07-03-2012,23:00,METAR,,210,4.0,,,9999.0,,31.0,16.0,29.74,1008.3,,,,,,,,,,,TRACE,,,,Clear,72000.0,,,73000.0,,,,,,
KRDR,07-03-2012,22:15,SPECI,,210,4.0,,,9999.0,,31.0,17.0,29.75,1008.6,,,,,,,,,,,,,,,Clear,72000.0,,,73000.0,,,,,,
KRDR,07-03-2012,22:08,SPECI,,200,3.0,,,9999.0,,30.0,16.0,29.75,1008.7,,,,,,,,,,,,,,,Clear,72000.0,,,73000.0,,,,,,
KRDR,07-03-2012,22:00,METAR,,190,4.0,,,9999.0,,30.0,17.0,29.76,1008.8,,,,,,,,,,,,,,,Clear,72000.0,,,73000.0,,,,,,
KRDR,07-03-2012,21:00,METAR,,,4.0,,,9999.0,,31.0,17.0,29.77,1009.2,,,,,,,,,,,,,,,Clear,72000.0,,,73000.0,,,,,,
KRDR,07-03-2012,20:00,METAR,,,0.0,,,9999.0,,30.0,17.0,29.79,1009.9,,,,,,,,,,,,,,,Clear,72000.0,,,73000.0,,,,,,
KRDR,07-03-2012,19:00,METAR,,100,6.0,,,9999.0,,31.0,17.0,29.77,1009.1,,,,,,,,,,,,,,,Clear,72000.0,,,73000.0,,,,,,
KRDR,07-03-2012,18:00,METAR,,90,4.0,,,9999.0,,30.0,18.0,29.79,1010.0,,,,,,,,,,,,,,,4/8 Partly Cloudy,72000.0,,SCT,4600.0,,,,,,
KRDR,07-03-2012,17:00,METAR,,,0.0,,,9999.0,,29.0,18.0,29.80,1010.3,,,,,,,,,,,,,,,Clear,72000.0,,,73000.0,,,,,,
KRDR,07-03-2012,16:00,METAR,,50,5.0,,,9999.0,,28.0,19.0,29.81,1010.6,,,,,,,,,,,,,,,Clear,72000.0,,,73000.0,,,,,,
KRDR,07-03-2012,15:00,METAR,,,0.0,,,9999.0,,26.0,19.0,29.83,1011.3,,,,,,,,,,,,,,,Clear,72000.0,,,73000.0,,,,,,
KRDR,07-03-2012,14:00,METAR,,30,6.0,,,9999.0,,25.0,19.0,29.83,1011.3,,,,,,,,,,,,,,,Clear,72000.0,,,73000.0,,,,,,
KRDR,07-03-2012,13:00,METAR,,360,5.0,,,9999.0,,23.0,18.0,29.82,1010.8,,,,,,,,,,,,,,,Clear,72000.0,,,73000.0,,,,,,
KRDR,07-03-2012,12:00,METAR,,340,6.0,,,9999.0,,21.0,17.0,29.80,1010.1,,,,,,,,,,,,,,,Clear,72000.0,,,73000.0,,,,,,
KRDR,07-03-2012,11:00,METAR,,340,5.0,,,9999.0,,20.0,17.0,29.78,1009.5,,,,,,,,,,,,,,,Clear,72000.0,,,73000.0,,,,,,
KRDR,07-03-2012,10:00,METAR,,340,7.0,,,9999.0,,20.0,18.0,29.77,1009.3,,,,,,,,,,,,,,,Clear,72000.0,,,73000.0,,,,,,
KRDR,07-03-2012,09:00,METAR,,350,5.0,,,9999.0,,21.0,18.0,29.78,1009.4,,,,,,,,,,,,,,,Clear,72000.0,,,73000.0,,,,,,
KRDR,07-03-2012,08:00,METAR,,320,4.0,,,9999.0,,21.0,19.0,29.77,1009.2,,,,,,,,,,,,,,,Clear,72000.0,,,73000.0,,,,,,
KRDR,07-03-2012,07:00,METAR,,320,5.0,,,9999.0,,21.0,19.0,29.75,1008.7,,,,,,,,,,,,,,,Clear,72000.0,,,73000.0,,,,,,
KRDR,07-03-2012,06:00,METAR,,340,6.0,,,9999.0,,22.0,18.0,29.74,1008.2,,,,,,,,,,,,,,,Clear,72000.0,,,73000.0,,,,,,
KRDR,07-03-2012,05:00,METAR,,310,5.0,,,9999.0,,21.0,16.0,29.75,1008.6,,,,,,,,,,,,,,,Clear,72000.0,,,73000.0,,,,,,
KRDR,07-03-2012,04:00,METAR,,,0.0,,,9999.0,,21.0,18.0,29.76,1008.9,,,,,,,,,,,,,,,Clear,12000.0,,,73000.0,,,,,,
KRDR,07-03-2012,03:00,METAR,,310,3.0,,,9999.0,,23.0,19.0,29.74,1008.2,,,,,,,,,,,,,,,Clear,72000.0,,,73000.0,,,,,,
KRDR,07-03-2012,02:00,METAR,,350,6.0,,,9999.0,,27.0,22.0,29.71,1007.3,,,,,,,,,,,,,,,Clear,72000.0,,,73000.0,,,,,,
KRDR,07-03-2012,01:00,METAR,,320,8.0,,,9999.0,,30.0,24.0,29.69,1006.6,,,,,,,,,,,,,,,Clear,72000.0,,,73000.0,,,,,,
KRDR,07-03-2012,00:00,METAR,,260,4.0,,,9999.0,,31.0,24.0,29.66,1005.7,,,,,,,,,,,,,,,Clear,72000.0,,,73000.0,,,,,,
KRDR,07-02-2012,23:00,METAR,,160,3.0,,,9999.0,,32.0,24.0,29.69,1006.5,,,,,,,,,,,,,,,Clear,72000.0,,,73000.0,,,,,,
KRDR,07-02-2012,22:00,METAR,,150,6.0,,,9999.0,,30.0,24.0,29.70,1007.0,,,,,,,,,,,,,,,Clear,72000.0,,,73000.0,,,,,,
KRDR,07-02-2012,21:00,METAR,,110,15.0,,,9999.0,,30.0,24.0,29.70,1007.0,,,,,,,,,,,TRACE,,,,2/8 Mostly Clear,72000.0,,FEW,9900.0,,,,,,
KRDR,07-02-2012,19:00,METAR,,60,8.0,,,9999.0,,31.0,23.0,29.74,1008.2,,,,,,,,,,,,,,,Clear,72000.0,,,73000.0,,,,,,
KRDR,07-02-2012,18:00,METAR,,10,7.0,,,9999.0,,30.0,24.0,29.76,1008.9,,,,,,,,,,,,,,,Clear,72000.0,,,73000.0,,,,,,
KRDR,07-02-2012,17:00,METAR,,280,6.0,,,9999.0,,30.0,23.0,29.78,1009.7,,,,,,,,,,,,,,,Clear,72000.0,,,73000.0,,,,,,
KRDR,07-02-2012,16:00,METAR,,140,7.0,,,9999.0,,29.0,23.0,29.74,1008.4,,,,,,,,,,,,,,,Clear,72000.0,,,73000.0,,,,,,
KRDR,07-02-2012,15:00,METAR,,,3.0,,,9999.0,,27.0,23.0,29.78,1009.4,,,,,,,,,,,,,,,Clear,72000.0,,,73000.0,,,,,,
KRDR,07-02-2012,14:00,METAR,,330,4.0,,,9999.0,,26.0,23.0,29.80,1010.2,,,,,,,,,,,,,,,Clear,72000.0,,,73000.0,,,,,,
KRDR,07-02-2012,13:14,SPECI,,360,4.0,,,9999.0,,25.0,23.0,29.79,1010.0,,,,,,,,,,,,,,,2/8 Mostly Clear,72000.0,,FEW,1000.0,,,,,,
KRDR,07-02-2012,13:00,METAR,,,0.0,,,9999.0,,24.0,22.0,29.78,1009.5,,,,,,,,,,,,,,,Clear,72000.0,,,73000.0,,,,,,
KRDR,07-02-2012,12:00,METAR,,160,3.0,,,9999.0,,22.0,21.0,29.76,1009.0,,,,,,,,,,,,,TRACE,,Clear,72000.0,,,73000.0,,,,,,
KRDR,07-02-2012,11:00,METAR,,160,4.0,,,9999.0,,20.0,20.0,29.74,1008.4,,,,,,,,,,,,,,,Clear,72000.0,,,73000.0,,,,,,
KRDR,07-02-2012,10:00,METAR,,150,6.0,,,9999.0,,21.0,20.0,29.74,1008.2,,,,,,,,,,,,,,,Clear,72000.0,,,73000.0,,,,,,
KRDR,07-02-2012,09:00,METAR,,140,4.0,,,9999.0,,22.0,21.0,29.77,1009.1,,,,,,,,,,,,TRACE,,,Clear,72000.0,,,73000.0,,,,,,
KRDR,07-02-2012,08:00,METAR,,,0.0,,,9999.0,,21.0,20.0,29.78,1009.7,,,,,,,,,,,TRACE,,,,Clear,72000.0,,,73000.0,,,,,,
KRDR,07-02-2012,07:47,SPECI,,,0.0,,,9999.0,,21.0,20.0,29.78,1009.7,,,,,,,,,,,,,,,Clear,72000.0,,,73000.0,,,,,,
KRDR,07-02-2012,07:42,SPECI,,190,4.0,,,9999.0,,21.0,20.0,29.79,1009.8,,,,,,,,,,,,,,,Clear,72000.0,,,73000.0,,,,,,
KRDR,07-02-2012,07:35,SPECI,,220,5.0,,,6400.0,Mist,20.0,20.0,29.79,1010.0,10,,,,,,,,,,,,,,Clear,72000.0,,,73000.0,,,,,,
KRDR,07-02-2012,07:26,SPECI,,220,3.0,,,4000.0,Mist,20.0,20.0,29.80,1010.1,10,,,,,,,,,,,,,,Clear,72000.0,,,73000.0,,,,,,
KRDR,07-02-2012,07:00,METAR,,160,4.0,,,9999.0,,22.0,21.0,29.79,1009.9,,,,,,,,,,,,,,,Clear,72000.0,,,73000.0,,,,,,
KRDR,07-02-2012,06:00,METAR,,160,4.0,,,9999.0,,24.0,21.0,29.80,1010.1,,,,,,,,,,,,,,,Clear,72000.0,,,73000.0,,,,,,
KRDR,07-02-2012,05:00,METAR,,140,5.0,,,9999.0,,26.0,22.0,29.78,1009.6,,,,,,,,,,,,,,,Clear,72000.0,,,73000.0,,,,,,
KRDR,07-02-2012,04:00,METAR,,120,5.0,,,9999.0,,27.0,21.0,29.78,1009.5,,,,,,,,,,,,,,,Clear,72000.0,,,73000.0,,,,,,
KRDR,07-02-2012,03:00,METAR,,90,5.0,,,9999.0,,28.0,22.0,29.78,1009.6,,,,,,,,,,,,,,,Clear,72000.0,,,73000.0,,,,,,
KRDR,07-02-2012,02:00,METAR,,130,3.0,,,9999.0,,31.0,21.0,29.78,1009.5,,,,,,,,,,,,,,,Clear,72000.0,,,73000.0,,,,,,
KRDR,07-02-2012,01:00,METAR,,150,3.0,,,9999.0,,32.0,20.0,29.79,1009.8,,,,,,,,,,,,,,,Clear,72000.0,,,73000.0,,,,,,
KRDR,07-02-2012,00:00,METAR,,,3.0,,,9999.0,,32.0,19.0,29.78,1009.7,,,,,,,,,,,,,,,Clear,72000.0,,,73000.0,,,,,,
KRDR,07-01-2012,23:54,SPECI,,,0.0,,,9999.0,,26.0,18.0,29.83,1011.2,,,,,,,,,,,,,,,2/8 Mostly Clear,72000.0,,FEW,12000.0,,,,,,
KRDR,07-01-2012,23:40,SPECI,,,0.0,,,9999.0,Light Rain,26.0,16.0,29.84,1011.5,61,,,,,,,,,,,,,,Clear,72000.0,,,73000.0,,,,,,
KRDR,07-01-2012,23:00,METAR,,,0.0,,,9999.0,,33.0,20.0,29.80,1010.3,,,,,,,,,,,,,,,4/8 Partly Cloudy,72000.0,,SCT,5900.0,,,,,,
KRDR,07-01-2012,22:00,METAR,,,3.0,,,9999.0,,33.0,19.0,29.81,1010.7,,,,,,,,,,,,,,,2/8 Mostly Clear,72000.0,,FEW,5900.0,,,,,,
KRDR,07-01-2012,21:00,METAR,,,3.0,,,9999.0,,31.0,20.0,29.81,1010.7,,,,,,,,,,,,,,,Clear,72000.0,,,73000.0,,,,,,
KRDR,07-01-2012,20:00,METAR,,,3.0,,,9999.0,,32.0,19.0,29.82,1011.0,,,,,,,,,,,,,,,Clear,72000.0,,,73000.0,,,,,,
KRDR,07-01-2012,19:00,METAR,,,3.0,,,9999.0,,30.0,21.0,29.83,1011.1,,,,,,,,,,,,,,,Clear,72000.0,,,73000.0,,,,,,
KRDR,07-01-2012,18:00,METAR,,60,4.0,,,9999.0,,29.0,21.0,29.83,1011.4,,,,,,,,,,,,,,,Clear,72000.0,,,73000.0,,,,,,
KRDR,07-01-2012,17:00,METAR,,,0.0,,,9999.0,,28.0,20.0,29.84,1011.7,,,,,,,,,,,,,,,Clear,72000.0,,,73000.0,,,,,,
KRDR,07-01-2012,16:00,METAR,,50,3.0,,,9999.0,,27.0,19.0,29.84,1011.7,,,,,,,,,,,,,,,Clear,72000.0,,,73000.0,,,,,,
KRDR,07-01-2012,15:00,METAR,,,0.0,,,9999.0,,25.0,19.0,29.85,1012.0,,,,,,,,,,,,,,,Clear,72000.0,,,73000.0,,,,,,
KRDR,07-01-2012,14:00,METAR,,120,3.0,,,9999.0,,23.0,19.0,29.86,1012.1,,,,,,,,,,,,,,,Clear,72000.0,,,73000.0,,,,,,
KRDR,07-01-2012,13:00,METAR,,,0.0,,,9999.0,,21.0,18.0,29.86,1012.2,,,,,,,,,,,,,,,Clear,72000.0,,,73000.0,,,,,,
KRDR,07-01-2012,12:00,METAR,,90,4.0,,,9999.0,,20.0,18.0,29.86,1012.2,,,,,,,,,,,,,,.03 IN,4/8 Partly Cloudy,72000.0,,SCT,5000.0,,,,,,
KRDR,07-01-2012,11:00,METAR,,,0.0,,,9999.0,,18.0,17.0,29.86,1012.3,,,,,,,,,,,,,,,4/8 Partly Cloudy,72000.0,,SCT,5900.0,,,,,,
KRDR,07-01-2012,10:00,METAR,,,0.0,,,9999.0,,19.0,17.0,29.85,1011.8,,,,,,,,,,,,,,,7/8 Mostly Cloudy,6000.0,,SCT,6900.0,BKN,7900.0,,,,
KRDR,07-01-2012,09:00,METAR,,80,4.0,,,9999.0,,19.0,18.0,29.85,1011.7,,,,,,,,,,,,,,,7/8 Mostly Cloudy,6000.0,,BKN,5900.0,,,,,,
KRDR,07-01-2012,08:00,METAR,,,0.0,,,9999.0,,20.0,18.0,29.84,1011.6,,,,,,,,,,,,,,,7/8 Mostly Cloudy,6000.0,,SCT,5900.0,SCT,6900.0,BKN,11000.0,,
KRDR,07-01-2012,07:00,METAR,,240,3.0,,,9999.0,,19.0,18.0,29.84,1011.5,,,,,,,,,,,,,,,8/8 Overcast,8000.0,,OVC,7900.0,,,,,,
KRDR,07-01-2012,06:00,METAR,,230,5.0,,,9999.0,,20.0,17.0,29.84,1011.6,,,,,,,,,,,.01 IN,,.03 IN,,7/8 Mostly Cloudy,11000.0,,BKN,11000.0,,,,,,
KRDR,07-01-2012,05:13,SPECI,,200,3.0,,,9999.0,,21.0,18.0,29.84,1011.5,,,,,,,,,,,,,,,7/8 Mostly Cloudy,10000.0,,FEW,6900.0,BKN,9900.0,,,,
KRDR,07-01-2012,05:00,METAR,,270,5.0,,,9999.0,,20.0,18.0,29.85,1011.8,,,,,,,,,,,.02 IN,,,,7/8 Mostly Cloudy,10000.0,,FEW,5900.0,SCT,8900.0,BKN,12000.0,,
KRDR,07-01-2012,04:53,SPECI,,270,5.0,,,9999.0,Light Rain,20.0,18.0,29.85,1011.7,61,,,,,,,,,,,,,,7/8 Mostly Cloudy,10000.0,,FEW,5900.0,SCT,8900.0,BKN,12000.0,,
KRDR,07-01-2012,04:11,SPECI,,220,3.0,,,9999.0,,22.0,18.0,29.86,1012.1,,,,,,,,,,,,,,,7/8 Mostly Cloudy,10000.0,,FEW,4500.0,BKN,9900.0,,,,
KRDR,07-01-2012,04:00,METAR,,220,6.0,,,9999.0,,23.0,17.0,29.86,1012.1,,,,,,,,,,,TRACE,,,,7/8 Mostly Cloudy,9000.0,,FEW,7900.0,BKN,8900.0,,,,
KRDR,07-01-2012,03:53,SPECI,,220,6.0,,,9999.0,Light Rain,23.0,17.0,29.86,1012.1,61,,,,,,,,,,,,,,7/8 Mostly Cloudy,8000.0,,FEW,7900.0,SCT,8900.0,BKN,11000.0,,
KRDR,07-01-2012,03:00,METAR,,,0.0,,,9999.0,Light Rain,23.0,18.0,29.85,1011.9,61,,,,,,,,,,TRACE,0 IN,,,7/8 Mostly Cloudy,8000.0,,BKN,7900.0,,,,,,
KRDR,07-01-2012,02:46,SPECI,,,0.0,,,9999.0,Light Rain,24.0,18.0,29.85,1011.9,61,,,,,,,,,,,,,,7/8 Mostly Cloudy,8000.0,,BKN,7900.0,BKN,11000.0,,,,
KRDR,07-01-2012,02:00,METAR,,200,5.0,,,9999.0,,25.0,18.0,29.84,1011.5,,,,,,,,,,,,,,,2/8 Mostly Clear,72000.0,,FEW,7900.0,,,,,,
KRDR,07-01-2012,01:00,METAR,,200,4.0,,,9999.0,,26.0,15.0,29.83,1011.4,,,,,,,,,,,,,,,2/8 Mostly Clear,72000.0,,FEW,8900.0,,,,,,
KRDR,07-01-2012,00:00,METAR,,240,3.0,,,9999.0,,29.0,15.0,29.83,1011.3,,,,,,,,,,,,,,,Clear,72000.0,,,73000.0,,,,,,
KRDR,06-30-2012,23:00,METAR,,,0.0,,,9999.0,,29.0,15.0,29.83,1011.4,,,,,,,,,,,,,,,7/8 Mostly Cloudy,8000.0,,BKN,7900.0,,,,,,
KRDR,06-30-2012,22:00,METAR,,,4.0,,,9999.0,,29.0,14.0,29.84,1011.6,,,,,,,,,,,,,,,4/8 Partly Cloudy,72000.0,,SCT,11000.0,,,,,,
KRDR,06-30-2012,21:00,METAR,,,4.0,,,9999.0,,29.0,13.0,29.84,1011.7,,,,,,,,,,,,,,,Clear,72000.0,,,73000.0,,,,,,
KRDR,06-30-2012,20:00,METAR,,40,4.0,,,9999.0,,28.0,14.0,29.85,1011.8,,,,,,,,,,,,,,,2/8 Mostly Clear,72000.0,,FEW,11000.0,,,,,,
KRDR,06-30-2012,19:00,METAR,,,6.0,,,9999.0,,27.0,16.0,29.85,1011.8,,,,,,,,,,,,,,,Clear,72000.0,,,73000.0,,,,,,
KRDR,06-30-2012,18:00,METAR,,210,7.0,,,9999.0,,26.0,15.0,29.84,1011.7,,,,,,,,,,,,,TRACE,,Clear,72000.0,,,73000.0,,,,,,
KRDR,06-30-2012,17:00,METAR,,180,9.0,,,9999.0,,25.0,14.0,29.85,1012.1,,,,,,,,,,,,,,,Clear,72000.0,,,73000.0,,,,,,
KRDR,06-30-2012,16:00,METAR,,200,7.0,,,9999.0,,22.0,16.0,29.85,1011.8,,,,,,,,,,,,,,,Clear,72000.0,,,73000.0,,,,,,
KRDR,06-30-2012,15:00,METAR,,210,6.0,,,9999.0,,22.0,15.0,29.85,1012.0,,,,,,,,,,,,TRACE,,,Clear,72000.0,,,73000.0,,,,,,
KRDR,06-30-2012,14:00,METAR,,210,5.0,,,9999.0,,21.0,15.0,29.87,1012.7,,,,,,,,,,,TRACE,,,,4/8 Partly Cloudy,72000.0,,FEW,4600.0,SCT,11000.0,,,,
KRDR,06-30-2012,13:38,SPECI,,220,6.0,,,9999.0,,21.0,15.0,29.89,1013.0,,,,,,,,,,,,,,,7/8 Mostly Cloudy,12000.0,,FEW,3800.0,SCT,7900.0,BKN,12000.0,,
KRDR,06-30-2012,13:20,SPECI,,240,7.0,,,9999.0,,19.0,15.0,29.91,1013.7,,,,,,,,,,,,,,,7/8 Mostly Cloudy,12000.0,,FEW,4800.0,BKN,12000.0,,,,
KRDR,06-30-2012,13:05,SPECI,,220,7.0,,,9999.0,,19.0,15.0,29.91,1013.9,,,,,,,,,,,,,,,7/8 Mostly Cloudy,12000.0,,BKN,12000.0,,,,,,
KRDR,06-30-2012,13:00,METAR,,230,4.0,,,9999.0,Light Drizzle,18.0,15.0,29.91,1013.8,51,,,,,,,,,,,,,,7/8 Mostly Cloudy,12000.0,,FEW,7900.0,BKN,12000.0,,,,
KRDR,06-30-2012,12:00,METAR,,,0.0,,,9999.0,,17.0,14.0,29.87,1012.6,,,,,,,,,,,,,,,Clear,72000.0,,,73000.0,,,,,,
KRDR,06-30-2012,11:00,METAR,,210,3.0,,,9999.0,,14.0,12.0,29.87,1012.5,,,,,,,,,,,,,,,Clear,72000.0,,,73000.0,,,,,,
KRDR,06-30-2012,10:00,METAR,,300,8.0,,,9999.0,,15.0,12.0,29.87,1012.7,,,,,,,,,,,,,,,Clear,72000.0,,,73000.0,,,,,,
KRDR,06-30-2012,09:00,METAR,,290,3.0,,,9999.0,,13.0,11.0,29.85,1011.8,,,,,,,,,,,,,,,Clear,72000.0,,,73000.0,,,,,,
KRDR,06-30-2012,08:00,METAR,,270,3.0,,,9999.0,,14.0,12.0,29.84,1011.5,,,,,,,,,,,,,,,Clear,72000.0,,,73000.0,,,,,,
KRDR,06-30-2012,07:00,METAR,,,0.0,,,9999.0,,14.0,12.0,29.84,1011.5,,,,,,,,,,,,,,,Clear,72000.0,,,73000.0,,,,,,
KRDR,06-30-2012,06:00,METAR,,,0.0,,,9999.0,,15.0,12.0,29.85,1011.7,,,,,,,,,,,,,,,Clear,72000.0,,,73000.0,,,,,,
KRDR,06-30-2012,05:00,METAR,,250,3.0,,,9999.0,,16.0,12.0,29.84,1011.6,,,,,,,,,,,,,,,Clear,72000.0,,,73000.0,,,,,,
KRDR,06-30-2012,04:00,METAR,,310,3.0,,,9999.0,,17.0,13.0,29.83,1011.4,,,,,,,,,,,,,,,Clear,72000.0,,,73000.0,,,,,,
KRDR,06-30-2012,03:00,METAR,,340,3.0,,,9999.0,,20.0,13.0,29.83,1011.3,,,,,,,,,,,,,,,Clear,72000.0,,,73000.0,,,,,,
KRDR,06-30-2012,02:00,METAR,,10,6.0,,,9999.0,,23.0,14.0,29.81,1010.7,,,,,,,,,,,,,,,Clear,72000.0,,,73000.0,,,,,,
KRDR,06-30-2012,01:00,METAR,,360,8.0,,,9999.0,,27.0,13.0,29.81,1010.6,,,,,,,,,,,,,,,Clear,72000.0,,,73000.0,,,,,,
KRDR,06-30-2012,00:00,METAR,,350,7.0,,,9999.0,,28.0,13.0,29.81,1010.5,,,,,,,,,,,,,,,Clear,72000.0,,,73000.0,,,,,,
KRDR,06-29-2012,23:00,METAR,,360,12.0,,,9999.0,,29.0,12.0,29.81,1010.5,,,,,,,,,,,,,,,Clear,72000.0,,,73000.0,,,,,,
KRDR,06-29-2012,22:00,METAR,,320,8.0,,,9999.0,,30.0,12.0,29.82,1010.8,,,,,,,,,,,,,,,Clear,72000.0,,,73000.0,,,,,,
KRDR,06-29-2012,21:00,METAR,,320,7.0,,,9999.0,,30.0,11.0,29.83,1011.2,,,,,,,,,,,,,,,Clear,72000.0,,,73000.0,,,,,,
KRDR,06-29-2012,20:00,METAR,,300,10.0,,,9999.0,,29.0,12.0,29.85,1011.9,,,,,,,,,,,,,,,Clear,72000.0,,,73000.0,,,,,,
KRDR,06-29-2012,19:00,METAR,,310,6.0,,,9999.0,,29.0,12.0,29.85,1011.8,,,,,,,,,,,,,,,Clear,72000.0,,,73000.0,,,,,,
KRDR,06-29-2012,18:00,METAR,,310,8.0,,,9999.0,,28.0,11.0,29.85,1011.9,,,,,,,,,,,,,,,Clear,72000.0,,,73000.0,,,,,,
KRDR,06-29-2012,17:00,METAR,,310,5.0,,,9999.0,,28.0,12.0,29.87,1012.5,,,,,,,,,,,,,,,Clear,72000.0,,,73000.0,,,,,,
KRDR,06-29-2012,16:00,METAR,,350,6.0,,,9999.0,,26.0,12.0,29.87,1012.5,,,,,,,,,,,,,,,Clear,72000.0,,,73000.0,,,,,,
KRDR,06-29-2012,15:00,METAR,,340,5.0,,,9999.0,,25.0,14.0,29.85,1012.1,,,,,,,,,,,,,,,Clear,72000.0,,,73000.0,,,,,,
KRDR,06-29-2012,14:00,METAR,,320,4.0,,,9999.0,,23.0,14.0,29.86,1012.3,,,,,,,,,,,,,,,Clear,72000.0,,,73000.0,,,,,,
KRDR,06-29-2012,13:00,METAR,,310,6.0,,,9999.0,,20.0,13.0,29.87,1012.6,,,,,,,,,,,,,,,Clear,72000.0,,,73000.0,,,,,,
KRDR,06-29-2012,12:00,METAR,,310,4.0,,,9999.0,,16.0,12.0,29.87,1012.6,,,,,,,,,,,,,,,Clear,72000.0,,,73000.0,,,,,,
KRDR,06-29-2012,11:00,METAR,,270,5.0,,,9999.0,,13.0,10.0,29.86,1012.3,,,,,,,,,,,,,,,Clear,72000.0,,,73000.0,,,,,,
KRDR,06-29-2012,10:00,METAR,,260,4.0,,,9999.0,,13.0,10.0,29.85,1012.0,,,,,,,,,,,,,,,Clear,72000.0,,,73000.0,,,,,,
KRDR,06-29-2012,09:00,METAR,,260,5.0,,,9999.0,,13.0,10.0,29.86,1012.2,,,,,,,,,,,,,,,Clear,72000.0,,,73000.0,,,,,,
KRDR,06-29-2012,08:00,METAR,,280,5.0,,,9999.0,,14.0,11.0,29.86,1012.3,,,,,,,,,,,,,,,Clear,72000.0,,,73000.0,,,,,,
KRDR,06-29-2012,07:00,METAR,,260,5.0,,,9999.0,,13.0,11.0,29.87,1012.5,,,,,,,,,,,,,,,Clear,72000.0,,,73000.0,,,,,,
KRDR,06-29-2012,06:00,METAR,,240,4.0,,,9999.0,,14.0,10.0,29.87,1012.5,,,,,,,,,,,,,,,Clear,72000.0,,,73000.0,,,,,,
KRDR,06-29-2012,05:00,METAR,,,0.0,,,9999.0,,15.0,11.0,29.87,1012.5,,,,,,,,,,,,,,,Clear,72000.0,,,73000.0,,,,,,
KRDR,06-29-2012,04:00,METAR,,270,5.0,,,9999.0,,17.0,9.0,29.86,1012.2,,,,,,,,,,,,,,,Clear,72000.0,,,73000.0,,,,,,
KRDR,06-29-2012,03:00,METAR,,290,6.0,,,9999.0,,20.0,9.0,29.86,1012.1,,,,,,,,,,,,,,,Clear,72000.0,,,73000.0,,,,,,
KRDR,06-29-2012,02:00,METAR,,310,6.0,,,9999.0,,23.0,12.0,29.85,1011.9,,,,,,,,,,,,,,,Clear,72000.0,,,73000.0,,,,,,
KRDR,06-29-2012,01:00,METAR,,320,10.0,,,9999.0,,27.0,9.0,29.86,1012.3,,,,,,,,,,,,,,,Clear,72000.0,,,73000.0,,,,,,
KRDR,06-29-2012,00:00,METAR,,320,10.0,17.0,,9999.0,,28.0,9.0,29.86,1012.2,,,,,,,,,,,,,,,Clear,72000.0,,,73000.0,,,,,,
KRDR,06-28-2012,23:00,METAR,,310,11.0,20.0,280/26KTS,9999.0,,29.0,9.0,29.87,1012.5,,,,,,,,,,,,,,,Clear,72000.0,,,73000.0,,,,,,
KRDR,06-28-2012,22:00,METAR,,290,14.0,18.0,,9999.0,,29.0,9.0,29.88,1012.8,,,,,,,,,,,,,,,Clear,72000.0,,,73000.0,,,,,,
KRDR,06-28-2012,21:00,METAR,,310,14.0,21.0,310/27KTS,9999.0,,29.0,8.0,29.89,1013.1,,,,,,,,,,,,,,,Clear,72000.0,,,73000.0,,,,,,
KRDR,06-28-2012,20:00,METAR,,300,16.0,27.0,300/27KTS,9999.0,,29.0,8.0,29.90,1013.4,,,,,,,,,,,,,,,Clear,72000.0,,,73000.0,,,,,,
KRDR,06-28-2012,19:00,METAR,,290,16.0,21.0,,9999.0,,28.0,9.0,29.91,1013.8,,,,,,,,,,,,,,,Clear,72000.0,,,73000.0,,,,,,
KRDR,06-28-2012,18:00,METAR,,290,15.0,20.0,,9999.0,,28.0,10.0,29.91,1013.8,,,,,,,,,,,,,,,Clear,72000.0,,,73000.0,,,,,,
KRDR,06-28-2012,17:00,METAR,,290,12.0,,,9999.0,,26.0,11.0,29.91,1013.8,,,,,,,,,,,,,,,Clear,72000.0,,,73000.0,,,,,,
KRDR,06-28-2012,16:00,METAR,,290,11.0,,,9999.0,,25.0,12.0,29.90,1013.6,,,,,,,,,,,,,,,Clear,72000.0,,,73000.0,,,,,,
KRDR,06-28-2012,15:00,METAR,,280,9.0,,,9999.0,,24.0,12.0,29.91,1013.8,,,,,,,,,,,,,,,Clear,72000.0,,,73000.0,,,,,,
KRDR,06-28-2012,14:00,METAR,,270,11.0,,,9999.0,,21.0,11.0,29.90,1013.6,,,,,,,,,,,,,,,Clear,72000.0,,,73000.0,,,,,,
KRDR,06-28-2012,13:00,METAR,,270,9.0,,,9999.0,,19.0,11.0,29.90,1013.5,,,,,,,,,,,,,,,Clear,72000.0,,,73000.0,,,,,,
KRDR,06-28-2012,12:00,METAR,,250,5.0,,,9999.0,,16.0,11.0,29.89,1013.4,,,,,,,,,,,,,,,Clear,72000.0,,,73000.0,,,,,,
KRDR,06-28-2012,11:00,METAR,,270,7.0,,,9999.0,,16.0,10.0,29.87,1012.6,,,,,,,,,,,,,,,Clear,72000.0,,,73000.0,,,,,,
KRDR,06-28-2012,10:00,METAR,,230,7.0,,,9999.0,,14.0,10.0,29.87,1012.6,,,,,,,,,,,,,,,Clear,72000.0,,,73000.0,,,,,,
KRDR,06-28-2012,09:00,METAR,,240,5.0,,,9999.0,,13.0,10.0,29.86,1012.2,,,,,,,,,,,,,,,Clear,72000.0,,,73000.0,,,,,,
KRDR,06-28-2012,07:00,METAR,,260,7.0,,,9999.0,,13.0,10.0,29.85,1011.8,,,,,,,,,,,,,,,Clear,72000.0,,,73000.0,,,,,,
KRDR,06-28-2012,06:00,METAR,,250,6.0,,,9999.0,,12.0,10.0,29.83,1011.2,,,,,,,,,,,,,,,Clear,72000.0,,,73000.0,,,,,,
KRDR,06-28-2012,05:00,METAR,,260,4.0,,,9999.0,,14.0,10.0,29.82,1010.9,,,,,,,,,,,,,,,Clear,72000.0,,,73000.0,,,,,,
KRDR,06-28-2012,04:00,METAR,,240,3.0,,,9999.0,,15.0,11.0,29.83,1011.2,,,,,,,,,,,,,,,Clear,72000.0,,,73000.0,,,,,,
KRDR,06-28-2012,03:00,METAR,,250,4.0,,,9999.0,,18.0,12.0,29.81,1010.6,,,,,,,,,,,,,,,Clear,72000.0,,,73000.0,,,,,,
KRDR,06-28-2012,02:00,METAR,,270,5.0,,,9999.0,,21.0,12.0,29.79,1010.0,,,,,,,,,,,,,,,Clear,72000.0,,,73000.0,,,,,,
KRDR,06-28-2012,01:00,METAR,,330,5.0,,,9999.0,,23.0,9.0,29.77,1009.3,,,,,,,,,,,,,,,Clear,72000.0,,,73000.0,,,,,,
KRDR,06-28-2012,00:00,METAR,,310,10.0,,,9999.0,,26.0,9.0,29.74,1008.4,,,,,,,,,,,,,,,Clear,72000.0,,,73000.0,,,,,,
KRDR,06-27-2012,23:00,METAR,,330,14.0,20.0,,9999.0,,28.0,9.0,29.73,1007.8,,,,,,,,,,,,,,,Clear,72000.0,,,73000.0,,,,,,
KRDR,06-27-2012,22:00,METAR,,320,10.0,19.0,,9999.0,,27.0,8.0,29.72,1007.5,,,,,,,,,,,,,,,Clear,72000.0,,,73000.0,,,,,,
KRDR,06-27-2012,21:00,METAR,,330,16.0,26.0,330/26KTS,9999.0,,29.0,9.0,29.72,1007.5,,,,,,,,,,,,,,,Clear,72000.0,,,73000.0,,,,,,
KRDR,06-27-2012,20:00,METAR,,330,16.0,22.0,,9999.0,,31.0,18.0,29.68,1006.2,,,,,,,,,,,,,,,Clear,72000.0,,,73000.0,,,,,,
KRDR,06-27-2012,19:00,METAR,,310,15.0,18.0,,9999.0,,30.0,22.0,29.66,1005.8,,,,,,,,,,,,,,,Clear,72000.0,,,73000.0,,,,,,
KRDR,06-27-2012,18:00,METAR,,340,6.0,,,9999.0,,28.0,21.0,29.66,1005.8,,,,,,,,,,,,,,,Clear,72000.0,,,73000.0,,,,,,
KRDR,06-27-2012,17:00,METAR,,350,10.0,,,9999.0,,28.0,21.0,29.64,1005.0,,,,,,,,,,,,,,,Clear,72000.0,,,73000.0,,,,,,
KRDR,06-27-2012,16:00,METAR,,330,7.0,,,9999.0,,26.0,20.0,29.62,1004.4,,,,,,,,,,,,,,,Clear,72000.0,,,73000.0,,,,,,
KRDR,06-27-2012,15:00,METAR,,280,4.0,,,9999.0,,24.0,19.0,29.62,1004.8,,,,,,,,,,,,,,,Clear,72000.0,,,73000.0,,,,,,
KRDR,06-27-2012,14:00,METAR,,,1.0,,,9999.0,,23.0,18.0,29.60,1004.2,,,,,,,,,,,,,,,Clear,72000.0,,,73000.0,,,,,,
KRDR,06-27-2012,13:00,METAR,,290,3.0,,,9999.0,,21.0,17.0,29.60,1004.2,,,,,,,,,,,,,,,Clear,72000.0,,,73000.0,,,,,,
KRDR,06-27-2012,12:00,METAR,,170,1.0,,,9999.0,,22.0,14.0,29.56,,,,,,,,,,,,,,,,2/8 Mostly Clear,72000.0,,FEW,20000.0,,,,,,
KRDR,06-27-2012,11:00,METAR,,350,1.0,,,9999.0,,21.0,13.0,29.57,,,,,,,,,,,,,,,,2/8 Mostly Clear,72000.0,,FEW,20000.0,,,,,,
KRDR,06-27-2012,10:00,METAR,,360,3.0,,,9999.0,,20.0,13.0,29.55,,,,,,,,,,,,,,,,2/8 Mostly Clear,72000.0,,FEW,5000.0,FEW,20000.0,,,,
KRDR,06-27-2012,09:00,METAR,,120,5.0,,,9999.0,,21.0,14.0,29.55,,,,,,,,,,,,,,,,2/8 Mostly Clear,72000.0,,FEW,20000.0,,,,,,
KRDR,06-27-2012,08:00,METAR,,120,5.0,,,9999.0,,20.0,13.0,29.53,,,,,,,,,,,,,,,,2/8 Mostly Clear,72000.0,,FEW,15000.0,,,,,,
KRDR,06-27-2012,07:00,METAR,,90,6.0,,,9999.0,,19.0,15.0,29.56,1002.4,,,,,,,,,,,,,,,Clear,72000.0,,,73000.0,,,,,,
KRDR,06-27-2012,06:00,METAR,,150,4.0,,,9999.0,,21.0,14.0,29.53,1001.3,,,,,,,,,,,TRACE,,TRACE,,Clear,72000.0,,,73000.0,,,,,,
KRDR,06-27-2012,05:45,SPECI,,150,9.0,,,9999.0,,21.0,14.0,29.53,1001.2,,,,,,,,,,,,,,,Clear,72000.0,,,73000.0,,,,,,
KRDR,06-27-2012,05:36,SPECI,,160,11.0,,,9999.0,,21.0,14.0,29.52,1001.1,,,,,,,,,,,,,,,Clear,72000.0,,,73000.0,,,,,,
KRDR,06-27-2012,05:00,METAR,,160,10.0,,,9999.0,,22.0,15.0,29.55,1002.1,,,,,,,,,,,,,,,Clear,72000.0,,,73000.0,,,,,,
KRDR,06-27-2012,04:00,METAR,,170,13.0,,,9999.0,,23.0,15.0,29.57,1002.7,,,,,,,,,,,,,,,Clear,72000.0,,,73000.0,,,,,,
KRDR,06-27-2012,03:00,METAR,,170,10.0,,,9999.0,,24.0,17.0,29.58,1002.9,,,,,,,,,,,,,,,Clear,72000.0,,,73000.0,,,,,,
KRDR,06-27-2012,01:00,METAR,,160,17.0,23.0,,9999.0,,27.0,18.0,29.58,1003.0,,,,,,,,,,,,,,,Clear,72000.0,,,73000.0,,,,,,
KRDR,06-27-2012,00:00,METAR,,150,17.0,22.0,,9999.0,,28.0,19.0,29.60,1003.6,,,,,,,,,,,,,,,Clear,72000.0,,,73000.0,,,,,,
KRDR,06-26-2012,23:00,METAR,,170,16.0,23.0,,9999.0,,29.0,19.0,29.61,1004.1,,,,,,,,,,,,,,,Clear,72000.0,,,73000.0,,,,,,
KRDR,06-26-2012,22:00,METAR,,150,18.0,29.0,170/29KTS,9999.0,,29.0,19.0,29.61,1004.1,,,,,,,,,,,,,,,Clear,72000.0,,,73000.0,,,,,,
KRDR,06-26-2012,21:00,METAR,,180,15.0,21.0,,9999.0,,29.0,18.0,29.64,1005.0,,,,,,,,,,,,,,,Clear,72000.0,,,73000.0,,,,,,
KRDR,06-26-2012,20:00,METAR,,160,17.0,,,9999.0,,29.0,19.0,29.66,1005.8,,,,,,,,,,,,,,,Clear,72000.0,,,73000.0,,,,,,
KRDR,06-26-2012,19:00,METAR,,170,14.0,,,9999.0,,28.0,18.0,29.68,1006.3,,,,,,,,,,,,,,,Clear,72000.0,,,73000.0,,,,,,
KRDR,06-26-2012,18:00,METAR,,170,17.0,21.0,,9999.0,,28.0,18.0,29.70,1007.0,,,,,,,,,,,,,,,Clear,72000.0,,,73000.0,,,,,,
KRDR,06-26-2012,17:00,METAR,,180,14.0,23.0,,9999.0,,27.0,17.0,29.74,1008.2,,,,,,,,,,,,,,,Clear,72000.0,,,73000.0,,,,,,
KRDR,06-26-2012,16:00,METAR,,170,12.0,,,9999.0,,25.0,16.0,29.75,1008.7,,,,,,,,,,,,,,,Clear,72000.0,,,73000.0,,,,,,
KRDR,06-26-2012,14:00,METAR,,160,10.0,,,9999.0,,22.0,14.0,29.78,1009.7,,,,,,,,,,,,,,,Clear,72000.0,,,73000.0,,,,,,
KRDR,06-26-2012,13:00,METAR,,150,11.0,,,9999.0,,19.0,13.0,29.80,1010.1,,,,,,,,,,,,,,,7/8 Mostly Cloudy,3800.0,,BKN,3900.0,,,,,,
KRDR,06-26-2012,12:00,METAR,,160,8.0,,,9999.0,,18.0,12.0,29.81,1010.7,,,,,,,,,,,,,,,Clear,72000.0,,,73000.0,,,,,,
KRDR,06-26-2012,11:00,METAR,,180,7.0,,,9999.0,,16.0,12.0,29.82,1010.8,,,,,,,,,,,,,,,Clear,72000.0,,,73000.0,,,,,,
KRDR,06-26-2012,10:00,METAR,,160,8.0,,,9999.0,,16.0,12.0,29.81,1010.6,,,,,,,,,,,,,,,Clear,72000.0,,,73000.0,,,,,,
KRDR,06-26-2012,09:00,METAR,,170,8.0,,,9999.0,,17.0,12.0,29.84,1011.4,,,,,,,,,,,,,,,Clear,72000.0,,,73000.0,,,,,,
KRDR,06-26-2012,08:00,METAR,,170,13.0,,,9999.0,,18.0,12.0,29.86,1012.3,,,,,,,,,,,,,,,Clear,72000.0,,,73000.0,,,,,,
KRDR,06-26-2012,07:00,METAR,,180,9.0,,,9999.0,,17.0,12.0,29.90,1013.6,,,,,,,,,,,,,,,Clear,72000.0,,,73000.0,,,,,,
KRDR,06-26-2012,06:00,METAR,,190,7.0,,,9999.0,,18.0,12.0,29.92,1014.3,,,,,,,,,,,,,,,Clear,72000.0,,,73000.0,,,,,,
KRDR,06-26-2012,05:00,METAR,,180,5.0,,,9999.0,,17.0,13.0,29.93,1014.6,,,,,,,,,,,,,,,Clear,72000.0,,,73000.0,,,,,,
KRDR,06-26-2012,04:00,METAR,,170,5.0,,,9999.0,,19.0,13.0,29.94,1014.9,,,,,,,,,,,,,,,Clear,72000.0,,,73000.0,,,,,,
KRDR,06-26-2012,03:00,METAR,,170,8.0,,,9999.0,,22.0,13.0,29.92,1014.2,,,,,,,,,,,,,,,Clear,72000.0,,,73000.0,,,,,,
KRDR,06-26-2012,02:00,METAR,,140,9.0,,,9999.0,,23.0,13.0,29.92,1014.3,,,,,,,,,,,,,,,Clear,72000.0,,,73000.0,,,,,,
KRDR,06-26-2012,01:00,METAR,,150,9.0,,,9999.0,,25.0,13.0,29.96,1015.6,,,,,,,,,,,,,,,Clear,72000.0,,,73000.0,,,,,,
KRDR,06-26-2012,00:00,METAR,,140,13.0,,,9999.0,,27.0,12.0,29.97,1015.9,,,,,,,,,,,,,,,Clear,72000.0,,,73000.0,,,,,,
KRDR,06-25-2012,23:00,METAR,,170,13.0,18.0,,9999.0,,27.0,12.0,29.99,1016.5,,,,,,,,,,,,,,,Clear,72000.0,,,73000.0,,,,,,
KRDR,06-25-2012,22:00,METAR,,170,11.0,,,9999.0,,28.0,13.0,30.02,1017.4,,,,,,,,,,,,,,,Clear,72000.0,,,73000.0,,,,,,
KRDR,06-25-2012,21:00,METAR,,150,11.0,,,9999.0,,27.0,13.0,30.03,1017.7,,,,,,,,,,,,,,,Clear,72000.0,,,73000.0,,,,,,
KRDR,06-25-2012,20:00,METAR,,160,12.0,17.0,,9999.0,,27.0,13.0,30.05,1018.5,,,,,,,,,,,,,,,Clear,72000.0,,,73000.0,,,,,,
KRDR,06-25-2012,19:00,METAR,,160,8.0,18.0,,9999.0,,26.0,14.0,30.08,1019.4,,,,,,,,,,,,,,,2/8 Mostly Clear,72000.0,,FEW,11000.0,,,,,,
KRDR,06-25-2012,18:00,METAR,,150,13.0,,,9999.0,,25.0,14.0,30.09,1019.9,,,,,,,,,,,,,TRACE,,Clear,72000.0,,,73000.0,,,,,,
KRDR,06-25-2012,17:00,METAR,,170,12.0,20.0,,9999.0,,25.0,15.0,30.11,1020.4,,,,,,,,,,,,,,,Clear,72000.0,,,73000.0,,,,,,
KRDR,06-25-2012,16:00,METAR,,170,12.0,,,9999.0,,24.0,14.0,30.13,1021.0,,,,,,,,,,,TRACE,,,,Clear,72000.0,,,73000.0,,,,,,
KRDR,06-25-2012,15:18,SPECI,,140,10.0,,,9999.0,,23.0,14.0,30.14,1021.5,,,,,,,,,,,,,,,Clear,72000.0,,,73000.0,,,,,,
KRDR,06-25-2012,15:15,SPECI,,160,9.0,,,9999.0,,23.0,14.0,30.14,1021.5,,,,,,,,,,,,,,,Clear,72000.0,,,73000.0,,,,,,
KRDR,06-25-2012,15:00,METAR,,160,6.0,,,9999.0,,21.0,13.0,30.15,1021.8,,,,,,,,,,,,,,,Clear,72000.0,,,73000.0,,,,,,
KRDR,06-25-2012,14:00,METAR,,150,7.0,,,9999.0,,18.0,12.0,30.16,1022.1,,,,,,,,,,,,,,,Clear,72000.0,,,73000.0,,,,,,
KRDR,06-25-2012,13:00,METAR,,140,5.0,,,9999.0,,15.0,10.0,30.16,1022.3,,,,,,,,,,,,,,,Clear,72000.0,,,73000.0,,,,,,
KRDR,06-25-2012,12:00,METAR,,,0.0,,,9999.0,,10.0,10.0,30.16,1022.1,,,,,,,,,,,,,,,Clear,72000.0,,,73000.0,,,,,,
KRDR,06-25-2012,11:00,METAR,,30,3.0,,,9999.0,,9.0,8.0,30.16,1022.0,,,,,,,,,,,,,,,Clear,72000.0,,,73000.0,,,,,,
KRDR,06-25-2012,10:00,METAR,,,0.0,,,9999.0,,8.0,7.0,30.15,1021.7,,,,,,,,,,,,,,,Clear,72000.0,,,73000.0,,,,,,
KRDR,06-25-2012,09:00,METAR,,,0.0,,,9999.0,,10.0,8.0,30.15,1021.7,,,,,,,,,,,,,,,Clear,72000.0,,,73000.0,,,,,,
KRDR,06-25-2012,08:00,METAR,,290,3.0,,,9999.0,,10.0,8.0,30.16,1022.2,,,,,,,,,,,,,,,Clear,72000.0,,,73000.0,,,,,,
KRDR,06-25-2012,07:00,METAR,,360,3.0,,,9999.0,,11.0,9.0,30.17,1022.3,,,,,,,,,,,,,,,Clear,72000.0,,,73000.0,,,,,,
KRDR,06-25-2012,06:00,METAR,,30,7.0,,,9999.0,,12.0,9.0,30.16,1022.1,,,,,,,,,,,,,,,Clear,72000.0,,,73000.0,,,,,,
KRDR,06-25-2012,05:00,METAR,,10,4.0,,,9999.0,,14.0,10.0,30.16,1022.0,,,,,,,,,,,,,,,Clear,72000.0,,,73000.0,,,,,,
KRDR,06-25-2012,04:00,METAR,,10,4.0,,,9999.0,,14.0,11.0,30.16,1022.0,,,,,,,,,,,,,,,Clear,72000.0,,,73000.0,,,,,,
KRDR,06-25-2012,03:00,METAR,,,0.0,,,9999.0,,16.0,12.0,30.15,1021.6,,,,,,,,,,,,,,,Clear,72000.0,,,73000.0,,,,,,
KRDR,06-25-2012,02:00,METAR,,70,5.0,,,9999.0,,21.0,11.0,30.13,1021.1,,,,,,,,,,,,,,,Clear,72000.0,,,73000.0,,,,,,
KRDR,06-25-2012,01:00,METAR,,80,8.0,,,9999.0,,23.0,10.0,30.12,1020.7,,,,,,,,,,,,,,,Clear,72000.0,,,73000.0,,,,,,
KRDR,06-25-2012,00:00,METAR,,70,8.0,,,9999.0,,23.0,10.0,30.11,1020.4,,,,,,,,,,,,,,,Clear,72000.0,,,73000.0,,,,,,
KRDR,06-24-2012,23:00,METAR,,80,10.0,,,9999.0,,24.0,11.0,30.11,1020.4,,,,,,,,,,,,,,,Clear,72000.0,,,73000.0,,,,,,
KRDR,06-24-2012,22:00,METAR,,50,5.0,,,9999.0,,23.0,11.0,30.13,1021.1,,,,,,,,,,,,,,,Clear,72000.0,,,73000.0,,,,,,
KRDR,06-24-2012,21:00,METAR,,80,12.0,17.0,,9999.0,,22.0,11.0,30.12,1020.8,,,,,,,,,,,,,,,Clear,72000.0,,,73000.0,,,,,,
KRDR,06-24-2012,20:00,METAR,,50,10.0,,,9999.0,,22.0,12.0,30.14,1021.6,,,,,,,,,,,,,,,Clear,72000.0,,,73000.0,,,,,,
KRDR,06-24-2012,19:00,METAR,,70,12.0,16.0,,9999.0,,22.0,10.0,30.14,1021.6,,,,,,,,,,,,,,,Clear,72000.0,,,73000.0,,,,,,
KRDR,06-24-2012,18:00,METAR,,40,7.0,,,9999.0,,22.0,11.0,30.16,1022.2,,,,,,,,,,,,,,,Clear,72000.0,,,73000.0,,,,,,
KRDR,06-24-2012,17:00,METAR,,50,10.0,,,9999.0,,21.0,10.0,30.16,1022.3,,,,,,,,,,,,,,,Clear,72000.0,,,73000.0,,,,,,
KRDR,06-24-2012,16:00,METAR,,20,10.0,,,9999.0,,19.0,10.0,30.14,1021.6,,,,,,,,,,,,,,,Clear,72000.0,,,73000.0,,,,,,
KRDR,06-24-2012,15:00,METAR,,20,9.0,,,9999.0,,18.0,10.0,30.14,1021.4,,,,,,,,,,,,,,,Clear,72000.0,,,73000.0,,,,,,
KRDR,06-24-2012,14:00,METAR,,30,9.0,,,9999.0,,15.0,9.0,30.14,1021.3,,,,,,,,,,,,,,,Clear,72000.0,,,73000.0,,,,,,
KRDR,06-24-2012,13:00,METAR,,20,10.0,,,9999.0,,13.0,8.0,30.13,1021.0,,,,,,,,,,,,,,,Clear,72000.0,,,73000.0,,,,,,
KRDR,06-24-2012,12:00,METAR,,360,7.0,,,9999.0,,12.0,8.0,30.11,1020.6,,,,,,,,,,,,,,.06 IN,Clear,72000.0,,,73000.0,,,,,,
KRDR,06-24-2012,11:00,METAR,,10,5.0,,,9999.0,,9.0,7.0,30.09,1019.8,,,,,,,,,,,,,,,Clear,72000.0,,,73000.0,,,,,,
KRDR,06-24-2012,10:00,METAR,,360,6.0,,,9999.0,,9.0,7.0,30.08,1019.4,,,,,,,,,,,,,,,Clear,72000.0,,,73000.0,,,,,,
KRDR,06-24-2012,09:00,METAR,,10,7.0,,,9999.0,,10.0,7.0,30.07,1019.0,,,,,,,,,,,,,,,Clear,72000.0,,,73000.0,,,,,,
KRDR,06-24-2012,08:00,METAR,,10,7.0,,,9999.0,,11.0,8.0,30.05,1018.6,,,,,,,,,,,,,,,Clear,72000.0,,,73000.0,,,,,,
KRDR,06-24-2012,07:00,METAR,,30,8.0,,,9999.0,,15.0,9.0,30.04,1018.2,,,,,,,,,,,,,,,8/8 Overcast,6000.0,,OVC,5900.0,,,,,,
KRDR,06-24-2012,06:00,METAR,,20,7.0,,,9999.0,,15.0,11.0,30.02,1017.4,,,,,,,,,,,,,.06 IN,,2/8 Mostly Clear,72000.0,,FEW,5900.0,,,,,,
KRDR,06-24-2012,05:00,METAR,,20,9.0,,,9999.0,,17.0,14.0,29.99,1016.6,,,,,,,,,,,,,,,Clear,72000.0,,,73000.0,,,,,,
KRDR,06-24-2012,04:00,METAR,,360,7.0,,,9999.0,,17.0,14.0,29.96,1015.5,,,,,,,,,,,,,,,2/8 Mostly Clear,72000.0,,FEW,8900.0,,,,,,
KRDR,06-24-2012,03:00,METAR,,20,8.0,,,9999.0,,19.0,15.0,29.93,1014.4,,,,,,,,,,,,.06 IN,,,4/8 Partly Cloudy,72000.0,,FEW,6900.0,SCT,7900.0,,,,
KRDR,06-24-2012,02:00,METAR,,350,3.0,,,9999.0,,21.0,20.0,29.90,1013.4,,,,,,,,,,,,,,,Clear,72000.0,,,73000.0,,,,,,
KRDR,06-24-2012,01:00,METAR,,,0.0,,,9999.0,,23.0,19.0,29.88,1012.8,,,,,,,,,,,.06 IN,,,,7/8 Mostly Cloudy,6000.0,,FEW,4900.0,BKN,5900.0,BKN,7900.0,,
KRDR,06-24-2012,00:18,SPECI,,,0.0,,,9999.0,,22.0,19.0,29.88,1012.9,,,,,,,,,,,,,,,8/8 Overcast,4100.0,,BKN,5000.0,OVC,5900.0,,,,
KRDR,06-24-2012,00:00,METAR,,50,6.0,,,9999.0,,23.0,18.0,29.87,1012.5,,,,,,,,,,,TRACE,,TRACE,,8/8 Overcast,4500.0,,SCT,3800.0,BKN,4600.0,OVC,5900.0,,
KRDR,06-23-2012,23:53,SPECI,,50,5.0,,,9999.0,Light Rain,23.0,18.0,29.87,1012.5,61,,,,,,,,,,,,,,8/8 Overcast,4500.0,,SCT,3800.0,BKN,4600.0,OVC,5900.0,,
KRDR,06-23-2012,23:17,SPECI,,40,7.0,,,9999.0,,25.0,18.0,29.85,1012.0,,,,,,,,,,,,,,,8/8 Overcast,6000.0,,FEW,3700.0,OVC,5900.0,,,,
KRDR,06-23-2012,23:15,SPECI,,50,6.0,,,9999.0,Dry Thunderstorm,25.0,17.0,29.85,1012.0,91,,,,,,,,,,,,,,8/8 Overcast,6000.0,,OVC,5900.0,,,,,,
KRDR,06-23-2012,23:03,SPECI,,50,3.0,,,9999.0,Thunderstorm and Rain or Snow Showers,25.0,17.0,29.85,1012.0,92,,,,,,,,,,,,,,8/8 Overcast,6000.0,,OVC,5900.0,,,,,,
KRDR,06-23-2012,23:02,SPECI,,50,3.0,,,9999.0,Dry Thunderstorm,25.0,17.0,29.85,1012.0,91,,,,,,,,,,,,,,8/8 Overcast,6000.0,,OVC,5900.0,,,,,,
KRDR,06-23-2012,23:00,METAR,,60,4.0,,,9999.0,,25.0,17.0,29.85,1011.9,,,,,,,,,,,,,,,8/8 Overcast,6000.0,,OVC,5900.0,,,,,,
KRDR,06-23-2012,22:00,METAR,,,0.0,,,9999.0,,25.0,17.0,29.86,1012.1,,,,,,,,,,,,,,,7/8 Mostly Cloudy,9000.0,,BKN,8900.0,,,,,,
KRDR,06-23-2012,21:00,METAR,,,0.0,,,9999.0,,25.0,18.0,29.84,1011.6,,,,,,,,,,,,,,,7/8 Mostly Cloudy,8000.0,,BKN,7900.0,BKN,9900.0,,,,
KRDR,06-23-2012,20:00,METAR,,110,5.0,,,9999.0,,25.0,17.0,29.84,1011.5,,,,,,,,,,,,,,,8/8 Overcast,7000.0,,OVC,6900.0,,,,,,
KRDR,06-23-2012,19:00,METAR,,140,5.0,,,9999.0,,25.0,18.0,29.85,1011.7,,,,,,,,,,,,,,,7/8 Mostly Cloudy,10000.0,,SCT,7900.0,BKN,9900.0,,,,
KRDR,06-23-2012,18:00,METAR,,160,7.0,,,9999.0,,24.0,17.0,29.85,1012.0,,,,,,,,,,,,,TRACE,,2/8 Mostly Clear,72000.0,,FEW,8900.0,,,,,,
KRDR,06-23-2012,17:00,METAR,,150,7.0,,,9999.0,,24.0,17.0,29.85,1011.9,,,,,,,,,,,TRACE,,,,7/8 Mostly Cloudy,9000.0,,BKN,8900.0,,,,,,
KRDR,06-23-2012,16:14,SPECI,,160,9.0,,,9999.0,,23.0,16.0,29.85,1011.9,,,,,,,,,,,,,,,Clear,72000.0,,,73000.0,,,,,,
KRDR,06-23-2012,16:11,SPECI,,150,9.0,,,9999.0,,23.0,16.0,29.85,1012.1,,,,,,,,,,,,,,,Clear,72000.0,,,73000.0,,,,,,
KRDR,06-23-2012,16:00,METAR,,150,11.0,,,9999.0,,23.0,16.0,29.86,1012.1,,,,,,,,,,,,,,,Clear,72000.0,,,73000.0,,,,,,
KRDR,06-23-2012,15:00,METAR,,150,13.0,,,9999.0,,22.0,16.0,29.87,1012.6,,,,,,,,,,,,,,,2/8 Mostly Clear,72000.0,,FEW,5900.0,,,,,,
KRDR,06-23-2012,14:00,METAR,,150,12.0,19.0,,9999.0,,21.0,15.0,29.86,1012.2,,,,,,,,,,,,,,,4/8 Partly Cloudy,72000.0,,SCT,7900.0,,,,,,
KRDR,06-23-2012,13:00,METAR,,140,8.0,,,9999.0,,20.0,15.0,29.86,1012.1,,,,,,,,,,,,,,,Clear,72000.0,,,73000.0,,,,,,
KRDR,06-23-2012,12:00,METAR,,150,5.0,,,9999.0,,17.0,14.0,29.86,1012.1,,,,,,,,,,,,,,,8/8 Overcast,4900.0,,OVC,5000.0,,,,,,
KRDR,06-23-2012,11:00,METAR,,,0.0,,,9999.0,,17.0,14.0,29.87,1012.5,,,,,,,,,,,,,,,8/8 Overcast,4900.0,,OVC,5000.0,,,,,,
KRDR,06-23-2012,10:00,METAR,,200,8.0,,,9999.0,,17.0,13.0,29.87,1012.6,,,,,,,,,,,,,,,8/8 Overcast,6000.0,,OVC,5900.0,,,,,,
KRDR,06-23-2012,09:00,METAR,,230,4.0,,,9999.0,,16.0,14.0,29.89,1013.2,,,,,,,,,,,,,,,8/8 Overcast,6000.0,,OVC,5900.0,,,,,,
KRDR,06-23-2012,08:00,METAR,,120,4.0,,,9999.0,,16.0,12.0,29.88,1012.8,,,,,,,,,,,,,,,2/8 Mostly Clear,72000.0,,FEW,5900.0,,,,,,
KRDR,06-23-2012,07:00,METAR,,150,4.0,,,9999.0,,17.0,12.0,29.89,1013.2,,,,,,,,,,,,,,,7/8 Mostly Cloudy,6000.0,,BKN,5900.0,,,,,,
KRDR,06-23-2012,06:00,METAR,,130,4.0,,,9999.0,,17.0,12.0,29.89,1013.3,,,,,,,,,,,,,,,2/8 Mostly Clear,72000.0,,FEW,6900.0,,,,,,
KRDR,06-23-2012,05:00,METAR,,150,6.0,,,9999.0,,18.0,11.0,29.90,1013.7,,,,,,,,,,,,,,,Clear,72000.0,,,73000.0,,,,,,
KRDR,06-23-2012,04:00,METAR,,140,5.0,,,9999.0,,19.0,11.0,29.91,1013.7,,,,,,,,,,,,,,,Clear,72000.0,,,73000.0,,,,,,
KRDR,06-23-2012,03:00,METAR,,150,5.0,,,9999.0,,19.0,12.0,29.91,1013.8,,,,,,,,,,,,,,,Clear,72000.0,,,73000.0,,,,,,
KRDR,06-23-2012,02:00,METAR,,150,4.0,,,9999.0,,23.0,10.0,29.91,1013.7,,,,,,,,,,,,,,,Clear,72000.0,,,73000.0,,,,,,
KRDR,06-23-2012,01:00,METAR,,,0.0,,,9999.0,,24.0,9.0,29.91,1013.8,,,,,,,,,,,,,,,Clear,72000.0,,,73000.0,,,,,,
KRDR,06-23-2012,00:00,METAR,,,0.0,,,9999.0,,25.0,9.0,29.92,1014.1,,,,,,,,,,,,,,,Clear,72000.0,,,73000.0,,,,,,
KRDR,06-22-2012,23:00,METAR,,,0.0,,,9999.0,,25.0,9.0,29.93,1014.5,,,,,,,,,,,,,,,2/8 Mostly Clear,72000.0,,FEW,6900.0,,,,,,
KRDR,06-22-2012,22:00,METAR,,,0.0,,,9999.0,,25.0,8.0,29.95,1015.3,,,,,,,,,,,,,,,4/8 Partly Cloudy,72000.0,,SCT,6900.0,,,,,,
KRDR,06-22-2012,21:00,METAR,,,0.0,,,9999.0,,25.0,11.0,29.97,1015.9,,,,,,,,,,,,,,,2/8 Mostly Clear,72000.0,,FEW,5900.0,,,,,,
KRDR,06-22-2012,20:00,METAR,,240,7.0,,,9999.0,,25.0,11.0,29.99,1016.4,,,,,,,,,,,,,,,2/8 Mostly Clear,72000.0,,FEW,7900.0,,,,,,
KRDR,06-22-2012,19:00,METAR,,,4.0,,,9999.0,,23.0,11.0,30.01,1017.1,,,,,,,,,,,,,,,2/8 Mostly Clear,72000.0,,FEW,5900.0,,,,,,
KRDR,06-22-2012,18:00,METAR,,300,4.0,,,9999.0,,23.0,11.0,30.02,1017.4,,,,,,,,,,,,,,,4/8 Partly Cloudy,72000.0,,FEW,5900.0,SCT,7900.0,,,,
KRDR,06-22-2012,17:00,METAR,,300,7.0,,,9999.0,,23.0,11.0,30.01,1019.0,,,,,,,,,,,,,,,4/8 Partly Cloudy,72000.0,,SCT,4000.0,,,,,,
KRDR,06-22-2012,15:00,METAR,,340,5.0,,,9999.0,,21.0,11.0,30.06,,,,,,,,,,,,,,,,2/8 Mostly Clear,72000.0,,FEW,3000.0,,,,,,
KRDR,06-22-2012,14:55,METAR,,320,2.0,,,9999.0,,23.0,13.0,30.00,,,,,,,,,,,,,,,,2/8 Mostly Clear,72000.0,,FEW,4000.0,,,,,,
KRDR,06-22-2012,14:00,METAR,,320,6.0,,,9999.0,,19.0,13.0,30.03,,,,,,,,,,,,,,,,Clear,72000.0,,,73000.0,,,,,,
KRDR,06-22-2012,13:00,METAR,,300,6.0,,,9999.0,,17.0,13.0,30.03,1017.9,,,,,,,,,,,,,,,Clear,72000.0,,,73000.0,,,,,,
KRDR,06-22-2012,12:00,METAR,,260,3.0,,,9999.0,,14.0,12.0,30.02,1017.5,,,,,,,,,,,,,,.07 IN,Clear,72000.0,,,73000.0,,,,,,
KRDR,06-22-2012,11:00,METAR,,300,5.0,,,9999.0,,12.0,10.0,30.02,1017.4,,,,,,,,,,,,,,,Clear,72000.0,,,73000.0,,,,,,
KRDR,06-22-2012,10:00,METAR,,290,4.0,,,9999.0,,11.0,10.0,30.01,1017.1,,,,,,,,,,,,,,,Clear,72000.0,,,73000.0,,,,,,
KRDR,06-22-2012,09:00,METAR,,300,7.0,,,9999.0,,11.0,10.0,30.00,1016.8,,,,,,,,,,,,,,,Clear,72000.0,,,73000.0,,,,,,
KRDR,06-22-2012,08:00,METAR,,300,6.0,,,9999.0,,11.0,10.0,30.00,1016.8,,,,,,,,,,,,,,,Clear,72000.0,,,73000.0,,,,,,
KRDR,06-22-2012,07:00,METAR,,290,4.0,,,9999.0,,10.0,10.0,30.00,1016.7,,,,,,,,,,,,,,,Clear,72000.0,,,73000.0,,,,,,
KRDR,06-22-2012,06:00,METAR,,310,6.0,,,9999.0,,13.0,11.0,29.99,1016.6,,,,,,,,,,,,,TRACE,,Clear,72000.0,,,73000.0,,,,,,
KRDR,06-22-2012,05:00,METAR,,290,5.0,,,9999.0,,14.0,12.0,29.99,1016.6,,,,,,,,,,,,,,,Clear,72000.0,,,73000.0,,,,,,
KRDR,06-22-2012,04:00,METAR,,280,4.0,,,9999.0,,15.0,12.0,29.99,1016.4,,,,,,,,,,,,,,,4/8 Partly Cloudy,72000.0,,SCT,11000.0,,,,,,
KRDR,06-22-2012,03:00,METAR,,320,3.0,,,9999.0,,14.0,13.0,29.98,1016.2,,,,,,,,,,,,TRACE,,,4/8 Partly Cloudy,72000.0,,SCT,5900.0,,,,,,
KRDR,06-22-2012,02:00,METAR,,240,4.0,,,9999.0,,17.0,13.0,29.97,1015.8,,,,,,,,,,,TRACE,,,,4/8 Partly Cloudy,72000.0,,FEW,5000.0,SCT,6900.0,SCT,11000.0,,
KRDR,06-22-2012,01:35,SPECI,,240,5.0,,,9999.0,,17.0,14.0,29.97,1016.0,,,,,,,,,,,,,,,7/8 Mostly Cloudy,9000.0,,FEW,2800.0,SCT,6900.0,BKN,11000.0,,
KRDR,06-22-2012,01:23,SPECI,,270,6.0,,,9999.0,,17.0,13.0,29.97,1015.9,,,,,,,,,,,,,,,2/8 Mostly Clear,72000.0,,FEW,5000.0,,,,,,
KRDR,06-22-2012,01:00,METAR,,70,6.0,,030/27KTS,9999.0,,17.0,12.0,29.95,1015.3,,,,,,,,,,,TRACE,,,,4/8 Partly Cloudy,72000.0,,SCT,9900.0,,,,,,
KRDR,06-22-2012,00:44,SPECI,,60,8.0,,030/27KTS,9999.0,,17.0,12.0,29.96,1015.4,,,,,,,,,,,,,,,7/8 Mostly Cloudy,10000.0,,FEW,6900.0,BKN,9900.0,,,,
KRDR,06-22-2012,00:34,SPECI,,60,7.0,,030/27KTS,9999.0,,17.0,12.0,29.95,1015.3,,,,,,,,,,,,,,,7/8 Mostly Cloudy,10000.0,,FEW,5900.0,SCT,6900.0,BKN,9900.0,,
KRDR,06-22-2012,00:06,SPECI,,40,15.0,27.0,030/27KTS,9999.0,,20.0,12.0,29.94,1015.0,,,,,,,,,,,,,,,4/8 Partly Cloudy,72000.0,,SCT,5900.0,,,,,,
KRDR,06-22-2012,00:00,METAR,,320,10.0,,,9999.0,,22.0,13.0,29.93,1014.6,,,,,,,,,,,TRACE,,TRACE,,2/8 Mostly Clear,72000.0,,FEW,9900.0,,,,,,
KRDR,06-21-2012,23:22,SPECI,,320,10.0,,,9999.0,,19.0,12.0,29.93,1014.6,,,,,,,,,,,,,,,7/8 Mostly Cloudy,9000.0,,SCT,5000.0,BKN,8900.0,,,,
KRDR,06-21-2012,23:00,METAR,,320,16.0,20.0,,9999.0,Light Rain,20.0,12.0,29.94,1014.7,61,,,,,,,,,,TRACE,,,,2/8 Mostly Clear,72000.0,,FEW,12000.0,,,,,,
KRDR,06-21-2012,22:50,SPECI,,320,17.0,20.0,,9999.0,Light Rain,21.0,11.0,29.94,1014.7,61,,,,,,,,,,,,,,2/8 Mostly Clear,72000.0,,FEW,12000.0,,,,,,
KRDR,06-21-2012,22:00,METAR,,330,13.0,,,9999.0,,22.0,13.0,29.94,1014.8,,,,,,,,,,,TRACE,,,,Clear,72000.0,,,73000.0,,,,,,
KRDR,06-21-2012,21:01,SPECI,,350,8.0,,,9999.0,,21.0,14.0,29.95,1015.0,,,,,,,,,,,,,,,7/8 Mostly Cloudy,10000.0,,SCT,5000.0,BKN,9900.0,,,,
KRDR,06-21-2012,20:53,SPECI,,360,10.0,19.0,,9999.0,Light Rain,21.0,14.0,29.95,1015.1,61,,,,,,,,,,,,,,7/8 Mostly Cloudy,4900.0,,BKN,5000.0,,,,,,
KRDR,06-21-2012,20:51,SPECI,,360,12.0,19.0,,9999.0,Light Rain,22.0,13.0,29.95,1015.1,61,,,,,,,,,,,,,,7/8 Mostly Cloudy,4900.0,,BKN,5000.0,,,,,,
KRDR,06-21-2012,20:00,METAR,,290,11.0,,,9999.0,,24.0,12.0,29.95,1015.1,,,,,,,,,,,,,,,2/8 Mostly Clear,72000.0,,FEW,9900.0,,,,,,
KRDR,06-21-2012,19:00,METAR,,300,12.0,17.0,,9999.0,,23.0,12.0,29.96,1015.5,,,,,,,,,,,,,,,4/8 Partly Cloudy,72000.0,,FEW,4800.0,SCT,8900.0,,,,
KRDR,06-21-2012,18:00,METAR,,320,13.0,18.0,,9999.0,,23.0,12.0,29.97,1015.8,,,,,,,,,,,,,.07 IN,,2/8 Mostly Clear,72000.0,,FEW,4800.0,,,,,,
KRDR,06-21-2012,17:00,METAR,,320,10.0,,,9999.0,,22.0,12.0,29.96,1015.6,,,,,,,,,,,,,,,Clear,72000.0,,,73000.0,,,,,,
KRDR,06-21-2012,16:00,METAR,,300,9.0,,,9999.0,,21.0,13.0,29.96,1015.6,,,,,,,,,,,,,,,Clear,72000.0,,,73000.0,,,,,,
KRDR,06-21-2012,15:00,METAR,,300,11.0,,,9999.0,,20.0,13.0,29.96,1015.4,,,,,,,,,,,.07 IN,.07 IN,,,Clear,72000.0,,,73000.0,,,,,,
KRDR,06-21-2012,14:00,METAR,,310,10.0,,,9999.0,,17.0,12.0,29.95,1015.2,,,,,,,,,,,,,,,Clear,72000.0,,,73000.0,,,,,,
KRDR,06-21-2012,13:00,METAR,,290,8.0,,,9999.0,,16.0,13.0,29.94,1014.9,,,,,,,,,,,,,,,Clear,72000.0,,,73000.0,,,,,,
KRDR,06-21-2012,12:00,METAR,,300,7.0,,,9999.0,,14.0,12.0,29.93,1014.5,,,,,,,,,,,,,,.29 IN,Clear,72000.0,,,73000.0,,,,,,
KRDR,06-21-2012,11:00,METAR,,290,7.0,,,9999.0,,12.0,11.0,29.92,1014.1,,,,,,,,,,,,,,,Clear,72000.0,,,73000.0,,,,,,
KRDR,06-21-2012,10:00,METAR,,270,7.0,,,9999.0,,12.0,11.0,29.91,1013.9,,,,,,,,,,,,,,,Clear,72000.0,,,73000.0,,,,,,
KRDR,06-21-2012,09:00,METAR,,290,7.0,,,9999.0,,12.0,11.0,29.91,1013.7,,,,,,,,,,,,,,,Clear,72000.0,,,73000.0,,,,,,
KRDR,06-21-2012,08:00,METAR,,300,6.0,,,9999.0,,11.0,11.0,29.90,1013.6,,,,,,,,,,,,,,,Clear,72000.0,,,73000.0,,,,,,
KRDR,06-21-2012,07:00,METAR,,320,7.0,,,9999.0,,13.0,11.0,29.89,1013.1,,,,,,,,,,,,,,,Clear,72000.0,,,73000.0,,,,,,
KRDR,06-21-2012,06:00,METAR,,310,7.0,,,9999.0,,13.0,12.0,29.88,1012.8,,,,,,,,,,,,,.25 IN,,7/8 Mostly Cloudy,8000.0,,BKN,7900.0,,,,,,
KRDR,06-21-2012,05:00,METAR,,320,5.0,,,9999.0,,14.0,12.0,29.86,1012.1,,,,,,,,,,,TRACE,,,,Clear,72000.0,,,73000.0,,,,,,
KRDR,06-21-2012,04:05,SPECI,,320,5.0,,,9999.0,,15.0,14.0,29.85,1011.8,,,,,,,,,,,,,,,7/8 Mostly Cloudy,7000.0,,SCT,3300.0,SCT,4200.0,BKN,6900.0,,
KRDR,06-21-2012,04:00,METAR,,310,6.0,,,9999.0,Light Rain,15.0,14.0,29.85,1011.8,61,,,,,,,,,,.02 IN,,,,7/8 Mostly Cloudy,3300.0,,BKN,3400.0,,,,,,
KRDR,06-21-2012,03:24,SPECI,,350,7.0,,,9999.0,Light Rain,15.0,14.0,29.84,1011.6,61,,,,,,,,,,,,,,7/8 Mostly Cloudy,3200.0,,SCT,3200.0,BKN,4400.0,BKN,5000.0,,
KRDR,06-21-2012,03:05,SPECI,,330,5.0,,,9999.0,,15.0,13.0,29.83,1011.1,,,,,,,,,,,,,,,7/8 Mostly Cloudy,4900.0,,FEW,3100.0,SCT,4600.0,BKN,5000.0,,
KRDR,06-21-2012,03:00,METAR,,340,6.0,,,9999.0,Light Rain,15.0,13.0,29.82,1010.8,61,,,,,,,,,,.01 IN,.23 IN,,,7/8 Mostly Cloudy,6000.0,,SCT,5000.0,BKN,7900.0,,,,
KRDR,06-21-2012,02:46,SPECI,,340,6.0,,,9999.0,Light Rain,15.0,13.0,29.81,1010.7,61,,,,,,,,,,,,,,4/8 Partly Cloudy,72000.0,,SCT,6900.0,,,,,,
KRDR,06-21-2012,02:00,METAR,,350,6.0,,,9999.0,,16.0,14.0,29.79,1009.8,,,,,,,,,,,,,,,Clear,72000.0,,,73000.0,,,,,,
KRDR,06-21-2012,01:00,METAR,,260,3.0,,260/38KTS,9999.0,,17.0,14.0,29.77,1009.3,,,,,,,,,,,.22 IN,,,,2/8 Mostly Clear,72000.0,,FEW,11000.0,,,,,,
KRDR,06-21-2012,00:21,SPECI,,270,4.0,,260/38KTS,9999.0,,15.0,13.0,29.78,1009.5,,,,,,,,,,,,,,,4/8 Partly Cloudy,72000.0,,SCT,2300.0,,,,,,
KRDR,06-21-2012,00:13,SPECI,,250,8.0,,260/38KTS,8000.0,Light Rain/Mist,15.0,13.0,29.77,1009.1,61,10,,,,,,,,,,,,,7/8 Mostly Cloudy,4900.0,,SCT,2400.0,BKN,5000.0,BKN,7900.0,,
KRDR,06-21-2012,00:12,SPECI,,250,9.0,,260/38KTS,6400.0,Light Rain/Mist,15.0,13.0,29.77,1009.2,61,10,,,,,,,,,,,,,7/8 Mostly Cloudy,2500.0,,BKN,2500.0,BKN,5000.0,BKN,7900.0,,
KRDR,06-21-2012,00:11,SPECI,,260,10.0,,260/38KTS,4800.0,Thunderstorm and Rain or Snow Showers/Mist,15.0,13.0,29.77,1009.2,92,10,,,,,,,,,,,,,7/8 Mostly Cloudy,2600.0,,BKN,2600.0,BKN,5000.0,BKN,7900.0,,
KRDR,06-21-2012,00:09,SPECI,,250,7.0,,260/38KTS,3200.0,Thunderstorm and Rain or Snow Showers/Mist,15.0,13.0,29.77,1009.3,92,10,,,,,,,,,,,,,7/8 Mostly Cloudy,2400.0,,BKN,2400.0,BKN,5000.0,BKN,7900.0,,
KRDR,06-21-2012,00:03,SPECI,,250,9.0,38.0,260/38KTS,1200.0,Heavy Thunderstorm and Rain or Snow Showers,16.0,13.0,29.77,1009.3,95,,,,,,,,,,,,,,7/8 Mostly Cloudy,2300.0,,BKN,2300.0,BKN,5000.0,BKN,6900.0,,
KRDR,06-21-2012,00:00,METAR,,230,8.0,38.0,260/38KTS,1600.0,Heavy Thunderstorm and Rain or Snow Showers,18.0,13.0,29.76,1009.1,95,,,,,,,,,,,,,,7/8 Mostly Cloudy,4900.0,,FEW,1800.0,SCT,2800.0,BKN,5000.0,,
KRDR,06-20-2012,23:54,SPECI,,240,16.0,25.0,,4000.0,Light Rain,19.0,14.0,29.77,1009.3,61,,,,,,,,,,,,,,7/8 Mostly Cloudy,4900.0,,FEW,1900.0,SCT,5000.0,BKN,6900.0,,
KRDR,06-20-2012,23:13,SPECI,,90,5.0,,,9999.0,,20.0,15.0,29.75,1008.7,,,,,,,,,,,,,,,2/8 Mostly Clear,72000.0,,FEW,3900.0,,,,,,
KRDR,06-20-2012,23:00,METAR,,10,3.0,,,9999.0,,19.0,15.0,29.77,1009.3,,,,,,,,,,,.03 IN,,,,7/8 Mostly Cloudy,7000.0,,SCT,3900.0,SCT,5000.0,BKN,6900.0,,
KRDR,06-20-2012,22:50,SPECI,,20,4.0,,,9999.0,,19.0,15.0,29.77,1009.3,,,,,,,,,,,,,,,4/8 Partly Cloudy,72000.0,,FEW,4000.0,SCT,5000.0,SCT,7900.0,,
KRDR,06-20-2012,22:22,SPECI,,90,3.0,,,9999.0,,19.0,15.0,29.77,1009.3,,,,,,,,,,,,,,,4/8 Partly Cloudy,72000.0,,FEW,2000.0,SCT,4300.0,SCT,8900.0,,
KRDR,06-20-2012,22:02,SPECI,,20,7.0,,,9999.0,,20.0,14.0,29.78,1009.6,,,,,,,,,,,,,,,4/8 Partly Cloudy,72000.0,,SCT,4200.0,,,,,,
KRDR,06-20-2012,21:51,SPECI,,,4.0,,,9999.0,,20.0,13.0,29.77,1009.3,,,,,,,,,,,,,,,2/8 Mostly Clear,72000.0,,FEW,4000.0,,,,,,
KRDR,06-20-2012,21:16,SPECI,,,0.0,,,9999.0,,20.0,12.0,29.78,1009.7,,,,,,,,,,,,,,,2/8 Mostly Clear,72000.0,,FEW,5900.0,,,,,,
KRDR,06-20-2012,21:00,METAR,,,0.0,,,9999.0,,21.0,13.0,29.79,1009.9,,,,,,,,,,,,,,,2/8 Mostly Clear,72000.0,,FEW,3700.0,,,,,,
KRDR,06-20-2012,20:00,METAR,,350,4.0,,,9999.0,,20.0,13.0,29.81,1010.4,,,,,,,,,,,,,,,Clear,72000.0,,,73000.0,,,,,,
KRDR,06-20-2012,19:00,METAR,,,0.0,,,9999.0,,18.0,13.0,29.81,1010.7,,,,,,,,,,,,,,,2/8 Mostly Clear,72000.0,,FEW,11000.0,,,,,,
KRDR,06-20-2012,18:00,METAR,,360,5.0,,,9999.0,,17.0,13.0,29.81,1010.6,,,,,,,,,,,,,TRACE,,7/8 Mostly Cloudy,4300.0,,FEW,1500.0,BKN,4400.0,,,,
KRDR,06-20-2012,17:28,SPECI,,350,8.0,,,9999.0,,16.0,13.0,29.81,1010.7,,,,,,,,,,,,,,,7/8 Mostly Cloudy,3200.0,,FEW,1400.0,SCT,2300.0,BKN,4000.0,,
KRDR,06-20-2012,17:11,SPECI,,330,8.0,,,9999.0,,16.0,13.0,29.81,1010.5,,,,,,,,,,,,,,,8/8 Overcast,2100.0,,SCT,1300.0,OVC,2400.0,,,,
KRDR,06-20-2012,17:00,METAR,,330,8.0,,,9999.0,,17.0,14.0,29.80,1010.3,,,,,,,,,,,,,,,8/8 Overcast,1100.0,,OVC,1300.0,,,,,,
KRDR,06-20-2012,16:42,SPECI,,360,7.0,,,9999.0,,17.0,13.0,29.80,1010.3,,,,,,,,,,,,,,,8/8 Overcast,1100.0,,OVC,1200.0,,,,,,
KRDR,06-20-2012,16:17,SPECI,,340,6.0,,,9999.0,,16.0,13.0,29.79,1009.9,,,,,,,,,,,,,,,8/8 Overcast,1100.0,,BKN,1100.0,OVC,3600.0,,,,
KRDR,06-20-2012,16:03,SPECI,,330,9.0,,,9999.0,,16.0,13.0,29.79,1010.0,,,,,,,,,,,,,,,7/8 Mostly Cloudy,1100.0,,BKN,1300.0,BKN,3600.0,BKN,4700.0,,
KRDR,06-20-2012,16:00,METAR,,330,10.0,,,9999.0,,16.0,13.0,29.80,1010.1,,,,,,,,,,,,,,,7/8 Mostly Cloudy,1300.0,,SCT,1400.0,BKN,3500.0,BKN,4700.0,,
KRDR,06-20-2012,15:51,SPECI,,310,8.0,,,9999.0,,16.0,13.0,29.80,1010.1,,,,,,,,,,,,,,,7/8 Mostly Cloudy,1400.0,,BKN,1400.0,BKN,4700.0,,,,
KRDR,06-20-2012,15:30,SPECI,,350,12.0,,,9999.0,,16.0,13.0,29.78,1009.6,,,,,,,,,,,,,,,4/8 Partly Cloudy,72000.0,,FEW,1300.0,SCT,3600.0,,,,
KRDR,06-20-2012,15:07,SPECI,,340,8.0,,,9999.0,Light Drizzle,16.0,13.0,29.79,1009.9,51,,,,,,,,,,,,,,8/8 Overcast,3500.0,,SCT,2300.0,BKN,3600.0,OVC,4400.0,,
KRDR,06-20-2012,15:04,SPECI,,330,8.0,,,9999.0,,16.0,13.0,29.79,1009.8,,,,,,,,,,,,,,,8/8 Overcast,3300.0,,SCT,2300.0,BKN,3400.0,OVC,4400.0,,
KRDR,06-20-2012,15:00,METAR,,330,6.0,,,9999.0,,15.0,13.0,29.79,1010.0,,,,,,,,,,,,,,,8/8 Overcast,2300.0,,OVC,2300.0,,,,,,
KRDR,06-20-2012,14:35,SPECI,,350,7.0,,,9999.0,,15.0,13.0,29.78,1009.6,,,,,,,,,,,,,,,7/8 Mostly Cloudy,2200.0,,SCT,2400.0,BKN,2900.0,,,,
KRDR,06-20-2012,14:31,SPECI,,340,8.0,,,9999.0,,15.0,13.0,29.79,1009.8,,,,,,,,,,,,,,,7/8 Mostly Cloudy,3000.0,,SCT,2200.0,BKN,3000.0,,,,
KRDR,06-20-2012,14:00,METAR,,340,6.0,,,9999.0,,14.0,13.0,29.78,1009.7,,,,,,,,,,,,,,,8/8 Overcast,2300.0,,BKN,2300.0,OVC,3400.0,,,,
KRDR,06-20-2012,13:50,SPECI,,340,6.0,,,9999.0,,14.0,13.0,29.78,1009.7,,,,,,,,,,,,,,,8/8 Overcast,2300.0,,BKN,2300.0,OVC,3500.0,,,,
KRDR,06-20-2012,13:00,METAR,,70,4.0,,,9999.0,,14.0,12.0,29.78,1009.5,,,,,,,,,,,,,,,8/8 Overcast,3700.0,,OVC,3800.0,,,,,,
KRDR,06-20-2012,12:00,METAR,,360,4.0,,,9999.0,,14.0,12.0,29.77,1009.3,,,,,,,,,,,,,,.02 IN,8/8 Overcast,2300.0,,SCT,1100.0,BKN,2300.0,OVC,3800.0,,
KRDR,06-20-2012,11:41,SPECI,,50,7.0,,,9999.0,,14.0,12.0,29.76,1009.0,,,,,,,,,,,,,,,8/8 Overcast,2100.0,,SCT,1100.0,BKN,2100.0,OVC,3900.0,,
KRDR,06-20-2012,11:25,SPECI,,360,5.0,,,9999.0,,13.0,12.0,29.76,1008.8,,,,,,,,,,,,,,,7/8 Mostly Cloudy,1100.0,,BKN,1100.0,,,,,,
KRDR,06-20-2012,11:23,SPECI,,10,5.0,,,9999.0,,13.0,12.0,29.76,1008.8,,,,,,,,,,,,,,,7/8 Mostly Cloudy,1200.0,,BKN,1200.0,,,,,,
KRDR,06-20-2012,11:00,METAR,,340,5.0,,,9999.0,,13.0,12.0,29.76,1009.0,,,,,,,,,,,,,,,2/8 Mostly Clear,72000.0,,FEW,1000.0,,,,,,
KRDR,06-20-2012,10:32,SPECI,,10,10.0,,,9999.0,,14.0,12.0,29.75,1008.7,,,,,,,,,,,,,,,4/8 Partly Cloudy,72000.0,,SCT,1000.0,,,,,,
KRDR,06-20-2012,10:29,SPECI,,10,8.0,,,9999.0,,14.0,12.0,29.76,1008.9,,,,,,,,,,,,,,,7/8 Mostly Cloudy,900.0,,BKN,1000.0,,,,,,
KRDR,06-20-2012,10:12,SPECI,,340,9.0,,,9999.0,,14.0,13.0,29.79,1009.8,,,,,,,,,,,,,,,2/8 Mostly Clear,72000.0,,FEW,900.0,,,,,,
KRDR,06-20-2012,10:00,METAR,,350,6.0,,,9999.0,,14.0,13.0,29.79,1009.8,,,,,,,,,,,,,,,2/8 Mostly Clear,72000.0,,FEW,3900.0,,,,,,
KRDR,06-20-2012,09:00,METAR,,350,9.0,,,9999.0,,14.0,12.0,29.77,1009.3,,,,,,,,,,,,,,,8/8 Overcast,3600.0,,OVC,3700.0,,,,,,
KRDR,06-20-2012,08:00,METAR,,360,8.0,,,9999.0,,15.0,12.0,29.75,1008.5,,,,,,,,,,,,,,,8/8 Overcast,7000.0,,OVC,6900.0,,,,,,
KRDR,06-20-2012,07:16,SPECI,,350,7.0,,,9999.0,,15.0,12.0,29.77,1009.3,,,,,,,,,,,,,,,8/8 Overcast,3100.0,,SCT,2400.0,OVC,3100.0,,,,
KRDR,06-20-2012,07:00,METAR,,350,6.0,,,9999.0,,15.0,12.0,29.77,1009.3,,,,,,,,,,,,,,,8/8 Overcast,2400.0,,BKN,2500.0,OVC,3000.0,,,,
KRDR,06-20-2012,06:00,METAR,,10,8.0,,,9999.0,,15.0,12.0,29.77,1009.3,,,,,,,,,,,,,,,8/8 Overcast,2700.0,,OVC,2700.0,,,,,,
KRDR,06-20-2012,05:33,SPECI,,10,6.0,,,9999.0,,15.0,12.0,29.78,1009.6,,,,,,,,,,,,,,,7/8 Mostly Cloudy,2800.0,,BKN,2800.0,BKN,7900.0,,,,
KRDR,06-20-2012,05:00,METAR,,30,9.0,,,9999.0,,15.0,12.0,29.74,1008.4,,,,,,,,,,,,,,,7/8 Mostly Cloudy,7000.0,,FEW,2900.0,BKN,6900.0,,,,
KRDR,06-20-2012,04:00,METAR,,360,9.0,,,9999.0,,16.0,13.0,29.78,1009.4,,,,,,,,,,,,,,,7/8 Mostly Cloudy,7000.0,,BKN,6900.0,,,,,,
KRDR,06-20-2012,03:00,METAR,,350,6.0,,,9999.0,,16.0,14.0,29.77,1009.3,,,,,,,,,,,,,,,7/8 Mostly Cloudy,4100.0,,SCT,4400.0,BKN,5900.0,BKN,6900.0,,
KRDR,06-20-2012,02:00,METAR,,10,7.0,,,9999.0,,17.0,13.0,29.75,1008.6,,,,,,,,,,,,,,,8/8 Overcast,4300.0,,OVC,4400.0,,,,,,
KRDR,06-20-2012,01:00,METAR,,10,6.0,,,9999.0,,17.0,14.0,29.73,1007.8,,,,,,,,,,,,,,,8/8 Overcast,4300.0,,OVC,4400.0,,,,,,
KRDR,06-20-2012,00:00,METAR,,40,8.0,,,9999.0,,17.0,14.0,29.72,1007.6,,,,,,,,,,,TRACE,,.01 IN,,4/8 Partly Cloudy,72000.0,,FEW,4900.0,SCT,11000.0,,,,
KRDR,06-19-2012,23:13,SPECI,,60,9.0,,,9999.0,,17.0,14.0,29.71,1007.3,,,,,,,,,,,,,,,4/8 Partly Cloudy,72000.0,,SCT,11000.0,,,,,,
KRDR,06-19-2012,23:00,METAR,,70,9.0,,,9999.0,Light Rain,17.0,14.0,29.72,1007.6,61,,,,,,,,,,.01 IN,,,,4/8 Partly Cloudy,72000.0,,SCT,12000.0,,,,,,
KRDR,06-19-2012,22:25,SPECI,,70,8.0,,,9999.0,Light Rain,17.0,13.0,29.72,1007.6,61,,,,,,,,,,,,,,4/8 Partly Cloudy,72000.0,,SCT,12000.0,,,,,,
KRDR,06-19-2012,22:10,SPECI,,60,10.0,,,9999.0,,16.0,13.0,29.70,1007.1,,,,,,,,,,,,,,,2/8 Mostly Clear,72000.0,,FEW,12000.0,,,,,,
KRDR,06-19-2012,22:00,METAR,,40,13.0,,,9999.0,,17.0,12.0,29.71,1007.4,,,,,,,,,,,TRACE,,,,2/8 Mostly Clear,72000.0,,FEW,12000.0,,,,,,
KRDR,06-19-2012,21:42,SPECI,,50,12.0,,,9999.0,,17.0,12.0,29.72,1007.5,,,,,,,,,,,,,,,7/8 Mostly Cloudy,12000.0,,BKN,12000.0,,,,,,
KRDR,06-19-2012,21:00,METAR,,30,11.0,,,9999.0,,17.0,12.0,29.73,1007.9,,,,,,,,,,,TRACE,0 IN,,,Clear,72000.0,,,73000.0,,,,,,
KRDR,06-19-2012,20:31,SPECI,,30,11.0,,,9999.0,,16.0,12.0,29.73,1007.9,,,,,,,,,,,,,,,Clear,72000.0,,,73000.0,,,,,,
KRDR,06-19-2012,20:23,SPECI,,30,10.0,,,9999.0,,16.0,12.0,29.74,1008.1,,,,,,,,,,,,,,,Clear,72000.0,,,73000.0,,,,,,
KRDR,06-19-2012,20:00,METAR,,20,10.0,,,9999.0,,16.0,11.0,29.75,1008.5,,,,,,,,,,,,,,,Clear,72000.0,,,73000.0,,,,,,
KRDR,06-19-2012,19:00,METAR,,20,11.0,,,9999.0,,15.0,11.0,29.75,1008.6,,,,,,,,,,,,,,,Clear,72000.0,,,73000.0,,,,,,
KRDR,06-19-2012,18:00,METAR,,30,9.0,,,9999.0,,16.0,11.0,29.74,1008.3,,,,,,,,,,,,,.01 IN,,Clear,72000.0,,,73000.0,,,,,,
KRDR,06-19-2012,17:00,METAR,,60,7.0,,,9999.0,,15.0,11.0,29.75,1008.5,,,,,,,,,,,,,,,Clear,72000.0,,,73000.0,,,,,,
KRDR,06-19-2012,16:00,METAR,,30,7.0,,,9999.0,,14.0,11.0,29.77,1009.1,,,,,,,,,,,,,,,Clear,72000.0,,,73000.0,,,,,,
KRDR,06-19-2012,15:00,METAR,,40,5.0,,,9999.0,,13.0,11.0,29.76,1009.0,,,,,,,,,,,,.01 IN,,,2/8 Mostly Clear,72000.0,,FEW,1100.0,,,,,,
KRDR,06-19-2012,14:42,SPECI,,30,4.0,,,9999.0,,13.0,10.0,29.78,1009.5,,,,,,,,,,,,,,,2/8 Mostly Clear,72000.0,,FEW,1100.0,,,,,,
KRDR,06-19-2012,14:07,SPECI,,60,5.0,,,9999.0,,12.0,10.0,29.78,1009.5,,,,,,,,,,,,,,,4/8 Partly Cloudy,72000.0,,SCT,800.0,,,,,,
KRDR,06-19-2012,14:00,METAR,,30,5.0,,,9999.0,,12.0,10.0,29.78,1009.5,,,,,,,,,,,TRACE,,,,8/8 Overcast,800.0,,BKN,800.0,OVC,1400.0,,,,
KRDR,06-19-2012,13:31,SPECI,,30,7.0,,,9999.0,,12.0,10.0,29.76,1008.9,,,,,,,,,,,,,,,7/8 Mostly Cloudy,900.0,,BKN,900.0,,,,,,
KRDR,06-19-2012,13:23,SPECI,,30,5.0,,,9999.0,Light Drizzle,12.0,10.0,29.76,1008.9,51,,,,,,,,,,,,,,7/8 Mostly Cloudy,900.0,,BKN,900.0,,,,,,
KRDR,06-19-2012,13:20,SPECI,,40,4.0,,,9999.0,Light Drizzle,12.0,10.0,29.76,1008.9,51,,,,,,,,,,,,,,7/8 Mostly Cloudy,1400.0,,SCT,1000.0,BKN,1400.0,,,,
KRDR,06-19-2012,13:18,SPECI,,,3.0,,,9999.0,Light Drizzle,12.0,10.0,29.75,1008.7,51,,,,,,,,,,,,,,4/8 Partly Cloudy,72000.0,,SCT,1000.0,SCT,1700.0,,,,
KRDR,06-19-2012,13:03,SPECI,,80,6.0,,,9999.0,Light Rain,12.0,10.0,29.74,1008.4,61,,,,,,,,,,,,,,7/8 Mostly Cloudy,1800.0,,FEW,1100.0,BKN,1800.0,BKN,4500.0,,
KRDR,06-19-2012,13:00,METAR,,110,6.0,,,9999.0,Light Rain,12.0,10.0,29.74,1008.1,61,,,,,,,,,,.01 IN,,,,4/8 Partly Cloudy,72000.0,,SCT,2700.0,SCT,4900.0,SCT,7900.0,,
KRDR,06-19-2012,13:00,SPECI,,80,6.0,,,9999.0,Light Rain,12.0,10.0,29.73,1008.1,61,,,,,,,,,,,,,,4/8 Partly Cloudy,72000.0,,FEW,900.0,SCT,1900.0,SCT,4500.0,,
KRDR,06-19-2012,12:24,SPECI,,50,7.0,,,9999.0,Light Rain,12.0,10.0,29.76,1008.8,61,,,,,,,,,,,,,,2/8 Mostly Clear,72000.0,,FEW,12000.0,,,,,,
KRDR,06-19-2012,12:22,SPECI,,80,6.0,,,9999.0,,12.0,10.0,29.74,1008.3,,,,,,,,,,,,,,,2/8 Mostly Clear,72000.0,,FEW,12000.0,,,,,,
KRDR,06-19-2012,12:10,SPECI,,110,6.0,,,9999.0,,12.0,10.0,29.73,1007.8,,,,,,,,,,,,,,,4/8 Partly Cloudy,72000.0,,SCT,12000.0,,,,,,
KRDR,06-19-2012,12:00,METAR,,50,5.0,,,9999.0,,12.0,10.0,29.74,1008.2,,,,,,,,,,,,,TRACE,,7/8 Mostly Cloudy,12000.0,,FEW,1300.0,BKN,12000.0,,,,
KRDR,06-19-2012,11:00,METAR,,320,4.0,,,9999.0,Light Drizzle,11.0,10.0,29.74,1008.4,51,,,,,,,,,,TRACE,,,,7/8 Mostly Cloudy,12000.0,,BKN,12000.0,,,,,,
KRDR,06-19-2012,10:53,SPECI,,320,4.0,,,9999.0,,11.0,10.0,29.75,1008.6,,,,,,,,,,,,,,,7/8 Mostly Cloudy,12000.0,,BKN,12000.0,,,,,,
KRDR,06-19-2012,10:43,SPECI,,,0.0,,,9999.0,,12.0,10.0,29.72,1007.6,,,,,,,,,,,,,,,4/8 Partly Cloudy,72000.0,,SCT,12000.0,,,,,,
KRDR,06-19-2012,10:00,METAR,,20,3.0,,,9999.0,,11.0,10.0,29.69,1006.8,,,,,,,,,,,,,,,7/8 Mostly Cloudy,12000.0,,BKN,12000.0,,,,,,
KRDR,06-19-2012,09:00,METAR,,350,6.0,,,9999.0,,12.0,10.0,29.76,1008.8,,,,,,,,,,,TRACE,0 IN,,,Clear,72000.0,,,73000.0,,,,,,
KRDR,06-19-2012,08:32,SPECI,,10,5.0,,,9999.0,,12.0,10.0,29.75,1008.6,,,,,,,,,,,,,,,2/8 Mostly Clear,72000.0,,FEW,2400.0,,,,,,
KRDR,06-19-2012,08:15,SPECI,,20,5.0,,,9999.0,,12.0,10.0,29.75,1008.6,,,,,,,,,,,,,,,Clear,72000.0,,,73000.0,,,,,,
KRDR,06-19-2012,08:00,METAR,,350,7.0,,,9999.0,,12.0,10.0,29.73,1008.0,,,,,,,,,,,,,,,Clear,72000.0,,,73000.0,,,,,,
KRDR,06-19-2012,07:00,METAR,,50,6.0,,,9999.0,,13.0,11.0,29.70,1007.1,,,,,,,,,,,,,,,Clear,72000.0,,,73000.0,,,,,,
KRDR,06-19-2012,06:00,METAR,,40,6.0,,,9999.0,,13.0,11.0,29.71,1007.2,,,,,,,,,,,,,,,Clear,72000.0,,,73000.0,,,,,,
KRDR,06-19-2012,05:00,METAR,,30,7.0,,,9999.0,,13.0,12.0,29.71,1007.1,,,,,,,,,,,,,,,Clear,72000.0,,,73000.0,,,,,,
KRDR,06-19-2012,04:00,METAR,,310,4.0,,,9999.0,,14.0,12.0,29.69,1006.8,,,,,,,,,,,,,,,Clear,72000.0,,,73000.0,,,,,,
KRDR,06-19-2012,03:00,METAR,,20,8.0,,,9999.0,,16.0,13.0,29.64,1005.1,,,,,,,,,,,,,,,Clear,72000.0,,,73000.0,,,,,,
KRDR,06-19-2012,02:00,METAR,,340,5.0,,,9999.0,,19.0,13.0,29.64,1005.1,,,,,,,,,,,,,,,Clear,72000.0,,,73000.0,,,,,,
KRDR,06-19-2012,01:00,METAR,,330,10.0,,,9999.0,,21.0,12.0,29.60,1003.7,,,,,,,,,,,,,,,Clear,72000.0,,,73000.0,,,,,,
KRDR,06-19-2012,00:00,METAR,,310,11.0,,,9999.0,,22.0,12.0,29.57,1002.7,,,,,,,,,,,,,,,Clear,72000.0,,,73000.0,,,,,,
KRDR,06-18-2012,23:00,METAR,,320,14.0,21.0,,9999.0,,22.0,13.0,29.54,1001.5,,,,,,,,,,,,,,,Clear,72000.0,,,73000.0,,,,,,
KRDR,06-18-2012,22:00,METAR,,330,14.0,,,9999.0,,22.0,13.0,29.51,1000.8,,,,,,,,,,,,,,,7/8 Mostly Cloudy,4400.0,,BKN,4500.0,,,,,,
KRDR,06-18-2012,21:00,METAR,,290,11.0,18.0,,9999.0,,23.0,13.0,29.50,1000.4,,,,,,,,,,,,,,,4/8 Partly Cloudy,72000.0,,SCT,4600.0,,,,,,
KRDR,06-18-2012,20:00,METAR,,300,16.0,21.0,,9999.0,,23.0,12.0,29.47,999.4,,,,,,,,,,,,,,,Clear,72000.0,,,73000.0,,,,,,
KRDR,06-18-2012,19:00,METAR,,310,18.0,23.0,,9999.0,,23.0,13.0,29.47,999.3,,,,,,,,,,,,,,,Clear,72000.0,,,73000.0,,,,,,
KRDR,06-18-2012,18:00,METAR,,310,15.0,22.0,,9999.0,,22.0,12.0,29.45,998.7,,,,,,,,,,,,,,,Clear,72000.0,,,73000.0,,,,,,
KRDR,06-18-2012,17:00,METAR,,280,20.0,25.0,260/26KTS,9999.0,,22.0,12.0,29.42,997.8,,,,,,,,,,,,,,,Clear,72000.0,,,73000.0,,,,,,
KRDR,06-18-2012,16:00,METAR,,280,14.0,18.0,,9999.0,,22.0,13.0,29.41,997.4,,,,,,,,,,,,,,,Clear,72000.0,,,73000.0,,,,,,
KRDR,06-18-2012,15:00,METAR,,290,11.0,18.0,,9999.0,,20.0,13.0,29.39,996.8,,,,,,,,,,,,,,,Clear,72000.0,,,73000.0,,,,,,
KRDR,06-18-2012,14:00,METAR,,300,11.0,,,9999.0,,20.0,13.0,29.38,996.3,,,,,,,,,,,,,,,Clear,72000.0,,,73000.0,,,,,,
KRDR,06-18-2012,13:00,METAR,,310,9.0,,,9999.0,,18.0,13.0,29.37,995.9,,,,,,,,,,,,,,,Clear,72000.0,,,73000.0,,,,,,
KRDR,06-18-2012,12:00,METAR,,310,10.0,,,9999.0,,16.0,14.0,29.36,995.7,,,,,,,,,,,,,.17 IN,.17 IN,Clear,72000.0,,,73000.0,,,,,,
KRDR,06-18-2012,11:28,SPECI,,310,6.0,,,4800.0,Mist,16.0,15.0,29.35,995.4,10,,,,,,,,,,,,,,Clear,72000.0,,,73000.0,,,,,,
KRDR,06-18-2012,11:25,SPECI,,290,6.0,,,2400.0,Mist,15.0,15.0,29.35,995.3,10,,,,,,,,,,,,,,Clear,72000.0,,,73000.0,,,,,,
KRDR,06-18-2012,11:19,SPECI,,280,5.0,,,800.0,Fog,15.0,15.0,29.34,995.2,30,,,,,,,,,,,,,,Clear,72000.0,,,73000.0,,,,,,
KRDR,06-18-2012,11:18,SPECI,,270,5.0,,,400.0,Fog,15.0,15.0,29.34,995.2,30,,,,,,,,,,,,,,Clear,72000.0,,,73000.0,,,,,,
KRDR,06-18-2012,11:08,SPECI,,220,4.0,,,400.0,Fog,15.0,15.0,29.34,995.2,30,,,,,,,,,,,,,,Clear,72000.0,,,73000.0,,,,,,
KRDR,06-18-2012,11:00,METAR,,180,6.0,,,400.0,Fog,15.0,14.0,29.34,995.0,30,,,,,,,,,,,,,,Clear,72000.0,,,73000.0,,,,,,
KRDR,06-18-2012,10:00,METAR,,,0.0,,,400.0,Fog,15.0,15.0,29.34,995.0,30,,,,,,,,,,,,,,Clear,72000.0,,,73000.0,,,,,,
KRDR,06-18-2012,09:49,SPECI,,,0.0,,,400.0,Fog,15.0,14.0,29.34,995.0,30,,,,,,,,,,,,,,Clear,72000.0,,,73000.0,,,,,,
KRDR,06-18-2012,09:47,SPECI,,220,3.0,,,800.0,Fog,15.0,14.0,29.34,995.1,30,,,,,,,,,,,,,,Clear,72000.0,,,73000.0,,,,,,
KRDR,06-18-2012,09:44,SPECI,,210,3.0,,,800.0,Fog,15.0,15.0,29.34,995.0,30,,,,,,,,,,,,,,Clear,72000.0,,,73000.0,,,,,,
KRDR,06-18-2012,09:41,SPECI,,190,4.0,,,1200.0,Mist,16.0,15.0,29.34,994.9,10,,,,,,,,,,,,,,Clear,72000.0,,,73000.0,,,,,,
KRDR,06-18-2012,09:34,SPECI,,190,5.0,,,6400.0,Mist,16.0,16.0,29.34,994.9,10,,,,,,,,,,,,,,Clear,72000.0,,,73000.0,,,,,,
KRDR,06-18-2012,09:00,METAR,,160,4.0,,,9999.0,,17.0,16.0,29.35,995.3,,,,,,,,,,,.01 IN,.17 IN,,,4/8 Partly Cloudy,72000.0,,FEW,1400.0,SCT,9900.0,,,,
KRDR,06-18-2012,08:00,METAR,,210,5.0,,,9999.0,,16.0,15.0,29.34,995.0,,,,,,,,,,,TRACE,,,,Clear,72000.0,,,73000.0,,,,,,
KRDR,06-18-2012,07:19,SPECI,,190,5.0,,,9999.0,,16.0,15.0,29.35,995.3,,,,,,,,,,,,,,,2/8 Mostly Clear,72000.0,,FEW,1100.0,,,,,,
KRDR,06-18-2012,07:03,SPECI,,210,5.0,,,9999.0,,17.0,16.0,29.35,995.5,,,,,,,,,,,,,,,4/8 Partly Cloudy,72000.0,,SCT,1800.0,SCT,2700.0,,,,
KRDR,06-18-2012,07:02,SPECI,,210,4.0,,,9999.0,Light Rain,17.0,16.0,29.35,995.5,61,,,,,,,,,,,,,,4/8 Partly Cloudy,72000.0,,SCT,1800.0,SCT,2700.0,,,,
KRDR,06-18-2012,07:00,METAR,,160,6.0,17.0,,4800.0,Light Rain,18.0,15.0,29.36,995.7,61,,,,,,,,,,,,,,7/8 Mostly Cloudy,2700.0,,SCT,1700.0,BKN,2700.0,BKN,9900.0,,
KRDR,06-18-2012,06:54,SPECI,,120,9.0,17.0,,4000.0,Light Rain,18.0,15.0,29.36,995.7,61,,,,,,,,,,,,,,7/8 Mostly Cloudy,2600.0,,SCT,1700.0,BKN,2600.0,BKN,11000.0,,
KRDR,06-18-2012,06:51,SPECI,,100,9.0,17.0,,2800.0,Rain,18.0,15.0,29.35,995.6,62,,,,,,,,,,,,,,8/8 Overcast,2600.0,,SCT,1900.0,BKN,2600.0,OVC,11000.0,,
KRDR,06-18-2012,06:50,SPECI,,130,9.0,17.0,,3200.0,Heavy Rain/Mist,17.0,15.0,29.35,995.5,63,10,,,,,,,,,,,,,8/8 Overcast,2600.0,,SCT,2000.0,BKN,2600.0,OVC,11000.0,,
KRDR,06-18-2012,06:48,SPECI,,170,12.0,17.0,,3200.0,Heavy Rain/Mist,17.0,16.0,29.35,995.5,63,10,,,,,,,,,,,,,8/8 Overcast,2700.0,,SCT,2100.0,BKN,2700.0,OVC,11000.0,,
KRDR,06-18-2012,06:44,SPECI,,40,5.0,16.0,,6400.0,Light Rain/Mist,17.0,16.0,29.36,995.8,61,10,,,,,,,,,,,,,7/8 Mostly Cloudy,2900.0,,SCT,2400.0,BKN,2900.0,BKN,11000.0,,
KRDR,06-18-2012,06:40,SPECI,,350,12.0,16.0,,9999.0,Light Rain,17.0,16.0,29.38,996.4,61,,,,,,,,,,,,,,7/8 Mostly Cloudy,10000.0,,SCT,2700.0,BKN,9900.0,,,,
KRDR,06-18-2012,06:05,SPECI,,,0.0,,,9999.0,,18.0,16.0,29.37,996.1,,,,,,,,,,,,,,,7/8 Mostly Cloudy,2700.0,,SCT,1700.0,SCT,2200.0,BKN,3600.0,,
KRDR,06-18-2012,06:00,METAR,,350,5.0,,,9999.0,,19.0,17.0,29.39,996.6,,,,,,,,,,,,,TRACE,,7/8 Mostly Cloudy,1600.0,,BKN,1600.0,BKN,7900.0,,,,
KRDR,06-18-2012,05:48,SPECI,,330,8.0,,,9999.0,,19.0,17.0,29.39,996.7,,,,,,,,,,,,,,,7/8 Mostly Cloudy,1600.0,,BKN,1600.0,BKN,7900.0,,,,
KRDR,06-18-2012,05:00,METAR,,200,6.0,,,9999.0,,19.0,17.0,29.37,996.1,,,,,,,,,,,,,,,Clear,72000.0,,,73000.0,,,,,,
KRDR,06-18-2012,04:00,METAR,,270,3.0,,,9999.0,,18.0,16.0,29.38,996.3,,,,,,,,,,,,,,,Clear,72000.0,,,73000.0,,,,,,
KRDR,06-18-2012,03:00,METAR,,,0.0,,,9999.0,,19.0,17.0,29.37,995.9,,,,,,,,,,,,TRACE,,,Clear,72000.0,,,73000.0,,,,,,
KRDR,06-18-2012,02:00,METAR,,160,9.0,,,9999.0,,23.0,17.0,29.36,995.6,,,,,,,,,,,,,,,Clear,72000.0,,,73000.0,,,,,,
KRDR,06-18-2012,01:00,METAR,,100,6.0,,,9999.0,,22.0,16.0,29.36,995.8,,,,,,,,,,,TRACE,,,,2/8 Mostly Clear,72000.0,,FEW,12000.0,,,,,,
KRDR,06-18-2012,00:39,SPECI,,90,6.0,,,9999.0,,22.0,17.0,29.37,996.0,,,,,,,,,,,,,,,2/8 Mostly Clear,72000.0,,FEW,8900.0,,,,,,
KRDR,06-18-2012,00:29,SPECI,,40,3.0,,,9999.0,,21.0,18.0,29.40,997.0,,,,,,,,,,,,,,,4/8 Partly Cloudy,72000.0,,FEW,8900.0,SCT,12000.0,,,,
KRDR,06-18-2012,00:00,METAR,,360,4.0,,,9999.0,,23.0,16.0,29.43,998.0,,,,,,,,,,,,,TRACE,,7/8 Mostly Cloudy,11000.0,,BKN,11000.0,,,,,,
KRDR,06-17-2012,23:00,METAR,,110,7.0,,,9999.0,,23.0,16.0,29.44,998.5,,,,,,,,,,,TRACE,,,,7/8 Mostly Cloudy,12000.0,,FEW,6900.0,SCT,9900.0,BKN,12000.0,,
KRDR,06-17-2012,22:13,SPECI,,130,9.0,,,9999.0,,23.0,15.0,29.46,999.1,,,,,,,,,,,,,,,4/8 Partly Cloudy,72000.0,,FEW,5900.0,SCT,7900.0,SCT,12000.0,,
KRDR,06-17-2012,21:51,SPECI,,140,9.0,,,9999.0,,23.0,15.0,29.49,1000.1,,,,,,,,,,,,,,,7/8 Mostly Cloudy,12000.0,,FEW,6900.0,SCT,8900.0,BKN,12000.0,,
KRDR,06-17-2012,21:00,METAR,,120,10.0,,,9999.0,,23.0,14.0,29.48,999.6,,,,,,,,,,,TRACE,0 IN,,,7/8 Mostly Cloudy,12000.0,,FEW,4600.0,SCT,5900.0,BKN,12000.0,,
KRDR,06-17-2012,20:54,SPECI,,120,10.0,,,9999.0,,23.0,14.0,29.48,999.5,,,,,,,,,,,,,,,4/8 Partly Cloudy,72000.0,,FEW,4600.0,SCT,5900.0,SCT,7900.0,,
KRDR,06-17-2012,20:35,SPECI,,120,11.0,,,9999.0,,23.0,13.0,29.48,999.5,,,,,,,,,,,,,,,7/8 Mostly Cloudy,8000.0,,FEW,4600.0,SCT,5900.0,BKN,7900.0,,
KRDR,06-17-2012,20:21,SPECI,,130,6.0,,,9999.0,,24.0,12.0,29.51,1000.6,,,,,,,,,,,,,,,7/8 Mostly Cloudy,11000.0,,FEW,6900.0,SCT,9900.0,BKN,11000.0,,
KRDR,06-17-2012,20:07,SPECI,,140,8.0,,,9999.0,,24.0,12.0,29.51,1000.6,,,,,,,,,,,,,,,4/8 Partly Cloudy,72000.0,,FEW,7900.0,SCT,11000.0,,,,
KRDR,06-17-2012,20:00,METAR,,140,9.0,,,9999.0,,24.0,12.0,29.51,1000.6,,,,,,,,,,,,,,,4/8 Partly Cloudy,72000.0,,SCT,12000.0,,,,,,
KRDR,06-17-2012,19:00,METAR,,140,13.0,,,9999.0,,24.0,12.0,29.52,1001.1,,,,,,,,,,,,,,,4/8 Partly Cloudy,72000.0,,SCT,11000.0,,,,,,
KRDR,06-17-2012,18:00,METAR,,130,13.0,,,9999.0,,23.0,13.0,29.56,1002.3,,,,,,,,,,,,,,,2/8 Mostly Clear,72000.0,,FEW,12000.0,,,,,,
KRDR,06-17-2012,17:00,METAR,,110,10.0,,,9999.0,,22.0,12.0,29.60,1003.8,,,,,,,,,,,,,,,4/8 Partly Cloudy,72000.0,,SCT,12000.0,,,,,,
KRDR,06-17-2012,16:00,METAR,,120,9.0,,,9999.0,,20.0,12.0,29.64,1005.1,,,,,,,,,,,,,,,7/8 Mostly Cloudy,12000.0,,BKN,12000.0,,,,,,
KRDR,06-17-2012,15:00,METAR,,130,6.0,,,9999.0,,19.0,12.0,29.68,1006.2,,,,,,,,,,,,,,,8/8 Overcast,10000.0,,OVC,9900.0,,,,,,
KRDR,06-17-2012,14:00,METAR,,170,3.0,,,9999.0,,17.0,12.0,29.71,1007.3,,,,,,,,,,,,,,,7/8 Mostly Cloudy,10000.0,,BKN,9900.0,,,,,,
KRDR,06-17-2012,13:00,METAR,,,0.0,,,9999.0,,16.0,12.0,29.73,1007.9,,,,,,,,,,,,,,,8/8 Overcast,11000.0,,OVC,11000.0,,,,,,
KRDR,06-17-2012,12:00,METAR,,,0.0,,,9999.0,,14.0,12.0,29.74,1008.2,,,,,,,,,,,,,,.36 IN,7/8 Mostly Cloudy,11000.0,,BKN,11000.0,,,,,,
KRDR,06-17-2012,11:00,METAR,,250,4.0,,,9999.0,,13.0,11.0,29.76,1008.8,,,,,,,,,,,,,,,2/8 Mostly Clear,72000.0,,FEW,12000.0,,,,,,
KRDR,06-17-2012,10:00,METAR,,260,7.0,,,9999.0,,13.0,11.0,29.76,1008.9,,,,,,,,,,,,,,,2/8 Mostly Clear,72000.0,,FEW,12000.0,,,,,,
KRDR,06-17-2012,09:00,METAR,,270,5.0,,,9999.0,,12.0,10.0,29.76,1008.8,,,,,,,,,,,,,,,Clear,72000.0,,,73000.0,,,,,,
KRDR,06-17-2012,08:00,METAR,,280,6.0,,,9999.0,,13.0,10.0,29.76,1009.0,,,,,,,,,,,,,,,Clear,72000.0,,,73000.0,,,,,,
KRDR,06-17-2012,07:00,METAR,,270,5.0,,,9999.0,,13.0,10.0,29.77,1009.3,,,,,,,,,,,,,,,Clear,72000.0,,,73000.0,,,,,,
KRDR,06-17-2012,06:00,METAR,,300,4.0,,,9999.0,,14.0,11.0,29.79,1009.8,,,,,,,,,,,,,,,Clear,72000.0,,,73000.0,,,,,,
KRDR,06-17-2012,05:00,METAR,,280,6.0,,,9999.0,,14.0,11.0,29.79,1010.1,,,,,,,,,,,,,,,Clear,72000.0,,,73000.0,,,,,,
KRDR,06-17-2012,04:00,METAR,,290,5.0,,,9999.0,,16.0,11.0,29.80,1010.3,,,,,,,,,,,,,,,Clear,72000.0,,,73000.0,,,,,,
KRDR,06-17-2012,03:00,METAR,,300,9.0,,,9999.0,,17.0,10.0,29.79,1010.0,,,,,,,,,,,,,,,Clear,72000.0,,,73000.0,,,,,,
KRDR,06-17-2012,02:00,METAR,,310,8.0,,,9999.0,,19.0,11.0,29.79,1009.8,,,,,,,,,,,,,,,2/8 Mostly Clear,72000.0,,FEW,9900.0,,,,,,
KRDR,06-17-2012,01:00,METAR,,290,10.0,,,9999.0,,19.0,11.0,29.79,1009.8,,,,,,,,,,,,,,,4/8 Partly Cloudy,72000.0,,FEW,5000.0,SCT,8900.0,,,,
KRDR,06-17-2012,00:00,METAR,,290,18.0,23.0,,9999.0,,21.0,11.0,29.79,1009.9,,,,,,,,,,,,,,,4/8 Partly Cloudy,72000.0,,FEW,4900.0,SCT,7900.0,,,,
KRDR,06-16-2012,23:00,METAR,,290,13.0,24.0,,9999.0,,21.0,11.0,29.80,1010.3,,,,,,,,,,,,,,,Clear,72000.0,,,73000.0,,,,,,
KRDR,06-16-2012,22:00,METAR,,300,13.0,24.0,,9999.0,,21.0,11.0,29.82,1010.9,,,,,,,,,,,,,,,4/8 Partly Cloudy,72000.0,,FEW,4400.0,SCT,6900.0,,,,
KRDR,06-16-2012,21:00,METAR,,290,14.0,18.0,,9999.0,,20.0,11.0,29.84,1011.5,,,,,,,,,,,,,,,4/8 Partly Cloudy,72000.0,,SCT,5900.0,,,,,,
KRDR,06-16-2012,20:00,METAR,,310,14.0,23.0,,9999.0,,19.0,11.0,29.86,1012.2,,,,,,,,,,,,,,,7/8 Mostly Cloudy,4900.0,,BKN,5000.0,,,,,,
KRDR,06-16-2012,19:00,METAR,,290,13.0,22.0,,9999.0,,20.0,11.0,29.86,1012.4,,,,,,,,,,,,,,,7/8 Mostly Cloudy,4200.0,,BKN,4300.0,,,,,,
KRDR,06-16-2012,18:00,METAR,,300,14.0,19.0,,9999.0,,20.0,13.0,29.87,1012.4,,,,,,,,,,,,,.36 IN,,7/8 Mostly Cloudy,3300.0,,BKN,3400.0,,,,,,
KRDR,06-16-2012,17:01,SPECI,,310,13.0,16.0,,9999.0,,19.0,15.0,29.86,1012.2,,,,,,,,,,,,,,,7/8 Mostly Cloudy,3400.0,,FEW,1800.0,SCT,2400.0,BKN,3500.0,,
KRDR,06-16-2012,17:00,METAR,,310,10.0,,,9999.0,,19.0,16.0,29.86,1012.2,,,,,,,,,,,,,,,7/8 Mostly Cloudy,2100.0,,SCT,2000.0,SCT,2800.0,BKN,3300.0,,
KRDR,06-16-2012,16:37,SPECI,,300,8.0,,,9999.0,,18.0,16.0,29.86,1012.3,,,,,,,,,,,,,,,7/8 Mostly Cloudy,2200.0,,SCT,2000.0,BKN,3100.0,,,,
KRDR,06-16-2012,16:33,SPECI,,300,8.0,,,9999.0,,18.0,16.0,29.86,1012.3,,,,,,,,,,,,,,,8/8 Overcast,1700.0,,BKN,1800.0,OVC,3200.0,,,,
KRDR,06-16-2012,16:26,SPECI,,290,7.0,,,9999.0,,18.0,16.0,29.86,1012.3,,,,,,,,,,,,,,,8/8 Overcast,1700.0,,SCT,1800.0,OVC,3000.0,,,,
KRDR,06-16-2012,16:06,SPECI,,290,6.0,,,9999.0,,17.0,15.0,29.86,1012.3,,,,,,,,,,,,,,,8/8 Overcast,1600.0,,FEW,1100.0,BKN,1700.0,OVC,2700.0,,
KRDR,06-16-2012,16:05,SPECI,,290,7.0,,,9999.0,,17.0,15.0,29.86,1012.3,,,,,,,,,,,,,,,8/8 Overcast,1400.0,,SCT,1400.0,BKN,2000.0,OVC,2700.0,,
KRDR,06-16-2012,16:00,METAR,,260,5.0,,,9999.0,,16.0,16.0,29.86,1012.3,,,,,,,,,,,TRACE,,,,8/8 Overcast,1100.0,,OVC,1500.0,,,,,,
KRDR,06-16-2012,15:43,SPECI,,260,3.0,,,9999.0,,16.0,15.0,29.86,1012.2,,,,,,,,,,,,,,,8/8 Overcast,1100.0,,OVC,1500.0,,,,,,
KRDR,06-16-2012,15:35,SPECI,,260,3.0,,,9999.0,,16.0,15.0,29.86,1012.3,,,,,,,,,,,,,,,8/8 Overcast,1400.0,,BKN,1400.0,OVC,2000.0,,,,
KRDR,06-16-2012,15:16,SPECI,,290,3.0,,,9999.0,,16.0,15.0,29.87,1012.4,,,,,,,,,,,,,,,7/8 Mostly Cloudy,2200.0,,FEW,1800.0,BKN,2300.0,BKN,3000.0,,
KRDR,06-16-2012,15:05,SPECI,,310,4.0,,,9999.0,Light Rain,15.0,15.0,29.86,1012.3,61,,,,,,,,,,,,,,7/8 Mostly Cloudy,2400.0,,FEW,1800.0,BKN,2400.0,BKN,3100.0,,
KRDR,06-16-2012,15:00,METAR,,310,4.0,,,9999.0,Light Rain,15.0,15.0,29.86,1012.3,61,,,,,,,,,,.14 IN,.36 IN,,,7/8 Mostly Cloudy,4100.0,,FEW,2400.0,BKN,4200.0,,,,
KRDR,06-16-2012,14:24,SPECI,,310,7.0,,,6400.0,Heavy Rain/Mist,15.0,15.0,29.87,1012.6,63,10,,,,,,,,,,,,,8/8 Overcast,3000.0,,OVC,3000.0,,,,,,
KRDR,06-16-2012,14:21,SPECI,,310,5.0,,,6400.0,Rain/Mist,15.0,15.0,29.87,1012.6,62,10,,,,,,,,,,,,,8/8 Overcast,2900.0,,OVC,2900.0,,,,,,
KRDR,06-16-2012,14:15,SPECI,,310,7.0,,,6400.0,Heavy Rain/Mist,15.0,15.0,29.87,1012.7,63,10,,,,,,,,,,,,,8/8 Overcast,3000.0,,OVC,3000.0,,,,,,
KRDR,06-16-2012,14:00,METAR,,320,6.0,,,9999.0,Rain,15.0,15.0,29.87,1012.7,62,,,,,,,,,,.18 IN,,,,7/8 Mostly Cloudy,2700.0,,FEW,600.0,BKN,2700.0,BKN,6900.0,,
KRDR,06-16-2012,13:30,SPECI,,330,7.0,,,9999.0,Light Rain,16.0,15.0,29.87,1012.6,61,,,,,,,,,,,,,,7/8 Mostly Cloudy,2400.0,,FEW,600.0,BKN,2400.0,,,,
KRDR,06-16-2012,13:19,SPECI,,330,9.0,,,4800.0,Heavy Rain/Mist,16.0,15.0,29.87,1012.6,63,10,,,,,,,,,,,,,8/8 Overcast,300.0,,FEW,600.0,OVC,1900.0,,,,
KRDR,06-16-2012,13:04,SPECI,,310,10.0,,,4000.0,Heavy Rain/Mist,16.0,15.0,29.87,1012.7,63,10,,,,,,,,,,,,,8/8 Overcast,400.0,,SCT,600.0,OVC,2900.0,,,,
KRDR,06-16-2012,13:02,SPECI,,310,10.0,,,4000.0,Heavy Rain/Mist,16.0,15.0,29.87,1012.6,63,10,,,,,,,,,,,,,7/8 Mostly Cloudy,400.0,,FEW,500.0,BKN,3000.0,,,,
KRDR,06-16-2012,13:00,METAR,,320,8.0,,,8000.0,Rain/Mist,16.0,15.0,29.86,1012.3,62,10,,,,,,,,,.04 IN,,,,8/8 Overcast,4100.0,,FEW,3000.0,OVC,4200.0,,,,
KRDR,06-16-2012,12:27,SPECI,,350,6.0,,,9999.0,Light Drizzle,16.0,15.0,29.86,1012.1,51,,,,,,,,,,,,,,8/8 Overcast,4500.0,,BKN,4600.0,OVC,7900.0,,,,
KRDR,06-16-2012,12:00,METAR,,350,5.0,,,9999.0,,16.0,15.0,29.85,1012.0,,,,,,,,,,,TRACE,,.03 IN,.03 IN,4/8 Partly Cloudy,72000.0,,SCT,8900.0,,,,,,
KRDR,06-16-2012,11:32,SPECI,,,0.0,,,9999.0,,16.0,15.0,29.86,1012.3,,,,,,,,,,,,,,,Clear,11000.0,,,73000.0,,,,,,
KRDR,06-16-2012,11:22,SPECI,,40,5.0,,,9999.0,,16.0,15.0,29.85,1011.9,,,,,,,,,,,,,,,2/8 Mostly Clear,72000.0,,FEW,5900.0,,,,,,
KRDR,06-16-2012,11:00,METAR,,40,6.0,,,9999.0,Light Drizzle,16.0,15.0,29.86,1012.3,51,,,,,,,,,,.03 IN,,,,7/8 Mostly Cloudy,6000.0,,FEW,2800.0,BKN,5900.0,,,,
KRDR,06-16-2012,10:54,SPECI,,40,6.0,,,9999.0,,16.0,15.0,29.86,1012.3,,,,,,,,,,,,,,,8/8 Overcast,6000.0,,FEW,2800.0,OVC,5900.0,,,,
KRDR,06-16-2012,10:13,SPECI,,300,7.0,,,9999.0,Light Rain,17.0,15.0,29.90,1013.6,61,,,,,,,,,,,,,,7/8 Mostly Cloudy,7000.0,,FEW,4400.0,SCT,5000.0,BKN,6900.0,,
KRDR,06-16-2012,10:00,METAR,,30,5.0,,,9999.0,,18.0,14.0,29.88,1013.0,,,,,,,,,,,,,,,7/8 Mostly Cloudy,7000.0,,BKN,6900.0,BKN,12000.0,,,,
KRDR,06-16-2012,09:00,METAR,,30,5.0,,,9999.0,,18.0,14.0,29.92,1014.1,,,,,,,,,,,,,,,8/8 Overcast,11000.0,,OVC,11000.0,,,,,,
KRDR,06-16-2012,08:00,METAR,,310,7.0,,,9999.0,,19.0,14.0,29.93,1014.5,,,,,,,,,,,,,,,7/8 Mostly Cloudy,11000.0,,FEW,6900.0,BKN,11000.0,,,,
KRDR,06-16-2012,07:00,METAR,,,0.0,,,9999.0,,17.0,14.0,29.93,1014.5,,,,,,,,,,,,,,,8/8 Overcast,6000.0,,SCT,5900.0,OVC,9900.0,,,,
KRDR,06-16-2012,06:00,METAR,,20,4.0,,,9999.0,,16.0,13.0,29.94,1014.8,,,,,,,,,,,,,,,4/8 Partly Cloudy,72000.0,,SCT,9900.0,,,,,,
KRDR,06-16-2012,05:00,METAR,,,0.0,,,9999.0,,17.0,14.0,29.94,1014.8,,,,,,,,,,,,,,,7/8 Mostly Cloudy,12000.0,,BKN,12000.0,,,,,,
KRDR,06-16-2012,04:00,METAR,,,0.0,,,9999.0,,18.0,12.0,29.93,1014.7,,,,,,,,,,,,,,,Clear,72000.0,,,73000.0,,,,,,
KRDR,06-16-2012,03:00,METAR,,,0.0,,,9999.0,,21.0,12.0,29.94,1015.0,,,,,,,,,,,,,,,4/8 Partly Cloudy,72000.0,,SCT,12000.0,,,,,,
KRDR,06-16-2012,02:00,METAR,,230,6.0,,,9999.0,,23.0,12.0,29.94,1014.8,,,,,,,,,,,,,,,4/8 Partly Cloudy,72000.0,,SCT,12000.0,,,,,,
KRDR,06-16-2012,01:00,METAR,,220,6.0,,,9999.0,,25.0,11.0,29.92,1014.1,,,,,,,,,,,,,,,Clear,72000.0,,,73000.0,,,,,,
KRDR,06-16-2012,00:00,METAR,,,0.0,,,9999.0,,25.0,13.0,29.93,1014.5,,,,,,,,,,,,,,,Clear,72000.0,,,73000.0,,,,,,
KRDR,06-15-2012,23:00,METAR,,330,3.0,,,9999.0,,26.0,11.0,29.94,1014.9,,,,,,,,,,,,,,,Clear,72000.0,,,73000.0,,,,,,
KRDR,06-15-2012,22:00,METAR,,250,5.0,,,9999.0,,27.0,10.0,29.95,1015.0,,,,,,,,,,,,,,,Clear,72000.0,,,73000.0,,,,,,
KRDR,06-15-2012,21:00,METAR,,,4.0,,,9999.0,,27.0,11.0,29.95,1015.3,,,,,,,,,,,,,,,Clear,72000.0,,,73000.0,,,,,,
KRDR,06-15-2012,20:00,METAR,,290,9.0,,,9999.0,,27.0,11.0,29.95,1015.1,,,,,,,,,,,,,,,Clear,72000.0,,,73000.0,,,,,,
KRDR,06-15-2012,19:00,METAR,,,3.0,,,9999.0,,26.0,12.0,29.95,1015.2,,,,,,,,,,,,,,,Clear,72000.0,,,73000.0,,,,,,
KRDR,06-15-2012,18:00,METAR,,300,11.0,,,9999.0,,26.0,13.0,29.96,1015.4,,,,,,,,,,,,,,,Clear,72000.0,,,73000.0,,,,,,
KRDR,06-15-2012,17:00,METAR,,310,13.0,18.0,,9999.0,,25.0,12.0,29.94,1014.9,,,,,,,,,,,,,,,Clear,72000.0,,,73000.0,,,,,,
KRDR,06-15-2012,16:00,METAR,,290,9.0,,,9999.0,,24.0,14.0,29.93,1014.7,,,,,,,,,,,,,,,Clear,72000.0,,,73000.0,,,,,,
KRDR,06-15-2012,15:00,METAR,,320,9.0,,,9999.0,,22.0,15.0,29.93,1014.6,,,,,,,,,,,,,,,Clear,72000.0,,,73000.0,,,,,,
KRDR,06-15-2012,14:00,METAR,,300,10.0,,,9999.0,,21.0,14.0,29.92,1014.4,,,,,,,,,,,,,,,Clear,72000.0,,,73000.0,,,,,,
KRDR,06-15-2012,13:00,METAR,,280,7.0,,,9999.0,,19.0,14.0,29.93,1014.4,,,,,,,,,,,,,,,Clear,72000.0,,,73000.0,,,,,,
KRDR,06-15-2012,12:00,METAR,,250,6.0,,,9999.0,,17.0,13.0,29.91,1013.9,,,,,,,,,,,,,,.01 IN,Clear,72000.0,,,73000.0,,,,,,
KRDR,06-15-2012,11:00,METAR,,280,7.0,,,9999.0,,15.0,12.0,29.88,1012.9,,,,,,,,,,,,,,,Clear,72000.0,,,73000.0,,,,,,
KRDR,06-15-2012,10:00,METAR,,270,7.0,,,9999.0,,15.0,12.0,29.86,1012.2,,,,,,,,,,,,,,,Clear,72000.0,,,73000.0,,,,,,
KRDR,06-15-2012,09:00,METAR,,260,7.0,,,9999.0,,15.0,13.0,29.85,1011.9,,,,,,,,,,,,,,,Clear,72000.0,,,73000.0,,,,,,
KRDR,06-15-2012,08:00,METAR,,260,6.0,,,9999.0,,16.0,13.0,29.85,1011.9,,,,,,,,,,,,,,,Clear,72000.0,,,73000.0,,,,,,
KRDR,06-15-2012,07:00,METAR,,240,7.0,,,9999.0,,15.0,13.0,29.83,1011.2,,,,,,,,,,,,,,,Clear,72000.0,,,73000.0,,,,,,
KRDR,06-15-2012,06:00,METAR,,240,5.0,,,9999.0,,17.0,13.0,29.81,1010.7,,,,,,,,,,,,,,,Clear,72000.0,,,73000.0,,,,,,
KRDR,06-15-2012,05:00,METAR,,290,8.0,,,9999.0,,19.0,13.0,29.73,1007.8,,,,,,,,,,,,,,,Clear,72000.0,,,73000.0,,,,,,
KRDR,06-15-2012,04:00,METAR,,290,8.0,,,9999.0,,19.0,13.0,29.72,1007.6,,,,,,,,,,,,,,,Clear,72000.0,,,73000.0,,,,,,
KRDR,06-15-2012,03:00,METAR,,270,7.0,,,9999.0,,20.0,14.0,29.73,1007.9,,,,,,,,,,,,,,,Clear,72000.0,,,73000.0,,,,,,
KRDR,06-15-2012,02:00,METAR,,270,11.0,,,9999.0,,22.0,13.0,29.71,1007.3,,,,,,,,,,,,,,,Clear,72000.0,,,73000.0,,,,,,
KRDR,06-15-2012,01:00,METAR,,260,16.0,24.0,,9999.0,,24.0,12.0,29.71,1007.2,,,,,,,,,,,,,,,2/8 Mostly Clear,72000.0,,FEW,6900.0,,,,,,
KRDR,06-15-2012,00:00,METAR,,250,13.0,20.0,,9999.0,,23.0,12.0,29.70,1006.8,,,,,,,,,,,,,,,2/8 Mostly Clear,72000.0,,FEW,7900.0,,,,,,
KRDR,06-14-2012,23:00,METAR,,260,17.0,24.0,,9999.0,,25.0,12.0,29.68,1006.4,,,,,,,,,,,,,,,Clear,72000.0,,,73000.0,,,,,,
KRDR,06-14-2012,22:00,METAR,,250,16.0,24.0,260/26KTS,9999.0,,25.0,13.0,29.67,1005.9,,,,,,,,,,,,,,,4/8 Partly Cloudy,72000.0,,SCT,5900.0,,,,,,
KRDR,06-14-2012,21:00,METAR,,260,19.0,25.0,240/28KTS,9999.0,,26.0,13.0,29.65,1005.4,,,,,,,,,,,,,,,2/8 Mostly Clear,72000.0,,FEW,5900.0,,,,,,
KRDR,06-14-2012,20:00,METAR,,250,16.0,23.0,,9999.0,,26.0,11.0,29.65,1005.3,,,,,,,,,,,,,,,Clear,72000.0,,,73000.0,,,,,,
KRDR,06-14-2012,19:00,METAR,,240,16.0,,,9999.0,,26.0,15.0,29.65,1005.2,,,,,,,,,,,,,,,2/8 Mostly Clear,72000.0,,FEW,4300.0,,,,,,
KRDR,06-14-2012,18:00,METAR,,200,15.0,,,9999.0,,25.0,18.0,29.65,1005.4,,,,,,,,,,,,,.01 IN,,4/8 Partly Cloudy,72000.0,,SCT,2800.0,,,,,,
KRDR,06-14-2012,17:02,SPECI,,220,17.0,22.0,,9999.0,,23.0,18.0,29.65,1005.3,,,,,,,,,,,,,,,4/8 Partly Cloudy,72000.0,,SCT,2200.0,,,,,,
KRDR,06-14-2012,17:00,METAR,,220,18.0,21.0,,9999.0,,23.0,18.0,29.65,1005.4,,,,,,,,,,,,,,,7/8 Mostly Cloudy,2100.0,,BKN,2100.0,,,,,,
KRDR,06-14-2012,16:48,SPECI,,220,14.0,21.0,,9999.0,,23.0,18.0,29.65,1005.3,,,,,,,,,,,,,,,7/8 Mostly Cloudy,2100.0,,BKN,2100.0,,,,,,
KRDR,06-14-2012,16:00,METAR,,200,13.0,,,9999.0,,21.0,17.0,29.64,1004.9,,,,,,,,,,,,,,,Clear,72000.0,,,73000.0,,,,,,
KRDR,06-14-2012,15:00,METAR,,180,17.0,26.0,180/26KTS,9999.0,,21.0,16.0,29.62,1004.2,,,,,,,,,,,,.01 IN,,,Clear,72000.0,,,73000.0,,,,,,
KRDR,06-14-2012,14:00,METAR,,200,18.0,22.0,,9999.0,,19.0,17.0,29.65,1005.2,,,,,,,,,,,.01 IN,,,,4/8 Partly Cloudy,72000.0,,SCT,6900.0,,,,,,
KRDR,06-14-2012,13:00,METAR,,170,9.0,,,9999.0,,17.0,16.0,29.64,1005.0,,,,,,,,,,,TRACE,,,,7/8 Mostly Cloudy,7000.0,,FEW,1000.0,BKN,6900.0,,,,
KRDR,06-14-2012,12:03,SPECI,,150,8.0,,,9999.0,,16.0,15.0,29.63,1004.7,,,,,,,,,,,,,,,7/8 Mostly Cloudy,8000.0,,FEW,3000.0,SCT,6900.0,BKN,7900.0,,
KRDR,06-14-2012,12:00,METAR,,160,7.0,,,9999.0,Rain,16.0,15.0,29.65,1005.3,,,,61,,,,,,,.02 IN,,.26 IN,.26 IN,8/8 Overcast,7000.0,,SCT,3100.0,BKN,6900.0,OVC,11000.0,,
KRDR,06-14-2012,11:40,SPECI,,180,6.0,,,9999.0,Rain,16.0,15.0,29.66,,,,,61,,,,,,,,,,,7/8 Mostly Cloudy,3000.0,,BKN,3000.0,,,,,,
KRDR,06-14-2012,11:37,SPECI,,220,5.0,,,9999.0,,16.0,15.0,29.68,1006.3,,,,,,,,,,,,,,,Clear,9000.0,,,73000.0,,,,,,
KRDR,06-14-2012,11:34,SPECI,,210,4.0,,,9999.0,,16.0,15.0,29.67,1006.0,,,,,,,,,,,,,,,Clear,12000.0,,,73000.0,,,,,,
KRDR,06-14-2012,11:25,SPECI,,200,5.0,,,9999.0,,16.0,15.0,29.67,1005.9,,,,,,,,,,,,,,,Clear,12000.0,,,73000.0,,,,,,
KRDR,06-14-2012,11:22,SPECI,,210,8.0,,,9999.0,,16.0,15.0,29.67,1005.9,,,,,,,,,,,,,,,2/8 Mostly Clear,72000.0,,FEW,9900.0,,,,,,
KRDR,06-14-2012,11:00,METAR,,190,14.0,,,9999.0,Light Rain,16.0,15.0,29.71,1007.3,61,,,,,,,,,,,,,,4/8 Partly Cloudy,72000.0,,FEW,1000.0,SCT,11000.0,,,,
KRDR,06-14-2012,10:43,SPECI,,180,11.0,,,9999.0,,16.0,15.0,29.67,1006.0,,,,,,,,,,,,,,,4/8 Partly Cloudy,72000.0,,FEW,1300.0,SCT,11000.0,,,,
KRDR,06-14-2012,10:20,SPECI,,170,9.0,,,9999.0,Light Drizzle,16.0,15.0,29.65,1005.4,51,,,,,,,,,,,,,,7/8 Mostly Cloudy,11000.0,,BKN,11000.0,,,,,,
KRDR,06-14-2012,10:17,SPECI,,200,8.0,,,9999.0,,17.0,15.0,29.68,1006.3,,,,,,,,,,,,,,,7/8 Mostly Cloudy,11000.0,,BKN,11000.0,,,,,,
KRDR,06-14-2012,10:00,METAR,,60,8.0,,,9999.0,Light Rain,17.0,15.0,29.62,1004.4,61,,,,,,,,,,.1 IN,,,,4/8 Partly Cloudy,72000.0,,FEW,5000.0,SCT,9900.0,,,,
KRDR,06-14-2012,09:21,SPECI,,130,11.0,,,9999.0,Light Rain,16.0,15.0,29.65,1005.3,61,,,,,,,,,,,,,,7/8 Mostly Cloudy,4100.0,,BKN,4200.0,BKN,11000.0,,,,
KRDR,06-14-2012,09:18,SPECI,,120,14.0,,,9999.0,Light Rain/Mist,16.0,15.0,29.64,1004.9,61,10,,,,,,,,,,,,,8/8 Overcast,4300.0,,OVC,4400.0,,,,,,
KRDR,06-14-2012,09:15,SPECI,,110,15.0,,,9999.0,Rain/Mist,16.0,15.0,29.63,1004.6,62,10,,,,,,,,,,,,,8/8 Overcast,4300.0,,OVC,4400.0,,,,,,
KRDR,06-14-2012,09:05,SPECI,,100,9.0,,,9999.0,Light Rain,16.0,15.0,29.69,1006.5,61,,,,,,,,,,,,,,8/8 Overcast,4100.0,,OVC,4200.0,,,,,,
KRDR,06-14-2012,09:00,METAR,,240,6.0,,,4800.0,Heavy Rain/Mist,16.0,15.0,29.74,1008.2,63,10,,,,,,,,,,,,,8/8 Overcast,4900.0,,OVC,5000.0,,,,,,
KRDR,06-14-2012,08:46,SPECI,,250,6.0,,,4000.0,Heavy Rain/Mist,16.0,15.0,29.73,1008.0,63,10,,,,,,,,,,,,,8/8 Overcast,4900.0,,OVC,5000.0,,,,,,
KRDR,06-14-2012,08:41,SPECI,,260,5.0,,,6400.0,Rain/Mist,16.0,15.0,29.73,1007.9,62,10,,,,,,,,,,,,,8/8 Overcast,6000.0,,OVC,5900.0,,,,,,
KRDR,06-14-2012,08:31,SPECI,,240,8.0,,,9999.0,Rain/Mist,16.0,15.0,29.76,1008.8,62,10,,,,,,,,,,,,,7/8 Mostly Cloudy,6000.0,,BKN,5900.0,,,,,,
KRDR,06-14-2012,08:29,SPECI,,230,10.0,,,9999.0,Rain,16.0,15.0,29.76,1008.9,62,,,,,,,,,,,,,,7/8 Mostly Cloudy,4600.0,,BKN,5900.0,,,,,,
KRDR,06-14-2012,08:08,SPECI,,220,16.0,24.0,,9999.0,Thunderstorm and Rain or Snow Showers,16.0,14.0,29.76,1008.8,92,,,,,,,,,,,,,,7/8 Mostly Cloudy,4900.0,,BKN,5000.0,,,,,,
KRDR,06-14-2012,07:51,SPECI,,220,6.0,,,9999.0,Light Rain,15.0,13.0,29.75,1008.4,61,,,,,,,,,,,,,,4/8 Partly Cloudy,72000.0,,FEW,900.0,SCT,5000.0,,,,
KRDR,06-14-2012,07:47,SPECI,,240,6.0,,,9999.0,Light Rain,15.0,13.0,29.75,1008.4,61,,,,,,,,,,,,,,2/8 Mostly Clear,72000.0,,FEW,5000.0,,,,,,
KRDR,06-14-2012,07:42,SPECI,,260,7.0,,,9999.0,Thunderstorm and Rain or Snow Showers,14.0,13.0,29.74,1008.4,92,,,,,,,,,,,,,,Clear,10000.0,,,73000.0,,,,,,
KRDR,06-14-2012,07:32,SPECI,,250,3.0,,,9999.0,Dry Thunderstorm,14.0,13.0,29.72,1007.6,91,,,,,,,,,,,,,,Clear,72000.0,,,73000.0,,,,,,
KRDR,06-14-2012,07:00,METAR,,,0.0,,,9999.0,,15.0,13.0,29.69,1006.7,,,,,,,,,,,,,,,Clear,72000.0,,,73000.0,,,,,,
KRDR,06-14-2012,06:00,METAR,,120,7.0,,,9999.0,,16.0,13.0,29.70,1006.9,,,,,,,,,,,,,,,Clear,72000.0,,,73000.0,,,,,,
KRDR,06-14-2012,05:00,METAR,,150,7.0,,,9999.0,,16.0,13.0,29.73,1008.1,,,,,,,,,,,,,,,Clear,72000.0,,,73000.0,,,,,,
KRDR,06-14-2012,04:00,METAR,,150,9.0,,,9999.0,,17.0,13.0,29.75,1008.5,,,,,,,,,,,,,,,Clear,72000.0,,,73000.0,,,,,,
KRDR,06-14-2012,03:00,METAR,,150,10.0,,,9999.0,,18.0,13.0,29.75,1008.5,,,,,,,,,,,,,,,Clear,72000.0,,,73000.0,,,,,,
KRDR,06-14-2012,02:00,METAR,,140,9.0,,,9999.0,,19.0,13.0,29.75,1008.5,,,,,,,,,,,,,,,Clear,72000.0,,,73000.0,,,,,,
KRDR,06-14-2012,01:00,METAR,,140,11.0,,,9999.0,,21.0,13.0,29.76,1008.8,,,,,,,,,,,,,,,Clear,72000.0,,,73000.0,,,,,,
KRDR,06-14-2012,00:00,METAR,,140,13.0,22.0,,9999.0,,22.0,13.0,29.76,1008.8,,,,,,,,,,,,,,,Clear,72000.0,,,73000.0,,,,,,
KRDR,06-13-2012,23:00,METAR,,150,14.0,,,9999.0,,23.0,14.0,29.77,1009.4,,,,,,,,,,,,,,,2/8 Mostly Clear,72000.0,,FEW,3900.0,,,,,,
KRDR,06-13-2012,22:00,METAR,,140,17.0,25.0,,9999.0,,25.0,14.0,29.76,1009.0,,,,,,,,,,,,,,,2/8 Mostly Clear,72000.0,,FEW,4400.0,,,,,,
KRDR,06-13-2012,21:00,METAR,,150,14.0,24.0,,9999.0,,26.0,14.0,29.77,1009.2,,,,,,,,,,,,,,,2/8 Mostly Clear,72000.0,,FEW,5000.0,,,,,,
KRDR,06-13-2012,20:00,METAR,,190,13.0,,,9999.0,,25.0,13.0,29.79,1009.9,,,,,,,,,,,,,,,4/8 Partly Cloudy,72000.0,,SCT,5000.0,SCT,6900.0,,,,
KRDR,06-13-2012,19:00,METAR,,200,14.0,,,9999.0,,25.0,14.0,29.80,1010.3,,,,,,,,,,,,,,,Clear,72000.0,,,73000.0,,,,,,
KRDR,06-13-2012,18:00,METAR,,170,16.0,,,9999.0,,25.0,14.0,29.82,1010.9,,,,,,,,,,,,,,,Clear,72000.0,,,73000.0,,,,,,
KRDR,06-13-2012,17:00,METAR,,200,15.0,23.0,,9999.0,,24.0,14.0,29.83,1011.2,,,,,,,,,,,,,,,Clear,72000.0,,,73000.0,,,,,,
KRDR,06-13-2012,16:00,METAR,,180,17.0,22.0,,9999.0,,22.0,13.0,29.84,1011.6,,,,,,,,,,,,,,,Clear,72000.0,,,73000.0,,,,,,
KRDR,06-13-2012,15:00,METAR,,190,18.0,23.0,,9999.0,,20.0,12.0,29.85,1012.1,,,,,,,,,,,,,,,Clear,72000.0,,,73000.0,,,,,,
KRDR,06-13-2012,14:00,METAR,,190,17.0,21.0,,9999.0,,19.0,11.0,29.87,1012.6,,,,,,,,,,,,,,,Clear,72000.0,,,73000.0,,,,,,
KRDR,06-13-2012,13:00,METAR,,190,11.0,19.0,,9999.0,,16.0,10.0,29.89,1013.2,,,,,,,,,,,,,,,Clear,72000.0,,,73000.0,,,,,,
KRDR,06-13-2012,12:00,METAR,,180,12.0,,,9999.0,,14.0,9.0,29.90,1013.5,,,,,,,,,,,,,,,Clear,72000.0,,,73000.0,,,,,,
KRDR,06-13-2012,11:00,METAR,,200,9.0,,,9999.0,,13.0,9.0,29.89,1013.3,,,,,,,,,,,,,,,Clear,72000.0,,,73000.0,,,,,,
KRDR,06-13-2012,10:00,METAR,,210,10.0,,,9999.0,,14.0,9.0,29.89,1013.3,,,,,,,,,,,,,,,Clear,72000.0,,,73000.0,,,,,,
KRDR,06-13-2012,09:00,METAR,,200,10.0,,,9999.0,,15.0,9.0,29.90,1013.4,,,,,,,,,,,,,,,Clear,72000.0,,,73000.0,,,,,,
KRDR,06-13-2012,08:00,METAR,,210,11.0,,,9999.0,,16.0,9.0,29.91,1014.0,,,,,,,,,,,,,,,Clear,72000.0,,,73000.0,,,,,,
KRDR,06-13-2012,07:00,METAR,,210,13.0,,,9999.0,,17.0,9.0,29.93,1014.5,,,,,,,,,,,,,,,Clear,72000.0,,,73000.0,,,,,,
KRDR,06-13-2012,06:00,METAR,,210,13.0,,,9999.0,,17.0,8.0,29.94,1015.0,,,,,,,,,,,,,,,Clear,72000.0,,,73000.0,,,,,,
KRDR,06-13-2012,05:00,METAR,,200,11.0,,,9999.0,,17.0,9.0,29.95,1015.1,,,,,,,,,,,,,,,Clear,72000.0,,,73000.0,,,,,,
KRDR,06-13-2012,04:00,METAR,,200,10.0,,,9999.0,,18.0,9.0,29.95,1015.1,,,,,,,,,,,,,,,Clear,72000.0,,,73000.0,,,,,,
KRDR,06-13-2012,03:00,METAR,,180,9.0,,,9999.0,,18.0,10.0,29.94,1014.9,,,,,,,,,,,,,,,Clear,72000.0,,,73000.0,,,,,,
KRDR,06-13-2012,02:00,METAR,,190,9.0,,,9999.0,,22.0,9.0,29.94,1014.9,,,,,,,,,,,,,,,8/8 Overcast,7000.0,,BKN,6900.0,OVC,9900.0,,,,
KRDR,06-13-2012,01:00,METAR,,190,10.0,,,9999.0,,22.0,9.0,29.96,1015.4,,,,,,,,,,,,,,,8/8 Overcast,9000.0,,FEW,6900.0,OVC,8900.0,,,,
KRDR,06-13-2012,00:00,METAR,,190,14.0,,,9999.0,,23.0,10.0,29.98,1016.1,,,,,,,,,,,,,,,7/8 Mostly Cloudy,10000.0,,BKN,9900.0,,,,,,
KRDR,06-12-2012,23:00,METAR,,200,12.0,,,9999.0,,22.0,9.0,30.00,1016.9,,,,,,,,,,,,,,,7/8 Mostly Cloudy,7000.0,,BKN,6900.0,BKN,11000.0,,,,
KRDR,06-12-2012,22:00,METAR,,210,12.0,,,9999.0,,22.0,8.0,30.03,1017.7,,,,,,,,,,,,,,,Clear,72000.0,,,73000.0,,,,,,
KRDR,06-12-2012,21:00,METAR,,200,8.0,,,9999.0,,21.0,8.0,30.05,1018.6,,,,,,,,,,,,,,,Clear,72000.0,,,73000.0,,,,,,
KRDR,06-12-2012,20:00,METAR,,190,6.0,,,9999.0,,20.0,7.0,30.08,1019.4,,,,,,,,,,,,,,,Clear,72000.0,,,73000.0,,,,,,
KRDR,06-12-2012,19:00,METAR,,210,7.0,,,9999.0,,18.0,5.0,30.12,1020.7,,,,,,,,,,,,,,,4/8 Partly Cloudy,72000.0,,FEW,6900.0,SCT,9900.0,,,,
KRDR,06-12-2012,18:00,METAR,,260,7.0,,,9999.0,,18.0,5.0,30.12,1020.9,,,,,,,,,,,,,,,2/8 Mostly Clear,72000.0,,FEW,5000.0,,,,,,
KRDR,06-12-2012,17:00,METAR,,,0.0,,,9999.0,,16.0,5.0,30.14,1021.5,,,,,,,,,,,,,,,Clear,72000.0,,,73000.0,,,,,,
KRDR,06-12-2012,16:00,METAR,,240,7.0,,,9999.0,,15.0,5.0,30.15,1021.9,,,,,,,,,,,,,,,Clear,72000.0,,,73000.0,,,,,,
KRDR,06-12-2012,15:00,METAR,,280,5.0,,,9999.0,,14.0,5.0,30.16,1022.2,,,,,,,,,,,,,,,Clear,72000.0,,,73000.0,,,,,,
KRDR,06-12-2012,14:00,METAR,,260,6.0,,,9999.0,,12.0,4.0,30.17,1022.6,,,,,,,,,,,,,,,Clear,72000.0,,,73000.0,,,,,,
KRDR,06-12-2012,13:00,METAR,,270,4.0,,,9999.0,,9.0,6.0,30.17,1022.3,,,,,,,,,,,,,,,Clear,72000.0,,,73000.0,,,,,,
KRDR,06-12-2012,12:00,METAR,,220,3.0,,,9999.0,,6.0,4.0,30.16,1022.1,,,,,,,,,,,,,,.02 IN,Clear,72000.0,,,73000.0,,,,,,
KRDR,06-12-2012,11:00,METAR,,290,3.0,,,9999.0,,4.0,3.0,30.15,1021.7,,,,,,,,,,,,,,,Clear,72000.0,,,73000.0,,,,,,
KRDR,06-12-2012,10:00,METAR,,290,4.0,,,9999.0,,3.0,2.0,30.13,1021.2,,,,,,,,,,,,,,,Clear,72000.0,,,73000.0,,,,,,
KRDR,06-12-2012,09:00,METAR,,320,4.0,,,9999.0,,4.0,3.0,30.11,1020.5,,,,,,,,,,,,,,,Clear,72000.0,,,73000.0,,,,,,
KRDR,06-12-2012,08:00,METAR,,320,3.0,,,9999.0,,6.0,4.0,30.11,1020.4,,,,,,,,,,,,,,,7/8 Mostly Cloudy,4500.0,,BKN,4600.0,,,,,,
KRDR,06-12-2012,07:00,METAR,,330,6.0,,,9999.0,,7.0,4.0,30.10,1020.0,,,,,,,,,,,,,,,Clear,72000.0,,,73000.0,,,,,,
KRDR,06-12-2012,06:00,METAR,,330,6.0,,,9999.0,,7.0,5.0,30.09,1019.8,,,,,,,,,,,,,TRACE,,2/8 Mostly Clear,72000.0,,FEW,4600.0,,,,,,
KRDR,06-12-2012,05:00,METAR,,320,6.0,,,9999.0,,8.0,5.0,30.08,1019.4,,,,,,,,,,,,,,,7/8 Mostly Cloudy,4300.0,,BKN,4400.0,,,,,,
KRDR,06-12-2012,04:00,METAR,,310,8.0,,,9999.0,,8.0,5.0,30.06,1018.7,,,,,,,,,,,,,,,Clear,72000.0,,,73000.0,,,,,,
KRDR,06-12-2012,03:00,METAR,,320,10.0,,,9999.0,,9.0,5.0,30.02,1017.6,,,,,,,,,,,,TRACE,,,4/8 Partly Cloudy,72000.0,,FEW,4400.0,SCT,6900.0,,,,
KRDR,06-12-2012,02:00,METAR,,320,12.0,,,9999.0,,9.0,6.0,30.00,1016.9,,,,,,,,,,,TRACE,,,,8/8 Overcast,4500.0,,FEW,2400.0,SCT,4500.0,OVC,5900.0,,
KRDR,06-12-2012,01:03,SPECI,,340,16.0,25.0,,9999.0,,10.0,5.0,29.99,1016.5,,,,,,,,,,,,,,,8/8 Overcast,3000.0,,OVC,3000.0,,,,,,
KRDR,06-12-2012,01:00,METAR,,330,12.0,,,9999.0,,11.0,5.0,29.98,1016.2,,,,,,,,,,,,,,,8/8 Overcast,3200.0,,OVC,3300.0,,,,,,
KRDR,06-12-2012,00:54,SPECI,,340,15.0,,,9999.0,Light Drizzle,11.0,5.0,29.98,1016.3,51,,,,,,,,,,,,,,8/8 Overcast,3200.0,,OVC,3300.0,,,,,,
KRDR,06-12-2012,00:00,METAR,,330,13.0,21.0,,9999.0,,11.0,5.0,29.96,1015.4,,,,,,,,,,,,,TRACE,,8/8 Overcast,2500.0,,BKN,2800.0,OVC,3700.0,,,,
KRDR,06-11-2012,23:54,SPECI,,330,13.0,19.0,,9999.0,,11.0,5.0,29.96,1015.4,,,,,,,,,,,,,,,8/8 Overcast,3600.0,,SCT,2800.0,OVC,3700.0,,,,
KRDR,06-11-2012,23:00,METAR,,350,14.0,20.0,320/30KTS,9999.0,,10.0,7.0,29.92,1014.3,,,,,,,,,,,TRACE,,,,7/8 Mostly Cloudy,2900.0,,FEW,2400.0,BKN,2900.0,BKN,3700.0,,
KRDR,06-11-2012,22:57,SPECI,,330,14.0,,,9999.0,,10.0,7.0,29.93,1014.4,,,,,,,,,,,,,,,8/8 Overcast,2400.0,,SCT,2400.0,OVC,3000.0,,,,
KRDR,06-11-2012,22:50,SPECI,,340,15.0,21.0,320/30KTS,9999.0,,10.0,7.0,29.92,1014.3,,,,,,,,,,,,,,,7/8 Mostly Cloudy,2900.0,,BKN,2900.0,BKN,3700.0,,,,
KRDR,06-11-2012,22:42,SPECI,,330,16.0,21.0,320/30KTS,9999.0,Light Rain,10.0,8.0,29.92,1014.2,61,,,,,,,,,,,,,,7/8 Mostly Cloudy,2800.0,,BKN,2800.0,BKN,3700.0,BKN,4400.0,,
KRDR,06-11-2012,22:19,SPECI,,330,16.0,27.0,320/30KTS,9999.0,Light Rain,10.0,6.0,29.91,1013.9,61,,,,,,,,,,,,,,7/8 Mostly Cloudy,3200.0,,SCT,2500.0,BKN,3300.0,BKN,4200.0,,
KRDR,06-11-2012,22:18,SPECI,,330,19.0,27.0,320/30KTS,9999.0,Light Rain,10.0,6.0,29.91,1013.8,61,,,,,,,,,,,,,,7/8 Mostly Cloudy,2500.0,,BKN,2500.0,BKN,3100.0,BKN,4200.0,,
KRDR,06-11-2012,22:00,METAR,,330,22.0,27.0,320/31KTS,9999.0,,11.0,6.0,29.88,1012.9,,,,,,,,,,,TRACE,,,,8/8 Overcast,2000.0,,BKN,2300.0,OVC,2800.0,,,,
KRDR,06-11-2012,21:28,SPECI,,320,17.0,31.0,320/31KTS,9999.0,,10.0,6.0,29.87,1012.4,,,,,,,,,,,,,,,8/8 Overcast,2100.0,,BKN,2100.0,OVC,2600.0,,,,
KRDR,06-11-2012,21:16,SPECI,,320,23.0,27.0,330/31KTS,9999.0,Light Rain,11.0,7.0,29.86,1012.1,61,,,,,,,,,,,,,,8/8 Overcast,2100.0,,BKN,2100.0,OVC,2800.0,,,,
KRDR,06-11-2012,21:12,SPECI,,320,19.0,28.0,330/31KTS,9999.0,,11.0,7.0,29.85,1011.9,,,,,,,,,,,,,,,8/8 Overcast,2000.0,,SCT,2100.0,OVC,2700.0,,,,
KRDR,06-11-2012,21:00,METAR,,330,21.0,29.0,320/33KTS,9999.0,,11.0,6.0,29.83,1011.4,,,,,,,,,,,TRACE,0 IN,,,8/8 Overcast,2100.0,,OVC,2600.0,,,,,,
KRDR,06-11-2012,20:45,SPECI,,320,18.0,29.0,320/33KTS,9999.0,,11.0,6.0,29.83,1011.2,,,,,,,,,,,,,,,8/8 Overcast,2300.0,,BKN,2300.0,BKN,3000.0,OVC,3700.0,,
KRDR,06-11-2012,20:42,SPECI,,330,22.0,29.0,320/33KTS,9999.0,,11.0,6.0,29.83,1011.1,,,,,,,,,,,,,,,8/8 Overcast,2300.0,,BKN,2300.0,BKN,3000.0,OVC,3700.0,,
KRDR,06-11-2012,20:38,SPECI,,330,18.0,29.0,320/33KTS,9999.0,,11.0,6.0,29.82,1011.0,,,,,,,,,,,,,,,8/8 Overcast,2500.0,,SCT,2200.0,BKN,3000.0,OVC,3800.0,,
KRDR,06-11-2012,20:37,SPECI,,330,20.0,29.0,320/33KTS,9999.0,Light Rain,11.0,6.0,29.82,1011.0,61,,,,,,,,,,,,,,8/8 Overcast,2500.0,,SCT,2200.0,BKN,3000.0,OVC,3800.0,,
KRDR,06-11-2012,20:28,SPECI,,320,19.0,28.0,320/33KTS,9999.0,Light Rain,11.0,6.0,29.82,1010.8,61,,,,,,,,,,,,,,8/8 Overcast,2300.0,,SCT,2300.0,BKN,2900.0,OVC,5000.0,,
KRDR,06-11-2012,20:26,SPECI,,330,20.0,28.0,320/33KTS,9999.0,,11.0,6.0,29.82,1010.8,,,,,,,,,,,,,,,8/8 Overcast,2300.0,,SCT,2500.0,BKN,3300.0,OVC,5000.0,,
KRDR,06-11-2012,20:17,SPECI,,320,24.0,33.0,320/33KTS,9999.0,Light Rain,11.0,6.0,29.81,1010.5,61,,,,,,,,,,,,,,7/8 Mostly Cloudy,3200.0,,FEW,2100.0,SCT,2700.0,BKN,3300.0,,
KRDR,06-11-2012,20:11,SPECI,,320,24.0,31.0,320/31KTS,9999.0,,11.0,6.0,29.80,1010.3,,,,,,,,,,,,,,,7/8 Mostly Cloudy,3000.0,,SCT,2200.0,BKN,3000.0,BKN,4600.0,,
KRDR,06-11-2012,20:09,SPECI,,320,19.0,29.0,310/29KTS,9999.0,,11.0,7.0,29.80,1010.3,,,,,,,,,,,,,,,7/8 Mostly Cloudy,2800.0,,SCT,2200.0,BKN,2800.0,BKN,4700.0,,
KRDR,06-11-2012,20:05,SPECI,,320,18.0,29.0,310/29KTS,9999.0,,11.0,6.0,29.80,1010.2,,,,,,,,,,,,,,,7/8 Mostly Cloudy,2500.0,,SCT,2500.0,SCT,3000.0,BKN,3900.0,,
KRDR,06-11-2012,20:00,SPECI,,310,19.0,29.0,310/29KTS,9999.0,,12.0,7.0,29.80,1010.1,,,,,,,,,,,,,,,7/8 Mostly Cloudy,2500.0,,SCT,2500.0,BKN,3000.0,BKN,3900.0,,
KRDR,06-11-2012,20:00,METAR,,300,23.0,30.0,300/34KTS,9999.0,,12.0,6.0,29.79,1009.8,,,,,,,,,,,,,,,7/8 Mostly Cloudy,3300.0,,SCT,2900.0,SCT,3900.0,BKN,4900.0,,
KRDR,06-11-2012,19:58,SPECI,,320,22.0,29.0,300/29KTS,9999.0,,12.0,7.0,29.79,1010.0,,,,,,,,,,,,,,,7/8 Mostly Cloudy,2900.0,,SCT,2500.0,BKN,2900.0,BKN,4400.0,,
KRDR,06-11-2012,19:00,METAR,,310,18.0,31.0,300/31KTS,9999.0,,12.0,5.0,29.76,1009.0,,,,,,,,,,,,,,,7/8 Mostly Cloudy,3800.0,,BKN,3900.0,BKN,4900.0,,,,
KRDR,06-11-2012,18:00,METAR,,300,21.0,28.0,320/34KTS,9999.0,Light Rain,11.0,6.0,29.74,1008.1,61,,,,,,,,,,TRACE,,.02 IN,,8/8 Overcast,3400.0,,BKN,3500.0,OVC,4500.0,,,,
KRDR,06-11-2012,17:53,SPECI,,300,20.0,28.0,,9999.0,,11.0,5.0,29.74,1008.2,,,,,,,,,,,,,,,8/8 Overcast,3400.0,,BKN,3500.0,OVC,4500.0,,,,
KRDR,06-11-2012,17:43,SPECI,,300,19.0,29.0,320/34KTS,9999.0,Light Rain,12.0,6.0,29.74,1008.3,61,,,,,,,,,,,,,,8/8 Overcast,3500.0,,FEW,3000.0,SCT,3500.0,OVC,4800.0,,
KRDR,06-11-2012,17:00,METAR,,290,15.0,32.0,310/34KTS,9999.0,,13.0,7.0,29.70,1007.1,,,,,,,,,,,.01 IN,,,,8/8 Overcast,3300.0,,FEW,2600.0,BKN,3400.0,OVC,4300.0,,
KRDR,06-11-2012,16:40,SPECI,,300,22.0,34.0,310/34KTS,9999.0,,12.0,7.0,29.70,1006.9,,,,,,,,,,,,,,,7/8 Mostly Cloudy,3200.0,,FEW,1900.0,SCT,2500.0,BKN,3300.0,,
KRDR,06-11-2012,16:18,SPECI,,300,18.0,30.0,300/33KTS,9999.0,,12.0,8.0,29.68,1006.4,,,,,,,,,,,,,,,8/8 Overcast,2100.0,,BKN,2100.0,OVC,2800.0,,,,
KRDR,06-11-2012,16:05,SPECI,,300,24.0,33.0,300/33KTS,9999.0,,13.0,9.0,29.67,1006.0,,,,,,,,,,,,,,,7/8 Mostly Cloudy,2000.0,,BKN,2000.0,BKN,2600.0,,,,
KRDR,06-11-2012,16:00,METAR,,310,11.0,27.0,310/32KTS,9999.0,,14.0,10.0,29.67,1005.9,,,,,,,,,,,.01 IN,,,,7/8 Mostly Cloudy,2800.0,,SCT,2100.0,BKN,2800.0,BKN,3800.0,,
KRDR,06-11-2012,15:26,SPECI,,310,21.0,32.0,310/32KTS,9999.0,,12.0,9.0,29.65,1005.4,,,,,,,,,,,,,,,8/8 Overcast,2000.0,,SCT,2100.0,OVC,2500.0,,,,
KRDR,06-11-2012,15:06,SPECI,,290,17.0,23.0,,6400.0,Rain,16.0,12.0,29.63,1004.6,62,,,,,,,,,,,,,,7/8 Mostly Cloudy,2700.0,,FEW,1300.0,BKN,2700.0,BKN,5000.0,,
KRDR,06-11-2012,15:05,SPECI,,280,19.0,23.0,,8000.0,Heavy Rain,16.0,12.0,29.63,1004.6,63,,,,,,,,,,,,,,7/8 Mostly Cloudy,3300.0,,FEW,2000.0,SCT,2700.0,BKN,5000.0,,
KRDR,06-11-2012,15:00,METAR,,280,14.0,20.0,280/26KTS,9999.0,,17.0,11.0,29.61,1004.0,,,,,,,,,,,,,,,4/8 Partly Cloudy,72000.0,,SCT,2900.0,SCT,3600.0,,,,
KRDR,06-11-2012,14:20,SPECI,,280,15.0,21.0,280/26KTS,9999.0,,16.0,11.0,29.61,1003.9,,,,,,,,,,,,,,,4/8 Partly Cloudy,72000.0,,FEW,2400.0,SCT,3000.0,,,,
KRDR,06-11-2012,14:14,SPECI,,290,14.0,26.0,280/26KTS,9999.0,,16.0,11.0,29.61,1003.9,,,,,,,,,,,,,,,7/8 Mostly Cloudy,2900.0,,FEW,2300.0,BKN,2900.0,,,,
KRDR,06-11-2012,14:00,METAR,,280,14.0,23.0,,9999.0,,16.0,11.0,29.59,1003.4,,,,,,,,,,,,,,,2/8 Mostly Clear,72000.0,,FEW,2200.0,,,,,,
KRDR,06-11-2012,13:00,METAR,,270,13.0,,,9999.0,,14.0,11.0,29.58,1002.9,,,,,,,,,,,,,,,Clear,72000.0,,,73000.0,,,,,,
KRDR,06-11-2012,12:00,METAR,,270,10.0,,,9999.0,,13.0,10.0,29.56,1002.3,,,,,,,,,,,.01 IN,,.08 IN,.3 IN,Clear,72000.0,,,73000.0,,,,,,
KRDR,06-11-2012,11:00,METAR,,270,10.0,,,9999.0,,12.0,10.0,29.55,1002.0,,,,,,,,,,,,,,,Clear,72000.0,,,73000.0,,,,,,
KRDR,06-11-2012,10:00,METAR,,250,9.0,,,9999.0,,12.0,11.0,29.54,1001.6,,,,,,,,,,,.04 IN,,,,7/8 Mostly Cloudy,4200.0,,BKN,4300.0,BKN,5000.0,,,,
KRDR,06-11-2012,09:27,SPECI,,250,8.0,,,9999.0,,12.0,10.0,29.54,1001.8,,,,,,,,,,,,,,,7/8 Mostly Cloudy,4900.0,,BKN,5000.0,,,,,,
KRDR,06-11-2012,09:08,SPECI,,270,9.0,,,9999.0,Light Rain,12.0,10.0,29.55,1001.9,61,,,,,,,,,,,,,,8/8 Overcast,4900.0,,OVC,5000.0,,,,,,
KRDR,06-11-2012,09:00,METAR,,260,9.0,,,9999.0,Rain,13.0,11.0,29.56,1002.3,62,,,,,,,,,,.03 IN,.03 IN,,,8/8 Overcast,4900.0,,OVC,5000.0,,,,,,
KRDR,06-11-2012,08:00,METAR,,230,5.0,,,9999.0,Light Rain,14.0,11.0,29.55,1001.9,61,,,,,,,,,,TRACE,,,,7/8 Mostly Cloudy,10000.0,,BKN,9900.0,,,,,,
KRDR,06-11-2012,07:47,SPECI,,230,5.0,,,9999.0,Light Rain,13.0,11.0,29.54,1001.8,61,,,,,,,,,,,,,,7/8 Mostly Cloudy,10000.0,,BKN,9900.0,,,,,,
KRDR,06-11-2012,07:00,METAR,,260,7.0,,,9999.0,,15.0,10.0,29.56,1002.4,,,,,,,,,,,,,,,7/8 Mostly Cloudy,11000.0,,BKN,11000.0,,,,,,
KRDR,06-11-2012,06:00,METAR,,190,8.0,,,9999.0,,14.0,13.0,29.56,1002.3,,,,,,,,,,,,,,,2/8 Mostly Clear,72000.0,,FEW,9900.0,,,,,,
KRDR,06-11-2012,05:00,METAR,,180,8.0,,,9999.0,,14.0,13.0,29.56,1002.4,,,,,,,,,,,,,,,Clear,72000.0,,,73000.0,,,,,,
KRDR,06-11-2012,04:00,METAR,,170,8.0,,,9999.0,,15.0,14.0,29.57,1002.8,,,,,,,,,,,,,,,Clear,72000.0,,,73000.0,,,,,,
KRDR,06-11-2012,03:00,METAR,,170,9.0,,,9999.0,,16.0,14.0,29.58,1002.9,,,,,,,,,,,,,,,Clear,72000.0,,,73000.0,,,,,,
KRDR,06-11-2012,02:00,METAR,,160,7.0,,,9999.0,,17.0,15.0,29.58,1003.1,,,,,,,,,,,,,,,Clear,72000.0,,,73000.0,,,,,,
KRDR,06-11-2012,01:00,METAR,,170,7.0,,,9999.0,,18.0,14.0,29.57,1002.8,,,,,,,,,,,,,,,7/8 Mostly Cloudy,11000.0,,BKN,11000.0,,,,,,
KRDR,06-11-2012,00:00,METAR,,210,6.0,,,9999.0,,17.0,13.0,29.57,1002.7,,,,,,,,,,,,,.21 IN,,7/8 Mostly Cloudy,10000.0,,BKN,9900.0,,,,,,
KRDR,06-10-2012,23:00,METAR,,,0.0,,,9999.0,,17.0,13.0,29.58,1003.1,,,,,,,,,,,,,,,8/8 Overcast,9000.0,,OVC,8900.0,,,,,,
KRDR,06-10-2012,22:00,METAR,,340,3.0,,,9999.0,,15.0,13.0,29.59,1003.2,,,,,,,,,,,TRACE,,,,8/8 Overcast,4900.0,,SCT,4000.0,OVC,5000.0,,,,
KRDR,06-10-2012,21:35,SPECI,,330,3.0,,,9999.0,,14.0,13.0,29.59,1003.5,,,,,,,,,,,,,,,8/8 Overcast,3100.0,,BKN,3200.0,OVC,4200.0,,,,
KRDR,06-10-2012,21:00,METAR,,310,9.0,,,9999.0,Light Rain,15.0,12.0,29.60,1003.5,61,,,,,,,,,,,,,,8/8 Overcast,3900.0,,FEW,1200.0,BKN,4000.0,OVC,5900.0,,
KRDR,06-10-2012,20:32,SPECI,,320,9.0,,,9999.0,,14.0,13.0,29.58,1003.0,,,,,,,,,,,,,,,8/8 Overcast,7000.0,,FEW,1600.0,SCT,5900.0,OVC,6900.0,,
KRDR,06-10-2012,20:19,SPECI,,330,10.0,,,6400.0,Light Rain/Mist,15.0,13.0,29.58,1003.0,61,10,,,,,,,,,,,,,8/8 Overcast,3200.0,,SCT,1700.0,BKN,4500.0,OVC,6900.0,,
KRDR,06-10-2012,20:16,SPECI,,310,10.0,,,2400.0,Light Rain/Mist,15.0,13.0,29.58,1003.0,61,10,,,,,,,,,,,,,8/8 Overcast,3400.0,,SCT,1700.0,BKN,3500.0,OVC,6900.0,,
KRDR,06-10-2012,20:14,SPECI,,320,10.0,,,2000.0,Light Rain/Mist,15.0,13.0,29.58,1003.0,61,10,,,,,,,,,,,,,7/8 Mostly Cloudy,1700.0,,BKN,1700.0,BKN,3600.0,BKN,4500.0,,
KRDR,06-10-2012,20:08,SPECI,,340,10.0,,,2800.0,Light Rain,16.0,13.0,29.58,1003.1,61,,,,,,,,,,,,,,8/8 Overcast,3500.0,,FEW,1100.0,BKN,3600.0,OVC,4400.0,,
KRDR,06-10-2012,20:07,SPECI,,340,11.0,,,4000.0,Light Rain,16.0,13.0,29.59,1003.2,61,,,,,,,,,,,,,,8/8 Overcast,4300.0,,FEW,1200.0,SCT,2000.0,OVC,4400.0,,
KRDR,06-10-2012,20:05,SPECI,,320,11.0,,,9999.0,Light Rain,16.0,12.0,29.59,1003.4,61,,,,,,,,,,,,,,8/8 Overcast,3400.0,,FEW,900.0,SCT,3600.0,OVC,4400.0,,
KRDR,06-10-2012,20:01,SPECI,,300,10.0,,,9999.0,Light Rain,17.0,12.0,29.61,1003.9,61,,,,,,,,,,,,,,7/8 Mostly Cloudy,4200.0,,FEW,2000.0,BKN,4300.0,,,,
KRDR,06-10-2012,20:00,METAR,,320,11.0,,,9999.0,,17.0,12.0,29.57,1002.8,,,,,,,,,,,TRACE,,,,7/8 Mostly Cloudy,2900.0,,FEW,2000.0,BKN,4000.0,,,,
KRDR,06-10-2012,19:38,SPECI,,320,13.0,18.0,,9999.0,,17.0,14.0,29.57,1002.6,,,,,,,,,,,,,,,7/8 Mostly Cloudy,4000.0,,FEW,2900.0,BKN,4100.0,,,,
KRDR,06-10-2012,19:22,SPECI,,310,12.0,,,9999.0,,18.0,14.0,29.57,1002.5,,,,,,,,,,,,,,,8/8 Overcast,3300.0,,FEW,3000.0,SCT,3800.0,OVC,4700.0,,
KRDR,06-10-2012,19:00,METAR,,300,9.0,,,9999.0,,20.0,15.0,29.55,1002.0,,,,,,,,,,,TRACE,,,,8/8 Overcast,4800.0,,OVC,4900.0,,,,,,
KRDR,06-10-2012,18:06,SPECI,,260,3.0,,,9999.0,,20.0,15.0,29.57,1002.6,,,,,,,,,,,,,,,7/8 Mostly Cloudy,6000.0,,BKN,5900.0,,,,,,
KRDR,06-10-2012,18:00,METAR,,,0.0,,,9999.0,,20.0,15.0,29.57,1002.6,,,,,,,,,,,TRACE,,.01 IN,,8/8 Overcast,6000.0,,FEW,3600.0,OVC,5900.0,,,,
KRDR,06-10-2012,17:53,SPECI,,,0.0,,,9999.0,Light Rain,20.0,15.0,29.57,1002.6,61,,,,,,,,,,,,,,8/8 Overcast,6000.0,,OVC,5900.0,,,,,,
KRDR,06-10-2012,17:38,SPECI,,,0.0,,,9999.0,,20.0,15.0,29.58,1003.0,,,,,,,,,,,,,,,8/8 Overcast,6000.0,,FEW,3600.0,OVC,5900.0,,,,
KRDR,06-10-2012,17:29,SPECI,,190,3.0,,,9999.0,,20.0,15.0,29.59,1003.2,,,,,,,,,,,,,,,7/8 Mostly Cloudy,6000.0,,FEW,3600.0,BKN,5900.0,,,,
KRDR,06-10-2012,17:00,METAR,,,0.0,,,9999.0,,20.0,14.0,29.59,1003.4,,,,,,,,,,,,,,,7/8 Mostly Cloudy,7000.0,,BKN,6900.0,,,,,,
KRDR,06-10-2012,16:00,METAR,,290,4.0,,,9999.0,,20.0,15.0,29.58,1003.1,,,,,,,,,,,TRACE,,,,2/8 Mostly Clear,72000.0,,FEW,7900.0,,,,,,
KRDR,06-10-2012,15:00,METAR,,300,9.0,,,9999.0,Light Rain,18.0,15.0,29.59,1003.2,61,,,,,,,,,,TRACE,.01 IN,,,Clear,72000.0,,,73000.0,,,,,,
KRDR,06-10-2012,14:38,SPECI,,310,11.0,,,9999.0,Light Rain,17.0,15.0,29.57,1002.8,61,,,,,,,,,,,,,,Clear,72000.0,,,73000.0,,,,,,
KRDR,06-10-2012,14:11,SPECI,,310,6.0,,,9999.0,,17.0,15.0,29.58,1002.8,,,,,,,,,,,,,,,Clear,72000.0,,,73000.0,,,,,,
KRDR,06-10-2012,14:01,SPECI,,310,6.0,,,9999.0,Light Rain,17.0,15.0,29.57,1002.7,61,,,,,,,,,,,,,,Clear,72000.0,,,73000.0,,,,,,
KRDR,06-10-2012,14:00,METAR,,310,7.0,,,9999.0,,17.0,15.0,29.57,1002.7,,,,,,,,,,,.01 IN,,,,Clear,72000.0,,,73000.0,,,,,,
KRDR,06-10-2012,13:00,METAR,,,0.0,,,9999.0,,16.0,15.0,29.55,1002.1,,,,,,,,,,,TRACE,,,,2/8 Mostly Clear,72000.0,,FEW,12000.0,,,,,,
KRDR,06-10-2012,12:16,SPECI,,20,6.0,,,9999.0,,16.0,15.0,29.55,1002.0,,,,,,,,,,,,,,,2/8 Mostly Clear,72000.0,,FEW,1000.0,,,,,,
KRDR,06-10-2012,12:14,SPECI,,40,6.0,,,9999.0,,16.0,15.0,29.53,1001.5,,,,,,,,,,,,,,,2/8 Mostly Clear,72000.0,,FEW,1500.0,,,,,,
KRDR,06-10-2012,12:00,METAR,,30,13.0,,,9999.0,Light Rain,16.0,16.0,29.54,1001.7,61,,,,,,,,,,.13 IN,,.22 IN,.22 IN,7/8 Mostly Cloudy,4600.0,,BKN,4700.0,,,,,,
KRDR,06-10-2012,11:12,SPECI,,340,9.0,,,9999.0,Rain,17.0,16.0,29.61,1004.0,62,,,,,,,,,,,,,,8/8 Overcast,7000.0,,OVC,6900.0,,,,,,
KRDR,06-10-2012,11:00,METAR,,290,12.0,,,9999.0,Rain,18.0,16.0,29.66,1005.5,62,,,,,,,,,,.09 IN,,,,7/8 Mostly Cloudy,9000.0,,SCT,5900.0,BKN,8900.0,,,,
KRDR,06-10-2012,10:24,SPECI,,280,11.0,,,6400.0,Light Rain/Mist,18.0,16.0,29.64,1005.0,61,10,,,,,,,,,,,,,7/8 Mostly Cloudy,4300.0,,BKN,4400.0,BKN,9900.0,,,,
KRDR,06-10-2012,10:22,SPECI,,280,11.0,,,6400.0,Rain/Mist,18.0,16.0,29.64,1004.9,62,10,,,,,,,,,,,,,7/8 Mostly Cloudy,10000.0,,SCT,4000.0,BKN,9900.0,,,,
KRDR,06-10-2012,10:10,SPECI,,270,16.0,21.0,,9999.0,Light Rain,19.0,16.0,29.62,1004.3,61,,,,,,,,,,,,,,4/8 Partly Cloudy,72000.0,,SCT,9900.0,,,,,,
KRDR,06-10-2012,10:00,METAR,,340,6.0,,300/26KTS,9999.0,,19.0,16.0,29.53,1001.4,,,,,,,,,,,,,,,Clear,72000.0,,,73000.0,,,,,,
KRDR,06-10-2012,09:00,METAR,,300,16.0,23.0,,9999.0,,20.0,17.0,29.56,1002.5,,,,,,,,,,,,,,,7/8 Mostly Cloudy,7000.0,,SCT,1900.0,BKN,6900.0,,,,
KRDR,06-10-2012,08:00,METAR,,310,7.0,,,9999.0,,21.0,18.0,29.53,1001.5,,,,,,,,,,,,,,,8/8 Overcast,1800.0,,BKN,1800.0,OVC,5900.0,,,,
KRDR,06-10-2012,07:54,SPECI,,310,8.0,,,9999.0,,21.0,18.0,29.53,1001.4,,,,,,,,,,,,,,,8/8 Overcast,1700.0,,SCT,1800.0,OVC,5900.0,,,,
KRDR,06-10-2012,07:43,SPECI,,320,10.0,,,9999.0,,21.0,17.0,29.53,1001.4,,,,,,,,,,,,,,,7/8 Mostly Cloudy,1800.0,,BKN,1800.0,BKN,5900.0,,,,
KRDR,06-10-2012,07:00,METAR,,290,8.0,,,9999.0,,21.0,18.0,29.51,1000.7,,,,,,,,,,,,,,,7/8 Mostly Cloudy,4900.0,,BKN,5000.0,,,,,,
KRDR,06-10-2012,06:00,METAR,,300,10.0,,,9999.0,,21.0,18.0,29.47,999.3,,,,,,,,,,,,,,,7/8 Mostly Cloudy,6000.0,,BKN,5900.0,,,,,,
KRDR,06-10-2012,05:00,METAR,,290,10.0,,,9999.0,,22.0,18.0,29.46,999.1,,,,,,,,,,,,,,,Clear,72000.0,,,73000.0,,,,,,
KRDR,06-10-2012,04:00,METAR,,290,11.0,,,9999.0,,25.0,20.0,29.44,998.4,,,,,,,,,,,,,,,Clear,72000.0,,,73000.0,,,,,,
KRDR,06-10-2012,03:00,METAR,,280,7.0,17.0,,9999.0,,29.0,20.0,29.42,997.8,,,,,,,,,,,,,,,4/8 Partly Cloudy,72000.0,,SCT,5900.0,,,,,,
KRDR,06-10-2012,02:46,SPECI,,270,11.0,,,9999.0,,30.0,20.0,29.42,997.6,,,,,,,,,,,,,,,7/8 Mostly Cloudy,6000.0,,BKN,5900.0,,,,,,
KRDR,06-10-2012,02:00,METAR,,200,12.0,,,9999.0,,30.0,18.0,29.38,996.6,,,,,,,,,,,,,,,Clear,72000.0,,,73000.0,,,,,,
KRDR,06-10-2012,01:00,METAR,,200,13.0,,,9999.0,,32.0,19.0,29.39,996.8,,,,,,,,,,,,,,,Clear,72000.0,,,73000.0,,,,,,
KRDR,06-10-2012,00:00,METAR,,200,14.0,25.0,210/27KTS,9999.0,,32.0,19.0,29.39,996.7,,,,,,,,,,,,,,,Clear,72000.0,,,73000.0,,,,,,
KRDR,06-09-2012,23:00,METAR,,190,20.0,29.0,190/30KTS,9999.0,,33.0,18.0,29.39,996.8,,,,,,,,,,,,,,,Clear,72000.0,,,73000.0,,,,,,
KRDR,06-09-2012,22:00,METAR,,190,22.0,29.0,180/30KTS,9999.0,,33.0,19.0,29.40,996.9,,,,,,,,,,,,,,,Clear,72000.0,,,73000.0,,,,,,
KRDR,06-09-2012,21:00,METAR,,170,21.0,29.0,160/31KTS,9999.0,,33.0,18.0,29.40,997.1,,,,,,,,,,,,,,,Clear,72000.0,,,73000.0,,,,,,
KRDR,06-09-2012,20:00,METAR,,120,16.0,,,9999.0,,29.0,20.0,29.43,997.9,,,,,,,,,,,,,,,Clear,72000.0,,,73000.0,,,,,,
KRDR,06-09-2012,19:00,METAR,,110,15.0,23.0,,9999.0,,26.0,18.0,29.49,1000.2,,,,,,,,,,,,,,,Clear,72000.0,,,73000.0,,,,,,
KRDR,06-09-2012,18:00,METAR,,90,16.0,21.0,,9999.0,,24.0,17.0,29.54,1001.7,,,,,,,,,,,,,,,Clear,72000.0,,,73000.0,,,,,,
KRDR,06-09-2012,17:00,METAR,,60,16.0,21.0,020/32KTS,9999.0,,24.0,16.0,29.58,1003.1,,,,,,,,,,,,,,,Clear,72000.0,,,73000.0,,,,,,
KRDR,06-09-2012,15:00,METAR,,150,12.0,,,9999.0,,24.0,17.0,29.55,1001.9,,,,,,,,,,,,,,,Clear,72000.0,,,73000.0,,,,,,
KRDR,06-09-2012,13:00,METAR,,100,5.0,,,9999.0,,19.0,15.0,29.60,1003.5,,,,,,,,,,,,,,,Clear,72000.0,,,73000.0,,,,,,
KRDR,06-09-2012,12:00,METAR,,110,7.0,,,9999.0,,17.0,14.0,29.59,1003.3,,,,,,,,,,,,,,,Clear,72000.0,,,73000.0,,,,,,
KRDR,06-09-2012,11:00,METAR,,110,5.0,,,9999.0,,16.0,14.0,29.61,1004.0,,,,,,,,,,,,,,,Clear,72000.0,,,73000.0,,,,,,
KRDR,06-09-2012,10:00,METAR,,90,4.0,,,9999.0,,16.0,14.0,29.64,1005.0,,,,,,,,,,,,,,,Clear,72000.0,,,73000.0,,,,,,
KRDR,06-09-2012,09:00,METAR,,90,4.0,,,9999.0,,16.0,14.0,29.66,1005.6,,,,,,,,,,,,,,,2/8 Mostly Clear,72000.0,,FEW,7900.0,,,,,,
KRDR,06-09-2012,08:00,METAR,,,0.0,,,9999.0,,13.0,13.0,29.67,1005.9,,,,,,,,,,,,,,,4/8 Partly Cloudy,72000.0,,SCT,6900.0,,,,,,
KRDR,06-09-2012,07:00,METAR,,360,3.0,,,4000.0,Mist,13.0,13.0,29.67,1005.9,,,,10,,,,,,,,,,,Clear,72000.0,,,73000.0,,,,,,
KRDR,06-09-2012,06:54,SPECI,,350,3.0,,,4800.0,Mist,13.0,13.0,29.67,1005.8,,,,10,,,,,,,,,,,Clear,72000.0,,,73000.0,,,,,,
KRDR,06-09-2012,06:47,SPECI,,360,3.0,,,4000.0,Mist,13.0,13.0,29.67,1005.9,,,,10,,,,,,,,,,,Clear,72000.0,,,73000.0,,,,,,
KRDR,06-09-2012,06:45,SPECI,,360,3.0,,,6400.0,Mist,13.0,13.0,29.67,1005.9,10,,,,,,,,,,,,,,Clear,72000.0,,,73000.0,,,,,,
KRDR,06-09-2012,06:00,METAR,,,0.0,,,9999.0,,14.0,14.0,29.68,1006.2,,,,,,,,,,,,,,,Clear,72000.0,,,73000.0,,,,,,
KRDR,06-09-2012,05:00,METAR,,,0.0,,,9999.0,,15.0,14.0,29.68,1006.4,,,,,,,,,,,,,,,Clear,72000.0,,,73000.0,,,,,,
KRDR,06-09-2012,04:00,METAR,,330,3.0,,,9999.0,,16.0,14.0,29.69,1006.6,,,,,,,,,,,,,,,Clear,72000.0,,,73000.0,,,,,,
KRDR,06-09-2012,03:00,METAR,,350,4.0,,,9999.0,,19.0,15.0,29.69,1006.6,,,,,,,,,,,,,,,Clear,72000.0,,,73000.0,,,,,,
KRDR,06-09-2012,02:00,METAR,,310,5.0,,,9999.0,,22.0,15.0,29.69,1006.6,,,,,,,,,,,,,,,Clear,72000.0,,,73000.0,,,,,,
KRDR,06-09-2012,01:00,METAR,,290,6.0,,,9999.0,,25.0,14.0,29.69,1006.8,,,,,,,,,,,,,,,Clear,72000.0,,,73000.0,,,,,,
KRDR,06-09-2012,00:00,METAR,,300,10.0,,,9999.0,,26.0,14.0,29.70,1007.0,,,,,,,,,,,,,,,Clear,72000.0,,,73000.0,,,,,,
KRDR,06-08-2012,23:00,METAR,,290,7.0,,,9999.0,,26.0,14.0,29.70,1007.1,,,,,,,,,,,,,,,Clear,72000.0,,,73000.0,,,,,,
KRDR,06-08-2012,22:00,METAR,,290,11.0,,,9999.0,,26.0,13.0,29.71,1007.4,,,,,,,,,,,,,,,Clear,72000.0,,,73000.0,,,,,,
KRDR,06-08-2012,21:00,METAR,,260,7.0,16.0,,9999.0,,26.0,15.0,29.73,1008.0,,,,,,,,,,,,,,,Clear,72000.0,,,73000.0,,,,,,
KRDR,06-08-2012,20:00,METAR,,270,11.0,17.0,,9999.0,,25.0,16.0,29.74,1008.3,,,,,,,,,,,,,,,Clear,72000.0,,,73000.0,,,,,,
KRDR,06-08-2012,19:00,METAR,,260,12.0,19.0,,9999.0,,25.0,16.0,29.76,1009.0,,,,,,,,,,,,,,,Clear,72000.0,,,73000.0,,,,,,
KRDR,06-08-2012,18:00,METAR,,270,12.0,19.0,,9999.0,,24.0,16.0,29.77,1009.3,,,,,,,,,,,,,,,2/8 Mostly Clear,72000.0,,FEW,3300.0,,,,,,
KRDR,06-08-2012,17:00,METAR,,270,12.0,,,9999.0,,23.0,16.0,29.79,1009.8,,,,,,,,,,,,,,,2/8 Mostly Clear,72000.0,,FEW,2900.0,,,,,,
KRDR,06-08-2012,16:26,SPECI,,300,10.0,,,9999.0,,22.0,16.0,29.78,1009.6,,,,,,,,,,,,,,,4/8 Partly Cloudy,72000.0,,SCT,2500.0,,,,,,
KRDR,06-08-2012,16:00,METAR,,280,12.0,17.0,,9999.0,,21.0,15.0,29.79,1009.8,,,,,,,,,,,,,,,8/8 Overcast,2200.0,,OVC,2300.0,,,,,,
KRDR,06-08-2012,15:05,SPECI,,260,10.0,15.0,,9999.0,,20.0,15.0,29.80,1010.1,,,,,,,,,,,,,,,7/8 Mostly Cloudy,1900.0,,BKN,2200.0,,,,,,
KRDR,06-08-2012,15:01,SPECI,,270,11.0,,,9999.0,,20.0,15.0,29.80,1010.1,,,,,,,,,,,,,,,4/8 Partly Cloudy,72000.0,,SCT,2200.0,,,,,,
KRDR,06-08-2012,15:00,METAR,,270,13.0,17.0,,9999.0,,20.0,15.0,29.80,1010.2,,,,,,,,,,,,,,,7/8 Mostly Cloudy,1900.0,,BKN,2000.0,,,,,,
KRDR,06-08-2012,14:40,SPECI,,270,9.0,17.0,,9999.0,,20.0,15.0,29.80,1010.2,,,,,,,,,,,,,,,7/8 Mostly Cloudy,1900.0,,BKN,2000.0,,,,,,
KRDR,06-08-2012,14:37,SPECI,,290,10.0,17.0,,9999.0,,20.0,15.0,29.80,1010.2,,,,,,,,,,,,,,,4/8 Partly Cloudy,72000.0,,SCT,2000.0,,,,,,
KRDR,06-08-2012,14:05,SPECI,,270,9.0,,,9999.0,,19.0,15.0,29.80,1010.2,,,,,,,,,,,,,,,7/8 Mostly Cloudy,1500.0,,BKN,1800.0,,,,,,
KRDR,06-08-2012,14:00,METAR,,280,11.0,,,9999.0,,19.0,15.0,29.80,1010.2,,,,,,,,,,,,,,,4/8 Partly Cloudy,72000.0,,SCT,1600.0,,,,,,
KRDR,06-08-2012,13:53,SPECI,,270,11.0,,,9999.0,,19.0,15.0,29.80,1010.2,,,,,,,,,,,,,,,7/8 Mostly Cloudy,1200.0,,BKN,1600.0,,,,,,
KRDR,06-08-2012,13:19,SPECI,,270,9.0,,,9999.0,,18.0,15.0,29.80,1010.4,,,,,,,,,,,,,,,8/8 Overcast,1200.0,,OVC,1400.0,,,,,,
KRDR,06-08-2012,13:16,SPECI,,270,11.0,,,9999.0,,18.0,15.0,29.80,1010.4,,,,,,,,,,,,,,,8/8 Overcast,1500.0,,OVC,1500.0,,,,,,
KRDR,06-08-2012,13:00,METAR,,280,12.0,,,9999.0,,18.0,15.0,29.80,1010.3,,,,,,,,,,,,,,,8/8 Overcast,1300.0,,OVC,1300.0,,,,,,
KRDR,06-08-2012,12:26,SPECI,,280,9.0,,,9999.0,,18.0,16.0,29.80,1010.2,,,,,,,,,,,,,,,8/8 Overcast,1400.0,,BKN,1400.0,OVC,9900.0,,,,
KRDR,06-08-2012,12:18,SPECI,,280,10.0,16.0,,9999.0,,18.0,16.0,29.80,1010.2,,,,,,,,,,,,,,,7/8 Mostly Cloudy,1400.0,,BKN,1600.0,BKN,9900.0,,,,
KRDR,06-08-2012,12:00,METAR,,280,10.0,17.0,,9999.0,,18.0,16.0,29.79,1009.9,,,,,,,,,,,,,,.41 IN,7/8 Mostly Cloudy,12000.0,,FEW,1900.0,BKN,12000.0,,,,
KRDR,06-08-2012,11:33,SPECI,,280,12.0,21.0,,9999.0,,19.0,16.0,29.78,1009.7,,,,,,,,,,,,,,,7/8 Mostly Cloudy,12000.0,,SCT,1800.0,BKN,12000.0,,,,
KRDR,06-08-2012,11:28,SPECI,,280,12.0,21.0,,9999.0,,19.0,17.0,29.78,1009.6,,,,,,,,,,,,,,,7/8 Mostly Cloudy,2200.0,,SCT,1600.0,BKN,2200.0,BKN,11000.0,,
KRDR,06-08-2012,11:00,METAR,,280,9.0,,,9999.0,,18.0,17.0,29.77,1009.1,,,,,,,,,,,,,,,7/8 Mostly Cloudy,12000.0,,BKN,12000.0,,,,,,
KRDR,06-08-2012,10:28,SPECI,,280,6.0,,,9999.0,,18.0,16.0,29.76,1008.8,,,,,,,,,,,,,,,7/8 Mostly Cloudy,2700.0,,SCT,2700.0,BKN,12000.0,,,,
KRDR,06-08-2012,10:00,METAR,,290,3.0,,,9999.0,,17.0,16.0,29.76,1008.9,,,,,,,,,,,,,,,8/8 Overcast,2300.0,,BKN,2700.0,OVC,3400.0,,,,
KRDR,06-08-2012,09:38,SPECI,,290,4.0,,,9999.0,,17.0,16.0,29.76,1009.0,,,,,,,,,,,,,,,7/8 Mostly Cloudy,2300.0,,BKN,2500.0,,,,,,
KRDR,06-08-2012,09:00,METAR,,,0.0,,,9999.0,,18.0,16.0,29.77,1009.3,,,,,,,,,,,,,,,Clear,72000.0,,,73000.0,,,,,,
KRDR,06-08-2012,08:00,METAR,,90,7.0,,,9999.0,,17.0,16.0,29.77,1009.2,,,,,,,,,,,,,,,Clear,72000.0,,,73000.0,,,,,,
KRDR,06-08-2012,07:00,METAR,,110,3.0,,,9999.0,,18.0,17.0,29.79,1009.9,,,,,,,,,,,,,,,Clear,72000.0,,,73000.0,,,,,,
KRDR,06-08-2012,06:00,METAR,,290,6.0,,,9999.0,,18.0,17.0,29.84,1011.4,,,,,,,,,,,,,.41 IN,,4/8 Partly Cloudy,72000.0,,FEW,7900.0,SCT,11000.0,,,,
KRDR,06-08-2012,05:00,METAR,,120,7.0,,,9999.0,,19.0,17.0,29.84,1011.6,,,,,,,,,,,TRACE,,,,4/8 Partly Cloudy,72000.0,,FEW,8900.0,SCT,11000.0,,,,
KRDR,06-08-2012,04:00,METAR,,80,9.0,,,9999.0,Light Rain,19.0,17.0,29.87,1012.5,61,,,,,,,,,,.36 IN,,,,4/8 Partly Cloudy,72000.0,,SCT,4600.0,,,,,,
KRDR,06-08-2012,03:33,SPECI,,100,10.0,,,9999.0,Light Rain,19.0,17.0,29.87,1012.5,61,,,,,,,,,,,,,,8/8 Overcast,4900.0,,FEW,500.0,OVC,7900.0,,,,
KRDR,06-08-2012,03:28,SPECI,,120,13.0,,,9999.0,Light Rain,19.0,17.0,29.89,1013.4,61,,,,,,,,,,,,,,8/8 Overcast,4200.0,,FEW,400.0,OVC,7900.0,,,,
KRDR,06-08-2012,03:26,SPECI,,120,12.0,,,9999.0,Light Rain,19.0,17.0,29.90,1013.5,61,,,,,,,,,,,,,,8/8 Overcast,4200.0,,FEW,600.0,OVC,7900.0,,,,
KRDR,06-08-2012,03:15,SPECI,,140,14.0,,,8000.0,Light Rain/Mist,19.0,17.0,29.93,1014.5,61,10,,,,,,,,,,,,,8/8 Overcast,4000.0,,FEW,400.0,BKN,7900.0,OVC,8900.0,,
KRDR,06-08-2012,03:12,SPECI,,150,14.0,22.0,,6400.0,Thunderstorm and Rain or Snow Showers,19.0,17.0,29.93,1014.4,92,,,,,,,,,,,,,,8/8 Overcast,3600.0,,FEW,400.0,OVC,7900.0,,,,
KRDR,06-08-2012,03:08,SPECI,,160,17.0,22.0,,6400.0,Thunderstorm and Rain or Snow Showers/Mist,19.0,17.0,29.92,1014.3,92,10,,,,,,,,,,,,,8/8 Overcast,3100.0,,FEW,400.0,BKN,6900.0,OVC,8900.0,,
KRDR,06-08-2012,03:07,SPECI,,160,16.0,22.0,,6400.0,Thunderstorm and Rain or Snow Showers/Mist,19.0,17.0,29.92,1014.3,92,10,,,,,,,,,,,,,8/8 Overcast,2900.0,,FEW,400.0,BKN,7900.0,OVC,8900.0,,
KRDR,06-08-2012,03:05,SPECI,,170,19.0,,,6400.0,Heavy Thunderstorm and Rain or Snow Showers/Mist,19.0,17.0,29.92,1014.1,95,10,,,,,,,,,,,,,8/8 Overcast,2900.0,,FEW,400.0,OVC,7900.0,,,,
KRDR,06-08-2012,03:02,SPECI,,190,12.0,,,9999.0,Heavy Thunderstorm and Rain or Snow Showers,19.0,17.0,29.91,1014.0,95,,,,,,,,,,,,,,8/8 Overcast,3000.0,,FEW,400.0,OVC,7900.0,,,,
KRDR,06-08-2012,03:00,METAR,,150,9.0,,,9999.0,Thunderstorm and Rain or Snow Showers,21.0,17.0,29.92,1014.3,92,,,,,,,,,,.05 IN,.05 IN,,,8/8 Overcast,9000.0,,OVC,8900.0,,,,,,
KRDR,06-08-2012,02:38,SPECI,,120,7.0,,,9999.0,Thunderstorm and Rain or Snow Showers,21.0,17.0,29.87,1012.5,92,,,,,,,,,,,,,,8/8 Overcast,4900.0,,BKN,7900.0,OVC,11000.0,,,,
KRDR,06-08-2012,02:02,SPECI,,190,8.0,,,9999.0,Light Rain,22.0,18.0,29.89,1013.1,61,,,,,,,,,,,,,,8/8 Overcast,11000.0,,OVC,11000.0,,,,,,
KRDR,06-08-2012,02:00,METAR,,190,11.0,,,9999.0,,22.0,17.0,29.89,1013.2,,,,,,,,,,,TRACE,,,,8/8 Overcast,11000.0,,SCT,7900.0,OVC,11000.0,,,,
KRDR,06-08-2012,01:47,SPECI,,210,9.0,,,9999.0,,22.0,17.0,29.89,1013.3,,,,,,,,,,,,,,,7/8 Mostly Cloudy,11000.0,,SCT,7900.0,BKN,11000.0,,,,
KRDR,06-08-2012,01:34,SPECI,,190,10.0,,,9999.0,Light Rain,23.0,17.0,29.89,1013.3,61,,,,,,,,,,,,,,8/8 Overcast,8000.0,,BKN,7900.0,OVC,12000.0,,,,
KRDR,06-08-2012,01:32,SPECI,,190,10.0,,,9999.0,,23.0,17.0,29.89,1013.3,,,,,,,,,,,,,,,8/8 Overcast,8000.0,,BKN,7900.0,BKN,8900.0,OVC,12000.0,,
KRDR,06-08-2012,01:18,SPECI,,160,8.0,,,9999.0,Light Rain,24.0,16.0,29.89,1013.3,61,,,,,,,,,,,,,,8/8 Overcast,8000.0,,SCT,5900.0,OVC,7900.0,,,,
KRDR,06-08-2012,01:15,SPECI,,160,9.0,,,9999.0,,24.0,16.0,29.89,1013.2,,,,,,,,,,,,,,,8/8 Overcast,8000.0,,SCT,5900.0,BKN,7900.0,OVC,8900.0,,
KRDR,06-08-2012,01:10,SPECI,,180,8.0,,,9999.0,Light Rain,24.0,16.0,29.90,1013.5,61,,,,,,,,,,,,,,8/8 Overcast,8000.0,,SCT,5900.0,BKN,7900.0,OVC,8900.0,,
KRDR,06-08-2012,01:00,METAR,,200,17.0,21.0,,9999.0,,25.0,16.0,29.89,1013.1,,,,,,,,,,,,,,,4/8 Partly Cloudy,72000.0,,SCT,5000.0,SCT,8900.0,,,,
KRDR,06-08-2012,00:36,SPECI,,170,19.0,23.0,,9999.0,,26.0,17.0,29.87,1012.5,,,,,,,,,,,,,,,4/8 Partly Cloudy,72000.0,,FEW,7900.0,SCT,12000.0,,,,
KRDR,06-08-2012,00:00,METAR,,100,10.0,,,9999.0,,28.0,18.0,29.84,1011.6,,,,,,,,,,,,,,,Clear,72000.0,,,73000.0,,,,,,
KRDR,06-07-2012,23:00,METAR,,90,12.0,,,9999.0,,29.0,19.0,29.86,1012.1,,,,,,,,,,,,,,,Clear,72000.0,,,73000.0,,,,,,
KRDR,06-07-2012,22:00,METAR,,100,10.0,,,9999.0,,29.0,19.0,29.90,1013.4,,,,,,,,,,,,,,,Clear,72000.0,,,73000.0,,,,,,
KRDR,06-07-2012,21:00,METAR,,130,11.0,,,9999.0,,28.0,19.0,29.92,1014.1,,,,,,,,,,,,,,,Clear,72000.0,,,73000.0,,,,,,
KRDR,06-07-2012,20:00,METAR,,90,9.0,,,9999.0,,28.0,19.0,29.93,1014.5,,,,,,,,,,,,,,,Clear,72000.0,,,73000.0,,,,,,
KRDR,06-07-2012,19:00,METAR,,,3.0,,,9999.0,,27.0,19.0,29.96,1015.6,,,,,,,,,,,,,,,Clear,72000.0,,,73000.0,,,,,,
KRDR,06-07-2012,18:00,METAR,,,4.0,,,9999.0,,26.0,18.0,29.99,1016.4,,,,,,,,,,,,,,,2/8 Mostly Clear,72000.0,,FEW,8900.0,,,,,,
KRDR,06-07-2012,17:00,METAR,,160,6.0,,,9999.0,,25.0,18.0,29.98,1016.3,,,,,,,,,,,,,,,4/8 Partly Cloudy,72000.0,,SCT,11000.0,,,,,,
KRDR,06-07-2012,16:00,METAR,,150,7.0,,,9999.0,,23.0,17.0,29.98,1016.2,,,,,,,,,,,,,,,Clear,72000.0,,,73000.0,,,,,,
KRDR,06-07-2012,15:00,METAR,,120,7.0,,,9999.0,,21.0,18.0,29.99,1016.6,,,,,,,,,,,,,,,Clear,72000.0,,,73000.0,,,,,,
KRDR,06-07-2012,14:00,METAR,,130,6.0,,,9999.0,,20.0,17.0,29.98,1016.1,,,,,,,,,,,,,,,Clear,72000.0,,,73000.0,,,,,,
KRDR,06-07-2012,13:07,SPECI,,140,9.0,,,9999.0,,19.0,16.0,29.98,1016.2,,,,,,,,,,,,,,,Clear,72000.0,,,73000.0,,,,,,
KRDR,06-07-2012,13:00,METAR,,120,7.0,,,9999.0,Dry Thunderstorm,19.0,16.0,29.99,1016.6,91,,,,,,,,,,,,,,2/8 Mostly Clear,72000.0,,FEW,7900.0,,,,,,
KRDR,06-07-2012,12:00,METAR,,40,3.0,,,9999.0,,19.0,16.0,30.00,1016.7,,,,,,,,,,,.02 IN,,.02 IN,.02 IN,8/8 Overcast,7000.0,,BKN,6900.0,OVC,11000.0,,,,
KRDR,06-07-2012,11:17,SPECI,,320,6.0,20.0,,9999.0,,19.0,17.0,30.00,1016.8,,,,,,,,,,,,,,,8/8 Overcast,7000.0,,BKN,6900.0,OVC,8900.0,,,,
KRDR,06-07-2012,11:00,METAR,,150,5.0,,,9999.0,Light Rain,20.0,16.0,29.97,1015.8,61,,,,,,,,,,TRACE,,,,7/8 Mostly Cloudy,8000.0,,BKN,7900.0,,,,,,
KRDR,06-07-2012,10:45,SPECI,,140,5.0,,,9999.0,Light Rain,20.0,15.0,29.97,1015.8,61,,,,,,,,,,,,,,7/8 Mostly Cloudy,8000.0,,BKN,7900.0,,,,,,
KRDR,06-07-2012,10:42,SPECI,,170,6.0,,,9999.0,,20.0,15.0,29.97,1015.8,,,,,,,,,,,,,,,4/8 Partly Cloudy,72000.0,,SCT,8900.0,,,,,,
KRDR,06-07-2012,10:30,SPECI,,160,6.0,,,9999.0,Light Rain,20.0,15.0,29.96,1015.5,61,,,,,,,,,,,,,,2/8 Mostly Clear,72000.0,,FEW,9900.0,,,,,,
KRDR,06-07-2012,10:00,METAR,,150,7.0,,,9999.0,,20.0,15.0,29.96,1015.5,,,,,,,,,,,,,,,4/8 Partly Cloudy,72000.0,,SCT,7900.0,,,,,,
KRDR,06-07-2012,09:00,METAR,,150,6.0,,,9999.0,,20.0,15.0,29.97,1015.7,,,,,,,,,,,,,,,Clear,72000.0,,,73000.0,,,,,,
KRDR,06-07-2012,08:00,METAR,,150,7.0,,,9999.0,,21.0,15.0,29.97,1015.9,,,,,,,,,,,,,,,Clear,72000.0,,,73000.0,,,,,,
KRDR,06-07-2012,07:00,METAR,,160,5.0,,,9999.0,,21.0,14.0,29.97,1015.9,,,,,,,,,,,,,,,2/8 Mostly Clear,72000.0,,FEW,12000.0,,,,,,
KRDR,06-07-2012,06:00,METAR,,150,6.0,,,9999.0,,21.0,13.0,29.97,1015.9,,,,,,,,,,,,,,,Clear,72000.0,,,73000.0,,,,,,
KRDR,06-07-2012,05:00,METAR,,150,6.0,,,9999.0,,21.0,13.0,29.96,1015.6,,,,,,,,,,,,,,,2/8 Mostly Clear,72000.0,,FEW,12000.0,,,,,,
KRDR,06-07-2012,04:00,METAR,,150,6.0,,,9999.0,,22.0,13.0,29.96,1015.5,,,,,,,,,,,,,,,Clear,72000.0,,,73000.0,,,,,,
KRDR,06-07-2012,03:00,METAR,,130,7.0,,,9999.0,,23.0,13.0,29.95,1015.1,,,,,,,,,,,,,,,Clear,72000.0,,,73000.0,,,,,,
KRDR,06-07-2012,02:00,METAR,,140,7.0,,,9999.0,,24.0,13.0,29.94,1014.7,,,,,,,,,,,,,,,Clear,72000.0,,,73000.0,,,,,,
KRDR,06-07-2012,01:00,METAR,,140,8.0,,,9999.0,,27.0,13.0,29.93,1014.5,,,,,,,,,,,,,,,2/8 Mostly Clear,72000.0,,FEW,12000.0,,,,,,
KRDR,06-07-2012,00:00,METAR,,150,9.0,,,9999.0,,28.0,12.0,29.92,1014.4,,,,,,,,,,,,,,,Clear,72000.0,,,73000.0,,,,,,
KRDR,06-06-2012,23:00,METAR,,150,10.0,,,9999.0,,28.0,14.0,29.92,1014.3,,,,,,,,,,,,,,,Clear,72000.0,,,73000.0,,,,,,
KRDR,06-06-2012,22:00,METAR,,150,10.0,,,9999.0,,29.0,14.0,29.93,1014.7,,,,,,,,,,,,,,,Clear,72000.0,,,73000.0,,,,,,
KRDR,06-06-2012,21:00,METAR,,180,10.0,,,9999.0,,28.0,15.0,29.94,1015.0,,,,,,,,,,,,,,,Clear,72000.0,,,73000.0,,,,,,
KRDR,06-06-2012,20:00,METAR,,140,9.0,,,9999.0,,29.0,13.0,29.94,1015.0,,,,,,,,,,,,,,,Clear,72000.0,,,73000.0,,,,,,
KRDR,06-06-2012,19:00,METAR,,170,7.0,,,9999.0,,28.0,11.0,29.95,1015.2,,,,,,,,,,,,,,,2/8 Mostly Clear,72000.0,,FEW,12000.0,,,,,,
KRDR,06-06-2012,18:00,METAR,,,4.0,,,9999.0,,27.0,13.0,29.96,1015.6,,,,,,,,,,,,,TRACE,,Clear,72000.0,,,73000.0,,,,,,
KRDR,06-06-2012,17:00,METAR,,100,3.0,,,9999.0,,24.0,14.0,29.97,1016.0,,,,,,,,,,,TRACE,,,,Clear,72000.0,,,73000.0,,,,,,
KRDR,06-06-2012,16:31,SPECI,,,4.0,,,9999.0,,23.0,13.0,29.98,1016.1,,,,,,,,,,,,,,,Clear,72000.0,,,73000.0,,,,,,
KRDR,06-06-2012,16:24,SPECI,,,3.0,,,9999.0,Light Rain,23.0,14.0,29.98,1016.2,61,,,,,,,,,,,,,,Clear,72000.0,,,73000.0,,,,,,
KRDR,06-06-2012,16:00,METAR,,,0.0,,,9999.0,,21.0,13.0,29.97,1016.0,,,,,,,,,,,,,,,2/8 Mostly Clear,72000.0,,FEW,9900.0,,,,,,
KRDR,06-06-2012,15:00,METAR,,360,3.0,,,9999.0,,19.0,14.0,29.99,1016.4,,,,,,,,,,,,,,,4/8 Partly Cloudy,72000.0,,SCT,11000.0,,,,,,
KRDR,06-06-2012,14:00,METAR,,,0.0,,,9999.0,,17.0,13.0,29.98,1016.3,,,,,,,,,,,,,,,7/8 Mostly Cloudy,11000.0,,BKN,11000.0,,,,,,
KRDR,06-06-2012,13:00,METAR,,350,4.0,,,9999.0,,16.0,13.0,29.97,1016.0,,,,,,,,,,,,,,,8/8 Overcast,11000.0,,OVC,11000.0,,,,,,
KRDR,06-06-2012,12:00,METAR,,,0.0,,,9999.0,,15.0,13.0,29.96,1015.4,,,,,,,,,,,,,,,8/8 Overcast,10000.0,,OVC,9900.0,,,,,,
KRDR,06-06-2012,11:00,METAR,,260,3.0,,,9999.0,,12.0,10.0,29.96,1015.5,,,,,,,,,,,,,,,Clear,72000.0,,,73000.0,,,,,,
KRDR,06-06-2012,10:00,METAR,,330,4.0,,,9999.0,,14.0,11.0,29.95,1015.2,,,,,,,,,,,,,,,Clear,72000.0,,,73000.0,,,,,,
KRDR,06-06-2012,09:00,METAR,,310,4.0,,,9999.0,,14.0,12.0,29.95,1015.1,,,,,,,,,,,,,,,4/8 Partly Cloudy,72000.0,,SCT,11000.0,,,,,,
KRDR,06-06-2012,08:00,METAR,,320,5.0,,,9999.0,,15.0,12.0,29.94,1014.7,,,,,,,,,,,,,,,2/8 Mostly Clear,72000.0,,FEW,11000.0,,,,,,
KRDR,06-06-2012,07:00,METAR,,360,4.0,,,9999.0,,15.0,12.0,29.93,1014.4,,,,,,,,,,,,,,,4/8 Partly Cloudy,72000.0,,SCT,11000.0,,,,,,
KRDR,06-06-2012,06:00,METAR,,,0.0,,,9999.0,,19.0,13.0,29.93,1014.4,,,,,,,,,,,,,,,7/8 Mostly Cloudy,11000.0,,BKN,11000.0,,,,,,
KRDR,06-06-2012,05:00,METAR,,,0.0,,,9999.0,,19.0,13.0,29.92,1014.2,,,,,,,,,,,,,,,Clear,72000.0,,,73000.0,,,,,,
KRDR,06-06-2012,04:00,METAR,,90,6.0,,,9999.0,,22.0,13.0,29.92,1014.2,,,,,,,,,,,,,,,Clear,72000.0,,,73000.0,,,,,,
KRDR,06-06-2012,03:00,METAR,,40,5.0,,,9999.0,,25.0,13.0,29.91,1013.8,,,,,,,,,,,,,,,7/8 Mostly Cloudy,11000.0,,BKN,11000.0,,,,,,
KRDR,06-06-2012,02:00,METAR,,90,4.0,,,9999.0,,27.0,12.0,29.90,1013.4,,,,,,,,,,,,,,,2/8 Mostly Clear,72000.0,,FEW,12000.0,,,,,,
KRDR,06-06-2012,01:00,METAR,,80,4.0,,,9999.0,,28.0,13.0,29.90,1013.6,,,,,,,,,,,,,,,2/8 Mostly Clear,72000.0,,FEW,12000.0,,,,,,
KRDR,06-06-2012,00:00,METAR,,,0.0,,,9999.0,,28.0,14.0,29.91,1013.7,,,,,,,,,,,,,,,7/8 Mostly Cloudy,11000.0,,BKN,11000.0,,,,,,
KRDR,06-05-2012,23:00,METAR,,200,4.0,,,9999.0,,30.0,12.0,29.92,1014.2,,,,,,,,,,,,,,,7/8 Mostly Cloudy,11000.0,,BKN,11000.0,,,,,,
KRDR,06-05-2012,22:00,METAR,,,0.0,,,9999.0,,30.0,10.0,29.93,1014.6,,,,,,,,,,,,,,,7/8 Mostly Cloudy,11000.0,,BKN,11000.0,,,,,,
KRDR,06-05-2012,21:00,METAR,,,0.0,,,9999.0,,30.0,11.0,29.93,1014.5,,,,,,,,,,,,,,,7/8 Mostly Cloudy,12000.0,,BKN,12000.0,,,,,,
KRDR,06-05-2012,20:00,METAR,,200,9.0,,,9999.0,,30.0,10.0,29.94,1014.8,,,,,,,,,,,,,,,Clear,72000.0,,,73000.0,,,,,,
KRDR,06-05-2012,19:00,METAR,,190,7.0,,,9999.0,,29.0,11.0,29.97,1015.8,,,,,,,,,,,,,,,7/8 Mostly Cloudy,10000.0,,FEW,6900.0,BKN,9900.0,,,,
KRDR,06-05-2012,18:00,METAR,,290,3.0,,,9999.0,,29.0,12.0,29.98,1016.3,,,,,,,,,,,,,TRACE,,4/8 Partly Cloudy,72000.0,,SCT,11000.0,,,,,,
KRDR,06-05-2012,17:00,METAR,,,4.0,,,9999.0,,28.0,11.0,30.00,1016.7,,,,,,,,,,,,,,,4/8 Partly Cloudy,72000.0,,SCT,9900.0,,,,,,
KRDR,06-05-2012,16:00,METAR,,190,3.0,,,9999.0,,27.0,10.0,29.99,1016.5,,,,,,,,,,,TRACE,,,,Clear,72000.0,,,73000.0,,,,,,
KRDR,06-05-2012,15:00,METAR,,,0.0,,,9999.0,Light Rain,24.0,12.0,30.00,1016.9,61,,,,,,,,,,TRACE,0 IN,,,Clear,72000.0,,,73000.0,,,,,,
KRDR,06-05-2012,14:00,METAR,,210,4.0,,,9999.0,,20.0,14.0,30.00,1016.8,,,,,,,,,,,,,,,4/8 Partly Cloudy,72000.0,,SCT,11000.0,,,,,,
KRDR,06-05-2012,13:00,METAR,,180,4.0,,,9999.0,,18.0,14.0,29.98,1016.3,,,,,,,,,,,,,,,Clear,72000.0,,,73000.0,,,,,,
KRDR,06-05-2012,12:00,METAR,,,0.0,,,9999.0,,13.0,11.0,29.98,1016.3,,,,,,,,,,,,,,,Clear,72000.0,,,73000.0,,,,,,
KRDR,06-05-2012,11:00,METAR,,,0.0,,,9999.0,,10.0,9.0,29.98,1016.0,,,,,,,,,,,,,,,Clear,72000.0,,,73000.0,,,,,,
KRDR,06-05-2012,10:00,METAR,,,0.0,,,9999.0,,12.0,10.0,29.96,1015.5,,,,,,,,,,,,,,,Clear,72000.0,,,73000.0,,,,,,
KRDR,06-05-2012,09:00,METAR,,120,3.0,,,9999.0,,14.0,10.0,29.95,1015.1,,,,,,,,,,,,,,,Clear,72000.0,,,73000.0,,,,,,
KRDR,06-05-2012,08:00,METAR,,,0.0,,,9999.0,,13.0,11.0,29.96,1015.6,,,,,,,,,,,,,,,Clear,72000.0,,,73000.0,,,,,,
KRDR,06-05-2012,07:00,METAR,,260,3.0,,,9999.0,,14.0,11.0,29.96,1015.4,,,,,,,,,,,,,,,Clear,72000.0,,,73000.0,,,,,,
KRDR,06-05-2012,06:00,METAR,,190,3.0,,,9999.0,,15.0,11.0,29.95,1015.2,,,,,,,,,,,,,,,Clear,72000.0,,,73000.0,,,,,,
KRDR,06-05-2012,05:00,METAR,,,0.0,,,9999.0,,17.0,11.0,29.94,1014.9,,,,,,,,,,,,,,,Clear,72000.0,,,73000.0,,,,,,
KRDR,06-05-2012,04:00,METAR,,240,3.0,,,9999.0,,18.0,12.0,29.94,1014.7,,,,,,,,,,,,,,,Clear,72000.0,,,73000.0,,,,,,
KRDR,06-05-2012,03:00,METAR,,190,4.0,,,9999.0,,20.0,12.0,29.93,1014.7,,,,,,,,,,,,,,,Clear,72000.0,,,73000.0,,,,,,
KRDR,06-05-2012,02:00,METAR,,,0.0,,,9999.0,,23.0,11.0,29.92,1014.3,,,,,,,,,,,,,,,Clear,72000.0,,,73000.0,,,,,,
KRDR,06-05-2012,01:00,METAR,,290,4.0,,,9999.0,,27.0,10.0,29.93,1014.4,,,,,,,,,,,,,,,Clear,72000.0,,,73000.0,,,,,,
KRDR,06-05-2012,00:00,METAR,,320,7.0,,,9999.0,,28.0,9.0,29.94,1014.7,,,,,,,,,,,,,,,Clear,72000.0,,,73000.0,,,,,,
KRDR,06-04-2012,23:00,METAR,,300,7.0,,,9999.0,,28.0,9.0,29.94,1014.9,,,,,,,,,,,,,,,Clear,72000.0,,,73000.0,,,,,,
KRDR,06-04-2012,22:00,METAR,,290,8.0,,,9999.0,,28.0,9.0,29.96,1015.4,,,,,,,,,,,,,,,2/8 Mostly Clear,72000.0,,FEW,8900.0,,,,,,
KRDR,06-04-2012,21:00,METAR,,,6.0,,,9999.0,,28.0,8.0,29.96,1015.4,,,,,,,,,,,,,,,2/8 Mostly Clear,72000.0,,FEW,8900.0,,,,,,
KRDR,06-04-2012,20:00,METAR,,360,9.0,,,9999.0,,28.0,9.0,29.96,1015.5,,,,,,,,,,,,,,,Clear,72000.0,,,73000.0,,,,,,
KRDR,06-04-2012,19:00,METAR,,300,9.0,22.0,,9999.0,,28.0,8.0,29.96,1015.5,,,,,,,,,,,,,,,Clear,72000.0,,,73000.0,,,,,,
KRDR,06-04-2012,18:00,METAR,,360,5.0,,,9999.0,,27.0,7.0,29.96,1015.6,,,,,,,,,,,,,,,Clear,72000.0,,,73000.0,,,,,,
KRDR,06-04-2012,17:00,METAR,,,4.0,,,9999.0,,26.0,6.0,29.97,1015.8,,,,,,,,,,,,,,,Clear,72000.0,,,73000.0,,,,,,
KRDR,06-04-2012,16:00,METAR,,280,5.0,,,9999.0,,25.0,7.0,29.97,1015.7,,,,,,,,,,,,,,,Clear,72000.0,,,73000.0,,,,,,
KRDR,06-04-2012,15:00,METAR,,310,6.0,,,9999.0,,24.0,10.0,29.96,1015.7,,,,,,,,,,,,,,,Clear,72000.0,,,73000.0,,,,,,
KRDR,06-04-2012,14:00,METAR,,300,5.0,,,9999.0,,21.0,10.0,29.96,1015.4,,,,,,,,,,,,,,,Clear,72000.0,,,73000.0,,,,,,
KRDR,06-04-2012,13:00,METAR,,310,4.0,,,9999.0,,18.0,10.0,29.94,1014.7,,,,,,,,,,,,,,,Clear,72000.0,,,73000.0,,,,,,
KRDR,06-04-2012,12:00,METAR,,300,4.0,,,9999.0,,14.0,8.0,29.92,1014.1,,,,,,,,,,,,,,.06 IN,Clear,72000.0,,,73000.0,,,,,,
KRDR,06-04-2012,11:00,METAR,,300,5.0,,,9999.0,,12.0,7.0,29.90,1013.6,,,,,,,,,,,,,,,Clear,72000.0,,,73000.0,,,,,,
KRDR,06-04-2012,10:00,METAR,,300,6.0,,,9999.0,,12.0,7.0,29.88,1012.9,,,,,,,,,,,,,,,Clear,72000.0,,,73000.0,,,,,,
KRDR,06-04-2012,09:00,METAR,,300,7.0,,,9999.0,,13.0,8.0,29.87,1012.5,,,,,,,,,,,,,,,Clear,72000.0,,,73000.0,,,,,,
KRDR,06-04-2012,08:00,METAR,,300,7.0,,,9999.0,,14.0,9.0,29.86,1012.2,,,,,,,,,,,,,,,Clear,72000.0,,,73000.0,,,,,,
KRDR,06-04-2012,07:00,METAR,,300,5.0,,,9999.0,,13.0,10.0,29.84,1011.7,,,,,,,,,,,,,,,Clear,72000.0,,,73000.0,,,,,,
KRDR,06-04-2012,06:00,METAR,,280,4.0,,,9999.0,,13.0,12.0,29.84,1011.4,,,,,,,,,,,,,,,Clear,72000.0,,,73000.0,,,,,,
KRDR,06-04-2012,05:00,METAR,,250,5.0,,,9999.0,,14.0,13.0,29.82,1011.0,,,,,,,,,,,,,,,Clear,72000.0,,,73000.0,,,,,,
KRDR,06-04-2012,04:00,METAR,,230,5.0,,,9999.0,,16.0,14.0,29.81,1010.5,,,,,,,,,,,,,,,Clear,72000.0,,,73000.0,,,,,,
KRDR,06-04-2012,03:00,METAR,,180,5.0,,,9999.0,,18.0,15.0,29.79,1010.0,,,,,,,,,,,,,,,Clear,72000.0,,,73000.0,,,,,,
KRDR,06-04-2012,02:00,METAR,,80,9.0,,,9999.0,,20.0,16.0,29.77,1009.2,,,,,,,,,,,,,,,4/8 Partly Cloudy,72000.0,,SCT,6900.0,SCT,8900.0,,,,
KRDR,06-04-2012,01:41,SPECI,,80,10.0,,,9999.0,,22.0,16.0,29.76,1009.0,,,,,,,,,,,,,,,7/8 Mostly Cloudy,8000.0,,BKN,7900.0,,,,,,
KRDR,06-04-2012,01:00,METAR,,200,8.0,,,9999.0,,25.0,17.0,29.73,1008.1,,,,,,,,,,,,,,,2/8 Mostly Clear,72000.0,,FEW,7900.0,,,,,,
KRDR,06-04-2012,00:00,METAR,,200,9.0,,,9999.0,,25.0,17.0,29.72,1007.5,,,,,,,,,,,,,,,7/8 Mostly Cloudy,11000.0,,BKN,11000.0,,,,,,
KRDR,06-03-2012,23:00,METAR,,210,11.0,,,9999.0,,26.0,17.0,29.72,1007.5,,,,,,,,,,,,,,,Clear,72000.0,,,73000.0,,,,,,
KRDR,06-03-2012,22:00,METAR,,200,10.0,,,9999.0,,25.0,16.0,29.73,1008.0,,,,,,,,,,,,,,,2/8 Mostly Clear,72000.0,,FEW,11000.0,,,,,,
KRDR,06-03-2012,21:00,METAR,,190,12.0,20.0,,9999.0,,25.0,16.0,29.74,1008.4,,,,,,,,,,,,,,,4/8 Partly Cloudy,72000.0,,FEW,5900.0,SCT,11000.0,,,,
KRDR,06-03-2012,20:00,METAR,,200,11.0,18.0,,9999.0,,24.0,15.0,29.74,1008.4,,,,,,,,,,,,,,,4/8 Partly Cloudy,72000.0,,SCT,11000.0,,,,,,
KRDR,06-03-2012,19:00,METAR,,170,13.0,,,9999.0,,22.0,15.0,29.74,1008.2,,,,,,,,,,,,,,,7/8 Mostly Cloudy,11000.0,,FEW,5900.0,BKN,11000.0,,,,
KRDR,06-03-2012,18:00,METAR,,170,11.0,,,9999.0,,19.0,16.0,29.75,1008.8,,,,,,,,,,,,,.06 IN,,8/8 Overcast,6000.0,,BKN,5900.0,OVC,7900.0,,,,
KRDR,06-03-2012,17:00,METAR,,160,7.0,,,9999.0,,17.0,16.0,29.76,1008.9,,,,,,,,,,,.01 IN,,,,8/8 Overcast,6000.0,,OVC,5900.0,,,,,,
KRDR,06-03-2012,16:39,SPECI,,160,8.0,,,9999.0,,17.0,16.0,29.75,1008.7,,,,,,,,,,,,,,,8/8 Overcast,6000.0,,FEW,1100.0,OVC,5900.0,,,,
KRDR,06-03-2012,16:32,SPECI,,150,7.0,,,9999.0,,17.0,15.0,29.75,1008.7,,,,,,,,,,,,,,,8/8 Overcast,4900.0,,FEW,1200.0,SCT,3000.0,OVC,5000.0,,
KRDR,06-03-2012,16:22,SPECI,,150,9.0,,,9999.0,Light Rain,17.0,15.0,29.75,1008.6,61,,,,,,,,,,,,,,8/8 Overcast,4300.0,,FEW,1100.0,BKN,4400.0,OVC,5000.0,,
KRDR,06-03-2012,16:09,SPECI,,200,6.0,,,9999.0,Light Drizzle,16.0,15.0,29.77,1009.1,51,,,,,,,,,,,,,,8/8 Overcast,4300.0,,FEW,1100.0,BKN,4400.0,OVC,5000.0,,
KRDR,06-03-2012,16:00,METAR,,200,9.0,,,9999.0,Light Rain,16.0,15.0,29.76,1008.9,61,,,,,,,,,,.02 IN,,,,8/8 Overcast,4700.0,,OVC,4800.0,,,,,,
KRDR,06-03-2012,15:00,METAR,,220,14.0,19.0,,9999.0,Light Rain,16.0,14.0,29.76,1008.9,61,,,,,,,,,,.03 IN,.03 IN,,,8/8 Overcast,3400.0,,BKN,3500.0,OVC,4500.0,,,,
KRDR,06-03-2012,14:00,METAR,,200,4.0,,,9999.0,Light Rain,17.0,15.0,29.74,1008.2,61,,,,,,,,,,TRACE,,,,8/8 Overcast,8000.0,,OVC,7900.0,,,,,,
KRDR,06-03-2012,13:00,METAR,,,0.0,,,9999.0,Light Rain,17.0,13.0,29.72,1007.8,61,,,,,,,,,,TRACE,,,,8/8 Overcast,9000.0,,FEW,5900.0,OVC,8900.0,,,,
KRDR,06-03-2012,12:32,SPECI,,,0.0,,,9999.0,,17.0,12.0,29.71,1007.4,,,,,,,,,,,,,,,8/8 Overcast,10000.0,,OVC,9900.0,,,,,,
KRDR,06-03-2012,12:00,METAR,,200,3.0,,,9999.0,,16.0,12.0,29.71,1007.2,,,,,,,,,,,,,TRACE,,7/8 Mostly Cloudy,10000.0,,BKN,9900.0,,,,,,
KRDR,06-03-2012,11:00,METAR,,200,6.0,,,9999.0,,15.0,10.0,29.70,1007.0,,,,,,,,,,,,,,,Clear,72000.0,,,73000.0,,,,,,
KRDR,06-03-2012,10:00,METAR,,210,5.0,,,9999.0,,14.0,10.0,29.71,1007.4,,,,,,,,,,,TRACE,,,,4/8 Partly Cloudy,72000.0,,SCT,9900.0,,,,,,
KRDR,06-03-2012,09:29,SPECI,,220,4.0,,,9999.0,,14.0,9.0,29.72,1007.5,,,,,,,,,,,,,,,Clear,72000.0,,,73000.0,,,,,,
KRDR,06-03-2012,09:20,SPECI,,210,3.0,,,9999.0,Light Rain,13.0,9.0,29.72,1007.5,61,,,,,,,,,,,,,,Clear,72000.0,,,73000.0,,,,,,
KRDR,06-03-2012,09:05,SPECI,,180,3.0,,,9999.0,,14.0,9.0,29.71,1007.4,,,,,,,,,,,,,,,Clear,72000.0,,,73000.0,,,,,,
KRDR,06-03-2012,09:00,METAR,,200,3.0,,,9999.0,,13.0,9.0,29.72,1007.5,,,,,,,,,,,,,,,Clear,72000.0,,,73000.0,,,,,,
KRDR,06-03-2012,08:00,METAR,,,0.0,,,9999.0,,12.0,9.0,29.71,1007.4,,,,,,,,,,,,,,,Clear,72000.0,,,73000.0,,,,,,
KRDR,06-03-2012,07:00,METAR,,,0.0,,,9999.0,,12.0,9.0,29.71,1007.3,,,,,,,,,,,,,,,Clear,72000.0,,,73000.0,,,,,,
KRDR,06-03-2012,06:00,METAR,,160,3.0,,,9999.0,,13.0,9.0,29.71,1007.3,,,,,,,,,,,,,,,Clear,72000.0,,,73000.0,,,,,,
KRDR,06-03-2012,05:00,METAR,,,0.0,,,9999.0,,16.0,9.0,29.72,1007.6,,,,,,,,,,,,,,,Clear,72000.0,,,73000.0,,,,,,
KRDR,06-03-2012,04:00,METAR,,180,3.0,,,9999.0,,17.0,9.0,29.71,1007.4,,,,,,,,,,,,,,,Clear,72000.0,,,73000.0,,,,,,
KRDR,06-03-2012,03:00,METAR,,,0.0,,,9999.0,,16.0,9.0,29.71,1007.4,,,,,,,,,,,,,,,Clear,72000.0,,,73000.0,,,,,,
KRDR,06-03-2012,02:00,METAR,,,0.0,,,9999.0,,22.0,9.0,29.70,1007.1,,,,,,,,,,,,,,,Clear,72000.0,,,73000.0,,,,,,
KRDR,06-03-2012,01:00,METAR,,,0.0,,,9999.0,,25.0,9.0,29.71,1007.3,,,,,,,,,,,,,,,Clear,72000.0,,,73000.0,,,,,,
KRDR,06-03-2012,00:00,METAR,,300,5.0,,,9999.0,,26.0,8.0,29.72,1007.5,,,,,,,,,,,,,,,2/8 Mostly Clear,72000.0,,FEW,7900.0,,,,,,
KRDR,06-02-2012,23:00,METAR,,330,7.0,,,9999.0,,26.0,7.0,29.72,1007.5,,,,,,,,,,,,,,,Clear,72000.0,,,73000.0,,,,,,
KRDR,06-02-2012,22:00,METAR,,340,5.0,,,9999.0,,26.0,7.0,29.72,1007.7,,,,,,,,,,,,,,,2/8 Mostly Clear,72000.0,,FEW,7900.0,,,,,,
KRDR,06-02-2012,21:00,METAR,,330,6.0,,,9999.0,,25.0,7.0,29.73,1008.1,,,,,,,,,,,,,,,7/8 Mostly Cloudy,8000.0,,BKN,7900.0,,,,,,
KRDR,06-02-2012,20:00,METAR,,340,9.0,,,9999.0,,26.0,7.0,29.74,1008.2,,,,,,,,,,,,,,,2/8 Mostly Clear,72000.0,,FEW,7900.0,,,,,,
KRDR,06-02-2012,19:00,METAR,,,4.0,,,9999.0,,25.0,6.0,29.75,1008.7,,,,,,,,,,,,,,,2/8 Mostly Clear,72000.0,,FEW,7900.0,,,,,,
KRDR,06-02-2012,18:00,METAR,,300,5.0,,,9999.0,,24.0,10.0,29.76,1008.9,,,,,,,,,,,,,,,Clear,72000.0,,,73000.0,,,,,,
KRDR,06-02-2012,17:00,METAR,,310,6.0,,,9999.0,,23.0,11.0,29.78,1009.4,,,,,,,,,,,,,,,Clear,72000.0,,,73000.0,,,,,,
KRDR,06-02-2012,16:00,METAR,,,0.0,,,9999.0,,20.0,10.0,29.78,1009.6,,,,,,,,,,,,,,,Clear,72000.0,,,73000.0,,,,,,
KRDR,06-02-2012,15:00,METAR,,,3.0,,,9999.0,,19.0,10.0,29.80,1010.1,,,,,,,,,,,,,,,Clear,72000.0,,,73000.0,,,,,,
KRDR,06-02-2012,14:00,METAR,,,0.0,,,9999.0,,16.0,11.0,29.79,1009.9,,,,,,,,,,,,,,,Clear,72000.0,,,73000.0,,,,,,
KRDR,06-02-2012,13:00,METAR,,300,4.0,,,9999.0,,13.0,11.0,29.79,1009.9,,,,,,,,,,,,,,,Clear,72000.0,,,73000.0,,,,,,
KRDR,06-02-2012,12:00,METAR,,290,3.0,,,9999.0,,9.0,8.0,29.78,1009.5,,,,,,,,,,,,,,.04 IN,Clear,72000.0,,,73000.0,,,,,,
KRDR,06-02-2012,11:00,METAR,,,0.0,,,9999.0,,5.0,5.0,29.77,1009.4,,,,,,,,,,,,,,,Clear,72000.0,,,73000.0,,,,,,
KRDR,06-02-2012,10:11,SPECI,,,0.0,,,400.0,Fog,5.0,5.0,29.77,1009.3,30,,,,,,,,,,,,,,Clear,72000.0,,,73000.0,,,,,,
KRDR,06-02-2012,10:00,METAR,,,0.0,,,1600.0,Mist,7.0,6.0,29.77,1009.2,10,,,,,,,,,,,,,,Clear,72000.0,,,73000.0,,,,,,
KRDR,06-02-2012,09:56,SPECI,,,0.0,,,800.0,Fog,6.0,6.0,29.77,1009.2,30,,,,,,,,,,,,,,Clear,72000.0,,,73000.0,,,,,,
KRDR,06-02-2012,09:53,SPECI,,,0.0,,,1200.0,Mist,6.0,6.0,29.77,1009.2,10,,,,,,,,,,,,,,Clear,72000.0,,,73000.0,,,,,,
KRDR,06-02-2012,09:22,SPECI,,,0.0,,,8000.0,Mist,7.0,7.0,29.77,1009.3,10,,,,,,,,,,,,,,Clear,72000.0,,,73000.0,,,,,,
KRDR,06-02-2012,09:20,SPECI,,,0.0,,,8000.0,Mist,7.0,7.0,29.77,1009.2,10,,,,,,,,,,,,,,Clear,72000.0,,,73000.0,,,,,,
KRDR,06-02-2012,09:00,METAR,,300,5.0,,,9999.0,,7.0,6.0,29.77,1009.3,,,,,,,,,,,,,,,Clear,72000.0,,,73000.0,,,,,,
KRDR,06-02-2012,08:00,METAR,,290,3.0,,,9999.0,,7.0,7.0,29.77,1009.3,,,,,,,,,,,,,,,Clear,72000.0,,,73000.0,,,,,,
KRDR,06-02-2012,07:39,SPECI,,290,4.0,,,4800.0,Mist,7.0,7.0,29.77,1009.2,10,,,,,,,,,,,,,,Clear,72000.0,,,73000.0,,,,,,
KRDR,06-02-2012,07:37,SPECI,,290,4.0,,,3200.0,Mist,7.0,7.0,29.77,1009.2,10,,,,,,,,,,,,,,Clear,72000.0,,,73000.0,,,,,,
KRDR,06-02-2012,07:34,SPECI,,290,3.0,,,2400.0,Mist,7.0,7.0,29.77,1009.2,10,,,,,,,,,,,,,,Clear,72000.0,,,73000.0,,,,,,
KRDR,06-02-2012,07:30,SPECI,,290,4.0,,,1600.0,Mist,7.0,7.0,29.77,1009.2,10,,,,,,,,,,,,,,Clear,72000.0,,,73000.0,,,,,,
KRDR,06-02-2012,07:27,SPECI,,290,3.0,,,1200.0,Mist,7.0,7.0,29.77,1009.1,10,,,,,,,,,,,,,,Clear,72000.0,,,73000.0,,,,,,
KRDR,06-02-2012,07:25,SPECI,,290,3.0,,,800.0,Fog,7.0,7.0,29.77,1009.1,30,,,,,,,,,,,,,,Clear,72000.0,,,73000.0,,,,,,
KRDR,06-02-2012,07:21,SPECI,,,0.0,,,1200.0,Mist,7.0,7.0,29.76,1009.1,10,,,,,,,,,,,,,,Clear,72000.0,,,73000.0,,,,,,
KRDR,06-02-2012,07:14,SPECI,,,0.0,,,9999.0,Mist,8.0,7.0,29.76,1009.0,10,,,,,,,,,,,,,,Clear,72000.0,,,73000.0,,,,,,
KRDR,06-02-2012,07:00,METAR,,,0.0,,,9999.0,,10.0,8.0,29.77,1009.2,,,,,,,,,,,,,,,Clear,72000.0,,,73000.0,,,,,,
KRDR,06-02-2012,06:00,METAR,,,0.0,,,9999.0,,10.0,9.0,29.77,1009.2,,,,,,,,,,,,,,,Clear,72000.0,,,73000.0,,,,,,
KRDR,06-02-2012,05:00,METAR,,250,4.0,,,9999.0,,12.0,11.0,29.77,1009.3,,,,,,,,,,,,,,,7/8 Mostly Cloudy,8000.0,,BKN,7900.0,,,,,,
KRDR,06-02-2012,04:00,METAR,,310,3.0,,,9999.0,,13.0,11.0,29.78,1009.5,,,,,,,,,,,,,,,7/8 Mostly Cloudy,8000.0,,BKN,7900.0,,,,,,
KRDR,06-02-2012,03:00,METAR,,200,7.0,,,9999.0,,15.0,11.0,29.75,1008.7,,,,,,,,,,,,,,,4/8 Partly Cloudy,72000.0,,FEW,3100.0,SCT,8900.0,,,,
KRDR,06-02-2012,02:00,METAR,,220,4.0,,,9999.0,,15.0,11.0,29.77,1009.2,,,,,,,,,,,,,,,7/8 Mostly Cloudy,8000.0,,BKN,7900.0,,,,,,
KRDR,06-02-2012,01:00,METAR,,220,5.0,,,9999.0,,16.0,10.0,29.77,1009.2,,,,,,,,,,,,,,,Clear,72000.0,,,73000.0,,,,,,
KRDR,06-02-2012,00:00,METAR,,210,9.0,,,9999.0,,18.0,10.0,29.76,1009.1,,,,,,,,,,,,,.04 IN,,4/8 Partly Cloudy,72000.0,,SCT,8900.0,,,,,,
KRDR,06-01-2012,23:00,METAR,,200,10.0,,,9999.0,,18.0,10.0,29.78,1009.4,,,,,,,,,,,,,,,8/8 Overcast,9000.0,,OVC,8900.0,,,,,,
KRDR,06-01-2012,22:00,METAR,,190,6.0,,,9999.0,,17.0,10.0,29.78,1009.7,,,,,,,,,,,.01 IN,,,,8/8 Overcast,8000.0,,FEW,3600.0,SCT,6900.0,OVC,7900.0,,
KRDR,06-01-2012,21:25,SPECI,,200,8.0,,,9999.0,,16.0,12.0,29.79,1009.8,,,,,,,,,,,,,,,8/8 Overcast,7000.0,,OVC,6900.0,,,,,,
KRDR,06-01-2012,21:00,METAR,,200,6.0,,,9999.0,Light Rain,15.0,12.0,29.80,1010.1,61,,,,,,,,,,.03 IN,.03 IN,,,8/8 Overcast,4400.0,,FEW,2800.0,SCT,5000.0,OVC,6900.0,,
KRDR,06-01-2012,20:00,METAR,,260,11.0,,,9999.0,,17.0,10.0,29.79,1010.0,,,,,,,,,,,,,,,8/8 Overcast,7000.0,,FEW,4300.0,OVC,6900.0,,,,
KRDR,06-01-2012,19:00,METAR,,200,8.0,,,9999.0,,19.0,9.0,29.80,1010.2,,,,,,,,,,,,,,,7/8 Mostly Cloudy,10000.0,,FEW,4700.0,BKN,9900.0,,,,
KRDR,06-01-2012,18:00,METAR,,210,9.0,,,9999.0,,19.0,8.0,29.81,1010.5,,,,,,,,,,,,,,,8/8 Overcast,6000.0,,SCT,4900.0,BKN,5900.0,OVC,7900.0,,
KRDR,06-01-2012,17:00,METAR,,200,14.0,,,9999.0,,20.0,7.0,29.82,1010.8,,,,,,,,,,,,,,,4/8 Partly Cloudy,72000.0,,SCT,12000.0,,,,,,
KRDR,06-01-2012,16:00,METAR,,200,14.0,20.0,,9999.0,,19.0,7.0,29.82,1011.0,,,,,,,,,,,,,,,Clear,72000.0,,,73000.0,,,,,,
KRDR,06-01-2012,15:00,METAR,,210,11.0,,,9999.0,,17.0,7.0,29.84,1011.4,,,,,,,,,,,,,,,Clear,72000.0,,,73000.0,,,,,,
KRDR,06-01-2012,14:00,METAR,,200,11.0,,,9999.0,,16.0,7.0,29.85,1012.0,,,,,,,,,,,,,,,Clear,72000.0,,,73000.0,,,,,,
KRDR,06-01-2012,13:00,METAR,,200,8.0,,,9999.0,,14.0,7.0,29.87,1012.6,,,,,,,,,,,,,,,Clear,72000.0,,,73000.0,,,,,,
KRDR,06-01-2012,12:00,METAR,,190,5.0,,,9999.0,,9.0,6.0,29.88,1012.8,,,,,,,,,,,,,,,Clear,72000.0,,,73000.0,,,,,,
KRDR,06-01-2012,11:00,METAR,,190,5.0,,,9999.0,,9.0,5.0,29.88,1012.7,,,,,,,,,,,,,,,Clear,72000.0,,,73000.0,,,,,,
KRDR,06-01-2012,10:00,METAR,,240,4.0,,,9999.0,,9.0,5.0,29.88,1012.9,,,,,,,,,,,,,,,Clear,72000.0,,,73000.0,,,,,,
KRDR,06-01-2012,09:00,METAR,,230,5.0,,,9999.0,,9.0,4.0,29.89,1013.1,,,,,,,,,,,,,,,Clear,72000.0,,,73000.0,,,,,,
KRDR,06-01-2012,08:00,METAR,,260,4.0,,,9999.0,,10.0,4.0,29.90,1013.5,,,,,,,,,,,,,,,Clear,72000.0,,,73000.0,,,,,,
KRDR,06-01-2012,07:00,METAR,,280,5.0,,,9999.0,,11.0,4.0,29.91,1013.8,,,,,,,,,,,,,,,Clear,72000.0,,,73000.0,,,,,,
KRDR,06-01-2012,06:00,METAR,,280,6.0,,,9999.0,,12.0,4.0,29.92,1014.2,,,,,,,,,,,,,,,Clear,72000.0,,,73000.0,,,,,,
KRDR,06-01-2012,05:00,METAR,,270,7.0,,,9999.0,,10.0,4.0,29.93,1014.4,,,,,,,,,,,,,,,Clear,72000.0,,,73000.0,,,,,,
KRDR,06-01-2012,04:00,METAR,,270,3.0,,,9999.0,,11.0,3.0,29.93,1014.6,,,,,,,,,,,,,,,Clear,72000.0,,,73000.0,,,,,,
KRDR,06-01-2012,03:00,METAR,,280,6.0,,,9999.0,,13.0,2.0,29.94,1014.8,,,,,,,,,,,,,,,Clear,72000.0,,,73000.0,,,,,,
KRDR,06-01-2012,02:00,METAR,,290,5.0,,,9999.0,,17.0,3.0,29.93,1014.7,,,,,,,,,,,,,,,Clear,72000.0,,,73000.0,,,,,,
KRDR,06-01-2012,01:00,METAR,,280,7.0,,,9999.0,,20.0,2.0,29.94,1014.8,,,,,,,,,,,,,,,Clear,72000.0,,,73000.0,,,,,,
KRDR,06-01-2012,00:00,METAR,,260,5.0,,,9999.0,,20.0,5.0,29.95,1015.3,,,,,,,,,,,,,,,Clear,8000.0,,,73000.0,,,,,,
KRDR,05-31-2012,23:00,METAR,,280,6.0,,,9999.0,,22.0,2.0,29.96,1015.6,,,,,,,,,,,,,,,7/8 Mostly Cloudy,8000.0,,BKN,7900.0,,,,,,
KRDR,05-31-2012,22:00,METAR,,280,5.0,,,9999.0,,22.0,2.0,29.97,1015.9,,,,,,,,,,,,,,,4/8 Partly Cloudy,72000.0,,SCT,7900.0,,,,,,
KRDR,05-31-2012,21:00,METAR,,280,6.0,,,9999.0,,21.0,2.0,29.99,1016.5,,,,,,,,,,,,,,,4/8 Partly Cloudy,72000.0,,SCT,7900.0,,,,,,
KRDR,05-31-2012,20:00,METAR,,350,8.0,,,9999.0,,21.0,2.0,29.99,1019.0,,,,,,,,,,,,,,,4/8 Partly Cloudy,72000.0,,SCT,7900.0,,,,,,
KRDR,05-31-2012,19:00,METAR,,,3.0,,,9999.0,,21.0,2.0,30.02,1017.5,,,,,,,,,,,,,,,Clear,72000.0,,,73000.0,,,,,,
KRDR,05-31-2012,18:00,METAR,,330,8.0,,,9999.0,,20.0,2.0,30.04,1018.0,,,,,,,,,,,,,,,Clear,72000.0,,,73000.0,,,,,,
KRDR,05-31-2012,17:00,METAR,,,4.0,,,9999.0,,19.0,3.0,30.05,1018.5,,,,,,,,,,,,,,,Clear,72000.0,,,73000.0,,,,,,
KRDR,05-31-2012,16:00,METAR,,,0.0,,,9999.0,,18.0,6.0,30.06,1018.8,,,,,,,,,,,,,,,Clear,72000.0,,,73000.0,,,,,,
KRDR,05-31-2012,15:00,METAR,,,3.0,,,9999.0,,16.0,7.0,30.07,1019.0,,,,,,,,,,,,,,,Clear,72000.0,,,73000.0,,,,,,
KRDR,05-31-2012,14:00,METAR,,300,5.0,,,9999.0,,14.0,7.0,30.07,1019.2,,,,,,,,,,,,,,,Clear,72000.0,,,73000.0,,,,,,
KRDR,05-31-2012,13:00,METAR,,320,5.0,,,9999.0,,11.0,7.0,30.07,1019.2,,,,,,,,,,,,,,,Clear,72000.0,,,73000.0,,,,,,
KRDR,05-31-2012,12:00,METAR,,290,7.0,,,9999.0,,9.0,6.0,30.06,1018.9,,,,,,,,,,,,,,,Clear,72000.0,,,73000.0,,,,,,
KRDR,05-31-2012,11:00,METAR,,290,3.0,,,9999.0,,6.0,4.0,30.05,1018.6,,,,,,,,,,,,,,,Clear,72000.0,,,73000.0,,,,,,
KRDR,05-31-2012,10:00,METAR,,300,6.0,,,9999.0,,6.0,5.0,30.04,1018.3,,,,,,,,,,,,,,,Clear,72000.0,,,73000.0,,,,,,
KRDR,05-31-2012,09:00,METAR,,300,5.0,,,9999.0,,7.0,5.0,30.04,1018.1,,,,,,,,,,,,,,,Clear,72000.0,,,73000.0,,,,,,
KRDR,05-31-2012,08:00,METAR,,290,6.0,,,9999.0,,6.0,3.0,30.03,1017.7,,,,,,,,,,,,,,,Clear,72000.0,,,73000.0,,,,,,
KRDR,05-31-2012,07:01,SPECI,,,0.0,,,9999.0,,6.0,3.0,30.02,1017.5,,,,,,,,,,,,,,,Clear,72000.0,,,73000.0,,,,,,
KRDR,05-31-2012,07:00,METAR,,270,4.0,,,9999.0,,6.0,3.0,30.02,1017.4,,,,,,,,,,,,,,,Clear,72000.0,,,73000.0,,,,,,
KRDR,05-31-2012,06:38,SPECI,,260,4.0,,,9999.0,,5.0,3.0,30.02,1017.5,,,,,,,,,,,,,,,Clear,72000.0,,,73000.0,,,,,,
KRDR,05-31-2012,06:31,SPECI,,250,4.0,,,9999.0,,5.0,3.0,30.02,1017.4,,,,,,,,,,,,,,,Clear,72000.0,,,73000.0,,,,,,
KRDR,05-31-2012,06:11,SPECI,,,0.0,,,9999.0,,6.0,4.0,30.01,1017.3,,,,,,,,,,,,,,,Clear,72000.0,,,73000.0,,,,,,
KRDR,05-31-2012,06:03,SPECI,,240,3.0,,,9999.0,,6.0,4.0,30.01,1017.3,,,,,,,,,,,,,,,Clear,72000.0,,,73000.0,,,,,,
KRDR,05-31-2012,06:00,METAR,,230,3.0,,,9999.0,,7.0,4.0,30.02,1017.3,,,,,,,,,,,,,,,Clear,72000.0,,,73000.0,,,,,,
KRDR,05-31-2012,05:00,METAR,,230,3.0,,,9999.0,,8.0,5.0,30.02,1017.4,,,,,,,,,,,,,,,Clear,72000.0,,,73000.0,,,,,,
KRDR,05-31-2012,04:16,SPECI,,230,4.0,,,9999.0,,7.0,5.0,30.01,1017.3,,,,,,,,,,,,,,,Clear,72000.0,,,73000.0,,,,,,
KRDR,05-31-2012,04:12,SPECI,,230,3.0,,,9999.0,,7.0,5.0,30.02,1017.4,,,,,,,,,,,,,,,Clear,72000.0,,,73000.0,,,,,,
KRDR,05-31-2012,04:00,METAR,,220,3.0,,,8000.0,Haze Smoke or Dust,8.0,5.0,30.02,1017.4,4,,,,,,,,,,,,,,Clear,72000.0,,,73000.0,,,,,,
KRDR,05-31-2012,03:38,SPECI,,,0.0,,,8000.0,Haze Smoke or Dust,10.0,5.0,30.02,1017.4,4,,,,,,,,,,,,,,Clear,72000.0,,,73000.0,,,,,,
KRDR,05-31-2012,03:29,SPECI,,200,3.0,,,8000.0,Haze Smoke or Dust,9.0,5.0,30.01,1017.3,4,,,,,,,,,,,,,,Clear,72000.0,,,73000.0,,,,,,
KRDR,05-31-2012,03:00,METAR,,200,3.0,,,9999.0,,11.0,4.0,30.01,1017.0,,,,,,,,,,,,,,,Clear,72000.0,,,73000.0,,,,,,
KRDR,05-31-2012,02:00,METAR,,,0.0,,,9999.0,,15.0,4.0,29.99,1016.6,,,,,,,,,,,,,,,Clear,72000.0,,,73000.0,,,,,,
KRDR,05-31-2012,01:00,METAR,,,0.0,,,9999.0,,16.0,4.0,29.99,1016.4,,,,,,,,,,,,,,,Clear,72000.0,,,73000.0,,,,,,
KRDR,05-31-2012,00:00,METAR,,270,5.0,,,9999.0,,17.0,3.0,29.99,1016.4,,,,,,,,,,,,,TRACE,,Clear,72000.0,,,73000.0,,,,,,
KRDR,05-30-2012,23:00,METAR,,60,3.0,,,9999.0,,17.0,2.0,29.99,1016.5,,,,,,,,,,,,,,,Clear,72000.0,,,73000.0,,,,,,
KRDR,05-30-2012,22:00,METAR,,250,5.0,,,9999.0,,16.0,3.0,30.00,1016.8,,,,,,,,,,,,,,,Clear,6000.0,,,73000.0,,,,,,
KRDR,05-30-2012,21:00,METAR,,190,5.0,,,9999.0,,15.0,3.0,30.00,1017.0,,,,,,,,,,,,TRACE,,,7/8 Mostly Cloudy,4900.0,,BKN,5000.0,,,,,,
KRDR,05-30-2012,20:00,METAR,,,3.0,,,9999.0,,16.0,3.0,30.01,1017.3,,,,,,,,,,,TRACE,,,,2/8 Mostly Clear,72000.0,,FEW,5000.0,,,,,,
KRDR,05-30-2012,19:23,SPECI,,,4.0,,,9999.0,,16.0,2.0,30.01,1017.3,,,,,,,,,,,,,,,2/8 Mostly Clear,72000.0,,FEW,5900.0,,,,,,
KRDR,05-30-2012,19:13,SPECI,,,4.0,,,9999.0,Light Rain,16.0,2.0,30.02,1017.4,61,,,,,,,,,,,,,,Clear,72000.0,,,73000.0,,,,,,
KRDR,05-30-2012,19:00,METAR,,,0.0,,,9999.0,,15.0,1.0,30.02,1017.6,,,,,,,,,,,,,,,2/8 Mostly Clear,72000.0,,FEW,5000.0,,,,,,
KRDR,05-30-2012,18:00,METAR,,,6.0,,,9999.0,Haze Smoke or Dust,14.0,3.0,30.03,1017.7,4,,,,,,,,,,,,,,2/8 Mostly Clear,72000.0,,FEW,4800.0,,,,,,
KRDR,05-30-2012,17:00,METAR,,,0.0,,,9999.0,,14.0,3.0,30.03,1017.7,,,,,,,,,,,,,,,Clear,72000.0,,,73000.0,,,,,,
KRDR,05-30-2012,16:00,METAR,,,4.0,,,9999.0,,13.0,3.0,30.04,1018.3,,,,,,,,,,,,,,,Clear,72000.0,,,73000.0,,,,,,
KRDR,05-30-2012,15:00,METAR,,290,4.0,,,9999.0,,12.0,3.0,30.06,1018.8,,,,,,,,,,,,,,,Clear,72000.0,,,73000.0,,,,,,
KRDR,05-30-2012,14:00,METAR,,330,3.0,,,9999.0,,10.0,4.0,30.07,1019.1,,,,,,,,,,,,,,,Clear,72000.0,,,73000.0,,,,,,
KRDR,05-30-2012,13:00,METAR,,280,3.0,,,9999.0,,8.0,5.0,30.07,1019.1,,,,,,,,,,,,,,,Clear,72000.0,,,73000.0,,,,,,
KRDR,05-30-2012,12:00,METAR,,,0.0,,,9999.0,,3.0,2.0,30.06,1018.7,,,,,,,,,,,,,,.02 IN,Clear,72000.0,,,73000.0,,,,,,
KRDR,05-30-2012,11:00,METAR,,,0.0,,,9999.0,,1.0,0.0,30.05,1018.4,,,,,,,,,,,,,,,Clear,72000.0,,,73000.0,,,,,,
KRDR,05-30-2012,10:00,METAR,,,0.0,,,9999.0,,1.0,0.0,30.04,1018.1,,,,,,,,,,,,,,,Clear,72000.0,,,73000.0,,,,,,
KRDR,05-30-2012,09:00,METAR,,290,4.0,,,9999.0,,1.0,0.0,30.04,1018.2,,,,,,,,,,,,,,,Clear,72000.0,,,73000.0,,,,,,
KRDR,05-30-2012,08:00,METAR,,300,3.0,,,9999.0,,1.0,1.0,30.04,1018.1,,,,,,,,,,,,,,,Clear,72000.0,,,73000.0,,,,,,
KRDR,05-30-2012,07:00,METAR,,,0.0,,,9999.0,,2.0,1.0,30.03,1018.0,,,,,,,,,,,,,,,Clear,72000.0,,,73000.0,,,,,,
KRDR,05-30-2012,06:00,METAR,,300,5.0,,,9999.0,,3.0,2.0,30.04,1018.0,,,,,,,,,,,,,,,Clear,72000.0,,,73000.0,,,,,,
KRDR,05-30-2012,05:00,METAR,,280,4.0,,,9999.0,,4.0,2.0,30.04,1018.1,,,,,,,,,,,,,,,Clear,72000.0,,,73000.0,,,,,,
KRDR,05-30-2012,04:00,METAR,,320,5.0,,,9999.0,,6.0,4.0,30.03,1018.0,,,,,,,,,,,,,,,Clear,72000.0,,,73000.0,,,,,,
KRDR,05-30-2012,03:00,METAR,,350,7.0,,,9999.0,,8.0,5.0,30.02,1017.5,,,,,,,,,,,,,,,7/8 Mostly Cloudy,4900.0,,FEW,3700.0,BKN,5000.0,,,,
KRDR,05-30-2012,02:00,METAR,,360,9.0,,,9999.0,,8.0,3.0,30.00,1016.8,,,,,,,,,,,,,,,2/8 Mostly Clear,72000.0,,FEW,5000.0,,,,,,
KRDR,05-30-2012,01:00,METAR,,10,10.0,,,9999.0,,10.0,5.0,29.99,1016.5,,,,,,,,,,,,,,,2/8 Mostly Clear,72000.0,,FEW,5000.0,,,,,,
KRDR,05-30-2012,00:00,METAR,,10,8.0,,,9999.0,,10.0,5.0,29.98,1016.3,,,,,,,,,,,.01 IN,,.02 IN,,8/8 Overcast,4000.0,,SCT,2900.0,BKN,4100.0,OVC,5900.0,,
KRDR,05-29-2012,23:51,SPECI,,10,8.0,,,9999.0,Light Rain,8.0,5.0,29.98,1016.3,61,,,,,,,,,,,,,,8/8 Overcast,4000.0,,SCT,2900.0,BKN,4100.0,OVC,5000.0,,
KRDR,05-29-2012,23:48,SPECI,,10,9.0,,,9999.0,Light Rain,8.0,5.0,29.98,1016.3,61,,,,,,,,,,,,,,7/8 Mostly Cloudy,2900.0,,BKN,2900.0,BKN,4100.0,BKN,5000.0,,
KRDR,05-29-2012,23:46,SPECI,,10,9.0,,,9999.0,Light Rain,8.0,5.0,29.98,1016.3,61,,,,,,,,,,,,,,7/8 Mostly Cloudy,3000.0,,BKN,3000.0,BKN,4100.0,BKN,5000.0,,
KRDR,05-29-2012,23:36,SPECI,,10,17.0,24.0,,8000.0,Light Rain,9.0,5.0,29.99,1016.5,61,,,,,,,,,,,,,,8/8 Overcast,2900.0,,BKN,2900.0,OVC,5900.0,,,,
KRDR,05-29-2012,23:33,SPECI,,20,21.0,,,9999.0,Light Rain,10.0,4.0,29.98,1016.3,61,,,,,,,,,,,,,,8/8 Overcast,3000.0,,BKN,3000.0,BKN,4700.0,OVC,5900.0,,
KRDR,05-29-2012,23:18,SPECI,,30,15.0,,,9999.0,,10.0,4.0,29.98,1016.1,,,,,,,,,,,,,,,7/8 Mostly Cloudy,3000.0,,BKN,3000.0,BKN,3600.0,BKN,5900.0,,
KRDR,05-29-2012,23:15,SPECI,,30,14.0,,,9999.0,,10.0,4.0,29.98,1016.0,,,,,,,,,,,,,,,7/8 Mostly Cloudy,2900.0,,BKN,2900.0,BKN,3600.0,BKN,5900.0,,
KRDR,05-29-2012,23:00,METAR,,10,16.0,21.0,,9999.0,,10.0,4.0,29.97,1015.8,,,,,,,,,,,TRACE,,,,8/8 Overcast,3600.0,,SCT,3000.0,BKN,3700.0,OVC,5900.0,,
KRDR,05-29-2012,22:22,SPECI,,10,14.0,20.0,,9999.0,,10.0,5.0,29.96,1015.6,,,,,,,,,,,,,,,7/8 Mostly Cloudy,3200.0,,SCT,2600.0,BKN,3300.0,BKN,4600.0,,
KRDR,05-29-2012,22:11,SPECI,,10,16.0,,,9999.0,,10.0,5.0,29.96,1015.5,,,,,,,,,,,,,,,7/8 Mostly Cloudy,2900.0,,FEW,2300.0,BKN,2900.0,BKN,3400.0,,
KRDR,05-29-2012,22:05,SPECI,,360,14.0,19.0,,9999.0,,9.0,6.0,29.96,1015.5,,,,,,,,,,,,,,,7/8 Mostly Cloudy,3100.0,,FEW,2200.0,SCT,2900.0,BKN,5900.0,,
KRDR,05-29-2012,22:00,METAR,,360,12.0,24.0,,9999.0,Light Rain,9.0,6.0,29.96,1015.5,61,,,,,,,,,,,,,,7/8 Mostly Cloudy,6000.0,,FEW,2200.0,SCT,2900.0,BKN,5900.0,,
KRDR,05-29-2012,21:51,SPECI,,10,17.0,25.0,020/26KTS,9999.0,Light Rain,10.0,5.0,29.96,1015.4,61,,,,,,,,,,,,,,8/8 Overcast,2800.0,,BKN,2800.0,BKN,4500.0,OVC,5900.0,,
KRDR,05-29-2012,21:49,SPECI,,10,19.0,25.0,020/26KTS,9999.0,Light Rain,10.0,5.0,29.96,1015.4,61,,,,,,,,,,,,,,7/8 Mostly Cloudy,2600.0,,SCT,2800.0,SCT,4500.0,BKN,5900.0,,
KRDR,05-29-2012,21:19,SPECI,,20,19.0,24.0,020/26KTS,9999.0,,9.0,4.0,29.95,1015.1,,,,,,,,,,,,,,,8/8 Overcast,3700.0,,SCT,2600.0,BKN,3800.0,OVC,5900.0,,
KRDR,05-29-2012,21:18,SPECI,,20,19.0,24.0,020/26KTS,9999.0,Light Rain,9.0,4.0,29.95,1015.1,61,,,,,,,,,,,,,,8/8 Overcast,3700.0,,SCT,2600.0,BKN,3800.0,OVC,5900.0,,
KRDR,05-29-2012,21:14,SPECI,,20,19.0,,020/26KTS,9999.0,Light Rain,8.0,5.0,29.95,1015.1,61,,,,,,,,,,,,,,7/8 Mostly Cloudy,2800.0,,FEW,2000.0,BKN,2800.0,BKN,4300.0,,
KRDR,05-29-2012,21:09,SPECI,,20,12.0,26.0,020/26KTS,9999.0,Light Rain,8.0,5.0,29.95,1015.2,61,,,,,,,,,,,,,,8/8 Overcast,3000.0,,SCT,2300.0,BKN,3000.0,OVC,5000.0,,
KRDR,05-29-2012,21:03,SPECI,,20,17.0,26.0,020/26KTS,9999.0,Light Rain,9.0,4.0,29.95,1015.1,61,,,,,,,,,,,,,,7/8 Mostly Cloudy,2800.0,,SCT,2100.0,BKN,2800.0,BKN,3700.0,,
KRDR,05-29-2012,21:02,SPECI,,20,17.0,26.0,020/26KTS,9999.0,Light Rain,10.0,4.0,29.95,1015.2,61,,,,,,,,,,,,,,7/8 Mostly Cloudy,3100.0,,SCT,2100.0,BKN,3100.0,BKN,5000.0,,
KRDR,05-29-2012,21:00,METAR,,30,17.0,21.0,360/27KTS,9999.0,,9.0,5.0,29.94,1015.0,,,,,,,,,,,.01 IN,.01 IN,,,7/8 Mostly Cloudy,3600.0,,FEW,2300.0,SCT,3000.0,BKN,3700.0,,
KRDR,05-29-2012,20:46,SPECI,,10,15.0,27.0,360/27KTS,9999.0,,9.0,5.0,29.94,1014.9,,,,,,,,,,,,,,,7/8 Mostly Cloudy,3600.0,,FEW,2100.0,SCT,3000.0,BKN,3700.0,,
KRDR,05-29-2012,20:32,SPECI,,10,14.0,23.0,,9999.0,Light Rain,9.0,5.0,29.94,1015.0,61,,,,,,,,,,,,,,8/8 Overcast,3200.0,,SCT,2600.0,BKN,3300.0,OVC,4900.0,,
KRDR,05-29-2012,20:28,SPECI,,10,15.0,23.0,,9999.0,Light Rain,10.0,5.0,29.94,1015.0,61,,,,,,,,,,,,,,8/8 Overcast,2200.0,,BKN,2600.0,BKN,3300.0,OVC,5900.0,,
KRDR,05-29-2012,20:26,SPECI,,20,18.0,23.0,,9999.0,Light Rain,10.0,4.0,29.94,1015.0,61,,,,,,,,,,,,,,8/8 Overcast,2700.0,,SCT,2600.0,BKN,3300.0,OVC,5900.0,,
KRDR,05-29-2012,20:00,METAR,,350,16.0,22.0,,9999.0,,11.0,4.0,29.93,1014.5,,,,,,,,,,,,,,,7/8 Mostly Cloudy,3400.0,,SCT,2800.0,BKN,3500.0,BKN,5000.0,,
KRDR,05-29-2012,19:48,SPECI,,340,15.0,21.0,,9999.0,,11.0,4.0,29.93,1014.4,,,,,,,,,,,,,,,8/8 Overcast,3200.0,,SCT,2700.0,BKN,3300.0,OVC,6900.0,,
KRDR,05-29-2012,19:45,SPECI,,340,15.0,,,9999.0,,11.0,4.0,29.92,1014.3,,,,,,,,,,,,,,,8/8 Overcast,2700.0,,BKN,2700.0,BKN,3600.0,OVC,5900.0,,
KRDR,05-29-2012,19:39,SPECI,,330,15.0,23.0,,9999.0,,11.0,4.0,29.92,1014.1,,,,,,,,,,,,,,,8/8 Overcast,3300.0,,SCT,2700.0,BKN,3400.0,OVC,5900.0,,
KRDR,05-29-2012,19:00,METAR,,350,17.0,23.0,,9999.0,,10.0,3.0,29.91,1014.0,,,,,,,,,,,,,,,7/8 Mostly Cloudy,4000.0,,FEW,2500.0,SCT,3200.0,BKN,4100.0,,
KRDR,05-29-2012,18:00,METAR,,340,16.0,21.0,,9999.0,,10.0,3.0,29.89,1013.3,,,,,,,,,,,TRACE,,TRACE,,8/8 Overcast,2600.0,,FEW,2000.0,BKN,4200.0,OVC,6900.0,,
KRDR,05-29-2012,17:28,SPECI,,350,14.0,22.0,,9999.0,,9.0,3.0,29.89,1013.2,,,,,,,,,,,,,,,8/8 Overcast,2500.0,,SCT,2600.0,BKN,3300.0,OVC,4000.0,,
KRDR,05-29-2012,17:20,SPECI,,350,17.0,22.0,,9999.0,,9.0,4.0,29.89,1013.2,,,,,,,,,,,,,,,8/8 Overcast,2400.0,,SCT,2500.0,BKN,3000.0,OVC,6900.0,,
KRDR,05-29-2012,17:19,SPECI,,350,18.0,22.0,,9999.0,,9.0,4.0,29.89,1013.2,,,,,,,,,,,,,,,8/8 Overcast,2400.0,,SCT,2500.0,BKN,3000.0,OVC,3700.0,,
KRDR,05-29-2012,17:11,SPECI,,10,16.0,22.0,,9999.0,,9.0,4.0,29.89,1013.1,,,,,,,,,,,,,,,8/8 Overcast,2500.0,,BKN,2700.0,BKN,3700.0,OVC,6900.0,,
KRDR,05-29-2012,17:06,SPECI,,340,14.0,23.0,,9999.0,,9.0,4.0,29.88,1013.0,,,,,,,,,,,,,,,8/8 Overcast,2600.0,,BKN,2700.0,BKN,3800.0,OVC,6900.0,,
KRDR,05-29-2012,17:00,METAR,,350,15.0,25.0,,9999.0,,10.0,4.0,29.88,1012.8,,,,,,,,,,,TRACE,,,,7/8 Mostly Cloudy,3300.0,,FEW,2500.0,BKN,3400.0,BKN,6900.0,,
KRDR,05-29-2012,16:44,SPECI,,350,20.0,24.0,,9999.0,,10.0,3.0,29.87,1012.7,,,,,,,,,,,,,,,8/8 Overcast,3500.0,,FEW,2500.0,BKN,3600.0,OVC,6900.0,,
KRDR,05-29-2012,16:35,SPECI,,360,16.0,21.0,,9999.0,,9.0,4.0,29.87,1012.7,,,,,,,,,,,,,,,8/8 Overcast,3000.0,,FEW,1200.0,BKN,3000.0,OVC,6900.0,,
KRDR,05-29-2012,16:34,SPECI,,360,16.0,21.0,,9999.0,,9.0,4.0,29.88,1012.7,,,,,,,,,,,,,,,8/8 Overcast,3100.0,,FEW,1200.0,BKN,3200.0,OVC,6900.0,,
KRDR,05-29-2012,16:32,SPECI,,360,15.0,21.0,,9999.0,,9.0,4.0,29.87,1012.7,,,,,,,,,,,,,,,8/8 Overcast,2500.0,,FEW,1200.0,BKN,2500.0,OVC,6900.0,,
KRDR,05-29-2012,16:12,SPECI,,340,14.0,21.0,,9999.0,,9.0,4.0,29.86,1012.4,,,,,,,,,,,,,,,8/8 Overcast,2300.0,,FEW,1400.0,SCT,2500.0,OVC,3400.0,,
KRDR,05-29-2012,16:00,METAR,,340,17.0,23.0,,9999.0,,8.0,4.0,29.86,1012.2,,,,,,,,,,,TRACE,,,,8/8 Overcast,2400.0,,SCT,1900.0,SCT,2400.0,OVC,2900.0,,
KRDR,05-29-2012,15:48,SPECI,,340,17.0,21.0,,9999.0,,8.0,4.0,29.86,1012.2,,,,,,,,,,,,,,,8/8 Overcast,2500.0,,SCT,1900.0,BKN,2500.0,OVC,2900.0,,
KRDR,05-29-2012,15:38,SPECI,,350,18.0,,,9999.0,Light Rain,8.0,4.0,29.86,1012.1,61,,,,,,,,,,,,,,8/8 Overcast,2000.0,,BKN,2000.0,BKN,2500.0,OVC,3500.0,,
KRDR,05-29-2012,15:34,SPECI,,330,15.0,19.0,,9999.0,,8.0,4.0,29.85,1012.0,,,,,,,,,,,,,,,8/8 Overcast,2800.0,,FEW,1700.0,BKN,2800.0,OVC,3600.0,,
KRDR,05-29-2012,15:29,SPECI,,340,14.0,19.0,,9999.0,,8.0,5.0,29.86,1012.1,,,,,,,,,,,,,,,8/8 Overcast,3000.0,,FEW,1700.0,BKN,3000.0,OVC,3600.0,,
KRDR,05-29-2012,15:28,SPECI,,340,12.0,18.0,,9999.0,Light Rain,8.0,5.0,29.86,1012.1,61,,,,,,,,,,,,,,8/8 Overcast,3000.0,,FEW,1700.0,BKN,3000.0,OVC,3600.0,,
KRDR,05-29-2012,15:17,SPECI,,360,17.0,22.0,,9999.0,,8.0,5.0,29.86,1012.2,,,,,,,,,,,,,,,8/8 Overcast,1700.0,,FEW,1700.0,BKN,2800.0,OVC,5900.0,,
KRDR,05-29-2012,15:00,METAR,,360,15.0,20.0,,9999.0,,7.0,5.0,29.85,1012.0,,,,,,,,,,,,,,,8/8 Overcast,1700.0,,BKN,1700.0,OVC,2400.0,,,,
KRDR,05-29-2012,14:16,SPECI,,330,16.0,22.0,,9999.0,,8.0,5.0,29.84,1011.4,,,,,,,,,,,,,,,7/8 Mostly Cloudy,1800.0,,BKN,1800.0,BKN,2700.0,,,,
KRDR,05-29-2012,14:03,SPECI,,350,14.0,21.0,,9999.0,,8.0,4.0,29.83,1011.2,,,,,,,,,,,,,,,7/8 Mostly Cloudy,2500.0,,SCT,1900.0,BKN,2500.0,BKN,3600.0,,
KRDR,05-29-2012,14:00,METAR,,340,14.0,21.0,,9999.0,,8.0,4.0,29.83,1011.2,,,,,,,,,,,,,,,7/8 Mostly Cloudy,2500.0,,SCT,2100.0,SCT,2600.0,BKN,3700.0,,
KRDR,05-29-2012,13:41,SPECI,,350,15.0,19.0,,9999.0,,8.0,4.0,29.83,1011.1,,,,,,,,,,,,,,,7/8 Mostly Cloudy,1800.0,,SCT,1900.0,BKN,3500.0,,,,
KRDR,05-29-2012,13:33,SPECI,,350,17.0,20.0,,9999.0,,8.0,4.0,29.82,1010.9,,,,,,,,,,,,,,,7/8 Mostly Cloudy,1700.0,,BKN,1800.0,,,,,,
KRDR,05-29-2012,13:31,SPECI,,350,18.0,,,9999.0,,8.0,4.0,29.82,1010.9,,,,,,,,,,,,,,,4/8 Partly Cloudy,72000.0,,SCT,1800.0,,,,,,
KRDR,05-29-2012,13:00,METAR,,330,17.0,23.0,,9999.0,,7.0,4.0,29.81,1010.4,,,,,,,,,,,,,,,8/8 Overcast,1200.0,,OVC,1400.0,,,,,,
KRDR,05-29-2012,12:24,SPECI,,330,20.0,,,9999.0,,7.0,4.0,29.79,1010.0,,,,,,,,,,,,,,,8/8 Overcast,1200.0,,OVC,1400.0,,,,,,
KRDR,05-29-2012,12:16,SPECI,,340,14.0,23.0,,9999.0,,7.0,4.0,29.79,1009.8,,,,,,,,,,,,,,,8/8 Overcast,1200.0,,OVC,1600.0,,,,,,
KRDR,05-29-2012,12:10,SPECI,,330,16.0,22.0,,9999.0,,7.0,5.0,29.78,1009.7,,,,,,,,,,,,,,,8/8 Overcast,1200.0,,OVC,1400.0,,,,,,
KRDR,05-29-2012,12:05,SPECI,,340,13.0,22.0,,9999.0,,7.0,5.0,29.78,1009.6,,,,,,,,,,,,,,,8/8 Overcast,1200.0,,OVC,1500.0,,,,,,
KRDR,05-29-2012,12:00,METAR,,330,14.0,,,9999.0,,7.0,5.0,29.77,1009.4,,,,,,,,,,,TRACE,,.02 IN,.03 IN,8/8 Overcast,1100.0,,OVC,1300.0,,,,,,
KRDR,05-29-2012,11:33,SPECI,,320,16.0,20.0,,9999.0,,7.0,6.0,29.76,1009.0,,,,,,,,,,,,,,,8/8 Overcast,1100.0,,FEW,800.0,OVC,1300.0,,,,
KRDR,05-29-2012,11:26,SPECI,,330,12.0,,,9999.0,,7.0,6.0,29.76,1008.8,,,,,,,,,,,,,,,8/8 Overcast,1100.0,,FEW,800.0,OVC,1400.0,,,,
KRDR,05-29-2012,11:08,SPECI,,350,14.0,,,9999.0,,8.0,6.0,29.75,1008.5,,,,,,,,,,,,,,,8/8 Overcast,1000.0,,OVC,1300.0,,,,,,
KRDR,05-29-2012,11:06,SPECI,,340,11.0,,,9999.0,,8.0,6.0,29.74,1008.4,,,,,,,,,,,,,,,8/8 Overcast,1000.0,,OVC,1100.0,,,,,,
KRDR,05-29-2012,11:00,METAR,,350,14.0,19.0,,9999.0,,8.0,7.0,29.73,1008.0,,,,,,,,,,,,,,,8/8 Overcast,900.0,,OVC,1100.0,,,,,,
KRDR,05-29-2012,10:50,SPECI,,340,12.0,18.0,,9999.0,,8.0,7.0,29.73,1007.9,,,,,,,,,,,,,,,8/8 Overcast,800.0,,OVC,1100.0,,,,,,
KRDR,05-29-2012,10:49,SPECI,,350,11.0,18.0,,9999.0,,8.0,7.0,29.73,1007.8,,,,,,,,,,,,,,,8/8 Overcast,800.0,,OVC,1100.0,,,,,,
KRDR,05-29-2012,10:45,SPECI,,350,12.0,,,9999.0,Light Drizzle,8.0,7.0,29.72,1007.8,51,,,,,,,,,,,,,,8/8 Overcast,1000.0,,FEW,600.0,OVC,1200.0,,,,
KRDR,05-29-2012,10:41,SPECI,,350,11.0,19.0,,9999.0,,8.0,7.0,29.72,1007.8,,,,,,,,,,,,,,,8/8 Overcast,1100.0,,FEW,600.0,OVC,1100.0,,,,
KRDR,05-29-2012,10:37,SPECI,,350,11.0,19.0,,9999.0,,8.0,7.0,29.72,1007.7,,,,,,,,,,,,,,,8/8 Overcast,1100.0,,FEW,600.0,OVC,1100.0,,,,
KRDR,05-29-2012,10:33,SPECI,,340,14.0,19.0,,9999.0,,8.0,7.0,29.72,1007.6,,,,,,,,,,,,,,,8/8 Overcast,800.0,,SCT,600.0,OVC,1200.0,,,,
KRDR,05-29-2012,10:32,SPECI,,350,12.0,,,9999.0,,8.0,7.0,29.72,1007.7,,,,,,,,,,,,,,,8/8 Overcast,800.0,,BKN,800.0,OVC,1300.0,,,,
KRDR,05-29-2012,10:20,SPECI,,340,13.0,,,9999.0,Light Rain,8.0,7.0,29.72,1007.6,61,,,,,,,,,,,,,,8/8 Overcast,700.0,,BKN,700.0,OVC,1300.0,,,,
KRDR,05-29-2012,10:11,SPECI,,350,16.0,22.0,,8000.0,Light Rain/Mist,8.0,7.0,29.72,1007.5,61,10,,,,,,,,,,,,,8/8 Overcast,800.0,,BKN,800.0,OVC,1700.0,,,,
KRDR,05-29-2012,10:00,METAR,,350,11.0,16.0,,9999.0,Light Rain,9.0,8.0,29.70,1007.1,61,,,,,,,,,,.01 IN,,,,8/8 Overcast,900.0,,BKN,900.0,OVC,3000.0,,,,
KRDR,05-29-2012,09:04,SPECI,,340,12.0,21.0,,9999.0,Light Rain,9.0,8.0,29.67,1006.0,61,,,,,,,,,,,,,,8/8 Overcast,900.0,,BKN,900.0,OVC,1500.0,,,,
KRDR,05-29-2012,09:01,SPECI,,340,14.0,21.0,,9999.0,Light Rain,9.0,8.0,29.67,1006.0,61,,,,,,,,,,,,,,8/8 Overcast,600.0,,BKN,1000.0,OVC,1500.0,,,,
KRDR,05-29-2012,08:53,SPECI,,340,12.0,18.0,,9999.0,,10.0,8.0,29.66,1005.8,,,,,,,,,,,,,,,8/8 Overcast,900.0,,BKN,900.0,OVC,1300.0,,,,
KRDR,05-29-2012,08:51,SPECI,,340,15.0,,,9999.0,Light Drizzle,10.0,8.0,29.66,1005.7,51,,,,,,,,,,,,,,8/8 Overcast,1100.0,,OVC,1100.0,,,,,,
KRDR,05-29-2012,08:45,SPECI,,330,12.0,,,9999.0,Light Drizzle,10.0,8.0,29.66,1005.6,51,,,,,,,,,,,,,,8/8 Overcast,1000.0,,BKN,1200.0,OVC,2300.0,,,,
KRDR,05-29-2012,08:31,SPECI,,310,9.0,,,9999.0,,10.0,8.0,29.65,1005.4,,,,,,,,,,,,,,,7/8 Mostly Cloudy,1400.0,,BKN,1400.0,BKN,2300.0,,,,
KRDR,05-29-2012,08:22,SPECI,,320,8.0,,,9999.0,Light Drizzle,10.0,8.0,29.65,1005.2,51,,,,,,,,,,,,,,7/8 Mostly Cloudy,2100.0,,FEW,1500.0,BKN,2200.0,,,,
KRDR,05-29-2012,08:00,METAR,,310,9.0,,,9999.0,Light Rain,10.0,8.0,29.64,1004.9,61,,,,,,,,,,TRACE,,,,Clear,72000.0,,,73000.0,,,,,,
KRDR,05-29-2012,07:42,SPECI,,310,7.0,,,9999.0,,10.0,7.0,29.64,1004.9,,,,,,,,,,,,,,,2/8 Mostly Clear,72000.0,,FEW,8900.0,,,,,,
KRDR,05-29-2012,07:00,METAR,,290,5.0,,,9999.0,,10.0,8.0,29.63,1004.6,,,,,,,,,,,TRACE,,,,8/8 Overcast,11000.0,,OVC,11000.0,,,,,,
KRDR,05-29-2012,06:00,METAR,,290,4.0,,,9999.0,Light Drizzle,10.0,8.0,29.63,1004.6,51,,,,,,,,,,TRACE,,TRACE,,8/8 Overcast,2800.0,,FEW,2800.0,OVC,3800.0,,,,
KRDR,05-29-2012,05:54,SPECI,,290,5.0,,,9999.0,,10.0,8.0,29.63,1004.6,,,,,,,,,,,,,,,8/8 Overcast,3900.0,,SCT,3000.0,OVC,4000.0,,,,
KRDR,05-29-2012,05:31,SPECI,,310,5.0,,,9999.0,Light Drizzle,10.0,8.0,29.63,1004.7,51,,,,,,,,,,,,,,8/8 Overcast,3000.0,,BKN,3500.0,OVC,4300.0,,,,
KRDR,05-29-2012,05:08,SPECI,,290,7.0,,,9999.0,,10.0,7.0,29.63,1004.6,,,,,,,,,,,,,,,8/8 Overcast,3900.0,,OVC,4000.0,,,,,,
KRDR,05-29-2012,05:00,METAR,,310,4.0,,,9999.0,Light Drizzle,10.0,7.0,29.63,1004.6,51,,,,,,,,,,,,,,8/8 Overcast,3800.0,,BKN,3900.0,BKN,4700.0,OVC,5000.0,,
KRDR,05-29-2012,04:00,METAR,,260,3.0,,,9999.0,,10.0,8.0,29.64,1004.9,,,,,,,,,,,,,,,8/8 Overcast,4200.0,,SCT,4600.0,OVC,6900.0,,,,
KRDR,05-29-2012,03:00,METAR,,280,3.0,,,9999.0,,11.0,7.0,29.65,1005.2,,,,,,,,,,,,,,,8/8 Overcast,8000.0,,SCT,6900.0,OVC,7900.0,,,,
KRDR,05-29-2012,02:00,METAR,,260,4.0,,,9999.0,,12.0,6.0,29.65,1005.3,,,,,,,,,,,,,,,8/8 Overcast,6000.0,,BKN,5900.0,OVC,6900.0,,,,
KRDR,05-29-2012,01:00,METAR,,260,7.0,,,9999.0,,12.0,6.0,29.65,1005.4,,,,,,,,,,,,,,,8/8 Overcast,4900.0,,BKN,5000.0,OVC,9900.0,,,,
KRDR,05-29-2012,00:00,METAR,,270,12.0,18.0,,9999.0,,13.0,5.0,29.66,1005.6,,,,,,,,,,,,,,,8/8 Overcast,4900.0,,FEW,3800.0,OVC,5000.0,,,,
KRDR,05-28-2012,23:00,METAR,,300,11.0,17.0,,9999.0,,13.0,5.0,29.66,1005.6,,,,,,,,,,,,,,,8/8 Overcast,6000.0,,OVC,5900.0,,,,,,
KRDR,05-28-2012,22:00,METAR,,270,13.0,22.0,,9999.0,,14.0,5.0,29.65,1005.4,,,,,,,,,,,,,,,7/8 Mostly Cloudy,4100.0,,BKN,5900.0,,,,,,
KRDR,05-28-2012,21:00,METAR,,280,13.0,19.0,,9999.0,,14.0,6.0,29.64,1004.9,,,,,,,,,,,,,,,8/8 Overcast,4900.0,,FEW,4200.0,BKN,5000.0,OVC,5900.0,,
KRDR,05-28-2012,20:00,METAR,,260,13.0,,,9999.0,,14.0,7.0,29.63,1004.7,,,,,,,,,,,,,,,8/8 Overcast,3500.0,,OVC,3600.0,,,,,,
KRDR,05-28-2012,19:00,METAR,,260,7.0,,,9999.0,,15.0,8.0,29.63,1004.5,,,,,,,,,,,,,,,8/8 Overcast,3400.0,,OVC,3500.0,,,,,,
KRDR,05-28-2012,18:16,SPECI,,240,6.0,,,9999.0,,16.0,8.0,29.63,1004.6,,,,,,,,,,,,,,,7/8 Mostly Cloudy,3500.0,,SCT,2900.0,BKN,3600.0,,,,
KRDR,05-28-2012,18:00,METAR,,270,5.0,,,9999.0,,15.0,9.0,29.63,1004.8,,,,,,,,,,,,,.01 IN,,4/8 Partly Cloudy,72000.0,,SCT,2600.0,,,,,,
KRDR,05-28-2012,17:00,METAR,,320,9.0,,,9999.0,,15.0,9.0,29.65,1005.2,,,,,,,,,,,,,,,2/8 Mostly Clear,72000.0,,FEW,2300.0,,,,,,
KRDR,05-28-2012,16:00,METAR,,330,7.0,,,9999.0,,12.0,9.0,29.65,1005.2,,,,,,,,,,,.01 IN,,,,4/8 Partly Cloudy,72000.0,,SCT,4500.0,,,,,,
KRDR,05-28-2012,15:47,SPECI,,320,7.0,,,9999.0,,12.0,9.0,29.65,1005.4,,,,,,,,,,,,,,,4/8 Partly Cloudy,72000.0,,SCT,4400.0,,,,,,
KRDR,05-28-2012,15:23,SPECI,,280,6.0,,,9999.0,Light Rain,12.0,9.0,29.70,1006.8,61,,,,,,,,,,,,,,2/8 Mostly Clear,72000.0,,FEW,1600.0,,,,,,
KRDR,05-28-2012,15:09,SPECI,,280,9.0,,,9999.0,,12.0,10.0,29.70,1006.9,,,,,,,,,,,,,,,4/8 Partly Cloudy,72000.0,,SCT,1600.0,,,,,,
KRDR,05-28-2012,15:00,METAR,,270,10.0,,,9999.0,,12.0,10.0,29.71,1007.2,,,,,,,,,,,,,,,8/8 Overcast,1200.0,,OVC,1600.0,,,,,,
KRDR,05-28-2012,14:53,SPECI,,270,11.0,,,9999.0,,12.0,10.0,29.71,1007.2,,,,,,,,,,,,,,,8/8 Overcast,1200.0,,BKN,1400.0,OVC,1900.0,,,,
KRDR,05-28-2012,14:38,SPECI,,280,10.0,,,9999.0,,13.0,10.0,29.69,1006.7,,,,,,,,,,,,,,,7/8 Mostly Cloudy,1300.0,,BKN,1400.0,BKN,8900.0,,,,
KRDR,05-28-2012,14:00,METAR,,290,13.0,17.0,,9999.0,,15.0,11.0,29.64,1005.0,,,,,,,,,,,,,,,Clear,72000.0,,,73000.0,,,,,,
KRDR,05-28-2012,13:00,METAR,,280,7.0,,,9999.0,,14.0,11.0,29.63,1004.6,,,,,,,,,,,,,,,Clear,72000.0,,,73000.0,,,,,,
KRDR,05-28-2012,12:00,METAR,,310,4.0,,,9999.0,,13.0,10.0,29.61,1004.0,,,,,,,,,,,,,,.05 IN,Clear,72000.0,,,73000.0,,,,,,
KRDR,05-28-2012,11:15,SPECI,,290,7.0,,,9999.0,,12.0,10.0,29.62,1004.2,,,,,,,,,,,,,,,4/8 Partly Cloudy,72000.0,,SCT,1800.0,,,,,,
KRDR,05-28-2012,11:00,METAR,,300,6.0,,,9999.0,,13.0,10.0,29.61,1004.1,,,,,,,,,,,,,,,8/8 Overcast,1700.0,,OVC,1900.0,,,,,,
KRDR,05-28-2012,10:00,METAR,,280,6.0,,,9999.0,,13.0,11.0,29.62,1004.2,,,,,,,,,,,,,,,8/8 Overcast,2100.0,,OVC,2100.0,,,,,,
KRDR,05-28-2012,09:00,METAR,,290,3.0,,,9999.0,,13.0,12.0,29.62,1004.2,,,,,,,,,,,,,,,8/8 Overcast,2100.0,,OVC,2100.0,,,,,,
KRDR,05-28-2012,08:00,METAR,,270,3.0,,,9999.0,,13.0,12.0,29.63,1004.7,,,,,,,,,,,,,,,8/8 Overcast,2300.0,,FEW,700.0,OVC,2300.0,,,,
KRDR,05-28-2012,07:40,SPECI,,,0.0,,,9999.0,,13.0,12.0,29.63,1004.8,,,,,,,,,,,,,,,8/8 Overcast,900.0,,SCT,800.0,OVC,2200.0,,,,
KRDR,05-28-2012,07:11,SPECI,,80,4.0,,,9999.0,,13.0,12.0,29.63,1004.5,,,,,,,,,,,,,,,8/8 Overcast,800.0,,OVC,900.0,,,,,,
KRDR,05-28-2012,07:00,METAR,,,0.0,,,9999.0,,13.0,12.0,29.64,1004.8,,,,,,,,,,,,,,,8/8 Overcast,900.0,,OVC,1100.0,,,,,,
KRDR,05-28-2012,06:26,SPECI,,110,4.0,,,9999.0,,13.0,12.0,29.64,1004.9,,,,,,,,,,,,,,,8/8 Overcast,1100.0,,OVC,1100.0,,,,,,
KRDR,05-28-2012,06:00,METAR,,60,3.0,,,9999.0,,13.0,12.0,29.64,1005.0,,,,,,,,,,,,,TRACE,,8/8 Overcast,1200.0,,OVC,1200.0,,,,,,
KRDR,05-28-2012,05:21,SPECI,,20,4.0,,,9999.0,,13.0,13.0,29.63,1004.5,,,,,,,,,,,,,,,8/8 Overcast,1400.0,,SCT,1000.0,OVC,1400.0,,,,
KRDR,05-28-2012,05:19,SPECI,,20,4.0,,,9999.0,,13.0,12.0,29.62,1004.4,,,,,,,,,,,,,,,8/8 Overcast,1400.0,,SCT,1000.0,OVC,1400.0,,,,
KRDR,05-28-2012,05:18,SPECI,,10,4.0,,,9999.0,,13.0,12.0,29.62,1004.4,,,,,,,,,,,,,,,8/8 Overcast,800.0,,OVC,1400.0,,,,,,
KRDR,05-28-2012,05:05,SPECI,,320,5.0,,,9999.0,,13.0,12.0,29.62,1004.2,,,,,,,,,,,,,,,8/8 Overcast,1200.0,,OVC,1500.0,,,,,,
KRDR,05-28-2012,05:00,METAR,,320,4.0,,,9999.0,,13.0,13.0,29.62,1004.3,,,,,,,,,,,,,,,8/8 Overcast,1100.0,,OVC,1300.0,,,,,,
KRDR,05-28-2012,04:00,METAR,,330,7.0,,,9999.0,,14.0,13.0,29.60,1003.5,,,,,,,,,,,,,,,8/8 Overcast,1300.0,,FEW,500.0,OVC,1300.0,,,,
KRDR,05-28-2012,03:41,SPECI,,330,7.0,,,9999.0,,14.0,13.0,29.61,1004.0,,,,,,,,,,,,,,,8/8 Overcast,300.0,,SCT,400.0,OVC,1400.0,,,,
KRDR,05-28-2012,03:00,METAR,,320,7.0,,,9999.0,,14.0,14.0,29.61,1004.0,,,,,,,,,,,,TRACE,,,8/8 Overcast,400.0,,OVC,400.0,,,,,,
KRDR,05-28-2012,02:25,SPECI,,320,6.0,,,9999.0,,14.0,14.0,29.59,1003.2,,,,,,,,,,,,,,,8/8 Overcast,400.0,,OVC,400.0,,,,,,
KRDR,05-28-2012,02:23,SPECI,,320,7.0,,,9999.0,,14.0,14.0,29.59,1003.2,,,,,,,,,,,,,,,8/8 Overcast,300.0,,OVC,500.0,,,,,,
KRDR,05-28-2012,02:00,METAR,,320,6.0,,,9999.0,,14.0,14.0,29.59,1003.3,,,,,,,,,,,,,,,8/8 Overcast,400.0,,OVC,400.0,,,,,,
KRDR,05-28-2012,01:29,SPECI,,320,9.0,,,9999.0,,15.0,14.0,29.58,1002.9,,,,,,,,,,,,,,,8/8 Overcast,400.0,,OVC,400.0,,,,,,
KRDR,05-28-2012,01:21,SPECI,,320,7.0,,,9999.0,,15.0,14.0,29.58,1002.9,,,,,,,,,,,,,,,8/8 Overcast,500.0,,BKN,500.0,OVC,1000.0,,,,
KRDR,05-28-2012,01:14,SPECI,,320,8.0,,,9999.0,,15.0,14.0,29.58,1003.1,,,,,,,,,,,,,,,8/8 Overcast,400.0,,BKN,400.0,BKN,800.0,OVC,1400.0,,
KRDR,05-28-2012,01:10,SPECI,,320,8.0,,,9999.0,,15.0,14.0,29.58,1003.1,,,,,,,,,,,,,,,8/8 Overcast,500.0,,BKN,500.0,OVC,1300.0,,,,
KRDR,05-28-2012,01:00,METAR,,320,7.0,,,9999.0,Mist,15.0,15.0,29.58,1002.8,10,,,,,,,,,,,,,,8/8 Overcast,600.0,,BKN,600.0,OVC,1400.0,,,,
KRDR,05-28-2012,00:48,SPECI,,310,9.0,,,9999.0,,16.0,15.0,29.57,1002.8,,,,,,,,,,,,,,,8/8 Overcast,800.0,,OVC,800.0,,,,,,
KRDR,05-28-2012,00:34,SPECI,,320,8.0,,,9999.0,Light Rain,16.0,15.0,29.57,1002.7,61,,,,,,,,,,,,,,8/8 Overcast,500.0,,OVC,800.0,,,,,,
KRDR,05-28-2012,00:00,METAR,,10,4.0,,,9999.0,,17.0,16.0,29.55,1002.2,,,,,,,,,,,,,,,8/8 Overcast,800.0,,OVC,800.0,,,,,,
KRDR,05-27-2012,23:00,METAR,,100,7.0,,,9999.0,,16.0,15.0,29.55,1002.0,,,,,,,,,,,,,,,8/8 Overcast,700.0,,OVC,700.0,,,,,,
KRDR,05-27-2012,22:00,METAR,,80,9.0,,,9999.0,,16.0,14.0,29.55,1002.1,,,,,,,,,,,,,,,8/8 Overcast,800.0,,OVC,800.0,,,,,,
KRDR,05-27-2012,21:00,METAR,,70,12.0,,,9999.0,,15.0,14.0,29.57,1002.5,,,,,,,,,,,,,,,8/8 Overcast,700.0,,OVC,700.0,,,,,,
KRDR,05-27-2012,20:00,METAR,,80,9.0,17.0,,9999.0,,15.0,13.0,29.58,1003.1,,,,,,,,,,,,,,,8/8 Overcast,700.0,,OVC,700.0,,,,,,
KRDR,05-27-2012,19:00,METAR,,70,15.0,,,9999.0,,15.0,13.0,29.59,1003.2,,,,,,,,,,,,,,,8/8 Overcast,800.0,,OVC,800.0,,,,,,
KRDR,05-27-2012,18:00,METAR,,90,11.0,,,9999.0,,15.0,13.0,29.61,1003.9,,,,,,,,,,,,,.05 IN,,8/8 Overcast,800.0,,OVC,900.0,,,,,,
KRDR,05-27-2012,17:00,METAR,,80,11.0,,,9999.0,,14.0,13.0,29.63,1004.5,,,,,,,,,,,,,,,8/8 Overcast,800.0,,OVC,800.0,,,,,,
KRDR,05-27-2012,16:00,METAR,,90,18.0,23.0,,9999.0,,13.0,12.0,29.60,1003.8,,,,,,,,,,,,,,,8/8 Overcast,700.0,,OVC,700.0,,,,,,
KRDR,05-27-2012,15:00,METAR,,80,12.0,,,9999.0,,12.0,12.0,29.67,1005.9,,,,,,,,,,,TRACE,.05 IN,,,8/8 Overcast,600.0,,OVC,700.0,,,,,,
KRDR,05-27-2012,14:36,SPECI,,70,12.0,,,9999.0,,12.0,11.0,29.67,1006.0,,,,,,,,,,,,,,,8/8 Overcast,700.0,,OVC,700.0,,,,,,
KRDR,05-27-2012,14:17,SPECI,,90,12.0,20.0,,9999.0,,12.0,12.0,29.68,1006.2,,,,,,,,,,,,,,,8/8 Overcast,500.0,,BKN,600.0,OVC,1100.0,,,,
KRDR,05-27-2012,14:10,SPECI,,90,13.0,,,9999.0,Light Rain,12.0,11.0,29.66,1005.7,61,,,,,,,,,,,,,,8/8 Overcast,500.0,,BKN,600.0,OVC,1200.0,,,,
KRDR,05-27-2012,14:07,SPECI,,90,15.0,,,9999.0,Light Rain,12.0,11.0,29.67,1005.8,61,,,,,,,,,,,,,,8/8 Overcast,500.0,,BKN,800.0,OVC,1200.0,,,,
KRDR,05-27-2012,14:02,SPECI,,80,13.0,,,9999.0,Light Rain,12.0,11.0,29.67,1006.1,61,,,,,,,,,,,,,,8/8 Overcast,500.0,,BKN,600.0,OVC,1000.0,,,,
KRDR,05-27-2012,14:00,METAR,,80,12.0,,,9999.0,,12.0,11.0,29.68,1006.3,,,,,,,,,,,,,,,8/8 Overcast,500.0,,OVC,600.0,,,,,,
KRDR,05-27-2012,13:51,SPECI,,80,12.0,,,9999.0,Light Drizzle,12.0,11.0,29.69,1006.8,51,,,,,,,,,,,,,,8/8 Overcast,600.0,,OVC,600.0,,,,,,
KRDR,05-27-2012,13:47,SPECI,,90,9.0,,,9999.0,,12.0,11.0,29.71,1007.4,,,,,,,,,,,,,,,8/8 Overcast,500.0,,BKN,700.0,OVC,1100.0,,,,
KRDR,05-27-2012,13:36,SPECI,,70,9.0,,,9999.0,,12.0,11.0,29.73,1007.8,,,,,,,,,,,,,,,8/8 Overcast,500.0,,BKN,600.0,OVC,1100.0,,,,
KRDR,05-27-2012,13:24,SPECI,,80,10.0,,,9999.0,,12.0,11.0,29.72,1007.5,,,,,,,,,,,,,,,8/8 Overcast,1100.0,,FEW,600.0,OVC,1100.0,,,,
KRDR,05-27-2012,13:17,SPECI,,80,11.0,,,9999.0,,12.0,11.0,29.71,1007.3,,,,,,,,,,,,,,,8/8 Overcast,800.0,,FEW,800.0,OVC,1200.0,,,,
KRDR,05-27-2012,13:14,SPECI,,80,10.0,,,9999.0,,12.0,11.0,29.72,1007.5,,,,,,,,,,,,,,,8/8 Overcast,1000.0,,OVC,1000.0,,,,,,
KRDR,05-27-2012,13:08,SPECI,,90,10.0,,,9999.0,Light Rain,12.0,11.0,29.71,1007.4,61,,,,,,,,,,,,,,8/8 Overcast,1000.0,,OVC,1000.0,,,,,,
KRDR,05-27-2012,13:00,METAR,,80,12.0,,,9999.0,Light Rain,12.0,11.0,29.71,1007.4,61,,,,,,,,,,.03 IN,,,,8/8 Overcast,700.0,,OVC,800.0,,,,,,
KRDR,05-27-2012,12:10,SPECI,,120,11.0,,,9999.0,Light Rain,12.0,11.0,29.73,1007.8,61,,,,,,,,,,,,,,8/8 Overcast,600.0,,OVC,700.0,,,,,,
KRDR,05-27-2012,12:08,SPECI,,120,12.0,,,9999.0,,12.0,11.0,29.73,1007.8,,,,,,,,,,,,,,,8/8 Overcast,600.0,,OVC,700.0,,,,,,
KRDR,05-27-2012,12:00,METAR,,120,14.0,20.0,,9999.0,,12.0,11.0,29.72,1007.5,,,,,,,,,,,.04 IN,,.57 IN,.57 IN,8/8 Overcast,400.0,,OVC,600.0,,,,,,
KRDR,05-27-2012,11:45,SPECI,,120,13.0,20.0,,9999.0,,12.0,11.0,29.71,1007.1,,,,,,,,,,,,,,,8/8 Overcast,400.0,,OVC,600.0,,,,,,
KRDR,05-27-2012,11:36,SPECI,,110,12.0,,,9999.0,,12.0,11.0,29.70,1007.0,,,,,,,,,,,,,,,8/8 Overcast,400.0,,OVC,500.0,,,,,,
KRDR,05-27-2012,11:00,METAR,,80,15.0,,,9999.0,Light Rain,11.0,11.0,29.71,1007.3,61,,,,,,,,,,.15 IN,,,,8/8 Overcast,400.0,,OVC,500.0,,,,,,
KRDR,05-27-2012,10:48,SPECI,,70,16.0,,,9999.0,Light Rain,11.0,10.0,29.71,1007.3,61,,,,,,,,,,,,,,8/8 Overcast,500.0,,OVC,500.0,,,,,,
KRDR,05-27-2012,10:43,SPECI,,70,12.0,,,9999.0,Light Rain,11.0,11.0,29.74,1008.3,61,,,,,,,,,,,,,,8/8 Overcast,500.0,,OVC,600.0,,,,,,
KRDR,05-27-2012,10:36,SPECI,,110,8.0,18.0,,9999.0,Light Rain,11.0,10.0,29.79,1009.9,61,,,,,,,,,,,,,,8/8 Overcast,500.0,,OVC,500.0,,,,,,
KRDR,05-27-2012,10:31,SPECI,,90,14.0,,,9999.0,Rain/Mist,11.0,10.0,29.76,1008.9,62,10,,,,,,,,,,,,,8/8 Overcast,500.0,,OVC,500.0,,,,,,
KRDR,05-27-2012,10:17,SPECI,,100,14.0,22.0,,8000.0,Rain/Mist,11.0,10.0,29.75,1008.7,62,10,,,,,,,,,,,,,8/8 Overcast,600.0,,OVC,600.0,,,,,,
KRDR,05-27-2012,10:02,SPECI,,100,14.0,,,9999.0,Thunderstorm and Rain or Snow Showers/Mist,11.0,10.0,29.76,1008.8,92,10,,,,,,,,,,,,,8/8 Overcast,500.0,,OVC,600.0,,,,,,
KRDR,05-27-2012,10:00,METAR,,100,17.0,21.0,,8000.0,Rain/Mist,11.0,11.0,29.77,1009.2,62,10,,,,,,,,,.21 IN,,,,8/8 Overcast,600.0,,OVC,600.0,,,,,,
KRDR,05-27-2012,09:44,SPECI,,110,12.0,,,9999.0,Rain/Mist,11.0,11.0,29.80,1010.2,62,10,,,,,,,,,,,,,8/8 Overcast,600.0,,BKN,600.0,OVC,6900.0,,,,
KRDR,05-27-2012,09:38,SPECI,,100,12.0,,,9999.0,Light Rain,11.0,10.0,29.79,1010.0,61,,,,,,,,,,,,,,8/8 Overcast,600.0,,BKN,600.0,OVC,6900.0,,,,
KRDR,05-27-2012,09:35,SPECI,,100,11.0,24.0,,9999.0,Light Rain,11.0,10.0,29.79,1009.9,61,,,,,,,,,,,,,,8/8 Overcast,600.0,,BKN,600.0,OVC,6900.0,,,,
KRDR,05-27-2012,09:33,SPECI,,100,11.0,24.0,,9999.0,Light Rain,11.0,10.0,29.79,1009.9,61,,,,,,,,,,,,,,8/8 Overcast,7000.0,,SCT,600.0,OVC,6900.0,,,,
KRDR,05-27-2012,09:18,SPECI,,50,18.0,23.0,,6400.0,Heavy Rain/Mist,11.0,10.0,29.74,1008.3,63,10,,,,,,,,,,,,,8/8 Overcast,7000.0,,FEW,600.0,OVC,6900.0,,,,
KRDR,05-27-2012,09:15,SPECI,,50,17.0,22.0,,6400.0,Heavy Rain/Mist,11.0,10.0,29.75,1008.6,63,10,,,,,,,,,,,,,8/8 Overcast,7000.0,,FEW,600.0,OVC,6900.0,,,,
KRDR,05-27-2012,09:00,METAR,,70,13.0,,,6400.0,Heavy Rain/Mist,11.0,11.0,29.82,1010.9,63,10,,,,,,,,,,,,,8/8 Overcast,1400.0,,FEW,1400.0,SCT,2000.0,OVC,5000.0,,
KRDR,05-27-2012,08:47,SPECI,,60,12.0,,,4800.0,Heavy Rain/Mist,11.0,11.0,29.84,1011.4,63,10,,,,,,,,,,,,,8/8 Overcast,1300.0,,SCT,1400.0,BKN,1900.0,OVC,2600.0,,
KRDR,05-27-2012,08:35,SPECI,,60,12.0,,,6400.0,Heavy Rain/Mist,11.0,10.0,29.85,1011.9,63,10,,,,,,,,,,,,,8/8 Overcast,1400.0,,BKN,1400.0,OVC,2100.0,,,,
KRDR,05-27-2012,08:30,SPECI,,60,9.0,,,9999.0,Heavy Rain/Mist,11.0,10.0,29.86,1012.3,63,10,,,,,,,,,,,,,8/8 Overcast,1100.0,,OVC,1300.0,,,,,,
KRDR,05-27-2012,08:21,SPECI,,70,8.0,,,9999.0,Light Rain,11.0,10.0,29.87,1012.6,61,,,,,,,,,,,,,,8/8 Overcast,1400.0,,OVC,1400.0,,,,,,
KRDR,05-27-2012,08:00,METAR,,80,7.0,,,6400.0,Light Rain/Mist,11.0,10.0,29.90,1013.6,61,10,,,,,,,,,,,,,8/8 Overcast,500.0,,BKN,1600.0,OVC,2300.0,,,,
KRDR,05-27-2012,07:53,SPECI,,80,5.0,,,6400.0,Thunderstorm and Rain or Snow Showers/Mist,12.0,10.0,29.91,1014.0,92,10,,,,,,,,,,,,,8/8 Overcast,500.0,,SCT,1700.0,OVC,2300.0,,,,
KRDR,05-27-2012,07:49,SPECI,,80,6.0,,,6400.0,Thunderstorm and Rain or Snow Showers/Mist,12.0,10.0,29.91,1014.0,92,10,,,,,,,,,,,,,8/8 Overcast,400.0,,SCT,1700.0,OVC,2300.0,,,,
KRDR,05-27-2012,07:34,SPECI,,90,12.0,16.0,,9999.0,Thunderstorm and Rain or Snow Showers,13.0,9.0,29.89,1013.2,92,,,,,,,,,,,,,,8/8 Overcast,2400.0,,OVC,2400.0,,,,,,
KRDR,05-27-2012,07:30,SPECI,,90,10.0,16.0,,9999.0,,13.0,9.0,29.89,1013.1,,,,,,,,,,,,,,,8/8 Overcast,2400.0,,OVC,2400.0,,,,,,
KRDR,05-27-2012,07:00,METAR,,80,13.0,21.0,,9999.0,,13.0,8.0,29.84,1011.5,,,,,,,,,,,,,,,8/8 Overcast,2700.0,,OVC,2700.0,,,,,,
KRDR,05-27-2012,06:00,METAR,,70,15.0,20.0,,9999.0,,13.0,7.0,29.86,1012.2,,,,,,,,,,,,,TRACE,,8/8 Overcast,2400.0,,OVC,2800.0,,,,,,
KRDR,05-27-2012,05:00,METAR,,70,13.0,,,9999.0,,13.0,8.0,29.93,1014.4,,,,,,,,,,,TRACE,,,,8/8 Overcast,2800.0,,OVC,2800.0,,,,,,
KRDR,05-27-2012,04:37,SPECI,,70,11.0,,,9999.0,,13.0,8.0,29.95,1015.1,,,,,,,,,,,,,,,8/8 Overcast,2900.0,,OVC,2900.0,,,,,,
KRDR,05-27-2012,04:34,SPECI,,70,10.0,,,9999.0,,13.0,8.0,29.95,1015.2,,,,,,,,,,,,,,,8/8 Overcast,3000.0,,OVC,3000.0,,,,,,
KRDR,05-27-2012,04:25,SPECI,,70,10.0,,,9999.0,Light Drizzle,13.0,8.0,29.96,1015.6,51,,,,,,,,,,,,,,8/8 Overcast,3100.0,,OVC,3100.0,,,,,,
KRDR,05-27-2012,04:18,SPECI,,70,8.0,,,9999.0,,13.0,8.0,29.97,1015.9,,,,,,,,,,,,,,,8/8 Overcast,3100.0,,OVC,3100.0,,,,,,
KRDR,05-27-2012,04:00,METAR,,80,11.0,,,9999.0,Light Rain,14.0,7.0,29.98,1016.3,61,,,,,,,,,,TRACE,,,,8/8 Overcast,2900.0,,OVC,2900.0,,,,,,
KRDR,05-27-2012,03:41,SPECI,,80,12.0,,,9999.0,,14.0,6.0,29.98,1016.3,,,,,,,,,,,,,,,8/8 Overcast,2900.0,,OVC,2900.0,,,,,,
KRDR,05-27-2012,03:31,SPECI,,80,12.0,,,9999.0,Light Rain,15.0,7.0,29.98,1016.2,61,,,,,,,,,,,,,,8/8 Overcast,2900.0,,OVC,2900.0,,,,,,
KRDR,05-27-2012,03:05,SPECI,,80,10.0,,,9999.0,,15.0,6.0,29.98,1016.2,,,,,,,,,,,,,,,8/8 Overcast,2500.0,,OVC,2900.0,,,,,,
KRDR,05-27-2012,03:00,METAR,,90,10.0,,,9999.0,,15.0,6.0,29.99,1016.4,,,,,,,,,,,,,,,8/8 Overcast,3000.0,,OVC,3000.0,,,,,,
KRDR,05-27-2012,02:00,METAR,,80,12.0,,,9999.0,,16.0,6.0,30.00,1016.8,,,,,,,,,,,,,,,8/8 Overcast,4800.0,,BKN,4900.0,OVC,5900.0,,,,
KRDR,05-27-2012,01:00,METAR,,90,11.0,,,9999.0,,16.0,7.0,30.00,1016.8,,,,,,,,,,,,,,,8/8 Overcast,6000.0,,BKN,5900.0,OVC,8900.0,,,,
KRDR,05-27-2012,00:00,METAR,,70,13.0,,,9999.0,,16.0,6.0,30.01,1017.2,,,,,,,,,,,,,,,8/8 Overcast,8000.0,,OVC,7900.0,,,,,,
KRDR,05-26-2012,23:00,METAR,,70,14.0,20.0,,9999.0,,16.0,6.0,30.03,1017.9,,,,,,,,,,,,,,,8/8 Overcast,6000.0,,BKN,5900.0,OVC,8900.0,,,,
KRDR,05-26-2012,22:00,METAR,,60,15.0,20.0,,9999.0,,15.0,7.0,30.05,1018.6,,,,,,,,,,,,,,,8/8 Overcast,7000.0,,OVC,6900.0,,,,,,
KRDR,05-26-2012,21:00,METAR,,60,13.0,18.0,,9999.0,,16.0,7.0,30.08,1019.5,,,,,,,,,,,,,,,7/8 Mostly Cloudy,8000.0,,BKN,7900.0,,,,,,
KRDR,05-26-2012,20:00,METAR,,70,15.0,21.0,,9999.0,,14.0,7.0,30.12,1020.7,,,,,,,,,,,,,,,7/8 Mostly Cloudy,9000.0,,FEW,2500.0,BKN,8900.0,,,,
KRDR,05-26-2012,19:03,SPECI,,60,10.0,,,9999.0,,13.0,7.0,30.15,1021.8,,,,,,,,,,,,,,,7/8 Mostly Cloudy,9000.0,,SCT,2400.0,BKN,8900.0,,,,
KRDR,05-26-2012,19:00,METAR,,60,9.0,,,9999.0,,13.0,7.0,30.16,1022.0,,,,,,,,,,,,,,,7/8 Mostly Cloudy,2400.0,,SCT,2200.0,SCT,2700.0,BKN,8900.0,,
KRDR,05-26-2012,18:45,SPECI,,50,11.0,,,9999.0,,13.0,7.0,30.15,1021.9,,,,,,,,,,,,,,,7/8 Mostly Cloudy,2200.0,,SCT,2200.0,SCT,2700.0,BKN,8900.0,,
KRDR,05-26-2012,18:00,METAR,,70,9.0,,,9999.0,,12.0,6.0,30.17,1022.6,,,,,,,,,,,,,,,7/8 Mostly Cloudy,1700.0,,BKN,1900.0,BKN,8900.0,,,,
KRDR,05-26-2012,17:49,SPECI,,50,12.0,,,9999.0,,12.0,6.0,30.17,1022.5,,,,,,,,,,,,,,,7/8 Mostly Cloudy,1700.0,,BKN,1900.0,BKN,8900.0,,,,
KRDR,05-26-2012,17:00,METAR,,50,11.0,,,9999.0,,10.0,6.0,30.16,1022.2,,,,,,,,,,,,,,,7/8 Mostly Cloudy,9000.0,,BKN,8900.0,,,,,,
KRDR,05-26-2012,16:00,METAR,,40,11.0,,,9999.0,,7.0,5.0,30.19,1023.1,,,,,,,,,,,,,,,8/8 Overcast,9000.0,,OVC,8900.0,,,,,,
KRDR,05-26-2012,15:00,METAR,,20,7.0,,,9999.0,,6.0,4.0,30.22,1024.0,,,,,,,,,,,,,,,7/8 Mostly Cloudy,9000.0,,BKN,8900.0,,,,,,
KRDR,05-26-2012,14:33,SPECI,,10,7.0,,,9999.0,,6.0,4.0,30.22,1024.0,,,,,,,,,,,,,,,8/8 Overcast,9000.0,,FEW,900.0,OVC,8900.0,,,,
KRDR,05-26-2012,14:00,METAR,,50,4.0,,,9999.0,,6.0,4.0,30.21,1023.9,,,,,,,,,,,,,,,8/8 Overcast,10000.0,,OVC,9900.0,,,,,,
KRDR,05-26-2012,13:00,METAR,,130,5.0,,,9999.0,,5.0,4.0,30.23,1024.3,,,,,,,,,,,,,,,8/8 Overcast,9000.0,,OVC,8900.0,,,,,,
KRDR,05-26-2012,12:00,METAR,,30,7.0,,,9999.0,,5.0,4.0,30.18,1022.9,,,,,,,,,,,TRACE,,.06 IN,.06 IN,7/8 Mostly Cloudy,12000.0,,FEW,7900.0,BKN,12000.0,,,,
KRDR,05-26-2012,11:28,SPECI,,40,8.0,,,9999.0,,5.0,3.0,30.19,1023.1,,,,,,,,,,,,,,,4/8 Partly Cloudy,72000.0,,FEW,7900.0,SCT,12000.0,,,,
KRDR,05-26-2012,11:09,SPECI,,30,5.0,,,9999.0,,4.0,3.0,30.22,1024.0,,,,,,,,,,,,,,,2/8 Mostly Clear,72000.0,,FEW,7900.0,,,,,,
KRDR,05-26-2012,11:03,SPECI,,40,7.0,,,9999.0,,4.0,3.0,30.21,1023.7,,,,,,,,,,,,,,,Clear,72000.0,,,73000.0,,,,,,
KRDR,05-26-2012,11:00,METAR,,40,6.0,,,9999.0,,4.0,3.0,30.22,1023.9,,,,,,,,,,,.02 IN,,,,2/8 Mostly Clear,72000.0,,FEW,3000.0,,,,,,
KRDR,05-26-2012,10:00,METAR,,30,6.0,,,9999.0,Light Rain,5.0,4.0,30.23,1024.5,61,,,,,,,,,,.03 IN,,,,8/8 Overcast,7000.0,,BKN,6900.0,OVC,7900.0,,,,
KRDR,05-26-2012,09:00,METAR,,50,6.0,,,9999.0,Light Rain,6.0,4.0,30.22,1024.0,61,,,,,,,,,,.01 IN,.01 IN,,,4/8 Partly Cloudy,72000.0,,SCT,4100.0,,,,,,
KRDR,05-26-2012,08:06,SPECI,,50,7.0,,,9999.0,Unknown Precipitation,7.0,3.0,30.21,1023.7,40,,,,,,,,,,,,,,Clear,8000.0,,,73000.0,,,,,,
KRDR,05-26-2012,08:00,METAR,,40,5.0,,,9999.0,,7.0,3.0,30.23,1024.3,,,,,,,,,,,,,,,Clear,72000.0,,,73000.0,,,,,,
KRDR,05-26-2012,07:00,METAR,,10,3.0,,,9999.0,,6.0,3.0,30.21,1023.7,,,,,,,,,,,,,,,8/8 Overcast,11000.0,,OVC,11000.0,,,,,,
KRDR,05-26-2012,06:00,METAR,,40,6.0,,,9999.0,,6.0,2.0,30.18,1022.7,,,,,,,,,,,,,,,2/8 Mostly Clear,72000.0,,FEW,12000.0,,,,,,
KRDR,05-26-2012,05:00,METAR,,10,4.0,,,9999.0,,5.0,2.0,30.18,1022.9,,,,,,,,,,,,,,,Clear,72000.0,,,73000.0,,,,,,
KRDR,05-26-2012,04:00,METAR,,30,6.0,,,9999.0,,5.0,2.0,30.17,1022.3,,,,,,,,,,,,,,,Clear,72000.0,,,73000.0,,,,,,
KRDR,05-26-2012,03:00,METAR,,30,8.0,,,9999.0,,8.0,2.0,30.15,1021.7,,,,,,,,,,,,,,,Clear,72000.0,,,73000.0,,,,,,
KRDR,05-26-2012,02:00,METAR,,30,9.0,,,9999.0,,10.0,2.0,30.12,1020.8,,,,,,,,,,,,,,,Clear,72000.0,,,73000.0,,,,,,
KRDR,05-26-2012,01:00,METAR,,10,7.0,,,9999.0,,11.0,2.0,30.10,1020.1,,,,,,,,,,,,,,,Clear,72000.0,,,73000.0,,,,,,
KRDR,05-26-2012,00:00,METAR,,360,5.0,,,9999.0,,12.0,1.0,30.09,1019.7,,,,,,,,,,,,,,,8/8 Overcast,4900.0,,OVC,5000.0,,,,,,
KRDR,05-25-2012,23:00,METAR,,310,7.0,,,9999.0,,13.0,1.0,30.07,1019.3,,,,,,,,,,,,,,,7/8 Mostly Cloudy,4900.0,,BKN,5000.0,,,,,,
KRDR,05-25-2012,22:00,METAR,,320,10.0,,,9999.0,,12.0,1.0,30.05,1018.6,,,,,,,,,,,,,,,8/8 Overcast,4900.0,,OVC,5000.0,,,,,,
KRDR,05-25-2012,21:00,METAR,,320,10.0,16.0,,9999.0,,13.0,1.0,30.04,1018.0,,,,,,,,,,,,,,,8/8 Overcast,4900.0,,OVC,5000.0,,,,,,
KRDR,05-25-2012,20:00,METAR,,310,13.0,20.0,,9999.0,,14.0,2.0,30.01,1017.2,,,,,,,,,,,,,,,4/8 Partly Cloudy,72000.0,,FEW,4700.0,SCT,5900.0,,,,
KRDR,05-25-2012,19:00,METAR,,320,11.0,19.0,,9999.0,,12.0,2.0,30.01,1017.2,,,,,,,,,,,,,,,8/8 Overcast,4900.0,,OVC,5000.0,,,,,,
KRDR,05-25-2012,18:00,METAR,,310,13.0,,,9999.0,,12.0,2.0,29.99,1016.4,,,,,,,,,,,,,,,8/8 Overcast,6000.0,,SCT,4600.0,OVC,5900.0,,,,
KRDR,05-25-2012,17:00,METAR,,310,10.0,18.0,,9999.0,,13.0,2.0,29.95,1015.2,,,,,,,,,,,,,,,7/8 Mostly Cloudy,4700.0,,SCT,4700.0,BKN,5900.0,,,,
KRDR,05-25-2012,16:00,METAR,,270,17.0,22.0,,9999.0,,14.0,2.0,29.92,1014.3,,,,,,,,,,,,,,,7/8 Mostly Cloudy,4600.0,,BKN,4700.0,,,,,,
KRDR,05-25-2012,15:00,METAR,,280,5.0,,,9999.0,,12.0,3.0,29.90,1013.5,,,,,,,,,,,,,,,Clear,72000.0,,,73000.0,,,,,,
KRDR,05-25-2012,14:00,METAR,,260,8.0,,,9999.0,,11.0,4.0,29.89,1013.3,,,,,,,,,,,,,,,Clear,72000.0,,,73000.0,,,,,,
KRDR,05-25-2012,13:00,METAR,,250,6.0,,,9999.0,,9.0,4.0,29.88,1012.8,,,,,,,,,,,,,,,Clear,72000.0,,,73000.0,,,,,,
KRDR,05-25-2012,12:00,METAR,,270,3.0,,,9999.0,,5.0,3.0,29.85,1011.9,,,,,,,,,,,,,,,Clear,72000.0,,,73000.0,,,,,,
KRDR,05-25-2012,11:00,METAR,,280,5.0,,,9999.0,,3.0,1.0,29.84,1011.4,,,,,,,,,,,,,,,Clear,72000.0,,,73000.0,,,,,,
KRDR,05-25-2012,10:00,METAR,,290,5.0,,,9999.0,,4.0,2.0,29.83,1011.1,,,,,,,,,,,,,,,Clear,72000.0,,,73000.0,,,,,,
KRDR,05-25-2012,09:00,METAR,,280,5.0,,,9999.0,,5.0,2.0,29.80,1010.4,,,,,,,,,,,,,,,Clear,72000.0,,,73000.0,,,,,,
KRDR,05-25-2012,08:00,METAR,,290,6.0,,,9999.0,,6.0,1.0,29.77,1009.4,,,,,,,,,,,,,,,Clear,72000.0,,,73000.0,,,,,,
KRDR,05-25-2012,07:00,METAR,,290,6.0,,,9999.0,,7.0,1.0,29.75,1008.7,,,,,,,,,,,,,,,Clear,72000.0,,,73000.0,,,,,,
KRDR,05-25-2012,06:00,METAR,,300,7.0,,,9999.0,,9.0,2.0,29.74,1008.2,,,,,,,,,,,,,,,2/8 Mostly Clear,72000.0,,FEW,4500.0,,,,,,
KRDR,05-25-2012,05:00,METAR,,290,5.0,,,9999.0,,9.0,2.0,29.71,1007.2,,,,,,,,,,,,,,,7/8 Mostly Cloudy,4300.0,,BKN,4400.0,,,,,,
KRDR,05-25-2012,04:00,METAR,,310,9.0,,,9999.0,,10.0,2.0,29.69,1006.5,,,,,,,,,,,,,,,7/8 Mostly Cloudy,4200.0,,BKN,4300.0,,,,,,
KRDR,05-25-2012,03:00,METAR,,320,9.0,,,9999.0,,11.0,3.0,29.66,1005.5,,,,,,,,,,,,,,,7/8 Mostly Cloudy,4100.0,,BKN,4200.0,,,,,,
KRDR,05-25-2012,02:00,METAR,,320,12.0,,,9999.0,,12.0,3.0,29.63,1004.6,,,,,,,,,,,,,,,Clear,72000.0,,,73000.0,,,,,,
KRDR,05-25-2012,01:00,METAR,,310,13.0,18.0,,9999.0,,13.0,4.0,29.60,1003.5,,,,,,,,,,,,,,,Clear,72000.0,,,73000.0,,,,,,
KRDR,05-25-2012,00:00,METAR,,320,14.0,20.0,,9999.0,,14.0,4.0,29.56,1002.5,,,,,,,,,,,,,,,Clear,72000.0,,,73000.0,,,,,,
KRDR,05-24-2012,23:00,METAR,,300,15.0,20.0,,9999.0,,15.0,5.0,29.55,1002.0,,,,,,,,,,,,,,,Clear,72000.0,,,73000.0,,,,,,
KRDR,05-24-2012,22:00,METAR,,290,12.0,,,9999.0,,15.0,5.0,29.55,1001.9,,,,,,,,,,,,,,,Clear,72000.0,,,73000.0,,,,,,
KRDR,05-24-2012,21:00,METAR,,300,13.0,19.0,,9999.0,,17.0,6.0,29.54,1001.7,,,,,,,,,,,,,,,Clear,72000.0,,,73000.0,,,,,,
KRDR,05-24-2012,20:00,METAR,,300,15.0,,,9999.0,,17.0,6.0,29.52,1001.2,,,,,,,,,,,,,,,Clear,72000.0,,,73000.0,,,,,,
KRDR,05-24-2012,19:00,METAR,,300,14.0,,,9999.0,,18.0,6.0,29.51,1000.6,,,,,,,,,,,,,,,Clear,72000.0,,,73000.0,,,,,,
KRDR,05-24-2012,18:00,METAR,,300,12.0,,,9999.0,,18.0,6.0,29.51,1000.8,,,,,,,,,,,,,,,Clear,72000.0,,,73000.0,,,,,,
KRDR,05-24-2012,17:00,METAR,,280,12.0,17.0,,9999.0,,18.0,7.0,29.51,1000.7,,,,,,,,,,,,,,,Clear,72000.0,,,73000.0,,,,,,
KRDR,05-24-2012,16:00,METAR,,290,14.0,19.0,,9999.0,,18.0,5.0,29.50,1000.2,,,,,,,,,,,,,,,Clear,72000.0,,,73000.0,,,,,,
KRDR,05-24-2012,15:00,METAR,,300,11.0,18.0,,9999.0,,18.0,7.0,29.48,999.8,,,,,,,,,,,,,,,Clear,72000.0,,,73000.0,,,,,,
KRDR,05-24-2012,14:00,METAR,,290,8.0,,,9999.0,,16.0,9.0,29.49,1000.0,,,,,,,,,,,,,,,Clear,72000.0,,,73000.0,,,,,,
KRDR,05-24-2012,13:00,METAR,,280,8.0,,,9999.0,,15.0,8.0,29.49,1000.0,,,,,,,,,,,,,,,Clear,72000.0,,,73000.0,,,,,,
KRDR,05-24-2012,12:00,METAR,,290,3.0,,,9999.0,,11.0,8.0,29.50,1000.3,,,,,,,,,,,,,,,Clear,72000.0,,,73000.0,,,,,,
KRDR,05-24-2012,11:00,METAR,,280,6.0,,,9999.0,,11.0,7.0,29.50,1000.4,,,,,,,,,,,,,,,Clear,72000.0,,,73000.0,,,,,,
KRDR,05-24-2012,10:00,METAR,,270,6.0,,,9999.0,,9.0,7.0,29.49,1000.2,,,,,,,,,,,,,,,Clear,72000.0,,,73000.0,,,,,,
KRDR,05-24-2012,09:00,METAR,,220,6.0,,,9999.0,,9.0,7.0,29.48,999.8,,,,,,,,,,,,,,,Clear,72000.0,,,73000.0,,,,,,
KRDR,05-24-2012,08:00,METAR,,240,3.0,,,9999.0,,9.0,7.0,29.46,998.9,,,,,,,,,,,,,,,Clear,72000.0,,,73000.0,,,,,,
KRDR,05-24-2012,07:00,METAR,,290,5.0,,,9999.0,,10.0,7.0,29.46,999.1,,,,,,,,,,,,,,,Clear,72000.0,,,73000.0,,,,,,
KRDR,05-24-2012,06:00,METAR,,240,4.0,,,9999.0,,10.0,8.0,29.49,999.9,,,,,,,,,,,,,,,Clear,72000.0,,,73000.0,,,,,,
KRDR,05-24-2012,05:00,METAR,,240,4.0,,,9999.0,,12.0,9.0,29.47,999.2,,,,,,,,,,,,,,,Clear,72000.0,,,73000.0,,,,,,
KRDR,05-24-2012,04:00,METAR,,240,5.0,,,9999.0,,13.0,9.0,29.47,999.5,,,,,,,,,,,,,,,Clear,72000.0,,,73000.0,,,,,,
KRDR,05-24-2012,03:00,METAR,,220,5.0,,,9999.0,,14.0,9.0,29.44,998.5,,,,,,,,,,,,,,,Clear,72000.0,,,73000.0,,,,,,
KRDR,05-24-2012,02:00,METAR,,190,8.0,,,9999.0,,17.0,10.0,29.45,998.5,,,,,,,,,,,,,,,Clear,72000.0,,,73000.0,,,,,,
KRDR,05-24-2012,01:00,METAR,,190,6.0,,,9999.0,,19.0,11.0,29.44,998.4,,,,,,,,,,,,,,,Clear,72000.0,,,73000.0,,,,,,
KRDR,05-24-2012,00:00,METAR,,210,5.0,,,9999.0,,20.0,10.0,29.44,998.2,,,,,,,,,,,,,,,Clear,72000.0,,,73000.0,,,,,,
KRDR,05-23-2012,23:00,METAR,,270,8.0,,,9999.0,,20.0,7.0,29.43,998.2,,,,,,,,,,,,,,,4/8 Partly Cloudy,72000.0,,SCT,9900.0,SCT,12000.0,,,,
KRDR,05-23-2012,22:00,METAR,,260,8.0,,,9999.0,,21.0,7.0,29.41,997.5,,,,,,,,,,,,,,,Clear,72000.0,,,73000.0,,,,,,
KRDR,05-23-2012,21:00,METAR,,270,13.0,,,9999.0,,22.0,9.0,29.40,997.1,,,,,,,,,,,,,,,2/8 Mostly Clear,72000.0,,FEW,12000.0,,,,,,
KRDR,05-23-2012,20:00,METAR,,260,12.0,,,9999.0,,24.0,9.0,29.41,997.5,,,,,,,,,,,,,,,Clear,72000.0,,,73000.0,,,,,,
KRDR,05-23-2012,19:00,METAR,,230,11.0,,,9999.0,,23.0,11.0,29.42,997.8,,,,,,,,,,,,,,,2/8 Mostly Clear,72000.0,,FEW,8900.0,,,,,,
KRDR,05-23-2012,18:00,METAR,,220,9.0,,,9999.0,,22.0,12.0,29.42,997.8,,,,,,,,,,,,,,,Clear,72000.0,,,73000.0,,,,,,
KRDR,05-23-2012,17:00,METAR,,230,10.0,,,9999.0,,21.0,13.0,29.43,998.0,,,,,,,,,,,,,,,Clear,72000.0,,,73000.0,,,,,,
KRDR,05-23-2012,16:00,METAR,,230,8.0,,,9999.0,,21.0,12.0,29.42,997.8,,,,,,,,,,,,,,,Clear,72000.0,,,73000.0,,,,,,
KRDR,05-23-2012,15:00,METAR,,260,10.0,,,9999.0,,19.0,12.0,29.42,997.8,,,,,,,,,,,,,,,Clear,72000.0,,,73000.0,,,,,,
KRDR,05-23-2012,14:00,METAR,,250,10.0,16.0,,9999.0,,20.0,13.0,29.41,997.5,,,,,,,,,,,,,,,Clear,72000.0,,,73000.0,,,,,,
KRDR,05-23-2012,13:00,METAR,,270,9.0,,,9999.0,,18.0,12.0,29.41,997.4,,,,,,,,,,,,,,,Clear,72000.0,,,73000.0,,,,,,
KRDR,05-23-2012,12:00,METAR,,250,12.0,,,9999.0,,16.0,11.0,29.40,997.0,,,,,,,,,,,,,.03 IN,.31 IN,Clear,72000.0,,,73000.0,,,,,,
KRDR,05-23-2012,11:00,METAR,,270,9.0,,,9999.0,,17.0,11.0,29.37,996.0,,,,,,,,,,,,,,,2/8 Mostly Clear,72000.0,,FEW,12000.0,,,,,,
KRDR,05-23-2012,10:00,METAR,,270,12.0,,,9999.0,,18.0,12.0,29.35,995.6,,,,,,,,,,,,,,,Clear,72000.0,,,73000.0,,,,,,
KRDR,05-23-2012,09:00,METAR,,250,8.0,,,9999.0,,18.0,16.0,29.36,995.8,,,,,,,,,,,,.03 IN,,,Clear,72000.0,,,73000.0,,,,,,
KRDR,05-23-2012,08:00,METAR,,190,10.0,,,9999.0,,18.0,16.0,29.35,995.4,,,,,,,,,,,TRACE,,,,2/8 Mostly Clear,72000.0,,FEW,5900.0,,,,,,
KRDR,05-23-2012,07:07,SPECI,,200,12.0,,,9999.0,,18.0,16.0,29.36,995.7,,,,,,,,,,,,,,,4/8 Partly Cloudy,72000.0,,SCT,5900.0,,,,,,
KRDR,05-23-2012,07:02,SPECI,,200,11.0,,,9999.0,Light Rain,18.0,16.0,29.36,995.6,61,,,,,,,,,,,,,,7/8 Mostly Cloudy,7000.0,,SCT,5000.0,BKN,6900.0,,,,
KRDR,05-23-2012,07:00,SPECI,,190,13.0,,,9999.0,Thunderstorm and Rain or Snow Showers,18.0,16.0,29.35,995.6,92,,,,,,,,,,,,,,7/8 Mostly Cloudy,7000.0,,SCT,5000.0,BKN,6900.0,,,,
KRDR,05-23-2012,07:00,METAR,,210,11.0,,190/26KTS,8000.0,Thunderstorm and Rain or Snow Showers/Mist,19.0,16.0,29.37,995.9,92,10,,,,,,,,,.03 IN,,,,8/8 Overcast,6000.0,,OVC,5900.0,,,,,,
KRDR,05-23-2012,06:47,SPECI,,250,11.0,,190/26KTS,9999.0,Thunderstorm and Rain or Snow Showers,19.0,17.0,29.39,996.6,92,,,,,,,,,,,,,,8/8 Overcast,7000.0,,OVC,6900.0,,,,,,
KRDR,05-23-2012,06:46,SPECI,,250,12.0,,190/26KTS,9999.0,Light Rain,19.0,17.0,29.39,996.6,61,,,,,,,,,,,,,,8/8 Overcast,7000.0,,OVC,6900.0,,,,,,
KRDR,05-23-2012,06:34,SPECI,,210,12.0,22.0,190/26KTS,9999.0,,19.0,17.0,29.36,995.8,,,,,,,,,,,,,,,8/8 Overcast,7000.0,,OVC,6900.0,,,,,,
KRDR,05-23-2012,06:20,SPECI,,200,16.0,,190/26KTS,9999.0,Light Rain,20.0,17.0,29.36,995.8,61,,,,,,,,,,,,,,7/8 Mostly Cloudy,7000.0,,BKN,6900.0,,,,,,
KRDR,05-23-2012,06:00,METAR,,190,20.0,25.0,190/32KTS,9999.0,,21.0,17.0,29.36,995.7,,,,,,,,,,,TRACE,,.28 IN,,8/8 Overcast,6000.0,,OVC,5900.0,,,,,,
KRDR,05-23-2012,05:38,SPECI,,200,15.0,27.0,190/32KTS,9999.0,,21.0,17.0,29.36,995.7,,,,,,,,,,,,,,,7/8 Mostly Cloudy,6000.0,,BKN,5900.0,,,,,,
KRDR,05-23-2012,05:16,SPECI,,190,23.0,32.0,190/32KTS,9999.0,Light Rain,22.0,17.0,29.33,994.9,61,,,,,,,,,,,,,,Clear,72000.0,,,73000.0,,,,,,
KRDR,05-23-2012,05:07,SPECI,,190,21.0,29.0,180/29KTS,9999.0,,21.0,17.0,29.33,994.7,,,,,,,,,,,,,,,2/8 Mostly Clear,72000.0,,FEW,6900.0,,,,,,
KRDR,05-23-2012,05:00,METAR,,190,15.0,21.0,,9999.0,Light Rain,21.0,17.0,29.35,995.3,61,,,,,,,,,,.08 IN,,,,2/8 Mostly Clear,72000.0,,FEW,9900.0,,,,,,
KRDR,05-23-2012,04:38,SPECI,,200,14.0,22.0,,9999.0,,21.0,17.0,29.35,995.4,,,,,,,,,,,,,,,2/8 Mostly Clear,72000.0,,FEW,11000.0,,,,,,
KRDR,05-23-2012,04:33,SPECI,,190,15.0,22.0,,9999.0,,21.0,17.0,29.34,995.0,,,,,,,,,,,,,,,2/8 Mostly Clear,72000.0,,FEW,12000.0,,,,,,
KRDR,05-23-2012,04:13,SPECI,,200,13.0,,,9999.0,Rain/Thunderstorm,20.0,17.0,29.33,994.8,,,,17,61,,,,,,,,,,4/8 Partly Cloudy,72000.0,,FEW,200.0,SCT,4200.0,,,,
KRDR,05-23-2012,04:02,SPECI,,200,14.0,21.0,,4800.0,Thunderstorm with Rain or Snow/Light Rain Showers,20.0,17.0,29.35,995.3,,,,95,80,,,,,,,,,,8/8 Overcast,4400.0,,FEW,200.0,BKN,4500.0,OVC,6900.0,,
KRDR,05-23-2012,04:00,METAR,,190,16.0,50.0,210/50KTS,1200.0,Heavy Rain/Thunderstorm,21.0,18.0,29.34,995.1,,,,17,65,,,,,,.2 IN,,,,8/8 Overcast,3400.0,,FEW,200.0,BKN,3500.0,OVC,6900.0,,
KRDR,05-23-2012,04:00,SPECI,,190,13.0,21.0,,3200.0,Thunderstorm with Rain or Snow/Light Rain Showers,20.0,17.0,29.34,995.1,,,,95,80,,,,,,,,,,8/8 Overcast,4400.0,,FEW,200.0,BKN,4500.0,OVC,6900.0,,
KRDR,05-23-2012,03:58,SPECI,,190,16.0,34.0,,2000.0,Thunderstorm with Rain or Snow/Rain Showers/Mist,20.0,18.0,29.33,994.9,,,,95,81,10,,,,,,,,,8/8 Overcast,3800.0,,FEW,200.0,BKN,3900.0,OVC,6900.0,,
KRDR,05-23-2012,03:57,SPECI,,190,16.0,34.0,,1600.0,Heavy Thunderstorm with Rain or Snow/Heavy Rain Showers/Mist,20.0,18.0,29.34,995.0,,,,97,82,10,,,,,,,,,8/8 Overcast,3800.0,,FEW,200.0,BKN,3900.0,OVC,6900.0,,
KRDR,05-23-2012,03:55,SPECI,,180,17.0,50.0,,1200.0,Heavy Thunderstorm with Rain or Snow/Heavy Rain Showers/Mist,20.0,18.0,29.33,994.8,,,,97,82,10,,,,,,,,,8/8 Overcast,3300.0,,FEW,200.0,BKN,3400.0,OVC,6900.0,,
KRDR,05-23-2012,03:54,SPECI,,190,17.0,50.0,,800.0,Heavy Rain/Fog or Ice Fog/Thunderstorm,20.0,18.0,29.33,994.8,,,,17,65,44,,,,,,,,,8/8 Overcast,3300.0,,FEW,200.0,BKN,3400.0,OVC,6900.0,,
KRDR,05-23-2012,03:50,SPECI,,200,21.0,50.0,210/50KTS,1200.0,Heavy Rain/Thunderstorm,22.0,18.0,29.35,995.4,,,,17,65,,,,,,,,,,8/8 Overcast,3500.0,,FEW,200.0,BKN,3600.0,OVC,6900.0,,
KRDR,05-23-2012,03:49,SPECI,,190,25.0,50.0,210/50KTS,1200.0,Heavy Rain/Thunderstorm,22.0,18.0,29.36,995.6,,,,17,65,,,,,,,,,,8/8 Overcast,7000.0,,SCT,3700.0,OVC,6900.0,,,,
KRDR,05-23-2012,03:48,SPECI,,190,29.0,50.0,210/50KTS,1600.0,Heavy Rain/Thunderstorm,23.0,18.0,29.36,995.6,,,,17,65,,,,,,,,,,8/8 Overcast,7000.0,,SCT,3900.0,OVC,6900.0,,,,
KRDR,05-23-2012,03:47,SPECI,,200,36.0,50.0,210/50KTS,2000.0,Thunderstorm with Rain or Snow/Rain Showers/Squalls,23.0,17.0,29.36,995.6,,,,95,81,18,,,,,,,,,8/8 Overcast,7000.0,,SCT,4200.0,OVC,6900.0,,,,
KRDR,05-23-2012,03:45,SPECI,,160,26.0,38.0,160/38KTS,8000.0,Thunderstorm with Rain or Snow/Rain Showers,24.0,16.0,29.36,995.6,,,,95,81,,,,,,,,,,8/8 Overcast,7000.0,,FEW,700.0,BKN,6900.0,OVC,7900.0,,
KRDR,05-23-2012,03:43,SPECI,,160,17.0,22.0,,9999.0,Thunderstorm with Rain or Snow/Light Rain Showers,24.0,16.0,29.34,995.2,,,,95,80,,,,,,,,,,8/8 Overcast,7000.0,,FEW,700.0,BKN,6900.0,OVC,7900.0,,
KRDR,05-23-2012,03:36,SPECI,,190,4.0,16.0,,9999.0,Thunderstorm with Rain or Snow/Light Rain Showers,25.0,13.0,29.33,994.6,,,,95,80,,,,,,,,,,8/8 Overcast,7000.0,,OVC,6900.0,,,,,,
KRDR,05-23-2012,03:33,SPECI,,150,8.0,,,9999.0,Thunderstorm,25.0,13.0,29.32,994.4,,,,17,,,,,,,,,,,8/8 Overcast,7000.0,,OVC,6900.0,,,,,,
KRDR,05-23-2012,03:00,METAR,,130,13.0,,,9999.0,,25.0,13.0,29.32,994.5,,,,,,,,,,,,,,,2/8 Mostly Clear,72000.0,,FEW,7900.0,,,,,,
KRDR,05-23-2012,02:00,METAR,,120,10.0,,,9999.0,,27.0,13.0,29.36,995.8,,,,,,,,,,,,,,,7/8 Mostly Cloudy,7000.0,,BKN,6900.0,,,,,,
KRDR,05-23-2012,01:00,METAR,,140,12.0,,,9999.0,,28.0,13.0,29.40,996.9,,,,,,,,,,,,,,,Clear,72000.0,,,73000.0,,,,,,
KRDR,05-23-2012,00:00,METAR,,150,15.0,23.0,,9999.0,,29.0,12.0,29.40,997.2,,,,,,,,,,,,,,,Clear,72000.0,,,73000.0,,,,,,
KRDR,05-22-2012,23:00,METAR,,180,8.0,,,9999.0,,29.0,14.0,29.43,998.1,,,,,,,,,,,,,,,Clear,72000.0,,,73000.0,,,,,,
KRDR,05-22-2012,22:00,METAR,,120,9.0,19.0,,9999.0,,29.0,13.0,29.46,999.1,,,,,,,,,,,,,,,Clear,72000.0,,,73000.0,,,,,,
KRDR,05-22-2012,21:00,METAR,,110,11.0,15.0,,9999.0,,28.0,13.0,29.51,1000.7,,,,,,,,,,,,,,,Clear,72000.0,,,73000.0,,,,,,
KRDR,05-22-2012,20:00,METAR,,140,12.0,17.0,,9999.0,,26.0,13.0,29.56,1002.2,,,,,,,,,,,,,,,Clear,72000.0,,,73000.0,,,,,,
KRDR,05-22-2012,19:00,METAR,,130,9.0,,,9999.0,,24.0,13.0,29.60,1003.7,,,,,,,,,,,,,,,Clear,72000.0,,,73000.0,,,,,,
KRDR,05-22-2012,18:00,METAR,,150,5.0,,,9999.0,,22.0,12.0,29.64,1005.1,,,,,,,,,,,,,,,Clear,72000.0,,,73000.0,,,,,,
KRDR,05-22-2012,17:00,METAR,,90,6.0,,,9999.0,,21.0,12.0,29.66,1005.8,,,,,,,,,,,,,,,Clear,72000.0,,,73000.0,,,,,,
KRDR,05-22-2012,16:00,METAR,,,3.0,,,9999.0,,20.0,11.0,29.69,1006.6,,,,,,,,,,,,,,,Clear,72000.0,,,73000.0,,,,,,
KRDR,05-22-2012,15:00,METAR,,130,4.0,,,9999.0,,19.0,11.0,29.71,1007.3,,,,,,,,,,,,,,,Clear,72000.0,,,73000.0,,,,,,
KRDR,05-22-2012,14:00,METAR,,170,7.0,,,9999.0,,18.0,10.0,29.72,1007.7,,,,,,,,,,,,,,,Clear,72000.0,,,73000.0,,,,,,
KRDR,05-22-2012,13:00,METAR,,150,5.0,,,9999.0,,16.0,10.0,29.74,1008.4,,,,,,,,,,,,,,,Clear,72000.0,,,73000.0,,,,,,
KRDR,05-22-2012,12:00,METAR,,170,7.0,,,9999.0,,13.0,10.0,29.75,1008.7,,,,,,,,,,,,,TRACE,.05 IN,Clear,72000.0,,,73000.0,,,,,,
KRDR,05-22-2012,11:00,METAR,,130,7.0,,,9999.0,,14.0,10.0,29.76,1008.8,,,,,,,,,,,,,,,Clear,72000.0,,,73000.0,,,,,,
KRDR,05-22-2012,10:00,METAR,,160,4.0,,,9999.0,,15.0,11.0,29.76,1008.8,,,,,,,,,,,,,,,Clear,72000.0,,,73000.0,,,,,,
KRDR,05-22-2012,09:00,METAR,,210,7.0,,,9999.0,,17.0,12.0,29.77,1009.1,,,,,,,,,,,TRACE,0 IN,,,8/8 Overcast,8000.0,,FEW,5900.0,OVC,7900.0,,,,
KRDR,05-22-2012,08:41,SPECI,,220,10.0,,,9999.0,,17.0,11.0,29.77,1009.1,,,,,,,,,,,,,,,8/8 Overcast,8000.0,,FEW,5900.0,OVC,7900.0,,,,
KRDR,05-22-2012,08:28,SPECI,,230,7.0,,,9999.0,Light Rain,18.0,10.0,29.77,1009.4,61,,,,,,,,,,,,,,8/8 Overcast,8000.0,,FEW,5900.0,OVC,7900.0,,,,
KRDR,05-22-2012,08:26,SPECI,,220,9.0,22.0,,9999.0,,18.0,10.0,29.77,1009.4,,,,,,,,,,,,,,,8/8 Overcast,8000.0,,FEW,5900.0,OVC,7900.0,,,,
KRDR,05-22-2012,08:00,METAR,,210,11.0,,,9999.0,,18.0,7.0,29.78,1009.7,,,,,,,,,,,,,,,7/8 Mostly Cloudy,10000.0,,SCT,8900.0,BKN,12000.0,,,,
KRDR,05-22-2012,07:00,METAR,,200,11.0,,,9999.0,,19.0,7.0,29.81,1010.6,,,,,,,,,,,,,,,8/8 Overcast,11000.0,,OVC,11000.0,,,,,,
KRDR,05-22-2012,06:00,METAR,,190,14.0,,,9999.0,,19.0,7.0,29.82,1010.9,,,,,,,,,,,,,,,7/8 Mostly Cloudy,12000.0,,BKN,12000.0,,,,,,
KRDR,05-22-2012,05:00,METAR,,180,11.0,,,9999.0,,18.0,7.0,29.85,1012.0,,,,,,,,,,,,,,,7/8 Mostly Cloudy,12000.0,,FEW,7900.0,BKN,12000.0,,,,
KRDR,05-22-2012,04:00,METAR,,160,12.0,18.0,,9999.0,,19.0,6.0,29.86,1012.3,,,,,,,,,,,,,,,4/8 Partly Cloudy,72000.0,,SCT,12000.0,,,,,,
KRDR,05-22-2012,03:00,METAR,,150,12.0,,,9999.0,,20.0,4.0,29.89,1013.1,,,,,,,,,,,,,,,Clear,72000.0,,,73000.0,,,,,,
KRDR,05-22-2012,02:00,METAR,,140,12.0,,,9999.0,,20.0,4.0,29.91,1013.7,,,,,,,,,,,,,,,Clear,72000.0,,,73000.0,,,,,,
KRDR,05-22-2012,01:00,METAR,,160,10.0,,,9999.0,,20.0,5.0,29.94,1014.7,,,,,,,,,,,,,,,Clear,7000.0,,,73000.0,,,,,,
KRDR,05-22-2012,00:00,METAR,,150,10.0,,,9999.0,,21.0,6.0,29.96,1015.5,,,,,,,,,,,TRACE,,TRACE,,7/8 Mostly Cloudy,11000.0,,FEW,5900.0,BKN,11000.0,,,,
KRDR,05-21-2012,23:38,SPECI,,150,10.0,,,9999.0,,21.0,7.0,29.97,1015.7,,,,,,,,,,,,,,,8/8 Overcast,8000.0,,FEW,3900.0,BKN,7900.0,OVC,9900.0,,
KRDR,05-21-2012,23:26,SPECI,,160,9.0,,,9999.0,,21.0,7.0,29.97,1015.9,,,,,,,,,,,,,,,8/8 Overcast,7000.0,,FEW,4400.0,BKN,6900.0,OVC,8900.0,,
KRDR,05-21-2012,23:00,METAR,,170,12.0,,,9999.0,,22.0,8.0,29.98,1016.2,,,,,,,,,,,,,,,8/8 Overcast,10000.0,,FEW,6900.0,OVC,9900.0,,,,
KRDR,05-21-2012,22:00,METAR,,190,11.0,,,9999.0,,22.0,7.0,30.00,1016.8,,,,,,,,,,,,,,,7/8 Mostly Cloudy,12000.0,,SCT,8900.0,BKN,12000.0,,,,
KRDR,05-21-2012,21:00,METAR,,200,10.0,,,9999.0,,22.0,7.0,30.02,1017.6,,,,,,,,,,,,,,,8/8 Overcast,9000.0,,OVC,8900.0,,,,,,
KRDR,05-21-2012,20:00,METAR,,190,8.0,,,9999.0,,22.0,7.0,30.05,1018.5,,,,,,,,,,,,,,,8/8 Overcast,9000.0,,OVC,8900.0,,,,,,
KRDR,05-21-2012,19:29,SPECI,,210,12.0,19.0,,9999.0,,22.0,6.0,30.06,1018.9,,,,,,,,,,,,,,,8/8 Overcast,10000.0,,OVC,9900.0,,,,,,
KRDR,05-21-2012,19:00,METAR,,100,3.0,,,9999.0,,22.0,7.0,30.07,1019.1,,,,,,,,,,,,,,,8/8 Overcast,10000.0,,BKN,9900.0,OVC,11000.0,,,,
KRDR,05-21-2012,18:00,METAR,,160,6.0,,,9999.0,,21.0,7.0,30.09,1019.9,,,,,,,,,,,,,.05 IN,,7/8 Mostly Cloudy,10000.0,,FEW,7900.0,BKN,9900.0,,,,
KRDR,05-21-2012,17:00,METAR,,170,8.0,,,9999.0,,21.0,8.0,30.11,1020.5,,,,,,,,,,,.05 IN,,,,7/8 Mostly Cloudy,10000.0,,BKN,9900.0,BKN,12000.0,,,,
KRDR,05-21-2012,16:00,METAR,,150,9.0,,,9999.0,,20.0,8.0,30.14,1021.3,,,,,,,,,,,,,,,4/8 Partly Cloudy,72000.0,,SCT,12000.0,,,,,,
KRDR,05-21-2012,15:00,METAR,,130,6.0,,,9999.0,,17.0,8.0,30.15,1021.8,,,,,,,,,,,,,,,2/8 Mostly Clear,72000.0,,FEW,11000.0,,,,,,
KRDR,05-21-2012,14:35,SPECI,,130,4.0,,,9999.0,,16.0,9.0,30.15,,,,,,,,,,,,,,,,4/8 Partly Cloudy,72000.0,,SCT,11000.0,,,,,,
KRDR,05-21-2012,14:00,METAR,,140,5.0,,,9999.0,,14.0,9.0,30.16,1022.2,,,,,,,,,,,,,,,4/8 Partly Cloudy,72000.0,,SCT,9900.0,,,,,,
KRDR,05-21-2012,13:00,METAR,,,0.0,,,9999.0,,12.0,9.0,30.17,1022.4,,,,,,,,,,,,,,,8/8 Overcast,9000.0,,OVC,8900.0,,,,,,
KRDR,05-21-2012,12:00,METAR,,100,3.0,,,9999.0,,10.0,8.0,30.16,1022.1,,,,,,,,,,,,,TRACE,,7/8 Mostly Cloudy,9000.0,,BKN,8900.0,,,,,,
KRDR,05-21-2012,10:51,SPECI,,,0.0,,,9999.0,,9.0,7.0,30.17,1022.3,,,,,,,,,,,,,,,8/8 Overcast,8000.0,,FEW,5900.0,OVC,7900.0,,,,
KRDR,05-21-2012,10:39,SPECI,,,0.0,,,9999.0,Light Rain,8.0,7.0,30.17,1022.3,61,,,,,,,,,,,,,,8/8 Overcast,8000.0,,FEW,4900.0,SCT,5900.0,OVC,7900.0,,
KRDR,05-21-2012,10:00,METAR,,240,3.0,,,9999.0,,7.0,6.0,30.16,1022.1,,,,,,,,,,,,,,,8/8 Overcast,10000.0,,BKN,9900.0,OVC,12000.0,,,,
KRDR,05-21-2012,09:00,METAR,,270,3.0,,,9999.0,,6.0,4.0,30.16,1022.1,,,,,,,,,,,,,,,4/8 Partly Cloudy,72000.0,,FEW,9900.0,SCT,12000.0,,,,
KRDR,05-21-2012,08:00,METAR,,230,3.0,,,9999.0,,6.0,4.0,30.16,1022.1,,,,,,,,,,,,,,,Clear,72000.0,,,73000.0,,,,,,
KRDR,05-21-2012,07:00,METAR,,,0.0,,,9999.0,,6.0,4.0,30.16,1022.1,,,,,,,,,,,,,,,Clear,72000.0,,,73000.0,,,,,,
KRDR,05-21-2012,06:00,METAR,,,0.0,,,9999.0,,7.0,5.0,30.15,1021.8,,,,,,,,,,,,,,,Clear,72000.0,,,73000.0,,,,,,
KRDR,05-21-2012,05:00,METAR,,,0.0,,,9999.0,,7.0,5.0,30.14,1021.4,,,,,,,,,,,,,,,Clear,72000.0,,,73000.0,,,,,,
KRDR,05-21-2012,04:00,METAR,,,0.0,,,9999.0,,10.0,6.0,30.14,1021.4,,,,,,,,,,,,,,,Clear,72000.0,,,73000.0,,,,,,
KRDR,05-21-2012,03:00,METAR,,,0.0,,,9999.0,,11.0,6.0,30.13,1021.2,,,,,,,,,,,,,,,Clear,72000.0,,,73000.0,,,,,,
KRDR,05-21-2012,02:00,METAR,,,0.0,,,9999.0,,15.0,6.0,30.12,1020.8,,,,,,,,,,,,,,,Clear,72000.0,,,73000.0,,,,,,
KRDR,05-21-2012,01:00,METAR,,310,4.0,,,9999.0,,19.0,5.0,30.11,1020.6,,,,,,,,,,,,,,,Clear,72000.0,,,73000.0,,,,,,
KRDR,05-21-2012,00:00,METAR,,310,10.0,15.0,,9999.0,,20.0,3.0,30.11,1020.6,,,,,,,,,,,,,,,2/8 Mostly Clear,72000.0,,FEW,6900.0,,,,,,
KRDR,05-20-2012,23:00,METAR,,340,9.0,,,9999.0,,21.0,4.0,30.12,1020.8,,,,,,,,,,,,,,,2/8 Mostly Clear,72000.0,,FEW,6900.0,,,,,,
KRDR,05-20-2012,22:00,METAR,,340,10.0,,,9999.0,,20.0,3.0,30.13,1021.0,,,,,,,,,,,,,,,4/8 Partly Cloudy,72000.0,,SCT,6900.0,,,,,,
KRDR,05-20-2012,21:00,METAR,,340,11.0,,,9999.0,,20.0,5.0,30.13,1021.1,,,,,,,,,,,,,,,4/8 Partly Cloudy,72000.0,,SCT,6900.0,SCT,7900.0,,,,
KRDR,05-20-2012,20:00,METAR,,310,12.0,,,9999.0,,20.0,5.0,30.13,1021.0,,,,,,,,,,,,,,,2/8 Mostly Clear,72000.0,,FEW,7900.0,,,,,,
KRDR,05-20-2012,19:00,METAR,,310,9.0,,,9999.0,,19.0,4.0,30.13,1021.2,,,,,,,,,,,,,,,7/8 Mostly Cloudy,6000.0,,BKN,5900.0,BKN,7900.0,,,,
KRDR,05-20-2012,18:00,METAR,,10,8.0,,,9999.0,,19.0,5.0,30.14,1021.5,,,,,,,,,,,,,,,4/8 Partly Cloudy,72000.0,,SCT,6900.0,,,,,,
KRDR,05-20-2012,17:00,METAR,,360,9.0,,,9999.0,,18.0,5.0,30.14,1021.5,,,,,,,,,,,,,,,Clear,72000.0,,,73000.0,,,,,,
KRDR,05-20-2012,16:00,METAR,,10,12.0,,,9999.0,,15.0,11.0,30.13,1021.2,,,,,,,,,,,,,,,Clear,72000.0,,,73000.0,,,,,,
KRDR,05-20-2012,15:00,METAR,,340,9.0,,,9999.0,,14.0,10.0,30.13,1021.0,,,,,,,,,,,,,,,Clear,72000.0,,,73000.0,,,,,,
KRDR,05-20-2012,14:00,METAR,,300,4.0,,,9999.0,,11.0,10.0,30.11,1020.5,,,,,,,,,,,,,,,Clear,72000.0,,,73000.0,,,,,,
KRDR,05-20-2012,13:35,SPECI,,300,5.0,,,9999.0,,10.0,10.0,30.11,1020.4,,,,,,,,,,,,,,,4/8 Partly Cloudy,72000.0,,SCT,200.0,,,,,,
KRDR,05-20-2012,13:16,SPECI,,290,4.0,,,4800.0,Mist,9.0,9.0,30.11,1020.4,10,,,,,,,,,,,,,,8/8 Overcast,200.0,,OVC,200.0,,,,,,
KRDR,05-20-2012,13:12,SPECI,,290,4.0,,,3200.0,Mist,9.0,9.0,30.11,1020.4,10,,,,,,,,,,,,,,8/8 Overcast,200.0,,OVC,200.0,,,,,,
KRDR,05-20-2012,13:10,SPECI,,290,5.0,,,2400.0,Mist,9.0,9.0,30.11,1020.4,10,,,,,,,,,,,,,,8/8 Overcast,200.0,,OVC,200.0,,,,,,
KRDR,05-20-2012,13:07,SPECI,,290,5.0,,,2000.0,Mist,9.0,9.0,30.11,1020.4,10,,,,,,,,,,,,,,8/8 Overcast,200.0,,OVC,200.0,,,,,,
KRDR,05-20-2012,13:03,SPECI,,290,5.0,,,1600.0,Mist,9.0,9.0,30.11,1020.4,10,,,,,,,,,,,,,,Sky Obscured (Unable to Estimate),200.0,100.0,,200.0,,,,,,
KRDR,05-20-2012,13:02,SPECI,,300,4.0,,,1200.0,Mist,9.0,9.0,30.11,1020.4,10,,,,,,,,,,,,,,Sky Obscured (Unable to Estimate),200.0,100.0,,200.0,,,,,,
KRDR,05-20-2012,13:00,METAR,,290,3.0,,,1200.0,Mist,9.0,8.0,30.11,1020.4,10,,,,,,,,,,,,,,Sky Obscured (Unable to Estimate),100.0,100.0,,100.0,,,,,,
KRDR,05-20-2012,12:54,SPECI,,290,4.0,,,1200.0,Mist,9.0,8.0,30.11,1020.4,10,,,,,,,,,,,,,,Sky Obscured (Unable to Estimate),200.0,100.0,,200.0,,,,,,
KRDR,05-20-2012,12:49,SPECI,,300,3.0,,,1200.0,Mist,9.0,8.0,30.11,1020.3,10,,,,,,,,,,,,,,Sky Obscured (Unable to Estimate),100.0,100.0,,100.0,,,,,,
KRDR,05-20-2012,12:48,SPECI,,290,4.0,,,800.0,Fog,9.0,8.0,30.11,1020.3,30,,,,,,,,,,,,,,Sky Obscured (Unable to Estimate),100.0,100.0,,100.0,,,,,,
KRDR,05-20-2012,12:36,SPECI,,290,4.0,,,800.0,Fog,8.0,8.0,30.10,1020.2,30,,,,,,,,,,,,,,Sky Obscured (Unable to Estimate),100.0,100.0,,100.0,,,,,,
KRDR,05-20-2012,12:35,SPECI,,290,4.0,,,800.0,Fog,8.0,8.0,30.10,1020.3,30,,,,,,,,,,,,,,Sky Obscured (Unable to Estimate),100.0,100.0,,100.0,,,,,,
KRDR,05-20-2012,12:29,SPECI,,280,6.0,,,400.0,Fog,8.0,8.0,30.10,1020.2,30,,,,,,,,,,,,,,Sky Obscured (Unable to Estimate),100.0,100.0,,100.0,,,,,,
KRDR,05-20-2012,12:28,SPECI,,280,6.0,,,400.0,Fog,8.0,8.0,30.10,1020.2,30,,,,,,,,,,,,,,Sky Obscured (Unable to Estimate),100.0,100.0,,100.0,,,,,,
KRDR,05-20-2012,12:26,SPECI,,280,6.0,,,800.0,Fog,8.0,8.0,30.10,1020.2,30,,,,,,,,,,,,,,Sky Obscured (Unable to Estimate),100.0,100.0,,100.0,,,,,,
KRDR,05-20-2012,12:20,SPECI,,280,7.0,,,800.0,Fog,8.0,8.0,30.10,1020.2,30,,,,,,,,,,,,,,Sky Obscured (Unable to Estimate),100.0,100.0,,100.0,,,,,,
KRDR,05-20-2012,12:17,SPECI,,290,7.0,,,1200.0,Mist,8.0,8.0,30.10,1020.2,10,,,,,,,,,,,,,,Sky Obscured (Unable to Estimate),100.0,100.0,,100.0,,,,,,
KRDR,05-20-2012,12:16,SPECI,,290,7.0,,,800.0,Fog,8.0,8.0,30.10,1020.1,30,,,,,,,,,,,,,,Sky Obscured (Unable to Estimate),100.0,100.0,,100.0,,,,,,
KRDR,05-20-2012,12:08,SPECI,,290,7.0,,,800.0,Fog,8.0,8.0,30.10,1020.1,30,,,,,,,,,,,,,,Sky Obscured (Unable to Estimate),100.0,100.0,,100.0,,,,,,
KRDR,05-20-2012,12:00,METAR,,290,6.0,,,800.0,Fog or Ice Fog,8.0,8.0,30.09,1019.8,,,,45,,,,,,,,,,.6 IN,Sky Obscured (Unable to Estimate),100.0,100.0,,100.0,,,,,,
KRDR,05-20-2012,11:44,SPECI,,280,5.0,,,2800.0,Mist,8.0,8.0,30.09,1019.8,10,,,,,,,,,,,,,,4/8 Partly Cloudy,72000.0,,SCT,100.0,,,,,,
KRDR,05-20-2012,11:42,SPECI,,290,5.0,,,4000.0,Mist,8.0,7.0,30.09,1019.8,10,,,,,,,,,,,,,,4/8 Partly Cloudy,72000.0,,SCT,100.0,,,,,,
KRDR,05-20-2012,11:36,SPECI,,290,6.0,,,9999.0,Mist,7.0,7.0,30.09,1019.8,10,,,,,,,,,,,,,,2/8 Mostly Clear,72000.0,,FEW,100.0,,,,,,
KRDR,05-20-2012,11:00,METAR,,300,5.0,,,6400.0,Shallow Fog or Ice Fog,5.0,5.0,30.08,1019.6,,,,12,,,,,,,,,,,Clear,72000.0,,,73000.0,,,,,,
KRDR,05-20-2012,10:40,SPECI,,310,6.0,,,2400.0,Mist,5.0,5.0,30.08,,,,,10,,,,,,,,,,,Clear,72000.0,,,73000.0,,,,,,
KRDR,05-20-2012,10:00,METAR,,,0.0,,,9999.0,Patchy Fog or Ice Fog,6.0,6.0,30.09,1023.1,,,,41,,,,,,,,,,,Clear,72000.0,,,73000.0,,,,,,
KRDR,05-20-2012,09:51,SPECI,,,0.0,,,1600.0,Mist,6.0,6.0,30.09,1019.7,10,,,,,,,,,,,,,,Clear,72000.0,,,73000.0,,,,,,
KRDR,05-20-2012,09:50,SPECI,,,0.0,,,1600.0,Mist,6.0,6.0,30.09,1019.7,10,,,,,,,,,,,,,,Clear,72000.0,,,73000.0,,,,,,
KRDR,05-20-2012,09:40,SPECI,,,0.0,,,4800.0,Mist,6.0,6.0,30.09,1019.7,10,,,,,,,,,,,,,,Clear,72000.0,,,73000.0,,,,,,
KRDR,05-20-2012,09:32,SPECI,,,0.0,,,4000.0,Mist,6.0,6.0,30.09,1019.7,10,,,,,,,,,,,,,,Clear,72000.0,,,73000.0,,,,,,
KRDR,05-20-2012,09:13,SPECI,,,0.0,,,9999.0,,7.0,7.0,30.08,1019.5,,,,,,,,,,,,,,,4/8 Partly Cloudy,72000.0,,SCT,900.0,,,,,,
KRDR,05-20-2012,09:00,METAR,,140,6.0,,,9999.0,,8.0,8.0,30.08,1019.6,,,,,,,,,,,,,,,7/8 Mostly Cloudy,800.0,,BKN,900.0,,,,,,
KRDR,05-20-2012,08:44,SPECI,,130,4.0,,,9999.0,,6.0,6.0,30.08,1019.6,,,,,,,,,,,,,,,7/8 Mostly Cloudy,800.0,,BKN,900.0,,,,,,
KRDR,05-20-2012,08:00,METAR,,,0.0,,,8000.0,Patchy Fog or Ice Fog,5.0,5.0,30.04,1018.1,,,,41,,,,,,,,,,,Clear,72000.0,,,73000.0,,,,,,
KRDR,05-20-2012,07:00,METAR,,310,3.0,,,8000.0,Patchy Fog or Ice Fog,6.0,6.0,30.05,1018.6,,,,41,,,,,,,,,,,Clear,72000.0,,,73000.0,,,,,,
KRDR,05-20-2012,06:00,METAR,,310,4.0,,,8000.0,Mist,6.0,6.0,30.04,1018.2,,,,10,,,,,,,TRACE,,TRACE,,Clear,72000.0,,,73000.0,,,,,,
KRDR,05-20-2012,05:00,METAR,,,0.0,,,9999.0,,5.0,5.0,30.06,1018.7,,,,,,,,,,,,,,,Clear,72000.0,,,73000.0,,,,,,
KRDR,05-20-2012,04:00,METAR,,140,2.0,,,9999.0,,6.0,6.0,30.01,1019.6,,,,,,,,,,,,,,,Clear,72000.0,,,73000.0,,,,,,
KRDR,05-20-2012,03:53,SPECI,,110,1.0,,,9999.0,,6.0,6.0,30.01,,,,,,,,,,,,,,,,Clear,72000.0,,,73000.0,,,,,,
KRDR,05-20-2012,03:49,SPECI,,30,3.0,,,800.0,Fog,7.0,6.0,30.00,1016.7,30,,,,,,,,,,,,,,Clear,72000.0,,,73000.0,,,,,,
KRDR,05-20-2012,03:48,SPECI,,30,3.0,,,800.0,Fog,7.0,7.0,29.99,1016.6,30,,,,,,,,,,,,,,Clear,72000.0,,,73000.0,,,,,,
KRDR,05-20-2012,03:44,SPECI,,30,3.0,,,2800.0,Mist,7.0,7.0,29.99,1016.5,10,,,,,,,,,,,,,,Clear,72000.0,,,73000.0,,,,,,
KRDR,05-20-2012,03:42,SPECI,,40,3.0,,,4000.0,Mist,7.0,7.0,29.99,1016.5,10,,,,,,,,,,,,,,Clear,72000.0,,,73000.0,,,,,,
KRDR,05-20-2012,03:00,METAR,,90,3.0,,,9999.0,,10.0,8.0,30.01,1017.2,,,,,,,,,,,,,,,Clear,72000.0,,,73000.0,,,,,,
KRDR,05-20-2012,02:00,METAR,,50,5.0,,,9999.0,,12.0,9.0,30.00,1016.8,,,,,,,,,,,,,,,Clear,72000.0,,,73000.0,,,,,,
KRDR,05-20-2012,01:00,METAR,,10,6.0,,,9999.0,,13.0,10.0,29.98,1016.0,,,,,,,,,,,,,,,Clear,72000.0,,,73000.0,,,,,,
KRDR,05-20-2012,00:00,METAR,,10,11.0,,,9999.0,,13.0,10.0,29.97,1015.7,,,,,,,,,,,,,,,4/8 Partly Cloudy,72000.0,,SCT,1900.0,,,,,,
KRDR,05-19-2012,23:00,METAR,,350,9.0,,,9999.0,,13.0,10.0,29.96,1015.7,,,,,,,,,,,,,,,8/8 Overcast,1700.0,,OVC,2100.0,,,,,,
KRDR,05-19-2012,22:00,METAR,,350,11.0,,,9999.0,,13.0,10.0,29.94,1014.7,,,,,,,,,,,,,,,8/8 Overcast,1500.0,,OVC,1800.0,,,,,,
KRDR,05-19-2012,21:00,METAR,,360,15.0,19.0,,9999.0,,13.0,10.0,29.91,1013.9,,,,,,,,,,,,TRACE,,,8/8 Overcast,1300.0,,OVC,1600.0,,,,,,
KRDR,05-19-2012,20:23,SPECI,,350,14.0,19.0,,9999.0,,12.0,10.0,29.90,1013.6,,,,,,,,,,,,,,,8/8 Overcast,1200.0,,OVC,1500.0,,,,,,
KRDR,05-19-2012,20:00,METAR,,350,12.0,22.0,,9999.0,,11.0,10.0,29.89,1013.1,,,,,,,,,,,TRACE,,,,8/8 Overcast,1100.0,,OVC,1400.0,,,,,,
KRDR,05-19-2012,19:45,SPECI,,350,17.0,22.0,,9999.0,,11.0,9.0,29.89,1013.1,,,,,,,,,,,,,,,8/8 Overcast,1100.0,,BKN,1200.0,OVC,1700.0,,,,
KRDR,05-19-2012,19:15,SPECI,,340,16.0,20.0,,9999.0,Light Rain,11.0,9.0,29.88,1012.8,61,,,,,,,,,,,,,,8/8 Overcast,900.0,,OVC,1200.0,,,,,,
KRDR,05-19-2012,19:11,SPECI,,340,14.0,19.0,,9999.0,,10.0,9.0,29.87,1012.6,,,,,,,,,,,,,,,8/8 Overcast,900.0,,OVC,1100.0,,,,,,
KRDR,05-19-2012,19:10,SPECI,,340,15.0,19.0,,9999.0,,10.0,9.0,29.87,1012.6,,,,,,,,,,,,,,,8/8 Overcast,900.0,,BKN,1100.0,OVC,1700.0,,,,
KRDR,05-19-2012,19:04,SPECI,,340,12.0,,,9999.0,Light Drizzle,10.0,9.0,29.87,1012.7,51,,,,,,,,,,,,,,8/8 Overcast,1100.0,,BKN,1100.0,OVC,1700.0,,,,
KRDR,05-19-2012,19:00,METAR,,340,12.0,19.0,,9999.0,Light Rain,10.0,9.0,29.87,1012.5,61,,,,,,,,,,TRACE,,,,8/8 Overcast,700.0,,BKN,700.0,OVC,1600.0,,,,
KRDR,05-19-2012,18:49,SPECI,,340,12.0,21.0,,9999.0,Light Rain,10.0,9.0,29.87,1012.5,61,,,,,,,,,,,,,,8/8 Overcast,700.0,,SCT,700.0,SCT,1100.0,OVC,1600.0,,
KRDR,05-19-2012,18:00,METAR,,360,13.0,17.0,,9999.0,Light Rain,10.0,9.0,29.84,1011.7,61,,,,,,,,,,.08 IN,,.6 IN,,8/8 Overcast,700.0,,OVC,700.0,,,,,,
KRDR,05-19-2012,17:01,SPECI,,350,11.0,,,9999.0,Light Rain,10.0,9.0,29.81,1010.5,61,,,,,,,,,,,,,,8/8 Overcast,800.0,,OVC,900.0,,,,,,
KRDR,05-19-2012,17:00,METAR,,350,17.0,,,9999.0,Light Rain,10.0,8.0,29.80,1010.4,61,,,,,,,,,,TRACE,,,,8/8 Overcast,900.0,,OVC,1000.0,,,,,,
KRDR,05-19-2012,16:39,SPECI,,350,18.0,23.0,,9999.0,Light Rain,10.0,8.0,29.79,1010.0,61,,,,,,,,,,,,,,8/8 Overcast,1100.0,,OVC,1100.0,,,,,,
KRDR,05-19-2012,16:27,SPECI,,350,14.0,,,9999.0,,10.0,8.0,29.78,1009.7,,,,,,,,,,,,,,,8/8 Overcast,800.0,,OVC,1100.0,,,,,,
KRDR,05-19-2012,16:02,SPECI,,360,18.0,23.0,,9999.0,,10.0,9.0,29.75,1008.7,,,,,,,,,,,,,,,8/8 Overcast,800.0,,OVC,900.0,,,,,,
KRDR,05-19-2012,16:00,METAR,,360,18.0,25.0,,9999.0,Light Rain,10.0,8.0,29.74,1008.3,61,,,,,,,,,,TRACE,,,,8/8 Overcast,800.0,,OVC,900.0,,,,,,
KRDR,05-19-2012,15:09,SPECI,,360,17.0,23.0,,9999.0,,10.0,9.0,29.72,1007.7,,,,,,,,,,,,,,,8/8 Overcast,700.0,,OVC,700.0,,,,,,
KRDR,05-19-2012,15:00,METAR,,340,15.0,25.0,360/27KTS,9999.0,,9.0,8.0,29.72,1007.7,,,,,,,,,,,.07 IN,.52 IN,,,8/8 Overcast,700.0,,OVC,700.0,,,,,,
KRDR,05-19-2012,14:50,SPECI,,340,17.0,25.0,360/27KTS,9999.0,,9.0,8.0,29.72,1007.6,,,,,,,,,,,,,,,8/8 Overcast,700.0,,OVC,700.0,,,,,,
KRDR,05-19-2012,14:00,METAR,,350,17.0,22.0,,6400.0,Heavy Rain/Mist,10.0,9.0,29.71,1007.4,63,10,,,,,,,,,,,,,8/8 Overcast,700.0,,OVC,700.0,,,,,,
KRDR,05-19-2012,13:37,SPECI,,310,13.0,,020/29KTS,9999.0,Thunderstorm and Rain or Snow Showers,10.0,9.0,29.75,1008.6,92,,,,,,,,,,,,,,8/8 Overcast,600.0,,OVC,600.0,,,,,,
KRDR,05-19-2012,13:26,SPECI,,340,12.0,21.0,020/29KTS,9999.0,Light Rain/Mist,10.0,9.0,29.68,1006.5,61,10,,,,,,,,,,,,,8/8 Overcast,500.0,,BKN,500.0,OVC,1600.0,,,,
KRDR,05-19-2012,13:21,SPECI,,360,13.0,20.0,020/29KTS,4800.0,Thunderstorm and Rain or Snow Showers/Mist,10.0,9.0,29.67,1005.9,92,10,,,,,,,,,,,,,8/8 Overcast,500.0,,BKN,500.0,OVC,1600.0,,,,
KRDR,05-19-2012,13:19,SPECI,,10,13.0,24.0,020/29KTS,3200.0,Heavy Thunderstorm and Rain or Snow Showers/Mist,10.0,9.0,29.66,1005.7,95,10,,,,,,,,,,,,,8/8 Overcast,500.0,,BKN,500.0,OVC,1600.0,,,,
KRDR,05-19-2012,13:17,SPECI,,10,13.0,27.0,020/29KTS,2400.0,Heavy Thunderstorm and Rain or Snow Showers/Mist,10.0,9.0,29.66,1005.6,95,10,,,,,,,,,,,,,8/8 Overcast,500.0,,BKN,500.0,OVC,1800.0,,,,
KRDR,05-19-2012,13:15,SPECI,,10,12.0,29.0,020/29KTS,1600.0,Heavy Thunderstorm and Rain or Snow Showers/Mist,10.0,9.0,29.66,1005.7,95,10,,,,,,,,,,,,,8/8 Overcast,500.0,,BKN,500.0,OVC,1900.0,,,,
KRDR,05-19-2012,13:12,SPECI,,360,14.0,29.0,020/29KTS,1600.0,Heavy Thunderstorm and Rain or Snow Showers/Mist,10.0,9.0,29.67,1005.9,95,10,,,,,,,,,,,,,8/8 Overcast,500.0,,BKN,500.0,OVC,1700.0,,,,
KRDR,05-19-2012,13:11,SPECI,,360,15.0,29.0,020/29KTS,1200.0,Heavy Thunderstorm and Rain or Snow Showers/Mist,10.0,9.0,29.67,1005.8,95,10,,,,,,,,,,,,,8/8 Overcast,500.0,,BKN,500.0,OVC,1700.0,,,,
KRDR,05-19-2012,13:07,SPECI,,10,22.0,29.0,020/29KTS,1600.0,Heavy Thunderstorm and Rain or Snow Showers/Mist,10.0,9.0,29.65,1005.4,95,10,,,,,,,,,,,,,8/8 Overcast,500.0,,BKN,500.0,OVC,1200.0,,,,
KRDR,05-19-2012,13:06,SPECI,,10,21.0,29.0,020/29KTS,1600.0,Heavy Thunderstorm and Rain or Snow Showers/Mist,10.0,9.0,29.66,1005.6,95,10,,,,,,,,,,,,,8/8 Overcast,600.0,,BKN,600.0,OVC,1200.0,,,,
KRDR,05-19-2012,13:04,SPECI,,10,19.0,,,2000.0,Heavy Thunderstorm and Rain or Snow Showers/Mist,10.0,9.0,29.68,1006.2,95,10,,,,,,,,,,,,,8/8 Overcast,600.0,,OVC,600.0,,,,,,
KRDR,05-19-2012,13:01,SPECI,,350,14.0,19.0,,4000.0,Heavy Thunderstorm and Rain or Snow Showers/Mist,10.0,9.0,29.71,1007.4,95,10,,,,,,,,,,,,,8/8 Overcast,600.0,,OVC,600.0,,,,,,
KRDR,05-19-2012,13:00,METAR,,,0.0,,030/27KTS,9999.0,Thunderstorm and Rain or Snow Showers,10.0,9.0,29.75,1008.6,92,,,,,,,,,,TRACE,,,,8/8 Overcast,600.0,,OVC,600.0,,,,,,
KRDR,05-19-2012,12:49,SPECI,,50,6.0,18.0,030/27KTS,9999.0,Thunderstorm and Rain or Snow Showers,10.0,9.0,29.73,1008.1,92,,,,,,,,,,,,,,8/8 Overcast,600.0,,OVC,600.0,,,,,,
KRDR,05-19-2012,12:32,SPECI,,30,22.0,,,9999.0,Dry Thunderstorm,10.0,9.0,29.63,1004.7,91,,,,,,,,,,,,,,8/8 Overcast,600.0,,OVC,600.0,,,,,,
KRDR,05-19-2012,12:00,METAR,,360,13.0,,,9999.0,,10.0,9.0,29.68,1006.3,,,,,,,,,,,,,.03 IN,.03 IN,8/8 Overcast,600.0,,OVC,600.0,,,,,,
KRDR,05-19-2012,11:44,SPECI,,10,17.0,22.0,,9999.0,,10.0,9.0,29.67,1006.0,,,,,,,,,,,,,,,8/8 Overcast,600.0,,OVC,600.0,,,,,,
KRDR,05-19-2012,11:00,METAR,,10,16.0,25.0,,9999.0,,11.0,9.0,29.69,1006.5,,,,,,,,,,,.01 IN,,,,8/8 Overcast,700.0,,OVC,800.0,,,,,,
KRDR,05-19-2012,10:33,SPECI,,360,15.0,20.0,,9999.0,,11.0,10.0,29.68,1006.4,,,,,,,,,,,,,,,8/8 Overcast,800.0,,OVC,800.0,,,,,,
KRDR,05-19-2012,10:00,METAR,,10,14.0,,,9999.0,Dry Thunderstorm,11.0,10.0,29.67,1006.0,91,,,,,,,,,,.01 IN,,,,8/8 Overcast,900.0,,OVC,900.0,,,,,,
KRDR,05-19-2012,09:48,SPECI,,360,15.0,21.0,,9999.0,Dry Thunderstorm,11.0,10.0,29.67,1005.9,91,,,,,,,,,,,,,,8/8 Overcast,900.0,,OVC,900.0,,,,,,
KRDR,05-19-2012,09:45,SPECI,,10,12.0,21.0,,9999.0,Dry Thunderstorm,11.0,10.0,29.67,1005.9,91,,,,,,,,,,,,,,8/8 Overcast,1000.0,,OVC,1000.0,,,,,,
KRDR,05-19-2012,09:43,SPECI,,10,14.0,21.0,,9999.0,,11.0,10.0,29.66,1005.8,,,,,,,,,,,,,,,8/8 Overcast,1000.0,,OVC,1000.0,,,,,,
KRDR,05-19-2012,09:00,METAR,,10,13.0,18.0,,9999.0,Light Rain,11.0,10.0,29.66,1005.5,61,,,,,,,,,,.01 IN,.01 IN,,,7/8 Mostly Cloudy,1000.0,,BKN,1000.0,BKN,4900.0,BKN,5900.0,,
KRDR,05-19-2012,08:46,SPECI,,20,14.0,22.0,,9999.0,Light Rain,11.0,10.0,29.66,1005.5,61,,,,,,,,,,,,,,7/8 Mostly Cloudy,1000.0,,BKN,1000.0,BKN,4800.0,BKN,5900.0,,
KRDR,05-19-2012,08:44,SPECI,,20,16.0,22.0,,9999.0,Light Rain/Mist,11.0,10.0,29.65,1005.4,61,10,,,,,,,,,,,,,7/8 Mostly Cloudy,1000.0,,BKN,1000.0,BKN,4800.0,BKN,5900.0,,
KRDR,05-19-2012,08:19,SPECI,,20,13.0,19.0,,9999.0,Light Rain,12.0,9.0,29.66,1005.8,61,,,,,,,,,,,,,,8/8 Overcast,1100.0,,OVC,1100.0,,,,,,
KRDR,05-19-2012,08:11,SPECI,,20,13.0,,,9999.0,,12.0,9.0,29.67,1005.8,,,,,,,,,,,,,,,8/8 Overcast,1100.0,,OVC,1100.0,,,,,,
KRDR,05-19-2012,08:00,METAR,,10,15.0,,,9999.0,,12.0,9.0,29.66,1005.5,,,,,,,,,,,,,,,7/8 Mostly Cloudy,1300.0,,BKN,1300.0,BKN,11000.0,,,,
KRDR,05-19-2012,07:49,SPECI,,10,14.0,,,9999.0,,12.0,9.0,29.66,1005.7,,,,,,,,,,,,,,,7/8 Mostly Cloudy,1300.0,,BKN,1300.0,BKN,11000.0,,,,
KRDR,05-19-2012,07:00,METAR,,10,16.0,,,9999.0,,13.0,9.0,29.65,1005.4,,,,,,,,,,,,,,,2/8 Mostly Clear,72000.0,,FEW,11000.0,,,,,,
KRDR,05-19-2012,06:00,METAR,,30,9.0,,,9999.0,,14.0,10.0,29.65,1005.5,,,,,,,,,,,,,TRACE,,Clear,72000.0,,,73000.0,,,,,,
KRDR,05-19-2012,05:00,METAR,,10,11.0,,,9999.0,,14.0,10.0,29.63,1004.8,,,,,,,,,,,,,,,Clear,72000.0,,,73000.0,,,,,,
KRDR,05-19-2012,04:00,METAR,,20,12.0,,,9999.0,,15.0,10.0,29.63,1004.5,,,,,,,,,,,,,,,Clear,72000.0,,,73000.0,,,,,,
KRDR,05-19-2012,03:00,METAR,,10,11.0,,,9999.0,,17.0,9.0,29.62,1004.2,,,,,,,,,,,,TRACE,,,Clear,72000.0,,,73000.0,,,,,,
KRDR,05-19-2012,02:00,METAR,,360,14.0,22.0,010/26KTS,9999.0,,18.0,9.0,29.59,1003.4,,,,,,,,,,,,,,,Clear,72000.0,,,73000.0,,,,,,
KRDR,05-19-2012,01:00,METAR,,10,20.0,27.0,010/27KTS,9999.0,,22.0,10.0,29.59,1003.4,,,,,,,,,,,TRACE,,,,Clear,72000.0,,,73000.0,,,,,,
KRDR,05-19-2012,00:43,SPECI,,10,17.0,25.0,,9999.0,,22.0,11.0,29.59,1003.4,,,,,,,,,,,,,,,Clear,72000.0,,,73000.0,,,,,,
KRDR,05-19-2012,00:32,SPECI,,360,20.0,24.0,,9999.0,,24.0,11.0,29.59,1003.4,,,,,,,,,,,,,,,Clear,72000.0,,,73000.0,,,,,,
KRDR,05-19-2012,00:00,METAR,,10,12.0,,,9999.0,,23.0,11.0,29.58,1002.9,,,,,,,,,,,,,,,Clear,72000.0,,,73000.0,,,,,,
KRDR,05-18-2012,23:00,METAR,,10,16.0,21.0,,9999.0,,23.0,11.0,29.57,1002.7,,,,,,,,,,,,,,,Clear,72000.0,,,73000.0,,,,,,
KRDR,05-18-2012,22:00,METAR,,20,19.0,24.0,,9999.0,,26.0,11.0,29.55,1002.1,,,,,,,,,,,,,,,Clear,72000.0,,,73000.0,,,,,,
KRDR,05-18-2012,21:00,METAR,,30,8.0,,,9999.0,,30.0,13.0,29.55,1001.9,,,,,,,,,,,,,,,Clear,72000.0,,,73000.0,,,,,,
KRDR,05-18-2012,20:00,METAR,,,5.0,,,9999.0,,29.0,13.0,29.56,1002.2,,,,,,,,,,,,,,,Clear,72000.0,,,73000.0,,,,,,
KRDR,05-18-2012,19:00,METAR,,,3.0,,,9999.0,,28.0,12.0,29.56,1002.4,,,,,,,,,,,,,,,Clear,72000.0,,,73000.0,,,,,,
KRDR,05-18-2012,18:00,METAR,,110,4.0,,,9999.0,,25.0,12.0,29.58,1002.9,,,,,,,,,,,,,,,Clear,72000.0,,,73000.0,,,,,,
KRDR,05-18-2012,17:00,METAR,,30,8.0,,,9999.0,,24.0,13.0,29.58,1002.9,,,,,,,,,,,,,,,Clear,72000.0,,,73000.0,,,,,,
KRDR,05-18-2012,16:00,METAR,,50,7.0,,,9999.0,,22.0,12.0,29.59,1003.3,,,,,,,,,,,,,,,Clear,72000.0,,,73000.0,,,,,,
KRDR,05-18-2012,15:00,METAR,,30,10.0,,,9999.0,,19.0,10.0,29.59,1003.4,,,,,,,,,,,,,,,Clear,72000.0,,,73000.0,,,,,,
KRDR,05-18-2012,14:00,METAR,,30,12.0,,,9999.0,,18.0,10.0,29.60,1003.6,,,,,,,,,,,,,,,Clear,72000.0,,,73000.0,,,,,,
KRDR,05-18-2012,13:00,METAR,,30,6.0,,,9999.0,,16.0,10.0,29.61,1003.9,,,,,,,,,,,,,,,Clear,72000.0,,,73000.0,,,,,,
KRDR,05-18-2012,12:22,SPECI,,10,7.0,,,4800.0,Haze Smoke or Dust,14.0,10.0,29.59,1003.5,4,,,,,,,,,,,,,,Clear,72000.0,,,73000.0,,,,,,
KRDR,05-18-2012,12:00,METAR,,30,5.0,,,3200.0,Haze Smoke or Dust,13.0,10.0,29.59,1003.3,4,,,,,,,,,,,,,,Clear,72000.0,,,73000.0,,,,,,
KRDR,05-18-2012,11:39,SPECI,,30,3.0,,,4000.0,Haze Smoke or Dust,13.0,10.0,29.59,1003.4,4,,,,,,,,,,,,,,Clear,72000.0,,,73000.0,,,,,,
KRDR,05-18-2012,11:31,SPECI,,10,4.0,,,4800.0,Haze Smoke or Dust,12.0,9.0,29.59,1003.4,4,,,,,,,,,,,,,,Clear,72000.0,,,73000.0,,,,,,
KRDR,05-18-2012,11:22,SPECI,,20,6.0,,,9999.0,,11.0,9.0,29.58,,,,,,,,,,,,,,,,Clear,72000.0,,,73000.0,,,,,,
KRDR,05-18-2012,11:00,METAR,,20,5.0,,,4000.0,Haze Smoke or Dust,11.0,9.0,29.59,1003.4,4,,,,,,,,,,,,,,Clear,72000.0,,,73000.0,,,,,,
KRDR,05-18-2012,10:35,SPECI,,20,7.0,,,6400.0,Haze Smoke or Dust,12.0,8.0,29.59,1003.2,4,,,,,,,,,,,,,,Clear,72000.0,,,73000.0,,,,,,
KRDR,05-18-2012,10:22,SPECI,,20,6.0,,,6400.0,Haze Smoke or Dust,12.0,9.0,29.58,1003.1,4,,,,,,,,,,,,,,Clear,72000.0,,,73000.0,,,,,,
KRDR,05-18-2012,10:01,SPECI,,10,6.0,,,8000.0,Haze Smoke or Dust,14.0,9.0,29.59,1003.2,4,,,,,,,,,,,,,,Clear,72000.0,,,73000.0,,,,,,
KRDR,05-18-2012,10:00,METAR,,360,8.0,,,9999.0,,15.0,9.0,29.59,1003.2,,,,,,,,,,,,,,,Clear,72000.0,,,73000.0,,,,,,
KRDR,05-18-2012,09:00,METAR,,320,3.0,,,9999.0,,15.0,9.0,29.58,1002.9,,,,,,,,,,,,,,,Clear,72000.0,,,73000.0,,,,,,
KRDR,05-18-2012,08:00,METAR,,310,3.0,,,9999.0,,14.0,9.0,29.57,1002.5,,,,,,,,,,,,,,,Clear,72000.0,,,73000.0,,,,,,
KRDR,05-18-2012,07:00,METAR,,230,3.0,,,9999.0,,15.0,10.0,29.56,1002.5,,,,,,,,,,,,,,,Clear,72000.0,,,73000.0,,,,,,
KRDR,05-18-2012,06:00,METAR,,140,5.0,,,9999.0,,15.0,11.0,29.56,1002.3,,,,,,,,,,,,,TRACE,,Clear,72000.0,,,73000.0,,,,,,
KRDR,05-18-2012,05:00,METAR,,280,3.0,,,9999.0,,18.0,11.0,29.55,1001.9,,,,,,,,,,,,,,,Clear,72000.0,,,73000.0,,,,,,
KRDR,05-18-2012,04:00,METAR,,,0.0,,,9999.0,,17.0,11.0,29.56,1002.2,,,,,,,,,,,TRACE,,,,Clear,72000.0,,,73000.0,,,,,,
KRDR,05-18-2012,03:18,SPECI,,,0.0,,,9999.0,,19.0,10.0,29.55,1002.1,,,,,,,,,,,,,,,Clear,72000.0,,,73000.0,,,,,,
KRDR,05-18-2012,03:14,SPECI,,,0.0,,,9999.0,Light Rain,19.0,10.0,29.55,1002.0,61,,,,,,,,,,,,,,Clear,72000.0,,,73000.0,,,,,,
KRDR,05-18-2012,03:00,METAR,,,0.0,,,9999.0,,19.0,11.0,29.55,1001.9,,,,,,,,,,,,,,,Clear,72000.0,,,73000.0,,,,,,
KRDR,05-18-2012,02:00,METAR,,270,5.0,,,9999.0,,23.0,11.0,29.54,1001.8,,,,,,,,,,,,,,,Clear,72000.0,,,73000.0,,,,,,
KRDR,05-18-2012,01:00,METAR,,,0.0,,,9999.0,,27.0,10.0,29.52,1001.0,,,,,,,,,,,,,,,Clear,72000.0,,,73000.0,,,,,,
KRDR,05-18-2012,00:00,METAR,,180,7.0,,,9999.0,,30.0,11.0,29.52,1001.0,,,,,,,,,,,,,,,Clear,72000.0,,,73000.0,,,,,,
KRDR,05-17-2012,23:00,METAR,,170,10.0,,,9999.0,,31.0,10.0,29.52,1001.1,,,,,,,,,,,,,,,Clear,72000.0,,,73000.0,,,,,,
KRDR,05-17-2012,22:00,METAR,,200,11.0,,,9999.0,,31.0,9.0,29.53,1001.2,,,,,,,,,,,,,,,Clear,72000.0,,,73000.0,,,,,,
KRDR,05-17-2012,21:00,METAR,,170,9.0,18.0,,9999.0,,31.0,10.0,29.53,1001.3,,,,,,,,,,,,,,,Clear,72000.0,,,73000.0,,,,,,
KRDR,05-17-2012,20:00,METAR,,210,9.0,,,9999.0,,30.0,9.0,29.55,1001.9,,,,,,,,,,,,,,,Clear,72000.0,,,73000.0,,,,,,
KRDR,05-17-2012,19:00,METAR,,190,10.0,,,9999.0,,28.0,9.0,29.56,1002.3,,,,,,,,,,,,,,,Clear,72000.0,,,73000.0,,,,,,
KRDR,05-17-2012,18:00,METAR,,180,12.0,,,9999.0,,27.0,7.0,29.57,1002.6,,,,,,,,,,,,,,,Clear,72000.0,,,73000.0,,,,,,
KRDR,05-17-2012,17:00,METAR,,160,13.0,,,9999.0,,25.0,7.0,29.58,1003.0,,,,,,,,,,,,,,,Clear,72000.0,,,73000.0,,,,,,
KRDR,05-17-2012,16:00,METAR,,180,16.0,,,9999.0,,24.0,5.0,29.60,1003.5,,,,,,,,,,,,,,,Clear,72000.0,,,73000.0,,,,,,
KRDR,05-17-2012,15:00,METAR,,180,18.0,,,9999.0,,22.0,4.0,29.61,1003.9,,,,,,,,,,,,,,,Clear,72000.0,,,73000.0,,,,,,
KRDR,05-17-2012,14:00,METAR,,180,20.0,25.0,,9999.0,,20.0,3.0,29.63,1004.5,,,,,,,,,,,,,,,Clear,72000.0,,,73000.0,,,,,,
KRDR,05-17-2012,13:00,METAR,,150,10.0,,,9999.0,,19.0,2.0,29.64,1005.0,,,,,,,,,,,,,,,Clear,72000.0,,,73000.0,,,,,,
KRDR,05-17-2012,12:00,METAR,,150,13.0,,,9999.0,,17.0,1.0,29.65,1005.4,,,,,,,,,,,,,,,Clear,72000.0,,,73000.0,,,,,,
KRDR,05-17-2012,11:00,METAR,,180,15.0,,,9999.0,,17.0,0.0,29.66,1005.7,,,,,,,,,,,,,,,Clear,72000.0,,,73000.0,,,,,,
KRDR,05-17-2012,10:00,METAR,,170,14.0,,,9999.0,,17.0,0.0,29.68,1006.4,,,,,,,,,,,,,,,Clear,72000.0,,,73000.0,,,,,,
KRDR,05-17-2012,09:00,METAR,,160,11.0,,,9999.0,,15.0,1.0,29.72,1007.6,,,,,,,,,,,,,,,Clear,72000.0,,,73000.0,,,,,,
KRDR,05-17-2012,08:00,METAR,,140,10.0,,,9999.0,,16.0,2.0,29.75,1008.5,,,,,,,,,,,,,,,Clear,72000.0,,,73000.0,,,,,,
KRDR,05-17-2012,07:00,METAR,,160,10.0,,,9999.0,,17.0,2.0,29.77,1009.3,,,,,,,,,,,,,,,Clear,72000.0,,,73000.0,,,,,,
KRDR,05-17-2012,06:00,METAR,,160,9.0,,,9999.0,,17.0,2.0,29.80,1010.1,,,,,,,,,,,,,,,Clear,72000.0,,,73000.0,,,,,,
KRDR,05-17-2012,05:00,METAR,,160,15.0,21.0,,9999.0,,17.0,1.0,29.79,1010.0,,,,,,,,,,,,,,,Clear,72000.0,,,73000.0,,,,,,
KRDR,05-17-2012,04:00,METAR,,140,13.0,,,9999.0,,17.0,1.0,29.84,1011.7,,,,,,,,,,,,,,,Clear,72000.0,,,73000.0,,,,,,
KRDR,05-17-2012,03:00,METAR,,140,11.0,,,9999.0,,19.0,1.0,29.86,1012.3,,,,,,,,,,,,,,,Clear,72000.0,,,73000.0,,,,,,
KRDR,05-17-2012,02:00,METAR,,140,10.0,,,9999.0,,20.0,2.0,29.85,1011.9,,,,,,,,,,,,,,,Clear,72000.0,,,73000.0,,,,,,
KRDR,05-17-2012,01:00,METAR,,140,16.0,20.0,,9999.0,,23.0,2.0,29.86,1012.3,,,,,,,,,,,,,,,Clear,72000.0,,,73000.0,,,,,,
KRDR,05-17-2012,00:00,METAR,,140,16.0,20.0,,9999.0,,24.0,1.0,29.87,1012.5,,,,,,,,,,,,,,,Clear,72000.0,,,73000.0,,,,,,
KRDR,05-16-2012,23:00,METAR,,140,16.0,,,9999.0,,24.0,1.0,29.88,1013.0,,,,,,,,,,,,,,,Clear,72000.0,,,73000.0,,,,,,
KRDR,05-16-2012,22:00,METAR,,150,18.0,23.0,,9999.0,,24.0,0.0,29.92,1014.1,,,,,,,,,,,,,,,Clear,72000.0,,,73000.0,,,,,,
KRDR,05-16-2012,21:00,METAR,,160,13.0,22.0,,9999.0,,23.0,0.0,29.96,1015.4,,,,,,,,,,,,,,,Clear,72000.0,,,73000.0,,,,,,
KRDR,05-16-2012,20:00,METAR,,180,15.0,20.0,,9999.0,,22.0,0.0,29.99,1016.5,,,,,,,,,,,,,,,Clear,72000.0,,,73000.0,,,,,,
KRDR,05-16-2012,19:00,METAR,,150,14.0,19.0,,9999.0,,21.0,0.0,30.03,1017.8,,,,,,,,,,,,,,,Clear,72000.0,,,73000.0,,,,,,
KRDR,05-16-2012,18:00,METAR,,150,11.0,18.0,,9999.0,,19.0,-1.0,30.07,1019.0,,,,,,,,,,,,,TRACE,,Clear,72000.0,,,73000.0,,,,,,
KRDR,05-16-2012,17:00,METAR,,140,10.0,16.0,,9999.0,,18.0,-1.0,30.10,1020.2,,,,,,,,,,,,,,,Clear,72000.0,,,73000.0,,,,,,
KRDR,05-16-2012,16:00,METAR,,160,11.0,,,9999.0,,17.0,-2.0,30.12,1020.9,,,,,,,,,,,,,,,Clear,72000.0,,,73000.0,,,,,,
KRDR,05-16-2012,15:00,METAR,,140,12.0,,,9999.0,,15.0,-3.0,30.15,1021.8,,,,,,,,,,,,TRACE,,,Clear,72000.0,,,73000.0,,,,,,
KRDR,05-16-2012,14:00,METAR,,150,9.0,,,9999.0,,13.0,-3.0,30.17,1022.5,,,,,,,,,,,TRACE,,,,Clear,72000.0,,,73000.0,,,,,,
KRDR,05-16-2012,12:00,METAR,,,0.0,,,9999.0,,4.0,-1.0,30.17,1022.5,,,,,,,,,,,,,,,Clear,72000.0,,,73000.0,,,,,,
KRDR,05-16-2012,11:00,METAR,,190,3.0,,,9999.0,,2.0,-3.0,30.17,1022.5,,,,,,,,,,,,,,,Clear,72000.0,,,73000.0,,,,,,
KRDR,05-16-2012,10:00,METAR,,,0.0,,,9999.0,,1.0,-2.0,30.17,1022.5,,,,,,,,,,,,,,,Clear,72000.0,,,73000.0,,,,,,
KRDR,05-16-2012,09:00,METAR,,140,4.0,,,9999.0,,2.0,-2.0,30.17,1022.4,,,,,,,,,,,,,,,Clear,72000.0,,,73000.0,,,,,,
KRDR,05-16-2012,08:00,METAR,,20,3.0,,,9999.0,,3.0,-2.0,30.17,1022.4,,,,,,,,,,,,,,,Clear,72000.0,,,73000.0,,,,,,
KRDR,05-16-2012,07:00,METAR,,,0.0,,,9999.0,,4.0,-2.0,30.16,1022.1,,,,,,,,,,,,,,,Clear,72000.0,,,73000.0,,,,,,
KRDR,05-16-2012,06:00,METAR,,300,4.0,,,9999.0,,5.0,-2.0,30.15,1021.7,,,,,,,,,,,,,,,Clear,72000.0,,,73000.0,,,,,,
KRDR,05-16-2012,05:00,METAR,,340,4.0,,,9999.0,,7.0,-3.0,30.14,1021.3,,,,,,,,,,,,,,,Clear,72000.0,,,73000.0,,,,,,
KRDR,05-16-2012,04:00,METAR,,50,4.0,,,9999.0,,9.0,-2.0,30.14,1021.6,,,,,,,,,,,,,,,Clear,72000.0,,,73000.0,,,,,,
KRDR,05-16-2012,03:00,METAR,,40,6.0,,,9999.0,,10.0,0.0,30.13,1021.2,,,,,,,,,,,,,,,Clear,72000.0,,,73000.0,,,,,,
KRDR,05-16-2012,02:00,METAR,,40,8.0,,,9999.0,,13.0,2.0,30.12,1020.8,,,,,,,,,,,,,,,Clear,72000.0,,,73000.0,,,,,,
KRDR,05-16-2012,01:00,METAR,,30,11.0,,,9999.0,,16.0,2.0,30.11,1020.4,,,,,,,,,,,,,,,Clear,72000.0,,,73000.0,,,,,,
KRDR,05-16-2012,00:00,METAR,,30,15.0,,,9999.0,,17.0,2.0,30.10,1020.3,,,,,,,,,,,,,,,Clear,72000.0,,,73000.0,,,,,,
KRDR,05-15-2012,23:00,METAR,,10,14.0,18.0,,9999.0,,18.0,3.0,30.11,1020.6,,,,,,,,,,,,,,,Clear,72000.0,,,73000.0,,,,,,
KRDR,05-15-2012,22:00,METAR,,350,9.0,,,9999.0,,19.0,2.0,30.11,1020.5,,,,,,,,,,,,,,,4/8 Partly Cloudy,72000.0,,SCT,6900.0,,,,,,
KRDR,05-15-2012,21:00,METAR,,340,13.0,23.0,,9999.0,,18.0,2.0,30.11,1020.5,,,,,,,,,,,,,,,4/8 Partly Cloudy,72000.0,,SCT,5900.0,,,,,,
KRDR,05-15-2012,20:00,METAR,,350,14.0,20.0,,9999.0,,17.0,2.0,30.13,1021.0,,,,,,,,,,,,,,,7/8 Mostly Cloudy,6000.0,,BKN,5900.0,,,,,,
KRDR,05-15-2012,19:00,METAR,,360,11.0,17.0,,9999.0,,17.0,2.0,30.13,1021.0,,,,,,,,,,,,,,,7/8 Mostly Cloudy,6000.0,,BKN,5900.0,,,,,,
KRDR,05-15-2012,18:00,METAR,,10,16.0,22.0,,9999.0,,16.0,2.0,30.14,1021.4,,,,,,,,,,,,,,,4/8 Partly Cloudy,72000.0,,SCT,5900.0,,,,,,
KRDR,05-15-2012,17:00,METAR,,20,15.0,21.0,,9999.0,,16.0,1.0,30.14,1021.6,,,,,,,,,,,,,,,Clear,72000.0,,,73000.0,,,,,,
KRDR,05-15-2012,16:00,METAR,,20,12.0,18.0,,9999.0,,15.0,0.0,30.14,1021.6,,,,,,,,,,,,,,,Clear,72000.0,,,73000.0,,,,,,
KRDR,05-15-2012,15:00,METAR,,360,14.0,21.0,,9999.0,,13.0,0.0,30.14,1021.4,,,,,,,,,,,,,,,Clear,72000.0,,,73000.0,,,,,,
KRDR,05-15-2012,14:00,METAR,,350,12.0,19.0,,9999.0,,12.0,2.0,30.13,1021.2,,,,,,,,,,,,,,,Clear,72000.0,,,73000.0,,,,,,
KRDR,05-15-2012,13:00,METAR,,350,13.0,,,9999.0,,11.0,2.0,30.11,1020.4,,,,,,,,,,,,,,,Clear,72000.0,,,73000.0,,,,,,
KRDR,05-15-2012,12:00,METAR,,360,12.0,,,9999.0,,10.0,2.0,30.07,1019.1,,,,,,,,,,,,,,,Clear,72000.0,,,73000.0,,,,,,
KRDR,05-15-2012,11:00,METAR,,360,9.0,,,9999.0,,9.0,1.0,30.03,1017.8,,,,,,,,,,,,,,,Clear,72000.0,,,73000.0,,,,,,
KRDR,05-15-2012,10:00,METAR,,10,12.0,,,9999.0,,10.0,3.0,30.00,1017.0,,,,,,,,,,,,,,,Clear,72000.0,,,73000.0,,,,,,
KRDR,05-15-2012,09:00,METAR,,360,13.0,20.0,010/27KTS,9999.0,,11.0,4.0,29.98,1016.2,,,,,,,,,,,,,,,Clear,72000.0,,,73000.0,,,,,,
KRDR,05-15-2012,08:00,METAR,,350,12.0,18.0,,9999.0,,13.0,3.0,29.95,1015.0,,,,,,,,,,,,,,,Clear,72000.0,,,73000.0,,,,,,
KRDR,05-15-2012,07:00,METAR,,10,14.0,20.0,,9999.0,,14.0,2.0,29.93,1014.4,,,,,,,,,,,,,,,Clear,72000.0,,,73000.0,,,,,,
KRDR,05-15-2012,06:00,METAR,,10,14.0,,360/29KTS,9999.0,,15.0,1.0,29.91,1014.0,,,,,,,,,,,,,,,Clear,72000.0,,,73000.0,,,,,,
KRDR,05-15-2012,05:33,SPECI,,10,16.0,21.0,360/29KTS,9999.0,,15.0,1.0,29.90,1013.6,,,,,,,,,,,,,,,Clear,72000.0,,,73000.0,,,,,,
KRDR,05-15-2012,05:00,METAR,,10,17.0,25.0,,9999.0,,16.0,1.0,29.88,1014.2,,,,,,,,,,,,,,,2/8 Mostly Clear,72000.0,,FEW,600.0,,,,,,
KRDR,05-15-2012,04:47,SPECI,,10,21.0,30.0,,8000.0,Haze,17.0,2.0,29.88,,,,,5,,,,,,,,,,,2/8 Mostly Clear,72000.0,,FEW,700.0,,,,,,
KRDR,05-15-2012,04:42,SPECI,,10,23.0,,360/37KTS,6400.0,Haze Smoke or Dust,17.0,2.0,29.88,1012.8,4,,,,,,,,,,,,,,8/8 Overcast,700.0,,OVC,700.0,,,,,,
KRDR,05-15-2012,04:30,SPECI,,10,20.0,30.0,360/37KTS,4800.0,Haze Smoke or Dust,18.0,1.0,29.87,1012.5,4,,,,,,,,,,,,,,7/8 Mostly Cloudy,700.0,,BKN,700.0,,,,,,
KRDR,05-15-2012,04:27,SPECI,,20,23.0,30.0,360/37KTS,4000.0,Haze Smoke or Dust,19.0,1.0,29.87,1012.4,4,,,,,,,,,,,,,,7/8 Mostly Cloudy,700.0,,BKN,700.0,,,,,,
KRDR,05-15-2012,04:20,SPECI,,10,23.0,37.0,360/37KTS,4000.0,Haze Smoke or Dust,20.0,1.0,29.86,1012.2,4,,,,,,,,,,,,,,7/8 Mostly Cloudy,700.0,,BKN,700.0,,,,,,
KRDR,05-15-2012,04:11,SPECI,,360,29.0,37.0,360/37KTS,9999.0,,22.0,-3.0,29.85,1011.7,,,,,,,,,,,,,,,2/8 Mostly Clear,72000.0,,FEW,800.0,,,,,,
KRDR,05-15-2012,04:00,METAR,,340,12.0,17.0,,9999.0,,22.0,-1.0,29.82,1011.0,,,,,,,,,,,,,,,Clear,72000.0,,,73000.0,,,,,,
KRDR,05-15-2012,03:00,METAR,,290,8.0,,,9999.0,,22.0,0.0,29.78,1009.6,,,,,,,,,,,,,,,2/8 Mostly Clear,72000.0,,FEW,12000.0,,,,,,
KRDR,05-15-2012,02:00,METAR,,270,6.0,,,9999.0,,23.0,1.0,29.77,1009.3,,,,,,,,,,,,,,,2/8 Mostly Clear,72000.0,,FEW,12000.0,,,,,,
KRDR,05-15-2012,01:00,METAR,,290,8.0,,,9999.0,,27.0,-1.0,29.78,1009.6,,,,,,,,,,,,,,,Clear,72000.0,,,73000.0,,,,,,
KRDR,05-15-2012,00:00,METAR,,290,12.0,,,9999.0,,28.0,1.0,29.79,1009.9,,,,,,,,,,,,,,,Clear,72000.0,,,73000.0,,,,,,
KRDR,05-14-2012,23:00,METAR,,330,7.0,,,9999.0,,29.0,0.0,29.81,1010.4,,,,,,,,,,,,,,,Clear,72000.0,,,73000.0,,,,,,
KRDR,05-14-2012,22:00,METAR,,320,8.0,,,9999.0,,29.0,0.0,29.81,1010.7,,,,,,,,,,,,,,,Clear,72000.0,,,73000.0,,,,,,
KRDR,05-14-2012,21:00,METAR,,310,11.0,,,9999.0,,29.0,2.0,29.82,1010.9,,,,,,,,,,,,,,,Clear,72000.0,,,73000.0,,,,,,
KRDR,05-14-2012,20:00,METAR,,300,8.0,15.0,,9999.0,,29.0,2.0,29.83,1011.4,,,,,,,,,,,,,,,Clear,72000.0,,,73000.0,,,,,,
KRDR,05-14-2012,19:00,METAR,,270,5.0,,,9999.0,,28.0,2.0,29.86,1012.1,,,,,,,,,,,,,,,2/8 Mostly Clear,72000.0,,FEW,9900.0,,,,,,
KRDR,05-14-2012,18:00,METAR,,250,6.0,,,9999.0,,27.0,5.0,29.88,1013.0,,,,,,,,,,,,,,,Clear,72000.0,,,73000.0,,,,,,
KRDR,05-14-2012,17:46,SPECI,,,0.0,,,2800.0,Haze,26.0,4.0,29.89,1013.1,,,,5,,,,,,,,,,,Clear,72000.0,,,73000.0,,,,,,
KRDR,05-14-2012,17:15,SPECI,,,4.0,,,9999.0,,27.0,4.0,29.89,,,,,,,,,,,,,,,,Clear,72000.0,,,73000.0,,,,,,
KRDR,05-14-2012,17:01,SPECI,,,0.0,,,4800.0,Haze,25.0,4.0,29.90,1013.7,,,,5,,,,,,,,,,,Clear,72000.0,,,73000.0,,,,,,
KRDR,05-14-2012,17:00,METAR,,,4.0,,,9999.0,,27.0,4.0,29.89,1014.6,,,,,,,,,,,,,,,Clear,72000.0,,,73000.0,,,,,,
KRDR,05-14-2012,16:51,SPECI,,150,3.0,,,4000.0,Haze,25.0,5.0,29.90,1013.6,,,,5,,,,,,,,,,,Clear,72000.0,,,73000.0,,,,,,
KRDR,05-14-2012,16:00,METAR,,170,3.0,,,9999.0,,22.0,5.0,29.92,1014.1,,,,,,,,,,,,,,,Clear,72000.0,,,73000.0,,,,,,
KRDR,05-14-2012,15:00,METAR,,,0.0,,,9999.0,,19.0,6.0,29.93,1014.5,,,,,,,,,,,,,,,Clear,72000.0,,,73000.0,,,,,,
KRDR,05-14-2012,14:00,METAR,,40,3.0,,,9999.0,,17.0,5.0,29.94,1014.8,,,,,,,,,,,,,,,Clear,72000.0,,,73000.0,,,,,,
KRDR,05-14-2012,13:00,METAR,,,0.0,,,9999.0,,15.0,5.0,29.94,1014.8,,,,,,,,,,,,,,,Clear,72000.0,,,73000.0,,,,,,
KRDR,05-14-2012,12:00,METAR,,,0.0,,,9999.0,,9.0,4.0,29.93,1014.6,,,,,,,,,,,,,,,Clear,72000.0,,,73000.0,,,,,,
KRDR,05-14-2012,11:00,METAR,,,0.0,,,9999.0,,10.0,3.0,29.93,1014.5,,,,,,,,,,,,,,,Clear,72000.0,,,73000.0,,,,,,
KRDR,05-14-2012,10:00,METAR,,290,4.0,,,9999.0,,10.0,3.0,29.93,1014.4,,,,,,,,,,,,,,,Clear,72000.0,,,73000.0,,,,,,
KRDR,05-14-2012,09:00,METAR,,290,6.0,,,9999.0,,10.0,3.0,29.92,1014.3,,,,,,,,,,,,,,,Clear,72000.0,,,73000.0,,,,,,
KRDR,05-14-2012,08:00,METAR,,280,5.0,,,9999.0,,11.0,3.0,29.91,1014.0,,,,,,,,,,,,,,,Clear,72000.0,,,73000.0,,,,,,
KRDR,05-14-2012,07:00,METAR,,290,6.0,,,9999.0,,13.0,3.0,29.91,1013.9,,,,,,,,,,,,,,,Clear,72000.0,,,73000.0,,,,,,
KRDR,05-14-2012,06:00,METAR,,290,5.0,,,9999.0,,13.0,3.0,29.91,1013.9,,,,,,,,,,,,,,,Clear,72000.0,,,73000.0,,,,,,
KRDR,05-14-2012,05:00,METAR,,280,6.0,,,9999.0,,15.0,3.0,29.90,1013.7,,,,,,,,,,,,,,,Clear,72000.0,,,73000.0,,,,,,
KRDR,05-14-2012,04:00,METAR,,280,6.0,,,9999.0,,16.0,3.0,29.91,1013.9,,,,,,,,,,,,,,,Clear,72000.0,,,73000.0,,,,,,
KRDR,05-14-2012,03:00,METAR,,280,6.0,,,9999.0,,19.0,2.0,29.91,1013.8,,,,,,,,,,,,,,,Clear,72000.0,,,73000.0,,,,,,
KRDR,05-14-2012,02:00,METAR,,280,6.0,,,9999.0,,22.0,1.0,29.90,1013.4,,,,,,,,,,,,,,,Clear,72000.0,,,73000.0,,,,,,
KRDR,05-14-2012,01:00,METAR,,290,11.0,,,9999.0,,25.0,-1.0,29.90,1013.5,,,,,,,,,,,,,,,Clear,72000.0,,,73000.0,,,,,,
KRDR,05-14-2012,00:00,METAR,,310,15.0,22.0,300/27KTS,9999.0,,26.0,0.0,29.91,1013.7,,,,,,,,,,,,,,,Clear,72000.0,,,73000.0,,,,,,
KRDR,05-13-2012,23:00,METAR,,290,16.0,24.0,300/27KTS,9999.0,,27.0,-1.0,29.92,1014.2,,,,,,,,,,,,,,,Clear,72000.0,,,73000.0,,,,,,
KRDR,05-13-2012,22:00,METAR,,280,18.0,26.0,290/27KTS,9999.0,,27.0,-1.0,29.93,1014.6,,,,,,,,,,,,,,,Clear,72000.0,,,73000.0,,,,,,
KRDR,05-13-2012,21:00,METAR,,280,19.0,24.0,290/27KTS,9999.0,,27.0,0.0,29.96,1015.5,,,,,,,,,,,,,,,Clear,72000.0,,,73000.0,,,,,,
KRDR,05-13-2012,20:00,METAR,,270,15.0,23.0,,9999.0,,26.0,-2.0,29.98,1016.3,,,,,,,,,,,,,,,Clear,72000.0,,,73000.0,,,,,,
KRDR,05-13-2012,19:00,METAR,,280,14.0,21.0,,9999.0,,26.0,-1.0,30.00,1017.0,,,,,,,,,,,,,,,Clear,72000.0,,,73000.0,,,,,,
KRDR,05-13-2012,18:00,METAR,,260,15.0,,,9999.0,,25.0,-1.0,30.02,1017.6,,,,,,,,,,,,,,,Clear,72000.0,,,73000.0,,,,,,
KRDR,05-13-2012,17:00,METAR,,280,14.0,21.0,,9999.0,,24.0,0.0,30.04,1018.1,,,,,,,,,,,,,,,Clear,72000.0,,,73000.0,,,,,,
KRDR,05-13-2012,16:00,METAR,,280,13.0,,,9999.0,,21.0,3.0,30.05,1018.5,,,,,,,,,,,,,,,Clear,72000.0,,,73000.0,,,,,,
KRDR,05-13-2012,15:00,METAR,,280,14.0,20.0,,9999.0,,19.0,3.0,30.06,1018.9,,,,,,,,,,,,,,,Clear,72000.0,,,73000.0,,,,,,
KRDR,05-13-2012,14:00,METAR,,270,17.0,24.0,280/26KTS,9999.0,,17.0,3.0,30.07,1019.3,,,,,,,,,,,,,,,Clear,72000.0,,,73000.0,,,,,,
KRDR,05-13-2012,13:00,METAR,,270,17.0,22.0,,9999.0,,14.0,2.0,30.08,1019.5,,,,,,,,,,,,,,,Clear,72000.0,,,73000.0,,,,,,
KRDR,05-13-2012,12:00,METAR,,260,17.0,24.0,,9999.0,,13.0,2.0,30.08,1019.5,,,,,,,,,,,,,,,Clear,72000.0,,,73000.0,,,,,,
KRDR,05-13-2012,11:00,METAR,,260,17.0,,,9999.0,,13.0,1.0,30.09,1019.7,,,,,,,,,,,,,,,Clear,72000.0,,,73000.0,,,,,,
KRDR,05-13-2012,10:00,METAR,,250,12.0,20.0,,9999.0,,13.0,1.0,30.10,1020.3,,,,,,,,,,,,,,,Clear,72000.0,,,73000.0,,,,,,
KRDR,05-13-2012,09:00,METAR,,250,13.0,,,9999.0,,13.0,1.0,30.11,1020.4,,,,,,,,,,,,,,,Clear,72000.0,,,73000.0,,,,,,
KRDR,05-13-2012,08:00,METAR,,250,14.0,,,9999.0,,14.0,0.0,30.11,1020.5,,,,,,,,,,,,,,,Clear,72000.0,,,73000.0,,,,,,
KRDR,05-13-2012,07:00,METAR,,250,11.0,,,9999.0,,13.0,0.0,30.13,1021.0,,,,,,,,,,,,,,,Clear,72000.0,,,73000.0,,,,,,
KRDR,05-13-2012,06:00,METAR,,250,8.0,,,9999.0,,12.0,0.0,30.13,1021.2,,,,,,,,,,,,,,,Clear,72000.0,,,73000.0,,,,,,
KRDR,05-13-2012,05:00,METAR,,240,6.0,,,9999.0,,12.0,1.0,30.14,1021.4,,,,,,,,,,,,,,,Clear,72000.0,,,73000.0,,,,,,
KRDR,05-13-2012,04:00,METAR,,230,7.0,,,9999.0,,13.0,0.0,30.15,1021.6,,,,,,,,,,,,,,,Clear,72000.0,,,73000.0,,,,,,
KRDR,05-13-2012,03:00,METAR,,220,6.0,,,9999.0,,12.0,-1.0,30.15,1021.7,,,,,,,,,,,,,,,Clear,72000.0,,,73000.0,,,,,,
KRDR,05-13-2012,02:00,METAR,,290,4.0,,,9999.0,,17.0,-2.0,30.15,1021.6,,,,,,,,,,,,,,,Clear,72000.0,,,73000.0,,,,,,
KRDR,05-13-2012,01:00,METAR,,310,8.0,,,9999.0,,21.0,-2.0,30.15,1021.7,,,,,,,,,,,,,,,Clear,72000.0,,,73000.0,,,,,,
KRDR,05-13-2012,00:00,METAR,,290,14.0,19.0,,9999.0,,22.0,-3.0,30.15,1021.9,,,,,,,,,,,,,,,Clear,72000.0,,,73000.0,,,,,,
KRDR,05-12-2012,23:00,METAR,,290,15.0,20.0,,9999.0,,22.0,-3.0,30.16,1022.2,,,,,,,,,,,,,,,Clear,72000.0,,,73000.0,,,,,,
KRDR,05-12-2012,22:00,METAR,,300,13.0,21.0,,9999.0,,23.0,-2.0,30.18,1022.7,,,,,,,,,,,,,,,Clear,72000.0,,,73000.0,,,,,,
KRDR,05-12-2012,21:00,METAR,,270,17.0,25.0,,9999.0,,23.0,-3.0,30.20,1023.4,,,,,,,,,,,,,,,Clear,72000.0,,,73000.0,,,,,,
KRDR,05-12-2012,20:00,METAR,,270,18.0,23.0,290/27KTS,9999.0,,22.0,-3.0,30.22,1024.2,,,,,,,,,,,,,,,Clear,72000.0,,,73000.0,,,,,,
KRDR,05-12-2012,19:00,METAR,,290,15.0,25.0,300/27KTS,9999.0,,22.0,-4.0,30.24,1024.8,,,,,,,,,,,,,,,Clear,72000.0,,,73000.0,,,,,,
KRDR,05-12-2012,18:00,METAR,,300,13.0,21.0,,9999.0,,21.0,-4.0,30.25,1025.2,,,,,,,,,,,,,,,Clear,72000.0,,,73000.0,,,,,,
KRDR,05-12-2012,17:00,METAR,,250,11.0,21.0,,9999.0,,21.0,-4.0,30.27,1025.8,,,,,,,,,,,,,,,Clear,72000.0,,,73000.0,,,,,,
KRDR,05-12-2012,16:00,METAR,,280,15.0,19.0,,9999.0,,19.0,-3.0,30.28,1026.0,,,,,,,,,,,,,,,Clear,72000.0,,,73000.0,,,,,,
KRDR,05-12-2012,15:00,METAR,,260,13.0,,,9999.0,,18.0,-2.0,30.29,1026.4,,,,,,,,,,,,,,,Clear,72000.0,,,73000.0,,,,,,
KRDR,05-12-2012,14:00,METAR,,260,13.0,,,9999.0,,15.0,-2.0,30.29,1026.5,,,,,,,,,,,,,,,Clear,72000.0,,,73000.0,,,,,,
KRDR,05-12-2012,13:00,METAR,,260,10.0,,,9999.0,,11.0,-1.0,30.29,1026.3,,,,,,,,,,,,,,,Clear,72000.0,,,73000.0,,,,,,
KRDR,05-12-2012,12:00,METAR,,250,6.0,,,9999.0,,6.0,-1.0,30.28,1025.9,,,,,,,,,,,,,,,Clear,72000.0,,,73000.0,,,,,,
KRDR,05-12-2012,11:00,METAR,,250,6.0,,,9999.0,,4.0,-3.0,30.26,1025.4,,,,,,,,,,,,,,,Clear,72000.0,,,73000.0,,,,,,
KRDR,05-12-2012,10:00,METAR,,250,6.0,,,9999.0,,4.0,-2.0,30.25,1024.9,,,,,,,,,,,,,,,Clear,72000.0,,,73000.0,,,,,,
KRDR,05-12-2012,09:00,METAR,,250,6.0,,,9999.0,,2.0,-2.0,30.24,1024.7,,,,,,,,,,,,,,,Clear,72000.0,,,73000.0,,,,,,
KRDR,05-12-2012,08:00,METAR,,250,6.0,,,9999.0,,4.0,-2.0,30.24,1024.6,,,,,,,,,,,,,,,Clear,72000.0,,,73000.0,,,,,,
KRDR,05-12-2012,07:00,METAR,,240,6.0,,,9999.0,,4.0,-3.0,30.24,1024.6,,,,,,,,,,,,,,,Clear,72000.0,,,73000.0,,,,,,
KRDR,05-12-2012,06:00,METAR,,250,6.0,,,9999.0,,5.0,-3.0,30.23,1024.4,,,,,,,,,,,,,,,Clear,72000.0,,,73000.0,,,,,,
KRDR,05-12-2012,05:00,METAR,,260,8.0,,,9999.0,,5.0,-2.0,30.22,1023.9,,,,,,,,,,,,,,,Clear,72000.0,,,73000.0,,,,,,
KRDR,05-12-2012,04:00,METAR,,260,6.0,,,9999.0,,7.0,-3.0,30.20,1023.5,,,,,,,,,,,,,,,Clear,72000.0,,,73000.0,,,,,,
KRDR,05-12-2012,03:00,METAR,,230,8.0,,,9999.0,,8.0,-3.0,30.18,1022.8,,,,,,,,,,,,,,,Clear,72000.0,,,73000.0,,,,,,
KRDR,05-12-2012,02:00,METAR,,280,5.0,,,9999.0,,12.0,-4.0,30.16,1022.2,,,,,,,,,,,,,,,Clear,72000.0,,,73000.0,,,,,,
KRDR,05-12-2012,01:00,METAR,,300,10.0,,,9999.0,,15.0,-5.0,30.16,1022.0,,,,,,,,,,,,,,,Clear,72000.0,,,73000.0,,,,,,
KRDR,05-12-2012,00:00,METAR,,340,13.0,21.0,,9999.0,,16.0,-7.0,30.15,1021.8,,,,,,,,,,,,,,,Clear,72000.0,,,73000.0,,,,,,
KRDR,05-11-2012,23:00,METAR,,320,13.0,22.0,,9999.0,,17.0,-6.0,30.14,1021.6,,,,,,,,,,,,,,,Clear,72000.0,,,73000.0,,,,,,
KRDR,05-11-2012,22:00,METAR,,320,17.0,23.0,,9999.0,,17.0,-4.0,30.14,1021.5,,,,,,,,,,,,,,,Clear,72000.0,,,73000.0,,,,,,
KRDR,05-11-2012,21:00,METAR,,320,16.0,23.0,340/26KTS,9999.0,,17.0,-3.0,30.14,1021.4,,,,,,,,,,,,,,,2/8 Mostly Clear,72000.0,,FEW,7900.0,,,,,,
KRDR,05-11-2012,20:00,METAR,,320,20.0,28.0,320/28KTS,9999.0,,16.0,-4.0,30.13,1021.3,,,,,,,,,,,,,,,2/8 Mostly Clear,72000.0,,FEW,7900.0,,,,,,
KRDR,05-11-2012,19:00,METAR,,320,15.0,25.0,330/27KTS,9999.0,,17.0,-2.0,30.12,1020.8,,,,,,,,,,,,,,,Clear,72000.0,,,73000.0,,,,,,
KRDR,05-11-2012,18:00,METAR,,310,18.0,25.0,,9999.0,,16.0,-3.0,30.11,1020.4,,,,,,,,,,,,,,,Clear,72000.0,,,73000.0,,,,,,
KRDR,05-11-2012,17:00,METAR,,330,15.0,23.0,,9999.0,,14.0,0.0,30.11,1020.3,,,,,,,,,,,,,,,Clear,72000.0,,,73000.0,,,,,,
KRDR,05-11-2012,16:00,METAR,,330,12.0,19.0,,9999.0,,13.0,2.0,30.09,1019.9,,,,,,,,,,,,,,,Clear,72000.0,,,73000.0,,,,,,
KRDR,05-11-2012,15:00,METAR,,340,17.0,23.0,,9999.0,,11.0,4.0,30.08,1019.5,,,,,,,,,,,,,,,Clear,72000.0,,,73000.0,,,,,,
KRDR,05-11-2012,14:00,METAR,,340,12.0,20.0,,9999.0,,8.0,4.0,30.06,1018.7,,,,,,,,,,,,,,,Clear,72000.0,,,73000.0,,,,,,
KRDR,05-11-2012,13:00,METAR,,330,13.0,,,9999.0,,7.0,4.0,30.03,1017.8,,,,,,,,,,,,,,,Clear,72000.0,,,73000.0,,,,,,
KRDR,05-11-2012,12:00,METAR,,320,13.0,,,9999.0,,7.0,4.0,30.00,1016.8,,,,,,,,,,,,,.07 IN,.07 IN,Clear,72000.0,,,73000.0,,,,,,
KRDR,05-11-2012,11:00,METAR,,320,12.0,,,9999.0,,8.0,4.0,29.98,1016.0,,,,,,,,,,,,,,,Clear,72000.0,,,73000.0,,,,,,
KRDR,05-11-2012,10:00,METAR,,320,12.0,17.0,,9999.0,,9.0,6.0,29.95,1015.2,,,,,,,,,,,.01 IN,,,,4/8 Partly Cloudy,72000.0,,FEW,6900.0,SCT,11000.0,,,,
KRDR,05-11-2012,09:49,SPECI,,320,12.0,17.0,,9999.0,,9.0,6.0,29.95,1015.2,,,,,,,,,,,,,,,4/8 Partly Cloudy,72000.0,,FEW,6900.0,SCT,11000.0,,,,
KRDR,05-11-2012,09:29,SPECI,,320,11.0,,,9999.0,Light Rain,9.0,7.0,29.94,1014.8,61,,,,,,,,,,,,,,8/8 Overcast,11000.0,,FEW,2200.0,OVC,11000.0,,,,
KRDR,05-11-2012,09:20,SPECI,,320,10.0,15.0,,9999.0,,9.0,7.0,29.92,1014.3,,,,,,,,,,,,,,,7/8 Mostly Cloudy,9000.0,,FEW,2100.0,SCT,8900.0,BKN,11000.0,,
KRDR,05-11-2012,09:00,METAR,,310,6.0,,,9999.0,Light Rain,9.0,7.0,29.91,1013.7,61,,,,,,,,,,.03 IN,.06 IN,,,8/8 Overcast,8000.0,,FEW,3700.0,OVC,7900.0,,,,
KRDR,05-11-2012,08:00,METAR,,340,10.0,,,9999.0,Light Rain,10.0,7.0,29.89,1013.1,61,,,,,,,,,,,,,,8/8 Overcast,8000.0,,FEW,1700.0,OVC,7900.0,,,,
KRDR,05-11-2012,07:37,SPECI,,340,12.0,20.0,,9999.0,,10.0,8.0,29.87,1012.6,,,,,,,,,,,,,,,8/8 Overcast,1600.0,,FEW,1100.0,SCT,1900.0,OVC,7900.0,,
KRDR,05-11-2012,07:21,SPECI,,330,11.0,,,9999.0,Light Rain,10.0,9.0,29.87,1012.6,61,,,,,,,,,,,,,,8/8 Overcast,1900.0,,SCT,1100.0,BKN,1900.0,OVC,6900.0,,
KRDR,05-11-2012,07:18,SPECI,,340,8.0,,,9999.0,Light Rain,10.0,9.0,29.87,1012.6,61,,,,,,,,,,,,,,7/8 Mostly Cloudy,2000.0,,FEW,1100.0,SCT,1900.0,BKN,7900.0,,
KRDR,05-11-2012,07:00,METAR,,350,11.0,,,9999.0,Light Rain,11.0,9.0,29.87,1012.6,61,,,,,,,,,,.02 IN,,,,8/8 Overcast,8000.0,,FEW,5900.0,OVC,7900.0,,,,
KRDR,05-11-2012,06:08,SPECI,,340,16.0,22.0,,9999.0,Light Rain,12.0,7.0,29.86,1012.1,61,,,,,,,,,,,,,,8/8 Overcast,8000.0,,FEW,2700.0,OVC,7900.0,,,,
KRDR,05-11-2012,06:00,METAR,,350,14.0,22.0,,9999.0,,13.0,7.0,29.84,1011.7,,,,,,,,,,,,,,,8/8 Overcast,7000.0,,FEW,2700.0,OVC,6900.0,,,,
KRDR,05-11-2012,05:00,METAR,,350,14.0,20.0,340/34KTS,9999.0,,14.0,6.0,29.82,1010.7,,,,,,,,,,,,,,,8/8 Overcast,7000.0,,OVC,6900.0,,,,,,
KRDR,05-11-2012,04:00,METAR,,340,22.0,33.0,330/42KTS,9999.0,,15.0,5.0,29.77,1009.1,,,,,,,,,,,,,,,7/8 Mostly Cloudy,8000.0,,BKN,7900.0,,,,,,
KRDR,05-11-2012,03:48,SPECI,,340,25.0,31.0,330/42KTS,9999.0,,15.0,6.0,29.76,1009.0,,,,,,,,,,,,,,,7/8 Mostly Cloudy,8000.0,,BKN,7900.0,,,,,,
KRDR,05-11-2012,03:37,SPECI,,340,26.0,42.0,330/42KTS,9999.0,,15.0,6.0,29.75,1008.7,,,,,,,,,,,,,,,4/8 Partly Cloudy,72000.0,,SCT,7900.0,,,,,,
KRDR,05-11-2012,03:00,METAR,,310,24.0,35.0,300/35KTS,9999.0,,19.0,7.0,29.69,1006.6,,,,,,,,,,,,,,,4/8 Partly Cloudy,72000.0,,SCT,7900.0,,,,,,
KRDR,05-11-2012,02:53,SPECI,,320,27.0,37.0,330/37KTS,9999.0,,18.0,7.0,29.69,1006.7,,,,,,,,,,,,,,,4/8 Partly Cloudy,72000.0,,SCT,7900.0,,,,,,
KRDR,05-11-2012,02:43,SPECI,,310,27.0,35.0,300/35KTS,9999.0,,21.0,9.0,29.67,1006.0,,,,,,,,,,,,,,,4/8 Partly Cloudy,72000.0,,SCT,6900.0,,,,,,
KRDR,05-11-2012,02:38,SPECI,,290,26.0,35.0,300/35KTS,9999.0,,23.0,9.0,29.66,1005.5,,,,,,,,,,,,,,,4/8 Partly Cloudy,72000.0,,SCT,6900.0,,,,,,
KRDR,05-11-2012,02:00,METAR,,190,14.0,,,9999.0,,24.0,9.0,29.61,1003.9,,,,,,,,,,,,,,,Clear,72000.0,,,73000.0,,,,,,
KRDR,05-11-2012,01:00,METAR,,180,12.0,,,9999.0,,25.0,8.0,29.61,1003.8,,,,,,,,,,,,,,,Clear,72000.0,,,73000.0,,,,,,
KRDR,05-11-2012,00:00,METAR,,190,17.0,23.0,190/27KTS,9999.0,,26.0,8.0,29.59,1003.3,,,,,,,,,,,,,,,Clear,72000.0,,,73000.0,,,,,,
KRDR,05-10-2012,23:00,METAR,,190,18.0,23.0,200/26KTS,9999.0,,27.0,8.0,29.60,1003.6,,,,,,,,,,,,,,,Clear,72000.0,,,73000.0,,,,,,
KRDR,05-10-2012,22:00,METAR,,190,15.0,,,9999.0,,27.0,8.0,29.61,1003.9,,,,,,,,,,,,,,,Clear,72000.0,,,73000.0,,,,,,
KRDR,05-10-2012,21:00,METAR,,170,20.0,24.0,,9999.0,,27.0,8.0,29.62,1004.4,,,,,,,,,,,,,,,Clear,72000.0,,,73000.0,,,,,,
KRDR,05-10-2012,20:00,METAR,,180,18.0,23.0,160/26KTS,9999.0,,27.0,8.0,29.64,1005.1,,,,,,,,,,,,,,,Clear,72000.0,,,73000.0,,,,,,
KRDR,05-10-2012,19:00,METAR,,180,15.0,,,9999.0,,26.0,8.0,29.67,1005.8,,,,,,,,,,,,,,,Clear,72000.0,,,73000.0,,,,,,
KRDR,05-10-2012,18:00,METAR,,160,15.0,,,9999.0,,24.0,8.0,29.68,1006.3,,,,,,,,,,,,,,,Clear,72000.0,,,73000.0,,,,,,
KRDR,05-10-2012,17:00,METAR,,180,16.0,,,9999.0,,22.0,7.0,29.70,1007.0,,,,,,,,,,,,,,,Clear,72000.0,,,73000.0,,,,,,
KRDR,05-10-2012,16:00,METAR,,180,16.0,,,9999.0,,20.0,7.0,29.72,1007.7,,,,,,,,,,,,,,,Clear,72000.0,,,73000.0,,,,,,
KRDR,05-10-2012,15:00,METAR,,180,15.0,,,9999.0,,18.0,7.0,29.74,1008.4,,,,,,,,,,,,,,,Clear,72000.0,,,73000.0,,,,,,
KRDR,05-10-2012,14:00,METAR,,180,16.0,,,9999.0,,15.0,6.0,29.76,1008.8,,,,,,,,,,,,,,,Clear,72000.0,,,73000.0,,,,,,
KRDR,05-10-2012,13:00,METAR,,160,11.0,,,9999.0,,11.0,6.0,29.77,1009.2,,,,,,,,,,,,,,,Clear,72000.0,,,73000.0,,,,,,
KRDR,05-10-2012,12:00,METAR,,170,7.0,,,9999.0,,8.0,5.0,29.77,1009.2,,,,,,,,,,,,,,,Clear,72000.0,,,73000.0,,,,,,
KRDR,05-10-2012,11:00,METAR,,190,7.0,,,9999.0,,6.0,4.0,29.78,1009.6,,,,,,,,,,,,,,,Clear,72000.0,,,73000.0,,,,,,
KRDR,05-10-2012,10:00,METAR,,190,6.0,,,9999.0,,8.0,4.0,29.78,1009.6,,,,,,,,,,,,,,,Clear,72000.0,,,73000.0,,,,,,
KRDR,05-10-2012,09:00,METAR,,190,6.0,,,9999.0,,8.0,4.0,29.78,1009.7,,,,,,,,,,,,,,,Clear,72000.0,,,73000.0,,,,,,
KRDR,05-10-2012,08:00,METAR,,190,10.0,,,9999.0,,11.0,4.0,29.79,1009.8,,,,,,,,,,,,,,,Clear,72000.0,,,73000.0,,,,,,
KRDR,05-10-2012,07:00,METAR,,190,8.0,,,9999.0,,10.0,3.0,29.80,1010.3,,,,,,,,,,,,,,,Clear,72000.0,,,73000.0,,,,,,
KRDR,05-10-2012,06:00,METAR,,190,9.0,,,9999.0,,11.0,4.0,29.82,1010.8,,,,,,,,,,,,,,,Clear,72000.0,,,73000.0,,,,,,
KRDR,05-10-2012,05:00,METAR,,180,7.0,,,9999.0,,11.0,4.0,29.82,1011.0,,,,,,,,,,,,,,,Clear,72000.0,,,73000.0,,,,,,
KRDR,05-10-2012,04:00,METAR,,180,9.0,,,9999.0,,12.0,4.0,29.83,1011.4,,,,,,,,,,,,,,,Clear,72000.0,,,73000.0,,,,,,
KRDR,05-10-2012,03:00,METAR,,160,9.0,,,9999.0,,13.0,3.0,29.84,1011.5,,,,,,,,,,,,,,,Clear,72000.0,,,73000.0,,,,,,
KRDR,05-10-2012,02:00,METAR,,180,9.0,,,9999.0,,15.0,3.0,29.83,1011.2,,,,,,,,,,,,,,,Clear,72000.0,,,73000.0,,,,,,
KRDR,05-10-2012,01:00,METAR,,190,9.0,,,9999.0,,18.0,3.0,29.84,1011.5,,,,,,,,,,,,,,,Clear,72000.0,,,73000.0,,,,,,
KRDR,05-10-2012,00:00,METAR,,180,10.0,,,9999.0,,19.0,3.0,29.85,1011.9,,,,,,,,,,,,,,,Clear,72000.0,,,73000.0,,,,,,
KRDR,05-09-2012,23:00,METAR,,200,11.0,,,9999.0,,20.0,2.0,29.87,1012.5,,,,,,,,,,,,,,,Clear,72000.0,,,73000.0,,,,,,
KRDR,05-09-2012,22:00,METAR,,200,15.0,21.0,,9999.0,,20.0,3.0,29.89,1013.2,,,,,,,,,,,,,,,Clear,72000.0,,,73000.0,,,,,,
KRDR,05-09-2012,21:00,METAR,,200,10.0,,,9999.0,,19.0,3.0,29.91,1014.0,,,,,,,,,,,,,,,Clear,72000.0,,,73000.0,,,,,,
KRDR,05-09-2012,20:00,METAR,,200,9.0,17.0,,9999.0,,18.0,4.0,29.94,1014.8,,,,,,,,,,,,,,,Clear,72000.0,,,73000.0,,,,,,
KRDR,05-09-2012,19:00,METAR,,210,10.0,17.0,,9999.0,,18.0,4.0,29.97,1015.8,,,,,,,,,,,,,,,Clear,72000.0,,,73000.0,,,,,,
KRDR,05-09-2012,18:00,METAR,,170,9.0,16.0,,9999.0,,17.0,5.0,30.00,1016.8,,,,,,,,,,,,,,,Clear,72000.0,,,73000.0,,,,,,
KRDR,05-09-2012,17:00,METAR,,180,8.0,,,9999.0,,15.0,6.0,30.03,1017.7,,,,,,,,,,,,,,,2/8 Mostly Clear,72000.0,,FEW,3800.0,,,,,,
KRDR,05-09-2012,16:00,METAR,,200,6.0,,,9999.0,,14.0,5.0,30.04,1018.2,,,,,,,,,,,,,,,2/8 Mostly Clear,72000.0,,FEW,3300.0,,,,,,
KRDR,05-09-2012,15:00,METAR,,210,6.0,,,9999.0,,13.0,6.0,30.06,1018.7,,,,,,,,,,,,,,,Clear,72000.0,,,73000.0,,,,,,
KRDR,05-09-2012,14:00,METAR,,190,3.0,,,9999.0,,10.0,7.0,30.07,1019.2,,,,,,,,,,,,,,,Clear,72000.0,,,73000.0,,,,,,
KRDR,05-09-2012,13:00,METAR,,200,3.0,,,9999.0,,6.0,4.0,30.07,1019.2,,,,,,,,,,,,,,,Clear,72000.0,,,73000.0,,,,,,
KRDR,05-09-2012,12:00,METAR,,230,3.0,,,9999.0,,3.0,2.0,30.07,1019.1,,,,,,,,,,,,,,.02 IN,Clear,72000.0,,,73000.0,,,,,,
KRDR,05-09-2012,11:00,METAR,,220,4.0,,,9999.0,,2.0,1.0,30.07,1019.0,,,,,,,,,,,,,,,Clear,72000.0,,,73000.0,,,,,,
KRDR,05-09-2012,10:00,METAR,,260,3.0,,,9999.0,,3.0,2.0,30.07,1019.1,,,,,,,,,,,,,,,Clear,72000.0,,,73000.0,,,,,,
KRDR,05-09-2012,09:00,METAR,,280,3.0,,,9999.0,,1.0,0.0,30.07,1019.0,,,,,,,,,,,,,,,Clear,72000.0,,,73000.0,,,,,,
KRDR,05-09-2012,08:00,METAR,,280,3.0,,,9999.0,,2.0,1.0,30.07,1019.1,,,,,,,,,,,,,,,Clear,72000.0,,,73000.0,,,,,,
KRDR,05-09-2012,07:00,METAR,,280,4.0,,,9999.0,,2.0,1.0,30.09,1019.7,,,,,,,,,,,,,,,Clear,72000.0,,,73000.0,,,,,,
KRDR,05-09-2012,06:00,METAR,,260,3.0,,,9999.0,,2.0,2.0,30.09,1019.9,,,,,,,,,,,,,,,Clear,72000.0,,,73000.0,,,,,,
KRDR,05-09-2012,05:00,METAR,,300,4.0,,,9999.0,,3.0,3.0,30.09,1019.7,,,,,,,,,,,,,,,Clear,72000.0,,,73000.0,,,,,,
KRDR,05-09-2012,04:00,METAR,,,0.0,,,9999.0,,5.0,4.0,30.08,1019.5,,,,,,,,,,,,,,,Clear,72000.0,,,73000.0,,,,,,
KRDR,05-09-2012,03:00,METAR,,10,3.0,,,9999.0,,8.0,6.0,30.08,1019.3,,,,,,,,,,,,,,,Clear,72000.0,,,73000.0,,,,,,
KRDR,05-09-2012,02:00,METAR,,,0.0,,,9999.0,,11.0,7.0,30.07,1019.1,,,,,,,,,,,,,,,8/8 Overcast,4900.0,,OVC,5000.0,,,,,,
KRDR,05-09-2012,01:00,METAR,,350,4.0,,,9999.0,,12.0,6.0,30.06,1019.0,,,,,,,,,,,,,,,8/8 Overcast,4900.0,,OVC,5000.0,,,,,,
KRDR,05-09-2012,00:00,METAR,,360,5.0,,,9999.0,,12.0,6.0,30.06,1018.7,,,,,,,,,,,,,,,8/8 Overcast,4400.0,,OVC,4500.0,,,,,,
