Platform Id,Date,Time (UTC),Report Type,Wind Condition,Wind Direction,Wind Speed (Knots),Wind Gust Speed,Peak Wind (Knots),Visibility (M),Weather,Air Temp (C),Dew Point (C),Altimeter (inHg),SLP (Millibars),Present Automated 1,Present Automated 2,Present Automated 3,Present Manual 1,Present Manual 2,Present Manual 3,Present Manual 4,Present Manual 5,Present Manual 6,Present Manual 7,Precip Hr1,Precip Hr3,Precip Hr6,Precip Hr24,Cloud Cover,Cloud Ceiling (Feet),Lowest Cloud Base Height (Feet),Cloud Cover1,Cloudbase 1,Cloud Cover2,Cloudbase 2,Cloud Cover3,Cloudbase 3,Cloud Cover4,Cloudbase 4
KRDR,11-10-2011,23:00,METAR,,230,6.0,,,9999.0,,3.0,-8.0,29.95,1015.2,,,,,,,,,,,,,,,7/8 Mostly Cloudy,10000.0,,BKN,9900.0,,,,,,
KRDR,11-10-2011,22:00,METAR,,260,5.0,,,9999.0,,4.0,-8.0,29.97,1015.9,,,,,,,,,,,,,,,2/8 Mostly Clear,72000.0,,FEW,11000.0,,,,,,
KRDR,11-10-2011,21:00,METAR,,270,4.0,,,9999.0,,4.0,-9.0,30.00,1016.8,,,,,,,,,,,,,,,Clear,72000.0,,,73000.0,,,,,,
KRDR,11-10-2011,20:00,METAR,,300,6.0,,,9999.0,,5.0,-8.0,30.02,1017.6,,,,,,,,,,,,,,,Clear,72000.0,,,73000.0,,,,,,
KRDR,11-10-2011,19:00,METAR,,300,4.0,,,9999.0,,3.0,-7.0,30.06,1018.9,,,,,,,,,,,,,,,Clear,72000.0,,,73000.0,,,,,,
KRDR,11-10-2011,18:00,METAR,,330,6.0,,,9999.0,,2.0,-5.0,30.10,1020.1,,,,,,,,,,,,,,,Clear,72000.0,,,73000.0,,,,,,
KRDR,11-10-2011,17:00,METAR,,320,10.0,,,9999.0,,1.0,-5.0,30.12,1020.8,,,,,,,,,,,,,,,Clear,72000.0,,,73000.0,,,,,,
KRDR,11-10-2011,16:00,METAR,,310,10.0,,,9999.0,,-2.0,-6.0,30.14,1021.3,,,,,,,,,,,,,,,Clear,72000.0,,,73000.0,,,,,,
KRDR,11-10-2011,15:00,METAR,,300,7.0,,,9999.0,,-4.0,-6.0,30.14,1021.3,,,,,,,,,,,,,,,Clear,72000.0,,,73000.0,,,,,,
KRDR,11-10-2011,14:00,METAR,,320,8.0,,,9999.0,,-5.0,-6.0,30.13,1021.2,,,,,,,,,,,,,,,Clear,72000.0,,,73000.0,,,,,,
KRDR,11-10-2011,13:00,METAR,,330,10.0,,,9999.0,,-5.0,-6.0,30.14,1021.4,,,,,,,,,,,,,,,Clear,72000.0,,,73000.0,,,,,,
KRDR,11-10-2011,12:00,METAR,,330,9.0,,,9999.0,,-4.0,-6.0,30.13,1021.1,,,,,,,,,,,,,,,Clear,72000.0,,,73000.0,,,,,,
KRDR,11-10-2011,11:00,METAR,,320,11.0,,,9999.0,,-3.0,-6.0,30.13,1021.0,,,,,,,,,,,,,,,Clear,72000.0,,,73000.0,,,,,,
KRDR,11-10-2011,10:00,METAR,,320,13.0,,,9999.0,,-3.0,-6.0,30.12,1020.8,,,,,,,,,,,,,,,Clear,72000.0,,,73000.0,,,,,,
KRDR,11-10-2011,09:00,METAR,,320,13.0,,,9999.0,,-3.0,-6.0,30.12,1020.9,,,,,,,,,,,,,,,Clear,72000.0,,,73000.0,,,,,,
KRDR,11-10-2011,08:00,METAR,,330,14.0,21.0,,9999.0,,-1.0,-6.0,30.11,1020.6,,,,,,,,,,,,,,,8/8 Overcast,3100.0,,OVC,3200.0,,,,,,
KRDR,11-10-2011,07:00,METAR,,330,11.0,,,9999.0,,-1.0,-5.0,30.11,1020.6,,,,,,,,,,,,,,,8/8 Overcast,3500.0,,BKN,3600.0,OVC,5900.0,,,,
KRDR,11-10-2011,06:00,METAR,,330,12.0,17.0,,9999.0,,0.0,-4.0,30.11,1020.4,,,,,,,,,,,,,,,8/8 Overcast,3600.0,,BKN,3700.0,OVC,5000.0,,,,
KRDR,11-10-2011,05:00,METAR,,330,11.0,,,9999.0,,0.0,-4.0,30.11,1020.4,,,,,,,,,,,,,,,7/8 Mostly Cloudy,4900.0,,BKN,5000.0,,,,,,
KRDR,11-10-2011,04:00,METAR,,330,13.0,,,9999.0,,0.0,-4.0,30.10,1020.3,,,,,,,,,,,,,,,4/8 Partly Cloudy,72000.0,,FEW,3800.0,SCT,5900.0,,,,
KRDR,11-10-2011,03:00,METAR,,330,14.0,24.0,,9999.0,,1.0,-4.0,30.10,1020.1,,,,,,,,,,,,,,,8/8 Overcast,3600.0,,OVC,3700.0,,,,,,
KRDR,11-10-2011,02:00,METAR,,330,12.0,19.0,,9999.0,,2.0,-4.0,30.09,1019.9,,,,,,,,,,,,,,,8/8 Overcast,3300.0,,BKN,3400.0,BKN,4100.0,OVC,5900.0,,
KRDR,11-10-2011,01:00,METAR,,330,13.0,19.0,,9999.0,,2.0,-3.0,30.10,1020.3,,,,,,,,,,,,,,,8/8 Overcast,4200.0,,BKN,4300.0,OVC,6900.0,,,,
KRDR,11-10-2011,00:16,SPECI,,330,11.0,19.0,,9999.0,,2.0,-3.0,30.11,1020.4,,,,,,,,,,,,,,,8/8 Overcast,3500.0,,SCT,2700.0,OVC,3600.0,,,,
KRDR,11-10-2011,00:00,METAR,,330,18.0,23.0,,9999.0,,2.0,-3.0,30.11,1020.5,,,,,,,,,,,,,TRACE,,8/8 Overcast,2600.0,,OVC,2600.0,,,,,,
KRDR,11-09-2011,23:00,METAR,,340,16.0,19.0,,9999.0,,2.0,-3.0,30.11,1020.6,,,,,,,,,,,TRACE,,,,8/8 Overcast,2400.0,,OVC,2600.0,,,,,,
KRDR,11-09-2011,22:13,SPECI,,340,15.0,23.0,,9999.0,,2.0,-3.0,30.11,1020.3,,,,,,,,,,,,,,,8/8 Overcast,2300.0,,OVC,2400.0,,,,,,
KRDR,11-09-2011,22:04,SPECI,,340,17.0,24.0,,9999.0,Unknown Precipitation,2.0,-3.0,30.10,1020.2,40,,,,,,,,,,,,,,8/8 Overcast,2300.0,,OVC,2400.0,,,,,,
KRDR,11-09-2011,22:00,METAR,,340,20.0,25.0,330/26KTS,9999.0,,2.0,-3.0,30.10,1020.1,,,,,,,,,,,TRACE,,,,8/8 Overcast,2400.0,,OVC,2400.0,,,,,,
KRDR,11-09-2011,21:30,SPECI,,330,18.0,24.0,330/26KTS,9999.0,,2.0,-3.0,30.10,1020.2,,,,,,,,,,,,,,,8/8 Overcast,2100.0,,OVC,2600.0,,,,,,
KRDR,11-09-2011,21:19,SPECI,,330,15.0,25.0,330/26KTS,9999.0,Light Rain,2.0,-2.0,30.10,1020.2,61,,,,,,,,,,,,,,8/8 Overcast,2100.0,,OVC,2600.0,,,,,,
KRDR,11-09-2011,21:13,SPECI,,330,13.0,25.0,330/26KTS,9999.0,,2.0,-2.0,30.11,1020.3,,,,,,,,,,,,,,,8/8 Overcast,2100.0,,BKN,2400.0,OVC,2900.0,,,,
KRDR,11-09-2011,21:00,METAR,,330,20.0,24.0,340/27KTS,9999.0,Light Rain,2.0,-3.0,30.10,1020.2,61,,,,,,,,,,TRACE,0 IN,,,8/8 Overcast,2100.0,,OVC,2300.0,,,,,,
KRDR,11-09-2011,20:25,SPECI,,330,18.0,25.0,,9999.0,Light Rain,2.0,-3.0,30.10,1020.1,61,,,,,,,,,,,,,,8/8 Overcast,2300.0,,OVC,2500.0,,,,,,
KRDR,11-09-2011,20:23,SPECI,,330,18.0,25.0,,9999.0,,2.0,-3.0,30.10,1020.2,,,,,,,,,,,,,,,8/8 Overcast,2300.0,,OVC,2500.0,,,,,,
KRDR,11-09-2011,20:00,METAR,,340,18.0,25.0,330/26KTS,9999.0,,2.0,-3.0,30.11,1020.4,,,,,,,,,,,TRACE,,,,8/8 Overcast,2400.0,,OVC,2500.0,,,,,,
KRDR,11-09-2011,19:54,SPECI,,330,14.0,25.0,,9999.0,Light Rain,2.0,-3.0,30.11,1020.5,61,,,,,,,,,,,,,,8/8 Overcast,2400.0,,OVC,2500.0,,,,,,
KRDR,11-09-2011,19:46,SPECI,,340,17.0,23.0,330/26KTS,9999.0,,2.0,-3.0,30.11,1020.4,,,,,,,,,,,,,,,8/8 Overcast,2400.0,,OVC,2500.0,,,,,,
KRDR,11-09-2011,19:16,SPECI,,330,15.0,22.0,,9999.0,Light Snow,2.0,-3.0,30.11,1020.5,,,,71,,,,,,,,,,,8/8 Overcast,2000.0,,OVC,2500.0,,,,,,
KRDR,11-09-2011,19:00,METAR,,330,17.0,23.0,350/26KTS,9999.0,,2.0,-3.0,30.11,1020.6,,,,,,,,,,,,,,,8/8 Overcast,2400.0,,OVC,2400.0,,,,,,
KRDR,11-09-2011,18:00,METAR,,330,19.0,26.0,320/26KTS,9999.0,,4.0,-3.0,30.11,1020.6,,,,,,,,,,,,,,,7/8 Mostly Cloudy,2900.0,,BKN,2900.0,BKN,5000.0,,,,
KRDR,11-09-2011,17:00,METAR,,320,16.0,24.0,320/27KTS,9999.0,,3.0,-4.0,30.12,1020.9,,,,,,,,,,,,,,,Clear,72000.0,,,73000.0,,,,,,
KRDR,11-09-2011,16:00,METAR,,310,12.0,18.0,,9999.0,,2.0,-3.0,30.12,1020.9,,,,,,,,,,,,,,,Clear,72000.0,,,73000.0,,,,,,
KRDR,11-09-2011,15:00,METAR,,320,9.0,,,9999.0,,-1.0,-4.0,30.13,1021.2,,,,,,,,,,,,,,,Clear,72000.0,,,73000.0,,,,,,
KRDR,11-09-2011,14:00,METAR,,290,7.0,,,9999.0,,-3.0,-4.0,30.12,1020.8,,,,,,,,,,,,,,,Clear,72000.0,,,73000.0,,,,,,
KRDR,11-09-2011,13:00,METAR,,280,9.0,,,9999.0,,-3.0,-4.0,30.11,1020.4,,,,,,,,,,,,,,,Clear,72000.0,,,73000.0,,,,,,
KRDR,11-09-2011,12:00,METAR,,280,6.0,,,9999.0,,-3.0,-4.0,30.11,1020.6,,,,,,,,,,,,,,,Clear,72000.0,,,73000.0,,,,,,
KRDR,11-09-2011,11:00,METAR,,290,6.0,,,9999.0,,-3.0,-4.0,30.11,1020.4,,,,,,,,,,,,,,,Clear,72000.0,,,73000.0,,,,,,
KRDR,11-09-2011,10:00,METAR,,290,9.0,,,9999.0,,-2.0,-4.0,30.11,1020.5,,,,,,,,,,,,,,,Clear,72000.0,,,73000.0,,,,,,
KRDR,11-09-2011,09:00,METAR,,290,8.0,,,9999.0,,-3.0,-4.0,30.11,1020.6,,,,,,,,,,,,,,,Clear,72000.0,,,73000.0,,,,,,
KRDR,11-09-2011,08:00,METAR,,300,6.0,,,9999.0,,-2.0,-5.0,30.11,1020.4,,,,,,,,,,,,,,,Clear,72000.0,,,73000.0,,,,,,
KRDR,11-09-2011,07:00,METAR,,290,6.0,,,9999.0,,-1.0,-5.0,30.10,1020.3,,,,,,,,,,,,,,,Clear,72000.0,,,73000.0,,,,,,
KRDR,11-09-2011,06:00,METAR,,300,8.0,,,9999.0,,0.0,-5.0,30.09,1019.7,,,,,,,,,,,,,,,Clear,72000.0,,,73000.0,,,,,,
KRDR,11-09-2011,05:00,METAR,,280,7.0,,,9999.0,,1.0,-6.0,30.07,1019.2,,,,,,,,,,,,,,,Clear,72000.0,,,73000.0,,,,,,
KRDR,11-09-2011,04:00,METAR,,250,7.0,,,9999.0,,-3.0,-8.0,30.06,1019.0,,,,,,,,,,,,,,,Clear,72000.0,,,73000.0,,,,,,
KRDR,11-09-2011,03:00,METAR,,240,6.0,,,9999.0,,-3.0,-8.0,30.07,1019.2,,,,,,,,,,,,,,,Clear,72000.0,,,73000.0,,,,,,
KRDR,11-09-2011,02:00,METAR,,230,6.0,,,9999.0,,-3.0,-8.0,30.07,1019.2,,,,,,,,,,,,,,,Clear,72000.0,,,73000.0,,,,,,
KRDR,11-09-2011,01:00,METAR,,240,3.0,,,9999.0,,-2.0,-7.0,30.07,1019.3,,,,,,,,,,,,,,,Clear,72000.0,,,73000.0,,,,,,
KRDR,11-09-2011,00:00,METAR,,270,4.0,,,9999.0,,0.0,-6.0,30.07,1019.1,,,,,,,,,,,,,,,Clear,72000.0,,,73000.0,,,,,,
KRDR,11-08-2011,23:00,METAR,,270,6.0,,,9999.0,,6.0,-5.0,30.06,1018.8,,,,,,,,,,,,,,,Clear,72000.0,,,73000.0,,,,,,
KRDR,11-08-2011,22:00,METAR,,250,10.0,,,9999.0,,10.0,-5.0,30.06,1018.7,,,,,,,,,,,,,,,Clear,72000.0,,,73000.0,,,,,,
KRDR,11-08-2011,21:00,METAR,,240,13.0,,,9999.0,,10.0,-3.0,30.05,1018.5,,,,,,,,,,,,,,,Clear,72000.0,,,73000.0,,,,,,
KRDR,11-08-2011,20:00,METAR,,230,15.0,,,9999.0,,11.0,-4.0,30.05,1018.6,,,,,,,,,,,,,,,Clear,72000.0,,,73000.0,,,,,,
KRDR,11-08-2011,19:00,METAR,,190,11.0,,,9999.0,,10.0,-5.0,30.07,1019.1,,,,,,,,,,,,,,,Clear,72000.0,,,73000.0,,,,,,
KRDR,11-08-2011,18:00,METAR,,200,10.0,,,9999.0,,9.0,-5.0,30.09,1019.9,,,,,,,,,,,,,,,Clear,72000.0,,,73000.0,,,,,,
KRDR,11-08-2011,17:00,METAR,,220,11.0,,,9999.0,,7.0,-5.0,30.11,1020.5,,,,,,,,,,,,,,,Clear,72000.0,,,73000.0,,,,,,
KRDR,11-08-2011,16:00,METAR,,230,5.0,,,9999.0,,5.0,-3.0,30.12,1020.8,,,,,,,,,,,,,,,Clear,72000.0,,,73000.0,,,,,,
KRDR,11-08-2011,15:00,METAR,,,0.0,,,9999.0,,-4.0,-6.0,30.13,1021.1,,,,,,,,,,,,,,,Clear,72000.0,,,73000.0,,,,,,
KRDR,11-08-2011,14:00,METAR,,140,4.0,,,9999.0,,-8.0,-9.0,30.14,1021.5,,,,,,,,,,,,,,,Clear,72000.0,,,73000.0,,,,,,
KRDR,11-08-2011,13:00,METAR,,150,5.0,,,9999.0,,-8.0,-8.0,30.14,1021.6,,,,,,,,,,,,,,,Clear,72000.0,,,73000.0,,,,,,
KRDR,11-08-2011,12:00,METAR,,210,3.0,,,9999.0,,-8.0,-9.0,30.15,1021.6,,,,,,,,,,,,,,.02 IN,Clear,72000.0,,,73000.0,,,,,,
KRDR,11-08-2011,11:00,METAR,,180,6.0,,,9999.0,,-9.0,-9.0,30.14,1021.5,,,,,,,,,,,,,,,Clear,72000.0,,,73000.0,,,,,,
KRDR,11-08-2011,10:00,METAR,,210,3.0,,,9999.0,,-10.0,-10.0,30.13,1021.2,,,,,,,,,,,,,,,Clear,72000.0,,,73000.0,,,,,,
KRDR,11-08-2011,09:00,METAR,,,0.0,,,9999.0,,-10.0,-11.0,30.14,1021.3,,,,,,,,,,,,,,,Clear,72000.0,,,73000.0,,,,,,
KRDR,11-08-2011,08:00,METAR,,,0.0,,,9999.0,,-9.0,-10.0,30.14,1021.5,,,,,,,,,,,,,,,Clear,72000.0,,,73000.0,,,,,,
KRDR,11-08-2011,07:00,METAR,,,0.0,,,9999.0,,-9.0,-10.0,30.14,1021.6,,,,,,,,,,,,,,,Clear,72000.0,,,73000.0,,,,,,
KRDR,11-08-2011,06:00,METAR,,,0.0,,,9999.0,,-8.0,-9.0,30.14,1021.6,,,,,,,,,,,,,,,Clear,72000.0,,,73000.0,,,,,,
KRDR,11-08-2011,05:00,METAR,,,0.0,,,9999.0,,-7.0,-9.0,30.15,1021.8,,,,,,,,,,,,,,,Clear,72000.0,,,73000.0,,,,,,
KRDR,11-08-2011,04:00,METAR,,230,3.0,,,9999.0,,-5.0,-7.0,30.16,1022.1,,,,,,,,,,,,,,,Clear,72000.0,,,73000.0,,,,,,
KRDR,11-08-2011,03:00,METAR,,210,3.0,,,9999.0,,-4.0,-7.0,30.17,1022.5,,,,,,,,,,,,,,,Clear,72000.0,,,73000.0,,,,,,
KRDR,11-08-2011,02:00,METAR,,240,4.0,,,9999.0,,-5.0,-7.0,30.17,1022.3,,,,,,,,,,,,,,,Clear,72000.0,,,73000.0,,,,,,
KRDR,11-08-2011,01:00,METAR,,210,6.0,,,9999.0,,-2.0,-6.0,30.16,1022.0,,,,,,,,,,,,,,,Clear,72000.0,,,73000.0,,,,,,
KRDR,11-08-2011,00:00,METAR,,290,5.0,,,9999.0,,0.0,-5.0,30.13,1021.2,,,,,,,,,,,,,.02 IN,,Clear,72000.0,,,73000.0,,,,,,
KRDR,11-07-2011,23:00,METAR,,310,6.0,,,9999.0,,3.0,-4.0,30.12,1020.7,,,,,,,,,,,,,,,Clear,72000.0,,,73000.0,,,,,,
KRDR,11-07-2011,22:00,METAR,,300,11.0,,,9999.0,,5.0,-6.0,30.10,1020.3,,,,,,,,,,,,,,,Clear,72000.0,,,73000.0,,,,,,
KRDR,11-07-2011,21:00,METAR,,300,16.0,,,9999.0,,6.0,-6.0,30.09,1019.8,,,,,,,,,,,,.02 IN,,,Clear,72000.0,,,73000.0,,,,,,
KRDR,11-07-2011,20:00,METAR,,300,13.0,21.0,,9999.0,,6.0,-6.0,30.08,1019.5,,,,,,,,,,,.02 IN,,,,Clear,72000.0,,,73000.0,,,,,,
KRDR,11-07-2011,19:00,METAR,,310,11.0,,,9999.0,,6.0,-6.0,30.08,1019.4,,,,,,,,,,,,,,,Clear,72000.0,,,73000.0,,,,,,
KRDR,11-07-2011,18:00,METAR,,290,13.0,18.0,,9999.0,,5.0,-4.0,30.07,1019.3,,,,,,,,,,,,,,,Clear,72000.0,,,73000.0,,,,,,
KRDR,11-07-2011,17:00,METAR,,310,14.0,19.0,,9999.0,,4.0,-4.0,30.05,1018.5,,,,,,,,,,,,,,,Clear,72000.0,,,73000.0,,,,,,
KRDR,11-07-2011,16:00,METAR,,310,16.0,24.0,,9999.0,,3.0,-4.0,30.02,1017.4,,,,,,,,,,,,,,,Clear,72000.0,,,73000.0,,,,,,
KRDR,11-07-2011,15:00,METAR,,290,13.0,,,9999.0,,2.0,-3.0,29.99,1016.4,,,,,,,,,,,,,,,Clear,72000.0,,,73000.0,,,,,,
KRDR,11-07-2011,14:00,METAR,,300,11.0,,,9999.0,,0.0,-4.0,29.97,1015.7,,,,,,,,,,,,,,,2/8 Mostly Clear,72000.0,,FEW,2300.0,,,,,,
KRDR,11-07-2011,13:39,SPECI,,300,13.0,,,9999.0,,0.0,-4.0,29.96,1015.4,,,,,,,,,,,,,,,4/8 Partly Cloudy,72000.0,,SCT,2300.0,,,,,,
KRDR,11-07-2011,13:00,METAR,,300,14.0,25.0,290/28KTS,9999.0,,1.0,-4.0,29.94,1014.7,,,,,,,,,,,,,,,8/8 Overcast,2100.0,,OVC,2600.0,,,,,,
KRDR,11-07-2011,12:12,SPECI,,290,13.0,,,9999.0,,1.0,-3.0,29.92,1014.1,,,,,,,,,,,,,,,8/8 Overcast,2000.0,,BKN,2500.0,OVC,3100.0,,,,
KRDR,11-07-2011,12:10,SPECI,,300,13.0,20.0,,9999.0,,1.0,-3.0,29.91,1014.0,,,,,,,,,,,,,,,8/8 Overcast,2300.0,,SCT,2300.0,OVC,3200.0,,,,
KRDR,11-07-2011,12:00,METAR,,290,13.0,18.0,,9999.0,,1.0,-3.0,29.91,1013.8,,,,,,,,,,,,,TRACE,,7/8 Mostly Cloudy,2000.0,,BKN,2200.0,,,,,,
KRDR,11-07-2011,11:39,SPECI,,290,14.0,,,9999.0,,1.0,-3.0,29.90,1013.4,,,,,,,,,,,,,,,7/8 Mostly Cloudy,1900.0,,BKN,2200.0,,,,,,
KRDR,11-07-2011,11:00,METAR,,300,13.0,23.0,,9999.0,,1.0,-2.0,29.86,1012.2,,,,,,,,,,,TRACE,,,,4/8 Partly Cloudy,72000.0,,SCT,2300.0,SCT,2900.0,,,,
KRDR,11-07-2011,10:18,SPECI,,300,15.0,23.0,,9999.0,,1.0,-3.0,29.84,1011.5,,,,,,,,,,,,,,,4/8 Partly Cloudy,72000.0,,FEW,2700.0,SCT,3200.0,,,,
KRDR,11-07-2011,10:08,SPECI,,300,17.0,23.0,,9999.0,Unknown Precipitation,1.0,-3.0,29.83,1011.1,40,,,,,,,,,,,,,,4/8 Partly Cloudy,72000.0,,SCT,3100.0,,,,,,
KRDR,11-07-2011,10:00,METAR,,290,15.0,24.0,280/28KTS,9999.0,,1.0,-3.0,29.82,1010.9,,,,,,,,,,,,,,,4/8 Partly Cloudy,72000.0,,SCT,3200.0,,,,,,
KRDR,11-07-2011,09:00,METAR,,290,15.0,23.0,,9999.0,,1.0,-4.0,29.79,1010.0,,,,,,,,,,,,,,,4/8 Partly Cloudy,72000.0,,SCT,9900.0,,,,,,
KRDR,11-07-2011,08:00,METAR,,290,19.0,24.0,,9999.0,,1.0,-4.0,29.75,1008.6,,,,,,,,,,,,,,,7/8 Mostly Cloudy,6000.0,,FEW,3400.0,SCT,5900.0,BKN,6900.0,,
KRDR,11-07-2011,07:00,METAR,,290,15.0,24.0,280/28KTS,9999.0,,2.0,-4.0,29.71,1007.3,,,,,,,,,,,,,,,8/8 Overcast,3100.0,,OVC,3200.0,,,,,,
KRDR,11-07-2011,06:00,METAR,,270,14.0,23.0,,9999.0,,2.0,-4.0,29.68,1006.4,,,,,,,,,,,,,,,8/8 Overcast,3200.0,,OVC,3300.0,,,,,,
KRDR,11-07-2011,05:00,METAR,,270,15.0,22.0,,9999.0,,1.0,-4.0,29.65,1005.4,,,,,,,,,,,,,,,8/8 Overcast,3200.0,,OVC,3300.0,,,,,,
KRDR,11-07-2011,04:00,METAR,,260,16.0,24.0,250/30KTS,9999.0,,2.0,-4.0,29.63,1004.7,,,,,,,,,,,,,,,4/8 Partly Cloudy,72000.0,,SCT,3000.0,,,,,,
KRDR,11-07-2011,03:00,METAR,,250,21.0,28.0,270/32KTS,9999.0,,2.0,-4.0,29.61,1003.9,,,,,,,,,,,,,,,7/8 Mostly Cloudy,4900.0,,BKN,5000.0,,,,,,
KRDR,11-07-2011,02:00,METAR,,250,22.0,32.0,240/37KTS,9999.0,,2.0,-4.0,29.57,1002.7,,,,,,,,,,,,,,,7/8 Mostly Cloudy,4800.0,,SCT,3400.0,BKN,4900.0,,,,
KRDR,11-07-2011,01:00,METAR,,250,20.0,31.0,270/32KTS,9999.0,,3.0,-4.0,29.54,1001.8,,,,,,,,,,,,,,,8/8 Overcast,3700.0,,OVC,3800.0,,,,,,
KRDR,11-07-2011,00:00,METAR,,250,20.0,29.0,240/30KTS,9999.0,,3.0,-4.0,29.53,1001.3,,,,,,,,,,,,,,,8/8 Overcast,3600.0,,BKN,3700.0,BKN,4400.0,OVC,5900.0,,
KRDR,11-06-2011,23:00,METAR,,250,19.0,26.0,260/37KTS,9999.0,,4.0,-3.0,29.50,1000.4,,,,,,,,,,,,,,,8/8 Overcast,3400.0,,SCT,3600.0,OVC,4200.0,,,,
KRDR,11-06-2011,22:00,METAR,,250,20.0,30.0,240/31KTS,9999.0,,4.0,-3.0,29.47,999.5,,,,,,,,,,,,,,,8/8 Overcast,3400.0,,OVC,3500.0,,,,,,
KRDR,11-06-2011,21:10,SPECI,,240,20.0,28.0,260/29KTS,9999.0,,4.0,-2.0,29.45,998.7,,,,,,,,,,,,,,,8/8 Overcast,3000.0,,OVC,3000.0,,,,,,
KRDR,11-06-2011,21:00,METAR,,250,19.0,24.0,250/30KTS,9999.0,,4.0,-2.0,29.44,998.3,,,,,,,,,,,,,,,8/8 Overcast,2500.0,,OVC,2700.0,,,,,,
KRDR,11-06-2011,20:00,METAR,,250,18.0,26.0,250/26KTS,9999.0,,4.0,-2.0,29.41,997.4,,,,,,,,,,,,,,,8/8 Overcast,2700.0,,BKN,2700.0,OVC,6900.0,,,,
KRDR,11-06-2011,19:36,SPECI,,260,21.0,26.0,260/26KTS,9999.0,,4.0,-1.0,29.41,997.2,,,,,,,,,,,,,,,8/8 Overcast,2500.0,,BKN,2500.0,BKN,4100.0,OVC,5900.0,,
KRDR,11-06-2011,19:02,SPECI,,260,17.0,24.0,,9999.0,,4.0,-1.0,29.39,996.7,,,,,,,,,,,,,,,8/8 Overcast,2400.0,,SCT,2200.0,OVC,3800.0,,,,
KRDR,11-06-2011,19:00,METAR,,250,15.0,28.0,260/28KTS,9999.0,,5.0,0.0,29.39,996.6,,,,,,,,,,,,,,,8/8 Overcast,2100.0,,BKN,2100.0,OVC,3800.0,,,,
KRDR,11-06-2011,18:00,METAR,,260,15.0,24.0,250/26KTS,9999.0,,5.0,1.0,29.37,996.1,,,,,,,,,,,,,TRACE,,8/8 Overcast,1800.0,,OVC,1900.0,,,,,,
KRDR,11-06-2011,17:00,METAR,,250,18.0,24.0,230/27KTS,9999.0,,5.0,2.0,29.34,995.2,,,,,,,,,,,,,,,8/8 Overcast,3900.0,,SCT,1900.0,BKN,4000.0,OVC,4700.0,,
KRDR,11-06-2011,16:54,SPECI,,250,15.0,23.0,,9999.0,,5.0,2.0,29.35,995.3,,,,,,,,,,,,,,,8/8 Overcast,1700.0,,BKN,1900.0,BKN,4000.0,OVC,4700.0,,
KRDR,11-06-2011,16:42,SPECI,,250,18.0,26.0,230/27KTS,9999.0,,5.0,2.0,29.34,995.0,,,,,,,,,,,,,,,8/8 Overcast,3800.0,,SCT,1800.0,OVC,3900.0,,,,
KRDR,11-06-2011,16:00,METAR,,240,16.0,,240/27KTS,9999.0,,6.0,2.0,29.33,994.6,,,,,,,,,,,,,,,8/8 Overcast,1800.0,,OVC,1800.0,,,,,,
KRDR,11-06-2011,15:24,SPECI,,230,19.0,24.0,,9999.0,,5.0,2.0,29.31,994.2,,,,,,,,,,,,,,,8/8 Overcast,1800.0,,BKN,1800.0,OVC,5900.0,,,,
KRDR,11-06-2011,15:00,METAR,,230,15.0,,,9999.0,,5.0,2.0,29.30,993.9,,,,,,,,,,,,TRACE,,,8/8 Overcast,4900.0,,FEW,1800.0,OVC,5000.0,,,,
KRDR,11-06-2011,14:00,METAR,,210,13.0,21.0,,9999.0,,5.0,2.0,29.29,993.4,,,,,,,,,,,,,,,8/8 Overcast,6000.0,,OVC,5900.0,,,,,,
KRDR,11-06-2011,13:00,METAR,,180,17.0,,180/31KTS,9999.0,,8.0,5.0,29.26,992.4,,,,,,,,,,,TRACE,,,,8/8 Overcast,6000.0,,FEW,2400.0,OVC,5900.0,,,,
KRDR,11-06-2011,12:39,SPECI,,180,19.0,28.0,180/31KTS,9999.0,,8.0,5.0,29.25,992.1,,,,,,,,,,,,,,,8/8 Overcast,6000.0,,SCT,2300.0,OVC,5900.0,,,,
KRDR,11-06-2011,12:16,SPECI,,170,20.0,,,9999.0,,8.0,7.0,29.25,992.1,,,,,,,,,,,,,,,8/8 Overcast,2400.0,,SCT,2000.0,BKN,2600.0,OVC,9900.0,,
KRDR,11-06-2011,12:10,SPECI,,170,18.0,,,9999.0,Light Rain,8.0,7.0,29.25,992.2,61,,,,,,,,,,,,,,8/8 Overcast,2800.0,,FEW,2200.0,BKN,2800.0,OVC,9900.0,,
KRDR,11-06-2011,12:01,SPECI,,160,18.0,24.0,,9999.0,Light Rain,9.0,6.0,29.26,992.3,61,,,,,,,,,,,,,,8/8 Overcast,10000.0,,FEW,3100.0,OVC,9900.0,,,,
KRDR,11-06-2011,12:00,METAR,,190,19.0,23.0,180/26KTS,9999.0,,9.0,6.0,29.26,992.4,,,,,,,,,,,,,,,8/8 Overcast,10000.0,,OVC,9900.0,,,,,,
KRDR,11-06-2011,11:00,METAR,,150,17.0,,,9999.0,,8.0,6.0,29.27,992.8,,,,,,,,,,,,,,,8/8 Overcast,11000.0,,OVC,11000.0,,,,,,
KRDR,11-06-2011,10:00,METAR,,150,14.0,21.0,,9999.0,,8.0,6.0,29.29,993.4,,,,,,,,,,,,,,,Clear,72000.0,,,73000.0,,,,,,
KRDR,11-06-2011,09:00,METAR,,150,17.0,,,9999.0,,9.0,5.0,29.32,994.4,,,,,,,,,,,,,,,Clear,72000.0,,,73000.0,,,,,,
KRDR,11-06-2011,08:00,METAR,,160,19.0,24.0,150/26KTS,9999.0,,10.0,5.0,29.34,995.0,,,,,,,,,,,,,,,Clear,72000.0,,,73000.0,,,,,,
KRDR,11-06-2011,07:00,METAR,,150,19.0,24.0,,9999.0,,10.0,5.0,29.36,995.6,,,,,,,,,,,,,,,Clear,72000.0,,,73000.0,,,,,,
KRDR,11-06-2011,06:00,METAR,,150,17.0,22.0,,9999.0,,11.0,4.0,29.38,996.3,,,,,,,,,,,,,,,Clear,72000.0,,,73000.0,,,,,,
KRDR,11-06-2011,05:00,METAR,,150,16.0,,,9999.0,,11.0,4.0,29.39,996.7,,,,,,,,,,,,,,,Clear,72000.0,,,73000.0,,,,,,
KRDR,11-06-2011,04:00,METAR,,140,11.0,,,9999.0,,10.0,3.0,29.40,997.0,,,,,,,,,,,,,,,Clear,72000.0,,,73000.0,,,,,,
KRDR,11-06-2011,03:00,METAR,,130,11.0,,,9999.0,,8.0,2.0,29.42,997.7,,,,,,,,,,,,,,,Clear,72000.0,,,73000.0,,,,,,
KRDR,11-06-2011,02:00,METAR,,120,10.0,,,9999.0,,9.0,2.0,29.43,998.2,,,,,,,,,,,,,,,Clear,72000.0,,,73000.0,,,,,,
KRDR,11-06-2011,01:00,METAR,,130,10.0,,,9999.0,,11.0,2.0,29.44,998.5,,,,,,,,,,,,,,,Clear,72000.0,,,73000.0,,,,,,
KRDR,11-06-2011,00:00,METAR,,130,9.0,,,9999.0,,12.0,1.0,29.44,998.2,,,,,,,,,,,,,,,Clear,72000.0,,,73000.0,,,,,,
KRDR,11-05-2011,23:00,METAR,,130,10.0,,,9999.0,,12.0,2.0,29.44,998.4,,,,,,,,,,,,,,,Clear,72000.0,,,73000.0,,,,,,
KRDR,11-05-2011,22:00,METAR,,140,16.0,24.0,140/26KTS,9999.0,,13.0,2.0,29.46,999.1,,,,,,,,,,,,,,,Clear,72000.0,,,73000.0,,,,,,
KRDR,11-05-2011,21:00,METAR,,140,16.0,23.0,150/27KTS,9999.0,,13.0,2.0,29.48,999.8,,,,,,,,,,,,,,,Clear,72000.0,,,73000.0,,,,,,
KRDR,11-05-2011,20:00,METAR,,150,20.0,,,9999.0,,13.0,2.0,29.51,1000.6,,,,,,,,,,,,,,,Clear,72000.0,,,73000.0,,,,,,
KRDR,11-05-2011,19:00,METAR,,150,18.0,22.0,150/26KTS,9999.0,,10.0,2.0,29.53,1001.5,,,,,,,,,,,,,,,Clear,72000.0,,,73000.0,,,,,,
KRDR,11-05-2011,18:00,METAR,,170,16.0,,,9999.0,,11.0,2.0,29.56,1002.2,,,,,,,,,,,,,,,Clear,72000.0,,,73000.0,,,,,,
KRDR,11-05-2011,17:00,METAR,,160,16.0,22.0,,9999.0,,9.0,1.0,29.59,1003.3,,,,,,,,,,,,,,,Clear,72000.0,,,73000.0,,,,,,
KRDR,11-05-2011,16:00,METAR,,170,17.0,,,9999.0,,8.0,1.0,29.61,1003.9,,,,,,,,,,,,,,,Clear,72000.0,,,73000.0,,,,,,
KRDR,11-05-2011,15:00,METAR,,160,16.0,21.0,,9999.0,,6.0,1.0,29.61,1004.0,,,,,,,,,,,,,,,Clear,72000.0,,,73000.0,,,,,,
KRDR,11-05-2011,14:00,METAR,,170,16.0,,,9999.0,,5.0,0.0,29.61,1004.1,,,,,,,,,,,,,,,Clear,72000.0,,,73000.0,,,,,,
KRDR,11-05-2011,13:00,METAR,,160,13.0,18.0,,9999.0,,5.0,-1.0,29.63,1004.7,,,,,,,,,,,,,,,Clear,72000.0,,,73000.0,,,,,,
KRDR,11-05-2011,12:00,METAR,,170,12.0,,,9999.0,,4.0,-1.0,29.65,1005.4,,,,,,,,,,,,,,,Clear,72000.0,,,73000.0,,,,,,
KRDR,11-05-2011,11:00,METAR,,170,13.0,,,9999.0,,4.0,-2.0,29.66,1005.7,,,,,,,,,,,,,,,Clear,72000.0,,,73000.0,,,,,,
KRDR,11-05-2011,10:00,METAR,,160,13.0,,,9999.0,,4.0,-3.0,29.68,1006.1,,,,,,,,,,,,,,,Clear,72000.0,,,73000.0,,,,,,
KRDR,11-05-2011,09:00,METAR,,160,14.0,21.0,,9999.0,,4.0,-3.0,29.69,1006.6,,,,,,,,,,,,,,,Clear,72000.0,,,73000.0,,,,,,
KRDR,11-05-2011,08:00,METAR,,160,15.0,,,9999.0,,4.0,-3.0,29.70,1006.9,,,,,,,,,,,,,,,Clear,72000.0,,,73000.0,,,,,,
KRDR,11-05-2011,07:00,METAR,,160,15.0,21.0,,9999.0,,5.0,-4.0,29.71,1007.2,,,,,,,,,,,,,,,Clear,72000.0,,,73000.0,,,,,,
KRDR,11-05-2011,06:00,METAR,,160,13.0,,,9999.0,,5.0,-4.0,29.72,1007.6,,,,,,,,,,,,,,,Clear,72000.0,,,73000.0,,,,,,
KRDR,11-05-2011,05:00,METAR,,160,12.0,,,9999.0,,5.0,-4.0,29.73,1007.9,,,,,,,,,,,,,,,Clear,72000.0,,,73000.0,,,,,,
KRDR,11-05-2011,04:00,METAR,,160,11.0,,,9999.0,,5.0,-6.0,29.74,1008.3,,,,,,,,,,,,,,,Clear,72000.0,,,73000.0,,,,,,
KRDR,11-05-2011,03:00,METAR,,160,14.0,,,9999.0,,5.0,-7.0,29.75,1008.7,,,,,,,,,,,,,,,Clear,72000.0,,,73000.0,,,,,,
KRDR,11-05-2011,02:00,METAR,,170,11.0,,,9999.0,,7.0,-7.0,29.74,1008.4,,,,,,,,,,,,,,,Clear,72000.0,,,73000.0,,,,,,
KRDR,11-05-2011,01:00,METAR,,170,13.0,,,9999.0,,9.0,-7.0,29.76,1008.8,,,,,,,,,,,,,,,Clear,72000.0,,,73000.0,,,,,,
KRDR,11-05-2011,00:00,METAR,,180,9.0,,,9999.0,,8.0,-5.0,29.76,1008.9,,,,,,,,,,,,,,,Clear,72000.0,,,73000.0,,,,,,
KRDR,11-04-2011,23:00,METAR,,200,19.0,24.0,210/26KTS,9999.0,,11.0,-5.0,29.76,1008.9,,,,,,,,,,,,,,,Clear,72000.0,,,73000.0,,,,,,
KRDR,11-04-2011,22:00,METAR,,200,19.0,30.0,200/33KTS,9999.0,,12.0,-5.0,29.77,1009.1,,,,,,,,,,,,,,,Clear,72000.0,,,73000.0,,,,,,
KRDR,11-04-2011,21:00,METAR,,200,27.0,34.0,200/34KTS,9999.0,,13.0,-5.0,29.76,1009.0,,,,,,,,,,,,,,,Clear,72000.0,,,73000.0,,,,,,
KRDR,11-04-2011,20:00,METAR,,190,23.0,36.0,200/38KTS,9999.0,,13.0,-6.0,29.77,1009.1,,,,,,,,,,,,,,,Clear,72000.0,,,73000.0,,,,,,
KRDR,11-04-2011,19:00,METAR,,190,29.0,39.0,200/43KTS,9999.0,,12.0,-8.0,29.78,1009.6,,,,,,,,,,,,,,,Clear,72000.0,,,73000.0,,,,,,
KRDR,11-04-2011,18:00,METAR,,190,26.0,41.0,190/41KTS,9999.0,,12.0,-7.0,29.81,1010.5,,,,,,,,,,,,,,,Clear,72000.0,,,73000.0,,,,,,
KRDR,11-04-2011,17:00,METAR,,180,22.0,31.0,190/32KTS,9999.0,,8.0,-6.0,29.85,1011.8,,,,,,,,,,,,,,,Clear,72000.0,,,73000.0,,,,,,
KRDR,11-04-2011,16:00,METAR,,170,18.0,24.0,,9999.0,,6.0,-7.0,29.86,1012.3,,,,,,,,,,,,,,,Clear,72000.0,,,73000.0,,,,,,
KRDR,11-04-2011,15:00,METAR,,170,15.0,,,9999.0,,3.0,-7.0,29.88,1013.0,,,,,,,,,,,,,,,Clear,72000.0,,,73000.0,,,,,,
KRDR,11-04-2011,14:00,METAR,,160,13.0,,,9999.0,,1.0,-7.0,29.90,1013.4,,,,,,,,,,,,,,,Clear,72000.0,,,73000.0,,,,,,
KRDR,11-04-2011,13:00,METAR,,160,14.0,,,9999.0,,1.0,-7.0,29.88,1013.0,,,,,,,,,,,,,,,Clear,72000.0,,,73000.0,,,,,,
KRDR,11-04-2011,12:00,METAR,,160,14.0,,,9999.0,,1.0,-7.0,29.89,1013.2,,,,,,,,,,,,,,,Clear,72000.0,,,73000.0,,,,,,
KRDR,11-04-2011,11:00,METAR,,180,13.0,,,9999.0,,1.0,-7.0,29.91,1013.9,,,,,,,,,,,,,,,Clear,72000.0,,,73000.0,,,,,,
KRDR,11-04-2011,10:00,METAR,,190,12.0,,,9999.0,,2.0,-7.0,29.95,1015.2,,,,,,,,,,,,,,,Clear,72000.0,,,73000.0,,,,,,
KRDR,11-04-2011,09:00,METAR,,180,13.0,,,9999.0,,2.0,-7.0,29.95,1015.3,,,,,,,,,,,,,,,Clear,72000.0,,,73000.0,,,,,,
KRDR,11-04-2011,08:00,METAR,,170,12.0,,,9999.0,,2.0,-7.0,29.99,1016.5,,,,,,,,,,,,,,,Clear,72000.0,,,73000.0,,,,,,
KRDR,11-04-2011,07:00,METAR,,190,9.0,,,9999.0,,3.0,-7.0,30.01,1017.2,,,,,,,,,,,,,,,Clear,72000.0,,,73000.0,,,,,,
KRDR,11-04-2011,06:00,METAR,,190,11.0,,,9999.0,,5.0,-7.0,30.00,1016.8,,,,,,,,,,,,,,,Clear,72000.0,,,73000.0,,,,,,
KRDR,11-04-2011,05:00,METAR,,200,12.0,,,9999.0,,5.0,-7.0,30.01,1017.2,,,,,,,,,,,,,,,Clear,72000.0,,,73000.0,,,,,,
KRDR,11-04-2011,04:00,METAR,,180,9.0,,,9999.0,,5.0,-7.0,30.01,1017.2,,,,,,,,,,,,,,,Clear,72000.0,,,73000.0,,,,,,
KRDR,11-04-2011,03:00,METAR,,190,12.0,,,9999.0,,5.0,-7.0,30.02,1017.5,,,,,,,,,,,,,,,Clear,72000.0,,,73000.0,,,,,,
KRDR,11-04-2011,02:00,METAR,,180,13.0,,,9999.0,,6.0,-7.0,30.02,1017.7,,,,,,,,,,,,,,,Clear,72000.0,,,73000.0,,,,,,
KRDR,11-04-2011,01:00,METAR,,180,12.0,,,9999.0,,6.0,-7.0,30.03,1018.0,,,,,,,,,,,,,,,Clear,72000.0,,,73000.0,,,,,,
KRDR,11-04-2011,00:00,METAR,,170,9.0,,,9999.0,,7.0,-7.0,30.05,1018.4,,,,,,,,,,,,,,,Clear,72000.0,,,73000.0,,,,,,
KRDR,11-03-2011,23:00,METAR,,180,13.0,,,9999.0,,10.0,-8.0,30.05,1018.5,,,,,,,,,,,,,,,Clear,72000.0,,,73000.0,,,,,,
KRDR,11-03-2011,22:00,METAR,,190,15.0,,,9999.0,,12.0,-8.0,30.05,1018.6,,,,,,,,,,,,,,,Clear,72000.0,,,73000.0,,,,,,
KRDR,11-03-2011,21:00,METAR,,190,14.0,,,9999.0,,13.0,-8.0,30.06,1018.7,,,,,,,,,,,,,,,Clear,72000.0,,,73000.0,,,,,,
KRDR,11-03-2011,20:00,METAR,,190,19.0,24.0,,9999.0,,13.0,-8.0,30.07,1019.1,,,,,,,,,,,,,,,Clear,72000.0,,,73000.0,,,,,,
KRDR,11-03-2011,19:00,METAR,,200,21.0,,200/28KTS,9999.0,,12.0,-8.0,30.09,1019.9,,,,,,,,,,,,,,,Clear,72000.0,,,73000.0,,,,,,
KRDR,11-03-2011,18:00,METAR,,210,23.0,28.0,210/28KTS,9999.0,,11.0,-7.0,30.12,1020.8,,,,,,,,,,,,,,,Clear,72000.0,,,73000.0,,,,,,
KRDR,11-03-2011,17:00,METAR,,210,14.0,,,9999.0,,8.0,-6.0,30.14,1021.4,,,,,,,,,,,,,,,Clear,72000.0,,,73000.0,,,,,,
KRDR,11-03-2011,16:00,METAR,,210,13.0,,,9999.0,,5.0,-6.0,30.15,1021.9,,,,,,,,,,,,,,,Clear,72000.0,,,73000.0,,,,,,
KRDR,11-03-2011,15:00,METAR,,190,13.0,,,9999.0,,1.0,-6.0,30.16,1022.0,,,,,,,,,,,,,,,Clear,72000.0,,,73000.0,,,,,,
KRDR,11-03-2011,14:00,METAR,,190,9.0,,,9999.0,,-3.0,-7.0,30.15,1021.9,,,,,,,,,,,,,,,Clear,72000.0,,,73000.0,,,,,,
KRDR,11-03-2011,13:00,METAR,,180,10.0,,,9999.0,,-5.0,-8.0,30.15,1021.9,,,,,,,,,,,,,,,Clear,72000.0,,,73000.0,,,,,,
KRDR,11-03-2011,12:00,METAR,,180,9.0,,,9999.0,,-5.0,-8.0,30.17,1022.3,,,,,,,,,,,,,,,Clear,72000.0,,,73000.0,,,,,,
KRDR,11-03-2011,11:00,METAR,,190,9.0,,,9999.0,,-4.0,-8.0,30.18,1022.6,,,,,,,,,,,,,,,Clear,72000.0,,,73000.0,,,,,,
KRDR,11-03-2011,10:00,METAR,,240,5.0,,,9999.0,,-3.0,-8.0,30.18,1022.6,,,,,,,,,,,,,,,Clear,72000.0,,,73000.0,,,,,,
KRDR,11-03-2011,09:00,METAR,,240,5.0,,,9999.0,,-1.0,-7.0,30.18,1022.9,,,,,,,,,,,,,,,Clear,72000.0,,,73000.0,,,,,,
KRDR,11-03-2011,08:00,METAR,,230,5.0,,,9999.0,,-4.0,-8.0,30.19,1023.1,,,,,,,,,,,,,,,Clear,72000.0,,,73000.0,,,,,,
KRDR,11-03-2011,07:00,METAR,,220,5.0,,,9999.0,,-2.0,-7.0,30.20,1023.5,,,,,,,,,,,,,,,Clear,72000.0,,,73000.0,,,,,,
KRDR,11-03-2011,06:00,METAR,,220,6.0,,,9999.0,,-1.0,-6.0,30.21,1023.9,,,,,,,,,,,,,,,Clear,72000.0,,,73000.0,,,,,,
KRDR,11-03-2011,05:00,METAR,,240,6.0,,,9999.0,,-2.0,-7.0,30.22,1024.0,,,,,,,,,,,,,,,Clear,72000.0,,,73000.0,,,,,,
KRDR,11-03-2011,04:00,METAR,,240,6.0,,,9999.0,,-1.0,-7.0,30.23,1024.3,,,,,,,,,,,,,,,Clear,72000.0,,,73000.0,,,,,,
KRDR,11-03-2011,03:00,METAR,,230,6.0,,,9999.0,,-1.0,-7.0,30.23,1024.6,,,,,,,,,,,,,,,Clear,72000.0,,,73000.0,,,,,,
KRDR,11-03-2011,02:00,METAR,,220,7.0,,,9999.0,,0.0,-6.0,30.24,1024.9,,,,,,,,,,,,,,,Clear,72000.0,,,73000.0,,,,,,
KRDR,11-03-2011,01:00,METAR,,240,7.0,,,9999.0,,0.0,-6.0,30.26,1025.3,,,,,,,,,,,,,,,Clear,72000.0,,,73000.0,,,,,,
KRDR,11-03-2011,00:00,METAR,,280,6.0,,,9999.0,,2.0,-6.0,30.25,1025.2,,,,,,,,,,,,,,,Clear,72000.0,,,73000.0,,,,,,
KRDR,11-02-2011,23:00,METAR,,290,6.0,,,9999.0,,6.0,-6.0,30.25,1025.1,,,,,,,,,,,,,,,Clear,72000.0,,,73000.0,,,,,,
KRDR,11-02-2011,22:00,METAR,,320,9.0,,,9999.0,,9.0,-7.0,30.24,1024.8,,,,,,,,,,,,,,,Clear,72000.0,,,73000.0,,,,,,
KRDR,11-02-2011,21:00,METAR,,320,12.0,17.0,,9999.0,,9.0,-7.0,30.24,1024.9,,,,,,,,,,,,,,,Clear,72000.0,,,73000.0,,,,,,
KRDR,11-02-2011,20:00,METAR,,330,12.0,,,9999.0,,9.0,-7.0,30.25,1025.2,,,,,,,,,,,,,,,Clear,72000.0,,,73000.0,,,,,,
KRDR,11-02-2011,19:00,METAR,,320,12.0,17.0,,9999.0,,9.0,-6.0,30.28,1026.0,,,,,,,,,,,,,,,Clear,72000.0,,,73000.0,,,,,,
KRDR,11-02-2011,18:00,METAR,,340,11.0,18.0,,9999.0,,8.0,-5.0,30.30,1026.6,,,,,,,,,,,,,,,Clear,72000.0,,,73000.0,,,,,,
KRDR,11-02-2011,17:00,METAR,,340,11.0,,,9999.0,,6.0,-3.0,30.30,1026.6,,,,,,,,,,,,,,,Clear,72000.0,,,73000.0,,,,,,
KRDR,11-02-2011,16:00,METAR,,320,10.0,,,9999.0,,3.0,-2.0,30.29,1026.5,,,,,,,,,,,,,,,Clear,72000.0,,,73000.0,,,,,,
KRDR,11-02-2011,15:00,METAR,,320,9.0,,,9999.0,,1.0,-2.0,30.30,1026.6,,,,,,,,,,,,,,,Clear,72000.0,,,73000.0,,,,,,
KRDR,11-02-2011,14:00,METAR,,290,5.0,,,9999.0,,-2.0,-3.0,30.29,1026.4,,,,,,,,,,,,,,,Clear,72000.0,,,73000.0,,,,,,
KRDR,11-02-2011,13:00,METAR,,310,7.0,,,9999.0,,-1.0,-2.0,30.26,1025.5,,,,,,,,,,,,,,,Clear,72000.0,,,73000.0,,,,,,
KRDR,11-02-2011,12:00,METAR,,310,7.0,,,9999.0,,-2.0,-3.0,30.25,1025.1,,,,,,,,,,,,,,,Clear,72000.0,,,73000.0,,,,,,
KRDR,11-02-2011,11:00,METAR,,310,6.0,,,9999.0,,-1.0,-3.0,30.24,1024.8,,,,,,,,,,,,,,,Clear,72000.0,,,73000.0,,,,,,
KRDR,11-02-2011,10:00,METAR,,320,8.0,,,9999.0,,0.0,-3.0,30.21,1023.7,,,,,,,,,,,,,,,Clear,72000.0,,,73000.0,,,,,,
KRDR,11-02-2011,09:00,METAR,,320,9.0,,,9999.0,,1.0,-3.0,30.20,1023.4,,,,,,,,,,,,,,,Clear,72000.0,,,73000.0,,,,,,
KRDR,11-02-2011,08:00,METAR,,320,11.0,,,9999.0,,2.0,-3.0,30.20,1023.4,,,,,,,,,,,,,,,Clear,72000.0,,,73000.0,,,,,,
KRDR,11-02-2011,07:00,METAR,,330,8.0,,,9999.0,,3.0,-3.0,30.18,1022.8,,,,,,,,,,,,,,,Clear,72000.0,,,73000.0,,,,,,
KRDR,11-02-2011,06:00,METAR,,320,10.0,,,9999.0,,4.0,-3.0,30.17,1022.5,,,,,,,,,,,,,,,Clear,72000.0,,,73000.0,,,,,,
KRDR,11-02-2011,05:00,METAR,,320,11.0,,,9999.0,,4.0,-3.0,30.15,1021.9,,,,,,,,,,,,,,,Clear,72000.0,,,73000.0,,,,,,
KRDR,11-02-2011,04:00,METAR,,310,5.0,,,9999.0,,4.0,-3.0,30.13,1021.2,,,,,,,,,,,,,,,Clear,72000.0,,,73000.0,,,,,,
KRDR,11-02-2011,03:00,METAR,,310,8.0,,,9999.0,,3.0,-3.0,30.12,1020.7,,,,,,,,,,,,,,,Clear,72000.0,,,73000.0,,,,,,
KRDR,11-02-2011,02:00,METAR,,290,6.0,,,9999.0,,3.0,-4.0,30.10,1020.0,,,,,,,,,,,,,,,Clear,72000.0,,,73000.0,,,,,,
KRDR,11-02-2011,01:00,METAR,,300,6.0,,,9999.0,,2.0,-5.0,30.07,1019.2,,,,,,,,,,,,,,,Clear,72000.0,,,73000.0,,,,,,
KRDR,11-02-2011,00:00,METAR,,300,6.0,,,9999.0,,4.0,-4.0,30.05,1018.4,,,,,,,,,,,,,,,Clear,72000.0,,,73000.0,,,,,,
KRDR,11-01-2011,23:00,METAR,,340,7.0,,,9999.0,,9.0,-4.0,30.02,1017.4,,,,,,,,,,,,,,,Clear,72000.0,,,73000.0,,,,,,
KRDR,11-01-2011,22:00,METAR,,340,12.0,,,9999.0,,11.0,-3.0,30.00,1016.9,,,,,,,,,,,,,,,Clear,72000.0,,,73000.0,,,,,,
KRDR,11-01-2011,21:00,METAR,,330,15.0,19.0,,9999.0,,12.0,-3.0,29.99,1016.4,,,,,,,,,,,,,,,Clear,72000.0,,,73000.0,,,,,,
KRDR,11-01-2011,20:00,METAR,,330,13.0,18.0,,9999.0,,12.0,-3.0,29.97,1016.0,,,,,,,,,,,,,,,Clear,72000.0,,,73000.0,,,,,,
KRDR,11-01-2011,19:00,METAR,,310,12.0,,,9999.0,,12.0,-2.0,29.97,1015.8,,,,,,,,,,,,,,,Clear,72000.0,,,73000.0,,,,,,
KRDR,11-01-2011,18:00,METAR,,330,13.0,,,9999.0,,11.0,-1.0,29.97,1015.7,,,,,,,,,,,,,,,Clear,72000.0,,,73000.0,,,,,,
KRDR,11-01-2011,17:00,METAR,,340,10.0,,,9999.0,,9.0,0.0,29.96,1015.5,,,,,,,,,,,,,,,Clear,72000.0,,,73000.0,,,,,,
KRDR,11-01-2011,16:00,METAR,,320,8.0,,,9999.0,,7.0,1.0,29.95,1015.2,,,,,,,,,,,,,,,Clear,72000.0,,,73000.0,,,,,,
KRDR,11-01-2011,15:00,METAR,,320,11.0,,,9999.0,,5.0,1.0,29.94,1014.7,,,,,,,,,,,,,,,Clear,72000.0,,,73000.0,,,,,,
KRDR,11-01-2011,14:00,METAR,,320,8.0,,,9999.0,,4.0,2.0,29.92,1014.0,,,,,,,,,,,,,,,Clear,72000.0,,,73000.0,,,,,,
KRDR,11-01-2011,13:00,METAR,,290,7.0,,,9999.0,,4.0,2.0,29.90,1013.5,,,,,,,,,,,,,,,Clear,72000.0,,,73000.0,,,,,,
KRDR,11-01-2011,12:00,METAR,,310,8.0,,,9999.0,,4.0,2.0,29.87,1012.6,,,,,,,,,,,,,,,Clear,72000.0,,,73000.0,,,,,,
KRDR,11-01-2011,11:00,METAR,,300,8.0,,,9999.0,,4.0,1.0,29.87,1012.6,,,,,,,,,,,,,,,Clear,72000.0,,,73000.0,,,,,,
KRDR,11-01-2011,10:00,METAR,,300,7.0,,,9999.0,,5.0,1.0,29.84,1011.5,,,,,,,,,,,,,,,Clear,72000.0,,,73000.0,,,,,,
KRDR,11-01-2011,09:00,METAR,,320,9.0,,,9999.0,,5.0,2.0,29.81,1010.5,,,,,,,,,,,,,,,Clear,72000.0,,,73000.0,,,,,,
KRDR,11-01-2011,08:00,METAR,,310,12.0,,,9999.0,,7.0,3.0,29.78,1009.5,,,,,,,,,,,,,,,Clear,72000.0,,,73000.0,,,,,,
KRDR,11-01-2011,07:00,METAR,,300,11.0,,,9999.0,,9.0,4.0,29.76,1008.8,,,,,,,,,,,,,,,2/8 Mostly Clear,72000.0,,FEW,12000.0,,,,,,
KRDR,11-01-2011,06:00,METAR,,290,9.0,,,9999.0,,9.0,4.0,29.73,1008.0,,,,,,,,,,,,,,,7/8 Mostly Cloudy,12000.0,,BKN,12000.0,,,,,,
KRDR,11-01-2011,05:00,METAR,,240,5.0,,,9999.0,,7.0,2.0,29.70,1006.9,,,,,,,,,,,,,,,2/8 Mostly Clear,72000.0,,FEW,12000.0,,,,,,
KRDR,11-01-2011,04:00,METAR,,250,8.0,,,9999.0,,6.0,1.0,29.70,1006.8,,,,,,,,,,,,,,,Clear,72000.0,,,73000.0,,,,,,
KRDR,11-01-2011,03:00,METAR,,210,10.0,,,9999.0,,10.0,0.0,29.68,1006.4,,,,,,,,,,,,,,,2/8 Mostly Clear,72000.0,,FEW,6900.0,,,,,,
KRDR,11-01-2011,02:00,METAR,,200,10.0,,,9999.0,,12.0,0.0,29.67,1006.0,,,,,,,,,,,,,,,4/8 Partly Cloudy,72000.0,,FEW,7900.0,SCT,11000.0,,,,
KRDR,11-01-2011,01:00,METAR,,200,11.0,,,9999.0,,13.0,0.0,29.68,1006.3,,,,,,,,,,,,,,,8/8 Overcast,9000.0,,OVC,8900.0,,,,,,
KRDR,11-01-2011,00:00,METAR,,190,10.0,,,9999.0,,13.0,0.0,29.67,1006.0,,,,,,,,,,,,,,,2/8 Mostly Clear,72000.0,,FEW,12000.0,,,,,,
KRDR,10-31-2011,23:00,METAR,,200,10.0,,,9999.0,,14.0,-1.0,29.66,1005.6,,,,,,,,,,,,,,,4/8 Partly Cloudy,72000.0,,SCT,12000.0,,,,,,
KRDR,10-31-2011,22:00,METAR,,190,19.0,,180/26KTS,9999.0,,15.0,-1.0,29.66,1005.6,,,,,,,,,,,,,,,Clear,72000.0,,,73000.0,,,,,,
KRDR,10-31-2011,21:00,METAR,,180,19.0,24.0,180/27KTS,9999.0,,14.0,-1.0,29.67,1005.8,,,,,,,,,,,,,,,2/8 Mostly Clear,72000.0,,FEW,7900.0,,,,,,
KRDR,10-31-2011,20:00,METAR,,170,21.0,27.0,180/27KTS,9999.0,,14.0,-1.0,29.68,1006.4,,,,,,,,,,,,,,,Clear,72000.0,,,73000.0,,,,,,
KRDR,10-31-2011,19:00,METAR,,170,20.0,25.0,,9999.0,,11.0,0.0,29.71,1007.4,,,,,,,,,,,,,,,Clear,72000.0,,,73000.0,,,,,,
KRDR,10-31-2011,18:00,METAR,,160,13.0,,,9999.0,,9.0,0.0,29.76,1008.9,,,,,,,,,,,,,,,8/8 Overcast,9000.0,,OVC,8900.0,,,,,,
KRDR,10-31-2011,17:00,METAR,,170,11.0,,,9999.0,,7.0,-1.0,29.79,1009.8,,,,,,,,,,,,,,,8/8 Overcast,9000.0,,OVC,8900.0,,,,,,
KRDR,10-31-2011,16:00,METAR,,170,11.0,,,9999.0,,5.0,0.0,29.81,1010.6,,,,,,,,,,,,,,,Clear,72000.0,,,73000.0,,,,,,
KRDR,10-31-2011,15:00,METAR,,170,10.0,,,9999.0,,2.0,1.0,29.84,1011.7,,,,,,,,,,,,,,,Clear,72000.0,,,73000.0,,,,,,
KRDR,10-31-2011,14:00,METAR,,180,8.0,,,9999.0,,0.0,0.0,29.86,1012.1,,,,,,,,,,,,,,,7/8 Mostly Cloudy,11000.0,,BKN,11000.0,,,,,,
KRDR,10-31-2011,13:00,METAR,,200,6.0,,,9999.0,,-2.0,-2.0,29.87,1012.6,,,,,,,,,,,,,,,Clear,72000.0,,,73000.0,,,,,,
KRDR,10-31-2011,12:00,METAR,,200,6.0,,,9999.0,,0.0,0.0,29.89,1013.1,,,,,,,,,,,,,,,2/8 Mostly Clear,72000.0,,FEW,12000.0,,,,,,
KRDR,10-31-2011,11:00,METAR,,210,5.0,,,9999.0,,-1.0,-1.0,29.90,1013.6,,,,,,,,,,,,,,,4/8 Partly Cloudy,72000.0,,SCT,12000.0,,,,,,
KRDR,10-31-2011,10:00,METAR,,210,6.0,,,9999.0,,-2.0,-2.0,29.91,1013.9,,,,,,,,,,,,,,,4/8 Partly Cloudy,72000.0,,SCT,12000.0,,,,,,
KRDR,10-31-2011,09:00,METAR,,210,5.0,,,9999.0,,-1.0,-1.0,29.93,1014.5,,,,,,,,,,,,,,,2/8 Mostly Clear,72000.0,,FEW,12000.0,,,,,,
KRDR,10-31-2011,08:00,METAR,,230,5.0,,,9999.0,,-1.0,-1.0,29.95,1015.2,,,,,,,,,,,,,,,Clear,72000.0,,,73000.0,,,,,,
KRDR,10-31-2011,07:00,METAR,,250,6.0,,,9999.0,,-1.0,-1.0,29.95,1015.3,,,,,,,,,,,,,,,Clear,72000.0,,,73000.0,,,,,,
KRDR,10-31-2011,06:00,METAR,,240,4.0,,,9999.0,,1.0,0.0,29.96,1015.4,,,,,,,,,,,,,,,Clear,72000.0,,,73000.0,,,,,,
KRDR,10-31-2011,05:00,METAR,,280,4.0,,,9999.0,,2.0,-1.0,29.96,1015.4,,,,,,,,,,,,,,,Clear,72000.0,,,73000.0,,,,,,
KRDR,10-31-2011,04:00,METAR,,300,4.0,,,9999.0,,2.0,-1.0,29.96,1015.5,,,,,,,,,,,,,,,7/8 Mostly Cloudy,3700.0,,BKN,3800.0,,,,,,
KRDR,10-31-2011,03:00,METAR,,300,4.0,,,9999.0,,5.0,0.0,29.96,1015.6,,,,,,,,,,,,,,,8/8 Overcast,3300.0,,OVC,3400.0,,,,,,
KRDR,10-31-2011,02:00,METAR,,290,4.0,,,9999.0,,4.0,0.0,29.96,1015.4,,,,,,,,,,,,,,,8/8 Overcast,3500.0,,OVC,3600.0,,,,,,
KRDR,10-31-2011,01:00,METAR,,300,4.0,,,9999.0,,5.0,0.0,29.96,1015.4,,,,,,,,,,,,,,,8/8 Overcast,4100.0,,OVC,4200.0,,,,,,
KRDR,10-31-2011,00:00,METAR,,320,6.0,,,9999.0,,5.0,0.0,29.96,1015.4,,,,,,,,,,,,,,,8/8 Overcast,3000.0,,OVC,3000.0,,,,,,
KRDR,10-30-2011,23:00,METAR,,340,6.0,,,9999.0,,6.0,1.0,29.94,1014.9,,,,,,,,,,,,,,,8/8 Overcast,2800.0,,OVC,2800.0,,,,,,
KRDR,10-30-2011,22:20,SPECI,,340,5.0,,,9999.0,,6.0,1.0,29.94,1014.8,,,,,,,,,,,,,,,8/8 Overcast,2700.0,,OVC,2800.0,,,,,,
KRDR,10-30-2011,22:17,SPECI,,340,5.0,,,9999.0,,6.0,1.0,29.94,1014.8,,,,,,,,,,,,,,,8/8 Overcast,2500.0,,OVC,3000.0,,,,,,
KRDR,10-30-2011,22:08,SPECI,,340,3.0,,,9999.0,,6.0,2.0,29.94,1014.8,,,,,,,,,,,,,,,8/8 Overcast,2800.0,,BKN,2800.0,OVC,3300.0,,,,
KRDR,10-30-2011,22:00,METAR,,340,6.0,,,9999.0,,5.0,2.0,29.94,1014.7,,,,,,,,,,,,,,,8/8 Overcast,2300.0,,OVC,2800.0,,,,,,
KRDR,10-30-2011,21:00,METAR,,350,10.0,,,9999.0,,5.0,2.0,29.91,1013.9,,,,,,,,,,,,,,,8/8 Overcast,1700.0,,OVC,1700.0,,,,,,
KRDR,10-30-2011,20:00,METAR,,340,11.0,,,9999.0,,5.0,2.0,29.89,1013.3,,,,,,,,,,,,,,,8/8 Overcast,1200.0,,OVC,1500.0,,,,,,
KRDR,10-30-2011,19:48,SPECI,,340,10.0,,,9999.0,,5.0,2.0,29.89,1013.3,,,,,,,,,,,,,,,8/8 Overcast,1200.0,,OVC,1500.0,,,,,,
KRDR,10-30-2011,19:01,SPECI,,340,10.0,,,9999.0,,5.0,2.0,29.88,1012.7,,,,,,,,,,,,,,,8/8 Overcast,1000.0,,OVC,1200.0,,,,,,
KRDR,10-30-2011,19:00,METAR,,350,8.0,,,9999.0,,5.0,2.0,29.87,1012.6,,,,,,,,,,,,,,,8/8 Overcast,1100.0,,OVC,1100.0,,,,,,
KRDR,10-30-2011,18:16,SPECI,,350,11.0,,,9999.0,,4.0,3.0,29.87,1012.6,,,,,,,,,,,,,,,8/8 Overcast,900.0,,OVC,1100.0,,,,,,
KRDR,10-30-2011,18:00,METAR,,340,11.0,,,9999.0,,5.0,2.0,29.87,1012.5,,,,,,,,,,,,,,,8/8 Overcast,1300.0,,OVC,1300.0,,,,,,
KRDR,10-30-2011,17:25,SPECI,,340,13.0,,,9999.0,,5.0,2.0,29.86,1012.3,,,,,,,,,,,,,,,8/8 Overcast,1400.0,,OVC,1400.0,,,,,,
KRDR,10-30-2011,17:00,METAR,,330,10.0,,,9999.0,,5.0,1.0,29.86,1012.1,,,,,,,,,,,,,,,8/8 Overcast,1700.0,,OVC,1700.0,,,,,,
KRDR,10-30-2011,16:00,METAR,,320,13.0,,,9999.0,,5.0,1.0,29.83,1011.4,,,,,,,,,,,,,,,8/8 Overcast,2000.0,,OVC,2100.0,,,,,,
KRDR,10-30-2011,15:00,METAR,,330,14.0,,,9999.0,,5.0,1.0,29.82,1010.9,,,,,,,,,,,,,,,8/8 Overcast,2200.0,,OVC,2400.0,,,,,,
KRDR,10-30-2011,14:16,SPECI,,320,8.0,,,9999.0,,5.0,1.0,29.82,1010.8,,,,,,,,,,,,,,,8/8 Overcast,2400.0,,BKN,2400.0,OVC,4100.0,,,,
KRDR,10-30-2011,14:00,METAR,,320,9.0,,,9999.0,,5.0,1.0,29.81,1010.7,,,,,,,,,,,,,,,8/8 Overcast,3700.0,,SCT,2700.0,BKN,3800.0,OVC,5000.0,,
KRDR,10-30-2011,13:49,SPECI,,320,9.0,,,9999.0,,4.0,1.0,29.81,1010.6,,,,,,,,,,,,,,,8/8 Overcast,2600.0,,SCT,2700.0,BKN,3800.0,OVC,5000.0,,
KRDR,10-30-2011,13:15,SPECI,,320,9.0,,,9999.0,,5.0,1.0,29.81,1010.6,,,,,,,,,,,,,,,8/8 Overcast,2500.0,,BKN,2800.0,BKN,3400.0,OVC,5400.0,,
KRDR,10-30-2011,13:02,SPECI,,320,8.0,,,9999.0,,5.0,1.0,29.81,1010.4,,,,,,,,,,,,,,,8/8 Overcast,3000.0,,BKN,3000.0,OVC,4700.0,,,,
KRDR,10-30-2011,13:00,METAR,,320,9.0,,,9999.0,,5.0,2.0,29.81,1010.4,,,,,,,,,,,,,,,8/8 Overcast,2500.0,,BKN,2700.0,OVC,4600.0,,,,
KRDR,10-30-2011,12:00,METAR,,320,9.0,,,9999.0,,5.0,2.0,29.79,1010.0,,,,,,,,,,,,,,,8/8 Overcast,3200.0,,OVC,3300.0,,,,,,
KRDR,10-30-2011,11:00,METAR,,320,7.0,,,9999.0,,5.0,2.0,29.78,1009.5,,,,,,,,,,,,,,,8/8 Overcast,4700.0,,OVC,4800.0,,,,,,
KRDR,10-30-2011,10:00,METAR,,310,9.0,,,9999.0,,4.0,3.0,29.77,1009.2,,,,,,,,,,,,,,,8/8 Overcast,4300.0,,OVC,4400.0,,,,,,
KRDR,10-30-2011,09:00,METAR,,300,9.0,,,9999.0,,5.0,3.0,29.76,1009.0,,,,,,,,,,,,,,,7/8 Mostly Cloudy,6000.0,,SCT,4200.0,BKN,5900.0,,,,
KRDR,10-30-2011,08:00,METAR,,190,4.0,,,9999.0,,4.0,-1.0,29.75,1008.7,,,,,,,,,,,,,,,8/8 Overcast,4400.0,,FEW,3400.0,SCT,4500.0,OVC,5900.0,,
KRDR,10-30-2011,07:00,METAR,,210,5.0,,,9999.0,,5.0,0.0,29.76,1009.0,,,,,,,,,,,,,,,8/8 Overcast,2300.0,,BKN,2500.0,OVC,4800.0,,,,
KRDR,10-30-2011,06:40,SPECI,,200,3.0,,,9999.0,,6.0,-1.0,29.76,1009.0,,,,,,,,,,,,,,,8/8 Overcast,2600.0,,BKN,2600.0,OVC,4700.0,,,,
KRDR,10-30-2011,06:00,METAR,,210,5.0,,,9999.0,,6.0,-1.0,29.77,1009.1,,,,,,,,,,,TRACE,,TRACE,,8/8 Overcast,4700.0,,OVC,4800.0,,,,,,
KRDR,10-30-2011,05:07,SPECI,,190,10.0,,,9999.0,,7.0,-2.0,29.76,1009.0,,,,,,,,,,,,,,,7/8 Mostly Cloudy,4600.0,,FEW,3800.0,BKN,4700.0,,,,
KRDR,10-30-2011,05:00,METAR,,180,14.0,,,9999.0,Light Rain,7.0,-2.0,29.76,1008.9,61,,,,,,,,,,,,,,7/8 Mostly Cloudy,4600.0,,FEW,3500.0,BKN,4700.0,,,,
KRDR,10-30-2011,04:00,METAR,,180,7.0,,,9999.0,,7.0,-3.0,29.78,1009.6,,,,,,,,,,,,,,,8/8 Overcast,7000.0,,OVC,6900.0,,,,,,
KRDR,10-30-2011,03:00,METAR,,170,8.0,,,9999.0,,8.0,-3.0,29.79,1010.0,,,,,,,,,,,,,,,8/8 Overcast,6000.0,,OVC,5900.0,,,,,,
KRDR,10-30-2011,02:00,METAR,,150,14.0,,,9999.0,,8.0,-3.0,29.78,1009.5,,,,,,,,,,,,,,,8/8 Overcast,4900.0,,SCT,4400.0,OVC,5000.0,,,,
KRDR,10-30-2011,01:00,METAR,,150,11.0,,,9999.0,,8.0,-3.0,29.79,1010.1,,,,,,,,,,,,,,,7/8 Mostly Cloudy,6500.0,,FEW,3000.0,BKN,6400.0,BKN,7900.0,,
KRDR,10-30-2011,00:00,METAR,,150,14.0,,,9999.0,,9.0,-4.0,29.79,1009.9,,,,,,,,,,,,,,,7/8 Mostly Cloudy,5500.0,,BKN,5400.0,BKN,6900.0,,,,
KRDR,10-29-2011,23:00,METAR,,160,13.0,,,9999.0,,9.0,-4.0,29.79,1009.9,,,,,,,,,,,,,,,8/8 Overcast,7500.0,,SCT,5900.0,OVC,7400.0,,,,
KRDR,10-29-2011,22:00,METAR,,170,14.0,,,9999.0,,10.0,-4.0,29.80,1010.4,,,,,,,,,,,,,,,7/8 Mostly Cloudy,10000.0,,FEW,7900.0,BKN,9900.0,,,,
KRDR,10-29-2011,21:00,METAR,,170,15.0,,,9999.0,,10.0,-3.0,29.83,1011.2,,,,,,,,,,,,,,,7/8 Mostly Cloudy,9000.0,,BKN,8900.0,,,,,,
KRDR,10-29-2011,20:00,METAR,,160,13.0,19.0,,9999.0,,9.0,-3.0,29.83,1011.3,,,,,,,,,,,,,,,8/8 Overcast,11000.0,,OVC,11000.0,,,,,,
KRDR,10-29-2011,19:00,METAR,,160,16.0,,,9999.0,,9.0,-3.0,29.85,1011.9,,,,,,,,,,,,,,,4/8 Partly Cloudy,72000.0,,SCT,12000.0,,,,,,
KRDR,10-29-2011,18:00,METAR,,160,16.0,,,9999.0,,9.0,-3.0,29.87,1012.6,,,,,,,,,,,,,,,Clear,72000.0,,,73000.0,,,,,,
KRDR,10-29-2011,17:00,METAR,,160,11.0,,,9999.0,,7.0,-2.0,29.90,1013.4,,,,,,,,,,,,,,,Clear,72000.0,,,73000.0,,,,,,
KRDR,10-29-2011,16:00,METAR,,150,10.0,,,9999.0,,4.0,0.0,29.92,1014.2,,,,,,,,,,,,,,,Clear,72000.0,,,73000.0,,,,,,
KRDR,10-29-2011,15:00,METAR,,180,6.0,,,9999.0,,0.0,0.0,29.95,1015.2,,,,,,,,,,,,,,,Clear,72000.0,,,73000.0,,,,,,
KRDR,10-29-2011,14:00,METAR,,150,3.0,,,9999.0,,-5.0,-6.0,29.95,1015.1,,,,,,,,,,,,,,,Clear,72000.0,,,73000.0,,,,,,
KRDR,10-29-2011,13:00,METAR,,210,6.0,,,9999.0,,-7.0,-7.0,29.96,1015.5,,,,,,,,,,,,,,,Clear,72000.0,,,73000.0,,,,,,
KRDR,10-29-2011,12:00,METAR,,190,4.0,,,9999.0,,-7.0,-7.0,29.96,1015.5,,,,,,,,,,,,,,,Clear,72000.0,,,73000.0,,,,,,
KRDR,10-29-2011,11:00,METAR,,180,5.0,,,9999.0,,-5.0,-5.0,29.96,1015.5,,,,,,,,,,,,,,,Clear,72000.0,,,73000.0,,,,,,
KRDR,10-29-2011,10:00,METAR,,,0.0,,,9999.0,,-5.0,-6.0,29.98,1016.1,,,,,,,,,,,,,,,Clear,72000.0,,,73000.0,,,,,,
KRDR,10-29-2011,09:00,METAR,,230,4.0,,,9999.0,,-6.0,-6.0,29.99,1016.5,,,,,,,,,,,,,,,Clear,72000.0,,,73000.0,,,,,,
KRDR,10-29-2011,08:00,METAR,,250,3.0,,,9999.0,,-5.0,-5.0,30.00,1016.8,,,,,,,,,,,,,,,Clear,72000.0,,,73000.0,,,,,,
KRDR,10-29-2011,07:00,METAR,,260,3.0,,,9999.0,,-4.0,-4.0,30.00,1016.9,,,,,,,,,,,,,,,Clear,72000.0,,,73000.0,,,,,,
KRDR,10-29-2011,06:00,METAR,,300,3.0,,,9999.0,,-2.0,-3.0,30.01,1017.0,,,,,,,,,,,,,,,Clear,72000.0,,,73000.0,,,,,,
KRDR,10-29-2011,05:00,METAR,,290,6.0,,,9999.0,,-1.0,-3.0,30.02,1017.4,,,,,,,,,,,,,,,Clear,72000.0,,,73000.0,,,,,,
KRDR,10-29-2011,04:00,METAR,,300,6.0,,,9999.0,,1.0,-2.0,30.02,1017.5,,,,,,,,,,,,,,,Clear,72000.0,,,73000.0,,,,,,
KRDR,10-29-2011,03:00,METAR,,300,6.0,,,9999.0,,2.0,-2.0,30.02,1017.6,,,,,,,,,,,,,,,Clear,72000.0,,,73000.0,,,,,,
KRDR,10-29-2011,02:00,METAR,,300,7.0,,,9999.0,,2.0,-2.0,30.03,1017.7,,,,,,,,,,,,,,,Clear,72000.0,,,73000.0,,,,,,
KRDR,10-29-2011,01:00,METAR,,290,7.0,,,9999.0,,3.0,-3.0,30.03,1017.7,,,,,,,,,,,,,,,Clear,72000.0,,,73000.0,,,,,,
KRDR,10-29-2011,00:00,METAR,,300,7.0,,,9999.0,,3.0,-3.0,30.03,1017.7,,,,,,,,,,,,,,,Clear,72000.0,,,73000.0,,,,,,
KRDR,10-28-2011,23:00,METAR,,320,6.0,,,9999.0,,8.0,-3.0,30.02,1017.3,,,,,,,,,,,,,,,Clear,72000.0,,,73000.0,,,,,,
KRDR,10-28-2011,20:00,METAR,,330,13.0,,,9999.0,,10.0,-2.0,30.02,1017.4,,,,,,,,,,,,,,,Clear,72000.0,,,73000.0,,,,,,
KRDR,10-28-2011,19:00,METAR,,300,16.0,19.0,,9999.0,,10.0,-1.0,30.02,1017.6,,,,,,,,,,,,,,,Clear,72000.0,,,73000.0,,,,,,
KRDR,10-28-2011,18:00,METAR,,310,12.0,17.0,,9999.0,,9.0,-2.0,30.03,1017.8,,,,,,,,,,,,,,,Clear,72000.0,,,73000.0,,,,,,
KRDR,10-28-2011,17:00,METAR,,320,10.0,,,9999.0,,8.0,-1.0,30.03,1017.9,,,,,,,,,,,,,,,Clear,72000.0,,,73000.0,,,,,,
KRDR,10-28-2011,16:00,METAR,,320,11.0,,,9999.0,,6.0,-1.0,30.03,1017.8,,,,,,,,,,,,,,,Clear,72000.0,,,73000.0,,,,,,
KRDR,10-28-2011,15:00,METAR,,310,11.0,,,9999.0,,4.0,-1.0,30.02,1017.5,,,,,,,,,,,,,,,Clear,72000.0,,,73000.0,,,,,,
KRDR,10-28-2011,14:00,METAR,,300,8.0,,,9999.0,,1.0,-2.0,30.01,1017.1,,,,,,,,,,,,,,,Clear,72000.0,,,73000.0,,,,,,
KRDR,10-28-2011,13:00,METAR,,300,7.0,,,9999.0,,-1.0,-2.0,30.00,1016.7,,,,,,,,,,,,,,,Clear,72000.0,,,73000.0,,,,,,
KRDR,10-28-2011,12:00,METAR,,300,6.0,,,9999.0,,0.0,-2.0,29.99,1016.6,,,,,,,,,,,,,,,Clear,72000.0,,,73000.0,,,,,,
KRDR,10-28-2011,11:00,METAR,,290,8.0,,,9999.0,,1.0,-1.0,29.98,1016.2,,,,,,,,,,,,,,,Clear,72000.0,,,73000.0,,,,,,
KRDR,10-28-2011,10:00,METAR,,300,9.0,,,9999.0,,1.0,0.0,29.97,1016.0,,,,,,,,,,,,,,,Clear,72000.0,,,73000.0,,,,,,
KRDR,10-28-2011,09:00,METAR,,300,8.0,,,9999.0,,2.0,0.0,29.96,1015.6,,,,,,,,,,,,,,,Clear,72000.0,,,73000.0,,,,,,
KRDR,10-28-2011,08:00,METAR,,300,7.0,,,9999.0,,2.0,2.0,29.96,1015.4,,,,,,,,,,,,,,,Clear,72000.0,,,73000.0,,,,,,
KRDR,10-28-2011,07:00,METAR,,280,6.0,,,9999.0,,2.0,,29.95,1015.1,,,,,,,,,,,,,,,7/8 Mostly Cloudy,6500.0,,SCT,5000.0,BKN,6400.0,,,,
KRDR,10-28-2011,06:00,METAR,,280,6.0,,,9999.0,,1.0,,29.94,1015.0,,,,,,,,,,,,,TRACE,,Clear,72000.0,,,73000.0,,,,,,
KRDR,10-28-2011,05:00,METAR,,270,5.0,,,9999.0,,4.0,3.0,29.94,1014.8,,,,,,,,,,,,,,,Clear,72000.0,,,73000.0,,,,,,
KRDR,10-28-2011,04:00,METAR,,300,4.0,,,9999.0,,6.0,4.0,29.94,1014.8,,,,,,,,,,,TRACE,,,,8/8 Overcast,2800.0,,BKN,2800.0,OVC,3400.0,,,,
KRDR,10-28-2011,03:46,SPECI,,260,6.0,,,9999.0,,6.0,5.0,29.94,1014.8,,,,,,,,,,,,,,,8/8 Overcast,2700.0,,BKN,2900.0,OVC,3700.0,,,,
KRDR,10-28-2011,03:20,SPECI,,240,4.0,,,9999.0,,6.0,5.0,29.94,1014.8,,,,,,,,,,,,,,,7/8 Mostly Cloudy,3600.0,,BKN,3700.0,BKN,4800.0,BKN,5400.0,,
KRDR,10-28-2011,03:10,SPECI,,220,5.0,,,9999.0,Light Rain,6.0,5.0,29.94,1014.9,61,,,,,,,,,,,,,,8/8 Overcast,3900.0,,FEW,2700.0,BKN,4000.0,OVC,5000.0,,
KRDR,10-28-2011,03:07,SPECI,,220,6.0,,,9999.0,,6.0,4.0,29.94,1014.9,,,,,,,,,,,,,,,8/8 Overcast,4000.0,,FEW,2700.0,BKN,4100.0,OVC,5000.0,,
KRDR,10-28-2011,03:00,METAR,,220,6.0,,,9999.0,Light Rain,6.0,4.0,29.94,1014.8,61,,,,,,,,,,TRACE,0 IN,,,8/8 Overcast,3500.0,,FEW,2700.0,BKN,3600.0,OVC,5400.0,,
KRDR,10-28-2011,02:07,SPECI,,230,5.0,,,9999.0,Light Rain,7.0,0.0,29.94,1015.0,61,,,,,,,,,,,,,,8/8 Overcast,3700.0,,FEW,2600.0,OVC,3800.0,,,,
KRDR,10-28-2011,02:00,METAR,,210,7.0,,,9999.0,,7.0,0.0,29.94,1014.9,,,,,,,,,,,,,,,8/8 Overcast,3400.0,,FEW,2700.0,BKN,3500.0,OVC,4300.0,,
KRDR,10-28-2011,01:35,SPECI,,210,7.0,,,9999.0,Unknown Precipitation,7.0,-2.0,29.95,1015.1,40,,,,,,,,,,,,,,8/8 Overcast,4100.0,,FEW,2600.0,SCT,4200.0,OVC,5400.0,,
KRDR,10-28-2011,01:00,METAR,,170,8.0,,,9999.0,,6.0,-3.0,29.94,1014.8,,,,,,,,,,,,,,,8/8 Overcast,7000.0,,OVC,6900.0,,,,,,
KRDR,10-28-2011,00:00,METAR,,150,6.0,,,9999.0,,5.0,-4.0,29.94,1014.8,,,,,,,,,,,,,,,Clear,72000.0,,,73000.0,,,,,,
KRDR,10-27-2011,23:00,METAR,,180,7.0,,,9999.0,,7.0,-4.0,29.94,1014.7,,,,,,,,,,,,,,,Clear,72000.0,,,73000.0,,,,,,
KRDR,10-27-2011,22:00,METAR,,170,11.0,,,9999.0,,10.0,-3.0,29.94,1014.9,,,,,,,,,,,,,,,Clear,72000.0,,,73000.0,,,,,,
KRDR,10-27-2011,21:00,METAR,,200,10.0,,,9999.0,,9.0,-1.0,29.95,1015.2,,,,,,,,,,,,,,,Clear,72000.0,,,73000.0,,,,,,
KRDR,10-27-2011,20:00,METAR,,200,8.0,,,9999.0,,9.0,0.0,29.96,1015.6,,,,,,,,,,,,,,,Clear,72000.0,,,73000.0,,,,,,
KRDR,10-27-2011,19:00,METAR,,220,8.0,,,9999.0,,8.0,0.0,29.98,1016.3,,,,,,,,,,,,,,,Clear,72000.0,,,73000.0,,,,,,
KRDR,10-27-2011,18:00,METAR,,200,5.0,,,9999.0,,7.0,1.0,30.00,1016.9,,,,,,,,,,,,,,,Clear,72000.0,,,73000.0,,,,,,
KRDR,10-27-2011,17:00,METAR,,230,3.0,,,9999.0,,6.0,1.0,30.02,1017.3,,,,,,,,,,,,,,,Clear,72000.0,,,73000.0,,,,,,
KRDR,10-27-2011,16:00,METAR,,,0.0,,,9999.0,,4.0,3.0,30.03,1017.7,,,,,,,,,,,,,,,Clear,72000.0,,,73000.0,,,,,,
KRDR,10-27-2011,15:00,METAR,,,0.0,,,9999.0,,0.0,,30.03,1017.7,,,,,,,,,,,,,,,Clear,72000.0,,,73000.0,,,,,,
KRDR,10-27-2011,14:00,METAR,,230,4.0,,,9999.0,,-5.0,,30.03,1017.9,,,,,,,,,,,,,,,Clear,72000.0,,,73000.0,,,,,,
KRDR,10-27-2011,13:27,SPECI,,220,1.0,,,9999.0,,-5.0,-5.0,30.02,,,,,,,,,,,,,,,,Clear,72000.0,,,73000.0,,,,,,
KRDR,10-27-2011,13:03,SPECI,,250,2.0,,,9999.0,Mist,-7.0,-7.0,30.02,,,,,10,,,,,,,,,,,Clear,72000.0,,,73000.0,,,,,,
KRDR,10-27-2011,13:00,SPECI,,,0.0,,,4800.0,Mist,-8.0,-8.0,30.03,1017.8,,,,10,,,,,,,,,,,Clear,72000.0,,,73000.0,,,,,,
KRDR,10-27-2011,13:00,METAR,,,0.0,,,1200.0,Mist,-7.0,-7.0,30.03,1017.7,10,,,,,,,,,,,,,,Clear,72000.0,,,73000.0,,,,,,
KRDR,10-27-2011,12:56,SPECI,,,0.0,,,1600.0,Mist,-8.0,-8.0,30.03,1017.8,,,,10,,,,,,,,,,,Clear,72000.0,,,73000.0,,,,,,
KRDR,10-27-2011,12:55,SPECI,,250,3.0,,,1200.0,Mist,-7.0,-7.0,30.03,1017.8,,,,10,,,,,,,,,,,Clear,72000.0,,,73000.0,,,,,,
KRDR,10-27-2011,12:50,SPECI,,,0.0,,,1200.0,Mist,-7.0,-7.0,30.03,1017.7,10,,,,,,,,,,,,,,Clear,72000.0,,,73000.0,,,,,,
KRDR,10-27-2011,12:44,SPECI,,,0.0,,,1200.0,Mist,-6.0,-6.0,30.03,1017.7,10,,,,,,,,,,,,,,Clear,72000.0,,,73000.0,,,,,,
KRDR,10-27-2011,12:39,SPECI,,,0.0,,,9999.0,,-6.0,-6.0,30.02,,,,,,,,,,,,,,,,Clear,72000.0,,,73000.0,,,,,,
KRDR,10-27-2011,12:37,SPECI,,,0.0,,,1600.0,Mist,-6.0,-6.0,30.03,1017.8,10,,,,,,,,,,,,,,Clear,72000.0,,,73000.0,,,,,,
KRDR,10-27-2011,12:36,SPECI,,,0.0,,,2000.0,Mist,-7.0,-7.0,30.03,1017.8,10,,,,,,,,,,,,,,Clear,72000.0,,,73000.0,,,,,,
KRDR,10-27-2011,12:33,SPECI,,,0.0,,,2800.0,Mist,-6.0,-6.0,30.03,1017.8,10,,,,,,,,,,,,,,Clear,72000.0,,,73000.0,,,,,,
KRDR,10-27-2011,12:29,SPECI,,,0.0,,,4000.0,Mist,-6.0,-6.0,30.03,1017.8,10,,,,,,,,,,,,,,Clear,72000.0,,,73000.0,,,,,,
KRDR,10-27-2011,12:12,SPECI,,,0.0,,,4800.0,Mist,-5.0,-5.0,30.03,1017.9,10,,,,,,,,,,,,,,Clear,72000.0,,,73000.0,,,,,,
KRDR,10-27-2011,12:10,SPECI,,,0.0,,,3200.0,Mist,-5.0,-5.0,30.03,1017.8,10,,,,,,,,,,,,,,Clear,72000.0,,,73000.0,,,,,,
KRDR,10-27-2011,12:06,SPECI,,,0.0,,,2000.0,Mist,-5.0,-5.0,30.03,1017.9,10,,,,,,,,,,,,,,Clear,72000.0,,,73000.0,,,,,,
KRDR,10-27-2011,12:03,SPECI,,,0.0,,,1200.0,Mist,-6.0,-6.0,30.03,1017.9,10,,,,,,,,,,,,,,Clear,72000.0,,,73000.0,,,,,,
KRDR,10-27-2011,12:00,METAR,,,0.0,,,9999.0,,-4.0,,30.03,1017.9,,,,,,,,,,,,,,,Clear,72000.0,,,73000.0,,,,,,
KRDR,10-27-2011,11:58,SPECI,,,0.0,,,2000.0,Mist,-6.0,-6.0,30.04,1018.0,10,,,,,,,,,,,,,,Clear,72000.0,,,73000.0,,,,,,
KRDR,10-27-2011,11:00,METAR,,260,4.0,,,9999.0,,-5.0,,30.03,1017.9,,,,,,,,,,,,,,,Clear,72000.0,,,73000.0,,,,,,
KRDR,10-27-2011,10:00,METAR,,270,4.0,,,9999.0,,-4.0,,30.03,1017.7,,,,,,,,,,,,,,,Clear,72000.0,,,73000.0,,,,,,
KRDR,10-27-2011,09:40,SPECI,,280,1.0,,,9999.0,,-5.0,-5.0,30.02,,,,,,,,,,,,,,,,Clear,72000.0,,,73000.0,,,,,,
KRDR,10-27-2011,09:39,SPECI,,280,1.0,,,9999.0,,-5.0,-5.0,30.02,,,,,,,,,,,,,,,,Clear,72000.0,,,73000.0,,,,,,
KRDR,10-27-2011,09:00,METAR,,290,3.0,,,9999.0,,-4.0,,30.02,1017.6,,,,,,,,,,,,,,,Clear,72000.0,,,73000.0,,,,,,
KRDR,10-27-2011,08:00,METAR,,260,4.0,,,9999.0,,-4.0,,30.04,1018.1,,,,,,,,,,,,,,,Clear,72000.0,,,73000.0,,,,,,
KRDR,10-27-2011,07:27,SPECI,,240,3.0,,,6400.0,Mist,-4.0,-4.0,30.04,1018.2,10,,,,,,,,,,,,,,Clear,72000.0,,,73000.0,,,,,,
KRDR,10-27-2011,07:25,SPECI,,,0.0,,,3200.0,Mist,-4.0,-4.0,30.04,1018.2,10,,,,,,,,,,,,,,Clear,72000.0,,,73000.0,,,,,,
KRDR,10-27-2011,07:22,SPECI,,220,3.0,,,2400.0,Mist,-4.0,-4.0,30.04,1018.3,10,,,,,,,,,,,,,,Clear,72000.0,,,73000.0,,,,,,
KRDR,10-27-2011,07:20,SPECI,,,0.0,,,2400.0,Mist,-4.0,-4.0,30.04,1018.2,10,,,,,,,,,,,,,,Clear,72000.0,,,73000.0,,,,,,
KRDR,10-27-2011,07:18,SPECI,,,0.0,,,2800.0,Mist,-4.0,-4.0,30.04,1018.3,10,,,,,,,,,,,,,,Clear,72000.0,,,73000.0,,,,,,
KRDR,10-27-2011,07:00,METAR,,210,3.0,,,4800.0,Mist,-4.0,-4.0,30.05,1018.3,10,,,,,,,,,,,,,,Clear,72000.0,,,73000.0,,,,,,
KRDR,10-27-2011,06:53,SPECI,,200,3.0,,,1600.0,Mist,-4.0,-4.0,30.05,1018.3,10,,,,,,,,,,,,,,Clear,72000.0,,,73000.0,,,,,,
KRDR,10-27-2011,06:51,SPECI,,200,3.0,,,1200.0,Mist,-4.0,-4.0,30.05,1018.3,10,,,,,,,,,,,,,,Clear,72000.0,,,73000.0,,,,,,
KRDR,10-27-2011,06:47,SPECI,,190,4.0,,,800.0,Fog with Rime,-4.0,-4.0,30.05,1018.3,35,,,,,,,,,,,,,,Clear,72000.0,,,73000.0,,,,,,
KRDR,10-27-2011,06:44,SPECI,,170,4.0,,,400.0,Fog with Rime,-3.0,-3.0,30.05,1018.4,35,,,,,,,,,,,,,,Clear,72000.0,,,73000.0,,,,,,
KRDR,10-27-2011,06:43,SPECI,,170,4.0,,,400.0,Fog with Rime,-3.0,-3.0,30.05,1018.4,35,,,,,,,,,,,,,,Clear,72000.0,,,73000.0,,,,,,
KRDR,10-27-2011,06:28,SPECI,,,0.0,,,9999.0,,-3.0,-3.0,30.04,,,,,,,,,,,,,,,,Clear,72000.0,,,73000.0,,,,,,
KRDR,10-27-2011,06:15,SPECI,,,0.0,,,800.0,Fog with Rime,-3.0,-3.0,30.04,1018.2,35,,,,,,,,,,,,,,Clear,72000.0,,,73000.0,,,,,,
KRDR,10-27-2011,06:13,SPECI,,,0.0,,,1200.0,Mist,-3.0,-3.0,30.04,1018.2,10,,,,,,,,,,,,,,Clear,72000.0,,,73000.0,,,,,,
KRDR,10-27-2011,06:09,SPECI,,,0.0,,,1200.0,Mist,-3.0,-3.0,30.04,1018.2,10,,,,,,,,,,,,,,Clear,72000.0,,,73000.0,,,,,,
KRDR,10-27-2011,06:07,SPECI,,,0.0,,,1600.0,Mist,-3.0,-3.0,30.04,1018.2,10,,,,,,,,,,,,,,Clear,72000.0,,,73000.0,,,,,,
KRDR,10-27-2011,06:06,SPECI,,,0.0,,,2000.0,Mist,-3.0,-3.0,30.04,1018.2,10,,,,,,,,,,,,,,Clear,72000.0,,,73000.0,,,,,,
KRDR,10-27-2011,06:04,SPECI,,,0.0,,,2800.0,Mist,-3.0,-3.0,30.04,1018.2,10,,,,,,,,,,,,,,Clear,72000.0,,,73000.0,,,,,,
KRDR,10-27-2011,06:02,SPECI,,,0.0,,,4000.0,Mist,-3.0,-3.0,30.04,1018.2,10,,,,,,,,,,,,,,Clear,72000.0,,,73000.0,,,,,,
KRDR,10-27-2011,06:00,METAR,,,0.0,,,9999.0,,-3.0,,30.04,1018.2,,,,,,,,,,,,,TRACE,,Clear,72000.0,,,73000.0,,,,,,
KRDR,10-27-2011,05:00,METAR,,,0.0,,,9999.0,,-1.0,,30.05,1018.6,,,,,,,,,,,,,,,Clear,72000.0,,,73000.0,,,,,,
KRDR,10-27-2011,04:00,METAR,,270,4.0,,,9999.0,,1.0,1.0,30.06,1018.7,,,,,,,,,,,TRACE,,,,Clear,72000.0,,,73000.0,,,,,,
KRDR,10-27-2011,03:30,SPECI,,270,5.0,,,9999.0,,4.0,2.0,30.05,1018.6,,,,,,,,,,,,,,,7/8 Mostly Cloudy,6000.0,,FEW,1700.0,SCT,3100.0,BKN,5900.0,,
KRDR,10-27-2011,03:14,SPECI,,270,5.0,,,9999.0,Light Rain,4.0,2.0,30.06,1018.9,61,,,,,,,,,,,,,,8/8 Overcast,3000.0,,FEW,1700.0,BKN,3000.0,OVC,4300.0,,
KRDR,10-27-2011,03:11,SPECI,,,3.0,,,9999.0,Light Rain,4.0,2.0,30.06,1018.9,61,,,,,,,,,,,,,,8/8 Overcast,2900.0,,SCT,1900.0,BKN,2900.0,OVC,7400.0,,
KRDR,10-27-2011,03:00,METAR,,320,10.0,,,9999.0,,4.0,1.0,30.06,1018.9,,,,,,,,,,,,TRACE,,,7/8 Mostly Cloudy,9500.0,,FEW,4400.0,SCT,7400.0,BKN,9400.0,,
KRDR,10-27-2011,02:54,SPECI,,320,9.0,,,9999.0,Light Rain,4.0,1.0,30.06,1018.9,61,,,,,,,,,,,,,,7/8 Mostly Cloudy,9500.0,,SCT,4400.0,SCT,7400.0,BKN,9400.0,,
KRDR,10-27-2011,02:00,METAR,,330,6.0,,,9999.0,,2.0,2.0,30.06,1018.9,,,,,,,,,,,,,,,8/8 Overcast,4900.0,,FEW,4000.0,BKN,5900.0,OVC,9900.0,,
KRDR,10-27-2011,01:00,METAR,,220,3.0,,,9999.0,,4.0,2.0,30.04,1018.3,,,,,,,,,,,TRACE,,,,4/8 Partly Cloudy,72000.0,,FEW,4900.0,SCT,6400.0,,,,
KRDR,10-27-2011,00:33,SPECI,,,0.0,,,9999.0,,5.0,2.0,30.05,1018.3,,,,,,,,,,,,,,,4/8 Partly Cloudy,72000.0,,FEW,6900.0,SCT,8900.0,,,,
KRDR,10-27-2011,00:23,SPECI,,,0.0,,,9999.0,Light Rain,5.0,2.0,30.05,1018.4,61,,,,,,,,,,,,,,4/8 Partly Cloudy,72000.0,,FEW,5900.0,SCT,8900.0,SCT,9900.0,,
KRDR,10-27-2011,00:17,SPECI,,10,3.0,,,9999.0,,5.0,2.0,30.05,1018.3,,,,,,,,,,,,,,,7/8 Mostly Cloudy,6000.0,,FEW,5900.0,SCT,7400.0,BKN,9900.0,,
KRDR,10-27-2011,00:02,SPECI,,20,7.0,,,9999.0,Unknown Precipitation,5.0,1.0,30.05,1018.4,40,,,,,,,,,,,,,,7/8 Mostly Cloudy,4900.0,,FEW,3400.0,BKN,5900.0,,,,
KRDR,10-27-2011,00:00,METAR,,10,8.0,,,9999.0,,6.0,1.0,30.05,1018.6,,,,,,,,,,,,,TRACE,,8/8 Overcast,4300.0,,SCT,3600.0,BKN,4400.0,OVC,5900.0,,
KRDR,10-26-2011,23:00,METAR,,30,7.0,,,9999.0,,8.0,2.0,30.04,1018.2,,,,,,,,,,,TRACE,,,,7/8 Mostly Cloudy,4400.0,,BKN,4500.0,BKN,5900.0,BKN,7900.0,,
KRDR,10-26-2011,22:00,METAR,,340,7.0,,,9999.0,Light Rain,8.0,2.0,30.04,1018.2,61,,,,,,,,,,TRACE,,,,8/8 Overcast,4400.0,,FEW,3300.0,BKN,4500.0,OVC,9400.0,,
KRDR,10-26-2011,21:54,SPECI,,330,5.0,,,9999.0,,8.0,0.0,30.04,1018.1,,,,,,,,,,,,,,,7/8 Mostly Cloudy,4400.0,,FEW,3300.0,BKN,4500.0,BKN,7900.0,,
KRDR,10-26-2011,21:45,SPECI,,330,7.0,,,9999.0,Light Rain,8.0,2.0,30.04,1018.2,61,,,,,,,,,,,,,,7/8 Mostly Cloudy,9500.0,,FEW,4700.0,SCT,6400.0,BKN,9400.0,,
KRDR,10-26-2011,21:00,METAR,,,0.0,,,9999.0,,7.0,0.0,30.05,1018.3,,,,,,,,,,,TRACE,0 IN,,,2/8 Mostly Clear,72000.0,,FEW,5900.0,,,,,,
KRDR,10-26-2011,20:35,SPECI,,340,4.0,,,9999.0,,7.0,0.0,30.05,1018.6,,,,,,,,,,,,,,,7/8 Mostly Cloudy,4900.0,,FEW,2100.0,SCT,6400.0,BKN,8900.0,,
KRDR,10-26-2011,20:15,SPECI,,350,13.0,20.0,,9999.0,Light Rain,9.0,0.0,30.06,1018.8,61,,,,,,,,,,,,,,4/8 Partly Cloudy,72000.0,,FEW,4200.0,SCT,8400.0,,,,
KRDR,10-26-2011,20:00,METAR,,330,9.0,,,9999.0,,10.0,0.0,30.06,1018.9,,,,,,,,,,,,,,,7/8 Mostly Cloudy,7500.0,,FEW,4800.0,BKN,7400.0,BKN,8900.0,,
KRDR,10-26-2011,19:00,METAR,,310,9.0,,,9999.0,,11.0,-1.0,30.09,1019.7,,,,,,,,,,,,,,,2/8 Mostly Clear,72000.0,,FEW,4700.0,,,,,,
KRDR,10-26-2011,18:00,METAR,,320,5.0,,,9999.0,,10.0,2.0,30.11,1020.6,,,,,,,,,,,,,TRACE,,2/8 Mostly Clear,72000.0,,FEW,5000.0,,,,,,
KRDR,10-26-2011,17:00,METAR,,320,6.0,,,9999.0,,9.0,3.0,30.13,1021.0,,,,,,,,,,,,,,,2/8 Mostly Clear,72000.0,,FEW,5900.0,,,,,,
KRDR,10-26-2011,16:00,METAR,,320,5.0,,,9999.0,,7.0,4.0,30.13,1021.1,,,,,,,,,,,TRACE,,,,4/8 Partly Cloudy,72000.0,,FEW,3000.0,SCT,7900.0,,,,
KRDR,10-26-2011,15:40,SPECI,,300,8.0,,,9999.0,,8.0,4.0,30.13,1021.0,,,,,,,,,,,,,,,2/8 Mostly Clear,72000.0,,FEW,3000.0,,,,,,
KRDR,10-26-2011,15:31,SPECI,,300,9.0,,,9999.0,Light Rain,8.0,5.0,30.12,1020.9,61,,,,,,,,,,,,,,Clear,4900.0,,,73000.0,,,,,,
KRDR,10-26-2011,15:00,METAR,,300,9.0,,,9999.0,,6.0,5.0,30.12,1020.9,,,,,,,,,,,,,,,7/8 Mostly Cloudy,8000.0,,BKN,7900.0,,,,,,
KRDR,10-26-2011,14:00,METAR,,280,4.0,,,9999.0,,0.0,,30.13,1021.1,,,,,,,,,,,,,,,Clear,72000.0,,,73000.0,,,,,,
KRDR,10-26-2011,13:00,METAR,,,0.0,,,9999.0,,-1.0,,30.12,1020.9,,,,,,,,,,,,,,,Clear,72000.0,,,73000.0,,,,,,
KRDR,10-26-2011,12:00,METAR,,300,4.0,,,9999.0,,1.0,,30.12,1020.9,,,,,,,,,,,,,TRACE,,Clear,72000.0,,,73000.0,,,,,,
KRDR,10-26-2011,11:00,METAR,,330,5.0,,,9999.0,,3.0,3.0,30.12,1020.9,,,,,,,,,,,,,,,7/8 Mostly Cloudy,3700.0,,FEW,3600.0,BKN,6900.0,,,,
KRDR,10-26-2011,10:00,METAR,,330,7.0,,,9999.0,,5.0,3.0,30.12,1020.8,,,,,,,,,,,TRACE,,,,8/8 Overcast,8000.0,,SCT,4500.0,SCT,5900.0,OVC,7900.0,,
KRDR,10-26-2011,09:24,SPECI,,340,6.0,,,9999.0,,5.0,3.0,30.12,1020.7,,,,,,,,,,,,,,,8/8 Overcast,4100.0,,BKN,4200.0,OVC,5400.0,,,,
KRDR,10-26-2011,09:15,SPECI,,340,6.0,,,9999.0,Unknown Precipitation,5.0,3.0,30.12,1020.8,40,,,,,,,,,,,,,,8/8 Overcast,4300.0,,OVC,4400.0,,,,,,
KRDR,10-26-2011,09:00,METAR,,340,6.0,,,9999.0,,5.0,3.0,30.12,1020.7,,,,,,,,,,,,TRACE,,,8/8 Overcast,4100.0,,OVC,4200.0,,,,,,
KRDR,10-26-2011,08:00,METAR,,350,4.0,,,9999.0,,5.0,3.0,30.11,1020.5,,,,,,,,,,,,,,,8/8 Overcast,4300.0,,OVC,4400.0,,,,,,
KRDR,10-26-2011,07:00,METAR,,10,5.0,,,9999.0,,4.0,3.0,30.10,1020.1,,,,,,,,,,,TRACE,,,,8/8 Overcast,4400.0,,OVC,4500.0,,,,,,
KRDR,10-26-2011,06:00,METAR,,30,3.0,,,9999.0,Light Rain,5.0,3.0,30.10,1020.1,61,,,,,,,,,,TRACE,,TRACE,,7/8 Mostly Cloudy,3500.0,,BKN,3600.0,,,,,,
KRDR,10-26-2011,05:49,SPECI,,10,4.0,,,9999.0,Light Rain,5.0,3.0,30.10,1020.1,61,,,,,,,,,,,,,,7/8 Mostly Cloudy,3500.0,,BKN,3600.0,,,,,,
KRDR,10-26-2011,05:43,SPECI,,30,5.0,,,9999.0,,6.0,3.0,30.10,1020.1,,,,,,,,,,,,,,,7/8 Mostly Cloudy,3600.0,,BKN,3700.0,,,,,,
KRDR,10-26-2011,05:16,SPECI,,50,6.0,,,9999.0,Light Rain,6.0,3.0,30.09,1019.9,61,,,,,,,,,,,,,,8/8 Overcast,3600.0,,OVC,3700.0,,,,,,
KRDR,10-26-2011,05:04,SPECI,,50,7.0,,,9999.0,,6.0,3.0,30.09,1019.8,,,,,,,,,,,,,,,8/8 Overcast,3700.0,,BKN,3800.0,BKN,5400.0,OVC,8900.0,,
KRDR,10-26-2011,05:00,METAR,,50,8.0,,,9999.0,Light Rain,6.0,3.0,30.09,1019.8,61,,,,,,,,,,TRACE,,,,7/8 Mostly Cloudy,3600.0,,FEW,3400.0,SCT,4400.0,BKN,8900.0,,
KRDR,10-26-2011,04:45,SPECI,,50,10.0,,,9999.0,Light Rain,6.0,2.0,30.09,1019.7,61,,,,,,,,,,,,,,7/8 Mostly Cloudy,3400.0,,FEW,4700.0,BKN,9400.0,,,,
KRDR,10-26-2011,04:39,SPECI,,40,11.0,,,9999.0,,6.0,2.0,30.08,1019.6,,,,,,,,,,,,,,,7/8 Mostly Cloudy,3700.0,,FEW,4400.0,BKN,8900.0,,,,
KRDR,10-26-2011,04:03,SPECI,,50,5.0,,,9999.0,Light Rain,6.0,2.0,30.08,1019.5,61,,,,,,,,,,,,,,2/8 Mostly Clear,72000.0,,FEW,800.0,,,,,,
KRDR,10-26-2011,04:00,METAR,,40,9.0,,,9999.0,Light Rain,6.0,2.0,30.08,1019.5,61,,,,,,,,,,TRACE,,,,Clear,3700.0,,,73000.0,,,,,,
KRDR,10-26-2011,03:42,SPECI,,30,8.0,,,9999.0,Light Rain,6.0,1.0,30.08,1019.4,61,,,,,,,,,,,,,,2/8 Mostly Clear,72000.0,,FEW,4800.0,,,,,,
KRDR,10-26-2011,03:00,METAR,,30,4.0,,,9999.0,,6.0,1.0,30.06,1018.9,,,,,,,,,,,,TRACE,,,4/8 Partly Cloudy,72000.0,,FEW,5900.0,SCT,8900.0,,,,
KRDR,10-26-2011,02:00,METAR,,50,6.0,,,9999.0,,7.0,1.0,30.05,1018.4,,,,,,,,,,,TRACE,,,,8/8 Overcast,7000.0,,BKN,6900.0,OVC,8400.0,,,,
KRDR,10-26-2011,01:20,SPECI,,50,7.0,,,9999.0,,7.0,1.0,30.05,1018.4,,,,,,,,,,,,,,,Clear,72000.0,,,73000.0,,,,,,
KRDR,10-26-2011,01:11,SPECI,,50,7.0,,,9999.0,Light Rain,8.0,1.0,30.05,1018.4,61,,,,,,,,,,,,,,Clear,6000.0,,,73000.0,,,,,,
KRDR,10-26-2011,01:01,SPECI,,70,6.0,,,9999.0,,8.0,1.0,30.04,1018.3,,,,,,,,,,,,,,,2/8 Mostly Clear,72000.0,,FEW,5900.0,,,,,,
KRDR,10-26-2011,01:00,METAR,,60,5.0,,,9999.0,,8.0,1.0,30.04,1018.3,,,,,,,,,,,,,,,4/8 Partly Cloudy,72000.0,,SCT,5900.0,,,,,,
KRDR,10-26-2011,00:00,METAR,,,0.0,,,9999.0,,8.0,0.0,30.03,1017.7,,,,,,,,,,,,,,,8/8 Overcast,9000.0,,OVC,8900.0,,,,,,
KRDR,10-25-2011,23:00,METAR,,20,4.0,,,9999.0,,9.0,0.0,30.02,1017.3,,,,,,,,,,,,,,,8/8 Overcast,8000.0,,OVC,7900.0,,,,,,
KRDR,10-25-2011,22:00,METAR,,60,3.0,,,9999.0,,11.0,-1.0,30.02,1017.6,,,,,,,,,,,,,,,8/8 Overcast,8000.0,,OVC,7900.0,,,,,,
KRDR,10-25-2011,21:00,METAR,,,0.0,,,9999.0,,11.0,-1.0,30.02,1017.6,,,,,,,,,,,,,,,7/8 Mostly Cloudy,10000.0,,BKN,9900.0,,,,,,
KRDR,10-25-2011,20:00,METAR,,,0.0,,,9999.0,,11.0,-1.0,30.03,1017.8,,,,,,,,,,,,,,,7/8 Mostly Cloudy,9000.0,,BKN,8900.0,,,,,,
KRDR,10-25-2011,19:00,METAR,,,0.0,,,9999.0,,10.0,0.0,30.04,1018.1,,,,,,,,,,,,,,,8/8 Overcast,10000.0,,OVC,9900.0,,,,,,
KRDR,10-25-2011,18:00,METAR,,140,3.0,,,9999.0,,9.0,0.0,30.05,1018.4,,,,,,,,,,,,,,,7/8 Mostly Cloudy,10000.0,,BKN,9900.0,,,,,,
KRDR,10-25-2011,17:00,METAR,,,0.0,,,9999.0,,7.0,1.0,30.06,1018.7,,,,,,,,,,,,,,,7/8 Mostly Cloudy,10000.0,,BKN,9900.0,,,,,,
KRDR,10-25-2011,16:00,METAR,,20,4.0,,,9999.0,,6.0,2.0,30.06,1018.8,,,,,,,,,,,,,,,7/8 Mostly Cloudy,12000.0,,SCT,9900.0,BKN,12000.0,,,,
KRDR,10-25-2011,15:00,METAR,,10,3.0,,,9999.0,,4.0,2.0,30.05,1018.6,,,,,,,,,,,,,,,8/8 Overcast,10000.0,,OVC,9900.0,,,,,,
KRDR,10-25-2011,14:00,METAR,,,0.0,,,9999.0,,2.0,2.0,30.04,1018.1,,,,,,,,,,,,,,,2/8 Mostly Clear,72000.0,,FEW,9900.0,,,,,,
KRDR,10-25-2011,13:00,METAR,,10,4.0,,,9999.0,,3.0,2.0,30.03,1017.9,,,,,,,,,,,,,,,7/8 Mostly Cloudy,11000.0,,BKN,11000.0,,,,,,
KRDR,10-25-2011,12:00,METAR,,350,4.0,,,9999.0,,3.0,2.0,30.03,1017.9,,,,,,,,,,,,,,,8/8 Overcast,10000.0,,OVC,9900.0,,,,,,
KRDR,10-25-2011,11:00,METAR,,350,4.0,,,9999.0,,2.0,2.0,30.01,1017.3,,,,,,,,,,,,,,,7/8 Mostly Cloudy,11000.0,,BKN,11000.0,,,,,,
KRDR,10-25-2011,10:00,METAR,,350,3.0,,,9999.0,,2.0,2.0,30.02,1017.4,,,,,,,,,,,,,,,8/8 Overcast,10000.0,,OVC,9900.0,,,,,,
KRDR,10-25-2011,09:00,METAR,,,0.0,,,9999.0,,2.0,2.0,30.02,1017.4,,,,,,,,,,,,,,,7/8 Mostly Cloudy,10000.0,,BKN,9900.0,,,,,,
KRDR,10-25-2011,08:00,METAR,,,0.0,,,9999.0,,2.0,2.0,30.02,1017.4,,,,,,,,,,,,,,,Clear,72000.0,,,73000.0,,,,,,
KRDR,10-25-2011,07:00,METAR,,,0.0,,,9999.0,,2.0,2.0,30.02,1017.5,,,,,,,,,,,,,,,2/8 Mostly Clear,72000.0,,FEW,4200.0,,,,,,
KRDR,10-25-2011,06:00,METAR,,,0.0,,,9999.0,,3.0,2.0,30.03,1017.7,,,,,,,,,,,,,,,Clear,72000.0,,,73000.0,,,,,,
KRDR,10-25-2011,05:22,SPECI,,,0.0,,,4800.0,Mist,4.0,2.0,30.03,1017.9,10,,,,,,,,,,,,,,4/8 Partly Cloudy,72000.0,,SCT,9900.0,SCT,12000.0,,,,
KRDR,10-25-2011,05:15,SPECI,,,0.0,,,4000.0,Mist,4.0,2.0,30.03,1017.9,10,,,,,,,,,,,,,,4/8 Partly Cloudy,72000.0,,SCT,11000.0,,,,,,
KRDR,10-25-2011,05:00,METAR,,,0.0,,,9999.0,,5.0,2.0,30.03,1018.0,,,,,,,,,,,,,,,2/8 Mostly Clear,72000.0,,FEW,9900.0,,,,,,
KRDR,10-25-2011,04:10,SPECI,,,0.0,,,9999.0,,6.0,1.0,30.04,1018.0,,,,,,,,,,,,,,,2/8 Mostly Clear,72000.0,,FEW,9900.0,,,,,,
KRDR,10-25-2011,04:07,SPECI,,,0.0,,,9999.0,,6.0,1.0,30.04,1018.0,,,,,,,,,,,,,,,2/8 Mostly Clear,72000.0,,FEW,9900.0,,,,,,
KRDR,10-25-2011,04:00,METAR,,,0.0,,,9999.0,,6.0,2.0,30.04,1018.0,,,,,,,,,,,,,,,2/8 Mostly Clear,72000.0,,FEW,9900.0,,,,,,
KRDR,10-25-2011,03:02,SPECI,,,0.0,,,9999.0,,7.0,1.0,30.04,1018.1,,,,,,,,,,,,,,,2/8 Mostly Clear,72000.0,,FEW,4500.0,,,,,,
KRDR,10-25-2011,03:00,METAR,,,0.0,,,9999.0,,7.0,1.0,30.03,1017.9,,,,,,,,,,,,,,,2/8 Mostly Clear,72000.0,,FEW,4400.0,,,,,,
KRDR,10-25-2011,02:00,METAR,,130,3.0,,,9999.0,,8.0,1.0,30.02,1017.4,,,,,,,,,,,,,,,Clear,72000.0,,,73000.0,,,,,,
KRDR,10-25-2011,01:00,METAR,,150,5.0,,,9999.0,,8.0,1.0,30.00,1017.0,,,,,,,,,,,,,,,Clear,72000.0,,,73000.0,,,,,,
KRDR,10-25-2011,00:00,METAR,,140,4.0,,,9999.0,,9.0,1.0,30.01,1017.0,,,,,,,,,,,,,,,2/8 Mostly Clear,72000.0,,FEW,12000.0,,,,,,
KRDR,10-24-2011,23:00,METAR,,140,5.0,,,9999.0,,10.0,1.0,30.00,1016.7,,,,,,,,,,,,,,,Clear,72000.0,,,73000.0,,,,,,
KRDR,10-24-2011,22:00,METAR,,140,5.0,,,9999.0,,11.0,1.0,30.00,1016.7,,,,,,,,,,,,,,,Clear,72000.0,,,73000.0,,,,,,
KRDR,10-24-2011,21:00,METAR,,120,3.0,,,9999.0,,11.0,1.0,29.99,1016.6,,,,,,,,,,,,,,,Clear,72000.0,,,73000.0,,,,,,
KRDR,10-24-2011,20:00,METAR,,90,6.0,,,9999.0,,11.0,2.0,29.99,1016.6,,,,,,,,,,,,,,,Clear,72000.0,,,73000.0,,,,,,
KRDR,10-24-2011,19:00,METAR,,,4.0,,,9999.0,,10.0,1.0,30.00,1016.9,,,,,,,,,,,,,,,Clear,72000.0,,,73000.0,,,,,,
KRDR,10-24-2011,18:00,METAR,,,3.0,,,9999.0,,9.0,2.0,30.02,1017.6,,,,,,,,,,,,,,,Clear,72000.0,,,73000.0,,,,,,
KRDR,10-24-2011,17:00,METAR,,,0.0,,,9999.0,,7.0,2.0,30.04,1018.1,,,,,,,,,,,,,,,4/8 Partly Cloudy,72000.0,,SCT,5000.0,,,,,,
KRDR,10-24-2011,16:00,METAR,,,0.0,,,9999.0,,5.0,2.0,30.03,1017.9,,,,,,,,,,,,,,,4/8 Partly Cloudy,72000.0,,SCT,5900.0,,,,,,
KRDR,10-24-2011,15:00,METAR,,,0.0,,,9999.0,,3.0,3.0,30.03,1017.7,,,,,,,,,,,,,,,4/8 Partly Cloudy,72000.0,,SCT,5000.0,,,,,,
KRDR,10-24-2011,14:00,METAR,,,0.0,,,9999.0,,1.0,,30.02,1017.3,,,,,,,,,,,,,,,8/8 Overcast,4900.0,,OVC,5000.0,,,,,,
KRDR,10-24-2011,13:00,METAR,,,0.0,,,9999.0,,1.0,,30.00,1016.7,,,,,,,,,,,,,,,8/8 Overcast,6000.0,,OVC,5900.0,,,,,,
KRDR,10-24-2011,12:00,METAR,,360,6.0,,,9999.0,,-1.0,,29.99,1016.6,,,,,,,,,,,,,,,4/8 Partly Cloudy,72000.0,,SCT,5900.0,,,,,,
KRDR,10-24-2011,11:00,METAR,,340,3.0,,,9999.0,,0.0,,29.98,1016.2,,,,,,,,,,,,,,,8/8 Overcast,7000.0,,SCT,5900.0,OVC,6900.0,,,,
KRDR,10-24-2011,10:00,METAR,,270,7.0,,,9999.0,,0.0,0.0,29.97,1015.9,,,,,,,,,,,,,,,2/8 Mostly Clear,72000.0,,FEW,5900.0,,,,,,
KRDR,10-24-2011,09:00,METAR,,330,4.0,,,9999.0,,1.0,1.0,29.95,1015.2,,,,,,,,,,,,,,,2/8 Mostly Clear,72000.0,,FEW,12000.0,,,,,,
KRDR,10-24-2011,08:00,METAR,,10,4.0,,,9999.0,,2.0,2.0,29.95,1015.1,,,,,,,,,,,,,,,7/8 Mostly Cloudy,12000.0,,BKN,12000.0,,,,,,
KRDR,10-24-2011,07:00,METAR,,340,5.0,,,9999.0,,2.0,1.0,29.94,1014.9,,,,,,,,,,,,,,,Clear,72000.0,,,73000.0,,,,,,
KRDR,10-24-2011,06:00,METAR,,360,6.0,,,9999.0,,2.0,1.0,29.93,1014.6,,,,,,,,,,,,,,,Clear,72000.0,,,73000.0,,,,,,
KRDR,10-24-2011,05:00,METAR,,360,7.0,,,9999.0,,1.0,0.0,29.92,1014.2,,,,,,,,,,,,,,,Clear,72000.0,,,73000.0,,,,,,
KRDR,10-24-2011,04:00,METAR,,350,7.0,,,9999.0,,3.0,-1.0,29.91,1013.9,,,,,,,,,,,,,,,Clear,72000.0,,,73000.0,,,,,,
KRDR,10-24-2011,03:00,METAR,,10,7.0,,,9999.0,,6.0,-1.0,29.90,1013.5,,,,,,,,,,,,,,,Clear,72000.0,,,73000.0,,,,,,
KRDR,10-24-2011,02:00,METAR,,300,6.0,,,9999.0,,6.0,0.0,29.88,1012.8,,,,,,,,,,,,,,,Clear,72000.0,,,73000.0,,,,,,
KRDR,10-24-2011,01:00,METAR,,290,6.0,,,9999.0,,8.0,1.0,29.86,1012.3,,,,,,,,,,,,,,,Clear,72000.0,,,73000.0,,,,,,
KRDR,10-24-2011,00:00,METAR,,280,6.0,,,9999.0,,10.0,2.0,29.85,1011.8,,,,,,,,,,,,,TRACE,,Clear,72000.0,,,73000.0,,,,,,
KRDR,10-23-2011,23:00,METAR,,310,10.0,,,9999.0,,13.0,3.0,29.83,1011.3,,,,,,,,,,,TRACE,,,,4/8 Partly Cloudy,72000.0,,SCT,6900.0,,,,,,
KRDR,10-23-2011,22:23,SPECI,,310,11.0,,,9999.0,,13.0,3.0,29.82,1011.0,,,,,,,,,,,,,,,4/8 Partly Cloudy,72000.0,,FEW,5900.0,SCT,8400.0,,,,
KRDR,10-23-2011,22:13,SPECI,,310,10.0,18.0,,9999.0,Light Rain,14.0,3.0,29.82,1011.0,61,,,,,,,,,,,,,,4/8 Partly Cloudy,72000.0,,FEW,5900.0,SCT,7900.0,,,,
KRDR,10-23-2011,22:00,METAR,,300,11.0,19.0,,9999.0,,15.0,3.0,29.82,1010.7,,,,,,,,,,,,,,,2/8 Mostly Clear,72000.0,,FEW,8900.0,,,,,,
KRDR,10-23-2011,21:00,METAR,,290,14.0,20.0,,9999.0,,15.0,2.0,29.80,1010.3,,,,,,,,,,,,,,,Clear,72000.0,,,73000.0,,,,,,
KRDR,10-23-2011,20:00,METAR,,310,14.0,20.0,,9999.0,,16.0,2.0,29.80,1010.2,,,,,,,,,,,,,,,Clear,72000.0,,,73000.0,,,,,,
KRDR,10-23-2011,19:00,METAR,,290,15.0,,,9999.0,,15.0,2.0,29.81,1010.5,,,,,,,,,,,,,,,Clear,72000.0,,,73000.0,,,,,,
KRDR,10-23-2011,18:00,METAR,,310,15.0,22.0,,9999.0,,15.0,2.0,29.81,1010.6,,,,,,,,,,,,,TRACE,,Clear,72000.0,,,73000.0,,,,,,
KRDR,10-23-2011,17:00,METAR,,280,11.0,,,9999.0,,14.0,2.0,29.81,1010.7,,,,,,,,,,,,,,,Clear,72000.0,,,73000.0,,,,,,
KRDR,10-23-2011,16:00,METAR,,280,10.0,,,9999.0,,12.0,2.0,29.81,1010.7,,,,,,,,,,,,,,,2/8 Mostly Clear,72000.0,,FEW,11000.0,,,,,,
KRDR,10-23-2011,15:00,METAR,,320,6.0,,,9999.0,,9.0,3.0,29.81,1010.6,,,,,,,,,,,TRACE,0 IN,,,7/8 Mostly Cloudy,9000.0,,BKN,8900.0,,,,,,
KRDR,10-23-2011,14:15,SPECI,,,5.0,,,9999.0,,8.0,2.0,29.81,1010.7,,,,,,,,,,,,,,,Clear,6000.0,,,73000.0,,,,,,
KRDR,10-23-2011,14:09,SPECI,,300,9.0,,,9999.0,Light Rain,8.0,2.0,29.82,1010.9,61,,,,,,,,,,,,,,Clear,6000.0,,,73000.0,,,,,,
KRDR,10-23-2011,14:00,METAR,,290,7.0,,,9999.0,,7.0,2.0,29.81,1010.6,,,,,,,,,,,,,,,4/8 Partly Cloudy,72000.0,,SCT,8900.0,,,,,,
KRDR,10-23-2011,13:00,METAR,,300,7.0,,,9999.0,,7.0,2.0,29.79,1010.1,,,,,,,,,,,,,,,8/8 Overcast,10000.0,,OVC,9900.0,,,,,,
KRDR,10-23-2011,12:00,METAR,,300,6.0,,,9999.0,,7.0,1.0,29.79,1009.7,,,,,,,,,,,,,,,7/8 Mostly Cloudy,11000.0,,BKN,11000.0,,,,,,
KRDR,10-23-2011,11:00,METAR,,330,7.0,,,9999.0,,7.0,1.0,29.78,1009.4,,,,,,,,,,,,,,,Clear,72000.0,,,73000.0,,,,,,
KRDR,10-23-2011,10:00,METAR,,310,7.0,,,9999.0,,7.0,2.0,29.76,1009.0,,,,,,,,,,,,,,,Clear,72000.0,,,73000.0,,,,,,
KRDR,10-23-2011,09:00,METAR,,300,7.0,,,9999.0,,7.0,3.0,29.76,1009.0,,,,,,,,,,,,,,,7/8 Mostly Cloudy,11000.0,,BKN,11000.0,,,,,,
KRDR,10-23-2011,08:00,METAR,,290,7.0,,,9999.0,,6.0,3.0,29.75,1008.6,,,,,,,,,,,,,,,Clear,72000.0,,,73000.0,,,,,,
KRDR,10-23-2011,07:00,METAR,,270,4.0,,,9999.0,,7.0,3.0,29.75,1008.6,,,,,,,,,,,,,,,Clear,72000.0,,,73000.0,,,,,,
KRDR,10-23-2011,06:00,METAR,,280,5.0,,,9999.0,,8.0,4.0,29.75,1008.5,,,,,,,,,,,,,,,Clear,72000.0,,,73000.0,,,,,,
KRDR,10-23-2011,05:00,METAR,,280,6.0,,,9999.0,,11.0,4.0,29.75,1008.7,,,,,,,,,,,,,,,Clear,72000.0,,,73000.0,,,,,,
KRDR,10-23-2011,04:00,METAR,,250,8.0,,,9999.0,,10.0,6.0,29.76,1008.9,,,,,,,,,,,,,,,Clear,72000.0,,,73000.0,,,,,,
KRDR,10-23-2011,03:00,METAR,,230,10.0,,,9999.0,,11.0,6.0,29.76,1008.9,,,,,,,,,,,,,,,Clear,72000.0,,,73000.0,,,,,,
KRDR,10-23-2011,02:00,METAR,,230,12.0,,,9999.0,,13.0,6.0,29.77,1009.2,,,,,,,,,,,,,,,2/8 Mostly Clear,72000.0,,FEW,12000.0,,,,,,
KRDR,10-23-2011,01:00,METAR,,200,13.0,,,9999.0,,15.0,6.0,29.77,1009.4,,,,,,,,,,,,,,,Clear,72000.0,,,73000.0,,,,,,
KRDR,10-23-2011,00:00,METAR,,200,15.0,,,9999.0,,16.0,5.0,29.79,1009.9,,,,,,,,,,,,,,,2/8 Mostly Clear,72000.0,,FEW,12000.0,,,,,,
KRDR,10-22-2011,23:00,METAR,,190,15.0,21.0,190/26KTS,9999.0,,17.0,5.0,29.80,1010.3,,,,,,,,,,,,,,,7/8 Mostly Cloudy,11000.0,,SCT,7400.0,BKN,11000.0,,,,
KRDR,10-22-2011,22:00,METAR,,190,17.0,24.0,,9999.0,,18.0,5.0,29.83,1011.1,,,,,,,,,,,,,,,Clear,72000.0,,,73000.0,,,,,,
KRDR,10-22-2011,21:00,METAR,,180,18.0,24.0,,9999.0,,17.0,5.0,29.87,1012.4,,,,,,,,,,,,,,,7/8 Mostly Cloudy,9000.0,,BKN,8900.0,,,,,,
KRDR,10-22-2011,20:00,METAR,,190,20.0,23.0,,9999.0,,18.0,4.0,29.90,1013.5,,,,,,,,,,,,,,,4/8 Partly Cloudy,72000.0,,SCT,8900.0,,,,,,
KRDR,10-22-2011,19:00,METAR,,190,15.0,,,9999.0,,16.0,5.0,29.94,1014.9,,,,,,,,,,,,,,,Clear,72000.0,,,73000.0,,,,,,
KRDR,10-22-2011,18:00,METAR,,200,12.0,,,9999.0,,15.0,4.0,29.99,1016.4,,,,,,,,,,,,,,,2/8 Mostly Clear,72000.0,,FEW,6900.0,,,,,,
KRDR,10-22-2011,17:00,METAR,,170,9.0,,,9999.0,,12.0,4.0,30.02,1017.4,,,,,,,,,,,,,,,Clear,72000.0,,,73000.0,,,,,,
KRDR,10-22-2011,16:00,METAR,,170,6.0,,,9999.0,,8.0,4.0,30.04,1018.1,,,,,,,,,,,,,,,Clear,72000.0,,,73000.0,,,,,,
KRDR,10-22-2011,15:00,METAR,,160,4.0,,,9999.0,,3.0,3.0,30.05,1018.6,,,,,,,,,,,,,,,Clear,72000.0,,,73000.0,,,,,,
KRDR,10-22-2011,14:00,METAR,,,0.0,,,9999.0,,-1.0,,30.07,1019.2,,,,,,,,,,,,,,,Clear,72000.0,,,73000.0,,,,,,
KRDR,10-22-2011,13:00,METAR,,220,5.0,,,9999.0,,-3.0,,30.07,1019.2,,,,,,,,,,,,,,,Clear,72000.0,,,73000.0,,,,,,
KRDR,10-22-2011,12:00,METAR,,230,4.0,,,9999.0,,-3.0,,30.07,1019.2,,,,,,,,,,,,,,,Clear,72000.0,,,73000.0,,,,,,
KRDR,10-22-2011,11:00,METAR,,200,4.0,,,9999.0,,-3.0,,30.07,1019.0,,,,,,,,,,,,,,,Clear,72000.0,,,73000.0,,,,,,
KRDR,10-22-2011,10:00,METAR,,,0.0,,,9999.0,,-2.0,-2.0,30.06,1019.0,,,,,,,,,,,,,,,Clear,72000.0,,,73000.0,,,,,,
KRDR,10-22-2011,09:00,METAR,,250,4.0,,,9999.0,,0.0,,30.06,1018.8,,,,,,,,,,,,,,,Clear,72000.0,,,73000.0,,,,,,
KRDR,10-22-2011,08:00,METAR,,260,4.0,,,9999.0,,0.0,-1.0,30.06,1018.9,,,,,,,,,,,,,,,Clear,72000.0,,,73000.0,,,,,,
KRDR,10-22-2011,07:00,METAR,,,0.0,,,9999.0,,-1.0,-1.0,30.06,1018.9,,,,,,,,,,,,,,,Clear,72000.0,,,73000.0,,,,,,
KRDR,10-22-2011,06:00,METAR,,280,4.0,,,9999.0,,0.0,0.0,30.06,1018.8,,,,,,,,,,,,,,,Clear,72000.0,,,73000.0,,,,,,
KRDR,10-22-2011,05:00,METAR,,240,3.0,,,9999.0,,0.0,0.0,30.06,1018.9,,,,,,,,,,,,,,,Clear,72000.0,,,73000.0,,,,,,
KRDR,10-22-2011,04:00,METAR,,260,4.0,,,9999.0,,0.0,-1.0,30.06,1018.9,,,,,,,,,,,,,,,Clear,72000.0,,,73000.0,,,,,,
KRDR,10-22-2011,03:00,METAR,,,0.0,,,9999.0,,4.0,0.0,30.05,1018.5,,,,,,,,,,,,,,,Clear,72000.0,,,73000.0,,,,,,
KRDR,10-22-2011,02:00,METAR,,310,5.0,,,9999.0,,3.0,0.0,30.04,1018.3,,,,,,,,,,,,,,,Clear,72000.0,,,73000.0,,,,,,
KRDR,10-22-2011,01:00,METAR,,300,4.0,,,9999.0,,5.0,1.0,30.03,1017.9,,,,,,,,,,,,,,,Clear,72000.0,,,73000.0,,,,,,
KRDR,10-22-2011,00:00,METAR,,330,4.0,,,9999.0,,10.0,1.0,30.02,1017.4,,,,,,,,,,,,,,,Clear,72000.0,,,73000.0,,,,,,
KRDR,10-21-2011,23:00,METAR,,350,8.0,,,9999.0,,14.0,1.0,30.00,1016.8,,,,,,,,,,,,,,,Clear,72000.0,,,73000.0,,,,,,
KRDR,10-21-2011,22:00,METAR,,340,11.0,,,9999.0,,15.0,2.0,29.99,1016.4,,,,,,,,,,,,,,,Clear,72000.0,,,73000.0,,,,,,
KRDR,10-21-2011,21:00,METAR,,350,14.0,19.0,,9999.0,,16.0,2.0,29.97,1015.9,,,,,,,,,,,,,,,Clear,72000.0,,,73000.0,,,,,,
KRDR,10-21-2011,20:00,METAR,,350,12.0,,,9999.0,,16.0,3.0,29.97,1015.7,,,,,,,,,,,,,,,Clear,72000.0,,,73000.0,,,,,,
KRDR,10-21-2011,19:00,METAR,,330,11.0,,,9999.0,,15.0,3.0,29.96,1015.5,,,,,,,,,,,,,,,Clear,72000.0,,,73000.0,,,,,,
KRDR,10-21-2011,18:00,METAR,,340,11.0,16.0,,9999.0,,14.0,3.0,29.95,1015.3,,,,,,,,,,,,,,,Clear,72000.0,,,73000.0,,,,,,
KRDR,10-21-2011,17:00,METAR,,350,9.0,,,9999.0,,11.0,2.0,29.94,1014.9,,,,,,,,,,,,,,,Clear,72000.0,,,73000.0,,,,,,
KRDR,10-21-2011,16:00,METAR,,350,8.0,,,9999.0,,9.0,2.0,29.92,1014.1,,,,,,,,,,,,,,,Clear,72000.0,,,73000.0,,,,,,
KRDR,10-21-2011,15:00,METAR,,330,6.0,,,9999.0,,6.0,2.0,29.90,1013.4,,,,,,,,,,,,,,,Clear,72000.0,,,73000.0,,,,,,
KRDR,10-21-2011,14:00,METAR,,,0.0,,,9999.0,,0.0,0.0,29.88,1012.8,,,,,,,,,,,,,,,Clear,72000.0,,,73000.0,,,,,,
KRDR,10-21-2011,13:00,METAR,,200,6.0,,,9999.0,,-1.0,-1.0,29.86,1012.3,,,,,,,,,,,,,,,Clear,72000.0,,,73000.0,,,,,,
KRDR,10-21-2011,12:00,METAR,,190,5.0,,,9999.0,,0.0,,29.85,1012.0,,,,,,,,,,,,,,,Clear,72000.0,,,73000.0,,,,,,
KRDR,10-21-2011,11:00,METAR,,220,5.0,,,9999.0,,1.0,0.0,29.85,1011.9,,,,,,,,,,,,,,,Clear,72000.0,,,73000.0,,,,,,
KRDR,10-21-2011,10:00,METAR,,190,6.0,,,9999.0,,2.0,0.0,29.85,1011.9,,,,,,,,,,,,,,,Clear,72000.0,,,73000.0,,,,,,
KRDR,10-21-2011,09:00,METAR,,190,7.0,,,9999.0,,2.0,0.0,29.86,1012.1,,,,,,,,,,,,,,,Clear,72000.0,,,73000.0,,,,,,
KRDR,10-21-2011,08:00,METAR,,200,9.0,,,9999.0,,4.0,0.0,29.86,1012.3,,,,,,,,,,,,,,,Clear,72000.0,,,73000.0,,,,,,
KRDR,10-21-2011,07:00,METAR,,190,8.0,,,9999.0,,3.0,0.0,29.87,1012.6,,,,,,,,,,,,,,,Clear,72000.0,,,73000.0,,,,,,
KRDR,10-21-2011,06:00,METAR,,180,8.0,,,9999.0,,2.0,0.0,29.88,1013.0,,,,,,,,,,,,,,,Clear,72000.0,,,73000.0,,,,,,
KRDR,10-21-2011,05:00,METAR,,180,7.0,,,9999.0,,1.0,-1.0,29.90,1013.6,,,,,,,,,,,,,,,Clear,72000.0,,,73000.0,,,,,,
KRDR,10-21-2011,04:00,METAR,,180,7.0,,,9999.0,,2.0,-1.0,29.92,1014.1,,,,,,,,,,,,,,,Clear,72000.0,,,73000.0,,,,,,
KRDR,10-21-2011,03:00,METAR,,190,7.0,,,9999.0,,2.0,-1.0,29.92,1014.3,,,,,,,,,,,,,,,Clear,72000.0,,,73000.0,,,,,,
KRDR,10-21-2011,02:00,METAR,,180,7.0,,,9999.0,,3.0,-1.0,29.93,1014.4,,,,,,,,,,,,,,,Clear,72000.0,,,73000.0,,,,,,
KRDR,10-21-2011,01:00,METAR,,190,6.0,,,9999.0,,4.0,-1.0,29.95,1015.2,,,,,,,,,,,,,,,Clear,72000.0,,,73000.0,,,,,,
KRDR,10-21-2011,00:00,METAR,,190,6.0,,,9999.0,,5.0,-1.0,29.96,1015.4,,,,,,,,,,,,,,,Clear,72000.0,,,73000.0,,,,,,
KRDR,10-20-2011,23:00,METAR,,200,6.0,,,9999.0,,8.0,0.0,29.97,1015.7,,,,,,,,,,,,,,,Clear,72000.0,,,73000.0,,,,,,
KRDR,10-20-2011,22:00,METAR,,230,5.0,,,9999.0,,10.0,0.0,29.97,1015.9,,,,,,,,,,,,,,,Clear,72000.0,,,73000.0,,,,,,
KRDR,10-20-2011,21:00,METAR,,230,4.0,,,9999.0,,10.0,0.0,29.99,1016.4,,,,,,,,,,,,,,,Clear,72000.0,,,73000.0,,,,,,
KRDR,10-20-2011,20:00,METAR,,190,5.0,,,9999.0,,10.0,0.0,30.00,1016.9,,,,,,,,,,,,,,,Clear,72000.0,,,73000.0,,,,,,
KRDR,10-20-2011,19:00,METAR,,200,5.0,,,9999.0,,9.0,0.0,30.02,1017.5,,,,,,,,,,,,,,,Clear,72000.0,,,73000.0,,,,,,
KRDR,10-20-2011,18:00,METAR,,220,7.0,,,9999.0,,8.0,0.0,30.05,1018.4,,,,,,,,,,,,,,,Clear,72000.0,,,73000.0,,,,,,
KRDR,10-20-2011,17:00,METAR,,180,4.0,,,9999.0,,6.0,1.0,30.08,1019.4,,,,,,,,,,,,,,,Clear,72000.0,,,73000.0,,,,,,
KRDR,10-20-2011,16:00,METAR,,,0.0,,,9999.0,,4.0,2.0,30.09,1019.9,,,,,,,,,,,,,,,Clear,72000.0,,,73000.0,,,,,,
KRDR,10-20-2011,15:00,METAR,,340,1.0,,,9999.0,,0.0,-5.0,30.13,1024.2,,,,,,,,,,,,,,,Clear,72000.0,,,73000.0,,,,,,
KRDR,10-20-2011,14:00,METAR,,350,1.0,,,9999.0,,-2.0,-9.0,30.13,1024.2,,,,,,,,,,,,,,,Clear,72000.0,,,73000.0,,,,,,
KRDR,10-20-2011,13:00,METAR,,,0.0,,,9999.0,Mist,-5.0,-8.0,30.13,1024.2,,,,10,,,,,,,,,,,Clear,72000.0,,,73000.0,,,,,,
KRDR,10-20-2011,12:35,SPECI,,360,1.0,,,9999.0,,-6.0,-7.0,30.14,,,,,,,,,,,,,,,,Clear,72000.0,,,73000.0,,,,,,
KRDR,10-20-2011,12:00,METAR,,,,,,,,,,,,,,,,,,,,,,,,,,Clear,72000.0,,,73000.0,,,,,,
KRDR,10-20-2011,11:00,METAR,,,,,,,,,,,,,,,,,,,,,,,,,,Clear,72000.0,,,73000.0,,,,,,
KRDR,10-20-2011,10:00,METAR,,,,,,,,,,,,,,,,,,,,,,,,,,Clear,72000.0,,,73000.0,,,,,,
KRDR,10-20-2011,09:00,METAR,,,,,,,,,,,,,,,,,,,,,,,,,,Clear,72000.0,,,73000.0,,,,,,
KRDR,10-20-2011,08:00,METAR,,,,,,,,,,,,,,,,,,,,,,,,,,Clear,72000.0,,,73000.0,,,,,,
KRDR,10-20-2011,07:00,METAR,,,,,,,,,,,,,,,,,,,,,,,,,,Clear,72000.0,,,73000.0,,,,,,
KRDR,10-20-2011,06:00,METAR,,,0.0,,,9999.0,,-5.0,-6.0,30.16,1022.1,,,,,,,,,,,,,,,Clear,72000.0,,,73000.0,,,,,,
KRDR,10-20-2011,05:00,METAR,,,0.0,,,9999.0,,-5.0,-5.0,30.17,1022.4,,,,,,,,,,,,,,,Clear,72000.0,,,73000.0,,,,,,
KRDR,10-20-2011,04:00,METAR,,,0.0,,,9999.0,,-4.0,-4.0,30.17,1022.4,,,,,,,,,,,,,,,Clear,72000.0,,,73000.0,,,,,,
KRDR,10-20-2011,03:00,METAR,,,0.0,,,9999.0,,-2.0,-2.0,30.17,1022.6,,,,,,,,,,,,,,,Clear,72000.0,,,73000.0,,,,,,
KRDR,10-20-2011,02:00,METAR,,40,4.0,,,9999.0,,-2.0,-2.0,30.17,1022.6,,,,,,,,,,,,,,,Clear,72000.0,,,73000.0,,,,,,
KRDR,10-20-2011,01:00,METAR,,30,4.0,,,9999.0,,0.0,-2.0,30.18,1022.8,,,,,,,,,,,,,,,Clear,72000.0,,,73000.0,,,,,,
KRDR,10-20-2011,00:00,METAR,,20,6.0,,,9999.0,,1.0,-2.0,30.19,1023.2,,,,,,,,,,,,,TRACE,,Clear,72000.0,,,73000.0,,,,,,
KRDR,10-19-2011,23:00,METAR,,20,5.0,,,9999.0,,5.0,-2.0,30.19,1023.2,,,,,,,,,,,TRACE,,,,Clear,72000.0,,,73000.0,,,,,,
KRDR,10-19-2011,22:19,SPECI,,40,6.0,,,9999.0,,6.0,-2.0,30.19,1023.2,,,,,,,,,,,,,,,Clear,72000.0,,,73000.0,,,,,,
KRDR,10-19-2011,22:07,SPECI,,30,6.0,,,9999.0,Unknown Precipitation,6.0,-2.0,30.19,1023.2,40,,,,,,,,,,,,,,Clear,72000.0,,,73000.0,,,,,,
KRDR,10-19-2011,22:00,METAR,,40,5.0,,,9999.0,,6.0,-2.0,30.20,1023.3,,,,,,,,,,,,,,,Clear,72000.0,,,73000.0,,,,,,
KRDR,10-19-2011,21:00,METAR,,50,8.0,,,9999.0,,7.0,-1.0,30.20,1023.5,,,,,,,,,,,,,,,4/8 Partly Cloudy,72000.0,,SCT,3400.0,,,,,,
KRDR,10-19-2011,20:00,METAR,,30,7.0,,,9999.0,,7.0,-2.0,30.22,1024.1,,,,,,,,,,,,,,,Clear,72000.0,,,73000.0,,,,,,
KRDR,10-19-2011,19:00,METAR,,40,8.0,,,9999.0,,6.0,-2.0,30.24,1024.8,,,,,,,,,,,,,,,2/8 Mostly Clear,72000.0,,FEW,2900.0,,,,,,
KRDR,10-19-2011,18:00,METAR,,10,7.0,,,9999.0,,5.0,-2.0,30.26,1025.3,,,,,,,,,,,,,.14 IN,,Clear,72000.0,,,73000.0,,,,,,
KRDR,10-19-2011,17:00,METAR,,40,8.0,,,9999.0,,4.0,-2.0,30.27,1025.7,,,,,,,,,,,,,,,Clear,72000.0,,,73000.0,,,,,,
KRDR,10-19-2011,16:00,METAR,,10,8.0,,,9999.0,,2.0,-2.0,30.26,1028.7,,,,,,,,,,,,,,,Clear,72000.0,,,73000.0,,,,,,
KRDR,10-19-2011,15:28,SPECI,,10,8.0,,,9999.0,,2.0,-1.0,30.26,,,,,,,,,,,,,,,,Clear,72000.0,,,73000.0,,,,,,
KRDR,10-19-2011,15:25,SPECI,,10,8.0,,,400.0,Haze Smoke or Dust,2.0,-1.0,30.27,1025.8,5,,,,,,,,,,,,,,,72000.0,,,,,,,,,
KRDR,10-19-2011,15:24,SPECI,,,6.0,,,,,2.0,-1.0,30.27,1025.9,,,,,,,,,,,,,,,,72000.0,,,,,,,,,
KRDR,10-19-2011,15:00,METAR,,10,8.0,,,9999.0,,0.0,-1.0,30.26,1028.7,,,,,,,,,,,,,,,Clear,72000.0,,,73000.0,,,,,,
KRDR,10-19-2011,14:05,SPECI,,350,2.0,,,9999.0,,-3.0,-7.0,30.30,,,,,,,,,,,,,,,,Clear,72000.0,,,73000.0,,,,,,
KRDR,10-19-2011,14:00,METAR,,,,,,,,-3.0,-3.0,,,,,,,,,,,,,,,,,Clear,72000.0,,,73000.0,,,,,,
KRDR,10-19-2011,13:00,METAR,,330,5.0,,,9999.0,,-4.0,-5.0,30.26,1025.4,,,,,,,,,,,,,,,Clear,72000.0,,,73000.0,,,,,,
KRDR,10-19-2011,12:00,METAR,,340,6.0,,,9999.0,,-3.0,-4.0,30.25,1025.1,,,,,,,,,,,,,,,Clear,72000.0,,,73000.0,,,,,,
KRDR,10-19-2011,11:00,METAR,,340,4.0,,,9999.0,,-5.0,-5.0,30.24,1024.8,,,,,,,,,,,,,,,Clear,72000.0,,,73000.0,,,,,,
KRDR,10-19-2011,10:00,METAR,,330,6.0,,,9999.0,,-4.0,-4.0,30.23,1024.5,,,,,,,,,,,,,,,Clear,72000.0,,,73000.0,,,,,,
KRDR,10-19-2011,09:00,METAR,,340,5.0,,,9999.0,,-3.0,-4.0,30.23,1024.4,,,,,,,,,,,,,,,Clear,72000.0,,,73000.0,,,,,,
KRDR,10-19-2011,08:00,METAR,,360,6.0,,,9999.0,,-2.0,-4.0,30.22,1024.2,,,,,,,,,,,,,,,Clear,72000.0,,,73000.0,,,,,,
KRDR,10-19-2011,07:00,METAR,,340,8.0,,,9999.0,,0.0,-4.0,30.22,1024.0,,,,,,,,,,,,,,,8/8 Overcast,4500.0,,OVC,4600.0,,,,,,
KRDR,10-19-2011,06:00,METAR,,350,8.0,,,9999.0,,0.0,-4.0,30.21,1023.8,,,,,,,,,,,,,,,8/8 Overcast,4400.0,,OVC,4500.0,,,,,,
KRDR,10-19-2011,05:00,METAR,,340,8.0,,,9999.0,,-2.0,-4.0,30.21,1023.8,,,,,,,,,,,,,,,7/8 Mostly Cloudy,4500.0,,BKN,4600.0,,,,,,
KRDR,10-19-2011,04:00,METAR,,360,7.0,,,9999.0,,-1.0,-5.0,30.21,1023.9,,,,,,,,,,,,,,,Clear,72000.0,,,73000.0,,,,,,
KRDR,10-19-2011,03:00,METAR,,360,9.0,,,9999.0,,0.0,-5.0,30.21,1023.6,,,,,,,,,,,,,,,Clear,72000.0,,,73000.0,,,,,,
KRDR,10-19-2011,02:00,METAR,,10,8.0,,,9999.0,,0.0,-6.0,30.19,1023.2,,,,,,,,,,,,,,,Clear,72000.0,,,73000.0,,,,,,
KRDR,10-19-2011,01:00,METAR,,20,8.0,,,9999.0,,1.0,-6.0,30.18,1022.9,,,,,,,,,,,,,,,Clear,72000.0,,,73000.0,,,,,,
KRDR,10-19-2011,00:00,METAR,,20,8.0,,,9999.0,,3.0,-6.0,30.16,1022.2,,,,,,,,,,,,,,,Clear,72000.0,,,73000.0,,,,,,
KRDR,10-18-2011,23:00,METAR,,20,13.0,,,9999.0,,6.0,-7.0,30.15,1021.8,,,,,,,,,,,,,,,Clear,72000.0,,,73000.0,,,,,,
KRDR,10-18-2011,22:00,METAR,,10,14.0,,,9999.0,,8.0,-7.0,30.13,1021.3,,,,,,,,,,,,,,,Clear,72000.0,,,73000.0,,,,,,
KRDR,10-18-2011,21:00,METAR,,10,12.0,,,9999.0,,8.0,-7.0,30.14,1021.3,,,,,,,,,,,,,,,Clear,72000.0,,,73000.0,,,,,,
KRDR,10-18-2011,20:00,METAR,,360,14.0,20.0,,9999.0,,8.0,-6.0,30.14,1021.3,,,,,,,,,,,,,,,Clear,72000.0,,,73000.0,,,,,,
KRDR,10-18-2011,19:00,METAR,,360,12.0,,,9999.0,,8.0,-5.0,30.14,1021.5,,,,,,,,,,,,,,,Clear,72000.0,,,73000.0,,,,,,
KRDR,10-18-2011,18:00,METAR,,350,16.0,,,9999.0,,7.0,-5.0,30.16,1022.1,,,,,,,,,,,,,,,Clear,72000.0,,,73000.0,,,,,,
KRDR,10-18-2011,17:00,METAR,,360,17.0,22.0,,9999.0,,7.0,-4.0,30.17,1022.4,,,,,,,,,,,,,,,Clear,72000.0,,,73000.0,,,,,,
KRDR,10-18-2011,16:00,METAR,,350,14.0,,,9999.0,,5.0,-4.0,30.16,1022.2,,,,,,,,,,,,,,,Clear,72000.0,,,73000.0,,,,,,
KRDR,10-18-2011,15:00,METAR,,340,12.0,19.0,,9999.0,,3.0,-4.0,30.15,1021.8,,,,,,,,,,,,,,,Clear,72000.0,,,73000.0,,,,,,
KRDR,10-18-2011,14:00,METAR,,330,9.0,,,9999.0,,0.0,-4.0,30.13,1021.3,,,,,,,,,,,,,,,Clear,72000.0,,,73000.0,,,,,,
KRDR,10-18-2011,13:00,METAR,,330,9.0,,,9999.0,,-1.0,-4.0,30.12,1020.6,,,,,,,,,,,,,,,Clear,72000.0,,,73000.0,,,,,,
KRDR,10-18-2011,12:00,METAR,,330,9.0,,,9999.0,,-1.0,-4.0,30.11,1020.3,,,,,,,,,,,,,,,Clear,72000.0,,,73000.0,,,,,,
KRDR,10-18-2011,11:00,METAR,,320,9.0,,,9999.0,,-1.0,-3.0,30.09,1019.7,,,,,,,,,,,,,,,Clear,72000.0,,,73000.0,,,,,,
KRDR,10-18-2011,10:00,METAR,,320,7.0,,,9999.0,,0.0,-3.0,30.08,1019.3,,,,,,,,,,,,,,,Clear,72000.0,,,73000.0,,,,,,
KRDR,10-18-2011,09:00,METAR,,330,8.0,,,9999.0,,2.0,-1.0,30.06,1018.9,,,,,,,,,,,,,,,Clear,72000.0,,,73000.0,,,,,,
KRDR,10-18-2011,08:00,METAR,,340,9.0,,,9999.0,,4.0,0.0,30.05,1018.4,,,,,,,,,,,,,,,8/8 Overcast,3400.0,,OVC,3500.0,,,,,,
KRDR,10-18-2011,07:00,METAR,,350,9.0,,,9999.0,,4.0,0.0,30.04,1018.1,,,,,,,,,,,,,,,8/8 Overcast,4000.0,,OVC,4100.0,,,,,,
KRDR,10-18-2011,06:00,METAR,,360,14.0,,,9999.0,,5.0,0.0,30.03,1017.8,,,,,,,,,,,,,,,8/8 Overcast,4000.0,,SCT,2600.0,SCT,4200.0,OVC,5900.0,,
KRDR,10-18-2011,05:47,SPECI,,10,11.0,,,9999.0,,5.0,0.0,30.03,1017.8,,,,,,,,,,,,,,,8/8 Overcast,6000.0,,SCT,2500.0,OVC,5900.0,,,,
KRDR,10-18-2011,05:00,METAR,,340,9.0,,,9999.0,,4.0,-1.0,30.01,1017.2,,,,,,,,,,,,,,,8/8 Overcast,2700.0,,BKN,2700.0,OVC,5000.0,,,,
KRDR,10-18-2011,04:41,SPECI,,340,9.0,,,9999.0,,4.0,-1.0,30.01,1017.2,,,,,,,,,,,,,,,8/8 Overcast,2800.0,,BKN,2800.0,OVC,5000.0,,,,
KRDR,10-18-2011,04:00,METAR,,360,9.0,,,9999.0,,4.0,-1.0,30.01,1017.1,,,,,,,,,,,,,,,8/8 Overcast,4400.0,,OVC,4500.0,,,,,,
KRDR,10-18-2011,03:00,METAR,,350,10.0,,,9999.0,,4.0,0.0,30.00,1016.8,,,,,,,,,,,,,,,8/8 Overcast,4500.0,,OVC,4600.0,,,,,,
KRDR,10-18-2011,02:00,METAR,,20,7.0,,,9999.0,,2.0,0.0,29.98,1016.3,,,,,,,,,,,,,,,Clear,72000.0,,,73000.0,,,,,,
KRDR,10-18-2011,01:00,METAR,,10,7.0,,,9999.0,,2.0,-1.0,29.96,1015.6,,,,,,,,,,,,,,,Clear,72000.0,,,73000.0,,,,,,
KRDR,10-18-2011,00:00,METAR,,30,10.0,,,9999.0,,6.0,-1.0,29.94,1014.9,,,,,,,,,,,,,,,Clear,72000.0,,,73000.0,,,,,,
KRDR,10-17-2011,23:00,METAR,,30,11.0,,,9999.0,,9.0,-1.0,29.91,1014.0,,,,,,,,,,,,,,,Clear,72000.0,,,73000.0,,,,,,
KRDR,10-17-2011,22:00,METAR,,10,14.0,22.0,350/26KTS,9999.0,,12.0,-3.0,29.89,1013.1,,,,,,,,,,,,,,,Clear,72000.0,,,73000.0,,,,,,
KRDR,10-17-2011,21:00,METAR,,340,19.0,27.0,320/27KTS,9999.0,,13.0,-6.0,29.87,1012.4,,,,,,,,,,,,,,,Clear,72000.0,,,73000.0,,,,,,
KRDR,10-17-2011,20:00,METAR,,340,13.0,24.0,,9999.0,,13.0,-7.0,29.87,1012.5,,,,,,,,,,,,,,,Clear,72000.0,,,73000.0,,,,,,
KRDR,10-17-2011,19:00,METAR,,320,16.0,23.0,340/26KTS,9999.0,,13.0,-6.0,29.87,1012.5,,,,,,,,,,,,,,,Clear,72000.0,,,73000.0,,,,,,
KRDR,10-17-2011,18:00,METAR,,350,19.0,27.0,340/28KTS,9999.0,,12.0,-6.0,29.88,1012.9,,,,,,,,,,,,,,,Clear,72000.0,,,73000.0,,,,,,
KRDR,10-17-2011,17:00,METAR,,330,18.0,24.0,330/27KTS,9999.0,,10.0,-5.0,29.88,1013.0,,,,,,,,,,,,,,,Clear,72000.0,,,73000.0,,,,,,
KRDR,10-17-2011,16:00,METAR,,330,17.0,27.0,340/27KTS,9999.0,,9.0,-2.0,29.88,1012.8,,,,,,,,,,,,,,,Clear,72000.0,,,73000.0,,,,,,
KRDR,10-17-2011,15:00,METAR,,330,14.0,20.0,,9999.0,,7.0,-1.0,29.87,1012.6,,,,,,,,,,,,,,,Clear,72000.0,,,73000.0,,,,,,
KRDR,10-17-2011,14:00,METAR,,310,13.0,,,9999.0,,5.0,-2.0,29.87,1012.5,,,,,,,,,,,,,,,Clear,72000.0,,,73000.0,,,,,,
KRDR,10-17-2011,13:00,METAR,,310,13.0,,,9999.0,,3.0,-2.0,29.86,1012.3,,,,,,,,,,,,,,,Clear,72000.0,,,73000.0,,,,,,
KRDR,10-17-2011,12:00,METAR,,310,13.0,,,9999.0,,3.0,-2.0,29.85,1012.0,,,,,,,,,,,,,,,Clear,72000.0,,,73000.0,,,,,,
KRDR,10-17-2011,11:00,METAR,,310,12.0,,,9999.0,,4.0,-2.0,29.84,1011.7,,,,,,,,,,,,,,,Clear,72000.0,,,73000.0,,,,,,
KRDR,10-17-2011,10:00,METAR,,310,10.0,,,9999.0,,5.0,-1.0,29.84,1011.6,,,,,,,,,,,,,,,Clear,72000.0,,,73000.0,,,,,,
KRDR,10-17-2011,09:00,METAR,,310,12.0,,,9999.0,,5.0,-1.0,29.84,1011.5,,,,,,,,,,,,,,,Clear,72000.0,,,73000.0,,,,,,
KRDR,10-17-2011,08:00,METAR,,310,12.0,,,9999.0,,5.0,0.0,29.85,1012.0,,,,,,,,,,,,,,,Clear,72000.0,,,73000.0,,,,,,
KRDR,10-17-2011,07:00,METAR,,300,11.0,,,9999.0,,6.0,-1.0,29.84,1011.7,,,,,,,,,,,,,,,Clear,72000.0,,,73000.0,,,,,,
KRDR,10-17-2011,06:00,METAR,,310,12.0,,,9999.0,,6.0,-1.0,29.85,1011.9,,,,,,,,,,,,,,,Clear,72000.0,,,73000.0,,,,,,
KRDR,10-17-2011,05:00,METAR,,310,13.0,17.0,,9999.0,,6.0,-1.0,29.85,1011.9,,,,,,,,,,,,,,,Clear,72000.0,,,73000.0,,,,,,
KRDR,10-17-2011,04:00,METAR,,310,10.0,17.0,,9999.0,,6.0,-1.0,29.85,1011.8,,,,,,,,,,,,,,,Clear,72000.0,,,73000.0,,,,,,
KRDR,10-17-2011,03:00,METAR,,310,8.0,,,9999.0,,6.0,-1.0,29.85,1012.0,,,,,,,,,,,,,,,Clear,72000.0,,,73000.0,,,,,,
KRDR,10-17-2011,02:00,METAR,,320,11.0,,,9999.0,,8.0,-1.0,29.85,1011.8,,,,,,,,,,,,,,,Clear,72000.0,,,73000.0,,,,,,
KRDR,10-17-2011,01:00,METAR,,310,11.0,,,9999.0,,8.0,-2.0,29.84,1011.7,,,,,,,,,,,,,,,Clear,72000.0,,,73000.0,,,,,,
KRDR,10-17-2011,00:00,METAR,,320,15.0,26.0,310/30KTS,9999.0,,10.0,-2.0,29.83,1011.2,,,,,,,,,,,,,,,Clear,72000.0,,,73000.0,,,,,,
KRDR,10-16-2011,23:00,METAR,,310,15.0,26.0,310/31KTS,9999.0,,11.0,-2.0,29.82,1011.0,,,,,,,,,,,,,,,2/8 Mostly Clear,72000.0,,FEW,5900.0,,,,,,
KRDR,10-16-2011,22:00,METAR,,310,23.0,30.0,320/32KTS,9999.0,,12.0,-2.0,29.82,1010.9,,,,,,,,,,,,,,,Clear,72000.0,,,73000.0,,,,,,
KRDR,10-16-2011,21:00,METAR,,310,20.0,29.0,310/34KTS,9999.0,,12.0,-1.0,29.82,1011.0,,,,,,,,,,,,,,,2/8 Mostly Clear,72000.0,,FEW,5000.0,,,,,,
KRDR,10-16-2011,20:00,METAR,,300,21.0,32.0,290/34KTS,9999.0,,11.0,0.0,29.84,1011.4,,,,,,,,,,,,,,,2/8 Mostly Clear,72000.0,,FEW,5000.0,,,,,,
KRDR,10-16-2011,19:00,METAR,,300,17.0,31.0,310/31KTS,9999.0,,11.0,0.0,29.85,1011.9,,,,,,,,,,,,,,,2/8 Mostly Clear,72000.0,,FEW,4900.0,,,,,,
KRDR,10-16-2011,18:00,METAR,,330,23.0,31.0,330/31KTS,9999.0,,10.0,-2.0,29.87,1012.5,,,,,,,,,,,,,,,Clear,72000.0,,,73000.0,,,,,,
KRDR,10-16-2011,17:00,METAR,,330,18.0,25.0,320/30KTS,9999.0,,8.0,-2.0,29.89,1013.1,,,,,,,,,,,,,,,Clear,72000.0,,,73000.0,,,,,,
KRDR,10-16-2011,16:00,METAR,,320,21.0,29.0,320/31KTS,9999.0,,7.0,-1.0,29.89,1013.2,,,,,,,,,,,,,,,Clear,72000.0,,,73000.0,,,,,,
KRDR,10-16-2011,15:00,METAR,,320,19.0,27.0,330/27KTS,9999.0,,6.0,0.0,29.88,1012.9,,,,,,,,,,,,,,,Clear,72000.0,,,73000.0,,,,,,
KRDR,10-16-2011,14:00,METAR,,310,15.0,19.0,,9999.0,,4.0,0.0,29.87,1012.6,,,,,,,,,,,,,,,Clear,72000.0,,,73000.0,,,,,,
KRDR,10-16-2011,13:00,METAR,,320,14.0,,,9999.0,,4.0,1.0,29.85,1012.0,,,,,,,,,,,,,,,Clear,72000.0,,,73000.0,,,,,,
KRDR,10-16-2011,12:00,METAR,,310,12.0,,,9999.0,,4.0,2.0,29.84,1011.6,,,,,,,,,,,,,,,Clear,72000.0,,,73000.0,,,,,,
KRDR,10-16-2011,11:00,METAR,,310,13.0,19.0,,9999.0,,5.0,3.0,29.83,1011.1,,,,,,,,,,,,,,,Clear,72000.0,,,73000.0,,,,,,
KRDR,10-16-2011,10:00,METAR,,300,9.0,,,9999.0,,5.0,3.0,29.82,1010.9,,,,,,,,,,,,,,,Clear,72000.0,,,73000.0,,,,,,
KRDR,10-16-2011,09:00,METAR,,290,9.0,,,9999.0,,6.0,3.0,29.81,1010.4,,,,,,,,,,,,,,,Clear,72000.0,,,73000.0,,,,,,
KRDR,10-16-2011,08:00,METAR,,300,10.0,,,9999.0,,6.0,3.0,29.81,1010.5,,,,,,,,,,,,,,,Clear,72000.0,,,73000.0,,,,,,
KRDR,10-16-2011,07:00,METAR,,280,10.0,,,9999.0,,7.0,3.0,29.80,1010.1,,,,,,,,,,,,,,,Clear,72000.0,,,73000.0,,,,,,
KRDR,10-16-2011,06:00,METAR,,300,9.0,,,9999.0,,7.0,3.0,29.80,1010.3,,,,,,,,,,,,,TRACE,,4/8 Partly Cloudy,72000.0,,SCT,12000.0,,,,,,
KRDR,10-16-2011,05:00,METAR,,290,10.0,,,9999.0,,9.0,3.0,29.80,1010.2,,,,,,,,,,,TRACE,,,,2/8 Mostly Clear,72000.0,,FEW,5900.0,,,,,,
KRDR,10-16-2011,04:08,SPECI,,300,11.0,,,9999.0,,8.0,4.0,29.81,1010.6,,,,,,,,,,,,,,,7/8 Mostly Cloudy,6000.0,,FEW,4100.0,BKN,5900.0,BKN,7900.0,,
KRDR,10-16-2011,04:00,METAR,,300,11.0,,,9999.0,,8.0,3.0,29.81,1010.6,,,,,,,,,,,,,,,7/8 Mostly Cloudy,7500.0,,BKN,7400.0,BKN,9400.0,,,,
KRDR,10-16-2011,03:53,SPECI,,300,11.0,,,9999.0,,8.0,3.0,29.81,1010.5,,,,,,,,,,,,,,,7/8 Mostly Cloudy,7500.0,,BKN,7400.0,BKN,9400.0,,,,
KRDR,10-16-2011,03:43,SPECI,,300,9.0,,,9999.0,,8.0,3.0,29.81,1010.5,,,,,,,,,,,,,,,7/8 Mostly Cloudy,8000.0,,FEW,5900.0,BKN,7900.0,BKN,9900.0,,
KRDR,10-16-2011,03:00,METAR,,290,12.0,,,9999.0,,8.0,3.0,29.81,1010.5,,,,,,,,,,,,,,,Clear,72000.0,,,73000.0,,,,,,
KRDR,10-16-2011,02:00,METAR,,280,8.0,,,9999.0,,7.0,3.0,29.80,1010.1,,,,,,,,,,,,,,,2/8 Mostly Clear,72000.0,,FEW,8900.0,,,,,,
KRDR,10-16-2011,01:00,METAR,,280,7.0,,,9999.0,,9.0,2.0,29.80,1010.2,,,,,,,,,,,,,,,8/8 Overcast,6500.0,,BKN,6400.0,OVC,7900.0,,,,
KRDR,10-16-2011,00:00,METAR,,280,7.0,,,9999.0,,10.0,2.0,29.80,1010.1,,,,,,,,,,,,,,,4/8 Partly Cloudy,72000.0,,SCT,5900.0,,,,,,
KRDR,10-15-2011,23:00,METAR,,300,10.0,,,9999.0,,12.0,2.0,29.79,1009.9,,,,,,,,,,,,,,,7/8 Mostly Cloudy,6000.0,,BKN,5900.0,,,,,,
KRDR,10-15-2011,22:00,METAR,,310,11.0,,,9999.0,,13.0,0.0,29.79,1009.9,,,,,,,,,,,,,,,2/8 Mostly Clear,72000.0,,FEW,5000.0,,,,,,
KRDR,10-15-2011,21:00,METAR,,300,10.0,,,9999.0,,13.0,0.0,29.80,1010.2,,,,,,,,,,,,,,,2/8 Mostly Clear,72000.0,,FEW,5000.0,,,,,,
KRDR,10-15-2011,20:00,METAR,,320,14.0,,,9999.0,,12.0,1.0,29.81,1010.5,,,,,,,,,,,,,,,2/8 Mostly Clear,72000.0,,FEW,4900.0,,,,,,
KRDR,10-15-2011,19:00,METAR,,300,17.0,21.0,,9999.0,,12.0,1.0,29.81,1010.6,,,,,,,,,,,,,,,2/8 Mostly Clear,72000.0,,FEW,4700.0,,,,,,
KRDR,10-15-2011,18:00,METAR,,310,16.0,23.0,,9999.0,,12.0,1.0,29.83,1011.3,,,,,,,,,,,,,,,4/8 Partly Cloudy,72000.0,,SCT,4600.0,,,,,,
KRDR,10-15-2011,17:00,METAR,,320,13.0,20.0,,9999.0,,11.0,1.0,29.84,1011.6,,,,,,,,,,,,,,,Clear,72000.0,,,73000.0,,,,,,
KRDR,10-15-2011,16:00,METAR,,320,10.0,,,9999.0,,9.0,2.0,29.85,1011.9,,,,,,,,,,,,,,,Clear,72000.0,,,73000.0,,,,,,
KRDR,10-15-2011,15:00,METAR,,320,11.0,,,9999.0,,8.0,3.0,29.86,1012.1,,,,,,,,,,,,,,,Clear,72000.0,,,73000.0,,,,,,
KRDR,10-15-2011,14:00,METAR,,300,10.0,,,9999.0,,5.0,5.0,29.86,1012.1,,,,,,,,,,,,,,,Clear,72000.0,,,73000.0,,,,,,
KRDR,10-15-2011,13:00,METAR,,300,8.0,,,9999.0,,3.0,3.0,29.85,1012.0,,,,,,,,,,,,,,,Clear,72000.0,,,73000.0,,,,,,
KRDR,10-15-2011,12:00,METAR,,300,9.0,,,9999.0,,4.0,4.0,29.85,1012.0,,,,,,,,,,,,,,,Clear,72000.0,,,73000.0,,,,,,
KRDR,10-15-2011,10:00,METAR,,300,9.0,,,9999.0,,5.0,5.0,29.85,1011.7,,,,,,,,,,,,,,,Clear,72000.0,,,73000.0,,,,,,
KRDR,10-15-2011,09:00,METAR,,310,10.0,,,9999.0,,5.0,5.0,29.84,1011.6,,,,,,,,,,,,,,,Clear,72000.0,,,73000.0,,,,,,
KRDR,10-15-2011,08:00,METAR,,320,8.0,,,9999.0,,6.0,5.0,29.84,1011.6,,,,,,,,,,,,,,,Clear,72000.0,,,73000.0,,,,,,
KRDR,10-15-2011,07:00,METAR,,310,8.0,,,9999.0,,6.0,5.0,29.84,1011.6,,,,,,,,,,,,,,,Clear,72000.0,,,73000.0,,,,,,
KRDR,10-15-2011,06:00,METAR,,310,8.0,,,9999.0,,6.0,6.0,29.84,1011.5,,,,,,,,,,,,,,,Clear,72000.0,,,73000.0,,,,,,
KRDR,10-15-2011,05:00,METAR,,300,8.0,,,9999.0,,7.0,5.0,29.84,1011.5,,,,,,,,,,,,,,,Clear,72000.0,,,73000.0,,,,,,
KRDR,10-15-2011,04:00,METAR,,310,10.0,,,9999.0,,8.0,5.0,29.83,1011.3,,,,,,,,,,,,,,,Clear,72000.0,,,73000.0,,,,,,
KRDR,10-15-2011,03:00,METAR,,310,10.0,15.0,,9999.0,,8.0,4.0,29.84,1011.4,,,,,,,,,,,,,,,2/8 Mostly Clear,72000.0,,FEW,4600.0,,,,,,
KRDR,10-15-2011,02:00,METAR,,310,10.0,,,9999.0,,8.0,4.0,29.84,1011.5,,,,,,,,,,,,,,,2/8 Mostly Clear,72000.0,,FEW,5000.0,,,,,,
KRDR,10-15-2011,01:00,METAR,,320,8.0,,,9999.0,,9.0,4.0,29.84,1011.5,,,,,,,,,,,,,,,2/8 Mostly Clear,72000.0,,FEW,5000.0,,,,,,
KRDR,10-15-2011,00:00,METAR,,320,7.0,,,9999.0,,10.0,4.0,29.83,1011.2,,,,,,,,,,,,,,,7/8 Mostly Cloudy,6000.0,,BKN,5900.0,,,,,,
KRDR,10-14-2011,23:00,METAR,,320,15.0,20.0,,9999.0,,11.0,3.0,29.83,1011.1,,,,,,,,,,,,,,,7/8 Mostly Cloudy,4800.0,,SCT,4200.0,BKN,4900.0,BKN,5900.0,,
KRDR,10-14-2011,22:00,METAR,,340,19.0,23.0,330/26KTS,9999.0,,11.0,3.0,29.83,1011.1,,,,,,,,,,,,,,,8/8 Overcast,4900.0,,OVC,5000.0,,,,,,
KRDR,10-14-2011,21:00,METAR,,330,20.0,26.0,330/34KTS,9999.0,,12.0,2.0,29.82,1011.0,,,,,,,,,,,,,,,8/8 Overcast,4800.0,,BKN,4900.0,OVC,5400.0,,,,
KRDR,10-14-2011,20:00,METAR,,330,21.0,28.0,330/28KTS,9999.0,,12.0,2.0,29.82,1010.8,,,,,,,,,,,,,,,7/8 Mostly Cloudy,4600.0,,BKN,4700.0,,,,,,
KRDR,10-14-2011,19:00,METAR,,330,18.0,27.0,340/27KTS,9999.0,,12.0,3.0,29.82,1011.0,,,,,,,,,,,,,,,8/8 Overcast,3700.0,,BKN,3800.0,OVC,4600.0,,,,
KRDR,10-14-2011,18:06,SPECI,,330,18.0,21.0,,9999.0,,10.0,4.0,29.83,1011.2,,,,,,,,,,,,,,,8/8 Overcast,3300.0,,SCT,2800.0,BKN,3400.0,OVC,4100.0,,
KRDR,10-14-2011,18:00,METAR,,350,13.0,16.0,,9999.0,,10.0,5.0,29.83,1011.2,,,,,,,,,,,,,,,8/8 Overcast,2600.0,,BKN,2800.0,OVC,3500.0,,,,
KRDR,10-14-2011,17:20,SPECI,,360,14.0,22.0,,9999.0,,10.0,5.0,29.82,1011.0,,,,,,,,,,,,,,,8/8 Overcast,2900.0,,FEW,2000.0,BKN,2900.0,OVC,3400.0,,
KRDR,10-14-2011,17:14,SPECI,,350,15.0,21.0,,9999.0,,10.0,6.0,29.82,1010.9,,,,,,,,,,,,,,,8/8 Overcast,2700.0,,SCT,2000.0,SCT,2500.0,OVC,3300.0,,
KRDR,10-14-2011,17:00,METAR,,340,15.0,,,9999.0,,10.0,7.0,29.81,1010.6,,,,,,,,,,,,,,,8/8 Overcast,1700.0,,BKN,1900.0,BKN,4000.0,OVC,6400.0,,
KRDR,10-14-2011,16:43,SPECI,,340,12.0,17.0,,9999.0,,10.0,8.0,29.81,1010.6,,,,,,,,,,,,,,,8/8 Overcast,1700.0,,BKN,1700.0,BKN,3900.0,OVC,5900.0,,
KRDR,10-14-2011,16:00,METAR,,320,11.0,,,9999.0,,9.0,9.0,29.80,1010.2,,,,,,,,,,,,,,,8/8 Overcast,4400.0,,BKN,4500.0,OVC,5900.0,,,,
KRDR,10-14-2011,15:00,METAR,,330,8.0,,,9999.0,,8.0,,29.79,1009.8,,,,,,,,,,,,,,,8/8 Overcast,4900.0,,BKN,5000.0,OVC,6400.0,,,,
KRDR,10-14-2011,14:00,METAR,,300,6.0,,,9999.0,,5.0,,29.78,1009.7,,,,,,,,,,,,,,,7/8 Mostly Cloudy,6000.0,,BKN,5900.0,,,,,,
KRDR,10-14-2011,13:00,METAR,,300,6.0,,,9999.0,,4.0,,29.78,1009.5,,,,,,,,,,,,,,,7/8 Mostly Cloudy,4300.0,,BKN,4400.0,,,,,,
KRDR,10-14-2011,12:00,METAR,,320,7.0,,,9999.0,,3.0,,29.77,1009.1,,,,,,,,,,,,,,,Clear,72000.0,,,73000.0,,,,,,
KRDR,10-14-2011,11:00,METAR,,300,6.0,,,9999.0,,3.0,,29.77,1009.1,,,,,,,,,,,,,,,Clear,72000.0,,,73000.0,,,,,,
KRDR,10-14-2011,10:00,METAR,,310,7.0,,,9999.0,,3.0,,29.76,1008.9,,,,,,,,,,,,,,,7/8 Mostly Cloudy,12000.0,,BKN,12000.0,,,,,,
KRDR,10-14-2011,09:00,METAR,,310,6.0,,,9999.0,,3.0,,29.75,1008.7,,,,,,,,,,,,,,,Clear,72000.0,,,73000.0,,,,,,
KRDR,10-14-2011,08:00,METAR,,320,7.0,,,9999.0,,5.0,5.0,29.75,1008.8,,,,,,,,,,,,,,,7/8 Mostly Cloudy,2400.0,,BKN,2800.0,,,,,,
KRDR,10-14-2011,07:21,SPECI,,320,6.0,,,9999.0,,4.0,4.0,29.75,1008.6,,,,,,,,,,,,,,,7/8 Mostly Cloudy,2500.0,,BKN,2500.0,,,,,,
KRDR,10-14-2011,07:00,METAR,,310,6.0,,,9999.0,,3.0,,29.75,1008.5,,,,,,,,,,,,,,,7/8 Mostly Cloudy,11000.0,,BKN,11000.0,,,,,,
KRDR,10-14-2011,06:00,METAR,,320,5.0,,,9999.0,,3.0,,29.74,1008.3,,,,,,,,,,,,,,,Clear,72000.0,,,73000.0,,,,,,
KRDR,10-14-2011,05:00,METAR,,360,6.0,,,9999.0,,5.0,,29.73,1008.1,,,,,,,,,,,,,,,Clear,72000.0,,,73000.0,,,,,,
KRDR,10-14-2011,04:00,METAR,,340,5.0,,,9999.0,,5.0,,29.73,1008.0,,,,,,,,,,,,,,,4/8 Partly Cloudy,72000.0,,SCT,3500.0,SCT,4200.0,,,,
KRDR,10-14-2011,03:00,METAR,,10,5.0,,,9999.0,,6.0,,29.72,1007.5,,,,,,,,,,,,,,,2/8 Mostly Clear,72000.0,,FEW,4600.0,,,,,,
KRDR,10-14-2011,02:00,METAR,,30,5.0,,,9999.0,,8.0,8.0,29.70,1007.0,,,,,,,,,,,,,,,4/8 Partly Cloudy,72000.0,,SCT,2400.0,,,,,,
KRDR,10-14-2011,01:36,SPECI,,350,6.0,,,9999.0,,9.0,8.0,29.70,1007.0,,,,,,,,,,,,,,,7/8 Mostly Cloudy,2400.0,,BKN,2400.0,,,,,,
KRDR,10-14-2011,01:00,METAR,,350,7.0,,,9999.0,,10.0,8.0,29.69,1006.7,,,,,,,,,,,,,,,2/8 Mostly Clear,72000.0,,FEW,5900.0,,,,,,
KRDR,10-14-2011,00:00,METAR,,310,6.0,,,9999.0,,10.0,8.0,29.68,1006.2,,,,,,,,,,,,,,,7/8 Mostly Cloudy,4800.0,,BKN,4900.0,,,,,,
KRDR,10-13-2011,23:00,METAR,,310,10.0,,,9999.0,,13.0,7.0,29.67,1006.1,,,,,,,,,,,,,,,2/8 Mostly Clear,72000.0,,FEW,6900.0,,,,,,
KRDR,10-13-2011,22:00,METAR,,320,11.0,,,9999.0,,13.0,6.0,29.67,1006.0,,,,,,,,,,,,,,,2/8 Mostly Clear,72000.0,,FEW,5000.0,,,,,,
KRDR,10-13-2011,21:00,METAR,,340,9.0,,,9999.0,,14.0,6.0,29.67,1005.9,,,,,,,,,,,,,,,7/8 Mostly Cloudy,6500.0,,SCT,4400.0,BKN,6400.0,BKN,11000.0,,
KRDR,10-13-2011,20:00,METAR,,340,6.0,,,9999.0,,14.0,6.0,29.67,1006.0,,,,,,,,,,,,,,,7/8 Mostly Cloudy,6000.0,,BKN,5900.0,,,,,,
KRDR,10-13-2011,19:00,METAR,,350,11.0,,,9999.0,,14.0,6.0,29.69,1006.5,,,,,,,,,,,,,,,7/8 Mostly Cloudy,4500.0,,SCT,3900.0,BKN,4600.0,,,,
KRDR,10-13-2011,18:35,SPECI,,350,6.0,,,9999.0,,14.0,6.0,29.69,,,,,,,,,,,,,,,,4/8 Partly Cloudy,72000.0,,SCT,3800.0,,,,,,
KRDR,10-13-2011,18:00,METAR,,340,9.0,,,9999.0,,14.0,6.0,29.71,1007.3,,,,,,,,,,,,,,,Clear,72000.0,,,73000.0,,,,,,
KRDR,10-13-2011,17:00,METAR,,330,10.0,,,9999.0,,12.0,6.0,29.73,1007.9,,,,,,,,,,,,,,,Clear,72000.0,,,73000.0,,,,,,
KRDR,10-13-2011,16:00,METAR,,350,9.0,,,9999.0,,11.0,6.0,29.73,1008.0,,,,,,,,,,,,,,,Clear,72000.0,,,73000.0,,,,,,
KRDR,10-13-2011,15:00,METAR,,330,8.0,,,9999.0,,9.0,6.0,29.74,1008.4,,,,,,,,,,,,,,,Clear,72000.0,,,73000.0,,,,,,
KRDR,10-13-2011,14:00,METAR,,320,8.0,,,9999.0,,6.0,6.0,29.74,1008.2,,,,,,,,,,,,,,,Clear,72000.0,,,73000.0,,,,,,
KRDR,10-13-2011,13:00,METAR,,320,7.0,,,9999.0,,5.0,,29.74,1008.1,,,,,,,,,,,,,,,Clear,72000.0,,,73000.0,,,,,,
KRDR,10-13-2011,12:00,METAR,,300,8.0,,,9999.0,,6.0,,29.74,1008.3,,,,,,,,,,,,,,.01 IN,Clear,72000.0,,,73000.0,,,,,,
KRDR,10-13-2011,11:00,METAR,,320,8.0,,,9999.0,,7.0,,29.74,1008.1,,,,,,,,,,,,,,,Clear,72000.0,,,73000.0,,,,,,
KRDR,10-13-2011,10:00,METAR,,320,11.0,,,9999.0,,9.0,8.0,29.73,1008.0,,,,,,,,,,,,,,,8/8 Overcast,1700.0,,SCT,1600.0,OVC,3400.0,,,,
KRDR,10-13-2011,09:00,METAR,,340,9.0,,,9999.0,,10.0,9.0,29.73,1007.8,,,,,,,,,,,,,,,8/8 Overcast,1400.0,,OVC,1400.0,,,,,,
KRDR,10-13-2011,09:00,SPECI,,330,9.0,,,9999.0,,10.0,9.0,29.73,1007.8,,,,,,,,,,,,,,,8/8 Overcast,1500.0,,OVC,1500.0,,,,,,
KRDR,10-13-2011,08:00,METAR,,340,8.0,,,9999.0,,10.0,9.0,29.73,1008.0,,,,,,,,,,,,,,,8/8 Overcast,1500.0,,OVC,1500.0,,,,,,
KRDR,10-13-2011,07:00,METAR,,330,9.0,,,9999.0,,10.0,9.0,29.74,1008.1,,,,,,,,,,,,,,,8/8 Overcast,1600.0,,OVC,1600.0,,,,,,
KRDR,10-13-2011,06:07,SPECI,,320,13.0,19.0,,9999.0,,10.0,10.0,29.73,1007.9,,,,,,,,,,,,,,,8/8 Overcast,1600.0,,BKN,1600.0,OVC,3400.0,,,,
KRDR,10-13-2011,06:00,METAR,,320,11.0,,,9999.0,,10.0,,29.73,1007.8,,,,,,,,,,,,,.01 IN,,7/8 Mostly Cloudy,3200.0,,BKN,3300.0,,,,,,
KRDR,10-13-2011,05:25,SPECI,,320,13.0,,,9999.0,,10.0,10.0,29.73,1007.8,,,,,,,,,,,,,,,7/8 Mostly Cloudy,2100.0,,SCT,2100.0,BKN,3100.0,,,,
KRDR,10-13-2011,05:00,METAR,,320,9.0,,,9999.0,,11.0,,29.72,1007.6,,,,,,,,,,,,,,,7/8 Mostly Cloudy,1700.0,,BKN,2000.0,,,,,,
KRDR,10-13-2011,04:37,SPECI,,320,9.0,,,9999.0,,10.0,10.0,29.72,1007.6,,,,,,,,,,,,,,,7/8 Mostly Cloudy,2600.0,,SCT,1800.0,BKN,2600.0,,,,
KRDR,10-13-2011,04:24,SPECI,,330,9.0,,,9999.0,,10.0,10.0,29.71,1007.4,,,,,,,,,,,,,,,4/8 Partly Cloudy,72000.0,,SCT,2500.0,,,,,,
KRDR,10-13-2011,04:00,METAR,,310,7.0,,,9999.0,,11.0,11.0,29.72,1007.6,,,,,,,,,,,,,,,7/8 Mostly Cloudy,2500.0,,BKN,2500.0,,,,,,
KRDR,10-13-2011,03:00,METAR,,340,8.0,,,9999.0,,11.0,,29.71,1007.4,,,,,,,,,,,,.01 IN,,,2/8 Mostly Clear,72000.0,,FEW,7900.0,,,,,,
KRDR,10-13-2011,02:00,METAR,,340,9.0,,,9999.0,,13.0,12.0,29.71,1007.3,,,,,,,,,,,,,,,Clear,72000.0,,,73000.0,,,,,,
KRDR,10-13-2011,01:00,METAR,,310,5.0,,,9999.0,,13.0,13.0,29.69,1006.8,,,,,,,,,,,.01 IN,,,,4/8 Partly Cloudy,72000.0,,FEW,3800.0,SCT,9900.0,SCT,12000.0,,
KRDR,10-13-2011,00:43,SPECI,,300,4.0,,,9999.0,,14.0,14.0,29.69,1006.5,,,,,,,,,,,,,,,7/8 Mostly Cloudy,10000.0,,SCT,3700.0,BKN,9900.0,BKN,12000.0,,
KRDR,10-13-2011,00:24,SPECI,,360,5.0,,,9999.0,Light Rain,15.0,13.0,29.69,1006.5,61,,,,,,,,,,,,,,7/8 Mostly Cloudy,3600.0,,BKN,3700.0,BKN,4700.0,BKN,5900.0,,
KRDR,10-13-2011,00:17,SPECI,,350,5.0,,,9999.0,,15.0,13.0,29.69,1006.5,,,,,,,,,,,,,,,7/8 Mostly Cloudy,3900.0,,SCT,3900.0,BKN,4800.0,BKN,5900.0,,
KRDR,10-13-2011,00:00,METAR,,10,10.0,,,9999.0,Light Rain,16.0,11.0,29.68,1006.2,61,,,,,,,,,,,,,,8/8 Overcast,4900.0,,BKN,5000.0,OVC,7400.0,,,,
KRDR,10-12-2011,23:55,SPECI,,10,10.0,,,9999.0,Thunderstorm and Rain or Snow Showers,16.0,11.0,29.68,1006.2,92,,,,,,,,,,,,,,7/8 Mostly Cloudy,4900.0,,BKN,5000.0,BKN,7400.0,,,,
KRDR,10-12-2011,23:21,SPECI,,10,11.0,16.0,,9999.0,Dry Thunderstorm,19.0,12.0,29.65,1005.4,91,,,,,,,,,,,,,,7/8 Mostly Cloudy,4500.0,,BKN,4600.0,BKN,5900.0,,,,
KRDR,10-12-2011,23:00,METAR,,340,4.0,,,9999.0,,19.0,13.0,29.64,1005.1,,,,,,,,,,,TRACE,,,,4/8 Partly Cloudy,72000.0,,FEW,4700.0,SCT,5900.0,,,,
KRDR,10-12-2011,22:22,SPECI,,350,8.0,,,9999.0,,20.0,12.0,29.63,1004.8,,,,,,,,,,,,,,,4/8 Partly Cloudy,72000.0,,FEW,3800.0,SCT,4500.0,SCT,5000.0,,
KRDR,10-12-2011,22:10,SPECI,,310,10.0,,,9999.0,Light Rain,20.0,12.0,29.64,1004.8,61,,,,,,,,,,,,,,2/8 Mostly Clear,72000.0,,FEW,3900.0,,,,,,
KRDR,10-12-2011,22:00,METAR,,300,10.0,,,9999.0,,20.0,13.0,29.63,1004.7,,,,,,,,,,,,,,,2/8 Mostly Clear,72000.0,,FEW,3400.0,,,,,,
KRDR,10-12-2011,21:00,METAR,,320,8.0,,,9999.0,,19.0,13.0,29.63,1004.7,,,,,,,,,,,,,,,Clear,72000.0,,,73000.0,,,,,,
KRDR,10-12-2011,20:00,METAR,,290,8.0,,,9999.0,,19.0,13.0,29.63,1004.7,,,,,,,,,,,,,,,8/8 Overcast,12000.0,,OVC,12000.0,,,,,,
KRDR,10-12-2011,19:00,METAR,,350,9.0,,,9999.0,,19.0,13.0,29.63,1004.7,,,,,,,,,,,,,,,2/8 Mostly Clear,72000.0,,FEW,12000.0,,,,,,
KRDR,10-12-2011,18:00,METAR,,,6.0,,,9999.0,,18.0,13.0,29.64,1005.1,,,,,,,,,,,,,,,2/8 Mostly Clear,72000.0,,FEW,12000.0,,,,,,
KRDR,10-12-2011,17:00,METAR,,250,5.0,,,9999.0,,16.0,13.0,29.64,1005.0,,,,,,,,,,,,,,,Clear,72000.0,,,73000.0,,,,,,
KRDR,10-12-2011,16:00,METAR,,260,4.0,,,9999.0,,15.0,15.0,29.65,1005.2,,,,,,,,,,,,,,,Clear,72000.0,,,73000.0,,,,,,
KRDR,10-12-2011,15:00,METAR,,,0.0,,,9999.0,,12.0,,29.64,1004.9,,,,,,,,,,,,,,,Clear,72000.0,,,73000.0,,,,,,
KRDR,10-12-2011,14:00,METAR,,,0.0,,,9999.0,,10.0,,29.63,1004.6,,,,,,,,,,,,,,,Clear,72000.0,,,73000.0,,,,,,
KRDR,10-12-2011,13:15,SPECI,,,0.0,,,9999.0,Shallow Fog or Ice Fog,8.0,8.0,29.62,1004.4,,,,12,,,,,,,,,,,Clear,72000.0,,,73000.0,,,,,,
KRDR,10-12-2011,13:08,SPECI,,,0.0,,,800.0,Fog or Ice Fog,8.0,8.0,29.62,1004.4,,,,44,,,,,,,,,,,Clear,72000.0,,,73000.0,,,,,,
KRDR,10-12-2011,13:00,METAR,,110,3.0,,,9999.0,Shallow Fog or Ice Fog,10.0,,29.61,1003.5,,,,12,,,,,,,,,,,Clear,72000.0,,,73000.0,,,,,,
KRDR,10-12-2011,12:36,SPECI,,,0.0,,,9999.0,Shallow Fog or Ice Fog,10.0,10.0,29.62,1004.4,,,,12,,,,,,,,,,,Clear,72000.0,,,73000.0,,,,,,
KRDR,10-12-2011,12:33,SPECI,,,0.0,,,2000.0,Mist,10.0,10.0,29.62,1004.4,10,,,,,,,,,,,,,,Clear,72000.0,,,73000.0,,,,,,
KRDR,10-12-2011,12:31,SPECI,,,0.0,,,1600.0,Mist,10.0,10.0,29.62,1004.4,10,,,,,,,,,,,,,,Clear,72000.0,,,73000.0,,,,,,
KRDR,10-12-2011,12:25,SPECI,,,0.0,,,1200.0,Mist,10.0,10.0,29.62,1004.4,10,,,,,,,,,,,,,,Clear,72000.0,,,73000.0,,,,,,
KRDR,10-12-2011,12:23,SPECI,,100,3.0,,,1600.0,Mist,10.0,10.0,29.62,1004.4,10,,,,,,,,,,,,,,Clear,72000.0,,,73000.0,,,,,,
KRDR,10-12-2011,12:19,SPECI,,100,3.0,,,4000.0,Mist,10.0,10.0,29.63,1004.5,10,,,,,,,,,,,,,,Clear,72000.0,,,73000.0,,,,,,
KRDR,10-12-2011,12:10,SPECI,,,0.0,,,9999.0,Mist,11.0,11.0,29.62,1004.4,10,,,,,,,,,,,,,,Clear,72000.0,,,73000.0,,,,,,
KRDR,10-12-2011,12:00,METAR,,,0.0,,,9999.0,,11.0,,29.62,1004.3,,,,,,,,,,,,,TRACE,.09 IN,Clear,72000.0,,,73000.0,,,,,,
KRDR,10-12-2011,11:00,METAR,,190,4.0,,,9999.0,,12.0,,29.63,1004.6,,,,,,,,,,,,,,,4/8 Partly Cloudy,72000.0,,SCT,12000.0,,,,,,
KRDR,10-12-2011,10:00,METAR,,160,6.0,,,9999.0,,13.0,,29.63,1004.6,,,,,,,,,,,,,,,2/8 Mostly Clear,72000.0,,FEW,8900.0,,,,,,
KRDR,10-12-2011,09:00,METAR,,160,5.0,,,9999.0,,13.0,,29.63,1004.6,,,,,,,,,,,TRACE,0 IN,,,8/8 Overcast,10000.0,,OVC,9900.0,,,,,,
KRDR,10-12-2011,08:43,SPECI,,190,4.0,,,9999.0,,13.0,13.0,29.63,1004.7,,,,,,,,,,,,,,,8/8 Overcast,11000.0,,OVC,11000.0,,,,,,
KRDR,10-12-2011,08:31,SPECI,,150,3.0,,,9999.0,Light Drizzle,13.0,13.0,29.62,1004.3,51,,,,,,,,,,,,,,8/8 Overcast,11000.0,,OVC,11000.0,,,,,,
KRDR,10-12-2011,08:00,METAR,,130,7.0,,,9999.0,,14.0,,29.61,1004.1,,,,,,,,,,,TRACE,,,,4/8 Partly Cloudy,72000.0,,SCT,9900.0,SCT,12000.0,,,,
KRDR,10-12-2011,07:25,SPECI,,120,6.0,,,9999.0,,14.0,14.0,29.63,1004.6,,,,,,,,,,,,,,,4/8 Partly Cloudy,72000.0,,FEW,5900.0,SCT,8400.0,,,,
KRDR,10-12-2011,07:04,SPECI,,120,3.0,,,9999.0,Light Drizzle,14.0,14.0,29.64,1004.8,51,,,,,,,,,,,,,,7/8 Mostly Cloudy,6000.0,,FEW,3600.0,BKN,5900.0,BKN,8900.0,,
KRDR,10-12-2011,07:00,METAR,,110,9.0,,,9999.0,Light Rain,13.0,,29.63,1004.5,61,,,,,,,,,,TRACE,,,,4/8 Partly Cloudy,72000.0,,FEW,3700.0,SCT,5900.0,SCT,8900.0,,
KRDR,10-12-2011,07:00,SPECI,,120,7.0,,,9999.0,,14.0,14.0,29.63,1004.8,,,,,,,,,,,,,,,7/8 Mostly Cloudy,8500.0,,FEW,3900.0,SCT,5900.0,BKN,8400.0,,
KRDR,10-12-2011,06:43,SPECI,,170,3.0,,,9999.0,,13.0,13.0,29.64,1004.9,,,,,,,,,,,,,,,4/8 Partly Cloudy,72000.0,,FEW,3800.0,SCT,8900.0,,,,
KRDR,10-12-2011,06:00,METAR,,310,4.0,,,9999.0,,13.0,,29.64,1004.9,,,,,,,,,,,TRACE,,.08 IN,,7/8 Mostly Cloudy,9000.0,,BKN,8900.0,,,,,,
KRDR,10-12-2011,05:00,SPECI,,180,8.0,,,9999.0,,15.0,14.0,29.65,1005.4,,,,,,,,,,,,,,,8/8 Overcast,9000.0,,SCT,5000.0,OVC,8900.0,,,,
KRDR,10-12-2011,05:00,METAR,,150,9.0,,,9999.0,Light Rain,15.0,,29.66,1005.5,61,,,,,,,,,,.05 IN,,,,8/8 Overcast,5500.0,,BKN,5400.0,OVC,8400.0,,,,
KRDR,10-12-2011,04:05,SPECI,,230,7.0,,,9999.0,,16.0,14.0,29.67,1006.1,,,,,,,,,,,,,,,7/8 Mostly Cloudy,8000.0,,BKN,7900.0,BKN,9900.0,,,,
KRDR,10-12-2011,04:00,METAR,,230,3.0,,,9999.0,,16.0,13.0,29.65,1005.5,,,,,,,,,,,.03 IN,,,,8/8 Overcast,7500.0,,FEW,5900.0,OVC,7400.0,,,,
KRDR,10-12-2011,03:47,SPECI,,,0.0,,,9999.0,,16.0,13.0,29.65,1005.4,,,,,,,,,,,,,,,8/8 Overcast,7000.0,,BKN,6900.0,OVC,7900.0,,,,
KRDR,10-12-2011,03:34,SPECI,,150,9.0,,,9999.0,Light Drizzle,16.0,14.0,29.65,1005.3,51,,,,,,,,,,,,,,8/8 Overcast,6000.0,,SCT,6900.0,BKN,7900.0,OVC,9400.0,,
KRDR,10-12-2011,03:33,SPECI,,150,10.0,,,9999.0,Thunderstorm and Rain or Snow Showers,15.0,14.0,29.65,1005.4,92,,,,,,,,,,,,,,8/8 Overcast,6000.0,,SCT,6900.0,BKN,7900.0,OVC,9900.0,,
KRDR,10-12-2011,03:27,SPECI,,140,13.0,,,9999.0,Dry Thunderstorm,15.0,15.0,29.66,1005.5,91,,,,,,,,,,,,,,8/8 Overcast,8000.0,,BKN,7900.0,OVC,9400.0,,,,
KRDR,10-12-2011,03:19,SPECI,,160,13.0,19.0,,9999.0,Thunderstorm and Rain or Snow Showers,15.0,15.0,29.65,1005.4,92,,,,,,,,,,,,,,7/8 Mostly Cloudy,7000.0,,SCT,6900.0,BKN,8900.0,BKN,11000.0,,
KRDR,10-12-2011,03:05,SPECI,,190,3.0,,,9999.0,Light Rain,15.0,14.0,29.66,1005.5,61,,,,,,,,,,,,,,4/8 Partly Cloudy,72000.0,,SCT,9900.0,SCT,12000.0,,,,
KRDR,10-12-2011,03:00,METAR,,,0.0,,,9999.0,,15.0,14.0,29.65,1005.3,,,,,,,,,,,,,,,7/8 Mostly Cloudy,10000.0,,BKN,9900.0,,,,,,
KRDR,10-12-2011,02:00,METAR,,,0.0,,,9999.0,,14.0,,29.65,1005.4,,,,,,,,,,,,,,,8/8 Overcast,11000.0,,OVC,11000.0,,,,,,
KRDR,10-12-2011,01:02,SPECI,,,0.0,,,8000.0,Mist,16.0,14.0,29.66,1005.6,10,,,,,,,,,,,,,,4/8 Partly Cloudy,72000.0,,SCT,11000.0,,,,,,
KRDR,10-12-2011,01:00,SPECI,,,0.0,,,8000.0,Mist,16.0,14.0,29.66,1005.6,10,,,,,,,,,,,,,,2/8 Mostly Clear,72000.0,,FEW,11000.0,,,,,,
KRDR,10-12-2011,01:00,METAR,,130,4.0,,,6400.0,Haze Smoke or Dust,16.0,14.0,29.66,1005.6,4,,,,,,,,,,,,,,2/8 Mostly Clear,72000.0,,FEW,11000.0,,,,,,
KRDR,10-12-2011,00:46,SPECI,,130,4.0,,,6400.0,Mist,16.0,14.0,29.66,1005.5,10,,,,,,,,,,,,,,4/8 Partly Cloudy,72000.0,,SCT,11000.0,,,,,,
KRDR,10-12-2011,00:44,SPECI,,130,4.0,,,6400.0,Mist,16.0,14.0,29.66,1005.5,10,,,,,,,,,,,,,,4/8 Partly Cloudy,72000.0,,SCT,11000.0,,,,,,
KRDR,10-12-2011,00:00,METAR,,140,6.0,,,9999.0,,16.0,14.0,29.66,1005.8,,,,,,,,,,,,,,,8/8 Overcast,11000.0,,OVC,11000.0,,,,,,
KRDR,10-11-2011,23:00,METAR,,140,4.0,,,9999.0,,17.0,13.0,29.66,1005.6,,,,,,,,,,,,,,,Clear,72000.0,,,73000.0,,,,,,
KRDR,10-11-2011,22:00,METAR,,160,11.0,,,9999.0,,20.0,12.0,29.66,1005.6,,,,,,,,,,,,,,,Clear,72000.0,,,73000.0,,,,,,
KRDR,10-11-2011,21:00,METAR,,150,9.0,,,9999.0,,21.0,11.0,29.67,1005.9,,,,,,,,,,,,,,,Clear,72000.0,,,73000.0,,,,,,
KRDR,10-11-2011,20:00,METAR,,160,10.0,,,9999.0,,21.0,11.0,29.68,1006.2,,,,,,,,,,,,,,,Clear,72000.0,,,73000.0,,,,,,
KRDR,10-11-2011,19:00,METAR,,170,11.0,,,9999.0,,20.0,11.0,29.69,1006.7,,,,,,,,,,,,,,,Clear,72000.0,,,73000.0,,,,,,
KRDR,10-11-2011,18:00,METAR,,180,8.0,,,9999.0,,18.0,10.0,29.70,1007.1,,,,,,,,,,,,,.01 IN,,Clear,72000.0,,,73000.0,,,,,,
KRDR,10-11-2011,17:00,METAR,,170,6.0,,,9999.0,,16.0,10.0,29.71,1007.3,,,,,,,,,,,,,,,Clear,72000.0,,,73000.0,,,,,,
KRDR,10-11-2011,16:00,METAR,,190,6.0,,,9999.0,,14.0,10.0,29.71,1007.4,,,,,,,,,,,,,,,Clear,72000.0,,,73000.0,,,,,,
KRDR,10-11-2011,15:00,METAR,,210,7.0,,,9999.0,,12.0,11.0,29.72,1007.6,,,,,,,,,,,,.01 IN,,,Clear,72000.0,,,73000.0,,,,,,
KRDR,10-11-2011,14:00,METAR,,200,5.0,,,9999.0,,9.0,,29.72,1007.5,,,,,,,,,,,,,,,Clear,72000.0,,,73000.0,,,,,,
KRDR,10-11-2011,13:00,METAR,,180,7.0,,,9999.0,,7.0,,29.71,1007.4,,,,,,,,,,,.01 IN,,,,Clear,72000.0,,,73000.0,,,,,,
KRDR,10-11-2011,12:00,METAR,,200,8.0,,,9999.0,,7.0,,29.70,1007.1,,,,,,,,,,,,,,.03 IN,Clear,72000.0,,,73000.0,,,,,,
KRDR,10-11-2011,11:45,SPECI,,200,6.0,,,9999.0,,7.0,7.0,29.70,1007.1,,,,,,,,,,,,,,,Clear,72000.0,,,73000.0,,,,,,
KRDR,10-11-2011,11:35,SPECI,,200,5.0,,,9999.0,,7.0,7.0,29.70,1007.0,,,,,,,,,,,,,,,Clear,72000.0,,,73000.0,,,,,,
KRDR,10-11-2011,11:18,SPECI,,190,6.0,,,9999.0,,7.0,7.0,29.70,1007.0,,,,,,,,,,,,,,,Clear,72000.0,,,73000.0,,,,,,
KRDR,10-11-2011,11:00,METAR,,180,6.0,,,9999.0,,8.0,,29.70,1006.9,,,,,,,,,,,,,,,Clear,72000.0,,,73000.0,,,,,,
KRDR,10-11-2011,10:00,METAR,,200,6.0,,,9999.0,,8.0,,29.69,1006.6,,,,,,,,,,,,,,,Clear,72000.0,,,73000.0,,,,,,
KRDR,10-11-2011,09:48,SPECI,,190,6.0,,,9999.0,,8.0,8.0,29.69,1006.6,,,,,,,,,,,,,,,Clear,72000.0,,,73000.0,,,,,,
KRDR,10-11-2011,09:02,SPECI,,180,6.0,,,9999.0,,8.0,8.0,29.69,1006.6,,,,,,,,,,,,,,,Clear,72000.0,,,73000.0,,,,,,
KRDR,10-11-2011,09:00,METAR,,180,6.0,,,9999.0,,8.0,,29.69,1006.7,,,,,,,,,,,,,,,Clear,72000.0,,,73000.0,,,,,,
KRDR,10-11-2011,08:46,SPECI,,180,6.0,,,4800.0,Mist,7.0,7.0,29.69,1006.7,10,,,,,,,,,,,,,,Clear,72000.0,,,73000.0,,,,,,
KRDR,10-11-2011,08:44,SPECI,,180,6.0,,,3200.0,Mist,7.0,7.0,29.69,1006.7,10,,,,,,,,,,,,,,Clear,72000.0,,,73000.0,,,,,,
KRDR,10-11-2011,08:42,SPECI,,180,6.0,,,2800.0,Mist,7.0,7.0,29.70,1006.8,10,,,,,,,,,,,,,,Clear,72000.0,,,73000.0,,,,,,
KRDR,10-11-2011,08:34,SPECI,,180,5.0,,,2400.0,Mist,7.0,7.0,29.70,1006.9,10,,,,,,,,,,,,,,Clear,72000.0,,,73000.0,,,,,,
KRDR,10-11-2011,08:31,SPECI,,180,6.0,,,1600.0,Mist,7.0,7.0,29.70,1006.8,10,,,,,,,,,,,,,,Clear,72000.0,,,73000.0,,,,,,
KRDR,10-11-2011,08:30,SPECI,,180,6.0,,,1200.0,Mist,7.0,7.0,29.70,1006.9,10,,,,,,,,,,,,,,Clear,72000.0,,,73000.0,,,,,,
KRDR,10-11-2011,08:28,SPECI,,180,6.0,,,1200.0,Mist,7.0,7.0,29.70,1006.9,10,,,,,,,,,,,,,,Clear,72000.0,,,73000.0,,,,,,
KRDR,10-11-2011,08:22,SPECI,,180,5.0,,,800.0,Fog,7.0,7.0,29.70,1006.9,30,,,,,,,,,,,,,,Clear,72000.0,,,73000.0,,,,,,
KRDR,10-11-2011,08:20,SPECI,,180,4.0,,,400.0,Fog,7.0,7.0,29.70,1006.9,30,,,,,,,,,,,,,,Clear,72000.0,,,73000.0,,,,,,
KRDR,10-11-2011,08:03,SPECI,,190,4.0,,,400.0,Fog,7.0,7.0,29.70,1006.9,30,,,,,,,,,,,,,,Clear,72000.0,,,73000.0,,,,,,
KRDR,10-11-2011,08:00,METAR,,180,3.0,,,800.0,Fog,8.0,8.0,29.70,1007.0,30,,,,,,,,,,,,,,Clear,72000.0,,,73000.0,,,,,,
KRDR,10-11-2011,07:47,SPECI,,190,3.0,,,800.0,Fog,8.0,8.0,29.70,1006.9,30,,,,,,,,,,,,,,Clear,72000.0,,,73000.0,,,,,,
KRDR,10-11-2011,07:42,SPECI,,200,3.0,,,400.0,Fog,8.0,8.0,29.70,1007.1,30,,,,,,,,,,,,,,Clear,72000.0,,,73000.0,,,,,,
KRDR,10-11-2011,07:35,SPECI,,190,3.0,,,800.0,Fog,9.0,9.0,29.70,1007.1,30,,,,,,,,,,,,,,Clear,72000.0,,,73000.0,,,,,,
KRDR,10-11-2011,07:32,SPECI,,190,3.0,,,1200.0,Mist,8.0,8.0,29.70,1007.1,10,,,,,,,,,,,,,,Clear,72000.0,,,73000.0,,,,,,
KRDR,10-11-2011,07:29,SPECI,,190,4.0,,,1600.0,Mist,9.0,9.0,29.70,1007.1,10,,,,,,,,,,,,,,Clear,72000.0,,,73000.0,,,,,,
KRDR,10-11-2011,07:22,SPECI,,190,4.0,,,3200.0,Mist,10.0,9.0,29.70,1007.0,10,,,,,,,,,,,,,,Clear,72000.0,,,73000.0,,,,,,
KRDR,10-11-2011,07:19,SPECI,,200,4.0,,,2800.0,Mist,10.0,10.0,29.70,1007.1,10,,,,,,,,,,,,,,Clear,72000.0,,,73000.0,,,,,,
KRDR,10-11-2011,07:17,SPECI,,200,3.0,,,2400.0,Mist,9.0,9.0,29.70,1007.1,10,,,,,,,,,,,,,,Clear,72000.0,,,73000.0,,,,,,
KRDR,10-11-2011,07:15,SPECI,,200,4.0,,,2000.0,Mist,9.0,9.0,29.70,1007.1,10,,,,,,,,,,,,,,Clear,72000.0,,,73000.0,,,,,,
KRDR,10-11-2011,07:13,SPECI,,210,4.0,,,1600.0,Mist,9.0,9.0,29.70,1007.1,10,,,,,,,,,,,,,,Clear,72000.0,,,73000.0,,,,,,
KRDR,10-11-2011,07:11,SPECI,,210,3.0,,,2000.0,Mist,9.0,9.0,29.70,1007.1,10,,,,,,,,,,,,,,Clear,72000.0,,,73000.0,,,,,,
KRDR,10-11-2011,07:08,SPECI,,200,3.0,,,2000.0,Mist,9.0,9.0,29.70,1007.0,10,,,,,,,,,,,,,,Clear,72000.0,,,73000.0,,,,,,
KRDR,10-11-2011,07:06,SPECI,,200,3.0,,,2800.0,Mist,9.0,9.0,29.70,1007.0,10,,,,,,,,,,,,,,Clear,72000.0,,,73000.0,,,,,,
KRDR,10-11-2011,07:04,SPECI,,200,3.0,,,4000.0,Mist,9.0,9.0,29.70,1007.0,10,,,,,,,,,,,,,,Clear,72000.0,,,73000.0,,,,,,
KRDR,10-11-2011,07:00,SPECI,,190,4.0,,,4000.0,Mist,9.0,9.0,29.70,1007.0,10,,,,,,,,,,,,,,Clear,72000.0,,,73000.0,,,,,,
KRDR,10-11-2011,07:00,METAR,,180,5.0,,,8000.0,Mist,9.0,,29.70,1007.0,10,,,,,,,,,,,,,,Clear,72000.0,,,73000.0,,,,,,
KRDR,10-11-2011,06:59,SPECI,,190,4.0,,,4000.0,Mist,9.0,9.0,29.70,1007.0,10,,,,,,,,,,,,,,Clear,72000.0,,,73000.0,,,,,,
KRDR,10-11-2011,06:46,SPECI,,170,5.0,,,9999.0,,9.0,9.0,29.70,1006.9,,,,,,,,,,,,,,,Clear,72000.0,,,73000.0,,,,,,
KRDR,10-11-2011,06:00,METAR,,190,6.0,,,9999.0,,10.0,,29.71,1007.2,,,,,,,,,,,,,,,Clear,72000.0,,,73000.0,,,,,,
KRDR,10-11-2011,05:00,METAR,,180,6.0,,,9999.0,,11.0,,29.73,1007.8,,,,,,,,,,,,,,,Clear,72000.0,,,73000.0,,,,,,
KRDR,10-11-2011,04:00,METAR,,200,5.0,,,9999.0,,12.0,,29.75,1008.4,,,,,,,,,,,,,,,4/8 Partly Cloudy,72000.0,,SCT,6900.0,,,,,,
KRDR,10-11-2011,03:00,METAR,,200,6.0,,,9999.0,,12.0,,29.75,1008.7,,,,,,,,,,,,,,,8/8 Overcast,7000.0,,OVC,6900.0,,,,,,
KRDR,10-11-2011,02:00,METAR,,220,7.0,,,9999.0,,13.0,12.0,29.75,1008.7,,,,,,,,,,,,,,,4/8 Partly Cloudy,72000.0,,SCT,5900.0,,,,,,
KRDR,10-11-2011,01:00,METAR,,220,8.0,,,9999.0,,14.0,12.0,29.75,1008.6,,,,,,,,,,,,,,,7/8 Mostly Cloudy,4900.0,,BKN,5000.0,,,,,,
KRDR,10-11-2011,00:00,METAR,,200,11.0,,,9999.0,,14.0,14.0,29.75,1008.4,,,,,,,,,,,,,,,8/8 Overcast,2500.0,,FEW,2100.0,BKN,3400.0,OVC,5900.0,,
KRDR,10-10-2011,23:53,SPECI,,210,12.0,,,9999.0,,14.0,14.0,29.75,1008.5,,,,,,,,,,,,,,,8/8 Overcast,2700.0,,FEW,2100.0,BKN,2700.0,OVC,5900.0,,
KRDR,10-10-2011,23:42,SPECI,,200,9.0,,,9999.0,Light Rain,15.0,15.0,29.75,1008.5,61,,,,,,,,,,,,,,8/8 Overcast,2400.0,,BKN,2400.0,BKN,3300.0,OVC,6400.0,,
KRDR,10-10-2011,23:39,SPECI,,200,8.0,,,9999.0,,15.0,15.0,29.75,1008.5,,,,,,,,,,,,,,,8/8 Overcast,2000.0,,BKN,2400.0,BKN,3400.0,OVC,6400.0,,
KRDR,10-10-2011,23:30,SPECI,,210,7.0,,,9999.0,,15.0,15.0,29.75,1008.4,,,,,,,,,,,,,,,8/8 Overcast,2700.0,,SCT,2300.0,BKN,3300.0,OVC,6400.0,,
KRDR,10-10-2011,23:22,SPECI,,200,9.0,,,9999.0,,15.0,15.0,29.75,1008.5,,,,,,,,,,,,,,,8/8 Overcast,2000.0,,BKN,2300.0,BKN,3200.0,OVC,5900.0,,
KRDR,10-10-2011,23:20,SPECI,,200,9.0,,,9999.0,Light Rain,15.0,15.0,29.75,1008.5,61,,,,,,,,,,,,,,8/8 Overcast,2000.0,,BKN,2300.0,BKN,3200.0,OVC,4400.0,,
KRDR,10-10-2011,23:11,SPECI,,200,7.0,,,9999.0,Light Rain,15.0,14.0,29.75,1008.5,61,,,,,,,,,,,,,,7/8 Mostly Cloudy,4100.0,,FEW,2400.0,SCT,3100.0,BKN,4200.0,,
KRDR,10-10-2011,23:00,METAR,,200,9.0,,,9999.0,,16.0,14.0,29.74,1008.4,,,,,,,,,,,,,,,7/8 Mostly Cloudy,4400.0,,BKN,4500.0,BKN,5000.0,,,,
KRDR,10-10-2011,22:00,METAR,,210,11.0,,,9999.0,,16.0,13.0,29.75,1008.5,,,,,,,,,,,,,,,4/8 Partly Cloudy,72000.0,,SCT,11000.0,,,,,,
KRDR,10-10-2011,21:00,METAR,,210,11.0,,,9999.0,,16.0,13.0,29.77,1009.2,,,,,,,,,,,,,,,2/8 Mostly Clear,72000.0,,FEW,12000.0,,,,,,
KRDR,10-10-2011,20:00,METAR,,210,10.0,17.0,,9999.0,,16.0,14.0,29.79,1010.0,,,,,,,,,,,,,,,7/8 Mostly Cloudy,2100.0,,SCT,2100.0,BKN,3300.0,BKN,4000.0,,
KRDR,10-10-2011,19:49,SPECI,,220,12.0,17.0,,9999.0,,16.0,14.0,29.79,1009.9,,,,,,,,,,,,,,,7/8 Mostly Cloudy,2100.0,,SCT,2100.0,BKN,3400.0,BKN,8400.0,,
KRDR,10-10-2011,19:41,SPECI,,210,12.0,,,9999.0,,16.0,13.0,29.80,1010.1,,,,,,,,,,,,,,,8/8 Overcast,2600.0,,SCT,2100.0,BKN,2600.0,OVC,7900.0,,
KRDR,10-10-2011,19:38,SPECI,,210,12.0,,,9999.0,,16.0,13.0,29.80,1010.1,,,,,,,,,,,,,,,8/8 Overcast,2500.0,,SCT,2200.0,BKN,3400.0,OVC,7900.0,,
KRDR,10-10-2011,19:00,METAR,,220,12.0,20.0,,9999.0,,15.0,14.0,29.81,1010.6,,,,,,,,,,,,,,,8/8 Overcast,1500.0,,BKN,1500.0,OVC,2300.0,,,,
KRDR,10-10-2011,18:18,SPECI,,210,13.0,,,9999.0,,15.0,15.0,29.82,1011.0,,,,,,,,,,,,,,,8/8 Overcast,1200.0,,OVC,1600.0,,,,,,
KRDR,10-10-2011,17:51,SPECI,,200,14.0,,,9999.0,,15.0,15.0,29.83,1011.2,,,,,,,,,,,,,,,7/8 Mostly Cloudy,1300.0,,BKN,1300.0,BKN,5400.0,,,,
KRDR,10-10-2011,17:48,SPECI,,200,14.0,,,9999.0,,15.0,15.0,29.83,1011.2,,,,,,,,,,,,,,,7/8 Mostly Cloudy,1100.0,,BKN,1100.0,BKN,1600.0,BKN,5400.0,,
KRDR,10-10-2011,17:41,SPECI,,200,13.0,,,9999.0,,15.0,15.0,29.83,1011.2,,,,,,,,,,,,,,,7/8 Mostly Cloudy,1700.0,,SCT,1100.0,BKN,1700.0,BKN,5400.0,,
KRDR,10-10-2011,17:34,SPECI,,200,11.0,,,9999.0,,14.0,14.0,29.83,1011.2,,,,,,,,,,,,,,,7/8 Mostly Cloudy,1100.0,,SCT,1100.0,SCT,1600.0,BKN,5000.0,,
KRDR,10-10-2011,17:33,SPECI,,200,13.0,,,9999.0,,14.0,14.0,29.83,1011.2,,,,,,,,,,,,,,,7/8 Mostly Cloudy,1100.0,,SCT,1200.0,BKN,5000.0,,,,
KRDR,10-10-2011,17:32,SPECI,,200,14.0,,,9999.0,Light Drizzle,14.0,14.0,29.83,1011.2,51,,,,,,,,,,,,,,7/8 Mostly Cloudy,1100.0,,SCT,1200.0,BKN,5000.0,,,,
KRDR,10-10-2011,17:19,SPECI,,200,11.0,,,9999.0,Light Rain,14.0,14.0,29.83,1011.4,61,,,,,,,,,,,,,,7/8 Mostly Cloudy,1300.0,,BKN,1300.0,,,,,,
KRDR,10-10-2011,17:16,SPECI,,200,11.0,,,9999.0,Light Rain,14.0,14.0,29.83,1011.4,61,,,,,,,,,,,,,,7/8 Mostly Cloudy,1000.0,,SCT,1100.0,BKN,1600.0,,,,
KRDR,10-10-2011,17:12,SPECI,,210,12.0,,,9999.0,Light Rain,14.0,14.0,29.83,1011.4,61,,,,,,,,,,,,,,7/8 Mostly Cloudy,1300.0,,BKN,1300.0,,,,,,
KRDR,10-10-2011,17:00,METAR,,200,8.0,,,9999.0,Light Rain,14.0,,29.84,1011.5,61,,,,,,,,,,.02 IN,,,,7/8 Mostly Cloudy,1200.0,,SCT,1100.0,BKN,4800.0,,,,
KRDR,10-10-2011,16:54,SPECI,,200,10.0,,,9999.0,Light Rain,14.0,14.0,29.84,1011.5,61,,,,,,,,,,,,,,7/8 Mostly Cloudy,1100.0,,BKN,1100.0,BKN,4400.0,,,,
KRDR,10-10-2011,16:50,SPECI,,200,10.0,,,9999.0,Light Rain,14.0,14.0,29.84,1011.5,61,,,,,,,,,,,,,,7/8 Mostly Cloudy,1100.0,,BKN,1100.0,BKN,5000.0,,,,
KRDR,10-10-2011,16:36,SPECI,,210,10.0,,,9999.0,Light Rain,14.0,14.0,29.84,1011.4,61,,,,,,,,,,,,,,8/8 Overcast,5500.0,,FEW,1100.0,OVC,5400.0,,,,
KRDR,10-10-2011,16:00,METAR,,200,12.0,,,9999.0,Light Rain,15.0,,29.84,1011.7,61,,,,,,,,,,TRACE,,,,8/8 Overcast,5500.0,,SCT,1200.0,SCT,2800.0,OVC,5400.0,,
KRDR,10-10-2011,15:45,SPECI,,200,11.0,,,9999.0,Light Rain,15.0,15.0,29.84,1011.6,61,,,,,,,,,,,,,,7/8 Mostly Cloudy,5500.0,,SCT,1200.0,SCT,1700.0,BKN,5400.0,,
KRDR,10-10-2011,15:36,SPECI,,200,13.0,,,9999.0,,15.0,15.0,29.84,1011.5,,,,,,,,,,,,,,,8/8 Overcast,5500.0,,SCT,1300.0,SCT,2000.0,OVC,5400.0,,
KRDR,10-10-2011,15:31,SPECI,,200,12.0,,,9999.0,,15.0,15.0,29.84,1011.4,,,,,,,,,,,,,,,8/8 Overcast,1800.0,,SCT,1300.0,BKN,1800.0,OVC,5400.0,,
KRDR,10-10-2011,15:26,SPECI,,200,12.0,,,9999.0,Light Drizzle,15.0,15.0,29.84,1011.4,51,,,,,,,,,,,,,,8/8 Overcast,1300.0,,BKN,1300.0,BKN,1800.0,OVC,5400.0,,
KRDR,10-10-2011,15:22,SPECI,,210,13.0,,,9999.0,Light Drizzle,15.0,15.0,29.83,1011.4,51,,,,,,,,,,,,,,7/8 Mostly Cloudy,1300.0,,BKN,1600.0,,,,,,
KRDR,10-10-2011,15:21,SPECI,,210,13.0,,,9999.0,,15.0,15.0,29.83,1011.4,,,,,,,,,,,,,,,8/8 Overcast,1400.0,,BKN,1400.0,OVC,1900.0,,,,
KRDR,10-10-2011,15:00,METAR,,190,13.0,,,9999.0,,15.0,,29.84,1011.5,,,,,,,,,,,,,,,8/8 Overcast,1700.0,,BKN,1700.0,OVC,4800.0,,,,
KRDR,10-10-2011,14:46,SPECI,,190,12.0,,,9999.0,,15.0,15.0,29.84,1011.5,,,,,,,,,,,,,,,8/8 Overcast,1800.0,,BKN,1800.0,OVC,4800.0,,,,
KRDR,10-10-2011,14:30,SPECI,,190,16.0,,,9999.0,,15.0,15.0,29.84,1011.6,,,,,,,,,,,,,,,7/8 Mostly Cloudy,4500.0,,SCT,1700.0,BKN,4600.0,,,,
KRDR,10-10-2011,14:18,SPECI,,180,13.0,,,9999.0,,15.0,15.0,29.84,1011.5,,,,,,,,,,,,,,,7/8 Mostly Cloudy,1800.0,,BKN,1800.0,BKN,3600.0,BKN,4600.0,,
KRDR,10-10-2011,14:00,METAR,,180,14.0,,,9999.0,,14.0,14.0,29.84,1011.6,,,,,,,,,,,,,,,4/8 Partly Cloudy,72000.0,,SCT,3500.0,SCT,7400.0,SCT,9900.0,,
KRDR,10-10-2011,13:00,METAR,,170,10.0,,,9999.0,,14.0,14.0,29.84,1011.5,,,,,,,,,,,,,,,Clear,72000.0,,,73000.0,,,,,,
KRDR,10-10-2011,12:00,METAR,,180,10.0,,,9999.0,,14.0,,29.85,1011.9,,,,,,,,,,,,,,.32 IN,Clear,72000.0,,,73000.0,,,,,,
KRDR,10-10-2011,11:00,METAR,,170,11.0,,,9999.0,,13.0,,29.85,1012.0,,,,,,,,,,,,,,,Clear,72000.0,,,73000.0,,,,,,
KRDR,10-10-2011,10:00,METAR,,150,6.0,,,9999.0,,10.0,,29.87,1012.5,,,,,,,,,,,,,,,Clear,72000.0,,,73000.0,,,,,,
KRDR,10-10-2011,09:00,METAR,,,0.0,,,9999.0,,8.0,,29.89,1013.3,,,,,,,,,,,,,,,Clear,72000.0,,,73000.0,,,,,,
KRDR,10-10-2011,08:00,METAR,,90,5.0,,,9999.0,,10.0,,29.91,1014.0,,,,,,,,,,,,,,,4/8 Partly Cloudy,72000.0,,SCT,12000.0,,,,,,
KRDR,10-10-2011,07:00,METAR,,80,5.0,,,9999.0,,10.0,,29.95,1015.1,,,,,,,,,,,,,,,Clear,72000.0,,,73000.0,,,,,,
KRDR,10-10-2011,06:00,METAR,,40,4.0,,,9999.0,,10.0,,29.97,1015.9,,,,,,,,,,,TRACE,,.03 IN,,4/8 Partly Cloudy,72000.0,,SCT,7900.0,SCT,11000.0,,,,
KRDR,10-10-2011,05:01,SPECI,,70,8.0,,,9999.0,,11.0,11.0,29.99,1016.4,,,,,,,,,,,,,,,7/8 Mostly Cloudy,7000.0,,SCT,4900.0,BKN,6900.0,,,,
KRDR,10-10-2011,05:00,METAR,,50,7.0,,,9999.0,Light Rain,11.0,,30.00,1016.9,61,,,,,,,,,,.02 IN,,,,7/8 Mostly Cloudy,4900.0,,FEW,2400.0,BKN,5000.0,,,,
KRDR,10-10-2011,04:00,METAR,,,3.0,,,9999.0,Light Drizzle,11.0,,30.03,1018.0,51,,,,,,,,,,TRACE,,,,7/8 Mostly Cloudy,7000.0,,SCT,6900.0,BKN,9900.0,,,,
KRDR,10-10-2011,03:17,SPECI,,50,5.0,,,9999.0,,11.0,11.0,30.04,1018.1,,,,,,,,,,,,,,,8/8 Overcast,3100.0,,OVC,3100.0,,,,,,
KRDR,10-10-2011,03:00,METAR,,40,5.0,,,9999.0,,11.0,,30.05,1018.4,,,,,,,,,,,,.01 IN,,,8/8 Overcast,2800.0,,OVC,2800.0,,,,,,
KRDR,10-10-2011,02:00,METAR,,50,7.0,,,9999.0,,11.0,,30.08,1019.4,,,,,,,,,,,,,,,8/8 Overcast,2800.0,,OVC,2800.0,,,,,,
KRDR,10-10-2011,01:00,METAR,,60,6.0,,,9999.0,,11.0,,30.11,1020.4,,,,,,,,,,,.01 IN,,,,8/8 Overcast,1800.0,,OVC,2100.0,,,,,,
KRDR,10-10-2011,00:00,METAR,,50,6.0,,,9999.0,Light Rain,10.0,,30.12,1020.9,61,,,,,,,,,,.17 IN,,.29 IN,,8/8 Overcast,2200.0,,FEW,2300.0,OVC,3800.0,,,,
KRDR,10-09-2011,23:44,SPECI,,60,8.0,,,4800.0,Light Rain/Mist,10.0,10.0,30.12,1020.9,61,10,,,,,,,,,,,,,8/8 Overcast,2500.0,,FEW,600.0,OVC,3900.0,,,,
KRDR,10-09-2011,23:35,SPECI,,60,7.0,,,4000.0,Heavy Rain/Mist,10.0,10.0,30.13,1021.1,63,10,,,,,,,,,,,,,8/8 Overcast,2500.0,,FEW,700.0,SCT,2400.0,OVC,3600.0,,
KRDR,10-09-2011,23:31,SPECI,,70,9.0,,,4800.0,Light Rain/Mist,11.0,11.0,30.13,1021.0,61,10,,,,,,,,,,,,,8/8 Overcast,2500.0,,FEW,800.0,SCT,2400.0,OVC,3500.0,,
KRDR,10-09-2011,23:28,SPECI,,70,9.0,,,4800.0,Light Rain/Mist,11.0,11.0,30.13,1021.2,61,10,,,,,,,,,,,,,8/8 Overcast,2500.0,,SCT,2400.0,OVC,3500.0,,,,
KRDR,10-09-2011,23:00,METAR,,,0.0,,,4800.0,Rain/Mist,11.0,,30.15,1021.7,62,10,,,,,,,,,.1 IN,,,,8/8 Overcast,3300.0,,FEW,2500.0,SCT,3400.0,OVC,4500.0,,
KRDR,10-09-2011,22:00,METAR,,80,7.0,,,9999.0,Light Rain,12.0,11.0,30.15,1021.7,61,,,,,,,,,,.02 IN,,,,8/8 Overcast,4300.0,,OVC,4400.0,,,,,,
KRDR,10-09-2011,21:00,METAR,,110,8.0,,,9999.0,Light Rain,13.0,9.0,30.17,1022.5,61,,,,,,,,,,TRACE,,,,7/8 Mostly Cloudy,4400.0,,BKN,4500.0,,,,,,
KRDR,10-09-2011,20:00,METAR,,100,10.0,,,9999.0,Light Rain,14.0,7.0,30.18,1022.7,61,,,,,,,,,,TRACE,,,,4/8 Partly Cloudy,72000.0,,FEW,4700.0,SCT,6400.0,,,,
KRDR,10-09-2011,19:32,SPECI,,100,11.0,,,9999.0,,15.0,6.0,30.19,1023.0,,,,,,,,,,,,,,,8/8 Overcast,7000.0,,SCT,5400.0,OVC,6900.0,,,,
KRDR,10-09-2011,19:17,SPECI,,90,9.0,,,9999.0,,14.0,6.0,30.19,1023.2,,,,,,,,,,,,,,,7/8 Mostly Cloudy,7000.0,,FEW,5400.0,BKN,6900.0,,,,
KRDR,10-09-2011,19:00,METAR,,100,9.0,,,9999.0,Light Rain,14.0,6.0,30.21,1023.7,61,,,,,,,,,,TRACE,,,,4/8 Partly Cloudy,72000.0,,SCT,7900.0,,,,,,
KRDR,10-09-2011,18:39,SPECI,,100,10.0,,,9999.0,,14.0,5.0,30.22,1024.0,,,,,,,,,,,,,,,7/8 Mostly Cloudy,8000.0,,BKN,7900.0,,,,,,
KRDR,10-09-2011,18:00,METAR,,90,8.0,,,9999.0,,14.0,5.0,30.24,1024.8,,,,,,,,,,,,,,,8/8 Overcast,8000.0,,OVC,7900.0,,,,,,
KRDR,10-09-2011,17:00,METAR,,90,6.0,,,9999.0,,13.0,6.0,30.27,1025.8,,,,,,,,,,,,,,,7/8 Mostly Cloudy,9000.0,,BKN,8900.0,,,,,,
KRDR,10-09-2011,16:00,METAR,,70,4.0,,,9999.0,,11.0,5.0,30.29,1026.3,,,,,,,,,,,,,,,4/8 Partly Cloudy,72000.0,,SCT,9900.0,,,,,,
KRDR,10-09-2011,15:00,METAR,,40,5.0,,,9999.0,,9.0,5.0,30.29,1026.4,,,,,,,,,,,,,,,Clear,72000.0,,,73000.0,,,,,,
KRDR,10-09-2011,14:00,METAR,,30,4.0,,,9999.0,,7.0,5.0,30.29,1026.2,,,,,,,,,,,,,,,Clear,72000.0,,,73000.0,,,,,,
KRDR,10-09-2011,13:00,METAR,,10,5.0,,,9999.0,,6.0,5.0,30.27,1025.7,,,,,,,,,,,,,,,Clear,72000.0,,,73000.0,,,,,,
KRDR,10-09-2011,12:00,METAR,,,0.0,,,9999.0,,6.0,4.0,30.26,1025.6,,,,,,,,,,,,,,,Clear,72000.0,,,73000.0,,,,,,
KRDR,10-09-2011,11:00,METAR,,10,7.0,,,9999.0,,7.0,5.0,30.25,1025.0,,,,,,,,,,,,,,,Clear,72000.0,,,73000.0,,,,,,
KRDR,10-09-2011,10:00,METAR,,330,3.0,,,9999.0,,8.0,5.0,30.25,1025.1,,,,,,,,,,,,,,,Clear,72000.0,,,73000.0,,,,,,
KRDR,10-09-2011,09:00,METAR,,340,5.0,,,9999.0,,8.0,5.0,30.23,1024.3,,,,,,,,,,,,,,,Clear,72000.0,,,73000.0,,,,,,
KRDR,10-09-2011,08:00,METAR,,330,5.0,,,9999.0,,9.0,5.0,30.22,1024.0,,,,,,,,,,,,,,,Clear,72000.0,,,73000.0,,,,,,
KRDR,10-09-2011,07:00,METAR,,320,5.0,,,9999.0,,9.0,4.0,30.20,1023.3,,,,,,,,,,,,,,,Clear,72000.0,,,73000.0,,,,,,
KRDR,10-09-2011,06:00,METAR,,310,5.0,,,9999.0,,9.0,5.0,30.19,1023.2,,,,,,,,,,,,,,,Clear,72000.0,,,73000.0,,,,,,
KRDR,10-09-2011,05:00,METAR,,310,4.0,,,9999.0,,11.0,5.0,30.19,1023.0,,,,,,,,,,,,,,,2/8 Mostly Clear,72000.0,,FEW,12000.0,,,,,,
KRDR,10-09-2011,04:00,METAR,,290,5.0,,,9999.0,,12.0,5.0,30.17,1022.4,,,,,,,,,,,,,,,Clear,72000.0,,,73000.0,,,,,,
KRDR,10-09-2011,03:00,METAR,,320,6.0,,,9999.0,,13.0,5.0,30.15,1021.6,,,,,,,,,,,,,,,2/8 Mostly Clear,72000.0,,FEW,12000.0,,,,,,
KRDR,10-09-2011,02:00,METAR,,340,7.0,,,9999.0,,13.0,9.0,30.13,1021.0,,,,,,,,,,,,,,,7/8 Mostly Cloudy,11000.0,,SCT,4100.0,BKN,11000.0,,,,
KRDR,10-09-2011,01:00,METAR,,260,5.0,,,9999.0,,13.0,8.0,30.11,1020.5,,,,,,,,,,,,,,,2/8 Mostly Clear,72000.0,,FEW,12000.0,,,,,,
KRDR,10-09-2011,00:00,METAR,,230,3.0,,,9999.0,,14.0,8.0,30.08,1019.6,,,,,,,,,,,,,,,8/8 Overcast,4000.0,,OVC,4100.0,,,,,,
KRDR,10-08-2011,23:00,METAR,,300,5.0,,,9999.0,,15.0,8.0,30.06,1018.8,,,,,,,,,,,,,,,7/8 Mostly Cloudy,11000.0,,SCT,3900.0,BKN,11000.0,,,,
KRDR,10-08-2011,22:00,METAR,,300,8.0,,,9999.0,,16.0,8.0,30.03,1017.9,,,,,,,,,,,,,,,8/8 Overcast,3500.0,,OVC,3600.0,,,,,,
KRDR,10-08-2011,21:00,METAR,,260,8.0,,,9999.0,,16.0,8.0,30.02,1017.7,,,,,,,,,,,,,,,8/8 Overcast,3600.0,,OVC,3700.0,,,,,,
KRDR,10-08-2011,20:00,METAR,,330,14.0,,,9999.0,,17.0,8.0,30.01,1017.2,,,,,,,,,,,,,,,8/8 Overcast,3800.0,,OVC,3900.0,,,,,,
KRDR,10-08-2011,19:00,METAR,,310,7.0,,,9999.0,,18.0,8.0,29.99,1016.4,,,,,,,,,,,,,,,7/8 Mostly Cloudy,4000.0,,BKN,4100.0,,,,,,
KRDR,10-08-2011,18:00,METAR,,310,11.0,,,9999.0,,18.0,8.0,29.98,1016.3,,,,,,,,,,,,,,,4/8 Partly Cloudy,72000.0,,SCT,3700.0,,,,,,
KRDR,10-08-2011,17:00,METAR,,290,12.0,21.0,,9999.0,,16.0,8.0,29.97,1016.0,,,,,,,,,,,,,,,4/8 Partly Cloudy,72000.0,,SCT,3300.0,,,,,,
KRDR,10-08-2011,16:00,METAR,,290,15.0,21.0,,9999.0,,15.0,8.0,29.95,1015.2,,,,,,,,,,,,,,,8/8 Overcast,3000.0,,OVC,3000.0,,,,,,
KRDR,10-08-2011,15:09,SPECI,,260,11.0,,,9999.0,,14.0,9.0,29.92,1014.2,,,,,,,,,,,,,,,7/8 Mostly Cloudy,2600.0,,BKN,2800.0,,,,,,
KRDR,10-08-2011,15:00,METAR,,270,12.0,,,9999.0,,14.0,9.0,29.91,1013.8,,,,,,,,,,,,,,,2/8 Mostly Clear,72000.0,,FEW,3000.0,,,,,,
KRDR,10-08-2011,14:00,METAR,,250,10.0,,,9999.0,,13.0,9.0,29.89,1013.1,,,,,,,,,,,,,,,Clear,72000.0,,,73000.0,,,,,,
KRDR,10-08-2011,13:00,METAR,,230,6.0,,,9999.0,,13.0,9.0,29.86,1012.1,,,,,,,,,,,,,,,Clear,72000.0,,,73000.0,,,,,,
KRDR,10-08-2011,12:00,METAR,,240,10.0,,,9999.0,,13.0,9.0,29.83,1011.3,,,,,,,,,,,,,,,Clear,72000.0,,,73000.0,,,,,,
KRDR,10-08-2011,11:00,METAR,,250,12.0,,,9999.0,,13.0,9.0,29.80,1010.1,,,,,,,,,,,,,,,Clear,72000.0,,,73000.0,,,,,,
KRDR,10-08-2011,10:00,METAR,,250,11.0,,,9999.0,,13.0,10.0,29.75,1008.6,,,,,,,,,,,,,,,Clear,72000.0,,,73000.0,,,,,,
KRDR,10-08-2011,09:00,METAR,,240,9.0,,,9999.0,,14.0,10.0,29.73,1007.8,,,,,,,,,,,,,,,7/8 Mostly Cloudy,3100.0,,BKN,3200.0,,,,,,
KRDR,10-08-2011,08:00,METAR,,250,13.0,19.0,,9999.0,,14.0,10.0,29.71,1007.4,,,,,,,,,,,,,,,4/8 Partly Cloudy,72000.0,,SCT,3400.0,,,,,,
KRDR,10-08-2011,07:00,METAR,,250,9.0,,,9999.0,,15.0,10.0,29.67,1006.1,,,,,,,,,,,,,,,Clear,72000.0,,,73000.0,,,,,,
KRDR,10-08-2011,06:00,METAR,,240,13.0,22.0,230/26KTS,9999.0,,16.0,9.0,29.65,1005.4,,,,,,,,,,,,,,,Clear,72000.0,,,73000.0,,,,,,
KRDR,10-08-2011,05:00,METAR,,240,16.0,22.0,260/27KTS,9999.0,,17.0,9.0,29.63,1004.5,,,,,,,,,,,,,,,Clear,72000.0,,,73000.0,,,,,,
KRDR,10-08-2011,04:00,METAR,,240,18.0,24.0,240/29KTS,9999.0,,18.0,8.0,29.59,1003.3,,,,,,,,,,,,,,,Clear,72000.0,,,73000.0,,,,,,
KRDR,10-08-2011,03:00,METAR,,220,22.0,30.0,220/33KTS,9999.0,,19.0,8.0,29.55,1001.9,,,,,,,,,,,,,,,Clear,72000.0,,,73000.0,,,,,,
KRDR,10-08-2011,02:00,METAR,,220,27.0,37.0,220/37KTS,9999.0,,20.0,7.0,29.52,1000.9,,,,,,,,,,,,,,,Clear,72000.0,,,73000.0,,,,,,
KRDR,10-08-2011,01:00,METAR,,200,24.0,36.0,210/41KTS,9999.0,,22.0,2.0,29.49,1000.0,,,,,,,,,,,,,,,Clear,72000.0,,,73000.0,,,,,,
KRDR,10-08-2011,00:00,METAR,,200,26.0,35.0,200/50KTS,9999.0,,22.0,1.0,29.48,999.6,,,,,,,,,,,,,,,Clear,72000.0,,,73000.0,,,,,,
KRDR,10-07-2011,23:00,METAR,,210,28.0,42.0,190/49KTS,9999.0,,24.0,-2.0,29.45,998.7,,,,,,,,,,,,,,,Clear,72000.0,,,73000.0,,,,,,
KRDR,10-07-2011,22:00,METAR,,190,36.0,44.0,190/48KTS,9999.0,,24.0,-2.0,29.44,998.4,,,,,,,,,,,,,,,Clear,72000.0,,,73000.0,,,,,,
KRDR,10-07-2011,21:00,METAR,,180,33.0,43.0,190/47KTS,9999.0,,24.0,1.0,29.45,998.6,,,,,,,,,,,,,,,Clear,72000.0,,,73000.0,,,,,,
KRDR,10-07-2011,20:00,METAR,,170,26.0,41.0,170/41KTS,9999.0,,24.0,8.0,29.46,999.0,,,,,,,,,,,,,,,Clear,72000.0,,,73000.0,,,,,,
KRDR,10-07-2011,19:00,METAR,,180,22.0,31.0,170/32KTS,9999.0,,23.0,9.0,29.48,999.8,,,,,,,,,,,,,,,2/8 Mostly Clear,72000.0,,FEW,4800.0,,,,,,
KRDR,10-07-2011,18:00,METAR,,180,26.0,33.0,170/37KTS,9999.0,,21.0,13.0,29.53,1001.2,,,,,,,,,,,,,,,8/8 Overcast,3500.0,,OVC,3600.0,,,,,,
KRDR,10-07-2011,17:00,METAR,,170,24.0,33.0,170/36KTS,9999.0,,21.0,12.0,29.54,1001.6,,,,,,,,,,,,,,,8/8 Overcast,3800.0,,OVC,3900.0,,,,,,
KRDR,10-07-2011,16:00,METAR,,170,25.0,36.0,180/40KTS,9999.0,,21.0,11.0,29.55,1001.9,,,,,,,,,,,,,,,8/8 Overcast,4500.0,,OVC,4600.0,,,,,,
KRDR,10-07-2011,15:00,METAR,,170,25.0,38.0,140/38KTS,9999.0,,21.0,10.0,29.56,1002.3,,,,,,,,,,,,,,,4/8 Partly Cloudy,72000.0,,SCT,4800.0,,,,,,
KRDR,10-07-2011,14:00,METAR,,160,18.0,25.0,170/32KTS,9999.0,,19.0,10.0,29.56,1002.2,,,,,,,,,,,,,,,Clear,72000.0,,,73000.0,,,,,,
KRDR,10-07-2011,13:00,METAR,,170,20.0,30.0,160/31KTS,9999.0,,19.0,12.0,29.56,1002.3,,,,,,,,,,,,,,,Clear,72000.0,,,73000.0,,,,,,
KRDR,10-07-2011,12:00,METAR,,160,22.0,28.0,160/31KTS,9999.0,,19.0,11.0,29.58,1003.0,,,,,,,,,,,,,,,7/8 Mostly Cloudy,12000.0,,BKN,12000.0,,,,,,
KRDR,10-07-2011,11:00,METAR,,180,22.0,30.0,190/30KTS,9999.0,,20.0,9.0,29.60,1003.7,,,,,,,,,,,,,,,Clear,72000.0,,,73000.0,,,,,,
KRDR,10-07-2011,10:00,METAR,,170,19.0,23.0,180/31KTS,9999.0,,21.0,7.0,29.62,1004.2,,,,,,,,,,,,,,,4/8 Partly Cloudy,72000.0,,SCT,9900.0,,,,,,
KRDR,10-07-2011,09:00,METAR,,180,17.0,26.0,180/29KTS,9999.0,,22.0,6.0,29.64,1005.0,,,,,,,,,,,,,,,Clear,72000.0,,,73000.0,,,,,,
KRDR,10-07-2011,08:00,METAR,,180,22.0,28.0,170/32KTS,9999.0,,22.0,6.0,29.65,1005.3,,,,,,,,,,,,,,,2/8 Mostly Clear,72000.0,,FEW,8900.0,,,,,,
KRDR,10-07-2011,07:00,METAR,,180,18.0,29.0,180/31KTS,9999.0,,22.0,6.0,29.68,1006.2,,,,,,,,,,,,,,,7/8 Mostly Cloudy,8000.0,,BKN,7900.0,BKN,9400.0,,,,
KRDR,10-07-2011,06:00,METAR,,170,22.0,31.0,160/34KTS,9999.0,,23.0,5.0,29.68,1006.2,,,,,,,,,,,,,,,7/8 Mostly Cloudy,8000.0,,BKN,7900.0,,,,,,
KRDR,10-07-2011,05:00,METAR,,170,24.0,33.0,170/33KTS,9999.0,,23.0,5.0,29.69,1006.8,,,,,,,,,,,,,,,2/8 Mostly Clear,72000.0,,FEW,12000.0,,,,,,
KRDR,10-07-2011,04:00,METAR,,150,14.0,,,9999.0,,22.0,5.0,29.72,1007.5,,,,,,,,,,,,,,,7/8 Mostly Cloudy,7000.0,,BKN,6900.0,,,,,,
KRDR,10-07-2011,03:00,METAR,,140,12.0,,,9999.0,,23.0,6.0,29.73,1007.9,,,,,,,,,,,,,,,7/8 Mostly Cloudy,7000.0,,BKN,6900.0,,,,,,
KRDR,10-07-2011,02:00,METAR,,160,14.0,19.0,,9999.0,,23.0,6.0,29.74,1008.2,,,,,,,,,,,,,,,8/8 Overcast,7000.0,,OVC,6900.0,,,,,,
KRDR,10-07-2011,01:00,METAR,,140,16.0,22.0,,9999.0,,24.0,7.0,29.73,1008.0,,,,,,,,,,,,,,,8/8 Overcast,6000.0,,OVC,5900.0,,,,,,
KRDR,10-07-2011,00:00,METAR,,140,17.0,26.0,170/35KTS,9999.0,,25.0,6.0,29.72,1007.7,,,,,,,,,,,,,,,Clear,72000.0,,,73000.0,,,,,,
KRDR,10-06-2011,23:00,METAR,,150,17.0,25.0,150/31KTS,9999.0,,26.0,6.0,29.73,1008.0,,,,,,,,,,,,,,,4/8 Partly Cloudy,72000.0,,SCT,7900.0,,,,,,
KRDR,10-06-2011,22:00,METAR,,160,25.0,34.0,160/35KTS,9999.0,,26.0,7.0,29.74,1008.4,,,,,,,,,,,,,,,Clear,72000.0,,,73000.0,,,,,,
KRDR,10-06-2011,21:00,METAR,,160,28.0,33.0,160/36KTS,9999.0,,27.0,7.0,29.75,1008.6,,,,,,,,,,,,,,,Clear,72000.0,,,73000.0,,,,,,
KRDR,10-06-2011,20:00,METAR,,160,26.0,35.0,170/35KTS,9999.0,,27.0,7.0,29.77,1009.1,,,,,,,,,,,,,,,Clear,72000.0,,,73000.0,,,,,,
KRDR,10-06-2011,19:00,METAR,,150,27.0,33.0,150/33KTS,9999.0,,26.0,7.0,29.78,1009.6,,,,,,,,,,,,,,,Clear,72000.0,,,73000.0,,,,,,
KRDR,10-06-2011,18:00,METAR,,160,24.0,30.0,160/31KTS,9999.0,,26.0,8.0,29.80,1010.1,,,,,,,,,,,,,,,Clear,72000.0,,,73000.0,,,,,,
KRDR,10-06-2011,17:00,METAR,,160,19.0,26.0,160/28KTS,9999.0,,25.0,8.0,29.81,1010.6,,,,,,,,,,,,,,,Clear,72000.0,,,73000.0,,,,,,
KRDR,10-06-2011,16:00,METAR,,160,20.0,24.0,,9999.0,,22.0,7.0,29.82,1011.0,,,,,,,,,,,,,,,Clear,72000.0,,,73000.0,,,,,,
KRDR,10-06-2011,15:00,METAR,,160,18.0,22.0,,9999.0,,20.0,6.0,29.84,1011.5,,,,,,,,,,,,,,,Clear,72000.0,,,73000.0,,,,,,
KRDR,10-06-2011,14:00,METAR,,170,12.0,,,9999.0,,17.0,6.0,29.84,1011.5,,,,,,,,,,,,,,,Clear,72000.0,,,73000.0,,,,,,
KRDR,10-06-2011,13:00,METAR,,170,9.0,,,9999.0,,15.0,5.0,29.84,1011.4,,,,,,,,,,,,,,,Clear,72000.0,,,73000.0,,,,,,
KRDR,10-06-2011,12:00,METAR,,170,12.0,,,9999.0,,15.0,5.0,29.84,1011.4,,,,,,,,,,,,,,,Clear,72000.0,,,73000.0,,,,,,
KRDR,10-06-2011,11:00,METAR,,170,10.0,,,9999.0,,15.0,5.0,29.83,1011.3,,,,,,,,,,,,,,,Clear,72000.0,,,73000.0,,,,,,
KRDR,10-06-2011,10:00,METAR,,160,9.0,,,9999.0,,15.0,5.0,29.83,1011.3,,,,,,,,,,,,,,,Clear,72000.0,,,73000.0,,,,,,
KRDR,10-06-2011,09:00,METAR,,170,11.0,,,9999.0,,16.0,6.0,29.84,1011.6,,,,,,,,,,,,,,,Clear,72000.0,,,73000.0,,,,,,
KRDR,10-06-2011,08:00,METAR,,170,10.0,,,9999.0,,17.0,6.0,29.85,1011.8,,,,,,,,,,,,,,,Clear,72000.0,,,73000.0,,,,,,
KRDR,10-06-2011,07:00,METAR,,170,9.0,,,9999.0,,18.0,7.0,29.84,1011.6,,,,,,,,,,,,,,,Clear,72000.0,,,73000.0,,,,,,
KRDR,10-06-2011,06:00,METAR,,170,11.0,,,9999.0,,19.0,7.0,29.84,1011.4,,,,,,,,,,,,,,,Clear,72000.0,,,73000.0,,,,,,
KRDR,10-06-2011,05:00,METAR,,170,11.0,,,9999.0,,20.0,7.0,29.84,1011.6,,,,,,,,,,,,,,,Clear,72000.0,,,73000.0,,,,,,
KRDR,10-06-2011,04:00,METAR,,150,9.0,,,9999.0,,20.0,9.0,29.83,1011.3,,,,,,,,,,,,,,,Clear,72000.0,,,73000.0,,,,,,
KRDR,10-06-2011,03:00,METAR,,150,10.0,,,9999.0,,20.0,8.0,29.83,1011.1,,,,,,,,,,,,,,,Clear,72000.0,,,73000.0,,,,,,
KRDR,10-06-2011,02:00,METAR,,140,10.0,,,9999.0,,22.0,7.0,29.81,1010.6,,,,,,,,,,,,,,,Clear,72000.0,,,73000.0,,,,,,
KRDR,10-06-2011,01:00,METAR,,160,11.0,,,9999.0,,24.0,7.0,29.80,1010.3,,,,,,,,,,,,,,,Clear,72000.0,,,73000.0,,,,,,
KRDR,10-06-2011,00:00,METAR,,160,15.0,,,9999.0,,27.0,6.0,29.79,1009.9,,,,,,,,,,,,,,,Clear,72000.0,,,73000.0,,,,,,
KRDR,10-05-2011,23:00,METAR,,180,17.0,28.0,170/34KTS,9999.0,,29.0,5.0,29.78,1009.7,,,,,,,,,,,,,,,Clear,72000.0,,,73000.0,,,,,,
KRDR,10-05-2011,22:00,METAR,,180,24.0,33.0,180/34KTS,9999.0,,31.0,5.0,29.78,1009.6,,,,,,,,,,,,,,,Clear,72000.0,,,73000.0,,,,,,
KRDR,10-05-2011,21:00,METAR,,170,22.0,30.0,170/31KTS,9999.0,,31.0,6.0,29.79,1009.8,,,,,,,,,,,,,,,Clear,72000.0,,,73000.0,,,,,,
KRDR,10-05-2011,20:00,METAR,,160,19.0,27.0,170/27KTS,9999.0,,31.0,8.0,29.80,1010.2,,,,,,,,,,,,,,,Clear,72000.0,,,73000.0,,,,,,
KRDR,10-05-2011,19:00,METAR,,170,17.0,23.0,,9999.0,,30.0,9.0,29.81,1010.6,,,,,,,,,,,,,,,Clear,72000.0,,,73000.0,,,,,,
KRDR,10-05-2011,18:00,METAR,,170,15.0,,,9999.0,,29.0,8.0,29.83,1011.2,,,,,,,,,,,,,,,Clear,72000.0,,,73000.0,,,,,,
KRDR,10-05-2011,17:00,METAR,,170,15.0,,,9999.0,,26.0,8.0,29.84,1011.4,,,,,,,,,,,,,,,Clear,72000.0,,,73000.0,,,,,,
KRDR,10-05-2011,16:00,METAR,,170,16.0,,,9999.0,,23.0,9.0,29.84,1011.5,,,,,,,,,,,,,,,Clear,72000.0,,,73000.0,,,,,,
KRDR,10-05-2011,15:00,METAR,,160,14.0,19.0,,9999.0,,19.0,10.0,29.84,1011.5,,,,,,,,,,,,,,,Clear,72000.0,,,73000.0,,,,,,
KRDR,10-05-2011,14:00,METAR,,150,10.0,,,9999.0,,16.0,9.0,29.84,1011.4,,,,,,,,,,,,,,,Clear,72000.0,,,73000.0,,,,,,
KRDR,10-05-2011,13:00,METAR,,160,13.0,,,9999.0,,15.0,9.0,29.83,1011.1,,,,,,,,,,,,,,,Clear,72000.0,,,73000.0,,,,,,
KRDR,10-05-2011,12:00,METAR,,160,9.0,,,9999.0,,14.0,9.0,29.82,1010.8,,,,,,,,,,,,,,,Clear,72000.0,,,73000.0,,,,,,
KRDR,10-05-2011,11:00,METAR,,170,9.0,,,9999.0,,15.0,9.0,29.81,1010.7,,,,,,,,,,,,,,,Clear,72000.0,,,73000.0,,,,,,
KRDR,10-05-2011,10:00,METAR,,170,8.0,,,9999.0,,16.0,9.0,29.81,1010.5,,,,,,,,,,,,,,,Clear,72000.0,,,73000.0,,,,,,
KRDR,10-05-2011,09:00,METAR,,170,9.0,,,9999.0,,16.0,9.0,29.81,1010.4,,,,,,,,,,,,,,,Clear,72000.0,,,73000.0,,,,,,
KRDR,10-05-2011,08:00,METAR,,170,9.0,,,9999.0,,17.0,9.0,29.81,1010.7,,,,,,,,,,,,,,,Clear,72000.0,,,73000.0,,,,,,
KRDR,10-05-2011,07:00,METAR,,170,7.0,,,9999.0,,16.0,9.0,29.82,1011.0,,,,,,,,,,,,,,,Clear,72000.0,,,73000.0,,,,,,
KRDR,10-05-2011,06:00,METAR,,170,6.0,,,9999.0,,16.0,9.0,29.84,1011.4,,,,,,,,,,,,,,,Clear,72000.0,,,73000.0,,,,,,
KRDR,10-05-2011,05:00,METAR,,170,8.0,,,9999.0,,18.0,9.0,29.85,1011.8,,,,,,,,,,,,,,,Clear,72000.0,,,73000.0,,,,,,
KRDR,10-05-2011,04:00,METAR,,140,8.0,,,9999.0,,17.0,9.0,29.85,1012.0,,,,,,,,,,,,,,,Clear,72000.0,,,73000.0,,,,,,
KRDR,10-05-2011,03:00,METAR,,140,9.0,,,9999.0,,20.0,9.0,29.86,1012.2,,,,,,,,,,,,,,,Clear,72000.0,,,73000.0,,,,,,
KRDR,10-05-2011,02:00,METAR,,140,9.0,,,9999.0,,20.0,9.0,29.86,1012.4,,,,,,,,,,,,,,,Clear,72000.0,,,73000.0,,,,,,
KRDR,10-05-2011,01:00,METAR,,140,10.0,,,9999.0,,22.0,9.0,29.87,1012.5,,,,,,,,,,,,,,,Clear,72000.0,,,73000.0,,,,,,
KRDR,10-05-2011,00:00,METAR,,140,10.0,,,9999.0,,24.0,10.0,29.86,1012.3,,,,,,,,,,,,,,,Clear,72000.0,,,73000.0,,,,,,
KRDR,10-04-2011,23:00,METAR,,140,10.0,,,9999.0,,27.0,9.0,29.86,1012.2,,,,,,,,,,,,,,,Clear,72000.0,,,73000.0,,,,,,
KRDR,10-04-2011,22:00,METAR,,110,4.0,,,9999.0,,25.0,11.0,29.88,1012.9,,,,,,,,,,,,,,,Clear,72000.0,,,73000.0,,,,,,
KRDR,10-04-2011,21:00,METAR,,90,5.0,,,9999.0,,24.0,10.0,29.90,1013.7,,,,,,,,,,,,,,,Clear,72000.0,,,73000.0,,,,,,
KRDR,10-04-2011,20:00,METAR,,90,6.0,,,9999.0,,23.0,10.0,29.93,1014.4,,,,,,,,,,,,,,,Clear,72000.0,,,73000.0,,,,,,
KRDR,10-04-2011,19:00,METAR,,90,9.0,,,9999.0,,21.0,10.0,29.95,1015.3,,,,,,,,,,,,,,,Clear,72000.0,,,73000.0,,,,,,
KRDR,10-04-2011,18:00,METAR,,70,4.0,,,9999.0,,17.0,10.0,29.98,1016.3,,,,,,,,,,,,,TRACE,,Clear,72000.0,,,73000.0,,,,,,
KRDR,10-04-2011,17:00,METAR,,30,3.0,,,9999.0,,14.0,10.0,29.99,1016.7,,,,,,,,,,,,,,,Clear,72000.0,,,73000.0,,,,,,
KRDR,10-04-2011,16:00,METAR,,10,5.0,,,9999.0,,13.0,10.0,30.01,1017.3,,,,,,,,,,,,,,,Clear,72000.0,,,73000.0,,,,,,
KRDR,10-04-2011,15:00,METAR,,,3.0,,,9999.0,,12.0,10.0,30.00,1017.0,,,,,,,,,,,,TRACE,,,Clear,72000.0,,,73000.0,,,,,,
KRDR,10-04-2011,14:00,METAR,,350,3.0,,,9999.0,,10.0,,30.02,1017.3,,,,,,,,,,,TRACE,,,,Clear,72000.0,,,73000.0,,,,,,
KRDR,10-04-2011,13:00,METAR,,,0.0,,,9999.0,Light Rain,10.0,,30.02,1017.4,61,,,,,,,,,,TRACE,,,,Clear,72000.0,,,73000.0,,,,,,
KRDR,10-04-2011,12:54,SPECI,,,0.0,,,9999.0,,10.0,10.0,30.02,1017.5,,,,,,,,,,,,,,,Clear,72000.0,,,73000.0,,,,,,
KRDR,10-04-2011,12:45,SPECI,,330,4.0,,,9999.0,Light Rain,10.0,10.0,30.02,1017.4,61,,,,,,,,,,,,,,Clear,72000.0,,,73000.0,,,,,,
KRDR,10-04-2011,12:00,METAR,,310,3.0,,,9999.0,,9.0,,30.01,1017.3,,,,,,,,,,,,,TRACE,,Clear,72000.0,,,73000.0,,,,,,
KRDR,10-04-2011,11:00,METAR,,320,4.0,,,9999.0,,9.0,,30.01,1017.2,,,,,,,,,,,TRACE,,,,Clear,72000.0,,,73000.0,,,,,,
KRDR,10-04-2011,10:35,SPECI,,320,3.0,,,9999.0,,10.0,10.0,30.01,1017.1,,,,,,,,,,,,,,,Clear,72000.0,,,73000.0,,,,,,
KRDR,10-04-2011,10:25,SPECI,,300,3.0,,,9999.0,,10.0,10.0,30.01,1017.1,,,,,,,,,,,,,,,Clear,72000.0,,,73000.0,,,,,,
KRDR,10-04-2011,10:00,METAR,,,0.0,,,9999.0,,9.0,,30.01,1017.1,,,,,,,,,,,,,,,Clear,72000.0,,,73000.0,,,,,,
KRDR,10-04-2011,09:00,METAR,,,0.0,,,9999.0,,9.0,,30.01,1017.2,,,,,,,,,,,,,,,Clear,72000.0,,,73000.0,,,,,,
KRDR,10-04-2011,08:00,METAR,,340,4.0,,,9999.0,,9.0,,30.02,1017.4,,,,,,,,,,,,,,,Clear,72000.0,,,73000.0,,,,,,
KRDR,10-04-2011,07:00,METAR,,320,3.0,,,9999.0,,12.0,11.0,30.02,1017.5,,,,,,,,,,,,,,,Clear,72000.0,,,73000.0,,,,,,
KRDR,10-04-2011,06:00,METAR,,340,6.0,,,9999.0,,12.0,11.0,30.02,1017.5,,,,,,,,,,,,,,,Clear,72000.0,,,73000.0,,,,,,
KRDR,10-04-2011,05:00,METAR,,350,6.0,,,9999.0,,14.0,11.0,30.02,1017.5,,,,,,,,,,,,,,,Clear,72000.0,,,73000.0,,,,,,
KRDR,10-04-2011,04:00,METAR,,350,6.0,,,9999.0,,15.0,10.0,30.02,1017.6,,,,,,,,,,,,,,,Clear,72000.0,,,73000.0,,,,,,
KRDR,10-04-2011,03:00,METAR,,350,6.0,,,9999.0,,16.0,10.0,30.02,1017.4,,,,,,,,,,,,,,,Clear,72000.0,,,73000.0,,,,,,
KRDR,10-04-2011,02:00,METAR,,20,4.0,,,9999.0,,16.0,9.0,30.01,1017.1,,,,,,,,,,,,,,,Clear,72000.0,,,73000.0,,,,,,
KRDR,10-04-2011,01:00,METAR,,290,3.0,,,9999.0,,17.0,9.0,30.00,1017.0,,,,,,,,,,,,,,,Clear,72000.0,,,73000.0,,,,,,
KRDR,10-04-2011,00:00,METAR,,180,6.0,,,9999.0,,22.0,8.0,30.00,1016.8,,,,,,,,,,,,,,,Clear,72000.0,,,73000.0,,,,,,
KRDR,10-03-2011,23:00,METAR,,180,3.0,,,9999.0,,25.0,12.0,29.99,1016.5,,,,,,,,,,,,,,,Clear,72000.0,,,73000.0,,,,,,
KRDR,10-03-2011,22:00,METAR,,210,6.0,,,9999.0,,28.0,8.0,29.98,1016.2,,,,,,,,,,,,,,,Clear,72000.0,,,73000.0,,,,,,
KRDR,10-03-2011,21:00,METAR,,200,7.0,,,9999.0,,27.0,8.0,29.98,1016.3,,,,,,,,,,,,,,,Clear,72000.0,,,73000.0,,,,,,
KRDR,10-03-2011,20:00,METAR,,200,11.0,18.0,,9999.0,,26.0,7.0,29.99,1016.5,,,,,,,,,,,,,,,Clear,72000.0,,,73000.0,,,,,,
KRDR,10-03-2011,19:00,METAR,,180,12.0,,,9999.0,,25.0,8.0,30.00,1016.8,,,,,,,,,,,,,,,Clear,72000.0,,,73000.0,,,,,,
KRDR,10-03-2011,18:00,METAR,,150,8.0,,,9999.0,,23.0,8.0,30.02,1017.6,,,,,,,,,,,,,,,Clear,72000.0,,,73000.0,,,,,,
KRDR,10-03-2011,17:00,METAR,,180,8.0,,,9999.0,,21.0,7.0,30.03,1017.7,,,,,,,,,,,,,,,Clear,72000.0,,,73000.0,,,,,,
KRDR,10-03-2011,16:00,METAR,,170,7.0,,,9999.0,,19.0,7.0,30.03,1017.9,,,,,,,,,,,,,,,Clear,72000.0,,,73000.0,,,,,,
KRDR,10-03-2011,15:00,METAR,,170,4.0,,,9999.0,,16.0,7.0,30.03,1017.9,,,,,,,,,,,,,,,Clear,72000.0,,,73000.0,,,,,,
KRDR,10-03-2011,14:00,METAR,,160,4.0,,,9999.0,,13.0,7.0,30.02,1017.4,,,,,,,,,,,,,,,Clear,72000.0,,,73000.0,,,,,,
KRDR,10-03-2011,13:00,METAR,,160,4.0,,,9999.0,,10.0,6.0,30.00,1016.9,,,,,,,,,,,,,,,Clear,72000.0,,,73000.0,,,,,,
KRDR,10-03-2011,12:00,METAR,,190,3.0,,,9999.0,,10.0,6.0,30.01,1017.1,,,,,,,,,,,,,,,Clear,72000.0,,,73000.0,,,,,,
KRDR,10-03-2011,11:00,METAR,,160,7.0,,,9999.0,,11.0,6.0,29.99,1016.7,,,,,,,,,,,,,,,Clear,72000.0,,,73000.0,,,,,,
KRDR,10-03-2011,10:00,METAR,,170,7.0,,,9999.0,,10.0,6.0,29.99,1016.4,,,,,,,,,,,,,,,Clear,72000.0,,,73000.0,,,,,,
KRDR,10-03-2011,09:00,METAR,,170,7.0,,,9999.0,,12.0,6.0,29.98,1016.2,,,,,,,,,,,,,,,Clear,72000.0,,,73000.0,,,,,,
KRDR,10-03-2011,08:00,METAR,,170,7.0,,,9999.0,,12.0,7.0,29.98,1016.3,,,,,,,,,,,,,,,Clear,72000.0,,,73000.0,,,,,,
KRDR,10-03-2011,07:00,METAR,,170,9.0,,,9999.0,,12.0,7.0,29.98,1016.3,,,,,,,,,,,,,,,Clear,72000.0,,,73000.0,,,,,,
KRDR,10-03-2011,06:00,METAR,,190,5.0,,,9999.0,,13.0,7.0,29.98,1016.3,,,,,,,,,,,,,,,Clear,72000.0,,,73000.0,,,,,,
KRDR,10-03-2011,05:00,METAR,,170,7.0,,,9999.0,,14.0,7.0,29.98,1016.1,,,,,,,,,,,,,,,Clear,72000.0,,,73000.0,,,,,,
KRDR,10-03-2011,04:00,METAR,,160,7.0,,,9999.0,,15.0,8.0,29.97,1015.7,,,,,,,,,,,,,,,Clear,72000.0,,,73000.0,,,,,,
KRDR,10-03-2011,03:00,METAR,,150,7.0,,,9999.0,,15.0,8.0,29.96,1015.4,,,,,,,,,,,,,,,Clear,72000.0,,,73000.0,,,,,,
KRDR,10-03-2011,02:00,METAR,,150,6.0,,,9999.0,,16.0,8.0,29.96,1015.4,,,,,,,,,,,,,,,Clear,72000.0,,,73000.0,,,,,,
KRDR,10-03-2011,01:00,METAR,,140,8.0,,,9999.0,,20.0,8.0,29.95,1015.2,,,,,,,,,,,,,,,Clear,72000.0,,,73000.0,,,,,,
KRDR,10-03-2011,00:00,METAR,,150,9.0,,,9999.0,,22.0,9.0,29.95,1015.1,,,,,,,,,,,,,,,Clear,72000.0,,,73000.0,,,,,,
KRDR,10-02-2011,23:00,METAR,,160,8.0,,,9999.0,,25.0,9.0,29.94,1014.8,,,,,,,,,,,,,,,Clear,72000.0,,,73000.0,,,,,,
KRDR,10-02-2011,22:00,METAR,,180,11.0,,,9999.0,,26.0,8.0,29.94,1014.8,,,,,,,,,,,,,,,Clear,72000.0,,,73000.0,,,,,,
KRDR,10-02-2011,21:00,METAR,,170,10.0,,,9999.0,,26.0,7.0,29.95,1015.1,,,,,,,,,,,,,,,Clear,72000.0,,,73000.0,,,,,,
KRDR,10-02-2011,20:00,METAR,,170,14.0,,,9999.0,,25.0,7.0,29.96,1015.5,,,,,,,,,,,,,,,Clear,72000.0,,,73000.0,,,,,,
KRDR,10-02-2011,19:00,METAR,,150,11.0,,,9999.0,,23.0,7.0,29.98,1016.0,,,,,,,,,,,,,,,Clear,72000.0,,,73000.0,,,,,,
KRDR,10-02-2011,18:00,METAR,,160,11.0,,,9999.0,,21.0,7.0,30.00,1016.7,,,,,,,,,,,,,,,Clear,72000.0,,,73000.0,,,,,,
KRDR,10-02-2011,17:00,METAR,,150,9.0,,,9999.0,,18.0,7.0,30.01,1017.0,,,,,,,,,,,,,,,Clear,72000.0,,,73000.0,,,,,,
KRDR,10-02-2011,16:00,METAR,,180,8.0,,,9999.0,,16.0,6.0,30.02,1017.6,,,,,,,,,,,,,,,Clear,72000.0,,,73000.0,,,,,,
KRDR,10-02-2011,15:00,METAR,,170,8.0,,,9999.0,,13.0,6.0,30.02,1017.5,,,,,,,,,,,,,,,Clear,72000.0,,,73000.0,,,,,,
KRDR,10-02-2011,14:00,METAR,,170,6.0,,,9999.0,,10.0,5.0,30.01,1017.3,,,,,,,,,,,,,,,Clear,72000.0,,,73000.0,,,,,,
KRDR,10-02-2011,13:00,METAR,,150,7.0,,,9999.0,,6.0,5.0,30.01,1017.2,,,,,,,,,,,,,,,Clear,72000.0,,,73000.0,,,,,,
KRDR,10-02-2011,12:00,METAR,,130,5.0,,,9999.0,,6.0,5.0,30.02,1017.4,,,,,,,,,,,,,,,Clear,72000.0,,,73000.0,,,,,,
KRDR,10-02-2011,11:00,METAR,,,0.0,,,9999.0,,8.0,5.0,30.00,1017.0,,,,,,,,,,,,,,,Clear,72000.0,,,73000.0,,,,,,
KRDR,10-02-2011,10:00,METAR,,190,6.0,,,9999.0,,8.0,5.0,29.99,1016.5,,,,,,,,,,,,,,,Clear,72000.0,,,73000.0,,,,,,
KRDR,10-02-2011,09:00,METAR,,190,7.0,,,9999.0,,9.0,5.0,29.98,1016.3,,,,,,,,,,,,,,,Clear,72000.0,,,73000.0,,,,,,
KRDR,10-02-2011,08:00,METAR,,190,7.0,,,9999.0,,8.0,5.0,29.98,1016.3,,,,,,,,,,,,,,,Clear,72000.0,,,73000.0,,,,,,
KRDR,10-02-2011,07:00,METAR,,190,5.0,,,9999.0,,9.0,5.0,29.99,1016.4,,,,,,,,,,,,,,,Clear,72000.0,,,73000.0,,,,,,
KRDR,10-02-2011,06:00,METAR,,180,6.0,,,9999.0,,10.0,5.0,29.99,1016.5,,,,,,,,,,,,,,,Clear,72000.0,,,73000.0,,,,,,
KRDR,10-02-2011,05:00,METAR,,170,5.0,,,9999.0,,11.0,5.0,29.99,1016.4,,,,,,,,,,,,,,,Clear,72000.0,,,73000.0,,,,,,
KRDR,10-02-2011,04:00,METAR,,180,7.0,,,9999.0,,12.0,5.0,29.98,1016.1,,,,,,,,,,,,,,,Clear,72000.0,,,73000.0,,,,,,
KRDR,10-02-2011,03:00,METAR,,160,9.0,,,9999.0,,14.0,5.0,29.97,1015.9,,,,,,,,,,,,,,,Clear,72000.0,,,73000.0,,,,,,
KRDR,10-02-2011,02:00,METAR,,150,7.0,,,9999.0,,15.0,6.0,29.97,1015.9,,,,,,,,,,,,,,,Clear,72000.0,,,73000.0,,,,,,
KRDR,10-02-2011,01:00,METAR,,170,6.0,,,9999.0,,15.0,6.0,29.97,1015.8,,,,,,,,,,,,,,,Clear,72000.0,,,73000.0,,,,,,
KRDR,10-02-2011,00:00,METAR,,190,8.0,,,9999.0,,21.0,6.0,29.97,1015.8,,,,,,,,,,,,,,,Clear,72000.0,,,73000.0,,,,,,
KRDR,10-01-2011,23:00,METAR,,160,14.0,,,9999.0,,23.0,6.0,29.95,1015.2,,,,,,,,,,,,,,,Clear,72000.0,,,73000.0,,,,,,
KRDR,10-01-2011,22:00,METAR,,180,19.0,25.0,180/26KTS,9999.0,,23.0,5.0,29.96,1015.5,,,,,,,,,,,,,,,Clear,72000.0,,,73000.0,,,,,,
KRDR,10-01-2011,21:00,METAR,,180,19.0,26.0,190/28KTS,9999.0,,23.0,4.0,29.97,1015.7,,,,,,,,,,,,,,,Clear,72000.0,,,73000.0,,,,,,
KRDR,10-01-2011,20:00,METAR,,180,21.0,27.0,190/28KTS,9999.0,,22.0,4.0,29.98,1016.0,,,,,,,,,,,,,,,Clear,72000.0,,,73000.0,,,,,,
KRDR,10-01-2011,19:00,METAR,,190,22.0,,180/29KTS,9999.0,,21.0,3.0,30.01,1017.0,,,,,,,,,,,,,,,Clear,72000.0,,,73000.0,,,,,,
KRDR,10-01-2011,18:00,METAR,,180,18.0,,,9999.0,,19.0,3.0,30.03,1017.8,,,,,,,,,,,,,,,Clear,72000.0,,,73000.0,,,,,,
KRDR,10-01-2011,17:00,METAR,,180,18.0,24.0,160/26KTS,9999.0,,16.0,3.0,30.05,1018.5,,,,,,,,,,,,,,,Clear,72000.0,,,73000.0,,,,,,
KRDR,10-01-2011,16:00,METAR,,180,19.0,,180/26KTS,9999.0,,13.0,2.0,30.06,1018.9,,,,,,,,,,,,,,,Clear,72000.0,,,73000.0,,,,,,
KRDR,10-01-2011,15:00,METAR,,170,16.0,23.0,,9999.0,,11.0,2.0,30.08,1019.4,,,,,,,,,,,,,,,Clear,72000.0,,,73000.0,,,,,,
KRDR,10-01-2011,14:00,METAR,,170,15.0,23.0,,9999.0,,8.0,1.0,30.09,1019.7,,,,,,,,,,,,,,,Clear,72000.0,,,73000.0,,,,,,
KRDR,10-01-2011,13:00,METAR,,170,16.0,,,9999.0,,7.0,1.0,30.11,1020.3,,,,,,,,,,,,,,,Clear,72000.0,,,73000.0,,,,,,
KRDR,10-01-2011,12:00,METAR,,170,16.0,,,9999.0,,7.0,1.0,30.11,1020.4,,,,,,,,,,,,,,,Clear,72000.0,,,73000.0,,,,,,
KRDR,10-01-2011,11:00,METAR,,180,15.0,,,9999.0,,7.0,1.0,30.11,1020.6,,,,,,,,,,,,,,,Clear,72000.0,,,73000.0,,,,,,
KRDR,10-01-2011,10:00,METAR,,170,12.0,,,9999.0,,7.0,1.0,30.11,1020.6,,,,,,,,,,,,,,,Clear,72000.0,,,73000.0,,,,,,
KRDR,10-01-2011,09:00,METAR,,170,15.0,,,9999.0,,7.0,1.0,30.12,1020.7,,,,,,,,,,,,,,,Clear,72000.0,,,73000.0,,,,,,
KRDR,10-01-2011,08:00,METAR,,170,13.0,,,9999.0,,6.0,1.0,30.13,1021.2,,,,,,,,,,,,,,,Clear,72000.0,,,73000.0,,,,,,
KRDR,10-01-2011,07:00,METAR,,160,8.0,,,9999.0,,5.0,1.0,30.14,1021.4,,,,,,,,,,,,,,,Clear,72000.0,,,73000.0,,,,,,
KRDR,10-01-2011,06:00,METAR,,150,7.0,,,9999.0,,4.0,1.0,30.14,1021.6,,,,,,,,,,,,,,,Clear,72000.0,,,73000.0,,,,,,
KRDR,10-01-2011,05:00,METAR,,140,8.0,,,9999.0,,5.0,0.0,30.15,1021.8,,,,,,,,,,,,,,,Clear,72000.0,,,73000.0,,,,,,
KRDR,10-01-2011,04:00,METAR,,140,8.0,,,9999.0,,6.0,0.0,30.17,1022.4,,,,,,,,,,,,,,,Clear,72000.0,,,73000.0,,,,,,
KRDR,10-01-2011,03:18,SPECI,,150,8.0,,,6400.0,Haze Smoke or Dust,6.0,1.0,30.17,1022.4,4,,,,,,,,,,,,,,Clear,72000.0,,,73000.0,,,,,,
KRDR,10-01-2011,03:16,SPECI,,150,8.0,,,3200.0,Haze Smoke or Dust,6.0,1.0,30.17,1022.4,4,,,,,,,,,,,,,,Clear,72000.0,,,73000.0,,,,,,
KRDR,10-01-2011,03:14,SPECI,,140,8.0,,,2400.0,Haze Smoke or Dust,6.0,1.0,30.17,1022.4,4,,,,,,,,,,,,,,Clear,72000.0,,,73000.0,,,,,,
KRDR,10-01-2011,03:12,SPECI,,150,8.0,,,2000.0,Haze Smoke or Dust,6.0,1.0,30.17,1022.4,4,,,,,,,,,,,,,,Clear,72000.0,,,73000.0,,,,,,
KRDR,10-01-2011,03:11,SPECI,,140,8.0,,,1600.0,Haze Smoke or Dust,6.0,1.0,30.17,1022.4,4,,,,,,,,,,,,,,Clear,72000.0,,,73000.0,,,,,,
KRDR,10-01-2011,03:00,METAR,,140,7.0,,,1600.0,Haze Smoke or Dust,7.0,1.0,30.17,1022.3,4,,,,,,,,,,,,,,Clear,72000.0,,,73000.0,,,,,,
KRDR,10-01-2011,02:37,SPECI,,140,8.0,,,9999.0,,7.0,0.0,30.16,,,,,,,,,,,,,,,,Clear,72000.0,,,73000.0,,,,,,
KRDR,10-01-2011,02:23,SPECI,,150,6.0,,,1600.0,Haze Smoke or Dust,6.0,1.0,30.17,1022.4,4,,,,,,,,,,,,,,Clear,72000.0,,,73000.0,,,,,,
KRDR,10-01-2011,02:13,SPECI,,150,6.0,,,1600.0,Haze Smoke or Dust,7.0,1.0,30.17,1022.4,4,,,,,,,,,,,,,,Clear,72000.0,,,73000.0,,,,,,
KRDR,10-01-2011,02:00,METAR,,160,7.0,,,9999.0,,7.0,1.0,30.17,1022.3,,,,,,,,,,,,,,,Clear,72000.0,,,73000.0,,,,,,
KRDR,10-01-2011,01:00,METAR,,190,4.0,,,9999.0,,8.0,1.0,30.17,1022.4,,,,,,,,,,,,,,,Clear,72000.0,,,73000.0,,,,,,
KRDR,10-01-2011,00:00,METAR,,150,6.0,,,9999.0,,12.0,1.0,30.18,1022.8,,,,,,,,,,,,,,,Clear,72000.0,,,73000.0,,,,,,
KRDR,09-30-2011,23:00,METAR,,150,8.0,,,9999.0,,15.0,-1.0,30.20,1023.3,,,,,,,,,,,,,,,Clear,72000.0,,,73000.0,,,,,,
KRDR,09-30-2011,22:00,METAR,,150,6.0,,,9999.0,,15.0,-1.0,30.21,1023.7,,,,,,,,,,,,,,,Clear,72000.0,,,73000.0,,,,,,
KRDR,09-30-2011,21:00,METAR,,160,8.0,,,9999.0,,15.0,-1.0,30.23,1024.4,,,,,,,,,,,,,,,Clear,72000.0,,,73000.0,,,,,,
KRDR,09-30-2011,20:00,METAR,,190,5.0,,,9999.0,,14.0,-1.0,30.25,1025.2,,,,,,,,,,,,,,,Clear,72000.0,,,73000.0,,,,,,
KRDR,09-30-2011,19:36,SPECI,,150,4.0,,,9999.0,,14.0,-1.0,,,,,,,,,,,,,,,,,Clear,72000.0,,,73000.0,,,,,,
KRDR,09-30-2011,19:00,METAR,,140,7.0,,,9999.0,,13.0,0.0,30.28,1026.1,,,,,,,,,,,,,,,Clear,72000.0,,,73000.0,,,,,,
KRDR,09-30-2011,18:00,METAR,,,3.0,,,9999.0,,12.0,3.0,30.31,1026.9,,,,,,,,,,,,,,,Clear,72000.0,,,73000.0,,,,,,
KRDR,09-30-2011,17:00,METAR,,,3.0,,,9999.0,,11.0,4.0,30.33,1027.6,,,,,,,,,,,,,,,Clear,72000.0,,,73000.0,,,,,,
KRDR,09-30-2011,16:00,METAR,,70,3.0,,,9999.0,,9.0,4.0,30.34,1027.9,,,,,,,,,,,,,,,Clear,72000.0,,,73000.0,,,,,,
KRDR,09-30-2011,15:00,METAR,,30,5.0,,,9999.0,,7.0,6.0,30.34,1027.9,,,,,,,,,,,,,,,Clear,72000.0,,,73000.0,,,,,,
KRDR,09-30-2011,14:00,METAR,,360,4.0,,,9999.0,,4.0,4.0,30.33,1027.7,,,,,,,,,,,,,,,Clear,72000.0,,,73000.0,,,,,,
KRDR,09-30-2011,13:00,METAR,,,0.0,,,9999.0,,1.0,1.0,30.32,1027.3,,,,,,,,,,,,,,,Clear,72000.0,,,73000.0,,,,,,
KRDR,09-30-2011,12:00,METAR,,340,5.0,,,9999.0,,1.0,1.0,30.31,1027.2,,,,,,,,,,,,,,,Clear,72000.0,,,73000.0,,,,,,
KRDR,09-30-2011,11:00,METAR,,330,5.0,,,9999.0,,2.0,2.0,30.32,1027.3,,,,,,,,,,,,,,,Clear,72000.0,,,73000.0,,,,,,
KRDR,09-30-2011,10:00,METAR,,330,5.0,,,9999.0,,2.0,2.0,30.31,1027.1,,,,,,,,,,,,,,,Clear,72000.0,,,73000.0,,,,,,
KRDR,09-30-2011,09:00,METAR,,310,5.0,,,9999.0,,2.0,2.0,30.30,1026.7,,,,,,,,,,,,,,,Clear,72000.0,,,73000.0,,,,,,
KRDR,09-30-2011,08:00,METAR,,320,4.0,,,9999.0,,3.0,3.0,30.30,1026.7,,,,,,,,,,,,,,,Clear,72000.0,,,73000.0,,,,,,
KRDR,09-30-2011,07:00,METAR,,340,5.0,,,9999.0,,5.0,4.0,30.30,1026.8,,,,,,,,,,,,,,,Clear,72000.0,,,73000.0,,,,,,
KRDR,09-30-2011,06:00,METAR,,360,7.0,,,9999.0,,6.0,5.0,30.30,1026.8,,,,,,,,,,,,,,,Clear,72000.0,,,73000.0,,,,,,
KRDR,09-30-2011,05:00,METAR,,10,8.0,,,9999.0,,7.0,5.0,30.28,1026.1,,,,,,,,,,,,,,,Clear,72000.0,,,73000.0,,,,,,
KRDR,09-30-2011,04:00,METAR,,350,7.0,,,9999.0,,8.0,5.0,30.28,1026.0,,,,,,,,,,,,,,,Clear,72000.0,,,73000.0,,,,,,
KRDR,09-30-2011,03:00,METAR,,320,5.0,,,9999.0,,5.0,4.0,30.26,1025.5,,,,,,,,,,,,,,,Clear,72000.0,,,73000.0,,,,,,
KRDR,09-30-2011,02:00,METAR,,350,4.0,,,9999.0,,7.0,3.0,30.25,1025.2,,,,,,,,,,,,,,,Clear,72000.0,,,73000.0,,,,,,
KRDR,09-30-2011,01:00,METAR,,360,6.0,,,9999.0,,11.0,4.0,30.25,1025.1,,,,,,,,,,,,,,,Clear,72000.0,,,73000.0,,,,,,
KRDR,09-30-2011,00:00,METAR,,10,10.0,,,9999.0,,14.0,5.0,30.23,1024.4,,,,,,,,,,,,,,,Clear,72000.0,,,73000.0,,,,,,
KRDR,09-29-2011,23:00,METAR,,360,15.0,27.0,350/28KTS,9999.0,,15.0,5.0,30.23,1024.3,,,,,,,,,,,,,,,2/8 Mostly Clear,72000.0,,FEW,4700.0,,,,,,
KRDR,09-29-2011,22:00,METAR,,360,19.0,25.0,350/30KTS,9999.0,,16.0,7.0,30.21,1023.9,,,,,,,,,,,,,,,8/8 Overcast,4800.0,,OVC,4900.0,,,,,,
KRDR,09-29-2011,21:00,METAR,,360,18.0,23.0,360/28KTS,9999.0,,17.0,7.0,30.19,1023.1,,,,,,,,,,,,,,,7/8 Mostly Cloudy,4900.0,,BKN,5000.0,,,,,,
KRDR,09-29-2011,20:00,METAR,,350,18.0,27.0,350/30KTS,9999.0,,18.0,7.0,30.17,1022.4,,,,,,,,,,,,,,,7/8 Mostly Cloudy,4200.0,,BKN,4300.0,,,,,,
KRDR,09-29-2011,19:00,METAR,,360,21.0,30.0,020/34KTS,9999.0,,17.0,8.0,30.16,1022.1,,,,,,,,,,,,,,,7/8 Mostly Cloudy,3600.0,,BKN,3700.0,,,,,,
KRDR,09-29-2011,18:00,METAR,,360,20.0,29.0,010/31KTS,9999.0,,17.0,8.0,30.13,1021.2,,,,,,,,,,,,,,,4/8 Partly Cloudy,72000.0,,SCT,3600.0,,,,,,
KRDR,09-29-2011,17:00,METAR,,350,23.0,28.0,350/28KTS,9999.0,,17.0,8.0,30.12,1020.7,,,,,,,,,,,,,,,Clear,72000.0,,,73000.0,,,,,,
KRDR,09-29-2011,16:00,METAR,,350,20.0,25.0,340/26KTS,9999.0,,15.0,7.0,30.09,1020.0,,,,,,,,,,,,,,,Clear,72000.0,,,73000.0,,,,,,
KRDR,09-29-2011,15:00,METAR,,350,17.0,24.0,,9999.0,,14.0,7.0,30.08,1019.4,,,,,,,,,,,,,,,Clear,72000.0,,,73000.0,,,,,,
KRDR,09-29-2011,14:00,METAR,,340,14.0,20.0,,9999.0,,12.0,6.0,30.06,1018.7,,,,,,,,,,,,,,,Clear,72000.0,,,73000.0,,,,,,
KRDR,09-29-2011,13:00,METAR,,330,13.0,,,9999.0,,11.0,5.0,30.01,1017.3,,,,,,,,,,,,,,,Clear,72000.0,,,73000.0,,,,,,
KRDR,09-29-2011,12:00,METAR,,330,15.0,20.0,,9999.0,,11.0,5.0,29.98,1016.2,,,,,,,,,,,,,,,Clear,72000.0,,,73000.0,,,,,,
KRDR,09-29-2011,11:00,METAR,,320,13.0,18.0,,9999.0,,11.0,6.0,29.95,1015.2,,,,,,,,,,,,,,,Clear,72000.0,,,73000.0,,,,,,
KRDR,09-29-2011,10:00,METAR,,310,11.0,,,9999.0,,11.0,6.0,29.94,1014.8,,,,,,,,,,,,,,,Clear,72000.0,,,73000.0,,,,,,
KRDR,09-29-2011,09:00,METAR,,320,11.0,,,9999.0,,12.0,7.0,29.92,1014.3,,,,,,,,,,,,,,,Clear,72000.0,,,73000.0,,,,,,
KRDR,09-29-2011,08:00,METAR,,330,13.0,,,9999.0,,13.0,8.0,29.92,1014.1,,,,,,,,,,,,,,,Clear,72000.0,,,73000.0,,,,,,
KRDR,09-29-2011,07:00,METAR,,320,12.0,,,9999.0,,15.0,7.0,29.88,1013.0,,,,,,,,,,,,,,,4/8 Partly Cloudy,72000.0,,SCT,12000.0,,,,,,
KRDR,09-29-2011,06:00,METAR,,320,7.0,,,9999.0,,15.0,9.0,29.87,1012.5,,,,,,,,,,,TRACE,,TRACE,,8/8 Overcast,10000.0,,SCT,9900.0,OVC,12000.0,,,,
KRDR,09-29-2011,05:14,SPECI,,360,9.0,18.0,,9999.0,,15.0,10.0,29.86,1012.2,,,,,,,,,,,,,,,8/8 Overcast,7500.0,,BKN,7400.0,OVC,8900.0,,,,
KRDR,09-29-2011,05:01,SPECI,,360,13.0,,,9999.0,Light Rain,16.0,9.0,29.86,1012.3,61,,,,,,,,,,,,,,7/8 Mostly Cloudy,7500.0,,BKN,7400.0,BKN,8900.0,,,,
KRDR,09-29-2011,05:00,METAR,,350,15.0,20.0,,9999.0,,17.0,9.0,29.86,1012.3,,,,,,,,,,,,,,,7/8 Mostly Cloudy,7000.0,,BKN,6900.0,,,,,,
KRDR,09-29-2011,04:00,METAR,,330,9.0,,,9999.0,,16.0,9.0,29.84,1011.6,,,,,,,,,,,,,,,4/8 Partly Cloudy,72000.0,,FEW,7900.0,SCT,9900.0,,,,
KRDR,09-29-2011,03:00,METAR,,300,7.0,,,9999.0,,15.0,9.0,29.81,1010.5,,,,,,,,,,,,,,,Clear,72000.0,,,73000.0,,,,,,
KRDR,09-29-2011,02:00,METAR,,300,7.0,,,9999.0,,17.0,9.0,29.80,1010.1,,,,,,,,,,,,,,,Clear,72000.0,,,73000.0,,,,,,
KRDR,09-29-2011,01:00,METAR,,300,11.0,,,9999.0,,20.0,8.0,29.78,1009.7,,,,,,,,,,,,,,,Clear,72000.0,,,73000.0,,,,,,
KRDR,09-29-2011,00:00,METAR,,280,11.0,,,9999.0,,23.0,6.0,29.77,1009.3,,,,,,,,,,,,,,,2/8 Mostly Clear,72000.0,,FEW,12000.0,,,,,,
KRDR,09-28-2011,23:00,METAR,,300,9.0,,,9999.0,,24.0,6.0,29.76,1008.8,,,,,,,,,,,,,,,8/8 Overcast,12000.0,,OVC,12000.0,,,,,,
KRDR,09-28-2011,22:00,METAR,,310,11.0,,,9999.0,,25.0,7.0,29.75,1008.7,,,,,,,,,,,,,,,Clear,72000.0,,,73000.0,,,,,,
KRDR,09-28-2011,21:00,METAR,,290,12.0,19.0,,9999.0,,28.0,9.0,29.74,1008.4,,,,,,,,,,,,,,,Clear,72000.0,,,73000.0,,,,,,
KRDR,09-28-2011,20:00,METAR,,300,15.0,,,9999.0,,29.0,10.0,29.75,1008.4,,,,,,,,,,,,,,,Clear,72000.0,,,73000.0,,,,,,
KRDR,09-28-2011,19:00,METAR,,,0.0,,,9999.0,,29.0,11.0,29.75,1008.4,,,,,,,,,,,,,,,Clear,72000.0,,,73000.0,,,,,,
KRDR,09-28-2011,18:00,METAR,,,0.0,,,9999.0,,27.0,12.0,29.76,1008.8,,,,,,,,,,,,,,,Clear,72000.0,,,73000.0,,,,,,
KRDR,09-28-2011,17:00,METAR,,250,3.0,,,9999.0,,25.0,11.0,29.76,1008.9,,,,,,,,,,,,,,,Clear,72000.0,,,73000.0,,,,,,
KRDR,09-28-2011,16:00,METAR,,300,5.0,,,9999.0,,22.0,11.0,29.77,1009.3,,,,,,,,,,,,,,,Clear,72000.0,,,73000.0,,,,,,
KRDR,09-28-2011,15:00,METAR,,190,3.0,,,9999.0,,18.0,10.0,29.77,1009.4,,,,,,,,,,,,,,,Clear,72000.0,,,73000.0,,,,,,
KRDR,09-28-2011,14:00,METAR,,190,4.0,,,9999.0,,14.0,9.0,29.78,1009.5,,,,,,,,,,,,,,,Clear,72000.0,,,73000.0,,,,,,
KRDR,09-28-2011,13:00,METAR,,160,4.0,,,9999.0,,9.0,7.0,29.77,1009.2,,,,,,,,,,,,,,,Clear,72000.0,,,73000.0,,,,,,
KRDR,09-28-2011,12:00,METAR,,,0.0,,,9999.0,,9.0,7.0,29.76,1009.0,,,,,,,,,,,,,,,Clear,72000.0,,,73000.0,,,,,,
KRDR,09-28-2011,11:00,METAR,,180,5.0,,,9999.0,,10.0,6.0,29.76,1009.0,,,,,,,,,,,,,,,Clear,72000.0,,,73000.0,,,,,,
KRDR,09-28-2011,10:00,METAR,,180,7.0,,,9999.0,,10.0,6.0,29.77,1009.4,,,,,,,,,,,,,,,Clear,72000.0,,,73000.0,,,,,,
KRDR,09-28-2011,09:00,METAR,,230,6.0,,,9999.0,,11.0,6.0,29.79,1009.8,,,,,,,,,,,,,,,Clear,72000.0,,,73000.0,,,,,,
KRDR,09-28-2011,08:00,METAR,,250,5.0,,,9999.0,,10.0,7.0,29.80,1010.2,,,,,,,,,,,,,,,Clear,72000.0,,,73000.0,,,,,,
KRDR,09-28-2011,07:00,METAR,,210,4.0,,,9999.0,,11.0,7.0,29.80,1010.4,,,,,,,,,,,,,,,Clear,72000.0,,,73000.0,,,,,,
KRDR,09-28-2011,06:00,METAR,,230,4.0,,,9999.0,,11.0,7.0,29.81,1010.7,,,,,,,,,,,,,,,Clear,72000.0,,,73000.0,,,,,,
KRDR,09-28-2011,05:00,METAR,,230,4.0,,,9999.0,,12.0,8.0,29.82,1011.0,,,,,,,,,,,,,,,Clear,72000.0,,,73000.0,,,,,,
KRDR,09-28-2011,04:00,METAR,,240,4.0,,,9999.0,,11.0,9.0,29.83,1011.1,,,,,,,,,,,,,,,Clear,72000.0,,,73000.0,,,,,,
KRDR,09-28-2011,03:00,METAR,,220,6.0,,,9999.0,,11.0,9.0,29.84,1011.5,,,,,,,,,,,,,,,Clear,72000.0,,,73000.0,,,,,,
KRDR,09-28-2011,02:00,METAR,,210,4.0,,,9999.0,,13.0,9.0,29.84,1011.5,,,,,,,,,,,,,,,Clear,72000.0,,,73000.0,,,,,,
KRDR,09-28-2011,01:00,METAR,,250,5.0,,,9999.0,,16.0,9.0,29.85,1011.9,,,,,,,,,,,,,,,Clear,72000.0,,,73000.0,,,,,,
KRDR,09-28-2011,00:00,METAR,,260,5.0,,,9999.0,,21.0,9.0,29.85,1012.0,,,,,,,,,,,,,,,Clear,72000.0,,,73000.0,,,,,,
KRDR,09-27-2011,23:00,METAR,,260,5.0,,,9999.0,,25.0,8.0,29.85,1011.8,,,,,,,,,,,,,,,Clear,72000.0,,,73000.0,,,,,,
KRDR,09-27-2011,22:00,METAR,,340,7.0,,,9999.0,,27.0,6.0,29.85,1011.8,,,,,,,,,,,,,,,Clear,72000.0,,,73000.0,,,,,,
KRDR,09-27-2011,21:00,METAR,,290,7.0,,,9999.0,,27.0,6.0,29.86,1012.3,,,,,,,,,,,,,,,Clear,72000.0,,,73000.0,,,,,,
KRDR,09-27-2011,20:00,METAR,,,3.0,,,9999.0,,26.0,8.0,29.87,1012.7,,,,,,,,,,,,,,,Clear,72000.0,,,73000.0,,,,,,
KRDR,09-27-2011,19:00,METAR,,230,4.0,,,9999.0,,25.0,9.0,29.89,1013.4,,,,,,,,,,,,,,,Clear,72000.0,,,73000.0,,,,,,
KRDR,09-27-2011,18:00,METAR,,,4.0,,,9999.0,,24.0,11.0,29.91,1014.0,,,,,,,,,,,,,,,Clear,72000.0,,,73000.0,,,,,,
KRDR,09-27-2011,17:00,METAR,,280,3.0,,,9999.0,,22.0,11.0,29.93,1014.6,,,,,,,,,,,,,,,Clear,72000.0,,,73000.0,,,,,,
KRDR,09-27-2011,16:00,METAR,,220,4.0,,,9999.0,,19.0,11.0,29.94,1014.9,,,,,,,,,,,,,,,Clear,72000.0,,,73000.0,,,,,,
KRDR,09-27-2011,15:00,METAR,,220,6.0,,,9999.0,,16.0,11.0,29.94,1014.9,,,,,,,,,,,,,,,Clear,72000.0,,,73000.0,,,,,,
KRDR,09-27-2011,14:00,METAR,,200,6.0,,,9999.0,,13.0,12.0,29.94,1014.8,,,,,,,,,,,,,,,Clear,72000.0,,,73000.0,,,,,,
KRDR,09-27-2011,13:00,METAR,,180,5.0,,,9999.0,,10.0,10.0,29.94,1014.8,,,,,,,,,,,,,,,Clear,72000.0,,,73000.0,,,,,,
KRDR,09-27-2011,12:00,METAR,,190,5.0,,,9999.0,,8.0,8.0,29.93,1014.4,,,,,,,,,,,,,,,Clear,72000.0,,,73000.0,,,,,,
KRDR,09-27-2011,11:00,METAR,,190,6.0,,,9999.0,,9.0,9.0,29.93,1014.6,,,,,,,,,,,,,,,Clear,72000.0,,,73000.0,,,,,,
KRDR,09-27-2011,10:00,METAR,,190,4.0,,,9999.0,,9.0,9.0,29.94,1015.0,,,,,,,,,,,,,,,Clear,72000.0,,,73000.0,,,,,,
KRDR,09-27-2011,09:00,METAR,,210,3.0,,,9999.0,,9.0,9.0,29.94,1014.7,,,,,,,,,,,,,,,Clear,72000.0,,,73000.0,,,,,,
KRDR,09-27-2011,08:00,METAR,,160,4.0,,,9999.0,,9.0,9.0,29.94,1014.9,,,,,,,,,,,,,,,Clear,72000.0,,,73000.0,,,,,,
KRDR,09-27-2011,07:00,METAR,,250,4.0,,,9999.0,,8.0,8.0,29.94,1015.0,,,,,,,,,,,,,,,Clear,72000.0,,,73000.0,,,,,,
KRDR,09-27-2011,06:00,METAR,,220,4.0,,,9999.0,,9.0,9.0,29.94,1014.7,,,,,,,,,,,,,,,Clear,72000.0,,,73000.0,,,,,,
KRDR,09-27-2011,05:00,METAR,,200,5.0,,,9999.0,,9.0,9.0,29.94,1014.7,,,,,,,,,,,,,,,Clear,72000.0,,,73000.0,,,,,,
KRDR,09-27-2011,04:00,METAR,,210,4.0,,,9999.0,,9.0,9.0,29.94,1015.0,,,,,,,,,,,,,,,Clear,72000.0,,,73000.0,,,,,,
KRDR,09-27-2011,03:00,METAR,,180,4.0,,,9999.0,,10.0,9.0,29.94,1014.9,,,,,,,,,,,,,,,Clear,72000.0,,,73000.0,,,,,,
KRDR,09-27-2011,02:00,METAR,,200,3.0,,,9999.0,,11.0,10.0,29.95,1015.1,,,,,,,,,,,,,,,Clear,72000.0,,,73000.0,,,,,,
KRDR,09-27-2011,01:00,METAR,,150,4.0,,,9999.0,,14.0,9.0,29.95,1015.2,,,,,,,,,,,,,,,Clear,72000.0,,,73000.0,,,,,,
KRDR,09-27-2011,00:00,METAR,,160,4.0,,,9999.0,,18.0,10.0,29.95,1015.1,,,,,,,,,,,,,,,Clear,72000.0,,,73000.0,,,,,,
KRDR,09-26-2011,23:00,METAR,,180,6.0,,,9999.0,,21.0,9.0,29.95,1015.2,,,,,,,,,,,,,,,Clear,72000.0,,,73000.0,,,,,,
KRDR,09-26-2011,22:00,METAR,,170,12.0,,,9999.0,,22.0,9.0,29.95,1015.2,,,,,,,,,,,,,,,Clear,72000.0,,,73000.0,,,,,,
KRDR,09-26-2011,21:00,METAR,,180,10.0,,,9999.0,,22.0,9.0,29.96,1015.6,,,,,,,,,,,,,,,Clear,72000.0,,,73000.0,,,,,,
KRDR,09-26-2011,20:00,METAR,,160,12.0,,,9999.0,,22.0,9.0,29.97,1015.9,,,,,,,,,,,,,,,Clear,72000.0,,,73000.0,,,,,,
KRDR,09-26-2011,19:00,METAR,,170,10.0,,,9999.0,,20.0,9.0,29.99,1016.5,,,,,,,,,,,,,,,Clear,72000.0,,,73000.0,,,,,,
KRDR,09-26-2011,18:00,METAR,,160,11.0,,,9999.0,,19.0,9.0,30.01,1017.0,,,,,,,,,,,,,,,Clear,72000.0,,,73000.0,,,,,,
KRDR,09-26-2011,17:00,METAR,,170,8.0,,,9999.0,,17.0,9.0,30.02,1017.4,,,,,,,,,,,,,,,Clear,72000.0,,,73000.0,,,,,,
KRDR,09-26-2011,16:00,METAR,,180,8.0,,,9999.0,,15.0,10.0,30.02,1017.6,,,,,,,,,,,,,,,Clear,72000.0,,,73000.0,,,,,,
KRDR,09-26-2011,15:00,METAR,,180,6.0,,,9999.0,,12.0,10.0,30.02,1017.7,,,,,,,,,,,,,,,Clear,72000.0,,,73000.0,,,,,,
KRDR,09-26-2011,14:00,METAR,,140,4.0,,,9999.0,,8.0,8.0,30.02,1017.4,,,,,,,,,,,,,,,Clear,72000.0,,,73000.0,,,,,,
KRDR,09-26-2011,13:00,METAR,,140,5.0,,,9999.0,,5.0,5.0,30.02,1017.5,,,,,,,,,,,,,,,Clear,72000.0,,,73000.0,,,,,,
KRDR,09-26-2011,12:00,METAR,,,0.0,,,9999.0,,4.0,4.0,30.01,1017.3,,,,,,,,,,,,,,,Clear,72000.0,,,73000.0,,,,,,
KRDR,09-26-2011,11:00,METAR,,140,5.0,,,9999.0,,4.0,4.0,30.00,1016.9,,,,,,,,,,,,,,,Clear,72000.0,,,73000.0,,,,,,
KRDR,09-26-2011,10:00,METAR,,160,5.0,,,9999.0,,5.0,5.0,29.99,1016.5,,,,,,,,,,,,,,,Clear,72000.0,,,73000.0,,,,,,
KRDR,09-26-2011,09:00,METAR,,150,4.0,,,9999.0,,7.0,7.0,29.99,1016.4,,,,,,,,,,,,,,,Clear,72000.0,,,73000.0,,,,,,
KRDR,09-26-2011,08:00,METAR,,160,4.0,,,9999.0,,8.0,8.0,29.99,1016.4,,,,,,,,,,,,,,,Clear,72000.0,,,73000.0,,,,,,
KRDR,09-26-2011,07:00,METAR,,170,7.0,,,9999.0,,9.0,8.0,29.98,1016.1,,,,,,,,,,,,,,,Clear,72000.0,,,73000.0,,,,,,
KRDR,09-26-2011,06:00,METAR,,150,7.0,,,9999.0,,9.0,7.0,29.97,1015.9,,,,,,,,,,,,,,,Clear,72000.0,,,73000.0,,,,,,
KRDR,09-26-2011,05:00,METAR,,130,8.0,,,9999.0,,10.0,7.0,29.97,1015.9,,,,,,,,,,,,,,,Clear,72000.0,,,73000.0,,,,,,
KRDR,09-26-2011,04:00,METAR,,160,8.0,,,9999.0,,11.0,7.0,29.96,1015.5,,,,,,,,,,,,,,,Clear,72000.0,,,73000.0,,,,,,
KRDR,09-26-2011,03:00,METAR,,150,8.0,,,9999.0,,12.0,7.0,29.96,1015.4,,,,,,,,,,,,,,,Clear,72000.0,,,73000.0,,,,,,
KRDR,09-26-2011,02:00,METAR,,140,9.0,,,9999.0,,14.0,7.0,29.95,1015.1,,,,,,,,,,,,,,,Clear,72000.0,,,73000.0,,,,,,
KRDR,09-26-2011,01:00,METAR,,140,7.0,,,9999.0,,15.0,7.0,29.93,1014.5,,,,,,,,,,,,,,,Clear,72000.0,,,73000.0,,,,,,
KRDR,09-26-2011,00:00,METAR,,150,8.0,,,9999.0,,19.0,7.0,29.92,1014.3,,,,,,,,,,,,,,,Clear,72000.0,,,73000.0,,,,,,
KRDR,09-25-2011,23:00,METAR,,160,13.0,,,9999.0,,21.0,6.0,29.92,1014.1,,,,,,,,,,,,,,,Clear,72000.0,,,73000.0,,,,,,
KRDR,09-25-2011,22:00,METAR,,160,11.0,18.0,,9999.0,,21.0,5.0,29.92,1014.2,,,,,,,,,,,,,,,Clear,72000.0,,,73000.0,,,,,,
KRDR,09-25-2011,21:00,METAR,,170,14.0,19.0,,9999.0,,22.0,5.0,29.92,1014.2,,,,,,,,,,,,,,,Clear,72000.0,,,73000.0,,,,,,
KRDR,09-25-2011,20:00,METAR,,160,11.0,,,9999.0,,21.0,6.0,29.93,1014.7,,,,,,,,,,,,,,,Clear,72000.0,,,73000.0,,,,,,
KRDR,09-25-2011,19:00,METAR,,160,10.0,18.0,,9999.0,,20.0,8.0,29.95,1015.2,,,,,,,,,,,,,,,Clear,72000.0,,,73000.0,,,,,,
KRDR,09-25-2011,18:00,METAR,,150,13.0,,,9999.0,,19.0,8.0,29.95,1015.3,,,,,,,,,,,,,,,Clear,72000.0,,,73000.0,,,,,,
KRDR,09-25-2011,17:00,METAR,,160,12.0,,,9999.0,,17.0,8.0,29.96,1015.5,,,,,,,,,,,,,,,Clear,72000.0,,,73000.0,,,,,,
KRDR,09-25-2011,16:00,METAR,,180,11.0,,,9999.0,,15.0,8.0,29.95,1015.3,,,,,,,,,,,,,,,Clear,72000.0,,,73000.0,,,,,,
KRDR,09-25-2011,15:00,METAR,,170,12.0,,,9999.0,,12.0,8.0,29.95,1015.3,,,,,,,,,,,,,,,Clear,72000.0,,,73000.0,,,,,,
KRDR,09-25-2011,14:00,METAR,,170,11.0,,,9999.0,,9.0,9.0,29.96,1015.6,,,,,,,,,,,,,,,Clear,72000.0,,,73000.0,,,,,,
KRDR,09-25-2011,13:00,METAR,,150,8.0,,,9999.0,,7.0,7.0,29.96,1015.4,,,,,,,,,,,,,,,Clear,72000.0,,,73000.0,,,,,,
KRDR,09-25-2011,12:00,METAR,,150,7.0,,,9999.0,,6.0,6.0,29.95,1015.3,,,,,,,,,,,,,,,Clear,72000.0,,,73000.0,,,,,,
KRDR,09-25-2011,11:00,METAR,,150,8.0,,,9999.0,,7.0,7.0,29.95,1015.1,,,,,,,,,,,,,,,Clear,72000.0,,,73000.0,,,,,,
KRDR,09-25-2011,10:00,METAR,,150,5.0,,,9999.0,,6.0,6.0,29.94,1014.9,,,,,,,,,,,,,,,Clear,72000.0,,,73000.0,,,,,,
KRDR,09-25-2011,09:00,METAR,,170,7.0,,,9999.0,,8.0,8.0,29.94,1014.8,,,,,,,,,,,,,,,Clear,72000.0,,,73000.0,,,,,,
KRDR,09-25-2011,08:00,METAR,,170,7.0,,,9999.0,,9.0,8.0,29.95,1015.1,,,,,,,,,,,,,,,Clear,72000.0,,,73000.0,,,,,,
KRDR,09-25-2011,07:00,METAR,,180,8.0,,,9999.0,,10.0,8.0,29.96,1015.5,,,,,,,,,,,,,,,Clear,72000.0,,,73000.0,,,,,,
KRDR,09-25-2011,06:00,METAR,,180,10.0,,,9999.0,,12.0,8.0,29.96,1015.5,,,,,,,,,,,,,,,Clear,72000.0,,,73000.0,,,,,,
KRDR,09-25-2011,05:00,METAR,,170,8.0,,,9999.0,,12.0,8.0,29.96,1015.5,,,,,,,,,,,,,,,Clear,72000.0,,,73000.0,,,,,,
KRDR,09-25-2011,04:00,METAR,,170,8.0,,,9999.0,,12.0,8.0,29.96,1015.4,,,,,,,,,,,,,,,Clear,72000.0,,,73000.0,,,,,,
KRDR,09-25-2011,03:00,METAR,,150,10.0,,,9999.0,,14.0,7.0,29.95,1015.3,,,,,,,,,,,,,,,Clear,72000.0,,,73000.0,,,,,,
KRDR,09-25-2011,02:00,METAR,,160,8.0,,,9999.0,,13.0,5.0,29.94,1015.0,,,,,,,,,,,,,,,Clear,72000.0,,,73000.0,,,,,,
KRDR,09-25-2011,01:00,METAR,,150,6.0,,,9999.0,,14.0,5.0,29.94,1014.8,,,,,,,,,,,,,,,Clear,72000.0,,,73000.0,,,,,,
KRDR,09-25-2011,00:00,METAR,,160,6.0,,,9999.0,,18.0,5.0,29.94,1014.8,,,,,,,,,,,,,,,Clear,72000.0,,,73000.0,,,,,,
KRDR,09-24-2011,23:00,METAR,,160,10.0,,,9999.0,,21.0,3.0,29.94,1014.9,,,,,,,,,,,,,,,Clear,72000.0,,,73000.0,,,,,,
KRDR,09-24-2011,22:00,METAR,,180,14.0,20.0,,9999.0,,22.0,4.0,29.94,1015.0,,,,,,,,,,,,,,,Clear,72000.0,,,73000.0,,,,,,
KRDR,09-24-2011,21:00,METAR,,160,12.0,,,9999.0,,22.0,5.0,29.95,1015.2,,,,,,,,,,,,,,,Clear,72000.0,,,73000.0,,,,,,
KRDR,09-24-2011,20:00,METAR,,170,12.0,19.0,,9999.0,,21.0,5.0,29.96,1015.5,,,,,,,,,,,,,,,Clear,72000.0,,,73000.0,,,,,,
KRDR,09-24-2011,19:00,METAR,,180,11.0,,,9999.0,,20.0,7.0,29.97,1015.9,,,,,,,,,,,,,,,Clear,72000.0,,,73000.0,,,,,,
KRDR,09-24-2011,18:00,METAR,,180,10.0,,,9999.0,,19.0,6.0,29.98,1016.3,,,,,,,,,,,,,,,Clear,72000.0,,,73000.0,,,,,,
KRDR,09-24-2011,17:00,METAR,,160,10.0,,,9999.0,,17.0,7.0,30.00,1016.7,,,,,,,,,,,,,,,Clear,72000.0,,,73000.0,,,,,,
KRDR,09-24-2011,16:00,METAR,,160,12.0,,,9999.0,,14.0,7.0,30.00,1016.7,,,,,,,,,,,,,,,Clear,72000.0,,,73000.0,,,,,,
KRDR,09-24-2011,15:00,METAR,,160,12.0,,,9999.0,,11.0,7.0,30.00,1016.9,,,,,,,,,,,,,,,Clear,72000.0,,,73000.0,,,,,,
KRDR,09-24-2011,14:00,METAR,,170,11.0,,,9999.0,,9.0,8.0,30.00,1016.8,,,,,,,,,,,,,,,Clear,72000.0,,,73000.0,,,,,,
KRDR,09-24-2011,13:00,METAR,,160,8.0,,,9999.0,,8.0,8.0,29.99,1016.5,,,,,,,,,,,,,,,Clear,72000.0,,,73000.0,,,,,,
KRDR,09-24-2011,12:00,METAR,,160,8.0,,,9999.0,,7.0,7.0,29.98,1016.2,,,,,,,,,,,,,,,Clear,72000.0,,,73000.0,,,,,,
KRDR,09-24-2011,11:00,METAR,,160,8.0,,,9999.0,,7.0,7.0,29.98,1016.0,,,,,,,,,,,,,,,Clear,72000.0,,,73000.0,,,,,,
KRDR,09-24-2011,10:00,METAR,,180,7.0,,,9999.0,,7.0,6.0,29.97,1015.7,,,,,,,,,,,,,,,Clear,72000.0,,,73000.0,,,,,,
KRDR,09-24-2011,09:00,METAR,,170,8.0,,,9999.0,,8.0,6.0,29.96,1015.5,,,,,,,,,,,,,,,Clear,72000.0,,,73000.0,,,,,,
KRDR,09-24-2011,08:00,METAR,,170,8.0,,,9999.0,,8.0,6.0,29.97,1015.7,,,,,,,,,,,,,,,Clear,72000.0,,,73000.0,,,,,,
KRDR,09-24-2011,07:00,METAR,,170,7.0,,,9999.0,,8.0,6.0,29.98,1016.0,,,,,,,,,,,,,,,Clear,72000.0,,,73000.0,,,,,,
KRDR,09-24-2011,06:00,METAR,,170,6.0,,,9999.0,,8.0,6.0,29.97,1015.8,,,,,,,,,,,,,,,Clear,72000.0,,,73000.0,,,,,,
KRDR,09-24-2011,05:00,METAR,,170,6.0,,,9999.0,,10.0,6.0,29.97,1015.7,,,,,,,,,,,,,,,Clear,72000.0,,,73000.0,,,,,,
KRDR,09-24-2011,04:00,METAR,,170,7.0,,,9999.0,,10.0,5.0,29.96,1015.6,,,,,,,,,,,,,,,Clear,72000.0,,,73000.0,,,,,,
KRDR,09-24-2011,03:00,METAR,,170,7.0,,,9999.0,,11.0,5.0,29.96,1015.4,,,,,,,,,,,,,,,Clear,72000.0,,,73000.0,,,,,,
KRDR,09-24-2011,02:00,METAR,,140,8.0,,,9999.0,,12.0,5.0,29.96,1015.6,,,,,,,,,,,,,,,Clear,72000.0,,,73000.0,,,,,,
KRDR,09-24-2011,01:00,METAR,,150,8.0,,,9999.0,,15.0,6.0,29.95,1015.3,,,,,,,,,,,,,,,Clear,72000.0,,,73000.0,,,,,,
KRDR,09-24-2011,00:00,METAR,,150,8.0,,,9999.0,,18.0,6.0,29.95,1015.2,,,,,,,,,,,,,,,Clear,72000.0,,,73000.0,,,,,,
KRDR,09-23-2011,23:00,METAR,,170,12.0,,,9999.0,,20.0,5.0,29.94,1015.0,,,,,,,,,,,,,,,Clear,72000.0,,,73000.0,,,,,,
KRDR,09-23-2011,22:00,METAR,,170,11.0,,,9999.0,,20.0,5.0,29.95,1015.3,,,,,,,,,,,,,,,Clear,72000.0,,,73000.0,,,,,,
KRDR,09-23-2011,21:00,METAR,,170,16.0,,,9999.0,,20.0,5.0,29.95,1015.3,,,,,,,,,,,,,,,Clear,72000.0,,,73000.0,,,,,,
KRDR,09-23-2011,20:00,METAR,,180,15.0,22.0,,9999.0,,20.0,5.0,29.96,1015.5,,,,,,,,,,,,,,,Clear,72000.0,,,73000.0,,,,,,
KRDR,09-23-2011,19:00,METAR,,170,16.0,,,9999.0,,19.0,5.0,30.00,1016.7,,,,,,,,,,,,,,,Clear,72000.0,,,73000.0,,,,,,
KRDR,09-23-2011,18:00,METAR,,180,15.0,21.0,,9999.0,,18.0,5.0,30.00,1016.8,,,,,,,,,,,,,,,Clear,72000.0,,,73000.0,,,,,,
KRDR,09-23-2011,17:00,METAR,,170,13.0,,,9999.0,,16.0,6.0,30.03,1017.7,,,,,,,,,,,,,,,Clear,72000.0,,,73000.0,,,,,,
KRDR,09-23-2011,16:00,METAR,,180,11.0,,,9999.0,,14.0,5.0,30.04,1018.1,,,,,,,,,,,,,,,Clear,72000.0,,,73000.0,,,,,,
KRDR,09-23-2011,15:17,SPECI,,180,14.0,,,9999.0,,12.0,5.0,30.03,,,,,,,,,,,,,,,,Clear,72000.0,,,73000.0,,,,,,
KRDR,09-23-2011,15:00,METAR,,170,12.0,,,9999.0,,11.0,5.0,30.04,1018.1,,,,,,,,,,,,,,,Clear,72000.0,,,73000.0,,,,,,
KRDR,09-23-2011,14:00,METAR,,170,9.0,,,9999.0,,7.0,6.0,30.05,1018.5,,,,,,,,,,,,,,,Clear,72000.0,,,73000.0,,,,,,
KRDR,09-23-2011,13:00,METAR,,160,7.0,,,9999.0,,3.0,3.0,30.06,1019.0,,,,,,,,,,,,,,,Clear,72000.0,,,73000.0,,,,,,
KRDR,09-23-2011,12:00,METAR,,180,7.0,,,9999.0,,3.0,3.0,30.08,1019.5,,,,,,,,,,,,,,,Clear,72000.0,,,73000.0,,,,,,
KRDR,09-23-2011,11:00,METAR,,170,7.0,,,9999.0,,3.0,3.0,30.08,1019.4,,,,,,,,,,,,,,,Clear,72000.0,,,73000.0,,,,,,
KRDR,09-23-2011,10:00,METAR,,190,7.0,,,9999.0,,3.0,3.0,30.08,1019.6,,,,,,,,,,,,,,,Clear,72000.0,,,73000.0,,,,,,
KRDR,09-23-2011,09:00,METAR,,190,6.0,,,9999.0,,4.0,4.0,30.10,1020.0,,,,,,,,,,,,,,,Clear,72000.0,,,73000.0,,,,,,
KRDR,09-23-2011,08:00,METAR,,200,6.0,,,9999.0,,4.0,4.0,30.11,1020.4,,,,,,,,,,,,,,,Clear,72000.0,,,73000.0,,,,,,
KRDR,09-23-2011,07:00,METAR,,200,5.0,,,9999.0,,4.0,4.0,30.11,1020.5,,,,,,,,,,,,,,,Clear,72000.0,,,73000.0,,,,,,
KRDR,09-23-2011,06:00,METAR,,200,5.0,,,9999.0,,4.0,4.0,30.12,1020.6,,,,,,,,,,,,,,,Clear,72000.0,,,73000.0,,,,,,
KRDR,09-23-2011,05:00,METAR,,190,6.0,,,9999.0,,5.0,4.0,30.13,1021.0,,,,,,,,,,,,,,,Clear,72000.0,,,73000.0,,,,,,
KRDR,09-23-2011,04:00,METAR,,180,6.0,,,9999.0,,6.0,5.0,30.12,1020.9,,,,,,,,,,,,,,,Clear,72000.0,,,73000.0,,,,,,
KRDR,09-23-2011,03:00,METAR,,150,7.0,,,9999.0,,7.0,5.0,30.12,1020.8,,,,,,,,,,,,,,,Clear,72000.0,,,73000.0,,,,,,
KRDR,09-23-2011,02:00,METAR,,150,6.0,,,9999.0,,8.0,5.0,30.12,1020.7,,,,,,,,,,,,,,,Clear,72000.0,,,73000.0,,,,,,
KRDR,09-23-2011,01:00,METAR,,140,6.0,,,9999.0,,10.0,4.0,30.12,1020.7,,,,,,,,,,,,,,,Clear,72000.0,,,73000.0,,,,,,
KRDR,09-23-2011,00:00,METAR,,140,4.0,,,9999.0,,13.0,5.0,30.13,1021.0,,,,,,,,,,,,,,,Clear,72000.0,,,73000.0,,,,,,
KRDR,09-22-2011,23:00,METAR,,160,5.0,,,9999.0,,14.0,4.0,30.13,1021.2,,,,,,,,,,,,,,,Clear,72000.0,,,73000.0,,,,,,
KRDR,09-22-2011,22:00,METAR,,,0.0,,,9999.0,,14.0,4.0,30.14,1021.4,,,,,,,,,,,,,,,Clear,72000.0,,,73000.0,,,,,,
KRDR,09-22-2011,21:00,METAR,,40,4.0,,,9999.0,,13.0,4.0,30.14,1021.6,,,,,,,,,,,,,,,Clear,72000.0,,,73000.0,,,,,,
KRDR,09-22-2011,20:00,METAR,,,0.0,,,9999.0,,13.0,4.0,30.16,1022.0,,,,,,,,,,,,,,,2/8 Mostly Clear,72000.0,,FEW,3800.0,,,,,,
KRDR,09-22-2011,19:00,METAR,,220,4.0,,,9999.0,,13.0,3.0,30.17,1022.6,,,,,,,,,,,,,,,Clear,72000.0,,,73000.0,,,,,,
KRDR,09-22-2011,18:00,METAR,,,3.0,,,9999.0,,11.0,2.0,30.19,1023.0,,,,,,,,,,,,,,,Clear,72000.0,,,73000.0,,,,,,
KRDR,09-22-2011,17:00,METAR,,100,3.0,,,9999.0,,11.0,2.0,30.20,1023.4,,,,,,,,,,,,,,,Clear,72000.0,,,73000.0,,,,,,
KRDR,09-22-2011,16:00,METAR,,,0.0,,,9999.0,,9.0,4.0,30.20,1023.5,,,,,,,,,,,,,,,Clear,72000.0,,,73000.0,,,,,,
KRDR,09-22-2011,15:00,METAR,,,0.0,,,9999.0,,6.0,5.0,30.20,1023.5,,,,,,,,,,,,,,,Clear,72000.0,,,73000.0,,,,,,
KRDR,09-22-2011,14:00,METAR,,360,3.0,,,9999.0,,4.0,4.0,30.19,1023.0,,,,,,,,,,,,,,,Clear,72000.0,,,73000.0,,,,,,
KRDR,09-22-2011,13:00,METAR,,,0.0,,,9999.0,,2.0,2.0,30.18,1022.8,,,,,,,,,,,,,,,Clear,72000.0,,,73000.0,,,,,,
KRDR,09-22-2011,12:00,METAR,,320,5.0,,,9999.0,,1.0,1.0,30.18,1022.8,,,,,,,,,,,,,,,Clear,72000.0,,,73000.0,,,,,,
KRDR,09-22-2011,11:00,METAR,,320,5.0,,,9999.0,,1.0,1.0,30.18,1022.6,,,,,,,,,,,,,,,Clear,72000.0,,,73000.0,,,,,,
KRDR,09-22-2011,10:00,METAR,,330,5.0,,,9999.0,,2.0,2.0,30.17,1022.5,,,,,,,,,,,,,,,Clear,72000.0,,,73000.0,,,,,,
KRDR,09-22-2011,09:00,METAR,,340,6.0,,,9999.0,,3.0,3.0,30.17,1022.4,,,,,,,,,,,,,,,Clear,72000.0,,,73000.0,,,,,,
KRDR,09-22-2011,08:00,METAR,,320,5.0,,,9999.0,,3.0,3.0,30.16,1022.2,,,,,,,,,,,,,,,Clear,72000.0,,,73000.0,,,,,,
KRDR,09-22-2011,07:00,METAR,,320,6.0,,,9999.0,,4.0,4.0,30.16,1022.1,,,,,,,,,,,,,,,4/8 Partly Cloudy,72000.0,,SCT,3700.0,,,,,,
KRDR,09-22-2011,06:00,METAR,,340,6.0,,,9999.0,,5.0,5.0,30.16,1022.2,,,,,,,,,,,,,,,Clear,72000.0,,,73000.0,,,,,,
KRDR,09-22-2011,05:00,METAR,,360,6.0,,,9999.0,,6.0,6.0,30.16,1022.1,,,,,,,,,,,,,,,2/8 Mostly Clear,72000.0,,FEW,4900.0,,,,,,
KRDR,09-22-2011,04:00,METAR,,360,6.0,,,9999.0,,8.0,7.0,30.15,1021.8,,,,,,,,,,,,,,,8/8 Overcast,4600.0,,OVC,4700.0,,,,,,
KRDR,09-22-2011,03:00,METAR,,320,5.0,,,9999.0,,7.0,7.0,30.16,1022.0,,,,,,,,,,,,,,,8/8 Overcast,4300.0,,OVC,4400.0,,,,,,
KRDR,09-22-2011,02:05,SPECI,,,0.0,,,9999.0,,6.0,6.0,30.16,1022.0,,,,,,,,,,,,,,,8/8 Overcast,4200.0,,SCT,2600.0,BKN,4300.0,OVC,5900.0,,
KRDR,09-22-2011,02:00,METAR,,,0.0,,,9999.0,,6.0,6.0,30.16,1022.0,,,,,,,,,,,,,,,7/8 Mostly Cloudy,2600.0,,BKN,2600.0,BKN,4400.0,BKN,6400.0,,
KRDR,09-22-2011,01:41,SPECI,,,0.0,,,9999.0,,6.0,6.0,30.15,1021.8,,,,,,,,,,,,,,,7/8 Mostly Cloudy,2700.0,,BKN,2800.0,BKN,6400.0,,,,
KRDR,09-22-2011,01:00,METAR,,360,3.0,,,9999.0,,8.0,8.0,30.15,1021.7,,,,,,,,,,,,,,,8/8 Overcast,6000.0,,FEW,3300.0,OVC,5900.0,,,,
KRDR,09-22-2011,00:01,SPECI,,360,7.0,,,9999.0,,9.0,6.0,30.14,1021.5,,,,,,,,,,,,,,,8/8 Overcast,3100.0,,OVC,3100.0,,,,,,
KRDR,09-22-2011,00:00,METAR,,360,8.0,,,9999.0,,9.0,6.0,30.14,1021.5,,,,,,,,,,,,,,,8/8 Overcast,2500.0,,BKN,2900.0,OVC,3400.0,,,,
KRDR,09-21-2011,23:55,METAR,,360,9.0,,,9999.0,,9.0,6.0,30.14,1021.5,,,,,,,,,,,,,,,8/8 Overcast,2600.0,,OVC,2800.0,,,,,,
KRDR,09-21-2011,23:00,METAR,,360,10.0,,,9999.0,,9.0,6.0,30.14,1021.3,,,,,,,,,,,,,,,8/8 Overcast,2000.0,,OVC,2300.0,,,,,,
KRDR,09-21-2011,22:00,METAR,,360,13.0,19.0,,9999.0,,10.0,7.0,30.13,1021.0,,,,,,,,,,,,,,,8/8 Overcast,1700.0,,OVC,1900.0,,,,,,
KRDR,09-21-2011,21:00,METAR,,10,16.0,19.0,,9999.0,,10.0,7.0,30.11,1020.4,,,,,,,,,,,,,,,8/8 Overcast,1800.0,,OVC,1900.0,,,,,,
KRDR,09-21-2011,20:00,METAR,,360,16.0,22.0,,9999.0,,10.0,7.0,30.10,1020.2,,,,,,,,,,,,,,,8/8 Overcast,1500.0,,OVC,1800.0,,,,,,
KRDR,09-21-2011,19:00,METAR,,10,16.0,26.0,010/26KTS,9999.0,,10.0,7.0,30.08,1020.0,,,,,,,,,,,,,,,8/8 Overcast,1400.0,,OVC,1600.0,,,,,,
KRDR,09-21-2011,18:00,METAR,,360,15.0,27.0,350/27KTS,9999.0,,10.0,7.0,30.08,1019.4,,,,,,,,,,,,,,,8/8 Overcast,1600.0,,BKN,1900.0,OVC,2700.0,,,,
KRDR,09-21-2011,17:00,METAR,,360,17.0,24.0,010/27KTS,9999.0,,9.0,8.0,30.06,1018.9,,,,,,,,,,,,,,,8/8 Overcast,1400.0,,OVC,1500.0,,,,,,
KRDR,09-21-2011,15:20,SPECI,,350,15.0,25.0,,9999.0,,8.0,8.0,30.04,1018.3,,,,,,,,,,,,,,,8/8 Overcast,1200.0,,OVC,1200.0,,,,,,
KRDR,09-21-2011,15:00,METAR,,360,17.0,25.0,350/26KTS,9999.0,,8.0,8.0,30.03,1018.0,,,,,,,,,,,,,,,8/8 Overcast,1100.0,,OVC,1100.0,,,,,,
KRDR,09-21-2011,14:20,SPECI,,360,17.0,25.0,350/26KTS,9999.0,,7.0,7.0,30.02,1017.4,,,,,,,,,,,,,,,8/8 Overcast,800.0,,OVC,1000.0,,,,,,
KRDR,09-21-2011,14:00,METAR,,10,21.0,28.0,010/28KTS,9999.0,,7.0,7.0,30.01,1017.0,,,,,,,,,,,,,,,8/8 Overcast,800.0,,OVC,900.0,,,,,,
KRDR,09-21-2011,13:28,SPECI,,360,19.0,28.0,010/28KTS,9999.0,,7.0,7.0,30.00,1016.7,,,,,,,,,,,,,,,8/8 Overcast,800.0,,OVC,900.0,,,,,,
KRDR,09-21-2011,13:00,METAR,,360,20.0,26.0,010/29KTS,9999.0,,7.0,7.0,29.98,1016.2,,,,,,,,,,,,,,,8/8 Overcast,1000.0,,OVC,1000.0,,,,,,
KRDR,09-21-2011,12:18,SPECI,,360,18.0,26.0,010/28KTS,9999.0,,8.0,8.0,29.97,1015.8,,,,,,,,,,,,,,,8/8 Overcast,1000.0,,OVC,1000.0,,,,,,
KRDR,09-21-2011,12:00,METAR,,360,22.0,27.0,360/30KTS,9999.0,,8.0,8.0,29.96,1015.4,,,,,,,,,,,,,.08 IN,.61 IN,8/8 Overcast,900.0,,OVC,900.0,,,,,,
KRDR,09-21-2011,11:47,SPECI,,360,18.0,26.0,360/30KTS,9999.0,,8.0,8.0,29.96,1015.4,,,,,,,,,,,,,,,8/8 Overcast,900.0,,OVC,900.0,,,,,,
KRDR,09-21-2011,11:00,METAR,,360,22.0,28.0,010/31KTS,9999.0,,8.0,8.0,29.92,1014.2,,,,,,,,,,,,,,,8/8 Overcast,1100.0,,OVC,1100.0,,,,,,
KRDR,09-21-2011,10:00,METAR,,360,18.0,29.0,010/33KTS,9999.0,,8.0,8.0,29.89,1013.1,,,,,,,,,,,,,,,8/8 Overcast,1100.0,,OVC,1100.0,,,,,,
KRDR,09-21-2011,09:25,SPECI,,360,18.0,32.0,010/33KTS,9999.0,,9.0,9.0,29.87,1012.7,,,,,,,,,,,,,,,8/8 Overcast,800.0,,OVC,1000.0,,,,,,
KRDR,09-21-2011,09:00,METAR,,360,21.0,30.0,360/36KTS,9999.0,,9.0,9.0,29.86,1012.3,,,,,,,,,,,.01 IN,.08 IN,,,8/8 Overcast,700.0,,OVC,800.0,,,,,,
KRDR,09-21-2011,08:50,SPECI,,10,23.0,32.0,360/36KTS,9999.0,,9.0,9.0,29.86,1012.3,,,,,,,,,,,,,,,8/8 Overcast,700.0,,OVC,800.0,,,,,,
KRDR,09-21-2011,08:22,SPECI,,360,21.0,31.0,360/36KTS,9999.0,Light Rain,9.0,9.0,29.84,1011.7,61,,,,,,,,,,,,,,8/8 Overcast,700.0,,OVC,700.0,,,,,,
KRDR,09-21-2011,08:18,SPECI,,360,25.0,31.0,360/36KTS,9999.0,Light Rain,9.0,9.0,29.84,1011.6,61,,,,,,,,,,,,,,8/8 Overcast,700.0,,OVC,700.0,,,,,,
KRDR,09-21-2011,08:07,SPECI,,360,24.0,36.0,360/36KTS,8000.0,Mist,9.0,9.0,29.84,1011.5,10,,,,,,,,,,,,,,8/8 Overcast,700.0,,OVC,800.0,,,,,,
KRDR,09-21-2011,08:05,SPECI,,360,22.0,36.0,360/36KTS,9999.0,Mist,9.0,9.0,29.84,1011.4,10,,,,,,,,,,,,,,8/8 Overcast,700.0,,OVC,800.0,,,,,,
KRDR,09-21-2011,08:00,METAR,,360,24.0,31.0,010/31KTS,9999.0,Light Rain,9.0,9.0,29.83,1011.2,61,,,,,,,,,,,,,,8/8 Overcast,700.0,,OVC,800.0,,,,,,
KRDR,09-21-2011,07:51,SPECI,,360,22.0,30.0,010/34KTS,9999.0,,10.0,10.0,29.83,1011.1,,,,,,,,,,,,,,,8/8 Overcast,700.0,,OVC,800.0,,,,,,
KRDR,09-21-2011,07:45,SPECI,,360,22.0,34.0,010/34KTS,9999.0,,10.0,10.0,29.82,1011.0,,,,,,,,,,,,,,,8/8 Overcast,700.0,,OVC,900.0,,,,,,
KRDR,09-21-2011,07:29,SPECI,,360,23.0,33.0,020/34KTS,9999.0,Rain,10.0,10.0,29.81,1010.7,62,,,,,,,,,,,,,,8/8 Overcast,700.0,,OVC,800.0,,,,,,
KRDR,09-21-2011,07:22,SPECI,,360,22.0,30.0,020/34KTS,9999.0,Rain,10.0,10.0,29.81,1010.6,62,,,,,,,,,,,,,,8/8 Overcast,700.0,,OVC,800.0,,,,,,
KRDR,09-21-2011,07:12,SPECI,,10,20.0,34.0,020/34KTS,9999.0,Light Rain/Mist,10.0,10.0,29.81,1010.5,61,10,,,,,,,,,,,,,8/8 Overcast,600.0,,OVC,700.0,,,,,,
KRDR,09-21-2011,07:03,SPECI,,10,23.0,32.0,010/32KTS,8000.0,Rain/Mist,10.0,10.0,29.80,1010.2,62,10,,,,,,,,,,,,,8/8 Overcast,600.0,,OVC,700.0,,,,,,
KRDR,09-21-2011,07:00,SPECI,,360,24.0,37.0,010/32KTS,8000.0,Rain/Mist,10.0,10.0,29.80,1010.2,62,10,,,,,,,,,,,,,8/8 Overcast,600.0,,OVC,700.0,,,,,,
KRDR,09-21-2011,07:00,METAR,,360,25.0,37.0,010/37KTS,8000.0,Light Rain/Mist,10.0,10.0,29.79,1010.0,61,10,,,,,,,,,.03 IN,,,,8/8 Overcast,600.0,,OVC,700.0,,,,,,
KRDR,09-21-2011,06:46,SPECI,,360,22.0,33.0,360/37KTS,9999.0,Rain/Mist,10.0,10.0,29.79,1009.9,62,10,,,,,,,,,,,,,8/8 Overcast,600.0,,OVC,700.0,,,,,,
KRDR,09-21-2011,06:05,SPECI,,10,23.0,34.0,020/34KTS,6400.0,Mist,10.0,10.0,29.77,1009.3,10,,,,,,,,,,,,,,8/8 Overcast,700.0,,BKN,700.0,OVC,1100.0,,,,
KRDR,09-21-2011,06:01,SPECI,,10,25.0,38.0,020/34KTS,6400.0,Mist,10.0,10.0,29.77,1009.1,10,,,,,,,,,,,,,,8/8 Overcast,700.0,,BKN,700.0,OVC,1100.0,,,,
KRDR,09-21-2011,06:00,METAR,,360,27.0,38.0,360/38KTS,8000.0,Mist,10.0,10.0,29.76,1008.9,10,,,,,,,,,,.02 IN,,.17 IN,,8/8 Overcast,700.0,,BKN,700.0,OVC,1100.0,,,,
KRDR,09-21-2011,05:49,SPECI,,360,22.0,35.0,010/35KTS,6400.0,Mist,10.0,10.0,29.76,1008.9,10,,,,,,,,,,,,,,8/8 Overcast,700.0,,BKN,700.0,OVC,1900.0,,,,
KRDR,09-21-2011,05:39,SPECI,,360,26.0,35.0,010/35KTS,4800.0,Mist,11.0,11.0,29.76,1008.8,10,,,,,,,,,,,,,,8/8 Overcast,700.0,,BKN,700.0,BKN,1100.0,OVC,1700.0,,
KRDR,09-21-2011,05:29,SPECI,,360,23.0,34.0,350/34KTS,6400.0,Mist,11.0,11.0,29.75,1008.7,10,,,,,,,,,,,,,,8/8 Overcast,700.0,,OVC,700.0,,,,,,
KRDR,09-21-2011,05:15,SPECI,,360,26.0,34.0,360/34KTS,6400.0,Mist,11.0,11.0,29.74,1008.3,10,,,,,,,,,,,,,,8/8 Overcast,700.0,,OVC,700.0,,,,,,
KRDR,09-21-2011,05:00,SPECI,,360,21.0,32.0,010/32KTS,6400.0,Mist,11.0,11.0,29.74,1008.2,10,,,,,,,,,,,,,,8/8 Overcast,600.0,,OVC,600.0,,,,,,
KRDR,09-21-2011,05:00,METAR,,360,23.0,31.0,360/31KTS,6400.0,Mist,11.0,11.0,29.74,1008.1,10,,,,,,,,,,,,,,8/8 Overcast,700.0,,OVC,700.0,,,,,,
KRDR,09-21-2011,04:44,SPECI,,360,23.0,31.0,350/33KTS,6400.0,Mist,11.0,11.0,29.73,1007.9,10,,,,,,,,,,,,,,8/8 Overcast,600.0,,OVC,600.0,,,,,,
KRDR,09-21-2011,04:39,SPECI,,360,23.0,32.0,350/33KTS,6400.0,Mist,11.0,11.0,29.73,1007.8,10,,,,,,,,,,,,,,8/8 Overcast,700.0,,OVC,700.0,,,,,,
KRDR,09-21-2011,04:10,SPECI,,360,23.0,31.0,010/32KTS,9999.0,Mist,11.0,11.0,29.72,1007.5,10,,,,,,,,,,,,,,8/8 Overcast,700.0,,OVC,700.0,,,,,,
KRDR,09-21-2011,04:00,METAR,,360,21.0,31.0,360/31KTS,6400.0,Mist,11.0,11.0,29.71,1007.2,10,,,,,,,,,,.03 IN,,,,8/8 Overcast,600.0,,OVC,600.0,,,,,,
KRDR,09-21-2011,03:43,SPECI,,10,23.0,31.0,350/31KTS,6400.0,Mist,11.0,11.0,29.70,1007.0,10,,,,,,,,,,,,,,8/8 Overcast,600.0,,OVC,600.0,,,,,,
KRDR,09-21-2011,03:41,SPECI,,360,22.0,30.0,010/31KTS,8000.0,Light Rain/Mist,11.0,11.0,29.70,1007.1,61,10,,,,,,,,,,,,,8/8 Overcast,500.0,,OVC,600.0,,,,,,
KRDR,09-21-2011,03:33,SPECI,,360,20.0,30.0,010/31KTS,9999.0,Light Rain/Mist,11.0,11.0,29.70,1006.9,61,10,,,,,,,,,,,,,8/8 Overcast,500.0,,OVC,700.0,,,,,,
KRDR,09-21-2011,03:30,SPECI,,360,21.0,28.0,010/31KTS,9999.0,,11.0,11.0,29.70,1006.8,,,,,,,,,,,,,,,8/8 Overcast,600.0,,OVC,700.0,,,,,,
KRDR,09-21-2011,03:27,SPECI,,10,17.0,28.0,010/31KTS,9999.0,,11.0,11.0,29.70,1006.9,,,,,,,,,,,,,,,8/8 Overcast,700.0,,OVC,700.0,,,,,,
KRDR,09-21-2011,03:03,SPECI,,10,22.0,30.0,010/30KTS,9999.0,Light Rain/Mist,11.0,11.0,29.69,1006.5,61,10,,,,,,,,,,,,,8/8 Overcast,700.0,,OVC,700.0,,,,,,
KRDR,09-21-2011,03:00,METAR,,10,21.0,31.0,010/30KTS,8000.0,Rain/Mist,11.0,11.0,29.69,1006.5,62,10,,,,,,,,,,,,,8/8 Overcast,700.0,,OVC,700.0,,,,,,
KRDR,09-21-2011,02:51,SPECI,,360,22.0,32.0,350/32KTS,6400.0,Light Rain/Mist,11.0,11.0,29.68,1006.4,61,10,,,,,,,,,,,,,8/8 Overcast,600.0,,OVC,600.0,,,,,,
KRDR,09-21-2011,02:38,SPECI,,360,20.0,32.0,360/32KTS,4800.0,Rain/Mist,11.0,11.0,29.68,1006.2,62,10,,,,,,,,,,,,,8/8 Overcast,600.0,,OVC,600.0,,,,,,
KRDR,09-21-2011,02:35,SPECI,,360,20.0,32.0,360/32KTS,4800.0,Heavy Rain/Mist,11.0,11.0,29.68,1006.2,63,10,,,,,,,,,,,,,8/8 Overcast,700.0,,OVC,700.0,,,,,,
KRDR,09-21-2011,02:25,SPECI,,360,21.0,28.0,350/30KTS,9999.0,Light Rain/Mist,12.0,12.0,29.67,1006.1,61,10,,,,,,,,,,,,,8/8 Overcast,600.0,,OVC,700.0,,,,,,
KRDR,09-21-2011,02:24,SPECI,,340,22.0,28.0,340/29KTS,8000.0,Mist,12.0,12.0,29.67,1006.1,10,,,,,,,,,,,,,,8/8 Overcast,500.0,,OVC,600.0,,,,,,
KRDR,09-21-2011,02:04,SPECI,,360,21.0,30.0,350/30KTS,9999.0,Light Rain,12.0,12.0,29.67,1005.9,61,,,,,,,,,,,,,,8/8 Overcast,600.0,,OVC,700.0,,,,,,
KRDR,09-21-2011,02:00,METAR,,360,22.0,28.0,010/27KTS,9999.0,Rain/Mist,12.0,12.0,29.67,1005.8,62,10,,,,,,,,,,,,,8/8 Overcast,600.0,,OVC,600.0,,,,,,
KRDR,09-21-2011,01:40,SPECI,,10,20.0,28.0,010/29KTS,8000.0,Mist,12.0,12.0,29.66,1005.7,10,,,,,,,,,,,,,,8/8 Overcast,600.0,,OVC,600.0,,,,,,
KRDR,09-21-2011,01:30,SPECI,,360,19.0,25.0,010/29KTS,8000.0,Light Rain/Mist,12.0,12.0,29.66,1005.7,61,10,,,,,,,,,,,,,8/8 Overcast,600.0,,OVC,600.0,,,,,,
KRDR,09-21-2011,01:21,SPECI,,360,21.0,29.0,010/29KTS,9999.0,Mist,12.0,12.0,29.66,1005.5,10,,,,,,,,,,,,,,8/8 Overcast,500.0,,OVC,600.0,,,,,,
KRDR,09-21-2011,00:51,SPECI,,360,16.0,25.0,360/28KTS,8000.0,Light Rain/Mist,12.0,12.0,29.65,1005.2,61,10,,,,,,,,,,,,,8/8 Overcast,500.0,,OVC,600.0,,,,,,
KRDR,09-21-2011,00:50,SPECI,,360,18.0,25.0,360/28KTS,9999.0,Light Rain/Mist,12.0,12.0,29.65,1005.2,61,10,,,,,,,,,,,,,8/8 Overcast,500.0,,OVC,700.0,,,,,,
KRDR,09-21-2011,00:00,METAR,,10,20.0,27.0,010/27KTS,9999.0,Light Rain,12.0,12.0,29.62,1004.2,61,,,,,,,,,,.13 IN,,.19 IN,,8/8 Overcast,600.0,,OVC,700.0,,,,,,
KRDR,09-20-2011,23:41,SPECI,,10,15.0,25.0,,9999.0,,12.0,12.0,29.61,1004.1,,,,,,,,,,,,,,,8/8 Overcast,600.0,,OVC,700.0,,,,,,
KRDR,09-20-2011,23:31,SPECI,,10,18.0,24.0,,9999.0,Light Rain,12.0,12.0,29.61,1003.9,61,,,,,,,,,,,,,,8/8 Overcast,300.0,,OVC,600.0,,,,,,
KRDR,09-20-2011,23:27,SPECI,,10,16.0,23.0,,9999.0,,12.0,12.0,29.60,1003.7,,,,,,,,,,,,,,,8/8 Overcast,300.0,,OVC,500.0,,,,,,
KRDR,09-20-2011,23:20,SPECI,,10,15.0,19.0,,9999.0,,12.0,12.0,29.60,1003.6,,,,,,,,,,,,,,,8/8 Overcast,500.0,,OVC,500.0,,,,,,
KRDR,09-20-2011,23:16,SPECI,,10,16.0,19.0,,8000.0,Light Rain/Mist,12.0,12.0,29.60,1003.6,61,10,,,,,,,,,,,,,8/8 Overcast,500.0,,OVC,500.0,,,,,,
KRDR,09-20-2011,23:14,SPECI,,20,16.0,19.0,,4800.0,Light Rain/Mist,12.0,12.0,29.60,1003.5,61,10,,,,,,,,,,,,,8/8 Overcast,400.0,,OVC,400.0,,,,,,
KRDR,09-20-2011,23:11,SPECI,,20,12.0,18.0,,3200.0,Light Rain/Mist,12.0,12.0,29.60,1003.5,61,10,,,,,,,,,,,,,8/8 Overcast,400.0,,OVC,400.0,,,,,,
KRDR,09-20-2011,23:08,SPECI,,10,16.0,,,2400.0,Heavy Rain/Mist,12.0,12.0,29.59,1003.5,63,10,,,,,,,,,,,,,8/8 Overcast,400.0,,OVC,400.0,,,,,,
KRDR,09-20-2011,23:01,SPECI,,10,13.0,18.0,,2800.0,Heavy Rain/Mist,12.0,12.0,29.59,1003.3,63,10,,,,,,,,,,,,,8/8 Overcast,500.0,,OVC,500.0,,,,,,
KRDR,09-20-2011,23:00,METAR,,10,13.0,20.0,,4800.0,Rain/Mist,12.0,12.0,29.59,1003.2,62,10,,,,,,,,,.04 IN,,,,8/8 Overcast,500.0,,OVC,500.0,,,,,,
KRDR,09-20-2011,22:54,SPECI,,10,14.0,20.0,,4000.0,Rain/Mist,12.0,12.0,29.59,1003.3,62,10,,,,,,,,,,,,,8/8 Overcast,500.0,,OVC,500.0,,,,,,
KRDR,09-20-2011,22:50,SPECI,,10,14.0,20.0,,6400.0,Rain/Mist,12.0,12.0,29.59,1003.2,62,10,,,,,,,,,,,,,8/8 Overcast,500.0,,OVC,500.0,,,,,,
KRDR,09-20-2011,22:31,SPECI,,10,12.0,,,9999.0,Light Rain,13.0,13.0,29.58,1002.9,61,,,,,,,,,,,,,,8/8 Overcast,600.0,,BKN,600.0,OVC,3600.0,,,,
KRDR,09-20-2011,22:23,SPECI,,360,10.0,,,9999.0,Light Rain,13.0,13.0,29.57,1002.8,61,,,,,,,,,,,,,,8/8 Overcast,700.0,,BKN,700.0,BKN,1800.0,OVC,3400.0,,
KRDR,09-20-2011,22:16,SPECI,,330,8.0,,,9999.0,Light Rain,13.0,13.0,29.57,1002.7,61,,,,,,,,,,,,,,8/8 Overcast,500.0,,SCT,700.0,BKN,1800.0,OVC,3800.0,,
KRDR,09-20-2011,22:09,SPECI,,330,8.0,,,9999.0,Light Rain,13.0,13.0,29.57,1002.5,61,,,,,,,,,,,,,,8/8 Overcast,1500.0,,FEW,800.0,BKN,3800.0,OVC,7400.0,,
KRDR,09-20-2011,22:00,METAR,,330,8.0,,,9999.0,Light Rain,13.0,13.0,29.56,1002.5,61,,,,,,,,,,.02 IN,,,,8/8 Overcast,3700.0,,FEW,800.0,BKN,4700.0,OVC,7400.0,,
KRDR,09-20-2011,21:48,SPECI,,340,7.0,,,9999.0,Light Rain,13.0,13.0,29.56,1002.5,61,,,,,,,,,,,,,,8/8 Overcast,4900.0,,FEW,800.0,BKN,5000.0,OVC,7400.0,,
KRDR,09-20-2011,21:25,SPECI,,330,7.0,,,9999.0,Light Rain,14.0,14.0,29.55,1002.0,61,,,,,,,,,,,,,,8/8 Overcast,5500.0,,SCT,1900.0,OVC,5400.0,,,,
KRDR,09-20-2011,21:14,SPECI,,320,6.0,,,9999.0,Light Drizzle,14.0,14.0,29.54,1001.7,51,,,,,,,,,,,,,,8/8 Overcast,1600.0,,BKN,1800.0,OVC,6400.0,,,,
KRDR,09-20-2011,21:00,METAR,,,3.0,,,9999.0,,15.0,12.0,29.53,1001.5,,,,,,,,,,,,,,,8/8 Overcast,2700.0,,SCT,1800.0,BKN,2700.0,OVC,7900.0,,
KRDR,09-20-2011,20:00,METAR,,230,4.0,,,9999.0,,14.0,13.0,29.52,1000.9,,,,,,,,,,,TRACE,,,,8/8 Overcast,3100.0,,FEW,2100.0,OVC,3200.0,,,,
KRDR,09-20-2011,19:45,SPECI,,200,4.0,,,9999.0,,14.0,14.0,29.52,1000.9,,,,,,,,,,,,,,,8/8 Overcast,3000.0,,SCT,2000.0,OVC,3000.0,,,,
KRDR,09-20-2011,19:43,SPECI,,200,5.0,,,9999.0,Light Drizzle,14.0,14.0,29.52,1000.9,51,,,,,,,,,,,,,,8/8 Overcast,2300.0,,SCT,2000.0,OVC,3000.0,,,,
KRDR,09-20-2011,19:34,SPECI,,200,6.0,,,9999.0,Light Drizzle,14.0,13.0,29.51,1000.8,51,,,,,,,,,,,,,,8/8 Overcast,2000.0,,BKN,2000.0,OVC,2700.0,,,,
KRDR,09-20-2011,19:00,METAR,,200,7.0,,,9999.0,,14.0,14.0,29.51,1000.5,,,,,,,,,,,,,,,8/8 Overcast,1100.0,,OVC,1600.0,,,,,,
KRDR,09-20-2011,18:45,SPECI,,170,7.0,,,9999.0,,14.0,14.0,29.50,1000.5,,,,,,,,,,,,,,,8/8 Overcast,1100.0,,OVC,1400.0,,,,,,
KRDR,09-20-2011,18:43,SPECI,,170,8.0,,,9999.0,,14.0,14.0,29.50,1000.5,,,,,,,,,,,,,,,8/8 Overcast,1100.0,,OVC,1500.0,,,,,,
KRDR,09-20-2011,18:33,SPECI,,190,9.0,,,9999.0,,14.0,14.0,29.50,1000.4,,,,,,,,,,,,,,,8/8 Overcast,1000.0,,OVC,1300.0,,,,,,
KRDR,09-20-2011,18:31,SPECI,,200,8.0,,,9999.0,,14.0,14.0,29.50,1000.4,,,,,,,,,,,,,,,8/8 Overcast,900.0,,BKN,1100.0,OVC,1600.0,,,,
KRDR,09-20-2011,18:15,SPECI,,200,8.0,,,9999.0,,14.0,14.0,29.50,1000.3,,,,,,,,,,,,,,,8/8 Overcast,1100.0,,FEW,800.0,BKN,1400.0,OVC,2100.0,,
KRDR,09-20-2011,18:11,SPECI,,210,8.0,,,9999.0,,14.0,14.0,29.50,1000.3,,,,,,,,,,,,,,,8/8 Overcast,900.0,,BKN,1200.0,OVC,1900.0,,,,
KRDR,09-20-2011,18:08,SPECI,,210,10.0,,,9999.0,,14.0,14.0,29.50,1000.2,,,,,,,,,,,,,,,8/8 Overcast,800.0,,BKN,1100.0,OVC,1700.0,,,,
KRDR,09-20-2011,18:04,SPECI,,210,9.0,,,9999.0,,14.0,14.0,29.50,1000.2,,,,,,,,,,,,,,,8/8 Overcast,800.0,,OVC,1200.0,,,,,,
KRDR,09-20-2011,18:00,METAR,,210,12.0,,,9999.0,,14.0,14.0,29.49,1000.2,,,,,,,,,,,TRACE,,.17 IN,,8/8 Overcast,900.0,,OVC,900.0,,,,,,
KRDR,09-20-2011,17:39,SPECI,,210,11.0,,,9999.0,,14.0,14.0,29.49,1000.1,,,,,,,,,,,,,,,8/8 Overcast,800.0,,OVC,800.0,,,,,,
KRDR,09-20-2011,17:18,SPECI,,220,11.0,,,9999.0,Light Drizzle,14.0,14.0,29.49,1000.0,51,,,,,,,,,,,,,,8/8 Overcast,900.0,,BKN,900.0,OVC,1500.0,,,,
KRDR,09-20-2011,17:17,SPECI,,220,12.0,,,9999.0,,14.0,14.0,29.49,1000.0,,,,,,,,,,,,,,,8/8 Overcast,900.0,,BKN,900.0,OVC,1500.0,,,,
KRDR,09-20-2011,17:13,SPECI,,230,10.0,,,9999.0,,14.0,14.0,29.49,1000.0,,,,,,,,,,,,,,,8/8 Overcast,1200.0,,SCT,900.0,OVC,1500.0,,,,
KRDR,09-20-2011,17:11,SPECI,,240,8.0,,,9999.0,,14.0,14.0,29.49,1000.0,,,,,,,,,,,,,,,8/8 Overcast,800.0,,BKN,900.0,OVC,1500.0,,,,
KRDR,09-20-2011,17:05,SPECI,,240,9.0,,,9999.0,,14.0,14.0,29.49,1000.0,,,,,,,,,,,,,,,8/8 Overcast,800.0,,OVC,1200.0,,,,,,
KRDR,09-20-2011,17:00,METAR,,10,13.0,20.0,,4800.0,Rain,12.0,12.0,,1003.2,,,,63,,,,,,,.04 IN,,,,8/8 Overcast,500.0,,OVC,500.0,,,,,,
KRDR,09-20-2011,16:51,SPECI,,220,9.0,,,9999.0,,13.0,13.0,29.49,999.9,,,,,,,,,,,,,,,8/8 Overcast,900.0,,OVC,1100.0,,,,,,
KRDR,09-20-2011,16:26,SPECI,,,4.0,,,9999.0,,13.0,13.0,29.48,999.6,,,,,,,,,,,,,,,8/8 Overcast,400.0,,OVC,700.0,,,,,,
KRDR,09-20-2011,16:18,SPECI,,120,3.0,,,9999.0,,13.0,13.0,29.48,999.6,,,,,,,,,,,,,,,8/8 Overcast,400.0,,BKN,500.0,OVC,900.0,,,,
KRDR,09-20-2011,16:05,SPECI,,200,7.0,,,9999.0,,13.0,13.0,29.48,999.5,,,,,,,,,,,,,,,8/8 Overcast,500.0,,OVC,500.0,,,,,,
KRDR,09-20-2011,16:01,SPECI,,190,3.0,,,9999.0,Light Rain,13.0,13.0,29.48,999.6,61,,,,,,,,,,,,,,8/8 Overcast,500.0,,OVC,500.0,,,,,,
KRDR,09-20-2011,16:00,METAR,,190,4.0,,,9999.0,Light Drizzle,12.0,12.0,29.48,999.6,51,,,,,,,,,,.04 IN,,,,8/8 Overcast,400.0,,OVC,400.0,,,,,,
KRDR,09-20-2011,15:41,SPECI,,180,4.0,,,4800.0,Light Rain/Mist,12.0,12.0,29.48,999.6,61,10,,,,,,,,,,,,,8/8 Overcast,400.0,,BKN,400.0,OVC,1600.0,,,,
KRDR,09-20-2011,15:28,SPECI,,180,4.0,,,4000.0,Light Rain/Mist,12.0,12.0,29.48,999.6,61,10,,,,,,,,,,,,,8/8 Overcast,400.0,,BKN,400.0,OVC,2200.0,,,,
KRDR,09-20-2011,15:25,SPECI,,170,5.0,,,4800.0,Light Rain/Mist,12.0,12.0,29.48,999.6,61,10,,,,,,,,,,,,,8/8 Overcast,400.0,,BKN,400.0,OVC,2200.0,,,,
KRDR,09-20-2011,15:18,SPECI,,170,5.0,,,6400.0,Light Rain/Mist,12.0,12.0,29.48,999.6,61,10,,,,,,,,,,,,,8/8 Overcast,500.0,,BKN,500.0,OVC,2300.0,,,,
KRDR,09-20-2011,15:08,SPECI,,170,4.0,,,9999.0,Light Drizzle,12.0,12.0,29.48,999.6,51,,,,,,,,,,,,,,8/8 Overcast,600.0,,BKN,600.0,OVC,2400.0,,,,
KRDR,09-20-2011,15:07,SPECI,,170,4.0,,,9999.0,Light Drizzle,12.0,12.0,29.48,999.6,51,,,,,,,,,,,,,,8/8 Overcast,600.0,,BKN,700.0,OVC,2400.0,,,,
KRDR,09-20-2011,15:03,SPECI,,170,3.0,,,9999.0,,12.0,12.0,29.48,999.6,,,,,,,,,,,,,,,8/8 Overcast,700.0,,BKN,700.0,OVC,2500.0,,,,
KRDR,09-20-2011,15:00,METAR,,140,5.0,,,9999.0,,12.0,12.0,29.48,999.7,,,,,,,,,,,.01 IN,.13 IN,,,8/8 Overcast,600.0,,OVC,600.0,,,,,,
KRDR,09-20-2011,14:16,SPECI,,110,6.0,,,9999.0,,12.0,12.0,29.49,1000.0,,,,,,,,,,,,,,,8/8 Overcast,800.0,,BKN,800.0,BKN,1500.0,OVC,4100.0,,
KRDR,09-20-2011,14:12,SPECI,,110,6.0,,,9999.0,Light Drizzle,12.0,12.0,29.49,1000.0,51,,,,,,,,,,,,,,8/8 Overcast,800.0,,BKN,800.0,BKN,1500.0,OVC,4100.0,,
KRDR,09-20-2011,14:09,SPECI,,120,5.0,,,9999.0,Light Rain,12.0,12.0,29.49,1000.1,61,,,,,,,,,,,,,,8/8 Overcast,1500.0,,SCT,800.0,BKN,1500.0,OVC,6400.0,,
KRDR,09-20-2011,14:00,METAR,,110,4.0,,,9999.0,Light Rain,12.0,12.0,29.49,1000.1,61,,,,,,,,,,.09 IN,,,,8/8 Overcast,5500.0,,BKN,5400.0,BKN,6900.0,OVC,7900.0,,
KRDR,09-20-2011,13:53,SPECI,,100,4.0,,,9999.0,Light Rain,12.0,12.0,29.49,1000.1,61,,,,,,,,,,,,,,8/8 Overcast,5500.0,,FEW,800.0,BKN,5400.0,OVC,7900.0,,
KRDR,09-20-2011,13:22,SPECI,,50,8.0,,,8000.0,Rain/Mist,12.0,12.0,29.50,1000.3,62,10,,,,,,,,,,,,,8/8 Overcast,5500.0,,SCT,400.0,OVC,5400.0,,,,
KRDR,09-20-2011,13:00,METAR,,50,4.0,,,9999.0,Light Rain,12.0,12.0,29.53,1001.4,61,,,,,,,,,,.03 IN,,,,8/8 Overcast,6000.0,,SCT,400.0,OVC,5900.0,,,,
KRDR,09-20-2011,13:00,SPECI,,40,3.0,,,9999.0,Light Drizzle,12.0,12.0,29.53,1001.2,51,,,,,,,,,,,,,,8/8 Overcast,400.0,,BKN,400.0,OVC,5900.0,,,,
KRDR,09-20-2011,12:46,SPECI,,50,3.0,,,9999.0,Light Rain,12.0,12.0,29.54,1001.6,61,,,,,,,,,,,,,,8/8 Overcast,6000.0,,FEW,500.0,BKN,5900.0,OVC,8900.0,,
KRDR,09-20-2011,12:15,SPECI,,60,7.0,,,9999.0,Light Rain/Mist,12.0,12.0,29.54,1001.7,61,10,,,,,,,,,,,,,8/8 Overcast,3400.0,,SCT,3800.0,BKN,5000.0,OVC,8900.0,,
KRDR,09-20-2011,12:00,METAR,,40,4.0,,,9999.0,Light Rain/Mist,12.0,12.0,29.57,1002.6,61,10,,,,,,,,,.09 IN,,.24 IN,.24 IN,8/8 Overcast,3600.0,,OVC,3700.0,,,,,,
KRDR,09-20-2011,11:40,SPECI,,,0.0,,,8000.0,Light Rain/Mist,12.0,12.0,29.58,1003.1,61,10,,,,,,,,,,,,,8/8 Overcast,3700.0,,OVC,3800.0,,,,,,
KRDR,09-20-2011,11:39,SPECI,,,0.0,,,6400.0,Thunderstorm and Rain or Snow Showers/Mist,12.0,12.0,29.58,1003.1,92,10,,,,,,,,,,,,,8/8 Overcast,3700.0,,BKN,3800.0,OVC,5900.0,,,,
KRDR,09-20-2011,11:35,SPECI,,,0.0,,,4800.0,Thunderstorm and Rain or Snow Showers/Mist,13.0,13.0,29.58,1003.1,92,10,,,,,,,,,,,,,8/8 Overcast,3800.0,,BKN,3900.0,OVC,6400.0,,,,
KRDR,09-20-2011,11:30,SPECI,,,0.0,,,4800.0,Heavy Thunderstorm and Rain or Snow Showers/Mist,12.0,12.0,29.59,1003.2,95,10,,,,,,,,,,,,,8/8 Overcast,3700.0,,BKN,3800.0,OVC,5900.0,,,,
KRDR,09-20-2011,11:25,SPECI,,200,4.0,,,8000.0,Thunderstorm and Rain or Snow Showers/Mist,12.0,12.0,29.60,1003.5,92,10,,,,,,,,,,,,,8/8 Overcast,3700.0,,BKN,3800.0,OVC,5900.0,,,,
KRDR,09-20-2011,11:14,SPECI,,,0.0,,,9999.0,Light Drizzle,13.0,13.0,29.59,1003.3,51,,,,,,,,,,,,,,8/8 Overcast,6000.0,,BKN,5900.0,BKN,7400.0,OVC,8900.0,,
KRDR,09-20-2011,11:02,SPECI,,110,5.0,,,9999.0,,12.0,12.0,29.58,1002.9,,,,,,,,,,,,,,,8/8 Overcast,7000.0,,FEW,3900.0,BKN,6900.0,OVC,8900.0,,
KRDR,09-20-2011,11:00,METAR,,120,9.0,,,9999.0,Light Rain,12.0,12.0,29.58,1003.0,61,,,,,,,,,,.11 IN,,,,8/8 Overcast,8000.0,,SCT,5900.0,BKN,7900.0,OVC,8900.0,,
KRDR,09-20-2011,10:25,SPECI,,100,7.0,,,9999.0,Light Rain,12.0,12.0,29.60,1003.7,61,,,,,,,,,,,,,,8/8 Overcast,7000.0,,OVC,7900.0,,,,,,
KRDR,09-20-2011,10:09,SPECI,,90,4.0,,,9999.0,Rain/Mist,12.0,12.0,29.61,1004.1,62,10,,,,,,,,,,,,,8/8 Overcast,7000.0,,OVC,6900.0,,,,,,
KRDR,09-20-2011,10:00,METAR,,90,8.0,,,9999.0,Light Rain,12.0,12.0,29.62,1004.2,61,,,,,,,,,,,,,,8/8 Overcast,7500.0,,FEW,500.0,OVC,7400.0,,,,
KRDR,09-20-2011,09:53,SPECI,,90,8.0,,,9999.0,,12.0,12.0,29.62,1004.3,,,,,,,,,,,,,,,8/8 Overcast,7500.0,,FEW,500.0,OVC,7400.0,,,,
KRDR,09-20-2011,09:34,SPECI,,50,6.0,,,9999.0,Rain,12.0,12.0,29.63,1004.6,62,,,,,,,,,,,,,,8/8 Overcast,8000.0,,FEW,600.0,SCT,4800.0,OVC,7900.0,,
KRDR,09-20-2011,09:07,SPECI,,50,4.0,,,9999.0,Light Rain,12.0,12.0,29.65,1005.2,61,,,,,,,,,,,,,,8/8 Overcast,8000.0,,OVC,7900.0,,,,,,
KRDR,09-20-2011,09:00,METAR,,260,4.0,,,9999.0,Light Rain,12.0,12.0,29.67,1005.8,61,,,,,,,,,,.01 IN,.01 IN,,,8/8 Overcast,8500.0,,FEW,7400.0,OVC,8400.0,,,,
KRDR,09-20-2011,08:34,SPECI,,,0.0,,,9999.0,Light Rain,13.0,12.0,29.67,1006.0,61,,,,,,,,,,,,,,8/8 Overcast,9000.0,,OVC,8900.0,,,,,,
KRDR,09-20-2011,08:00,METAR,,30,5.0,,,9999.0,,13.0,11.0,29.68,1006.2,,,,,,,,,,,,,,,8/8 Overcast,9000.0,,OVC,8900.0,,,,,,
KRDR,09-20-2011,07:00,METAR,,100,3.0,,,9999.0,,13.0,12.0,29.71,1007.3,,,,,,,,,,,,,,,7/8 Mostly Cloudy,9500.0,,BKN,9400.0,BKN,11000.0,,,,
KRDR,09-20-2011,06:00,METAR,,340,8.0,,,9999.0,,14.0,13.0,29.72,1007.5,,,,,,,,,,,,,TRACE,,7/8 Mostly Cloudy,9000.0,,BKN,8900.0,,,,,,
KRDR,09-20-2011,05:00,METAR,,,0.0,,,9999.0,,15.0,14.0,29.72,1007.7,,,,,,,,,,,TRACE,,,,4/8 Partly Cloudy,72000.0,,FEW,7900.0,SCT,11000.0,,,,
KRDR,09-20-2011,04:41,SPECI,,,0.0,,,9999.0,,14.0,14.0,29.73,1007.8,,,,,,,,,,,,,,,7/8 Mostly Cloudy,11000.0,,SCT,8400.0,BKN,11000.0,,,,
KRDR,09-20-2011,04:19,SPECI,,280,3.0,,,9999.0,,16.0,10.0,29.74,1008.4,,,,,,,,,,,,,,,8/8 Overcast,8500.0,,FEW,6900.0,OVC,8400.0,,,,
KRDR,09-20-2011,04:08,SPECI,,,0.0,,,9999.0,,16.0,9.0,29.73,1008.1,,,,,,,,,,,,,,,8/8 Overcast,9000.0,,FEW,6400.0,SCT,7900.0,OVC,8900.0,,
KRDR,09-20-2011,04:00,METAR,,220,6.0,,,9999.0,Light Rain,16.0,8.0,29.75,1008.7,61,,,,,,,,,,TRACE,,,,7/8 Mostly Cloudy,9000.0,,FEW,7400.0,BKN,8900.0,BKN,11000.0,,
KRDR,09-20-2011,03:48,SPECI,,210,6.0,,,9999.0,,16.0,8.0,29.75,1008.6,,,,,,,,,,,,,,,7/8 Mostly Cloudy,9000.0,,BKN,8900.0,BKN,11000.0,,,,
KRDR,09-20-2011,03:00,METAR,,190,4.0,,,9999.0,,15.0,8.0,29.74,1008.4,,,,,,,,,,,,,,,Clear,72000.0,,,73000.0,,,,,,
KRDR,09-20-2011,02:00,METAR,,150,7.0,,,9999.0,,16.0,8.0,29.74,1008.4,,,,,,,,,,,,,,,Clear,72000.0,,,73000.0,,,,,,
KRDR,09-20-2011,01:00,METAR,,210,5.0,,,9999.0,,19.0,8.0,29.76,1008.9,,,,,,,,,,,,,,,Clear,72000.0,,,73000.0,,,,,,
KRDR,09-20-2011,00:00,METAR,,220,5.0,,,9999.0,,23.0,7.0,29.76,1009.0,,,,,,,,,,,,,,,2/8 Mostly Clear,72000.0,,FEW,7900.0,,,,,,
KRDR,09-19-2011,23:00,METAR,,230,14.0,,,9999.0,,24.0,6.0,29.77,1009.2,,,,,,,,,,,,,,,Clear,72000.0,,,73000.0,,,,,,
KRDR,09-19-2011,22:00,METAR,,220,13.0,20.0,,9999.0,,25.0,6.0,29.78,1009.6,,,,,,,,,,,,,,,Clear,72000.0,,,73000.0,,,,,,
KRDR,09-19-2011,21:00,METAR,,200,15.0,,,9999.0,,25.0,6.0,29.80,1010.3,,,,,,,,,,,,,,,Clear,72000.0,,,73000.0,,,,,,
KRDR,09-19-2011,20:00,METAR,,220,18.0,22.0,,9999.0,,25.0,5.0,29.84,1011.5,,,,,,,,,,,,,,,7/8 Mostly Cloudy,9000.0,,BKN,8900.0,,,,,,
KRDR,09-19-2011,19:00,METAR,,230,14.0,,,9999.0,,23.0,5.0,29.86,1012.1,,,,,,,,,,,,,,,Clear,72000.0,,,73000.0,,,,,,
KRDR,09-19-2011,18:00,METAR,,250,9.0,,,9999.0,,23.0,6.0,29.88,1012.9,,,,,,,,,,,,,,,2/8 Mostly Clear,72000.0,,FEW,9900.0,,,,,,
KRDR,09-19-2011,17:00,METAR,,240,13.0,,,9999.0,,22.0,5.0,29.91,1013.7,,,,,,,,,,,,,,,Clear,72000.0,,,73000.0,,,,,,
KRDR,09-19-2011,16:00,METAR,,230,12.0,,,9999.0,,21.0,6.0,29.92,1014.2,,,,,,,,,,,,,,,Clear,72000.0,,,73000.0,,,,,,
KRDR,09-19-2011,15:00,METAR,,220,9.0,,,9999.0,,17.0,7.0,29.94,1014.7,,,,,,,,,,,,,,,Clear,72000.0,,,73000.0,,,,,,
KRDR,09-19-2011,14:00,METAR,,230,7.0,,,9999.0,,12.0,8.0,29.94,1014.9,,,,,,,,,,,,,,,Clear,72000.0,,,73000.0,,,,,,
KRDR,09-19-2011,13:00,METAR,,240,4.0,,,9999.0,,8.0,8.0,29.95,1015.3,,,,,,,,,,,,,,,Clear,72000.0,,,73000.0,,,,,,
KRDR,09-19-2011,12:00,METAR,,240,7.0,,,9999.0,,7.0,7.0,29.96,1015.5,,,,,,,,,,,,,,.08 IN,Clear,72000.0,,,73000.0,,,,,,
KRDR,09-19-2011,11:00,METAR,,240,6.0,,,9999.0,,6.0,6.0,29.96,1015.6,,,,,,,,,,,,,,,Clear,72000.0,,,73000.0,,,,,,
KRDR,09-19-2011,10:00,METAR,,270,4.0,,,9999.0,,6.0,6.0,29.96,1015.6,,,,,,,,,,,,,,,Clear,72000.0,,,73000.0,,,,,,
KRDR,09-19-2011,09:00,METAR,,250,6.0,,,9999.0,,7.0,7.0,29.96,1015.4,,,,,,,,,,,,,,,Clear,72000.0,,,73000.0,,,,,,
KRDR,09-19-2011,08:00,METAR,,270,6.0,,,9999.0,,7.0,7.0,29.96,1015.4,,,,,,,,,,,,,,,Clear,72000.0,,,73000.0,,,,,,
KRDR,09-19-2011,07:00,METAR,,280,5.0,,,9999.0,,8.0,7.0,29.96,1015.6,,,,,,,,,,,,,,,Clear,72000.0,,,73000.0,,,,,,
KRDR,09-19-2011,06:00,METAR,,260,5.0,,,9999.0,,7.0,7.0,29.96,1015.4,,,,,,,,,,,,,,,Clear,72000.0,,,73000.0,,,,,,
KRDR,09-19-2011,05:00,METAR,,290,6.0,,,9999.0,,9.0,7.0,29.96,1015.4,,,,,,,,,,,,,,,Clear,72000.0,,,73000.0,,,,,,
KRDR,09-19-2011,04:00,METAR,,330,6.0,,,9999.0,,12.0,7.0,29.96,1015.4,,,,,,,,,,,,,,,Clear,72000.0,,,73000.0,,,,,,
KRDR,09-19-2011,03:00,METAR,,320,5.0,,,9999.0,,13.0,7.0,29.95,1015.1,,,,,,,,,,,,,,,Clear,72000.0,,,73000.0,,,,,,
KRDR,09-19-2011,02:00,METAR,,310,6.0,,,9999.0,,13.0,7.0,29.93,1014.4,,,,,,,,,,,,,,,Clear,72000.0,,,73000.0,,,,,,
KRDR,09-19-2011,01:00,METAR,,300,7.0,,,9999.0,,17.0,6.0,29.90,1013.5,,,,,,,,,,,,,,,Clear,72000.0,,,73000.0,,,,,,
KRDR,09-19-2011,00:00,METAR,,300,13.0,,,9999.0,,20.0,6.0,29.87,1012.7,,,,,,,,,,,,,,,Clear,72000.0,,,73000.0,,,,,,
KRDR,09-18-2011,23:00,METAR,,310,13.0,20.0,,9999.0,,22.0,4.0,29.85,1012.0,,,,,,,,,,,,,,,Clear,72000.0,,,73000.0,,,,,,
KRDR,09-18-2011,22:00,METAR,,290,13.0,,,9999.0,,23.0,6.0,29.84,1011.6,,,,,,,,,,,,,,,Clear,72000.0,,,73000.0,,,,,,
KRDR,09-18-2011,21:00,METAR,,280,14.0,20.0,,9999.0,,24.0,5.0,29.84,1011.5,,,,,,,,,,,,,,,Clear,72000.0,,,73000.0,,,,,,
KRDR,09-18-2011,20:00,METAR,,240,8.0,,,9999.0,,23.0,14.0,29.84,1011.5,,,,,,,,,,,,,,,Clear,72000.0,,,73000.0,,,,,,
KRDR,09-18-2011,19:00,METAR,,200,8.0,,,9999.0,,20.0,15.0,29.85,1012.0,,,,,,,,,,,,,,,2/8 Mostly Clear,72000.0,,FEW,2100.0,,,,,,
KRDR,09-18-2011,18:00,METAR,,180,12.0,,,9999.0,,17.0,16.0,29.87,1012.4,,,,,,,,,,,,,.08 IN,,4/8 Partly Cloudy,72000.0,,SCT,1300.0,,,,,,
KRDR,09-18-2011,17:50,SPECI,,190,12.0,,,9999.0,,17.0,16.0,29.87,1012.4,,,,,,,,,,,,,,,4/8 Partly Cloudy,72000.0,,SCT,1300.0,,,,,,
KRDR,09-18-2011,17:41,SPECI,,180,13.0,,,9999.0,,17.0,16.0,29.87,1012.5,,,,,,,,,,,,,,,7/8 Mostly Cloudy,1200.0,,BKN,1200.0,,,,,,
KRDR,09-18-2011,17:31,SPECI,,190,14.0,,,9999.0,,16.0,16.0,29.87,1012.7,,,,,,,,,,,,,,,4/8 Partly Cloudy,72000.0,,SCT,1200.0,,,,,,
KRDR,09-18-2011,17:22,SPECI,,190,11.0,,,9999.0,,16.0,16.0,29.88,1012.7,,,,,,,,,,,,,,,7/8 Mostly Cloudy,1200.0,,BKN,1200.0,,,,,,
KRDR,09-18-2011,17:00,METAR,,200,13.0,,,9999.0,,16.0,16.0,29.88,1013.0,,,,,,,,,,,,,,,8/8 Overcast,800.0,,OVC,1000.0,,,,,,
KRDR,09-18-2011,16:00,METAR,,200,12.0,,,9999.0,,14.0,14.0,29.89,1013.2,,,,,,,,,,,,,,,8/8 Overcast,600.0,,OVC,700.0,,,,,,
KRDR,09-18-2011,15:22,SPECI,,180,10.0,,,9999.0,,14.0,14.0,29.89,1013.1,,,,,,,,,,,,,,,8/8 Overcast,600.0,,OVC,700.0,,,,,,
KRDR,09-18-2011,15:00,METAR,,180,10.0,,,9999.0,,13.0,13.0,29.89,1013.2,,,,,,,,,,,,.08 IN,,,8/8 Overcast,500.0,,OVC,600.0,,,,,,
KRDR,09-18-2011,14:06,SPECI,,180,9.0,,,9999.0,,13.0,13.0,29.89,1013.1,,,,,,,,,,,,,,,8/8 Overcast,600.0,,OVC,600.0,,,,,,
KRDR,09-18-2011,14:00,METAR,,180,8.0,,,9999.0,,13.0,13.0,29.89,1013.3,,,,,,,,,,,TRACE,,,,8/8 Overcast,500.0,,OVC,500.0,,,,,,
KRDR,09-18-2011,13:17,SPECI,,180,8.0,,,9999.0,,12.0,12.0,29.89,1013.3,,,,,,,,,,,,,,,8/8 Overcast,500.0,,BKN,500.0,BKN,2600.0,OVC,9900.0,,
KRDR,09-18-2011,13:07,SPECI,,160,10.0,,,9999.0,,12.0,12.0,29.88,1013.0,,,,,,,,,,,,,,,7/8 Mostly Cloudy,600.0,,BKN,600.0,BKN,2900.0,BKN,9900.0,,
KRDR,09-18-2011,13:00,METAR,,160,8.0,,,9999.0,Light Rain,12.0,12.0,29.89,1013.1,61,,,,,,,,,,.08 IN,,,,8/8 Overcast,500.0,,BKN,500.0,OVC,5400.0,,,,
KRDR,09-18-2011,12:54,SPECI,,160,8.0,,,9999.0,Light Rain,12.0,12.0,29.89,1013.1,61,,,,,,,,,,,,,,8/8 Overcast,600.0,,BKN,600.0,OVC,4300.0,,,,
KRDR,09-18-2011,12:19,SPECI,,180,7.0,,,9999.0,Light Rain/Mist,12.0,12.0,29.89,1013.3,61,10,,,,,,,,,,,,,8/8 Overcast,500.0,,OVC,500.0,,,,,,
KRDR,09-18-2011,12:16,SPECI,,180,8.0,,,9999.0,Light Rain,12.0,12.0,29.89,1013.3,61,,,,,,,,,,,,,,8/8 Overcast,500.0,,OVC,600.0,,,,,,
KRDR,09-18-2011,12:11,SPECI,,170,8.0,,,9999.0,Light Rain,12.0,12.0,29.89,1013.2,61,,,,,,,,,,,,,,8/8 Overcast,500.0,,OVC,500.0,,,,,,
KRDR,09-18-2011,12:01,SPECI,,170,8.0,,,9999.0,Light Rain,12.0,12.0,29.89,1013.1,61,,,,,,,,,,,,,,8/8 Overcast,500.0,,OVC,500.0,,,,,,
KRDR,09-18-2011,12:00,METAR,,170,8.0,,,9999.0,Light Rain,12.0,12.0,29.89,1013.1,61,,,,,,,,,,.01 IN,,.02 IN,.02 IN,8/8 Overcast,500.0,,BKN,500.0,OVC,1000.0,,,,
KRDR,09-18-2011,11:50,SPECI,,170,8.0,,,9999.0,Light Rain,12.0,12.0,29.89,1013.1,61,,,,,,,,,,,,,,8/8 Overcast,500.0,,BKN,500.0,OVC,1000.0,,,,
KRDR,09-18-2011,11:46,SPECI,,170,7.0,,,9999.0,Light Rain,12.0,12.0,29.89,1013.1,61,,,,,,,,,,,,,,8/8 Overcast,500.0,,BKN,600.0,OVC,1000.0,,,,
KRDR,09-18-2011,11:31,SPECI,,170,8.0,,,9999.0,Light Drizzle,12.0,12.0,29.89,1013.1,51,,,,,,,,,,,,,,8/8 Overcast,500.0,,BKN,800.0,OVC,8900.0,,,,
KRDR,09-18-2011,11:24,SPECI,,170,8.0,,,9999.0,,13.0,13.0,29.89,1013.1,,,,,,,,,,,,,,,8/8 Overcast,500.0,,OVC,800.0,,,,,,
KRDR,09-18-2011,11:07,SPECI,,170,8.0,,,9999.0,,13.0,13.0,29.89,1013.3,,,,,,,,,,,,,,,8/8 Overcast,400.0,,OVC,600.0,,,,,,
KRDR,09-18-2011,11:00,METAR,,180,8.0,,,9999.0,,13.0,13.0,29.90,1013.4,,,,,,,,,,,,,,,8/8 Overcast,400.0,,OVC,400.0,,,,,,
KRDR,09-18-2011,10:54,SPECI,,180,7.0,,,9999.0,,13.0,13.0,29.89,1013.4,,,,,,,,,,,,,,,8/8 Overcast,400.0,,OVC,400.0,,,,,,
KRDR,09-18-2011,10:42,SPECI,,180,8.0,,,9999.0,Mist,13.0,13.0,29.90,1013.5,10,,,,,,,,,,,,,,8/8 Overcast,400.0,,OVC,400.0,,,,,,
KRDR,09-18-2011,10:20,SPECI,,210,8.0,,,6400.0,Mist,13.0,13.0,29.90,1013.5,10,,,,,,,,,,,,,,8/8 Overcast,400.0,,OVC,500.0,,,,,,
KRDR,09-18-2011,10:11,SPECI,,200,8.0,,,8000.0,Mist,13.0,13.0,29.90,1013.5,10,,,,,,,,,,,,,,8/8 Overcast,500.0,,OVC,500.0,,,,,,
KRDR,09-18-2011,10:00,METAR,,200,10.0,,,9999.0,,13.0,13.0,29.90,1013.5,,,,,,,,,,,TRACE,,,,8/8 Overcast,500.0,,OVC,600.0,,,,,,
KRDR,09-18-2011,09:48,SPECI,,200,11.0,,,9999.0,,13.0,13.0,29.90,1013.5,,,,,,,,,,,,,,,8/8 Overcast,500.0,,OVC,600.0,,,,,,
KRDR,09-18-2011,09:35,SPECI,,200,11.0,,,9999.0,,13.0,13.0,29.90,1013.4,,,,,,,,,,,,,,,8/8 Overcast,700.0,,OVC,700.0,,,,,,
KRDR,09-18-2011,09:20,SPECI,,190,11.0,,,9999.0,,13.0,13.0,29.89,1013.3,,,,,,,,,,,,,,,8/8 Overcast,700.0,,OVC,700.0,,,,,,
KRDR,09-18-2011,09:03,SPECI,,200,9.0,,,9999.0,,13.0,13.0,29.89,1013.3,,,,,,,,,,,,,,,8/8 Overcast,600.0,,OVC,600.0,,,,,,
KRDR,09-18-2011,09:00,METAR,,190,8.0,,,9999.0,,13.0,13.0,29.89,1013.2,,,,,,,,,,,,,,,8/8 Overcast,600.0,,OVC,600.0,,,,,,
KRDR,09-18-2011,08:28,SPECI,,200,10.0,,,8000.0,Light Rain/Mist,13.0,13.0,29.89,1013.2,61,10,,,,,,,,,,,,,8/8 Overcast,600.0,,BKN,600.0,BKN,1500.0,OVC,2200.0,,
KRDR,09-18-2011,08:09,SPECI,,200,8.0,,,9999.0,Light Drizzle/Mist,13.0,13.0,29.89,1013.4,51,10,,,,,,,,,,,,,8/8 Overcast,1300.0,,FEW,700.0,SCT,1500.0,OVC,2100.0,,
KRDR,09-18-2011,08:00,METAR,,200,10.0,,,8000.0,Light Drizzle/Mist,13.0,13.0,29.89,1013.3,51,10,,,,,,,,,TRACE,,,,8/8 Overcast,600.0,,OVC,2100.0,,,,,,
KRDR,09-18-2011,07:30,SPECI,,210,12.0,,,9999.0,Light Rain/Mist,14.0,14.0,29.89,1013.2,61,10,,,,,,,,,,,,,8/8 Overcast,2000.0,,FEW,700.0,OVC,2000.0,,,,
KRDR,09-18-2011,07:22,SPECI,,200,12.0,,,9999.0,Light Drizzle,14.0,13.0,29.89,1013.3,51,,,,,,,,,,,,,,8/8 Overcast,1900.0,,FEW,700.0,SCT,1300.0,OVC,1900.0,,
KRDR,09-18-2011,07:18,SPECI,,200,12.0,,,9999.0,,14.0,13.0,29.89,1013.3,,,,,,,,,,,,,,,8/8 Overcast,1900.0,,FEW,700.0,SCT,1300.0,OVC,1900.0,,
KRDR,09-18-2011,07:00,METAR,,200,15.0,20.0,,9999.0,,15.0,12.0,29.89,1013.2,,,,,,,,,,,,,,,8/8 Overcast,2000.0,,OVC,2000.0,,,,,,
KRDR,09-18-2011,06:00,METAR,,200,14.0,19.0,,9999.0,,16.0,11.0,29.89,1013.3,,,,,,,,,,,,,,,8/8 Overcast,2500.0,,OVC,2500.0,,,,,,
KRDR,09-18-2011,05:00,METAR,,190,6.0,,,9999.0,,15.0,10.0,29.90,1013.6,,,,,,,,,,,,,,,8/8 Overcast,2700.0,,BKN,2700.0,OVC,3300.0,,,,
KRDR,09-18-2011,04:43,SPECI,,200,9.0,,,9999.0,,15.0,10.0,29.90,1013.6,,,,,,,,,,,,,,,8/8 Overcast,2900.0,,BKN,2900.0,OVC,3500.0,,,,
KRDR,09-18-2011,04:27,SPECI,,180,10.0,,,9999.0,,15.0,9.0,29.90,1013.6,,,,,,,,,,,,,,,8/8 Overcast,3000.0,,BKN,3000.0,OVC,3500.0,,,,
KRDR,09-18-2011,04:00,METAR,,140,7.0,,,9999.0,,15.0,9.0,29.91,1013.8,,,,,,,,,,,,,,,8/8 Overcast,2400.0,,SCT,1900.0,OVC,2800.0,,,,
KRDR,09-18-2011,03:29,SPECI,,150,7.0,,,9999.0,,14.0,9.0,29.91,1013.9,,,,,,,,,,,,,,,8/8 Overcast,2100.0,,FEW,1600.0,BKN,2300.0,OVC,3100.0,,
KRDR,09-18-2011,03:23,SPECI,,140,6.0,,,9999.0,,14.0,9.0,29.91,1013.9,,,,,,,,,,,,,,,8/8 Overcast,3100.0,,SCT,2400.0,OVC,3100.0,,,,
KRDR,09-18-2011,03:14,SPECI,,140,6.0,,,9999.0,,14.0,9.0,29.91,1013.9,,,,,,,,,,,,,,,8/8 Overcast,2500.0,,BKN,2900.0,OVC,3500.0,,,,
KRDR,09-18-2011,03:00,METAR,,140,6.0,,,9999.0,,15.0,9.0,29.92,1014.1,,,,,,,,,,,,,,,8/8 Overcast,3400.0,,OVC,3500.0,,,,,,
KRDR,09-18-2011,02:00,METAR,,140,6.0,,,9999.0,,15.0,10.0,29.92,1014.3,,,,,,,,,,,,,,,8/8 Overcast,3600.0,,OVC,3700.0,,,,,,
KRDR,09-18-2011,01:00,METAR,,170,8.0,,,9999.0,,15.0,10.0,29.93,1014.4,,,,,,,,,,,,,,,8/8 Overcast,3100.0,,OVC,3100.0,,,,,,
KRDR,09-18-2011,00:21,SPECI,,170,12.0,20.0,,9999.0,,16.0,10.0,29.93,1014.6,,,,,,,,,,,,,,,8/8 Overcast,3000.0,,OVC,3000.0,,,,,,
KRDR,09-18-2011,00:00,METAR,,170,11.0,,,9999.0,,15.0,10.0,29.93,1014.5,,,,,,,,,,,,,,,8/8 Overcast,2300.0,,OVC,2800.0,,,,,,
KRDR,09-17-2011,23:00,METAR,,170,15.0,24.0,,9999.0,,15.0,9.0,29.93,1014.5,,,,,,,,,,,,,,,8/8 Overcast,2000.0,,OVC,2700.0,,,,,,
KRDR,09-17-2011,22:17,SPECI,,170,11.0,,,9999.0,,15.0,9.0,29.93,1014.7,,,,,,,,,,,,,,,8/8 Overcast,2900.0,,OVC,2900.0,,,,,,
KRDR,09-17-2011,22:00,METAR,,160,17.0,,,9999.0,,15.0,9.0,29.93,1014.7,,,,,,,,,,,,,,,8/8 Overcast,2900.0,,OVC,2900.0,,,,,,
KRDR,09-17-2011,21:53,SPECI,,160,16.0,,,9999.0,,15.0,9.0,29.93,1014.7,,,,,,,,,,,,,,,8/8 Overcast,3000.0,,OVC,3000.0,,,,,,
KRDR,09-17-2011,21:00,METAR,,160,16.0,,,9999.0,,15.0,9.0,29.94,1015.0,,,,,,,,,,,,,,,8/8 Overcast,2900.0,,OVC,2900.0,,,,,,
KRDR,09-17-2011,20:00,METAR,,160,15.0,22.0,,9999.0,,16.0,9.0,29.95,1015.3,,,,,,,,,,,,,,,8/8 Overcast,2600.0,,BKN,2600.0,OVC,4900.0,,,,
KRDR,09-17-2011,19:00,METAR,,150,15.0,,,9999.0,,15.0,9.0,29.98,1016.2,,,,,,,,,,,,,,,8/8 Overcast,2500.0,,OVC,2500.0,,,,,,
KRDR,09-17-2011,18:00,METAR,,170,16.0,,,9999.0,,14.0,8.0,29.99,1016.6,,,,,,,,,,,,,,,8/8 Overcast,2600.0,,OVC,2600.0,,,,,,
KRDR,09-17-2011,17:00,METAR,,160,17.0,,,9999.0,,14.0,8.0,30.00,1016.9,,,,,,,,,,,,,,,8/8 Overcast,2600.0,,BKN,2600.0,OVC,5000.0,,,,
KRDR,09-17-2011,16:00,METAR,,170,18.0,22.0,,9999.0,,13.0,7.0,30.01,1017.0,,,,,,,,,,,,,,,8/8 Overcast,2300.0,,OVC,2300.0,,,,,,
KRDR,09-17-2011,15:16,SPECI,,160,18.0,,,9999.0,,12.0,7.0,30.00,1016.9,,,,,,,,,,,,,,,8/8 Overcast,2300.0,,BKN,2300.0,OVC,4900.0,,,,
KRDR,09-17-2011,15:09,SPECI,,160,15.0,,,9999.0,,12.0,6.0,30.00,1016.9,,,,,,,,,,,,,,,8/8 Overcast,2300.0,,SCT,2300.0,OVC,4900.0,,,,
KRDR,09-17-2011,15:00,METAR,,160,15.0,22.0,,9999.0,,12.0,6.0,30.00,1016.9,,,,,,,,,,,,,,,8/8 Overcast,2200.0,,OVC,2200.0,,,,,,
KRDR,09-17-2011,14:00,METAR,,160,12.0,,,9999.0,,11.0,6.0,30.01,1017.3,,,,,,,,,,,,,,,8/8 Overcast,2200.0,,BKN,2200.0,OVC,4700.0,,,,
KRDR,09-17-2011,13:29,SPECI,,160,10.0,,,9999.0,,11.0,6.0,30.01,1017.3,,,,,,,,,,,,,,,8/8 Overcast,2300.0,,BKN,2300.0,OVC,4600.0,,,,
KRDR,09-17-2011,13:00,METAR,,160,12.0,,,9999.0,,11.0,6.0,30.02,1017.6,,,,,,,,,,,,,,,8/8 Overcast,2400.0,,BKN,2400.0,OVC,4500.0,,,,
KRDR,09-17-2011,12:54,SPECI,,160,9.0,,,9999.0,,11.0,6.0,30.02,1017.6,,,,,,,,,,,,,,,8/8 Overcast,4400.0,,SCT,2400.0,OVC,4500.0,,,,
KRDR,09-17-2011,12:00,METAR,,160,13.0,,,9999.0,,11.0,6.0,30.03,1017.7,,,,,,,,,,,,,,,8/8 Overcast,2600.0,,OVC,2600.0,,,,,,
KRDR,09-17-2011,11:00,METAR,,180,11.0,,,9999.0,,11.0,6.0,30.03,1017.8,,,,,,,,,,,,,,,8/8 Overcast,2700.0,,OVC,2700.0,,,,,,
KRDR,09-17-2011,10:00,METAR,,190,10.0,,,9999.0,,12.0,6.0,30.03,1017.9,,,,,,,,,,,,,,,8/8 Overcast,2800.0,,OVC,2800.0,,,,,,
KRDR,09-17-2011,09:00,METAR,,190,10.0,,,9999.0,,11.0,6.0,30.04,1018.1,,,,,,,,,,,,,,,8/8 Overcast,3000.0,,OVC,3000.0,,,,,,
KRDR,09-17-2011,08:00,METAR,,190,12.0,,,9999.0,,11.0,5.0,30.04,1018.1,,,,,,,,,,,,,,,8/8 Overcast,3200.0,,OVC,3300.0,,,,,,
KRDR,09-17-2011,07:00,METAR,,190,11.0,,,9999.0,,12.0,5.0,30.05,1018.5,,,,,,,,,,,,,,,8/8 Overcast,4900.0,,OVC,5000.0,,,,,,
KRDR,09-17-2011,06:00,METAR,,180,11.0,,,9999.0,,12.0,5.0,30.05,1018.5,,,,,,,,,,,,,,,8/8 Overcast,4900.0,,OVC,5000.0,,,,,,
KRDR,09-17-2011,05:00,METAR,,190,12.0,,,9999.0,,12.0,4.0,30.06,1018.7,,,,,,,,,,,,,,,8/8 Overcast,4900.0,,OVC,5000.0,,,,,,
KRDR,09-17-2011,04:00,METAR,,190,12.0,,,9999.0,,12.0,5.0,30.06,1018.9,,,,,,,,,,,,,,,8/8 Overcast,4800.0,,OVC,4900.0,,,,,,
KRDR,09-17-2011,03:00,METAR,,170,12.0,,,9999.0,,12.0,4.0,30.06,1018.9,,,,,,,,,,,,,,,8/8 Overcast,4900.0,,OVC,5000.0,,,,,,
KRDR,09-17-2011,02:00,METAR,,170,13.0,,,9999.0,,12.0,4.0,30.06,1018.9,,,,,,,,,,,,,,,8/8 Overcast,4900.0,,OVC,5000.0,,,,,,
KRDR,09-17-2011,01:00,METAR,,160,12.0,,,9999.0,,12.0,4.0,30.06,1018.9,,,,,,,,,,,,,,,8/8 Overcast,4900.0,,OVC,5000.0,,,,,,
KRDR,09-17-2011,00:00,METAR,,170,11.0,,,9999.0,,13.0,4.0,30.07,1019.1,,,,,,,,,,,,,,,8/8 Overcast,4200.0,,BKN,4300.0,OVC,5400.0,,,,
KRDR,09-16-2011,23:00,METAR,,160,14.0,21.0,,9999.0,,13.0,4.0,30.08,1019.4,,,,,,,,,,,,,,,8/8 Overcast,4100.0,,OVC,4200.0,,,,,,
KRDR,09-16-2011,22:00,METAR,,160,16.0,,,9999.0,,13.0,4.0,30.08,1019.6,,,,,,,,,,,,,,,8/8 Overcast,4000.0,,OVC,4100.0,,,,,,
KRDR,09-16-2011,21:00,METAR,,170,19.0,22.0,,9999.0,,13.0,4.0,30.10,1020.0,,,,,,,,,,,,,,,8/8 Overcast,4100.0,,OVC,4200.0,,,,,,
KRDR,09-16-2011,20:00,METAR,,170,17.0,,,9999.0,,14.0,4.0,30.10,1020.2,,,,,,,,,,,,,,,8/8 Overcast,4000.0,,OVC,4100.0,,,,,,
KRDR,09-16-2011,19:00,METAR,,180,19.0,24.0,,9999.0,,13.0,4.0,30.12,1020.7,,,,,,,,,,,,,,,8/8 Overcast,3900.0,,OVC,4000.0,,,,,,
KRDR,09-16-2011,18:00,METAR,,160,18.0,23.0,,9999.0,,12.0,4.0,30.13,1021.1,,,,,,,,,,,,,,,7/8 Mostly Cloudy,3300.0,,BKN,3400.0,,,,,,
KRDR,09-16-2011,17:00,METAR,,180,17.0,,,9999.0,,11.0,4.0,30.14,1021.6,,,,,,,,,,,,,,,8/8 Overcast,3100.0,,OVC,3200.0,,,,,,
KRDR,09-16-2011,16:00,METAR,,180,20.0,24.0,,9999.0,,11.0,4.0,30.15,1021.8,,,,,,,,,,,,,,,7/8 Mostly Cloudy,3100.0,,BKN,3200.0,,,,,,
KRDR,09-16-2011,15:00,METAR,,170,11.0,,,9999.0,,10.0,4.0,30.16,1022.1,,,,,,,,,,,,,,,7/8 Mostly Cloudy,4800.0,,BKN,4900.0,,,,,,
KRDR,09-16-2011,14:00,METAR,,150,10.0,,,9999.0,,7.0,4.0,30.18,1022.6,,,,,,,,,,,,,,,8/8 Overcast,4400.0,,OVC,4500.0,,,,,,
KRDR,09-16-2011,13:00,METAR,,160,7.0,,,9999.0,,5.0,3.0,30.18,1022.7,,,,,,,,,,,,,,,8/8 Overcast,4600.0,,OVC,4700.0,,,,,,
KRDR,09-16-2011,12:00,METAR,,160,8.0,,,9999.0,,4.0,3.0,30.18,1022.7,,,,,,,,,,,,,,,8/8 Overcast,3900.0,,BKN,4000.0,OVC,5000.0,,,,
KRDR,09-16-2011,11:00,METAR,,190,6.0,,,9999.0,,1.0,1.0,30.18,1022.8,,,,,,,,,,,,,,,4/8 Partly Cloudy,72000.0,,SCT,4800.0,,,,,,
KRDR,09-16-2011,10:00,METAR,,190,5.0,,,9999.0,,1.0,1.0,30.18,1022.7,,,,,,,,,,,,,,,Clear,72000.0,,,73000.0,,,,,,
KRDR,09-16-2011,09:00,METAR,,190,6.0,,,9999.0,,1.0,0.0,30.18,1022.7,,,,,,,,,,,,,,,Clear,72000.0,,,73000.0,,,,,,
KRDR,09-16-2011,08:00,METAR,,180,8.0,,,9999.0,,0.0,0.0,30.19,1022.9,,,,,,,,,,,,,,,Clear,72000.0,,,73000.0,,,,,,
KRDR,09-16-2011,07:00,METAR,,170,8.0,,,9999.0,,2.0,0.0,30.19,1023.2,,,,,,,,,,,,,,,Clear,72000.0,,,73000.0,,,,,,
KRDR,09-16-2011,06:00,METAR,,160,6.0,,,9999.0,,3.0,0.0,30.20,1023.4,,,,,,,,,,,,,,,Clear,72000.0,,,73000.0,,,,,,
KRDR,09-16-2011,05:00,METAR,,160,3.0,,,9999.0,,4.0,-1.0,30.20,1023.4,,,,,,,,,,,,,,,Clear,72000.0,,,73000.0,,,,,,
KRDR,09-16-2011,04:00,METAR,,190,7.0,,,9999.0,,5.0,-1.0,30.20,1023.6,,,,,,,,,,,,,,,Clear,72000.0,,,73000.0,,,,,,
KRDR,09-16-2011,03:00,METAR,,150,8.0,,,9999.0,,7.0,-1.0,30.20,1023.5,,,,,,,,,,,,,,,Clear,72000.0,,,73000.0,,,,,,
KRDR,09-16-2011,02:00,METAR,,170,8.0,,,9999.0,,8.0,-2.0,30.20,1023.6,,,,,,,,,,,,,,,Clear,72000.0,,,73000.0,,,,,,
KRDR,09-16-2011,01:00,METAR,,160,6.0,,,9999.0,,9.0,-2.0,30.21,1023.8,,,,,,,,,,,,,,,Clear,72000.0,,,73000.0,,,,,,
KRDR,09-16-2011,00:00,METAR,,180,10.0,,,9999.0,,14.0,-3.0,30.23,1024.4,,,,,,,,,,,,,,,Clear,72000.0,,,73000.0,,,,,,
KRDR,09-15-2011,23:00,METAR,,190,11.0,,,9999.0,,15.0,-3.0,30.24,1024.7,,,,,,,,,,,,,,,Clear,72000.0,,,73000.0,,,,,,
KRDR,09-15-2011,22:00,METAR,,170,10.0,,,9999.0,,16.0,-4.0,30.26,1025.4,,,,,,,,,,,,,,,Clear,72000.0,,,73000.0,,,,,,
KRDR,09-15-2011,21:00,METAR,,180,9.0,17.0,,9999.0,,16.0,-3.0,30.28,1026.1,,,,,,,,,,,,,,,Clear,72000.0,,,73000.0,,,,,,
KRDR,09-15-2011,20:00,METAR,,170,10.0,16.0,,9999.0,,15.0,-3.0,30.31,1027.1,,,,,,,,,,,,,,,Clear,72000.0,,,73000.0,,,,,,
KRDR,09-15-2011,19:00,METAR,,200,9.0,,,9999.0,,15.0,-3.0,30.34,1027.9,,,,,,,,,,,,,,,Clear,72000.0,,,73000.0,,,,,,
KRDR,09-15-2011,18:00,METAR,,200,11.0,15.0,,9999.0,,14.0,-3.0,30.36,1028.8,,,,,,,,,,,,,,,Clear,72000.0,,,73000.0,,,,,,
KRDR,09-15-2011,17:00,METAR,,190,9.0,,,9999.0,,13.0,-2.0,30.38,1029.5,,,,,,,,,,,,,,,Clear,72000.0,,,73000.0,,,,,,
KRDR,09-15-2011,16:00,METAR,,210,10.0,,,9999.0,,12.0,-1.0,30.39,1029.8,,,,,,,,,,,,,,,Clear,72000.0,,,73000.0,,,,,,
KRDR,09-15-2011,15:00,METAR,,190,10.0,,,9999.0,,10.0,0.0,30.40,1029.9,,,,,,,,,,,,,,,Clear,72000.0,,,73000.0,,,,,,
KRDR,09-15-2011,14:00,METAR,,190,4.0,,,9999.0,,5.0,2.0,30.40,1030.1,,,,,,,,,,,,,,,Clear,72000.0,,,73000.0,,,,,,
KRDR,09-15-2011,13:00,METAR,,180,4.0,,,9999.0,,0.0,0.0,30.40,1030.1,,,,,,,,,,,,,,,Clear,72000.0,,,73000.0,,,,,,
KRDR,09-15-2011,12:00,METAR,,190,3.0,,,9999.0,,-2.0,-2.0,30.40,1030.2,,,,,,,,,,,,,,,Clear,72000.0,,,73000.0,,,,,,
KRDR,09-15-2011,11:00,METAR,,230,3.0,,,9999.0,,-1.0,-1.0,30.41,1030.2,,,,,,,,,,,,,,,Clear,72000.0,,,73000.0,,,,,,
KRDR,09-15-2011,10:00,METAR,,240,4.0,,,9999.0,,-1.0,-1.0,30.40,1030.2,,,,,,,,,,,,,,,Clear,72000.0,,,73000.0,,,,,,
KRDR,09-15-2011,09:00,METAR,,230,4.0,,,9999.0,,-1.0,-1.0,30.40,1030.0,,,,,,,,,,,,,,,Clear,72000.0,,,73000.0,,,,,,
KRDR,09-15-2011,08:00,METAR,,230,4.0,,,9999.0,,-1.0,-1.0,30.40,1030.0,,,,,,,,,,,,,,,Clear,72000.0,,,73000.0,,,,,,
KRDR,09-15-2011,07:00,METAR,,,0.0,,,9999.0,,0.0,-1.0,30.40,1030.1,,,,,,,,,,,,,,,Clear,72000.0,,,73000.0,,,,,,
KRDR,09-15-2011,06:00,METAR,,,0.0,,,9999.0,,0.0,0.0,30.40,1030.0,,,,,,,,,,,,,,,Clear,72000.0,,,73000.0,,,,,,
KRDR,09-15-2011,05:00,METAR,,270,3.0,,,9999.0,,0.0,-1.0,30.39,1029.7,,,,,,,,,,,,,,,Clear,72000.0,,,73000.0,,,,,,
KRDR,09-15-2011,04:00,METAR,,,0.0,,,9999.0,,1.0,0.0,30.39,1029.5,,,,,,,,,,,,,,,Clear,72000.0,,,73000.0,,,,,,
KRDR,09-15-2011,03:00,METAR,,100,3.0,,,9999.0,,4.0,0.0,30.38,1029.5,,,,,,,,,,,,,,,Clear,72000.0,,,73000.0,,,,,,
KRDR,09-15-2011,02:00,METAR,,80,4.0,,,9999.0,,6.0,-1.0,30.37,1029.1,,,,,,,,,,,,,,,2/8 Mostly Clear,72000.0,,FEW,5900.0,,,,,,
KRDR,09-15-2011,01:00,METAR,,350,4.0,,,9999.0,,7.0,-1.0,30.36,1028.8,,,,,,,,,,,,,,,2/8 Mostly Clear,72000.0,,FEW,5900.0,,,,,,
KRDR,09-15-2011,00:00,METAR,,10,7.0,,,9999.0,,11.0,-2.0,30.36,1028.6,,,,,,,,,,,,,,,Clear,72000.0,,,73000.0,,,,,,
KRDR,09-14-2011,23:00,METAR,,340,11.0,,,9999.0,,12.0,-3.0,30.35,1028.4,,,,,,,,,,,,,,,7/8 Mostly Cloudy,7000.0,,BKN,6900.0,,,,,,
KRDR,09-14-2011,22:00,METAR,,350,11.0,16.0,,9999.0,,12.0,-2.0,30.35,1028.5,,,,,,,,,,,,,,,4/8 Partly Cloudy,72000.0,,SCT,6900.0,,,,,,
KRDR,09-14-2011,21:00,METAR,,20,10.0,,,9999.0,,11.0,-1.0,30.36,1028.8,,,,,,,,,,,,,,,8/8 Overcast,6000.0,,OVC,5900.0,,,,,,
KRDR,09-14-2011,20:44,SPECI,,20,11.0,,,9999.0,,11.0,-1.0,30.36,1028.8,,,,,,,,,,,,,,,7/8 Mostly Cloudy,6000.0,,BKN,5900.0,BKN,7400.0,,,,
KRDR,09-14-2011,20:00,METAR,,360,14.0,18.0,,9999.0,,12.0,-2.0,30.36,1028.8,,,,,,,,,,,,,,,7/8 Mostly Cloudy,7000.0,,BKN,6900.0,,,,,,
KRDR,09-14-2011,19:00,METAR,,350,13.0,,,9999.0,,12.0,-2.0,30.36,1028.9,,,,,,,,,,,,,,,4/8 Partly Cloudy,72000.0,,SCT,5000.0,,,,,,
KRDR,09-14-2011,18:00,METAR,,350,10.0,21.0,,9999.0,,10.0,-1.0,30.37,1029.1,,,,,,,,,,,,,,,4/8 Partly Cloudy,72000.0,,SCT,4600.0,,,,,,
KRDR,09-14-2011,17:00,METAR,,340,14.0,19.0,,9999.0,,10.0,0.0,30.38,1029.3,,,,,,,,,,,,,,,2/8 Mostly Clear,72000.0,,FEW,4000.0,,,,,,
KRDR,09-14-2011,16:00,METAR,,320,13.0,,,9999.0,,9.0,0.0,30.37,1029.0,,,,,,,,,,,,,,,Clear,72000.0,,,73000.0,,,,,,
KRDR,09-14-2011,15:00,METAR,,340,11.0,19.0,,9999.0,,7.0,0.0,30.37,1028.9,,,,,,,,,,,,,,,Clear,72000.0,,,73000.0,,,,,,
KRDR,09-14-2011,14:00,METAR,,340,10.0,,,9999.0,,5.0,0.0,30.36,1028.6,,,,,,,,,,,,,,,Clear,72000.0,,,73000.0,,,,,,
KRDR,09-14-2011,13:00,METAR,,330,8.0,,,9999.0,,2.0,-1.0,30.35,1028.2,,,,,,,,,,,,,,,Clear,72000.0,,,73000.0,,,,,,
KRDR,09-14-2011,12:00,METAR,,320,9.0,,,9999.0,,1.0,-1.0,30.32,1027.5,,,,,,,,,,,,,,,Clear,72000.0,,,73000.0,,,,,,
KRDR,09-14-2011,11:00,METAR,,310,6.0,,,9999.0,,1.0,-2.0,30.31,1027.0,,,,,,,,,,,,,,,Clear,72000.0,,,73000.0,,,,,,
KRDR,09-14-2011,10:00,METAR,,330,8.0,,,9999.0,,3.0,-2.0,30.30,1026.7,,,,,,,,,,,,,,,Clear,72000.0,,,73000.0,,,,,,
KRDR,09-14-2011,09:00,METAR,,320,7.0,,,9999.0,,2.0,-2.0,30.29,1026.4,,,,,,,,,,,,,,,Clear,72000.0,,,73000.0,,,,,,
KRDR,09-14-2011,08:00,METAR,,330,8.0,,,9999.0,,3.0,-2.0,30.28,1026.1,,,,,,,,,,,,,,,Clear,72000.0,,,73000.0,,,,,,
KRDR,09-14-2011,07:00,METAR,,330,7.0,,,9999.0,,3.0,-2.0,30.27,1025.7,,,,,,,,,,,,,,,Clear,72000.0,,,73000.0,,,,,,
KRDR,09-14-2011,06:00,METAR,,320,5.0,,,9999.0,,3.0,-2.0,30.26,1025.4,,,,,,,,,,,,,,,Clear,72000.0,,,73000.0,,,,,,
KRDR,09-14-2011,05:00,METAR,,340,7.0,,,9999.0,,4.0,-2.0,30.25,1025.1,,,,,,,,,,,,,,,Clear,72000.0,,,73000.0,,,,,,
KRDR,09-14-2011,04:00,METAR,,350,8.0,,,9999.0,,4.0,-1.0,30.24,1024.9,,,,,,,,,,,,,,,Clear,72000.0,,,73000.0,,,,,,
KRDR,09-14-2011,03:00,METAR,,350,7.0,,,9999.0,,6.0,-1.0,30.22,1024.2,,,,,,,,,,,,,,,Clear,72000.0,,,73000.0,,,,,,
KRDR,09-14-2011,02:00,METAR,,10,11.0,20.0,,9999.0,,8.0,0.0,30.19,1023.2,,,,,,,,,,,,,,,Clear,72000.0,,,73000.0,,,,,,
KRDR,09-14-2011,01:00,METAR,,20,13.0,22.0,,9999.0,,9.0,1.0,30.15,1021.9,,,,,,,,,,,,,,,Clear,72000.0,,,73000.0,,,,,,
KRDR,09-14-2011,00:00,METAR,,20,19.0,25.0,010/30KTS,9999.0,,11.0,-1.0,30.12,1020.7,,,,,,,,,,,,,TRACE,,Clear,72000.0,,,73000.0,,,,,,
KRDR,09-13-2011,23:00,METAR,,20,19.0,29.0,010/29KTS,9999.0,,14.0,3.0,30.07,1019.2,,,,,,,,,,,,,,,4/8 Partly Cloudy,72000.0,,SCT,6900.0,,,,,,
KRDR,09-13-2011,22:00,METAR,,360,17.0,24.0,030/30KTS,9999.0,,15.0,7.0,30.04,1018.3,,,,,,,,,,,,,,,4/8 Partly Cloudy,72000.0,,FEW,4300.0,SCT,5900.0,SCT,6900.0,,
KRDR,09-13-2011,21:00,METAR,,350,19.0,30.0,350/32KTS,9999.0,,18.0,3.0,30.01,1017.2,,,,,,,,,,,TRACE,0 IN,,,4/8 Partly Cloudy,72000.0,,FEW,5900.0,SCT,7900.0,,,,
KRDR,09-13-2011,20:47,SPECI,,330,16.0,26.0,350/32KTS,9999.0,,17.0,5.0,30.00,1017.0,,,,,,,,,,,,,,,2/8 Mostly Clear,72000.0,,FEW,5900.0,,,,,,
KRDR,09-13-2011,20:38,SPECI,,330,20.0,31.0,350/32KTS,9999.0,Light Rain,18.0,6.0,30.01,1017.0,61,,,,,,,,,,,,,,2/8 Mostly Clear,72000.0,,FEW,5900.0,,,,,,
KRDR,09-13-2011,20:00,METAR,,320,13.0,25.0,320/27KTS,9999.0,,18.0,5.0,29.99,1016.5,,,,,,,,,,,,,,,7/8 Mostly Cloudy,10000.0,,FEW,5400.0,BKN,9900.0,,,,
KRDR,09-13-2011,19:00,METAR,,320,15.0,27.0,330/27KTS,9999.0,,19.0,6.0,29.98,1016.0,,,,,,,,,,,,,,,4/8 Partly Cloudy,72000.0,,SCT,5900.0,,,,,,
KRDR,09-13-2011,18:00,METAR,,320,16.0,23.0,,9999.0,,19.0,6.0,29.96,1015.7,,,,,,,,,,,,,,,4/8 Partly Cloudy,72000.0,,SCT,6400.0,SCT,8900.0,,,,
KRDR,09-13-2011,17:00,METAR,,290,12.0,21.0,,9999.0,,20.0,7.0,29.96,1015.7,,,,,,,,,,,,,,,2/8 Mostly Clear,72000.0,,FEW,9900.0,,,,,,
KRDR,09-13-2011,16:00,METAR,,300,11.0,22.0,,9999.0,,18.0,7.0,29.97,1015.9,,,,,,,,,,,,,,,4/8 Partly Cloudy,72000.0,,SCT,9900.0,,,,,,
KRDR,09-13-2011,15:00,METAR,,290,11.0,18.0,,9999.0,,16.0,8.0,29.98,1016.1,,,,,,,,,,,,,,,Clear,72000.0,,,73000.0,,,,,,
KRDR,09-13-2011,14:00,METAR,,280,12.0,,,9999.0,,13.0,8.0,29.99,1016.4,,,,,,,,,,,,,,,Clear,72000.0,,,73000.0,,,,,,
KRDR,09-13-2011,13:00,METAR,,280,10.0,,,9999.0,,10.0,8.0,29.99,1016.5,,,,,,,,,,,,,,,Clear,72000.0,,,73000.0,,,,,,
KRDR,09-13-2011,12:00,METAR,,280,8.0,,,9999.0,,9.0,8.0,29.99,1016.6,,,,,,,,,,,,,,,Clear,72000.0,,,73000.0,,,,,,
KRDR,09-13-2011,11:00,METAR,,280,7.0,,,9999.0,,9.0,7.0,30.00,1016.7,,,,,,,,,,,,,,,Clear,72000.0,,,73000.0,,,,,,
KRDR,09-13-2011,10:00,METAR,,280,7.0,,,9999.0,,8.0,8.0,30.00,1016.8,,,,,,,,,,,,,,,Clear,72000.0,,,73000.0,,,,,,
KRDR,09-13-2011,09:00,METAR,,280,7.0,,,9999.0,,8.0,7.0,30.01,1017.0,,,,,,,,,,,,,,,Clear,72000.0,,,73000.0,,,,,,
KRDR,09-13-2011,08:00,METAR,,280,5.0,,,9999.0,,8.0,7.0,30.01,1017.3,,,,,,,,,,,,,,,Clear,72000.0,,,73000.0,,,,,,
KRDR,09-13-2011,07:00,METAR,,300,6.0,,,9999.0,,8.0,7.0,30.02,1017.5,,,,,,,,,,,,,,,2/8 Mostly Clear,72000.0,,FEW,5900.0,,,,,,
KRDR,09-13-2011,06:00,METAR,,280,5.0,,,9999.0,,8.0,6.0,30.02,1017.5,,,,,,,,,,,,,,,Clear,72000.0,,,73000.0,,,,,,
KRDR,09-13-2011,05:00,METAR,,290,6.0,,,9999.0,,8.0,6.0,30.02,1017.5,,,,,,,,,,,,,,,Clear,72000.0,,,73000.0,,,,,,
KRDR,09-13-2011,04:00,METAR,,300,6.0,,,9999.0,,8.0,6.0,30.02,1017.4,,,,,,,,,,,,,,,Clear,72000.0,,,73000.0,,,,,,
KRDR,09-13-2011,03:00,METAR,,290,3.0,,,9999.0,,8.0,6.0,30.01,1017.0,,,,,,,,,,,,,,,Clear,72000.0,,,73000.0,,,,,,
KRDR,09-13-2011,02:00,METAR,,340,6.0,,,9999.0,,10.0,5.0,30.00,1016.9,,,,,,,,,,,,,,,Clear,72000.0,,,73000.0,,,,,,
KRDR,09-13-2011,01:00,METAR,,350,6.0,,,9999.0,,14.0,5.0,29.99,1016.6,,,,,,,,,,,,,,,2/8 Mostly Clear,72000.0,,FEW,5900.0,,,,,,
KRDR,09-13-2011,00:00,METAR,,350,12.0,,,9999.0,,16.0,6.0,29.97,1015.8,,,,,,,,,,,,,,,7/8 Mostly Cloudy,6000.0,,BKN,5900.0,,,,,,
KRDR,09-12-2011,23:00,METAR,,10,17.0,25.0,,9999.0,,17.0,7.0,29.94,1014.8,,,,,,,,,,,,,,,8/8 Overcast,4700.0,,BKN,4800.0,OVC,5900.0,,,,
KRDR,09-12-2011,22:00,METAR,,360,14.0,23.0,,9999.0,,17.0,8.0,29.93,1014.5,,,,,,,,,,,,,,,8/8 Overcast,4900.0,,OVC,5000.0,,,,,,
KRDR,09-12-2011,21:00,METAR,,360,18.0,23.0,010/26KTS,9999.0,,18.0,8.0,29.90,1013.7,,,,,,,,,,,,,,,8/8 Overcast,5500.0,,SCT,4300.0,OVC,5400.0,,,,
KRDR,09-12-2011,20:00,METAR,,360,18.0,28.0,010/32KTS,9999.0,,18.0,10.0,29.90,1013.5,,,,,,,,,,,,,,,8/8 Overcast,4900.0,,FEW,3200.0,OVC,5000.0,,,,
KRDR,09-12-2011,19:00,METAR,,360,18.0,27.0,350/31KTS,9999.0,,18.0,10.0,29.86,1012.1,,,,,,,,,,,,,,,7/8 Mostly Cloudy,4400.0,,BKN,4500.0,BKN,5400.0,,,,
KRDR,09-12-2011,18:00,METAR,,360,19.0,31.0,010/31KTS,9999.0,,20.0,10.0,29.82,1010.9,,,,,,,,,,,,,,,4/8 Partly Cloudy,72000.0,,SCT,4000.0,,,,,,
KRDR,09-12-2011,17:00,METAR,,350,24.0,30.0,350/30KTS,9999.0,,19.0,11.0,29.79,1009.9,,,,,,,,,,,,,,,7/8 Mostly Cloudy,3300.0,,BKN,3400.0,,,,,,
KRDR,09-12-2011,16:00,METAR,,340,19.0,26.0,350/28KTS,9999.0,,20.0,12.0,29.74,1008.1,,,,,,,,,,,,,,,Clear,72000.0,,,73000.0,,,,,,
KRDR,09-12-2011,15:00,METAR,,350,10.0,,,9999.0,,21.0,13.0,29.69,1006.5,,,,,,,,,,,,,,,Clear,72000.0,,,73000.0,,,,,,
KRDR,09-12-2011,14:00,METAR,,340,13.0,23.0,,9999.0,,20.0,13.0,29.67,1006.0,,,,,,,,,,,,,,,Clear,72000.0,,,73000.0,,,,,,
KRDR,09-12-2011,13:00,METAR,,270,10.0,,,9999.0,,18.0,15.0,29.63,1004.8,,,,,,,,,,,,,,,2/8 Mostly Clear,72000.0,,FEW,12000.0,,,,,,
KRDR,09-12-2011,12:00,METAR,,220,5.0,,,9999.0,,15.0,15.0,29.62,1004.2,,,,,,,,,,,,,,,Clear,72000.0,,,73000.0,,,,,,
KRDR,09-12-2011,11:00,METAR,,200,6.0,,,9999.0,,15.0,15.0,29.63,1004.5,,,,,,,,,,,,,,,Clear,72000.0,,,73000.0,,,,,,
KRDR,09-12-2011,10:00,METAR,,230,6.0,,,9999.0,,15.0,14.0,29.65,1005.2,,,,,,,,,,,,,,,Clear,72000.0,,,73000.0,,,,,,
KRDR,09-12-2011,09:00,METAR,,200,6.0,,,9999.0,,15.0,13.0,29.67,1005.9,,,,,,,,,,,,,,,Clear,72000.0,,,73000.0,,,,,,
KRDR,09-12-2011,08:00,METAR,,220,5.0,,,9999.0,,17.0,13.0,29.69,1006.7,,,,,,,,,,,,,,,Clear,72000.0,,,73000.0,,,,,,
KRDR,09-12-2011,07:00,METAR,,210,8.0,,,9999.0,,18.0,14.0,29.73,1007.8,,,,,,,,,,,,,,,Clear,72000.0,,,73000.0,,,,,,
KRDR,09-12-2011,06:00,METAR,,220,5.0,,,9999.0,,17.0,13.0,29.76,1008.8,,,,,,,,,,,,,,,Clear,72000.0,,,73000.0,,,,,,
KRDR,09-12-2011,05:00,METAR,,220,6.0,,,9999.0,,17.0,13.0,29.79,1009.9,,,,,,,,,,,,,,,Clear,72000.0,,,73000.0,,,,,,
KRDR,09-12-2011,04:00,METAR,,220,6.0,,,9999.0,,15.0,13.0,29.81,1010.4,,,,,,,,,,,,,,,Clear,72000.0,,,73000.0,,,,,,
KRDR,09-12-2011,03:00,METAR,,230,4.0,,,9999.0,,17.0,12.0,29.82,1010.8,,,,,,,,,,,,,,,Clear,72000.0,,,73000.0,,,,,,
KRDR,09-12-2011,02:00,METAR,,230,3.0,,,9999.0,,19.0,13.0,29.82,1011.0,,,,,,,,,,,,,,,Clear,72000.0,,,73000.0,,,,,,
KRDR,09-12-2011,01:00,METAR,,220,3.0,,,9999.0,,24.0,16.0,29.82,1010.9,,,,,,,,,,,,,,,Clear,72000.0,,,73000.0,,,,,,
KRDR,09-12-2011,00:00,METAR,,,0.0,,,9999.0,,28.0,16.0,29.83,1011.2,,,,,,,,,,,,,,,Clear,72000.0,,,73000.0,,,,,,
KRDR,09-11-2011,23:00,METAR,,70,7.0,,,9999.0,,29.0,16.0,29.84,1011.6,,,,,,,,,,,,,,,Clear,72000.0,,,73000.0,,,,,,
KRDR,09-11-2011,22:00,METAR,,120,3.0,,,9999.0,,30.0,14.0,29.86,1012.3,,,,,,,,,,,,,,,Clear,72000.0,,,73000.0,,,,,,
KRDR,09-11-2011,21:00,METAR,,,0.0,,,9999.0,,30.0,14.0,29.88,1012.7,,,,,,,,,,,,,,,Clear,72000.0,,,73000.0,,,,,,
KRDR,09-11-2011,20:00,METAR,,,0.0,,,9999.0,,30.0,15.0,29.90,1013.5,,,,,,,,,,,,,,,Clear,72000.0,,,73000.0,,,,,,
KRDR,09-11-2011,19:00,METAR,,,0.0,,,9999.0,,28.0,15.0,29.91,1014.0,,,,,,,,,,,,,,,Clear,72000.0,,,73000.0,,,,,,
KRDR,09-11-2011,18:00,METAR,,,0.0,,,9999.0,,27.0,15.0,29.93,1014.7,,,,,,,,,,,,,,,Clear,72000.0,,,73000.0,,,,,,
KRDR,09-11-2011,17:00,METAR,,,0.0,,,9999.0,,25.0,15.0,29.94,1015.0,,,,,,,,,,,,,,,Clear,72000.0,,,73000.0,,,,,,
KRDR,09-11-2011,16:00,METAR,,,3.0,,,9999.0,,23.0,14.0,29.95,1015.1,,,,,,,,,,,,,,,Clear,72000.0,,,73000.0,,,,,,
KRDR,09-11-2011,15:00,METAR,,350,5.0,,,9999.0,,22.0,14.0,29.95,1015.2,,,,,,,,,,,,,,,Clear,72000.0,,,73000.0,,,,,,
KRDR,09-11-2011,14:00,METAR,,310,5.0,,,9999.0,,20.0,15.0,29.95,1015.1,,,,,,,,,,,,,,,Clear,72000.0,,,73000.0,,,,,,
KRDR,09-11-2011,13:00,METAR,,290,6.0,,,9999.0,,16.0,14.0,29.94,1014.8,,,,,,,,,,,,,,,Clear,72000.0,,,73000.0,,,,,,
KRDR,09-11-2011,12:00,METAR,,300,4.0,,,9999.0,,16.0,13.0,29.93,1014.5,,,,,,,,,,,,,,,Clear,72000.0,,,73000.0,,,,,,
KRDR,09-11-2011,11:00,METAR,,290,6.0,,,9999.0,,17.0,12.0,29.92,1014.3,,,,,,,,,,,,,,,Clear,72000.0,,,73000.0,,,,,,
KRDR,09-11-2011,10:00,METAR,,270,5.0,,,9999.0,,16.0,12.0,29.91,1014.0,,,,,,,,,,,,,,,Clear,72000.0,,,73000.0,,,,,,
KRDR,09-11-2011,09:00,METAR,,250,7.0,,,9999.0,,15.0,13.0,29.91,1013.9,,,,,,,,,,,,,,,Clear,72000.0,,,73000.0,,,,,,
KRDR,09-11-2011,08:00,METAR,,260,6.0,,,9999.0,,15.0,14.0,29.92,1014.2,,,,,,,,,,,,,,,Clear,72000.0,,,73000.0,,,,,,
KRDR,09-11-2011,07:00,METAR,,270,4.0,,,9999.0,,15.0,14.0,29.93,1014.6,,,,,,,,,,,,,,,Clear,72000.0,,,73000.0,,,,,,
KRDR,09-11-2011,06:00,METAR,,260,6.0,,,9999.0,,15.0,15.0,29.94,1014.9,,,,,,,,,,,,,,,Clear,72000.0,,,73000.0,,,,,,
KRDR,09-11-2011,05:00,METAR,,250,5.0,,,9999.0,,16.0,15.0,29.94,1015.0,,,,,,,,,,,,,,,Clear,72000.0,,,73000.0,,,,,,
KRDR,09-11-2011,04:00,METAR,,240,5.0,,,9999.0,,17.0,15.0,29.95,1015.0,,,,,,,,,,,,,,,Clear,72000.0,,,73000.0,,,,,,
KRDR,09-11-2011,03:00,METAR,,230,5.0,,,9999.0,,18.0,15.0,29.95,1015.2,,,,,,,,,,,,,,,Clear,72000.0,,,73000.0,,,,,,
KRDR,09-11-2011,02:00,METAR,,230,5.0,,,9999.0,,19.0,15.0,29.96,1015.5,,,,,,,,,,,,,,,Clear,72000.0,,,73000.0,,,,,,
KRDR,09-11-2011,01:00,METAR,,240,4.0,,,9999.0,,22.0,16.0,29.95,1015.3,,,,,,,,,,,,,,,Clear,72000.0,,,73000.0,,,,,,
KRDR,09-11-2011,00:00,METAR,,270,5.0,,,9999.0,,26.0,14.0,29.96,1015.6,,,,,,,,,,,,,,,Clear,72000.0,,,73000.0,,,,,,
KRDR,09-10-2011,23:00,METAR,,280,8.0,,,9999.0,,28.0,13.0,29.98,1016.1,,,,,,,,,,,,,,,Clear,72000.0,,,73000.0,,,,,,
KRDR,09-10-2011,22:00,METAR,,280,8.0,,,9999.0,,29.0,14.0,29.99,1016.5,,,,,,,,,,,,,,,Clear,72000.0,,,73000.0,,,,,,
KRDR,09-10-2011,21:00,METAR,,260,14.0,18.0,,9999.0,,29.0,13.0,30.01,1017.1,,,,,,,,,,,,,,,Clear,72000.0,,,73000.0,,,,,,
KRDR,09-10-2011,20:00,METAR,,280,10.0,,,9999.0,,29.0,13.0,30.03,1017.8,,,,,,,,,,,,,,,Clear,72000.0,,,73000.0,,,,,,
KRDR,09-10-2011,19:00,METAR,,270,9.0,,,9999.0,,29.0,14.0,30.05,1018.5,,,,,,,,,,,,,,,Clear,72000.0,,,73000.0,,,,,,
KRDR,09-10-2011,18:00,METAR,,290,11.0,16.0,,9999.0,,28.0,14.0,30.07,1019.0,,,,,,,,,,,,,,,Clear,72000.0,,,73000.0,,,,,,
KRDR,09-10-2011,17:00,METAR,,260,7.0,,,9999.0,,28.0,15.0,30.08,1019.5,,,,,,,,,,,,,,,Clear,72000.0,,,73000.0,,,,,,
KRDR,09-10-2011,16:00,METAR,,280,7.0,,,9999.0,,26.0,16.0,30.09,1019.9,,,,,,,,,,,,,,,Clear,72000.0,,,73000.0,,,,,,
KRDR,09-10-2011,15:00,METAR,,280,6.0,,,9999.0,,24.0,16.0,30.10,1020.0,,,,,,,,,,,,,,,Clear,72000.0,,,73000.0,,,,,,
KRDR,09-10-2011,14:00,METAR,,,0.0,,,9999.0,,20.0,16.0,30.10,1020.2,,,,,,,,,,,,,,,Clear,72000.0,,,73000.0,,,,,,
KRDR,09-10-2011,13:00,METAR,,,0.0,,,9999.0,,14.0,14.0,30.11,1020.3,,,,,,,,,,,,,,,Clear,72000.0,,,73000.0,,,,,,
KRDR,09-10-2011,12:00,METAR,,,0.0,,,9999.0,,13.0,13.0,30.10,1020.1,,,,,,,,,,,,,,,Clear,72000.0,,,73000.0,,,,,,
KRDR,09-10-2011,11:00,METAR,,,0.0,,,9999.0,,13.0,13.0,30.09,1019.8,,,,,,,,,,,,,,,Clear,72000.0,,,73000.0,,,,,,
KRDR,09-10-2011,10:00,METAR,,,0.0,,,9999.0,,14.0,14.0,30.09,1019.9,,,,,,,,,,,,,,,Clear,72000.0,,,73000.0,,,,,,
KRDR,09-10-2011,09:00,METAR,,,0.0,,,9999.0,,14.0,14.0,30.09,1019.9,,,,,,,,,,,,,,,Clear,72000.0,,,73000.0,,,,,,
KRDR,09-10-2011,08:00,METAR,,280,3.0,,,9999.0,,14.0,14.0,30.09,1020.0,,,,,,,,,,,,,,,Clear,72000.0,,,73000.0,,,,,,
KRDR,09-10-2011,07:00,METAR,,270,3.0,,,9999.0,,14.0,14.0,30.10,1020.2,,,,,,,,,,,,,,,Clear,72000.0,,,73000.0,,,,,,
KRDR,09-10-2011,06:00,METAR,,290,5.0,,,9999.0,,17.0,14.0,30.10,1020.2,,,,,,,,,,,,,,,Clear,72000.0,,,73000.0,,,,,,
KRDR,09-10-2011,05:00,METAR,,300,6.0,,,9999.0,,17.0,14.0,30.11,1020.4,,,,,,,,,,,,,,,Clear,72000.0,,,73000.0,,,,,,
KRDR,09-10-2011,04:00,METAR,,300,6.0,,,9999.0,,17.0,15.0,30.11,1020.3,,,,,,,,,,,,,,,Clear,72000.0,,,73000.0,,,,,,
KRDR,09-10-2011,03:00,METAR,,300,7.0,,,9999.0,,17.0,16.0,30.11,1020.3,,,,,,,,,,,,,,,Clear,72000.0,,,73000.0,,,,,,
KRDR,09-10-2011,02:00,METAR,,250,3.0,,,9999.0,,20.0,16.0,30.10,1020.1,,,,,,,,,,,,,,,Clear,72000.0,,,73000.0,,,,,,
KRDR,09-10-2011,01:00,METAR,,,0.0,,,9999.0,,24.0,16.0,30.10,1020.0,,,,,,,,,,,,,,,Clear,72000.0,,,73000.0,,,,,,
KRDR,09-10-2011,00:00,METAR,,,0.0,,,9999.0,,28.0,17.0,30.10,1020.2,,,,,,,,,,,,,,,Clear,72000.0,,,73000.0,,,,,,
KRDR,09-09-2011,23:00,METAR,,,0.0,,,9999.0,,29.0,12.0,30.11,1020.5,,,,,,,,,,,,,,,Clear,72000.0,,,73000.0,,,,,,
KRDR,09-09-2011,22:00,METAR,,60,3.0,,,9999.0,,29.0,12.0,30.11,1020.6,,,,,,,,,,,,,,,Clear,72000.0,,,73000.0,,,,,,
KRDR,09-09-2011,20:00,METAR,,360,5.0,,,9999.0,,29.0,14.0,30.14,1021.6,,,,,,,,,,,,,,,Clear,72000.0,,,73000.0,,,,,,
KRDR,09-09-2011,19:00,METAR,,360,5.0,,,9999.0,,28.0,14.0,30.16,1022.1,,,,,,,,,,,,,,,Clear,72000.0,,,73000.0,,,,,,
KRDR,09-09-2011,18:00,METAR,,30,5.0,,,9999.0,,27.0,14.0,30.18,1022.8,,,,,,,,,,,,,,,Clear,72000.0,,,73000.0,,,,,,
KRDR,09-09-2011,17:00,METAR,,20,8.0,,,9999.0,,27.0,16.0,30.19,1023.2,,,,,,,,,,,,,,,Clear,72000.0,,,73000.0,,,,,,
KRDR,09-09-2011,16:00,METAR,,10,5.0,,,9999.0,,25.0,16.0,30.20,1023.3,,,,,,,,,,,,,,,Clear,72000.0,,,73000.0,,,,,,
KRDR,09-09-2011,15:00,METAR,,340,6.0,,,9999.0,,23.0,15.0,30.19,1023.2,,,,,,,,,,,,,,,Clear,72000.0,,,73000.0,,,,,,
KRDR,09-09-2011,14:00,METAR,,340,4.0,,,9999.0,,20.0,16.0,30.19,1023.2,,,,,,,,,,,,,,,Clear,72000.0,,,73000.0,,,,,,
KRDR,09-09-2011,13:00,METAR,,,0.0,,,9999.0,,16.0,15.0,30.19,1023.2,,,,,,,,,,,,,,,Clear,72000.0,,,73000.0,,,,,,
KRDR,09-09-2011,12:00,METAR,,300,3.0,,,9999.0,,14.0,14.0,30.18,1022.9,,,,,,,,,,,,,,,Clear,72000.0,,,73000.0,,,,,,
KRDR,09-09-2011,11:00,METAR,,300,4.0,,,9999.0,,13.0,13.0,30.18,1022.9,,,,,,,,,,,,,,,Clear,72000.0,,,73000.0,,,,,,
KRDR,09-09-2011,10:00,METAR,,,0.0,,,9999.0,,14.0,14.0,30.18,1022.9,,,,,,,,,,,,,,,Clear,72000.0,,,73000.0,,,,,,
KRDR,09-09-2011,09:00,METAR,,,0.0,,,9999.0,,13.0,13.0,30.19,1023.0,,,,,,,,,,,,,,,Clear,72000.0,,,73000.0,,,,,,
KRDR,09-09-2011,08:00,METAR,,270,3.0,,,9999.0,,14.0,14.0,30.19,1023.0,,,,,,,,,,,,,,,Clear,72000.0,,,73000.0,,,,,,
KRDR,09-09-2011,07:00,METAR,,,0.0,,,9999.0,,14.0,14.0,30.20,1023.3,,,,,,,,,,,,,,,Clear,72000.0,,,73000.0,,,,,,
KRDR,09-09-2011,06:00,METAR,,280,4.0,,,9999.0,,14.0,14.0,30.20,1023.4,,,,,,,,,,,,,,,Clear,72000.0,,,73000.0,,,,,,
KRDR,09-09-2011,05:00,METAR,,320,3.0,,,9999.0,,16.0,15.0,30.20,1023.6,,,,,,,,,,,,,,,Clear,72000.0,,,73000.0,,,,,,
KRDR,09-09-2011,04:00,METAR,,,0.0,,,9999.0,,15.0,15.0,30.20,1023.5,,,,,,,,,,,,,,,Clear,72000.0,,,73000.0,,,,,,
KRDR,09-09-2011,03:00,METAR,,,0.0,,,9999.0,,16.0,16.0,30.20,1023.6,,,,,,,,,,,,,,,Clear,72000.0,,,73000.0,,,,,,
KRDR,09-09-2011,02:00,METAR,,,0.0,,,9999.0,,18.0,18.0,30.21,1023.7,,,,,,,,,,,,,,,Clear,72000.0,,,73000.0,,,,,,
KRDR,09-09-2011,01:00,METAR,,,0.0,,,9999.0,,23.0,17.0,30.20,1023.5,,,,,,,,,,,,,,,Clear,72000.0,,,73000.0,,,,,,
KRDR,09-09-2011,00:00,METAR,,260,3.0,,,9999.0,,27.0,16.0,30.21,1023.7,,,,,,,,,,,,,,,Clear,72000.0,,,73000.0,,,,,,
KRDR,09-08-2011,23:00,METAR,,,0.0,,,9999.0,,29.0,13.0,30.22,1024.1,,,,,,,,,,,,,,,Clear,72000.0,,,73000.0,,,,,,
KRDR,09-08-2011,22:00,METAR,,,0.0,,,9999.0,,28.0,12.0,30.24,1024.6,,,,,,,,,,,,,,,Clear,72000.0,,,73000.0,,,,,,
KRDR,09-08-2011,21:00,METAR,,,0.0,,,9999.0,,29.0,13.0,30.26,1025.3,,,,,,,,,,,,,,,Clear,72000.0,,,73000.0,,,,,,
KRDR,09-08-2011,20:00,METAR,,,0.0,,,9999.0,,29.0,14.0,30.27,1025.9,,,,,,,,,,,,,,,Clear,72000.0,,,73000.0,,,,,,
KRDR,09-08-2011,19:00,METAR,,180,6.0,,,9999.0,,29.0,14.0,30.29,1026.3,,,,,,,,,,,,,,,Clear,72000.0,,,73000.0,,,,,,
KRDR,09-08-2011,18:00,METAR,,150,3.0,,,9999.0,,28.0,14.0,30.30,1026.8,,,,,,,,,,,,,,,Clear,72000.0,,,73000.0,,,,,,
KRDR,09-08-2011,17:00,METAR,,,3.0,,,9999.0,,27.0,15.0,30.32,1027.4,,,,,,,,,,,,,,,Clear,72000.0,,,73000.0,,,,,,
KRDR,09-08-2011,16:00,METAR,,,0.0,,,9999.0,,25.0,16.0,30.33,1027.6,,,,,,,,,,,,,,,Clear,72000.0,,,73000.0,,,,,,
KRDR,09-08-2011,15:00,METAR,,300,3.0,,,9999.0,,22.0,17.0,30.32,1027.5,,,,,,,,,,,,,,,Clear,72000.0,,,73000.0,,,,,,
KRDR,09-08-2011,14:00,METAR,,,0.0,,,9999.0,,18.0,17.0,30.33,1027.7,,,,,,,,,,,,,,,Clear,72000.0,,,73000.0,,,,,,
KRDR,09-08-2011,13:00,METAR,,,0.0,,,9999.0,,13.0,13.0,30.33,1027.6,,,,,,,,,,,,,,,Clear,72000.0,,,73000.0,,,,,,
KRDR,09-08-2011,12:00,METAR,,,0.0,,,9999.0,,11.0,11.0,30.32,1027.3,,,,,,,,,,,,,,,Clear,72000.0,,,73000.0,,,,,,
KRDR,09-08-2011,11:00,METAR,,,0.0,,,9999.0,,11.0,11.0,30.32,1027.3,,,,,,,,,,,,,,,Clear,72000.0,,,73000.0,,,,,,
KRDR,09-08-2011,10:00,METAR,,230,3.0,,,9999.0,,13.0,13.0,30.31,1027.2,,,,,,,,,,,,,,,Clear,72000.0,,,73000.0,,,,,,
KRDR,09-08-2011,09:00,METAR,,,0.0,,,9999.0,,11.0,11.0,30.31,1027.2,,,,,,,,,,,,,,,Clear,72000.0,,,73000.0,,,,,,
KRDR,09-08-2011,08:00,METAR,,230,3.0,,,9999.0,,12.0,12.0,30.31,1027.1,,,,,,,,,,,,,,,Clear,72000.0,,,73000.0,,,,,,
KRDR,09-08-2011,07:00,METAR,,,0.0,,,9999.0,,12.0,12.0,30.31,1027.0,,,,,,,,,,,,,,,Clear,72000.0,,,73000.0,,,,,,
KRDR,09-08-2011,06:00,METAR,,,0.0,,,9999.0,,13.0,13.0,30.30,1026.9,,,,,,,,,,,,,,,Clear,72000.0,,,73000.0,,,,,,
KRDR,09-08-2011,05:00,METAR,,,0.0,,,9999.0,,13.0,13.0,30.30,1026.8,,,,,,,,,,,,,,,Clear,72000.0,,,73000.0,,,,,,
KRDR,09-08-2011,04:00,METAR,,,0.0,,,9999.0,,14.0,14.0,30.30,1026.8,,,,,,,,,,,,,,,Clear,72000.0,,,73000.0,,,,,,
KRDR,09-08-2011,03:00,METAR,,,0.0,,,9999.0,,15.0,15.0,30.30,1026.8,,,,,,,,,,,,,,,Clear,72000.0,,,73000.0,,,,,,
KRDR,09-08-2011,02:00,METAR,,,0.0,,,9999.0,,17.0,17.0,30.29,1026.5,,,,,,,,,,,,,,,Clear,72000.0,,,73000.0,,,,,,
KRDR,09-08-2011,01:00,METAR,,,0.0,,,9999.0,,24.0,14.0,30.28,1026.1,,,,,,,,,,,,,,,Clear,72000.0,,,73000.0,,,,,,
KRDR,09-08-2011,00:00,METAR,,70,3.0,,,9999.0,,26.0,15.0,30.28,1026.0,,,,,,,,,,,,,,,Clear,72000.0,,,73000.0,,,,,,
KRDR,09-07-2011,23:00,METAR,,60,5.0,,,9999.0,,27.0,15.0,30.27,1025.7,,,,,,,,,,,,,,,Clear,72000.0,,,73000.0,,,,,,
KRDR,09-07-2011,22:00,METAR,,80,4.0,,,9999.0,,27.0,13.0,30.27,1025.7,,,,,,,,,,,,,,,Clear,72000.0,,,73000.0,,,,,,
KRDR,09-07-2011,21:00,METAR,,,4.0,,,9999.0,,27.0,14.0,30.27,1025.7,,,,,,,,,,,,,,,Clear,72000.0,,,73000.0,,,,,,
KRDR,09-07-2011,20:00,METAR,,50,4.0,,,9999.0,,27.0,15.0,30.27,1025.8,,,,,,,,,,,,,,,Clear,72000.0,,,73000.0,,,,,,
KRDR,09-07-2011,19:00,METAR,,130,3.0,,,9999.0,,26.0,15.0,30.27,1025.9,,,,,,,,,,,,,,,Clear,72000.0,,,73000.0,,,,,,
KRDR,09-07-2011,18:00,METAR,,130,5.0,,,9999.0,,25.0,16.0,30.28,1026.0,,,,,,,,,,,,,,,Clear,72000.0,,,73000.0,,,,,,
KRDR,09-07-2011,17:00,METAR,,,0.0,,,9999.0,,23.0,16.0,30.28,1026.1,,,,,,,,,,,,,,,Clear,72000.0,,,73000.0,,,,,,
KRDR,09-07-2011,16:00,METAR,,,0.0,,,9999.0,,21.0,16.0,30.28,1026.1,,,,,,,,,,,,,,,Clear,72000.0,,,73000.0,,,,,,
KRDR,09-07-2011,15:00,METAR,,,0.0,,,9999.0,,18.0,17.0,30.26,1025.5,,,,,,,,,,,,,,,Clear,72000.0,,,73000.0,,,,,,
KRDR,09-07-2011,14:00,METAR,,,0.0,,,9999.0,,15.0,15.0,30.25,1025.0,,,,,,,,,,,,,,,Clear,72000.0,,,73000.0,,,,,,
KRDR,09-07-2011,13:00,METAR,,,0.0,,,9999.0,,10.0,10.0,30.23,1024.5,,,,,,,,,,,,,,,Clear,72000.0,,,73000.0,,,,,,
KRDR,09-07-2011,12:13,SPECI,,,0.0,,,6400.0,Mist,8.0,8.0,30.21,1023.8,10,,,,,,,,,,,,,,Clear,72000.0,,,73000.0,,,,,,
KRDR,09-07-2011,12:07,SPECI,,,0.0,,,1600.0,Mist,9.0,9.0,30.21,1023.8,10,,,,,,,,,,,,,,Clear,72000.0,,,73000.0,,,,,,
KRDR,09-07-2011,12:01,SPECI,,,0.0,,,1200.0,Mist,9.0,9.0,30.21,1023.7,10,,,,,,,,,,,,,,Clear,72000.0,,,73000.0,,,,,,
KRDR,09-07-2011,11:51,SPECI,,,0.0,,,800.0,Fog,8.0,8.0,30.20,1023.5,30,,,,,,,,,,,,,,Clear,72000.0,,,73000.0,,,,,,
KRDR,09-07-2011,11:44,SPECI,,,0.0,,,4000.0,Mist,9.0,9.0,30.20,1023.4,10,,,,,,,,,,,,,,Clear,72000.0,,,73000.0,,,,,,
KRDR,09-07-2011,11:00,METAR,,,0.0,,,2800.0,Mist,9.0,9.0,30.18,1022.8,10,,,,,,,,,,,,,,Clear,72000.0,,,73000.0,,,,,,
KRDR,09-07-2011,10:43,SPECI,,,0.0,,,6400.0,Mist,10.0,10.0,30.18,1022.6,10,,,,,,,,,,,,,,Clear,72000.0,,,73000.0,,,,,,
KRDR,09-07-2011,10:42,SPECI,,,0.0,,,4000.0,Mist,10.0,10.0,30.18,1022.6,10,,,,,,,,,,,,,,Clear,72000.0,,,73000.0,,,,,,
KRDR,09-07-2011,10:40,SPECI,,,0.0,,,3200.0,Mist,10.0,10.0,30.17,1022.6,10,,,,,,,,,,,,,,Clear,72000.0,,,73000.0,,,,,,
KRDR,09-07-2011,10:34,SPECI,,,0.0,,,4000.0,Mist,10.0,10.0,30.17,1022.5,10,,,,,,,,,,,,,,Clear,72000.0,,,73000.0,,,,,,
KRDR,09-07-2011,10:06,SPECI,,,0.0,,,9999.0,Mist,10.0,10.0,30.16,1022.2,10,,,,,,,,,,,,,,Clear,72000.0,,,73000.0,,,,,,
KRDR,09-07-2011,10:02,SPECI,,,0.0,,,9999.0,Mist,10.0,10.0,30.16,1022.1,10,,,,,,,,,,,,,,Clear,72000.0,,,73000.0,,,,,,
KRDR,09-07-2011,10:00,METAR,,220,3.0,,,9999.0,,10.0,10.0,30.16,1022.1,,,,,,,,,,,,,,,Clear,72000.0,,,73000.0,,,,,,
KRDR,09-07-2011,09:42,SPECI,,,0.0,,,4800.0,Mist,10.0,10.0,30.16,1022.1,10,,,,,,,,,,,,,,Clear,72000.0,,,73000.0,,,,,,
KRDR,09-07-2011,09:39,SPECI,,220,3.0,,,2400.0,Mist,10.0,10.0,30.16,1022.1,10,,,,,,,,,,,,,,Clear,72000.0,,,73000.0,,,,,,
KRDR,09-07-2011,09:37,SPECI,,220,3.0,,,2000.0,Mist,10.0,10.0,30.16,1022.1,10,,,,,,,,,,,,,,Clear,72000.0,,,73000.0,,,,,,
KRDR,09-07-2011,09:35,SPECI,,220,3.0,,,1600.0,Mist,10.0,10.0,30.16,1022.1,10,,,,,,,,,,,,,,Clear,72000.0,,,73000.0,,,,,,
KRDR,09-07-2011,09:30,SPECI,,230,3.0,,,1600.0,Mist,10.0,10.0,30.16,1022.0,10,,,,,,,,,,,,,,Clear,72000.0,,,73000.0,,,,,,
KRDR,09-07-2011,09:27,SPECI,,230,3.0,,,2000.0,Mist,10.0,10.0,30.16,1022.0,10,,,,,,,,,,,,,,Clear,72000.0,,,73000.0,,,,,,
KRDR,09-07-2011,09:21,SPECI,,230,3.0,,,1600.0,Mist,10.0,10.0,30.16,1022.0,10,,,,,,,,,,,,,,Clear,72000.0,,,73000.0,,,,,,
KRDR,09-07-2011,09:19,SPECI,,230,3.0,,,1200.0,Mist,10.0,10.0,30.16,1022.0,10,,,,,,,,,,,,,,Clear,72000.0,,,73000.0,,,,,,
KRDR,09-07-2011,09:17,SPECI,,220,3.0,,,1200.0,Mist,10.0,10.0,30.16,1022.0,10,,,,,,,,,,,,,,Clear,72000.0,,,73000.0,,,,,,
KRDR,09-07-2011,09:15,SPECI,,,0.0,,,1600.0,Mist,10.0,10.0,30.16,1022.0,10,,,,,,,,,,,,,,Clear,72000.0,,,73000.0,,,,,,
KRDR,09-07-2011,09:12,SPECI,,,0.0,,,2400.0,Mist,10.0,10.0,30.16,1022.0,10,,,,,,,,,,,,,,Clear,72000.0,,,73000.0,,,,,,
KRDR,09-07-2011,09:07,SPECI,,,0.0,,,2400.0,Mist,9.0,9.0,30.15,1021.9,10,,,,,,,,,,,,,,Clear,72000.0,,,73000.0,,,,,,
KRDR,09-07-2011,09:05,SPECI,,,0.0,,,1600.0,Mist,9.0,9.0,30.15,1021.9,10,,,,,,,,,,,,,,Clear,72000.0,,,73000.0,,,,,,
KRDR,09-07-2011,09:03,SPECI,,,0.0,,,1200.0,Mist,9.0,9.0,30.15,1021.9,10,,,,,,,,,,,,,,Clear,72000.0,,,73000.0,,,,,,
KRDR,09-07-2011,09:02,SPECI,,,0.0,,,800.0,Fog,9.0,9.0,30.15,1021.9,30,,,,,,,,,,,,,,Clear,72000.0,,,73000.0,,,,,,
KRDR,09-07-2011,09:00,SPECI,,,0.0,,,800.0,Fog,9.0,9.0,30.15,1021.9,30,,,,,,,,,,,,,,Clear,72000.0,,,73000.0,,,,,,
KRDR,09-07-2011,09:00,METAR,,,0.0,,,800.0,Fog,9.0,9.0,30.15,1021.9,30,,,,,,,,,,,,,,Clear,72000.0,,,73000.0,,,,,,
KRDR,09-07-2011,08:50,SPECI,,,0.0,,,1200.0,Mist,10.0,10.0,30.15,1021.8,10,,,,,,,,,,,,,,Clear,72000.0,,,73000.0,,,,,,
KRDR,09-07-2011,08:47,SPECI,,,0.0,,,2000.0,Mist,10.0,10.0,30.15,1021.8,10,,,,,,,,,,,,,,Clear,72000.0,,,73000.0,,,,,,
KRDR,09-07-2011,08:46,SPECI,,,0.0,,,2400.0,Mist,10.0,10.0,30.15,1021.8,10,,,,,,,,,,,,,,Clear,72000.0,,,73000.0,,,,,,
KRDR,09-07-2011,08:43,SPECI,,,0.0,,,4800.0,Mist,11.0,11.0,30.15,1021.8,10,,,,,,,,,,,,,,Clear,72000.0,,,73000.0,,,,,,
KRDR,09-07-2011,08:40,SPECI,,,0.0,,,4000.0,Mist,11.0,11.0,30.15,1021.8,10,,,,,,,,,,,,,,Clear,72000.0,,,73000.0,,,,,,
KRDR,09-07-2011,08:02,SPECI,,,0.0,,,8000.0,Mist,11.0,11.0,30.14,1021.5,10,,,,,,,,,,,,,,Clear,72000.0,,,73000.0,,,,,,
KRDR,09-07-2011,08:00,METAR,,150,3.0,,,8000.0,Mist,11.0,11.0,30.14,1021.5,10,,,,,,,,,,,,,,Clear,72000.0,,,73000.0,,,,,,
KRDR,09-07-2011,07:00,METAR,,210,3.0,,,9999.0,,11.0,11.0,30.13,1021.0,,,,,,,,,,,,,,,Clear,72000.0,,,73000.0,,,,,,
KRDR,09-07-2011,06:00,METAR,,150,3.0,,,9999.0,,13.0,13.0,30.12,1020.9,,,,,,,,,,,,,,,Clear,72000.0,,,73000.0,,,,,,
KRDR,09-07-2011,05:00,METAR,,,0.0,,,9999.0,,14.0,14.0,30.11,1020.4,,,,,,,,,,,,,,,Clear,72000.0,,,73000.0,,,,,,
KRDR,09-07-2011,04:00,METAR,,210,5.0,,,9999.0,,15.0,15.0,30.10,1020.1,,,,,,,,,,,,,,,Clear,72000.0,,,73000.0,,,,,,
KRDR,09-07-2011,03:00,METAR,,190,6.0,,,9999.0,,17.0,15.0,30.09,1019.7,,,,,,,,,,,,,,,Clear,72000.0,,,73000.0,,,,,,
KRDR,09-07-2011,02:00,METAR,,180,6.0,,,9999.0,,17.0,15.0,30.07,1019.2,,,,,,,,,,,,,,,Clear,72000.0,,,73000.0,,,,,,
KRDR,09-07-2011,01:00,METAR,,170,6.0,,,9999.0,,21.0,15.0,30.05,1018.5,,,,,,,,,,,,,,,Clear,72000.0,,,73000.0,,,,,,
KRDR,09-07-2011,00:00,METAR,,180,7.0,,,9999.0,,24.0,15.0,30.04,1018.2,,,,,,,,,,,,,,,Clear,72000.0,,,73000.0,,,,,,
KRDR,09-06-2011,23:00,METAR,,180,9.0,,,9999.0,,26.0,15.0,30.02,1017.6,,,,,,,,,,,,,,,Clear,72000.0,,,73000.0,,,,,,
KRDR,09-06-2011,22:00,METAR,,190,10.0,,,9999.0,,26.0,15.0,30.02,1017.5,,,,,,,,,,,,,,,Clear,72000.0,,,73000.0,,,,,,
KRDR,09-06-2011,21:00,METAR,,190,9.0,,,9999.0,,26.0,15.0,30.02,1017.5,,,,,,,,,,,,,,,Clear,72000.0,,,73000.0,,,,,,
KRDR,09-06-2011,20:00,METAR,,180,11.0,,,9999.0,,25.0,15.0,30.02,1017.5,,,,,,,,,,,,,,,Clear,72000.0,,,73000.0,,,,,,
KRDR,09-06-2011,19:00,METAR,,180,12.0,,,9999.0,,24.0,14.0,30.02,1017.6,,,,,,,,,,,,,,,Clear,72000.0,,,73000.0,,,,,,
KRDR,09-06-2011,18:00,METAR,,180,10.0,,,9999.0,,23.0,14.0,30.02,1017.6,,,,,,,,,,,,,,,Clear,72000.0,,,73000.0,,,,,,
KRDR,09-06-2011,17:00,METAR,,170,9.0,,,9999.0,,21.0,13.0,30.02,1017.5,,,,,,,,,,,,,,,Clear,72000.0,,,73000.0,,,,,,
KRDR,09-06-2011,16:00,METAR,,190,9.0,,,9999.0,,19.0,13.0,30.02,1017.5,,,,,,,,,,,,,,,Clear,72000.0,,,73000.0,,,,,,
KRDR,09-06-2011,15:00,METAR,,190,11.0,,,9999.0,,16.0,12.0,30.01,1017.2,,,,,,,,,,,,,,,Clear,72000.0,,,73000.0,,,,,,
KRDR,09-06-2011,14:00,METAR,,180,11.0,,,9999.0,,14.0,12.0,30.01,1017.2,,,,,,,,,,,,,,,Clear,72000.0,,,73000.0,,,,,,
KRDR,09-06-2011,13:00,METAR,,180,9.0,,,9999.0,,12.0,12.0,30.01,1017.1,,,,,,,,,,,,,,,Clear,72000.0,,,73000.0,,,,,,
KRDR,09-06-2011,12:00,METAR,,160,7.0,,,9999.0,,10.0,10.0,29.99,1016.7,,,,,,,,,,,,,,,Clear,72000.0,,,73000.0,,,,,,
KRDR,09-06-2011,11:00,METAR,,160,10.0,,,9999.0,,10.0,10.0,29.99,1016.5,,,,,,,,,,,,,,,Clear,72000.0,,,73000.0,,,,,,
KRDR,09-06-2011,10:00,METAR,,170,7.0,,,9999.0,,11.0,11.0,30.00,1016.7,,,,,,,,,,,,,,,Clear,72000.0,,,73000.0,,,,,,
KRDR,09-06-2011,09:00,METAR,,190,6.0,,,9999.0,,11.0,11.0,29.99,1016.6,,,,,,,,,,,,,,,Clear,72000.0,,,73000.0,,,,,,
KRDR,09-06-2011,08:00,METAR,,180,8.0,,,9999.0,,11.0,11.0,29.99,1016.7,,,,,,,,,,,,,,,Clear,72000.0,,,73000.0,,,,,,
KRDR,09-06-2011,07:00,METAR,,170,6.0,,,9999.0,,12.0,11.0,30.00,1016.8,,,,,,,,,,,,,,,Clear,72000.0,,,73000.0,,,,,,
KRDR,09-06-2011,06:00,METAR,,170,5.0,,,9999.0,,12.0,11.0,30.00,1016.7,,,,,,,,,,,,,,,Clear,72000.0,,,73000.0,,,,,,
KRDR,09-06-2011,05:00,METAR,,180,6.0,,,9999.0,,13.0,10.0,29.99,1016.4,,,,,,,,,,,,,,,Clear,72000.0,,,73000.0,,,,,,
KRDR,09-06-2011,04:00,METAR,,170,8.0,,,9999.0,,14.0,9.0,29.99,1016.4,,,,,,,,,,,,,,,Clear,72000.0,,,73000.0,,,,,,
KRDR,09-06-2011,03:00,METAR,,180,8.0,,,9999.0,,15.0,9.0,29.99,1016.4,,,,,,,,,,,,,,,Clear,72000.0,,,73000.0,,,,,,
KRDR,09-06-2011,02:00,METAR,,170,8.0,,,9999.0,,16.0,9.0,29.99,1016.4,,,,,,,,,,,,,,,Clear,72000.0,,,73000.0,,,,,,
KRDR,09-06-2011,01:00,METAR,,170,7.0,,,9999.0,,17.0,9.0,29.99,1016.4,,,,,,,,,,,,,,,Clear,72000.0,,,73000.0,,,,,,
KRDR,09-06-2011,00:00,METAR,,200,9.0,,,9999.0,,21.0,8.0,29.99,1016.5,,,,,,,,,,,,,,,Clear,72000.0,,,73000.0,,,,,,
KRDR,09-05-2011,23:00,METAR,,190,13.0,,,9999.0,,22.0,8.0,30.00,1016.7,,,,,,,,,,,,,,,Clear,72000.0,,,73000.0,,,,,,
KRDR,09-05-2011,22:00,METAR,,200,14.0,,,9999.0,,22.0,7.0,30.00,1016.8,,,,,,,,,,,,,,,Clear,72000.0,,,73000.0,,,,,,
KRDR,09-05-2011,21:00,METAR,,200,12.0,,,9999.0,,22.0,7.0,30.02,1017.5,,,,,,,,,,,,,,,Clear,72000.0,,,73000.0,,,,,,
KRDR,09-05-2011,20:00,METAR,,220,11.0,19.0,,9999.0,,22.0,7.0,30.04,1018.1,,,,,,,,,,,,,,,Clear,72000.0,,,73000.0,,,,,,
KRDR,09-05-2011,19:00,METAR,,210,15.0,18.0,,9999.0,,22.0,8.0,30.06,1018.9,,,,,,,,,,,,,,,Clear,72000.0,,,73000.0,,,,,,
KRDR,09-05-2011,18:00,METAR,,200,13.0,,,9999.0,,21.0,9.0,30.08,1019.6,,,,,,,,,,,,,,,Clear,72000.0,,,73000.0,,,,,,
KRDR,09-05-2011,17:00,METAR,,200,12.0,,,9999.0,,20.0,10.0,30.10,1020.2,,,,,,,,,,,,,,,Clear,72000.0,,,73000.0,,,,,,
KRDR,09-05-2011,16:00,METAR,,190,13.0,,,9999.0,,18.0,10.0,30.12,1020.7,,,,,,,,,,,,,,,Clear,72000.0,,,73000.0,,,,,,
KRDR,09-05-2011,15:00,METAR,,180,9.0,,,9999.0,,15.0,11.0,30.14,1021.3,,,,,,,,,,,,,,,Clear,72000.0,,,73000.0,,,,,,
KRDR,09-05-2011,14:00,METAR,,190,7.0,,,9999.0,,12.0,12.0,30.15,1021.8,,,,,,,,,,,,,,,Clear,72000.0,,,73000.0,,,,,,
KRDR,09-05-2011,13:00,METAR,,190,5.0,,,9999.0,,9.0,9.0,30.15,1021.7,,,,,,,,,,,,,,,Clear,72000.0,,,73000.0,,,,,,
KRDR,09-05-2011,12:00,METAR,,190,4.0,,,9999.0,,7.0,7.0,30.15,1021.7,,,,,,,,,,,,,,,Clear,72000.0,,,73000.0,,,,,,
KRDR,09-05-2011,11:00,METAR,,180,6.0,,,9999.0,,7.0,7.0,30.15,1021.9,,,,,,,,,,,,,,,Clear,72000.0,,,73000.0,,,,,,
KRDR,09-05-2011,10:00,METAR,,190,5.0,,,9999.0,,7.0,7.0,30.16,1022.2,,,,,,,,,,,,,,,Clear,72000.0,,,73000.0,,,,,,
KRDR,09-05-2011,09:00,METAR,,180,5.0,,,9999.0,,8.0,8.0,30.17,1022.4,,,,,,,,,,,,,,,Clear,72000.0,,,73000.0,,,,,,
KRDR,09-05-2011,08:00,METAR,,200,4.0,,,9999.0,,8.0,8.0,30.17,1022.5,,,,,,,,,,,,,,,Clear,72000.0,,,73000.0,,,,,,
KRDR,09-05-2011,07:00,METAR,,220,4.0,,,9999.0,,8.0,8.0,30.18,1022.7,,,,,,,,,,,,,,,Clear,72000.0,,,73000.0,,,,,,
KRDR,09-05-2011,06:00,METAR,,210,4.0,,,9999.0,,8.0,8.0,30.18,1022.9,,,,,,,,,,,,,TRACE,,Clear,72000.0,,,73000.0,,,,,,
KRDR,09-05-2011,05:00,METAR,,220,3.0,,,9999.0,,8.0,8.0,30.19,1023.0,,,,,,,,,,,,,,,Clear,72000.0,,,73000.0,,,,,,
KRDR,09-05-2011,04:00,METAR,,210,3.0,,,9999.0,,9.0,9.0,30.19,1023.2,,,,,,,,,,,,,,,Clear,72000.0,,,73000.0,,,,,,
KRDR,09-05-2011,03:00,METAR,,210,4.0,,,9999.0,,10.0,10.0,30.19,1023.2,,,,,,,,,,,,TRACE,,,Clear,72000.0,,,73000.0,,,,,,
KRDR,09-05-2011,02:00,METAR,,,0.0,,,9999.0,,11.0,10.0,30.20,1023.4,,,,,,,,,,,,,,,Clear,72000.0,,,73000.0,,,,,,
KRDR,09-05-2011,01:00,METAR,,90,3.0,,,9999.0,,15.0,8.0,30.20,1023.4,,,,,,,,,,,TRACE,,,,Clear,72000.0,,,73000.0,,,,,,
KRDR,09-05-2011,00:53,SPECI,,90,3.0,,,9999.0,,15.0,8.0,30.20,1023.4,,,,,,,,,,,,,,,Clear,72000.0,,,73000.0,,,,,,
KRDR,09-05-2011,00:44,SPECI,,90,3.0,,,9999.0,,15.0,8.0,30.20,1023.4,,,,,,,,,,,,,,,Clear,72000.0,,,73000.0,,,,,,
KRDR,09-05-2011,00:00,METAR,,40,6.0,,,9999.0,,17.0,8.0,30.20,1023.4,,,,,,,,,,,,,,,Clear,72000.0,,,73000.0,,,,,,
KRDR,09-04-2011,23:00,METAR,,10,4.0,,,9999.0,,18.0,8.0,30.20,1023.5,,,,,,,,,,,,,,,2/8 Mostly Clear,72000.0,,FEW,5000.0,,,,,,
KRDR,09-04-2011,22:00,METAR,,360,6.0,,,9999.0,,18.0,8.0,30.21,1023.9,,,,,,,,,,,,,,,2/8 Mostly Clear,72000.0,,FEW,4800.0,,,,,,
KRDR,09-04-2011,21:00,METAR,,20,10.0,,,9999.0,,19.0,8.0,30.21,1023.8,,,,,,,,,,,,,,,4/8 Partly Cloudy,72000.0,,FEW,4500.0,SCT,6900.0,,,,
KRDR,09-04-2011,20:00,METAR,,360,7.0,,,9999.0,,18.0,8.0,30.22,1024.2,,,,,,,,,,,,,,,2/8 Mostly Clear,72000.0,,FEW,5900.0,,,,,,
KRDR,09-04-2011,19:00,METAR,,10,7.0,,,9999.0,,18.0,10.0,30.23,1024.4,,,,,,,,,,,,,,,7/8 Mostly Cloudy,6000.0,,FEW,3300.0,BKN,5900.0,,,,
KRDR,09-04-2011,18:00,METAR,,350,9.0,,,9999.0,,16.0,11.0,30.25,1025.0,,,,,,,,,,,,,,,4/8 Partly Cloudy,72000.0,,SCT,2400.0,,,,,,
KRDR,09-04-2011,17:35,SPECI,,350,5.0,,,9999.0,,16.0,11.0,30.25,1025.0,,,,,,,,,,,,,,,4/8 Partly Cloudy,72000.0,,SCT,2100.0,,,,,,
KRDR,09-04-2011,17:00,METAR,,340,8.0,,,9999.0,,15.0,11.0,30.25,1025.1,,,,,,,,,,,,,,,7/8 Mostly Cloudy,1400.0,,BKN,1800.0,,,,,,
KRDR,09-04-2011,16:42,SPECI,,340,9.0,,,9999.0,,15.0,11.0,30.25,1025.1,,,,,,,,,,,,,,,7/8 Mostly Cloudy,1200.0,,BKN,1600.0,,,,,,
KRDR,09-04-2011,16:00,METAR,,350,10.0,,,9999.0,,14.0,12.0,30.25,1025.0,,,,,,,,,,,,,,,8/8 Overcast,1000.0,,OVC,1200.0,,,,,,
KRDR,09-04-2011,14:51,SPECI,,360,10.0,,,9999.0,,14.0,13.0,30.23,1024.5,,,,,,,,,,,,,,,7/8 Mostly Cloudy,1100.0,,BKN,1100.0,,,,,,
KRDR,09-04-2011,14:41,SPECI,,350,7.0,,,9999.0,,13.0,12.0,30.23,1024.3,,,,,,,,,,,,,,,2/8 Mostly Clear,72000.0,,FEW,1100.0,,,,,,
KRDR,09-04-2011,14:00,METAR,,330,7.0,,,9999.0,,12.0,11.0,30.22,1024.1,,,,,,,,,,,,,,,Clear,72000.0,,,73000.0,,,,,,
KRDR,09-04-2011,13:00,METAR,,330,6.0,,,9999.0,,9.0,9.0,30.21,1023.7,,,,,,,,,,,,,,,Clear,72000.0,,,73000.0,,,,,,
KRDR,09-04-2011,12:00,METAR,,330,5.0,,,9999.0,,8.0,8.0,30.19,1023.2,,,,,,,,,,,,,,,Clear,72000.0,,,73000.0,,,,,,
KRDR,09-04-2011,11:00,METAR,,320,7.0,,,9999.0,,8.0,8.0,30.17,1022.4,,,,,,,,,,,,,,,Clear,72000.0,,,73000.0,,,,,,
KRDR,09-04-2011,10:00,METAR,,320,5.0,,,9999.0,,8.0,8.0,30.15,1021.8,,,,,,,,,,,,,,,Clear,72000.0,,,73000.0,,,,,,
KRDR,09-04-2011,09:00,METAR,,330,7.0,,,9999.0,,9.0,9.0,30.14,1021.3,,,,,,,,,,,,,,,Clear,72000.0,,,73000.0,,,,,,
KRDR,09-04-2011,08:00,METAR,,330,8.0,,,9999.0,,10.0,10.0,30.12,1020.7,,,,,,,,,,,,,,,Clear,72000.0,,,73000.0,,,,,,
KRDR,09-04-2011,07:00,METAR,,320,7.0,,,9999.0,,10.0,10.0,30.11,1020.4,,,,,,,,,,,,,,,Clear,72000.0,,,73000.0,,,,,,
KRDR,09-04-2011,06:00,METAR,,320,8.0,,,9999.0,,11.0,9.0,30.09,1019.9,,,,,,,,,,,,,,,Clear,72000.0,,,73000.0,,,,,,
KRDR,09-04-2011,05:00,METAR,,330,7.0,,,9999.0,,12.0,10.0,30.08,1019.6,,,,,,,,,,,,,,,Clear,72000.0,,,73000.0,,,,,,
KRDR,09-04-2011,04:00,METAR,,340,7.0,,,9999.0,,14.0,9.0,30.07,1019.1,,,,,,,,,,,,,,,Clear,72000.0,,,73000.0,,,,,,
KRDR,09-04-2011,03:00,METAR,,310,6.0,,,9999.0,,12.0,9.0,30.05,1018.6,,,,,,,,,,,,,,,4/8 Partly Cloudy,72000.0,,SCT,6900.0,,,,,,
KRDR,09-04-2011,02:00,METAR,,360,9.0,,,9999.0,,15.0,9.0,30.04,1018.1,,,,,,,,,,,,,,,Clear,72000.0,,,73000.0,,,,,,
KRDR,09-04-2011,01:00,METAR,,330,10.0,17.0,,9999.0,,16.0,8.0,30.01,1017.2,,,,,,,,,,,,,,,4/8 Partly Cloudy,72000.0,,FEW,4900.0,SCT,9400.0,,,,
KRDR,09-04-2011,00:00,METAR,,350,15.0,21.0,,9999.0,,17.0,7.0,29.99,1016.6,,,,,,,,,,,,,,,7/8 Mostly Cloudy,8000.0,,BKN,7900.0,,,,,,
KRDR,09-03-2011,23:00,METAR,,350,9.0,,,9999.0,,18.0,10.0,29.97,1015.9,,,,,,,,,,,,,,,4/8 Partly Cloudy,72000.0,,SCT,7900.0,,,,,,
KRDR,09-03-2011,22:00,METAR,,350,16.0,26.0,340/30KTS,9999.0,,18.0,9.0,29.97,1015.7,,,,,,,,,,,,,,,7/8 Mostly Cloudy,7000.0,,BKN,6900.0,,,,,,
KRDR,09-03-2011,21:00,METAR,,340,16.0,24.0,350/32KTS,9999.0,,17.0,10.0,29.94,1014.9,,,,,,,,,,,,,,,7/8 Mostly Cloudy,6000.0,,FEW,4700.0,BKN,5900.0,,,,
KRDR,09-03-2011,20:00,METAR,,330,16.0,23.0,320/26KTS,9999.0,,18.0,10.0,29.92,1014.1,,,,,,,,,,,,,,,7/8 Mostly Cloudy,3800.0,,FEW,3900.0,BKN,6400.0,,,,
KRDR,09-03-2011,19:00,METAR,,300,16.0,24.0,,9999.0,,18.0,12.0,29.89,1013.3,,,,,,,,,,,,,,,4/8 Partly Cloudy,72000.0,,FEW,3100.0,SCT,5000.0,,,,
KRDR,09-03-2011,18:00,METAR,,310,14.0,24.0,290/26KTS,9999.0,,18.0,11.0,29.88,1012.9,,,,,,,,,,,,,,,7/8 Mostly Cloudy,6000.0,,FEW,3600.0,BKN,5900.0,,,,
KRDR,09-03-2011,17:00,METAR,,290,15.0,21.0,,9999.0,,18.0,11.0,29.87,1012.6,,,,,,,,,,,,,,,4/8 Partly Cloudy,72000.0,,SCT,3300.0,,,,,,
KRDR,09-03-2011,16:00,METAR,,290,17.0,21.0,,9999.0,,18.0,11.0,29.86,1012.2,,,,,,,,,,,,,,,2/8 Mostly Clear,72000.0,,FEW,3300.0,,,,,,
KRDR,09-03-2011,15:00,METAR,,300,16.0,20.0,,9999.0,,17.0,11.0,29.85,1012.1,,,,,,,,,,,,,,,7/8 Mostly Cloudy,3300.0,,BKN,3400.0,,,,,,
KRDR,09-03-2011,14:00,METAR,,290,12.0,17.0,,9999.0,,15.0,11.0,29.86,1012.1,,,,,,,,,,,,,,,Clear,72000.0,,,73000.0,,,,,,
KRDR,09-03-2011,13:00,METAR,,270,10.0,,,9999.0,,13.0,10.0,29.86,1012.1,,,,,,,,,,,,,,,Clear,72000.0,,,73000.0,,,,,,
KRDR,09-03-2011,12:00,METAR,,280,10.0,,,9999.0,,13.0,10.0,29.85,1011.8,,,,,,,,,,,,,,,Clear,72000.0,,,73000.0,,,,,,
KRDR,09-03-2011,11:00,METAR,,300,10.0,,,9999.0,,14.0,12.0,29.84,1011.4,,,,,,,,,,,,,,,Clear,72000.0,,,73000.0,,,,,,
KRDR,09-03-2011,10:00,METAR,,290,16.0,23.0,,9999.0,,17.0,13.0,29.82,1010.8,,,,,,,,,,,,,,,Clear,72000.0,,,73000.0,,,,,,
KRDR,09-03-2011,09:00,METAR,,260,7.0,,,9999.0,,16.0,16.0,29.82,1010.9,,,,,,,,,,,,,,,8/8 Overcast,4300.0,,OVC,4400.0,,,,,,
KRDR,09-03-2011,08:00,METAR,,170,6.0,,,9999.0,,14.0,14.0,29.80,1010.3,,,,,,,,,,,,,,,Clear,72000.0,,,73000.0,,,,,,
KRDR,09-03-2011,07:00,METAR,,170,5.0,,,9999.0,,14.0,14.0,29.83,1011.2,,,,,,,,,,,,,,,Clear,72000.0,,,73000.0,,,,,,
KRDR,09-03-2011,06:00,METAR,,140,4.0,,,9999.0,,16.0,13.0,29.85,1011.8,,,,,,,,,,,,,TRACE,,2/8 Mostly Clear,72000.0,,FEW,7900.0,,,,,,
KRDR,09-03-2011,05:00,METAR,,200,9.0,,,9999.0,,17.0,12.0,29.88,1012.8,,,,,,,,,,,TRACE,,,,2/8 Mostly Clear,72000.0,,FEW,8900.0,,,,,,
KRDR,09-03-2011,04:29,SPECI,,190,9.0,,,9999.0,,17.0,13.0,29.87,1012.6,,,,,,,,,,,,,,,4/8 Partly Cloudy,72000.0,,SCT,12000.0,,,,,,
KRDR,09-03-2011,04:16,SPECI,,180,9.0,,,9999.0,,17.0,13.0,29.87,1012.5,,,,,,,,,,,,,,,2/8 Mostly Clear,72000.0,,FEW,11000.0,,,,,,
KRDR,09-03-2011,04:00,METAR,,190,7.0,,,9999.0,,17.0,13.0,29.88,1013.0,,,,,,,,,,,,,,,7/8 Mostly Cloudy,11000.0,,BKN,11000.0,,,,,,
KRDR,09-03-2011,03:00,METAR,,180,7.0,,,9999.0,,16.0,13.0,29.88,1012.9,,,,,,,,,,,,,,,Clear,72000.0,,,73000.0,,,,,,
KRDR,09-03-2011,02:00,METAR,,170,7.0,,,9999.0,,17.0,14.0,29.86,1012.3,,,,,,,,,,,,,,,Clear,72000.0,,,73000.0,,,,,,
KRDR,09-03-2011,01:00,METAR,,170,3.0,,,9999.0,,19.0,14.0,29.87,1012.6,,,,,,,,,,,,,,,Clear,72000.0,,,73000.0,,,,,,
KRDR,09-03-2011,00:00,METAR,,180,5.0,,,9999.0,,22.0,12.0,29.89,1013.1,,,,,,,,,,,,,,,Clear,72000.0,,,73000.0,,,,,,
KRDR,09-02-2011,23:00,METAR,,190,5.0,,,9999.0,,22.0,12.0,29.90,1013.5,,,,,,,,,,,,,,,4/8 Partly Cloudy,72000.0,,SCT,5900.0,,,,,,
KRDR,09-02-2011,22:00,METAR,,,4.0,,,9999.0,,22.0,11.0,29.91,1013.7,,,,,,,,,,,,,,,4/8 Partly Cloudy,72000.0,,SCT,5900.0,,,,,,
KRDR,09-02-2011,21:00,METAR,,180,7.0,,,9999.0,,22.0,11.0,29.92,1014.1,,,,,,,,,,,,,,,2/8 Mostly Clear,72000.0,,FEW,5900.0,,,,,,
KRDR,09-02-2011,20:00,METAR,,,5.0,,,9999.0,,22.0,10.0,29.93,1014.7,,,,,,,,,,,,,,,Clear,72000.0,,,73000.0,,,,,,
KRDR,09-02-2011,19:00,METAR,,240,6.0,,,9999.0,,22.0,11.0,29.95,1015.3,,,,,,,,,,,,,,,Clear,72000.0,,,73000.0,,,,,,
KRDR,09-02-2011,18:00,METAR,,,0.0,,,9999.0,,21.0,10.0,29.97,1015.7,,,,,,,,,,,,,,,Clear,72000.0,,,73000.0,,,,,,
KRDR,09-02-2011,17:00,METAR,,320,3.0,,,9999.0,,19.0,11.0,29.98,1016.0,,,,,,,,,,,,,,,Clear,72000.0,,,73000.0,,,,,,
KRDR,09-02-2011,16:00,METAR,,,4.0,,,9999.0,,18.0,11.0,29.98,1016.0,,,,,,,,,,,,,,,Clear,72000.0,,,73000.0,,,,,,
KRDR,09-02-2011,15:00,METAR,,330,7.0,,,9999.0,,17.0,12.0,29.97,1015.9,,,,,,,,,,,,,,,Clear,72000.0,,,73000.0,,,,,,
KRDR,09-02-2011,14:00,METAR,,300,6.0,,,9999.0,,15.0,15.0,29.97,1015.8,,,,,,,,,,,,,,,Clear,72000.0,,,73000.0,,,,,,
KRDR,09-02-2011,13:00,METAR,,300,5.0,,,9999.0,,13.0,13.0,29.96,1015.4,,,,,,,,,,,,,,,Clear,72000.0,,,73000.0,,,,,,
KRDR,09-02-2011,12:00,METAR,,270,3.0,,,4800.0,Mist,12.0,12.0,29.93,1014.4,10,,,,,,,,,,,,.01 IN,.02 IN,Clear,72000.0,,,73000.0,,,,,,
KRDR,09-02-2011,11:00,METAR,,330,4.0,,,9999.0,,13.0,13.0,29.91,1013.7,,,,,,,,,,,,,,,Clear,72000.0,,,73000.0,,,,,,
KRDR,09-02-2011,10:00,METAR,,330,7.0,,,9999.0,,15.0,15.0,29.90,1013.6,,,,,,,,,,,,,,,Clear,72000.0,,,73000.0,,,,,,
KRDR,09-02-2011,09:00,METAR,,320,7.0,,,9999.0,,15.0,15.0,29.91,1013.9,,,,,,,,,,,.01 IN,.01 IN,,,7/8 Mostly Cloudy,3500.0,,SCT,1400.0,BKN,3600.0,,,,
KRDR,09-02-2011,08:41,SPECI,,330,9.0,,,9999.0,,15.0,15.0,29.91,1013.8,,,,,,,,,,,,,,,4/8 Partly Cloudy,72000.0,,SCT,1400.0,SCT,3600.0,,,,
KRDR,09-02-2011,08:38,SPECI,,330,10.0,,,9999.0,,16.0,16.0,29.91,1013.9,,,,,,,,,,,,,,,7/8 Mostly Cloudy,2800.0,,SCT,1400.0,BKN,2800.0,BKN,3600.0,,
KRDR,09-02-2011,08:30,SPECI,,330,10.0,,,9999.0,,16.0,16.0,29.90,1013.7,,,,,,,,,,,,,,,7/8 Mostly Cloudy,1300.0,,BKN,1300.0,BKN,5000.0,BKN,6900.0,,
KRDR,09-02-2011,08:00,METAR,,320,5.0,,,9999.0,Light Rain,16.0,16.0,29.89,1013.2,61,,,,,,,,,,TRACE,,,,7/8 Mostly Cloudy,8000.0,,FEW,1300.0,BKN,11000.0,,,,
KRDR,09-02-2011,07:48,SPECI,,330,5.0,,,9999.0,Light Rain,16.0,16.0,29.89,1013.2,61,,,,,,,,,,,,,,7/8 Mostly Cloudy,11000.0,,FEW,1400.0,BKN,11000.0,,,,
KRDR,09-02-2011,07:20,SPECI,,360,4.0,,,9999.0,,16.0,16.0,29.88,1012.9,,,,,,,,,,,,,,,7/8 Mostly Cloudy,11000.0,,FEW,2000.0,SCT,9400.0,BKN,11000.0,,
KRDR,09-02-2011,07:01,SPECI,,340,4.0,,,9999.0,Light Rain,17.0,17.0,29.90,1013.4,61,,,,,,,,,,,,,,8/8 Overcast,7000.0,,FEW,1600.0,OVC,9900.0,,,,
KRDR,09-02-2011,07:00,METAR,,310,6.0,,,9999.0,,17.0,17.0,29.92,1014.3,,,,,,,,,,,TRACE,,,,8/8 Overcast,10000.0,,OVC,9900.0,,,,,,
KRDR,09-02-2011,06:30,SPECI,,280,3.0,,,9999.0,,17.0,17.0,29.92,1014.0,,,,,,,,,,,,,,,7/8 Mostly Cloudy,10000.0,,FEW,3600.0,SCT,4600.0,BKN,9900.0,,
KRDR,09-02-2011,06:18,SPECI,,,0.0,,,9999.0,Light Drizzle,17.0,17.0,29.90,1013.7,51,,,,,,,,,,,,,,7/8 Mostly Cloudy,4100.0,,SCT,3400.0,BKN,4200.0,BKN,9900.0,,
KRDR,09-02-2011,06:00,METAR,,330,10.0,,,9999.0,,18.0,18.0,29.91,1013.7,,,,,,,,,,,,,TRACE,,8/8 Overcast,2300.0,,SCT,1500.0,BKN,2300.0,OVC,3000.0,,
KRDR,09-02-2011,05:00,METAR,,340,11.0,,,9999.0,,19.0,17.0,29.86,1012.4,,,,,,,,,,,,,,,8/8 Overcast,1900.0,,BKN,2000.0,OVC,3000.0,,,,
KRDR,09-02-2011,04:42,SPECI,,340,9.0,,,9999.0,,19.0,17.0,29.86,1012.1,,,,,,,,,,,,,,,8/8 Overcast,2000.0,,BKN,2100.0,OVC,3000.0,,,,
KRDR,09-02-2011,04:15,SPECI,,330,9.0,,,9999.0,,19.0,18.0,29.84,1011.5,,,,,,,,,,,,,,,8/8 Overcast,3100.0,,SCT,2300.0,OVC,3100.0,,,,
KRDR,09-02-2011,04:00,METAR,,340,9.0,,,9999.0,,19.0,19.0,29.83,1011.3,,,,,,,,,,,,,,,8/8 Overcast,2700.0,,FEW,2100.0,BKN,2700.0,OVC,3200.0,,
KRDR,09-02-2011,03:31,SPECI,,360,5.0,,,9999.0,,19.0,19.0,29.83,1011.3,,,,,,,,,,,,,,,8/8 Overcast,2800.0,,BKN,2800.0,OVC,3700.0,,,,
KRDR,09-02-2011,03:00,METAR,,360,5.0,,,9999.0,,20.0,19.0,29.83,1011.2,,,,,,,,,,,,TRACE,,,8/8 Overcast,4000.0,,SCT,2800.0,OVC,4100.0,,,,
KRDR,09-02-2011,02:44,SPECI,,10,6.0,,,9999.0,,20.0,19.0,29.83,1011.2,,,,,,,,,,,,,,,8/8 Overcast,2800.0,,SCT,2900.0,OVC,3900.0,,,,
KRDR,09-02-2011,02:00,METAR,,10,7.0,,,9999.0,,20.0,18.0,29.82,1010.9,,,,,,,,,,,,,,,8/8 Overcast,2800.0,,BKN,2800.0,OVC,3700.0,,,,
KRDR,09-02-2011,01:00,METAR,,20,9.0,,,9999.0,,22.0,19.0,29.80,1010.1,,,,,,,,,,,TRACE,,,,8/8 Overcast,2400.0,,OVC,2600.0,,,,,,
KRDR,09-02-2011,00:29,SPECI,,360,5.0,,,9999.0,,22.0,20.0,29.79,1009.9,,,,,,,,,,,,,,,8/8 Overcast,2600.0,,OVC,2900.0,,,,,,
KRDR,09-02-2011,00:25,SPECI,,340,5.0,,,9999.0,Light Rain,22.0,20.0,29.80,1010.1,61,,,,,,,,,,,,,,8/8 Overcast,2600.0,,OVC,2900.0,,,,,,
KRDR,09-02-2011,00:15,SPECI,,340,6.0,,,9999.0,Light Rain,23.0,19.0,29.79,1010.0,61,,,,,,,,,,,,,,7/8 Mostly Cloudy,3000.0,,BKN,3000.0,BKN,3700.0,,,,
KRDR,09-02-2011,00:00,METAR,,20,13.0,,,9999.0,,23.0,18.0,29.76,1009.0,,,,,,,,,,,,,,,4/8 Partly Cloudy,72000.0,,FEW,3300.0,SCT,4400.0,,,,
KRDR,09-01-2011,23:00,METAR,,360,12.0,,,9999.0,,25.0,18.0,29.74,1008.4,,,,,,,,,,,,,,,7/8 Mostly Cloudy,3900.0,,BKN,4000.0,,,,,,
KRDR,09-01-2011,22:00,METAR,,330,10.0,,,9999.0,,26.0,19.0,29.73,1007.9,,,,,,,,,,,,,,,2/8 Mostly Clear,72000.0,,FEW,3400.0,,,,,,
KRDR,09-01-2011,21:00,METAR,,340,11.0,,,9999.0,,26.0,19.0,29.73,1007.8,,,,,,,,,,,,,,,2/8 Mostly Clear,72000.0,,FEW,3200.0,,,,,,
KRDR,09-01-2011,20:00,METAR,,330,12.0,18.0,,9999.0,,25.0,20.0,29.72,1007.6,,,,,,,,,,,,,,,2/8 Mostly Clear,72000.0,,FEW,2700.0,,,,,,
KRDR,09-01-2011,19:00,METAR,,320,12.0,,,9999.0,,25.0,20.0,29.72,1007.5,,,,,,,,,,,,,,,Clear,72000.0,,,73000.0,,,,,,
KRDR,09-01-2011,18:00,METAR,,290,13.0,,,9999.0,,24.0,21.0,29.73,1007.9,,,,,,,,,,,,,.01 IN,,2/8 Mostly Clear,72000.0,,FEW,2300.0,,,,,,
KRDR,09-01-2011,17:36,SPECI,,300,13.0,,,9999.0,,24.0,21.0,29.73,1007.8,,,,,,,,,,,,,,,4/8 Partly Cloudy,72000.0,,SCT,2200.0,,,,,,
KRDR,09-01-2011,17:02,SPECI,,260,5.0,,,9999.0,,25.0,24.0,29.72,1007.6,,,,,,,,,,,,,,,7/8 Mostly Cloudy,1500.0,,FEW,800.0,BKN,1700.0,,,,
KRDR,09-01-2011,17:00,METAR,,240,5.0,,,9999.0,,24.0,24.0,29.72,1007.6,,,,,,,,,,,,,,,4/8 Partly Cloudy,72000.0,,SCT,800.0,,,,,,
KRDR,09-01-2011,16:00,METAR,,240,7.0,,,9999.0,,22.0,22.0,29.71,1007.2,,,,,,,,,,,,,,,8/8 Overcast,800.0,,OVC,900.0,,,,,,
KRDR,09-01-2011,15:41,SPECI,,220,4.0,,,9999.0,,22.0,22.0,29.70,1007.1,,,,,,,,,,,,,,,8/8 Overcast,900.0,,OVC,900.0,,,,,,
KRDR,09-01-2011,15:00,METAR,,,4.0,,,9999.0,,21.0,21.0,29.71,1007.3,,,,,,,,,,,,.01 IN,,,8/8 Overcast,900.0,,BKN,1000.0,OVC,1400.0,,,,
KRDR,09-01-2011,14:49,SPECI,,310,6.0,,,9999.0,,21.0,21.0,29.71,1007.2,,,,,,,,,,,,,,,8/8 Overcast,900.0,,OVC,1100.0,,,,,,
KRDR,09-01-2011,14:11,SPECI,,170,7.0,,,9999.0,,20.0,20.0,29.68,1006.2,,,,,,,,,,,,,,,8/8 Overcast,1400.0,,OVC,1400.0,,,,,,
KRDR,09-01-2011,14:00,METAR,,170,7.0,,,9999.0,,20.0,20.0,29.67,1005.9,,,,,,,,,,,,,,,8/8 Overcast,1600.0,,OVC,1600.0,,,,,,
KRDR,09-01-2011,13:18,SPECI,,180,6.0,,,9999.0,,19.0,19.0,29.66,1005.6,,,,,,,,,,,,,,,7/8 Mostly Cloudy,1500.0,,BKN,1500.0,,,,,,
KRDR,09-01-2011,13:00,METAR,,160,9.0,,,9999.0,,19.0,19.0,29.65,1005.3,,,,,,,,,,,.01 IN,,,,Clear,72000.0,,,73000.0,,,,,,
KRDR,09-01-2011,12:00,METAR,,150,7.0,,,9999.0,,19.0,19.0,29.62,1004.4,,,,,,,,,,,TRACE,,.61 IN,.61 IN,Clear,72000.0,,,73000.0,,,,,,
KRDR,09-01-2011,11:54,SPECI,,160,8.0,,,9999.0,,19.0,19.0,29.62,1004.4,,,,,,,,,,,,,,,2/8 Mostly Clear,72000.0,,FEW,600.0,,,,,,
KRDR,09-01-2011,11:28,SPECI,,150,15.0,,,9999.0,,19.0,19.0,29.59,1003.5,,,,,,,,,,,,,,,7/8 Mostly Cloudy,11000.0,,FEW,3200.0,BKN,11000.0,,,,
KRDR,09-01-2011,11:11,SPECI,,150,11.0,,,9999.0,Light Drizzle,19.0,19.0,29.60,1003.6,51,,,,,,,,,,,,,,7/8 Mostly Cloudy,12000.0,,FEW,4100.0,SCT,9900.0,BKN,12000.0,,
KRDR,09-01-2011,11:08,SPECI,,150,13.0,,,9999.0,,19.0,19.0,29.60,1003.7,,,,,,,,,,,,,,,7/8 Mostly Cloudy,12000.0,,FEW,4100.0,BKN,12000.0,,,,
KRDR,09-01-2011,11:00,METAR,,130,13.0,17.0,,9999.0,,19.0,19.0,29.59,1003.4,,,,,,,,,,,,,,,7/8 Mostly Cloudy,10000.0,,FEW,300.0,SCT,4100.0,BKN,9900.0,,
KRDR,09-01-2011,10:29,SPECI,,120,9.0,,,9999.0,,19.0,19.0,29.62,1004.4,,,,,,,,,,,,,,,4/8 Partly Cloudy,72000.0,,FEW,400.0,SCT,7400.0,,,,
KRDR,09-01-2011,10:27,SPECI,,120,10.0,,,9999.0,,19.0,19.0,29.62,1004.3,,,,,,,,,,,,,,,4/8 Partly Cloudy,72000.0,,SCT,6900.0,,,,,,
KRDR,09-01-2011,10:18,SPECI,,120,5.0,,,9999.0,,19.0,19.0,29.64,1005.1,,,,,,,,,,,,,,,7/8 Mostly Cloudy,7000.0,,BKN,6900.0,,,,,,
KRDR,09-01-2011,10:00,METAR,,110,7.0,,,9999.0,Light Rain,19.0,19.0,29.66,1005.6,61,,,,,,,,,,,,,,8/8 Overcast,7000.0,,SCT,600.0,OVC,6900.0,,,,
KRDR,09-01-2011,10:00,SPECI,,110,8.0,,,9999.0,,19.0,19.0,29.66,1005.5,,,,,,,,,,,,,,,8/8 Overcast,7500.0,,SCT,500.0,OVC,7400.0,,,,
KRDR,09-01-2011,09:38,SPECI,,150,4.0,,,9999.0,Light Rain,19.0,19.0,29.69,1006.6,61,,,,,,,,,,,,,,8/8 Overcast,500.0,,BKN,500.0,BKN,6900.0,OVC,8900.0,,
KRDR,09-01-2011,09:36,SPECI,,160,4.0,,,8000.0,Light Rain/Mist,19.0,19.0,29.69,1006.6,61,10,,,,,,,,,,,,,8/8 Overcast,300.0,,BKN,300.0,BKN,6900.0,OVC,11000.0,,
KRDR,09-01-2011,09:35,SPECI,,160,5.0,,,6400.0,Thunderstorm and Rain or Snow Showers/Mist,19.0,19.0,29.69,1006.7,92,10,,,,,,,,,,,,,8/8 Overcast,4000.0,,SCT,300.0,BKN,6900.0,OVC,11000.0,,
KRDR,09-01-2011,09:33,SPECI,,170,4.0,,,4800.0,Thunderstorm and Rain or Snow Showers/Mist,19.0,19.0,29.70,1006.8,92,10,,,,,,,,,,,,,8/8 Overcast,3600.0,,SCT,300.0,BKN,5900.0,OVC,11000.0,,
KRDR,09-01-2011,09:19,SPECI,,110,4.0,,,9999.0,Thunderstorm and Rain or Snow Showers,19.0,19.0,29.64,1005.0,92,,,,,,,,,,,,,,8/8 Overcast,8000.0,,FEW,400.0,BKN,9400.0,OVC,12000.0,,
KRDR,09-01-2011,09:17,SPECI,,,0.0,,,9999.0,Thunderstorm and Rain or Snow Showers,19.0,19.0,29.64,1004.9,92,,,,,,,,,,,,,,8/8 Overcast,9500.0,,SCT,5000.0,BKN,9400.0,OVC,11000.0,,
KRDR,09-01-2011,09:15,SPECI,,90,6.0,,,9999.0,,19.0,19.0,29.60,1003.7,,,,,,,,,,,,,,,7/8 Mostly Cloudy,10000.0,,SCT,5400.0,BKN,9900.0,BKN,11000.0,,
KRDR,09-01-2011,09:11,SPECI,,90,8.0,,,8000.0,Light Rain/Mist,19.0,19.0,29.57,1002.7,61,10,,,,,,,,,,,,,7/8 Mostly Cloudy,3100.0,,SCT,5400.0,BKN,9400.0,BKN,12000.0,,
KRDR,09-01-2011,09:09,SPECI,,80,12.0,,,6400.0,Thunderstorm and Rain or Snow Showers/Mist,19.0,19.0,29.55,1002.1,92,10,,,,,,,,,,,,,7/8 Mostly Cloudy,3300.0,,BKN,5900.0,BKN,9400.0,BKN,11000.0,,
KRDR,09-01-2011,09:05,SPECI,,60,13.0,,,4800.0,Thunderstorm and Rain or Snow Showers/Mist,19.0,19.0,29.52,1000.9,92,10,,,,,,,,,,,,,8/8 Overcast,3700.0,,FEW,400.0,BKN,6400.0,OVC,9400.0,,
KRDR,09-01-2011,09:02,SPECI,,50,13.0,,,3200.0,Thunderstorm and Rain or Snow Showers/Mist,19.0,19.0,29.55,1001.9,92,10,,,,,,,,,,,,,8/8 Overcast,3900.0,,FEW,400.0,OVC,5900.0,,,,
KRDR,09-01-2011,09:01,SPECI,,60,9.0,,,2800.0,Thunderstorm and Rain or Snow Showers/Mist,19.0,19.0,29.55,1002.0,92,10,,,,,,,,,,,,,8/8 Overcast,3900.0,,FEW,400.0,BKN,5900.0,OVC,8900.0,,
KRDR,09-01-2011,09:00,METAR,,,5.0,,,2400.0,Heavy Thunderstorm and Rain or Snow Showers/Mist,19.0,19.0,29.64,1004.9,95,10,,,,,,,,,,,,,8/8 Overcast,3100.0,,FEW,400.0,BKN,4500.0,OVC,6400.0,,
KRDR,09-01-2011,08:54,SPECI,,200,6.0,,,2800.0,Heavy Thunderstorm and Rain or Snow Showers/Mist,19.0,19.0,29.67,1006.1,95,10,,,,,,,,,,,,,8/8 Overcast,3100.0,,FEW,400.0,BKN,4400.0,OVC,8900.0,,
KRDR,09-01-2011,08:41,SPECI,,350,6.0,,300/32KTS,9999.0,Thunderstorm and Rain or Snow Showers,19.0,19.0,29.64,1005.0,92,,,,,,,,,,,,,,8/8 Overcast,3100.0,,SCT,400.0,BKN,4100.0,OVC,6400.0,,
KRDR,09-01-2011,08:39,SPECI,,360,6.0,,300/32KTS,9999.0,Thunderstorm and Rain or Snow Showers,19.0,19.0,29.64,1005.1,92,,,,,,,,,,,,,,8/8 Overcast,1200.0,,SCT,400.0,BKN,1200.0,OVC,6400.0,,
KRDR,09-01-2011,08:34,SPECI,,340,7.0,,300/32KTS,6400.0,Thunderstorm and Rain or Snow Showers/Mist,19.0,19.0,29.67,1005.8,92,10,,,,,,,,,,,,,8/8 Overcast,400.0,,BKN,400.0,BKN,1600.0,OVC,3700.0,,
KRDR,09-01-2011,08:32,SPECI,,320,7.0,,300/32KTS,4800.0,Thunderstorm and Rain or Snow Showers/Mist,19.0,19.0,29.68,1006.3,92,10,,,,,,,,,,,,,8/8 Overcast,400.0,,BKN,400.0,OVC,1700.0,,,,
KRDR,09-01-2011,08:30,SPECI,,320,6.0,,300/32KTS,4000.0,Heavy Thunderstorm and Rain or Snow Showers/Mist,19.0,19.0,29.68,1006.4,95,10,,,,,,,,,,,,,8/8 Overcast,400.0,,BKN,400.0,OVC,1800.0,,,,
KRDR,09-01-2011,08:27,SPECI,,320,6.0,,300/32KTS,3200.0,Heavy Thunderstorm and Rain or Snow Showers/Mist,19.0,19.0,29.69,1006.6,95,10,,,,,,,,,,,,,8/8 Overcast,400.0,,BKN,400.0,BKN,800.0,OVC,1400.0,,
KRDR,09-01-2011,08:25,SPECI,,320,8.0,,300/32KTS,3200.0,Heavy Thunderstorm and Rain or Snow Showers/Mist,19.0,19.0,29.68,1006.3,95,10,,,,,,,,,,,,,8/8 Overcast,300.0,,BKN,300.0,BKN,800.0,OVC,1400.0,,
KRDR,09-01-2011,08:22,SPECI,,330,10.0,,300/32KTS,2000.0,Heavy Thunderstorm and Rain or Snow Showers/Mist,19.0,19.0,29.67,1006.1,95,10,,,,,,,,,,,,,8/8 Overcast,300.0,,BKN,300.0,BKN,800.0,OVC,1200.0,,
KRDR,09-01-2011,08:21,SPECI,,340,11.0,,300/32KTS,2000.0,Heavy Thunderstorm and Rain or Snow Showers/Mist,19.0,19.0,29.67,1006.1,95,10,,,,,,,,,,,,,8/8 Overcast,800.0,,SCT,300.0,BKN,800.0,OVC,1200.0,,
KRDR,09-01-2011,08:19,SPECI,,350,10.0,,300/32KTS,1600.0,Heavy Thunderstorm and Rain or Snow Showers/Mist,19.0,19.0,29.67,1005.9,95,10,,,,,,,,,,,,,8/8 Overcast,800.0,,SCT,300.0,BKN,800.0,OVC,1200.0,,
KRDR,09-01-2011,08:18,SPECI,,350,11.0,,300/32KTS,1600.0,Heavy Rain/Mist,19.0,19.0,29.66,1005.7,63,10,,,,,,,,,,,,,8/8 Overcast,800.0,,SCT,300.0,BKN,800.0,OVC,1200.0,,
KRDR,09-01-2011,08:15,SPECI,,340,14.0,,300/32KTS,1600.0,Heavy Rain/Mist,20.0,20.0,29.67,1006.1,63,10,,,,,,,,,,,,,8/8 Overcast,800.0,,FEW,400.0,BKN,800.0,OVC,1300.0,,
KRDR,09-01-2011,08:12,SPECI,,330,12.0,27.0,300/32KTS,2400.0,Heavy Rain/Mist,20.0,20.0,29.67,1005.9,63,10,,,,,,,,,,,,,8/8 Overcast,700.0,,FEW,400.0,BKN,700.0,OVC,1700.0,,
KRDR,09-01-2011,08:11,SPECI,,330,14.0,27.0,300/32KTS,3200.0,Light Rain/Mist,20.0,20.0,29.67,1006.0,61,10,,,,,,,,,,,,,8/8 Overcast,700.0,,FEW,400.0,BKN,700.0,OVC,1900.0,,
KRDR,09-01-2011,08:10,SPECI,,320,14.0,30.0,300/32KTS,4800.0,Light Rain/Mist,20.0,20.0,29.67,1006.1,61,10,,,,,,,,,,,,,8/8 Overcast,700.0,,FEW,400.0,BKN,700.0,OVC,2300.0,,
KRDR,09-01-2011,08:03,SPECI,,340,20.0,32.0,300/32KTS,9999.0,Light Rain,22.0,22.0,29.66,1005.8,61,,,,,,,,,,,,,,8/8 Overcast,700.0,,BKN,700.0,OVC,2300.0,,,,
KRDR,09-01-2011,08:00,METAR,,160,13.0,,,9999.0,,22.0,22.0,29.60,1003.8,,,,,,,,,,,,,,,8/8 Overcast,500.0,,OVC,700.0,,,,,,
KRDR,09-01-2011,07:53,SPECI,,170,11.0,,,9999.0,,22.0,22.0,29.61,1003.9,,,,,,,,,,,,,,,8/8 Overcast,500.0,,OVC,700.0,,,,,,
KRDR,09-01-2011,07:49,SPECI,,160,12.0,,,9999.0,,22.0,22.0,29.60,1003.7,,,,,,,,,,,,,,,8/8 Overcast,500.0,,OVC,700.0,,,,,,
KRDR,09-01-2011,07:20,SPECI,,140,15.0,,,9999.0,,21.0,21.0,29.59,1003.3,,,,,,,,,,,,,,,8/8 Overcast,500.0,,OVC,600.0,,,,,,
KRDR,09-01-2011,07:14,SPECI,,140,17.0,,,9999.0,,21.0,21.0,29.60,1003.5,,,,,,,,,,,,,,,8/8 Overcast,500.0,,OVC,500.0,,,,,,
KRDR,09-01-2011,07:04,SPECI,,140,14.0,,,9999.0,,21.0,21.0,29.61,1003.9,,,,,,,,,,,,,,,8/8 Overcast,400.0,,OVC,500.0,,,,,,
KRDR,09-01-2011,07:00,METAR,,140,16.0,,,9999.0,,21.0,21.0,29.61,1004.0,,,,,,,,,,,.01 IN,,,,8/8 Overcast,400.0,,OVC,500.0,,,,,,
KRDR,09-01-2011,06:28,SPECI,,130,12.0,,,9999.0,,20.0,20.0,29.65,1005.2,,,,,,,,,,,,,,,8/8 Overcast,500.0,,OVC,500.0,,,,,,
KRDR,09-01-2011,06:00,METAR,,120,10.0,,,9999.0,,19.0,19.0,29.69,1006.5,,,,,,,,,,,,,,,8/8 Overcast,600.0,,BKN,700.0,OVC,1400.0,,,,
KRDR,09-01-2011,05:43,SPECI,,130,11.0,,,9999.0,,19.0,19.0,29.69,1006.5,,,,,,,,,,,,,,,8/8 Overcast,600.0,,BKN,900.0,OVC,1600.0,,,,
KRDR,09-01-2011,05:36,SPECI,,120,9.0,,,9999.0,,19.0,19.0,29.69,1006.7,,,,,,,,,,,,,,,8/8 Overcast,1100.0,,FEW,700.0,OVC,1400.0,,,,
KRDR,09-01-2011,05:35,SPECI,,120,10.0,,,9999.0,,19.0,19.0,29.69,1006.8,,,,,,,,,,,,,,,8/8 Overcast,1100.0,,OVC,1400.0,,,,,,
KRDR,09-01-2011,05:12,SPECI,,130,8.0,,,9999.0,,19.0,19.0,29.71,1007.2,,,,,,,,,,,,,,,7/8 Mostly Cloudy,1700.0,,FEW,1200.0,BKN,1900.0,,,,
KRDR,09-01-2011,05:00,METAR,,130,10.0,,,9999.0,,19.0,19.0,29.71,1007.4,,,,,,,,,,,,,,,Clear,72000.0,,,73000.0,,,,,,
KRDR,09-01-2011,04:00,METAR,,110,7.0,,,9999.0,,19.0,19.0,29.76,1008.9,,,,,,,,,,,,,,,Clear,72000.0,,,73000.0,,,,,,
KRDR,09-01-2011,03:00,METAR,,110,6.0,,,9999.0,,19.0,19.0,29.78,1009.5,,,,,,,,,,,,,,,Clear,72000.0,,,73000.0,,,,,,
KRDR,09-01-2011,02:00,METAR,,100,8.0,,,9999.0,,20.0,20.0,29.77,1009.3,,,,,,,,,,,,,,,Clear,72000.0,,,73000.0,,,,,,
KRDR,09-01-2011,01:00,METAR,,120,6.0,,,9999.0,,21.0,21.0,29.78,1009.7,,,,,,,,,,,,,,,Clear,72000.0,,,73000.0,,,,,,
KRDR,09-01-2011,00:00,METAR,,110,6.0,,,9999.0,,22.0,21.0,29.79,1009.9,,,,,,,,,,,,,,,Clear,72000.0,,,73000.0,,,,,,
KRDR,08-31-2011,23:29,SPECI,,110,8.0,,,9999.0,,22.0,22.0,29.80,1010.3,,,,,,,,,,,,,,,4/8 Partly Cloudy,72000.0,,SCT,2900.0,,,,,,
KRDR,08-31-2011,23:00,METAR,,110,8.0,,,9999.0,,22.0,21.0,29.80,1010.4,,,,,,,,,,,,,,,8/8 Overcast,2600.0,,FEW,1500.0,OVC,2600.0,,,,
KRDR,08-31-2011,22:00,METAR,,80,6.0,,,9999.0,,22.0,21.0,29.81,1010.5,,,,,,,,,,,,,,,8/8 Overcast,2300.0,,OVC,2700.0,,,,,,
KRDR,08-31-2011,21:00,METAR,,100,4.0,,,9999.0,,21.0,21.0,29.82,1010.8,,,,,,,,,,,,,,,8/8 Overcast,1900.0,,OVC,2200.0,,,,,,
KRDR,08-31-2011,20:00,METAR,,100,5.0,,,9999.0,,21.0,21.0,29.82,1010.9,,,,,,,,,,,,,,,8/8 Overcast,1500.0,,OVC,2000.0,,,,,,
KRDR,08-31-2011,19:36,SPECI,,140,7.0,,,9999.0,,21.0,21.0,29.82,1010.9,,,,,,,,,,,,,,,8/8 Overcast,1800.0,,SCT,1300.0,OVC,2000.0,,,,
KRDR,08-31-2011,19:11,SPECI,,150,5.0,,,9999.0,,21.0,21.0,29.84,1011.4,,,,,,,,,,,,,,,8/8 Overcast,1200.0,,BKN,1400.0,OVC,1900.0,,,,
KRDR,08-31-2011,19:00,METAR,,170,6.0,,,9999.0,,21.0,21.0,29.83,1011.3,,,,,,,,,,,,,,,8/8 Overcast,1300.0,,OVC,1700.0,,,,,,
KRDR,08-31-2011,18:48,SPECI,,160,6.0,,,9999.0,,21.0,21.0,29.83,1011.4,,,,,,,,,,,,,,,8/8 Overcast,1900.0,,SCT,1300.0,OVC,1900.0,,,,
KRDR,08-31-2011,18:23,SPECI,,190,7.0,,,9999.0,,21.0,21.0,29.83,1011.2,,,,,,,,,,,,,,,8/8 Overcast,1200.0,,BKN,1200.0,OVC,1900.0,,,,
KRDR,08-31-2011,18:10,SPECI,,,5.0,,,9999.0,,21.0,21.0,29.83,1011.2,,,,,,,,,,,,,,,8/8 Overcast,1100.0,,BKN,1100.0,BKN,1700.0,OVC,2300.0,,
KRDR,08-31-2011,18:01,SPECI,,160,5.0,,,9999.0,,20.0,20.0,29.82,1011.0,,,,,,,,,,,,,,,8/8 Overcast,1000.0,,BKN,1300.0,BKN,1800.0,OVC,2300.0,,
KRDR,08-31-2011,17:51,SPECI,,150,6.0,,,9999.0,,20.0,20.0,29.83,1011.2,,,,,,,,,,,,,,,8/8 Overcast,1100.0,,SCT,1100.0,BKN,1600.0,OVC,2300.0,,
KRDR,08-31-2011,17:29,SPECI,,,4.0,,,9999.0,,20.0,20.0,29.84,1011.5,,,,,,,,,,,,,,,8/8 Overcast,900.0,,OVC,1000.0,,,,,,
KRDR,08-31-2011,17:04,SPECI,,160,6.0,,,9999.0,,20.0,20.0,29.84,1011.6,,,,,,,,,,,,,,,8/8 Overcast,900.0,,OVC,900.0,,,,,,
KRDR,08-31-2011,17:00,METAR,,170,3.0,,,9999.0,,20.0,20.0,29.85,1011.8,,,,,,,,,,,,,,,8/8 Overcast,800.0,,OVC,1000.0,,,,,,
KRDR,08-31-2011,16:48,SPECI,,160,3.0,,,9999.0,,20.0,20.0,29.85,1011.8,,,,,,,,,,,,,,,8/8 Overcast,800.0,,OVC,1000.0,,,,,,
KRDR,08-31-2011,16:42,SPECI,,,0.0,,,9999.0,,20.0,20.0,29.85,1011.8,,,,,,,,,,,,,,,8/8 Overcast,800.0,,OVC,900.0,,,,,,
KRDR,08-31-2011,16:40,SPECI,,170,3.0,,,9999.0,,20.0,20.0,29.85,1011.8,,,,,,,,,,,,,,,8/8 Overcast,700.0,,OVC,1000.0,,,,,,
KRDR,08-31-2011,16:00,METAR,,160,4.0,,,9999.0,,19.0,19.0,29.84,1011.6,,,,,,,,,,,,,,,8/8 Overcast,500.0,,OVC,600.0,,,,,,
KRDR,08-31-2011,15:47,SPECI,,150,4.0,,,9999.0,,19.0,19.0,29.84,1011.4,,,,,,,,,,,,,,,8/8 Overcast,500.0,,OVC,500.0,,,,,,
KRDR,08-31-2011,15:44,SPECI,,130,4.0,,,9999.0,,19.0,19.0,29.84,1011.4,,,,,,,,,,,,,,,8/8 Overcast,500.0,,OVC,600.0,,,,,,
KRDR,08-31-2011,15:25,SPECI,,,0.0,,,9999.0,,19.0,19.0,29.83,1011.3,,,,,,,,,,,,,,,8/8 Overcast,400.0,,OVC,500.0,,,,,,
KRDR,08-31-2011,15:04,SPECI,,,0.0,,,9999.0,Mist,18.0,18.0,29.83,1011.2,10,,,,,,,,,,,,,,8/8 Overcast,300.0,,OVC,400.0,,,,,,
KRDR,08-31-2011,15:00,METAR,,,0.0,,,6400.0,Mist,18.0,18.0,29.83,1011.1,10,,,,,,,,,,,,,,8/8 Overcast,300.0,,OVC,300.0,,,,,,
KRDR,08-31-2011,14:23,SPECI,,200,4.0,,,8000.0,Mist,18.0,18.0,29.83,1011.2,10,,,,,,,,,,,,,,8/8 Overcast,300.0,,OVC,300.0,,,,,,
KRDR,08-31-2011,14:17,SPECI,,180,4.0,,,8000.0,Mist,18.0,18.0,29.83,1011.2,10,,,,,,,,,,,,,,8/8 Overcast,300.0,,OVC,400.0,,,,,,
KRDR,08-31-2011,14:00,METAR,,180,6.0,,,4800.0,Mist,18.0,18.0,29.83,1011.1,10,,,,,,,,,,,,,,8/8 Overcast,300.0,,OVC,300.0,,,,,,
KRDR,08-31-2011,13:43,SPECI,,180,6.0,,,4800.0,Mist,18.0,18.0,29.83,1011.1,10,,,,,,,,,,,,,,8/8 Overcast,300.0,,OVC,300.0,,,,,,
KRDR,08-31-2011,13:36,SPECI,,180,6.0,,,3200.0,Mist,18.0,18.0,29.83,1011.1,10,,,,,,,,,,,,,,8/8 Overcast,300.0,,OVC,300.0,,,,,,
KRDR,08-31-2011,13:15,SPECI,,160,5.0,,,2400.0,Mist,17.0,17.0,29.82,1011.1,10,,,,,,,,,,,,,,8/8 Overcast,200.0,,OVC,200.0,,,,,,
KRDR,08-31-2011,13:13,SPECI,,170,5.0,,,2000.0,Mist,17.0,17.0,29.82,1011.1,10,,,,,,,,,,,,,,8/8 Overcast,200.0,,OVC,200.0,,,,,,
KRDR,08-31-2011,13:10,SPECI,,170,6.0,,,1600.0,Mist,17.0,17.0,29.83,1011.1,10,,,,,,,,,,,,,,Sky Obscured (Unable to Estimate),200.0,100.0,,200.0,,,,,,
KRDR,08-31-2011,13:07,SPECI,,170,5.0,,,1200.0,Mist,17.0,17.0,29.83,1011.1,10,,,,,,,,,,,,,,Sky Obscured (Unable to Estimate),200.0,100.0,,200.0,,,,,,
KRDR,08-31-2011,13:02,SPECI,,160,5.0,,,1200.0,Mist,17.0,17.0,29.83,1011.1,10,,,,,,,,,,,,,,Sky Obscured (Unable to Estimate),200.0,100.0,,200.0,,,,,,
KRDR,08-31-2011,13:00,METAR,,180,5.0,,,1200.0,Mist,17.0,17.0,29.83,1011.1,10,,,,,,,,,,,,,,Sky Obscured (Unable to Estimate),300.0,100.0,,300.0,,,,,,
KRDR,08-31-2011,12:46,SPECI,,160,4.0,,,1200.0,Mist,17.0,17.0,29.82,1011.1,10,,,,,,,,,,,,,,Sky Obscured (Unable to Estimate),300.0,100.0,,300.0,,,,,,
KRDR,08-31-2011,12:35,SPECI,,160,4.0,,,1600.0,Mist,17.0,17.0,29.82,1011.0,10,,,,,,,,,,,,,,Sky Obscured (Unable to Estimate),300.0,100.0,,300.0,,,,,,
KRDR,08-31-2011,12:30,SPECI,,160,5.0,,,1600.0,Mist,17.0,17.0,29.82,1011.0,10,,,,,,,,,,,,,,Sky Obscured (Unable to Estimate),300.0,100.0,,300.0,,,,,,
KRDR,08-31-2011,12:17,SPECI,,160,6.0,,,2000.0,Mist,17.0,17.0,29.82,1011.0,10,,,,,,,,,,,,,,8/8 Overcast,300.0,,OVC,300.0,,,,,,
KRDR,08-31-2011,12:11,SPECI,,160,5.0,,,2400.0,Mist,17.0,17.0,29.82,1011.0,10,,,,,,,,,,,,,,8/8 Overcast,300.0,,OVC,300.0,,,,,,
KRDR,08-31-2011,12:00,METAR,,180,6.0,,,2000.0,Mist,17.0,17.0,29.83,1011.2,10,,,,,,,,,,,,,,8/8 Overcast,300.0,,OVC,300.0,,,,,,
KRDR,08-31-2011,11:50,SPECI,,170,5.0,,,2800.0,Mist,17.0,17.0,29.83,1011.1,10,,,,,,,,,,,,,,8/8 Overcast,300.0,,OVC,300.0,,,,,,
KRDR,08-31-2011,11:47,SPECI,,180,5.0,,,4000.0,Mist,17.0,17.0,29.83,1011.2,10,,,,,,,,,,,,,,8/8 Overcast,300.0,,OVC,300.0,,,,,,
KRDR,08-31-2011,11:40,SPECI,,180,6.0,,,4000.0,Mist,17.0,17.0,29.83,1011.1,10,,,,,,,,,,,,,,8/8 Overcast,300.0,,OVC,300.0,,,,,,
KRDR,08-31-2011,11:38,SPECI,,180,6.0,,,4000.0,Mist,17.0,17.0,29.83,1011.1,10,,,,,,,,,,,,,,8/8 Overcast,300.0,,OVC,300.0,,,,,,
KRDR,08-31-2011,11:36,SPECI,,180,6.0,,,4000.0,Mist,17.0,17.0,29.83,1011.1,10,,,,,,,,,,,,,,8/8 Overcast,300.0,,OVC,300.0,,,,,,
KRDR,08-31-2011,11:00,SPECI,,160,5.0,,,4800.0,Mist,17.0,17.0,29.81,1010.7,10,,,,,,,,,,,,,,8/8 Overcast,300.0,,OVC,300.0,,,,,,
KRDR,08-31-2011,11:00,METAR,,160,6.0,,,4000.0,Mist,17.0,17.0,29.81,1010.7,10,,,,,,,,,,,,,,8/8 Overcast,300.0,,OVC,300.0,,,,,,
KRDR,08-31-2011,10:44,SPECI,,150,6.0,,,4000.0,Mist,17.0,17.0,29.81,1010.6,10,,,,,,,,,,,,,,8/8 Overcast,300.0,,OVC,300.0,,,,,,
KRDR,08-31-2011,10:34,SPECI,,160,6.0,,,4000.0,Mist,17.0,17.0,29.81,1010.5,10,,,,,,,,,,,,,,8/8 Overcast,300.0,,OVC,300.0,,,,,,
KRDR,08-31-2011,10:17,SPECI,,150,4.0,,,4000.0,Mist,17.0,17.0,29.81,1010.5,10,,,,,,,,,,,,,,8/8 Overcast,300.0,,OVC,300.0,,,,,,
KRDR,08-31-2011,10:07,SPECI,,160,6.0,,,4000.0,Mist,17.0,17.0,29.81,1010.5,10,,,,,,,,,,,,,,8/8 Overcast,300.0,,OVC,300.0,,,,,,
KRDR,08-31-2011,10:05,SPECI,,160,6.0,,,4800.0,Mist,17.0,17.0,29.81,1010.5,10,,,,,,,,,,,,,,8/8 Overcast,300.0,,OVC,300.0,,,,,,
KRDR,08-31-2011,10:00,METAR,,160,4.0,,,4000.0,Mist,17.0,17.0,29.80,1010.4,10,,,,,,,,,,,,,,8/8 Overcast,300.0,,OVC,300.0,,,,,,
KRDR,08-31-2011,09:50,SPECI,,150,5.0,,,4000.0,Mist,17.0,17.0,29.80,1010.4,10,,,,,,,,,,,,,,8/8 Overcast,300.0,,OVC,300.0,,,,,,
KRDR,08-31-2011,09:42,SPECI,,160,5.0,,,4800.0,Mist,17.0,17.0,29.80,1010.3,10,,,,,,,,,,,,,,8/8 Overcast,200.0,,OVC,200.0,,,,,,
KRDR,08-31-2011,09:40,SPECI,,160,5.0,,,4000.0,Mist,17.0,17.0,29.80,1010.3,10,,,,,,,,,,,,,,8/8 Overcast,200.0,,OVC,200.0,,,,,,
KRDR,08-31-2011,09:24,SPECI,,170,6.0,,,4000.0,Mist,17.0,17.0,29.80,1010.3,10,,,,,,,,,,,,,,8/8 Overcast,300.0,,OVC,300.0,,,,,,
KRDR,08-31-2011,09:14,SPECI,,150,5.0,,,4000.0,Mist,17.0,17.0,29.80,1010.3,10,,,,,,,,,,,,,,8/8 Overcast,300.0,,OVC,300.0,,,,,,
KRDR,08-31-2011,09:10,SPECI,,150,5.0,,,4000.0,Mist,17.0,17.0,29.80,1010.3,10,,,,,,,,,,,,,,8/8 Overcast,300.0,,OVC,300.0,,,,,,
KRDR,08-31-2011,09:00,METAR,,140,7.0,,,6400.0,Mist,17.0,17.0,29.80,1010.3,10,,,,,,,,,,,TRACE,,,8/8 Overcast,200.0,,OVC,300.0,,,,,,
KRDR,08-31-2011,08:00,METAR,,150,6.0,,,6400.0,Mist,17.0,17.0,29.80,1010.4,10,,,,,,,,,,TRACE,,,,8/8 Overcast,200.0,,OVC,300.0,,,,,,
KRDR,08-31-2011,07:22,SPECI,,140,6.0,,,8000.0,Mist,17.0,17.0,29.81,1010.5,10,,,,,,,,,,,,,,8/8 Overcast,300.0,,OVC,300.0,,,,,,
KRDR,08-31-2011,07:12,SPECI,,140,5.0,,,6400.0,Mist,17.0,17.0,29.81,1010.6,10,,,,,,,,,,,,,,8/8 Overcast,300.0,,OVC,300.0,,,,,,
KRDR,08-31-2011,07:06,SPECI,,140,5.0,,,6400.0,Mist,17.0,17.0,29.81,1010.7,10,,,,,,,,,,,,,,8/8 Overcast,300.0,,OVC,300.0,,,,,,
KRDR,08-31-2011,07:05,SPECI,,140,5.0,,,8000.0,Light Drizzle/Mist,17.0,17.0,29.81,1010.7,51,10,,,,,,,,,,,,,8/8 Overcast,300.0,,OVC,300.0,,,,,,
KRDR,08-31-2011,07:03,SPECI,,140,5.0,,,8000.0,Light Drizzle/Mist,17.0,17.0,29.81,1010.7,51,10,,,,,,,,,,,,,8/8 Overcast,300.0,,OVC,400.0,,,,,,
KRDR,08-31-2011,07:00,METAR,,130,6.0,,,9999.0,Light Drizzle,17.0,17.0,29.81,1010.7,51,,,,,,,,,,TRACE,,,,8/8 Overcast,300.0,,OVC,400.0,,,,,,
KRDR,08-31-2011,06:45,SPECI,,130,6.0,,,9999.0,Light Drizzle,17.0,17.0,29.82,1010.8,51,,,,,,,,,,,,,,8/8 Overcast,300.0,,OVC,400.0,,,,,,
KRDR,08-31-2011,06:31,SPECI,,130,5.0,,,9999.0,,17.0,17.0,29.82,1010.9,,,,,,,,,,,,,,,8/8 Overcast,300.0,,OVC,400.0,,,,,,
KRDR,08-31-2011,06:29,SPECI,,140,5.0,,,9999.0,Mist,17.0,17.0,29.82,1011.0,10,,,,,,,,,,,,,,8/8 Overcast,300.0,,OVC,500.0,,,,,,
KRDR,08-31-2011,06:27,SPECI,,130,5.0,,,9999.0,Light Drizzle/Mist,17.0,17.0,29.82,1011.0,51,10,,,,,,,,,,,,,8/8 Overcast,400.0,,OVC,500.0,,,,,,
KRDR,08-31-2011,06:20,SPECI,,140,5.0,,,9999.0,Light Drizzle,17.0,17.0,29.83,1011.1,51,,,,,,,,,,,,,,8/8 Overcast,400.0,,OVC,600.0,,,,,,
KRDR,08-31-2011,06:19,SPECI,,130,5.0,,,9999.0,Light Drizzle,17.0,17.0,29.83,1011.1,51,,,,,,,,,,,,,,8/8 Overcast,400.0,,OVC,600.0,,,,,,
KRDR,08-31-2011,06:08,SPECI,,130,5.0,,,9999.0,Light Drizzle,17.0,17.0,29.82,1011.1,51,,,,,,,,,,,,,,8/8 Overcast,500.0,,OVC,700.0,,,,,,
KRDR,08-31-2011,06:00,METAR,,130,5.0,,,9999.0,,17.0,17.0,29.83,1011.1,,,,,,,,,,,,,.03 IN,,8/8 Overcast,600.0,,OVC,800.0,,,,,,
KRDR,08-31-2011,05:28,SPECI,,130,5.0,,,9999.0,,17.0,17.0,29.82,1011.0,,,,,,,,,,,,,,,8/8 Overcast,800.0,,OVC,900.0,,,,,,
KRDR,08-31-2011,05:14,SPECI,,130,6.0,,,9999.0,,17.0,17.0,29.82,1011.0,,,,,,,,,,,,,,,8/8 Overcast,600.0,,OVC,1000.0,,,,,,
KRDR,08-31-2011,05:07,SPECI,,140,7.0,,,9999.0,,17.0,17.0,29.82,1011.0,,,,,,,,,,,,,,,8/8 Overcast,500.0,,OVC,900.0,,,,,,
KRDR,08-31-2011,05:05,SPECI,,140,6.0,,,9999.0,,17.0,17.0,29.82,1011.0,,,,,,,,,,,,,,,8/8 Overcast,1000.0,,SCT,600.0,OVC,1000.0,,,,
KRDR,08-31-2011,05:00,METAR,,140,6.0,,,9999.0,,17.0,17.0,29.83,1011.1,,,,,,,,,,,.01 IN,,,,8/8 Overcast,400.0,,OVC,600.0,,,,,,
KRDR,08-31-2011,04:48,SPECI,,140,6.0,,,9999.0,,17.0,17.0,29.83,1011.1,,,,,,,,,,,,,,,8/8 Overcast,400.0,,OVC,600.0,,,,,,
KRDR,08-31-2011,04:39,SPECI,,140,7.0,,,9999.0,,17.0,17.0,29.82,1011.0,,,,,,,,,,,,,,,8/8 Overcast,400.0,,OVC,500.0,,,,,,
KRDR,08-31-2011,04:29,SPECI,,130,6.0,,,9999.0,Light Drizzle,17.0,17.0,29.82,1011.0,51,,,,,,,,,,,,,,8/8 Overcast,400.0,,OVC,500.0,,,,,,
KRDR,08-31-2011,04:08,SPECI,,140,6.0,,,9999.0,,17.0,17.0,29.82,1011.0,,,,,,,,,,,,,,,8/8 Overcast,400.0,,OVC,500.0,,,,,,
KRDR,08-31-2011,04:02,SPECI,,160,7.0,,,9999.0,,17.0,17.0,29.82,1010.9,,,,,,,,,,,,,,,8/8 Overcast,600.0,,OVC,600.0,,,,,,
KRDR,08-31-2011,04:00,METAR,,160,7.0,,,9999.0,Light Drizzle,17.0,17.0,29.82,1011.0,51,,,,,,,,,,TRACE,,,,8/8 Overcast,500.0,,OVC,500.0,,,,,,
KRDR,08-31-2011,03:55,SPECI,,160,9.0,,,9999.0,Light Drizzle,17.0,17.0,29.82,1010.9,51,,,,,,,,,,,,,,8/8 Overcast,500.0,,OVC,500.0,,,,,,
KRDR,08-31-2011,03:47,SPECI,,160,10.0,,,9999.0,Light Drizzle,17.0,17.0,29.82,1010.9,51,,,,,,,,,,,,,,8/8 Overcast,500.0,,OVC,500.0,,,,,,
KRDR,08-31-2011,03:29,SPECI,,140,8.0,,,8000.0,Mist,17.0,17.0,29.82,1010.9,10,,,,,,,,,,,,,,8/8 Overcast,300.0,,OVC,400.0,,,,,,
KRDR,08-31-2011,03:08,SPECI,,140,8.0,,,6400.0,Mist,17.0,17.0,29.82,1010.8,10,,,,,,,,,,,,,,8/8 Overcast,300.0,,OVC,400.0,,,,,,
KRDR,08-31-2011,03:07,SPECI,,140,8.0,,,6400.0,Light Drizzle/Mist,17.0,17.0,29.82,1010.7,51,10,,,,,,,,,,,,,8/8 Overcast,300.0,,OVC,400.0,,,,,,
KRDR,08-31-2011,03:06,SPECI,,140,7.0,,,6400.0,Mist,17.0,17.0,29.82,1010.8,10,,,,,,,,,,,,,,8/8 Overcast,300.0,,OVC,400.0,,,,,,
KRDR,08-31-2011,03:00,METAR,,150,6.0,,,9999.0,Mist,17.0,17.0,29.81,1010.7,10,,,,,,,,,,,.02 IN,,,8/8 Overcast,300.0,,OVC,400.0,,,,,,
KRDR,08-31-2011,02:50,SPECI,,150,8.0,,,9999.0,Mist,17.0,17.0,29.81,1010.6,10,,,,,,,,,,,,,,8/8 Overcast,300.0,,OVC,400.0,,,,,,
KRDR,08-31-2011,02:45,SPECI,,150,10.0,,,9999.0,Mist,17.0,17.0,29.81,1010.6,10,,,,,,,,,,,,,,8/8 Overcast,400.0,,OVC,500.0,,,,,,
KRDR,08-31-2011,02:00,METAR,,140,9.0,,,9999.0,Mist,18.0,18.0,29.81,1010.5,10,,,,,,,,,,,,,,8/8 Overcast,400.0,,OVC,400.0,,,,,,
KRDR,08-31-2011,01:54,SPECI,,140,10.0,,,8000.0,Mist,18.0,18.0,29.81,1010.4,10,,,,,,,,,,,,,,8/8 Overcast,500.0,,OVC,500.0,,,,,,
KRDR,08-31-2011,01:45,SPECI,,130,7.0,,,8000.0,Mist,18.0,18.0,29.80,1010.4,10,,,,,,,,,,,,,,8/8 Overcast,400.0,,OVC,400.0,,,,,,
KRDR,08-31-2011,01:44,SPECI,,140,7.0,,,6400.0,Mist,18.0,18.0,29.80,1010.4,10,,,,,,,,,,,,,,8/8 Overcast,400.0,,OVC,400.0,,,,,,
KRDR,08-31-2011,01:41,SPECI,,130,7.0,,,6400.0,Light Drizzle/Mist,18.0,18.0,29.80,1010.4,51,10,,,,,,,,,,,,,8/8 Overcast,400.0,,OVC,400.0,,,,,,
KRDR,08-31-2011,01:24,SPECI,,130,7.0,,,6400.0,Light Drizzle/Mist,17.0,17.0,29.80,1010.4,51,10,,,,,,,,,,,,,8/8 Overcast,400.0,,OVC,500.0,,,,,,
KRDR,08-31-2011,01:14,SPECI,,120,8.0,,,4800.0,Light Drizzle/Mist,18.0,18.0,29.80,1010.4,51,10,,,,,,,,,,,,,8/8 Overcast,400.0,,OVC,500.0,,,,,,
KRDR,08-31-2011,01:07,SPECI,,120,8.0,,,9999.0,Light Drizzle/Mist,18.0,18.0,29.80,1010.4,51,10,,,,,,,,,,,,,8/8 Overcast,500.0,,OVC,600.0,,,,,,
KRDR,08-31-2011,00:51,SPECI,,130,8.0,,,9999.0,,17.0,17.0,29.80,1010.3,,,,,,,,,,,,,,,8/8 Overcast,500.0,,OVC,600.0,,,,,,
KRDR,08-31-2011,00:47,SPECI,,120,8.0,,,8000.0,Mist,17.0,17.0,29.80,1010.4,10,,,,,,,,,,,,,,8/8 Overcast,500.0,,OVC,500.0,,,,,,
KRDR,08-31-2011,00:42,SPECI,,130,7.0,,,4800.0,Light Drizzle/Mist,17.0,17.0,29.80,1010.4,51,10,,,,,,,,,,,,,8/8 Overcast,500.0,,OVC,500.0,,,,,,
KRDR,08-31-2011,00:33,SPECI,,120,7.0,,,4000.0,Light Drizzle/Mist,17.0,17.0,29.80,1010.4,51,10,,,,,,,,,,,,,8/8 Overcast,500.0,,OVC,500.0,,,,,,
KRDR,08-31-2011,00:32,SPECI,,130,8.0,,,4800.0,Light Drizzle/Mist,17.0,17.0,29.81,1010.4,51,10,,,,,,,,,,,,,8/8 Overcast,500.0,,OVC,500.0,,,,,,
KRDR,08-31-2011,00:21,SPECI,,140,7.0,,,9999.0,Light Drizzle,17.0,17.0,29.81,1010.4,51,,,,,,,,,,,,,,8/8 Overcast,600.0,,OVC,600.0,,,,,,
KRDR,08-31-2011,00:00,METAR,,130,8.0,,,9999.0,,17.0,17.0,29.80,1010.4,,,,,,,,,,,TRACE,,.06 IN,,8/8 Overcast,500.0,,OVC,700.0,,,,,,
KRDR,08-30-2011,23:44,SPECI,,130,10.0,,,9999.0,,17.0,17.0,29.81,1010.4,,,,,,,,,,,,,,,8/8 Overcast,500.0,,OVC,700.0,,,,,,
KRDR,08-30-2011,23:32,SPECI,,140,8.0,,,9999.0,,17.0,17.0,29.81,1010.5,,,,,,,,,,,,,,,8/8 Overcast,400.0,,OVC,600.0,,,,,,
KRDR,08-30-2011,23:05,SPECI,,130,9.0,,,6400.0,Mist,17.0,17.0,29.81,1010.7,10,,,,,,,,,,,,,,8/8 Overcast,400.0,,OVC,500.0,,,,,,
KRDR,08-30-2011,23:00,METAR,,130,12.0,,,8000.0,Light Rain/Mist,17.0,17.0,29.82,1010.8,61,10,,,,,,,,,.02 IN,,,,8/8 Overcast,500.0,,BKN,600.0,OVC,1200.0,,,,
KRDR,08-30-2011,22:48,SPECI,,130,10.0,,,8000.0,Light Drizzle/Mist,17.0,17.0,29.82,1010.8,51,10,,,,,,,,,,,,,8/8 Overcast,500.0,,BKN,600.0,OVC,1200.0,,,,
KRDR,08-30-2011,22:39,SPECI,,140,13.0,17.0,,6400.0,Light Rain/Mist,17.0,17.0,29.82,1010.8,61,10,,,,,,,,,,,,,8/8 Overcast,500.0,,BKN,500.0,BKN,900.0,OVC,1300.0,,
KRDR,08-30-2011,22:30,SPECI,,150,9.0,,,9999.0,Light Rain,17.0,17.0,29.82,1010.8,61,,,,,,,,,,,,,,8/8 Overcast,900.0,,SCT,600.0,OVC,1100.0,,,,
KRDR,08-30-2011,22:23,SPECI,,150,12.0,,,9999.0,Light Drizzle,18.0,18.0,29.82,1010.8,51,,,,,,,,,,,,,,8/8 Overcast,1300.0,,SCT,700.0,OVC,1400.0,,,,
KRDR,08-30-2011,22:17,SPECI,,150,11.0,,,8000.0,Light Drizzle/Mist,18.0,18.0,29.82,1010.9,51,10,,,,,,,,,,,,,8/8 Overcast,600.0,,BKN,700.0,OVC,1500.0,,,,
KRDR,08-30-2011,22:09,SPECI,,140,17.0,,,4800.0,Light Rain/Mist,18.0,18.0,29.82,1010.9,61,10,,,,,,,,,,,,,8/8 Overcast,600.0,,BKN,600.0,BKN,2300.0,OVC,2700.0,,
KRDR,08-30-2011,22:07,SPECI,,140,15.0,,,4800.0,Mist,18.0,18.0,29.82,1011.0,10,,,,,,,,,,,,,,8/8 Overcast,600.0,,BKN,600.0,BKN,2100.0,OVC,2700.0,,
KRDR,08-30-2011,22:04,SPECI,,140,11.0,,,4800.0,Light Rain/Mist,18.0,18.0,29.83,1011.1,61,10,,,,,,,,,,,,,8/8 Overcast,600.0,,BKN,600.0,BKN,1600.0,OVC,3000.0,,
KRDR,08-30-2011,22:00,METAR,,140,10.0,,,9999.0,Light Drizzle,19.0,19.0,29.82,1011.0,51,,,,,,,,,,TRACE,,,,8/8 Overcast,1100.0,,FEW,700.0,BKN,2400.0,OVC,3800.0,,
KRDR,08-30-2011,21:47,SPECI,,140,11.0,,,9999.0,Light Drizzle,19.0,19.0,29.82,1011.0,51,,,,,,,,,,,,,,8/8 Overcast,2500.0,,FEW,1500.0,BKN,2800.0,OVC,4000.0,,
KRDR,08-30-2011,21:43,SPECI,,130,11.0,,,9999.0,,19.0,19.0,29.82,1011.0,,,,,,,,,,,,,,,8/8 Overcast,2900.0,,FEW,1500.0,BKN,2900.0,OVC,4000.0,,
KRDR,08-30-2011,21:00,METAR,,140,9.0,,,9999.0,,20.0,20.0,29.83,1011.1,,,,,,,,,,,.01 IN,.04 IN,,,8/8 Overcast,8000.0,,FEW,1100.0,BKN,7900.0,OVC,9900.0,,
KRDR,08-30-2011,20:47,SPECI,,140,10.0,,,9999.0,,20.0,20.0,29.82,1011.1,,,,,,,,,,,,,,,7/8 Mostly Cloudy,10000.0,,FEW,1100.0,SCT,4200.0,BKN,9900.0,,
KRDR,08-30-2011,20:46,SPECI,,130,8.0,,,9999.0,,20.0,20.0,29.82,1011.1,,,,,,,,,,,,,,,7/8 Mostly Cloudy,10000.0,,FEW,1200.0,SCT,4600.0,BKN,9900.0,,
KRDR,08-30-2011,20:00,METAR,,150,6.0,,,9999.0,Light Drizzle,20.0,20.0,29.83,1011.3,51,,,,,,,,,,.01 IN,,,,7/8 Mostly Cloudy,7000.0,,FEW,5000.0,BKN,6900.0,BKN,8900.0,,
KRDR,08-30-2011,19:04,SPECI,,190,8.0,,,9999.0,Light Drizzle,20.0,20.0,29.84,1011.6,51,,,,,,,,,,,,,,8/8 Overcast,8000.0,,SCT,5900.0,OVC,7900.0,,,,
KRDR,08-30-2011,19:00,METAR,,170,8.0,,,9999.0,Light Drizzle,19.0,19.0,29.84,1011.7,51,,,,,,,,,,.02 IN,,,,8/8 Overcast,7000.0,,FEW,1200.0,SCT,2900.0,OVC,6900.0,,
KRDR,08-30-2011,18:39,SPECI,,150,11.0,,,9999.0,Light Rain/Mist,19.0,19.0,29.85,1012.0,61,10,,,,,,,,,,,,,8/8 Overcast,3200.0,,SCT,1200.0,BKN,3300.0,OVC,6400.0,,
KRDR,08-30-2011,18:33,SPECI,,160,11.0,,,9999.0,Light Rain,20.0,20.0,29.85,1012.1,61,,,,,,,,,,,,,,8/8 Overcast,2600.0,,FEW,1000.0,BKN,2600.0,OVC,3200.0,,
KRDR,08-30-2011,18:31,SPECI,,170,12.0,,,9999.0,Light Rain,20.0,20.0,29.86,1012.1,61,,,,,,,,,,,,,,8/8 Overcast,2600.0,,SCT,1200.0,BKN,2600.0,OVC,3200.0,,
KRDR,08-30-2011,18:01,SPECI,,180,13.0,,,9999.0,Light Rain,20.0,20.0,29.85,1011.8,61,,,,,,,,,,,,,,7/8 Mostly Cloudy,3500.0,,SCT,1500.0,SCT,2200.0,BKN,3600.0,,
KRDR,08-30-2011,18:00,METAR,,190,11.0,,,9999.0,Light Rain,21.0,21.0,29.85,1011.8,61,,,,,,,,,,TRACE,,TRACE,,8/8 Overcast,3700.0,,SCT,1600.0,BKN,3800.0,OVC,9900.0,,
KRDR,08-30-2011,17:53,SPECI,,190,11.0,,,9999.0,Light Rain,21.0,21.0,29.85,1011.8,61,,,,,,,,,,,,,,8/8 Overcast,2100.0,,SCT,1600.0,BKN,2200.0,OVC,9900.0,,
KRDR,08-30-2011,17:38,SPECI,,170,15.0,,,9999.0,Light Drizzle,22.0,20.0,29.85,1011.8,51,,,,,,,,,,,,,,7/8 Mostly Cloudy,3700.0,,FEW,2100.0,BKN,3800.0,BKN,11000.0,,
KRDR,08-30-2011,17:00,METAR,,160,11.0,,,9999.0,,23.0,19.0,29.85,1011.7,,,,,,,,,,,,,,,7/8 Mostly Cloudy,12000.0,,BKN,12000.0,,,,,,
KRDR,08-30-2011,16:00,METAR,,160,8.0,,,9999.0,,22.0,20.0,29.86,1012.2,,,,,,,,,,,,,,,Clear,72000.0,,,73000.0,,,,,,
KRDR,08-30-2011,15:00,METAR,,180,5.0,,,9999.0,,19.0,19.0,29.87,1012.4,,,,,,,,,,,,,,,Clear,72000.0,,,73000.0,,,,,,
KRDR,08-30-2011,14:00,METAR,,160,5.0,,,9999.0,,17.0,17.0,29.87,1012.6,,,,,,,,,,,,,,,Clear,72000.0,,,73000.0,,,,,,
KRDR,08-30-2011,13:00,METAR,,130,4.0,,,9999.0,,16.0,16.0,29.88,1012.8,,,,,,,,,,,,,,,Clear,72000.0,,,73000.0,,,,,,
KRDR,08-30-2011,12:00,METAR,,180,6.0,,,9999.0,,15.0,15.0,29.87,1012.7,,,,,,,,,,,,,,,Clear,72000.0,,,73000.0,,,,,,
KRDR,08-30-2011,11:00,METAR,,160,5.0,,,9999.0,,15.0,15.0,29.87,1012.4,,,,,,,,,,,,,,,Clear,72000.0,,,73000.0,,,,,,
KRDR,08-30-2011,10:00,METAR,,170,4.0,,,9999.0,,15.0,15.0,29.87,1012.6,,,,,,,,,,,,,,,Clear,72000.0,,,73000.0,,,,,,
KRDR,08-30-2011,09:00,METAR,,120,3.0,,,9999.0,,17.0,17.0,29.87,1012.5,,,,,,,,,,,,,,,Clear,72000.0,,,73000.0,,,,,,
KRDR,08-30-2011,08:00,METAR,,180,5.0,,,9999.0,,15.0,15.0,29.87,1012.6,,,,,,,,,,,,,,,Clear,72000.0,,,73000.0,,,,,,
KRDR,08-30-2011,07:00,METAR,,180,5.0,,,9999.0,,17.0,17.0,29.88,1012.9,,,,,,,,,,,,,,,Clear,72000.0,,,73000.0,,,,,,
KRDR,08-30-2011,06:00,METAR,,180,4.0,,,9999.0,,17.0,17.0,29.89,1013.1,,,,,,,,,,,,,,,4/8 Partly Cloudy,72000.0,,SCT,12000.0,,,,,,
KRDR,08-30-2011,05:00,METAR,,220,4.0,,,9999.0,,18.0,18.0,29.88,1013.0,,,,,,,,,,,,,,,7/8 Mostly Cloudy,11000.0,,BKN,11000.0,,,,,,
KRDR,08-30-2011,04:00,METAR,,190,6.0,,,9999.0,,21.0,20.0,29.88,1012.9,,,,,,,,,,,,,,,Clear,72000.0,,,73000.0,,,,,,
KRDR,08-30-2011,03:00,METAR,,200,7.0,,,9999.0,,21.0,19.0,29.88,1012.7,,,,,,,,,,,,,,,7/8 Mostly Cloudy,12000.0,,BKN,12000.0,,,,,,
KRDR,08-30-2011,02:00,METAR,,200,5.0,,,9999.0,,23.0,17.0,29.87,1012.4,,,,,,,,,,,,,,,2/8 Mostly Clear,72000.0,,FEW,12000.0,,,,,,
KRDR,08-30-2011,01:00,METAR,,210,7.0,,,9999.0,,25.0,17.0,29.86,1012.2,,,,,,,,,,,,,,,4/8 Partly Cloudy,72000.0,,SCT,12000.0,,,,,,
KRDR,08-30-2011,00:00,METAR,,230,6.0,,,9999.0,,28.0,17.0,29.85,1012.0,,,,,,,,,,,,,,,Clear,72000.0,,,73000.0,,,,,,
KRDR,08-29-2011,23:00,METAR,,250,5.0,,,9999.0,,29.0,16.0,29.86,1012.2,,,,,,,,,,,,,,,2/8 Mostly Clear,72000.0,,FEW,5900.0,,,,,,
KRDR,08-29-2011,22:00,METAR,,270,5.0,,,9999.0,,30.0,14.0,29.88,1012.7,,,,,,,,,,,,,,,Clear,72000.0,,,73000.0,,,,,,
KRDR,08-29-2011,21:00,METAR,,270,7.0,,,9999.0,,30.0,15.0,29.89,1013.1,,,,,,,,,,,,,,,Clear,72000.0,,,73000.0,,,,,,
KRDR,08-29-2011,20:00,METAR,,270,4.0,,,9999.0,,30.0,16.0,29.91,1013.8,,,,,,,,,,,,,,,Clear,72000.0,,,73000.0,,,,,,
KRDR,08-29-2011,19:00,METAR,,,3.0,,,9999.0,,28.0,15.0,29.92,1014.2,,,,,,,,,,,,,,,Clear,72000.0,,,73000.0,,,,,,
KRDR,08-29-2011,18:00,METAR,,,0.0,,,9999.0,,28.0,16.0,29.93,1014.6,,,,,,,,,,,,,,,Clear,72000.0,,,73000.0,,,,,,
KRDR,08-29-2011,17:00,METAR,,,0.0,,,9999.0,,26.0,17.0,29.95,1015.2,,,,,,,,,,,,,,,Clear,72000.0,,,73000.0,,,,,,
KRDR,08-29-2011,16:00,METAR,,360,4.0,,,9999.0,,24.0,18.0,29.95,1015.3,,,,,,,,,,,,,,,Clear,72000.0,,,73000.0,,,,,,
KRDR,08-29-2011,15:00,METAR,,320,5.0,,,9999.0,,23.0,19.0,29.95,1015.3,,,,,,,,,,,,,,,Clear,72000.0,,,73000.0,,,,,,
KRDR,08-29-2011,14:00,METAR,,320,10.0,,,9999.0,,21.0,19.0,29.97,1015.7,,,,,,,,,,,,,,,Clear,72000.0,,,73000.0,,,,,,
KRDR,08-29-2011,13:00,METAR,,260,8.0,,,9999.0,,19.0,19.0,29.95,1015.1,,,,,,,,,,,,,,,Clear,72000.0,,,73000.0,,,,,,
KRDR,08-29-2011,12:00,METAR,,220,6.0,,,9999.0,,16.0,16.0,29.93,1014.4,,,,,,,,,,,,,,,Clear,72000.0,,,73000.0,,,,,,
KRDR,08-29-2011,11:00,METAR,,250,7.0,,,9999.0,,17.0,17.0,29.93,1014.6,,,,,,,,,,,,,,,Clear,72000.0,,,73000.0,,,,,,
KRDR,08-29-2011,10:00,METAR,,240,7.0,,,9999.0,,18.0,18.0,29.94,1014.7,,,,,,,,,,,,,,,Clear,72000.0,,,73000.0,,,,,,
KRDR,08-29-2011,09:00,METAR,,240,7.0,,,9999.0,,17.0,17.0,29.94,1014.9,,,,,,,,,,,,,,,Clear,72000.0,,,73000.0,,,,,,
KRDR,08-29-2011,08:00,METAR,,230,9.0,,,9999.0,,17.0,17.0,29.94,1014.9,,,,,,,,,,,,,,,Clear,72000.0,,,73000.0,,,,,,
KRDR,08-29-2011,07:00,METAR,,220,7.0,,,9999.0,,16.0,16.0,29.95,1015.1,,,,,,,,,,,,,,,4/8 Partly Cloudy,72000.0,,SCT,9900.0,,,,,,
KRDR,08-29-2011,06:00,METAR,,200,7.0,,,9999.0,,16.0,15.0,29.95,1015.1,,,,,,,,,,,,,TRACE,,Clear,72000.0,,,73000.0,,,,,,
KRDR,08-29-2011,05:00,METAR,,210,7.0,,,9999.0,,16.0,15.0,29.95,1015.1,,,,,,,,,,,,,,,Clear,72000.0,,,73000.0,,,,,,
KRDR,08-29-2011,04:00,METAR,,210,6.0,,,9999.0,,16.0,14.0,29.95,1015.3,,,,,,,,,,,,,,,Clear,72000.0,,,73000.0,,,,,,
KRDR,08-29-2011,03:00,METAR,,200,5.0,,,9999.0,,16.0,15.0,29.95,1015.3,,,,,,,,,,,,TRACE,,,Clear,72000.0,,,73000.0,,,,,,
KRDR,08-29-2011,02:00,METAR,,200,5.0,,,9999.0,,18.0,15.0,29.94,1015.0,,,,,,,,,,,,,,,Clear,72000.0,,,73000.0,,,,,,
KRDR,08-29-2011,01:00,METAR,,210,5.0,,,9999.0,,22.0,15.0,29.94,1014.8,,,,,,,,,,,TRACE,,,,Clear,72000.0,,,73000.0,,,,,,
KRDR,08-29-2011,00:36,SPECI,,200,5.0,,,9999.0,,23.0,14.0,29.94,1014.7,,,,,,,,,,,,,,,Clear,72000.0,,,73000.0,,,,,,
KRDR,08-29-2011,00:27,SPECI,,200,5.0,,,9999.0,,24.0,14.0,29.94,1014.8,,,,,,,,,,,,,,,Clear,72000.0,,,73000.0,,,,,,
KRDR,08-29-2011,00:00,METAR,,200,5.0,,,9999.0,,25.0,14.0,29.95,1015.1,,,,,,,,,,,,,,,Clear,72000.0,,,73000.0,,,,,,
KRDR,08-28-2011,23:00,METAR,,190,7.0,,,9999.0,,26.0,11.0,29.95,1015.3,,,,,,,,,,,,,,,Clear,72000.0,,,73000.0,,,,,,
KRDR,08-28-2011,22:00,METAR,,,0.0,,,9999.0,,26.0,12.0,29.96,1015.5,,,,,,,,,,,,,,,Clear,72000.0,,,73000.0,,,,,,
KRDR,08-28-2011,21:00,METAR,,240,6.0,,,9999.0,,26.0,13.0,29.96,1015.6,,,,,,,,,,,,,,,Clear,72000.0,,,73000.0,,,,,,
KRDR,08-28-2011,20:00,METAR,,220,9.0,,,9999.0,,26.0,12.0,29.97,1015.9,,,,,,,,,,,,,,,Clear,72000.0,,,73000.0,,,,,,
KRDR,08-28-2011,19:00,METAR,,190,5.0,,,9999.0,,26.0,12.0,29.99,1016.5,,,,,,,,,,,,,,,Clear,72000.0,,,73000.0,,,,,,
KRDR,08-28-2011,18:00,METAR,,150,7.0,,,9999.0,,25.0,13.0,30.00,1016.8,,,,,,,,,,,,,,,Clear,72000.0,,,73000.0,,,,,,
KRDR,08-28-2011,17:00,METAR,,150,4.0,,,9999.0,,23.0,15.0,29.99,1016.6,,,,,,,,,,,,,,,Clear,72000.0,,,73000.0,,,,,,
KRDR,08-28-2011,16:00,METAR,,,4.0,,,9999.0,,22.0,15.0,29.99,1016.4,,,,,,,,,,,,,,,Clear,72000.0,,,73000.0,,,,,,
KRDR,08-28-2011,15:00,METAR,,160,9.0,,,9999.0,,20.0,14.0,29.99,1016.4,,,,,,,,,,,,,,,Clear,72000.0,,,73000.0,,,,,,
KRDR,08-28-2011,14:00,METAR,,,0.0,,,9999.0,,17.0,15.0,29.99,1016.4,,,,,,,,,,,,,,,Clear,72000.0,,,73000.0,,,,,,
KRDR,08-28-2011,13:00,METAR,,150,3.0,,,9999.0,,14.0,14.0,30.00,1016.7,,,,,,,,,,,,,,,7/8 Mostly Cloudy,9000.0,,BKN,8900.0,,,,,,
KRDR,08-28-2011,12:00,METAR,,,0.0,,,9999.0,,13.0,13.0,30.00,1016.9,,,,,,,,,,,,,,,2/8 Mostly Clear,72000.0,,FEW,8900.0,,,,,,
KRDR,08-28-2011,11:00,METAR,,,0.0,,,9999.0,,13.0,13.0,30.00,1016.9,,,,,,,,,,,,,,,8/8 Overcast,9000.0,,OVC,8900.0,,,,,,
KRDR,08-28-2011,10:00,METAR,,,0.0,,,9999.0,,12.0,12.0,30.00,1017.0,,,,,,,,,,,,,,,7/8 Mostly Cloudy,9000.0,,BKN,8900.0,,,,,,
KRDR,08-28-2011,09:00,METAR,,,0.0,,,9999.0,,11.0,11.0,30.00,1016.9,,,,,,,,,,,,,,,Clear,72000.0,,,73000.0,,,,,,
KRDR,08-28-2011,08:00,METAR,,,0.0,,,9999.0,,10.0,10.0,30.00,1016.9,,,,,,,,,,,,,,,Clear,72000.0,,,73000.0,,,,,,
KRDR,08-28-2011,07:00,METAR,,,0.0,,,9999.0,,13.0,13.0,30.02,1017.6,,,,,,,,,,,,,,,Clear,72000.0,,,73000.0,,,,,,
KRDR,08-28-2011,06:00,METAR,,170,5.0,,,9999.0,,13.0,13.0,30.01,1017.2,,,,,,,,,,,,,,,Clear,72000.0,,,73000.0,,,,,,
KRDR,08-28-2011,05:00,METAR,,,0.0,,,9999.0,,13.0,13.0,30.03,1017.8,,,,,,,,,,,,,,,Clear,72000.0,,,73000.0,,,,,,
KRDR,08-28-2011,04:00,METAR,,,0.0,,,9999.0,,14.0,14.0,30.03,1017.9,,,,,,,,,,,,,,,Clear,72000.0,,,73000.0,,,,,,
KRDR,08-28-2011,03:00,METAR,,140,5.0,,,9999.0,,15.0,14.0,30.04,1018.2,,,,,,,,,,,,,,,Clear,72000.0,,,73000.0,,,,,,
KRDR,08-28-2011,02:00,METAR,,130,3.0,,,9999.0,,18.0,14.0,30.03,1018.0,,,,,,,,,,,,,,,Clear,72000.0,,,73000.0,,,,,,
KRDR,08-28-2011,01:00,METAR,,150,5.0,,,9999.0,,20.0,14.0,30.04,1018.0,,,,,,,,,,,,,,,4/8 Partly Cloudy,72000.0,,SCT,11000.0,,,,,,
KRDR,08-28-2011,00:00,METAR,,140,4.0,,,9999.0,,21.0,14.0,30.05,1018.3,,,,,,,,,,,,,TRACE,,4/8 Partly Cloudy,72000.0,,SCT,11000.0,,,,,,
KRDR,08-27-2011,23:00,METAR,,160,4.0,,,9999.0,,21.0,13.0,30.05,1018.5,,,,,,,,,,,,,,,7/8 Mostly Cloudy,10000.0,,BKN,9900.0,,,,,,
KRDR,08-27-2011,22:00,METAR,,190,5.0,,,9999.0,,21.0,12.0,30.06,1018.9,,,,,,,,,,,,,,,8/8 Overcast,9000.0,,OVC,8900.0,,,,,,
KRDR,08-27-2011,21:00,METAR,,200,4.0,,,9999.0,,20.0,13.0,30.08,1019.4,,,,,,,,,,,,TRACE,,,8/8 Overcast,9000.0,,OVC,8900.0,,,,,,
KRDR,08-27-2011,20:00,METAR,,200,7.0,,,9999.0,,21.0,11.0,30.10,1020.0,,,,,,,,,,,,,,,7/8 Mostly Cloudy,10000.0,,BKN,9900.0,,,,,,
KRDR,08-27-2011,19:00,METAR,,220,3.0,,,9999.0,,21.0,12.0,30.11,1020.6,,,,,,,,,,,TRACE,,,,7/8 Mostly Cloudy,11000.0,,BKN,11000.0,,,,,,
KRDR,08-27-2011,18:17,SPECI,,230,4.0,,,9999.0,,21.0,13.0,30.12,1020.8,,,,,,,,,,,,,,,7/8 Mostly Cloudy,11000.0,,BKN,11000.0,,,,,,
KRDR,08-27-2011,18:06,SPECI,,210,5.0,,,9999.0,Light Rain,21.0,12.0,30.12,1020.7,61,,,,,,,,,,,,,,4/8 Partly Cloudy,72000.0,,SCT,9900.0,,,,,,
KRDR,08-27-2011,18:00,METAR,,230,6.0,,,9999.0,,22.0,12.0,30.12,1020.8,,,,,,,,,,,,,,,7/8 Mostly Cloudy,11000.0,,FEW,8900.0,BKN,11000.0,,,,
KRDR,08-27-2011,17:00,METAR,,210,4.0,,,9999.0,,21.0,11.0,30.13,1021.3,,,,,,,,,,,,,,,4/8 Partly Cloudy,72000.0,,SCT,12000.0,,,,,,
KRDR,08-27-2011,16:00,METAR,,,4.0,,,9999.0,,21.0,12.0,30.11,1020.6,,,,,,,,,,,,,,,2/8 Mostly Clear,72000.0,,FEW,12000.0,,,,,,
KRDR,08-27-2011,15:00,METAR,,120,4.0,,,9999.0,,18.0,12.0,30.13,1021.0,,,,,,,,,,,,,,,4/8 Partly Cloudy,72000.0,,SCT,12000.0,,,,,,
KRDR,08-27-2011,14:00,METAR,,,0.0,,,9999.0,,15.0,14.0,30.14,1021.4,,,,,,,,,,,,,,,Clear,72000.0,,,73000.0,,,,,,
KRDR,08-27-2011,13:00,METAR,,,0.0,,,9999.0,,12.0,12.0,30.15,1021.8,,,,,,,,,,,,,,,Clear,72000.0,,,73000.0,,,,,,
KRDR,08-27-2011,12:00,METAR,,300,4.0,,,9999.0,,9.0,9.0,30.13,1021.1,,,,,,,,,,,,,,,Clear,72000.0,,,73000.0,,,,,,
KRDR,08-27-2011,11:00,METAR,,,0.0,,,9999.0,,8.0,8.0,30.11,1020.5,,,,,,,,,,,,,,,Clear,72000.0,,,73000.0,,,,,,
KRDR,08-27-2011,10:00,METAR,,,0.0,,,9999.0,,10.0,10.0,30.10,1020.1,,,,,,,,,,,,,,,Clear,72000.0,,,73000.0,,,,,,
KRDR,08-27-2011,09:00,METAR,,230,4.0,,,9999.0,,10.0,10.0,30.12,1020.6,,,,,,,,,,,,,,,Clear,72000.0,,,73000.0,,,,,,
KRDR,08-27-2011,08:00,METAR,,270,4.0,,,9999.0,,9.0,9.0,30.12,1020.8,,,,,,,,,,,,,,,Clear,72000.0,,,73000.0,,,,,,
KRDR,08-27-2011,07:00,METAR,,,0.0,,,9999.0,,10.0,10.0,30.12,1020.8,,,,,,,,,,,,,,,Clear,72000.0,,,73000.0,,,,,,
KRDR,08-27-2011,06:00,METAR,,,0.0,,,9999.0,,11.0,11.0,30.11,1020.3,,,,,,,,,,,,,,,Clear,72000.0,,,73000.0,,,,,,
KRDR,08-27-2011,05:00,METAR,,290,4.0,,,9999.0,,11.0,11.0,30.09,1019.7,,,,,,,,,,,,,,,Clear,72000.0,,,73000.0,,,,,,
KRDR,08-27-2011,04:00,METAR,,,0.0,,,9999.0,,13.0,10.0,30.09,1019.7,,,,,,,,,,,,,,,Clear,72000.0,,,73000.0,,,,,,
KRDR,08-27-2011,03:00,METAR,,310,3.0,,,9999.0,,14.0,10.0,30.07,1019.2,,,,,,,,,,,,,,,Clear,72000.0,,,73000.0,,,,,,
KRDR,08-27-2011,02:00,METAR,,300,5.0,,,9999.0,,17.0,9.0,30.05,1018.4,,,,,,,,,,,,,,,Clear,72000.0,,,73000.0,,,,,,
KRDR,08-27-2011,01:00,METAR,,340,5.0,,,9999.0,,21.0,9.0,30.03,1017.9,,,,,,,,,,,,,,,Clear,72000.0,,,73000.0,,,,,,
KRDR,08-27-2011,00:00,METAR,,340,8.0,,,9999.0,,24.0,9.0,30.03,1017.8,,,,,,,,,,,,,,,Clear,72000.0,,,73000.0,,,,,,
KRDR,08-26-2011,23:00,METAR,,350,11.0,,,9999.0,,25.0,7.0,30.03,1017.9,,,,,,,,,,,,,,,Clear,72000.0,,,73000.0,,,,,,
KRDR,08-26-2011,22:00,METAR,,340,12.0,17.0,,9999.0,,26.0,7.0,30.03,1017.8,,,,,,,,,,,,,,,Clear,72000.0,,,73000.0,,,,,,
KRDR,08-26-2011,21:00,METAR,,350,16.0,20.0,,9999.0,,27.0,6.0,30.02,1017.5,,,,,,,,,,,,,,,Clear,72000.0,,,73000.0,,,,,,
KRDR,08-26-2011,20:00,METAR,,340,14.0,21.0,,9999.0,,27.0,6.0,30.02,1017.5,,,,,,,,,,,,,,,Clear,72000.0,,,73000.0,,,,,,
KRDR,08-26-2011,19:00,METAR,,310,12.0,,,9999.0,,27.0,6.0,30.01,1017.3,,,,,,,,,,,,,,,Clear,72000.0,,,73000.0,,,,,,
KRDR,08-26-2011,18:00,METAR,,340,13.0,22.0,,9999.0,,27.0,8.0,30.00,1017.0,,,,,,,,,,,,,,,Clear,72000.0,,,73000.0,,,,,,
KRDR,08-26-2011,17:00,METAR,,350,11.0,,,9999.0,,26.0,9.0,30.00,1017.0,,,,,,,,,,,,,,,Clear,72000.0,,,73000.0,,,,,,
KRDR,08-26-2011,16:00,METAR,,350,9.0,,,9999.0,,24.0,10.0,29.99,1016.5,,,,,,,,,,,,,,,Clear,72000.0,,,73000.0,,,,,,
KRDR,08-26-2011,15:00,METAR,,360,8.0,,,9999.0,,23.0,11.0,29.98,1016.1,,,,,,,,,,,,,,,Clear,72000.0,,,73000.0,,,,,,
KRDR,08-26-2011,14:00,METAR,,330,7.0,,,9999.0,,21.0,13.0,29.96,1015.6,,,,,,,,,,,,,,,Clear,72000.0,,,73000.0,,,,,,
KRDR,08-26-2011,13:00,METAR,,350,7.0,,,9999.0,,19.0,13.0,29.93,1014.5,,,,,,,,,,,,,,,Clear,72000.0,,,73000.0,,,,,,
KRDR,08-26-2011,12:00,METAR,,350,9.0,,,9999.0,,18.0,13.0,29.90,1013.4,,,,,,,,,,,,,,,Clear,72000.0,,,73000.0,,,,,,
KRDR,08-26-2011,11:00,METAR,,340,14.0,,,9999.0,,20.0,16.0,29.86,1012.2,,,,,,,,,,,,,,,Clear,72000.0,,,73000.0,,,,,,
KRDR,08-26-2011,10:00,METAR,,330,12.0,,,9999.0,,21.0,19.0,29.82,1010.9,,,,,,,,,,,,,,,Clear,72000.0,,,73000.0,,,,,,
KRDR,08-26-2011,09:00,METAR,,280,5.0,,,9999.0,,22.0,19.0,29.80,1010.1,,,,,,,,,,,,,,,Clear,72000.0,,,73000.0,,,,,,
KRDR,08-26-2011,08:00,METAR,,210,8.0,,,9999.0,,22.0,18.0,29.79,1009.9,,,,,,,,,,,,,,,Clear,72000.0,,,73000.0,,,,,,
KRDR,08-26-2011,07:00,METAR,,190,12.0,,,9999.0,,22.0,18.0,29.79,1009.8,,,,,,,,,,,,,,,Clear,72000.0,,,73000.0,,,,,,
KRDR,08-26-2011,06:00,METAR,,200,8.0,,,9999.0,,22.0,18.0,29.80,1010.1,,,,,,,,,,,,,,,Clear,72000.0,,,73000.0,,,,,,
KRDR,08-26-2011,05:00,METAR,,200,7.0,,,9999.0,,23.0,17.0,29.80,1010.3,,,,,,,,,,,,,,,Clear,72000.0,,,73000.0,,,,,,
KRDR,08-26-2011,04:00,METAR,,180,12.0,,,9999.0,,23.0,16.0,29.80,1010.4,,,,,,,,,,,,,,,Clear,72000.0,,,73000.0,,,,,,
KRDR,08-26-2011,03:00,METAR,,180,10.0,,,9999.0,,22.0,16.0,29.81,1010.6,,,,,,,,,,,,,,,Clear,72000.0,,,73000.0,,,,,,
KRDR,08-26-2011,02:00,METAR,,170,7.0,,,9999.0,,23.0,16.0,29.82,1010.9,,,,,,,,,,,,,,,Clear,72000.0,,,73000.0,,,,,,
KRDR,08-26-2011,01:00,METAR,,180,9.0,,,9999.0,,24.0,16.0,29.82,1010.8,,,,,,,,,,,,,,,Clear,72000.0,,,73000.0,,,,,,
KRDR,08-26-2011,00:00,METAR,,180,13.0,,,9999.0,,26.0,15.0,29.83,1011.2,,,,,,,,,,,,,,,Clear,72000.0,,,73000.0,,,,,,
KRDR,08-25-2011,23:00,METAR,,190,13.0,,,9999.0,,27.0,15.0,29.85,1011.9,,,,,,,,,,,,,,,Clear,72000.0,,,73000.0,,,,,,
KRDR,08-25-2011,22:00,METAR,,180,17.0,,,9999.0,,28.0,13.0,29.86,1012.2,,,,,,,,,,,,,,,Clear,72000.0,,,73000.0,,,,,,
KRDR,08-25-2011,21:00,METAR,,180,12.0,,,9999.0,,28.0,14.0,29.88,1012.8,,,,,,,,,,,,,,,Clear,72000.0,,,73000.0,,,,,,
KRDR,08-25-2011,20:00,METAR,,190,16.0,,,9999.0,,28.0,12.0,29.90,1013.6,,,,,,,,,,,,,,,Clear,72000.0,,,73000.0,,,,,,
KRDR,08-25-2011,19:00,METAR,,210,14.0,,,9999.0,,27.0,13.0,29.93,1014.4,,,,,,,,,,,,,,,Clear,72000.0,,,73000.0,,,,,,
KRDR,08-25-2011,18:00,METAR,,200,12.0,,,9999.0,,27.0,13.0,29.95,1015.3,,,,,,,,,,,,,,,Clear,72000.0,,,73000.0,,,,,,
KRDR,08-25-2011,17:00,METAR,,180,11.0,,,9999.0,,26.0,13.0,29.96,1015.5,,,,,,,,,,,,,,,Clear,72000.0,,,73000.0,,,,,,
KRDR,08-25-2011,16:00,METAR,,190,10.0,,,9999.0,,25.0,12.0,29.97,1015.9,,,,,,,,,,,,,,,Clear,72000.0,,,73000.0,,,,,,
KRDR,08-25-2011,15:00,METAR,,220,8.0,,,9999.0,,23.0,12.0,29.98,1016.1,,,,,,,,,,,,,,,Clear,72000.0,,,73000.0,,,,,,
KRDR,08-25-2011,14:00,METAR,,220,5.0,,,9999.0,,19.0,14.0,29.98,1016.2,,,,,,,,,,,,,,,Clear,72000.0,,,73000.0,,,,,,
KRDR,08-25-2011,13:00,METAR,,210,4.0,,,9999.0,,13.0,13.0,29.98,1016.3,,,,,,,,,,,,,,,Clear,72000.0,,,73000.0,,,,,,
KRDR,08-25-2011,12:00,METAR,,220,4.0,,,9999.0,,9.0,9.0,29.98,1016.2,,,,,,,,,,,,,,,Clear,72000.0,,,73000.0,,,,,,
KRDR,08-25-2011,11:00,METAR,,,0.0,,,9999.0,,12.0,12.0,29.97,1016.0,,,,,,,,,,,,,,,Clear,72000.0,,,73000.0,,,,,,
KRDR,08-25-2011,10:00,METAR,,250,4.0,,,9999.0,,10.0,10.0,29.98,1016.2,,,,,,,,,,,,,,,Clear,72000.0,,,73000.0,,,,,,
KRDR,08-25-2011,09:00,METAR,,240,3.0,,,9999.0,,11.0,11.0,29.98,1016.1,,,,,,,,,,,,,,,Clear,72000.0,,,73000.0,,,,,,
KRDR,08-25-2011,08:00,METAR,,260,4.0,,,9999.0,,12.0,12.0,29.98,1016.2,,,,,,,,,,,,,,,Clear,72000.0,,,73000.0,,,,,,
KRDR,08-25-2011,07:00,METAR,,260,4.0,,,9999.0,,11.0,11.0,29.96,1015.7,,,,,,,,,,,,,,,Clear,72000.0,,,73000.0,,,,,,
KRDR,08-25-2011,06:00,METAR,,250,4.0,,,9999.0,,12.0,12.0,29.95,1015.3,,,,,,,,,,,,,,,Clear,72000.0,,,73000.0,,,,,,
KRDR,08-25-2011,05:00,METAR,,50,3.0,,,9999.0,,14.0,12.0,29.95,1015.2,,,,,,,,,,,,,,,Clear,72000.0,,,73000.0,,,,,,
KRDR,08-25-2011,04:00,METAR,,300,6.0,,,9999.0,,16.0,11.0,29.94,1014.7,,,,,,,,,,,,,,,Clear,72000.0,,,73000.0,,,,,,
KRDR,08-25-2011,03:00,METAR,,290,6.0,,,9999.0,,17.0,11.0,29.93,1014.5,,,,,,,,,,,,,,,Clear,72000.0,,,73000.0,,,,,,
KRDR,08-25-2011,02:00,METAR,,300,7.0,,,9999.0,,18.0,12.0,29.92,1014.1,,,,,,,,,,,,,,,Clear,72000.0,,,73000.0,,,,,,
KRDR,08-25-2011,01:00,METAR,,310,5.0,,,9999.0,,22.0,12.0,29.91,1013.8,,,,,,,,,,,,,,,Clear,72000.0,,,73000.0,,,,,,
KRDR,08-25-2011,00:00,METAR,,330,10.0,,,9999.0,,25.0,10.0,29.90,1013.5,,,,,,,,,,,,,,,Clear,72000.0,,,73000.0,,,,,,
KRDR,08-24-2011,23:00,METAR,,330,13.0,21.0,,9999.0,,26.0,10.0,29.89,1013.2,,,,,,,,,,,,,,,Clear,72000.0,,,73000.0,,,,,,
KRDR,08-24-2011,22:00,METAR,,340,14.0,21.0,,9999.0,,26.0,11.0,29.88,1012.9,,,,,,,,,,,,,,,Clear,72000.0,,,73000.0,,,,,,
KRDR,08-24-2011,21:00,METAR,,340,17.0,25.0,,9999.0,,26.0,11.0,29.87,1012.7,,,,,,,,,,,,,,,2/8 Mostly Clear,72000.0,,FEW,6900.0,,,,,,
KRDR,08-24-2011,20:00,METAR,,340,16.0,23.0,340/26KTS,9999.0,,26.0,12.0,29.86,1012.4,,,,,,,,,,,,,,,Clear,72000.0,,,73000.0,,,,,,
KRDR,08-24-2011,19:00,METAR,,340,16.0,28.0,340/28KTS,9999.0,,26.0,11.0,29.86,1012.1,,,,,,,,,,,,,,,Clear,72000.0,,,73000.0,,,,,,
KRDR,08-24-2011,18:00,METAR,,320,17.0,25.0,340/30KTS,9999.0,,25.0,11.0,29.85,1011.9,,,,,,,,,,,,,,,Clear,72000.0,,,73000.0,,,,,,
KRDR,08-24-2011,17:00,METAR,,320,17.0,26.0,330/28KTS,9999.0,,23.0,11.0,29.84,1011.6,,,,,,,,,,,,,,,Clear,72000.0,,,73000.0,,,,,,
KRDR,08-24-2011,16:00,METAR,,320,18.0,24.0,330/29KTS,9999.0,,22.0,11.0,29.82,1010.9,,,,,,,,,,,,,,,Clear,72000.0,,,73000.0,,,,,,
KRDR,08-24-2011,15:00,METAR,,310,18.0,24.0,,9999.0,,21.0,11.0,29.80,1010.2,,,,,,,,,,,,,,,Clear,72000.0,,,73000.0,,,,,,
KRDR,08-24-2011,14:00,METAR,,320,14.0,27.0,310/27KTS,9999.0,,20.0,10.0,29.79,1010.1,,,,,,,,,,,,,,,Clear,72000.0,,,73000.0,,,,,,
KRDR,08-24-2011,13:00,METAR,,310,19.0,27.0,310/27KTS,9999.0,,19.0,9.0,29.78,1009.4,,,,,,,,,,,,,,,Clear,72000.0,,,73000.0,,,,,,
KRDR,08-24-2011,12:00,METAR,,290,14.0,,,9999.0,,17.0,10.0,29.75,1008.7,,,,,,,,,,,,,,,Clear,72000.0,,,73000.0,,,,,,
KRDR,08-24-2011,11:00,METAR,,290,12.0,,,9999.0,,17.0,10.0,29.75,1008.6,,,,,,,,,,,,,,,Clear,72000.0,,,73000.0,,,,,,
KRDR,08-24-2011,10:00,METAR,,290,10.0,,,9999.0,,18.0,11.0,29.74,1008.3,,,,,,,,,,,,,,,Clear,72000.0,,,73000.0,,,,,,
KRDR,08-24-2011,09:00,METAR,,300,11.0,,,9999.0,,19.0,13.0,29.72,1007.6,,,,,,,,,,,,,,,Clear,72000.0,,,73000.0,,,,,,
KRDR,08-24-2011,08:00,METAR,,300,8.0,,,9999.0,,20.0,14.0,29.70,1006.9,,,,,,,,,,,,,,,Clear,72000.0,,,73000.0,,,,,,
KRDR,08-24-2011,07:00,METAR,,310,7.0,,,9999.0,,19.0,14.0,29.68,1006.3,,,,,,,,,,,,,,,Clear,72000.0,,,73000.0,,,,,,
KRDR,08-24-2011,06:00,METAR,,300,8.0,,,9999.0,,22.0,14.0,29.67,1005.8,,,,,,,,,,,,,,,Clear,72000.0,,,73000.0,,,,,,
KRDR,08-24-2011,05:00,METAR,,310,14.0,,,9999.0,,24.0,13.0,29.64,1004.9,,,,,,,,,,,,,,,Clear,72000.0,,,73000.0,,,,,,
KRDR,08-24-2011,04:00,METAR,,300,11.0,,,9999.0,,24.0,12.0,29.60,1003.7,,,,,,,,,,,,,,,Clear,72000.0,,,73000.0,,,,,,
KRDR,08-24-2011,03:00,METAR,,270,8.0,,,9999.0,,23.0,14.0,29.57,1002.7,,,,,,,,,,,,,,,Clear,72000.0,,,73000.0,,,,,,
KRDR,08-24-2011,02:00,METAR,,280,10.0,,,9999.0,,27.0,14.0,29.54,1001.6,,,,,,,,,,,,,,,Clear,72000.0,,,73000.0,,,,,,
KRDR,08-24-2011,01:00,METAR,,260,11.0,,,9999.0,,28.0,16.0,29.51,1000.6,,,,,,,,,,,,,,,Clear,72000.0,,,73000.0,,,,,,
KRDR,08-24-2011,00:00,METAR,,270,14.0,18.0,,9999.0,,31.0,15.0,29.49,1000.1,,,,,,,,,,,,,,,Clear,72000.0,,,73000.0,,,,,,
KRDR,08-23-2011,23:00,METAR,,230,8.0,,,9999.0,,32.0,21.0,29.48,999.8,,,,,,,,,,,,,,,Clear,72000.0,,,73000.0,,,,,,
KRDR,08-23-2011,22:00,METAR,,210,10.0,,,9999.0,,32.0,20.0,29.48,999.6,,,,,,,,,,,,,,,Clear,72000.0,,,73000.0,,,,,,
KRDR,08-23-2011,21:00,METAR,,210,10.0,,,9999.0,,33.0,19.0,29.51,1000.5,,,,,,,,,,,,,,,Clear,72000.0,,,73000.0,,,,,,
KRDR,08-23-2011,20:00,METAR,,220,10.0,,,9999.0,,32.0,19.0,29.52,1001.1,,,,,,,,,,,,,,,Clear,72000.0,,,73000.0,,,,,,
KRDR,08-23-2011,19:00,METAR,,210,11.0,,,9999.0,,32.0,19.0,29.53,1001.4,,,,,,,,,,,,,,,Clear,72000.0,,,73000.0,,,,,,
KRDR,08-23-2011,18:00,METAR,,190,11.0,,,9999.0,,31.0,18.0,29.54,1001.7,,,,,,,,,,,,,,,Clear,72000.0,,,73000.0,,,,,,
KRDR,08-23-2011,17:00,METAR,,180,8.0,,,9999.0,,30.0,18.0,29.55,1002.0,,,,,,,,,,,,,,,Clear,72000.0,,,73000.0,,,,,,
KRDR,08-23-2011,16:00,METAR,,210,5.0,,,9999.0,,29.0,18.0,29.55,1002.1,,,,,,,,,,,,,,,Clear,72000.0,,,73000.0,,,,,,
KRDR,08-23-2011,15:00,METAR,,240,9.0,,,9999.0,,25.0,18.0,29.56,1002.4,,,,,,,,,,,,,,,Clear,72000.0,,,73000.0,,,,,,
KRDR,08-23-2011,14:00,METAR,,190,7.0,,,9999.0,,23.0,17.0,29.57,1002.6,,,,,,,,,,,,,,,Clear,72000.0,,,73000.0,,,,,,
KRDR,08-23-2011,13:00,METAR,,210,7.0,,,9999.0,,21.0,15.0,29.56,1002.5,,,,,,,,,,,,,,,Clear,72000.0,,,73000.0,,,,,,
KRDR,08-23-2011,12:00,METAR,,210,8.0,,,9999.0,,18.0,14.0,29.56,1002.4,,,,,,,,,,,,,,,Clear,72000.0,,,73000.0,,,,,,
KRDR,08-23-2011,11:00,METAR,,200,9.0,,,9999.0,,17.0,15.0,29.56,1002.3,,,,,,,,,,,,,,,Clear,72000.0,,,73000.0,,,,,,
KRDR,08-23-2011,10:00,METAR,,210,8.0,,,9999.0,,20.0,14.0,29.56,1002.3,,,,,,,,,,,,,,,Clear,72000.0,,,73000.0,,,,,,
KRDR,08-23-2011,09:00,METAR,,220,7.0,,,9999.0,,20.0,14.0,29.57,1002.6,,,,,,,,,,,,,,,Clear,72000.0,,,73000.0,,,,,,
KRDR,08-23-2011,08:00,METAR,,250,4.0,,,9999.0,,20.0,17.0,29.57,1002.6,,,,,,,,,,,,,,,Clear,72000.0,,,73000.0,,,,,,
KRDR,08-23-2011,07:00,METAR,,180,6.0,,,9999.0,,22.0,18.0,29.59,1003.3,,,,,,,,,,,,,,,Clear,72000.0,,,73000.0,,,,,,
KRDR,08-23-2011,06:00,METAR,,190,8.0,,,9999.0,,24.0,24.0,29.61,1004.1,,,,,,,,,,,,,,,Clear,72000.0,,,73000.0,,,,,,
KRDR,08-23-2011,05:00,METAR,,190,9.0,,,9999.0,,24.0,24.0,29.64,1005.0,,,,,,,,,,,,,,,Clear,72000.0,,,73000.0,,,,,,
KRDR,08-23-2011,04:00,METAR,,180,9.0,,,9999.0,,24.0,24.0,29.65,1005.2,,,,,,,,,,,,,,,Clear,72000.0,,,73000.0,,,,,,
KRDR,08-23-2011,03:00,METAR,,160,9.0,,,9999.0,,25.0,25.0,29.65,1005.4,,,,,,,,,,,,,,,Clear,72000.0,,,73000.0,,,,,,
KRDR,08-23-2011,02:00,METAR,,170,8.0,,,9999.0,,25.0,24.0,29.66,1005.7,,,,,,,,,,,,,,,Clear,72000.0,,,73000.0,,,,,,
KRDR,08-23-2011,01:00,METAR,,190,10.0,,,9999.0,,28.0,23.0,29.66,1005.8,,,,,,,,,,,,,,,Clear,72000.0,,,73000.0,,,,,,
KRDR,08-23-2011,00:00,METAR,,200,14.0,,,9999.0,,29.0,22.0,29.69,1006.5,,,,,,,,,,,,,,,Clear,72000.0,,,73000.0,,,,,,
KRDR,08-22-2011,23:00,METAR,,200,16.0,23.0,,9999.0,,30.0,21.0,29.70,1006.8,,,,,,,,,,,,,,,Clear,72000.0,,,73000.0,,,,,,
KRDR,08-22-2011,22:00,METAR,,190,16.0,,,9999.0,,30.0,19.0,29.71,1007.4,,,,,,,,,,,,,,,Clear,72000.0,,,73000.0,,,,,,
KRDR,08-22-2011,21:00,METAR,,190,15.0,22.0,190/26KTS,9999.0,,29.0,16.0,29.73,1008.1,,,,,,,,,,,,,,,Clear,72000.0,,,73000.0,,,,,,
KRDR,08-22-2011,20:00,METAR,,200,18.0,25.0,190/26KTS,9999.0,,29.0,16.0,29.76,1009.0,,,,,,,,,,,,,,,Clear,72000.0,,,73000.0,,,,,,
KRDR,08-22-2011,19:00,METAR,,200,21.0,,180/27KTS,9999.0,,29.0,16.0,29.79,1009.9,,,,,,,,,,,,,,,Clear,72000.0,,,73000.0,,,,,,
KRDR,08-22-2011,18:00,METAR,,210,17.0,,,9999.0,,28.0,17.0,29.82,1010.8,,,,,,,,,,,,,,,Clear,72000.0,,,73000.0,,,,,,
KRDR,08-22-2011,17:00,METAR,,200,11.0,,,9999.0,,26.0,18.0,29.84,1011.6,,,,,,,,,,,,,,,2/8 Mostly Clear,72000.0,,FEW,11000.0,,,,,,
KRDR,08-22-2011,16:00,METAR,,200,14.0,,,9999.0,,25.0,17.0,29.85,1011.9,,,,,,,,,,,,,,,Clear,72000.0,,,73000.0,,,,,,
KRDR,08-22-2011,15:00,METAR,,190,11.0,,,9999.0,,23.0,17.0,29.86,1012.1,,,,,,,,,,,,,,,Clear,72000.0,,,73000.0,,,,,,
KRDR,08-22-2011,14:00,METAR,,200,8.0,,,9999.0,,21.0,16.0,29.88,1012.8,,,,,,,,,,,,,,,Clear,72000.0,,,73000.0,,,,,,
KRDR,08-22-2011,13:00,METAR,,180,8.0,,,9999.0,,18.0,15.0,29.88,1013.0,,,,,,,,,,,,,,,Clear,72000.0,,,73000.0,,,,,,
KRDR,08-22-2011,12:00,METAR,,180,7.0,,,9999.0,,16.0,15.0,29.88,1013.0,,,,,,,,,,,,,,,Clear,72000.0,,,73000.0,,,,,,
KRDR,08-22-2011,11:00,METAR,,190,8.0,,,9999.0,,17.0,14.0,29.88,1012.8,,,,,,,,,,,,,,,Clear,72000.0,,,73000.0,,,,,,
KRDR,08-22-2011,10:00,METAR,,230,7.0,,,9999.0,,17.0,14.0,29.89,1013.2,,,,,,,,,,,,,,,Clear,72000.0,,,73000.0,,,,,,
KRDR,08-22-2011,09:00,METAR,,220,7.0,,,9999.0,,17.0,14.0,29.90,1013.4,,,,,,,,,,,,,,,Clear,72000.0,,,73000.0,,,,,,
KRDR,08-22-2011,08:00,METAR,,220,7.0,,,9999.0,,17.0,15.0,29.91,1014.0,,,,,,,,,,,,,,,Clear,72000.0,,,73000.0,,,,,,
KRDR,08-22-2011,07:00,METAR,,210,7.0,,,9999.0,,15.0,15.0,29.92,1014.2,,,,,,,,,,,,,,,Clear,72000.0,,,73000.0,,,,,,
KRDR,08-22-2011,06:00,METAR,,210,7.0,,,9999.0,,14.0,14.0,29.93,1014.5,,,,,,,,,,,,,,,Clear,72000.0,,,73000.0,,,,,,
KRDR,08-22-2011,05:00,METAR,,180,7.0,,,9999.0,,15.0,14.0,29.93,1014.6,,,,,,,,,,,,,,,Clear,72000.0,,,73000.0,,,,,,
KRDR,08-22-2011,04:00,METAR,,180,6.0,,,9999.0,,16.0,14.0,29.94,1015.0,,,,,,,,,,,,,,,Clear,72000.0,,,73000.0,,,,,,
KRDR,08-22-2011,03:00,METAR,,180,7.0,,,9999.0,,17.0,13.0,29.94,1014.9,,,,,,,,,,,,,,,Clear,72000.0,,,73000.0,,,,,,
KRDR,08-22-2011,02:00,METAR,,160,6.0,,,9999.0,,19.0,12.0,29.94,1014.7,,,,,,,,,,,,,,,Clear,72000.0,,,73000.0,,,,,,
KRDR,08-22-2011,01:00,METAR,,180,5.0,,,9999.0,,22.0,14.0,29.94,1015.0,,,,,,,,,,,,,,,Clear,72000.0,,,73000.0,,,,,,
KRDR,08-22-2011,00:00,METAR,,230,3.0,,,9999.0,,24.0,11.0,29.95,1015.3,,,,,,,,,,,,,,,Clear,72000.0,,,73000.0,,,,,,
KRDR,08-21-2011,23:00,METAR,,,0.0,,,9999.0,,25.0,10.0,29.97,1015.7,,,,,,,,,,,,,,,Clear,72000.0,,,73000.0,,,,,,
KRDR,08-21-2011,22:00,METAR,,,0.0,,,9999.0,,25.0,9.0,29.98,1016.2,,,,,,,,,,,,,,,Clear,72000.0,,,73000.0,,,,,,
KRDR,08-21-2011,21:00,METAR,,,3.0,,,9999.0,,25.0,10.0,29.99,1016.4,,,,,,,,,,,,,,,Clear,72000.0,,,73000.0,,,,,,
KRDR,08-21-2011,20:00,METAR,,340,6.0,,,9999.0,,24.0,10.0,30.00,1016.9,,,,,,,,,,,,,,,Clear,72000.0,,,73000.0,,,,,,
KRDR,08-21-2011,19:00,METAR,,360,7.0,,,9999.0,,24.0,9.0,30.01,1017.1,,,,,,,,,,,,,,,Clear,72000.0,,,73000.0,,,,,,
KRDR,08-21-2011,18:00,METAR,,,5.0,,,9999.0,,23.0,11.0,30.01,1017.1,,,,,,,,,,,,,,,Clear,72000.0,,,73000.0,,,,,,
KRDR,08-21-2011,17:00,METAR,,340,6.0,,,9999.0,,22.0,11.0,30.01,1017.3,,,,,,,,,,,,,,,Clear,72000.0,,,73000.0,,,,,,
KRDR,08-21-2011,16:00,METAR,,,6.0,,,9999.0,,21.0,12.0,30.01,1017.2,,,,,,,,,,,,,,,Clear,72000.0,,,73000.0,,,,,,
KRDR,08-21-2011,15:00,METAR,,310,5.0,,,9999.0,,19.0,12.0,30.01,1017.2,,,,,,,,,,,,,,,Clear,72000.0,,,73000.0,,,,,,
KRDR,08-21-2011,14:00,METAR,,290,4.0,,,9999.0,,15.0,15.0,30.00,1016.9,,,,,,,,,,,,,,,Clear,72000.0,,,73000.0,,,,,,
KRDR,08-21-2011,13:00,METAR,,,0.0,,,9999.0,,14.0,14.0,29.99,1016.5,,,,,,,,,,,,,,,Clear,72000.0,,,73000.0,,,,,,
KRDR,08-21-2011,12:00,METAR,,310,3.0,,,9999.0,,11.0,11.0,29.97,1016.0,,,,,,,,,,,,,TRACE,,Clear,72000.0,,,73000.0,,,,,,
KRDR,08-21-2011,11:00,METAR,,250,4.0,,,9999.0,,11.0,11.0,29.97,1015.9,,,,,,,,,,,TRACE,,,,4/8 Partly Cloudy,72000.0,,SCT,9900.0,,,,,,
KRDR,08-21-2011,10:26,SPECI,,,0.0,,,9999.0,,11.0,11.0,29.97,1016.0,,,,,,,,,,,,,,,8/8 Overcast,10000.0,,OVC,9900.0,,,,,,
KRDR,08-21-2011,10:17,SPECI,,,0.0,,,9999.0,Light Drizzle,11.0,11.0,29.97,1016.0,51,,,,,,,,,,,,,,8/8 Overcast,10000.0,,OVC,9900.0,,,,,,
KRDR,08-21-2011,10:00,METAR,,,0.0,,,9999.0,,11.0,11.0,29.97,1015.9,,,,,,,,,,,,,,,2/8 Mostly Clear,72000.0,,FEW,9900.0,,,,,,
KRDR,08-21-2011,09:00,METAR,,320,4.0,,,9999.0,,11.0,11.0,29.98,1016.1,,,,,,,,,,,,,,,Clear,72000.0,,,73000.0,,,,,,
KRDR,08-21-2011,08:00,METAR,,,0.0,,,9999.0,,11.0,11.0,29.98,1016.0,,,,,,,,,,,,,,,Clear,72000.0,,,73000.0,,,,,,
KRDR,08-21-2011,07:00,METAR,,270,7.0,,,9999.0,,13.0,12.0,29.98,1016.0,,,,,,,,,,,,,,,Clear,72000.0,,,73000.0,,,,,,
KRDR,08-21-2011,06:00,METAR,,280,5.0,,,9999.0,,12.0,11.0,29.97,1016.0,,,,,,,,,,,,,,,Clear,72000.0,,,73000.0,,,,,,
KRDR,08-21-2011,05:00,METAR,,270,6.0,,,9999.0,,13.0,11.0,29.97,1015.9,,,,,,,,,,,,,,,Clear,72000.0,,,73000.0,,,,,,
KRDR,08-21-2011,04:00,METAR,,280,6.0,,,9999.0,,14.0,11.0,29.97,1015.8,,,,,,,,,,,,,,,Clear,72000.0,,,73000.0,,,,,,
KRDR,08-21-2011,03:00,METAR,,270,5.0,,,9999.0,,14.0,11.0,29.97,1015.8,,,,,,,,,,,,,,,Clear,72000.0,,,73000.0,,,,,,
KRDR,08-21-2011,02:00,METAR,,280,7.0,,,9999.0,,15.0,11.0,29.96,1015.4,,,,,,,,,,,,,,,Clear,72000.0,,,73000.0,,,,,,
KRDR,08-21-2011,01:00,METAR,,280,7.0,,,9999.0,,18.0,10.0,29.95,1015.2,,,,,,,,,,,,,,,Clear,72000.0,,,73000.0,,,,,,
KRDR,08-21-2011,00:00,METAR,,290,8.0,,,9999.0,,20.0,10.0,29.96,1015.4,,,,,,,,,,,,,TRACE,,Clear,72000.0,,,73000.0,,,,,,
KRDR,08-20-2011,23:00,METAR,,300,8.0,,,9999.0,,19.0,10.0,29.96,1015.5,,,,,,,,,,,,,,,2/8 Mostly Clear,72000.0,,FEW,12000.0,,,,,,
KRDR,08-20-2011,22:00,METAR,,320,5.0,,,9999.0,,18.0,10.0,29.97,1015.7,,,,,,,,,,,TRACE,,,,7/8 Mostly Cloudy,11000.0,,BKN,11000.0,,,,,,
KRDR,08-20-2011,21:35,SPECI,,290,7.0,,,9999.0,,18.0,9.0,29.97,1015.7,,,,,,,,,,,,,,,7/8 Mostly Cloudy,12000.0,,SCT,9900.0,BKN,12000.0,,,,
KRDR,08-20-2011,21:26,SPECI,,290,7.0,,,9999.0,Light Rain,19.0,9.0,29.98,1016.2,61,,,,,,,,,,,,,,4/8 Partly Cloudy,72000.0,,SCT,9900.0,,,,,,
KRDR,08-20-2011,21:00,METAR,,290,10.0,,,9999.0,,19.0,9.0,29.99,1016.4,,,,,,,,,,,,TRACE,,,7/8 Mostly Cloudy,9000.0,,BKN,8900.0,,,,,,
KRDR,08-20-2011,20:00,METAR,,330,10.0,,340/30KTS,9999.0,,18.0,10.0,30.01,1017.1,,,,,,,,,,,,,,,2/8 Mostly Clear,72000.0,,FEW,8900.0,,,,,,
KRDR,08-20-2011,19:00,METAR,,340,18.0,25.0,,9999.0,,21.0,10.0,30.01,1017.0,,,,,,,,,,,TRACE,,,,2/8 Mostly Clear,72000.0,,FEW,11000.0,,,,,,
KRDR,08-20-2011,18:26,SPECI,,330,15.0,19.0,,9999.0,,20.0,10.0,30.00,1016.8,,,,,,,,,,,,,,,4/8 Partly Cloudy,72000.0,,FEW,6900.0,SCT,8400.0,,,,
KRDR,08-20-2011,18:15,SPECI,,320,11.0,,,9999.0,Light Rain,21.0,11.0,29.99,1016.6,61,,,,,,,,,,,,,,7/8 Mostly Cloudy,8500.0,,FEW,1100.0,SCT,6900.0,BKN,8400.0,,
KRDR,08-20-2011,18:08,SPECI,,290,10.0,,,9999.0,Light Rain,22.0,10.0,29.99,1016.6,61,,,,,,,,,,,,,,7/8 Mostly Cloudy,8000.0,,SCT,6900.0,SCT,8900.0,BKN,12000.0,,
KRDR,08-20-2011,18:00,METAR,,300,13.0,,,9999.0,,24.0,10.0,29.99,1016.4,,,,,,,,,,,,,,,2/8 Mostly Clear,72000.0,,FEW,8900.0,,,,,,
KRDR,08-20-2011,17:00,METAR,,240,8.0,,,9999.0,,23.0,11.0,30.00,1016.7,,,,,,,,,,,,,,,Clear,72000.0,,,73000.0,,,,,,
KRDR,08-20-2011,16:00,METAR,,240,7.0,,,9999.0,,22.0,12.0,30.00,1017.0,,,,,,,,,,,,,,,Clear,72000.0,,,73000.0,,,,,,
KRDR,08-20-2011,15:00,METAR,,240,6.0,,,9999.0,,20.0,11.0,30.01,1017.1,,,,,,,,,,,,,,,Clear,72000.0,,,73000.0,,,,,,
KRDR,08-20-2011,14:00,METAR,,260,4.0,,,9999.0,,17.0,13.0,30.01,1017.1,,,,,,,,,,,,,,,Clear,72000.0,,,73000.0,,,,,,
KRDR,08-20-2011,13:00,METAR,,,0.0,,,9999.0,,13.0,13.0,30.01,1017.1,,,,,,,,,,,,,,,Clear,72000.0,,,73000.0,,,,,,
KRDR,08-20-2011,12:00,METAR,,270,4.0,,,9999.0,,10.0,10.0,30.00,1016.9,,,,,,,,,,,,,,,Clear,72000.0,,,73000.0,,,,,,
KRDR,08-20-2011,11:00,METAR,,,0.0,,,9999.0,,11.0,11.0,30.00,1016.9,,,,,,,,,,,,,,,2/8 Mostly Clear,72000.0,,FEW,7900.0,,,,,,
KRDR,08-20-2011,10:00,METAR,,300,3.0,,,9999.0,,11.0,11.0,30.00,1016.8,,,,,,,,,,,,,,,Clear,72000.0,,,73000.0,,,,,,
KRDR,08-20-2011,09:00,METAR,,290,4.0,,,9999.0,,11.0,11.0,30.00,1016.8,,,,,,,,,,,,,,,Clear,72000.0,,,73000.0,,,,,,
KRDR,08-20-2011,08:00,METAR,,280,3.0,,,9999.0,,10.0,10.0,30.01,1017.1,,,,,,,,,,,,,,,Clear,72000.0,,,73000.0,,,,,,
KRDR,08-20-2011,07:00,METAR,,250,3.0,,,9999.0,,10.0,10.0,30.01,1017.2,,,,,,,,,,,,,,,Clear,72000.0,,,73000.0,,,,,,
KRDR,08-20-2011,06:00,METAR,,290,6.0,,,9999.0,,11.0,11.0,30.00,1016.8,,,,,,,,,,,,,,,Clear,72000.0,,,73000.0,,,,,,
KRDR,08-20-2011,05:00,METAR,,270,3.0,,,9999.0,,11.0,11.0,30.00,1016.8,,,,,,,,,,,,,,,Clear,72000.0,,,73000.0,,,,,,
KRDR,08-20-2011,04:00,METAR,,280,3.0,,,9999.0,,11.0,11.0,29.99,1016.6,,,,,,,,,,,,,,,Clear,72000.0,,,73000.0,,,,,,
KRDR,08-20-2011,03:00,METAR,,,0.0,,,9999.0,,13.0,11.0,29.99,1016.5,,,,,,,,,,,,,,,Clear,72000.0,,,73000.0,,,,,,
KRDR,08-20-2011,02:00,METAR,,290,3.0,,,9999.0,,15.0,11.0,29.97,1016.0,,,,,,,,,,,,,,,Clear,72000.0,,,73000.0,,,,,,
KRDR,08-20-2011,01:00,METAR,,340,4.0,,,9999.0,,19.0,10.0,29.96,1015.5,,,,,,,,,,,,,,,Clear,72000.0,,,73000.0,,,,,,
KRDR,08-20-2011,00:00,METAR,,320,8.0,,,9999.0,,22.0,8.0,29.95,1015.3,,,,,,,,,,,,,,,Clear,72000.0,,,73000.0,,,,,,
KRDR,08-19-2011,23:00,METAR,,320,7.0,,,9999.0,,21.0,9.0,29.96,1015.5,,,,,,,,,,,,,,,2/8 Mostly Clear,72000.0,,FEW,7900.0,,,,,,
KRDR,08-19-2011,22:00,METAR,,330,9.0,16.0,,9999.0,,23.0,8.0,29.96,1015.7,,,,,,,,,,,,,,,2/8 Mostly Clear,72000.0,,FEW,6900.0,,,,,,
KRDR,08-19-2011,21:00,METAR,,310,9.0,,,9999.0,,22.0,9.0,29.97,1016.0,,,,,,,,,,,,,,,2/8 Mostly Clear,72000.0,,FEW,6900.0,,,,,,
KRDR,08-19-2011,20:00,METAR,,330,9.0,17.0,,9999.0,,23.0,9.0,29.98,1016.0,,,,,,,,,,,,,,,2/8 Mostly Clear,72000.0,,FEW,5900.0,,,,,,
KRDR,08-19-2011,19:00,METAR,,340,10.0,15.0,,9999.0,,22.0,9.0,29.98,1016.2,,,,,,,,,,,,,,,Clear,72000.0,,,73000.0,,,,,,
KRDR,08-19-2011,18:00,METAR,,330,12.0,,,9999.0,,22.0,9.0,29.98,1016.3,,,,,,,,,,,,,,,Clear,72000.0,,,73000.0,,,,,,
KRDR,08-19-2011,17:00,METAR,,350,13.0,20.0,,9999.0,,21.0,9.0,29.98,1016.2,,,,,,,,,,,,,,,Clear,72000.0,,,73000.0,,,,,,
KRDR,08-19-2011,16:00,METAR,,350,12.0,,,9999.0,,20.0,10.0,29.97,1015.8,,,,,,,,,,,,,,,Clear,72000.0,,,73000.0,,,,,,
KRDR,08-19-2011,15:00,METAR,,340,12.0,18.0,,9999.0,,20.0,10.0,29.97,1015.7,,,,,,,,,,,,,,,Clear,72000.0,,,73000.0,,,,,,
KRDR,08-19-2011,14:00,METAR,,320,14.0,,,9999.0,,17.0,11.0,29.95,1015.3,,,,,,,,,,,,,,,Clear,72000.0,,,73000.0,,,,,,
KRDR,08-19-2011,13:00,METAR,,310,6.0,,,9999.0,,14.0,12.0,29.94,1014.9,,,,,,,,,,,,,,,Clear,72000.0,,,73000.0,,,,,,
KRDR,08-19-2011,12:00,METAR,,310,6.0,,,9999.0,,12.0,12.0,29.92,1014.2,,,,,,,,,,,,,,,Clear,72000.0,,,73000.0,,,,,,
KRDR,08-19-2011,11:00,METAR,,280,7.0,,,9999.0,,12.0,12.0,29.91,1014.0,,,,,,,,,,,,,,,Clear,72000.0,,,73000.0,,,,,,
KRDR,08-19-2011,10:00,METAR,,300,6.0,,,9999.0,,12.0,11.0,29.89,1013.4,,,,,,,,,,,,,,,Clear,72000.0,,,73000.0,,,,,,
KRDR,08-19-2011,09:00,METAR,,310,8.0,,,9999.0,,14.0,11.0,29.87,1012.6,,,,,,,,,,,,,,,Clear,72000.0,,,73000.0,,,,,,
KRDR,08-19-2011,08:00,METAR,,310,12.0,,,9999.0,,15.0,12.0,29.85,1011.7,,,,,,,,,,,,,,,Clear,72000.0,,,73000.0,,,,,,
KRDR,08-19-2011,07:00,METAR,,320,11.0,,,9999.0,,17.0,12.0,29.83,1011.1,,,,,,,,,,,,,,,Clear,72000.0,,,73000.0,,,,,,
KRDR,08-19-2011,06:00,METAR,,320,11.0,,,9999.0,,18.0,12.0,29.83,1011.1,,,,,,,,,,,,,,,Clear,72000.0,,,73000.0,,,,,,
KRDR,08-19-2011,05:00,METAR,,320,16.0,,,9999.0,,20.0,13.0,29.79,1010.0,,,,,,,,,,,,,,,7/8 Mostly Cloudy,6000.0,,BKN,5900.0,,,,,,
KRDR,08-19-2011,04:00,METAR,,280,12.0,,,9999.0,,22.0,18.0,29.74,1008.2,,,,,,,,,,,,,,,Clear,72000.0,,,73000.0,,,,,,
KRDR,08-19-2011,03:00,METAR,,210,8.0,,,9999.0,,20.0,19.0,29.69,1006.5,,,,,,,,,,,,,,,Clear,72000.0,,,73000.0,,,,,,
KRDR,08-19-2011,02:00,METAR,,220,3.0,,,9999.0,,22.0,20.0,29.70,1007.1,,,,,,,,,,,,,,,Clear,72000.0,,,73000.0,,,,,,
KRDR,08-19-2011,01:00,METAR,,200,6.0,,,9999.0,,26.0,20.0,29.72,1007.6,,,,,,,,,,,,,,,Clear,72000.0,,,73000.0,,,,,,
KRDR,08-19-2011,00:00,METAR,,230,8.0,,,9999.0,,28.0,19.0,29.73,1007.9,,,,,,,,,,,,,,,Clear,72000.0,,,73000.0,,,,,,
KRDR,08-18-2011,23:00,METAR,,210,6.0,,,9999.0,,29.0,20.0,29.73,1008.1,,,,,,,,,,,,,,,Clear,72000.0,,,73000.0,,,,,,
KRDR,08-18-2011,22:00,METAR,,240,6.0,,,9999.0,,29.0,19.0,29.74,1008.4,,,,,,,,,,,,,,,Clear,72000.0,,,73000.0,,,,,,
KRDR,08-18-2011,21:00,METAR,,260,6.0,,,9999.0,,29.0,20.0,29.75,1008.6,,,,,,,,,,,,,,,Clear,72000.0,,,73000.0,,,,,,
KRDR,08-18-2011,20:00,METAR,,,3.0,,,9999.0,,28.0,20.0,29.76,1008.8,,,,,,,,,,,,,,,Clear,72000.0,,,73000.0,,,,,,
KRDR,08-18-2011,19:00,METAR,,270,8.0,,,9999.0,,27.0,19.0,29.77,1009.2,,,,,,,,,,,,,,,Clear,72000.0,,,73000.0,,,,,,
KRDR,08-18-2011,18:00,METAR,,230,6.0,,,9999.0,,26.0,19.0,29.79,1009.8,,,,,,,,,,,,,,,Clear,72000.0,,,73000.0,,,,,,
KRDR,08-18-2011,17:00,METAR,,230,6.0,,,9999.0,,25.0,19.0,29.79,1010.1,,,,,,,,,,,,,,,Clear,72000.0,,,73000.0,,,,,,
KRDR,08-18-2011,16:00,METAR,,200,11.0,,,9999.0,,23.0,18.0,29.80,1010.3,,,,,,,,,,,,,,,Clear,72000.0,,,73000.0,,,,,,
KRDR,08-18-2011,15:00,METAR,,190,13.0,,,9999.0,,21.0,17.0,29.81,1010.5,,,,,,,,,,,,,,,Clear,72000.0,,,73000.0,,,,,,
KRDR,08-18-2011,14:00,METAR,,180,12.0,,,9999.0,,18.0,18.0,29.82,1011.0,,,,,,,,,,,,,,,Clear,72000.0,,,73000.0,,,,,,
KRDR,08-18-2011,13:00,METAR,,170,11.0,,,9999.0,,16.0,16.0,29.82,1011.1,,,,,,,,,,,,,,,4/8 Partly Cloudy,72000.0,,SCT,9900.0,,,,,,
KRDR,08-18-2011,12:00,METAR,,150,9.0,,,9999.0,,16.0,16.0,29.85,1011.9,,,,,,,,,,,.04 IN,,.24 IN,.24 IN,2/8 Mostly Clear,72000.0,,FEW,11000.0,,,,,,
KRDR,08-18-2011,11:21,SPECI,,150,11.0,,,9999.0,,17.0,17.0,29.87,1012.4,,,,,,,,,,,,,,,4/8 Partly Cloudy,72000.0,,SCT,5000.0,SCT,12000.0,,,,
KRDR,08-18-2011,11:05,SPECI,,80,4.0,,,9999.0,Rain/Thunderstorm,17.0,17.0,29.87,,,,,17,61,,,,,,,,,,8/8 Overcast,6000.0,,OVC,5900.0,,,,,,
KRDR,08-18-2011,11:02,SPECI,,140,6.0,,,8000.0,Light Rain/Mist,17.0,17.0,29.88,1012.9,61,10,,,,,,,,,,,,,8/8 Overcast,6000.0,,OVC,5900.0,,,,,,
KRDR,08-18-2011,11:01,SPECI,,140,7.0,,,6400.0,Thunderstorm and Rain or Snow Showers/Mist,17.0,17.0,29.88,1012.9,92,10,,,,,,,,,,,,,8/8 Overcast,6000.0,,OVC,5900.0,,,,,,
KRDR,08-18-2011,11:00,METAR,,,4.0,,,6400.0,Thunderstorm and Rain or Snow Showers/Mist,17.0,17.0,29.91,1013.8,92,10,,,,,,,,,.2 IN,,,,8/8 Overcast,7000.0,,OVC,6900.0,,,,,,
KRDR,08-18-2011,10:46,SPECI,,280,9.0,,,6400.0,Thunderstorm and Rain or Snow Showers/Mist,17.0,17.0,29.93,1014.5,92,10,,,,,,,,,,,,,8/8 Overcast,7000.0,,OVC,6900.0,,,,,,
KRDR,08-18-2011,10:44,SPECI,,270,6.0,,,4800.0,Thunderstorm and Rain or Snow Showers/Mist,17.0,17.0,29.92,1014.2,92,10,,,,,,,,,,,,,8/8 Overcast,7000.0,,OVC,6900.0,,,,,,
KRDR,08-18-2011,10:42,SPECI,,230,3.0,,,4800.0,Thunderstorm and Rain or Snow Showers/Mist,17.0,17.0,29.91,1013.9,92,10,,,,,,,,,,,,,8/8 Overcast,7000.0,,OVC,6900.0,,,,,,
KRDR,08-18-2011,10:40,SPECI,,190,3.0,,,4000.0,Heavy Thunderstorm and Rain or Snow Showers/Mist,17.0,17.0,29.91,1013.8,95,10,,,,,,,,,,,,,8/8 Overcast,7000.0,,OVC,6900.0,,,,,,
KRDR,08-18-2011,10:16,SPECI,,10,4.0,,,8000.0,Thunderstorm and Rain or Snow Showers/Mist,16.0,16.0,29.92,1014.1,92,10,,,,,,,,,,,,,7/8 Mostly Cloudy,8000.0,,BKN,7900.0,BKN,9900.0,,,,
KRDR,08-18-2011,10:04,SPECI,,350,5.0,,,9999.0,Thunderstorm and Rain or Snow Showers,16.0,16.0,29.92,1014.1,92,,,,,,,,,,,,,,4/8 Partly Cloudy,72000.0,,FEW,4900.0,SCT,8400.0,SCT,9900.0,,
KRDR,08-18-2011,10:00,METAR,,,0.0,,,9999.0,Light Rain,16.0,16.0,29.89,1013.4,61,,,,,,,,,,TRACE,,,,4/8 Partly Cloudy,72000.0,,SCT,3100.0,SCT,11000.0,,,,
KRDR,08-18-2011,09:38,SPECI,,30,3.0,,,9999.0,Light Rain,17.0,17.0,29.89,1013.3,61,,,,,,,,,,,,,,7/8 Mostly Cloudy,11000.0,,SCT,6900.0,BKN,11000.0,,,,
KRDR,08-18-2011,09:36,SPECI,,,3.0,,,9999.0,,17.0,17.0,29.89,1013.3,,,,,,,,,,,,,,,7/8 Mostly Cloudy,9000.0,,SCT,6900.0,BKN,11000.0,,,,
KRDR,08-18-2011,09:09,SPECI,,110,5.0,,,9999.0,Light Rain,17.0,17.0,29.88,1012.7,61,,,,,,,,,,,,,,4/8 Partly Cloudy,72000.0,,SCT,7400.0,SCT,11000.0,,,,
KRDR,08-18-2011,09:03,SPECI,,120,6.0,,,9999.0,,17.0,17.0,29.88,1012.8,,,,,,,,,,,,,,,7/8 Mostly Cloudy,7000.0,,SCT,7400.0,BKN,11000.0,,,,
KRDR,08-18-2011,09:00,METAR,,110,6.0,,,9999.0,Light Rain,17.0,17.0,29.88,1012.9,61,,,,,,,,,,TRACE,0 IN,,,7/8 Mostly Cloudy,7500.0,,BKN,7400.0,BKN,11000.0,,,,
KRDR,08-18-2011,08:39,SPECI,,40,5.0,,,9999.0,Light Drizzle,17.0,17.0,29.88,1013.0,51,,,,,,,,,,,,,,7/8 Mostly Cloudy,8000.0,,BKN,7900.0,BKN,11000.0,,,,
KRDR,08-18-2011,08:00,METAR,,200,5.0,,,9999.0,,17.0,17.0,29.88,1012.8,,,,,,,,,,,,,,,4/8 Partly Cloudy,72000.0,,FEW,8900.0,SCT,12000.0,,,,
KRDR,08-18-2011,07:00,METAR,,220,7.0,,,9999.0,,18.0,17.0,29.88,1013.0,,,,,,,,,,,,,,,7/8 Mostly Cloudy,8000.0,,BKN,7900.0,,,,,,
KRDR,08-18-2011,06:00,METAR,,230,5.0,,,9999.0,,17.0,17.0,29.89,1013.3,,,,,,,,,,,,,,,2/8 Mostly Clear,72000.0,,FEW,9900.0,,,,,,
KRDR,08-18-2011,05:00,METAR,,,0.0,,,9999.0,,17.0,16.0,29.90,1013.7,,,,,,,,,,,,,,,Clear,72000.0,,,73000.0,,,,,,
KRDR,08-18-2011,04:00,METAR,,230,4.0,,,9999.0,,17.0,16.0,29.90,1013.6,,,,,,,,,,,,,,,Clear,72000.0,,,73000.0,,,,,,
KRDR,08-18-2011,03:00,METAR,,230,6.0,,,9999.0,,18.0,15.0,29.90,1013.6,,,,,,,,,,,,,,,Clear,72000.0,,,73000.0,,,,,,
KRDR,08-18-2011,02:00,METAR,,230,4.0,,,9999.0,,20.0,16.0,29.89,1013.3,,,,,,,,,,,,,,,Clear,72000.0,,,73000.0,,,,,,
KRDR,08-18-2011,01:00,METAR,,240,4.0,,,9999.0,,24.0,16.0,29.89,1013.4,,,,,,,,,,,,,,,Clear,72000.0,,,73000.0,,,,,,
KRDR,08-18-2011,00:00,METAR,,270,6.0,,,9999.0,,26.0,14.0,29.91,1013.8,,,,,,,,,,,,,,,Clear,72000.0,,,73000.0,,,,,,
KRDR,08-17-2011,23:00,METAR,,270,7.0,,,9999.0,,27.0,13.0,29.92,1014.2,,,,,,,,,,,,,,,Clear,72000.0,,,73000.0,,,,,,
KRDR,08-17-2011,22:00,METAR,,280,10.0,,,9999.0,,27.0,12.0,29.93,1014.7,,,,,,,,,,,,,,,Clear,72000.0,,,73000.0,,,,,,
KRDR,08-17-2011,21:00,METAR,,300,13.0,18.0,,9999.0,,27.0,11.0,29.95,1015.1,,,,,,,,,,,,,,,Clear,72000.0,,,73000.0,,,,,,
KRDR,08-17-2011,20:00,METAR,,290,9.0,,,9999.0,,27.0,10.0,29.96,1015.5,,,,,,,,,,,,,,,Clear,72000.0,,,73000.0,,,,,,
KRDR,08-17-2011,19:00,METAR,,270,13.0,,,9999.0,,27.0,12.0,29.97,1015.8,,,,,,,,,,,,,,,Clear,72000.0,,,73000.0,,,,,,
KRDR,08-17-2011,18:00,METAR,,280,15.0,18.0,,9999.0,,26.0,11.0,29.98,1016.2,,,,,,,,,,,,,,,Clear,72000.0,,,73000.0,,,,,,
KRDR,08-17-2011,17:00,METAR,,270,13.0,,,9999.0,,25.0,12.0,29.99,1016.6,,,,,,,,,,,,,,,Clear,72000.0,,,73000.0,,,,,,
KRDR,08-17-2011,16:00,METAR,,280,12.0,,,9999.0,,24.0,11.0,30.00,1016.9,,,,,,,,,,,,,,,Clear,72000.0,,,73000.0,,,,,,
KRDR,08-17-2011,15:00,METAR,,270,13.0,,,9999.0,,22.0,11.0,30.00,1016.8,,,,,,,,,,,,,,,Clear,72000.0,,,73000.0,,,,,,
KRDR,08-17-2011,14:00,METAR,,270,10.0,,,9999.0,,19.0,11.0,30.00,1017.0,,,,,,,,,,,,,,,Clear,72000.0,,,73000.0,,,,,,
KRDR,08-17-2011,13:00,METAR,,270,9.0,,,9999.0,,16.0,10.0,30.00,1016.9,,,,,,,,,,,,,,,Clear,72000.0,,,73000.0,,,,,,
KRDR,08-17-2011,12:00,METAR,,260,8.0,,,9999.0,,13.0,10.0,30.00,1016.9,,,,,,,,,,,,,,.01 IN,Clear,72000.0,,,73000.0,,,,,,
KRDR,08-17-2011,11:00,METAR,,260,6.0,,,9999.0,,12.0,11.0,30.00,1016.7,,,,,,,,,,,,,,,Clear,72000.0,,,73000.0,,,,,,
KRDR,08-17-2011,10:00,METAR,,250,6.0,,,9999.0,,11.0,11.0,29.99,1016.5,,,,,,,,,,,,,,,Clear,72000.0,,,73000.0,,,,,,
KRDR,08-17-2011,09:00,METAR,,240,6.0,,,9999.0,,12.0,12.0,29.99,1016.4,,,,,,,,,,,,,,,Clear,72000.0,,,73000.0,,,,,,
KRDR,08-17-2011,08:00,METAR,,260,5.0,,,9999.0,,12.0,12.0,29.99,1016.4,,,,,,,,,,,,,,,Clear,72000.0,,,73000.0,,,,,,
KRDR,08-17-2011,07:00,METAR,,260,6.0,,,9999.0,,13.0,12.0,29.98,1016.2,,,,,,,,,,,,,,,Clear,72000.0,,,73000.0,,,,,,
KRDR,08-17-2011,06:00,METAR,,260,7.0,,,9999.0,,14.0,13.0,29.98,1016.0,,,,,,,,,,,,,,,Clear,72000.0,,,73000.0,,,,,,
KRDR,08-17-2011,05:00,METAR,,260,7.0,,,9999.0,,13.0,12.0,29.96,1015.4,,,,,,,,,,,,,,,Clear,72000.0,,,73000.0,,,,,,
KRDR,08-17-2011,04:00,METAR,,250,5.0,,,9999.0,,13.0,12.0,29.94,1014.9,,,,,,,,,,,,,,,Clear,72000.0,,,73000.0,,,,,,
KRDR,08-17-2011,03:00,METAR,,270,6.0,,,9999.0,,16.0,10.0,29.92,1014.3,,,,,,,,,,,,,,,Clear,72000.0,,,73000.0,,,,,,
KRDR,08-17-2011,02:00,METAR,,290,7.0,,,9999.0,,18.0,10.0,29.90,1013.5,,,,,,,,,,,,,,,Clear,72000.0,,,73000.0,,,,,,
KRDR,08-17-2011,01:00,METAR,,300,12.0,17.0,,9999.0,,21.0,9.0,29.88,1012.9,,,,,,,,,,,,,,,Clear,72000.0,,,73000.0,,,,,,
KRDR,08-17-2011,00:00,METAR,,300,14.0,21.0,,9999.0,,23.0,12.0,29.86,1012.3,,,,,,,,,,,,,,,Clear,72000.0,,,73000.0,,,,,,
KRDR,08-16-2011,23:00,METAR,,300,18.0,23.0,290/26KTS,9999.0,,24.0,13.0,29.85,1012.0,,,,,,,,,,,,,,,2/8 Mostly Clear,72000.0,,FEW,5000.0,,,,,,
KRDR,08-16-2011,22:00,METAR,,280,18.0,27.0,270/27KTS,9999.0,,25.0,15.0,29.84,1011.5,,,,,,,,,,,,,,,4/8 Partly Cloudy,72000.0,,SCT,4600.0,,,,,,
KRDR,08-16-2011,21:00,METAR,,290,18.0,27.0,280/27KTS,9999.0,,26.0,15.0,29.82,1010.9,,,,,,,,,,,,,,,2/8 Mostly Clear,72000.0,,FEW,4900.0,,,,,,
KRDR,08-16-2011,20:00,METAR,,270,18.0,24.0,270/27KTS,9999.0,,26.0,16.0,29.81,1010.5,,,,,,,,,,,,,,,2/8 Mostly Clear,72000.0,,FEW,4600.0,,,,,,
KRDR,08-16-2011,19:00,METAR,,280,17.0,23.0,,9999.0,,26.0,17.0,29.80,1010.2,,,,,,,,,,,,,,,2/8 Mostly Clear,72000.0,,FEW,4900.0,,,,,,
KRDR,08-16-2011,18:00,METAR,,280,19.0,24.0,,9999.0,,25.0,18.0,29.79,1009.8,,,,,,,,,,,,,.01 IN,,7/8 Mostly Cloudy,3500.0,,BKN,3600.0,BKN,4500.0,,,,
KRDR,08-16-2011,17:03,SPECI,,240,13.0,,,9999.0,,24.0,19.0,29.78,1009.5,,,,,,,,,,,,,,,4/8 Partly Cloudy,72000.0,,SCT,2800.0,,,,,,
KRDR,08-16-2011,17:00,METAR,,250,11.0,,,9999.0,,24.0,19.0,29.77,1009.4,,,,,,,,,,,,,,,7/8 Mostly Cloudy,2600.0,,BKN,2900.0,,,,,,
KRDR,08-16-2011,16:18,SPECI,,220,12.0,,,9999.0,,25.0,20.0,29.76,1008.9,,,,,,,,,,,,,,,7/8 Mostly Cloudy,2700.0,,SCT,2200.0,BKN,2700.0,,,,
KRDR,08-16-2011,16:00,METAR,,200,13.0,,,9999.0,,24.0,20.0,29.74,1008.3,,,,,,,,,,,,,,,Clear,72000.0,,,73000.0,,,,,,
KRDR,08-16-2011,15:00,METAR,,180,9.0,,,9999.0,,23.0,22.0,29.74,1008.4,,,,,,,,,,,,.01 IN,,,2/8 Mostly Clear,72000.0,,FEW,4800.0,,,,,,
KRDR,08-16-2011,14:00,METAR,,210,4.0,,,9999.0,,20.0,20.0,29.74,1008.3,,,,,,,,,,,,,,,7/8 Mostly Cloudy,12000.0,,BKN,12000.0,,,,,,
KRDR,08-16-2011,13:00,METAR,,100,3.0,,,9999.0,,20.0,20.0,29.70,1006.9,,,,,,,,,,,.01 IN,,,,8/8 Overcast,9500.0,,BKN,9400.0,OVC,12000.0,,,,
KRDR,08-16-2011,12:49,SPECI,,,0.0,,,9999.0,,20.0,20.0,29.70,1007.0,,,,,,,,,,,,,,,7/8 Mostly Cloudy,9500.0,,BKN,9400.0,BKN,11000.0,,,,
KRDR,08-16-2011,12:38,SPECI,,,0.0,,,9999.0,Light Drizzle,19.0,19.0,29.70,1007.0,51,,,,,,,,,,,,,,7/8 Mostly Cloudy,11000.0,,SCT,7900.0,BKN,11000.0,,,,
KRDR,08-16-2011,12:07,SPECI,,190,6.0,,,9999.0,,20.0,20.0,29.72,1007.7,,,,,,,,,,,,,,,7/8 Mostly Cloudy,8000.0,,BKN,7900.0,,,,,,
KRDR,08-16-2011,12:00,METAR,,210,11.0,,,9999.0,Light Rain,20.0,20.0,29.75,1008.7,61,,,,,,,,,,,,.04 IN,.04 IN,8/8 Overcast,6000.0,,FEW,7400.0,OVC,8900.0,,,,
KRDR,08-16-2011,11:37,SPECI,,200,14.0,,,9999.0,Thunderstorm and Rain or Snow Showers,20.0,20.0,29.77,1009.2,92,,,,,,,,,,,,,,8/8 Overcast,4900.0,,OVC,8900.0,,,,,,
KRDR,08-16-2011,11:00,METAR,,220,12.0,,,9999.0,Light Rain,23.0,18.0,29.76,1008.9,61,,,,,,,,,,TRACE,,,,7/8 Mostly Cloudy,4900.0,,BKN,5000.0,,,,,,
KRDR,08-16-2011,10:50,SPECI,,210,12.0,,,9999.0,Light Rain,23.0,18.0,29.76,1008.9,61,,,,,,,,,,,,,,7/8 Mostly Cloudy,4900.0,,BKN,5000.0,,,,,,
KRDR,08-16-2011,10:00,METAR,,190,12.0,,,9999.0,,22.0,22.0,29.74,1008.2,,,,,,,,,,,,,,,4/8 Partly Cloudy,72000.0,,FEW,9400.0,SCT,12000.0,,,,
KRDR,08-16-2011,09:00,METAR,,160,15.0,19.0,,9999.0,,22.0,22.0,29.72,1007.6,,,,,,,,,,,,,,,2/8 Mostly Clear,72000.0,,FEW,12000.0,,,,,,
KRDR,08-16-2011,08:00,METAR,,140,7.0,,,9999.0,,22.0,22.0,29.72,1007.8,,,,,,,,,,,,,,,2/8 Mostly Clear,72000.0,,FEW,4100.0,,,,,,
KRDR,08-16-2011,07:00,METAR,,160,7.0,,,9999.0,,22.0,22.0,29.76,1008.9,,,,,,,,,,,,,,,8/8 Overcast,4600.0,,SCT,4000.0,BKN,4700.0,OVC,6400.0,,
KRDR,08-16-2011,06:00,METAR,,150,7.0,,,9999.0,,22.0,22.0,29.76,1009.0,,,,,,,,,,,,,,,8/8 Overcast,6000.0,,SCT,4000.0,OVC,5900.0,,,,
KRDR,08-16-2011,05:00,METAR,,150,9.0,,,9999.0,,22.0,21.0,29.78,1009.6,,,,,,,,,,,,,,,7/8 Mostly Cloudy,6000.0,,BKN,5900.0,,,,,,
KRDR,08-16-2011,04:00,METAR,,150,10.0,,,9999.0,,22.0,21.0,29.80,1010.3,,,,,,,,,,,,,,,7/8 Mostly Cloudy,4900.0,,BKN,5000.0,,,,,,
KRDR,08-16-2011,03:00,METAR,,150,7.0,,,9999.0,,23.0,21.0,29.81,1010.7,,,,,,,,,,,,,,,4/8 Partly Cloudy,72000.0,,SCT,5000.0,,,,,,
KRDR,08-16-2011,02:00,METAR,,150,6.0,,,9999.0,,24.0,20.0,29.81,1010.7,,,,,,,,,,,,,,,8/8 Overcast,4900.0,,OVC,5000.0,,,,,,
KRDR,08-16-2011,01:00,METAR,,160,7.0,,,9999.0,,25.0,21.0,29.80,1010.2,,,,,,,,,,,,,,,Clear,72000.0,,,73000.0,,,,,,
KRDR,08-16-2011,00:00,METAR,,140,9.0,,,9999.0,,27.0,20.0,29.78,1009.7,,,,,,,,,,,,,,,4/8 Partly Cloudy,72000.0,,SCT,11000.0,,,,,,
KRDR,08-15-2011,23:00,METAR,,,0.0,,,9999.0,,28.0,21.0,29.78,1009.6,,,,,,,,,,,,,,,Clear,72000.0,,,73000.0,,,,,,
KRDR,08-15-2011,22:00,METAR,,210,8.0,,,9999.0,,28.0,21.0,29.79,1009.8,,,,,,,,,,,,,,,7/8 Mostly Cloudy,3600.0,,BKN,3700.0,,,,,,
KRDR,08-15-2011,21:00,METAR,,190,6.0,,,9999.0,,27.0,20.0,29.79,1009.9,,,,,,,,,,,,,,,8/8 Overcast,3300.0,,OVC,3400.0,,,,,,
KRDR,08-15-2011,20:04,SPECI,,150,6.0,,,9999.0,,26.0,21.0,29.79,1009.8,,,,,,,,,,,,,,,8/8 Overcast,3000.0,,OVC,3000.0,,,,,,
KRDR,08-15-2011,20:00,METAR,,170,8.0,,,9999.0,,26.0,21.0,29.79,1009.9,,,,,,,,,,,,,,,8/8 Overcast,2800.0,,OVC,2900.0,,,,,,
KRDR,08-15-2011,19:44,SPECI,,170,7.0,,,9999.0,,26.0,21.0,29.79,1009.9,,,,,,,,,,,,,,,8/8 Overcast,3100.0,,OVC,3100.0,,,,,,
KRDR,08-15-2011,19:38,SPECI,,170,10.0,,,9999.0,,26.0,21.0,29.80,1010.1,,,,,,,,,,,,,,,8/8 Overcast,2800.0,,OVC,2900.0,,,,,,
KRDR,08-15-2011,19:35,SPECI,,170,9.0,,,9999.0,,26.0,21.0,29.80,1010.1,,,,,,,,,,,,,,,8/8 Overcast,3000.0,,OVC,3000.0,,,,,,
KRDR,08-15-2011,19:25,SPECI,,160,7.0,,,9999.0,,26.0,21.0,29.80,1010.2,,,,,,,,,,,,,,,7/8 Mostly Cloudy,2700.0,,BKN,2800.0,BKN,3300.0,,,,
KRDR,08-15-2011,19:14,SPECI,,180,6.0,,,9999.0,,26.0,21.0,29.79,1010.1,,,,,,,,,,,,,,,7/8 Mostly Cloudy,3000.0,,BKN,3000.0,,,,,,
KRDR,08-15-2011,19:11,SPECI,,150,6.0,,,9999.0,,26.0,20.0,29.80,1010.1,,,,,,,,,,,,,,,7/8 Mostly Cloudy,2700.0,,BKN,2800.0,BKN,3600.0,,,,
KRDR,08-15-2011,19:00,METAR,,,3.0,,,9999.0,,26.0,20.0,29.80,1010.3,,,,,,,,,,,,,,,7/8 Mostly Cloudy,3500.0,,FEW,2500.0,BKN,3600.0,,,,
KRDR,08-15-2011,18:41,SPECI,,210,5.0,,,9999.0,,26.0,20.0,29.80,1010.4,,,,,,,,,,,,,,,8/8 Overcast,3500.0,,SCT,2500.0,OVC,3600.0,,,,
KRDR,08-15-2011,18:00,METAR,,180,11.0,,,9999.0,,24.0,21.0,29.81,1010.5,,,,,,,,,,,,,,,8/8 Overcast,2000.0,,OVC,2200.0,,,,,,
KRDR,08-15-2011,17:00,METAR,,160,14.0,,,9999.0,,24.0,21.0,29.81,1010.7,,,,,,,,,,,,,,,8/8 Overcast,1900.0,,OVC,2000.0,,,,,,
KRDR,08-15-2011,16:07,SPECI,,140,9.0,,,9999.0,,24.0,21.0,29.80,1010.2,,,,,,,,,,,,,,,7/8 Mostly Cloudy,1500.0,,BKN,1900.0,BKN,4200.0,,,,
KRDR,08-15-2011,16:00,METAR,,130,9.0,,,9999.0,,23.0,21.0,29.80,1010.1,,,,,,,,,,,,,,,8/8 Overcast,4100.0,,FEW,1500.0,OVC,4200.0,,,,
KRDR,08-15-2011,15:00,METAR,,150,8.0,,,9999.0,,22.0,22.0,29.81,1010.6,,,,,,,,,,,,,,,7/8 Mostly Cloudy,3800.0,,SCT,1300.0,BKN,3900.0,,,,
KRDR,08-15-2011,14:00,METAR,,150,6.0,,,9999.0,,20.0,20.0,29.80,1010.3,,,,,,,,,,,,,,,Clear,72000.0,,,73000.0,,,,,,
KRDR,08-15-2011,13:00,METAR,,120,5.0,,,9999.0,,18.0,18.0,29.84,1011.4,,,,,,,,,,,,,,,4/8 Partly Cloudy,72000.0,,FEW,6900.0,SCT,8900.0,,,,
KRDR,08-15-2011,12:00,METAR,,140,4.0,,,9999.0,,17.0,17.0,29.83,1011.1,,,,,,,,,,,,,,,Clear,72000.0,,,73000.0,,,,,,
KRDR,08-15-2011,11:00,METAR,,,0.0,,,9999.0,,17.0,17.0,29.83,1011.1,,,,,,,,,,,,,,,7/8 Mostly Cloudy,4700.0,,BKN,4800.0,,,,,,
KRDR,08-15-2011,10:00,METAR,,110,4.0,,,9999.0,,18.0,18.0,29.83,1011.2,,,,,,,,,,,,,,,8/8 Overcast,5500.0,,BKN,5400.0,OVC,7400.0,,,,
KRDR,08-15-2011,09:00,METAR,,130,4.0,,,9999.0,,18.0,18.0,29.83,1011.3,,,,,,,,,,,,,,,7/8 Mostly Cloudy,4900.0,,BKN,5000.0,,,,,,
KRDR,08-15-2011,08:00,METAR,,140,5.0,,,9999.0,,19.0,19.0,29.85,1011.9,,,,,,,,,,,,,,,7/8 Mostly Cloudy,4900.0,,BKN,5000.0,,,,,,
KRDR,08-15-2011,07:00,METAR,,110,5.0,,,9999.0,,19.0,19.0,29.86,1012.2,,,,,,,,,,,,,,,7/8 Mostly Cloudy,4900.0,,BKN,5000.0,,,,,,
KRDR,08-15-2011,06:00,METAR,,110,4.0,,,9999.0,,20.0,20.0,29.88,1012.7,,,,,,,,,,,,,,,7/8 Mostly Cloudy,6000.0,,BKN,5900.0,,,,,,
KRDR,08-15-2011,05:00,METAR,,170,4.0,,,9999.0,,20.0,20.0,29.87,1012.7,,,,,,,,,,,,,,,7/8 Mostly Cloudy,6000.0,,BKN,5900.0,,,,,,
KRDR,08-15-2011,04:00,METAR,,170,6.0,,,9999.0,,20.0,20.0,29.88,1013.0,,,,,,,,,,,,,,,7/8 Mostly Cloudy,9000.0,,SCT,6900.0,BKN,8900.0,,,,
KRDR,08-15-2011,03:00,METAR,,170,4.0,,,9999.0,,21.0,20.0,29.88,1013.0,,,,,,,,,,,,,,,8/8 Overcast,9000.0,,SCT,5900.0,OVC,8900.0,,,,
KRDR,08-15-2011,02:00,METAR,,190,3.0,,,9999.0,,21.0,19.0,29.88,1012.9,,,,,,,,,,,,,,,Clear,72000.0,,,73000.0,,,,,,
KRDR,08-15-2011,01:00,METAR,,200,6.0,,,9999.0,,25.0,19.0,29.89,1013.1,,,,,,,,,,,,,,,Clear,72000.0,,,73000.0,,,,,,
KRDR,08-15-2011,00:00,METAR,,190,9.0,,,9999.0,,26.0,18.0,29.90,1013.5,,,,,,,,,,,,,,,Clear,72000.0,,,73000.0,,,,,,
KRDR,08-14-2011,23:00,METAR,,200,10.0,,,9999.0,,27.0,18.0,29.91,1013.7,,,,,,,,,,,,,,,4/8 Partly Cloudy,72000.0,,SCT,4700.0,,,,,,
KRDR,08-14-2011,22:00,METAR,,180,11.0,,,9999.0,,27.0,18.0,29.91,1014.0,,,,,,,,,,,,,,,2/8 Mostly Clear,72000.0,,FEW,5000.0,,,,,,
KRDR,08-14-2011,21:00,METAR,,200,9.0,,,9999.0,,27.0,18.0,29.92,1014.3,,,,,,,,,,,,,,,2/8 Mostly Clear,72000.0,,FEW,4700.0,,,,,,
KRDR,08-14-2011,20:00,METAR,,170,9.0,,,9999.0,,27.0,17.0,29.93,1014.7,,,,,,,,,,,,,,,4/8 Partly Cloudy,72000.0,,SCT,4700.0,SCT,6400.0,,,,
KRDR,08-14-2011,19:00,METAR,,190,9.0,,,9999.0,,26.0,17.0,29.96,1015.4,,,,,,,,,,,,,,,2/8 Mostly Clear,72000.0,,FEW,4200.0,,,,,,
KRDR,08-14-2011,18:00,METAR,,200,10.0,,,9999.0,,26.0,18.0,29.97,1016.0,,,,,,,,,,,,,,,Clear,72000.0,,,73000.0,,,,,,
KRDR,08-14-2011,17:00,METAR,,200,6.0,,,9999.0,,25.0,18.0,29.98,1016.3,,,,,,,,,,,,,,,Clear,72000.0,,,73000.0,,,,,,
KRDR,08-14-2011,16:00,METAR,,210,5.0,,,9999.0,,24.0,18.0,30.00,1016.8,,,,,,,,,,,,,,,Clear,72000.0,,,73000.0,,,,,,
KRDR,08-14-2011,15:00,METAR,,220,6.0,,,9999.0,,23.0,17.0,30.01,1017.3,,,,,,,,,,,,,,,Clear,72000.0,,,73000.0,,,,,,
KRDR,08-14-2011,14:00,METAR,,230,4.0,,,9999.0,,21.0,19.0,30.03,1017.7,,,,,,,,,,,,,,,Clear,72000.0,,,73000.0,,,,,,
KRDR,08-14-2011,13:00,METAR,,230,4.0,,,9999.0,,17.0,17.0,30.03,1017.8,,,,,,,,,,,,,,,Clear,72000.0,,,73000.0,,,,,,
KRDR,08-14-2011,12:00,METAR,,220,4.0,,,9999.0,,14.0,14.0,30.03,1017.9,,,,,,,,,,,,,,,Clear,72000.0,,,73000.0,,,,,,
KRDR,08-14-2011,11:00,METAR,,,0.0,,,9999.0,,13.0,13.0,30.04,1018.2,,,,,,,,,,,,,,,Clear,72000.0,,,73000.0,,,,,,
KRDR,08-14-2011,10:00,METAR,,,0.0,,,9999.0,,14.0,14.0,30.04,1018.1,,,,,,,,,,,,,,,Clear,72000.0,,,73000.0,,,,,,
KRDR,08-14-2011,09:00,METAR,,230,3.0,,,9999.0,,15.0,15.0,30.04,1018.3,,,,,,,,,,,,,,,Clear,72000.0,,,73000.0,,,,,,
KRDR,08-14-2011,08:00,METAR,,240,3.0,,,9999.0,,13.0,13.0,30.04,1018.3,,,,,,,,,,,,,,,Clear,72000.0,,,73000.0,,,,,,
KRDR,08-14-2011,07:00,METAR,,,0.0,,,9999.0,,14.0,14.0,30.04,1018.3,,,,,,,,,,,,,,,Clear,72000.0,,,73000.0,,,,,,
KRDR,08-14-2011,06:00,METAR,,,0.0,,,9999.0,,14.0,14.0,30.06,1018.7,,,,,,,,,,,,,,,Clear,72000.0,,,73000.0,,,,,,
KRDR,08-14-2011,05:00,METAR,,220,3.0,,,9999.0,,15.0,15.0,30.06,1018.7,,,,,,,,,,,,,,,Clear,72000.0,,,73000.0,,,,,,
KRDR,08-14-2011,04:00,METAR,,,0.0,,,9999.0,,16.0,16.0,30.06,1018.8,,,,,,,,,,,,,,,Clear,72000.0,,,73000.0,,,,,,
KRDR,08-14-2011,03:00,METAR,,,0.0,,,9999.0,,17.0,17.0,30.06,1018.8,,,,,,,,,,,,,,,Clear,72000.0,,,73000.0,,,,,,
KRDR,08-14-2011,02:00,METAR,,,0.0,,,9999.0,,20.0,18.0,30.06,1018.7,,,,,,,,,,,,,,,Clear,72000.0,,,73000.0,,,,,,
KRDR,08-14-2011,01:00,METAR,,330,3.0,,,9999.0,,23.0,17.0,30.05,1018.6,,,,,,,,,,,,,,,Clear,72000.0,,,73000.0,,,,,,
KRDR,08-14-2011,00:00,METAR,,340,4.0,,,9999.0,,25.0,15.0,30.05,1018.6,,,,,,,,,,,,,,,Clear,72000.0,,,73000.0,,,,,,
KRDR,08-13-2011,23:00,METAR,,40,4.0,,,9999.0,,25.0,14.0,30.06,1018.7,,,,,,,,,,,,,,,Clear,72000.0,,,73000.0,,,,,,
KRDR,08-13-2011,22:00,METAR,,320,4.0,,,9999.0,,25.0,15.0,30.07,1019.0,,,,,,,,,,,,,,,Clear,72000.0,,,73000.0,,,,,,
KRDR,08-13-2011,21:00,METAR,,340,6.0,,,9999.0,,25.0,17.0,30.08,1019.4,,,,,,,,,,,,,,,Clear,72000.0,,,73000.0,,,,,,
KRDR,08-13-2011,20:00,METAR,,,0.0,,,9999.0,,24.0,17.0,30.09,1019.7,,,,,,,,,,,,,,,Clear,72000.0,,,73000.0,,,,,,
KRDR,08-13-2011,19:00,METAR,,,4.0,,,9999.0,,23.0,17.0,30.09,1019.8,,,,,,,,,,,,,,,2/8 Mostly Clear,72000.0,,FEW,2600.0,,,,,,
KRDR,08-13-2011,18:14,SPECI,,20,6.0,,,9999.0,,23.0,18.0,30.09,1019.8,,,,,,,,,,,,,,,4/8 Partly Cloudy,72000.0,,SCT,2300.0,,,,,,
KRDR,08-13-2011,18:11,SPECI,,10,6.0,,,9999.0,,23.0,18.0,30.09,1019.8,,,,,,,,,,,,,,,7/8 Mostly Cloudy,2200.0,,BKN,2300.0,,,,,,
KRDR,08-13-2011,18:04,SPECI,,60,5.0,,,9999.0,,23.0,18.0,30.09,1019.8,,,,,,,,,,,,,,,4/8 Partly Cloudy,72000.0,,SCT,2300.0,,,,,,
KRDR,08-13-2011,18:00,METAR,,,4.0,,,9999.0,,22.0,18.0,30.09,1019.9,,,,,,,,,,,,,,,7/8 Mostly Cloudy,2200.0,,BKN,2200.0,,,,,,
KRDR,08-13-2011,17:18,SPECI,,60,8.0,,,9999.0,,22.0,18.0,30.09,1019.7,,,,,,,,,,,,,,,7/8 Mostly Cloudy,2000.0,,BKN,2200.0,,,,,,
KRDR,08-13-2011,17:16,SPECI,,,5.0,,,9999.0,,21.0,18.0,30.09,1019.7,,,,,,,,,,,,,,,4/8 Partly Cloudy,72000.0,,SCT,2200.0,,,,,,
KRDR,08-13-2011,17:07,SPECI,,50,7.0,,,9999.0,,22.0,18.0,30.09,1019.7,,,,,,,,,,,,,,,7/8 Mostly Cloudy,2100.0,,BKN,2100.0,,,,,,
KRDR,08-13-2011,17:00,METAR,,30,5.0,,,9999.0,,22.0,18.0,30.08,1019.6,,,,,,,,,,,,,,,4/8 Partly Cloudy,72000.0,,SCT,2000.0,,,,,,
KRDR,08-13-2011,16:00,METAR,,,6.0,,,9999.0,,21.0,18.0,30.07,1019.2,,,,,,,,,,,,,,,Clear,72000.0,,,73000.0,,,,,,
KRDR,08-13-2011,15:00,METAR,,340,7.0,,,9999.0,,18.0,18.0,30.06,1019.0,,,,,,,,,,,,,,,Clear,72000.0,,,73000.0,,,,,,
KRDR,08-13-2011,14:00,METAR,,350,7.0,,,9999.0,,16.0,16.0,30.05,1018.6,,,,,,,,,,,,,,,Clear,72000.0,,,73000.0,,,,,,
KRDR,08-13-2011,13:00,METAR,,350,7.0,,,9999.0,,14.0,14.0,30.04,1018.1,,,,,,,,,,,,,,,Clear,72000.0,,,73000.0,,,,,,
KRDR,08-13-2011,12:00,METAR,,350,5.0,,,9999.0,,13.0,13.0,30.03,1017.7,,,,,,,,,,,,,,.44 IN,Clear,72000.0,,,73000.0,,,,,,
KRDR,08-13-2011,11:00,METAR,,350,7.0,,,9999.0,,13.0,13.0,30.01,1017.3,,,,,,,,,,,,,,,Clear,72000.0,,,73000.0,,,,,,
KRDR,08-13-2011,10:00,METAR,,350,6.0,,,9999.0,,14.0,14.0,29.99,1016.5,,,,,,,,,,,,,,,Clear,72000.0,,,73000.0,,,,,,
KRDR,08-13-2011,09:00,METAR,,360,6.0,,,9999.0,,14.0,14.0,29.97,1016.0,,,,,,,,,,,,,,,Clear,72000.0,,,73000.0,,,,,,
KRDR,08-13-2011,08:00,METAR,,350,8.0,,,9999.0,,15.0,15.0,29.96,1015.5,,,,,,,,,,,,,,,Clear,72000.0,,,73000.0,,,,,,
KRDR,08-13-2011,07:00,METAR,,10,7.0,,,9999.0,,16.0,16.0,29.95,1015.3,,,,,,,,,,,,,,,Clear,72000.0,,,73000.0,,,,,,
KRDR,08-13-2011,06:00,METAR,,360,6.0,,,9999.0,,17.0,17.0,29.94,1014.8,,,,,,,,,,,,,.32 IN,,2/8 Mostly Clear,72000.0,,FEW,5900.0,,,,,,
KRDR,08-13-2011,05:00,METAR,,,0.0,,,9999.0,,16.0,16.0,29.93,1014.5,,,,,,,,,,,,,,,Clear,72000.0,,,73000.0,,,,,,
KRDR,08-13-2011,04:00,METAR,,340,6.0,,,9999.0,,16.0,16.0,29.92,1014.0,,,,,,,,,,,,,,,Clear,72000.0,,,73000.0,,,,,,
KRDR,08-13-2011,03:00,METAR,,310,5.0,,,9999.0,,16.0,16.0,29.92,1014.1,,,,,,,,,,,TRACE,.32 IN,,,Clear,72000.0,,,73000.0,,,,,,
KRDR,08-13-2011,02:05,SPECI,,320,3.0,,,9999.0,,17.0,17.0,29.90,1013.5,,,,,,,,,,,,,,,2/8 Mostly Clear,72000.0,,FEW,3300.0,,,,,,
KRDR,08-13-2011,02:00,METAR,,300,4.0,,,9999.0,Light Rain,17.0,17.0,29.90,1013.4,61,,,,,,,,,,.05 IN,,,,4/8 Partly Cloudy,72000.0,,SCT,4200.0,,,,,,
KRDR,08-13-2011,01:47,SPECI,,310,7.0,,,9999.0,Light Rain,17.0,17.0,29.90,1013.5,61,,,,,,,,,,,,,,7/8 Mostly Cloudy,4100.0,,BKN,4200.0,,,,,,
KRDR,08-13-2011,01:32,SPECI,,300,6.0,,,9999.0,Thunderstorm and Rain or Snow Showers/Mist,17.0,17.0,29.89,1013.1,92,10,,,,,,,,,,,,,7/8 Mostly Cloudy,4900.0,,BKN,5000.0,,,,,,
KRDR,08-13-2011,01:00,METAR,,,0.0,,,6400.0,Rain/Mist,17.0,17.0,29.89,1013.3,62,10,,,,,,,,,.27 IN,,,,8/8 Overcast,4000.0,,OVC,4100.0,,,,,,
KRDR,08-13-2011,00:46,SPECI,,150,8.0,,,4800.0,Thunderstorm and Rain or Snow Showers/Mist,17.0,17.0,29.88,1013.0,92,10,,,,,,,,,,,,,8/8 Overcast,3600.0,,OVC,3700.0,,,,,,
KRDR,08-13-2011,00:39,SPECI,,60,8.0,,,3200.0,Heavy Thunderstorm and Rain or Snow Showers/Mist,17.0,17.0,29.88,1012.8,95,10,,,,,,,,,,,,,8/8 Overcast,3100.0,,OVC,3100.0,,,,,,
KRDR,08-13-2011,00:38,SPECI,,50,9.0,,,3200.0,Heavy Thunderstorm and Rain or Snow Showers/Mist,17.0,17.0,29.88,1012.8,95,10,,,,,,,,,,,,,8/8 Overcast,2900.0,,OVC,2900.0,,,,,,
KRDR,08-13-2011,00:37,SPECI,,50,8.0,,,2800.0,Heavy Thunderstorm and Rain or Snow Showers/Mist,17.0,17.0,29.88,1012.8,95,10,,,,,,,,,,,,,8/8 Overcast,2900.0,,OVC,2900.0,,,,,,
KRDR,08-13-2011,00:30,SPECI,,60,7.0,,,2400.0,Heavy Rain/Mist,18.0,18.0,29.86,1012.3,63,10,,,,,,,,,,,,,7/8 Mostly Cloudy,2600.0,,BKN,2600.0,BKN,3400.0,,,,
KRDR,08-13-2011,00:26,SPECI,,60,9.0,20.0,,2000.0,Heavy Rain/Mist,18.0,18.0,29.86,1012.2,63,10,,,,,,,,,,,,,7/8 Mostly Cloudy,2400.0,,BKN,2400.0,BKN,3300.0,,,,
KRDR,08-13-2011,00:23,SPECI,,60,10.0,20.0,,2000.0,Heavy Rain/Mist,19.0,19.0,29.86,1012.3,63,10,,,,,,,,,,,,,7/8 Mostly Cloudy,3200.0,,SCT,2200.0,BKN,3300.0,BKN,5400.0,,
KRDR,08-13-2011,00:21,SPECI,,60,13.0,20.0,,2800.0,Heavy Rain/Mist,19.0,19.0,29.86,1012.3,63,10,,,,,,,,,,,,,7/8 Mostly Cloudy,3200.0,,SCT,2300.0,BKN,3300.0,BKN,5400.0,,
KRDR,08-13-2011,00:19,SPECI,,70,16.0,20.0,,4000.0,Light Rain/Mist,19.0,19.0,29.87,1012.5,61,10,,,,,,,,,,,,,7/8 Mostly Cloudy,3200.0,,FEW,2500.0,BKN,3300.0,BKN,5000.0,,
KRDR,08-13-2011,00:00,METAR,,290,7.0,,,9999.0,Light Rain,19.0,19.0,29.84,1011.6,61,,,,,,,,,,.12 IN,,.12 IN,,7/8 Mostly Cloudy,4800.0,,BKN,4900.0,,,,,,
KRDR,08-12-2011,23:18,SPECI,,10,7.0,,,6400.0,Rain/Mist,19.0,19.0,29.84,1011.6,62,10,,,,,,,,,,,,,8/8 Overcast,3600.0,,FEW,2900.0,OVC,3700.0,,,,
KRDR,08-12-2011,23:17,SPECI,,10,8.0,,,4800.0,Thunderstorm and Rain or Snow Showers/Mist,19.0,19.0,29.84,1011.6,92,10,,,,,,,,,,,,,8/8 Overcast,3600.0,,FEW,2900.0,OVC,3700.0,,,,
KRDR,08-12-2011,23:15,SPECI,,10,8.0,,,3200.0,Heavy Thunderstorm and Rain or Snow Showers/Mist,19.0,19.0,29.84,1011.6,95,10,,,,,,,,,,,,,8/8 Overcast,3100.0,,OVC,3200.0,,,,,,
KRDR,08-12-2011,23:08,SPECI,,60,11.0,,,4000.0,Heavy Thunderstorm and Rain or Snow Showers/Mist,20.0,19.0,29.84,1011.6,95,10,,,,,,,,,,,,,8/8 Overcast,2900.0,,SCT,2200.0,BKN,2900.0,OVC,5400.0,,
KRDR,08-12-2011,23:02,SPECI,,70,12.0,21.0,,9999.0,Thunderstorm and Rain or Snow Showers,22.0,18.0,29.85,1011.9,92,,,,,,,,,,,,,,7/8 Mostly Cloudy,3400.0,,FEW,2800.0,BKN,3500.0,BKN,4400.0,,
KRDR,08-12-2011,23:00,METAR,,30,7.0,,,9999.0,Dry Thunderstorm,23.0,19.0,29.84,1011.6,91,,,,,,,,,,,,,,4/8 Partly Cloudy,72000.0,,FEW,3500.0,SCT,4400.0,SCT,5400.0,,
KRDR,08-12-2011,22:00,METAR,,30,7.0,,,9999.0,,24.0,18.0,29.84,1011.5,,,,,,,,,,,,,,,4/8 Partly Cloudy,72000.0,,SCT,4900.0,SCT,5900.0,,,,
KRDR,08-12-2011,21:00,METAR,,60,7.0,,,9999.0,,25.0,17.0,29.82,1010.8,,,,,,,,,,,,,,,Clear,72000.0,,,73000.0,,,,,,
KRDR,08-12-2011,20:00,METAR,,60,10.0,,,9999.0,,26.0,16.0,29.82,1011.0,,,,,,,,,,,,,,,2/8 Mostly Clear,72000.0,,FEW,4600.0,,,,,,
KRDR,08-12-2011,19:00,METAR,,50,4.0,,,9999.0,,25.0,17.0,29.85,1011.8,,,,,,,,,,,,,,,Clear,72000.0,,,73000.0,,,,,,
KRDR,08-12-2011,18:00,METAR,,,5.0,,,9999.0,,25.0,16.0,29.86,1012.3,,,,,,,,,,,,,,,Clear,6000.0,,,73000.0,,,,,,
KRDR,08-12-2011,15:00,METAR,,,0.0,,,9999.0,,20.0,18.0,29.86,1012.2,,,,,,,,,,,,,,,Clear,72000.0,,,73000.0,,,,,,
KRDR,08-12-2011,14:00,METAR,,210,3.0,,,,,20.0,16.0,29.86,,,,,,,,,,,,,,,,4/8 Partly Cloudy,72000.0,,FEW,12000.0,SCT,20000.0,,,,
KRDR,08-12-2011,13:00,METAR,,,0.0,,,9999.0,,16.0,16.0,29.84,1011.6,,,,,,,,,,,,,,,Clear,72000.0,,,73000.0,,,,,,
KRDR,08-12-2011,12:00,METAR,,,0.0,,,9999.0,,11.0,11.0,29.83,1011.1,,,,,,,,,,,,,,,Clear,72000.0,,,73000.0,,,,,,
KRDR,08-12-2011,11:00,METAR,,,0.0,,,9999.0,,12.0,12.0,29.80,1010.1,,,,,,,,,,,,,,,Clear,72000.0,,,73000.0,,,,,,
KRDR,08-12-2011,10:00,METAR,,,0.0,,,9999.0,,13.0,13.0,29.80,1010.3,,,,,,,,,,,,,,,Clear,72000.0,,,73000.0,,,,,,
KRDR,08-12-2011,09:00,METAR,,220,5.0,,,9999.0,,13.0,13.0,29.81,1010.6,,,,,,,,,,,,,,,Clear,72000.0,,,73000.0,,,,,,
KRDR,08-12-2011,08:00,METAR,,250,3.0,,,9999.0,,13.0,13.0,29.81,1010.6,,,,,,,,,,,,,,,Clear,72000.0,,,73000.0,,,,,,
KRDR,08-12-2011,07:00,METAR,,,0.0,,,9999.0,,13.0,13.0,29.81,1010.7,,,,,,,,,,,,,,,4/8 Partly Cloudy,72000.0,,SCT,11000.0,,,,,,
KRDR,08-12-2011,06:00,METAR,,,0.0,,,9999.0,,14.0,14.0,29.82,1010.9,,,,,,,,,,,,,,,Clear,72000.0,,,73000.0,,,,,,
KRDR,08-12-2011,05:00,METAR,,,0.0,,,9999.0,,17.0,17.0,29.83,1011.1,,,,,,,,,,,,,,,Clear,72000.0,,,73000.0,,,,,,
KRDR,08-12-2011,04:00,METAR,,,0.0,,,9999.0,,18.0,17.0,29.82,1010.8,,,,,,,,,,,,,,,4/8 Partly Cloudy,72000.0,,SCT,12000.0,,,,,,
KRDR,08-12-2011,03:00,METAR,,220,6.0,,,9999.0,,18.0,18.0,29.81,1010.5,,,,,,,,,,,,,,,7/8 Mostly Cloudy,12000.0,,BKN,12000.0,,,,,,
KRDR,08-12-2011,02:00,METAR,,230,5.0,,,9999.0,,20.0,16.0,29.80,1010.3,,,,,,,,,,,,,,,2/8 Mostly Clear,72000.0,,FEW,12000.0,,,,,,
KRDR,08-12-2011,01:00,METAR,,180,8.0,,,9999.0,,20.0,16.0,29.80,1010.3,,,,,,,,,,,,,,,8/8 Overcast,12000.0,,OVC,12000.0,,,,,,
KRDR,08-12-2011,00:00,METAR,,250,7.0,,,9999.0,,22.0,15.0,29.79,1010.0,,,,,,,,,,,,,,,Clear,72000.0,,,73000.0,,,,,,
KRDR,08-11-2011,23:00,METAR,,260,5.0,,,9999.0,,24.0,18.0,29.80,1010.4,,,,,,,,,,,,,,,2/8 Mostly Clear,72000.0,,FEW,8900.0,,,,,,
KRDR,08-11-2011,22:00,METAR,,270,5.0,,,9999.0,,25.0,17.0,29.78,1009.8,,,,,,,,,,,,,,,Clear,72000.0,,,73000.0,,,,,,
KRDR,08-11-2011,21:00,METAR,,250,8.0,,,9999.0,,27.0,17.0,29.77,1009.4,,,,,,,,,,,,,,,Clear,72000.0,,,73000.0,,,,,,
KRDR,08-11-2011,20:00,METAR,,220,6.0,,,9999.0,,24.0,19.0,29.80,1010.3,,,,,,,,,,,,,,,4/8 Partly Cloudy,72000.0,,SCT,9900.0,,,,,,
KRDR,08-11-2011,19:00,METAR,,120,6.0,,,9999.0,,22.0,19.0,29.80,1010.3,,,,,,,,,,,,,,,8/8 Overcast,10000.0,,OVC,9900.0,,,,,,
KRDR,08-11-2011,18:00,METAR,,120,5.0,,,9999.0,,22.0,19.0,29.82,1010.8,,,,,,,,,,,,,TRACE,,8/8 Overcast,9500.0,,FEW,4700.0,OVC,9400.0,,,,
KRDR,08-11-2011,17:00,METAR,,,0.0,,,9999.0,,22.0,18.0,29.82,1011.0,,,,,,,,,,,,,,,8/8 Overcast,9000.0,,OVC,8900.0,,,,,,
KRDR,08-11-2011,16:00,METAR,,180,6.0,,,9999.0,,21.0,18.0,29.81,1010.5,,,,,,,,,,,,,,,8/8 Overcast,10000.0,,OVC,9900.0,,,,,,
KRDR,08-11-2011,15:00,METAR,,170,4.0,,,9999.0,,20.0,17.0,29.81,1010.5,,,,,,,,,,,TRACE,0 IN,,,8/8 Overcast,10000.0,,OVC,9900.0,,,,,,
KRDR,08-11-2011,14:26,SPECI,,190,3.0,,,9999.0,,20.0,16.0,29.80,1010.4,,,,,,,,,,,,,,,8/8 Overcast,9000.0,,FEW,5400.0,BKN,8900.0,OVC,9900.0,,
KRDR,08-11-2011,14:16,SPECI,,230,5.0,,,9999.0,Light Rain,20.0,16.0,29.81,1010.4,61,,,,,,,,,,,,,,8/8 Overcast,10000.0,,SCT,7400.0,SCT,8900.0,OVC,9900.0,,
KRDR,08-11-2011,14:00,METAR,,230,6.0,,,9999.0,,20.0,16.0,29.80,1010.4,,,,,,,,,,,,,,,7/8 Mostly Cloudy,11000.0,,FEW,6400.0,BKN,11000.0,,,,
KRDR,08-11-2011,13:00,METAR,,230,7.0,,,9999.0,,19.0,16.0,29.80,1010.1,,,,,,,,,,,,,,,Clear,72000.0,,,73000.0,,,,,,
KRDR,08-11-2011,12:00,METAR,,240,6.0,,,9999.0,,17.0,15.0,29.80,1010.3,,,,,,,,,,,,,,,Clear,72000.0,,,73000.0,,,,,,
KRDR,08-11-2011,11:00,METAR,,290,9.0,,,9999.0,,16.0,15.0,29.81,1010.5,,,,,,,,,,,,,,,4/8 Partly Cloudy,72000.0,,SCT,8900.0,,,,,,
KRDR,08-11-2011,10:00,METAR,,220,7.0,,,9999.0,,15.0,14.0,29.81,1010.4,,,,,,,,,,,,,,,2/8 Mostly Clear,72000.0,,FEW,8900.0,,,,,,
KRDR,08-11-2011,09:00,METAR,,210,6.0,,,9999.0,,15.0,15.0,29.81,1010.5,,,,,,,,,,,,,,,Clear,72000.0,,,73000.0,,,,,,
KRDR,08-11-2011,08:00,METAR,,230,5.0,,,9999.0,,15.0,15.0,29.81,1010.6,,,,,,,,,,,,,,,Clear,72000.0,,,73000.0,,,,,,
KRDR,08-11-2011,07:00,METAR,,230,6.0,,,9999.0,,15.0,15.0,29.81,1010.6,,,,,,,,,,,,,,,Clear,72000.0,,,73000.0,,,,,,
KRDR,08-11-2011,06:00,METAR,,230,5.0,,,9999.0,,16.0,16.0,29.82,1010.8,,,,,,,,,,,,,,,Clear,72000.0,,,73000.0,,,,,,
KRDR,08-11-2011,05:00,METAR,,230,4.0,,,9999.0,,17.0,16.0,29.82,1010.8,,,,,,,,,,,,,,,Clear,72000.0,,,73000.0,,,,,,
KRDR,08-11-2011,04:00,METAR,,230,3.0,,,9999.0,,17.0,16.0,29.82,1010.9,,,,,,,,,,,,,,,Clear,72000.0,,,73000.0,,,,,,
KRDR,08-11-2011,03:00,METAR,,220,3.0,,,9999.0,,18.0,16.0,29.82,1010.8,,,,,,,,,,,,,,,Clear,72000.0,,,73000.0,,,,,,
KRDR,08-11-2011,02:00,METAR,,230,3.0,,,9999.0,,21.0,15.0,29.81,1010.4,,,,,,,,,,,,,,,Clear,72000.0,,,73000.0,,,,,,
KRDR,08-11-2011,01:00,METAR,,260,3.0,,,9999.0,,25.0,15.0,29.80,1010.3,,,,,,,,,,,,,,,Clear,72000.0,,,73000.0,,,,,,
KRDR,08-11-2011,00:00,METAR,,290,4.0,,,9999.0,,26.0,13.0,29.81,1010.4,,,,,,,,,,,,,,,Clear,72000.0,,,73000.0,,,,,,
KRDR,08-10-2011,23:00,METAR,,290,6.0,,,9999.0,,27.0,12.0,29.82,1010.8,,,,,,,,,,,,,,,Clear,72000.0,,,73000.0,,,,,,
KRDR,08-10-2011,22:00,METAR,,280,6.0,,,9999.0,,27.0,11.0,29.83,1011.2,,,,,,,,,,,,,,,Clear,72000.0,,,73000.0,,,,,,
KRDR,08-10-2011,21:00,METAR,,280,9.0,16.0,,9999.0,,27.0,13.0,29.84,1011.4,,,,,,,,,,,,,,,Clear,72000.0,,,73000.0,,,,,,
KRDR,08-10-2011,20:00,METAR,,310,6.0,,,9999.0,,27.0,14.0,29.85,1011.8,,,,,,,,,,,,,,,2/8 Mostly Clear,72000.0,,FEW,6900.0,,,,,,
KRDR,08-10-2011,19:00,METAR,,290,8.0,16.0,,9999.0,,27.0,14.0,29.85,1012.0,,,,,,,,,,,,,,,2/8 Mostly Clear,72000.0,,FEW,5900.0,,,,,,
KRDR,08-10-2011,18:00,METAR,,310,4.0,,,9999.0,,26.0,15.0,29.86,1012.3,,,,,,,,,,,,,,,Clear,72000.0,,,73000.0,,,,,,
KRDR,08-10-2011,17:00,METAR,,,0.0,,,9999.0,,25.0,15.0,29.87,1012.5,,,,,,,,,,,,,,,Clear,72000.0,,,73000.0,,,,,,
KRDR,08-10-2011,16:00,METAR,,300,3.0,,,9999.0,,24.0,16.0,29.86,1012.4,,,,,,,,,,,,,,,Clear,72000.0,,,73000.0,,,,,,
KRDR,08-10-2011,15:00,METAR,,320,4.0,,,9999.0,,22.0,16.0,29.86,1012.3,,,,,,,,,,,,,,,Clear,72000.0,,,73000.0,,,,,,
KRDR,08-10-2011,14:00,METAR,,300,5.0,,,9999.0,,19.0,17.0,29.86,1012.3,,,,,,,,,,,,,,,Clear,72000.0,,,73000.0,,,,,,
KRDR,08-10-2011,13:00,METAR,,290,3.0,,,9999.0,,17.0,17.0,29.86,1012.1,,,,,,,,,,,,,,,Clear,72000.0,,,73000.0,,,,,,
KRDR,08-10-2011,12:00,METAR,,270,3.0,,,9999.0,,13.0,13.0,29.85,1011.7,,,,,,,,,,,,,,,Clear,72000.0,,,73000.0,,,,,,
KRDR,08-10-2011,11:00,METAR,,280,3.0,,,9999.0,,13.0,13.0,29.84,1011.6,,,,,,,,,,,,,,,Clear,72000.0,,,73000.0,,,,,,
KRDR,08-10-2011,10:00,METAR,,280,5.0,,,9999.0,,15.0,15.0,29.84,1011.6,,,,,,,,,,,,,,,4/8 Partly Cloudy,72000.0,,SCT,6900.0,,,,,,
KRDR,08-10-2011,09:00,METAR,,280,5.0,,,9999.0,,13.0,13.0,29.84,1011.7,,,,,,,,,,,,,,,Clear,72000.0,,,73000.0,,,,,,
KRDR,08-10-2011,08:00,METAR,,280,6.0,,,9999.0,,13.0,13.0,29.85,1011.8,,,,,,,,,,,,,,,Clear,72000.0,,,73000.0,,,,,,
KRDR,08-10-2011,07:00,METAR,,,0.0,,,9999.0,,13.0,13.0,29.85,1012.0,,,,,,,,,,,,,,,Clear,72000.0,,,73000.0,,,,,,
KRDR,08-10-2011,06:00,METAR,,220,4.0,,,9999.0,,14.0,14.0,29.86,1012.2,,,,,,,,,,,,,,,Clear,72000.0,,,73000.0,,,,,,
KRDR,08-10-2011,05:00,METAR,,280,3.0,,,9999.0,,13.0,13.0,29.86,1012.2,,,,,,,,,,,,,,,Clear,72000.0,,,73000.0,,,,,,
KRDR,08-10-2011,04:00,METAR,,290,3.0,,,9999.0,,14.0,14.0,29.86,1012.1,,,,,,,,,,,,,,,Clear,72000.0,,,73000.0,,,,,,
KRDR,08-10-2011,03:00,METAR,,,0.0,,,9999.0,,17.0,16.0,29.85,1011.9,,,,,,,,,,,,,,,Clear,72000.0,,,73000.0,,,,,,
KRDR,08-10-2011,02:00,METAR,,,0.0,,,9999.0,,18.0,16.0,29.84,1011.5,,,,,,,,,,,,,,,Clear,72000.0,,,73000.0,,,,,,
KRDR,08-10-2011,01:00,METAR,,340,3.0,,,9999.0,,21.0,15.0,29.83,1011.3,,,,,,,,,,,,,,,Clear,72000.0,,,73000.0,,,,,,
KRDR,08-10-2011,00:00,METAR,,350,7.0,,,9999.0,,22.0,13.0,29.83,1011.3,,,,,,,,,,,,,,,Clear,72000.0,,,73000.0,,,,,,
KRDR,08-09-2011,23:00,METAR,,20,7.0,,,9999.0,,23.0,13.0,29.83,1011.1,,,,,,,,,,,,,,,Clear,72000.0,,,73000.0,,,,,,
KRDR,08-09-2011,22:00,METAR,,10,9.0,,,9999.0,,22.0,13.0,29.83,1011.2,,,,,,,,,,,,,,,4/8 Partly Cloudy,72000.0,,FEW,5900.0,SCT,8900.0,,,,
KRDR,08-09-2011,21:00,METAR,,10,8.0,,,9999.0,,22.0,13.0,29.84,1011.4,,,,,,,,,,,,,,,2/8 Mostly Clear,72000.0,,FEW,6900.0,,,,,,
KRDR,08-09-2011,20:00,METAR,,320,11.0,,,9999.0,,23.0,13.0,29.84,1011.6,,,,,,,,,,,,,,,2/8 Mostly Clear,72000.0,,FEW,5000.0,,,,,,
KRDR,08-09-2011,19:00,METAR,,350,10.0,17.0,,9999.0,,23.0,13.0,29.85,1011.9,,,,,,,,,,,,,,,Clear,72000.0,,,73000.0,,,,,,
KRDR,08-09-2011,18:00,METAR,,340,13.0,,,9999.0,,21.0,13.0,29.86,1012.2,,,,,,,,,,,,,,,2/8 Mostly Clear,72000.0,,FEW,3800.0,,,,,,
KRDR,08-09-2011,17:00,METAR,,360,12.0,,,9999.0,,21.0,13.0,29.86,1012.3,,,,,,,,,,,,,,,4/8 Partly Cloudy,72000.0,,SCT,3600.0,,,,,,
KRDR,08-09-2011,16:00,METAR,,360,11.0,18.0,,9999.0,,19.0,13.0,29.86,1012.3,,,,,,,,,,,,,,,4/8 Partly Cloudy,72000.0,,SCT,3600.0,,,,,,
KRDR,08-09-2011,15:00,METAR,,10,14.0,17.0,,9999.0,,18.0,13.0,29.85,1011.7,,,,,,,,,,,,,,,Clear,72000.0,,,73000.0,,,,,,
KRDR,08-09-2011,14:00,METAR,,360,14.0,21.0,,9999.0,,17.0,13.0,29.83,1011.3,,,,,,,,,,,,,,,Clear,72000.0,,,73000.0,,,,,,
KRDR,08-09-2011,13:00,METAR,,360,17.0,22.0,,9999.0,,16.0,14.0,29.82,1010.8,,,,,,,,,,,,,,,Clear,72000.0,,,73000.0,,,,,,
KRDR,08-09-2011,12:00,METAR,,340,8.0,,,9999.0,,14.0,14.0,29.79,1009.8,,,,,,,,,,,,,,,2/8 Mostly Clear,72000.0,,FEW,2000.0,,,,,,
KRDR,08-09-2011,11:42,SPECI,,350,7.0,,,9999.0,,14.0,14.0,29.78,1009.7,,,,,,,,,,,,,,,4/8 Partly Cloudy,72000.0,,SCT,2100.0,SCT,2800.0,,,,
KRDR,08-09-2011,11:27,SPECI,,350,8.0,,,9999.0,,14.0,14.0,29.78,1009.5,,,,,,,,,,,,,,,7/8 Mostly Cloudy,2100.0,,BKN,2500.0,,,,,,
KRDR,08-09-2011,11:12,SPECI,,350,9.0,,,9999.0,,15.0,15.0,29.77,1009.3,,,,,,,,,,,,,,,4/8 Partly Cloudy,72000.0,,SCT,2200.0,,,,,,
KRDR,08-09-2011,11:07,SPECI,,350,9.0,,,9999.0,,15.0,15.0,29.77,1009.3,,,,,,,,,,,,,,,7/8 Mostly Cloudy,1900.0,,BKN,2200.0,,,,,,
KRDR,08-09-2011,11:02,SPECI,,350,11.0,,,9999.0,,15.0,15.0,29.77,1009.2,,,,,,,,,,,,,,,4/8 Partly Cloudy,72000.0,,SCT,2200.0,,,,,,
KRDR,08-09-2011,11:00,METAR,,350,12.0,,,9999.0,,15.0,15.0,29.76,1008.9,,,,,,,,,,,,,,,8/8 Overcast,1900.0,,OVC,2200.0,,,,,,
KRDR,08-09-2011,10:40,SPECI,,350,9.0,,,9999.0,,15.0,15.0,29.76,1008.8,,,,,,,,,,,,,,,7/8 Mostly Cloudy,2100.0,,BKN,2300.0,,,,,,
KRDR,08-09-2011,10:14,SPECI,,340,8.0,,,9999.0,,15.0,15.0,29.74,1008.3,,,,,,,,,,,,,,,4/8 Partly Cloudy,72000.0,,SCT,2200.0,,,,,,
KRDR,08-09-2011,10:00,METAR,,,6.0,,,9999.0,,15.0,15.0,29.74,1008.3,,,,,,,,,,,,,,,7/8 Mostly Cloudy,2000.0,,BKN,2100.0,,,,,,
KRDR,08-09-2011,09:03,SPECI,,340,11.0,,,9999.0,,16.0,15.0,29.72,1007.7,,,,,,,,,,,,,,,4/8 Partly Cloudy,72000.0,,SCT,2300.0,,,,,,
KRDR,08-09-2011,09:00,METAR,,330,8.0,,,9999.0,,16.0,15.0,29.72,1007.6,,,,,,,,,,,,,,,8/8 Overcast,2300.0,,OVC,2300.0,,,,,,
KRDR,08-09-2011,08:00,METAR,,330,12.0,17.0,,9999.0,,16.0,15.0,29.70,1007.1,,,,,,,,,,,,,,,7/8 Mostly Cloudy,2300.0,,BKN,2300.0,BKN,2900.0,BKN,3600.0,,
KRDR,08-09-2011,07:47,SPECI,,330,10.0,,,9999.0,,16.0,15.0,29.70,1007.1,,,,,,,,,,,,,,,7/8 Mostly Cloudy,2400.0,,SCT,2300.0,BKN,2900.0,BKN,3600.0,,
KRDR,08-09-2011,07:00,METAR,,330,12.0,18.0,,9999.0,,16.0,16.0,29.69,1006.7,,,,,,,,,,,,,,,Clear,72000.0,,,73000.0,,,,,,
KRDR,08-09-2011,06:00,METAR,,320,9.0,,,9999.0,,17.0,16.0,29.69,1006.5,,,,,,,,,,,,,,,2/8 Mostly Clear,72000.0,,FEW,5900.0,,,,,,
KRDR,08-09-2011,05:00,METAR,,310,9.0,,,9999.0,,16.0,15.0,29.68,1006.2,,,,,,,,,,,,,,,2/8 Mostly Clear,72000.0,,FEW,5900.0,,,,,,
KRDR,08-09-2011,04:00,METAR,,280,8.0,,,9999.0,,17.0,14.0,29.67,1006.1,,,,,,,,,,,,,,,2/8 Mostly Clear,72000.0,,FEW,6900.0,,,,,,
KRDR,08-09-2011,03:00,METAR,,270,6.0,,,9999.0,,18.0,13.0,29.67,1005.9,,,,,,,,,,,,,,,8/8 Overcast,8000.0,,OVC,7900.0,,,,,,
KRDR,08-09-2011,02:00,METAR,,290,5.0,,,9999.0,,18.0,12.0,29.66,1005.8,,,,,,,,,,,,,,,7/8 Mostly Cloudy,8000.0,,BKN,7900.0,,,,,,
KRDR,08-09-2011,01:00,METAR,,310,8.0,,,9999.0,,20.0,12.0,29.67,1005.9,,,,,,,,,,,,,,,Clear,72000.0,,,73000.0,,,,,,
KRDR,08-09-2011,00:00,METAR,,310,14.0,22.0,310/28KTS,9999.0,,21.0,13.0,29.67,1005.8,,,,,,,,,,,,,,,Clear,72000.0,,,73000.0,,,,,,
KRDR,08-08-2011,23:00,METAR,,310,15.0,26.0,310/26KTS,9999.0,,23.0,13.0,29.66,1005.7,,,,,,,,,,,,,,,2/8 Mostly Clear,72000.0,,FEW,4900.0,,,,,,
KRDR,08-08-2011,22:00,METAR,,300,18.0,22.0,,9999.0,,23.0,13.0,29.65,1005.5,,,,,,,,,,,,,,,Clear,72000.0,,,73000.0,,,,,,
KRDR,08-08-2011,21:00,METAR,,300,8.0,,,9999.0,,22.0,14.0,29.66,1005.8,,,,,,,,,,,,,,,7/8 Mostly Cloudy,6000.0,,BKN,5900.0,,,,,,
KRDR,08-08-2011,20:00,METAR,,320,7.0,,,9999.0,,21.0,13.0,29.67,1005.8,,,,,,,,,,,,,,,7/8 Mostly Cloudy,4900.0,,BKN,5000.0,BKN,5900.0,,,,
KRDR,08-08-2011,19:00,METAR,,320,6.0,,,9999.0,,23.0,14.0,29.66,1005.7,,,,,,,,,,,,,,,4/8 Partly Cloudy,72000.0,,SCT,5000.0,,,,,,
KRDR,08-08-2011,18:00,METAR,,280,8.0,,,9999.0,,24.0,13.0,29.68,1006.3,,,,,,,,,,,,,,,2/8 Mostly Clear,72000.0,,FEW,5900.0,,,,,,
KRDR,08-08-2011,17:00,METAR,,290,9.0,,,9999.0,,24.0,14.0,29.69,1006.7,,,,,,,,,,,,,,,Clear,72000.0,,,73000.0,,,,,,
KRDR,08-08-2011,16:00,METAR,,290,8.0,,,9999.0,,23.0,14.0,29.70,1007.1,,,,,,,,,,,,,,,Clear,72000.0,,,73000.0,,,,,,
KRDR,08-08-2011,15:00,METAR,,320,7.0,,,9999.0,,22.0,16.0,29.70,1007.1,,,,,,,,,,,,,,,Clear,72000.0,,,73000.0,,,,,,
KRDR,08-08-2011,14:00,METAR,,320,7.0,,,9999.0,,20.0,18.0,29.70,1006.9,,,,,,,,,,,,,,,Clear,72000.0,,,73000.0,,,,,,
KRDR,08-08-2011,13:00,METAR,,300,7.0,,,9999.0,,19.0,19.0,29.69,1006.7,,,,,,,,,,,,,,,4/8 Partly Cloudy,72000.0,,SCT,5000.0,,,,,,
KRDR,08-08-2011,12:06,SPECI,,240,5.0,,,9999.0,,18.0,18.0,29.68,1006.4,,,,,,,,,,,,,,,8/8 Overcast,2300.0,,SCT,2200.0,OVC,3100.0,,,,
KRDR,08-08-2011,12:00,METAR,,230,4.0,,,9999.0,,17.0,17.0,29.68,1006.4,,,,,,,,,,,,,.04 IN,.05 IN,8/8 Overcast,2000.0,,OVC,2400.0,,,,,,
KRDR,08-08-2011,11:30,SPECI,,260,3.0,,,9999.0,,17.0,17.0,29.68,1006.3,,,,,,,,,,,,,,,8/8 Overcast,2500.0,,BKN,2500.0,OVC,3200.0,,,,
KRDR,08-08-2011,11:18,SPECI,,,3.0,,,9999.0,,17.0,17.0,29.68,1006.2,,,,,,,,,,,,,,,8/8 Overcast,3100.0,,SCT,2500.0,OVC,3200.0,,,,
KRDR,08-08-2011,11:00,METAR,,160,5.0,,,9999.0,,17.0,17.0,29.67,1006.1,,,,,,,,,,,,,,,2/8 Mostly Clear,72000.0,,FEW,2700.0,,,,,,
KRDR,08-08-2011,10:00,METAR,,110,7.0,,,9999.0,,17.0,17.0,29.66,1005.5,,,,,,,,,,,,,,,2/8 Mostly Clear,72000.0,,FEW,11000.0,,,,,,
KRDR,08-08-2011,09:00,METAR,,90,7.0,,,9999.0,Light Rain,18.0,18.0,29.68,1006.4,61,,,,,,,,,,.04 IN,.04 IN,,,7/8 Mostly Cloudy,12000.0,,SCT,8400.0,BKN,12000.0,,,,
KRDR,08-08-2011,08:53,SPECI,,90,7.0,,,9999.0,,18.0,18.0,29.68,1006.4,,,,,,,,,,,,,,,7/8 Mostly Cloudy,12000.0,,SCT,8400.0,BKN,12000.0,,,,
KRDR,08-08-2011,08:05,SPECI,,,3.0,,,9999.0,Light Drizzle,19.0,19.0,29.70,1007.1,51,,,,,,,,,,,,,,8/8 Overcast,6000.0,,FEW,4200.0,BKN,5900.0,OVC,6900.0,,
KRDR,08-08-2011,08:00,METAR,,200,8.0,,,9999.0,,19.0,19.0,29.70,1006.9,,,,,,,,,,,,,,,7/8 Mostly Cloudy,7000.0,,FEW,5900.0,BKN,6900.0,,,,
KRDR,08-08-2011,07:00,METAR,,180,8.0,,,9999.0,,17.0,17.0,29.72,1007.6,,,,,,,,,,,,,,,Clear,72000.0,,,73000.0,,,,,,
KRDR,08-08-2011,06:00,METAR,,180,6.0,,,9999.0,,18.0,18.0,29.71,1007.3,,,,,,,,,,,,,,,Clear,72000.0,,,73000.0,,,,,,
KRDR,08-08-2011,05:00,METAR,,180,6.0,,,9999.0,,18.0,18.0,29.72,1007.6,,,,,,,,,,,,,,,Clear,72000.0,,,73000.0,,,,,,
KRDR,08-08-2011,04:00,METAR,,150,7.0,,,9999.0,,19.0,19.0,29.74,1008.1,,,,,,,,,,,,,,,2/8 Mostly Clear,72000.0,,FEW,11000.0,,,,,,
KRDR,08-08-2011,03:00,METAR,,150,6.0,,,9999.0,,19.0,18.0,29.74,1008.4,,,,,,,,,,,,,,,Clear,72000.0,,,73000.0,,,,,,
KRDR,08-08-2011,02:00,METAR,,150,6.0,,,9999.0,,20.0,17.0,29.76,1008.8,,,,,,,,,,,,,,,Clear,72000.0,,,73000.0,,,,,,
KRDR,08-08-2011,01:00,METAR,,180,5.0,,,9999.0,,23.0,16.0,29.77,1009.1,,,,,,,,,,,,,,,Clear,72000.0,,,73000.0,,,,,,
KRDR,08-08-2011,00:00,METAR,,180,11.0,,,9999.0,,24.0,14.0,29.78,1009.6,,,,,,,,,,,,,,,Clear,72000.0,,,73000.0,,,,,,
KRDR,08-07-2011,23:00,METAR,,200,6.0,,,9999.0,,25.0,14.0,29.80,1010.4,,,,,,,,,,,,,,,Clear,72000.0,,,73000.0,,,,,,
KRDR,08-07-2011,22:00,METAR,,150,4.0,,,9999.0,,25.0,14.0,29.82,1011.0,,,,,,,,,,,,,,,Clear,72000.0,,,73000.0,,,,,,
KRDR,08-07-2011,21:00,METAR,,180,6.0,,,9999.0,,24.0,14.0,29.84,1011.6,,,,,,,,,,,,,,,Clear,72000.0,,,73000.0,,,,,,
KRDR,08-07-2011,20:00,METAR,,170,4.0,,,9999.0,,24.0,13.0,29.85,1011.7,,,,,,,,,,,,,,,Clear,72000.0,,,73000.0,,,,,,
KRDR,08-07-2011,19:00,METAR,,110,6.0,,,9999.0,,24.0,12.0,29.86,1012.3,,,,,,,,,,,,,,,Clear,72000.0,,,73000.0,,,,,,
KRDR,08-07-2011,18:00,METAR,,120,3.0,,,9999.0,,23.0,13.0,29.89,1013.1,,,,,,,,,,,,,.01 IN,,Clear,72000.0,,,73000.0,,,,,,
KRDR,08-07-2011,17:00,METAR,,,4.0,,,9999.0,,23.0,13.0,29.90,1013.4,,,,,,,,,,,,,,,Clear,72000.0,,,73000.0,,,,,,
KRDR,08-07-2011,16:00,METAR,,50,3.0,,,9999.0,,21.0,13.0,29.90,1013.6,,,,,,,,,,,,,,,Clear,72000.0,,,73000.0,,,,,,
KRDR,08-07-2011,15:00,METAR,,360,3.0,,,9999.0,,19.0,16.0,29.91,1013.8,,,,,,,,,,,,.01 IN,,,Clear,72000.0,,,73000.0,,,,,,
KRDR,08-07-2011,14:00,METAR,,330,3.0,,,9999.0,,17.0,16.0,29.92,1014.1,,,,,,,,,,,,,,,Clear,72000.0,,,73000.0,,,,,,
KRDR,08-07-2011,13:00,METAR,,330,3.0,,,9999.0,,14.0,14.0,29.92,1014.0,,,,,,,,,,,.01 IN,,,,Clear,72000.0,,,73000.0,,,,,,
KRDR,08-07-2011,12:00,METAR,,,0.0,,,9999.0,,11.0,11.0,29.91,1014.0,,,,,,,,,,,,,,.2 IN,Clear,72000.0,,,73000.0,,,,,,
KRDR,08-07-2011,11:00,METAR,,310,5.0,,,9999.0,,11.0,11.0,29.91,1014.0,,,,,,,,,,,,,,,Clear,72000.0,,,73000.0,,,,,,
KRDR,08-07-2011,10:00,METAR,,310,3.0,,,9999.0,,11.0,11.0,29.91,1013.8,,,,,,,,,,,,,,,Clear,72000.0,,,73000.0,,,,,,
KRDR,08-07-2011,09:00,METAR,,310,3.0,,,9999.0,,12.0,11.0,29.90,1013.5,,,,,,,,,,,,,,,Clear,72000.0,,,73000.0,,,,,,
KRDR,08-07-2011,08:09,SPECI,,290,3.0,,,9999.0,,11.0,11.0,29.91,1013.9,,,,,,,,,,,,,,,Clear,72000.0,,,73000.0,,,,,,
KRDR,08-07-2011,08:07,SPECI,,290,3.0,,,8000.0,Mist,11.0,11.0,29.91,1013.9,10,,,,,,,,,,,,,,Clear,72000.0,,,73000.0,,,,,,
KRDR,08-07-2011,08:00,METAR,,,0.0,,,9999.0,,12.0,12.0,29.90,1013.6,,,,,,,,,,,,,,,Clear,72000.0,,,73000.0,,,,,,
KRDR,08-07-2011,07:31,SPECI,,,0.0,,,9999.0,Mist,12.0,12.0,29.91,1013.9,10,,,,,,,,,,,,,,Clear,72000.0,,,73000.0,,,,,,
KRDR,08-07-2011,07:28,SPECI,,,0.0,,,9999.0,Mist,12.0,12.0,29.91,1013.9,10,,,,,,,,,,,,,,Clear,72000.0,,,73000.0,,,,,,
KRDR,08-07-2011,07:00,METAR,,260,3.0,,,9999.0,,13.0,13.0,29.91,1013.9,,,,,,,,,,,,,,,Clear,72000.0,,,73000.0,,,,,,
KRDR,08-07-2011,06:00,METAR,,320,5.0,,,9999.0,,14.0,14.0,29.92,1014.2,,,,,,,,,,,,,,,Clear,72000.0,,,73000.0,,,,,,
KRDR,08-07-2011,05:00,METAR,,330,6.0,,,9999.0,,13.0,13.0,29.93,1014.5,,,,,,,,,,,,,,,Clear,72000.0,,,73000.0,,,,,,
KRDR,08-07-2011,04:00,METAR,,,0.0,,,9999.0,,14.0,14.0,29.92,1014.3,,,,,,,,,,,,,,,Clear,72000.0,,,73000.0,,,,,,
KRDR,08-07-2011,03:00,METAR,,350,3.0,,,9999.0,,15.0,15.0,29.94,1014.8,,,,,,,,,,,,,,,Clear,72000.0,,,73000.0,,,,,,
KRDR,08-07-2011,02:00,METAR,,360,5.0,,,9999.0,,17.0,17.0,29.93,1014.5,,,,,,,,,,,,,,,2/8 Mostly Clear,72000.0,,FEW,7900.0,,,,,,
KRDR,08-07-2011,01:00,METAR,,30,8.0,,,9999.0,,18.0,16.0,29.91,1014.0,,,,,,,,,,,,,,,Clear,8000.0,,,73000.0,,,,,,
KRDR,08-07-2011,00:00,METAR,,40,11.0,,,9999.0,,19.0,16.0,29.91,1013.9,,,,,,,,,,,,,.02 IN,,2/8 Mostly Clear,72000.0,,FEW,6900.0,,,,,,
KRDR,08-06-2011,23:00,METAR,,50,11.0,,,9999.0,,19.0,16.0,29.92,1014.0,,,,,,,,,,,,,,,7/8 Mostly Cloudy,7000.0,,BKN,6900.0,,,,,,
KRDR,08-06-2011,22:00,METAR,,40,12.0,,,9999.0,,18.0,18.0,29.91,1014.0,,,,,,,,,,,TRACE,,,,2/8 Mostly Clear,72000.0,,FEW,6900.0,,,,,,
KRDR,08-06-2011,21:05,SPECI,,50,13.0,,,9999.0,,17.0,17.0,29.92,1014.0,,,,,,,,,,,,,,,2/8 Mostly Clear,72000.0,,FEW,9900.0,,,,,,
KRDR,08-06-2011,21:00,METAR,,50,11.0,,,9999.0,Light Rain,17.0,17.0,29.92,1014.2,61,,,,,,,,,,.02 IN,.02 IN,,,Clear,4100.0,,,73000.0,,,,,,
KRDR,08-06-2011,20:32,SPECI,,40,9.0,,,9999.0,Light Rain,18.0,18.0,29.92,1014.3,61,,,,,,,,,,,,,,2/8 Mostly Clear,72000.0,,FEW,1000.0,,,,,,
KRDR,08-06-2011,20:07,SPECI,,40,10.0,,,9999.0,Light Rain,18.0,18.0,29.92,1014.2,61,,,,,,,,,,,,,,7/8 Mostly Cloudy,7000.0,,SCT,2400.0,BKN,6900.0,,,,
KRDR,08-06-2011,20:02,SPECI,,50,9.0,,,9999.0,Light Rain,18.0,18.0,29.92,1014.2,61,,,,,,,,,,,,,,7/8 Mostly Cloudy,2700.0,,BKN,2700.0,BKN,6900.0,,,,
KRDR,08-06-2011,20:00,METAR,,40,10.0,,,9999.0,Light Rain,18.0,18.0,29.92,1014.3,61,,,,,,,,,,TRACE,,,,4/8 Partly Cloudy,72000.0,,FEW,5000.0,SCT,6900.0,,,,
KRDR,08-06-2011,19:29,SPECI,,40,10.0,,,9999.0,Light Drizzle,18.0,18.0,29.92,1014.2,51,,,,,,,,,,,,,,7/8 Mostly Cloudy,7000.0,,BKN,6900.0,,,,,,
KRDR,08-06-2011,19:00,METAR,,40,11.0,,,9999.0,,18.0,18.0,29.92,1014.2,,,,,,,,,,,,,,,4/8 Partly Cloudy,72000.0,,SCT,6900.0,,,,,,
KRDR,08-06-2011,18:00,METAR,,40,10.0,,,9999.0,,18.0,18.0,29.92,1014.3,,,,,,,,,,,,,.18 IN,,4/8 Partly Cloudy,72000.0,,FEW,7400.0,SCT,11000.0,,,,
KRDR,08-06-2011,17:00,METAR,,40,7.0,,,9999.0,,17.0,17.0,29.92,1014.2,,,,,,,,,,,TRACE,,,,4/8 Partly Cloudy,72000.0,,FEW,4000.0,SCT,6900.0,,,,
KRDR,08-06-2011,16:47,SPECI,,40,7.0,,,9999.0,,17.0,17.0,29.92,1014.2,,,,,,,,,,,,,,,4/8 Partly Cloudy,72000.0,,FEW,4000.0,SCT,6900.0,,,,
KRDR,08-06-2011,16:00,METAR,,60,4.0,,,9999.0,Light Rain,16.0,16.0,29.93,1014.6,61,,,,,,,,,,.04 IN,,,,4/8 Partly Cloudy,72000.0,,FEW,2100.0,SCT,4500.0,,,,
KRDR,08-06-2011,15:36,SPECI,,50,6.0,,,9999.0,Light Rain,16.0,16.0,29.93,1014.4,61,,,,,,,,,,,,,,4/8 Partly Cloudy,72000.0,,SCT,2400.0,,,,,,
KRDR,08-06-2011,15:15,SPECI,,50,6.0,,,9999.0,Light Rain,16.0,16.0,29.93,1014.7,61,,,,,,,,,,,,,,7/8 Mostly Cloudy,2900.0,,BKN,2900.0,,,,,,
KRDR,08-06-2011,15:00,METAR,,30,5.0,,,8000.0,Light Rain/Mist,16.0,16.0,29.94,1014.8,61,10,,,,,,,,,.11 IN,.14 IN,,,8/8 Overcast,4300.0,,OVC,4400.0,,,,,,
KRDR,08-06-2011,14:00,METAR,,30,8.0,,,9999.0,Rain,16.0,16.0,29.92,1014.2,62,,,,,,,,,,.03 IN,,,,8/8 Overcast,4200.0,,BKN,4300.0,OVC,7400.0,,,,
KRDR,08-06-2011,13:15,SPECI,,60,13.0,,,9999.0,Light Rain,16.0,16.0,29.89,1013.3,61,,,,,,,,,,,,,,8/8 Overcast,7000.0,,OVC,6900.0,,,,,,
KRDR,08-06-2011,13:00,METAR,,70,11.0,,,9999.0,,16.0,16.0,29.89,1013.2,,,,,,,,,,,,,,,4/8 Partly Cloudy,72000.0,,SCT,6900.0,,,,,,
KRDR,08-06-2011,12:00,METAR,,40,15.0,,,9999.0,,16.0,16.0,29.88,1012.8,,,,,,,,,,,,,.49 IN,.79 IN,7/8 Mostly Cloudy,7500.0,,BKN,7400.0,BKN,12000.0,,,,
KRDR,08-06-2011,11:00,METAR,,40,13.0,,,9999.0,,16.0,16.0,29.89,1013.3,,,,,,,,,,,.06 IN,,,,7/8 Mostly Cloudy,1400.0,,BKN,1800.0,BKN,2500.0,,,,
KRDR,08-06-2011,11:00,SPECI,,40,14.0,,,9999.0,,16.0,16.0,29.89,1013.2,,,,,,,,,,,,,,,7/8 Mostly Cloudy,9000.0,,SCT,1800.0,BKN,8900.0,,,,
KRDR,08-06-2011,10:36,SPECI,,30,11.0,19.0,,9999.0,,16.0,16.0,29.90,1013.4,,,,,,,,,,,,,,,8/8 Overcast,1400.0,,OVC,1600.0,,,,,,
KRDR,08-06-2011,10:31,SPECI,,30,13.0,19.0,,9999.0,,16.0,16.0,29.89,1013.3,,,,,,,,,,,,,,,8/8 Overcast,1400.0,,OVC,1400.0,,,,,,
KRDR,08-06-2011,10:14,SPECI,,30,9.0,,,8000.0,Light Rain/Mist,16.0,16.0,29.91,1013.7,61,10,,,,,,,,,,,,,8/8 Overcast,1300.0,,BKN,1300.0,OVC,3400.0,,,,
KRDR,08-06-2011,10:03,SPECI,,40,19.0,,,8000.0,Rain/Mist,16.0,16.0,29.87,1012.5,62,10,,,,,,,,,,,,,8/8 Overcast,1400.0,,BKN,1400.0,OVC,3300.0,,,,
KRDR,08-06-2011,10:00,METAR,,20,11.0,15.0,,9999.0,Rain,16.0,16.0,29.92,1014.1,62,,,,,,,,,,.08 IN,,,,8/8 Overcast,1500.0,,OVC,1500.0,,,,,,
KRDR,08-06-2011,09:54,SPECI,,20,12.0,,,9999.0,Light Rain,16.0,16.0,29.91,1013.9,61,,,,,,,,,,,,,,8/8 Overcast,1400.0,,OVC,1400.0,,,,,,
KRDR,08-06-2011,09:49,SPECI,,10,9.0,,,9999.0,Rain,16.0,16.0,29.92,1014.3,62,,,,,,,,,,,,,,8/8 Overcast,1500.0,,FEW,900.0,OVC,1500.0,,,,
KRDR,08-06-2011,09:45,SPECI,,360,9.0,,,9999.0,Light Rain,16.0,16.0,29.93,1014.4,61,,,,,,,,,,,,,,8/8 Overcast,1600.0,,OVC,1600.0,,,,,,
KRDR,08-06-2011,09:36,SPECI,,10,9.0,,,9999.0,Light Rain,16.0,16.0,29.91,1014.0,61,,,,,,,,,,,,,,8/8 Overcast,1400.0,,BKN,1400.0,OVC,3100.0,,,,
KRDR,08-06-2011,09:13,SPECI,,360,12.0,,,9999.0,Rain,17.0,17.0,29.89,1013.3,62,,,,,,,,,,,,,,8/8 Overcast,6000.0,,FEW,1200.0,OVC,5900.0,,,,
KRDR,08-06-2011,09:05,SPECI,,350,12.0,,,9999.0,Rain,17.0,17.0,29.90,1013.4,62,,,,,,,,,,,,,,8/8 Overcast,7000.0,,FEW,1200.0,OVC,6900.0,,,,
KRDR,08-06-2011,09:00,METAR,,330,12.0,16.0,,9999.0,Rain,17.0,17.0,29.90,1013.7,62,,,,,,,,,,.13 IN,.35 IN,,,8/8 Overcast,6000.0,,FEW,1200.0,OVC,5900.0,,,,
KRDR,08-06-2011,08:50,SPECI,,330,12.0,16.0,,9999.0,Rain,17.0,17.0,29.90,1013.7,62,,,,,,,,,,,,,,8/8 Overcast,6000.0,,FEW,1200.0,OVC,5900.0,,,,
KRDR,08-06-2011,08:32,SPECI,,330,9.0,,,9999.0,Heavy Rain,17.0,17.0,29.91,1013.9,63,,,,,,,,,,,,,,8/8 Overcast,5500.0,,BKN,5400.0,OVC,7400.0,,,,
KRDR,08-06-2011,08:03,SPECI,,350,9.0,,,9999.0,Heavy Rain/Mist,17.0,17.0,29.90,1013.4,63,10,,,,,,,,,,,,,8/8 Overcast,3900.0,,OVC,4000.0,,,,,,
KRDR,08-06-2011,08:00,METAR,,360,8.0,,,8000.0,Heavy Thunderstorm and Rain or Snow Showers/Mist,17.0,17.0,29.89,1013.3,95,10,,,,,,,,,.22 IN,,,,8/8 Overcast,3600.0,,OVC,3700.0,,,,,,
KRDR,08-06-2011,08:00,SPECI,,10,9.0,,,8000.0,Heavy Rain/Mist,17.0,17.0,29.89,1013.3,63,10,,,,,,,,,,,,,8/8 Overcast,4200.0,,OVC,4300.0,,,,,,
KRDR,08-06-2011,07:45,SPECI,,10,10.0,,,9999.0,Thunderstorm and Rain or Snow Showers/Mist,18.0,18.0,29.89,1013.1,92,10,,,,,,,,,,,,,8/8 Overcast,3500.0,,OVC,3600.0,,,,,,
KRDR,08-06-2011,07:37,SPECI,,360,8.0,,,6400.0,Heavy Rain/Mist,18.0,18.0,29.89,1013.3,63,10,,,,,,,,,,,,,8/8 Overcast,3700.0,,OVC,3800.0,,,,,,
KRDR,08-06-2011,07:34,SPECI,,360,7.0,,,4800.0,Heavy Rain/Mist,18.0,18.0,29.90,1013.4,63,10,,,,,,,,,,,,,8/8 Overcast,3500.0,,BKN,3600.0,OVC,5000.0,,,,
KRDR,08-06-2011,07:27,SPECI,,10,7.0,,,3200.0,Heavy Rain/Mist,18.0,18.0,29.90,1013.4,63,10,,,,,,,,,,,,,7/8 Mostly Cloudy,3100.0,,BKN,3200.0,BKN,5000.0,,,,
KRDR,08-06-2011,07:25,SPECI,,360,6.0,,,4000.0,Heavy Rain/Mist,18.0,18.0,29.90,1013.4,63,10,,,,,,,,,,,,,7/8 Mostly Cloudy,3300.0,,BKN,3400.0,BKN,5000.0,,,,
KRDR,08-06-2011,07:24,SPECI,,360,5.0,,,4000.0,Heavy Rain/Mist,18.0,18.0,29.90,1013.5,63,10,,,,,,,,,,,,,7/8 Mostly Cloudy,3500.0,,BKN,3600.0,BKN,4900.0,,,,
KRDR,08-06-2011,07:00,METAR,,20,4.0,,,9999.0,,18.0,18.0,29.90,1013.7,,,,,,,,,,,,,,,4/8 Partly Cloudy,72000.0,,FEW,5900.0,SCT,11000.0,,,,
KRDR,08-06-2011,06:54,SPECI,,20,5.0,,,9999.0,,18.0,18.0,29.90,1013.6,,,,,,,,,,,,,,,4/8 Partly Cloudy,72000.0,,FEW,5900.0,SCT,11000.0,,,,
KRDR,08-06-2011,06:00,METAR,,30,3.0,,,9999.0,,18.0,18.0,29.91,1013.8,,,,,,,,,,,,,,,2/8 Mostly Clear,72000.0,,FEW,12000.0,,,,,,
KRDR,08-06-2011,05:00,METAR,,10,4.0,,,9999.0,,19.0,19.0,29.91,1014.0,,,,,,,,,,,,,,,7/8 Mostly Cloudy,11000.0,,BKN,11000.0,,,,,,
KRDR,08-06-2011,04:00,METAR,,20,4.0,,,9999.0,,20.0,19.0,29.92,1014.1,,,,,,,,,,,,,,,7/8 Mostly Cloudy,12000.0,,BKN,12000.0,,,,,,
KRDR,08-06-2011,03:00,METAR,,50,6.0,,,9999.0,,22.0,18.0,29.93,1014.6,,,,,,,,,,,,,,,Clear,72000.0,,,73000.0,,,,,,
KRDR,08-06-2011,02:00,METAR,,20,5.0,,,9999.0,,22.0,20.0,29.90,1013.5,,,,,,,,,,,,,,,Clear,72000.0,,,73000.0,,,,,,
KRDR,08-06-2011,01:00,METAR,,20,6.0,,,9999.0,,23.0,20.0,29.91,1013.7,,,,,,,,,,,,,,,Clear,72000.0,,,73000.0,,,,,,
KRDR,08-06-2011,00:00,METAR,,40,7.0,,,9999.0,,25.0,18.0,29.91,1013.7,,,,,,,,,,,,,.08 IN,,Clear,72000.0,,,73000.0,,,,,,
KRDR,08-05-2011,23:00,METAR,,70,3.0,,,9999.0,,26.0,18.0,29.90,1013.6,,,,,,,,,,,TRACE,,,,Clear,72000.0,,,73000.0,,,,,,
KRDR,08-05-2011,22:46,SPECI,,110,5.0,,,9999.0,,26.0,19.0,29.90,1013.4,,,,,,,,,,,,,,,2/8 Mostly Clear,72000.0,,FEW,9900.0,,,,,,
KRDR,08-05-2011,22:37,SPECI,,80,5.0,,,9999.0,,25.0,19.0,29.89,1013.3,,,,,,,,,,,,,,,2/8 Mostly Clear,72000.0,,FEW,9900.0,,,,,,
KRDR,08-05-2011,22:00,METAR,,,0.0,,,9999.0,,24.0,20.0,29.92,1014.1,,,,,,,,,,,,,,,4/8 Partly Cloudy,72000.0,,SCT,11000.0,,,,,,
KRDR,08-05-2011,21:00,METAR,,100,3.0,,,9999.0,,25.0,19.0,29.94,1014.9,,,,,,,,,,,.02 IN,.08 IN,,,Clear,72000.0,,,73000.0,,,,,,
KRDR,08-05-2011,20:15,SPECI,,180,6.0,,,9999.0,,22.0,22.0,29.95,1015.3,,,,,,,,,,,,,,,7/8 Mostly Cloudy,6000.0,,SCT,3900.0,BKN,11000.0,,,,
KRDR,08-05-2011,20:00,METAR,,260,3.0,,,6400.0,Light Rain/Mist,21.0,21.0,29.99,1016.5,61,10,,,,,,,,,.06 IN,,,,8/8 Overcast,5500.0,,BKN,5400.0,OVC,6900.0,,,,
KRDR,08-05-2011,19:47,SPECI,,250,8.0,,,4800.0,Rain/Mist,21.0,21.0,30.00,1016.7,62,10,,,,,,,,,,,,,7/8 Mostly Cloudy,5500.0,,BKN,5400.0,BKN,6900.0,,,,
KRDR,08-05-2011,19:41,SPECI,,250,12.0,,,4000.0,Light Rain/Mist,22.0,22.0,30.00,1016.7,61,10,,,,,,,,,,,,,7/8 Mostly Cloudy,4900.0,,BKN,5000.0,BKN,6900.0,,,,
KRDR,08-05-2011,19:00,SPECI,,80,4.0,,,9999.0,Light Rain,24.0,19.0,29.96,1015.6,61,,,,,,,,,,,,,,7/8 Mostly Cloudy,6500.0,,FEW,3200.0,BKN,6400.0,BKN,7900.0,,
KRDR,08-05-2011,19:00,METAR,,70,4.0,,,9999.0,Light Rain,24.0,19.0,29.96,1015.6,61,,,,,,,,,,TRACE,,,,7/8 Mostly Cloudy,8000.0,,SCT,6400.0,BKN,7900.0,,,,
KRDR,08-05-2011,18:53,SPECI,,80,4.0,,,9999.0,,24.0,19.0,29.96,1015.6,,,,,,,,,,,,,,,7/8 Mostly Cloudy,8000.0,,SCT,6400.0,BKN,7900.0,,,,
KRDR,08-05-2011,18:43,SPECI,,100,5.0,,,9999.0,Light Rain,23.0,19.0,29.96,1015.5,61,,,,,,,,,,,,,,7/8 Mostly Cloudy,6500.0,,BKN,6400.0,BKN,11000.0,,,,
KRDR,08-05-2011,18:01,SPECI,,70,6.0,,,9999.0,,22.0,19.0,29.97,1015.9,,,,,,,,,,,,,,,7/8 Mostly Cloudy,6500.0,,SCT,3100.0,BKN,6400.0,,,,
KRDR,08-05-2011,18:00,METAR,,90,8.0,,,3200.0,Light Rain/Mist,21.0,20.0,29.97,1015.9,61,10,,,,,,,,,,,,,8/8 Overcast,6500.0,,SCT,2900.0,OVC,6400.0,,,,
KRDR,08-05-2011,17:46,SPECI,,90,7.0,,,2000.0,Heavy Rain,23.0,19.0,29.98,1016.1,63,,,,,,,,,,,,,,7/8 Mostly Cloudy,3800.0,,FEW,700.0,BKN,3900.0,BKN,5900.0,,
KRDR,08-05-2011,17:44,SPECI,,90,6.0,,,2800.0,Heavy Rain,23.0,18.0,29.98,1016.1,63,,,,,,,,,,,,,,7/8 Mostly Cloudy,6500.0,,FEW,700.0,SCT,3900.0,BKN,6400.0,,
KRDR,08-05-2011,17:41,SPECI,,80,6.0,,,4000.0,Heavy Rain,24.0,18.0,29.97,1016.0,63,,,,,,,,,,,,,,7/8 Mostly Cloudy,6500.0,,SCT,3900.0,BKN,6400.0,,,,
KRDR,08-05-2011,17:36,SPECI,,40,4.0,,,9999.0,Light Rain,24.0,17.0,29.97,1016.0,61,,,,,,,,,,,,,,7/8 Mostly Cloudy,6500.0,,FEW,2400.0,BKN,6400.0,,,,
KRDR,08-05-2011,17:00,METAR,,40,6.0,,,9999.0,,25.0,16.0,29.97,1015.8,,,,,,,,,,,,,,,Clear,72000.0,,,73000.0,,,,,,
KRDR,08-05-2011,16:00,METAR,,40,7.0,,,9999.0,,24.0,16.0,29.97,1015.7,,,,,,,,,,,,,,,Clear,72000.0,,,73000.0,,,,,,
KRDR,08-05-2011,15:00,METAR,,30,6.0,,,9999.0,,23.0,17.0,29.97,1015.9,,,,,,,,,,,,.02 IN,,,Clear,72000.0,,,73000.0,,,,,,
KRDR,08-05-2011,14:00,METAR,,,0.0,,,9999.0,,22.0,16.0,29.98,1016.1,,,,,,,,,,,,,,,Clear,72000.0,,,73000.0,,,,,,
KRDR,08-05-2011,13:00,METAR,,60,9.0,,,9999.0,,20.0,17.0,29.93,1014.7,,,,,,,,,,,.02 IN,,,,Clear,72000.0,,,73000.0,,,,,,
KRDR,08-05-2011,12:31,SPECI,,,0.0,,,9999.0,,19.0,17.0,29.95,1015.1,,,,,,,,,,,,,,,4/8 Partly Cloudy,72000.0,,SCT,4900.0,,,,,,
KRDR,08-05-2011,12:11,SPECI,,50,3.0,,,9999.0,Light Rain/Mist,20.0,18.0,29.96,1015.6,61,10,,,,,,,,,,,,,8/8 Overcast,4900.0,,OVC,5000.0,,,,,,
KRDR,08-05-2011,12:01,SPECI,,,0.0,,,9999.0,Thunderstorm and Rain or Snow Showers,20.0,18.0,29.98,1016.2,92,,,,,,,,,,,,,,8/8 Overcast,6000.0,,FEW,4800.0,BKN,5900.0,OVC,7400.0,,
KRDR,08-05-2011,12:00,METAR,,260,3.0,,280/26KTS,9999.0,Dry Thunderstorm,20.0,17.0,30.01,1017.0,91,,,,,,,,,,,,,,8/8 Overcast,6000.0,,SCT,5000.0,OVC,5900.0,,,,
KRDR,08-05-2011,11:44,SPECI,,300,7.0,26.0,280/26KTS,9999.0,Dry Thunderstorm,20.0,17.0,30.02,1017.4,91,,,,,,,,,,,,,,7/8 Mostly Cloudy,4800.0,,BKN,4900.0,BKN,7400.0,BKN,11000.0,,
KRDR,08-05-2011,11:00,METAR,,10,6.0,,,9999.0,,18.0,18.0,29.94,1015.0,,,,,,,,,,,,,,,Clear,72000.0,,,73000.0,,,,,,
KRDR,08-05-2011,10:00,METAR,,10,5.0,,,9999.0,,19.0,19.0,29.94,1014.9,,,,,,,,,,,,,,,Clear,72000.0,,,73000.0,,,,,,
KRDR,08-05-2011,09:00,METAR,,340,3.0,,,9999.0,,18.0,18.0,29.94,1014.8,,,,,,,,,,,,,,,Clear,72000.0,,,73000.0,,,,,,
KRDR,08-05-2011,08:00,METAR,,350,3.0,,,6400.0,Mist,18.0,18.0,29.94,1014.8,10,,,,,,,,,,,,,,Clear,72000.0,,,73000.0,,,,,,
KRDR,08-05-2011,07:50,SPECI,,350,3.0,,,4000.0,Mist,18.0,18.0,29.94,1014.8,10,,,,,,,,,,,,,,Clear,72000.0,,,73000.0,,,,,,
KRDR,08-05-2011,07:47,SPECI,,,0.0,,,2000.0,Mist,18.0,18.0,29.94,1014.8,10,,,,,,,,,,,,,,Clear,72000.0,,,73000.0,,,,,,
KRDR,08-05-2011,07:45,SPECI,,,0.0,,,1200.0,Mist,18.0,18.0,29.94,1014.8,10,,,,,,,,,,,,,,Clear,72000.0,,,73000.0,,,,,,
KRDR,08-05-2011,07:37,SPECI,,,0.0,,,1200.0,Mist,18.0,18.0,29.94,1014.8,10,,,,,,,,,,,,,,Clear,72000.0,,,73000.0,,,,,,
KRDR,08-05-2011,07:35,SPECI,,,0.0,,,1600.0,Mist,18.0,18.0,29.94,1014.8,10,,,,,,,,,,,,,,Clear,72000.0,,,73000.0,,,,,,
KRDR,08-05-2011,07:31,SPECI,,,0.0,,,2000.0,Mist,18.0,18.0,29.94,1014.8,10,,,,,,,,,,,,,,Clear,72000.0,,,73000.0,,,,,,
KRDR,08-05-2011,07:29,SPECI,,,0.0,,,1600.0,Mist,18.0,18.0,29.94,1014.8,10,,,,,,,,,,,,,,Clear,72000.0,,,73000.0,,,,,,
KRDR,08-05-2011,07:25,SPECI,,,0.0,,,1200.0,Mist,18.0,18.0,29.94,1014.9,10,,,,,,,,,,,,,,Clear,72000.0,,,73000.0,,,,,,
KRDR,08-05-2011,07:23,SPECI,,,0.0,,,1200.0,Mist,18.0,18.0,29.94,1014.8,10,,,,,,,,,,,,,,Clear,72000.0,,,73000.0,,,,,,
KRDR,08-05-2011,07:20,SPECI,,,0.0,,,1200.0,Mist,18.0,18.0,29.94,1014.7,10,,,,,,,,,,,,,,Clear,72000.0,,,73000.0,,,,,,
KRDR,08-05-2011,07:18,SPECI,,,0.0,,,1600.0,Mist,18.0,18.0,29.94,1014.8,10,,,,,,,,,,,,,,Clear,72000.0,,,73000.0,,,,,,
KRDR,08-05-2011,07:14,SPECI,,,0.0,,,4000.0,Mist,18.0,18.0,29.93,1014.7,10,,,,,,,,,,,,,,Clear,72000.0,,,73000.0,,,,,,
KRDR,08-05-2011,07:09,SPECI,,,0.0,,,9999.0,,18.0,18.0,29.93,1014.6,,,,,,,,,,,,,,,Clear,72000.0,,,73000.0,,,,,,
KRDR,08-05-2011,07:00,METAR,,,0.0,,,9999.0,,19.0,19.0,29.93,1014.6,,,,,,,,,,,,,,,Clear,72000.0,,,73000.0,,,,,,
KRDR,08-05-2011,06:00,METAR,,360,4.0,,,9999.0,,19.0,19.0,29.93,1014.7,,,,,,,,,,,,,,,Clear,72000.0,,,73000.0,,,,,,
KRDR,08-05-2011,05:00,METAR,,290,3.0,,,9999.0,,19.0,19.0,29.92,1014.2,,,,,,,,,,,,,,,Clear,72000.0,,,73000.0,,,,,,
KRDR,08-05-2011,04:00,METAR,,,0.0,,,9999.0,,20.0,20.0,29.91,1014.0,,,,,,,,,,,,,,,2/8 Mostly Clear,72000.0,,FEW,4300.0,,,,,,
KRDR,08-05-2011,03:00,METAR,,,0.0,,,9999.0,,22.0,22.0,29.91,1013.9,,,,,,,,,,,,,,,Clear,72000.0,,,73000.0,,,,,,
KRDR,08-05-2011,02:00,METAR,,,0.0,,,9999.0,,24.0,22.0,29.89,1013.2,,,,,,,,,,,,,,,Clear,72000.0,,,73000.0,,,,,,
KRDR,08-05-2011,01:00,METAR,,40,3.0,,,9999.0,,27.0,20.0,29.89,1013.2,,,,,,,,,,,,,,,Clear,72000.0,,,73000.0,,,,,,
KRDR,08-05-2011,00:00,METAR,,360,5.0,,,9999.0,,28.0,20.0,29.88,1012.9,,,,,,,,,,,,,,,Clear,72000.0,,,73000.0,,,,,,
KRDR,08-04-2011,23:00,METAR,,60,5.0,,,9999.0,,28.0,19.0,29.88,1012.9,,,,,,,,,,,,,,,Clear,72000.0,,,73000.0,,,,,,
KRDR,08-04-2011,22:00,METAR,,360,5.0,,,9999.0,,27.0,19.0,29.90,1013.6,,,,,,,,,,,,,,,Clear,72000.0,,,73000.0,,,,,,
KRDR,08-04-2011,21:00,METAR,,350,7.0,,,9999.0,,28.0,21.0,29.90,1013.4,,,,,,,,,,,,,,,Clear,72000.0,,,73000.0,,,,,,
KRDR,08-04-2011,20:00,METAR,,20,9.0,,,9999.0,,28.0,22.0,29.90,1013.6,,,,,,,,,,,,,,,2/8 Mostly Clear,72000.0,,FEW,3600.0,,,,,,
KRDR,08-04-2011,19:00,METAR,,250,4.0,,,9999.0,,29.0,21.0,29.90,1013.5,,,,,,,,,,,,,,,4/8 Partly Cloudy,72000.0,,FEW,3400.0,SCT,12000.0,,,,
KRDR,08-04-2011,18:00,METAR,,260,6.0,,,9999.0,,28.0,21.0,29.90,1013.4,,,,,,,,,,,,,,,Clear,72000.0,,,73000.0,,,,,,
KRDR,08-04-2011,17:00,METAR,,,5.0,,,9999.0,,28.0,20.0,29.88,1012.8,,,,,,,,,,,,,,,Clear,72000.0,,,73000.0,,,,,,
KRDR,08-04-2011,16:00,METAR,,280,5.0,,,9999.0,,27.0,20.0,29.87,1012.6,,,,,,,,,,,,,,,Clear,72000.0,,,73000.0,,,,,,
KRDR,08-04-2011,15:00,METAR,,260,7.0,,,9999.0,,25.0,19.0,29.87,1012.7,,,,,,,,,,,,,,,Clear,72000.0,,,73000.0,,,,,,
KRDR,08-04-2011,14:00,METAR,,240,3.0,,,9999.0,,24.0,20.0,29.88,1012.8,,,,,,,,,,,,,,,2/8 Mostly Clear,72000.0,,FEW,11000.0,,,,,,
KRDR,08-04-2011,13:00,METAR,,230,5.0,,,9999.0,,22.0,21.0,29.88,1012.7,,,,,,,,,,,,,,,Clear,72000.0,,,73000.0,,,,,,
KRDR,08-04-2011,12:00,METAR,,180,7.0,,,9999.0,,18.0,18.0,29.86,1012.2,,,,,,,,,,,,,,.01 IN,Clear,72000.0,,,73000.0,,,,,,
KRDR,08-04-2011,11:00,METAR,,230,4.0,,,9999.0,,19.0,19.0,29.84,1011.6,,,,,,,,,,,,,,,Clear,72000.0,,,73000.0,,,,,,
KRDR,08-04-2011,10:00,METAR,,210,8.0,,,9999.0,,18.0,18.0,29.84,1011.6,,,,,,,,,,,,,,,Clear,72000.0,,,73000.0,,,,,,
KRDR,08-04-2011,09:00,METAR,,210,7.0,,,9999.0,,19.0,19.0,29.85,1011.9,,,,,,,,,,,,,,,Clear,72000.0,,,73000.0,,,,,,
KRDR,08-04-2011,08:00,METAR,,200,7.0,,,9999.0,,19.0,19.0,29.85,1011.9,,,,,,,,,,,,,,,Clear,72000.0,,,73000.0,,,,,,
KRDR,08-04-2011,07:00,METAR,,210,7.0,,,9999.0,,21.0,19.0,29.84,1011.7,,,,,,,,,,,,,,,Clear,72000.0,,,73000.0,,,,,,
KRDR,08-04-2011,06:00,METAR,,210,9.0,,,9999.0,,21.0,21.0,29.84,1011.5,,,,,,,,,,,,,,,Clear,72000.0,,,73000.0,,,,,,
KRDR,08-04-2011,05:00,METAR,,210,7.0,,,9999.0,,20.0,20.0,29.85,1011.9,,,,,,,,,,,,,,,Clear,72000.0,,,73000.0,,,,,,
KRDR,08-04-2011,04:00,METAR,,230,4.0,,,9999.0,,21.0,20.0,29.85,1011.8,,,,,,,,,,,,,,,Clear,72000.0,,,73000.0,,,,,,
KRDR,08-04-2011,03:00,METAR,,180,9.0,,,9999.0,,22.0,20.0,29.83,1011.4,,,,,,,,,,,,,,,Clear,72000.0,,,73000.0,,,,,,
KRDR,08-04-2011,02:00,METAR,,200,10.0,,,9999.0,,25.0,20.0,29.83,1011.1,,,,,,,,,,,,,,,Clear,72000.0,,,73000.0,,,,,,
KRDR,08-04-2011,01:00,METAR,,190,10.0,,,9999.0,,25.0,20.0,29.82,1011.0,,,,,,,,,,,,,,,Clear,72000.0,,,73000.0,,,,,,
KRDR,08-04-2011,00:00,METAR,,180,11.0,,,9999.0,,27.0,19.0,29.83,1011.2,,,,,,,,,,,,,TRACE,,Clear,72000.0,,,73000.0,,,,,,
KRDR,08-03-2011,23:00,METAR,,180,12.0,,,9999.0,,27.0,19.0,29.84,1011.7,,,,,,,,,,,,,,,Clear,72000.0,,,73000.0,,,,,,
KRDR,08-03-2011,22:00,METAR,,170,10.0,,,9999.0,,27.0,18.0,29.85,1012.0,,,,,,,,,,,,,,,Clear,72000.0,,,73000.0,,,,,,
KRDR,08-03-2011,21:00,METAR,,170,13.0,19.0,,9999.0,,26.0,17.0,29.87,1012.6,,,,,,,,,,,,TRACE,,,Clear,72000.0,,,73000.0,,,,,,
KRDR,08-03-2011,20:00,METAR,,170,11.0,,,9999.0,,27.0,16.0,29.91,1013.9,,,,,,,,,,,,,,,2/8 Mostly Clear,72000.0,,FEW,11000.0,,,,,,
KRDR,08-03-2011,19:00,METAR,,240,4.0,,,9999.0,,25.0,17.0,29.95,1015.1,,,,,,,,,,,TRACE,,,,7/8 Mostly Cloudy,11000.0,,BKN,11000.0,,,,,,
KRDR,08-03-2011,18:04,SPECI,,,0.0,,,9999.0,,23.0,19.0,29.96,1015.6,,,,,,,,,,,,,,,8/8 Overcast,11000.0,,OVC,11000.0,,,,,,
KRDR,08-03-2011,18:00,METAR,,240,3.0,,,9999.0,Light Rain,23.0,19.0,29.96,1015.6,61,,,,,,,,,,.01 IN,,.01 IN,,8/8 Overcast,10000.0,,OVC,9900.0,,,,,,
KRDR,08-03-2011,17:42,SPECI,,260,4.0,,,9999.0,,24.0,16.0,29.96,1015.6,,,,,,,,,,,,,,,8/8 Overcast,11000.0,,OVC,11000.0,,,,,,
KRDR,08-03-2011,17:00,METAR,,200,12.0,18.0,,9999.0,,27.0,14.0,29.93,1014.7,,,,,,,,,,,,,,,7/8 Mostly Cloudy,10000.0,,BKN,9900.0,,,,,,
KRDR,08-03-2011,16:00,METAR,,200,11.0,,,9999.0,,25.0,14.0,29.93,1014.5,,,,,,,,,,,,,,,Clear,72000.0,,,73000.0,,,,,,
KRDR,08-03-2011,15:00,METAR,,180,14.0,,,9999.0,,24.0,14.0,29.94,1014.7,,,,,,,,,,,,,,,2/8 Mostly Clear,72000.0,,FEW,11000.0,,,,,,
KRDR,08-03-2011,14:00,METAR,,180,8.0,,,9999.0,,21.0,16.0,29.94,1014.7,,,,,,,,,,,,,,,2/8 Mostly Clear,72000.0,,FEW,9900.0,,,,,,
KRDR,08-03-2011,13:00,METAR,,180,5.0,,,9999.0,,18.0,17.0,29.95,1015.1,,,,,,,,,,,,,,,Clear,72000.0,,,73000.0,,,,,,
KRDR,08-03-2011,12:00,METAR,,230,4.0,,,9999.0,,14.0,14.0,29.95,1015.1,,,,,,,,,,,,,,,Clear,72000.0,,,73000.0,,,,,,
KRDR,08-03-2011,11:00,METAR,,,0.0,,,9999.0,,13.0,13.0,29.94,1014.9,,,,,,,,,,,,,,,Clear,72000.0,,,73000.0,,,,,,
KRDR,08-03-2011,10:00,METAR,,220,3.0,,,9999.0,,15.0,15.0,29.93,1014.6,,,,,,,,,,,,,,,Clear,72000.0,,,73000.0,,,,,,
KRDR,08-03-2011,09:00,METAR,,240,3.0,,,9999.0,,14.0,14.0,29.94,1014.8,,,,,,,,,,,,,,,Clear,72000.0,,,73000.0,,,,,,
KRDR,08-03-2011,08:00,METAR,,230,3.0,,,9999.0,,15.0,15.0,29.94,1014.8,,,,,,,,,,,,,,,Clear,72000.0,,,73000.0,,,,,,
KRDR,08-03-2011,07:00,METAR,,240,3.0,,,9999.0,,15.0,15.0,29.94,1014.8,,,,,,,,,,,,,,,Clear,72000.0,,,73000.0,,,,,,
KRDR,08-03-2011,06:00,METAR,,,0.0,,,9999.0,,15.0,15.0,29.94,1014.9,,,,,,,,,,,,,,,Clear,72000.0,,,73000.0,,,,,,
KRDR,08-03-2011,05:00,METAR,,270,3.0,,,9999.0,,15.0,15.0,29.95,1015.1,,,,,,,,,,,,,,,Clear,72000.0,,,73000.0,,,,,,
KRDR,08-03-2011,04:00,METAR,,290,4.0,,,9999.0,,16.0,16.0,29.94,1014.8,,,,,,,,,,,,,,,Clear,72000.0,,,73000.0,,,,,,
KRDR,08-03-2011,03:07,SPECI,,300,5.0,,,9999.0,Haze Smoke or Dust,18.0,15.0,29.94,1014.7,4,,,,,,,,,,,,,,Clear,72000.0,,,73000.0,,,,,,
KRDR,08-03-2011,03:03,SPECI,,300,5.0,,,8000.0,Haze Smoke or Dust,18.0,15.0,29.94,1014.8,4,,,,,,,,,,,,,,Clear,72000.0,,,73000.0,,,,,,
KRDR,08-03-2011,03:00,METAR,,300,4.0,,,9999.0,,18.0,15.0,29.94,1014.8,,,,,,,,,,,,,,,Clear,72000.0,,,73000.0,,,,,,
KRDR,08-03-2011,02:00,METAR,,320,3.0,,,9999.0,,21.0,17.0,29.93,1014.4,,,,,,,,,,,,,,,Clear,72000.0,,,73000.0,,,,,,
KRDR,08-03-2011,01:00,METAR,,330,3.0,,,9999.0,,24.0,16.0,29.92,1014.3,,,,,,,,,,,,,,,Clear,72000.0,,,73000.0,,,,,,
KRDR,08-03-2011,00:00,METAR,,340,6.0,,,9999.0,,26.0,14.0,29.93,1014.4,,,,,,,,,,,,,,,Clear,72000.0,,,73000.0,,,,,,
KRDR,08-02-2011,23:00,METAR,,350,9.0,,,9999.0,,26.0,12.0,29.93,1014.4,,,,,,,,,,,,,,,Clear,72000.0,,,73000.0,,,,,,
KRDR,08-02-2011,22:00,METAR,,340,7.0,,,9999.0,,27.0,13.0,29.92,1014.3,,,,,,,,,,,,,,,Clear,72000.0,,,73000.0,,,,,,
KRDR,08-02-2011,21:00,METAR,,340,10.0,,,9999.0,,27.0,11.0,29.92,1014.2,,,,,,,,,,,,,,,Clear,72000.0,,,73000.0,,,,,,
KRDR,08-02-2011,20:00,METAR,,350,13.0,,,9999.0,,27.0,12.0,29.92,1014.2,,,,,,,,,,,,,,,Clear,72000.0,,,73000.0,,,,,,
KRDR,08-02-2011,19:00,METAR,,10,9.0,18.0,,9999.0,,27.0,14.0,29.92,1014.1,,,,,,,,,,,,,,,Clear,72000.0,,,73000.0,,,,,,
KRDR,08-02-2011,18:00,METAR,,10,12.0,20.0,,9999.0,,26.0,17.0,29.91,1013.9,,,,,,,,,,,,,,,Clear,72000.0,,,73000.0,,,,,,
KRDR,08-02-2011,17:00,METAR,,360,14.0,19.0,,9999.0,,25.0,18.0,29.89,1013.3,,,,,,,,,,,,,,,Clear,72000.0,,,73000.0,,,,,,
KRDR,08-02-2011,16:00,METAR,,360,13.0,,,9999.0,,25.0,18.0,29.87,1012.6,,,,,,,,,,,,,,,Clear,72000.0,,,73000.0,,,,,,
KRDR,08-02-2011,15:00,METAR,,10,15.0,23.0,,9999.0,,24.0,19.0,29.85,1012.0,,,,,,,,,,,,,,,Clear,72000.0,,,73000.0,,,,,,
KRDR,08-02-2011,14:00,METAR,,360,15.0,22.0,,9999.0,,23.0,20.0,29.84,1011.5,,,,,,,,,,,,,,,Clear,72000.0,,,73000.0,,,,,,
KRDR,08-02-2011,13:00,METAR,,360,13.0,20.0,,9999.0,,23.0,22.0,29.81,1010.7,,,,,,,,,,,,,,,Clear,72000.0,,,73000.0,,,,,,
KRDR,08-02-2011,12:00,METAR,,350,10.0,18.0,,9999.0,,23.0,23.0,29.78,1009.5,,,,,,,,,,,,,,,Clear,72000.0,,,73000.0,,,,,,
KRDR,08-02-2011,11:00,METAR,,340,9.0,,,9999.0,,23.0,23.0,29.74,1008.4,,,,,,,,,,,,,,,Clear,72000.0,,,73000.0,,,,,,
KRDR,08-02-2011,10:00,METAR,,310,5.0,,,9999.0,,22.0,22.0,29.72,1007.6,,,,,,,,,,,,,,,Clear,72000.0,,,73000.0,,,,,,
KRDR,08-02-2011,09:00,METAR,,320,5.0,,,9999.0,,22.0,22.0,29.74,1008.3,,,,,,,,,,,,,,,4/8 Partly Cloudy,72000.0,,SCT,3100.0,SCT,5900.0,,,,
KRDR,08-02-2011,08:00,METAR,,150,4.0,,,9999.0,,22.0,22.0,29.71,1007.4,,,,,,,,,,,,,,,Clear,72000.0,,,73000.0,,,,,,
KRDR,08-02-2011,07:00,METAR,,,0.0,,,9999.0,,22.0,22.0,29.73,1008.1,,,,,,,,,,,,,,,2/8 Mostly Clear,72000.0,,FEW,3000.0,,,,,,
KRDR,08-02-2011,06:00,METAR,,300,8.0,,,9999.0,,23.0,23.0,29.72,1007.7,,,,,,,,,,,,,TRACE,,Clear,72000.0,,,73000.0,,,,,,
KRDR,08-02-2011,05:00,METAR,,290,5.0,,,9999.0,,22.0,22.0,29.70,1007.0,,,,,,,,,,,,,,,Clear,72000.0,,,73000.0,,,,,,
KRDR,08-02-2011,04:00,METAR,,,0.0,,,9999.0,,23.0,23.0,29.69,1006.5,,,,,,,,,,,,,,,4/8 Partly Cloudy,72000.0,,FEW,3500.0,SCT,4200.0,,,,
KRDR,08-02-2011,03:48,SPECI,,,0.0,,,8000.0,Mist,23.0,23.0,29.69,1006.6,10,,,,,,,,,,,,,,4/8 Partly Cloudy,72000.0,,SCT,3400.0,SCT,4200.0,,,,
KRDR,08-02-2011,03:46,SPECI,,,0.0,,,6400.0,Mist,23.0,23.0,29.69,1006.7,10,,,,,,,,,,,,,,4/8 Partly Cloudy,72000.0,,SCT,3400.0,SCT,4200.0,,,,
KRDR,08-02-2011,03:42,SPECI,,,0.0,,,4800.0,Mist,23.0,23.0,29.70,1006.9,10,,,,,,,,,,,,,,7/8 Mostly Cloudy,3400.0,,BKN,3500.0,BKN,4200.0,,,,
KRDR,08-02-2011,03:00,METAR,,90,4.0,,,9999.0,,25.0,25.0,29.74,1008.1,,,,,,,,,,,TRACE,0 IN,,,7/8 Mostly Cloudy,3500.0,,SCT,2700.0,BKN,3600.0,,,,
KRDR,08-02-2011,02:47,SPECI,,90,5.0,,,9999.0,,25.0,25.0,29.74,1008.3,,,,,,,,,,,,,,,7/8 Mostly Cloudy,2800.0,,FEW,2600.0,SCT,3400.0,BKN,5900.0,,
KRDR,08-02-2011,02:35,SPECI,,70,4.0,,,9999.0,Light Drizzle,25.0,25.0,29.75,1008.7,51,,,,,,,,,,,,,,8/8 Overcast,2700.0,,BKN,2700.0,OVC,3500.0,,,,
KRDR,08-02-2011,02:06,SPECI,,350,5.0,,,9999.0,,25.0,25.0,29.76,1008.9,,,,,,,,,,,,,,,8/8 Overcast,2700.0,,BKN,2700.0,OVC,3200.0,,,,
KRDR,08-02-2011,02:00,METAR,,340,4.0,,,9999.0,,26.0,24.0,29.76,1008.9,,,,,,,,,,,,,,,8/8 Overcast,3100.0,,OVC,3100.0,,,,,,
KRDR,08-02-2011,01:00,METAR,,130,3.0,,,9999.0,,26.0,23.0,29.76,1008.9,,,,,,,,,,,,,,,8/8 Overcast,3000.0,,OVC,3000.0,,,,,,
KRDR,08-02-2011,00:46,SPECI,,120,4.0,,,9999.0,,26.0,23.0,29.76,1008.8,,,,,,,,,,,,,,,8/8 Overcast,3000.0,,OVC,3000.0,,,,,,
KRDR,08-02-2011,00:35,SPECI,,,0.0,,,9999.0,,26.0,23.0,29.76,1008.9,,,,,,,,,,,,,,,8/8 Overcast,2800.0,,OVC,2900.0,,,,,,
KRDR,08-02-2011,00:00,METAR,,110,8.0,,,9999.0,,27.0,23.0,29.75,1008.7,,,,,,,,,,,,,,,8/8 Overcast,3000.0,,OVC,3000.0,,,,,,
KRDR,08-01-2011,23:00,METAR,,110,6.0,,,9999.0,,27.0,24.0,29.76,1009.0,,,,,,,,,,,,,,,8/8 Overcast,3000.0,,OVC,3000.0,,,,,,
KRDR,08-01-2011,22:48,SPECI,,120,7.0,,,9999.0,,27.0,24.0,29.77,1009.1,,,,,,,,,,,,,,,8/8 Overcast,3000.0,,OVC,3000.0,,,,,,
KRDR,08-01-2011,22:00,METAR,,140,4.0,,,9999.0,,27.0,23.0,29.77,1009.3,,,,,,,,,,,,,,,8/8 Overcast,2500.0,,OVC,2500.0,,,,,,
KRDR,08-01-2011,21:00,METAR,,140,4.0,,,9999.0,,27.0,23.0,29.77,1009.2,,,,,,,,,,,,,,,7/8 Mostly Cloudy,2600.0,,BKN,2600.0,,,,,,
KRDR,08-01-2011,20:50,SPECI,,,3.0,,,9999.0,,27.0,23.0,29.77,1009.2,,,,,,,,,,,,,,,7/8 Mostly Cloudy,2600.0,,BKN,2600.0,,,,,,
KRDR,08-01-2011,20:00,METAR,,160,5.0,,,9999.0,,27.0,23.0,29.77,1009.2,,,,,,,,,,,,,,,Clear,72000.0,,,73000.0,,,,,,
KRDR,08-01-2011,19:00,METAR,,150,6.0,,,9999.0,,26.0,23.0,29.78,1009.7,,,,,,,,,,,,,,,Clear,72000.0,,,73000.0,,,,,,
KRDR,08-01-2011,18:00,METAR,,190,10.0,,,9999.0,,27.0,23.0,29.79,1010.0,,,,,,,,,,,,,,,2/8 Mostly Clear,72000.0,,FEW,11000.0,,,,,,
KRDR,08-01-2011,17:00,METAR,,170,9.0,,,9999.0,,27.0,22.0,29.79,1010.0,,,,,,,,,,,,,,,Clear,72000.0,,,73000.0,,,,,,
KRDR,08-01-2011,16:00,METAR,,160,11.0,,,9999.0,,25.0,21.0,29.80,1010.1,,,,,,,,,,,,,,,Clear,72000.0,,,73000.0,,,,,,
KRDR,08-01-2011,15:00,METAR,,140,10.0,,,9999.0,,24.0,20.0,29.80,1010.3,,,,,,,,,,,,,,,Clear,72000.0,,,73000.0,,,,,,
KRDR,08-01-2011,14:00,METAR,,170,6.0,,,9999.0,,22.0,20.0,29.83,1011.3,,,,,,,,,,,,,,,Clear,72000.0,,,73000.0,,,,,,
KRDR,08-01-2011,13:00,METAR,,170,11.0,,,9999.0,,22.0,19.0,29.83,1011.3,,,,,,,,,,,,,,,Clear,72000.0,,,73000.0,,,,,,
KRDR,08-01-2011,12:00,METAR,,160,14.0,21.0,,9999.0,,22.0,19.0,29.83,1011.1,,,,,,,,,,,,,.17 IN,.17 IN,Clear,72000.0,,,73000.0,,,,,,
KRDR,08-01-2011,11:00,METAR,,160,17.0,24.0,170/26KTS,9999.0,,21.0,19.0,29.86,1012.2,,,,,,,,,,,.04 IN,,,,Clear,72000.0,,,73000.0,,,,,,
KRDR,08-01-2011,10:46,SPECI,,170,13.0,,,9999.0,,21.0,19.0,29.86,1012.3,,,,,,,,,,,,,,,2/8 Mostly Clear,72000.0,,FEW,1000.0,,,,,,
KRDR,08-01-2011,10:37,SPECI,,170,16.0,,,9999.0,Light Rain,21.0,19.0,29.87,1012.5,61,,,,,,,,,,,,,,4/8 Partly Cloudy,72000.0,,SCT,1100.0,SCT,11000.0,,,,
KRDR,08-01-2011,10:32,SPECI,,180,17.0,,,9999.0,Light Rain,21.0,19.0,29.87,1012.6,61,,,,,,,,,,,,,,4/8 Partly Cloudy,72000.0,,SCT,2100.0,,,,,,
KRDR,08-01-2011,10:30,SPECI,,180,16.0,,,9999.0,Light Rain,21.0,19.0,29.88,1012.8,61,,,,,,,,,,,,,,7/8 Mostly Cloudy,2700.0,,BKN,2700.0,,,,,,
KRDR,08-01-2011,10:09,SPECI,,190,19.0,,,9999.0,Light Rain,21.0,20.0,29.92,1014.1,61,,,,,,,,,,,,,,8/8 Overcast,6000.0,,OVC,5900.0,,,,,,
KRDR,08-01-2011,10:08,SPECI,,190,19.0,,,9999.0,,21.0,20.0,29.92,1014.2,,,,,,,,,,,,,,,8/8 Overcast,7000.0,,OVC,6900.0,,,,,,
KRDR,08-01-2011,10:00,METAR,,190,17.0,23.0,230/28KTS,9999.0,Light Rain,21.0,20.0,29.93,1014.4,61,,,,,,,,,,.1 IN,,,,8/8 Overcast,8000.0,,OVC,7900.0,,,,,,
KRDR,08-01-2011,09:45,SPECI,,180,19.0,,230/28KTS,9999.0,Light Rain,21.0,20.0,29.93,1014.6,61,,,,,,,,,,,,,,8/8 Overcast,8000.0,,OVC,7900.0,,,,,,
KRDR,08-01-2011,09:37,SPECI,,180,18.0,26.0,230/28KTS,9999.0,Light Rain,21.0,20.0,29.94,1014.8,61,,,,,,,,,,,,,,8/8 Overcast,7000.0,,OVC,6900.0,,,,,,
KRDR,08-01-2011,09:35,SPECI,,190,19.0,26.0,230/28KTS,9999.0,,21.0,20.0,29.94,1014.9,,,,,,,,,,,,,,,8/8 Overcast,7000.0,,OVC,6900.0,,,,,,
KRDR,08-01-2011,09:18,SPECI,,210,16.0,22.0,230/28KTS,9999.0,Light Rain,21.0,21.0,29.96,1015.6,61,,,,,,,,,,,,,,8/8 Overcast,7000.0,,OVC,6900.0,,,,,,
KRDR,08-01-2011,09:07,SPECI,,230,16.0,28.0,230/28KTS,9999.0,Thunderstorm and Rain or Snow Showers,21.0,20.0,29.96,1015.5,92,,,,,,,,,,,,,,8/8 Overcast,8000.0,,FEW,3300.0,OVC,7900.0,,,,
KRDR,08-01-2011,09:03,SPECI,,230,18.0,28.0,230/28KTS,9999.0,Thunderstorm and Rain or Snow Showers,22.0,20.0,29.96,1015.6,92,,,,,,,,,,,,,,7/8 Mostly Cloudy,8000.0,,FEW,3300.0,BKN,7900.0,,,,
KRDR,08-01-2011,09:00,METAR,,240,20.0,30.0,240/30KTS,9999.0,Light Rain,22.0,19.0,29.96,1015.5,61,,,,,,,,,,.03 IN,.03 IN,,,4/8 Partly Cloudy,72000.0,,FEW,3300.0,SCT,7900.0,,,,
KRDR,08-01-2011,08:36,SPECI,,240,15.0,21.0,270/30KTS,9999.0,,22.0,22.0,29.94,1014.9,,,,,,,,,,,,,,,2/8 Mostly Clear,72000.0,,FEW,7900.0,,,,,,
KRDR,08-01-2011,08:21,SPECI,,270,11.0,18.0,270/30KTS,9999.0,Thunderstorm and Rain or Snow Showers,21.0,21.0,29.94,1014.9,92,,,,,,,,,,,,,,7/8 Mostly Cloudy,6500.0,,BKN,6400.0,BKN,9900.0,,,,
KRDR,08-01-2011,08:08,SPECI,,280,10.0,,270/30KTS,9999.0,Rain,21.0,21.0,29.93,1014.7,62,,,,,,,,,,,,,,8/8 Overcast,4500.0,,BKN,4600.0,BKN,6400.0,OVC,8400.0,,
KRDR,08-01-2011,08:00,METAR,,270,17.0,27.0,240/28KTS,9999.0,,23.0,21.0,29.96,1015.6,,,,,,,,,,,TRACE,,,,7/8 Mostly Cloudy,6000.0,,SCT,6400.0,BKN,8400.0,,,,
KRDR,08-01-2011,07:53,SPECI,,260,20.0,30.0,270/30KTS,9999.0,Thunderstorm and Rain or Snow Showers,23.0,21.0,29.96,1015.4,92,,,,,,,,,,,,,,7/8 Mostly Cloudy,6000.0,,SCT,6400.0,BKN,8400.0,,,,
KRDR,08-01-2011,07:49,SPECI,,270,20.0,27.0,240/28KTS,9999.0,,23.0,21.0,29.97,1015.9,,,,,,,,,,,,,,,7/8 Mostly Cloudy,8500.0,,FEW,5900.0,BKN,8400.0,,,,
KRDR,08-01-2011,07:46,SPECI,,280,19.0,28.0,240/28KTS,9999.0,,23.0,20.0,29.97,1015.9,,,,,,,,,,,,,,,4/8 Partly Cloudy,72000.0,,FEW,2900.0,SCT,8400.0,,,,
KRDR,08-01-2011,07:00,METAR,,140,8.0,,,9999.0,,21.0,18.0,29.86,1012.2,,,,,,,,,,,,,,,4/8 Partly Cloudy,72000.0,,SCT,2600.0,,,,,,
KRDR,08-01-2011,06:44,SPECI,,150,9.0,,,9999.0,,21.0,18.0,29.89,1013.1,,,,,,,,,,,,,,,7/8 Mostly Cloudy,2500.0,,SCT,2600.0,BKN,7400.0,,,,
KRDR,08-01-2011,06:34,SPECI,,160,8.0,,,9999.0,,21.0,18.0,29.91,1013.9,,,,,,,,,,,,,,,7/8 Mostly Cloudy,2700.0,,BKN,2700.0,BKN,7400.0,,,,
KRDR,08-01-2011,06:00,METAR,,140,6.0,,,9999.0,,21.0,18.0,29.91,1013.9,,,,,,,,,,,,,,,2/8 Mostly Clear,72000.0,,FEW,2800.0,,,,,,
KRDR,08-01-2011,05:00,METAR,,160,5.0,,,9999.0,,21.0,19.0,29.93,1014.6,,,,,,,,,,,,,,,Clear,72000.0,,,73000.0,,,,,,
KRDR,08-01-2011,04:00,METAR,,140,7.0,,,9999.0,,21.0,18.0,29.93,1014.7,,,,,,,,,,,,,,,Clear,72000.0,,,73000.0,,,,,,
KRDR,08-01-2011,03:00,METAR,,120,5.0,,,9999.0,,22.0,18.0,29.94,1014.9,,,,,,,,,,,,,,,Clear,72000.0,,,73000.0,,,,,,
KRDR,08-01-2011,02:00,METAR,,100,6.0,,,9999.0,,23.0,19.0,29.95,1015.2,,,,,,,,,,,,,,,Clear,72000.0,,,73000.0,,,,,,
KRDR,08-01-2011,01:00,METAR,,160,6.0,,,9999.0,,25.0,17.0,29.95,1015.2,,,,,,,,,,,,,,,Clear,72000.0,,,73000.0,,,,,,
KRDR,08-01-2011,00:00,METAR,,170,7.0,,,9999.0,,25.0,16.0,29.97,1015.9,,,,,,,,,,,,,,,Clear,72000.0,,,73000.0,,,,,,
KRDR,07-31-2011,23:00,METAR,,170,11.0,,,9999.0,,27.0,16.0,29.97,1015.7,,,,,,,,,,,,,,,Clear,72000.0,,,73000.0,,,,,,
KRDR,07-31-2011,22:00,METAR,,150,7.0,,,9999.0,,26.0,16.0,30.01,1017.0,,,,,,,,,,,,,,,Clear,72000.0,,,73000.0,,,,,,
KRDR,07-31-2011,21:00,METAR,,190,6.0,,,9999.0,,27.0,16.0,30.03,1018.0,,,,,,,,,,,,,,,Clear,72000.0,,,73000.0,,,,,,
KRDR,07-31-2011,20:00,METAR,,190,6.0,,,9999.0,,27.0,14.0,30.04,1018.2,,,,,,,,,,,,,,,Clear,72000.0,,,73000.0,,,,,,
KRDR,07-31-2011,19:00,METAR,,190,4.0,,,9999.0,,27.0,15.0,30.05,1018.4,,,,,,,,,,,,,,,Clear,72000.0,,,73000.0,,,,,,
KRDR,07-31-2011,18:00,METAR,,180,7.0,,,9999.0,,27.0,14.0,30.06,1018.8,,,,,,,,,,,,,,,Clear,72000.0,,,73000.0,,,,,,
KRDR,07-31-2011,17:00,METAR,,260,3.0,,,9999.0,,26.0,14.0,30.08,1019.3,,,,,,,,,,,,,,,Clear,72000.0,,,73000.0,,,,,,
KRDR,07-31-2011,16:00,METAR,,,0.0,,,9999.0,,25.0,14.0,30.09,1019.7,,,,,,,,,,,,,,,Clear,72000.0,,,73000.0,,,,,,
KRDR,07-31-2011,15:00,METAR,,,4.0,,,9999.0,,23.0,15.0,30.09,1019.8,,,,,,,,,,,,,,,Clear,72000.0,,,73000.0,,,,,,
KRDR,07-31-2011,14:00,METAR,,,0.0,,,9999.0,,20.0,15.0,30.09,1019.7,,,,,,,,,,,,,,,Clear,72000.0,,,73000.0,,,,,,
KRDR,07-31-2011,13:00,METAR,,,0.0,,,9999.0,,17.0,17.0,30.08,1019.4,,,,,,,,,,,,,,,Clear,72000.0,,,73000.0,,,,,,
KRDR,07-31-2011,12:00,METAR,,260,3.0,,,9999.0,,12.0,12.0,30.09,1019.7,,,,,,,,,,,,,,,Clear,72000.0,,,73000.0,,,,,,
KRDR,07-31-2011,11:00,METAR,,220,3.0,,,9999.0,,11.0,11.0,30.07,1019.2,,,,,,,,,,,,,,,Clear,72000.0,,,73000.0,,,,,,
KRDR,07-31-2011,10:00,METAR,,240,3.0,,,9999.0,,12.0,12.0,30.07,1019.2,,,,,,,,,,,,,,,Clear,72000.0,,,73000.0,,,,,,
KRDR,07-31-2011,09:00,METAR,,,0.0,,,9999.0,,13.0,13.0,30.06,1018.9,,,,,,,,,,,,,,,Clear,72000.0,,,73000.0,,,,,,
KRDR,07-31-2011,08:00,METAR,,,0.0,,,9999.0,,13.0,13.0,30.06,1018.9,,,,,,,,,,,,,,,Clear,72000.0,,,73000.0,,,,,,
KRDR,07-31-2011,07:00,METAR,,,0.0,,,9999.0,,15.0,13.0,30.06,1018.8,,,,,,,,,,,,,,,Clear,72000.0,,,73000.0,,,,,,
KRDR,07-31-2011,06:00,METAR,,280,3.0,,,9999.0,,14.0,14.0,30.05,1018.5,,,,,,,,,,,,,,,Clear,72000.0,,,73000.0,,,,,,
KRDR,07-31-2011,05:00,METAR,,310,3.0,,,9999.0,,15.0,15.0,30.03,1017.9,,,,,,,,,,,,,,,Clear,72000.0,,,73000.0,,,,,,
KRDR,07-31-2011,04:00,METAR,,320,5.0,,,9999.0,,17.0,13.0,30.01,1017.2,,,,,,,,,,,,,,,Clear,72000.0,,,73000.0,,,,,,
KRDR,07-31-2011,03:00,METAR,,320,5.0,,,9999.0,,19.0,14.0,30.00,1016.7,,,,,,,,,,,,,,,Clear,72000.0,,,73000.0,,,,,,
KRDR,07-31-2011,02:00,METAR,,350,4.0,,,9999.0,,22.0,15.0,29.97,1016.0,,,,,,,,,,,,,,,Clear,72000.0,,,73000.0,,,,,,
KRDR,07-31-2011,01:00,METAR,,350,6.0,,,9999.0,,25.0,15.0,29.97,1015.8,,,,,,,,,,,,,,,Clear,72000.0,,,73000.0,,,,,,
KRDR,07-31-2011,00:00,METAR,,10,9.0,,,9999.0,,27.0,18.0,29.96,1015.5,,,,,,,,,,,,,,,Clear,72000.0,,,73000.0,,,,,,
KRDR,07-30-2011,23:00,METAR,,360,10.0,,,9999.0,,29.0,20.0,29.94,1014.9,,,,,,,,,,,,,,,4/8 Partly Cloudy,72000.0,,SCT,4800.0,,,,,,
KRDR,07-30-2011,22:00,METAR,,320,10.0,,,9999.0,,29.0,21.0,29.93,1014.7,,,,,,,,,,,,,,,2/8 Mostly Clear,72000.0,,FEW,4300.0,,,,,,
KRDR,07-30-2011,21:00,METAR,,310,14.0,20.0,,9999.0,,29.0,20.0,29.93,1014.7,,,,,,,,,,,,,,,2/8 Mostly Clear,72000.0,,FEW,4700.0,,,,,,
KRDR,07-30-2011,20:00,METAR,,290,8.0,17.0,,9999.0,,30.0,20.0,29.94,1014.7,,,,,,,,,,,,,,,Clear,4600.0,,,73000.0,,,,,,
KRDR,07-30-2011,19:00,METAR,,290,11.0,,,9999.0,,29.0,20.0,29.94,1014.7,,,,,,,,,,,,,,,4/8 Partly Cloudy,72000.0,,SCT,6900.0,,,,,,
KRDR,07-30-2011,18:00,METAR,,260,10.0,,,9999.0,,29.0,18.0,29.93,1014.7,,,,,,,,,,,,,,,7/8 Mostly Cloudy,7000.0,,BKN,6900.0,,,,,,
KRDR,07-30-2011,17:00,METAR,,230,10.0,,,9999.0,,29.0,17.0,29.91,1013.9,,,,,,,,,,,,,,,Clear,72000.0,,,73000.0,,,,,,
KRDR,07-30-2011,16:00,METAR,,250,7.0,,,9999.0,,28.0,17.0,29.89,1013.3,,,,,,,,,,,,,,,Clear,72000.0,,,73000.0,,,,,,
KRDR,07-30-2011,15:00,METAR,,310,4.0,21.0,,9999.0,,25.0,15.0,29.86,1012.3,,,,,,,,,,,,,,,Clear,72000.0,,,73000.0,,,,,,
KRDR,07-30-2011,14:00,METAR,,220,14.0,24.0,220/35KTS,9999.0,,26.0,11.0,29.80,1010.2,,,,,,,,,,,,,,,Clear,72000.0,,,73000.0,,,,,,
KRDR,07-30-2011,13:00,METAR,,240,9.0,14.0,,9999.0,,20.0,17.0,29.90,1013.4,,,,,,,,,,,,,,,Clear,72000.0,,,73000.0,,,,,,
KRDR,07-30-2011,12:00,METAR,,240,9.0,,,9999.0,,19.0,19.0,29.92,1014.2,,,,,,,,,,,,,TRACE,,2/8 Mostly Clear,72000.0,,FEW,12000.0,,,,,,
KRDR,07-30-2011,11:00,METAR,,,0.0,,,9999.0,,19.0,18.0,29.92,1014.0,,,,,,,,,,,,,,,Clear,72000.0,,,73000.0,,,,,,
KRDR,07-30-2011,10:00,METAR,,,0.0,,300/30KTS,9999.0,,20.0,17.0,29.87,1012.5,,,,,,,,,,,TRACE,,,,2/8 Mostly Clear,72000.0,,FEW,4100.0,,,,,,
KRDR,07-30-2011,09:49,SPECI,,,0.0,,300/30KTS,9999.0,,20.0,17.0,29.87,1012.5,,,,,,,,,,,,,,,2/8 Mostly Clear,72000.0,,FEW,4100.0,,,,,,
KRDR,07-30-2011,09:40,SPECI,,360,4.0,,300/30KTS,9999.0,Light Rain,20.0,17.0,29.89,1013.2,61,,,,,,,,,,,,,,2/8 Mostly Clear,72000.0,,FEW,4100.0,,,,,,
KRDR,07-30-2011,09:29,SPECI,,290,3.0,18.0,300/30KTS,9999.0,,21.0,17.0,29.91,1014.0,,,,,,,,,,,,,,,2/8 Mostly Clear,72000.0,,FEW,8900.0,,,,,,
KRDR,07-30-2011,09:17,SPECI,,320,15.0,22.0,300/30KTS,9999.0,,21.0,16.0,29.93,1014.6,,,,,,,,,,,,,,,Clear,72000.0,,,73000.0,,,,,,
KRDR,07-30-2011,09:00,METAR,,300,17.0,26.0,280/30KTS,9999.0,,21.0,16.0,29.94,1014.8,,,,,,,,,,,TRACE,0 IN,,,Clear,72000.0,,,73000.0,,,,,,
KRDR,07-30-2011,08:45,SPECI,,290,18.0,25.0,280/30KTS,9999.0,,21.0,17.0,29.95,1015.0,,,,,,,,,,,,,,,2/8 Mostly Clear,72000.0,,FEW,8900.0,,,,,,
KRDR,07-30-2011,08:26,SPECI,,280,16.0,22.0,,9999.0,Light Rain,21.0,18.0,29.97,1016.0,61,,,,,,,,,,,,,,2/8 Mostly Clear,72000.0,,FEW,12000.0,,,,,,
KRDR,07-30-2011,08:00,METAR,,230,10.0,16.0,,9999.0,,19.0,19.0,29.97,1015.8,,,,,,,,,,,,,,,4/8 Partly Cloudy,72000.0,,FEW,5400.0,SCT,12000.0,,,,
KRDR,07-30-2011,07:00,METAR,,180,5.0,,,9999.0,,19.0,19.0,29.92,1014.1,,,,,,,,,,,,,,,Clear,72000.0,,,73000.0,,,,,,
KRDR,07-30-2011,06:00,METAR,,180,5.0,,,9999.0,,18.0,18.0,29.94,1014.9,,,,,,,,,,,,,TRACE,,Clear,72000.0,,,73000.0,,,,,,
KRDR,07-30-2011,05:00,METAR,,190,5.0,,,9999.0,,19.0,17.0,29.95,1015.3,,,,,,,,,,,,,,,Clear,72000.0,,,73000.0,,,,,,
KRDR,07-30-2011,04:00,METAR,,180,5.0,,,9999.0,,19.0,18.0,29.95,1015.2,,,,,,,,,,,,,,,Clear,72000.0,,,73000.0,,,,,,
KRDR,07-30-2011,03:00,METAR,,160,4.0,,,9999.0,,21.0,17.0,29.96,1015.5,,,,,,,,,,,,TRACE,,,Clear,72000.0,,,73000.0,,,,,,
KRDR,07-30-2011,02:00,METAR,,,0.0,,,9999.0,,24.0,16.0,29.96,1015.5,,,,,,,,,,,TRACE,,,,Clear,72000.0,,,73000.0,,,,,,
KRDR,07-30-2011,01:24,SPECI,,,0.0,,,9999.0,,26.0,15.0,29.97,1015.7,,,,,,,,,,,,,,,Clear,72000.0,,,73000.0,,,,,,
KRDR,07-30-2011,01:14,SPECI,,,0.0,,,9999.0,,26.0,15.0,29.96,1015.7,,,,,,,,,,,,,,,Clear,72000.0,,,73000.0,,,,,,
KRDR,07-30-2011,01:00,METAR,,,0.0,,,9999.0,,27.0,16.0,29.97,1015.9,,,,,,,,,,,,,,,Clear,72000.0,,,73000.0,,,,,,
KRDR,07-30-2011,00:00,METAR,,,0.0,,,9999.0,,27.0,13.0,29.98,1016.2,,,,,,,,,,,,,,,Clear,72000.0,,,73000.0,,,,,,
KRDR,07-29-2011,23:00,METAR,,280,4.0,,,9999.0,,28.0,13.0,29.99,1016.5,,,,,,,,,,,,,,,Clear,72000.0,,,73000.0,,,,,,
KRDR,07-29-2011,22:00,METAR,,250,7.0,,,9999.0,,28.0,15.0,30.00,1016.7,,,,,,,,,,,,,,,2/8 Mostly Clear,72000.0,,FEW,5900.0,,,,,,
KRDR,07-29-2011,21:00,METAR,,,4.0,,,9999.0,,28.0,15.0,30.01,1017.0,,,,,,,,,,,,,,,Clear,72000.0,,,73000.0,,,,,,
KRDR,07-29-2011,20:00,METAR,,280,5.0,,,9999.0,,28.0,14.0,30.02,1017.5,,,,,,,,,,,,,,,4/8 Partly Cloudy,72000.0,,SCT,5900.0,,,,,,
KRDR,07-29-2011,19:00,METAR,,250,4.0,,,9999.0,,27.0,15.0,30.03,1017.7,,,,,,,,,,,,,,,4/8 Partly Cloudy,72000.0,,SCT,5000.0,,,,,,
KRDR,07-29-2011,18:00,METAR,,,5.0,,,9999.0,,26.0,15.0,30.04,1018.0,,,,,,,,,,,,,,,Clear,72000.0,,,73000.0,,,,,,
KRDR,07-29-2011,17:00,METAR,,290,4.0,,,9999.0,,26.0,15.0,30.04,1018.0,,,,,,,,,,,,,,,Clear,72000.0,,,73000.0,,,,,,
KRDR,07-29-2011,16:00,METAR,,350,5.0,,,9999.0,,24.0,15.0,30.03,1017.9,,,,,,,,,,,,,,,Clear,72000.0,,,73000.0,,,,,,
KRDR,07-29-2011,15:00,METAR,,340,5.0,,,9999.0,,23.0,16.0,30.03,1017.7,,,,,,,,,,,,,,,Clear,72000.0,,,73000.0,,,,,,
KRDR,07-29-2011,14:00,METAR,,330,3.0,,,9999.0,,21.0,16.0,30.02,1017.6,,,,,,,,,,,,,,,Clear,72000.0,,,73000.0,,,,,,
KRDR,07-29-2011,13:00,METAR,,300,5.0,,,9999.0,,19.0,18.0,30.01,1017.3,,,,,,,,,,,,,,,Clear,72000.0,,,73000.0,,,,,,
KRDR,07-29-2011,12:00,METAR,,300,6.0,,,9999.0,,17.0,17.0,30.01,1017.0,,,,,,,,,,,,,,,Clear,72000.0,,,73000.0,,,,,,
KRDR,07-29-2011,11:00,METAR,,290,6.0,,,9999.0,,16.0,16.0,30.00,1016.8,,,,,,,,,,,,,,,Clear,72000.0,,,73000.0,,,,,,
KRDR,07-29-2011,10:00,METAR,,300,5.0,,,9999.0,,17.0,17.0,29.98,1016.2,,,,,,,,,,,,,,,Clear,72000.0,,,73000.0,,,,,,
KRDR,07-29-2011,09:00,METAR,,280,5.0,,,9999.0,,17.0,17.0,29.97,1015.9,,,,,,,,,,,,,,,Clear,72000.0,,,73000.0,,,,,,
KRDR,07-29-2011,08:00,METAR,,290,7.0,,,9999.0,,18.0,18.0,29.96,1015.7,,,,,,,,,,,,,,,2/8 Mostly Clear,72000.0,,FEW,12000.0,,,,,,
KRDR,07-29-2011,07:00,METAR,,270,4.0,,,9999.0,,17.0,17.0,29.97,1015.8,,,,,,,,,,,,,,,Clear,12000.0,,,73000.0,,,,,,
KRDR,07-29-2011,06:00,METAR,,280,4.0,,,9999.0,,18.0,18.0,29.97,1015.8,,,,,,,,,,,,,,,Clear,72000.0,,,73000.0,,,,,,
KRDR,07-29-2011,05:00,METAR,,290,5.0,,,9999.0,,19.0,19.0,29.97,1015.7,,,,,,,,,,,,,,,Clear,72000.0,,,73000.0,,,,,,
KRDR,07-29-2011,04:00,METAR,,270,6.0,,,9999.0,,19.0,19.0,29.96,1015.7,,,,,,,,,,,,,,,Clear,72000.0,,,73000.0,,,,,,
KRDR,07-29-2011,03:00,METAR,,290,4.0,,,9999.0,,21.0,19.0,29.95,1015.0,,,,,,,,,,,,,,,Clear,72000.0,,,73000.0,,,,,,
KRDR,07-29-2011,02:00,METAR,,280,5.0,,,9999.0,,23.0,19.0,29.93,1014.5,,,,,,,,,,,,,,,Clear,72000.0,,,73000.0,,,,,,
KRDR,07-29-2011,01:00,METAR,,300,5.0,,,9999.0,,26.0,18.0,29.93,1014.4,,,,,,,,,,,,,,,Clear,72000.0,,,73000.0,,,,,,
KRDR,07-29-2011,00:00,METAR,,310,8.0,,,9999.0,,27.0,17.0,29.92,1014.2,,,,,,,,,,,,,,,Clear,72000.0,,,73000.0,,,,,,
KRDR,07-28-2011,23:00,METAR,,310,6.0,,,9999.0,,27.0,16.0,29.92,1014.3,,,,,,,,,,,,,,,Clear,72000.0,,,73000.0,,,,,,
KRDR,07-28-2011,22:00,METAR,,310,8.0,,,9999.0,,28.0,16.0,29.93,1014.4,,,,,,,,,,,,,,,Clear,72000.0,,,73000.0,,,,,,
KRDR,07-28-2011,21:00,METAR,,270,7.0,,,9999.0,,28.0,18.0,29.93,1014.6,,,,,,,,,,,,,,,4/8 Partly Cloudy,72000.0,,SCT,9900.0,,,,,,
KRDR,07-28-2011,20:00,METAR,,290,6.0,,,9999.0,,29.0,16.0,29.92,1014.2,,,,,,,,,,,,,,,Clear,72000.0,,,73000.0,,,,,,
KRDR,07-28-2011,19:00,METAR,,290,7.0,,,9999.0,,28.0,17.0,29.93,1014.5,,,,,,,,,,,,,,,Clear,72000.0,,,73000.0,,,,,,
KRDR,07-28-2011,18:00,METAR,,270,6.0,,,9999.0,,27.0,16.0,29.93,1014.5,,,,,,,,,,,,,,,Clear,72000.0,,,73000.0,,,,,,
KRDR,07-28-2011,17:00,METAR,,320,7.0,,,9999.0,,27.0,16.0,29.92,1014.3,,,,,,,,,,,,,,,Clear,72000.0,,,73000.0,,,,,,
KRDR,07-28-2011,16:00,METAR,,280,5.0,,,9999.0,,26.0,17.0,29.92,1014.3,,,,,,,,,,,,,,,Clear,72000.0,,,73000.0,,,,,,
KRDR,07-28-2011,15:00,METAR,,290,5.0,,,9999.0,,24.0,18.0,29.92,1014.1,,,,,,,,,,,,,,,Clear,72000.0,,,73000.0,,,,,,
KRDR,07-28-2011,14:00,METAR,,280,5.0,,,9999.0,,21.0,18.0,29.90,1013.7,,,,,,,,,,,,,,,Clear,72000.0,,,73000.0,,,,,,
KRDR,07-28-2011,13:00,METAR,,290,5.0,,,9999.0,,20.0,18.0,29.89,1013.3,,,,,,,,,,,,,,,Clear,72000.0,,,73000.0,,,,,,
KRDR,07-28-2011,12:00,METAR,,290,5.0,,,9999.0,,17.0,17.0,29.87,1012.6,,,,,,,,,,,,,,,Clear,72000.0,,,73000.0,,,,,,
KRDR,07-28-2011,11:00,METAR,,300,6.0,,,9999.0,,17.0,17.0,29.85,1011.8,,,,,,,,,,,,,,,Clear,72000.0,,,73000.0,,,,,,
KRDR,07-28-2011,10:00,METAR,,280,6.0,,,9999.0,,17.0,17.0,29.84,1011.5,,,,,,,,,,,,,,,Clear,72000.0,,,73000.0,,,,,,
KRDR,07-28-2011,09:00,METAR,,280,6.0,,,9999.0,,18.0,18.0,29.84,1011.4,,,,,,,,,,,,,,,Clear,72000.0,,,73000.0,,,,,,
KRDR,07-28-2011,08:00,METAR,,260,5.0,,,9999.0,,17.0,17.0,29.84,1011.5,,,,,,,,,,,,,,,Clear,72000.0,,,73000.0,,,,,,
KRDR,07-28-2011,07:00,METAR,,260,6.0,,,9999.0,,19.0,18.0,29.83,1011.1,,,,,,,,,,,,,,,Clear,72000.0,,,73000.0,,,,,,
KRDR,07-28-2011,06:00,METAR,,270,6.0,,,9999.0,,17.0,17.0,29.82,1011.0,,,,,,,,,,,,,,,Clear,72000.0,,,73000.0,,,,,,
KRDR,07-28-2011,05:00,METAR,,260,4.0,,,9999.0,,18.0,18.0,29.83,1011.3,,,,,,,,,,,,,,,Clear,72000.0,,,73000.0,,,,,,
KRDR,07-28-2011,04:00,METAR,,230,6.0,,,9999.0,,19.0,18.0,29.81,1010.7,,,,,,,,,,,,,,,Clear,72000.0,,,73000.0,,,,,,
KRDR,07-28-2011,03:00,METAR,,280,5.0,,,9999.0,,20.0,18.0,29.80,1010.2,,,,,,,,,,,,,,,Clear,72000.0,,,73000.0,,,,,,
KRDR,07-28-2011,02:00,METAR,,290,3.0,,,9999.0,,23.0,18.0,29.78,1009.5,,,,,,,,,,,,,,,Clear,72000.0,,,73000.0,,,,,,
KRDR,07-28-2011,01:00,METAR,,280,7.0,,,9999.0,,25.0,17.0,29.77,1009.2,,,,,,,,,,,,,,,Clear,72000.0,,,73000.0,,,,,,
KRDR,07-28-2011,00:00,METAR,,290,10.0,,,9999.0,,26.0,17.0,29.75,1008.7,,,,,,,,,,,,,,,Clear,72000.0,,,73000.0,,,,,,
KRDR,07-27-2011,23:00,METAR,,310,10.0,,,9999.0,,27.0,18.0,29.73,1008.0,,,,,,,,,,,,,,,Clear,72000.0,,,73000.0,,,,,,
KRDR,07-27-2011,22:00,METAR,,280,9.0,,,9999.0,,26.0,18.0,29.73,1007.8,,,,,,,,,,,,,,,Clear,72000.0,,,73000.0,,,,,,
KRDR,07-27-2011,21:00,METAR,,280,13.0,19.0,,9999.0,,28.0,19.0,29.72,1007.5,,,,,,,,,,,,,,,Clear,72000.0,,,73000.0,,,,,,
KRDR,07-27-2011,20:00,METAR,,270,10.0,,,9999.0,,28.0,21.0,29.71,1007.2,,,,,,,,,,,,,,,4/8 Partly Cloudy,72000.0,,SCT,3200.0,,,,,,
KRDR,07-27-2011,19:00,METAR,,280,11.0,15.0,,9999.0,,27.0,21.0,29.70,1006.9,,,,,,,,,,,,,,,2/8 Mostly Clear,72000.0,,FEW,2900.0,,,,,,
KRDR,07-27-2011,18:00,METAR,,280,8.0,,,9999.0,,26.0,21.0,29.70,1007.0,,,,,,,,,,,,,,,4/8 Partly Cloudy,72000.0,,SCT,2300.0,,,,,,
KRDR,07-27-2011,17:30,SPECI,,290,5.0,,,9999.0,,26.0,21.0,29.70,1006.8,,,,,,,,,,,,,,,4/8 Partly Cloudy,72000.0,,SCT,2100.0,,,,,,
KRDR,07-27-2011,17:27,SPECI,,290,5.0,,,9999.0,,26.0,21.0,29.70,1006.8,,,,,,,,,,,,,,,7/8 Mostly Cloudy,1700.0,,BKN,2100.0,,,,,,
KRDR,07-27-2011,17:25,SPECI,,280,7.0,,,9999.0,,25.0,21.0,29.70,1006.9,,,,,,,,,,,,,,,4/8 Partly Cloudy,72000.0,,SCT,1900.0,,,,,,
KRDR,07-27-2011,17:22,SPECI,,290,5.0,,,9999.0,,25.0,21.0,29.70,1006.9,,,,,,,,,,,,,,,7/8 Mostly Cloudy,1700.0,,BKN,1900.0,,,,,,
KRDR,07-27-2011,17:18,SPECI,,300,6.0,,,9999.0,,25.0,21.0,29.70,1006.9,,,,,,,,,,,,,,,4/8 Partly Cloudy,72000.0,,SCT,1900.0,,,,,,
KRDR,07-27-2011,17:16,SPECI,,280,6.0,,,9999.0,,25.0,21.0,29.70,1006.9,,,,,,,,,,,,,,,7/8 Mostly Cloudy,1600.0,,BKN,1800.0,,,,,,
KRDR,07-27-2011,17:13,SPECI,,,4.0,,,9999.0,,25.0,21.0,29.70,1006.9,,,,,,,,,,,,,,,4/8 Partly Cloudy,72000.0,,SCT,1800.0,,,,,,
KRDR,07-27-2011,17:00,METAR,,,0.0,,,9999.0,,24.0,21.0,29.70,1006.9,,,,,,,,,,,,,,,7/8 Mostly Cloudy,1500.0,,BKN,1600.0,,,,,,
KRDR,07-27-2011,16:45,SPECI,,,5.0,,,9999.0,,24.0,21.0,29.69,1006.8,,,,,,,,,,,,,,,7/8 Mostly Cloudy,1600.0,,BKN,1600.0,,,,,,
KRDR,07-27-2011,16:34,SPECI,,240,4.0,,,9999.0,,24.0,21.0,29.69,1006.7,,,,,,,,,,,,,,,4/8 Partly Cloudy,72000.0,,SCT,1400.0,,,,,,
KRDR,07-27-2011,16:00,METAR,,310,3.0,,,9999.0,,22.0,22.0,29.69,1006.7,,,,,,,,,,,,,,,8/8 Overcast,1100.0,,OVC,1500.0,,,,,,
KRDR,07-27-2011,15:34,SPECI,,340,3.0,,,9999.0,,21.0,21.0,29.69,1006.6,,,,,,,,,,,,,,,8/8 Overcast,900.0,,OVC,1200.0,,,,,,
KRDR,07-27-2011,15:21,SPECI,,310,5.0,,,9999.0,,21.0,21.0,29.69,1006.8,,,,,,,,,,,,,,,8/8 Overcast,800.0,,OVC,1100.0,,,,,,
KRDR,07-27-2011,15:00,METAR,,,0.0,,,9999.0,,21.0,21.0,29.69,1006.8,,,,,,,,,,,,,,,8/8 Overcast,800.0,,OVC,900.0,,,,,,
KRDR,07-27-2011,14:47,SPECI,,300,4.0,,,9999.0,,21.0,21.0,29.69,1006.6,,,,,,,,,,,,,,,8/8 Overcast,800.0,,OVC,900.0,,,,,,
KRDR,07-27-2011,14:44,SPECI,,280,5.0,,,9999.0,,21.0,21.0,29.69,1006.5,,,,,,,,,,,,,,,8/8 Overcast,800.0,,OVC,1000.0,,,,,,
KRDR,07-27-2011,14:21,SPECI,,,0.0,,,9999.0,,21.0,21.0,29.68,1006.5,,,,,,,,,,,,,,,8/8 Overcast,800.0,,OVC,900.0,,,,,,
KRDR,07-27-2011,14:00,METAR,,260,3.0,,,9999.0,,20.0,20.0,29.68,1006.4,,,,,,,,,,,,,,,8/8 Overcast,1000.0,,OVC,1000.0,,,,,,
KRDR,07-27-2011,13:37,SPECI,,260,3.0,,,9999.0,,20.0,20.0,29.68,1006.4,,,,,,,,,,,,,,,8/8 Overcast,1100.0,,OVC,1100.0,,,,,,
KRDR,07-27-2011,13:09,SPECI,,240,3.0,,,9999.0,,20.0,20.0,29.68,1006.2,,,,,,,,,,,,,,,8/8 Overcast,1200.0,,OVC,1200.0,,,,,,
KRDR,07-27-2011,13:00,METAR,,220,3.0,,,9999.0,,19.0,19.0,29.67,1006.0,,,,,,,,,,,,,,,8/8 Overcast,900.0,,OVC,1100.0,,,,,,
KRDR,07-27-2011,12:00,METAR,,,0.0,,,9999.0,,19.0,19.0,29.65,1005.3,,,,,,,,,,,,,,.08 IN,8/8 Overcast,900.0,,OVC,1000.0,,,,,,
KRDR,07-27-2011,11:00,METAR,,,0.0,,,9999.0,,18.0,18.0,29.63,1004.8,,,,,,,,,,,,,,,8/8 Overcast,1200.0,,OVC,1200.0,,,,,,
KRDR,07-27-2011,10:00,METAR,,,0.0,,,9999.0,,18.0,18.0,29.64,1005.1,,,,,,,,,,,,,,,8/8 Overcast,1300.0,,OVC,1400.0,,,,,,
KRDR,07-27-2011,09:00,METAR,,,0.0,,,9999.0,,19.0,19.0,29.63,1004.8,,,,,,,,,,,,,,,8/8 Overcast,1400.0,,OVC,1400.0,,,,,,
KRDR,07-27-2011,08:00,METAR,,50,4.0,,,9999.0,,19.0,19.0,29.64,1005.1,,,,,,,,,,,,,,,8/8 Overcast,1700.0,,OVC,1700.0,,,,,,
KRDR,07-27-2011,07:00,METAR,,,0.0,,,9999.0,,19.0,19.0,29.66,1005.5,,,,,,,,,,,,,,,8/8 Overcast,2100.0,,OVC,2100.0,,,,,,
KRDR,07-27-2011,06:09,SPECI,,,0.0,,,9999.0,,18.0,18.0,29.65,1005.3,,,,,,,,,,,,,,,7/8 Mostly Cloudy,2500.0,,BKN,2500.0,,,,,,
KRDR,07-27-2011,06:00,METAR,,50,3.0,,,9999.0,,19.0,19.0,29.64,1005.1,,,,,,,,,,,,,.03 IN,,2/8 Mostly Clear,72000.0,,FEW,2700.0,,,,,,
KRDR,07-27-2011,05:00,METAR,,140,4.0,,,9999.0,,19.0,19.0,29.66,1005.7,,,,,,,,,,,,,,,7/8 Mostly Cloudy,3500.0,,BKN,3600.0,BKN,8900.0,,,,
KRDR,07-27-2011,04:00,METAR,,160,7.0,,,9999.0,,20.0,20.0,29.67,1005.9,,,,,,,,,,,,,,,7/8 Mostly Cloudy,4300.0,,BKN,4400.0,,,,,,
KRDR,07-27-2011,03:00,METAR,,150,11.0,,,9999.0,,19.0,19.0,29.68,1006.1,,,,,,,,,,,TRACE,.03 IN,,,8/8 Overcast,9000.0,,OVC,8900.0,,,,,,
KRDR,07-27-2011,02:20,SPECI,,130,9.0,,,9999.0,,19.0,19.0,29.66,1005.7,,,,,,,,,,,,,,,Clear,72000.0,,,73000.0,,,,,,
KRDR,07-27-2011,02:03,SPECI,,140,11.0,,,9999.0,Light Rain,20.0,20.0,29.69,1006.5,61,,,,,,,,,,,,,,2/8 Mostly Clear,72000.0,,FEW,8900.0,,,,,,
KRDR,07-27-2011,02:00,METAR,,110,10.0,,,9999.0,,20.0,20.0,29.68,1006.2,,,,,,,,,,,,,,,7/8 Mostly Cloudy,11000.0,,FEW,7400.0,SCT,8900.0,BKN,11000.0,,
KRDR,07-27-2011,01:00,METAR,,50,3.0,,,9999.0,,20.0,20.0,29.74,1008.4,,,,,,,,,,,.03 IN,,,,8/8 Overcast,9500.0,,FEW,5900.0,SCT,7900.0,OVC,9400.0,,
KRDR,07-27-2011,00:41,SPECI,,80,5.0,,,9999.0,,20.0,20.0,29.74,1008.2,,,,,,,,,,,,,,,8/8 Overcast,9000.0,,SCT,5400.0,OVC,8900.0,,,,
KRDR,07-27-2011,00:00,METAR,,110,6.0,,,9999.0,Light Rain,20.0,20.0,29.77,1009.1,61,,,,,,,,,,.01 IN,,.05 IN,,8/8 Overcast,4900.0,,BKN,6900.0,OVC,12000.0,,,,
KRDR,07-26-2011,23:04,SPECI,,360,4.0,,,9999.0,Light Drizzle,20.0,20.0,29.81,1010.7,51,,,,,,,,,,,,,,8/8 Overcast,8500.0,,FEW,4700.0,BKN,8400.0,OVC,12000.0,,
KRDR,07-26-2011,23:00,METAR,,350,5.0,,,9999.0,,20.0,20.0,29.82,1011.0,,,,,,,,,,,.01 IN,,,,8/8 Overcast,12000.0,,FEW,4400.0,SCT,6900.0,OVC,12000.0,,
KRDR,07-26-2011,22:49,SPECI,,340,6.0,,,9999.0,,20.0,20.0,29.83,1011.1,,,,,,,,,,,,,,,8/8 Overcast,12000.0,,FEW,4400.0,SCT,9900.0,OVC,12000.0,,
KRDR,07-26-2011,22:00,METAR,,,0.0,,,9999.0,Light Rain,21.0,21.0,29.80,1010.2,61,,,,,,,,,,.03 IN,,,,7/8 Mostly Cloudy,7000.0,,FEW,5000.0,BKN,9400.0,BKN,12000.0,,
KRDR,07-26-2011,21:00,METAR,,140,3.0,,,9999.0,Light Rain,22.0,19.0,29.81,1010.7,61,,,,,,,,,,TRACE,0 IN,,,7/8 Mostly Cloudy,12000.0,,FEW,6900.0,SCT,8900.0,BKN,12000.0,,
KRDR,07-26-2011,20:33,SPECI,,120,6.0,,,9999.0,,22.0,18.0,29.80,1010.4,,,,,,,,,,,,,,,7/8 Mostly Cloudy,12000.0,,BKN,12000.0,,,,,,
KRDR,07-26-2011,20:00,METAR,,130,7.0,,,9999.0,,23.0,16.0,29.80,1010.3,,,,,,,,,,,,,,,Clear,72000.0,,,73000.0,,,,,,
KRDR,07-26-2011,19:00,METAR,,130,12.0,,,9999.0,,25.0,16.0,29.81,1010.6,,,,,,,,,,,,,,,Clear,72000.0,,,73000.0,,,,,,
KRDR,07-26-2011,18:00,METAR,,110,11.0,,,9999.0,,25.0,15.0,29.83,1011.2,,,,,,,,,,,,,,,Clear,72000.0,,,73000.0,,,,,,
KRDR,07-26-2011,17:00,METAR,,120,9.0,,,9999.0,,25.0,15.0,29.84,1011.7,,,,,,,,,,,,,,,Clear,72000.0,,,73000.0,,,,,,
KRDR,07-26-2011,16:00,METAR,,120,8.0,,,9999.0,,24.0,16.0,29.86,1012.3,,,,,,,,,,,,,,,Clear,72000.0,,,73000.0,,,,,,
KRDR,07-26-2011,15:00,METAR,,150,7.0,,,9999.0,,22.0,16.0,29.90,1013.5,,,,,,,,,,,,,,,Clear,72000.0,,,73000.0,,,,,,
KRDR,07-26-2011,14:00,METAR,,150,8.0,,,9999.0,,20.0,17.0,29.91,1013.8,,,,,,,,,,,,,,,Clear,72000.0,,,73000.0,,,,,,
KRDR,07-26-2011,13:00,METAR,,,0.0,,,9999.0,,19.0,19.0,29.91,1013.9,,,,,,,,,,,,,,,Clear,72000.0,,,73000.0,,,,,,
KRDR,07-26-2011,12:00,METAR,,,0.0,,,9999.0,,14.0,14.0,29.90,1013.6,,,,,,,,,,,,,,,Clear,72000.0,,,73000.0,,,,,,
KRDR,07-26-2011,11:00,METAR,,230,3.0,,,9999.0,,13.0,13.0,29.91,1014.0,,,,,,,,,,,,,,,Clear,72000.0,,,73000.0,,,,,,
KRDR,07-26-2011,10:00,METAR,,140,4.0,,,9999.0,,15.0,15.0,29.90,1013.5,,,,,,,,,,,,,,,Clear,72000.0,,,73000.0,,,,,,
KRDR,07-26-2011,09:00,METAR,,,0.0,,,9999.0,,16.0,16.0,29.90,1013.6,,,,,,,,,,,,,,,Clear,72000.0,,,73000.0,,,,,,
KRDR,07-26-2011,08:00,METAR,,,0.0,,,9999.0,,16.0,16.0,29.91,1013.9,,,,,,,,,,,,,,,Clear,72000.0,,,73000.0,,,,,,
KRDR,07-26-2011,07:00,METAR,,240,5.0,,,9999.0,,16.0,16.0,29.93,1014.6,,,,,,,,,,,,,,,Clear,72000.0,,,73000.0,,,,,,
KRDR,07-26-2011,06:00,METAR,,,0.0,,,9999.0,,15.0,15.0,29.93,1014.5,,,,,,,,,,,,,,,Clear,72000.0,,,73000.0,,,,,,
KRDR,07-26-2011,05:00,METAR,,,0.0,,,9999.0,,16.0,16.0,29.92,1014.4,,,,,,,,,,,,,,,Clear,72000.0,,,73000.0,,,,,,
KRDR,07-26-2011,04:00,METAR,,220,3.0,,,9999.0,,18.0,18.0,29.94,1014.8,,,,,,,,,,,,,,,Clear,72000.0,,,73000.0,,,,,,
KRDR,07-26-2011,03:00,METAR,,,0.0,,,9999.0,,21.0,17.0,29.92,1014.3,,,,,,,,,,,,,,,Clear,72000.0,,,73000.0,,,,,,
KRDR,07-26-2011,02:00,METAR,,80,6.0,,,9999.0,,23.0,16.0,29.90,1013.4,,,,,,,,,,,,,,,Clear,72000.0,,,73000.0,,,,,,
KRDR,07-26-2011,01:00,METAR,,60,8.0,,,9999.0,,24.0,16.0,29.91,1013.9,,,,,,,,,,,,,,,Clear,72000.0,,,73000.0,,,,,,
KRDR,07-26-2011,00:00,METAR,,80,7.0,,,9999.0,,26.0,18.0,29.92,1014.3,,,,,,,,,,,,,,,Clear,72000.0,,,73000.0,,,,,,
KRDR,07-25-2011,23:00,METAR,,10,5.0,,,9999.0,,26.0,17.0,29.94,1014.7,,,,,,,,,,,,,,,Clear,72000.0,,,73000.0,,,,,,
KRDR,07-25-2011,22:00,METAR,,40,7.0,,,9999.0,,26.0,17.0,29.94,1014.8,,,,,,,,,,,,,,,Clear,72000.0,,,73000.0,,,,,,
KRDR,07-25-2011,21:00,METAR,,20,6.0,,,9999.0,,25.0,17.0,29.95,1015.2,,,,,,,,,,,,,,,Clear,72000.0,,,73000.0,,,,,,
KRDR,07-25-2011,20:00,METAR,,340,4.0,,,9999.0,,26.0,17.0,29.95,1015.2,,,,,,,,,,,,,,,Clear,72000.0,,,73000.0,,,,,,
KRDR,07-25-2011,19:00,METAR,,10,7.0,,,9999.0,,25.0,17.0,29.96,1015.5,,,,,,,,,,,,,,,Clear,72000.0,,,73000.0,,,,,,
KRDR,07-25-2011,18:00,METAR,,20,9.0,,,9999.0,,25.0,16.0,29.96,1015.7,,,,,,,,,,,,,,,Clear,72000.0,,,73000.0,,,,,,
KRDR,07-25-2011,17:00,METAR,,350,8.0,,,9999.0,,25.0,16.0,29.97,1015.8,,,,,,,,,,,,,,,Clear,72000.0,,,73000.0,,,,,,
KRDR,07-25-2011,16:00,METAR,,330,7.0,,,9999.0,,24.0,16.0,29.97,1016.0,,,,,,,,,,,,,,,Clear,72000.0,,,73000.0,,,,,,
KRDR,07-25-2011,15:00,METAR,,350,6.0,,,9999.0,,23.0,16.0,29.97,1015.8,,,,,,,,,,,,,,,Clear,72000.0,,,73000.0,,,,,,
KRDR,07-25-2011,14:00,METAR,,360,8.0,,,9999.0,,21.0,18.0,29.96,1015.7,,,,,,,,,,,,,,,Clear,72000.0,,,73000.0,,,,,,
KRDR,07-25-2011,13:00,METAR,,330,5.0,,,9999.0,,19.0,19.0,29.96,1015.6,,,,,,,,,,,,,,,Clear,72000.0,,,73000.0,,,,,,
KRDR,07-25-2011,12:00,METAR,,310,6.0,,,9999.0,,17.0,17.0,29.95,1015.3,,,,,,,,,,,,,,.01 IN,Clear,72000.0,,,73000.0,,,,,,
KRDR,07-25-2011,11:00,METAR,,260,6.0,,,9999.0,,17.0,17.0,29.94,1014.8,,,,,,,,,,,,,,,Clear,72000.0,,,73000.0,,,,,,
KRDR,07-25-2011,10:00,METAR,,240,7.0,,,9999.0,,16.0,16.0,29.94,1014.7,,,,,,,,,,,,,,,Clear,72000.0,,,73000.0,,,,,,
KRDR,07-25-2011,09:00,METAR,,240,6.0,,,9999.0,,16.0,16.0,29.94,1014.9,,,,,,,,,,,,,,,Clear,72000.0,,,73000.0,,,,,,
KRDR,07-25-2011,08:00,METAR,,230,5.0,,,9999.0,,17.0,17.0,29.95,1015.3,,,,,,,,,,,,,,,Clear,72000.0,,,73000.0,,,,,,
KRDR,07-25-2011,07:00,METAR,,250,6.0,,,9999.0,,16.0,16.0,29.97,1015.9,,,,,,,,,,,,,,,Clear,72000.0,,,73000.0,,,,,,
KRDR,07-25-2011,06:00,METAR,,240,6.0,,,9999.0,,17.0,17.0,29.99,1016.4,,,,,,,,,,,,,,,Clear,72000.0,,,73000.0,,,,,,
KRDR,07-25-2011,05:00,METAR,,270,4.0,,,9999.0,,18.0,18.0,29.98,1016.2,,,,,,,,,,,,,,,Clear,72000.0,,,73000.0,,,,,,
KRDR,07-25-2011,04:00,METAR,,260,6.0,,,9999.0,,19.0,19.0,29.98,1016.2,,,,,,,,,,,,,,,Clear,72000.0,,,73000.0,,,,,,
KRDR,07-25-2011,03:00,METAR,,240,7.0,,,9999.0,,20.0,20.0,29.98,1016.2,,,,,,,,,,,,,,,Clear,72000.0,,,73000.0,,,,,,
KRDR,07-25-2011,02:00,METAR,,230,11.0,,,9999.0,,21.0,21.0,29.98,1016.2,,,,,,,,,,,,,,,2/8 Mostly Clear,72000.0,,FEW,7900.0,,,,,,
KRDR,07-25-2011,01:00,METAR,,250,6.0,,,9999.0,,21.0,21.0,29.99,1016.6,,,,,,,,,,,,,,,4/8 Partly Cloudy,72000.0,,SCT,7900.0,,,,,,
KRDR,07-25-2011,00:00,METAR,,210,11.0,,230/26KTS,9999.0,,22.0,20.0,29.99,1016.6,,,,,,,,,,,TRACE,,.01 IN,,4/8 Partly Cloudy,72000.0,,FEW,8900.0,SCT,11000.0,,,,
KRDR,07-24-2011,23:45,SPECI,,220,14.0,22.0,230/26KTS,9999.0,,22.0,20.0,29.99,1016.6,,,,,,,,,,,,,,,7/8 Mostly Cloudy,10000.0,,FEW,5000.0,BKN,9900.0,BKN,12000.0,,
KRDR,07-24-2011,23:30,SPECI,,230,21.0,26.0,230/26KTS,9999.0,,23.0,20.0,29.98,1016.2,,,,,,,,,,,,,,,7/8 Mostly Cloudy,9500.0,,SCT,4700.0,SCT,6900.0,BKN,9400.0,,
KRDR,07-24-2011,23:00,METAR,,220,9.0,,190/29KTS,9999.0,,21.0,20.0,29.99,1016.7,,,,,,,,,,,.01 IN,,,,4/8 Partly Cloudy,72000.0,,FEW,2900.0,SCT,3600.0,SCT,4300.0,,
KRDR,07-24-2011,22:45,SPECI,,230,10.0,22.0,190/29KTS,9999.0,,20.0,20.0,29.99,1016.5,,,,,,,,,,,,,,,7/8 Mostly Cloudy,3800.0,,FEW,2900.0,BKN,3900.0,BKN,6400.0,,
KRDR,07-24-2011,22:31,SPECI,,220,16.0,26.0,220/26KTS,9999.0,Light Rain,24.0,21.0,30.01,1017.3,61,,,,,,,,,,,,,,8/8 Overcast,4100.0,,SCT,3500.0,BKN,4200.0,OVC,8900.0,,
KRDR,07-24-2011,22:00,METAR,,220,7.0,,,9999.0,,28.0,19.0,30.00,1016.7,,,,,,,,,,,,,,,7/8 Mostly Cloudy,9500.0,,SCT,4200.0,BKN,9400.0,,,,
KRDR,07-24-2011,21:00,METAR,,210,6.0,,,9999.0,,27.0,19.0,30.02,1017.4,,,,,,,,,,,,,,,2/8 Mostly Clear,72000.0,,FEW,5000.0,,,,,,
KRDR,07-24-2011,20:00,METAR,,200,9.0,,,9999.0,,26.0,19.0,30.03,1017.9,,,,,,,,,,,,,,,Clear,72000.0,,,73000.0,,,,,,
KRDR,07-24-2011,19:00,METAR,,180,9.0,,,9999.0,,25.0,19.0,30.05,1018.5,,,,,,,,,,,,,,,Clear,72000.0,,,73000.0,,,,,,
KRDR,07-24-2011,18:00,METAR,,210,8.0,,,9999.0,,24.0,19.0,30.07,1019.0,,,,,,,,,,,,,,,Clear,72000.0,,,73000.0,,,,,,
KRDR,07-24-2011,17:00,METAR,,210,8.0,,,9999.0,,23.0,19.0,30.09,1019.7,,,,,,,,,,,,,,,Clear,72000.0,,,73000.0,,,,,,
KRDR,07-24-2011,16:00,METAR,,220,9.0,,,9999.0,,21.0,19.0,30.10,1020.0,,,,,,,,,,,,,,,2/8 Mostly Clear,72000.0,,FEW,1400.0,,,,,,
KRDR,07-24-2011,15:00,METAR,,210,10.0,,,9999.0,,19.0,,30.10,1020.0,,,,,,,,,,,,,,,4/8 Partly Cloudy,72000.0,,SCT,700.0,,,,,,
KRDR,07-24-2011,14:50,SPECI,,210,10.0,,,9999.0,,19.0,,30.10,1020.0,,,,,,,,,,,,,,,4/8 Partly Cloudy,72000.0,,SCT,700.0,,,,,,
KRDR,07-24-2011,14:47,SPECI,,210,10.0,,,9999.0,,18.0,,30.10,1020.0,,,,,,,,,,,,,,,7/8 Mostly Cloudy,500.0,,BKN,700.0,,,,,,
KRDR,07-24-2011,14:36,SPECI,,230,9.0,,,9999.0,,18.0,,30.10,1020.0,,,,,,,,,,,,,,,8/8 Overcast,400.0,,OVC,600.0,,,,,,
KRDR,07-24-2011,14:29,SPECI,,210,8.0,,,9999.0,,17.0,,30.10,1020.1,,,,,,,,,,,,,,,8/8 Overcast,300.0,,OVC,500.0,,,,,,
KRDR,07-24-2011,14:18,SPECI,,200,11.0,,,9999.0,,17.0,,30.10,1020.2,,,,,,,,,,,,,,,8/8 Overcast,300.0,,OVC,400.0,,,,,,
KRDR,07-24-2011,14:00,METAR,,200,9.0,,,9999.0,,16.0,,30.11,1020.4,,,,,,,,,,,,,,,8/8 Overcast,200.0,,OVC,200.0,,,,,,
KRDR,07-24-2011,13:37,SPECI,,220,9.0,,,4800.0,Mist,16.0,,30.11,1020.5,10,,,,,,,,,,,,,,8/8 Overcast,200.0,,OVC,200.0,,,,,,
KRDR,07-24-2011,13:32,SPECI,,200,8.0,,,2400.0,Mist,16.0,,30.11,1020.6,10,,,,,,,,,,,,,,8/8 Overcast,200.0,,OVC,200.0,,,,,,
KRDR,07-24-2011,13:26,SPECI,,210,9.0,,,2000.0,Mist,16.0,,30.11,1020.6,10,,,,,,,,,,,,,,8/8 Overcast,200.0,,OVC,200.0,,,,,,
KRDR,07-24-2011,13:23,SPECI,,210,8.0,,,1600.0,Mist,15.0,,30.11,1020.6,10,,,,,,,,,,,,,,Sky Obscured (Unable to Estimate),200.0,100.0,,200.0,,,,,,
KRDR,07-24-2011,13:19,SPECI,,210,7.0,,,1200.0,Mist,15.0,,30.11,1020.6,10,,,,,,,,,,,,,,Sky Obscured (Unable to Estimate),200.0,100.0,,200.0,,,,,,
KRDR,07-24-2011,13:12,SPECI,,210,7.0,,,1200.0,Mist,15.0,,30.12,1020.8,10,,,,,,,,,,,,,,Sky Obscured (Unable to Estimate),200.0,100.0,,200.0,,,,,,
KRDR,07-24-2011,13:11,SPECI,,220,7.0,,,800.0,Fog,15.0,,30.12,1020.8,30,,,,,,,,,,,,,,Sky Obscured (Unable to Estimate),200.0,100.0,,200.0,,,,,,
KRDR,07-24-2011,13:08,SPECI,,210,7.0,,,800.0,Fog,15.0,,30.12,1020.8,30,,,,,,,,,,,,,,Sky Obscured (Unable to Estimate),200.0,100.0,,200.0,,,,,,
KRDR,07-24-2011,13:07,SPECI,,210,7.0,,,800.0,Fog,15.0,,30.12,1020.8,30,,,,,,,,,,,,,,Sky Obscured (Unable to Estimate),200.0,100.0,,200.0,,,,,,
KRDR,07-24-2011,13:04,SPECI,,220,6.0,,,1200.0,Mist,15.0,,30.12,1020.8,10,,,,,,,,,,,,,,Sky Obscured (Unable to Estimate),200.0,100.0,,200.0,,,,,,
KRDR,07-24-2011,13:01,SPECI,,210,6.0,,,800.0,Fog,15.0,,30.12,1020.8,30,,,,,,,,,,,,,,Sky Obscured (Unable to Estimate),200.0,100.0,,200.0,,,,,,
KRDR,07-24-2011,13:00,METAR,,230,6.0,,,800.0,Fog,15.0,,30.12,1020.7,30,,,,,,,,,,,,,,Sky Obscured (Unable to Estimate),100.0,100.0,,100.0,,,,,,
KRDR,07-24-2011,12:47,SPECI,,230,6.0,,,400.0,Fog,15.0,,30.12,1020.8,30,,,,,,,,,,,,,,Sky Obscured (Unable to Estimate),100.0,100.0,,100.0,,,,,,
KRDR,07-24-2011,12:38,SPECI,,220,6.0,,,400.0,Fog,15.0,,30.12,1020.7,30,,,,,,,,,,,,,,Sky Obscured (Unable to Estimate),100.0,100.0,,100.0,,,,,,
KRDR,07-24-2011,12:07,SPECI,,250,3.0,,,400.0,Fog,14.0,,30.13,1021.1,30,,,,,,,,,,,,,,8/8 Overcast,100.0,,BKN,100.0,OVC,1300.0,,,,
KRDR,07-24-2011,12:01,SPECI,,220,3.0,,,400.0,Fog,14.0,,30.12,1020.9,30,,,,,,,,,,,,,,8/8 Overcast,100.0,,BKN,100.0,OVC,1300.0,,,,
KRDR,07-24-2011,12:00,METAR,,290,5.0,,,400.0,Fog,14.0,14.0,30.13,1021.1,30,,,,,,,,,,,,,,Sky Obscured (Unable to Estimate),100.0,100.0,,100.0,,,,,,
KRDR,07-24-2011,12:00,SPECI,,230,3.0,,,400.0,Fog,14.0,14.0,30.13,1021.0,30,,,,,,,,,,,,,,7/8 Mostly Cloudy,100.0,,,,,,,,,
KRDR,07-24-2011,11:43,SPECI,,240,4.0,,,400.0,Fog,14.0,14.0,30.11,1020.3,30,,,,,,,,,,,,,,Sky Obscured (Unable to Estimate),100.0,100.0,,100.0,,,,,,
KRDR,07-24-2011,11:37,SPECI,,250,3.0,,,400.0,Fog,13.0,13.0,30.10,1020.2,30,,,,,,,,,,,,,,Sky Obscured (Unable to Estimate),100.0,100.0,,100.0,,,,,,
KRDR,07-24-2011,11:34,SPECI,,250,4.0,,,1600.0,Mist,12.0,12.0,30.10,1020.2,10,,,,,,,,,,,,,,Sky Obscured (Unable to Estimate),100.0,100.0,,100.0,,,,,,
KRDR,07-24-2011,11:33,SPECI,,260,4.0,,,3200.0,Mist,12.0,12.0,30.10,1020.2,10,,,,,,,,,,,,,,2/8 Mostly Clear,72000.0,,FEW,100.0,,,,,,
KRDR,07-24-2011,11:32,SPECI,,260,4.0,,,6400.0,Mist,12.0,12.0,30.10,1020.2,10,,,,,,,,,,,,,,2/8 Mostly Clear,72000.0,,FEW,100.0,,,,,,
KRDR,07-24-2011,11:25,SPECI,,250,4.0,,,4800.0,Mist,12.0,12.0,30.10,1020.1,10,,,,,,,,,,,,,,Clear,72000.0,,,73000.0,,,,,,
KRDR,07-24-2011,11:17,SPECI,,230,4.0,,,2000.0,Mist,12.0,12.0,30.10,1020.0,10,,,,,,,,,,,,,,Clear,72000.0,,,73000.0,,,,,,
KRDR,07-24-2011,11:15,SPECI,,230,4.0,,,2800.0,Mist,12.0,12.0,30.09,1020.0,10,,,,,,,,,,,,,,Clear,72000.0,,,73000.0,,,,,,
KRDR,07-24-2011,11:03,SPECI,,240,3.0,,,4800.0,Mist,11.0,11.0,30.09,1020.0,10,,,,,,,,,,,,,,Clear,72000.0,,,73000.0,,,,,,
KRDR,07-24-2011,11:00,METAR,,,0.0,,,800.0,Fog,11.0,11.0,30.09,1019.8,30,,,,,,,,,,,,,,Clear,72000.0,,,73000.0,,,,,,
KRDR,07-24-2011,10:55,SPECI,,210,3.0,,,800.0,Fog,11.0,11.0,30.09,1019.8,30,,,,,,,,,,,,,,Clear,72000.0,,,73000.0,,,,,,
KRDR,07-24-2011,10:50,SPECI,,220,3.0,,,400.0,Fog,11.0,11.0,30.09,1019.7,30,,,,,,,,,,,,,,Clear,72000.0,,,73000.0,,,,,,
KRDR,07-24-2011,10:41,SPECI,,230,3.0,,,400.0,Fog,11.0,11.0,30.08,1019.6,30,,,,,,,,,,,,,,Clear,72000.0,,,73000.0,,,,,,
KRDR,07-24-2011,10:38,SPECI,,230,3.0,,,400.0,Fog,12.0,12.0,30.08,1019.6,30,,,,,,,,,,,,,,Clear,72000.0,,,73000.0,,,,,,
KRDR,07-24-2011,10:35,SPECI,,240,3.0,,,800.0,Fog,12.0,12.0,30.08,1019.5,30,,,,,,,,,,,,,,Clear,72000.0,,,73000.0,,,,,,
KRDR,07-24-2011,10:33,SPECI,,,0.0,,,1200.0,Mist,12.0,12.0,30.08,1019.5,10,,,,,,,,,,,,,,Clear,72000.0,,,73000.0,,,,,,
KRDR,07-24-2011,10:30,SPECI,,,0.0,,,2800.0,Mist,12.0,12.0,30.08,1019.5,10,,,,,,,,,,,,,,Clear,72000.0,,,73000.0,,,,,,
KRDR,07-24-2011,10:26,SPECI,,210,3.0,,,3200.0,Mist,12.0,12.0,30.08,1019.4,10,,,,,,,,,,,,,,Clear,72000.0,,,73000.0,,,,,,
KRDR,07-24-2011,10:24,SPECI,,210,3.0,,,2400.0,Mist,12.0,12.0,30.08,1019.4,10,,,,,,,,,,,,,,Clear,72000.0,,,73000.0,,,,,,
KRDR,07-24-2011,10:23,SPECI,,210,3.0,,,2000.0,Mist,12.0,12.0,30.08,1019.3,10,,,,,,,,,,,,,,Clear,72000.0,,,73000.0,,,,,,
KRDR,07-24-2011,10:21,SPECI,,210,3.0,,,1600.0,Mist,12.0,12.0,30.08,1019.4,10,,,,,,,,,,,,,,Clear,72000.0,,,73000.0,,,,,,
KRDR,07-24-2011,10:15,SPECI,,210,4.0,,,1200.0,Mist,11.0,11.0,30.08,1019.4,10,,,,,,,,,,,,,,Clear,72000.0,,,73000.0,,,,,,
KRDR,07-24-2011,10:13,SPECI,,210,3.0,,,1600.0,Mist,11.0,11.0,30.08,1019.4,10,,,,,,,,,,,,,,Clear,72000.0,,,73000.0,,,,,,
KRDR,07-24-2011,10:12,SPECI,,200,3.0,,,2000.0,Mist,11.0,11.0,30.08,1019.4,10,,,,,,,,,,,,,,Clear,72000.0,,,73000.0,,,,,,
KRDR,07-24-2011,10:08,SPECI,,200,3.0,,,2800.0,Mist,12.0,12.0,30.07,1019.3,10,,,,,,,,,,,,,,Clear,72000.0,,,73000.0,,,,,,
KRDR,07-24-2011,10:06,SPECI,,190,3.0,,,4000.0,Mist,12.0,12.0,30.07,1019.2,10,,,,,,,,,,,,,,Clear,72000.0,,,73000.0,,,,,,
KRDR,07-24-2011,10:00,METAR,,,0.0,,,9999.0,,12.0,12.0,30.07,1019.2,,,,,,,,,,,,,,,Clear,72000.0,,,73000.0,,,,,,
KRDR,07-24-2011,09:45,SPECI,,150,3.0,,,4800.0,Mist,12.0,12.0,30.07,1019.1,10,,,,,,,,,,,,,,Clear,72000.0,,,73000.0,,,,,,
KRDR,07-24-2011,09:44,SPECI,,160,3.0,,,4800.0,Mist,12.0,12.0,30.07,1019.1,10,,,,,,,,,,,,,,Clear,72000.0,,,73000.0,,,,,,
KRDR,07-24-2011,09:39,SPECI,,170,3.0,,,1600.0,Mist,12.0,12.0,30.07,1019.1,10,,,,,,,,,,,,,,Clear,72000.0,,,73000.0,,,,,,
KRDR,07-24-2011,09:37,SPECI,,180,3.0,,,1200.0,Mist,12.0,12.0,30.07,1019.0,10,,,,,,,,,,,,,,Clear,72000.0,,,73000.0,,,,,,
KRDR,07-24-2011,09:35,SPECI,,180,3.0,,,1200.0,Mist,12.0,12.0,30.06,1018.9,10,,,,,,,,,,,,,,Clear,72000.0,,,73000.0,,,,,,
KRDR,07-24-2011,09:27,SPECI,,,0.0,,,800.0,Fog,12.0,12.0,30.07,1019.1,30,,,,,,,,,,,,,,Clear,72000.0,,,73000.0,,,,,,
KRDR,07-24-2011,09:24,SPECI,,,0.0,,,800.0,Fog,12.0,12.0,30.07,1019.0,30,,,,,,,,,,,,,,Clear,72000.0,,,73000.0,,,,,,
KRDR,07-24-2011,09:18,SPECI,,180,4.0,,,800.0,Fog,12.0,12.0,30.06,1018.9,30,,,,,,,,,,,,,,Clear,72000.0,,,73000.0,,,,,,
KRDR,07-24-2011,09:13,SPECI,,180,4.0,,,1200.0,Mist,12.0,12.0,30.06,1018.9,10,,,,,,,,,,,,,,Clear,72000.0,,,73000.0,,,,,,
KRDR,07-24-2011,09:07,SPECI,,180,4.0,,,800.0,Fog,12.0,12.0,30.06,1018.8,30,,,,,,,,,,,,,,Clear,72000.0,,,73000.0,,,,,,
KRDR,07-24-2011,09:02,SPECI,,190,4.0,,,400.0,Fog,12.0,12.0,30.06,1018.8,30,,,,,,,,,,,,,,Clear,72000.0,,,73000.0,,,,,,
KRDR,07-24-2011,09:00,SPECI,,190,3.0,,,400.0,Fog,12.0,12.0,30.06,1018.8,30,,,,,,,,,,,,,,Clear,72000.0,,,73000.0,,,,,,
KRDR,07-24-2011,08:53,SPECI,,,0.0,,,800.0,Fog,13.0,13.0,30.06,1018.9,30,,,,,,,,,,,,,,Clear,72000.0,,,73000.0,,,,,,
KRDR,07-24-2011,08:51,SPECI,,,0.0,,,400.0,Fog,13.0,13.0,30.06,1018.9,30,,,,,,,,,,,,,,Clear,72000.0,,,73000.0,,,,,,
KRDR,07-24-2011,08:48,SPECI,,,0.0,,,400.0,Fog,13.0,13.0,30.06,1018.9,30,,,,,,,,,,,,,,Clear,72000.0,,,73000.0,,,,,,
KRDR,07-24-2011,08:46,SPECI,,,0.0,,,800.0,Fog,13.0,13.0,30.06,1018.9,30,,,,,,,,,,,,,,Clear,72000.0,,,73000.0,,,,,,
KRDR,07-24-2011,08:34,SPECI,,,0.0,,,800.0,Fog,13.0,13.0,30.06,1019.0,30,,,,,,,,,,,,,,Clear,72000.0,,,73000.0,,,,,,
KRDR,07-24-2011,08:32,SPECI,,,0.0,,,1200.0,Mist,13.0,13.0,30.07,1019.0,10,,,,,,,,,,,,,,Clear,72000.0,,,73000.0,,,,,,
KRDR,07-24-2011,08:24,SPECI,,,0.0,,,800.0,Fog,13.0,13.0,30.07,1019.2,30,,,,,,,,,,,,,,Clear,72000.0,,,73000.0,,,,,,
KRDR,07-24-2011,08:17,SPECI,,,0.0,,,800.0,Fog,13.0,13.0,30.07,1019.2,30,,,,,,,,,,,,,,Clear,72000.0,,,73000.0,,,,,,
KRDR,07-24-2011,08:00,METAR,,,0.0,,,800.0,Fog,13.0,13.0,30.07,1019.2,30,,,,,,,,,,,,,,Sky Obscured (Unable to Estimate),600.0,100.0,,600.0,,,,,,
KRDR,07-24-2011,07:50,SPECI,,,0.0,,,800.0,Fog,13.0,13.0,30.07,1019.2,30,,,,,,,,,,,,,,Sky Obscured (Unable to Estimate),600.0,100.0,,600.0,,,,,,
KRDR,07-24-2011,07:48,SPECI,,,0.0,,,800.0,Fog,13.0,13.0,30.07,1019.2,30,,,,,,,,,,,,,,Sky Obscured (Unable to Estimate),600.0,100.0,,600.0,,,,,,
KRDR,07-24-2011,07:45,SPECI,,,0.0,,,1200.0,Mist,13.0,13.0,30.07,1019.2,10,,,,,,,,,,,,,,Sky Obscured (Unable to Estimate),600.0,100.0,,600.0,,,,,,
KRDR,07-24-2011,07:43,SPECI,,,0.0,,,1600.0,Mist,14.0,14.0,30.07,1019.2,10,,,,,,,,,,,,,,Sky Obscured (Unable to Estimate),600.0,100.0,,600.0,,,,,,
KRDR,07-24-2011,07:37,SPECI,,,0.0,,,1200.0,Mist,14.0,14.0,30.07,1019.2,10,,,,,,,,,,,,,,Sky Obscured (Unable to Estimate),600.0,100.0,,600.0,,,,,,
KRDR,07-24-2011,07:35,SPECI,,280,3.0,,,800.0,Fog,14.0,14.0,30.07,1019.2,30,,,,,,,,,,,,,,Sky Obscured (Unable to Estimate),600.0,100.0,,600.0,,,,,,
KRDR,07-24-2011,07:26,SPECI,,,0.0,,,800.0,Fog,14.0,14.0,30.07,1019.3,30,,,,,,,,,,,,,,Sky Obscured (Unable to Estimate),600.0,100.0,,600.0,,,,,,
KRDR,07-24-2011,07:21,SPECI,,,0.0,,,800.0,Fog,14.0,14.0,30.07,1019.3,30,,,,,,,,,,,,,,Sky Obscured (Unable to Estimate),600.0,100.0,,600.0,,,,,,
KRDR,07-24-2011,07:18,SPECI,,,0.0,,,1200.0,Mist,14.0,14.0,30.07,1019.3,10,,,,,,,,,,,,,,Sky Obscured (Unable to Estimate),600.0,100.0,,600.0,,,,,,
KRDR,07-24-2011,07:14,SPECI,,,0.0,,,1200.0,Mist,14.0,14.0,30.07,1019.2,10,,,,,,,,,,,,,,Sky Obscured (Unable to Estimate),700.0,100.0,,700.0,,,,,,
KRDR,07-24-2011,07:12,SPECI,,,0.0,,,800.0,Fog,14.0,14.0,30.07,1019.2,30,,,,,,,,,,,,,,Sky Obscured (Unable to Estimate),700.0,100.0,,700.0,,,,,,
KRDR,07-24-2011,07:10,SPECI,,,0.0,,,800.0,Fog,14.0,14.0,30.07,1019.2,30,,,,,,,,,,,,,,Sky Obscured (Unable to Estimate),700.0,100.0,,700.0,,,,,,
KRDR,07-24-2011,07:08,SPECI,,,0.0,,,800.0,Fog,15.0,15.0,30.07,1019.2,30,,,,,,,,,,,,,,Sky Obscured (Unable to Estimate),700.0,100.0,,700.0,,,,,,
KRDR,07-24-2011,07:06,SPECI,,,0.0,,,800.0,Fog,15.0,15.0,30.07,1019.2,30,,,,,,,,,,,,,,Sky Obscured (Unable to Estimate),2000.0,100.0,,2000.0,,,,,,
KRDR,07-24-2011,07:02,SPECI,,,0.0,,,1600.0,Mist,15.0,15.0,30.07,1019.1,10,,,,,,,,,,,,,,Sky Obscured (Unable to Estimate),2000.0,100.0,,2000.0,,,,,,
KRDR,07-24-2011,07:00,METAR,,,0.0,,,9999.0,Mist,15.0,15.0,30.07,1019.1,10,,,,,,,,,,,,,,4/8 Partly Cloudy,72000.0,,,,,,,,,
KRDR,07-24-2011,07:00,SPECI,,,0.0,,,2800.0,Mist,15.0,15.0,30.07,1019.1,10,,,,,,,,,,,,,,2/8 Mostly Clear,72000.0,,FEW,2000.0,,,,,,
KRDR,07-24-2011,06:59,SPECI,,,0.0,,,3200.0,Mist,15.0,15.0,30.07,1019.1,10,,,,,,,,,,,,,,4/8 Partly Cloudy,72000.0,,SCT,2000.0,,,,,,
KRDR,07-24-2011,06:27,SPECI,,,0.0,,,9999.0,,16.0,16.0,30.07,1019.1,,,,,,,,,,,,,,,8/8 Overcast,1800.0,,FEW,1100.0,OVC,1800.0,,,,
KRDR,07-24-2011,06:00,METAR,,30,3.0,,,9999.0,,16.0,16.0,30.06,1018.9,,,,,,,,,,,,,,,8/8 Overcast,1700.0,,SCT,600.0,SCT,1100.0,OVC,1700.0,,
KRDR,07-24-2011,05:29,SPECI,,20,3.0,,,9999.0,,16.0,16.0,30.07,1019.1,,,,,,,,,,,,,,,8/8 Overcast,1100.0,,SCT,700.0,OVC,1700.0,,,,
KRDR,07-24-2011,05:07,SPECI,,,0.0,,,9999.0,,16.0,16.0,30.06,1018.9,,,,,,,,,,,,,,,8/8 Overcast,400.0,,OVC,500.0,,,,,,
KRDR,07-24-2011,05:00,METAR,,,0.0,,,9999.0,,16.0,16.0,30.06,1018.7,,,,,,,,,,,,,,,8/8 Overcast,700.0,,BKN,800.0,OVC,1600.0,,,,
KRDR,07-24-2011,04:53,SPECI,,20,3.0,,,9999.0,,16.0,16.0,30.06,1018.7,,,,,,,,,,,,,,,8/8 Overcast,700.0,,SCT,900.0,OVC,1600.0,,,,
KRDR,07-24-2011,04:48,SPECI,,20,3.0,,,9999.0,,16.0,16.0,30.05,1018.6,,,,,,,,,,,,,,,8/8 Overcast,700.0,,BKN,900.0,OVC,1600.0,,,,
KRDR,07-24-2011,04:45,SPECI,,10,3.0,,,9999.0,,16.0,16.0,30.05,1018.6,,,,,,,,,,,,,,,8/8 Overcast,1500.0,,SCT,900.0,OVC,1600.0,,,,
KRDR,07-24-2011,04:33,SPECI,,10,3.0,,,9999.0,,16.0,16.0,30.05,1018.6,,,,,,,,,,,,,,,8/8 Overcast,500.0,,BKN,800.0,OVC,1800.0,,,,
KRDR,07-24-2011,04:26,SPECI,,10,3.0,,,9999.0,,16.0,16.0,30.05,1018.5,,,,,,,,,,,,,,,8/8 Overcast,500.0,,BKN,600.0,OVC,2000.0,,,,
KRDR,07-24-2011,04:19,SPECI,,10,4.0,,,9999.0,,16.0,16.0,30.05,1018.4,,,,,,,,,,,,,,,8/8 Overcast,500.0,,BKN,700.0,OVC,1100.0,,,,
KRDR,07-24-2011,04:11,SPECI,,20,3.0,,,9999.0,,16.0,16.0,30.05,1018.4,,,,,,,,,,,,,,,8/8 Overcast,500.0,,BKN,600.0,OVC,1100.0,,,,
KRDR,07-24-2011,04:00,METAR,,,0.0,,,9999.0,,16.0,16.0,30.05,1018.5,,,,,,,,,,,,,,,8/8 Overcast,1100.0,,OVC,1300.0,,,,,,
KRDR,07-24-2011,03:00,METAR,,350,3.0,,,9999.0,,16.0,16.0,30.04,1018.0,,,,,,,,,,,TRACE,0 IN,,,8/8 Overcast,1200.0,,BKN,1200.0,OVC,2800.0,,,,
KRDR,07-24-2011,02:35,SPECI,,10,3.0,,,9999.0,,16.0,16.0,30.03,1017.8,,,,,,,,,,,,,,,8/8 Overcast,1100.0,,BKN,1100.0,OVC,2700.0,,,,
KRDR,07-24-2011,02:26,SPECI,,360,4.0,,,9999.0,Light Drizzle,16.0,16.0,30.03,1017.8,51,,,,,,,,,,,,,,8/8 Overcast,1100.0,,OVC,1100.0,,,,,,
KRDR,07-24-2011,02:00,METAR,,10,6.0,,,9999.0,,17.0,17.0,30.02,1017.5,,,,,,,,,,,,,,,8/8 Overcast,1100.0,,OVC,1100.0,,,,,,
KRDR,07-24-2011,01:05,SPECI,,40,5.0,,,9999.0,,17.0,17.0,30.01,1017.2,,,,,,,,,,,,,,,8/8 Overcast,700.0,,OVC,1100.0,,,,,,
KRDR,07-24-2011,01:00,METAR,,30,5.0,,,9999.0,,17.0,17.0,30.01,1017.3,,,,,,,,,,,,,,,8/8 Overcast,700.0,,BKN,900.0,OVC,1400.0,,,,
KRDR,07-24-2011,00:50,SPECI,,30,5.0,,,9999.0,,17.0,17.0,30.01,1017.3,,,,,,,,,,,,,,,8/8 Overcast,700.0,,OVC,1200.0,,,,,,
KRDR,07-24-2011,00:41,SPECI,,30,5.0,,,9999.0,,17.0,17.0,30.01,1017.2,,,,,,,,,,,,,,,8/8 Overcast,700.0,,BKN,900.0,OVC,1300.0,,,,
KRDR,07-24-2011,00:34,SPECI,,30,5.0,,,9999.0,,17.0,17.0,30.01,1017.1,,,,,,,,,,,,,,,8/8 Overcast,700.0,,OVC,1100.0,,,,,,
KRDR,07-24-2011,00:29,SPECI,,20,6.0,,,9999.0,,17.0,17.0,30.01,1017.2,,,,,,,,,,,,,,,8/8 Overcast,700.0,,BKN,900.0,OVC,1300.0,,,,
KRDR,07-24-2011,00:27,SPECI,,20,6.0,,,9999.0,,17.0,17.0,30.01,1017.2,,,,,,,,,,,,,,,8/8 Overcast,800.0,,OVC,1100.0,,,,,,
KRDR,07-24-2011,00:19,SPECI,,20,5.0,,,9999.0,,17.0,17.0,30.01,1017.1,,,,,,,,,,,,,,,8/8 Overcast,800.0,,BKN,900.0,OVC,1600.0,,,,
KRDR,07-24-2011,00:16,SPECI,,20,5.0,,,9999.0,,17.0,17.0,30.01,1017.1,,,,,,,,,,,,,,,8/8 Overcast,800.0,,BKN,1000.0,OVC,1600.0,,,,
KRDR,07-24-2011,00:00,METAR,,40,4.0,,,9999.0,,18.0,18.0,30.00,1016.9,,,,,,,,,,,,,,,8/8 Overcast,1200.0,,SCT,900.0,BKN,1500.0,OVC,2200.0,,
KRDR,07-23-2011,23:38,SPECI,,40,6.0,,,9999.0,,18.0,18.0,30.00,1016.9,,,,,,,,,,,,,,,8/8 Overcast,900.0,,BKN,900.0,OVC,1700.0,,,,
KRDR,07-23-2011,23:32,SPECI,,70,5.0,,,9999.0,,18.0,18.0,30.00,1016.9,,,,,,,,,,,,,,,8/8 Overcast,1000.0,,FEW,1000.0,BKN,1700.0,OVC,2200.0,,
KRDR,07-23-2011,23:28,SPECI,,70,5.0,,,9999.0,,17.0,17.0,30.00,1016.8,,,,,,,,,,,,,,,8/8 Overcast,1100.0,,SCT,1300.0,OVC,1900.0,,,,
KRDR,07-23-2011,23:15,SPECI,,,0.0,,,9999.0,,17.0,17.0,30.01,1017.1,,,,,,,,,,,,,,,8/8 Overcast,1300.0,,BKN,1300.0,OVC,1900.0,,,,
KRDR,07-23-2011,23:13,SPECI,,,0.0,,,9999.0,,17.0,17.0,30.01,1017.1,,,,,,,,,,,,,,,8/8 Overcast,1500.0,,OVC,1500.0,,,,,,
KRDR,07-23-2011,23:00,METAR,,,0.0,,,9999.0,,18.0,18.0,30.01,1017.0,,,,,,,,,,,,,,,8/8 Overcast,1300.0,,OVC,1400.0,,,,,,
KRDR,07-23-2011,22:04,SPECI,,130,5.0,,,9999.0,,18.0,18.0,29.97,1016.0,,,,,,,,,,,,,,,8/8 Overcast,1200.0,,OVC,1500.0,,,,,,
KRDR,07-23-2011,22:00,METAR,,110,6.0,,,9999.0,,18.0,18.0,29.96,1015.6,,,,,,,,,,,TRACE,,,,8/8 Overcast,1200.0,,OVC,1400.0,,,,,,
KRDR,07-23-2011,21:06,SPECI,,50,7.0,,,9999.0,,18.0,18.0,29.94,1015.0,,,,,,,,,,,,,,,8/8 Overcast,1400.0,,OVC,1400.0,,,,,,
KRDR,07-23-2011,21:00,METAR,,40,9.0,,,9999.0,,17.0,17.0,29.94,1014.8,,,,,,,,,,,,,,,8/8 Overcast,1400.0,,OVC,1400.0,,,,,,
KRDR,07-23-2011,20:36,SPECI,,10,9.0,,,9999.0,Light Drizzle,17.0,17.0,29.98,1016.1,51,,,,,,,,,,,,,,8/8 Overcast,1200.0,,OVC,1200.0,,,,,,
KRDR,07-23-2011,20:00,METAR,,10,10.0,,,9999.0,,17.0,17.0,29.94,1014.8,,,,,,,,,,,,,,,8/8 Overcast,1100.0,,OVC,1100.0,,,,,,
KRDR,07-23-2011,19:24,SPECI,,10,9.0,,,9999.0,,17.0,17.0,29.93,1014.7,,,,,,,,,,,,,,,8/8 Overcast,1000.0,,OVC,1000.0,,,,,,
KRDR,07-23-2011,19:00,METAR,,10,9.0,,,9999.0,,16.0,16.0,29.94,1015.0,,,,,,,,,,,,,,,8/8 Overcast,800.0,,OVC,800.0,,,,,,
KRDR,07-23-2011,18:41,SPECI,,20,12.0,,,9999.0,,16.0,16.0,29.95,1015.2,,,,,,,,,,,,,,,8/8 Overcast,800.0,,BKN,900.0,OVC,1400.0,,,,
KRDR,07-23-2011,18:38,SPECI,,10,11.0,,,9999.0,,16.0,16.0,29.95,1015.3,,,,,,,,,,,,,,,8/8 Overcast,800.0,,BKN,1000.0,OVC,1400.0,,,,
KRDR,07-23-2011,18:20,SPECI,,10,9.0,,,9999.0,,17.0,17.0,29.95,1015.3,,,,,,,,,,,,,,,8/8 Overcast,800.0,,BKN,900.0,OVC,1400.0,,,,
KRDR,07-23-2011,18:14,SPECI,,20,10.0,,,9999.0,,17.0,17.0,29.95,1015.1,,,,,,,,,,,,,,,8/8 Overcast,800.0,,BKN,1000.0,OVC,1400.0,,,,
KRDR,07-23-2011,18:11,SPECI,,10,9.0,,,9999.0,,17.0,17.0,29.95,1015.2,,,,,,,,,,,,,,,8/8 Overcast,800.0,,OVC,1200.0,,,,,,
KRDR,07-23-2011,18:08,SPECI,,10,9.0,,,9999.0,,17.0,17.0,29.95,1015.2,,,,,,,,,,,,,,,8/8 Overcast,800.0,,BKN,900.0,OVC,1300.0,,,,
KRDR,07-23-2011,18:00,METAR,,350,9.0,,,9999.0,,17.0,17.0,29.95,1015.2,,,,,,,,,,,,,,,8/8 Overcast,1000.0,,OVC,1200.0,,,,,,
KRDR,07-23-2011,17:24,SPECI,,20,12.0,,,9999.0,,18.0,18.0,29.92,1014.3,,,,,,,,,,,,,,,8/8 Overcast,1100.0,,OVC,1400.0,,,,,,
KRDR,07-23-2011,17:05,SPECI,,20,10.0,,,9999.0,,18.0,18.0,29.93,1014.5,,,,,,,,,,,,,,,8/8 Overcast,1500.0,,OVC,1500.0,,,,,,
KRDR,07-23-2011,17:00,METAR,,10,10.0,,,9999.0,,18.0,18.0,29.92,1014.3,,,,,,,,,,,,,,,8/8 Overcast,1200.0,,OVC,1400.0,,,,,,
KRDR,07-23-2011,16:50,SPECI,,360,8.0,,,9999.0,,18.0,18.0,29.92,1014.3,,,,,,,,,,,,,,,8/8 Overcast,1200.0,,OVC,1400.0,,,,,,
KRDR,07-23-2011,16:00,METAR,,,4.0,,,9999.0,,18.0,18.0,29.93,1014.4,,,,,,,,,,,,,,,8/8 Overcast,1500.0,,OVC,1500.0,,,,,,
KRDR,07-23-2011,15:36,SPECI,,70,3.0,,,9999.0,,18.0,18.0,29.92,1014.2,,,,,,,,,,,,,,,8/8 Overcast,1500.0,,OVC,1500.0,,,,,,
KRDR,07-23-2011,15:08,SPECI,,100,4.0,,,9999.0,,18.0,18.0,29.90,1013.5,,,,,,,,,,,,,,,7/8 Mostly Cloudy,1100.0,,BKN,1200.0,,,,,,
KRDR,07-23-2011,15:02,SPECI,,70,6.0,,,9999.0,,18.0,18.0,29.89,1013.1,,,,,,,,,,,,,,,4/8 Partly Cloudy,72000.0,,SCT,1200.0,,,,,,
KRDR,07-23-2011,15:00,METAR,,80,6.0,,,9999.0,,17.0,17.0,29.89,1013.1,,,,,,,,,,,,,,,7/8 Mostly Cloudy,1200.0,,BKN,1200.0,,,,,,
KRDR,07-23-2011,14:38,SPECI,,100,8.0,,,9999.0,,17.0,17.0,29.88,1012.8,,,,,,,,,,,,,,,2/8 Mostly Clear,72000.0,,FEW,1100.0,,,,,,
KRDR,07-23-2011,14:00,METAR,,110,8.0,,,9999.0,,16.0,16.0,29.89,1013.1,,,,,,,,,,,,,,,Clear,72000.0,,,73000.0,,,,,,
KRDR,07-23-2011,13:00,METAR,,130,9.0,,,9999.0,,15.0,15.0,29.86,1012.4,,,,,,,,,,,,,,,Clear,72000.0,,,73000.0,,,,,,
KRDR,07-23-2011,12:11,SPECI,,100,6.0,,,9999.0,,14.0,14.0,29.89,1013.2,,,,,,,,,,,,,,,7/8 Mostly Cloudy,4700.0,,SCT,700.0,BKN,4800.0,,,,
KRDR,07-23-2011,12:08,SPECI,,,0.0,,,9999.0,,14.0,14.0,29.90,1013.5,,,,,,,,,,,,,,,7/8 Mostly Cloudy,700.0,,BKN,700.0,,,,,,
KRDR,07-23-2011,12:00,METAR,,100,10.0,,,9999.0,,14.0,14.0,29.86,1012.3,,,,,,,,,,,,,1.37 IN,1.37 IN,Clear,72000.0,,,73000.0,,,,,,
KRDR,07-23-2011,11:00,METAR,,70,14.0,,,9999.0,,14.0,14.0,29.83,1011.3,,,,,,,,,,,.06 IN,,,,4/8 Partly Cloudy,72000.0,,SCT,700.0,,,,,,
KRDR,07-23-2011,10:50,SPECI,,60,14.0,,,9999.0,,14.0,14.0,29.84,1011.4,,,,,,,,,,,,,,,4/8 Partly Cloudy,72000.0,,SCT,700.0,,,,,,
KRDR,07-23-2011,10:47,SPECI,,60,15.0,,,9999.0,,14.0,14.0,29.84,1011.6,,,,,,,,,,,,,,,7/8 Mostly Cloudy,800.0,,BKN,800.0,,,,,,
KRDR,07-23-2011,10:42,SPECI,,50,16.0,,,9999.0,,14.0,14.0,29.86,1012.2,,,,,,,,,,,,,,,7/8 Mostly Cloudy,700.0,,SCT,700.0,BKN,2000.0,,,,
KRDR,07-23-2011,10:39,SPECI,,40,15.0,,,9999.0,,14.0,14.0,29.88,1012.8,,,,,,,,,,,,,,,7/8 Mostly Cloudy,700.0,,BKN,700.0,BKN,2700.0,,,,
KRDR,07-23-2011,10:34,SPECI,,40,13.0,,,9999.0,Light Rain,14.0,14.0,29.89,1013.2,61,,,,,,,,,,,,,,7/8 Mostly Cloudy,600.0,,SCT,600.0,BKN,2600.0,,,,
KRDR,07-23-2011,10:18,SPECI,,50,10.0,,,9999.0,Light Rain,14.0,14.0,29.91,1014.0,61,,,,,,,,,,,,,,8/8 Overcast,600.0,,BKN,600.0,OVC,5900.0,,,,
KRDR,07-23-2011,10:13,SPECI,,50,12.0,,,9999.0,Rain,14.0,14.0,29.91,1013.8,62,,,,,,,,,,,,,,8/8 Overcast,500.0,,BKN,500.0,OVC,6400.0,,,,
KRDR,07-23-2011,10:06,SPECI,,40,9.0,,,8000.0,Rain/Mist,14.0,14.0,29.92,1014.2,62,10,,,,,,,,,,,,,8/8 Overcast,500.0,,BKN,500.0,OVC,6900.0,,,,
KRDR,07-23-2011,10:01,SPECI,,60,11.0,,,8000.0,Thunderstorm and Rain or Snow Showers/Mist,14.0,14.0,29.91,1013.8,92,10,,,,,,,,,,,,,8/8 Overcast,7000.0,,SCT,400.0,OVC,6900.0,,,,
KRDR,07-23-2011,10:00,METAR,,60,12.0,,,6400.0,Heavy Thunderstorm and Rain or Snow Showers/Mist,14.0,14.0,29.92,1014.3,95,10,,,,,,,,,.25 IN,,,,8/8 Overcast,400.0,,SCT,500.0,OVC,5900.0,,,,
KRDR,07-23-2011,09:39,SPECI,,30,9.0,,,6400.0,Heavy Thunderstorm and Rain or Snow Showers/Mist,14.0,14.0,29.94,1015.0,95,10,,,,,,,,,,,,,8/8 Overcast,400.0,,BKN,400.0,OVC,5900.0,,,,
KRDR,07-23-2011,09:38,SPECI,,30,9.0,,,6400.0,Heavy Thunderstorm and Rain or Snow Showers/Mist,14.0,14.0,29.94,1015.0,95,10,,,,,,,,,,,,,8/8 Overcast,6000.0,,SCT,400.0,OVC,5900.0,,,,
KRDR,07-23-2011,09:26,SPECI,,30,12.0,,,6400.0,Rain/Mist,14.0,14.0,29.95,1015.3,62,10,,,,,,,,,,,,,8/8 Overcast,7000.0,,FEW,400.0,OVC,6900.0,,,,
KRDR,07-23-2011,09:15,SPECI,,20,12.0,,,9999.0,Light Rain,14.0,14.0,29.95,1015.1,61,,,,,,,,,,,,,,8/8 Overcast,6500.0,,FEW,400.0,OVC,6400.0,,,,
KRDR,07-23-2011,09:08,SPECI,,30,14.0,,,9999.0,Light Rain/Mist,14.0,14.0,29.97,1015.7,61,10,,,,,,,,,,,,,8/8 Overcast,6500.0,,FEW,200.0,OVC,6400.0,,,,
KRDR,07-23-2011,09:01,SPECI,,10,11.0,,,6400.0,Thunderstorm and Rain or Snow Showers/Mist,14.0,14.0,29.98,1016.3,92,10,,,,,,,,,,,,,8/8 Overcast,4800.0,,FEW,200.0,OVC,4900.0,,,,
KRDR,07-23-2011,09:00,METAR,,360,12.0,,330/30KTS,4000.0,Heavy Thunderstorm and Rain or Snow Showers/Mist,14.0,14.0,29.99,1016.5,95,10,,,,,,,,,.87 IN,1.06 IN,,,8/8 Overcast,3300.0,,FEW,200.0,OVC,3400.0,,,,
KRDR,07-23-2011,08:53,SPECI,,360,11.0,,,4800.0,Heavy Thunderstorm and Rain or Snow Showers/Mist,14.0,14.0,29.99,1016.4,95,10,,,,,,,,,,,,,8/8 Overcast,3500.0,,FEW,200.0,OVC,3600.0,,,,
KRDR,07-23-2011,08:50,SPECI,,350,11.0,,330/30KTS,3200.0,Heavy Thunderstorm and Rain or Snow Showers/Mist,14.0,14.0,30.00,1016.8,95,10,,,,,,,,,,,,,8/8 Overcast,2600.0,,SCT,200.0,OVC,3200.0,,,,
KRDR,07-23-2011,08:49,SPECI,,340,11.0,,330/30KTS,3200.0,Heavy Thunderstorm and Rain or Snow Showers/Mist,14.0,14.0,30.00,1017.0,95,10,,,,,,,,,,,,,8/8 Overcast,2900.0,,SCT,200.0,OVC,2900.0,,,,
KRDR,07-23-2011,08:46,SPECI,,340,10.0,,330/30KTS,2400.0,Heavy Thunderstorm and Rain or Snow Showers/Mist,15.0,15.0,30.02,1017.4,95,10,,,,,,,,,,,,,8/8 Overcast,2500.0,,SCT,200.0,OVC,2500.0,,,,
KRDR,07-23-2011,08:38,SPECI,,300,10.0,21.0,330/30KTS,2000.0,Heavy Thunderstorm and Rain or Snow Showers/Mist,15.0,15.0,30.03,1017.7,95,10,,,,,,,,,,,,,8/8 Overcast,2500.0,,SCT,200.0,SCT,1400.0,OVC,2500.0,,
KRDR,07-23-2011,08:36,SPECI,,310,12.0,21.0,330/30KTS,2400.0,Heavy Thunderstorm and Rain or Snow Showers/Mist,15.0,15.0,30.02,1017.4,95,10,,,,,,,,,,,,,8/8 Overcast,2600.0,,SCT,200.0,SCT,1400.0,OVC,2600.0,,
KRDR,07-23-2011,08:34,SPECI,,320,15.0,25.0,330/30KTS,2400.0,Heavy Rain/Mist,15.0,15.0,30.01,1017.1,63,10,,,,,,,,,,,,,8/8 Overcast,2500.0,,SCT,200.0,SCT,1400.0,OVC,2500.0,,
KRDR,07-23-2011,08:32,SPECI,,310,16.0,25.0,330/30KTS,2000.0,Heavy Rain/Mist,15.0,15.0,30.02,1017.3,63,10,,,,,,,,,,,,,8/8 Overcast,2300.0,,SCT,200.0,SCT,1400.0,OVC,2300.0,,
KRDR,07-23-2011,08:29,SPECI,,300,13.0,25.0,330/30KTS,2000.0,Heavy Thunderstorm and Rain or Snow Showers/Mist,15.0,15.0,30.04,1018.0,95,10,,,,,,,,,,,,,8/8 Overcast,1700.0,,FEW,200.0,SCT,1000.0,OVC,2300.0,,
KRDR,07-23-2011,08:27,SPECI,,290,15.0,25.0,330/30KTS,1600.0,Heavy Thunderstorm and Rain or Snow Showers/Mist,15.0,15.0,30.04,1018.1,95,10,,,,,,,,,,,,,8/8 Overcast,2300.0,,FEW,200.0,SCT,800.0,OVC,2300.0,,
KRDR,07-23-2011,08:25,SPECI,,290,18.0,25.0,330/30KTS,2000.0,Heavy Thunderstorm and Rain or Snow Showers/Mist,15.0,15.0,30.03,1018.0,95,10,,,,,,,,,,,,,8/8 Overcast,1300.0,,FEW,200.0,BKN,1300.0,OVC,2400.0,,
KRDR,07-23-2011,08:22,SPECI,,300,14.0,19.0,330/30KTS,2800.0,Heavy Thunderstorm and Rain or Snow Showers/Mist,15.0,15.0,30.02,1017.6,95,10,,,,,,,,,,,,,8/8 Overcast,1300.0,,SCT,500.0,BKN,1300.0,OVC,4800.0,,
KRDR,07-23-2011,08:20,SPECI,,310,14.0,19.0,330/30KTS,4000.0,Heavy Thunderstorm and Rain or Snow Showers/Mist,16.0,15.0,30.01,1017.2,95,10,,,,,,,,,,,,,8/8 Overcast,1100.0,,FEW,500.0,BKN,3600.0,OVC,4800.0,,
KRDR,07-23-2011,08:12,SPECI,,350,10.0,30.0,330/30KTS,8000.0,Heavy Thunderstorm and Rain or Snow Showers/Mist,16.0,16.0,29.98,1016.3,95,10,,,,,,,,,,,,,8/8 Overcast,1100.0,,SCT,900.0,BKN,4800.0,OVC,5900.0,,
KRDR,07-23-2011,08:11,SPECI,,350,9.0,30.0,330/30KTS,8000.0,Heavy Thunderstorm and Rain or Snow Showers/Mist,16.0,16.0,29.98,1016.3,95,10,,,,,,,,,,,,,8/8 Overcast,1400.0,,SCT,900.0,BKN,1400.0,OVC,5900.0,,
KRDR,07-23-2011,08:07,SPECI,,360,19.0,30.0,330/30KTS,9999.0,Heavy Thunderstorm and Rain or Snow Showers/Mist,16.0,16.0,29.95,1015.1,95,10,,,,,,,,,,,,,8/8 Overcast,1200.0,,FEW,800.0,BKN,1200.0,OVC,5900.0,,
KRDR,07-23-2011,08:01,SPECI,,330,15.0,24.0,,9999.0,Thunderstorm and Rain or Snow Showers,16.0,16.0,29.94,1014.7,92,,,,,,,,,,,,,,8/8 Overcast,4800.0,,FEW,800.0,BKN,4900.0,OVC,5900.0,,
KRDR,07-23-2011,08:00,METAR,,50,12.0,,,9999.0,Light Rain,16.0,16.0,29.90,1013.5,61,,,,,,,,,,.18 IN,,,,8/8 Overcast,6000.0,,FEW,3600.0,SCT,5000.0,OVC,5900.0,,
KRDR,07-23-2011,07:56,SPECI,,330,12.0,,,9999.0,Light Rain,16.0,16.0,29.94,1014.7,61,,,,,,,,,,,,,,8/8 Overcast,6000.0,,FEW,3500.0,SCT,5000.0,OVC,5900.0,,
KRDR,07-23-2011,07:36,SPECI,,80,14.0,,,9999.0,Light Rain,16.0,16.0,29.88,1012.9,61,,,,,,,,,,,,,,8/8 Overcast,4400.0,,FEW,300.0,BKN,4500.0,OVC,7400.0,,
KRDR,07-23-2011,07:31,SPECI,,70,11.0,,,6400.0,Thunderstorm and Rain or Snow Showers/Mist,16.0,16.0,29.89,1013.1,92,10,,,,,,,,,,,,,8/8 Overcast,4500.0,,FEW,300.0,BKN,4600.0,OVC,6400.0,,
KRDR,07-23-2011,07:30,SPECI,,60,11.0,,,4800.0,Thunderstorm and Rain or Snow Showers/Mist,16.0,16.0,29.88,1013.0,92,10,,,,,,,,,,,,,8/8 Overcast,3900.0,,FEW,300.0,BKN,4700.0,OVC,6400.0,,
KRDR,07-23-2011,07:28,SPECI,,50,13.0,,,4000.0,Heavy Thunderstorm and Rain or Snow Showers/Mist,16.0,16.0,29.88,1012.8,95,10,,,,,,,,,,,,,8/8 Overcast,3900.0,,FEW,300.0,BKN,4700.0,OVC,6900.0,,
KRDR,07-23-2011,07:25,SPECI,,50,12.0,,,4000.0,Heavy Thunderstorm and Rain or Snow Showers/Mist,16.0,16.0,29.88,1013.0,95,10,,,,,,,,,,,,,8/8 Overcast,4900.0,,SCT,300.0,BKN,5000.0,OVC,7400.0,,
KRDR,07-23-2011,07:23,SPECI,,40,10.0,,,4000.0,Heavy Thunderstorm and Rain or Snow Showers/Mist,16.0,16.0,29.89,1013.2,95,10,,,,,,,,,,,,,8/8 Overcast,5500.0,,FEW,300.0,BKN,5400.0,OVC,7400.0,,
KRDR,07-23-2011,07:16,SPECI,,50,10.0,,,9999.0,Thunderstorm and Rain or Snow Showers,16.0,16.0,29.89,1013.4,92,,,,,,,,,,,,,,8/8 Overcast,5500.0,,FEW,500.0,BKN,5400.0,OVC,7400.0,,
KRDR,07-23-2011,07:01,SPECI,,300,11.0,,,9999.0,Thunderstorm and Rain or Snow Showers,16.0,16.0,29.95,1015.1,92,,,,,,,,,,,,,,8/8 Overcast,5500.0,,BKN,5400.0,OVC,12000.0,,,,
KRDR,07-23-2011,07:00,METAR,,340,10.0,,,9999.0,,16.0,16.0,29.89,1013.3,,,,,,,,,,,.01 IN,,,,8/8 Overcast,11000.0,,SCT,5400.0,OVC,11000.0,,,,
KRDR,07-23-2011,06:37,SPECI,,60,11.0,,,9999.0,Thunderstorm and Rain or Snow Showers,16.0,16.0,29.86,1012.4,92,,,,,,,,,,,,,,7/8 Mostly Cloudy,11000.0,,FEW,2500.0,BKN,11000.0,,,,
KRDR,07-23-2011,06:05,SPECI,,50,16.0,,,9999.0,Light Rain,16.0,16.0,29.86,1012.1,61,,,,,,,,,,,,,,4/8 Partly Cloudy,72000.0,,FEW,900.0,SCT,9400.0,,,,
KRDR,07-23-2011,06:01,SPECI,,50,15.0,,,9999.0,Light Rain,16.0,16.0,29.85,1011.9,61,,,,,,,,,,,,,,2/8 Mostly Clear,72000.0,,FEW,5900.0,,,,,,
KRDR,07-23-2011,06:00,SPECI,,50,15.0,,,9999.0,,16.0,16.0,29.85,1011.9,,,,,,,,,,,,,,,4/8 Partly Cloudy,72000.0,,,,,,,,,
KRDR,07-23-2011,06:00,METAR,,30,13.0,,,9999.0,,16.0,16.0,29.89,1013.1,,,,,,,,,,,,,,,2/8 Mostly Clear,72000.0,,FEW,9900.0,,,,,,
KRDR,07-23-2011,05:00,METAR,,20,7.0,,,9999.0,,16.0,16.0,29.92,1014.3,,,,,,,,,,,,,,,Clear,72000.0,,,73000.0,,,,,,
KRDR,07-23-2011,04:00,METAR,,30,9.0,,,9999.0,,17.0,16.0,29.93,1014.5,,,,,,,,,,,,,,,Clear,72000.0,,,73000.0,,,,,,
KRDR,07-23-2011,03:00,METAR,,30,12.0,,,9999.0,,19.0,17.0,29.92,1014.1,,,,,,,,,,,,,,,Clear,72000.0,,,73000.0,,,,,,
KRDR,07-23-2011,02:00,METAR,,40,10.0,,,9999.0,,21.0,16.0,29.89,1013.3,,,,,,,,,,,,,,,Clear,72000.0,,,73000.0,,,,,,
KRDR,07-23-2011,01:00,METAR,,40,11.0,,,9999.0,,22.0,16.0,29.88,1012.9,,,,,,,,,,,,,,,Clear,72000.0,,,73000.0,,,,,,
KRDR,07-23-2011,00:00,METAR,,70,10.0,,,9999.0,,23.0,15.0,29.89,1013.1,,,,,,,,,,,,,,,Clear,72000.0,,,73000.0,,,,,,
KRDR,07-22-2011,23:00,METAR,,50,12.0,,,9999.0,,24.0,16.0,29.91,1013.8,,,,,,,,,,,,,,,Clear,72000.0,,,73000.0,,,,,,
KRDR,07-22-2011,22:00,METAR,,30,12.0,,,9999.0,,25.0,16.0,29.90,1013.6,,,,,,,,,,,,,,,Clear,72000.0,,,73000.0,,,,,,
KRDR,07-22-2011,21:00,METAR,,40,12.0,17.0,,9999.0,,25.0,16.0,29.89,1013.4,,,,,,,,,,,,,,,Clear,72000.0,,,73000.0,,,,,,
KRDR,07-22-2011,20:00,METAR,,20,12.0,,,9999.0,,25.0,16.0,29.89,1013.4,,,,,,,,,,,,,,,Clear,72000.0,,,73000.0,,,,,,
KRDR,07-22-2011,19:00,METAR,,50,6.0,17.0,,9999.0,,24.0,17.0,29.90,1013.5,,,,,,,,,,,,,,,Clear,72000.0,,,73000.0,,,,,,
KRDR,07-22-2011,18:00,METAR,,50,11.0,,,9999.0,,24.0,17.0,29.89,1013.3,,,,,,,,,,,,,,,Clear,72000.0,,,73000.0,,,,,,
KRDR,07-22-2011,17:00,METAR,,40,10.0,,,9999.0,,23.0,18.0,29.89,1013.1,,,,,,,,,,,,,,,Clear,72000.0,,,73000.0,,,,,,
KRDR,07-22-2011,16:00,METAR,,40,11.0,,,9999.0,,22.0,16.0,29.88,1012.7,,,,,,,,,,,,,,,Clear,72000.0,,,73000.0,,,,,,
KRDR,07-22-2011,15:00,METAR,,30,7.0,,,9999.0,,21.0,15.0,29.88,1012.8,,,,,,,,,,,,,,,Clear,72000.0,,,73000.0,,,,,,
KRDR,07-22-2011,14:00,METAR,,20,8.0,,,9999.0,,19.0,14.0,29.86,1012.3,,,,,,,,,,,,,,,Clear,72000.0,,,73000.0,,,,,,
KRDR,07-22-2011,13:00,METAR,,360,7.0,,,9999.0,,18.0,17.0,29.85,1011.8,,,,,,,,,,,,,,,Clear,72000.0,,,73000.0,,,,,,
KRDR,07-22-2011,12:00,METAR,,330,3.0,,,9999.0,,15.0,15.0,29.84,1011.4,,,,,,,,,,,,,,,Clear,72000.0,,,73000.0,,,,,,
KRDR,07-22-2011,11:00,METAR,,,0.0,,,9999.0,,15.0,15.0,29.82,1010.7,,,,,,,,,,,,,,,Clear,72000.0,,,73000.0,,,,,,
KRDR,07-22-2011,10:00,METAR,,,0.0,,,9999.0,,16.0,16.0,29.80,1010.4,,,,,,,,,,,,,,,Clear,72000.0,,,73000.0,,,,,,
KRDR,07-22-2011,09:00,METAR,,360,3.0,,,9999.0,,17.0,17.0,29.80,1010.2,,,,,,,,,,,,,,,Clear,72000.0,,,73000.0,,,,,,
KRDR,07-22-2011,08:00,METAR,,290,6.0,,,9999.0,,19.0,19.0,29.79,1009.8,,,,,,,,,,,,,,,Clear,72000.0,,,73000.0,,,,,,
KRDR,07-22-2011,07:00,METAR,,240,4.0,,,9999.0,,18.0,18.0,29.79,1009.9,,,,,,,,,,,,,,,Clear,72000.0,,,73000.0,,,,,,
KRDR,07-22-2011,06:00,METAR,,250,5.0,,,9999.0,,18.0,18.0,29.78,1009.7,,,,,,,,,,,,,,,Clear,72000.0,,,73000.0,,,,,,
KRDR,07-22-2011,05:00,METAR,,260,3.0,,,9999.0,,19.0,19.0,29.76,1008.9,,,,,,,,,,,,,,,Clear,72000.0,,,73000.0,,,,,,
KRDR,07-22-2011,04:00,METAR,,,0.0,,,9999.0,,19.0,19.0,29.76,1008.8,,,,,,,,,,,,,,,Clear,72000.0,,,73000.0,,,,,,
KRDR,07-22-2011,03:00,METAR,,240,4.0,,,9999.0,,20.0,20.0,29.76,1008.8,,,,,,,,,,,,,,,Clear,72000.0,,,73000.0,,,,,,
KRDR,07-22-2011,02:00,METAR,,240,4.0,,,9999.0,,24.0,19.0,29.74,1008.4,,,,,,,,,,,,,,,Clear,72000.0,,,73000.0,,,,,,
KRDR,07-22-2011,01:00,METAR,,260,5.0,,,9999.0,,27.0,16.0,29.75,1008.6,,,,,,,,,,,,,,,Clear,72000.0,,,73000.0,,,,,,
KRDR,07-22-2011,00:00,METAR,,250,11.0,,,9999.0,,28.0,16.0,29.75,1008.5,,,,,,,,,,,,,,,Clear,72000.0,,,73000.0,,,,,,
KRDR,07-21-2011,23:00,METAR,,260,11.0,,,9999.0,,29.0,15.0,29.75,1008.7,,,,,,,,,,,,,,,Clear,72000.0,,,73000.0,,,,,,
KRDR,07-21-2011,22:00,METAR,,250,14.0,20.0,,9999.0,,29.0,14.0,29.75,1008.7,,,,,,,,,,,,,,,2/8 Mostly Clear,72000.0,,FEW,11000.0,,,,,,
KRDR,07-21-2011,21:00,METAR,,250,12.0,18.0,,9999.0,,29.0,16.0,29.75,1008.7,,,,,,,,,,,,,,,Clear,72000.0,,,73000.0,,,,,,
KRDR,07-21-2011,20:00,METAR,,260,15.0,20.0,,9999.0,,29.0,15.0,29.76,1008.9,,,,,,,,,,,,,,,Clear,72000.0,,,73000.0,,,,,,
KRDR,07-21-2011,19:00,METAR,,270,14.0,,,9999.0,,28.0,14.0,29.76,1009.1,,,,,,,,,,,,,,,Clear,72000.0,,,73000.0,,,,,,
KRDR,07-21-2011,18:00,METAR,,290,13.0,18.0,,9999.0,Haze Smoke or Dust,27.0,13.0,29.77,1009.2,4,,,,,,,,,,,,,,Clear,72000.0,,,73000.0,,,,,,
KRDR,07-21-2011,17:00,METAR,,250,11.0,19.0,,9999.0,,27.0,14.0,29.78,1009.5,,,,,,,,,,,,,,,Clear,72000.0,,,73000.0,,,,,,
KRDR,07-21-2011,16:00,METAR,,270,10.0,16.0,,9999.0,,26.0,15.0,29.77,1009.3,,,,,,,,,,,,,,,Clear,72000.0,,,73000.0,,,,,,
KRDR,07-21-2011,15:00,METAR,,260,10.0,,,9999.0,,24.0,15.0,29.79,1009.8,,,,,,,,,,,,,,,Clear,72000.0,,,73000.0,,,,,,
KRDR,07-21-2011,14:00,METAR,,260,9.0,,,9999.0,,22.0,14.0,29.79,1009.9,,,,,,,,,,,,,,,Clear,72000.0,,,73000.0,,,,,,
KRDR,07-21-2011,13:00,METAR,,250,7.0,,,9999.0,,19.0,14.0,29.79,1009.8,,,,,,,,,,,,,,,Clear,72000.0,,,73000.0,,,,,,
KRDR,07-21-2011,12:00,METAR,,260,7.0,,,9999.0,,17.0,15.0,29.77,1009.4,,,,,,,,,,,,,,.01 IN,Clear,72000.0,,,73000.0,,,,,,
KRDR,07-21-2011,11:00,METAR,,260,7.0,,,9999.0,,15.0,15.0,29.76,1009.0,,,,,,,,,,,,,,,Clear,72000.0,,,73000.0,,,,,,
KRDR,07-21-2011,10:00,METAR,,250,6.0,,,9999.0,,14.0,14.0,29.75,1008.6,,,,,,,,,,,,,,,Clear,72000.0,,,73000.0,,,,,,
KRDR,07-21-2011,09:00,METAR,,280,7.0,,,9999.0,,16.0,14.0,29.74,1008.3,,,,,,,,,,,,,,,Clear,72000.0,,,73000.0,,,,,,
KRDR,07-21-2011,08:00,METAR,,290,7.0,,,9999.0,,18.0,14.0,29.74,1008.1,,,,,,,,,,,,,,,Clear,72000.0,,,73000.0,,,,,,
KRDR,07-21-2011,07:00,METAR,,270,5.0,,,9999.0,,17.0,15.0,29.74,1008.3,,,,,,,,,,,,,,,Clear,72000.0,,,73000.0,,,,,,
KRDR,07-21-2011,06:00,METAR,,310,11.0,,,9999.0,,20.0,12.0,29.73,1007.8,,,,,,,,,,,,,,,Clear,72000.0,,,73000.0,,,,,,
KRDR,07-21-2011,05:00,METAR,,300,14.0,22.0,310/26KTS,9999.0,,22.0,13.0,29.70,1006.9,,,,,,,,,,,,,,,Clear,72000.0,,,73000.0,,,,,,
KRDR,07-21-2011,04:00,METAR,,280,11.0,,,9999.0,,22.0,15.0,29.67,1005.9,,,,,,,,,,,,,,,Clear,72000.0,,,73000.0,,,,,,
KRDR,07-21-2011,03:00,METAR,,280,12.0,,,9999.0,,24.0,15.0,29.64,1005.0,,,,,,,,,,,,,,,Clear,72000.0,,,73000.0,,,,,,
KRDR,07-21-2011,02:00,METAR,,290,12.0,19.0,,9999.0,,25.0,15.0,29.62,1004.2,,,,,,,,,,,,,,,Clear,72000.0,,,73000.0,,,,,,
KRDR,07-21-2011,01:00,METAR,,290,13.0,21.0,,9999.0,,27.0,16.0,29.60,1003.8,,,,,,,,,,,,,,,Clear,72000.0,,,73000.0,,,,,,
KRDR,07-21-2011,00:00,METAR,,280,18.0,29.0,300/31KTS,9999.0,,28.0,14.0,29.58,1003.0,,,,,,,,,,,,,,,Clear,72000.0,,,73000.0,,,,,,
KRDR,07-20-2011,23:00,METAR,,290,18.0,25.0,290/34KTS,9999.0,,29.0,15.0,29.56,1002.3,,,,,,,,,,,,,,,Clear,72000.0,,,73000.0,,,,,,
KRDR,07-20-2011,22:00,METAR,,290,20.0,28.0,310/33KTS,9999.0,,30.0,16.0,29.53,1001.3,,,,,,,,,,,,,,,Clear,72000.0,,,73000.0,,,,,,
KRDR,07-20-2011,21:00,METAR,,280,22.0,30.0,280/30KTS,9999.0,,31.0,21.0,29.50,1000.5,,,,,,,,,,,,,,,Clear,72000.0,,,73000.0,,,,,,
KRDR,07-20-2011,20:00,METAR,,290,19.0,26.0,290/28KTS,9999.0,,31.0,23.0,29.48,999.6,,,,,,,,,,,,,,,Clear,72000.0,,,73000.0,,,,,,
KRDR,07-20-2011,19:00,METAR,,270,14.0,25.0,280/27KTS,9999.0,,31.0,23.0,29.45,998.8,,,,,,,,,,,,,,,2/8 Mostly Clear,72000.0,,FEW,3100.0,,,,,,
KRDR,07-20-2011,18:00,METAR,,240,11.0,,,9999.0,,29.0,28.0,29.44,998.4,,,,,,,,,,,,,.01 IN,,2/8 Mostly Clear,72000.0,,FEW,11000.0,,,,,,
KRDR,07-20-2011,17:00,METAR,,170,13.0,,,9999.0,,26.0,26.0,29.43,998.1,,,,,,,,,,,,,,,Clear,72000.0,,,73000.0,,,,,,
KRDR,07-20-2011,16:00,METAR,,100,8.0,,,9999.0,,25.0,25.0,29.38,996.4,,,,,,,,,,,,,,,4/8 Partly Cloudy,72000.0,,SCT,2000.0,,,,,,
KRDR,07-20-2011,15:00,METAR,,70,3.0,,,9999.0,,22.0,22.0,29.44,998.3,,,,,,,,,,,,.01 IN,,,8/8 Overcast,1300.0,,OVC,1800.0,,,,,,
KRDR,07-20-2011,14:23,SPECI,,310,13.0,24.0,,9999.0,,23.0,23.0,29.46,999.1,,,,,,,,,,,,,,,7/8 Mostly Cloudy,1500.0,,FEW,1000.0,BKN,1700.0,,,,
KRDR,07-20-2011,14:19,SPECI,,320,5.0,24.0,,9999.0,,23.0,23.0,29.46,999.1,,,,,,,,,,,,,,,7/8 Mostly Cloudy,1800.0,,FEW,1100.0,BKN,1800.0,,,,
KRDR,07-20-2011,14:15,SPECI,,320,18.0,24.0,,9999.0,,23.0,23.0,29.48,999.6,,,,,,,,,,,,,,,4/8 Partly Cloudy,72000.0,,FEW,1100.0,SCT,1800.0,,,,
KRDR,07-20-2011,14:00,METAR,,,0.0,,,9999.0,,22.0,22.0,29.42,997.7,,,,,,,,,,,,,,,Clear,72000.0,,,73000.0,,,,,,
KRDR,07-20-2011,13:00,METAR,,80,10.0,16.0,320/28KTS,9999.0,,22.0,22.0,29.42,997.7,,,,,,,,,,,.01 IN,,,,2/8 Mostly Clear,72000.0,,FEW,11000.0,,,,,,
KRDR,07-20-2011,12:29,SPECI,,50,10.0,,320/28KTS,9999.0,,22.0,22.0,29.42,997.7,,,,,,,,,,,,,,,4/8 Partly Cloudy,72000.0,,SCT,1700.0,SCT,2300.0,,,,
KRDR,07-20-2011,12:28,SPECI,,50,9.0,,320/28KTS,9999.0,Dry Thunderstorm,22.0,22.0,29.42,997.7,91,,,,,,,,,,,,,,4/8 Partly Cloudy,72000.0,,SCT,1700.0,SCT,2300.0,,,,
KRDR,07-20-2011,12:20,SPECI,,30,12.0,26.0,320/28KTS,4800.0,Thunderstorm and Rain or Snow Showers/Mist,22.0,22.0,29.43,998.1,92,10,,,,,,,,,,,,,7/8 Mostly Cloudy,1600.0,,BKN,1600.0,BKN,2400.0,,,,
KRDR,07-20-2011,12:03,SPECI,,320,17.0,22.0,320/28KTS,9999.0,Thunderstorm and Rain or Snow Showers,23.0,23.0,29.47,999.5,92,,,,,,,,,,,,,,7/8 Mostly Cloudy,1700.0,,BKN,1700.0,,,,,,
KRDR,07-20-2011,12:00,SPECI,,350,13.0,27.0,320/28KTS,9999.0,Light Rain,24.0,23.0,29.46,999.0,61,,,,,,,,,,,,,,7/8 Mostly Cloudy,1700.0,,FEW,400.0,BKN,1700.0,,,,
KRDR,07-20-2011,11:54,SPECI,,320,21.0,27.0,320/28KTS,9999.0,Light Rain/Mist,24.0,24.0,29.45,998.8,61,10,,,,,,,,,,,,,2/8 Mostly Clear,72000.0,,FEW,400.0,,,,,,
KRDR,07-20-2011,11:51,SPECI,,320,21.0,27.0,320/27KTS,8000.0,Mist,24.0,24.0,29.45,998.6,10,,,,,,,,,,,,,,2/8 Mostly Clear,72000.0,,FEW,400.0,,,,,,
KRDR,07-20-2011,11:00,METAR,,,0.0,,,9999.0,Mist,24.0,24.0,29.42,997.7,10,,,,,,,,,,,,,,7/8 Mostly Cloudy,600.0,,BKN,600.0,,,,,,
KRDR,07-20-2011,10:33,SPECI,,,0.0,,,9999.0,,25.0,25.0,29.42,997.8,,,,,,,,,,,,,,,7/8 Mostly Cloudy,600.0,,BKN,600.0,,,,,,
KRDR,07-20-2011,10:24,SPECI,,,0.0,,,9999.0,,25.0,25.0,29.42,997.7,,,,,,,,,,,,,,,2/8 Mostly Clear,72000.0,,FEW,600.0,,,,,,
KRDR,07-20-2011,10:00,METAR,,100,5.0,,,9999.0,,25.0,25.0,29.43,998.0,,,,,,,,,,,,,,,Clear,72000.0,,,73000.0,,,,,,
KRDR,07-20-2011,09:00,METAR,,110,3.0,,,9999.0,,25.0,25.0,29.48,999.5,,,,,,,,,,,,,,,Clear,72000.0,,,73000.0,,,,,,
KRDR,07-20-2011,08:00,METAR,,130,3.0,,,9999.0,,25.0,25.0,29.50,1000.3,,,,,,,,,,,,,,,Clear,72000.0,,,73000.0,,,,,,
KRDR,07-20-2011,07:00,METAR,,70,3.0,,,9999.0,,25.0,25.0,29.51,1000.8,,,,,,,,,,,,,,,Clear,72000.0,,,73000.0,,,,,,
KRDR,07-20-2011,06:00,METAR,,160,4.0,,,9999.0,,25.0,25.0,29.53,1001.3,,,,,,,,,,,,,,,Clear,72000.0,,,73000.0,,,,,,
KRDR,07-20-2011,05:00,METAR,,140,4.0,,,9999.0,,25.0,25.0,29.53,1001.3,,,,,,,,,,,,,,,Clear,72000.0,,,73000.0,,,,,,
KRDR,07-20-2011,04:00,METAR,,100,3.0,,,9999.0,,26.0,26.0,29.55,1001.9,,,,,,,,,,,,,,,Clear,72000.0,,,73000.0,,,,,,
KRDR,07-20-2011,03:00,METAR,,90,6.0,,,9999.0,,27.0,27.0,29.56,1002.3,,,,,,,,,,,,,,,2/8 Mostly Clear,72000.0,,FEW,3700.0,,,,,,
KRDR,07-20-2011,02:26,SPECI,,80,6.0,,,9999.0,,27.0,27.0,29.57,1002.7,,,,,,,,,,,,,,,4/8 Partly Cloudy,72000.0,,SCT,1900.0,SCT,2700.0,,,,
KRDR,07-20-2011,02:17,SPECI,,60,5.0,,,9999.0,,27.0,27.0,29.57,1002.6,,,,,,,,,,,,,,,7/8 Mostly Cloudy,2600.0,,SCT,2000.0,BKN,2600.0,,,,
KRDR,07-20-2011,02:00,SPECI,,50,6.0,,,9999.0,,28.0,28.0,29.57,1002.6,,,,,,,,,,,,,,,4/8 Partly Cloudy,72000.0,,,,,,,,,
KRDR,07-20-2011,02:00,METAR,,50,6.0,,,9999.0,,28.0,28.0,29.57,1002.6,,,,,,,,,,,,,,,7/8 Mostly Cloudy,1900.0,,BKN,2000.0,,,,,,
KRDR,07-20-2011,01:31,SPECI,,40,5.0,,,9999.0,,29.0,29.0,29.57,1002.7,,,,,,,,,,,,,,,7/8 Mostly Cloudy,2000.0,,BKN,2000.0,BKN,3800.0,,,,
KRDR,07-20-2011,01:00,METAR,,100,7.0,,,9999.0,,29.0,29.0,29.57,1002.8,,,,,,,,,,,,,,,2/8 Mostly Clear,72000.0,,FEW,3900.0,,,,,,
KRDR,07-20-2011,00:00,METAR,,120,8.0,,,9999.0,,29.0,29.0,29.59,1003.5,,,,,,,,,,,,,,,Clear,72000.0,,,73000.0,,,,,,
KRDR,07-19-2011,23:00,METAR,,110,10.0,,,9999.0,,29.0,28.0,29.61,1004.1,,,,,,,,,,,,,,,Clear,72000.0,,,73000.0,,,,,,
KRDR,07-19-2011,22:00,METAR,,120,15.0,20.0,,9999.0,,30.0,27.0,29.63,1004.7,,,,,,,,,,,,,,,2/8 Mostly Clear,72000.0,,FEW,3800.0,,,,,,
KRDR,07-19-2011,21:21,SPECI,,120,15.0,,,9999.0,,30.0,27.0,29.64,1005.0,,,,,,,,,,,,,,,4/8 Partly Cloudy,72000.0,,SCT,2500.0,,,,,,
KRDR,07-19-2011,21:00,METAR,,100,12.0,,,9999.0,,30.0,28.0,29.65,1005.4,,,,,,,,,,,,,,,7/8 Mostly Cloudy,2300.0,,BKN,2500.0,BKN,4100.0,,,,
KRDR,07-19-2011,20:46,SPECI,,100,14.0,,,9999.0,,30.0,28.0,29.66,1005.5,,,,,,,,,,,,,,,7/8 Mostly Cloudy,2500.0,,BKN,2500.0,BKN,4100.0,,,,
KRDR,07-19-2011,20:25,SPECI,,110,11.0,17.0,,9999.0,,30.0,28.0,29.66,1005.8,,,,,,,,,,,,,,,7/8 Mostly Cloudy,4000.0,,SCT,2100.0,BKN,4100.0,,,,
KRDR,07-19-2011,20:00,METAR,,110,13.0,,,9999.0,,31.0,29.0,29.67,1005.9,,,,,,,,,,,,,,,7/8 Mostly Cloudy,3700.0,,SCT,2200.0,BKN,3800.0,,,,
KRDR,07-19-2011,19:00,METAR,,120,13.0,,,9999.0,,30.0,27.0,29.69,1006.5,,,,,,,,,,,,,,,8/8 Overcast,3200.0,,FEW,2600.0,OVC,3300.0,,,,
KRDR,07-19-2011,18:36,SPECI,,130,10.0,,,9999.0,,30.0,26.0,29.69,1006.5,,,,,,,,,,,,,,,8/8 Overcast,3000.0,,OVC,3000.0,,,,,,
KRDR,07-19-2011,18:33,SPECI,,130,12.0,,,9999.0,,30.0,26.0,29.69,1006.5,,,,,,,,,,,,,,,8/8 Overcast,2400.0,,BKN,2700.0,OVC,3300.0,,,,
KRDR,07-19-2011,18:23,SPECI,,130,11.0,17.0,,9999.0,,30.0,27.0,29.69,1006.7,,,,,,,,,,,,,,,8/8 Overcast,3100.0,,OVC,3100.0,,,,,,
KRDR,07-19-2011,18:00,METAR,,140,11.0,,,9999.0,,29.0,27.0,29.70,1007.0,,,,,,,,,,,,,,,8/8 Overcast,2600.0,,OVC,2600.0,,,,,,
KRDR,07-19-2011,17:05,SPECI,,140,11.0,20.0,,9999.0,,30.0,26.0,29.72,1007.5,,,,,,,,,,,,,,,7/8 Mostly Cloudy,2400.0,,BKN,2400.0,,,,,,
KRDR,07-19-2011,17:00,METAR,,150,11.0,,,9999.0,,29.0,27.0,29.72,1007.5,,,,,,,,,,,,,,,2/8 Mostly Clear,72000.0,,FEW,2400.0,,,,,,
KRDR,07-19-2011,16:25,SPECI,,140,14.0,,,9999.0,,29.0,26.0,29.71,1007.3,,,,,,,,,,,,,,,4/8 Partly Cloudy,72000.0,,SCT,2200.0,,,,,,
KRDR,07-19-2011,16:20,SPECI,,140,13.0,,,9999.0,,29.0,26.0,29.71,1007.2,,,,,,,,,,,,,,,7/8 Mostly Cloudy,2100.0,,BKN,2100.0,,,,,,
KRDR,07-19-2011,16:00,METAR,,140,12.0,,,9999.0,,29.0,26.0,29.71,1007.4,,,,,,,,,,,,,,,2/8 Mostly Clear,72000.0,,FEW,2200.0,,,,,,
KRDR,07-19-2011,15:04,SPECI,,110,10.0,,,9999.0,,27.0,26.0,29.71,1007.4,,,,,,,,,,,,,,,4/8 Partly Cloudy,72000.0,,SCT,2100.0,SCT,2800.0,,,,
KRDR,07-19-2011,15:00,METAR,,120,9.0,,,9999.0,,26.0,26.0,29.73,1008.1,,,,,,,,,,,,,,,7/8 Mostly Cloudy,2100.0,,BKN,2100.0,BKN,2700.0,BKN,11000.0,,
KRDR,07-19-2011,14:48,SPECI,,130,8.0,,,9999.0,,26.0,26.0,29.74,1008.2,,,,,,,,,,,,,,,7/8 Mostly Cloudy,2800.0,,SCT,2100.0,BKN,2800.0,BKN,11000.0,,
KRDR,07-19-2011,14:17,SPECI,,110,8.0,,,9999.0,,25.0,23.0,29.74,1008.3,,,,,,,,,,,,,,,7/8 Mostly Cloudy,12000.0,,SCT,2200.0,BKN,12000.0,,,,
KRDR,07-19-2011,14:00,METAR,,130,10.0,,,9999.0,,25.0,22.0,29.76,1008.9,,,,,,,,,,,,,,,7/8 Mostly Cloudy,2000.0,,BKN,2200.0,BKN,11000.0,,,,
KRDR,07-19-2011,13:44,SPECI,,130,10.0,,,9999.0,,24.0,22.0,29.76,1008.8,,,,,,,,,,,,,,,7/8 Mostly Cloudy,2000.0,,BKN,2100.0,BKN,11000.0,,,,
KRDR,07-19-2011,13:21,SPECI,,100,9.0,,,9999.0,Thunderstorm,25.0,22.0,29.77,1009.3,,,,17,,,,,,,,,,,7/8 Mostly Cloudy,11000.0,,FEW,1500.0,BKN,11000.0,,,,
KRDR,07-19-2011,13:00,METAR,,110,11.0,20.0,,9999.0,Thunderstorm,25.0,25.0,29.77,1009.1,,,,17,,,,,,,,,,,7/8 Mostly Cloudy,10000.0,,FEW,1500.0,BKN,9900.0,,,,
KRDR,07-19-2011,12:49,SPECI,,120,14.0,20.0,,9999.0,Thunderstorm,25.0,25.0,29.77,1009.1,,,,17,,,,,,,,,,,7/8 Mostly Cloudy,10000.0,,FEW,1500.0,BKN,9900.0,,,,
KRDR,07-19-2011,12:00,METAR,,90,6.0,,,9999.0,Thunderstorm,24.0,24.0,29.79,1010.0,,,,17,,,,,,,,,,,7/8 Mostly Cloudy,10000.0,,FEW,900.0,BKN,9900.0,,,,
KRDR,07-19-2011,11:43,SPECI,,10,8.0,,,9999.0,Thunderstorm,23.0,23.0,29.81,1010.4,,,,17,,,,,,,,,,,7/8 Mostly Cloudy,10000.0,,FEW,1000.0,BKN,9900.0,,,,
KRDR,07-19-2011,11:10,SPECI,,140,6.0,,,9999.0,Thunderstorm,24.0,24.0,29.76,1009.4,,,,17,,,,,,,,,,,7/8 Mostly Cloudy,12000.0,,FEW,7900.0,SCT,9900.0,BKN,12000.0,,
KRDR,07-19-2011,11:00,METAR,,120,6.0,,,9999.0,,24.0,24.0,29.79,1009.8,,,,,,,,,,,,,,,2/8 Mostly Clear,72000.0,,FEW,9900.0,,,,,,
KRDR,07-19-2011,10:00,METAR,,140,6.0,,,9999.0,,24.0,24.0,29.82,1010.9,,,,,,,,,,,,,,,2/8 Mostly Clear,72000.0,,FEW,2500.0,,,,,,
KRDR,07-19-2011,09:00,METAR,,130,4.0,,,9999.0,,24.0,24.0,29.83,1011.2,,,,,,,,,,,,,,,2/8 Mostly Clear,72000.0,,FEW,2100.0,,,,,,
KRDR,07-19-2011,08:00,METAR,,120,5.0,,,9999.0,,25.0,25.0,29.84,1011.6,,,,,,,,,,,,,,,Clear,72000.0,,,73000.0,,,,,,
KRDR,07-19-2011,07:00,METAR,,140,3.0,,,9999.0,,23.0,23.0,29.87,1012.5,,,,,,,,,,,,,,,Clear,72000.0,,,73000.0,,,,,,
KRDR,07-19-2011,06:00,METAR,,150,5.0,,,9999.0,,24.0,24.0,29.88,1012.9,,,,,,,,,,,,,,,Clear,72000.0,,,73000.0,,,,,,
KRDR,07-19-2011,05:00,METAR,,150,6.0,,,9999.0,,26.0,25.0,29.89,1013.2,,,,,,,,,,,,,,,Clear,72000.0,,,73000.0,,,,,,
KRDR,07-19-2011,04:00,METAR,,130,7.0,,,9999.0,,27.0,25.0,29.91,1013.7,,,,,,,,,,,,,,,Clear,72000.0,,,73000.0,,,,,,
KRDR,07-19-2011,03:00,METAR,,180,3.0,,,9999.0,,25.0,25.0,29.92,1014.3,,,,,,,,,,,,,,,Clear,72000.0,,,73000.0,,,,,,
KRDR,07-19-2011,02:00,METAR,,170,3.0,,,9999.0,,27.0,27.0,29.92,1014.3,,,,,,,,,,,,,,,Clear,72000.0,,,73000.0,,,,,,
KRDR,07-19-2011,01:00,METAR,,,0.0,,,9999.0,,28.0,24.0,29.92,1014.3,,,,,,,,,,,,,,,Clear,72000.0,,,73000.0,,,,,,
KRDR,07-19-2011,00:00,METAR,,80,4.0,,,9999.0,,29.0,22.0,29.93,1014.4,,,,,,,,,,,,,TRACE,,Clear,72000.0,,,73000.0,,,,,,
KRDR,07-18-2011,23:00,METAR,,100,5.0,,,9999.0,,30.0,21.0,29.94,1014.8,,,,,,,,,,,,,,,Clear,72000.0,,,73000.0,,,,,,
KRDR,07-18-2011,22:00,METAR,,90,4.0,,,9999.0,,29.0,23.0,29.95,1015.1,,,,,,,,,,,,,,,Clear,72000.0,,,73000.0,,,,,,
KRDR,07-18-2011,21:00,METAR,,90,3.0,,,9999.0,,30.0,22.0,29.96,1015.5,,,,,,,,,,,TRACE,0 IN,,,Clear,72000.0,,,73000.0,,,,,,
KRDR,07-18-2011,20:12,SPECI,,110,4.0,,,9999.0,,30.0,22.0,29.98,1016.3,,,,,,,,,,,,,,,Clear,72000.0,,,73000.0,,,,,,
KRDR,07-18-2011,20:07,SPECI,,120,6.0,,,9999.0,Light Rain,30.0,22.0,29.98,1016.3,61,,,,,,,,,,,,,,Clear,72000.0,,,73000.0,,,,,,
KRDR,07-18-2011,20:00,METAR,,100,5.0,,,9999.0,,30.0,22.0,29.99,1016.4,,,,,,,,,,,,,,,Clear,72000.0,,,73000.0,,,,,,
KRDR,07-18-2011,19:00,METAR,,80,4.0,,,9999.0,,29.0,21.0,30.00,1016.9,,,,,,,,,,,TRACE,,,,Clear,72000.0,,,73000.0,,,,,,
KRDR,07-18-2011,18:49,SPECI,,70,5.0,,,9999.0,,29.0,22.0,30.01,1017.0,,,,,,,,,,,,,,,Clear,72000.0,,,73000.0,,,,,,
KRDR,07-18-2011,18:40,SPECI,,80,4.0,,,9999.0,,29.0,21.0,30.00,1016.9,,,,,,,,,,,,,,,Clear,72000.0,,,73000.0,,,,,,
KRDR,07-18-2011,18:00,METAR,,110,9.0,,,9999.0,,32.0,21.0,29.98,1016.3,,,,,,,,,,,,,,,Clear,72000.0,,,73000.0,,,,,,
KRDR,07-18-2011,17:00,METAR,,,4.0,,,9999.0,,30.0,23.0,30.01,1017.1,,,,,,,,,,,,,,,Clear,72000.0,,,73000.0,,,,,,
KRDR,07-18-2011,16:00,METAR,,90,5.0,,,9999.0,,29.0,25.0,30.00,1016.7,,,,,,,,,,,,,,,Clear,72000.0,,,73000.0,,,,,,
KRDR,07-18-2011,15:00,METAR,,40,5.0,,,9999.0,,27.0,27.0,29.99,1016.5,,,,,,,,,,,,,,,Clear,72000.0,,,73000.0,,,,,,
KRDR,07-18-2011,14:00,METAR,,360,5.0,,,9999.0,,24.0,24.0,30.00,1016.8,,,,,,,,,,,,,,,Clear,72000.0,,,73000.0,,,,,,
KRDR,07-18-2011,13:00,METAR,,10,7.0,,,9999.0,,22.0,22.0,29.98,1016.3,,,,,,,,,,,,,,,2/8 Mostly Clear,72000.0,,FEW,400.0,,,,,,
KRDR,07-18-2011,12:21,SPECI,,,6.0,,,4800.0,Mist,22.0,22.0,29.98,1016.3,10,,,,,,,,,,,,,,2/8 Mostly Clear,72000.0,,FEW,400.0,,,,,,
KRDR,07-18-2011,12:14,SPECI,,10,5.0,,,3200.0,Mist,22.0,22.0,29.98,1016.1,10,,,,,,,,,,,,,,4/8 Partly Cloudy,72000.0,,SCT,400.0,,,,,,
KRDR,07-18-2011,12:05,SPECI,,350,5.0,,,2400.0,Mist,21.0,21.0,29.98,1016.2,10,,,,,,,,,,,,,,2/8 Mostly Clear,72000.0,,FEW,300.0,,,,,,
KRDR,07-18-2011,12:02,SPECI,,,5.0,,,2400.0,Mist,21.0,21.0,29.98,1016.2,10,,,,,,,,,,,,,,Clear,72000.0,,,73000.0,,,,,,
KRDR,07-18-2011,12:00,METAR,,350,6.0,,,2000.0,Mist,22.0,22.0,29.98,1016.2,10,,,,,,,,,,,,,,2/8 Mostly Clear,72000.0,,FEW,100.0,,,,,,
KRDR,07-18-2011,11:48,SPECI,,340,4.0,,,2400.0,Mist,22.0,22.0,29.98,1016.2,10,,,,,,,,,,,,,,4/8 Partly Cloudy,72000.0,,SCT,100.0,,,,,,
KRDR,07-18-2011,11:46,SPECI,,350,4.0,,,2000.0,Mist,22.0,22.0,29.98,1016.2,10,,,,,,,,,,,,,,4/8 Partly Cloudy,72000.0,,SCT,100.0,,,,,,
KRDR,07-18-2011,11:43,SPECI,,340,4.0,,,1600.0,Mist,22.0,22.0,29.98,1016.3,10,,,,,,,,,,,,,,Sky Obscured (Unable to Estimate),100.0,100.0,,100.0,,,,,,
KRDR,07-18-2011,11:41,SPECI,,330,4.0,,,1200.0,Mist,22.0,22.0,29.99,1016.4,10,,,,,,,,,,,,,,Sky Obscured (Unable to Estimate),100.0,100.0,,100.0,,,,,,
KRDR,07-18-2011,11:39,SPECI,,320,4.0,,,800.0,Fog,22.0,22.0,29.99,1016.4,30,,,,,,,,,,,,,,Sky Obscured (Unable to Estimate),100.0,100.0,,100.0,,,,,,
KRDR,07-18-2011,11:38,SPECI,,320,4.0,,,800.0,Fog,22.0,22.0,29.99,1016.4,30,,,,,,,,,,,,,,Sky Obscured (Unable to Estimate),100.0,100.0,,100.0,,,,,,
KRDR,07-18-2011,11:35,SPECI,,330,4.0,,,400.0,Fog,21.0,21.0,29.99,1016.4,30,,,,,,,,,,,,,,Sky Obscured (Unable to Estimate),100.0,100.0,,100.0,,,,,,
KRDR,07-18-2011,11:32,SPECI,,330,5.0,,,400.0,Fog,21.0,21.0,29.98,1016.3,30,,,,,,,,,,,,,,Sky Obscured (Unable to Estimate),100.0,100.0,,100.0,,,,,,
KRDR,07-18-2011,11:00,METAR,,300,4.0,,,400.0,Fog,21.0,21.0,29.97,1015.9,30,,,,,,,,,,,,,,Sky Obscured (Unable to Estimate),100.0,100.0,,100.0,,,,,,
KRDR,07-18-2011,10:50,SPECI,,300,3.0,,,400.0,Fog,21.0,21.0,29.97,1015.8,30,,,,,,,,,,,,,,Sky Obscured (Unable to Estimate),100.0,100.0,,100.0,,,,,,
KRDR,07-18-2011,10:48,SPECI,,310,3.0,,,400.0,Fog,21.0,21.0,29.97,1015.8,30,,,,,,,,,,,,,,Sky Obscured (Unable to Estimate),100.0,100.0,,100.0,,,,,,
KRDR,07-18-2011,10:47,SPECI,,310,3.0,,,400.0,Fog,21.0,21.0,29.97,1015.8,30,,,,,,,,,,,,,,Sky Obscured (Unable to Estimate),100.0,100.0,,100.0,,,,,,
KRDR,07-18-2011,10:44,SPECI,,320,3.0,,,800.0,Fog,21.0,21.0,29.97,1015.7,30,,,,,,,,,,,,,,Sky Obscured (Unable to Estimate),100.0,100.0,,100.0,,,,,,
KRDR,07-18-2011,10:42,SPECI,,330,3.0,,,1600.0,Mist,21.0,21.0,29.96,1015.7,10,,,,,,,,,,,,,,Sky Obscured (Unable to Estimate),100.0,100.0,,100.0,,,,,,
KRDR,07-18-2011,10:41,SPECI,,330,4.0,,,2000.0,Mist,21.0,21.0,29.96,1015.7,10,,,,,,,,,,,,,,2/8 Mostly Clear,72000.0,,FEW,100.0,,,,,,
KRDR,07-18-2011,10:38,SPECI,,330,4.0,,,6400.0,Mist,21.0,21.0,29.97,1015.7,10,,,,,,,,,,,,,,2/8 Mostly Clear,72000.0,,FEW,100.0,,,,,,
KRDR,07-18-2011,10:00,METAR,,360,5.0,,,9999.0,,20.0,20.0,29.96,1015.4,,,,,,,,,,,,,,,Clear,72000.0,,,73000.0,,,,,,
KRDR,07-18-2011,09:39,SPECI,,360,4.0,,,9999.0,Mist,20.0,20.0,29.96,1015.5,10,,,,,,,,,,,,,,Clear,72000.0,,,73000.0,,,,,,
KRDR,07-18-2011,09:00,METAR,,340,3.0,,,9999.0,Mist,20.0,20.0,29.96,1015.5,10,,,,,,,,,,,,,,Clear,72000.0,,,73000.0,,,,,,
KRDR,07-18-2011,08:19,SPECI,,,0.0,,,9999.0,,21.0,21.0,29.95,1015.3,,,,,,,,,,,,,,,Clear,72000.0,,,73000.0,,,,,,
KRDR,07-18-2011,08:00,METAR,,360,3.0,,,9999.0,,21.0,21.0,29.94,1014.9,,,,,,,,,,,,,,,Clear,72000.0,,,73000.0,,,,,,
KRDR,07-18-2011,07:00,METAR,,10,5.0,,,9999.0,,21.0,21.0,29.93,1014.4,,,,,,,,,,,,,,,Clear,72000.0,,,73000.0,,,,,,
KRDR,07-18-2011,06:00,METAR,,,0.0,,,9999.0,,22.0,22.0,29.92,1014.1,,,,,,,,,,,,,,,Clear,72000.0,,,73000.0,,,,,,
KRDR,07-18-2011,05:00,METAR,,40,4.0,,,9999.0,,23.0,23.0,29.92,1014.1,,,,,,,,,,,,,,,4/8 Partly Cloudy,72000.0,,SCT,3600.0,,,,,,
KRDR,07-18-2011,04:00,METAR,,60,5.0,,,9999.0,,25.0,24.0,29.91,1014.0,,,,,,,,,,,,,,,7/8 Mostly Cloudy,3300.0,,BKN,3400.0,,,,,,
KRDR,07-18-2011,03:00,METAR,,120,5.0,,,9999.0,,26.0,25.0,29.91,1013.8,,,,,,,,,,,,,,,8/8 Overcast,3300.0,,OVC,3400.0,,,,,,
KRDR,07-18-2011,02:00,METAR,,120,7.0,,,9999.0,,27.0,27.0,29.90,1013.5,,,,,,,,,,,,,,,8/8 Overcast,5500.0,,SCT,4000.0,OVC,5400.0,,,,
KRDR,07-18-2011,01:00,METAR,,60,5.0,,,9999.0,,29.0,29.0,29.88,1012.9,,,,,,,,,,,,,,,Clear,72000.0,,,73000.0,,,,,,
KRDR,07-18-2011,00:00,METAR,,40,5.0,,,9999.0,,28.0,28.0,29.87,1012.4,,,,,,,,,,,TRACE,,TRACE,,Clear,72000.0,,,73000.0,,,,,,
KRDR,07-17-2011,23:02,SPECI,,100,5.0,,,9999.0,,27.0,27.0,29.89,1013.3,,,,,,,,,,,,,,,Clear,72000.0,,,73000.0,,,,,,
KRDR,07-17-2011,23:00,METAR,,80,7.0,,,9999.0,Light Rain,28.0,28.0,29.88,1012.9,61,,,,,,,,,,TRACE,,,,2/8 Mostly Clear,72000.0,,FEW,2200.0,,,,,,
KRDR,07-17-2011,22:41,SPECI,,90,6.0,,,9999.0,Light Rain,28.0,28.0,29.89,1013.2,61,,,,,,,,,,,,,,4/8 Partly Cloudy,72000.0,,FEW,2200.0,SCT,4000.0,,,,
KRDR,07-17-2011,22:00,METAR,,70,6.0,,,9999.0,,28.0,28.0,29.89,1013.3,,,,,,,,,,,,,,,4/8 Partly Cloudy,72000.0,,FEW,1900.0,SCT,3500.0,,,,
KRDR,07-17-2011,21:00,METAR,,,0.0,,,9999.0,,27.0,27.0,29.87,1012.6,,,,,,,,,,,,,,,Clear,72000.0,,,73000.0,,,,,,
KRDR,07-17-2011,20:00,METAR,,90,8.0,,,9999.0,,26.0,26.0,29.87,1012.7,,,,,,,,,,,,,,,Clear,72000.0,,,73000.0,,,,,,
KRDR,07-17-2011,19:07,SPECI,,100,10.0,,,9999.0,,26.0,26.0,29.91,1013.9,,,,,,,,,,,,,,,Clear,72000.0,,,73000.0,,,,,,
KRDR,07-17-2011,19:00,METAR,,50,14.0,,,9999.0,,26.0,26.0,29.95,1015.1,,,,,,,,,,,,,,,2/8 Mostly Clear,72000.0,,FEW,1200.0,,,,,,
KRDR,07-17-2011,18:07,SPECI,,30,16.0,,,9999.0,,28.0,28.0,29.94,1014.9,,,,,,,,,,,,,,,7/8 Mostly Cloudy,3000.0,,SCT,1600.0,BKN,3000.0,,,,
KRDR,07-17-2011,18:00,METAR,,20,13.0,,,9999.0,,28.0,28.0,29.94,1015.0,,,,,,,,,,,,,,,8/8 Overcast,1400.0,,OVC,1500.0,,,,,,
KRDR,07-17-2011,17:24,SPECI,,70,5.0,,,9999.0,,28.0,28.0,29.93,1014.6,,,,,,,,,,,,,,,8/8 Overcast,1500.0,,OVC,1500.0,,,,,,
KRDR,07-17-2011,17:00,METAR,,60,5.0,,,9999.0,,29.0,29.0,29.91,1013.9,,,,,,,,,,,,,,,7/8 Mostly Cloudy,1200.0,,BKN,1400.0,,,,,,
KRDR,07-17-2011,16:21,SPECI,,20,8.0,,,9999.0,,28.0,28.0,29.91,1014.0,,,,,,,,,,,,,,,8/8 Overcast,1200.0,,OVC,1200.0,,,,,,
KRDR,07-17-2011,16:00,METAR,,,0.0,,,9999.0,,27.0,27.0,29.90,1013.4,,,,,,,,,,,,,,,7/8 Mostly Cloudy,900.0,,BKN,900.0,,,,,,
KRDR,07-17-2011,15:27,SPECI,,,0.0,,,9999.0,,26.0,26.0,29.89,1013.1,,,,,,,,,,,,,,,8/8 Overcast,500.0,,OVC,700.0,,,,,,
KRDR,07-17-2011,15:00,METAR,,20,7.0,,,9999.0,,25.0,25.0,29.88,1013.0,,,,,,,,,,,,,,,8/8 Overcast,500.0,,OVC,600.0,,,,,,
KRDR,07-17-2011,14:45,SPECI,,30,6.0,,,9999.0,,25.0,25.0,29.89,1013.1,,,,,,,,,,,,,,,8/8 Overcast,500.0,,OVC,600.0,,,,,,
KRDR,07-17-2011,14:34,SPECI,,350,8.0,,,9999.0,,25.0,25.0,29.89,1013.4,,,,,,,,,,,,,,,8/8 Overcast,500.0,,OVC,500.0,,,,,,
KRDR,07-17-2011,14:27,SPECI,,350,8.0,,,9999.0,,26.0,26.0,29.90,1013.4,,,,,,,,,,,,,,,8/8 Overcast,500.0,,OVC,600.0,,,,,,
KRDR,07-17-2011,14:09,SPECI,,310,4.0,,,9999.0,,26.0,26.0,29.90,1013.5,,,,,,,,,,,,,,,8/8 Overcast,500.0,,OVC,700.0,,,,,,
KRDR,07-17-2011,14:00,METAR,,,0.0,,,9999.0,,25.0,25.0,29.87,1012.7,,,,,,,,,,,,,,,8/8 Overcast,600.0,,OVC,600.0,,,,,,
KRDR,07-17-2011,13:00,METAR,,170,7.0,,,9999.0,,24.0,24.0,29.87,1012.4,,,,,,,,,,,,,,,8/8 Overcast,600.0,,OVC,600.0,,,,,,
KRDR,07-17-2011,12:49,SPECI,,150,7.0,,,9999.0,,24.0,24.0,29.87,1012.5,,,,,,,,,,,,,,,8/8 Overcast,600.0,,OVC,600.0,,,,,,
KRDR,07-17-2011,12:19,SPECI,,120,5.0,,,9999.0,,23.0,23.0,29.86,1012.1,,,,,,,,,,,,,,,8/8 Overcast,500.0,,OVC,500.0,,,,,,
KRDR,07-17-2011,12:00,METAR,,130,4.0,,,9999.0,,23.0,23.0,29.88,1012.9,,,,,,,,,,,,,,.02 IN,8/8 Overcast,600.0,,OVC,600.0,,,,,,
KRDR,07-17-2011,11:34,SPECI,,130,4.0,,,9999.0,,23.0,23.0,29.88,1013.0,,,,,,,,,,,,,,,8/8 Overcast,600.0,,OVC,600.0,,,,,,
KRDR,07-17-2011,11:00,METAR,,140,3.0,,,9999.0,,23.0,23.0,29.89,1013.3,,,,,,,,,,,,,,,8/8 Overcast,800.0,,OVC,800.0,,,,,,
KRDR,07-17-2011,10:00,METAR,,130,5.0,,,9999.0,,23.0,23.0,29.87,1012.7,,,,,,,,,,,,,,,8/8 Overcast,800.0,,OVC,900.0,,,,,,
KRDR,07-17-2011,09:29,SPECI,,130,5.0,,,9999.0,,23.0,23.0,29.87,1012.4,,,,,,,,,,,,,,,8/8 Overcast,900.0,,BKN,900.0,OVC,1700.0,,,,
KRDR,07-17-2011,09:17,SPECI,,120,7.0,,,9999.0,,23.0,23.0,29.86,1012.4,,,,,,,,,,,,,,,7/8 Mostly Cloudy,1000.0,,BKN,1000.0,BKN,1700.0,,,,
KRDR,07-17-2011,09:00,METAR,,110,8.0,16.0,,9999.0,,23.0,23.0,29.86,1012.2,,,,,,,,,,,,,,,7/8 Mostly Cloudy,1600.0,,SCT,1100.0,BKN,1700.0,,,,
KRDR,07-17-2011,08:48,SPECI,,110,10.0,,,9999.0,,23.0,23.0,29.86,1012.2,,,,,,,,,,,,,,,8/8 Overcast,1600.0,,SCT,1100.0,OVC,1700.0,,,,
KRDR,07-17-2011,08:00,METAR,,90,11.0,,,9999.0,,25.0,25.0,29.85,1012.0,,,,,,,,,,,,,,,8/8 Overcast,1100.0,,OVC,1100.0,,,,,,
KRDR,07-17-2011,07:31,SPECI,,100,8.0,,,9999.0,,25.0,25.0,29.86,1012.2,,,,,,,,,,,,,,,8/8 Overcast,1100.0,,BKN,1100.0,OVC,1600.0,,,,
KRDR,07-17-2011,07:14,SPECI,,110,6.0,,,9999.0,,25.0,25.0,29.86,1012.3,,,,,,,,,,,,,,,8/8 Overcast,1200.0,,OVC,1400.0,,,,,,
KRDR,07-17-2011,07:00,METAR,,90,7.0,,,9999.0,,25.0,25.0,29.85,1011.9,,,,,,,,,,,,,,,8/8 Overcast,1600.0,,OVC,1600.0,,,,,,
KRDR,07-17-2011,06:00,METAR,,90,8.0,,,9999.0,,26.0,26.0,29.86,1012.1,,,,,,,,,,,,,TRACE,,8/8 Overcast,1800.0,,OVC,1900.0,,,,,,
KRDR,07-17-2011,05:06,SPECI,,30,5.0,,,9999.0,,27.0,27.0,29.85,1012.0,,,,,,,,,,,,,,,7/8 Mostly Cloudy,1700.0,,BKN,1700.0,,,,,,
KRDR,07-17-2011,05:00,METAR,,20,6.0,,,9999.0,,28.0,28.0,29.84,1011.5,,,,,,,,,,,,,,,Clear,72000.0,,,73000.0,,,,,,
KRDR,07-17-2011,04:10,SPECI,,220,7.0,15.0,,9999.0,,28.0,28.0,29.82,1010.9,,,,,,,,,,,,,,,Clear,72000.0,,,73000.0,,,,,,
KRDR,07-17-2011,04:00,METAR,,180,18.0,,,9999.0,Dry Thunderstorm,28.0,28.0,29.76,1009.0,91,,,,,,,,,,,,,,Clear,72000.0,,,73000.0,,,,,,
KRDR,07-17-2011,03:00,METAR,,190,6.0,,,9999.0,,28.0,28.0,29.81,1010.6,,,,,,,,,,,TRACE,0 IN,,,Clear,72000.0,,,73000.0,,,,,,
KRDR,07-17-2011,02:14,SPECI,,,5.0,,,9999.0,,28.0,28.0,29.79,1010.0,,,,,,,,,,,,,,,2/8 Mostly Clear,72000.0,,FEW,3400.0,,,,,,
KRDR,07-17-2011,02:03,SPECI,,40,3.0,,,9999.0,,28.0,28.0,29.80,1010.1,,,,,,,,,,,,,,,2/8 Mostly Clear,72000.0,,FEW,3400.0,,,,,,
KRDR,07-17-2011,02:00,METAR,,,0.0,,,9999.0,,28.0,28.0,29.81,1010.6,,,,,,,,,,,,,,,Clear,72000.0,,,73000.0,,,,,,
KRDR,07-17-2011,01:00,METAR,,190,8.0,,,9999.0,,29.0,29.0,29.83,1011.3,,,,,,,,,,,,,,,Clear,72000.0,,,73000.0,,,,,,
KRDR,07-17-2011,00:00,METAR,,210,6.0,,,9999.0,,30.0,30.0,29.83,1011.2,,,,,,,,,,,,,,,4/8 Partly Cloudy,72000.0,,SCT,2400.0,,,,,,
KRDR,07-16-2011,23:00,METAR,,200,7.0,,,9999.0,,31.0,29.0,29.82,1011.0,,,,,,,,,,,,,,,2/8 Mostly Clear,72000.0,,FEW,2400.0,,,,,,
KRDR,07-16-2011,22:38,SPECI,,200,11.0,,,9999.0,,31.0,29.0,29.82,1011.1,,,,,,,,,,,,,,,4/8 Partly Cloudy,72000.0,,SCT,2300.0,,,,,,
KRDR,07-16-2011,22:16,SPECI,,180,11.0,,,9999.0,,31.0,30.0,29.82,1011.0,,,,,,,,,,,,,,,7/8 Mostly Cloudy,2900.0,,SCT,2300.0,BKN,2900.0,,,,
KRDR,07-16-2011,22:00,METAR,,200,11.0,,,9999.0,,30.0,30.0,29.82,1010.9,,,,,,,,,,,,,,,4/8 Partly Cloudy,72000.0,,FEW,2300.0,SCT,2800.0,,,,
KRDR,07-16-2011,21:00,METAR,,190,12.0,,,9999.0,,30.0,30.0,29.81,1010.7,,,,,,,,,,,,,,,Clear,72000.0,,,73000.0,,,,,,
KRDR,07-16-2011,20:00,METAR,,190,9.0,19.0,,9999.0,,27.0,22.0,29.79,1010.1,,,,,,,,,,,,,,,Clear,72000.0,,,73000.0,,,,,,
KRDR,07-16-2011,19:00,METAR,,190,17.0,22.0,,9999.0,,26.0,22.0,29.77,1009.4,,,,,,,,,,,,,,,Clear,72000.0,,,73000.0,,,,,,
KRDR,07-16-2011,18:00,METAR,,170,11.0,,,9999.0,,23.0,23.0,29.79,1009.9,,,,,,,,,,,.02 IN,,.02 IN,,Clear,72000.0,,,73000.0,,,,,,
KRDR,07-16-2011,17:36,SPECI,,150,11.0,,,9999.0,,22.0,22.0,29.79,1009.9,,,,,,,,,,,,,,,Clear,72000.0,,,73000.0,,,,,,
KRDR,07-16-2011,17:24,SPECI,,150,16.0,,,9999.0,Light Rain,22.0,22.0,29.78,1009.6,61,,,,,,,,,,,,,,4/8 Partly Cloudy,72000.0,,SCT,4800.0,,,,,,
KRDR,07-16-2011,17:18,SPECI,,150,18.0,,,9999.0,,22.0,22.0,29.77,1009.4,,,,,,,,,,,,,,,4/8 Partly Cloudy,72000.0,,FEW,2800.0,SCT,5000.0,,,,
KRDR,07-16-2011,17:11,SPECI,,120,17.0,24.0,,9999.0,Light Rain,22.0,22.0,29.76,1009.0,61,,,,,,,,,,,,,,7/8 Mostly Cloudy,4300.0,,FEW,2800.0,BKN,4400.0,,,,
KRDR,07-16-2011,17:10,SPECI,,120,16.0,24.0,,9999.0,Light Rain,22.0,22.0,29.76,1009.0,61,,,,,,,,,,,,,,7/8 Mostly Cloudy,4300.0,,FEW,2800.0,BKN,4400.0,,,,
KRDR,07-16-2011,17:00,METAR,,210,9.0,17.0,,9999.0,Thunderstorm and Rain or Snow Showers,25.0,25.0,29.91,1014.0,92,,,,,,,,,,,,,,7/8 Mostly Cloudy,6000.0,,FEW,2000.0,SCT,2700.0,BKN,5900.0,,
KRDR,07-16-2011,16:55,SPECI,,230,7.0,,,9999.0,Thunderstorm and Rain or Snow Showers,25.0,25.0,29.92,1014.1,92,,,,,,,,,,,,,,7/8 Mostly Cloudy,2800.0,,FEW,2000.0,BKN,2800.0,BKN,6900.0,,
KRDR,07-16-2011,16:54,SPECI,,240,8.0,,,9999.0,Light Rain,25.0,25.0,29.92,1014.2,61,,,,,,,,,,,,,,7/8 Mostly Cloudy,2800.0,,FEW,2000.0,BKN,2800.0,,,,
KRDR,07-16-2011,16:27,SPECI,,330,8.0,,,9999.0,,26.0,26.0,29.90,1013.5,,,,,,,,,,,,,,,7/8 Mostly Cloudy,1300.0,,FEW,800.0,BKN,1500.0,BKN,8900.0,,
KRDR,07-16-2011,16:18,SPECI,,300,9.0,,,9999.0,,26.0,26.0,29.90,1013.7,,,,,,,,,,,,,,,4/8 Partly Cloudy,72000.0,,FEW,700.0,SCT,8900.0,,,,
KRDR,07-16-2011,16:00,METAR,,170,9.0,,,9999.0,,26.0,26.0,29.86,1012.1,,,,,,,,,,,,,,,2/8 Mostly Clear,72000.0,,FEW,500.0,,,,,,
KRDR,07-16-2011,15:42,SPECI,,170,7.0,,,9999.0,,26.0,26.0,29.86,1012.3,,,,,,,,,,,,,,,2/8 Mostly Clear,72000.0,,FEW,600.0,,,,,,
KRDR,07-16-2011,15:00,METAR,,150,7.0,,,9999.0,,26.0,26.0,29.86,1012.2,,,,,,,,,,,,,,,Clear,72000.0,,,73000.0,,,,,,
KRDR,07-16-2011,14:00,METAR,,,0.0,,,9999.0,,24.0,24.0,29.85,1012.0,,,,,,,,,,,,,,,Clear,72000.0,,,73000.0,,,,,,
KRDR,07-16-2011,13:07,SPECI,,,0.0,,,9999.0,,22.0,22.0,29.84,1011.5,,,,,,,,,,,,,,,7/8 Mostly Cloudy,3400.0,,SCT,2500.0,BKN,3500.0,,,,
KRDR,07-16-2011,13:00,METAR,,350,3.0,,,9999.0,,22.0,22.0,29.84,1011.5,,,,,,,,,,,,,,,7/8 Mostly Cloudy,2300.0,,BKN,2400.0,,,,,,
KRDR,07-16-2011,12:42,SPECI,,,3.0,,,9999.0,,22.0,22.0,29.83,1011.4,,,,,,,,,,,,,,,7/8 Mostly Cloudy,2400.0,,BKN,2400.0,BKN,3800.0,,,,
KRDR,07-16-2011,12:00,METAR,,20,4.0,,,9999.0,,21.0,21.0,29.84,1011.4,,,,,,,,,,,,,,.08 IN,7/8 Mostly Cloudy,4000.0,,BKN,4100.0,,,,,,
KRDR,07-16-2011,11:22,SPECI,,,0.0,,,4800.0,Mist,21.0,21.0,29.85,1011.9,10,,,,,,,,,,,,,,7/8 Mostly Cloudy,4200.0,,SCT,100.0,BKN,4300.0,,,,
KRDR,07-16-2011,11:19,SPECI,,,0.0,,,3200.0,Mist,21.0,21.0,29.85,1011.8,10,,,,,,,,,,,,,,7/8 Mostly Cloudy,4100.0,,SCT,100.0,BKN,4200.0,,,,
KRDR,07-16-2011,11:17,SPECI,,,0.0,,,2400.0,Mist,21.0,21.0,29.85,1011.8,10,,,,,,,,,,,,,,7/8 Mostly Cloudy,4100.0,,SCT,100.0,BKN,4200.0,,,,
KRDR,07-16-2011,11:14,SPECI,,,0.0,,,1200.0,Mist,21.0,21.0,29.85,1011.8,10,,,,,,,,,,,,,,7/8 Mostly Cloudy,4100.0,,SCT,100.0,BKN,4200.0,,,,
KRDR,07-16-2011,11:11,SPECI,,350,3.0,,,800.0,Fog,21.0,21.0,29.85,1011.9,30,,,,,,,,,,,,,,7/8 Mostly Cloudy,100.0,,BKN,100.0,BKN,4300.0,,,,
KRDR,07-16-2011,11:10,SPECI,,340,3.0,,,400.0,Fog,21.0,21.0,29.85,1011.9,30,,,,,,,,,,,,,,7/8 Mostly Cloudy,100.0,,BKN,100.0,BKN,4300.0,,,,
KRDR,07-16-2011,11:05,SPECI,,340,4.0,,,400.0,Fog,21.0,21.0,29.85,1011.9,30,,,,,,,,,,,,,,Sky Obscured (Unable to Estimate),100.0,100.0,,100.0,,,,,,
KRDR,07-16-2011,11:00,METAR,,340,5.0,,,400.0,Fog,21.0,21.0,29.85,1011.9,30,,,,,,,,,,,,,,Sky Obscured (Unable to Estimate),100.0,100.0,,100.0,,,,,,
KRDR,07-16-2011,10:00,METAR,,10,3.0,,,400.0,Fog,21.0,21.0,29.82,1010.9,30,,,,,,,,,,,,,,Sky Obscured (Unable to Estimate),100.0,100.0,,100.0,,,,,,
KRDR,07-16-2011,09:39,SPECI,,,0.0,,,400.0,Fog,21.0,21.0,29.81,1010.6,30,,,,,,,,,,,,,,Sky Obscured (Unable to Estimate),100.0,100.0,,100.0,,,,,,
KRDR,07-16-2011,09:38,SPECI,,,0.0,,,800.0,Fog,21.0,21.0,29.81,1010.6,30,,,,,,,,,,,,,,Sky Obscured (Unable to Estimate),100.0,100.0,,100.0,,,,,,
KRDR,07-16-2011,09:36,SPECI,,,0.0,,,800.0,Fog,21.0,21.0,29.81,1010.6,30,,,,,,,,,,,,,,Sky Obscured (Unable to Estimate),100.0,100.0,,100.0,,,,,,
KRDR,07-16-2011,09:34,SPECI,,,0.0,,,1200.0,Mist,21.0,21.0,29.81,1010.5,10,,,,,,,,,,,,,,Sky Obscured (Unable to Estimate),100.0,100.0,,100.0,,,,,,
KRDR,07-16-2011,09:32,SPECI,,,0.0,,,1600.0,Mist,21.0,21.0,29.81,1010.4,10,,,,,,,,,,,,,,Sky Obscured (Unable to Estimate),100.0,100.0,,100.0,,,,,,
KRDR,07-16-2011,09:27,SPECI,,,0.0,,,2800.0,Mist,21.0,21.0,29.81,1010.4,10,,,,,,,,,,,,,,8/8 Overcast,100.0,,OVC,100.0,,,,,,
KRDR,07-16-2011,09:26,SPECI,,,0.0,,,2800.0,Mist,21.0,21.0,29.81,1010.4,10,,,,,,,,,,,,,,8/8 Overcast,100.0,,OVC,100.0,,,,,,
KRDR,07-16-2011,09:24,SPECI,,,0.0,,,3200.0,Mist,21.0,21.0,29.80,1010.4,10,,,,,,,,,,,,,,8/8 Overcast,100.0,,OVC,100.0,,,,,,
KRDR,07-16-2011,09:22,SPECI,,50,3.0,,,4000.0,Mist,21.0,21.0,29.80,1010.3,10,,,,,,,,,,,,,,8/8 Overcast,100.0,,OVC,100.0,,,,,,
KRDR,07-16-2011,09:20,SPECI,,30,3.0,,,6400.0,Mist,21.0,21.0,29.80,1010.3,10,,,,,,,,,,,,,,8/8 Overcast,100.0,,OVC,100.0,,,,,,
KRDR,07-16-2011,09:00,METAR,,,0.0,,,9999.0,,20.0,20.0,29.80,1010.3,,,,,,,,,,,,,,,8/8 Overcast,200.0,,OVC,200.0,,,,,,
KRDR,07-16-2011,08:44,SPECI,,,0.0,,,9999.0,,20.0,20.0,29.80,1010.2,,,,,,,,,,,,,,,7/8 Mostly Cloudy,300.0,,BKN,300.0,BKN,700.0,,,,
KRDR,07-16-2011,08:42,SPECI,,,0.0,,,9999.0,,20.0,20.0,29.80,1010.2,,,,,,,,,,,,,,,7/8 Mostly Cloudy,400.0,,BKN,400.0,,,,,,
KRDR,07-16-2011,08:37,SPECI,,,0.0,,,9999.0,,20.0,20.0,29.80,1010.1,,,,,,,,,,,,,,,7/8 Mostly Cloudy,500.0,,BKN,500.0,,,,,,
KRDR,07-16-2011,08:34,SPECI,,150,6.0,,,9999.0,,20.0,20.0,29.80,1010.2,,,,,,,,,,,,,,,7/8 Mostly Cloudy,600.0,,BKN,600.0,,,,,,
KRDR,07-16-2011,08:24,SPECI,,140,3.0,,,9999.0,,20.0,20.0,29.80,1010.2,,,,,,,,,,,,,,,2/8 Mostly Clear,72000.0,,FEW,600.0,,,,,,
KRDR,07-16-2011,08:05,SPECI,,,0.0,,,4800.0,Mist,19.0,19.0,29.79,1009.9,10,,,,,,,,,,,,,,Clear,72000.0,,,73000.0,,,,,,
KRDR,07-16-2011,08:01,SPECI,,,0.0,,,2800.0,Mist,19.0,19.0,29.79,1009.9,10,,,,,,,,,,,,,,Clear,72000.0,,,73000.0,,,,,,
KRDR,07-16-2011,08:00,SPECI,,,0.0,,,3200.0,Mist,19.0,19.0,29.79,1009.9,10,,,,,,,,,,,,,,Clear,72000.0,,,,,,,,,
KRDR,07-16-2011,08:00,METAR,,,0.0,,,4000.0,Mist,18.0,18.0,29.79,1009.8,10,,,,,,,,,,,,,,Clear,72000.0,,,73000.0,,,,,,
KRDR,07-16-2011,07:00,METAR,,170,4.0,,,9999.0,,19.0,19.0,29.78,1009.6,,,,,,,,,,,,,,,Clear,72000.0,,,73000.0,,,,,,
KRDR,07-16-2011,06:00,METAR,,,0.0,,,9999.0,,20.0,20.0,29.78,1009.6,,,,,,,,,,,,,,,Clear,72000.0,,,73000.0,,,,,,
KRDR,07-16-2011,05:00,METAR,,,0.0,,,9999.0,,20.0,20.0,29.78,1009.5,,,,,,,,,,,,,,,Clear,72000.0,,,73000.0,,,,,,
KRDR,07-16-2011,04:00,METAR,,,0.0,,,9999.0,,22.0,22.0,29.78,1009.5,,,,,,,,,,,,,,,Clear,72000.0,,,73000.0,,,,,,
KRDR,07-16-2011,03:00,METAR,,190,3.0,,,9999.0,,23.0,23.0,29.77,1009.1,,,,,,,,,,,,,,,Clear,72000.0,,,73000.0,,,,,,
KRDR,07-16-2011,02:00,METAR,,,0.0,,,9999.0,,28.0,23.0,29.75,1008.7,,,,,,,,,,,,,,,Clear,72000.0,,,73000.0,,,,,,
KRDR,07-16-2011,01:00,METAR,,290,4.0,,,9999.0,,30.0,21.0,29.75,1008.5,,,,,,,,,,,,,,,Clear,72000.0,,,73000.0,,,,,,
KRDR,07-16-2011,00:00,METAR,,330,5.0,,,9999.0,,30.0,23.0,29.74,1008.2,,,,,,,,,,,,,,,Clear,72000.0,,,73000.0,,,,,,
KRDR,07-15-2011,23:00,METAR,,320,5.0,,,9999.0,,31.0,23.0,29.73,1007.8,,,,,,,,,,,,,,,2/8 Mostly Clear,72000.0,,FEW,4200.0,,,,,,
KRDR,07-15-2011,22:00,METAR,,270,8.0,,,9999.0,,31.0,23.0,29.72,1007.6,,,,,,,,,,,,,,,2/8 Mostly Clear,72000.0,,FEW,4000.0,,,,,,
KRDR,07-15-2011,21:00,METAR,,260,8.0,,,9999.0,,31.0,23.0,29.72,1007.6,,,,,,,,,,,,,,,4/8 Partly Cloudy,72000.0,,SCT,3800.0,,,,,,
KRDR,07-15-2011,20:00,METAR,,250,12.0,,,9999.0,,30.0,24.0,29.72,1007.6,,,,,,,,,,,,,,,2/8 Mostly Clear,72000.0,,FEW,3600.0,,,,,,
KRDR,07-15-2011,19:00,METAR,,240,10.0,,,9999.0,,29.0,23.0,29.73,1007.9,,,,,,,,,,,,,,,2/8 Mostly Clear,72000.0,,FEW,2900.0,,,,,,
KRDR,07-15-2011,18:00,METAR,,220,10.0,,,9999.0,,28.0,24.0,29.73,1007.9,,,,,,,,,,,,,.08 IN,,Clear,72000.0,,,73000.0,,,,,,
KRDR,07-15-2011,17:00,METAR,,200,7.0,,,9999.0,,26.0,23.0,29.72,1007.6,,,,,,,,,,,TRACE,,,,Clear,72000.0,,,73000.0,,,,,,
KRDR,07-15-2011,16:39,SPECI,,180,8.0,,,9999.0,,26.0,23.0,29.72,1007.5,,,,,,,,,,,,,,,Clear,72000.0,,,73000.0,,,,,,
KRDR,07-15-2011,16:30,SPECI,,200,6.0,,,9999.0,Light Rain,26.0,23.0,29.71,1007.4,61,,,,,,,,,,,,,,Clear,72000.0,,,73000.0,,,,,,
KRDR,07-15-2011,16:00,METAR,,170,8.0,,,9999.0,,25.0,24.0,29.69,1006.8,,,,,,,,,,,,,,,Clear,72000.0,,,73000.0,,,,,,
KRDR,07-15-2011,15:00,METAR,,150,11.0,,,9999.0,,24.0,24.0,29.65,1005.4,,,,,,,,,,,.08 IN,.08 IN,,,Clear,72000.0,,,73000.0,,,,,,
KRDR,07-15-2011,14:00,METAR,,,0.0,,,9999.0,,22.0,22.0,29.72,1007.6,,,,,,,,,,,,,,,Clear,72000.0,,,73000.0,,,,,,
KRDR,07-15-2011,13:12,SPECI,,260,5.0,,,9999.0,,22.0,22.0,29.75,1008.5,,,,,,,,,,,,,,,2/8 Mostly Clear,72000.0,,FEW,1000.0,,,,,,
KRDR,07-15-2011,13:00,METAR,,280,6.0,,,9999.0,,21.0,21.0,29.74,1008.3,,,,,,,,,,,,,,,Clear,72000.0,,,73000.0,,,,,,
KRDR,07-15-2011,12:00,METAR,,200,9.0,,,9999.0,,20.0,20.0,29.74,1008.2,,,,,,,,,,,,,.1 IN,.1 IN,2/8 Mostly Clear,72000.0,,FEW,1000.0,,,,,,
KRDR,07-15-2011,11:06,SPECI,,170,7.0,16.0,,9999.0,,19.0,19.0,29.71,1007.2,,,,,,,,,,,,,,,4/8 Partly Cloudy,72000.0,,SCT,200.0,,,,,,
KRDR,07-15-2011,11:00,METAR,,40,8.0,,,4800.0,Mist,19.0,19.0,29.69,1006.5,10,,,,,,,,,,.04 IN,,,,7/8 Mostly Cloudy,800.0,,BKN,800.0,BKN,6400.0,,,,
KRDR,07-15-2011,10:54,SPECI,,50,11.0,,,4800.0,Mist,19.0,19.0,29.71,1007.3,10,,,,,,,,,,,,,,7/8 Mostly Cloudy,3000.0,,SCT,300.0,BKN,6400.0,,,,
KRDR,07-15-2011,10:50,SPECI,,10,4.0,,,4000.0,Mist,19.0,19.0,29.68,1006.4,10,,,,,,,,,,,,,,7/8 Mostly Cloudy,800.0,,BKN,800.0,BKN,6400.0,,,,
KRDR,07-15-2011,10:49,SPECI,,10,4.0,,,3200.0,Light Rain/Mist,19.0,19.0,29.69,1006.5,61,10,,,,,,,,,,,,,7/8 Mostly Cloudy,800.0,,BKN,800.0,BKN,6400.0,,,,
KRDR,07-15-2011,10:48,SPECI,,,6.0,,,2800.0,Light Rain/Mist,19.0,19.0,29.69,1006.6,61,10,,,,,,,,,,,,,7/8 Mostly Cloudy,900.0,,BKN,900.0,BKN,6400.0,,,,
KRDR,07-15-2011,10:45,SPECI,,60,13.0,,,2000.0,Light Rain/Mist,19.0,19.0,29.68,1006.2,61,10,,,,,,,,,,,,,8/8 Overcast,1400.0,,BKN,1400.0,OVC,6400.0,,,,
KRDR,07-15-2011,10:44,SPECI,,60,12.0,,,2000.0,Light Rain/Mist,19.0,19.0,29.67,1005.9,61,10,,,,,,,,,,,,,8/8 Overcast,1600.0,,BKN,1600.0,OVC,6400.0,,,,
KRDR,07-15-2011,10:41,SPECI,,60,10.0,,,1600.0,Light Rain/Mist,19.0,19.0,29.64,1005.0,61,10,,,,,,,,,,,,,Sky Obscured (Unable to Estimate),1700.0,100.0,,1700.0,,,,,,
KRDR,07-15-2011,10:40,SPECI,,60,10.0,,,1200.0,Light Rain/Mist,19.0,19.0,29.63,1004.7,61,10,,,,,,,,,,,,,Sky Obscured (Unable to Estimate),2000.0,100.0,,2000.0,,,,,,
KRDR,07-15-2011,10:38,SPECI,,70,14.0,,,1200.0,Light Rain/Mist,19.0,19.0,29.63,1004.5,61,10,,,,,,,,,,,,,8/8 Overcast,2600.0,,OVC,2600.0,,,,,,
KRDR,07-15-2011,10:37,SPECI,,70,15.0,,,1600.0,Light Rain/Mist,19.0,19.0,29.62,1004.4,61,10,,,,,,,,,,,,,8/8 Overcast,2800.0,,OVC,2800.0,,,,,,
KRDR,07-15-2011,10:34,SPECI,,70,17.0,,,1600.0,Light Rain/Mist,19.0,19.0,29.62,1004.2,61,10,,,,,,,,,,,,,8/8 Overcast,3100.0,,BKN,3200.0,OVC,5900.0,,,,
KRDR,07-15-2011,10:31,SPECI,,60,14.0,,,2400.0,Light Rain/Mist,19.0,19.0,29.62,1004.3,61,10,,,,,,,,,,,,,8/8 Overcast,4100.0,,BKN,4200.0,OVC,5900.0,,,,
KRDR,07-15-2011,10:30,SPECI,,60,12.0,,,2800.0,Light Rain/Mist,19.0,19.0,29.63,1004.6,61,10,,,,,,,,,,,,,8/8 Overcast,4400.0,,FEW,900.0,BKN,4500.0,OVC,5900.0,,
KRDR,07-15-2011,10:26,SPECI,,50,7.0,,,4000.0,Light Rain/Mist,19.0,19.0,29.67,1006.1,61,10,,,,,,,,,,,,,8/8 Overcast,4900.0,,FEW,700.0,BKN,5000.0,OVC,7900.0,,
KRDR,07-15-2011,10:10,SPECI,,,0.0,,,4800.0,Light Rain/Mist,19.0,19.0,29.72,1007.6,61,10,,,,,,,,,,,,,8/8 Overcast,700.0,,FEW,400.0,SCT,800.0,OVC,3300.0,,
KRDR,07-15-2011,10:08,SPECI,,,0.0,,,4800.0,Light Rain/Mist,19.0,19.0,29.73,1007.9,61,10,,,,,,,,,,,,,8/8 Overcast,700.0,,FEW,400.0,SCT,800.0,OVC,1700.0,,
KRDR,07-15-2011,10:04,SPECI,,,0.0,,,4800.0,Light Rain/Mist,19.0,19.0,29.75,1008.6,61,10,,,,,,,,,,,,,8/8 Overcast,700.0,,FEW,300.0,OVC,700.0,,,,
KRDR,07-15-2011,10:00,METAR,,160,5.0,,,4800.0,Light Rain/Mist,19.0,19.0,29.76,1009.0,61,10,,,,,,,,,,,,,8/8 Overcast,400.0,,OVC,400.0,,,,,,
KRDR,07-15-2011,09:53,SPECI,,150,4.0,,,4000.0,Light Rain/Mist,19.0,19.0,29.76,1009.0,61,10,,,,,,,,,,,,,8/8 Overcast,400.0,,OVC,400.0,,,,,,
KRDR,07-15-2011,09:47,SPECI,,150,4.0,,,3200.0,Light Rain/Mist,19.0,19.0,29.75,1008.6,61,10,,,,,,,,,,,,,8/8 Overcast,400.0,,OVC,400.0,,,,,,
KRDR,07-15-2011,09:35,SPECI,,180,5.0,,,4000.0,Thunderstorm and Rain or Snow Showers/Mist,19.0,19.0,29.77,1009.1,92,10,,,,,,,,,,,,,8/8 Overcast,400.0,,OVC,400.0,,,,,,
KRDR,07-15-2011,09:34,SPECI,,180,5.0,,,4000.0,Thunderstorm and Rain or Snow Showers/Mist,19.0,19.0,29.77,1009.1,92,10,,,,,,,,,,,,,8/8 Overcast,400.0,,OVC,400.0,,,,,,
KRDR,07-15-2011,09:32,SPECI,,170,5.0,,,4800.0,Thunderstorm and Rain or Snow Showers/Mist,19.0,19.0,29.77,1009.2,92,10,,,,,,,,,,,,,8/8 Overcast,400.0,,OVC,400.0,,,,,,
KRDR,07-15-2011,09:10,SPECI,,120,5.0,,,6400.0,Light Rain/Mist,19.0,19.0,29.75,1008.5,61,10,,,,,,,,,,,,,8/8 Overcast,400.0,,OVC,400.0,,,,,,
KRDR,07-15-2011,09:08,SPECI,,110,5.0,,,8000.0,Light Rain/Mist,19.0,19.0,29.74,1008.4,61,10,,,,,,,,,,,,,8/8 Overcast,400.0,,OVC,500.0,,,,,,
KRDR,07-15-2011,09:00,METAR,,110,4.0,,,9999.0,Light Rain,19.0,19.0,29.76,1008.8,61,,,,,,,,,,TRACE,0 IN,,,8/8 Overcast,500.0,,OVC,500.0,,,,,,
KRDR,07-15-2011,08:50,SPECI,,110,5.0,,,9999.0,Light Rain,19.0,19.0,29.76,1008.8,61,,,,,,,,,,,,,,8/8 Overcast,500.0,,OVC,500.0,,,,,,
KRDR,07-15-2011,08:36,SPECI,,120,6.0,,,9999.0,Light Rain,19.0,19.0,29.75,1008.7,61,,,,,,,,,,,,,,8/8 Overcast,600.0,,OVC,600.0,,,,,,
KRDR,07-15-2011,08:08,SPECI,,140,6.0,,,9999.0,,19.0,19.0,29.76,1009.1,,,,,,,,,,,,,,,8/8 Overcast,600.0,,OVC,600.0,,,,,,
KRDR,07-15-2011,08:04,SPECI,,140,6.0,,,9999.0,,19.0,19.0,29.76,1009.1,,,,,,,,,,,,,,,8/8 Overcast,700.0,,OVC,700.0,,,,,,
KRDR,07-15-2011,08:00,METAR,,160,6.0,,,9999.0,,19.0,19.0,29.76,1009.1,,,,,,,,,,,,,,,8/8 Overcast,700.0,,OVC,700.0,,,,,,
KRDR,07-15-2011,07:00,METAR,,120,6.0,,,9999.0,,19.0,19.0,29.76,1009.0,,,,,,,,,,,TRACE,,,,8/8 Overcast,800.0,,OVC,800.0,,,,,,
KRDR,07-15-2011,06:17,SPECI,,110,6.0,,,9999.0,,19.0,19.0,29.77,1009.4,,,,,,,,,,,,,,,8/8 Overcast,800.0,,OVC,800.0,,,,,,
KRDR,07-15-2011,06:02,SPECI,,90,4.0,,,9999.0,Light Rain,19.0,19.0,29.78,1009.6,61,,,,,,,,,,,,,,8/8 Overcast,800.0,,OVC,800.0,,,,,,
KRDR,07-15-2011,06:00,METAR,,120,5.0,,,9999.0,,19.0,19.0,29.79,1009.9,,,,,,,,,,,,,,,8/8 Overcast,800.0,,OVC,800.0,,,,,,
KRDR,07-15-2011,05:00,METAR,,130,6.0,,,9999.0,,19.0,19.0,29.81,1010.5,,,,,,,,,,,,,,,8/8 Overcast,700.0,,OVC,800.0,,,,,,
KRDR,07-15-2011,04:00,METAR,,130,8.0,,,9999.0,,19.0,19.0,29.80,1010.4,,,,,,,,,,,,,,,8/8 Overcast,600.0,,OVC,700.0,,,,,,
KRDR,07-15-2011,03:00,METAR,,140,8.0,,,9999.0,,20.0,20.0,29.82,1010.8,,,,,,,,,,,,,,,8/8 Overcast,1000.0,,OVC,1000.0,,,,,,
KRDR,07-15-2011,02:53,SPECI,,140,8.0,,,9999.0,,20.0,20.0,29.82,1010.8,,,,,,,,,,,,,,,8/8 Overcast,900.0,,OVC,900.0,,,,,,
KRDR,07-15-2011,02:10,SPECI,,110,8.0,,,9999.0,,20.0,20.0,29.81,1010.5,,,,,,,,,,,,,,,8/8 Overcast,1100.0,,OVC,1100.0,,,,,,
KRDR,07-15-2011,02:00,METAR,,130,8.0,,,9999.0,,20.0,20.0,29.81,1010.6,,,,,,,,,,,,,,,8/8 Overcast,1200.0,,OVC,1200.0,,,,,,
KRDR,07-15-2011,01:00,METAR,,130,9.0,,,9999.0,,20.0,20.0,29.82,1010.9,,,,,,,,,,,,,,,8/8 Overcast,1200.0,,OVC,1200.0,,,,,,
KRDR,07-15-2011,00:18,SPECI,,140,8.0,,,9999.0,,21.0,21.0,29.82,1010.8,,,,,,,,,,,,,,,8/8 Overcast,1400.0,,OVC,1400.0,,,,,,
KRDR,07-15-2011,00:00,METAR,,140,9.0,,,9999.0,,21.0,21.0,29.81,1010.7,,,,,,,,,,,,,,,8/8 Overcast,1500.0,,OVC,1500.0,,,,,,
KRDR,07-14-2011,23:00,METAR,,130,10.0,,,9999.0,,21.0,21.0,29.81,1010.5,,,,,,,,,,,,,,,8/8 Overcast,1700.0,,OVC,1700.0,,,,,,
KRDR,07-14-2011,22:00,METAR,,130,11.0,,,9999.0,,21.0,21.0,29.82,1011.1,,,,,,,,,,,,,,,8/8 Overcast,1700.0,,OVC,1700.0,,,,,,
KRDR,07-14-2011,21:00,METAR,,130,10.0,,,9999.0,,22.0,20.0,29.83,1011.1,,,,,,,,,,,,,,,8/8 Overcast,1800.0,,BKN,2100.0,OVC,3300.0,,,,
KRDR,07-14-2011,20:00,METAR,,150,9.0,,,9999.0,,22.0,20.0,29.83,1011.4,,,,,,,,,,,,,,,8/8 Overcast,2000.0,,OVC,2200.0,,,,,,
KRDR,07-14-2011,19:00,METAR,,150,10.0,,,9999.0,,22.0,19.0,29.85,1011.8,,,,,,,,,,,,,,,8/8 Overcast,2300.0,,OVC,2300.0,,,,,,
KRDR,07-14-2011,18:00,METAR,,150,13.0,,,9999.0,,22.0,18.0,29.86,1012.2,,,,,,,,,,,,,,,8/8 Overcast,2500.0,,OVC,2500.0,,,,,,
KRDR,07-14-2011,17:00,METAR,,140,12.0,17.0,,9999.0,,21.0,17.0,29.86,1012.3,,,,,,,,,,,,,,,8/8 Overcast,2400.0,,OVC,2400.0,,,,,,
KRDR,07-14-2011,16:00,METAR,,140,11.0,,,9999.0,,19.0,17.0,29.87,1012.6,,,,,,,,,,,,,,,8/8 Overcast,2600.0,,OVC,2600.0,,,,,,
KRDR,07-14-2011,15:26,SPECI,,140,12.0,,,9999.0,,19.0,18.0,29.88,1012.8,,,,,,,,,,,,,,,8/8 Overcast,2800.0,,BKN,2900.0,OVC,3700.0,,,,
KRDR,07-14-2011,15:00,METAR,,140,10.0,,,9999.0,,18.0,18.0,29.89,1013.1,,,,,,,,,,,,,,,8/8 Overcast,3100.0,,OVC,3200.0,,,,,,
KRDR,07-14-2011,14:26,SPECI,,140,9.0,,,9999.0,,18.0,18.0,29.90,1013.5,,,,,,,,,,,,,,,8/8 Overcast,3000.0,,OVC,3000.0,,,,,,
KRDR,07-14-2011,14:00,METAR,,170,12.0,,,9999.0,,18.0,18.0,29.91,1013.8,,,,,,,,,,,,,,,8/8 Overcast,1200.0,,BKN,1300.0,OVC,2900.0,,,,
KRDR,07-14-2011,13:00,SPECI,,150,13.0,,,9999.0,,17.0,17.0,29.91,1013.9,,,,,,,,,,,,,,,8/8 Overcast,1200.0,,OVC,1400.0,,,,,,
KRDR,07-14-2011,13:00,METAR,,150,8.0,,,9999.0,,17.0,17.0,29.92,1014.1,,,,,,,,,,,,,,,8/8 Overcast,1200.0,,,,,,,,,
KRDR,07-14-2011,12:37,SPECI,,150,9.0,,,9999.0,,17.0,17.0,29.92,1014.2,,,,,,,,,,,,,,,8/8 Overcast,1200.0,,OVC,1500.0,,,,,,
KRDR,07-14-2011,12:13,SPECI,,170,12.0,,,9999.0,,17.0,17.0,29.92,1014.2,,,,,,,,,,,,,,,8/8 Overcast,1300.0,,OVC,1400.0,,,,,,
KRDR,07-14-2011,12:00,METAR,,160,12.0,,,9999.0,,17.0,17.0,29.92,1014.1,,,,,,,,,,,,,,,7/8 Mostly Cloudy,12000.0,,SCT,1500.0,BKN,12000.0,,,,
KRDR,07-14-2011,11:54,SPECI,,160,10.0,,,9999.0,,17.0,17.0,29.92,1014.1,,,,,,,,,,,,,,,7/8 Mostly Cloudy,1500.0,,BKN,1500.0,BKN,12000.0,,,,
KRDR,07-14-2011,11:00,METAR,,160,7.0,,,9999.0,,16.0,16.0,29.93,1014.5,,,,,,,,,,,,,,,Clear,72000.0,,,73000.0,,,,,,
KRDR,07-14-2011,10:00,METAR,,160,7.0,,,9999.0,,17.0,17.0,29.93,1014.6,,,,,,,,,,,,,,,Clear,72000.0,,,73000.0,,,,,,
KRDR,07-14-2011,09:00,METAR,,160,8.0,,,9999.0,,16.0,16.0,29.95,1015.1,,,,,,,,,,,,,,,Clear,72000.0,,,73000.0,,,,,,
KRDR,07-14-2011,08:00,METAR,,150,7.0,,,9999.0,,16.0,16.0,29.95,1015.3,,,,,,,,,,,,,,,Clear,72000.0,,,73000.0,,,,,,
KRDR,07-14-2011,07:00,METAR,,150,7.0,,,9999.0,,16.0,16.0,29.97,1015.8,,,,,,,,,,,,,,,Clear,72000.0,,,73000.0,,,,,,
KRDR,07-14-2011,06:00,METAR,,160,8.0,,,9999.0,,17.0,17.0,29.98,1016.3,,,,,,,,,,,,,,,Clear,72000.0,,,73000.0,,,,,,
KRDR,07-14-2011,05:00,METAR,,150,6.0,,,9999.0,,18.0,17.0,29.99,1016.5,,,,,,,,,,,,,,,Clear,72000.0,,,73000.0,,,,,,
KRDR,07-14-2011,04:00,METAR,,140,8.0,,,9999.0,,20.0,15.0,29.99,1016.5,,,,,,,,,,,,,,,Clear,72000.0,,,73000.0,,,,,,
KRDR,07-14-2011,03:00,METAR,,150,7.0,,,9999.0,,20.0,15.0,29.99,1016.4,,,,,,,,,,,,,,,Clear,72000.0,,,73000.0,,,,,,
KRDR,07-14-2011,02:00,METAR,,140,8.0,,,9999.0,,22.0,14.0,29.98,1016.1,,,,,,,,,,,,,,,Clear,72000.0,,,73000.0,,,,,,
KRDR,07-14-2011,01:00,METAR,,170,12.0,,,9999.0,,22.0,14.0,29.98,1016.2,,,,,,,,,,,,,,,Clear,72000.0,,,73000.0,,,,,,
KRDR,07-14-2011,00:00,METAR,,150,12.0,,,9999.0,,23.0,14.0,29.99,1016.7,,,,,,,,,,,,,,,Clear,72000.0,,,73000.0,,,,,,
KRDR,07-13-2011,23:00,METAR,,140,11.0,15.0,,9999.0,,24.0,14.0,30.02,1017.4,,,,,,,,,,,,,,,Clear,72000.0,,,73000.0,,,,,,
KRDR,07-13-2011,22:00,METAR,,140,15.0,,,9999.0,,24.0,14.0,30.03,1017.9,,,,,,,,,,,,,,,Clear,72000.0,,,73000.0,,,,,,
KRDR,07-13-2011,21:00,METAR,,150,13.0,18.0,,9999.0,,24.0,13.0,30.05,1018.6,,,,,,,,,,,,,,,Clear,72000.0,,,73000.0,,,,,,
KRDR,07-13-2011,20:00,METAR,,160,16.0,19.0,,9999.0,,24.0,13.0,30.07,1019.0,,,,,,,,,,,,,,,Clear,72000.0,,,73000.0,,,,,,
KRDR,07-13-2011,19:00,METAR,,150,13.0,,,9999.0,,23.0,12.0,30.09,1019.9,,,,,,,,,,,,,,,Clear,72000.0,,,73000.0,,,,,,
KRDR,07-13-2011,18:00,METAR,,140,13.0,17.0,,9999.0,,23.0,12.0,30.11,1020.4,,,,,,,,,,,,,,,Clear,72000.0,,,73000.0,,,,,,
KRDR,07-13-2011,17:00,METAR,,130,13.0,17.0,,9999.0,,22.0,12.0,30.13,1021.0,,,,,,,,,,,,,,,Clear,72000.0,,,73000.0,,,,,,
KRDR,07-13-2011,16:00,METAR,,140,12.0,,,9999.0,,21.0,12.0,30.15,1021.7,,,,,,,,,,,,,,,Clear,72000.0,,,73000.0,,,,,,
KRDR,07-13-2011,15:00,METAR,,150,11.0,,,9999.0,,20.0,14.0,30.15,1021.9,,,,,,,,,,,,,,,Clear,72000.0,,,73000.0,,,,,,
KRDR,07-13-2011,14:00,METAR,,150,7.0,,,9999.0,,18.0,16.0,30.16,1022.2,,,,,,,,,,,,,,,Clear,72000.0,,,73000.0,,,,,,
KRDR,07-13-2011,13:00,METAR,,170,6.0,,,9999.0,,15.0,15.0,30.16,1022.1,,,,,,,,,,,,,,,Clear,72000.0,,,73000.0,,,,,,
KRDR,07-13-2011,12:00,METAR,,150,5.0,,,9999.0,,13.0,13.0,30.16,1022.1,,,,,,,,,,,,,,,Clear,72000.0,,,73000.0,,,,,,
KRDR,07-13-2011,11:00,METAR,,160,4.0,,,9999.0,,11.0,11.0,30.16,1022.1,,,,,,,,,,,,,,,Clear,72000.0,,,73000.0,,,,,,
KRDR,07-13-2011,10:00,METAR,,140,5.0,,,9999.0,,12.0,12.0,30.16,1022.2,,,,,,,,,,,,,,,Clear,72000.0,,,73000.0,,,,,,
KRDR,07-13-2011,09:00,METAR,,,0.0,,,9999.0,,11.0,11.0,30.16,1022.2,,,,,,,,,,,,,,,Clear,72000.0,,,73000.0,,,,,,
KRDR,07-13-2011,08:00,METAR,,,0.0,,,9999.0,,12.0,12.0,30.17,1022.4,,,,,,,,,,,,,,,Clear,72000.0,,,73000.0,,,,,,
KRDR,07-13-2011,07:00,METAR,,,0.0,,,9999.0,,12.0,12.0,30.16,1022.0,,,,,,,,,,,,,,,Clear,72000.0,,,73000.0,,,,,,
KRDR,07-13-2011,06:00,METAR,,,0.0,,,9999.0,,12.0,12.0,30.16,1022.0,,,,,,,,,,,,,,,Clear,72000.0,,,73000.0,,,,,,
KRDR,07-13-2011,05:00,METAR,,,0.0,,,9999.0,,13.0,13.0,30.16,1022.1,,,,,,,,,,,,,,,Clear,72000.0,,,73000.0,,,,,,
KRDR,07-13-2011,04:00,METAR,,,0.0,,,9999.0,,14.0,14.0,30.16,1022.1,,,,,,,,,,,,,,,Clear,72000.0,,,73000.0,,,,,,
KRDR,07-13-2011,03:00,METAR,,80,4.0,,,9999.0,,18.0,11.0,30.15,1020.7,,,,,,,,,,,,,,,Clear,72000.0,,,73000.0,,,,,,
KRDR,07-13-2011,02:00,METAR,,50,5.0,,,9999.0,,20.0,12.0,30.14,1021.5,,,,,,,,,,,,,,,Clear,72000.0,,,73000.0,,,,,,
KRDR,07-13-2011,01:00,METAR,,20,6.0,,,9999.0,,22.0,11.0,30.14,1021.5,,,,,,,,,,,,,,,Clear,72000.0,,,73000.0,,,,,,
KRDR,07-13-2011,00:06,METAR,,50,5.0,,,9999.0,,22.0,10.0,30.15,1020.5,,,,,,,,,,,,,,,Clear,72000.0,,,73000.0,,,,,,
KRDR,07-12-2011,23:16,SPECI,,20,7.0,,,9999.0,,22.0,10.0,30.16,1022.0,,,,,,,,,,,,,,,Clear,72000.0,,,73000.0,,,,,,
KRDR,07-12-2011,23:00,METAR,,20,7.0,,,9999.0,,23.0,10.0,30.16,1022.0,,,,,,,,,,,,,,,Clear,72000.0,,,73000.0,,,,,,
KRDR,07-12-2011,22:00,METAR,,40,3.0,,,9999.0,,22.0,11.0,30.16,1022.0,,,,,,,,,,,,,,,Clear,72000.0,,,73000.0,,,,,,
KRDR,07-12-2011,21:00,METAR,,50,7.0,,,9999.0,,22.0,12.0,30.17,1022.3,,,,,,,,,,,,,,,Clear,72000.0,,,73000.0,,,,,,
KRDR,07-12-2011,20:21,SPECI,,360,8.0,,,9999.0,,22.0,11.0,30.16,1021.5,,,,,,,,,,,,,,,Clear,72000.0,,,73000.0,,,,,,
KRDR,07-12-2011,20:20,METAR,,10,8.0,,,9999.0,,22.0,11.0,30.16,1021.5,,,,,,,,,,,,,,,Clear,72000.0,,,73000.0,,,,,,
KRDR,07-12-2011,20:00,METAR,,,6.0,,,9999.0,,22.0,12.0,30.17,1022.4,,,,,,,,,,,,,,,Clear,72000.0,,,73000.0,,,,,,
KRDR,07-12-2011,19:00,METAR,,30,8.0,,,9999.0,,21.0,12.0,30.17,1022.6,,,,,,,,,,,,,,,Clear,72000.0,,,73000.0,,,,,,
KRDR,07-12-2011,18:00,METAR,,40,9.0,,,9999.0,,20.0,11.0,30.18,1022.9,,,,,,,,,,,,,,,2/8 Mostly Clear,72000.0,,FEW,3600.0,,,,,,
KRDR,07-12-2011,17:00,METAR,,60,8.0,,,9999.0,,19.0,11.0,30.19,1023.2,,,,,,,,,,,,,,,2/8 Mostly Clear,72000.0,,FEW,3300.0,,,,,,
KRDR,07-12-2011,16:00,METAR,,50,8.0,,,9999.0,,18.0,12.0,30.19,1023.1,,,,,,,,,,,,,,,Clear,72000.0,,,73000.0,,,,,,
KRDR,07-12-2011,15:00,METAR,,40,7.0,,,9999.0,,17.0,13.0,30.20,1023.3,,,,,,,,,,,,,,,Clear,72000.0,,,73000.0,,,,,,
KRDR,07-12-2011,14:00,METAR,,50,7.0,,,9999.0,,16.0,13.0,30.20,1023.4,,,,,,,,,,,,,,,Clear,72000.0,,,73000.0,,,,,,
KRDR,07-12-2011,13:00,METAR,,,0.0,,,9999.0,,14.0,14.0,30.19,1023.2,,,,,,,,,,,,,,,Clear,72000.0,,,73000.0,,,,,,
KRDR,07-12-2011,12:00,METAR,,350,3.0,,,9999.0,,12.0,12.0,30.16,1022.1,,,,,,,,,,,,,,,Clear,72000.0,,,73000.0,,,,,,
KRDR,07-12-2011,11:00,METAR,,350,5.0,,,9999.0,,12.0,12.0,30.14,1021.6,,,,,,,,,,,,,,,Clear,72000.0,,,73000.0,,,,,,
KRDR,07-12-2011,10:00,METAR,,350,3.0,,,9999.0,,11.0,11.0,30.12,1021.0,,,,,,,,,,,,,,,Clear,72000.0,,,73000.0,,,,,,
KRDR,07-12-2011,09:00,METAR,,310,5.0,,,9999.0,,12.0,12.0,30.13,1021.2,,,,,,,,,,,,,,,Clear,72000.0,,,73000.0,,,,,,
KRDR,07-12-2011,08:00,METAR,,330,5.0,,,9999.0,,12.0,12.0,30.12,1020.9,,,,,,,,,,,,,,,Clear,72000.0,,,73000.0,,,,,,
KRDR,07-12-2011,07:00,METAR,,10,5.0,,,9999.0,,13.0,13.0,30.12,1020.6,,,,,,,,,,,,,,,Clear,72000.0,,,73000.0,,,,,,
KRDR,07-12-2011,06:00,METAR,,10,6.0,,,9999.0,,14.0,14.0,30.10,1020.1,,,,,,,,,,,,,,,Clear,72000.0,,,73000.0,,,,,,
KRDR,07-12-2011,05:00,METAR,,320,4.0,,,9999.0,,15.0,15.0,30.09,1019.7,,,,,,,,,,,,,,,Clear,72000.0,,,73000.0,,,,,,
KRDR,07-12-2011,04:00,METAR,,360,5.0,,,9999.0,,15.0,15.0,30.08,1019.6,,,,,,,,,,,,,,,Clear,72000.0,,,73000.0,,,,,,
KRDR,07-12-2011,03:00,METAR,,10,6.0,,,9999.0,,16.0,16.0,30.06,1018.8,,,,,,,,,,,,,,,Clear,72000.0,,,73000.0,,,,,,
KRDR,07-12-2011,02:00,METAR,,20,7.0,,,9999.0,,19.0,14.0,30.05,1018.3,,,,,,,,,,,,,,,Clear,72000.0,,,73000.0,,,,,,
KRDR,07-12-2011,01:00,METAR,,30,10.0,,,9999.0,,22.0,14.0,30.03,1017.7,,,,,,,,,,,,,,,7/8 Mostly Cloudy,5500.0,,SCT,4300.0,BKN,5400.0,,,,
KRDR,07-12-2011,00:00,METAR,,30,13.0,,,9999.0,,23.0,14.0,30.02,1017.4,,,,,,,,,,,,,,,4/8 Partly Cloudy,72000.0,,SCT,4000.0,,,,,,
KRDR,07-11-2011,23:00,METAR,,20,12.0,,,9999.0,,23.0,16.0,30.00,1016.9,,,,,,,,,,,,,,,4/8 Partly Cloudy,72000.0,,FEW,3900.0,SCT,6400.0,,,,
KRDR,07-11-2011,22:00,METAR,,360,9.0,,,9999.0,,24.0,16.0,30.00,1016.8,,,,,,,,,,,,,,,4/8 Partly Cloudy,72000.0,,SCT,6900.0,,,,,,
KRDR,07-11-2011,21:00,METAR,,360,12.0,16.0,,9999.0,,24.0,16.0,29.99,1016.7,,,,,,,,,,,,,,,7/8 Mostly Cloudy,4700.0,,SCT,3900.0,BKN,4800.0,BKN,6900.0,,
KRDR,07-11-2011,20:00,METAR,,10,12.0,,,9999.0,,24.0,17.0,29.98,1016.1,,,,,,,,,,,,,,,7/8 Mostly Cloudy,5500.0,,SCT,4000.0,BKN,5400.0,,,,
KRDR,07-11-2011,19:00,METAR,,10,9.0,,,9999.0,,24.0,17.0,29.97,1015.7,,,,,,,,,,,,,,,7/8 Mostly Cloudy,6000.0,,FEW,3800.0,SCT,5000.0,BKN,5900.0,,
KRDR,07-11-2011,18:00,METAR,,10,11.0,16.0,,9999.0,,24.0,16.0,29.96,1015.7,,,,,,,,,,,,,,,7/8 Mostly Cloudy,4800.0,,SCT,3800.0,BKN,4900.0,,,,
KRDR,07-11-2011,17:00,METAR,,350,9.0,15.0,,9999.0,,23.0,16.0,29.95,1015.1,,,,,,,,,,,,,,,4/8 Partly Cloudy,72000.0,,SCT,3600.0,,,,,,
KRDR,07-11-2011,16:00,METAR,,350,10.0,,,9999.0,,23.0,15.0,29.94,1014.7,,,,,,,,,,,,,,,Clear,72000.0,,,73000.0,,,,,,
KRDR,07-11-2011,15:00,METAR,,340,8.0,,,9999.0,,21.0,16.0,29.92,1014.3,,,,,,,,,,,,,,,Clear,72000.0,,,73000.0,,,,,,
KRDR,07-11-2011,14:00,METAR,,350,10.0,,,9999.0,,20.0,17.0,29.91,1013.8,,,,,,,,,,,,,,,Clear,72000.0,,,73000.0,,,,,,
KRDR,07-11-2011,13:00,METAR,,330,7.0,,,9999.0,,19.0,18.0,29.89,1013.2,,,,,,,,,,,,,,,Clear,72000.0,,,73000.0,,,,,,
KRDR,07-11-2011,12:00,METAR,,330,9.0,,,9999.0,,18.0,17.0,29.87,1012.6,,,,,,,,,,,,,,,Clear,72000.0,,,73000.0,,,,,,
KRDR,07-11-2011,11:00,METAR,,330,7.0,,,9999.0,,17.0,17.0,29.84,1011.6,,,,,,,,,,,,,,,Clear,72000.0,,,73000.0,,,,,,
KRDR,07-11-2011,10:00,METAR,,300,7.0,,,9999.0,,17.0,17.0,29.83,1011.1,,,,,,,,,,,,,,,Clear,72000.0,,,73000.0,,,,,,
KRDR,07-11-2011,09:00,METAR,,300,8.0,,,9999.0,,18.0,18.0,29.81,1010.4,,,,,,,,,,,,,,,Clear,72000.0,,,73000.0,,,,,,
KRDR,07-11-2011,08:00,METAR,,280,7.0,,,9999.0,,18.0,18.0,29.78,1009.5,,,,,,,,,,,,,,,Clear,72000.0,,,73000.0,,,,,,
KRDR,07-11-2011,07:00,METAR,,270,8.0,,,9999.0,,19.0,19.0,29.77,1009.2,,,,,,,,,,,,,,,Clear,72000.0,,,73000.0,,,,,,
KRDR,07-11-2011,06:00,METAR,,260,7.0,,,9999.0,,19.0,19.0,29.77,1009.3,,,,,,,,,,,,,,,Clear,72000.0,,,73000.0,,,,,,
KRDR,07-11-2011,05:00,METAR,,220,8.0,,,9999.0,,19.0,18.0,29.77,1009.3,,,,,,,,,,,,,,,Clear,72000.0,,,73000.0,,,,,,
KRDR,07-11-2011,04:00,METAR,,220,6.0,,,9999.0,,19.0,18.0,29.77,1009.4,,,,,,,,,,,,,,,Clear,72000.0,,,73000.0,,,,,,
KRDR,07-11-2011,03:00,METAR,,220,5.0,,,9999.0,,20.0,18.0,29.77,1009.3,,,,,,,,,,,,,,,7/8 Mostly Cloudy,6000.0,,BKN,5900.0,,,,,,
KRDR,07-11-2011,02:00,METAR,,230,6.0,,,9999.0,,22.0,16.0,29.75,1008.4,,,,,,,,,,,,,,,Clear,72000.0,,,73000.0,,,,,,
KRDR,07-11-2011,01:00,METAR,,230,9.0,,,9999.0,,24.0,15.0,29.76,1008.8,,,,,,,,,,,,,,,Clear,72000.0,,,73000.0,,,,,,
KRDR,07-11-2011,00:00,METAR,,230,10.0,,,9999.0,,26.0,16.0,29.74,1008.3,,,,,,,,,,,,,,,Clear,72000.0,,,73000.0,,,,,,
KRDR,07-10-2011,23:00,METAR,,230,14.0,19.0,,9999.0,,27.0,19.0,29.74,1008.1,,,,,,,,,,,,,,,Clear,72000.0,,,73000.0,,,,,,
KRDR,07-10-2011,22:00,METAR,,210,7.0,,,9999.0,,27.0,22.0,29.74,1008.3,,,,,,,,,,,,,,,Clear,72000.0,,,73000.0,,,,,,
KRDR,07-10-2011,21:00,METAR,,220,9.0,,,9999.0,,28.0,20.0,29.76,1008.8,,,,,,,,,,,,,,,Clear,72000.0,,,73000.0,,,,,,
KRDR,07-10-2011,20:00,METAR,,220,7.0,,,9999.0,,29.0,19.0,29.76,1008.9,,,,,,,,,,,,,,,Clear,72000.0,,,73000.0,,,,,,
KRDR,07-10-2011,19:00,METAR,,220,9.0,,,9999.0,,29.0,17.0,29.76,1009.0,,,,,,,,,,,,,,,Clear,72000.0,,,73000.0,,,,,,
KRDR,07-10-2011,18:00,METAR,,210,10.0,,,9999.0,,28.0,17.0,29.77,1009.1,,,,,,,,,,,,,,,Clear,72000.0,,,73000.0,,,,,,
KRDR,07-10-2011,17:00,METAR,,210,11.0,,,9999.0,,27.0,17.0,29.77,1009.2,,,,,,,,,,,,,,,Clear,72000.0,,,73000.0,,,,,,
KRDR,07-10-2011,16:00,METAR,,210,10.0,,,9999.0,,26.0,18.0,29.77,1009.2,,,,,,,,,,,,,,,Clear,72000.0,,,73000.0,,,,,,
KRDR,07-10-2011,15:00,METAR,,190,10.0,,,9999.0,,24.0,18.0,29.77,1009.3,,,,,,,,,,,,,,,Clear,72000.0,,,73000.0,,,,,,
KRDR,07-10-2011,14:00,METAR,,190,8.0,,,9999.0,,23.0,18.0,29.76,1009.1,,,,,,,,,,,,,,,Clear,72000.0,,,73000.0,,,,,,
KRDR,07-10-2011,13:00,METAR,,200,4.0,,,9999.0,,20.0,18.0,29.77,1009.3,,,,,,,,,,,,,,,Clear,72000.0,,,73000.0,,,,,,
KRDR,07-10-2011,12:00,METAR,,210,4.0,,,9999.0,,17.0,17.0,29.76,1009.1,,,,,,,,,,,,,,,Clear,72000.0,,,73000.0,,,,,,
KRDR,07-10-2011,11:00,METAR,,170,7.0,,,9999.0,,15.0,15.0,29.76,1008.8,,,,,,,,,,,,,,,Clear,72000.0,,,73000.0,,,,,,
KRDR,07-10-2011,10:00,METAR,,220,5.0,,,9999.0,,15.0,15.0,29.75,1008.8,,,,,,,,,,,,,,,Clear,72000.0,,,73000.0,,,,,,
KRDR,07-10-2011,09:00,METAR,,220,4.0,,,9999.0,,15.0,15.0,29.75,1008.7,,,,,,,,,,,,,,,Clear,72000.0,,,73000.0,,,,,,
KRDR,07-10-2011,08:00,METAR,,220,4.0,,,9999.0,,15.0,15.0,29.75,1008.7,,,,,,,,,,,,,,,Clear,72000.0,,,73000.0,,,,,,
KRDR,07-10-2011,07:00,METAR,,220,5.0,,,9999.0,,16.0,16.0,29.76,1009.0,,,,,,,,,,,,,,,Clear,72000.0,,,73000.0,,,,,,
KRDR,07-10-2011,06:00,METAR,,250,5.0,,,9999.0,,17.0,17.0,29.76,1009.0,,,,,,,,,,,,,,,Clear,72000.0,,,73000.0,,,,,,
KRDR,07-10-2011,05:00,METAR,,280,3.0,,,9999.0,,17.0,17.0,29.76,1008.8,,,,,,,,,,,,,,,Clear,72000.0,,,73000.0,,,,,,
KRDR,07-10-2011,04:00,METAR,,300,3.0,,,9999.0,,18.0,18.0,29.76,1008.8,,,,,,,,,,,,,,,Clear,72000.0,,,73000.0,,,,,,
KRDR,07-10-2011,03:00,METAR,,290,4.0,,,9999.0,,20.0,19.0,29.74,1008.3,,,,,,,,,,,,,,,Clear,72000.0,,,73000.0,,,,,,
KRDR,07-10-2011,02:00,METAR,,280,4.0,,,9999.0,,23.0,17.0,29.73,1007.8,,,,,,,,,,,,,,,Clear,72000.0,,,73000.0,,,,,,
KRDR,07-10-2011,01:00,METAR,,280,6.0,,,9999.0,,25.0,15.0,29.72,1007.5,,,,,,,,,,,,,,,Clear,72000.0,,,73000.0,,,,,,
KRDR,07-10-2011,00:00,METAR,,310,8.0,,,9999.0,,26.0,16.0,29.71,1007.3,,,,,,,,,,,,,,,Clear,72000.0,,,73000.0,,,,,,
KRDR,07-09-2011,23:00,METAR,,310,10.0,,,9999.0,,27.0,14.0,29.69,1006.7,,,,,,,,,,,,,,,Clear,72000.0,,,73000.0,,,,,,
KRDR,07-09-2011,22:00,METAR,,280,8.0,20.0,,9999.0,,28.0,19.0,29.69,1006.6,,,,,,,,,,,,,,,Clear,72000.0,,,73000.0,,,,,,
KRDR,07-09-2011,21:00,METAR,,300,11.0,,,9999.0,,28.0,17.0,29.68,1006.2,,,,,,,,,,,,,,,Clear,72000.0,,,73000.0,,,,,,
KRDR,07-09-2011,20:00,METAR,,290,8.0,,,9999.0,,27.0,22.0,29.67,1005.9,,,,,,,,,,,,,,,2/8 Mostly Clear,72000.0,,FEW,2500.0,,,,,,
KRDR,07-09-2011,19:00,METAR,,300,9.0,,,9999.0,,26.0,24.0,29.65,1005.4,,,,,,,,,,,,,,,7/8 Mostly Cloudy,2400.0,,BKN,2400.0,,,,,,
KRDR,07-09-2011,18:54,SPECI,,300,10.0,,,9999.0,,26.0,24.0,29.65,1005.5,,,,,,,,,,,,,,,4/8 Partly Cloudy,72000.0,,SCT,2400.0,,,,,,
KRDR,07-09-2011,18:30,SPECI,,310,10.0,,,9999.0,,26.0,23.0,29.65,1005.3,,,,,,,,,,,,,,,7/8 Mostly Cloudy,2500.0,,BKN,2700.0,,,,,,
KRDR,07-09-2011,18:28,SPECI,,300,8.0,,,9999.0,,27.0,23.0,29.65,1005.4,,,,,,,,,,,,,,,4/8 Partly Cloudy,72000.0,,SCT,2700.0,,,,,,
KRDR,07-09-2011,18:09,SPECI,,300,9.0,,,9999.0,,26.0,22.0,29.65,1005.2,,,,,,,,,,,,,,,7/8 Mostly Cloudy,2800.0,,BKN,2800.0,,,,,,
KRDR,07-09-2011,18:07,SPECI,,310,8.0,,,9999.0,,26.0,22.0,29.65,1005.2,,,,,,,,,,,,,,,4/8 Partly Cloudy,72000.0,,SCT,2800.0,,,,,,
KRDR,07-09-2011,18:00,METAR,,310,9.0,,,9999.0,,26.0,23.0,29.64,1005.1,,,,,,,,,,,,,,,7/8 Mostly Cloudy,2700.0,,BKN,2700.0,,,,,,
KRDR,07-09-2011,17:00,METAR,,310,11.0,16.0,,9999.0,,25.0,24.0,29.63,1004.8,,,,,,,,,,,,,,,7/8 Mostly Cloudy,3300.0,,BKN,3400.0,,,,,,
KRDR,07-09-2011,16:00,METAR,,310,9.0,,,9999.0,,25.0,25.0,29.61,1004.1,,,,,,,,,,,,,,,8/8 Overcast,3100.0,,FEW,1800.0,OVC,3100.0,,,,
KRDR,07-09-2011,15:33,SPECI,,290,8.0,,,9999.0,,24.0,24.0,29.61,1004.0,,,,,,,,,,,,,,,8/8 Overcast,2700.0,,SCT,1800.0,SCT,2700.0,OVC,3400.0,,
KRDR,07-09-2011,15:27,SPECI,,290,10.0,14.0,,9999.0,,25.0,25.0,29.61,1004.0,,,,,,,,,,,,,,,8/8 Overcast,2500.0,,SCT,1800.0,BKN,2500.0,OVC,3500.0,,
KRDR,07-09-2011,15:21,SPECI,,290,11.0,,,9999.0,,25.0,25.0,29.61,1004.0,,,,,,,,,,,,,,,7/8 Mostly Cloudy,2900.0,,SCT,1700.0,BKN,2900.0,BKN,3400.0,,
KRDR,07-09-2011,15:17,SPECI,,300,10.0,,,9999.0,,25.0,25.0,29.61,1004.0,,,,,,,,,,,,,,,7/8 Mostly Cloudy,3400.0,,SCT,1700.0,BKN,3500.0,,,,
KRDR,07-09-2011,15:14,SPECI,,280,8.0,,,9999.0,,25.0,25.0,29.61,1004.0,,,,,,,,,,,,,,,7/8 Mostly Cloudy,2200.0,,SCT,1600.0,BKN,2200.0,,,,
KRDR,07-09-2011,15:00,METAR,,260,8.0,,,9999.0,,25.0,25.0,29.61,1003.8,,,,,,,,,,,,,,,Clear,72000.0,,,73000.0,,,,,,
KRDR,07-09-2011,14:00,METAR,,230,6.0,,,9999.0,,22.0,22.0,29.59,1003.2,,,,,,,,,,,,,,,8/8 Overcast,2900.0,,OVC,2900.0,,,,,,
KRDR,07-09-2011,13:54,SPECI,,220,6.0,,,9999.0,,22.0,22.0,29.59,1003.2,,,,,,,,,,,,,,,8/8 Overcast,3000.0,,OVC,3000.0,,,,,,
KRDR,07-09-2011,13:00,METAR,,230,4.0,,,9999.0,,21.0,21.0,29.58,1003.0,,,,,,,,,,,,,,,8/8 Overcast,1600.0,,OVC,1800.0,,,,,,
KRDR,07-09-2011,12:01,SPECI,,190,6.0,,,9999.0,,21.0,21.0,29.57,1002.6,,,,,,,,,,,,,,,8/8 Overcast,2000.0,,SCT,2100.0,BKN,2800.0,OVC,3400.0,,
KRDR,07-09-2011,12:00,METAR,,180,6.0,,,9999.0,,21.0,21.0,29.57,1002.7,,,,,,,,,,,,,.54 IN,1.64 IN,8/8 Overcast,3300.0,,FEW,2200.0,OVC,3400.0,,,,
KRDR,07-09-2011,11:27,SPECI,,150,7.0,,,9999.0,,21.0,21.0,29.56,1002.3,,,,,,,,,,,,,,,8/8 Overcast,3300.0,,SCT,2100.0,SCT,2600.0,OVC,3400.0,,
KRDR,07-09-2011,11:00,METAR,,120,6.0,,,9999.0,,20.0,20.0,29.57,1002.6,,,,,,,,,,,,,,,8/8 Overcast,1800.0,,FEW,1400.0,OVC,1900.0,,,,
KRDR,07-09-2011,10:16,SPECI,,130,6.0,,,9999.0,,20.0,20.0,29.58,1002.8,,,,,,,,,,,,,,,8/8 Overcast,1200.0,,FEW,700.0,BKN,1900.0,OVC,2500.0,,
KRDR,07-09-2011,10:09,SPECI,,130,5.0,,,9999.0,,20.0,20.0,29.58,1002.9,,,,,,,,,,,,,,,8/8 Overcast,1200.0,,SCT,800.0,BKN,1200.0,OVC,2300.0,,
KRDR,07-09-2011,10:06,SPECI,,,4.0,,,9999.0,,20.0,20.0,29.58,1002.9,,,,,,,,,,,,,,,8/8 Overcast,700.0,,BKN,1000.0,OVC,2300.0,,,,
KRDR,07-09-2011,10:04,SPECI,,180,3.0,,,9999.0,,20.0,20.0,29.58,1003.0,,,,,,,,,,,,,,,8/8 Overcast,1200.0,,SCT,800.0,BKN,1200.0,OVC,2300.0,,
KRDR,07-09-2011,10:00,METAR,,110,9.0,,,9999.0,,20.0,20.0,29.58,1002.9,,,,,,,,,,,,,,,8/8 Overcast,2300.0,,SCT,1200.0,OVC,2300.0,,,,
KRDR,07-09-2011,09:53,SPECI,,110,9.0,,,9999.0,,20.0,20.0,29.58,1002.9,,,,,,,,,,,,,,,8/8 Overcast,1200.0,,BKN,1200.0,OVC,2300.0,,,,
KRDR,07-09-2011,09:17,SPECI,,120,5.0,,,9999.0,,20.0,20.0,29.59,1003.2,,,,,,,,,,,,,,,8/8 Overcast,2600.0,,BKN,2600.0,OVC,7900.0,,,,
KRDR,07-09-2011,09:00,METAR,,130,6.0,,,9999.0,,20.0,20.0,29.58,1003.0,,,,,,,,,,,,.54 IN,,,8/8 Overcast,8000.0,,OVC,7900.0,,,,,,
KRDR,07-09-2011,08:29,SPECI,,140,6.0,,,9999.0,,20.0,20.0,29.58,1003.0,,,,,,,,,,,,,,,7/8 Mostly Cloudy,1500.0,,FEW,900.0,SCT,1400.0,BKN,7900.0,,
KRDR,07-09-2011,08:26,SPECI,,140,7.0,,,9999.0,,20.0,20.0,29.58,1003.0,,,,,,,,,,,,,,,7/8 Mostly Cloudy,1200.0,,FEW,900.0,BKN,1400.0,BKN,7900.0,,
KRDR,07-09-2011,08:22,SPECI,,150,8.0,,,9999.0,,20.0,20.0,29.58,1003.0,,,,,,,,,,,,,,,7/8 Mostly Cloudy,1700.0,,FEW,600.0,SCT,1200.0,BKN,1800.0,,
KRDR,07-09-2011,08:20,SPECI,,140,10.0,,,9999.0,,20.0,20.0,29.58,1003.0,,,,,,,,,,,,,,,7/8 Mostly Cloudy,1000.0,,FEW,700.0,BKN,1300.0,BKN,1900.0,,
KRDR,07-09-2011,08:17,SPECI,,140,9.0,,,9999.0,,20.0,20.0,29.58,1003.0,,,,,,,,,,,,,,,7/8 Mostly Cloudy,1300.0,,FEW,500.0,SCT,900.0,BKN,1600.0,,
KRDR,07-09-2011,08:14,SPECI,,140,9.0,,,9999.0,,20.0,20.0,29.58,1003.1,,,,,,,,,,,,,,,8/8 Overcast,1100.0,,SCT,500.0,BKN,1100.0,OVC,7900.0,,
KRDR,07-09-2011,08:11,SPECI,,150,10.0,,,9999.0,,20.0,20.0,29.59,1003.3,,,,,,,,,,,,,,,8/8 Overcast,1000.0,,FEW,600.0,BKN,1400.0,OVC,1900.0,,
KRDR,07-09-2011,08:00,METAR,,140,8.0,,,9999.0,,20.0,20.0,29.60,1003.8,,,,,,,,,,,.04 IN,,,,8/8 Overcast,1500.0,,FEW,600.0,SCT,1000.0,OVC,1500.0,,
KRDR,07-09-2011,07:47,SPECI,,150,9.0,,,9999.0,,20.0,20.0,29.61,1003.9,,,,,,,,,,,,,,,8/8 Overcast,1700.0,,FEW,600.0,BKN,1700.0,OVC,6900.0,,
KRDR,07-09-2011,07:46,SPECI,,150,10.0,,,9999.0,Light Rain,20.0,20.0,29.61,1004.0,61,,,,,,,,,,,,,,8/8 Overcast,1300.0,,FEW,600.0,BKN,1800.0,OVC,6900.0,,
KRDR,07-09-2011,07:40,SPECI,,140,14.0,21.0,,9999.0,Light Rain,20.0,20.0,29.60,1003.8,61,,,,,,,,,,,,,,8/8 Overcast,500.0,,SCT,500.0,BKN,1000.0,OVC,2200.0,,
KRDR,07-09-2011,07:34,SPECI,,130,14.0,21.0,,9999.0,Light Rain,20.0,20.0,29.61,1003.9,61,,,,,,,,,,,,,,8/8 Overcast,900.0,,SCT,500.0,BKN,900.0,OVC,2000.0,,
KRDR,07-09-2011,07:31,SPECI,,140,15.0,,,9999.0,Light Rain,20.0,20.0,29.61,1004.0,61,,,,,,,,,,,,,,8/8 Overcast,500.0,,BKN,500.0,BKN,900.0,OVC,1800.0,,
KRDR,07-09-2011,07:29,SPECI,,120,13.0,,,9999.0,Light Drizzle,20.0,20.0,29.61,1004.0,51,,,,,,,,,,,,,,8/8 Overcast,600.0,,BKN,600.0,OVC,1900.0,,,,
KRDR,07-09-2011,07:26,SPECI,,120,13.0,,,9999.0,Light Rain,20.0,20.0,29.61,1004.1,61,,,,,,,,,,,,,,8/8 Overcast,500.0,,BKN,500.0,BKN,900.0,OVC,2600.0,,
KRDR,07-09-2011,07:21,SPECI,,120,13.0,,,9999.0,Light Rain,20.0,20.0,29.61,1004.1,61,,,,,,,,,,,,,,8/8 Overcast,400.0,,SCT,500.0,BKN,900.0,OVC,2300.0,,
KRDR,07-09-2011,07:05,SPECI,,130,13.0,,,9999.0,Light Rain/Mist,20.0,20.0,29.62,1004.3,61,10,,,,,,,,,,,,,8/8 Overcast,500.0,,BKN,500.0,BKN,1000.0,OVC,1600.0,,
KRDR,07-09-2011,07:03,SPECI,,120,12.0,19.0,,8000.0,Light Rain/Mist,20.0,20.0,29.62,1004.3,61,10,,,,,,,,,,,,,8/8 Overcast,500.0,,BKN,500.0,BKN,1100.0,OVC,1600.0,,
KRDR,07-09-2011,07:00,METAR,,130,14.0,18.0,,9999.0,Light Rain/Mist,20.0,20.0,29.62,1004.4,61,10,,,,,,,,,.5 IN,,,,8/8 Overcast,500.0,,BKN,500.0,BKN,1000.0,OVC,1800.0,,
KRDR,07-09-2011,06:57,SPECI,,120,16.0,,,6400.0,Light Rain/Mist,20.0,20.0,29.62,1004.3,61,10,,,,,,,,,,,,,8/8 Overcast,500.0,,BKN,500.0,BKN,1100.0,OVC,1600.0,,
KRDR,07-09-2011,06:47,SPECI,,130,11.0,,,9999.0,Light Rain/Mist,20.0,20.0,29.63,1004.6,61,10,,,,,,,,,,,,,8/8 Overcast,500.0,,BKN,500.0,BKN,1100.0,OVC,2600.0,,
KRDR,07-09-2011,06:45,SPECI,,130,13.0,,,8000.0,Light Rain/Mist,20.0,20.0,29.63,1004.6,61,10,,,,,,,,,,,,,8/8 Overcast,1100.0,,SCT,500.0,BKN,1100.0,OVC,2600.0,,
KRDR,07-09-2011,06:41,SPECI,,120,13.0,20.0,,6400.0,Rain/Mist,20.0,20.0,29.63,1004.5,62,10,,,,,,,,,,,,,8/8 Overcast,1100.0,,SCT,500.0,BKN,1100.0,OVC,2500.0,,
KRDR,07-09-2011,06:29,SPECI,,110,14.0,19.0,,8000.0,Light Rain/Mist,19.0,19.0,29.64,1004.8,61,10,,,,,,,,,,,,,8/8 Overcast,2700.0,,FEW,600.0,OVC,2700.0,,,,
KRDR,07-09-2011,06:23,SPECI,,110,11.0,25.0,,4800.0,Light Rain/Mist,19.0,19.0,29.64,1004.9,61,10,,,,,,,,,,,,,8/8 Overcast,2900.0,,OVC,2900.0,,,,,,
KRDR,07-09-2011,06:22,SPECI,,110,12.0,25.0,,4800.0,Light Rain/Mist,19.0,19.0,29.64,1004.9,61,10,,,,,,,,,,,,,8/8 Overcast,3000.0,,OVC,3000.0,,,,,,
KRDR,07-09-2011,06:20,SPECI,,110,14.0,25.0,,3200.0,Light Rain/Mist,19.0,19.0,29.64,1005.0,61,10,,,,,,,,,,,,,8/8 Overcast,3200.0,,FEW,2800.0,OVC,3300.0,,,,
KRDR,07-09-2011,06:18,SPECI,,110,16.0,25.0,,3200.0,Heavy Rain/Mist,19.0,19.0,29.64,1005.0,63,10,,,,,,,,,,,,,8/8 Overcast,3400.0,,OVC,3500.0,,,,,,
KRDR,07-09-2011,06:11,SPECI,,130,16.0,,,2400.0,Heavy Rain/Mist,19.0,19.0,29.65,1005.4,63,10,,,,,,,,,,,,,8/8 Overcast,3600.0,,OVC,3700.0,,,,,,
KRDR,07-09-2011,06:06,SPECI,,130,17.0,24.0,,2000.0,Heavy Rain/Mist,19.0,19.0,29.65,1005.2,63,10,,,,,,,,,,,,,8/8 Overcast,3500.0,,OVC,3600.0,,,,,,
KRDR,07-09-2011,06:05,SPECI,,130,17.0,24.0,,2400.0,Heavy Rain/Mist,19.0,19.0,29.65,1005.2,63,10,,,,,,,,,,,,,8/8 Overcast,3600.0,,OVC,3700.0,,,,,,
KRDR,07-09-2011,06:03,SPECI,,140,19.0,24.0,,2800.0,Heavy Rain/Mist,19.0,19.0,29.65,1005.4,63,10,,,,,,,,,,,,,8/8 Overcast,3800.0,,OVC,3900.0,,,,,,
KRDR,07-09-2011,06:02,SPECI,,140,20.0,24.0,,2800.0,Heavy Thunderstorm and Rain or Snow Showers/Mist,19.0,19.0,29.65,1005.4,95,10,,,,,,,,,,,,,8/8 Overcast,3900.0,,OVC,4000.0,,,,,,
KRDR,07-09-2011,06:00,METAR,,120,19.0,24.0,,6400.0,Thunderstorm and Rain or Snow Showers/Mist,19.0,19.0,29.65,1005.5,92,10,,,,,,,,,.4 IN,,1.1 IN,,8/8 Overcast,4400.0,,OVC,4500.0,,,,,,
KRDR,07-09-2011,05:48,SPECI,,120,16.0,22.0,,6400.0,Thunderstorm and Rain or Snow Showers/Mist,19.0,19.0,29.66,1005.5,92,10,,,,,,,,,,,,,8/8 Overcast,4000.0,,FEW,3300.0,OVC,4100.0,,,,
KRDR,07-09-2011,05:41,SPECI,,110,15.0,,,6400.0,Light Rain/Mist,19.0,19.0,29.67,1005.9,61,10,,,,,,,,,,,,,8/8 Overcast,3800.0,,FEW,3300.0,OVC,3900.0,,,,
KRDR,07-09-2011,05:26,SPECI,,100,11.0,,,6400.0,Thunderstorm and Rain or Snow Showers/Mist,19.0,19.0,29.70,1006.9,92,10,,,,,,,,,,,,,8/8 Overcast,3400.0,,OVC,3500.0,,,,,,
KRDR,07-09-2011,05:21,SPECI,,100,9.0,,,4800.0,Rain/Mist,19.0,19.0,29.70,1007.0,62,10,,,,,,,,,,,,,8/8 Overcast,3400.0,,OVC,3500.0,,,,,,
KRDR,07-09-2011,05:11,SPECI,,70,6.0,,,3200.0,Heavy Rain/Mist,19.0,19.0,29.71,1007.2,63,10,,,,,,,,,,,,,8/8 Overcast,3400.0,,OVC,3500.0,,,,,,
KRDR,07-09-2011,05:07,SPECI,,70,3.0,,,2400.0,Heavy Rain/Mist,19.0,19.0,29.72,1007.5,63,10,,,,,,,,,,,,,8/8 Overcast,3200.0,,OVC,3300.0,,,,,,
KRDR,07-09-2011,05:00,METAR,,80,3.0,,,4000.0,Heavy Rain/Mist,19.0,19.0,29.73,1007.9,63,10,,,,,,,,,.51 IN,,,,8/8 Overcast,3700.0,,OVC,3800.0,,,,,,
KRDR,07-09-2011,05:00,SPECI,,,0.0,,,2000.0,Heavy Rain/Mist,19.0,19.0,29.73,1007.8,63,10,,,,,,,,,,,,,8/8 Overcast,3400.0,,,,,,,,,
KRDR,07-09-2011,04:58,SPECI,,,0.0,,,2800.0,Heavy Rain/Mist,19.0,19.0,29.72,1007.7,63,10,,,,,,,,,,,,,8/8 Overcast,3600.0,,OVC,3700.0,,,,,,
KRDR,07-09-2011,04:53,SPECI,,,0.0,,,4000.0,Heavy Rain/Mist,19.0,19.0,29.73,1007.9,63,10,,,,,,,,,,,,,8/8 Overcast,3700.0,,OVC,3800.0,,,,,,
KRDR,07-09-2011,04:48,SPECI,,70,5.0,,,4000.0,Heavy Rain/Mist,19.0,19.0,29.72,1007.5,63,10,,,,,,,,,,,,,8/8 Overcast,3900.0,,OVC,4000.0,,,,,,
KRDR,07-09-2011,04:42,SPECI,,50,6.0,,,6400.0,Heavy Rain/Mist,19.0,19.0,29.71,1007.4,63,10,,,,,,,,,,,,,8/8 Overcast,4400.0,,OVC,4500.0,,,,,,
KRDR,07-09-2011,04:33,SPECI,,350,6.0,,,4800.0,Heavy Thunderstorm and Rain or Snow Showers/Mist,19.0,19.0,29.73,1008.0,95,10,,,,,,,,,,,,,8/8 Overcast,4400.0,,OVC,4500.0,,,,,,
KRDR,07-09-2011,04:27,SPECI,,30,6.0,,,4000.0,Heavy Thunderstorm and Rain or Snow Showers/Mist,20.0,20.0,29.73,1007.9,95,10,,,,,,,,,,,,,8/8 Overcast,4300.0,,OVC,4400.0,,,,,,
KRDR,07-09-2011,04:23,SPECI,,40,7.0,,,4000.0,Heavy Rain/Mist,20.0,20.0,29.73,1007.8,63,10,,,,,,,,,,,,,8/8 Overcast,4500.0,,OVC,4600.0,,,,,,
KRDR,07-09-2011,04:17,SPECI,,60,6.0,,,4800.0,Heavy Rain/Mist,20.0,20.0,29.72,1007.7,63,10,,,,,,,,,,,,,8/8 Overcast,4500.0,,OVC,4600.0,,,,,,
KRDR,07-09-2011,04:12,SPECI,,70,8.0,,,3200.0,Heavy Rain/Mist,20.0,20.0,29.72,1007.4,63,10,,,,,,,,,,,,,8/8 Overcast,4300.0,,OVC,4400.0,,,,,,
KRDR,07-09-2011,04:07,SPECI,,70,3.0,,,4000.0,Heavy Rain/Mist,20.0,20.0,29.73,1007.8,63,10,,,,,,,,,,,,,8/8 Overcast,4600.0,,OVC,5900.0,,,,,,
KRDR,07-09-2011,04:00,SPECI,,60,4.0,,,6400.0,Heavy Rain/Mist,20.0,20.0,29.72,1007.7,63,10,,,,,,,,,,,,,8/8 Overcast,6000.0,,,,,,,,,
KRDR,07-09-2011,04:00,METAR,,30,4.0,,,8000.0,Thunderstorm and Rain or Snow Showers/Mist,20.0,20.0,29.72,1007.5,92,10,,,,,,,,,.15 IN,,,,8/8 Overcast,7000.0,,BKN,6900.0,OVC,9400.0,,,,
KRDR,07-09-2011,03:58,SPECI,,60,3.0,,,4800.0,Heavy Rain/Mist,20.0,20.0,29.72,1007.6,63,10,,,,,,,,,,,,,8/8 Overcast,4900.0,,OVC,5000.0,,,,,,
KRDR,07-09-2011,03:57,SPECI,,50,3.0,,,4800.0,Heavy Rain/Mist,20.0,20.0,29.72,1007.6,63,10,,,,,,,,,,,,,8/8 Overcast,4900.0,,OVC,5000.0,,,,,,
KRDR,07-09-2011,03:38,SPECI,,60,4.0,,,9999.0,Thunderstorm and Rain or Snow Showers/Mist,21.0,21.0,29.72,1007.6,92,10,,,,,,,,,,,,,8/8 Overcast,7000.0,,FEW,5400.0,OVC,6900.0,,,,
KRDR,07-09-2011,03:22,SPECI,,90,7.0,,,9999.0,Thunderstorm and Rain or Snow Showers,21.0,21.0,29.71,1007.3,92,,,,,,,,,,,,,,8/8 Overcast,8000.0,,FEW,5400.0,OVC,7900.0,,,,
KRDR,07-09-2011,03:20,SPECI,,80,7.0,,,9999.0,Light Rain,21.0,21.0,29.71,1007.3,61,,,,,,,,,,,,,,8/8 Overcast,8000.0,,FEW,5400.0,OVC,7900.0,,,,
KRDR,07-09-2011,03:16,SPECI,,80,8.0,,,9999.0,Thunderstorm and Rain or Snow Showers,21.0,21.0,29.71,1007.3,92,,,,,,,,,,,,,,8/8 Overcast,8000.0,,FEW,5900.0,OVC,7900.0,,,,
KRDR,07-09-2011,03:05,SPECI,,70,7.0,,,9999.0,Thunderstorm and Rain or Snow Showers/Mist,21.0,21.0,29.72,1007.5,92,10,,,,,,,,,,,,,8/8 Overcast,7500.0,,FEW,4900.0,OVC,7400.0,,,,
KRDR,07-09-2011,02:51,SPECI,,,0.0,,,9999.0,Light Rain/Mist,20.0,20.0,29.72,1007.6,61,10,,,,,,,,,,,,,8/8 Overcast,6000.0,,FEW,5000.0,SCT,5900.0,OVC,7900.0,,
KRDR,07-09-2011,02:03,SPECI,,90,4.0,,,9999.0,Light Rain,24.0,16.0,29.70,1007.1,61,,,,,,,,,,,,,,7/8 Mostly Cloudy,11000.0,,FEW,5400.0,BKN,11000.0,,,,
KRDR,07-09-2011,02:00,METAR,,90,5.0,,,9999.0,,25.0,16.0,29.70,1007.1,,,,,,,,,,,,,,,7/8 Mostly Cloudy,10000.0,,SCT,5400.0,BKN,9900.0,,,,
KRDR,07-09-2011,01:00,METAR,,110,8.0,,,9999.0,,25.0,15.0,29.72,1007.6,,,,,,,,,,,,,,,Clear,72000.0,,,73000.0,,,,,,
KRDR,07-09-2011,00:00,METAR,,100,6.0,,,9999.0,,26.0,14.0,29.75,1008.5,,,,,,,,,,,,,,,Clear,72000.0,,,73000.0,,,,,,
KRDR,07-08-2011,23:00,METAR,,110,7.0,,,9999.0,,27.0,12.0,29.76,1009.1,,,,,,,,,,,,,,,Clear,72000.0,,,73000.0,,,,,,
KRDR,07-08-2011,22:00,METAR,,120,6.0,,,9999.0,,27.0,12.0,29.81,1010.4,,,,,,,,,,,,,,,2/8 Mostly Clear,72000.0,,FEW,11000.0,,,,,,
KRDR,07-08-2011,21:00,METAR,,130,8.0,,,9999.0,,28.0,12.0,29.83,1011.4,,,,,,,,,,,,,,,Clear,72000.0,,,73000.0,,,,,,
KRDR,07-08-2011,20:00,METAR,,120,12.0,,,9999.0,,27.0,12.0,29.84,1011.7,,,,,,,,,,,,,,,Clear,72000.0,,,73000.0,,,,,,
KRDR,07-08-2011,19:00,METAR,,130,8.0,,,9999.0,,27.0,12.0,29.86,1012.1,,,,,,,,,,,,,,,2/8 Mostly Clear,72000.0,,FEW,9900.0,,,,,,
KRDR,07-08-2011,18:00,METAR,,120,8.0,,,9999.0,,26.0,12.0,29.87,1012.7,,,,,,,,,,,,,,,Clear,72000.0,,,73000.0,,,,,,
KRDR,07-08-2011,17:00,METAR,,150,7.0,,,9999.0,,26.0,12.0,29.89,1013.3,,,,,,,,,,,,,,,Clear,72000.0,,,73000.0,,,,,,
KRDR,07-08-2011,16:00,METAR,,170,7.0,,,9999.0,,24.0,14.0,29.91,1013.9,,,,,,,,,,,,,,,Clear,72000.0,,,73000.0,,,,,,
KRDR,07-08-2011,15:00,METAR,,,4.0,,,9999.0,,23.0,14.0,29.91,1014.0,,,,,,,,,,,,,,,Clear,72000.0,,,73000.0,,,,,,
KRDR,07-08-2011,14:00,METAR,,150,4.0,,,9999.0,,21.0,14.0,29.92,1014.2,,,,,,,,,,,,,,,Clear,72000.0,,,73000.0,,,,,,
KRDR,07-08-2011,13:00,METAR,,,0.0,,,9999.0,,17.0,17.0,29.92,1014.3,,,,,,,,,,,,,,,Clear,72000.0,,,73000.0,,,,,,
KRDR,07-08-2011,12:00,METAR,,,0.0,,,9999.0,,14.0,14.0,29.92,1014.3,,,,,,,,,,,,,,,Clear,72000.0,,,73000.0,,,,,,
KRDR,07-08-2011,11:00,METAR,,,0.0,,,9999.0,,12.0,12.0,29.93,1014.4,,,,,,,,,,,,,,,Clear,72000.0,,,73000.0,,,,,,
KRDR,07-08-2011,10:00,METAR,,,0.0,,,9999.0,,13.0,13.0,29.93,1014.4,,,,,,,,,,,,,,,Clear,72000.0,,,73000.0,,,,,,
KRDR,07-08-2011,09:00,METAR,,,0.0,,,9999.0,,14.0,14.0,29.93,1014.5,,,,,,,,,,,,,,,Clear,72000.0,,,73000.0,,,,,,
KRDR,07-08-2011,08:00,METAR,,310,3.0,,,9999.0,,15.0,15.0,29.93,1014.4,,,,,,,,,,,,,,,Clear,72000.0,,,73000.0,,,,,,
KRDR,07-08-2011,07:00,METAR,,,0.0,,,9999.0,,15.0,15.0,29.92,1014.3,,,,,,,,,,,,,,,Clear,72000.0,,,73000.0,,,,,,
KRDR,07-08-2011,06:00,METAR,,,0.0,,,9999.0,,16.0,16.0,29.92,1014.3,,,,,,,,,,,,,,,Clear,72000.0,,,73000.0,,,,,,
KRDR,07-08-2011,05:00,METAR,,360,3.0,,,9999.0,,17.0,17.0,29.93,1014.4,,,,,,,,,,,,,,,Clear,72000.0,,,73000.0,,,,,,
KRDR,07-08-2011,04:00,METAR,,350,3.0,,,9999.0,,18.0,16.0,29.92,1014.4,,,,,,,,,,,,,,,Clear,72000.0,,,73000.0,,,,,,
KRDR,07-08-2011,03:00,METAR,,40,5.0,,,9999.0,,20.0,14.0,29.91,1013.9,,,,,,,,,,,,,,,Clear,72000.0,,,73000.0,,,,,,
KRDR,07-08-2011,02:00,METAR,,50,10.0,,,9999.0,,25.0,12.0,29.90,1013.4,,,,,,,,,,,,,,,Clear,72000.0,,,73000.0,,,,,,
KRDR,07-08-2011,01:00,METAR,,40,7.0,,,9999.0,,27.0,15.0,29.89,1013.1,,,,,,,,,,,,,,,Clear,72000.0,,,73000.0,,,,,,
KRDR,07-08-2011,00:00,METAR,,10,8.0,,,9999.0,,28.0,16.0,29.89,1013.1,,,,,,,,,,,,,,,Clear,72000.0,,,73000.0,,,,,,
KRDR,07-07-2011,23:00,METAR,,350,6.0,,,9999.0,,29.0,14.0,29.89,1013.2,,,,,,,,,,,,,,,Clear,72000.0,,,73000.0,,,,,,
KRDR,07-07-2011,22:00,METAR,,300,4.0,,,9999.0,,29.0,16.0,29.90,1013.4,,,,,,,,,,,,,,,2/8 Mostly Clear,72000.0,,FEW,5900.0,,,,,,
KRDR,07-07-2011,21:00,METAR,,,4.0,,,9999.0,,29.0,16.0,29.91,1013.7,,,,,,,,,,,,,,,Clear,72000.0,,,73000.0,,,,,,
KRDR,07-07-2011,20:00,METAR,,320,6.0,,,9999.0,,29.0,18.0,29.92,1014.1,,,,,,,,,,,,,,,2/8 Mostly Clear,72000.0,,FEW,5000.0,,,,,,
KRDR,07-07-2011,19:00,METAR,,320,5.0,,,9999.0,,28.0,17.0,29.93,1014.5,,,,,,,,,,,,,,,Clear,72000.0,,,73000.0,,,,,,
KRDR,07-07-2011,18:00,METAR,,,0.0,,,9999.0,,27.0,17.0,29.94,1014.7,,,,,,,,,,,,,,,Clear,72000.0,,,73000.0,,,,,,
KRDR,07-07-2011,17:00,METAR,,,3.0,,,9999.0,,26.0,18.0,29.95,1015.1,,,,,,,,,,,,,,,Clear,72000.0,,,73000.0,,,,,,
KRDR,07-07-2011,16:00,METAR,,10,5.0,,,9999.0,,26.0,18.0,29.95,1015.2,,,,,,,,,,,,,,,Clear,72000.0,,,73000.0,,,,,,
KRDR,07-07-2011,15:00,METAR,,350,3.0,,,9999.0,,25.0,18.0,29.95,1015.3,,,,,,,,,,,,,,,2/8 Mostly Clear,72000.0,,FEW,100.0,,,,,,
KRDR,07-07-2011,14:36,SPECI,,,4.0,,,9999.0,,25.0,18.0,29.95,1015.2,,,,,,,,,,,,,,,2/8 Mostly Clear,72000.0,,FEW,100.0,,,,,,
KRDR,07-07-2011,14:00,METAR,,280,5.0,,,9999.0,,24.0,18.0,29.95,1015.3,,,,,,,,,,,,,,,Clear,72000.0,,,73000.0,,,,,,
KRDR,07-07-2011,13:00,METAR,,290,3.0,,,9999.0,,22.0,18.0,29.95,1015.3,,,,,,,,,,,,,,,Clear,72000.0,,,73000.0,,,,,,
KRDR,07-07-2011,12:00,METAR,,,0.0,,,9999.0,,20.0,20.0,29.95,1015.2,,,,,,,,,,,,,,,Clear,72000.0,,,73000.0,,,,,,
KRDR,07-07-2011,11:00,METAR,,,0.0,,,9999.0,,19.0,19.0,29.95,1015.1,,,,,,,,,,,,,,,7/8 Mostly Cloudy,8000.0,,BKN,7900.0,,,,,,
KRDR,07-07-2011,10:00,METAR,,200,3.0,,,9999.0,,19.0,19.0,29.95,1015.3,,,,,,,,,,,,,,,7/8 Mostly Cloudy,4900.0,,BKN,5000.0,,,,,,
KRDR,07-07-2011,09:00,METAR,,,0.0,,,9999.0,,18.0,18.0,29.96,1015.4,,,,,,,,,,,,,,,8/8 Overcast,6000.0,,BKN,5900.0,OVC,9900.0,,,,
KRDR,07-07-2011,08:00,METAR,,,0.0,,,9999.0,,18.0,18.0,29.96,1015.6,,,,,,,,,,,,,,,8/8 Overcast,11000.0,,OVC,11000.0,,,,,,
KRDR,07-07-2011,07:00,METAR,,,0.0,,,9999.0,,19.0,19.0,29.96,1015.5,,,,,,,,,,,,,,,8/8 Overcast,11000.0,,OVC,11000.0,,,,,,
KRDR,07-07-2011,06:00,METAR,,160,3.0,,,9999.0,,19.0,18.0,29.97,1015.7,,,,,,,,,,,,,,,Clear,72000.0,,,73000.0,,,,,,
KRDR,07-07-2011,05:00,METAR,,200,5.0,,,9999.0,,21.0,19.0,29.97,1015.8,,,,,,,,,,,,,,,7/8 Mostly Cloudy,10000.0,,BKN,9900.0,,,,,,
KRDR,07-07-2011,04:00,METAR,,200,3.0,,,9999.0,,22.0,19.0,29.97,1016.0,,,,,,,,,,,,,,,8/8 Overcast,10000.0,,OVC,9900.0,,,,,,
KRDR,07-07-2011,03:00,METAR,,180,5.0,,,9999.0,,23.0,17.0,29.97,1015.8,,,,,,,,,,,,,,,8/8 Overcast,10000.0,,OVC,9900.0,,,,,,
KRDR,07-07-2011,02:00,METAR,,180,5.0,,,9999.0,,24.0,17.0,29.97,1015.8,,,,,,,,,,,,,,,8/8 Overcast,12000.0,,OVC,12000.0,,,,,,
KRDR,07-07-2011,01:00,METAR,,170,6.0,,,9999.0,,26.0,16.0,29.98,1016.0,,,,,,,,,,,,,,,8/8 Overcast,12000.0,,OVC,12000.0,,,,,,
KRDR,07-07-2011,00:00,METAR,,190,6.0,,,9999.0,,26.0,15.0,29.98,1016.2,,,,,,,,,,,,,,,2/8 Mostly Clear,72000.0,,FEW,12000.0,,,,,,
KRDR,07-06-2011,23:00,METAR,,190,7.0,,,9999.0,,27.0,14.0,30.00,1016.7,,,,,,,,,,,,,,,2/8 Mostly Clear,72000.0,,FEW,12000.0,,,,,,
KRDR,07-06-2011,22:00,METAR,,,0.0,,,9999.0,,27.0,14.0,30.02,1017.5,,,,,,,,,,,,,,,Clear,72000.0,,,73000.0,,,,,,
KRDR,07-06-2011,21:00,METAR,,170,5.0,,,9999.0,,28.0,13.0,30.03,1018.0,,,,,,,,,,,,,,,Clear,72000.0,,,73000.0,,,,,,
KRDR,07-06-2011,20:00,METAR,,,0.0,,,9999.0,,27.0,13.0,30.05,1018.6,,,,,,,,,,,,,,,Clear,72000.0,,,73000.0,,,,,,
KRDR,07-06-2011,19:00,METAR,,,0.0,,,9999.0,,28.0,13.0,30.06,1018.7,,,,,,,,,,,,,,,Clear,72000.0,,,73000.0,,,,,,
KRDR,07-06-2011,18:00,METAR,,,0.0,,,9999.0,,28.0,13.0,30.07,1019.0,,,,,,,,,,,,,,,2/8 Mostly Clear,72000.0,,FEW,12000.0,,,,,,
KRDR,07-06-2011,17:00,METAR,,290,4.0,,,9999.0,,27.0,14.0,30.08,1019.4,,,,,,,,,,,,,,,Clear,72000.0,,,73000.0,,,,,,
KRDR,07-06-2011,16:00,METAR,,280,5.0,,,9999.0,,26.0,15.0,30.09,1019.8,,,,,,,,,,,,,,,4/8 Partly Cloudy,72000.0,,SCT,11000.0,,,,,,
KRDR,07-06-2011,15:00,METAR,,270,8.0,,,9999.0,,24.0,15.0,30.10,1020.1,,,,,,,,,,,,,,,Clear,72000.0,,,73000.0,,,,,,
KRDR,07-06-2011,14:00,METAR,,270,4.0,,,9999.0,,21.0,18.0,30.10,1020.3,,,,,,,,,,,,,,,Clear,72000.0,,,73000.0,,,,,,
KRDR,07-06-2011,13:00,METAR,,,0.0,,,9999.0,,19.0,19.0,30.10,1020.2,,,,,,,,,,,,,,,Clear,72000.0,,,73000.0,,,,,,
KRDR,07-06-2011,12:00,METAR,,,0.0,,,9999.0,,16.0,16.0,30.11,1020.3,,,,,,,,,,,,,,,Clear,72000.0,,,73000.0,,,,,,
KRDR,07-06-2011,11:00,METAR,,250,3.0,,,9999.0,,13.0,13.0,30.10,1020.1,,,,,,,,,,,,,,,Clear,72000.0,,,73000.0,,,,,,
KRDR,07-06-2011,10:00,METAR,,,0.0,,,9999.0,,13.0,13.0,30.09,1019.7,,,,,,,,,,,,,,,Clear,72000.0,,,73000.0,,,,,,
KRDR,07-06-2011,09:00,METAR,,,0.0,,,9999.0,,13.0,13.0,30.08,1019.4,,,,,,,,,,,,,,,Clear,72000.0,,,73000.0,,,,,,
KRDR,07-06-2011,08:00,METAR,,,0.0,,,9999.0,,13.0,13.0,30.08,1019.4,,,,,,,,,,,,,,,Clear,72000.0,,,73000.0,,,,,,
KRDR,07-06-2011,07:00,METAR,,,0.0,,,9999.0,,14.0,14.0,30.08,1019.4,,,,,,,,,,,,,,,Clear,72000.0,,,73000.0,,,,,,
KRDR,07-06-2011,06:00,METAR,,,0.0,,,9999.0,,15.0,15.0,30.08,1019.5,,,,,,,,,,,,,,,Clear,72000.0,,,73000.0,,,,,,
KRDR,07-06-2011,05:00,METAR,,,0.0,,,9999.0,,15.0,15.0,30.08,1019.6,,,,,,,,,,,,,,,Clear,72000.0,,,73000.0,,,,,,
KRDR,07-06-2011,04:00,METAR,,300,3.0,,,9999.0,,16.0,16.0,30.08,1019.5,,,,,,,,,,,,,,,Clear,72000.0,,,73000.0,,,,,,
KRDR,07-06-2011,03:00,METAR,,,0.0,,,9999.0,,19.0,15.0,30.07,1019.2,,,,,,,,,,,,,,,Clear,72000.0,,,73000.0,,,,,,
KRDR,07-06-2011,02:00,METAR,,50,5.0,,,9999.0,,23.0,12.0,30.06,1018.8,,,,,,,,,,,,,,,Clear,72000.0,,,73000.0,,,,,,
KRDR,07-06-2011,01:00,METAR,,10,6.0,,,9999.0,,24.0,11.0,30.06,1018.7,,,,,,,,,,,,,,,Clear,72000.0,,,73000.0,,,,,,
KRDR,07-06-2011,00:00,METAR,,20,11.0,,,9999.0,,26.0,9.0,30.05,1018.3,,,,,,,,,,,,,,,Clear,72000.0,,,73000.0,,,,,,
KRDR,07-05-2011,23:00,METAR,,340,8.0,,,9999.0,,27.0,9.0,30.04,1018.3,,,,,,,,,,,,,,,Clear,72000.0,,,73000.0,,,,,,
KRDR,07-05-2011,22:00,METAR,,360,12.0,,,9999.0,,27.0,9.0,30.04,1018.3,,,,,,,,,,,,,,,Clear,72000.0,,,73000.0,,,,,,
KRDR,07-05-2011,21:00,METAR,,340,11.0,,,9999.0,,27.0,10.0,30.04,1018.2,,,,,,,,,,,,,,,Clear,72000.0,,,73000.0,,,,,,
KRDR,07-05-2011,20:00,METAR,,360,11.0,,,9999.0,,27.0,9.0,30.04,1018.3,,,,,,,,,,,,,,,Clear,72000.0,,,73000.0,,,,,,
KRDR,07-05-2011,19:00,METAR,,350,14.0,19.0,,9999.0,,26.0,11.0,30.04,1018.3,,,,,,,,,,,,,,,Clear,72000.0,,,73000.0,,,,,,
KRDR,07-05-2011,18:00,METAR,,350,11.0,,,9999.0,,26.0,12.0,30.04,1018.2,,,,,,,,,,,,,,,Clear,72000.0,,,73000.0,,,,,,
KRDR,07-05-2011,17:00,METAR,,350,12.0,,,9999.0,,25.0,14.0,30.03,1018.0,,,,,,,,,,,,,,,Clear,72000.0,,,73000.0,,,,,,
KRDR,07-05-2011,16:00,METAR,,360,10.0,,,9999.0,,24.0,15.0,30.04,1018.1,,,,,,,,,,,,,,,Clear,72000.0,,,73000.0,,,,,,
KRDR,07-05-2011,15:00,METAR,,10,10.0,,,9999.0,,23.0,15.0,30.04,1018.2,,,,,,,,,,,,,,,Clear,72000.0,,,73000.0,,,,,,
KRDR,07-05-2011,14:00,METAR,,360,10.0,,,9999.0,,21.0,14.0,30.04,1018.0,,,,,,,,,,,,,,,Clear,72000.0,,,73000.0,,,,,,
KRDR,07-05-2011,13:00,METAR,,350,6.0,,,9999.0,,20.0,14.0,30.03,1017.9,,,,,,,,,,,,,,,Clear,72000.0,,,73000.0,,,,,,
KRDR,07-05-2011,12:00,METAR,,350,7.0,,,9999.0,,18.0,15.0,30.01,1017.1,,,,,,,,,,,,,,,Clear,72000.0,,,73000.0,,,,,,
KRDR,07-05-2011,11:00,METAR,,350,6.0,,,9999.0,,17.0,16.0,29.99,1016.7,,,,,,,,,,,,,,,Clear,72000.0,,,73000.0,,,,,,
KRDR,07-05-2011,10:00,METAR,,350,7.0,,,9999.0,,17.0,17.0,29.99,1016.6,,,,,,,,,,,,,,,Clear,72000.0,,,73000.0,,,,,,
KRDR,07-05-2011,09:00,METAR,,,0.0,,,9999.0,,18.0,18.0,29.97,1016.0,,,,,,,,,,,,,,,Clear,72000.0,,,73000.0,,,,,,
KRDR,07-05-2011,08:00,METAR,,,0.0,,,9999.0,,20.0,20.0,29.95,1015.1,,,,,,,,,,,,,,,Clear,72000.0,,,73000.0,,,,,,
KRDR,07-05-2011,07:00,METAR,,330,4.0,,,9999.0,,21.0,21.0,29.93,1014.6,,,,,,,,,,,,,,,2/8 Mostly Clear,72000.0,,FEW,5900.0,,,,,,
KRDR,07-05-2011,06:00,METAR,,360,3.0,,,9999.0,,21.0,21.0,29.91,1013.8,,,,,,,,,,,,,,,Clear,72000.0,,,73000.0,,,,,,
KRDR,07-05-2011,05:00,METAR,,340,6.0,,,9999.0,,21.0,21.0,29.89,1013.1,,,,,,,,,,,,,,,Clear,72000.0,,,73000.0,,,,,,
KRDR,07-05-2011,04:00,METAR,,350,5.0,,,9999.0,,23.0,23.0,29.87,1012.5,,,,,,,,,,,,,,,4/8 Partly Cloudy,72000.0,,SCT,3100.0,,,,,,
KRDR,07-05-2011,03:00,METAR,,100,9.0,,,9999.0,,25.0,20.0,29.86,1012.2,,,,,,,,,,,,,,,7/8 Mostly Cloudy,6000.0,,BKN,5900.0,,,,,,
KRDR,07-05-2011,02:00,METAR,,30,8.0,,,9999.0,,27.0,24.0,29.81,1010.7,,,,,,,,,,,,,,,,72000.0,,FEW,6900.0,,,,,,
KRDR,07-05-2011,01:00,METAR,,30,12.0,,,9999.0,,28.0,25.0,29.80,1010.3,,,,,,,,,,,,,,,,72000.0,,SCT,5000.0,SCT,6900.0,,,,
KRDR,07-05-2011,00:00,METAR,,310,9.0,,,9999.0,,32.0,24.0,29.76,1009.0,,,,,,,,,,,,,,,,72000.0,,,73000.0,,,,,,
KRDR,07-04-2011,23:00,METAR,,260,9.0,,,9999.0,,32.0,24.0,29.77,1009.2,,,,,,,,,,,,,,,,72000.0,,FEW,4800.0,SCT,5900.0,,,,
KRDR,07-04-2011,22:00,METAR,,250,10.0,,,9999.0,,32.0,24.0,29.78,1009.7,,,,,,,,,,,,,,,,72000.0,,,73000.0,,,,,,
KRDR,07-04-2011,21:00,METAR,,240,12.0,17.0,,9999.0,,32.0,24.0,29.79,1010.0,,,,,,,,,,,,,,,,72000.0,,FEW,3800.0,,,,,,
KRDR,07-04-2011,20:00,METAR,,210,11.0,,,9999.0,,31.0,24.0,29.80,1010.3,,,,,,,,,,,,,,,,72000.0,,SCT,3700.0,SCT,4800.0,,,,
KRDR,07-04-2011,19:00,METAR,,210,13.0,,,9999.0,,31.0,25.0,29.82,1010.8,,,,,,,,,,,,,,,,72000.0,,,73000.0,,,,,,
KRDR,07-04-2011,18:00,METAR,,210,14.0,,,9999.0,,30.0,25.0,29.82,1010.8,,,,,,,,,,,,,,,,72000.0,,,73000.0,,,,,,
KRDR,07-04-2011,17:00,METAR,,210,12.0,,,9999.0,,28.0,24.0,29.81,1010.5,,,,,,,,,,,,,,,,72000.0,,,73000.0,,,,,,
KRDR,07-04-2011,16:00,METAR,,190,13.0,18.0,,9999.0,,27.0,24.0,29.82,1010.9,,,,,,,,,,,,,,,,72000.0,,,73000.0,,,,,,
KRDR,07-04-2011,15:00,METAR,,190,12.0,,,9999.0,,26.0,24.0,29.83,1011.3,,,,,,,,,,,,,,,,72000.0,,,73000.0,,,,,,
KRDR,07-04-2011,14:00,METAR,,200,6.0,,,9999.0,,25.0,24.0,29.86,1012.2,,,,,,,,,,,,,,,,72000.0,,,73000.0,,,,,,
KRDR,07-04-2011,13:00,METAR,,190,6.0,,,9999.0,,23.0,23.0,29.87,1012.5,,,,,,,,,,,,,,,,72000.0,,FEW,5000.0,,,,,,
KRDR,07-04-2011,12:00,METAR,,200,7.0,,,9999.0,,22.0,22.0,29.85,1011.8,,,,,,,,,,,,,,,,72000.0,,,73000.0,,,,,,
KRDR,07-04-2011,11:00,METAR,,190,7.0,,,9999.0,,21.0,21.0,29.84,1011.5,,,,,,,,,,,,,,,,72000.0,,,73000.0,,,,,,
KRDR,07-04-2011,10:00,METAR,,210,6.0,,,9999.0,,20.0,20.0,29.86,1012.1,,,,,,,,,,,,,,,,72000.0,,,73000.0,,,,,,
KRDR,07-04-2011,09:00,METAR,,190,6.0,,,9999.0,,20.0,20.0,29.87,1012.5,,,,,,,,,,,,,,,,72000.0,,,73000.0,,,,,,
KRDR,07-04-2011,08:00,METAR,,200,5.0,,,9999.0,,21.0,21.0,29.87,1012.6,,,,,,,,,,,,,,,,72000.0,,,73000.0,,,,,,
KRDR,07-04-2011,07:00,METAR,,200,6.0,,,9999.0,,22.0,22.0,29.87,1012.6,,,,,,,,,,,,,,,,72000.0,,,73000.0,,,,,,
KRDR,07-04-2011,06:00,METAR,,190,6.0,,,9999.0,,22.0,22.0,29.87,1012.4,,,,,,,,,,,,,,,,72000.0,,,73000.0,,,,,,
KRDR,07-04-2011,05:00,METAR,,200,7.0,,,9999.0,,23.0,23.0,29.85,1012.0,,,,,,,,,,,,,,,,72000.0,,,73000.0,,,,,,
KRDR,07-04-2011,04:00,METAR,,190,6.0,,,9999.0,,23.0,23.0,29.86,1012.4,,,,,,,,,,,,,,,,72000.0,,SCT,6900.0,,,,,,
KRDR,07-04-2011,03:00,METAR,,200,5.0,,,9999.0,,24.0,22.0,29.85,1012.0,,,,,,,,,,,,,,,,72000.0,,,73000.0,,,,,,
KRDR,07-04-2011,02:00,METAR,,190,6.0,,,9999.0,,27.0,21.0,29.86,1012.2,,,,,,,,,,,,,,,,72000.0,,,73000.0,,,,,,
KRDR,07-04-2011,01:00,METAR,,200,6.0,,,9999.0,,29.0,20.0,29.87,1012.4,,,,,,,,,,,,,,,Clear,72000.0,,,73000.0,,,,,,
KRDR,07-04-2011,00:00,METAR,,210,10.0,,,9999.0,,30.0,18.0,29.87,1012.6,,,,,,,,,,,,,,,Clear,72000.0,,,73000.0,,,,,,
KRDR,07-03-2011,23:00,METAR,,210,15.0,,,9999.0,,30.0,17.0,29.89,1013.1,,,,,,,,,,,,,,,,72000.0,,,73000.0,,,,,,
KRDR,07-03-2011,22:00,METAR,,210,14.0,19.0,,9999.0,,30.0,18.0,29.90,1013.5,,,,,,,,,,,,,,,,72000.0,,,73000.0,,,,,,
KRDR,07-03-2011,21:00,METAR,,220,10.0,,,9999.0,,30.0,19.0,29.91,1014.0,,,,,,,,,,,,,,,2/8 Mostly Clear,72000.0,,FEW,5900.0,,,,,,
KRDR,07-03-2011,20:00,METAR,,220,14.0,,,9999.0,,30.0,19.0,29.93,1014.6,,,,,,,,,,,,,,,2/8 Mostly Clear,72000.0,,FEW,5000.0,,,,,,
KRDR,07-03-2011,19:00,METAR,,180,10.0,,,9999.0,,29.0,20.0,29.95,1015.3,,,,,,,,,,,,,,,4/8 Partly Cloudy,72000.0,,SCT,4700.0,SCT,9900.0,,,,
KRDR,07-03-2011,18:00,METAR,,170,10.0,,,9999.0,,28.0,20.0,29.97,1015.8,,,,,,,,,,,,,,,2/8 Mostly Clear,72000.0,,FEW,11000.0,,,,,,
KRDR,07-03-2011,17:00,METAR,,150,11.0,,,9999.0,,26.0,18.0,29.99,1016.5,,,,,,,,,,,,,,,Clear,72000.0,,,73000.0,,,,,,
KRDR,07-03-2011,16:00,METAR,,150,10.0,,,9999.0,,26.0,16.0,30.00,1016.9,,,,,,,,,,,,,,,4/8 Partly Cloudy,72000.0,,SCT,5900.0,,,,,,
KRDR,07-03-2011,15:00,METAR,,140,9.0,,,9999.0,,24.0,16.0,30.01,1017.3,,,,,,,,,,,,,,,4/8 Partly Cloudy,72000.0,,SCT,5900.0,,,,,,
KRDR,07-03-2011,14:00,METAR,,130,7.0,,,9999.0,,22.0,16.0,30.03,1017.7,,,,,,,,,,,,,,,Clear,72000.0,,,73000.0,,,,,,
KRDR,07-03-2011,13:00,METAR,,150,4.0,,,9999.0,,19.0,16.0,30.03,1017.8,,,,,,,,,,,,,,,Clear,72000.0,,,73000.0,,,,,,
KRDR,07-03-2011,12:00,METAR,,120,5.0,,,9999.0,,16.0,16.0,30.03,1017.8,,,,,,,,,,,,,,,Clear,72000.0,,,73000.0,,,,,,
KRDR,07-03-2011,11:00,METAR,,90,3.0,,,9999.0,,14.0,14.0,30.04,1018.1,,,,,,,,,,,,,,,2/8 Mostly Clear,72000.0,,FEW,12000.0,,,,,,
KRDR,07-03-2011,10:00,METAR,,,0.0,,,9999.0,,15.0,15.0,30.04,1018.1,,,,,,,,,,,,,,,Clear,72000.0,,,73000.0,,,,,,
KRDR,07-03-2011,09:00,METAR,,,0.0,,,9999.0,,14.0,14.0,30.03,1017.9,,,,,,,,,,,,,,,Clear,72000.0,,,73000.0,,,,,,
KRDR,07-03-2011,08:00,METAR,,,0.0,,,9999.0,,15.0,15.0,30.04,1018.2,,,,,,,,,,,,,,,Clear,72000.0,,,73000.0,,,,,,
KRDR,07-03-2011,07:00,METAR,,,0.0,,,9999.0,,16.0,16.0,30.05,1018.3,,,,,,,,,,,,,,,Clear,72000.0,,,73000.0,,,,,,
KRDR,07-03-2011,06:00,METAR,,,0.0,,,9999.0,,16.0,16.0,30.05,1018.6,,,,,,,,,,,,,,,Clear,72000.0,,,73000.0,,,,,,
KRDR,07-03-2011,05:00,METAR,,,0.0,,,9999.0,,16.0,16.0,30.05,1018.4,,,,,,,,,,,,,,,Clear,72000.0,,,73000.0,,,,,,
KRDR,07-03-2011,04:00,METAR,,,0.0,,,9999.0,,17.0,17.0,30.04,1018.3,,,,,,,,,,,,,,,Clear,72000.0,,,73000.0,,,,,,
KRDR,07-03-2011,03:00,METAR,,,0.0,,,9999.0,,20.0,16.0,30.05,1018.4,,,,,,,,,,,,,,,Clear,72000.0,,,73000.0,,,,,,
KRDR,07-03-2011,02:00,METAR,,,0.0,,,9999.0,,24.0,14.0,30.04,1018.3,,,,,,,,,,,,,,,Clear,72000.0,,,73000.0,,,,,,
KRDR,07-03-2011,01:00,METAR,,310,4.0,,,9999.0,,25.0,13.0,30.05,1018.5,,,,,,,,,,,,,,,Clear,72000.0,,,73000.0,,,,,,
KRDR,07-03-2011,00:00,METAR,,310,9.0,,,9999.0,,26.0,11.0,30.06,1018.8,,,,,,,,,,,,,,,Clear,72000.0,,,73000.0,,,,,,
KRDR,07-02-2011,23:00,METAR,,300,8.0,,,9999.0,,26.0,11.0,30.08,1019.5,,,,,,,,,,,,,,,Clear,72000.0,,,73000.0,,,,,,
KRDR,07-02-2011,22:00,METAR,,310,9.0,,,9999.0,,26.0,12.0,30.08,1019.6,,,,,,,,,,,,,,,Clear,72000.0,,,73000.0,,,,,,
KRDR,07-02-2011,21:00,METAR,,330,10.0,,,9999.0,,26.0,11.0,30.10,1020.1,,,,,,,,,,,,,,,Clear,72000.0,,,73000.0,,,,,,
KRDR,07-02-2011,20:00,METAR,,310,8.0,,,9999.0,,26.0,11.0,30.11,1020.4,,,,,,,,,,,,,,,Clear,72000.0,,,73000.0,,,,,,
KRDR,07-02-2011,19:00,METAR,,340,8.0,,,9999.0,,25.0,11.0,30.12,1020.7,,,,,,,,,,,,,,,Clear,72000.0,,,73000.0,,,,,,
KRDR,07-02-2011,18:00,METAR,,310,9.0,14.0,,9999.0,,25.0,10.0,30.12,1020.7,,,,,,,,,,,,,,,Clear,72000.0,,,73000.0,,,,,,
KRDR,07-02-2011,17:00,METAR,,340,6.0,,,9999.0,,24.0,11.0,30.10,1020.3,,,,,,,,,,,,,,,Clear,72000.0,,,73000.0,,,,,,
KRDR,07-02-2011,16:00,METAR,,330,8.0,,,9999.0,,23.0,12.0,30.09,1019.9,,,,,,,,,,,,,,,Clear,72000.0,,,73000.0,,,,,,
KRDR,07-02-2011,15:00,METAR,,330,7.0,,,9999.0,,22.0,12.0,30.09,1019.7,,,,,,,,,,,,,,,Clear,72000.0,,,73000.0,,,,,,
KRDR,07-02-2011,14:00,METAR,,320,5.0,,,9999.0,,21.0,14.0,30.08,1019.4,,,,,,,,,,,,,,,Clear,72000.0,,,73000.0,,,,,,
KRDR,07-02-2011,13:00,METAR,,300,7.0,,,9999.0,,19.0,15.0,30.06,1019.0,,,,,,,,,,,,,,,Clear,72000.0,,,73000.0,,,,,,
KRDR,07-02-2011,12:00,METAR,,300,7.0,,,9999.0,,17.0,16.0,30.05,1018.5,,,,,,,,,,,,,,,Clear,72000.0,,,73000.0,,,,,,
KRDR,07-02-2011,11:00,METAR,,300,7.0,,,9999.0,,15.0,15.0,30.02,1017.6,,,,,,,,,,,,,,,Clear,72000.0,,,73000.0,,,,,,
KRDR,07-02-2011,10:00,METAR,,300,6.0,,,9999.0,,15.0,15.0,30.00,1016.7,,,,,,,,,,,,,,,Clear,72000.0,,,73000.0,,,,,,
KRDR,07-02-2011,09:00,METAR,,300,6.0,,,9999.0,,16.0,15.0,29.99,1016.5,,,,,,,,,,,,,,,Clear,72000.0,,,73000.0,,,,,,
KRDR,07-02-2011,08:00,METAR,,300,7.0,,,9999.0,,17.0,15.0,29.98,1016.0,,,,,,,,,,,,,,,Clear,72000.0,,,73000.0,,,,,,
KRDR,07-02-2011,07:00,METAR,,300,6.0,,,9999.0,,17.0,15.0,29.96,1015.6,,,,,,,,,,,,,,,Clear,72000.0,,,73000.0,,,,,,
KRDR,07-02-2011,06:00,METAR,,290,5.0,,,9999.0,,17.0,15.0,29.95,1015.1,,,,,,,,,,,,,,,Clear,72000.0,,,73000.0,,,,,,
KRDR,07-02-2011,05:00,METAR,,270,5.0,,,9999.0,,19.0,17.0,29.93,1014.4,,,,,,,,,,,,,,,Clear,72000.0,,,73000.0,,,,,,
KRDR,07-02-2011,04:00,METAR,,290,4.0,,,9999.0,,20.0,20.0,29.89,1013.4,,,,,,,,,,,,,,,Clear,72000.0,,,73000.0,,,,,,
KRDR,07-02-2011,03:00,METAR,,280,6.0,,,9999.0,,22.0,21.0,29.87,1012.5,,,,,,,,,,,,,,,Clear,72000.0,,,73000.0,,,,,,
KRDR,07-02-2011,02:00,METAR,,260,6.0,,,9999.0,,24.0,22.0,29.84,1011.5,,,,,,,,,,,,,,,Clear,72000.0,,,73000.0,,,,,,
KRDR,07-02-2011,01:00,METAR,,250,6.0,,,9999.0,,25.0,21.0,29.84,1011.5,,,,,,,,,,,,,,,Clear,72000.0,,,73000.0,,,,,,
KRDR,07-02-2011,00:00,METAR,,250,7.0,,,9999.0,,25.0,20.0,29.85,1011.8,,,,,,,,,,,,,,,Clear,72000.0,,,73000.0,,,,,,
KRDR,07-01-2011,23:00,METAR,,250,7.0,,,9999.0,,26.0,20.0,29.87,1012.5,,,,,,,,,,,,,,,Clear,72000.0,,,73000.0,,,,,,
KRDR,07-01-2011,22:00,METAR,,290,7.0,,,9999.0,,26.0,19.0,29.85,1011.9,,,,,,,,,,,,,,,Clear,72000.0,,,73000.0,,,,,,
KRDR,07-01-2011,21:00,METAR,,280,6.0,,,9999.0,,27.0,18.0,29.86,1012.3,,,,,,,,,,,,,,,Clear,72000.0,,,73000.0,,,,,,
KRDR,07-01-2011,20:00,METAR,,310,7.0,,,9999.0,,27.0,17.0,29.85,1012.0,,,,,,,,,,,,,,,Clear,72000.0,,,73000.0,,,,,,
KRDR,07-01-2011,19:00,METAR,,310,8.0,,,9999.0,,27.0,17.0,29.85,1012.0,,,,,,,,,,,,,,,Clear,72000.0,,,73000.0,,,,,,
KRDR,07-01-2011,18:00,METAR,,310,7.0,,,9999.0,,26.0,16.0,29.85,1011.9,,,,,,,,,,,,,TRACE,,2/8 Mostly Clear,72000.0,,FEW,12000.0,,,,,,
KRDR,07-01-2011,17:00,METAR,,330,6.0,,,9999.0,,23.0,16.0,29.83,1011.1,,,,,,,,,,,,,,,4/8 Partly Cloudy,72000.0,,SCT,9900.0,,,,,,
KRDR,07-01-2011,16:00,METAR,,330,6.0,,,9999.0,,23.0,15.0,29.83,1011.2,,,,,,,,,,,,,,,8/8 Overcast,11000.0,,OVC,11000.0,,,,,,
KRDR,07-01-2011,15:00,METAR,,320,14.0,19.0,,9999.0,,23.0,19.0,29.79,1010.0,,,,,,,,,,,,TRACE,,,Clear,72000.0,,,73000.0,,,,,,
KRDR,07-01-2011,14:00,METAR,,320,8.0,,,9999.0,,22.0,19.0,29.81,1010.5,,,,,,,,,,,,,,,7/8 Mostly Cloudy,10000.0,,BKN,9900.0,,,,,,
KRDR,07-01-2011,13:00,METAR,,320,8.0,,,9999.0,,22.0,19.0,29.78,1009.8,,,,,,,,,,,TRACE,,,,8/8 Overcast,10000.0,,OVC,9900.0,,,,,,
KRDR,07-01-2011,12:05,SPECI,,320,10.0,,,9999.0,,22.0,18.0,29.77,1009.2,,,,,,,,,,,,,,,7/8 Mostly Cloudy,11000.0,,BKN,11000.0,,,,,,
KRDR,07-01-2011,12:00,METAR,,320,9.0,,,9999.0,Light Rain,22.0,18.0,29.76,1009.1,61,,,,,,,,,,TRACE,,TRACE,,7/8 Mostly Cloudy,10000.0,,SCT,9900.0,BKN,12000.0,,,,
KRDR,07-01-2011,11:50,SPECI,,320,9.0,,,9999.0,Light Rain,22.0,18.0,29.77,1009.1,61,,,,,,,,,,,,,,7/8 Mostly Cloudy,10000.0,,BKN,9900.0,BKN,12000.0,,,,
KRDR,07-01-2011,11:24,SPECI,,320,9.0,,,9999.0,,21.0,19.0,29.76,1008.8,,,,,,,,,,,,,,,4/8 Partly Cloudy,72000.0,,FEW,8900.0,SCT,12000.0,,,,
KRDR,07-01-2011,11:11,SPECI,,310,7.0,,,9999.0,Light Rain,21.0,19.0,29.76,1009.0,61,,,,,,,,,,,,,,7/8 Mostly Cloudy,11000.0,,FEW,8900.0,BKN,11000.0,,,,
KRDR,07-01-2011,11:00,METAR,,290,7.0,,,9999.0,,21.0,18.0,29.76,1008.9,,,,,,,,,,,,,,,7/8 Mostly Cloudy,11000.0,,BKN,11000.0,,,,,,
KRDR,07-01-2011,10:00,METAR,,290,4.0,,,9999.0,,21.0,19.0,29.74,1008.1,,,,,,,,,,,,,,,4/8 Partly Cloudy,72000.0,,SCT,9900.0,,,,,,
KRDR,07-01-2011,09:00,METAR,,310,5.0,,,9999.0,,21.0,19.0,29.72,1007.7,,,,,,,,,,,,,,,Clear,72000.0,,,73000.0,,,,,,
KRDR,07-01-2011,08:00,METAR,,330,4.0,,,9999.0,,21.0,21.0,29.69,1006.7,,,,,,,,,,,,,,,Clear,72000.0,,,73000.0,,,,,,
KRDR,07-01-2011,07:00,METAR,,320,8.0,,,9999.0,,23.0,22.0,29.69,1006.8,,,,,,,,,,,,,,,Clear,72000.0,,,73000.0,,,,,,
KRDR,07-01-2011,06:00,METAR,,310,8.0,,,9999.0,,24.0,23.0,29.68,1006.4,,,,,,,,,,,,,,,Clear,72000.0,,,73000.0,,,,,,
KRDR,07-01-2011,05:00,METAR,,320,7.0,,,9999.0,,23.0,23.0,29.66,1005.6,,,,,,,,,,,,,,,Clear,72000.0,,,73000.0,,,,,,
KRDR,07-01-2011,04:00,METAR,,310,4.0,,,9999.0,,24.0,24.0,29.65,1005.3,,,,,,,,,,,,,,,Clear,72000.0,,,73000.0,,,,,,
KRDR,07-01-2011,03:00,METAR,,320,8.0,,,9999.0,,27.0,27.0,29.63,1004.6,,,,,,,,,,,,,,,Clear,72000.0,,,73000.0,,,,,,
KRDR,07-01-2011,02:00,METAR,,260,5.0,,,9999.0,,28.0,28.0,29.60,1003.8,,,,,,,,,,,,,,,Clear,72000.0,,,73000.0,,,,,,
KRDR,07-01-2011,01:00,METAR,,280,5.0,,,9999.0,,29.0,29.0,29.59,1003.3,,,,,,,,,,,,,,,Clear,72000.0,,,73000.0,,,,,,
KRDR,07-01-2011,00:00,METAR,,280,8.0,,,9999.0,,30.0,26.0,29.58,1003.0,,,,,,,,,,,,,,,Clear,72000.0,,,73000.0,,,,,,
KRDR,06-30-2011,23:00,METAR,,270,5.0,,,9999.0,,31.0,24.0,29.57,1002.7,,,,,,,,,,,,,,,Clear,72000.0,,,73000.0,,,,,,
KRDR,06-30-2011,22:00,METAR,,270,9.0,,,9999.0,,33.0,22.0,29.56,1002.4,,,,,,,,,,,,,,,Clear,72000.0,,,73000.0,,,,,,
KRDR,06-30-2011,21:00,METAR,,240,5.0,,,9999.0,,33.0,24.0,29.55,1001.9,,,,,,,,,,,,,,,Clear,72000.0,,,73000.0,,,,,,
KRDR,06-30-2011,20:00,METAR,,240,10.0,,,9999.0,,34.0,23.0,29.54,1001.7,,,,,,,,,,,,,,,Clear,72000.0,,,73000.0,,,,,,
KRDR,06-30-2011,19:00,METAR,,200,16.0,,,9999.0,,33.0,25.0,29.54,1001.6,,,,,,,,,,,,,,,Clear,72000.0,,,73000.0,,,,,,
KRDR,06-30-2011,18:00,METAR,,190,16.0,21.0,,9999.0,,32.0,25.0,29.54,1001.6,,,,,,,,,,,,,,,Clear,72000.0,,,73000.0,,,,,,
KRDR,06-30-2011,17:00,METAR,,190,15.0,,,9999.0,,31.0,25.0,29.53,1001.3,,,,,,,,,,,,,,,Clear,72000.0,,,73000.0,,,,,,
KRDR,06-30-2011,16:13,SPECI,,190,12.0,,,,,30.0,25.0,29.52,1001.0,,,,,,,,,,,,,,,,72000.0,,,,,,,,,
KRDR,06-30-2011,16:00,METAR,,200,7.0,,,9999.0,,30.0,23.0,29.53,999.6,,,,,,,,,,,,,,,4/8 Partly Cloudy,72000.0,,SCT,25000.0,,,,,,
KRDR,06-30-2011,15:00,METAR,,190,10.0,,,9999.0,,28.0,23.0,29.55,1000.3,,,,,,,,,,,,,,,7/8 Mostly Cloudy,25000.0,,FEW,5400.0,BKN,25000.0,,,,
KRDR,06-30-2011,14:00,METAR,,190,9.0,,,9999.0,,26.0,22.0,29.54,1000.1,,,,,,,,,,,,,,,7/8 Mostly Cloudy,25000.0,,SCT,5400.0,BKN,25000.0,,,,
KRDR,06-30-2011,13:00,METAR,,170,8.0,,,9999.0,,25.0,22.0,29.53,999.8,,,,,,,,,,,,,,,7/8 Mostly Cloudy,25000.0,,SCT,5400.0,BKN,25000.0,,,,
KRDR,06-30-2011,12:00,METAR,,160,11.0,,,9999.0,,24.0,24.0,29.54,1001.8,,,,,,,,,,,,,,,Clear,72000.0,,,73000.0,,,,,,
KRDR,06-30-2011,11:18,SPECI,,150,8.0,,,9999.0,,23.0,23.0,29.56,1002.2,,,,,,,,,,,,,,,Clear,72000.0,,,73000.0,,,,,,
KRDR,06-30-2011,11:09,SPECI,,160,10.0,,,9999.0,,23.0,23.0,29.55,1002.1,,,,,,,,,,,,,,,Clear,72000.0,,,73000.0,,,,,,
KRDR,06-30-2011,11:06,SPECI,,150,11.0,,,9999.0,,23.0,23.0,29.55,1002.1,,,,,,,,,,,,,,,Clear,72000.0,,,73000.0,,,,,,
KRDR,06-30-2011,11:00,METAR,,150,11.0,,,9999.0,,23.0,23.0,29.55,1002.1,,,,,,,,,,,,,,,Clear,72000.0,,,73000.0,,,,,,
KRDR,06-30-2011,10:00,METAR,,160,11.0,,,9999.0,,23.0,23.0,29.57,1002.5,,,,,,,,,,,,,,,Clear,72000.0,,,73000.0,,,,,,
KRDR,06-30-2011,09:00,METAR,,180,14.0,,,9999.0,,24.0,24.0,29.58,1002.9,,,,,,,,,,,,,,,Clear,72000.0,,,73000.0,,,,,,
KRDR,06-30-2011,08:00,METAR,,160,13.0,,,9999.0,,24.0,24.0,29.57,1002.7,,,,,,,,,,,,,,,Clear,72000.0,,,73000.0,,,,,,
KRDR,06-30-2011,07:00,METAR,,160,10.0,,,9999.0,,23.0,23.0,29.60,1003.5,,,,,,,,,,,,,,,Clear,72000.0,,,73000.0,,,,,,
KRDR,06-30-2011,06:00,METAR,,150,11.0,,,9999.0,,24.0,24.0,29.61,1003.9,,,,,,,,,,,,,,,Clear,72000.0,,,73000.0,,,,,,
KRDR,06-30-2011,05:00,METAR,,150,10.0,,,9999.0,,24.0,24.0,29.61,1004.1,,,,,,,,,,,,,,,Clear,72000.0,,,73000.0,,,,,,
KRDR,06-30-2011,04:00,METAR,,140,11.0,,,9999.0,,25.0,25.0,29.63,1004.5,,,,,,,,,,,,,,,Clear,72000.0,,,73000.0,,,,,,
KRDR,06-30-2011,03:00,METAR,,130,9.0,,,9999.0,,26.0,26.0,29.63,1004.6,,,,,,,,,,,,,,,Clear,72000.0,,,73000.0,,,,,,
KRDR,06-30-2011,02:00,METAR,,150,9.0,,,9999.0,,28.0,25.0,29.62,1004.4,,,,,,,,,,,,,,,Clear,72000.0,,,73000.0,,,,,,
KRDR,06-30-2011,01:00,METAR,,160,15.0,21.0,,9999.0,,29.0,24.0,29.63,1004.7,,,,,,,,,,,,,,,Clear,72000.0,,,73000.0,,,,,,
KRDR,06-30-2011,00:00,METAR,,170,17.0,24.0,170/31KTS,9999.0,,29.0,23.0,29.63,1004.8,,,,,,,,,,,,,,,Clear,72000.0,,,73000.0,,,,,,
KRDR,06-29-2011,23:00,METAR,,160,20.0,30.0,170/31KTS,9999.0,,30.0,22.0,29.63,1004.8,,,,,,,,,,,,,,,Clear,72000.0,,,73000.0,,,,,,
KRDR,06-29-2011,22:00,METAR,,160,18.0,32.0,160/32KTS,9999.0,,29.0,22.0,29.65,1005.3,,,,,,,,,,,,,,,Clear,72000.0,,,73000.0,,,,,,
KRDR,06-29-2011,21:00,METAR,,160,20.0,26.0,160/30KTS,9999.0,,29.0,23.0,29.66,1005.8,,,,,,,,,,,,,,,Clear,72000.0,,,73000.0,,,,,,
KRDR,06-29-2011,20:00,METAR,,150,16.0,26.0,170/29KTS,9999.0,,28.0,22.0,29.68,1006.3,,,,,,,,,,,,,,,Clear,72000.0,,,73000.0,,,,,,
KRDR,06-29-2011,19:00,METAR,,160,23.0,27.0,150/29KTS,9999.0,,27.0,21.0,29.71,1007.2,,,,,,,,,,,,,,,Clear,72000.0,,,73000.0,,,,,,
KRDR,06-29-2011,18:00,METAR,,160,21.0,27.0,150/27KTS,9999.0,,26.0,20.0,29.73,1008.1,,,,,,,,,,,,,,,Clear,72000.0,,,73000.0,,,,,,
KRDR,06-29-2011,17:00,METAR,,150,16.0,22.0,,9999.0,,25.0,20.0,29.75,1008.7,,,,,,,,,,,,,,,Clear,72000.0,,,73000.0,,,,,,
KRDR,06-29-2011,16:00,METAR,,160,15.0,19.0,,9999.0,,24.0,19.0,29.77,1009.4,,,,,,,,,,,,,,,Clear,72000.0,,,73000.0,,,,,,
KRDR,06-29-2011,15:00,METAR,,160,16.0,,,9999.0,,22.0,19.0,29.79,1009.9,,,,,,,,,,,,,,,Clear,72000.0,,,73000.0,,,,,,
KRDR,06-29-2011,14:00,METAR,,160,11.0,,,9999.0,,20.0,19.0,29.82,1011.0,,,,,,,,,,,,,,,Clear,72000.0,,,73000.0,,,,,,
KRDR,06-29-2011,13:00,METAR,,160,8.0,,,9999.0,,18.0,18.0,29.83,1011.1,,,,,,,,,,,,,,,Clear,72000.0,,,73000.0,,,,,,
KRDR,06-29-2011,12:00,METAR,,160,9.0,15.0,,9999.0,,17.0,17.0,29.83,1011.1,,,,,,,,,,,,,,,Clear,72000.0,,,73000.0,,,,,,
KRDR,06-29-2011,11:00,METAR,,150,7.0,,,9999.0,,16.0,16.0,29.83,1011.2,,,,,,,,,,,,,,,Clear,72000.0,,,73000.0,,,,,,
KRDR,06-29-2011,10:00,METAR,,150,8.0,,,9999.0,,16.0,16.0,29.84,1011.6,,,,,,,,,,,,,,,Clear,72000.0,,,73000.0,,,,,,
KRDR,06-29-2011,09:00,METAR,,170,8.0,,,9999.0,,16.0,16.0,29.86,1012.4,,,,,,,,,,,,,,,Clear,72000.0,,,73000.0,,,,,,
KRDR,06-29-2011,08:00,METAR,,160,10.0,,,9999.0,,16.0,16.0,29.87,1012.6,,,,,,,,,,,,,,,Clear,72000.0,,,73000.0,,,,,,
KRDR,06-29-2011,07:00,METAR,,150,10.0,,,9999.0,,16.0,16.0,29.88,1012.8,,,,,,,,,,,,,,,Clear,72000.0,,,73000.0,,,,,,
KRDR,06-29-2011,06:00,METAR,,140,6.0,,,9999.0,,17.0,17.0,29.90,1013.5,,,,,,,,,,,,,,,Clear,72000.0,,,73000.0,,,,,,
KRDR,06-29-2011,05:00,METAR,,150,9.0,,,9999.0,,17.0,17.0,29.91,1013.7,,,,,,,,,,,,,,,Clear,72000.0,,,73000.0,,,,,,
KRDR,06-29-2011,04:00,METAR,,150,8.0,,,9999.0,,18.0,18.0,29.92,1014.1,,,,,,,,,,,,,,,Clear,72000.0,,,73000.0,,,,,,
KRDR,06-29-2011,03:00,METAR,,150,9.0,,,9999.0,,19.0,19.0,29.92,1014.4,,,,,,,,,,,,,,,Clear,72000.0,,,73000.0,,,,,,
KRDR,06-29-2011,02:00,METAR,,150,9.0,,,9999.0,,20.0,17.0,29.93,1014.5,,,,,,,,,,,,,,,Clear,72000.0,,,73000.0,,,,,,
KRDR,06-29-2011,01:00,METAR,,160,12.0,,,9999.0,,22.0,16.0,29.94,1014.8,,,,,,,,,,,,,,,Clear,72000.0,,,73000.0,,,,,,
KRDR,06-29-2011,00:00,METAR,,160,12.0,,,9999.0,,22.0,16.0,29.95,1015.1,,,,,,,,,,,,,,,Clear,72000.0,,,73000.0,,,,,,
KRDR,06-28-2011,23:00,METAR,,150,10.0,,,9999.0,,23.0,16.0,29.96,1015.7,,,,,,,,,,,,,,,Clear,72000.0,,,73000.0,,,,,,
KRDR,06-28-2011,22:00,METAR,,160,11.0,,,9999.0,,22.0,15.0,29.98,1016.1,,,,,,,,,,,,,,,Clear,72000.0,,,73000.0,,,,,,
KRDR,06-28-2011,21:00,METAR,,170,10.0,,,9999.0,,22.0,15.0,30.00,1016.7,,,,,,,,,,,,,,,4/8 Partly Cloudy,72000.0,,SCT,3800.0,,,,,,
KRDR,06-28-2011,20:00,METAR,,160,11.0,,,9999.0,,22.0,15.0,30.01,1017.1,,,,,,,,,,,,,,,4/8 Partly Cloudy,72000.0,,SCT,3500.0,,,,,,
KRDR,06-28-2011,19:00,METAR,,160,12.0,,,9999.0,,20.0,14.0,30.04,1018.0,,,,,,,,,,,,,,,4/8 Partly Cloudy,72000.0,,SCT,3600.0,,,,,,
KRDR,06-28-2011,18:00,METAR,,210,8.0,,,9999.0,,19.0,13.0,30.06,1018.7,,,,,,,,,,,,,,,7/8 Mostly Cloudy,3400.0,,BKN,3500.0,,,,,,
KRDR,06-28-2011,17:00,METAR,,,3.0,,,9999.0,,19.0,13.0,30.07,1019.0,,,,,,,,,,,,,,,2/8 Mostly Clear,72000.0,,FEW,3100.0,,,,,,
KRDR,06-28-2011,16:00,METAR,,170,6.0,,,9999.0,,18.0,13.0,30.08,1019.4,,,,,,,,,,,,,,,Clear,72000.0,,,73000.0,,,,,,
KRDR,06-28-2011,15:00,METAR,,170,4.0,,,9999.0,,17.0,12.0,30.09,1019.8,,,,,,,,,,,,,,,Clear,72000.0,,,73000.0,,,,,,
KRDR,06-28-2011,14:00,METAR,,140,4.0,,,9999.0,,16.0,11.0,30.09,1019.9,,,,,,,,,,,,,,,Clear,72000.0,,,73000.0,,,,,,
KRDR,06-28-2011,13:00,METAR,,,0.0,,,9999.0,,14.0,14.0,30.09,1019.9,,,,,,,,,,,,,,,Clear,72000.0,,,73000.0,,,,,,
KRDR,06-28-2011,12:00,METAR,,,0.0,,,9999.0,,11.0,11.0,30.09,1019.8,,,,,,,,,,,,,,.32 IN,Clear,72000.0,,,73000.0,,,,,,
KRDR,06-28-2011,11:00,METAR,,,0.0,,,9999.0,,9.0,9.0,30.08,1019.6,,,,,,,,,,,,,,,Clear,72000.0,,,73000.0,,,,,,
KRDR,06-28-2011,10:00,METAR,,,0.0,,,9999.0,,9.0,9.0,30.08,1019.4,,,,,,,,,,,,,,,Clear,72000.0,,,73000.0,,,,,,
KRDR,06-28-2011,09:00,METAR,,290,4.0,,,9999.0,,9.0,9.0,30.07,1019.1,,,,,,,,,,,,,,,Clear,72000.0,,,73000.0,,,,,,
KRDR,06-28-2011,08:00,METAR,,290,4.0,,,9999.0,,10.0,10.0,30.06,1018.9,,,,,,,,,,,,,,,Clear,72000.0,,,73000.0,,,,,,
KRDR,06-28-2011,07:00,METAR,,300,4.0,,,9999.0,,10.0,10.0,30.06,1018.9,,,,,,,,,,,,,,,Clear,72000.0,,,73000.0,,,,,,
KRDR,06-28-2011,06:00,METAR,,310,4.0,,,9999.0,,11.0,11.0,30.06,1019.0,,,,,,,,,,,,,,,Clear,72000.0,,,73000.0,,,,,,
KRDR,06-28-2011,05:00,METAR,,320,3.0,,,9999.0,,12.0,12.0,30.06,1018.9,,,,,,,,,,,,,,,Clear,72000.0,,,73000.0,,,,,,
KRDR,06-28-2011,04:00,METAR,,340,4.0,,,9999.0,,12.0,12.0,30.05,1018.5,,,,,,,,,,,,,,,Clear,72000.0,,,73000.0,,,,,,
KRDR,06-28-2011,03:00,METAR,,350,5.0,,,9999.0,,14.0,14.0,30.03,1018.0,,,,,,,,,,,,,,,Clear,72000.0,,,73000.0,,,,,,
KRDR,06-28-2011,02:00,METAR,,10,7.0,,,9999.0,,16.0,15.0,30.02,1017.4,,,,,,,,,,,,,,,Clear,72000.0,,,73000.0,,,,,,
KRDR,06-28-2011,01:00,METAR,,360,11.0,16.0,,9999.0,,17.0,13.0,30.00,1016.8,,,,,,,,,,,,,,,Clear,72000.0,,,73000.0,,,,,,
KRDR,06-28-2011,00:11,SPECI,,360,9.0,,,9999.0,,17.0,15.0,29.99,1016.5,,,,,,,,,,,,,,,4/8 Partly Cloudy,72000.0,,FEW,2500.0,SCT,3100.0,,,,
KRDR,06-28-2011,00:01,SPECI,,360,12.0,,,9999.0,,17.0,15.0,29.98,1016.3,,,,,,,,,,,,,,,7/8 Mostly Cloudy,2200.0,,BKN,2900.0,,,,,,
KRDR,06-28-2011,00:00,METAR,,360,13.0,17.0,,9999.0,,17.0,16.0,29.98,1016.3,,,,,,,,,,,,,TRACE,,8/8 Overcast,2900.0,,SCT,2400.0,OVC,2900.0,,,,
KRDR,06-27-2011,23:16,SPECI,,360,14.0,19.0,,9999.0,,17.0,15.0,29.97,1015.9,,,,,,,,,,,,,,,8/8 Overcast,2600.0,,OVC,2900.0,,,,,,
KRDR,06-27-2011,23:00,METAR,,360,15.0,22.0,,9999.0,,17.0,15.0,29.97,1015.8,,,,,,,,,,,,,,,8/8 Overcast,3100.0,,FEW,2200.0,OVC,3200.0,,,,
KRDR,06-27-2011,22:00,METAR,,350,14.0,20.0,,9999.0,,19.0,17.0,29.93,1014.7,,,,,,,,,,,TRACE,,,,8/8 Overcast,2800.0,,SCT,2100.0,BKN,4200.0,OVC,6900.0,,
KRDR,06-27-2011,21:55,SPECI,,360,16.0,20.0,,9999.0,,19.0,17.0,29.94,1014.7,,,,,,,,,,,,,,,8/8 Overcast,2900.0,,SCT,2200.0,BKN,2900.0,OVC,7400.0,,
KRDR,06-27-2011,21:34,SPECI,,360,15.0,19.0,,9999.0,,18.0,17.0,29.93,1014.4,,,,,,,,,,,,,,,8/8 Overcast,4300.0,,FEW,2600.0,BKN,4400.0,OVC,7400.0,,
KRDR,06-27-2011,21:25,SPECI,,10,14.0,19.0,,9999.0,Light Rain,18.0,17.0,29.92,1014.2,61,,,,,,,,,,,,,,8/8 Overcast,4700.0,,FEW,2600.0,BKN,4800.0,OVC,6900.0,,
KRDR,06-27-2011,21:07,SPECI,,360,12.0,19.0,,9999.0,,18.0,17.0,29.91,1014.0,,,,,,,,,,,,,,,7/8 Mostly Cloudy,4700.0,,FEW,2500.0,BKN,4800.0,BKN,6900.0,,
KRDR,06-27-2011,20:54,SPECI,,10,14.0,,,9999.0,Light Rain,19.0,17.0,29.91,1013.8,61,,,,,,,,,,,,,,7/8 Mostly Cloudy,4000.0,,SCT,2500.0,SCT,3000.0,BKN,4100.0,,
KRDR,06-27-2011,20:51,SPECI,,20,12.0,,,9999.0,,20.0,16.0,29.90,1013.6,,,,,,,,,,,,,,,7/8 Mostly Cloudy,2500.0,,BKN,2600.0,BKN,4100.0,,,,
KRDR,06-27-2011,20:05,SPECI,,360,13.0,,,9999.0,,20.0,17.0,29.89,1013.1,,,,,,,,,,,,,,,7/8 Mostly Cloudy,4900.0,,SCT,2100.0,SCT,2600.0,BKN,5000.0,,
KRDR,06-27-2011,20:00,METAR,,350,11.0,,,9999.0,,19.0,18.0,29.88,1013.0,,,,,,,,,,,TRACE,,,,7/8 Mostly Cloudy,2100.0,,BKN,2100.0,BKN,3900.0,BKN,5000.0,,
KRDR,06-27-2011,19:36,SPECI,,350,12.0,18.0,,9999.0,,19.0,18.0,29.88,1013.0,,,,,,,,,,,,,,,7/8 Mostly Cloudy,2200.0,,BKN,2200.0,BKN,3700.0,,,,
KRDR,06-27-2011,19:27,SPECI,,360,11.0,16.0,,9999.0,,19.0,18.0,29.88,1013.0,,,,,,,,,,,,,,,4/8 Partly Cloudy,72000.0,,FEW,2200.0,SCT,3700.0,,,,
KRDR,06-27-2011,19:01,SPECI,,360,11.0,,,9999.0,Light Rain,18.0,18.0,29.88,1012.8,61,,,,,,,,,,,,,,2/8 Mostly Clear,72000.0,,FEW,2300.0,,,,,,
KRDR,06-27-2011,19:00,METAR,,360,11.0,,,9999.0,,18.0,18.0,29.87,1012.7,,,,,,,,,,,,,,,4/8 Partly Cloudy,72000.0,,FEW,2300.0,SCT,2900.0,,,,
KRDR,06-27-2011,18:48,SPECI,,360,12.0,,,9999.0,,18.0,17.0,29.87,1012.7,,,,,,,,,,,,,,,4/8 Partly Cloudy,72000.0,,SCT,2300.0,SCT,2900.0,,,,
KRDR,06-27-2011,18:45,SPECI,,360,10.0,19.0,,9999.0,,18.0,17.0,29.87,1012.6,,,,,,,,,,,,,,,7/8 Mostly Cloudy,2700.0,,SCT,2300.0,BKN,2900.0,,,,
KRDR,06-27-2011,18:41,SPECI,,360,12.0,19.0,,9999.0,,18.0,17.0,29.87,1012.6,,,,,,,,,,,,,,,7/8 Mostly Cloudy,3000.0,,SCT,2400.0,BKN,3000.0,,,,
KRDR,06-27-2011,18:21,SPECI,,360,14.0,18.0,,9999.0,,18.0,18.0,29.86,1012.4,,,,,,,,,,,,,,,7/8 Mostly Cloudy,2500.0,,FEW,2100.0,BKN,2600.0,BKN,3300.0,,
KRDR,06-27-2011,18:10,SPECI,,340,15.0,,,9999.0,,19.0,18.0,29.86,1012.2,,,,,,,,,,,,,,,7/8 Mostly Cloudy,3200.0,,FEW,2100.0,SCT,2600.0,BKN,3300.0,,
KRDR,06-27-2011,18:04,SPECI,,350,10.0,15.0,,9999.0,,19.0,19.0,29.86,1012.1,,,,,,,,,,,,,,,7/8 Mostly Cloudy,2500.0,,FEW,1900.0,BKN,2700.0,BKN,3300.0,,
KRDR,06-27-2011,18:00,METAR,,310,7.0,,,9999.0,,18.0,18.0,29.85,1012.0,,,,,,,,,,,,,.32 IN,,2/8 Mostly Clear,72000.0,,FEW,2300.0,,,,,,
KRDR,06-27-2011,17:00,METAR,,250,15.0,,,9999.0,,18.0,18.0,29.83,1011.1,,,,,,,,,,,TRACE,,,,2/8 Mostly Clear,72000.0,,FEW,12000.0,,,,,,
KRDR,06-27-2011,16:17,SPECI,,240,10.0,,,9999.0,,16.0,16.0,29.83,1011.3,,,,,,,,,,,,,,,7/8 Mostly Cloudy,3400.0,,BKN,3500.0,BKN,9900.0,,,,
KRDR,06-27-2011,16:00,METAR,,270,5.0,,,6400.0,Light Rain/Mist,14.0,14.0,29.84,1011.5,61,10,,,,,,,,,.07 IN,,,,8/8 Overcast,3800.0,,FEW,2700.0,BKN,3900.0,OVC,4900.0,,
KRDR,06-27-2011,15:00,METAR,,240,4.0,,,8000.0,Rain/Mist,14.0,14.0,29.81,1010.7,62,10,,,,,,,,,.19 IN,.25 IN,,,8/8 Overcast,6000.0,,OVC,5900.0,,,,,,
KRDR,06-27-2011,14:00,METAR,,330,8.0,,,9999.0,Light Rain,14.0,14.0,29.81,1010.5,61,,,,,,,,,,.03 IN,,,,8/8 Overcast,7000.0,,OVC,6900.0,,,,,,
KRDR,06-27-2011,13:00,METAR,,280,6.0,,,9999.0,Light Rain,14.0,14.0,29.77,1009.2,61,,,,,,,,,,.03 IN,,,,7/8 Mostly Cloudy,7000.0,,BKN,6900.0,,,,,,
KRDR,06-27-2011,12:00,METAR,,280,10.0,,,9999.0,Light Rain,14.0,14.0,29.77,1009.2,61,,,,,,,,,,.09 IN,,.18 IN,.55 IN,8/8 Overcast,7000.0,,OVC,6900.0,,,,,,
KRDR,06-27-2011,11:00,METAR,,260,18.0,25.0,,9999.0,Rain,15.0,15.0,29.76,1008.9,62,,,,,,,,,,.09 IN,,,,8/8 Overcast,6000.0,,FEW,4400.0,SCT,5900.0,OVC,7900.0,,
KRDR,06-27-2011,10:44,SPECI,,260,16.0,23.0,,9999.0,Rain,16.0,16.0,29.76,1008.8,62,,,,,,,,,,,,,,8/8 Overcast,6000.0,,FEW,4400.0,BKN,5900.0,OVC,7400.0,,
KRDR,06-27-2011,10:29,SPECI,,240,14.0,,,9999.0,Thunderstorm and Rain or Snow Showers,16.0,16.0,29.75,1008.7,92,,,,,,,,,,,,,,7/8 Mostly Cloudy,1800.0,,SCT,4400.0,BKN,5900.0,BKN,6900.0,,
KRDR,06-27-2011,10:00,METAR,,270,10.0,,,9999.0,Light Rain,16.0,16.0,29.72,1007.5,61,,,,,,,,,,TRACE,,,,4/8 Partly Cloudy,72000.0,,FEW,2500.0,SCT,5000.0,SCT,9400.0,,
KRDR,06-27-2011,09:00,METAR,,240,6.0,,,9999.0,,15.0,15.0,29.73,1008.0,,,,,,,,,,,,,,,Clear,72000.0,,,73000.0,,,,,,
KRDR,06-27-2011,08:00,METAR,,220,5.0,,,9999.0,,14.0,14.0,29.76,1009.0,,,,,,,,,,,,,,,Clear,72000.0,,,73000.0,,,,,,
KRDR,06-27-2011,07:00,METAR,,170,5.0,,,9999.0,,13.0,13.0,29.76,1008.8,,,,,,,,,,,,,,,Clear,72000.0,,,73000.0,,,,,,
KRDR,06-27-2011,06:00,METAR,,210,3.0,,,9999.0,,13.0,13.0,29.76,1009.1,,,,,,,,,,,,,.01 IN,,Clear,72000.0,,,73000.0,,,,,,
KRDR,06-27-2011,05:00,METAR,,230,4.0,,,9999.0,,14.0,14.0,29.77,1009.4,,,,,,,,,,,,,,,Clear,72000.0,,,73000.0,,,,,,
KRDR,06-27-2011,04:00,METAR,,190,4.0,,,9999.0,,14.0,14.0,29.78,1009.4,,,,,,,,,,,,,,,Clear,72000.0,,,73000.0,,,,,,
KRDR,06-27-2011,03:00,METAR,,,0.0,,,9999.0,,15.0,15.0,29.75,1008.7,,,,,,,,,,,,.01 IN,,,Clear,72000.0,,,73000.0,,,,,,
KRDR,06-27-2011,02:00,METAR,,320,4.0,,,9999.0,,18.0,18.0,29.74,1008.4,,,,,,,,,,,,,,,Clear,72000.0,,,73000.0,,,,,,
KRDR,06-27-2011,01:00,METAR,,80,3.0,,,9999.0,,19.0,16.0,29.74,1008.2,,,,,,,,,,,.01 IN,,,,Clear,72000.0,,,73000.0,,,,,,
KRDR,06-27-2011,00:00,METAR,,40,6.0,,,9999.0,,19.0,15.0,29.73,1007.9,,,,,,,,,,,TRACE,,.35 IN,,2/8 Mostly Clear,72000.0,,FEW,2800.0,,,,,,
KRDR,06-26-2011,23:35,SPECI,,10,7.0,,,9999.0,,18.0,18.0,29.74,1008.2,,,,,,,,,,,,,,,7/8 Mostly Cloudy,2400.0,,SCT,2800.0,BKN,7400.0,,,,
KRDR,06-26-2011,23:31,SPECI,,340,7.0,,,9999.0,,18.0,18.0,29.74,1008.4,,,,,,,,,,,,,,,7/8 Mostly Cloudy,2600.0,,FEW,900.0,BKN,2600.0,BKN,7400.0,,
KRDR,06-26-2011,23:22,SPECI,,330,8.0,,,9999.0,,18.0,18.0,29.74,1008.3,,,,,,,,,,,,,,,7/8 Mostly Cloudy,7500.0,,FEW,1000.0,SCT,3200.0,BKN,7400.0,,
KRDR,06-26-2011,23:14,SPECI,,340,8.0,,,9999.0,,18.0,18.0,29.74,1008.1,,,,,,,,,,,,,,,7/8 Mostly Cloudy,6500.0,,FEW,1000.0,SCT,2600.0,BKN,6400.0,,
KRDR,06-26-2011,23:11,SPECI,,350,6.0,,,9999.0,Light Drizzle,18.0,18.0,29.73,1007.9,51,,,,,,,,,,,,,,7/8 Mostly Cloudy,4000.0,,SCT,1100.0,SCT,2600.0,BKN,4100.0,,
KRDR,06-26-2011,23:09,SPECI,,10,5.0,,,9999.0,Light Drizzle,18.0,18.0,29.73,1007.9,51,,,,,,,,,,,,,,8/8 Overcast,2600.0,,SCT,1100.0,BKN,2600.0,OVC,9400.0,,
KRDR,06-26-2011,23:07,SPECI,,20,4.0,,,9999.0,Light Rain,18.0,18.0,29.73,1007.8,61,,,,,,,,,,,,,,8/8 Overcast,3100.0,,SCT,1100.0,BKN,3100.0,OVC,6900.0,,
KRDR,06-26-2011,23:00,METAR,,300,4.0,,,9999.0,,18.0,18.0,29.74,1008.4,,,,,,,,,,,TRACE,,,,8/8 Overcast,7000.0,,SCT,1100.0,BKN,6900.0,OVC,8900.0,,
KRDR,06-26-2011,22:43,SPECI,,340,5.0,,,9999.0,,18.0,18.0,29.73,1008.1,,,,,,,,,,,,,,,7/8 Mostly Cloudy,7000.0,,FEW,1100.0,BKN,6900.0,BKN,8400.0,,
KRDR,06-26-2011,22:37,SPECI,,330,4.0,,,9999.0,,18.0,18.0,29.74,1008.1,,,,,,,,,,,,,,,7/8 Mostly Cloudy,7500.0,,FEW,1200.0,BKN,7400.0,BKN,11000.0,,
KRDR,06-26-2011,22:26,SPECI,,,0.0,,,9999.0,Light Rain,18.0,18.0,29.74,1008.3,61,,,,,,,,,,,,,,7/8 Mostly Cloudy,11000.0,,SCT,8900.0,BKN,11000.0,,,,
KRDR,06-26-2011,22:00,METAR,,,0.0,,,9999.0,,17.0,17.0,29.75,1008.7,,,,,,,,,,,.1 IN,,,,8/8 Overcast,10000.0,,FEW,2000.0,BKN,9900.0,OVC,12000.0,,
KRDR,06-26-2011,21:32,SPECI,,,0.0,,,9999.0,,17.0,17.0,29.77,1009.2,,,,,,,,,,,,,,,8/8 Overcast,4600.0,,FEW,2000.0,OVC,4700.0,,,,
KRDR,06-26-2011,21:15,SPECI,,,0.0,,,4800.0,Rain/Mist,17.0,17.0,29.77,1009.3,62,10,,,,,,,,,,,,,8/8 Overcast,4900.0,,OVC,5000.0,,,,,,
KRDR,06-26-2011,21:04,SPECI,,300,5.0,,,4000.0,Heavy Rain/Mist,17.0,17.0,29.77,1009.2,63,10,,,,,,,,,,,,,8/8 Overcast,6500.0,,FEW,700.0,OVC,6400.0,,,,
KRDR,06-26-2011,21:00,METAR,,310,7.0,,,4800.0,Heavy Rain/Mist,18.0,18.0,29.77,1009.2,63,10,,,,,,,,,.12 IN,.25 IN,,,8/8 Overcast,7000.0,,FEW,900.0,OVC,6900.0,,,,
KRDR,06-26-2011,20:10,SPECI,,300,6.0,,,9999.0,Light Rain,19.0,19.0,29.77,1009.1,61,,,,,,,,,,,,,,8/8 Overcast,700.0,,FEW,1100.0,BKN,7400.0,OVC,11000.0,,
KRDR,06-26-2011,20:06,SPECI,,290,6.0,,,9999.0,Light Rain,19.0,19.0,29.77,1009.2,61,,,,,,,,,,,,,,8/8 Overcast,700.0,,FEW,700.0,BKN,7900.0,OVC,11000.0,,
KRDR,06-26-2011,20:00,METAR,,,0.0,,,9999.0,,19.0,19.0,29.76,1008.8,,,,,,,,,,,.03 IN,,,,8/8 Overcast,600.0,,SCT,700.0,SCT,8900.0,OVC,11000.0,,
KRDR,06-26-2011,19:49,SPECI,,50,4.0,,,9999.0,Light Drizzle,19.0,19.0,29.75,1008.6,51,,,,,,,,,,,,,,8/8 Overcast,600.0,,SCT,700.0,OVC,11000.0,,,,
KRDR,06-26-2011,19:44,SPECI,,40,5.0,,,9999.0,Light Rain,19.0,19.0,29.74,1008.2,61,,,,,,,,,,,,,,8/8 Overcast,600.0,,BKN,600.0,OVC,11000.0,,,,
KRDR,06-26-2011,19:38,SPECI,,30,7.0,,,9999.0,Light Rain,19.0,19.0,29.73,1007.8,61,,,,,,,,,,,,,,8/8 Overcast,1400.0,,SCT,600.0,BKN,1400.0,OVC,11000.0,,
KRDR,06-26-2011,19:30,SPECI,,30,9.0,,,9999.0,Light Rain,19.0,19.0,29.71,1007.4,61,,,,,,,,,,,,,,8/8 Overcast,2900.0,,SCT,500.0,BKN,2900.0,OVC,11000.0,,
KRDR,06-26-2011,19:07,SPECI,,,0.0,,,9999.0,Light Rain,19.0,19.0,29.74,1008.2,61,,,,,,,,,,,,,,8/8 Overcast,3300.0,,FEW,700.0,OVC,5900.0,,,,
KRDR,06-26-2011,19:00,METAR,,300,7.0,,,4800.0,Heavy Rain/Mist,19.0,19.0,29.75,1008.5,63,10,,,,,,,,,.1 IN,,,,8/8 Overcast,4900.0,,FEW,700.0,SCT,2200.0,OVC,5900.0,,
KRDR,06-26-2011,18:54,SPECI,,310,7.0,,,4000.0,Heavy Rain/Mist,19.0,19.0,29.75,1008.6,63,10,,,,,,,,,,,,,8/8 Overcast,4900.0,,FEW,700.0,OVC,5900.0,,,,
KRDR,06-26-2011,18:45,SPECI,,260,4.0,,,6400.0,Rain/Mist,19.0,19.0,29.76,1008.9,62,10,,,,,,,,,,,,,8/8 Overcast,5500.0,,FEW,700.0,BKN,5400.0,OVC,6400.0,,
KRDR,06-26-2011,18:43,SPECI,,270,3.0,,,6400.0,Rain/Mist,19.0,19.0,29.76,1009.0,62,10,,,,,,,,,,,,,8/8 Overcast,2300.0,,FEW,700.0,BKN,2300.0,OVC,6400.0,,
KRDR,06-26-2011,18:29,SPECI,,260,6.0,,,9999.0,Thunderstorm and Rain or Snow Showers,19.0,19.0,29.77,1009.4,92,,,,,,,,,,,,,,8/8 Overcast,2400.0,,FEW,900.0,BKN,2400.0,OVC,6400.0,,
KRDR,06-26-2011,18:28,SPECI,,260,6.0,,,9999.0,Thunderstorm and Rain or Snow Showers,19.0,19.0,29.78,1009.5,92,,,,,,,,,,,,,,7/8 Mostly Cloudy,2400.0,,BKN,2400.0,BKN,6400.0,,,,
KRDR,06-26-2011,18:03,SPECI,,210,4.0,,,9999.0,Light Rain,19.0,19.0,29.78,1009.5,61,,,,,,,,,,,,,,8/8 Overcast,2000.0,,BKN,2400.0,OVC,2800.0,,,,
KRDR,06-26-2011,18:00,METAR,,220,5.0,,,9999.0,Thunderstorm and Rain or Snow Showers,19.0,19.0,29.78,1009.4,92,,,,,,,,,,.01 IN,,.01 IN,,8/8 Overcast,1900.0,,BKN,2100.0,OVC,2600.0,,,,
KRDR,06-26-2011,17:46,SPECI,,220,6.0,,,9999.0,Thunderstorm and Rain or Snow Showers,19.0,19.0,29.78,1009.5,92,,,,,,,,,,,,,,8/8 Overcast,2000.0,,OVC,2000.0,,,,,,
KRDR,06-26-2011,17:17,SPECI,,210,6.0,,,9999.0,Light Rain,20.0,20.0,29.78,1009.5,61,,,,,,,,,,,,,,7/8 Mostly Cloudy,1800.0,,BKN,1900.0,,,,,,
KRDR,06-26-2011,17:00,METAR,,180,6.0,,,9999.0,,20.0,20.0,29.77,1009.3,,,,,,,,,,,,,,,7/8 Mostly Cloudy,1800.0,,SCT,1300.0,BKN,2000.0,,,,
KRDR,06-26-2011,16:00,SPECI,,190,7.0,,,9999.0,,21.0,21.0,29.76,1009.1,,,,,,,,,,,,,,,7/8 Mostly Cloudy,1500.0,,BKN,1500.0,,,,,,
KRDR,06-26-2011,16:00,METAR,,190,5.0,,,9999.0,,21.0,21.0,29.76,1008.9,,,,,,,,,,,,,,,4/8 Partly Cloudy,72000.0,,,,,,,,,
KRDR,06-26-2011,15:09,SPECI,,210,5.0,,,9999.0,,20.0,20.0,29.76,1009.1,,,,,,,,,,,,,,,4/8 Partly Cloudy,72000.0,,SCT,1500.0,,,,,,
KRDR,06-26-2011,15:08,SPECI,,210,6.0,,,9999.0,,20.0,20.0,29.76,1009.0,,,,,,,,,,,,,,,7/8 Mostly Cloudy,1500.0,,BKN,1500.0,,,,,,
KRDR,06-26-2011,15:05,SPECI,,210,6.0,,,9999.0,,20.0,20.0,29.77,1009.1,,,,,,,,,,,,,,,4/8 Partly Cloudy,72000.0,,SCT,1400.0,,,,,,
KRDR,06-26-2011,15:03,SPECI,,210,6.0,,,9999.0,,20.0,20.0,29.77,1009.2,,,,,,,,,,,,,,,7/8 Mostly Cloudy,1400.0,,BKN,1400.0,,,,,,
KRDR,06-26-2011,15:00,METAR,,220,7.0,,,9999.0,,20.0,20.0,29.77,1009.3,,,,,,,,,,,,,,,7/8 Mostly Cloudy,4500.0,,SCT,1400.0,BKN,4600.0,,,,
KRDR,06-26-2011,14:00,METAR,,240,6.0,,,9999.0,,20.0,20.0,29.79,1009.9,,,,,,,,,,,,,,,Clear,72000.0,,,73000.0,,,,,,
KRDR,06-26-2011,13:00,METAR,,220,4.0,,,9999.0,,18.0,18.0,29.78,1009.6,,,,,,,,,,,,,,,Clear,72000.0,,,73000.0,,,,,,
KRDR,06-26-2011,12:35,SPECI,,230,4.0,,,9999.0,,17.0,17.0,29.78,1009.4,,,,,,,,,,,,,,,4/8 Partly Cloudy,72000.0,,SCT,2900.0,,,,,,
KRDR,06-26-2011,12:00,METAR,,210,3.0,,,9999.0,,16.0,16.0,29.78,1009.5,,,,,,,,,,,,,.04 IN,.53 IN,2/8 Mostly Clear,72000.0,,FEW,2600.0,,,,,,
KRDR,06-26-2011,11:02,SPECI,,,0.0,,,4800.0,Mist,15.0,15.0,29.76,1009.0,10,,,,,,,,,,,,,,4/8 Partly Cloudy,72000.0,,SCT,2800.0,,,,,,
KRDR,06-26-2011,11:00,SPECI,,,0.0,,,3200.0,Mist,15.0,15.0,29.76,1009.1,10,,,,,,,,,,,,,,4/8 Partly Cloudy,72000.0,,SCT,2800.0,,,,,,
KRDR,06-26-2011,10:53,SPECI,,,0.0,,,2800.0,Mist,15.0,15.0,29.76,1009.1,10,,,,,,,,,,,,,,4/8 Partly Cloudy,72000.0,,SCT,2800.0,,,,,,
KRDR,06-26-2011,10:51,SPECI,,,0.0,,,4000.0,Mist,15.0,15.0,29.76,1009.0,10,,,,,,,,,,,,,,2/8 Mostly Clear,72000.0,,FEW,2800.0,,,,,,
KRDR,06-26-2011,10:00,METAR,,,0.0,,,9999.0,,15.0,15.0,29.75,1008.6,,,,,,,,,,,,,,,Clear,72000.0,,,73000.0,,,,,,
KRDR,06-26-2011,09:00,METAR,,150,4.0,,,9999.0,,16.0,16.0,29.76,1008.9,,,,,,,,,,,,.04 IN,,,Clear,72000.0,,,73000.0,,,,,,
KRDR,06-26-2011,08:00,METAR,,190,6.0,,,9999.0,,16.0,16.0,29.78,1009.5,,,,,,,,,,,,,,,Clear,72000.0,,,73000.0,,,,,,
KRDR,06-26-2011,07:00,METAR,,150,14.0,,,9999.0,,16.0,16.0,29.75,1008.6,,,,,,,,,,,.04 IN,,,,2/8 Mostly Clear,72000.0,,FEW,5900.0,,,,,,
KRDR,06-26-2011,06:45,SPECI,,150,14.0,,,9999.0,,16.0,16.0,29.74,1008.4,,,,,,,,,,,,,,,4/8 Partly Cloudy,72000.0,,SCT,6900.0,,,,,,
KRDR,06-26-2011,06:41,SPECI,,130,16.0,,,9999.0,,16.0,16.0,29.74,1008.1,,,,,,,,,,,,,,,7/8 Mostly Cloudy,7000.0,,BKN,6900.0,,,,,,
KRDR,06-26-2011,06:22,SPECI,,90,13.0,,,9999.0,Light Rain,16.0,16.0,29.72,1007.7,61,,,,,,,,,,,,,,8/8 Overcast,7000.0,,OVC,7900.0,,,,,,
KRDR,06-26-2011,06:07,SPECI,,150,8.0,,,9999.0,Thunderstorm and Rain or Snow Showers,16.0,16.0,29.79,1009.8,92,,,,,,,,,,,,,,8/8 Overcast,9000.0,,OVC,8900.0,,,,,,
KRDR,06-26-2011,06:00,SPECI,,160,7.0,,,9999.0,Light Rain,16.0,16.0,29.80,1010.3,61,,,,,,,,,,,,,,8/8 Overcast,8000.0,,OVC,7900.0,,,,,,
KRDR,06-26-2011,06:00,METAR,,190,7.0,,,9999.0,Thunderstorm and Rain or Snow Showers,16.0,16.0,29.81,1010.5,92,,,,,,,,,,.49 IN,,.49 IN,,8/8 Overcast,8000.0,,,,,,,,,
KRDR,06-26-2011,05:34,SPECI,,160,4.0,,,4800.0,Thunderstorm and Rain or Snow Showers/Mist,16.0,16.0,29.81,1010.7,92,10,,,,,,,,,,,,,8/8 Overcast,4900.0,,OVC,5000.0,,,,,,
KRDR,06-26-2011,05:33,SPECI,,170,5.0,,,4000.0,Heavy Thunderstorm and Rain or Snow Showers/Mist,16.0,16.0,29.81,1010.6,95,10,,,,,,,,,,,,,8/8 Overcast,4600.0,,OVC,4700.0,,,,,,
KRDR,06-26-2011,05:24,SPECI,,220,7.0,,,3200.0,Heavy Thunderstorm and Rain or Snow Showers/Mist,16.0,16.0,29.83,1011.3,95,10,,,,,,,,,,,,,8/8 Overcast,4300.0,,OVC,4400.0,,,,,,
KRDR,06-26-2011,05:23,SPECI,,230,7.0,15.0,,3200.0,Heavy Rain/Mist,17.0,16.0,29.83,1011.3,63,10,,,,,,,,,,,,,8/8 Overcast,4100.0,,OVC,4200.0,,,,,,
KRDR,06-26-2011,05:20,SPECI,,260,7.0,15.0,,2400.0,Heavy Rain/Mist,17.0,17.0,29.83,1011.2,63,10,,,,,,,,,,,,,8/8 Overcast,3600.0,,FEW,3000.0,OVC,3700.0,,,,
KRDR,06-26-2011,05:18,SPECI,,280,7.0,15.0,,2000.0,Heavy Rain/Mist,17.0,17.0,29.83,1011.3,63,10,,,,,,,,,,,,,8/8 Overcast,3200.0,,BKN,3300.0,OVC,5000.0,,,,
KRDR,06-26-2011,05:17,SPECI,,280,9.0,15.0,,2400.0,Heavy Rain/Mist,17.0,17.0,29.83,1011.3,63,10,,,,,,,,,,,,,8/8 Overcast,3000.0,,BKN,3000.0,OVC,5000.0,,,,
KRDR,06-26-2011,05:15,SPECI,,280,10.0,15.0,,2400.0,Heavy Rain/Mist,17.0,17.0,29.83,1011.3,63,10,,,,,,,,,,,,,8/8 Overcast,2800.0,,BKN,2800.0,OVC,5000.0,,,,
KRDR,06-26-2011,05:09,SPECI,,260,10.0,,,2000.0,Heavy Rain/Mist,18.0,18.0,29.83,1011.3,63,10,,,,,,,,,,,,,7/8 Mostly Cloudy,2900.0,,BKN,2900.0,BKN,4900.0,,,,
KRDR,06-26-2011,05:07,SPECI,,260,12.0,,,2000.0,Heavy Rain/Mist,18.0,18.0,29.84,1011.4,63,10,,,,,,,,,,,,,7/8 Mostly Cloudy,3100.0,,BKN,3200.0,BKN,4900.0,,,,
KRDR,06-26-2011,05:05,SPECI,,280,13.0,25.0,,2400.0,Heavy Rain/Mist,19.0,19.0,29.84,1011.4,63,10,,,,,,,,,,,,,7/8 Mostly Cloudy,3400.0,,FEW,2900.0,BKN,3500.0,BKN,4900.0,,
KRDR,06-26-2011,05:04,SPECI,,280,13.0,25.0,,2800.0,Heavy Rain/Mist,19.0,19.0,29.83,1011.2,63,10,,,,,,,,,,,,,7/8 Mostly Cloudy,4800.0,,FEW,2900.0,SCT,3800.0,BKN,4900.0,,
KRDR,06-26-2011,05:03,SPECI,,270,13.0,25.0,,4000.0,Light Rain/Mist,19.0,19.0,29.83,1011.2,61,10,,,,,,,,,,,,,7/8 Mostly Cloudy,4800.0,,FEW,2900.0,SCT,4100.0,BKN,4900.0,,
KRDR,06-26-2011,05:00,METAR,,270,18.0,25.0,,9999.0,Light Rain,21.0,18.0,29.82,1010.9,61,,,,,,,,,,,,,,7/8 Mostly Cloudy,4900.0,,FEW,3200.0,BKN,5000.0,BKN,5900.0,,
KRDR,06-26-2011,04:57,SPECI,,270,17.0,25.0,,9999.0,,21.0,18.0,29.82,1010.9,,,,,,,,,,,,,,,7/8 Mostly Cloudy,4900.0,,FEW,3200.0,BKN,5000.0,BKN,5900.0,,
KRDR,06-26-2011,04:00,METAR,,180,12.0,,,9999.0,,22.0,22.0,29.77,1009.2,,,,,,,,,,,,,,,2/8 Mostly Clear,72000.0,,FEW,4000.0,,,,,,
KRDR,06-26-2011,03:00,METAR,,150,11.0,,,9999.0,,22.0,22.0,29.75,1008.6,,,,,,,,,,,,,,,Clear,72000.0,,,73000.0,,,,,,
KRDR,06-26-2011,02:00,METAR,,160,9.0,,,9999.0,,23.0,23.0,29.75,1008.6,,,,,,,,,,,,,,,Clear,72000.0,,,73000.0,,,,,,
KRDR,06-26-2011,01:00,METAR,,160,10.0,,,9999.0,,24.0,22.0,29.74,1008.4,,,,,,,,,,,,,,,Clear,72000.0,,,73000.0,,,,,,
KRDR,06-26-2011,00:00,METAR,,180,12.0,,,9999.0,,25.0,20.0,29.75,1008.6,,,,,,,,,,,,,,,Clear,72000.0,,,73000.0,,,,,,
KRDR,06-25-2011,23:00,METAR,,160,14.0,,,9999.0,,25.0,20.0,29.76,1008.9,,,,,,,,,,,,,,,4/8 Partly Cloudy,72000.0,,SCT,2800.0,SCT,3700.0,,,,
KRDR,06-25-2011,22:00,METAR,,160,12.0,,,9999.0,,25.0,20.0,29.77,1009.4,,,,,,,,,,,,,,,2/8 Mostly Clear,72000.0,,FEW,4400.0,,,,,,
KRDR,06-25-2011,21:00,METAR,,150,12.0,,,9999.0,,26.0,20.0,29.78,1009.6,,,,,,,,,,,,,,,7/8 Mostly Cloudy,3300.0,,BKN,3400.0,,,,,,
KRDR,06-25-2011,20:00,METAR,,180,11.0,,,9999.0,,26.0,19.0,29.78,1009.7,,,,,,,,,,,,,,,2/8 Mostly Clear,72000.0,,FEW,3300.0,,,,,,
KRDR,06-25-2011,19:00,METAR,,170,10.0,,,9999.0,,25.0,19.0,29.79,1009.9,,,,,,,,,,,,,,,Clear,72000.0,,,73000.0,,,,,,
KRDR,06-25-2011,18:00,METAR,,170,10.0,,,9999.0,,24.0,19.0,29.81,1010.6,,,,,,,,,,,,,,,Clear,72000.0,,,73000.0,,,,,,
KRDR,06-25-2011,17:00,METAR,,160,10.0,,,9999.0,,23.0,19.0,29.82,1010.8,,,,,,,,,,,,,,,Clear,72000.0,,,73000.0,,,,,,
KRDR,06-25-2011,16:00,METAR,,200,8.0,,,9999.0,,22.0,18.0,29.82,1010.9,,,,,,,,,,,,,,,Clear,72000.0,,,73000.0,,,,,,
KRDR,06-25-2011,15:00,METAR,,170,8.0,,,9999.0,,21.0,17.0,29.81,1010.6,,,,,,,,,,,,,,,Clear,72000.0,,,73000.0,,,,,,
KRDR,06-25-2011,14:00,METAR,,170,9.0,,,9999.0,,20.0,17.0,29.82,1010.8,,,,,,,,,,,,,,,Clear,72000.0,,,73000.0,,,,,,
KRDR,06-25-2011,13:00,METAR,,130,7.0,,,9999.0,,18.0,18.0,29.80,1010.3,,,,,,,,,,,,,,,Clear,72000.0,,,73000.0,,,,,,
KRDR,06-25-2011,12:00,METAR,,150,6.0,,,9999.0,,17.0,17.0,29.80,1010.3,,,,,,,,,,,,,,,Clear,72000.0,,,73000.0,,,,,,
KRDR,06-25-2011,11:00,METAR,,150,3.0,,,9999.0,,15.0,15.0,29.80,1010.3,,,,,,,,,,,,,,,Clear,72000.0,,,73000.0,,,,,,
KRDR,06-25-2011,10:00,METAR,,170,6.0,,,9999.0,,16.0,16.0,29.82,1010.8,,,,,,,,,,,,,,,7/8 Mostly Cloudy,10000.0,,BKN,9900.0,,,,,,
KRDR,06-25-2011,09:00,METAR,,150,6.0,,,9999.0,,17.0,17.0,29.82,1011.0,,,,,,,,,,,,,,,8/8 Overcast,8500.0,,FEW,4500.0,OVC,8400.0,,,,
KRDR,06-25-2011,08:00,METAR,,160,5.0,,,9999.0,,17.0,17.0,29.83,1011.1,,,,,,,,,,,,,,,8/8 Overcast,8000.0,,OVC,7900.0,,,,,,
KRDR,06-25-2011,07:00,METAR,,160,4.0,,,9999.0,,17.0,17.0,29.84,1011.4,,,,,,,,,,,,,,,8/8 Overcast,8000.0,,SCT,8900.0,OVC,11000.0,,,,
KRDR,06-25-2011,06:00,METAR,,160,4.0,,,9999.0,,16.0,16.0,29.82,1011.0,,,,,,,,,,,,,,,Clear,72000.0,,,73000.0,,,,,,
KRDR,06-25-2011,05:00,METAR,,140,3.0,,,9999.0,,17.0,17.0,29.83,1011.3,,,,,,,,,,,,,,,Clear,72000.0,,,73000.0,,,,,,
KRDR,06-25-2011,04:00,METAR,,130,4.0,,,9999.0,,18.0,18.0,29.83,1011.4,,,,,,,,,,,,,,,8/8 Overcast,11000.0,,FEW,8400.0,OVC,11000.0,,,,
KRDR,06-25-2011,03:00,METAR,,210,4.0,,,9999.0,,18.0,18.0,29.84,1011.5,,,,,,,,,,,,,,,8/8 Overcast,12000.0,,OVC,12000.0,,,,,,
KRDR,06-25-2011,02:00,METAR,,210,5.0,,,9999.0,,20.0,19.0,29.81,1010.7,,,,,,,,,,,,,,,8/8 Overcast,11000.0,,OVC,11000.0,,,,,,
KRDR,06-25-2011,01:00,METAR,,210,6.0,,,9999.0,,21.0,18.0,29.81,1010.5,,,,,,,,,,,,,,,Clear,72000.0,,,73000.0,,,,,,
KRDR,06-25-2011,00:00,METAR,,180,6.0,,,9999.0,,22.0,16.0,29.82,1011.0,,,,,,,,,,,,,,,7/8 Mostly Cloudy,11000.0,,BKN,11000.0,,,,,,
KRDR,06-24-2011,23:00,METAR,,210,6.0,,,9999.0,,22.0,14.0,29.82,1011.1,,,,,,,,,,,,,,,7/8 Mostly Cloudy,12000.0,,SCT,4500.0,BKN,12000.0,,,,
KRDR,06-24-2011,22:00,METAR,,170,7.0,,,9999.0,,23.0,15.0,29.83,1011.1,,,,,,,,,,,,,,,Clear,72000.0,,,73000.0,,,,,,
KRDR,06-24-2011,21:00,METAR,,180,8.0,,,9999.0,,23.0,14.0,29.83,1011.4,,,,,,,,,,,,,,,2/8 Mostly Clear,72000.0,,FEW,12000.0,,,,,,
KRDR,06-24-2011,20:00,METAR,,200,8.0,,,9999.0,,23.0,14.0,29.84,1011.5,,,,,,,,,,,,,,,2/8 Mostly Clear,72000.0,,FEW,4700.0,,,,,,
KRDR,06-24-2011,19:00,METAR,,200,8.0,,,9999.0,,24.0,14.0,29.84,1011.7,,,,,,,,,,,,,,,Clear,72000.0,,,73000.0,,,,,,
KRDR,06-24-2011,18:00,METAR,,180,8.0,,,9999.0,,23.0,14.0,29.85,1011.8,,,,,,,,,,,,,,,Clear,72000.0,,,73000.0,,,,,,
KRDR,06-24-2011,17:00,METAR,,160,7.0,,,9999.0,,22.0,18.0,29.84,1011.6,,,,,,,,,,,,,,,Clear,72000.0,,,73000.0,,,,,,
KRDR,06-24-2011,16:00,METAR,,150,7.0,,,9999.0,,21.0,19.0,29.85,1011.9,,,,,,,,,,,,,,,Clear,72000.0,,,73000.0,,,,,,
KRDR,06-24-2011,15:00,METAR,,150,5.0,,,9999.0,,19.0,19.0,29.85,1012.0,,,,,,,,,,,,,,,Clear,72000.0,,,73000.0,,,,,,
KRDR,06-24-2011,14:00,METAR,,170,5.0,,,9999.0,,18.0,18.0,29.86,1012.3,,,,,,,,,,,,,,,2/8 Mostly Clear,72000.0,,FEW,5900.0,,,,,,
KRDR,06-24-2011,13:00,METAR,,140,4.0,,,9999.0,,17.0,17.0,29.86,1012.2,,,,,,,,,,,,,,,Clear,72000.0,,,73000.0,,,,,,
KRDR,06-24-2011,12:00,METAR,,,0.0,,,9999.0,,14.0,14.0,29.85,1011.9,,,,,,,,,,,,,,,Clear,72000.0,,,73000.0,,,,,,
KRDR,06-24-2011,11:00,METAR,,,0.0,,,8000.0,Mist,12.0,12.0,29.84,1011.4,10,,,,,,,,,,,,,,Clear,72000.0,,,73000.0,,,,,,
KRDR,06-24-2011,10:00,METAR,,,0.0,,,9999.0,,13.0,13.0,29.82,1011.0,,,,,,,,,,,,,,,Clear,72000.0,,,73000.0,,,,,,
KRDR,06-24-2011,07:00,METAR,,,0.0,,,9999.0,,14.0,14.0,29.86,1012.2,,,,,,,,,,,,,,,Clear,72000.0,,,73000.0,,,,,,
KRDR,06-24-2011,06:00,METAR,,270,3.0,,,9999.0,Mist,14.0,14.0,29.85,1011.9,10,,,,,,,,,,,,,,Clear,72000.0,,,73000.0,,,,,,
KRDR,06-24-2011,05:29,SPECI,,,0.0,,,4800.0,Mist,15.0,15.0,29.85,1011.7,10,,,,,,,,,,,,,,Clear,72000.0,,,73000.0,,,,,,
KRDR,06-24-2011,05:20,SPECI,,,0.0,,,4000.0,Mist,15.0,15.0,29.85,1011.7,10,,,,,,,,,,,,,,Clear,72000.0,,,73000.0,,,,,,
KRDR,06-24-2011,05:00,METAR,,,0.0,,,9999.0,,16.0,16.0,29.84,1011.5,,,,,,,,,,,,,,,Clear,72000.0,,,73000.0,,,,,,
KRDR,06-24-2011,04:00,METAR,,,0.0,,,9999.0,,17.0,17.0,29.84,1011.5,,,,,,,,,,,,,,,Clear,72000.0,,,73000.0,,,,,,
KRDR,06-24-2011,03:00,METAR,,,0.0,,,9999.0,,18.0,18.0,29.84,1011.5,,,,,,,,,,,,,,,Clear,72000.0,,,73000.0,,,,,,
KRDR,06-24-2011,02:00,METAR,,40,3.0,,,9999.0,,20.0,15.0,29.83,1011.3,,,,,,,,,,,,,,,Clear,72000.0,,,73000.0,,,,,,
KRDR,06-24-2011,01:00,METAR,,360,4.0,,,9999.0,,22.0,14.0,29.84,1011.6,,,,,,,,,,,,,,,Clear,72000.0,,,73000.0,,,,,,
KRDR,06-24-2011,00:00,METAR,,10,8.0,,,9999.0,,23.0,13.0,29.85,1011.9,,,,,,,,,,,,,,,Clear,72000.0,,,73000.0,,,,,,
KRDR,06-23-2011,23:00,METAR,,360,8.0,,,9999.0,,24.0,11.0,29.85,1011.8,,,,,,,,,,,,,,,Clear,72000.0,,,73000.0,,,,,,
KRDR,06-23-2011,22:00,METAR,,10,11.0,,,9999.0,,24.0,12.0,29.86,1012.1,,,,,,,,,,,,,,,Clear,72000.0,,,73000.0,,,,,,
KRDR,06-23-2011,21:00,METAR,,20,11.0,,,9999.0,,24.0,12.0,29.86,1012.1,,,,,,,,,,,,,,,Clear,72000.0,,,73000.0,,,,,,
KRDR,06-23-2011,19:00,METAR,,360,10.0,,,9999.0,,23.0,14.0,29.86,1012.3,,,,,,,,,,,,,,,Clear,72000.0,,,73000.0,,,,,,
KRDR,06-23-2011,18:00,METAR,,10,11.0,,,9999.0,,22.0,15.0,29.87,1012.6,,,,,,,,,,,,,TRACE,,Clear,72000.0,,,73000.0,,,,,,
KRDR,06-23-2011,17:00,METAR,,360,8.0,,,9999.0,,20.0,15.0,29.88,1012.9,,,,,,,,,,,,,,,Clear,72000.0,,,73000.0,,,,,,
KRDR,06-23-2011,16:00,METAR,,350,8.0,,,9999.0,,19.0,16.0,29.89,1013.2,,,,,,,,,,,,,,,Clear,72000.0,,,73000.0,,,,,,
KRDR,06-23-2011,15:00,METAR,,10,9.0,,,9999.0,,18.0,16.0,29.89,1013.2,,,,,,,,,,,,TRACE,,,4/8 Partly Cloudy,72000.0,,SCT,8900.0,,,,,,
KRDR,06-23-2011,14:00,METAR,,340,8.0,,,9999.0,,17.0,16.0,29.89,1013.4,,,,,,,,,,,TRACE,,,,Clear,72000.0,,,73000.0,,,,,,
KRDR,06-23-2011,13:08,SPECI,,340,5.0,,,9999.0,,16.0,16.0,29.89,1013.3,,,,,,,,,,,,,,,Clear,72000.0,,,73000.0,,,,,,
KRDR,06-23-2011,13:00,METAR,,340,5.0,,,4800.0,Light Rain/Mist,16.0,16.0,29.89,1013.3,61,10,,,,,,,,,,,,,2/8 Mostly Clear,72000.0,,FEW,9900.0,,,,,,
KRDR,06-23-2011,12:00,METAR,,320,3.0,,,9999.0,,14.0,14.0,29.89,1013.3,,,,,,,,,,,,,TRACE,.22 IN,Clear,12000.0,,,73000.0,,,,,,
KRDR,06-23-2011,11:00,METAR,,330,4.0,,,9999.0,,12.0,12.0,29.88,1013.0,,,,,,,,,,,,,,,4/8 Partly Cloudy,72000.0,,SCT,9900.0,,,,,,
KRDR,06-23-2011,10:00,METAR,,350,5.0,,,9999.0,,14.0,14.0,29.87,1012.6,,,,,,,,,,,,,,,8/8 Overcast,10000.0,,OVC,9900.0,,,,,,
KRDR,06-23-2011,09:00,METAR,,350,6.0,,,9999.0,,14.0,14.0,29.87,1012.6,,,,,,,,,,,TRACE,0 IN,,,8/8 Overcast,9000.0,,OVC,8900.0,,,,,,
KRDR,06-23-2011,08:16,SPECI,,350,6.0,,,9999.0,,13.0,13.0,29.87,1012.6,,,,,,,,,,,,,,,4/8 Partly Cloudy,72000.0,,SCT,9900.0,,,,,,
KRDR,06-23-2011,08:06,SPECI,,20,5.0,,,9999.0,Light Rain,13.0,13.0,29.88,1012.7,61,,,,,,,,,,,,,,4/8 Partly Cloudy,72000.0,,SCT,8900.0,,,,,,
KRDR,06-23-2011,08:00,METAR,,20,5.0,,,9999.0,,14.0,14.0,29.87,1012.7,,,,,,,,,,,,,,,7/8 Mostly Cloudy,9000.0,,BKN,8900.0,,,,,,
KRDR,06-23-2011,07:00,METAR,,30,5.0,,,9999.0,,14.0,14.0,29.86,1012.2,,,,,,,,,,,,,,,7/8 Mostly Cloudy,7000.0,,SCT,7400.0,BKN,8900.0,,,,
KRDR,06-23-2011,06:00,METAR,,330,11.0,,,9999.0,,14.0,14.0,29.85,1011.9,,,,,,,,,,,,,.03 IN,,8/8 Overcast,9000.0,,SCT,6400.0,BKN,8900.0,OVC,11000.0,,
KRDR,06-23-2011,05:00,METAR,,350,9.0,,,9999.0,,14.0,14.0,29.85,1012.0,,,,,,,,,,,TRACE,,,,7/8 Mostly Cloudy,11000.0,,BKN,11000.0,,,,,,
KRDR,06-23-2011,04:26,SPECI,,360,10.0,,,9999.0,,14.0,14.0,29.85,1012.0,,,,,,,,,,,,,,,4/8 Partly Cloudy,72000.0,,SCT,5000.0,,,,,,
KRDR,06-23-2011,04:00,METAR,,10,9.0,,,9999.0,Light Rain,14.0,14.0,29.85,1012.0,61,,,,,,,,,,.01 IN,,,,8/8 Overcast,4900.0,,OVC,5000.0,,,,,,
KRDR,06-23-2011,03:00,METAR,,10,10.0,,,9999.0,,14.0,14.0,29.85,1012.0,,,,,,,,,,,TRACE,.02 IN,,,8/8 Overcast,700.0,,BKN,700.0,OVC,4500.0,,,,
KRDR,06-23-2011,02:47,SPECI,,10,11.0,,,9999.0,,14.0,14.0,29.85,1012.0,,,,,,,,,,,,,,,8/8 Overcast,700.0,,BKN,700.0,OVC,4400.0,,,,
KRDR,06-23-2011,02:39,SPECI,,10,13.0,,,9999.0,,14.0,14.0,29.85,1011.9,,,,,,,,,,,,,,,8/8 Overcast,600.0,,OVC,600.0,,,,,,
KRDR,06-23-2011,02:14,SPECI,,10,13.0,,,9999.0,Light Rain,14.0,14.0,29.85,1011.7,61,,,,,,,,,,,,,,8/8 Overcast,600.0,,OVC,600.0,,,,,,
KRDR,06-23-2011,02:00,SPECI,,10,13.0,,,9999.0,,14.0,14.0,29.85,1011.7,,,,,,,,,,,,,,,8/8 Overcast,600.0,,,,,,,,,
KRDR,06-23-2011,02:00,METAR,,10,12.0,,,9999.0,Light Rain,14.0,14.0,29.84,1011.7,61,,,,,,,,,,.01 IN,,,,8/8 Overcast,700.0,,OVC,700.0,,,,,,
KRDR,06-23-2011,01:58,SPECI,,20,13.0,,,9999.0,Light Drizzle,14.0,14.0,29.84,1011.7,51,,,,,,,,,,,,,,8/8 Overcast,600.0,,OVC,600.0,,,,,,
KRDR,06-23-2011,01:39,SPECI,,10,13.0,18.0,,9999.0,Light Rain,14.0,14.0,29.85,1011.7,61,,,,,,,,,,,,,,8/8 Overcast,700.0,,OVC,700.0,,,,,,
KRDR,06-23-2011,01:34,SPECI,,10,15.0,22.0,,9999.0,Light Rain,14.0,14.0,29.84,1011.7,61,,,,,,,,,,,,,,8/8 Overcast,500.0,,OVC,900.0,,,,,,
KRDR,06-23-2011,01:32,SPECI,,10,13.0,22.0,,9999.0,Light Rain,14.0,14.0,29.85,1011.7,61,,,,,,,,,,,,,,8/8 Overcast,500.0,,FEW,700.0,OVC,1100.0,,,,
KRDR,06-23-2011,01:30,SPECI,,10,13.0,22.0,,9999.0,Light Rain,14.0,14.0,29.84,1011.7,61,,,,,,,,,,,,,,8/8 Overcast,500.0,,FEW,700.0,OVC,1400.0,,,,
KRDR,06-23-2011,01:12,SPECI,,20,12.0,,,9999.0,Light Rain,14.0,14.0,29.84,1011.6,61,,,,,,,,,,,,,,8/8 Overcast,2800.0,,SCT,700.0,BKN,2800.0,OVC,3500.0,,
KRDR,06-23-2011,01:00,METAR,,20,13.0,21.0,,9999.0,Light Rain,14.0,14.0,29.84,1011.4,61,,,,,,,,,,.01 IN,,,,8/8 Overcast,2900.0,,SCT,700.0,OVC,2900.0,,,,
KRDR,06-23-2011,00:23,SPECI,,20,12.0,,,9999.0,Light Rain,14.0,14.0,29.83,1011.3,61,,,,,,,,,,,,,,8/8 Overcast,1600.0,,FEW,700.0,OVC,1600.0,,,,
KRDR,06-23-2011,00:21,SPECI,,20,13.0,,,9999.0,Light Rain,14.0,14.0,29.83,1011.3,61,,,,,,,,,,,,,,8/8 Overcast,600.0,,FEW,700.0,OVC,1300.0,,,,
KRDR,06-23-2011,00:15,SPECI,,30,14.0,,,9999.0,Light Rain/Mist,14.0,14.0,29.83,1011.2,61,10,,,,,,,,,,,,,8/8 Overcast,600.0,,SCT,700.0,OVC,1100.0,,,,
KRDR,06-23-2011,00:12,SPECI,,30,14.0,,,9999.0,Mist,14.0,14.0,29.83,1011.2,10,,,,,,,,,,,,,,8/8 Overcast,900.0,,OVC,900.0,,,,,,
KRDR,06-23-2011,00:07,SPECI,,30,12.0,,,6400.0,Light Rain/Mist,14.0,14.0,29.83,1011.2,61,10,,,,,,,,,,,,,8/8 Overcast,900.0,,OVC,900.0,,,,,,
KRDR,06-23-2011,00:00,METAR,,30,12.0,,,4800.0,Light Rain/Mist,14.0,14.0,29.83,1011.2,61,10,,,,,,,,,.03 IN,,.14 IN,,8/8 Overcast,600.0,,OVC,1000.0,,,,,,
KRDR,06-22-2011,23:35,SPECI,,30,12.0,,,4800.0,Light Rain/Mist,14.0,14.0,29.83,1011.1,61,10,,,,,,,,,,,,,8/8 Overcast,500.0,,FEW,700.0,OVC,1100.0,,,,
KRDR,06-22-2011,23:33,SPECI,,30,11.0,,,4800.0,Light Rain/Mist,14.0,14.0,29.83,1011.1,61,10,,,,,,,,,,,,,8/8 Overcast,500.0,,OVC,900.0,,,,,,
KRDR,06-22-2011,23:07,SPECI,,40,12.0,,,4000.0,Light Rain/Mist,14.0,14.0,29.82,1010.8,61,10,,,,,,,,,,,,,8/8 Overcast,800.0,,OVC,800.0,,,,,,
KRDR,06-22-2011,23:00,METAR,,50,14.0,,,6400.0,Light Rain/Mist,14.0,14.0,29.81,1010.6,61,10,,,,,,,,,.03 IN,,,,8/8 Overcast,500.0,,OVC,900.0,,,,,,
KRDR,06-22-2011,22:50,SPECI,,50,15.0,,,6400.0,Light Rain/Mist,14.0,14.0,29.81,1010.6,61,10,,,,,,,,,,,,,8/8 Overcast,900.0,,OVC,900.0,,,,,,
KRDR,06-22-2011,22:46,SPECI,,40,16.0,,,6400.0,Light Rain/Mist,14.0,14.0,29.81,1010.5,61,10,,,,,,,,,,,,,8/8 Overcast,600.0,,SCT,600.0,OVC,1000.0,,,,
KRDR,06-22-2011,22:39,SPECI,,40,12.0,,,4800.0,Light Rain/Mist,14.0,14.0,29.81,1010.5,61,10,,,,,,,,,,,,,8/8 Overcast,500.0,,OVC,900.0,,,,,,
KRDR,06-22-2011,22:30,SPECI,,40,14.0,21.0,,6400.0,Light Rain/Mist,14.0,14.0,29.81,1010.5,61,10,,,,,,,,,,,,,8/8 Overcast,600.0,,FEW,700.0,OVC,1100.0,,,,
KRDR,06-22-2011,22:24,SPECI,,30,14.0,21.0,,4800.0,Light Rain/Mist,14.0,14.0,29.80,1010.4,61,10,,,,,,,,,,,,,8/8 Overcast,500.0,,FEW,700.0,OVC,1200.0,,,,
KRDR,06-22-2011,22:18,SPECI,,30,15.0,20.0,,4000.0,Light Rain/Mist,15.0,15.0,29.80,1010.3,61,10,,,,,,,,,,,,,8/8 Overcast,500.0,,FEW,700.0,OVC,1300.0,,,,
KRDR,06-22-2011,22:15,SPECI,,30,12.0,,,4000.0,Light Rain/Mist,15.0,15.0,29.80,1010.3,61,10,,,,,,,,,,,,,8/8 Overcast,500.0,,OVC,1400.0,,,,,,
KRDR,06-22-2011,22:14,SPECI,,30,11.0,,,4800.0,Light Rain/Mist,15.0,15.0,29.80,1010.3,61,10,,,,,,,,,,,,,8/8 Overcast,500.0,,FEW,700.0,OVC,1400.0,,,,
KRDR,06-22-2011,22:12,SPECI,,30,11.0,,,4800.0,Light Rain/Mist,15.0,15.0,29.80,1010.3,61,10,,,,,,,,,,,,,8/8 Overcast,500.0,,FEW,700.0,OVC,1500.0,,,,
KRDR,06-22-2011,22:08,SPECI,,30,13.0,,,4800.0,Light Rain/Mist,15.0,15.0,29.80,1010.3,61,10,,,,,,,,,,,,,8/8 Overcast,500.0,,FEW,700.0,OVC,1300.0,,,,
KRDR,06-22-2011,22:00,METAR,,40,9.0,,,4000.0,Light Rain/Mist,15.0,15.0,29.80,1010.3,61,10,,,,,,,,,,,,,8/8 Overcast,500.0,,FEW,700.0,OVC,1400.0,,,,
KRDR,06-22-2011,21:49,SPECI,,50,12.0,,,6400.0,Light Rain/Mist,15.0,15.0,29.80,1010.2,61,10,,,,,,,,,,,,,8/8 Overcast,600.0,,SCT,700.0,OVC,1500.0,,,,
KRDR,06-22-2011,21:47,SPECI,,40,11.0,,,6400.0,Light Rain/Mist,15.0,15.0,29.80,1010.2,61,10,,,,,,,,,,,,,8/8 Overcast,600.0,,SCT,700.0,OVC,1300.0,,,,
KRDR,06-22-2011,21:39,SPECI,,50,9.0,,,6400.0,Light Rain/Mist,14.0,14.0,29.80,1010.1,61,10,,,,,,,,,,,,,8/8 Overcast,500.0,,SCT,700.0,OVC,1100.0,,,,
KRDR,06-22-2011,21:24,SPECI,,60,12.0,,,4800.0,Light Rain/Mist,14.0,14.0,29.79,1009.9,61,10,,,,,,,,,,,,,8/8 Overcast,500.0,,FEW,600.0,OVC,1400.0,,,,
KRDR,06-22-2011,21:22,SPECI,,60,10.0,,,3200.0,Light Rain/Mist,14.0,14.0,29.79,1009.9,61,10,,,,,,,,,,,,,8/8 Overcast,500.0,,FEW,600.0,OVC,1400.0,,,,
KRDR,06-22-2011,21:18,SPECI,,60,11.0,,,2400.0,Light Rain/Mist,14.0,14.0,29.79,1009.9,61,10,,,,,,,,,,,,,8/8 Overcast,500.0,,FEW,600.0,OVC,1200.0,,,,
KRDR,06-22-2011,21:17,SPECI,,60,11.0,,,2000.0,Light Rain/Mist,14.0,14.0,29.79,1009.9,61,10,,,,,,,,,,,,,8/8 Overcast,500.0,,FEW,600.0,OVC,1000.0,,,,
KRDR,06-22-2011,21:12,SPECI,,50,9.0,,,2800.0,Light Rain/Mist,14.0,14.0,29.79,1009.8,61,10,,,,,,,,,,,,,8/8 Overcast,500.0,,FEW,600.0,OVC,1000.0,,,,
KRDR,06-22-2011,21:09,SPECI,,50,11.0,,,4000.0,Light Rain/Mist,15.0,15.0,29.78,1009.7,61,10,,,,,,,,,,,,,8/8 Overcast,500.0,,FEW,600.0,OVC,1100.0,,,,
KRDR,06-22-2011,21:05,SPECI,,50,12.0,,,6400.0,Light Rain/Mist,15.0,15.0,29.78,1009.7,61,10,,,,,,,,,,,,,8/8 Overcast,500.0,,FEW,600.0,OVC,1100.0,,,,
KRDR,06-22-2011,21:01,SPECI,,50,13.0,,,8000.0,Light Rain/Mist,15.0,15.0,29.78,1009.7,61,10,,,,,,,,,,,,,8/8 Overcast,500.0,,FEW,600.0,OVC,1200.0,,,,
KRDR,06-22-2011,21:00,METAR,,50,10.0,,,2800.0,Light Rain/Mist,15.0,15.0,29.78,1009.7,61,10,,,,,,,,,.05 IN,,,,8/8 Overcast,800.0,,OVC,800.0,,,,,,
KRDR,06-22-2011,20:54,SPECI,,50,10.0,,,3200.0,Light Rain/Mist,15.0,15.0,29.78,1009.7,61,10,,,,,,,,,,,,,8/8 Overcast,500.0,,OVC,1000.0,,,,,,
KRDR,06-22-2011,20:53,SPECI,,50,10.0,,,2800.0,Light Rain/Mist,15.0,15.0,29.78,1009.7,61,10,,,,,,,,,,,,,8/8 Overcast,500.0,,OVC,1000.0,,,,,,
KRDR,06-22-2011,20:41,SPECI,,30,11.0,,,2800.0,Light Rain/Mist,15.0,15.0,29.78,1009.6,61,10,,,,,,,,,,,,,8/8 Overcast,500.0,,OVC,900.0,,,,,,
KRDR,06-22-2011,20:39,SPECI,,20,11.0,,,3200.0,Light Rain/Mist,14.0,14.0,29.78,1009.6,61,10,,,,,,,,,,,,,8/8 Overcast,500.0,,OVC,900.0,,,,,,
KRDR,06-22-2011,20:35,SPECI,,30,12.0,,,4000.0,Light Rain/Mist,14.0,14.0,29.78,1009.5,61,10,,,,,,,,,,,,,8/8 Overcast,400.0,,OVC,1000.0,,,,,,
KRDR,06-22-2011,20:29,SPECI,,30,11.0,,,9999.0,Light Rain/Mist,15.0,15.0,29.78,1009.5,61,10,,,,,,,,,,,,,8/8 Overcast,500.0,,FEW,700.0,OVC,1100.0,,,,
KRDR,06-22-2011,20:27,SPECI,,30,9.0,,,9999.0,Light Rain,14.0,14.0,29.78,1009.4,61,,,,,,,,,,,,,,8/8 Overcast,500.0,,FEW,700.0,OVC,1200.0,,,,
KRDR,06-22-2011,20:25,SPECI,,30,11.0,,,9999.0,Light Rain,14.0,14.0,29.77,1009.4,61,,,,,,,,,,,,,,8/8 Overcast,500.0,,OVC,1100.0,,,,,,
KRDR,06-22-2011,20:23,SPECI,,30,10.0,,,8000.0,Light Rain/Mist,14.0,14.0,29.77,1009.4,61,10,,,,,,,,,,,,,8/8 Overcast,500.0,,BKN,900.0,OVC,1400.0,,,,
KRDR,06-22-2011,20:18,SPECI,,20,13.0,,,4800.0,Light Rain/Mist,14.0,14.0,29.77,1009.4,61,10,,,,,,,,,,,,,8/8 Overcast,700.0,,OVC,700.0,,,,,,
KRDR,06-22-2011,20:17,SPECI,,10,14.0,,,4000.0,Light Rain/Mist,14.0,14.0,29.77,1009.3,61,10,,,,,,,,,,,,,8/8 Overcast,700.0,,OVC,700.0,,,,,,
KRDR,06-22-2011,20:12,SPECI,,20,12.0,,,4000.0,Light Rain/Mist,14.0,14.0,29.77,1009.3,61,10,,,,,,,,,,,,,8/8 Overcast,800.0,,OVC,800.0,,,,,,
KRDR,06-22-2011,20:00,METAR,,30,12.0,,,9999.0,Light Rain,15.0,15.0,29.77,1009.1,61,,,,,,,,,,.01 IN,,,,8/8 Overcast,700.0,,OVC,700.0,,,,,,
KRDR,06-22-2011,19:53,SPECI,,30,12.0,,,9999.0,Light Rain,15.0,15.0,29.77,1009.1,61,,,,,,,,,,,,,,8/8 Overcast,800.0,,OVC,800.0,,,,,,
KRDR,06-22-2011,19:31,SPECI,,20,12.0,,,9999.0,Light Rain,14.0,14.0,29.76,1009.0,61,,,,,,,,,,,,,,8/8 Overcast,700.0,,OVC,700.0,,,,,,
KRDR,06-22-2011,19:18,SPECI,,20,13.0,,,6400.0,Light Rain/Mist,14.0,14.0,29.76,1009.0,61,10,,,,,,,,,,,,,8/8 Overcast,600.0,,OVC,600.0,,,,,,
KRDR,06-22-2011,19:00,METAR,,20,16.0,,,4800.0,Light Rain/Mist,14.0,14.0,29.76,1008.9,61,10,,,,,,,,,TRACE,,,,8/8 Overcast,700.0,,OVC,700.0,,,,,,
KRDR,06-22-2011,18:44,SPECI,,30,14.0,,,4800.0,Light Rain/Mist,14.0,14.0,29.76,1008.9,61,10,,,,,,,,,,,,,8/8 Overcast,700.0,,OVC,700.0,,,,,,
KRDR,06-22-2011,18:42,SPECI,,30,13.0,,,4800.0,Mist,14.0,14.0,29.76,1008.9,10,,,,,,,,,,,,,,8/8 Overcast,700.0,,OVC,700.0,,,,,,
KRDR,06-22-2011,18:32,SPECI,,30,13.0,,,4800.0,Light Rain/Mist,14.0,14.0,29.76,1008.9,61,10,,,,,,,,,,,,,8/8 Overcast,700.0,,OVC,700.0,,,,,,
KRDR,06-22-2011,18:23,SPECI,,30,12.0,,,4800.0,Light Rain/Mist,14.0,14.0,29.76,1008.9,61,10,,,,,,,,,,,,,8/8 Overcast,400.0,,OVC,800.0,,,,,,
KRDR,06-22-2011,18:21,SPECI,,30,13.0,,,4800.0,Light Rain/Mist,14.0,14.0,29.76,1008.8,61,10,,,,,,,,,,,,,8/8 Overcast,400.0,,SCT,600.0,OVC,1000.0,,,,
KRDR,06-22-2011,18:18,SPECI,,30,12.0,,,6400.0,Light Rain/Mist,14.0,14.0,29.76,1008.8,61,10,,,,,,,,,,,,,8/8 Overcast,400.0,,OVC,800.0,,,,,,
KRDR,06-22-2011,18:11,SPECI,,30,12.0,,,6400.0,Mist,14.0,14.0,29.76,1008.8,10,,,,,,,,,,,,,,8/8 Overcast,400.0,,OVC,900.0,,,,,,
KRDR,06-22-2011,18:10,SPECI,,30,14.0,,,6400.0,Mist,14.0,14.0,29.76,1008.8,10,,,,,,,,,,,,,,8/8 Overcast,500.0,,SCT,700.0,OVC,1100.0,,,,
KRDR,06-22-2011,18:07,SPECI,,30,13.0,,,4800.0,Light Rain/Mist,14.0,14.0,29.76,1008.8,61,10,,,,,,,,,,,,,8/8 Overcast,500.0,,SCT,700.0,OVC,1100.0,,,,
KRDR,06-22-2011,18:04,SPECI,,30,13.0,,,4800.0,Mist,14.0,14.0,29.76,1008.9,10,,,,,,,,,,,,,,8/8 Overcast,500.0,,SCT,700.0,OVC,1100.0,,,,
KRDR,06-22-2011,18:02,SPECI,,30,14.0,,,4800.0,Light Rain/Mist,14.0,14.0,29.76,1008.8,61,10,,,,,,,,,,,,,8/8 Overcast,500.0,,SCT,700.0,OVC,1100.0,,,,
KRDR,06-22-2011,18:00,METAR,,30,14.0,,,4000.0,Light Rain/Mist,14.0,14.0,29.76,1008.9,61,10,,,,,,,,,,,,,8/8 Overcast,500.0,,OVC,900.0,,,,,,
KRDR,06-22-2011,17:53,SPECI,,30,13.0,,,4000.0,Light Rain/Mist,14.0,14.0,29.76,1008.9,61,10,,,,,,,,,,,,,8/8 Overcast,700.0,,OVC,700.0,,,,,,
KRDR,06-22-2011,17:48,SPECI,,30,13.0,,,4800.0,Light Rain/Mist,14.0,14.0,29.76,1008.9,61,10,,,,,,,,,,,,,8/8 Overcast,500.0,,OVC,900.0,,,,,,
KRDR,06-22-2011,17:46,SPECI,,20,12.0,,,4800.0,Light Rain/Mist,14.0,14.0,29.76,1008.9,61,10,,,,,,,,,,,,,8/8 Overcast,600.0,,BKN,600.0,OVC,1100.0,,,,
KRDR,06-22-2011,17:43,SPECI,,30,13.0,,,6400.0,Light Rain/Mist,14.0,14.0,29.76,1008.8,61,10,,,,,,,,,,,,,8/8 Overcast,700.0,,BKN,700.0,OVC,1100.0,,,,
KRDR,06-22-2011,17:40,SPECI,,20,14.0,,,6400.0,Light Rain/Mist,14.0,14.0,29.76,1008.8,61,10,,,,,,,,,,,,,8/8 Overcast,800.0,,OVC,800.0,,,,,,
KRDR,06-22-2011,17:24,SPECI,,20,11.0,,,9999.0,Light Rain/Mist,14.0,14.0,29.76,1008.8,61,10,,,,,,,,,,,,,8/8 Overcast,700.0,,BKN,700.0,OVC,1200.0,,,,
KRDR,06-22-2011,17:23,SPECI,,20,13.0,,,9999.0,,14.0,14.0,29.76,1008.8,,,,,,,,,,,,,,,8/8 Overcast,700.0,,BKN,700.0,OVC,1200.0,,,,
KRDR,06-22-2011,17:15,SPECI,,20,15.0,,,9999.0,,14.0,14.0,29.75,1008.7,,,,,,,,,,,,,,,8/8 Overcast,900.0,,OVC,900.0,,,,,,
KRDR,06-22-2011,17:13,SPECI,,20,14.0,,,9999.0,,14.0,14.0,29.75,1008.7,,,,,,,,,,,,,,,8/8 Overcast,600.0,,OVC,1000.0,,,,,,
KRDR,06-22-2011,17:00,METAR,,20,15.0,,,9999.0,,13.0,13.0,29.75,1008.6,,,,,,,,,,,,,,,8/8 Overcast,800.0,,OVC,800.0,,,,,,
KRDR,06-22-2011,16:53,SPECI,,20,15.0,,,9999.0,,13.0,13.0,29.75,1008.6,,,,,,,,,,,,,,,8/8 Overcast,700.0,,BKN,700.0,OVC,1100.0,,,,
KRDR,06-22-2011,16:51,SPECI,,20,14.0,,,9999.0,,13.0,13.0,29.75,1008.6,,,,,,,,,,,,,,,8/8 Overcast,900.0,,OVC,900.0,,,,,,
KRDR,06-22-2011,16:08,SPECI,,20,15.0,,,9999.0,,13.0,13.0,29.74,1008.4,,,,,,,,,,,,,,,8/8 Overcast,700.0,,OVC,700.0,,,,,,
KRDR,06-22-2011,16:00,SPECI,,20,15.0,21.0,,9999.0,Mist,13.0,13.0,29.74,1008.4,10,,,,,,,,,,,,,,8/8 Overcast,600.0,,,,,,,,,
KRDR,06-22-2011,16:00,METAR,,20,14.0,,,9999.0,,13.0,13.0,29.75,1008.5,,,,,,,,,,,TRACE,,,,8/8 Overcast,700.0,,OVC,700.0,,,,,,
KRDR,06-22-2011,15:44,SPECI,,20,15.0,,,9999.0,,13.0,13.0,29.75,1008.5,,,,,,,,,,,,,,,8/8 Overcast,700.0,,OVC,700.0,,,,,,
KRDR,06-22-2011,15:04,SPECI,,20,18.0,,,9999.0,Mist,13.0,13.0,29.74,1008.2,10,,,,,,,,,,,,,,8/8 Overcast,600.0,,OVC,600.0,,,,,,
KRDR,06-22-2011,15:00,METAR,,30,16.0,22.0,,6400.0,Light Rain/Mist,13.0,13.0,29.74,1008.2,61,10,,,,,,,,,TRACE,.04 IN,,,8/8 Overcast,600.0,,OVC,600.0,,,,,,
KRDR,06-22-2011,14:31,SPECI,,30,15.0,21.0,,6400.0,Light Rain/Mist,13.0,13.0,29.74,1008.2,61,10,,,,,,,,,,,,,8/8 Overcast,600.0,,OVC,600.0,,,,,,
KRDR,06-22-2011,14:01,SPECI,,20,15.0,,,4800.0,Light Rain/Mist,13.0,13.0,29.73,1007.9,61,10,,,,,,,,,,,,,8/8 Overcast,700.0,,OVC,700.0,,,,,,
KRDR,06-22-2011,14:00,METAR,,20,14.0,,,4800.0,Light Rain/Mist,13.0,13.0,29.73,1008.0,61,10,,,,,,,,,.02 IN,,,,8/8 Overcast,800.0,,OVC,800.0,,,,,,
KRDR,06-22-2011,13:46,SPECI,,20,14.0,,,4800.0,Light Rain/Mist,13.0,13.0,29.73,1008.1,61,10,,,,,,,,,,,,,8/8 Overcast,800.0,,OVC,800.0,,,,,,
KRDR,06-22-2011,13:12,SPECI,,20,16.0,,,4800.0,Light Rain/Mist,13.0,13.0,29.73,1008.0,61,10,,,,,,,,,,,,,8/8 Overcast,700.0,,OVC,700.0,,,,,,
KRDR,06-22-2011,13:05,SPECI,,20,15.0,21.0,,4800.0,Light Rain/Mist,13.0,13.0,29.73,1007.9,61,10,,,,,,,,,,,,,8/8 Overcast,400.0,,OVC,800.0,,,,,,
KRDR,06-22-2011,13:03,SPECI,,10,14.0,21.0,,4800.0,Mist,13.0,13.0,29.73,1007.9,10,,,,,,,,,,,,,,8/8 Overcast,400.0,,OVC,800.0,,,,,,
KRDR,06-22-2011,13:02,SPECI,,20,14.0,21.0,,4800.0,Light Rain/Mist,13.0,13.0,29.73,1007.8,61,10,,,,,,,,,,,,,8/8 Overcast,700.0,,OVC,700.0,,,,,,
KRDR,06-22-2011,13:00,METAR,,10,14.0,19.0,,3200.0,Light Rain/Mist,13.0,13.0,29.73,1007.8,61,10,,,,,,,,,.02 IN,,,,8/8 Overcast,700.0,,OVC,700.0,,,,,,
KRDR,06-22-2011,12:32,SPECI,,20,15.0,21.0,,3200.0,Light Rain/Mist,13.0,13.0,29.73,1007.8,61,10,,,,,,,,,,,,,8/8 Overcast,700.0,,OVC,700.0,,,,,,
KRDR,06-22-2011,12:00,METAR,,20,14.0,,,4000.0,Light Rain/Mist,13.0,13.0,29.71,1007.3,61,10,,,,,,,,,.02 IN,,.2 IN,1.73 IN,8/8 Overcast,600.0,,OVC,600.0,,,,,,
KRDR,06-22-2011,11:46,SPECI,,20,14.0,,,4000.0,Light Rain/Mist,13.0,13.0,29.71,1007.4,61,10,,,,,,,,,,,,,8/8 Overcast,600.0,,OVC,600.0,,,,,,
KRDR,06-22-2011,11:36,SPECI,,20,12.0,,,4800.0,Light Rain/Mist,13.0,13.0,29.71,1007.3,61,10,,,,,,,,,,,,,8/8 Overcast,600.0,,OVC,600.0,,,,,,
KRDR,06-22-2011,11:21,SPECI,,30,14.0,,,4000.0,Light Rain/Mist,13.0,13.0,29.71,1007.1,61,10,,,,,,,,,,,,,8/8 Overcast,600.0,,OVC,600.0,,,,,,
KRDR,06-22-2011,11:00,METAR,,20,15.0,,,4000.0,Light Rain/Mist,14.0,14.0,29.70,1006.9,61,10,,,,,,,,,,,,,8/8 Overcast,700.0,,OVC,700.0,,,,,,
KRDR,06-22-2011,10:44,SPECI,,20,14.0,22.0,,4000.0,Mist,14.0,14.0,29.70,1006.8,10,,,,,,,,,,,,,,8/8 Overcast,700.0,,OVC,700.0,,,,,,
KRDR,06-22-2011,10:36,SPECI,,20,13.0,,,4000.0,Mist,14.0,14.0,29.69,1006.7,10,,,,,,,,,,,,,,8/8 Overcast,600.0,,OVC,600.0,,,,,,
KRDR,06-22-2011,10:35,SPECI,,20,14.0,,,4800.0,Mist,14.0,14.0,29.69,1006.7,10,,,,,,,,,,,,,,8/8 Overcast,600.0,,OVC,600.0,,,,,,
KRDR,06-22-2011,10:29,SPECI,,20,13.0,,,4800.0,Mist,14.0,14.0,29.69,1006.7,10,,,,,,,,,,,,,,8/8 Overcast,600.0,,OVC,600.0,,,,,,
KRDR,06-22-2011,10:22,SPECI,,30,14.0,,,6400.0,Light Rain/Mist,14.0,14.0,29.69,1006.7,61,10,,,,,,,,,,,,,8/8 Overcast,600.0,,OVC,600.0,,,,,,
KRDR,06-22-2011,10:10,SPECI,,20,14.0,,,4800.0,Light Rain/Mist,14.0,14.0,29.69,1006.6,61,10,,,,,,,,,,,,,8/8 Overcast,700.0,,OVC,700.0,,,,,,
KRDR,06-22-2011,10:00,METAR,,30,13.0,,,4800.0,Light Rain/Mist,14.0,14.0,29.69,1006.5,61,10,,,,,,,,,,,,,8/8 Overcast,400.0,,OVC,800.0,,,,,,
KRDR,06-22-2011,09:53,SPECI,,30,13.0,,,4800.0,Mist,14.0,14.0,29.69,1006.5,10,,,,,,,,,,,,,,8/8 Overcast,400.0,,OVC,800.0,,,,,,
KRDR,06-22-2011,09:13,SPECI,,20,13.0,,,4800.0,Light Rain/Mist,14.0,14.0,29.68,1006.4,61,10,,,,,,,,,,,,,8/8 Overcast,400.0,,OVC,800.0,,,,,,
KRDR,06-22-2011,09:05,SPECI,,20,13.0,,,4800.0,Mist,14.0,14.0,29.68,1006.4,10,,,,,,,,,,,,,,8/8 Overcast,500.0,,OVC,900.0,,,,,,
KRDR,06-22-2011,09:00,METAR,,20,11.0,,,4800.0,Light Rain/Mist,14.0,14.0,29.68,1006.3,61,10,,,,,,,,,.04 IN,.11 IN,,,8/8 Overcast,500.0,,OVC,900.0,,,,,,
KRDR,06-22-2011,08:40,SPECI,,20,11.0,,,6400.0,Light Rain/Mist,14.0,14.0,29.68,1006.3,61,10,,,,,,,,,,,,,8/8 Overcast,400.0,,OVC,900.0,,,,,,
KRDR,06-22-2011,08:35,SPECI,,20,11.0,,,4800.0,Mist,14.0,14.0,29.68,1006.3,10,,,,,,,,,,,,,,8/8 Overcast,400.0,,OVC,900.0,,,,,,
KRDR,06-22-2011,08:25,SPECI,,20,11.0,,,4800.0,Light Rain/Mist,14.0,14.0,29.68,1006.4,61,10,,,,,,,,,,,,,8/8 Overcast,400.0,,OVC,800.0,,,,,,
KRDR,06-22-2011,08:08,SPECI,,20,12.0,,,4800.0,Mist,14.0,14.0,29.69,1006.5,10,,,,,,,,,,,,,,8/8 Overcast,400.0,,OVC,900.0,,,,,,
KRDR,06-22-2011,08:04,SPECI,,20,12.0,,,4000.0,Mist,14.0,14.0,29.69,1006.5,10,,,,,,,,,,,,,,8/8 Overcast,400.0,,OVC,900.0,,,,,,
KRDR,06-22-2011,08:00,SPECI,,20,12.0,,,4000.0,Mist,14.0,14.0,29.69,1006.5,10,,,,,,,,,,,,,,8/8 Overcast,400.0,,OVC,900.0,,,,,,
KRDR,06-22-2011,08:00,METAR,,20,13.0,,,4000.0,Light Rain/Mist,14.0,14.0,29.69,1006.5,61,10,,,,,,,,,.03 IN,,,,8/8 Overcast,400.0,,,,,,,,,
KRDR,06-22-2011,07:58,SPECI,,20,12.0,,,4000.0,Light Rain/Mist,14.0,14.0,29.69,1006.5,61,10,,,,,,,,,,,,,8/8 Overcast,400.0,,OVC,900.0,,,,,,
KRDR,06-22-2011,07:50,SPECI,,20,12.0,,,4000.0,Light Rain/Mist,14.0,14.0,29.69,1006.5,61,10,,,,,,,,,,,,,8/8 Overcast,400.0,,OVC,1100.0,,,,,,
KRDR,06-22-2011,07:49,SPECI,,20,11.0,,,4000.0,Light Rain/Mist,14.0,14.0,29.69,1006.5,61,10,,,,,,,,,,,,,8/8 Overcast,400.0,,OVC,1100.0,,,,,,
KRDR,06-22-2011,07:37,SPECI,,20,13.0,,,4800.0,Light Rain/Mist,14.0,14.0,29.69,1006.5,61,10,,,,,,,,,,,,,8/8 Overcast,500.0,,FEW,700.0,OVC,1100.0,,,,
KRDR,06-22-2011,07:31,SPECI,,20,12.0,,,4800.0,Light Rain/Mist,14.0,14.0,29.69,1006.5,61,10,,,,,,,,,,,,,8/8 Overcast,600.0,,FEW,800.0,OVC,1200.0,,,,
KRDR,06-22-2011,07:16,SPECI,,20,12.0,,,6400.0,Light Rain/Mist,15.0,15.0,29.69,1006.6,61,10,,,,,,,,,,,,,8/8 Overcast,500.0,,OVC,1100.0,,,,,,
KRDR,06-22-2011,07:12,SPECI,,20,10.0,,,6400.0,Light Rain/Mist,15.0,15.0,29.69,1006.6,61,10,,,,,,,,,,,,,8/8 Overcast,600.0,,OVC,1000.0,,,,,,
KRDR,06-22-2011,07:08,SPECI,,20,11.0,,,9999.0,Light Rain/Mist,15.0,15.0,29.69,1006.6,61,10,,,,,,,,,,,,,8/8 Overcast,1000.0,,OVC,1000.0,,,,,,
KRDR,06-22-2011,07:00,METAR,,20,11.0,,,9999.0,Light Rain,15.0,15.0,29.69,1006.7,61,,,,,,,,,,.04 IN,,,,8/8 Overcast,800.0,,OVC,1000.0,,,,,,
KRDR,06-22-2011,06:24,SPECI,,30,12.0,,,9999.0,Light Rain,15.0,15.0,29.69,1006.7,61,,,,,,,,,,,,,,8/8 Overcast,1100.0,,OVC,1100.0,,,,,,
KRDR,06-22-2011,06:13,SPECI,,30,13.0,,,9999.0,,14.0,14.0,29.69,1006.7,,,,,,,,,,,,,,,8/8 Overcast,1100.0,,OVC,1100.0,,,,,,
KRDR,06-22-2011,06:00,METAR,,30,11.0,18.0,,9999.0,Light Rain,15.0,15.0,29.70,1006.8,61,,,,,,,,,,.09 IN,,.8 IN,,8/8 Overcast,900.0,,OVC,900.0,,,,,,
KRDR,06-22-2011,05:22,SPECI,,20,11.0,,,9999.0,Light Rain,15.0,15.0,29.70,1007.0,61,,,,,,,,,,,,,,8/8 Overcast,900.0,,OVC,900.0,,,,,,
KRDR,06-22-2011,05:17,SPECI,,30,10.0,,,4800.0,Light Rain/Mist,15.0,15.0,29.70,1007.1,61,10,,,,,,,,,,,,,8/8 Overcast,1000.0,,OVC,1000.0,,,,,,
KRDR,06-22-2011,05:12,SPECI,,30,10.0,,,4800.0,Heavy Rain/Mist,15.0,15.0,29.71,1007.1,63,10,,,,,,,,,,,,,8/8 Overcast,1000.0,,OVC,1000.0,,,,,,
KRDR,06-22-2011,05:07,SPECI,,30,10.0,,,8000.0,Light Rain/Mist,15.0,15.0,29.70,1007.1,61,10,,,,,,,,,,,,,8/8 Overcast,700.0,,OVC,1100.0,,,,,,
KRDR,06-22-2011,05:00,METAR,,30,11.0,,,9999.0,Light Rain,15.0,15.0,29.70,1007.0,61,,,,,,,,,,,,,,8/8 Overcast,1100.0,,OVC,1100.0,,,,,,
KRDR,06-22-2011,04:46,SPECI,,40,11.0,,,9999.0,,15.0,15.0,29.70,1007.1,,,,,,,,,,,,,,,8/8 Overcast,700.0,,OVC,1200.0,,,,,,
KRDR,06-22-2011,04:36,SPECI,,30,10.0,,,9999.0,,15.0,15.0,29.71,1007.1,,,,,,,,,,,,,,,8/8 Overcast,1100.0,,OVC,1100.0,,,,,,
KRDR,06-22-2011,04:19,SPECI,,30,13.0,,,4800.0,Light Rain/Mist,15.0,15.0,29.71,1007.1,61,10,,,,,,,,,,,,,8/8 Overcast,1100.0,,OVC,1100.0,,,,,,
KRDR,06-22-2011,04:17,SPECI,,30,12.0,,,4000.0,Rain/Mist,15.0,15.0,29.71,1007.2,62,10,,,,,,,,,,,,,8/8 Overcast,1200.0,,OVC,1200.0,,,,,,
KRDR,06-22-2011,04:16,SPECI,,30,11.0,,,4800.0,Heavy Rain/Mist,15.0,15.0,29.71,1007.2,63,10,,,,,,,,,,,,,8/8 Overcast,1200.0,,OVC,1200.0,,,,,,
KRDR,06-22-2011,04:15,SPECI,,30,10.0,,,4800.0,Heavy Rain/Mist,15.0,15.0,29.71,1007.2,63,10,,,,,,,,,,,,,8/8 Overcast,1200.0,,OVC,1200.0,,,,,,
KRDR,06-22-2011,04:00,METAR,,40,14.0,,,9999.0,Light Rain,15.0,15.0,29.71,1007.4,61,,,,,,,,,,.07 IN,,,,8/8 Overcast,1000.0,,OVC,1000.0,,,,,,
KRDR,06-22-2011,03:50,SPECI,,40,14.0,,,9999.0,Light Rain,15.0,15.0,29.72,1007.5,61,,,,,,,,,,,,,,8/8 Overcast,1000.0,,BKN,1000.0,OVC,1400.0,,,,
KRDR,06-22-2011,03:47,SPECI,,40,12.0,,,9999.0,Light Rain,15.0,15.0,29.72,1007.5,61,,,,,,,,,,,,,,8/8 Overcast,1200.0,,OVC,1200.0,,,,,,
KRDR,06-22-2011,03:45,SPECI,,40,11.0,,,9999.0,Light Rain,15.0,15.0,29.72,1007.6,61,,,,,,,,,,,,,,8/8 Overcast,1000.0,,BKN,1000.0,OVC,1400.0,,,,
KRDR,06-22-2011,03:33,SPECI,,40,14.0,,,6400.0,Light Rain/Mist,15.0,15.0,29.72,1007.5,61,10,,,,,,,,,,,,,8/8 Overcast,1200.0,,OVC,1200.0,,,,,,
KRDR,06-22-2011,03:32,SPECI,,40,13.0,,,6400.0,Rain/Mist,15.0,15.0,29.72,1007.5,62,10,,,,,,,,,,,,,8/8 Overcast,1100.0,,OVC,1100.0,,,,,,
KRDR,06-22-2011,03:29,SPECI,,50,13.0,,,4800.0,Rain/Mist,15.0,15.0,29.72,1007.5,62,10,,,,,,,,,,,,,8/8 Overcast,1100.0,,OVC,1100.0,,,,,,
KRDR,06-22-2011,03:00,METAR,,40,11.0,,,2800.0,Heavy Rain/Mist,15.0,15.0,29.72,1007.5,,,,65,10,,,,,,.3 IN,.58 IN,,,8/8 Overcast,400.0,,FEW,700.0,OVC,1200.0,,,,
KRDR,06-22-2011,02:57,SPECI,,30,10.0,,,4800.0,Rain/Mist,15.0,15.0,29.72,1007.5,62,10,,,,,,,,,,,,,8/8 Overcast,500.0,,FEW,700.0,OVC,1200.0,,,,
KRDR,06-22-2011,02:53,SPECI,,30,11.0,,,3200.0,Heavy Rain/Mist,15.0,15.0,29.72,1007.5,63,10,,,,,,,,,,,,,8/8 Overcast,400.0,,FEW,700.0,OVC,1200.0,,,,
KRDR,06-22-2011,02:51,SPECI,,40,11.0,,,2800.0,Heavy Rain/Mist,15.0,15.0,29.72,1007.5,63,10,,,,,,,,,,,,,8/8 Overcast,400.0,,FEW,800.0,OVC,1200.0,,,,
KRDR,06-22-2011,02:50,SPECI,,40,11.0,,,2800.0,Heavy Rain/Mist,15.0,15.0,29.72,1007.5,63,10,,,,,,,,,,,,,8/8 Overcast,400.0,,FEW,800.0,OVC,1200.0,,,,
KRDR,06-22-2011,02:47,SPECI,,50,13.0,,,2800.0,Heavy Rain/Mist,15.0,15.0,29.71,1007.4,63,10,,,,,,,,,,,,,8/8 Overcast,400.0,,OVC,1300.0,,,,,,
KRDR,06-22-2011,02:36,SPECI,,40,13.0,,,3200.0,Heavy Rain/Mist,15.0,15.0,29.71,1007.3,63,10,,,,,,,,,,,,,8/8 Overcast,500.0,,FEW,700.0,OVC,1200.0,,,,
KRDR,06-22-2011,02:33,SPECI,,40,15.0,,,2800.0,Heavy Rain/Mist,15.0,15.0,29.71,1007.3,63,10,,,,,,,,,,,,,8/8 Overcast,500.0,,FEW,700.0,OVC,1300.0,,,,
KRDR,06-22-2011,02:31,SPECI,,40,12.0,20.0,,3200.0,Heavy Rain/Mist,15.0,15.0,29.71,1007.4,63,10,,,,,,,,,,,,,8/8 Overcast,500.0,,FEW,700.0,OVC,1300.0,,,,
KRDR,06-22-2011,02:18,SPECI,,30,13.0,,,2800.0,Light Rain/Mist,15.0,15.0,29.71,1007.3,61,10,,,,,,,,,,,,,8/8 Overcast,400.0,,FEW,700.0,OVC,1300.0,,,,
KRDR,06-22-2011,02:05,SPECI,,50,14.0,,,3200.0,Light Rain/Mist,15.0,15.0,29.71,1007.4,61,10,,,,,,,,,,,,,8/8 Overcast,400.0,,FEW,700.0,OVC,1200.0,,,,
KRDR,06-22-2011,02:03,SPECI,,40,13.0,,,2400.0,Light Rain/Mist,15.0,15.0,29.71,1007.4,61,10,,,,,,,,,,,,,8/8 Overcast,400.0,,FEW,700.0,OVC,1200.0,,,,
KRDR,06-22-2011,02:00,METAR,,50,13.0,,,2000.0,Heavy Rain/Mist,15.0,15.0,29.71,1007.4,63,10,,,,,,,,,,,,,8/8 Overcast,500.0,,FEW,700.0,OVC,1200.0,,,,
KRDR,06-22-2011,01:48,SPECI,,40,12.0,,,1600.0,Heavy Rain/Mist,15.0,15.0,29.71,1007.3,63,10,,,,,,,,,,,,,8/8 Overcast,500.0,,FEW,800.0,OVC,1200.0,,,,
KRDR,06-22-2011,01:47,SPECI,,40,12.0,,,1200.0,Heavy Rain/Mist,15.0,15.0,29.71,1007.4,63,10,,,,,,,,,,,,,8/8 Overcast,500.0,,FEW,800.0,OVC,1200.0,,,,
KRDR,06-22-2011,01:44,SPECI,,40,14.0,,,1200.0,Heavy Rain/Mist,15.0,15.0,29.71,1007.4,63,10,,,,,,,,,,,,,8/8 Overcast,500.0,,SCT,700.0,OVC,1200.0,,,,
KRDR,06-22-2011,01:43,SPECI,,40,15.0,,,1200.0,Heavy Rain/Mist,15.0,15.0,29.71,1007.3,63,10,,,,,,,,,,,,,8/8 Overcast,500.0,,SCT,700.0,OVC,1200.0,,,,
KRDR,06-22-2011,01:40,SPECI,,50,17.0,,,1600.0,Heavy Rain/Mist,15.0,15.0,29.71,1007.3,63,10,,,,,,,,,,,,,8/8 Overcast,700.0,,SCT,800.0,OVC,1200.0,,,,
KRDR,06-22-2011,01:39,SPECI,,40,17.0,,,1600.0,Light Rain/Mist,15.0,15.0,29.71,1007.3,61,10,,,,,,,,,,,,,8/8 Overcast,800.0,,BKN,800.0,OVC,1200.0,,,,
KRDR,06-22-2011,01:37,SPECI,,50,14.0,,,2000.0,Light Rain/Mist,15.0,15.0,29.71,1007.4,61,10,,,,,,,,,,,,,8/8 Overcast,400.0,,BKN,800.0,OVC,1200.0,,,,
KRDR,06-22-2011,01:35,SPECI,,40,15.0,,,2800.0,Light Rain/Mist,15.0,15.0,29.71,1007.4,61,10,,,,,,,,,,,,,8/8 Overcast,400.0,,BKN,800.0,OVC,1200.0,,,,
KRDR,06-22-2011,01:31,SPECI,,40,14.0,,,4000.0,Rain/Mist,15.0,15.0,29.71,1007.4,62,10,,,,,,,,,,,,,8/8 Overcast,400.0,,BKN,800.0,OVC,1200.0,,,,
KRDR,06-22-2011,01:30,SPECI,,40,14.0,,,4800.0,Rain/Mist,15.0,15.0,29.71,1007.3,62,10,,,,,,,,,,,,,8/8 Overcast,400.0,,BKN,800.0,OVC,1200.0,,,,
KRDR,06-22-2011,01:28,SPECI,,40,14.0,,,4800.0,Rain/Mist,15.0,15.0,29.71,1007.4,62,10,,,,,,,,,,,,,8/8 Overcast,400.0,,SCT,800.0,OVC,1200.0,,,,
KRDR,06-22-2011,01:25,SPECI,,40,14.0,,,8000.0,Light Rain/Mist,15.0,15.0,29.71,1007.4,61,10,,,,,,,,,,,,,8/8 Overcast,400.0,,OVC,1100.0,,,,,,
KRDR,06-22-2011,01:17,SPECI,,50,13.0,,,8000.0,Light Rain/Mist,15.0,15.0,29.71,1007.4,61,10,,,,,,,,,,,,,8/8 Overcast,400.0,,OVC,900.0,,,,,,
KRDR,06-22-2011,01:14,SPECI,,50,14.0,,,4800.0,Light Rain/Mist,15.0,15.0,29.71,1007.4,61,10,,,,,,,,,,,,,8/8 Overcast,400.0,,OVC,1000.0,,,,,,
KRDR,06-22-2011,01:05,SPECI,,40,14.0,20.0,,3200.0,Light Rain/Mist,15.0,15.0,29.71,1007.4,61,10,,,,,,,,,,,,,8/8 Overcast,400.0,,FEW,700.0,OVC,1100.0,,,,
KRDR,06-22-2011,01:01,SPECI,,40,13.0,,,2800.0,Light Rain/Mist,15.0,15.0,29.72,1007.4,61,10,,,,,,,,,,,,,8/8 Overcast,400.0,,SCT,700.0,OVC,1100.0,,,,
KRDR,06-22-2011,01:00,METAR,,40,13.0,,,2400.0,Light Rain/Mist,15.0,15.0,29.72,1007.5,61,10,,,,,,,,,.11 IN,,,,8/8 Overcast,600.0,,FEW,700.0,OVC,1300.0,,,,
KRDR,06-22-2011,00:49,SPECI,,40,15.0,,,2800.0,Light Rain/Mist,15.0,15.0,29.71,1007.4,61,10,,,,,,,,,,,,,8/8 Overcast,600.0,,SCT,700.0,OVC,1300.0,,,,
KRDR,06-22-2011,00:48,SPECI,,40,13.0,,,3200.0,Mist,15.0,15.0,29.72,1007.5,10,,,,,,,,,,,,,,8/8 Overcast,600.0,,SCT,700.0,OVC,1300.0,,,,
KRDR,06-22-2011,00:45,SPECI,,40,16.0,,,4000.0,Light Rain/Mist,15.0,15.0,29.71,1007.4,61,10,,,,,,,,,,,,,8/8 Overcast,600.0,,SCT,700.0,OVC,1300.0,,,,
KRDR,06-22-2011,00:41,SPECI,,40,13.0,,,8000.0,Light Rain/Mist,15.0,15.0,29.71,1007.4,61,10,,,,,,,,,,,,,8/8 Overcast,600.0,,SCT,700.0,OVC,1300.0,,,,
KRDR,06-22-2011,00:37,SPECI,,50,14.0,,,9999.0,Light Rain/Mist,15.0,15.0,29.71,1007.4,61,10,,,,,,,,,,,,,8/8 Overcast,800.0,,BKN,800.0,OVC,1300.0,,,,
KRDR,06-22-2011,00:30,SPECI,,40,15.0,,,4800.0,Light Rain/Mist,15.0,15.0,29.71,1007.4,61,10,,,,,,,,,,,,,8/8 Overcast,600.0,,SCT,800.0,OVC,1200.0,,,,
KRDR,06-22-2011,00:28,SPECI,,50,15.0,,,4000.0,Light Rain/Mist,15.0,15.0,29.71,1007.4,61,10,,,,,,,,,,,,,8/8 Overcast,600.0,,SCT,800.0,OVC,1200.0,,,,
KRDR,06-22-2011,00:27,SPECI,,40,15.0,,,3200.0,Light Rain/Mist,15.0,15.0,29.71,1007.4,61,10,,,,,,,,,,,,,8/8 Overcast,800.0,,BKN,800.0,OVC,1200.0,,,,
KRDR,06-22-2011,00:24,SPECI,,40,15.0,,,2400.0,Heavy Rain/Mist,15.0,15.0,29.71,1007.4,63,10,,,,,,,,,,,,,8/8 Overcast,900.0,,OVC,900.0,,,,,,
KRDR,06-22-2011,00:23,SPECI,,40,13.0,,,2000.0,Heavy Rain/Mist,15.0,15.0,29.72,1007.5,63,10,,,,,,,,,,,,,8/8 Overcast,600.0,,OVC,1000.0,,,,,,
KRDR,06-22-2011,00:19,SPECI,,50,15.0,20.0,,2000.0,Heavy Rain/Mist,15.0,15.0,29.72,1007.5,63,10,,,,,,,,,,,,,8/8 Overcast,900.0,,BKN,900.0,OVC,1300.0,,,,
KRDR,06-22-2011,00:18,SPECI,,40,15.0,20.0,,2400.0,Heavy Rain/Mist,15.0,15.0,29.72,1007.5,63,10,,,,,,,,,,,,,8/8 Overcast,900.0,,BKN,900.0,OVC,1300.0,,,,
KRDR,06-22-2011,00:16,SPECI,,40,17.0,22.0,,2800.0,Heavy Rain/Mist,15.0,15.0,29.71,1007.4,63,10,,,,,,,,,,,,,8/8 Overcast,600.0,,BKN,1000.0,OVC,1400.0,,,,
KRDR,06-22-2011,00:14,SPECI,,40,14.0,22.0,,4000.0,Rain/Mist,15.0,15.0,29.72,1007.5,62,10,,,,,,,,,,,,,8/8 Overcast,600.0,,BKN,1000.0,OVC,1500.0,,,,
KRDR,06-22-2011,00:12,SPECI,,40,14.0,22.0,,6400.0,Light Rain/Mist,15.0,15.0,29.72,1007.5,61,10,,,,,,,,,,,,,8/8 Overcast,1000.0,,BKN,1000.0,OVC,1700.0,,,,
KRDR,06-22-2011,00:00,METAR,,40,18.0,24.0,040/27KTS,4800.0,Light Rain/Mist,15.0,15.0,29.71,1007.4,61,10,,,,,,,,,.15 IN,,.73 IN,,8/8 Overcast,1000.0,,BKN,1000.0,OVC,1500.0,,,,
KRDR,06-21-2011,23:50,SPECI,,40,17.0,24.0,040/27KTS,4800.0,Rain/Mist,15.0,15.0,29.71,1007.4,62,10,,,,,,,,,,,,,8/8 Overcast,1000.0,,BKN,1000.0,OVC,1500.0,,,,
KRDR,06-21-2011,23:45,SPECI,,50,19.0,24.0,040/27KTS,4000.0,Light Rain/Mist,15.0,15.0,29.71,1007.4,61,10,,,,,,,,,,,,,8/8 Overcast,1200.0,,OVC,1200.0,,,,,,
KRDR,06-21-2011,23:42,SPECI,,40,17.0,24.0,040/27KTS,4000.0,Rain/Mist,15.0,15.0,29.71,1007.3,62,10,,,,,,,,,,,,,8/8 Overcast,1000.0,,BKN,1000.0,OVC,1400.0,,,,
KRDR,06-21-2011,23:30,SPECI,,40,16.0,27.0,040/27KTS,4800.0,Light Rain/Mist,16.0,16.0,29.71,1007.4,61,10,,,,,,,,,,,,,8/8 Overcast,1000.0,,BKN,1000.0,OVC,2000.0,,,,
KRDR,06-21-2011,23:25,SPECI,,40,17.0,27.0,040/27KTS,4800.0,Light Rain/Mist,16.0,16.0,29.71,1007.4,61,10,,,,,,,,,,,,,8/8 Overcast,1200.0,,SCT,1100.0,SCT,1700.0,OVC,2200.0,,
KRDR,06-21-2011,23:21,SPECI,,40,16.0,24.0,,6400.0,Light Rain/Mist,16.0,16.0,29.71,1007.4,61,10,,,,,,,,,,,,,8/8 Overcast,1100.0,,FEW,1000.0,SCT,1300.0,OVC,2300.0,,
KRDR,06-21-2011,23:09,SPECI,,30,16.0,24.0,,4800.0,Light Rain/Mist,16.0,16.0,29.72,1007.6,61,10,,,,,,,,,,,,,8/8 Overcast,700.0,,FEW,800.0,OVC,2400.0,,,,
KRDR,06-21-2011,23:04,SPECI,,40,16.0,22.0,,3200.0,Rain/Mist,16.0,16.0,29.73,1007.9,62,10,,,,,,,,,,,,,8/8 Overcast,500.0,,FEW,800.0,OVC,2400.0,,,,
KRDR,06-21-2011,22:54,SPECI,,50,15.0,20.0,,2800.0,Heavy Rain/Mist,16.0,16.0,29.73,1008.1,63,10,,,,,,,,,,,,,8/8 Overcast,600.0,,FEW,700.0,OVC,1500.0,,,,
KRDR,06-21-2011,22:51,SPECI,,50,13.0,20.0,,2800.0,Heavy Rain/Mist,16.0,16.0,29.74,1008.1,63,10,,,,,,,,,,,,,8/8 Overcast,600.0,,SCT,700.0,OVC,1300.0,,,,
KRDR,06-21-2011,22:43,SPECI,,50,13.0,,,3200.0,Heavy Rain/Mist,16.0,16.0,29.74,1008.3,63,10,,,,,,,,,,,,,8/8 Overcast,600.0,,SCT,800.0,OVC,1400.0,,,,
KRDR,06-21-2011,22:38,SPECI,,50,15.0,,,2400.0,Heavy Rain/Mist,16.0,16.0,29.74,1008.3,63,10,,,,,,,,,,,,,8/8 Overcast,600.0,,FEW,800.0,OVC,1400.0,,,,
KRDR,06-21-2011,22:33,SPECI,,60,12.0,,,2000.0,Heavy Rain/Mist,16.0,16.0,29.75,1008.4,63,10,,,,,,,,,,,,,8/8 Overcast,600.0,,FEW,800.0,OVC,1200.0,,,,
KRDR,06-21-2011,22:32,SPECI,,60,11.0,,,2000.0,Heavy Rain/Mist,16.0,16.0,29.74,1008.4,63,10,,,,,,,,,,,,,8/8 Overcast,600.0,,OVC,1200.0,,,,,,
KRDR,06-21-2011,22:29,SPECI,,60,15.0,,,1600.0,Heavy Rain/Mist,16.0,16.0,29.74,1008.4,63,10,,,,,,,,,,,,,Sky Obscured (Unable to Estimate),1200.0,100.0,,1200.0,,,,,,
KRDR,06-21-2011,22:22,SPECI,,60,13.0,,,2000.0,Heavy Rain/Mist,16.0,16.0,29.74,1008.4,63,10,,,,,,,,,,,,,8/8 Overcast,800.0,,FEW,800.0,OVC,1300.0,,,,
KRDR,06-21-2011,22:15,SPECI,,50,14.0,19.0,,2800.0,Heavy Rain/Mist,16.0,16.0,29.74,1008.4,63,10,,,,,,,,,,,,,8/8 Overcast,700.0,,FEW,800.0,OVC,1400.0,,,,
KRDR,06-21-2011,22:14,SPECI,,50,14.0,19.0,,2800.0,Heavy Rain/Mist,16.0,16.0,29.74,1008.4,63,10,,,,,,,,,,,,,8/8 Overcast,700.0,,OVC,1400.0,,,,,,
KRDR,06-21-2011,22:09,SPECI,,60,14.0,19.0,,2400.0,Heavy Rain/Mist,16.0,16.0,29.74,1008.4,63,10,,,,,,,,,,,,,8/8 Overcast,1000.0,,OVC,1500.0,,,,,,
KRDR,06-21-2011,22:08,SPECI,,60,12.0,19.0,,2000.0,Heavy Rain/Mist,16.0,16.0,29.74,1008.4,63,10,,,,,,,,,,,,,8/8 Overcast,1000.0,,OVC,1500.0,,,,,,
KRDR,06-21-2011,22:02,SPECI,,60,14.0,19.0,,2000.0,Heavy Rain/Mist,16.0,16.0,29.75,1008.5,63,10,,,,,,,,,,,,,8/8 Overcast,1400.0,,OVC,1400.0,,,,,,
KRDR,06-21-2011,22:01,SPECI,,70,13.0,,,2000.0,Heavy Rain/Mist,16.0,16.0,29.75,1008.5,63,10,,,,,,,,,,,,,8/8 Overcast,800.0,,OVC,1500.0,,,,,,
KRDR,06-21-2011,22:00,METAR,,70,14.0,,,2400.0,Heavy Rain/Mist,16.0,16.0,29.75,1008.5,63,10,,,,,,,,,.19 IN,,,,8/8 Overcast,1000.0,,FEW,1200.0,OVC,1600.0,,,,
KRDR,06-21-2011,21:49,SPECI,,60,12.0,,,2000.0,Heavy Rain/Mist,16.0,16.0,29.75,1008.5,63,10,,,,,,,,,,,,,8/8 Overcast,1600.0,,FEW,1200.0,OVC,1600.0,,,,
KRDR,06-21-2011,21:48,SPECI,,60,14.0,,,2400.0,Heavy Rain/Mist,16.0,16.0,29.74,1008.4,63,10,,,,,,,,,,,,,8/8 Overcast,1100.0,,FEW,1000.0,OVC,1600.0,,,,
KRDR,06-21-2011,21:43,SPECI,,60,12.0,,,2800.0,Heavy Rain/Mist,16.0,16.0,29.74,1008.4,63,10,,,,,,,,,,,,,8/8 Overcast,1100.0,,FEW,1300.0,OVC,1800.0,,,,
KRDR,06-21-2011,21:39,SPECI,,70,13.0,,,4000.0,Heavy Rain/Mist,16.0,16.0,29.74,1008.4,63,10,,,,,,,,,,,,,8/8 Overcast,1300.0,,FEW,900.0,SCT,1400.0,OVC,2000.0,,
KRDR,06-21-2011,21:12,SPECI,,70,16.0,21.0,,6400.0,Rain/Mist,16.0,16.0,29.74,1008.3,62,10,,,,,,,,,,,,,8/8 Overcast,1600.0,,FEW,1100.0,SCT,1800.0,OVC,2300.0,,
KRDR,06-21-2011,21:00,METAR,,80,13.0,,,9999.0,Light Rain,17.0,17.0,29.74,1008.3,61,,,,,,,,,,.01 IN,.02 IN,,,8/8 Overcast,2400.0,,FEW,1900.0,OVC,2400.0,,,,
KRDR,06-21-2011,20:28,SPECI,,80,17.0,23.0,,9999.0,Light Rain,18.0,17.0,29.74,1008.2,61,,,,,,,,,,,,,,8/8 Overcast,2500.0,,OVC,2700.0,,,,,,
KRDR,06-21-2011,20:20,SPECI,,80,17.0,23.0,,9999.0,,18.0,17.0,29.74,1008.1,,,,,,,,,,,,,,,8/8 Overcast,2500.0,,BKN,2700.0,OVC,3300.0,,,,
KRDR,06-21-2011,20:11,SPECI,,80,13.0,,,9999.0,Light Rain,18.0,17.0,29.74,1008.1,61,,,,,,,,,,,,,,8/8 Overcast,2600.0,,BKN,2800.0,OVC,3300.0,,,,
KRDR,06-21-2011,20:10,SPECI,,70,12.0,,,9999.0,Light Rain,18.0,17.0,29.74,1008.1,61,,,,,,,,,,,,,,8/8 Overcast,3000.0,,OVC,3000.0,,,,,,
KRDR,06-21-2011,20:08,SPECI,,90,13.0,22.0,,9999.0,,18.0,17.0,29.74,1008.1,,,,,,,,,,,,,,,7/8 Mostly Cloudy,3000.0,,BKN,3000.0,,,,,,
KRDR,06-21-2011,20:07,SPECI,,90,13.0,22.0,,9999.0,,18.0,17.0,29.74,1008.2,,,,,,,,,,,,,,,7/8 Mostly Cloudy,3000.0,,BKN,3000.0,,,,,,
KRDR,06-21-2011,20:00,METAR,,80,15.0,26.0,070/26KTS,9999.0,Light Rain,18.0,17.0,29.74,1008.2,61,,,,,,,,,,TRACE,,,,8/8 Overcast,2400.0,,OVC,2800.0,,,,,,
KRDR,06-21-2011,19:43,SPECI,,80,21.0,26.0,070/26KTS,9999.0,Light Rain,18.0,17.0,29.73,1008.1,61,,,,,,,,,,,,,,8/8 Overcast,2500.0,,OVC,2800.0,,,,,,
KRDR,06-21-2011,19:34,SPECI,,60,14.0,,,9999.0,,18.0,18.0,29.74,1008.1,,,,,,,,,,,,,,,8/8 Overcast,2400.0,,BKN,2800.0,OVC,3400.0,,,,
KRDR,06-21-2011,19:27,SPECI,,50,14.0,,,9999.0,Light Rain,18.0,18.0,29.73,1008.1,61,,,,,,,,,,,,,,8/8 Overcast,2700.0,,BKN,2900.0,OVC,3500.0,,,,
KRDR,06-21-2011,19:22,SPECI,,50,16.0,22.0,,9999.0,Light Rain,18.0,18.0,29.73,1008.0,61,,,,,,,,,,,,,,7/8 Mostly Cloudy,3100.0,,BKN,3200.0,,,,,,
KRDR,06-21-2011,19:00,METAR,,40,13.0,,,9999.0,,18.0,18.0,29.74,1008.2,,,,,,,,,,,.01 IN,,,,7/8 Mostly Cloudy,2900.0,,SCT,3000.0,BKN,3500.0,,,,
KRDR,06-21-2011,18:50,SPECI,,40,13.0,,,9999.0,,17.0,17.0,29.74,1008.2,,,,,,,,,,,,,,,7/8 Mostly Cloudy,2900.0,,SCT,3000.0,BKN,3500.0,,,,
KRDR,06-21-2011,18:00,METAR,,50,11.0,,,9999.0,Light Rain,17.0,17.0,29.77,1009.3,61,,,,,,,,,,TRACE,,TRACE,,8/8 Overcast,2500.0,,OVC,2800.0,,,,,,
KRDR,06-21-2011,17:14,SPECI,,50,10.0,,,9999.0,Light Rain,17.0,17.0,29.78,1009.6,61,,,,,,,,,,,,,,8/8 Overcast,2500.0,,BKN,2700.0,OVC,3800.0,,,,
KRDR,06-21-2011,17:00,METAR,,50,12.0,,,9999.0,Light Rain,16.0,16.0,29.78,1009.5,61,,,,,,,,,,TRACE,,,,7/8 Mostly Cloudy,3600.0,,SCT,2600.0,BKN,3700.0,,,,
KRDR,06-21-2011,16:19,SPECI,,40,16.0,20.0,,9999.0,Light Rain,16.0,16.0,29.77,1009.3,61,,,,,,,,,,,,,,2/8 Mostly Clear,72000.0,,FEW,3800.0,,,,,,
KRDR,06-21-2011,16:00,METAR,,40,14.0,,,9999.0,,16.0,16.0,29.77,1009.2,,,,,,,,,,,TRACE,,,,8/8 Overcast,2200.0,,SCT,2100.0,OVC,3800.0,,,,
KRDR,06-21-2011,15:50,SPECI,,40,15.0,,,9999.0,,16.0,16.0,29.77,1009.1,,,,,,,,,,,,,,,8/8 Overcast,2200.0,,SCT,2100.0,OVC,3800.0,,,,
KRDR,06-21-2011,15:20,SPECI,,30,14.0,,,9999.0,,15.0,15.0,29.77,1009.4,,,,,,,,,,,,,,,8/8 Overcast,2100.0,,OVC,2100.0,,,,,,
KRDR,06-21-2011,15:06,SPECI,,40,13.0,,,9999.0,Light Rain,16.0,16.0,29.78,1009.6,61,,,,,,,,,,,,,,8/8 Overcast,2100.0,,OVC,2100.0,,,,,,
KRDR,06-21-2011,15:00,METAR,,40,13.0,,,9999.0,,16.0,16.0,29.78,1009.7,,,,,,,,,,,,,,,8/8 Overcast,2100.0,,OVC,2100.0,,,,,,
KRDR,06-21-2011,14:03,SPECI,,40,13.0,,,9999.0,,15.0,15.0,29.79,1010.0,,,,,,,,,,,,,,,8/8 Overcast,2700.0,,OVC,2900.0,,,,,,
KRDR,06-21-2011,14:00,METAR,,40,12.0,,,9999.0,,15.0,15.0,29.79,1010.1,,,,,,,,,,,,,,,8/8 Overcast,3000.0,,OVC,3000.0,,,,,,
KRDR,06-21-2011,13:37,SPECI,,50,12.0,,,9999.0,,15.0,15.0,29.80,1010.2,,,,,,,,,,,,,,,8/8 Overcast,3100.0,,OVC,3200.0,,,,,,
KRDR,06-21-2011,13:00,METAR,,40,9.0,,,9999.0,,15.0,15.0,29.79,1010.0,,,,,,,,,,,,,,,Clear,72000.0,,,73000.0,,,,,,
KRDR,06-21-2011,12:00,METAR,,50,11.0,,,9999.0,,14.0,14.0,29.79,1009.9,,,,,,,,,,,,,,,2/8 Mostly Clear,72000.0,,FEW,12000.0,,,,,,
KRDR,06-21-2011,11:00,METAR,,50,10.0,,,9999.0,,14.0,14.0,29.80,1010.4,,,,,,,,,,,,,,,7/8 Mostly Cloudy,12000.0,,BKN,12000.0,,,,,,
KRDR,06-21-2011,10:00,METAR,,60,10.0,,,9999.0,,14.0,14.0,29.81,1010.7,,,,,,,,,,,,,,,Clear,72000.0,,,73000.0,,,,,,
KRDR,06-21-2011,09:00,METAR,,70,9.0,,,9999.0,,15.0,15.0,29.82,1010.8,,,,,,,,,,,,,,,2/8 Mostly Clear,72000.0,,FEW,12000.0,,,,,,
KRDR,06-21-2011,08:00,METAR,,80,10.0,,,9999.0,,15.0,15.0,29.82,1011.0,,,,,,,,,,,,,,,Clear,72000.0,,,73000.0,,,,,,
KRDR,06-21-2011,07:00,METAR,,40,8.0,,,9999.0,,16.0,16.0,29.82,1011.0,,,,,,,,,,,,,,,7/8 Mostly Cloudy,3500.0,,BKN,3600.0,,,,,,
KRDR,06-21-2011,06:00,METAR,,50,7.0,,,9999.0,,16.0,16.0,29.82,1010.9,,,,,,,,,,,,,,,8/8 Overcast,3300.0,,OVC,3400.0,,,,,,
KRDR,06-21-2011,05:00,METAR,,70,11.0,,,9999.0,,16.0,16.0,29.83,1011.1,,,,,,,,,,,,,,,8/8 Overcast,3100.0,,OVC,3200.0,,,,,,
KRDR,06-21-2011,04:00,METAR,,70,9.0,,,9999.0,,17.0,16.0,29.86,1012.1,,,,,,,,,,,,,,,8/8 Overcast,3200.0,,OVC,3300.0,,,,,,
KRDR,06-21-2011,03:04,SPECI,,100,12.0,,,9999.0,,17.0,17.0,29.86,1012.4,,,,,,,,,,,,,,,8/8 Overcast,3000.0,,SCT,2100.0,OVC,3000.0,,,,
KRDR,06-21-2011,03:00,METAR,,90,13.0,,,9999.0,,17.0,17.0,29.86,1012.1,,,,,,,,,,,,,,,8/8 Overcast,2100.0,,SCT,2100.0,OVC,2900.0,,,,
KRDR,06-21-2011,02:00,METAR,,90,14.0,,,9999.0,,18.0,17.0,29.84,1011.5,,,,,,,,,,,,,,,8/8 Overcast,2100.0,,OVC,2400.0,,,,,,
KRDR,06-21-2011,01:00,METAR,,50,11.0,,,9999.0,,18.0,18.0,29.82,1011.0,,,,,,,,,,,,,,,8/8 Overcast,2500.0,,BKN,2900.0,OVC,3700.0,,,,
KRDR,06-21-2011,00:51,SPECI,,50,12.0,,,9999.0,,18.0,18.0,29.82,1011.1,,,,,,,,,,,,,,,8/8 Overcast,2300.0,,SCT,2500.0,OVC,3700.0,,,,
KRDR,06-21-2011,00:00,METAR,,60,9.0,,,9999.0,,18.0,18.0,29.83,1011.1,,,,,,,,,,,,,,,8/8 Overcast,2500.0,,OVC,2500.0,,,,,,
KRDR,06-20-2011,23:00,METAR,,70,9.0,,,9999.0,,18.0,17.0,29.83,1011.4,,,,,,,,,,,,,,,8/8 Overcast,2200.0,,OVC,2200.0,,,,,,
KRDR,06-20-2011,22:00,METAR,,50,11.0,,,9999.0,,18.0,18.0,29.83,1011.2,,,,,,,,,,,,,,,8/8 Overcast,2100.0,,OVC,2100.0,,,,,,
KRDR,06-20-2011,21:00,METAR,,60,11.0,,,9999.0,,18.0,17.0,29.84,1011.4,,,,,,,,,,,,,,,8/8 Overcast,2300.0,,OVC,2300.0,,,,,,
KRDR,06-20-2011,20:00,METAR,,90,10.0,,,9999.0,,18.0,16.0,29.83,1011.1,,,,,,,,,,,,,,,8/8 Overcast,2000.0,,OVC,2100.0,,,,,,
KRDR,06-20-2011,19:00,METAR,,80,12.0,,,9999.0,,18.0,17.0,29.82,1010.9,,,,,,,,,,,,,,,8/8 Overcast,1900.0,,OVC,1900.0,,,,,,
KRDR,06-20-2011,18:00,METAR,,80,12.0,,,9999.0,,18.0,17.0,29.82,1010.7,,,,,,,,,,,,,,,8/8 Overcast,1800.0,,OVC,1900.0,,,,,,
KRDR,06-20-2011,17:00,METAR,,70,10.0,,,9999.0,,18.0,18.0,29.82,1010.7,,,,,,,,,,,,,,,8/8 Overcast,1700.0,,OVC,1700.0,,,,,,
KRDR,06-20-2011,16:00,METAR,,70,9.0,,,9999.0,,18.0,18.0,29.80,1010.2,,,,,,,,,,,,,,,8/8 Overcast,1500.0,,OVC,1500.0,,,,,,
KRDR,06-20-2011,15:08,SPECI,,80,9.0,,,9999.0,,18.0,18.0,29.80,1010.1,,,,,,,,,,,,,,,8/8 Overcast,1300.0,,OVC,1500.0,,,,,,
KRDR,06-20-2011,15:00,METAR,,70,11.0,,,9999.0,,18.0,18.0,29.79,1009.9,,,,,,,,,,,,,,,8/8 Overcast,1300.0,,OVC,1300.0,,,,,,
KRDR,06-20-2011,14:12,SPECI,,90,9.0,,,9999.0,,17.0,17.0,29.80,1010.2,,,,,,,,,,,,,,,8/8 Overcast,1200.0,,OVC,1200.0,,,,,,
KRDR,06-20-2011,14:00,METAR,,90,10.0,,,9999.0,,17.0,17.0,29.80,1010.4,,,,,,,,,,,,,,,8/8 Overcast,1200.0,,OVC,1200.0,,,,,,
KRDR,06-20-2011,13:00,METAR,,110,6.0,,,9999.0,,17.0,17.0,29.81,1010.6,,,,,,,,,,,,,,,8/8 Overcast,1300.0,,BKN,1300.0,BKN,2400.0,OVC,4800.0,,
KRDR,06-20-2011,12:48,SPECI,,100,7.0,,,9999.0,,17.0,17.0,29.81,1010.5,,,,,,,,,,,,,,,8/8 Overcast,1400.0,,BKN,1400.0,BKN,2400.0,OVC,4800.0,,
KRDR,06-20-2011,12:23,SPECI,,100,8.0,,,9999.0,,16.0,16.0,29.80,1010.4,,,,,,,,,,,,,,,8/8 Overcast,1300.0,,SCT,1400.0,OVC,2400.0,,,,
KRDR,06-20-2011,12:05,SPECI,,110,10.0,,,9999.0,,16.0,16.0,29.81,1010.5,,,,,,,,,,,,,,,8/8 Overcast,1400.0,,BKN,1400.0,OVC,2400.0,,,,
KRDR,06-20-2011,12:00,METAR,,110,9.0,,,9999.0,,16.0,16.0,29.80,1010.3,,,,,,,,,,,,,,,8/8 Overcast,2300.0,,FEW,1400.0,BKN,2300.0,OVC,4500.0,,
KRDR,06-20-2011,11:00,METAR,,100,6.0,,,9999.0,,16.0,16.0,29.77,1009.4,,,,,,,,,,,,,,,8/8 Overcast,2100.0,,OVC,2100.0,,,,,,
KRDR,06-20-2011,10:11,SPECI,,100,4.0,,,9999.0,,16.0,16.0,29.76,1009.0,,,,,,,,,,,,,,,8/8 Overcast,1600.0,,BKN,1900.0,OVC,4300.0,,,,
KRDR,06-20-2011,10:04,SPECI,,90,5.0,,,9999.0,,16.0,16.0,29.76,1009.0,,,,,,,,,,,,,,,8/8 Overcast,1900.0,,SCT,1700.0,OVC,4300.0,,,,
KRDR,06-20-2011,09:51,SPECI,,80,4.0,,,9999.0,,16.0,16.0,29.76,1008.8,,,,,,,,,,,,,,,7/8 Mostly Cloudy,1700.0,,BKN,1700.0,,,,,,
KRDR,06-20-2011,09:40,SPECI,,70,4.0,,,9999.0,,16.0,16.0,29.75,1008.6,,,,,,,,,,,,,,,7/8 Mostly Cloudy,1700.0,,BKN,1700.0,,,,,,
KRDR,06-20-2011,09:35,SPECI,,70,4.0,,,9999.0,,16.0,16.0,29.75,1008.6,,,,,,,,,,,,,,,4/8 Partly Cloudy,72000.0,,SCT,1700.0,,,,,,
KRDR,06-20-2011,09:00,METAR,,90,5.0,,,9999.0,,16.0,16.0,29.77,1009.3,,,,,,,,,,,,,,,2/8 Mostly Clear,72000.0,,FEW,2700.0,,,,,,
KRDR,06-20-2011,08:00,METAR,,90,5.0,,,9999.0,,17.0,17.0,29.77,1009.4,,,,,,,,,,,,,,,Clear,72000.0,,,73000.0,,,,,,
KRDR,06-20-2011,07:00,METAR,,60,4.0,,,9999.0,,16.0,16.0,29.78,1009.6,,,,,,,,,,,,,,,Clear,72000.0,,,73000.0,,,,,,
KRDR,06-20-2011,06:00,METAR,,60,5.0,,,9999.0,,17.0,17.0,29.78,1009.5,,,,,,,,,,,,,,,Clear,72000.0,,,73000.0,,,,,,
KRDR,06-20-2011,05:00,METAR,,60,6.0,,,9999.0,,18.0,18.0,29.78,1009.5,,,,,,,,,,,,,,,Clear,72000.0,,,73000.0,,,,,,
KRDR,06-20-2011,04:00,METAR,,50,5.0,,,9999.0,,18.0,18.0,29.79,1010.0,,,,,,,,,,,,,,,Clear,72000.0,,,73000.0,,,,,,
KRDR,06-20-2011,03:00,METAR,,60,4.0,,,9999.0,,19.0,19.0,29.79,1009.8,,,,,,,,,,,,,,,Clear,72000.0,,,73000.0,,,,,,
KRDR,06-20-2011,02:00,METAR,,70,6.0,,,9999.0,,21.0,19.0,29.77,1009.3,,,,,,,,,,,,,,,Clear,72000.0,,,73000.0,,,,,,
KRDR,06-20-2011,01:00,METAR,,80,10.0,,,9999.0,,23.0,18.0,29.77,1009.2,,,,,,,,,,,,,,,Clear,72000.0,,,73000.0,,,,,,
KRDR,06-20-2011,00:00,METAR,,60,9.0,,,9999.0,,23.0,18.0,29.75,1008.7,,,,,,,,,,,,,,,Clear,72000.0,,,73000.0,,,,,,
KRDR,06-19-2011,23:00,METAR,,50,9.0,,,9999.0,,24.0,18.0,29.76,1009.0,,,,,,,,,,,,,,,4/8 Partly Cloudy,72000.0,,SCT,3300.0,,,,,,
KRDR,06-19-2011,22:00,METAR,,60,7.0,,,9999.0,,24.0,18.0,29.77,1009.4,,,,,,,,,,,,,,,4/8 Partly Cloudy,72000.0,,SCT,3000.0,,,,,,
KRDR,06-19-2011,21:00,METAR,,80,7.0,,,9999.0,,23.0,20.0,29.79,1009.9,,,,,,,,,,,,,,,2/8 Mostly Clear,72000.0,,FEW,2400.0,,,,,,
KRDR,06-19-2011,20:18,SPECI,,40,8.0,,,9999.0,,22.0,20.0,29.79,1010.0,,,,,,,,,,,,,,,4/8 Partly Cloudy,72000.0,,SCT,2000.0,,,,,,
KRDR,06-19-2011,20:00,METAR,,90,9.0,,,9999.0,,23.0,20.0,29.80,1010.1,,,,,,,,,,,,,,,7/8 Mostly Cloudy,1800.0,,BKN,2000.0,,,,,,
KRDR,06-19-2011,19:00,METAR,,80,6.0,,,9999.0,,22.0,21.0,29.80,1010.2,,,,,,,,,,,,,,,8/8 Overcast,1800.0,,OVC,2100.0,,,,,,
KRDR,06-19-2011,18:00,METAR,,90,7.0,,,9999.0,,21.0,21.0,29.79,1009.9,,,,,,,,,,,,,,,8/8 Overcast,1000.0,,BKN,1200.0,OVC,1700.0,,,,
KRDR,06-19-2011,17:50,SPECI,,70,7.0,,,9999.0,,21.0,21.0,29.79,1009.9,,,,,,,,,,,,,,,8/8 Overcast,900.0,,BKN,1200.0,OVC,1700.0,,,,
KRDR,06-19-2011,17:43,SPECI,,110,5.0,,,9999.0,,21.0,21.0,29.79,1009.9,,,,,,,,,,,,,,,8/8 Overcast,800.0,,BKN,1100.0,OVC,1800.0,,,,
KRDR,06-19-2011,17:38,SPECI,,90,7.0,,,9999.0,,20.0,20.0,29.79,1009.9,,,,,,,,,,,,,,,8/8 Overcast,1300.0,,SCT,900.0,OVC,1400.0,,,,
KRDR,06-19-2011,17:34,SPECI,,90,8.0,,,9999.0,,20.0,20.0,29.79,1010.0,,,,,,,,,,,,,,,8/8 Overcast,800.0,,BKN,900.0,OVC,1500.0,,,,
KRDR,06-19-2011,17:18,SPECI,,90,4.0,,,9999.0,,19.0,19.0,29.80,1010.1,,,,,,,,,,,,,,,8/8 Overcast,700.0,,BKN,1000.0,OVC,1500.0,,,,
KRDR,06-19-2011,17:17,SPECI,,110,4.0,,,9999.0,,19.0,19.0,29.80,1010.2,,,,,,,,,,,,,,,8/8 Overcast,700.0,,FEW,400.0,BKN,800.0,OVC,1300.0,,
KRDR,06-19-2011,17:03,SPECI,,140,5.0,,,9999.0,,18.0,18.0,29.80,1010.1,,,,,,,,,,,,,,,8/8 Overcast,800.0,,SCT,500.0,OVC,1000.0,,,,
KRDR,06-19-2011,17:00,SPECI,,140,4.0,,,9999.0,,18.0,18.0,29.80,1010.2,,,,,,,,,,,,,,,8/8 Overcast,700.0,,,,,,,,,
KRDR,06-19-2011,17:00,METAR,,140,5.0,,,9999.0,,18.0,18.0,29.80,1010.2,,,,,,,,,,,,,,,8/8 Overcast,400.0,,OVC,400.0,,,,,,
KRDR,06-19-2011,16:00,SPECI,,120,6.0,,,9999.0,,18.0,18.0,29.80,1010.2,,,,,,,,,,,,,,,8/8 Overcast,300.0,,OVC,400.0,,,,,,
KRDR,06-19-2011,16:00,METAR,,110,6.0,,,9999.0,,18.0,18.0,29.80,1010.2,,,,,,,,,,,,,,,8/8 Overcast,300.0,,,,,,,,,
KRDR,06-19-2011,15:00,METAR,,130,5.0,,,6400.0,Mist,17.0,17.0,29.80,1010.2,10,,,,,,,,,,,,,,8/8 Overcast,300.0,,OVC,300.0,,,,,,
KRDR,06-19-2011,14:37,SPECI,,100,4.0,,,4800.0,Mist,17.0,17.0,29.80,1010.1,10,,,,,,,,,,,,,,8/8 Overcast,200.0,,OVC,200.0,,,,,,
KRDR,06-19-2011,14:22,SPECI,,130,5.0,,,3200.0,Mist,17.0,17.0,29.79,1010.0,10,,,,,,,,,,,,,,8/8 Overcast,200.0,,OVC,200.0,,,,,,
KRDR,06-19-2011,14:19,SPECI,,110,5.0,,,2400.0,Mist,17.0,17.0,29.79,1009.9,10,,,,,,,,,,,,,,8/8 Overcast,200.0,,OVC,200.0,,,,,,
KRDR,06-19-2011,14:17,SPECI,,110,5.0,,,2000.0,Mist,17.0,17.0,29.79,1009.8,10,,,,,,,,,,,,,,8/8 Overcast,200.0,,OVC,200.0,,,,,,
KRDR,06-19-2011,14:14,SPECI,,130,5.0,,,1600.0,Mist,17.0,17.0,29.79,1009.8,10,,,,,,,,,,,,,,Sky Obscured (Unable to Estimate),200.0,100.0,,200.0,,,,,,
KRDR,06-19-2011,14:12,SPECI,,110,5.0,,,1200.0,Mist,17.0,17.0,29.79,1009.8,10,,,,,,,,,,,,,,Sky Obscured (Unable to Estimate),200.0,100.0,,200.0,,,,,,
KRDR,06-19-2011,14:10,SPECI,,100,5.0,,,1200.0,Mist,17.0,17.0,29.79,1009.8,10,,,,,,,,,,,,,,Sky Obscured (Unable to Estimate),200.0,100.0,,200.0,,,,,,
KRDR,06-19-2011,14:07,SPECI,,100,7.0,,,1200.0,Mist,17.0,17.0,29.79,1009.8,10,,,,,,,,,,,,,,Sky Obscured (Unable to Estimate),200.0,100.0,,200.0,,,,,,
KRDR,06-19-2011,14:05,SPECI,,110,6.0,,,800.0,Fog,17.0,17.0,29.79,1009.8,30,,,,,,,,,,,,,,Sky Obscured (Unable to Estimate),200.0,100.0,,200.0,,,,,,
KRDR,06-19-2011,14:04,SPECI,,110,6.0,,,800.0,Fog,17.0,17.0,29.79,1009.8,30,,,,,,,,,,,,,,Sky Obscured (Unable to Estimate),200.0,100.0,,200.0,,,,,,
KRDR,06-19-2011,14:03,SPECI,,110,6.0,,,1200.0,Mist,16.0,16.0,29.79,1009.8,10,,,,,,,,,,,,,,Sky Obscured (Unable to Estimate),200.0,100.0,,200.0,,,,,,
KRDR,06-19-2011,14:00,METAR,,100,6.0,,,1200.0,Mist,16.0,16.0,29.79,1009.9,10,,,,,,,,,,,,,,Sky Obscured (Unable to Estimate),200.0,100.0,,200.0,,,,,,
KRDR,06-19-2011,13:47,SPECI,,130,7.0,,,2400.0,Mist,16.0,16.0,29.79,1009.8,10,,,,,,,,,,,,,,8/8 Overcast,200.0,,OVC,200.0,,,,,,
KRDR,06-19-2011,13:45,SPECI,,130,6.0,,,2000.0,Mist,16.0,16.0,29.79,1009.9,10,,,,,,,,,,,,,,8/8 Overcast,200.0,,OVC,200.0,,,,,,
KRDR,06-19-2011,13:42,SPECI,,140,7.0,,,1600.0,Mist,16.0,16.0,29.79,1010.0,10,,,,,,,,,,,,,,Sky Obscured (Unable to Estimate),200.0,100.0,,200.0,,,,,,
KRDR,06-19-2011,13:40,SPECI,,130,6.0,,,1200.0,Mist,16.0,16.0,29.79,1010.0,10,,,,,,,,,,,,,,Sky Obscured (Unable to Estimate),200.0,100.0,,200.0,,,,,,
KRDR,06-19-2011,13:39,SPECI,,120,5.0,,,1200.0,Mist,16.0,16.0,29.79,1009.9,10,,,,,,,,,,,,,,Sky Obscured (Unable to Estimate),200.0,100.0,,200.0,,,,,,
KRDR,06-19-2011,13:34,SPECI,,130,4.0,,,800.0,Fog,16.0,16.0,29.79,1009.9,30,,,,,,,,,,,,,,Sky Obscured (Unable to Estimate),200.0,100.0,,200.0,,,,,,
KRDR,06-19-2011,13:27,SPECI,,90,4.0,,,800.0,Fog,16.0,16.0,29.79,1009.8,30,,,,,,,,,,,,,,Sky Obscured (Unable to Estimate),200.0,100.0,,200.0,,,,,,
KRDR,06-19-2011,13:21,SPECI,,110,4.0,,,800.0,Fog,16.0,16.0,29.78,1009.7,30,,,,,,,,,,,,,,Sky Obscured (Unable to Estimate),100.0,100.0,,100.0,,,,,,
KRDR,06-19-2011,13:20,SPECI,,120,5.0,,,800.0,Fog,16.0,16.0,29.78,1009.7,30,,,,,,,,,,,,,,Sky Obscured (Unable to Estimate),100.0,100.0,,100.0,,,,,,
KRDR,06-19-2011,13:09,SPECI,,100,6.0,,,800.0,Fog,16.0,16.0,29.78,1009.4,30,,,,,,,,,,,,,,Sky Obscured (Unable to Estimate),200.0,100.0,,200.0,,,,,,
KRDR,06-19-2011,13:07,SPECI,,90,6.0,,,800.0,Fog,16.0,16.0,29.77,1009.4,30,,,,,,,,,,,,,,Sky Obscured (Unable to Estimate),200.0,100.0,,200.0,,,,,,
KRDR,06-19-2011,13:02,SPECI,,90,6.0,,,800.0,Fog,16.0,16.0,29.77,1009.3,30,,,,,,,,,,,,,,Sky Obscured (Unable to Estimate),200.0,100.0,,200.0,,,,,,
KRDR,06-19-2011,13:00,METAR,,110,5.0,,,1200.0,Mist,16.0,16.0,29.77,1009.3,10,,,,,,,,,,,,,,Sky Obscured (Unable to Estimate),200.0,100.0,,200.0,,,,,,
KRDR,06-19-2011,12:53,SPECI,,100,4.0,,,400.0,Fog,16.0,16.0,29.77,1009.3,30,,,,,,,,,,,,,,Sky Obscured (Unable to Estimate),200.0,100.0,,200.0,,,,,,
KRDR,06-19-2011,12:52,SPECI,,100,4.0,,,400.0,Fog,16.0,16.0,29.77,1009.3,30,,,,,,,,,,,,,,Sky Obscured (Unable to Estimate),200.0,100.0,,200.0,,,,,,
KRDR,06-19-2011,12:47,SPECI,,110,4.0,,,400.0,Fog,16.0,16.0,29.77,1009.3,30,,,,,,,,,,,,,,Sky Obscured (Unable to Estimate),200.0,100.0,,200.0,,,,,,
KRDR,06-19-2011,12:43,SPECI,,110,4.0,,,400.0,Fog,16.0,16.0,29.77,1009.3,30,,,,,,,,,,,,,,7/8 Mostly Cloudy,200.0,,BKN,200.0,BKN,12000.0,,,,
KRDR,06-19-2011,12:42,SPECI,,110,4.0,,,800.0,Fog,16.0,16.0,29.77,1009.4,30,,,,,,,,,,,,,,7/8 Mostly Cloudy,200.0,,BKN,200.0,BKN,12000.0,,,,
KRDR,06-19-2011,12:40,SPECI,,100,5.0,,,800.0,Fog,16.0,16.0,29.77,1009.3,30,,,,,,,,,,,,,,7/8 Mostly Cloudy,200.0,,BKN,200.0,BKN,12000.0,,,,
KRDR,06-19-2011,12:38,SPECI,,100,4.0,,,1200.0,Mist,16.0,16.0,29.77,1009.3,10,,,,,,,,,,,,,,8/8 Overcast,200.0,,BKN,200.0,OVC,12000.0,,,,
KRDR,06-19-2011,12:37,SPECI,,110,3.0,,,1600.0,Mist,16.0,16.0,29.77,1009.3,10,,,,,,,,,,,,,,8/8 Overcast,200.0,,BKN,200.0,OVC,12000.0,,,,
KRDR,06-19-2011,12:33,SPECI,,110,3.0,,,4000.0,Mist,16.0,16.0,29.77,1009.3,10,,,,,,,,,,,,,,7/8 Mostly Cloudy,200.0,,BKN,200.0,BKN,12000.0,,,,
KRDR,06-19-2011,12:23,SPECI,,110,3.0,,,9999.0,,15.0,15.0,29.77,1009.3,,,,,,,,,,,,,,,4/8 Partly Cloudy,72000.0,,FEW,400.0,SCT,12000.0,,,,
KRDR,06-19-2011,12:00,METAR,,,0.0,,,9999.0,,15.0,15.0,29.77,1009.3,,,,,,,,,,,,,,,Clear,72000.0,,,73000.0,,,,,,
KRDR,06-19-2011,11:00,METAR,,130,5.0,,,9999.0,,14.0,14.0,29.77,1009.3,,,,,,,,,,,,,,,Clear,72000.0,,,73000.0,,,,,,
KRDR,06-19-2011,10:00,METAR,,,0.0,,,9999.0,,14.0,14.0,29.77,1009.3,,,,,,,,,,,,,,,Clear,72000.0,,,73000.0,,,,,,
KRDR,06-19-2011,09:00,METAR,,90,5.0,,,9999.0,,15.0,15.0,29.78,1009.5,,,,,,,,,,,,,,,2/8 Mostly Clear,72000.0,,FEW,11000.0,,,,,,
KRDR,06-19-2011,08:00,METAR,,280,3.0,,,9999.0,,14.0,14.0,29.79,1009.9,,,,,,,,,,,,,,,Clear,72000.0,,,73000.0,,,,,,
KRDR,06-19-2011,07:00,METAR,,310,3.0,,,9999.0,,14.0,14.0,29.80,1010.4,,,,,,,,,,,,,,,Clear,72000.0,,,73000.0,,,,,,
KRDR,06-19-2011,06:00,METAR,,,0.0,,,9999.0,,15.0,15.0,29.80,1010.3,,,,,,,,,,,,,,,Clear,72000.0,,,73000.0,,,,,,
KRDR,06-19-2011,05:00,METAR,,,0.0,,,9999.0,,16.0,16.0,29.79,1009.8,,,,,,,,,,,,,,,Clear,72000.0,,,73000.0,,,,,,
KRDR,06-19-2011,04:00,METAR,,,0.0,,,9999.0,,19.0,15.0,29.80,1010.1,,,,,,,,,,,,,,,Clear,72000.0,,,73000.0,,,,,,
KRDR,06-19-2011,03:00,METAR,,120,4.0,,,9999.0,,21.0,14.0,29.79,1010.0,,,,,,,,,,,,,,,Clear,72000.0,,,73000.0,,,,,,
KRDR,06-19-2011,02:00,METAR,,120,6.0,,,9999.0,,23.0,15.0,29.80,1010.1,,,,,,,,,,,,,,,Clear,72000.0,,,73000.0,,,,,,
KRDR,06-19-2011,01:00,METAR,,150,9.0,,,9999.0,,25.0,14.0,29.79,1009.9,,,,,,,,,,,,,,,7/8 Mostly Cloudy,6000.0,,BKN,5900.0,,,,,,
KRDR,06-19-2011,00:00,METAR,,,0.0,,,9999.0,,25.0,11.0,29.79,1010.1,,,,,,,,,,,,,,,Clear,72000.0,,,73000.0,,,,,,
KRDR,06-18-2011,23:00,METAR,,,3.0,,,9999.0,,26.0,13.0,29.81,1010.5,,,,,,,,,,,,,,,Clear,72000.0,,,73000.0,,,,,,
KRDR,06-18-2011,22:00,METAR,,,0.0,,,9999.0,,25.0,12.0,29.81,1010.6,,,,,,,,,,,,,,,Clear,72000.0,,,73000.0,,,,,,
KRDR,06-18-2011,21:00,METAR,,200,5.0,,,9999.0,,25.0,13.0,29.83,1011.1,,,,,,,,,,,,,,,Clear,72000.0,,,73000.0,,,,,,
KRDR,06-18-2011,20:00,METAR,,,3.0,,,9999.0,,24.0,12.0,29.82,1011.0,,,,,,,,,,,,,,,Clear,72000.0,,,73000.0,,,,,,
KRDR,06-18-2011,19:00,METAR,,,0.0,,,9999.0,,24.0,11.0,29.82,1011.1,,,,,,,,,,,,,,,Clear,72000.0,,,73000.0,,,,,,
KRDR,06-18-2011,18:00,SPECI,,,0.0,,,4800.0,Haze Smoke or Dust,23.0,12.0,29.83,1011.2,4,,,,,,,,,,,,,,Clear,72000.0,,,73000.0,,,,,,
KRDR,06-18-2011,18:00,METAR,,,0.0,,,4000.0,Haze Smoke or Dust,24.0,12.0,29.83,1011.3,4,,,,,,,,,,,,,,Clear,72000.0,,,,,,,,,
KRDR,06-18-2011,17:00,METAR,,220,4.0,,,9999.0,,22.0,11.0,29.85,1011.7,,,,,,,,,,,,,,,Clear,72000.0,,,73000.0,,,,,,
KRDR,06-18-2011,16:00,METAR,,240,5.0,,,9999.0,,21.0,12.0,29.85,1012.0,,,,,,,,,,,,,,,Clear,72000.0,,,73000.0,,,,,,
KRDR,06-18-2011,15:00,METAR,,,0.0,,,9999.0,,20.0,12.0,29.86,1012.1,,,,,,,,,,,,,,,Clear,72000.0,,,73000.0,,,,,,
KRDR,06-18-2011,14:00,METAR,,,0.0,,,9999.0,,18.0,13.0,29.85,1012.0,,,,,,,,,,,,,,,Clear,72000.0,,,73000.0,,,,,,
KRDR,06-18-2011,13:00,METAR,,290,3.0,,,9999.0,,15.0,15.0,29.86,1012.3,,,,,,,,,,,,,,,Clear,72000.0,,,73000.0,,,,,,
KRDR,06-18-2011,12:00,METAR,,280,5.0,,,9999.0,,13.0,13.0,29.85,1011.9,,,,,,,,,,,,,,.61 IN,Clear,72000.0,,,73000.0,,,,,,
KRDR,06-18-2011,11:00,METAR,,280,6.0,,,9999.0,,11.0,11.0,29.83,1011.3,,,,,,,,,,,,,,,Clear,72000.0,,,73000.0,,,,,,
KRDR,06-18-2011,10:00,METAR,,290,6.0,,,9999.0,,12.0,12.0,29.81,1010.7,,,,,,,,,,,,,,,Clear,72000.0,,,73000.0,,,,,,
KRDR,06-18-2011,09:00,METAR,,290,5.0,,,9999.0,,14.0,14.0,29.80,1010.2,,,,,,,,,,,,,,,Clear,72000.0,,,73000.0,,,,,,
KRDR,06-18-2011,08:00,METAR,,310,5.0,,,9999.0,,16.0,16.0,29.79,1009.9,,,,,,,,,,,,,,,8/8 Overcast,3100.0,,OVC,3100.0,,,,,,
KRDR,06-18-2011,07:44,SPECI,,310,7.0,,,9999.0,,16.0,16.0,29.79,1010.1,,,,,,,,,,,,,,,8/8 Overcast,3100.0,,FEW,2500.0,OVC,3100.0,,,,
KRDR,06-18-2011,07:00,METAR,,320,9.0,,,9999.0,,17.0,17.0,29.79,1009.8,,,,,,,,,,,,,,,8/8 Overcast,1900.0,,OVC,2300.0,,,,,,
KRDR,06-18-2011,06:06,SPECI,,310,16.0,21.0,,9999.0,,17.0,17.0,29.77,1009.4,,,,,,,,,,,,,,,8/8 Overcast,1300.0,,SCT,800.0,OVC,1600.0,,,,
KRDR,06-18-2011,06:03,SPECI,,300,12.0,,,9999.0,,17.0,17.0,29.77,1009.3,,,,,,,,,,,,,,,8/8 Overcast,1300.0,,SCT,800.0,OVC,1600.0,,,,
KRDR,06-18-2011,06:00,METAR,,290,12.0,15.0,,9999.0,,18.0,18.0,29.77,1009.3,,,,,,,,,,,,,,,8/8 Overcast,1200.0,,SCT,800.0,OVC,1300.0,,,,
KRDR,06-18-2011,05:38,SPECI,,200,3.0,,,9999.0,,18.0,18.0,29.77,1009.2,,,,,,,,,,,,,,,8/8 Overcast,700.0,,BKN,800.0,OVC,1300.0,,,,
KRDR,06-18-2011,05:35,SPECI,,220,4.0,,,9999.0,,18.0,18.0,29.77,1009.2,,,,,,,,,,,,,,,8/8 Overcast,1200.0,,SCT,800.0,OVC,1400.0,,,,
KRDR,06-18-2011,05:32,SPECI,,210,4.0,,,9999.0,,18.0,18.0,29.77,1009.2,,,,,,,,,,,,,,,8/8 Overcast,800.0,,BKN,1100.0,OVC,1800.0,,,,
KRDR,06-18-2011,05:25,SPECI,,180,4.0,,,9999.0,,18.0,18.0,29.77,1009.3,,,,,,,,,,,,,,,8/8 Overcast,1300.0,,SCT,900.0,OVC,1400.0,,,,
KRDR,06-18-2011,05:20,SPECI,,150,5.0,,,9999.0,,18.0,18.0,29.77,1009.2,,,,,,,,,,,,,,,8/8 Overcast,1400.0,,SCT,900.0,OVC,1700.0,,,,
KRDR,06-18-2011,05:12,SPECI,,140,4.0,,,9999.0,,18.0,18.0,29.77,1009.2,,,,,,,,,,,,,,,8/8 Overcast,700.0,,BKN,900.0,OVC,1700.0,,,,
KRDR,06-18-2011,05:04,SPECI,,130,6.0,,,9999.0,,18.0,18.0,29.77,1009.2,,,,,,,,,,,,,,,8/8 Overcast,1700.0,,SCT,900.0,OVC,1800.0,,,,
KRDR,06-18-2011,05:00,METAR,,140,5.0,,,9999.0,,18.0,18.0,29.77,1009.2,,,,,,,,,,,.03 IN,,,,8/8 Overcast,1500.0,,SCT,900.0,OVC,1800.0,,,,
KRDR,06-18-2011,04:54,SPECI,,150,5.0,,,9999.0,,18.0,18.0,29.77,1009.2,,,,,,,,,,,,,,,8/8 Overcast,800.0,,BKN,900.0,OVC,1800.0,,,,
KRDR,06-18-2011,04:45,SPECI,,130,5.0,,,9999.0,,18.0,18.0,29.77,1009.3,,,,,,,,,,,,,,,8/8 Overcast,1800.0,,SCT,900.0,OVC,1800.0,,,,
KRDR,06-18-2011,04:43,SPECI,,110,4.0,,,9999.0,,18.0,18.0,29.77,1009.3,,,,,,,,,,,,,,,8/8 Overcast,600.0,,BKN,900.0,OVC,1800.0,,,,
KRDR,06-18-2011,04:38,SPECI,,120,3.0,,,9999.0,,18.0,18.0,29.77,1009.3,,,,,,,,,,,,,,,8/8 Overcast,500.0,,BKN,700.0,BKN,1100.0,OVC,1800.0,,
KRDR,06-18-2011,04:28,SPECI,,130,4.0,,,9999.0,,18.0,18.0,29.77,1009.3,,,,,,,,,,,,,,,8/8 Overcast,800.0,,FEW,500.0,BKN,900.0,OVC,1800.0,,
KRDR,06-18-2011,04:24,SPECI,,,3.0,,,9999.0,,18.0,18.0,29.77,1009.3,,,,,,,,,,,,,,,8/8 Overcast,700.0,,BKN,700.0,OVC,1800.0,,,,
KRDR,06-18-2011,04:20,SPECI,,110,3.0,,,8000.0,Mist,18.0,18.0,29.77,1009.3,10,,,,,,,,,,,,,,8/8 Overcast,600.0,,BKN,600.0,OVC,1600.0,,,,
KRDR,06-18-2011,04:16,SPECI,,120,4.0,,,6400.0,Light Rain/Mist,18.0,18.0,29.77,1009.2,61,10,,,,,,,,,,,,,8/8 Overcast,600.0,,BKN,600.0,BKN,1700.0,OVC,2600.0,,
KRDR,06-18-2011,04:09,SPECI,,110,4.0,,,9999.0,Light Rain,18.0,18.0,29.77,1009.3,61,,,,,,,,,,,,,,8/8 Overcast,900.0,,FEW,400.0,BKN,900.0,OVC,2600.0,,
KRDR,06-18-2011,04:02,SPECI,,110,4.0,,,4800.0,Light Rain/Mist,18.0,18.0,29.77,1009.3,61,10,,,,,,,,,,,,,8/8 Overcast,1800.0,,SCT,300.0,BKN,1800.0,OVC,4400.0,,
KRDR,06-18-2011,04:00,METAR,,120,8.0,,,8000.0,Heavy Rain/Mist,18.0,18.0,29.78,1009.5,63,10,,,,,,,,,.55 IN,,,,8/8 Overcast,1800.0,,SCT,400.0,BKN,1800.0,OVC,3600.0,,
KRDR,06-18-2011,03:57,SPECI,,140,6.0,,,4800.0,Light Rain/Mist,18.0,18.0,29.77,1009.3,61,10,,,,,,,,,,,,,8/8 Overcast,300.0,,BKN,300.0,BKN,1800.0,OVC,4200.0,,
KRDR,06-18-2011,03:48,SPECI,,120,10.0,,,6400.0,Thunderstorm and Rain or Snow Showers/Mist,19.0,19.0,29.77,1009.4,92,10,,,,,,,,,,,,,8/8 Overcast,2000.0,,SCT,300.0,BKN,2000.0,OVC,3600.0,,
KRDR,06-18-2011,03:42,SPECI,,120,9.0,,,4800.0,Thunderstorm and Rain or Snow Showers/Mist,19.0,19.0,29.77,1009.4,92,10,,,,,,,,,,,,,8/8 Overcast,2000.0,,SCT,300.0,BKN,2000.0,OVC,3400.0,,
KRDR,06-18-2011,03:40,SPECI,,120,8.0,,,4000.0,Heavy Thunderstorm and Rain or Snow Showers/Mist,19.0,19.0,29.77,1009.3,95,10,,,,,,,,,,,,,8/8 Overcast,2100.0,,SCT,300.0,BKN,2100.0,OVC,3400.0,,
KRDR,06-18-2011,03:38,SPECI,,120,5.0,,,4000.0,Heavy Thunderstorm and Rain or Snow Showers/Mist,19.0,19.0,29.77,1009.4,95,10,,,,,,,,,,,,,8/8 Overcast,2500.0,,SCT,300.0,BKN,2500.0,OVC,3200.0,,
KRDR,06-18-2011,03:36,SPECI,,130,5.0,,,4000.0,Heavy Thunderstorm and Rain or Snow Showers/Mist,19.0,19.0,29.77,1009.3,95,10,,,,,,,,,,,,,8/8 Overcast,300.0,,BKN,300.0,OVC,2700.0,,,,
KRDR,06-18-2011,03:32,SPECI,,150,7.0,,,3200.0,Thunderstorm and Rain or Snow Showers/Mist,19.0,19.0,29.78,1009.4,92,10,,,,,,,,,,,,,8/8 Overcast,2200.0,,SCT,300.0,OVC,2700.0,,,,
KRDR,06-18-2011,03:28,SPECI,,140,8.0,,,2400.0,Thunderstorm and Rain or Snow Showers/Mist,18.0,18.0,29.78,1009.5,92,10,,,,,,,,,,,,,8/8 Overcast,2100.0,,FEW,400.0,OVC,2700.0,,,,
KRDR,06-18-2011,03:26,SPECI,,140,7.0,,,2000.0,Thunderstorm and Rain or Snow Showers/Mist,18.0,18.0,29.78,1009.5,92,10,,,,,,,,,,,,,8/8 Overcast,2500.0,,FEW,400.0,OVC,2500.0,,,,
KRDR,06-18-2011,03:23,SPECI,,140,8.0,,,2000.0,Heavy Thunderstorm and Rain or Snow Showers/Mist,18.0,18.0,29.78,1009.4,95,10,,,,,,,,,,,,,8/8 Overcast,1900.0,,FEW,200.0,OVC,2500.0,,,,
KRDR,06-18-2011,03:22,SPECI,,140,8.0,,,2000.0,Heavy Thunderstorm and Rain or Snow Showers/Mist,18.0,18.0,29.77,1009.4,95,10,,,,,,,,,,,,,8/8 Overcast,1900.0,,FEW,200.0,OVC,2500.0,,,,
KRDR,06-18-2011,03:20,SPECI,,140,9.0,,,2800.0,Heavy Thunderstorm and Rain or Snow Showers/Mist,18.0,18.0,29.77,1009.3,95,10,,,,,,,,,,,,,8/8 Overcast,1700.0,,FEW,300.0,OVC,2500.0,,,,
KRDR,06-18-2011,03:18,SPECI,,140,9.0,,,4000.0,Heavy Thunderstorm and Rain or Snow Showers/Mist,19.0,19.0,29.77,1009.3,95,10,,,,,,,,,,,,,8/8 Overcast,1700.0,,FEW,300.0,SCT,2100.0,OVC,2500.0,,
KRDR,06-18-2011,03:15,SPECI,,140,9.0,,,9999.0,Heavy Thunderstorm and Rain or Snow Showers/Mist,19.0,19.0,29.77,1009.3,95,10,,,,,,,,,,,,,8/8 Overcast,2200.0,,FEW,300.0,OVC,2600.0,,,,
KRDR,06-18-2011,03:09,SPECI,,120,8.0,,,9999.0,Thunderstorm and Rain or Snow Showers,19.0,19.0,29.76,1009.0,92,,,,,,,,,,,,,,8/8 Overcast,2600.0,,OVC,2600.0,,,,,,
KRDR,06-18-2011,03:00,METAR,,110,7.0,,,9999.0,Dry Thunderstorm,19.0,19.0,29.75,1008.7,91,,,,,,,,,,,,,,8/8 Overcast,2600.0,,OVC,2600.0,,,,,,
KRDR,06-18-2011,02:42,SPECI,,110,9.0,,,9999.0,Light Rain,19.0,19.0,29.75,1008.7,61,,,,,,,,,,,,,,7/8 Mostly Cloudy,2700.0,,BKN,2700.0,BKN,9400.0,,,,
KRDR,06-18-2011,02:34,SPECI,,100,8.0,,,9999.0,Light Rain,19.0,19.0,29.74,1008.4,61,,,,,,,,,,,,,,7/8 Mostly Cloudy,9500.0,,FEW,2700.0,SCT,5900.0,BKN,9400.0,,
KRDR,06-18-2011,02:06,SPECI,,110,8.0,,,9999.0,,19.0,19.0,29.75,1008.7,,,,,,,,,,,,,,,7/8 Mostly Cloudy,6000.0,,SCT,2800.0,BKN,5900.0,BKN,7400.0,,
KRDR,06-18-2011,02:00,METAR,,100,10.0,,,9999.0,,19.0,19.0,29.75,1008.5,,,,,,,,,,,,,,,8/8 Overcast,2800.0,,BKN,2800.0,OVC,5400.0,,,,
KRDR,06-18-2011,01:35,SPECI,,110,12.0,,,9999.0,,19.0,19.0,29.75,1008.6,,,,,,,,,,,,,,,8/8 Overcast,2800.0,,BKN,2800.0,BKN,5400.0,OVC,8900.0,,
KRDR,06-18-2011,01:30,SPECI,,110,10.0,,,9999.0,,19.0,19.0,29.75,1008.6,,,,,,,,,,,,,,,8/8 Overcast,5500.0,,SCT,2800.0,BKN,5400.0,OVC,8900.0,,
KRDR,06-18-2011,01:00,METAR,,110,10.0,,,9999.0,,20.0,20.0,29.74,1008.4,,,,,,,,,,,,,,,8/8 Overcast,1700.0,,OVC,1900.0,,,,,,
KRDR,06-18-2011,00:00,METAR,,130,14.0,,,9999.0,,20.0,20.0,29.74,1008.4,,,,,,,,,,,,,.03 IN,,8/8 Overcast,2500.0,,OVC,2500.0,,,,,,
KRDR,06-17-2011,23:00,METAR,,140,15.0,,,9999.0,,20.0,19.0,29.76,1008.8,,,,,,,,,,,,,,,8/8 Overcast,2100.0,,SCT,1600.0,BKN,2400.0,OVC,2900.0,,
KRDR,06-17-2011,22:30,SPECI,,130,9.0,,,9999.0,,20.0,20.0,29.76,1008.8,,,,,,,,,,,,,,,8/8 Overcast,1400.0,,BKN,1600.0,OVC,3100.0,,,,
KRDR,06-17-2011,22:00,METAR,,110,8.0,,,9999.0,,19.0,19.0,29.76,1008.8,,,,,,,,,,,,,,,8/8 Overcast,3200.0,,OVC,3300.0,,,,,,
KRDR,06-17-2011,21:05,SPECI,,130,9.0,,,9999.0,,18.0,18.0,29.76,1009.0,,,,,,,,,,,,,,,8/8 Overcast,3000.0,,SCT,2500.0,BKN,3000.0,OVC,9900.0,,
KRDR,06-17-2011,21:00,SPECI,,130,8.0,,,9999.0,,18.0,18.0,29.76,1008.9,,,,,,,,,,,,,,,8/8 Overcast,2500.0,,,,,,,,,
KRDR,06-17-2011,21:00,METAR,,130,10.0,,,9999.0,,18.0,18.0,29.76,1008.8,,,,,,,,,,,TRACE,.03 IN,,,8/8 Overcast,10000.0,,FEW,2600.0,SCT,4300.0,OVC,9900.0,,
KRDR,06-17-2011,20:49,SPECI,,130,11.0,,,9999.0,,18.0,18.0,29.76,1008.8,,,,,,,,,,,,,,,8/8 Overcast,10000.0,,FEW,2600.0,SCT,4300.0,OVC,9900.0,,
KRDR,06-17-2011,20:00,METAR,,120,10.0,,,8000.0,Light Rain/Mist,19.0,19.0,29.74,1008.3,61,10,,,,,,,,,.03 IN,,,,8/8 Overcast,3700.0,,OVC,6900.0,,,,,,
KRDR,06-17-2011,19:19,SPECI,,120,12.0,,,9999.0,Light Rain,21.0,16.0,29.74,1008.2,61,,,,,,,,,,,,,,7/8 Mostly Cloudy,10000.0,,BKN,9900.0,,,,,,
KRDR,06-17-2011,19:00,METAR,,110,13.0,20.0,,9999.0,,22.0,16.0,29.74,1008.4,,,,,,,,,,,,,,,7/8 Mostly Cloudy,9500.0,,SCT,3400.0,BKN,9400.0,BKN,12000.0,,
KRDR,06-17-2011,18:00,METAR,,130,11.0,,,9999.0,,22.0,15.0,29.76,1008.8,,,,,,,,,,,,,,,7/8 Mostly Cloudy,3100.0,,BKN,3200.0,,,,,,
KRDR,06-17-2011,17:41,SPECI,,130,14.0,20.0,,9999.0,,22.0,16.0,29.76,1009.0,,,,,,,,,,,,,,,7/8 Mostly Cloudy,3000.0,,BKN,3000.0,,,,,,
KRDR,06-17-2011,17:23,SPECI,,130,11.0,17.0,,9999.0,,22.0,16.0,29.77,1009.3,,,,,,,,,,,,,,,7/8 Mostly Cloudy,2900.0,,BKN,2900.0,BKN,9900.0,,,,
KRDR,06-17-2011,17:00,METAR,,110,13.0,18.0,,9999.0,,21.0,16.0,29.77,1009.3,,,,,,,,,,,,,,,2/8 Mostly Clear,72000.0,,FEW,2900.0,,,,,,
KRDR,06-17-2011,16:34,SPECI,,120,11.0,,,9999.0,,21.0,16.0,29.76,1009.0,,,,,,,,,,,,,,,4/8 Partly Cloudy,72000.0,,SCT,2900.0,,,,,,
KRDR,06-17-2011,16:00,METAR,,,4.0,,,9999.0,,21.0,16.0,29.76,1008.9,,,,,,,,,,,,,,,2/8 Mostly Clear,72000.0,,FEW,2400.0,,,,,,
KRDR,06-17-2011,15:00,METAR,,110,11.0,,,9999.0,,19.0,17.0,29.78,1009.5,,,,,,,,,,,,,,,Clear,72000.0,,,73000.0,,,,,,
KRDR,06-17-2011,14:00,METAR,,110,8.0,,,9999.0,,17.0,17.0,29.79,1010.0,,,,,,,,,,,,,,,Clear,72000.0,,,73000.0,,,,,,
KRDR,06-17-2011,13:00,METAR,,120,6.0,,,9999.0,,17.0,17.0,29.82,1010.9,,,,,,,,,,,,,,,Clear,72000.0,,,73000.0,,,,,,
KRDR,06-17-2011,12:00,METAR,,80,4.0,,,9999.0,,16.0,16.0,29.81,1010.5,,,,,,,,,,,,,,,7/8 Mostly Cloudy,11000.0,,BKN,11000.0,,,,,,
KRDR,06-17-2011,11:00,METAR,,130,5.0,,,9999.0,,14.0,14.0,29.82,1011.0,,,,,,,,,,,,,,,7/8 Mostly Cloudy,10000.0,,BKN,9900.0,,,,,,
KRDR,06-17-2011,10:00,METAR,,110,6.0,,,9999.0,,15.0,15.0,29.82,1010.8,,,,,,,,,,,,,,,Clear,72000.0,,,73000.0,,,,,,
KRDR,06-17-2011,09:00,METAR,,110,4.0,,,9999.0,,15.0,15.0,29.82,1010.9,,,,,,,,,,,,,,,Clear,72000.0,,,73000.0,,,,,,
KRDR,06-17-2011,08:00,METAR,,,0.0,,,9999.0,,15.0,15.0,29.83,1011.2,,,,,,,,,,,,,,,Clear,72000.0,,,73000.0,,,,,,
KRDR,06-17-2011,07:00,METAR,,90,3.0,,,9999.0,,16.0,16.0,29.80,1010.3,,,,,,,,,,,,,,,Clear,72000.0,,,73000.0,,,,,,
KRDR,06-17-2011,06:00,METAR,,100,5.0,,,9999.0,,16.0,16.0,29.80,1010.1,,,,,,,,,,,,,,,Clear,72000.0,,,73000.0,,,,,,
KRDR,06-17-2011,05:00,METAR,,120,4.0,,,9999.0,,17.0,17.0,29.82,1010.8,,,,,,,,,,,,,,,Clear,72000.0,,,73000.0,,,,,,
KRDR,06-17-2011,04:00,METAR,,130,4.0,,,9999.0,,19.0,18.0,29.83,1011.3,,,,,,,,,,,,,,,7/8 Mostly Cloudy,11000.0,,BKN,11000.0,,,,,,
KRDR,06-17-2011,03:00,METAR,,150,4.0,,,9999.0,,19.0,17.0,29.82,1010.9,,,,,,,,,,,,,,,8/8 Overcast,11000.0,,OVC,11000.0,,,,,,
KRDR,06-17-2011,02:00,METAR,,130,4.0,,,9999.0,,20.0,17.0,29.80,1010.3,,,,,,,,,,,,,,,7/8 Mostly Cloudy,11000.0,,BKN,11000.0,,,,,,
KRDR,06-17-2011,01:00,METAR,,100,8.0,,,9999.0,,22.0,15.0,29.78,1009.5,,,,,,,,,,,,,,,Clear,72000.0,,,73000.0,,,,,,
KRDR,06-17-2011,00:00,METAR,,100,10.0,,,9999.0,,22.0,14.0,29.79,1009.8,,,,,,,,,,,,,,,7/8 Mostly Cloudy,4300.0,,BKN,4400.0,,,,,,
KRDR,06-16-2011,23:00,METAR,,120,8.0,,,9999.0,,22.0,15.0,29.80,1010.2,,,,,,,,,,,,,,,8/8 Overcast,4000.0,,BKN,4100.0,OVC,4800.0,,,,
KRDR,06-16-2011,22:00,METAR,,120,4.0,,,9999.0,,22.0,15.0,29.80,1010.1,,,,,,,,,,,,,,,8/8 Overcast,4400.0,,SCT,3800.0,OVC,4500.0,,,,
KRDR,06-16-2011,21:00,METAR,,90,5.0,,,9999.0,,23.0,15.0,29.79,1010.0,,,,,,,,,,,,,,,7/8 Mostly Cloudy,3700.0,,BKN,4600.0,,,,,,
KRDR,06-16-2011,20:00,METAR,,,0.0,,,9999.0,,21.0,15.0,29.80,1010.1,,,,,,,,,,,,,,,8/8 Overcast,3700.0,,OVC,3800.0,,,,,,
KRDR,06-16-2011,19:00,METAR,,60,3.0,,,9999.0,,21.0,15.0,29.78,1009.7,,,,,,,,,,,,,,,7/8 Mostly Cloudy,3100.0,,BKN,3200.0,,,,,,
KRDR,06-16-2011,18:00,METAR,,70,8.0,,,9999.0,,21.0,16.0,29.77,1009.4,,,,,,,,,,,,,,,7/8 Mostly Cloudy,3100.0,,BKN,3100.0,,,,,,
KRDR,06-16-2011,17:40,SPECI,,50,7.0,,,9999.0,,21.0,16.0,29.78,1009.5,,,,,,,,,,,,,,,7/8 Mostly Cloudy,3100.0,,BKN,3100.0,,,,,,
KRDR,06-16-2011,17:37,SPECI,,40,6.0,,,9999.0,,21.0,16.0,29.78,1009.5,,,,,,,,,,,,,,,8/8 Overcast,2700.0,,OVC,2900.0,,,,,,
KRDR,06-16-2011,17:00,METAR,,90,6.0,,,9999.0,,20.0,16.0,29.77,1009.3,,,,,,,,,,,,,,,7/8 Mostly Cloudy,3000.0,,BKN,3000.0,,,,,,
KRDR,06-16-2011,16:29,SPECI,,80,6.0,,,9999.0,,19.0,17.0,29.78,1009.5,,,,,,,,,,,,,,,8/8 Overcast,3100.0,,SCT,2500.0,OVC,3100.0,,,,
KRDR,06-16-2011,16:00,METAR,,70,8.0,,,9999.0,,19.0,17.0,29.76,1009.1,,,,,,,,,,,,,,,8/8 Overcast,1700.0,,BKN,2500.0,OVC,3200.0,,,,
KRDR,06-16-2011,15:00,METAR,,,0.0,,,9999.0,,18.0,18.0,29.77,1009.1,,,,,,,,,,,,,,,8/8 Overcast,2400.0,,OVC,2700.0,,,,,,
KRDR,06-16-2011,14:04,SPECI,,,0.0,,,9999.0,,18.0,18.0,29.76,1009.1,,,,,,,,,,,,,,,8/8 Overcast,2900.0,,SCT,700.0,OVC,2900.0,,,,
KRDR,06-16-2011,14:00,METAR,,330,3.0,,,9999.0,,17.0,17.0,29.76,1009.0,,,,,,,,,,,,,,,7/8 Mostly Cloudy,700.0,,BKN,700.0,BKN,2900.0,,,,
KRDR,06-16-2011,13:37,SPECI,,320,4.0,,,9999.0,,17.0,17.0,29.76,1009.1,,,,,,,,,,,,,,,8/8 Overcast,1900.0,,SCT,500.0,BKN,2200.0,OVC,2800.0,,
KRDR,06-16-2011,13:00,METAR,,330,3.0,,,9999.0,,16.0,16.0,29.77,1009.3,,,,,,,,,,,,,,,8/8 Overcast,500.0,,BKN,500.0,OVC,2600.0,,,,
KRDR,06-16-2011,12:46,SPECI,,,0.0,,,9999.0,,16.0,16.0,29.77,1009.3,,,,,,,,,,,,,,,8/8 Overcast,500.0,,BKN,500.0,OVC,2600.0,,,,
KRDR,06-16-2011,12:37,SPECI,,,0.0,,,9999.0,,16.0,16.0,29.77,1009.2,,,,,,,,,,,,,,,8/8 Overcast,2600.0,,FEW,600.0,OVC,2600.0,,,,
KRDR,06-16-2011,12:20,SPECI,,,0.0,,,9999.0,,15.0,15.0,29.76,1008.8,,,,,,,,,,,,,,,7/8 Mostly Cloudy,2600.0,,BKN,2600.0,,,,,,
KRDR,06-16-2011,12:00,METAR,,20,3.0,,,9999.0,,15.0,15.0,29.75,1008.6,,,,,,,,,,,,,,.01 IN,7/8 Mostly Cloudy,2700.0,,BKN,2700.0,,,,,,
KRDR,06-16-2011,11:00,METAR,,,0.0,,,9999.0,,15.0,15.0,29.75,1008.7,,,,,,,,,,,,,,,8/8 Overcast,2100.0,,OVC,2500.0,,,,,,
KRDR,06-16-2011,10:00,METAR,,,0.0,,,9999.0,,15.0,15.0,29.74,1008.3,,,,,,,,,,,,,,,8/8 Overcast,2400.0,,OVC,2400.0,,,,,,
KRDR,06-16-2011,09:00,METAR,,,0.0,,,9999.0,,15.0,15.0,29.72,1007.7,,,,,,,,,,,,,,,8/8 Overcast,2400.0,,OVC,2400.0,,,,,,
KRDR,06-16-2011,08:00,METAR,,,0.0,,,9999.0,,15.0,15.0,29.70,1007.0,,,,,,,,,,,,,,,8/8 Overcast,2500.0,,OVC,2500.0,,,,,,
KRDR,06-16-2011,07:00,METAR,,20,4.0,,,9999.0,,15.0,15.0,29.70,1007.0,,,,,,,,,,,,,,,8/8 Overcast,2200.0,,OVC,2200.0,,,,,,
KRDR,06-16-2011,06:00,METAR,,20,3.0,,,9999.0,,16.0,16.0,29.70,1006.8,,,,,,,,,,,,,TRACE,,8/8 Overcast,2600.0,,OVC,2600.0,,,,,,
KRDR,06-16-2011,05:00,METAR,,,0.0,,,9999.0,,17.0,17.0,29.69,1006.7,,,,,,,,,,,,,,,8/8 Overcast,2500.0,,OVC,2500.0,,,,,,
KRDR,06-16-2011,04:00,METAR,,100,4.0,,,9999.0,,18.0,18.0,29.68,1006.3,,,,,,,,,,,,,,,7/8 Mostly Cloudy,1800.0,,BKN,2000.0,BKN,2500.0,,,,
KRDR,06-16-2011,03:07,SPECI,,70,4.0,,,9999.0,,18.0,18.0,29.68,1006.2,,,,,,,,,,,,,,,8/8 Overcast,2700.0,,SCT,1800.0,BKN,2700.0,OVC,5900.0,,
KRDR,06-16-2011,03:00,METAR,,80,5.0,,,9999.0,,18.0,18.0,29.67,1005.9,,,,,,,,,,,TRACE,0 IN,,,8/8 Overcast,4700.0,,SCT,4700.0,OVC,5900.0,,,,
KRDR,06-16-2011,02:22,SPECI,,70,5.0,,,9999.0,,18.0,18.0,29.66,1005.5,,,,,,,,,,,,,,,8/8 Overcast,3100.0,,SCT,4000.0,BKN,5000.0,OVC,6900.0,,
KRDR,06-16-2011,02:12,SPECI,,90,5.0,,,9999.0,Light Drizzle,19.0,19.0,29.65,1005.4,51,,,,,,,,,,,,,,8/8 Overcast,3900.0,,BKN,4000.0,OVC,5000.0,,,,
KRDR,06-16-2011,02:10,SPECI,,80,5.0,,,9999.0,,19.0,19.0,29.65,1005.4,,,,,,,,,,,,,,,8/8 Overcast,3900.0,,BKN,4000.0,OVC,5000.0,,,,
KRDR,06-16-2011,02:01,SPECI,,90,6.0,,,9999.0,Light Drizzle,19.0,19.0,29.65,1005.4,51,,,,,,,,,,,,,,8/8 Overcast,4000.0,,BKN,4100.0,OVC,5900.0,,,,
KRDR,06-16-2011,02:00,METAR,,80,6.0,,,9999.0,,19.0,19.0,29.65,1005.4,,,,,,,,,,,,,,,8/8 Overcast,6500.0,,SCT,4300.0,OVC,6400.0,,,,
KRDR,06-16-2011,01:00,METAR,,90,7.0,,,9999.0,,20.0,20.0,29.65,1005.2,,,,,,,,,,,,,,,7/8 Mostly Cloudy,2400.0,,SCT,2300.0,BKN,4900.0,BKN,7400.0,,
KRDR,06-16-2011,00:00,METAR,,10,3.0,,,9999.0,,20.0,19.0,29.64,1005.0,,,,,,,,,,,,,,,8/8 Overcast,4400.0,,OVC,4500.0,,,,,,
KRDR,06-15-2011,23:00,METAR,,50,4.0,,,9999.0,,21.0,17.0,29.63,1004.7,,,,,,,,,,,,,,,8/8 Overcast,6000.0,,FEW,2800.0,SCT,5000.0,OVC,5900.0,,
KRDR,06-15-2011,22:28,SPECI,,10,3.0,,,9999.0,,21.0,18.0,29.63,1004.7,,,,,,,,,,,,,,,7/8 Mostly Cloudy,2700.0,,SCT,2600.0,BKN,3200.0,BKN,5900.0,,
KRDR,06-15-2011,22:13,SPECI,,50,4.0,,,9999.0,,21.0,16.0,29.63,1004.6,,,,,,,,,,,,,,,7/8 Mostly Cloudy,2500.0,,BKN,2500.0,,,,,,
KRDR,06-15-2011,22:00,METAR,,,3.0,,,9999.0,,21.0,17.0,29.62,1004.4,,,,,,,,,,,,,,,7/8 Mostly Cloudy,5500.0,,FEW,2800.0,SCT,4800.0,BKN,5400.0,,
KRDR,06-15-2011,21:00,METAR,,10,4.0,,,9999.0,,21.0,17.0,29.62,1004.4,,,,,,,,,,,,,,,8/8 Overcast,2400.0,,FEW,2900.0,SCT,3900.0,OVC,4700.0,,
KRDR,06-15-2011,20:05,SPECI,,300,4.0,,,9999.0,,20.0,17.0,29.62,1004.3,,,,,,,,,,,,,,,7/8 Mostly Cloudy,5500.0,,SCT,2000.0,SCT,2700.0,BKN,5400.0,,
KRDR,06-15-2011,20:00,METAR,,,0.0,,,9999.0,,20.0,18.0,29.62,1004.2,,,,,,,,,,,,,,,7/8 Mostly Cloudy,5500.0,,FEW,1700.0,SCT,3100.0,BKN,5400.0,,
KRDR,06-15-2011,19:00,METAR,,,0.0,,,9999.0,,19.0,19.0,29.62,1004.4,,,,,,,,,,,,,,,8/8 Overcast,2900.0,,,,,,,,,
KRDR,06-15-2011,19:00,SPECI,,,0.0,,,9999.0,,19.0,19.0,29.62,1004.3,,,,,,,,,,,,,,,8/8 Overcast,3400.0,,SCT,1500.0,BKN,3500.0,OVC,5400.0,,
KRDR,06-15-2011,18:47,SPECI,,,0.0,,,9999.0,,19.0,19.0,29.62,1004.3,,,,,,,,,,,,,,,8/8 Overcast,1700.0,,SCT,1600.0,BKN,2900.0,OVC,3700.0,,
KRDR,06-15-2011,18:00,METAR,,,0.0,,,9999.0,,18.0,18.0,29.62,1004.3,,,,,,,,,,,,,,,8/8 Overcast,3900.0,,SCT,1600.0,OVC,4000.0,,,,
KRDR,06-15-2011,17:42,SPECI,,,0.0,,,9999.0,,18.0,18.0,29.62,1004.3,,,,,,,,,,,,,,,8/8 Overcast,1400.0,,BKN,1600.0,BKN,2000.0,OVC,4000.0,,
KRDR,06-15-2011,17:35,SPECI,,,0.0,,,9999.0,,18.0,18.0,29.62,1004.3,,,,,,,,,,,,,,,8/8 Overcast,1300.0,,BKN,1300.0,OVC,4000.0,,,,
KRDR,06-15-2011,17:33,SPECI,,,0.0,,,9999.0,,18.0,18.0,29.62,1004.3,,,,,,,,,,,,,,,8/8 Overcast,3900.0,,SCT,1300.0,OVC,4000.0,,,,
KRDR,06-15-2011,17:21,SPECI,,,0.0,,,9999.0,,18.0,18.0,29.62,1004.4,,,,,,,,,,,,,,,8/8 Overcast,1000.0,,BKN,1300.0,OVC,4000.0,,,,
KRDR,06-15-2011,17:15,SPECI,,,0.0,,,9999.0,,18.0,18.0,29.62,1004.3,,,,,,,,,,,,,,,8/8 Overcast,3900.0,,SCT,1100.0,OVC,4000.0,,,,
KRDR,06-15-2011,17:00,METAR,,,0.0,,,9999.0,,17.0,17.0,29.62,1004.2,,,,,,,,,,,,,,,8/8 Overcast,900.0,,BKN,1000.0,OVC,3500.0,,,,
KRDR,06-15-2011,16:50,SPECI,,,0.0,,,9999.0,,17.0,17.0,29.62,1004.2,,,,,,,,,,,,,,,8/8 Overcast,900.0,,BKN,1000.0,OVC,3500.0,,,,
KRDR,06-15-2011,16:48,SPECI,,,0.0,,,9999.0,,17.0,17.0,29.62,1004.3,,,,,,,,,,,,,,,8/8 Overcast,800.0,,BKN,900.0,OVC,3500.0,,,,
KRDR,06-15-2011,16:41,SPECI,,,0.0,,,9999.0,,17.0,17.0,29.62,1004.3,,,,,,,,,,,,,,,8/8 Overcast,2900.0,,SCT,900.0,OVC,3400.0,,,,
KRDR,06-15-2011,16:37,SPECI,,,0.0,,,9999.0,,17.0,17.0,29.62,1004.3,,,,,,,,,,,,,,,8/8 Overcast,700.0,,BKN,800.0,BKN,2600.0,OVC,3400.0,,
KRDR,06-15-2011,16:23,SPECI,,,0.0,,,9999.0,,16.0,16.0,29.62,1004.3,,,,,,,,,,,,,,,8/8 Overcast,2100.0,,FEW,800.0,BKN,2400.0,OVC,3400.0,,
KRDR,06-15-2011,16:11,SPECI,,30,3.0,,,9999.0,,16.0,16.0,29.62,1004.3,,,,,,,,,,,,,,,8/8 Overcast,2000.0,,FEW,700.0,OVC,2300.0,,,,
KRDR,06-15-2011,16:00,METAR,,70,4.0,,,9999.0,,16.0,16.0,29.62,1004.4,,,,,,,,,,,TRACE,,,,8/8 Overcast,1100.0,,OVC,1500.0,,,,,,
KRDR,06-15-2011,15:49,SPECI,,70,4.0,,,9999.0,Light Drizzle,16.0,16.0,29.62,1004.5,51,,,,,,,,,,,,,,8/8 Overcast,1100.0,,OVC,1600.0,,,,,,
KRDR,06-15-2011,15:42,SPECI,,,0.0,,,9999.0,Light Drizzle,16.0,16.0,29.63,1004.5,51,,,,,,,,,,,,,,8/8 Overcast,1300.0,,FEW,600.0,BKN,1600.0,OVC,2200.0,,
KRDR,06-15-2011,15:29,SPECI,,90,3.0,,,9999.0,,16.0,16.0,29.63,1004.5,,,,,,,,,,,,,,,8/8 Overcast,1300.0,,SCT,600.0,OVC,1500.0,,,,
KRDR,06-15-2011,15:23,SPECI,,100,4.0,,,9999.0,,16.0,16.0,29.63,1004.6,,,,,,,,,,,,,,,8/8 Overcast,1100.0,,SCT,600.0,OVC,1400.0,,,,
KRDR,06-15-2011,15:00,METAR,,80,5.0,,,9999.0,,16.0,16.0,29.63,1004.7,,,,,,,,,,,,.01 IN,,,8/8 Overcast,600.0,,BKN,700.0,OVC,1200.0,,,,
KRDR,06-15-2011,14:35,SPECI,,110,4.0,,,9999.0,,16.0,16.0,29.63,1004.6,,,,,,,,,,,,,,,8/8 Overcast,600.0,,BKN,700.0,BKN,1100.0,OVC,1600.0,,
KRDR,06-15-2011,14:00,METAR,,110,5.0,,,9999.0,,16.0,16.0,29.64,1004.8,,,,,,,,,,,,,,,8/8 Overcast,600.0,,BKN,800.0,OVC,1700.0,,,,
KRDR,06-15-2011,13:30,SPECI,,90,5.0,,,9999.0,,16.0,16.0,29.64,1005.0,,,,,,,,,,,,,,,8/8 Overcast,600.0,,BKN,800.0,OVC,1300.0,,,,
KRDR,06-15-2011,13:24,SPECI,,90,5.0,,,9999.0,,16.0,16.0,29.64,1005.0,,,,,,,,,,,,,,,8/8 Overcast,600.0,,BKN,700.0,OVC,1200.0,,,,
KRDR,06-15-2011,13:13,SPECI,,110,5.0,,,9999.0,,16.0,16.0,29.64,1005.1,,,,,,,,,,,,,,,8/8 Overcast,500.0,,BKN,800.0,BKN,1300.0,OVC,1800.0,,
KRDR,06-15-2011,13:09,SPECI,,110,6.0,,,9999.0,,16.0,16.0,29.64,1005.1,,,,,,,,,,,,,,,8/8 Overcast,500.0,,BKN,700.0,OVC,1800.0,,,,
KRDR,06-15-2011,13:00,METAR,,110,4.0,,,9999.0,,15.0,15.0,29.65,1005.3,,,,,,,,,,,.01 IN,,,,8/8 Overcast,1400.0,,FEW,500.0,OVC,1700.0,,,,
KRDR,06-15-2011,12:40,SPECI,,110,4.0,,,9999.0,,15.0,15.0,29.65,1005.3,,,,,,,,,,,,,,,8/8 Overcast,1200.0,,FEW,400.0,OVC,1500.0,,,,
KRDR,06-15-2011,12:37,SPECI,,100,5.0,,,9999.0,Light Drizzle,15.0,15.0,29.65,1005.3,51,,,,,,,,,,,,,,8/8 Overcast,1200.0,,SCT,400.0,OVC,1500.0,,,,
KRDR,06-15-2011,12:33,SPECI,,120,4.0,,,9999.0,Light Rain,15.0,15.0,29.65,1005.4,61,,,,,,,,,,,,,,8/8 Overcast,1300.0,,SCT,400.0,OVC,1300.0,,,,
KRDR,06-15-2011,12:00,METAR,,110,7.0,,,9999.0,Light Rain,15.0,15.0,29.66,1005.5,61,,,,,,,,,,.05 IN,,.32 IN,.4 IN,8/8 Overcast,400.0,,OVC,400.0,,,,,,
KRDR,06-15-2011,11:27,SPECI,,110,5.0,,,9999.0,Light Rain/Mist,15.0,15.0,29.66,1005.6,61,10,,,,,,,,,,,,,8/8 Overcast,400.0,,BKN,400.0,OVC,3800.0,,,,
KRDR,06-15-2011,11:04,SPECI,,110,6.0,,,9999.0,Light Rain/Mist,15.0,15.0,29.66,1005.7,61,10,,,,,,,,,,,,,8/8 Overcast,3100.0,,FEW,600.0,OVC,3200.0,,,,
KRDR,06-15-2011,11:00,METAR,,120,6.0,,,8000.0,Light Rain/Mist,15.0,15.0,29.67,1005.8,61,10,,,,,,,,,.15 IN,,,,8/8 Overcast,3000.0,,FEW,500.0,OVC,3000.0,,,,
KRDR,06-15-2011,10:39,SPECI,,130,5.0,,,8000.0,Light Rain/Mist,15.0,15.0,29.67,1005.8,61,10,,,,,,,,,,,,,8/8 Overcast,3000.0,,SCT,500.0,OVC,3000.0,,,,
KRDR,06-15-2011,10:34,SPECI,,140,6.0,,,8000.0,Rain/Mist,15.0,15.0,29.67,1005.9,62,10,,,,,,,,,,,,,8/8 Overcast,2700.0,,SCT,500.0,BKN,2700.0,OVC,3200.0,,
KRDR,06-15-2011,10:26,SPECI,,130,6.0,,,9999.0,Light Rain/Mist,15.0,15.0,29.67,1006.0,61,10,,,,,,,,,,,,,8/8 Overcast,2600.0,,SCT,500.0,BKN,2600.0,OVC,3300.0,,
KRDR,06-15-2011,10:17,SPECI,,130,6.0,,,6400.0,Light Rain/Mist,15.0,15.0,29.67,1006.0,61,10,,,,,,,,,,,,,8/8 Overcast,400.0,,BKN,400.0,OVC,3400.0,,,,
KRDR,06-15-2011,10:00,METAR,,130,6.0,,,6400.0,Rain/Mist,15.0,15.0,29.67,1006.1,62,10,,,,,,,,,,,,,8/8 Overcast,300.0,,BKN,400.0,OVC,2800.0,,,,
KRDR,06-15-2011,09:53,SPECI,,130,6.0,,,6400.0,Rain/Mist,15.0,15.0,29.68,1006.1,62,10,,,,,,,,,,,,,8/8 Overcast,400.0,,BKN,500.0,OVC,2600.0,,,,
KRDR,06-15-2011,09:29,SPECI,,140,8.0,,,9999.0,Light Rain/Mist,15.0,15.0,29.68,1006.3,61,10,,,,,,,,,,,,,8/8 Overcast,2300.0,,SCT,600.0,BKN,2300.0,OVC,3400.0,,
KRDR,06-15-2011,09:21,SPECI,,140,10.0,,,4800.0,Light Rain/Mist,15.0,15.0,29.68,1006.3,61,10,,,,,,,,,,,,,8/8 Overcast,1400.0,,SCT,600.0,BKN,1400.0,OVC,3500.0,,
KRDR,06-15-2011,09:20,SPECI,,140,10.0,,,4800.0,Light Rain/Mist,15.0,15.0,29.68,1006.3,61,10,,,,,,,,,,,,,8/8 Overcast,1400.0,,SCT,600.0,BKN,1400.0,OVC,3500.0,,
KRDR,06-15-2011,09:16,SPECI,,150,10.0,,,4800.0,Rain/Mist,15.0,15.0,29.68,1006.3,62,10,,,,,,,,,,,,,8/8 Overcast,700.0,,BKN,700.0,BKN,1400.0,OVC,3300.0,,
KRDR,06-15-2011,09:07,SPECI,,150,9.0,,,9999.0,Light Rain/Mist,16.0,16.0,29.68,1006.4,61,10,,,,,,,,,,,,,8/8 Overcast,600.0,,BKN,700.0,BKN,1400.0,OVC,2500.0,,
KRDR,06-15-2011,09:04,SPECI,,150,10.0,,,9999.0,Light Rain,16.0,16.0,29.69,1006.5,61,,,,,,,,,,,,,,8/8 Overcast,500.0,,BKN,700.0,BKN,1200.0,OVC,2400.0,,
KRDR,06-15-2011,09:00,METAR,,160,10.0,,,9999.0,Light Drizzle,16.0,16.0,29.69,1006.5,51,,,,,,,,,,.02 IN,.02 IN,,,8/8 Overcast,1400.0,,SCT,700.0,BKN,1900.0,OVC,2500.0,,
KRDR,06-15-2011,09:00,SPECI,,150,8.0,,,9999.0,Light Rain,16.0,16.0,29.69,1006.5,61,,,,,,,,,,,,,,8/8 Overcast,500.0,,,,,,,,,
KRDR,06-15-2011,08:58,SPECI,,150,8.0,,,9999.0,Light Rain,16.0,16.0,29.69,1006.5,61,,,,,,,,,,,,,,8/8 Overcast,1200.0,,SCT,700.0,BKN,1200.0,OVC,2500.0,,
KRDR,06-15-2011,08:56,SPECI,,150,8.0,,,9999.0,Light Drizzle,16.0,16.0,29.69,1006.5,51,,,,,,,,,,,,,,8/8 Overcast,600.0,,BKN,800.0,BKN,1300.0,OVC,2500.0,,
KRDR,06-15-2011,08:54,SPECI,,150,8.0,,,9999.0,Light Drizzle,16.0,16.0,29.69,1006.5,51,,,,,,,,,,,,,,8/8 Overcast,800.0,,SCT,800.0,BKN,1300.0,OVC,2500.0,,
KRDR,06-15-2011,08:48,SPECI,,160,8.0,,,9999.0,Light Drizzle,16.0,16.0,29.69,1006.6,51,,,,,,,,,,,,,,8/8 Overcast,1800.0,,FEW,700.0,BKN,1900.0,OVC,2400.0,,
KRDR,06-15-2011,08:42,SPECI,,160,8.0,,,9999.0,,16.0,16.0,29.69,1006.7,,,,,,,,,,,,,,,8/8 Overcast,1200.0,,FEW,800.0,BKN,1500.0,OVC,2300.0,,
KRDR,06-15-2011,08:05,SPECI,,160,8.0,,,9999.0,Light Rain,16.0,16.0,29.70,1007.0,61,,,,,,,,,,,,,,8/8 Overcast,1800.0,,FEW,1100.0,BKN,1800.0,OVC,3000.0,,
KRDR,06-15-2011,08:01,SPECI,,160,7.0,,,9999.0,Light Rain,16.0,16.0,29.70,1007.0,61,,,,,,,,,,,,,,8/8 Overcast,1800.0,,BKN,1800.0,OVC,3000.0,,,,
KRDR,06-15-2011,08:00,METAR,,170,9.0,,,9999.0,,16.0,16.0,29.70,1007.1,,,,,,,,,,,TRACE,,,,8/8 Overcast,3000.0,,FEW,1200.0,OVC,3000.0,,,,
KRDR,06-15-2011,07:48,SPECI,,170,8.0,,,9999.0,,16.0,16.0,29.71,1007.2,,,,,,,,,,,,,,,8/8 Overcast,3000.0,,FEW,1200.0,OVC,3000.0,,,,
KRDR,06-15-2011,07:30,SPECI,,180,9.0,,,9999.0,Light Rain,16.0,16.0,29.71,1007.3,61,,,,,,,,,,,,,,8/8 Overcast,3200.0,,SCT,1600.0,OVC,3300.0,,,,
KRDR,06-15-2011,07:17,SPECI,,180,8.0,,,9999.0,Light Rain,17.0,17.0,29.72,1007.6,61,,,,,,,,,,,,,,8/8 Overcast,1700.0,,BKN,1700.0,OVC,3500.0,,,,
KRDR,06-15-2011,07:00,METAR,,190,8.0,,,9999.0,Light Rain,17.0,17.0,29.72,1007.8,61,,,,,,,,,,,,,,8/8 Overcast,3400.0,,OVC,3500.0,,,,,,
KRDR,06-15-2011,06:44,SPECI,,190,7.0,,,9999.0,,17.0,17.0,29.73,1007.9,,,,,,,,,,,,,,,8/8 Overcast,3400.0,,SCT,2900.0,OVC,3500.0,,,,
KRDR,06-15-2011,06:34,SPECI,,180,7.0,,,9999.0,,17.0,17.0,29.74,1008.2,,,,,,,,,,,,,,,8/8 Overcast,2700.0,,BKN,2900.0,OVC,3600.0,,,,
KRDR,06-15-2011,06:29,SPECI,,180,6.0,,,9999.0,,17.0,17.0,29.74,1008.3,,,,,,,,,,,,,,,8/8 Overcast,3000.0,,BKN,3000.0,OVC,4000.0,,,,
KRDR,06-15-2011,06:19,SPECI,,170,8.0,,,9999.0,,17.0,17.0,29.75,1008.4,,,,,,,,,,,,,,,8/8 Overcast,2900.0,,BKN,2900.0,OVC,4100.0,,,,
KRDR,06-15-2011,06:00,METAR,,140,6.0,,,9999.0,,16.0,16.0,29.75,1008.6,,,,,,,,,,,,,.06 IN,,8/8 Overcast,4900.0,,OVC,5000.0,,,,,,
KRDR,06-15-2011,05:00,METAR,,170,6.0,,,9999.0,,16.0,16.0,29.77,1009.1,,,,,,,,,,,,,,,8/8 Overcast,4900.0,,BKN,5000.0,OVC,6900.0,,,,
KRDR,06-15-2011,04:00,METAR,,200,4.0,,,9999.0,,17.0,17.0,29.77,1009.3,,,,,,,,,,,TRACE,,,,8/8 Overcast,7500.0,,BKN,7400.0,OVC,9900.0,,,,
KRDR,06-15-2011,03:16,SPECI,,180,6.0,,,9999.0,,17.0,17.0,29.78,1009.5,,,,,,,,,,,,,,,8/8 Overcast,10000.0,,OVC,9900.0,,,,,,
KRDR,06-15-2011,03:04,SPECI,,180,6.0,,,9999.0,Light Rain,17.0,17.0,29.78,1009.4,61,,,,,,,,,,,,,,8/8 Overcast,10000.0,,OVC,9900.0,,,,,,
KRDR,06-15-2011,03:00,METAR,,190,6.0,,,9999.0,,17.0,17.0,29.77,1009.3,,,,,,,,,,,TRACE,.06 IN,,,8/8 Overcast,8500.0,,BKN,8400.0,OVC,11000.0,,,,
KRDR,06-15-2011,02:00,METAR,,220,9.0,,,9999.0,,17.0,17.0,29.76,1009.0,,,,,,,,,,,,,,,8/8 Overcast,10000.0,,OVC,9900.0,,,,,,
KRDR,06-15-2011,01:39,SPECI,,220,10.0,,,9999.0,Light Rain,17.0,17.0,29.77,1009.2,61,,,,,,,,,,,,,,7/8 Mostly Cloudy,10000.0,,BKN,9900.0,,,,,,
KRDR,06-15-2011,01:16,SPECI,,210,9.0,,,9999.0,,17.0,17.0,29.78,1009.6,,,,,,,,,,,,,,,8/8 Overcast,10000.0,,SCT,7900.0,OVC,9900.0,,,,
KRDR,06-15-2011,01:00,METAR,,170,7.0,,,9999.0,,18.0,18.0,29.78,1009.7,,,,,,,,,,,.05 IN,,,,8/8 Overcast,10000.0,,SCT,7900.0,OVC,9900.0,,,,
KRDR,06-15-2011,00:49,SPECI,,170,7.0,,,9999.0,,18.0,18.0,29.78,1009.7,,,,,,,,,,,,,,,8/8 Overcast,10000.0,,SCT,7900.0,OVC,9900.0,,,,
KRDR,06-15-2011,00:00,METAR,,230,8.0,,,9999.0,Light Rain,19.0,19.0,29.77,1009.3,61,,,,,,,,,,TRACE,,.02 IN,,7/8 Mostly Cloudy,9000.0,,FEW,6400.0,BKN,8900.0,,,,
KRDR,06-14-2011,23:50,SPECI,,240,8.0,,,9999.0,Light Rain,19.0,19.0,29.77,1009.3,61,,,,,,,,,,,,,,7/8 Mostly Cloudy,9000.0,,FEW,6400.0,BKN,8900.0,,,,
KRDR,06-14-2011,23:01,SPECI,,240,11.0,,,9999.0,,19.0,19.0,29.77,1009.3,,,,,,,,,,,,,,,7/8 Mostly Cloudy,10000.0,,FEW,6400.0,SCT,7900.0,BKN,9900.0,,
KRDR,06-14-2011,23:00,METAR,,250,9.0,,,9999.0,Light Rain,19.0,19.0,29.77,1009.3,61,,,,,,,,,,TRACE,,,,8/8 Overcast,8000.0,,SCT,6400.0,BKN,7900.0,OVC,9900.0,,
KRDR,06-14-2011,22:23,SPECI,,260,10.0,,,9999.0,,19.0,19.0,29.77,1009.1,,,,,,,,,,,,,,,7/8 Mostly Cloudy,8500.0,,FEW,5400.0,BKN,8400.0,BKN,12000.0,,
KRDR,06-14-2011,22:14,SPECI,,260,8.0,,,9999.0,Light Rain,19.0,19.0,29.76,1009.0,61,,,,,,,,,,,,,,7/8 Mostly Cloudy,10000.0,,SCT,4900.0,SCT,7900.0,BKN,9900.0,,
KRDR,06-14-2011,22:04,SPECI,,240,14.0,,,9999.0,,19.0,19.0,29.76,1009.1,,,,,,,,,,,,,,,7/8 Mostly Cloudy,8000.0,,SCT,4700.0,BKN,7900.0,,,,
KRDR,06-14-2011,22:00,METAR,,250,18.0,23.0,230/26KTS,9999.0,Light Rain,19.0,19.0,29.76,1009.1,61,,,,,,,,,,.02 IN,,,,7/8 Mostly Cloudy,4600.0,,BKN,4700.0,BKN,5400.0,BKN,11000.0,,
KRDR,06-14-2011,21:54,SPECI,,250,15.0,23.0,,9999.0,Light Rain,19.0,19.0,29.76,1009.0,61,,,,,,,,,,,,,,7/8 Mostly Cloudy,4800.0,,FEW,1000.0,BKN,4900.0,BKN,11000.0,,
KRDR,06-14-2011,21:45,SPECI,,250,15.0,24.0,230/26KTS,9999.0,Light Rain,19.0,19.0,29.76,1009.0,61,,,,,,,,,,,,,,7/8 Mostly Cloudy,4600.0,,BKN,4700.0,BKN,11000.0,,,,
KRDR,06-14-2011,21:36,SPECI,,240,17.0,26.0,230/26KTS,9999.0,Thunderstorm and Rain or Snow Showers,20.0,20.0,29.76,1008.8,92,,,,,,,,,,,,,,7/8 Mostly Cloudy,4800.0,,SCT,4900.0,SCT,5900.0,BKN,11000.0,,
KRDR,06-14-2011,21:31,SPECI,,250,21.0,26.0,230/26KTS,9999.0,Thunderstorm and Rain or Snow Showers,22.0,19.0,29.76,1008.9,92,,,,,,,,,,,,,,7/8 Mostly Cloudy,4900.0,,FEW,4800.0,SCT,5900.0,BKN,11000.0,,
KRDR,06-14-2011,21:30,SPECI,,250,19.0,24.0,,9999.0,Thunderstorm and Rain or Snow Showers,22.0,19.0,29.75,1008.8,92,,,,,,,,,,,,,,7/8 Mostly Cloudy,11000.0,,SCT,4800.0,SCT,5900.0,BKN,11000.0,,
KRDR,06-14-2011,21:26,SPECI,,170,14.0,19.0,,9999.0,Light Rain,25.0,18.0,29.75,1008.5,61,,,,,,,,,,,,,,7/8 Mostly Cloudy,11000.0,,FEW,4800.0,SCT,5900.0,BKN,11000.0,,
KRDR,06-14-2011,21:00,METAR,,170,11.0,,,9999.0,,26.0,17.0,29.75,1008.7,,,,,,,,,,,,,,,2/8 Mostly Clear,72000.0,,FEW,4600.0,,,,,,
KRDR,06-14-2011,20:00,METAR,,160,10.0,,,9999.0,,26.0,17.0,29.78,1009.6,,,,,,,,,,,,,,,7/8 Mostly Cloudy,4200.0,,BKN,4300.0,,,,,,
KRDR,06-14-2011,19:00,METAR,,160,13.0,,,9999.0,,25.0,18.0,29.81,1010.6,,,,,,,,,,,,,,,4/8 Partly Cloudy,72000.0,,FEW,3800.0,SCT,11000.0,,,,
KRDR,06-14-2011,18:00,METAR,,160,11.0,19.0,,9999.0,,24.0,18.0,29.82,1011.0,,,,,,,,,,,,,,,2/8 Mostly Clear,72000.0,,FEW,12000.0,,,,,,
KRDR,06-14-2011,17:00,METAR,,170,13.0,,,9999.0,,23.0,18.0,29.84,1011.4,,,,,,,,,,,,,,,4/8 Partly Cloudy,72000.0,,SCT,3000.0,,,,,,
KRDR,06-14-2011,16:41,SPECI,,140,13.0,,,9999.0,,23.0,18.0,29.84,1011.5,,,,,,,,,,,,,,,7/8 Mostly Cloudy,3000.0,,BKN,3000.0,,,,,,
KRDR,06-14-2011,16:00,METAR,,170,12.0,,,9999.0,,22.0,17.0,29.85,1012.0,,,,,,,,,,,,,,,7/8 Mostly Cloudy,2000.0,,BKN,2300.0,,,,,,
KRDR,06-14-2011,15:18,SPECI,,160,12.0,,,9999.0,,21.0,18.0,29.86,1012.2,,,,,,,,,,,,,,,7/8 Mostly Cloudy,1800.0,,BKN,1800.0,,,,,,
KRDR,06-14-2011,15:00,METAR,,150,10.0,,,9999.0,,21.0,18.0,29.87,1012.4,,,,,,,,,,,,,,,7/8 Mostly Cloudy,1600.0,,BKN,1600.0,,,,,,
KRDR,06-14-2011,14:54,SPECI,,150,12.0,,,9999.0,,21.0,18.0,29.87,1012.4,,,,,,,,,,,,,,,4/8 Partly Cloudy,72000.0,,SCT,1600.0,,,,,,
KRDR,06-14-2011,14:37,SPECI,,150,11.0,,,9999.0,,20.0,19.0,29.87,1012.6,,,,,,,,,,,,,,,7/8 Mostly Cloudy,1600.0,,BKN,1600.0,,,,,,
KRDR,06-14-2011,14:00,METAR,,150,9.0,,,9999.0,,19.0,19.0,29.87,1012.4,,,,,,,,,,,,,,,Clear,72000.0,,,73000.0,,,,,,
KRDR,06-14-2011,13:00,METAR,,150,6.0,,,9999.0,,17.0,17.0,29.87,1012.6,,,,,,,,,,,,,,,2/8 Mostly Clear,72000.0,,FEW,3100.0,,,,,,
KRDR,06-14-2011,12:00,METAR,,160,7.0,,,9999.0,,16.0,16.0,29.87,1012.5,,,,,,,,,,,,,,.02 IN,Clear,72000.0,,,73000.0,,,,,,
KRDR,06-14-2011,11:00,METAR,,140,5.0,,,9999.0,,14.0,14.0,29.86,1012.1,,,,,,,,,,,,,,,Clear,72000.0,,,73000.0,,,,,,
KRDR,06-14-2011,10:00,METAR,,150,5.0,,,9999.0,,14.0,14.0,29.85,1012.0,,,,,,,,,,,,,,,Clear,72000.0,,,73000.0,,,,,,
KRDR,06-14-2011,09:00,METAR,,160,7.0,,,9999.0,,16.0,16.0,29.85,1012.0,,,,,,,,,,,,,,,Clear,72000.0,,,73000.0,,,,,,
KRDR,06-14-2011,08:00,METAR,,180,9.0,,,9999.0,,17.0,17.0,29.88,1012.9,,,,,,,,,,,,,,,Clear,72000.0,,,73000.0,,,,,,
KRDR,06-14-2011,07:00,METAR,,160,9.0,,,9999.0,,18.0,18.0,29.87,1012.6,,,,,,,,,,,,,,,Clear,72000.0,,,73000.0,,,,,,
KRDR,06-14-2011,06:00,METAR,,160,10.0,,,9999.0,,18.0,18.0,29.88,1012.8,,,,,,,,,,,,,.02 IN,,Clear,72000.0,,,73000.0,,,,,,
KRDR,06-14-2011,05:00,METAR,,170,7.0,,,9999.0,,19.0,19.0,29.89,1013.1,,,,,,,,,,,,,,,2/8 Mostly Clear,72000.0,,FEW,9900.0,,,,,,
KRDR,06-14-2011,04:00,METAR,,180,8.0,,,9999.0,,20.0,20.0,29.89,1013.2,,,,,,,,,,,,,,,4/8 Partly Cloudy,72000.0,,SCT,5900.0,,,,,,
KRDR,06-14-2011,03:00,METAR,,190,10.0,,,9999.0,,21.0,20.0,29.87,1012.7,,,,,,,,,,,,.02 IN,,,7/8 Mostly Cloudy,6000.0,,BKN,5900.0,,,,,,
KRDR,06-14-2011,02:00,METAR,,180,13.0,,,9999.0,,22.0,21.0,29.84,1011.6,,,,,,,,,,,,,,,8/8 Overcast,4900.0,,BKN,5000.0,OVC,5900.0,,,,
KRDR,06-14-2011,01:31,SPECI,,180,14.0,20.0,,9999.0,,22.0,22.0,29.83,1011.3,,,,,,,,,,,,,,,8/8 Overcast,4700.0,,SCT,3300.0,BKN,4800.0,OVC,5900.0,,
KRDR,06-14-2011,01:00,METAR,,190,6.0,,,9999.0,,20.0,20.0,29.83,1011.2,,,,,,,,,,,.02 IN,,,,8/8 Overcast,3300.0,,BKN,3400.0,OVC,5000.0,,,,
KRDR,06-14-2011,00:38,SPECI,,330,10.0,,,9999.0,,22.0,21.0,29.83,1011.3,,,,,,,,,,,,,,,8/8 Overcast,3900.0,,BKN,4000.0,BKN,5000.0,OVC,6900.0,,
KRDR,06-14-2011,00:30,SPECI,,170,11.0,18.0,,9999.0,,22.0,21.0,29.81,1010.6,,,,,,,,,,,,,,,8/8 Overcast,4900.0,,SCT,4200.0,BKN,5000.0,OVC,6900.0,,
KRDR,06-14-2011,00:19,SPECI,,190,14.0,,,9999.0,Light Rain/Mist,23.0,21.0,29.82,1010.9,61,10,,,,,,,,,,,,,8/8 Overcast,4100.0,,FEW,800.0,BKN,4200.0,OVC,6400.0,,
KRDR,06-14-2011,00:00,METAR,,180,14.0,,,9999.0,,25.0,18.0,29.81,1010.7,,,,,,,,,,,,,,,8/8 Overcast,6000.0,,SCT,4500.0,BKN,8400.0,OVC,11000.0,,
KRDR,06-13-2011,23:00,METAR,,160,11.0,,,9999.0,,25.0,19.0,29.83,1011.2,,,,,,,,,,,,,,,Clear,72000.0,,,73000.0,,,,,,
KRDR,06-13-2011,22:00,METAR,,170,15.0,,,9999.0,,24.0,19.0,29.83,1011.3,,,,,,,,,,,,,,,Clear,72000.0,,,73000.0,,,,,,
KRDR,06-13-2011,21:00,METAR,,170,16.0,,,9999.0,,23.0,19.0,29.85,1011.9,,,,,,,,,,,,,,,7/8 Mostly Cloudy,4200.0,,BKN,4300.0,,,,,,
KRDR,06-13-2011,20:15,SPECI,,170,13.0,,,9999.0,,21.0,19.0,29.86,1012.2,,,,,,,,,,,,,,,8/8 Overcast,3700.0,,SCT,2300.0,OVC,3800.0,,,,
KRDR,06-13-2011,20:00,METAR,,160,13.0,20.0,,9999.0,,21.0,19.0,29.86,1012.2,,,,,,,,,,,,,,,7/8 Mostly Cloudy,2300.0,,BKN,2300.0,BKN,2800.0,BKN,3700.0,,
KRDR,06-13-2011,19:46,SPECI,,170,12.0,20.0,,9999.0,,21.0,19.0,29.86,1012.2,,,,,,,,,,,,,,,7/8 Mostly Cloudy,2800.0,,SCT,2300.0,BKN,2800.0,BKN,3800.0,,
KRDR,06-13-2011,19:00,METAR,,160,14.0,,,9999.0,,20.0,19.0,29.86,1012.3,,,,,,,,,,,,,,,8/8 Overcast,3400.0,,OVC,3500.0,,,,,,
KRDR,06-13-2011,18:32,SPECI,,170,14.0,,,9999.0,,19.0,19.0,29.87,1012.6,,,,,,,,,,,,,,,8/8 Overcast,3500.0,,SCT,2300.0,OVC,3600.0,,,,
KRDR,06-13-2011,18:00,METAR,,180,17.0,,,9999.0,,19.0,19.0,29.88,1013.0,,,,,,,,,,,,,TRACE,,8/8 Overcast,1800.0,,OVC,1900.0,,,,,,
KRDR,06-13-2011,17:00,METAR,,180,18.0,24.0,150/27KTS,9999.0,,18.0,18.0,29.88,1012.7,,,,,,,,,,,,,,,8/8 Overcast,1500.0,,OVC,1600.0,,,,,,
KRDR,06-13-2011,16:23,SPECI,,160,21.0,26.0,150/27KTS,9999.0,,17.0,17.0,29.88,1012.9,,,,,,,,,,,,,,,8/8 Overcast,1500.0,,OVC,1500.0,,,,,,
KRDR,06-13-2011,16:06,SPECI,,150,19.0,27.0,150/27KTS,9999.0,,17.0,17.0,29.88,1012.7,,,,,,,,,,,,,,,8/8 Overcast,1400.0,,BKN,1400.0,OVC,9900.0,,,,
KRDR,06-13-2011,16:00,METAR,,140,16.0,23.0,,9999.0,,18.0,18.0,29.87,1012.6,,,,,,,,,,,,,,,8/8 Overcast,1400.0,,BKN,1500.0,OVC,9900.0,,,,
KRDR,06-13-2011,15:45,SPECI,,150,18.0,24.0,,9999.0,,18.0,18.0,29.87,1012.6,,,,,,,,,,,,,,,7/8 Mostly Cloudy,1500.0,,BKN,1500.0,BKN,9900.0,,,,
KRDR,06-13-2011,15:00,METAR,,170,13.0,,,9999.0,,17.0,17.0,29.88,1013.0,,,,,,,,,,,,TRACE,,,8/8 Overcast,1300.0,,OVC,1300.0,,,,,,
KRDR,06-13-2011,14:05,SPECI,,160,14.0,21.0,,9999.0,,15.0,15.0,29.89,1013.2,,,,,,,,,,,,,,,8/8 Overcast,1000.0,,OVC,1200.0,,,,,,
KRDR,06-13-2011,14:00,METAR,,160,13.0,23.0,,9999.0,,15.0,15.0,29.88,1013.0,,,,,,,,,,,TRACE,,,,8/8 Overcast,1000.0,,OVC,1100.0,,,,,,
KRDR,06-13-2011,13:28,SPECI,,160,13.0,21.0,,9999.0,,15.0,15.0,29.89,1013.2,,,,,,,,,,,,,,,8/8 Overcast,1100.0,,BKN,1100.0,OVC,9900.0,,,,
KRDR,06-13-2011,13:18,SPECI,,160,15.0,19.0,,9999.0,Light Rain,15.0,15.0,29.89,1013.1,61,,,,,,,,,,,,,,8/8 Overcast,1100.0,,BKN,1100.0,OVC,9900.0,,,,
KRDR,06-13-2011,13:15,SPECI,,160,14.0,19.0,,9999.0,Light Rain,15.0,15.0,29.89,1013.1,61,,,,,,,,,,,,,,8/8 Overcast,1200.0,,BKN,1200.0,OVC,9900.0,,,,
KRDR,06-13-2011,13:00,METAR,,160,14.0,,,9999.0,,14.0,14.0,29.88,1012.9,,,,,,,,,,,,,,,8/8 Overcast,1100.0,,BKN,1300.0,OVC,9900.0,,,,
KRDR,06-13-2011,12:15,SPECI,,160,12.0,,,9999.0,,14.0,14.0,29.89,1013.1,,,,,,,,,,,,,,,7/8 Mostly Cloudy,1400.0,,BKN,1400.0,BKN,11000.0,,,,
KRDR,06-13-2011,12:00,METAR,,160,12.0,,,9999.0,,14.0,14.0,29.88,1012.7,,,,,,,,,,,TRACE,,.01 IN,.01 IN,7/8 Mostly Cloudy,11000.0,,BKN,11000.0,,,,,,
KRDR,06-13-2011,11:00,METAR,,160,14.0,,,9999.0,,13.0,13.0,29.86,1012.3,,,,,,,,,,,,,,,7/8 Mostly Cloudy,11000.0,,SCT,8900.0,BKN,11000.0,,,,
KRDR,06-13-2011,10:35,SPECI,,160,16.0,22.0,,9999.0,Light Rain,14.0,14.0,29.87,1012.4,61,,,,,,,,,,,,,,8/8 Overcast,10000.0,,FEW,2400.0,SCT,5400.0,OVC,9900.0,,
KRDR,06-13-2011,10:00,METAR,,170,14.0,23.0,,9999.0,,14.0,14.0,29.86,1012.1,,,,,,,,,,,,,,,8/8 Overcast,10000.0,,FEW,2200.0,OVC,9900.0,,,,
KRDR,06-13-2011,09:40,SPECI,,150,22.0,28.0,140/28KTS,9999.0,Light Rain,14.0,14.0,29.83,1011.2,61,,,,,,,,,,,,,,8/8 Overcast,10000.0,,BKN,9900.0,OVC,11000.0,,,,
KRDR,06-13-2011,09:00,METAR,,140,16.0,23.0,150/28KTS,9999.0,,14.0,14.0,29.84,1011.5,,,,,,,,,,,TRACE,0 IN,,,Clear,72000.0,,,73000.0,,,,,,
KRDR,06-13-2011,08:20,SPECI,,140,20.0,26.0,150/28KTS,9999.0,,14.0,14.0,29.88,1012.8,,,,,,,,,,,,,,,2/8 Mostly Clear,72000.0,,FEW,8900.0,,,,,,
KRDR,06-13-2011,08:09,SPECI,,140,21.0,28.0,150/28KTS,9999.0,Light Rain,14.0,14.0,29.88,1013.0,61,,,,,,,,,,,,,,4/8 Partly Cloudy,72000.0,,FEW,8900.0,SCT,11000.0,,,,
KRDR,06-13-2011,08:07,SPECI,,140,20.0,28.0,140/28KTS,9999.0,,14.0,14.0,29.88,1013.0,,,,,,,,,,,,,,,4/8 Partly Cloudy,72000.0,,FEW,8900.0,SCT,11000.0,,,,
KRDR,06-13-2011,08:00,METAR,,150,19.0,24.0,,9999.0,Light Rain,14.0,13.0,29.90,1013.6,61,,,,,,,,,,TRACE,,,,4/8 Partly Cloudy,72000.0,,FEW,5400.0,SCT,6900.0,,,,
KRDR,06-13-2011,07:37,SPECI,,140,13.0,19.0,,9999.0,,15.0,11.0,29.92,1014.1,,,,,,,,,,,,,,,7/8 Mostly Cloudy,4900.0,,SCT,4300.0,BKN,5000.0,BKN,6900.0,,
KRDR,06-13-2011,07:30,SPECI,,150,14.0,20.0,,9999.0,,15.0,11.0,29.92,1014.3,,,,,,,,,,,,,,,8/8 Overcast,4300.0,,BKN,4400.0,BKN,5400.0,OVC,6900.0,,
KRDR,06-13-2011,07:00,METAR,,160,13.0,17.0,,9999.0,Light Rain,15.0,10.0,29.96,1015.5,61,,,,,,,,,,TRACE,,,,8/8 Overcast,4200.0,,OVC,4300.0,,,,,,
KRDR,06-13-2011,06:44,SPECI,,160,10.0,,,9999.0,Light Rain,16.0,9.0,29.97,1015.8,61,,,,,,,,,,,,,,7/8 Mostly Cloudy,4400.0,,BKN,4500.0,BKN,12000.0,,,,
KRDR,06-13-2011,06:00,METAR,,140,10.0,,,9999.0,,16.0,9.0,29.95,1015.1,,,,,,,,,,,,,,,Clear,72000.0,,,73000.0,,,,,,
KRDR,06-13-2011,05:00,METAR,,140,11.0,,,9999.0,,16.0,9.0,29.94,1014.9,,,,,,,,,,,,,,,2/8 Mostly Clear,72000.0,,FEW,5000.0,,,,,,
KRDR,06-13-2011,04:00,METAR,,140,10.0,,,9999.0,,16.0,10.0,29.96,1015.6,,,,,,,,,,,,,,,4/8 Partly Cloudy,72000.0,,SCT,5000.0,,,,,,
KRDR,06-13-2011,03:00,METAR,,140,9.0,,,9999.0,,17.0,10.0,29.95,1015.3,,,,,,,,,,,,,,,8/8 Overcast,4700.0,,OVC,4800.0,,,,,,
KRDR,06-13-2011,02:00,METAR,,140,8.0,,,9999.0,,18.0,10.0,29.96,1015.5,,,,,,,,,,,,,,,8/8 Overcast,6000.0,,OVC,5900.0,,,,,,
KRDR,06-13-2011,01:00,METAR,,140,11.0,,,9999.0,,18.0,9.0,29.96,1015.4,,,,,,,,,,,,,,,8/8 Overcast,6000.0,,OVC,5900.0,,,,,,
KRDR,06-13-2011,00:00,METAR,,140,12.0,20.0,,9999.0,,18.0,10.0,29.96,1015.7,,,,,,,,,,,,,,,8/8 Overcast,6000.0,,OVC,5900.0,,,,,,
KRDR,06-12-2011,23:00,METAR,,140,15.0,21.0,,9999.0,,18.0,9.0,29.98,1016.2,,,,,,,,,,,,,,,8/8 Overcast,6000.0,,OVC,5900.0,,,,,,
KRDR,06-12-2011,22:00,METAR,,150,16.0,22.0,,9999.0,,17.0,8.0,30.00,1016.7,,,,,,,,,,,,,,,8/8 Overcast,6000.0,,OVC,5900.0,,,,,,
KRDR,06-12-2011,21:00,METAR,,150,13.0,20.0,,9999.0,,17.0,10.0,30.01,1017.1,,,,,,,,,,,,,,,8/8 Overcast,6000.0,,OVC,5900.0,,,,,,
KRDR,06-12-2011,20:00,METAR,,150,16.0,23.0,160/27KTS,9999.0,,16.0,10.0,30.02,1017.4,,,,,,,,,,,,,,,8/8 Overcast,4900.0,,OVC,5000.0,,,,,,
KRDR,06-12-2011,19:00,METAR,,160,19.0,24.0,,9999.0,,18.0,10.0,30.01,1017.1,,,,,,,,,,,,,,,8/8 Overcast,6000.0,,OVC,5900.0,,,,,,
KRDR,06-12-2011,18:00,METAR,,170,17.0,21.0,,9999.0,,17.0,12.0,30.02,1017.4,,,,,,,,,,,,,TRACE,,8/8 Overcast,8000.0,,OVC,7900.0,,,,,,
KRDR,06-12-2011,17:00,METAR,,160,16.0,,,9999.0,,17.0,12.0,30.03,1017.7,,,,,,,,,,,,,,,8/8 Overcast,8000.0,,FEW,5900.0,BKN,7900.0,OVC,9900.0,,
KRDR,06-12-2011,16:00,METAR,,160,15.0,22.0,,9999.0,,17.0,12.0,30.04,1018.0,,,,,,,,,,,,,,,8/8 Overcast,6000.0,,OVC,5900.0,,,,,,
KRDR,06-12-2011,15:00,METAR,,160,12.0,,,9999.0,,15.0,15.0,30.04,1018.2,,,,,,,,,,,TRACE,0 IN,,,8/8 Overcast,9500.0,,FEW,6400.0,OVC,9400.0,,,,
KRDR,06-12-2011,14:36,SPECI,,170,15.0,,,9999.0,,16.0,15.0,30.04,1018.1,,,,,,,,,,,,,,,8/8 Overcast,9000.0,,OVC,8900.0,,,,,,
KRDR,06-12-2011,14:24,SPECI,,160,11.0,,,9999.0,Light Rain,16.0,14.0,30.03,1018.0,61,,,,,,,,,,,,,,7/8 Mostly Cloudy,10000.0,,BKN,9900.0,,,,,,
KRDR,06-12-2011,14:00,METAR,,160,11.0,,,9999.0,,16.0,13.0,30.03,1017.7,,,,,,,,,,,,,,,Clear,72000.0,,,73000.0,,,,,,
KRDR,06-12-2011,13:00,METAR,,160,9.0,,,9999.0,,15.0,12.0,30.02,1017.6,,,,,,,,,,,,,,,Clear,72000.0,,,73000.0,,,,,,
KRDR,06-12-2011,12:00,METAR,,150,8.0,,,9999.0,,15.0,11.0,30.02,1017.4,,,,,,,,,,,,,,,2/8 Mostly Clear,72000.0,,FEW,5900.0,,,,,,
KRDR,06-12-2011,11:00,METAR,,150,7.0,,,9999.0,,14.0,10.0,30.02,1017.5,,,,,,,,,,,,,,,8/8 Overcast,6000.0,,OVC,5900.0,,,,,,
KRDR,06-12-2011,10:00,METAR,,140,7.0,,,9999.0,,14.0,10.0,30.01,1017.3,,,,,,,,,,,,,,,8/8 Overcast,6000.0,,OVC,5900.0,,,,,,
KRDR,06-12-2011,09:00,METAR,,150,7.0,,,9999.0,,13.0,10.0,30.01,1017.3,,,,,,,,,,,,,,,7/8 Mostly Cloudy,6000.0,,BKN,5900.0,,,,,,
KRDR,06-12-2011,08:00,METAR,,150,8.0,,,9999.0,,13.0,9.0,30.02,1017.4,,,,,,,,,,,,,,,Clear,72000.0,,,73000.0,,,,,,
KRDR,06-12-2011,07:00,METAR,,140,6.0,,,9999.0,,13.0,9.0,30.01,1017.1,,,,,,,,,,,,,,,Clear,72000.0,,,73000.0,,,,,,
KRDR,06-12-2011,06:00,METAR,,120,7.0,,,9999.0,,14.0,7.0,30.00,1016.9,,,,,,,,,,,,,,,Clear,72000.0,,,73000.0,,,,,,
KRDR,06-12-2011,05:00,METAR,,120,6.0,,,9999.0,,15.0,7.0,30.00,1016.9,,,,,,,,,,,,,,,4/8 Partly Cloudy,72000.0,,SCT,6900.0,,,,,,
KRDR,06-12-2011,04:00,METAR,,120,7.0,,,9999.0,,16.0,7.0,30.00,1016.9,,,,,,,,,,,,,,,7/8 Mostly Cloudy,7000.0,,BKN,6900.0,,,,,,
KRDR,06-12-2011,03:00,METAR,,120,8.0,,,9999.0,,18.0,6.0,29.99,1016.4,,,,,,,,,,,,,,,Clear,72000.0,,,73000.0,,,,,,
KRDR,06-12-2011,02:00,METAR,,110,7.0,,,9999.0,,19.0,6.0,29.98,1016.1,,,,,,,,,,,,,,,Clear,72000.0,,,73000.0,,,,,,
KRDR,06-12-2011,01:00,METAR,,90,6.0,,,9999.0,,20.0,6.0,29.96,1015.5,,,,,,,,,,,,,,,Clear,72000.0,,,73000.0,,,,,,
KRDR,06-12-2011,00:00,METAR,,110,7.0,,,9999.0,,21.0,5.0,29.98,1016.2,,,,,,,,,,,,,,,Clear,72000.0,,,73000.0,,,,,,
KRDR,06-11-2011,23:00,METAR,,100,8.0,,,9999.0,,22.0,6.0,29.99,1016.5,,,,,,,,,,,,,,,Clear,72000.0,,,73000.0,,,,,,
KRDR,06-11-2011,22:00,METAR,,140,9.0,,,9999.0,,22.0,5.0,30.00,1016.9,,,,,,,,,,,,,,,2/8 Mostly Clear,72000.0,,FEW,6900.0,,,,,,
KRDR,06-11-2011,21:00,METAR,,70,6.0,,,9999.0,,21.0,5.0,30.01,1017.1,,,,,,,,,,,,,,,2/8 Mostly Clear,72000.0,,FEW,6900.0,,,,,,
KRDR,06-11-2011,20:00,METAR,,,4.0,,,9999.0,,21.0,6.0,30.02,1017.5,,,,,,,,,,,,,,,4/8 Partly Cloudy,72000.0,,SCT,5900.0,,,,,,
KRDR,06-11-2011,19:00,METAR,,,0.0,,,9999.0,,21.0,6.0,30.04,1018.1,,,,,,,,,,,,,,,Clear,72000.0,,,73000.0,,,,,,
KRDR,06-11-2011,18:00,METAR,,,5.0,,,9999.0,,20.0,6.0,30.06,1018.8,,,,,,,,,,,,,,,Clear,72000.0,,,73000.0,,,,,,
KRDR,06-11-2011,17:00,METAR,,150,6.0,,,9999.0,,19.0,5.0,30.08,1019.4,,,,,,,,,,,,,,,Clear,72000.0,,,73000.0,,,,,,
KRDR,06-11-2011,16:00,METAR,,140,7.0,,,9999.0,,18.0,5.0,30.09,1019.7,,,,,,,,,,,,,,,Clear,72000.0,,,73000.0,,,,,,
KRDR,06-11-2011,15:00,METAR,,130,7.0,,,9999.0,,17.0,5.0,30.09,1019.7,,,,,,,,,,,,,,,Clear,72000.0,,,73000.0,,,,,,
KRDR,06-11-2011,14:00,METAR,,130,3.0,,,9999.0,,15.0,9.0,30.09,1019.7,,,,,,,,,,,,,,,Clear,72000.0,,,73000.0,,,,,,
KRDR,06-11-2011,13:00,METAR,,,0.0,,,9999.0,,12.0,12.0,30.09,1019.7,,,,,,,,,,,,,,,Clear,72000.0,,,73000.0,,,,,,
KRDR,06-11-2011,12:00,METAR,,,0.0,,,9999.0,,8.0,8.0,30.08,1019.3,,,,,,,,,,,,,,,Clear,72000.0,,,73000.0,,,,,,
KRDR,06-11-2011,11:00,METAR,,,0.0,,,9999.0,,4.0,4.0,30.06,1018.9,,,,,,,,,,,,,,,Clear,72000.0,,,73000.0,,,,,,
KRDR,06-11-2011,10:00,METAR,,290,5.0,,,9999.0,,4.0,4.0,30.06,1018.7,,,,,,,,,,,,,,,Clear,72000.0,,,73000.0,,,,,,
KRDR,06-11-2011,09:00,METAR,,,0.0,,,9999.0,,5.0,5.0,30.06,1018.8,,,,,,,,,,,,,,,Clear,72000.0,,,73000.0,,,,,,
KRDR,06-11-2011,08:00,METAR,,230,3.0,,,9999.0,,6.0,6.0,30.06,1018.7,,,,,,,,,,,,,,,Clear,72000.0,,,73000.0,,,,,,
KRDR,06-11-2011,07:00,METAR,,,0.0,,,9999.0,,6.0,6.0,30.05,1018.6,,,,,,,,,,,,,,,Clear,72000.0,,,73000.0,,,,,,
KRDR,06-11-2011,06:00,METAR,,300,4.0,,,9999.0,,7.0,7.0,30.05,1018.6,,,,,,,,,,,,,,,Clear,72000.0,,,73000.0,,,,,,
KRDR,06-11-2011,05:00,METAR,,,0.0,,,9999.0,,8.0,8.0,30.05,1018.6,,,,,,,,,,,,,,,Clear,72000.0,,,73000.0,,,,,,
KRDR,06-11-2011,04:00,METAR,,,0.0,,,9999.0,,9.0,9.0,30.05,1018.6,,,,,,,,,,,,,,,Clear,72000.0,,,73000.0,,,,,,
KRDR,06-11-2011,03:00,METAR,,,0.0,,,9999.0,,11.0,11.0,30.05,1018.4,,,,,,,,,,,,,,,Clear,72000.0,,,73000.0,,,,,,
KRDR,06-11-2011,02:00,METAR,,10,3.0,,,9999.0,,14.0,13.0,30.05,1018.4,,,,,,,,,,,,,,,8/8 Overcast,10000.0,,OVC,9900.0,,,,,,
KRDR,06-11-2011,01:00,METAR,,,0.0,,,9999.0,,15.0,7.0,30.05,1018.5,,,,,,,,,,,,,,,7/8 Mostly Cloudy,9000.0,,BKN,8900.0,BKN,11000.0,,,,
KRDR,06-11-2011,00:00,METAR,,90,4.0,,,9999.0,,16.0,6.0,30.05,1018.5,,,,,,,,,,,,,TRACE,,8/8 Overcast,10000.0,,SCT,5900.0,OVC,9900.0,,,,
KRDR,06-10-2011,23:00,METAR,,120,8.0,,,9999.0,,17.0,7.0,30.05,1018.4,,,,,,,,,,,,,,,4/8 Partly Cloudy,72000.0,,SCT,9900.0,,,,,,
KRDR,06-10-2011,22:00,METAR,,100,11.0,16.0,,9999.0,,16.0,6.0,30.04,1018.3,,,,,,,,,,,,,,,Clear,10000.0,,,73000.0,,,,,,
KRDR,06-10-2011,21:00,METAR,,100,8.0,,,9999.0,,16.0,9.0,30.04,1018.2,,,,,,,,,,,TRACE,0 IN,,,Clear,6000.0,,,73000.0,,,,,,
KRDR,06-10-2011,20:48,SPECI,,90,10.0,,,9999.0,,15.0,9.0,30.04,1018.3,,,,,,,,,,,,,,,Clear,6000.0,,,73000.0,,,,,,
KRDR,06-10-2011,20:00,METAR,,100,9.0,,,9999.0,Light Rain,15.0,9.0,30.05,1018.6,61,,,,,,,,,,TRACE,,,,Clear,6000.0,,,73000.0,,,,,,
KRDR,06-10-2011,19:39,SPECI,,110,9.0,,,9999.0,Light Rain,15.0,8.0,30.06,1018.8,61,,,,,,,,,,,,,,Clear,6000.0,,,73000.0,,,,,,
KRDR,06-10-2011,19:00,METAR,,100,8.0,,,9999.0,,16.0,7.0,30.07,1019.3,,,,,,,,,,,TRACE,,,,Clear,6000.0,,,73000.0,,,,,,
KRDR,06-10-2011,18:29,SPECI,,120,10.0,,,9999.0,,16.0,6.0,30.08,1019.4,,,,,,,,,,,,,,,4/8 Partly Cloudy,72000.0,,SCT,5900.0,,,,,,
KRDR,06-10-2011,18:00,METAR,,90,6.0,,,9999.0,,16.0,7.0,30.08,1019.4,,,,,,,,,,,,,,,7/8 Mostly Cloudy,6000.0,,SCT,4700.0,BKN,5900.0,,,,
KRDR,06-10-2011,17:53,SPECI,,100,8.0,,,9999.0,Light Rain,16.0,7.0,30.08,1019.4,61,,,,,,,,,,,,,,7/8 Mostly Cloudy,6000.0,,SCT,4700.0,BKN,5900.0,,,,
KRDR,06-10-2011,17:00,METAR,,,5.0,,,9999.0,,17.0,6.0,30.08,1019.6,,,,,,,,,,,,,,,4/8 Partly Cloudy,72000.0,,SCT,5000.0,,,,,,
KRDR,06-10-2011,16:00,METAR,,80,6.0,,,9999.0,,16.0,6.0,30.08,1019.5,,,,,,,,,,,,,,,Clear,72000.0,,,73000.0,,,,,,
KRDR,06-10-2011,15:00,METAR,,80,4.0,,,9999.0,,16.0,6.0,30.08,1019.5,,,,,,,,,,,,,,,Clear,72000.0,,,73000.0,,,,,,
KRDR,06-10-2011,14:00,METAR,,120,3.0,,,9999.0,,15.0,5.0,30.08,1019.5,,,,,,,,,,,,,,,Clear,72000.0,,,73000.0,,,,,,
KRDR,06-10-2011,13:00,METAR,,150,4.0,,,9999.0,,13.0,6.0,30.09,1019.7,,,,,,,,,,,,,,,7/8 Mostly Cloudy,7000.0,,BKN,6900.0,,,,,,
KRDR,06-10-2011,12:00,METAR,,,0.0,,,9999.0,,12.0,8.0,30.07,1019.2,,,,,,,,,,,,,,,Clear,72000.0,,,73000.0,,,,,,
KRDR,06-10-2011,11:34,SPECI,,,0.0,,,9999.0,,12.0,8.0,30.07,1019.3,,,,,,,,,,,,,,,2/8 Mostly Clear,72000.0,,FEW,6900.0,,,,,,
KRDR,06-10-2011,11:00,METAR,,170,4.0,,,9999.0,,12.0,11.0,30.08,1019.5,,,,,,,,,,,,,,,Clear,72000.0,,,73000.0,,,,,,
KRDR,06-10-2011,10:00,METAR,,,0.0,,,9999.0,,11.0,11.0,30.09,1019.7,,,,,,,,,,,,,,,Clear,8000.0,,,73000.0,,,,,,
KRDR,06-10-2011,09:00,METAR,,,0.0,,,9999.0,,11.0,11.0,30.09,1019.8,,,,,,,,,,,,,,,2/8 Mostly Clear,72000.0,,FEW,5900.0,,,,,,
KRDR,06-10-2011,08:00,METAR,,90,5.0,,,9999.0,,13.0,9.0,30.08,1019.4,,,,,,,,,,,,,,,7/8 Mostly Cloudy,7000.0,,BKN,6900.0,,,,,,
KRDR,06-10-2011,07:00,METAR,,80,5.0,,,9999.0,,12.0,8.0,30.07,1019.1,,,,,,,,,,,,,,,4/8 Partly Cloudy,72000.0,,SCT,5900.0,,,,,,
KRDR,06-10-2011,06:00,METAR,,60,5.0,,,9999.0,,13.0,7.0,30.08,1019.5,,,,,,,,,,,,,,,Clear,72000.0,,,73000.0,,,,,,
KRDR,06-10-2011,05:00,METAR,,30,4.0,,,9999.0,,11.0,11.0,30.09,1019.7,,,,,,,,,,,,,,,Clear,72000.0,,,73000.0,,,,,,
KRDR,06-10-2011,04:00,METAR,,110,4.0,,,9999.0,,14.0,7.0,30.11,1020.3,,,,,,,,,,,,,,,2/8 Mostly Clear,72000.0,,FEW,12000.0,,,,,,
KRDR,06-10-2011,03:00,METAR,,90,5.0,,,9999.0,,15.0,6.0,30.10,1020.1,,,,,,,,,,,,,,,Clear,72000.0,,,73000.0,,,,,,
KRDR,06-10-2011,02:00,METAR,,110,5.0,,,9999.0,,16.0,5.0,30.10,1020.1,,,,,,,,,,,,,,,Clear,72000.0,,,73000.0,,,,,,
KRDR,06-10-2011,01:00,METAR,,120,8.0,,,9999.0,,17.0,4.0,30.10,1020.3,,,,,,,,,,,,,,,Clear,72000.0,,,73000.0,,,,,,
KRDR,06-10-2011,00:00,METAR,,140,10.0,,,9999.0,,18.0,5.0,30.10,1020.2,,,,,,,,,,,,,,,2/8 Mostly Clear,72000.0,,FEW,5900.0,,,,,,
KRDR,06-09-2011,23:00,METAR,,90,7.0,,,9999.0,,18.0,5.0,30.10,1020.2,,,,,,,,,,,,,,,2/8 Mostly Clear,72000.0,,FEW,5900.0,,,,,,
KRDR,06-09-2011,22:00,METAR,,110,10.0,,,9999.0,,19.0,4.0,30.10,1020.1,,,,,,,,,,,,,,,Clear,72000.0,,,73000.0,,,,,,
KRDR,06-09-2011,21:00,METAR,,120,8.0,17.0,,9999.0,,19.0,4.0,30.12,1020.8,,,,,,,,,,,,,,,2/8 Mostly Clear,72000.0,,FEW,5900.0,,,,,,
KRDR,06-09-2011,20:00,METAR,,100,7.0,17.0,,9999.0,,18.0,4.0,30.14,1021.6,,,,,,,,,,,,,,,Clear,72000.0,,,73000.0,,,,,,
KRDR,06-09-2011,19:00,METAR,,110,11.0,17.0,,9999.0,,18.0,3.0,30.15,1021.7,,,,,,,,,,,,,,,Clear,72000.0,,,73000.0,,,,,,
KRDR,06-09-2011,18:00,METAR,,120,13.0,,,9999.0,,18.0,3.0,30.16,1022.0,,,,,,,,,,,,,,,Clear,72000.0,,,73000.0,,,,,,
KRDR,06-09-2011,17:00,METAR,,100,10.0,,,9999.0,,17.0,3.0,30.18,1022.8,,,,,,,,,,,,,,,Clear,72000.0,,,73000.0,,,,,,
KRDR,06-09-2011,16:00,METAR,,,5.0,,,9999.0,,16.0,4.0,30.20,1023.5,,,,,,,,,,,,,,,Clear,72000.0,,,73000.0,,,,,,
KRDR,06-09-2011,15:00,METAR,,160,6.0,,,9999.0,,14.0,4.0,30.23,1024.4,,,,,,,,,,,,,,,Clear,72000.0,,,73000.0,,,,,,
KRDR,06-09-2011,14:00,METAR,,30,3.0,,,9999.0,,12.0,9.0,30.21,1023.8,,,,,,,,,,,,,,,Clear,72000.0,,,73000.0,,,,,,
KRDR,06-09-2011,13:00,METAR,,30,6.0,,,9999.0,,10.0,9.0,30.20,1023.5,,,,,,,,,,,,,,,Clear,72000.0,,,73000.0,,,,,,
KRDR,06-09-2011,12:00,METAR,,10,3.0,,,9999.0,,7.0,7.0,30.20,1023.5,,,,,,,,,,,,,,,4/8 Partly Cloudy,72000.0,,SCT,5900.0,,,,,,
KRDR,06-09-2011,11:00,METAR,,350,3.0,,,9999.0,,4.0,4.0,30.18,1022.8,,,,,,,,,,,,,,,Clear,72000.0,,,73000.0,,,,,,
KRDR,06-09-2011,10:00,METAR,,,0.0,,,9999.0,,5.0,5.0,30.18,1022.8,,,,,,,,,,,,,,,Clear,72000.0,,,73000.0,,,,,,
KRDR,06-09-2011,09:00,METAR,,330,4.0,,,9999.0,,5.0,5.0,30.18,1022.7,,,,,,,,,,,,,,,Clear,72000.0,,,73000.0,,,,,,
KRDR,06-09-2011,08:00,METAR,,,0.0,,,9999.0,,6.0,6.0,30.19,1023.1,,,,,,,,,,,,,,,Clear,6000.0,,,73000.0,,,,,,
KRDR,06-09-2011,07:00,METAR,,,0.0,,,9999.0,,6.0,6.0,30.17,1022.4,,,,,,,,,,,,,,,Clear,72000.0,,,73000.0,,,,,,
KRDR,06-09-2011,06:00,METAR,,310,4.0,,,9999.0,,7.0,7.0,30.16,1022.0,,,,,,,,,,,,,,,Clear,72000.0,,,73000.0,,,,,,
KRDR,06-09-2011,05:00,METAR,,,0.0,,,9999.0,,11.0,10.0,30.15,1021.9,,,,,,,,,,,,,,,Clear,72000.0,,,73000.0,,,,,,
KRDR,06-09-2011,04:00,METAR,,90,5.0,,,9999.0,,12.0,9.0,30.13,1021.2,,,,,,,,,,,,,,,Clear,72000.0,,,73000.0,,,,,,
KRDR,06-09-2011,03:00,METAR,,80,5.0,,,9999.0,,13.0,7.0,30.12,1020.7,,,,,,,,,,,,,,,2/8 Mostly Clear,72000.0,,FEW,4700.0,,,,,,
KRDR,06-09-2011,02:00,METAR,,50,6.0,,,9999.0,,14.0,7.0,30.10,1020.0,,,,,,,,,,,,,,,Clear,72000.0,,,73000.0,,,,,,
KRDR,06-09-2011,01:00,METAR,,50,8.0,,,9999.0,,15.0,6.0,30.08,1019.4,,,,,,,,,,,,,,,Clear,72000.0,,,73000.0,,,,,,
KRDR,06-09-2011,00:00,METAR,,40,14.0,,,9999.0,,15.0,6.0,30.06,1018.9,,,,,,,,,,,,,,,Clear,72000.0,,,73000.0,,,,,,
KRDR,06-08-2011,23:00,METAR,,40,14.0,,,9999.0,,16.0,6.0,30.05,1018.3,,,,,,,,,,,,,,,2/8 Mostly Clear,72000.0,,FEW,5900.0,,,,,,
KRDR,06-08-2011,22:00,METAR,,20,13.0,,,9999.0,,16.0,6.0,30.02,1017.6,,,,,,,,,,,,,,,7/8 Mostly Cloudy,4900.0,,BKN,5000.0,,,,,,
KRDR,06-08-2011,21:00,METAR,,10,15.0,,,9999.0,,17.0,7.0,30.01,1017.3,,,,,,,,,,,,,,,4/8 Partly Cloudy,72000.0,,SCT,4600.0,,,,,,
KRDR,06-08-2011,20:00,METAR,,20,16.0,,,9999.0,,16.0,7.0,30.00,1016.7,,,,,,,,,,,,,,,7/8 Mostly Cloudy,5500.0,,SCT,4300.0,BKN,5400.0,,,,
KRDR,06-08-2011,19:00,METAR,,20,14.0,22.0,,9999.0,,16.0,7.0,29.98,1016.2,,,,,,,,,,,,,,,4/8 Partly Cloudy,72000.0,,SCT,4100.0,,,,,,
KRDR,06-08-2011,18:00,METAR,,20,15.0,21.0,,9999.0,,15.0,7.0,29.97,1015.8,,,,,,,,,,,,,,,4/8 Partly Cloudy,72000.0,,SCT,6900.0,,,,,,
KRDR,06-08-2011,17:00,METAR,,20,15.0,23.0,,9999.0,,16.0,7.0,29.95,1015.3,,,,,,,,,,,,,,,4/8 Partly Cloudy,72000.0,,FEW,6400.0,SCT,7900.0,,,,
KRDR,06-08-2011,16:00,METAR,,360,20.0,,,9999.0,,14.0,8.0,29.93,1014.6,,,,,,,,,,,,,,,7/8 Mostly Cloudy,7000.0,,BKN,6900.0,,,,,,
KRDR,06-08-2011,15:01,SPECI,,20,18.0,,,9999.0,,13.0,10.0,29.91,1014.0,,,,,,,,,,,,,,,7/8 Mostly Cloudy,2200.0,,SCT,2200.0,BKN,7400.0,,,,
KRDR,06-08-2011,15:00,METAR,,10,19.0,22.0,,9999.0,,13.0,11.0,29.91,1013.9,,,,,,,,,,,,,,,7/8 Mostly Cloudy,2000.0,,BKN,2300.0,BKN,7400.0,,,,
KRDR,06-08-2011,14:42,SPECI,,10,15.0,23.0,,9999.0,,13.0,11.0,29.91,1013.7,,,,,,,,,,,,,,,7/8 Mostly Cloudy,2100.0,,BKN,2100.0,BKN,4800.0,BKN,7400.0,,
KRDR,06-08-2011,14:00,METAR,,10,18.0,25.0,,9999.0,,11.0,11.0,29.89,1013.1,,,,,,,,,,,,,,,8/8 Overcast,1700.0,,BKN,2100.0,BKN,2700.0,OVC,4000.0,,
KRDR,06-08-2011,13:00,METAR,,10,15.0,21.0,,9999.0,,10.0,10.0,29.86,1012.1,,,,,,,,,,,,,,,8/8 Overcast,1700.0,,BKN,1800.0,OVC,2500.0,,,,
KRDR,06-08-2011,12:00,METAR,,360,16.0,21.0,010/27KTS,9999.0,,10.0,10.0,29.82,1011.0,,,,,,,,,,,TRACE,,TRACE,,8/8 Overcast,1300.0,,OVC,1500.0,,,,,,
KRDR,06-08-2011,11:41,SPECI,,10,13.0,22.0,010/27KTS,9999.0,,10.0,10.0,29.82,1010.8,,,,,,,,,,,,,,,8/8 Overcast,1300.0,,OVC,1600.0,,,,,,
KRDR,06-08-2011,11:30,SPECI,,360,15.0,,010/27KTS,9999.0,,10.0,10.0,29.81,1010.6,,,,,,,,,,,,,,,8/8 Overcast,1300.0,,SCT,1000.0,OVC,1300.0,,,,
KRDR,06-08-2011,11:22,SPECI,,10,17.0,23.0,010/27KTS,9999.0,,10.0,10.0,29.80,1010.4,,,,,,,,,,,,,,,8/8 Overcast,1100.0,,SCT,800.0,OVC,1400.0,,,,
KRDR,06-08-2011,11:17,SPECI,,360,17.0,23.0,010/27KTS,9999.0,,10.0,10.0,29.80,1010.3,,,,,,,,,,,,,,,8/8 Overcast,700.0,,BKN,1000.0,OVC,1400.0,,,,
KRDR,06-08-2011,11:10,SPECI,,10,18.0,27.0,010/27KTS,9999.0,,10.0,10.0,29.79,1010.1,,,,,,,,,,,,,,,8/8 Overcast,700.0,,OVC,800.0,,,,,,
KRDR,06-08-2011,11:00,METAR,,10,18.0,25.0,360/27KTS,9999.0,Light Rain/Mist,10.0,10.0,29.78,1009.7,61,10,,,,,,,,,TRACE,,,,8/8 Overcast,700.0,,OVC,700.0,,,,,,
KRDR,06-08-2011,10:53,SPECI,,10,19.0,25.0,,9999.0,Light Rain,10.0,10.0,29.78,1009.7,61,,,,,,,,,,,,,,8/8 Overcast,700.0,,OVC,800.0,,,,,,
KRDR,06-08-2011,10:35,SPECI,,360,18.0,,360/27KTS,9999.0,Light Rain/Mist,10.0,10.0,29.77,1009.3,61,10,,,,,,,,,,,,,8/8 Overcast,700.0,,OVC,700.0,,,,,,
KRDR,06-08-2011,10:24,SPECI,,360,14.0,22.0,360/27KTS,9999.0,Light Rain,10.0,10.0,29.77,1009.1,61,,,,,,,,,,,,,,8/8 Overcast,700.0,,OVC,700.0,,,,,,
KRDR,06-08-2011,10:21,SPECI,,10,17.0,27.0,360/27KTS,9999.0,Light Rain/Mist,10.0,10.0,29.76,1009.0,61,10,,,,,,,,,,,,,8/8 Overcast,800.0,,OVC,800.0,,,,,,
KRDR,06-08-2011,10:10,SPECI,,360,18.0,25.0,,9999.0,Light Rain/Mist,10.0,10.0,29.76,1008.9,61,10,,,,,,,,,,,,,8/8 Overcast,800.0,,OVC,800.0,,,,,,
KRDR,06-08-2011,10:02,SPECI,,360,16.0,24.0,,9999.0,Light Rain/Mist,10.0,10.0,29.75,1008.5,61,10,,,,,,,,,,,,,8/8 Overcast,600.0,,OVC,600.0,,,,,,
KRDR,06-08-2011,10:00,METAR,,360,16.0,20.0,,9999.0,Light Rain/Mist,10.0,10.0,29.75,1008.6,61,10,,,,,,,,,TRACE,,,,8/8 Overcast,600.0,,OVC,700.0,,,,,,
KRDR,06-08-2011,10:00,SPECI,,360,17.0,24.0,,9999.0,Mist,10.0,10.0,29.75,1008.5,10,,,,,,,,,,,,,,8/8 Overcast,600.0,,,,,,,,,
KRDR,06-08-2011,09:58,SPECI,,360,15.0,22.0,,9999.0,Light Rain/Mist,10.0,10.0,29.75,1008.5,61,10,,,,,,,,,,,,,8/8 Overcast,600.0,,OVC,600.0,,,,,,
KRDR,06-08-2011,09:48,SPECI,,350,15.0,20.0,,8000.0,Light Rain/Mist,10.0,10.0,29.75,1008.5,61,10,,,,,,,,,,,,,8/8 Overcast,600.0,,OVC,700.0,,,,,,
KRDR,06-08-2011,09:46,SPECI,,350,17.0,22.0,,8000.0,Mist,10.0,10.0,29.75,1008.5,10,,,,,,,,,,,,,,8/8 Overcast,600.0,,OVC,700.0,,,,,,
KRDR,06-08-2011,09:43,SPECI,,360,16.0,22.0,,8000.0,Light Rain/Mist,10.0,10.0,29.74,1008.4,61,10,,,,,,,,,,,,,8/8 Overcast,600.0,,OVC,700.0,,,,,,
KRDR,06-08-2011,09:39,SPECI,,350,17.0,22.0,,9999.0,Light Rain/Mist,10.0,10.0,29.74,1008.3,61,10,,,,,,,,,,,,,8/8 Overcast,600.0,,OVC,700.0,,,,,,
KRDR,06-08-2011,09:36,SPECI,,350,16.0,20.0,,9999.0,Light Rain,10.0,10.0,29.74,1008.4,61,,,,,,,,,,,,,,8/8 Overcast,600.0,,OVC,700.0,,,,,,
KRDR,06-08-2011,09:31,SPECI,,350,14.0,18.0,,9999.0,Light Rain,10.0,10.0,29.74,1008.3,61,,,,,,,,,,,,,,8/8 Overcast,700.0,,OVC,800.0,,,,,,
KRDR,06-08-2011,09:04,SPECI,,360,17.0,23.0,,9999.0,,10.0,10.0,29.72,1007.7,,,,,,,,,,,,,,,8/8 Overcast,800.0,,OVC,900.0,,,,,,
KRDR,06-08-2011,09:00,METAR,,10,18.0,25.0,,9999.0,,11.0,11.0,29.71,1007.4,,,,,,,,,,,,,,,8/8 Overcast,900.0,,OVC,1100.0,,,,,,
KRDR,06-08-2011,08:33,SPECI,,360,15.0,22.0,,9999.0,,11.0,11.0,29.71,1007.2,,,,,,,,,,,,,,,8/8 Overcast,1200.0,,OVC,1400.0,,,,,,
KRDR,06-08-2011,08:00,METAR,,10,13.0,25.0,030/26KTS,9999.0,,11.0,11.0,29.69,1006.5,,,,,,,,,,,,,,,8/8 Overcast,1500.0,,OVC,1600.0,,,,,,
KRDR,06-08-2011,07:16,SPECI,,10,16.0,23.0,,9999.0,,11.0,11.0,29.67,1005.9,,,,,,,,,,,,,,,8/8 Overcast,1800.0,,BKN,1800.0,OVC,5400.0,,,,
KRDR,06-08-2011,07:00,METAR,,10,16.0,23.0,360/27KTS,9999.0,,12.0,11.0,29.65,1005.4,,,,,,,,,,,,,,,8/8 Overcast,4800.0,,FEW,1800.0,OVC,4900.0,,,,
KRDR,06-08-2011,06:00,METAR,,10,12.0,,,9999.0,,12.0,10.0,29.63,1004.6,,,,,,,,,,,,,,,2/8 Mostly Clear,72000.0,,FEW,11000.0,,,,,,
KRDR,06-08-2011,05:00,METAR,,20,12.0,19.0,,9999.0,,12.0,9.0,29.59,1003.3,,,,,,,,,,,,,,,Clear,72000.0,,,73000.0,,,,,,
KRDR,06-08-2011,04:00,METAR,,360,13.0,,,9999.0,,13.0,9.0,29.60,1003.8,,,,,,,,,,,,,,,Clear,72000.0,,,73000.0,,,,,,
KRDR,06-08-2011,03:00,METAR,,360,14.0,,,9999.0,,15.0,8.0,29.57,1002.8,,,,,,,,,,,,,,,2/8 Mostly Clear,72000.0,,FEW,5000.0,,,,,,
KRDR,06-08-2011,02:00,METAR,,10,14.0,23.0,,9999.0,,16.0,10.0,29.51,1000.8,,,,,,,,,,,,,,,7/8 Mostly Cloudy,4000.0,,SCT,3200.0,BKN,5400.0,,,,
KRDR,06-08-2011,01:00,METAR,,40,19.0,24.0,030/27KTS,9999.0,,18.0,12.0,29.44,998.5,,,,,,,,,,,,,,,Clear,72000.0,,,73000.0,,,,,,
KRDR,06-08-2011,00:00,METAR,,30,19.0,26.0,030/28KTS,9999.0,,18.0,13.0,29.43,998.0,,,,,,,,,,,,,,,4/8 Partly Cloudy,72000.0,,SCT,7900.0,,,,,,
KRDR,06-07-2011,23:00,METAR,,30,23.0,27.0,030/30KTS,9999.0,,20.0,14.0,29.41,997.3,,,,,,,,,,,,,,,Clear,72000.0,,,73000.0,,,,,,
KRDR,06-07-2011,22:00,METAR,,30,23.0,29.0,040/29KTS,9999.0,,22.0,15.0,29.40,997.2,,,,,,,,,,,,,,,4/8 Partly Cloudy,72000.0,,SCT,4600.0,,,,,,
KRDR,06-07-2011,21:00,METAR,,50,18.0,24.0,050/30KTS,9999.0,,24.0,16.0,29.40,997.2,,,,,,,,,,,,,,,Clear,72000.0,,,73000.0,,,,,,
KRDR,06-07-2011,20:00,METAR,,50,20.0,26.0,060/26KTS,9999.0,,23.0,15.0,29.41,997.3,,,,,,,,,,,,,,,4/8 Partly Cloudy,72000.0,,SCT,4100.0,SCT,4900.0,,,,
KRDR,06-07-2011,19:00,METAR,,60,20.0,,060/27KTS,9999.0,,23.0,14.0,29.43,998.0,,,,,,,,,,,,,,,2/8 Mostly Clear,72000.0,,FEW,4300.0,,,,,,
KRDR,06-07-2011,18:00,METAR,,70,20.0,26.0,060/28KTS,9999.0,,19.0,13.0,29.45,998.7,,,,,,,,,,,,,,,Clear,72000.0,,,73000.0,,,,,,
KRDR,06-07-2011,17:00,METAR,,30,24.0,28.0,030/28KTS,9999.0,,19.0,13.0,29.54,1001.7,,,,,,,,,,,,,,,Clear,72000.0,,,73000.0,,,,,,
KRDR,06-07-2011,16:00,METAR,,60,17.0,26.0,060/26KTS,9999.0,,21.0,11.0,29.55,1001.9,,,,,,,,,,,,,,,Clear,72000.0,,,73000.0,,,,,,
KRDR,06-07-2011,15:00,METAR,,80,19.0,23.0,090/30KTS,9999.0,,20.0,10.0,29.57,1002.6,,,,,,,,,,,,,,,4/8 Partly Cloudy,72000.0,,SCT,5000.0,,,,,,
KRDR,06-07-2011,14:00,METAR,,90,19.0,25.0,,9999.0,,19.0,10.0,29.61,1003.9,,,,,,,,,,,,,,,Clear,72000.0,,,73000.0,,,,,,
KRDR,06-07-2011,13:00,METAR,,80,14.0,22.0,,9999.0,,17.0,9.0,29.63,1004.6,,,,,,,,,,,,,,,2/8 Mostly Clear,72000.0,,FEW,5000.0,,,,,,
KRDR,06-07-2011,12:00,METAR,,70,12.0,,,9999.0,,16.0,9.0,29.70,1006.8,,,,,,,,,,,,,,,Clear,72000.0,,,73000.0,,,,,,
KRDR,06-07-2011,11:00,METAR,,60,13.0,,,9999.0,,16.0,10.0,29.72,1007.5,,,,,,,,,,,,,,,4/8 Partly Cloudy,72000.0,,FEW,9900.0,SCT,12000.0,,,,
KRDR,06-07-2011,10:00,METAR,,50,12.0,,,9999.0,,16.0,11.0,29.75,1008.5,,,,,,,,,,,,,,,7/8 Mostly Cloudy,9000.0,,SCT,5900.0,BKN,8900.0,,,,
KRDR,06-07-2011,09:00,METAR,,50,11.0,,,9999.0,,16.0,12.0,29.73,1007.9,,,,,,,,,,,,,,,7/8 Mostly Cloudy,9000.0,,BKN,8900.0,,,,,,
KRDR,06-07-2011,08:00,METAR,,70,9.0,,,9999.0,,16.0,12.0,29.73,1008.1,,,,,,,,,,,,,,,Clear,72000.0,,,73000.0,,,,,,
KRDR,06-07-2011,07:00,METAR,,60,7.0,,,9999.0,,16.0,11.0,29.77,1009.4,,,,,,,,,,,,,,,7/8 Mostly Cloudy,8000.0,,BKN,7900.0,,,,,,
KRDR,06-07-2011,06:00,METAR,,70,9.0,,,9999.0,,17.0,10.0,29.78,1009.5,,,,,,,,,,,,,,,Clear,72000.0,,,73000.0,,,,,,
KRDR,06-07-2011,05:00,METAR,,50,7.0,,,9999.0,,17.0,12.0,29.80,1010.1,,,,,,,,,,,,,,,2/8 Mostly Clear,72000.0,,FEW,6900.0,,,,,,
KRDR,06-07-2011,04:00,METAR,,60,7.0,,,9999.0,,18.0,12.0,29.81,1010.6,,,,,,,,,,,,,,,2/8 Mostly Clear,72000.0,,FEW,8900.0,,,,,,
KRDR,06-07-2011,03:00,METAR,,50,7.0,,,9999.0,,20.0,11.0,29.81,1010.7,,,,,,,,,,,,,,,2/8 Mostly Clear,72000.0,,FEW,8900.0,,,,,,
KRDR,06-07-2011,02:00,METAR,,50,10.0,,,9999.0,,21.0,11.0,29.79,1010.1,,,,,,,,,,,,,,,Clear,72000.0,,,73000.0,,,,,,
KRDR,06-07-2011,01:00,METAR,,50,15.0,,,9999.0,,24.0,10.0,29.79,1010.1,,,,,,,,,,,,,,,Clear,72000.0,,,73000.0,,,,,,
KRDR,06-07-2011,00:00,METAR,,40,12.0,21.0,,9999.0,,24.0,11.0,29.80,1010.3,,,,,,,,,,,,,,,Clear,72000.0,,,73000.0,,,,,,
KRDR,06-06-2011,23:00,METAR,,40,16.0,,,9999.0,,25.0,12.0,29.81,1010.5,,,,,,,,,,,,,,,Clear,72000.0,,,73000.0,,,,,,
KRDR,06-06-2011,22:00,METAR,,40,13.0,,,9999.0,,26.0,13.0,29.81,1010.7,,,,,,,,,,,,,,,Clear,72000.0,,,73000.0,,,,,,
KRDR,06-06-2011,21:00,METAR,,40,11.0,,,9999.0,,26.0,16.0,29.81,1010.7,,,,,,,,,,,,,,,Clear,72000.0,,,73000.0,,,,,,
KRDR,06-06-2011,20:00,METAR,,30,11.0,,,9999.0,,26.0,16.0,29.81,1010.5,,,,,,,,,,,,,,,Clear,72000.0,,,73000.0,,,,,,
KRDR,06-06-2011,19:00,METAR,,20,12.0,19.0,,9999.0,,26.0,17.0,29.80,1010.4,,,,,,,,,,,,,,,Clear,72000.0,,,73000.0,,,,,,
KRDR,06-06-2011,18:00,METAR,,30,10.0,16.0,,9999.0,,25.0,18.0,29.80,1010.2,,,,,,,,,,,,,,,Clear,72000.0,,,73000.0,,,,,,
KRDR,06-06-2011,17:00,METAR,,30,9.0,,,9999.0,,24.0,20.0,29.80,1010.2,,,,,,,,,,,,,,,Clear,72000.0,,,73000.0,,,,,,
KRDR,06-06-2011,16:00,METAR,,10,12.0,,,9999.0,,23.0,21.0,29.80,1010.2,,,,,,,,,,,,,,,Clear,72000.0,,,73000.0,,,,,,
KRDR,06-06-2011,15:00,METAR,,360,9.0,,,9999.0,,21.0,21.0,29.80,1010.4,,,,,,,,,,,,,,,Clear,72000.0,,,73000.0,,,,,,
KRDR,06-06-2011,14:00,METAR,,10,9.0,,,9999.0,,19.0,19.0,29.79,1010.0,,,,,,,,,,,,,,,Clear,72000.0,,,73000.0,,,,,,
KRDR,06-06-2011,13:00,METAR,,40,4.0,,,9999.0,,19.0,19.0,29.78,1009.7,,,,,,,,,,,,,,,Clear,72000.0,,,73000.0,,,,,,
KRDR,06-06-2011,12:00,METAR,,230,4.0,,,9999.0,,18.0,18.0,29.76,1008.8,,,,,,,,,,,,,.01 IN,.12 IN,Clear,72000.0,,,73000.0,,,,,,
KRDR,06-06-2011,11:00,METAR,,230,5.0,,,9999.0,,15.0,15.0,29.76,1009.0,,,,,,,,,,,,,,,Clear,72000.0,,,73000.0,,,,,,
KRDR,06-06-2011,10:00,METAR,,200,4.0,,,9999.0,,17.0,17.0,29.76,1009.0,,,,,,,,,,,TRACE,,,,7/8 Mostly Cloudy,11000.0,,BKN,11000.0,,,,,,
KRDR,06-06-2011,09:03,SPECI,,,0.0,,,9999.0,,18.0,18.0,29.76,1008.9,,,,,,,,,,,,,,,8/8 Overcast,10000.0,,FEW,5400.0,SCT,6900.0,OVC,9900.0,,
KRDR,06-06-2011,09:00,METAR,,210,5.0,,,9999.0,Light Rain,17.0,17.0,29.78,1009.4,61,,,,,,,,,,TRACE,.01 IN,,,7/8 Mostly Cloudy,7000.0,,FEW,800.0,SCT,5900.0,BKN,6900.0,,
KRDR,06-06-2011,08:46,SPECI,,220,8.0,,,9999.0,Light Rain,17.0,17.0,29.78,1009.6,61,,,,,,,,,,,,,,7/8 Mostly Cloudy,7000.0,,FEW,800.0,BKN,6900.0,BKN,8900.0,,
KRDR,06-06-2011,08:41,SPECI,,190,6.0,,,9999.0,Light Rain,17.0,17.0,29.77,1009.3,61,,,,,,,,,,,,,,7/8 Mostly Cloudy,9000.0,,FEW,6900.0,BKN,8900.0,BKN,11000.0,,
KRDR,06-06-2011,08:00,METAR,,340,4.0,,,9999.0,,18.0,18.0,29.78,1009.6,,,,,,,,,,,.01 IN,,,,7/8 Mostly Cloudy,10000.0,,FEW,2400.0,BKN,9900.0,,,,
KRDR,06-06-2011,07:50,SPECI,,340,3.0,,,9999.0,,18.0,18.0,29.78,1009.6,,,,,,,,,,,,,,,7/8 Mostly Cloudy,10000.0,,FEW,2400.0,BKN,9900.0,,,,
KRDR,06-06-2011,07:36,SPECI,,330,5.0,,,9999.0,Light Rain,17.0,17.0,29.79,1009.9,61,,,,,,,,,,,,,,4/8 Partly Cloudy,72000.0,,FEW,900.0,SCT,11000.0,,,,
KRDR,06-06-2011,07:32,SPECI,,300,7.0,,,9999.0,Light Rain,17.0,17.0,29.80,1010.2,61,,,,,,,,,,,,,,4/8 Partly Cloudy,72000.0,,FEW,5900.0,SCT,12000.0,,,,
KRDR,06-06-2011,07:00,METAR,,,0.0,,,9999.0,,18.0,18.0,29.79,1009.9,,,,,,,,,,,,,,,Clear,72000.0,,,73000.0,,,,,,
KRDR,06-06-2011,06:00,METAR,,250,5.0,,,9999.0,,19.0,19.0,29.78,1009.7,,,,,,,,,,,,,.11 IN,,Clear,72000.0,,,73000.0,,,,,,
KRDR,06-06-2011,05:00,METAR,,220,8.0,,,9999.0,,20.0,19.0,29.79,1009.9,,,,,,,,,,,,,,,Clear,72000.0,,,73000.0,,,,,,
KRDR,06-06-2011,04:00,METAR,,170,4.0,,,9999.0,,19.0,19.0,29.80,1010.3,,,,,,,,,,,,,,,4/8 Partly Cloudy,72000.0,,SCT,11000.0,,,,,,
KRDR,06-06-2011,03:00,METAR,,160,8.0,,,9999.0,,19.0,19.0,29.81,1010.7,,,,,,,,,,,,.11 IN,,,4/8 Partly Cloudy,72000.0,,FEW,6900.0,SCT,8400.0,SCT,11000.0,,
KRDR,06-06-2011,02:00,METAR,,120,6.0,,,9999.0,,20.0,20.0,29.84,1011.4,,,,,,,,,,,.06 IN,,,,7/8 Mostly Cloudy,7500.0,,FEW,4900.0,BKN,7400.0,,,,
KRDR,06-06-2011,01:50,SPECI,,120,6.0,,,9999.0,,20.0,20.0,29.84,1011.4,,,,,,,,,,,,,,,7/8 Mostly Cloudy,7500.0,,FEW,4900.0,BKN,7400.0,,,,
KRDR,06-06-2011,01:18,SPECI,,200,10.0,,,4800.0,Light Rain/Mist,20.0,20.0,29.86,1012.2,61,10,,,,,,,,,,,,,7/8 Mostly Cloudy,3300.0,,BKN,3400.0,BKN,6900.0,,,,
KRDR,06-06-2011,01:14,SPECI,,190,11.0,,,4000.0,Light Rain/Mist,20.0,20.0,29.85,1011.9,61,10,,,,,,,,,,,,,7/8 Mostly Cloudy,3700.0,,BKN,3800.0,BKN,6900.0,,,,
KRDR,06-06-2011,01:02,SPECI,,180,9.0,,,9999.0,Light Rain,20.0,19.0,29.86,1012.3,61,,,,,,,,,,,,,,7/8 Mostly Cloudy,4900.0,,SCT,3100.0,BKN,5000.0,BKN,6900.0,,
KRDR,06-06-2011,01:00,METAR,,170,14.0,,,9999.0,Light Rain,19.0,19.0,29.85,1011.9,61,,,,,,,,,,,,,,7/8 Mostly Cloudy,2900.0,,BKN,2900.0,BKN,6900.0,,,,
KRDR,06-06-2011,00:53,SPECI,,180,16.0,,,6400.0,Light Rain/Mist,19.0,19.0,29.85,1011.8,61,10,,,,,,,,,,,,,8/8 Overcast,2900.0,,BKN,2900.0,OVC,6900.0,,,,
KRDR,06-06-2011,00:51,SPECI,,180,18.0,,,4800.0,Light Rain/Mist,20.0,20.0,29.85,1011.9,61,10,,,,,,,,,,,,,8/8 Overcast,3100.0,,BKN,3100.0,OVC,6900.0,,,,
KRDR,06-06-2011,00:46,SPECI,,210,11.0,,,4000.0,Light Rain/Mist,20.0,20.0,29.87,1012.4,61,10,,,,,,,,,,,,,8/8 Overcast,3200.0,,BKN,3300.0,OVC,6900.0,,,,
KRDR,06-06-2011,00:18,SPECI,,180,11.0,,,9999.0,Light Rain,26.0,13.0,29.85,1011.9,61,,,,,,,,,,,,,,7/8 Mostly Cloudy,7000.0,,BKN,6900.0,,,,,,
KRDR,06-06-2011,00:00,METAR,,190,12.0,,,9999.0,,26.0,14.0,29.86,1012.3,,,,,,,,,,,,,,,2/8 Mostly Clear,72000.0,,FEW,7900.0,,,,,,
KRDR,06-05-2011,23:00,METAR,,200,15.0,,,9999.0,,27.0,13.0,29.90,1013.4,,,,,,,,,,,,,,,2/8 Mostly Clear,72000.0,,FEW,7900.0,,,,,,
KRDR,06-05-2011,22:00,METAR,,200,15.0,19.0,,9999.0,,26.0,12.0,29.92,1014.2,,,,,,,,,,,,,,,7/8 Mostly Cloudy,7000.0,,BKN,6900.0,,,,,,
KRDR,06-05-2011,21:00,METAR,,200,11.0,19.0,,9999.0,,27.0,13.0,29.94,1015.0,,,,,,,,,,,,,,,2/8 Mostly Clear,72000.0,,FEW,5900.0,,,,,,
KRDR,06-05-2011,20:00,METAR,,220,14.0,21.0,,9999.0,,26.0,12.0,29.97,1015.8,,,,,,,,,,,,,,,Clear,72000.0,,,73000.0,,,,,,
KRDR,06-05-2011,19:00,METAR,,220,15.0,22.0,,9999.0,,25.0,12.0,30.00,1016.7,,,,,,,,,,,,,,,4/8 Partly Cloudy,72000.0,,SCT,8900.0,,,,,,
KRDR,06-05-2011,18:00,METAR,,220,15.0,23.0,,9999.0,,25.0,12.0,30.02,1017.6,,,,,,,,,,,,,,,2/8 Mostly Clear,72000.0,,FEW,8900.0,,,,,,
KRDR,06-05-2011,17:00,METAR,,190,14.0,,,9999.0,,23.0,13.0,30.05,1018.4,,,,,,,,,,,,,,,Clear,72000.0,,,73000.0,,,,,,
KRDR,06-05-2011,16:00,METAR,,190,14.0,,,9999.0,,22.0,12.0,30.07,1019.1,,,,,,,,,,,,,,,2/8 Mostly Clear,72000.0,,FEW,6900.0,,,,,,
KRDR,06-05-2011,15:00,METAR,,200,12.0,,,9999.0,,20.0,11.0,30.09,1019.9,,,,,,,,,,,,,,,2/8 Mostly Clear,72000.0,,FEW,5900.0,,,,,,
KRDR,06-05-2011,14:00,METAR,,200,10.0,,,9999.0,,18.0,12.0,30.10,1020.3,,,,,,,,,,,,,,,2/8 Mostly Clear,72000.0,,FEW,9900.0,,,,,,
KRDR,06-05-2011,13:00,METAR,,200,8.0,,,9999.0,,16.0,14.0,30.12,1020.9,,,,,,,,,,,,,,,2/8 Mostly Clear,72000.0,,FEW,11000.0,,,,,,
KRDR,06-05-2011,12:00,METAR,,190,5.0,,,9999.0,,12.0,12.0,30.13,1021.2,,,,,,,,,,,,,,,4/8 Partly Cloudy,72000.0,,SCT,9900.0,,,,,,
KRDR,06-05-2011,11:00,METAR,,180,4.0,,,9999.0,,10.0,10.0,30.14,1021.4,,,,,,,,,,,,,,,Clear,72000.0,,,73000.0,,,,,,
KRDR,06-05-2011,10:00,METAR,,190,8.0,,,9999.0,,11.0,11.0,30.14,1021.5,,,,,,,,,,,,,,,Clear,72000.0,,,73000.0,,,,,,
KRDR,06-05-2011,09:00,METAR,,180,6.0,,,9999.0,,9.0,9.0,30.16,1022.3,,,,,,,,,,,,,,,Clear,72000.0,,,73000.0,,,,,,
KRDR,06-05-2011,08:00,METAR,,180,4.0,,,9999.0,,9.0,9.0,30.18,1022.8,,,,,,,,,,,,,,,Clear,72000.0,,,73000.0,,,,,,
KRDR,06-05-2011,07:00,METAR,,,0.0,,,9999.0,,10.0,10.0,30.19,1023.1,,,,,,,,,,,,,,,Clear,72000.0,,,73000.0,,,,,,
KRDR,06-05-2011,06:00,METAR,,80,3.0,,,9999.0,,10.0,10.0,30.20,1023.3,,,,,,,,,,,,,,,Clear,72000.0,,,73000.0,,,,,,
KRDR,06-05-2011,05:00,METAR,,30,4.0,,,9999.0,,10.0,10.0,30.19,1023.3,,,,,,,,,,,,,,,Clear,72000.0,,,73000.0,,,,,,
KRDR,06-05-2011,04:00,METAR,,,0.0,,,9999.0,,11.0,11.0,30.20,1023.4,,,,,,,,,,,,,,,Clear,72000.0,,,73000.0,,,,,,
KRDR,06-05-2011,03:00,METAR,,110,4.0,,,9999.0,,16.0,10.0,30.18,1022.7,,,,,,,,,,,,,,,Clear,72000.0,,,73000.0,,,,,,
KRDR,06-05-2011,02:00,METAR,,320,4.0,,,9999.0,,17.0,8.0,30.17,1022.6,,,,,,,,,,,,,,,Clear,72000.0,,,73000.0,,,,,,
KRDR,06-05-2011,01:00,METAR,,340,4.0,,,9999.0,,19.0,7.0,30.17,1022.4,,,,,,,,,,,,,,,Clear,72000.0,,,73000.0,,,,,,
KRDR,06-05-2011,00:00,METAR,,350,7.0,,,9999.0,,19.0,6.0,30.17,1022.4,,,,,,,,,,,,,,,Clear,72000.0,,,73000.0,,,,,,
KRDR,06-04-2011,23:00,METAR,,340,4.0,,,9999.0,,20.0,6.0,30.18,1022.8,,,,,,,,,,,,,,,Clear,72000.0,,,73000.0,,,,,,
KRDR,06-04-2011,22:00,METAR,,320,12.0,,,9999.0,,20.0,6.0,30.18,1022.9,,,,,,,,,,,,,,,Clear,72000.0,,,73000.0,,,,,,
KRDR,06-04-2011,21:00,METAR,,340,11.0,16.0,,9999.0,,20.0,7.0,30.18,1022.8,,,,,,,,,,,,,,,Clear,72000.0,,,73000.0,,,,,,
KRDR,06-04-2011,20:00,METAR,,320,11.0,17.0,,9999.0,,19.0,7.0,30.18,1022.7,,,,,,,,,,,,,,,Clear,72000.0,,,73000.0,,,,,,
KRDR,06-04-2011,19:00,METAR,,310,14.0,19.0,,9999.0,,18.0,8.0,30.17,1022.6,,,,,,,,,,,,,,,2/8 Mostly Clear,72000.0,,FEW,4400.0,,,,,,
KRDR,06-04-2011,18:00,METAR,,330,14.0,19.0,,9999.0,,18.0,9.0,30.16,1022.1,,,,,,,,,,,,,,,4/8 Partly Cloudy,72000.0,,SCT,4000.0,,,,,,
KRDR,06-04-2011,17:00,METAR,,310,11.0,,,9999.0,,16.0,10.0,30.16,1022.1,,,,,,,,,,,,,,,8/8 Overcast,3600.0,,SCT,2800.0,OVC,3700.0,,,,
KRDR,06-04-2011,16:23,SPECI,,330,9.0,,,9999.0,,16.0,11.0,30.15,1021.9,,,,,,,,,,,,,,,8/8 Overcast,2900.0,,BKN,2900.0,OVC,4400.0,,,,
KRDR,06-04-2011,16:21,SPECI,,320,10.0,,,9999.0,,16.0,11.0,30.15,1021.9,,,,,,,,,,,,,,,8/8 Overcast,3000.0,,BKN,3000.0,OVC,4400.0,,,,
KRDR,06-04-2011,16:11,SPECI,,320,10.0,,,9999.0,,16.0,11.0,30.15,1021.9,,,,,,,,,,,,,,,8/8 Overcast,2400.0,,BKN,2800.0,OVC,4300.0,,,,
KRDR,06-04-2011,16:00,METAR,,340,11.0,,,9999.0,,15.0,11.0,30.15,1021.9,,,,,,,,,,,,,,,8/8 Overcast,2400.0,,BKN,2400.0,BKN,3200.0,OVC,4400.0,,
KRDR,06-04-2011,15:00,METAR,,350,12.0,,,9999.0,,16.0,14.0,30.11,1020.5,,,,,,,,,,,,,,,8/8 Overcast,2400.0,,OVC,2800.0,,,,,,
KRDR,06-04-2011,14:25,SPECI,,350,12.0,,,9999.0,,17.0,13.0,30.09,1019.7,,,,,,,,,,,,,,,7/8 Mostly Cloudy,2600.0,,BKN,2600.0,BKN,5000.0,,,,
KRDR,06-04-2011,14:00,METAR,,350,10.0,,,9999.0,,17.0,14.0,30.07,1019.1,,,,,,,,,,,,,,,7/8 Mostly Cloudy,4900.0,,FEW,2600.0,BKN,5000.0,,,,
KRDR,06-04-2011,13:00,METAR,,320,10.0,,,9999.0,,16.0,15.0,30.04,1018.3,,,,,,,,,,,,,,,Clear,72000.0,,,73000.0,,,,,,
KRDR,06-04-2011,12:00,METAR,,280,8.0,,,9999.0,,14.0,14.0,30.02,1017.4,,,,,,,,,,,,,,,Clear,72000.0,,,73000.0,,,,,,
KRDR,06-04-2011,11:00,METAR,,280,6.0,,,9999.0,,13.0,13.0,29.99,1016.4,,,,,,,,,,,,,,,Clear,72000.0,,,73000.0,,,,,,
KRDR,06-04-2011,10:00,METAR,,270,9.0,,,9999.0,,13.0,13.0,29.96,1015.4,,,,,,,,,,,,,,,Clear,72000.0,,,73000.0,,,,,,
KRDR,06-04-2011,09:00,METAR,,270,9.0,,,9999.0,,13.0,13.0,29.93,1014.4,,,,,,,,,,,,,,,Clear,72000.0,,,73000.0,,,,,,
KRDR,06-04-2011,08:00,METAR,,270,7.0,,,9999.0,,14.0,12.0,29.91,1013.9,,,,,,,,,,,,,,,Clear,72000.0,,,73000.0,,,,,,
KRDR,06-04-2011,07:00,METAR,,260,7.0,,,9999.0,,12.0,11.0,29.89,1013.1,,,,,,,,,,,,,,,Clear,72000.0,,,73000.0,,,,,,
KRDR,06-04-2011,06:00,METAR,,260,5.0,,,9999.0,,13.0,11.0,29.86,1012.3,,,,,,,,,,,,,,,Clear,72000.0,,,73000.0,,,,,,
KRDR,06-04-2011,05:00,METAR,,270,5.0,,,9999.0,,15.0,9.0,29.85,1011.8,,,,,,,,,,,,,,,Clear,72000.0,,,73000.0,,,,,,
KRDR,06-04-2011,04:00,METAR,,280,7.0,,,9999.0,,18.0,7.0,29.83,1011.4,,,,,,,,,,,,,,,Clear,72000.0,,,73000.0,,,,,,
KRDR,06-04-2011,03:00,METAR,,280,7.0,,,9999.0,,19.0,6.0,29.81,1010.5,,,,,,,,,,,,,,,Clear,72000.0,,,73000.0,,,,,,
KRDR,06-04-2011,02:00,METAR,,270,7.0,,,9999.0,,22.0,5.0,29.78,1009.5,,,,,,,,,,,,,,,Clear,72000.0,,,73000.0,,,,,,
KRDR,06-04-2011,01:00,METAR,,260,12.0,,,9999.0,,24.0,4.0,29.74,1008.4,,,,,,,,,,,,,,,Clear,72000.0,,,73000.0,,,,,,
KRDR,06-04-2011,00:00,METAR,,250,17.0,23.0,,9999.0,,25.0,5.0,29.73,1007.9,,,,,,,,,,,,,,,Clear,72000.0,,,73000.0,,,,,,
KRDR,06-03-2011,23:00,METAR,,270,16.0,24.0,,9999.0,,26.0,4.0,29.72,1007.7,,,,,,,,,,,,,,,Clear,72000.0,,,73000.0,,,,,,
KRDR,06-03-2011,22:00,METAR,,270,16.0,22.0,,9999.0,,26.0,6.0,29.71,1007.4,,,,,,,,,,,,,,,Clear,72000.0,,,73000.0,,,,,,
KRDR,06-03-2011,21:00,METAR,,290,13.0,19.0,,9999.0,,26.0,6.0,29.71,1007.3,,,,,,,,,,,,,,,Clear,72000.0,,,73000.0,,,,,,
KRDR,06-03-2011,20:00,METAR,,280,12.0,19.0,,9999.0,,25.0,9.0,29.70,1006.9,,,,,,,,,,,,,,,Clear,72000.0,,,73000.0,,,,,,
KRDR,06-03-2011,19:00,METAR,,290,14.0,,,9999.0,,25.0,8.0,29.69,1006.6,,,,,,,,,,,,,,,Clear,72000.0,,,73000.0,,,,,,
KRDR,06-03-2011,18:00,METAR,,310,11.0,,,9999.0,,24.0,11.0,29.67,1006.0,,,,,,,,,,,,,,,Clear,72000.0,,,73000.0,,,,,,
KRDR,06-03-2011,17:00,METAR,,310,15.0,21.0,,9999.0,,23.0,11.0,29.66,1005.6,,,,,,,,,,,,,,,Clear,72000.0,,,73000.0,,,,,,
KRDR,06-03-2011,16:00,METAR,,320,12.0,,,9999.0,,24.0,14.0,29.65,1005.4,,,,,,,,,,,,,,,Clear,72000.0,,,73000.0,,,,,,
KRDR,06-03-2011,15:00,METAR,,320,15.0,21.0,,9999.0,,23.0,15.0,29.64,1004.9,,,,,,,,,,,,,,,Clear,72000.0,,,73000.0,,,,,,
KRDR,06-03-2011,14:00,METAR,,300,11.0,,,9999.0,,22.0,21.0,29.63,1004.6,,,,,,,,,,,,,,,Clear,72000.0,,,73000.0,,,,,,
KRDR,06-03-2011,13:00,METAR,,250,5.0,,,9999.0,,21.0,21.0,29.61,1003.8,,,,,,,,,,,,,,,Clear,72000.0,,,73000.0,,,,,,
KRDR,06-03-2011,12:10,SPECI,,250,6.0,,,9999.0,,20.0,20.0,29.60,1003.7,,,,,,,,,,,,,,,4/8 Partly Cloudy,72000.0,,SCT,1100.0,,,,,,
KRDR,06-03-2011,12:00,METAR,,260,7.0,,,9999.0,,20.0,20.0,29.60,1003.7,,,,,,,,,,,TRACE,,.15 IN,.25 IN,7/8 Mostly Cloudy,1100.0,,BKN,1100.0,,,,,,
KRDR,06-03-2011,11:47,SPECI,,260,8.0,,,9999.0,,20.0,20.0,29.59,1003.4,,,,,,,,,,,,,,,7/8 Mostly Cloudy,1100.0,,BKN,1100.0,,,,,,
KRDR,06-03-2011,11:45,SPECI,,250,7.0,,,9999.0,,20.0,20.0,29.59,1003.4,,,,,,,,,,,,,,,7/8 Mostly Cloudy,1200.0,,BKN,1200.0,,,,,,
KRDR,06-03-2011,11:00,METAR,,180,11.0,22.0,120/26KTS,9999.0,,20.0,20.0,29.52,1001.0,,,,,,,,,,,TRACE,,,,Clear,72000.0,,,73000.0,,,,,,
KRDR,06-03-2011,10:54,SPECI,,170,8.0,,,9999.0,,20.0,20.0,29.52,1001.0,,,,,,,,,,,,,,,Clear,72000.0,,,73000.0,,,,,,
KRDR,06-03-2011,10:37,SPECI,,160,18.0,23.0,120/26KTS,9999.0,Light Rain,20.0,20.0,29.54,1001.6,61,,,,,,,,,,,,,,2/8 Mostly Clear,72000.0,,FEW,1200.0,,,,,,
KRDR,06-03-2011,10:27,SPECI,,190,15.0,25.0,120/26KTS,9999.0,,20.0,20.0,29.57,1002.8,,,,,,,,,,,,,,,4/8 Partly Cloudy,72000.0,,FEW,1100.0,SCT,8900.0,,,,
KRDR,06-03-2011,10:26,SPECI,,190,15.0,25.0,120/26KTS,9999.0,Light Rain,20.0,20.0,29.57,1002.8,61,,,,,,,,,,,,,,4/8 Partly Cloudy,72000.0,,FEW,1100.0,SCT,8900.0,,,,
KRDR,06-03-2011,10:16,SPECI,,120,18.0,23.0,120/26KTS,9999.0,Light Rain,20.0,20.0,29.50,1000.4,61,,,,,,,,,,,,,,4/8 Partly Cloudy,72000.0,,FEW,4900.0,SCT,8900.0,SCT,12000.0,,
KRDR,06-03-2011,10:01,SPECI,,170,17.0,23.0,,9999.0,,19.0,19.0,29.54,1001.7,,,,,,,,,,,,,,,2/8 Mostly Clear,72000.0,,FEW,6900.0,,,,,,
KRDR,06-03-2011,10:00,METAR,,180,15.0,,320/29KTS,9999.0,,19.0,19.0,29.55,1002.1,,,,,,,,,,,.01 IN,,,,Clear,72000.0,,,73000.0,,,,,,
KRDR,06-03-2011,09:36,SPECI,,10,8.0,,320/29KTS,9999.0,,20.0,18.0,29.47,999.5,,,,,,,,,,,,,,,Clear,72000.0,,,73000.0,,,,,,
KRDR,06-03-2011,09:27,SPECI,,340,8.0,16.0,260/27KTS,9999.0,Light Rain,20.0,18.0,29.51,1000.6,61,,,,,,,,,,,,,,2/8 Mostly Clear,72000.0,,FEW,12000.0,,,,,,
KRDR,06-03-2011,09:14,SPECI,,300,14.0,27.0,260/27KTS,9999.0,Thunderstorm and Rain or Snow Showers,19.0,17.0,29.54,1001.7,92,,,,,,,,,,,,,,4/8 Partly Cloudy,72000.0,,FEW,5900.0,SCT,12000.0,,,,
KRDR,06-03-2011,09:12,SPECI,,300,16.0,27.0,260/27KTS,9999.0,Thunderstorm and Rain or Snow Showers,19.0,19.0,29.55,1002.0,92,,,,,,,,,,,,,,4/8 Partly Cloudy,72000.0,,FEW,6900.0,SCT,12000.0,,,,
KRDR,06-03-2011,09:04,SPECI,,270,18.0,23.0,,9999.0,Light Rain,19.0,19.0,29.60,1003.7,61,,,,,,,,,,,,,,7/8 Mostly Cloudy,12000.0,,FEW,1000.0,SCT,6400.0,BKN,12000.0,,
KRDR,06-03-2011,09:03,SPECI,,250,17.0,22.0,,9999.0,Rain,18.0,18.0,29.61,1004.1,,,,61,,,,,,,,,,,7/8 Mostly Cloudy,12000.0,,FEW,2200.0,SCT,5900.0,SCT,8900.0,BKN,12000.0
KRDR,06-03-2011,09:00,METAR,,250,15.0,22.0,,9999.0,Light Rain,18.0,18.0,29.61,1004.1,61,,,,,,,,,,,,,,7/8 Mostly Cloudy,6000.0,,FEW,2000.0,BKN,5900.0,BKN,8900.0,,
KRDR,06-03-2011,08:55,METAR,,220,15.0,26.0,250/42KTS,9999.0,Thunderstorm with Rain or Snow/Light Rain Showers,19.0,19.0,29.61,1004.1,,,,95,80,,,,,,.14 IN,,,,7/8 Mostly Cloudy,6000.0,,FEW,2200.0,BKN,7900.0,,,,
KRDR,06-03-2011,08:52,SPECI,,220,16.0,26.0,250/42KTS,9999.0,Thunderstorm and Rain or Snow Showers,19.0,19.0,29.62,1004.2,92,,,,,,,,,,,,,,7/8 Mostly Cloudy,6000.0,,FEW,2200.0,BKN,7900.0,,,,
KRDR,06-03-2011,08:37,METAR,,250,20.0,42.0,,6400.0,Thunderstorm with Rain or Snow/Light Rain Showers/Mist,20.0,20.0,29.60,1003.8,,,,95,80,10,,,,,,,,,8/8 Overcast,3700.0,,FEW,300.0,BKN,3800.0,OVC,4800.0,,
KRDR,06-03-2011,08:35,SPECI,,260,24.0,42.0,250/42KTS,4000.0,Heavy Thunderstorm with Rain or Snow/Snow Pellets or Hail/Heavy Rain Showers,21.0,21.0,29.62,1004.2,,,,97,82,88,,,,,,,,,8/8 Overcast,4700.0,,FEW,2200.0,SCT,3800.0,OVC,4800.0,,
KRDR,06-03-2011,08:31,SPECI,,220,18.0,27.0,200/27KTS,9999.0,Thunderstorm with Rain or Snow/Snow Pellets or Hail/Light Rain Showers,22.0,22.0,29.62,1004.3,,,,95,80,88,,,,,,,,,8/8 Overcast,4700.0,,FEW,2300.0,SCT,3500.0,OVC,4800.0,,
KRDR,06-03-2011,08:22,SPECI,,200,19.0,26.0,190/26KTS,9999.0,Thunderstorm,21.0,21.0,29.63,1004.7,,,,17,,,,,,,,,,,8/8 Overcast,4700.0,,FEW,3500.0,BKN,4800.0,OVC,5400.0,,
KRDR,06-03-2011,08:00,METAR,,170,13.0,,,9999.0,,21.0,21.0,29.56,1002.5,,,,,,,,,,,,,,,7/8 Mostly Cloudy,4800.0,,BKN,4900.0,BKN,6400.0,,,,
KRDR,06-03-2011,07:00,METAR,,170,17.0,,,9999.0,,22.0,22.0,29.58,1002.9,,,,,,,,,,,,,,,4/8 Partly Cloudy,72000.0,,FEW,2100.0,SCT,4600.0,,,,
KRDR,06-03-2011,06:00,METAR,,140,10.0,,,9999.0,,20.0,20.0,29.57,1002.7,,,,,,,,,,,,,,,2/8 Mostly Clear,72000.0,,FEW,4900.0,,,,,,
KRDR,06-03-2011,05:00,METAR,,140,12.0,,,9999.0,,20.0,20.0,29.57,1002.5,,,,,,,,,,,,,,,Clear,72000.0,,,73000.0,,,,,,
KRDR,06-03-2011,04:00,METAR,,140,14.0,23.0,,9999.0,,21.0,20.0,29.60,1003.5,,,,,,,,,,,,,,,Clear,72000.0,,,73000.0,,,,,,
KRDR,06-03-2011,03:00,METAR,,140,15.0,,,9999.0,,22.0,19.0,29.61,1003.8,,,,,,,,,,,,,,,Clear,72000.0,,,73000.0,,,,,,
KRDR,06-03-2011,02:00,METAR,,130,14.0,21.0,,9999.0,,22.0,19.0,29.61,1003.8,,,,,,,,,,,,,,,2/8 Mostly Clear,72000.0,,FEW,6900.0,,,,,,
KRDR,06-03-2011,01:00,METAR,,140,14.0,21.0,150/26KTS,9999.0,,23.0,17.0,29.62,1004.3,,,,,,,,,,,,,,,2/8 Mostly Clear,72000.0,,FEW,5900.0,,,,,,
KRDR,06-03-2011,00:00,METAR,,150,16.0,27.0,150/29KTS,9999.0,,23.0,16.0,29.63,1004.6,,,,,,,,,,,,,.1 IN,,7/8 Mostly Cloudy,4900.0,,BKN,5000.0,,,,,,
KRDR,06-02-2011,23:00,METAR,,140,22.0,32.0,140/33KTS,9999.0,,24.0,16.0,29.62,1004.4,,,,,,,,,,,,,,,Clear,72000.0,,,73000.0,,,,,,
KRDR,06-02-2011,22:00,METAR,,150,24.0,31.0,140/36KTS,9999.0,,24.0,16.0,29.64,1004.9,,,,,,,,,,,,,,,Clear,72000.0,,,73000.0,,,,,,
KRDR,06-02-2011,21:00,METAR,,140,21.0,27.0,140/32KTS,9999.0,,24.0,16.0,29.69,1006.6,,,,,,,,,,,,.1 IN,,,Clear,72000.0,,,73000.0,,,,,,
KRDR,06-02-2011,20:00,METAR,,140,19.0,27.0,140/28KTS,9999.0,,21.0,16.0,29.70,1007.0,,,,,,,,,,,,,,,Clear,72000.0,,,73000.0,,,,,,
KRDR,06-02-2011,19:00,METAR,,120,12.0,,,8000.0,Light Rain/Mist,17.0,17.0,29.75,1008.7,61,10,,,,,,,,,.1 IN,,,,7/8 Mostly Cloudy,4300.0,,FEW,400.0,SCT,2800.0,BKN,4400.0,,
KRDR,06-02-2011,18:53,SPECI,,120,12.0,,,9999.0,,17.0,17.0,29.75,1008.6,,,,,,,,,,,,,,,7/8 Mostly Cloudy,4300.0,,FEW,400.0,SCT,2800.0,BKN,4400.0,,
KRDR,06-02-2011,18:50,SPECI,,120,12.0,,,4800.0,Light Rain/Mist,17.0,17.0,29.76,1008.9,61,10,,,,,,,,,,,,,7/8 Mostly Cloudy,2900.0,,FEW,400.0,BKN,2900.0,BKN,4500.0,,
KRDR,06-02-2011,18:48,SPECI,,120,12.0,,,4800.0,Thunderstorm and Rain or Snow Showers/Mist,17.0,17.0,29.76,1009.1,92,10,,,,,,,,,,,,,7/8 Mostly Cloudy,2900.0,,FEW,400.0,BKN,2900.0,BKN,4300.0,,
KRDR,06-02-2011,18:26,SPECI,,130,14.0,,,9999.0,Thunderstorm and Rain or Snow Showers,18.0,14.0,29.79,1009.8,92,,,,,,,,,,,,,,8/8 Overcast,3800.0,,FEW,600.0,OVC,3900.0,,,,
KRDR,06-02-2011,18:22,SPECI,,150,12.0,,,9999.0,Thunderstorm and Rain or Snow Showers,18.0,12.0,29.81,1010.7,92,,,,,,,,,,,,,,8/8 Overcast,3800.0,,OVC,3900.0,,,,,,
KRDR,06-02-2011,18:21,SPECI,,150,12.0,,,9999.0,Light Rain,18.0,12.0,29.82,1010.8,61,,,,,,,,,,,,,,8/8 Overcast,3800.0,,OVC,3900.0,,,,,,
KRDR,06-02-2011,18:00,METAR,,140,16.0,21.0,140/29KTS,9999.0,,18.0,12.0,29.83,1011.2,,,,,,,,,,,,,,,8/8 Overcast,3600.0,,OVC,3700.0,,,,,,
KRDR,06-02-2011,17:17,SPECI,,140,22.0,28.0,140/28KTS,9999.0,,19.0,11.0,29.81,1010.7,,,,,,,,,,,,,,,8/8 Overcast,3000.0,,BKN,3000.0,BKN,3500.0,OVC,4300.0,,
KRDR,06-02-2011,17:00,METAR,,140,16.0,23.0,140/31KTS,9999.0,,17.0,10.0,29.85,1011.8,,,,,,,,,,,,,,,8/8 Overcast,3000.0,,OVC,3000.0,,,,,,
KRDR,06-02-2011,16:53,SPECI,,140,16.0,23.0,,9999.0,,17.0,10.0,29.85,1011.7,,,,,,,,,,,,,,,8/8 Overcast,2700.0,,OVC,2900.0,,,,,,
KRDR,06-02-2011,16:00,METAR,,130,18.0,25.0,130/26KTS,9999.0,,18.0,11.0,29.86,1012.4,,,,,,,,,,,,,,,8/8 Overcast,3200.0,,OVC,3300.0,,,,,,
KRDR,06-02-2011,15:00,METAR,,120,16.0,,,9999.0,,16.0,10.0,29.90,1013.6,,,,,,,,,,,,,,,7/8 Mostly Cloudy,3500.0,,BKN,3600.0,,,,,,
KRDR,06-02-2011,14:00,METAR,,110,12.0,,,9999.0,,14.0,11.0,29.94,1014.9,,,,,,,,,,,,,,,8/8 Overcast,4300.0,,OVC,4400.0,,,,,,
KRDR,06-02-2011,13:00,METAR,,120,11.0,,,9999.0,,13.0,11.0,29.97,1016.0,,,,,,,,,,,,,,,7/8 Mostly Cloudy,6000.0,,SCT,4900.0,BKN,5900.0,,,,
KRDR,06-02-2011,12:00,METAR,,110,7.0,,,9999.0,,12.0,11.0,30.00,1017.0,,,,,,,,,,,,,,,8/8 Overcast,7000.0,,OVC,6900.0,,,,,,
KRDR,06-02-2011,11:00,METAR,,100,6.0,,,9999.0,,11.0,11.0,30.02,1017.5,,,,,,,,,,,,,,,8/8 Overcast,7000.0,,OVC,6900.0,,,,,,
KRDR,06-02-2011,10:00,METAR,,110,8.0,,,9999.0,,10.0,10.0,30.03,1018.0,,,,,,,,,,,,,,,Clear,72000.0,,,73000.0,,,,,,
KRDR,06-02-2011,09:00,METAR,,120,8.0,,,9999.0,,11.0,11.0,30.06,1018.7,,,,,,,,,,,,,,,Clear,72000.0,,,73000.0,,,,,,
KRDR,06-02-2011,08:00,METAR,,110,8.0,,,9999.0,,11.0,11.0,30.08,1019.5,,,,,,,,,,,,,,,Clear,72000.0,,,73000.0,,,,,,
KRDR,06-02-2011,07:00,METAR,,100,7.0,,,9999.0,,12.0,12.0,30.09,1019.6,,,,,,,,,,,,,,,Clear,72000.0,,,73000.0,,,,,,
KRDR,06-02-2011,06:00,METAR,,100,6.0,,,9999.0,,12.0,10.0,30.12,1020.6,,,,,,,,,,,,,,,Clear,72000.0,,,73000.0,,,,,,
KRDR,06-02-2011,05:00,METAR,,100,5.0,,,9999.0,,13.0,8.0,30.13,1021.1,,,,,,,,,,,,,,,Clear,72000.0,,,73000.0,,,,,,
KRDR,06-02-2011,04:00,METAR,,100,5.0,,,9999.0,,13.0,8.0,30.13,1021.1,,,,,,,,,,,,,,,Clear,72000.0,,,73000.0,,,,,,
KRDR,06-02-2011,03:00,METAR,,100,6.0,,,9999.0,,14.0,9.0,30.14,1021.4,,,,,,,,,,,,,,,Clear,72000.0,,,73000.0,,,,,,
KRDR,06-02-2011,02:00,METAR,,90,5.0,,,9999.0,,16.0,8.0,30.14,1021.6,,,,,,,,,,,,,,,Clear,72000.0,,,73000.0,,,,,,
KRDR,06-02-2011,01:00,METAR,,80,7.0,,,9999.0,,18.0,7.0,30.15,1021.8,,,,,,,,,,,,,,,Clear,72000.0,,,73000.0,,,,,,
KRDR,06-02-2011,00:00,METAR,,90,7.0,,,9999.0,,19.0,8.0,30.16,1022.1,,,,,,,,,,,,,TRACE,,Clear,72000.0,,,73000.0,,,,,,
KRDR,06-01-2011,23:00,METAR,,80,9.0,,,9999.0,,19.0,7.0,30.16,1022.2,,,,,,,,,,,,,,,Clear,72000.0,,,73000.0,,,,,,
KRDR,06-01-2011,22:00,METAR,,20,4.0,,,9999.0,,20.0,7.0,30.17,1022.4,,,,,,,,,,,,,,,Clear,72000.0,,,73000.0,,,,,,
KRDR,06-01-2011,21:00,METAR,,,5.0,,,9999.0,,19.0,7.0,30.18,1022.8,,,,,,,,,,,,TRACE,,,2/8 Mostly Clear,72000.0,,FEW,5000.0,,,,,,
KRDR,06-01-2011,20:00,METAR,,,3.0,,,9999.0,,18.0,7.0,30.19,1023.1,,,,,,,,,,,,,,,2/8 Mostly Clear,72000.0,,FEW,5000.0,,,,,,
KRDR,06-01-2011,19:00,METAR,,,6.0,,,9999.0,,18.0,6.0,30.19,1023.1,,,,,,,,,,,TRACE,,,,2/8 Mostly Clear,72000.0,,FEW,5000.0,,,,,,
KRDR,06-01-2011,18:38,SPECI,,,6.0,,,9999.0,,18.0,7.0,30.19,1023.0,,,,,,,,,,,,,,,2/8 Mostly Clear,72000.0,,FEW,5000.0,,,,,,
KRDR,06-01-2011,18:33,SPECI,,,0.0,,,9999.0,Light Rain,18.0,7.0,30.19,1023.2,61,,,,,,,,,,,,,,2/8 Mostly Clear,72000.0,,FEW,5000.0,,,,,,
KRDR,06-01-2011,18:00,METAR,,310,4.0,,,9999.0,,18.0,7.0,30.20,1023.5,,,,,,,,,,,,,,,Clear,72000.0,,,73000.0,,,,,,
KRDR,06-01-2011,17:00,METAR,,360,7.0,16.0,,9999.0,,17.0,7.0,30.20,1023.6,,,,,,,,,,,,,,,Clear,72000.0,,,73000.0,,,,,,
KRDR,06-01-2011,16:00,METAR,,340,9.0,,,9999.0,,16.0,7.0,30.20,1023.6,,,,,,,,,,,,,,,Clear,72000.0,,,73000.0,,,,,,
KRDR,06-01-2011,15:00,METAR,,330,11.0,,,9999.0,,14.0,7.0,30.19,1023.2,,,,,,,,,,,,,,,Clear,72000.0,,,73000.0,,,,,,
KRDR,06-01-2011,14:00,METAR,,320,9.0,,,9999.0,,13.0,7.0,30.18,1022.8,,,,,,,,,,,,,,,Clear,72000.0,,,73000.0,,,,,,
KRDR,06-01-2011,13:00,METAR,,310,9.0,,,9999.0,,11.0,6.0,30.16,1022.1,,,,,,,,,,,,,,,Clear,72000.0,,,73000.0,,,,,,
KRDR,06-01-2011,12:00,METAR,,310,6.0,,,9999.0,,9.0,6.0,30.14,1021.3,,,,,,,,,,,,,,.02 IN,Clear,72000.0,,,73000.0,,,,,,
KRDR,06-01-2011,11:00,METAR,,310,7.0,,,9999.0,,8.0,5.0,30.11,1020.3,,,,,,,,,,,,,,,Clear,72000.0,,,73000.0,,,,,,
KRDR,06-01-2011,10:00,METAR,,320,11.0,,,9999.0,,10.0,4.0,30.08,1019.3,,,,,,,,,,,,,,,Clear,72000.0,,,73000.0,,,,,,
KRDR,06-01-2011,06:00,METAR,,300,11.0,,,9999.0,,10.0,5.0,30.01,1017.1,,,,,,,,,,,,,,,Clear,72000.0,,,73000.0,,,,,,
KRDR,06-01-2011,05:00,METAR,,320,14.0,22.0,310/26KTS,9999.0,,11.0,6.0,29.98,1016.3,,,,,,,,,,,,,,,Clear,72000.0,,,73000.0,,,,,,
KRDR,06-01-2011,04:00,METAR,,310,18.0,26.0,310/32KTS,9999.0,,11.0,6.0,29.95,1015.2,,,,,,,,,,,,,,,2/8 Mostly Clear,72000.0,,FEW,7900.0,,,,,,
KRDR,06-01-2011,03:00,METAR,,310,18.0,28.0,310/31KTS,9999.0,,11.0,7.0,29.92,1014.1,,,,,,,,,,,,,,,4/8 Partly Cloudy,72000.0,,SCT,8900.0,SCT,11000.0,,,,
KRDR,06-01-2011,02:00,METAR,,290,25.0,33.0,290/40KTS,9999.0,,11.0,8.0,29.86,1012.4,,,,,,,,,,,,,,,8/8 Overcast,7500.0,,FEW,3400.0,BKN,7400.0,OVC,9900.0,,
KRDR,06-01-2011,00:07,SPECI,,290,24.0,38.0,300/38KTS,9999.0,,10.0,10.0,29.79,1010.0,,,,,,,,,,,,,,,8/8 Overcast,3100.0,,OVC,3100.0,,,,,,
KRDR,06-01-2011,00:00,METAR,,290,25.0,33.0,300/33KTS,9999.0,,10.0,10.0,29.78,1009.7,,,,,,,,,,,.01 IN,,.01 IN,,8/8 Overcast,2400.0,,FEW,2000.0,BKN,2700.0,OVC,3200.0,,
KRDR,05-31-2011,23:48,SPECI,,290,24.0,31.0,280/32KTS,9999.0,,10.0,10.0,29.78,1009.7,,,,,,,,,,,,,,,8/8 Overcast,2300.0,,BKN,2300.0,OVC,3000.0,,,,
KRDR,05-31-2011,23:26,SPECI,,280,20.0,28.0,280/32KTS,9999.0,Light Rain/Mist,9.0,9.0,29.77,1009.4,61,10,,,,,,,,,,,,,8/8 Overcast,2100.0,,FEW,700.0,BKN,2100.0,OVC,2900.0,,
KRDR,05-31-2011,22:43,SPECI,,290,29.0,36.0,300/38KTS,9999.0,,10.0,10.0,29.73,1008.0,,,,,,,,,,,,,,,8/8 Overcast,1700.0,,BKN,2100.0,OVC,2800.0,,,,
KRDR,05-31-2011,22:40,SPECI,,290,21.0,36.0,300/38KTS,9999.0,,11.0,10.0,29.73,1007.9,,,,,,,,,,,,,,,8/8 Overcast,1700.0,,BKN,2100.0,OVC,2800.0,,,,
KRDR,05-31-2011,22:10,SPECI,,290,26.0,38.0,300/38KTS,9999.0,Light Rain,10.0,10.0,29.70,1007.1,61,,,,,,,,,,,,,,8/8 Overcast,2900.0,,SCT,2200.0,BKN,2900.0,OVC,3800.0,,
KRDR,05-31-2011,22:05,SPECI,,290,27.0,38.0,300/38KTS,9999.0,,10.0,10.0,29.70,1007.0,,,,,,,,,,,,,,,8/8 Overcast,2500.0,,SCT,2200.0,BKN,3000.0,OVC,3800.0,,
KRDR,05-31-2011,22:00,METAR,,290,25.0,38.0,290/38KTS,9999.0,Light Rain,10.0,10.0,29.69,1006.7,61,,,,,,,,,,TRACE,,,,8/8 Overcast,2200.0,,BKN,2200.0,BKN,3300.0,OVC,4100.0,,
KRDR,05-31-2011,21:40,SPECI,,280,23.0,32.0,290/36KTS,9999.0,,11.0,10.0,29.68,1006.4,,,,,,,,,,,,,,,8/8 Overcast,2300.0,,FEW,1100.0,BKN,2300.0,OVC,3000.0,,
KRDR,05-31-2011,21:36,SPECI,,290,24.0,35.0,290/36KTS,9999.0,,11.0,10.0,29.68,1006.4,,,,,,,,,,,,,,,8/8 Overcast,1900.0,,FEW,1100.0,BKN,2300.0,OVC,3900.0,,
KRDR,05-31-2011,21:19,SPECI,,300,26.0,36.0,290/36KTS,9999.0,Light Rain,11.0,10.0,29.66,1005.8,61,,,,,,,,,,,,,,8/8 Overcast,2600.0,,FEW,1100.0,BKN,2600.0,OVC,3400.0,,
KRDR,05-31-2011,21:00,METAR,,280,21.0,39.0,270/39KTS,9999.0,,11.0,10.0,29.64,1005.1,,,,,,,,,,,TRACE,0 IN,,,8/8 Overcast,2600.0,,SCT,2300.0,BKN,3300.0,OVC,5000.0,,
KRDR,05-31-2011,20:54,SPECI,,270,23.0,39.0,280/30KTS,9999.0,,12.0,10.0,29.64,1005.0,,,,,,,,,,,,,,,8/8 Overcast,2300.0,,FEW,1200.0,BKN,2300.0,OVC,4400.0,,
KRDR,05-31-2011,20:43,SPECI,,270,22.0,32.0,270/33KTS,9999.0,,11.0,10.0,29.64,1004.8,,,,,,,,,,,,,,,8/8 Overcast,2900.0,,FEW,2100.0,BKN,2900.0,OVC,4400.0,,
KRDR,05-31-2011,20:41,SPECI,,270,20.0,32.0,270/33KTS,9999.0,,11.0,10.0,29.64,1005.1,,,,,,,,,,,,,,,8/8 Overcast,2800.0,,SCT,2500.0,BKN,3400.0,OVC,4800.0,,
KRDR,05-31-2011,20:24,SPECI,,280,21.0,33.0,290/33KTS,9999.0,,12.0,9.0,29.63,1004.6,,,,,,,,,,,,,,,8/8 Overcast,3400.0,,SCT,2600.0,BKN,3500.0,OVC,4800.0,,
KRDR,05-31-2011,20:22,SPECI,,270,23.0,33.0,290/33KTS,9999.0,,12.0,9.0,29.62,1004.4,,,,,,,,,,,,,,,8/8 Overcast,2800.0,,FEW,1400.0,BKN,2800.0,OVC,4800.0,,
KRDR,05-31-2011,20:20,SPECI,,280,24.0,33.0,290/33KTS,9999.0,,12.0,9.0,29.62,1004.3,,,,,,,,,,,,,,,8/8 Overcast,3300.0,,FEW,800.0,BKN,3400.0,OVC,4800.0,,
KRDR,05-31-2011,20:18,SPECI,,280,25.0,33.0,290/33KTS,9999.0,,12.0,10.0,29.62,1004.4,,,,,,,,,,,,,,,8/8 Overcast,2900.0,,FEW,1500.0,BKN,2900.0,OVC,4800.0,,
KRDR,05-31-2011,20:15,SPECI,,280,24.0,33.0,280/33KTS,9999.0,,11.0,10.0,29.62,1004.2,,,,,,,,,,,,,,,8/8 Overcast,2800.0,,FEW,1000.0,SCT,2400.0,OVC,3400.0,,
KRDR,05-31-2011,20:10,SPECI,,280,26.0,33.0,280/33KTS,9999.0,Light Rain,11.0,10.0,29.62,1004.2,61,,,,,,,,,,,,,,8/8 Overcast,3000.0,,FEW,1000.0,BKN,3000.0,OVC,4000.0,,
KRDR,05-31-2011,20:04,SPECI,,270,23.0,33.0,290/33KTS,9999.0,Light Rain,11.0,11.0,29.61,1004.0,61,,,,,,,,,,,,,,8/8 Overcast,3000.0,,FEW,1000.0,BKN,3000.0,OVC,3800.0,,
KRDR,05-31-2011,20:02,SPECI,,270,21.0,32.0,270/32KTS,6400.0,Light Rain/Mist,11.0,11.0,29.61,1003.9,61,10,,,,,,,,,,,,,8/8 Overcast,3100.0,,FEW,900.0,BKN,3100.0,OVC,3800.0,,
KRDR,05-31-2011,20:00,SPECI,,270,22.0,32.0,270/32KTS,6400.0,Light Rain/Mist,12.0,11.0,29.60,1003.8,61,10,,,,,,,,,,,,,8/8 Overcast,2800.0,,FEW,900.0,BKN,2800.0,OVC,3900.0,,
KRDR,05-31-2011,20:00,METAR,,280,24.0,33.0,280/37KTS,9999.0,,12.0,11.0,29.60,1003.7,,,,,,,,,,,TRACE,,,,8/8 Overcast,2600.0,,,,,,,,,
KRDR,05-31-2011,19:20,SPECI,,260,20.0,36.0,260/36KTS,9999.0,,12.0,11.0,29.58,1003.0,,,,,,,,,,,,,,,8/8 Overcast,2600.0,,BKN,2600.0,BKN,3500.0,OVC,9900.0,,
KRDR,05-31-2011,19:00,METAR,,250,25.0,31.0,250/34KTS,9999.0,,13.0,10.0,29.56,1002.3,,,,,,,,,,,TRACE,,,,8/8 Overcast,2400.0,,,,,,,,,
KRDR,05-31-2011,19:00,SPECI,,260,24.0,34.0,250/34KTS,9999.0,Light Rain,13.0,10.0,29.57,1002.6,61,,,,,,,,,,,,,,8/8 Overcast,2600.0,,BKN,2600.0,OVC,3400.0,,,,
KRDR,05-31-2011,18:29,SPECI,,260,23.0,31.0,250/34KTS,9999.0,,13.0,9.0,29.56,1002.2,,,,,,,,,,,,,,,8/8 Overcast,2800.0,,BKN,2800.0,BKN,3900.0,OVC,9400.0,,
KRDR,05-31-2011,18:22,SPECI,,250,21.0,30.0,250/34KTS,9999.0,,13.0,10.0,29.55,1002.1,,,,,,,,,,,,,,,8/8 Overcast,2800.0,,SCT,2800.0,BKN,3800.0,OVC,9400.0,,
KRDR,05-31-2011,17:37,SPECI,,260,24.0,33.0,270/33KTS,9999.0,,14.0,11.0,29.53,1001.4,,,,,,,,,,,,,,,7/8 Mostly Cloudy,3000.0,,SCT,2500.0,BKN,3000.0,BKN,3400.0,,
KRDR,05-31-2011,17:34,SPECI,,260,24.0,33.0,270/33KTS,9999.0,,15.0,11.0,29.53,1001.5,,,,,,,,,,,,,,,7/8 Mostly Cloudy,2200.0,,BKN,2700.0,BKN,3400.0,,,,
KRDR,05-31-2011,16:31,SPECI,,250,19.0,28.0,250/31KTS,9999.0,Light Rain,14.0,13.0,29.50,1000.5,61,,,,,,,,,,,,,,8/8 Overcast,2500.0,,OVC,2500.0,,,,,,
KRDR,05-31-2011,16:00,METAR,,260,20.0,27.0,250/31KTS,9999.0,,15.0,13.0,29.49,1000.0,,,,,,,,,,,.01 IN,,,,8/8 Overcast,2200.0,,OVC,2700.0,,,,,,
KRDR,05-31-2011,15:00,METAR,,240,16.0,24.0,230/26KTS,9999.0,,15.0,15.0,29.48,999.8,,,,,,,,,,,,,,,8/8 Overcast,2100.0,,SCT,2100.0,OVC,2800.0,,,,
KRDR,05-31-2011,14:00,METAR,,220,15.0,,,9999.0,,14.0,14.0,29.48,999.7,,,,,,,,,,,,,,,8/8 Overcast,1600.0,,BKN,2100.0,OVC,2700.0,,,,
KRDR,05-31-2011,13:00,METAR,,230,15.0,,,9999.0,,14.0,14.0,29.48,999.7,,,,,,,,,,,,,,,8/8 Overcast,1400.0,,OVC,1500.0,,,,,,
KRDR,05-31-2011,12:05,SPECI,,240,12.0,,,9999.0,,14.0,14.0,29.45,998.8,,,,,,,,,,,,,,,7/8 Mostly Cloudy,1500.0,,BKN,1700.0,,,,,,
KRDR,05-31-2011,12:03,SPECI,,230,10.0,,,9999.0,,14.0,14.0,29.45,998.8,,,,,,,,,,,,,,,4/8 Partly Cloudy,72000.0,,SCT,1800.0,,,,,,
KRDR,05-31-2011,12:00,METAR,,240,11.0,19.0,,9999.0,,14.0,14.0,29.45,998.6,,,,,,,,,,,,,,.49 IN,8/8 Overcast,1500.0,,OVC,1700.0,,,,,,
KRDR,05-31-2011,11:17,SPECI,,230,13.0,,,9999.0,,14.0,14.0,29.46,998.9,,,,,,,,,,,,,,,8/8 Overcast,1300.0,,OVC,1500.0,,,,,,
KRDR,05-31-2011,11:00,METAR,,240,16.0,28.0,240/28KTS,9999.0,,14.0,14.0,29.45,998.8,,,,,,,,,,,,,,,8/8 Overcast,1100.0,,OVC,1200.0,,,,,,
KRDR,05-31-2011,10:17,SPECI,,220,14.0,,,9999.0,,13.0,13.0,29.44,998.3,,,,,,,,,,,,,,,8/8 Overcast,1200.0,,BKN,1300.0,OVC,3800.0,,,,
KRDR,05-31-2011,10:00,METAR,,230,13.0,,,9999.0,,14.0,14.0,29.42,997.8,,,,,,,,,,,,,,,8/8 Overcast,800.0,,BKN,900.0,OVC,3700.0,,,,
KRDR,05-31-2011,09:28,SPECI,,220,16.0,24.0,,9999.0,,14.0,14.0,29.43,998.2,,,,,,,,,,,,,,,8/8 Overcast,600.0,,OVC,800.0,,,,,,
KRDR,05-31-2011,09:18,SPECI,,210,17.0,21.0,,9999.0,,14.0,14.0,29.44,998.3,,,,,,,,,,,,,,,8/8 Overcast,600.0,,OVC,700.0,,,,,,
KRDR,05-31-2011,09:00,METAR,,210,12.0,,,9999.0,,14.0,14.0,29.42,997.7,,,,,,,,,,,,,,,8/8 Overcast,500.0,,OVC,600.0,,,,,,
KRDR,05-31-2011,08:46,SPECI,,210,13.0,,,9999.0,,14.0,14.0,29.42,997.6,,,,,,,,,,,,,,,8/8 Overcast,400.0,,OVC,600.0,,,,,,
KRDR,05-31-2011,08:36,SPECI,,210,10.0,,,9999.0,,14.0,14.0,29.41,997.3,,,,,,,,,,,,,,,8/8 Overcast,300.0,,OVC,500.0,,,,,,
KRDR,05-31-2011,08:26,SPECI,,210,8.0,,,9999.0,,14.0,14.0,29.41,997.5,,,,,,,,,,,,,,,8/8 Overcast,300.0,,OVC,400.0,,,,,,
KRDR,05-31-2011,08:21,SPECI,,210,8.0,,,9999.0,,14.0,14.0,29.41,997.5,,,,,,,,,,,,,,,8/8 Overcast,300.0,,OVC,300.0,,,,,,
KRDR,05-31-2011,08:00,METAR,,200,8.0,,,8000.0,Mist,14.0,14.0,29.41,997.4,10,,,,,,,,,,,,,,8/8 Overcast,400.0,,OVC,400.0,,,,,,
KRDR,05-31-2011,07:54,SPECI,,200,7.0,,,9999.0,Mist,14.0,14.0,29.41,997.4,10,,,,,,,,,,,,,,8/8 Overcast,300.0,,OVC,300.0,,,,,,
KRDR,05-31-2011,07:49,SPECI,,200,8.0,,,6400.0,Mist,14.0,14.0,29.41,997.3,10,,,,,,,,,,,,,,8/8 Overcast,400.0,,OVC,400.0,,,,,,
KRDR,05-31-2011,07:47,SPECI,,210,9.0,,,4800.0,Mist,14.0,14.0,29.41,997.4,10,,,,,,,,,,,,,,8/8 Overcast,400.0,,OVC,400.0,,,,,,
KRDR,05-31-2011,07:28,SPECI,,210,4.0,,,6400.0,Mist,14.0,14.0,29.39,996.9,10,,,,,,,,,,,,,,8/8 Overcast,400.0,,OVC,400.0,,,,,,
KRDR,05-31-2011,07:21,SPECI,,220,3.0,,,4800.0,Mist,14.0,14.0,29.39,996.8,10,,,,,,,,,,,,,,8/8 Overcast,300.0,,OVC,300.0,,,,,,
KRDR,05-31-2011,07:17,SPECI,,210,4.0,,,4000.0,Mist,14.0,14.0,29.39,996.8,10,,,,,,,,,,,,,,8/8 Overcast,200.0,,OVC,200.0,,,,,,
KRDR,05-31-2011,07:13,SPECI,,220,6.0,,,3200.0,Mist,14.0,14.0,29.40,996.9,10,,,,,,,,,,,,,,8/8 Overcast,200.0,,OVC,200.0,,,,,,
KRDR,05-31-2011,07:09,SPECI,,230,7.0,,,2400.0,Mist,14.0,14.0,29.40,997.0,10,,,,,,,,,,,,,,8/8 Overcast,200.0,,OVC,200.0,,,,,,
KRDR,05-31-2011,07:07,SPECI,,230,6.0,,,2000.0,Mist,14.0,14.0,29.39,996.8,10,,,,,,,,,,,,,,8/8 Overcast,200.0,,OVC,200.0,,,,,,
KRDR,05-31-2011,07:06,SPECI,,240,7.0,,,1600.0,Mist,14.0,14.0,29.39,996.7,10,,,,,,,,,,,,,,Sky Obscured (Unable to Estimate),200.0,100.0,,200.0,,,,,,
KRDR,05-31-2011,07:00,METAR,,240,7.0,,,2000.0,Mist,14.0,14.0,29.40,997.0,10,,,,,,,,,,,,,,8/8 Overcast,300.0,,OVC,300.0,,,,,,
KRDR,05-31-2011,06:50,SPECI,,230,7.0,,,2000.0,Mist,14.0,14.0,29.41,997.2,10,,,,,,,,,,,,,,8/8 Overcast,300.0,,OVC,300.0,,,,,,
KRDR,05-31-2011,06:48,SPECI,,240,5.0,,,1600.0,Mist,14.0,14.0,29.41,997.2,10,,,,,,,,,,,,,,Sky Obscured (Unable to Estimate),300.0,100.0,,300.0,,,,,,
KRDR,05-31-2011,06:47,SPECI,,260,4.0,,,2000.0,Mist,14.0,14.0,29.40,997.2,10,,,,,,,,,,,,,,8/8 Overcast,300.0,,OVC,300.0,,,,,,
KRDR,05-31-2011,06:44,SPECI,,280,3.0,,,2000.0,Mist,14.0,14.0,29.39,996.8,10,,,,,,,,,,,,,,8/8 Overcast,300.0,,OVC,300.0,,,,,,
KRDR,05-31-2011,06:38,SPECI,,250,3.0,,,2800.0,Mist,14.0,14.0,29.40,997.0,10,,,,,,,,,,,,,,8/8 Overcast,300.0,,OVC,300.0,,,,,,
KRDR,05-31-2011,06:24,SPECI,,240,5.0,,,4000.0,Mist,14.0,14.0,29.42,997.6,10,,,,,,,,,,,,,,8/8 Overcast,300.0,,OVC,300.0,,,,,,
KRDR,05-31-2011,06:23,SPECI,,240,5.0,,,4000.0,Mist,14.0,14.0,29.42,997.7,10,,,,,,,,,,,,,,8/8 Overcast,300.0,,OVC,300.0,,,,,,
KRDR,05-31-2011,06:01,SPECI,,340,4.0,,,6400.0,Mist,14.0,14.0,29.41,997.5,10,,,,,,,,,,,,,,8/8 Overcast,300.0,,OVC,300.0,,,,,,
KRDR,05-31-2011,06:00,METAR,,,0.0,,,8000.0,Mist,14.0,14.0,29.42,997.7,10,,,,,,,,,,,,.1 IN,,8/8 Overcast,300.0,,OVC,300.0,,,,,,
KRDR,05-31-2011,05:16,SPECI,,340,4.0,,,9999.0,Mist,14.0,14.0,29.40,997.0,10,,,,,,,,,,,,,,8/8 Overcast,300.0,,OVC,300.0,,,,,,
KRDR,05-31-2011,05:06,SPECI,,330,7.0,,,9999.0,Mist,14.0,14.0,29.39,996.6,10,,,,,,,,,,,,,,8/8 Overcast,300.0,,OVC,300.0,,,,,,
KRDR,05-31-2011,05:03,SPECI,,330,7.0,,,9999.0,Mist,14.0,14.0,29.39,996.7,10,,,,,,,,,,,,,,8/8 Overcast,300.0,,OVC,300.0,,,,,,
KRDR,05-31-2011,05:00,METAR,,300,6.0,,,9999.0,,14.0,14.0,29.43,998.1,,,,,,,,,,,TRACE,,,,8/8 Overcast,300.0,,OVC,300.0,,,,,,
KRDR,05-31-2011,04:11,SPECI,,320,13.0,,,9999.0,,14.0,14.0,29.37,996.1,,,,,,,,,,,,,,,8/8 Overcast,300.0,,OVC,300.0,,,,,,
KRDR,05-31-2011,04:04,SPECI,,310,12.0,21.0,,9999.0,Light Rain,15.0,15.0,29.40,997.1,61,,,,,,,,,,,,,,8/8 Overcast,300.0,,BKN,300.0,OVC,800.0,,,,
KRDR,05-31-2011,04:01,SPECI,,310,14.0,21.0,,9999.0,Light Rain,15.0,15.0,29.41,997.5,61,,,,,,,,,,,,,,8/8 Overcast,400.0,,BKN,400.0,OVC,1400.0,,,,
KRDR,05-31-2011,04:00,METAR,,320,13.0,23.0,050/26KTS,9999.0,Thunderstorm and Rain or Snow Showers,15.0,15.0,29.40,997.0,92,,,,,,,,,,.01 IN,,,,8/8 Overcast,300.0,,BKN,300.0,OVC,1300.0,,,,
KRDR,05-31-2011,03:53,SPECI,,320,13.0,23.0,,9999.0,Thunderstorm and Rain or Snow Showers,15.0,15.0,29.41,997.4,92,,,,,,,,,,,,,,8/8 Overcast,300.0,,BKN,300.0,OVC,1300.0,,,,
KRDR,05-31-2011,03:48,SPECI,,330,17.0,23.0,050/26KTS,9999.0,Thunderstorm and Rain or Snow Showers/Mist,15.0,15.0,29.39,996.7,92,10,,,,,,,,,,,,,8/8 Overcast,300.0,,BKN,300.0,BKN,700.0,OVC,1400.0,,
KRDR,05-31-2011,03:43,SPECI,,360,13.0,26.0,050/26KTS,8000.0,Thunderstorm and Rain or Snow Showers/Mist,15.0,15.0,29.38,996.5,92,10,,,,,,,,,,,,,8/8 Overcast,200.0,,SCT,300.0,OVC,1500.0,,,,
KRDR,05-31-2011,03:42,SPECI,,30,15.0,26.0,050/26KTS,8000.0,Thunderstorm and Rain or Snow Showers/Mist,15.0,15.0,29.38,996.3,92,10,,,,,,,,,,,,,8/8 Overcast,200.0,,SCT,300.0,OVC,1800.0,,,,
KRDR,05-31-2011,03:33,SPECI,,50,16.0,,,9999.0,Thunderstorm and Rain or Snow Showers/Mist,15.0,15.0,29.39,996.8,92,10,,,,,,,,,,,,,8/8 Overcast,300.0,,OVC,300.0,,,,,,
KRDR,05-31-2011,03:11,SPECI,,340,9.0,,,9999.0,Thunderstorm and Rain or Snow Showers,15.0,15.0,29.47,999.5,92,,,,,,,,,,,,,,8/8 Overcast,300.0,,BKN,300.0,OVC,1400.0,,,,
KRDR,05-31-2011,03:06,SPECI,,330,10.0,,,9999.0,Dry Thunderstorm,15.0,15.0,29.46,999.2,91,,,,,,,,,,,,,,8/8 Overcast,300.0,,BKN,300.0,OVC,1000.0,,,,
KRDR,05-31-2011,03:03,SPECI,,320,11.0,,,9999.0,,15.0,15.0,29.45,998.6,,,,,,,,,,,,,,,8/8 Overcast,300.0,,BKN,300.0,BKN,1000.0,OVC,5000.0,,
KRDR,05-31-2011,03:00,METAR,,340,12.0,,,4800.0,Light Rain/Mist,15.0,15.0,29.41,997.3,61,10,,,,,,,,,.09 IN,.09 IN,,,8/8 Overcast,1200.0,,SCT,300.0,BKN,1200.0,OVC,5000.0,,
KRDR,05-31-2011,02:55,SPECI,,330,13.0,,,6400.0,Light Rain/Mist,15.0,15.0,29.42,997.6,61,10,,,,,,,,,,,,,8/8 Overcast,300.0,,BKN,300.0,BKN,1000.0,OVC,5000.0,,
KRDR,05-31-2011,02:53,SPECI,,340,12.0,,,4800.0,Light Rain/Mist,15.0,15.0,29.41,997.2,61,10,,,,,,,,,,,,,8/8 Overcast,1100.0,,SCT,300.0,OVC,1100.0,,,,
KRDR,05-31-2011,02:49,SPECI,,340,12.0,,,4800.0,Heavy Thunderstorm and Rain or Snow Showers/Mist,15.0,15.0,29.41,997.5,95,10,,,,,,,,,,,,,8/8 Overcast,1200.0,,SCT,300.0,BKN,1200.0,OVC,5000.0,,
KRDR,05-31-2011,02:42,SPECI,,320,8.0,,,9999.0,Thunderstorm and Rain or Snow Showers,16.0,16.0,29.44,998.3,92,,,,,,,,,,,,,,8/8 Overcast,1000.0,,SCT,400.0,BKN,1000.0,OVC,5000.0,,
KRDR,05-31-2011,02:37,SPECI,,340,8.0,,,9999.0,Dry Thunderstorm,16.0,16.0,29.43,998.0,91,,,,,,,,,,,,,,7/8 Mostly Cloudy,1000.0,,SCT,400.0,BKN,1000.0,BKN,5000.0,,
KRDR,05-31-2011,02:34,SPECI,,350,9.0,,,9999.0,,16.0,16.0,29.43,997.9,,,,,,,,,,,,,,,7/8 Mostly Cloudy,1000.0,,SCT,500.0,BKN,1000.0,BKN,5400.0,,
KRDR,05-31-2011,02:19,SPECI,,10,8.0,,,9999.0,Mist,16.0,16.0,29.43,997.9,10,,,,,,,,,,,,,,7/8 Mostly Cloudy,1100.0,,FEW,500.0,BKN,1100.0,BKN,5000.0,,
KRDR,05-31-2011,02:14,SPECI,,360,8.0,,,9999.0,Mist,16.0,16.0,29.42,997.7,10,,,,,,,,,,,,,,7/8 Mostly Cloudy,4900.0,,SCT,1000.0,BKN,5000.0,,,,
KRDR,05-31-2011,02:12,SPECI,,360,8.0,,,9999.0,Light Rain,16.0,16.0,29.42,997.7,61,,,,,,,,,,,,,,7/8 Mostly Cloudy,4900.0,,SCT,1000.0,BKN,5000.0,,,,
KRDR,05-31-2011,02:00,SPECI,,360,7.0,,,9999.0,Light Rain,16.0,16.0,29.44,998.3,61,,,,,,,,,,,,,,7/8 Mostly Cloudy,1000.0,,,,,,,,,
KRDR,05-31-2011,02:00,METAR,,10,8.0,,,9999.0,,16.0,16.0,29.44,998.4,,,,,,,,,,,,,,,7/8 Mostly Cloudy,1000.0,,BKN,1000.0,BKN,2900.0,BKN,4900.0,,
KRDR,05-31-2011,01:58,SPECI,,360,8.0,,,9999.0,Light Rain,16.0,16.0,29.44,998.4,61,,,,,,,,,,,,,,7/8 Mostly Cloudy,2900.0,,SCT,1000.0,BKN,2900.0,BKN,5000.0,,
KRDR,05-31-2011,01:54,SPECI,,10,9.0,,,9999.0,,16.0,16.0,29.44,998.5,,,,,,,,,,,,,,,8/8 Overcast,2900.0,,SCT,1000.0,BKN,2900.0,OVC,6400.0,,
KRDR,05-31-2011,01:39,SPECI,,10,8.0,,,9999.0,,17.0,17.0,29.44,998.5,,,,,,,,,,,,,,,8/8 Overcast,900.0,,OVC,1000.0,,,,,,
KRDR,05-31-2011,01:00,METAR,,20,5.0,,,9999.0,,17.0,17.0,29.47,999.5,,,,,,,,,,,,,,,8/8 Overcast,900.0,,OVC,900.0,,,,,,
KRDR,05-31-2011,00:38,SPECI,,10,4.0,,,9999.0,,17.0,17.0,29.48,999.5,,,,,,,,,,,,,,,8/8 Overcast,900.0,,OVC,900.0,,,,,,
KRDR,05-31-2011,00:20,SPECI,,30,3.0,,,9999.0,,17.0,17.0,29.48,999.7,,,,,,,,,,,,,,,8/8 Overcast,800.0,,OVC,1000.0,,,,,,
KRDR,05-31-2011,00:00,METAR,,50,8.0,,,9999.0,,17.0,17.0,29.48,999.8,,,,,,,,,,,,,.08 IN,,8/8 Overcast,800.0,,OVC,900.0,,,,,,
KRDR,05-30-2011,23:00,METAR,,50,7.0,,,9999.0,,16.0,16.0,29.51,1000.7,,,,,,,,,,,,,,,8/8 Overcast,700.0,,OVC,800.0,,,,,,
KRDR,05-30-2011,22:38,SPECI,,50,7.0,,,9999.0,,15.0,15.0,29.52,1000.9,,,,,,,,,,,,,,,8/8 Overcast,700.0,,OVC,800.0,,,,,,
KRDR,05-30-2011,21:51,SPECI,,60,9.0,,,9999.0,,15.0,15.0,29.53,1001.3,,,,,,,,,,,,,,,8/8 Overcast,500.0,,OVC,700.0,,,,,,
KRDR,05-30-2011,21:42,SPECI,,70,8.0,,,9999.0,Mist,14.0,14.0,29.54,1001.6,10,,,,,,,,,,,,,,8/8 Overcast,400.0,,OVC,600.0,,,,,,
KRDR,05-30-2011,21:33,SPECI,,60,8.0,,,6400.0,Mist,14.0,14.0,29.54,1001.8,10,,,,,,,,,,,,,,8/8 Overcast,400.0,,OVC,500.0,,,,,,
KRDR,05-30-2011,21:27,SPECI,,60,9.0,,,4800.0,Light Drizzle/Mist,14.0,14.0,29.54,1001.8,51,10,,,,,,,,,,,,,8/8 Overcast,400.0,,OVC,500.0,,,,,,
KRDR,05-30-2011,21:24,SPECI,,60,8.0,,,4800.0,Light Drizzle/Mist,14.0,14.0,29.55,1001.9,51,10,,,,,,,,,,,,,8/8 Overcast,400.0,,OVC,400.0,,,,,,
KRDR,05-30-2011,21:19,SPECI,,60,8.0,,,3200.0,Light Rain/Mist,14.0,14.0,29.55,1001.9,61,10,,,,,,,,,,,,,8/8 Overcast,400.0,,OVC,400.0,,,,,,
KRDR,05-30-2011,21:00,METAR,,70,9.0,,,3200.0,Light Rain/Mist,14.0,14.0,29.56,1002.3,61,10,,,,,,,,,.02 IN,.06 IN,,,8/8 Overcast,300.0,,OVC,400.0,,,,,,
KRDR,05-30-2011,20:46,SPECI,,70,9.0,,,3200.0,Light Drizzle/Mist,14.0,14.0,29.56,1002.4,51,10,,,,,,,,,,,,,8/8 Overcast,300.0,,OVC,400.0,,,,,,
KRDR,05-30-2011,20:38,SPECI,,60,9.0,,,2400.0,Light Rain/Mist,14.0,14.0,29.56,1002.5,61,10,,,,,,,,,,,,,8/8 Overcast,300.0,,OVC,400.0,,,,,,
KRDR,05-30-2011,20:28,SPECI,,70,13.0,,,2400.0,Light Rain/Mist,14.0,14.0,29.56,1002.4,61,10,,,,,,,,,,,,,8/8 Overcast,300.0,,OVC,300.0,,,,,,
KRDR,05-30-2011,20:20,SPECI,,70,11.0,,,2000.0,Light Rain/Mist,14.0,14.0,29.56,1002.4,61,10,,,,,,,,,,,,,8/8 Overcast,300.0,,OVC,300.0,,,,,,
KRDR,05-30-2011,20:01,SPECI,,70,10.0,,,2000.0,Light Rain/Mist,14.0,14.0,29.57,1002.8,61,10,,,,,,,,,,,,,8/8 Overcast,300.0,,OVC,400.0,,,,,,
KRDR,05-30-2011,20:00,METAR,,70,11.0,,,2800.0,Light Rain/Mist,14.0,14.0,29.58,1002.9,61,10,,,,,,,,,.02 IN,,,,8/8 Overcast,300.0,,OVC,400.0,,,,,,
KRDR,05-30-2011,19:49,SPECI,,70,11.0,,,2800.0,Light Drizzle/Mist,14.0,14.0,29.58,1003.0,51,10,,,,,,,,,,,,,8/8 Overcast,300.0,,OVC,400.0,,,,,,
KRDR,05-30-2011,19:43,SPECI,,70,11.0,,,3200.0,Light Rain/Mist,14.0,14.0,29.58,1003.1,61,10,,,,,,,,,,,,,8/8 Overcast,300.0,,OVC,400.0,,,,,,
KRDR,05-30-2011,19:17,SPECI,,60,9.0,,,2400.0,Light Rain/Mist,14.0,14.0,29.59,1003.4,61,10,,,,,,,,,,,,,8/8 Overcast,300.0,,OVC,400.0,,,,,,
KRDR,05-30-2011,19:07,SPECI,,60,9.0,,,2800.0,Light Rain/Mist,14.0,14.0,29.59,1003.4,61,10,,,,,,,,,,,,,8/8 Overcast,500.0,,OVC,500.0,,,,,,
KRDR,05-30-2011,19:00,METAR,,70,12.0,,,4000.0,Light Drizzle/Mist,14.0,14.0,29.60,1003.6,51,10,,,,,,,,,,,,,8/8 Overcast,500.0,,OVC,500.0,,,,,,
KRDR,05-30-2011,18:53,SPECI,,60,10.0,,,4800.0,Light Drizzle/Mist,14.0,14.0,29.60,1003.6,51,10,,,,,,,,,,,,,8/8 Overcast,400.0,,OVC,600.0,,,,,,
KRDR,05-30-2011,18:46,SPECI,,60,9.0,,,6400.0,Light Rain/Mist,13.0,13.0,29.60,1003.7,61,10,,,,,,,,,,,,,8/8 Overcast,400.0,,BKN,500.0,OVC,1000.0,,,,
KRDR,05-30-2011,18:44,SPECI,,60,10.0,,,8000.0,Light Rain/Mist,13.0,13.0,29.60,1003.7,61,10,,,,,,,,,,,,,8/8 Overcast,400.0,,BKN,600.0,OVC,1000.0,,,,
KRDR,05-30-2011,18:35,SPECI,,70,11.0,20.0,,6400.0,Light Rain/Mist,13.0,13.0,29.60,1003.7,61,10,,,,,,,,,,,,,8/8 Overcast,400.0,,OVC,900.0,,,,,,
KRDR,05-30-2011,18:11,SPECI,,70,12.0,,,9999.0,Light Rain,14.0,14.0,29.61,1004.0,61,,,,,,,,,,,,,,8/8 Overcast,1100.0,,OVC,1100.0,,,,,,
KRDR,05-30-2011,18:05,SPECI,,80,15.0,25.0,,9999.0,,14.0,14.0,29.61,1004.1,,,,,,,,,,,,,,,8/8 Overcast,1100.0,,OVC,1100.0,,,,,,
KRDR,05-30-2011,18:00,METAR,,70,14.0,,,9999.0,,14.0,14.0,29.61,1004.1,,,,,,,,,,,,,.31 IN,,8/8 Overcast,1200.0,,OVC,1200.0,,,,,,
KRDR,05-30-2011,17:00,METAR,,70,15.0,22.0,,9999.0,,14.0,14.0,29.65,1005.2,,,,,,,,,,,,,,,8/8 Overcast,1200.0,,OVC,1400.0,,,,,,
KRDR,05-30-2011,16:35,SPECI,,60,17.0,23.0,,9999.0,,14.0,14.0,29.63,1004.7,,,,,,,,,,,,,,,8/8 Overcast,1200.0,,FEW,900.0,OVC,1400.0,,,,
KRDR,05-30-2011,16:29,SPECI,,60,18.0,23.0,,9999.0,,13.0,13.0,29.63,1004.7,,,,,,,,,,,,,,,8/8 Overcast,1200.0,,SCT,900.0,OVC,1400.0,,,,
KRDR,05-30-2011,16:24,SPECI,,50,12.0,,,9999.0,,13.0,13.0,29.63,1004.7,,,,,,,,,,,,,,,8/8 Overcast,900.0,,BKN,900.0,OVC,1600.0,,,,
KRDR,05-30-2011,16:19,SPECI,,40,13.0,,,9999.0,,13.0,13.0,29.63,1004.6,,,,,,,,,,,,,,,8/8 Overcast,1200.0,,SCT,900.0,BKN,1400.0,OVC,2500.0,,
KRDR,05-30-2011,16:16,SPECI,,40,14.0,,,9999.0,,13.0,13.0,29.63,1004.7,,,,,,,,,,,,,,,8/8 Overcast,1300.0,,SCT,900.0,BKN,1500.0,OVC,2700.0,,
KRDR,05-30-2011,16:04,SPECI,,30,16.0,21.0,,9999.0,,12.0,12.0,29.64,1005.0,,,,,,,,,,,,,,,8/8 Overcast,800.0,,BKN,900.0,BKN,1600.0,OVC,2900.0,,
KRDR,05-30-2011,16:01,SPECI,,30,15.0,21.0,,9999.0,,12.0,12.0,29.64,1005.0,,,,,,,,,,,,,,,8/8 Overcast,900.0,,SCT,900.0,BKN,1400.0,OVC,2900.0,,
KRDR,05-30-2011,16:00,METAR,,40,14.0,20.0,050/28KTS,9999.0,,12.0,12.0,29.64,1005.1,,,,,,,,,,,,,,,8/8 Overcast,2700.0,,SCT,900.0,OVC,2900.0,,,,
KRDR,05-30-2011,15:46,SPECI,,40,16.0,21.0,050/28KTS,9999.0,,12.0,12.0,29.65,1005.3,,,,,,,,,,,,,,,8/8 Overcast,1400.0,,SCT,800.0,OVC,3100.0,,,,
KRDR,05-30-2011,15:08,SPECI,,40,18.0,28.0,050/28KTS,9999.0,,11.0,11.0,29.68,1006.2,,,,,,,,,,,,,,,7/8 Mostly Cloudy,800.0,,BKN,800.0,BKN,11000.0,,,,
KRDR,05-30-2011,15:00,METAR,,30,17.0,27.0,010/28KTS,9999.0,,11.0,11.0,29.70,1006.9,,,,,,,,,,,.13 IN,.31 IN,,,7/8 Mostly Cloudy,500.0,,BKN,500.0,BKN,900.0,,,,
KRDR,05-30-2011,14:40,SPECI,,30,17.0,28.0,010/28KTS,9999.0,,10.0,10.0,29.71,1007.4,,,,,,,,,,,,,,,8/8 Overcast,500.0,,BKN,500.0,OVC,5400.0,,,,
KRDR,05-30-2011,14:28,SPECI,,360,20.0,26.0,010/27KTS,9999.0,Light Rain,10.0,10.0,29.73,1008.1,61,,,,,,,,,,,,,,8/8 Overcast,500.0,,BKN,500.0,OVC,5400.0,,,,
KRDR,05-30-2011,14:26,SPECI,,360,17.0,26.0,010/27KTS,9999.0,Light Rain,10.0,10.0,29.74,1008.2,61,,,,,,,,,,,,,,8/8 Overcast,1200.0,,SCT,600.0,BKN,1200.0,OVC,5400.0,,
KRDR,05-30-2011,14:17,SPECI,,40,20.0,26.0,010/27KTS,9999.0,Rain/Mist,10.0,10.0,29.70,1007.0,62,10,,,,,,,,,,,,,8/8 Overcast,4400.0,,FEW,500.0,SCT,5000.0,OVC,5900.0,,
KRDR,05-30-2011,14:00,METAR,,350,20.0,25.0,,9999.0,Rain,10.0,10.0,29.80,1010.2,62,,,,,,,,,,.13 IN,,,,8/8 Overcast,5500.0,,FEW,600.0,BKN,5400.0,OVC,6900.0,,
KRDR,05-30-2011,13:32,SPECI,,360,16.0,,,9999.0,Light Rain,11.0,11.0,29.76,1008.8,61,,,,,,,,,,,,,,8/8 Overcast,7500.0,,FEW,800.0,OVC,7400.0,,,,
KRDR,05-30-2011,13:00,METAR,,340,10.0,,,9999.0,,11.0,11.0,29.78,1009.6,,,,,,,,,,,.05 IN,,,,8/8 Overcast,4900.0,,SCT,5400.0,OVC,7400.0,,,,
KRDR,05-30-2011,12:48,SPECI,,350,9.0,,,9999.0,,11.0,11.0,29.78,1009.6,,,,,,,,,,,,,,,8/8 Overcast,7500.0,,SCT,5400.0,OVC,7400.0,,,,
KRDR,05-30-2011,12:00,METAR,,50,11.0,,,9999.0,Light Rain,12.0,12.0,29.70,1007.0,61,,,,,,,,,,TRACE,,TRACE,,8/8 Overcast,7000.0,,OVC,6900.0,,,,,,
KRDR,05-30-2011,11:50,SPECI,,40,12.0,,,9999.0,Light Rain,12.0,12.0,29.70,1007.0,61,,,,,,,,,,,,,,8/8 Overcast,7000.0,,OVC,6900.0,,,,,,
KRDR,05-30-2011,11:00,METAR,,10,8.0,,,9999.0,,11.0,11.0,29.76,1009.0,,,,,,,,,,,,,,,8/8 Overcast,8000.0,,OVC,7900.0,,,,,,
KRDR,05-30-2011,10:00,METAR,,20,9.0,,,9999.0,,11.0,11.0,29.78,1009.7,,,,,,,,,,,,,,,7/8 Mostly Cloudy,10000.0,,BKN,9900.0,BKN,12000.0,,,,
KRDR,05-30-2011,09:00,METAR,,30,11.0,,,9999.0,,11.0,11.0,29.80,1010.4,,,,,,,,,,,,,,,8/8 Overcast,8000.0,,BKN,7900.0,OVC,12000.0,,,,
KRDR,05-30-2011,08:00,METAR,,30,8.0,,,9999.0,,11.0,11.0,29.85,1011.9,,,,,,,,,,,,,,,8/8 Overcast,8000.0,,OVC,7900.0,,,,,,
KRDR,05-30-2011,07:00,METAR,,20,8.0,,,9999.0,,11.0,11.0,29.88,1012.9,,,,,,,,,,,,,,,8/8 Overcast,8000.0,,OVC,7900.0,,,,,,
KRDR,05-30-2011,06:00,METAR,,20,9.0,,,9999.0,,11.0,11.0,29.90,1013.7,,,,,,,,,,,,,,,8/8 Overcast,8000.0,,OVC,7900.0,,,,,,
KRDR,05-30-2011,05:00,METAR,,20,9.0,,,9999.0,,11.0,11.0,29.92,1014.1,,,,,,,,,,,,,,,8/8 Overcast,8500.0,,BKN,8400.0,OVC,11000.0,,,,
KRDR,05-30-2011,04:00,METAR,,10,10.0,,,9999.0,,12.0,12.0,29.93,1014.6,,,,,,,,,,,,,,,8/8 Overcast,8000.0,,OVC,7900.0,,,,,,
KRDR,05-30-2011,03:00,METAR,,360,11.0,,,9999.0,,12.0,12.0,29.93,1014.5,,,,,,,,,,,,,,,8/8 Overcast,8000.0,,OVC,7900.0,,,,,,
KRDR,05-30-2011,02:00,METAR,,10,9.0,,,9999.0,,13.0,13.0,29.92,1014.2,,,,,,,,,,,,,,,8/8 Overcast,9000.0,,OVC,8900.0,,,,,,
KRDR,05-30-2011,01:00,METAR,,360,7.0,,,9999.0,,13.0,13.0,29.92,1014.1,,,,,,,,,,,,,,,8/8 Overcast,10000.0,,OVC,9900.0,,,,,,
KRDR,05-30-2011,00:00,METAR,,360,8.0,,,9999.0,,14.0,14.0,29.91,1013.9,,,,,,,,,,,,,,,8/8 Overcast,11000.0,,FEW,2000.0,OVC,11000.0,,,,
KRDR,05-29-2011,23:00,METAR,,10,7.0,,,9999.0,,14.0,13.0,29.91,1013.8,,,,,,,,,,,,,,,8/8 Overcast,2200.0,,BKN,2400.0,OVC,11000.0,,,,
KRDR,05-29-2011,22:00,METAR,,20,8.0,,,9999.0,,14.0,13.0,29.90,1013.7,,,,,,,,,,,,,,,8/8 Overcast,1900.0,,OVC,2100.0,,,,,,
KRDR,05-29-2011,21:00,METAR,,60,9.0,,,9999.0,,14.0,13.0,29.90,1013.7,,,,,,,,,,,,,,,8/8 Overcast,1700.0,,OVC,1900.0,,,,,,
KRDR,05-29-2011,20:00,METAR,,30,8.0,,,9999.0,,13.0,13.0,29.90,1013.7,,,,,,,,,,,,,,,8/8 Overcast,1600.0,,OVC,2000.0,,,,,,
KRDR,05-29-2011,19:00,METAR,,30,10.0,,,9999.0,,13.0,12.0,29.89,1013.3,,,,,,,,,,,,,,,8/8 Overcast,1600.0,,BKN,1800.0,OVC,2300.0,,,,
KRDR,05-29-2011,18:00,METAR,,10,8.0,,,9999.0,,13.0,12.0,29.89,1013.1,,,,,,,,,,,,,,,8/8 Overcast,1600.0,,OVC,1800.0,,,,,,
KRDR,05-29-2011,17:00,METAR,,10,7.0,,,9999.0,,12.0,12.0,29.87,1012.6,,,,,,,,,,,,,,,8/8 Overcast,1300.0,,OVC,1400.0,,,,,,
KRDR,05-29-2011,16:12,SPECI,,360,8.0,,,9999.0,,12.0,12.0,29.85,1012.0,,,,,,,,,,,,,,,8/8 Overcast,1200.0,,OVC,1200.0,,,,,,
KRDR,05-29-2011,16:00,METAR,,30,5.0,,,9999.0,,11.0,11.0,29.85,1012.0,,,,,,,,,,,,,,,8/8 Overcast,1000.0,,OVC,1000.0,,,,,,
KRDR,05-29-2011,15:18,SPECI,,20,6.0,,,9999.0,,11.0,11.0,29.85,1011.8,,,,,,,,,,,,,,,8/8 Overcast,900.0,,OVC,1000.0,,,,,,
KRDR,05-29-2011,15:00,METAR,,30,5.0,,,9999.0,,11.0,11.0,29.85,1011.8,,,,,,,,,,,,,,,8/8 Overcast,800.0,,OVC,800.0,,,,,,
KRDR,05-29-2011,14:00,METAR,,20,7.0,,,9999.0,,10.0,10.0,29.84,1011.5,,,,,,,,,,,,,,,8/8 Overcast,700.0,,OVC,800.0,,,,,,
KRDR,05-29-2011,13:06,SPECI,,10,8.0,,,9999.0,,9.0,9.0,29.83,1011.1,,,,,,,,,,,,,,,8/8 Overcast,600.0,,OVC,700.0,,,,,,
KRDR,05-29-2011,13:00,METAR,,20,6.0,,,9999.0,,9.0,9.0,29.82,1010.8,,,,,,,,,,,,,,,8/8 Overcast,500.0,,OVC,600.0,,,,,,
KRDR,05-29-2011,12:43,SPECI,,20,5.0,,,9999.0,,9.0,9.0,29.81,1010.6,,,,,,,,,,,,,,,8/8 Overcast,500.0,,OVC,600.0,,,,,,
KRDR,05-29-2011,12:00,METAR,,10,8.0,,,9999.0,,8.0,8.0,29.79,1010.0,,,,,,,,,,,,,,.03 IN,8/8 Overcast,300.0,,OVC,400.0,,,,,,
KRDR,05-29-2011,11:53,SPECI,,10,9.0,,,9999.0,,8.0,8.0,29.79,1010.0,,,,,,,,,,,,,,,8/8 Overcast,400.0,,OVC,500.0,,,,,,
KRDR,05-29-2011,11:37,SPECI,,360,7.0,,,9999.0,,8.0,8.0,29.78,1009.7,,,,,,,,,,,,,,,8/8 Overcast,300.0,,OVC,400.0,,,,,,
KRDR,05-29-2011,11:09,SPECI,,360,10.0,,,9999.0,,8.0,8.0,29.76,1009.1,,,,,,,,,,,,,,,8/8 Overcast,300.0,,BKN,300.0,OVC,700.0,,,,
KRDR,05-29-2011,11:02,SPECI,,360,11.0,,,9999.0,,7.0,7.0,29.76,1009.0,,,,,,,,,,,,,,,7/8 Mostly Cloudy,500.0,,BKN,500.0,,,,,,
KRDR,05-29-2011,11:00,METAR,,360,11.0,,,9999.0,,7.0,7.0,29.76,1009.0,,,,,,,,,,,,,,,7/8 Mostly Cloudy,600.0,,BKN,600.0,,,,,,
KRDR,05-29-2011,10:45,SPECI,,330,7.0,,,9999.0,,7.0,7.0,29.76,1009.0,,,,,,,,,,,,,,,2/8 Mostly Clear,72000.0,,FEW,700.0,,,,,,
KRDR,05-29-2011,10:00,METAR,,310,6.0,,,9999.0,,7.0,7.0,29.74,1008.1,,,,,,,,,,,,,,,Clear,72000.0,,,73000.0,,,,,,
KRDR,05-29-2011,09:00,METAR,,290,3.0,,,9999.0,,6.0,6.0,29.71,1007.2,,,,,,,,,,,,,,,Clear,72000.0,,,73000.0,,,,,,
KRDR,05-29-2011,08:00,METAR,,270,5.0,,,9999.0,,7.0,7.0,29.67,1006.1,,,,,,,,,,,,,,,Clear,72000.0,,,73000.0,,,,,,
KRDR,05-29-2011,07:00,METAR,,310,5.0,,,9999.0,,8.0,8.0,29.66,1005.7,,,,,,,,,,,,,,,Clear,72000.0,,,73000.0,,,,,,
KRDR,05-29-2011,06:00,METAR,,310,7.0,,,9999.0,,9.0,9.0,29.65,1005.4,,,,,,,,,,,,,,,Clear,72000.0,,,73000.0,,,,,,
KRDR,05-29-2011,05:00,METAR,,290,6.0,,,9999.0,,8.0,8.0,29.62,1004.4,,,,,,,,,,,,,,,Clear,72000.0,,,73000.0,,,,,,
KRDR,05-29-2011,04:00,METAR,,300,5.0,,,9999.0,,10.0,10.0,29.60,1003.8,,,,,,,,,,,,,,,Clear,72000.0,,,73000.0,,,,,,
KRDR,05-29-2011,03:00,METAR,,320,7.0,,,9999.0,,12.0,12.0,29.58,1002.9,,,,,,,,,,,,,,,2/8 Mostly Clear,72000.0,,FEW,5000.0,,,,,,
KRDR,05-29-2011,02:00,METAR,,250,6.0,,,9999.0,,14.0,9.0,29.54,1001.5,,,,,,,,,,,,,,,8/8 Overcast,6000.0,,BKN,5900.0,BKN,6900.0,OVC,8900.0,,
KRDR,05-29-2011,01:00,METAR,,300,3.0,,,9999.0,,15.0,10.0,29.51,1000.7,,,,,,,,,,,,,,,7/8 Mostly Cloudy,6000.0,,FEW,4900.0,BKN,5900.0,BKN,8900.0,,
KRDR,05-29-2011,00:00,METAR,,250,11.0,,,9999.0,,14.0,10.0,29.49,999.9,,,,,,,,,,,,,.03 IN,,2/8 Mostly Clear,72000.0,,FEW,11000.0,,,,,,
KRDR,05-28-2011,23:00,METAR,,240,14.0,,,9999.0,,15.0,10.0,29.48,999.5,,,,,,,,,,,,,,,2/8 Mostly Clear,72000.0,,FEW,12000.0,,,,,,
KRDR,05-28-2011,22:00,METAR,,290,14.0,19.0,,9999.0,,16.0,11.0,29.46,998.9,,,,,,,,,,,,,,,7/8 Mostly Cloudy,3600.0,,BKN,3700.0,BKN,9900.0,,,,
KRDR,05-28-2011,21:00,METAR,,250,12.0,,,9999.0,,16.0,11.0,29.44,998.5,,,,,,,,,,,TRACE,.03 IN,,,7/8 Mostly Cloudy,11000.0,,FEW,7900.0,BKN,11000.0,,,,
KRDR,05-28-2011,20:23,SPECI,,250,10.0,,,9999.0,,13.0,13.0,29.45,998.6,,,,,,,,,,,,,,,4/8 Partly Cloudy,72000.0,,SCT,8900.0,,,,,,
KRDR,05-28-2011,20:14,SPECI,,240,13.0,,,9999.0,Light Rain,13.0,13.0,29.45,998.6,61,,,,,,,,,,,,,,2/8 Mostly Clear,72000.0,,FEW,8900.0,,,,,,
KRDR,05-28-2011,20:00,METAR,,220,17.0,,,9999.0,,13.0,12.0,29.45,998.6,,,,,,,,,,,.01 IN,,,,2/8 Mostly Clear,72000.0,,FEW,6900.0,,,,,,
KRDR,05-28-2011,19:14,SPECI,,210,12.0,,,9999.0,,12.0,12.0,29.45,998.7,,,,,,,,,,,,,,,7/8 Mostly Cloudy,4200.0,,SCT,4900.0,BKN,5900.0,BKN,7400.0,,
KRDR,05-28-2011,19:00,METAR,,250,18.0,23.0,,9999.0,Rain,12.0,12.0,29.44,998.3,62,,,,,,,,,,.02 IN,,,,7/8 Mostly Cloudy,4300.0,,SCT,4200.0,BKN,5400.0,BKN,12000.0,,
KRDR,05-28-2011,18:35,SPECI,,230,15.0,,,9999.0,Light Rain,15.0,9.0,29.43,998.0,61,,,,,,,,,,,,,,7/8 Mostly Cloudy,4000.0,,SCT,4300.0,BKN,7400.0,BKN,9900.0,,
KRDR,05-28-2011,18:29,SPECI,,240,13.0,,,9999.0,,16.0,9.0,29.43,997.9,,,,,,,,,,,,,,,7/8 Mostly Cloudy,3900.0,,FEW,3900.0,SCT,7400.0,BKN,9900.0,,
KRDR,05-28-2011,18:20,SPECI,,250,11.0,,,9999.0,Light Rain,16.0,10.0,29.43,997.9,61,,,,,,,,,,,,,,7/8 Mostly Cloudy,7500.0,,FEW,3700.0,SCT,5400.0,BKN,7400.0,,
KRDR,05-28-2011,18:04,SPECI,,250,8.0,,,9999.0,,16.0,9.0,29.42,997.9,,,,,,,,,,,,,,,8/8 Overcast,6000.0,,SCT,3500.0,BKN,5900.0,OVC,12000.0,,
KRDR,05-28-2011,18:00,METAR,,270,8.0,,,9999.0,Light Rain,16.0,10.0,29.43,997.9,61,,,,,,,,,,TRACE,,TRACE,,8/8 Overcast,6000.0,,FEW,3500.0,BKN,5900.0,OVC,7400.0,,
KRDR,05-28-2011,17:49,SPECI,,260,7.0,,,9999.0,,16.0,10.0,29.42,997.8,,,,,,,,,,,,,,,8/8 Overcast,6000.0,,FEW,3600.0,BKN,5900.0,OVC,7400.0,,
KRDR,05-28-2011,17:24,SPECI,,240,12.0,19.0,,9999.0,Light Rain,16.0,9.0,29.43,998.1,61,,,,,,,,,,,,,,7/8 Mostly Cloudy,7000.0,,SCT,3800.0,SCT,5400.0,BKN,6900.0,,
KRDR,05-28-2011,17:00,METAR,,210,12.0,19.0,,9999.0,,16.0,10.0,29.44,998.3,,,,,,,,,,,,,,,4/8 Partly Cloudy,72000.0,,FEW,3400.0,SCT,4300.0,,,,
KRDR,05-28-2011,16:00,METAR,,220,14.0,,,9999.0,,16.0,11.0,29.44,998.5,,,,,,,,,,,,,,,Clear,72000.0,,,73000.0,,,,,,
KRDR,05-28-2011,15:00,METAR,,220,11.0,,,9999.0,,15.0,11.0,29.45,998.8,,,,,,,,,,,,,,,Clear,72000.0,,,73000.0,,,,,,
KRDR,05-28-2011,14:00,METAR,,240,11.0,,,9999.0,,14.0,11.0,29.45,998.8,,,,,,,,,,,,,,,Clear,72000.0,,,73000.0,,,,,,
KRDR,05-28-2011,13:00,METAR,,210,7.0,,,9999.0,,12.0,12.0,29.46,999.0,,,,,,,,,,,,,,,Clear,72000.0,,,73000.0,,,,,,
KRDR,05-28-2011,12:00,METAR,,170,5.0,,,9999.0,,9.0,9.0,29.46,999.2,,,,,,,,,,,,,TRACE,.69 IN,4/8 Partly Cloudy,72000.0,,SCT,12000.0,,,,,,
KRDR,05-28-2011,11:00,METAR,,190,5.0,,,9999.0,,9.0,9.0,29.46,999.1,,,,,,,,,,,,,,,8/8 Overcast,10000.0,,OVC,9900.0,,,,,,
KRDR,05-28-2011,10:00,METAR,,190,9.0,,,9999.0,,7.0,7.0,29.47,999.5,,,,,,,,,,,,,,,Clear,72000.0,,,73000.0,,,,,,
KRDR,05-28-2011,09:00,METAR,,190,8.0,,,9999.0,,8.0,8.0,29.48,999.7,,,,,,,,,,,,TRACE,,,Clear,72000.0,,,73000.0,,,,,,
KRDR,05-28-2011,08:00,METAR,,190,7.0,,,9999.0,,9.0,9.0,29.50,1000.3,,,,,,,,,,,TRACE,,,,8/8 Overcast,8500.0,,FEW,5000.0,BKN,8400.0,OVC,11000.0,,
KRDR,05-28-2011,07:33,SPECI,,180,10.0,,,9999.0,,9.0,9.0,29.51,1000.6,,,,,,,,,,,,,,,8/8 Overcast,9000.0,,FEW,7400.0,BKN,8900.0,OVC,11000.0,,
KRDR,05-28-2011,07:25,SPECI,,170,7.0,,,9999.0,Light Drizzle,9.0,9.0,29.51,1000.7,51,,,,,,,,,,,,,,8/8 Overcast,9000.0,,SCT,8900.0,OVC,11000.0,,,,
KRDR,05-28-2011,07:00,METAR,,210,6.0,,,9999.0,,9.0,9.0,29.54,1001.5,,,,,,,,,,,,,,,4/8 Partly Cloudy,72000.0,,FEW,8900.0,SCT,12000.0,,,,
KRDR,05-28-2011,06:00,METAR,,190,4.0,,,9999.0,,9.0,9.0,29.56,1002.3,,,,,,,,,,,,,.35 IN,,7/8 Mostly Cloudy,10000.0,,SCT,7900.0,BKN,9900.0,,,,
KRDR,05-28-2011,05:00,METAR,,250,7.0,,,9999.0,,9.0,9.0,29.60,1003.5,,,,,,,,,,,,,,,8/8 Overcast,9500.0,,FEW,6400.0,OVC,9400.0,,,,
KRDR,05-28-2011,04:00,METAR,,180,7.0,,,9999.0,,9.0,9.0,29.59,1003.3,,,,,,,,,,,,,,,Clear,72000.0,,,73000.0,,,,,,
KRDR,05-28-2011,03:00,METAR,,150,8.0,,,9999.0,,10.0,10.0,29.59,1003.3,,,,,,,,,,,,.35 IN,,,Clear,72000.0,,,73000.0,,,,,,
KRDR,05-28-2011,02:00,METAR,,120,5.0,,,9999.0,,11.0,11.0,29.58,1003.1,,,,,,,,,,,TRACE,,,,Clear,72000.0,,,73000.0,,,,,,
KRDR,05-28-2011,01:02,SPECI,,100,8.0,,,9999.0,,11.0,11.0,29.60,1003.6,,,,,,,,,,,,,,,8/8 Overcast,4800.0,,SCT,3900.0,BKN,4900.0,OVC,9400.0,,
KRDR,05-28-2011,01:00,METAR,,70,13.0,,290/29KTS,9999.0,Light Rain,11.0,11.0,29.59,1003.5,61,,,,,,,,,,.35 IN,,,,8/8 Overcast,4800.0,,OVC,4900.0,,,,,,
KRDR,05-28-2011,00:54,SPECI,,80,12.0,,,9999.0,Light Rain,11.0,11.0,29.60,1003.5,61,,,,,,,,,,,,,,8/8 Overcast,4700.0,,OVC,4800.0,,,,,,
KRDR,05-28-2011,00:30,SPECI,,140,10.0,,290/29KTS,6400.0,Light Rain/Mist,10.0,10.0,29.64,1004.8,61,10,,,,,,,,,,,,,8/8 Overcast,4100.0,,FEW,300.0,OVC,5000.0,,,,
KRDR,05-28-2011,00:20,SPECI,,190,12.0,19.0,290/29KTS,4800.0,Rain/Mist,11.0,11.0,29.64,1005.0,62,10,,,,,,,,,,,,,8/8 Overcast,3900.0,,FEW,300.0,SCT,2600.0,OVC,5000.0,,
KRDR,05-28-2011,00:18,SPECI,,190,10.0,19.0,290/29KTS,2800.0,Heavy Rain/Mist,11.0,11.0,29.64,1005.1,63,10,,,,,,,,,,,,,8/8 Overcast,3500.0,,FEW,300.0,BKN,3600.0,OVC,5000.0,,
KRDR,05-28-2011,00:17,SPECI,,190,11.0,19.0,290/29KTS,2400.0,Heavy Rain/Mist,11.0,11.0,29.64,1005.1,63,10,,,,,,,,,,,,,8/8 Overcast,2700.0,,FEW,400.0,BKN,2700.0,OVC,5000.0,,
KRDR,05-28-2011,00:12,SPECI,,200,13.0,29.0,290/29KTS,2000.0,Heavy Rain/Mist,11.0,11.0,29.65,1005.3,63,10,,,,,,,,,,,,,8/8 Overcast,2700.0,,FEW,400.0,BKN,2700.0,OVC,5000.0,,
KRDR,05-28-2011,00:10,SPECI,,220,14.0,29.0,290/29KTS,2000.0,Heavy Rain/Mist,11.0,11.0,29.65,1005.3,63,10,,,,,,,,,,,,,8/8 Overcast,2700.0,,FEW,400.0,BKN,3600.0,OVC,5000.0,,
KRDR,05-28-2011,00:08,SPECI,,280,16.0,29.0,290/29KTS,2800.0,Heavy Rain/Mist,11.0,11.0,29.65,1005.4,63,10,,,,,,,,,,,,,8/8 Overcast,2700.0,,FEW,600.0,BKN,3600.0,OVC,5900.0,,
KRDR,05-28-2011,00:06,SPECI,,280,25.0,29.0,290/29KTS,4000.0,Heavy Rain/Mist,11.0,11.0,29.65,1005.2,63,10,,,,,,,,,,,,,8/8 Overcast,2800.0,,FEW,1800.0,BKN,3600.0,OVC,5900.0,,
KRDR,05-28-2011,00:03,SPECI,,270,20.0,24.0,,6400.0,Heavy Rain/Mist,12.0,12.0,29.64,1005.1,63,10,,,,,,,,,,,,,8/8 Overcast,3500.0,,FEW,2000.0,BKN,3600.0,OVC,5900.0,,
KRDR,05-28-2011,00:00,METAR,,220,15.0,,,9999.0,Thunderstorm and Rain or Snow Showers,14.0,14.0,29.64,1004.9,92,,,,,,,,,,,,,,8/8 Overcast,2700.0,,SCT,2000.0,BKN,2700.0,OVC,5900.0,,
KRDR,05-28-2011,00:00,SPECI,,260,15.0,21.0,,9999.0,Thunderstorm and Rain or Snow Showers/Mist,13.0,13.0,29.64,1005.1,92,10,,,,,,,,,,,,,8/8 Overcast,3500.0,,,,,,,,,
KRDR,05-27-2011,23:58,SPECI,,240,14.0,,,9999.0,Thunderstorm and Rain or Snow Showers,13.0,13.0,29.64,1004.9,92,,,,,,,,,,,,,,8/8 Overcast,2700.0,,SCT,2000.0,BKN,2900.0,OVC,5900.0,,
KRDR,05-27-2011,23:49,SPECI,,190,15.0,,,9999.0,Thunderstorm and Rain or Snow Showers,14.0,14.0,29.64,1004.9,92,,,,,,,,,,,,,,8/8 Overcast,4700.0,,SCT,2200.0,BKN,4800.0,OVC,5900.0,,
KRDR,05-27-2011,23:48,SPECI,,180,14.0,,,9999.0,Dry Thunderstorm,14.0,14.0,29.63,1004.8,91,,,,,,,,,,,,,,8/8 Overcast,4700.0,,FEW,2200.0,BKN,4800.0,OVC,6400.0,,
KRDR,05-27-2011,23:25,SPECI,,160,16.0,,,9999.0,,15.0,15.0,29.62,1004.3,,,,,,,,,,,,,,,8/8 Overcast,6500.0,,SCT,2000.0,SCT,2500.0,OVC,6400.0,,
KRDR,05-27-2011,23:20,SPECI,,160,15.0,,,9999.0,,15.0,15.0,29.62,1004.2,,,,,,,,,,,,,,,8/8 Overcast,2700.0,,SCT,1800.0,BKN,2700.0,OVC,6900.0,,
KRDR,05-27-2011,23:00,METAR,,170,14.0,,,9999.0,,15.0,15.0,29.62,1004.2,,,,,,,,,,,,,,,7/8 Mostly Cloudy,7000.0,,FEW,1900.0,SCT,2400.0,BKN,6900.0,,
KRDR,05-27-2011,22:03,SPECI,,150,10.0,,,9999.0,,16.0,16.0,29.61,1004.1,,,,,,,,,,,,,,,7/8 Mostly Cloudy,5500.0,,SCT,1700.0,SCT,2700.0,BKN,5400.0,,
KRDR,05-27-2011,22:00,METAR,,160,12.0,,,9999.0,,16.0,16.0,29.62,1004.2,,,,,,,,,,,,,,,7/8 Mostly Cloudy,2300.0,,SCT,1700.0,BKN,2500.0,,,,
KRDR,05-27-2011,21:50,SPECI,,170,11.0,,,9999.0,,16.0,16.0,29.62,1004.2,,,,,,,,,,,,,,,7/8 Mostly Cloudy,2000.0,,SCT,1500.0,BKN,2000.0,,,,
KRDR,05-27-2011,21:35,SPECI,,170,13.0,,,9999.0,,16.0,16.0,29.62,1004.4,,,,,,,,,,,,,,,7/8 Mostly Cloudy,1300.0,,BKN,1400.0,BKN,2100.0,,,,
KRDR,05-27-2011,21:32,SPECI,,170,14.0,,,9999.0,,15.0,15.0,29.62,1004.5,,,,,,,,,,,,,,,7/8 Mostly Cloudy,1200.0,,BKN,1500.0,,,,,,
KRDR,05-27-2011,21:10,SPECI,,160,12.0,,,9999.0,,15.0,15.0,29.63,1004.6,,,,,,,,,,,,,,,7/8 Mostly Cloudy,1000.0,,BKN,1200.0,,,,,,
KRDR,05-27-2011,21:00,METAR,,160,12.0,,,9999.0,,14.0,14.0,29.63,1004.7,,,,,,,,,,,,TRACE,,,8/8 Overcast,1000.0,,OVC,1100.0,,,,,,
KRDR,05-27-2011,20:00,METAR,,180,14.0,,,9999.0,,12.0,12.0,29.66,1005.5,,,,,,,,,,,,,,,8/8 Overcast,900.0,,OVC,1000.0,,,,,,
KRDR,05-27-2011,19:45,SPECI,,180,13.0,,,9999.0,,12.0,12.0,29.66,1005.6,,,,,,,,,,,,,,,8/8 Overcast,900.0,,OVC,1000.0,,,,,,
KRDR,05-27-2011,19:00,METAR,,170,15.0,,,9999.0,,12.0,12.0,29.66,1005.6,,,,,,,,,,,TRACE,,,,8/8 Overcast,800.0,,OVC,900.0,,,,,,
KRDR,05-27-2011,18:04,SPECI,,170,14.0,,,9999.0,,11.0,11.0,29.66,1005.7,,,,,,,,,,,,,,,8/8 Overcast,700.0,,OVC,800.0,,,,,,
KRDR,05-27-2011,18:00,METAR,,170,16.0,20.0,,9999.0,Light Rain,11.0,11.0,29.66,1005.6,61,,,,,,,,,,.05 IN,,.34 IN,,8/8 Overcast,700.0,,OVC,800.0,,,,,,
KRDR,05-27-2011,17:47,SPECI,,160,14.0,,,9999.0,Light Rain,11.0,11.0,29.66,1005.6,61,,,,,,,,,,,,,,8/8 Overcast,700.0,,OVC,800.0,,,,,,
KRDR,05-27-2011,17:30,SPECI,,160,16.0,22.0,,9999.0,Light Rain,11.0,11.0,29.66,1005.8,61,,,,,,,,,,,,,,8/8 Overcast,400.0,,OVC,700.0,,,,,,
KRDR,05-27-2011,17:26,SPECI,,160,15.0,23.0,,9999.0,,11.0,11.0,29.66,1005.8,,,,,,,,,,,,,,,8/8 Overcast,400.0,,OVC,700.0,,,,,,
KRDR,05-27-2011,17:25,SPECI,,160,14.0,23.0,,9999.0,,11.0,11.0,29.66,1005.8,,,,,,,,,,,,,,,8/8 Overcast,400.0,,OVC,600.0,,,,,,
KRDR,05-27-2011,17:00,METAR,,160,16.0,23.0,150/26KTS,8000.0,Light Rain/Mist,10.0,10.0,29.68,1006.1,61,10,,,,,,,,,.12 IN,,,,8/8 Overcast,500.0,,OVC,700.0,,,,,,
KRDR,05-27-2011,16:16,SPECI,,160,19.0,23.0,150/26KTS,6400.0,Light Rain/Mist,10.0,10.0,29.67,1006.1,61,10,,,,,,,,,,,,,8/8 Overcast,600.0,,BKN,700.0,OVC,1100.0,,,,
KRDR,05-27-2011,16:05,SPECI,,160,18.0,24.0,150/26KTS,6400.0,Light Rain/Mist,10.0,10.0,29.68,1006.2,61,10,,,,,,,,,,,,,8/8 Overcast,500.0,,BKN,800.0,BKN,1100.0,OVC,2300.0,,
KRDR,05-27-2011,16:02,SPECI,,160,18.0,26.0,150/26KTS,6400.0,Light Rain/Mist,10.0,10.0,29.68,1006.2,61,10,,,,,,,,,,,,,8/8 Overcast,900.0,,FEW,600.0,BKN,1100.0,OVC,1700.0,,
KRDR,05-27-2011,16:00,METAR,,150,16.0,23.0,,6400.0,Light Rain/Mist,10.0,10.0,29.68,1006.4,61,10,,,,,,,,,.06 IN,,,,8/8 Overcast,900.0,,BKN,1200.0,OVC,2300.0,,,,
KRDR,05-27-2011,15:39,SPECI,,150,16.0,22.0,,9999.0,Light Rain/Mist,10.0,10.0,29.69,1006.6,61,10,,,,,,,,,,,,,8/8 Overcast,1400.0,,FEW,1000.0,BKN,1400.0,OVC,2000.0,,
KRDR,05-27-2011,15:36,SPECI,,150,15.0,22.0,,9999.0,Light Rain/Mist,10.0,10.0,29.69,1006.6,61,10,,,,,,,,,,,,,8/8 Overcast,1100.0,,BKN,1400.0,BKN,2000.0,OVC,2700.0,,
KRDR,05-27-2011,15:00,METAR,,150,13.0,20.0,,9999.0,Light Rain,9.0,9.0,29.71,1007.3,61,,,,,,,,,,.03 IN,.11 IN,,,8/8 Overcast,2500.0,,BKN,2500.0,OVC,6900.0,,,,
KRDR,05-27-2011,14:41,SPECI,,150,15.0,23.0,,9999.0,Light Rain,9.0,9.0,29.72,1007.5,61,,,,,,,,,,,,,,8/8 Overcast,2900.0,,FEW,2400.0,BKN,2900.0,OVC,6400.0,,
KRDR,05-27-2011,14:00,METAR,,150,16.0,22.0,,8000.0,Light Rain/Mist,9.0,9.0,29.73,1007.9,61,10,,,,,,,,,.06 IN,,,,8/8 Overcast,6000.0,,OVC,5900.0,,,,,,
KRDR,05-27-2011,13:00,METAR,,150,13.0,,,9999.0,Light Rain,9.0,9.0,29.76,1009.0,61,,,,,,,,,,.02 IN,,,,8/8 Overcast,4200.0,,BKN,4300.0,OVC,5400.0,,,,
KRDR,05-27-2011,12:00,METAR,,140,11.0,,,9999.0,,10.0,9.0,29.78,1009.5,,,,,,,,,,,.01 IN,,.01 IN,.01 IN,8/8 Overcast,6000.0,,OVC,5900.0,,,,,,
KRDR,05-27-2011,11:49,SPECI,,140,12.0,,,9999.0,,10.0,9.0,29.78,1009.5,,,,,,,,,,,,,,,8/8 Overcast,6000.0,,OVC,5900.0,,,,,,
KRDR,05-27-2011,11:00,METAR,,150,11.0,,,9999.0,Light Rain,11.0,5.0,29.80,1010.2,61,,,,,,,,,,TRACE,,,,8/8 Overcast,6500.0,,FEW,4800.0,BKN,6400.0,OVC,8400.0,,
KRDR,05-27-2011,10:49,SPECI,,150,11.0,,,9999.0,Light Rain,11.0,5.0,29.80,1010.2,61,,,,,,,,,,,,,,8/8 Overcast,6500.0,,FEW,4800.0,BKN,6400.0,OVC,8900.0,,
KRDR,05-27-2011,10:00,METAR,,170,12.0,,,9999.0,,12.0,3.0,29.81,1010.5,,,,,,,,,,,,,,,4/8 Partly Cloudy,72000.0,,FEW,6900.0,SCT,11000.0,,,,
KRDR,05-27-2011,09:00,METAR,,160,12.0,,,9999.0,,12.0,3.0,29.81,1010.6,,,,,,,,,,,,,,,7/8 Mostly Cloudy,11000.0,,FEW,6900.0,BKN,11000.0,,,,
KRDR,05-27-2011,08:00,METAR,,150,14.0,19.0,,9999.0,,12.0,3.0,29.82,1011.0,,,,,,,,,,,,,,,4/8 Partly Cloudy,72000.0,,SCT,12000.0,,,,,,
KRDR,05-27-2011,07:00,METAR,,160,11.0,,,9999.0,,13.0,3.0,29.84,1011.7,,,,,,,,,,,,,,,Clear,72000.0,,,73000.0,,,,,,
KRDR,05-27-2011,06:00,METAR,,160,11.0,,,9999.0,,13.0,3.0,29.87,1012.5,,,,,,,,,,,,,,,Clear,72000.0,,,73000.0,,,,,,
KRDR,05-27-2011,05:00,METAR,,150,8.0,,,9999.0,,14.0,2.0,29.88,1013.0,,,,,,,,,,,,,,,Clear,72000.0,,,73000.0,,,,,,
KRDR,05-27-2011,04:00,METAR,,140,8.0,,,9999.0,,14.0,1.0,29.90,1013.5,,,,,,,,,,,,,,,7/8 Mostly Cloudy,12000.0,,SCT,9900.0,BKN,12000.0,,,,
KRDR,05-27-2011,03:00,METAR,,140,7.0,,,9999.0,,15.0,1.0,29.90,1013.7,,,,,,,,,,,,,,,4/8 Partly Cloudy,72000.0,,SCT,12000.0,,,,,,
KRDR,05-27-2011,02:00,METAR,,150,6.0,,,9999.0,,15.0,1.0,29.90,1013.4,,,,,,,,,,,,,,,Clear,72000.0,,,73000.0,,,,,,
KRDR,05-27-2011,01:00,METAR,,140,5.0,,,9999.0,,16.0,-1.0,29.89,1013.3,,,,,,,,,,,,,,,Clear,72000.0,,,73000.0,,,,,,
KRDR,05-27-2011,00:00,METAR,,140,9.0,,,9999.0,,17.0,-2.0,29.90,1013.6,,,,,,,,,,,,,,,Clear,72000.0,,,73000.0,,,,,,
KRDR,05-26-2011,23:00,METAR,,110,7.0,,,9999.0,,18.0,-2.0,29.93,1014.4,,,,,,,,,,,,,,,Clear,72000.0,,,73000.0,,,,,,
KRDR,05-26-2011,22:00,METAR,,140,7.0,,,9999.0,,17.0,-2.0,29.95,1015.3,,,,,,,,,,,,,,,2/8 Mostly Clear,72000.0,,FEW,11000.0,,,,,,
KRDR,05-26-2011,21:00,METAR,,160,6.0,,,9999.0,,17.0,-3.0,29.97,1015.7,,,,,,,,,,,,,,,Clear,72000.0,,,73000.0,,,,,,
KRDR,05-26-2011,20:00,METAR,,110,10.0,,,9999.0,,16.0,-2.0,29.99,1016.6,,,,,,,,,,,,,,,Clear,72000.0,,,73000.0,,,,,,
KRDR,05-26-2011,19:00,METAR,,170,6.0,,,9999.0,,15.0,-3.0,30.02,1017.4,,,,,,,,,,,,,,,Clear,72000.0,,,73000.0,,,,,,
KRDR,05-26-2011,18:45,SPECI,,130,6.0,,,9999.0,,16.0,-2.0,30.02,1017.5,,,,,,,,,,,,,,,Clear,72000.0,,,73000.0,,,,,,
KRDR,05-26-2011,18:00,METAR,,120,9.0,,,9999.0,,15.0,-3.0,30.05,1018.4,,,,,,,,,,,,,,,Clear,72000.0,,,73000.0,,,,,,
KRDR,05-26-2011,17:00,METAR,,,4.0,,,9999.0,,14.0,-4.0,30.07,1019.3,,,,,,,,,,,,,,,Clear,72000.0,,,73000.0,,,,,,
KRDR,05-26-2011,16:00,METAR,,190,6.0,,,9999.0,,12.0,-2.0,30.09,1019.9,,,,,,,,,,,,,,,Clear,72000.0,,,73000.0,,,,,,
KRDR,05-26-2011,15:00,METAR,,150,4.0,,,9999.0,,10.0,1.0,30.11,1020.5,,,,,,,,,,,,,,,Clear,72000.0,,,73000.0,,,,,,
KRDR,05-26-2011,14:00,METAR,,,0.0,,,9999.0,,7.0,0.0,30.12,1020.7,,,,,,,,,,,,,,,Clear,72000.0,,,73000.0,,,,,,
KRDR,05-26-2011,13:00,METAR,,20,5.0,,,9999.0,,5.0,2.0,30.13,1021.1,,,,,,,,,,,,,,,Clear,72000.0,,,73000.0,,,,,,
KRDR,05-26-2011,12:00,METAR,,360,4.0,,,9999.0,,1.0,1.0,30.14,1021.4,,,,,,,,,,,,,,,Clear,72000.0,,,73000.0,,,,,,
KRDR,05-26-2011,11:00,METAR,,340,4.0,,,9999.0,,0.0,-1.0,30.13,1021.1,,,,,,,,,,,,,,,Clear,72000.0,,,73000.0,,,,,,
KRDR,05-26-2011,10:00,METAR,,320,3.0,,,9999.0,,0.0,-1.0,30.12,1020.9,,,,,,,,,,,,,,,Clear,72000.0,,,73000.0,,,,,,
KRDR,05-26-2011,09:00,METAR,,350,6.0,,,9999.0,,1.0,-3.0,30.11,1020.3,,,,,,,,,,,,,,,Clear,72000.0,,,73000.0,,,,,,
KRDR,05-26-2011,08:00,METAR,,330,5.0,,,9999.0,,1.0,-2.0,30.11,1020.3,,,,,,,,,,,,,,,Clear,72000.0,,,73000.0,,,,,,
KRDR,05-26-2011,07:00,METAR,,360,5.0,,,9999.0,,2.0,-3.0,30.11,1020.4,,,,,,,,,,,,,,,Clear,72000.0,,,73000.0,,,,,,
KRDR,05-26-2011,06:00,METAR,,30,5.0,,,9999.0,,1.0,0.0,30.11,1020.4,,,,,,,,,,,,,,,Clear,72000.0,,,73000.0,,,,,,
KRDR,05-26-2011,05:00,METAR,,20,5.0,,,9999.0,,4.0,-1.0,30.13,1021.0,,,,,,,,,,,,,,,Clear,72000.0,,,73000.0,,,,,,
KRDR,05-26-2011,04:00,METAR,,30,7.0,,,9999.0,,4.0,0.0,30.12,1020.9,,,,,,,,,,,,,,,Clear,72000.0,,,73000.0,,,,,,
KRDR,05-26-2011,03:00,METAR,,30,9.0,,,9999.0,,8.0,-1.0,30.12,1020.6,,,,,,,,,,,,,,,Clear,72000.0,,,73000.0,,,,,,
KRDR,05-26-2011,02:00,METAR,,20,9.0,,,9999.0,,11.0,-1.0,30.10,1020.2,,,,,,,,,,,,,,,Clear,72000.0,,,73000.0,,,,,,
KRDR,05-26-2011,01:00,METAR,,30,18.0,22.0,030/27KTS,9999.0,,14.0,0.0,30.09,1019.8,,,,,,,,,,,,,,,Clear,72000.0,,,73000.0,,,,,,
KRDR,05-26-2011,00:00,METAR,,20,16.0,25.0,020/27KTS,9999.0,,15.0,1.0,30.08,1019.5,,,,,,,,,,,,,,,Clear,72000.0,,,73000.0,,,,,,
KRDR,05-25-2011,23:00,METAR,,20,20.0,26.0,030/28KTS,9999.0,,16.0,1.0,30.07,1019.3,,,,,,,,,,,,,,,Clear,72000.0,,,73000.0,,,,,,
KRDR,05-25-2011,22:00,METAR,,30,18.0,27.0,050/28KTS,9999.0,,17.0,1.0,30.06,1018.9,,,,,,,,,,,,,,,Clear,72000.0,,,73000.0,,,,,,
KRDR,05-25-2011,21:00,METAR,,10,20.0,25.0,030/27KTS,9999.0,,17.0,2.0,30.07,1019.0,,,,,,,,,,,,,,,4/8 Partly Cloudy,72000.0,,SCT,5900.0,,,,,,
KRDR,05-25-2011,20:00,METAR,,30,19.0,26.0,040/27KTS,9999.0,,17.0,1.0,30.07,1019.2,,,,,,,,,,,,,,,Clear,72000.0,,,73000.0,,,,,,
KRDR,05-25-2011,19:00,METAR,,30,15.0,29.0,020/29KTS,9999.0,,17.0,1.0,30.08,1019.6,,,,,,,,,,,,,,,Clear,72000.0,,,73000.0,,,,,,
KRDR,05-25-2011,18:00,METAR,,50,12.0,20.0,,9999.0,,16.0,2.0,30.09,1019.8,,,,,,,,,,,,,,,Clear,72000.0,,,73000.0,,,,,,
KRDR,05-25-2011,17:00,METAR,,40,12.0,,,9999.0,,15.0,2.0,30.10,1020.1,,,,,,,,,,,,,,,Clear,72000.0,,,73000.0,,,,,,
KRDR,05-25-2011,16:00,METAR,,50,13.0,,,9999.0,,13.0,1.0,30.11,1020.5,,,,,,,,,,,,,,,Clear,72000.0,,,73000.0,,,,,,
KRDR,05-25-2011,15:00,METAR,,30,13.0,,,9999.0,,11.0,0.0,30.12,1020.8,,,,,,,,,,,,,,,Clear,72000.0,,,73000.0,,,,,,
KRDR,05-25-2011,14:00,METAR,,40,13.0,,,9999.0,,10.0,1.0,30.12,1020.7,,,,,,,,,,,,,,,Clear,72000.0,,,73000.0,,,,,,
KRDR,05-25-2011,13:00,METAR,,30,12.0,,,9999.0,,7.0,2.0,30.11,1020.3,,,,,,,,,,,,,,,Clear,72000.0,,,73000.0,,,,,,
KRDR,05-25-2011,12:00,METAR,,10,7.0,,,9999.0,,4.0,3.0,30.10,1020.1,,,,,,,,,,,,,,,Clear,72000.0,,,73000.0,,,,,,
KRDR,05-25-2011,11:00,METAR,,10,9.0,,,9999.0,,3.0,3.0,30.07,1019.1,,,,,,,,,,,,,,,Clear,72000.0,,,73000.0,,,,,,
KRDR,05-25-2011,10:00,METAR,,10,8.0,,,9999.0,,3.0,3.0,30.06,1018.8,,,,,,,,,,,,,,,Clear,72000.0,,,73000.0,,,,,,
KRDR,05-25-2011,09:00,METAR,,10,9.0,,,9999.0,,4.0,4.0,30.06,1019.0,,,,,,,,,,,,,,,Clear,72000.0,,,73000.0,,,,,,
KRDR,05-25-2011,08:00,METAR,,10,9.0,,,9999.0,,5.0,3.0,30.06,1019.0,,,,,,,,,,,,,,,Clear,72000.0,,,73000.0,,,,,,
KRDR,05-25-2011,07:00,METAR,,10,9.0,,,9999.0,,5.0,5.0,30.06,1018.9,,,,,,,,,,,,,,,Clear,72000.0,,,73000.0,,,,,,
KRDR,05-25-2011,06:00,METAR,,10,8.0,,,9999.0,,5.0,5.0,30.07,1019.3,,,,,,,,,,,,,,,Clear,72000.0,,,73000.0,,,,,,
KRDR,05-25-2011,05:00,METAR,,30,5.0,,,9999.0,,5.0,5.0,30.08,1019.5,,,,,,,,,,,,,,,Clear,72000.0,,,73000.0,,,,,,
KRDR,05-25-2011,04:00,METAR,,10,10.0,,,9999.0,,8.0,7.0,30.04,1018.2,,,,,,,,,,,,,,,Clear,72000.0,,,73000.0,,,,,,
KRDR,05-25-2011,03:00,METAR,,10,11.0,,,9999.0,,9.0,7.0,30.03,1017.9,,,,,,,,,,,,,,,Clear,72000.0,,,73000.0,,,,,,
KRDR,05-25-2011,02:00,METAR,,20,10.0,,,9999.0,,11.0,6.0,30.03,1017.7,,,,,,,,,,,,,,,Clear,72000.0,,,73000.0,,,,,,
KRDR,05-25-2011,01:00,METAR,,30,9.0,,,9999.0,,13.0,4.0,30.02,1017.4,,,,,,,,,,,,,,,Clear,72000.0,,,73000.0,,,,,,
KRDR,05-25-2011,00:00,METAR,,50,13.0,,,9999.0,,13.0,4.0,30.01,1017.1,,,,,,,,,,,,,,,Clear,72000.0,,,73000.0,,,,,,
KRDR,05-24-2011,23:00,METAR,,30,12.0,,,9999.0,,14.0,4.0,30.01,1017.1,,,,,,,,,,,,,,,Clear,72000.0,,,73000.0,,,,,,
KRDR,05-24-2011,22:00,METAR,,40,11.0,20.0,,9999.0,,13.0,4.0,30.01,1017.1,,,,,,,,,,,,,,,Clear,72000.0,,,73000.0,,,,,,
KRDR,05-24-2011,21:00,METAR,,50,8.0,16.0,,9999.0,,12.0,5.0,30.02,1017.5,,,,,,,,,,,,,,,2/8 Mostly Clear,72000.0,,FEW,3200.0,,,,,,
KRDR,05-24-2011,20:00,METAR,,50,12.0,,,9999.0,,11.0,5.0,30.03,1017.9,,,,,,,,,,,,,,,4/8 Partly Cloudy,72000.0,,SCT,2900.0,,,,,,
KRDR,05-24-2011,19:51,SPECI,,40,11.0,,,9999.0,,11.0,5.0,30.03,1017.9,,,,,,,,,,,,,,,4/8 Partly Cloudy,72000.0,,SCT,2900.0,,,,,,
KRDR,05-24-2011,19:49,SPECI,,30,11.0,,,9999.0,,11.0,5.0,30.03,1017.9,,,,,,,,,,,,,,,7/8 Mostly Cloudy,2900.0,,BKN,2900.0,,,,,,
KRDR,05-24-2011,19:47,SPECI,,50,14.0,,,9999.0,,11.0,5.0,30.03,1017.9,,,,,,,,,,,,,,,4/8 Partly Cloudy,72000.0,,SCT,2900.0,,,,,,
KRDR,05-24-2011,19:45,SPECI,,50,12.0,,,9999.0,,11.0,5.0,30.03,1017.9,,,,,,,,,,,,,,,7/8 Mostly Cloudy,2800.0,,BKN,2800.0,,,,,,
KRDR,05-24-2011,19:28,SPECI,,50,11.0,17.0,,9999.0,,11.0,5.0,30.04,1018.0,,,,,,,,,,,,,,,4/8 Partly Cloudy,72000.0,,SCT,2700.0,,,,,,
KRDR,05-24-2011,19:00,METAR,,20,12.0,,,9999.0,,10.0,5.0,30.04,1018.1,,,,,,,,,,,,,,,8/8 Overcast,2200.0,,OVC,2500.0,,,,,,
KRDR,05-24-2011,18:00,METAR,,50,9.0,,,9999.0,,8.0,6.0,30.04,1018.3,,,,,,,,,,,,,TRACE,,8/8 Overcast,1800.0,,OVC,1800.0,,,,,,
KRDR,05-24-2011,17:00,METAR,,30,11.0,,,9999.0,,7.0,6.0,30.04,1018.1,,,,,,,,,,,,,,,8/8 Overcast,1600.0,,OVC,1600.0,,,,,,
KRDR,05-24-2011,16:00,METAR,,40,12.0,,,9999.0,,7.0,6.0,30.04,1018.1,,,,,,,,,,,,,,,8/8 Overcast,1400.0,,OVC,1600.0,,,,,,
KRDR,05-24-2011,15:33,SPECI,,30,13.0,,,9999.0,,6.0,6.0,30.04,1018.1,,,,,,,,,,,,,,,8/8 Overcast,1200.0,,OVC,1500.0,,,,,,
KRDR,05-24-2011,15:18,SPECI,,40,12.0,,,9999.0,,6.0,6.0,30.03,1018.0,,,,,,,,,,,,,,,8/8 Overcast,1200.0,,OVC,1400.0,,,,,,
KRDR,05-24-2011,15:00,METAR,,40,13.0,,,9999.0,,6.0,6.0,30.03,1017.8,,,,,,,,,,,,TRACE,,,8/8 Overcast,1200.0,,OVC,1400.0,,,,,,
KRDR,05-24-2011,14:53,SPECI,,40,13.0,,,9999.0,,6.0,6.0,30.03,1017.9,,,,,,,,,,,,,,,8/8 Overcast,1200.0,,OVC,1500.0,,,,,,
KRDR,05-24-2011,14:07,SPECI,,40,12.0,,,9999.0,,5.0,5.0,30.03,1018.0,,,,,,,,,,,,,,,8/8 Overcast,1100.0,,FEW,700.0,OVC,1200.0,,,,
KRDR,05-24-2011,14:00,SPECI,,30,12.0,,,9999.0,,5.0,5.0,30.03,1017.9,,,,,,,,,,,,,,,8/8 Overcast,600.0,,OVC,1100.0,,,,,,
KRDR,05-24-2011,13:51,SPECI,,30,11.0,,,9999.0,,5.0,5.0,30.04,1018.0,,,,,,,,,,,,,,,8/8 Overcast,800.0,,SCT,800.0,OVC,1300.0,,,,
KRDR,05-24-2011,13:49,SPECI,,30,11.0,,,9999.0,,5.0,5.0,30.04,1018.0,,,,,,,,,,,,,,,8/8 Overcast,600.0,,BKN,800.0,OVC,1300.0,,,,
KRDR,05-24-2011,13:34,SPECI,,30,13.0,,,9999.0,Light Rain,5.0,5.0,30.03,1017.9,61,,,,,,,,,,,,,,8/8 Overcast,700.0,,OVC,900.0,,,,,,
KRDR,05-24-2011,13:30,SPECI,,30,11.0,,,9999.0,,5.0,5.0,30.03,1018.0,,,,,,,,,,,,,,,8/8 Overcast,700.0,,BKN,900.0,OVC,1400.0,,,,
KRDR,05-24-2011,13:21,SPECI,,10,12.0,,,9999.0,,5.0,5.0,30.03,1017.9,,,,,,,,,,,,,,,8/8 Overcast,600.0,,BKN,900.0,OVC,1500.0,,,,
KRDR,05-24-2011,13:00,METAR,,20,12.0,,,9999.0,Light Rain,5.0,5.0,30.04,1018.1,61,,,,,,,,,,TRACE,,,,8/8 Overcast,700.0,,OVC,900.0,,,,,,
KRDR,05-24-2011,12:54,SPECI,,30,11.0,,,9999.0,,5.0,5.0,30.04,1018.1,,,,,,,,,,,,,,,8/8 Overcast,700.0,,BKN,900.0,OVC,1300.0,,,,
KRDR,05-24-2011,12:49,SPECI,,30,11.0,,,9999.0,Light Rain,5.0,5.0,30.04,1018.0,61,,,,,,,,,,,,,,8/8 Overcast,700.0,,OVC,900.0,,,,,,
KRDR,05-24-2011,12:45,SPECI,,30,14.0,,,9999.0,Light Rain,5.0,5.0,30.03,1017.9,61,,,,,,,,,,,,,,8/8 Overcast,700.0,,OVC,1000.0,,,,,,
KRDR,05-24-2011,12:00,METAR,,30,12.0,,,9999.0,,5.0,5.0,30.03,1017.9,,,,,,,,,,,,,,,8/8 Overcast,1100.0,,BKN,1100.0,OVC,1700.0,,,,
KRDR,05-24-2011,11:48,SPECI,,30,11.0,,,9999.0,,5.0,5.0,30.03,1017.9,,,,,,,,,,,,,,,8/8 Overcast,1000.0,,BKN,1100.0,OVC,1800.0,,,,
KRDR,05-24-2011,11:37,SPECI,,30,13.0,,,9999.0,,5.0,5.0,30.02,1017.5,,,,,,,,,,,,,,,8/8 Overcast,1100.0,,BKN,1300.0,OVC,1800.0,,,,
KRDR,05-24-2011,11:00,METAR,,30,10.0,21.0,,9999.0,,5.0,5.0,30.02,1017.4,,,,,,,,,,,,,,,8/8 Overcast,1400.0,,OVC,1600.0,,,,,,
KRDR,05-24-2011,10:29,SPECI,,30,11.0,,,9999.0,,5.0,5.0,30.01,1017.2,,,,,,,,,,,,,,,8/8 Overcast,1000.0,,SCT,1000.0,OVC,1800.0,,,,
KRDR,05-24-2011,10:11,SPECI,,30,15.0,,,9999.0,,6.0,6.0,30.01,1017.0,,,,,,,,,,,,,,,8/8 Overcast,800.0,,BKN,1000.0,OVC,1500.0,,,,
KRDR,05-24-2011,10:01,SPECI,,20,11.0,,,9999.0,,6.0,6.0,30.01,1017.0,,,,,,,,,,,,,,,8/8 Overcast,1100.0,,OVC,1400.0,,,,,,
KRDR,05-24-2011,10:00,METAR,,20,10.0,,,9999.0,,6.0,6.0,30.00,1016.9,,,,,,,,,,,,,,,8/8 Overcast,1400.0,,OVC,1600.0,,,,,,
KRDR,05-24-2011,09:00,METAR,,20,11.0,,,9999.0,,7.0,7.0,29.99,1016.4,,,,,,,,,,,,,,,8/8 Overcast,1600.0,,OVC,1600.0,,,,,,
KRDR,05-24-2011,08:00,METAR,,20,12.0,,,9999.0,,7.0,7.0,29.98,1016.1,,,,,,,,,,,,,,,8/8 Overcast,1400.0,,OVC,1500.0,,,,,,
KRDR,05-24-2011,07:00,METAR,,10,13.0,,,9999.0,,7.0,7.0,29.97,1015.8,,,,,,,,,,,,,,,8/8 Overcast,1600.0,,OVC,1600.0,,,,,,
KRDR,05-24-2011,06:00,METAR,,360,12.0,,,9999.0,,7.0,7.0,29.97,1015.7,,,,,,,,,,,,,,,8/8 Overcast,1300.0,,OVC,1300.0,,,,,,
KRDR,05-24-2011,05:00,METAR,,350,14.0,,,9999.0,,7.0,7.0,29.96,1015.7,,,,,,,,,,,,,,,8/8 Overcast,1400.0,,OVC,1400.0,,,,,,
KRDR,05-24-2011,04:00,METAR,,20,16.0,21.0,,9999.0,,7.0,7.0,29.95,1015.1,,,,,,,,,,,,,,,8/8 Overcast,1300.0,,OVC,1300.0,,,,,,
KRDR,05-24-2011,03:00,METAR,,20,12.0,,,9999.0,,7.0,7.0,29.93,1014.4,,,,,,,,,,,,,,,8/8 Overcast,1200.0,,OVC,1200.0,,,,,,
KRDR,05-24-2011,02:02,SPECI,,20,15.0,24.0,,9999.0,,8.0,8.0,29.90,1013.5,,,,,,,,,,,,,,,8/8 Overcast,1200.0,,OVC,1200.0,,,,,,
KRDR,05-24-2011,02:00,METAR,,10,17.0,,010/26KTS,9999.0,,8.0,8.0,29.90,1013.4,,,,,,,,,,,,,,,8/8 Overcast,1100.0,,OVC,1100.0,,,,,,
KRDR,05-24-2011,01:49,SPECI,,10,16.0,23.0,010/26KTS,9999.0,,8.0,8.0,29.89,1013.4,,,,,,,,,,,,,,,8/8 Overcast,1100.0,,OVC,1100.0,,,,,,
KRDR,05-24-2011,01:00,METAR,,10,15.0,24.0,,9999.0,,9.0,9.0,29.88,1013.0,,,,,,,,,,,,,,,8/8 Overcast,1200.0,,OVC,1200.0,,,,,,
KRDR,05-24-2011,00:48,SPECI,,10,13.0,,,9999.0,,9.0,9.0,29.88,1012.9,,,,,,,,,,,,,,,8/8 Overcast,1200.0,,OVC,1200.0,,,,,,
KRDR,05-24-2011,00:00,METAR,,10,14.0,22.0,,9999.0,,11.0,11.0,29.87,1012.4,,,,,,,,,,,,,,,8/8 Overcast,1200.0,,OVC,1200.0,,,,,,
KRDR,05-23-2011,23:54,SPECI,,20,16.0,22.0,,9999.0,,11.0,11.0,29.87,1012.4,,,,,,,,,,,,,,,8/8 Overcast,1100.0,,OVC,1100.0,,,,,,
KRDR,05-23-2011,23:46,SPECI,,20,15.0,,,9999.0,,11.0,11.0,29.86,1012.3,,,,,,,,,,,,,,,8/8 Overcast,1200.0,,OVC,1200.0,,,,,,
KRDR,05-23-2011,23:36,SPECI,,10,18.0,24.0,,9999.0,,11.0,11.0,29.86,1012.2,,,,,,,,,,,,,,,8/8 Overcast,1100.0,,OVC,1100.0,,,,,,
KRDR,05-23-2011,23:00,METAR,,10,18.0,23.0,,9999.0,,12.0,12.0,29.85,1011.9,,,,,,,,,,,,,,,8/8 Overcast,1200.0,,OVC,1200.0,,,,,,
KRDR,05-23-2011,22:00,METAR,,10,18.0,23.0,,9999.0,,13.0,13.0,29.83,1011.2,,,,,,,,,,,,,,,8/8 Overcast,1300.0,,OVC,1400.0,,,,,,
KRDR,05-23-2011,21:00,METAR,,360,20.0,24.0,010/26KTS,9999.0,,15.0,15.0,29.81,1010.5,,,,,,,,,,,,,,,8/8 Overcast,1600.0,,OVC,1800.0,,,,,,
KRDR,05-23-2011,20:00,METAR,,10,17.0,24.0,010/26KTS,9999.0,,17.0,15.0,29.79,1010.1,,,,,,,,,,,,,,,7/8 Mostly Cloudy,1600.0,,BKN,1900.0,BKN,2400.0,,,,
KRDR,05-23-2011,18:51,SPECI,,10,20.0,27.0,010/27KTS,9999.0,,17.0,16.0,29.78,1009.5,,,,,,,,,,,,,,,8/8 Overcast,2800.0,,SCT,1800.0,BKN,2800.0,OVC,4000.0,,
KRDR,05-23-2011,18:39,SPECI,,10,20.0,,,9999.0,,17.0,16.0,29.77,1009.3,,,,,,,,,,,,,,,8/8 Overcast,3700.0,,SCT,1900.0,SCT,2500.0,OVC,3800.0,,
KRDR,05-23-2011,18:36,SPECI,,10,17.0,,,9999.0,,17.0,16.0,29.77,1009.3,,,,,,,,,,,,,,,8/8 Overcast,2600.0,,FEW,1900.0,BKN,2600.0,OVC,3800.0,,
KRDR,05-23-2011,18:29,SPECI,,360,17.0,,,9999.0,,16.0,16.0,29.77,1009.1,,,,,,,,,,,,,,,8/8 Overcast,3700.0,,FEW,1800.0,SCT,2700.0,OVC,3800.0,,
KRDR,05-23-2011,18:07,SPECI,,20,17.0,25.0,,9999.0,,17.0,14.0,29.76,1009.0,,,,,,,,,,,,,,,8/8 Overcast,2400.0,,BKN,2800.0,OVC,3500.0,,,,
KRDR,05-23-2011,18:03,SPECI,,30,18.0,25.0,,9999.0,,17.0,14.0,29.76,1008.9,,,,,,,,,,,,,,,8/8 Overcast,3400.0,,SCT,2700.0,OVC,3500.0,,,,
KRDR,05-23-2011,18:00,METAR,,20,18.0,24.0,,9999.0,,17.0,14.0,29.76,1008.9,,,,,,,,,,,,,TRACE,,8/8 Overcast,2400.0,,BKN,2600.0,OVC,3500.0,,,,
KRDR,05-23-2011,17:56,SPECI,,20,17.0,24.0,,9999.0,,17.0,14.0,29.76,1008.9,,,,,,,,,,,,,,,8/8 Overcast,3400.0,,SCT,2700.0,OVC,3500.0,,,,
KRDR,05-23-2011,17:45,SPECI,,20,15.0,24.0,,9999.0,,17.0,14.0,29.76,1008.8,,,,,,,,,,,,,,,8/8 Overcast,2700.0,,BKN,2700.0,OVC,3400.0,,,,
KRDR,05-23-2011,17:42,SPECI,,20,16.0,24.0,,9999.0,,17.0,14.0,29.76,1008.8,,,,,,,,,,,,,,,8/8 Overcast,3200.0,,SCT,2700.0,OVC,3300.0,,,,
KRDR,05-23-2011,17:35,SPECI,,20,19.0,,,9999.0,,17.0,15.0,29.76,1008.8,,,,,,,,,,,,,,,8/8 Overcast,2400.0,,FEW,2000.0,BKN,2600.0,OVC,3300.0,,
KRDR,05-23-2011,17:26,SPECI,,30,19.0,25.0,,9999.0,,17.0,14.0,29.75,1008.7,,,,,,,,,,,,,,,8/8 Overcast,3100.0,,SCT,2200.0,OVC,3200.0,,,,
KRDR,05-23-2011,17:24,SPECI,,30,20.0,25.0,,9999.0,,17.0,14.0,29.75,1008.7,,,,,,,,,,,,,,,8/8 Overcast,2900.0,,SCT,2200.0,BKN,2900.0,OVC,3400.0,,
KRDR,05-23-2011,17:20,SPECI,,30,20.0,24.0,,9999.0,,17.0,14.0,29.75,1008.7,,,,,,,,,,,,,,,8/8 Overcast,2600.0,,SCT,2200.0,OVC,3100.0,,,,
KRDR,05-23-2011,17:00,METAR,,20,18.0,,,9999.0,,15.0,15.0,29.75,1008.5,,,,,,,,,,,,,,,8/8 Overcast,1900.0,,FEW,1500.0,OVC,2100.0,,,,
KRDR,05-23-2011,16:00,METAR,,20,14.0,20.0,,9999.0,,15.0,15.0,29.73,1007.9,,,,,,,,,,,TRACE,,,,8/8 Overcast,1300.0,,BKN,1500.0,OVC,3200.0,,,,
KRDR,05-23-2011,15:47,SPECI,,20,17.0,,,9999.0,,15.0,15.0,29.73,1007.9,,,,,,,,,,,,,,,8/8 Overcast,1600.0,,BKN,1600.0,BKN,2000.0,OVC,3200.0,,
KRDR,05-23-2011,15:38,SPECI,,360,16.0,20.0,,9999.0,,15.0,15.0,29.72,1007.6,,,,,,,,,,,,,,,8/8 Overcast,1400.0,,BKN,1400.0,BKN,2000.0,OVC,3000.0,,
KRDR,05-23-2011,15:30,SPECI,,10,16.0,23.0,,9999.0,,15.0,15.0,29.71,1007.4,,,,,,,,,,,,,,,8/8 Overcast,1400.0,,SCT,1300.0,BKN,2000.0,OVC,3000.0,,
KRDR,05-23-2011,15:26,SPECI,,360,14.0,23.0,,9999.0,Light Rain,15.0,15.0,29.71,1007.4,61,,,,,,,,,,,,,,8/8 Overcast,1500.0,,SCT,1300.0,BKN,2000.0,OVC,3400.0,,
KRDR,05-23-2011,15:21,SPECI,,360,17.0,20.0,,9999.0,Light Rain,16.0,16.0,29.71,1007.4,61,,,,,,,,,,,,,,8/8 Overcast,1300.0,,BKN,1300.0,BKN,2000.0,OVC,2800.0,,
KRDR,05-23-2011,15:18,SPECI,,360,16.0,20.0,,9999.0,,16.0,16.0,29.71,1007.4,,,,,,,,,,,,,,,8/8 Overcast,1300.0,,BKN,1300.0,OVC,2800.0,,,,
KRDR,05-23-2011,15:14,SPECI,,360,16.0,20.0,,9999.0,,16.0,16.0,29.71,1007.3,,,,,,,,,,,,,,,8/8 Overcast,1100.0,,BKN,1100.0,BKN,2000.0,OVC,2800.0,,
KRDR,05-23-2011,15:10,SPECI,,20,17.0,,,9999.0,,15.0,15.0,29.71,1007.3,,,,,,,,,,,,,,,8/8 Overcast,1400.0,,SCT,1100.0,BKN,2000.0,OVC,2800.0,,
KRDR,05-23-2011,15:00,METAR,,10,15.0,,,9999.0,,15.0,15.0,29.71,1007.3,,,,,,,,,,,TRACE,0 IN,,,8/8 Overcast,700.0,,BKN,1000.0,OVC,2100.0,,,,
KRDR,05-23-2011,14:42,SPECI,,10,14.0,,,9999.0,,14.0,14.0,29.71,1007.2,,,,,,,,,,,,,,,8/8 Overcast,1200.0,,SCT,800.0,BKN,1600.0,OVC,2400.0,,
KRDR,05-23-2011,14:41,SPECI,,20,15.0,,,9999.0,Light Rain,14.0,14.0,29.71,1007.2,61,,,,,,,,,,,,,,8/8 Overcast,1200.0,,SCT,800.0,BKN,1600.0,OVC,2400.0,,
KRDR,05-23-2011,14:35,SPECI,,10,15.0,21.0,,9999.0,Light Rain,14.0,14.0,29.71,1007.1,61,,,,,,,,,,,,,,8/8 Overcast,600.0,,SCT,800.0,BKN,1300.0,OVC,2400.0,,
KRDR,05-23-2011,14:30,SPECI,,10,17.0,21.0,,9999.0,,15.0,15.0,29.70,1007.1,,,,,,,,,,,,,,,8/8 Overcast,1300.0,,FEW,900.0,BKN,1600.0,OVC,2300.0,,
KRDR,05-23-2011,14:29,SPECI,,10,17.0,21.0,,9999.0,,15.0,15.0,29.70,1007.1,,,,,,,,,,,,,,,8/8 Overcast,2200.0,,SCT,1600.0,OVC,2300.0,,,,
KRDR,05-23-2011,14:20,SPECI,,360,17.0,,,9999.0,,15.0,15.0,29.70,1006.9,,,,,,,,,,,,,,,8/8 Overcast,1400.0,,BKN,1600.0,OVC,2300.0,,,,
KRDR,05-23-2011,14:18,SPECI,,360,15.0,20.0,,9999.0,,15.0,15.0,29.70,1006.9,,,,,,,,,,,,,,,8/8 Overcast,1400.0,,BKN,1400.0,OVC,2300.0,,,,
KRDR,05-23-2011,14:00,METAR,,360,14.0,,,9999.0,,15.0,15.0,29.69,1006.6,,,,,,,,,,,,,,,8/8 Overcast,1500.0,,OVC,1900.0,,,,,,
KRDR,05-23-2011,13:28,SPECI,,360,11.0,,,9999.0,,15.0,15.0,29.68,1006.3,,,,,,,,,,,,,,,8/8 Overcast,2000.0,,SCT,1300.0,OVC,2000.0,,,,
KRDR,05-23-2011,13:11,SPECI,,360,11.0,,,9999.0,,14.0,14.0,29.68,1006.2,,,,,,,,,,,,,,,8/8 Overcast,1000.0,,BKN,1300.0,OVC,2100.0,,,,
KRDR,05-23-2011,13:00,METAR,,360,15.0,,,9999.0,,14.0,14.0,29.67,1006.0,,,,,,,,,,,,,,,8/8 Overcast,900.0,,BKN,1000.0,OVC,2000.0,,,,
KRDR,05-23-2011,12:44,SPECI,,360,14.0,,,9999.0,,14.0,14.0,29.67,1005.9,,,,,,,,,,,,,,,8/8 Overcast,900.0,,BKN,1000.0,OVC,1900.0,,,,
KRDR,05-23-2011,12:00,METAR,,360,12.0,21.0,,9999.0,,14.0,14.0,29.65,1005.2,,,,,,,,,,,,,,,8/8 Overcast,800.0,,OVC,800.0,,,,,,
KRDR,05-23-2011,11:16,SPECI,,360,13.0,,,9999.0,,14.0,14.0,29.63,1004.6,,,,,,,,,,,,,,,8/8 Overcast,900.0,,BKN,900.0,BKN,3500.0,OVC,5400.0,,
KRDR,05-23-2011,11:14,SPECI,,360,11.0,,,9999.0,,14.0,14.0,29.63,1004.6,,,,,,,,,,,,,,,8/8 Overcast,3400.0,,SCT,900.0,BKN,3500.0,OVC,5400.0,,
KRDR,05-23-2011,11:00,METAR,,10,13.0,,,9999.0,,14.0,14.0,29.62,1004.3,,,,,,,,,,,,,,,8/8 Overcast,900.0,,BKN,900.0,OVC,5400.0,,,,
KRDR,05-23-2011,10:47,SPECI,,360,13.0,,,9999.0,,14.0,14.0,29.62,1004.3,,,,,,,,,,,,,,,8/8 Overcast,900.0,,BKN,900.0,OVC,5400.0,,,,
KRDR,05-23-2011,10:33,SPECI,,360,13.0,19.0,,9999.0,,14.0,14.0,29.62,1004.2,,,,,,,,,,,,,,,8/8 Overcast,900.0,,BKN,1000.0,BKN,4900.0,OVC,5900.0,,
KRDR,05-23-2011,10:27,SPECI,,360,14.0,19.0,,9999.0,,14.0,14.0,29.62,1004.2,,,,,,,,,,,,,,,8/8 Overcast,900.0,,BKN,900.0,BKN,4700.0,OVC,5900.0,,
KRDR,05-23-2011,10:14,SPECI,,360,15.0,20.0,,9999.0,,14.0,14.0,29.61,1003.9,,,,,,,,,,,,,,,8/8 Overcast,900.0,,FEW,1000.0,BKN,5000.0,OVC,5900.0,,
KRDR,05-23-2011,10:00,METAR,,360,12.0,,,9999.0,,14.0,14.0,29.60,1003.8,,,,,,,,,,,,,,,8/8 Overcast,4900.0,,OVC,5000.0,,,,,,
KRDR,05-23-2011,09:00,METAR,,10,11.0,,,9999.0,,14.0,14.0,29.58,1003.2,,,,,,,,,,,,,,,Clear,72000.0,,,73000.0,,,,,,
KRDR,05-23-2011,08:00,METAR,,10,11.0,,,9999.0,,14.0,14.0,29.57,1002.6,,,,,,,,,,,,,,,Clear,72000.0,,,73000.0,,,,,,
KRDR,05-23-2011,07:00,METAR,,340,12.0,,,9999.0,,15.0,15.0,29.56,1002.4,,,,,,,,,,,,,,,7/8 Mostly Cloudy,4100.0,,BKN,4200.0,,,,,,
KRDR,05-23-2011,06:00,METAR,,350,13.0,,,9999.0,,16.0,16.0,29.55,1002.1,,,,,,,,,,,,,,,2/8 Mostly Clear,72000.0,,FEW,4200.0,,,,,,
KRDR,05-23-2011,05:00,METAR,,350,13.0,,,9999.0,,17.0,17.0,29.54,1001.7,,,,,,,,,,,,,,,8/8 Overcast,7000.0,,FEW,4200.0,OVC,6900.0,,,,
KRDR,05-23-2011,04:00,METAR,,360,14.0,,,9999.0,,17.0,17.0,29.53,1001.3,,,,,,,,,,,,,,,8/8 Overcast,4900.0,,SCT,4200.0,BKN,5000.0,OVC,9400.0,,
KRDR,05-23-2011,03:00,METAR,,20,13.0,,,9999.0,,17.0,17.0,29.52,1000.9,,,,,,,,,,,,,,,2/8 Mostly Clear,72000.0,,FEW,5000.0,,,,,,
KRDR,05-23-2011,02:00,METAR,,10,13.0,17.0,,9999.0,,17.0,17.0,29.50,1000.3,,,,,,,,,,,,,,,Clear,72000.0,,,73000.0,,,,,,
KRDR,05-23-2011,01:00,METAR,,360,12.0,,,9999.0,,18.0,18.0,29.49,1000.1,,,,,,,,,,,,,,,8/8 Overcast,10000.0,,OVC,9900.0,,,,,,
KRDR,05-23-2011,00:00,METAR,,20,14.0,,,9999.0,,19.0,17.0,29.48,999.7,,,,,,,,,,,,,,,7/8 Mostly Cloudy,9000.0,,BKN,8900.0,,,,,,
KRDR,05-22-2011,23:00,METAR,,20,14.0,,,9999.0,,21.0,18.0,29.48,999.7,,,,,,,,,,,,,,,4/8 Partly Cloudy,72000.0,,SCT,11000.0,,,,,,
KRDR,05-22-2011,22:00,METAR,,30,17.0,,,9999.0,,21.0,17.0,29.46,999.1,,,,,,,,,,,,,,,2/8 Mostly Clear,72000.0,,FEW,3000.0,,,,,,
KRDR,05-22-2011,21:00,METAR,,50,12.0,,,9999.0,,22.0,15.0,29.48,999.6,,,,,,,,,,,,,,,2/8 Mostly Clear,72000.0,,FEW,3600.0,,,,,,
KRDR,05-22-2011,20:00,METAR,,70,11.0,,,9999.0,,21.0,17.0,29.48,999.6,,,,,,,,,,,,,,,7/8 Mostly Cloudy,4900.0,,FEW,2700.0,BKN,5000.0,,,,
KRDR,05-22-2011,19:00,METAR,,20,10.0,20.0,,9999.0,,20.0,19.0,29.48,999.6,,,,,,,,,,,,,,,8/8 Overcast,2900.0,,SCT,2400.0,BKN,2900.0,OVC,4600.0,,
KRDR,05-22-2011,18:53,SPECI,,20,10.0,20.0,,9999.0,,20.0,18.0,29.48,999.6,,,,,,,,,,,,,,,7/8 Mostly Cloudy,3500.0,,SCT,2400.0,SCT,2900.0,BKN,3600.0,,
KRDR,05-22-2011,18:37,SPECI,,40,10.0,,,9999.0,,20.0,18.0,29.48,999.8,,,,,,,,,,,,,,,8/8 Overcast,2500.0,,BKN,2500.0,OVC,3800.0,,,,
KRDR,05-22-2011,18:34,SPECI,,50,6.0,,,9999.0,,19.0,18.0,29.48,999.8,,,,,,,,,,,,,,,8/8 Overcast,2900.0,,SCT,2400.0,OVC,3900.0,,,,
KRDR,05-22-2011,18:26,SPECI,,,5.0,,,9999.0,,19.0,19.0,29.49,999.9,,,,,,,,,,,,,,,8/8 Overcast,2200.0,,BKN,2500.0,OVC,4000.0,,,,
KRDR,05-22-2011,18:12,SPECI,,40,8.0,,,9999.0,,20.0,18.0,29.49,999.9,,,,,,,,,,,,,,,8/8 Overcast,3100.0,,SCT,2300.0,BKN,3200.0,OVC,4200.0,,
KRDR,05-22-2011,18:00,METAR,,40,8.0,,,9999.0,,20.0,17.0,29.49,1000.0,,,,,,,,,,,,,,,7/8 Mostly Cloudy,2300.0,,BKN,2600.0,BKN,3600.0,,,,
KRDR,05-22-2011,17:37,SPECI,,60,7.0,,,9999.0,,20.0,18.0,29.49,1000.0,,,,,,,,,,,,,,,7/8 Mostly Cloudy,2800.0,,SCT,2300.0,BKN,2900.0,,,,
KRDR,05-22-2011,17:29,SPECI,,60,8.0,,,9999.0,,20.0,18.0,29.49,1000.1,,,,,,,,,,,,,,,7/8 Mostly Cloudy,3000.0,,SCT,2300.0,BKN,3000.0,BKN,3900.0,,
KRDR,05-22-2011,17:10,SPECI,,70,6.0,,,9999.0,,19.0,17.0,29.50,1000.3,,,,,,,,,,,,,,,7/8 Mostly Cloudy,2800.0,,SCT,2200.0,BKN,2800.0,BKN,3600.0,,
KRDR,05-22-2011,17:08,SPECI,,50,7.0,,,9999.0,,19.0,18.0,29.50,1000.3,,,,,,,,,,,,,,,7/8 Mostly Cloudy,3000.0,,SCT,2300.0,BKN,3000.0,BKN,3800.0,,
KRDR,05-22-2011,17:02,SPECI,,,5.0,,,9999.0,,19.0,18.0,29.50,1000.5,,,,,,,,,,,,,,,7/8 Mostly Cloudy,2900.0,,SCT,2100.0,BKN,2900.0,BKN,3600.0,,
KRDR,05-22-2011,17:00,METAR,,,4.0,,,9999.0,,20.0,19.0,29.51,1000.5,,,,,,,,,,,,,,,7/8 Mostly Cloudy,2100.0,,FEW,1900.0,SCT,2800.0,BKN,4600.0,,
KRDR,05-22-2011,16:10,SPECI,,60,7.0,,,9999.0,,19.0,18.0,29.51,1000.5,,,,,,,,,,,,,,,4/8 Partly Cloudy,72000.0,,SCT,1900.0,,,,,,
KRDR,05-22-2011,16:00,METAR,,80,7.0,,,9999.0,,18.0,18.0,29.51,1000.6,,,,,,,,,,,,,,,7/8 Mostly Cloudy,1500.0,,BKN,1900.0,BKN,3500.0,,,,
KRDR,05-22-2011,15:47,SPECI,,80,8.0,,,9999.0,,18.0,18.0,29.51,1000.6,,,,,,,,,,,,,,,7/8 Mostly Cloudy,1500.0,,BKN,1800.0,BKN,3500.0,,,,
KRDR,05-22-2011,15:44,SPECI,,80,6.0,,,9999.0,,18.0,18.0,29.51,1000.6,,,,,,,,,,,,,,,4/8 Partly Cloudy,72000.0,,SCT,1800.0,,,,,,
KRDR,05-22-2011,15:40,SPECI,,90,7.0,,,9999.0,,18.0,18.0,29.51,1000.6,,,,,,,,,,,,,,,7/8 Mostly Cloudy,1500.0,,BKN,1700.0,BKN,5400.0,,,,
KRDR,05-22-2011,15:00,METAR,,70,8.0,,,9999.0,,17.0,17.0,29.52,1000.9,,,,,,,,,,,,,,,8/8 Overcast,5500.0,,FEW,4200.0,OVC,5400.0,,,,
KRDR,05-22-2011,14:00,METAR,,70,8.0,,,9999.0,,16.0,16.0,29.53,1001.2,,,,,,,,,,,,,,,7/8 Mostly Cloudy,8000.0,,SCT,4400.0,BKN,7900.0,,,,
KRDR,05-22-2011,13:00,METAR,,60,4.0,,,9999.0,,14.0,14.0,29.53,1001.4,,,,,,,,,,,,,,,8/8 Overcast,8000.0,,SCT,5400.0,OVC,7900.0,,,,
KRDR,05-22-2011,12:00,METAR,,50,4.0,,,4800.0,Mist,12.0,12.0,29.53,1001.2,10,,,,,,,,,,,,.02 IN,.23 IN,Clear,72000.0,,,73000.0,,,,,,
KRDR,05-22-2011,11:44,SPECI,,40,3.0,,,4800.0,Mist,12.0,12.0,29.52,1001.2,10,,,,,,,,,,,,,,Clear,72000.0,,,73000.0,,,,,,
KRDR,05-22-2011,11:41,SPECI,,40,3.0,,,3200.0,Mist,12.0,12.0,29.53,1001.2,10,,,,,,,,,,,,,,Clear,72000.0,,,73000.0,,,,,,
KRDR,05-22-2011,11:39,SPECI,,40,3.0,,,2000.0,Mist,12.0,12.0,29.53,1001.2,10,,,,,,,,,,,,,,Clear,72000.0,,,73000.0,,,,,,
KRDR,05-22-2011,11:36,SPECI,,40,3.0,,,1200.0,Mist,13.0,13.0,29.52,1001.2,10,,,,,,,,,,,,,,Clear,72000.0,,,73000.0,,,,,,
KRDR,05-22-2011,11:33,SPECI,,40,3.0,,,800.0,Fog,13.0,13.0,29.52,1001.1,30,,,,,,,,,,,,,,Clear,72000.0,,,73000.0,,,,,,
KRDR,05-22-2011,11:28,SPECI,,20,4.0,,,800.0,Fog,13.0,13.0,29.52,1001.0,30,,,,,,,,,,,,,,2/8 Mostly Clear,72000.0,,FEW,12000.0,,,,,,
KRDR,05-22-2011,11:27,SPECI,,20,4.0,,,1200.0,Mist,13.0,13.0,29.52,1001.0,10,,,,,,,,,,,,,,2/8 Mostly Clear,72000.0,,FEW,12000.0,,,,,,
KRDR,05-22-2011,11:25,SPECI,,20,4.0,,,1200.0,Mist,13.0,13.0,29.52,1001.0,10,,,,,,,,,,,,,,2/8 Mostly Clear,72000.0,,FEW,12000.0,,,,,,
KRDR,05-22-2011,11:23,SPECI,,20,3.0,,,1600.0,Mist,13.0,13.0,29.52,1001.0,10,,,,,,,,,,,,,,2/8 Mostly Clear,72000.0,,FEW,12000.0,,,,,,
KRDR,05-22-2011,11:21,SPECI,,20,3.0,,,2000.0,Mist,13.0,13.0,29.52,1001.0,10,,,,,,,,,,,,,,2/8 Mostly Clear,72000.0,,FEW,12000.0,,,,,,
KRDR,05-22-2011,11:19,SPECI,,,0.0,,,2800.0,Mist,13.0,13.0,29.52,1001.0,10,,,,,,,,,,,,,,2/8 Mostly Clear,72000.0,,FEW,12000.0,,,,,,
KRDR,05-22-2011,11:16,SPECI,,,0.0,,,4000.0,Mist,13.0,13.0,29.52,1001.0,10,,,,,,,,,,,,,,4/8 Partly Cloudy,72000.0,,SCT,12000.0,,,,,,
KRDR,05-22-2011,11:00,METAR,,80,3.0,,,8000.0,Mist,13.0,13.0,29.52,1001.1,10,,,,,,,,,,,,,,8/8 Overcast,12000.0,,SCT,8900.0,OVC,12000.0,,,,
KRDR,05-22-2011,10:38,SPECI,,90,4.0,,,8000.0,Mist,13.0,13.0,29.52,1001.0,10,,,,,,,,,,,,,,8/8 Overcast,9000.0,,BKN,8900.0,OVC,12000.0,,,,
KRDR,05-22-2011,09:51,SPECI,,30,5.0,,,8000.0,Mist,13.0,13.0,29.50,1000.5,10,,,,,,,,,,,,,,8/8 Overcast,10000.0,,FEW,8900.0,OVC,9900.0,,,,
KRDR,05-22-2011,09:47,SPECI,,30,5.0,,,8000.0,Mist,13.0,13.0,29.50,1000.5,10,,,,,,,,,,,,,,8/8 Overcast,11000.0,,FEW,8900.0,OVC,11000.0,,,,
KRDR,05-22-2011,09:32,SPECI,,40,3.0,,,9999.0,,13.0,13.0,29.51,1000.6,,,,,,,,,,,,,,,8/8 Overcast,11000.0,,SCT,8900.0,OVC,11000.0,,,,
KRDR,05-22-2011,09:00,METAR,,90,4.0,,,9999.0,,12.0,12.0,29.53,1001.3,,,,,,,,,,,,.02 IN,,,7/8 Mostly Cloudy,3500.0,,BKN,3600.0,BKN,9900.0,,,,
KRDR,05-22-2011,08:00,METAR,,100,9.0,,,9999.0,,13.0,13.0,29.54,1001.8,,,,,,,,,,,.01 IN,,,,8/8 Overcast,9000.0,,OVC,8900.0,,,,,,
KRDR,05-22-2011,07:08,SPECI,,,0.0,,,9999.0,,13.0,13.0,29.52,1001.2,,,,,,,,,,,,,,,8/8 Overcast,7000.0,,FEW,4600.0,BKN,6900.0,OVC,8400.0,,
KRDR,05-22-2011,07:00,METAR,,150,5.0,,,9999.0,Light Rain,14.0,14.0,29.56,1002.3,61,,,,,,,,,,.01 IN,,,,8/8 Overcast,4700.0,,SCT,3200.0,BKN,4800.0,OVC,6900.0,,
KRDR,05-22-2011,06:49,SPECI,,150,6.0,,,9999.0,Light Drizzle,14.0,14.0,29.56,1002.3,51,,,,,,,,,,,,,,8/8 Overcast,4700.0,,SCT,3200.0,BKN,4800.0,OVC,9900.0,,
KRDR,05-22-2011,06:41,SPECI,,160,7.0,,,9999.0,,14.0,14.0,29.56,1002.4,,,,,,,,,,,,,,,8/8 Overcast,3500.0,,FEW,600.0,BKN,3600.0,OVC,4400.0,,
KRDR,05-22-2011,06:10,SPECI,,170,12.0,,,9999.0,,14.0,14.0,29.56,1002.2,,,,,,,,,,,,,,,8/8 Overcast,2000.0,,FEW,400.0,BKN,2500.0,OVC,3100.0,,
KRDR,05-22-2011,06:08,SPECI,,210,10.0,,,9999.0,,14.0,14.0,29.56,1002.2,,,,,,,,,,,,,,,8/8 Overcast,1600.0,,FEW,400.0,SCT,2500.0,OVC,3100.0,,
KRDR,05-22-2011,06:06,SPECI,,,5.0,,,9999.0,,14.0,14.0,29.56,1002.2,,,,,,,,,,,,,,,8/8 Overcast,1900.0,,SCT,2500.0,OVC,3100.0,,,,
KRDR,05-22-2011,06:04,SPECI,,,4.0,,,9999.0,,14.0,14.0,29.56,1002.3,,,,,,,,,,,,,,,7/8 Mostly Cloudy,2500.0,,BKN,2900.0,BKN,3500.0,,,,
KRDR,05-22-2011,06:00,METAR,,70,5.0,,,9999.0,,14.0,14.0,29.55,1001.9,,,,,,,,,,,,,,,7/8 Mostly Cloudy,3100.0,,BKN,3200.0,,,,,,
KRDR,05-22-2011,05:32,SPECI,,80,5.0,,,9999.0,,14.0,14.0,29.55,1002.1,,,,,,,,,,,,,,,7/8 Mostly Cloudy,3400.0,,SCT,3600.0,BKN,4600.0,,,,
KRDR,05-22-2011,05:10,SPECI,,100,6.0,,,9999.0,Mist,14.0,14.0,29.56,1002.3,10,,,,,,,,,,,,,,4/8 Partly Cloudy,72000.0,,FEW,100.0,SCT,4000.0,,,,
KRDR,05-22-2011,05:03,SPECI,,100,7.0,,,6400.0,Mist,14.0,14.0,29.56,1002.5,10,,,,,,,,,,,,,,2/8 Mostly Clear,72000.0,,FEW,100.0,,,,,,
KRDR,05-22-2011,05:00,METAR,,90,6.0,,,4800.0,Mist,14.0,14.0,29.56,1002.3,10,,,,,,,,,,,,,,4/8 Partly Cloudy,72000.0,,SCT,100.0,,,,,,
KRDR,05-22-2011,04:49,SPECI,,90,6.0,,,4800.0,Mist,14.0,14.0,29.56,1002.3,10,,,,,,,,,,,,,,4/8 Partly Cloudy,72000.0,,SCT,100.0,,,,,,
KRDR,05-22-2011,04:45,SPECI,,90,5.0,,,3200.0,Mist,14.0,14.0,29.56,1002.2,10,,,,,,,,,,,,,,4/8 Partly Cloudy,72000.0,,SCT,100.0,,,,,,
KRDR,05-22-2011,04:42,SPECI,,90,6.0,,,2000.0,Mist,14.0,14.0,29.56,1002.2,10,,,,,,,,,,,,,,4/8 Partly Cloudy,72000.0,,SCT,100.0,,,,,,
KRDR,05-22-2011,04:38,SPECI,,100,5.0,,,1600.0,Mist,14.0,14.0,29.56,1002.4,10,,,,,,,,,,,,,,Sky Obscured (Unable to Estimate),100.0,100.0,,100.0,,,,,,
KRDR,05-22-2011,04:35,SPECI,,90,4.0,,,1600.0,Mist,14.0,14.0,29.56,1002.3,10,,,,,,,,,,,,,,Sky Obscured (Unable to Estimate),100.0,100.0,,100.0,,,,,,
KRDR,05-22-2011,04:34,SPECI,,80,4.0,,,1600.0,Mist,14.0,14.0,29.56,1002.3,10,,,,,,,,,,,,,,Sky Obscured (Unable to Estimate),100.0,100.0,,100.0,,,,,,
KRDR,05-22-2011,04:31,SPECI,,70,5.0,,,2000.0,Mist,14.0,14.0,29.56,1002.2,10,,,,,,,,,,,,,,2/8 Mostly Clear,72000.0,,FEW,100.0,,,,,,
KRDR,05-22-2011,04:28,SPECI,,80,5.0,,,2400.0,Mist,14.0,14.0,29.55,1002.1,10,,,,,,,,,,,,,,2/8 Mostly Clear,72000.0,,FEW,200.0,,,,,,
KRDR,05-22-2011,04:21,SPECI,,80,5.0,,,2000.0,Mist,14.0,14.0,29.56,1002.3,10,,,,,,,,,,,,,,Clear,72000.0,,,73000.0,,,,,,
KRDR,05-22-2011,04:17,SPECI,,90,6.0,,,2800.0,Mist,14.0,14.0,29.56,1002.3,10,,,,,,,,,,,,,,Clear,72000.0,,,73000.0,,,,,,
KRDR,05-22-2011,04:04,SPECI,,90,5.0,,,4000.0,Mist,14.0,14.0,29.56,1002.5,10,,,,,,,,,,,,,,Clear,72000.0,,,73000.0,,,,,,
KRDR,05-22-2011,04:00,METAR,,100,5.0,,,4800.0,Mist,14.0,14.0,29.57,1002.6,10,,,,,,,,,,,,,,Clear,72000.0,,,73000.0,,,,,,
KRDR,05-22-2011,03:15,SPECI,,110,7.0,,,8000.0,Mist,15.0,15.0,29.57,1002.8,10,,,,,,,,,,,,,,Clear,72000.0,,,73000.0,,,,,,
KRDR,05-22-2011,03:00,METAR,,110,6.0,,,9999.0,Mist,15.0,15.0,29.57,1002.6,10,,,,,,,,,,,,,,Clear,72000.0,,,73000.0,,,,,,
KRDR,05-22-2011,02:41,SPECI,,100,6.0,,,9999.0,,15.0,15.0,29.57,1002.7,,,,,,,,,,,,,,,Clear,72000.0,,,73000.0,,,,,,
KRDR,05-22-2011,02:00,METAR,,120,6.0,,,9999.0,,15.0,15.0,29.58,1002.9,,,,,,,,,,,,,,,Clear,72000.0,,,73000.0,,,,,,
KRDR,05-22-2011,01:00,METAR,,130,5.0,,,9999.0,,16.0,16.0,29.57,1002.8,,,,,,,,,,,,,,,2/8 Mostly Clear,72000.0,,FEW,7900.0,,,,,,
KRDR,05-22-2011,00:00,METAR,,120,5.0,,,9999.0,,16.0,16.0,29.57,1002.7,,,,,,,,,,,.02 IN,,.16 IN,,4/8 Partly Cloudy,72000.0,,FEW,2200.0,SCT,2900.0,,,,
KRDR,05-21-2011,23:47,SPECI,,120,5.0,,,9999.0,,17.0,17.0,29.57,1002.7,,,,,,,,,,,,,,,4/8 Partly Cloudy,72000.0,,FEW,1100.0,SCT,2200.0,SCT,2900.0,,
KRDR,05-21-2011,23:44,SPECI,,120,5.0,,,9999.0,,17.0,17.0,29.57,1002.7,,,,,,,,,,,,,,,4/8 Partly Cloudy,72000.0,,SCT,2300.0,SCT,2900.0,,,,
KRDR,05-21-2011,23:40,SPECI,,120,4.0,,,9999.0,Light Drizzle,17.0,17.0,29.57,1002.7,51,,,,,,,,,,,,,,7/8 Mostly Cloudy,4300.0,,SCT,2300.0,SCT,2900.0,BKN,4400.0,,
KRDR,05-21-2011,23:30,SPECI,,140,6.0,,,9999.0,Light Rain,16.0,16.0,29.58,1002.9,61,,,,,,,,,,,,,,8/8 Overcast,2200.0,,BKN,2200.0,OVC,5400.0,,,,
KRDR,05-21-2011,23:00,METAR,,140,6.0,,,9999.0,Light Rain/Mist,17.0,17.0,29.58,1003.0,61,10,,,,,,,,,.03 IN,,,,8/8 Overcast,7000.0,,FEW,2900.0,OVC,6900.0,,,,
KRDR,05-21-2011,22:16,SPECI,,160,6.0,,,9999.0,Light Rain,18.0,18.0,29.58,1003.1,61,,,,,,,,,,,,,,4/8 Partly Cloudy,72000.0,,FEW,9400.0,SCT,11000.0,,,,
KRDR,05-21-2011,22:00,METAR,,160,5.0,,,9999.0,,18.0,18.0,29.58,1002.9,,,,,,,,,,,TRACE,,,,7/8 Mostly Cloudy,10000.0,,FEW,2300.0,BKN,9900.0,,,,
KRDR,05-21-2011,21:21,SPECI,,160,6.0,,,9999.0,,18.0,18.0,29.58,1003.0,,,,,,,,,,,,,,,7/8 Mostly Cloudy,7000.0,,FEW,4900.0,BKN,6900.0,BKN,8900.0,,
KRDR,05-21-2011,21:00,METAR,,160,7.0,,,9999.0,Light Rain,17.0,17.0,29.58,1003.1,61,,,,,,,,,,.02 IN,.11 IN,,,8/8 Overcast,3700.0,,FEW,5000.0,BKN,6400.0,OVC,9400.0,,
KRDR,05-21-2011,20:01,SPECI,,180,11.0,,,9999.0,Light Rain,17.0,17.0,29.59,1003.2,61,,,,,,,,,,,,,,8/8 Overcast,3900.0,,SCT,1400.0,BKN,5900.0,OVC,8900.0,,
KRDR,05-21-2011,20:00,METAR,,190,10.0,,,9999.0,,17.0,17.0,29.59,1003.2,,,,,,,,,,,,,,,8/8 Overcast,3700.0,,SCT,1400.0,BKN,5900.0,OVC,8900.0,,
KRDR,05-21-2011,19:53,SPECI,,190,10.0,,,9999.0,Light Rain,17.0,17.0,29.59,1003.2,61,,,,,,,,,,,,,,8/8 Overcast,3100.0,,SCT,1200.0,BKN,5900.0,OVC,8900.0,,
KRDR,05-21-2011,19:51,SPECI,,190,12.0,,,9999.0,Light Rain,17.0,17.0,29.59,1003.2,61,,,,,,,,,,,,,,8/8 Overcast,1800.0,,SCT,1200.0,BKN,1800.0,OVC,6400.0,,
KRDR,05-21-2011,19:39,SPECI,,170,13.0,,,9999.0,Light Rain,17.0,17.0,29.59,1003.2,61,,,,,,,,,,,,,,8/8 Overcast,1400.0,,SCT,600.0,BKN,1400.0,OVC,6400.0,,
KRDR,05-21-2011,19:33,SPECI,,160,13.0,,,9999.0,Light Rain,18.0,18.0,29.59,1003.2,61,,,,,,,,,,,,,,8/8 Overcast,1500.0,,SCT,700.0,BKN,1500.0,OVC,5900.0,,
KRDR,05-21-2011,19:27,SPECI,,160,12.0,,,6400.0,Light Rain/Mist,18.0,18.0,29.59,1003.3,61,10,,,,,,,,,,,,,8/8 Overcast,1400.0,,FEW,300.0,BKN,1400.0,OVC,5400.0,,
KRDR,05-21-2011,19:24,SPECI,,150,11.0,17.0,,4800.0,Light Rain/Mist,18.0,18.0,29.59,1003.2,61,10,,,,,,,,,,,,,8/8 Overcast,900.0,,SCT,400.0,BKN,900.0,OVC,1500.0,,
KRDR,05-21-2011,19:22,SPECI,,150,13.0,17.0,,4800.0,Light Rain/Mist,18.0,18.0,29.58,1003.2,61,10,,,,,,,,,,,,,8/8 Overcast,900.0,,FEW,400.0,BKN,1000.0,OVC,1600.0,,
KRDR,05-21-2011,19:16,SPECI,,130,9.0,,,9999.0,Rain/Mist,18.0,18.0,29.59,1003.2,62,10,,,,,,,,,,,,,8/8 Overcast,1100.0,,FEW,500.0,BKN,1300.0,OVC,1900.0,,
KRDR,05-21-2011,19:09,SPECI,,120,9.0,,,9999.0,Light Rain,18.0,18.0,29.58,1003.1,61,,,,,,,,,,,,,,8/8 Overcast,1200.0,,FEW,900.0,BKN,1300.0,OVC,2100.0,,
KRDR,05-21-2011,19:02,SPECI,,110,11.0,,,9999.0,Light Rain,17.0,17.0,29.59,1003.2,61,,,,,,,,,,,,,,8/8 Overcast,1000.0,,FEW,700.0,OVC,1200.0,,,,
KRDR,05-21-2011,19:00,METAR,,110,13.0,,,9999.0,,17.0,17.0,29.58,1003.2,,,,,,,,,,,,,,,8/8 Overcast,1000.0,,SCT,700.0,OVC,1200.0,,,,
KRDR,05-21-2011,18:53,SPECI,,110,13.0,,,9999.0,,17.0,17.0,29.58,1003.1,,,,,,,,,,,,,,,8/8 Overcast,700.0,,BKN,900.0,OVC,1600.0,,,,
KRDR,05-21-2011,18:51,SPECI,,120,11.0,,,9999.0,,17.0,17.0,29.58,1003.1,,,,,,,,,,,,,,,8/8 Overcast,700.0,,OVC,1000.0,,,,,,
KRDR,05-21-2011,18:49,SPECI,,110,9.0,,,9999.0,,17.0,17.0,29.59,1003.2,,,,,,,,,,,,,,,8/8 Overcast,700.0,,BKN,800.0,OVC,1300.0,,,,
KRDR,05-21-2011,18:35,SPECI,,120,10.0,17.0,,9999.0,,17.0,17.0,29.59,1003.3,,,,,,,,,,,,,,,8/8 Overcast,600.0,,BKN,700.0,OVC,1200.0,,,,
KRDR,05-21-2011,18:31,SPECI,,110,11.0,17.0,,9999.0,,17.0,17.0,29.59,1003.3,,,,,,,,,,,,,,,8/8 Overcast,600.0,,BKN,800.0,OVC,1500.0,,,,
KRDR,05-21-2011,18:25,SPECI,,110,11.0,18.0,,9999.0,,17.0,17.0,29.59,1003.3,,,,,,,,,,,,,,,8/8 Overcast,600.0,,BKN,700.0,OVC,1200.0,,,,
KRDR,05-21-2011,18:09,SPECI,,110,9.0,,,9999.0,,17.0,17.0,29.59,1003.3,,,,,,,,,,,,,,,8/8 Overcast,400.0,,BKN,600.0,OVC,1100.0,,,,
KRDR,05-21-2011,18:06,SPECI,,110,10.0,,,9999.0,Light Drizzle/Mist,17.0,17.0,29.59,1003.4,51,10,,,,,,,,,,,,,8/8 Overcast,400.0,,BKN,600.0,OVC,1200.0,,,,
KRDR,05-21-2011,18:01,SPECI,,110,11.0,,,4800.0,Light Rain/Mist,17.0,17.0,29.59,1003.4,61,10,,,,,,,,,,,,,8/8 Overcast,400.0,,BKN,500.0,OVC,1200.0,,,,
KRDR,05-21-2011,18:00,METAR,,120,11.0,,,4000.0,Light Rain/Mist,17.0,17.0,29.60,1003.5,61,10,,,,,,,,,.03 IN,,.05 IN,,8/8 Overcast,400.0,,BKN,500.0,OVC,1100.0,,,,
KRDR,05-21-2011,17:49,SPECI,,110,13.0,,,4000.0,Light Rain/Mist,17.0,17.0,29.60,1003.5,61,10,,,,,,,,,,,,,8/8 Overcast,1100.0,,SCT,600.0,OVC,1100.0,,,,
KRDR,05-21-2011,17:29,SPECI,,110,11.0,,,9999.0,Light Rain,17.0,17.0,29.60,1003.6,61,,,,,,,,,,,,,,8/8 Overcast,900.0,,OVC,1100.0,,,,,,
KRDR,05-21-2011,17:28,SPECI,,110,11.0,,,9999.0,,17.0,17.0,29.60,1003.6,,,,,,,,,,,,,,,8/8 Overcast,900.0,,OVC,1100.0,,,,,,
KRDR,05-21-2011,17:20,SPECI,,110,12.0,,,9999.0,,17.0,17.0,29.60,1003.7,,,,,,,,,,,,,,,8/8 Overcast,1000.0,,OVC,1200.0,,,,,,
KRDR,05-21-2011,17:06,SPECI,,110,12.0,,,9999.0,Light Rain,17.0,17.0,29.60,1003.8,61,,,,,,,,,,,,,,8/8 Overcast,1100.0,,OVC,1300.0,,,,,,
KRDR,05-21-2011,17:00,METAR,,100,13.0,,,9999.0,,17.0,17.0,29.60,1003.6,,,,,,,,,,,,,,,8/8 Overcast,1100.0,,OVC,1300.0,,,,,,
KRDR,05-21-2011,16:33,SPECI,,100,11.0,,,9999.0,,17.0,17.0,29.60,1003.7,,,,,,,,,,,,,,,8/8 Overcast,1000.0,,OVC,1200.0,,,,,,
KRDR,05-21-2011,16:00,METAR,,90,16.0,,,9999.0,,17.0,17.0,29.60,1003.6,,,,,,,,,,,,,,,8/8 Overcast,1000.0,,BKN,1300.0,OVC,1800.0,,,,
KRDR,05-21-2011,15:48,SPECI,,100,14.0,24.0,,9999.0,,17.0,17.0,29.60,1003.6,,,,,,,,,,,,,,,8/8 Overcast,1000.0,,BKN,1300.0,OVC,1800.0,,,,
KRDR,05-21-2011,15:40,SPECI,,100,17.0,24.0,,9999.0,,17.0,17.0,29.60,1003.6,,,,,,,,,,,,,,,8/8 Overcast,1800.0,,SCT,1100.0,OVC,1800.0,,,,
KRDR,05-21-2011,15:14,SPECI,,100,15.0,,,9999.0,,17.0,17.0,29.61,1004.1,,,,,,,,,,,,,,,8/8 Overcast,1800.0,,FEW,1100.0,OVC,1900.0,,,,
KRDR,05-21-2011,15:00,METAR,,100,10.0,,,9999.0,,17.0,17.0,29.62,1004.4,,,,,,,,,,,,.02 IN,,,8/8 Overcast,900.0,,BKN,1200.0,OVC,2000.0,,,,
KRDR,05-21-2011,14:43,SPECI,,100,11.0,,,9999.0,,16.0,16.0,29.63,1004.5,,,,,,,,,,,,,,,8/8 Overcast,1000.0,,BKN,1200.0,OVC,1800.0,,,,
KRDR,05-21-2011,14:15,SPECI,,100,14.0,18.0,,9999.0,,16.0,16.0,29.63,1004.7,,,,,,,,,,,,,,,8/8 Overcast,700.0,,OVC,1100.0,,,,,,
KRDR,05-21-2011,14:00,METAR,,100,13.0,,,9999.0,,16.0,16.0,29.63,1004.8,,,,,,,,,,,,,,,8/8 Overcast,600.0,,OVC,900.0,,,,,,
KRDR,05-21-2011,13:11,SPECI,,100,13.0,18.0,,9999.0,,16.0,16.0,29.65,1005.4,,,,,,,,,,,,,,,8/8 Overcast,500.0,,OVC,700.0,,,,,,
KRDR,05-21-2011,13:07,SPECI,,100,14.0,,,9999.0,,16.0,16.0,29.66,1005.5,,,,,,,,,,,,,,,8/8 Overcast,500.0,,OVC,600.0,,,,,,
KRDR,05-21-2011,13:00,METAR,,100,12.0,,,8000.0,Light Rain/Mist,16.0,16.0,29.66,1005.6,61,10,,,,,,,,,.01 IN,,,,8/8 Overcast,500.0,,OVC,600.0,,,,,,
KRDR,05-21-2011,12:35,SPECI,,110,11.0,19.0,,9999.0,Light Rain/Mist,16.0,16.0,29.67,1005.8,61,10,,,,,,,,,,,,,8/8 Overcast,500.0,,BKN,600.0,OVC,1100.0,,,,
KRDR,05-21-2011,12:29,SPECI,,100,12.0,20.0,,9999.0,Light Rain/Mist,16.0,16.0,29.66,1005.7,61,10,,,,,,,,,,,,,8/8 Overcast,600.0,,BKN,700.0,BKN,1100.0,OVC,1700.0,,
KRDR,05-21-2011,12:24,SPECI,,90,13.0,20.0,,9999.0,Light Rain/Mist,16.0,16.0,29.67,1005.8,61,10,,,,,,,,,,,,,8/8 Overcast,600.0,,BKN,800.0,OVC,1700.0,,,,
KRDR,05-21-2011,12:15,SPECI,,100,12.0,,,9999.0,Light Rain,16.0,16.0,29.68,1006.2,61,,,,,,,,,,,,,,8/8 Overcast,600.0,,OVC,700.0,,,,,,
KRDR,05-21-2011,12:00,METAR,,90,12.0,20.0,,9999.0,Light Rain,16.0,16.0,29.68,1006.2,61,,,,,,,,,,.06 IN,,.2 IN,.26 IN,8/8 Overcast,600.0,,BKN,800.0,OVC,1400.0,,,,
KRDR,05-21-2011,11:40,SPECI,,100,14.0,,,9999.0,Light Rain,16.0,16.0,29.68,1006.3,61,,,,,,,,,,,,,,8/8 Overcast,600.0,,FEW,300.0,OVC,800.0,,,,
KRDR,05-21-2011,11:24,SPECI,,100,13.0,,,4800.0,Light Rain/Mist,16.0,16.0,29.68,1006.4,61,10,,,,,,,,,,,,,8/8 Overcast,300.0,,OVC,700.0,,,,,,
KRDR,05-21-2011,11:18,SPECI,,100,13.0,,,4000.0,Light Rain/Mist,16.0,16.0,29.69,1006.5,61,10,,,,,,,,,,,,,8/8 Overcast,300.0,,BKN,500.0,OVC,800.0,,,,
KRDR,05-21-2011,11:17,SPECI,,100,13.0,,,4000.0,Light Rain/Mist,16.0,16.0,29.69,1006.5,61,10,,,,,,,,,,,,,8/8 Overcast,600.0,,FEW,300.0,OVC,800.0,,,,
KRDR,05-21-2011,11:12,SPECI,,90,13.0,,,8000.0,Light Rain/Mist,16.0,16.0,29.69,1006.6,61,10,,,,,,,,,,,,,8/8 Overcast,600.0,,OVC,800.0,,,,,,
KRDR,05-21-2011,11:06,SPECI,,90,12.0,,,8000.0,Light Rain/Mist,16.0,16.0,29.69,1006.6,61,10,,,,,,,,,,,,,8/8 Overcast,600.0,,OVC,700.0,,,,,,
KRDR,05-21-2011,11:02,SPECI,,90,14.0,,,9999.0,Light Rain/Mist,16.0,16.0,29.69,1006.6,61,10,,,,,,,,,,,,,8/8 Overcast,600.0,,BKN,800.0,OVC,1200.0,,,,
KRDR,05-21-2011,11:00,METAR,,90,11.0,,,9999.0,Light Rain,16.0,16.0,29.69,1006.7,61,,,,,,,,,,.02 IN,,,,8/8 Overcast,700.0,,OVC,800.0,,,,,,
KRDR,05-21-2011,10:50,SPECI,,90,11.0,,,9999.0,Light Rain,16.0,16.0,29.69,1006.7,61,,,,,,,,,,,,,,8/8 Overcast,700.0,,OVC,800.0,,,,,,
KRDR,05-21-2011,10:18,SPECI,,90,11.0,,,9999.0,Light Rain,16.0,16.0,29.71,1007.1,61,,,,,,,,,,,,,,8/8 Overcast,800.0,,BKN,800.0,OVC,1400.0,,,,
KRDR,05-21-2011,10:13,SPECI,,90,12.0,,,9999.0,Light Rain,16.0,16.0,29.71,1007.2,61,,,,,,,,,,,,,,8/8 Overcast,700.0,,BKN,700.0,BKN,1300.0,OVC,4500.0,,
KRDR,05-21-2011,10:11,SPECI,,90,12.0,,,9999.0,Light Rain,16.0,16.0,29.71,1007.2,61,,,,,,,,,,,,,,8/8 Overcast,1100.0,,SCT,700.0,BKN,1100.0,OVC,4500.0,,
KRDR,05-21-2011,10:05,SPECI,,90,12.0,,,9999.0,Light Rain,16.0,16.0,29.71,1007.3,61,,,,,,,,,,,,,,8/8 Overcast,700.0,,BKN,700.0,BKN,1100.0,OVC,4500.0,,
KRDR,05-21-2011,10:02,SPECI,,80,12.0,,,9999.0,Light Rain,16.0,16.0,29.71,1007.3,61,,,,,,,,,,,,,,8/8 Overcast,1100.0,,FEW,700.0,BKN,1100.0,OVC,4500.0,,
KRDR,05-21-2011,09:51,SPECI,,80,12.0,,,9999.0,Light Rain/Mist,16.0,16.0,29.72,1007.5,61,10,,,,,,,,,,,,,8/8 Overcast,900.0,,FEW,400.0,BKN,900.0,OVC,4500.0,,
KRDR,05-21-2011,09:43,SPECI,,90,10.0,,,9999.0,Light Rain/Mist,16.0,16.0,29.72,1007.7,61,10,,,,,,,,,,,,,8/8 Overcast,1200.0,,FEW,400.0,SCT,800.0,OVC,1300.0,,
KRDR,05-21-2011,09:28,SPECI,,80,9.0,,,8000.0,Light Rain/Mist,16.0,16.0,29.73,1007.9,61,10,,,,,,,,,,,,,8/8 Overcast,800.0,,FEW,400.0,BKN,900.0,OVC,2900.0,,
KRDR,05-21-2011,09:20,SPECI,,90,8.0,,,9999.0,Light Rain,16.0,16.0,29.74,1008.1,61,,,,,,,,,,,,,,8/8 Overcast,700.0,,BKN,900.0,BKN,1500.0,OVC,2800.0,,
KRDR,05-21-2011,09:16,SPECI,,90,9.0,,,9999.0,Light Rain,16.0,16.0,29.74,1008.1,61,,,,,,,,,,,,,,8/8 Overcast,800.0,,BKN,1000.0,BKN,1500.0,OVC,2800.0,,
KRDR,05-21-2011,09:11,SPECI,,90,10.0,,,9999.0,Light Rain,16.0,16.0,29.74,1008.2,61,,,,,,,,,,,,,,8/8 Overcast,1500.0,,SCT,1000.0,BKN,1500.0,OVC,2800.0,,
KRDR,05-21-2011,09:09,SPECI,,90,12.0,,,9999.0,Light Rain,16.0,16.0,29.74,1008.2,61,,,,,,,,,,,,,,8/8 Overcast,1000.0,,BKN,1000.0,OVC,1700.0,,,,
KRDR,05-21-2011,09:04,SPECI,,90,8.0,,,9999.0,Light Rain,16.0,16.0,29.74,1008.3,61,,,,,,,,,,,,,,8/8 Overcast,1500.0,,SCT,1000.0,BKN,1600.0,OVC,2700.0,,
KRDR,05-21-2011,09:00,METAR,,90,7.0,,,9999.0,Light Rain,16.0,16.0,29.75,1008.5,61,,,,,,,,,,.03 IN,.06 IN,,,8/8 Overcast,1700.0,,SCT,1200.0,BKN,1700.0,OVC,2600.0,,
KRDR,05-21-2011,08:53,SPECI,,90,7.0,,,9999.0,Light Rain,16.0,16.0,29.75,1008.4,61,,,,,,,,,,,,,,8/8 Overcast,1100.0,,BKN,1400.0,BKN,1900.0,OVC,2600.0,,
KRDR,05-21-2011,08:50,SPECI,,80,8.0,,,9999.0,Light Rain,16.0,16.0,29.75,1008.5,61,,,,,,,,,,,,,,8/8 Overcast,1700.0,,SCT,1200.0,BKN,1700.0,OVC,2600.0,,
KRDR,05-21-2011,08:38,SPECI,,80,8.0,,,9999.0,Light Rain,16.0,16.0,29.75,1008.6,61,,,,,,,,,,,,,,8/8 Overcast,1900.0,,SCT,1400.0,BKN,1900.0,OVC,4000.0,,
KRDR,05-21-2011,08:25,SPECI,,80,8.0,,,9999.0,Light Drizzle,16.0,16.0,29.75,1008.7,51,,,,,,,,,,,,,,8/8 Overcast,1400.0,,BKN,1800.0,OVC,4000.0,,,,
KRDR,05-21-2011,08:14,SPECI,,80,8.0,,,9999.0,,16.0,16.0,29.76,1008.8,,,,,,,,,,,,,,,8/8 Overcast,1600.0,,FEW,300.0,OVC,1800.0,,,,
KRDR,05-21-2011,08:00,METAR,,90,10.0,,,9999.0,Light Rain/Mist,16.0,16.0,29.77,1009.2,61,10,,,,,,,,,.03 IN,,,,8/8 Overcast,1600.0,,OVC,2000.0,,,,,,
KRDR,05-21-2011,07:54,SPECI,,90,10.0,,,6400.0,Light Rain/Mist,16.0,16.0,29.77,1009.2,61,10,,,,,,,,,,,,,8/8 Overcast,1600.0,,FEW,300.0,OVC,2000.0,,,,
KRDR,05-21-2011,07:47,SPECI,,80,8.0,,,9999.0,Light Rain,16.0,16.0,29.77,1009.3,61,,,,,,,,,,,,,,8/8 Overcast,1600.0,,OVC,2100.0,,,,,,
KRDR,05-21-2011,07:27,SPECI,,70,7.0,,,9999.0,Light Rain,16.0,16.0,29.78,1009.5,61,,,,,,,,,,,,,,8/8 Overcast,2300.0,,OVC,2300.0,,,,,,
KRDR,05-21-2011,07:00,METAR,,70,6.0,,,9999.0,,16.0,16.0,29.79,1009.9,,,,,,,,,,,,,,,8/8 Overcast,2600.0,,OVC,2600.0,,,,,,
KRDR,05-21-2011,06:18,SPECI,,70,6.0,,,9999.0,,16.0,16.0,29.79,1010.1,,,,,,,,,,,,,,,8/8 Overcast,2800.0,,BKN,2800.0,OVC,3500.0,,,,
KRDR,05-21-2011,06:00,METAR,,80,6.0,,,9999.0,,16.0,16.0,29.81,1010.4,,,,,,,,,,,.02 IN,,.03 IN,,8/8 Overcast,3400.0,,OVC,3500.0,,,,,,
KRDR,05-21-2011,05:22,SPECI,,80,6.0,,,9999.0,,16.0,16.0,29.83,1011.1,,,,,,,,,,,,,,,8/8 Overcast,3300.0,,FEW,2300.0,SCT,2800.0,OVC,3400.0,,
KRDR,05-21-2011,05:08,SPECI,,120,6.0,,,9999.0,Light Rain,16.0,16.0,29.84,1011.5,61,,,,,,,,,,,,,,8/8 Overcast,3300.0,,FEW,300.0,OVC,3400.0,,,,
KRDR,05-21-2011,03:00,METAR,,120,7.0,,,9999.0,,15.0,15.0,29.88,1012.8,,,,,,,,,,,,.01 IN,,,8/8 Overcast,3000.0,,OVC,3000.0,,,,,,
KRDR,05-21-2011,02:07,SPECI,,100,10.0,,,9999.0,,15.0,15.0,29.89,1013.2,,,,,,,,,,,,,,,8/8 Overcast,3200.0,,OVC,3300.0,,,,,,
KRDR,05-21-2011,02:00,METAR,,90,12.0,,,9999.0,,15.0,15.0,29.89,1013.3,,,,,,,,,,,,,,,8/8 Overcast,3300.0,,OVC,3400.0,,,,,,
KRDR,05-21-2011,01:24,SPECI,,80,11.0,,,9999.0,,15.0,15.0,29.91,1013.8,,,,,,,,,,,,,,,8/8 Overcast,1200.0,,SCT,900.0,SCT,1600.0,OVC,3600.0,,
KRDR,05-21-2011,01:19,SPECI,,80,11.0,,,9999.0,,15.0,15.0,29.91,1013.9,,,,,,,,,,,,,,,8/8 Overcast,800.0,,SCT,900.0,BKN,1600.0,OVC,3500.0,,
KRDR,05-21-2011,01:16,SPECI,,80,12.0,,,9999.0,,15.0,15.0,29.91,1013.9,,,,,,,,,,,,,,,8/8 Overcast,900.0,,BKN,900.0,BKN,1600.0,OVC,3500.0,,
KRDR,05-21-2011,01:09,SPECI,,80,12.0,,,9999.0,,15.0,15.0,29.91,1013.9,,,,,,,,,,,,,,,8/8 Overcast,1100.0,,BKN,1100.0,BKN,1800.0,OVC,3400.0,,
KRDR,05-21-2011,01:04,SPECI,,80,12.0,,,9999.0,,15.0,15.0,29.91,1014.0,,,,,,,,,,,,,,,8/8 Overcast,2200.0,,SCT,1100.0,BKN,2500.0,OVC,3400.0,,
KRDR,05-21-2011,01:00,METAR,,80,10.0,,,9999.0,,15.0,15.0,29.92,1014.2,,,,,,,,,,,.01 IN,,,,8/8 Overcast,3200.0,,FEW,2200.0,BKN,3300.0,OVC,4000.0,,
KRDR,05-21-2011,00:38,SPECI,,80,11.0,,,9999.0,,15.0,15.0,29.92,1014.3,,,,,,,,,,,,,,,8/8 Overcast,3900.0,,FEW,2200.0,OVC,4000.0,,,,
KRDR,05-21-2011,00:09,SPECI,,90,9.0,,,9999.0,Light Rain/Mist,15.0,15.0,29.93,1014.6,61,10,,,,,,,,,,,,,8/8 Overcast,3600.0,,SCT,700.0,BKN,3700.0,OVC,4500.0,,
KRDR,05-21-2011,00:03,SPECI,,90,9.0,,,8000.0,Light Rain/Mist,15.0,15.0,29.93,1014.6,61,10,,,,,,,,,,,,,8/8 Overcast,1600.0,,SCT,700.0,BKN,1600.0,OVC,3800.0,,
KRDR,05-21-2011,00:00,METAR,,100,7.0,,,9999.0,Light Rain/Mist,15.0,15.0,29.93,1014.7,61,10,,,,,,,,,,,,,8/8 Overcast,700.0,,BKN,700.0,BKN,1400.0,OVC,2200.0,,
KRDR,05-20-2011,23:51,SPECI,,120,7.0,,,6400.0,Light Rain/Mist,15.0,15.0,29.93,1014.7,61,10,,,,,,,,,,,,,8/8 Overcast,600.0,,BKN,600.0,BKN,1500.0,OVC,3500.0,,
KRDR,05-20-2011,23:49,SPECI,,120,7.0,,,6400.0,Light Rain/Mist,15.0,15.0,29.94,1014.7,61,10,,,,,,,,,,,,,8/8 Overcast,1500.0,,SCT,600.0,BKN,1500.0,OVC,2500.0,,
KRDR,05-20-2011,23:47,SPECI,,120,7.0,,,4800.0,Light Rain/Mist,15.0,15.0,29.94,1014.8,61,10,,,,,,,,,,,,,8/8 Overcast,1000.0,,SCT,600.0,BKN,1000.0,OVC,3500.0,,
KRDR,05-20-2011,23:45,SPECI,,120,8.0,,,4800.0,Light Rain/Mist,15.0,15.0,29.94,1014.8,61,10,,,,,,,,,,,,,8/8 Overcast,1600.0,,SCT,600.0,BKN,1600.0,OVC,3500.0,,
KRDR,05-20-2011,23:43,SPECI,,120,9.0,,,4800.0,Light Rain/Mist,15.0,15.0,29.94,1014.8,61,10,,,,,,,,,,,,,8/8 Overcast,1200.0,,SCT,600.0,BKN,1200.0,OVC,3500.0,,
KRDR,05-20-2011,23:38,SPECI,,130,9.0,,,4800.0,Light Rain/Mist,15.0,15.0,29.94,1014.9,61,10,,,,,,,,,,,,,8/8 Overcast,2400.0,,SCT,600.0,BKN,2400.0,OVC,3500.0,,
KRDR,05-20-2011,23:35,SPECI,,130,8.0,,,4800.0,Light Rain/Mist,15.0,15.0,29.94,1015.0,61,10,,,,,,,,,,,,,8/8 Overcast,3500.0,,SCT,600.0,SCT,2500.0,OVC,3600.0,,
KRDR,05-20-2011,23:30,SPECI,,130,8.0,,,4000.0,Light Rain/Mist,15.0,15.0,29.94,1015.0,61,10,,,,,,,,,,,,,8/8 Overcast,3500.0,,SCT,600.0,OVC,3600.0,,,,
KRDR,05-20-2011,23:23,SPECI,,140,9.0,,,6400.0,Light Rain/Mist,15.0,15.0,29.94,1014.9,61,10,,,,,,,,,,,,,8/8 Overcast,3400.0,,FEW,600.0,BKN,3500.0,OVC,4200.0,,
KRDR,05-20-2011,23:00,METAR,,140,10.0,,,9999.0,Light Rain,16.0,16.0,29.95,1015.1,61,,,,,,,,,,TRACE,,,,8/8 Overcast,4900.0,,FEW,3600.0,SCT,4200.0,OVC,5900.0,,
KRDR,05-20-2011,22:15,SPECI,,130,12.0,,,9999.0,Light Rain,19.0,14.0,29.93,1014.7,61,,,,,,,,,,,,,,8/8 Overcast,4000.0,,BKN,4100.0,OVC,5400.0,,,,
KRDR,05-20-2011,22:00,METAR,,130,12.0,,,9999.0,,20.0,14.0,29.93,1014.4,,,,,,,,,,,,,,,8/8 Overcast,4500.0,,SCT,3800.0,BKN,4600.0,OVC,5900.0,,
KRDR,05-20-2011,21:00,METAR,,130,16.0,25.0,150/27KTS,9999.0,,20.0,11.0,29.94,1014.8,,,,,,,,,,,,,,,8/8 Overcast,6500.0,,BKN,6400.0,BKN,7900.0,OVC,9900.0,,
KRDR,05-20-2011,20:00,METAR,,160,17.0,23.0,,9999.0,,22.0,13.0,29.93,1014.5,,,,,,,,,,,,,,,8/8 Overcast,5500.0,,BKN,5400.0,OVC,6900.0,,,,
KRDR,05-20-2011,19:00,METAR,,150,13.0,19.0,,9999.0,,23.0,13.0,29.92,1014.4,,,,,,,,,,,,,,,4/8 Partly Cloudy,72000.0,,FEW,5000.0,SCT,6400.0,SCT,9900.0,,
KRDR,05-20-2011,18:00,METAR,,140,12.0,20.0,,9999.0,,23.0,12.0,29.94,1014.9,,,,,,,,,,,,,,,4/8 Partly Cloudy,72000.0,,SCT,5000.0,,,,,,
KRDR,05-20-2011,17:00,METAR,,130,11.0,,,9999.0,,22.0,13.0,29.95,1015.2,,,,,,,,,,,,,,,4/8 Partly Cloudy,72000.0,,FEW,4500.0,SCT,5900.0,,,,
KRDR,05-20-2011,16:00,METAR,,120,12.0,,,9999.0,,21.0,15.0,29.96,1015.4,,,,,,,,,,,,,,,Clear,72000.0,,,73000.0,,,,,,
KRDR,05-20-2011,15:00,METAR,,120,9.0,,,9999.0,,19.0,16.0,29.98,1016.3,,,,,,,,,,,,,,,8/8 Overcast,6000.0,,OVC,5900.0,,,,,,
KRDR,05-20-2011,14:00,METAR,,100,9.0,,,9999.0,,18.0,17.0,29.98,1016.2,,,,,,,,,,,,,,,Clear,72000.0,,,73000.0,,,,,,
KRDR,05-20-2011,13:00,METAR,,80,5.0,,,9999.0,,15.0,15.0,30.01,1017.0,,,,,,,,,,,,,,,2/8 Mostly Clear,72000.0,,FEW,5900.0,,,,,,
KRDR,05-20-2011,12:00,METAR,,60,4.0,,,9999.0,,13.0,13.0,30.01,1017.1,,,,,,,,,,,,,,,Clear,72000.0,,,73000.0,,,,,,
KRDR,05-20-2011,11:00,METAR,,80,4.0,,,9999.0,,10.0,10.0,30.02,1017.4,,,,,,,,,,,,,,,Clear,72000.0,,,73000.0,,,,,,
KRDR,05-20-2011,10:00,METAR,,80,3.0,,,9999.0,,12.0,12.0,30.02,1017.4,,,,,,,,,,,,,,,7/8 Mostly Cloudy,4800.0,,BKN,4900.0,,,,,,
KRDR,05-20-2011,09:00,METAR,,60,4.0,,,9999.0,,13.0,13.0,30.01,1017.1,,,,,,,,,,,,,,,2/8 Mostly Clear,72000.0,,FEW,5000.0,,,,,,
KRDR,05-20-2011,08:00,METAR,,80,3.0,,,9999.0,,13.0,13.0,30.03,1017.8,,,,,,,,,,,,,,,Clear,72000.0,,,73000.0,,,,,,
KRDR,05-20-2011,07:00,METAR,,,0.0,,,9999.0,,13.0,13.0,30.03,1018.0,,,,,,,,,,,,,,,Clear,72000.0,,,73000.0,,,,,,
KRDR,05-20-2011,06:00,METAR,,140,5.0,,,9999.0,,15.0,13.0,30.03,1017.9,,,,,,,,,,,,,,,Clear,72000.0,,,73000.0,,,,,,
KRDR,05-20-2011,05:00,METAR,,130,6.0,,,9999.0,,17.0,11.0,30.03,1017.7,,,,,,,,,,,,,,,4/8 Partly Cloudy,72000.0,,SCT,6900.0,,,,,,
KRDR,05-20-2011,04:00,METAR,,130,5.0,,,9999.0,,18.0,11.0,30.01,1017.2,,,,,,,,,,,,,,,4/8 Partly Cloudy,72000.0,,SCT,6900.0,,,,,,
KRDR,05-20-2011,03:00,METAR,,100,6.0,,,9999.0,,20.0,11.0,29.99,1016.6,,,,,,,,,,,,,,,7/8 Mostly Cloudy,7000.0,,BKN,6900.0,,,,,,
KRDR,05-20-2011,02:00,METAR,,80,5.0,,,9999.0,,21.0,11.0,29.98,1016.2,,,,,,,,,,,,,,,7/8 Mostly Cloudy,8000.0,,BKN,7900.0,BKN,8900.0,,,,
KRDR,05-20-2011,01:00,METAR,,90,4.0,,,9999.0,,24.0,11.0,29.98,1016.1,,,,,,,,,,,,,,,2/8 Mostly Clear,72000.0,,FEW,7900.0,,,,,,
KRDR,05-20-2011,00:00,METAR,,100,5.0,,,9999.0,,24.0,10.0,29.97,1015.9,,,,,,,,,,,,,,,Clear,72000.0,,,73000.0,,,,,,
KRDR,05-19-2011,23:00,METAR,,80,8.0,,,9999.0,,25.0,10.0,29.98,1016.3,,,,,,,,,,,,,,,2/8 Mostly Clear,72000.0,,FEW,5900.0,,,,,,
KRDR,05-19-2011,22:00,METAR,,80,11.0,,,9999.0,,24.0,10.0,29.99,1016.5,,,,,,,,,,,,,,,4/8 Partly Cloudy,72000.0,,SCT,5900.0,,,,,,
KRDR,05-19-2011,21:00,METAR,,70,8.0,,,9999.0,,24.0,10.0,30.00,1016.9,,,,,,,,,,,,,,,7/8 Mostly Cloudy,6000.0,,BKN,5900.0,,,,,,
KRDR,05-19-2011,20:00,METAR,,100,8.0,,,9999.0,,23.0,10.0,30.01,1017.1,,,,,,,,,,,,,,,8/8 Overcast,6000.0,,OVC,5900.0,,,,,,
KRDR,05-19-2011,19:00,METAR,,70,9.0,,,9999.0,,22.0,10.0,30.02,1017.4,,,,,,,,,,,,,,,8/8 Overcast,6000.0,,OVC,5900.0,,,,,,
KRDR,05-19-2011,18:00,METAR,,80,9.0,,,9999.0,,22.0,9.0,30.02,1017.5,,,,,,,,,,,,,,,4/8 Partly Cloudy,72000.0,,SCT,5000.0,,,,,,
KRDR,05-19-2011,17:00,METAR,,110,5.0,,,9999.0,,21.0,6.0,30.03,1017.9,,,,,,,,,,,,,,,4/8 Partly Cloudy,72000.0,,SCT,5000.0,,,,,,
KRDR,05-19-2011,16:00,METAR,,60,9.0,,,9999.0,,21.0,5.0,30.04,1018.1,,,,,,,,,,,,,,,Clear,72000.0,,,73000.0,,,,,,
KRDR,05-19-2011,15:00,METAR,,80,5.0,,,9999.0,,19.0,6.0,30.05,1018.6,,,,,,,,,,,,,,,Clear,72000.0,,,73000.0,,,,,,
KRDR,05-19-2011,14:00,METAR,,,0.0,,,9999.0,,16.0,7.0,30.06,1018.9,,,,,,,,,,,,,,,Clear,72000.0,,,73000.0,,,,,,
KRDR,05-19-2011,13:00,METAR,,300,4.0,,,9999.0,,12.0,11.0,30.04,1018.3,,,,,,,,,,,,,,,2/8 Mostly Clear,72000.0,,FEW,12000.0,,,,,,
KRDR,05-19-2011,12:00,METAR,,300,3.0,,,9999.0,,8.0,8.0,30.03,1017.7,,,,,,,,,,,,,,,Clear,72000.0,,,73000.0,,,,,,
KRDR,05-19-2011,11:00,METAR,,330,3.0,,,9999.0,,5.0,5.0,30.00,1016.8,,,,,,,,,,,,,,,Clear,72000.0,,,73000.0,,,,,,
KRDR,05-19-2011,10:00,METAR,,,0.0,,,9999.0,,6.0,6.0,30.01,1017.1,,,,,,,,,,,,,,,Clear,72000.0,,,73000.0,,,,,,
KRDR,05-19-2011,09:00,METAR,,,0.0,,,9999.0,,6.0,6.0,30.01,1017.2,,,,,,,,,,,,,,,Clear,72000.0,,,73000.0,,,,,,
KRDR,05-19-2011,08:00,METAR,,,0.0,,,9999.0,,7.0,7.0,30.01,1017.0,,,,,,,,,,,,,,,Clear,72000.0,,,73000.0,,,,,,
KRDR,05-19-2011,07:00,METAR,,360,3.0,,,9999.0,,9.0,9.0,30.00,1016.8,,,,,,,,,,,,,,,Clear,72000.0,,,73000.0,,,,,,
KRDR,05-19-2011,06:00,METAR,,210,4.0,,,9999.0,,10.0,8.0,29.99,1016.6,,,,,,,,,,,,,,,Clear,72000.0,,,73000.0,,,,,,
KRDR,05-19-2011,05:00,METAR,,70,4.0,,,9999.0,,14.0,3.0,29.98,1016.2,,,,,,,,,,,,,,,Clear,72000.0,,,73000.0,,,,,,
KRDR,05-19-2011,04:00,METAR,,80,5.0,,,9999.0,,14.0,4.0,29.98,1016.0,,,,,,,,,,,,,,,Clear,72000.0,,,73000.0,,,,,,
KRDR,05-19-2011,03:00,METAR,,80,5.0,,,9999.0,,16.0,4.0,29.96,1015.5,,,,,,,,,,,,,,,Clear,72000.0,,,73000.0,,,,,,
KRDR,05-19-2011,02:00,METAR,,80,5.0,,,9999.0,,18.0,3.0,29.94,1015.0,,,,,,,,,,,,,,,Clear,72000.0,,,73000.0,,,,,,
KRDR,05-19-2011,01:00,METAR,,140,6.0,,,9999.0,,21.0,3.0,29.93,1014.4,,,,,,,,,,,,,,,Clear,72000.0,,,73000.0,,,,,,
KRDR,05-19-2011,00:00,METAR,,150,10.0,,,9999.0,,22.0,1.0,29.92,1014.4,,,,,,,,,,,,,,,Clear,72000.0,,,73000.0,,,,,,
KRDR,05-18-2011,23:00,METAR,,180,6.0,,,9999.0,,22.0,2.0,29.92,1014.3,,,,,,,,,,,,,,,Clear,72000.0,,,73000.0,,,,,,
KRDR,05-18-2011,22:00,METAR,,,4.0,,,9999.0,,22.0,1.0,29.92,1014.3,,,,,,,,,,,,,,,Clear,72000.0,,,73000.0,,,,,,
KRDR,05-18-2011,21:00,METAR,,150,10.0,,,9999.0,,21.0,2.0,29.93,1014.6,,,,,,,,,,,,,,,Clear,72000.0,,,73000.0,,,,,,
KRDR,05-18-2011,20:00,METAR,,160,6.0,,,9999.0,,21.0,2.0,29.94,1014.8,,,,,,,,,,,,,,,Clear,72000.0,,,73000.0,,,,,,
KRDR,05-18-2011,19:00,METAR,,130,8.0,,,9999.0,,20.0,1.0,29.95,1015.2,,,,,,,,,,,,,,,Clear,72000.0,,,73000.0,,,,,,
KRDR,05-18-2011,18:00,METAR,,130,4.0,,,9999.0,,19.0,2.0,29.96,1015.5,,,,,,,,,,,,,,,Clear,72000.0,,,73000.0,,,,,,
KRDR,05-18-2011,17:00,METAR,,,4.0,,,9999.0,,18.0,3.0,29.98,1016.0,,,,,,,,,,,,,,,Clear,72000.0,,,73000.0,,,,,,
KRDR,05-18-2011,16:00,METAR,,110,5.0,,,9999.0,,16.0,4.0,29.98,1016.0,,,,,,,,,,,,,,,Clear,72000.0,,,73000.0,,,,,,
KRDR,05-18-2011,15:00,METAR,,110,4.0,,,9999.0,,14.0,3.0,29.98,1016.1,,,,,,,,,,,,,,,Clear,72000.0,,,73000.0,,,,,,
KRDR,05-18-2011,14:00,METAR,,160,6.0,,,9999.0,,12.0,3.0,29.98,1016.1,,,,,,,,,,,,,,,Clear,72000.0,,,73000.0,,,,,,
KRDR,05-18-2011,13:00,METAR,,110,7.0,,,9999.0,,10.0,3.0,29.98,1016.1,,,,,,,,,,,,,,,Clear,72000.0,,,73000.0,,,,,,
KRDR,05-18-2011,12:00,METAR,,90,4.0,,,9999.0,,7.0,5.0,29.98,1016.1,,,,,,,,,,,,,,,Clear,72000.0,,,73000.0,,,,,,
KRDR,05-18-2011,11:00,METAR,,80,3.0,,,9999.0,,3.0,3.0,29.97,1015.7,,,,,,,,,,,,,,,Clear,72000.0,,,73000.0,,,,,,
KRDR,05-18-2011,10:00,METAR,,,0.0,,,9999.0,,4.0,4.0,29.96,1015.6,,,,,,,,,,,,,,,Clear,72000.0,,,73000.0,,,,,,
KRDR,05-18-2011,09:00,METAR,,190,4.0,,,9999.0,,6.0,4.0,29.96,1015.4,,,,,,,,,,,,,,,Clear,72000.0,,,73000.0,,,,,,
KRDR,05-18-2011,08:00,METAR,,150,5.0,,,9999.0,,7.0,4.0,29.96,1015.6,,,,,,,,,,,,,,,Clear,72000.0,,,73000.0,,,,,,
KRDR,05-18-2011,07:00,METAR,,150,5.0,,,9999.0,,9.0,5.0,29.96,1015.4,,,,,,,,,,,,,,,Clear,72000.0,,,73000.0,,,,,,
KRDR,05-18-2011,06:00,METAR,,170,5.0,,,9999.0,,8.0,7.0,29.96,1015.5,,,,,,,,,,,,,,,Clear,72000.0,,,73000.0,,,,,,
KRDR,05-18-2011,05:00,METAR,,140,5.0,,,9999.0,,10.0,3.0,29.96,1015.4,,,,,,,,,,,,,,,Clear,72000.0,,,73000.0,,,,,,
KRDR,05-18-2011,04:00,METAR,,110,6.0,,,9999.0,,14.0,2.0,29.95,1015.2,,,,,,,,,,,,,,,Clear,72000.0,,,73000.0,,,,,,
KRDR,05-18-2011,03:00,METAR,,150,6.0,,,9999.0,,14.0,2.0,29.93,1014.6,,,,,,,,,,,,,,,Clear,72000.0,,,73000.0,,,,,,
KRDR,05-18-2011,02:00,METAR,,160,7.0,,,9999.0,,16.0,3.0,29.92,1014.1,,,,,,,,,,,,,,,Clear,72000.0,,,73000.0,,,,,,
KRDR,05-18-2011,01:00,METAR,,160,9.0,,,9999.0,,21.0,3.0,29.91,1013.9,,,,,,,,,,,,,,,Clear,72000.0,,,73000.0,,,,,,
KRDR,05-18-2011,00:00,METAR,,160,9.0,,,9999.0,,22.0,2.0,29.91,1014.0,,,,,,,,,,,,,,,Clear,72000.0,,,73000.0,,,,,,
KRDR,05-17-2011,23:00,METAR,,170,11.0,,,9999.0,,23.0,2.0,29.92,1014.2,,,,,,,,,,,,,,,Clear,72000.0,,,73000.0,,,,,,
KRDR,05-17-2011,22:00,METAR,,160,13.0,,,9999.0,,23.0,2.0,29.93,1014.4,,,,,,,,,,,,,,,Clear,72000.0,,,73000.0,,,,,,
KRDR,05-17-2011,21:00,METAR,,160,15.0,20.0,,9999.0,,23.0,4.0,29.94,1015.0,,,,,,,,,,,,,,,Clear,72000.0,,,73000.0,,,,,,
KRDR,05-17-2011,20:00,METAR,,130,12.0,23.0,,9999.0,,22.0,3.0,29.97,1015.7,,,,,,,,,,,,,,,Clear,72000.0,,,73000.0,,,,,,
KRDR,05-17-2011,19:00,METAR,,140,17.0,25.0,,9999.0,,22.0,3.0,29.99,1016.4,,,,,,,,,,,,,,,Clear,72000.0,,,73000.0,,,,,,
KRDR,05-17-2011,18:00,METAR,,140,17.0,22.0,,9999.0,,21.0,3.0,30.00,1016.9,,,,,,,,,,,,,,,Clear,72000.0,,,73000.0,,,,,,
KRDR,05-17-2011,17:00,METAR,,160,13.0,21.0,,9999.0,,20.0,3.0,30.02,1017.6,,,,,,,,,,,,,,,Clear,72000.0,,,73000.0,,,,,,
KRDR,05-17-2011,16:00,METAR,,160,12.0,,,9999.0,,19.0,3.0,30.04,1018.1,,,,,,,,,,,,,,,Clear,72000.0,,,73000.0,,,,,,
KRDR,05-17-2011,15:00,METAR,,130,10.0,,,9999.0,,17.0,5.0,30.05,1018.4,,,,,,,,,,,,,,,Clear,72000.0,,,73000.0,,,,,,
KRDR,05-17-2011,14:00,METAR,,160,6.0,,,9999.0,,13.0,7.0,30.06,1018.8,,,,,,,,,,,,,,,Clear,72000.0,,,73000.0,,,,,,
KRDR,05-17-2011,13:00,METAR,,140,7.0,,,9999.0,,10.0,7.0,30.06,1019.0,,,,,,,,,,,,,,,Clear,72000.0,,,73000.0,,,,,,
KRDR,05-17-2011,12:00,METAR,,150,3.0,,,9999.0,,5.0,5.0,30.07,1019.0,,,,,,,,,,,,,,,Clear,72000.0,,,73000.0,,,,,,
KRDR,05-17-2011,11:00,METAR,,,0.0,,,9999.0,,5.0,5.0,30.06,1018.7,,,,,,,,,,,,,,,Clear,72000.0,,,73000.0,,,,,,
KRDR,05-17-2011,10:00,METAR,,150,4.0,,,9999.0,,4.0,4.0,30.06,1018.7,,,,,,,,,,,,,,,Clear,72000.0,,,73000.0,,,,,,
KRDR,05-17-2011,09:00,METAR,,160,6.0,,,9999.0,,5.0,5.0,30.06,1019.0,,,,,,,,,,,,,,,Clear,72000.0,,,73000.0,,,,,,
KRDR,05-17-2011,08:00,METAR,,130,3.0,,,9999.0,,7.0,5.0,30.06,1018.8,,,,,,,,,,,,,,,Clear,72000.0,,,73000.0,,,,,,
KRDR,05-17-2011,07:00,METAR,,130,4.0,,,9999.0,,7.0,4.0,30.07,1019.3,,,,,,,,,,,,,,,Clear,72000.0,,,73000.0,,,,,,
KRDR,05-17-2011,06:00,METAR,,120,3.0,,,9999.0,,9.0,3.0,30.07,1019.2,,,,,,,,,,,,,,,Clear,72000.0,,,73000.0,,,,,,
KRDR,05-17-2011,05:00,METAR,,180,5.0,,,9999.0,,9.0,2.0,30.07,1019.2,,,,,,,,,,,,,,,Clear,72000.0,,,73000.0,,,,,,
KRDR,05-17-2011,04:00,METAR,,170,7.0,,,9999.0,,11.0,2.0,30.07,1019.2,,,,,,,,,,,,,,,Clear,72000.0,,,73000.0,,,,,,
KRDR,05-17-2011,03:00,METAR,,170,7.0,,,9999.0,,12.0,2.0,30.07,1019.1,,,,,,,,,,,,,,,Clear,72000.0,,,73000.0,,,,,,
KRDR,05-17-2011,02:00,METAR,,180,8.0,,,9999.0,,15.0,3.0,30.06,1019.0,,,,,,,,,,,,,,,Clear,72000.0,,,73000.0,,,,,,
KRDR,05-17-2011,01:00,METAR,,180,10.0,,,9999.0,,19.0,1.0,30.07,1019.0,,,,,,,,,,,,,,,Clear,72000.0,,,73000.0,,,,,,
KRDR,05-17-2011,00:00,METAR,,160,12.0,,,9999.0,,19.0,2.0,30.07,1019.2,,,,,,,,,,,,,,,Clear,72000.0,,,73000.0,,,,,,
KRDR,05-16-2011,23:00,METAR,,160,15.0,,,9999.0,,20.0,2.0,30.09,1019.9,,,,,,,,,,,,,,,Clear,72000.0,,,73000.0,,,,,,
KRDR,05-16-2011,22:00,METAR,,170,13.0,,,9999.0,,20.0,1.0,30.11,1020.4,,,,,,,,,,,,,,,Clear,72000.0,,,73000.0,,,,,,
KRDR,05-16-2011,21:00,METAR,,170,15.0,24.0,,9999.0,,20.0,1.0,30.13,1021.0,,,,,,,,,,,,,,,Clear,72000.0,,,73000.0,,,,,,
KRDR,05-16-2011,20:00,METAR,,170,17.0,,,9999.0,,20.0,1.0,30.15,1021.8,,,,,,,,,,,,,,,Clear,72000.0,,,73000.0,,,,,,
KRDR,05-16-2011,19:00,METAR,,170,14.0,,,9999.0,,19.0,1.0,30.17,1022.5,,,,,,,,,,,,,,,Clear,72000.0,,,73000.0,,,,,,
KRDR,05-16-2011,18:00,METAR,,140,13.0,16.0,,9999.0,,19.0,2.0,30.18,1022.8,,,,,,,,,,,,,,,Clear,72000.0,,,73000.0,,,,,,
KRDR,05-16-2011,17:00,METAR,,,0.0,,,9999.0,,18.0,3.0,30.20,1023.4,,,,,,,,,,,,,,,Clear,72000.0,,,73000.0,,,,,,
KRDR,05-16-2011,16:54,SPECI,,180,,,340/61KTS,9999.0,Squalls,18.0,3.0,30.20,1023.4,18,,,,,,,,,,,,,,Clear,72000.0,,,73000.0,,,,,,
KRDR,05-16-2011,16:00,METAR,,140,7.0,,,9999.0,,17.0,3.0,30.20,1023.4,,,,,,,,,,,,,,,Clear,72000.0,,,73000.0,,,,,,
KRDR,05-16-2011,15:00,METAR,,150,7.0,,,9999.0,,14.0,4.0,30.21,1023.7,,,,,,,,,,,,,,,Clear,72000.0,,,73000.0,,,,,,
KRDR,05-16-2011,14:00,METAR,,160,4.0,,,9999.0,,11.0,2.0,30.21,1023.8,,,,,,,,,,,,,,,Clear,72000.0,,,73000.0,,,,,,
KRDR,05-16-2011,13:00,METAR,,160,3.0,,,9999.0,,8.0,2.0,30.22,1024.0,,,,,,,,,,,,,,,Clear,72000.0,,,73000.0,,,,,,
KRDR,05-16-2011,12:00,METAR,,,0.0,,,9999.0,,3.0,3.0,30.21,1023.8,,,,,,,,,,,,,,,Clear,72000.0,,,73000.0,,,,,,
KRDR,05-16-2011,11:00,METAR,,,0.0,,,9999.0,,1.0,1.0,30.21,1023.8,,,,,,,,,,,,,,,Clear,72000.0,,,73000.0,,,,,,
KRDR,05-16-2011,10:00,METAR,,,0.0,,,9999.0,,2.0,2.0,30.21,1023.8,,,,,,,,,,,,,,,Clear,72000.0,,,73000.0,,,,,,
KRDR,05-16-2011,09:00,METAR,,,0.0,,,9999.0,,2.0,2.0,30.20,1023.4,,,,,,,,,,,,,,,Clear,72000.0,,,73000.0,,,,,,
KRDR,05-16-2011,08:00,METAR,,,0.0,,,9999.0,,3.0,3.0,30.20,1023.3,,,,,,,,,,,,,,,Clear,72000.0,,,73000.0,,,,,,
KRDR,05-16-2011,07:00,METAR,,,0.0,,,9999.0,,6.0,-1.0,30.21,1023.7,,,,,,,,,,,,,,,Clear,72000.0,,,73000.0,,,,,,
KRDR,05-16-2011,06:00,METAR,,110,6.0,,,9999.0,,8.0,-2.0,30.21,1023.7,,,,,,,,,,,,,,,Clear,72000.0,,,73000.0,,,,,,
KRDR,05-16-2011,05:00,METAR,,100,6.0,,,9999.0,,9.0,-2.0,30.21,1023.9,,,,,,,,,,,,,,,Clear,72000.0,,,73000.0,,,,,,
KRDR,05-16-2011,04:00,METAR,,100,6.0,,,9999.0,,10.0,-4.0,30.21,1023.9,,,,,,,,,,,,,,,Clear,72000.0,,,73000.0,,,,,,
KRDR,05-16-2011,03:00,METAR,,80,7.0,,,9999.0,,12.0,-4.0,30.21,1023.9,,,,,,,,,,,,,,,Clear,72000.0,,,73000.0,,,,,,
KRDR,05-16-2011,02:00,METAR,,70,7.0,,,9999.0,,14.0,-4.0,30.21,1023.8,,,,,,,,,,,,,,,Clear,72000.0,,,73000.0,,,,,,
KRDR,05-16-2011,01:00,METAR,,80,10.0,,,9999.0,,17.0,-6.0,30.21,1023.7,,,,,,,,,,,,,,,Clear,72000.0,,,73000.0,,,,,,
KRDR,05-16-2011,00:00,METAR,,60,9.0,,,9999.0,,18.0,-6.0,30.22,1024.0,,,,,,,,,,,,,,,Clear,72000.0,,,73000.0,,,,,,
KRDR,05-15-2011,23:00,METAR,,70,12.0,,,9999.0,,19.0,-4.0,30.22,1024.2,,,,,,,,,,,,,,,Clear,72000.0,,,73000.0,,,,,,
KRDR,05-15-2011,22:00,METAR,,40,13.0,,,9999.0,,19.0,-2.0,30.22,1024.2,,,,,,,,,,,,,,,Clear,72000.0,,,73000.0,,,,,,
KRDR,05-15-2011,21:00,METAR,,60,9.0,,,9999.0,,19.0,-2.0,30.24,1024.6,,,,,,,,,,,,,,,Clear,72000.0,,,73000.0,,,,,,
KRDR,05-15-2011,20:00,METAR,,40,9.0,,,9999.0,,18.0,2.0,30.26,1025.3,,,,,,,,,,,,,,,Clear,72000.0,,,73000.0,,,,,,
KRDR,05-15-2011,19:00,METAR,,50,13.0,17.0,,9999.0,,18.0,1.0,30.27,1025.9,,,,,,,,,,,,,,,Clear,72000.0,,,73000.0,,,,,,
KRDR,05-15-2011,18:00,METAR,,30,10.0,15.0,,9999.0,,17.0,2.0,30.29,1026.3,,,,,,,,,,,,,,,Clear,72000.0,,,73000.0,,,,,,
KRDR,05-15-2011,17:00,METAR,,40,8.0,,,9999.0,,16.0,3.0,30.30,1026.7,,,,,,,,,,,,,,,Clear,72000.0,,,73000.0,,,,,,
KRDR,05-15-2011,16:00,METAR,,,3.0,,,9999.0,,14.0,3.0,30.32,1027.3,,,,,,,,,,,,,,,Clear,72000.0,,,73000.0,,,,,,
KRDR,05-15-2011,15:00,METAR,,120,4.0,,,9999.0,,12.0,3.0,30.32,1027.3,,,,,,,,,,,,,,,Clear,72000.0,,,73000.0,,,,,,
KRDR,05-15-2011,14:00,METAR,,50,4.0,,,9999.0,,10.0,3.0,30.32,1027.3,,,,,,,,,,,,,,,Clear,72000.0,,,73000.0,,,,,,
KRDR,05-15-2011,13:00,METAR,,20,5.0,,,9999.0,,8.0,6.0,30.31,1027.1,,,,,,,,,,,,,,,Clear,72000.0,,,73000.0,,,,,,
KRDR,05-15-2011,12:00,METAR,,340,7.0,,,9999.0,,4.0,4.0,30.30,1026.6,,,,,,,,,,,,,,.02 IN,Clear,72000.0,,,73000.0,,,,,,
KRDR,05-15-2011,11:00,METAR,,340,6.0,,,9999.0,,3.0,3.0,30.28,1025.9,,,,,,,,,,,,,,,Clear,72000.0,,,73000.0,,,,,,
KRDR,05-15-2011,10:00,METAR,,350,6.0,,,9999.0,,3.0,3.0,30.27,1025.8,,,,,,,,,,,,,,,Clear,72000.0,,,73000.0,,,,,,
KRDR,05-15-2011,09:00,METAR,,350,7.0,,,9999.0,,4.0,4.0,30.26,1025.6,,,,,,,,,,,,,,,Clear,72000.0,,,73000.0,,,,,,
KRDR,05-15-2011,08:00,METAR,,350,7.0,,,9999.0,,4.0,4.0,30.26,1025.4,,,,,,,,,,,,,,,Clear,72000.0,,,73000.0,,,,,,
KRDR,05-15-2011,07:00,METAR,,360,7.0,,,9999.0,,5.0,5.0,30.27,1025.6,,,,,,,,,,,,,,,Clear,72000.0,,,73000.0,,,,,,
KRDR,05-15-2011,06:00,METAR,,10,7.0,,,9999.0,,4.0,4.0,30.27,1025.7,,,,,,,,,,,,,,,Clear,72000.0,,,73000.0,,,,,,
KRDR,05-15-2011,05:00,METAR,,360,7.0,,,9999.0,,5.0,5.0,30.26,1025.6,,,,,,,,,,,,,,,Clear,72000.0,,,73000.0,,,,,,
KRDR,05-15-2011,04:00,METAR,,10,6.0,,,9999.0,,6.0,3.0,30.27,1025.7,,,,,,,,,,,,,,,Clear,72000.0,,,73000.0,,,,,,
KRDR,05-15-2011,03:00,METAR,,20,5.0,,,9999.0,,8.0,1.0,30.26,1025.3,,,,,,,,,,,,,,,Clear,72000.0,,,73000.0,,,,,,
KRDR,05-15-2011,02:00,METAR,,80,7.0,,,9999.0,,12.0,-1.0,30.24,1024.8,,,,,,,,,,,,,,,Clear,72000.0,,,73000.0,,,,,,
KRDR,05-15-2011,01:00,METAR,,60,11.0,,,9999.0,,15.0,-4.0,30.23,1024.6,,,,,,,,,,,,,,,Clear,72000.0,,,73000.0,,,,,,
KRDR,05-15-2011,00:00,METAR,,60,16.0,22.0,,9999.0,,17.0,-4.0,30.22,1024.1,,,,,,,,,,,,,,,Clear,72000.0,,,73000.0,,,,,,
KRDR,05-14-2011,23:00,METAR,,70,17.0,25.0,070/26KTS,9999.0,,17.0,-4.0,30.23,1024.3,,,,,,,,,,,,,,,Clear,72000.0,,,73000.0,,,,,,
KRDR,05-14-2011,22:00,METAR,,70,15.0,21.0,070/27KTS,9999.0,,16.0,-1.0,30.23,1024.5,,,,,,,,,,,,,,,Clear,72000.0,,,73000.0,,,,,,
KRDR,05-14-2011,21:00,METAR,,70,21.0,27.0,050/27KTS,9999.0,,16.0,-1.0,30.24,1024.9,,,,,,,,,,,,,,,Clear,72000.0,,,73000.0,,,,,,
KRDR,05-14-2011,20:10,SPECI,,80,14.0,21.0,,9999.0,,16.0,-2.0,30.25,,,,,,,,,,,,,,,,Clear,72000.0,,,73000.0,,,,,,
KRDR,05-14-2011,20:00,METAR,,70,14.0,21.0,070/26KTS,9999.0,,16.0,-3.0,30.26,1025.5,,,,,,,,,,,,,,,Clear,72000.0,,,73000.0,,,,,,
KRDR,05-14-2011,19:00,METAR,,50,22.0,27.0,050/27KTS,9999.0,,14.0,-2.0,30.27,1025.6,,,,,,,,,,,,,,,Clear,72000.0,,,73000.0,,,,,,
KRDR,05-14-2011,18:00,METAR,,50,19.0,25.0,080/26KTS,9999.0,,14.0,3.0,30.27,1025.9,,,,,,,,,,,,,.02 IN,,Clear,72000.0,,,73000.0,,,,,,
KRDR,05-14-2011,17:00,METAR,,50,15.0,,,9999.0,,11.0,5.0,30.29,1026.3,,,,,,,,,,,,,,,4/8 Partly Cloudy,72000.0,,SCT,3700.0,,,,,,
KRDR,05-14-2011,16:00,METAR,,50,17.0,22.0,,9999.0,,10.0,5.0,30.30,1026.7,,,,,,,,,,,,,,,2/8 Mostly Clear,72000.0,,FEW,3100.0,,,,,,
KRDR,05-14-2011,15:00,METAR,,30,11.0,,,9999.0,,7.0,7.0,30.29,1026.5,,,,,,,,,,,,.02 IN,,,8/8 Overcast,8000.0,,SCT,4100.0,OVC,7900.0,,,,
KRDR,05-14-2011,14:00,METAR,,10,10.0,,,9999.0,,5.0,5.0,30.30,1026.6,,,,,,,,,,,.01 IN,,,,8/8 Overcast,3800.0,,OVC,3900.0,,,,,,
KRDR,05-14-2011,13:00,METAR,,20,11.0,,,9999.0,Rain,5.0,5.0,30.28,1026.2,,,,61,,,,,,,.01 IN,,,,8/8 Overcast,3500.0,,SCT,2600.0,BKN,3600.0,OVC,4300.0,,
KRDR,05-14-2011,12:39,SPECI,,20,10.0,,,9999.0,Rain,5.0,5.0,30.28,1026.2,,,,61,,,,,,,,,,,8/8 Overcast,3400.0,,SCT,2200.0,BKN,3500.0,OVC,4300.0,,
KRDR,05-14-2011,12:27,SPECI,,20,9.0,,,9999.0,Rain,5.0,5.0,30.28,1026.0,,,,61,,,,,,,,,,,8/8 Overcast,2900.0,,BKN,2900.0,OVC,3500.0,,,,
KRDR,05-14-2011,12:00,METAR,,30,11.0,,,9999.0,Rain,5.0,5.0,30.28,1025.9,,,,61,,,,,,,.03 IN,,.07 IN,.26 IN,8/8 Overcast,3100.0,,OVC,3200.0,,,,,,
KRDR,05-14-2011,11:00,METAR,,30,12.0,,,9999.0,Rain,6.0,6.0,30.25,1025.0,,,,61,,,,,,,TRACE,,,,8/8 Overcast,3500.0,,BKN,3600.0,OVC,4700.0,,,,
KRDR,05-14-2011,10:00,METAR,,30,14.0,,,9999.0,,6.0,6.0,30.23,1024.3,,,,,,,,,,,.01 IN,,,,8/8 Overcast,4700.0,,OVC,4800.0,,,,,,
KRDR,05-14-2011,09:00,METAR,,30,13.0,,,9999.0,,6.0,6.0,30.21,,,,,,,,,,,,,.03 IN,,,8/8 Overcast,4900.0,,OVC,5000.0,,,,,,
KRDR,05-14-2011,08:00,METAR,,30,12.0,,,9999.0,,6.0,6.0,30.21,1023.9,,,,,,,,,,,TRACE,,,,8/8 Overcast,4400.0,,OVC,4500.0,,,,,,
KRDR,05-14-2011,07:00,METAR,,10,12.0,,,9999.0,Rain,6.0,6.0,30.23,1024.3,,,,61,,,,,,,.03 IN,,,,8/8 Overcast,3500.0,,SCT,2100.0,OVC,3600.0,,,,
KRDR,05-14-2011,06:00,METAR,,30,11.0,,,9999.0,Rain/Mist,5.0,5.0,30.23,1024.5,,,,61,10,,,,,,.07 IN,,.17 IN,,8/8 Overcast,300.0,,OVC,400.0,,,,,,
KRDR,05-14-2011,05:00,METAR,,20,10.0,,,9999.0,Rain,5.0,5.0,30.23,1024.4,,,,61,,,,,,,.03 IN,,,,8/8 Overcast,600.0,,BKN,600.0,OVC,1200.0,,,,
KRDR,05-14-2011,04:00,METAR,,30,10.0,,,9999.0,Rain,4.0,4.0,30.24,1024.7,,,,61,,,,,,,.04 IN,,,,8/8 Overcast,700.0,,SCT,700.0,BKN,1200.0,OVC,2100.0,,
KRDR,05-14-2011,03:00,METAR,,30,11.0,,,9999.0,Rain,4.0,4.0,30.23,1024.6,,,,61,,,,,,,.02 IN,.03 IN,,,8/8 Overcast,700.0,,OVC,800.0,,,,,,
KRDR,05-14-2011,02:00,METAR,,30,12.0,,,9999.0,Drizzle,4.0,4.0,30.22,1024.1,,,,51,,,,,,,.01 IN,,,,8/8 Overcast,1200.0,,BKN,1200.0,OVC,1700.0,,,,
KRDR,05-14-2011,01:08,SPECI,,30,14.0,,,9999.0,Light Rain,4.0,4.0,30.21,1023.8,61,,,,,,,,,,,,,,8/8 Overcast,1400.0,,BKN,1400.0,OVC,2200.0,,,,
KRDR,05-14-2011,01:00,METAR,,20,16.0,23.0,,9999.0,Light Rain,5.0,5.0,30.20,1023.6,61,,,,,,,,,,TRACE,,,,8/8 Overcast,1800.0,,FEW,900.0,BKN,1800.0,OVC,2400.0,,
KRDR,05-14-2011,00:06,SPECI,,20,17.0,23.0,,9999.0,,5.0,5.0,30.20,1023.3,,,,,,,,,,,,,,,8/8 Overcast,1700.0,,OVC,2100.0,,,,,,
KRDR,05-14-2011,00:00,METAR,,20,13.0,22.0,,9999.0,,5.0,5.0,30.19,1023.3,,,,,,,,,,,TRACE,,.01 IN,,8/8 Overcast,1600.0,,OVC,1800.0,,,,,,
