Platform Id,Date,Time (UTC),Report Type,Wind Condition,Wind Direction,Wind Speed (Knots),Wind Gust Speed,Peak Wind (Knots),Visibility (M),Weather,Air Temp (C),Dew Point (C),Altimeter (inHg),SLP (Millibars),Present Automated 1,Present Automated 2,Present Automated 3,Present Manual 1,Present Manual 2,Present Manual 3,Present Manual 4,Present Manual 5,Present Manual 6,Present Manual 7,Precip Hr1,Precip Hr3,Precip Hr6,Precip Hr24,Cloud Cover,Cloud Ceiling (Feet),Lowest Cloud Base Height (Feet),Cloud Cover1,Cloudbase 1,Cloud Cover2,Cloudbase 2,Cloud Cover3,Cloudbase 3,Cloud Cover4,Cloudbase 4
KRDR,11-18-2009,23:00,METAR,,150,9.0,,,9999.0,,5.0,-3.0,29.95,1015.2,,,,,,,,,,,,,,,Clear,72000.0,,,73000.0,,,,,,
KRDR,11-18-2009,22:00,METAR,,150,9.0,,,9999.0,,8.0,-4.0,29.95,1015.3,,,,,,,,,,,,,,,2/8 Mostly Clear,72000.0,,FEW,20000.0,,,,,,
KRDR,11-18-2009,21:00,METAR,,160,10.0,,,9999.0,,8.0,-4.0,29.96,1015.6,,,,,,,,,,,,,,,2/8 Mostly Clear,72000.0,,FEW,20000.0,,,,,,
KRDR,11-18-2009,20:00,METAR,,160,13.0,,,9999.0,,8.0,-2.0,29.97,1015.9,,,,,,,,,,,,,,,Clear,72000.0,,,73000.0,,,,,,
KRDR,11-18-2009,19:00,METAR,,170,12.0,,,9999.0,,6.0,-2.0,29.99,1016.4,,,,,,,,,,,,,,,Clear,72000.0,,,73000.0,,,,,,
KRDR,11-18-2009,18:00,METAR,,170,13.0,,,9999.0,,5.0,-2.0,30.01,1017.0,,,,,,,,,,,,,,,Clear,72000.0,,,73000.0,,,,,,
KRDR,11-18-2009,17:00,METAR,,180,15.0,,,9999.0,,3.0,-3.0,30.02,1017.6,,,,,,,,,,,,,,,Clear,72000.0,,,73000.0,,,,,,
KRDR,11-18-2009,16:00,METAR,,180,13.0,,,9999.0,,1.0,-3.0,30.02,1017.4,,,,,,,,,,,,,,,Clear,72000.0,,,73000.0,,,,,,
KRDR,11-18-2009,15:23,SPECI,,170,14.0,,,9999.0,,0.0,-4.0,30.02,,,,,,,,,,,,,,,,Clear,72000.0,,,73000.0,,,,,,
KRDR,11-18-2009,15:00,METAR,,170,10.0,,,9999.0,,-2.0,-4.0,30.02,1017.4,,,,,,,,,,,,,,,Clear,72000.0,,,73000.0,,,,,,
KRDR,11-18-2009,14:00,METAR,,160,9.0,,,9999.0,,-5.0,-6.0,30.01,1017.3,,,,,,,,,,,,,,,Clear,72000.0,,,73000.0,,,,,,
KRDR,11-18-2009,13:00,METAR,,170,9.0,,,9999.0,,-3.0,-5.0,30.01,1017.3,,,,,,,,,,,,,,,Clear,72000.0,,,73000.0,,,,,,
KRDR,11-18-2009,12:00,METAR,,170,7.0,,,9999.0,,-3.0,-5.0,30.03,1017.7,,,,,,,,,,,,,,,Clear,72000.0,,,73000.0,,,,,,
KRDR,11-18-2009,11:00,METAR,,170,9.0,,,9999.0,,-2.0,-5.0,30.03,1017.9,,,,,,,,,,,,,,,Clear,72000.0,,,73000.0,,,,,,
KRDR,11-18-2009,10:00,METAR,,170,11.0,,,9999.0,,-1.0,-4.0,30.03,1017.8,,,,,,,,,,,,,,,Clear,72000.0,,,73000.0,,,,,,
KRDR,11-18-2009,09:00,METAR,,170,10.0,,,9999.0,,-2.0,-4.0,30.04,1018.2,,,,,,,,,,,,,,,Clear,72000.0,,,73000.0,,,,,,
KRDR,11-18-2009,08:00,METAR,,170,10.0,,,9999.0,,-1.0,-4.0,30.04,1018.1,,,,,,,,,,,,,,,Clear,72000.0,,,73000.0,,,,,,
KRDR,11-18-2009,07:00,METAR,,170,10.0,,,9999.0,,-1.0,-3.0,30.04,1018.2,,,,,,,,,,,,,,,Clear,72000.0,,,73000.0,,,,,,
KRDR,11-18-2009,06:00,METAR,,170,10.0,,,9999.0,,0.0,-3.0,30.04,1018.3,,,,,,,,,,,,,,,Clear,72000.0,,,73000.0,,,,,,
KRDR,11-18-2009,05:00,METAR,,180,10.0,,,9999.0,,0.0,-3.0,30.04,1018.0,,,,,,,,,,,,,,,Clear,72000.0,,,73000.0,,,,,,
KRDR,11-18-2009,04:00,METAR,,170,11.0,,,9999.0,,1.0,-2.0,30.04,1018.2,,,,,,,,,,,,,,,Clear,72000.0,,,73000.0,,,,,,
KRDR,11-18-2009,03:00,METAR,,180,10.0,,,9999.0,,2.0,-2.0,30.05,1018.5,,,,,,,,,,,,,,,Clear,72000.0,,,73000.0,,,,,,
KRDR,11-18-2009,02:00,METAR,,170,13.0,,,9999.0,,3.0,-1.0,30.05,1018.5,,,,,,,,,,,,,,,Clear,72000.0,,,73000.0,,,,,,
KRDR,11-18-2009,01:00,METAR,,170,10.0,,,9999.0,,2.0,-2.0,30.05,1018.3,,,,,,,,,,,,,,,Clear,72000.0,,,73000.0,,,,,,
KRDR,11-18-2009,00:00,METAR,,160,11.0,,,9999.0,,2.0,-3.0,30.06,1018.9,,,,,,,,,,,,,,,Clear,72000.0,,,73000.0,,,,,,
KRDR,11-17-2009,23:00,METAR,,170,14.0,,,9999.0,,6.0,-2.0,30.06,1018.8,,,,,,,,,,,,,,,Clear,72000.0,,,73000.0,,,,,,
KRDR,11-17-2009,22:00,METAR,,180,16.0,,,9999.0,,9.0,-3.0,30.07,1019.0,,,,,,,,,,,,,,,4/8 Partly Cloudy,72000.0,,SCT,22000.0,,,,,,
KRDR,11-17-2009,21:00,METAR,,180,18.0,,,9999.0,,10.0,-4.0,30.07,1019.1,,,,,,,,,,,,,,,Clear,72000.0,,,73000.0,,,,,,
KRDR,11-17-2009,20:00,METAR,,190,17.0,,,9999.0,,9.0,-4.0,30.08,1019.5,,,,,,,,,,,,,,,Clear,72000.0,,,73000.0,,,,,,
KRDR,11-17-2009,19:00,METAR,,180,12.0,,,9999.0,,9.0,-3.0,30.10,1020.0,,,,,,,,,,,,,,,Clear,72000.0,,,73000.0,,,,,,
KRDR,11-17-2009,18:00,METAR,,180,17.0,,,9999.0,,7.0,-5.0,30.11,1020.6,,,,,,,,,,,,,,,Clear,72000.0,,,73000.0,,,,,,
KRDR,11-17-2009,17:00,METAR,,190,13.0,,,9999.0,,5.0,-4.0,30.13,1021.1,,,,,,,,,,,,,,,Clear,72000.0,,,73000.0,,,,,,
KRDR,11-17-2009,16:00,METAR,,200,11.0,,,9999.0,,3.0,-5.0,30.12,1020.9,,,,,,,,,,,,,,,Clear,72000.0,,,73000.0,,,,,,
KRDR,11-17-2009,15:00,METAR,,180,11.0,,,9999.0,,0.0,-5.0,30.13,1021.2,,,,,,,,,,,,,,,Clear,72000.0,,,73000.0,,,,,,
KRDR,11-17-2009,14:00,METAR,,190,7.0,,,9999.0,,-2.0,-6.0,30.15,1021.6,,,,,,,,,,,,,,,Clear,72000.0,,,73000.0,,,,,,
KRDR,11-17-2009,13:00,METAR,,170,8.0,,,9999.0,,-2.0,-6.0,30.15,1021.7,,,,,,,,,,,,,,,Clear,72000.0,,,73000.0,,,,,,
KRDR,11-17-2009,12:00,METAR,,170,8.0,,,9999.0,,-2.0,-6.0,30.15,1021.9,,,,,,,,,,,,,,,Clear,72000.0,,,73000.0,,,,,,
KRDR,11-17-2009,11:00,METAR,,170,9.0,,,9999.0,,-3.0,-6.0,30.16,1022.0,,,,,,,,,,,,,,,Clear,72000.0,,,73000.0,,,,,,
KRDR,11-17-2009,10:00,METAR,,160,9.0,,,9999.0,,-4.0,-7.0,30.18,1022.6,,,,,,,,,,,,,,,Clear,72000.0,,,73000.0,,,,,,
KRDR,11-17-2009,09:00,METAR,,,0.0,,,9999.0,,-1.0,-5.0,30.17,1022.5,,,,,,,,,,,,,,,Clear,72000.0,,,73000.0,,,,,,
KRDR,11-17-2009,08:00,METAR,,180,11.0,,,9999.0,,0.0,-5.0,30.16,1022.1,,,,,,,,,,,,,,,Clear,72000.0,,,73000.0,,,,,,
KRDR,11-17-2009,07:00,METAR,,190,8.0,,,9999.0,,-1.0,-5.0,30.17,1022.5,,,,,,,,,,,,,,,Clear,72000.0,,,73000.0,,,,,,
KRDR,11-17-2009,06:00,METAR,,190,10.0,,,9999.0,,0.0,-5.0,30.18,1022.8,,,,,,,,,,,,,,,Clear,72000.0,,,73000.0,,,,,,
KRDR,11-17-2009,05:00,METAR,,180,10.0,,,9999.0,,0.0,-4.0,30.18,1022.7,,,,,,,,,,,,,,,Clear,72000.0,,,73000.0,,,,,,
KRDR,11-17-2009,04:00,METAR,,190,8.0,,,9999.0,,0.0,-5.0,30.18,1022.7,,,,,,,,,,,,,,,Clear,72000.0,,,73000.0,,,,,,
KRDR,11-17-2009,03:00,METAR,,190,7.0,,,9999.0,,1.0,-5.0,30.18,1022.7,,,,,,,,,,,,,,,Clear,72000.0,,,73000.0,,,,,,
KRDR,11-17-2009,02:00,METAR,,180,10.0,,,9999.0,,2.0,-4.0,30.17,1022.5,,,,,,,,,,,,,,,Clear,72000.0,,,73000.0,,,,,,
KRDR,11-17-2009,01:00,METAR,,170,8.0,,,9999.0,,0.0,-5.0,30.18,1022.6,,,,,,,,,,,,,,,Clear,72000.0,,,73000.0,,,,,,
KRDR,11-17-2009,00:00,METAR,,150,8.0,,,9999.0,,2.0,-5.0,30.18,1022.7,,,,,,,,,,,,,,,2/8 Mostly Clear,72000.0,,FEW,25000.0,,,,,,
KRDR,11-16-2009,23:00,METAR,,180,8.0,,,9999.0,,5.0,-5.0,30.19,1023.0,,,,,,,,,,,,,,,2/8 Mostly Clear,72000.0,,FEW,25000.0,,,,,,
KRDR,11-16-2009,22:00,METAR,,190,12.0,,,9999.0,,10.0,-6.0,30.19,1023.0,,,,,,,,,,,,,,,2/8 Mostly Clear,72000.0,,FEW,25000.0,,,,,,
KRDR,11-16-2009,21:00,METAR,,190,14.0,,,9999.0,,11.0,-5.0,30.19,1023.0,,,,,,,,,,,,,,,2/8 Mostly Clear,72000.0,,FEW,25000.0,,,,,,
KRDR,11-16-2009,20:00,METAR,,180,15.0,,,9999.0,,11.0,-5.0,30.20,1023.3,,,,,,,,,,,,,,,2/8 Mostly Clear,72000.0,,FEW,25000.0,,,,,,
KRDR,11-16-2009,19:00,METAR,,200,13.0,,,9999.0,,10.0,-3.0,30.21,1023.8,,,,,,,,,,,,,,,Clear,72000.0,,,73000.0,,,,,,
KRDR,11-16-2009,18:00,METAR,,210,11.0,,,9999.0,,8.0,-3.0,30.23,1024.3,,,,,,,,,,,,,,,Clear,72000.0,,,73000.0,,,,,,
KRDR,11-16-2009,17:00,METAR,,210,8.0,,,9999.0,,6.0,-3.0,30.24,1024.8,,,,,,,,,,,,,,,Clear,72000.0,,,73000.0,,,,,,
KRDR,11-16-2009,16:00,METAR,,210,6.0,,,9999.0,,3.0,-4.0,30.24,1024.7,,,,,,,,,,,,,,,Clear,72000.0,,,73000.0,,,,,,
KRDR,11-16-2009,15:00,METAR,,220,6.0,,,9999.0,,-1.0,-5.0,30.24,1024.7,,,,,,,,,,,,,,,Clear,72000.0,,,73000.0,,,,,,
KRDR,11-16-2009,14:00,METAR,,210,6.0,,,9999.0,,-5.0,-7.0,30.24,1024.7,,,,,,,,,,,,,,,Clear,72000.0,,,73000.0,,,,,,
KRDR,11-16-2009,13:00,METAR,,190,4.0,,,9999.0,,-6.0,-8.0,30.23,1024.6,,,,,,,,,,,,,,,Clear,72000.0,,,73000.0,,,,,,
KRDR,11-16-2009,12:00,METAR,,210,5.0,,,9999.0,,-5.0,-7.0,30.23,1024.4,,,,,,,,,,,,,,,Clear,72000.0,,,73000.0,,,,,,
KRDR,11-16-2009,11:00,METAR,,230,4.0,,,9999.0,,-4.0,-7.0,30.23,1024.4,,,,,,,,,,,,,,,Clear,72000.0,,,73000.0,,,,,,
KRDR,11-16-2009,10:00,METAR,,210,3.0,,,9999.0,,-5.0,-7.0,30.23,1024.4,,,,,,,,,,,,,,,Clear,72000.0,,,73000.0,,,,,,
KRDR,11-16-2009,09:00,METAR,,250,8.0,,,9999.0,,-4.0,-7.0,30.23,1024.4,,,,,,,,,,,,,,,Clear,72000.0,,,73000.0,,,,,,
KRDR,11-16-2009,08:00,METAR,,250,6.0,,,9999.0,,-5.0,-7.0,30.23,1024.5,,,,,,,,,,,,,,,Clear,72000.0,,,73000.0,,,,,,
KRDR,11-16-2009,07:00,METAR,,240,5.0,,,9999.0,,-4.0,-7.0,30.22,1024.2,,,,,,,,,,,,,,,Clear,72000.0,,,73000.0,,,,,,
KRDR,11-16-2009,06:00,METAR,,230,4.0,,,9999.0,,-5.0,-7.0,30.23,1024.3,,,,,,,,,,,,,,,Clear,72000.0,,,73000.0,,,,,,
KRDR,11-16-2009,05:00,METAR,,260,4.0,,,9999.0,,-5.0,-7.0,30.23,1024.4,,,,,,,,,,,,,,,Clear,72000.0,,,73000.0,,,,,,
KRDR,11-16-2009,04:00,METAR,,240,6.0,,,9999.0,,-4.0,-6.0,30.23,1024.3,,,,,,,,,,,,,,,Clear,72000.0,,,73000.0,,,,,,
KRDR,11-16-2009,03:00,METAR,,240,6.0,,,9999.0,,-4.0,-6.0,30.22,1023.9,,,,,,,,,,,,,,,Clear,72000.0,,,73000.0,,,,,,
KRDR,11-16-2009,02:00,METAR,,260,7.0,,,9999.0,,-4.0,-6.0,30.22,1024.0,,,,,,,,,,,,,,,Clear,72000.0,,,73000.0,,,,,,
KRDR,11-16-2009,01:00,METAR,,250,6.0,,,9999.0,,-4.0,-7.0,30.21,1023.9,,,,,,,,,,,,,,,Clear,72000.0,,,73000.0,,,,,,
KRDR,11-16-2009,00:00,METAR,,250,3.0,,,9999.0,,-3.0,-7.0,30.20,1023.3,,,,,,,,,,,,,,,Clear,72000.0,,,73000.0,,,,,,
KRDR,11-15-2009,23:00,METAR,,270,3.0,,,9999.0,,1.0,-6.0,30.17,1022.6,,,,,,,,,,,,,,,Clear,72000.0,,,73000.0,,,,,,
KRDR,11-15-2009,22:00,METAR,,310,4.0,,,9999.0,,6.0,-6.0,30.15,1021.7,,,,,,,,,,,,,,,Clear,72000.0,,,73000.0,,,,,,
KRDR,11-15-2009,21:00,METAR,,290,6.0,,,9999.0,,6.0,-5.0,30.14,1021.4,,,,,,,,,,,,,,,Clear,72000.0,,,73000.0,,,,,,
KRDR,11-15-2009,20:00,METAR,,290,9.0,,,9999.0,,6.0,-5.0,30.14,1021.6,,,,,,,,,,,,,,,Clear,72000.0,,,73000.0,,,,,,
KRDR,11-15-2009,19:00,METAR,,290,9.0,,,9999.0,,5.0,-4.0,30.15,1021.8,,,,,,,,,,,,,,,Clear,72000.0,,,73000.0,,,,,,
KRDR,11-15-2009,18:00,METAR,,290,10.0,,,9999.0,,4.0,-4.0,30.15,1021.9,,,,,,,,,,,,,,,Clear,72000.0,,,73000.0,,,,,,
KRDR,11-15-2009,17:00,METAR,,270,10.0,,,9999.0,,3.0,-3.0,30.15,1021.7,,,,,,,,,,,,,,,Clear,72000.0,,,73000.0,,,,,,
KRDR,11-15-2009,16:00,METAR,,270,6.0,,,9999.0,,0.0,-4.0,30.12,1020.8,,,,,,,,,,,,,,,Clear,72000.0,,,73000.0,,,,,,
KRDR,11-15-2009,15:00,METAR,,260,6.0,,,9999.0,,-2.0,-5.0,30.10,1020.1,,,,,,,,,,,,,,,Clear,72000.0,,,73000.0,,,,,,
KRDR,11-15-2009,14:00,METAR,,250,7.0,,,9999.0,,-4.0,-6.0,30.08,1019.4,,,,,,,,,,,,,,,Clear,72000.0,,,73000.0,,,,,,
KRDR,11-15-2009,13:00,METAR,,230,6.0,,,9999.0,,-4.0,-6.0,30.06,1018.7,,,,,,,,,,,,,,,Clear,72000.0,,,73000.0,,,,,,
KRDR,11-15-2009,12:00,METAR,,250,8.0,,,9999.0,,-5.0,-6.0,30.05,1018.4,,,,,,,,,,,,,,,Clear,72000.0,,,73000.0,,,,,,
KRDR,11-15-2009,11:00,METAR,,250,7.0,,,9999.0,,-4.0,-5.0,30.04,1018.0,,,,,,,,,,,,,,,Clear,72000.0,,,73000.0,,,,,,
KRDR,11-15-2009,10:00,METAR,,240,8.0,,,9999.0,,-3.0,-5.0,30.03,1017.9,,,,,,,,,,,,,,,Clear,72000.0,,,73000.0,,,,,,
KRDR,11-15-2009,09:00,METAR,,240,6.0,,,9999.0,,-3.0,-5.0,30.04,1018.2,,,,,,,,,,,,,,,Clear,72000.0,,,73000.0,,,,,,
KRDR,11-15-2009,08:00,METAR,,230,7.0,,,9999.0,,-3.0,-6.0,30.03,1017.9,,,,,,,,,,,,,,,Clear,72000.0,,,73000.0,,,,,,
KRDR,11-15-2009,07:00,METAR,,230,5.0,,,9999.0,,-4.0,-6.0,30.02,1017.5,,,,,,,,,,,,,,,Clear,72000.0,,,73000.0,,,,,,
KRDR,11-15-2009,06:00,METAR,,240,6.0,,,9999.0,,-3.0,-6.0,30.01,1017.2,,,,,,,,,,,,,,,Clear,72000.0,,,73000.0,,,,,,
KRDR,11-15-2009,05:00,METAR,,230,6.0,,,9999.0,,-3.0,-6.0,30.00,1016.9,,,,,,,,,,,,,,,Clear,72000.0,,,73000.0,,,,,,
KRDR,11-15-2009,04:00,METAR,,230,6.0,,,9999.0,,-3.0,-6.0,30.00,1016.7,,,,,,,,,,,,,,,Clear,72000.0,,,73000.0,,,,,,
KRDR,11-15-2009,03:00,METAR,,240,4.0,,,9999.0,,-4.0,-6.0,29.98,1016.3,,,,,,,,,,,,,,,Clear,72000.0,,,73000.0,,,,,,
KRDR,11-15-2009,02:00,METAR,,230,4.0,,,9999.0,,-3.0,-6.0,29.97,1015.9,,,,,,,,,,,,,,,Clear,72000.0,,,73000.0,,,,,,
KRDR,11-15-2009,01:00,METAR,,240,4.0,,,9999.0,,-2.0,-6.0,29.97,1015.9,,,,,,,,,,,,,,,Clear,72000.0,,,73000.0,,,,,,
KRDR,11-15-2009,00:00,METAR,,260,4.0,,,9999.0,,-1.0,-6.0,29.97,1015.8,,,,,,,,,,,,,,,Clear,72000.0,,,73000.0,,,,,,
KRDR,11-14-2009,23:00,METAR,,280,5.0,,,9999.0,,3.0,-5.0,29.95,1015.3,,,,,,,,,,,,,,,Clear,72000.0,,,73000.0,,,,,,
KRDR,11-14-2009,22:00,METAR,,300,7.0,,,9999.0,,7.0,-6.0,29.94,1015.0,,,,,,,,,,,,,,,Clear,72000.0,,,73000.0,,,,,,
KRDR,11-14-2009,15:00,METAR,,320,5.0,,,9999.0,,-2.0,-4.0,29.90,1013.7,,,,,,,,,,,,,,,2/8 Mostly Clear,72000.0,,FEW,12000.0,,,,,,
KRDR,11-14-2009,14:00,METAR,,310,3.0,,,9999.0,,-2.0,-4.0,29.88,1012.8,,,,,,,,,,,,,,,4/8 Partly Cloudy,72000.0,,SCT,11000.0,,,,,,
KRDR,11-14-2009,13:00,METAR,,,0.0,,,9999.0,,-2.0,-4.0,29.86,1012.2,,,,,,,,,,,,,,,8/8 Overcast,11000.0,,OVC,11000.0,,,,,,
KRDR,11-14-2009,12:00,METAR,,340,3.0,,,9999.0,,-1.0,-3.0,29.84,1011.6,,,,,,,,,,,,,,,8/8 Overcast,10000.0,,OVC,9900.0,,,,,,
KRDR,11-14-2009,11:00,METAR,,340,4.0,,,9999.0,,-1.0,-3.0,29.83,1011.1,,,,,,,,,,,,,,,8/8 Overcast,11000.0,,OVC,11000.0,,,,,,
KRDR,11-14-2009,10:00,METAR,,,0.0,,,9999.0,,0.0,-3.0,29.82,1010.9,,,,,,,,,,,,,,,8/8 Overcast,11000.0,,OVC,11000.0,,,,,,
KRDR,11-14-2009,09:00,METAR,,320,5.0,,,9999.0,,0.0,-3.0,29.81,1010.7,,,,,,,,,,,,,,,8/8 Overcast,11000.0,,OVC,11000.0,,,,,,
KRDR,11-14-2009,08:00,METAR,,320,6.0,,,9999.0,,0.0,-3.0,29.81,1010.5,,,,,,,,,,,,,,,8/8 Overcast,10000.0,,OVC,9900.0,,,,,,
KRDR,11-14-2009,07:00,METAR,,310,3.0,,,9999.0,,0.0,-2.0,29.80,1010.3,,,,,,,,,,,,,,,8/8 Overcast,10000.0,,OVC,9900.0,,,,,,
KRDR,11-14-2009,06:00,METAR,,310,4.0,,,9999.0,,-1.0,-2.0,29.80,1010.2,,,,,,,,,,,,,,,8/8 Overcast,9000.0,,OVC,8900.0,,,,,,
KRDR,11-14-2009,05:00,METAR,,350,4.0,,,9999.0,,0.0,-2.0,29.78,1009.7,,,,,,,,,,,,,,,8/8 Overcast,9500.0,,OVC,9400.0,,,,,,
KRDR,11-14-2009,04:00,METAR,,340,4.0,,,9999.0,,0.0,-2.0,29.78,1009.7,,,,,,,,,,,,,,,8/8 Overcast,9000.0,,OVC,8900.0,,,,,,
KRDR,11-14-2009,03:00,METAR,,340,6.0,,,9999.0,,1.0,-2.0,29.78,1009.5,,,,,,,,,,,,,,,7/8 Mostly Cloudy,9500.0,,BKN,9400.0,,,,,,
KRDR,11-14-2009,02:00,METAR,,340,4.0,,,9999.0,,-1.0,-3.0,29.77,1009.3,,,,,,,,,,,,,,,7/8 Mostly Cloudy,9000.0,,BKN,8900.0,,,,,,
KRDR,11-14-2009,01:00,METAR,,340,4.0,,,9999.0,,-1.0,-3.0,29.76,1008.9,,,,,,,,,,,,,,,2/8 Mostly Clear,72000.0,,FEW,9400.0,,,,,,
KRDR,11-14-2009,00:00,METAR,,350,5.0,,,9999.0,,0.0,-2.0,29.74,1008.4,,,,,,,,,,,,,,,4/8 Partly Cloudy,72000.0,,FEW,12000.0,SCT,20000.0,,,,
KRDR,11-13-2009,23:00,METAR,,10,6.0,,,9999.0,,3.0,-1.0,29.73,1007.8,,,,,,,,,,,,,,,7/8 Mostly Cloudy,20000.0,,SCT,11000.0,BKN,20000.0,,,,
KRDR,11-13-2009,22:00,METAR,,10,7.0,,,9999.0,,6.0,0.0,29.72,1007.5,,,,,,,,,,,,,,,7/8 Mostly Cloudy,10000.0,,BKN,9900.0,BKN,20000.0,,,,
KRDR,11-13-2009,21:00,METAR,,350,8.0,,,9999.0,,6.0,0.0,29.72,1007.6,,,,,,,,,,,,,,,7/8 Mostly Cloudy,10000.0,,BKN,9900.0,,,,,,
KRDR,11-13-2009,20:00,METAR,,10,9.0,,,9999.0,,6.0,-1.0,29.72,1007.6,,,,,,,,,,,,,,,8/8 Overcast,11000.0,,OVC,11000.0,,,,,,
KRDR,11-13-2009,19:00,METAR,,360,10.0,,,9999.0,,6.0,0.0,29.72,1007.6,,,,,,,,,,,,,,,7/8 Mostly Cloudy,10000.0,,BKN,9900.0,,,,,,
KRDR,11-13-2009,18:00,METAR,,350,8.0,,,9999.0,,5.0,0.0,29.74,1008.3,,,,,,,,,,,,,,,8/8 Overcast,11000.0,,OVC,11000.0,,,,,,
KRDR,11-13-2009,17:00,METAR,,360,9.0,,,9999.0,,3.0,0.0,29.74,1008.3,,,,,,,,,,,,,,,8/8 Overcast,11000.0,,OVC,11000.0,,,,,,
KRDR,11-13-2009,16:00,METAR,,350,10.0,,,9999.0,,3.0,0.0,29.72,1007.7,,,,,,,,,,,,,,,7/8 Mostly Cloudy,10000.0,,BKN,9900.0,,,,,,
KRDR,11-13-2009,15:00,METAR,,340,7.0,,,9999.0,,2.0,0.0,29.72,1007.5,,,,,,,,,,,,,,,7/8 Mostly Cloudy,8500.0,,BKN,8400.0,,,,,,
KRDR,11-13-2009,14:00,METAR,,350,8.0,,,9999.0,,2.0,0.0,29.70,1007.0,,,,,,,,,,,,,,,8/8 Overcast,8500.0,,OVC,8400.0,,,,,,
KRDR,11-13-2009,13:00,METAR,,350,9.0,,,9999.0,,2.0,0.0,29.67,1006.1,,,,,,,,,,,,,,,8/8 Overcast,11000.0,,OVC,11000.0,,,,,,
KRDR,11-13-2009,12:00,METAR,,360,9.0,,,9999.0,,3.0,0.0,29.66,1005.7,,,,,,,,,,,,,TRACE,,8/8 Overcast,12000.0,,OVC,12000.0,,,,,,
KRDR,11-13-2009,11:00,METAR,,360,9.0,,,9999.0,,3.0,0.0,29.65,1005.4,,,,,,,,,,,,,,,Clear,4900.0,,,73000.0,,,,,,
KRDR,11-13-2009,10:00,METAR,,350,6.0,,,9999.0,,4.0,2.0,29.64,1005.1,,,,,,,,,,,TRACE,,,,Clear,72000.0,,,73000.0,,,,,,
KRDR,11-13-2009,09:53,SPECI,,350,6.0,,,9999.0,,4.0,2.0,29.64,1005.1,,,,,,,,,,,,,,,Clear,72000.0,,,73000.0,,,,,,
KRDR,11-13-2009,09:33,SPECI,,350,6.0,,,9999.0,Unknown Precipitation,4.0,2.0,29.64,1005.0,40,,,,,,,,,,,,,,4/8 Partly Cloudy,72000.0,,SCT,4100.0,,,,,,
KRDR,11-13-2009,09:18,SPECI,,340,6.0,,,9999.0,,4.0,2.0,29.65,1005.2,,,,,,,,,,,,,,,8/8 Overcast,4000.0,,OVC,4100.0,,,,,,
KRDR,11-13-2009,09:00,METAR,,340,6.0,,,9999.0,Light Rain,4.0,2.0,29.64,1005.0,61,,,,,,,,,,TRACE,TRACE,,,7/8 Mostly Cloudy,4200.0,,BKN,4300.0,,,,,,
KRDR,11-13-2009,08:03,SPECI,,340,8.0,,,9999.0,,5.0,3.0,29.63,1004.8,,,,,,,,,,,,,,,2/8 Mostly Clear,72000.0,,FEW,9900.0,,,,,,
KRDR,11-13-2009,08:00,METAR,,340,8.0,,,9999.0,,5.0,3.0,29.63,1004.7,,,,,,,,,,,TRACE,,,,4/8 Partly Cloudy,72000.0,,SCT,9900.0,,,,,,
KRDR,11-13-2009,07:48,SPECI,,340,9.0,,,9999.0,,5.0,3.0,29.63,1004.8,,,,,,,,,,,,,,,4/8 Partly Cloudy,72000.0,,SCT,9900.0,,,,,,
KRDR,11-13-2009,07:00,METAR,,330,6.0,,,9999.0,Light Rain,5.0,3.0,29.62,1004.4,61,,,,,,,,,,TRACE,,,,8/8 Overcast,4600.0,,OVC,4700.0,,,,,,
KRDR,11-13-2009,06:15,SPECI,,340,7.0,,,9999.0,Unknown Precipitation,5.0,3.0,29.62,1004.2,40,,,,,,,,,,,,,,7/8 Mostly Cloudy,4500.0,,BKN,4600.0,,,,,,
KRDR,11-13-2009,06:00,METAR,,340,9.0,,,9999.0,,6.0,3.0,29.61,1004.0,,,,,,,,,,,,,,,8/8 Overcast,3800.0,,OVC,3900.0,,,,,,
KRDR,11-13-2009,05:00,METAR,,340,7.0,,,9999.0,,7.0,6.0,29.59,1003.2,,,,,,,,,,,,,,,8/8 Overcast,3700.0,,BKN,3800.0,OVC,9900.0,,,,
KRDR,11-13-2009,04:00,METAR,,350,6.0,,,9999.0,,6.0,6.0,29.55,1002.1,,,,,,,,,,,,,,,8/8 Overcast,18000.0,,SCT,11000.0,OVC,18000.0,,,,
KRDR,11-13-2009,03:00,METAR,,10,5.0,,,9999.0,,7.0,7.0,29.55,1001.9,,,,,,,,,,,,,,,8/8 Overcast,10000.0,,FEW,3000.0,SCT,5000.0,OVC,9900.0,,
KRDR,11-13-2009,02:50,SPECI,,10,5.0,,,9999.0,,7.0,7.0,29.55,1001.9,,,,,,,,,,,,,,,8/8 Overcast,10000.0,,FEW,3000.0,SCT,5000.0,OVC,9900.0,,
KRDR,11-13-2009,02:24,SPECI,,350,7.0,,,9999.0,Mist,8.0,8.0,29.55,1001.9,,,,10,,,,,,,,,,,8/8 Overcast,3000.0,,FEW,1200.0,BKN,3000.0,OVC,9900.0,,
KRDR,11-13-2009,02:07,SPECI,,350,6.0,,,9999.0,Mist,8.0,8.0,29.55,1002.0,,,,10,,,,,,,,,,,8/8 Overcast,1200.0,,FEW,800.0,OVC,2400.0,,,,
KRDR,11-13-2009,02:00,METAR,,320,4.0,,,8000.0,Mist,9.0,9.0,29.56,1002.2,,,,10,,,,,,,,,,,8/8 Overcast,3000.0,,FEW,1600.0,OVC,3000.0,,,,
KRDR,11-13-2009,02:00,SPECI,,330,7.0,,,9999.0,Mist,9.0,9.0,29.55,1002.2,,,,10,,,,,,,,,,,8/8 Overcast,1500.0,,OVC,2700.0,,,,,,
KRDR,11-13-2009,01:33,SPECI,,330,5.0,,,9999.0,Mist,9.0,9.0,29.55,1002.1,,,,10,,,,,,,,,,,8/8 Overcast,3000.0,,FEW,1500.0,OVC,3000.0,,,,
KRDR,11-13-2009,01:21,SPECI,,330,5.0,,,8000.0,Mist,9.0,9.0,29.55,1002.0,,,,10,,,,,,,,,,,8/8 Overcast,2900.0,,FEW,1000.0,OVC,2900.0,,,,
KRDR,11-13-2009,01:00,METAR,,,0.0,,,8000.0,Mist,9.0,9.0,29.54,1001.8,,,,10,,,,,,,,,,,8/8 Overcast,2700.0,,FEW,700.0,OVC,2700.0,,,,
KRDR,11-13-2009,00:00,METAR,,350,5.0,,,6400.0,Mist,9.0,9.0,29.52,1001.1,,,,10,,,,,,,,,TRACE,,8/8 Overcast,2600.0,,FEW,1200.0,OVC,2600.0,,,,
KRDR,11-12-2009,23:24,SPECI,,350,7.0,,,8000.0,Mist,9.0,9.0,29.53,1001.2,,,,10,,,,,,,,,,,8/8 Overcast,2500.0,,FEW,1600.0,OVC,2500.0,,,,
KRDR,11-12-2009,23:10,SPECI,,330,4.0,,,8000.0,Mist,10.0,10.0,29.53,1001.2,,,,10,,,,,,,,,,,8/8 Overcast,2400.0,,FEW,1000.0,OVC,2400.0,,,,
KRDR,11-12-2009,23:00,METAR,,340,4.0,,,3200.0,Mist,10.0,10.0,29.53,1001.2,,,,10,,,,,,,TRACE,,,,8/8 Overcast,2200.0,,FEW,600.0,SCT,1000.0,OVC,2200.0,,
KRDR,11-12-2009,22:48,SPECI,,340,5.0,,,3200.0,Mist,10.0,10.0,29.53,1001.3,,,,10,,,,,,,,,,,8/8 Overcast,2200.0,,FEW,500.0,SCT,1000.0,OVC,2200.0,,
KRDR,11-12-2009,22:07,SPECI,,330,5.0,,,3200.0,Drizzle/Mist,10.0,10.0,29.52,1001.1,,,,51,10,,,,,,,,,,8/8 Overcast,900.0,,FEW,300.0,BKN,900.0,OVC,1500.0,,
KRDR,11-12-2009,22:02,SPECI,,330,5.0,,,3200.0,Mist,10.0,10.0,29.52,1001.1,,,,10,,,,,,,,,,,8/8 Overcast,900.0,,FEW,300.0,OVC,900.0,,,,
KRDR,11-12-2009,22:00,METAR,,,0.0,,,4000.0,Mist,10.0,10.0,29.51,1000.8,,,,10,,,,,,,,,,,8/8 Overcast,1300.0,,FEW,600.0,SCT,1100.0,OVC,1800.0,,
KRDR,11-12-2009,21:50,SPECI,,,0.0,,,4000.0,Mist,10.0,10.0,29.51,1000.6,,,,10,,,,,,,,,,,8/8 Overcast,1600.0,,FEW,600.0,SCT,1100.0,OVC,1600.0,,
KRDR,11-12-2009,21:47,SPECI,,,0.0,,,4000.0,Mist,10.0,10.0,29.51,1000.7,,,,10,,,,,,,,,,,8/8 Overcast,1600.0,,FEW,600.0,OVC,1600.0,,,,
KRDR,11-12-2009,21:16,SPECI,,,0.0,,,4000.0,Mist,11.0,10.0,29.50,1000.4,,,,10,,,,,,,,,,,8/8 Overcast,1800.0,,FEW,600.0,SCT,1000.0,OVC,1800.0,,
KRDR,11-12-2009,21:06,SPECI,,,0.0,,,8000.0,Mist,11.0,11.0,29.50,1000.4,,,,10,,,,,,,,,,,8/8 Overcast,1800.0,,FEW,600.0,OVC,1800.0,,,,
KRDR,11-12-2009,21:00,METAR,,,0.0,,,9999.0,Mist,11.0,11.0,29.50,1000.4,,,,10,,,,,,,TRACE,TRACE,,,8/8 Overcast,600.0,,OVC,1400.0,,,,,,
KRDR,11-12-2009,20:45,SPECI,,220,3.0,,,8000.0,Drizzle/Mist,11.0,10.0,29.50,1000.5,,,,51,10,,,,,,,,,,8/8 Overcast,600.0,,OVC,1200.0,,,,,,
KRDR,11-12-2009,20:35,SPECI,,220,4.0,,,6400.0,Drizzle/Mist,11.0,10.0,29.50,1000.5,,,,51,10,,,,,,,,,,8/8 Overcast,900.0,,BKN,900.0,OVC,1500.0,,,,
KRDR,11-12-2009,20:00,METAR,,190,4.0,,,9999.0,,11.0,10.0,29.50,1000.2,,,,,,,,,,,,,,,8/8 Overcast,1000.0,,OVC,1000.0,,,,,,
KRDR,11-12-2009,19:00,METAR,,160,9.0,,,8000.0,Mist,11.0,11.0,29.49,1000.0,,,,10,,,,,,,,,,,8/8 Overcast,600.0,,OVC,900.0,,,,,,
KRDR,11-12-2009,18:54,METAR,,180,10.0,,,8000.0,Mist,11.0,11.0,29.50,,,,,10,,,,,,,,,,,8/8 Overcast,1000.0,,OVC,1000.0,,,,,,
KRDR,11-12-2009,18:45,SPECI,,150,7.0,,,9999.0,,11.0,11.0,29.49,1000.2,,,,,,,,,,,,,,,8/8 Overcast,600.0,,OVC,1100.0,,,,,,
KRDR,11-12-2009,18:32,SPECI,,160,6.0,,,9999.0,Mist,10.0,10.0,29.50,1000.4,,,,10,,,,,,,,,,,8/8 Overcast,600.0,,OVC,700.0,,,,,,
KRDR,11-12-2009,18:26,SPECI,,160,8.0,,,8000.0,Mist,10.0,10.0,29.51,1000.6,,,,10,,,,,,,,,,,8/8 Overcast,600.0,,OVC,600.0,,,,,,
KRDR,11-12-2009,18:08,SPECI,,170,7.0,,,8000.0,Mist,10.0,10.0,29.52,1001.1,,,,10,,,,,,,,,,,8/8 Overcast,1400.0,,SCT,600.0,OVC,1400.0,,,,
KRDR,11-12-2009,18:00,METAR,,170,7.0,,,8000.0,Mist,10.0,10.0,29.54,1001.6,,,,10,,,,,,,,,TRACE,,8/8 Overcast,1300.0,,OVC,1300.0,,,,,,
KRDR,11-12-2009,17:36,SPECI,,180,7.0,,,9999.0,Mist,10.0,10.0,29.55,1002.0,,,,10,,,,,,,,,,,8/8 Overcast,1400.0,,OVC,1400.0,,,,,,
KRDR,11-12-2009,17:26,SPECI,,180,6.0,,,9999.0,Mist,10.0,10.0,29.55,1002.1,,,,10,,,,,,,,,,,8/8 Overcast,1500.0,,FEW,1000.0,OVC,1500.0,,,,
KRDR,11-12-2009,17:08,SPECI,,180,7.0,,,9999.0,Mist,10.0,9.0,29.56,1002.3,,,,10,,,,,,,,,,,8/8 Overcast,1900.0,,FEW,700.0,SCT,1100.0,OVC,1900.0,,
KRDR,11-12-2009,17:00,METAR,,180,8.0,,,8000.0,Mist,10.0,9.0,29.56,1002.4,,,,10,,,,,,,TRACE,,,,8/8 Overcast,1700.0,,FEW,600.0,OVC,1700.0,,,,
KRDR,11-12-2009,16:23,SPECI,,170,6.0,,,6400.0,Mist,10.0,9.0,29.56,1002.5,,,,10,,,,,,,,,,,8/8 Overcast,1700.0,,SCT,700.0,OVC,1700.0,,,,
KRDR,11-12-2009,16:00,METAR,,180,3.0,,,4800.0,Mist,9.0,9.0,29.57,1002.5,,,,10,,,,,,,TRACE,,,,8/8 Overcast,600.0,,OVC,900.0,,,,,,
KRDR,11-12-2009,15:53,SPECI,,180,3.0,,,4800.0,Mist,9.0,9.0,29.57,1002.5,,,,10,,,,,,,,,,,8/8 Overcast,1200.0,,SCT,600.0,OVC,1200.0,,,,
KRDR,11-12-2009,15:50,SPECI,,180,4.0,,,6400.0,Mist,9.0,9.0,29.57,1002.6,,,,10,,,,,,,,,,,8/8 Overcast,600.0,,OVC,900.0,,,,,,
KRDR,11-12-2009,15:43,SPECI,,170,4.0,,,6400.0,Mist,9.0,9.0,29.57,1002.6,,,,10,,,,,,,,,,,8/8 Overcast,1100.0,,OVC,1100.0,,,,,,
KRDR,11-12-2009,15:31,SPECI,,180,5.0,,,6400.0,Drizzle/Mist,9.0,9.0,29.58,1002.8,,,,51,10,,,,,,,,,,8/8 Overcast,1100.0,,OVC,1100.0,,,,,,
KRDR,11-12-2009,15:25,SPECI,,170,5.0,,,8000.0,Mist,9.0,9.0,29.57,1002.8,,,,10,,,,,,,,,,,8/8 Overcast,1400.0,,FEW,600.0,OVC,1400.0,,,,
KRDR,11-12-2009,15:18,SPECI,,180,5.0,,,8000.0,Mist,9.0,9.0,29.58,1002.9,,,,10,,,,,,,,,,,8/8 Overcast,1400.0,,OVC,1400.0,,,,,,
KRDR,11-12-2009,15:15,SPECI,,180,5.0,,,8000.0,Mist,9.0,9.0,29.58,1002.9,,,,10,,,,,,,,,,,8/8 Overcast,1500.0,,OVC,1500.0,,,,,,
KRDR,11-12-2009,15:04,SPECI,,180,5.0,,,8000.0,,9.0,9.0,29.58,,,,,,,,,,,,,,,,8/8 Overcast,1500.0,,FEW,800.0,OVC,1500.0,,,,
KRDR,11-12-2009,15:00,SPECI,,170,6.0,,,8000.0,,9.0,9.0,29.58,,,,,,,,,,,,,,,,8/8 Overcast,1600.0,,FEW,800.0,OVC,1600.0,,,,
KRDR,11-12-2009,15:00,METAR,,180,7.0,,,8000.0,Mist,9.0,9.0,29.58,1003.0,,,,10,,,,,,,,,,,8/8 Overcast,700.0,,OVC,1400.0,,,,,,
KRDR,11-12-2009,14:57,SPECI,,170,6.0,,,8000.0,Mist,9.0,9.0,29.58,1003.0,,,,10,,,,,,,,,,,8/8 Overcast,1600.0,,FEW,800.0,OVC,1600.0,,,,
KRDR,11-12-2009,14:41,SPECI,,170,6.0,,,8000.0,Mist,9.0,8.0,29.58,1003.1,,,,10,,,,,,,,,,,8/8 Overcast,1000.0,,SCT,700.0,OVC,1500.0,,,,
KRDR,11-12-2009,14:32,SPECI,,170,6.0,,,8000.0,Mist,9.0,8.0,29.59,1003.4,,,,10,,,,,,,,,,,8/8 Overcast,900.0,,FEW,700.0,OVC,1300.0,,,,
KRDR,11-12-2009,14:14,SPECI,,170,7.0,,,8000.0,Mist,9.0,8.0,29.60,1003.8,,,,10,,,,,,,,,,,8/8 Overcast,1400.0,,OVC,1400.0,,,,,,
KRDR,11-12-2009,14:00,METAR,,170,6.0,,,9999.0,,10.0,8.0,29.61,1004.0,,,,,,,,,,,,,,,8/8 Overcast,1500.0,,OVC,1500.0,,,,,,
KRDR,11-12-2009,13:00,METAR,,180,7.0,,,9999.0,,10.0,8.0,29.63,1004.6,,,,,,,,,,,,,,,8/8 Overcast,1600.0,,OVC,1600.0,,,,,,
KRDR,11-12-2009,12:00,METAR,,180,8.0,,,9999.0,,9.0,7.0,29.65,1005.4,,,,,,,,,,,,,,,8/8 Overcast,1700.0,,OVC,1700.0,,,,,,
KRDR,11-12-2009,11:00,METAR,,170,10.0,,,9999.0,,9.0,7.0,29.66,1005.7,,,,,,,,,,,,,,,8/8 Overcast,1700.0,,OVC,1700.0,,,,,,
KRDR,11-12-2009,10:00,METAR,,160,13.0,,,9999.0,,8.0,7.0,29.68,1006.3,,,,,,,,,,,,,,,7/8 Mostly Cloudy,1700.0,,BKN,1700.0,,,,,,
KRDR,11-12-2009,09:27,SPECI,,160,13.0,,,9999.0,,9.0,7.0,29.68,1006.4,,,,,,,,,,,,,,,7/8 Mostly Cloudy,1700.0,,BKN,1700.0,,,,,,
KRDR,11-12-2009,09:00,METAR,,170,12.0,,,9999.0,,9.0,7.0,29.71,1007.4,,,,,,,,,,,,,,,7/8 Mostly Cloudy,12000.0,,BKN,12000.0,,,,,,
KRDR,11-12-2009,08:00,METAR,,180,10.0,,,9999.0,,9.0,7.0,29.75,1008.7,,,,,,,,,,,,,,,2/8 Mostly Clear,72000.0,,FEW,12000.0,,,,,,
KRDR,11-12-2009,07:00,METAR,,170,13.0,,,9999.0,,9.0,7.0,29.78,1009.6,,,,,,,,,,,,,,,7/8 Mostly Cloudy,11000.0,,BKN,11000.0,,,,,,
KRDR,11-12-2009,06:00,METAR,,160,10.0,,,9999.0,,8.0,7.0,29.81,1010.7,,,,,,,,,,,,,,,Clear,72000.0,,,73000.0,,,,,,
KRDR,11-12-2009,05:22,SPECI,,150,10.0,,,9999.0,,8.0,7.0,29.83,1011.2,,,,,,,,,,,,,,,4/8 Partly Cloudy,72000.0,,SCT,2500.0,,,,,,
KRDR,11-12-2009,05:00,METAR,,150,8.0,,,9999.0,,8.0,7.0,29.85,1011.9,,,,,,,,,,,,,,,8/8 Overcast,2700.0,,OVC,2700.0,,,,,,
KRDR,11-12-2009,04:25,SPECI,,150,8.0,,,9999.0,,7.0,6.0,29.87,1012.5,,,,,,,,,,,,,,,7/8 Mostly Cloudy,2400.0,,BKN,2400.0,,,,,,
KRDR,11-12-2009,04:00,METAR,,150,9.0,,,9999.0,,7.0,6.0,29.89,1013.2,,,,,,,,,,,,,,,Clear,72000.0,,,73000.0,,,,,,
KRDR,11-12-2009,03:00,METAR,,150,8.0,,,9999.0,,7.0,6.0,29.91,1013.8,,,,,,,,,,,,,,,Clear,72000.0,,,73000.0,,,,,,
KRDR,11-12-2009,02:00,METAR,,140,10.0,,,9999.0,,7.0,5.0,29.94,1014.9,,,,,,,,,,,,,,,Clear,72000.0,,,73000.0,,,,,,
KRDR,11-12-2009,01:00,METAR,,150,9.0,,,9999.0,,7.0,5.0,29.98,1016.1,,,,,,,,,,,,,,,Clear,72000.0,,,73000.0,,,,,,
KRDR,11-12-2009,00:00,METAR,,140,8.0,,,9999.0,,8.0,4.0,30.00,1016.8,,,,,,,,,,,,,,,Clear,72000.0,,,73000.0,,,,,,
KRDR,11-11-2009,23:00,METAR,,150,5.0,,,9999.0,,9.0,2.0,30.02,1017.4,,,,,,,,,,,,,,,Clear,72000.0,,,73000.0,,,,,,
KRDR,11-11-2009,22:00,METAR,,160,11.0,,,9999.0,,13.0,2.0,30.03,1017.8,,,,,,,,,,,,,,,Clear,72000.0,,,73000.0,,,,,,
KRDR,11-11-2009,21:00,METAR,,160,9.0,,,9999.0,,15.0,0.0,30.04,1018.0,,,,,,,,,,,,,,,Clear,72000.0,,,73000.0,,,,,,
KRDR,11-11-2009,20:00,METAR,,190,8.0,,,9999.0,,15.0,0.0,30.07,1019.0,,,,,,,,,,,,,,,Clear,72000.0,,,73000.0,,,,,,
KRDR,11-11-2009,19:00,METAR,,180,8.0,,,9999.0,,14.0,0.0,30.09,1019.7,,,,,,,,,,,,,,,Clear,72000.0,,,73000.0,,,,,,
KRDR,11-11-2009,18:00,METAR,,170,5.0,,,9999.0,,13.0,-1.0,30.11,1020.5,,,,,,,,,,,,,,,Clear,72000.0,,,73000.0,,,,,,
KRDR,11-11-2009,17:00,METAR,,200,4.0,,,9999.0,,11.0,0.0,30.12,1020.9,,,,,,,,,,,,,,,Clear,72000.0,,,73000.0,,,,,,
KRDR,11-11-2009,16:00,METAR,,240,5.0,,,9999.0,,8.0,0.0,30.13,1021.0,,,,,,,,,,,,,,,Clear,72000.0,,,73000.0,,,,,,
KRDR,11-11-2009,15:00,METAR,,200,3.0,,,9999.0,,4.0,0.0,30.13,1021.1,,,,,,,,,,,,,,,Clear,72000.0,,,73000.0,,,,,,
KRDR,11-11-2009,14:00,METAR,,200,4.0,,,9999.0,,1.0,-1.0,30.12,1020.8,,,,,,,,,,,,,,,Clear,72000.0,,,73000.0,,,,,,
KRDR,11-11-2009,13:00,METAR,,230,8.0,,,9999.0,,1.0,-1.0,30.11,1020.4,,,,,,,,,,,,,,,Clear,72000.0,,,73000.0,,,,,,
KRDR,11-11-2009,12:00,METAR,,200,9.0,,,9999.0,,4.0,1.0,30.10,1020.1,,,,,,,,,,,,,,.06 IN,Clear,72000.0,,,73000.0,,,,,,
KRDR,11-11-2009,11:00,METAR,,190,8.0,,,9999.0,,3.0,1.0,30.10,1020.3,,,,,,,,,,,,,,,Clear,72000.0,,,73000.0,,,,,,
KRDR,11-11-2009,10:00,METAR,,190,8.0,,,9999.0,,6.0,1.0,30.10,1020.0,,,,,,,,,,,,,,,Clear,72000.0,,,73000.0,,,,,,
KRDR,11-11-2009,09:00,METAR,,180,11.0,,,9999.0,,8.0,1.0,30.09,1019.8,,,,,,,,,,,,,,,2/8 Mostly Clear,72000.0,,FEW,12000.0,,,,,,
KRDR,11-11-2009,08:00,METAR,,180,12.0,,,9999.0,,8.0,0.0,30.09,1019.7,,,,,,,,,,,,,,,4/8 Partly Cloudy,72000.0,,SCT,12000.0,,,,,,
KRDR,11-11-2009,07:00,METAR,,180,12.0,,,9999.0,,8.0,0.0,30.10,1020.1,,,,,,,,,,,,,,,2/8 Mostly Clear,72000.0,,FEW,11000.0,,,,,,
KRDR,11-11-2009,06:00,METAR,,180,15.0,,,9999.0,,8.0,0.0,30.11,1020.4,,,,,,,,,,,,,,,8/8 Overcast,8500.0,,FEW,6900.0,BKN,8400.0,OVC,11000.0,,
KRDR,11-11-2009,05:00,METAR,,180,15.0,,,9999.0,,9.0,-1.0,30.12,1020.9,,,,,,,,,,,,,,,7/8 Mostly Cloudy,12000.0,,BKN,12000.0,,,,,,
KRDR,11-11-2009,04:00,METAR,,180,16.0,24.0,160/26KTS,9999.0,,10.0,-1.0,30.12,1021.0,,,,,,,,,,,,,,,8/8 Overcast,20000.0,,SCT,12000.0,OVC,20000.0,,,,
KRDR,11-11-2009,03:00,METAR,,180,18.0,22.0,,9999.0,,10.0,-2.0,30.13,1021.3,,,,,,,,,,,,,,,8/8 Overcast,20000.0,,FEW,15000.0,OVC,20000.0,,,,
KRDR,11-11-2009,02:00,METAR,,170,17.0,,,9999.0,,10.0,-2.0,30.13,1021.5,,,,,,,,,,,,,,,8/8 Overcast,20000.0,,FEW,12000.0,OVC,20000.0,,,,
KRDR,11-11-2009,01:00,METAR,,170,14.0,,,9999.0,,10.0,-2.0,30.14,1021.8,,,,,,,,,,,,,,,7/8 Mostly Cloudy,20000.0,,SCT,12000.0,BKN,20000.0,,,,
KRDR,11-11-2009,00:00,METAR,,160,16.0,,,9999.0,,11.0,-2.0,30.15,1022.0,,,,,,,,,,,,,,,7/8 Mostly Cloudy,22000.0,,SCT,18000.0,BKN,22000.0,,,,
KRDR,11-10-2009,23:00,METAR,,160,16.0,,,9999.0,,12.0,0.0,30.16,1022.6,,,,,,,,,,,,,,,7/8 Mostly Cloudy,25000.0,,SCT,15000.0,BKN,25000.0,,,,
KRDR,11-10-2009,22:00,METAR,,160,16.0,21.0,,9999.0,,14.0,1.0,30.18,1022.8,,,,,,,,,,,,,,,7/8 Mostly Cloudy,25000.0,,SCT,21000.0,BKN,25000.0,,,,
KRDR,11-10-2009,21:00,METAR,,160,15.0,22.0,,9999.0,,14.0,2.0,30.21,1023.7,,,,,,,,,,,,,,,7/8 Mostly Cloudy,25000.0,,BKN,25000.0,,,,,,
KRDR,11-10-2009,20:00,METAR,,180,19.0,24.0,,9999.0,,14.0,2.0,30.23,1024.3,,,,,,,,,,,,,,,7/8 Mostly Cloudy,25000.0,,BKN,25000.0,,,,,,
KRDR,11-10-2009,19:00,METAR,,170,15.0,,,9999.0,,13.0,1.0,30.25,1025.1,,,,,,,,,,,,,,,Clear,72000.0,,,73000.0,,,,,,
KRDR,11-10-2009,18:00,METAR,,180,15.0,,,9999.0,,11.0,1.0,30.28,1026.1,,,,,,,,,,,,,,,Clear,72000.0,,,73000.0,,,,,,
KRDR,11-10-2009,17:00,METAR,,180,15.0,,,9999.0,,9.0,1.0,30.30,1026.8,,,,,,,,,,,,,,,Clear,72000.0,,,73000.0,,,,,,
KRDR,11-10-2009,16:00,METAR,,170,10.0,,,9999.0,,5.0,1.0,30.31,1027.1,,,,,,,,,,,,,,,Clear,72000.0,,,73000.0,,,,,,
KRDR,11-10-2009,15:00,METAR,,170,9.0,,,9999.0,,1.0,-1.0,30.33,1027.6,,,,,,,,,,,,,,,Clear,72000.0,,,73000.0,,,,,,
KRDR,11-10-2009,14:00,METAR,,170,8.0,,,9999.0,,-2.0,-3.0,30.32,1027.3,,,,,,,,,,,,,,,Clear,72000.0,,,73000.0,,,,,,
KRDR,11-10-2009,13:00,METAR,,160,6.0,,,9999.0,,-4.0,-5.0,30.33,1027.8,,,,,,,,,,,,,,,Clear,72000.0,,,73000.0,,,,,,
KRDR,11-10-2009,12:00,METAR,,160,6.0,,,9999.0,,-3.0,-4.0,30.33,1027.6,,,,,,,,,,,,,,,Clear,72000.0,,,73000.0,,,,,,
KRDR,11-10-2009,11:00,METAR,,170,6.0,,,9999.0,,-5.0,-7.0,30.34,1028.0,,,,,,,,,,,,,,,Clear,72000.0,,,73000.0,,,,,,
KRDR,11-10-2009,10:00,METAR,,,0.0,,,9999.0,,-5.0,-6.0,30.35,1028.4,,,,,,,,,,,,,,,Clear,72000.0,,,73000.0,,,,,,
KRDR,11-10-2009,09:00,METAR,,,0.0,,,9999.0,,-6.0,-7.0,30.35,1028.4,,,,,,,,,,,,,,,Clear,72000.0,,,73000.0,,,,,,
KRDR,11-10-2009,08:00,METAR,,150,3.0,,,9999.0,,-4.0,-7.0,30.35,1028.3,,,,,,,,,,,,,,,Clear,72000.0,,,73000.0,,,,,,
KRDR,11-10-2009,07:00,METAR,,,0.0,,,9999.0,,-4.0,-6.0,30.36,1028.7,,,,,,,,,,,,,,,Clear,72000.0,,,73000.0,,,,,,
KRDR,11-10-2009,06:00,METAR,,,0.0,,,9999.0,,-4.0,-6.0,30.37,1028.9,,,,,,,,,,,,,,,Clear,72000.0,,,73000.0,,,,,,
KRDR,11-10-2009,05:00,METAR,,250,3.0,,,9999.0,,-2.0,-6.0,30.37,1028.9,,,,,,,,,,,,,,,Clear,72000.0,,,73000.0,,,,,,
KRDR,11-10-2009,04:00,METAR,,240,5.0,,,9999.0,,-2.0,-5.0,30.36,1028.8,,,,,,,,,,,,,,,Clear,72000.0,,,73000.0,,,,,,
KRDR,11-10-2009,03:00,METAR,,220,5.0,,,9999.0,,-1.0,-5.0,30.35,1028.4,,,,,,,,,,,,,,,Clear,72000.0,,,73000.0,,,,,,
KRDR,11-10-2009,02:00,METAR,,230,5.0,,,9999.0,,0.0,-5.0,30.34,1028.2,,,,,,,,,,,,,,,Clear,72000.0,,,73000.0,,,,,,
KRDR,11-10-2009,01:00,METAR,,230,5.0,,,9999.0,,0.0,-5.0,30.34,1028.0,,,,,,,,,,,,,,,Clear,72000.0,,,73000.0,,,,,,
KRDR,11-10-2009,00:00,METAR,,210,3.0,,,9999.0,,3.0,-5.0,30.32,1027.7,,,,,,,,,,,,,,,2/8 Mostly Clear,72000.0,,FEW,11000.0,,,,,,
KRDR,11-09-2009,23:00,METAR,,280,5.0,,,9999.0,,7.0,-5.0,30.30,1027.1,,,,,,,,,,,,,,,2/8 Mostly Clear,72000.0,,FEW,7900.0,FEW,11000.0,,,,
KRDR,11-09-2009,22:00,METAR,,280,8.0,,,9999.0,,11.0,-4.0,30.30,1027.1,,,,,,,,,,,,,,,7/8 Mostly Cloudy,11000.0,,FEW,7900.0,BKN,11000.0,BKN,25000.0,,
KRDR,11-09-2009,21:00,METAR,,290,9.0,,,9999.0,,12.0,-5.0,30.30,1026.8,,,,,,,,,,,,,,,7/8 Mostly Cloudy,15000.0,,FEW,6900.0,SCT,9900.0,BKN,15000.0,BKN,25000.0
KRDR,11-09-2009,20:00,METAR,,270,8.0,,,9999.0,,13.0,-4.0,30.30,1026.6,,,,,,,,,,,,,,,4/8 Partly Cloudy,72000.0,,FEW,5000.0,SCT,25000.0,,,,
KRDR,11-09-2009,19:00,METAR,,270,9.0,,,9999.0,,12.0,-4.0,30.29,1026.4,,,,,,,,,,,,,,,Clear,72000.0,,,73000.0,,,,,,
KRDR,11-09-2009,18:00,METAR,,250,10.0,,,9999.0,,11.0,-3.0,30.29,1026.4,,,,,,,,,,,,,,,Clear,72000.0,,,73000.0,,,,,,
KRDR,11-09-2009,17:00,METAR,,250,12.0,,,9999.0,,9.0,-2.0,30.28,1026.1,,,,,,,,,,,,,,,Clear,72000.0,,,73000.0,,,,,,
KRDR,11-09-2009,16:00,METAR,,260,10.0,,,9999.0,,7.0,-2.0,30.27,1025.9,,,,,,,,,,,,,,,Clear,72000.0,,,73000.0,,,,,,
KRDR,11-09-2009,15:00,METAR,,280,6.0,,,9999.0,,4.0,-3.0,30.25,1025.2,,,,,,,,,,,,,,,Clear,72000.0,,,73000.0,,,,,,
KRDR,11-09-2009,14:00,METAR,,280,7.0,,,9999.0,,1.0,-4.0,30.22,1024.2,,,,,,,,,,,,,,,Clear,72000.0,,,73000.0,,,,,,
KRDR,11-09-2009,13:00,METAR,,270,7.0,,,9999.0,,1.0,-3.0,30.19,1023.2,,,,,,,,,,,,,,,Clear,72000.0,,,73000.0,,,,,,
KRDR,11-09-2009,12:00,METAR,,250,8.0,,,9999.0,,2.0,-3.0,30.16,1022.0,,,,,,,,,,,,,,,Clear,72000.0,,,73000.0,,,,,,
KRDR,11-09-2009,11:00,METAR,,270,10.0,,,9999.0,,3.0,-3.0,30.14,1021.3,,,,,,,,,,,,,,,Clear,72000.0,,,73000.0,,,,,,
KRDR,11-09-2009,10:00,METAR,,270,10.0,,,9999.0,,3.0,-3.0,30.11,1020.5,,,,,,,,,,,,,,,Clear,72000.0,,,73000.0,,,,,,
KRDR,11-09-2009,09:00,METAR,,270,10.0,,,9999.0,,3.0,-2.0,30.09,1019.9,,,,,,,,,,,,,,,Clear,72000.0,,,73000.0,,,,,,
KRDR,11-09-2009,08:00,METAR,,250,7.0,,,9999.0,,3.0,-2.0,30.07,1019.2,,,,,,,,,,,,,,,Clear,72000.0,,,73000.0,,,,,,
KRDR,11-09-2009,07:00,METAR,,260,9.0,,,9999.0,,4.0,-1.0,30.05,1018.4,,,,,,,,,,,,,,,Clear,72000.0,,,73000.0,,,,,,
KRDR,11-09-2009,06:00,METAR,,260,10.0,,,9999.0,,3.0,0.0,30.02,1017.5,,,,,,,,,,,,,,,Clear,72000.0,,,73000.0,,,,,,
KRDR,11-09-2009,05:00,METAR,,210,12.0,,,9999.0,,3.0,0.0,30.02,1017.4,,,,,,,,,,,,,,,Clear,72000.0,,,73000.0,,,,,,
KRDR,11-09-2009,04:00,METAR,,200,9.0,,,9999.0,,5.0,1.0,30.00,1017.0,,,,,,,,,,,,,,,2/8 Mostly Clear,72000.0,,FEW,11000.0,,,,,,
KRDR,11-09-2009,03:00,METAR,,190,9.0,,,9999.0,,3.0,1.0,29.99,1016.6,,,,,,,,,,,,,,,4/8 Partly Cloudy,72000.0,,SCT,12000.0,,,,,,
KRDR,11-09-2009,02:00,METAR,,170,8.0,,,9999.0,,3.0,1.0,29.98,1016.3,,,,,,,,,,,,,,,7/8 Mostly Cloudy,10000.0,,BKN,9900.0,,,,,,
KRDR,11-09-2009,01:00,METAR,,170,7.0,,,9999.0,,3.0,1.0,29.97,1016.0,,,,,,,,,,,,,,,Clear,72000.0,,,73000.0,,,,,,
KRDR,11-09-2009,00:00,METAR,,160,7.0,,,9999.0,,4.0,1.0,29.95,1015.2,,,,,,,,,,,,,TRACE,,Clear,72000.0,,,73000.0,,,,,,
KRDR,11-08-2009,23:00,METAR,,200,7.0,,,9999.0,,8.0,2.0,29.93,1014.5,,,,,,,,,,,,,,,Clear,72000.0,,,73000.0,,,,,,
KRDR,11-08-2009,22:00,METAR,,200,9.0,,,9999.0,,10.0,2.0,29.91,1013.7,,,,,,,,,,,,,,,8/8 Overcast,12000.0,,OVC,12000.0,,,,,,
KRDR,11-08-2009,21:00,METAR,,170,12.0,,,9999.0,,11.0,1.0,29.91,1013.8,,,,,,,,,,,,TRACE,,,7/8 Mostly Cloudy,10000.0,,FEW,5900.0,BKN,9900.0,,,,
KRDR,11-08-2009,20:00,METAR,,160,12.0,,,9999.0,,10.0,1.0,29.91,1013.9,,,,,,,,,,,,,,,7/8 Mostly Cloudy,7500.0,,BKN,7400.0,,,,,,
KRDR,11-08-2009,19:00,METAR,,180,3.0,,,9999.0,,11.0,1.0,29.92,1014.3,,,,,,,,,,,TRACE,,,,7/8 Mostly Cloudy,8000.0,,BKN,7900.0,,,,,,
KRDR,11-08-2009,18:24,SPECI,,180,4.0,,,9999.0,,12.0,0.0,29.93,1014.7,,,,,,,,,,,,,,,7/8 Mostly Cloudy,6500.0,,BKN,6400.0,,,,,,
KRDR,11-08-2009,18:02,SPECI,,190,4.0,,,9999.0,,10.0,1.0,29.95,1015.1,,,,,,,,,,,,,,,7/8 Mostly Cloudy,9000.0,,BKN,8900.0,,,,,,
KRDR,11-08-2009,18:00,METAR,,180,5.0,,,9999.0,,9.0,0.0,29.95,1015.1,,,,,,,,,,,,,,,7/8 Mostly Cloudy,10000.0,,BKN,9900.0,,,,,,
KRDR,11-08-2009,17:00,METAR,,170,5.0,,,9999.0,,8.0,0.0,29.95,1015.3,,,,,,,,,,,,,,,8/8 Overcast,9000.0,,OVC,8900.0,,,,,,
KRDR,11-08-2009,16:00,METAR,,170,9.0,,,9999.0,,7.0,0.0,29.95,1015.2,,,,,,,,,,,,,,,7/8 Mostly Cloudy,11000.0,,BKN,11000.0,,,,,,
KRDR,11-08-2009,15:00,METAR,,190,7.0,,,9999.0,,7.0,-1.0,29.95,1015.3,,,,,,,,,,,,,,,8/8 Overcast,10000.0,,OVC,9900.0,,,,,,
KRDR,11-08-2009,14:00,METAR,,180,7.0,,,9999.0,,4.0,-1.0,29.93,1014.7,,,,,,,,,,,,,,,8/8 Overcast,12000.0,,OVC,12000.0,,,,,,
KRDR,11-08-2009,13:00,METAR,,160,7.0,,,9999.0,,4.0,-2.0,29.93,1014.4,,,,,,,,,,,,,,,Clear,72000.0,,,73000.0,,,,,,
KRDR,11-08-2009,12:00,METAR,,,0.0,,,9999.0,,3.0,-2.0,29.92,1014.3,,,,,,,,,,,,,,,2/8 Mostly Clear,72000.0,,FEW,11000.0,,,,,,
KRDR,11-08-2009,11:00,METAR,,220,7.0,,,9999.0,,2.0,-3.0,29.92,1014.2,,,,,,,,,,,,,,,Clear,72000.0,,,73000.0,,,,,,
KRDR,11-08-2009,10:00,METAR,,220,6.0,,,9999.0,,2.0,-3.0,29.93,1014.4,,,,,,,,,,,,,,,2/8 Mostly Clear,72000.0,,FEW,12000.0,,,,,,
KRDR,11-08-2009,09:00,METAR,,230,5.0,,,9999.0,,3.0,-3.0,29.93,1014.4,,,,,,,,,,,,,,,Clear,72000.0,,,73000.0,,,,,,
KRDR,11-08-2009,08:00,METAR,,220,7.0,,,9999.0,,3.0,-3.0,29.93,1014.4,,,,,,,,,,,,,,,2/8 Mostly Clear,72000.0,,FEW,9900.0,,,,,,
KRDR,11-08-2009,07:00,METAR,,220,8.0,,,9999.0,,4.0,-2.0,29.92,1014.3,,,,,,,,,,,,,,,2/8 Mostly Clear,72000.0,,FEW,9900.0,,,,,,
KRDR,11-08-2009,06:00,METAR,,190,8.0,,,9999.0,,4.0,-2.0,29.91,1013.7,,,,,,,,,,,,,,,2/8 Mostly Clear,72000.0,,FEW,12000.0,,,,,,
KRDR,11-08-2009,05:00,METAR,,180,7.0,,,9999.0,,2.0,-3.0,29.90,1013.7,,,,,,,,,,,,,,,Clear,72000.0,,,73000.0,,,,,,
KRDR,11-08-2009,04:00,METAR,,200,6.0,,,9999.0,,2.0,-4.0,29.90,1013.7,,,,,,,,,,,,,,,Clear,72000.0,,,73000.0,,,,,,
KRDR,11-08-2009,03:00,METAR,,200,8.0,,,9999.0,,3.0,-4.0,29.89,1013.4,,,,,,,,,,,,,,,Clear,72000.0,,,73000.0,,,,,,
KRDR,11-08-2009,02:00,METAR,,210,9.0,,,9999.0,,3.0,-4.0,29.88,1012.7,,,,,,,,,,,,,,,Clear,72000.0,,,73000.0,,,,,,
KRDR,11-08-2009,01:00,METAR,,180,7.0,,,9999.0,,1.0,-4.0,29.86,1012.3,,,,,,,,,,,,,,,Clear,72000.0,,,73000.0,,,,,,
KRDR,11-08-2009,00:00,METAR,,210,6.0,,,9999.0,,4.0,-4.0,29.84,1011.6,,,,,,,,,,,,,,,Clear,72000.0,,,73000.0,,,,,,
KRDR,11-07-2009,23:00,METAR,,270,6.0,,,9999.0,,11.0,-4.0,29.83,1011.1,,,,,,,,,,,,,,,Clear,72000.0,,,73000.0,,,,,,
KRDR,11-07-2009,22:00,METAR,,270,11.0,,,9999.0,,14.0,-4.0,29.81,1010.5,,,,,,,,,,,,,,,Clear,72000.0,,,73000.0,,,,,,
KRDR,11-07-2009,21:00,METAR,,260,16.0,24.0,,9999.0,,14.0,-4.0,29.79,1009.9,,,,,,,,,,,,,,,Clear,72000.0,,,73000.0,,,,,,
KRDR,11-07-2009,19:00,METAR,,260,16.0,24.0,250/27KTS,9999.0,,13.0,-2.0,29.77,1009.3,,,,,,,,,,,,,,,Clear,72000.0,,,73000.0,,,,,,
KRDR,11-07-2009,18:00,METAR,,260,14.0,24.0,,9999.0,,12.0,-2.0,29.78,1009.6,,,,,,,,,,,,,,,Clear,72000.0,,,73000.0,,,,,,
KRDR,11-07-2009,17:00,METAR,,280,17.0,,,9999.0,,11.0,-2.0,29.77,1009.3,,,,,,,,,,,,,,,Clear,72000.0,,,73000.0,,,,,,
KRDR,11-07-2009,16:00,METAR,,280,17.0,,,9999.0,,9.0,-2.0,29.76,1008.9,,,,,,,,,,,,,,,Clear,72000.0,,,73000.0,,,,,,
KRDR,11-07-2009,15:00,METAR,,260,13.0,,,9999.0,,7.0,-2.0,29.74,1008.3,,,,,,,,,,,,,,,Clear,72000.0,,,73000.0,,,,,,
KRDR,11-07-2009,14:00,METAR,,250,11.0,,,9999.0,,6.0,-3.0,29.71,1007.3,,,,,,,,,,,,,,,Clear,72000.0,,,73000.0,,,,,,
KRDR,11-07-2009,13:00,METAR,,270,13.0,,,9999.0,,6.0,-3.0,29.68,1006.2,,,,,,,,,,,,,,,Clear,72000.0,,,73000.0,,,,,,
KRDR,11-07-2009,12:00,METAR,,250,9.0,,,9999.0,,4.0,-2.0,29.67,1005.9,,,,,,,,,,,,,,,Clear,72000.0,,,73000.0,,,,,,
KRDR,11-07-2009,11:00,METAR,,270,10.0,,,9999.0,,7.0,-2.0,29.64,1004.9,,,,,,,,,,,,,,,Clear,72000.0,,,73000.0,,,,,,
KRDR,11-07-2009,10:00,METAR,,280,11.0,,,9999.0,,8.0,-2.0,29.61,1003.9,,,,,,,,,,,,,,,Clear,72000.0,,,73000.0,,,,,,
KRDR,11-07-2009,09:00,METAR,,280,8.0,,,9999.0,,8.0,-1.0,29.59,1003.4,,,,,,,,,,,,,,,Clear,72000.0,,,73000.0,,,,,,
KRDR,11-07-2009,08:00,METAR,,290,11.0,,,9999.0,,10.0,-1.0,29.56,1002.4,,,,,,,,,,,,,,,Clear,72000.0,,,73000.0,,,,,,
KRDR,11-07-2009,07:00,METAR,,290,16.0,,,9999.0,,12.0,0.0,29.53,1001.5,,,,,,,,,,,,,,,Clear,72000.0,,,73000.0,,,,,,
KRDR,11-07-2009,06:00,METAR,,280,14.0,21.0,,9999.0,,12.0,2.0,29.48,999.7,,,,,,,,,,,,,,,Clear,72000.0,,,73000.0,,,,,,
KRDR,11-07-2009,05:00,METAR,,280,7.0,,,9999.0,,9.0,3.0,29.44,998.2,,,,,,,,,,,,,,,Clear,72000.0,,,73000.0,,,,,,
KRDR,11-07-2009,04:00,METAR,,240,6.0,,,9999.0,,6.0,4.0,29.42,997.8,,,,,,,,,,,,,,,Clear,72000.0,,,73000.0,,,,,,
KRDR,11-07-2009,03:00,METAR,,200,6.0,,,9999.0,,6.0,5.0,29.42,997.6,,,,,,,,,,,,,,,Clear,72000.0,,,73000.0,,,,,,
KRDR,11-07-2009,02:00,METAR,,180,8.0,,,9999.0,,7.0,5.0,29.41,997.5,,,,,,,,,,,,,,,Clear,72000.0,,,73000.0,,,,,,
KRDR,11-07-2009,01:00,METAR,,170,10.0,,,9999.0,,8.0,5.0,29.42,997.8,,,,,,,,,,,,,,,Clear,72000.0,,,73000.0,,,,,,
KRDR,11-07-2009,00:00,METAR,,170,8.0,,,9999.0,,9.0,6.0,29.42,997.6,,,,,,,,,,,,,,,Clear,72000.0,,,73000.0,,,,,,
KRDR,11-06-2009,23:00,METAR,,170,10.0,,,9999.0,,10.0,6.0,29.40,997.2,,,,,,,,,,,,,,,Clear,72000.0,,,73000.0,,,,,,
KRDR,11-06-2009,22:00,METAR,,170,12.0,,,9999.0,,13.0,6.0,29.41,997.3,,,,,,,,,,,,,,,Clear,72000.0,,,73000.0,,,,,,
KRDR,11-06-2009,21:00,METAR,,160,11.0,,,9999.0,,13.0,6.0,29.39,996.8,,,,,,,,,,,,,,,Clear,72000.0,,,73000.0,,,,,,
KRDR,11-06-2009,20:00,METAR,,160,14.0,,,9999.0,,13.0,6.0,29.41,997.4,,,,,,,,,,,,,,,Clear,72000.0,,,73000.0,,,,,,
KRDR,11-06-2009,19:00,METAR,,160,15.0,,,9999.0,,11.0,5.0,29.46,998.9,,,,,,,,,,,,,,,Clear,72000.0,,,73000.0,,,,,,
KRDR,11-06-2009,18:00,METAR,,190,12.0,,,9999.0,,8.0,5.0,29.51,1000.6,,,,,,,,,,,,,,,Clear,72000.0,,,73000.0,,,,,,
KRDR,11-06-2009,17:00,METAR,,180,17.0,21.0,,9999.0,,7.0,4.0,29.51,1000.7,,,,,,,,,,,,,,,Clear,72000.0,,,73000.0,,,,,,
KRDR,11-06-2009,16:00,METAR,,170,14.0,,,9999.0,,5.0,3.0,29.53,1001.4,,,,,,,,,,,,,,,Clear,72000.0,,,73000.0,,,,,,
KRDR,11-06-2009,15:00,METAR,,180,14.0,,,9999.0,,3.0,2.0,29.57,1002.5,,,,,,,,,,,,,,,Clear,72000.0,,,73000.0,,,,,,
KRDR,11-06-2009,14:00,METAR,,180,11.0,,,9999.0,,3.0,1.0,29.57,1002.8,,,,,,,,,,,,,,,Clear,72000.0,,,73000.0,,,,,,
KRDR,11-06-2009,13:00,METAR,,180,12.0,,,9999.0,,2.0,1.0,29.60,1003.5,,,,,,,,,,,,,,,Clear,72000.0,,,73000.0,,,,,,
KRDR,11-06-2009,12:00,METAR,,180,14.0,,,9999.0,,2.0,1.0,29.62,1004.2,,,,,,,,,,,,,,,Clear,72000.0,,,73000.0,,,,,,
KRDR,11-06-2009,11:00,METAR,,160,12.0,,,9999.0,,1.0,1.0,29.64,1004.9,,,,,,,,,,,,,,,Clear,72000.0,,,73000.0,,,,,,
KRDR,11-06-2009,10:00,METAR,,150,7.0,,,9999.0,,1.0,0.0,29.68,1006.1,,,,,,,,,,,,,,,Clear,72000.0,,,73000.0,,,,,,
KRDR,11-06-2009,09:00,METAR,,180,7.0,,,9999.0,,1.0,0.0,29.71,1007.2,,,,,,,,,,,,,,,Clear,72000.0,,,73000.0,,,,,,
KRDR,11-06-2009,08:00,METAR,,170,7.0,,,9999.0,,2.0,1.0,29.73,1007.9,,,,,,,,,,,,,,,Clear,72000.0,,,73000.0,,,,,,
KRDR,11-06-2009,07:00,METAR,,170,10.0,,,9999.0,,1.0,0.0,29.75,1008.4,,,,,,,,,,,,,,,Clear,72000.0,,,73000.0,,,,,,
KRDR,11-06-2009,06:00,METAR,,160,11.0,,,9999.0,,1.0,0.0,29.76,1009.1,,,,,,,,,,,,,,,Clear,72000.0,,,73000.0,,,,,,
KRDR,11-06-2009,05:00,METAR,,160,9.0,,,9999.0,,1.0,-1.0,29.81,1010.4,,,,,,,,,,,,,,,Clear,72000.0,,,73000.0,,,,,,
KRDR,11-06-2009,04:00,METAR,,150,10.0,,,9999.0,,1.0,-1.0,29.85,1012.0,,,,,,,,,,,,,,,Clear,72000.0,,,73000.0,,,,,,
KRDR,11-06-2009,03:00,METAR,,140,9.0,,,9999.0,,2.0,-1.0,29.90,1013.6,,,,,,,,,,,,,,,Clear,72000.0,,,73000.0,,,,,,
KRDR,11-06-2009,02:00,METAR,,130,9.0,,,9999.0,,2.0,-1.0,29.92,1014.3,,,,,,,,,,,,,,,Clear,72000.0,,,73000.0,,,,,,
KRDR,11-06-2009,01:00,METAR,,130,9.0,,,9999.0,,1.0,-2.0,29.95,1015.3,,,,,,,,,,,,,,,Clear,72000.0,,,73000.0,,,,,,
KRDR,11-06-2009,00:00,METAR,,120,7.0,,,9999.0,,3.0,-1.0,29.98,1016.1,,,,,,,,,,,,,,,Clear,72000.0,,,73000.0,,,,,,
KRDR,11-05-2009,23:00,METAR,,110,6.0,,,9999.0,,6.0,-1.0,30.01,1017.2,,,,,,,,,,,,,,,Clear,72000.0,,,73000.0,,,,,,
KRDR,11-05-2009,22:00,METAR,,120,8.0,,,9999.0,,7.0,-2.0,30.03,1017.9,,,,,,,,,,,,,,,Clear,72000.0,,,73000.0,,,,,,
KRDR,11-05-2009,21:00,METAR,,130,10.0,,,9999.0,,7.0,-3.0,30.06,1018.9,,,,,,,,,,,,,,,Clear,72000.0,,,73000.0,,,,,,
KRDR,11-05-2009,20:00,METAR,,110,12.0,17.0,,9999.0,,6.0,-3.0,30.10,1020.2,,,,,,,,,,,,,,,7/8 Mostly Cloudy,20000.0,,BKN,20000.0,,,,,,
KRDR,11-05-2009,19:00,METAR,,120,12.0,,,9999.0,,6.0,-4.0,30.15,1021.7,,,,,,,,,,,,,,,7/8 Mostly Cloudy,20000.0,,BKN,20000.0,,,,,,
KRDR,11-05-2009,18:00,METAR,,110,12.0,,,9999.0,,4.0,-5.0,30.19,1023.1,,,,,,,,,,,,,,,7/8 Mostly Cloudy,20000.0,,BKN,20000.0,,,,,,
KRDR,11-05-2009,17:00,METAR,,110,10.0,,,9999.0,,3.0,-4.0,30.22,1024.0,,,,,,,,,,,,,,,4/8 Partly Cloudy,72000.0,,SCT,20000.0,,,,,,
KRDR,11-05-2009,16:00,METAR,,120,8.0,,,9999.0,,0.0,-4.0,30.22,1024.1,,,,,,,,,,,,,,,7/8 Mostly Cloudy,20000.0,,BKN,20000.0,,,,,,
KRDR,11-05-2009,15:00,METAR,,100,5.0,,,9999.0,,-2.0,-4.0,30.24,1024.7,,,,,,,,,,,,,,,Clear,72000.0,,,73000.0,,,,,,
KRDR,11-05-2009,14:00,METAR,,,0.0,,,9999.0,,-7.0,-8.0,30.24,1024.6,,,,,,,,,,,,,,,Clear,72000.0,,,73000.0,,,,,,
KRDR,11-05-2009,13:00,METAR,,20,3.0,,,9999.0,,-8.0,-9.0,30.23,1024.6,,,,,,,,,,,,,,,Clear,72000.0,,,73000.0,,,,,,
KRDR,11-05-2009,12:00,METAR,,,0.0,,,9999.0,,-7.0,-8.0,30.24,1024.6,,,,,,,,,,,,,,,Clear,72000.0,,,73000.0,,,,,,
KRDR,11-05-2009,11:04,SPECI,,,0.0,,,4800.0,Mist,-7.0,-8.0,30.23,1024.4,10,,,,,,,,,,,,,,Clear,72000.0,,,73000.0,,,,,,
KRDR,11-05-2009,11:01,SPECI,,,0.0,,,4000.0,Mist,-7.0,-8.0,30.23,1024.4,10,,,,,,,,,,,,,,Clear,72000.0,,,73000.0,,,,,,
KRDR,11-05-2009,11:00,METAR,,,0.0,,,9999.0,,-7.0,-7.0,30.23,1024.4,,,,,,,,,,,,,,,Clear,72000.0,,,73000.0,,,,,,
KRDR,11-05-2009,10:00,METAR,,,0.0,,,9999.0,,-6.0,-7.0,30.23,1024.6,,,,,,,,,,,,,,,Clear,72000.0,,,73000.0,,,,,,
KRDR,11-05-2009,09:00,METAR,,,0.0,,,9999.0,,-6.0,-7.0,30.25,1025.0,,,,,,,,,,,,,,,Clear,72000.0,,,73000.0,,,,,,
KRDR,11-05-2009,08:00,METAR,,,0.0,,,9999.0,,-5.0,-6.0,30.25,1025.0,,,,,,,,,,,,,,,Clear,72000.0,,,73000.0,,,,,,
KRDR,11-05-2009,07:00,METAR,,340,3.0,,,9999.0,,-4.0,-5.0,30.25,1025.1,,,,,,,,,,,,,,,Clear,72000.0,,,73000.0,,,,,,
KRDR,11-05-2009,06:00,METAR,,360,4.0,,,9999.0,,-3.0,-4.0,30.25,1025.0,,,,,,,,,,,,,,,Clear,72000.0,,,73000.0,,,,,,
KRDR,11-05-2009,05:00,METAR,,10,5.0,,,9999.0,,0.0,-2.0,30.24,1024.7,,,,,,,,,,,,,,,Clear,72000.0,,,73000.0,,,,,,
KRDR,11-05-2009,04:00,METAR,,290,4.0,,,9999.0,,-2.0,-3.0,30.22,1023.9,,,,,,,,,,,,,,,Clear,72000.0,,,73000.0,,,,,,
KRDR,11-05-2009,03:00,METAR,,310,4.0,,,9999.0,,1.0,-2.0,30.20,1023.4,,,,,,,,,,,,,,,2/8 Mostly Clear,72000.0,,FEW,7400.0,,,,,,
KRDR,11-05-2009,02:00,METAR,,350,9.0,,,9999.0,,2.0,-1.0,30.18,1022.8,,,,,,,,,,,,,,,7/8 Mostly Cloudy,7000.0,,BKN,6900.0,,,,,,
KRDR,11-05-2009,01:00,METAR,,250,2.0,,,9999.0,,1.0,-2.0,30.18,1022.6,,,,,,,,,,,,,,,2/8 Mostly Clear,72000.0,,FEW,7900.0,FEW,20000.0,,,,
KRDR,11-05-2009,00:00,METAR,,280,5.0,,,9999.0,,5.0,-1.0,30.16,1022.5,,,,,,,,,,,,,,,2/8 Mostly Clear,72000.0,,FEW,7900.0,FEW,20000.0,,,,
KRDR,11-04-2009,23:00,METAR,,280,9.0,,,9999.0,,9.0,0.0,30.16,1022.3,,,,,,,,,,,,,,,2/8 Mostly Clear,72000.0,,FEW,3000.0,FEW,8400.0,FEW,20000.0,,
KRDR,11-04-2009,22:00,METAR,,280,14.0,23.0,,9999.0,,10.0,-1.0,30.16,1022.3,,,,,,,,,,,,,,,2/8 Mostly Clear,72000.0,,FEW,3000.0,FEW,7900.0,,,,
KRDR,11-04-2009,21:00,METAR,,280,14.0,23.0,300/26KTS,9999.0,,10.0,-1.0,30.16,1022.0,,,,,,,,,,,,,,,2/8 Mostly Clear,72000.0,,FEW,3000.0,FEW,7900.0,,,,
KRDR,11-04-2009,20:00,METAR,,290,14.0,22.0,,9999.0,,10.0,0.0,30.18,1022.7,,,,,,,,,,,,,,,2/8 Mostly Clear,72000.0,,FEW,2200.0,FEW,7400.0,,,,
KRDR,11-04-2009,19:00,METAR,,280,13.0,,,9999.0,,9.0,1.0,30.19,1023.2,,,,,,,,,,,,,,,2/8 Mostly Clear,72000.0,,FEW,15000.0,,,,,,
KRDR,11-04-2009,18:00,METAR,,260,9.0,,,9999.0,,7.0,0.0,30.22,1024.2,,,,,,,,,,,,,,,Clear,72000.0,,,73000.0,,,,,,
KRDR,11-04-2009,17:00,METAR,,270,8.0,,,9999.0,,4.0,-2.0,30.23,1024.6,,,,,,,,,,,,,,,Clear,72000.0,,,73000.0,,,,,,
KRDR,11-04-2009,16:00,METAR,,270,8.0,,,9999.0,,1.0,-3.0,30.25,1025.2,,,,,,,,,,,,,,,Clear,72000.0,,,73000.0,,,,,,
KRDR,11-04-2009,15:00,METAR,,280,5.0,,,9999.0,,0.0,-3.0,30.26,1025.3,,,,,,,,,,,,,,,Clear,72000.0,,,73000.0,,,,,,
KRDR,11-04-2009,14:00,METAR,,310,5.0,,,9999.0,,-2.0,-4.0,30.26,1025.3,,,,,,,,,,,,,,,4/8 Partly Cloudy,72000.0,,SCT,900.0,,,,,,
KRDR,11-04-2009,13:47,SPECI,,310,5.0,,,9999.0,,-2.0,-3.0,30.26,1025.3,,,,,,,,,,,,,,,4/8 Partly Cloudy,72000.0,,SCT,900.0,,,,,,
KRDR,11-04-2009,13:00,METAR,,340,6.0,,,9999.0,,-1.0,-3.0,30.25,1024.9,,,,,,,,,,,,,,,8/8 Overcast,1200.0,,FEW,800.0,OVC,1200.0,,,,
KRDR,11-04-2009,12:00,METAR,,350,7.0,,,9999.0,,-1.0,-3.0,30.24,1024.6,,,,,,,,,,,,,,,8/8 Overcast,1200.0,,SCT,800.0,OVC,1200.0,,,,
KRDR,11-04-2009,11:00,METAR,,330,7.0,,,9999.0,,-1.0,-3.0,30.22,1023.9,,,,,,,,,,,,,,,8/8 Overcast,1200.0,,OVC,1200.0,,,,,,
KRDR,11-04-2009,10:16,SPECI,,330,11.0,,,9999.0,,-1.0,-3.0,30.20,1023.6,,,,,,,,,,,,,,,8/8 Overcast,1200.0,,OVC,1200.0,,,,,,
KRDR,11-04-2009,10:00,METAR,,330,14.0,,,9999.0,,-1.0,-3.0,30.20,1023.4,,,,,,,,,,,,,,,8/8 Overcast,1100.0,,OVC,1100.0,,,,,,
KRDR,11-04-2009,09:27,SPECI,,320,10.0,,,9999.0,,-1.0,-3.0,30.20,1023.4,,,,,,,,,,,,,,,8/8 Overcast,1100.0,,OVC,1100.0,,,,,,
KRDR,11-04-2009,09:00,METAR,,330,11.0,,,9999.0,,0.0,-2.0,30.18,1022.7,,,,,,,,,,,,,,,8/8 Overcast,1300.0,,OVC,1300.0,,,,,,
KRDR,11-04-2009,08:39,SPECI,,320,9.0,,,9999.0,,0.0,-2.0,30.18,1022.7,,,,,,,,,,,,,,,8/8 Overcast,700.0,,OVC,1200.0,,,,,,
KRDR,11-04-2009,08:22,SPECI,,320,9.0,,,9999.0,,-1.0,-2.0,30.17,1022.5,,,,,,,,,,,,,,,8/8 Overcast,600.0,,OVC,1100.0,,,,,,
KRDR,11-04-2009,08:00,METAR,,330,8.0,,,9999.0,,0.0,-2.0,30.17,1022.3,,,,,,,,,,,,,,,8/8 Overcast,500.0,,OVC,900.0,,,,,,
KRDR,11-04-2009,07:00,METAR,,340,14.0,,,9999.0,,-1.0,-2.0,30.15,1021.9,,,,,,,,,,,,,,,8/8 Overcast,800.0,,OVC,800.0,,,,,,
KRDR,11-04-2009,06:35,SPECI,,340,11.0,19.0,,9999.0,,0.0,-2.0,30.15,1021.7,,,,,,,,,,,,,,,8/8 Overcast,700.0,,OVC,900.0,,,,,,
KRDR,11-04-2009,06:30,SPECI,,340,14.0,19.0,,9999.0,,0.0,-1.0,30.15,1021.7,,,,,,,,,,,,,,,8/8 Overcast,700.0,,OVC,1100.0,,,,,,
KRDR,11-04-2009,06:21,SPECI,,340,13.0,,,9999.0,,0.0,-1.0,30.14,1021.5,,,,,,,,,,,,,,,8/8 Overcast,800.0,,OVC,1400.0,,,,,,
KRDR,11-04-2009,06:02,SPECI,,340,13.0,,,9999.0,,1.0,0.0,30.13,1021.1,,,,,,,,,,,,,,,8/8 Overcast,600.0,,OVC,1600.0,,,,,,
KRDR,11-04-2009,06:00,METAR,,340,13.0,,,9999.0,,1.0,0.0,30.12,1020.9,,,,,,,,,,,,,,,8/8 Overcast,600.0,,OVC,1000.0,,,,,,
KRDR,11-04-2009,05:46,SPECI,,330,13.0,,,9999.0,,2.0,1.0,30.12,1020.8,,,,,,,,,,,,,,,8/8 Overcast,600.0,,OVC,1100.0,,,,,,
KRDR,11-04-2009,05:26,SPECI,,350,14.0,,,9999.0,,2.0,1.0,30.11,1020.5,,,,,,,,,,,,,,,8/8 Overcast,600.0,,OVC,800.0,,,,,,
KRDR,11-04-2009,05:23,SPECI,,350,16.0,,,9999.0,,2.0,1.0,30.11,1020.4,,,,,,,,,,,,,,,8/8 Overcast,600.0,,OVC,600.0,,,,,,
KRDR,11-04-2009,05:08,SPECI,,340,13.0,,,9999.0,,3.0,2.0,30.11,1020.3,,,,,,,,,,,,,,,8/8 Overcast,700.0,,OVC,900.0,,,,,,
KRDR,11-04-2009,05:00,METAR,,350,9.0,,,9999.0,,3.0,2.0,30.10,1020.1,,,,,,,,,,,,,,,8/8 Overcast,800.0,,OVC,1200.0,,,,,,
KRDR,11-04-2009,04:28,SPECI,,330,6.0,,,9999.0,,2.0,2.0,30.09,1019.9,,,,,,,,,,,,,,,8/8 Overcast,700.0,,FEW,700.0,OVC,1100.0,,,,
KRDR,11-04-2009,04:26,SPECI,,330,6.0,,,9999.0,,2.0,2.0,30.09,1019.8,,,,,,,,,,,,,,,8/8 Overcast,700.0,,FEW,700.0,OVC,1400.0,,,,
KRDR,11-04-2009,04:16,SPECI,,330,5.0,,,9999.0,,2.0,2.0,30.09,1019.7,,,,,,,,,,,,,,,8/8 Overcast,1300.0,,SCT,1000.0,OVC,2200.0,,,,
KRDR,11-04-2009,04:03,SPECI,,350,6.0,,,9999.0,,3.0,2.0,30.08,1019.4,,,,,,,,,,,,,,,8/8 Overcast,1700.0,,SCT,1700.0,BKN,2900.0,OVC,3400.0,,
KRDR,11-04-2009,04:00,METAR,,350,3.0,,,9999.0,,3.0,2.0,30.08,1019.4,,,,,,,,,,,,,,,8/8 Overcast,2800.0,,SCT,2900.0,BKN,3500.0,OVC,3700.0,,
KRDR,11-04-2009,03:38,SPECI,,340,4.0,,,9999.0,,3.0,2.0,30.07,1019.2,,,,,,,,,,,,,,,8/8 Overcast,2500.0,,SCT,2500.0,OVC,3500.0,,,,
KRDR,11-04-2009,03:23,SPECI,,20,4.0,,,9999.0,,3.0,2.0,30.06,1018.8,,,,,,,,,,,,,,,8/8 Overcast,2900.0,,OVC,2900.0,,,,,,
KRDR,11-04-2009,03:00,METAR,,170,2.0,,,9999.0,,3.0,2.0,30.05,1018.4,,,,,,,,,,,,,,,8/8 Overcast,3000.0,,OVC,3000.0,,,,,,
KRDR,11-04-2009,02:00,METAR,,130,4.0,,,9999.0,,3.0,2.0,30.04,1018.0,,,,,,,,,,,,,,,8/8 Overcast,3100.0,,BKN,3100.0,OVC,3500.0,,,,
KRDR,11-04-2009,01:17,SPECI,,160,4.0,,,9999.0,,4.0,2.0,30.03,,,,,,,,,,,,,,,,8/8 Overcast,3000.0,,BKN,3000.0,OVC,3200.0,,,,
KRDR,11-04-2009,01:00,METAR,,170,4.0,,,9999.0,,4.0,2.0,30.03,1017.7,,,,,,,,,,,,,,,8/8 Overcast,2900.0,,BKN,2900.0,OVC,3200.0,,,,
KRDR,11-04-2009,00:00,METAR,,150,6.0,,,9999.0,,4.0,2.0,30.01,1017.1,,,,,,,,,,,,,TRACE,,8/8 Overcast,2600.0,,BKN,2600.0,OVC,3400.0,,,,
KRDR,11-03-2009,23:00,METAR,,150,8.0,,,9999.0,,4.0,2.0,29.98,1016.5,,,,,,,,,,,TRACE,,,,8/8 Overcast,3000.0,,SCT,2900.0,BKN,3000.0,OVC,5400.0,,
KRDR,11-03-2009,22:25,SPECI,,160,9.0,,,9999.0,,5.0,3.0,29.97,1016.3,,,,,,,,,,,,,,,8/8 Overcast,3100.0,,FEW,1500.0,BKN,3100.0,OVC,5400.0,,
KRDR,11-03-2009,22:00,METAR,,160,12.0,,,9999.0,Rain,5.0,3.0,29.97,1016.2,,,,61,,,,,,,TRACE,,,,8/8 Overcast,3100.0,,FEW,1700.0,BKN,3200.0,OVC,7400.0,,
KRDR,11-03-2009,21:36,SPECI,,170,12.0,,,9999.0,,5.0,3.0,29.98,1016.5,,,,,,,,,,,,,,,7/8 Mostly Cloudy,3100.0,,FEW,1200.0,SCT,2600.0,BKN,3100.0,,
KRDR,11-03-2009,21:20,SPECI,,170,14.0,20.0,,9999.0,Rain,5.0,3.0,29.98,1016.2,,,,61,,,,,,,,,,,8/8 Overcast,3900.0,,FEW,1100.0,SCT,2100.0,OVC,4000.0,,
KRDR,11-03-2009,21:00,METAR,,160,15.0,20.0,,9999.0,,5.0,3.0,29.96,1015.7,,,,,,,,,,,TRACE,TRACE,,,8/8 Overcast,4200.0,,SCT,4300.0,OVC,5000.0,,,,
KRDR,11-03-2009,20:00,METAR,,160,16.0,21.0,,9999.0,Rain,5.0,1.0,29.97,1016.1,,,,61,,,,,,,TRACE,,,,8/8 Overcast,4900.0,,OVC,5000.0,,,,,,
KRDR,11-03-2009,19:30,SPECI,,160,13.0,,,9999.0,,6.0,1.0,29.98,1016.1,,,,,,,,,,,,,,,8/8 Overcast,7000.0,,FEW,3800.0,BKN,6900.0,OVC,9400.0,,
KRDR,11-03-2009,19:00,METAR,,170,12.0,,,9999.0,,6.0,0.0,30.00,1016.8,,,,,,,,,,,,,,,8/8 Overcast,9000.0,,BKN,8900.0,OVC,25000.0,,,,
KRDR,11-03-2009,18:00,METAR,,160,12.0,,,9999.0,,4.0,-1.0,30.02,1017.7,,,,,,,,,,,,,,,8/8 Overcast,8000.0,,BKN,7900.0,OVC,25000.0,,,,
KRDR,11-03-2009,17:00,METAR,,160,10.0,,,9999.0,,2.0,-2.0,30.05,1018.6,,,,,,,,,,,,,,,7/8 Mostly Cloudy,8500.0,,BKN,8400.0,BKN,25000.0,,,,
KRDR,11-03-2009,16:00,METAR,,150,11.0,,,9999.0,,0.0,-3.0,30.08,1019.4,,,,,,,,,,,,,,,7/8 Mostly Cloudy,8000.0,,BKN,7900.0,BKN,25000.0,,,,
KRDR,11-03-2009,15:00,METAR,,150,9.0,,,9999.0,,-2.0,-4.0,30.10,1020.1,,,,,,,,,,,,,,,Clear,72000.0,,,73000.0,,,,,,
KRDR,11-03-2009,14:00,METAR,,160,7.0,,,9999.0,,-3.0,-5.0,30.12,1020.6,,,,,,,,,,,,,,,Clear,72000.0,,,73000.0,,,,,,
KRDR,11-03-2009,13:00,METAR,,150,7.0,,,9999.0,,-4.0,-6.0,30.13,1021.0,,,,,,,,,,,,,,,Clear,72000.0,,,73000.0,,,,,,
KRDR,11-03-2009,12:00,METAR,,160,7.0,,,9999.0,,-5.0,-7.0,30.16,1022.1,,,,,,,,,,,,,,,Clear,72000.0,,,73000.0,,,,,,
KRDR,11-03-2009,11:00,METAR,,170,8.0,,,9999.0,,-5.0,-7.0,30.19,1023.0,,,,,,,,,,,,,,,Clear,72000.0,,,73000.0,,,,,,
KRDR,11-03-2009,10:00,METAR,,170,7.0,,,9999.0,,-6.0,-8.0,30.21,1023.7,,,,,,,,,,,,,,,Clear,72000.0,,,73000.0,,,,,,
KRDR,11-03-2009,09:00,METAR,,160,6.0,,,9999.0,,-5.0,-8.0,30.24,1024.6,,,,,,,,,,,,,,,Clear,72000.0,,,73000.0,,,,,,
KRDR,11-03-2009,08:00,METAR,,190,6.0,,,9999.0,,-5.0,-8.0,30.25,1025.0,,,,,,,,,,,,,,,4/8 Partly Cloudy,72000.0,,SCT,11000.0,,,,,,
KRDR,11-03-2009,07:00,METAR,,190,6.0,,,9999.0,,-6.0,-8.0,30.27,1025.6,,,,,,,,,,,,,,,Clear,72000.0,,,73000.0,,,,,,
KRDR,11-03-2009,06:00,METAR,,210,5.0,,,9999.0,,-7.0,-8.0,30.28,1025.9,,,,,,,,,,,,,,,Clear,72000.0,,,73000.0,,,,,,
KRDR,11-03-2009,05:00,METAR,,210,3.0,,,9999.0,,-5.0,-7.0,30.30,1026.6,,,,,,,,,,,,,,,2/8 Mostly Clear,72000.0,,FEW,11000.0,,,,,,
KRDR,11-03-2009,04:00,METAR,,220,3.0,,,9999.0,,-5.0,-7.0,30.30,1027.1,,,,,,,,,,,,,,,2/8 Mostly Clear,72000.0,,FEW,9900.0,,,,,,
KRDR,11-03-2009,03:00,METAR,,240,4.0,,,9999.0,,-6.0,-7.0,30.31,1027.3,,,,,,,,,,,,,,,2/8 Mostly Clear,72000.0,,FEW,9900.0,,,,,,
KRDR,11-03-2009,02:00,METAR,,220,2.0,,,9999.0,,-5.0,-8.0,30.31,1027.3,,,,,,,,,,,,,,,Clear,72000.0,,,73000.0,,,,,,
KRDR,11-03-2009,01:00,METAR,,280,3.0,,,9999.0,,-4.0,-7.0,30.32,1027.3,,,,,,,,,,,,,,,Clear,72000.0,,,73000.0,,,,,,
KRDR,11-03-2009,00:00,METAR,,320,3.0,,,9999.0,,-2.0,-7.0,30.30,1027.0,,,,,,,,,,,,,,,Clear,72000.0,,,73000.0,,,,,,
KRDR,11-02-2009,23:00,METAR,,330,5.0,,,9999.0,,1.0,-7.0,30.30,1026.9,,,,,,,,,,,,,,,Clear,72000.0,,,73000.0,,,,,,
KRDR,11-02-2009,22:00,METAR,,340,11.0,,,9999.0,,3.0,-7.0,30.30,1026.8,,,,,,,,,,,,,,,2/8 Mostly Clear,72000.0,,FEW,3800.0,,,,,,
KRDR,11-02-2009,21:00,METAR,,330,15.0,20.0,,9999.0,,3.0,-7.0,30.30,1026.6,,,,,,,,,,,,,,,2/8 Mostly Clear,72000.0,,FEW,3800.0,,,,,,
KRDR,11-02-2009,20:00,METAR,,310,13.0,19.0,,9999.0,,3.0,-7.0,30.30,1026.6,,,,,,,,,,,,,,,4/8 Partly Cloudy,72000.0,,SCT,3000.0,,,,,,
KRDR,11-02-2009,19:00,METAR,,320,13.0,18.0,,9999.0,,1.0,-6.0,30.30,1026.6,,,,,,,,,,,,,,,7/8 Mostly Cloudy,3000.0,,BKN,3000.0,,,,,,
KRDR,11-02-2009,18:00,METAR,,320,17.0,25.0,,9999.0,,2.0,-6.0,30.29,1026.4,,,,,,,,,,,,,,,7/8 Mostly Cloudy,3000.0,,BKN,3000.0,,,,,,
KRDR,11-02-2009,17:00,METAR,,310,16.0,22.0,,9999.0,,1.0,-6.0,30.28,1026.0,,,,,,,,,,,,,,,7/8 Mostly Cloudy,3100.0,,BKN,3100.0,,,,,,
KRDR,11-02-2009,16:00,METAR,,310,16.0,23.0,,9999.0,,1.0,-6.0,30.25,1025.1,,,,,,,,,,,,,,,7/8 Mostly Cloudy,3400.0,,BKN,3500.0,,,,,,
KRDR,11-02-2009,15:00,METAR,,310,12.0,19.0,,9999.0,,1.0,-6.0,30.23,1024.4,,,,,,,,,,,,,,,4/8 Partly Cloudy,72000.0,,SCT,3800.0,,,,,,
KRDR,11-02-2009,14:00,METAR,,300,12.0,,,9999.0,,0.0,-5.0,30.21,1023.6,,,,,,,,,,,,,,,Clear,72000.0,,,73000.0,,,,,,
KRDR,11-02-2009,13:00,METAR,,310,8.0,,,9999.0,,-1.0,-4.0,30.18,1022.9,,,,,,,,,,,,,,,Clear,72000.0,,,73000.0,,,,,,
KRDR,11-02-2009,12:00,METAR,,300,8.0,,,9999.0,,0.0,-4.0,30.17,1022.3,,,,,,,,,,,,,,,Clear,72000.0,,,73000.0,,,,,,
KRDR,11-02-2009,11:00,METAR,,290,11.0,,,9999.0,,1.0,-3.0,30.14,1021.6,,,,,,,,,,,,,,,Clear,72000.0,,,73000.0,,,,,,
KRDR,11-02-2009,10:00,METAR,,290,12.0,,,9999.0,,1.0,-3.0,30.13,1021.1,,,,,,,,,,,,,,,Clear,72000.0,,,73000.0,,,,,,
KRDR,11-02-2009,09:00,METAR,,280,10.0,,,9999.0,,2.0,-3.0,30.11,1020.6,,,,,,,,,,,,,,,Clear,72000.0,,,73000.0,,,,,,
KRDR,11-02-2009,08:00,METAR,,290,10.0,,,9999.0,,2.0,-2.0,30.11,1020.4,,,,,,,,,,,,,,,Clear,72000.0,,,73000.0,,,,,,
KRDR,11-02-2009,07:00,METAR,,290,10.0,,,9999.0,,1.0,-2.0,30.10,1020.2,,,,,,,,,,,,,,,Clear,72000.0,,,73000.0,,,,,,
KRDR,11-02-2009,06:00,METAR,,280,5.0,,,9999.0,,0.0,-2.0,30.09,1019.9,,,,,,,,,,,,,,,Clear,72000.0,,,73000.0,,,,,,
KRDR,11-02-2009,05:00,METAR,,300,8.0,,,9999.0,,1.0,-2.0,30.09,1019.7,,,,,,,,,,,,,,,2/8 Mostly Clear,72000.0,,FEW,9400.0,,,,,,
KRDR,11-02-2009,04:00,METAR,,310,4.0,,,9999.0,,-2.0,-2.0,30.08,1019.6,,,,,,,,,,,,,,,2/8 Mostly Clear,72000.0,,FEW,12000.0,,,,,,
KRDR,11-02-2009,03:00,METAR,,280,3.0,,,9999.0,,-1.0,-2.0,30.07,1019.0,,,,,,,,,,,,,,,7/8 Mostly Cloudy,12000.0,,BKN,12000.0,,,,,,
KRDR,11-02-2009,02:00,METAR,,290,4.0,,,9999.0,,2.0,0.0,30.06,1018.7,,,,,,,,,,,,,,,7/8 Mostly Cloudy,11000.0,,BKN,11000.0,,,,,,
KRDR,11-02-2009,01:00,METAR,,300,6.0,,,9999.0,,1.0,-1.0,30.05,1018.4,,,,,,,,,,,,,,,2/8 Mostly Clear,72000.0,,FEW,3000.0,,,,,,
KRDR,11-02-2009,00:00,METAR,,330,6.0,,,9999.0,,2.0,0.0,30.01,1017.3,,,,,,,,,,,,,,,4/8 Partly Cloudy,72000.0,,SCT,3000.0,,,,,,
KRDR,11-01-2009,23:44,SPECI,,350,7.0,,,4800.0,Light Snow/Mist,-1.0,-1.0,29.81,,,,,71,10,,,,,,,,,,8/8 Overcast,1600.0,,BKN,1600.0,OVC,2400.0,,,,
KRDR,11-01-2009,23:33,SPECI,,340,8.0,,,4800.0,Light Snow/Mist,-1.0,-1.0,29.81,,,,,71,10,,,,,,,,,,8/8 Overcast,1300.0,,OVC,1300.0,,,,,,
KRDR,11-01-2009,23:00,METAR,,10,9.0,,,9999.0,,6.0,1.0,29.98,1016.3,,,,,,,,,,,,,,,7/8 Mostly Cloudy,3000.0,,BKN,3000.0,,,,,,
KRDR,11-01-2009,22:00,METAR,,330,11.0,,,9999.0,,7.0,1.0,29.96,1015.6,,,,,,,,,,,,,,,4/8 Partly Cloudy,72000.0,,SCT,2500.0,,,,,,
KRDR,11-01-2009,21:00,METAR,,320,15.0,21.0,,9999.0,,8.0,1.0,29.92,1014.3,,,,,,,,,,,,,,,7/8 Mostly Cloudy,2300.0,,BKN,2300.0,BKN,15000.0,,,,
KRDR,11-01-2009,20:00,METAR,,320,13.0,,,9999.0,,9.0,2.0,29.90,1013.5,,,,,,,,,,,,,,,7/8 Mostly Cloudy,2800.0,,BKN,2800.0,BKN,15000.0,,,,
KRDR,11-01-2009,19:43,SPECI,,320,13.0,19.0,,9999.0,,8.0,2.0,29.89,1013.3,,,,,,,,,,,,,,,7/8 Mostly Cloudy,2300.0,,BKN,2300.0,BKN,12000.0,,,,
KRDR,11-01-2009,19:35,SPECI,,320,14.0,,,9999.0,,8.0,2.0,29.89,1013.1,,,,,,,,,,,,,,,4/8 Partly Cloudy,72000.0,,SCT,2200.0,,,,,,
KRDR,11-01-2009,19:00,METAR,,310,11.0,,,9999.0,,8.0,2.0,29.87,1012.6,,,,,,,,,,,,,,,7/8 Mostly Cloudy,2100.0,,BKN,2100.0,,,,,,
KRDR,11-01-2009,18:00,METAR,,310,12.0,20.0,,9999.0,,8.0,2.0,29.85,1012.0,,,,,,,,,,,,,TRACE,,7/8 Mostly Cloudy,12000.0,,SCT,2000.0,BKN,12000.0,,,,
KRDR,11-01-2009,17:00,METAR,,310,12.0,,,9999.0,,7.0,2.0,29.83,1011.1,,,,,,,,,,,,,,,7/8 Mostly Cloudy,15000.0,,FEW,5900.0,FEW,9900.0,BKN,15000.0,,
KRDR,11-01-2009,16:00,METAR,,230,5.0,,,9999.0,,5.0,2.0,29.80,1010.3,,,,,,,,,,,TRACE,,,,7/8 Mostly Cloudy,12000.0,,FEW,6900.0,BKN,12000.0,,,,
KRDR,11-01-2009,15:26,SPECI,,190,6.0,,,9999.0,,5.0,2.0,29.80,1010.2,,,,,,,,,,,,,,,7/8 Mostly Cloudy,10000.0,,FEW,6900.0,BKN,9900.0,,,,
KRDR,11-01-2009,15:16,SPECI,,180,7.0,,,9999.0,Rain,4.0,2.0,29.80,1010.2,,,,61,,,,,,,,,,,7/8 Mostly Cloudy,10000.0,,FEW,6900.0,BKN,9900.0,,,,
KRDR,11-01-2009,15:00,METAR,,190,8.0,,,9999.0,,3.0,1.0,29.79,1009.8,,,,,,,,,,,,,,,7/8 Mostly Cloudy,10000.0,,FEW,6900.0,BKN,9900.0,BKN,15000.0,,
KRDR,11-01-2009,14:00,METAR,,180,8.0,,,9999.0,,2.0,0.0,29.80,1010.1,,,,,,,,,,,,,,,7/8 Mostly Cloudy,15000.0,,SCT,8900.0,BKN,15000.0,,,,
KRDR,11-01-2009,13:00,METAR,,170,11.0,,,9999.0,,2.0,0.0,29.76,1009.0,,,,,,,,,,,,,,,7/8 Mostly Cloudy,15000.0,,BKN,15000.0,,,,,,
KRDR,11-01-2009,12:00,METAR,,170,9.0,,,9999.0,,1.0,0.0,29.77,1009.3,,,,,,,,,,,,,,,7/8 Mostly Cloudy,12000.0,,FEW,6900.0,BKN,12000.0,,,,
KRDR,11-01-2009,11:00,METAR,,170,12.0,,,9999.0,,3.0,0.0,29.78,1009.5,,,,,,,,,,,,,,,7/8 Mostly Cloudy,8500.0,,BKN,8400.0,,,,,,
KRDR,11-01-2009,10:00,METAR,,140,15.0,,,9999.0,,3.0,0.0,29.76,1009.0,,,,,,,,,,,,,,,7/8 Mostly Cloudy,8500.0,,BKN,8400.0,,,,,,
KRDR,11-01-2009,09:00,METAR,,150,14.0,,,9999.0,,2.0,-1.0,29.81,1010.6,,,,,,,,,,,,,,,7/8 Mostly Cloudy,15000.0,,SCT,9900.0,BKN,15000.0,,,,
KRDR,11-01-2009,08:00,METAR,,140,9.0,,,9999.0,,3.0,-1.0,29.84,1011.4,,,,,,,,,,,,,,,7/8 Mostly Cloudy,12000.0,,FEW,6900.0,BKN,12000.0,,,,
KRDR,11-01-2009,07:00,METAR,,150,11.0,,,9999.0,,3.0,-1.0,29.84,1011.7,,,,,,,,,,,,,,,8/8 Overcast,7000.0,,OVC,6900.0,,,,,,
KRDR,11-01-2009,06:00,METAR,,140,9.0,,,9999.0,,3.0,-1.0,29.86,1012.2,,,,,,,,,,,,,,,8/8 Overcast,3700.0,,OVC,4600.0,,,,,,
KRDR,11-01-2009,05:00,METAR,,140,9.0,,,9999.0,,2.0,-2.0,29.87,1012.5,,,,,,,,,,,,,,,8/8 Overcast,5500.0,,OVC,5400.0,,,,,,
KRDR,11-01-2009,04:00,METAR,,150,6.0,,,9999.0,,2.0,-2.0,29.88,1013.0,,,,,,,,,,,,,,,8/8 Overcast,4800.0,,OVC,4900.0,,,,,,
KRDR,11-01-2009,03:00,METAR,,150,6.0,,,9999.0,,2.0,-2.0,29.89,1013.1,,,,,,,,,,,,,,,8/8 Overcast,6000.0,,OVC,5900.0,,,,,,
KRDR,11-01-2009,02:00,METAR,,140,4.0,,,9999.0,,2.0,-3.0,29.88,1013.0,,,,,,,,,,,,,,,8/8 Overcast,6500.0,,OVC,6400.0,,,,,,
KRDR,11-01-2009,01:00,METAR,,140,4.0,,,9999.0,,2.0,-2.0,29.87,1012.7,,,,,,,,,,,,,,,7/8 Mostly Cloudy,8500.0,,BKN,8400.0,,,,,,
KRDR,11-01-2009,00:00,METAR,,130,3.0,,,9999.0,,2.0,-3.0,29.87,1012.6,,,,,,,,,,,,,,,4/8 Partly Cloudy,72000.0,,SCT,7900.0,,,,,,
KRDR,10-31-2009,23:00,METAR,,,0.0,,,9999.0,,3.0,-4.0,29.86,1012.1,,,,,,,,,,,,,,,4/8 Partly Cloudy,72000.0,,FEW,3000.0,SCT,20000.0,,,,
KRDR,10-31-2009,22:00,METAR,,280,4.0,,,9999.0,,4.0,-4.0,29.85,1012.0,,,,,,,,,,,,,,,4/8 Partly Cloudy,72000.0,,FEW,3000.0,SCT,20000.0,,,,
KRDR,10-31-2009,21:00,METAR,,310,5.0,,,9999.0,,4.0,-4.0,29.84,1011.4,,,,,,,,,,,,,,,4/8 Partly Cloudy,72000.0,,FEW,3000.0,SCT,20000.0,,,,
KRDR,10-31-2009,20:00,METAR,,280,5.0,,,9999.0,,4.0,-4.0,29.82,1011.0,,,,,,,,,,,,,,,4/8 Partly Cloudy,72000.0,,SCT,3000.0,,,,,,
KRDR,10-31-2009,19:34,SPECI,,320,5.0,,,9999.0,,4.0,-4.0,29.82,1011.0,,,,,,,,,,,,,,,4/8 Partly Cloudy,72000.0,,SCT,3000.0,,,,,,
KRDR,10-31-2009,19:00,METAR,,330,7.0,,,9999.0,,3.0,-4.0,29.83,1011.1,,,,,,,,,,,,,,,8/8 Overcast,3000.0,,OVC,3000.0,,,,,,
KRDR,10-31-2009,18:47,SPECI,,330,8.0,,,9999.0,,4.0,-4.0,29.83,1011.1,,,,,,,,,,,,,,,8/8 Overcast,2900.0,,OVC,2900.0,,,,,,
KRDR,10-31-2009,18:03,SPECI,,340,9.0,,,9999.0,,3.0,-4.0,29.82,1011.0,,,,,,,,,,,,,,,7/8 Mostly Cloudy,3000.0,,BKN,3000.0,,,,,,
KRDR,10-31-2009,18:00,METAR,,330,8.0,,,9999.0,,3.0,-4.0,29.82,1010.9,,,,,,,,,,,,,,,4/8 Partly Cloudy,72000.0,,SCT,2500.0,,,,,,
KRDR,10-31-2009,17:00,METAR,,320,8.0,,,9999.0,,3.0,-4.0,29.80,1010.3,,,,,,,,,,,,,,,2/8 Mostly Clear,72000.0,,FEW,5000.0,,,,,,
KRDR,10-31-2009,16:00,METAR,,320,12.0,,,9999.0,,2.0,-4.0,29.77,1009.3,,,,,,,,,,,,,,,2/8 Mostly Clear,72000.0,,FEW,12000.0,,,,,,
KRDR,10-31-2009,15:00,METAR,,310,11.0,,,9999.0,,0.0,-4.0,29.75,1008.6,,,,,,,,,,,,,,,2/8 Mostly Clear,72000.0,,FEW,9900.0,,,,,,
KRDR,10-31-2009,14:00,METAR,,300,10.0,,,9999.0,,-2.0,-5.0,29.73,1007.9,,,,,,,,,,,,,,,2/8 Mostly Clear,72000.0,,FEW,7900.0,,,,,,
KRDR,10-31-2009,13:00,METAR,,310,10.0,,,9999.0,,0.0,-4.0,29.70,1006.9,,,,,,,,,,,,,,,7/8 Mostly Cloudy,4600.0,,BKN,4700.0,,,,,,
KRDR,10-31-2009,12:00,METAR,,310,11.0,,,9999.0,,-1.0,-4.0,29.68,1006.2,,,,,,,,,,,,,,.01 IN,4/8 Partly Cloudy,72000.0,,SCT,5000.0,,,,,,
KRDR,10-31-2009,11:00,METAR,,300,8.0,,,9999.0,,-1.0,-4.0,29.65,1005.4,,,,,,,,,,,,,,,Clear,72000.0,,,73000.0,,,,,,
KRDR,10-31-2009,10:00,METAR,,310,8.0,,,9999.0,,-1.0,-4.0,29.61,1004.1,,,,,,,,,,,,,,,Clear,72000.0,,,73000.0,,,,,,
KRDR,10-31-2009,09:00,METAR,,330,14.0,18.0,,9999.0,,1.0,-4.0,29.59,1003.4,,,,,,,,,,,,,,,8/8 Overcast,6000.0,,OVC,5900.0,,,,,,
KRDR,10-31-2009,08:00,METAR,,320,13.0,,,9999.0,,1.0,-4.0,29.57,1002.8,,,,,,,,,,,,,,,8/8 Overcast,5500.0,,OVC,5400.0,,,,,,
KRDR,10-31-2009,07:00,METAR,,320,13.0,19.0,,9999.0,,1.0,-4.0,29.55,1001.9,,,,,,,,,,,,,,,8/8 Overcast,3900.0,,OVC,4000.0,,,,,,
KRDR,10-31-2009,06:00,METAR,,320,13.0,,,9999.0,,1.0,-3.0,29.52,1001.1,,,,,,,,,,,,,TRACE,,8/8 Overcast,5500.0,,OVC,5400.0,,,,,,
KRDR,10-31-2009,05:00,METAR,,320,7.0,,,9999.0,,0.0,-3.0,29.51,1000.8,,,,,,,,,,,,,,,2/8 Mostly Clear,72000.0,,FEW,4500.0,,,,,,
KRDR,10-31-2009,04:00,METAR,,320,11.0,,,9999.0,,1.0,-3.0,29.49,1000.1,,,,,,,,,,,,,,,8/8 Overcast,4500.0,,OVC,4600.0,,,,,,
KRDR,10-31-2009,03:00,METAR,,340,15.0,30.0,340/30KTS,9999.0,,2.0,-4.0,29.48,999.5,,,,,,,,,,,,TRACE,,,8/8 Overcast,3200.0,,OVC,3300.0,,,,,,
KRDR,10-30-2009,23:00,METAR,,340,18.0,24.0,340/26KTS,9999.0,,2.0,-2.0,29.37,996.2,,,,,,,,,,,,,,,8/8 Overcast,3200.0,,OVC,3300.0,,,,,,
KRDR,10-30-2009,22:52,SPECI,,330,17.0,24.0,,9999.0,,3.0,-2.0,29.38,,,,,,,,,,,,,,,,8/8 Overcast,2900.0,,OVC,2900.0,,,,,,
KRDR,10-30-2009,22:23,SPECI,,340,17.0,23.0,,9999.0,,2.0,-2.0,29.36,995.8,,,,,,,,,,,,,,,8/8 Overcast,3100.0,,OVC,3100.0,,,,,,
KRDR,10-30-2009,22:00,METAR,,340,14.0,24.0,,9999.0,,2.0,-2.0,29.36,995.7,,,,,,,,,,,,,,,8/8 Overcast,2500.0,,OVC,2500.0,,,,,,
KRDR,10-30-2009,21:00,METAR,,340,20.0,25.0,340/26KTS,9999.0,,3.0,-1.0,29.34,995.0,,,,,,,,,,,TRACE,.01 IN,,,8/8 Overcast,1900.0,,OVC,1900.0,,,,,,
KRDR,10-30-2009,20:37,SPECI,,340,15.0,23.0,340/26KTS,9999.0,,2.0,-1.0,29.33,994.7,,,,,,,,,,,,,,,8/8 Overcast,1900.0,,OVC,1900.0,,,,,,
KRDR,10-30-2009,20:26,SPECI,,340,18.0,22.0,340/26KTS,9999.0,Fog or Ice Fog,2.0,-1.0,29.33,994.7,,,,40,,,,,,,,,,,8/8 Overcast,2000.0,,OVC,2000.0,,,,,,
KRDR,10-30-2009,20:00,METAR,,350,23.0,29.0,360/30KTS,9999.0,,3.0,-2.0,29.33,994.8,,,,,,,,,,,.01 IN,,,,8/8 Overcast,1800.0,,OVC,1800.0,,,,,,
KRDR,10-30-2009,19:00,METAR,,350,18.0,25.0,350/27KTS,9999.0,,2.0,-1.0,29.35,995.3,,,,,,,,,,,TRACE,,,,8/8 Overcast,1600.0,,FEW,700.0,OVC,1600.0,,,,
KRDR,10-30-2009,18:32,SPECI,,350,19.0,27.0,,9999.0,,2.0,-1.0,29.35,995.4,,,,,,,,,,,,,,,8/8 Overcast,1500.0,,FEW,900.0,OVC,1500.0,,,,
KRDR,10-30-2009,18:16,SPECI,,360,19.0,27.0,360/27KTS,9999.0,Snow Grains,2.0,-1.0,29.35,995.4,,,,77,,,,,,,,,,,8/8 Overcast,1500.0,,FEW,1000.0,OVC,1500.0,,,,
KRDR,10-30-2009,18:00,METAR,,350,17.0,26.0,360/28KTS,9999.0,,2.0,-1.0,29.36,995.7,,,,,,,,,,,,,,,8/8 Overcast,1400.0,,FEW,1000.0,BKN,1400.0,OVC,2000.0,,
KRDR,10-30-2009,17:38,SPECI,,360,18.0,28.0,,9999.0,,3.0,-1.0,29.36,995.8,,,,,,,,,,,,,,,8/8 Overcast,1400.0,,FEW,1000.0,BKN,1400.0,OVC,2000.0,,
KRDR,10-30-2009,17:00,METAR,,340,15.0,24.0,350/28KTS,9999.0,,2.0,0.0,29.38,996.5,,,,,,,,,,,,,,,8/8 Overcast,1400.0,,FEW,1000.0,OVC,1400.0,,,,
KRDR,10-30-2009,16:00,METAR,,340,16.0,24.0,,9999.0,,2.0,0.0,29.40,997.2,,,,,,,,,,,,,,,8/8 Overcast,1500.0,,FEW,800.0,OVC,1500.0,,,,
KRDR,10-30-2009,15:20,SPECI,,340,16.0,22.0,,9999.0,,1.0,0.0,29.41,997.5,,,,,,,,,,,,,,,8/8 Overcast,1200.0,,OVC,1200.0,,,,,,
KRDR,10-30-2009,15:00,METAR,,340,19.0,24.0,,9999.0,,1.0,0.0,29.42,997.7,,,,,,,,,,,,,,,8/8 Overcast,1500.0,,OVC,2800.0,,,,,,
KRDR,10-30-2009,14:30,SPECI,,340,17.0,24.0,,9999.0,,1.0,0.0,29.42,997.8,,,,,,,,,,,,,,,8/8 Overcast,1100.0,,OVC,3000.0,,,,,,
KRDR,10-30-2009,14:00,METAR,,340,18.0,,,9999.0,,1.0,0.0,29.43,998.0,,,,,,,,,,,,,,,8/8 Overcast,1000.0,,OVC,1400.0,,,,,,
KRDR,10-30-2009,13:54,SPECI,,340,18.0,,,9999.0,,1.0,0.0,29.43,998.0,,,,,,,,,,,,,,,8/8 Overcast,1000.0,,OVC,1500.0,,,,,,
KRDR,10-30-2009,13:46,SPECI,,340,18.0,24.0,,9999.0,,1.0,0.0,29.44,998.2,,,,,,,,,,,,,,,8/8 Overcast,1000.0,,OVC,1400.0,,,,,,
KRDR,10-30-2009,13:42,SPECI,,330,16.0,24.0,,9999.0,,1.0,0.0,29.43,998.2,,,,,,,,,,,,,,,8/8 Overcast,1100.0,,OVC,1500.0,,,,,,
KRDR,10-30-2009,13:05,SPECI,,340,14.0,,,9999.0,,2.0,0.0,29.45,998.6,,,,,,,,,,,,,,,8/8 Overcast,1300.0,,OVC,1300.0,,,,,,
KRDR,10-30-2009,13:00,METAR,,340,18.0,24.0,,9999.0,,2.0,0.0,29.45,998.6,,,,,,,,,,,,,,,8/8 Overcast,1200.0,,OVC,1700.0,,,,,,
KRDR,10-30-2009,12:03,SPECI,,340,14.0,23.0,,9999.0,,2.0,1.0,29.47,999.2,,,,,,,,,,,,,,,8/8 Overcast,800.0,,OVC,1500.0,,,,,,
KRDR,10-30-2009,12:00,SPECI,,340,15.0,23.0,,9999.0,,2.0,1.0,29.47,999.3,,,,,,,,,,,,,,,8/8 Overcast,800.0,,OVC,1300.0,,,,,,
KRDR,10-30-2009,12:00,METAR,,340,14.0,,,9999.0,,2.0,1.0,29.48,999.5,,,,,,,,,,,TRACE,,.01 IN,.34 IN,8/8 Overcast,1000.0,,OVC,1000.0,,,,,,
KRDR,10-30-2009,11:43,SPECI,,340,13.0,,,9999.0,,2.0,1.0,29.48,999.7,,,,,,,,,,,,,,,8/8 Overcast,900.0,,OVC,1000.0,,,,,,
KRDR,10-30-2009,11:41,SPECI,,340,12.0,19.0,,9999.0,Light Rain,2.0,1.0,29.48,999.7,61,,,,,,,,,,,,,,8/8 Overcast,700.0,,OVC,1100.0,,,,,,
KRDR,10-30-2009,11:19,SPECI,,340,16.0,22.0,,9999.0,Light Rain,2.0,1.0,29.49,999.9,61,,,,,,,,,,,,,,8/8 Overcast,1200.0,,OVC,1200.0,,,,,,
KRDR,10-30-2009,11:16,SPECI,,340,15.0,22.0,,9999.0,,2.0,1.0,29.49,999.9,,,,,,,,,,,,,,,8/8 Overcast,800.0,,OVC,1200.0,,,,,,
KRDR,10-30-2009,11:08,SPECI,,340,14.0,20.0,,9999.0,Light Rain,2.0,1.0,29.49,1000.0,61,,,,,,,,,,,,,,8/8 Overcast,700.0,,OVC,1200.0,,,,,,
KRDR,10-30-2009,11:00,METAR,,340,15.0,,,9999.0,Light Rain,2.0,1.0,29.49,1000.1,61,,,,,,,,,,TRACE,,,,8/8 Overcast,800.0,,OVC,800.0,,,,,,
KRDR,10-30-2009,10:42,SPECI,,340,15.0,20.0,,9999.0,Light Rain,2.0,1.0,29.50,1000.3,61,,,,,,,,,,,,,,8/8 Overcast,300.0,,OVC,700.0,,,,,,
KRDR,10-30-2009,10:12,SPECI,,340,14.0,22.0,,9999.0,Light Rain,2.0,1.0,29.53,1001.2,61,,,,,,,,,,,,,,8/8 Overcast,600.0,,OVC,600.0,,,,,,
KRDR,10-30-2009,10:00,METAR,,340,15.0,,,9999.0,Light Rain,2.0,1.0,29.52,1001.1,61,,,,,,,,,,.01 IN,,,,8/8 Overcast,700.0,,OVC,700.0,,,,,,
KRDR,10-30-2009,09:00,METAR,,340,13.0,,,9999.0,Light Rain,2.0,1.0,29.55,1001.9,61,,,,,,,,,,TRACE,TRACE,,,8/8 Overcast,800.0,,OVC,800.0,,,,,,
KRDR,10-30-2009,08:25,SPECI,,350,14.0,,,9999.0,Unknown Precipitation,2.0,1.0,29.55,1002.0,40,,,,,,,,,,,,,,8/8 Overcast,800.0,,OVC,800.0,,,,,,
KRDR,10-30-2009,08:14,SPECI,,350,15.0,,,9999.0,,2.0,1.0,29.56,1002.2,,,,,,,,,,,,,,,8/8 Overcast,800.0,,OVC,900.0,,,,,,
KRDR,10-30-2009,08:12,SPECI,,350,15.0,,,9999.0,,2.0,1.0,29.56,1002.3,,,,,,,,,,,,,,,8/8 Overcast,800.0,,OVC,1000.0,,,,,,
KRDR,10-30-2009,08:00,METAR,,340,12.0,,,9999.0,,2.0,2.0,29.58,1002.9,,,,,,,,,,,TRACE,,,,8/8 Overcast,300.0,,OVC,800.0,,,,,,
KRDR,10-30-2009,07:50,SPECI,,340,11.0,,,9999.0,,2.0,2.0,29.58,1003.0,,,,,,,,,,,,,,,8/8 Overcast,300.0,,OVC,800.0,,,,,,
KRDR,10-30-2009,07:43,SPECI,,340,12.0,,,9999.0,,2.0,2.0,29.58,1002.8,,,,,,,,,,,,,,,8/8 Overcast,600.0,,OVC,600.0,,,,,,
KRDR,10-30-2009,07:41,SPECI,,340,15.0,,,9999.0,,2.0,2.0,29.57,1002.8,,,,,,,,,,,,,,,8/8 Overcast,100.0,,OVC,700.0,,,,,,
KRDR,10-30-2009,07:35,SPECI,,340,16.0,,,9999.0,,2.0,2.0,29.57,1002.6,,,,,,,,,,,,,,,8/8 Overcast,100.0,,OVC,500.0,,,,,,
KRDR,10-30-2009,07:19,SPECI,,340,14.0,19.0,,8000.0,Light Rain/Mist,2.0,2.0,29.58,1002.9,61,10,,,,,,,,,,,,,8/8 Overcast,100.0,,OVC,500.0,,,,,,
KRDR,10-30-2009,07:14,SPECI,,340,14.0,,,8000.0,Unknown Precipitation/Mist,2.0,2.0,29.58,1003.1,40,10,,,,,,,,,,,,,8/8 Overcast,400.0,,OVC,400.0,,,,,,
KRDR,10-30-2009,07:05,SPECI,,340,15.0,20.0,,8000.0,Mist,2.0,2.0,29.58,1003.1,10,,,,,,,,,,,,,,8/8 Overcast,400.0,,OVC,400.0,,,,,,
KRDR,10-30-2009,07:00,METAR,,340,14.0,,,9999.0,Mist,2.0,2.0,29.60,1003.5,10,,,,,,,,,,,,,,8/8 Overcast,100.0,,OVC,500.0,,,,,,
KRDR,10-30-2009,06:25,SPECI,,340,10.0,,,9999.0,,2.0,2.0,29.62,1004.3,,,,,,,,,,,,,,,8/8 Overcast,500.0,,OVC,500.0,,,,,,
KRDR,10-30-2009,06:00,METAR,,340,16.0,21.0,,9999.0,,2.0,2.0,29.62,1004.2,,,,,,,,,,,,,.06 IN,,8/8 Overcast,600.0,,OVC,600.0,,,,,,
KRDR,10-30-2009,05:50,SPECI,,340,14.0,21.0,,9999.0,,2.0,2.0,29.62,1004.3,,,,,,,,,,,,,,,8/8 Overcast,600.0,,OVC,600.0,,,,,,
KRDR,10-30-2009,05:06,SPECI,,340,13.0,19.0,,9999.0,,2.0,2.0,29.64,1005.0,,,,,,,,,,,,,,,8/8 Overcast,300.0,,OVC,700.0,,,,,,
KRDR,10-30-2009,05:00,METAR,,350,15.0,,,9999.0,,2.0,2.0,29.64,1004.9,,,,,,,,,,,,,,,8/8 Overcast,600.0,,OVC,600.0,,,,,,
KRDR,10-30-2009,04:00,METAR,,340,16.0,,,9999.0,,2.0,2.0,29.65,1005.2,,,,,,,,,,,,,,,8/8 Overcast,200.0,,OVC,600.0,,,,,,
KRDR,10-30-2009,03:28,SPECI,,340,13.0,,,9999.0,,2.0,2.0,29.66,1005.8,,,,,,,,,,,,,,,8/8 Overcast,200.0,,OVC,600.0,,,,,,
KRDR,10-30-2009,03:00,METAR,,340,14.0,19.0,,9999.0,,2.0,2.0,29.68,1006.2,,,,,,,,,,,TRACE,.06 IN,,,8/8 Overcast,200.0,,OVC,600.0,,,,,,
KRDR,10-30-2009,02:39,SPECI,,340,13.0,19.0,,9999.0,,2.0,2.0,29.69,1006.5,,,,,,,,,,,,,,,8/8 Overcast,600.0,,OVC,600.0,,,,,,
KRDR,10-30-2009,02:00,METAR,,330,17.0,22.0,,9999.0,Rain,3.0,3.0,29.70,1007.1,,,,61,,,,,,,.02 IN,,,,8/8 Overcast,600.0,,OVC,600.0,,,,,,
KRDR,10-30-2009,01:27,SPECI,,340,14.0,24.0,,8000.0,Rain/Mist,3.0,3.0,29.70,1007.1,,,,61,10,,,,,,,,,,8/8 Overcast,200.0,,OVC,600.0,,,,,,
KRDR,10-30-2009,01:00,METAR,,340,15.0,23.0,,8000.0,Fog or Ice Fog/Mist,4.0,3.0,29.72,1007.6,,,,40,10,,,,,,.04 IN,,,,8/8 Overcast,400.0,,OVC,400.0,,,,,,
KRDR,10-30-2009,00:00,METAR,,350,17.0,25.0,,8000.0,Rain/Mist,4.0,4.0,29.71,1007.2,,,,61,10,,,,,,.01 IN,,.08 IN,,8/8 Overcast,100.0,,OVC,500.0,,,,,,
KRDR,10-29-2009,23:00,METAR,,350,16.0,,,4800.0,Fog or Ice Fog/Mist,5.0,5.0,29.71,1007.2,,,,40,10,,,,,,.01 IN,,,,8/8 Overcast,100.0,,OVC,500.0,,,,,,
KRDR,10-29-2009,22:00,METAR,,360,14.0,22.0,,9999.0,,5.0,5.0,29.73,1007.8,,,,,,,,,,,.01 IN,,,,8/8 Overcast,400.0,,OVC,400.0,,,,,,
KRDR,10-29-2009,21:53,SPECI,,360,16.0,22.0,,9999.0,,5.0,5.0,29.73,1007.8,,,,,,,,,,,,,,,8/8 Overcast,400.0,,OVC,400.0,,,,,,
KRDR,10-29-2009,21:37,SPECI,,360,16.0,,,9999.0,,5.0,5.0,29.72,1007.7,,,,,,,,,,,,,,,8/8 Overcast,400.0,,OVC,400.0,,,,,,
KRDR,10-29-2009,21:01,SPECI,,360,19.0,23.0,,9999.0,Rain,6.0,5.0,29.73,1007.8,,,,61,,,,,,,,,,,8/8 Overcast,100.0,,OVC,500.0,,,,,,
KRDR,10-29-2009,21:00,METAR,,10,17.0,23.0,,9999.0,Rain,5.0,5.0,29.73,1007.8,,,,61,,,,,,,.01 IN,.05 IN,,,8/8 Overcast,400.0,,OVC,400.0,,,,,,
KRDR,10-29-2009,20:00,METAR,,360,13.0,,,9999.0,Rain,5.0,5.0,29.76,1009.0,,,,61,,,,,,,.02 IN,,,,8/8 Overcast,400.0,,OVC,400.0,,,,,,
KRDR,10-29-2009,19:00,METAR,,360,15.0,,,9999.0,Drizzle,6.0,5.0,29.79,1009.9,,,,51,,,,,,,.02 IN,,,,8/8 Overcast,400.0,,OVC,400.0,,,,,,
KRDR,10-29-2009,18:00,METAR,,360,13.0,,,9999.0,Fog or Ice Fog,6.0,6.0,29.82,1010.7,,,,40,,,,,,,.05 IN,,.19 IN,,8/8 Overcast,400.0,,OVC,400.0,,,,,,
KRDR,10-29-2009,17:32,SPECI,,360,14.0,,,9999.0,Fog or Ice Fog,6.0,5.0,29.82,1010.9,,,,40,,,,,,,,,,,8/8 Overcast,400.0,,OVC,400.0,,,,,,
KRDR,10-29-2009,17:00,METAR,,360,13.0,,,9999.0,Fog or Ice Fog,6.0,6.0,29.83,1011.2,,,,40,,,,,,,.06 IN,,,,8/8 Overcast,300.0,,OVC,300.0,,,,,,
KRDR,10-29-2009,16:00,METAR,,350,11.0,,,6400.0,Rain/Mist,6.0,6.0,29.85,1011.9,,,,63,10,,,,,,.07 IN,,,,8/8 Overcast,300.0,,OVC,300.0,,,,,,
KRDR,10-29-2009,15:32,SPECI,,360,11.0,,,4800.0,Rain/Mist,6.0,5.0,29.85,1011.9,,,,63,10,,,,,,,,,,8/8 Overcast,300.0,,OVC,300.0,,,,,,
KRDR,10-29-2009,15:19,SPECI,,360,9.0,,,4000.0,Fog or Ice Fog/Mist,6.0,5.0,29.85,1012.0,,,,40,10,,,,,,,,,,8/8 Overcast,300.0,,OVC,300.0,,,,,,
KRDR,10-29-2009,15:00,METAR,,10,11.0,,,6400.0,Drizzle/Mist,5.0,5.0,29.85,1012.0,,,,51,10,,,,,,.01 IN,.01 IN,,,8/8 Overcast,300.0,,OVC,300.0,,,,,,
KRDR,10-29-2009,14:13,SPECI,,360,11.0,,,4800.0,Rain/Mist,5.0,5.0,29.86,1012.1,,,,61,10,,,,,,,,,,8/8 Overcast,300.0,,OVC,300.0,,,,,,
KRDR,10-29-2009,14:00,METAR,,10,10.0,,,4800.0,Mist,5.0,5.0,29.87,1012.5,,,,10,,,,,,,TRACE,,,,8/8 Overcast,400.0,,OVC,400.0,,,,,,
KRDR,10-29-2009,13:54,SPECI,,360,11.0,,,4800.0,Fog or Ice Fog/Mist,5.0,5.0,29.87,1012.6,,,,40,10,,,,,,,,,,8/8 Overcast,400.0,,OVC,400.0,,,,,,
KRDR,10-29-2009,13:29,SPECI,,10,10.0,,,6400.0,Mist,5.0,5.0,29.87,1012.6,,,,10,,,,,,,,,,,8/8 Overcast,400.0,,OVC,400.0,,,,,,
KRDR,10-29-2009,13:10,SPECI,,10,10.0,,,9999.0,Drizzle,5.0,5.0,29.86,1012.3,,,,51,,,,,,,,,,,8/8 Overcast,400.0,,OVC,400.0,,,,,,
KRDR,10-29-2009,13:00,METAR,,10,10.0,,,9999.0,,5.0,5.0,29.86,1012.2,,,,,,,,,,,TRACE,,,,8/8 Overcast,400.0,,OVC,400.0,,,,,,
KRDR,10-29-2009,12:28,SPECI,,360,10.0,,,9999.0,,5.0,5.0,29.87,1012.6,,,,,,,,,,,,,,,8/8 Overcast,400.0,,OVC,400.0,,,,,,
KRDR,10-29-2009,12:18,SPECI,,10,10.0,,,9999.0,Drizzle,5.0,5.0,29.88,1012.9,,,,51,,,,,,,,,,,8/8 Overcast,400.0,,OVC,400.0,,,,,,
KRDR,10-29-2009,12:12,SPECI,,10,9.0,,,9999.0,,5.0,5.0,29.88,1013.0,,,,,,,,,,,,,,,8/8 Overcast,400.0,,OVC,400.0,,,,,,
KRDR,10-29-2009,12:10,SPECI,,10,9.0,,,9999.0,Drizzle,5.0,5.0,29.89,1013.1,,,,51,,,,,,,,,,,8/8 Overcast,400.0,,OVC,400.0,,,,,,
KRDR,10-29-2009,12:01,SPECI,,360,9.0,,,9999.0,Drizzle,5.0,5.0,29.89,1013.1,,,,51,,,,,,,,,,,8/8 Overcast,300.0,,OVC,500.0,,,,,,
KRDR,10-29-2009,12:00,METAR,,20,8.0,,,9999.0,Drizzle,5.0,5.0,29.88,1013.0,,,,51,,,,,,,.02 IN,,.07 IN,.11 IN,8/8 Overcast,300.0,,OVC,600.0,,,,,,
KRDR,10-29-2009,11:39,SPECI,,10,8.0,,,9999.0,Rain/Mist,5.0,5.0,29.88,1013.0,,,,61,10,,,,,,,,,,8/8 Overcast,300.0,,OVC,600.0,,,,,,
KRDR,10-29-2009,11:20,SPECI,,10,9.0,,,9999.0,Rain/Mist,5.0,5.0,29.88,1012.7,,,,61,10,,,,,,,,,,8/8 Overcast,400.0,,OVC,900.0,,,,,,
KRDR,10-29-2009,11:05,SPECI,,360,10.0,,,9999.0,Rain,5.0,5.0,29.87,1012.7,,,,61,,,,,,,,,,,8/8 Overcast,1200.0,,FEW,400.0,OVC,1200.0,,,,
KRDR,10-29-2009,11:00,METAR,,360,8.0,,,9999.0,Light Drizzle,5.0,5.0,29.89,1013.3,51,,,,,,,,,,.03 IN,,,,8/8 Overcast,900.0,,OVC,1300.0,,,,,,
KRDR,10-29-2009,10:00,METAR,,350,6.0,,,9999.0,Light Rain,5.0,5.0,29.89,1013.4,61,,,,,,,,,,TRACE,,,,8/8 Overcast,1300.0,,OVC,1300.0,,,,,,
KRDR,10-29-2009,09:25,SPECI,,350,4.0,,,9999.0,Light Rain,5.0,5.0,29.91,1013.8,61,,,,,,,,,,,,,,8/8 Overcast,1400.0,,OVC,1400.0,,,,,,
KRDR,10-29-2009,09:23,SPECI,,350,4.0,,,9999.0,Light Drizzle,5.0,5.0,29.91,1013.9,51,,,,,,,,,,,,,,8/8 Overcast,1500.0,,OVC,1500.0,,,,,,
KRDR,10-29-2009,09:07,SPECI,,340,5.0,,,9999.0,Light Drizzle,5.0,5.0,29.91,1013.7,51,,,,,,,,,,,,,,8/8 Overcast,1400.0,,OVC,1400.0,,,,,,
KRDR,10-29-2009,09:00,METAR,,350,4.0,,,9999.0,Light Drizzle,5.0,5.0,29.90,1013.4,51,,,,,,,,,,.01 IN,.02 IN,,,8/8 Overcast,1500.0,,OVC,1500.0,,,,,,
KRDR,10-29-2009,08:00,METAR,,360,3.0,,,9999.0,Light Drizzle,5.0,5.0,29.89,1013.3,51,,,,,,,,,,TRACE,,,,8/8 Overcast,1500.0,,OVC,2000.0,,,,,,
KRDR,10-29-2009,07:45,SPECI,,,0.0,,,9999.0,Light Drizzle,5.0,5.0,29.90,1013.7,51,,,,,,,,,,,,,,8/8 Overcast,1800.0,,OVC,1800.0,,,,,,
KRDR,10-29-2009,07:43,SPECI,,,0.0,,,9999.0,,5.0,5.0,29.90,1013.7,,,,,,,,,,,,,,,8/8 Overcast,1900.0,,OVC,1900.0,,,,,,
KRDR,10-29-2009,07:00,METAR,,360,3.0,,,9999.0,Light Drizzle,5.0,5.0,29.90,1013.6,51,,,,,,,,,,.01 IN,,,,8/8 Overcast,2200.0,,OVC,2200.0,,,,,,
KRDR,10-29-2009,06:00,METAR,,,0.0,,,9999.0,Light Rain,5.0,5.0,29.91,1013.7,61,,,,,,,,,,.03 IN,,.04 IN,,8/8 Overcast,2300.0,,OVC,2300.0,,,,,,
KRDR,10-29-2009,05:00,METAR,,,0.0,,,9999.0,Light Rain,5.0,5.0,29.93,1014.5,61,,,,,,,,,,.01 IN,,,,8/8 Overcast,2700.0,,OVC,2700.0,,,,,,
KRDR,10-29-2009,04:07,SPECI,,,0.0,,,9999.0,Unknown Precipitation,6.0,5.0,29.91,1013.7,40,,,,,,,,,,,,,,8/8 Overcast,2800.0,,OVC,2800.0,,,,,,
KRDR,10-29-2009,04:00,METAR,,,0.0,,,9999.0,,6.0,5.0,29.90,1013.6,,,,,,,,,,,,,,,8/8 Overcast,2800.0,,OVC,2800.0,,,,,,
KRDR,10-29-2009,03:00,METAR,,210,3.0,,,9999.0,,5.0,5.0,29.89,1013.2,,,,,,,,,,,,,,,8/8 Overcast,3100.0,,OVC,3100.0,,,,,,
KRDR,10-29-2009,02:00,METAR,,,0.0,,,9999.0,,4.0,4.0,29.87,1012.6,,,,,,,,,,,,,,,7/8 Mostly Cloudy,3900.0,,BKN,4000.0,,,,,,
KRDR,10-29-2009,01:00,METAR,,170,3.0,,,9999.0,,4.0,4.0,29.87,1012.5,,,,,,,,,,,,,,,7/8 Mostly Cloudy,3300.0,,BKN,3400.0,,,,,,
KRDR,10-29-2009,00:00,METAR,,,0.0,,,9999.0,,6.0,4.0,29.85,1011.8,,,,,,,,,,,,,TRACE,,8/8 Overcast,7000.0,,OVC,6900.0,,,,,,
KRDR,10-28-2009,23:00,METAR,,220,3.0,,,9999.0,,7.0,5.0,29.83,1011.3,,,,,,,,,,,,,,,8/8 Overcast,8000.0,,FEW,4100.0,OVC,7900.0,,,,
KRDR,10-28-2009,22:00,METAR,,180,3.0,,,9999.0,,8.0,5.0,29.82,1011.0,,,,,,,,,,,,,,,8/8 Overcast,3500.0,,OVC,3600.0,,,,,,
KRDR,10-28-2009,21:00,METAR,,220,4.0,,,9999.0,,8.0,4.0,29.82,1010.9,,,,,,,,,,,,TRACE,,,8/8 Overcast,1500.0,,BKN,1500.0,OVC,3900.0,,,,
KRDR,10-28-2009,20:02,SPECI,,240,6.0,,,9999.0,,8.0,5.0,29.81,1010.4,,,,,,,,,,,,,,,8/8 Overcast,2000.0,,OVC,3000.0,,,,,,
KRDR,10-28-2009,20:00,METAR,,230,4.0,,,9999.0,,8.0,5.0,29.80,1010.2,,,,,,,,,,,TRACE,,,,8/8 Overcast,1600.0,,OVC,2000.0,,,,,,
KRDR,10-28-2009,19:48,SPECI,,240,4.0,,,9999.0,,8.0,5.0,29.80,1010.3,,,,,,,,,,,,,,,8/8 Overcast,1800.0,,OVC,1800.0,,,,,,
KRDR,10-28-2009,19:29,SPECI,,230,5.0,,,9999.0,Rain,8.0,5.0,29.79,1009.9,,,,61,,,,,,,,,,,8/8 Overcast,1600.0,,OVC,2000.0,,,,,,
KRDR,10-28-2009,19:00,METAR,,280,7.0,,,9999.0,,8.0,5.0,29.77,1009.3,,,,,,,,,,,,,,,8/8 Overcast,3200.0,,SCT,1300.0,BKN,4100.0,OVC,4800.0,,
KRDR,10-28-2009,18:00,METAR,,210,5.0,,,9999.0,,8.0,6.0,29.76,1008.9,,,,,,,,,,,,,TRACE,,8/8 Overcast,1600.0,,BKN,1600.0,OVC,3000.0,,,,
KRDR,10-28-2009,17:45,SPECI,,210,5.0,,,9999.0,,8.0,6.0,29.76,1008.9,,,,,,,,,,,,,,,8/8 Overcast,1600.0,,BKN,1600.0,OVC,3000.0,,,,
KRDR,10-28-2009,17:00,METAR,,190,6.0,,,9999.0,,8.0,6.0,29.75,1008.8,,,,,,,,,,,,,,,8/8 Overcast,3400.0,,FEW,1700.0,OVC,3500.0,,,,
KRDR,10-28-2009,16:00,METAR,,220,4.0,,,9999.0,,7.0,6.0,29.72,1007.7,,,,,,,,,,,,,,,8/8 Overcast,3300.0,,FEW,2000.0,OVC,3400.0,,,,
KRDR,10-28-2009,15:00,METAR,,170,5.0,,,9999.0,,6.0,6.0,29.71,1007.4,,,,,,,,,,,,TRACE,,,8/8 Overcast,3000.0,,BKN,3000.0,OVC,25000.0,,,,
KRDR,10-28-2009,14:00,METAR,,180,4.0,,,9999.0,,6.0,5.0,29.69,1006.6,,,,,,,,,,,,,,,8/8 Overcast,3000.0,,FEW,2000.0,BKN,3000.0,OVC,6900.0,,
KRDR,10-28-2009,13:00,METAR,,170,4.0,,,9999.0,,5.0,5.0,29.66,1005.7,,,,,,,,,,,TRACE,,,,8/8 Overcast,6000.0,,OVC,5900.0,,,,,,
KRDR,10-28-2009,12:44,SPECI,,160,5.0,,,9999.0,,5.0,5.0,29.66,1005.8,,,,,,,,,,,,,,,8/8 Overcast,6500.0,,FEW,3600.0,OVC,6400.0,,,,
KRDR,10-28-2009,12:00,METAR,,210,5.0,,,9999.0,Light Rain Showers,6.0,4.0,29.65,1005.3,,,,80,,,,,,,TRACE,,TRACE,,8/8 Overcast,6000.0,,OVC,5900.0,,,,,,
KRDR,10-28-2009,11:00,METAR,,180,6.0,,,9999.0,Light Rain Showers,6.0,3.0,29.62,1004.4,,,,80,,,,,,,,,,,8/8 Overcast,8000.0,,BKN,7900.0,OVC,15000.0,,,,
KRDR,10-28-2009,10:00,METAR,,180,9.0,,,9999.0,,6.0,3.0,29.60,1003.7,,,,,,,,,,,,,,,8/8 Overcast,11000.0,,OVC,11000.0,,,,,,
KRDR,10-28-2009,09:00,METAR,,180,8.0,,,9999.0,,6.0,3.0,29.58,1002.8,,,,,,,,,,,,,,,Clear,72000.0,,,73000.0,,,,,,
KRDR,10-28-2009,08:00,METAR,,180,9.0,,,9999.0,,7.0,3.0,29.57,1002.8,,,,,,,,,,,,,,,2/8 Mostly Clear,72000.0,,FEW,9400.0,,,,,,
KRDR,10-28-2009,07:00,METAR,,170,10.0,,,9999.0,,8.0,3.0,29.56,1002.2,,,,,,,,,,,,,,,Clear,72000.0,,,73000.0,,,,,,
KRDR,10-28-2009,06:00,METAR,,180,12.0,,,9999.0,,9.0,2.0,29.55,1001.9,,,,,,,,,,,,,,,Clear,72000.0,,,73000.0,,,,,,
KRDR,10-28-2009,05:00,METAR,,170,13.0,,,9999.0,,9.0,2.0,29.54,1001.7,,,,,,,,,,,,,,,Clear,72000.0,,,73000.0,,,,,,
KRDR,10-28-2009,04:00,METAR,,170,12.0,,,9999.0,,9.0,2.0,29.53,1001.2,,,,,,,,,,,,,,,7/8 Mostly Cloudy,25000.0,,FEW,9900.0,BKN,25000.0,,,,
KRDR,10-28-2009,03:00,METAR,,160,12.0,,,9999.0,,9.0,2.0,29.51,1000.6,,,,,,,,,,,,,,,7/8 Mostly Cloudy,25000.0,,SCT,9900.0,BKN,25000.0,,,,
KRDR,10-28-2009,02:00,METAR,,150,11.0,,,9999.0,,10.0,1.0,29.50,1000.2,,,,,,,,,,,,,,,7/8 Mostly Cloudy,25000.0,,SCT,9900.0,BKN,25000.0,,,,
KRDR,10-28-2009,01:00,METAR,,160,12.0,,,9999.0,,10.0,2.0,29.48,999.9,,,,,,,,,,,,,,,7/8 Mostly Cloudy,25000.0,,BKN,25000.0,,,,,,
KRDR,10-28-2009,00:00,METAR,,160,10.0,,,9999.0,,10.0,3.0,29.48,999.6,,,,,,,,,,,,,,,8/8 Overcast,12000.0,,BKN,12000.0,OVC,25000.0,,,,
KRDR,10-27-2009,23:00,METAR,,160,9.0,,,9999.0,,11.0,3.0,29.46,999.0,,,,,,,,,,,,,,,4/8 Partly Cloudy,72000.0,,SCT,12000.0,,,,,,
KRDR,10-27-2009,22:00,METAR,,160,10.0,,,9999.0,,12.0,3.0,29.46,998.9,,,,,,,,,,,,,,,8/8 Overcast,25000.0,,SCT,9900.0,OVC,25000.0,,,,
KRDR,10-27-2009,21:00,METAR,,160,11.0,,,9999.0,,11.0,3.0,29.44,998.3,,,,,,,,,,,,,,,8/8 Overcast,12000.0,,BKN,12000.0,OVC,25000.0,,,,
KRDR,10-27-2009,20:00,METAR,,160,14.0,,,9999.0,,9.0,2.0,29.45,998.5,,,,,,,,,,,,,,,8/8 Overcast,10000.0,,FEW,7900.0,BKN,9900.0,OVC,25000.0,,
KRDR,10-27-2009,19:00,METAR,,160,16.0,,,9999.0,,9.0,2.0,29.45,998.7,,,,,,,,,,,,,,,8/8 Overcast,25000.0,,SCT,11000.0,OVC,25000.0,,,,
KRDR,10-27-2009,18:00,METAR,,170,15.0,21.0,,9999.0,,8.0,1.0,29.47,999.4,,,,,,,,,,,,,,,8/8 Overcast,25000.0,,SCT,12000.0,OVC,25000.0,,,,
KRDR,10-27-2009,17:00,METAR,,160,14.0,,,9999.0,,7.0,1.0,29.48,999.6,,,,,,,,,,,,,,,Clear,72000.0,,,73000.0,,,,,,
KRDR,10-27-2009,16:00,METAR,,170,16.0,,,9999.0,,6.0,1.0,29.48,999.7,,,,,,,,,,,,,,,Clear,72000.0,,,73000.0,,,,,,
KRDR,10-27-2009,15:00,METAR,,170,13.0,,,9999.0,,5.0,0.0,29.48,999.7,,,,,,,,,,,,,,,2/8 Mostly Clear,72000.0,,FEW,11000.0,,,,,,
KRDR,10-27-2009,14:00,METAR,,160,17.0,,,9999.0,,5.0,0.0,29.48,999.5,,,,,,,,,,,,,,,7/8 Mostly Cloudy,11000.0,,BKN,11000.0,,,,,,
KRDR,10-27-2009,13:00,METAR,,170,14.0,,,9999.0,,4.0,0.0,29.47,999.4,,,,,,,,,,,,,,,2/8 Mostly Clear,72000.0,,FEW,8400.0,,,,,,
KRDR,10-27-2009,12:00,METAR,,160,12.0,,,9999.0,,4.0,0.0,29.51,1000.7,,,,,,,,,,,,,,,8/8 Overcast,10000.0,,OVC,9900.0,,,,,,
KRDR,10-27-2009,11:00,METAR,,160,12.0,,,9999.0,,4.0,0.0,29.53,1001.2,,,,,,,,,,,,,,,8/8 Overcast,9000.0,,OVC,8900.0,,,,,,
KRDR,10-27-2009,10:00,METAR,,180,11.0,,,9999.0,,4.0,-1.0,29.55,1002.1,,,,,,,,,,,,,,,8/8 Overcast,10000.0,,OVC,9900.0,,,,,,
KRDR,10-27-2009,09:00,METAR,,170,11.0,,,9999.0,,4.0,-1.0,29.57,1002.8,,,,,,,,,,,,,,,8/8 Overcast,11000.0,,OVC,11000.0,,,,,,
KRDR,10-27-2009,08:00,METAR,,160,12.0,,,9999.0,,4.0,-1.0,29.59,1003.2,,,,,,,,,,,,,,,8/8 Overcast,12000.0,,OVC,12000.0,,,,,,
KRDR,10-27-2009,07:00,METAR,,170,14.0,,,9999.0,,4.0,-1.0,29.61,1004.1,,,,,,,,,,,,,,,4/8 Partly Cloudy,72000.0,,SCT,12000.0,,,,,,
KRDR,10-27-2009,06:00,METAR,,160,12.0,,,9999.0,,4.0,-1.0,29.64,1004.8,,,,,,,,,,,,,,,2/8 Mostly Clear,72000.0,,FEW,11000.0,,,,,,
KRDR,10-27-2009,05:00,METAR,,160,16.0,,,9999.0,,4.0,-1.0,29.67,1006.0,,,,,,,,,,,,,,,2/8 Mostly Clear,72000.0,,FEW,20000.0,,,,,,
KRDR,10-27-2009,04:00,METAR,,160,15.0,,,9999.0,,4.0,0.0,29.71,1007.2,,,,,,,,,,,,,,,2/8 Mostly Clear,72000.0,,FEW,20000.0,,,,,,
KRDR,10-27-2009,03:00,METAR,,160,14.0,,,9999.0,,5.0,0.0,29.74,1008.3,,,,,,,,,,,,,,,2/8 Mostly Clear,72000.0,,FEW,20000.0,,,,,,
KRDR,10-27-2009,02:00,METAR,,160,14.0,,,9999.0,,6.0,0.0,29.76,1009.0,,,,,,,,,,,,,,,Clear,72000.0,,,73000.0,,,,,,
KRDR,10-27-2009,01:00,METAR,,140,10.0,,,9999.0,,5.0,-1.0,29.78,1009.7,,,,,,,,,,,,,,,Clear,72000.0,,,73000.0,,,,,,
KRDR,10-27-2009,00:00,METAR,,150,10.0,,,9999.0,,7.0,-1.0,29.80,1010.4,,,,,,,,,,,,,,,Clear,72000.0,,,73000.0,,,,,,
KRDR,10-26-2009,23:00,METAR,,170,8.0,,,9999.0,,8.0,-2.0,29.83,1011.1,,,,,,,,,,,,,,,4/8 Partly Cloudy,72000.0,,FEW,9900.0,SCT,20000.0,,,,
KRDR,10-26-2009,22:00,METAR,,190,8.0,,,9999.0,,11.0,-2.0,29.86,1012.2,,,,,,,,,,,,,,,4/8 Partly Cloudy,72000.0,,FEW,9900.0,SCT,20000.0,,,,
KRDR,10-26-2009,21:00,METAR,,230,9.0,,,9999.0,,11.0,-2.0,29.88,1012.9,,,,,,,,,,,,,,,4/8 Partly Cloudy,72000.0,,FEW,9900.0,SCT,20000.0,,,,
KRDR,10-26-2009,20:00,METAR,,210,9.0,,,9999.0,,11.0,0.0,29.91,1013.9,,,,,,,,,,,,,,,7/8 Mostly Cloudy,4500.0,,BKN,4600.0,,,,,,
KRDR,10-26-2009,19:00,METAR,,190,7.0,,,9999.0,,10.0,2.0,29.95,1015.2,,,,,,,,,,,,,,,7/8 Mostly Cloudy,3100.0,,FEW,2500.0,BKN,3200.0,BKN,25000.0,,
KRDR,10-26-2009,18:25,SPECI,,220,6.0,,,9999.0,,9.0,2.0,29.96,1015.6,,,,,,,,,,,,,,,7/8 Mostly Cloudy,3100.0,,FEW,2000.0,BKN,3100.0,,,,
KRDR,10-26-2009,18:00,METAR,,240,9.0,,,9999.0,,9.0,3.0,29.98,1016.2,,,,,,,,,,,,,,,4/8 Partly Cloudy,72000.0,,SCT,3300.0,,,,,,
KRDR,10-26-2009,17:00,METAR,,210,6.0,,,9999.0,,8.0,4.0,30.00,1017.0,,,,,,,,,,,,,,,4/8 Partly Cloudy,72000.0,,SCT,2000.0,,,,,,
KRDR,10-26-2009,16:29,SPECI,,220,4.0,,,9999.0,,7.0,4.0,30.01,1017.3,,,,,,,,,,,,,,,4/8 Partly Cloudy,72000.0,,SCT,1300.0,,,,,,
KRDR,10-26-2009,16:27,SPECI,,210,3.0,,,9999.0,,6.0,4.0,30.02,1017.4,,,,,,,,,,,,,,,7/8 Mostly Cloudy,1300.0,,BKN,1300.0,,,,,,
KRDR,10-26-2009,16:25,SPECI,,240,3.0,,,9999.0,,6.0,4.0,30.02,1017.4,,,,,,,,,,,,,,,7/8 Mostly Cloudy,1100.0,,BKN,1100.0,,,,,,
KRDR,10-26-2009,16:00,METAR,,200,4.0,,,9999.0,,6.0,4.0,30.02,1017.6,,,,,,,,,,,,,,,7/8 Mostly Cloudy,7500.0,,SCT,3800.0,BKN,7400.0,,,,
KRDR,10-26-2009,15:00,METAR,,150,5.0,,,9999.0,,4.0,3.0,30.05,1018.3,,,,,,,,,,,,,,,7/8 Mostly Cloudy,7500.0,,SCT,3300.0,BKN,7400.0,,,,
KRDR,10-26-2009,14:00,METAR,,160,4.0,,,9999.0,,3.0,2.0,30.04,1018.3,,,,,,,,,,,,,,,7/8 Mostly Cloudy,3300.0,,FEW,2200.0,BKN,3400.0,,,,
KRDR,10-26-2009,13:00,METAR,,140,6.0,,,9999.0,,2.0,2.0,30.04,1018.2,,,,,,,,,,,,,,,8/8 Overcast,3300.0,,BKN,3400.0,OVC,5000.0,,,,
KRDR,10-26-2009,12:00,METAR,,140,3.0,,,9999.0,,1.0,1.0,30.05,1018.6,,,,,,,,,,,,,,,8/8 Overcast,4900.0,,SCT,3400.0,OVC,5000.0,,,,
KRDR,10-26-2009,11:00,METAR,,,0.0,,,9999.0,,2.0,2.0,30.06,1018.8,,,,,,,,,,,,,,,8/8 Overcast,3200.0,,BKN,3300.0,OVC,4800.0,,,,
KRDR,10-26-2009,10:00,METAR,,170,3.0,,,9999.0,,3.0,2.0,30.06,1018.9,,,,,,,,,,,,,,,8/8 Overcast,3300.0,,BKN,3400.0,OVC,5000.0,,,,
KRDR,10-26-2009,09:00,METAR,,200,3.0,,,9999.0,,3.0,2.0,30.07,1019.3,,,,,,,,,,,,,,,8/8 Overcast,5500.0,,SCT,3400.0,OVC,5400.0,,,,
KRDR,10-26-2009,08:00,METAR,,200,3.0,,,9999.0,,2.0,1.0,30.08,1019.5,,,,,,,,,,,,,,,8/8 Overcast,4900.0,,OVC,5000.0,,,,,,
KRDR,10-26-2009,07:00,METAR,,220,4.0,,,9999.0,,2.0,1.0,30.09,1019.8,,,,,,,,,,,,,,,8/8 Overcast,7000.0,,OVC,6900.0,,,,,,
KRDR,10-26-2009,06:00,METAR,,220,3.0,,,9999.0,,2.0,2.0,30.10,1020.1,,,,,,,,,,,,,,,8/8 Overcast,6500.0,,OVC,6400.0,,,,,,
KRDR,10-26-2009,05:00,METAR,,,0.0,,,9999.0,,1.0,1.0,30.11,1020.4,,,,,,,,,,,,,,,8/8 Overcast,8000.0,,SCT,5900.0,OVC,7900.0,,,,
KRDR,10-26-2009,04:00,METAR,,250,4.0,,,9999.0,,0.0,-1.0,30.11,1020.6,,,,,,,,,,,,,,,8/8 Overcast,7000.0,,OVC,6900.0,,,,,,
KRDR,10-26-2009,03:00,METAR,,,0.0,,,9999.0,,1.0,1.0,30.11,1020.6,,,,,,,,,,,,,,,8/8 Overcast,3900.0,,OVC,4000.0,,,,,,
KRDR,10-26-2009,02:00,METAR,,,0.0,,,9999.0,,-1.0,-1.0,30.10,1020.2,,,,,,,,,,,,,,,7/8 Mostly Cloudy,4100.0,,BKN,4200.0,,,,,,
KRDR,10-26-2009,00:00,METAR,,,0.0,,,9999.0,,3.0,2.0,30.08,1019.6,,,,,,,,,,,,,,,8/8 Overcast,4000.0,,OVC,4100.0,,,,,,
KRDR,10-25-2009,23:00,METAR,,360,3.0,,,9999.0,,6.0,3.0,30.07,1019.1,,,,,,,,,,,,,,,8/8 Overcast,3000.0,,OVC,3000.0,,,,,,
KRDR,10-25-2009,22:38,SPECI,,360,5.0,,,9999.0,,6.0,3.0,30.06,1018.9,,,,,,,,,,,,,,,8/8 Overcast,3100.0,,OVC,3100.0,,,,,,
KRDR,10-25-2009,22:00,METAR,,360,5.0,,,9999.0,,6.0,3.0,30.06,1018.7,,,,,,,,,,,,,,,8/8 Overcast,2400.0,,FEW,1100.0,OVC,2400.0,,,,
KRDR,10-25-2009,21:17,SPECI,,350,6.0,,,9999.0,,6.0,3.0,30.05,1018.5,,,,,,,,,,,,,,,8/8 Overcast,800.0,,OVC,1500.0,,,,,,
KRDR,10-25-2009,21:09,SPECI,,10,5.0,,,9999.0,,6.0,3.0,30.05,1018.5,,,,,,,,,,,,,,,8/8 Overcast,1300.0,,OVC,1300.0,,,,,,
KRDR,10-25-2009,21:00,METAR,,350,6.0,,,9999.0,,6.0,3.0,30.05,1018.3,,,,,,,,,,,,,,,8/8 Overcast,1300.0,,OVC,1300.0,,,,,,
KRDR,10-25-2009,20:00,METAR,,20,6.0,,,9999.0,,6.0,3.0,30.04,1018.0,,,,,,,,,,,,,,,8/8 Overcast,1000.0,,OVC,1000.0,,,,,,
KRDR,10-25-2009,19:00,METAR,,10,7.0,,,9999.0,,5.0,3.0,30.03,1017.8,,,,,,,,,,,,,,,8/8 Overcast,1100.0,,OVC,1100.0,,,,,,
KRDR,10-25-2009,18:25,SPECI,,360,7.0,,,9999.0,,5.0,3.0,30.03,,,,,,,,,,,,,,,,8/8 Overcast,1400.0,,FEW,800.0,OVC,1400.0,,,,
KRDR,10-25-2009,18:00,METAR,,360,8.0,,,9999.0,,5.0,3.0,30.03,1017.7,,,,,,,,,,,,,,,8/8 Overcast,900.0,,OVC,900.0,,,,,,
KRDR,10-25-2009,17:00,METAR,,350,8.0,,,9999.0,,5.0,3.0,30.01,1017.2,,,,,,,,,,,,,,,8/8 Overcast,800.0,,OVC,800.0,,,,,,
KRDR,10-25-2009,16:00,METAR,,350,9.0,,,9999.0,,4.0,3.0,29.99,1016.6,,,,,,,,,,,,,,,8/8 Overcast,800.0,,OVC,800.0,,,,,,
KRDR,10-25-2009,15:00,METAR,,350,8.0,,,9999.0,,4.0,3.0,29.97,1015.9,,,,,,,,,,,,,,,8/8 Overcast,800.0,,BKN,800.0,OVC,1200.0,,,,
KRDR,10-25-2009,14:00,METAR,,350,8.0,,,9999.0,,4.0,3.0,29.94,1014.9,,,,,,,,,,,,,,,8/8 Overcast,3500.0,,SCT,1200.0,OVC,3600.0,,,,
KRDR,10-25-2009,13:00,METAR,,350,8.0,,,9999.0,,4.0,3.0,29.91,1013.9,,,,,,,,,,,,,,,8/8 Overcast,3500.0,,SCT,1500.0,OVC,3600.0,,,,
KRDR,10-25-2009,12:00,METAR,,340,7.0,,,9999.0,,4.0,2.0,29.89,1013.3,,,,,,,,,,,,,,,8/8 Overcast,3600.0,,SCT,1000.0,OVC,3700.0,,,,
KRDR,10-25-2009,11:15,SPECI,,340,7.0,,,9999.0,,4.0,2.0,29.88,1012.8,,,,,,,,,,,,,,,8/8 Overcast,400.0,,OVC,400.0,,,,,,
KRDR,10-25-2009,11:01,SPECI,,340,9.0,,,9999.0,,4.0,2.0,29.87,1012.6,,,,,,,,,,,,,,,8/8 Overcast,500.0,,OVC,500.0,,,,,,
KRDR,10-25-2009,11:00,METAR,,340,8.0,,,9999.0,,4.0,2.0,29.87,1012.5,,,,,,,,,,,,,,,8/8 Overcast,4100.0,,SCT,1400.0,OVC,4200.0,,,,
KRDR,10-25-2009,10:55,METAR,,340,8.0,,,9999.0,,3.0,2.0,29.87,1012.5,,,,,,,,,,,,,,,8/8 Overcast,500.0,,OVC,1400.0,,,,,,
KRDR,10-25-2009,10:54,SPECI,,340,9.0,,,9999.0,,3.0,2.0,29.87,1012.5,,,,,,,,,,,,,,,8/8 Overcast,500.0,,OVC,1100.0,,,,,,
KRDR,10-25-2009,10:39,SPECI,,340,8.0,,,9999.0,,3.0,2.0,29.86,1012.3,,,,,,,,,,,,,,,8/8 Overcast,600.0,,OVC,2800.0,,,,,,
KRDR,10-25-2009,10:00,METAR,,350,7.0,,,9999.0,,3.0,2.0,29.85,1011.7,,,,,,,,,,,,,,,8/8 Overcast,4400.0,,OVC,4500.0,,,,,,
KRDR,10-25-2009,09:39,SPECI,,340,8.0,,,9999.0,,3.0,2.0,29.84,1011.6,,,,,,,,,,,,,,,8/8 Overcast,3100.0,,OVC,3100.0,,,,,,
KRDR,10-25-2009,09:32,SPECI,,340,8.0,,,9999.0,,3.0,2.0,29.84,1011.6,,,,,,,,,,,,,,,8/8 Overcast,2000.0,,OVC,2900.0,,,,,,
KRDR,10-25-2009,09:00,METAR,,340,7.0,,,9999.0,,3.0,2.0,29.83,1011.3,,,,,,,,,,,,,,,8/8 Overcast,4100.0,,FEW,1700.0,OVC,4200.0,,,,
KRDR,10-25-2009,08:38,SPECI,,330,8.0,,,9999.0,,3.0,2.0,29.83,1011.2,,,,,,,,,,,,,,,8/8 Overcast,3700.0,,SCT,1700.0,OVC,3800.0,,,,
KRDR,10-25-2009,08:18,SPECI,,340,6.0,,,9999.0,,4.0,2.0,29.82,1011.1,,,,,,,,,,,,,,,8/8 Overcast,1700.0,,OVC,2900.0,,,,,,
KRDR,10-25-2009,08:00,METAR,,340,6.0,,,9999.0,,4.0,1.0,29.81,1010.7,,,,,,,,,,,,,,,8/8 Overcast,3900.0,,SCT,2600.0,OVC,4000.0,,,,
KRDR,10-25-2009,07:55,METAR,,340,6.0,,,9999.0,,4.0,1.0,29.81,1010.7,,,,,,,,,,,,,,,8/8 Overcast,1800.0,,OVC,2600.0,,,,,,
KRDR,10-25-2009,07:34,SPECI,,350,7.0,,,9999.0,,4.0,2.0,29.81,1010.4,,,,,,,,,,,,,,,8/8 Overcast,1800.0,,OVC,2900.0,,,,,,
KRDR,10-25-2009,07:00,METAR,,350,8.0,,,9999.0,,4.0,2.0,29.79,1010.0,,,,,,,,,,,,,,,8/8 Overcast,3100.0,,OVC,3100.0,,,,,,
KRDR,10-25-2009,06:55,METAR,,350,7.0,,,9999.0,,4.0,2.0,29.79,1010.0,,,,,,,,,,,,,,,8/8 Overcast,1800.0,,OVC,2700.0,,,,,,
KRDR,10-25-2009,06:00,METAR,,340,7.0,,,9999.0,,4.0,2.0,29.77,1009.4,,,,,,,,,,,,,TRACE,,8/8 Overcast,3100.0,,FEW,2200.0,BKN,3200.0,OVC,5000.0,,
KRDR,10-25-2009,05:44,SPECI,,350,8.0,,,9999.0,,4.0,2.0,29.77,1009.3,,,,,,,,,,,,,,,8/8 Overcast,1900.0,,OVC,2800.0,,,,,,
KRDR,10-25-2009,05:30,SPECI,,350,8.0,,,9999.0,,4.0,2.0,29.77,1009.2,,,,,,,,,,,,,,,8/8 Overcast,3100.0,,OVC,3100.0,,,,,,
KRDR,10-25-2009,05:00,SPECI,,,6.0,,,9999.0,,4.0,2.0,29.76,1009.0,,,,,,,,,,,,,,,8/8 Overcast,1700.0,,OVC,2900.0,,,,,,
KRDR,10-25-2009,05:00,METAR,,350,7.0,,,9999.0,,4.0,2.0,29.76,1009.0,,,,,,,,,,,,,,,8/8 Overcast,3400.0,,OVC,3500.0,,,,,,
KRDR,10-25-2009,04:00,METAR,,10,9.0,,,9999.0,,4.0,2.0,29.74,1008.4,,,,,,,,,,,,,,,8/8 Overcast,3200.0,,OVC,3300.0,,,,,,
KRDR,10-25-2009,03:00,METAR,,10,8.0,,,9999.0,,4.0,2.0,29.72,1007.6,,,,,,,,,,,TRACE,TRACE,,,8/8 Overcast,3200.0,,OVC,3300.0,,,,,,
KRDR,10-25-2009,02:00,METAR,,360,7.0,,,9999.0,,4.0,3.0,29.70,1007.1,,,,,,,,,,,,,,,7/8 Mostly Cloudy,4900.0,,FEW,3100.0,BKN,5000.0,,,,
KRDR,10-25-2009,01:32,SPECI,,360,7.0,,,9999.0,,4.0,3.0,29.69,1006.7,,,,,,,,,,,,,,,Clear,6000.0,,,73000.0,,,,,,
KRDR,10-25-2009,01:12,SPECI,,10,5.0,,,9999.0,,4.0,3.0,29.68,1006.4,,,,,,,,,,,,,,,2/8 Mostly Clear,72000.0,,FEW,4900.0,,,,,,
KRDR,10-25-2009,01:00,SPECI,,10,6.0,,,9999.0,,4.0,3.0,29.68,1006.3,,,,,,,,,,,,,,,4/8 Partly Cloudy,72000.0,,SCT,4800.0,,,,,,
KRDR,10-25-2009,01:00,METAR,,10,6.0,,,9999.0,,4.0,3.0,29.68,1006.2,,,,,,,,,,,,,,,4/8 Partly Cloudy,72000.0,,SCT,4100.0,,,,,,
KRDR,10-25-2009,00:42,SPECI,,10,6.0,,,9999.0,,5.0,3.0,29.67,1006.1,,,,,,,,,,,,,,,4/8 Partly Cloudy,72000.0,,SCT,2800.0,,,,,,
KRDR,10-25-2009,00:34,SPECI,,10,5.0,,,9999.0,Light Drizzle,5.0,3.0,29.67,1006.1,51,,,,,,,,,,,,,,7/8 Mostly Cloudy,2700.0,,BKN,2700.0,,,,,,
KRDR,10-25-2009,00:00,METAR,,10,6.0,,,9999.0,Drizzle,5.0,4.0,29.65,1005.4,,,,51,,,,,,,TRACE,,TRACE,,8/8 Overcast,2400.0,,OVC,2400.0,,,,,,
KRDR,10-24-2009,23:20,SPECI,,30,6.0,,,9999.0,Drizzle,5.0,4.0,29.64,1004.8,,,,51,,,,,,,,,,,8/8 Overcast,2200.0,,OVC,2200.0,,,,,,
KRDR,10-24-2009,23:02,SPECI,,30,7.0,,,9999.0,,6.0,4.0,29.63,1004.6,,,,,,,,,,,,,,,8/8 Overcast,2100.0,,OVC,2100.0,,,,,,
KRDR,10-24-2009,23:00,METAR,,30,9.0,,,9999.0,Drizzle,6.0,3.0,29.62,1004.4,,,,51,,,,,,,TRACE,,,,8/8 Overcast,1900.0,,OVC,1900.0,,,,,,
KRDR,10-24-2009,22:01,SPECI,,20,4.0,,,9999.0,Fog or Ice Fog,7.0,3.0,29.61,1003.9,,,,40,,,,,,,,,,,8/8 Overcast,2000.0,,OVC,2600.0,,,,,,
KRDR,10-24-2009,22:00,METAR,,20,4.0,,,9999.0,,7.0,3.0,29.61,1003.8,,,,,,,,,,,,,,,8/8 Overcast,2600.0,,SCT,2300.0,OVC,3300.0,,,,
KRDR,10-24-2009,21:54,SPECI,,30,5.0,,,9999.0,,7.0,3.0,29.61,1003.9,,,,,,,,,,,,,,,8/8 Overcast,2900.0,,OVC,2900.0,,,,,,
KRDR,10-24-2009,21:00,METAR,,50,8.0,,,9999.0,,7.0,2.0,29.58,1003.1,,,,,,,,,,,,TRACE,,,8/8 Overcast,4000.0,,OVC,4100.0,,,,,,
KRDR,10-24-2009,20:00,METAR,,30,4.0,,,9999.0,,6.0,3.0,29.58,1003.0,,,,,,,,,,,TRACE,,,,8/8 Overcast,8500.0,,FEW,5000.0,BKN,8400.0,OVC,12000.0,,
KRDR,10-24-2009,19:51,SPECI,,,3.0,,,9999.0,,6.0,3.0,29.58,1003.0,,,,,,,,,,,,,,,8/8 Overcast,7000.0,,FEW,5400.0,BKN,6900.0,OVC,9400.0,,
KRDR,10-24-2009,19:42,SPECI,,,4.0,,,9999.0,Drizzle,6.0,3.0,29.58,1003.0,,,,51,,,,,,,,,,,8/8 Overcast,9000.0,,SCT,5400.0,BKN,8900.0,OVC,12000.0,,
KRDR,10-24-2009,19:41,SPECI,,,4.0,,,9999.0,Drizzle,6.0,3.0,29.58,1003.0,,,,51,,,,,,,,,,,7/8 Mostly Cloudy,8000.0,,FEW,5400.0,SCT,6900.0,BKN,9400.0,,
KRDR,10-24-2009,19:28,SPECI,,40,4.0,,,9999.0,,6.0,3.0,29.58,1003.0,,,,,,,,,,,,,,,7/8 Mostly Cloudy,4900.0,,FEW,5400.0,BKN,9400.0,,,,
KRDR,10-24-2009,19:00,METAR,,20,4.0,,,9999.0,Rain,5.0,4.0,29.58,1003.0,,,,61,,,,,,,TRACE,,,,2/8 Mostly Clear,72000.0,,FEW,4900.0,,,,,,
KRDR,10-24-2009,18:19,SPECI,,20,6.0,,,9999.0,Rain,5.0,3.0,29.58,1003.1,,,,61,,,,,,,,,,,8/8 Overcast,5500.0,,FEW,800.0,OVC,5400.0,,,,
KRDR,10-24-2009,18:03,SPECI,,40,4.0,,,9999.0,Rain,5.0,2.0,29.58,,,,,61,,,,,,,,,,,8/8 Overcast,4100.0,,FEW,500.0,BKN,4200.0,OVC,5400.0,,
KRDR,10-24-2009,18:00,METAR,,350,3.0,,,9999.0,,5.0,2.0,29.58,1003.3,,,,,,,,,,,,,,,8/8 Overcast,4200.0,,FEW,1000.0,BKN,4300.0,OVC,5900.0,,
KRDR,10-24-2009,17:47,SPECI,,,0.0,,,9999.0,,6.0,2.0,29.58,1003.4,,,,,,,,,,,,,,,8/8 Overcast,4200.0,,FEW,500.0,BKN,4300.0,OVC,5400.0,,
KRDR,10-24-2009,17:00,METAR,,,0.0,,,9999.0,,4.0,2.0,29.57,1003.1,,,,,,,,,,,,,,,8/8 Overcast,3700.0,,BKN,3800.0,BKN,5900.0,OVC,11000.0,,
KRDR,10-24-2009,16:00,METAR,,,0.0,,,9999.0,,3.0,1.0,29.58,1003.0,,,,,,,,,,,,,,,7/8 Mostly Cloudy,11000.0,,BKN,11000.0,,,,,,
KRDR,10-24-2009,15:27,SPECI,,40,3.0,,,4000.0,Mist,2.0,1.0,29.57,1002.6,,,,10,,,,,,,,,,,4/8 Partly Cloudy,72000.0,,SCT,12000.0,,,,,,
KRDR,10-24-2009,15:00,METAR,,,0.0,,,9999.0,Mist,2.0,1.0,29.57,1002.6,10,,,,,,,,,,,,,,Clear,72000.0,,,73000.0,,,,,,
KRDR,10-24-2009,14:00,METAR,,,0.0,,,9999.0,,-1.0,-1.0,29.57,1002.6,,,,,,,,,,,,,,,Clear,72000.0,,,73000.0,,,,,,
KRDR,10-24-2009,13:00,METAR,,300,3.0,,,9999.0,,-2.0,-3.0,29.56,1002.4,,,,,,,,,,,,,,,Clear,72000.0,,,73000.0,,,,,,
KRDR,10-24-2009,12:00,METAR,,290,3.0,,,9999.0,,-3.0,-3.0,29.56,1002.4,,,,,,,,,,,,,,,Clear,72000.0,,,73000.0,,,,,,
KRDR,10-24-2009,11:00,METAR,,,0.0,,,9999.0,,-3.0,-3.0,29.56,1002.4,,,,,,,,,,,,,,,Clear,72000.0,,,73000.0,,,,,,
KRDR,10-24-2009,10:00,METAR,,,0.0,,,9999.0,,-1.0,-1.0,29.57,1002.6,,,,,,,,,,,,,,,Clear,72000.0,,,73000.0,,,,,,
KRDR,10-24-2009,09:00,METAR,,290,4.0,,,9999.0,,-2.0,-2.0,29.58,1002.9,,,,,,,,,,,,,,,4/8 Partly Cloudy,72000.0,,SCT,5900.0,,,,,,
KRDR,10-24-2009,08:00,METAR,,280,6.0,,,9999.0,,-1.0,-1.0,29.58,1002.8,,,,,,,,,,,,,,,Clear,72000.0,,,73000.0,,,,,,
KRDR,10-24-2009,07:00,METAR,,290,4.0,,,9999.0,,-1.0,-2.0,29.58,1003.1,,,,,,,,,,,,,,,Clear,72000.0,,,73000.0,,,,,,
KRDR,10-24-2009,06:00,METAR,,,0.0,,,9999.0,,-1.0,-1.0,29.60,1003.6,,,,,,,,,,,,,,,Clear,72000.0,,,73000.0,,,,,,
KRDR,10-24-2009,05:00,METAR,,230,4.0,,,9999.0,,1.0,1.0,29.62,1004.2,,,,,,,,,,,,,,,Clear,72000.0,,,73000.0,,,,,,
KRDR,10-24-2009,04:00,METAR,,210,4.0,,,9999.0,,2.0,1.0,29.64,1004.8,,,,,,,,,,,,,,,Clear,72000.0,,,73000.0,,,,,,
KRDR,10-24-2009,03:00,METAR,,210,6.0,,,9999.0,,1.0,1.0,29.65,1005.4,,,,,,,,,,,,,,,2/8 Mostly Clear,72000.0,,FEW,4500.0,FEW,20000.0,,,,
KRDR,10-24-2009,02:00,METAR,,210,5.0,,,9999.0,,1.0,0.0,29.67,1005.8,,,,,,,,,,,,,,,2/8 Mostly Clear,72000.0,,FEW,20000.0,,,,,,
KRDR,10-24-2009,01:00,METAR,,180,6.0,,,9999.0,,2.0,1.0,29.68,1006.2,,,,,,,,,,,,,,,2/8 Mostly Clear,72000.0,,FEW,5000.0,FEW,20000.0,,,,
KRDR,10-24-2009,00:00,METAR,,180,4.0,,,9999.0,,4.0,1.0,29.70,1006.8,,,,,,,,,,,,,,,4/8 Partly Cloudy,72000.0,,SCT,20000.0,,,,,,
KRDR,10-23-2009,23:00,METAR,,190,3.0,,,9999.0,,8.0,2.0,29.71,1007.3,,,,,,,,,,,,,,,4/8 Partly Cloudy,72000.0,,FEW,4500.0,SCT,20000.0,,,,
KRDR,10-23-2009,22:00,METAR,,,0.0,,,9999.0,,9.0,2.0,29.74,1008.2,,,,,,,,,,,,,,,7/8 Mostly Cloudy,3900.0,,BKN,4000.0,BKN,20000.0,,,,
KRDR,10-23-2009,21:00,METAR,,,0.0,,,9999.0,,9.0,1.0,29.76,1008.9,,,,,,,,,,,,,,,7/8 Mostly Cloudy,4900.0,,SCT,3200.0,BKN,5000.0,BKN,20000.0,,
KRDR,10-23-2009,20:00,METAR,,,0.0,,,9999.0,,9.0,1.0,29.78,1009.7,,,,,,,,,,,,,,,4/8 Partly Cloudy,72000.0,,FEW,12000.0,SCT,22000.0,,,,
KRDR,10-23-2009,19:00,METAR,,,0.0,,,9999.0,,7.0,0.0,29.82,1011.0,,,,,,,,,,,,,,,7/8 Mostly Cloudy,22000.0,,SCT,15000.0,BKN,22000.0,,,,
KRDR,10-23-2009,18:00,METAR,,,0.0,,,9999.0,,6.0,0.0,29.85,1011.7,,,,,,,,,,,,,,,7/8 Mostly Cloudy,25000.0,,SCT,15000.0,BKN,25000.0,,,,
KRDR,10-23-2009,17:00,METAR,,130,3.0,,,9999.0,,4.0,0.0,29.87,1012.5,,,,,,,,,,,,,,,7/8 Mostly Cloudy,11000.0,,FEW,5000.0,BKN,11000.0,BKN,25000.0,,
KRDR,10-23-2009,16:00,METAR,,170,4.0,,,9999.0,,2.0,0.0,29.90,1013.5,,,,,,,,,,,,,,,7/8 Mostly Cloudy,12000.0,,BKN,12000.0,BKN,25000.0,,,,
KRDR,10-23-2009,15:00,METAR,,,0.0,,,9999.0,,-1.0,-1.0,29.93,1014.6,,,,,,,,,,,,,,,7/8 Mostly Cloudy,25000.0,,SCT,15000.0,BKN,25000.0,,,,
KRDR,10-23-2009,14:00,METAR,,140,5.0,,,9999.0,,-6.0,-6.0,29.94,1015.0,,,,,,,,,,,,,,,7/8 Mostly Cloudy,25000.0,,SCT,16000.0,BKN,25000.0,,,,
KRDR,10-23-2009,13:00,METAR,,,0.0,,,9999.0,,-7.0,-7.0,29.96,1015.6,,,,,,,,,,,,,,,4/8 Partly Cloudy,72000.0,,FEW,15000.0,SCT,25000.0,,,,
KRDR,10-23-2009,12:00,METAR,,150,3.0,,,9999.0,,-6.0,-7.0,29.97,1015.8,,,,,,,,,,,,,,.07 IN,2/8 Mostly Clear,72000.0,,FEW,15000.0,,,,,,
KRDR,10-23-2009,11:00,METAR,,130,3.0,,,9999.0,,-4.0,-5.0,29.98,1016.2,,,,,,,,,,,,,,,Clear,72000.0,,,73000.0,,,,,,
KRDR,10-23-2009,10:00,METAR,,,0.0,,,9999.0,,-5.0,-5.0,30.00,1016.9,,,,,,,,,,,,,,,Clear,72000.0,,,73000.0,,,,,,
KRDR,10-23-2009,09:00,METAR,,,0.0,,,9999.0,,-5.0,-6.0,30.02,1017.5,,,,,,,,,,,,,,,Clear,72000.0,,,73000.0,,,,,,
KRDR,10-23-2009,08:43,SPECI,,,0.0,,,6400.0,Mist,-5.0,-6.0,30.03,1017.7,10,,,,,,,,,,,,,,Clear,72000.0,,,73000.0,,,,,,
KRDR,10-23-2009,08:40,SPECI,,,0.0,,,2400.0,Mist,-5.0,-6.0,30.03,1017.7,10,,,,,,,,,,,,,,Clear,72000.0,,,73000.0,,,,,,
KRDR,10-23-2009,08:32,SPECI,,320,3.0,,,1600.0,Mist,-5.0,-6.0,30.03,1017.9,10,,,,,,,,,,,,,,Clear,72000.0,,,73000.0,,,,,,
KRDR,10-23-2009,08:30,SPECI,,,0.0,,,2800.0,Mist,-5.0,-6.0,30.03,1017.9,10,,,,,,,,,,,,,,Clear,72000.0,,,73000.0,,,,,,
KRDR,10-23-2009,08:09,SPECI,,270,3.0,,,4800.0,Mist,-5.0,-5.0,30.04,1018.0,10,,,,,,,,,,,,,,Clear,72000.0,,,73000.0,,,,,,
KRDR,10-23-2009,08:08,SPECI,,270,3.0,,,3200.0,Mist,-5.0,-5.0,30.04,1018.0,10,,,,,,,,,,,,,,Clear,72000.0,,,73000.0,,,,,,
KRDR,10-23-2009,08:06,SPECI,,,0.0,,,2000.0,Mist,-5.0,-5.0,30.04,1018.0,10,,,,,,,,,,,,,,Clear,72000.0,,,73000.0,,,,,,
KRDR,10-23-2009,08:02,SPECI,,,0.0,,,1200.0,Mist,-5.0,-6.0,30.04,1018.0,10,,,,,,,,,,,,,,Clear,72000.0,,,73000.0,,,,,,
KRDR,10-23-2009,08:00,METAR,,,0.0,,,1600.0,Mist,-5.0,-5.0,30.04,1018.0,10,,,,,,,,,,,,,,Clear,72000.0,,,73000.0,,,,,,
KRDR,10-23-2009,07:54,SPECI,,,0.0,,,1200.0,Mist,-5.0,-5.0,30.04,1018.1,10,,,,,,,,,,,,,,Clear,72000.0,,,73000.0,,,,,,
KRDR,10-23-2009,07:51,SPECI,,,0.0,,,2000.0,Mist,-5.0,-5.0,30.03,1018.0,10,,,,,,,,,,,,,,Clear,72000.0,,,73000.0,,,,,,
KRDR,10-23-2009,07:48,SPECI,,,0.0,,,4000.0,Mist,-5.0,-5.0,30.04,1018.0,10,,,,,,,,,,,,,,Clear,72000.0,,,73000.0,,,,,,
KRDR,10-23-2009,07:44,SPECI,,,0.0,,,4800.0,Mist,-5.0,-5.0,30.04,1018.1,10,,,,,,,,,,,,,,Clear,72000.0,,,73000.0,,,,,,
KRDR,10-23-2009,07:42,SPECI,,,0.0,,,3200.0,Mist,-4.0,-5.0,30.04,1018.1,10,,,,,,,,,,,,,,Clear,72000.0,,,73000.0,,,,,,
KRDR,10-23-2009,07:36,SPECI,,,0.0,,,2800.0,Mist,-5.0,-6.0,30.04,1018.1,10,,,,,,,,,,,,,,Clear,72000.0,,,73000.0,,,,,,
KRDR,10-23-2009,07:34,SPECI,,,0.0,,,3200.0,Mist,-5.0,-6.0,30.04,1018.1,10,,,,,,,,,,,,,,Clear,72000.0,,,73000.0,,,,,,
KRDR,10-23-2009,07:00,METAR,,,0.0,,,9999.0,,-4.0,-4.0,30.05,1018.5,,,,,,,,,,,,,,,Clear,72000.0,,,73000.0,,,,,,
KRDR,10-23-2009,06:00,METAR,,,0.0,,,9999.0,,-4.0,-5.0,30.06,1018.9,,,,,,,,,,,,,,,Clear,72000.0,,,73000.0,,,,,,
KRDR,10-23-2009,05:00,METAR,,,0.0,,,9999.0,,-3.0,-3.0,30.08,1019.6,,,,,,,,,,,,,,,Clear,72000.0,,,73000.0,,,,,,
KRDR,10-23-2009,04:00,METAR,,110,3.0,,,9999.0,,-2.0,-2.0,30.10,1020.3,,,,,,,,,,,,,,,Clear,72000.0,,,73000.0,,,,,,
KRDR,10-23-2009,03:00,METAR,,,0.0,,,9999.0,,-2.0,-2.0,30.12,1020.8,,,,,,,,,,,,,,,4/8 Partly Cloudy,72000.0,,SCT,18000.0,,,,,,
KRDR,10-23-2009,02:00,METAR,,,0.0,,,9999.0,,-2.0,-3.0,30.13,1021.0,,,,,,,,,,,,,,,2/8 Mostly Clear,72000.0,,FEW,18000.0,,,,,,
KRDR,10-23-2009,01:00,METAR,,,0.0,,,9999.0,,1.0,-1.0,30.13,1021.2,,,,,,,,,,,,,,,4/8 Partly Cloudy,72000.0,,SCT,18000.0,,,,,,
KRDR,10-23-2009,00:00,METAR,,,0.0,,,9999.0,,5.0,0.0,30.13,1021.1,,,,,,,,,,,,,,,4/8 Partly Cloudy,72000.0,,SCT,18000.0,,,,,,
KRDR,10-22-2009,23:00,METAR,,90,4.0,,,9999.0,,6.0,0.0,30.14,1021.5,,,,,,,,,,,,,,,4/8 Partly Cloudy,72000.0,,FEW,3500.0,SCT,18000.0,,,,
KRDR,10-22-2009,22:03,SPECI,,80,5.0,,,9999.0,,8.0,1.0,30.15,1021.8,,,,,,,,,,,,,,,4/8 Partly Cloudy,72000.0,,SCT,2700.0,,,,,,
KRDR,10-22-2009,22:00,METAR,,80,5.0,,,9999.0,,8.0,1.0,30.16,1022.0,,,,,,,,,,,,,,,7/8 Mostly Cloudy,18000.0,,SCT,3000.0,BKN,18000.0,,,,
KRDR,10-22-2009,21:18,SPECI,,,0.0,,,9999.0,,7.0,0.0,30.16,1022.2,,,,,,,,,,,,,,,7/8 Mostly Cloudy,2700.0,,BKN,2700.0,,,,,,
KRDR,10-22-2009,21:00,METAR,,180,4.0,,,9999.0,,7.0,1.0,30.17,1022.3,,,,,,,,,,,,,,,4/8 Partly Cloudy,72000.0,,SCT,3000.0,,,,,,
KRDR,10-22-2009,20:55,METAR,,180,4.0,,,9999.0,,7.0,1.0,30.17,1022.3,,,,,,,,,,,,.07 IN,,,7/8 Mostly Cloudy,2700.0,,BKN,2700.0,,,,,,
KRDR,10-22-2009,20:22,SPECI,,80,6.0,,,9999.0,,8.0,1.0,30.17,1022.3,,,,,,,,,,,,,,,7/8 Mostly Cloudy,2600.0,,BKN,2600.0,,,,,,
KRDR,10-22-2009,20:01,SPECI,,,4.0,,,9999.0,,8.0,0.0,30.17,1022.6,,,,,,,,,,,,,,,4/8 Partly Cloudy,72000.0,,SCT,2800.0,,,,,,
KRDR,10-22-2009,20:00,METAR,,180,5.0,,,9999.0,,8.0,0.0,30.18,1022.7,,,,,,,,,,,,,,,7/8 Mostly Cloudy,2700.0,,BKN,2700.0,,,,,,
KRDR,10-22-2009,19:06,SPECI,,,4.0,,,9999.0,,8.0,1.0,30.19,1023.2,,,,,,,,,,,,,,,7/8 Mostly Cloudy,2500.0,,BKN,2500.0,,,,,,
KRDR,10-22-2009,19:00,METAR,,90,3.0,,,9999.0,,7.0,0.0,30.20,1023.5,,,,,,,,,,,.07 IN,,,,7/8 Mostly Cloudy,2400.0,,BKN,2400.0,,,,,,
KRDR,10-22-2009,18:47,SPECI,,,4.0,,,9999.0,,7.0,0.0,30.20,1023.6,,,,,,,,,,,,,,,7/8 Mostly Cloudy,2400.0,,BKN,2400.0,,,,,,
KRDR,10-22-2009,18:38,SPECI,,100,4.0,,,9999.0,,6.0,0.0,30.21,1023.8,,,,,,,,,,,,,,,4/8 Partly Cloudy,72000.0,,SCT,2200.0,,,,,,
KRDR,10-22-2009,18:00,METAR,,130,4.0,,,9999.0,,7.0,1.0,30.24,1024.6,,,,,,,,,,,,,,,7/8 Mostly Cloudy,1900.0,,BKN,1900.0,,,,,,
KRDR,10-22-2009,17:45,SPECI,,,0.0,,,9999.0,,6.0,1.0,30.24,1024.6,,,,,,,,,,,,,,,7/8 Mostly Cloudy,1700.0,,BKN,1700.0,,,,,,
KRDR,10-22-2009,17:00,METAR,,,0.0,,,9999.0,,6.0,2.0,30.25,1025.0,,,,,,,,,,,,,,,Clear,72000.0,,,73000.0,,,,,,
KRDR,10-22-2009,16:00,METAR,,,0.0,,,9999.0,,4.0,1.0,30.26,1025.5,,,,,,,,,,,,,,,Clear,72000.0,,,73000.0,,,,,,
KRDR,10-22-2009,15:00,METAR,,,0.0,,,9999.0,,0.0,-2.0,30.27,,,,,,,,,,,,,,,,Clear,72000.0,,,73000.0,,,,,,
KRDR,10-22-2009,14:00,METAR,,,0.0,,,9999.0,,-3.0,-3.0,30.24,1024.9,,,,,,,,,,,,,,,Clear,72000.0,,,73000.0,,,,,,
KRDR,10-22-2009,13:00,METAR,,300,5.0,,,9999.0,Mist,-5.0,-5.0,30.24,1024.7,,,,10,,,,,,,,,,,Clear,72000.0,,,73000.0,,,,,,
KRDR,10-22-2009,12:00,METAR,,,0.0,,,9999.0,,-4.0,-5.0,30.23,1024.3,,,,,,,,,,,,,,,Clear,72000.0,,,73000.0,,,,,,
KRDR,10-22-2009,11:00,METAR,,340,4.0,,,9999.0,,-3.0,-4.0,30.23,1024.4,,,,,,,,,,,,,,,Clear,72000.0,,,73000.0,,,,,,
KRDR,10-22-2009,10:00,METAR,,350,3.0,,,9999.0,,-3.0,-4.0,30.22,1024.1,,,,,,,,,,,,,,,Clear,72000.0,,,73000.0,,,,,,
KRDR,10-22-2009,09:00,METAR,,330,6.0,,,9999.0,,-2.0,-3.0,30.23,1024.3,,,,,,,,,,,,,,,Clear,72000.0,,,73000.0,,,,,,
KRDR,10-22-2009,08:00,METAR,,300,3.0,,,9999.0,,-1.0,-2.0,30.23,1024.3,,,,,,,,,,,,,,,Clear,72000.0,,,73000.0,,,,,,
KRDR,10-22-2009,07:00,METAR,,330,4.0,,,9999.0,,2.0,0.0,30.23,1024.4,,,,,,,,,,,,,,,8/8 Overcast,4100.0,,OVC,4200.0,,,,,,
KRDR,10-22-2009,06:00,METAR,,340,5.0,,,9999.0,,3.0,0.0,30.23,1024.4,,,,,,,,,,,,,,,8/8 Overcast,4200.0,,OVC,4300.0,,,,,,
KRDR,10-22-2009,05:00,METAR,,10,4.0,,,9999.0,,3.0,0.0,30.22,1024.1,,,,,,,,,,,,,,,8/8 Overcast,4300.0,,OVC,4400.0,,,,,,
KRDR,10-22-2009,04:00,METAR,,20,5.0,,,9999.0,,4.0,0.0,30.22,1024.1,,,,,,,,,,,,,,,8/8 Overcast,4300.0,,OVC,4400.0,,,,,,
KRDR,10-22-2009,03:00,METAR,,10,7.0,,,9999.0,,5.0,1.0,30.22,1024.1,,,,,,,,,,,,,,,8/8 Overcast,4300.0,,OVC,4400.0,,,,,,
KRDR,10-22-2009,02:00,METAR,,350,5.0,,,9999.0,,5.0,1.0,30.22,1024.0,,,,,,,,,,,,,,,8/8 Overcast,4400.0,,OVC,4500.0,,,,,,
KRDR,10-22-2009,01:00,METAR,,350,4.0,,,9999.0,,5.0,1.0,30.21,1023.7,,,,,,,,,,,,,,,8/8 Overcast,4300.0,,OVC,4400.0,,,,,,
KRDR,10-22-2009,00:00,METAR,,10,6.0,,,9999.0,,5.0,1.0,30.20,1023.6,,,,,,,,,,,,,,,7/8 Mostly Cloudy,6000.0,,SCT,4600.0,BKN,5900.0,,,,
KRDR,10-21-2009,23:00,METAR,,10,10.0,,,9999.0,,6.0,1.0,30.20,1023.5,,,,,,,,,,,,,,,7/8 Mostly Cloudy,6000.0,,SCT,3800.0,BKN,5900.0,,,,
KRDR,10-21-2009,22:00,METAR,,30,11.0,,,9999.0,,8.0,0.0,30.20,1023.5,,,,,,,,,,,,,,,8/8 Overcast,6000.0,,SCT,3500.0,BKN,5900.0,OVC,20000.0,,
KRDR,10-21-2009,21:00,METAR,,30,10.0,,,9999.0,,7.0,0.0,30.20,1023.5,,,,,,,,,,,,,,,7/8 Mostly Cloudy,4600.0,,SCT,3300.0,BKN,4700.0,BKN,20000.0,,
KRDR,10-21-2009,20:00,METAR,,30,14.0,,,9999.0,,7.0,1.0,30.20,1023.5,,,,,,,,,,,,,,,7/8 Mostly Cloudy,20000.0,,FEW,2600.0,BKN,20000.0,,,,
KRDR,10-21-2009,19:00,METAR,,10,15.0,,,9999.0,,7.0,1.0,30.21,1023.7,,,,,,,,,,,,,,,7/8 Mostly Cloudy,20000.0,,SCT,2300.0,BKN,20000.0,,,,
KRDR,10-21-2009,18:00,METAR,,360,14.0,,,9999.0,,6.0,2.0,30.23,1024.4,,,,,,,,,,,,,,,7/8 Mostly Cloudy,20000.0,,FEW,1400.0,BKN,20000.0,,,,
KRDR,10-21-2009,17:00,METAR,,20,10.0,,,9999.0,,4.0,2.0,30.25,1024.9,,,,,,,,,,,,,,,7/8 Mostly Cloudy,20000.0,,FEW,2000.0,SCT,12000.0,BKN,20000.0,,
KRDR,10-21-2009,16:00,METAR,,10,9.0,,,9999.0,,2.0,1.0,30.25,1025.1,,,,,,,,,,,,,,,7/8 Mostly Cloudy,20000.0,,FEW,12000.0,BKN,20000.0,,,,
KRDR,10-21-2009,15:00,METAR,,360,8.0,,,9999.0,,2.0,1.0,30.24,1024.8,,,,,,,,,,,,,,,7/8 Mostly Cloudy,20000.0,,FEW,12000.0,BKN,20000.0,,,,
KRDR,10-21-2009,14:00,METAR,,360,8.0,,,9999.0,,1.0,0.0,30.23,1024.5,,,,,,,,,,,,,,,7/8 Mostly Cloudy,20000.0,,FEW,12000.0,BKN,20000.0,,,,
KRDR,10-21-2009,13:00,METAR,,350,7.0,,,9999.0,,2.0,0.0,30.24,1024.9,,,,,,,,,,,,,,,8/8 Overcast,20000.0,,SCT,12000.0,OVC,20000.0,,,,
KRDR,10-21-2009,12:00,METAR,,10,8.0,,,9999.0,,2.0,1.0,30.24,1024.6,,,,,,,,,,,,,,.08 IN,Clear,72000.0,,,73000.0,,,,,,
KRDR,10-21-2009,11:00,METAR,,360,6.0,,,9999.0,,2.0,1.0,30.24,1024.9,,,,,,,,,,,,,,,Clear,72000.0,,,73000.0,,,,,,
KRDR,10-21-2009,10:00,METAR,,10,7.0,,,9999.0,,2.0,1.0,30.23,1024.4,,,,,,,,,,,,,,,7/8 Mostly Cloudy,3000.0,,BKN,3000.0,,,,,,
KRDR,10-21-2009,09:00,METAR,,10,6.0,,,9999.0,,2.0,2.0,30.23,1024.6,,,,,,,,,,,,,,,Clear,72000.0,,,73000.0,,,,,,
KRDR,10-21-2009,08:00,METAR,,10,7.0,,,9999.0,,3.0,2.0,30.24,1024.6,,,,,,,,,,,,,,,7/8 Mostly Cloudy,11000.0,,BKN,11000.0,,,,,,
KRDR,10-21-2009,07:00,METAR,,10,7.0,,,9999.0,,3.0,2.0,30.23,1024.6,,,,,,,,,,,,,,,8/8 Overcast,12000.0,,OVC,12000.0,,,,,,
KRDR,10-21-2009,06:00,METAR,,360,5.0,,,9999.0,,3.0,3.0,30.24,1024.8,,,,,,,,,,,,,.01 IN,,4/8 Partly Cloudy,72000.0,,SCT,11000.0,,,,,,
KRDR,10-21-2009,05:00,METAR,,20,7.0,,,9999.0,,4.0,3.0,30.23,1024.4,,,,,,,,,,,,,,,8/8 Overcast,11000.0,,OVC,11000.0,,,,,,
KRDR,10-21-2009,04:00,METAR,,10,5.0,,,9999.0,,4.0,3.0,30.22,1024.1,,,,,,,,,,,,,,,8/8 Overcast,9000.0,,OVC,8900.0,,,,,,
KRDR,10-21-2009,03:00,METAR,,360,4.0,,,9999.0,,4.0,3.0,30.22,1024.0,,,,,,,,,,,,.01 IN,,,7/8 Mostly Cloudy,9000.0,,SCT,4000.0,BKN,8900.0,,,,
KRDR,10-21-2009,02:00,METAR,,70,4.0,,,9999.0,,5.0,3.0,30.20,1023.5,,,,,,,,,,,TRACE,,,,7/8 Mostly Cloudy,3900.0,,BKN,4000.0,,,,,,
KRDR,10-21-2009,01:35,SPECI,,40,5.0,,,9999.0,,5.0,3.0,30.20,1023.5,,,,,,,,,,,,,,,7/8 Mostly Cloudy,3900.0,,BKN,4000.0,,,,,,
KRDR,10-21-2009,01:12,SPECI,,30,6.0,,,9999.0,Drizzle,5.0,4.0,30.20,1023.5,,,,51,,,,,,,,,,,7/8 Mostly Cloudy,3900.0,,BKN,4000.0,,,,,,
KRDR,10-21-2009,01:00,METAR,,30,6.0,,,9999.0,,5.0,4.0,30.20,1023.5,,,,,,,,,,,.01 IN,,,,7/8 Mostly Cloudy,3900.0,,BKN,4000.0,,,,,,
KRDR,10-21-2009,00:14,SPECI,,40,8.0,,,9999.0,,5.0,4.0,30.18,1022.8,,,,,,,,,,,,,,,7/8 Mostly Cloudy,3900.0,,BKN,4000.0,,,,,,
KRDR,10-21-2009,00:00,METAR,,20,8.0,,,9999.0,Rain,5.0,4.0,30.18,1022.8,,,,61,,,,,,,.01 IN,,.07 IN,,7/8 Mostly Cloudy,3900.0,,BKN,4000.0,,,,,,
KRDR,10-20-2009,23:00,METAR,,30,4.0,,,9999.0,Rain,6.0,5.0,30.18,1022.9,,,,61,,,,,,,.02 IN,,,,7/8 Mostly Cloudy,3400.0,,FEW,2300.0,BKN,3500.0,,,,
KRDR,10-20-2009,22:00,METAR,,40,7.0,,,9999.0,Rain,6.0,6.0,30.17,1022.4,,,,61,,,,,,,.03 IN,,,,7/8 Mostly Cloudy,3400.0,,BKN,3500.0,,,,,,
KRDR,10-20-2009,21:15,SPECI,,30,7.0,,,9999.0,Rain,6.0,5.0,30.16,,,,,61,,,,,,,,,,,7/8 Mostly Cloudy,3400.0,,FEW,1400.0,BKN,3500.0,,,,
KRDR,10-20-2009,21:00,METAR,,30,7.0,,,9999.0,Rain,7.0,5.0,30.15,1021.9,,,,61,,,,,,,.01 IN,.01 IN,,,7/8 Mostly Cloudy,2200.0,,FEW,1400.0,BKN,2200.0,,,,
KRDR,10-20-2009,20:51,SPECI,,30,6.0,,,9999.0,Rain,7.0,5.0,30.15,1021.9,,,,61,,,,,,,,,,,4/8 Partly Cloudy,72000.0,,SCT,2000.0,,,,,,
KRDR,10-20-2009,20:27,SPECI,,50,8.0,,,9999.0,Drizzle,7.0,4.0,30.15,1021.7,,,,51,,,,,,,,,,,7/8 Mostly Cloudy,2000.0,,BKN,2000.0,,,,,,
KRDR,10-20-2009,20:09,SPECI,,60,7.0,,,9999.0,Drizzle,7.0,4.0,30.14,1021.3,,,,51,,,,,,,,,,,7/8 Mostly Cloudy,2300.0,,FEW,1700.0,BKN,2300.0,,,,
KRDR,10-20-2009,20:00,METAR,,60,7.0,,,9999.0,,7.0,4.0,30.14,1021.5,,,,,,,,,,,,,,,7/8 Mostly Cloudy,4700.0,,FEW,1700.0,BKN,4800.0,,,,
KRDR,10-20-2009,19:51,SPECI,,70,7.0,,,9999.0,,8.0,4.0,30.14,,,,,,,,,,,,,,,,7/8 Mostly Cloudy,2100.0,,FEW,1700.0,BKN,2100.0,,,,
KRDR,10-20-2009,19:40,SPECI,,50,8.0,,,9999.0,,7.0,4.0,30.14,1021.4,,,,,,,,,,,,,,,7/8 Mostly Cloudy,3100.0,,BKN,3100.0,,,,,,
KRDR,10-20-2009,19:31,SPECI,,50,7.0,,,9999.0,,8.0,4.0,30.13,1021.3,,,,,,,,,,,,,,,7/8 Mostly Cloudy,1600.0,,BKN,2000.0,,,,,,
KRDR,10-20-2009,19:25,SPECI,,50,9.0,,,9999.0,,8.0,4.0,30.13,1021.2,,,,,,,,,,,,,,,4/8 Partly Cloudy,72000.0,,SCT,2400.0,,,,,,
KRDR,10-20-2009,19:00,METAR,,70,6.0,,,9999.0,,7.0,4.0,30.14,1021.3,,,,,,,,,,,,,,,8/8 Overcast,2100.0,,FEW,1400.0,OVC,2100.0,,,,
KRDR,10-20-2009,18:09,SPECI,,80,6.0,,,9999.0,,7.0,4.0,30.15,1021.7,,,,,,,,,,,,,,,7/8 Mostly Cloudy,2100.0,,FEW,1600.0,BKN,2900.0,,,,
KRDR,10-20-2009,18:00,METAR,,90,6.0,,,9999.0,,7.0,4.0,30.15,1021.8,,,,,,,,,,,,,TRACE,,8/8 Overcast,2800.0,,FEW,1400.0,BKN,2800.0,OVC,3500.0,,
KRDR,10-20-2009,17:17,SPECI,,90,5.0,,,9999.0,,7.0,4.0,30.15,1021.7,,,,,,,,,,,,,,,8/8 Overcast,2800.0,,FEW,1400.0,BKN,2800.0,OVC,3600.0,,
KRDR,10-20-2009,17:00,METAR,,110,6.0,,,9999.0,,6.0,4.0,30.14,1021.6,,,,,,,,,,,,,,,8/8 Overcast,2800.0,,BKN,2800.0,OVC,3600.0,,,,
KRDR,10-20-2009,16:02,SPECI,,100,8.0,,,9999.0,,6.0,5.0,30.12,1020.9,,,,,,,,,,,,,,,7/8 Mostly Cloudy,2800.0,,BKN,2800.0,,,,,,
KRDR,10-20-2009,16:00,METAR,,90,7.0,,,9999.0,,6.0,5.0,30.12,1020.9,,,,,,,,,,,,,,,8/8 Overcast,3600.0,,SCT,2600.0,OVC,3700.0,,,,
KRDR,10-20-2009,15:44,SPECI,,100,7.0,,,9999.0,,6.0,5.0,30.13,1021.1,,,,,,,,,,,,,,,7/8 Mostly Cloudy,2700.0,,BKN,2700.0,,,,,,
KRDR,10-20-2009,15:41,SPECI,,100,6.0,,,9999.0,,6.0,5.0,30.13,1021.2,,,,,,,,,,,,,,,4/8 Partly Cloudy,72000.0,,SCT,2700.0,,,,,,
KRDR,10-20-2009,15:39,SPECI,,90,7.0,,,9999.0,,6.0,5.0,30.13,,,,,,,,,,,,,,,,8/8 Overcast,3400.0,,SCT,2600.0,OVC,3500.0,,,,
KRDR,10-20-2009,15:00,METAR,,90,5.0,,,9999.0,,5.0,5.0,30.13,1021.2,,,,,,,,,,,TRACE,TRACE,,,8/8 Overcast,3500.0,,SCT,2500.0,OVC,3600.0,,,,
KRDR,10-20-2009,14:00,METAR,,80,5.0,,,9999.0,Drizzle/Mist,5.0,5.0,30.11,1020.6,,,,51,10,,,,,,TRACE,,,,8/8 Overcast,2200.0,,BKN,2200.0,OVC,5000.0,,,,
KRDR,10-20-2009,13:00,METAR,,70,4.0,,,6400.0,Drizzle/Mist,5.0,5.0,30.10,1020.3,,,,51,10,,,,,,TRACE,,,,7/8 Mostly Cloudy,1400.0,,BKN,1400.0,,,,,,
KRDR,10-20-2009,12:00,METAR,,50,5.0,,,3200.0,Drizzle/Mist,5.0,5.0,30.09,1019.8,,,,51,10,,,,,,.01 IN,,.19 IN,.19 IN,8/8 Overcast,1900.0,,OVC,1900.0,,,,,,
KRDR,10-20-2009,12:00,SPECI,,50,4.0,,,4800.0,Mist,5.0,5.0,30.09,1019.9,,,,,10,,,,,,,,,,2/8 Mostly Clear,72000.0,,FEW,1100.0,,,,,,
KRDR,10-20-2009,11:55,METAR,,50,5.0,,,4000.0,Mist,5.0,5.0,30.09,1019.8,,,,,10,,,,,,.01 IN,,.19 IN,.19 IN,2/8 Mostly Clear,72000.0,,FEW,1500.0,,,,,,
KRDR,10-20-2009,11:33,SPECI,,20,4.0,,,4800.0,Rain/Mist,5.0,5.0,30.10,1020.2,,,,61,10,,,,,,,,,,2/8 Mostly Clear,72000.0,,FEW,2000.0,,,,,,
KRDR,10-20-2009,11:11,SPECI,,20,5.0,,,6400.0,Mist,5.0,5.0,30.09,1019.9,,,,,10,,,,,,,,,,4/8 Partly Cloudy,72000.0,,SCT,600.0,,,,,,
KRDR,10-20-2009,11:00,METAR,,10,4.0,,,6400.0,Light Rain/Mist,5.0,5.0,30.10,1020.0,61,10,,,,,,,,,.07 IN,,,,7/8 Mostly Cloudy,600.0,,BKN,600.0,,,,,,
KRDR,10-20-2009,10:37,SPECI,,20,4.0,,,6400.0,Light Rain/Mist,5.0,5.0,30.10,1020.0,61,10,,,,,,,,,,,,,8/8 Overcast,600.0,,OVC,600.0,,,,,,
KRDR,10-20-2009,10:00,METAR,,360,5.0,,,6400.0,Light Rain/Mist,5.0,5.0,30.09,1019.7,61,10,,,,,,,,,.04 IN,,,,7/8 Mostly Cloudy,700.0,,BKN,700.0,,,,,,
KRDR,10-20-2009,09:49,SPECI,,360,5.0,,,8000.0,Light Rain/Mist,5.0,5.0,30.09,1019.7,61,10,,,,,,,,,,,,,7/8 Mostly Cloudy,700.0,,BKN,700.0,,,,,,
KRDR,10-20-2009,09:35,SPECI,,350,5.0,,,8000.0,Light Rain/Mist,5.0,5.0,30.08,1019.6,61,10,,,,,,,,,,,,,2/8 Mostly Clear,72000.0,,FEW,1000.0,,,,,,
KRDR,10-20-2009,09:00,METAR,,340,5.0,,,9999.0,Mist,5.0,5.0,30.07,1019.3,,10,,,,,,,,,.02 IN,.07 IN,,,Clear,72000.0,,,73000.0,,,,,,
KRDR,10-20-2009,08:00,METAR,,340,3.0,,,8000.0,Mist,5.0,5.0,30.07,1019.3,,10,,,,,,,,,.05 IN,,,,Clear,72000.0,,,73000.0,,,,,,
KRDR,10-20-2009,07:00,METAR,,320,5.0,,,9999.0,Light Rain/Mist,5.0,4.0,30.06,1019.0,61,10,,,,,,,,,TRACE,,,,2/8 Mostly Clear,72000.0,,FEW,3500.0,,,,,,
KRDR,10-20-2009,06:24,SPECI,,320,4.0,,,9999.0,Unknown Precipitation,5.0,4.0,30.06,1018.9,40,,,,,,,,,,,,,,8/8 Overcast,3600.0,,OVC,3700.0,,,,,,
KRDR,10-20-2009,06:00,METAR,,330,4.0,,,9999.0,,5.0,4.0,30.06,1018.7,,,,,,,,,,,,,,,7/8 Mostly Cloudy,3800.0,,BKN,3900.0,,,,,,
KRDR,10-20-2009,05:00,METAR,,350,5.0,,,9999.0,,5.0,3.0,30.04,1018.2,,,,,,,,,,,,,,,Clear,72000.0,,,73000.0,,,,,,
KRDR,10-20-2009,04:00,METAR,,,0.0,,,9999.0,,5.0,3.0,30.03,1017.8,,,,,,,,,,,,,,,7/8 Mostly Cloudy,11000.0,,BKN,11000.0,,,,,,
KRDR,10-20-2009,03:00,METAR,,20,4.0,,,9999.0,,5.0,3.0,30.00,1016.9,,,,,,,,,,,,,,,7/8 Mostly Cloudy,12000.0,,BKN,12000.0,,,,,,
KRDR,10-20-2009,02:00,METAR,,20,3.0,,,9999.0,,6.0,3.0,30.02,1017.4,,,,,,,,,,,,,,,Clear,72000.0,,,73000.0,,,,,,
KRDR,10-20-2009,01:00,METAR,,340,3.0,,,9999.0,,6.0,3.0,30.03,1017.7,,,,,,,,,,,,,,,7/8 Mostly Cloudy,3900.0,,BKN,4000.0,,,,,,
KRDR,10-20-2009,00:00,METAR,,60,5.0,,,9999.0,,7.0,3.0,30.01,1017.3,,,,,,,,,,,,,,,7/8 Mostly Cloudy,3900.0,,BKN,4000.0,,,,,,
KRDR,10-19-2009,23:00,METAR,,40,5.0,,,9999.0,,9.0,4.0,30.00,1016.8,,,,,,,,,,,,,,,7/8 Mostly Cloudy,3000.0,,BKN,3000.0,,,,,,
KRDR,10-19-2009,22:00,METAR,,30,6.0,,,9999.0,,10.0,4.0,30.00,1016.7,,,,,,,,,,,,,,,8/8 Overcast,2800.0,,OVC,2800.0,,,,,,
KRDR,10-19-2009,21:00,METAR,,20,5.0,,,9999.0,,9.0,4.0,29.99,1016.6,,,,,,,,,,,,,,,8/8 Overcast,2500.0,,OVC,2500.0,,,,,,
KRDR,10-19-2009,20:50,SPECI,,30,5.0,,,9999.0,,9.0,3.0,29.99,1016.6,,,,,,,,,,,,,,,8/8 Overcast,3000.0,,OVC,3000.0,,,,,,
KRDR,10-19-2009,20:00,METAR,,10,6.0,,,9999.0,,10.0,4.0,29.99,1016.4,,,,,,,,,,,,,,,7/8 Mostly Cloudy,2300.0,,BKN,2300.0,,,,,,
KRDR,10-19-2009,19:54,SPECI,,10,7.0,,,9999.0,,10.0,4.0,29.99,1016.4,,,,,,,,,,,,,,,4/8 Partly Cloudy,72000.0,,SCT,2300.0,,,,,,
KRDR,10-19-2009,19:00,METAR,,360,12.0,,,9999.0,,9.0,3.0,29.98,1016.1,,,,,,,,,,,,,,,8/8 Overcast,2300.0,,OVC,2300.0,,,,,,
KRDR,10-19-2009,18:00,METAR,,340,10.0,,,9999.0,,9.0,3.0,29.98,1016.2,,,,,,,,,,,,,,,8/8 Overcast,2200.0,,OVC,2200.0,,,,,,
KRDR,10-19-2009,17:00,METAR,,360,13.0,22.0,,9999.0,,9.0,3.0,29.97,1015.8,,,,,,,,,,,,,,,8/8 Overcast,2200.0,,OVC,2200.0,,,,,,
KRDR,10-19-2009,16:00,METAR,,350,10.0,,,9999.0,,8.0,4.0,29.95,1015.2,,,,,,,,,,,,,,,7/8 Mostly Cloudy,2400.0,,SCT,1600.0,BKN,2400.0,,,,
KRDR,10-19-2009,15:00,METAR,,350,10.0,,,9999.0,,7.0,4.0,29.95,1015.3,,,,,,,,,,,,,,,7/8 Mostly Cloudy,1600.0,,BKN,1600.0,,,,,,
KRDR,10-19-2009,14:21,SPECI,,340,10.0,15.0,,9999.0,,6.0,4.0,29.94,1014.8,,,,,,,,,,,,,,,8/8 Overcast,1700.0,,OVC,1700.0,,,,,,
KRDR,10-19-2009,14:00,METAR,,320,6.0,,,9999.0,,7.0,4.0,29.92,1014.4,,,,,,,,,,,,,,,7/8 Mostly Cloudy,3100.0,,BKN,3100.0,,,,,,
KRDR,10-19-2009,13:16,SPECI,,340,9.0,,,9999.0,,7.0,4.0,29.91,1013.7,,,,,,,,,,,,,,,8/8 Overcast,2300.0,,OVC,2300.0,,,,,,
KRDR,10-19-2009,13:00,METAR,,340,16.0,,,9999.0,,8.0,4.0,29.90,1013.5,,,,,,,,,,,,,,,8/8 Overcast,2000.0,,OVC,2000.0,,,,,,
KRDR,10-19-2009,12:00,METAR,,340,11.0,,,9999.0,,8.0,5.0,29.87,1012.5,,,,,,,,,,,,,,,8/8 Overcast,2000.0,,OVC,2500.0,,,,,,
KRDR,10-19-2009,11:00,METAR,,340,16.0,21.0,340/26KTS,9999.0,,8.0,5.0,29.83,1011.3,,,,,,,,,,,,,,,8/8 Overcast,2500.0,,OVC,2500.0,,,,,,
KRDR,10-19-2009,10:00,METAR,,340,18.0,23.0,,9999.0,,9.0,5.0,29.80,1010.2,,,,,,,,,,,,,,,8/8 Overcast,2100.0,,OVC,2100.0,,,,,,
KRDR,10-19-2009,09:00,METAR,,320,16.0,21.0,,9999.0,,10.0,6.0,29.75,1008.6,,,,,,,,,,,,,,,8/8 Overcast,2100.0,,OVC,2100.0,,,,,,
KRDR,10-19-2009,08:00,METAR,,310,13.0,20.0,,9999.0,,10.0,6.0,29.71,1007.3,,,,,,,,,,,,,,,8/8 Overcast,2200.0,,OVC,2200.0,,,,,,
KRDR,10-19-2009,07:00,METAR,,280,11.0,,,9999.0,,9.0,5.0,29.69,1006.5,,,,,,,,,,,,,,,2/8 Mostly Clear,72000.0,,FEW,2800.0,,,,,,
KRDR,10-19-2009,06:00,METAR,,290,18.0,27.0,280/27KTS,9999.0,,10.0,6.0,29.67,1006.0,,,,,,,,,,,,,,,Clear,72000.0,,,73000.0,,,,,,
KRDR,10-19-2009,05:00,METAR,,280,13.0,,,9999.0,,13.0,5.0,29.63,1004.6,,,,,,,,,,,,,,,Clear,72000.0,,,73000.0,,,,,,
KRDR,10-19-2009,04:00,METAR,,280,10.0,,,9999.0,,14.0,5.0,29.61,1003.9,,,,,,,,,,,,,,,Clear,72000.0,,,73000.0,,,,,,
KRDR,10-19-2009,03:00,METAR,,270,7.0,,,9999.0,,14.0,7.0,29.59,1003.4,,,,,,,,,,,,,,,Clear,72000.0,,,73000.0,,,,,,
KRDR,10-19-2009,02:00,METAR,,190,7.0,,,9999.0,,12.0,8.0,29.58,1003.1,,,,,,,,,,,,,,,Clear,72000.0,,,73000.0,,,,,,
KRDR,10-19-2009,01:00,METAR,,190,9.0,,,9999.0,,13.0,8.0,29.59,1003.3,,,,,,,,,,,,,,,Clear,72000.0,,,73000.0,,,,,,
KRDR,10-19-2009,00:00,METAR,,180,8.0,,,9999.0,,13.0,8.0,29.59,1003.4,,,,,,,,,,,,,,,Clear,72000.0,,,73000.0,,,,,,
KRDR,10-18-2009,23:00,METAR,,200,11.0,,,9999.0,,15.0,8.0,29.59,1003.5,,,,,,,,,,,,,,,Clear,72000.0,,,73000.0,,,,,,
KRDR,10-18-2009,22:00,METAR,,190,18.0,,,9999.0,,16.0,8.0,29.58,1003.1,,,,,,,,,,,,,,,Clear,72000.0,,,73000.0,,,,,,
KRDR,10-18-2009,21:00,METAR,,180,14.0,,,9999.0,,17.0,8.0,29.59,1003.2,,,,,,,,,,,,,,,Clear,72000.0,,,73000.0,,,,,,
KRDR,10-18-2009,20:00,METAR,,180,16.0,,,9999.0,,15.0,7.0,29.60,1003.7,,,,,,,,,,,,,,,Clear,72000.0,,,73000.0,,,,,,
KRDR,10-18-2009,19:00,METAR,,180,14.0,,,9999.0,,14.0,7.0,29.64,1004.8,,,,,,,,,,,,,,,Clear,72000.0,,,73000.0,,,,,,
KRDR,10-18-2009,18:00,METAR,,170,13.0,,,9999.0,,13.0,6.0,29.65,1005.2,,,,,,,,,,,,,,,Clear,72000.0,,,73000.0,,,,,,
KRDR,10-18-2009,17:00,METAR,,170,9.0,,,9999.0,,12.0,5.0,29.67,1006.1,,,,,,,,,,,,,,,Clear,72000.0,,,73000.0,,,,,,
KRDR,10-18-2009,16:00,METAR,,180,10.0,,,9999.0,,8.0,4.0,29.70,1006.9,,,,,,,,,,,,,,,Clear,72000.0,,,73000.0,,,,,,
KRDR,10-18-2009,15:00,METAR,,180,13.0,,,9999.0,,6.0,3.0,29.71,1007.2,,,,,,,,,,,,,,,Clear,72000.0,,,73000.0,,,,,,
KRDR,10-18-2009,14:00,METAR,,180,13.0,,,9999.0,,3.0,1.0,29.73,1008.0,,,,,,,,,,,,,,,Clear,72000.0,,,73000.0,,,,,,
KRDR,10-18-2009,13:00,METAR,,170,11.0,,,9999.0,,2.0,1.0,29.76,1008.8,,,,,,,,,,,,,,,Clear,72000.0,,,73000.0,,,,,,
KRDR,10-18-2009,12:00,METAR,,180,8.0,,,9999.0,,2.0,1.0,29.77,1009.3,,,,,,,,,,,,,,,Clear,72000.0,,,73000.0,,,,,,
KRDR,10-18-2009,11:00,METAR,,180,9.0,,,9999.0,,3.0,1.0,29.78,1009.6,,,,,,,,,,,,,,,Clear,72000.0,,,73000.0,,,,,,
KRDR,10-18-2009,10:00,METAR,,180,11.0,,,9999.0,,3.0,1.0,29.80,1010.1,,,,,,,,,,,,,,,Clear,72000.0,,,73000.0,,,,,,
KRDR,10-18-2009,09:00,METAR,,170,12.0,,,9999.0,,4.0,1.0,29.82,1010.9,,,,,,,,,,,,,,,Clear,72000.0,,,73000.0,,,,,,
KRDR,10-18-2009,08:00,METAR,,180,13.0,,,9999.0,,4.0,2.0,29.84,1011.7,,,,,,,,,,,,,,,Clear,72000.0,,,73000.0,,,,,,
KRDR,10-18-2009,07:00,METAR,,180,13.0,,,9999.0,,4.0,2.0,29.86,1012.3,,,,,,,,,,,,,,,Clear,72000.0,,,73000.0,,,,,,
KRDR,10-18-2009,06:00,METAR,,180,16.0,,,9999.0,,4.0,2.0,29.88,1012.9,,,,,,,,,,,,,,,Clear,72000.0,,,73000.0,,,,,,
KRDR,10-18-2009,05:00,METAR,,190,15.0,22.0,,9999.0,,5.0,2.0,29.91,1013.9,,,,,,,,,,,,,,,Clear,72000.0,,,73000.0,,,,,,
KRDR,10-18-2009,04:00,METAR,,180,14.0,,,9999.0,,5.0,2.0,29.94,1014.8,,,,,,,,,,,,,,,Clear,72000.0,,,73000.0,,,,,,
KRDR,10-18-2009,03:00,METAR,,180,14.0,,,9999.0,,5.0,2.0,29.96,1015.6,,,,,,,,,,,,,,,Clear,72000.0,,,73000.0,,,,,,
KRDR,10-18-2009,02:00,METAR,,180,13.0,,,9999.0,,5.0,2.0,29.98,1016.3,,,,,,,,,,,,,,,Clear,72000.0,,,73000.0,,,,,,
KRDR,10-18-2009,01:00,METAR,,180,15.0,,,9999.0,,6.0,2.0,30.01,1017.2,,,,,,,,,,,,,,,Clear,72000.0,,,73000.0,,,,,,
KRDR,10-18-2009,00:00,METAR,,180,12.0,,,9999.0,,6.0,2.0,30.04,1018.1,,,,,,,,,,,,,,,Clear,72000.0,,,73000.0,,,,,,
KRDR,10-17-2009,23:00,METAR,,180,17.0,24.0,,9999.0,,7.0,2.0,30.06,1018.7,,,,,,,,,,,,,,,Clear,72000.0,,,73000.0,,,,,,
KRDR,10-17-2009,22:00,METAR,,190,18.0,,,9999.0,,8.0,2.0,30.10,1020.1,,,,,,,,,,,,,,,Clear,72000.0,,,73000.0,,,,,,
KRDR,10-17-2009,21:00,METAR,,180,17.0,23.0,,9999.0,,8.0,2.0,30.12,1020.9,,,,,,,,,,,,,,,Clear,72000.0,,,73000.0,,,,,,
KRDR,10-17-2009,20:00,METAR,,180,15.0,,,9999.0,,8.0,1.0,30.17,1022.3,,,,,,,,,,,,,,,Clear,72000.0,,,73000.0,,,,,,
KRDR,10-17-2009,19:00,METAR,,190,16.0,24.0,,9999.0,,7.0,0.0,30.20,1023.4,,,,,,,,,,,,,,,2/8 Mostly Clear,72000.0,,FEW,2300.0,,,,,,
KRDR,10-17-2009,18:00,METAR,,180,18.0,,,9999.0,,5.0,0.0,30.24,1024.6,,,,,,,,,,,,,,,Clear,72000.0,,,73000.0,,,,,,
KRDR,10-17-2009,17:00,METAR,,210,14.0,,,9999.0,,5.0,-1.0,30.28,1025.9,,,,,,,,,,,,,,,8/8 Overcast,14000.0,,SCT,2500.0,BKN,14000.0,OVC,25000.0,,
KRDR,10-17-2009,16:33,SPECI,,200,17.0,,,9999.0,,5.0,-1.0,30.29,1026.3,,,,,,,,,,,,,,,8/8 Overcast,3000.0,,SCT,2500.0,BKN,3000.0,OVC,14000.0,,
KRDR,10-17-2009,16:00,METAR,,210,15.0,,,9999.0,,4.0,-1.0,30.30,1026.8,,,,,,,,,,,,,,,8/8 Overcast,2600.0,,OVC,2600.0,,,,,,
KRDR,10-17-2009,15:00,METAR,,200,12.0,,,9999.0,,4.0,0.0,30.30,1027.1,,,,,,,,,,,,,,,8/8 Overcast,2700.0,,OVC,2700.0,,,,,,
KRDR,10-17-2009,14:00,METAR,,180,8.0,,,9999.0,,3.0,-1.0,30.30,1027.1,,,,,,,,,,,,,,,8/8 Overcast,2800.0,,OVC,2800.0,,,,,,
KRDR,10-17-2009,13:43,SPECI,,170,9.0,,,9999.0,,3.0,0.0,30.31,,,,,,,,,,,,,,,,8/8 Overcast,3000.0,,OVC,3000.0,,,,,,
KRDR,10-17-2009,13:00,METAR,,170,7.0,,,9999.0,,3.0,-1.0,30.33,1027.9,,,,,,,,,,,,,,,8/8 Overcast,2900.0,,OVC,2900.0,,,,,,
KRDR,10-17-2009,12:47,SPECI,,180,7.0,,,9999.0,,2.0,-1.0,30.34,1027.9,,,,,,,,,,,,,,,8/8 Overcast,2900.0,,OVC,2900.0,,,,,,
KRDR,10-17-2009,12:09,SPECI,,180,6.0,,,9999.0,,2.0,-1.0,30.34,,,,,,,,,,,,,,,,8/8 Overcast,3000.0,,OVC,3000.0,,,,,,
KRDR,10-17-2009,12:00,METAR,,180,7.0,,,9999.0,,3.0,-1.0,30.34,1028.0,,,,,,,,,,,,,,.03 IN,8/8 Overcast,2900.0,,OVC,2900.0,,,,,,
KRDR,10-17-2009,11:24,SPECI,,190,6.0,,,9999.0,,3.0,-1.0,30.35,1028.4,,,,,,,,,,,,,,,8/8 Overcast,2900.0,,OVC,2900.0,,,,,,
KRDR,10-17-2009,11:00,METAR,,210,5.0,,,9999.0,,3.0,0.0,30.37,1029.0,,,,,,,,,,,,,,,8/8 Overcast,2900.0,,OVC,2900.0,,,,,,
KRDR,10-17-2009,10:47,SPECI,,210,4.0,,,9999.0,,3.0,0.0,30.37,1029.1,,,,,,,,,,,,,,,8/8 Overcast,3000.0,,OVC,3000.0,,,,,,
KRDR,10-17-2009,10:00,METAR,,240,3.0,,,9999.0,,2.0,1.0,30.37,1029.1,,,,,,,,,,,,,,,8/8 Overcast,2800.0,,OVC,2800.0,,,,,,
KRDR,10-17-2009,09:00,METAR,,,0.0,,,9999.0,,3.0,-1.0,30.37,1029.1,,,,,,,,,,,,,,,8/8 Overcast,2600.0,,OVC,2600.0,,,,,,
KRDR,10-17-2009,08:00,METAR,,290,4.0,,,9999.0,,3.0,0.0,30.39,1029.6,,,,,,,,,,,,,,,8/8 Overcast,2300.0,,OVC,2300.0,,,,,,
KRDR,10-17-2009,07:00,METAR,,300,3.0,,,9999.0,,3.0,1.0,30.38,1029.3,,,,,,,,,,,,,,,8/8 Overcast,2700.0,,OVC,2700.0,,,,,,
KRDR,10-17-2009,06:00,METAR,,,0.0,,,9999.0,,3.0,1.0,30.37,1029.1,,,,,,,,,,,,,,,8/8 Overcast,2700.0,,OVC,2700.0,,,,,,
KRDR,10-17-2009,05:00,METAR,,,0.0,,,9999.0,,3.0,1.0,30.37,1029.0,,,,,,,,,,,,,,,8/8 Overcast,2900.0,,OVC,2900.0,,,,,,
KRDR,10-17-2009,04:46,SPECI,,290,3.0,,,9999.0,,2.0,1.0,30.37,1029.1,,,,,,,,,,,,,,,8/8 Overcast,2900.0,,OVC,2900.0,,,,,,
KRDR,10-17-2009,04:00,METAR,,300,3.0,,,9999.0,,3.0,1.0,30.37,1029.0,,,,,,,,,,,,,,,8/8 Overcast,3100.0,,OVC,3100.0,,,,,,
KRDR,10-17-2009,03:00,METAR,,330,3.0,,,9999.0,,3.0,1.0,30.36,1028.7,,,,,,,,,,,,,,,7/8 Mostly Cloudy,3400.0,,FEW,2500.0,BKN,3500.0,,,,
KRDR,10-17-2009,02:47,SPECI,,340,4.0,,,9999.0,,3.0,1.0,30.36,1028.7,,,,,,,,,,,,,,,8/8 Overcast,2900.0,,OVC,2900.0,,,,,,
KRDR,10-17-2009,02:27,SPECI,,340,5.0,,,9999.0,,3.0,1.0,30.36,1028.7,,,,,,,,,,,,,,,8/8 Overcast,3000.0,,OVC,3000.0,,,,,,
KRDR,10-17-2009,02:17,SPECI,,330,5.0,,,9999.0,,3.0,1.0,30.36,1028.7,,,,,,,,,,,,,,,8/8 Overcast,2900.0,,OVC,2900.0,,,,,,
KRDR,10-17-2009,02:00,METAR,,350,4.0,,,9999.0,,3.0,1.0,30.35,1028.4,,,,,,,,,,,,,,,7/8 Mostly Cloudy,3300.0,,BKN,3400.0,,,,,,
KRDR,10-17-2009,01:00,METAR,,320,6.0,,,9999.0,,4.0,1.0,30.34,1028.1,,,,,,,,,,,,,,,7/8 Mostly Cloudy,3400.0,,BKN,3500.0,,,,,,
KRDR,10-17-2009,00:00,METAR,,330,11.0,,,9999.0,,4.0,1.0,30.33,1027.6,,,,,,,,,,,,,,,7/8 Mostly Cloudy,3600.0,,BKN,3700.0,,,,,,
KRDR,10-16-2009,23:00,METAR,,340,7.0,,,9999.0,,5.0,1.0,30.31,1026.9,,,,,,,,,,,,,,,7/8 Mostly Cloudy,3700.0,,FEW,2500.0,BKN,3800.0,,,,
KRDR,10-16-2009,22:00,METAR,,340,5.0,,,9999.0,,5.0,1.0,30.29,1026.4,,,,,,,,,,,,,,,7/8 Mostly Cloudy,3500.0,,BKN,3600.0,,,,,,
KRDR,10-16-2009,21:04,SPECI,,350,7.0,,,9999.0,,5.0,0.0,30.28,1026.0,,,,,,,,,,,,,,,8/8 Overcast,3100.0,,OVC,3100.0,,,,,,
KRDR,10-16-2009,21:00,METAR,,10,5.0,,,9999.0,,5.0,0.0,30.27,1025.9,,,,,,,,,,,,,,,8/8 Overcast,3100.0,,OVC,3100.0,,,,,,
KRDR,10-16-2009,20:54,SPECI,,10,5.0,,,9999.0,,5.0,0.0,30.27,1025.9,,,,,,,,,,,,,,,8/8 Overcast,2900.0,,OVC,2900.0,,,,,,
KRDR,10-16-2009,20:48,SPECI,,10,5.0,,,9999.0,,5.0,0.0,30.27,1025.8,,,,,,,,,,,,,,,8/8 Overcast,3100.0,,OVC,3100.0,,,,,,
KRDR,10-16-2009,20:29,SPECI,,30,6.0,,,9999.0,,5.0,0.0,30.27,1025.8,,,,,,,,,,,,,,,8/8 Overcast,2900.0,,OVC,2900.0,,,,,,
KRDR,10-16-2009,20:27,SPECI,,20,5.0,,,9999.0,,5.0,0.0,30.27,1025.7,,,,,,,,,,,,,,,8/8 Overcast,3000.0,,OVC,3000.0,,,,,,
KRDR,10-16-2009,20:15,SPECI,,30,6.0,,,9999.0,,5.0,1.0,30.27,1025.7,,,,,,,,,,,,,,,8/8 Overcast,2800.0,,FEW,1700.0,BKN,2800.0,OVC,3400.0,,
KRDR,10-16-2009,20:01,SPECI,,30,6.0,,,9999.0,,5.0,1.0,30.27,1025.7,,,,,,,,,,,,,,,8/8 Overcast,3100.0,,FEW,2000.0,OVC,3200.0,,,,
KRDR,10-16-2009,20:00,METAR,,30,7.0,,,9999.0,,5.0,1.0,30.27,1025.8,,,,,,,,,,,,,,,8/8 Overcast,1700.0,,OVC,2500.0,,,,,,
KRDR,10-16-2009,19:56,SPECI,,10,5.0,,,9999.0,,5.0,1.0,30.27,1025.8,,,,,,,,,,,,,,,8/8 Overcast,3200.0,,FEW,1800.0,SCT,2300.0,OVC,3300.0,,
KRDR,10-16-2009,19:00,METAR,,20,6.0,,,9999.0,,4.0,1.0,30.27,1025.6,,,,,,,,,,,,,,,8/8 Overcast,1900.0,,OVC,1900.0,,,,,,
KRDR,10-16-2009,18:02,SPECI,,20,8.0,,,9999.0,,4.0,2.0,30.26,1025.5,,,,,,,,,,,,,,,8/8 Overcast,1600.0,,OVC,1600.0,,,,,,
KRDR,10-16-2009,18:00,METAR,,30,5.0,,,9999.0,,4.0,2.0,30.26,1025.6,,,,,,,,,,,TRACE,,.03 IN,,8/8 Overcast,1700.0,,OVC,1700.0,,,,,,
KRDR,10-16-2009,17:46,SPECI,,20,9.0,,,9999.0,,4.0,2.0,30.26,1025.5,,,,,,,,,,,,,,,8/8 Overcast,1200.0,,OVC,1600.0,,,,,,
KRDR,10-16-2009,17:43,SPECI,,30,10.0,,,9999.0,Drizzle,4.0,2.0,30.26,1025.5,,,,51,,,,,,,,,,,8/8 Overcast,1600.0,,OVC,1600.0,,,,,,
KRDR,10-16-2009,17:36,SPECI,,50,8.0,,,9999.0,Drizzle,4.0,2.0,30.26,1025.5,,,,51,,,,,,,,,,,8/8 Overcast,1400.0,,OVC,1400.0,,,,,,
KRDR,10-16-2009,17:11,SPECI,,40,9.0,,,9999.0,,4.0,2.0,30.26,1025.4,,,,,,,,,,,,,,,8/8 Overcast,1300.0,,OVC,1300.0,,,,,,
KRDR,10-16-2009,17:04,SPECI,,40,8.0,,,9999.0,,4.0,3.0,30.26,1025.3,,,,,,,,,,,,,,,7/8 Mostly Cloudy,1100.0,,BKN,1100.0,,,,,,
KRDR,10-16-2009,17:00,METAR,,40,9.0,,,9999.0,Drizzle,3.0,2.0,30.26,1025.3,,,,51,,,,,,,.01 IN,,,,7/8 Mostly Cloudy,1400.0,,BKN,1400.0,,,,,,
KRDR,10-16-2009,16:53,SPECI,,40,9.0,,,9999.0,Drizzle,3.0,2.0,30.26,1025.3,,,,51,,,,,,,,,,,7/8 Mostly Cloudy,1400.0,,FEW,900.0,BKN,1400.0,,,,
KRDR,10-16-2009,16:46,SPECI,,40,11.0,,,9999.0,Rain,3.0,2.0,30.26,1025.3,,,,61,,,,,,,,,,,7/8 Mostly Cloudy,1400.0,,BKN,1400.0,,,,,,
KRDR,10-16-2009,16:44,SPECI,,30,11.0,,,9999.0,Rain,3.0,2.0,30.26,1025.3,,,,61,,,,,,,,,,,7/8 Mostly Cloudy,1500.0,,FEW,1000.0,BKN,1500.0,,,,
KRDR,10-16-2009,16:36,SPECI,,40,9.0,,,9999.0,Fog or Ice Fog,3.0,2.0,30.26,1025.3,,,,40,,,,,,,,,,,8/8 Overcast,1200.0,,OVC,1200.0,,,,,,
KRDR,10-16-2009,16:34,SPECI,,40,10.0,,,9999.0,,3.0,2.0,30.25,1025.2,,,,,,,,,,,,,,,8/8 Overcast,1200.0,,OVC,1200.0,,,,,,
KRDR,10-16-2009,16:32,SPECI,,30,10.0,,,9999.0,,3.0,2.0,30.25,1025.2,,,,,,,,,,,,,,,8/8 Overcast,1500.0,,SCT,900.0,OVC,1500.0,,,,
KRDR,10-16-2009,16:31,SPECI,,40,9.0,,,9999.0,,3.0,2.0,30.26,1025.3,,,,,,,,,,,,,,,8/8 Overcast,1400.0,,SCT,1000.0,OVC,1400.0,,,,
KRDR,10-16-2009,16:30,SPECI,,40,9.0,,,9999.0,,3.0,2.0,30.26,1025.3,,,,,,,,,,,,,,,8/8 Overcast,1400.0,,SCT,1000.0,OVC,1400.0,,,,
KRDR,10-16-2009,16:26,SPECI,,30,11.0,,,9999.0,,3.0,2.0,30.26,1025.2,,,,,,,,,,,,,,,8/8 Overcast,900.0,,OVC,900.0,,,,,,
KRDR,10-16-2009,16:23,SPECI,,40,11.0,,,9999.0,,3.0,2.0,30.25,1025.2,,,,,,,,,,,,,,,8/8 Overcast,1200.0,,OVC,1200.0,,,,,,
KRDR,10-16-2009,16:20,SPECI,,30,9.0,,,9999.0,,3.0,2.0,30.25,1025.2,,,,,,,,,,,,,,,8/8 Overcast,1000.0,,OVC,1000.0,,,,,,
KRDR,10-16-2009,16:07,SPECI,,30,9.0,,,9999.0,Drizzle,3.0,2.0,30.25,1025.2,,,,51,,,,,,,,,,,8/8 Overcast,1100.0,,OVC,1100.0,,,,,,
KRDR,10-16-2009,16:00,METAR,,30,9.0,,,9999.0,Drizzle,3.0,3.0,30.25,1025.1,,,,51,,,,,,,TRACE,,,,8/8 Overcast,900.0,,OVC,900.0,,,,,,
KRDR,10-16-2009,15:01,SPECI,,20,6.0,,,9999.0,Rain,3.0,2.0,30.24,1024.8,,,,61,,,,,,,,,,,8/8 Overcast,800.0,,OVC,800.0,,,,,,
KRDR,10-16-2009,15:00,METAR,,20,7.0,,,9999.0,Rain,2.0,2.0,30.24,1024.8,,,,61,,,,,,,.01 IN,.02 IN,,,8/8 Overcast,600.0,,OVC,600.0,,,,,,
KRDR,10-16-2009,14:51,SPECI,,20,8.0,,,9999.0,Rain,2.0,2.0,30.24,1024.8,,,,61,,,,,,,,,,,8/8 Overcast,600.0,,OVC,600.0,,,,,,
KRDR,10-16-2009,14:44,SPECI,,10,7.0,,,9999.0,Rain,2.0,2.0,30.24,1024.7,,,,61,,,,,,,,,,,8/8 Overcast,700.0,,OVC,700.0,,,,,,
KRDR,10-16-2009,14:01,SPECI,,10,8.0,,,9999.0,Rain,2.0,2.0,30.23,1024.4,,,,61,,,,,,,,,,,8/8 Overcast,600.0,,OVC,600.0,,,,,,
KRDR,10-16-2009,14:00,METAR,,10,7.0,,,9999.0,Drizzle,2.0,2.0,30.23,1024.4,,,,51,,,,,,,.01 IN,,,,8/8 Overcast,500.0,,OVC,500.0,,,,,,
KRDR,10-16-2009,13:51,SPECI,,10,7.0,,,9999.0,Drizzle,2.0,2.0,30.23,1024.4,,,,51,,,,,,,,,,,8/8 Overcast,500.0,,OVC,500.0,,,,,,
KRDR,10-16-2009,13:31,SPECI,,360,6.0,,,9999.0,Rain,2.0,2.0,30.23,1024.3,,,,61,,,,,,,,,,,8/8 Overcast,600.0,,OVC,600.0,,,,,,
KRDR,10-16-2009,13:25,SPECI,,360,5.0,,,9999.0,Drizzle,2.0,2.0,30.22,1024.2,,,,51,,,,,,,,,,,8/8 Overcast,700.0,,OVC,700.0,,,,,,
KRDR,10-16-2009,13:19,SPECI,,360,6.0,,,9999.0,,2.0,2.0,30.22,1024.1,,,,,,,,,,,,,,,8/8 Overcast,700.0,,OVC,700.0,,,,,,
KRDR,10-16-2009,13:00,METAR,,360,4.0,,,9999.0,Rain,2.0,2.0,30.21,1023.7,,,,61,,,,,,,TRACE,,,,8/8 Overcast,900.0,,OVC,900.0,,,,,,
KRDR,10-16-2009,12:25,SPECI,,360,5.0,,,9999.0,Rain,2.0,2.0,30.21,1023.7,,,,61,,,,,,,,,,,8/8 Overcast,800.0,,OVC,800.0,,,,,,
KRDR,10-16-2009,12:19,SPECI,,360,6.0,,,9999.0,Rain,2.0,2.0,30.21,1023.8,,,,61,,,,,,,,,,,8/8 Overcast,600.0,,OVC,600.0,,,,,,
KRDR,10-16-2009,12:00,METAR,,350,7.0,,,8000.0,Rain/Mist,2.0,2.0,30.21,1023.8,,,,61,10,,,,,,.01 IN,,.01 IN,.01 IN,8/8 Overcast,700.0,,OVC,700.0,,,,,,
KRDR,10-16-2009,11:34,SPECI,,330,5.0,,,4800.0,Drizzle/Mist,2.0,2.0,30.21,1023.7,,,,51,10,,,,,,,,,,8/8 Overcast,700.0,,FEW,300.0,OVC,700.0,,,,
KRDR,10-16-2009,11:25,SPECI,,330,4.0,,,3200.0,Drizzle/Mist,2.0,2.0,30.20,1023.5,,,,51,10,,,,,,,,,,8/8 Overcast,700.0,,FEW,300.0,OVC,700.0,,,,
KRDR,10-16-2009,11:13,SPECI,,320,4.0,,,2800.0,Rain/Mist,2.0,2.0,30.20,1023.4,,,,61,10,,,,,,,,,,8/8 Overcast,700.0,,OVC,700.0,,,,,,
KRDR,10-16-2009,11:04,SPECI,,320,4.0,,,4000.0,Rain/Mist,2.0,2.0,30.20,1023.4,,,,61,10,,,,,,,,,,8/8 Overcast,700.0,,OVC,700.0,,,,,,
KRDR,10-16-2009,11:00,METAR,,320,3.0,,,4800.0,Rain/Mist,2.0,2.0,30.20,1023.4,,,,61,10,,,,,,TRACE,,,,8/8 Overcast,700.0,,OVC,700.0,,,,,,
KRDR,10-16-2009,10:50,SPECI,,320,3.0,,,4800.0,Rain/Mist,2.0,2.0,30.20,1023.4,,,,61,10,,,,,,,,,,8/8 Overcast,700.0,,OVC,700.0,,,,,,
KRDR,10-16-2009,10:15,SPECI,,340,5.0,,,4000.0,Drizzle/Mist,2.0,2.0,30.19,1023.2,,,,51,10,,,,,,,,,,7/8 Mostly Cloudy,600.0,,FEW,200.0,BKN,600.0,,,,
KRDR,10-16-2009,10:00,METAR,,330,4.0,,,6400.0,Rain/Mist,2.0,2.0,30.19,1023.1,,,,61,10,,,,,,TRACE,,,,8/8 Overcast,600.0,,OVC,600.0,,,,,,
KRDR,10-16-2009,09:34,SPECI,,320,5.0,,,6400.0,Fog or Ice Fog/Mist,2.0,2.0,30.19,1023.0,,,,40,10,,,,,,,,,,8/8 Overcast,600.0,,OVC,600.0,,,,,,
KRDR,10-16-2009,09:00,METAR,,340,5.0,,,9999.0,Mist,2.0,2.0,30.19,1022.9,,,,10,,,,,,,,,,,8/8 Overcast,600.0,,FEW,300.0,OVC,600.0,,,,
KRDR,10-16-2009,08:53,SPECI,,330,5.0,,,9999.0,Mist,2.0,2.0,30.19,1023.0,,,,10,,,,,,,,,,,8/8 Overcast,500.0,,OVC,500.0,,,,,,
KRDR,10-16-2009,08:50,SPECI,,330,4.0,,,9999.0,,2.0,2.0,30.18,1022.9,,,,,,,,,,,,,,,8/8 Overcast,600.0,,OVC,600.0,,,,,,
KRDR,10-16-2009,08:43,SPECI,,330,4.0,,,9999.0,,2.0,2.0,30.18,1022.9,,,,,,,,,,,,,,,8/8 Overcast,500.0,,OVC,500.0,,,,,,
KRDR,10-16-2009,08:00,METAR,,310,5.0,,,9999.0,,2.0,2.0,30.18,1022.9,,,,,,,,,,,,,,,8/8 Overcast,400.0,,OVC,400.0,,,,,,
KRDR,10-16-2009,07:04,SPECI,,320,4.0,,,9999.0,,2.0,2.0,30.18,1022.7,,,,,,,,,,,,,,,8/8 Overcast,400.0,,OVC,400.0,,,,,,
KRDR,10-16-2009,07:00,METAR,,320,4.0,,,9999.0,,2.0,2.0,30.18,1022.7,,,,,,,,,,,,,,,8/8 Overcast,400.0,,OVC,400.0,,,,,,
KRDR,10-16-2009,06:26,SPECI,,320,4.0,,,9999.0,,2.0,2.0,30.18,1022.8,,,,,,,,,,,,,,,8/8 Overcast,400.0,,OVC,400.0,,,,,,
KRDR,10-16-2009,06:00,METAR,,320,4.0,,,9999.0,,2.0,2.0,30.19,1022.9,,,,,,,,,,,,,,,8/8 Overcast,1100.0,,OVC,1100.0,,,,,,
KRDR,10-16-2009,05:00,METAR,,320,4.0,,,9999.0,,2.0,2.0,30.19,1023.0,,,,,,,,,,,,,,,8/8 Overcast,1400.0,,SCT,600.0,OVC,1400.0,,,,
KRDR,10-16-2009,04:01,SPECI,,320,4.0,,,9999.0,,2.0,2.0,30.19,1023.0,,,,,,,,,,,,,,,8/8 Overcast,400.0,,OVC,400.0,,,,,,
KRDR,10-16-2009,04:00,METAR,,320,5.0,,,9999.0,,3.0,2.0,30.19,1023.0,,,,,,,,,,,,,,,8/8 Overcast,1300.0,,BKN,1300.0,BKN,3700.0,OVC,5000.0,,
KRDR,10-16-2009,03:39,SPECI,,340,6.0,,,9999.0,,2.0,2.0,30.19,1023.0,,,,,,,,,,,,,,,8/8 Overcast,900.0,,FEW,400.0,BKN,900.0,OVC,4900.0,,
KRDR,10-16-2009,03:35,SPECI,,340,6.0,,,9999.0,,2.0,2.0,30.19,1023.0,,,,,,,,,,,,,,,8/8 Overcast,1600.0,,FEW,400.0,BKN,1600.0,OVC,4900.0,,
KRDR,10-16-2009,03:31,SPECI,,340,6.0,,,9999.0,,2.0,2.0,30.18,1022.9,,,,,,,,,,,,,,,8/8 Overcast,3100.0,,FEW,900.0,OVC,3200.0,,,,
KRDR,10-16-2009,03:00,METAR,,330,5.0,,,9999.0,,2.0,2.0,30.17,1022.6,,,,,,,,,,,,,,,8/8 Overcast,1700.0,,BKN,1700.0,OVC,3000.0,,,,
KRDR,10-16-2009,02:00,METAR,,320,4.0,,,9999.0,,2.0,2.0,30.17,1022.3,,,,,,,,,,,,,,,8/8 Overcast,2700.0,,OVC,2700.0,,,,,,
KRDR,10-16-2009,01:00,METAR,,320,4.0,,,9999.0,,3.0,2.0,30.16,1022.1,,,,,,,,,,,,,,,8/8 Overcast,1600.0,,OVC,1600.0,,,,,,
KRDR,10-16-2009,00:00,METAR,,340,5.0,,,9999.0,,3.0,3.0,30.15,1021.7,,,,,,,,,,,,,TRACE,,8/8 Overcast,1200.0,,OVC,1200.0,,,,,,
KRDR,10-15-2009,23:00,METAR,,350,5.0,,,9999.0,,3.0,3.0,30.14,1021.3,,,,,,,,,,,,,,,8/8 Overcast,1200.0,,OVC,1200.0,,,,,,
KRDR,10-15-2009,22:12,SPECI,,340,5.0,,,9999.0,,3.0,3.0,30.13,1021.1,,,,,,,,,,,,,,,8/8 Overcast,900.0,,OVC,900.0,,,,,,
KRDR,10-15-2009,22:00,METAR,,340,4.0,,,9999.0,,3.0,3.0,30.13,1021.1,,,,,,,,,,,,,,,8/8 Overcast,1000.0,,OVC,1000.0,,,,,,
KRDR,10-15-2009,21:00,METAR,,320,4.0,,,9999.0,,3.0,3.0,30.12,1020.7,,,,,,,,,,,,TRACE,,,8/8 Overcast,1100.0,,OVC,1100.0,,,,,,
KRDR,10-15-2009,20:00,METAR,,330,5.0,,,9999.0,,2.0,2.0,30.11,1020.5,,,,,,,,,,,TRACE,,,,8/8 Overcast,800.0,,OVC,800.0,,,,,,
KRDR,10-15-2009,19:23,SPECI,,350,6.0,,,9999.0,Rain,2.0,2.0,30.11,1020.3,,,,61,,,,,,,,,,,8/8 Overcast,800.0,,OVC,800.0,,,,,,
KRDR,10-15-2009,19:13,SPECI,,350,6.0,,,9999.0,Rain,2.0,2.0,30.11,1020.3,,,,61,,,,,,,,,,,8/8 Overcast,600.0,,OVC,600.0,,,,,,
KRDR,10-15-2009,19:00,METAR,,350,6.0,,,9999.0,,2.0,2.0,30.10,1020.3,,,,,,,,,,,,,,,8/8 Overcast,500.0,,OVC,500.0,,,,,,
KRDR,10-15-2009,18:12,SPECI,,350,5.0,,,6400.0,Mist,2.0,2.0,30.11,1020.4,,,,10,,,,,,,,,,,8/8 Overcast,500.0,,OVC,500.0,,,,,,
KRDR,10-15-2009,18:00,METAR,,360,5.0,,,6400.0,Mist,2.0,2.0,30.11,1020.3,,,,10,,,,,,,,,TRACE,,8/8 Overcast,600.0,,OVC,600.0,,,,,,
KRDR,10-15-2009,17:56,SPECI,,,5.0,,,9999.0,,2.0,2.0,30.11,1020.4,,,,,,,,,,,,,,,8/8 Overcast,500.0,,OVC,500.0,,,,,,
KRDR,10-15-2009,17:36,SPECI,,10,5.0,,,9999.0,,2.0,2.0,30.11,1020.3,,,,,,,,,,,,,,,8/8 Overcast,600.0,,OVC,600.0,,,,,,
KRDR,10-15-2009,17:16,SPECI,,10,5.0,,,6400.0,Mist,2.0,1.0,30.10,1020.2,,,,10,,,,,,,,,,,8/8 Overcast,700.0,,SCT,300.0,OVC,700.0,,,,
KRDR,10-15-2009,17:10,SPECI,,10,5.0,,,9999.0,,2.0,1.0,30.10,1020.3,,,,,,,,,,,,,,,8/8 Overcast,600.0,,OVC,600.0,,,,,,
KRDR,10-15-2009,17:01,SPECI,,20,5.0,,,9999.0,,1.0,1.0,30.10,1020.2,,,,,,,,,,,,,,,8/8 Overcast,500.0,,OVC,500.0,,,,,,
KRDR,10-15-2009,17:00,METAR,,20,5.0,,,6400.0,Mist,1.0,1.0,30.10,1020.2,,,,10,,,,,,,,,,,8/8 Overcast,600.0,,OVC,600.0,,,,,,
KRDR,10-15-2009,16:00,METAR,,20,6.0,,,9999.0,Rain,1.0,1.0,30.10,1020.1,,,,61,,,,,,,TRACE,,,,8/8 Overcast,600.0,,OVC,600.0,,,,,,
KRDR,10-15-2009,15:53,SPECI,,20,6.0,,,6400.0,Mist,1.0,1.0,30.10,1020.1,,,,10,,,,,,,,,,,8/8 Overcast,600.0,,OVC,600.0,,,,,,
KRDR,10-15-2009,15:07,SPECI,,10,5.0,,,6400.0,Rain/Mist,1.0,0.0,30.10,1020.1,,,,61,10,,,,,,,,,,8/8 Overcast,600.0,,FEW,300.0,OVC,600.0,,,,
KRDR,10-15-2009,15:00,METAR,,20,5.0,,,6400.0,Rain/Mist,1.0,0.0,30.09,1020.0,,,,61,10,,,,,,TRACE,TRACE,,,8/8 Overcast,700.0,,FEW,300.0,OVC,700.0,,,,
KRDR,10-15-2009,14:46,SPECI,,20,5.0,,,6400.0,Rain/Mist,0.0,0.0,30.09,,,,,61,10,,,,,,,,,,8/8 Overcast,1000.0,,OVC,1000.0,,,,,,
KRDR,10-15-2009,14:45,SPECI,,20,5.0,,,8000.0,Rain/Mist,1.0,0.0,30.09,1019.9,,,,61,10,,,,,,,,,,8/8 Overcast,1000.0,,OVC,1000.0,,,,,,
KRDR,10-15-2009,14:33,SPECI,,20,4.0,,,6400.0,Rain/Mist,1.0,1.0,30.09,1019.8,,,,61,10,,,,,,,,,,8/8 Overcast,800.0,,OVC,800.0,,,,,,
KRDR,10-15-2009,14:26,SPECI,,30,4.0,,,9999.0,Mist,1.0,1.0,30.09,1019.8,,,,10,,,,,,,,,,,8/8 Overcast,800.0,,OVC,800.0,,,,,,
KRDR,10-15-2009,14:21,SPECI,,30,4.0,,,9999.0,Mist,1.0,1.0,30.09,1019.7,,,,10,,,,,,,,,,,8/8 Overcast,500.0,,OVC,500.0,,,,,,
KRDR,10-15-2009,14:16,SPECI,,30,5.0,,,6400.0,Mist,1.0,1.0,30.09,1019.7,,,,10,,,,,,,,,,,8/8 Overcast,600.0,,OVC,600.0,,,,,,
KRDR,10-15-2009,14:00,METAR,,50,5.0,,,6400.0,Mist,1.0,1.0,30.08,1019.3,,,,10,,,,,,,TRACE,,,,8/8 Overcast,700.0,,OVC,700.0,,,,,,
KRDR,10-15-2009,13:17,SPECI,,70,6.0,,,6400.0,Mist,1.0,0.0,30.06,1018.9,,,,10,,,,,,,,,,,8/8 Overcast,700.0,,OVC,700.0,,,,,,
KRDR,10-15-2009,13:04,SPECI,,60,6.0,,,4800.0,Rain/Mist,1.0,0.0,30.07,1019.0,,,,61,10,,,,,,,,,,8/8 Overcast,700.0,,OVC,700.0,,,,,,
KRDR,10-15-2009,13:00,METAR,,60,6.0,,,4800.0,Rain/Mist,1.0,0.0,30.06,1018.9,,,,61,10,,,,,,TRACE,,,,8/8 Overcast,600.0,,OVC,600.0,,,,,,
KRDR,10-15-2009,12:38,SPECI,,50,7.0,,,8000.0,Rain/Mist,1.0,0.0,30.06,1018.7,,,,61,10,,,,,,,,,,8/8 Overcast,600.0,,OVC,600.0,,,,,,
KRDR,10-15-2009,12:04,SPECI,,50,6.0,,,9999.0,Rain/Mist,0.0,0.0,30.05,1018.6,,,,61,10,,,,,,,,,,8/8 Overcast,700.0,,OVC,700.0,,,,,,
KRDR,10-15-2009,12:00,METAR,,60,7.0,,,8000.0,Light Snow/Mist,0.0,0.0,30.05,1018.5,,,,71,10,,,,,,.01 IN,,.04 IN,.33 IN,8/8 Overcast,700.0,,OVC,700.0,,,,,,
KRDR,10-15-2009,11:23,SPECI,,60,6.0,,,9999.0,Light Snow,0.0,0.0,30.05,1018.3,,,,71,,,,,,,,,,,8/8 Overcast,700.0,,OVC,700.0,,,,,,
KRDR,10-15-2009,11:00,METAR,,50,6.0,,,9999.0,,0.0,0.0,30.03,1018.0,,,,,,,,,,,TRACE,,,,8/8 Overcast,700.0,,OVC,700.0,,,,,,
KRDR,10-15-2009,10:50,SPECI,,50,5.0,,,9999.0,,0.0,0.0,30.03,1018.0,,,,,,,,,,,,,,,8/8 Overcast,700.0,,OVC,700.0,,,,,,
KRDR,10-15-2009,10:28,SPECI,,50,6.0,,,9999.0,Mist,0.0,0.0,30.03,1017.7,,,,10,,,,,,,,,,,8/8 Overcast,600.0,,OVC,600.0,,,,,,
KRDR,10-15-2009,10:00,METAR,,50,6.0,,,8000.0,Light Snow/Mist,0.0,0.0,30.02,1017.4,71,10,,,,,,,,,.01 IN,,,,8/8 Overcast,600.0,,OVC,600.0,,,,,,
KRDR,10-15-2009,09:40,SPECI,,60,6.0,,,8000.0,Light Snow/Mist,0.0,0.0,30.02,1017.4,71,10,,,,,,,,,,,,,8/8 Overcast,600.0,,OVC,600.0,,,,,,
KRDR,10-15-2009,09:02,SPECI,,50,6.0,,,8000.0,Light Snow/Mist,0.0,0.0,30.02,1017.4,71,10,,,,,,,,,,,,,8/8 Overcast,700.0,,OVC,700.0,,,,,,
KRDR,10-15-2009,09:00,METAR,,60,5.0,,,9999.0,Unknown Precipitation/Mist,0.0,0.0,30.01,1017.3,40,10,,,,,,,,,TRACE,.02 IN,,,8/8 Overcast,600.0,,OVC,600.0,,,,,,
KRDR,10-15-2009,08:32,SPECI,,50,6.0,,,9999.0,Light Snow,0.0,0.0,30.01,1017.3,71,,,,,,,,,,,,,,8/8 Overcast,600.0,,OVC,600.0,,,,,,
KRDR,10-15-2009,08:00,METAR,,60,5.0,,,6400.0,Unknown Precipitation/Mist,0.0,0.0,30.02,1017.5,40,10,,,,,,,,,.01 IN,,,,8/8 Overcast,700.0,,OVC,700.0,,,,,,
KRDR,10-15-2009,07:25,SPECI,,70,6.0,,,8000.0,Light Snow/Mist,0.0,0.0,30.02,1017.5,71,10,,,,,,,,,,,,,8/8 Overcast,700.0,,OVC,700.0,,,,,,
KRDR,10-15-2009,07:00,METAR,,70,6.0,,,4800.0,Light Snow/Mist,0.0,0.0,30.03,1017.7,71,10,,,,,,,,,.01 IN,,,,8/8 Overcast,600.0,,OVC,600.0,,,,,,
KRDR,10-15-2009,06:25,SPECI,,80,6.0,,,4000.0,Light Snow/Mist,0.0,0.0,30.03,1017.7,71,10,,,,,,,,,,,,,8/8 Overcast,600.0,,OVC,600.0,,,,,,
KRDR,10-15-2009,06:00,METAR,,80,6.0,,,3200.0,Light Snow/Mist,0.0,0.0,30.03,1017.7,71,10,,,,,,,,,.03 IN,,.16 IN,,8/8 Overcast,600.0,,OVC,600.0,,,,,,
KRDR,10-15-2009,05:00,METAR,,90,6.0,,,3200.0,Light Snow/Mist,0.0,0.0,30.04,1018.1,71,10,,,,,,,,,.03 IN,,,,8/8 Overcast,600.0,,OVC,600.0,,,,,,
KRDR,10-15-2009,04:10,SPECI,,90,6.0,,,3200.0,Light Snow/Mist,0.0,0.0,30.04,1018.1,71,10,,,,,,,,,,,,,8/8 Overcast,600.0,,OVC,600.0,,,,,,
KRDR,10-15-2009,04:00,METAR,,90,7.0,,,3200.0,Light Snow/Mist,0.0,0.0,30.04,1018.0,71,10,,,,,,,,,.02 IN,,,,8/8 Overcast,600.0,,OVC,600.0,,,,,,
KRDR,10-15-2009,03:28,SPECI,,100,6.0,,,4000.0,Light Snow/Mist,0.0,0.0,30.03,1018.0,,,,71,10,,,,,,,,,,8/8 Overcast,600.0,,OVC,600.0,,,,,,
KRDR,10-15-2009,03:00,METAR,,100,7.0,,,3200.0,Light Snow/Mist,0.0,0.0,30.03,1017.9,,,,71,10,,,,,,.03 IN,.08 IN,,,8/8 Overcast,700.0,,OVC,700.0,,,,,,
KRDR,10-15-2009,02:00,METAR,,100,8.0,,,4000.0,Light Snow/Mist,0.0,0.0,30.04,1018.3,,,,71,10,,,,,,.03 IN,,,,8/8 Overcast,700.0,,OVC,700.0,,,,,,
KRDR,10-15-2009,01:00,METAR,,100,9.0,,,4000.0,Light Snow/Mist,0.0,0.0,30.05,1018.6,,,,71,10,,,,,,.02 IN,,,,8/8 Overcast,700.0,,OVC,700.0,,,,,,
KRDR,10-15-2009,00:29,SPECI,,90,8.0,,,3200.0,Light Snow/Mist,0.0,0.0,30.06,1018.8,,,,71,10,,,,,,,,,,8/8 Overcast,700.0,,OVC,700.0,,,,,,
KRDR,10-15-2009,00:20,SPECI,,90,9.0,,,2800.0,Light Snow/Mist,0.0,0.0,30.06,1018.8,,,,71,10,,,,,,,,,,8/8 Overcast,600.0,,OVC,600.0,,,,,,
KRDR,10-15-2009,00:00,METAR,,80,7.0,,,3200.0,Light Snow/Mist,0.0,0.0,30.07,1019.1,,,,71,10,,,,,,.05 IN,,.13 IN,,8/8 Overcast,600.0,,OVC,600.0,,,,,,
KRDR,10-14-2009,23:00,METAR,,90,6.0,,,1600.0,Light Snow/Mist,0.0,0.0,30.08,1019.3,,,,71,10,,,,,,.04 IN,,,,8/8 Overcast,600.0,,OVC,600.0,,,,,,
KRDR,10-14-2009,22:38,SPECI,,90,6.0,,,1600.0,Light Snow/Mist,0.0,0.0,30.08,1019.4,,,,71,10,,,,,,,,,,Sky Obscured (Unable to Estimate),600.0,100.0,,600.0,,,,,,
KRDR,10-14-2009,22:34,SPECI,,90,6.0,,,2400.0,Light Snow/Mist,0.0,0.0,30.08,,,,,71,10,,,,,,,,,,8/8 Overcast,600.0,,OVC,600.0,,,,,,
KRDR,10-14-2009,22:00,METAR,,80,7.0,,,3200.0,Light Snow/Rain/Mist,1.0,0.0,30.09,1019.7,,,,61,71,10,,,,,.02 IN,,,,8/8 Overcast,900.0,,BKN,900.0,OVC,1400.0,,,,
KRDR,10-14-2009,21:19,SPECI,,90,7.0,,,3200.0,Light Snow/Mist,1.0,0.0,30.10,1020.1,,,,71,10,,,,,,,,,,4/8 Partly Cloudy,72000.0,,SCT,700.0,,,,,,
KRDR,10-14-2009,21:00,METAR,,90,5.0,,,2400.0,Light Snow/Mist,1.0,0.0,30.11,1020.4,,,,71,10,,,,,,.02 IN,.02 IN,,,2/8 Mostly Clear,72000.0,,FEW,900.0,,,,,,
KRDR,10-14-2009,20:50,SPECI,,90,6.0,,,2400.0,Light Snow/Mist,1.0,0.0,30.11,1020.5,,,,71,10,,,,,,,,,,2/8 Mostly Clear,72000.0,,FEW,900.0,,,,,,
KRDR,10-14-2009,20:29,SPECI,,110,7.0,,,3200.0,Light Snow/Mist,1.0,0.0,30.12,1020.8,,,,71,10,,,,,,,,,,4/8 Partly Cloudy,72000.0,,SCT,1000.0,,,,,,
KRDR,10-14-2009,20:00,METAR,,110,7.0,,,4800.0,Light Snow/Rain/Mist,3.0,-1.0,30.12,1020.9,,,,61,71,10,,,,,TRACE,,,,8/8 Overcast,3400.0,,BKN,3500.0,OVC,5900.0,,,,
KRDR,10-14-2009,19:35,SPECI,,130,5.0,,,9999.0,Light Snow/Rain/Mist,4.0,-3.0,30.13,,,,,61,71,10,,,,,,,,,8/8 Overcast,6000.0,,BKN,5900.0,OVC,12000.0,,,,
KRDR,10-14-2009,19:00,METAR,,110,8.0,,,9999.0,,4.0,-2.0,30.13,1021.2,,,,,,,,,,,,,,,8/8 Overcast,15000.0,,FEW,5900.0,OVC,15000.0,,,,
KRDR,10-14-2009,18:00,METAR,,120,7.0,,,9999.0,,3.0,-2.0,30.15,1021.7,,,,,,,,,,,,,,,7/8 Mostly Cloudy,4900.0,,BKN,5000.0,,,,,,
KRDR,10-14-2009,17:00,METAR,,110,8.0,,,9999.0,,3.0,-2.0,30.16,1022.1,,,,,,,,,,,,,,,8/8 Overcast,6000.0,,OVC,5900.0,,,,,,
KRDR,10-14-2009,16:00,METAR,,120,8.0,,,9999.0,,2.0,-2.0,30.18,1022.8,,,,,,,,,,,,,,,8/8 Overcast,7000.0,,OVC,6900.0,,,,,,
KRDR,10-14-2009,15:00,METAR,,130,7.0,,,9999.0,,0.0,-2.0,30.20,1023.3,,,,,,,,,,,,,,,8/8 Overcast,7000.0,,OVC,6900.0,,,,,,
KRDR,10-14-2009,14:27,SPECI,,130,6.0,,,9999.0,,0.0,-2.0,30.22,,,,,,,,,,,,,,,,8/8 Overcast,6000.0,,OVC,5900.0,,,,,,
KRDR,10-14-2009,14:00,METAR,,110,6.0,,,9999.0,,0.0,-2.0,30.22,1023.9,,,,,,,,,,,,,,,8/8 Overcast,6000.0,,OVC,5900.0,,,,,,
KRDR,10-14-2009,13:00,METAR,,130,4.0,,,9999.0,,-1.0,-3.0,30.25,1025.0,,,,,,,,,,,,,,,7/8 Mostly Cloudy,7500.0,,BKN,7400.0,,,,,,
KRDR,10-14-2009,12:00,METAR,,120,5.0,,,9999.0,,-2.0,-4.0,30.26,1025.5,,,,,,,,,,,,,,,2/8 Mostly Clear,72000.0,,FEW,7900.0,,,,,,
KRDR,10-14-2009,11:00,METAR,,,0.0,,,9999.0,,-3.0,-4.0,30.28,1026.2,,,,,,,,,,,,,,,7/8 Mostly Cloudy,7000.0,,BKN,6900.0,,,,,,
KRDR,10-14-2009,10:00,METAR,,,0.0,,,9999.0,,-4.0,-5.0,30.30,1026.6,,,,,,,,,,,,,,,8/8 Overcast,7500.0,,OVC,7400.0,,,,,,
KRDR,10-14-2009,09:00,METAR,,,0.0,,,9999.0,,-6.0,-7.0,30.29,1026.4,,,,,,,,,,,,,,,7/8 Mostly Cloudy,8000.0,,BKN,7900.0,,,,,,
KRDR,10-14-2009,08:00,METAR,,,0.0,,,9999.0,,-6.0,-7.0,30.32,1027.4,,,,,,,,,,,,,,,Clear,72000.0,,,73000.0,,,,,,
KRDR,10-14-2009,07:00,METAR,,340,3.0,,,9999.0,,-7.0,-8.0,30.33,1027.7,,,,,,,,,,,,,,,Clear,72000.0,,,73000.0,,,,,,
KRDR,10-14-2009,06:00,METAR,,,0.0,,,9999.0,,-6.0,-7.0,30.34,1028.0,,,,,,,,,,,,,,,Clear,72000.0,,,73000.0,,,,,,
KRDR,10-14-2009,05:00,METAR,,,0.0,,,9999.0,,-4.0,-6.0,30.37,1029.0,,,,,,,,,,,,,,,Clear,72000.0,,,73000.0,,,,,,
KRDR,10-14-2009,04:00,METAR,,,0.0,,,9999.0,,-6.0,-7.0,30.38,1029.5,,,,,,,,,,,,,,,Clear,72000.0,,,73000.0,,,,,,
KRDR,10-14-2009,03:00,METAR,,,0.0,,,9999.0,,-4.0,-7.0,30.38,1029.5,,,,,,,,,,,,,,,Clear,72000.0,,,73000.0,,,,,,
KRDR,10-14-2009,02:00,METAR,,110,3.0,,,9999.0,,0.0,-6.0,30.38,1029.5,,,,,,,,,,,,,,,Clear,72000.0,,,73000.0,,,,,,
KRDR,10-14-2009,01:00,METAR,,110,3.0,,,9999.0,,1.0,-5.0,30.39,1029.8,,,,,,,,,,,,,,,Clear,72000.0,,,73000.0,,,,,,
KRDR,10-14-2009,00:00,METAR,,90,4.0,,,9999.0,,1.0,-6.0,30.39,1029.8,,,,,,,,,,,,,,,7/8 Mostly Cloudy,25000.0,,FEW,4000.0,BKN,25000.0,,,,
KRDR,10-13-2009,23:00,METAR,,100,6.0,,,9999.0,,3.0,-6.0,30.40,1029.9,,,,,,,,,,,,,,,7/8 Mostly Cloudy,25000.0,,FEW,4000.0,BKN,25000.0,,,,
KRDR,10-13-2009,22:00,METAR,,80,5.0,,,9999.0,,4.0,-6.0,30.40,1030.1,,,,,,,,,,,,,,,7/8 Mostly Cloudy,25000.0,,SCT,4000.0,BKN,25000.0,,,,
KRDR,10-13-2009,21:00,METAR,,100,5.0,,,9999.0,,5.0,-6.0,30.41,1030.4,,,,,,,,,,,,,,,7/8 Mostly Cloudy,25000.0,,SCT,4000.0,BKN,25000.0,,,,
KRDR,10-13-2009,20:00,METAR,,80,5.0,,,9999.0,,4.0,-6.0,30.42,1030.7,,,,,,,,,,,,,,,7/8 Mostly Cloudy,25000.0,,SCT,4000.0,BKN,25000.0,,,,
KRDR,10-13-2009,19:00,METAR,,100,4.0,,,9999.0,,4.0,-5.0,30.44,1031.2,,,,,,,,,,,,,,,4/8 Partly Cloudy,72000.0,,SCT,3400.0,,,,,,
KRDR,10-13-2009,18:00,METAR,,,0.0,,,9999.0,,3.0,-5.0,30.45,1031.8,,,,,,,,,,,,,,,7/8 Mostly Cloudy,25000.0,,SCT,3000.0,BKN,25000.0,,,,
KRDR,10-13-2009,17:00,METAR,,,3.0,,,9999.0,,2.0,-3.0,30.45,1031.8,,,,,,,,,,,,,,,7/8 Mostly Cloudy,25000.0,,FEW,2000.0,BKN,25000.0,,,,
KRDR,10-13-2009,16:00,METAR,,,0.0,,,9999.0,,0.0,-3.0,30.46,1032.0,,,,,,,,,,,,,,,7/8 Mostly Cloudy,25000.0,,BKN,25000.0,,,,,,
KRDR,10-13-2009,15:00,METAR,,,0.0,,,9999.0,,-1.0,-4.0,30.46,1031.8,,,,,,,,,,,,,,,7/8 Mostly Cloudy,25000.0,,BKN,25000.0,,,,,,
KRDR,10-13-2009,14:00,METAR,,,0.0,,,9999.0,,-5.0,-6.0,30.45,1031.6,,,,,,,,,,,,,,,2/8 Mostly Clear,72000.0,,FEW,25000.0,,,,,,
KRDR,10-13-2009,13:00,METAR,,300,3.0,,,9999.0,,-9.0,-11.0,30.43,1031.1,,,,,,,,,,,,,,,Clear,72000.0,,,73000.0,,,,,,
KRDR,10-13-2009,12:00,METAR,,,0.0,,,9999.0,,-8.0,-9.0,30.41,1030.5,,,,,,,,,,,,,,,Clear,72000.0,,,73000.0,,,,,,
KRDR,10-13-2009,11:00,METAR,,,0.0,,,9999.0,,-8.0,-9.0,30.40,1030.0,,,,,,,,,,,,,,,Clear,72000.0,,,73000.0,,,,,,
KRDR,10-13-2009,10:00,METAR,,,0.0,,,9999.0,,-7.0,-8.0,30.40,1029.9,,,,,,,,,,,,,,,Clear,72000.0,,,73000.0,,,,,,
KRDR,10-13-2009,09:00,METAR,,260,3.0,,,9999.0,,-7.0,-8.0,30.39,1029.7,,,,,,,,,,,,,,,Clear,72000.0,,,73000.0,,,,,,
KRDR,10-13-2009,08:00,METAR,,300,4.0,,,9999.0,,-6.0,-8.0,30.37,1029.1,,,,,,,,,,,,,,,Clear,72000.0,,,73000.0,,,,,,
KRDR,10-13-2009,07:00,METAR,,280,4.0,,,9999.0,,-6.0,-8.0,30.36,1028.8,,,,,,,,,,,,,,,Clear,72000.0,,,73000.0,,,,,,
KRDR,10-13-2009,06:00,METAR,,290,6.0,,,9999.0,,-5.0,-7.0,30.34,1028.0,,,,,,,,,,,,,,,Clear,72000.0,,,73000.0,,,,,,
KRDR,10-13-2009,05:00,METAR,,290,6.0,,,9999.0,,-5.0,-7.0,30.32,1027.4,,,,,,,,,,,,,,,Clear,72000.0,,,73000.0,,,,,,
KRDR,10-13-2009,04:00,METAR,,290,4.0,,,9999.0,,-5.0,-7.0,30.31,1027.0,,,,,,,,,,,,,,,Clear,72000.0,,,73000.0,,,,,,
KRDR,10-13-2009,03:00,METAR,,290,4.0,,,9999.0,,-3.0,-7.0,30.29,1026.4,,,,,,,,,,,,,,,7/8 Mostly Cloudy,7000.0,,BKN,6900.0,,,,,,
KRDR,10-13-2009,02:00,METAR,,290,6.0,,,9999.0,,-2.0,-7.0,30.28,1025.9,,,,,,,,,,,,,,,8/8 Overcast,7000.0,,OVC,6900.0,,,,,,
KRDR,10-13-2009,01:00,METAR,,300,5.0,,,9999.0,,-2.0,-7.0,30.25,1025.1,,,,,,,,,,,,,,,Clear,72000.0,,,73000.0,,,,,,
KRDR,10-13-2009,00:00,METAR,,320,6.0,,,9999.0,,1.0,-6.0,30.23,1024.6,,,,,,,,,,,,,TRACE,,4/8 Partly Cloudy,72000.0,,FEW,5900.0,SCT,12000.0,,,,
KRDR,10-12-2009,23:00,METAR,,320,7.0,,,9999.0,,3.0,-7.0,30.22,1023.9,,,,,,,,,,,,,,,7/8 Mostly Cloudy,6000.0,,FEW,4000.0,BKN,5900.0,BKN,12000.0,,
KRDR,10-12-2009,22:00,METAR,,300,8.0,,,9999.0,,4.0,-8.0,30.20,1023.4,,,,,,,,,,,,,,,4/8 Partly Cloudy,72000.0,,SCT,6400.0,,,,,,
KRDR,10-12-2009,21:00,METAR,,290,10.0,,,9999.0,,3.0,-6.0,30.19,1023.1,,,,,,,,,,,,TRACE,,,7/8 Mostly Cloudy,12000.0,,SCT,6400.0,BKN,12000.0,,,,
KRDR,10-12-2009,20:00,METAR,,310,8.0,,,9999.0,,2.0,-7.0,30.19,1023.2,,,,,,,,,,,TRACE,,,,2/8 Mostly Clear,72000.0,,FEW,3900.0,,,,,,
KRDR,10-12-2009,19:22,SPECI,,300,8.0,,,9999.0,,2.0,-6.0,30.20,1023.3,,,,,,,,,,,,,,,4/8 Partly Cloudy,72000.0,,SCT,4000.0,,,,,,
KRDR,10-12-2009,19:07,SPECI,,310,9.0,,,9999.0,Light Snow,3.0,-6.0,30.20,1023.3,,,,71,,,,,,,,,,,7/8 Mostly Cloudy,10000.0,,FEW,3500.0,SCT,4300.0,BKN,9900.0,,
KRDR,10-12-2009,19:00,METAR,,290,7.0,,,9999.0,,3.0,-6.0,30.19,1023.2,,,,,,,,,,,,,,,2/8 Mostly Clear,72000.0,,FEW,5900.0,,,,,,
KRDR,10-12-2009,18:15,SPECI,,320,5.0,,,9999.0,,2.0,-5.0,30.20,1023.5,,,,,,,,,,,,,,,8/8 Overcast,3300.0,,SCT,2500.0,BKN,3400.0,OVC,5900.0,,
KRDR,10-12-2009,18:00,METAR,,310,6.0,,,9999.0,,2.0,-5.0,30.20,1023.6,,,,,,,,,,,TRACE,,TRACE,,4/8 Partly Cloudy,72000.0,,SCT,3400.0,,,,,,
KRDR,10-12-2009,17:43,SPECI,,310,7.0,,,9999.0,,2.0,-5.0,30.20,1023.6,,,,,,,,,,,,,,,4/8 Partly Cloudy,72000.0,,SCT,3000.0,,,,,,
KRDR,10-12-2009,17:34,SPECI,,320,6.0,,,9999.0,Light Rain,2.0,-5.0,30.21,1023.7,61,,,,,,,,,,,,,,4/8 Partly Cloudy,72000.0,,FEW,2500.0,SCT,3300.0,,,,
KRDR,10-12-2009,17:03,SPECI,,350,5.0,,,9999.0,,2.0,-3.0,30.20,1023.6,,,,,,,,,,,,,,,2/8 Mostly Clear,72000.0,,FEW,5000.0,,,,,,
KRDR,10-12-2009,17:00,METAR,,270,7.0,,,9999.0,,2.0,-4.0,30.21,1023.6,,,,,,,,,,,TRACE,,,,2/8 Mostly Clear,72000.0,,FEW,4600.0,,,,,,
KRDR,10-12-2009,17:00,SPECI,,,4.0,,,9999.0,,2.0,-4.0,30.20,1023.6,,,,,,,,,,,,,,,Clear,72000.0,,,73000.0,,,,,,
KRDR,10-12-2009,16:32,SPECI,,320,6.0,,,9999.0,,1.0,-4.0,30.21,1023.7,,,,,,,,,,,,,,,7/8 Mostly Cloudy,2200.0,,BKN,2200.0,BKN,4400.0,,,,
KRDR,10-12-2009,16:06,SPECI,,240,3.0,,,9999.0,Light Snow,2.0,-3.0,30.21,1023.7,,,,71,,,,,,,,,,,7/8 Mostly Cloudy,1800.0,,BKN,1800.0,BKN,3200.0,,,,
KRDR,10-12-2009,16:00,METAR,,270,5.0,,,9999.0,,1.0,-4.0,30.21,1023.7,,,,,,,,,,,,,,,8/8 Overcast,1600.0,,BKN,2000.0,OVC,4300.0,,,,
KRDR,10-12-2009,15:36,SPECI,,310,6.0,,,9999.0,,1.0,-3.0,30.21,1023.7,,,,,,,,,,,,,,,8/8 Overcast,1600.0,,BKN,1600.0,OVC,4000.0,,,,
KRDR,10-12-2009,15:08,SPECI,,280,5.0,,,9999.0,,0.0,-3.0,30.20,1023.5,,,,,,,,,,,,,,,Clear,72000.0,,,73000.0,,,,,,
KRDR,10-12-2009,15:00,METAR,,270,5.0,,,9999.0,,0.0,-3.0,30.20,1023.4,,,,,,,,,,,TRACE,TRACE,,,8/8 Overcast,4200.0,,BKN,4300.0,OVC,25000.0,,,,
KRDR,10-12-2009,14:48,SPECI,,260,6.0,,,9999.0,,0.0,-3.0,30.20,1023.4,,,,,,,,,,,,,,,8/8 Overcast,4200.0,,BKN,4300.0,OVC,25000.0,,,,
KRDR,10-12-2009,14:38,SPECI,,270,3.0,,,9999.0,Light Snow,-1.0,-3.0,30.20,1023.4,,,,71,,,,,,,,,,,2/8 Mostly Clear,72000.0,,FEW,1600.0,,,,,,
KRDR,10-12-2009,14:00,METAR,,260,3.0,,,9999.0,,-2.0,-3.0,30.19,1023.2,,,,,,,,,,,TRACE,,,,Clear,72000.0,,,73000.0,,,,,,
KRDR,10-12-2009,13:34,SPECI,,,0.0,,,9999.0,,-2.0,-3.0,30.19,1023.2,,,,,,,,,,,,,,,Clear,72000.0,,,73000.0,,,,,,
KRDR,10-12-2009,13:20,SPECI,,,0.0,,,9999.0,,-2.0,-3.0,30.19,1023.0,,,,,,,,,,,,,,,Clear,72000.0,,,73000.0,,,,,,
KRDR,10-12-2009,13:13,SPECI,,280,3.0,,,9999.0,,-2.0,-3.0,30.19,1022.9,,,,,,,,,,,,,,,Clear,72000.0,,,73000.0,,,,,,
KRDR,10-12-2009,13:00,METAR,,290,4.0,,,9999.0,,-2.0,-3.0,30.19,1023.0,,,,,,,,,,,TRACE,,,,Clear,72000.0,,,73000.0,,,,,,
KRDR,10-12-2009,12:13,SPECI,,260,3.0,,,9999.0,,-2.0,-4.0,30.19,1023.2,,,,,,,,,,,,,,,Clear,72000.0,,,73000.0,,,,,,
KRDR,10-12-2009,12:03,SPECI,,250,3.0,,,9999.0,,-1.0,-4.0,30.19,1023.2,,,,,,,,,,,,,,,Clear,72000.0,,,73000.0,,,,,,
KRDR,10-12-2009,12:00,METAR,,250,4.0,,,9999.0,,-1.0,-4.0,30.19,1023.2,,,,,,,,,,,TRACE,,TRACE,,Clear,72000.0,,,73000.0,,,,,,
KRDR,10-12-2009,11:45,SPECI,,250,4.0,,,9999.0,,-1.0,-4.0,30.19,1023.2,,,,,,,,,,,,,,,Clear,72000.0,,,73000.0,,,,,,
KRDR,10-12-2009,11:34,SPECI,,250,5.0,,,9999.0,,-1.0,-4.0,30.20,1023.3,,,,,,,,,,,,,,,Clear,72000.0,,,73000.0,,,,,,
KRDR,10-12-2009,11:18,SPECI,,250,5.0,,,9999.0,,-1.0,-4.0,30.19,1023.2,,,,,,,,,,,,,,,Clear,72000.0,,,73000.0,,,,,,
KRDR,10-12-2009,11:00,METAR,,250,6.0,,,9999.0,,-1.0,-5.0,30.19,1023.2,,,,,,,,,,,,,,,Clear,72000.0,,,73000.0,,,,,,
KRDR,10-12-2009,10:00,METAR,,220,5.0,,,9999.0,,-1.0,-5.0,30.19,1023.1,,,,,,,,,,,,,,,Clear,72000.0,,,73000.0,,,,,,
KRDR,10-12-2009,09:00,METAR,,230,3.0,,,9999.0,,-2.0,-4.0,30.18,1022.8,,,,,,,,,,,,,,,Clear,72000.0,,,73000.0,,,,,,
KRDR,10-12-2009,08:00,METAR,,,0.0,,,9999.0,,-2.0,-5.0,30.19,1023.0,,,,,,,,,,,,,,,Clear,72000.0,,,73000.0,,,,,,
KRDR,10-12-2009,07:00,METAR,,,0.0,,,9999.0,,-3.0,-5.0,30.20,1023.3,,,,,,,,,,,,,,,4/8 Partly Cloudy,72000.0,,SCT,5900.0,,,,,,
KRDR,10-12-2009,06:00,METAR,,,0.0,,,9999.0,,-2.0,-5.0,30.20,1023.5,,,,,,,,,,,,,,,Clear,72000.0,,,73000.0,,,,,,
KRDR,10-12-2009,05:00,METAR,,,0.0,,,9999.0,,-1.0,-4.0,30.21,1023.9,,,,,,,,,,,,,,,8/8 Overcast,6000.0,,OVC,5900.0,,,,,,
KRDR,10-12-2009,04:00,METAR,,250,4.0,,,9999.0,,0.0,-5.0,30.21,1023.9,,,,,,,,,,,,,,,8/8 Overcast,6000.0,,OVC,5900.0,,,,,,
KRDR,10-12-2009,03:00,METAR,,,0.0,,,9999.0,,-1.0,-4.0,30.21,1023.8,,,,,,,,,,,,,,,8/8 Overcast,6000.0,,OVC,5900.0,,,,,,
KRDR,10-12-2009,02:00,METAR,,210,4.0,,,9999.0,,0.0,-5.0,30.20,1023.5,,,,,,,,,,,,,,,8/8 Overcast,6000.0,,OVC,5900.0,,,,,,
KRDR,10-12-2009,01:00,METAR,,210,4.0,,,9999.0,,1.0,-6.0,30.20,1023.4,,,,,,,,,,,,,,,8/8 Overcast,6000.0,,OVC,5900.0,,,,,,
KRDR,10-12-2009,00:00,METAR,,210,4.0,,,9999.0,,1.0,-6.0,30.20,1023.3,,,,,,,,,,,,,,,4/8 Partly Cloudy,72000.0,,SCT,5900.0,,,,,,
KRDR,10-11-2009,23:00,METAR,,230,5.0,,,9999.0,,2.0,-7.0,30.19,1023.2,,,,,,,,,,,,,,,2/8 Mostly Clear,72000.0,,FEW,5900.0,,,,,,
KRDR,10-11-2009,22:00,METAR,,260,7.0,,,9999.0,,2.0,-7.0,30.20,1023.5,,,,,,,,,,,,,,,7/8 Mostly Cloudy,5500.0,,BKN,5400.0,,,,,,
KRDR,10-11-2009,21:00,METAR,,250,8.0,,,9999.0,,2.0,-6.0,30.21,1023.7,,,,,,,,,,,,,,,2/8 Mostly Clear,72000.0,,FEW,3800.0,,,,,,
KRDR,10-11-2009,20:00,METAR,,240,9.0,,,9999.0,,2.0,-4.0,30.22,1023.9,,,,,,,,,,,,,,,7/8 Mostly Cloudy,3900.0,,BKN,4000.0,,,,,,
KRDR,10-11-2009,19:00,METAR,,250,9.0,,,9999.0,,2.0,-4.0,30.23,1024.4,,,,,,,,,,,,,,,7/8 Mostly Cloudy,3300.0,,BKN,3400.0,,,,,,
KRDR,10-11-2009,18:00,METAR,,250,7.0,,,9999.0,Light Rain,2.0,-3.0,30.23,1024.5,61,,,,,,,,,,TRACE,,TRACE,,8/8 Overcast,2500.0,,OVC,2900.0,,,,,,
KRDR,10-11-2009,17:53,SPECI,,240,8.0,,,9999.0,,2.0,-3.0,30.23,1024.5,,,,,,,,,,,,,,,8/8 Overcast,2900.0,,OVC,2900.0,,,,,,
KRDR,10-11-2009,17:48,SPECI,,240,8.0,,,9999.0,Light Rain,2.0,-3.0,30.23,1024.5,61,,,,,,,,,,,,,,8/8 Overcast,2500.0,,BKN,2500.0,OVC,3900.0,,,,
KRDR,10-11-2009,17:43,SPECI,,230,8.0,,,9999.0,Light Rain,2.0,-3.0,30.23,1024.5,61,,,,,,,,,,,,,,8/8 Overcast,3300.0,,OVC,3400.0,,,,,,
KRDR,10-11-2009,17:41,SPECI,,240,8.0,,,9999.0,,2.0,-3.0,30.23,1024.6,,,,,,,,,,,,,,,8/8 Overcast,3400.0,,OVC,3500.0,,,,,,
KRDR,10-11-2009,17:24,SPECI,,240,7.0,,,9999.0,Light Rain,2.0,-4.0,30.24,1024.6,61,,,,,,,,,,,,,,7/8 Mostly Cloudy,4000.0,,FEW,2500.0,BKN,4100.0,,,,
KRDR,10-11-2009,17:22,SPECI,,250,7.0,,,9999.0,,2.0,-4.0,30.24,1024.7,,,,,,,,,,,,,,,8/8 Overcast,4000.0,,FEW,2500.0,OVC,4100.0,,,,
KRDR,10-11-2009,17:18,SPECI,,250,6.0,,,9999.0,Light Rain,2.0,-4.0,30.24,1024.7,61,,,,,,,,,,,,,,8/8 Overcast,3500.0,,OVC,3600.0,,,,,,
KRDR,10-11-2009,17:14,SPECI,,270,7.0,,,9999.0,,1.0,-4.0,30.24,1024.7,,,,,,,,,,,,,,,8/8 Overcast,3300.0,,OVC,3400.0,,,,,,
KRDR,10-11-2009,17:00,METAR,,250,7.0,,,9999.0,Unknown Precipitation,2.0,-4.0,30.24,1024.7,40,,,,,,,,,,TRACE,,,,7/8 Mostly Cloudy,3600.0,,BKN,3700.0,,,,,,
KRDR,10-11-2009,16:44,SPECI,,250,8.0,,,9999.0,Unknown Precipitation,2.0,-4.0,30.24,1024.7,40,,,,,,,,,,,,,,7/8 Mostly Cloudy,4200.0,,FEW,2300.0,BKN,4300.0,,,,
KRDR,10-11-2009,16:00,METAR,,260,8.0,,,9999.0,,1.0,-3.0,30.24,1024.9,,,,,,,,,,,,,,,7/8 Mostly Cloudy,4400.0,,BKN,4500.0,,,,,,
KRDR,10-11-2009,15:00,METAR,,250,11.0,,,9999.0,,0.0,-3.0,30.24,1024.8,,,,,,,,,,,,,,,8/8 Overcast,4300.0,,OVC,4400.0,,,,,,
KRDR,10-11-2009,14:00,METAR,,290,5.0,,,9999.0,,0.0,-4.0,30.24,1024.7,,,,,,,,,,,,,,,8/8 Overcast,4300.0,,OVC,4400.0,,,,,,
KRDR,10-11-2009,13:00,METAR,,,0.0,,,9999.0,,0.0,-5.0,30.23,1024.4,,,,,,,,,,,,,,,8/8 Overcast,4600.0,,OVC,4700.0,,,,,,
KRDR,10-11-2009,12:00,METAR,,270,4.0,,,9999.0,,0.0,-4.0,30.23,1024.3,,,,,,,,,,,,,,,8/8 Overcast,4500.0,,OVC,4600.0,,,,,,
KRDR,10-11-2009,11:00,METAR,,240,4.0,,,9999.0,,0.0,-4.0,30.22,1024.0,,,,,,,,,,,,,,,8/8 Overcast,4400.0,,OVC,4500.0,,,,,,
KRDR,10-11-2009,10:00,METAR,,270,6.0,,,9999.0,,0.0,-5.0,30.20,1023.6,,,,,,,,,,,,,,,8/8 Overcast,4100.0,,OVC,4200.0,,,,,,
KRDR,10-11-2009,09:00,METAR,,280,7.0,,,9999.0,,0.0,-5.0,30.20,1023.4,,,,,,,,,,,,,,,8/8 Overcast,4000.0,,OVC,4100.0,,,,,,
KRDR,10-11-2009,08:00,METAR,,260,7.0,,,9999.0,,0.0,-5.0,30.20,1023.5,,,,,,,,,,,,,,,8/8 Overcast,3900.0,,OVC,4000.0,,,,,,
KRDR,10-11-2009,07:00,METAR,,270,5.0,,,9999.0,,0.0,-5.0,30.19,1023.2,,,,,,,,,,,,,,,8/8 Overcast,3900.0,,OVC,4000.0,,,,,,
KRDR,10-11-2009,06:00,METAR,,280,6.0,,,9999.0,,0.0,-6.0,30.19,1023.2,,,,,,,,,,,,,,,8/8 Overcast,3900.0,,OVC,4000.0,,,,,,
KRDR,10-11-2009,05:00,METAR,,300,7.0,,,9999.0,,0.0,-6.0,30.19,1023.1,,,,,,,,,,,,,,,8/8 Overcast,3800.0,,OVC,3900.0,,,,,,
KRDR,10-11-2009,04:00,METAR,,300,6.0,,,9999.0,,0.0,-6.0,30.19,1022.9,,,,,,,,,,,,,,,8/8 Overcast,3900.0,,OVC,4000.0,,,,,,
KRDR,10-11-2009,03:00,METAR,,300,7.0,,,9999.0,,0.0,-6.0,30.17,1022.6,,,,,,,,,,,,,,,8/8 Overcast,3800.0,,OVC,3900.0,,,,,,
KRDR,10-11-2009,02:00,METAR,,290,8.0,,,9999.0,,1.0,-7.0,30.16,1022.2,,,,,,,,,,,,,,,8/8 Overcast,4300.0,,OVC,4400.0,,,,,,
KRDR,10-11-2009,01:00,METAR,,290,10.0,18.0,,9999.0,,1.0,-7.0,30.15,1021.7,,,,,,,,,,,,,,,8/8 Overcast,4400.0,,OVC,4500.0,,,,,,
KRDR,10-11-2009,00:00,METAR,,310,12.0,,,9999.0,,1.0,-8.0,30.12,1020.9,,,,,,,,,,,,,TRACE,,8/8 Overcast,4700.0,,OVC,4800.0,,,,,,
KRDR,10-10-2009,23:00,METAR,,280,15.0,21.0,,9999.0,,1.0,-8.0,30.11,1020.6,,,,,,,,,,,,,,,7/8 Mostly Cloudy,4600.0,,BKN,4700.0,,,,,,
KRDR,10-10-2009,22:00,METAR,,290,14.0,20.0,,9999.0,,1.0,-7.0,30.10,1020.3,,,,,,,,,,,TRACE,,,,7/8 Mostly Cloudy,4900.0,,BKN,5000.0,,,,,,
KRDR,10-10-2009,21:19,SPECI,,290,11.0,20.0,,9999.0,,1.0,-6.0,30.10,1020.0,,,,,,,,,,,,,,,7/8 Mostly Cloudy,4800.0,,BKN,4900.0,,,,,,
KRDR,10-10-2009,21:07,SPECI,,300,15.0,23.0,,9999.0,Unknown Precipitation,1.0,-7.0,30.10,1020.1,40,,,,,,,,,,,,,,4/8 Partly Cloudy,72000.0,,SCT,4400.0,,,,,,
KRDR,10-10-2009,21:04,SPECI,,280,17.0,23.0,,9999.0,,1.0,-6.0,30.10,1020.2,,,,,,,,,,,,,,,4/8 Partly Cloudy,72000.0,,SCT,4900.0,,,,,,
KRDR,10-10-2009,21:00,METAR,,280,14.0,21.0,,9999.0,,1.0,-7.0,30.10,1020.1,,,,,,,,,,,,TRACE,,,4/8 Partly Cloudy,72000.0,,SCT,4900.0,,,,,,
KRDR,10-10-2009,20:38,SPECI,,290,13.0,21.0,,9999.0,,2.0,-7.0,30.09,,,,,,,,,,,,,,,,8/8 Overcast,4900.0,,SCT,3300.0,OVC,5000.0,,,,
KRDR,10-10-2009,20:27,SPECI,,290,15.0,23.0,,9999.0,Light Snow,2.0,-7.0,30.10,,,,,71,,,,,,,,,,,8/8 Overcast,4900.0,,SCT,3300.0,OVC,5000.0,,,,
KRDR,10-10-2009,20:16,SPECI,,300,14.0,21.0,,9999.0,,2.0,-7.0,30.10,,,,,,,,,,,,,,,,8/8 Overcast,4500.0,,FEW,3300.0,OVC,4600.0,,,,
KRDR,10-10-2009,20:00,METAR,,280,14.0,23.0,,9999.0,Light Snow,1.0,-7.0,30.09,1019.9,,,,71,,,,,,,TRACE,,,,7/8 Mostly Cloudy,4400.0,,SCT,3900.0,BKN,4500.0,,,,
KRDR,10-10-2009,19:29,SPECI,,290,16.0,24.0,,9999.0,,1.0,-6.0,30.10,1020.0,,,,,,,,,,,,,,,7/8 Mostly Cloudy,4400.0,,BKN,4500.0,,,,,,
KRDR,10-10-2009,19:17,SPECI,,290,18.0,24.0,,9999.0,Rain,2.0,-7.0,30.09,1019.9,,,,61,,,,,,,,,,,7/8 Mostly Cloudy,4300.0,,BKN,4400.0,,,,,,
KRDR,10-10-2009,19:12,SPECI,,290,17.0,25.0,,9999.0,,2.0,-8.0,30.09,1019.9,,,,,,,,,,,,,,,7/8 Mostly Cloudy,4200.0,,BKN,4300.0,,,,,,
KRDR,10-10-2009,19:02,SPECI,,290,19.0,25.0,,9999.0,Light Snow,1.0,-7.0,30.09,1019.9,,,,71,,,,,,,,,,,7/8 Mostly Cloudy,4000.0,,BKN,4100.0,,,,,,
KRDR,10-10-2009,19:00,METAR,,290,19.0,26.0,310/28KTS,9999.0,,1.0,-7.0,30.10,1020.0,,,,,,,,,,,,,,,7/8 Mostly Cloudy,4200.0,,BKN,4300.0,,,,,,
KRDR,10-10-2009,18:00,METAR,,300,22.0,27.0,290/28KTS,9999.0,,3.0,-6.0,30.10,1020.1,,,,,,,,,,,,,,,4/8 Partly Cloudy,72000.0,,SCT,3500.0,,,,,,
KRDR,10-10-2009,17:00,METAR,,290,20.0,26.0,290/28KTS,9999.0,,0.0,-7.0,30.09,1020.0,,,,,,,,,,,,,,,2/8 Mostly Clear,72000.0,,FEW,2800.0,,,,,,
KRDR,10-10-2009,16:00,METAR,,290,19.0,28.0,290/28KTS,9999.0,,0.0,-7.0,30.09,1019.8,,,,,,,,,,,,,,,4/8 Partly Cloudy,72000.0,,SCT,2600.0,,,,,,
KRDR,10-10-2009,15:00,METAR,,290,21.0,28.0,280/30KTS,9999.0,,-1.0,-7.0,30.09,1019.8,,,,,,,,,,,,,,,8/8 Overcast,3300.0,,OVC,3400.0,,,,,,
KRDR,10-10-2009,14:00,METAR,,280,18.0,25.0,290/26KTS,9999.0,,-2.0,-7.0,30.08,1019.3,,,,,,,,,,,,,,,Clear,72000.0,,,73000.0,,,,,,
KRDR,10-10-2009,13:00,METAR,,290,14.0,19.0,,9999.0,,-2.0,-7.0,30.07,1019.0,,,,,,,,,,,,,,,8/8 Overcast,3600.0,,OVC,3700.0,,,,,,
KRDR,10-10-2009,12:00,METAR,,300,14.0,21.0,,9999.0,,-1.0,-7.0,30.06,1018.9,,,,,,,,,,,,,,,8/8 Overcast,3100.0,,OVC,3200.0,,,,,,
KRDR,10-10-2009,11:00,METAR,,300,15.0,22.0,,9999.0,,-1.0,-7.0,30.05,1018.6,,,,,,,,,,,,,,,8/8 Overcast,3200.0,,OVC,3300.0,,,,,,
KRDR,10-10-2009,10:00,METAR,,280,8.0,,,9999.0,,-3.0,-6.0,30.05,1018.6,,,,,,,,,,,,,,,8/8 Overcast,3500.0,,OVC,3600.0,,,,,,
KRDR,10-10-2009,09:00,METAR,,290,10.0,,,9999.0,,-3.0,-7.0,30.05,1018.5,,,,,,,,,,,,,,,Clear,72000.0,,,73000.0,,,,,,
KRDR,10-10-2009,08:00,METAR,,280,11.0,,,9999.0,,-3.0,-7.0,30.06,1018.7,,,,,,,,,,,,,,,Clear,72000.0,,,73000.0,,,,,,
KRDR,10-10-2009,07:00,METAR,,290,12.0,,,9999.0,,-3.0,-7.0,30.06,1018.8,,,,,,,,,,,,,,,Clear,72000.0,,,73000.0,,,,,,
KRDR,10-10-2009,06:00,METAR,,280,11.0,,,9999.0,,-3.0,-7.0,30.07,1019.2,,,,,,,,,,,,,,,Clear,72000.0,,,73000.0,,,,,,
KRDR,10-10-2009,05:00,METAR,,280,9.0,,,9999.0,,-3.0,-7.0,30.07,1019.3,,,,,,,,,,,,,,,Clear,72000.0,,,73000.0,,,,,,
KRDR,10-10-2009,04:00,METAR,,290,12.0,,,9999.0,,-3.0,-7.0,30.08,1019.4,,,,,,,,,,,,,,,Clear,72000.0,,,73000.0,,,,,,
KRDR,10-10-2009,03:00,METAR,,290,11.0,,,9999.0,,-3.0,-7.0,30.08,1019.3,,,,,,,,,,,,,,,4/8 Partly Cloudy,72000.0,,FEW,5000.0,SCT,15000.0,,,,
KRDR,10-10-2009,02:00,METAR,,290,10.0,17.0,,9999.0,,-2.0,-8.0,30.07,1019.2,,,,,,,,,,,,,,,7/8 Mostly Cloudy,15000.0,,FEW,3000.0,SCT,5000.0,BKN,15000.0,,
KRDR,10-10-2009,01:00,METAR,,300,11.0,20.0,,9999.0,,-1.0,-8.0,30.07,1019.1,,,,,,,,,,,,,,,7/8 Mostly Cloudy,15000.0,,FEW,3000.0,SCT,5900.0,BKN,15000.0,,
KRDR,10-10-2009,00:00,METAR,,300,11.0,18.0,,9999.0,,0.0,-8.0,30.05,1018.6,,,,,,,,,,,,,TRACE,,7/8 Mostly Cloudy,5500.0,,FEW,3000.0,BKN,5400.0,BKN,15000.0,,
KRDR,10-09-2009,23:00,METAR,,300,14.0,19.0,,9999.0,,0.0,-7.0,30.06,1018.7,,,,,,,,,,,TRACE,,,,7/8 Mostly Cloudy,4900.0,,FEW,3700.0,BKN,5000.0,,,,
KRDR,10-09-2009,22:33,SPECI,,290,15.0,21.0,,9999.0,Fog or Ice Fog,1.0,-7.0,30.05,1018.6,,,,40,,,,,,,,,,,8/8 Overcast,4400.0,,OVC,4500.0,,,,,,
KRDR,10-09-2009,22:00,METAR,,300,13.0,19.0,,9999.0,,1.0,-6.0,30.05,1018.4,,,,,,,,,,,TRACE,,,,8/8 Overcast,3200.0,,FEW,2500.0,BKN,3300.0,OVC,4000.0,,
KRDR,10-09-2009,21:05,SPECI,,310,16.0,21.0,,9999.0,,2.0,-6.0,30.04,1018.2,,,,,,,,,,,,,,,2/8 Mostly Clear,72000.0,,FEW,3100.0,,,,,,
KRDR,10-09-2009,21:00,METAR,,300,14.0,21.0,,9999.0,Rain,1.0,-5.0,30.04,1018.1,,,,61,,,,,,,TRACE,TRACE,,,2/8 Mostly Clear,72000.0,,FEW,2400.0,,,,,,
KRDR,10-09-2009,20:10,SPECI,,300,16.0,23.0,,9999.0,Fog or Ice Fog,2.0,-3.0,30.04,1018.0,,,,40,,,,,,,,,,,4/8 Partly Cloudy,72000.0,,FEW,1700.0,SCT,3300.0,,,,
KRDR,10-09-2009,20:00,METAR,,300,18.0,21.0,,9999.0,,2.0,-3.0,30.03,1017.8,,,,,,,,,,,TRACE,,,,8/8 Overcast,3000.0,,FEW,2800.0,BKN,3000.0,OVC,4000.0,,
KRDR,10-09-2009,19:40,SPECI,,320,16.0,21.0,,9999.0,,2.0,-3.0,30.02,1017.6,,,,,,,,,,,,,,,7/8 Mostly Cloudy,2200.0,,BKN,2900.0,,,,,,
KRDR,10-09-2009,19:19,SPECI,,310,17.0,24.0,,9999.0,Fog or Ice Fog,3.0,-3.0,30.02,1017.4,,,,40,,,,,,,,,,,7/8 Mostly Cloudy,3100.0,,BKN,3100.0,,,,,,
KRDR,10-09-2009,19:00,METAR,,300,12.0,20.0,,9999.0,,4.0,-3.0,30.01,1017.0,,,,,,,,,,,,,,,8/8 Overcast,3300.0,,FEW,3000.0,OVC,3400.0,,,,
KRDR,10-09-2009,18:00,METAR,,290,13.0,,,9999.0,,5.0,-2.0,30.00,1016.9,,,,,,,,,,,,,,,7/8 Mostly Cloudy,25000.0,,SCT,3000.0,BKN,25000.0,,,,
KRDR,10-09-2009,17:00,METAR,,270,14.0,,,9999.0,,7.0,-3.0,30.00,1016.9,,,,,,,,,,,,,,,4/8 Partly Cloudy,72000.0,,SCT,5000.0,SCT,25000.0,,,,
KRDR,10-09-2009,16:00,METAR,,230,12.0,,,9999.0,,5.0,-3.0,30.00,1016.9,,,,,,,,,,,,,,,4/8 Partly Cloudy,72000.0,,SCT,6900.0,SCT,25000.0,,,,
KRDR,10-09-2009,15:00,METAR,,240,8.0,,,9999.0,,3.0,-3.0,30.02,1017.4,,,,,,,,,,,,,,,4/8 Partly Cloudy,72000.0,,SCT,7400.0,SCT,25000.0,,,,
KRDR,10-09-2009,14:00,METAR,,210,6.0,,,9999.0,,-1.0,-4.0,30.01,1017.2,,,,,,,,,,,,,,,4/8 Partly Cloudy,72000.0,,FEW,5000.0,SCT,25000.0,,,,
KRDR,10-09-2009,13:00,METAR,,210,5.0,,,9999.0,,-3.0,-6.0,30.01,1017.0,,,,,,,,,,,,,,,4/8 Partly Cloudy,72000.0,,FEW,5000.0,SCT,25000.0,,,,
KRDR,10-09-2009,12:00,METAR,,220,6.0,,,9999.0,,-3.0,-5.0,30.02,1017.5,,,,,,,,,,,,,,,2/8 Mostly Clear,72000.0,,FEW,25000.0,,,,,,
KRDR,10-09-2009,11:00,METAR,,220,4.0,,,9999.0,,-3.0,-5.0,30.03,1017.9,,,,,,,,,,,,,,,Clear,72000.0,,,73000.0,,,,,,
KRDR,10-09-2009,10:00,METAR,,230,5.0,,,9999.0,,-3.0,-5.0,30.03,1018.0,,,,,,,,,,,,,,,Clear,72000.0,,,73000.0,,,,,,
KRDR,10-09-2009,09:00,METAR,,220,3.0,,,9999.0,,-4.0,-6.0,30.03,1017.9,,,,,,,,,,,,,,,Clear,72000.0,,,73000.0,,,,,,
KRDR,10-09-2009,08:00,METAR,,240,4.0,,,9999.0,,-5.0,-6.0,30.03,1017.9,,,,,,,,,,,,,,,Clear,72000.0,,,73000.0,,,,,,
KRDR,10-09-2009,07:00,METAR,,250,3.0,,,9999.0,,-4.0,-5.0,30.03,1017.9,,,,,,,,,,,,,,,Clear,72000.0,,,73000.0,,,,,,
KRDR,10-09-2009,06:00,METAR,,220,3.0,,,9999.0,,-3.0,-5.0,30.04,1018.2,,,,,,,,,,,,,,,Clear,72000.0,,,73000.0,,,,,,
KRDR,10-09-2009,05:00,METAR,,260,4.0,,,9999.0,,-4.0,-5.0,30.06,1018.8,,,,,,,,,,,,,,,Clear,72000.0,,,73000.0,,,,,,
KRDR,10-09-2009,04:00,METAR,,270,5.0,,,9999.0,,-3.0,-4.0,30.07,1019.1,,,,,,,,,,,,,,,Clear,72000.0,,,73000.0,,,,,,
KRDR,10-09-2009,03:00,METAR,,290,6.0,,,9999.0,,-2.0,-4.0,30.06,1018.9,,,,,,,,,,,,,,,Clear,72000.0,,,73000.0,,,,,,
KRDR,10-09-2009,02:00,METAR,,280,5.0,,,9999.0,,-1.0,-4.0,30.06,1018.9,,,,,,,,,,,,,,,Clear,72000.0,,,73000.0,,,,,,
KRDR,10-09-2009,01:00,METAR,,300,6.0,,,9999.0,,0.0,-4.0,30.06,1018.7,,,,,,,,,,,,,,,Clear,72000.0,,,73000.0,,,,,,
KRDR,10-09-2009,00:00,METAR,,310,5.0,,,9999.0,,3.0,-4.0,30.04,1018.2,,,,,,,,,,,,,TRACE,,4/8 Partly Cloudy,72000.0,,SCT,6400.0,,,,,,
KRDR,10-08-2009,23:00,METAR,,310,7.0,,,9999.0,,5.0,-4.0,30.02,1017.6,,,,,,,,,,,,,,,7/8 Mostly Cloudy,4900.0,,FEW,3000.0,BKN,5000.0,,,,
KRDR,10-08-2009,22:00,METAR,,310,9.0,,,9999.0,,6.0,-4.0,30.01,1017.2,,,,,,,,,,,,,,,7/8 Mostly Cloudy,4800.0,,BKN,4900.0,,,,,,
KRDR,10-08-2009,21:00,METAR,,290,13.0,,,9999.0,,7.0,-4.0,30.01,1017.0,,,,,,,,,,,,TRACE,,,7/8 Mostly Cloudy,4900.0,,FEW,3000.0,BKN,5000.0,,,,
KRDR,10-08-2009,20:00,METAR,,300,15.0,20.0,,9999.0,,6.0,-3.0,30.00,1016.9,,,,,,,,,,,TRACE,,,,7/8 Mostly Cloudy,4900.0,,SCT,3000.0,BKN,5000.0,,,,
KRDR,10-08-2009,19:00,METAR,,300,14.0,21.0,,9999.0,Rain,5.0,-3.0,30.00,1017.0,,,,61,,,,,,,TRACE,,,,7/8 Mostly Cloudy,4900.0,,FEW,3400.0,BKN,5000.0,,,,
KRDR,10-08-2009,18:55,METAR,,300,14.0,21.0,,9999.0,Rain,5.0,-3.0,30.00,1017.0,,,,61,,,,,,,TRACE,,,,7/8 Mostly Cloudy,4900.0,,FEW,3400.0,BKN,5000.0,,,,
KRDR,10-08-2009,18:45,SPECI,,300,14.0,21.0,,9999.0,Rain,5.0,-2.0,30.00,1017.0,,,,61,,,,,,,,,,,7/8 Mostly Cloudy,4700.0,,SCT,3400.0,BKN,4800.0,,,,
KRDR,10-08-2009,18:00,METAR,,320,15.0,,,9999.0,,6.0,-2.0,30.00,1016.9,,,,,,,,,,,,,,,7/8 Mostly Cloudy,3300.0,,BKN,3400.0,,,,,,
KRDR,10-08-2009,17:00,METAR,,290,16.0,19.0,,9999.0,,6.0,-1.0,30.00,1016.8,,,,,,,,,,,,,,,7/8 Mostly Cloudy,3000.0,,BKN,3000.0,,,,,,
KRDR,10-08-2009,16:51,SPECI,,300,14.0,19.0,,9999.0,,5.0,-1.0,30.00,1016.8,,,,,,,,,,,,,,,7/8 Mostly Cloudy,2900.0,,BKN,2900.0,,,,,,
KRDR,10-08-2009,16:37,SPECI,,300,15.0,20.0,,9999.0,,6.0,-1.0,30.00,1016.7,,,,,,,,,,,,,,,7/8 Mostly Cloudy,3000.0,,BKN,3000.0,,,,,,
KRDR,10-08-2009,16:00,METAR,,300,13.0,21.0,,9999.0,,4.0,-2.0,29.99,1016.5,,,,,,,,,,,,,,,4/8 Partly Cloudy,72000.0,,SCT,2800.0,,,,,,
KRDR,10-08-2009,15:33,SPECI,,330,11.0,20.0,,9999.0,,4.0,-2.0,29.99,1016.5,,,,,,,,,,,,,,,8/8 Overcast,2900.0,,OVC,2900.0,,,,,,
KRDR,10-08-2009,15:00,METAR,,310,13.0,20.0,,9999.0,,4.0,-2.0,29.98,1016.3,,,,,,,,,,,,,,,7/8 Mostly Cloudy,3200.0,,BKN,3300.0,,,,,,
KRDR,10-08-2009,14:00,METAR,,300,11.0,17.0,,9999.0,,3.0,-2.0,29.97,1015.8,,,,,,,,,,,,,,,4/8 Partly Cloudy,72000.0,,SCT,4000.0,,,,,,
KRDR,10-08-2009,13:00,METAR,,310,9.0,,,9999.0,,2.0,-2.0,29.94,1014.9,,,,,,,,,,,,,,,4/8 Partly Cloudy,72000.0,,SCT,4000.0,,,,,,
KRDR,10-08-2009,12:00,METAR,,300,12.0,21.0,,9999.0,,3.0,-2.0,29.94,1014.7,,,,,,,,,,,,,,.01 IN,8/8 Overcast,3900.0,,OVC,4000.0,,,,,,
KRDR,10-08-2009,11:00,METAR,,290,10.0,,,9999.0,,2.0,-2.0,29.92,1014.2,,,,,,,,,,,,,,,4/8 Partly Cloudy,72000.0,,SCT,4000.0,,,,,,
KRDR,10-08-2009,10:00,METAR,,300,10.0,,,9999.0,,2.0,-1.0,29.90,1013.5,,,,,,,,,,,,,,,7/8 Mostly Cloudy,3000.0,,BKN,3000.0,,,,,,
KRDR,10-08-2009,09:00,METAR,,300,11.0,,,9999.0,,3.0,-1.0,29.89,1013.1,,,,,,,,,,,,,,,7/8 Mostly Cloudy,3000.0,,BKN,3000.0,,,,,,
KRDR,10-08-2009,08:23,SPECI,,300,12.0,19.0,,9999.0,,4.0,0.0,29.88,,,,,,,,,,,,,,,,8/8 Overcast,3000.0,,OVC,3000.0,,,,,,
KRDR,10-08-2009,08:16,SPECI,,300,10.0,,,9999.0,,4.0,0.0,29.88,1012.8,,,,,,,,,,,,,,,8/8 Overcast,2900.0,,OVC,2900.0,,,,,,
KRDR,10-08-2009,08:00,METAR,,320,19.0,24.0,310/31KTS,9999.0,,5.0,0.0,29.87,1012.5,,,,,,,,,,,,,,,8/8 Overcast,3000.0,,OVC,3000.0,,,,,,
KRDR,10-08-2009,07:00,METAR,,310,19.0,24.0,,9999.0,,5.0,-1.0,29.85,1011.9,,,,,,,,,,,,,,,7/8 Mostly Cloudy,3300.0,,BKN,3400.0,,,,,,
KRDR,10-08-2009,06:00,METAR,,300,12.0,,,9999.0,,5.0,0.0,29.83,1011.3,,,,,,,,,,,,,,,7/8 Mostly Cloudy,3500.0,,BKN,3600.0,,,,,,
KRDR,10-08-2009,05:00,METAR,,310,13.0,22.0,,9999.0,,5.0,0.0,29.82,1010.8,,,,,,,,,,,,,,,Clear,72000.0,,,73000.0,,,,,,
KRDR,10-08-2009,04:00,METAR,,310,17.0,24.0,300/26KTS,9999.0,,6.0,0.0,29.80,1010.2,,,,,,,,,,,,,,,8/8 Overcast,3200.0,,OVC,3300.0,,,,,,
KRDR,10-08-2009,03:00,METAR,,310,13.0,21.0,290/30KTS,9999.0,,6.0,0.0,29.78,1009.6,,,,,,,,,,,,,,,8/8 Overcast,3100.0,,OVC,3200.0,,,,,,
KRDR,10-08-2009,02:00,METAR,,300,17.0,25.0,,9999.0,,7.0,1.0,29.75,1008.7,,,,,,,,,,,,,,,4/8 Partly Cloudy,72000.0,,SCT,4200.0,,,,,,
KRDR,10-08-2009,01:00,METAR,,300,13.0,18.0,,9999.0,,8.0,1.0,29.72,1007.7,,,,,,,,,,,,,,,8/8 Overcast,4900.0,,OVC,5000.0,,,,,,
KRDR,10-08-2009,00:00,METAR,,280,16.0,22.0,290/28KTS,9999.0,,9.0,1.0,29.68,1006.4,,,,,,,,,,,,,,,8/8 Overcast,4900.0,,OVC,5000.0,,,,,,
KRDR,10-07-2009,23:00,METAR,,290,14.0,25.0,280/29KTS,9999.0,,9.0,1.0,29.67,1005.8,,,,,,,,,,,,,,,7/8 Mostly Cloudy,3900.0,,BKN,4000.0,,,,,,
KRDR,10-07-2009,22:00,METAR,,290,22.0,30.0,290/30KTS,9999.0,,9.0,2.0,29.65,1005.3,,,,,,,,,,,,,,,8/8 Overcast,3600.0,,OVC,3700.0,,,,,,
KRDR,10-07-2009,21:00,METAR,,290,21.0,29.0,290/29KTS,9999.0,,9.0,2.0,29.64,1004.9,,,,,,,,,,,,,,,8/8 Overcast,3100.0,,OVC,3200.0,,,,,,
KRDR,10-07-2009,20:00,METAR,,290,18.0,29.0,280/29KTS,9999.0,,10.0,3.0,29.61,1004.0,,,,,,,,,,,,,,,8/8 Overcast,3100.0,,OVC,3200.0,,,,,,
KRDR,10-07-2009,19:28,SPECI,,290,13.0,21.0,280/26KTS,9999.0,,10.0,3.0,29.61,1003.8,,,,,,,,,,,,,,,8/8 Overcast,3100.0,,OVC,3100.0,,,,,,
KRDR,10-07-2009,19:00,METAR,,280,17.0,22.0,270/29KTS,9999.0,,10.0,3.0,29.60,1003.7,,,,,,,,,,,,,,,8/8 Overcast,2900.0,,OVC,2900.0,,,,,,
KRDR,10-07-2009,18:00,METAR,,270,21.0,29.0,290/29KTS,9999.0,,11.0,5.0,29.58,1003.1,,,,,,,,,,,.01 IN,,.01 IN,,7/8 Mostly Cloudy,2600.0,,BKN,2600.0,BKN,4000.0,,,,
KRDR,10-07-2009,17:24,SPECI,,280,18.0,25.0,,9999.0,,10.0,6.0,29.57,1002.8,,,,,,,,,,,,,,,7/8 Mostly Cloudy,2000.0,,BKN,2100.0,BKN,4300.0,,,,
KRDR,10-07-2009,17:00,METAR,,280,14.0,21.0,,9999.0,,10.0,7.0,29.57,1002.7,,,,,,,,,,,TRACE,,,,8/8 Overcast,1500.0,,OVC,1900.0,,,,,,
KRDR,10-07-2009,16:49,SPECI,,290,16.0,21.0,,9999.0,,10.0,7.0,29.57,1002.6,,,,,,,,,,,,,,,8/8 Overcast,1400.0,,OVC,1900.0,,,,,,
KRDR,10-07-2009,16:28,SPECI,,250,10.0,,,9999.0,Drizzle,10.0,8.0,29.56,1002.4,,,,51,,,,,,,,,,,7/8 Mostly Cloudy,1800.0,,BKN,1800.0,,,,,,
KRDR,10-07-2009,16:25,SPECI,,240,8.0,,,9999.0,,9.0,8.0,29.56,1002.3,,,,,,,,,,,,,,,7/8 Mostly Cloudy,1800.0,,BKN,1800.0,,,,,,
KRDR,10-07-2009,16:23,SPECI,,240,8.0,,,9999.0,Drizzle,9.0,8.0,29.56,1002.3,,,,51,,,,,,,,,,,7/8 Mostly Cloudy,1900.0,,BKN,1900.0,,,,,,
KRDR,10-07-2009,16:00,METAR,,230,9.0,,,9999.0,,9.0,7.0,29.55,1002.0,,,,,,,,,,,TRACE,,,,Clear,72000.0,,,73000.0,,,,,,
KRDR,10-07-2009,15:05,SPECI,,220,11.0,,,9999.0,Fog or Ice Fog,7.0,4.0,29.54,1001.8,,,,40,,,,,,,,,,,7/8 Mostly Cloudy,7000.0,,BKN,6900.0,,,,,,
KRDR,10-07-2009,15:00,METAR,,220,10.0,,,9999.0,,7.0,4.0,29.54,1001.8,,,,,,,,,,,,,,,7/8 Mostly Cloudy,8000.0,,BKN,7900.0,,,,,,
KRDR,10-07-2009,14:00,METAR,,200,10.0,,,9999.0,,6.0,3.0,29.54,1001.7,,,,,,,,,,,,,,,4/8 Partly Cloudy,72000.0,,SCT,8900.0,,,,,,
KRDR,10-07-2009,13:00,METAR,,200,9.0,,,9999.0,,5.0,3.0,29.55,1002.1,,,,,,,,,,,,,,,4/8 Partly Cloudy,72000.0,,SCT,8900.0,,,,,,
KRDR,10-07-2009,12:00,METAR,,200,11.0,,,9999.0,,5.0,3.0,29.57,1002.6,,,,,,,,,,,,,,.05 IN,8/8 Overcast,9000.0,,OVC,8900.0,,,,,,
KRDR,10-07-2009,11:00,METAR,,190,11.0,,,9999.0,,5.0,2.0,29.58,1002.9,,,,,,,,,,,,,,,7/8 Mostly Cloudy,9000.0,,BKN,8900.0,,,,,,
KRDR,10-07-2009,10:00,METAR,,190,10.0,,,9999.0,,5.0,3.0,29.60,1003.7,,,,,,,,,,,,,,,7/8 Mostly Cloudy,7500.0,,BKN,7400.0,,,,,,
KRDR,10-07-2009,09:00,METAR,,200,10.0,,,9999.0,,5.0,3.0,29.63,1004.7,,,,,,,,,,,,,,,7/8 Mostly Cloudy,6500.0,,BKN,6400.0,,,,,,
KRDR,10-07-2009,08:00,METAR,,200,6.0,,,9999.0,,5.0,3.0,29.65,1005.4,,,,,,,,,,,,,,,7/8 Mostly Cloudy,8000.0,,BKN,7900.0,,,,,,
KRDR,10-07-2009,07:00,METAR,,200,7.0,,,9999.0,,4.0,2.0,29.67,1005.9,,,,,,,,,,,,,,,8/8 Overcast,8000.0,,OVC,7900.0,,,,,,
KRDR,10-07-2009,06:00,METAR,,190,6.0,,,9999.0,,2.0,1.0,29.68,1006.3,,,,,,,,,,,,,,,2/8 Mostly Clear,72000.0,,FEW,11000.0,,,,,,
KRDR,10-07-2009,05:00,METAR,,200,5.0,,,9999.0,,2.0,0.0,29.70,1007.0,,,,,,,,,,,,,,,Clear,72000.0,,,73000.0,,,,,,
KRDR,10-07-2009,04:00,METAR,,210,5.0,,,9999.0,,2.0,0.0,29.71,1007.3,,,,,,,,,,,,,,,Clear,72000.0,,,73000.0,,,,,,
KRDR,10-07-2009,03:00,METAR,,240,8.0,,,9999.0,,3.0,1.0,29.72,1007.7,,,,,,,,,,,,,,,Clear,72000.0,,,73000.0,,,,,,
KRDR,10-07-2009,02:00,METAR,,230,6.0,,,9999.0,,3.0,1.0,29.72,1007.5,,,,,,,,,,,,,,,Clear,72000.0,,,73000.0,,,,,,
KRDR,10-07-2009,01:00,METAR,,250,6.0,,,9999.0,,4.0,2.0,29.72,1007.7,,,,,,,,,,,,,,,7/8 Mostly Cloudy,4400.0,,FEW,2500.0,BKN,4500.0,,,,
KRDR,10-07-2009,00:00,METAR,,290,6.0,,,9999.0,,6.0,3.0,29.73,1008.1,,,,,,,,,,,,,.01 IN,,7/8 Mostly Cloudy,4400.0,,SCT,2600.0,BKN,4500.0,,,,
KRDR,10-06-2009,23:00,METAR,,,0.0,,,9999.0,,7.0,5.0,29.73,1008.0,,,,,,,,,,,.01 IN,,,,7/8 Mostly Cloudy,2900.0,,BKN,2900.0,BKN,4000.0,,,,
KRDR,10-06-2009,22:08,SPECI,,340,4.0,,,9999.0,,7.0,4.0,29.73,,,,,,,,,,,,,,,,8/8 Overcast,2900.0,,BKN,2900.0,OVC,3500.0,,,,
KRDR,10-06-2009,22:00,METAR,,320,5.0,,,9999.0,Rain,7.0,4.0,29.73,1008.0,,,,61,,,,,,,TRACE,,,,7/8 Mostly Cloudy,2600.0,,BKN,2600.0,BKN,3400.0,,,,
KRDR,10-06-2009,21:28,SPECI,,330,10.0,,,9999.0,Light Rain Showers,9.0,3.0,29.73,,,,,80,,,,,,,,,,,8/8 Overcast,2600.0,,SCT,2000.0,BKN,2600.0,OVC,3800.0,,
KRDR,10-06-2009,21:00,METAR,,350,6.0,,,9999.0,,9.0,3.0,29.73,1008.1,,,,,,,,,,,,,,,8/8 Overcast,2800.0,,BKN,2800.0,OVC,4600.0,,,,
KRDR,10-06-2009,20:00,METAR,,340,8.0,,,9999.0,,8.0,3.0,29.74,1008.4,,,,,,,,,,,,,,,8/8 Overcast,2000.0,,BKN,2000.0,OVC,2900.0,,,,
KRDR,10-06-2009,19:00,METAR,,360,10.0,,,9999.0,,7.0,3.0,29.76,1009.0,,,,,,,,,,,,,,,8/8 Overcast,2200.0,,OVC,2200.0,,,,,,
KRDR,10-06-2009,18:00,METAR,,360,12.0,,,9999.0,,7.0,3.0,29.79,1009.7,,,,,,,,,,,,,.04 IN,,8/8 Overcast,2300.0,,OVC,2300.0,,,,,,
KRDR,10-06-2009,17:09,SPECI,,350,11.0,,,9999.0,,7.0,3.0,29.80,1010.1,,,,,,,,,,,,,,,8/8 Overcast,2900.0,,BKN,2900.0,OVC,5000.0,,,,
KRDR,10-06-2009,17:00,METAR,,360,9.0,,,9999.0,,6.0,3.0,29.80,1010.3,,,,,,,,,,,,,,,7/8 Mostly Cloudy,4900.0,,SCT,2500.0,BKN,5000.0,,,,
KRDR,10-06-2009,16:00,METAR,,360,9.0,,,9999.0,,6.0,4.0,29.82,1010.8,,,,,,,,,,,,,,,7/8 Mostly Cloudy,2000.0,,SCT,1500.0,BKN,2000.0,,,,
KRDR,10-06-2009,15:39,SPECI,,360,10.0,,,9999.0,,5.0,4.0,29.82,1010.9,,,,,,,,,,,,,,,8/8 Overcast,2300.0,,FEW,900.0,SCT,1500.0,BKN,2300.0,OVC,5000.0
KRDR,10-06-2009,15:00,METAR,,360,9.0,,,9999.0,,5.0,5.0,29.82,1011.0,,,,,,,,,,,TRACE,.04 IN,,,8/8 Overcast,900.0,,BKN,900.0,OVC,1300.0,,,,
KRDR,10-06-2009,14:35,SPECI,,360,9.0,,,9999.0,,5.0,5.0,29.83,1011.2,,,,,,,,,,,,,,,8/8 Overcast,900.0,,BKN,900.0,OVC,1200.0,,,,
KRDR,10-06-2009,14:00,METAR,,350,6.0,,,9999.0,Drizzle,5.0,5.0,29.84,1011.5,,,,51,,,,,,,.01 IN,,,,8/8 Overcast,900.0,,BKN,900.0,OVC,1500.0,,,,
KRDR,10-06-2009,13:00,METAR,,360,7.0,,,9999.0,Rain,5.0,4.0,29.85,1011.9,,,,61,,,,,,,.03 IN,,,,8/8 Overcast,1200.0,,SCT,800.0,OVC,1200.0,,,,
KRDR,10-06-2009,12:00,METAR,,360,7.0,,,9999.0,Rain,5.0,4.0,29.87,1012.5,,,,61,,,,,,,,,,,8/8 Overcast,800.0,,BKN,800.0,OVC,1000.0,,,,
KRDR,10-06-2009,11:55,METAR,,360,7.0,,,9999.0,Rain,5.0,4.0,29.87,1012.6,,,,61,,,,,,,TRACE,,TRACE,,8/8 Overcast,800.0,,BKN,800.0,OVC,1500.0,,,,
KRDR,10-06-2009,11:12,SPECI,,360,8.0,,,9999.0,Rain,5.0,4.0,29.85,,,,,61,,,,,,,,,,,8/8 Overcast,700.0,,BKN,700.0,OVC,1000.0,,,,
KRDR,10-06-2009,11:00,METAR,,10,10.0,,,9999.0,,5.0,4.0,29.85,1012.0,,,,,,,,,,,,,,,8/8 Overcast,600.0,,OVC,600.0,,,,,,
KRDR,10-06-2009,10:10,SPECI,,10,9.0,,,9999.0,,5.0,4.0,29.86,1012.2,,,,,,,,,,,,,,,8/8 Overcast,600.0,,OVC,600.0,,,,,,
KRDR,10-06-2009,10:00,METAR,,360,10.0,,,9999.0,,5.0,4.0,29.87,1012.4,,,,,,,,,,,,,,,8/8 Overcast,800.0,,OVC,800.0,,,,,,
KRDR,10-06-2009,09:36,SPECI,,10,8.0,,,9999.0,,5.0,4.0,29.87,1012.5,,,,,,,,,,,,,,,7/8 Mostly Cloudy,900.0,,BKN,900.0,,,,,,
KRDR,10-06-2009,09:27,SPECI,,10,8.0,,,9999.0,,4.0,4.0,29.87,1012.7,,,,,,,,,,,,,,,2/8 Mostly Clear,72000.0,,FEW,1100.0,,,,,,
KRDR,10-06-2009,09:00,METAR,,10,7.0,,,9999.0,,4.0,3.0,29.89,1013.3,,,,,,,,,,,,,,,Clear,72000.0,,,73000.0,,,,,,
KRDR,10-06-2009,08:00,METAR,,360,6.0,,,9999.0,,5.0,4.0,29.93,1014.7,,,,,,,,,,,,,,,Clear,72000.0,,,73000.0,,,,,,
KRDR,10-06-2009,07:00,METAR,,350,5.0,,,9999.0,,5.0,4.0,29.95,1015.3,,,,,,,,,,,,,,,Clear,72000.0,,,73000.0,,,,,,
KRDR,10-06-2009,06:00,METAR,,350,6.0,,,9999.0,,5.0,3.0,29.98,1016.1,,,,,,,,,,,,,,,8/8 Overcast,3800.0,,OVC,3900.0,,,,,,
KRDR,10-06-2009,05:00,METAR,,30,7.0,,,9999.0,,5.0,4.0,29.96,1015.4,,,,,,,,,,,,,,,8/8 Overcast,3600.0,,OVC,3700.0,,,,,,
KRDR,10-06-2009,04:00,METAR,,360,4.0,,,9999.0,,6.0,3.0,30.00,1016.8,,,,,,,,,,,,,,,8/8 Overcast,3100.0,,OVC,3200.0,,,,,,
KRDR,10-06-2009,03:00,METAR,,360,5.0,,,9999.0,,6.0,3.0,30.00,1016.9,,,,,,,,,,,,,,,8/8 Overcast,3300.0,,OVC,3400.0,,,,,,
KRDR,10-06-2009,02:00,METAR,,40,10.0,,,9999.0,,6.0,4.0,29.96,1015.4,,,,,,,,,,,,,,,8/8 Overcast,3000.0,,OVC,3000.0,,,,,,
KRDR,10-06-2009,01:00,METAR,,330,4.0,,,9999.0,,7.0,4.0,30.03,1017.9,,,,,,,,,,,,,,,8/8 Overcast,2900.0,,OVC,2900.0,,,,,,
KRDR,10-06-2009,00:00,METAR,,360,4.0,,,9999.0,,7.0,3.0,30.01,1017.3,,,,,,,,,,,,,,,8/8 Overcast,2900.0,,OVC,2900.0,,,,,,
KRDR,10-05-2009,23:00,METAR,,40,6.0,,,9999.0,,8.0,2.0,30.01,1017.1,,,,,,,,,,,,,,,8/8 Overcast,2700.0,,OVC,2700.0,,,,,,
KRDR,10-05-2009,22:00,METAR,,30,11.0,,,9999.0,,8.0,2.0,30.00,1016.7,,,,,,,,,,,,,,,8/8 Overcast,2500.0,,OVC,2500.0,,,,,,
KRDR,10-05-2009,21:00,METAR,,50,9.0,,,9999.0,,8.0,2.0,30.02,1017.4,,,,,,,,,,,,,,,8/8 Overcast,2400.0,,OVC,2400.0,,,,,,
KRDR,10-05-2009,20:00,METAR,,30,8.0,,,9999.0,,7.0,2.0,30.05,1018.3,,,,,,,,,,,,,,,8/8 Overcast,2400.0,,OVC,2400.0,,,,,,
KRDR,10-05-2009,19:00,METAR,,40,7.0,,,9999.0,,7.0,2.0,30.07,1019.1,,,,,,,,,,,,,,,8/8 Overcast,2200.0,,OVC,2200.0,,,,,,
KRDR,10-05-2009,18:00,METAR,,70,5.0,,,9999.0,,7.0,2.0,30.10,1020.0,,,,,,,,,,,,,,,8/8 Overcast,2000.0,,OVC,2000.0,,,,,,
KRDR,10-05-2009,17:00,METAR,,30,9.0,,,9999.0,,7.0,2.0,30.10,1020.1,,,,,,,,,,,,,,,8/8 Overcast,2200.0,,OVC,2200.0,,,,,,
KRDR,10-05-2009,16:00,METAR,,20,10.0,,,9999.0,,7.0,3.0,30.11,1020.5,,,,,,,,,,,,,,,8/8 Overcast,2100.0,,BKN,2100.0,OVC,12000.0,,,,
KRDR,10-05-2009,15:00,METAR,,30,8.0,,,9999.0,,6.0,2.0,30.13,1021.0,,,,,,,,,,,,,,,8/8 Overcast,2300.0,,BKN,2300.0,OVC,3000.0,,,,
KRDR,10-05-2009,14:00,METAR,,30,8.0,,,9999.0,,5.0,2.0,30.12,1020.8,,,,,,,,,,,,,,,8/8 Overcast,2200.0,,OVC,2200.0,,,,,,
KRDR,10-05-2009,13:00,METAR,,10,4.0,,,9999.0,,5.0,3.0,30.14,1021.3,,,,,,,,,,,,,,,8/8 Overcast,2400.0,,OVC,2400.0,,,,,,
KRDR,10-05-2009,12:00,METAR,,20,6.0,,,9999.0,,5.0,3.0,30.12,1020.7,,,,,,,,,,,,,,,8/8 Overcast,2200.0,,OVC,2200.0,,,,,,
KRDR,10-05-2009,11:00,METAR,,10,6.0,,,9999.0,,4.0,2.0,30.11,1020.3,,,,,,,,,,,,,,,7/8 Mostly Cloudy,2200.0,,SCT,1400.0,BKN,2200.0,,,,
KRDR,10-05-2009,10:00,METAR,,10,5.0,,,9999.0,,6.0,4.0,30.09,1019.9,,,,,,,,,,,,,,,8/8 Overcast,2600.0,,OVC,2600.0,,,,,,
KRDR,10-05-2009,09:00,METAR,,20,4.0,,,9999.0,,6.0,4.0,30.11,1020.5,,,,,,,,,,,,,,,8/8 Overcast,2800.0,,OVC,2800.0,,,,,,
KRDR,10-05-2009,08:00,METAR,,20,3.0,,,9999.0,,6.0,5.0,30.12,1020.9,,,,,,,,,,,,,,,8/8 Overcast,2900.0,,OVC,2900.0,,,,,,
KRDR,10-05-2009,07:47,SPECI,,20,4.0,,,9999.0,,6.0,5.0,30.12,1020.8,,,,,,,,,,,,,,,8/8 Overcast,2900.0,,OVC,2900.0,,,,,,
KRDR,10-05-2009,07:00,METAR,,10,4.0,,,9999.0,,7.0,5.0,30.12,1020.8,,,,,,,,,,,,,,,8/8 Overcast,3100.0,,OVC,3200.0,,,,,,
KRDR,10-05-2009,06:00,SPECI,,10,4.0,,,9999.0,,7.0,5.0,30.12,1020.9,,,,,,,,,,,,,,,8/8 Overcast,3000.0,,OVC,3000.0,,,,,,
KRDR,10-05-2009,06:00,METAR,,10,4.0,,,9999.0,,7.0,5.0,30.12,1020.9,,,,,,,,,,,,,,,8/8 Overcast,2800.0,,OVC,2800.0,,,,,,
KRDR,10-05-2009,05:28,SPECI,,360,4.0,,,9999.0,,7.0,5.0,30.12,1020.8,,,,,,,,,,,,,,,8/8 Overcast,2100.0,,OVC,2800.0,,,,,,
KRDR,10-05-2009,05:25,SPECI,,360,4.0,,,9999.0,,7.0,5.0,30.12,1020.8,,,,,,,,,,,,,,,8/8 Overcast,3200.0,,SCT,2200.0,OVC,3300.0,,,,
KRDR,10-05-2009,05:00,METAR,,360,7.0,,,9999.0,,7.0,5.0,30.11,1020.6,,,,,,,,,,,,,,,8/8 Overcast,1700.0,,OVC,2200.0,,,,,,
KRDR,10-05-2009,04:40,SPECI,,340,4.0,,,9999.0,,7.0,5.0,30.11,1020.6,,,,,,,,,,,,,,,8/8 Overcast,1600.0,,OVC,2900.0,,,,,,
KRDR,10-05-2009,04:08,SPECI,,320,4.0,,,9999.0,,7.0,5.0,30.11,1020.4,,,,,,,,,,,,,,,8/8 Overcast,3100.0,,OVC,3100.0,,,,,,
KRDR,10-05-2009,04:00,METAR,,340,5.0,,,9999.0,,7.0,5.0,30.11,1020.3,,,,,,,,,,,,,,,8/8 Overcast,2700.0,,OVC,2700.0,,,,,,
KRDR,10-05-2009,03:40,SPECI,,340,4.0,,,9999.0,,7.0,5.0,30.11,1020.3,,,,,,,,,,,,,,,8/8 Overcast,2900.0,,OVC,2900.0,,,,,,
KRDR,10-05-2009,03:00,METAR,,300,5.0,,,9999.0,,7.0,4.0,30.10,1020.0,,,,,,,,,,,,,,,8/8 Overcast,3200.0,,OVC,3300.0,,,,,,
KRDR,10-05-2009,02:00,METAR,,300,3.0,,,9999.0,,7.0,5.0,30.09,1019.8,,,,,,,,,,,,,,,8/8 Overcast,2900.0,,OVC,2900.0,,,,,,
KRDR,10-05-2009,01:53,SPECI,,300,3.0,,,9999.0,,7.0,5.0,30.09,1019.8,,,,,,,,,,,,,,,8/8 Overcast,3000.0,,OVC,3000.0,,,,,,
KRDR,10-05-2009,01:00,METAR,,310,3.0,,,9999.0,,7.0,5.0,30.10,1020.0,,,,,,,,,,,,,,,8/8 Overcast,2800.0,,OVC,2800.0,,,,,,
KRDR,10-05-2009,00:00,METAR,,10,6.0,,,9999.0,,7.0,5.0,30.09,1019.9,,,,,,,,,,,,,TRACE,,8/8 Overcast,2400.0,,FEW,1600.0,OVC,2400.0,,,,
KRDR,10-04-2009,23:00,METAR,,360,7.0,,,9999.0,,8.0,5.0,30.08,1019.6,,,,,,,,,,,,,,,8/8 Overcast,1600.0,,OVC,2000.0,,,,,,
KRDR,10-04-2009,22:22,SPECI,,360,12.0,16.0,,9999.0,,9.0,4.0,30.07,1019.3,,,,,,,,,,,,,,,7/8 Mostly Cloudy,2900.0,,BKN,2900.0,,,,,,
KRDR,10-04-2009,22:00,METAR,,10,10.0,,,9999.0,,8.0,5.0,30.08,1019.3,,,,,,,,,,,TRACE,,,,7/8 Mostly Cloudy,1500.0,,BKN,2500.0,,,,,,
KRDR,10-04-2009,21:22,SPECI,,10,10.0,,,9999.0,,9.0,6.0,30.07,1019.0,,,,,,,,,,,,,,,8/8 Overcast,2000.0,,OVC,2000.0,,,,,,
KRDR,10-04-2009,21:14,SPECI,,360,8.0,,,9999.0,Light Drizzle,9.0,6.0,30.07,1019.0,51,,,,,,,,,,,,,,8/8 Overcast,2000.0,,OVC,2000.0,,,,,,
KRDR,10-04-2009,21:03,SPECI,,350,6.0,,,9999.0,,8.0,7.0,30.07,1019.1,,,,,,,,,,,,,,,8/8 Overcast,1900.0,,OVC,1900.0,,,,,,
KRDR,10-04-2009,21:00,METAR,,350,9.0,,,9999.0,Light Rain,9.0,7.0,30.07,1019.1,61,,,,,,,,,,TRACE,TRACE,,,7/8 Mostly Cloudy,1700.0,,BKN,1700.0,,,,,,
KRDR,10-04-2009,20:48,SPECI,,350,10.0,,,9999.0,Light Drizzle,9.0,6.0,30.07,1019.1,51,,,,,,,,,,,,,,7/8 Mostly Cloudy,1700.0,,BKN,1700.0,,,,,,
KRDR,10-04-2009,20:31,SPECI,,360,10.0,,,9999.0,,9.0,6.0,30.06,1018.9,,,,,,,,,,,,,,,7/8 Mostly Cloudy,1800.0,,BKN,1800.0,,,,,,
KRDR,10-04-2009,20:22,SPECI,,350,9.0,,,9999.0,Unknown Precipitation,9.0,6.0,30.06,1018.9,40,,,,,,,,,,,,,,8/8 Overcast,1900.0,,OVC,1900.0,,,,,,
KRDR,10-04-2009,20:00,METAR,,360,8.0,,,9999.0,,10.0,5.0,30.06,1018.8,,,,,,,,,,,,,,,8/8 Overcast,2600.0,,FEW,1500.0,OVC,2600.0,,,,
KRDR,10-04-2009,19:28,SPECI,,350,11.0,,,9999.0,,10.0,5.0,30.05,1018.6,,,,,,,,,,,,,,,7/8 Mostly Cloudy,2800.0,,BKN,2800.0,,,,,,
KRDR,10-04-2009,19:21,SPECI,,360,10.0,,,9999.0,,10.0,5.0,30.05,1018.6,,,,,,,,,,,,,,,7/8 Mostly Cloudy,3000.0,,FEW,2000.0,BKN,3000.0,BKN,3600.0,,
KRDR,10-04-2009,19:09,SPECI,,340,12.0,,,9999.0,,10.0,6.0,30.06,1018.7,,,,,,,,,,,,,,,7/8 Mostly Cloudy,1900.0,,BKN,2500.0,,,,,,
KRDR,10-04-2009,19:00,METAR,,350,11.0,,,9999.0,,10.0,5.0,30.06,1018.7,,,,,,,,,,,,,,,4/8 Partly Cloudy,72000.0,,SCT,2200.0,,,,,,
KRDR,10-04-2009,18:18,SPECI,,350,8.0,,,9999.0,,10.0,6.0,30.06,1019.0,,,,,,,,,,,,,,,4/8 Partly Cloudy,72000.0,,SCT,2500.0,,,,,,
KRDR,10-04-2009,18:00,METAR,,340,8.0,,,9999.0,,9.0,6.0,30.06,1018.9,,,,,,,,,,,,,TRACE,,8/8 Overcast,1300.0,,OVC,1900.0,,,,,,
KRDR,10-04-2009,17:00,METAR,,350,8.0,,,9999.0,,9.0,7.0,30.07,1019.0,,,,,,,,,,,TRACE,,,,7/8 Mostly Cloudy,1900.0,,BKN,1900.0,,,,,,
KRDR,10-04-2009,16:46,SPECI,,350,9.0,,,9999.0,,9.0,7.0,30.07,1019.1,,,,,,,,,,,,,,,7/8 Mostly Cloudy,1900.0,,BKN,1900.0,,,,,,
KRDR,10-04-2009,16:38,SPECI,,350,10.0,,,9999.0,Light Rain,8.0,7.0,30.07,1019.1,61,,,,,,,,,,,,,,7/8 Mostly Cloudy,1500.0,,FEW,800.0,BKN,1500.0,,,,
KRDR,10-04-2009,16:36,SPECI,,350,10.0,,,9999.0,Light Rain,8.0,7.0,30.07,1019.1,61,,,,,,,,,,,,,,7/8 Mostly Cloudy,1300.0,,FEW,800.0,BKN,1300.0,,,,
KRDR,10-04-2009,16:26,SPECI,,350,8.0,,,9999.0,Light Rain,9.0,7.0,30.07,1019.1,61,,,,,,,,,,,,,,7/8 Mostly Cloudy,1200.0,,BKN,1200.0,,,,,,
KRDR,10-04-2009,16:24,SPECI,,350,8.0,,,9999.0,Light Rain,9.0,7.0,30.07,1019.1,61,,,,,,,,,,,,,,7/8 Mostly Cloudy,1500.0,,SCT,1000.0,BKN,1500.0,,,,
KRDR,10-04-2009,16:21,SPECI,,350,8.0,,,9999.0,Light Rain,9.0,7.0,30.07,1019.1,61,,,,,,,,,,,,,,8/8 Overcast,1200.0,,OVC,1200.0,,,,,,
KRDR,10-04-2009,16:15,SPECI,,350,8.0,,,9999.0,Light Rain,8.0,7.0,30.07,1019.1,61,,,,,,,,,,,,,,8/8 Overcast,1100.0,,OVC,1100.0,,,,,,
KRDR,10-04-2009,16:07,SPECI,,350,9.0,,,9999.0,,8.0,7.0,30.07,1019.1,,,,,,,,,,,,,,,7/8 Mostly Cloudy,1400.0,,SCT,900.0,BKN,1400.0,,,,
KRDR,10-04-2009,16:00,METAR,,350,7.0,,,9999.0,,8.0,7.0,30.07,1019.2,,,,,,,,,,,,,,,7/8 Mostly Cloudy,1800.0,,FEW,900.0,BKN,1800.0,,,,
KRDR,10-04-2009,15:56,SPECI,,340,7.0,,,9999.0,,8.0,7.0,30.07,1019.2,,,,,,,,,,,,,,,8/8 Overcast,1400.0,,OVC,1400.0,,,,,,
KRDR,10-04-2009,15:49,SPECI,,350,7.0,,,9999.0,,8.0,7.0,30.07,1019.2,,,,,,,,,,,,,,,7/8 Mostly Cloudy,1900.0,,FEW,900.0,BKN,1900.0,,,,
KRDR,10-04-2009,15:40,SPECI,,360,7.0,,,9999.0,,8.0,7.0,30.07,1019.2,,,,,,,,,,,,,,,7/8 Mostly Cloudy,1600.0,,BKN,1600.0,,,,,,
KRDR,10-04-2009,15:24,SPECI,,360,7.0,,,9999.0,,8.0,7.0,30.07,1019.1,,,,,,,,,,,,,,,7/8 Mostly Cloudy,1400.0,,BKN,1400.0,,,,,,
KRDR,10-04-2009,15:19,SPECI,,10,7.0,,,9999.0,,8.0,7.0,30.07,1019.1,,,,,,,,,,,,,,,7/8 Mostly Cloudy,1500.0,,BKN,1500.0,,,,,,
KRDR,10-04-2009,15:13,SPECI,,360,9.0,,,9999.0,,8.0,7.0,30.07,1019.1,,,,,,,,,,,,,,,7/8 Mostly Cloudy,1300.0,,SCT,800.0,BKN,1300.0,,,,
KRDR,10-04-2009,15:08,SPECI,,360,9.0,,,9999.0,,8.0,7.0,30.07,1019.1,,,,,,,,,,,,,,,8/8 Overcast,1100.0,,OVC,1100.0,,,,,,
KRDR,10-04-2009,15:05,SPECI,,360,8.0,,,9999.0,,8.0,7.0,30.07,1019.0,,,,,,,,,,,,,,,8/8 Overcast,800.0,,BKN,800.0,OVC,1800.0,,,,
KRDR,10-04-2009,15:02,SPECI,,350,8.0,,,9999.0,,8.0,7.0,30.07,1019.0,,,,,,,,,,,,,,,8/8 Overcast,1800.0,,SCT,800.0,OVC,1800.0,,,,
KRDR,10-04-2009,15:00,METAR,,360,7.0,,,9999.0,,8.0,7.0,30.06,1018.9,,,,,,,,,,,TRACE,TRACE,,,7/8 Mostly Cloudy,1400.0,,BKN,1400.0,,,,,,
KRDR,10-04-2009,14:47,SPECI,,360,8.0,,,9999.0,,8.0,7.0,30.06,1018.9,,,,,,,,,,,,,,,7/8 Mostly Cloudy,1500.0,,BKN,1500.0,,,,,,
KRDR,10-04-2009,14:40,SPECI,,360,7.0,,,9999.0,Light Rain,8.0,7.0,30.06,1018.8,61,,,,,,,,,,,,,,7/8 Mostly Cloudy,1200.0,,BKN,1200.0,,,,,,
KRDR,10-04-2009,14:37,SPECI,,360,7.0,,,9999.0,Light Rain,8.0,7.0,30.06,1018.8,61,,,,,,,,,,,,,,7/8 Mostly Cloudy,1100.0,,BKN,1100.0,,,,,,
KRDR,10-04-2009,14:31,SPECI,,340,9.0,,,9999.0,Light Rain,8.0,8.0,30.06,1018.7,61,,,,,,,,,,,,,,7/8 Mostly Cloudy,900.0,,BKN,900.0,,,,,,
KRDR,10-04-2009,14:22,SPECI,,340,8.0,,,9999.0,Light Rain,8.0,7.0,30.06,1018.7,61,,,,,,,,,,,,,,8/8 Overcast,1100.0,,OVC,1100.0,,,,,,
KRDR,10-04-2009,14:17,SPECI,,340,7.0,,,9999.0,Light Drizzle,8.0,7.0,30.06,1018.7,51,,,,,,,,,,,,,,7/8 Mostly Cloudy,900.0,,BKN,900.0,,,,,,
KRDR,10-04-2009,14:01,SPECI,,330,6.0,,,9999.0,,8.0,7.0,30.06,1018.7,,,,,,,,,,,,,,,8/8 Overcast,1100.0,,OVC,1100.0,,,,,,
KRDR,10-04-2009,14:00,METAR,,320,7.0,,,9999.0,,8.0,7.0,30.06,1018.7,,,,,,,,,,,TRACE,,,,8/8 Overcast,1000.0,,OVC,1000.0,,,,,,
KRDR,10-04-2009,13:53,SPECI,,320,6.0,,,9999.0,,8.0,7.0,30.06,1018.7,,,,,,,,,,,,,,,8/8 Overcast,900.0,,OVC,900.0,,,,,,
KRDR,10-04-2009,13:41,SPECI,,320,6.0,,,9999.0,,8.0,7.0,30.05,1018.6,,,,,,,,,,,,,,,8/8 Overcast,1100.0,,OVC,1100.0,,,,,,
KRDR,10-04-2009,13:29,SPECI,,330,7.0,,,9999.0,Unknown Precipitation,8.0,6.0,30.05,1018.5,40,,,,,,,,,,,,,,8/8 Overcast,1300.0,,BKN,1300.0,OVC,3100.0,,,,
KRDR,10-04-2009,13:23,SPECI,,330,6.0,,,9999.0,,8.0,6.0,30.05,1018.5,,,,,,,,,,,,,,,7/8 Mostly Cloudy,1400.0,,BKN,1400.0,BKN,3300.0,,,,
KRDR,10-04-2009,13:00,METAR,,330,5.0,,,9999.0,,7.0,6.0,30.04,1018.2,,,,,,,,,,,,,,,8/8 Overcast,3100.0,,OVC,3100.0,,,,,,
KRDR,10-04-2009,12:00,METAR,,320,4.0,,,9999.0,,7.0,6.0,30.04,1018.2,,,,,,,,,,,,,,,8/8 Overcast,3400.0,,OVC,3500.0,,,,,,
KRDR,10-04-2009,11:20,SPECI,,310,5.0,,,9999.0,,8.0,6.0,30.04,1018.1,,,,,,,,,,,,,,,8/8 Overcast,3000.0,,OVC,3000.0,,,,,,
KRDR,10-04-2009,11:00,METAR,,320,5.0,,,9999.0,,8.0,6.0,30.04,1018.0,,,,,,,,,,,,,,,8/8 Overcast,2900.0,,OVC,2900.0,,,,,,
KRDR,10-04-2009,10:00,METAR,,310,7.0,,,9999.0,,8.0,6.0,30.03,1017.8,,,,,,,,,,,,,,,8/8 Overcast,2700.0,,OVC,2700.0,,,,,,
KRDR,10-04-2009,09:00,METAR,,330,6.0,,,9999.0,,8.0,6.0,30.03,1017.7,,,,,,,,,,,,,,,8/8 Overcast,2700.0,,OVC,2700.0,,,,,,
KRDR,10-04-2009,08:00,METAR,,320,5.0,,,9999.0,,8.0,6.0,30.03,1017.7,,,,,,,,,,,,,,,8/8 Overcast,2800.0,,OVC,2800.0,,,,,,
KRDR,10-04-2009,07:00,METAR,,340,6.0,,,9999.0,,8.0,6.0,30.01,1017.3,,,,,,,,,,,,,,,8/8 Overcast,2900.0,,OVC,2900.0,,,,,,
KRDR,10-04-2009,06:31,SPECI,,340,6.0,,,9999.0,,8.0,6.0,30.01,1017.2,,,,,,,,,,,,,,,8/8 Overcast,2900.0,,OVC,2900.0,,,,,,
KRDR,10-04-2009,06:00,METAR,,340,6.0,,,9999.0,,8.0,6.0,30.00,1016.9,,,,,,,,,,,,,,,8/8 Overcast,3000.0,,OVC,3000.0,,,,,,
KRDR,10-04-2009,05:17,SPECI,,320,5.0,,,9999.0,,7.0,6.0,30.00,1016.9,,,,,,,,,,,,,,,8/8 Overcast,3000.0,,OVC,3000.0,,,,,,
KRDR,10-04-2009,05:10,SPECI,,330,5.0,,,9999.0,,7.0,6.0,30.00,1016.9,,,,,,,,,,,,,,,8/8 Overcast,2900.0,,OVC,2900.0,,,,,,
KRDR,10-04-2009,05:00,METAR,,340,5.0,,,9999.0,,6.0,5.0,30.00,1016.7,,,,,,,,,,,,,,,7/8 Mostly Cloudy,3000.0,,BKN,3000.0,,,,,,
KRDR,10-04-2009,04:00,METAR,,340,6.0,,,9999.0,,7.0,6.0,29.99,1016.6,,,,,,,,,,,,,,,7/8 Mostly Cloudy,3500.0,,BKN,3600.0,,,,,,
KRDR,10-04-2009,03:00,METAR,,350,6.0,,,9999.0,,8.0,6.0,29.98,1016.2,,,,,,,,,,,,,,,8/8 Overcast,3600.0,,OVC,3700.0,,,,,,
KRDR,10-04-2009,02:00,METAR,,340,7.0,,,9999.0,,8.0,6.0,29.97,1015.7,,,,,,,,,,,,,,,8/8 Overcast,3000.0,,OVC,3000.0,,,,,,
KRDR,10-04-2009,01:00,METAR,,340,9.0,,,9999.0,,8.0,6.0,29.96,1015.4,,,,,,,,,,,,,,,8/8 Overcast,3100.0,,OVC,3200.0,,,,,,
KRDR,10-04-2009,00:00,METAR,,350,9.0,,,9999.0,,9.0,6.0,29.95,1015.2,,,,,,,,,,,,,TRACE,,8/8 Overcast,1800.0,,OVC,2700.0,,,,,,
KRDR,10-03-2009,23:54,SPECI,,360,7.0,,,9999.0,,9.0,6.0,29.95,1015.2,,,,,,,,,,,,,,,8/8 Overcast,3000.0,,OVC,3000.0,,,,,,
KRDR,10-03-2009,23:38,SPECI,,350,9.0,,,9999.0,,9.0,6.0,29.95,1015.1,,,,,,,,,,,,,,,8/8 Overcast,1500.0,,OVC,2900.0,,,,,,
KRDR,10-03-2009,23:03,SPECI,,340,9.0,,,9999.0,,9.0,5.0,29.94,1014.9,,,,,,,,,,,,,,,8/8 Overcast,3000.0,,OVC,3000.0,,,,,,
KRDR,10-03-2009,23:00,METAR,,340,9.0,,,9999.0,,9.0,5.0,29.94,1014.9,,,,,,,,,,,,,,,8/8 Overcast,2400.0,,FEW,1700.0,BKN,2400.0,OVC,3700.0,,
KRDR,10-03-2009,22:48,SPECI,,340,7.0,,,9999.0,,9.0,5.0,29.94,1014.9,,,,,,,,,,,,,,,8/8 Overcast,3600.0,,FEW,1700.0,SCT,2400.0,OVC,3700.0,,
KRDR,10-03-2009,22:40,SPECI,,340,9.0,,,9999.0,,9.0,5.0,29.94,1014.8,,,,,,,,,,,,,,,8/8 Overcast,2400.0,,FEW,1800.0,BKN,2400.0,OVC,3500.0,,
KRDR,10-03-2009,22:20,SPECI,,340,8.0,,,9999.0,,9.0,5.0,29.93,1014.7,,,,,,,,,,,,,,,7/8 Mostly Cloudy,3200.0,,FEW,2400.0,BKN,3300.0,,,,
KRDR,10-03-2009,22:00,METAR,,340,9.0,,,9999.0,,9.0,5.0,29.93,1014.6,,,,,,,,,,,TRACE,,,,8/8 Overcast,3400.0,,SCT,2500.0,OVC,3500.0,,,,
KRDR,10-03-2009,21:46,SPECI,,340,8.0,,,9999.0,,9.0,5.0,29.93,,,,,,,,,,,,,,,,8/8 Overcast,3400.0,,SCT,2500.0,OVC,3500.0,,,,
KRDR,10-03-2009,21:35,SPECI,,360,9.0,,,9999.0,Rain,9.0,5.0,29.93,,,,,61,,,,,,,,,,,8/8 Overcast,3400.0,,SCT,2600.0,OVC,3500.0,,,,
KRDR,10-03-2009,21:20,SPECI,,340,9.0,,,9999.0,,9.0,5.0,29.93,,,,,,,,,,,,,,,,8/8 Overcast,3400.0,,SCT,2700.0,OVC,3500.0,,,,
KRDR,10-03-2009,21:06,SPECI,,350,12.0,,,9999.0,Rain,9.0,4.0,29.92,,,,,61,,,,,,,,,,,8/8 Overcast,3400.0,,SCT,2700.0,OVC,3500.0,,,,
KRDR,10-03-2009,21:00,METAR,,350,11.0,,,9999.0,,9.0,4.0,29.92,1014.3,,,,,,,,,,,,,,,8/8 Overcast,3400.0,,SCT,2700.0,BKN,3500.0,OVC,4000.0,,
KRDR,10-03-2009,20:00,METAR,,340,10.0,,,9999.0,,9.0,4.0,29.92,1014.2,,,,,,,,,,,,,,,7/8 Mostly Cloudy,3200.0,,BKN,3300.0,,,,,,
KRDR,10-03-2009,19:46,SPECI,,340,8.0,,,9999.0,,9.0,4.0,29.92,1014.2,,,,,,,,,,,,,,,8/8 Overcast,3100.0,,OVC,3100.0,,,,,,
KRDR,10-03-2009,19:00,METAR,,340,10.0,,,9999.0,,9.0,5.0,29.92,1014.1,,,,,,,,,,,,,,,8/8 Overcast,2300.0,,OVC,2300.0,,,,,,
KRDR,10-03-2009,18:29,SPECI,,340,5.0,,,9999.0,,9.0,4.0,29.92,1014.1,,,,,,,,,,,,,,,7/8 Mostly Cloudy,1900.0,,BKN,2700.0,,,,,,
KRDR,10-03-2009,18:00,METAR,,360,8.0,,,9999.0,,9.0,5.0,29.92,1014.2,,,,,,,,,,,TRACE,,TRACE,,2/8 Mostly Clear,72000.0,,FEW,2200.0,,,,,,
KRDR,10-03-2009,17:44,SPECI,,360,6.0,,,9999.0,,8.0,6.0,29.92,1014.2,,,,,,,,,,,,,,,2/8 Mostly Clear,72000.0,,FEW,2000.0,,,,,,
KRDR,10-03-2009,17:35,SPECI,,350,7.0,,,9999.0,Light Rain,8.0,5.0,29.92,1014.2,61,,,,,,,,,,,,,,4/8 Partly Cloudy,72000.0,,SCT,2200.0,,,,,,
KRDR,10-03-2009,17:29,SPECI,,350,6.0,,,9999.0,Light Rain,8.0,5.0,29.92,1014.1,61,,,,,,,,,,,,,,7/8 Mostly Cloudy,2300.0,,BKN,2300.0,,,,,,
KRDR,10-03-2009,17:00,METAR,,350,8.0,,,9999.0,,8.0,5.0,29.92,1014.2,,,,,,,,,,,,,,,8/8 Overcast,2100.0,,OVC,2100.0,,,,,,
KRDR,10-03-2009,16:24,SPECI,,20,8.0,,,9999.0,,9.0,5.0,29.92,1014.2,,,,,,,,,,,,,,,7/8 Mostly Cloudy,1400.0,,BKN,2900.0,,,,,,
KRDR,10-03-2009,16:22,SPECI,,20,7.0,,,9999.0,,9.0,5.0,29.92,1014.2,,,,,,,,,,,,,,,7/8 Mostly Cloudy,3100.0,,BKN,3100.0,,,,,,
KRDR,10-03-2009,16:18,SPECI,,10,8.0,,,9999.0,,9.0,5.0,29.92,1014.2,,,,,,,,,,,,,,,7/8 Mostly Cloudy,1400.0,,BKN,2900.0,,,,,,
KRDR,10-03-2009,16:00,METAR,,10,7.0,,,9999.0,,8.0,5.0,29.92,1014.3,,,,,,,,,,,,,,,7/8 Mostly Cloudy,3200.0,,BKN,3300.0,,,,,,
KRDR,10-03-2009,15:00,METAR,,360,8.0,,,9999.0,,6.0,5.0,29.92,1014.2,,,,,,,,,,,,TRACE,,,2/8 Mostly Clear,72000.0,,FEW,8900.0,,,,,,
KRDR,10-03-2009,14:00,METAR,,350,6.0,,,9999.0,,6.0,5.0,29.91,1013.9,,,,,,,,,,,,,,,4/8 Partly Cloudy,72000.0,,FEW,2800.0,SCT,5000.0,,,,
KRDR,10-03-2009,13:00,METAR,,340,7.0,,,9999.0,,6.0,5.0,29.91,1014.0,,,,,,,,,,,TRACE,,,,2/8 Mostly Clear,72000.0,,FEW,3000.0,,,,,,
KRDR,10-03-2009,12:45,SPECI,,360,7.0,,,9999.0,,6.0,5.0,29.91,1014.0,,,,,,,,,,,,,,,4/8 Partly Cloudy,72000.0,,SCT,2800.0,,,,,,
KRDR,10-03-2009,12:42,SPECI,,350,7.0,,,9999.0,Unknown Precipitation,6.0,5.0,29.91,1014.0,40,,,,,,,,,,,,,,7/8 Mostly Cloudy,2800.0,,BKN,2800.0,,,,,,
KRDR,10-03-2009,12:32,SPECI,,360,6.0,,,9999.0,,6.0,5.0,29.91,1013.9,,,,,,,,,,,,,,,7/8 Mostly Cloudy,2900.0,,BKN,2900.0,,,,,,
KRDR,10-03-2009,12:18,SPECI,,350,7.0,,,9999.0,Light Rain,6.0,5.0,29.91,1013.8,61,,,,,,,,,,,,,,7/8 Mostly Cloudy,2900.0,,BKN,2900.0,,,,,,
KRDR,10-03-2009,12:10,SPECI,,350,6.0,,,9999.0,Unknown Precipitation,6.0,5.0,29.91,1013.8,40,,,,,,,,,,,,,,7/8 Mostly Cloudy,3100.0,,BKN,3200.0,,,,,,
KRDR,10-03-2009,12:00,METAR,,340,6.0,,,9999.0,,6.0,5.0,29.90,1013.6,,,,,,,,,,,,,TRACE,.01 IN,7/8 Mostly Cloudy,3600.0,,BKN,3700.0,,,,,,
KRDR,10-03-2009,11:14,SPECI,,360,7.0,,,9999.0,,6.0,5.0,29.90,1013.6,,,,,,,,,,,,,,,7/8 Mostly Cloudy,3400.0,,SCT,1200.0,BKN,3500.0,,,,
KRDR,10-03-2009,11:07,SPECI,,360,7.0,,,9999.0,,6.0,5.0,29.90,1013.5,,,,,,,,,,,,,,,7/8 Mostly Cloudy,1600.0,,BKN,1600.0,,,,,,
KRDR,10-03-2009,11:05,SPECI,,360,8.0,,,9999.0,,6.0,5.0,29.90,1013.5,,,,,,,,,,,,,,,7/8 Mostly Cloudy,1400.0,,BKN,1400.0,,,,,,
KRDR,10-03-2009,11:02,SPECI,,360,8.0,,,9999.0,,6.0,5.0,29.90,1013.5,,,,,,,,,,,,,,,7/8 Mostly Cloudy,1100.0,,BKN,1100.0,,,,,,
KRDR,10-03-2009,11:00,METAR,,10,7.0,,,9999.0,,6.0,5.0,29.90,1013.5,,,,,,,,,,,,,,,8/8 Overcast,1000.0,,OVC,1000.0,,,,,,
KRDR,10-03-2009,11:00,SPECI,,360,8.0,,,9999.0,,6.0,5.0,29.90,1013.5,,,,,,,,,,,,,,,7/8 Mostly Cloudy,1200.0,,BKN,1200.0,,,,,,
KRDR,10-03-2009,10:46,SPECI,,10,7.0,,,9999.0,,6.0,5.0,29.90,1013.5,,,,,,,,,,,,,,,8/8 Overcast,900.0,,OVC,900.0,,,,,,
KRDR,10-03-2009,10:30,SPECI,,10,9.0,,,9999.0,Light Drizzle,6.0,6.0,29.90,1013.6,51,,,,,,,,,,,,,,8/8 Overcast,1100.0,,OVC,1100.0,,,,,,
KRDR,10-03-2009,10:25,SPECI,,20,10.0,,,9999.0,Unknown Precipitation,6.0,5.0,29.90,1013.6,40,,,,,,,,,,,,,,8/8 Overcast,1300.0,,OVC,1300.0,,,,,,
KRDR,10-03-2009,10:21,SPECI,,10,9.0,,,9999.0,,6.0,5.0,29.90,1013.5,,,,,,,,,,,,,,,8/8 Overcast,1400.0,,OVC,1400.0,,,,,,
KRDR,10-03-2009,10:14,SPECI,,10,8.0,,,9999.0,Light Rain/Mist,6.0,5.0,29.90,1013.5,61,10,,,,,,,,,,,,,8/8 Overcast,1300.0,,FEW,500.0,OVC,1300.0,,,,
KRDR,10-03-2009,10:10,SPECI,,10,8.0,,,9999.0,Light Rain/Mist,6.0,6.0,29.90,1013.5,61,10,,,,,,,,,,,,,8/8 Overcast,1400.0,,OVC,1400.0,,,,,,
KRDR,10-03-2009,10:06,SPECI,,10,7.0,,,9999.0,Unknown Precipitation,6.0,5.0,29.90,1013.5,40,,,,,,,,,,,,,,7/8 Mostly Cloudy,1700.0,,BKN,1700.0,,,,,,
KRDR,10-03-2009,10:01,SPECI,,20,8.0,,,9999.0,,6.0,5.0,29.90,1013.6,,,,,,,,,,,,,,,7/8 Mostly Cloudy,1700.0,,BKN,1700.0,,,,,,
KRDR,10-03-2009,10:00,METAR,,10,7.0,,,9999.0,,6.0,5.0,29.90,1013.6,,,,,,,,,,,TRACE,,,,7/8 Mostly Cloudy,2100.0,,FEW,300.0,SCT,700.0,BKN,2100.0,,
KRDR,10-03-2009,09:43,SPECI,,20,7.0,,,9999.0,,6.0,5.0,29.90,1013.6,,,,,,,,,,,,,,,8/8 Overcast,900.0,,OVC,900.0,,,,,,
KRDR,10-03-2009,09:37,SPECI,,30,8.0,,,9999.0,,6.0,6.0,29.90,1013.6,,,,,,,,,,,,,,,8/8 Overcast,1000.0,,OVC,1000.0,,,,,,
KRDR,10-03-2009,09:33,SPECI,,20,8.0,,,9999.0,,6.0,6.0,29.90,1013.6,,,,,,,,,,,,,,,8/8 Overcast,700.0,,OVC,700.0,,,,,,
KRDR,10-03-2009,09:22,SPECI,,20,7.0,,,9999.0,,6.0,6.0,29.90,1013.5,,,,,,,,,,,,,,,8/8 Overcast,500.0,,OVC,500.0,,,,,,
KRDR,10-03-2009,09:15,SPECI,,20,8.0,,,9999.0,,6.0,6.0,29.90,1013.5,,,,,,,,,,,,,,,8/8 Overcast,600.0,,OVC,600.0,,,,,,
KRDR,10-03-2009,09:08,SPECI,,30,8.0,,,9999.0,,6.0,6.0,29.90,1013.4,,,,,,,,,,,,,,,7/8 Mostly Cloudy,900.0,,BKN,900.0,,,,,,
KRDR,10-03-2009,09:00,METAR,,10,7.0,,,9999.0,Light Drizzle,6.0,5.0,29.90,1013.5,51,,,,,,,,,,TRACE,TRACE,,,7/8 Mostly Cloudy,1000.0,,FEW,500.0,BKN,1000.0,BKN,2600.0,,
KRDR,10-03-2009,08:54,SPECI,,10,7.0,,,9999.0,,6.0,5.0,29.90,1013.5,,,,,,,,,,,,,,,7/8 Mostly Cloudy,1000.0,,FEW,500.0,BKN,1000.0,BKN,2600.0,,
KRDR,10-03-2009,08:49,SPECI,,10,7.0,,,9999.0,Unknown Precipitation,6.0,5.0,29.90,1013.4,40,,,,,,,,,,,,,,7/8 Mostly Cloudy,1100.0,,BKN,1100.0,BKN,2400.0,,,,
KRDR,10-03-2009,08:42,SPECI,,10,7.0,,,9999.0,Unknown Precipitation,6.0,5.0,29.90,1013.5,40,,,,,,,,,,,,,,7/8 Mostly Cloudy,2300.0,,SCT,1100.0,BKN,2300.0,,,,
KRDR,10-03-2009,08:36,SPECI,,10,7.0,,,9999.0,,6.0,5.0,29.90,1013.5,,,,,,,,,,,,,,,7/8 Mostly Cloudy,1100.0,,BKN,1100.0,BKN,2400.0,,,,
KRDR,10-03-2009,08:32,SPECI,,10,7.0,,,9999.0,,6.0,5.0,29.90,1013.5,,,,,,,,,,,,,,,7/8 Mostly Cloudy,2500.0,,SCT,1100.0,BKN,2500.0,,,,
KRDR,10-03-2009,08:16,SPECI,,20,7.0,,,9999.0,,6.0,6.0,29.90,1013.5,,,,,,,,,,,,,,,7/8 Mostly Cloudy,2700.0,,BKN,2700.0,,,,,,
KRDR,10-03-2009,08:00,METAR,,20,9.0,,,9999.0,,6.0,5.0,29.89,1013.3,,,,,,,,,,,,,,,2/8 Mostly Clear,72000.0,,FEW,800.0,,,,,,
KRDR,10-03-2009,07:43,SPECI,,20,8.0,,,9999.0,,6.0,5.0,29.90,1013.4,,,,,,,,,,,,,,,4/8 Partly Cloudy,72000.0,,FEW,900.0,SCT,3900.0,,,,
KRDR,10-03-2009,07:38,SPECI,,20,8.0,,,9999.0,,6.0,5.0,29.90,1013.5,,,,,,,,,,,,,,,4/8 Partly Cloudy,72000.0,,FEW,800.0,SCT,4100.0,,,,
KRDR,10-03-2009,07:30,SPECI,,10,8.0,,,9999.0,,6.0,5.0,29.90,1013.5,,,,,,,,,,,,,,,4/8 Partly Cloudy,72000.0,,SCT,1600.0,,,,,,
KRDR,10-03-2009,07:28,SPECI,,20,7.0,,,9999.0,,6.0,5.0,29.90,1013.5,,,,,,,,,,,,,,,7/8 Mostly Cloudy,1400.0,,BKN,1400.0,,,,,,
KRDR,10-03-2009,07:24,SPECI,,20,8.0,,,9999.0,,6.0,5.0,29.90,1013.5,,,,,,,,,,,,,,,7/8 Mostly Cloudy,4000.0,,FEW,500.0,SCT,900.0,BKN,4100.0,,
KRDR,10-03-2009,07:01,SPECI,,20,7.0,,,9999.0,,6.0,5.0,29.90,1013.5,,,,,,,,,,,,,,,8/8 Overcast,900.0,,OVC,900.0,,,,,,
KRDR,10-03-2009,07:00,METAR,,20,8.0,,,9999.0,,6.0,5.0,29.90,1013.5,,,,,,,,,,,TRACE,,,,7/8 Mostly Cloudy,900.0,,BKN,900.0,,,,,,
KRDR,10-03-2009,06:53,SPECI,,20,8.0,,,9999.0,,6.0,5.0,29.90,1013.5,,,,,,,,,,,,,,,7/8 Mostly Cloudy,1000.0,,BKN,1000.0,,,,,,
KRDR,10-03-2009,06:33,SPECI,,20,8.0,,,9999.0,,6.0,6.0,29.90,1013.4,,,,,,,,,,,,,,,8/8 Overcast,700.0,,OVC,700.0,,,,,,
KRDR,10-03-2009,06:28,SPECI,,20,7.0,,,9999.0,Light Rain,6.0,5.0,29.90,1013.5,61,,,,,,,,,,,,,,8/8 Overcast,700.0,,OVC,700.0,,,,,,
KRDR,10-03-2009,06:20,SPECI,,20,9.0,,,9999.0,Unknown Precipitation,6.0,5.0,29.90,1013.5,40,,,,,,,,,,,,,,8/8 Overcast,600.0,,OVC,600.0,,,,,,
KRDR,10-03-2009,06:00,METAR,,20,9.0,,,9999.0,,6.0,5.0,29.90,1013.4,,,,,,,,,,,,,TRACE,,8/8 Overcast,700.0,,OVC,700.0,,,,,,
KRDR,10-03-2009,06:00,SPECI,,20,8.0,,,9999.0,,6.0,5.0,29.90,1013.4,,,,,,,,,,,,,,,8/8 Overcast,600.0,,OVC,600.0,,,,,,
KRDR,10-03-2009,05:48,SPECI,,10,8.0,,,9999.0,,6.0,5.0,29.90,1013.4,,,,,,,,,,,,,,,8/8 Overcast,900.0,,OVC,900.0,,,,,,
KRDR,10-03-2009,05:46,SPECI,,360,8.0,,,9999.0,,6.0,5.0,29.90,1013.4,,,,,,,,,,,,,,,8/8 Overcast,1100.0,,OVC,1100.0,,,,,,
KRDR,10-03-2009,05:44,SPECI,,10,7.0,,,9999.0,,6.0,5.0,29.90,1013.4,,,,,,,,,,,,,,,8/8 Overcast,1400.0,,OVC,1400.0,,,,,,
KRDR,10-03-2009,05:32,SPECI,,10,6.0,,,9999.0,,6.0,5.0,29.90,1013.4,,,,,,,,,,,,,,,8/8 Overcast,2900.0,,OVC,2900.0,,,,,,
KRDR,10-03-2009,05:22,SPECI,,360,7.0,,,9999.0,,6.0,5.0,29.90,1013.4,,,,,,,,,,,,,,,8/8 Overcast,4900.0,,FEW,900.0,OVC,5000.0,,,,
KRDR,10-03-2009,05:00,METAR,,10,7.0,,,9999.0,,6.0,5.0,29.89,1013.3,,,,,,,,,,,,,,,8/8 Overcast,4900.0,,OVC,5000.0,,,,,,
KRDR,10-03-2009,04:00,METAR,,10,7.0,,,9999.0,,6.0,5.0,29.89,1013.2,,,,,,,,,,,,,,,7/8 Mostly Cloudy,5500.0,,BKN,5400.0,,,,,,
KRDR,10-03-2009,03:00,METAR,,10,7.0,,,9999.0,,6.0,5.0,29.88,1013.0,,,,,,,,,,,,TRACE,,,8/8 Overcast,5500.0,,SCT,3000.0,OVC,5400.0,,,,
KRDR,10-03-2009,02:00,METAR,,360,7.0,,,9999.0,,7.0,5.0,29.87,1012.6,,,,,,,,,,,TRACE,,,,8/8 Overcast,4100.0,,SCT,3000.0,BKN,4200.0,OVC,5400.0,,
KRDR,10-03-2009,01:03,SPECI,,10,6.0,,,9999.0,,7.0,5.0,29.86,1012.4,,,,,,,,,,,,,,,Clear,72000.0,,,73000.0,,,,,,
KRDR,10-03-2009,01:00,METAR,,10,7.0,,,9999.0,,7.0,5.0,29.86,1012.2,,,,,,,,,,,TRACE,,,,7/8 Mostly Cloudy,5500.0,,FEW,3500.0,BKN,5400.0,,,,
KRDR,10-03-2009,00:44,SPECI,,10,9.0,,,9999.0,,7.0,5.0,29.86,1012.2,,,,,,,,,,,,,,,Clear,72000.0,,,73000.0,,,,,,
KRDR,10-03-2009,00:10,SPECI,,20,10.0,,,9999.0,Rain,8.0,5.0,29.85,1012.0,,,,61,,,,,,,,,,,4/8 Partly Cloudy,72000.0,,SCT,5400.0,,,,,,
KRDR,10-03-2009,00:00,METAR,,30,12.0,,,9999.0,,8.0,4.0,29.85,1011.8,,,,,,,,,,,,,TRACE,,8/8 Overcast,4500.0,,SCT,3000.0,BKN,4600.0,OVC,5400.0,,
KRDR,10-02-2009,23:00,METAR,,20,17.0,,,9999.0,,9.0,3.0,29.83,1011.1,,,,,,,,,,,TRACE,,,,7/8 Mostly Cloudy,3900.0,,SCT,3000.0,BKN,4000.0,BKN,4900.0,,
KRDR,10-02-2009,22:36,SPECI,,20,11.0,,,9999.0,,9.0,2.0,29.82,,,,,,,,,,,,,,,,7/8 Mostly Cloudy,3900.0,,SCT,3000.0,BKN,4000.0,BKN,4800.0,,
KRDR,10-02-2009,22:26,SPECI,,20,11.0,,,9999.0,Rain,9.0,3.0,29.81,,,,,61,,,,,,,,,,,7/8 Mostly Cloudy,3300.0,,BKN,3400.0,,,,,,
KRDR,10-02-2009,22:00,METAR,,20,15.0,19.0,,9999.0,,10.0,3.0,29.80,1010.1,,,,,,,,,,,,,,,7/8 Mostly Cloudy,4800.0,,BKN,4900.0,,,,,,
KRDR,10-02-2009,21:00,METAR,,30,17.0,,,9999.0,,11.0,3.0,29.77,1009.2,,,,,,,,,,,,,,,7/8 Mostly Cloudy,4500.0,,BKN,4600.0,,,,,,
KRDR,10-02-2009,20:00,METAR,,40,13.0,,,9999.0,,11.0,1.0,29.76,1008.8,,,,,,,,,,,,,,,7/8 Mostly Cloudy,4300.0,,BKN,4400.0,,,,,,
KRDR,10-02-2009,19:00,METAR,,50,12.0,,,9999.0,,11.0,3.0,29.75,1008.5,,,,,,,,,,,,,,,8/8 Overcast,3400.0,,OVC,3500.0,,,,,,
KRDR,10-02-2009,18:00,METAR,,40,16.0,,,9999.0,,10.0,4.0,29.74,1008.2,,,,,,,,,,,,,.01 IN,,8/8 Overcast,3100.0,,OVC,3100.0,,,,,,
KRDR,10-02-2009,17:00,METAR,,60,11.0,,,9999.0,,8.0,4.0,29.72,1007.5,,,,,,,,,,,,,,,7/8 Mostly Cloudy,3600.0,,BKN,3700.0,,,,,,
KRDR,10-02-2009,15:18,SPECI,,30,12.0,,,9999.0,,5.0,4.0,29.71,1007.3,,,,,,,,,,,,,,,8/8 Overcast,8000.0,,FEW,1300.0,SCT,3700.0,OVC,7900.0,,
KRDR,10-02-2009,15:00,METAR,,30,11.0,,,9999.0,,5.0,4.0,29.71,1007.2,,,,,,,,,,,TRACE,.01 IN,,,7/8 Mostly Cloudy,1300.0,,BKN,1300.0,,,,,,
KRDR,10-02-2009,14:45,SPECI,,30,13.0,,,9999.0,Drizzle/Mist,5.0,4.0,29.71,1007.3,,,,51,10,,,,,,,,,,8/8 Overcast,1300.0,,FEW,600.0,BKN,1300.0,OVC,2600.0,,
KRDR,10-02-2009,14:22,SPECI,,30,13.0,,,4000.0,Drizzle/Mist,5.0,4.0,29.71,1007.2,,,,51,10,,,,,,,,,,8/8 Overcast,1300.0,,FEW,600.0,OVC,1300.0,,,,
KRDR,10-02-2009,14:09,SPECI,,30,12.0,,,8000.0,Mist,5.0,4.0,29.70,1007.0,,,,10,,,,,,,,,,,8/8 Overcast,1500.0,,FEW,600.0,OVC,1500.0,,,,
KRDR,10-02-2009,14:00,METAR,,30,11.0,,,9999.0,,4.0,4.0,29.70,1006.8,,,,,,,,,,,,,,,8/8 Overcast,1700.0,,OVC,1700.0,,,,,,
KRDR,10-02-2009,13:26,SPECI,,30,11.0,,,9999.0,Mist,4.0,4.0,29.69,1006.7,,,,10,,,,,,,,,,,8/8 Overcast,1600.0,,OVC,1600.0,,,,,,
KRDR,10-02-2009,13:00,METAR,,30,10.0,,,9999.0,,4.0,4.0,29.69,1006.5,,,,,,,,,,,.01 IN,,,,8/8 Overcast,1300.0,,OVC,1300.0,,,,,,
KRDR,10-02-2009,12:44,SPECI,,30,9.0,,,8000.0,Drizzle/Mist,4.0,4.0,29.68,1006.4,,,,51,10,,,,,,,,,,8/8 Overcast,1200.0,,OVC,1200.0,,,,,,
KRDR,10-02-2009,12:36,SPECI,,30,10.0,,,6400.0,Rain/Mist,4.0,4.0,29.68,1006.3,,,,61,10,,,,,,,,,,8/8 Overcast,1200.0,,OVC,1200.0,,,,,,
KRDR,10-02-2009,12:00,METAR,,40,10.0,,,4800.0,Rain/Mist,4.0,4.0,29.67,1005.9,,,,61,10,,,,,,.02 IN,,.28 IN,1.37 IN,8/8 Overcast,1100.0,,OVC,1100.0,,,,,,
KRDR,10-02-2009,11:39,SPECI,,50,11.0,,,6400.0,Rain/Mist,4.0,3.0,29.67,1005.9,,,,61,10,,,,,,,,,,8/8 Overcast,1400.0,,OVC,1400.0,,,,,,
KRDR,10-02-2009,11:00,METAR,,60,12.0,,,8000.0,Rain/Mist,4.0,4.0,29.65,1005.5,,,,61,10,,,,,,.04 IN,,,,8/8 Overcast,1800.0,,BKN,1800.0,OVC,3500.0,,,,
KRDR,10-02-2009,10:00,METAR,,50,12.0,17.0,,6400.0,Unknown Precipitation/Mist,5.0,4.0,29.63,1004.8,40,10,,,,,,,,,.04 IN,,,,7/8 Mostly Cloudy,1500.0,,BKN,1500.0,,,,,,
KRDR,10-02-2009,09:43,SPECI,,50,13.0,,,9999.0,Light Rain/Mist,5.0,4.0,29.63,1004.7,61,10,,,,,,,,,,,,,7/8 Mostly Cloudy,1500.0,,BKN,1500.0,,,,,,
KRDR,10-02-2009,09:00,METAR,,50,11.0,,,9999.0,,6.0,6.0,29.61,1004.1,,,,,,,,,,,.04 IN,.18 IN,,,Clear,72000.0,,,73000.0,,,,,,
KRDR,10-02-2009,08:09,SPECI,,50,10.0,,,9999.0,Light Rain,7.0,6.0,29.61,1004.0,61,,,,,,,,,,,,,,4/8 Partly Cloudy,72000.0,,SCT,1300.0,,,,,,
KRDR,10-02-2009,08:00,METAR,,50,9.0,,,9999.0,Light Rain,7.0,7.0,29.61,1004.0,61,,,,,,,,,,.05 IN,,,,8/8 Overcast,1200.0,,OVC,1200.0,,,,,,
KRDR,10-02-2009,07:33,SPECI,,50,7.0,,,9999.0,Light Rain/Mist,7.0,7.0,29.61,1004.1,61,10,,,,,,,,,,,,,7/8 Mostly Cloudy,1300.0,,BKN,1300.0,,,,,,
KRDR,10-02-2009,07:00,METAR,,50,10.0,,,8000.0,Light Rain/Mist,7.0,7.0,29.61,1004.0,61,10,,,,,,,,,.09 IN,,,,7/8 Mostly Cloudy,1200.0,,BKN,1200.0,,,,,,
KRDR,10-02-2009,06:54,SPECI,,50,8.0,,,9999.0,Light Rain/Mist,7.0,7.0,29.61,1004.1,61,10,,,,,,,,,,,,,4/8 Partly Cloudy,72000.0,,SCT,1200.0,,,,,,
KRDR,10-02-2009,06:38,SPECI,,70,9.0,,,9999.0,Light Rain,7.0,7.0,29.61,1004.0,61,,,,,,,,,,,,,,7/8 Mostly Cloudy,1200.0,,BKN,1200.0,,,,,,
KRDR,10-02-2009,06:21,SPECI,,60,11.0,,,9999.0,Light Rain,7.0,6.0,29.61,1004.0,61,,,,,,,,,,,,,,2/8 Mostly Clear,72000.0,,FEW,1100.0,,,,,,
KRDR,10-02-2009,06:00,METAR,,70,9.0,,,9999.0,Light Rain,7.0,6.0,29.61,1004.0,61,,,,,,,,,,.07 IN,,.37 IN,,4/8 Partly Cloudy,72000.0,,SCT,1300.0,,,,,,
KRDR,10-02-2009,05:46,SPECI,,70,10.0,,,9999.0,Light Rain,7.0,6.0,29.61,1004.1,61,,,,,,,,,,,,,,4/8 Partly Cloudy,72000.0,,SCT,1300.0,,,,,,
KRDR,10-02-2009,05:22,SPECI,,70,9.0,,,9999.0,Light Rain,7.0,6.0,29.61,1004.1,61,,,,,,,,,,,,,,7/8 Mostly Cloudy,1200.0,,BKN,1200.0,,,,,,
KRDR,10-02-2009,05:08,SPECI,,60,9.0,,,9999.0,Light Rain,7.0,6.0,29.61,1004.0,61,,,,,,,,,,,,,,2/8 Mostly Clear,72000.0,,FEW,1100.0,,,,,,
KRDR,10-02-2009,05:00,METAR,,70,8.0,,,9999.0,,7.0,6.0,29.61,1004.1,,,,,,,,,,,.04 IN,,,,Clear,72000.0,,,73000.0,,,,,,
KRDR,10-02-2009,04:00,METAR,,70,9.0,,,3200.0,Rain/Mist,7.0,7.0,29.62,1004.3,,,,61,10,,,,,,.02 IN,,,,7/8 Mostly Cloudy,2400.0,,SCT,800.0,BKN,2400.0,,,,
KRDR,10-02-2009,03:39,SPECI,,70,9.0,,,3200.0,Rain/Mist,7.0,6.0,29.63,1004.5,,,,61,10,,,,,,,,,,8/8 Overcast,2400.0,,SCT,800.0,OVC,2400.0,,,,
KRDR,10-02-2009,03:00,METAR,,90,12.0,20.0,,3200.0,Rain,7.0,7.0,29.63,1004.6,,,,61,,,,,,,.04 IN,.24 IN,,,7/8 Mostly Cloudy,1400.0,,SCT,800.0,BKN,1400.0,,,,
KRDR,10-02-2009,02:00,METAR,,100,13.0,20.0,,3200.0,Rain/Mist,8.0,7.0,29.62,1004.4,,,,61,10,,,,,,.08 IN,,,,8/8 Overcast,800.0,,BKN,800.0,OVC,1300.0,,,,
KRDR,10-02-2009,01:00,METAR,,90,12.0,,,2400.0,Rain/Mist,9.0,8.0,29.62,1004.2,,,,61,10,,,,,,.12 IN,,,,8/8 Overcast,800.0,,BKN,800.0,OVC,1000.0,,,,
KRDR,10-02-2009,00:00,METAR,,90,10.0,,,2400.0,Rain/Mist,9.0,8.0,29.62,1004.2,,,,61,10,,,,,,.05 IN,,.43 IN,,8/8 Overcast,900.0,,OVC,900.0,,,,,,
KRDR,10-01-2009,23:25,SPECI,,90,10.0,,,2400.0,Drizzle/Mist,9.0,8.0,29.62,,,,,51,10,,,,,,,,,,8/8 Overcast,500.0,,OVC,500.0,,,,,,
KRDR,10-01-2009,23:00,METAR,,90,9.0,,,2400.0,Rain/Mist,9.0,8.0,29.61,1004.0,,,,61,10,,,,,,.03 IN,,,,8/8 Overcast,700.0,,OVC,700.0,,,,,,
KRDR,10-01-2009,22:00,METAR,,100,10.0,,,1600.0,Drizzle/Mist,8.0,8.0,29.62,1004.2,,,,51,10,,,,,,.02 IN,,,,8/8 Overcast,700.0,,OVC,700.0,,,,,,
KRDR,10-01-2009,21:48,SPECI,,90,12.0,,,3200.0,Rain/Mist,8.0,8.0,29.62,1004.2,,,,61,10,,,,,,,,,,8/8 Overcast,700.0,,OVC,700.0,,,,,,
KRDR,10-01-2009,21:38,SPECI,,100,12.0,,,3200.0,Rain/Mist,8.0,8.0,29.62,1004.2,,,,61,10,,,,,,,,,,8/8 Overcast,600.0,,OVC,600.0,,,,,,
KRDR,10-01-2009,21:00,METAR,,90,11.0,16.0,,1600.0,Rain/Mist,9.0,8.0,29.62,1004.3,,,,61,10,,,,,,.02 IN,.33 IN,,,8/8 Overcast,600.0,,OVC,600.0,,,,,,
KRDR,10-01-2009,20:00,METAR,,100,11.0,,,2400.0,Rain/Mist,9.0,8.0,29.62,1004.4,,,,61,10,,,,,,.16 IN,,,,8/8 Overcast,800.0,,OVC,800.0,,,,,,
KRDR,10-01-2009,19:00,METAR,,100,8.0,,,2400.0,Rain/Mist,9.0,9.0,29.64,1004.9,,,,63,10,,,,,,.15 IN,,,,8/8 Overcast,800.0,,OVC,800.0,,,,,,
KRDR,10-01-2009,18:21,SPECI,,110,9.0,,,2400.0,Rain/Mist,9.0,9.0,29.64,1005.1,,,,63,10,,,,,,,,,,8/8 Overcast,700.0,,OVC,700.0,,,,,,
KRDR,10-01-2009,18:00,SPECI,,120,11.0,,,3200.0,Rain/Mist,9.0,9.0,29.65,1005.4,,,,61,10,,,,,,,,,,8/8 Overcast,600.0,,OVC,600.0,,,,,,
KRDR,10-01-2009,17:55,METAR,,120,8.0,,,2400.0,Rain/Mist,9.0,9.0,29.66,1005.5,,,,61,10,,,,,,.09 IN,,.29 IN,,8/8 Overcast,600.0,,OVC,600.0,,,,,,
KRDR,10-01-2009,17:49,SPECI,,120,11.0,,,2800.0,Rain/Mist,9.0,9.0,29.66,1005.5,,,,61,10,,,,,,,,,,8/8 Overcast,600.0,,OVC,600.0,,,,,,
KRDR,10-01-2009,17:13,SPECI,,110,10.0,,,1200.0,Rain/Mist,9.0,8.0,29.66,1005.5,,,,61,10,,,,,,,,,,8/8 Overcast,500.0,,OVC,500.0,,,,,,
KRDR,10-01-2009,17:07,SPECI,,120,11.0,,,3200.0,Rain/Mist,9.0,8.0,29.66,1005.6,,,,61,10,,,,,,,,,,8/8 Overcast,600.0,,OVC,600.0,,,,,,
KRDR,10-01-2009,17:00,METAR,,110,12.0,,,3200.0,Rain/Mist,9.0,8.0,29.66,1005.6,,,,61,10,,,,,,TRACE,,,,8/8 Overcast,500.0,,OVC,500.0,,,,,,
KRDR,10-01-2009,16:01,SPECI,,120,11.0,18.0,,6400.0,Mist,8.0,8.0,29.66,1005.7,,,,,10,,,,,,,,,,8/8 Overcast,500.0,,OVC,500.0,,,,,,
KRDR,10-01-2009,16:00,METAR,,120,13.0,,,8000.0,Drizzle/Mist,8.0,8.0,29.66,1005.8,,,,51,10,,,,,,.01 IN,,,,8/8 Overcast,600.0,,OVC,600.0,,,,,,
KRDR,10-01-2009,15:41,SPECI,,120,12.0,,,9999.0,Drizzle,8.0,8.0,29.67,1005.8,,,,51,,,,,,,,,,,8/8 Overcast,600.0,,OVC,600.0,,,,,,
KRDR,10-01-2009,15:30,SPECI,,120,11.0,,,9999.0,Mist,8.0,8.0,29.67,1005.9,,,,10,,,,,,,,,,,8/8 Overcast,700.0,,OVC,700.0,,,,,,
KRDR,10-01-2009,15:18,SPECI,,120,15.0,20.0,,9999.0,,8.0,8.0,29.67,1005.9,,,,,,,,,,,,,,,8/8 Overcast,600.0,,OVC,600.0,,,,,,
KRDR,10-01-2009,15:08,SPECI,,110,14.0,19.0,,8000.0,Rain/Mist,8.0,8.0,29.67,1006.1,,,,61,10,,,,,,,,,,8/8 Overcast,700.0,,OVC,700.0,,,,,,
KRDR,10-01-2009,15:00,METAR,,120,14.0,20.0,,6400.0,Rain/Mist,8.0,8.0,29.67,1006.1,,,,61,10,,,,,,.01 IN,.19 IN,,,8/8 Overcast,600.0,,OVC,600.0,,,,,,
KRDR,10-01-2009,14:38,SPECI,,120,15.0,19.0,,4800.0,Rain/Mist,8.0,8.0,29.68,1006.1,,,,61,10,,,,,,,,,,8/8 Overcast,600.0,,OVC,600.0,,,,,,
KRDR,10-01-2009,14:02,SPECI,,110,13.0,,,4800.0,Rain/Mist,8.0,8.0,29.68,1006.3,,,,61,10,,,,,,,,,,8/8 Overcast,800.0,,OVC,800.0,,,,,,
KRDR,10-01-2009,14:00,METAR,,120,12.0,,,4000.0,Rain/Mist,8.0,8.0,29.68,1006.2,,,,61,10,,,,,,.05 IN,,,,8/8 Overcast,800.0,,OVC,800.0,,,,,,
KRDR,10-01-2009,13:44,SPECI,,120,12.0,18.0,,4000.0,Rain/Mist,8.0,8.0,29.68,1006.4,,,,61,10,,,,,,,,,,8/8 Overcast,900.0,,OVC,900.0,,,,,,
KRDR,10-01-2009,13:37,SPECI,,120,13.0,18.0,,9999.0,Rain,8.0,8.0,29.68,1006.4,,,,61,,,,,,,,,,,8/8 Overcast,800.0,,OVC,800.0,,,,,,
KRDR,10-01-2009,13:33,SPECI,,110,9.0,,,9999.0,,8.0,8.0,29.69,1006.5,,,,,,,,,,,,,,,8/8 Overcast,900.0,,OVC,900.0,,,,,,
KRDR,10-01-2009,13:28,SPECI,,110,10.0,,,8000.0,Rain/Mist,8.0,8.0,29.69,1006.5,,,,61,10,,,,,,,,,,8/8 Overcast,900.0,,OVC,900.0,,,,,,
KRDR,10-01-2009,13:16,SPECI,,110,9.0,,,8000.0,Rain/Mist,8.0,8.0,29.69,1006.6,,,,61,10,,,,,,,,,,8/8 Overcast,1100.0,,FEW,700.0,OVC,1100.0,,,,
KRDR,10-01-2009,13:00,METAR,,120,12.0,,,4000.0,Rain/Mist,8.0,7.0,29.69,1006.3,,,,61,10,,,,,,.05 IN,,,,8/8 Overcast,900.0,,OVC,900.0,,,,,,
KRDR,10-01-2009,12:00,METAR,,120,12.0,,,8000.0,Rain/Mist,8.0,7.0,29.69,1006.6,,,,61,10,,,,,,.01 IN,,.06 IN,.06 IN,8/8 Overcast,1900.0,,OVC,1900.0,,,,,,
KRDR,10-01-2009,11:34,SPECI,,100,8.0,,,9999.0,Rain,9.0,6.0,29.69,1006.8,,,,61,,,,,,,,,,,8/8 Overcast,2000.0,,OVC,2000.0,,,,,,
KRDR,10-01-2009,11:00,METAR,,110,8.0,,,9999.0,,9.0,6.0,29.71,1007.3,,,,,,,,,,,,,,,8/8 Overcast,2500.0,,OVC,2500.0,,,,,,
KRDR,10-01-2009,10:41,SPECI,,120,8.0,,,9999.0,,9.0,6.0,29.72,1007.5,,,,,,,,,,,,,,,8/8 Overcast,2900.0,,OVC,2900.0,,,,,,
KRDR,10-01-2009,10:00,METAR,,110,10.0,,,9999.0,,8.0,6.0,29.71,1007.3,,,,,,,,,,,TRACE,,,,7/8 Mostly Cloudy,3800.0,,BKN,3900.0,,,,,,
KRDR,10-01-2009,09:10,SPECI,,100,7.0,,,9999.0,,8.0,6.0,29.72,1007.6,,,,,,,,,,,,,,,Clear,72000.0,,,73000.0,,,,,,
KRDR,10-01-2009,09:00,METAR,,110,8.0,,,9999.0,Light Rain,8.0,6.0,29.73,1008.1,61,,,,,,,,,,.04 IN,.05 IN,,,2/8 Mostly Clear,72000.0,,FEW,4400.0,,,,,,
KRDR,10-01-2009,08:31,SPECI,,110,8.0,,,9999.0,Light Rain,9.0,6.0,29.75,1008.5,61,,,,,,,,,,,,,,4/8 Partly Cloudy,72000.0,,SCT,4100.0,,,,,,
KRDR,10-01-2009,08:28,SPECI,,110,6.0,,,9999.0,,8.0,6.0,29.75,1008.6,,,,,,,,,,,,,,,2/8 Mostly Clear,72000.0,,FEW,4100.0,,,,,,
KRDR,10-01-2009,08:00,METAR,,140,11.0,18.0,,9999.0,Light Rain,10.0,4.0,29.76,1008.9,61,,,,,,,,,,.01 IN,,,,7/8 Mostly Cloudy,7500.0,,FEW,2100.0,BKN,7400.0,,,,
KRDR,10-01-2009,07:37,SPECI,,130,10.0,,,9999.0,Light Rain,11.0,2.0,29.76,1009.1,61,,,,,,,,,,,,,,8/8 Overcast,7500.0,,OVC,7400.0,,,,,,
KRDR,10-01-2009,07:00,METAR,,130,12.0,,,9999.0,,11.0,1.0,29.78,1009.7,,,,,,,,,,,,,,,7/8 Mostly Cloudy,8000.0,,BKN,7900.0,,,,,,
KRDR,10-01-2009,06:00,METAR,,120,13.0,,,9999.0,,12.0,1.0,29.80,1010.3,,,,,,,,,,,,,,,8/8 Overcast,8000.0,,OVC,7900.0,,,,,,
KRDR,10-01-2009,05:00,METAR,,120,11.0,,,9999.0,,11.0,1.0,29.83,1011.1,,,,,,,,,,,,,,,8/8 Overcast,7000.0,,OVC,6900.0,,,,,,
KRDR,10-01-2009,04:00,METAR,,120,11.0,,,9999.0,,11.0,2.0,29.84,1011.6,,,,,,,,,,,,,,,8/8 Overcast,7500.0,,OVC,7400.0,,,,,,
KRDR,10-01-2009,03:00,METAR,,140,13.0,,,9999.0,,12.0,1.0,29.86,1012.1,,,,,,,,,,,,,,,7/8 Mostly Cloudy,8000.0,,BKN,7900.0,,,,,,
KRDR,10-01-2009,02:00,METAR,,120,14.0,,,9999.0,,12.0,1.0,29.84,1011.4,,,,,,,,,,,,,,,Clear,72000.0,,,73000.0,,,,,,
KRDR,10-01-2009,01:00,METAR,,120,10.0,,,9999.0,,13.0,1.0,29.81,1010.5,,,,,,,,,,,,,,,Clear,72000.0,,,73000.0,,,,,,
KRDR,10-01-2009,00:00,METAR,,130,14.0,26.0,130/26KTS,9999.0,,15.0,1.0,29.80,1010.2,,,,,,,,,,,,,,,7/8 Mostly Cloudy,25000.0,,SCT,12000.0,BKN,25000.0,,,,
KRDR,09-30-2009,23:00,METAR,,130,16.0,25.0,140/26KTS,9999.0,,16.0,2.0,29.79,1010.0,,,,,,,,,,,,,,,7/8 Mostly Cloudy,25000.0,,FEW,12000.0,BKN,25000.0,,,,
KRDR,09-30-2009,22:00,METAR,,130,17.0,22.0,140/30KTS,9999.0,,16.0,3.0,29.81,1010.6,,,,,,,,,,,,,,,7/8 Mostly Cloudy,25000.0,,BKN,25000.0,,,,,,
KRDR,09-30-2009,21:00,METAR,,130,16.0,26.0,140/29KTS,9999.0,,17.0,3.0,29.81,1010.7,,,,,,,,,,,,,,,7/8 Mostly Cloudy,25000.0,,BKN,25000.0,,,,,,
KRDR,09-30-2009,20:00,METAR,,130,19.0,29.0,130/29KTS,9999.0,,17.0,4.0,29.84,1011.5,,,,,,,,,,,,,,,7/8 Mostly Cloudy,25000.0,,BKN,25000.0,,,,,,
KRDR,09-30-2009,19:00,METAR,,130,19.0,27.0,140/28KTS,9999.0,,16.0,4.0,29.87,1012.5,,,,,,,,,,,,,,,7/8 Mostly Cloudy,25000.0,,BKN,25000.0,,,,,,
KRDR,09-30-2009,18:00,METAR,,140,18.0,24.0,150/27KTS,9999.0,,14.0,4.0,29.90,1013.7,,,,,,,,,,,,,,,7/8 Mostly Cloudy,25000.0,,FEW,12000.0,BKN,25000.0,,,,
KRDR,09-30-2009,17:00,METAR,,150,21.0,26.0,170/30KTS,9999.0,,13.0,4.0,29.92,1014.6,,,,,,,,,,,,,,,7/8 Mostly Cloudy,25000.0,,FEW,15000.0,BKN,25000.0,,,,
KRDR,09-30-2009,16:00,METAR,,150,20.0,24.0,160/28KTS,9999.0,,11.0,4.0,29.95,1015.1,,,,,,,,,,,,,,,7/8 Mostly Cloudy,25000.0,,SCT,15000.0,BKN,25000.0,,,,
KRDR,09-30-2009,15:00,METAR,,150,18.0,26.0,150/27KTS,9999.0,,9.0,4.0,29.95,1015.4,,,,,,,,,,,,,,,7/8 Mostly Cloudy,25000.0,,FEW,2000.0,SCT,15000.0,BKN,25000.0,,
KRDR,09-30-2009,14:00,METAR,,140,13.0,17.0,,9999.0,,6.0,4.0,29.96,1015.8,,,,,,,,,,,,,,,7/8 Mostly Cloudy,25000.0,,FEW,2000.0,SCT,15000.0,BKN,25000.0,,
KRDR,09-30-2009,13:00,METAR,,140,9.0,,,9999.0,,4.0,3.0,29.98,1016.5,,,,,,,,,,,,,,,7/8 Mostly Cloudy,25000.0,,SCT,15000.0,BKN,25000.0,,,,
KRDR,09-30-2009,12:00,METAR,,130,9.0,,,9999.0,,4.0,3.0,30.00,1016.7,,,,,,,,,,,,,,,4/8 Partly Cloudy,72000.0,,SCT,15000.0,,,,,,
KRDR,09-30-2009,11:00,METAR,,140,7.0,,,9999.0,,3.0,2.0,30.01,1017.3,,,,,,,,,,,,,,,Clear,72000.0,,,73000.0,,,,,,
KRDR,09-30-2009,10:00,METAR,,120,9.0,,,9999.0,,3.0,2.0,30.02,1017.4,,,,,,,,,,,,,,,Clear,72000.0,,,73000.0,,,,,,
KRDR,09-30-2009,09:00,METAR,,120,8.0,,,9999.0,,4.0,2.0,30.03,1017.9,,,,,,,,,,,,,,,Clear,72000.0,,,73000.0,,,,,,
KRDR,09-30-2009,08:00,METAR,,130,8.0,,,9999.0,,4.0,2.0,30.05,1018.4,,,,,,,,,,,,,,,Clear,72000.0,,,73000.0,,,,,,
KRDR,09-30-2009,07:00,METAR,,130,6.0,,,9999.0,,5.0,3.0,30.06,1018.7,,,,,,,,,,,,,,,Clear,72000.0,,,73000.0,,,,,,
KRDR,09-30-2009,06:00,METAR,,130,9.0,,,9999.0,,5.0,3.0,30.06,1018.9,,,,,,,,,,,,,,,Clear,72000.0,,,73000.0,,,,,,
KRDR,09-30-2009,05:00,METAR,,130,8.0,,,9999.0,,5.0,2.0,30.07,1019.1,,,,,,,,,,,,,,,Clear,72000.0,,,73000.0,,,,,,
KRDR,09-30-2009,04:00,METAR,,120,8.0,,,9999.0,,7.0,3.0,30.08,1019.3,,,,,,,,,,,,,,,Clear,72000.0,,,73000.0,,,,,,
KRDR,09-30-2009,03:00,METAR,,100,7.0,,,9999.0,,8.0,3.0,30.07,1019.1,,,,,,,,,,,,,,,Clear,72000.0,,,73000.0,,,,,,
KRDR,09-30-2009,02:00,METAR,,90,7.0,,,9999.0,,9.0,3.0,30.07,1019.2,,,,,,,,,,,,,,,Clear,72000.0,,,73000.0,,,,,,
KRDR,09-30-2009,01:00,METAR,,100,6.0,,,9999.0,,10.0,4.0,30.08,1019.5,,,,,,,,,,,,,,,Clear,72000.0,,,73000.0,,,,,,
KRDR,09-30-2009,00:00,METAR,,110,8.0,,,9999.0,,12.0,4.0,30.09,1019.7,,,,,,,,,,,,,,,Clear,72000.0,,,73000.0,,,,,,
KRDR,09-29-2009,23:00,METAR,,100,9.0,,,9999.0,,13.0,4.0,30.09,1019.8,,,,,,,,,,,,,,,Clear,72000.0,,,73000.0,,,,,,
KRDR,09-29-2009,22:00,METAR,,100,11.0,,,9999.0,,14.0,3.0,30.10,1020.0,,,,,,,,,,,,,,,Clear,72000.0,,,73000.0,,,,,,
KRDR,09-29-2009,21:00,METAR,,120,8.0,,,9999.0,,13.0,3.0,30.12,1020.9,,,,,,,,,,,,,,,2/8 Mostly Clear,72000.0,,FEW,25000.0,,,,,,
KRDR,09-29-2009,20:00,METAR,,110,9.0,,,9999.0,,12.0,2.0,30.15,1021.8,,,,,,,,,,,,,,,2/8 Mostly Clear,72000.0,,FEW,25000.0,,,,,,
KRDR,09-29-2009,19:00,METAR,,120,8.0,,,9999.0,,12.0,2.0,30.18,1022.7,,,,,,,,,,,,,,,2/8 Mostly Clear,72000.0,,FEW,20000.0,,,,,,
KRDR,09-29-2009,18:00,METAR,,110,6.0,15.0,,9999.0,,10.0,1.0,30.20,1023.6,,,,,,,,,,,,,,,2/8 Mostly Clear,72000.0,,FEW,12000.0,FEW,20000.0,,,,
KRDR,09-29-2009,17:00,METAR,,100,7.0,,,9999.0,,9.0,2.0,30.22,1024.1,,,,,,,,,,,,,,,2/8 Mostly Clear,72000.0,,FEW,2500.0,FEW,20000.0,,,,
KRDR,09-29-2009,16:00,METAR,,150,7.0,,,9999.0,,7.0,2.0,30.23,1024.5,,,,,,,,,,,,,,,2/8 Mostly Clear,72000.0,,FEW,2500.0,FEW,12000.0,,,,
KRDR,09-29-2009,15:00,METAR,,110,4.0,,,9999.0,,5.0,1.0,30.23,1024.6,,,,,,,,,,,,,,,2/8 Mostly Clear,72000.0,,FEW,12000.0,FEW,20000.0,,,,
KRDR,09-29-2009,14:00,METAR,,60,3.0,,,9999.0,,2.0,1.0,30.23,1024.4,,,,,,,,,,,,,,,4/8 Partly Cloudy,72000.0,,FEW,12000.0,SCT,20000.0,,,,
KRDR,09-29-2009,13:00,METAR,,340,3.0,,,9999.0,,-1.0,-1.0,30.23,1024.5,,,,,,,,,,,,,,,4/8 Partly Cloudy,72000.0,,FEW,7900.0,FEW,12000.0,SCT,20000.0,,
KRDR,09-29-2009,12:00,METAR,,360,5.0,,,9999.0,,0.0,-1.0,30.22,1024.1,,,,,,,,,,,,,,,Clear,72000.0,,,73000.0,,,,,,
KRDR,09-29-2009,11:00,METAR,,20,6.0,,,9999.0,,-1.0,-1.0,30.21,1023.8,,,,,,,,,,,,,,,Clear,72000.0,,,73000.0,,,,,,
KRDR,09-29-2009,10:00,METAR,,20,5.0,,,9999.0,,0.0,-1.0,30.21,1023.8,,,,,,,,,,,,,,,Clear,72000.0,,,73000.0,,,,,,
KRDR,09-29-2009,09:00,METAR,,350,5.0,,,9999.0,,1.0,1.0,30.21,1023.8,,,,,,,,,,,,,,,Clear,72000.0,,,73000.0,,,,,,
KRDR,09-29-2009,08:00,METAR,,360,5.0,,,9999.0,,2.0,2.0,30.20,1023.4,,,,,,,,,,,,,,,Clear,72000.0,,,73000.0,,,,,,
KRDR,09-29-2009,07:00,METAR,,360,6.0,,,9999.0,,3.0,2.0,30.19,1023.2,,,,,,,,,,,,,,,Clear,72000.0,,,73000.0,,,,,,
KRDR,09-29-2009,06:00,METAR,,10,7.0,,,9999.0,,5.0,3.0,30.19,1023.0,,,,,,,,,,,,,,,Clear,72000.0,,,73000.0,,,,,,
KRDR,09-29-2009,05:00,METAR,,360,6.0,,,9999.0,,6.0,4.0,30.18,1022.7,,,,,,,,,,,,,,,Clear,72000.0,,,73000.0,,,,,,
KRDR,09-29-2009,04:00,METAR,,360,8.0,,,9999.0,,7.0,5.0,30.17,1022.5,,,,,,,,,,,,,,,Clear,72000.0,,,73000.0,,,,,,
KRDR,09-29-2009,03:00,METAR,,340,9.0,,,9999.0,,7.0,5.0,30.15,1021.9,,,,,,,,,,,,,,,Clear,72000.0,,,73000.0,,,,,,
KRDR,09-29-2009,02:00,METAR,,330,6.0,,,9999.0,,8.0,5.0,30.14,1021.5,,,,,,,,,,,,,,,Clear,72000.0,,,73000.0,,,,,,
KRDR,09-29-2009,01:00,METAR,,350,7.0,,,9999.0,,10.0,5.0,30.12,1020.9,,,,,,,,,,,,,,,2/8 Mostly Clear,72000.0,,FEW,3800.0,,,,,,
KRDR,09-29-2009,00:00,METAR,,10,11.0,18.0,,9999.0,,12.0,6.0,30.11,1020.6,,,,,,,,,,,,,,,2/8 Mostly Clear,72000.0,,FEW,3800.0,,,,,,
KRDR,09-28-2009,23:00,METAR,,360,10.0,,,9999.0,,13.0,6.0,30.10,1020.3,,,,,,,,,,,,,,,4/8 Partly Cloudy,72000.0,,SCT,3500.0,,,,,,
KRDR,09-28-2009,22:00,METAR,,340,13.0,21.0,,9999.0,,13.0,5.0,30.08,1019.5,,,,,,,,,,,,,,,7/8 Mostly Cloudy,3100.0,,BKN,3200.0,,,,,,
KRDR,09-28-2009,21:00,METAR,,10,17.0,21.0,,9999.0,,13.0,6.0,30.07,1019.3,,,,,,,,,,,,,,,7/8 Mostly Cloudy,3000.0,,BKN,3000.0,,,,,,
KRDR,09-28-2009,20:06,SPECI,,350,18.0,24.0,,9999.0,,12.0,5.0,30.07,1019.0,,,,,,,,,,,,,,,7/8 Mostly Cloudy,3000.0,,BKN,3000.0,,,,,,
KRDR,09-28-2009,20:00,METAR,,10,19.0,25.0,,9999.0,,12.0,5.0,30.06,1018.9,,,,,,,,,,,,,,,7/8 Mostly Cloudy,2800.0,,BKN,2800.0,,,,,,
KRDR,09-28-2009,19:28,SPECI,,10,17.0,25.0,,9999.0,,13.0,5.0,30.06,1018.7,,,,,,,,,,,,,,,8/8 Overcast,2900.0,,OVC,2900.0,,,,,,
KRDR,09-28-2009,19:00,METAR,,350,19.0,26.0,340/29KTS,9999.0,,13.0,5.0,30.04,1018.3,,,,,,,,,,,,,,,7/8 Mostly Cloudy,3000.0,,BKN,3000.0,,,,,,
KRDR,09-28-2009,18:00,METAR,,350,17.0,26.0,350/27KTS,9999.0,,12.0,5.0,30.03,1017.8,,,,,,,,,,,,,,,8/8 Overcast,3000.0,,OVC,3000.0,,,,,,
KRDR,09-28-2009,17:00,METAR,,350,20.0,28.0,330/31KTS,9999.0,,12.0,4.0,30.01,1017.0,,,,,,,,,,,,,,,7/8 Mostly Cloudy,2900.0,,BKN,2900.0,BKN,5000.0,,,,
KRDR,09-28-2009,16:00,METAR,,340,22.0,28.0,330/29KTS,9999.0,,10.0,3.0,29.98,1016.5,,,,,,,,,,,,,,,7/8 Mostly Cloudy,2600.0,,BKN,2600.0,BKN,5000.0,,,,
KRDR,09-28-2009,15:04,SPECI,,340,18.0,26.0,330/26KTS,9999.0,,9.0,2.0,29.98,1016.2,,,,,,,,,,,,,,,7/8 Mostly Cloudy,2700.0,,SCT,2700.0,BKN,2900.0,BKN,5000.0,,
KRDR,09-28-2009,15:00,METAR,,340,20.0,32.0,340/32KTS,9999.0,,9.0,2.0,29.97,1016.0,,,,,,,,,,,,,,,7/8 Mostly Cloudy,4900.0,,SCT,2600.0,SCT,3200.0,BKN,5000.0,,
KRDR,09-28-2009,14:00,METAR,,330,17.0,28.0,330/28KTS,9999.0,,8.0,2.0,29.94,1015.2,,,,,,,,,,,,,,,7/8 Mostly Cloudy,3100.0,,BKN,3100.0,BKN,5000.0,,,,
KRDR,09-28-2009,13:00,METAR,,330,18.0,24.0,330/32KTS,9999.0,,7.0,1.0,29.93,1014.4,,,,,,,,,,,,,,,7/8 Mostly Cloudy,4900.0,,FEW,4200.0,BKN,5000.0,,,,
KRDR,09-28-2009,12:00,METAR,,320,21.0,31.0,320/31KTS,9999.0,,8.0,2.0,29.90,1013.4,,,,,,,,,,,,,,.01 IN,7/8 Mostly Cloudy,8500.0,,FEW,2800.0,BKN,8400.0,,,,
KRDR,09-28-2009,11:00,METAR,,320,22.0,29.0,310/31KTS,9999.0,,8.0,2.0,29.87,1012.5,,,,,,,,,,,,,,,8/8 Overcast,3300.0,,OVC,3400.0,,,,,,
KRDR,09-28-2009,10:45,SPECI,,320,17.0,31.0,310/31KTS,9999.0,,8.0,2.0,29.86,1012.3,,,,,,,,,,,,,,,7/8 Mostly Cloudy,3500.0,,BKN,3600.0,,,,,,
KRDR,09-28-2009,10:42,SPECI,,330,22.0,31.0,310/31KTS,9999.0,,8.0,2.0,29.86,1012.2,,,,,,,,,,,,,,,8/8 Overcast,2800.0,,BKN,2800.0,OVC,7400.0,,,,
KRDR,09-28-2009,10:31,SPECI,,320,19.0,30.0,330/30KTS,9999.0,,8.0,2.0,29.86,1012.1,,,,,,,,,,,,,,,7/8 Mostly Cloudy,3000.0,,BKN,3000.0,,,,,,
KRDR,09-28-2009,10:00,METAR,,320,21.0,29.0,320/30KTS,9999.0,,9.0,3.0,29.84,1011.5,,,,,,,,,,,,,,,8/8 Overcast,2800.0,,OVC,2800.0,,,,,,
KRDR,09-28-2009,09:00,METAR,,320,19.0,28.0,310/34KTS,9999.0,,9.0,3.0,29.81,1010.6,,,,,,,,,,,,,,,7/8 Mostly Cloudy,2600.0,,BKN,2600.0,,,,,,
KRDR,09-28-2009,08:00,METAR,,320,20.0,,310/27KTS,9999.0,,9.0,4.0,29.79,1009.8,,,,,,,,,,,,,,,8/8 Overcast,2500.0,,OVC,2500.0,,,,,,
KRDR,09-28-2009,07:27,SPECI,,320,17.0,27.0,310/27KTS,9999.0,,9.0,4.0,29.78,1009.6,,,,,,,,,,,,,,,8/8 Overcast,2300.0,,OVC,2900.0,,,,,,
KRDR,09-28-2009,07:00,METAR,,320,18.0,27.0,340/28KTS,9999.0,,9.0,4.0,29.76,1009.1,,,,,,,,,,,,,,,7/8 Mostly Cloudy,4900.0,,BKN,5000.0,,,,,,
KRDR,09-28-2009,06:00,METAR,,320,22.0,25.0,310/30KTS,9999.0,,11.0,5.0,29.73,1007.9,,,,,,,,,,,,,,,7/8 Mostly Cloudy,3900.0,,BKN,4000.0,,,,,,
KRDR,09-28-2009,05:00,METAR,,310,16.0,24.0,310/29KTS,9999.0,,11.0,5.0,29.71,1007.2,,,,,,,,,,,,,,,Clear,72000.0,,,73000.0,,,,,,
KRDR,09-28-2009,04:00,METAR,,310,19.0,27.0,310/27KTS,9999.0,,11.0,6.0,29.69,1006.7,,,,,,,,,,,,,,,4/8 Partly Cloudy,72000.0,,SCT,5900.0,,,,,,
KRDR,09-28-2009,03:00,METAR,,310,19.0,27.0,310/27KTS,9999.0,,11.0,6.0,29.69,1006.6,,,,,,,,,,,,,,,7/8 Mostly Cloudy,8000.0,,BKN,7900.0,,,,,,
KRDR,09-28-2009,02:00,METAR,,320,24.0,31.0,310/31KTS,9999.0,,12.0,5.0,29.68,1006.1,,,,,,,,,,,,,,,2/8 Mostly Clear,72000.0,,FEW,6400.0,,,,,,
KRDR,09-28-2009,01:00,METAR,,310,18.0,22.0,310/28KTS,9999.0,,12.0,5.0,29.65,1005.3,,,,,,,,,,,,,,,7/8 Mostly Cloudy,6000.0,,BKN,5900.0,,,,,,
KRDR,09-28-2009,00:00,METAR,,310,14.0,26.0,300/32KTS,9999.0,,13.0,5.0,29.63,1004.5,,,,,,,,,,,,,.01 IN,,Clear,72000.0,,,73000.0,,,,,,
KRDR,09-27-2009,23:00,METAR,,320,26.0,32.0,310/37KTS,9999.0,,14.0,3.0,29.60,1003.5,,,,,,,,,,,.01 IN,,,,2/8 Mostly Clear,72000.0,,FEW,5400.0,,,,,,
KRDR,09-27-2009,22:00,METAR,,300,24.0,35.0,300/35KTS,9999.0,,16.0,3.0,29.57,1002.6,,,,,,,,,,,,,,,2/8 Mostly Clear,72000.0,,FEW,5400.0,,,,,,
KRDR,09-27-2009,21:00,METAR,,300,24.0,36.0,290/39KTS,9999.0,,14.0,5.0,29.55,1002.1,,,,,,,,,,,,TRACE,,,Clear,72000.0,,,73000.0,,,,,,
KRDR,09-27-2009,20:00,METAR,,290,26.0,33.0,300/34KTS,9999.0,,12.0,4.0,29.55,1002.0,,,,,,,,,,,TRACE,,,,Clear,72000.0,,,73000.0,,,,,,
KRDR,09-27-2009,19:33,SPECI,,300,20.0,28.0,280/31KTS,9999.0,,12.0,4.0,29.54,1001.8,,,,,,,,,,,,,,,Clear,72000.0,,,73000.0,,,,,,
KRDR,09-27-2009,19:03,SPECI,,300,21.0,29.0,290/29KTS,9999.0,Unknown Precipitation,11.0,5.0,29.56,1002.2,40,,,,,,,,,,,,,,2/8 Mostly Clear,72000.0,,FEW,6400.0,,,,,,
KRDR,09-27-2009,19:00,METAR,,300,22.0,29.0,310/35KTS,9999.0,,11.0,4.0,29.56,1002.4,,,,,,,,,,,,,,,2/8 Mostly Clear,72000.0,,FEW,3000.0,,,,,,
KRDR,09-27-2009,18:00,METAR,,310,12.0,16.0,330/34KTS,9999.0,,13.0,7.0,29.54,1001.7,,,,,,,,,,,TRACE,,TRACE,,2/8 Mostly Clear,72000.0,,FEW,5400.0,,,,,,
KRDR,09-27-2009,17:32,SPECI,,310,14.0,,330/34KTS,9999.0,,12.0,8.0,29.54,1001.8,,,,,,,,,,,,,,,2/8 Mostly Clear,72000.0,,FEW,5900.0,,,,,,
KRDR,09-27-2009,17:14,SPECI,,320,26.0,34.0,330/34KTS,9999.0,,15.0,7.0,29.54,1001.7,,,,,,,,,,,,,,,2/8 Mostly Clear,72000.0,,FEW,5900.0,,,,,,
KRDR,09-27-2009,17:00,METAR,,320,27.0,31.0,320/31KTS,9999.0,Light Rain,14.0,6.0,29.53,1001.4,61,,,,,,,,,,TRACE,,,,2/8 Mostly Clear,72000.0,,FEW,5900.0,,,,,,
KRDR,09-27-2009,16:46,SPECI,,310,19.0,27.0,310/27KTS,9999.0,Light Rain,15.0,6.0,29.53,1001.3,61,,,,,,,,,,,,,,4/8 Partly Cloudy,72000.0,,SCT,5900.0,,,,,,
KRDR,09-27-2009,16:00,METAR,,290,16.0,22.0,,9999.0,,15.0,6.0,29.52,1001.0,,,,,,,,,,,,,,,Clear,72000.0,,,73000.0,,,,,,
KRDR,09-27-2009,15:00,METAR,,300,16.0,20.0,,9999.0,,14.0,6.0,29.51,1000.6,,,,,,,,,,,,,,,Clear,72000.0,,,73000.0,,,,,,
KRDR,09-27-2009,14:00,METAR,,310,14.0,,,9999.0,,14.0,6.0,29.48,999.9,,,,,,,,,,,,,,,Clear,72000.0,,,73000.0,,,,,,
KRDR,09-27-2009,13:00,METAR,,320,13.0,,,9999.0,,13.0,6.0,29.47,999.5,,,,,,,,,,,,,,,Clear,72000.0,,,73000.0,,,,,,
KRDR,09-27-2009,12:00,METAR,,310,15.0,,,9999.0,,14.0,5.0,29.46,998.9,,,,,,,,,,,,,,,Clear,72000.0,,,73000.0,,,,,,
KRDR,09-27-2009,11:00,METAR,,300,12.0,,,9999.0,,14.0,6.0,29.42,997.8,,,,,,,,,,,,,,,Clear,72000.0,,,73000.0,,,,,,
KRDR,09-27-2009,10:00,METAR,,300,10.0,,,9999.0,,15.0,7.0,29.39,996.7,,,,,,,,,,,,,,,Clear,72000.0,,,73000.0,,,,,,
KRDR,09-27-2009,09:00,METAR,,330,13.0,20.0,330/27KTS,9999.0,,17.0,8.0,29.34,995.1,,,,,,,,,,,,,,,Clear,72000.0,,,73000.0,,,,,,
KRDR,09-27-2009,08:00,METAR,,330,20.0,27.0,340/27KTS,9999.0,,17.0,10.0,29.34,995.2,,,,,,,,,,,,,,,4/8 Partly Cloudy,72000.0,,SCT,12000.0,,,,,,
KRDR,09-27-2009,07:00,METAR,,230,9.0,,,9999.0,,17.0,12.0,29.34,995.2,,,,,,,,,,,,,,,4/8 Partly Cloudy,72000.0,,SCT,9900.0,,,,,,
KRDR,09-27-2009,06:00,METAR,,210,9.0,,,9999.0,,17.0,13.0,29.36,995.7,,,,,,,,,,,,,TRACE,,Clear,72000.0,,,73000.0,,,,,,
KRDR,09-27-2009,05:00,METAR,,210,12.0,,,9999.0,,18.0,13.0,29.38,996.5,,,,,,,,,,,,,,,Clear,72000.0,,,73000.0,,,,,,
KRDR,09-27-2009,04:00,METAR,,190,11.0,,,9999.0,,19.0,14.0,29.41,997.6,,,,,,,,,,,,,,,4/8 Partly Cloudy,72000.0,,SCT,12000.0,,,,,,
KRDR,09-27-2009,03:00,METAR,,190,12.0,,,9999.0,,20.0,14.0,29.45,998.9,,,,,,,,,,,,TRACE,,,Clear,72000.0,,,73000.0,,,,,,
KRDR,09-27-2009,02:00,METAR,,180,7.0,,,9999.0,,18.0,12.0,29.49,999.9,,,,,,,,,,,,,,,Clear,72000.0,,,73000.0,,,,,,
KRDR,09-27-2009,01:00,METAR,,190,4.0,,,9999.0,,18.0,10.0,29.51,1000.6,,,,,,,,,,,TRACE,,,,Clear,72000.0,,,73000.0,,,,,,
KRDR,09-27-2009,00:30,SPECI,,210,3.0,,,9999.0,,19.0,11.0,29.51,1000.9,,,,,,,,,,,,,,,Clear,72000.0,,,73000.0,,,,,,
KRDR,09-27-2009,00:21,SPECI,,240,3.0,,,9999.0,,20.0,11.0,29.52,1001.2,,,,,,,,,,,,,,,Clear,72000.0,,,73000.0,,,,,,
KRDR,09-27-2009,00:00,METAR,,210,6.0,,,9999.0,,23.0,12.0,29.53,1001.3,,,,,,,,,,,,,,,Clear,72000.0,,,73000.0,,,,,,
KRDR,09-26-2009,23:00,METAR,,200,10.0,,,9999.0,,26.0,12.0,29.55,1002.1,,,,,,,,,,,,,,,Clear,72000.0,,,73000.0,,,,,,
KRDR,09-26-2009,22:00,METAR,,220,13.0,,,9999.0,,27.0,12.0,29.57,1002.8,,,,,,,,,,,,,,,Clear,72000.0,,,73000.0,,,,,,
KRDR,09-26-2009,21:00,METAR,,200,15.0,,,9999.0,,25.0,14.0,29.61,1004.1,,,,,,,,,,,,,,,Clear,72000.0,,,73000.0,,,,,,
KRDR,09-26-2009,20:00,METAR,,200,15.0,20.0,,9999.0,,25.0,15.0,29.65,1005.2,,,,,,,,,,,,,,,Clear,72000.0,,,73000.0,,,,,,
KRDR,09-26-2009,19:00,METAR,,180,14.0,,,9999.0,,22.0,14.0,29.69,1006.5,,,,,,,,,,,,,,,Clear,72000.0,,,73000.0,,,,,,
KRDR,09-26-2009,18:00,METAR,,190,12.0,,,9999.0,,20.0,14.0,29.73,1007.8,,,,,,,,,,,,,,,Clear,72000.0,,,73000.0,,,,,,
KRDR,09-26-2009,17:00,METAR,,180,13.0,,,9999.0,,18.0,14.0,29.76,1008.8,,,,,,,,,,,,,,,Clear,72000.0,,,73000.0,,,,,,
KRDR,09-26-2009,16:27,SPECI,,180,15.0,,,9999.0,,17.0,14.0,29.77,1009.2,,,,,,,,,,,,,,,4/8 Partly Cloudy,72000.0,,SCT,1000.0,,,,,,
KRDR,09-26-2009,16:25,SPECI,,190,14.0,,,9999.0,,17.0,14.0,29.77,1009.2,,,,,,,,,,,,,,,7/8 Mostly Cloudy,1000.0,,BKN,1000.0,,,,,,
KRDR,09-26-2009,16:00,METAR,,180,13.0,,,9999.0,,17.0,14.0,29.78,1009.6,,,,,,,,,,,,,,,7/8 Mostly Cloudy,700.0,,BKN,700.0,,,,,,
KRDR,09-26-2009,15:45,SPECI,,180,15.0,,,9999.0,,16.0,14.0,29.79,1009.8,,,,,,,,,,,,,,,7/8 Mostly Cloudy,700.0,,BKN,700.0,,,,,,
KRDR,09-26-2009,15:28,SPECI,,180,14.0,,,9999.0,,15.0,14.0,29.79,1010.0,,,,,,,,,,,,,,,8/8 Overcast,600.0,,OVC,600.0,,,,,,
KRDR,09-26-2009,15:07,SPECI,,180,12.0,,,9999.0,,15.0,15.0,29.80,1010.3,,,,,,,,,,,,,,,8/8 Overcast,400.0,,OVC,400.0,,,,,,
KRDR,09-26-2009,15:00,METAR,,180,12.0,,,9999.0,,14.0,14.0,29.81,1010.4,,,,,,,,,,,,,,,8/8 Overcast,600.0,,OVC,600.0,,,,,,
KRDR,09-26-2009,14:38,SPECI,,180,11.0,,,8000.0,Mist,14.0,14.0,29.81,1010.5,10,,,,,,,,,,,,,,8/8 Overcast,900.0,,OVC,900.0,,,,,,
KRDR,09-26-2009,14:37,SPECI,,180,12.0,,,8000.0,Mist,14.0,14.0,29.81,1010.5,10,,,,,,,,,,,,,,8/8 Overcast,1100.0,,OVC,1100.0,,,,,,
KRDR,09-26-2009,14:19,SPECI,,180,13.0,,,4800.0,Mist,13.0,13.0,29.81,1010.7,10,,,,,,,,,,,,,,8/8 Overcast,600.0,,FEW,200.0,OVC,600.0,,,,
KRDR,09-26-2009,14:09,SPECI,,180,13.0,,,4800.0,Mist,13.0,13.0,29.82,1010.8,10,,,,,,,,,,,,,,8/8 Overcast,500.0,,OVC,500.0,,,,,,
KRDR,09-26-2009,14:01,SPECI,,180,10.0,,,4800.0,Mist,13.0,13.0,29.82,1010.9,10,,,,,,,,,,,,,,8/8 Overcast,600.0,,OVC,600.0,,,,,,
KRDR,09-26-2009,14:00,METAR,,180,12.0,,,8000.0,Mist,13.0,13.0,29.82,1011.0,10,,,,,,,,,,,,,,8/8 Overcast,500.0,,OVC,500.0,,,,,,
KRDR,09-26-2009,13:49,SPECI,,180,10.0,,,9999.0,Mist,13.0,13.0,29.82,1011.0,10,,,,,,,,,,,,,,8/8 Overcast,500.0,,OVC,500.0,,,,,,
KRDR,09-26-2009,13:47,SPECI,,180,12.0,,,9999.0,Mist,13.0,13.0,29.82,1011.0,10,,,,,,,,,,,,,,8/8 Overcast,600.0,,OVC,600.0,,,,,,
KRDR,09-26-2009,13:30,SPECI,,190,12.0,,,9999.0,,13.0,13.0,29.82,1011.1,,,,,,,,,,,,,,,7/8 Mostly Cloudy,500.0,,BKN,500.0,,,,,,
KRDR,09-26-2009,13:20,SPECI,,200,10.0,,,9999.0,,13.0,13.0,29.82,1011.1,,,,,,,,,,,,,,,2/8 Mostly Clear,72000.0,,FEW,700.0,,,,,,
KRDR,09-26-2009,13:00,METAR,,190,10.0,,,8000.0,Mist,13.0,13.0,29.83,1011.2,10,,,,,,,,,,,,,,Clear,72000.0,,,73000.0,,,,,,
KRDR,09-26-2009,12:39,SPECI,,180,11.0,,,4800.0,Mist,13.0,13.0,29.83,1011.3,10,,,,,,,,,,,,,,Clear,72000.0,,,73000.0,,,,,,
KRDR,09-26-2009,12:35,SPECI,,190,10.0,,,3200.0,Mist,13.0,13.0,29.83,1011.3,10,,,,,,,,,,,,,,Clear,72000.0,,,73000.0,,,,,,
KRDR,09-26-2009,12:28,SPECI,,180,9.0,,,2800.0,Mist,13.0,13.0,29.83,1011.3,10,,,,,,,,,,,,,,Clear,72000.0,,,73000.0,,,,,,
KRDR,09-26-2009,12:24,SPECI,,180,9.0,,,4000.0,Mist,14.0,14.0,29.83,1011.3,10,,,,,,,,,,,,,,Clear,72000.0,,,73000.0,,,,,,
KRDR,09-26-2009,12:00,METAR,,170,10.0,,,4800.0,Mist,14.0,14.0,29.84,1011.7,10,,,,,,,,,,,,,,Clear,72000.0,,,73000.0,,,,,,
KRDR,09-26-2009,11:49,SPECI,,180,10.0,,,3200.0,Mist,14.0,14.0,29.85,1011.8,10,,,,,,,,,,,,,,Clear,72000.0,,,73000.0,,,,,,
KRDR,09-26-2009,11:41,SPECI,,180,9.0,,,2800.0,Mist,14.0,14.0,29.85,1011.8,10,,,,,,,,,,,,,,Clear,72000.0,,,73000.0,,,,,,
KRDR,09-26-2009,11:34,SPECI,,180,10.0,,,4000.0,Mist,14.0,14.0,29.85,1011.8,10,,,,,,,,,,,,,,Clear,72000.0,,,73000.0,,,,,,
KRDR,09-26-2009,11:31,SPECI,,180,10.0,,,4800.0,Mist,14.0,14.0,29.85,1011.9,10,,,,,,,,,,,,,,Clear,72000.0,,,73000.0,,,,,,
KRDR,09-26-2009,11:15,SPECI,,180,8.0,,,3200.0,Mist,14.0,14.0,29.86,1012.2,10,,,,,,,,,,,,,,Clear,72000.0,,,73000.0,,,,,,
KRDR,09-26-2009,11:00,METAR,,180,7.0,,,2800.0,Mist,14.0,14.0,29.86,1012.3,10,,,,,,,,,,,,,,Clear,72000.0,,,73000.0,,,,,,
KRDR,09-26-2009,10:43,SPECI,,180,8.0,,,3200.0,Mist,14.0,14.0,29.86,1012.3,10,,,,,,,,,,,,,,Clear,72000.0,,,73000.0,,,,,,
KRDR,09-26-2009,10:36,SPECI,,180,8.0,,,2800.0,Mist,14.0,14.0,29.86,1012.4,10,,,,,,,,,,,,,,Clear,72000.0,,,73000.0,,,,,,
KRDR,09-26-2009,10:30,SPECI,,180,8.0,,,4000.0,Mist,14.0,14.0,29.86,1012.4,10,,,,,,,,,,,,,,Clear,72000.0,,,73000.0,,,,,,
KRDR,09-26-2009,10:00,METAR,,170,6.0,,,9999.0,,13.0,13.0,29.87,1012.5,,,,,,,,,,,,,,,Clear,72000.0,,,73000.0,,,,,,
KRDR,09-26-2009,09:00,METAR,,170,7.0,,,9999.0,,14.0,14.0,29.87,1012.7,,,,,,,,,,,,,,,Clear,72000.0,,,73000.0,,,,,,
KRDR,09-26-2009,08:00,METAR,,190,7.0,,,9999.0,,15.0,15.0,29.88,1013.0,,,,,,,,,,,,,,,Clear,72000.0,,,73000.0,,,,,,
KRDR,09-26-2009,07:00,METAR,,200,9.0,,,9999.0,,16.0,15.0,29.90,1013.4,,,,,,,,,,,,,,,Clear,72000.0,,,73000.0,,,,,,
KRDR,09-26-2009,06:00,METAR,,180,9.0,,,9999.0,,16.0,15.0,29.91,1013.9,,,,,,,,,,,,,,,Clear,72000.0,,,73000.0,,,,,,
KRDR,09-26-2009,05:00,METAR,,190,8.0,,,9999.0,,16.0,14.0,29.93,1014.6,,,,,,,,,,,,,,,Clear,72000.0,,,73000.0,,,,,,
KRDR,09-26-2009,04:00,METAR,,210,6.0,,,9999.0,,16.0,12.0,29.94,1015.0,,,,,,,,,,,,,,,Clear,72000.0,,,73000.0,,,,,,
KRDR,09-26-2009,03:00,METAR,,200,5.0,,,9999.0,,15.0,12.0,29.94,1015.0,,,,,,,,,,,,,,,Clear,72000.0,,,73000.0,,,,,,
KRDR,09-26-2009,02:00,METAR,,170,7.0,,,9999.0,,17.0,12.0,29.96,1015.4,,,,,,,,,,,,,,,Clear,72000.0,,,73000.0,,,,,,
KRDR,09-26-2009,01:00,METAR,,160,5.0,,,9999.0,,20.0,13.0,29.96,1015.5,,,,,,,,,,,,,,,Clear,72000.0,,,73000.0,,,,,,
KRDR,09-26-2009,00:00,METAR,,170,7.0,,,9999.0,,23.0,14.0,29.96,1015.6,,,,,,,,,,,,,,,Clear,72000.0,,,73000.0,,,,,,
KRDR,09-25-2009,23:00,METAR,,190,6.0,,,9999.0,,24.0,14.0,29.97,1015.9,,,,,,,,,,,,,,,Clear,72000.0,,,73000.0,,,,,,
KRDR,09-25-2009,22:00,METAR,,170,6.0,,,9999.0,,25.0,14.0,29.97,1016.0,,,,,,,,,,,,,,,2/8 Mostly Clear,72000.0,,FEW,4900.0,,,,,,
KRDR,09-25-2009,21:00,METAR,,220,4.0,,,9999.0,,26.0,14.0,29.98,,,,,,,,,,,,,,,,2/8 Mostly Clear,72000.0,,FEW,4900.0,,,,,,
KRDR,09-25-2009,20:00,METAR,,170,8.0,,,9999.0,,25.0,14.0,30.00,1016.8,,,,,,,,,,,,,,,4/8 Partly Cloudy,72000.0,,SCT,5000.0,,,,,,
KRDR,09-25-2009,19:00,METAR,,130,9.0,,,9999.0,,25.0,15.0,30.02,1017.4,,,,,,,,,,,,,,,Clear,72000.0,,,73000.0,,,,,,
KRDR,09-25-2009,18:00,METAR,,190,6.0,,,9999.0,,25.0,14.0,30.04,1018.1,,,,,,,,,,,,,,,Clear,72000.0,,,73000.0,,,,,,
KRDR,09-25-2009,17:00,METAR,,,0.0,,,9999.0,,23.0,15.0,30.05,1018.6,,,,,,,,,,,,,,,Clear,72000.0,,,73000.0,,,,,,
KRDR,09-25-2009,16:00,METAR,,,4.0,,,9999.0,,21.0,14.0,30.07,1019.0,,,,,,,,,,,,,,,Clear,72000.0,,,73000.0,,,,,,
KRDR,09-25-2009,15:00,METAR,,,0.0,,,9999.0,,18.0,13.0,30.07,1019.3,,,,,,,,,,,,,,,Clear,72000.0,,,73000.0,,,,,,
KRDR,09-25-2009,14:00,METAR,,,0.0,,,9999.0,,14.0,13.0,30.07,1019.3,,,,,,,,,,,,,,,Clear,72000.0,,,73000.0,,,,,,
KRDR,09-25-2009,13:00,METAR,,190,3.0,,,9999.0,,9.0,9.0,30.08,1019.5,,,,,,,,,,,,,,,Clear,72000.0,,,73000.0,,,,,,
KRDR,09-25-2009,12:00,METAR,,,0.0,,,9999.0,,9.0,9.0,30.08,1019.4,,,,,,,,,,,,,,.07 IN,Clear,72000.0,,,73000.0,,,,,,
KRDR,09-25-2009,11:00,METAR,,,0.0,,,9999.0,,10.0,10.0,30.08,1019.5,,,,,,,,,,,,,,,Clear,72000.0,,,73000.0,,,,,,
KRDR,09-25-2009,10:00,METAR,,180,5.0,,,9999.0,,10.0,10.0,30.08,1019.4,,,,,,,,,,,,,,,Clear,72000.0,,,73000.0,,,,,,
KRDR,09-25-2009,09:00,METAR,,170,5.0,,,9999.0,,11.0,11.0,30.08,1019.5,,,,,,,,,,,,,,,Clear,72000.0,,,73000.0,,,,,,
KRDR,09-25-2009,08:00,METAR,,190,4.0,,,9999.0,,13.0,11.0,30.09,1019.8,,,,,,,,,,,,,,,Clear,72000.0,,,73000.0,,,,,,
KRDR,09-25-2009,07:00,METAR,,190,6.0,,,9999.0,,12.0,11.0,30.10,1020.2,,,,,,,,,,,,,,,Clear,72000.0,,,73000.0,,,,,,
KRDR,09-25-2009,06:00,METAR,,210,5.0,,,9999.0,,13.0,11.0,30.11,1020.5,,,,,,,,,,,,,,,Clear,72000.0,,,73000.0,,,,,,
KRDR,09-25-2009,05:00,METAR,,200,4.0,,,9999.0,,12.0,10.0,30.11,1020.5,,,,,,,,,,,,,,,Clear,72000.0,,,73000.0,,,,,,
KRDR,09-25-2009,04:00,METAR,,190,6.0,,,9999.0,,14.0,10.0,30.11,1020.5,,,,,,,,,,,,,,,Clear,72000.0,,,73000.0,,,,,,
KRDR,09-25-2009,03:00,METAR,,180,3.0,,,9999.0,,14.0,10.0,30.11,1020.5,,,,,,,,,,,,,,,Clear,72000.0,,,73000.0,,,,,,
KRDR,09-25-2009,02:00,METAR,,160,5.0,,,9999.0,,17.0,10.0,30.10,1020.1,,,,,,,,,,,,,,,Clear,72000.0,,,73000.0,,,,,,
KRDR,09-25-2009,01:00,METAR,,160,5.0,,,9999.0,,20.0,10.0,30.10,1020.0,,,,,,,,,,,,,,,2/8 Mostly Clear,72000.0,,FEW,12000.0,,,,,,
KRDR,09-25-2009,00:00,METAR,,180,8.0,,,9999.0,,23.0,11.0,30.10,1020.0,,,,,,,,,,,,,,,2/8 Mostly Clear,72000.0,,FEW,500.0,FEW,12000.0,,,,
KRDR,09-24-2009,23:00,METAR,,180,7.0,,,9999.0,,26.0,11.0,30.09,1019.7,,,,,,,,,,,,,,,2/8 Mostly Clear,72000.0,,FEW,20000.0,,,,,,
KRDR,09-24-2009,22:00,METAR,,,5.0,,,9999.0,,27.0,11.0,30.09,1019.8,,,,,,,,,,,,,,,2/8 Mostly Clear,72000.0,,FEW,100.0,FEW,25000.0,,,,
KRDR,09-24-2009,21:00,METAR,,170,6.0,,,9999.0,,27.0,11.0,30.10,1020.1,,,,,,,,,,,,,,,2/8 Mostly Clear,72000.0,,FEW,100.0,,,,,,
KRDR,09-24-2009,20:00,METAR,,170,5.0,,,9999.0,,28.0,11.0,30.11,1020.4,,,,,,,,,,,,,,,2/8 Mostly Clear,72000.0,,FEW,100.0,,,,,,
KRDR,09-24-2009,19:00,METAR,,,4.0,,,9999.0,,27.0,10.0,30.11,1020.7,,,,,,,,,,,,,,,2/8 Mostly Clear,72000.0,,FEW,100.0,,,,,,
KRDR,09-24-2009,18:00,METAR,,,3.0,,,9999.0,,26.0,10.0,30.13,1021.1,,,,,,,,,,,,,.07 IN,,2/8 Mostly Clear,72000.0,,FEW,100.0,,,,,,
KRDR,09-24-2009,17:00,METAR,,160,3.0,,,9999.0,,24.0,12.0,30.15,1021.8,,,,,,,,,,,,,,,Clear,72000.0,,,73000.0,,,,,,
KRDR,09-24-2009,16:00,METAR,,160,6.0,,,9999.0,,21.0,12.0,30.16,1022.3,,,,,,,,,,,.07 IN,,,,Clear,72000.0,,,73000.0,,,,,,
KRDR,09-24-2009,15:00,METAR,,,4.0,,,9999.0,,20.0,11.0,30.15,1021.8,,,,,,,,,,,,,,,Clear,72000.0,,,73000.0,,,,,,
KRDR,09-24-2009,14:00,METAR,,190,5.0,,,9999.0,,14.0,10.0,30.14,1021.5,,,,,,,,,,,,,,,Clear,72000.0,,,73000.0,,,,,,
KRDR,09-24-2009,13:00,METAR,,160,4.0,,,9999.0,,11.0,9.0,30.14,1021.5,,,,,,,,,,,,,,,Clear,72000.0,,,73000.0,,,,,,
KRDR,09-24-2009,12:00,METAR,,190,6.0,,,9999.0,,10.0,8.0,30.13,1021.1,,,,,,,,,,,,,,,Clear,72000.0,,,73000.0,,,,,,
KRDR,09-24-2009,11:00,METAR,,180,5.0,,,9999.0,,10.0,8.0,30.13,1021.0,,,,,,,,,,,,,,,Clear,72000.0,,,73000.0,,,,,,
KRDR,09-24-2009,10:00,METAR,,220,4.0,,,9999.0,,11.0,8.0,30.12,1020.9,,,,,,,,,,,,,,,Clear,72000.0,,,73000.0,,,,,,
KRDR,09-24-2009,09:00,METAR,,200,5.0,,,9999.0,,12.0,8.0,30.13,1021.1,,,,,,,,,,,,,,,Clear,72000.0,,,73000.0,,,,,,
KRDR,09-24-2009,08:00,METAR,,220,4.0,,,9999.0,,12.0,8.0,30.13,1021.1,,,,,,,,,,,,,,,Clear,72000.0,,,73000.0,,,,,,
KRDR,09-24-2009,07:00,METAR,,230,5.0,,,9999.0,,13.0,9.0,30.13,1021.1,,,,,,,,,,,,,,,Clear,72000.0,,,73000.0,,,,,,
KRDR,09-24-2009,06:00,METAR,,220,7.0,,,9999.0,,14.0,9.0,30.13,1021.1,,,,,,,,,,,,,,,Clear,72000.0,,,73000.0,,,,,,
KRDR,09-24-2009,05:00,METAR,,220,7.0,,,9999.0,,15.0,10.0,30.13,1021.2,,,,,,,,,,,,,,,Clear,72000.0,,,73000.0,,,,,,
KRDR,09-24-2009,04:00,METAR,,220,5.0,,,9999.0,,15.0,10.0,30.12,1021.2,,,,,,,,,,,,,,,Clear,72000.0,,,73000.0,,,,,,
KRDR,09-24-2009,03:00,METAR,,210,6.0,,,9999.0,,16.0,10.0,30.12,1021.2,,,,,,,,,,,,,,,Clear,72000.0,,,73000.0,,,,,,
KRDR,09-24-2009,02:00,METAR,,180,6.0,,,9999.0,,16.0,10.0,30.12,1021.3,,,,,,,,,,,,,,,Clear,72000.0,,,73000.0,,,,,,
KRDR,09-24-2009,01:00,METAR,,210,5.0,,,9999.0,,17.0,11.0,30.14,1021.3,,,,,,,,,,,,,,,2/8 Mostly Clear,72000.0,,FEW,20000.0,,,,,,
KRDR,09-24-2009,00:00,METAR,,260,2.0,,,9999.0,,23.0,12.0,30.12,1021.2,,,,,,,,,,,,,,,2/8 Mostly Clear,72000.0,,FEW,20000.0,,,,,,
KRDR,09-23-2009,23:00,METAR,,240,5.0,,,9999.0,,25.0,9.0,30.12,1021.1,,,,,,,,,,,,,,,2/8 Mostly Clear,72000.0,,FEW,20000.0,,,,,,
KRDR,09-23-2009,22:00,METAR,,250,5.0,,,9999.0,,26.0,9.0,30.13,1021.5,,,,,,,,,,,,,,,2/8 Mostly Clear,72000.0,,FEW,20000.0,,,,,,
KRDR,09-23-2009,21:00,METAR,,280,3.0,,,9999.0,,25.0,8.0,30.14,1021.8,,,,,,,,,,,,,,,2/8 Mostly Clear,72000.0,,FEW,20000.0,,,,,,
KRDR,09-23-2009,20:00,METAR,,,3.0,,,9999.0,,25.0,7.0,30.16,1022.3,,,,,,,,,,,,,,,2/8 Mostly Clear,72000.0,,FEW,20000.0,,,,,,
KRDR,09-23-2009,19:00,METAR,,,3.0,,,9999.0,,24.0,7.0,30.19,1023.0,,,,,,,,,,,,,,,2/8 Mostly Clear,72000.0,,FEW,25000.0,,,,,,
KRDR,09-23-2009,18:00,METAR,,,0.0,,,9999.0,,22.0,7.0,30.21,1023.7,,,,,,,,,,,,,,,2/8 Mostly Clear,72000.0,,FEW,25000.0,,,,,,
KRDR,09-23-2009,17:00,METAR,,,1.0,,,9999.0,,22.0,6.0,30.21,1023.9,,,,,,,,,,,,,,,2/8 Mostly Clear,72000.0,,FEW,25000.0,,,,,,
KRDR,09-23-2009,16:00,METAR,,,0.0,,,9999.0,,18.0,9.0,30.23,1024.4,,,,,,,,,,,,,,,2/8 Mostly Clear,72000.0,,FEW,25000.0,,,,,,
KRDR,09-23-2009,15:00,METAR,,,0.0,,,9999.0,,15.0,9.0,30.23,1024.5,,,,,,,,,,,,,,,2/8 Mostly Clear,72000.0,,FEW,25000.0,,,,,,
KRDR,09-23-2009,14:00,METAR,,,0.0,,,9999.0,,12.0,9.0,30.22,1024.2,,,,,,,,,,,,,,,4/8 Partly Cloudy,72000.0,,SCT,25000.0,,,,,,
KRDR,09-23-2009,13:00,METAR,,,0.0,,,9999.0,,7.0,5.0,30.21,1023.7,,,,,,,,,,,,,,,4/8 Partly Cloudy,72000.0,,SCT,25000.0,,,,,,
KRDR,09-23-2009,12:00,METAR,,,0.0,,,9999.0,,7.0,5.0,30.19,1023.2,,,,,,,,,,,,,,,2/8 Mostly Clear,72000.0,,FEW,25000.0,,,,,,
KRDR,09-23-2009,11:00,METAR,,300,4.0,,,9999.0,,7.0,5.0,30.18,1022.8,,,,,,,,,,,,,,,2/8 Mostly Clear,72000.0,,FEW,25000.0,,,,,,
KRDR,09-23-2009,10:00,METAR,,280,3.0,,,9999.0,,7.0,6.0,30.16,1022.3,,,,,,,,,,,,,,,Clear,72000.0,,,73000.0,,,,,,
KRDR,09-23-2009,09:00,METAR,,320,6.0,,,9999.0,,9.0,6.0,30.15,1021.8,,,,,,,,,,,,,,,Clear,72000.0,,,73000.0,,,,,,
KRDR,09-23-2009,08:00,METAR,,310,5.0,,,9999.0,,9.0,7.0,30.15,1021.7,,,,,,,,,,,,,,,Clear,72000.0,,,73000.0,,,,,,
KRDR,09-23-2009,07:00,METAR,,280,4.0,,,9999.0,,8.0,6.0,30.14,1021.5,,,,,,,,,,,,,,,Clear,72000.0,,,73000.0,,,,,,
KRDR,09-23-2009,06:00,METAR,,220,3.0,,,9999.0,,7.0,5.0,30.13,1021.2,,,,,,,,,,,,,,,Clear,72000.0,,,73000.0,,,,,,
KRDR,09-23-2009,05:00,METAR,,230,3.0,,,9999.0,,8.0,6.0,30.12,1020.9,,,,,,,,,,,,,,,Clear,72000.0,,,73000.0,,,,,,
KRDR,09-23-2009,04:00,METAR,,230,3.0,,,9999.0,,9.0,6.0,30.12,1020.9,,,,,,,,,,,,,,,Clear,72000.0,,,73000.0,,,,,,
KRDR,09-23-2009,03:00,METAR,,250,4.0,,,9999.0,,9.0,6.0,30.12,1021.1,,,,,,,,,,,,,,,2/8 Mostly Clear,72000.0,,FEW,15000.0,,,,,,
KRDR,09-23-2009,02:00,METAR,,290,3.0,,,9999.0,,10.0,7.0,30.12,1021.0,,,,,,,,,,,,,,,2/8 Mostly Clear,72000.0,,FEW,20000.0,,,,,,
KRDR,09-23-2009,01:00,METAR,,340,4.0,,,9999.0,,14.0,7.0,30.11,1020.6,,,,,,,,,,,,,,,2/8 Mostly Clear,72000.0,,FEW,12000.0,FEW,20000.0,,,,
KRDR,09-23-2009,00:00,METAR,,360,7.0,,,9999.0,,18.0,7.0,30.11,1020.4,,,,,,,,,,,,,,,2/8 Mostly Clear,72000.0,,FEW,20000.0,,,,,,
KRDR,09-22-2009,23:00,METAR,,350,8.0,,,9999.0,,20.0,5.0,30.10,1020.1,,,,,,,,,,,,,,,2/8 Mostly Clear,72000.0,,FEW,20000.0,,,,,,
KRDR,09-22-2009,22:00,METAR,,350,10.0,,,9999.0,,21.0,5.0,30.10,1020.0,,,,,,,,,,,,,,,2/8 Mostly Clear,72000.0,,FEW,25000.0,,,,,,
KRDR,09-22-2009,21:00,METAR,,350,9.0,,,9999.0,,20.0,7.0,30.10,1020.0,,,,,,,,,,,,,,,2/8 Mostly Clear,72000.0,,FEW,5900.0,FEW,25000.0,,,,
KRDR,09-22-2009,20:00,METAR,,20,11.0,16.0,,9999.0,,20.0,5.0,30.11,1020.3,,,,,,,,,,,,,,,2/8 Mostly Clear,72000.0,,FEW,5900.0,FEW,20000.0,,,,
KRDR,09-22-2009,19:00,METAR,,20,13.0,17.0,,9999.0,,19.0,6.0,30.12,1020.6,,,,,,,,,,,,,,,2/8 Mostly Clear,72000.0,,FEW,5900.0,FEW,20000.0,,,,
KRDR,09-22-2009,18:00,METAR,,350,10.0,22.0,,9999.0,,18.0,8.0,30.12,1020.8,,,,,,,,,,,,,,,2/8 Mostly Clear,72000.0,,FEW,5900.0,FEW,20000.0,,,,
KRDR,09-22-2009,17:00,METAR,,20,16.0,21.0,,9999.0,,18.0,8.0,30.12,1021.0,,,,,,,,,,,,,,,4/8 Partly Cloudy,72000.0,,FEW,4000.0,SCT,20000.0,,,,
KRDR,09-22-2009,16:00,METAR,,10,17.0,,,9999.0,,16.0,9.0,30.12,1020.8,,,,,,,,,,,,,,,4/8 Partly Cloudy,72000.0,,FEW,4000.0,FEW,7900.0,SCT,9900.0,,
KRDR,09-22-2009,15:00,METAR,,360,16.0,21.0,,9999.0,,15.0,9.0,30.10,1020.3,,,,,,,,,,,,,,,2/8 Mostly Clear,72000.0,,FEW,5400.0,FEW,25000.0,,,,
KRDR,09-22-2009,14:00,METAR,,350,11.0,,,9999.0,,13.0,9.0,30.08,1019.5,,,,,,,,,,,,,,,7/8 Mostly Cloudy,25000.0,,SCT,3800.0,BKN,25000.0,,,,
KRDR,09-22-2009,13:00,METAR,,350,12.0,19.0,,9999.0,,13.0,9.0,30.07,1019.3,,,,,,,,,,,,,,,8/8 Overcast,3600.0,,OVC,3700.0,,,,,,
KRDR,09-22-2009,12:00,METAR,,360,13.0,,,9999.0,,14.0,10.0,30.06,1018.9,,,,,,,,,,,,,,,8/8 Overcast,3400.0,,OVC,3500.0,,,,,,
KRDR,09-22-2009,11:00,METAR,,360,11.0,18.0,,9999.0,,14.0,10.0,30.05,1018.3,,,,,,,,,,,,,,,8/8 Overcast,3100.0,,OVC,3200.0,,,,,,
KRDR,09-22-2009,10:00,METAR,,10,11.0,18.0,,9999.0,,14.0,10.0,30.02,1017.6,,,,,,,,,,,,,,,8/8 Overcast,2800.0,,OVC,2800.0,,,,,,
KRDR,09-22-2009,09:00,METAR,,10,13.0,,,9999.0,,14.0,11.0,30.01,1017.2,,,,,,,,,,,,,,,8/8 Overcast,2500.0,,OVC,2500.0,,,,,,
KRDR,09-22-2009,08:00,METAR,,10,13.0,23.0,,9999.0,,13.0,11.0,30.01,1017.1,,,,,,,,,,,,,,,8/8 Overcast,2700.0,,BKN,2700.0,OVC,3600.0,,,,
KRDR,09-22-2009,07:00,METAR,,360,13.0,20.0,,9999.0,,13.0,12.0,30.00,1016.9,,,,,,,,,,,,,,,8/8 Overcast,1800.0,,OVC,1800.0,,,,,,
KRDR,09-22-2009,06:00,METAR,,10,16.0,23.0,,9999.0,,13.0,12.0,29.99,1016.4,,,,,,,,,,,,,TRACE,,8/8 Overcast,1100.0,,OVC,1100.0,,,,,,
KRDR,09-22-2009,05:32,SPECI,,10,15.0,21.0,,9999.0,,13.0,13.0,29.99,1016.4,,,,,,,,,,,,,,,8/8 Overcast,1100.0,,OVC,1100.0,,,,,,
KRDR,09-22-2009,05:00,METAR,,360,16.0,,,9999.0,,13.0,13.0,29.99,1016.4,,,,,,,,,,,TRACE,,,,8/8 Overcast,1200.0,,OVC,1200.0,,,,,,
KRDR,09-22-2009,04:00,METAR,,10,14.0,23.0,360/26KTS,8000.0,Mist,13.0,13.0,29.98,1016.3,,,,,10,,,,,,TRACE,,,,8/8 Overcast,1100.0,,OVC,1100.0,,,,,,
KRDR,09-22-2009,03:12,SPECI,,10,17.0,21.0,,6400.0,Mist,13.0,13.0,29.96,,,,,,10,,,,,,,,,,8/8 Overcast,1100.0,,OVC,1100.0,,,,,,
KRDR,09-22-2009,03:00,METAR,,360,18.0,23.0,,9999.0,Mist,14.0,13.0,29.95,1015.2,,,,10,,,,,,,,TRACE,,,8/8 Overcast,1200.0,,OVC,1200.0,,,,,,
KRDR,09-22-2009,02:00,METAR,,10,17.0,,,9999.0,Mist,14.0,13.0,29.95,1015.0,,,,10,,,,,,,,,,,8/8 Overcast,1200.0,,OVC,1200.0,,,,,,
KRDR,09-22-2009,01:00,METAR,,10,15.0,20.0,,9999.0,Mist,14.0,14.0,29.92,1014.1,,,,,10,,,,,,TRACE,,,,8/8 Overcast,1100.0,,OVC,1100.0,,,,,,
KRDR,09-22-2009,00:08,SPECI,,360,13.0,,,4800.0,Rain,15.0,14.0,29.91,,,,,61,,,,,,,,,,,8/8 Overcast,1200.0,,OVC,1200.0,,,,,,
KRDR,09-22-2009,00:00,METAR,,360,12.0,,,9999.0,,15.0,14.0,29.91,1014.0,,,,,,,,,,,TRACE,,TRACE,,8/8 Overcast,1300.0,,OVC,1300.0,,,,,,
KRDR,09-21-2009,23:47,SPECI,,360,11.0,,,9999.0,,15.0,14.0,29.91,,,,,,,,,,,,,,,,8/8 Overcast,1300.0,,OVC,1300.0,,,,,,
KRDR,09-21-2009,23:11,SPECI,,10,12.0,,,3200.0,Rain,15.0,14.0,29.89,,,,,61,,,,,,,,,,,8/8 Overcast,1500.0,,OVC,1500.0,,,,,,
KRDR,09-21-2009,23:00,METAR,,10,15.0,19.0,,9999.0,,16.0,14.0,29.89,1013.1,,,,,,,,,,,,,,,8/8 Overcast,1500.0,,OVC,1500.0,,,,,,
KRDR,09-21-2009,22:00,METAR,,360,10.0,,,9999.0,,16.0,14.0,29.87,1012.6,,,,,,,,,,,,,,,8/8 Overcast,1400.0,,OVC,1400.0,,,,,,
KRDR,09-21-2009,21:00,METAR,,350,16.0,,,9999.0,,17.0,14.0,29.86,1012.1,,,,,,,,,,,,TRACE,,,7/8 Mostly Cloudy,1300.0,,BKN,1300.0,,,,,,
KRDR,09-21-2009,20:46,SPECI,,10,10.0,,,9999.0,,17.0,14.0,29.85,,,,,,,,,,,,,,,,8/8 Overcast,1400.0,,OVC,1400.0,,,,,,
KRDR,09-21-2009,20:02,SPECI,,10,7.0,,,6400.0,Rain/Mist,17.0,14.0,29.84,,,,,61,10,,,,,,,,,,8/8 Overcast,1600.0,,OVC,1600.0,,,,,,
KRDR,09-21-2009,20:00,METAR,,340,8.0,,,9999.0,,17.0,14.0,29.84,1011.6,,,,,,,,,,,,,,,8/8 Overcast,1700.0,,OVC,1700.0,,,,,,
KRDR,09-21-2009,19:00,METAR,,320,7.0,,,9999.0,,17.0,13.0,29.84,1011.6,,,,,,,,,,,,,,,8/8 Overcast,1500.0,,OVC,1500.0,,,,,,
KRDR,09-21-2009,18:40,SPECI,,310,6.0,,,9999.0,,17.0,13.0,29.84,1011.5,,,,,,,,,,,,,,,8/8 Overcast,1500.0,,OVC,1500.0,,,,,,
KRDR,09-21-2009,18:32,SPECI,,310,8.0,,,9999.0,,17.0,13.0,29.84,1011.5,,,,,,,,,,,,,,,8/8 Overcast,1400.0,,OVC,1400.0,,,,,,
KRDR,09-21-2009,18:00,METAR,,320,7.0,,,9999.0,,17.0,13.0,29.83,1011.2,,,,,,,,,,,,,,,7/8 Mostly Cloudy,1800.0,,BKN,1800.0,BKN,4000.0,,,,
KRDR,09-21-2009,17:00,METAR,,310,5.0,,,9999.0,,17.0,13.0,29.82,1010.9,,,,,,,,,,,,,,,8/8 Overcast,3900.0,,SCT,1800.0,OVC,4000.0,,,,
KRDR,09-21-2009,16:00,METAR,,320,6.0,,,9999.0,,17.0,12.0,29.80,1010.3,,,,,,,,,,,,,,,8/8 Overcast,3900.0,,SCT,2000.0,OVC,4000.0,,,,
KRDR,09-21-2009,15:00,METAR,,320,10.0,,,9999.0,,16.0,12.0,29.78,1009.5,,,,,,,,,,,,,,,7/8 Mostly Cloudy,4900.0,,SCT,2000.0,BKN,5000.0,,,,
KRDR,09-21-2009,14:00,METAR,,310,10.0,,,9999.0,,16.0,11.0,29.75,1008.7,,,,,,,,,,,,,,,4/8 Partly Cloudy,72000.0,,SCT,8900.0,,,,,,
KRDR,09-21-2009,13:00,METAR,,300,9.0,,,9999.0,,14.0,11.0,29.76,1009.0,,,,,,,,,,,,,,,4/8 Partly Cloudy,72000.0,,SCT,8900.0,,,,,,
KRDR,09-21-2009,12:00,METAR,,310,7.0,,,9999.0,,14.0,11.0,29.75,1008.5,,,,,,,,,,,,,,,4/8 Partly Cloudy,72000.0,,SCT,7900.0,,,,,,
KRDR,09-21-2009,11:00,METAR,,300,7.0,,,9999.0,,15.0,11.0,29.73,1007.9,,,,,,,,,,,,,,,4/8 Partly Cloudy,72000.0,,SCT,9400.0,,,,,,
KRDR,09-21-2009,10:00,METAR,,290,10.0,,,9999.0,,15.0,11.0,29.73,1008.0,,,,,,,,,,,,,,,4/8 Partly Cloudy,72000.0,,SCT,11000.0,,,,,,
KRDR,09-21-2009,09:00,METAR,,310,6.0,,,9999.0,,16.0,12.0,29.71,1007.3,,,,,,,,,,,,,,,2/8 Mostly Clear,72000.0,,FEW,7900.0,,,,,,
KRDR,09-21-2009,08:00,METAR,,190,6.0,,,9999.0,,15.0,12.0,29.70,1007.0,,,,,,,,,,,,,,,Clear,72000.0,,,73000.0,,,,,,
KRDR,09-21-2009,07:00,METAR,,210,5.0,,,9999.0,,17.0,12.0,29.70,1007.0,,,,,,,,,,,,,,,Clear,72000.0,,,73000.0,,,,,,
KRDR,09-21-2009,06:00,METAR,,180,10.0,,,9999.0,,19.0,12.0,29.70,1007.0,,,,,,,,,,,,,,,7/8 Mostly Cloudy,7000.0,,BKN,6900.0,,,,,,
KRDR,09-21-2009,05:00,METAR,,160,11.0,,,9999.0,,19.0,12.0,29.71,1007.3,,,,,,,,,,,,,,,4/8 Partly Cloudy,72000.0,,SCT,6400.0,,,,,,
KRDR,09-21-2009,04:00,METAR,,150,8.0,,,9999.0,,18.0,12.0,29.71,1007.4,,,,,,,,,,,,,,,Clear,72000.0,,,73000.0,,,,,,
KRDR,09-21-2009,03:00,METAR,,140,7.0,,,9999.0,,19.0,11.0,29.72,1007.5,,,,,,,,,,,,,,,Clear,72000.0,,,73000.0,,,,,,
KRDR,09-21-2009,02:00,METAR,,150,9.0,,,9999.0,,20.0,11.0,29.72,1007.6,,,,,,,,,,,,,,,Clear,72000.0,,,73000.0,,,,,,
KRDR,09-21-2009,01:00,METAR,,150,9.0,,,9999.0,,21.0,11.0,29.72,1007.6,,,,,,,,,,,,,,,Clear,72000.0,,,73000.0,,,,,,
KRDR,09-21-2009,00:00,METAR,,160,16.0,,170/26KTS,9999.0,,23.0,11.0,29.71,1007.4,,,,,,,,,,,,,,,7/8 Mostly Cloudy,25000.0,,BKN,25000.0,,,,,,
KRDR,09-20-2009,23:00,METAR,,160,17.0,22.0,,9999.0,,24.0,12.0,29.71,1007.3,,,,,,,,,,,,,,,7/8 Mostly Cloudy,25000.0,,BKN,25000.0,,,,,,
KRDR,09-20-2009,22:00,METAR,,170,19.0,24.0,170/28KTS,9999.0,,25.0,12.0,29.72,1007.5,,,,,,,,,,,,,,,4/8 Partly Cloudy,72000.0,,SCT,25000.0,,,,,,
KRDR,09-20-2009,21:00,METAR,,170,17.0,26.0,170/27KTS,9999.0,,26.0,12.0,29.73,1007.8,,,,,,,,,,,,,,,4/8 Partly Cloudy,72000.0,,SCT,25000.0,,,,,,
KRDR,09-20-2009,20:00,METAR,,160,21.0,24.0,160/26KTS,9999.0,,26.0,11.0,29.75,1008.5,,,,,,,,,,,,,,,Clear,72000.0,,,73000.0,,,,,,
KRDR,09-20-2009,19:00,METAR,,170,19.0,26.0,170/27KTS,9999.0,,25.0,10.0,29.77,1009.3,,,,,,,,,,,,,,,Clear,72000.0,,,73000.0,,,,,,
KRDR,09-20-2009,18:00,METAR,,180,19.0,27.0,190/27KTS,9999.0,,24.0,10.0,29.80,1010.2,,,,,,,,,,,,,,,Clear,72000.0,,,73000.0,,,,,,
KRDR,09-20-2009,17:00,METAR,,160,18.0,28.0,170/28KTS,9999.0,,22.0,10.0,29.82,1010.8,,,,,,,,,,,,,,,Clear,72000.0,,,73000.0,,,,,,
KRDR,09-20-2009,16:00,METAR,,180,15.0,21.0,180/26KTS,9999.0,,19.0,11.0,29.83,1011.3,,,,,,,,,,,,,,,Clear,72000.0,,,73000.0,,,,,,
KRDR,09-20-2009,15:00,METAR,,160,14.0,,,9999.0,,18.0,11.0,29.84,1011.7,,,,,,,,,,,,,,,Clear,72000.0,,,73000.0,,,,,,
KRDR,09-20-2009,14:00,METAR,,160,11.0,,,9999.0,,16.0,11.0,29.85,1012.0,,,,,,,,,,,,,,,Clear,72000.0,,,73000.0,,,,,,
KRDR,09-20-2009,13:00,METAR,,170,10.0,,,9999.0,,13.0,11.0,29.86,1012.1,,,,,,,,,,,,,,,Clear,72000.0,,,73000.0,,,,,,
KRDR,09-20-2009,12:00,METAR,,160,11.0,,,9999.0,,12.0,11.0,29.86,1012.3,,,,,,,,,,,,,,,Clear,72000.0,,,73000.0,,,,,,
KRDR,09-20-2009,11:00,METAR,,160,10.0,,,9999.0,,13.0,11.0,29.88,1012.8,,,,,,,,,,,,,,,Clear,72000.0,,,73000.0,,,,,,
KRDR,09-20-2009,10:00,METAR,,160,9.0,,,9999.0,,14.0,11.0,29.89,1013.3,,,,,,,,,,,,,,,Clear,72000.0,,,73000.0,,,,,,
KRDR,09-20-2009,09:00,METAR,,180,10.0,,,9999.0,,16.0,12.0,29.91,1013.8,,,,,,,,,,,,,,,Clear,72000.0,,,73000.0,,,,,,
KRDR,09-20-2009,08:00,METAR,,190,11.0,,,9999.0,,18.0,12.0,29.91,1014.0,,,,,,,,,,,,,,,Clear,72000.0,,,73000.0,,,,,,
KRDR,09-20-2009,07:00,METAR,,190,12.0,,,9999.0,,19.0,12.0,29.93,1014.4,,,,,,,,,,,,,,,Clear,72000.0,,,73000.0,,,,,,
KRDR,09-20-2009,06:00,METAR,,180,10.0,,,9999.0,,19.0,12.0,29.93,1014.6,,,,,,,,,,,,,,,Clear,72000.0,,,73000.0,,,,,,
KRDR,09-20-2009,05:00,METAR,,190,11.0,,,9999.0,,20.0,12.0,29.94,1014.7,,,,,,,,,,,,,,,Clear,72000.0,,,73000.0,,,,,,
KRDR,09-20-2009,04:00,METAR,,190,11.0,,,9999.0,,20.0,12.0,29.94,1014.9,,,,,,,,,,,,,,,Clear,72000.0,,,73000.0,,,,,,
KRDR,09-20-2009,03:00,METAR,,180,9.0,,,9999.0,,19.0,12.0,29.94,1015.0,,,,,,,,,,,,,,,Clear,72000.0,,,73000.0,,,,,,
KRDR,09-20-2009,02:00,METAR,,170,10.0,,,9999.0,,20.0,13.0,29.94,1015.0,,,,,,,,,,,,,,,Clear,72000.0,,,73000.0,,,,,,
KRDR,09-20-2009,01:00,METAR,,170,9.0,,,9999.0,,22.0,13.0,29.94,1014.7,,,,,,,,,,,,,,,Clear,72000.0,,,73000.0,,,,,,
KRDR,09-20-2009,00:00,METAR,,180,9.0,,,9999.0,,26.0,14.0,29.94,1014.9,,,,,,,,,,,,,,,Clear,72000.0,,,73000.0,,,,,,
KRDR,09-19-2009,23:00,METAR,,200,12.0,21.0,,9999.0,,28.0,14.0,29.95,1015.1,,,,,,,,,,,,,,,Clear,72000.0,,,73000.0,,,,,,
KRDR,09-19-2009,22:00,METAR,,220,15.0,,,9999.0,,29.0,14.0,29.95,1015.3,,,,,,,,,,,,,,,Clear,72000.0,,,73000.0,,,,,,
KRDR,09-19-2009,21:00,METAR,,210,17.0,25.0,200/27KTS,9999.0,,29.0,13.0,29.96,1015.6,,,,,,,,,,,,,,,Clear,72000.0,,,73000.0,,,,,,
KRDR,09-19-2009,20:00,METAR,,220,13.0,22.0,,9999.0,,30.0,13.0,29.97,1015.9,,,,,,,,,,,,,,,Clear,72000.0,,,73000.0,,,,,,
KRDR,09-19-2009,19:00,METAR,,220,18.0,25.0,,9999.0,,29.0,11.0,29.99,1016.6,,,,,,,,,,,,,,,Clear,72000.0,,,73000.0,,,,,,
KRDR,09-19-2009,18:00,METAR,,210,13.0,,,9999.0,,29.0,14.0,30.01,1017.0,,,,,,,,,,,,,,,Clear,72000.0,,,73000.0,,,,,,
KRDR,09-19-2009,17:00,METAR,,220,10.0,,,9999.0,,27.0,13.0,30.02,1017.6,,,,,,,,,,,,,,,Clear,72000.0,,,73000.0,,,,,,
KRDR,09-19-2009,16:00,METAR,,210,10.0,,,9999.0,,24.0,14.0,30.03,1017.9,,,,,,,,,,,,,,,Clear,72000.0,,,73000.0,,,,,,
KRDR,09-19-2009,15:00,METAR,,210,11.0,,,9999.0,,21.0,14.0,30.03,1017.9,,,,,,,,,,,,,,,Clear,72000.0,,,73000.0,,,,,,
KRDR,09-19-2009,14:00,METAR,,200,9.0,,,9999.0,,18.0,14.0,30.04,1018.2,,,,,,,,,,,,,,,Clear,72000.0,,,73000.0,,,,,,
KRDR,09-19-2009,13:00,METAR,,190,7.0,,,9999.0,,16.0,14.0,30.04,1018.2,,,,,,,,,,,,,,,Clear,72000.0,,,73000.0,,,,,,
KRDR,09-19-2009,12:00,METAR,,190,7.0,,,9999.0,,16.0,13.0,30.04,1018.0,,,,,,,,,,,,,,,Clear,72000.0,,,73000.0,,,,,,
KRDR,09-19-2009,10:00,METAR,,170,7.0,,,9999.0,,17.0,14.0,30.05,1018.4,,,,,,,,,,,,,,,Clear,72000.0,,,73000.0,,,,,,
KRDR,09-19-2009,09:00,METAR,,210,8.0,,,9999.0,,19.0,14.0,30.05,1018.3,,,,,,,,,,,,,,,Clear,72000.0,,,73000.0,,,,,,
KRDR,09-19-2009,08:00,METAR,,220,9.0,,,9999.0,,19.0,14.0,30.04,1018.3,,,,,,,,,,,,,,,Clear,72000.0,,,73000.0,,,,,,
KRDR,09-19-2009,07:00,METAR,,210,10.0,,,9999.0,,20.0,14.0,30.05,1018.5,,,,,,,,,,,,,,,Clear,72000.0,,,73000.0,,,,,,
KRDR,09-19-2009,06:00,METAR,,200,8.0,,,9999.0,,20.0,14.0,30.06,1018.7,,,,,,,,,,,,,,,Clear,72000.0,,,73000.0,,,,,,
KRDR,09-19-2009,05:00,METAR,,200,11.0,,,9999.0,,21.0,14.0,30.06,1018.7,,,,,,,,,,,,,,,Clear,72000.0,,,73000.0,,,,,,
KRDR,09-19-2009,04:00,METAR,,200,9.0,,,9999.0,,20.0,14.0,30.06,1018.8,,,,,,,,,,,,,,,Clear,72000.0,,,73000.0,,,,,,
KRDR,09-19-2009,03:00,METAR,,190,7.0,,,9999.0,,20.0,14.0,30.06,1018.8,,,,,,,,,,,,,,,Clear,72000.0,,,73000.0,,,,,,
KRDR,09-19-2009,02:00,METAR,,170,7.0,,,9999.0,,21.0,15.0,30.06,1018.7,,,,,,,,,,,,,,,Clear,72000.0,,,73000.0,,,,,,
KRDR,09-19-2009,01:00,METAR,,150,6.0,,,9999.0,,23.0,15.0,30.05,1018.5,,,,,,,,,,,,,,,Clear,72000.0,,,73000.0,,,,,,
KRDR,09-19-2009,00:00,METAR,,170,6.0,,,9999.0,,26.0,15.0,30.04,1018.3,,,,,,,,,,,,,,,Clear,72000.0,,,73000.0,,,,,,
KRDR,09-18-2009,23:00,METAR,,190,9.0,,,9999.0,,28.0,14.0,30.04,1018.2,,,,,,,,,,,,,,,2/8 Mostly Clear,72000.0,,FEW,25000.0,,,,,,
KRDR,09-18-2009,22:00,METAR,,190,10.0,,,9999.0,,29.0,15.0,30.05,1018.5,,,,,,,,,,,,,,,2/8 Mostly Clear,72000.0,,FEW,25000.0,,,,,,
KRDR,09-18-2009,21:00,METAR,,180,13.0,18.0,,9999.0,,29.0,15.0,30.07,1019.0,,,,,,,,,,,,,,,2/8 Mostly Clear,72000.0,,FEW,6900.0,FEW,25000.0,,,,
KRDR,09-18-2009,20:00,METAR,,190,9.0,16.0,,9999.0,,29.0,15.0,30.08,1019.6,,,,,,,,,,,,,,,2/8 Mostly Clear,72000.0,,FEW,25000.0,,,,,,
KRDR,09-18-2009,19:00,METAR,,190,11.0,,,9999.0,,28.0,15.0,30.10,1020.2,,,,,,,,,,,,,,,2/8 Mostly Clear,72000.0,,FEW,25000.0,,,,,,
KRDR,09-18-2009,18:00,METAR,,190,9.0,,,9999.0,,27.0,15.0,30.12,1020.7,,,,,,,,,,,,,,,Clear,72000.0,,,73000.0,,,,,,
KRDR,09-18-2009,17:00,METAR,,170,9.0,,,9999.0,,25.0,16.0,30.13,1021.0,,,,,,,,,,,,,,,2/8 Mostly Clear,72000.0,,FEW,25000.0,,,,,,
KRDR,09-18-2009,16:00,METAR,,160,9.0,,,9999.0,,23.0,16.0,30.13,1021.2,,,,,,,,,,,,,,,2/8 Mostly Clear,72000.0,,FEW,25000.0,,,,,,
KRDR,09-18-2009,15:00,METAR,,160,7.0,,,9999.0,,19.0,15.0,30.13,1021.3,,,,,,,,,,,,,,,2/8 Mostly Clear,72000.0,,FEW,25000.0,,,,,,
KRDR,09-18-2009,14:00,METAR,,140,6.0,,,9999.0,,16.0,14.0,30.14,1021.3,,,,,,,,,,,,,,,4/8 Partly Cloudy,72000.0,,FEW,6900.0,SCT,25000.0,,,,
KRDR,09-18-2009,13:00,METAR,,140,4.0,,,9999.0,,15.0,13.0,30.14,1021.5,,,,,,,,,,,,,,,Clear,72000.0,,,73000.0,,,,,,
KRDR,09-18-2009,12:00,METAR,,140,5.0,,,9999.0,,15.0,14.0,30.13,1021.1,,,,,,,,,,,,,,,4/8 Partly Cloudy,72000.0,,SCT,7400.0,,,,,,
KRDR,09-18-2009,11:00,METAR,,160,8.0,,,9999.0,,16.0,14.0,30.12,1020.8,,,,,,,,,,,,,,,2/8 Mostly Clear,72000.0,,FEW,6900.0,,,,,,
KRDR,09-18-2009,10:00,METAR,,,0.0,,,9999.0,,14.0,12.0,30.13,1021.1,,,,,,,,,,,,,,,Clear,72000.0,,,73000.0,,,,,,
KRDR,09-18-2009,09:00,METAR,,,0.0,,,9999.0,,14.0,13.0,30.13,1021.1,,,,,,,,,,,,,,,Clear,72000.0,,,73000.0,,,,,,
KRDR,09-18-2009,08:00,METAR,,160,4.0,,,9999.0,,16.0,13.0,30.13,1021.0,,,,,,,,,,,,,,,Clear,72000.0,,,73000.0,,,,,,
KRDR,09-18-2009,07:00,METAR,,140,4.0,,,9999.0,,17.0,14.0,30.13,1021.3,,,,,,,,,,,,,,,2/8 Mostly Clear,72000.0,,FEW,5000.0,,,,,,
KRDR,09-18-2009,06:00,METAR,,130,3.0,,,9999.0,,18.0,14.0,30.13,1021.1,,,,,,,,,,,,,,,4/8 Partly Cloudy,72000.0,,SCT,6900.0,,,,,,
KRDR,09-18-2009,05:00,METAR,,,0.0,,,9999.0,,17.0,14.0,30.12,1020.9,,,,,,,,,,,,,,,2/8 Mostly Clear,72000.0,,FEW,6900.0,,,,,,
KRDR,09-18-2009,04:00,METAR,,150,5.0,,,9999.0,,18.0,14.0,30.12,1020.9,,,,,,,,,,,,,,,2/8 Mostly Clear,72000.0,,FEW,6400.0,,,,,,
KRDR,09-18-2009,03:00,METAR,,120,5.0,,,9999.0,,20.0,14.0,30.11,1020.6,,,,,,,,,,,,,,,2/8 Mostly Clear,72000.0,,FEW,6400.0,,,,,,
KRDR,09-18-2009,02:00,METAR,,110,5.0,,,9999.0,,22.0,14.0,30.11,1020.5,,,,,,,,,,,,,,,2/8 Mostly Clear,72000.0,,FEW,25000.0,,,,,,
KRDR,09-18-2009,01:00,METAR,,120,5.0,,,9999.0,,23.0,14.0,30.11,1020.3,,,,,,,,,,,,,,,2/8 Mostly Clear,72000.0,,FEW,6900.0,FEW,25000.0,,,,
KRDR,09-18-2009,00:14,SPECI,,120,6.0,,,9999.0,,24.0,14.0,30.10,,,,,,,,,,,,,,,,4/8 Partly Cloudy,72000.0,,FEW,6900.0,SCT,25000.0,,,,
KRDR,09-18-2009,00:00,METAR,,130,4.0,,,9999.0,,26.0,14.0,30.10,1020.2,,,,,,,,,,,,,,,4/8 Partly Cloudy,72000.0,,FEW,6400.0,SCT,25000.0,,,,
KRDR,09-17-2009,22:00,METAR,,140,5.0,,,9999.0,,27.0,13.0,30.11,1020.4,,,,,,,,,,,,,,,4/8 Partly Cloudy,72000.0,,FEW,6400.0,SCT,25000.0,,,,
KRDR,09-17-2009,21:00,METAR,,110,7.0,,,9999.0,,28.0,13.0,30.12,1020.7,,,,,,,,,,,,,,,4/8 Partly Cloudy,72000.0,,FEW,6900.0,SCT,25000.0,,,,
KRDR,09-17-2009,20:00,METAR,,110,7.0,,,9999.0,,28.0,13.0,30.13,1021.0,,,,,,,,,,,,,,,4/8 Partly Cloudy,72000.0,,FEW,6400.0,SCT,25000.0,,,,
KRDR,09-17-2009,19:00,METAR,,110,8.0,,,9999.0,,27.0,13.0,30.14,1021.4,,,,,,,,,,,,,,,4/8 Partly Cloudy,72000.0,,FEW,6400.0,SCT,25000.0,,,,
KRDR,09-17-2009,18:00,METAR,,130,7.0,,,9999.0,,26.0,14.0,30.15,1021.9,,,,,,,,,,,,,,,Clear,72000.0,,,73000.0,,,,,,
KRDR,09-17-2009,17:00,METAR,,,4.0,,,9999.0,,25.0,15.0,30.16,1022.1,,,,,,,,,,,,,,,Clear,72000.0,,,73000.0,,,,,,
KRDR,09-17-2009,16:00,METAR,,,0.0,,,9999.0,,23.0,16.0,30.16,1022.2,,,,,,,,,,,,,,,Clear,72000.0,,,73000.0,,,,,,
KRDR,09-17-2009,15:00,METAR,,,0.0,,,9999.0,,20.0,16.0,30.16,1022.2,,,,,,,,,,,,,,,Clear,72000.0,,,73000.0,,,,,,
KRDR,09-17-2009,14:00,METAR,,320,3.0,,,9999.0,,16.0,16.0,30.16,1022.1,,,,,,,,,,,,,,,Clear,72000.0,,,73000.0,,,,,,
KRDR,09-17-2009,13:00,METAR,,10,4.0,,,8000.0,Mist,12.0,12.0,30.16,1022.1,,,,10,,,,,,,,,,,Clear,72000.0,,,73000.0,,,,,,
KRDR,09-17-2009,12:00,METAR,,10,3.0,,,8000.0,Mist,13.0,13.0,30.16,1022.0,,,,10,,,,,,,,,,,Clear,72000.0,,,73000.0,,,,,,
KRDR,09-17-2009,11:00,METAR,,340,4.0,,,8000.0,Mist,13.0,13.0,30.16,1022.0,,,,10,,,,,,,,,,,Clear,72000.0,,,73000.0,,,,,,
KRDR,09-17-2009,10:00,METAR,,350,3.0,,,9999.0,,14.0,14.0,30.14,1021.5,,,,,,,,,,,,,,,Clear,72000.0,,,73000.0,,,,,,
KRDR,09-17-2009,09:03,SPECI,,,0.0,,,8000.0,Mist,14.0,14.0,30.13,1021.3,,,,10,,,,,,,,,,,Clear,72000.0,,,73000.0,,,,,,
KRDR,09-17-2009,09:00,SPECI,,,0.0,,,4800.0,Mist,14.0,14.0,30.14,1021.3,,,,10,,,,,,,,,,,Clear,72000.0,,,73000.0,,,,,,
KRDR,09-17-2009,08:55,METAR,,,0.0,,,2800.0,Mist,14.0,14.0,30.13,1021.3,,,,10,,,,,,,,,,,Clear,72000.0,,,73000.0,,,,,,
KRDR,09-17-2009,08:00,METAR,,,0.0,,,9999.0,,15.0,15.0,30.14,1021.4,,,,,,,,,,,,,,,2/8 Mostly Clear,72000.0,,FEW,5900.0,,,,,,
KRDR,09-17-2009,07:00,METAR,,,0.0,,,9999.0,,16.0,16.0,30.14,1021.4,,,,,,,,,,,,,,,Clear,72000.0,,,73000.0,,,,,,
KRDR,09-17-2009,06:00,METAR,,220,3.0,,,9999.0,,16.0,16.0,30.14,1021.5,,,,,,,,,,,,,,,2/8 Mostly Clear,72000.0,,FEW,5900.0,,,,,,
KRDR,09-17-2009,05:00,METAR,,290,4.0,,,9999.0,,17.0,16.0,30.14,1021.3,,,,,,,,,,,,,,,Clear,72000.0,,,73000.0,,,,,,
KRDR,09-17-2009,04:00,METAR,,290,5.0,,,9999.0,,19.0,16.0,30.14,1021.4,,,,,,,,,,,,,,,Clear,72000.0,,,73000.0,,,,,,
KRDR,09-17-2009,03:00,METAR,,290,6.0,,,9999.0,,22.0,17.0,30.13,1021.1,,,,,,,,,,,,,,,Clear,72000.0,,,73000.0,,,,,,
KRDR,09-17-2009,02:00,METAR,,290,6.0,,,9999.0,,21.0,15.0,30.12,1020.9,,,,,,,,,,,,,,,Clear,72000.0,,,73000.0,,,,,,
KRDR,09-17-2009,01:00,METAR,,180,7.0,,,9999.0,,23.0,16.0,30.12,1020.6,,,,,,,,,,,,,,,7/8 Mostly Cloudy,25000.0,,SCT,6400.0,BKN,25000.0,,,,
KRDR,09-17-2009,00:00,METAR,,190,5.0,,,9999.0,,25.0,17.0,30.12,1020.8,,,,,,,,,,,,,,,7/8 Mostly Cloudy,25000.0,,SCT,6900.0,BKN,25000.0,,,,
KRDR,09-16-2009,23:00,METAR,,200,6.0,,,9999.0,,28.0,16.0,30.13,1021.0,,,,,,,,,,,,,,,4/8 Partly Cloudy,72000.0,,FEW,6400.0,SCT,25000.0,,,,
KRDR,09-16-2009,22:00,METAR,,220,8.0,,,9999.0,,29.0,16.0,30.13,1021.2,,,,,,,,,,,,,,,4/8 Partly Cloudy,72000.0,,FEW,6400.0,SCT,25000.0,,,,
KRDR,09-16-2009,21:00,METAR,,220,11.0,,,9999.0,,29.0,16.0,30.14,1021.4,,,,,,,,,,,,,,,4/8 Partly Cloudy,72000.0,,FEW,5900.0,SCT,25000.0,,,,
KRDR,09-16-2009,20:00,METAR,,200,12.0,18.0,,9999.0,,29.0,15.0,30.15,1021.6,,,,,,,,,,,,,,,2/8 Mostly Clear,72000.0,,FEW,25000.0,,,,,,
KRDR,09-16-2009,19:00,METAR,,190,12.0,,,9999.0,,28.0,15.0,30.16,1022.2,,,,,,,,,,,,,,,2/8 Mostly Clear,72000.0,,FEW,25000.0,,,,,,
KRDR,09-16-2009,18:00,METAR,,200,11.0,,,9999.0,,28.0,14.0,30.17,1022.6,,,,,,,,,,,,,,,Clear,72000.0,,,73000.0,,,,,,
KRDR,09-16-2009,17:00,METAR,,200,12.0,,,9999.0,,26.0,14.0,30.19,1023.0,,,,,,,,,,,,,,,Clear,72000.0,,,73000.0,,,,,,
KRDR,09-16-2009,16:00,METAR,,190,10.0,,,9999.0,,24.0,15.0,30.20,1023.3,,,,,,,,,,,,,,,Clear,72000.0,,,73000.0,,,,,,
KRDR,09-16-2009,15:00,METAR,,170,8.0,,,9999.0,,21.0,15.0,30.20,1023.4,,,,,,,,,,,,,,,Clear,72000.0,,,73000.0,,,,,,
KRDR,09-16-2009,14:00,METAR,,190,5.0,,,9999.0,,17.0,15.0,30.20,1023.6,,,,,,,,,,,,,,,Clear,72000.0,,,73000.0,,,,,,
KRDR,09-16-2009,13:00,METAR,,180,5.0,,,9999.0,,14.0,13.0,30.21,1023.7,,,,,,,,,,,,,,,Clear,72000.0,,,73000.0,,,,,,
KRDR,09-16-2009,12:00,METAR,,190,5.0,,,9999.0,,14.0,13.0,30.21,1023.7,,,,,,,,,,,,,,,Clear,72000.0,,,73000.0,,,,,,
KRDR,09-16-2009,11:00,METAR,,170,5.0,,,9999.0,,14.0,13.0,30.20,1023.5,,,,,,,,,,,,,,,Clear,72000.0,,,73000.0,,,,,,
KRDR,09-16-2009,10:00,METAR,,180,6.0,,,9999.0,,14.0,13.0,30.20,1023.4,,,,,,,,,,,,,,,Clear,72000.0,,,73000.0,,,,,,
KRDR,09-16-2009,09:00,METAR,,180,5.0,,,9999.0,,13.0,12.0,30.19,1023.2,,,,,,,,,,,,,,,Clear,72000.0,,,73000.0,,,,,,
KRDR,09-16-2009,08:00,METAR,,200,5.0,,,9999.0,,13.0,13.0,30.19,1023.1,,,,,,,,,,,,,,,Clear,72000.0,,,73000.0,,,,,,
KRDR,09-16-2009,07:00,METAR,,190,4.0,,,9999.0,,14.0,13.0,30.18,1022.8,,,,,,,,,,,,,,,Clear,72000.0,,,73000.0,,,,,,
KRDR,09-16-2009,06:00,METAR,,210,4.0,,,9999.0,,14.0,13.0,30.18,1022.7,,,,,,,,,,,,,,,Clear,72000.0,,,73000.0,,,,,,
KRDR,09-16-2009,05:00,METAR,,190,5.0,,,9999.0,,14.0,13.0,30.18,1022.7,,,,,,,,,,,,,,,Clear,72000.0,,,73000.0,,,,,,
KRDR,09-16-2009,04:00,METAR,,180,3.0,,,9999.0,,16.0,14.0,30.18,1022.7,,,,,,,,,,,,,,,Clear,72000.0,,,73000.0,,,,,,
KRDR,09-16-2009,03:00,METAR,,190,4.0,,,9999.0,,16.0,14.0,30.17,1022.6,,,,,,,,,,,,,,,Clear,72000.0,,,73000.0,,,,,,
KRDR,09-16-2009,02:00,METAR,,,0.0,,,9999.0,,17.0,14.0,30.17,1022.4,,,,,,,,,,,,,,,Clear,72000.0,,,73000.0,,,,,,
KRDR,09-16-2009,01:00,METAR,,150,3.0,,,9999.0,,22.0,15.0,30.15,1021.8,,,,,,,,,,,,,,,Clear,72000.0,,,73000.0,,,,,,
KRDR,09-16-2009,00:00,METAR,,180,7.0,,,9999.0,,24.0,16.0,30.14,1021.5,,,,,,,,,,,,,,,Clear,72000.0,,,73000.0,,,,,,
KRDR,09-15-2009,23:00,METAR,,170,8.0,,,9999.0,,26.0,15.0,30.14,1021.3,,,,,,,,,,,,,,,Clear,72000.0,,,73000.0,,,,,,
KRDR,09-15-2009,22:00,METAR,,190,7.0,,,9999.0,,26.0,15.0,30.13,1021.2,,,,,,,,,,,,,,,2/8 Mostly Clear,72000.0,,FEW,5000.0,,,,,,
KRDR,09-15-2009,21:00,METAR,,140,9.0,,,9999.0,,27.0,15.0,30.12,1020.9,,,,,,,,,,,,,,,2/8 Mostly Clear,72000.0,,FEW,5000.0,,,,,,
KRDR,09-15-2009,20:00,METAR,,170,13.0,,,9999.0,,27.0,15.0,30.13,1021.0,,,,,,,,,,,,,,,2/8 Mostly Clear,72000.0,,FEW,4500.0,,,,,,
KRDR,09-15-2009,19:00,METAR,,150,10.0,,,9999.0,,26.0,15.0,30.13,1021.3,,,,,,,,,,,,,,,2/8 Mostly Clear,72000.0,,FEW,5000.0,,,,,,
KRDR,09-15-2009,18:00,METAR,,150,10.0,,,9999.0,,26.0,15.0,30.14,1021.4,,,,,,,,,,,,,,,Clear,72000.0,,,73000.0,,,,,,
KRDR,09-15-2009,17:00,METAR,,160,9.0,,,9999.0,,24.0,16.0,30.14,1021.5,,,,,,,,,,,,,,,Clear,72000.0,,,73000.0,,,,,,
KRDR,09-15-2009,16:00,METAR,,170,5.0,,,9999.0,,22.0,16.0,30.14,1021.4,,,,,,,,,,,,,,,Clear,72000.0,,,73000.0,,,,,,
KRDR,09-15-2009,15:00,METAR,,140,5.0,,,9999.0,,19.0,16.0,30.13,1021.1,,,,,,,,,,,,,,,2/8 Mostly Clear,72000.0,,FEW,25000.0,,,,,,
KRDR,09-15-2009,14:00,METAR,,160,3.0,,,9999.0,,16.0,15.0,30.11,1020.6,,,,,,,,,,,,,,,Clear,72000.0,,,73000.0,,,,,,
KRDR,09-15-2009,13:00,METAR,,140,3.0,,,4800.0,Mist,13.0,13.0,30.11,1020.3,,,,10,,,,,,,,,,,2/8 Mostly Clear,72000.0,,FEW,25000.0,,,,,,
KRDR,09-15-2009,12:37,SPECI,,140,4.0,,,4800.0,Mist,13.0,13.0,30.10,,,,,10,,,,,,,,,,,2/8 Mostly Clear,72000.0,,FEW,25000.0,,,,,,
KRDR,09-15-2009,12:00,METAR,,130,3.0,,,8000.0,Mist,13.0,13.0,30.09,1019.9,,,,10,,,,,,,,,,,2/8 Mostly Clear,72000.0,,FEW,25000.0,,,,,,
KRDR,09-15-2009,11:00,METAR,,150,4.0,,,9999.0,,13.0,13.0,30.08,1019.5,,,,,,,,,,,,,,,Clear,72000.0,,,73000.0,,,,,,
KRDR,09-15-2009,10:00,METAR,,140,3.0,,,9999.0,Mist,14.0,13.0,30.07,,,,,10,,,,,,,,,,,Clear,72000.0,,,73000.0,,,,,,
KRDR,09-15-2009,09:00,METAR,,,0.0,,,9999.0,,14.0,13.0,30.06,1018.8,,,,,,,,,,,,,,,Clear,72000.0,,,73000.0,,,,,,
KRDR,09-15-2009,08:00,METAR,,170,4.0,,,9999.0,,15.0,14.0,30.06,1018.7,,,,,,,,,,,,,,,Clear,72000.0,,,73000.0,,,,,,
KRDR,09-15-2009,07:00,METAR,,160,6.0,,,9999.0,,15.0,14.0,30.04,1018.3,,,,,,,,,,,,,,,Clear,72000.0,,,73000.0,,,,,,
KRDR,09-15-2009,06:00,METAR,,140,5.0,,,9999.0,,16.0,14.0,30.04,1018.0,,,,,,,,,,,,,,,Clear,72000.0,,,73000.0,,,,,,
KRDR,09-15-2009,05:00,METAR,,160,4.0,,,9999.0,,16.0,14.0,30.03,1017.7,,,,,,,,,,,,,,,Clear,72000.0,,,73000.0,,,,,,
KRDR,09-15-2009,04:00,METAR,,150,8.0,,,9999.0,,17.0,15.0,30.02,1017.5,,,,,,,,,,,,,,,Clear,72000.0,,,73000.0,,,,,,
KRDR,09-15-2009,03:00,METAR,,140,8.0,,,9999.0,,19.0,15.0,30.01,1017.2,,,,,,,,,,,,,,,4/8 Partly Cloudy,72000.0,,SCT,20000.0,,,,,,
KRDR,09-15-2009,02:00,METAR,,130,7.0,,,9999.0,,20.0,15.0,30.00,1017.0,,,,,,,,,,,,,,,4/8 Partly Cloudy,72000.0,,SCT,20000.0,,,,,,
KRDR,09-15-2009,01:00,METAR,,130,6.0,,,9999.0,,21.0,15.0,29.99,1016.7,,,,,,,,,,,,,,,4/8 Partly Cloudy,72000.0,,SCT,20000.0,,,,,,
KRDR,09-15-2009,00:00,METAR,,140,6.0,,,9999.0,,24.0,15.0,29.99,1016.6,,,,,,,,,,,,,,,4/8 Partly Cloudy,72000.0,,SCT,20000.0,,,,,,
KRDR,09-14-2009,23:00,METAR,,160,8.0,,,9999.0,,26.0,14.0,29.99,1016.6,,,,,,,,,,,,,,,4/8 Partly Cloudy,72000.0,,SCT,20000.0,,,,,,
KRDR,09-14-2009,22:00,METAR,,160,14.0,,,9999.0,,26.0,14.0,29.99,1016.6,,,,,,,,,,,,,,,2/8 Mostly Clear,72000.0,,FEW,20000.0,,,,,,
KRDR,09-14-2009,21:00,METAR,,170,13.0,,,9999.0,,27.0,14.0,29.99,1016.7,,,,,,,,,,,,,,,2/8 Mostly Clear,72000.0,,FEW,20000.0,,,,,,
KRDR,09-14-2009,20:00,METAR,,160,18.0,,,9999.0,,27.0,14.0,30.00,1016.8,,,,,,,,,,,,,,,Clear,72000.0,,,73000.0,,,,,,
KRDR,09-14-2009,19:00,METAR,,170,14.0,20.0,,9999.0,,26.0,15.0,30.00,1017.0,,,,,,,,,,,,,,,4/8 Partly Cloudy,72000.0,,SCT,20000.0,,,,,,
KRDR,09-14-2009,18:00,METAR,,160,15.0,21.0,,9999.0,,26.0,15.0,30.01,1017.3,,,,,,,,,,,,,,,4/8 Partly Cloudy,72000.0,,FEW,5000.0,SCT,20000.0,,,,
KRDR,09-14-2009,17:00,METAR,,180,11.0,,,9999.0,,25.0,16.0,30.03,1017.9,,,,,,,,,,,,,,,,72000.0,,SCT,20000.0,,,,,,
KRDR,09-14-2009,16:00,METAR,,170,12.0,,,9999.0,,23.0,17.0,30.04,1018.1,,,,,,,,,,,,,,,4/8 Partly Cloudy,72000.0,,SCT,20000.0,,,,,,
KRDR,09-14-2009,15:00,METAR,,160,7.0,,,9999.0,,20.0,17.0,30.04,1018.2,,,,,,,,,,,,,,,2/8 Mostly Clear,72000.0,,FEW,20000.0,,,,,,
KRDR,09-14-2009,14:00,METAR,,150,8.0,,,9999.0,,17.0,17.0,30.04,1018.1,,,,,,,,,,,,,,,4/8 Partly Cloudy,72000.0,,SCT,20000.0,,,,,,
KRDR,09-14-2009,13:00,METAR,,170,4.0,,,9999.0,,14.0,14.0,30.04,1018.0,,,,,,,,,,,,,,,4/8 Partly Cloudy,72000.0,,SCT,20000.0,,,,,,
KRDR,09-14-2009,12:00,METAR,,150,3.0,,,9999.0,,14.0,14.0,30.02,1017.6,,,,,,,,,,,,,,,7/8 Mostly Cloudy,20000.0,,BKN,20000.0,,,,,,
KRDR,09-14-2009,11:00,METAR,,,0.0,,,9999.0,,14.0,14.0,30.02,1017.5,,,,,,,,,,,,,,,7/8 Mostly Cloudy,20000.0,,BKN,20000.0,,,,,,
KRDR,09-14-2009,10:00,METAR,,150,3.0,,,9999.0,,14.0,13.0,30.03,1017.8,,,,,,,,,,,,,,,7/8 Mostly Cloudy,20000.0,,BKN,20000.0,,,,,,
KRDR,09-14-2009,09:00,METAR,,,0.0,,,9999.0,,15.0,14.0,30.03,1017.8,,,,,,,,,,,,,,,7/8 Mostly Cloudy,20000.0,,BKN,20000.0,,,,,,
KRDR,09-14-2009,08:00,METAR,,,0.0,,,9999.0,,14.0,13.0,30.03,1018.0,,,,,,,,,,,,,,,7/8 Mostly Cloudy,20000.0,,BKN,20000.0,,,,,,
KRDR,09-14-2009,07:00,METAR,,160,3.0,,,9999.0,,14.0,13.0,30.04,1018.0,,,,,,,,,,,,,,,Clear,72000.0,,,73000.0,,,,,,
KRDR,09-14-2009,06:00,METAR,,,0.0,,,9999.0,,14.0,13.0,30.04,1018.1,,,,,,,,,,,,,,,Clear,72000.0,,,73000.0,,,,,,
KRDR,09-14-2009,05:00,METAR,,160,3.0,,,9999.0,,15.0,14.0,30.04,1018.2,,,,,,,,,,,,,,,Clear,72000.0,,,73000.0,,,,,,
KRDR,09-14-2009,04:00,METAR,,,0.0,,,9999.0,,15.0,14.0,30.04,1018.3,,,,,,,,,,,,,,,Clear,72000.0,,,73000.0,,,,,,
KRDR,09-14-2009,03:00,METAR,,,0.0,,,9999.0,,17.0,14.0,30.05,1018.3,,,,,,,,,,,,,,,Clear,72000.0,,,73000.0,,,,,,
KRDR,09-14-2009,02:00,METAR,,150,5.0,,,9999.0,,18.0,14.0,30.05,1018.5,,,,,,,,,,,,,,,Clear,72000.0,,,73000.0,,,,,,
KRDR,09-14-2009,01:00,METAR,,140,5.0,,,9999.0,,21.0,14.0,30.05,1018.4,,,,,,,,,,,,,,,Clear,72000.0,,,73000.0,,,,,,
KRDR,09-14-2009,00:00,METAR,,150,7.0,,,9999.0,,24.0,15.0,30.05,1018.6,,,,,,,,,,,,,,,Clear,72000.0,,,73000.0,,,,,,
KRDR,09-13-2009,23:00,METAR,,170,7.0,,,9999.0,,25.0,14.0,30.06,1018.9,,,,,,,,,,,,,,,2/8 Mostly Clear,72000.0,,FEW,5000.0,,,,,,
KRDR,09-13-2009,22:00,METAR,,200,7.0,,,9999.0,,25.0,14.0,30.07,1019.3,,,,,,,,,,,,,,,2/8 Mostly Clear,72000.0,,FEW,5000.0,,,,,,
KRDR,09-13-2009,21:00,METAR,,200,5.0,,,9999.0,,26.0,13.0,30.09,1019.8,,,,,,,,,,,,,,,2/8 Mostly Clear,72000.0,,FEW,5000.0,,,,,,
KRDR,09-13-2009,20:00,METAR,,170,4.0,,,9999.0,,26.0,14.0,30.11,1020.3,,,,,,,,,,,,,,,2/8 Mostly Clear,72000.0,,FEW,4500.0,,,,,,
KRDR,09-13-2009,19:00,METAR,,200,5.0,,,9999.0,,25.0,15.0,30.13,1021.0,,,,,,,,,,,,,,,2/8 Mostly Clear,72000.0,,FEW,4200.0,,,,,,
KRDR,09-13-2009,18:00,METAR,,170,6.0,,,9999.0,,25.0,15.0,30.15,1021.7,,,,,,,,,,,,,,,2/8 Mostly Clear,72000.0,,FEW,4000.0,,,,,,
KRDR,09-13-2009,17:00,METAR,,140,9.0,,,9999.0,,23.0,17.0,30.17,1022.3,,,,,,,,,,,,,,,Clear,72000.0,,,73000.0,,,,,,
KRDR,09-13-2009,16:00,METAR,,170,3.0,,,9999.0,,21.0,17.0,30.17,1022.5,,,,,,,,,,,,,,,Clear,72000.0,,,73000.0,,,,,,
KRDR,09-13-2009,15:00,METAR,,120,3.0,,,9999.0,,17.0,17.0,30.17,1022.6,,,,,,,,,,,,,,,Clear,72000.0,,,73000.0,,,,,,
KRDR,09-13-2009,14:00,METAR,,,0.0,,,9999.0,,14.0,14.0,30.17,1022.5,,,,,,,,,,,,,,,Clear,72000.0,,,73000.0,,,,,,
KRDR,09-13-2009,13:31,SPECI,,,0.0,,,6400.0,Mist,13.0,13.0,30.17,1022.5,,,,10,,,,,,,,,,,Clear,72000.0,,,73000.0,,,,,,
KRDR,09-13-2009,13:12,SPECI,,,0.0,,,4000.0,Mist,12.0,12.0,30.17,1022.5,,,,10,,,,,,,,,,,Clear,72000.0,,,73000.0,,,,,,
KRDR,09-13-2009,13:00,METAR,,,0.0,,,2400.0,Mist,11.0,11.0,30.17,1022.5,,,,10,,,,,,,,,,,Clear,72000.0,,,73000.0,,,,,,
KRDR,09-13-2009,12:51,SPECI,,,0.0,,,1600.0,Mist,11.0,11.0,30.17,1022.5,,,,10,,,,,,,,,,,Clear,72000.0,,,73000.0,,,,,,
KRDR,09-13-2009,12:40,SPECI,,,0.0,,,800.0,Fog or Ice Fog,10.0,10.0,30.17,1022.3,,,,44,,,,,,,,,,,Clear,72000.0,,,73000.0,,,,,,
KRDR,09-13-2009,12:38,SPECI,,,0.0,,,1600.0,Mist,10.0,10.0,30.17,1022.3,,,,10,,,,,,,,,,,Clear,72000.0,,,73000.0,,,,,,
KRDR,09-13-2009,12:33,SPECI,,,0.0,,,3200.0,Mist,10.0,10.0,30.17,1022.4,,,,10,,,,,,,,,,,Clear,72000.0,,,73000.0,,,,,,
KRDR,09-13-2009,12:32,SPECI,,,0.0,,,2400.0,Mist,10.0,10.0,30.17,1022.3,,,,10,,,,,,,,,,,Clear,72000.0,,,73000.0,,,,,,
KRDR,09-13-2009,12:29,SPECI,,,0.0,,,1600.0,Mist,10.0,10.0,30.17,1022.4,,,,10,,,,,,,,,,,Clear,72000.0,,,73000.0,,,,,,
KRDR,09-13-2009,12:26,SPECI,,,0.0,,,1200.0,Mist,10.0,10.0,30.17,1022.4,,,,10,,,,,,,,,,,Clear,72000.0,,,73000.0,,,,,,
KRDR,09-13-2009,12:19,SPECI,,,0.0,,,800.0,Fog or Ice Fog,10.0,10.0,30.17,1022.4,,,,44,,,,,,,,,,,Clear,72000.0,,,73000.0,,,,,,
KRDR,09-13-2009,12:02,SPECI,,,0.0,,,400.0,Fog or Ice Fog,10.0,10.0,30.17,1022.3,,,,44,,,,,,,,,,,Clear,72000.0,,,73000.0,,,,,,
KRDR,09-13-2009,12:00,METAR,,,0.0,,,800.0,Fog or Ice Fog,10.0,10.0,30.16,1022.2,,,,44,,,,,,,,,,,Clear,72000.0,,,73000.0,,,,,,
KRDR,09-13-2009,11:38,SPECI,,,0.0,,,2400.0,Mist,11.0,11.0,30.16,1022.3,,,,10,,,,,,,,,,,Clear,72000.0,,,73000.0,,,,,,
KRDR,09-13-2009,11:24,SPECI,,240,3.0,,,800.0,Fog or Ice Fog,11.0,11.0,30.17,1022.3,,,,44,,,,,,,,,,,Clear,72000.0,,,73000.0,,,,,,
KRDR,09-13-2009,11:09,SPECI,,250,3.0,,,1200.0,Mist,11.0,11.0,30.16,1022.2,,,,10,,,,,,,,,,,Clear,72000.0,,,73000.0,,,,,,
KRDR,09-13-2009,11:03,SPECI,,,0.0,,,800.0,Fog or Ice Fog,10.0,10.0,30.16,1022.2,,,,44,,,,,,,,,,,Clear,72000.0,,,73000.0,,,,,,
KRDR,09-13-2009,11:00,METAR,,260,3.0,,,400.0,Fog or Ice Fog,10.0,10.0,30.16,1022.1,,,,44,,,,,,,,,,,Clear,72000.0,,,73000.0,,,,,,
KRDR,09-13-2009,10:25,SPECI,,,0.0,,,800.0,Fog or Ice Fog,11.0,11.0,30.16,1022.1,,,,44,,,,,,,,,,,Clear,72000.0,,,73000.0,,,,,,
KRDR,09-13-2009,10:24,SPECI,,,0.0,,,1200.0,Mist,10.0,10.0,30.16,1022.1,,,,10,,,,,,,,,,,Clear,72000.0,,,73000.0,,,,,,
KRDR,09-13-2009,10:22,SPECI,,,0.0,,,2000.0,Mist,10.0,10.0,30.16,1022.1,,,,10,,,,,,,,,,,Clear,72000.0,,,73000.0,,,,,,
KRDR,09-13-2009,10:01,SPECI,,260,3.0,,,4000.0,Mist,11.0,11.0,30.16,1022.0,,,,10,,,,,,,,,,,Clear,72000.0,,,73000.0,,,,,,
KRDR,09-13-2009,10:00,METAR,,,0.0,,,800.0,Fog or Ice Fog,11.0,11.0,30.16,1022.0,,,,44,,,,,,,,,,,Clear,72000.0,,,73000.0,,,,,,
KRDR,09-13-2009,09:56,SPECI,,,0.0,,,1200.0,Mist,11.0,11.0,30.16,1022.0,,,,10,,,,,,,,,,,Clear,72000.0,,,73000.0,,,,,,
KRDR,09-13-2009,09:00,METAR,,,0.0,,,4800.0,Mist,11.0,11.0,30.16,,,,,10,,,,,,,,,,,2/8 Mostly Clear,72000.0,,FEW,3700.0,,,,,,
KRDR,09-13-2009,08:39,SPECI,,,0.0,,,8000.0,Mist,11.0,11.0,30.16,1022.2,,,,10,,,,,,,,,,,4/8 Partly Cloudy,72000.0,,SCT,3800.0,,,,,,
KRDR,09-13-2009,08:00,METAR,,,0.0,,,9999.0,,12.0,12.0,30.17,1022.4,,,,,,,,,,,,,,,2/8 Mostly Clear,72000.0,,FEW,3800.0,,,,,,
KRDR,09-13-2009,07:00,METAR,,,0.0,,,8000.0,Mist,11.0,11.0,30.17,1022.5,,,,10,,,,,,,,,,,Clear,72000.0,,,73000.0,,,,,,
KRDR,09-13-2009,06:00,METAR,,,0.0,,,9999.0,,11.0,11.0,30.17,1022.6,,,,,,,,,,,,,,,Clear,72000.0,,,73000.0,,,,,,
KRDR,09-13-2009,05:00,METAR,,,0.0,,,9999.0,Mist,12.0,12.0,30.17,1022.4,,,,10,,,,,,,,,,,Clear,72000.0,,,73000.0,,,,,,
KRDR,09-13-2009,04:00,METAR,,320,3.0,,,9999.0,,13.0,13.0,30.17,1022.4,,,,,,,,,,,,,,,Clear,72000.0,,,73000.0,,,,,,
KRDR,09-13-2009,03:00,METAR,,310,4.0,,,9999.0,,14.0,13.0,30.16,1022.1,,,,,,,,,,,,,,,Clear,72000.0,,,73000.0,,,,,,
KRDR,09-13-2009,02:00,METAR,,,0.0,,,9999.0,,15.0,14.0,30.16,1022.2,,,,,,,,,,,,,,,Clear,72000.0,,,73000.0,,,,,,
KRDR,09-13-2009,01:00,METAR,,10,5.0,,,9999.0,,17.0,15.0,30.16,1022.1,,,,,,,,,,,,,,,Clear,72000.0,,,73000.0,,,,,,
KRDR,09-13-2009,00:00,METAR,,360,5.0,,,9999.0,,20.0,15.0,30.16,1022.2,,,,,,,,,,,,,,,Clear,72000.0,,,73000.0,,,,,,
KRDR,09-12-2009,23:00,METAR,,10,7.0,,,9999.0,,21.0,15.0,30.16,1022.2,,,,,,,,,,,,,,,Clear,72000.0,,,73000.0,,,,,,
KRDR,09-12-2009,22:00,METAR,,20,5.0,,,9999.0,,21.0,15.0,30.17,1022.4,,,,,,,,,,,,,,,2/8 Mostly Clear,72000.0,,FEW,2500.0,,,,,,
KRDR,09-12-2009,21:00,METAR,,360,6.0,,,9999.0,,22.0,16.0,30.17,1022.3,,,,,,,,,,,,,,,4/8 Partly Cloudy,72000.0,,SCT,2400.0,,,,,,
KRDR,09-12-2009,20:00,METAR,,30,4.0,,,9999.0,,21.0,16.0,30.17,1022.6,,,,,,,,,,,,,,,4/8 Partly Cloudy,72000.0,,SCT,2200.0,,,,,,
KRDR,09-12-2009,19:00,METAR,,,0.0,,,9999.0,,20.0,15.0,30.18,1022.9,,,,,,,,,,,,,,,4/8 Partly Cloudy,72000.0,,SCT,2300.0,,,,,,
KRDR,09-12-2009,18:00,METAR,,,3.0,,,9999.0,,20.0,15.0,30.19,,,,,,,,,,,,,,,,4/8 Partly Cloudy,72000.0,,SCT,1500.0,,,,,,
KRDR,09-12-2009,17:40,SPECI,,,0.0,,,9999.0,,19.0,14.0,30.19,1023.2,,,,,,,,,,,,,,,4/8 Partly Cloudy,72000.0,,SCT,1500.0,,,,,,
KRDR,09-12-2009,17:12,SPECI,,,0.0,,,9999.0,,18.0,15.0,30.20,1023.5,,,,,,,,,,,,,,,4/8 Partly Cloudy,72000.0,,SCT,1300.0,,,,,,
KRDR,09-12-2009,17:00,METAR,,,4.0,,,9999.0,,18.0,15.0,30.20,1023.4,,,,,,,,,,,,,,,8/8 Overcast,1200.0,,OVC,1200.0,,,,,,
KRDR,09-12-2009,16:43,SPECI,,,6.0,,,9999.0,,19.0,15.0,30.20,1023.4,,,,,,,,,,,,,,,8/8 Overcast,1000.0,,OVC,1000.0,,,,,,
KRDR,09-12-2009,16:00,METAR,,350,4.0,,,9999.0,,17.0,17.0,30.20,1023.3,,,,,,,,,,,,,,,8/8 Overcast,700.0,,OVC,700.0,,,,,,
KRDR,09-12-2009,15:00,METAR,,350,4.0,,,8000.0,Mist,16.0,16.0,30.19,1023.3,,,,10,,,,,,,,,,,8/8 Overcast,700.0,,OVC,700.0,,,,,,
KRDR,09-12-2009,14:00,METAR,,,0.0,,,8000.0,Mist,16.0,16.0,30.18,1022.9,,,,10,,,,,,,,,,,8/8 Overcast,500.0,,OVC,500.0,,,,,,
KRDR,09-12-2009,13:00,METAR,,330,4.0,,,8000.0,Mist,15.0,15.0,30.17,1022.4,,,,10,,,,,,,,,,,8/8 Overcast,600.0,,OVC,600.0,,,,,,
KRDR,09-12-2009,12:42,SPECI,,340,4.0,,,8000.0,Mist,15.0,15.0,30.17,1022.5,,,,10,,,,,,,,,,,8/8 Overcast,700.0,,OVC,700.0,,,,,,
KRDR,09-12-2009,12:21,SPECI,,350,4.0,,,8000.0,Mist,15.0,15.0,30.17,1022.5,,,,10,,,,,,,,,,,8/8 Overcast,300.0,,BKN,300.0,OVC,900.0,,,,
KRDR,09-12-2009,12:00,METAR,,10,4.0,,,4800.0,Mist,15.0,15.0,30.16,1022.2,,,,10,,,,,,,,,,.01 IN,7/8 Mostly Cloudy,400.0,,BKN,400.0,,,,,,
KRDR,09-12-2009,11:48,SPECI,,10,4.0,,,3200.0,Mist,15.0,15.0,30.16,1022.2,,,,10,,,,,,,,,,,7/8 Mostly Cloudy,400.0,,BKN,400.0,,,,,,
KRDR,09-12-2009,11:45,SPECI,,360,3.0,,,2400.0,Mist,15.0,15.0,30.17,1022.3,,,,10,,,,,,,,,,,7/8 Mostly Cloudy,400.0,,BKN,400.0,,,,,,
KRDR,09-12-2009,11:43,SPECI,,350,6.0,,,2000.0,Mist,15.0,15.0,30.17,1022.3,,,,10,,,,,,,,,,,7/8 Mostly Cloudy,400.0,,BKN,400.0,,,,,,
KRDR,09-12-2009,11:37,SPECI,,360,4.0,,,2000.0,Mist,15.0,15.0,30.16,1022.2,,,,10,,,,,,,,,,,Sky Obscured (Unable to Estimate),500.0,100.0,,500.0,,,,,,
KRDR,09-12-2009,11:31,SPECI,,350,4.0,,,800.0,Fog or Ice Fog,15.0,15.0,30.16,1022.2,,,,45,,,,,,,,,,,Sky Obscured (Unable to Estimate),500.0,100.0,,500.0,,,,,,
KRDR,09-12-2009,11:27,SPECI,,350,5.0,,,1600.0,Mist,15.0,15.0,30.16,1022.2,,,,10,,,,,,,,,,,Sky Obscured (Unable to Estimate),300.0,100.0,,300.0,,,,,,
KRDR,09-12-2009,11:00,METAR,,350,5.0,,,1600.0,Mist,15.0,15.0,30.15,1021.9,,,,10,,,,,,,,,,,Clear,72000.0,,,73000.0,,,,,,
KRDR,09-12-2009,10:45,SPECI,,350,4.0,,,1200.0,Mist,15.0,15.0,30.15,1021.8,,,,10,,,,,,,,,,,Clear,72000.0,,,73000.0,,,,,,
KRDR,09-12-2009,10:25,SPECI,,350,3.0,,,2000.0,Mist,15.0,15.0,30.15,1021.9,,,,10,,,,,,,,,,,4/8 Partly Cloudy,72000.0,,SCT,600.0,,,,,,
KRDR,09-12-2009,10:14,SPECI,,330,4.0,,,2800.0,Mist,15.0,15.0,30.15,1021.9,,,,10,,,,,,,,,,,7/8 Mostly Cloudy,600.0,,BKN,600.0,,,,,,
KRDR,09-12-2009,10:00,METAR,,340,4.0,,,8000.0,Mist,15.0,15.0,30.16,1022.0,,,,10,,,,,,,,,,,8/8 Overcast,700.0,,SCT,300.0,OVC,700.0,,,,
KRDR,09-12-2009,09:29,SPECI,,320,4.0,,,8000.0,Mist,14.0,14.0,30.15,1021.7,,,,10,,,,,,,,,,,8/8 Overcast,300.0,,BKN,300.0,OVC,700.0,,,,
KRDR,09-12-2009,09:17,SPECI,,300,3.0,,,6400.0,Mist,13.0,13.0,30.15,1021.8,,,,10,,,,,,,,,,,8/8 Overcast,500.0,,OVC,500.0,,,,,,
KRDR,09-12-2009,09:15,SPECI,,310,3.0,,,4800.0,Mist,13.0,13.0,30.15,1021.7,10,,,,,,,,,,,,,,8/8 Overcast,400.0,,OVC,400.0,,,,,,
KRDR,09-12-2009,09:05,SPECI,,290,3.0,,,3200.0,Mist,12.0,12.0,30.15,1021.7,10,,,,,,,,,,,,,,8/8 Overcast,400.0,,OVC,400.0,,,,,,
KRDR,09-12-2009,09:03,SPECI,,280,3.0,,,2400.0,Mist,12.0,12.0,30.15,1021.7,10,,,,,,,,,,,,,,8/8 Overcast,500.0,,OVC,500.0,,,,,,
KRDR,09-12-2009,09:00,METAR,,,0.0,,,1200.0,Mist,11.0,11.0,30.15,1021.7,10,,,,,,,,,,,,,,7/8 Mostly Cloudy,400.0,,BKN,400.0,,,,,,
KRDR,09-12-2009,08:54,SPECI,,,0.0,,,1600.0,Mist,11.0,11.0,30.15,1021.7,10,,,,,,,,,,,,,,7/8 Mostly Cloudy,400.0,,BKN,400.0,,,,,,
KRDR,09-12-2009,08:48,SPECI,,,0.0,,,800.0,Fog,11.0,11.0,30.15,1021.7,30,,,,,,,,,,,,,,7/8 Mostly Cloudy,400.0,,BKN,400.0,,,,,,
KRDR,09-12-2009,08:45,SPECI,,,0.0,,,800.0,Fog,11.0,11.0,30.15,1021.7,30,,,,,,,,,,,,,,7/8 Mostly Cloudy,400.0,,BKN,400.0,,,,,,
KRDR,09-12-2009,08:39,SPECI,,,0.0,,,400.0,Fog,11.0,11.0,30.15,1021.7,30,,,,,,,,,,,,,,Sky Obscured (Unable to Estimate),400.0,100.0,,400.0,,,,,,
KRDR,09-12-2009,08:33,SPECI,,,0.0,,,800.0,Fog,12.0,12.0,30.15,1021.6,30,,,,,,,,,,,,,,Sky Obscured (Unable to Estimate),400.0,100.0,,400.0,,,,,,
KRDR,09-12-2009,08:11,SPECI,,,0.0,,,800.0,Fog,12.0,12.0,30.14,1021.6,30,,,,,,,,,,,,,,Clear,72000.0,,,73000.0,,,,,,
KRDR,09-12-2009,08:00,METAR,,,0.0,,,400.0,Fog,12.0,12.0,30.14,1021.3,30,,,,,,,,,,,,,,Clear,72000.0,,,73000.0,,,,,,
KRDR,09-12-2009,07:50,SPECI,,,0.0,,,400.0,Fog,12.0,12.0,30.14,1021.3,30,,,,,,,,,,,,,,Clear,72000.0,,,73000.0,,,,,,
KRDR,09-12-2009,07:42,SPECI,,,0.0,,,800.0,Fog,13.0,13.0,30.14,1021.3,30,,,,,,,,,,,,,,Clear,72000.0,,,73000.0,,,,,,
KRDR,09-12-2009,07:39,SPECI,,,0.0,,,1200.0,Mist,13.0,13.0,30.14,1021.3,10,,,,,,,,,,,,,,Clear,72000.0,,,73000.0,,,,,,
KRDR,09-12-2009,07:37,SPECI,,,0.0,,,2000.0,Mist,13.0,13.0,30.14,1021.3,10,,,,,,,,,,,,,,Clear,72000.0,,,73000.0,,,,,,
KRDR,09-12-2009,07:32,SPECI,,,0.0,,,3200.0,Mist,13.0,13.0,30.14,1021.4,10,,,,,,,,,,,,,,Clear,72000.0,,,73000.0,,,,,,
KRDR,09-12-2009,07:31,SPECI,,,0.0,,,2400.0,Mist,13.0,13.0,30.14,1021.4,10,,,,,,,,,,,,,,Clear,72000.0,,,73000.0,,,,,,
KRDR,09-12-2009,07:25,SPECI,,,0.0,,,1600.0,Mist,13.0,13.0,30.14,1021.3,10,,,,,,,,,,,,,,Clear,72000.0,,,73000.0,,,,,,
KRDR,09-12-2009,07:23,SPECI,,,0.0,,,2000.0,Mist,14.0,14.0,30.14,1021.3,10,,,,,,,,,,,,,,Clear,72000.0,,,73000.0,,,,,,
KRDR,09-12-2009,07:22,SPECI,,,0.0,,,2800.0,Mist,14.0,14.0,30.14,1021.3,10,,,,,,,,,,,,,,Clear,72000.0,,,73000.0,,,,,,
KRDR,09-12-2009,07:00,METAR,,330,3.0,,,9999.0,,14.0,14.0,30.14,1021.4,,,,,,,,,,,,,,,Clear,72000.0,,,73000.0,,,,,,
KRDR,09-12-2009,06:45,SPECI,,330,3.0,,,4800.0,Mist,13.0,13.0,30.14,1021.4,10,,,,,,,,,,,,,,Clear,72000.0,,,73000.0,,,,,,
KRDR,09-12-2009,06:35,SPECI,,330,3.0,,,3200.0,Mist,13.0,13.0,30.14,1021.4,10,,,,,,,,,,,,,,Clear,72000.0,,,73000.0,,,,,,
KRDR,09-12-2009,06:32,SPECI,,330,4.0,,,2000.0,Mist,13.0,13.0,30.14,1021.5,10,,,,,,,,,,,,,,Clear,72000.0,,,73000.0,,,,,,
KRDR,09-12-2009,06:29,SPECI,,330,4.0,,,2000.0,Mist,13.0,13.0,30.14,1021.5,10,,,,,,,,,,,,,,Clear,72000.0,,,73000.0,,,,,,
KRDR,09-12-2009,06:19,SPECI,,310,4.0,,,1600.0,Mist,13.0,13.0,30.14,1021.4,10,,,,,,,,,,,,,,Clear,72000.0,,,73000.0,,,,,,
KRDR,09-12-2009,06:16,SPECI,,300,3.0,,,1200.0,Mist,12.0,12.0,30.14,1021.4,10,,,,,,,,,,,,,,Clear,72000.0,,,73000.0,,,,,,
KRDR,09-12-2009,06:07,SPECI,,300,4.0,,,1200.0,Mist,13.0,12.0,30.14,1021.4,10,,,,,,,,,,,,,,Clear,72000.0,,,73000.0,,,,,,
KRDR,09-12-2009,06:00,SPECI,,300,4.0,,,800.0,Fog,13.0,12.0,30.14,1021.4,30,,,,,,,,,,,,,,Clear,72000.0,,,73000.0,,,,,,
KRDR,09-12-2009,06:00,METAR,,300,5.0,,,800.0,Fog,12.0,12.0,30.14,1021.3,30,,,,,,,,,,,,,,Clear,72000.0,,,73000.0,,,,,,
KRDR,09-12-2009,05:57,SPECI,,300,3.0,,,400.0,Fog,13.0,12.0,30.14,1021.3,30,,,,,,,,,,,,,,Clear,72000.0,,,73000.0,,,,,,
KRDR,09-12-2009,05:39,SPECI,,300,4.0,,,800.0,Fog,13.0,12.0,30.13,1021.2,30,,,,,,,,,,,,,,Clear,72000.0,,,73000.0,,,,,,
KRDR,09-12-2009,05:22,SPECI,,320,4.0,,,400.0,Fog,13.0,12.0,30.13,1021.1,30,,,,,,,,,,,,,,Clear,72000.0,,,73000.0,,,,,,
KRDR,09-12-2009,05:13,SPECI,,320,4.0,,,800.0,Fog,12.0,12.0,30.13,1021.1,30,,,,,,,,,,,,,,Clear,72000.0,,,73000.0,,,,,,
KRDR,09-12-2009,05:00,METAR,,300,4.0,,,400.0,Fog,12.0,12.0,30.13,1021.2,30,,,,,,,,,,,,,,Clear,72000.0,,,73000.0,,,,,,
KRDR,09-12-2009,04:48,SPECI,,300,4.0,,,400.0,Fog,12.0,12.0,30.13,1021.1,30,,,,,,,,,,,,,,Clear,72000.0,,,73000.0,,,,,,
KRDR,09-12-2009,04:32,SPECI,,,0.0,,,400.0,Fog,12.0,12.0,30.13,1021.0,30,,,,,,,,,,,,,,Clear,72000.0,,,73000.0,,,,,,
KRDR,09-12-2009,04:30,SPECI,,,0.0,,,400.0,Fog,12.0,12.0,30.13,1021.0,30,,,,,,,,,,,,,,Clear,72000.0,,,73000.0,,,,,,
KRDR,09-12-2009,04:21,SPECI,,,0.0,,,800.0,Fog,12.0,12.0,30.12,1020.9,30,,,,,,,,,,,,,,Clear,72000.0,,,73000.0,,,,,,
KRDR,09-12-2009,04:15,SPECI,,,0.0,,,1200.0,Mist,12.0,12.0,30.12,1020.9,10,,,,,,,,,,,,,,Clear,72000.0,,,73000.0,,,,,,
KRDR,09-12-2009,04:13,SPECI,,,0.0,,,1200.0,Mist,12.0,12.0,30.12,1020.9,10,,,,,,,,,,,,,,Clear,72000.0,,,73000.0,,,,,,
KRDR,09-12-2009,04:10,SPECI,,,0.0,,,1200.0,Mist,12.0,12.0,30.12,1020.9,10,,,,,,,,,,,,,,Clear,72000.0,,,73000.0,,,,,,
KRDR,09-12-2009,04:02,SPECI,,300,3.0,,,1600.0,Mist,12.0,12.0,30.12,1020.9,10,,,,,,,,,,,,,,Clear,72000.0,,,73000.0,,,,,,
KRDR,09-12-2009,04:00,METAR,,290,3.0,,,1200.0,Mist,12.0,12.0,30.12,1020.9,10,,,,,,,,,,,,,,Clear,72000.0,,,73000.0,,,,,,
KRDR,09-12-2009,03:53,SPECI,,290,3.0,,,2000.0,Mist,12.0,12.0,30.12,1020.9,10,,,,,,,,,,,,,,Clear,72000.0,,,73000.0,,,,,,
KRDR,09-12-2009,03:00,METAR,,,0.0,,,9999.0,,13.0,13.0,30.11,1020.6,,,,,,,,,,,,,,,Clear,72000.0,,,73000.0,,,,,,
KRDR,09-12-2009,02:00,METAR,,340,3.0,,,9999.0,,15.0,14.0,30.11,1020.4,,,,,,,,,,,,,,,Clear,72000.0,,,73000.0,,,,,,
KRDR,09-12-2009,01:00,METAR,,,0.0,,,9999.0,,18.0,15.0,30.09,1019.8,,,,,,,,,,,,,,,Clear,72000.0,,,73000.0,,,,,,
KRDR,09-12-2009,00:00,METAR,,,0.0,,,9999.0,,21.0,14.0,30.08,1019.6,,,,,,,,,,,,,,,2/8 Mostly Clear,72000.0,,FEW,3000.0,,,,,,
KRDR,09-11-2009,23:00,METAR,,350,7.0,,,9999.0,,21.0,15.0,30.07,1019.3,,,,,,,,,,,,,,,4/8 Partly Cloudy,72000.0,,SCT,3000.0,,,,,,
KRDR,09-11-2009,22:00,METAR,,340,8.0,,,9999.0,,22.0,14.0,30.05,1018.6,,,,,,,,,,,,,,,4/8 Partly Cloudy,72000.0,,SCT,3500.0,,,,,,
KRDR,09-11-2009,21:00,METAR,,340,4.0,,,9999.0,,22.0,14.0,30.05,1018.6,,,,,,,,,,,,,,,4/8 Partly Cloudy,72000.0,,SCT,3100.0,,,,,,
KRDR,09-11-2009,20:00,METAR,,,4.0,,,9999.0,,22.0,15.0,30.05,1018.6,,,,,,,,,,,,,,,4/8 Partly Cloudy,72000.0,,SCT,2600.0,,,,,,
KRDR,09-11-2009,19:00,METAR,,,0.0,,,9999.0,,20.0,15.0,30.05,1018.4,,,,,,,,,,,,,,,7/8 Mostly Cloudy,10000.0,,SCT,1700.0,BKN,9900.0,,,,
KRDR,09-11-2009,18:42,SPECI,,320,7.0,,,9999.0,,20.0,15.0,30.05,,,,,,,,,,,,,,,,4/8 Partly Cloudy,72000.0,,SCT,2300.0,,,,,,
KRDR,09-11-2009,18:28,SPECI,,300,8.0,,,9999.0,,21.0,16.0,30.04,1018.2,,,,,,,,,,,,,,,7/8 Mostly Cloudy,1600.0,,BKN,2900.0,,,,,,
KRDR,09-11-2009,18:00,METAR,,300,8.0,,,9999.0,,19.0,15.0,30.05,1018.4,,,,,,,,,,,,,.01 IN,,4/8 Partly Cloudy,72000.0,,FEW,1700.0,SCT,6400.0,,,,
KRDR,09-11-2009,17:08,SPECI,,300,7.0,,,9999.0,,18.0,15.0,30.05,1018.4,,,,,,,,,,,,,,,7/8 Mostly Cloudy,3000.0,,BKN,3000.0,,,,,,
KRDR,09-11-2009,17:00,METAR,,290,11.0,,,9999.0,,18.0,15.0,30.05,1018.4,,,,,,,,,,,,,,,8/8 Overcast,1900.0,,OVC,1900.0,,,,,,
KRDR,09-11-2009,16:11,SPECI,,280,6.0,,,9999.0,,16.0,15.0,30.04,1018.2,,,,,,,,,,,,,,,8/8 Overcast,1500.0,,OVC,1500.0,,,,,,
KRDR,09-11-2009,16:00,METAR,,300,5.0,,,9999.0,,16.0,15.0,30.03,1017.8,,,,,,,,,,,,,,,8/8 Overcast,1200.0,,OVC,1200.0,,,,,,
KRDR,09-11-2009,15:42,SPECI,,310,6.0,,,9999.0,,16.0,15.0,30.02,1017.7,,,,,,,,,,,,,,,8/8 Overcast,1200.0,,OVC,1200.0,,,,,,
KRDR,09-11-2009,15:26,SPECI,,300,6.0,,,9999.0,,16.0,15.0,30.02,1017.6,,,,,,,,,,,,,,,8/8 Overcast,1100.0,,OVC,1100.0,,,,,,
KRDR,09-11-2009,15:00,METAR,,320,4.0,,,9999.0,,16.0,15.0,30.01,1017.1,,,,,,,,,,,TRACE,.01 IN,,,8/8 Overcast,1200.0,,OVC,1300.0,,,,,,
KRDR,09-11-2009,14:29,SPECI,,260,4.0,,,9999.0,Drizzle,16.0,15.0,30.01,1017.0,,,,51,,,,,,,,,,,7/8 Mostly Cloudy,1400.0,,BKN,1400.0,,,,,,
KRDR,09-11-2009,14:18,SPECI,,,0.0,,,9999.0,,15.0,15.0,30.00,1016.9,,,,,,,,,,,,,,,7/8 Mostly Cloudy,1400.0,,BKN,1400.0,,,,,,
KRDR,09-11-2009,14:15,SPECI,,,0.0,,,9999.0,,15.0,15.0,30.00,1016.8,,,,,,,,,,,,,,,4/8 Partly Cloudy,72000.0,,SCT,1500.0,,,,,,
KRDR,09-11-2009,14:00,METAR,,270,3.0,,,9999.0,,15.0,15.0,30.01,1017.2,,,,,,,,,,,.01 IN,,,,7/8 Mostly Cloudy,1600.0,,FEW,900.0,BKN,1600.0,,,,
KRDR,09-11-2009,13:47,SPECI,,310,3.0,,,9999.0,,15.0,15.0,30.01,1017.2,,,,,,,,,,,,,,,8/8 Overcast,1600.0,,FEW,900.0,OVC,1600.0,,,,
KRDR,09-11-2009,13:13,SPECI,,290,9.0,,,9999.0,,15.0,14.0,30.00,1016.9,,,,,,,,,,,,,,,7/8 Mostly Cloudy,6000.0,,SCT,1100.0,BKN,5900.0,,,,
KRDR,09-11-2009,13:04,SPECI,,40,3.0,,,9999.0,,15.0,15.0,29.98,1016.1,,,,,,,,,,,,,,,7/8 Mostly Cloudy,6000.0,,SCT,2000.0,BKN,5900.0,,,,
KRDR,09-11-2009,13:00,METAR,,50,3.0,,,9999.0,Light Rain Showers,15.0,15.0,29.96,1015.7,,,,80,,,,,,,TRACE,,,,7/8 Mostly Cloudy,6000.0,,SCT,2000.0,BKN,5900.0,,,,
KRDR,09-11-2009,12:00,METAR,,,0.0,,,9999.0,,15.0,14.0,29.99,1016.4,,,,,,,,,,,.01 IN,,.13 IN,.13 IN,Clear,72000.0,,,73000.0,,,,,,
KRDR,09-11-2009,11:00,METAR,,,0.0,,,9999.0,,15.0,15.0,30.02,1017.5,,,,,,,,,,,.09 IN,,,,Clear,72000.0,,,73000.0,,,,,,
KRDR,09-11-2009,10:00,METAR,,270,6.0,,,9999.0,,15.0,14.0,30.06,1018.8,,,,,,,,,,,.02 IN,,,,Clear,72000.0,,,73000.0,,,,,,
KRDR,09-11-2009,09:00,METAR,,360,8.0,,,9999.0,,15.0,14.0,30.03,1017.8,,,,,,,,,,,,,,,Clear,72000.0,,,73000.0,,,,,,
KRDR,09-11-2009,08:00,METAR,,350,21.0,28.0,290/38KTS,9999.0,,16.0,15.0,30.04,1018.2,,,,,,,,,,,.01 IN,,,,Clear,72000.0,,,73000.0,,,,,,
KRDR,09-11-2009,07:17,SPECI,,320,24.0,33.0,290/38KTS,9999.0,,19.0,14.0,30.07,1019.1,,,,,,,,,,,,,,,8/8 Overcast,3600.0,,FEW,2100.0,OVC,3700.0,,,,
KRDR,09-11-2009,07:07,SPECI,,300,26.0,38.0,290/38KTS,9999.0,,20.0,14.0,30.06,1018.8,,,,,,,,,,,,,,,8/8 Overcast,4400.0,,FEW,2100.0,OVC,4500.0,,,,
KRDR,09-11-2009,07:00,METAR,,230,13.0,24.0,,9999.0,,20.0,18.0,30.04,1018.2,,,,,,,,,,,,,,,7/8 Mostly Cloudy,7500.0,,FEW,2100.0,SCT,4700.0,BKN,7400.0,,
KRDR,09-11-2009,06:00,METAR,,160,9.0,,,9999.0,,20.0,18.0,30.00,1016.7,,,,,,,,,,,,,,,Clear,72000.0,,,73000.0,,,,,,
KRDR,09-11-2009,05:00,METAR,,200,4.0,,,9999.0,,19.0,18.0,30.02,1017.5,,,,,,,,,,,,,,,Clear,72000.0,,,73000.0,,,,,,
KRDR,09-11-2009,04:00,METAR,,160,7.0,,,9999.0,,20.0,18.0,30.00,1016.9,,,,,,,,,,,,,,,7/8 Mostly Cloudy,20000.0,,FEW,9900.0,BKN,20000.0,,,,
KRDR,09-11-2009,03:00,METAR,,160,8.0,,,9999.0,,20.0,18.0,30.02,1017.6,,,,,,,,,,,,,,,7/8 Mostly Cloudy,20000.0,,FEW,12000.0,BKN,20000.0,,,,
KRDR,09-11-2009,02:00,METAR,,160,8.0,,,9999.0,,21.0,18.0,30.03,1017.8,,,,,,,,,,,,,,,7/8 Mostly Cloudy,22000.0,,FEW,12000.0,BKN,22000.0,,,,
KRDR,09-11-2009,01:00,METAR,,170,9.0,,,9999.0,,24.0,18.0,30.03,1017.7,,,,,,,,,,,,,,,7/8 Mostly Cloudy,22000.0,,FEW,9900.0,BKN,22000.0,,,,
KRDR,09-11-2009,00:00,METAR,,180,11.0,,,9999.0,,27.0,18.0,30.02,1017.4,,,,,,,,,,,,,,,4/8 Partly Cloudy,72000.0,,FEW,9900.0,SCT,22000.0,,,,
KRDR,09-10-2009,23:00,METAR,,180,13.0,,,9999.0,,27.0,18.0,30.02,1017.5,,,,,,,,,,,,,,,7/8 Mostly Cloudy,22000.0,,FEW,4000.0,SCT,9900.0,BKN,22000.0,,
KRDR,09-10-2009,22:00,METAR,,190,12.0,,,9999.0,,29.0,18.0,30.02,1017.5,,,,,,,,,,,,,,,2/8 Mostly Clear,72000.0,,FEW,6900.0,,,,,,
KRDR,09-10-2009,21:00,METAR,,190,14.0,,,9999.0,,29.0,18.0,30.03,1017.7,,,,,,,,,,,,,,,7/8 Mostly Cloudy,22000.0,,SCT,4000.0,BKN,22000.0,,,,
KRDR,09-10-2009,20:00,METAR,,190,13.0,21.0,,9999.0,,28.0,19.0,30.03,1018.0,,,,,,,,,,,,,,,7/8 Mostly Cloudy,25000.0,,FEW,3900.0,SCT,12000.0,BKN,25000.0,,
KRDR,09-10-2009,19:00,METAR,,170,12.0,17.0,,9999.0,,28.0,19.0,30.05,1018.4,,,,,,,,,,,,,,,4/8 Partly Cloudy,72000.0,,FEW,3900.0,SCT,12000.0,SCT,25000.0,,
KRDR,09-10-2009,18:00,METAR,,180,11.0,,,9999.0,,26.0,18.0,30.05,1018.6,,,,,,,,,,,,,,,2/8 Mostly Clear,72000.0,,FEW,3000.0,FEW,25000.0,,,,
KRDR,09-10-2009,17:00,METAR,,160,9.0,,,9999.0,,24.0,17.0,30.06,1018.9,,,,,,,,,,,,,,,2/8 Mostly Clear,72000.0,,FEW,3000.0,FEW,25000.0,,,,
KRDR,09-10-2009,16:00,METAR,,170,11.0,,,9999.0,,22.0,17.0,30.08,1019.3,,,,,,,,,,,,,,,2/8 Mostly Clear,72000.0,,FEW,25000.0,,,,,,
KRDR,09-10-2009,15:00,METAR,,180,9.0,,,9999.0,,19.0,14.0,30.08,1019.5,,,,,,,,,,,,,,,2/8 Mostly Clear,72000.0,,FEW,25000.0,,,,,,
KRDR,09-10-2009,14:00,METAR,,180,8.0,,,9999.0,,16.0,12.0,30.09,1019.7,,,,,,,,,,,,,,,2/8 Mostly Clear,72000.0,,FEW,25000.0,,,,,,
KRDR,09-10-2009,13:00,METAR,,180,5.0,,,9999.0,,12.0,10.0,30.09,1019.9,,,,,,,,,,,,,,,2/8 Mostly Clear,72000.0,,FEW,25000.0,,,,,,
KRDR,09-10-2009,12:00,METAR,,170,8.0,,,9999.0,,10.0,8.0,30.09,1019.7,,,,,,,,,,,,,,,Clear,72000.0,,,73000.0,,,,,,
KRDR,09-10-2009,11:00,METAR,,180,5.0,,,9999.0,,12.0,9.0,30.09,1019.6,,,,,,,,,,,,,,,Clear,72000.0,,,73000.0,,,,,,
KRDR,09-10-2009,10:00,METAR,,200,8.0,,,9999.0,,13.0,9.0,30.08,1019.3,,,,,,,,,,,,,,,Clear,72000.0,,,73000.0,,,,,,
KRDR,09-10-2009,09:00,METAR,,200,8.0,,,9999.0,,11.0,9.0,30.07,1019.3,,,,,,,,,,,,,,,Clear,72000.0,,,73000.0,,,,,,
KRDR,09-10-2009,08:00,METAR,,170,8.0,,,9999.0,,11.0,8.0,30.08,1019.5,,,,,,,,,,,,,,,Clear,72000.0,,,73000.0,,,,,,
KRDR,09-10-2009,07:00,METAR,,190,7.0,,,9999.0,,12.0,9.0,30.09,1019.7,,,,,,,,,,,,,,,Clear,72000.0,,,73000.0,,,,,,
KRDR,09-10-2009,06:00,METAR,,190,5.0,,,9999.0,,13.0,10.0,30.09,1019.9,,,,,,,,,,,,,,,Clear,72000.0,,,73000.0,,,,,,
KRDR,09-10-2009,05:00,METAR,,180,9.0,,,9999.0,,13.0,10.0,30.09,1019.9,,,,,,,,,,,,,,,Clear,72000.0,,,73000.0,,,,,,
KRDR,09-10-2009,04:00,METAR,,180,6.0,,,9999.0,,14.0,11.0,30.09,1019.9,,,,,,,,,,,,,,,Clear,72000.0,,,73000.0,,,,,,
KRDR,09-10-2009,03:00,METAR,,190,6.0,,,9999.0,,14.0,10.0,30.09,1019.8,,,,,,,,,,,,,,,2/8 Mostly Clear,72000.0,,FEW,12000.0,FEW,20000.0,,,,
KRDR,09-10-2009,02:00,METAR,,180,6.0,,,9999.0,,15.0,11.0,30.07,1019.2,,,,,,,,,,,,,,,2/8 Mostly Clear,72000.0,,FEW,12000.0,FEW,20000.0,,,,
KRDR,09-10-2009,01:00,METAR,,150,8.0,,,9999.0,,18.0,12.0,30.05,1018.5,,,,,,,,,,,,,,,2/8 Mostly Clear,72000.0,,FEW,12000.0,FEW,20000.0,,,,
KRDR,09-10-2009,00:00,METAR,,180,9.0,,,9999.0,,23.0,11.0,30.06,1018.7,,,,,,,,,,,,,,,2/8 Mostly Clear,72000.0,,FEW,20000.0,,,,,,
KRDR,09-09-2009,23:00,METAR,,200,8.0,,,9999.0,,25.0,9.0,30.07,1019.1,,,,,,,,,,,,,,,2/8 Mostly Clear,72000.0,,FEW,20000.0,,,,,,
KRDR,09-09-2009,22:00,METAR,,200,9.0,,,9999.0,,25.0,8.0,30.08,1019.3,,,,,,,,,,,,,,,Clear,72000.0,,,73000.0,,,,,,
KRDR,09-09-2009,21:00,METAR,,230,7.0,17.0,,9999.0,,26.0,8.0,30.08,1019.6,,,,,,,,,,,,,,,Clear,72000.0,,,73000.0,,,,,,
KRDR,09-09-2009,20:00,METAR,,230,9.0,,,9999.0,,25.0,8.0,30.10,1020.0,,,,,,,,,,,,,,,Clear,72000.0,,,73000.0,,,,,,
KRDR,09-09-2009,19:00,METAR,,230,12.0,,,9999.0,,25.0,10.0,30.11,1020.3,,,,,,,,,,,,,,,Clear,72000.0,,,73000.0,,,,,,
KRDR,09-09-2009,18:00,METAR,,230,11.0,,,9999.0,,24.0,8.0,30.12,1020.7,,,,,,,,,,,,,,,2/8 Mostly Clear,72000.0,,FEW,5000.0,,,,,,
KRDR,09-09-2009,17:00,METAR,,220,10.0,,,9999.0,,23.0,11.0,30.12,1020.9,,,,,,,,,,,,,,,2/8 Mostly Clear,72000.0,,FEW,5000.0,,,,,,
KRDR,09-09-2009,16:00,METAR,,250,7.0,,,9999.0,,21.0,12.0,30.11,1020.5,,,,,,,,,,,,,,,Clear,72000.0,,,73000.0,,,,,,
KRDR,09-09-2009,15:00,METAR,,250,6.0,,,9999.0,,19.0,12.0,30.10,1020.1,,,,,,,,,,,,,,,Clear,72000.0,,,73000.0,,,,,,
KRDR,09-09-2009,14:00,METAR,,240,5.0,,,9999.0,,16.0,12.0,30.09,1020.0,,,,,,,,,,,,,,,Clear,72000.0,,,73000.0,,,,,,
KRDR,09-09-2009,13:00,METAR,,250,8.0,,,9999.0,,13.0,10.0,30.08,1019.5,,,,,,,,,,,,,,,Clear,72000.0,,,73000.0,,,,,,
KRDR,09-09-2009,12:00,METAR,,250,7.0,,,9999.0,,10.0,9.0,30.05,1018.6,,,,,,,,,,,,,.01 IN,.25 IN,Clear,72000.0,,,73000.0,,,,,,
KRDR,09-09-2009,11:00,METAR,,230,4.0,,,9999.0,,10.0,9.0,30.04,1018.2,,,,,,,,,,,,,,,2/8 Mostly Clear,72000.0,,FEW,25000.0,,,,,,
KRDR,09-09-2009,10:00,METAR,,220,6.0,,,9999.0,,11.0,11.0,30.04,1018.0,,,,,,,,,,,,,,,Clear,72000.0,,,73000.0,,,,,,
KRDR,09-09-2009,09:00,METAR,,240,5.0,,,9999.0,,12.0,11.0,30.02,1017.6,,,,,,,,,,,,.01 IN,,,Clear,72000.0,,,73000.0,,,,,,
KRDR,09-09-2009,08:00,METAR,,270,8.0,,,9999.0,,13.0,13.0,30.01,1017.3,,,,,,,,,,,,,,,Clear,72000.0,,,73000.0,,,,,,
KRDR,09-09-2009,07:00,METAR,,240,5.0,,,9999.0,,14.0,13.0,29.99,1016.6,,,,,,,,,,,.01 IN,,,,Clear,72000.0,,,73000.0,,,,,,
KRDR,09-09-2009,06:00,METAR,,,0.0,,,9999.0,,16.0,15.0,29.96,1015.6,,,,,,,,,,,TRACE,,.19 IN,,Clear,72000.0,,,73000.0,,,,,,
KRDR,09-09-2009,05:00,METAR,,310,7.0,,,9999.0,,16.0,16.0,29.94,1015.0,,,,,,,,,,,.02 IN,,,,7/8 Mostly Cloudy,8500.0,,BKN,8400.0,,,,,,
KRDR,09-09-2009,04:37,SPECI,,290,6.0,,,9999.0,,16.0,16.0,29.95,1015.4,,,,,,,,,,,,,,,4/8 Partly Cloudy,72000.0,,SCT,8400.0,,,,,,
KRDR,09-09-2009,04:11,SPECI,,280,4.0,,,9999.0,,16.0,15.0,29.96,1015.4,,,,,,,,,,,,,,,Clear,72000.0,,,73000.0,,,,,,
KRDR,09-09-2009,04:09,SPECI,,280,3.0,,,9999.0,,16.0,15.0,29.95,1015.3,,,,,,,,,,,,,,,Clear,72000.0,,,73000.0,,,,,,
KRDR,09-09-2009,04:00,METAR,,240,3.0,,,9999.0,,16.0,16.0,29.95,1015.2,,,,,,,,,,,.02 IN,,,,Clear,72000.0,,,73000.0,,,,,,
KRDR,09-09-2009,03:25,SPECI,,280,8.0,,,9999.0,Fog or Ice Fog,17.0,16.0,29.94,1014.8,,,,40,,,,,,,,,,,2/8 Mostly Clear,72000.0,,FEW,1000.0,,,,,,
KRDR,09-09-2009,03:17,SPECI,,280,7.0,,,9999.0,,17.0,16.0,29.93,1014.4,,,,,,,,,,,,,,,2/8 Mostly Clear,72000.0,,FEW,1000.0,,,,,,
KRDR,09-09-2009,03:00,METAR,,290,5.0,,,9999.0,Rain,17.0,16.0,29.91,1014.0,,,,61,,,,,,,.05 IN,.15 IN,,,7/8 Mostly Cloudy,7000.0,,FEW,1000.0,BKN,6900.0,,,,
KRDR,09-09-2009,02:39,SPECI,,330,7.0,,,9999.0,Rain,17.0,16.0,29.90,1013.6,,,,61,,,,,,,,,,,4/8 Partly Cloudy,72000.0,,FEW,1100.0,SCT,6900.0,,,,
KRDR,09-09-2009,02:33,SPECI,,310,5.0,,,9999.0,,17.0,16.0,29.90,1013.6,,,,,,,,,,,,,,,4/8 Partly Cloudy,72000.0,,FEW,800.0,SCT,6900.0,,,,
KRDR,09-09-2009,02:06,SPECI,,310,9.0,,,9999.0,Rain,17.0,16.0,29.90,1013.5,,,,61,,,,,,,,,,,2/8 Mostly Clear,72000.0,,FEW,1100.0,,,,,,
KRDR,09-09-2009,02:00,METAR,,300,11.0,,,9999.0,Rain,17.0,16.0,29.89,1013.4,,,,63,,,,,,,.1 IN,,,,2/8 Mostly Clear,72000.0,,FEW,1100.0,,,,,,
KRDR,09-09-2009,01:48,SPECI,,310,10.0,21.0,,9999.0,Rain/Mist,17.0,16.0,29.90,1013.5,,,,63,10,,,,,,,,,,4/8 Partly Cloudy,72000.0,,FEW,1100.0,SCT,3100.0,,,,
KRDR,09-09-2009,01:00,METAR,,270,7.0,,,9999.0,Rain/Mist,19.0,18.0,29.86,1012.3,,,,61,10,,,,,,,,,,8/8 Overcast,2300.0,,BKN,2300.0,OVC,5400.0,,,,
KRDR,09-09-2009,00:00,METAR,,170,12.0,,,9999.0,,20.0,18.0,29.84,1011.5,,,,,,,,,,,,,TRACE,,8/8 Overcast,8000.0,,FEW,1500.0,SCT,2400.0,OVC,7900.0,,
KRDR,09-08-2009,23:00,METAR,,140,9.0,,,9999.0,,20.0,19.0,29.86,1012.1,,,,,,,,,,,,,,,8/8 Overcast,3200.0,,SCT,2100.0,BKN,3300.0,OVC,9900.0,,
KRDR,09-08-2009,22:00,METAR,,130,7.0,,,9999.0,,20.0,19.0,29.85,1012.0,,,,,,,,,,,,,,,8/8 Overcast,20000.0,,FEW,2500.0,SCT,7900.0,OVC,20000.0,,
KRDR,09-08-2009,21:00,METAR,,160,6.0,,,9999.0,,20.0,19.0,29.87,1012.6,,,,,,,,,,,TRACE,TRACE,,,8/8 Overcast,3300.0,,SCT,1600.0,BKN,3400.0,OVC,7900.0,,
KRDR,09-08-2009,20:11,SPECI,,170,9.0,,,9999.0,Rain,20.0,19.0,29.87,,,,,61,,,,,,,,,,,8/8 Overcast,3000.0,,SCT,1700.0,BKN,3000.0,OVC,7900.0,,
KRDR,09-08-2009,20:00,METAR,,180,9.0,,,9999.0,,20.0,19.0,29.87,1012.5,,,,,,,,,,,TRACE,,,,8/8 Overcast,3200.0,,SCT,1800.0,BKN,3300.0,OVC,7400.0,,
KRDR,09-08-2009,19:29,SPECI,,180,12.0,,,9999.0,,20.0,18.0,29.85,,,,,,,,,,,,,,,,8/8 Overcast,3400.0,,FEW,1500.0,SCT,2800.0,BKN,3500.0,OVC,11000.0
KRDR,09-08-2009,19:11,SPECI,,170,11.0,,,9999.0,Rain,21.0,18.0,29.84,,,,,61,,,,,,,,,,,8/8 Overcast,2700.0,,BKN,2700.0,OVC,11000.0,,,,
KRDR,09-08-2009,19:00,METAR,,180,17.0,23.0,,9999.0,Thunderstorm,21.0,18.0,29.84,1011.6,,,,17,,,,,,,,,,,8/8 Overcast,1400.0,,OVC,1600.0,,,,,,
KRDR,09-08-2009,18:09,SPECI,,180,17.0,,,9999.0,Thunderstorm,21.0,18.0,29.84,1011.4,,,,17,,,,,,,,,,,8/8 Overcast,2200.0,,OVC,2200.0,,,,,,
KRDR,09-08-2009,18:00,METAR,,170,18.0,22.0,,9999.0,,21.0,18.0,29.83,1011.3,,,,,,,,,,,,,.05 IN,,8/8 Overcast,2100.0,,OVC,2100.0,,,,,,
KRDR,09-08-2009,17:35,SPECI,,150,18.0,24.0,,9999.0,,21.0,18.0,29.82,1010.7,,,,,,,,,,,,,,,8/8 Overcast,2100.0,,OVC,2100.0,,,,,,
KRDR,09-08-2009,17:18,SPECI,,160,17.0,,,9999.0,Thunderstorm,21.0,18.0,29.82,1011.1,,,,17,,,,,,,,,,,8/8 Overcast,2000.0,,OVC,2000.0,,,,,,
KRDR,09-08-2009,17:00,METAR,,170,16.0,,,9999.0,,21.0,18.0,29.84,1011.7,,,,,,,,,,,,,,,8/8 Overcast,2100.0,,SCT,1900.0,OVC,2100.0,,,,
KRDR,09-08-2009,16:00,METAR,,170,14.0,,,9999.0,,21.0,18.0,29.83,1011.3,,,,,,,,,,,,,,,8/8 Overcast,2500.0,,SCT,1900.0,BKN,2500.0,OVC,3300.0,,
KRDR,09-08-2009,15:00,METAR,,160,11.0,,,9999.0,,19.0,17.0,29.85,1011.7,,,,,,,,,,,.01 IN,.05 IN,,,7/8 Mostly Cloudy,2700.0,,SCT,2300.0,BKN,2700.0,,,,
KRDR,09-08-2009,14:48,SPECI,,160,11.0,,,9999.0,,19.0,17.0,29.85,1011.8,,,,,,,,,,,,,,,7/8 Mostly Cloudy,2900.0,,SCT,2300.0,BKN,2900.0,,,,
KRDR,09-08-2009,14:07,SPECI,,160,16.0,23.0,,9999.0,,19.0,17.0,29.84,1011.5,,,,,,,,,,,,,,,8/8 Overcast,5500.0,,FEW,1500.0,BKN,5400.0,OVC,20000.0,,
KRDR,09-08-2009,14:00,METAR,,140,8.0,,,9999.0,Thunderstorm with Rain or Snow/Light Rain Showers,19.0,17.0,29.84,1011.6,,,,95,80,,,,,,.04 IN,,,,8/8 Overcast,4900.0,,SCT,1500.0,SCT,2200.0,BKN,5000.0,OVC,20000.0
KRDR,09-08-2009,13:36,SPECI,,190,8.0,,,4800.0,Thunderstorm with Rain or Snow/Rain Showers,20.0,16.0,29.87,,,,,95,81,,,,,,,,,,8/8 Overcast,2200.0,,BKN,2200.0,OVC,3500.0,,,,
KRDR,09-08-2009,13:29,SPECI,,200,10.0,,,9999.0,Thunderstorm,20.0,16.0,29.87,1012.5,,,,17,,,,,,,,,,,8/8 Overcast,2800.0,,SCT,2200.0,BKN,2800.0,OVC,3500.0,,
KRDR,09-08-2009,13:14,SPECI,,180,12.0,,,9999.0,Thunderstorm,20.0,16.0,29.86,1012.4,,,,17,,,,,,,,,,,8/8 Overcast,3900.0,,SCT,2800.0,OVC,4000.0,,,,
KRDR,09-08-2009,13:00,METAR,,180,12.0,,,9999.0,,20.0,16.0,29.85,1011.9,,,,,,,,,,,,,,,8/8 Overcast,3900.0,,SCT,2800.0,OVC,4000.0,,,,
KRDR,09-08-2009,12:00,METAR,,140,12.0,,,9999.0,,20.0,16.0,29.81,1010.7,,,,,,,,,,,,,,,8/8 Overcast,6000.0,,SCT,4300.0,OVC,5900.0,,,,
KRDR,09-08-2009,11:00,METAR,,140,12.0,,,9999.0,,20.0,15.0,29.84,1011.5,,,,,,,,,,,,,,,8/8 Overcast,5500.0,,OVC,5400.0,,,,,,
KRDR,09-08-2009,10:00,METAR,,150,8.0,,,9999.0,,20.0,15.0,29.86,1012.1,,,,,,,,,,,,,,,8/8 Overcast,4400.0,,OVC,4500.0,,,,,,
KRDR,09-08-2009,09:00,METAR,,140,10.0,,,9999.0,,19.0,15.0,29.86,1012.2,,,,,,,,,,,,,,,7/8 Mostly Cloudy,20000.0,,SCT,4700.0,BKN,20000.0,,,,
KRDR,09-08-2009,08:00,METAR,,140,11.0,,,9999.0,,21.0,16.0,29.87,1012.5,,,,,,,,,,,,,,,7/8 Mostly Cloudy,4900.0,,BKN,5000.0,,,,,,
KRDR,09-08-2009,07:00,METAR,,160,10.0,,,9999.0,,22.0,16.0,29.89,1013.3,,,,,,,,,,,,,,,8/8 Overcast,4500.0,,OVC,4600.0,,,,,,
KRDR,09-08-2009,06:00,METAR,,160,13.0,,,9999.0,,22.0,16.0,29.89,1013.3,,,,,,,,,,,,,,,8/8 Overcast,5500.0,,OVC,5400.0,,,,,,
KRDR,09-08-2009,05:00,METAR,,150,11.0,,,9999.0,,22.0,16.0,29.90,1013.5,,,,,,,,,,,,,,,8/8 Overcast,4900.0,,OVC,5000.0,,,,,,
KRDR,09-08-2009,04:00,METAR,,150,12.0,,,9999.0,,23.0,16.0,29.90,1013.6,,,,,,,,,,,,,,,7/8 Mostly Cloudy,6000.0,,BKN,5900.0,,,,,,
KRDR,09-08-2009,03:00,METAR,,150,9.0,,,9999.0,,23.0,16.0,29.91,1013.8,,,,,,,,,,,,,,,8/8 Overcast,4900.0,,OVC,5000.0,,,,,,
KRDR,09-08-2009,02:00,METAR,,140,11.0,,,9999.0,,23.0,15.0,29.90,1013.6,,,,,,,,,,,,,,,8/8 Overcast,4800.0,,OVC,4900.0,,,,,,
KRDR,09-08-2009,01:00,METAR,,150,9.0,,,9999.0,,24.0,15.0,29.90,1013.4,,,,,,,,,,,,,,,7/8 Mostly Cloudy,4900.0,,BKN,5000.0,,,,,,
KRDR,09-08-2009,00:00,METAR,,150,9.0,,,9999.0,,25.0,14.0,29.89,1013.4,,,,,,,,,,,,,,,8/8 Overcast,4900.0,,OVC,5000.0,,,,,,
KRDR,09-07-2009,23:00,METAR,,160,16.0,,170/27KTS,9999.0,,26.0,14.0,29.90,1013.4,,,,,,,,,,,,,,,2/8 Mostly Clear,72000.0,,FEW,5900.0,,,,,,
KRDR,09-07-2009,22:00,METAR,,170,19.0,23.0,,9999.0,,27.0,14.0,29.91,1013.8,,,,,,,,,,,,,,,Clear,72000.0,,,73000.0,,,,,,
KRDR,09-07-2009,21:00,METAR,,160,18.0,26.0,170/27KTS,9999.0,,27.0,14.0,29.91,1013.9,,,,,,,,,,,,,,,Clear,72000.0,,,73000.0,,,,,,
KRDR,09-07-2009,20:00,METAR,,170,16.0,26.0,160/26KTS,9999.0,,27.0,14.0,29.93,1014.5,,,,,,,,,,,,,,,Clear,72000.0,,,73000.0,,,,,,
KRDR,09-07-2009,19:00,METAR,,160,18.0,26.0,170/27KTS,9999.0,,27.0,14.0,29.95,1015.1,,,,,,,,,,,,,,,Clear,72000.0,,,73000.0,,,,,,
KRDR,09-07-2009,18:00,METAR,,170,19.0,26.0,150/26KTS,9999.0,,26.0,13.0,29.96,1015.5,,,,,,,,,,,,,,,Clear,72000.0,,,73000.0,,,,,,
KRDR,09-07-2009,17:00,METAR,,180,18.0,25.0,,9999.0,,24.0,14.0,29.97,1015.9,,,,,,,,,,,,,,,Clear,72000.0,,,73000.0,,,,,,
KRDR,09-07-2009,16:00,METAR,,160,14.0,,,9999.0,,23.0,14.0,29.98,1016.2,,,,,,,,,,,,,,,Clear,72000.0,,,73000.0,,,,,,
KRDR,09-07-2009,15:00,METAR,,160,12.0,,,9999.0,,19.0,14.0,29.98,1016.3,,,,,,,,,,,,,,,Clear,72000.0,,,73000.0,,,,,,
KRDR,09-07-2009,14:00,METAR,,160,9.0,,,9999.0,,16.0,14.0,30.00,1016.7,,,,,,,,,,,,,,,Clear,72000.0,,,73000.0,,,,,,
KRDR,09-07-2009,13:00,METAR,,150,7.0,,,9999.0,,14.0,13.0,30.00,1017.0,,,,,,,,,,,,,,,Clear,72000.0,,,73000.0,,,,,,
KRDR,09-07-2009,12:00,METAR,,140,6.0,,,9999.0,,15.0,13.0,30.00,1016.9,,,,,,,,,,,,,,,Clear,72000.0,,,73000.0,,,,,,
KRDR,09-07-2009,11:00,METAR,,160,9.0,,,9999.0,,14.0,14.0,30.00,1016.9,,,,,,,,,,,,,,,Clear,72000.0,,,73000.0,,,,,,
KRDR,09-07-2009,10:00,METAR,,160,11.0,,,9999.0,,15.0,14.0,30.01,1017.0,,,,,,,,,,,,,,,Clear,72000.0,,,73000.0,,,,,,
KRDR,09-07-2009,09:00,METAR,,160,9.0,,,9999.0,,15.0,14.0,30.01,1017.2,,,,,,,,,,,,,,,Clear,72000.0,,,73000.0,,,,,,
KRDR,09-07-2009,08:00,METAR,,160,7.0,,,9999.0,,15.0,14.0,30.02,1017.4,,,,,,,,,,,,,,,Clear,72000.0,,,73000.0,,,,,,
KRDR,09-07-2009,07:00,METAR,,170,6.0,,,9999.0,,15.0,14.0,30.02,1017.6,,,,,,,,,,,,,,,Clear,72000.0,,,73000.0,,,,,,
KRDR,09-07-2009,06:00,METAR,,170,6.0,,,9999.0,,17.0,14.0,30.02,1017.4,,,,,,,,,,,,,,,Clear,72000.0,,,73000.0,,,,,,
KRDR,09-07-2009,05:00,METAR,,160,7.0,,,9999.0,,17.0,14.0,30.02,1017.5,,,,,,,,,,,,,,,Clear,72000.0,,,73000.0,,,,,,
KRDR,09-07-2009,04:00,METAR,,160,7.0,,,9999.0,,17.0,14.0,30.02,1017.5,,,,,,,,,,,,,,,Clear,72000.0,,,73000.0,,,,,,
KRDR,09-07-2009,03:00,METAR,,150,8.0,,,9999.0,,20.0,15.0,30.02,1017.4,,,,,,,,,,,,,,,Clear,72000.0,,,73000.0,,,,,,
KRDR,09-07-2009,02:00,METAR,,150,7.0,,,9999.0,,20.0,15.0,30.01,1017.3,,,,,,,,,,,,,,,Clear,72000.0,,,73000.0,,,,,,
KRDR,09-07-2009,01:00,METAR,,170,6.0,,,9999.0,,22.0,15.0,30.01,1017.1,,,,,,,,,,,,,,,Clear,72000.0,,,73000.0,,,,,,
KRDR,09-07-2009,00:00,METAR,,180,12.0,,,9999.0,,26.0,15.0,30.00,1016.9,,,,,,,,,,,,,,,Clear,72000.0,,,73000.0,,,,,,
KRDR,09-06-2009,23:00,METAR,,180,12.0,,,9999.0,,27.0,15.0,30.00,1016.9,,,,,,,,,,,,,,,Clear,72000.0,,,73000.0,,,,,,
KRDR,09-06-2009,22:00,METAR,,190,16.0,,,9999.0,,28.0,15.0,30.00,1016.9,,,,,,,,,,,,,,,Clear,72000.0,,,73000.0,,,,,,
KRDR,09-06-2009,21:00,METAR,,200,13.0,,,9999.0,,29.0,15.0,30.01,1017.3,,,,,,,,,,,,,,,Clear,72000.0,,,73000.0,,,,,,
KRDR,09-06-2009,20:00,METAR,,210,14.0,23.0,,9999.0,,29.0,16.0,30.02,1017.5,,,,,,,,,,,,,,,Clear,72000.0,,,73000.0,,,,,,
KRDR,09-06-2009,19:00,METAR,,190,11.0,,,9999.0,,28.0,17.0,30.03,1017.9,,,,,,,,,,,,,,,Clear,72000.0,,,73000.0,,,,,,
KRDR,09-06-2009,18:00,METAR,,180,13.0,,,9999.0,,26.0,17.0,30.05,1018.4,,,,,,,,,,,,,,,Clear,72000.0,,,73000.0,,,,,,
KRDR,09-06-2009,17:00,METAR,,190,11.0,,,9999.0,,25.0,17.0,30.05,1018.5,,,,,,,,,,,,,,,Clear,72000.0,,,73000.0,,,,,,
KRDR,09-06-2009,16:00,METAR,,200,12.0,,,9999.0,,23.0,16.0,30.05,1018.5,,,,,,,,,,,,,,,Clear,72000.0,,,73000.0,,,,,,
KRDR,09-06-2009,15:00,METAR,,200,11.0,,,9999.0,,21.0,15.0,30.06,1018.7,,,,,,,,,,,,,,,Clear,72000.0,,,73000.0,,,,,,
KRDR,09-06-2009,14:00,METAR,,190,9.0,,,9999.0,,18.0,15.0,30.06,1018.7,,,,,,,,,,,,,,,Clear,72000.0,,,73000.0,,,,,,
KRDR,09-06-2009,13:00,METAR,,180,7.0,,,9999.0,,16.0,15.0,30.06,1018.7,,,,,,,,,,,,,,,Clear,72000.0,,,73000.0,,,,,,
KRDR,09-06-2009,12:00,METAR,,180,8.0,,,9999.0,,15.0,14.0,30.04,1018.2,,,,,,,,,,,,,,,Clear,72000.0,,,73000.0,,,,,,
KRDR,09-06-2009,11:00,METAR,,180,8.0,,,9999.0,,15.0,14.0,30.04,1018.0,,,,,,,,,,,,,,,Clear,72000.0,,,73000.0,,,,,,
KRDR,09-06-2009,10:00,METAR,,180,5.0,,,9999.0,,16.0,14.0,30.03,1017.7,,,,,,,,,,,,,,,Clear,72000.0,,,73000.0,,,,,,
KRDR,09-06-2009,09:00,METAR,,190,8.0,,,9999.0,,17.0,15.0,30.02,1017.6,,,,,,,,,,,,,,,Clear,72000.0,,,73000.0,,,,,,
KRDR,09-06-2009,08:00,METAR,,190,9.0,,,9999.0,,18.0,15.0,30.02,1017.6,,,,,,,,,,,,,,,Clear,72000.0,,,73000.0,,,,,,
KRDR,09-06-2009,07:00,METAR,,200,11.0,,,9999.0,,19.0,15.0,30.02,1017.5,,,,,,,,,,,,,,,Clear,72000.0,,,73000.0,,,,,,
KRDR,09-06-2009,06:00,METAR,,190,11.0,,,9999.0,,20.0,15.0,30.02,1017.4,,,,,,,,,,,,,,,Clear,72000.0,,,73000.0,,,,,,
KRDR,09-06-2009,05:00,METAR,,190,10.0,,,9999.0,,19.0,16.0,30.02,1017.3,,,,,,,,,,,,,,,Clear,72000.0,,,73000.0,,,,,,
KRDR,09-06-2009,04:00,METAR,,180,10.0,,,9999.0,,20.0,16.0,30.02,1017.5,,,,,,,,,,,,,,,Clear,72000.0,,,73000.0,,,,,,
KRDR,09-06-2009,03:00,METAR,,180,10.0,,,9999.0,,21.0,16.0,30.01,1017.0,,,,,,,,,,,,,,,Clear,72000.0,,,73000.0,,,,,,
KRDR,09-06-2009,02:00,METAR,,170,9.0,,,9999.0,,22.0,16.0,30.00,1016.8,,,,,,,,,,,,,,,Clear,72000.0,,,73000.0,,,,,,
KRDR,09-06-2009,01:00,METAR,,180,10.0,,,9999.0,,24.0,16.0,30.00,1016.8,,,,,,,,,,,,,,,Clear,72000.0,,,73000.0,,,,,,
KRDR,09-06-2009,00:00,METAR,,170,13.0,,,9999.0,,26.0,16.0,30.00,1016.7,,,,,,,,,,,,,,,Clear,72000.0,,,73000.0,,,,,,
KRDR,09-05-2009,23:00,METAR,,180,15.0,,,9999.0,,27.0,15.0,30.00,1016.7,,,,,,,,,,,,,,,2/8 Mostly Clear,72000.0,,FEW,22000.0,,,,,,
KRDR,09-05-2009,22:00,METAR,,180,18.0,,,9999.0,,27.0,16.0,30.00,1016.7,,,,,,,,,,,,,,,4/8 Partly Cloudy,72000.0,,SCT,22000.0,,,,,,
KRDR,09-05-2009,21:00,METAR,,190,18.0,,,9999.0,,28.0,15.0,30.00,1017.0,,,,,,,,,,,,,,,Clear,72000.0,,,73000.0,,,,,,
KRDR,09-05-2009,20:00,METAR,,190,16.0,22.0,190/27KTS,9999.0,,27.0,16.0,30.02,1017.4,,,,,,,,,,,,,,,4/8 Partly Cloudy,72000.0,,FEW,12000.0,SCT,22000.0,,,,
KRDR,09-05-2009,19:00,METAR,,190,20.0,25.0,,9999.0,,26.0,16.0,30.03,1017.7,,,,,,,,,,,,,,,Clear,72000.0,,,73000.0,,,,,,
KRDR,09-05-2009,18:00,METAR,,190,19.0,23.0,,9999.0,,25.0,15.0,30.04,1018.2,,,,,,,,,,,,,,,Clear,72000.0,,,73000.0,,,,,,
KRDR,09-05-2009,17:00,METAR,,200,15.0,,,9999.0,,23.0,15.0,30.06,1018.7,,,,,,,,,,,,,,,Clear,72000.0,,,73000.0,,,,,,
KRDR,09-05-2009,16:00,METAR,,190,15.0,,,9999.0,,21.0,14.0,30.06,1019.0,,,,,,,,,,,,,,,Clear,72000.0,,,73000.0,,,,,,
KRDR,09-05-2009,15:00,METAR,,180,14.0,,,9999.0,,18.0,13.0,30.06,1018.8,,,,,,,,,,,,,,,Clear,72000.0,,,73000.0,,,,,,
KRDR,09-05-2009,14:00,METAR,,180,12.0,,,9999.0,,16.0,12.0,30.07,1019.1,,,,,,,,,,,,,,,Clear,72000.0,,,73000.0,,,,,,
KRDR,09-05-2009,13:00,METAR,,170,8.0,,,9999.0,,13.0,12.0,30.06,1018.9,,,,,,,,,,,,,,,Clear,72000.0,,,73000.0,,,,,,
KRDR,09-05-2009,12:00,METAR,,160,8.0,,,9999.0,,12.0,11.0,30.06,1018.7,,,,,,,,,,,,,,,Clear,72000.0,,,73000.0,,,,,,
KRDR,09-05-2009,11:00,METAR,,160,8.0,,,9999.0,,12.0,11.0,30.06,1018.8,,,,,,,,,,,,,,,Clear,72000.0,,,73000.0,,,,,,
KRDR,09-05-2009,10:00,METAR,,160,8.0,,,9999.0,,13.0,11.0,30.06,1019.0,,,,,,,,,,,,,,,Clear,72000.0,,,73000.0,,,,,,
KRDR,09-05-2009,09:00,METAR,,160,8.0,,,9999.0,,13.0,12.0,30.05,1018.6,,,,,,,,,,,,,,,Clear,72000.0,,,73000.0,,,,,,
KRDR,09-05-2009,08:00,METAR,,160,8.0,,,9999.0,,13.0,12.0,30.05,1018.5,,,,,,,,,,,,,,,Clear,72000.0,,,73000.0,,,,,,
KRDR,09-05-2009,07:00,METAR,,170,6.0,,,9999.0,,13.0,12.0,30.06,1018.7,,,,,,,,,,,,,,,Clear,72000.0,,,73000.0,,,,,,
KRDR,09-05-2009,06:00,METAR,,160,6.0,,,9999.0,,14.0,12.0,30.06,1018.8,,,,,,,,,,,,,TRACE,,Clear,72000.0,,,73000.0,,,,,,
KRDR,09-05-2009,05:00,METAR,,180,9.0,,,9999.0,,16.0,13.0,30.06,1019.0,,,,,,,,,,,,,,,Clear,72000.0,,,73000.0,,,,,,
KRDR,09-05-2009,04:00,METAR,,170,9.0,,,9999.0,,17.0,13.0,30.07,1019.2,,,,,,,,,,,,,,,Clear,72000.0,,,73000.0,,,,,,
KRDR,09-05-2009,03:00,METAR,,180,8.0,,,9999.0,,17.0,13.0,30.06,1018.7,,,,,,,,,,,,TRACE,,,Clear,72000.0,,,73000.0,,,,,,
KRDR,09-05-2009,02:00,METAR,,160,9.0,,,9999.0,,18.0,13.0,30.04,1018.2,,,,,,,,,,,TRACE,,,,Clear,72000.0,,,73000.0,,,,,,
KRDR,09-05-2009,01:00,METAR,,160,8.0,,,9999.0,,20.0,14.0,30.03,1018.0,,,,,,,,,,,TRACE,,,,Clear,72000.0,,,73000.0,,,,,,
KRDR,09-05-2009,00:47,SPECI,,170,7.0,,,9999.0,,21.0,14.0,30.03,1017.9,,,,,,,,,,,,,,,Clear,72000.0,,,73000.0,,,,,,
KRDR,09-05-2009,00:00,METAR,,180,11.0,,,9999.0,,23.0,13.0,30.03,1017.9,,,,,,,,,,,,,,,Clear,72000.0,,,73000.0,,,,,,
KRDR,09-04-2009,23:00,METAR,,190,11.0,,,9999.0,,25.0,13.0,30.04,1018.0,,,,,,,,,,,,,,,Clear,72000.0,,,73000.0,,,,,,
KRDR,09-04-2009,22:00,METAR,,200,15.0,20.0,,9999.0,,25.0,13.0,30.05,1018.4,,,,,,,,,,,,,,,Clear,72000.0,,,73000.0,,,,,,
KRDR,09-04-2009,21:00,METAR,,180,16.0,,,9999.0,,25.0,13.0,30.06,1018.8,,,,,,,,,,,,,,,Clear,72000.0,,,73000.0,,,,,,
KRDR,09-04-2009,20:00,METAR,,180,16.0,,,9999.0,,25.0,13.0,30.07,1019.3,,,,,,,,,,,,,,,2/8 Mostly Clear,72000.0,,FEW,4700.0,,,,,,
KRDR,09-04-2009,19:00,METAR,,190,11.0,,,9999.0,,25.0,14.0,30.09,1019.8,,,,,,,,,,,,,,,2/8 Mostly Clear,72000.0,,FEW,4500.0,,,,,,
KRDR,09-04-2009,18:00,METAR,,200,8.0,,,9999.0,,23.0,15.0,30.10,1020.1,,,,,,,,,,,,,,,4/8 Partly Cloudy,72000.0,,SCT,4400.0,,,,,,
KRDR,09-04-2009,17:00,METAR,,190,8.0,,,9999.0,,23.0,15.0,30.10,1020.3,,,,,,,,,,,,,,,2/8 Mostly Clear,72000.0,,FEW,4400.0,,,,,,
KRDR,09-04-2009,16:00,METAR,,180,7.0,,,9999.0,,21.0,16.0,30.11,1020.4,,,,,,,,,,,,,,,2/8 Mostly Clear,72000.0,,FEW,5000.0,,,,,,
KRDR,09-04-2009,15:00,METAR,,180,5.0,,,9999.0,,20.0,16.0,30.11,1020.3,,,,,,,,,,,,,,,4/8 Partly Cloudy,72000.0,,SCT,3500.0,,,,,,
KRDR,09-04-2009,14:00,METAR,,180,7.0,,,9999.0,,16.0,15.0,30.10,1020.1,,,,,,,,,,,,,,,Clear,72000.0,,,73000.0,,,,,,
KRDR,09-04-2009,13:00,METAR,,150,4.0,,,9999.0,,14.0,13.0,30.10,1020.2,,,,,,,,,,,,,,,Clear,72000.0,,,73000.0,,,,,,
KRDR,09-04-2009,12:00,METAR,,170,5.0,,,9999.0,,13.0,12.0,30.11,1020.4,,,,,,,,,,,,,,,Clear,72000.0,,,73000.0,,,,,,
KRDR,09-04-2009,11:00,METAR,,150,4.0,,,9999.0,,13.0,12.0,30.11,1020.3,,,,,,,,,,,,,,,Clear,72000.0,,,73000.0,,,,,,
KRDR,09-04-2009,10:00,METAR,,180,5.0,,,9999.0,,13.0,12.0,30.10,1020.3,,,,,,,,,,,,,,,Clear,72000.0,,,73000.0,,,,,,
KRDR,09-04-2009,09:00,METAR,,190,4.0,,,9999.0,,12.0,12.0,30.11,1020.3,,,,,,,,,,,,,,,Clear,72000.0,,,73000.0,,,,,,
KRDR,09-04-2009,08:00,METAR,,,0.0,,,9999.0,,13.0,12.0,30.10,1020.2,,,,,,,,,,,,,,,Clear,72000.0,,,73000.0,,,,,,
KRDR,09-04-2009,07:00,METAR,,180,3.0,,,9999.0,,13.0,13.0,30.10,1020.3,,,,,,,,,,,,,,,Clear,72000.0,,,73000.0,,,,,,
KRDR,09-04-2009,06:00,METAR,,180,4.0,,,9999.0,,14.0,13.0,30.10,1020.1,,,,,,,,,,,,,,,Clear,72000.0,,,73000.0,,,,,,
KRDR,09-04-2009,05:00,METAR,,190,4.0,,,9999.0,,14.0,13.0,30.11,1020.3,,,,,,,,,,,,,,,Clear,72000.0,,,73000.0,,,,,,
KRDR,09-04-2009,04:00,METAR,,,0.0,,,9999.0,,16.0,14.0,30.10,1020.2,,,,,,,,,,,,,,,Clear,72000.0,,,73000.0,,,,,,
KRDR,09-04-2009,03:00,METAR,,170,4.0,,,9999.0,,17.0,15.0,30.10,1020.2,,,,,,,,,,,,,,,Clear,72000.0,,,73000.0,,,,,,
KRDR,09-04-2009,02:00,METAR,,150,6.0,,,9999.0,,19.0,16.0,30.09,1019.7,,,,,,,,,,,,,,,Clear,72000.0,,,73000.0,,,,,,
KRDR,09-04-2009,01:00,METAR,,150,6.0,,,9999.0,,21.0,16.0,30.09,1019.7,,,,,,,,,,,,,,,Clear,72000.0,,,73000.0,,,,,,
KRDR,09-04-2009,00:00,METAR,,140,5.0,,,9999.0,,23.0,17.0,30.09,1019.7,,,,,,,,,,,,,,,2/8 Mostly Clear,72000.0,,FEW,5000.0,FEW,12000.0,,,,
KRDR,09-03-2009,23:00,METAR,,140,6.0,,,9999.0,,25.0,16.0,30.09,1020.0,,,,,,,,,,,,,,,4/8 Partly Cloudy,72000.0,,FEW,4500.0,SCT,12000.0,,,,
KRDR,09-03-2009,22:00,METAR,,120,8.0,,,9999.0,,25.0,17.0,30.11,1020.4,,,,,,,,,,,,,,,7/8 Mostly Cloudy,10000.0,,SCT,4000.0,BKN,9900.0,,,,
KRDR,09-03-2009,21:00,METAR,,160,3.0,,,9999.0,,25.0,16.0,30.12,1020.8,,,,,,,,,,,,,,,7/8 Mostly Cloudy,3800.0,,BKN,3900.0,BKN,9900.0,,,,
KRDR,09-03-2009,20:00,METAR,,,5.0,,,9999.0,,25.0,17.0,30.13,1021.1,,,,,,,,,,,,,,,7/8 Mostly Cloudy,3500.0,,BKN,3600.0,,,,,,
KRDR,09-03-2009,19:00,METAR,,160,7.0,,,9999.0,,24.0,16.0,30.13,1021.3,,,,,,,,,,,,,,,7/8 Mostly Cloudy,9000.0,,SCT,3300.0,BKN,8900.0,,,,
KRDR,09-03-2009,18:00,METAR,,,4.0,,,9999.0,,23.0,16.0,30.15,1021.8,,,,,,,,,,,,,,,2/8 Mostly Clear,72000.0,,FEW,4200.0,,,,,,
KRDR,09-03-2009,17:00,METAR,,120,7.0,,,9999.0,,22.0,16.0,30.16,1022.1,,,,,,,,,,,,,,,Clear,72000.0,,,73000.0,,,,,,
KRDR,09-03-2009,16:00,METAR,,,0.0,,,9999.0,,20.0,16.0,30.17,1022.3,,,,,,,,,,,,,,,Clear,72000.0,,,73000.0,,,,,,
KRDR,09-03-2009,15:00,METAR,,,0.0,,,9999.0,,18.0,18.0,30.15,1021.8,,,,,,,,,,,,,,,Clear,72000.0,,,73000.0,,,,,,
KRDR,09-03-2009,14:00,METAR,,,0.0,,,9999.0,,15.0,15.0,30.15,1021.6,,,,,,,,,,,,,,,Clear,72000.0,,,73000.0,,,,,,
KRDR,09-03-2009,13:36,SPECI,,,0.0,,,4800.0,Mist,14.0,14.0,30.14,1021.6,,,,10,,,,,,,,,,,Clear,72000.0,,,73000.0,,,,,,
KRDR,09-03-2009,13:32,SPECI,,,0.0,,,3200.0,Mist,14.0,14.0,30.14,1021.5,,,,10,,,,,,,,,,,Clear,72000.0,,,73000.0,,,,,,
KRDR,09-03-2009,13:27,SPECI,,,0.0,,,2800.0,Mist,14.0,14.0,30.14,1021.5,,,,10,,,,,,,,,,,Clear,72000.0,,,73000.0,,,,,,
KRDR,09-03-2009,13:23,SPECI,,,0.0,,,4000.0,Mist,13.0,13.0,30.14,1021.5,,,,10,,,,,,,,,,,Clear,72000.0,,,73000.0,,,,,,
KRDR,09-03-2009,13:00,METAR,,,0.0,,,8000.0,Mist,12.0,12.0,30.14,1021.4,,,,10,,,,,,,,,,,Clear,72000.0,,,73000.0,,,,,,
KRDR,09-03-2009,12:46,SPECI,,,0.0,,,4800.0,Mist,12.0,12.0,30.14,1021.3,,,,10,,,,,,,,,,,Clear,72000.0,,,73000.0,,,,,,
KRDR,09-03-2009,12:42,SPECI,,,0.0,,,3200.0,Mist,12.0,11.0,30.14,1021.3,,,,10,,,,,,,,,,,Clear,72000.0,,,73000.0,,,,,,
KRDR,09-03-2009,12:41,SPECI,,,0.0,,,2800.0,Mist,11.0,11.0,30.14,1021.3,,,,10,,,,,,,,,,,Clear,72000.0,,,73000.0,,,,,,
KRDR,09-03-2009,12:38,SPECI,,,0.0,,,1600.0,Mist,11.0,11.0,30.14,1021.3,,,,10,,,,,,,,,,,Clear,72000.0,,,73000.0,,,,,,
KRDR,09-03-2009,12:36,SPECI,,,0.0,,,1200.0,Mist,11.0,11.0,30.13,1021.2,,,,10,,,,,,,,,,,Clear,72000.0,,,73000.0,,,,,,
KRDR,09-03-2009,12:33,SPECI,,,0.0,,,800.0,Fog or Ice Fog,11.0,11.0,30.13,1021.2,,,,44,,,,,,,,,,,Clear,72000.0,,,73000.0,,,,,,
KRDR,09-03-2009,12:28,SPECI,,,0.0,,,400.0,Fog or Ice Fog,11.0,11.0,30.13,1021.1,,,,44,,,,,,,,,,,Clear,72000.0,,,73000.0,,,,,,
KRDR,09-03-2009,12:00,METAR,,,0.0,,,400.0,Fog or Ice Fog,10.0,10.0,30.13,1021.1,,,,44,,,,,,,,,,,Clear,72000.0,,,73000.0,,,,,,
KRDR,09-03-2009,11:54,SPECI,,,0.0,,,400.0,Fog or Ice Fog,10.0,10.0,30.13,1021.1,,,,44,,,,,,,,,,,Clear,72000.0,,,73000.0,,,,,,
KRDR,09-03-2009,11:18,SPECI,,,0.0,,,400.0,Fog or Ice Fog,10.0,10.0,30.13,1021.1,,,,44,,,,,,,,,,,Clear,72000.0,,,73000.0,,,,,,
KRDR,09-03-2009,11:13,SPECI,,,0.0,,,400.0,Fog or Ice Fog,10.0,10.0,30.13,1021.0,,,,44,,,,,,,,,,,Clear,72000.0,,,73000.0,,,,,,
KRDR,09-03-2009,11:11,SPECI,,,0.0,,,400.0,Fog or Ice Fog,10.0,10.0,30.12,1021.0,,,,44,,,,,,,,,,,Clear,72000.0,,,73000.0,,,,,,
KRDR,09-03-2009,11:08,SPECI,,,0.0,,,400.0,Fog or Ice Fog,10.0,10.0,30.12,1020.9,,,,44,,,,,,,,,,,Clear,72000.0,,,73000.0,,,,,,
KRDR,09-03-2009,11:05,SPECI,,,0.0,,,400.0,Fog or Ice Fog,10.0,10.0,30.13,1021.0,,,,44,,,,,,,,,,,Clear,72000.0,,,73000.0,,,,,,
KRDR,09-03-2009,11:00,METAR,,,0.0,,,400.0,Fog or Ice Fog,10.0,10.0,30.12,1020.9,,,,44,,,,,,,,,,,Clear,72000.0,,,73000.0,,,,,,
KRDR,09-03-2009,10:42,SPECI,,,0.0,,,800.0,Fog or Ice Fog,11.0,10.0,30.12,1020.9,,,,44,,,,,,,,,,,Clear,72000.0,,,73000.0,,,,,,
KRDR,09-03-2009,10:32,SPECI,,,0.0,,,400.0,Fog or Ice Fog,11.0,11.0,30.12,1020.8,,,,44,,,,,,,,,,,Clear,72000.0,,,73000.0,,,,,,
KRDR,09-03-2009,10:30,SPECI,,,0.0,,,800.0,Fog or Ice Fog,11.0,10.0,30.12,1020.9,,,,44,,,,,,,,,,,Clear,72000.0,,,73000.0,,,,,,
KRDR,09-03-2009,10:28,SPECI,,,0.0,,,800.0,Fog or Ice Fog,10.0,10.0,30.12,1020.9,,,,44,,,,,,,,,,,Clear,72000.0,,,73000.0,,,,,,
KRDR,09-03-2009,10:25,SPECI,,,0.0,,,1200.0,Mist,10.0,10.0,30.12,1020.9,,,,10,,,,,,,,,,,Clear,72000.0,,,73000.0,,,,,,
KRDR,09-03-2009,10:22,SPECI,,,0.0,,,1600.0,Mist,10.0,10.0,30.12,1020.9,,,,10,,,,,,,,,,,Clear,72000.0,,,73000.0,,,,,,
KRDR,09-03-2009,10:17,SPECI,,,0.0,,,2000.0,Mist,11.0,10.0,30.12,1020.9,,,,10,,,,,,,,,,,Clear,72000.0,,,73000.0,,,,,,
KRDR,09-03-2009,10:15,SPECI,,,0.0,,,1200.0,Mist,11.0,11.0,30.12,1020.9,,,,10,,,,,,,,,,,Clear,72000.0,,,73000.0,,,,,,
KRDR,09-03-2009,10:13,SPECI,,,0.0,,,1200.0,Mist,11.0,11.0,30.12,1020.9,,,,10,,,,,,,,,,,Clear,72000.0,,,73000.0,,,,,,
KRDR,09-03-2009,10:11,SPECI,,,0.0,,,800.0,Fog or Ice Fog,11.0,11.0,30.12,1020.8,,,,44,,,,,,,,,,,Clear,72000.0,,,73000.0,,,,,,
KRDR,09-03-2009,10:08,SPECI,,,0.0,,,800.0,Fog or Ice Fog,11.0,11.0,30.12,1020.8,,,,44,,,,,,,,,,,Clear,72000.0,,,73000.0,,,,,,
KRDR,09-03-2009,10:05,SPECI,,,0.0,,,800.0,Fog or Ice Fog,11.0,11.0,30.12,1020.8,,,,44,,,,,,,,,,,Clear,72000.0,,,73000.0,,,,,,
KRDR,09-03-2009,10:00,METAR,,,0.0,,,1600.0,Mist,11.0,11.0,30.12,1020.7,,,,10,,,,,,,,,,,Clear,72000.0,,,73000.0,,,,,,
KRDR,09-03-2009,09:49,SPECI,,300,3.0,,,2000.0,Mist,11.0,11.0,30.12,1020.7,,,,10,,,,,,,,,,,Clear,72000.0,,,73000.0,,,,,,
KRDR,09-03-2009,09:46,SPECI,,,0.0,,,4000.0,Mist,11.0,11.0,30.12,1020.7,,,,10,,,,,,,,,,,Clear,72000.0,,,73000.0,,,,,,
KRDR,09-03-2009,09:19,SPECI,,,0.0,,,4800.0,Mist,12.0,12.0,30.11,1020.5,,,,10,,,,,,,,,,,Clear,72000.0,,,73000.0,,,,,,
KRDR,09-03-2009,09:12,SPECI,,240,3.0,,,4000.0,Mist,11.0,11.0,30.11,1020.6,,,,10,,,,,,,,,,,Clear,72000.0,,,73000.0,,,,,,
KRDR,09-03-2009,09:00,METAR,,,0.0,,,4800.0,Mist,12.0,11.0,30.12,1020.6,,,,10,,,,,,,,,,,Clear,72000.0,,,73000.0,,,,,,
KRDR,09-03-2009,08:00,METAR,,,0.0,,,9999.0,,13.0,13.0,30.11,1020.5,,,,,,,,,,,,,,,Clear,72000.0,,,73000.0,,,,,,
KRDR,09-03-2009,07:00,METAR,,,0.0,,,9999.0,,14.0,13.0,30.11,1020.6,,,,,,,,,,,,,,,Clear,72000.0,,,73000.0,,,,,,
KRDR,09-03-2009,06:00,METAR,,150,4.0,,,9999.0,,16.0,14.0,30.11,1020.6,,,,,,,,,,,,,,,Clear,72000.0,,,73000.0,,,,,,
KRDR,09-03-2009,05:00,METAR,,150,5.0,,,9999.0,,16.0,15.0,30.11,1020.5,,,,,,,,,,,,,,,Clear,72000.0,,,73000.0,,,,,,
KRDR,09-03-2009,04:00,METAR,,,0.0,,,9999.0,,18.0,15.0,30.12,1020.7,,,,,,,,,,,,,,,7/8 Mostly Cloudy,5500.0,,BKN,5400.0,,,,,,
KRDR,09-03-2009,03:00,METAR,,,0.0,,,9999.0,,19.0,15.0,30.10,1020.3,,,,,,,,,,,,,,,4/8 Partly Cloudy,72000.0,,SCT,5000.0,,,,,,
KRDR,09-03-2009,02:00,METAR,,,0.0,,,9999.0,,20.0,15.0,30.09,1019.9,,,,,,,,,,,,,,,7/8 Mostly Cloudy,4400.0,,BKN,4500.0,,,,,,
KRDR,09-03-2009,01:00,METAR,,180,6.0,,,9999.0,,20.0,15.0,30.08,1019.5,,,,,,,,,,,,,,,7/8 Mostly Cloudy,6000.0,,BKN,5900.0,,,,,,
KRDR,09-03-2009,00:00,METAR,,190,8.0,,,9999.0,,22.0,15.0,30.08,1019.5,,,,,,,,,,,,,,,4/8 Partly Cloudy,72000.0,,SCT,7900.0,,,,,,
KRDR,09-02-2009,23:00,METAR,,180,11.0,,,9999.0,,22.0,15.0,30.08,1019.5,,,,,,,,,,,,,,,4/8 Partly Cloudy,72000.0,,SCT,7400.0,,,,,,
KRDR,09-02-2009,22:00,METAR,,150,9.0,,,9999.0,,23.0,15.0,30.08,1019.4,,,,,,,,,,,,,,,4/8 Partly Cloudy,72000.0,,SCT,7900.0,,,,,,
KRDR,09-02-2009,21:00,METAR,,170,11.0,,,9999.0,,24.0,15.0,30.08,1019.5,,,,,,,,,,,,,,,7/8 Mostly Cloudy,7500.0,,BKN,7400.0,,,,,,
KRDR,09-02-2009,20:00,METAR,,140,9.0,,,9999.0,,24.0,15.0,30.09,1019.8,,,,,,,,,,,,,,,4/8 Partly Cloudy,72000.0,,FEW,3500.0,SCT,7900.0,,,,
KRDR,09-02-2009,19:00,METAR,,150,9.0,,,9999.0,,23.0,15.0,30.09,1019.9,,,,,,,,,,,,,,,4/8 Partly Cloudy,72000.0,,FEW,3000.0,SCT,7900.0,,,,
KRDR,09-02-2009,18:00,METAR,,150,11.0,,,9999.0,,22.0,14.0,30.09,1019.9,,,,,,,,,,,,,,,2/8 Mostly Clear,72000.0,,FEW,7900.0,,,,,,
KRDR,09-02-2009,17:00,METAR,,180,10.0,,,9999.0,,21.0,14.0,30.10,1020.1,,,,,,,,,,,,,,,4/8 Partly Cloudy,72000.0,,SCT,7900.0,,,,,,
KRDR,09-02-2009,16:00,METAR,,160,8.0,,,9999.0,,19.0,14.0,30.10,1020.2,,,,,,,,,,,,,,,7/8 Mostly Cloudy,8500.0,,BKN,8400.0,,,,,,
KRDR,09-02-2009,15:00,METAR,,160,8.0,,,9999.0,,18.0,13.0,30.10,1020.2,,,,,,,,,,,,,,,7/8 Mostly Cloudy,8000.0,,BKN,7900.0,,,,,,
KRDR,09-02-2009,14:00,METAR,,160,7.0,,,9999.0,,15.0,12.0,30.10,1020.1,,,,,,,,,,,,,,,4/8 Partly Cloudy,72000.0,,SCT,7900.0,,,,,,
KRDR,09-02-2009,13:00,METAR,,150,6.0,,,9999.0,,14.0,12.0,30.09,1019.8,,,,,,,,,,,,,,,7/8 Mostly Cloudy,8000.0,,BKN,7900.0,,,,,,
KRDR,09-02-2009,12:00,METAR,,150,6.0,,,9999.0,,14.0,12.0,30.08,1019.6,,,,,,,,,,,,,,,7/8 Mostly Cloudy,8000.0,,BKN,7900.0,,,,,,
KRDR,09-02-2009,11:00,METAR,,160,6.0,,,9999.0,,15.0,12.0,30.08,1019.5,,,,,,,,,,,,,,,8/8 Overcast,8000.0,,OVC,7900.0,,,,,,
KRDR,09-02-2009,10:00,METAR,,160,6.0,,,9999.0,,14.0,12.0,30.08,1019.5,,,,,,,,,,,,,,,8/8 Overcast,8000.0,,OVC,7900.0,,,,,,
KRDR,09-02-2009,09:00,METAR,,140,5.0,,,9999.0,,14.0,12.0,30.08,1019.5,,,,,,,,,,,,,,,8/8 Overcast,7500.0,,OVC,7400.0,,,,,,
KRDR,09-02-2009,08:00,METAR,,150,4.0,,,9999.0,,14.0,11.0,30.08,1019.6,,,,,,,,,,,,,,,8/8 Overcast,7500.0,,OVC,7400.0,,,,,,
KRDR,09-02-2009,07:00,METAR,,170,4.0,,,9999.0,,13.0,11.0,30.09,1019.7,,,,,,,,,,,,,,,Clear,72000.0,,,73000.0,,,,,,
KRDR,09-02-2009,06:00,METAR,,170,7.0,,,9999.0,,14.0,11.0,30.08,1019.6,,,,,,,,,,,,,,,Clear,72000.0,,,73000.0,,,,,,
KRDR,09-02-2009,05:00,METAR,,160,7.0,,,9999.0,,14.0,11.0,30.09,1019.7,,,,,,,,,,,,,,,Clear,72000.0,,,73000.0,,,,,,
KRDR,09-02-2009,04:00,METAR,,160,8.0,,,9999.0,,15.0,11.0,30.09,1019.7,,,,,,,,,,,,,,,2/8 Mostly Clear,72000.0,,FEW,8900.0,,,,,,
KRDR,09-02-2009,03:00,METAR,,160,10.0,,,9999.0,,16.0,11.0,30.08,1019.4,,,,,,,,,,,,,,,2/8 Mostly Clear,72000.0,,FEW,9900.0,,,,,,
KRDR,09-02-2009,02:00,METAR,,160,11.0,,,9999.0,,18.0,12.0,30.07,1019.1,,,,,,,,,,,,,,,2/8 Mostly Clear,72000.0,,FEW,9900.0,FEW,25000.0,,,,
KRDR,09-02-2009,01:00,METAR,,160,12.0,,,9999.0,,20.0,13.0,30.06,1018.8,,,,,,,,,,,,,,,2/8 Mostly Clear,72000.0,,FEW,9900.0,FEW,25000.0,,,,
KRDR,09-02-2009,00:00,METAR,,150,14.0,,,9999.0,,23.0,13.0,30.06,1018.9,,,,,,,,,,,,,,,2/8 Mostly Clear,72000.0,,FEW,9900.0,FEW,25000.0,,,,
KRDR,09-01-2009,23:00,METAR,,170,13.0,19.0,,9999.0,,24.0,14.0,30.07,1019.2,,,,,,,,,,,,,,,2/8 Mostly Clear,72000.0,,FEW,9900.0,FEW,25000.0,,,,
KRDR,09-01-2009,22:00,METAR,,160,12.0,,,9999.0,,24.0,14.0,30.08,1019.5,,,,,,,,,,,,,,,2/8 Mostly Clear,72000.0,,FEW,4000.0,FEW,25000.0,,,,
KRDR,09-01-2009,21:00,METAR,,180,12.0,19.0,,9999.0,,25.0,13.0,30.09,1020.0,,,,,,,,,,,,,,,2/8 Mostly Clear,72000.0,,FEW,4000.0,,,,,,
KRDR,09-01-2009,20:00,METAR,,180,16.0,21.0,,9999.0,,24.0,13.0,30.11,1020.3,,,,,,,,,,,,,,,2/8 Mostly Clear,72000.0,,FEW,4000.0,,,,,,
KRDR,09-01-2009,19:00,METAR,,170,13.0,,,9999.0,,23.0,13.0,30.11,1020.4,,,,,,,,,,,,,,,2/8 Mostly Clear,72000.0,,FEW,4000.0,,,,,,
KRDR,09-01-2009,18:00,METAR,,170,12.0,,,9999.0,,22.0,13.0,30.12,1020.7,,,,,,,,,,,,,,,Clear,72000.0,,,73000.0,,,,,,
KRDR,09-01-2009,17:00,METAR,,170,12.0,,,9999.0,,20.0,12.0,30.12,1020.9,,,,,,,,,,,,,,,Clear,72000.0,,,73000.0,,,,,,
KRDR,09-01-2009,16:00,METAR,,170,13.0,,,9999.0,,18.0,11.0,30.13,1021.0,,,,,,,,,,,,,,,Clear,72000.0,,,73000.0,,,,,,
KRDR,09-01-2009,15:00,METAR,,170,11.0,,,9999.0,,16.0,11.0,30.13,1021.2,,,,,,,,,,,,,,,Clear,72000.0,,,73000.0,,,,,,
KRDR,09-01-2009,14:00,METAR,,160,9.0,,,9999.0,,13.0,10.0,30.14,1021.3,,,,,,,,,,,,,,,Clear,72000.0,,,73000.0,,,,,,
KRDR,09-01-2009,13:00,METAR,,160,8.0,,,9999.0,,9.0,8.0,30.14,1021.4,,,,,,,,,,,,,,,Clear,72000.0,,,73000.0,,,,,,
KRDR,09-01-2009,12:00,METAR,,150,5.0,,,9999.0,,8.0,7.0,30.13,1021.1,,,,,,,,,,,,,,,Clear,72000.0,,,73000.0,,,,,,
KRDR,09-01-2009,11:00,METAR,,150,5.0,,,9999.0,,9.0,8.0,30.13,1021.2,,,,,,,,,,,,,,,Clear,72000.0,,,73000.0,,,,,,
KRDR,09-01-2009,10:00,METAR,,170,7.0,,,9999.0,,10.0,8.0,30.13,1021.0,,,,,,,,,,,,,,,Clear,72000.0,,,73000.0,,,,,,
KRDR,09-01-2009,09:00,METAR,,180,5.0,,,9999.0,,11.0,9.0,30.12,1020.9,,,,,,,,,,,,,,,Clear,72000.0,,,73000.0,,,,,,
KRDR,09-01-2009,08:00,METAR,,180,7.0,,,9999.0,,12.0,9.0,30.12,1020.8,,,,,,,,,,,,,,,Clear,72000.0,,,73000.0,,,,,,
KRDR,09-01-2009,07:00,METAR,,180,9.0,,,9999.0,,13.0,10.0,30.12,1020.8,,,,,,,,,,,,,,,Clear,72000.0,,,73000.0,,,,,,
KRDR,09-01-2009,06:00,METAR,,180,9.0,,,9999.0,,15.0,10.0,30.12,1020.9,,,,,,,,,,,,,,,Clear,72000.0,,,73000.0,,,,,,
KRDR,09-01-2009,05:00,METAR,,180,11.0,,,9999.0,,16.0,10.0,30.12,1020.9,,,,,,,,,,,,,,,Clear,72000.0,,,73000.0,,,,,,
KRDR,09-01-2009,04:00,METAR,,180,10.0,,,9999.0,,17.0,10.0,30.12,1020.8,,,,,,,,,,,,,,,Clear,72000.0,,,73000.0,,,,,,
KRDR,09-01-2009,03:00,METAR,,170,10.0,,,9999.0,,17.0,11.0,30.11,1020.6,,,,,,,,,,,,,,,Clear,72000.0,,,73000.0,,,,,,
KRDR,09-01-2009,02:00,METAR,,160,12.0,,,9999.0,,18.0,12.0,30.10,1020.1,,,,,,,,,,,,,,,Clear,72000.0,,,73000.0,,,,,,
KRDR,09-01-2009,01:00,METAR,,150,9.0,,,9999.0,,20.0,13.0,30.09,1019.8,,,,,,,,,,,,,,,Clear,72000.0,,,73000.0,,,,,,
KRDR,09-01-2009,00:00,METAR,,170,12.0,,,9999.0,,22.0,12.0,30.09,1019.9,,,,,,,,,,,,,,,Clear,72000.0,,,73000.0,,,,,,
KRDR,08-31-2009,23:00,METAR,,180,12.0,,,9999.0,,24.0,12.0,30.09,1019.9,,,,,,,,,,,,,,,2/8 Mostly Clear,72000.0,,FEW,5000.0,,,,,,
KRDR,08-31-2009,22:00,METAR,,180,14.0,21.0,,9999.0,,24.0,12.0,30.10,1020.3,,,,,,,,,,,,,,,2/8 Mostly Clear,72000.0,,FEW,5400.0,,,,,,
KRDR,08-31-2009,21:00,METAR,,190,12.0,,,9999.0,,24.0,12.0,30.11,1020.5,,,,,,,,,,,,,,,2/8 Mostly Clear,72000.0,,FEW,5400.0,,,,,,
KRDR,08-31-2009,20:00,METAR,,190,12.0,,,9999.0,,25.0,12.0,30.13,1021.2,,,,,,,,,,,,,,,4/8 Partly Cloudy,72000.0,,SCT,5400.0,,,,,,
KRDR,08-31-2009,19:00,METAR,,180,9.0,,,9999.0,,24.0,12.0,30.14,1021.6,,,,,,,,,,,,,,,4/8 Partly Cloudy,72000.0,,SCT,5000.0,,,,,,
KRDR,08-31-2009,18:00,METAR,,180,11.0,,,9999.0,,23.0,11.0,30.17,1022.3,,,,,,,,,,,,,,,2/8 Mostly Clear,72000.0,,FEW,6900.0,,,,,,
KRDR,08-31-2009,17:00,METAR,,120,6.0,,,9999.0,,21.0,11.0,30.18,1022.7,,,,,,,,,,,,,,,Clear,72000.0,,,73000.0,,,,,,
KRDR,08-31-2009,16:00,METAR,,160,5.0,,,9999.0,,19.0,10.0,30.18,1022.8,,,,,,,,,,,,,,,Clear,72000.0,,,73000.0,,,,,,
KRDR,08-31-2009,15:00,METAR,,140,4.0,,,9999.0,,15.0,9.0,30.18,1022.8,,,,,,,,,,,,,,,Clear,72000.0,,,73000.0,,,,,,
KRDR,08-31-2009,14:00,METAR,,160,4.0,,,9999.0,,12.0,8.0,30.18,1022.9,,,,,,,,,,,,,,,Clear,72000.0,,,73000.0,,,,,,
KRDR,08-31-2009,13:00,METAR,,,0.0,,,9999.0,,9.0,7.0,30.18,1022.7,,,,,,,,,,,,,,,2/8 Mostly Clear,72000.0,,FEW,20000.0,,,,,,
KRDR,08-31-2009,12:00,METAR,,,0.0,,,9999.0,,8.0,6.0,30.17,1022.4,,,,,,,,,,,,,,,4/8 Partly Cloudy,72000.0,,SCT,20000.0,,,,,,
KRDR,08-31-2009,11:00,METAR,,170,4.0,,,9999.0,,10.0,7.0,30.17,1022.4,,,,,,,,,,,,,,,4/8 Partly Cloudy,72000.0,,SCT,20000.0,,,,,,
KRDR,08-31-2009,10:00,METAR,,200,3.0,,,9999.0,,10.0,6.0,30.17,1022.6,,,,,,,,,,,,,,,Clear,72000.0,,,73000.0,,,,,,
KRDR,08-31-2009,09:00,METAR,,200,5.0,,,9999.0,,11.0,7.0,30.18,1022.7,,,,,,,,,,,,,,,Clear,72000.0,,,73000.0,,,,,,
KRDR,08-31-2009,08:00,METAR,,200,6.0,,,9999.0,,10.0,6.0,30.18,1022.9,,,,,,,,,,,,,,,Clear,72000.0,,,73000.0,,,,,,
KRDR,08-31-2009,07:00,METAR,,210,6.0,,,9999.0,,10.0,6.0,30.19,1023.0,,,,,,,,,,,,,,,Clear,72000.0,,,73000.0,,,,,,
KRDR,08-31-2009,06:00,METAR,,200,6.0,,,9999.0,,10.0,6.0,30.19,1023.0,,,,,,,,,,,,,,,Clear,72000.0,,,73000.0,,,,,,
KRDR,08-31-2009,05:00,METAR,,190,5.0,,,9999.0,,10.0,6.0,30.18,1022.8,,,,,,,,,,,,,,,Clear,72000.0,,,73000.0,,,,,,
KRDR,08-31-2009,04:00,METAR,,200,5.0,,,9999.0,,11.0,6.0,30.18,1022.9,,,,,,,,,,,,,,,Clear,72000.0,,,73000.0,,,,,,
KRDR,08-31-2009,03:00,METAR,,190,5.0,,,9999.0,,12.0,7.0,30.18,1022.8,,,,,,,,,,,,,,,2/8 Mostly Clear,72000.0,,FEW,20000.0,,,,,,
KRDR,08-31-2009,02:00,METAR,,190,6.0,,,9999.0,,13.0,8.0,30.18,1022.6,,,,,,,,,,,,,,,4/8 Partly Cloudy,72000.0,,SCT,20000.0,,,,,,
KRDR,08-31-2009,01:00,METAR,,180,7.0,,,9999.0,,17.0,9.0,30.18,1022.7,,,,,,,,,,,,,,,2/8 Mostly Clear,72000.0,,FEW,22000.0,,,,,,
KRDR,08-31-2009,00:00,METAR,,180,7.0,,,9999.0,,20.0,8.0,30.18,1022.8,,,,,,,,,,,,,,,2/8 Mostly Clear,72000.0,,FEW,22000.0,,,,,,
KRDR,08-30-2009,23:00,METAR,,200,5.0,,,9999.0,,21.0,7.0,30.18,1022.8,,,,,,,,,,,,,,,Clear,72000.0,,,73000.0,,,,,,
KRDR,08-30-2009,22:00,METAR,,,3.0,,,9999.0,,21.0,7.0,30.20,1023.4,,,,,,,,,,,,,,,Clear,72000.0,,,73000.0,,,,,,
KRDR,08-30-2009,21:00,METAR,,,0.0,,,9999.0,,21.0,7.0,30.21,1023.8,,,,,,,,,,,,,,,Clear,72000.0,,,73000.0,,,,,,
KRDR,08-30-2009,20:00,METAR,,150,5.0,,,9999.0,,21.0,6.0,30.22,1024.2,,,,,,,,,,,,,,,Clear,72000.0,,,73000.0,,,,,,
KRDR,08-30-2009,19:00,METAR,,190,7.0,,,9999.0,,20.0,6.0,30.25,1025.0,,,,,,,,,,,,,,,Clear,72000.0,,,73000.0,,,,,,
KRDR,08-30-2009,18:00,METAR,,220,4.0,,,9999.0,,20.0,6.0,30.26,1025.4,,,,,,,,,,,,,,,Clear,72000.0,,,73000.0,,,,,,
KRDR,08-30-2009,17:00,METAR,,,0.0,,,9999.0,,19.0,6.0,30.27,1025.9,,,,,,,,,,,,,,,Clear,72000.0,,,73000.0,,,,,,
KRDR,08-30-2009,16:00,METAR,,190,3.0,,,9999.0,,18.0,6.0,30.29,1026.2,,,,,,,,,,,,,,,Clear,72000.0,,,73000.0,,,,,,
KRDR,08-30-2009,15:00,METAR,,,3.0,,,9999.0,,15.0,8.0,30.29,1026.5,,,,,,,,,,,,,,,Clear,72000.0,,,73000.0,,,,,,
KRDR,08-30-2009,14:00,METAR,,,0.0,,,9999.0,,12.0,8.0,30.29,1026.4,,,,,,,,,,,,,,,Clear,72000.0,,,73000.0,,,,,,
KRDR,08-30-2009,13:00,METAR,,,0.0,,,9999.0,,6.0,6.0,30.28,1026.2,,,,,,,,,,,,,,,Clear,72000.0,,,73000.0,,,,,,
KRDR,08-30-2009,12:00,METAR,,250,3.0,,,9999.0,,4.0,3.0,30.27,1025.8,,,,,,,,,,,,,,,Clear,72000.0,,,73000.0,,,,,,
KRDR,08-30-2009,11:00,METAR,,250,3.0,,,9999.0,,3.0,3.0,30.26,1025.5,,,,,,,,,,,,,,,Clear,72000.0,,,73000.0,,,,,,
KRDR,08-30-2009,10:00,METAR,,,0.0,,,9999.0,,3.0,3.0,30.27,1025.7,,,,,,,,,,,,,,,Clear,72000.0,,,73000.0,,,,,,
KRDR,08-30-2009,09:00,METAR,,,0.0,,,9999.0,,4.0,3.0,30.26,1025.5,,,,,,,,,,,,,,,Clear,72000.0,,,73000.0,,,,,,
KRDR,08-30-2009,08:00,METAR,,,0.0,,,9999.0,,6.0,5.0,30.26,1025.4,,,,,,,,,,,,,,,Clear,72000.0,,,73000.0,,,,,,
KRDR,08-30-2009,07:00,METAR,,,0.0,,,9999.0,,5.0,4.0,30.26,1025.3,,,,,,,,,,,,,,,Clear,72000.0,,,73000.0,,,,,,
KRDR,08-30-2009,06:00,METAR,,,0.0,,,9999.0,,6.0,5.0,30.25,1025.0,,,,,,,,,,,,,,,Clear,72000.0,,,73000.0,,,,,,
KRDR,08-30-2009,05:00,METAR,,310,4.0,,,9999.0,,6.0,5.0,30.24,1024.9,,,,,,,,,,,,,,,Clear,72000.0,,,73000.0,,,,,,
KRDR,08-30-2009,04:00,METAR,,,0.0,,,9999.0,,7.0,6.0,30.24,1024.7,,,,,,,,,,,,,,,Clear,72000.0,,,73000.0,,,,,,
KRDR,08-30-2009,03:00,METAR,,80,4.0,,,9999.0,,13.0,7.0,30.23,1024.5,,,,,,,,,,,,,,,Clear,72000.0,,,73000.0,,,,,,
KRDR,08-30-2009,02:00,METAR,,40,3.0,,,9999.0,,12.0,9.0,30.22,1024.2,,,,,,,,,,,,,,,Clear,72000.0,,,73000.0,,,,,,
KRDR,08-30-2009,01:00,METAR,,40,5.0,,,9999.0,,16.0,8.0,30.21,1023.7,,,,,,,,,,,,,,,Clear,72000.0,,,73000.0,,,,,,
KRDR,08-30-2009,00:00,METAR,,60,7.0,,,9999.0,,18.0,7.0,30.21,1023.7,,,,,,,,,,,,,,,Clear,72000.0,,,73000.0,,,,,,
KRDR,08-29-2009,23:00,METAR,,20,7.0,,,9999.0,,20.0,7.0,30.20,1023.5,,,,,,,,,,,,,,,Clear,72000.0,,,73000.0,,,,,,
KRDR,08-29-2009,22:00,METAR,,20,11.0,,,9999.0,,20.0,8.0,30.20,1023.3,,,,,,,,,,,,,,,Clear,72000.0,,,73000.0,,,,,,
KRDR,08-29-2009,21:00,METAR,,20,9.0,,,9999.0,,20.0,8.0,30.19,1023.2,,,,,,,,,,,,,,,2/8 Mostly Clear,72000.0,,FEW,4500.0,,,,,,
KRDR,08-29-2009,20:00,METAR,,40,9.0,,,9999.0,,19.0,10.0,30.20,1023.3,,,,,,,,,,,,,,,4/8 Partly Cloudy,72000.0,,SCT,4900.0,,,,,,
KRDR,08-29-2009,19:00,METAR,,50,9.0,,,9999.0,,17.0,11.0,30.19,1023.2,,,,,,,,,,,,,,,4/8 Partly Cloudy,72000.0,,SCT,4500.0,,,,,,
KRDR,08-29-2009,18:00,METAR,,40,8.0,,,9999.0,,17.0,11.0,30.20,1023.4,,,,,,,,,,,,,TRACE,,4/8 Partly Cloudy,72000.0,,SCT,4700.0,,,,,,
KRDR,08-29-2009,17:05,SPECI,,50,9.0,,,9999.0,,16.0,11.0,30.20,1023.5,,,,,,,,,,,,,,,4/8 Partly Cloudy,72000.0,,SCT,2100.0,,,,,,
KRDR,08-29-2009,17:00,METAR,,40,8.0,,,9999.0,,17.0,12.0,30.20,1023.4,,,,,,,,,,,,,,,4/8 Partly Cloudy,72000.0,,SCT,1900.0,,,,,,
KRDR,08-29-2009,16:14,SPECI,,50,7.0,,,9999.0,,15.0,12.0,30.19,1023.2,,,,,,,,,,,,,,,7/8 Mostly Cloudy,1600.0,,BKN,1600.0,,,,,,
KRDR,08-29-2009,16:11,SPECI,,70,7.0,,,9999.0,,15.0,12.0,30.19,1023.2,,,,,,,,,,,,,,,7/8 Mostly Cloudy,1400.0,,BKN,1400.0,,,,,,
KRDR,08-29-2009,16:09,SPECI,,60,6.0,,,9999.0,,15.0,12.0,30.19,1023.2,,,,,,,,,,,,,,,7/8 Mostly Cloudy,1600.0,,BKN,1600.0,,,,,,
KRDR,08-29-2009,16:04,SPECI,,60,6.0,,,9999.0,,15.0,12.0,30.19,1023.1,,,,,,,,,,,,,,,7/8 Mostly Cloudy,1400.0,,BKN,1400.0,,,,,,
KRDR,08-29-2009,16:00,METAR,,90,4.0,,,9999.0,,15.0,12.0,30.19,1023.1,,,,,,,,,,,TRACE,,,,4/8 Partly Cloudy,72000.0,,SCT,3800.0,,,,,,
KRDR,08-29-2009,15:36,SPECI,,100,3.0,,,9999.0,,14.0,12.0,30.19,1022.9,,,,,,,,,,,,,,,4/8 Partly Cloudy,72000.0,,FEW,900.0,SCT,6900.0,,,,
KRDR,08-29-2009,15:31,SPECI,,80,3.0,,,9999.0,,13.0,12.0,30.19,1023.0,,,,,,,,,,,,,,,4/8 Partly Cloudy,72000.0,,FEW,500.0,SCT,6900.0,,,,
KRDR,08-29-2009,15:17,SPECI,,30,4.0,,,9999.0,,13.0,12.0,30.18,1022.8,,,,,,,,,,,,,,,7/8 Mostly Cloudy,7000.0,,FEW,600.0,SCT,1100.0,BKN,6900.0,,
KRDR,08-29-2009,15:12,SPECI,,60,6.0,,,9999.0,,13.0,12.0,30.18,1022.8,,,,,,,,,,,,,,,7/8 Mostly Cloudy,1100.0,,FEW,600.0,BKN,1100.0,BKN,4800.0,,
KRDR,08-29-2009,15:08,SPECI,,60,8.0,,,9999.0,,13.0,12.0,30.18,1022.8,,,,,,,,,,,,,,,7/8 Mostly Cloudy,1300.0,,SCT,600.0,BKN,1300.0,BKN,4800.0,,
KRDR,08-29-2009,15:02,SPECI,,40,6.0,,,9999.0,Light Drizzle,13.0,12.0,30.18,1022.9,51,,,,,,,,,,,,,,7/8 Mostly Cloudy,1300.0,,FEW,600.0,BKN,1300.0,BKN,4900.0,,
KRDR,08-29-2009,15:00,METAR,,30,5.0,,,9999.0,Light Drizzle,13.0,12.0,30.18,1022.9,51,,,,,,,,,,,,,,7/8 Mostly Cloudy,2300.0,,FEW,700.0,BKN,2300.0,,,,
KRDR,08-29-2009,14:46,SPECI,,50,6.0,,,9999.0,Light Rain,13.0,12.0,30.18,1022.8,61,,,,,,,,,,,,,,7/8 Mostly Cloudy,4800.0,,FEW,500.0,SCT,1300.0,BKN,4900.0,,
KRDR,08-29-2009,14:44,SPECI,,60,6.0,,,9999.0,Light Drizzle,13.0,12.0,30.18,1022.8,51,,,,,,,,,,,,,,7/8 Mostly Cloudy,2800.0,,FEW,500.0,SCT,1300.0,BKN,2800.0,,
KRDR,08-29-2009,14:39,SPECI,,30,7.0,,,9999.0,,13.0,12.0,30.18,1022.8,,,,,,,,,,,,,,,7/8 Mostly Cloudy,2000.0,,SCT,1000.0,BKN,2000.0,BKN,3300.0,,
KRDR,08-29-2009,14:33,SPECI,,30,6.0,,,9999.0,,13.0,13.0,30.18,1022.8,,,,,,,,,,,,,,,7/8 Mostly Cloudy,1300.0,,FEW,600.0,BKN,1300.0,BKN,3600.0,,
KRDR,08-29-2009,14:22,SPECI,,20,4.0,,,9999.0,,13.0,12.0,30.17,1022.6,,,,,,,,,,,,,,,7/8 Mostly Cloudy,4500.0,,FEW,500.0,BKN,4600.0,,,,
KRDR,08-29-2009,14:00,METAR,,,0.0,,,9999.0,,12.0,12.0,30.16,1022.3,,,,,,,,,,,,,,,7/8 Mostly Cloudy,2900.0,,BKN,2900.0,BKN,3600.0,,,,
KRDR,08-29-2009,13:53,SPECI,,,0.0,,,9999.0,,12.0,12.0,30.17,1022.3,,,,,,,,,,,,,,,7/8 Mostly Cloudy,3100.0,,BKN,3200.0,,,,,,
KRDR,08-29-2009,13:49,SPECI,,,0.0,,,9999.0,,12.0,12.0,30.16,1022.3,,,,,,,,,,,,,,,7/8 Mostly Cloudy,2900.0,,BKN,2900.0,BKN,3600.0,BKN,8900.0,,
KRDR,08-29-2009,13:00,METAR,,,0.0,,,9999.0,,12.0,11.0,30.15,1021.8,,,,,,,,,,,,,,,Clear,72000.0,,,73000.0,,,,,,
KRDR,08-29-2009,12:00,METAR,,,0.0,,,9999.0,,11.0,11.0,30.14,1021.5,,,,,,,,,,,.01 IN,,.03 IN,.03 IN,4/8 Partly Cloudy,72000.0,,FEW,5900.0,SCT,7400.0,,,,
KRDR,08-29-2009,11:41,SPECI,,,0.0,,,9999.0,,12.0,11.0,30.14,1021.6,,,,,,,,,,,,,,,4/8 Partly Cloudy,72000.0,,SCT,7400.0,,,,,,
KRDR,08-29-2009,11:00,METAR,,290,4.0,,,9999.0,,12.0,11.0,30.14,1021.5,,,,,,,,,,,.02 IN,,,,Clear,72000.0,,,73000.0,,,,,,
KRDR,08-29-2009,10:00,METAR,,290,6.0,,,9999.0,Light Rain,11.0,9.0,30.15,1021.7,61,,,,,,,,,,TRACE,,,,2/8 Mostly Clear,72000.0,,FEW,5000.0,,,,,,
KRDR,08-29-2009,09:43,SPECI,,310,7.0,,,9999.0,Unknown Precipitation,10.0,9.0,30.15,1021.9,40,,,,,,,,,,,,,,7/8 Mostly Cloudy,7500.0,,FEW,3500.0,BKN,7400.0,,,,
KRDR,08-29-2009,09:00,METAR,,260,3.0,,,9999.0,,9.0,8.0,30.14,1021.4,,,,,,,,,,,,,,,2/8 Mostly Clear,72000.0,,FEW,12000.0,,,,,,
KRDR,08-29-2009,08:00,METAR,,250,3.0,,,9999.0,,8.0,7.0,30.15,1021.6,,,,,,,,,,,,,,,Clear,72000.0,,,73000.0,,,,,,
KRDR,08-29-2009,07:00,METAR,,,0.0,,,9999.0,,8.0,7.0,30.15,1021.8,,,,,,,,,,,,,,,Clear,72000.0,,,73000.0,,,,,,
KRDR,08-29-2009,06:00,METAR,,,0.0,,,9999.0,,9.0,8.0,30.15,1021.9,,,,,,,,,,,,,,,Clear,72000.0,,,73000.0,,,,,,
KRDR,08-29-2009,05:00,METAR,,290,4.0,,,9999.0,,9.0,8.0,30.16,1022.1,,,,,,,,,,,,,,,Clear,72000.0,,,73000.0,,,,,,
KRDR,08-29-2009,04:00,METAR,,320,4.0,,,9999.0,,10.0,8.0,30.17,1022.4,,,,,,,,,,,,,,,Clear,72000.0,,,73000.0,,,,,,
KRDR,08-29-2009,03:00,METAR,,360,3.0,,,9999.0,,11.0,8.0,30.17,1022.5,,,,,,,,,,,,,,,Clear,72000.0,,,73000.0,,,,,,
KRDR,08-29-2009,02:00,METAR,,10,5.0,,,9999.0,,13.0,9.0,30.17,1022.3,,,,,,,,,,,,,,,Clear,72000.0,,,73000.0,,,,,,
KRDR,08-29-2009,01:00,METAR,,20,8.0,,,9999.0,,17.0,10.0,30.16,1022.3,,,,,,,,,,,,,,,Clear,72000.0,,,73000.0,,,,,,
KRDR,08-29-2009,00:00,METAR,,20,13.0,,,9999.0,,19.0,9.0,30.17,1022.3,,,,,,,,,,,,,,,2/8 Mostly Clear,72000.0,,FEW,5000.0,,,,,,
KRDR,08-28-2009,23:00,METAR,,20,13.0,,,9999.0,,20.0,8.0,30.16,1022.1,,,,,,,,,,,,,,,2/8 Mostly Clear,72000.0,,FEW,4500.0,,,,,,
KRDR,08-28-2009,22:00,METAR,,350,14.0,17.0,,9999.0,,20.0,9.0,30.16,1022.1,,,,,,,,,,,,,,,2/8 Mostly Clear,72000.0,,FEW,4500.0,,,,,,
KRDR,08-28-2009,21:00,METAR,,350,14.0,18.0,,9999.0,,20.0,10.0,30.17,1022.6,,,,,,,,,,,,,,,4/8 Partly Cloudy,72000.0,,SCT,4000.0,,,,,,
KRDR,08-28-2009,20:00,METAR,,360,11.0,,,9999.0,,18.0,11.0,30.19,1023.1,,,,,,,,,,,,,,,7/8 Mostly Cloudy,3100.0,,BKN,3200.0,,,,,,
KRDR,08-28-2009,19:00,METAR,,10,16.0,21.0,,9999.0,,17.0,10.0,30.19,1023.2,,,,,,,,,,,,,,,7/8 Mostly Cloudy,2900.0,,BKN,2900.0,,,,,,
KRDR,08-28-2009,18:00,METAR,,360,12.0,18.0,,9999.0,,16.0,11.0,30.20,1023.6,,,,,,,,,,,,,,,8/8 Overcast,2700.0,,OVC,2700.0,,,,,,
KRDR,08-28-2009,17:00,METAR,,360,15.0,18.0,,9999.0,,17.0,11.0,30.20,1023.4,,,,,,,,,,,,,,,8/8 Overcast,2700.0,,OVC,2700.0,,,,,,
KRDR,08-28-2009,16:00,METAR,,360,12.0,,,9999.0,,17.0,12.0,30.20,1023.3,,,,,,,,,,,,,,,8/8 Overcast,2900.0,,FEW,1700.0,OVC,2900.0,,,,
KRDR,08-28-2009,15:00,METAR,,360,10.0,,,9999.0,,16.0,12.0,30.19,1023.0,,,,,,,,,,,,,,,8/8 Overcast,1400.0,,OVC,2000.0,,,,,,
KRDR,08-28-2009,14:03,SPECI,,350,12.0,16.0,,9999.0,,15.0,12.0,30.19,1023.1,,,,,,,,,,,,,,,8/8 Overcast,3000.0,,OVC,3000.0,,,,,,
KRDR,08-28-2009,14:00,METAR,,10,12.0,,,9999.0,,15.0,12.0,30.19,1023.0,,,,,,,,,,,,,,,8/8 Overcast,2900.0,,OVC,2900.0,,,,,,
KRDR,08-28-2009,13:00,METAR,,360,11.0,,,9999.0,,15.0,12.0,30.17,1022.6,,,,,,,,,,,,,,,8/8 Overcast,2800.0,,OVC,2800.0,,,,,,
KRDR,08-28-2009,12:00,METAR,,360,9.0,,,9999.0,,15.0,13.0,30.17,1022.3,,,,,,,,,,,,,,,8/8 Overcast,2700.0,,OVC,2700.0,,,,,,
KRDR,08-28-2009,11:00,METAR,,10,9.0,,,9999.0,,15.0,13.0,30.16,1022.1,,,,,,,,,,,,,,,8/8 Overcast,2500.0,,OVC,2500.0,,,,,,
KRDR,08-28-2009,10:10,SPECI,,360,10.0,,,9999.0,,15.0,13.0,30.16,1022.0,,,,,,,,,,,,,,,8/8 Overcast,2900.0,,FEW,1000.0,SCT,1500.0,OVC,2900.0,,
KRDR,08-28-2009,10:00,METAR,,350,7.0,,,9999.0,,15.0,14.0,30.15,1021.9,,,,,,,,,,,,,,,8/8 Overcast,1100.0,,OVC,1100.0,,,,,,
KRDR,08-28-2009,09:54,SPECI,,350,9.0,,,9999.0,,15.0,14.0,30.15,1021.9,,,,,,,,,,,,,,,8/8 Overcast,1300.0,,OVC,1300.0,,,,,,
KRDR,08-28-2009,09:01,SPECI,,360,8.0,,,9999.0,,15.0,14.0,30.15,1021.9,,,,,,,,,,,,,,,8/8 Overcast,1000.0,,OVC,1000.0,,,,,,
KRDR,08-28-2009,09:00,METAR,,360,9.0,,,9999.0,,15.0,14.0,30.15,1021.8,,,,,,,,,,,,,,,8/8 Overcast,800.0,,OVC,800.0,,,,,,
KRDR,08-28-2009,08:00,METAR,,360,10.0,,,9999.0,,16.0,14.0,30.14,1021.5,,,,,,,,,,,,,,,8/8 Overcast,700.0,,OVC,700.0,,,,,,
KRDR,08-28-2009,07:00,METAR,,20,14.0,,,9999.0,,16.0,15.0,30.13,1021.3,,,,,,,,,,,,,,,8/8 Overcast,800.0,,OVC,800.0,,,,,,
KRDR,08-28-2009,06:00,METAR,,10,11.0,,,9999.0,,16.0,15.0,30.13,1021.2,,,,,,,,,,,,,,,8/8 Overcast,900.0,,OVC,900.0,,,,,,
KRDR,08-28-2009,05:00,METAR,,360,8.0,,,9999.0,,16.0,15.0,30.13,1021.1,,,,,,,,,,,,,,,8/8 Overcast,900.0,,OVC,900.0,,,,,,
KRDR,08-28-2009,04:49,SPECI,,360,7.0,,,9999.0,,16.0,15.0,30.13,1021.1,,,,,,,,,,,,,,,8/8 Overcast,900.0,,OVC,900.0,,,,,,
KRDR,08-28-2009,04:36,SPECI,,350,7.0,,,9999.0,,16.0,15.0,30.13,1021.1,,,,,,,,,,,,,,,7/8 Mostly Cloudy,1100.0,,BKN,1100.0,,,,,,
KRDR,08-28-2009,04:31,SPECI,,350,7.0,,,9999.0,,16.0,14.0,30.13,1021.2,,,,,,,,,,,,,,,7/8 Mostly Cloudy,1400.0,,BKN,1400.0,,,,,,
KRDR,08-28-2009,04:22,SPECI,,360,8.0,,,9999.0,,16.0,14.0,30.13,1021.0,,,,,,,,,,,,,,,7/8 Mostly Cloudy,2300.0,,BKN,2300.0,,,,,,
KRDR,08-28-2009,04:00,METAR,,350,8.0,,,9999.0,,16.0,15.0,30.13,1021.0,,,,,,,,,,,,,,,7/8 Mostly Cloudy,15000.0,,FEW,2800.0,BKN,15000.0,,,,
KRDR,08-28-2009,03:00,METAR,,360,12.0,,,9999.0,,17.0,15.0,30.12,1020.7,,,,,,,,,,,,,,,Clear,72000.0,,,73000.0,,,,,,
KRDR,08-28-2009,02:00,METAR,,10,9.0,,,9999.0,,18.0,16.0,30.10,1020.2,,,,,,,,,,,,,,,7/8 Mostly Cloudy,15000.0,,FEW,7900.0,BKN,15000.0,BKN,25000.0,,
KRDR,08-28-2009,01:00,METAR,,360,9.0,,,9999.0,,20.0,17.0,30.08,1019.4,,,,,,,,,,,,,,,7/8 Mostly Cloudy,15000.0,,FEW,7900.0,BKN,15000.0,BKN,25000.0,,
KRDR,08-28-2009,00:00,METAR,,10,8.0,,,9999.0,,20.0,18.0,30.06,1018.8,,,,,,,,,,,,,TRACE,,7/8 Mostly Cloudy,10000.0,,FEW,2100.0,BKN,9900.0,BKN,25000.0,,
KRDR,08-27-2009,23:00,METAR,,,0.0,,,9999.0,,21.0,17.0,30.03,1017.9,,,,,,,,,,,TRACE,,,,Clear,72000.0,,,73000.0,,,,,,
KRDR,08-27-2009,22:00,METAR,,,0.0,,,9999.0,,23.0,16.0,30.04,1018.1,,,,,,,,,,,,,,,7/8 Mostly Cloudy,8000.0,,FEW,5000.0,BKN,7900.0,BKN,9900.0,,
KRDR,08-27-2009,21:00,METAR,,190,3.0,,,9999.0,,22.0,17.0,30.05,1018.6,,,,,,,,,,,,TRACE,,,7/8 Mostly Cloudy,8000.0,,FEW,5000.0,BKN,7900.0,BKN,11000.0,BKN,25000.0
KRDR,08-27-2009,20:00,METAR,,110,4.0,,,9999.0,,21.0,18.0,30.02,1017.6,,,,,,,,,,,TRACE,,,,8/8 Overcast,8000.0,,FEW,5000.0,BKN,7900.0,BKN,11000.0,OVC,25000.0
KRDR,08-27-2009,19:44,SPECI,,150,5.0,,,9999.0,Drizzle,21.0,18.0,30.02,1017.6,,,,51,,,,,,,,,,,8/8 Overcast,11000.0,,FEW,7900.0,BKN,11000.0,OVC,25000.0,,
KRDR,08-27-2009,18:33,SPECI,,320,5.0,,,9999.0,Rain,23.0,16.0,30.04,1018.3,,,,61,,,,,,,,,,,8/8 Overcast,11000.0,,FEW,7900.0,BKN,11000.0,OVC,25000.0,,
KRDR,08-27-2009,18:00,METAR,,280,13.0,18.0,,9999.0,,24.0,17.0,30.04,1018.0,,,,,,,,,,,,,,,8/8 Overcast,25000.0,,SCT,12000.0,OVC,25000.0,,,,
KRDR,08-27-2009,17:00,METAR,,200,11.0,16.0,,9999.0,,21.0,16.0,30.00,1016.9,,,,,,,,,,,,,,,8/8 Overcast,25000.0,,SCT,12000.0,OVC,25000.0,,,,
KRDR,08-27-2009,16:00,METAR,,200,10.0,,,9999.0,,20.0,15.0,30.03,1017.9,,,,,,,,,,,,,,,8/8 Overcast,12000.0,,BKN,12000.0,OVC,25000.0,,,,
KRDR,08-27-2009,15:00,METAR,,190,13.0,,,9999.0,,18.0,14.0,30.05,1018.4,,,,,,,,,,,,,,,8/8 Overcast,12000.0,,BKN,12000.0,OVC,25000.0,,,,
KRDR,08-27-2009,14:00,METAR,,190,10.0,,,9999.0,,17.0,14.0,30.08,1019.3,,,,,,,,,,,,,,,7/8 Mostly Cloudy,12000.0,,BKN,12000.0,BKN,25000.0,,,,
KRDR,08-27-2009,13:00,METAR,,170,6.0,,,9999.0,,15.0,14.0,30.09,1019.9,,,,,,,,,,,,,,,7/8 Mostly Cloudy,12000.0,,BKN,12000.0,BKN,25000.0,,,,
KRDR,08-27-2009,12:00,METAR,,320,3.0,,,9999.0,,14.0,13.0,30.12,1020.9,,,,,,,,,,,,,,,7/8 Mostly Cloudy,15000.0,,SCT,9900.0,BKN,15000.0,BKN,25000.0,,
KRDR,08-27-2009,11:00,METAR,,180,7.0,,,9999.0,,15.0,12.0,30.06,1018.7,,,,,,,,,,,,,,,7/8 Mostly Cloudy,25000.0,,FEW,9900.0,BKN,25000.0,,,,
KRDR,08-27-2009,10:00,METAR,,210,9.0,,,9999.0,,16.0,13.0,30.03,1017.9,,,,,,,,,,,,,,,Clear,72000.0,,,73000.0,,,,,,
KRDR,08-27-2009,08:00,METAR,,200,7.0,,,9999.0,,15.0,13.0,30.06,1018.7,,,,,,,,,,,,,,,Clear,72000.0,,,73000.0,,,,,,
KRDR,08-27-2009,07:00,METAR,,180,6.0,,,9999.0,,15.0,12.0,30.08,1019.5,,,,,,,,,,,,,,,Clear,72000.0,,,73000.0,,,,,,
KRDR,08-27-2009,06:00,METAR,,190,7.0,,,9999.0,,15.0,12.0,30.09,1019.7,,,,,,,,,,,,,,,Clear,72000.0,,,73000.0,,,,,,
KRDR,08-27-2009,05:00,METAR,,180,6.0,,,9999.0,,16.0,13.0,30.09,1020.0,,,,,,,,,,,,,,,Clear,72000.0,,,73000.0,,,,,,
KRDR,08-27-2009,04:00,METAR,,180,6.0,,,9999.0,,16.0,13.0,30.11,1020.5,,,,,,,,,,,,,,,Clear,72000.0,,,73000.0,,,,,,
KRDR,08-27-2009,02:00,METAR,,170,9.0,,,9999.0,,18.0,13.0,30.11,1020.3,,,,,,,,,,,,,,,Clear,72000.0,,,73000.0,,,,,,
KRDR,08-27-2009,01:00,METAR,,170,9.0,,,9999.0,,22.0,14.0,30.10,1020.2,,,,,,,,,,,,,,,2/8 Mostly Clear,72000.0,,FEW,20000.0,,,,,,
KRDR,08-27-2009,00:00,METAR,,170,9.0,,,9999.0,,25.0,14.0,30.11,1020.4,,,,,,,,,,,,,,,2/8 Mostly Clear,72000.0,,FEW,20000.0,,,,,,
KRDR,08-26-2009,23:00,METAR,,200,9.0,,,9999.0,,26.0,14.0,30.11,1020.4,,,,,,,,,,,,,,,2/8 Mostly Clear,72000.0,,FEW,20000.0,,,,,,
KRDR,08-26-2009,22:00,METAR,,180,12.0,,,9999.0,,27.0,13.0,30.11,1020.6,,,,,,,,,,,,,,,2/8 Mostly Clear,72000.0,,FEW,20000.0,,,,,,
KRDR,08-26-2009,21:00,METAR,,190,13.0,,,9999.0,,27.0,13.0,30.12,1020.9,,,,,,,,,,,,,,,2/8 Mostly Clear,72000.0,,FEW,20000.0,,,,,,
KRDR,08-26-2009,20:00,METAR,,180,11.0,,,9999.0,,27.0,13.0,30.13,1021.0,,,,,,,,,,,,,,,Clear,72000.0,,,73000.0,,,,,,
KRDR,08-26-2009,19:00,METAR,,190,12.0,18.0,,9999.0,,26.0,13.0,30.14,1021.4,,,,,,,,,,,,,,,Clear,72000.0,,,73000.0,,,,,,
KRDR,08-26-2009,18:00,METAR,,200,15.0,,,9999.0,,25.0,13.0,30.14,1021.6,,,,,,,,,,,,,,,Clear,72000.0,,,73000.0,,,,,,
KRDR,08-26-2009,17:00,METAR,,190,14.0,22.0,,9999.0,,25.0,12.0,30.16,1022.0,,,,,,,,,,,,,,,Clear,72000.0,,,73000.0,,,,,,
KRDR,08-26-2009,16:00,METAR,,190,15.0,,,9999.0,,23.0,13.0,30.16,1022.0,,,,,,,,,,,,,,,Clear,72000.0,,,73000.0,,,,,,
KRDR,08-26-2009,15:00,METAR,,190,14.0,,,9999.0,,21.0,13.0,30.15,1021.8,,,,,,,,,,,,,,,Clear,72000.0,,,73000.0,,,,,,
KRDR,08-26-2009,14:00,METAR,,200,5.0,,,9999.0,,18.0,13.0,30.14,1021.4,,,,,,,,,,,,,,,Clear,72000.0,,,73000.0,,,,,,
KRDR,08-26-2009,13:00,METAR,,210,3.0,,,9999.0,,14.0,12.0,30.13,1021.0,,,,,,,,,,,,,,,Clear,72000.0,,,73000.0,,,,,,
KRDR,08-26-2009,12:00,METAR,,210,5.0,,,9999.0,,12.0,10.0,30.12,1020.7,,,,,,,,,,,,,,,Clear,72000.0,,,73000.0,,,,,,
KRDR,08-26-2009,11:00,METAR,,190,5.0,,,9999.0,,12.0,10.0,30.11,1020.5,,,,,,,,,,,,,,,Clear,72000.0,,,73000.0,,,,,,
KRDR,08-26-2009,10:00,METAR,,200,5.0,,,9999.0,,12.0,10.0,30.11,1020.4,,,,,,,,,,,,,,,Clear,72000.0,,,73000.0,,,,,,
KRDR,08-26-2009,09:00,METAR,,190,5.0,,,9999.0,,13.0,10.0,30.10,1020.1,,,,,,,,,,,,,,,Clear,72000.0,,,73000.0,,,,,,
KRDR,08-26-2009,08:00,METAR,,200,6.0,,,9999.0,,12.0,10.0,30.09,1019.9,,,,,,,,,,,,,,,Clear,72000.0,,,73000.0,,,,,,
KRDR,08-26-2009,07:00,METAR,,200,6.0,,,9999.0,,13.0,10.0,30.09,1019.9,,,,,,,,,,,,,,,Clear,72000.0,,,73000.0,,,,,,
KRDR,08-26-2009,06:00,METAR,,180,6.0,,,9999.0,,13.0,10.0,30.09,1019.7,,,,,,,,,,,,,,,Clear,72000.0,,,73000.0,,,,,,
KRDR,08-26-2009,05:00,METAR,,190,6.0,,,9999.0,,13.0,10.0,30.09,1019.7,,,,,,,,,,,,,,,Clear,72000.0,,,73000.0,,,,,,
KRDR,08-26-2009,04:00,METAR,,190,5.0,,,9999.0,,13.0,11.0,30.09,1019.7,,,,,,,,,,,,,,,Clear,72000.0,,,73000.0,,,,,,
KRDR,08-26-2009,03:00,METAR,,190,5.0,,,9999.0,,14.0,12.0,30.08,1019.5,,,,,,,,,,,,,,,Clear,72000.0,,,73000.0,,,,,,
KRDR,08-26-2009,02:00,METAR,,150,3.0,,,9999.0,,18.0,12.0,30.06,1018.9,,,,,,,,,,,,,,,Clear,72000.0,,,73000.0,,,,,,
KRDR,08-26-2009,01:00,METAR,,80,3.0,,,9999.0,,23.0,9.0,30.05,1018.5,,,,,,,,,,,,,,,Clear,72000.0,,,73000.0,,,,,,
KRDR,08-26-2009,00:00,METAR,,,0.0,,,9999.0,,24.0,9.0,30.05,1018.5,,,,,,,,,,,,,,,Clear,72000.0,,,73000.0,,,,,,
KRDR,08-25-2009,23:00,METAR,,,3.0,,,9999.0,,25.0,9.0,30.05,1018.4,,,,,,,,,,,,,,,Clear,72000.0,,,73000.0,,,,,,
KRDR,08-25-2009,22:00,METAR,,,4.0,,,9999.0,,25.0,10.0,30.04,1018.3,,,,,,,,,,,,,,,Clear,72000.0,,,73000.0,,,,,,
KRDR,08-25-2009,21:00,METAR,,360,6.0,,,9999.0,,25.0,10.0,30.05,1018.4,,,,,,,,,,,,,,,Clear,72000.0,,,73000.0,,,,,,
KRDR,08-25-2009,20:00,METAR,,20,6.0,,,9999.0,,25.0,11.0,30.05,1018.5,,,,,,,,,,,,,,,Clear,72000.0,,,73000.0,,,,,,
KRDR,08-25-2009,19:00,METAR,,330,10.0,,,9999.0,,24.0,11.0,30.05,1018.3,,,,,,,,,,,,,,,Clear,72000.0,,,73000.0,,,,,,
KRDR,08-25-2009,18:00,METAR,,320,7.0,,,9999.0,,24.0,11.0,30.05,1018.5,,,,,,,,,,,,,,,Clear,72000.0,,,73000.0,,,,,,
KRDR,08-25-2009,17:00,METAR,,320,9.0,,,9999.0,,23.0,11.0,30.05,1018.6,,,,,,,,,,,,,,,Clear,72000.0,,,73000.0,,,,,,
KRDR,08-25-2009,16:00,METAR,,320,10.0,,,9999.0,,22.0,13.0,30.04,1018.2,,,,,,,,,,,,,,,Clear,72000.0,,,73000.0,,,,,,
KRDR,08-25-2009,15:00,METAR,,320,9.0,,,9999.0,,20.0,15.0,30.03,1017.8,,,,,,,,,,,,,,,Clear,72000.0,,,73000.0,,,,,,
KRDR,08-25-2009,14:00,METAR,,290,6.0,,,9999.0,,17.0,14.0,30.02,1017.6,,,,,,,,,,,,,,,Clear,72000.0,,,73000.0,,,,,,
KRDR,08-25-2009,13:00,METAR,,290,5.0,,,9999.0,,14.0,13.0,30.01,1017.2,,,,,,,,,,,,,,,Clear,72000.0,,,73000.0,,,,,,
KRDR,08-25-2009,12:00,METAR,,290,6.0,,,9999.0,,12.0,11.0,30.01,1017.1,,,,,,,,,,,,,,,Clear,72000.0,,,73000.0,,,,,,
KRDR,08-25-2009,11:00,METAR,,290,5.0,,,9999.0,,12.0,11.0,29.99,1016.6,,,,,,,,,,,,,,,Clear,72000.0,,,73000.0,,,,,,
KRDR,08-25-2009,10:00,METAR,,280,4.0,,,9999.0,,13.0,12.0,29.98,1016.3,,,,,,,,,,,,,,,Clear,72000.0,,,73000.0,,,,,,
KRDR,08-25-2009,09:00,METAR,,310,5.0,,,9999.0,,15.0,13.0,29.97,1016.0,,,,,,,,,,,,,,,Clear,72000.0,,,73000.0,,,,,,
KRDR,08-25-2009,08:00,METAR,,320,6.0,,,9999.0,,15.0,13.0,29.95,1015.1,,,,,,,,,,,,,,,Clear,72000.0,,,73000.0,,,,,,
KRDR,08-25-2009,07:00,METAR,,310,5.0,,,9999.0,,15.0,13.0,29.93,1014.5,,,,,,,,,,,,,,,Clear,72000.0,,,73000.0,,,,,,
KRDR,08-25-2009,06:00,METAR,,320,7.0,,,9999.0,,15.0,14.0,29.91,1014.0,,,,,,,,,,,,,,,Clear,72000.0,,,73000.0,,,,,,
KRDR,08-25-2009,05:00,METAR,,330,6.0,,,9999.0,,16.0,14.0,29.90,1013.5,,,,,,,,,,,,,,,Clear,72000.0,,,73000.0,,,,,,
KRDR,08-25-2009,04:00,METAR,,330,7.0,,,9999.0,,16.0,13.0,29.88,1012.9,,,,,,,,,,,,,,,4/8 Partly Cloudy,72000.0,,FEW,5000.0,SCT,12000.0,,,,
KRDR,08-25-2009,03:00,METAR,,350,10.0,,,9999.0,,17.0,13.0,29.86,1012.4,,,,,,,,,,,,,,,4/8 Partly Cloudy,72000.0,,FEW,5000.0,SCT,12000.0,,,,
KRDR,08-25-2009,02:00,METAR,,330,10.0,,,9999.0,,18.0,14.0,29.84,1011.5,,,,,,,,,,,,,,,4/8 Partly Cloudy,72000.0,,FEW,5000.0,SCT,11000.0,,,,
KRDR,08-25-2009,01:00,METAR,,330,11.0,17.0,,9999.0,,20.0,15.0,29.80,1010.3,,,,,,,,,,,,,,,4/8 Partly Cloudy,72000.0,,FEW,4000.0,SCT,9900.0,,,,
KRDR,08-25-2009,00:00,METAR,,340,13.0,21.0,,9999.0,,22.0,16.0,29.77,1009.1,,,,,,,,,,,,,,,7/8 Mostly Cloudy,8500.0,,SCT,4000.0,BKN,8400.0,,,,
KRDR,08-24-2009,23:00,METAR,,330,14.0,18.0,,9999.0,,25.0,20.0,29.73,1008.0,,,,,,,,,,,,,,,7/8 Mostly Cloudy,3000.0,,BKN,3000.0,,,,,,
KRDR,08-24-2009,22:00,METAR,,200,6.0,,,9999.0,,26.0,21.0,29.70,1007.1,,,,,,,,,,,,,,,7/8 Mostly Cloudy,3400.0,,BKN,3500.0,,,,,,
KRDR,08-24-2009,21:00,METAR,,190,10.0,,,9999.0,,27.0,20.0,29.69,1006.5,,,,,,,,,,,,,,,7/8 Mostly Cloudy,4900.0,,SCT,4200.0,BKN,5000.0,,,,
KRDR,08-24-2009,20:00,METAR,,180,8.0,,,9999.0,,26.0,20.0,29.69,1006.5,,,,,,,,,,,,,,,7/8 Mostly Cloudy,3100.0,,BKN,3200.0,,,,,,
KRDR,08-24-2009,19:00,METAR,,200,13.0,,,9999.0,,25.0,19.0,29.69,1006.6,,,,,,,,,,,,,,,7/8 Mostly Cloudy,4900.0,,SCT,3500.0,BKN,5000.0,,,,
KRDR,08-24-2009,18:00,METAR,,200,16.0,23.0,,9999.0,,24.0,18.0,29.69,1006.5,,,,,,,,,,,,,,,7/8 Mostly Cloudy,14000.0,,FEW,2400.0,BKN,14000.0,BKN,22000.0,,
KRDR,08-24-2009,17:00,METAR,,200,15.0,19.0,,9999.0,,23.0,18.0,29.70,1006.8,,,,,,,,,,,,,,,7/8 Mostly Cloudy,12000.0,,SCT,2300.0,BKN,12000.0,BKN,20000.0,,
KRDR,08-24-2009,16:00,METAR,,180,18.0,23.0,,9999.0,,23.0,18.0,29.66,1005.7,,,,,,,,,,,,,,,7/8 Mostly Cloudy,15000.0,,SCT,9900.0,BKN,15000.0,BKN,20000.0,,
KRDR,08-24-2009,15:00,METAR,,170,17.0,,,9999.0,,22.0,17.0,29.68,1006.2,,,,,,,,,,,,,,,7/8 Mostly Cloudy,17000.0,,SCT,7900.0,BKN,17000.0,BKN,20000.0,,
KRDR,08-24-2009,14:00,METAR,,150,16.0,22.0,,9999.0,,20.0,17.0,29.68,1006.3,,,,,,,,,,,,,,,7/8 Mostly Cloudy,17000.0,,SCT,7900.0,BKN,17000.0,BKN,20000.0,,
KRDR,08-24-2009,13:00,METAR,,150,11.0,,,9999.0,,19.0,17.0,29.72,1007.6,,,,,,,,,,,,,,,8/8 Overcast,17000.0,,SCT,5000.0,OVC,17000.0,,,,
KRDR,08-24-2009,12:00,METAR,,140,11.0,,,9999.0,,19.0,18.0,29.73,1008.2,,,,,,,,,,,,,,,8/8 Overcast,17000.0,,SCT,5000.0,OVC,17000.0,,,,
KRDR,08-24-2009,11:00,METAR,,140,8.0,,,9999.0,,19.0,18.0,29.76,1009.1,,,,,,,,,,,,,,,8/8 Overcast,17000.0,,OVC,17000.0,,,,,,
KRDR,08-24-2009,10:00,METAR,,150,7.0,,,9999.0,,19.0,18.0,29.78,1009.5,,,,,,,,,,,,,,,8/8 Overcast,17000.0,,OVC,17000.0,,,,,,
KRDR,08-24-2009,09:00,METAR,,130,8.0,,,9999.0,,20.0,18.0,29.78,1009.7,,,,,,,,,,,,,,,Clear,72000.0,,,73000.0,,,,,,
KRDR,08-24-2009,08:00,METAR,,160,6.0,,,9999.0,,20.0,19.0,29.82,1010.8,,,,,,,,,,,,,,,8/8 Overcast,3500.0,,OVC,3600.0,,,,,,
KRDR,08-24-2009,07:00,METAR,,150,5.0,,,9999.0,,20.0,19.0,29.83,1011.1,,,,,,,,,,,,,,,8/8 Overcast,3400.0,,OVC,3500.0,,,,,,
KRDR,08-24-2009,06:00,METAR,,110,8.0,,,9999.0,,20.0,19.0,29.82,1011.0,,,,,,,,,,,,,,,Clear,72000.0,,,73000.0,,,,,,
KRDR,08-24-2009,05:00,METAR,,130,5.0,,,9999.0,,21.0,19.0,29.86,1012.1,,,,,,,,,,,,,,,Clear,72000.0,,,73000.0,,,,,,
KRDR,08-24-2009,04:00,METAR,,120,7.0,,,9999.0,,21.0,19.0,29.86,1012.1,,,,,,,,,,,,,,,Clear,72000.0,,,73000.0,,,,,,
KRDR,08-24-2009,03:00,METAR,,100,3.0,,,9999.0,,21.0,19.0,29.87,1012.6,,,,,,,,,,,,,,,Clear,72000.0,,,73000.0,,,,,,
KRDR,08-24-2009,02:00,METAR,,110,4.0,,,9999.0,,23.0,19.0,29.87,1012.6,,,,,,,,,,,,,,,Clear,72000.0,,,73000.0,,,,,,
KRDR,08-24-2009,01:00,METAR,,110,7.0,,,9999.0,,24.0,20.0,29.87,1012.6,,,,,,,,,,,,,,,Clear,72000.0,,,73000.0,,,,,,
KRDR,08-24-2009,00:00,METAR,,140,4.0,,,9999.0,,26.0,19.0,29.88,1012.7,,,,,,,,,,,,,,,Clear,72000.0,,,73000.0,,,,,,
KRDR,08-23-2009,23:00,METAR,,140,5.0,,,9999.0,,26.0,19.0,29.87,1012.6,,,,,,,,,,,,,,,Clear,72000.0,,,73000.0,,,,,,
KRDR,08-23-2009,22:00,METAR,,140,5.0,,,9999.0,,26.0,19.0,29.88,1012.8,,,,,,,,,,,,,,,Clear,72000.0,,,73000.0,,,,,,
KRDR,08-23-2009,21:00,METAR,,,5.0,,,9999.0,,26.0,19.0,29.89,1013.1,,,,,,,,,,,,,,,Clear,72000.0,,,73000.0,,,,,,
KRDR,08-23-2009,20:00,METAR,,150,6.0,,,9999.0,,25.0,18.0,29.90,1013.5,,,,,,,,,,,,,,,Clear,72000.0,,,73000.0,,,,,,
KRDR,08-23-2009,19:00,METAR,,140,5.0,,,9999.0,,24.0,18.0,29.90,1013.6,,,,,,,,,,,,,,,Clear,72000.0,,,73000.0,,,,,,
KRDR,08-23-2009,18:00,METAR,,120,3.0,,,9999.0,,23.0,17.0,29.91,1014.0,,,,,,,,,,,,,,,Clear,72000.0,,,73000.0,,,,,,
KRDR,08-23-2009,17:00,METAR,,,0.0,,,9999.0,,22.0,17.0,29.91,1013.9,,,,,,,,,,,,,,,Clear,72000.0,,,73000.0,,,,,,
KRDR,08-23-2009,16:00,METAR,,220,3.0,,,9999.0,,21.0,16.0,29.91,1013.9,,,,,,,,,,,,,,,Clear,72000.0,,,73000.0,,,,,,
KRDR,08-23-2009,15:00,METAR,,220,6.0,,,9999.0,,20.0,15.0,29.92,1014.2,,,,,,,,,,,,,,,Clear,72000.0,,,73000.0,,,,,,
KRDR,08-23-2009,14:00,METAR,,200,10.0,,,9999.0,,17.0,15.0,29.92,1014.2,,,,,,,,,,,,,,,Clear,72000.0,,,73000.0,,,,,,
KRDR,08-23-2009,13:00,METAR,,190,5.0,,,9999.0,,15.0,14.0,29.92,1014.3,,,,,,,,,,,,,,,Clear,72000.0,,,73000.0,,,,,,
KRDR,08-23-2009,12:00,METAR,,190,6.0,,,9999.0,,15.0,14.0,29.90,1013.7,,,,,,,,,,,,,,,Clear,72000.0,,,73000.0,,,,,,
KRDR,08-23-2009,11:00,METAR,,190,8.0,,,9999.0,,15.0,14.0,29.90,1013.7,,,,,,,,,,,,,,,Clear,72000.0,,,73000.0,,,,,,
KRDR,08-23-2009,10:00,METAR,,180,8.0,,,9999.0,,15.0,14.0,29.90,1013.6,,,,,,,,,,,,,,,Clear,72000.0,,,73000.0,,,,,,
KRDR,08-23-2009,09:00,METAR,,190,8.0,,,9999.0,,15.0,14.0,29.92,1014.1,,,,,,,,,,,,,,,Clear,72000.0,,,73000.0,,,,,,
KRDR,08-23-2009,08:00,METAR,,180,7.0,,,9999.0,,16.0,14.0,29.93,1014.4,,,,,,,,,,,,,,,Clear,72000.0,,,73000.0,,,,,,
KRDR,08-23-2009,07:00,METAR,,180,9.0,,,9999.0,,16.0,15.0,29.93,1014.5,,,,,,,,,,,,,,,Clear,72000.0,,,73000.0,,,,,,
KRDR,08-23-2009,06:00,METAR,,180,9.0,,,9999.0,,16.0,15.0,29.94,1014.8,,,,,,,,,,,,,TRACE,,Clear,72000.0,,,73000.0,,,,,,
KRDR,08-23-2009,05:00,METAR,,180,8.0,,,9999.0,,16.0,15.0,29.94,1014.8,,,,,,,,,,,,,,,Clear,72000.0,,,73000.0,,,,,,
KRDR,08-23-2009,04:00,METAR,,170,8.0,,,9999.0,,16.0,14.0,29.96,1015.4,,,,,,,,,,,,,,,Clear,72000.0,,,73000.0,,,,,,
KRDR,08-23-2009,03:00,METAR,,170,7.0,,,9999.0,,17.0,15.0,29.96,1015.5,,,,,,,,,,,,TRACE,,,Clear,72000.0,,,73000.0,,,,,,
KRDR,08-23-2009,02:00,METAR,,160,6.0,,,9999.0,,18.0,15.0,29.96,1015.6,,,,,,,,,,,TRACE,,,,Clear,72000.0,,,73000.0,,,,,,
KRDR,08-23-2009,01:28,SPECI,,180,10.0,,,9999.0,,19.0,15.0,29.95,1015.4,,,,,,,,,,,,,,,Clear,72000.0,,,73000.0,,,,,,
KRDR,08-23-2009,01:18,SPECI,,170,9.0,,,9999.0,,19.0,15.0,29.96,1015.5,,,,,,,,,,,,,,,Clear,72000.0,,,73000.0,,,,,,
KRDR,08-23-2009,01:00,METAR,,170,7.0,,,9999.0,,20.0,15.0,29.97,1015.9,,,,,,,,,,,,,,,Clear,72000.0,,,73000.0,,,,,,
KRDR,08-23-2009,00:00,METAR,,180,14.0,19.0,,9999.0,,21.0,14.0,29.96,1015.5,,,,,,,,,,,,,,,Clear,72000.0,,,73000.0,,,,,,
KRDR,08-22-2009,23:00,METAR,,180,10.0,,,9999.0,,21.0,14.0,29.98,1016.3,,,,,,,,,,,,,,,2/8 Mostly Clear,72000.0,,FEW,3600.0,,,,,,
KRDR,08-22-2009,22:00,METAR,,180,11.0,,,9999.0,,21.0,14.0,30.00,1016.8,,,,,,,,,,,,,,,8/8 Overcast,3600.0,,OVC,3700.0,,,,,,
KRDR,08-22-2009,21:00,METAR,,190,10.0,,,9999.0,,21.0,14.0,30.04,1018.0,,,,,,,,,,,,,,,8/8 Overcast,3600.0,,OVC,3700.0,,,,,,
KRDR,08-22-2009,20:00,METAR,,190,9.0,,,9999.0,,21.0,13.0,30.06,1018.7,,,,,,,,,,,,,,,8/8 Overcast,3400.0,,OVC,3500.0,,,,,,
KRDR,08-22-2009,19:00,METAR,,170,11.0,,,9999.0,,21.0,13.0,30.05,1018.6,,,,,,,,,,,,,,,4/8 Partly Cloudy,72000.0,,SCT,3500.0,,,,,,
KRDR,08-22-2009,18:00,METAR,,200,8.0,,,9999.0,,19.0,13.0,30.08,1019.4,,,,,,,,,,,,,,,8/8 Overcast,3100.0,,FEW,2400.0,OVC,3200.0,,,,
KRDR,08-22-2009,17:46,SPECI,,210,8.0,,,9999.0,,19.0,14.0,30.08,1019.5,,,,,,,,,,,,,,,8/8 Overcast,3100.0,,SCT,2500.0,OVC,3200.0,,,,
KRDR,08-22-2009,17:42,SPECI,,200,8.0,,,9999.0,,19.0,14.0,30.08,1019.6,,,,,,,,,,,,,,,8/8 Overcast,2900.0,,OVC,2900.0,,,,,,
KRDR,08-22-2009,17:37,SPECI,,210,9.0,,,9999.0,,19.0,14.0,30.08,1019.6,,,,,,,,,,,,,,,8/8 Overcast,3100.0,,OVC,3100.0,,,,,,
KRDR,08-22-2009,17:24,SPECI,,200,10.0,,,9999.0,,19.0,13.0,30.09,1019.7,,,,,,,,,,,,,,,8/8 Overcast,2900.0,,OVC,2900.0,,,,,,
KRDR,08-22-2009,17:00,METAR,,180,10.0,,,9999.0,,19.0,13.0,30.09,1019.9,,,,,,,,,,,,,,,7/8 Mostly Cloudy,3200.0,,BKN,3300.0,,,,,,
KRDR,08-22-2009,16:00,METAR,,200,8.0,,,9999.0,,18.0,14.0,30.11,1020.3,,,,,,,,,,,,,,,8/8 Overcast,3500.0,,OVC,3600.0,,,,,,
KRDR,08-22-2009,15:00,METAR,,180,5.0,,,9999.0,,16.0,14.0,30.13,1021.0,,,,,,,,,,,,,,,8/8 Overcast,3900.0,,OVC,4000.0,,,,,,
KRDR,08-22-2009,14:00,METAR,,180,3.0,,,9999.0,,15.0,14.0,30.13,1021.3,,,,,,,,,,,,,,,8/8 Overcast,3800.0,,OVC,3900.0,,,,,,
KRDR,08-22-2009,13:00,METAR,,,0.0,,,9999.0,,14.0,14.0,30.12,1020.9,,,,,,,,,,,,,,,8/8 Overcast,3700.0,,OVC,3800.0,,,,,,
KRDR,08-22-2009,12:00,METAR,,,0.0,,,9999.0,,14.0,13.0,30.12,1020.9,,,,,,,,,,,,,,,8/8 Overcast,3700.0,,OVC,3800.0,,,,,,
KRDR,08-22-2009,11:00,METAR,,,0.0,,,9999.0,,14.0,13.0,30.13,1021.0,,,,,,,,,,,,,,,8/8 Overcast,3600.0,,OVC,3700.0,,,,,,
KRDR,08-22-2009,10:00,METAR,,,0.0,,,9999.0,,13.0,13.0,30.11,1020.6,,,,,,,,,,,,,,,8/8 Overcast,3500.0,,OVC,3600.0,,,,,,
KRDR,08-22-2009,09:00,METAR,,330,3.0,,,9999.0,,13.0,13.0,30.12,1020.7,,,,,,,,,,,,,,,8/8 Overcast,3700.0,,OVC,3800.0,,,,,,
KRDR,08-22-2009,08:00,METAR,,,0.0,,,9999.0,,13.0,12.0,30.12,1020.7,,,,,,,,,,,,,,,8/8 Overcast,3900.0,,OVC,4000.0,,,,,,
KRDR,08-22-2009,07:00,METAR,,290,4.0,,,9999.0,,11.0,10.0,30.12,1020.7,,,,,,,,,,,,,,,Clear,72000.0,,,73000.0,,,,,,
KRDR,08-22-2009,06:00,METAR,,,0.0,,,9999.0,,11.0,11.0,30.11,1020.4,,,,,,,,,,,,,,,Clear,72000.0,,,73000.0,,,,,,
KRDR,08-22-2009,05:00,METAR,,,0.0,,,9999.0,,13.0,12.0,30.10,1020.2,,,,,,,,,,,,,,,8/8 Overcast,3800.0,,OVC,3900.0,,,,,,
KRDR,08-22-2009,04:00,METAR,,320,4.0,,,9999.0,,13.0,12.0,30.10,1020.1,,,,,,,,,,,,,,,2/8 Mostly Clear,72000.0,,FEW,3800.0,,,,,,
KRDR,08-22-2009,03:00,METAR,,340,4.0,,,9999.0,,15.0,13.0,30.09,1019.9,,,,,,,,,,,,,,,4/8 Partly Cloudy,72000.0,,SCT,3800.0,,,,,,
KRDR,08-22-2009,02:00,METAR,,330,3.0,,,9999.0,,16.0,14.0,30.09,1019.7,,,,,,,,,,,,,,,7/8 Mostly Cloudy,3700.0,,BKN,3800.0,,,,,,
KRDR,08-22-2009,01:00,METAR,,350,5.0,,,9999.0,,16.0,14.0,30.08,1019.6,,,,,,,,,,,,,,,8/8 Overcast,3400.0,,OVC,3500.0,,,,,,
KRDR,08-22-2009,00:00,METAR,,350,7.0,,,9999.0,,17.0,14.0,30.08,1019.6,,,,,,,,,,,,,,,8/8 Overcast,3300.0,,OVC,3400.0,,,,,,
KRDR,08-21-2009,23:27,SPECI,,10,8.0,,,9999.0,,17.0,14.0,30.08,1019.5,,,,,,,,,,,,,,,8/8 Overcast,3100.0,,OVC,3100.0,,,,,,
KRDR,08-21-2009,23:00,METAR,,350,10.0,,,9999.0,,17.0,14.0,30.08,1019.6,,,,,,,,,,,,,,,8/8 Overcast,2900.0,,OVC,2900.0,,,,,,
KRDR,08-21-2009,22:00,METAR,,360,8.0,,,9999.0,,17.0,14.0,30.08,1019.4,,,,,,,,,,,,,,,8/8 Overcast,2300.0,,OVC,2300.0,,,,,,
KRDR,08-21-2009,21:00,METAR,,350,9.0,,,9999.0,,17.0,14.0,30.08,1019.4,,,,,,,,,,,,,,,8/8 Overcast,2300.0,,OVC,2300.0,,,,,,
KRDR,08-21-2009,20:00,METAR,,350,9.0,,,9999.0,,18.0,14.0,30.07,1019.2,,,,,,,,,,,,,,,8/8 Overcast,1600.0,,OVC,1900.0,,,,,,
KRDR,08-21-2009,19:00,METAR,,340,11.0,,,9999.0,,18.0,14.0,30.06,1018.9,,,,,,,,,,,,,,,8/8 Overcast,1800.0,,OVC,1800.0,,,,,,
KRDR,08-21-2009,18:00,METAR,,330,12.0,,,9999.0,,16.0,13.0,30.06,1018.8,,,,,,,,,,,,,,,8/8 Overcast,1500.0,,OVC,1500.0,,,,,,
KRDR,08-21-2009,17:00,METAR,,350,12.0,,,9999.0,,16.0,13.0,30.05,1018.5,,,,,,,,,,,,,,,8/8 Overcast,1300.0,,OVC,1300.0,,,,,,
KRDR,08-21-2009,16:00,METAR,,340,11.0,,,9999.0,,16.0,13.0,30.03,1017.7,,,,,,,,,,,,,,,8/8 Overcast,1200.0,,OVC,1200.0,,,,,,
KRDR,08-21-2009,15:00,METAR,,350,11.0,,,9999.0,,15.0,13.0,30.02,1017.4,,,,,,,,,,,,,,,8/8 Overcast,1200.0,,OVC,1200.0,,,,,,
KRDR,08-21-2009,14:00,METAR,,350,13.0,17.0,,9999.0,,14.0,13.0,30.00,1016.9,,,,,,,,,,,,,,,8/8 Overcast,1200.0,,OVC,1200.0,,,,,,
KRDR,08-21-2009,13:00,METAR,,340,13.0,,,9999.0,,14.0,12.0,29.98,1016.3,,,,,,,,,,,,,,,8/8 Overcast,1400.0,,OVC,1400.0,,,,,,
KRDR,08-21-2009,12:00,METAR,,350,12.0,,,9999.0,,14.0,12.0,29.97,1015.8,,,,,,,,,,,,,.03 IN,.6 IN,8/8 Overcast,1100.0,,OVC,1100.0,,,,,,
KRDR,08-21-2009,11:41,SPECI,,350,10.0,,,9999.0,,14.0,12.0,29.96,1015.7,,,,,,,,,,,,,,,8/8 Overcast,1100.0,,OVC,1100.0,,,,,,
KRDR,08-21-2009,11:00,METAR,,340,13.0,,,9999.0,,13.0,12.0,29.95,1015.3,,,,,,,,,,,,,,,8/8 Overcast,1500.0,,OVC,1500.0,,,,,,
KRDR,08-21-2009,10:45,SPECI,,350,11.0,,,9999.0,,13.0,12.0,29.95,1015.3,,,,,,,,,,,,,,,8/8 Overcast,1600.0,,OVC,1600.0,,,,,,
KRDR,08-21-2009,10:37,SPECI,,340,12.0,,,9999.0,,13.0,12.0,29.95,1015.3,,,,,,,,,,,,,,,8/8 Overcast,1400.0,,OVC,1400.0,,,,,,
KRDR,08-21-2009,10:00,METAR,,340,10.0,,,9999.0,,13.0,12.0,29.94,1014.9,,,,,,,,,,,,,,,8/8 Overcast,1700.0,,OVC,1700.0,,,,,,
KRDR,08-21-2009,09:00,METAR,,350,13.0,,,9999.0,,13.0,12.0,29.93,1014.4,,,,,,,,,,,,.03 IN,,,8/8 Overcast,2500.0,,FEW,1400.0,OVC,2500.0,,,,
KRDR,08-21-2009,08:10,SPECI,,350,12.0,19.0,,9999.0,,13.0,12.0,29.91,1014.0,,,,,,,,,,,,,,,7/8 Mostly Cloudy,1600.0,,BKN,1600.0,,,,,,
KRDR,08-21-2009,08:08,SPECI,,350,13.0,19.0,,9999.0,,13.0,12.0,29.91,1014.0,,,,,,,,,,,,,,,7/8 Mostly Cloudy,1400.0,,BKN,1400.0,,,,,,
KRDR,08-21-2009,08:00,METAR,,350,14.0,21.0,,9999.0,,13.0,12.0,29.91,1013.9,,,,,,,,,,,.01 IN,,,,4/8 Partly Cloudy,72000.0,,SCT,1300.0,,,,,,
KRDR,08-21-2009,07:46,SPECI,,350,13.0,,,9999.0,,13.0,12.0,29.91,1013.9,,,,,,,,,,,,,,,4/8 Partly Cloudy,72000.0,,SCT,1300.0,,,,,,
KRDR,08-21-2009,07:41,SPECI,,350,11.0,,,9999.0,,13.0,12.0,29.91,1013.8,,,,,,,,,,,,,,,7/8 Mostly Cloudy,1400.0,,BKN,1400.0,,,,,,
KRDR,08-21-2009,07:18,SPECI,,350,14.0,21.0,,9999.0,Light Rain,13.0,13.0,29.90,1013.7,61,,,,,,,,,,,,,,8/8 Overcast,1300.0,,OVC,1300.0,,,,,,
KRDR,08-21-2009,07:00,METAR,,350,14.0,21.0,,9999.0,Light Rain,14.0,13.0,29.90,1013.5,61,,,,,,,,,,.02 IN,,,,8/8 Overcast,1100.0,,OVC,1100.0,,,,,,
KRDR,08-21-2009,06:33,SPECI,,350,13.0,,,9999.0,Light Rain,14.0,13.0,29.89,1013.3,61,,,,,,,,,,,,,,8/8 Overcast,1100.0,,OVC,1100.0,,,,,,
KRDR,08-21-2009,06:23,SPECI,,350,13.0,22.0,,9999.0,Light Rain,14.0,13.0,29.89,1013.2,61,,,,,,,,,,,,,,8/8 Overcast,1400.0,,OVC,1400.0,,,,,,
KRDR,08-21-2009,06:21,SPECI,,360,16.0,22.0,,9999.0,Light Rain,14.0,13.0,29.89,1013.2,61,,,,,,,,,,,,,,8/8 Overcast,1500.0,,OVC,1500.0,,,,,,
KRDR,08-21-2009,06:00,METAR,,350,16.0,20.0,,9999.0,Light Rain,14.0,14.0,29.88,1013.0,61,,,,,,,,,,.06 IN,,.1 IN,,8/8 Overcast,1200.0,,OVC,1200.0,,,,,,
KRDR,08-21-2009,05:45,SPECI,,340,14.0,21.0,,9999.0,Rain/Mist,14.0,14.0,29.88,1012.9,62,10,,,,,,,,,,,,,8/8 Overcast,1200.0,,OVC,1200.0,,,,,,
KRDR,08-21-2009,05:30,SPECI,,340,13.0,20.0,,9999.0,Light Rain,15.0,14.0,29.88,1012.7,61,,,,,,,,,,,,,,8/8 Overcast,1000.0,,OVC,1000.0,,,,,,
KRDR,08-21-2009,05:07,SPECI,,340,14.0,,,9999.0,Light Rain,15.0,15.0,29.87,1012.6,61,,,,,,,,,,,,,,8/8 Overcast,900.0,,OVC,900.0,,,,,,
KRDR,08-21-2009,05:00,METAR,,340,13.0,,,9999.0,Light Rain,15.0,15.0,29.87,1012.5,61,,,,,,,,,,,,,,7/8 Mostly Cloudy,1100.0,,BKN,1100.0,,,,,,
KRDR,08-21-2009,04:53,SPECI,,350,11.0,,,9999.0,Light Rain,15.0,15.0,29.87,1012.5,61,,,,,,,,,,,,,,7/8 Mostly Cloudy,1200.0,,BKN,1200.0,,,,,,
KRDR,08-21-2009,04:31,SPECI,,350,14.0,,,9999.0,Light Rain,16.0,15.0,29.86,1012.3,61,,,,,,,,,,,,,,7/8 Mostly Cloudy,1100.0,,BKN,1100.0,,,,,,
KRDR,08-21-2009,04:25,SPECI,,350,13.0,,,9999.0,Light Rain,16.0,15.0,29.86,1012.3,61,,,,,,,,,,,,,,8/8 Overcast,1200.0,,OVC,1200.0,,,,,,
KRDR,08-21-2009,04:16,SPECI,,360,12.0,20.0,,9999.0,,16.0,15.0,29.86,1012.2,,,,,,,,,,,,,,,8/8 Overcast,1100.0,,OVC,1100.0,,,,,,
KRDR,08-21-2009,04:05,SPECI,,350,13.0,,,9999.0,Light Drizzle,16.0,15.0,29.85,1012.0,51,,,,,,,,,,,,,,8/8 Overcast,1300.0,,OVC,1300.0,,,,,,
KRDR,08-21-2009,04:00,METAR,,350,12.0,,,9999.0,,16.0,15.0,29.85,1011.9,,,,,,,,,,,,,,,8/8 Overcast,1500.0,,OVC,1500.0,,,,,,
KRDR,08-21-2009,03:55,METAR,,350,11.0,,,9999.0,,16.0,15.0,29.85,1011.9,,,,,,,,,,,,,,,8/8 Overcast,2100.0,,FEW,900.0,OVC,2100.0,,,,
KRDR,08-21-2009,03:46,SPECI,,350,11.0,,,9999.0,,16.0,15.0,29.85,1011.8,,,,,,,,,,,,,,,7/8 Mostly Cloudy,2100.0,,SCT,900.0,BKN,2100.0,,,,
KRDR,08-21-2009,03:34,SPECI,,360,15.0,19.0,,9999.0,,16.0,15.0,29.85,1011.7,,,,,,,,,,,,,,,8/8 Overcast,1400.0,,SCT,1000.0,BKN,1400.0,OVC,3600.0,,
KRDR,08-21-2009,03:28,SPECI,,350,11.0,,,9999.0,,16.0,15.0,29.84,1011.7,,,,,,,,,,,,,,,8/8 Overcast,1300.0,,OVC,1300.0,,,,,,
KRDR,08-21-2009,03:00,METAR,,360,9.0,,,9999.0,,16.0,15.0,29.84,1011.4,,,,,,,,,,,TRACE,.02 IN,,,8/8 Overcast,1500.0,,OVC,1500.0,,,,,,
KRDR,08-21-2009,02:45,SPECI,,10,8.0,,,9999.0,,16.0,15.0,29.83,1011.3,,,,,,,,,,,,,,,8/8 Overcast,1600.0,,BKN,1600.0,OVC,3000.0,,,,
KRDR,08-21-2009,02:20,SPECI,,360,15.0,22.0,,9999.0,Light Rain Showers,16.0,15.0,29.82,1010.8,,,,80,,,,,,,,,,,7/8 Mostly Cloudy,1400.0,,FEW,900.0,BKN,1400.0,BKN,9400.0,,
KRDR,08-21-2009,02:06,SPECI,,350,12.0,,,9999.0,,16.0,15.0,29.81,1010.6,,,,,,,,,,,,,,,7/8 Mostly Cloudy,1400.0,,FEW,900.0,BKN,1400.0,BKN,8400.0,,
KRDR,08-21-2009,02:00,METAR,,340,11.0,,,9999.0,Precipitation in the Vicinity,16.0,15.0,29.80,1010.3,,,,16,,,,,,,,,,,8/8 Overcast,4400.0,,BKN,4500.0,OVC,6900.0,,,,
KRDR,08-21-2009,02:00,SPECI,,350,11.0,,,9999.0,,16.0,15.0,29.81,1010.5,,,,,,,,,,,,,,,8/8 Overcast,4400.0,,FEW,900.0,SCT,1400.0,BKN,4500.0,OVC,8900.0
KRDR,08-21-2009,01:00,METAR,,350,13.0,17.0,,9999.0,,16.0,14.0,29.78,1009.6,,,,,,,,,,,.02 IN,,,,7/8 Mostly Cloudy,4900.0,,SCT,2500.0,BKN,5000.0,BKN,8900.0,,
KRDR,08-21-2009,00:15,SPECI,,340,9.0,,,9999.0,,16.0,15.0,29.76,1009.0,,,,,,,,,,,,,,,7/8 Mostly Cloudy,4900.0,,SCT,3000.0,BKN,5000.0,BKN,9900.0,,
KRDR,08-21-2009,00:00,METAR,,350,15.0,19.0,350/28KTS,9999.0,Rain,16.0,15.0,29.76,1009.1,,,,63,,,,,,,.47 IN,,.47 IN,,8/8 Overcast,3900.0,,SCT,2000.0,OVC,4000.0,,,,
KRDR,08-20-2009,23:45,SPECI,,350,15.0,,350/28KTS,9999.0,Light Rain Showers,16.0,15.0,29.76,1009.1,,,,80,,,,,,,,,,,8/8 Overcast,3400.0,,FEW,2000.0,OVC,3500.0,,,,
KRDR,08-20-2009,23:20,SPECI,,340,12.0,,350/28KTS,8000.0,Thunderstorm with Rain or Snow/Light Rain Showers,16.0,15.0,29.76,1008.8,,,,95,80,,,,,,,,,,8/8 Overcast,3100.0,,FEW,1400.0,SCT,1900.0,OVC,3200.0,,
KRDR,08-20-2009,23:06,SPECI,,350,14.0,28.0,,1600.0,Heavy Thunderstorm with Rain or Snow/Heavy Rain Showers,18.0,16.0,29.75,1008.6,,,,97,82,,,,,,,,,,7/8 Mostly Cloudy,2600.0,,SCT,1800.0,BKN,2600.0,BKN,4000.0,,
KRDR,08-20-2009,23:02,SPECI,,330,6.0,,,4800.0,Heavy Rain Showers,19.0,16.0,29.73,1008.1,,,,82,,,,,,,,,,,7/8 Mostly Cloudy,4700.0,,FEW,1900.0,SCT,2700.0,BKN,4800.0,,
KRDR,08-20-2009,23:00,METAR,,320,7.0,,,9999.0,Light Rain Showers,20.0,16.0,29.72,1007.7,,,,80,,,,,,,,,,,7/8 Mostly Cloudy,4900.0,,FEW,3100.0,BKN,5000.0,BKN,6400.0,,
KRDR,08-20-2009,22:49,SPECI,,320,8.0,,,9999.0,Light Rain Showers,21.0,16.0,29.72,,,,,80,,,,,,,,,,,7/8 Mostly Cloudy,4900.0,,FEW,3300.0,BKN,5000.0,BKN,6400.0,,
KRDR,08-20-2009,22:00,METAR,,20,16.0,,,9999.0,,22.0,13.0,29.71,1007.2,,,,,,,,,,,,,,,7/8 Mostly Cloudy,3900.0,,FEW,2500.0,BKN,4000.0,BKN,9900.0,,
KRDR,08-20-2009,21:00,METAR,,30,11.0,,,9999.0,,22.0,15.0,29.71,1007.2,,,,,,,,,,,,,,,7/8 Mostly Cloudy,7000.0,,FEW,2500.0,SCT,4200.0,BKN,6900.0,,
KRDR,08-20-2009,20:00,METAR,,10,14.0,,,9999.0,,21.0,15.0,29.70,1007.0,,,,,,,,,,,,,,,8/8 Overcast,3900.0,,SCT,2600.0,BKN,4000.0,OVC,7400.0,,
KRDR,08-20-2009,19:47,SPECI,,10,12.0,,,9999.0,,22.0,15.0,29.70,1007.0,,,,,,,,,,,,,,,7/8 Mostly Cloudy,3600.0,,SCT,2600.0,BKN,3700.0,BKN,6900.0,,
KRDR,08-20-2009,19:00,METAR,,30,18.0,22.0,,9999.0,,21.0,15.0,29.69,1006.7,,,,,,,,,,,,,,,7/8 Mostly Cloudy,2600.0,,BKN,2600.0,BKN,5900.0,,,,
KRDR,08-20-2009,18:00,METAR,,30,18.0,,,9999.0,,19.0,16.0,29.68,1006.4,,,,,,,,,,,TRACE,,TRACE,,7/8 Mostly Cloudy,2200.0,,SCT,1200.0,BKN,2200.0,BKN,5900.0,,
KRDR,08-20-2009,17:38,SPECI,,10,15.0,20.0,,9999.0,,19.0,16.0,29.68,,,,,,,,,,,,,,,,7/8 Mostly Cloudy,2300.0,,SCT,1700.0,BKN,2300.0,BKN,2800.0,,
KRDR,08-20-2009,17:23,SPECI,,350,10.0,21.0,,9999.0,Rain,20.0,16.0,29.68,,,,,61,,,,,,,,,,,8/8 Overcast,2300.0,,SCT,1500.0,BKN,2300.0,OVC,5900.0,,
KRDR,08-20-2009,17:00,METAR,,340,14.0,20.0,,9999.0,,20.0,16.0,29.68,1006.1,,,,,,,,,,,,,,,7/8 Mostly Cloudy,1400.0,,FEW,800.0,BKN,1400.0,BKN,3000.0,,
KRDR,08-20-2009,16:40,SPECI,,340,13.0,20.0,,9999.0,,19.0,16.0,29.67,1006.0,,,,,,,,,,,,,,,7/8 Mostly Cloudy,1300.0,,FEW,1000.0,BKN,2100.0,,,,
KRDR,08-20-2009,16:00,METAR,,340,12.0,17.0,,9999.0,,17.0,16.0,29.67,1006.0,,,,,,,,,,,,,,,7/8 Mostly Cloudy,800.0,,BKN,800.0,BKN,2200.0,,,,
KRDR,08-20-2009,15:00,METAR,,350,11.0,,,9999.0,,16.0,15.0,29.66,1005.6,,,,,,,,,,,,,,,8/8 Overcast,700.0,,OVC,700.0,,,,,,
KRDR,08-20-2009,14:25,SPECI,,350,11.0,,,9999.0,,16.0,16.0,29.65,,,,,,,,,,,,,,,,8/8 Overcast,800.0,,OVC,800.0,,,,,,
KRDR,08-20-2009,14:00,METAR,,350,7.0,,,9999.0,,16.0,15.0,29.65,1005.3,,,,,,,,,,,,,,,8/8 Overcast,3400.0,,SCT,600.0,OVC,3500.0,,,,
KRDR,08-20-2009,13:06,SPECI,,340,8.0,,,9999.0,,15.0,15.0,29.64,1004.9,,,,,,,,,,,,,,,7/8 Mostly Cloudy,5500.0,,FEW,500.0,BKN,5400.0,,,,
KRDR,08-20-2009,13:00,METAR,,340,10.0,,,9999.0,,15.0,15.0,29.64,1004.9,,,,,,,,,,,,,,,8/8 Overcast,3400.0,,SCT,600.0,OVC,3500.0,,,,
KRDR,08-20-2009,12:16,SPECI,,330,8.0,,,9999.0,,15.0,14.0,29.63,1004.7,,,,,,,,,,,,,,,7/8 Mostly Cloudy,8000.0,,SCT,400.0,SCT,800.0,BKN,7900.0,,
KRDR,08-20-2009,12:00,METAR,,330,8.0,,,9999.0,,14.0,14.0,29.62,1004.4,,,,,,,,,,,,,.01 IN,.39 IN,Clear,72000.0,,,73000.0,,,,,,
KRDR,08-20-2009,11:00,METAR,,330,7.0,,,9999.0,,13.0,13.0,29.60,1003.8,,,,,,,,,,,,,,,Clear,72000.0,,,73000.0,,,,,,
KRDR,08-20-2009,10:00,METAR,,310,6.0,,,9999.0,,13.0,13.0,29.59,1003.4,,,,,,,,,,,,,,,Clear,72000.0,,,73000.0,,,,,,
KRDR,08-20-2009,09:00,METAR,,320,6.0,,,9999.0,,13.0,13.0,29.59,1003.3,,,,,,,,,,,,.01 IN,,,Clear,72000.0,,,73000.0,,,,,,
KRDR,08-20-2009,08:00,METAR,,340,3.0,,,9999.0,,13.0,12.0,29.58,1003.1,,,,,,,,,,,.01 IN,,,,Clear,72000.0,,,73000.0,,,,,,
KRDR,08-20-2009,07:00,METAR,,310,3.0,,,9999.0,,13.0,13.0,29.58,1002.9,,,,,,,,,,,,,,,Clear,72000.0,,,73000.0,,,,,,
KRDR,08-20-2009,06:00,METAR,,310,4.0,,,9999.0,,13.0,13.0,29.58,1002.9,,,,,,,,,,,,,.06 IN,,4/8 Partly Cloudy,72000.0,,SCT,5000.0,,,,,,
KRDR,08-20-2009,05:00,METAR,,310,4.0,,,9999.0,,14.0,14.0,29.58,1003.1,,,,,,,,,,,,,,,4/8 Partly Cloudy,72000.0,,SCT,5000.0,,,,,,
KRDR,08-20-2009,04:09,SPECI,,280,3.0,,,4800.0,Mist,14.0,14.0,29.58,1002.9,,,,10,,,,,,,,,,,7/8 Mostly Cloudy,20000.0,,SCT,5000.0,BKN,20000.0,,,,
KRDR,08-20-2009,03:53,METAR,,230,3.0,,,800.0,Fog or Ice Fog,14.0,14.0,29.58,1003.1,,,,44,,,,,,,,,,,Clear,72000.0,,,73000.0,,,,,,
KRDR,08-20-2009,03:27,SPECI,,,0.0,,,800.0,Fog or Ice Fog,15.0,14.0,29.58,1003.1,,,,44,,,,,,,,,,,Clear,72000.0,,,73000.0,,,,,,
KRDR,08-20-2009,03:25,SPECI,,,0.0,,,1200.0,Mist,15.0,15.0,29.58,1003.0,,,,10,,,,,,,,,,,Clear,72000.0,,,73000.0,,,,,,
KRDR,08-20-2009,03:07,SPECI,,120,4.0,,,800.0,Fog or Ice Fog,15.0,15.0,29.58,1003.1,,,,44,,,,,,,,,,,7/8 Mostly Cloudy,20000.0,,SCT,5000.0,BKN,20000.0,,,,
KRDR,08-20-2009,03:00,METAR,,,0.0,,,4800.0,Mist,15.0,15.0,29.59,1003.2,,,,10,,,,,,,,.06 IN,,,7/8 Mostly Cloudy,20000.0,,SCT,5000.0,BKN,20000.0,,,,
KRDR,08-20-2009,02:48,SPECI,,,0.0,,,4800.0,Mist,15.0,15.0,29.59,1003.2,,,,10,,,,,,,,,,,7/8 Mostly Cloudy,20000.0,,SCT,5000.0,BKN,20000.0,,,,
KRDR,08-20-2009,02:00,METAR,,240,4.0,,,9999.0,,16.0,16.0,29.58,1002.9,,,,,,,,,,,TRACE,,,,7/8 Mostly Cloudy,20000.0,,FEW,2000.0,SCT,5000.0,BKN,20000.0,,
KRDR,08-20-2009,01:00,METAR,,,5.0,,,9999.0,,17.0,16.0,29.57,1002.8,,,,,,,,,,,.06 IN,,,,7/8 Mostly Cloudy,20000.0,,FEW,2000.0,SCT,5000.0,BKN,20000.0,,
KRDR,08-20-2009,00:08,SPECI,,260,4.0,,,9999.0,Rain,17.0,15.0,29.59,1003.2,,,,61,,,,,,,,,,,7/8 Mostly Cloudy,20000.0,,FEW,1000.0,SCT,4600.0,SCT,5400.0,BKN,20000.0
KRDR,08-20-2009,00:00,METAR,,180,6.0,,,9999.0,Drizzle,17.0,15.0,29.57,1002.7,,,,51,,,,,,,,,.21 IN,,7/8 Mostly Cloudy,20000.0,,SCT,5900.0,BKN,20000.0,,,,
KRDR,08-19-2009,23:00,METAR,,160,6.0,,,9999.0,,18.0,15.0,29.57,1002.6,,,,,,,,,,,TRACE,,,,7/8 Mostly Cloudy,20000.0,,FEW,2000.0,SCT,5900.0,BKN,20000.0,,
KRDR,08-19-2009,22:00,METAR,,140,5.0,,,9999.0,Rain,17.0,15.0,29.57,1002.8,,,,61,,,,,,,.07 IN,,,,7/8 Mostly Cloudy,20000.0,,FEW,2000.0,SCT,5900.0,BKN,20000.0,,
KRDR,08-19-2009,22:00,SPECI,,160,4.0,,,9999.0,,17.0,15.0,29.57,1002.8,,,,,,,,,,,,,,,7/8 Mostly Cloudy,20000.0,,FEW,2000.0,SCT,5900.0,BKN,20000.0,,
KRDR,08-19-2009,21:22,SPECI,,,0.0,,,4000.0,Rain/Mist,17.0,15.0,29.57,1002.8,,,,61,10,,,,,,,,,,7/8 Mostly Cloudy,6000.0,,SCT,2000.0,BKN,5900.0,,,,
KRDR,08-19-2009,21:00,METAR,,250,6.0,,,2800.0,Heavy Thunderstorm with Rain or Snow/Heavy Rain Showers/Mist,16.0,15.0,29.57,1002.8,,,,97,82,10,,,,,.14 IN,.14 IN,,,7/8 Mostly Cloudy,1500.0,,BKN,1500.0,BKN,5400.0,,,,
KRDR,08-19-2009,20:53,SPECI,,240,5.0,,,3200.0,Heavy Thunderstorm with Rain or Snow/Heavy Rain Showers/Mist,16.0,15.0,29.57,1002.8,,,,97,82,10,,,,,,,,,7/8 Mostly Cloudy,5500.0,,SCT,1500.0,BKN,5400.0,,,,
KRDR,08-19-2009,20:47,SPECI,,250,11.0,,,2000.0,Thunderstorm with Rain or Snow/Light Rain Showers/Mist,16.0,14.0,29.57,1002.8,,,,95,80,10,,,,,,,,,7/8 Mostly Cloudy,4000.0,,SCT,1600.0,BKN,4100.0,BKN,5400.0,,
KRDR,08-19-2009,20:42,SPECI,,270,10.0,,,2800.0,Thunderstorm with Rain or Snow/Light Rain Showers/Mist,17.0,14.0,29.57,1002.8,,,,95,80,10,,,,,,,,,7/8 Mostly Cloudy,4900.0,,FEW,1400.0,SCT,4000.0,BKN,5000.0,,
KRDR,08-19-2009,20:39,SPECI,,280,11.0,,,4000.0,Thunderstorm with Rain or Snow/Light Rain Showers,17.0,14.0,29.57,1002.6,,,,95,80,,,,,,,,,,7/8 Mostly Cloudy,4900.0,,FEW,1200.0,SCT,4100.0,BKN,5000.0,,
KRDR,08-19-2009,20:22,SPECI,,280,13.0,18.0,,9999.0,Thunderstorm with Rain or Snow/Light Rain Showers,20.0,14.0,29.58,1002.9,,,,95,80,,,,,,,,,,7/8 Mostly Cloudy,4700.0,,FEW,3100.0,BKN,4800.0,,,,
KRDR,08-19-2009,19:00,METAR,,190,9.0,,,9999.0,,23.0,17.0,29.59,1003.2,,,,,,,,,,,,,,,4/8 Partly Cloudy,72000.0,,FEW,2200.0,SCT,3600.0,SCT,4400.0,,
KRDR,08-19-2009,18:00,METAR,,200,11.0,,,9999.0,,22.0,17.0,29.60,1003.8,,,,,,,,,,,,,.11 IN,,7/8 Mostly Cloudy,9000.0,,FEW,1800.0,SCT,2300.0,BKN,8900.0,,
KRDR,08-19-2009,17:00,METAR,,190,11.0,,,9999.0,,19.0,16.0,29.60,1004.1,,,,,,,,,,,,,,,7/8 Mostly Cloudy,8000.0,,FEW,2400.0,BKN,7900.0,BKN,20000.0,,
KRDR,08-19-2009,16:00,METAR,,180,4.0,,,9999.0,,17.0,16.0,29.60,1004.1,,,,,,,,,,,TRACE,,,,7/8 Mostly Cloudy,10000.0,,FEW,2500.0,SCT,6900.0,BKN,9900.0,BKN,20000.0
KRDR,08-19-2009,15:14,SPECI,,140,5.0,,,9999.0,,17.0,16.0,29.62,1004.2,,,,,,,,,,,,,,,7/8 Mostly Cloudy,9000.0,,FEW,1500.0,FEW,3000.0,BKN,8900.0,BKN,20000.0
KRDR,08-19-2009,15:00,METAR,,140,6.0,,,9999.0,Drizzle,16.0,16.0,29.63,1004.5,,,,51,,,,,,,.01 IN,.11 IN,,,7/8 Mostly Cloudy,7000.0,,FEW,1200.0,BKN,6900.0,BKN,8900.0,BKN,20000.0
KRDR,08-19-2009,14:34,SPECI,,170,7.0,,,9999.0,Rain,16.0,16.0,29.64,1004.9,,,,61,,,,,,,,,,,7/8 Mostly Cloudy,7000.0,,FEW,1200.0,BKN,6900.0,BKN,9900.0,,
KRDR,08-19-2009,14:05,SPECI,,150,7.0,,,9999.0,,16.0,16.0,29.65,1005.1,,,,,,,,,,,,,,,8/8 Overcast,7000.0,,FEW,1500.0,BKN,6900.0,BKN,8900.0,OVC,20000.0
KRDR,08-19-2009,14:00,METAR,,150,7.0,,,9999.0,Rain,16.0,15.0,29.65,1005.1,,,,61,,,,,,,.06 IN,,,,8/8 Overcast,7500.0,,BKN,7400.0,BKN,15000.0,OVC,20000.0,,
KRDR,08-19-2009,13:00,METAR,,250,6.0,,,9999.0,Rain,16.0,15.0,29.66,1005.7,,,,61,,,,,,,.04 IN,,,,8/8 Overcast,9500.0,,OVC,9400.0,,,,,,
KRDR,08-19-2009,12:18,SPECI,,220,7.0,,,9999.0,Rain,17.0,15.0,29.67,1006.0,,,,61,,,,,,,,,,,8/8 Overcast,9500.0,,OVC,9400.0,,,,,,
KRDR,08-19-2009,12:00,METAR,,180,6.0,,,9999.0,,16.0,14.0,29.68,1006.4,,,,,,,,,,,TRACE,,TRACE,,7/8 Mostly Cloudy,9000.0,,FEW,4500.0,BKN,8900.0,BKN,12000.0,,
KRDR,08-19-2009,11:47,SPECI,,180,7.0,,,9999.0,,16.0,14.0,29.68,1006.4,,,,,,,,,,,,,,,7/8 Mostly Cloudy,9000.0,,FEW,4500.0,BKN,8900.0,BKN,12000.0,,
KRDR,08-19-2009,11:31,SPECI,,180,8.0,,,9999.0,Drizzle,16.0,14.0,29.68,1006.3,,,,51,,,,,,,,,,,7/8 Mostly Cloudy,9000.0,,FEW,4500.0,BKN,8900.0,BKN,12000.0,,
KRDR,08-19-2009,11:13,SPECI,,200,5.0,,,9999.0,,16.0,14.0,29.68,1006.4,,,,,,,,,,,,,,,7/8 Mostly Cloudy,9000.0,,FEW,4500.0,BKN,8900.0,BKN,12000.0,,
KRDR,08-19-2009,11:04,SPECI,,190,7.0,,,9999.0,Drizzle,16.0,14.0,29.68,1006.2,,,,51,,,,,,,,,,,7/8 Mostly Cloudy,9000.0,,FEW,4500.0,BKN,8900.0,BKN,12000.0,,
KRDR,08-19-2009,11:00,METAR,,210,10.0,,,9999.0,,16.0,14.0,29.68,1006.3,,,,,,,,,,,TRACE,,,,7/8 Mostly Cloudy,10000.0,,FEW,3000.0,BKN,9900.0,,,,
KRDR,08-19-2009,10:34,SPECI,,210,7.0,,,9999.0,,16.0,13.0,29.68,1006.3,,,,,,,,,,,,,,,7/8 Mostly Cloudy,9500.0,,FEW,2500.0,BKN,9400.0,,,,
KRDR,08-19-2009,10:22,SPECI,,210,7.0,,,9999.0,Rain,16.0,13.0,29.67,1006.0,,,,61,,,,,,,,,,,8/8 Overcast,10000.0,,FEW,2200.0,OVC,9900.0,,,,
KRDR,08-19-2009,10:00,METAR,,180,8.0,,,9999.0,,16.0,13.0,29.65,1005.4,,,,,,,,,,,,,,,7/8 Mostly Cloudy,10000.0,,BKN,9900.0,,,,,,
KRDR,08-19-2009,09:00,METAR,,180,7.0,,,9999.0,,15.0,12.0,29.66,1005.7,,,,,,,,,,,,,,,4/8 Partly Cloudy,72000.0,,SCT,11000.0,,,,,,
KRDR,08-19-2009,08:00,METAR,,190,6.0,,,9999.0,,15.0,12.0,29.68,1006.2,,,,,,,,,,,,,,,Clear,72000.0,,,73000.0,,,,,,
KRDR,08-19-2009,07:00,METAR,,180,9.0,,,9999.0,,15.0,12.0,29.68,1006.3,,,,,,,,,,,,,,,Clear,72000.0,,,73000.0,,,,,,
KRDR,08-19-2009,06:00,METAR,,180,7.0,,,9999.0,,15.0,12.0,29.70,1006.9,,,,,,,,,,,,,,,Clear,72000.0,,,73000.0,,,,,,
KRDR,08-19-2009,05:00,METAR,,170,7.0,,,9999.0,,16.0,11.0,29.71,1007.4,,,,,,,,,,,,,,,Clear,72000.0,,,73000.0,,,,,,
KRDR,08-19-2009,04:00,METAR,,170,7.0,,,9999.0,,16.0,11.0,29.73,1008.0,,,,,,,,,,,,,,,Clear,72000.0,,,73000.0,,,,,,
KRDR,08-19-2009,03:00,METAR,,170,8.0,,,9999.0,,17.0,12.0,29.75,1008.7,,,,,,,,,,,,,,,2/8 Mostly Clear,72000.0,,FEW,5000.0,FEW,20000.0,,,,
KRDR,08-19-2009,02:00,METAR,,160,6.0,,,9999.0,,18.0,12.0,29.76,1008.8,,,,,,,,,,,,,,,2/8 Mostly Clear,72000.0,,FEW,5000.0,FEW,20000.0,,,,
KRDR,08-19-2009,01:00,METAR,,160,5.0,,,9999.0,,22.0,13.0,29.77,1009.2,,,,,,,,,,,,,,,2/8 Mostly Clear,72000.0,,FEW,5000.0,FEW,20000.0,,,,
KRDR,08-19-2009,00:00,METAR,,180,4.0,,,9999.0,,22.0,13.0,29.78,1009.7,,,,,,,,,,,,,,,4/8 Partly Cloudy,72000.0,,FEW,5000.0,FEW,9900.0,SCT,20000.0,,
KRDR,08-18-2009,23:00,METAR,,250,6.0,,,9999.0,,25.0,10.0,29.80,1010.2,,,,,,,,,,,,,,,2/8 Mostly Clear,72000.0,,FEW,5000.0,FEW,20000.0,,,,
KRDR,08-18-2009,22:00,METAR,,270,7.0,,,9999.0,,25.0,10.0,29.81,1010.7,,,,,,,,,,,,,,,2/8 Mostly Clear,72000.0,,FEW,5000.0,FEW,20000.0,,,,
KRDR,08-18-2009,21:00,METAR,,280,10.0,,,9999.0,,25.0,10.0,29.83,1011.3,,,,,,,,,,,,,,,4/8 Partly Cloudy,72000.0,,FEW,5000.0,FEW,9900.0,SCT,20000.0,,
KRDR,08-18-2009,20:00,METAR,,290,9.0,,,9999.0,,24.0,11.0,29.85,1011.9,,,,,,,,,,,,,,,4/8 Partly Cloudy,72000.0,,FEW,5000.0,FEW,9900.0,SCT,20000.0,,
KRDR,08-18-2009,19:00,METAR,,270,10.0,16.0,,9999.0,,24.0,10.0,29.87,1012.5,,,,,,,,,,,,,,,2/8 Mostly Clear,72000.0,,FEW,5000.0,FEW,20000.0,,,,
KRDR,08-18-2009,18:00,METAR,,270,10.0,,,9999.0,,22.0,10.0,29.88,1013.0,,,,,,,,,,,,,,,2/8 Mostly Clear,72000.0,,FEW,5000.0,FEW,20000.0,,,,
KRDR,08-18-2009,17:00,METAR,,280,6.0,,,9999.0,,21.0,10.0,29.89,1013.3,,,,,,,,,,,,,,,2/8 Mostly Clear,72000.0,,FEW,20000.0,,,,,,
KRDR,08-18-2009,16:00,METAR,,280,6.0,,,9999.0,,19.0,11.0,29.91,1013.7,,,,,,,,,,,,,,,2/8 Mostly Clear,72000.0,,FEW,20000.0,,,,,,
KRDR,08-18-2009,15:00,METAR,,,3.0,,,9999.0,,17.0,11.0,29.92,1014.2,,,,,,,,,,,,,,,Clear,72000.0,,,73000.0,,,,,,
KRDR,08-18-2009,14:00,METAR,,250,3.0,,,9999.0,,14.0,11.0,29.94,1014.7,,,,,,,,,,,,,,,Clear,72000.0,,,73000.0,,,,,,
KRDR,08-18-2009,13:00,METAR,,,3.0,,,9999.0,,11.0,10.0,29.93,1014.6,,,,,,,,,,,,,,,Clear,72000.0,,,73000.0,,,,,,
KRDR,08-18-2009,12:00,METAR,,,0.0,,,9999.0,,7.0,6.0,29.92,1014.2,,,,,,,,,,,,,,,Clear,72000.0,,,73000.0,,,,,,
KRDR,08-18-2009,11:00,METAR,,,0.0,,,9999.0,,8.0,7.0,29.90,1013.7,,,,,,,,,,,,,,,2/8 Mostly Clear,72000.0,,FEW,7900.0,,,,,,
KRDR,08-18-2009,10:00,METAR,,290,5.0,,,9999.0,,9.0,8.0,29.89,1013.3,,,,,,,,,,,,,,,Clear,72000.0,,,73000.0,,,,,,
KRDR,08-18-2009,09:00,METAR,,260,5.0,,,9999.0,,8.0,7.0,29.89,1013.3,,,,,,,,,,,,,,,Clear,72000.0,,,73000.0,,,,,,
KRDR,08-18-2009,08:00,METAR,,280,4.0,,,9999.0,,9.0,8.0,29.90,1013.6,,,,,,,,,,,,,,,Clear,72000.0,,,73000.0,,,,,,
KRDR,08-18-2009,07:00,METAR,,290,5.0,,,9999.0,,10.0,9.0,29.91,1013.8,,,,,,,,,,,,,,,Clear,72000.0,,,73000.0,,,,,,
KRDR,08-18-2009,06:00,METAR,,300,6.0,,,9999.0,,12.0,9.0,29.90,1013.7,,,,,,,,,,,,,TRACE,,Clear,72000.0,,,73000.0,,,,,,
KRDR,08-18-2009,05:00,METAR,,310,7.0,,,9999.0,,14.0,10.0,29.90,1013.6,,,,,,,,,,,,,,,8/8 Overcast,7000.0,,OVC,6900.0,,,,,,
KRDR,08-18-2009,04:00,METAR,,300,9.0,,,9999.0,,14.0,10.0,29.89,1013.3,,,,,,,,,,,,,,,7/8 Mostly Cloudy,6000.0,,BKN,5900.0,,,,,,
KRDR,08-18-2009,03:00,METAR,,290,10.0,,,9999.0,,14.0,10.0,29.89,1013.1,,,,,,,,,,,,TRACE,,,7/8 Mostly Cloudy,7000.0,,BKN,6900.0,,,,,,
KRDR,08-18-2009,02:00,METAR,,300,9.0,,,9999.0,,15.0,10.0,29.86,1012.3,,,,,,,,,,,,,,,8/8 Overcast,6000.0,,FEW,3000.0,BKN,5900.0,OVC,6900.0,,
KRDR,08-18-2009,01:00,METAR,,290,11.0,,,9999.0,,15.0,11.0,29.84,1011.7,,,,,,,,,,,TRACE,,,,7/8 Mostly Cloudy,5500.0,,FEW,2300.0,BKN,5400.0,BKN,6400.0,,
KRDR,08-18-2009,00:48,SPECI,,280,12.0,,,9999.0,,15.0,11.0,29.84,1011.7,,,,,,,,,,,,,,,7/8 Mostly Cloudy,6000.0,,FEW,2300.0,SCT,5000.0,BKN,5900.0,,
KRDR,08-18-2009,00:39,SPECI,,270,11.0,17.0,,9999.0,,16.0,11.0,29.84,1011.6,,,,,,,,,,,,,,,7/8 Mostly Cloudy,4900.0,,FEW,2700.0,SCT,3700.0,BKN,5000.0,,
KRDR,08-18-2009,00:00,METAR,,260,11.0,,,9999.0,,16.0,11.0,29.84,1011.6,,,,,,,,,,,,,TRACE,,7/8 Mostly Cloudy,7000.0,,FEW,4000.0,BKN,6900.0,,,,
KRDR,08-17-2009,23:00,METAR,,260,13.0,18.0,,9999.0,,17.0,11.0,29.83,1011.4,,,,,,,,,,,,,,,8/8 Overcast,3900.0,,FEW,2400.0,BKN,4000.0,OVC,5000.0,,
KRDR,08-17-2009,22:00,METAR,,260,12.0,18.0,,9999.0,,15.0,11.0,29.83,1011.2,,,,,,,,,,,TRACE,,,,8/8 Overcast,3900.0,,FEW,2400.0,BKN,4000.0,OVC,5000.0,,
KRDR,08-17-2009,21:42,SPECI,,260,11.0,,,9999.0,,15.0,11.0,29.83,1011.2,,,,,,,,,,,,,,,8/8 Overcast,3900.0,,FEW,2300.0,BKN,4000.0,OVC,5000.0,,
KRDR,08-17-2009,21:31,SPECI,,250,10.0,18.0,,9999.0,Fog or Ice Fog,16.0,11.0,29.83,1011.3,,,,40,,,,,,,,,,,4/8 Partly Cloudy,72000.0,,FEW,2400.0,SCT,6400.0,,,,
KRDR,08-17-2009,21:00,METAR,,250,13.0,19.0,,9999.0,,16.0,10.0,29.83,1011.2,,,,,,,,,,,TRACE,TRACE,,,8/8 Overcast,3900.0,,BKN,4000.0,OVC,5000.0,,,,
KRDR,08-17-2009,20:00,METAR,,250,12.0,18.0,,9999.0,,18.0,11.0,29.82,1011.0,,,,,,,,,,,TRACE,,,,8/8 Overcast,3900.0,,BKN,4000.0,OVC,5000.0,,,,
KRDR,08-17-2009,19:18,SPECI,,250,13.0,,,9999.0,,16.0,11.0,29.83,1011.3,,,,,,,,,,,,,,,8/8 Overcast,3900.0,,BKN,4000.0,OVC,5000.0,,,,
KRDR,08-17-2009,19:00,METAR,,260,14.0,20.0,,9999.0,Rain,16.0,10.0,29.83,1011.4,,,,61,,,,,,,TRACE,,,,8/8 Overcast,4200.0,,BKN,4300.0,OVC,5000.0,,,,
KRDR,08-17-2009,18:49,SPECI,,270,14.0,21.0,,9999.0,Rain,16.0,10.0,29.83,,,,,61,,,,,,,,,,,8/8 Overcast,4200.0,,BKN,4300.0,OVC,5000.0,,,,
KRDR,08-17-2009,18:00,METAR,,240,13.0,19.0,,9999.0,,18.0,9.0,29.81,1010.7,,,,,,,,,,,,,,,8/8 Overcast,3600.0,,BKN,3700.0,OVC,5400.0,,,,
KRDR,08-17-2009,17:00,METAR,,250,15.0,20.0,,9999.0,,17.0,9.0,29.81,1010.7,,,,,,,,,,,,,,,7/8 Mostly Cloudy,4500.0,,BKN,4600.0,BKN,15000.0,,,,
KRDR,08-17-2009,16:00,METAR,,250,13.0,19.0,,9999.0,,17.0,9.0,29.83,1011.0,,,,,,,,,,,,,,,7/8 Mostly Cloudy,15000.0,,SCT,3200.0,BKN,15000.0,BKN,25000.0,,
KRDR,08-17-2009,15:00,METAR,,230,14.0,20.0,,9999.0,,16.0,10.0,29.81,1009.7,,,,,,,,,,,,,,,7/8 Mostly Cloudy,17000.0,,FEW,3000.0,SCT,15000.0,BKN,17000.0,,
KRDR,08-17-2009,14:00,METAR,,240,13.0,19.0,,9999.0,,15.0,10.0,29.82,1010.0,,,,,,,,,,,,,,,4/8 Partly Cloudy,72000.0,,FEW,3000.0,FEW,11000.0,SCT,20000.0,,
KRDR,08-17-2009,13:00,METAR,,220,9.0,,,9999.0,,13.0,11.0,29.83,1011.2,,,,,,,,,,,,,,,2/8 Mostly Clear,72000.0,,FEW,3000.0,FEW,11000.0,,,,
KRDR,08-17-2009,12:00,METAR,,200,7.0,,,9999.0,,11.0,10.0,29.82,1011.0,,,,,,,,,,,,,,.13 IN,2/8 Mostly Clear,72000.0,,FEW,12000.0,,,,,,
KRDR,08-17-2009,11:00,METAR,,220,8.0,,,9999.0,,12.0,10.0,29.81,1010.7,,,,,,,,,,,,,,,2/8 Mostly Clear,72000.0,,FEW,12000.0,,,,,,
KRDR,08-17-2009,10:00,METAR,,210,8.0,,,9999.0,,12.0,10.0,29.81,1010.7,,,,,,,,,,,,,,,Clear,72000.0,,,73000.0,,,,,,
KRDR,08-17-2009,09:00,METAR,,220,7.0,,,9999.0,,13.0,10.0,29.81,1010.4,,,,,,,,,,,,,,,Clear,72000.0,,,73000.0,,,,,,
KRDR,08-17-2009,08:00,METAR,,220,8.0,,,9999.0,,13.0,10.0,29.81,1010.7,,,,,,,,,,,,,,,Clear,72000.0,,,73000.0,,,,,,
KRDR,08-17-2009,07:00,METAR,,230,7.0,,,9999.0,,14.0,10.0,29.80,1010.2,,,,,,,,,,,,,,,Clear,72000.0,,,73000.0,,,,,,
KRDR,08-17-2009,06:00,METAR,,240,9.0,,,9999.0,,14.0,10.0,29.80,1010.2,,,,,,,,,,,,,,,2/8 Mostly Clear,72000.0,,FEW,6900.0,,,,,,
KRDR,08-17-2009,05:00,METAR,,230,8.0,,,9999.0,,14.0,11.0,29.80,1010.2,,,,,,,,,,,,,,,Clear,72000.0,,,73000.0,,,,,,
KRDR,08-17-2009,04:00,METAR,,210,6.0,,,9999.0,,15.0,11.0,29.79,1009.8,,,,,,,,,,,,,,,2/8 Mostly Clear,72000.0,,FEW,6900.0,,,,,,
KRDR,08-17-2009,03:00,METAR,,210,5.0,,,9999.0,,16.0,11.0,29.79,1009.8,,,,,,,,,,,,,,,4/8 Partly Cloudy,72000.0,,SCT,7400.0,,,,,,
KRDR,08-17-2009,02:00,METAR,,200,6.0,,,9999.0,,17.0,12.0,29.78,1009.6,,,,,,,,,,,,,,,2/8 Mostly Clear,72000.0,,FEW,7400.0,FEW,20000.0,,,,
KRDR,08-17-2009,01:00,METAR,,260,6.0,,,9999.0,,19.0,12.0,29.77,1009.3,,,,,,,,,,,,,,,Clear,72000.0,,,73000.0,,,,,,
KRDR,08-17-2009,00:00,METAR,,270,10.0,,,9999.0,,21.0,11.0,29.76,1008.9,,,,,,,,,,,,,,,Clear,72000.0,,,73000.0,,,,,,
KRDR,08-16-2009,23:00,METAR,,280,13.0,,,9999.0,,22.0,11.0,29.75,1008.6,,,,,,,,,,,,,,,2/8 Mostly Clear,72000.0,,FEW,5400.0,,,,,,
KRDR,08-16-2009,22:00,METAR,,280,11.0,18.0,,9999.0,,24.0,12.0,29.73,1007.9,,,,,,,,,,,,,,,4/8 Partly Cloudy,72000.0,,SCT,6400.0,,,,,,
KRDR,08-16-2009,21:00,METAR,,270,10.0,,,9999.0,,24.0,13.0,29.73,1007.9,,,,,,,,,,,,,,,4/8 Partly Cloudy,72000.0,,SCT,5000.0,,,,,,
KRDR,08-16-2009,20:00,METAR,,290,9.0,,,9999.0,,24.0,13.0,29.72,1007.7,,,,,,,,,,,,,,,2/8 Mostly Clear,72000.0,,FEW,4500.0,,,,,,
KRDR,08-16-2009,19:00,METAR,,290,13.0,,,9999.0,,23.0,14.0,29.71,1007.4,,,,,,,,,,,,,,,4/8 Partly Cloudy,72000.0,,SCT,3200.0,,,,,,
KRDR,08-16-2009,18:00,METAR,,310,10.0,,,9999.0,,19.0,16.0,29.71,1007.1,,,,,,,,,,,TRACE,,.13 IN,,Clear,72000.0,,,73000.0,,,,,,
KRDR,08-16-2009,17:23,SPECI,,330,7.0,,,9999.0,,18.0,16.0,29.70,1007.0,,,,,,,,,,,,,,,Clear,72000.0,,,73000.0,,,,,,
KRDR,08-16-2009,17:12,SPECI,,310,6.0,,,9999.0,,17.0,16.0,29.71,1007.3,,,,,,,,,,,,,,,Clear,72000.0,,,73000.0,,,,,,
KRDR,08-16-2009,17:07,SPECI,,320,6.0,,,9999.0,,17.0,16.0,29.71,1007.4,,,,,,,,,,,,,,,Clear,72000.0,,,73000.0,,,,,,
KRDR,08-16-2009,17:00,METAR,,310,6.0,,,9999.0,,17.0,16.0,29.72,1007.6,,,,,,,,,,,.03 IN,,,,Clear,72000.0,,,73000.0,,,,,,
KRDR,08-16-2009,16:00,METAR,,300,11.0,,,9999.0,,16.0,15.0,29.71,1007.3,,,,,,,,,,,.03 IN,,,,Clear,72000.0,,,73000.0,,,,,,
KRDR,08-16-2009,15:20,SPECI,,310,14.0,18.0,,9999.0,Light Rain,16.0,15.0,29.70,1007.0,61,,,,,,,,,,,,,,7/8 Mostly Cloudy,3400.0,,FEW,1000.0,SCT,1600.0,BKN,3500.0,,
KRDR,08-16-2009,15:18,SPECI,,310,12.0,18.0,,9999.0,Light Rain,16.0,16.0,29.70,1007.0,61,,,,,,,,,,,,,,7/8 Mostly Cloudy,1600.0,,FEW,1000.0,BKN,1600.0,BKN,3400.0,,
KRDR,08-16-2009,15:02,SPECI,,310,12.0,,,9999.0,Light Rain,17.0,16.0,29.70,1007.0,61,,,,,,,,,,,,,,7/8 Mostly Cloudy,1600.0,,BKN,1600.0,,,,,,
KRDR,08-16-2009,15:00,METAR,,300,7.0,,,9999.0,Light Rain,17.0,17.0,29.70,1007.0,61,,,,,,,,,,.04 IN,.07 IN,,,2/8 Mostly Clear,72000.0,,FEW,1200.0,,,,,,
KRDR,08-16-2009,14:28,SPECI,,320,10.0,,,9999.0,Light Rain,17.0,16.0,29.68,1006.4,61,,,,,,,,,,,,,,4/8 Partly Cloudy,72000.0,,FEW,1500.0,SCT,2900.0,,,,
KRDR,08-16-2009,14:15,SPECI,,320,10.0,,,9999.0,Light Rain,17.0,16.0,29.68,1006.3,61,,,,,,,,,,,,,,7/8 Mostly Cloudy,1500.0,,FEW,1000.0,BKN,1500.0,BKN,2400.0,,
KRDR,08-16-2009,14:11,SPECI,,320,10.0,,,9999.0,Light Rain,17.0,16.0,29.68,1006.3,61,,,,,,,,,,,,,,7/8 Mostly Cloudy,1500.0,,BKN,1500.0,BKN,2400.0,,,,
KRDR,08-16-2009,14:00,METAR,,320,8.0,,,9999.0,Rain,17.0,16.0,29.68,1006.3,62,,,,,,,,,,.02 IN,,,,4/8 Partly Cloudy,72000.0,,SCT,1200.0,SCT,2200.0,,,,
KRDR,08-16-2009,13:53,SPECI,,320,8.0,,,9999.0,Rain,17.0,16.0,29.68,1006.3,62,,,,,,,,,,,,,,7/8 Mostly Cloudy,2200.0,,SCT,1200.0,BKN,2200.0,,,,
KRDR,08-16-2009,13:42,SPECI,,320,8.0,,,9999.0,Light Rain,17.0,17.0,29.68,1006.3,61,,,,,,,,,,,,,,2/8 Mostly Clear,72000.0,,FEW,1100.0,,,,,,
KRDR,08-16-2009,13:00,METAR,,320,7.0,,,9999.0,,17.0,17.0,29.68,1006.1,,,,,,,,,,,.01 IN,,,,2/8 Mostly Clear,72000.0,,FEW,3500.0,,,,,,
KRDR,08-16-2009,12:00,METAR,,310,7.0,,,9999.0,Light Drizzle,18.0,16.0,29.67,1006.1,51,,,,,,,,,,,,,,7/8 Mostly Cloudy,3800.0,,BKN,3900.0,,,,,,
KRDR,08-16-2009,11:46,SPECI,,300,9.0,,,9999.0,,18.0,16.0,29.68,1006.1,,,,,,,,,,,,,,,4/8 Partly Cloudy,72000.0,,SCT,5900.0,,,,,,
KRDR,08-16-2009,11:36,SPECI,,300,9.0,,,9999.0,,18.0,16.0,29.67,1006.0,,,,,,,,,,,,,,,2/8 Mostly Clear,72000.0,,FEW,6400.0,,,,,,
KRDR,08-16-2009,11:00,METAR,,310,5.0,,,9999.0,,18.0,16.0,29.66,1005.6,,,,,,,,,,,,,,,Clear,72000.0,,,73000.0,,,,,,
KRDR,08-16-2009,10:00,METAR,,290,4.0,,,9999.0,,18.0,17.0,29.66,1005.8,,,,,,,,,,,,,,,Clear,72000.0,,,73000.0,,,,,,
KRDR,08-16-2009,09:00,METAR,,,0.0,,,9999.0,,18.0,17.0,29.66,1005.6,,,,,,,,,,,,,,,Clear,72000.0,,,73000.0,,,,,,
KRDR,08-16-2009,08:00,METAR,,290,5.0,,,9999.0,,19.0,18.0,29.67,1006.0,,,,,,,,,,,,,,,7/8 Mostly Cloudy,4300.0,,BKN,4400.0,,,,,,
KRDR,08-16-2009,07:00,METAR,,320,4.0,,,9999.0,,19.0,18.0,29.69,1006.6,,,,,,,,,,,,,,,Clear,72000.0,,,73000.0,,,,,,
KRDR,08-16-2009,06:00,METAR,,300,5.0,,,9999.0,,20.0,19.0,29.70,1007.0,,,,,,,,,,,,,,,7/8 Mostly Cloudy,2900.0,,BKN,2900.0,,,,,,
KRDR,08-16-2009,05:20,SPECI,,320,5.0,,,9999.0,,19.0,19.0,29.70,1006.8,,,,,,,,,,,,,,,7/8 Mostly Cloudy,2900.0,,BKN,2900.0,,,,,,
KRDR,08-16-2009,05:00,METAR,,310,5.0,,,9999.0,,20.0,20.0,29.70,1007.0,,,,,,,,,,,,,,,8/8 Overcast,3300.0,,OVC,3400.0,,,,,,
KRDR,08-16-2009,04:00,METAR,,,0.0,,,9999.0,,20.0,20.0,29.71,1007.1,,,,,,,,,,,,,,,2/8 Mostly Clear,72000.0,,FEW,3300.0,,,,,,
KRDR,08-16-2009,03:21,SPECI,,,0.0,,,4000.0,Mist,21.0,21.0,29.70,1007.1,10,,,,,,,,,,,,,,7/8 Mostly Cloudy,3600.0,,BKN,3700.0,,,,,,
KRDR,08-16-2009,03:18,SPECI,,,0.0,,,2000.0,Mist,21.0,21.0,29.70,1007.0,10,,,,,,,,,,,,,,7/8 Mostly Cloudy,3700.0,,BKN,3800.0,,,,,,
KRDR,08-16-2009,03:13,SPECI,,,0.0,,,1600.0,Mist,20.0,20.0,29.70,1007.0,10,,,,,,,,,,,,,,7/8 Mostly Cloudy,3700.0,,BKN,3800.0,,,,,,
KRDR,08-16-2009,03:11,SPECI,,,0.0,,,2400.0,Mist,21.0,20.0,29.70,1007.0,10,,,,,,,,,,,,,,7/8 Mostly Cloudy,3900.0,,BKN,4000.0,,,,,,
KRDR,08-16-2009,03:00,METAR,,,0.0,,,9999.0,,21.0,20.0,29.70,1007.0,,,,,,,,,,,,,,,4/8 Partly Cloudy,72000.0,,SCT,4000.0,,,,,,
KRDR,08-16-2009,02:00,METAR,,,0.0,,,9999.0,,23.0,21.0,29.68,1006.3,,,,,,,,,,,,,,,2/8 Mostly Clear,72000.0,,FEW,3500.0,,,,,,
KRDR,08-16-2009,01:00,METAR,,,0.0,,,9999.0,,24.0,21.0,29.66,1005.8,,,,,,,,,,,,,,,7/8 Mostly Cloudy,3600.0,,SCT,2200.0,SCT,2700.0,BKN,3700.0,,
KRDR,08-16-2009,00:38,SPECI,,,0.0,,,9999.0,,24.0,21.0,29.67,1005.9,,,,,,,,,,,,,,,7/8 Mostly Cloudy,2700.0,,SCT,2200.0,BKN,2700.0,BKN,4000.0,,
KRDR,08-16-2009,00:00,METAR,,230,4.0,,,9999.0,,25.0,21.0,29.67,1005.8,,,,,,,,,,,,,.02 IN,,Clear,72000.0,,,73000.0,,,,,,
KRDR,08-15-2009,23:00,METAR,,220,4.0,,,9999.0,,25.0,20.0,29.66,1005.6,,,,,,,,,,,,,,,Clear,72000.0,,,73000.0,,,,,,
KRDR,08-15-2009,22:00,METAR,,200,8.0,,,9999.0,,24.0,20.0,29.66,1005.7,,,,,,,,,,,.02 IN,,,,Clear,72000.0,,,73000.0,,,,,,
KRDR,08-15-2009,21:23,SPECI,,180,7.0,,,9999.0,,21.0,20.0,29.67,1005.9,,,,,,,,,,,,,,,Clear,72000.0,,,73000.0,,,,,,
KRDR,08-15-2009,21:06,SPECI,,210,5.0,,,6400.0,Light Rain/Mist,21.0,19.0,29.66,1005.7,61,10,,,,,,,,,,,,,2/8 Mostly Clear,72000.0,,FEW,900.0,,,,,,
KRDR,08-15-2009,21:00,METAR,,250,11.0,15.0,,9999.0,Light Rain,24.0,20.0,29.66,1005.8,61,,,,,,,,,,TRACE,TRACE,,,4/8 Partly Cloudy,72000.0,,FEW,3200.0,SCT,4200.0,,,,
KRDR,08-15-2009,20:47,SPECI,,240,6.0,,,9999.0,Light Rain,24.0,20.0,29.66,1005.7,61,,,,,,,,,,,,,,4/8 Partly Cloudy,72000.0,,FEW,3200.0,SCT,5900.0,SCT,7400.0,,
KRDR,08-15-2009,20:00,METAR,,,5.0,,,9999.0,,24.0,20.0,29.67,1006.1,,,,,,,,,,,,,,,4/8 Partly Cloudy,72000.0,,SCT,5000.0,,,,,,
KRDR,08-15-2009,19:30,SPECI,,180,6.0,,,9999.0,,24.0,19.0,29.68,1006.3,,,,,,,,,,,,,,,7/8 Mostly Cloudy,3100.0,,BKN,3100.0,,,,,,
KRDR,08-15-2009,19:00,METAR,,210,6.0,,,9999.0,,24.0,20.0,29.68,1006.4,,,,,,,,,,,,,,,7/8 Mostly Cloudy,1300.0,,BKN,2600.0,,,,,,
KRDR,08-15-2009,18:48,SPECI,,,6.0,,,9999.0,,24.0,20.0,29.68,1006.4,,,,,,,,,,,,,,,7/8 Mostly Cloudy,1300.0,,BKN,2100.0,,,,,,
KRDR,08-15-2009,18:46,SPECI,,190,6.0,,,9999.0,,24.0,20.0,29.68,1006.4,,,,,,,,,,,,,,,4/8 Partly Cloudy,72000.0,,SCT,2100.0,,,,,,
KRDR,08-15-2009,18:22,SPECI,,,5.0,,,9999.0,,23.0,20.0,29.69,1006.6,,,,,,,,,,,,,,,8/8 Overcast,1600.0,,OVC,1600.0,,,,,,
KRDR,08-15-2009,18:10,SPECI,,170,3.0,,,9999.0,,23.0,20.0,29.69,1006.7,,,,,,,,,,,,,,,7/8 Mostly Cloudy,1300.0,,BKN,1300.0,,,,,,
KRDR,08-15-2009,18:00,METAR,,160,3.0,,,9999.0,,22.0,19.0,29.69,1006.6,,,,,,,,,,,,,.03 IN,,7/8 Mostly Cloudy,1100.0,,BKN,1100.0,,,,,,
KRDR,08-15-2009,17:33,SPECI,,,0.0,,,9999.0,,21.0,19.0,29.70,1006.9,,,,,,,,,,,,,,,8/8 Overcast,1000.0,,OVC,1000.0,,,,,,
KRDR,08-15-2009,17:22,SPECI,,,0.0,,,9999.0,,21.0,19.0,29.70,1007.0,,,,,,,,,,,,,,,8/8 Overcast,1300.0,,OVC,1300.0,,,,,,
KRDR,08-15-2009,17:20,SPECI,,,0.0,,,9999.0,,21.0,19.0,29.70,1007.1,,,,,,,,,,,,,,,8/8 Overcast,1500.0,,SCT,600.0,OVC,1500.0,,,,
KRDR,08-15-2009,17:13,SPECI,,,0.0,,,9999.0,,21.0,20.0,29.71,1007.3,,,,,,,,,,,,,,,8/8 Overcast,1000.0,,OVC,1000.0,,,,,,
KRDR,08-15-2009,17:04,SPECI,,,0.0,,,9999.0,,21.0,19.0,29.71,1007.3,,,,,,,,,,,,,,,8/8 Overcast,1200.0,,SCT,600.0,BKN,1200.0,OVC,4800.0,,
KRDR,08-15-2009,17:00,SPECI,,,0.0,,,9999.0,,21.0,19.0,29.71,1007.3,,,,,,,,,,,,,,,8/8 Overcast,1000.0,,SCT,500.0,BKN,1000.0,OVC,1400.0,,
KRDR,08-15-2009,17:00,METAR,,,0.0,,,9999.0,Light Drizzle,21.0,20.0,29.72,1007.5,51,,,,,,,,,,TRACE,,,,8/8 Overcast,1300.0,,SCT,500.0,BKN,1300.0,OVC,2100.0,,
KRDR,08-15-2009,16:58,SPECI,,,0.0,,,9999.0,,21.0,19.0,29.71,1007.4,,,,,,,,,,,,,,,8/8 Overcast,900.0,,SCT,500.0,BKN,900.0,OVC,1400.0,,
KRDR,08-15-2009,16:46,SPECI,,,0.0,,,9999.0,Light Rain/Mist,21.0,20.0,29.72,1007.6,61,10,,,,,,,,,,,,,8/8 Overcast,1300.0,,SCT,800.0,BKN,1300.0,OVC,4800.0,,
KRDR,08-15-2009,16:40,SPECI,,,0.0,,,9999.0,Unknown Precipitation,21.0,20.0,29.72,1007.6,40,,,,,,,,,,,,,,8/8 Overcast,1800.0,,FEW,800.0,OVC,1800.0,,,,
KRDR,08-15-2009,16:38,SPECI,,,0.0,,,9999.0,,21.0,20.0,29.72,1007.7,,,,,,,,,,,,,,,8/8 Overcast,1600.0,,FEW,800.0,OVC,1600.0,,,,
KRDR,08-15-2009,16:32,SPECI,,,0.0,,,9999.0,,21.0,19.0,29.73,1007.8,,,,,,,,,,,,,,,8/8 Overcast,1200.0,,OVC,1200.0,,,,,,
KRDR,08-15-2009,16:24,SPECI,,,0.0,,,9999.0,,21.0,20.0,29.73,1007.8,,,,,,,,,,,,,,,8/8 Overcast,1100.0,,OVC,1100.0,,,,,,
KRDR,08-15-2009,16:22,SPECI,,,0.0,,,9999.0,,21.0,20.0,29.73,1007.9,,,,,,,,,,,,,,,8/8 Overcast,1400.0,,SCT,600.0,SCT,1000.0,OVC,1400.0,,
KRDR,08-15-2009,16:19,SPECI,,,0.0,,,9999.0,Light Drizzle,21.0,19.0,29.73,1007.8,51,,,,,,,,,,,,,,8/8 Overcast,1300.0,,OVC,1300.0,,,,,,
KRDR,08-15-2009,16:14,SPECI,,,0.0,,,9999.0,Light Drizzle,21.0,20.0,29.72,1007.8,51,,,,,,,,,,,,,,8/8 Overcast,1100.0,,OVC,1100.0,,,,,,
KRDR,08-15-2009,16:05,SPECI,,,0.0,,,9999.0,Light Drizzle,21.0,20.0,29.73,1007.9,51,,,,,,,,,,,,,,7/8 Mostly Cloudy,1400.0,,BKN,1400.0,,,,,,
KRDR,08-15-2009,16:02,SPECI,,,0.0,,,9999.0,Light Drizzle,21.0,20.0,29.73,1007.9,51,,,,,,,,,,,,,,7/8 Mostly Cloudy,1600.0,,BKN,1600.0,,,,,,
KRDR,08-15-2009,16:00,SPECI,,,0.0,,,9999.0,,21.0,20.0,29.73,1007.9,,,,,,,,,,,,,,,7/8 Mostly Cloudy,1600.0,,BKN,1600.0,,,,,,
KRDR,08-15-2009,16:00,METAR,,250,3.0,,,9999.0,,21.0,20.0,29.73,1007.9,,,,,,,,,,,,,,,4/8 Partly Cloudy,72000.0,,SCT,1800.0,,,,,,
KRDR,08-15-2009,15:21,SPECI,,260,5.0,,,9999.0,Light Rain,20.0,20.0,29.73,1007.9,61,,,,,,,,,,,,,,2/8 Mostly Clear,72000.0,,FEW,1000.0,,,,,,
KRDR,08-15-2009,15:01,SPECI,,230,4.0,,,9999.0,,20.0,20.0,29.73,1008.0,,,,,,,,,,,,,,,4/8 Partly Cloudy,72000.0,,FEW,1000.0,SCT,6900.0,,,,
KRDR,08-15-2009,15:00,METAR,,230,6.0,,,9999.0,,20.0,20.0,29.74,1008.2,,,,,,,,,,,,,,,4/8 Partly Cloudy,72000.0,,FEW,1000.0,SCT,6900.0,,,,
KRDR,08-15-2009,14:45,SPECI,,210,8.0,,,9999.0,Light Rain,20.0,20.0,29.75,1008.5,61,,,,,,,,,,,,,,2/8 Mostly Clear,72000.0,,FEW,900.0,,,,,,
KRDR,08-15-2009,14:25,SPECI,,130,8.0,,,9999.0,,20.0,20.0,29.73,1008.0,,,,,,,,,,,,,,,4/8 Partly Cloudy,72000.0,,SCT,1200.0,,,,,,
KRDR,08-15-2009,14:22,SPECI,,130,8.0,,,9999.0,Light Drizzle,20.0,20.0,29.73,1008.0,51,,,,,,,,,,,,,,7/8 Mostly Cloudy,1400.0,,BKN,1400.0,,,,,,
KRDR,08-15-2009,14:18,SPECI,,110,8.0,,,9999.0,,20.0,20.0,29.73,1007.9,,,,,,,,,,,,,,,7/8 Mostly Cloudy,1300.0,,BKN,1300.0,,,,,,
KRDR,08-15-2009,14:13,SPECI,,130,6.0,,,9999.0,,20.0,20.0,29.73,1007.9,,,,,,,,,,,,,,,8/8 Overcast,1100.0,,OVC,1100.0,,,,,,
KRDR,08-15-2009,14:00,SPECI,,110,6.0,,,9999.0,,20.0,20.0,29.72,1007.7,,,,,,,,,,,,,,,8/8 Overcast,700.0,,OVC,700.0,,,,,,
KRDR,08-15-2009,14:00,METAR,,120,6.0,,,9999.0,,19.0,19.0,29.74,1008.1,,,,,,,,,,,,,,,8/8 Overcast,300.0,,OVC,300.0,,,,,,
KRDR,08-15-2009,13:39,SPECI,,130,7.0,,,9999.0,,19.0,19.0,29.74,1008.4,,,,,,,,,,,,,,,8/8 Overcast,300.0,,OVC,300.0,,,,,,
KRDR,08-15-2009,13:37,SPECI,,130,6.0,,,9999.0,,19.0,19.0,29.74,1008.4,,,,,,,,,,,,,,,8/8 Overcast,400.0,,OVC,400.0,,,,,,
KRDR,08-15-2009,13:19,SPECI,,120,9.0,,,9999.0,,19.0,19.0,29.73,1008.1,,,,,,,,,,,,,,,8/8 Overcast,500.0,,OVC,500.0,,,,,,
KRDR,08-15-2009,13:09,SPECI,,100,9.0,,,9999.0,,19.0,19.0,29.73,1007.9,,,,,,,,,,,,,,,8/8 Overcast,700.0,,OVC,700.0,,,,,,
KRDR,08-15-2009,13:03,SPECI,,100,8.0,,,9999.0,,19.0,19.0,29.73,1007.9,,,,,,,,,,,,,,,8/8 Overcast,400.0,,OVC,400.0,,,,,,
KRDR,08-15-2009,13:00,METAR,,80,7.0,,,9999.0,,18.0,18.0,29.73,1008.0,,,,,,,,,,,.02 IN,,,,8/8 Overcast,500.0,,OVC,500.0,,,,,,
KRDR,08-15-2009,12:27,SPECI,,80,6.0,,,9999.0,,18.0,18.0,29.75,1008.4,,,,,,,,,,,,,,,7/8 Mostly Cloudy,500.0,,BKN,500.0,,,,,,
KRDR,08-15-2009,12:22,SPECI,,80,6.0,,,9999.0,,18.0,18.0,29.74,1008.4,,,,,,,,,,,,,,,7/8 Mostly Cloudy,600.0,,BKN,600.0,,,,,,
KRDR,08-15-2009,12:16,SPECI,,90,4.0,,,9999.0,,18.0,18.0,29.75,1008.6,,,,,,,,,,,,,,,7/8 Mostly Cloudy,900.0,,FEW,300.0,BKN,900.0,,,,
KRDR,08-15-2009,12:05,SPECI,,,3.0,,,8000.0,Light Rain/Mist,18.0,18.0,29.76,1009.0,61,10,,,,,,,,,,,,,4/8 Partly Cloudy,72000.0,,SCT,1100.0,,,,,,
KRDR,08-15-2009,12:00,METAR,,40,5.0,,,9999.0,,18.0,18.0,29.75,1008.6,,,,,,,,,,,,,.13 IN,.51 IN,4/8 Partly Cloudy,72000.0,,FEW,500.0,SCT,9900.0,,,,
KRDR,08-15-2009,11:54,SPECI,,50,9.0,,,9999.0,Unknown Precipitation/Mist,18.0,18.0,29.74,1008.2,40,10,,,,,,,,,,,,,4/8 Partly Cloudy,72000.0,,FEW,500.0,SCT,9900.0,,,,
KRDR,08-15-2009,11:48,SPECI,,250,4.0,,,9999.0,,18.0,18.0,29.78,1009.5,,,,,,,,,,,,,,,4/8 Partly Cloudy,72000.0,,FEW,600.0,SCT,9900.0,,,,
KRDR,08-15-2009,11:16,SPECI,,30,9.0,,,9999.0,,18.0,18.0,29.74,1008.4,,,,,,,,,,,,,,,4/8 Partly Cloudy,72000.0,,FEW,500.0,SCT,9900.0,,,,
KRDR,08-15-2009,11:07,SPECI,,20,7.0,,,9999.0,,18.0,18.0,29.75,1008.6,,,,,,,,,,,,,,,4/8 Partly Cloudy,72000.0,,SCT,2200.0,,,,,,
KRDR,08-15-2009,11:03,SPECI,,30,6.0,,,9999.0,,18.0,18.0,29.76,1008.9,,,,,,,,,,,,,,,7/8 Mostly Cloudy,1500.0,,BKN,1500.0,,,,,,
KRDR,08-15-2009,11:00,SPECI,,30,6.0,,,9999.0,,18.0,18.0,29.76,1009.0,,,,,,,,,,,,,,,7/8 Mostly Cloudy,1300.0,,BKN,1300.0,,,,,,
KRDR,08-15-2009,11:00,METAR,,30,6.0,,,9999.0,,18.0,18.0,29.76,1009.1,,,,,,,,,,,TRACE,,,,7/8 Mostly Cloudy,400.0,,BKN,400.0,,,,,,
KRDR,08-15-2009,10:59,SPECI,,30,6.0,,,9999.0,,18.0,18.0,29.76,1009.0,,,,,,,,,,,,,,,7/8 Mostly Cloudy,1000.0,,BKN,1000.0,,,,,,
KRDR,08-15-2009,10:46,SPECI,,50,6.0,,,9999.0,,19.0,19.0,29.77,1009.2,,,,,,,,,,,,,,,8/8 Overcast,400.0,,OVC,400.0,,,,,,
KRDR,08-15-2009,10:38,SPECI,,60,6.0,,,9999.0,,19.0,19.0,29.78,1009.5,,,,,,,,,,,,,,,8/8 Overcast,300.0,,OVC,300.0,,,,,,
KRDR,08-15-2009,10:24,SPECI,,70,4.0,,,9999.0,,19.0,19.0,29.78,1009.4,,,,,,,,,,,,,,,7/8 Mostly Cloudy,400.0,,BKN,400.0,,,,,,
KRDR,08-15-2009,10:18,SPECI,,60,6.0,,,9999.0,,19.0,19.0,29.76,1009.0,,,,,,,,,,,,,,,7/8 Mostly Cloudy,300.0,,BKN,300.0,,,,,,
KRDR,08-15-2009,10:12,SPECI,,60,5.0,,,9999.0,,19.0,19.0,29.77,1009.2,,,,,,,,,,,,,,,7/8 Mostly Cloudy,300.0,,BKN,300.0,,,,,,
KRDR,08-15-2009,10:05,SPECI,,,0.0,,,9999.0,Light Rain,19.0,19.0,29.78,1009.6,61,,,,,,,,,,,,,,4/8 Partly Cloudy,72000.0,,SCT,300.0,,,,,,
KRDR,08-15-2009,10:00,METAR,,,0.0,,,9999.0,Light Drizzle,19.0,19.0,29.79,1010.0,51,,,,,,,,,,,,,,7/8 Mostly Cloudy,300.0,,BKN,300.0,,,,,,
KRDR,08-15-2009,09:49,SPECI,,90,5.0,,,9999.0,,19.0,19.0,29.78,1009.5,,,,,,,,,,,,,,,7/8 Mostly Cloudy,500.0,,BKN,500.0,,,,,,
KRDR,08-15-2009,09:47,SPECI,,70,8.0,,,9999.0,,19.0,19.0,29.77,1009.3,,,,,,,,,,,,,,,4/8 Partly Cloudy,72000.0,,SCT,600.0,,,,,,
KRDR,08-15-2009,09:37,SPECI,,40,11.0,,,9999.0,Light Rain,19.0,19.0,29.75,1008.7,61,,,,,,,,,,,,,,4/8 Partly Cloudy,72000.0,,SCT,700.0,,,,,,
KRDR,08-15-2009,09:25,SPECI,,340,13.0,,,4800.0,Heavy Rain/Mist,19.0,19.0,29.76,1009.0,63,10,,,,,,,,,,,,,8/8 Overcast,700.0,,OVC,700.0,,,,,,
KRDR,08-15-2009,09:22,SPECI,,330,10.0,,,3200.0,Heavy Rain/Mist,19.0,19.0,29.79,1010.0,63,10,,,,,,,,,,,,,8/8 Overcast,500.0,,OVC,500.0,,,,,,
KRDR,08-15-2009,09:17,SPECI,,300,7.0,,,2400.0,Heavy Rain/Mist,19.0,19.0,29.83,1011.2,63,10,,,,,,,,,,,,,8/8 Overcast,500.0,,OVC,500.0,,,,,,
KRDR,08-15-2009,09:14,SPECI,,290,6.0,,,2800.0,Heavy Rain/Mist,19.0,19.0,29.84,1011.4,63,10,,,,,,,,,,,,,8/8 Overcast,300.0,,OVC,300.0,,,,,,
KRDR,08-15-2009,09:12,SPECI,,260,7.0,,,4000.0,Heavy Rain/Mist,19.0,19.0,29.84,1011.6,63,10,,,,,,,,,,,,,8/8 Overcast,300.0,,OVC,300.0,,,,,,
KRDR,08-15-2009,09:00,METAR,,300,6.0,,,9999.0,Light Rain,19.0,19.0,29.81,1010.7,61,,,,,,,,,,TRACE,TRACE,,,8/8 Overcast,300.0,,OVC,300.0,,,,,,
KRDR,08-15-2009,08:47,SPECI,,300,4.0,,,9999.0,Unknown Precipitation,19.0,19.0,29.81,1010.5,40,,,,,,,,,,,,,,8/8 Overcast,300.0,,OVC,300.0,,,,,,
KRDR,08-15-2009,08:08,SPECI,,360,6.0,,,9999.0,,19.0,19.0,29.80,1010.1,,,,,,,,,,,,,,,8/8 Overcast,300.0,,OVC,300.0,,,,,,
KRDR,08-15-2009,08:00,METAR,,340,5.0,,,9999.0,,19.0,19.0,29.81,1010.6,,,,,,,,,,,,,,,8/8 Overcast,400.0,,OVC,400.0,,,,,,
KRDR,08-15-2009,07:50,SPECI,,340,5.0,,,9999.0,,19.0,19.0,29.81,1010.5,,,,,,,,,,,,,,,8/8 Overcast,400.0,,OVC,400.0,,,,,,
KRDR,08-15-2009,07:34,SPECI,,330,5.0,,,9999.0,,19.0,19.0,29.81,1010.4,,,,,,,,,,,,,,,8/8 Overcast,300.0,,OVC,300.0,,,,,,
KRDR,08-15-2009,07:23,SPECI,,320,6.0,,,9999.0,,19.0,19.0,29.81,1010.6,,,,,,,,,,,,,,,8/8 Overcast,400.0,,OVC,400.0,,,,,,
KRDR,08-15-2009,07:15,SPECI,,30,5.0,,,9999.0,,19.0,19.0,29.79,1010.1,,,,,,,,,,,,,,,7/8 Mostly Cloudy,300.0,,BKN,300.0,,,,,,
KRDR,08-15-2009,07:13,SPECI,,30,7.0,,,9999.0,,19.0,19.0,29.79,1009.9,,,,,,,,,,,,,,,7/8 Mostly Cloudy,400.0,,BKN,400.0,,,,,,
KRDR,08-15-2009,07:06,SPECI,,310,3.0,,,9999.0,,19.0,19.0,29.80,1010.3,,,,,,,,,,,,,,,8/8 Overcast,500.0,,OVC,500.0,,,,,,
KRDR,08-15-2009,07:00,METAR,,,4.0,,,9999.0,,19.0,19.0,29.81,1010.6,,,,,,,,,,,TRACE,,,,8/8 Overcast,300.0,,OVC,300.0,,,,,,
KRDR,08-15-2009,06:36,SPECI,,310,7.0,,,9999.0,,19.0,19.0,29.81,1010.6,,,,,,,,,,,,,,,8/8 Overcast,300.0,,OVC,300.0,,,,,,
KRDR,08-15-2009,06:19,SPECI,,10,8.0,,,9999.0,Light Drizzle,20.0,20.0,29.80,1010.4,51,,,,,,,,,,,,,,8/8 Overcast,300.0,,OVC,300.0,,,,,,
KRDR,08-15-2009,06:00,METAR,,10,10.0,,,9999.0,Mist,20.0,20.0,29.79,1009.8,,,,10,,,,,,,,,.37 IN,,8/8 Overcast,300.0,,OVC,300.0,,,,,,
KRDR,08-15-2009,05:36,SPECI,,360,9.0,,,6400.0,Mist,19.0,19.0,29.79,1009.9,,,,10,,,,,,,,,,,8/8 Overcast,300.0,,BKN,300.0,OVC,8900.0,,,,
KRDR,08-15-2009,05:23,SPECI,,350,7.0,,,9999.0,,19.0,19.0,29.79,1009.9,,,,,,,,,,,,,,,7/8 Mostly Cloudy,9000.0,,FEW,400.0,BKN,8900.0,BKN,12000.0,,
KRDR,08-15-2009,05:00,METAR,,60,4.0,,,9999.0,,20.0,20.0,29.82,1010.8,,,,,,,,,,,.01 IN,,,,8/8 Overcast,3100.0,,FEW,500.0,BKN,3100.0,OVC,16000.0,,
KRDR,08-15-2009,04:36,SPECI,,100,3.0,,,9999.0,,21.0,21.0,29.84,1011.5,,,,,,,,,,,,,,,8/8 Overcast,3300.0,,SCT,600.0,OVC,3400.0,,,,
KRDR,08-15-2009,04:04,SPECI,,20,8.0,,,9999.0,Rain,21.0,21.0,29.84,1011.5,,,,61,,,,,,,,,,,8/8 Overcast,3300.0,,SCT,800.0,OVC,3400.0,BKN,5000.0,OVC,12000.0
KRDR,08-15-2009,04:00,METAR,,340,4.0,,,9999.0,Rain,20.0,20.0,29.83,1011.4,,,,61,,,,,,,,,,,7/8 Mostly Cloudy,800.0,,BKN,800.0,,,,,,
KRDR,08-15-2009,03:55,METAR,,290,4.0,,,9999.0,Rain,20.0,20.0,29.84,1011.6,,,,61,,,,,,,.06 IN,,,,4/8 Partly Cloudy,72000.0,,SCT,900.0,,,,,,
KRDR,08-15-2009,03:45,SPECI,,300,4.0,,,9999.0,Rain,21.0,21.0,29.85,1012.0,,,,61,,,,,,,,,,,2/8 Mostly Clear,72000.0,,FEW,900.0,,,,,,
KRDR,08-15-2009,03:20,SPECI,,10,8.0,,,9999.0,Rain/Mist,21.0,21.0,29.84,1011.6,,,,61,10,,,,,,,,,,8/8 Overcast,3900.0,,FEW,800.0,BKN,4000.0,OVC,5400.0,,
KRDR,08-15-2009,03:00,METAR,,340,5.0,,,8000.0,Thunderstorm with Rain or Snow/Light Rain Showers/Mist,21.0,21.0,29.88,1012.9,,,,95,80,10,,,,,.27 IN,.3 IN,,,8/8 Overcast,1000.0,,BKN,1000.0,BKN,4000.0,OVC,5900.0,,
KRDR,08-15-2009,02:00,METAR,,340,7.0,,,9999.0,Thunderstorm with Rain or Snow/Light Rain Showers,21.0,20.0,29.86,1012.4,,,,95,80,,,,,,.03 IN,,,,8/8 Overcast,4400.0,,FEW,2200.0,SCT,3000.0,OVC,4500.0,,
KRDR,08-15-2009,01:39,SPECI,,330,4.0,,,9999.0,Thunderstorm with Rain or Snow/Light Rain Showers,21.0,20.0,29.86,1012.4,,,,95,80,,,,,,,,,,8/8 Overcast,4900.0,,SCT,2200.0,BKN,5000.0,OVC,9900.0,,
KRDR,08-15-2009,01:00,METAR,,10,6.0,,,9999.0,Light Rain Showers,22.0,20.0,29.82,1011.1,,,,80,,,,,,,,,,,8/8 Overcast,3000.0,,SCT,2200.0,BKN,3000.0,OVC,5900.0,,
KRDR,08-15-2009,00:00,METAR,,350,7.0,,,9999.0,,22.0,20.0,29.83,1011.3,,,,,,,,,,,TRACE,,TRACE,,8/8 Overcast,2900.0,,SCT,2200.0,BKN,2900.0,OVC,12000.0,,
KRDR,08-14-2009,23:21,SPECI,,350,9.0,,,9999.0,,22.0,20.0,29.84,1011.5,,,,,,,,,,,,,,,8/8 Overcast,2300.0,,BKN,2300.0,OVC,12000.0,,,,
KRDR,08-14-2009,23:02,SPECI,,340,11.0,,,9999.0,Rain,22.0,20.0,29.83,1011.4,,,,61,,,,,,,,,,,8/8 Overcast,2200.0,,BKN,2200.0,OVC,12000.0,,,,
KRDR,08-14-2009,23:00,METAR,,350,10.0,,,9999.0,,22.0,20.0,29.83,1011.3,,,,,,,,,,,,,,,8/8 Overcast,2000.0,,BKN,2000.0,OVC,12000.0,,,,
KRDR,08-14-2009,22:00,METAR,,340,15.0,20.0,,9999.0,,24.0,21.0,29.82,1010.8,,,,,,,,,,,TRACE,,,,8/8 Overcast,2100.0,,FEW,900.0,OVC,2100.0,,,,
KRDR,08-14-2009,21:48,SPECI,,330,15.0,20.0,,9999.0,,24.0,22.0,29.81,1010.5,,,,,,,,,,,,,,,8/8 Overcast,2000.0,,FEW,800.0,OVC,2000.0,,,,
KRDR,08-14-2009,21:13,SPECI,,,3.0,,,9999.0,,27.0,22.0,29.80,1010.1,,,,,,,,,,,,,,,8/8 Overcast,2100.0,,BKN,2100.0,BKN,11000.0,OVC,25000.0,,
KRDR,08-14-2009,21:00,METAR,,,1.0,,,9999.0,,26.0,23.0,29.78,1009.1,,,,,,,,,,,TRACE,TRACE,,,7/8 Mostly Cloudy,11000.0,,SCT,2500.0,BKN,11000.0,BKN,25000.0,,
KRDR,08-14-2009,20:43,SPECI,,140,16.0,,,9999.0,Rain,26.0,22.0,29.78,1009.6,,,,61,,,,,,,,,,,8/8 Overcast,12000.0,,SCT,2500.0,BKN,12000.0,OVC,25000.0,,
KRDR,08-14-2009,20:32,SPECI,,160,11.0,,,9999.0,,26.0,22.0,29.79,1009.9,,,,,,,,,,,,,,,8/8 Overcast,12000.0,,SCT,2500.0,BKN,12000.0,OVC,25000.0,,
KRDR,08-14-2009,20:00,METAR,,140,8.0,,,9999.0,,27.0,22.0,29.79,1010.0,,,,,,,,,,,,,,,7/8 Mostly Cloudy,2100.0,,BKN,2100.0,BKN,9900.0,,,,
KRDR,08-14-2009,19:22,SPECI,,230,3.0,,,9999.0,,26.0,22.0,29.82,1010.8,,,,,,,,,,,,,,,8/8 Overcast,2200.0,,BKN,2200.0,OVC,12000.0,,,,
KRDR,08-14-2009,19:00,METAR,,240,5.0,,,9999.0,,26.0,22.0,29.83,1011.2,,,,,,,,,,,,,,,8/8 Overcast,12000.0,,SCT,1900.0,OVC,12000.0,,,,
KRDR,08-14-2009,18:00,METAR,,150,16.0,,,9999.0,,27.0,21.0,29.80,1010.1,,,,,,,,,,,,,.01 IN,,7/8 Mostly Cloudy,25000.0,,FEW,1300.0,SCT,12000.0,BKN,25000.0,,
KRDR,08-14-2009,17:00,METAR,,120,17.0,,,9999.0,,23.0,21.0,29.80,1010.3,,,,,,,,,,,,,,,7/8 Mostly Cloudy,1100.0,,BKN,1100.0,,,,,,
KRDR,08-14-2009,16:00,METAR,,90,10.0,,,9999.0,,21.0,21.0,29.83,1011.3,,,,,,,,,,,,,,,8/8 Overcast,2400.0,,FEW,400.0,SCT,1200.0,OVC,2400.0,,
KRDR,08-14-2009,15:38,SPECI,,90,12.0,,,9999.0,,21.0,21.0,29.83,1011.3,,,,,,,,,,,,,,,7/8 Mostly Cloudy,1400.0,,FEW,400.0,BKN,1400.0,,,,
KRDR,08-14-2009,15:00,METAR,,330,9.0,,,9999.0,Thunderstorm/Mist,21.0,21.0,29.88,1012.8,,,,17,10,,,,,,.01 IN,.01 IN,,,8/8 Overcast,1200.0,,FEW,500.0,BKN,1200.0,OVC,5400.0,,
KRDR,08-14-2009,14:45,SPECI,,10,6.0,,,9999.0,Thunderstorm/Mist,21.0,21.0,29.87,,,,,17,10,,,,,,,,,,8/8 Overcast,2000.0,,FEW,600.0,OVC,2000.0,,,,
KRDR,08-14-2009,14:20,SPECI,,310,6.0,,,9999.0,Thunderstorm with Rain or Snow/Light Rain Showers,21.0,21.0,29.87,,,,,95,80,,,,,,,,,,8/8 Overcast,7000.0,,SCT,2000.0,BKN,6900.0,OVC,12000.0,,
KRDR,08-14-2009,14:16,SPECI,,,0.0,,,9999.0,Thunderstorm,21.0,21.0,29.87,1012.4,,,,17,,,,,,,,,,,8/8 Overcast,7000.0,,SCT,1900.0,BKN,6900.0,OVC,12000.0,,
KRDR,08-14-2009,14:00,METAR,,70,5.0,,,9999.0,,21.0,21.0,29.83,1011.2,,,,,,,,,,,,,,,8/8 Overcast,12000.0,,SCT,1700.0,OVC,12000.0,,,,
KRDR,08-14-2009,13:00,METAR,,50,7.0,,,9999.0,,21.0,21.0,29.82,1010.8,,,,,,,,,,,,,,,8/8 Overcast,3400.0,,SCT,1000.0,OVC,3500.0,,,,
KRDR,08-14-2009,12:00,METAR,,350,11.0,,,9999.0,Mist,20.0,20.0,29.81,1010.7,,,,10,,,,,,,,,,,8/8 Overcast,25000.0,,SCT,2000.0,OVC,25000.0,,,,
KRDR,08-14-2009,11:00,METAR,,170,8.0,,,9999.0,,21.0,20.0,29.76,1009.0,,,,,,,,,,,,,,,Clear,72000.0,,,73000.0,,,,,,
KRDR,08-14-2009,10:00,METAR,,170,10.0,,,9999.0,,21.0,20.0,29.77,1009.4,,,,,,,,,,,,,,,Clear,72000.0,,,73000.0,,,,,,
KRDR,08-14-2009,09:00,METAR,,160,7.0,,,9999.0,,21.0,20.0,29.80,1010.4,,,,,,,,,,,,,,,Clear,72000.0,,,73000.0,,,,,,
KRDR,08-14-2009,08:00,METAR,,170,9.0,,,9999.0,,21.0,21.0,29.81,1010.6,,,,,,,,,,,,,,,Clear,72000.0,,,73000.0,,,,,,
KRDR,08-14-2009,07:00,METAR,,170,9.0,,,9999.0,,22.0,21.0,29.83,1011.2,,,,,,,,,,,,,,,Clear,72000.0,,,73000.0,,,,,,
KRDR,08-14-2009,06:00,METAR,,170,8.0,,,9999.0,,22.0,21.0,29.84,1011.7,,,,,,,,,,,,,,,Clear,72000.0,,,73000.0,,,,,,
KRDR,08-14-2009,05:00,METAR,,170,8.0,,,9999.0,,22.0,21.0,29.84,1011.7,,,,,,,,,,,,,,,4/8 Partly Cloudy,72000.0,,FEW,9900.0,SCT,20000.0,,,,
KRDR,08-14-2009,04:00,METAR,,150,9.0,,,9999.0,,23.0,20.0,29.84,1011.7,,,,,,,,,,,,,,,4/8 Partly Cloudy,72000.0,,FEW,9900.0,SCT,20000.0,,,,
KRDR,08-14-2009,03:00,METAR,,130,6.0,,,9999.0,,24.0,19.0,29.84,1011.7,,,,,,,,,,,,,,,2/8 Mostly Clear,72000.0,,FEW,20000.0,,,,,,
KRDR,08-14-2009,02:00,METAR,,150,6.0,,,9999.0,,26.0,19.0,29.83,1011.3,,,,,,,,,,,,,,,2/8 Mostly Clear,72000.0,,FEW,9900.0,FEW,20000.0,,,,
KRDR,08-14-2009,01:00,METAR,,160,9.0,,,9999.0,,28.0,20.0,29.83,1011.2,,,,,,,,,,,,,,,2/8 Mostly Clear,72000.0,,FEW,20000.0,,,,,,
KRDR,08-14-2009,00:00,METAR,,150,9.0,,,9999.0,,30.0,21.0,29.82,1011.1,,,,,,,,,,,,,,,2/8 Mostly Clear,72000.0,,FEW,15000.0,,,,,,
KRDR,08-13-2009,23:00,METAR,,150,10.0,,,9999.0,,31.0,21.0,29.82,1011.0,,,,,,,,,,,,,,,4/8 Partly Cloudy,72000.0,,FEW,4500.0,FEW,15000.0,SCT,20000.0,,
KRDR,08-13-2009,22:00,METAR,,170,11.0,,,9999.0,,31.0,21.0,29.83,1011.2,,,,,,,,,,,,,,,4/8 Partly Cloudy,72000.0,,FEW,4000.0,SCT,15000.0,,,,
KRDR,08-13-2009,21:00,METAR,,150,11.0,,,9999.0,,31.0,21.0,29.84,1011.4,,,,,,,,,,,,,,,2/8 Mostly Clear,72000.0,,FEW,4200.0,FEW,20000.0,,,,
KRDR,08-13-2009,20:00,METAR,,140,9.0,,,9999.0,,30.0,21.0,29.85,1011.8,,,,,,,,,,,,,,,4/8 Partly Cloudy,72000.0,,FEW,5000.0,SCT,20000.0,,,,
KRDR,08-13-2009,19:00,METAR,,160,6.0,,,9999.0,,30.0,22.0,29.86,1012.1,,,,,,,,,,,,,,,4/8 Partly Cloudy,72000.0,,SCT,5000.0,SCT,20000.0,,,,
KRDR,08-13-2009,18:00,METAR,,,0.0,,,9999.0,,29.0,21.0,29.85,1012.0,,,,,,,,,,,,,,,4/8 Partly Cloudy,72000.0,,FEW,5000.0,SCT,20000.0,,,,
KRDR,08-13-2009,17:00,METAR,,170,7.0,,,9999.0,,28.0,21.0,29.85,1011.9,,,,,,,,,,,,,,,4/8 Partly Cloudy,72000.0,,FEW,5000.0,SCT,20000.0,,,,
KRDR,08-13-2009,16:00,METAR,,150,8.0,,,9999.0,,26.0,20.0,29.84,1011.5,,,,,,,,,,,,,,,4/8 Partly Cloudy,72000.0,,FEW,5000.0,SCT,20000.0,,,,
KRDR,08-13-2009,15:00,METAR,,150,9.0,,,9999.0,,24.0,19.0,29.84,1011.5,,,,,,,,,,,,,,,2/8 Mostly Clear,72000.0,,FEW,20000.0,,,,,,
KRDR,08-13-2009,14:00,METAR,,,0.0,,,9999.0,,23.0,18.0,29.87,1012.6,,,,,,,,,,,,,,,2/8 Mostly Clear,72000.0,,FEW,20000.0,,,,,,
KRDR,08-13-2009,13:00,METAR,,160,5.0,,,9999.0,,21.0,18.0,29.87,1012.6,,,,,,,,,,,,,,,4/8 Partly Cloudy,72000.0,,FEW,5000.0,SCT,20000.0,,,,
KRDR,08-13-2009,12:00,METAR,,,0.0,,,9999.0,,19.0,17.0,29.88,1012.9,,,,,,,,,,,,,,,4/8 Partly Cloudy,72000.0,,FEW,5000.0,SCT,20000.0,,,,
KRDR,08-13-2009,11:00,METAR,,320,11.0,,,9999.0,,20.0,17.0,29.86,1012.4,,,,,,,,,,,,,,,4/8 Partly Cloudy,72000.0,,SCT,9900.0,,,,,,
KRDR,08-13-2009,10:00,METAR,,190,7.0,,,9999.0,,19.0,17.0,29.83,1011.1,,,,,,,,,,,,,,,Clear,72000.0,,,73000.0,,,,,,
KRDR,08-13-2009,09:00,METAR,,180,8.0,,,9999.0,,20.0,17.0,29.83,1011.2,,,,,,,,,,,,,,,Clear,72000.0,,,73000.0,,,,,,
KRDR,08-13-2009,08:00,METAR,,190,7.0,,,9999.0,,21.0,18.0,29.83,1011.4,,,,,,,,,,,,,,,Clear,72000.0,,,73000.0,,,,,,
KRDR,08-13-2009,07:00,METAR,,200,12.0,,,9999.0,,24.0,18.0,29.84,1011.5,,,,,,,,,,,,,,,Clear,72000.0,,,73000.0,,,,,,
KRDR,08-13-2009,06:00,METAR,,190,11.0,,,9999.0,,25.0,19.0,29.84,1011.7,,,,,,,,,,,,,,,Clear,72000.0,,,73000.0,,,,,,
KRDR,08-13-2009,05:00,METAR,,190,7.0,,,9999.0,,24.0,20.0,29.84,1011.4,,,,,,,,,,,,,,,Clear,72000.0,,,73000.0,,,,,,
KRDR,08-13-2009,04:00,METAR,,190,6.0,,,9999.0,,24.0,20.0,29.85,1011.8,,,,,,,,,,,,,,,Clear,72000.0,,,73000.0,,,,,,
KRDR,08-13-2009,03:00,METAR,,180,6.0,,,9999.0,,26.0,21.0,29.84,1011.7,,,,,,,,,,,,,,,4/8 Partly Cloudy,72000.0,,FEW,9900.0,SCT,22000.0,,,,
KRDR,08-13-2009,02:00,METAR,,180,8.0,,,9999.0,,27.0,22.0,29.83,1011.2,,,,,,,,,,,,,,,4/8 Partly Cloudy,72000.0,,FEW,9900.0,SCT,22000.0,,,,
KRDR,08-13-2009,01:00,METAR,,170,9.0,,,9999.0,,30.0,22.0,29.81,1010.7,,,,,,,,,,,,,,,2/8 Mostly Clear,72000.0,,FEW,22000.0,,,,,,
KRDR,08-13-2009,00:00,METAR,,170,7.0,,,9999.0,,33.0,22.0,29.82,1011.1,,,,,,,,,,,,,,,2/8 Mostly Clear,72000.0,,FEW,22000.0,,,,,,
KRDR,08-12-2009,23:00,METAR,,200,6.0,,,9999.0,,35.0,17.0,29.83,1011.4,,,,,,,,,,,,,,,Clear,72000.0,,,73000.0,,,,,,
KRDR,08-12-2009,22:00,METAR,,210,7.0,,,9999.0,,35.0,17.0,29.84,1011.6,,,,,,,,,,,,,,,Clear,72000.0,,,73000.0,,,,,,
KRDR,08-12-2009,21:00,METAR,,210,9.0,,,9999.0,,35.0,17.0,29.85,1011.8,,,,,,,,,,,,,,,Clear,72000.0,,,73000.0,,,,,,
KRDR,08-12-2009,20:00,METAR,,200,8.0,,,9999.0,,34.0,18.0,29.85,1012.0,,,,,,,,,,,,,,,Clear,72000.0,,,73000.0,,,,,,
KRDR,08-12-2009,19:00,METAR,,190,8.0,,,9999.0,,33.0,19.0,29.87,1012.4,,,,,,,,,,,,,,,Clear,72000.0,,,73000.0,,,,,,
KRDR,08-12-2009,18:00,METAR,,220,7.0,,,9999.0,,32.0,19.0,29.88,1012.7,,,,,,,,,,,,,,,Clear,72000.0,,,73000.0,,,,,,
KRDR,08-12-2009,17:00,METAR,,230,8.0,,,9999.0,,31.0,18.0,29.88,1012.9,,,,,,,,,,,,,,,Clear,72000.0,,,73000.0,,,,,,
KRDR,08-12-2009,16:00,METAR,,220,9.0,,,9999.0,,29.0,17.0,29.87,1012.6,,,,,,,,,,,,,,,Clear,72000.0,,,73000.0,,,,,,
KRDR,08-12-2009,15:00,METAR,,200,6.0,,,9999.0,,27.0,17.0,29.87,1012.6,,,,,,,,,,,,,,,Clear,72000.0,,,73000.0,,,,,,
KRDR,08-12-2009,14:00,METAR,,220,6.0,,,9999.0,,24.0,16.0,29.87,1012.7,,,,,,,,,,,,,,,Clear,72000.0,,,73000.0,,,,,,
KRDR,08-12-2009,13:00,METAR,,180,6.0,,,9999.0,,20.0,16.0,29.88,1012.9,,,,,,,,,,,,,,,Clear,72000.0,,,73000.0,,,,,,
KRDR,08-12-2009,12:00,METAR,,170,6.0,,,9999.0,,18.0,15.0,29.88,1012.9,,,,,,,,,,,,,,,Clear,72000.0,,,73000.0,,,,,,
KRDR,08-12-2009,11:00,METAR,,190,6.0,,,9999.0,,19.0,16.0,29.87,1012.4,,,,,,,,,,,,,,,Clear,72000.0,,,73000.0,,,,,,
KRDR,08-12-2009,10:00,METAR,,180,4.0,,,9999.0,,19.0,17.0,29.87,1012.4,,,,,,,,,,,,,,,Clear,72000.0,,,73000.0,,,,,,
KRDR,08-12-2009,09:00,METAR,,190,6.0,,,9999.0,,20.0,17.0,29.87,1012.6,,,,,,,,,,,,,,,Clear,72000.0,,,73000.0,,,,,,
KRDR,08-12-2009,08:00,METAR,,190,9.0,,,9999.0,,20.0,17.0,29.87,1012.6,,,,,,,,,,,,,,,Clear,72000.0,,,73000.0,,,,,,
KRDR,08-12-2009,07:00,METAR,,200,8.0,,,9999.0,,21.0,17.0,29.88,1013.0,,,,,,,,,,,,,,,Clear,72000.0,,,73000.0,,,,,,
KRDR,08-12-2009,06:00,METAR,,200,9.0,,,9999.0,,22.0,18.0,29.89,1013.3,,,,,,,,,,,,,,,Clear,72000.0,,,73000.0,,,,,,
KRDR,08-12-2009,05:00,METAR,,210,10.0,,,9999.0,,23.0,18.0,29.90,1013.5,,,,,,,,,,,,,,,Clear,72000.0,,,73000.0,,,,,,
KRDR,08-12-2009,04:00,METAR,,200,11.0,,,9999.0,,24.0,18.0,29.90,1013.5,,,,,,,,,,,,,,,Clear,72000.0,,,73000.0,,,,,,
KRDR,08-12-2009,03:00,METAR,,190,10.0,,,9999.0,,24.0,18.0,29.90,1013.7,,,,,,,,,,,,,,,Clear,72000.0,,,73000.0,,,,,,
KRDR,08-12-2009,02:00,METAR,,170,10.0,,,9999.0,,24.0,18.0,29.90,1013.5,,,,,,,,,,,,,,,Clear,72000.0,,,73000.0,,,,,,
KRDR,08-12-2009,01:00,METAR,,170,10.0,,,9999.0,,27.0,18.0,29.90,1013.7,,,,,,,,,,,,,,,2/8 Mostly Clear,72000.0,,FEW,25000.0,,,,,,
KRDR,08-12-2009,00:00,METAR,,180,13.0,,,9999.0,,29.0,17.0,29.91,1014.0,,,,,,,,,,,,,,,2/8 Mostly Clear,72000.0,,FEW,25000.0,,,,,,
KRDR,08-11-2009,23:00,METAR,,170,11.0,,,9999.0,,30.0,16.0,29.93,1014.5,,,,,,,,,,,,,,,2/8 Mostly Clear,72000.0,,FEW,25000.0,,,,,,
KRDR,08-11-2009,22:00,METAR,,180,11.0,,,9999.0,,31.0,16.0,29.94,1015.0,,,,,,,,,,,,,,,Clear,72000.0,,,73000.0,,,,,,
KRDR,08-11-2009,21:00,METAR,,210,13.0,,,9999.0,,31.0,14.0,29.96,1015.4,,,,,,,,,,,,,,,Clear,72000.0,,,73000.0,,,,,,
KRDR,08-11-2009,20:00,METAR,,200,12.0,,,9999.0,,31.0,14.0,29.97,1015.9,,,,,,,,,,,,,,,Clear,72000.0,,,73000.0,,,,,,
KRDR,08-11-2009,19:00,METAR,,210,8.0,,,9999.0,,30.0,15.0,29.98,1016.3,,,,,,,,,,,,,,,Clear,72000.0,,,73000.0,,,,,,
KRDR,08-11-2009,18:00,METAR,,190,9.0,,,9999.0,,29.0,16.0,30.00,1016.8,,,,,,,,,,,,,,,Clear,72000.0,,,73000.0,,,,,,
KRDR,08-11-2009,17:00,METAR,,210,9.0,,,9999.0,,29.0,15.0,30.01,1017.1,,,,,,,,,,,,,,,Clear,72000.0,,,73000.0,,,,,,
KRDR,08-11-2009,16:00,METAR,,220,5.0,,,9999.0,,27.0,17.0,30.02,1017.5,,,,,,,,,,,,,,,Clear,72000.0,,,73000.0,,,,,,
KRDR,08-11-2009,15:00,METAR,,210,5.0,,,9999.0,,24.0,17.0,30.03,1017.8,,,,,,,,,,,,,,,Clear,72000.0,,,73000.0,,,,,,
KRDR,08-11-2009,14:00,METAR,,190,4.0,,,9999.0,,20.0,16.0,30.03,1017.9,,,,,,,,,,,,,,,Clear,72000.0,,,73000.0,,,,,,
KRDR,08-11-2009,13:00,METAR,,180,3.0,,,9999.0,,16.0,14.0,30.03,1017.7,,,,,,,,,,,,,,,Clear,72000.0,,,73000.0,,,,,,
KRDR,08-11-2009,12:00,METAR,,190,5.0,,,9999.0,,14.0,13.0,30.02,1017.6,,,,,,,,,,,,,,,Clear,72000.0,,,73000.0,,,,,,
KRDR,08-11-2009,11:00,METAR,,190,5.0,,,9999.0,,13.0,13.0,30.02,1017.5,,,,,,,,,,,,,,,Clear,72000.0,,,73000.0,,,,,,
KRDR,08-11-2009,10:00,METAR,,190,6.0,,,9999.0,,13.0,12.0,30.02,1017.4,,,,,,,,,,,,,,,Clear,72000.0,,,73000.0,,,,,,
KRDR,08-11-2009,09:00,METAR,,200,5.0,,,9999.0,,14.0,13.0,30.02,1017.5,,,,,,,,,,,,,,,Clear,72000.0,,,73000.0,,,,,,
KRDR,08-11-2009,08:00,METAR,,200,5.0,,,9999.0,,14.0,13.0,30.02,1017.5,,,,,,,,,,,,,,,Clear,72000.0,,,73000.0,,,,,,
KRDR,08-11-2009,07:00,METAR,,210,4.0,,,9999.0,,14.0,13.0,30.02,1017.4,,,,,,,,,,,,,,,Clear,72000.0,,,73000.0,,,,,,
KRDR,08-11-2009,06:00,METAR,,190,5.0,,,9999.0,,16.0,13.0,30.02,1017.4,,,,,,,,,,,,,,,Clear,72000.0,,,73000.0,,,,,,
KRDR,08-11-2009,05:00,METAR,,200,4.0,,,9999.0,,16.0,14.0,30.02,1017.3,,,,,,,,,,,,,,,Clear,72000.0,,,73000.0,,,,,,
KRDR,08-11-2009,04:00,METAR,,210,4.0,,,9999.0,,17.0,14.0,30.01,1017.1,,,,,,,,,,,,,,,Clear,72000.0,,,73000.0,,,,,,
KRDR,08-11-2009,03:00,METAR,,220,4.0,,,9999.0,,17.0,15.0,30.00,1016.7,,,,,,,,,,,,,,,Clear,72000.0,,,73000.0,,,,,,
KRDR,08-11-2009,02:00,METAR,,,0.0,,,9999.0,,20.0,17.0,29.98,1016.2,,,,,,,,,,,,,,,Clear,72000.0,,,73000.0,,,,,,
KRDR,08-11-2009,01:00,METAR,,330,3.0,,,9999.0,,24.0,16.0,29.99,1016.4,,,,,,,,,,,,,,,Clear,72000.0,,,73000.0,,,,,,
KRDR,08-11-2009,00:00,METAR,,,0.0,,,9999.0,,26.0,15.0,29.98,1016.3,,,,,,,,,,,,,,,Clear,72000.0,,,73000.0,,,,,,
KRDR,08-10-2009,23:00,METAR,,260,4.0,,,9999.0,,27.0,14.0,29.99,1016.5,,,,,,,,,,,,,,,2/8 Mostly Clear,72000.0,,FEW,5900.0,,,,,,
KRDR,08-10-2009,22:00,METAR,,290,3.0,,,9999.0,,27.0,14.0,29.98,1016.3,,,,,,,,,,,,,,,2/8 Mostly Clear,72000.0,,FEW,5900.0,,,,,,
KRDR,08-10-2009,21:00,METAR,,290,5.0,,,9999.0,,27.0,13.0,29.98,1016.2,,,,,,,,,,,,,,,2/8 Mostly Clear,72000.0,,FEW,5900.0,,,,,,
KRDR,08-10-2009,20:00,METAR,,,3.0,,,9999.0,,27.0,14.0,30.00,1016.7,,,,,,,,,,,,,,,2/8 Mostly Clear,72000.0,,FEW,5900.0,,,,,,
KRDR,08-10-2009,19:00,METAR,,,6.0,,,9999.0,,27.0,13.0,29.99,1016.7,,,,,,,,,,,,,,,2/8 Mostly Clear,72000.0,,FEW,5400.0,,,,,,
KRDR,08-10-2009,18:00,METAR,,280,6.0,,,9999.0,,26.0,14.0,30.00,1016.7,,,,,,,,,,,,,,,Clear,72000.0,,,73000.0,,,,,,
KRDR,08-10-2009,17:00,METAR,,270,5.0,,,9999.0,,25.0,15.0,30.00,1016.9,,,,,,,,,,,,,,,Clear,72000.0,,,73000.0,,,,,,
KRDR,08-10-2009,16:00,METAR,,,4.0,,,9999.0,,23.0,16.0,30.01,1017.0,,,,,,,,,,,,,,,Clear,72000.0,,,73000.0,,,,,,
KRDR,08-10-2009,15:00,METAR,,260,3.0,,,,,22.0,16.0,30.01,1017.2,,,,,,,,,,,,,,,,72000.0,,FEW,25000.0,,,,,,
KRDR,08-10-2009,14:00,METAR,,,0.0,,,9999.0,,18.0,15.0,30.00,1016.7,,,,,,,,,,,,,,,Clear,72000.0,,,73000.0,,,,,,
KRDR,08-10-2009,13:00,METAR,,220,3.0,,,9999.0,,15.0,14.0,29.98,1016.2,,,,,,,,,,,,,,,2/8 Mostly Clear,72000.0,,FEW,12000.0,,,,,,
KRDR,08-10-2009,12:00,METAR,,,0.0,,,9999.0,,12.0,12.0,29.97,1015.8,,,,,,,,,,,,,,,2/8 Mostly Clear,72000.0,,FEW,6400.0,,,,,,
KRDR,08-10-2009,11:00,METAR,,270,4.0,,,9999.0,,13.0,13.0,29.96,1015.5,,,,,,,,,,,,,,,Clear,72000.0,,,73000.0,,,,,,
KRDR,08-10-2009,10:00,METAR,,260,3.0,,,9999.0,,13.0,13.0,29.96,1015.4,,,,,,,,,,,,,,,Clear,72000.0,,,73000.0,,,,,,
KRDR,08-10-2009,09:00,METAR,,,0.0,,,9999.0,,13.0,13.0,29.95,1015.2,,,,,,,,,,,,,,,Clear,72000.0,,,73000.0,,,,,,
KRDR,08-10-2009,08:00,METAR,,,0.0,,,9999.0,,13.0,13.0,29.95,1015.4,,,,,,,,,,,,,,,Clear,72000.0,,,73000.0,,,,,,
KRDR,08-10-2009,07:00,METAR,,,0.0,,,9999.0,Mist,13.0,13.0,29.95,1015.3,10,,,,,,,,,,,,,,Clear,72000.0,,,73000.0,,,,,,
KRDR,08-10-2009,06:00,METAR,,,0.0,,,9999.0,,14.0,13.0,29.95,1015.1,,,,,,,,,,,,,,,Clear,72000.0,,,73000.0,,,,,,
KRDR,08-10-2009,05:00,METAR,,,0.0,,,9999.0,,14.0,13.0,29.95,1015.1,,,,,,,,,,,,,,,2/8 Mostly Clear,72000.0,,FEW,7400.0,,,,,,
KRDR,08-10-2009,04:00,METAR,,220,3.0,,,9999.0,,16.0,15.0,29.94,1014.8,,,,,,,,,,,,,,,Clear,72000.0,,,73000.0,,,,,,
KRDR,08-10-2009,03:00,METAR,,,0.0,,,9999.0,,17.0,15.0,29.93,1014.4,,,,,,,,,,,,,,,Clear,72000.0,,,73000.0,,,,,,
KRDR,08-10-2009,02:00,METAR,,20,3.0,,,9999.0,,19.0,15.0,29.90,1013.7,,,,,,,,,,,,,,,4/8 Partly Cloudy,72000.0,,SCT,11000.0,,,,,,
KRDR,08-10-2009,01:00,METAR,,360,5.0,,,9999.0,,21.0,16.0,29.91,1013.9,,,,,,,,,,,,,,,Clear,72000.0,,,73000.0,,,,,,
KRDR,08-10-2009,00:00,METAR,,,0.0,,,9999.0,,24.0,15.0,29.92,1014.3,,,,,,,,,,,,,TRACE,,Clear,72000.0,,,73000.0,,,,,,
KRDR,08-09-2009,23:00,METAR,,340,5.0,,,9999.0,,24.0,15.0,29.92,1014.2,,,,,,,,,,,,,,,Clear,72000.0,,,73000.0,,,,,,
KRDR,08-09-2009,22:00,METAR,,20,6.0,,,9999.0,,24.0,14.0,29.92,1014.1,,,,,,,,,,,,,,,Clear,72000.0,,,73000.0,,,,,,
KRDR,08-09-2009,21:00,METAR,,,6.0,,,9999.0,,24.0,15.0,29.92,1014.3,,,,,,,,,,,,TRACE,,,Clear,72000.0,,,73000.0,,,,,,
KRDR,08-09-2009,20:00,METAR,,350,7.0,,,9999.0,,24.0,16.0,29.93,1014.4,,,,,,,,,,,TRACE,,,,Clear,72000.0,,,73000.0,,,,,,
KRDR,08-09-2009,19:41,SPECI,,350,3.0,,,9999.0,,23.0,16.0,29.93,1014.5,,,,,,,,,,,,,,,Clear,72000.0,,,73000.0,,,,,,
KRDR,08-09-2009,19:32,SPECI,,350,5.0,,,9999.0,,23.0,16.0,29.93,1014.6,,,,,,,,,,,,,,,2/8 Mostly Clear,72000.0,,FEW,3400.0,,,,,,
KRDR,08-09-2009,19:00,METAR,,,0.0,,,9999.0,,23.0,15.0,29.93,1014.6,,,,,,,,,,,,,,,2/8 Mostly Clear,72000.0,,FEW,4000.0,,,,,,
KRDR,08-09-2009,18:00,METAR,,300,4.0,,,9999.0,,22.0,16.0,29.93,1014.7,,,,,,,,,,,,,,,4/8 Partly Cloudy,72000.0,,SCT,3500.0,,,,,,
KRDR,08-09-2009,17:00,METAR,,350,5.0,,,9999.0,,22.0,17.0,29.94,1015.0,,,,,,,,,,,,,,,2/8 Mostly Clear,72000.0,,FEW,2400.0,,,,,,
KRDR,08-09-2009,16:35,SPECI,,350,7.0,,,9999.0,,22.0,17.0,29.95,1015.1,,,,,,,,,,,,,,,4/8 Partly Cloudy,72000.0,,SCT,2700.0,,,,,,
KRDR,08-09-2009,16:15,SPECI,,320,7.0,,,9999.0,,21.0,16.0,29.95,1015.1,,,,,,,,,,,,,,,7/8 Mostly Cloudy,1500.0,,BKN,2800.0,,,,,,
KRDR,08-09-2009,16:00,METAR,,340,5.0,,,9999.0,,21.0,16.0,29.95,1015.2,,,,,,,,,,,,,,,4/8 Partly Cloudy,72000.0,,SCT,3600.0,,,,,,
KRDR,08-09-2009,15:00,METAR,,310,4.0,,,9999.0,,20.0,16.0,29.93,1014.5,,,,,,,,,,,,,,,4/8 Partly Cloudy,72000.0,,SCT,7400.0,,,,,,
KRDR,08-09-2009,14:00,METAR,,320,5.0,,,9999.0,,17.0,17.0,29.92,1014.1,,,,,,,,,,,,,,,7/8 Mostly Cloudy,7000.0,,BKN,6900.0,,,,,,
KRDR,08-09-2009,13:00,METAR,,290,6.0,,,9999.0,,16.0,16.0,29.92,1014.2,,,,,,,,,,,,,,,7/8 Mostly Cloudy,7000.0,,BKN,6900.0,,,,,,
KRDR,08-09-2009,12:00,METAR,,,0.0,,,9999.0,,13.0,13.0,29.91,1013.8,,,,,,,,,,,,,,.02 IN,7/8 Mostly Cloudy,6500.0,,BKN,6400.0,,,,,,
KRDR,08-09-2009,11:00,METAR,,190,5.0,,,2800.0,Mist,12.0,12.0,29.91,1013.8,10,,,,,,,,,,,,,,Clear,72000.0,,,73000.0,,,,,,
KRDR,08-09-2009,10:54,SPECI,,190,4.0,,,4800.0,Mist,12.0,12.0,29.91,1013.9,10,,,,,,,,,,,,,,Clear,72000.0,,,73000.0,,,,,,
KRDR,08-09-2009,10:49,SPECI,,190,4.0,,,1600.0,Mist,12.0,12.0,29.91,1013.8,10,,,,,,,,,,,,,,Clear,72000.0,,,73000.0,,,,,,
KRDR,08-09-2009,10:44,SPECI,,180,4.0,,,1600.0,Mist,12.0,12.0,29.91,1013.8,10,,,,,,,,,,,,,,Clear,72000.0,,,73000.0,,,,,,
KRDR,08-09-2009,10:42,SPECI,,190,3.0,,,2000.0,Mist,12.0,12.0,29.91,1013.8,10,,,,,,,,,,,,,,Clear,72000.0,,,73000.0,,,,,,
KRDR,08-09-2009,10:40,SPECI,,190,3.0,,,2800.0,Mist,12.0,12.0,29.91,1013.7,10,,,,,,,,,,,,,,Clear,72000.0,,,73000.0,,,,,,
KRDR,08-09-2009,10:29,SPECI,,,0.0,,,4800.0,Mist,12.0,12.0,29.90,1013.5,10,,,,,,,,,,,,,,Clear,72000.0,,,73000.0,,,,,,
KRDR,08-09-2009,10:27,SPECI,,,0.0,,,3200.0,Mist,12.0,12.0,29.90,1013.5,10,,,,,,,,,,,,,,Clear,72000.0,,,73000.0,,,,,,
KRDR,08-09-2009,10:24,SPECI,,,0.0,,,2400.0,Mist,12.0,12.0,29.90,1013.5,10,,,,,,,,,,,,,,Clear,72000.0,,,73000.0,,,,,,
KRDR,08-09-2009,10:23,SPECI,,,0.0,,,2000.0,Mist,12.0,12.0,29.90,1013.5,10,,,,,,,,,,,,,,Clear,72000.0,,,73000.0,,,,,,
KRDR,08-09-2009,10:19,SPECI,,,0.0,,,1600.0,Mist,12.0,12.0,29.90,1013.6,10,,,,,,,,,,,,,,Clear,72000.0,,,73000.0,,,,,,
KRDR,08-09-2009,10:16,SPECI,,,0.0,,,1200.0,Mist,12.0,12.0,29.90,1013.5,10,,,,,,,,,,,,,,Clear,72000.0,,,73000.0,,,,,,
KRDR,08-09-2009,10:14,SPECI,,,0.0,,,1200.0,Mist,12.0,12.0,29.90,1013.5,10,,,,,,,,,,,,,,Clear,72000.0,,,73000.0,,,,,,
KRDR,08-09-2009,10:12,SPECI,,,0.0,,,1600.0,Mist,12.0,12.0,29.90,1013.4,10,,,,,,,,,,,,,,Clear,72000.0,,,73000.0,,,,,,
KRDR,08-09-2009,10:10,SPECI,,,0.0,,,2000.0,Mist,12.0,12.0,29.90,1013.4,10,,,,,,,,,,,,,,Clear,72000.0,,,73000.0,,,,,,
KRDR,08-09-2009,10:08,SPECI,,250,3.0,,,2800.0,Mist,12.0,11.0,29.89,1013.3,10,,,,,,,,,,,,,,Clear,72000.0,,,73000.0,,,,,,
KRDR,08-09-2009,10:06,SPECI,,260,3.0,,,4000.0,Mist,12.0,11.0,29.89,1013.3,10,,,,,,,,,,,,,,Clear,72000.0,,,73000.0,,,,,,
KRDR,08-09-2009,10:00,METAR,,260,3.0,,,8000.0,Mist,12.0,11.0,29.89,1013.1,10,,,,,,,,,,,,,,Clear,72000.0,,,73000.0,,,,,,
KRDR,08-09-2009,09:49,SPECI,,260,3.0,,,4800.0,Mist,12.0,11.0,29.88,1013.0,10,,,,,,,,,,,,,,Clear,72000.0,,,73000.0,,,,,,
KRDR,08-09-2009,09:47,SPECI,,260,3.0,,,3200.0,Mist,12.0,12.0,29.88,1013.0,10,,,,,,,,,,,,,,Clear,72000.0,,,73000.0,,,,,,
KRDR,08-09-2009,09:42,SPECI,,260,3.0,,,2800.0,Mist,12.0,11.0,29.88,1013.0,10,,,,,,,,,,,,,,Clear,72000.0,,,73000.0,,,,,,
KRDR,08-09-2009,09:39,SPECI,,260,3.0,,,4000.0,Mist,12.0,11.0,29.89,1013.1,10,,,,,,,,,,,,,,Clear,72000.0,,,73000.0,,,,,,
KRDR,08-09-2009,09:00,METAR,,,0.0,,,9999.0,,13.0,13.0,29.88,1012.8,,,,,,,,,,,,,,,Clear,72000.0,,,73000.0,,,,,,
KRDR,08-09-2009,08:00,METAR,,300,5.0,,,9999.0,,15.0,15.0,29.88,1013.0,,,,,,,,,,,,,,,Clear,72000.0,,,73000.0,,,,,,
KRDR,08-09-2009,07:00,METAR,,290,6.0,,,9999.0,,14.0,14.0,29.88,1013.0,,,,,,,,,,,,,,,Clear,72000.0,,,73000.0,,,,,,
KRDR,08-09-2009,06:00,METAR,,290,6.0,,,9999.0,,15.0,14.0,29.88,1012.7,,,,,,,,,,,,,.01 IN,,Clear,72000.0,,,73000.0,,,,,,
KRDR,08-09-2009,05:00,METAR,,280,5.0,,,9999.0,,15.0,15.0,29.87,1012.7,,,,,,,,,,,.01 IN,,,,Clear,72000.0,,,73000.0,,,,,,
KRDR,08-09-2009,04:00,METAR,,280,3.0,,,9999.0,,16.0,16.0,29.87,1012.6,,,,,,,,,,,,,,,7/8 Mostly Cloudy,2400.0,,BKN,2400.0,,,,,,
KRDR,08-09-2009,03:22,SPECI,,270,3.0,,,9999.0,,16.0,16.0,29.87,1012.4,,,,,,,,,,,,,,,7/8 Mostly Cloudy,2400.0,,BKN,2400.0,,,,,,
KRDR,08-09-2009,03:00,METAR,,290,3.0,,,9999.0,,17.0,16.0,29.86,1012.3,,,,,,,,,,,,,,,2/8 Mostly Clear,72000.0,,FEW,2500.0,,,,,,
KRDR,08-09-2009,02:39,SPECI,,310,3.0,,,9999.0,,18.0,16.0,29.86,1012.2,,,,,,,,,,,,,,,4/8 Partly Cloudy,72000.0,,SCT,2500.0,,,,,,
KRDR,08-09-2009,02:00,METAR,,330,3.0,,,9999.0,,18.0,17.0,29.85,1011.7,,,,,,,,,,,,,,,8/8 Overcast,2100.0,,OVC,2100.0,,,,,,
KRDR,08-09-2009,01:06,SPECI,,340,5.0,,,9999.0,,19.0,17.0,29.84,1011.5,,,,,,,,,,,,,,,8/8 Overcast,2000.0,,FEW,1400.0,OVC,2900.0,,,,
KRDR,08-09-2009,01:00,METAR,,360,3.0,,,9999.0,,19.0,18.0,29.83,1011.2,,,,,,,,,,,,,,,8/8 Overcast,3200.0,,FEW,1600.0,OVC,3300.0,,,,
KRDR,08-09-2009,00:49,SPECI,,10,3.0,,,9999.0,,19.0,17.0,29.83,1011.2,,,,,,,,,,,,,,,8/8 Overcast,3100.0,,OVC,3100.0,,,,,,
KRDR,08-09-2009,00:45,SPECI,,350,3.0,,,9999.0,,19.0,17.0,29.83,1011.2,,,,,,,,,,,,,,,8/8 Overcast,1300.0,,OVC,2900.0,,,,,,
KRDR,08-09-2009,00:34,SPECI,,360,6.0,,,9999.0,,19.0,18.0,29.83,1011.1,,,,,,,,,,,,,,,8/8 Overcast,3000.0,,OVC,3000.0,,,,,,
KRDR,08-09-2009,00:00,METAR,,360,8.0,,,9999.0,,19.0,18.0,29.82,1010.8,,,,,,,,,,,,,.01 IN,,8/8 Overcast,1800.0,,OVC,2300.0,,,,,,
KRDR,08-08-2009,23:39,SPECI,,,6.0,,,9999.0,,18.0,18.0,29.81,1010.7,,,,,,,,,,,,,,,8/8 Overcast,1900.0,,FEW,1000.0,OVC,1900.0,,,,
KRDR,08-08-2009,23:34,SPECI,,,,,,9999.0,,18.0,18.0,,,,,,,,,,,,,,,,,8/8 Overcast,2000.0,,FEW,1000.0,OVC,2000.0,,,,
KRDR,08-08-2009,23:28,SPECI,,360,7.0,,,9999.0,,18.0,18.0,29.81,1010.6,,,,,,,,,,,,,,,8/8 Overcast,700.0,,OVC,1500.0,,,,,,
KRDR,08-08-2009,23:20,SPECI,,360,7.0,,,9999.0,,18.0,18.0,29.81,1010.6,,,,,,,,,,,,,,,8/8 Overcast,700.0,,OVC,1200.0,,,,,,
KRDR,08-08-2009,23:15,SPECI,,10,9.0,,,9999.0,,18.0,18.0,29.81,1010.6,,,,,,,,,,,,,,,8/8 Overcast,700.0,,OVC,1000.0,,,,,,
KRDR,08-08-2009,23:00,METAR,,10,9.0,,,9999.0,,19.0,19.0,29.81,1010.6,,,,,,,,,,,TRACE,,,,8/8 Overcast,1100.0,,OVC,1100.0,,,,,,
KRDR,08-08-2009,22:37,SPECI,,10,6.0,,,9999.0,,18.0,18.0,29.81,1010.6,,,,,,,,,,,,,,,8/8 Overcast,1400.0,,OVC,1400.0,,,,,,
KRDR,08-08-2009,22:33,SPECI,,350,7.0,,,9999.0,,18.0,18.0,29.81,1010.7,,,,,,,,,,,,,,,8/8 Overcast,1700.0,,FEW,900.0,OVC,1700.0,,,,
KRDR,08-08-2009,22:26,SPECI,,360,6.0,,,9999.0,,18.0,18.0,29.81,1010.6,,,,,,,,,,,,,,,8/8 Overcast,500.0,,OVC,1300.0,,,,,,
KRDR,08-08-2009,22:23,SPECI,,360,7.0,,,9999.0,,18.0,18.0,29.81,1010.5,,,,,,,,,,,,,,,8/8 Overcast,1500.0,,FEW,400.0,SCT,800.0,OVC,1500.0,,
KRDR,08-08-2009,22:00,METAR,,10,7.0,,,9999.0,Rain,19.0,19.0,29.79,1010.0,,,,61,,,,,,,.01 IN,,,,8/8 Overcast,700.0,,OVC,700.0,,,,,,
KRDR,08-08-2009,21:31,SPECI,,60,8.0,,,9999.0,Rain/Mist,19.0,19.0,29.79,,,,,61,10,,,,,,,,,,8/8 Overcast,700.0,,OVC,700.0,,,,,,
KRDR,08-08-2009,21:00,METAR,,350,6.0,,,9999.0,,19.0,19.0,29.82,1010.9,,,,,,,,,,,,TRACE,,,8/8 Overcast,700.0,,BKN,700.0,OVC,1300.0,,,,
KRDR,08-08-2009,20:03,SPECI,,350,5.0,,,9999.0,Mist,18.0,18.0,29.82,,,,,10,,,,,,,,,,,8/8 Overcast,800.0,,OVC,800.0,,,,,,
KRDR,08-08-2009,20:00,METAR,,340,5.0,,,8000.0,Mist,18.0,18.0,29.83,1011.2,,,,10,,,,,,,TRACE,,,,8/8 Overcast,400.0,,OVC,400.0,,,,,,
KRDR,08-08-2009,19:50,SPECI,,340,7.0,,,8000.0,Mist,18.0,18.0,29.83,1011.1,,,,10,,,,,,,,,,,8/8 Overcast,400.0,,OVC,400.0,,,,,,
KRDR,08-08-2009,19:00,METAR,,350,9.0,,,6400.0,Light Drizzle/Mist,19.0,19.0,29.80,1010.4,51,10,,,,,,,,,TRACE,,,,8/8 Overcast,300.0,,OVC,300.0,,,,,,
KRDR,08-08-2009,18:54,SPECI,,350,8.0,,,6400.0,Light Drizzle/Mist,19.0,19.0,29.80,1010.4,51,10,,,,,,,,,,,,,8/8 Overcast,400.0,,OVC,400.0,,,,,,
KRDR,08-08-2009,18:50,SPECI,,350,7.0,,,6400.0,Light Drizzle/Mist,19.0,19.0,29.80,1010.4,51,10,,,,,,,,,,,,,8/8 Overcast,300.0,,OVC,300.0,,,,,,
KRDR,08-08-2009,18:43,SPECI,,340,10.0,,,8000.0,Light Drizzle/Mist,20.0,19.0,29.80,1010.4,51,10,,,,,,,,,,,,,8/8 Overcast,400.0,,OVC,400.0,,,,,,
KRDR,08-08-2009,18:39,SPECI,,340,9.0,,,9999.0,Light Drizzle/Mist,20.0,20.0,29.80,1010.2,51,10,,,,,,,,,,,,,8/8 Overcast,500.0,,OVC,500.0,,,,,,
KRDR,08-08-2009,18:33,SPECI,,340,7.0,,,9999.0,Light Drizzle/Mist,20.0,19.0,29.80,1010.1,51,10,,,,,,,,,,,,,8/8 Overcast,600.0,,OVC,600.0,,,,,,
KRDR,08-08-2009,18:16,SPECI,,20,6.0,,,9999.0,Light Drizzle,20.0,19.0,29.79,1010.1,51,,,,,,,,,,,,,,8/8 Overcast,800.0,,OVC,800.0,,,,,,
KRDR,08-08-2009,18:00,SPECI,,10,6.0,,,9999.0,,20.0,19.0,29.79,1009.9,,,,,,,,,,,,,,,8/8 Overcast,700.0,,OVC,700.0,,,,,,
KRDR,08-08-2009,18:00,METAR,,350,8.0,,,9999.0,,20.0,19.0,29.79,1009.8,,,,,,,,,,,TRACE,,TRACE,,8/8 Overcast,600.0,,OVC,600.0,,,,,,
KRDR,08-08-2009,17:42,SPECI,,340,7.0,,,9999.0,,20.0,19.0,29.79,1009.9,,,,,,,,,,,,,,,8/8 Overcast,600.0,,OVC,600.0,,,,,,
KRDR,08-08-2009,17:12,SPECI,,330,5.0,,,9999.0,,20.0,20.0,29.79,1010.0,,,,,,,,,,,,,,,8/8 Overcast,800.0,,OVC,800.0,,,,,,
KRDR,08-08-2009,17:10,SPECI,,340,5.0,,,9999.0,,20.0,20.0,29.79,1009.9,,,,,,,,,,,,,,,8/8 Overcast,600.0,,OVC,600.0,,,,,,
KRDR,08-08-2009,17:05,SPECI,,340,5.0,,,9999.0,Light Drizzle,20.0,20.0,29.79,1009.9,51,,,,,,,,,,,,,,8/8 Overcast,600.0,,OVC,600.0,,,,,,
KRDR,08-08-2009,17:01,SPECI,,340,6.0,,,9999.0,Light Drizzle,20.0,20.0,29.79,1009.8,51,,,,,,,,,,,,,,8/8 Overcast,700.0,,OVC,700.0,,,,,,
KRDR,08-08-2009,17:00,METAR,,330,6.0,,,9999.0,,20.0,20.0,29.78,1009.7,,,,,,,,,,,,,,,8/8 Overcast,600.0,,OVC,600.0,,,,,,
KRDR,08-08-2009,16:43,SPECI,,330,5.0,,,9999.0,,20.0,20.0,29.78,1009.7,,,,,,,,,,,,,,,8/8 Overcast,600.0,,OVC,600.0,,,,,,
KRDR,08-08-2009,16:40,SPECI,,330,4.0,,,9999.0,,20.0,20.0,29.78,1009.7,,,,,,,,,,,,,,,8/8 Overcast,700.0,,OVC,700.0,,,,,,
KRDR,08-08-2009,16:24,SPECI,,330,3.0,,,9999.0,,20.0,20.0,29.78,1009.6,,,,,,,,,,,,,,,8/8 Overcast,500.0,,OVC,500.0,,,,,,
KRDR,08-08-2009,16:02,SPECI,,330,3.0,,,9999.0,,19.0,19.0,29.78,1009.6,,,,,,,,,,,,,,,8/8 Overcast,400.0,,OVC,400.0,,,,,,
KRDR,08-08-2009,16:00,METAR,,310,4.0,,,9999.0,,19.0,19.0,29.78,1009.5,,,,,,,,,,,,,,,8/8 Overcast,300.0,,OVC,300.0,,,,,,
KRDR,08-08-2009,15:28,SPECI,,300,3.0,,,9999.0,,19.0,19.0,29.77,1009.3,,,,,,,,,,,,,,,8/8 Overcast,300.0,,OVC,300.0,,,,,,
KRDR,08-08-2009,15:00,SPECI,,300,5.0,,,6400.0,Mist,19.0,19.0,29.76,1008.8,10,,,,,,,,,,,,,,8/8 Overcast,400.0,,OVC,400.0,,,,,,
KRDR,08-08-2009,15:00,METAR,,310,3.0,,,6400.0,Mist,19.0,19.0,29.75,1008.5,10,,,,,,,,,,,,,,8/8 Overcast,400.0,,OVC,400.0,,,,,,
KRDR,08-08-2009,14:58,SPECI,,300,5.0,,,6400.0,Mist,19.0,19.0,29.76,1008.8,10,,,,,,,,,,,,,,8/8 Overcast,500.0,,OVC,500.0,,,,,,
KRDR,08-08-2009,14:33,SPECI,,,0.0,,,4800.0,Mist,18.0,18.0,29.75,1008.5,10,,,,,,,,,,,,,,8/8 Overcast,400.0,,OVC,400.0,,,,,,
KRDR,08-08-2009,14:04,SPECI,,,0.0,,,4000.0,Mist,18.0,18.0,29.76,1008.8,10,,,,,,,,,,,,,,8/8 Overcast,400.0,,OVC,400.0,,,,,,
KRDR,08-08-2009,14:00,METAR,,190,3.0,,,4000.0,Mist,18.0,18.0,29.76,1009.0,10,,,,,,,,,,,,,,8/8 Overcast,400.0,,OVC,400.0,,,,,,
KRDR,08-08-2009,13:54,SPECI,,,0.0,,,4000.0,Mist,18.0,18.0,29.76,1008.9,10,,,,,,,,,,,,,,8/8 Overcast,400.0,,OVC,400.0,,,,,,
KRDR,08-08-2009,13:47,SPECI,,,0.0,,,4000.0,Mist,18.0,18.0,29.76,1009.0,10,,,,,,,,,,,,,,8/8 Overcast,400.0,,OVC,400.0,,,,,,
KRDR,08-08-2009,13:00,METAR,,170,3.0,,,9999.0,,18.0,18.0,29.78,1009.5,,,,,,,,,,,,,,,8/8 Overcast,300.0,,OVC,300.0,,,,,,
KRDR,08-08-2009,12:40,SPECI,,170,3.0,,,9999.0,,18.0,18.0,29.78,1009.5,,,,,,,,,,,,,,,8/8 Overcast,300.0,,OVC,300.0,,,,,,
KRDR,08-08-2009,12:22,SPECI,,160,6.0,,,9999.0,,18.0,18.0,29.78,1009.4,,,,,,,,,,,,,,,7/8 Mostly Cloudy,400.0,,BKN,400.0,,,,,,
KRDR,08-08-2009,12:13,SPECI,,150,8.0,,,9999.0,Mist,18.0,18.0,29.77,1009.3,10,,,,,,,,,,,,,,2/8 Mostly Clear,72000.0,,FEW,600.0,,,,,,
KRDR,08-08-2009,12:00,METAR,,110,7.0,,,6400.0,Mist,18.0,18.0,29.76,1008.9,10,,,,,,,,,,.01 IN,,.01 IN,.51 IN,Clear,72000.0,,,73000.0,,,,,,
KRDR,08-08-2009,11:01,SPECI,,130,6.0,,,4800.0,Mist,18.0,18.0,29.76,1009.0,10,,,,,,,,,,,,,,Clear,72000.0,,,73000.0,,,,,,
KRDR,08-08-2009,11:00,METAR,,120,6.0,,,3200.0,Mist,18.0,18.0,29.77,1009.2,10,,,,,,,,,,TRACE,,,,Clear,72000.0,,,73000.0,,,,,,
KRDR,08-08-2009,10:50,SPECI,,120,6.0,,,3200.0,Mist,18.0,18.0,29.77,1009.2,10,,,,,,,,,,,,,,Clear,72000.0,,,73000.0,,,,,,
KRDR,08-08-2009,10:45,SPECI,,120,6.0,,,2400.0,Mist,18.0,18.0,29.76,1009.1,10,,,,,,,,,,,,,,Clear,72000.0,,,73000.0,,,,,,
KRDR,08-08-2009,10:44,SPECI,,120,6.0,,,2000.0,Mist,18.0,18.0,29.76,1009.1,10,,,,,,,,,,,,,,Clear,72000.0,,,73000.0,,,,,,
KRDR,08-08-2009,10:39,SPECI,,120,6.0,,,2000.0,Mist,18.0,18.0,29.77,1009.1,,10,,,,,,,,,,,,,Clear,72000.0,,,73000.0,,,,,,
KRDR,08-08-2009,10:31,SPECI,,120,5.0,,,1600.0,Mist,18.0,18.0,29.77,1009.2,,10,,,,,,,,,,,,,Clear,72000.0,,,73000.0,,,,,,
KRDR,08-08-2009,10:29,SPECI,,120,4.0,,,1200.0,Mist,18.0,18.0,29.77,1009.3,,10,,,,,,,,,,,,,Clear,72000.0,,,73000.0,,,,,,
KRDR,08-08-2009,10:11,SPECI,,,0.0,,,1200.0,Mist,18.0,18.0,29.77,1009.1,,10,,,,,,,,,,,,,Clear,72000.0,,,73000.0,,,,,,
KRDR,08-08-2009,10:00,METAR,,,0.0,,,1200.0,Mist,18.0,18.0,29.77,1009.3,10,,,,,,,,,,,,,,Clear,72000.0,,,73000.0,,,,,,
KRDR,08-08-2009,09:06,SPECI,,110,3.0,,,1200.0,Mist,18.0,18.0,29.75,1008.7,10,,,,,,,,,,,,,,Sky Obscured (Unable to Estimate),400.0,100.0,,400.0,,,,,,
KRDR,08-08-2009,09:00,METAR,,120,4.0,,,1200.0,Mist,18.0,18.0,29.76,1008.8,10,,,,,,,,,,,,,,Sky Obscured (Unable to Estimate),500.0,100.0,,500.0,,,,,,
KRDR,08-08-2009,08:44,SPECI,,,0.0,,,1200.0,Mist,18.0,18.0,29.75,1008.7,10,,,,,,,,,,,,,,Sky Obscured (Unable to Estimate),500.0,100.0,,500.0,,,,,,
KRDR,08-08-2009,08:42,SPECI,,,0.0,,,1200.0,Mist,18.0,18.0,29.75,1008.6,10,,,,,,,,,,,,,,Sky Obscured (Unable to Estimate),600.0,100.0,,600.0,,,,,,
KRDR,08-08-2009,08:34,SPECI,,,0.0,,,1600.0,Mist,18.0,18.0,29.75,1008.7,10,,,,,,,,,,,,,,Sky Obscured (Unable to Estimate),600.0,100.0,,600.0,,,,,,
KRDR,08-08-2009,08:32,SPECI,,,0.0,,,1600.0,Mist,18.0,18.0,29.75,1008.7,10,,,,,,,,,,,,,,Sky Obscured (Unable to Estimate),600.0,100.0,,600.0,,,,,,
KRDR,08-08-2009,08:30,SPECI,,,0.0,,,2000.0,Mist,18.0,18.0,29.75,1008.6,10,,,,,,,,,,,,,,8/8 Overcast,600.0,,OVC,600.0,,,,,,
KRDR,08-08-2009,08:27,SPECI,,,0.0,,,2000.0,Mist,18.0,18.0,29.75,1008.7,10,,,,,,,,,,,,,,8/8 Overcast,500.0,,OVC,500.0,,,,,,
KRDR,08-08-2009,08:18,SPECI,,,0.0,,,2800.0,Mist,18.0,18.0,29.75,1008.5,10,,,,,,,,,,,,,,8/8 Overcast,500.0,,OVC,500.0,,,,,,
KRDR,08-08-2009,08:10,SPECI,,,0.0,,,4000.0,Mist,18.0,18.0,29.74,1008.4,10,,,,,,,,,,,,,,8/8 Overcast,400.0,,OVC,400.0,,,,,,
KRDR,08-08-2009,08:00,METAR,,,0.0,,,9999.0,Mist,18.0,18.0,29.75,1008.7,10,,,,,,,,,,,,,,8/8 Overcast,300.0,,OVC,300.0,,,,,,
KRDR,08-08-2009,07:45,SPECI,,,0.0,,,9999.0,,18.0,18.0,29.75,1008.7,,,,,,,,,,,,,,,8/8 Overcast,300.0,,OVC,300.0,,,,,,
KRDR,08-08-2009,07:10,SPECI,,150,4.0,,,9999.0,,19.0,19.0,29.75,1008.7,,,,,,,,,,,,,,,8/8 Overcast,400.0,,OVC,400.0,,,,,,
KRDR,08-08-2009,07:00,METAR,,130,4.0,,,9999.0,,19.0,19.0,29.75,1008.6,,,,,,,,,,,,,,,8/8 Overcast,500.0,,OVC,500.0,,,,,,
KRDR,08-08-2009,06:37,SPECI,,130,4.0,,,9999.0,,19.0,19.0,29.75,1008.6,,,,,,,,,,,,,,,8/8 Overcast,1100.0,,SCT,600.0,OVC,1100.0,,,,
KRDR,08-08-2009,06:00,METAR,,110,5.0,,,8000.0,Mist,18.0,18.0,29.76,1008.8,,,,10,,,,,,,,,TRACE,,8/8 Overcast,1100.0,,SCT,800.0,OVC,1100.0,,,,
KRDR,08-08-2009,05:20,SPECI,,130,4.0,,,8000.0,Mist,18.0,18.0,29.77,1009.3,,,,10,,,,,,,,,,,8/8 Overcast,1100.0,,FEW,400.0,OVC,1100.0,,,,
KRDR,08-08-2009,05:00,METAR,,140,6.0,,,9999.0,,19.0,19.0,29.77,1009.3,,,,,,,,,,,TRACE,,,,8/8 Overcast,1300.0,,OVC,1300.0,,,,,,
KRDR,08-08-2009,04:00,METAR,,150,7.0,,,9999.0,Drizzle,19.0,18.0,29.78,1009.7,,,,51,,,,,,,TRACE,,,,8/8 Overcast,1500.0,,OVC,1500.0,,,,,,
KRDR,08-08-2009,03:09,SPECI,,150,6.0,,,9999.0,Drizzle,19.0,18.0,29.78,1009.7,,,,51,,,,,,,,,,,8/8 Overcast,1500.0,,OVC,1500.0,,,,,,
KRDR,08-08-2009,03:00,METAR,,160,6.0,,,9999.0,,19.0,18.0,29.79,1009.9,,,,,,,,,,,,,,,8/8 Overcast,1400.0,,OVC,1400.0,,,,,,
KRDR,08-08-2009,02:00,METAR,,160,9.0,,,9999.0,,20.0,18.0,29.76,1009.0,,,,,,,,,,,,,,,8/8 Overcast,1700.0,,OVC,1700.0,,,,,,
KRDR,08-08-2009,01:00,METAR,,150,7.0,,,9999.0,,20.0,18.0,29.76,1008.9,,,,,,,,,,,,,,,8/8 Overcast,2000.0,,BKN,2000.0,OVC,6400.0,,,,
KRDR,08-08-2009,00:00,METAR,,160,12.0,,,9999.0,,20.0,18.0,29.77,1009.2,,,,,,,,,,,,,.35 IN,,8/8 Overcast,1800.0,,OVC,1800.0,,,,,,
KRDR,08-07-2009,23:08,SPECI,,150,11.0,,,9999.0,,21.0,18.0,29.76,1009.0,,,,,,,,,,,,,,,7/8 Mostly Cloudy,2200.0,,BKN,2200.0,,,,,,
KRDR,08-07-2009,23:00,METAR,,160,12.0,,,9999.0,,21.0,18.0,29.76,1008.8,,,,,,,,,,,.06 IN,,,,7/8 Mostly Cloudy,3000.0,,FEW,1800.0,BKN,3000.0,,,,
KRDR,08-07-2009,22:11,SPECI,,130,10.0,,,9999.0,Thunderstorm,19.0,18.0,29.76,,,,,17,,,,,,,,,,,8/8 Overcast,7000.0,,FEW,1000.0,SCT,4500.0,BKN,6900.0,OVC,12000.0
KRDR,08-07-2009,22:00,METAR,,140,10.0,20.0,,4800.0,Thunderstorm with Rain or Snow/Rain Showers/Mist,18.0,18.0,29.73,1008.0,,,,95,81,10,,,,,.17 IN,,,,8/8 Overcast,4400.0,,BKN,4500.0,OVC,12000.0,,,,
KRDR,08-07-2009,21:39,SPECI,,150,16.0,,,9999.0,Thunderstorm with Rain or Snow/Light Rain Showers,19.0,18.0,29.74,,,,,95,80,,,,,,,,,,8/8 Overcast,5500.0,,FEW,2000.0,BKN,5400.0,OVC,11000.0,,
KRDR,08-07-2009,21:14,SPECI,,150,9.0,,,9999.0,Thunderstorm,18.0,18.0,29.77,,,,,17,,,,,,,,,,,8/8 Overcast,6000.0,,FEW,2000.0,BKN,5900.0,OVC,11000.0,,
KRDR,08-07-2009,21:00,METAR,,110,10.0,,,9999.0,Thunderstorm with Rain or Snow/Light Rain Showers,18.0,18.0,29.76,1008.8,,,,95,80,,,,,,.08 IN,.22 IN,,,8/8 Overcast,4900.0,,SCT,1700.0,BKN,5000.0,OVC,9900.0,,
KRDR,08-07-2009,20:00,METAR,,110,7.0,,,9999.0,Thunderstorm with Rain or Snow/Light Rain Showers,18.0,18.0,29.79,1009.9,,,,95,80,,,,,,.04 IN,,,,8/8 Overcast,2500.0,,FEW,1000.0,BKN,2500.0,OVC,6900.0,,
KRDR,08-07-2009,18:47,SPECI,,,0.0,,,9999.0,Thunderstorm with Rain or Snow/Light Rain Showers,19.0,18.0,29.82,1009.8,,,,95,80,,,,,,,,,,7/8 Mostly Cloudy,2500.0,,BKN,2500.0,,,,,,
KRDR,08-07-2009,18:39,SPECI,,,4.0,,,6400.0,Rain/Thunderstorm/Mist,18.0,18.0,29.79,1009.8,,,,17,61,10,,,,,,,,,7/8 Mostly Cloudy,2900.0,,BKN,2900.0,,,,,,
KRDR,08-07-2009,18:00,METAR,,150,9.0,,,8000.0,Thunderstorm with Rain or Snow/Light Rain Showers/Mist,19.0,18.0,29.86,1012.1,,,,95,80,10,,,,,.05 IN,,.05 IN,,8/8 Overcast,2100.0,,OVC,2100.0,,,,,,
KRDR,08-07-2009,17:24,SPECI,,140,5.0,,,9999.0,Thunderstorm with Rain or Snow/Light Rain Showers,19.0,17.0,29.84,,,,,95,80,,,,,,,,,,8/8 Overcast,2000.0,,OVC,2000.0,,,,,,
KRDR,08-07-2009,17:00,METAR,,170,11.0,,,9999.0,Drizzle,20.0,17.0,29.85,1011.9,,,,51,,,,,,,TRACE,,,,8/8 Overcast,2000.0,,OVC,2000.0,,,,,,
KRDR,08-07-2009,16:44,SPECI,,170,10.0,,,9999.0,Drizzle,20.0,17.0,29.84,1011.5,,,,51,,,,,,,,,,,8/8 Overcast,2000.0,,OVC,2000.0,,,,,,
KRDR,08-07-2009,16:00,METAR,,140,8.0,,,9999.0,,20.0,16.0,29.82,1011.0,,,,,,,,,,,,,,,7/8 Mostly Cloudy,2500.0,,BKN,2500.0,,,,,,
KRDR,08-07-2009,15:00,METAR,,130,10.0,,,9999.0,,21.0,16.0,29.83,1011.2,,,,,,,,,,,,,,,7/8 Mostly Cloudy,2400.0,,BKN,2400.0,,,,,,
KRDR,08-07-2009,14:06,SPECI,,130,8.0,,,9999.0,,18.0,14.0,29.84,1011.7,,,,,,,,,,,,,,,4/8 Partly Cloudy,72000.0,,SCT,2300.0,,,,,,
KRDR,08-07-2009,14:00,METAR,,120,9.0,,,9999.0,,18.0,14.0,29.85,1012.0,,,,,,,,,,,,,,,7/8 Mostly Cloudy,2000.0,,BKN,3000.0,,,,,,
KRDR,08-07-2009,13:00,METAR,,120,9.0,,,9999.0,,16.0,14.0,29.86,1012.2,,,,,,,,,,,,,,,7/8 Mostly Cloudy,9000.0,,BKN,8900.0,,,,,,
KRDR,08-07-2009,12:00,METAR,,110,5.0,,,9999.0,,16.0,14.0,29.87,1012.6,,,,,,,,,,,TRACE,,.02 IN,.02 IN,7/8 Mostly Cloudy,9000.0,,BKN,8900.0,,,,,,
KRDR,08-07-2009,11:19,SPECI,,120,5.0,,,9999.0,,16.0,14.0,29.87,1012.6,,,,,,,,,,,,,,,2/8 Mostly Clear,72000.0,,FEW,8900.0,,,,,,
KRDR,08-07-2009,11:00,SPECI,,110,5.0,,,9999.0,,16.0,14.0,29.88,1012.9,,,,,,,,,,,,,,,4/8 Partly Cloudy,72000.0,,SCT,8400.0,,,,,,
KRDR,08-07-2009,11:00,METAR,,110,5.0,,,9999.0,,16.0,14.0,29.88,1012.9,,,,,,,,,,,,,,,2/8 Mostly Clear,72000.0,,FEW,7900.0,,,,,,
KRDR,08-07-2009,10:00,METAR,,120,6.0,,,9999.0,,16.0,14.0,29.91,1013.9,,,,,,,,,,,,,,,4/8 Partly Cloudy,72000.0,,SCT,6900.0,,,,,,
KRDR,08-07-2009,09:00,METAR,,130,7.0,,,9999.0,,16.0,14.0,29.92,1014.4,,,,,,,,,,,.02 IN,.02 IN,,,Clear,72000.0,,,73000.0,,,,,,
KRDR,08-07-2009,08:39,SPECI,,130,6.0,,,9999.0,,16.0,14.0,29.94,1014.8,,,,,,,,,,,,,,,Clear,72000.0,,,73000.0,,,,,,
KRDR,08-07-2009,08:00,METAR,,140,8.0,,,9999.0,,17.0,13.0,29.95,1015.3,,,,,,,,,,,TRACE,,,,7/8 Mostly Cloudy,9500.0,,BKN,9400.0,,,,,,
KRDR,08-07-2009,07:36,SPECI,,130,6.0,,,9999.0,,17.0,13.0,29.96,1015.6,,,,,,,,,,,,,,,4/8 Partly Cloudy,72000.0,,SCT,9900.0,,,,,,
KRDR,08-07-2009,07:00,METAR,,130,6.0,,,9999.0,,17.0,13.0,29.97,1016.0,,,,,,,,,,,,,,,7/8 Mostly Cloudy,6500.0,,BKN,6400.0,,,,,,
KRDR,08-07-2009,06:00,METAR,,130,7.0,,,9999.0,,17.0,13.0,29.98,1016.1,,,,,,,,,,,,,,,7/8 Mostly Cloudy,6500.0,,BKN,6400.0,,,,,,
KRDR,08-07-2009,05:00,METAR,,130,5.0,,,9999.0,,18.0,13.0,29.99,1016.5,,,,,,,,,,,,,,,4/8 Partly Cloudy,72000.0,,SCT,5400.0,,,,,,
KRDR,08-07-2009,04:00,METAR,,120,6.0,,,9999.0,,18.0,13.0,30.00,1016.7,,,,,,,,,,,,,,,4/8 Partly Cloudy,72000.0,,SCT,5900.0,,,,,,
KRDR,08-07-2009,03:00,METAR,,120,7.0,,,9999.0,,19.0,12.0,30.00,1016.9,,,,,,,,,,,,,,,7/8 Mostly Cloudy,20000.0,,FEW,6400.0,SCT,12000.0,BKN,20000.0,,
KRDR,08-07-2009,02:00,METAR,,120,6.0,,,9999.0,,20.0,12.0,30.00,1016.9,,,,,,,,,,,,,,,7/8 Mostly Cloudy,20000.0,,FEW,5900.0,SCT,12000.0,BKN,20000.0,,
KRDR,08-07-2009,01:00,METAR,,110,5.0,,,9999.0,,21.0,12.0,30.01,1017.2,,,,,,,,,,,,,,,7/8 Mostly Cloudy,20000.0,,FEW,5400.0,SCT,12000.0,BKN,20000.0,,
KRDR,08-07-2009,00:00,METAR,,130,8.0,,,9999.0,,22.0,11.0,30.02,1017.6,,,,,,,,,,,,,,,7/8 Mostly Cloudy,20000.0,,FEW,5000.0,BKN,20000.0,,,,
KRDR,08-06-2009,23:00,METAR,,150,8.0,,,9999.0,,23.0,11.0,30.04,1018.3,,,,,,,,,,,,,,,7/8 Mostly Cloudy,20000.0,,FEW,5400.0,BKN,20000.0,,,,
KRDR,08-06-2009,22:00,METAR,,130,7.0,,,9999.0,,23.0,11.0,30.06,1018.9,,,,,,,,,,,,,,,7/8 Mostly Cloudy,20000.0,,FEW,5400.0,BKN,20000.0,,,,
KRDR,08-06-2009,20:00,METAR,,110,6.0,,,9999.0,,24.0,10.0,30.08,1019.5,,,,,,,,,,,,,,,8/8 Overcast,20000.0,,FEW,5400.0,OVC,20000.0,,,,
KRDR,08-06-2009,19:00,METAR,,140,6.0,,,9999.0,,23.0,9.0,30.09,1019.8,,,,,,,,,,,,,,,8/8 Overcast,20000.0,,FEW,4000.0,OVC,20000.0,,,,
KRDR,08-06-2009,18:00,METAR,,160,5.0,,,9999.0,,23.0,10.0,30.11,1020.4,,,,,,,,,,,,,,,7/8 Mostly Cloudy,20000.0,,FEW,4000.0,BKN,20000.0,,,,
KRDR,08-06-2009,17:00,METAR,,,5.0,,,9999.0,,21.0,11.0,30.13,1021.3,,,,,,,,,,,,,,,7/8 Mostly Cloudy,20000.0,,FEW,4000.0,BKN,20000.0,,,,
KRDR,08-06-2009,16:00,METAR,,150,6.0,,,9999.0,,20.0,11.0,30.15,1022.0,,,,,,,,,,,,,,,4/8 Partly Cloudy,72000.0,,SCT,20000.0,,,,,,
KRDR,08-06-2009,15:00,METAR,,,3.0,,,9999.0,,18.0,11.0,30.14,1021.7,,,,,,,,,,,,,,,4/8 Partly Cloudy,72000.0,,SCT,20000.0,,,,,,
KRDR,08-06-2009,14:00,METAR,,70,3.0,,,9999.0,,15.0,10.0,30.13,1021.5,,,,,,,,,,,,,,,4/8 Partly Cloudy,72000.0,,SCT,20000.0,,,,,,
KRDR,08-06-2009,13:00,METAR,,,0.0,,,9999.0,,11.0,10.0,30.15,1022.0,,,,,,,,,,,,,,,2/8 Mostly Clear,72000.0,,FEW,20000.0,,,,,,
KRDR,08-06-2009,12:00,METAR,,,0.0,,,9999.0,,7.0,6.0,30.14,1021.8,,,,,,,,,,,,,,,4/8 Partly Cloudy,72000.0,,SCT,20000.0,,,,,,
KRDR,08-06-2009,11:00,METAR,,270,2.0,,,9999.0,,7.0,6.0,30.14,1021.7,,,,,,,,,,,,,,,2/8 Mostly Clear,72000.0,,FEW,12000.0,FEW,20000.0,,,,
KRDR,08-06-2009,10:00,METAR,,260,3.0,,,9999.0,,7.0,6.0,30.14,1021.5,,,,,,,,,,,,,,,Clear,72000.0,,,73000.0,,,,,,
KRDR,08-06-2009,09:00,METAR,,,0.0,,,9999.0,,7.0,6.0,30.14,1021.3,,,,,,,,,,,,,,,Clear,72000.0,,,73000.0,,,,,,
KRDR,08-06-2009,08:00,METAR,,260,4.0,,,9999.0,,9.0,8.0,30.14,1021.5,,,,,,,,,,,,,,,Clear,72000.0,,,73000.0,,,,,,
KRDR,08-06-2009,07:00,METAR,,,0.0,,,9999.0,,10.0,8.0,30.14,1021.4,,,,,,,,,,,,,,,Clear,72000.0,,,73000.0,,,,,,
KRDR,08-06-2009,06:00,METAR,,270,3.0,,,9999.0,,10.0,8.0,30.14,1021.6,,,,,,,,,,,,,,,Clear,72000.0,,,73000.0,,,,,,
KRDR,08-06-2009,05:00,METAR,,,0.0,,,9999.0,,11.0,9.0,30.14,1021.5,,,,,,,,,,,,,,,Clear,72000.0,,,73000.0,,,,,,
KRDR,08-06-2009,04:00,METAR,,,0.0,,,9999.0,,12.0,9.0,30.12,1020.9,,,,,,,,,,,,,,,7/8 Mostly Cloudy,25000.0,,BKN,25000.0,,,,,,
KRDR,08-06-2009,03:00,METAR,,290,5.0,,,9999.0,,13.0,10.0,30.12,1020.9,,,,,,,,,,,,,,,4/8 Partly Cloudy,72000.0,,SCT,25000.0,,,,,,
KRDR,08-06-2009,02:00,METAR,,320,3.0,,,9999.0,,17.0,12.0,30.11,1020.3,,,,,,,,,,,,,,,2/8 Mostly Clear,72000.0,,FEW,25000.0,,,,,,
KRDR,08-06-2009,01:00,METAR,,320,3.0,,,9999.0,,21.0,11.0,30.11,1020.4,,,,,,,,,,,,,,,2/8 Mostly Clear,72000.0,,FEW,6900.0,FEW,25000.0,,,,
KRDR,08-06-2009,00:00,METAR,,310,6.0,,,9999.0,,22.0,11.0,30.11,1020.6,,,,,,,,,,,,,,,4/8 Partly Cloudy,72000.0,,FEW,7400.0,SCT,25000.0,,,,
KRDR,08-05-2009,23:00,METAR,,300,10.0,16.0,,9999.0,,23.0,10.0,30.11,1020.6,,,,,,,,,,,,,,,7/8 Mostly Cloudy,7500.0,,BKN,7400.0,BKN,25000.0,,,,
KRDR,08-05-2009,22:00,METAR,,300,6.0,,,9999.0,,23.0,10.0,30.12,1020.8,,,,,,,,,,,,,,,7/8 Mostly Cloudy,25000.0,,SCT,5900.0,BKN,25000.0,,,,
KRDR,08-05-2009,21:00,METAR,,300,7.0,,,9999.0,,22.0,10.0,30.14,1021.4,,,,,,,,,,,,,,,7/8 Mostly Cloudy,9000.0,,BKN,8900.0,BKN,25000.0,,,,
KRDR,08-05-2009,20:00,METAR,,320,7.0,,,9999.0,,22.0,10.0,30.14,1021.6,,,,,,,,,,,,,,,2/8 Mostly Clear,72000.0,,FEW,7400.0,,,,,,
KRDR,08-05-2009,19:00,METAR,,320,5.0,,,9999.0,,21.0,10.0,30.14,1021.9,,,,,,,,,,,,,,,7/8 Mostly Cloudy,8000.0,,FEW,3000.0,BKN,7900.0,,,,
KRDR,08-05-2009,18:00,METAR,,340,6.0,,,9999.0,,20.0,10.0,30.14,1021.9,,,,,,,,,,,,,,,8/8 Overcast,7000.0,,FEW,3000.0,BKN,6900.0,OVC,9900.0,,
KRDR,08-05-2009,17:00,METAR,,330,5.0,,,9999.0,,20.0,11.0,30.14,1021.9,,,,,,,,,,,,,,,8/8 Overcast,7500.0,,BKN,7400.0,OVC,9900.0,,,,
KRDR,08-05-2009,16:00,METAR,,320,5.0,,,9999.0,,20.0,11.0,30.14,1021.6,,,,,,,,,,,,,,,8/8 Overcast,10000.0,,BKN,9900.0,OVC,20000.0,,,,
KRDR,08-05-2009,15:00,METAR,,300,5.0,,,9999.0,,18.0,12.0,30.13,1021.6,,,,,,,,,,,,,,,8/8 Overcast,10000.0,,FEW,6900.0,BKN,9900.0,OVC,20000.0,,
KRDR,08-05-2009,14:00,METAR,,270,2.0,,,9999.0,,16.0,12.0,30.12,1021.2,,,,,,,,,,,,,,,8/8 Overcast,9500.0,,FEW,6900.0,BKN,9400.0,OVC,11000.0,,
KRDR,08-05-2009,13:00,METAR,,350,1.0,,,9999.0,,13.0,12.0,30.12,1021.1,,,,,,,,,,,,,,,8/8 Overcast,9000.0,,BKN,8900.0,OVC,9900.0,,,,
KRDR,08-05-2009,12:00,METAR,,170,3.0,,,9999.0,,13.0,11.0,30.11,1020.4,,,,,,,,,,,,,,,8/8 Overcast,10000.0,,FEW,9400.0,OVC,9900.0,,,,
KRDR,08-05-2009,11:00,METAR,,,0.0,,,9999.0,,11.0,10.0,30.10,1020.1,,,,,,,,,,,,,,,7/8 Mostly Cloudy,10000.0,,BKN,9900.0,,,,,,
KRDR,08-05-2009,10:00,METAR,,,0.0,,,9999.0,,11.0,9.0,30.09,1019.8,,,,,,,,,,,,,,,7/8 Mostly Cloudy,11000.0,,BKN,11000.0,,,,,,
KRDR,08-05-2009,09:00,METAR,,260,4.0,,,9999.0,,11.0,10.0,30.10,1020.0,,,,,,,,,,,,,,,4/8 Partly Cloudy,72000.0,,SCT,9400.0,,,,,,
KRDR,08-05-2009,08:00,METAR,,220,3.0,,,9999.0,,13.0,10.0,30.08,1019.6,,,,,,,,,,,,,,,4/8 Partly Cloudy,72000.0,,SCT,9900.0,,,,,,
KRDR,08-05-2009,07:00,METAR,,,0.0,,,9999.0,,14.0,11.0,30.08,1019.5,,,,,,,,,,,,,,,7/8 Mostly Cloudy,10000.0,,BKN,9900.0,,,,,,
KRDR,08-05-2009,06:00,METAR,,,0.0,,,9999.0,,13.0,11.0,30.10,1020.3,,,,,,,,,,,,,,,8/8 Overcast,9500.0,,OVC,9400.0,,,,,,
KRDR,08-05-2009,05:00,METAR,,210,3.0,,,9999.0,,12.0,10.0,30.09,1019.9,,,,,,,,,,,,,,,8/8 Overcast,11000.0,,OVC,11000.0,,,,,,
KRDR,08-05-2009,04:00,METAR,,260,3.0,,,9999.0,,12.0,10.0,30.09,1019.9,,,,,,,,,,,,,,,2/8 Mostly Clear,72000.0,,FEW,5000.0,FEW,9900.0,,,,
KRDR,08-05-2009,03:00,METAR,,,0.0,,,9999.0,,13.0,10.0,30.08,1019.4,,,,,,,,,,,,,,,4/8 Partly Cloudy,72000.0,,FEW,5000.0,SCT,25000.0,,,,
KRDR,08-05-2009,02:00,METAR,,60,4.0,,,9999.0,,18.0,10.0,30.06,1018.7,,,,,,,,,,,,,,,2/8 Mostly Clear,72000.0,,FEW,6400.0,FEW,25000.0,,,,
KRDR,08-05-2009,01:00,METAR,,360,4.0,,,9999.0,,20.0,10.0,30.06,1018.7,,,,,,,,,,,,,,,2/8 Mostly Clear,72000.0,,FEW,6400.0,FEW,25000.0,,,,
KRDR,08-05-2009,00:00,METAR,,10,7.0,,,9999.0,,21.0,10.0,30.05,1018.5,,,,,,,,,,,,,,,4/8 Partly Cloudy,72000.0,,FEW,5900.0,SCT,25000.0,,,,
KRDR,08-04-2009,23:00,METAR,,10,9.0,,,9999.0,,22.0,10.0,30.05,1018.6,,,,,,,,,,,,,,,4/8 Partly Cloudy,72000.0,,FEW,5400.0,SCT,25000.0,,,,
KRDR,08-04-2009,22:00,METAR,,330,7.0,,,9999.0,,22.0,9.0,30.06,1018.7,,,,,,,,,,,,,,,7/8 Mostly Cloudy,25000.0,,SCT,5400.0,BKN,25000.0,,,,
KRDR,08-04-2009,21:00,METAR,,340,6.0,,,9999.0,,22.0,10.0,30.05,1018.6,,,,,,,,,,,,,,,7/8 Mostly Cloudy,4900.0,,BKN,5000.0,BKN,25000.0,,,,
KRDR,08-04-2009,20:00,METAR,,360,6.0,,,9999.0,,21.0,10.0,30.06,1018.8,,,,,,,,,,,,,,,7/8 Mostly Cloudy,4900.0,,BKN,5000.0,BKN,25000.0,,,,
KRDR,08-04-2009,19:00,METAR,,300,6.0,,,9999.0,,21.0,10.0,30.07,1019.1,,,,,,,,,,,,,,,7/8 Mostly Cloudy,4900.0,,BKN,5000.0,,,,,,
KRDR,08-04-2009,18:00,METAR,,,6.0,,,9999.0,,20.0,10.0,30.07,1019.1,,,,,,,,,,,,,,,7/8 Mostly Cloudy,3900.0,,BKN,4000.0,BKN,20000.0,,,,
KRDR,08-04-2009,17:00,METAR,,330,7.0,,,9999.0,,20.0,10.0,30.07,1019.1,,,,,,,,,,,,,,,4/8 Partly Cloudy,72000.0,,SCT,4000.0,SCT,20000.0,,,,
KRDR,08-04-2009,16:00,METAR,,330,9.0,,,9999.0,,19.0,10.0,30.06,1018.7,,,,,,,,,,,,,,,4/8 Partly Cloudy,72000.0,,SCT,4000.0,SCT,20000.0,,,,
KRDR,08-04-2009,15:00,METAR,,350,8.0,,,9999.0,,17.0,11.0,30.05,1018.6,,,,,,,,,,,,,,,4/8 Partly Cloudy,72000.0,,FEW,3000.0,SCT,20000.0,,,,
KRDR,08-04-2009,14:00,METAR,,340,7.0,,,9999.0,,15.0,11.0,30.05,1018.4,,,,,,,,,,,,,,,2/8 Mostly Clear,72000.0,,FEW,20000.0,,,,,,
KRDR,08-04-2009,13:00,METAR,,310,5.0,,,9999.0,,13.0,10.0,30.04,1018.1,,,,,,,,,,,,,,,2/8 Mostly Clear,72000.0,,FEW,20000.0,,,,,,
KRDR,08-04-2009,12:00,METAR,,310,3.0,,,9999.0,,9.0,8.0,30.02,1017.7,,,,,,,,,,,,,,,4/8 Partly Cloudy,72000.0,,FEW,5900.0,SCT,20000.0,,,,
KRDR,08-04-2009,11:00,METAR,,300,5.0,,,9999.0,,9.0,8.0,30.01,1017.1,,,,,,,,,,,,,,,2/8 Mostly Clear,72000.0,,FEW,20000.0,,,,,,
KRDR,08-04-2009,10:00,METAR,,320,7.0,,,9999.0,,10.0,9.0,29.99,1016.5,,,,,,,,,,,,,,,Clear,72000.0,,,73000.0,,,,,,
KRDR,08-04-2009,09:00,METAR,,320,7.0,,,9999.0,,11.0,9.0,29.98,1016.2,,,,,,,,,,,,,,,Clear,72000.0,,,73000.0,,,,,,
KRDR,08-04-2009,08:00,METAR,,310,6.0,,,9999.0,,10.0,9.0,29.96,1015.5,,,,,,,,,,,,,,,Clear,72000.0,,,73000.0,,,,,,
KRDR,08-04-2009,07:00,METAR,,320,6.0,,,9999.0,,11.0,9.0,29.95,1015.3,,,,,,,,,,,,,,,Clear,72000.0,,,73000.0,,,,,,
KRDR,08-04-2009,06:00,METAR,,320,5.0,,,9999.0,,11.0,9.0,29.95,1015.3,,,,,,,,,,,,,,,Clear,72000.0,,,73000.0,,,,,,
KRDR,08-04-2009,05:00,METAR,,320,5.0,,,9999.0,,12.0,10.0,29.93,1014.4,,,,,,,,,,,,,,,Clear,72000.0,,,73000.0,,,,,,
KRDR,08-04-2009,04:00,METAR,,340,6.0,,,9999.0,,13.0,10.0,29.91,1013.8,,,,,,,,,,,,,,,Clear,72000.0,,,73000.0,,,,,,
KRDR,08-04-2009,02:00,METAR,,330,8.0,,,9999.0,,17.0,11.0,29.85,1011.9,,,,,,,,,,,,,,,2/8 Mostly Clear,72000.0,,FEW,4800.0,,,,,,
KRDR,08-04-2009,01:00,METAR,,330,10.0,20.0,,9999.0,,19.0,10.0,29.83,1011.2,,,,,,,,,,,,,,,2/8 Mostly Clear,72000.0,,FEW,4800.0,FEW,25000.0,,,,
KRDR,08-04-2009,00:00,METAR,,310,12.0,19.0,,9999.0,,19.0,11.0,29.81,1010.7,,,,,,,,,,,TRACE,,TRACE,,7/8 Mostly Cloudy,25000.0,,FEW,4000.0,BKN,25000.0,,,,
KRDR,08-03-2009,23:00,METAR,,330,14.0,,,9999.0,,18.0,11.0,29.80,1010.4,,,,,,,,,,,TRACE,,,,7/8 Mostly Cloudy,25000.0,,FEW,4000.0,SCT,11000.0,BKN,25000.0,,
KRDR,08-03-2009,22:25,SPECI,,320,10.0,18.0,,9999.0,Rain,19.0,10.0,29.79,1009.9,,,,61,,,,,,,,,,,8/8 Overcast,10000.0,,SCT,4000.0,BKN,9900.0,OVC,25000.0,,
KRDR,08-03-2009,22:00,METAR,,320,15.0,20.0,,9999.0,,21.0,11.0,29.77,1009.2,,,,,,,,,,,,,,,8/8 Overcast,25000.0,,FEW,9900.0,OVC,25000.0,,,,
KRDR,08-03-2009,21:00,METAR,,330,11.0,20.0,,9999.0,,20.0,11.0,29.76,1009.0,,,,,,,,,,,,,,,7/8 Mostly Cloudy,11000.0,,FEW,5000.0,BKN,11000.0,,,,
KRDR,08-03-2009,20:00,METAR,,340,15.0,22.0,,9999.0,,23.0,12.0,29.73,1007.8,,,,,,,,,,,,,,,7/8 Mostly Cloudy,25000.0,,SCT,5000.0,BKN,25000.0,,,,
KRDR,08-03-2009,19:00,METAR,,320,16.0,23.0,,9999.0,,25.0,14.0,29.69,1006.7,,,,,,,,,,,,,,,7/8 Mostly Cloudy,25000.0,,FEW,3000.0,SCT,5000.0,BKN,25000.0,,
KRDR,08-03-2009,18:00,METAR,,320,15.0,20.0,,9999.0,,24.0,15.0,29.69,1006.7,,,,,,,,,,,,,,,7/8 Mostly Cloudy,25000.0,,FEW,3000.0,SCT,5000.0,BKN,25000.0,,
KRDR,08-03-2009,17:00,METAR,,300,15.0,22.0,,9999.0,,25.0,16.0,29.66,1005.6,,,,,,,,,,,,,,,7/8 Mostly Cloudy,25000.0,,FEW,3000.0,SCT,7900.0,BKN,25000.0,,
KRDR,08-03-2009,16:00,METAR,,290,14.0,23.0,,9999.0,,24.0,15.0,29.66,1005.5,,,,,,,,,,,,,,,7/8 Mostly Cloudy,25000.0,,SCT,7900.0,BKN,25000.0,,,,
KRDR,08-03-2009,15:00,METAR,,240,9.0,,,9999.0,,20.0,16.0,29.67,1005.8,,,,,,,,,,,,,,,7/8 Mostly Cloudy,25000.0,,SCT,7900.0,BKN,25000.0,,,,
KRDR,08-03-2009,14:00,METAR,,220,6.0,,,9999.0,,16.0,14.0,29.68,1006.3,,,,,,,,,,,,,,,7/8 Mostly Cloudy,25000.0,,SCT,7900.0,BKN,25000.0,,,,
KRDR,08-03-2009,13:00,METAR,,220,8.0,,,9999.0,,14.0,13.0,29.69,1006.8,,,,,,,,,,,,,,,4/8 Partly Cloudy,72000.0,,FEW,8900.0,SCT,25000.0,,,,
KRDR,08-03-2009,12:00,METAR,,210,6.0,,,9999.0,,12.0,11.0,29.70,1007.0,,,,,,,,,,,,,,,2/8 Mostly Clear,72000.0,,FEW,25000.0,,,,,,
KRDR,08-03-2009,11:00,METAR,,210,6.0,,,9999.0,,11.0,11.0,29.70,1006.8,,,,,,,,,,,,,,,2/8 Mostly Clear,72000.0,,FEW,25000.0,,,,,,
KRDR,08-03-2009,10:00,METAR,,230,3.0,,,9999.0,,10.0,10.0,29.70,1006.9,,,,,,,,,,,,,,,Clear,72000.0,,,73000.0,,,,,,
KRDR,08-03-2009,09:00,METAR,,260,4.0,,,9999.0,,11.0,11.0,29.70,1006.9,,,,,,,,,,,,,,,Clear,72000.0,,,73000.0,,,,,,
KRDR,08-03-2009,08:00,METAR,,270,4.0,,,9999.0,,11.0,11.0,29.70,1007.1,,,,,,,,,,,,,,,Clear,72000.0,,,73000.0,,,,,,
KRDR,08-03-2009,07:00,METAR,,280,3.0,,,9999.0,,12.0,11.0,29.71,1007.3,,,,,,,,,,,,,,,Clear,72000.0,,,73000.0,,,,,,
KRDR,08-03-2009,06:00,METAR,,290,3.0,,,9999.0,,12.0,11.0,29.71,1007.3,,,,,,,,,,,,,,,Clear,72000.0,,,73000.0,,,,,,
KRDR,08-03-2009,05:00,METAR,,330,6.0,,,9999.0,,14.0,13.0,29.72,1007.5,,,,,,,,,,,,,,,Clear,72000.0,,,73000.0,,,,,,
KRDR,08-03-2009,04:00,METAR,,320,6.0,,,9999.0,,14.0,13.0,29.72,1007.5,,,,,,,,,,,,,,,Clear,72000.0,,,73000.0,,,,,,
KRDR,08-03-2009,03:00,METAR,,300,4.0,,,9999.0,,14.0,14.0,29.71,1007.3,,,,,,,,,,,,,,,Clear,72000.0,,,73000.0,,,,,,
KRDR,08-03-2009,02:00,METAR,,,0.0,,,9999.0,,16.0,14.0,29.69,1006.7,,,,,,,,,,,,,,,Clear,72000.0,,,73000.0,,,,,,
KRDR,08-03-2009,01:00,METAR,,40,6.0,,,9999.0,,19.0,14.0,29.68,1006.4,,,,,,,,,,,,,,,Clear,72000.0,,,73000.0,,,,,,
KRDR,08-03-2009,00:00,METAR,,20,8.0,,,9999.0,,20.0,15.0,29.68,1006.4,,,,,,,,,,,,,TRACE,,2/8 Mostly Clear,72000.0,,FEW,12000.0,,,,,,
KRDR,08-02-2009,23:00,METAR,,50,7.0,,,9999.0,,20.0,15.0,29.67,1005.8,,,,,,,,,,,,,,,Clear,72000.0,,,73000.0,,,,,,
KRDR,08-02-2009,22:00,METAR,,60,6.0,,,9999.0,,20.0,14.0,29.66,1005.7,,,,,,,,,,,,,,,7/8 Mostly Cloudy,3100.0,,BKN,3100.0,,,,,,
KRDR,08-02-2009,21:46,SPECI,,50,3.0,,,9999.0,,20.0,14.0,29.66,1005.7,,,,,,,,,,,,,,,4/8 Partly Cloudy,72000.0,,SCT,2900.0,,,,,,
KRDR,08-02-2009,21:43,SPECI,,,0.0,,,9999.0,,20.0,13.0,29.66,1005.8,,,,,,,,,,,,,,,7/8 Mostly Cloudy,2500.0,,BKN,2900.0,,,,,,
KRDR,08-02-2009,21:00,METAR,,,0.0,,,9999.0,,20.0,14.0,29.65,1005.4,,,,,,,,,,,,TRACE,,,Clear,72000.0,,,73000.0,,,,,,
KRDR,08-02-2009,20:00,METAR,,,0.0,,,9999.0,,19.0,14.0,29.64,1005.1,,,,,,,,,,,,,,,Clear,72000.0,,,73000.0,,,,,,
KRDR,08-02-2009,19:00,METAR,,160,6.0,,,9999.0,,19.0,14.0,29.63,1004.5,,,,,,,,,,,TRACE,,,,Clear,72000.0,,,73000.0,,,,,,
KRDR,08-02-2009,18:00,SPECI,,140,8.0,,,9999.0,,17.0,14.0,29.65,1005.3,,,,,,,,,,,,,,,Clear,72000.0,,,73000.0,,,,,,
KRDR,08-02-2009,18:00,METAR,,150,6.0,,,9999.0,,16.0,14.0,29.66,1005.5,,,,,,,,,,,TRACE,,TRACE,,Clear,72000.0,,,73000.0,,,,,,
KRDR,08-02-2009,17:36,SPECI,,190,8.0,,,9999.0,,16.0,13.0,29.67,1006.1,,,,,,,,,,,,,,,Clear,72000.0,,,73000.0,,,,,,
KRDR,08-02-2009,17:21,SPECI,,220,7.0,,,9999.0,,16.0,13.0,29.70,1006.9,,,,,,,,,,,,,,,2/8 Mostly Clear,72000.0,,FEW,8900.0,,,,,,
KRDR,08-02-2009,17:00,METAR,,170,8.0,,,9999.0,Unknown Precipitation,15.0,13.0,29.68,1006.2,40,,,,,,,,,,,,,,2/8 Mostly Clear,72000.0,,FEW,9900.0,,,,,,
KRDR,08-02-2009,16:00,METAR,,140,7.0,,,9999.0,,15.0,13.0,29.68,1006.3,,,,,,,,,,,TRACE,,,,4/8 Partly Cloudy,72000.0,,SCT,9900.0,,,,,,
KRDR,08-02-2009,15:21,SPECI,,130,4.0,,,9999.0,,15.0,13.0,29.70,1006.8,,,,,,,,,,,,,,,2/8 Mostly Clear,72000.0,,FEW,9900.0,,,,,,
KRDR,08-02-2009,15:00,METAR,,120,7.0,,,9999.0,,15.0,12.0,29.69,1006.7,,,,,,,,,,,TRACE,TRACE,,,2/8 Mostly Clear,72000.0,,FEW,9400.0,,,,,,
KRDR,08-02-2009,14:00,METAR,,100,5.0,,,9999.0,,15.0,12.0,29.71,1007.2,,,,,,,,,,,TRACE,,,,Clear,72000.0,,,73000.0,,,,,,
KRDR,08-02-2009,13:40,SPECI,,120,6.0,,,9999.0,,15.0,12.0,29.71,1007.4,,,,,,,,,,,,,,,Clear,72000.0,,,73000.0,,,,,,
KRDR,08-02-2009,13:00,METAR,,140,4.0,,,9999.0,,14.0,12.0,29.72,1007.6,,,,,,,,,,,,,,,4/8 Partly Cloudy,72000.0,,SCT,9900.0,,,,,,
KRDR,08-02-2009,12:00,METAR,,130,3.0,,,9999.0,,14.0,11.0,29.73,1008.1,,,,,,,,,,,,,,,8/8 Overcast,8500.0,,OVC,8400.0,,,,,,
KRDR,08-02-2009,11:00,METAR,,,0.0,,,9999.0,,14.0,11.0,29.73,1007.9,,,,,,,,,,,,,,,7/8 Mostly Cloudy,9500.0,,BKN,9400.0,,,,,,
KRDR,08-02-2009,10:00,METAR,,210,4.0,,,9999.0,,13.0,11.0,29.75,1008.6,,,,,,,,,,,,,,,7/8 Mostly Cloudy,9000.0,,BKN,8900.0,,,,,,
KRDR,08-02-2009,09:00,METAR,,190,4.0,,,9999.0,,12.0,11.0,29.75,1008.8,,,,,,,,,,,,,,,2/8 Mostly Clear,72000.0,,FEW,11000.0,,,,,,
KRDR,08-02-2009,08:00,METAR,,200,3.0,,,9999.0,,13.0,10.0,29.77,1009.3,,,,,,,,,,,,,,,7/8 Mostly Cloudy,8500.0,,BKN,8400.0,,,,,,
KRDR,08-02-2009,07:00,METAR,,210,3.0,,,9999.0,,12.0,10.0,29.79,1009.8,,,,,,,,,,,,,,,Clear,72000.0,,,73000.0,,,,,,
KRDR,08-02-2009,06:00,METAR,,200,5.0,,,9999.0,,12.0,10.0,29.80,1010.3,,,,,,,,,,,,,,,Clear,72000.0,,,73000.0,,,,,,
KRDR,08-02-2009,05:00,METAR,,,0.0,,,9999.0,,11.0,9.0,29.81,1010.6,,,,,,,,,,,,,,,Clear,72000.0,,,73000.0,,,,,,
KRDR,08-02-2009,04:00,METAR,,,0.0,,,9999.0,,12.0,10.0,29.83,1011.1,,,,,,,,,,,,,,,Clear,72000.0,,,73000.0,,,,,,
KRDR,08-02-2009,03:00,METAR,,190,3.0,,,9999.0,,14.0,11.0,29.83,1011.3,,,,,,,,,,,,,,,2/8 Mostly Clear,72000.0,,FEW,8400.0,,,,,,
KRDR,08-02-2009,02:00,METAR,,,0.0,,,9999.0,,17.0,11.0,29.84,1011.4,,,,,,,,,,,,,,,2/8 Mostly Clear,72000.0,,FEW,7900.0,,,,,,
KRDR,08-02-2009,01:00,METAR,,330,3.0,,,9999.0,,20.0,11.0,29.84,1011.5,,,,,,,,,,,,,,,2/8 Mostly Clear,72000.0,,FEW,6400.0,,,,,,
KRDR,08-02-2009,00:00,METAR,,340,9.0,,,9999.0,,20.0,9.0,29.85,1011.7,,,,,,,,,,,,,,,Clear,72000.0,,,73000.0,,,,,,
KRDR,08-01-2009,23:00,METAR,,340,11.0,,,9999.0,,21.0,9.0,29.84,1011.5,,,,,,,,,,,,,,,Clear,72000.0,,,73000.0,,,,,,
KRDR,08-01-2009,22:00,METAR,,340,17.0,22.0,,9999.0,,22.0,9.0,29.84,1011.6,,,,,,,,,,,,,,,Clear,72000.0,,,73000.0,,,,,,
KRDR,08-01-2009,21:00,METAR,,330,15.0,19.0,,9999.0,,21.0,8.0,29.84,1011.7,,,,,,,,,,,,,,,Clear,72000.0,,,73000.0,,,,,,
KRDR,08-01-2009,20:00,METAR,,330,16.0,21.0,,9999.0,,21.0,8.0,29.85,1012.0,,,,,,,,,,,,,,,4/8 Partly Cloudy,72000.0,,SCT,5900.0,,,,,,
KRDR,08-01-2009,19:00,METAR,,330,13.0,24.0,,9999.0,,19.0,8.0,29.86,1012.2,,,,,,,,,,,,,,,2/8 Mostly Clear,72000.0,,FEW,5900.0,,,,,,
KRDR,08-01-2009,18:00,METAR,,320,14.0,23.0,,9999.0,,20.0,8.0,29.86,1012.3,,,,,,,,,,,,,,,2/8 Mostly Clear,72000.0,,FEW,5900.0,,,,,,
KRDR,08-01-2009,17:00,METAR,,330,15.0,25.0,,9999.0,,19.0,8.0,29.88,1012.7,,,,,,,,,,,,,,,2/8 Mostly Clear,72000.0,,FEW,4900.0,,,,,,
KRDR,08-01-2009,16:00,METAR,,330,13.0,18.0,,9999.0,,18.0,9.0,29.88,1012.9,,,,,,,,,,,,,,,Clear,72000.0,,,73000.0,,,,,,
KRDR,08-01-2009,15:00,METAR,,310,12.0,,,9999.0,,16.0,10.0,29.88,1012.8,,,,,,,,,,,,,,,Clear,72000.0,,,73000.0,,,,,,
KRDR,08-01-2009,14:00,METAR,,310,11.0,16.0,,9999.0,,15.0,9.0,29.88,1012.7,,,,,,,,,,,,,,,Clear,72000.0,,,73000.0,,,,,,
KRDR,08-01-2009,13:00,METAR,,310,9.0,,,9999.0,,12.0,9.0,29.87,1012.4,,,,,,,,,,,,,,,Clear,72000.0,,,73000.0,,,,,,
KRDR,08-01-2009,12:00,METAR,,290,7.0,,,9999.0,,10.0,9.0,29.85,1012.0,,,,,,,,,,,,,,.13 IN,Clear,72000.0,,,73000.0,,,,,,
KRDR,08-01-2009,11:00,METAR,,310,9.0,,,9999.0,,11.0,9.0,29.83,1011.4,,,,,,,,,,,,,,,Clear,72000.0,,,73000.0,,,,,,
KRDR,08-01-2009,10:00,METAR,,310,10.0,,,9999.0,,11.0,9.0,29.82,1011.0,,,,,,,,,,,,,,,Clear,72000.0,,,73000.0,,,,,,
KRDR,08-01-2009,09:00,METAR,,310,8.0,,,9999.0,,11.0,10.0,29.81,1010.7,,,,,,,,,,,,,,,Clear,72000.0,,,73000.0,,,,,,
KRDR,08-01-2009,08:00,METAR,,310,9.0,,,9999.0,,12.0,10.0,29.80,1010.3,,,,,,,,,,,,,,,Clear,72000.0,,,73000.0,,,,,,
KRDR,08-01-2009,07:00,METAR,,310,11.0,,,9999.0,,12.0,11.0,29.80,1010.1,,,,,,,,,,,,,,,Clear,72000.0,,,73000.0,,,,,,
KRDR,08-01-2009,06:00,METAR,,330,10.0,,,9999.0,,13.0,11.0,29.80,1010.3,,,,,,,,,,,TRACE,,TRACE,,Clear,72000.0,,,73000.0,,,,,,
KRDR,08-01-2009,05:12,SPECI,,340,13.0,23.0,,9999.0,,14.0,11.0,29.80,1010.1,,,,,,,,,,,,,,,8/8 Overcast,3100.0,,FEW,1800.0,OVC,3100.0,,,,
KRDR,08-01-2009,05:10,SPECI,,340,14.0,23.0,,9999.0,Unknown Precipitation,14.0,11.0,29.79,1010.1,40,,,,,,,,,,,,,,8/8 Overcast,3100.0,,FEW,1800.0,OVC,3100.0,,,,
KRDR,08-01-2009,05:03,SPECI,,340,12.0,18.0,,9999.0,Unknown Precipitation,14.0,12.0,29.79,1009.9,40,,,,,,,,,,,,,,8/8 Overcast,1700.0,,OVC,2400.0,,,,,,
KRDR,08-01-2009,05:00,METAR,,330,13.0,18.0,,9999.0,,14.0,12.0,29.79,1009.8,,,,,,,,,,,,,,,7/8 Mostly Cloudy,2300.0,,BKN,2300.0,,,,,,
KRDR,08-01-2009,04:41,SPECI,,330,10.0,,,9999.0,,13.0,11.0,29.78,1009.7,,,,,,,,,,,,,,,7/8 Mostly Cloudy,1800.0,,BKN,2200.0,,,,,,
KRDR,08-01-2009,04:00,METAR,,340,12.0,18.0,,9999.0,,14.0,11.0,29.77,1009.3,,,,,,,,,,,,,,,7/8 Mostly Cloudy,10000.0,,FEW,1900.0,BKN,9900.0,,,,
KRDR,08-01-2009,03:00,METAR,,340,16.0,20.0,350/32KTS,9999.0,,14.0,11.0,29.73,1008.0,,,,,,,,,,,,,,,7/8 Mostly Cloudy,4900.0,,FEW,1500.0,SCT,2500.0,BKN,5000.0,BKN,9900.0
KRDR,08-01-2009,02:00,METAR,,340,15.0,21.0,,9999.0,,15.0,13.0,29.69,1006.5,,,,,,,,,,,,,,,7/8 Mostly Cloudy,4400.0,,FEW,1500.0,SCT,3500.0,BKN,4500.0,BKN,12000.0
KRDR,08-01-2009,01:21,SPECI,,330,14.0,21.0,,9999.0,,17.0,13.0,29.66,1005.7,,,,,,,,,,,,,,,7/8 Mostly Cloudy,3900.0,,FEW,2000.0,BKN,4000.0,BKN,7900.0,BKN,20000.0
KRDR,08-01-2009,01:00,METAR,,260,5.0,,,9999.0,,18.0,14.0,29.65,1005.2,,,,,,,,,,,,,,,7/8 Mostly Cloudy,12000.0,,FEW,4500.0,SCT,7900.0,BKN,12000.0,BKN,20000.0
KRDR,08-01-2009,00:00,METAR,,240,8.0,,,9999.0,,17.0,14.0,29.67,1006.1,,,,,,,,,,,,,.13 IN,,7/8 Mostly Cloudy,6000.0,,SCT,3500.0,BKN,5900.0,BKN,20000.0,,
KRDR,07-31-2009,23:00,METAR,,210,7.0,,,9999.0,,17.0,14.0,29.68,1006.4,,,,,,,,,,,.04 IN,,,,7/8 Mostly Cloudy,12000.0,,FEW,3500.0,SCT,5900.0,BKN,12000.0,BKN,20000.0
KRDR,07-31-2009,22:06,SPECI,,280,9.0,,,9999.0,Light Rain Showers,16.0,14.0,29.72,1007.5,,,,80,,,,,,,,,,,8/8 Overcast,6500.0,,SCT,2000.0,SCT,3500.0,BKN,6400.0,OVC,12000.0
KRDR,07-31-2009,22:01,SPECI,,280,8.0,,,8000.0,Light Rain Showers/Mist,16.0,14.0,29.72,1007.5,,,,80,10,,,,,,,,,,8/8 Overcast,3400.0,,SCT,2000.0,BKN,3500.0,BKN,6400.0,OVC,9900.0
KRDR,07-31-2009,22:00,METAR,,280,9.0,,,3200.0,Rain Showers/Mist,17.0,14.0,29.71,1007.2,,,,81,10,,,,,,.09 IN,,,,8/8 Overcast,3000.0,,SCT,2000.0,BKN,3000.0,BKN,5900.0,OVC,9900.0
KRDR,07-31-2009,21:50,SPECI,,250,7.0,,,2800.0,Rain Showers/Mist,18.0,14.0,29.70,1006.9,,,,81,10,,,,,,,,,,7/8 Mostly Cloudy,3000.0,,SCT,2500.0,BKN,3000.0,BKN,5900.0,,
KRDR,07-31-2009,21:35,SPECI,,170,6.0,,,9999.0,Light Rain Showers,19.0,13.0,29.70,1006.9,,,,80,,,,,,,,,,,8/8 Overcast,6000.0,,BKN,5900.0,BKN,9900.0,OVC,18000.0,,
KRDR,07-31-2009,21:00,METAR,,,0.0,,,9999.0,,19.0,13.0,29.71,1007.3,,,,,,,,,,,TRACE,TRACE,,,8/8 Overcast,12000.0,,SCT,4000.0,SCT,7900.0,BKN,12000.0,OVC,20000.0
KRDR,07-31-2009,20:39,SPECI,,,0.0,,,9999.0,,19.0,13.0,29.71,1007.4,,,,,,,,,,,,,,,8/8 Overcast,12000.0,,SCT,4000.0,SCT,7900.0,BKN,12000.0,OVC,20000.0
KRDR,07-31-2009,20:00,METAR,,,0.0,,,9999.0,,19.0,14.0,29.72,1007.6,,,,,,,,,,,TRACE,,,,8/8 Overcast,12000.0,,FEW,5000.0,SCT,6900.0,OVC,12000.0,,
KRDR,07-31-2009,19:11,SPECI,,270,5.0,,,9999.0,,19.0,12.0,29.73,1008.0,,,,,,,,,,,,,,,2/8 Mostly Clear,72000.0,,FEW,7400.0,,,,,,
KRDR,07-31-2009,19:00,METAR,,280,7.0,,,9999.0,,20.0,13.0,29.72,1007.6,,,,,,,,,,,TRACE,,,,8/8 Overcast,12000.0,,FEW,5900.0,FEW,7900.0,OVC,12000.0,,
KRDR,07-31-2009,18:32,SPECI,,250,10.0,,,9999.0,,21.0,14.0,29.72,1007.6,,,,,,,,,,,,,,,Clear,72000.0,,,73000.0,,,,,,
KRDR,07-31-2009,18:21,SPECI,,240,7.0,,,9999.0,,21.0,14.0,29.72,1007.5,,,,,,,,,,,,,,,8/8 Overcast,8000.0,,OVC,7900.0,,,,,,
KRDR,07-31-2009,18:00,METAR,,210,5.0,,,9999.0,,20.0,15.0,29.71,1007.1,,,,,,,,,,,,,,,8/8 Overcast,10000.0,,OVC,9900.0,,,,,,
KRDR,07-31-2009,17:00,METAR,,180,9.0,,,9999.0,,19.0,14.0,29.71,1007.3,,,,,,,,,,,,,,,7/8 Mostly Cloudy,10000.0,,BKN,9900.0,,,,,,
KRDR,07-31-2009,16:00,METAR,,180,9.0,,,9999.0,,19.0,14.0,29.73,1008.0,,,,,,,,,,,,,,,7/8 Mostly Cloudy,9000.0,,BKN,8900.0,BKN,15000.0,,,,
KRDR,07-31-2009,15:00,METAR,,180,7.0,,,9999.0,,18.0,13.0,29.75,1008.6,,,,,,,,,,,,,,,7/8 Mostly Cloudy,9000.0,,BKN,8900.0,BKN,15000.0,,,,
KRDR,07-31-2009,14:00,METAR,,210,8.0,,,9999.0,,18.0,13.0,29.77,1009.2,,,,,,,,,,,,,,,7/8 Mostly Cloudy,10000.0,,BKN,9900.0,,,,,,
KRDR,07-31-2009,13:00,METAR,,190,6.0,,,9999.0,,15.0,13.0,29.78,1009.6,,,,,,,,,,,,,,,4/8 Partly Cloudy,72000.0,,FEW,7900.0,SCT,15000.0,,,,
KRDR,07-31-2009,12:00,METAR,,200,7.0,,,9999.0,,13.0,12.0,29.80,1010.2,,,,,,,,,,,,,,.07 IN,4/8 Partly Cloudy,72000.0,,FEW,7900.0,SCT,15000.0,,,,
KRDR,07-31-2009,11:00,METAR,,220,7.0,,,9999.0,,13.0,12.0,29.81,1010.7,,,,,,,,,,,,,,,7/8 Mostly Cloudy,15000.0,,FEW,7900.0,BKN,15000.0,,,,
KRDR,07-31-2009,10:00,METAR,,230,5.0,,,9999.0,,13.0,12.0,29.81,1010.6,,,,,,,,,,,,,,,Clear,72000.0,,,73000.0,,,,,,
KRDR,07-31-2009,09:00,METAR,,220,6.0,,,9999.0,,13.0,12.0,29.81,1010.7,,,,,,,,,,,,,,,Clear,72000.0,,,73000.0,,,,,,
KRDR,07-31-2009,08:00,METAR,,240,6.0,,,9999.0,,13.0,12.0,29.83,1011.3,,,,,,,,,,,,,,,Clear,72000.0,,,73000.0,,,,,,
KRDR,07-31-2009,07:00,METAR,,230,5.0,,,9999.0,,13.0,12.0,29.85,1012.0,,,,,,,,,,,,,,,4/8 Partly Cloudy,72000.0,,SCT,8900.0,,,,,,
KRDR,07-31-2009,06:00,METAR,,230,5.0,,,9999.0,,14.0,13.0,29.87,1012.6,,,,,,,,,,,.01 IN,,.01 IN,,2/8 Mostly Clear,72000.0,,FEW,8900.0,,,,,,
KRDR,07-31-2009,05:45,SPECI,,230,4.0,,,9999.0,,14.0,13.0,29.87,1012.6,,,,,,,,,,,,,,,2/8 Mostly Clear,72000.0,,FEW,8900.0,,,,,,
KRDR,07-31-2009,05:32,SPECI,,220,5.0,,,9999.0,Light Drizzle,14.0,13.0,29.87,1012.6,51,,,,,,,,,,,,,,7/8 Mostly Cloudy,9000.0,,BKN,8900.0,,,,,,
KRDR,07-31-2009,05:00,METAR,,210,4.0,,,9999.0,,13.0,13.0,29.88,1012.8,,,,,,,,,,,,,,,7/8 Mostly Cloudy,8000.0,,BKN,7900.0,,,,,,
KRDR,07-31-2009,04:00,METAR,,230,6.0,,,9999.0,,12.0,12.0,29.89,1013.1,,,,,,,,,,,,,,,Clear,72000.0,,,73000.0,,,,,,
KRDR,07-31-2009,03:00,METAR,,,0.0,,,9999.0,,14.0,14.0,29.89,1013.1,,,,,,,,,,,,TRACE,,,7/8 Mostly Cloudy,20000.0,,FEW,5900.0,BKN,20000.0,,,,
KRDR,07-31-2009,02:00,METAR,,240,4.0,,,9999.0,,16.0,14.0,29.88,1012.9,,,,,,,,,,,TRACE,,,,7/8 Mostly Cloudy,10000.0,,FEW,5000.0,BKN,9900.0,BKN,20000.0,,
KRDR,07-31-2009,01:00,METAR,,320,3.0,,,9999.0,,17.0,15.0,29.88,1012.8,,,,,,,,,,,TRACE,,,,7/8 Mostly Cloudy,12000.0,,FEW,2000.0,SCT,5900.0,BKN,12000.0,BKN,25000.0
KRDR,07-31-2009,00:39,SPECI,,330,5.0,,,9999.0,Light Rain Showers,18.0,15.0,29.88,1013.0,,,,80,,,,,,,,,,,7/8 Mostly Cloudy,10000.0,,FEW,1200.0,SCT,5000.0,BKN,9900.0,BKN,25000.0
KRDR,07-31-2009,00:00,METAR,,,0.0,,,9999.0,,20.0,14.0,29.88,1012.8,,,,,,,,,,,.03 IN,,.04 IN,,7/8 Mostly Cloudy,10000.0,,FEW,4500.0,SCT,6900.0,BKN,9900.0,BKN,25000.0
KRDR,07-30-2009,23:13,SPECI,,,0.0,,,9999.0,,18.0,13.0,29.88,1012.8,,,,,,,,,,,,,,,7/8 Mostly Cloudy,12000.0,,FEW,3000.0,SCT,7900.0,BKN,12000.0,BKN,25000.0
KRDR,07-30-2009,23:00,METAR,,360,8.0,,,9999.0,Light Rain Showers,18.0,15.0,29.89,1013.4,,,,80,,,,,,,TRACE,,,,7/8 Mostly Cloudy,6000.0,,FEW,3000.0,SCT,4000.0,BKN,5900.0,BKN,12000.0
KRDR,07-30-2009,22:45,SPECI,,10,11.0,,,9999.0,Light Rain Showers,18.0,14.0,29.89,1013.3,,,,80,,,,,,,,,,,7/8 Mostly Cloudy,6000.0,,SCT,3000.0,BKN,5900.0,BKN,9900.0,BKN,25000.0
KRDR,07-30-2009,22:00,METAR,,20,3.0,,,9999.0,,19.0,14.0,29.89,1013.2,,,,,,,,,,,.01 IN,,,,7/8 Mostly Cloudy,10000.0,,FEW,4000.0,SCT,5400.0,BKN,9900.0,BKN,25000.0
KRDR,07-30-2009,21:44,SPECI,,340,4.0,,,9999.0,,19.0,15.0,29.89,1013.2,,,,,,,,,,,,,,,7/8 Mostly Cloudy,10000.0,,FEW,4000.0,SCT,5000.0,BKN,9900.0,BKN,25000.0
KRDR,07-30-2009,21:00,SPECI,,340,16.0,20.0,,9999.0,Light Rain Showers/Thunderstorm,19.0,13.0,29.90,1013.6,,,,80,17,,,,,,,,,,8/8 Overcast,5500.0,,SCT,4000.0,BKN,5400.0,OVC,9900.0,,
KRDR,07-30-2009,20:55,METAR,,330,7.0,,,9999.0,Thunderstorm,20.0,14.0,29.89,1013.4,,,,17,,,,,,,,TRACE,,,8/8 Overcast,6500.0,,SCT,4000.0,BKN,6400.0,OVC,9900.0,,
KRDR,07-30-2009,20:00,METAR,,300,6.0,,,9999.0,,21.0,14.0,29.88,1013.0,,,,,,,,,,,TRACE,,,,7/8 Mostly Cloudy,8000.0,,FEW,3000.0,SCT,5000.0,BKN,7900.0,,
KRDR,07-30-2009,19:33,SPECI,,360,6.0,,,9999.0,,19.0,14.0,29.89,1013.1,,,,,,,,,,,,,,,2/8 Mostly Clear,72000.0,,FEW,3500.0,,,,,,
KRDR,07-30-2009,19:24,SPECI,,360,9.0,,,9999.0,Light Rain Showers,20.0,13.0,29.89,1013.3,,,,80,,,,,,,,,,,7/8 Mostly Cloudy,8000.0,,FEW,3000.0,SCT,4000.0,BKN,7900.0,,
KRDR,07-30-2009,19:00,METAR,,350,7.0,,,9999.0,,21.0,15.0,29.89,1013.3,,,,,,,,,,,TRACE,,,,7/8 Mostly Cloudy,3900.0,,SCT,2500.0,BKN,4000.0,BKN,9900.0,,
KRDR,07-30-2009,18:18,SPECI,,310,6.0,,,9999.0,,17.0,14.0,29.90,1013.6,,,,,,,,,,,,,,,7/8 Mostly Cloudy,2500.0,,BKN,2500.0,BKN,4000.0,,,,
KRDR,07-30-2009,18:00,METAR,,320,10.0,,,9999.0,Rain,17.0,13.0,29.90,1013.5,,,,61,,,,,,,.02 IN,,.02 IN,,8/8 Overcast,2600.0,,BKN,2600.0,BKN,4000.0,OVC,5000.0,,
KRDR,07-30-2009,17:47,SPECI,,320,11.0,,,9999.0,Rain,18.0,14.0,29.90,,,,,61,,,,,,,,,,,7/8 Mostly Cloudy,2500.0,,BKN,2500.0,BKN,4000.0,,,,
KRDR,07-30-2009,17:37,SPECI,,330,4.0,,,9999.0,,18.0,15.0,29.90,1013.5,,,,,,,,,,,,,,,7/8 Mostly Cloudy,2300.0,,BKN,2300.0,BKN,4000.0,,,,
KRDR,07-30-2009,17:22,SPECI,,300,11.0,,,9999.0,Light Rain Showers,19.0,14.0,29.90,1013.6,,,,80,,,,,,,,,,,7/8 Mostly Cloudy,2500.0,,BKN,2500.0,,,,,,
KRDR,07-30-2009,17:00,METAR,,30,8.0,,,9999.0,,19.0,14.0,29.90,1013.6,,,,,,,,,,,TRACE,,,,7/8 Mostly Cloudy,2300.0,,BKN,2300.0,,,,,,
KRDR,07-30-2009,16:27,SPECI,,350,11.0,,,9999.0,Rain,19.0,14.0,29.90,1013.6,,,,61,,,,,,,,,,,7/8 Mostly Cloudy,2300.0,,BKN,2300.0,,,,,,
KRDR,07-30-2009,16:00,METAR,,350,8.0,,,9999.0,,19.0,14.0,29.91,1013.8,,,,,,,,,,,,,,,7/8 Mostly Cloudy,2300.0,,BKN,2300.0,,,,,,
KRDR,07-30-2009,15:00,METAR,,360,9.0,,,9999.0,,17.0,14.0,29.90,1013.7,,,,,,,,,,,,,,,8/8 Overcast,1600.0,,OVC,1600.0,,,,,,
KRDR,07-30-2009,14:32,SPECI,,350,9.0,,,9999.0,,17.0,14.0,29.90,1013.5,,,,,,,,,,,,,,,8/8 Overcast,1600.0,,OVC,1600.0,,,,,,
KRDR,07-30-2009,14:00,METAR,,340,11.0,,,9999.0,,16.0,14.0,29.89,1013.2,,,,,,,,,,,,,,,8/8 Overcast,1200.0,,OVC,1200.0,,,,,,
KRDR,07-30-2009,13:17,SPECI,,350,7.0,,,9999.0,,16.0,14.0,29.89,1013.1,,,,,,,,,,,,,,,8/8 Overcast,1300.0,,OVC,1300.0,,,,,,
KRDR,07-30-2009,13:00,METAR,,340,10.0,,,9999.0,,15.0,14.0,29.88,1012.9,,,,,,,,,,,,,,,8/8 Overcast,1100.0,,OVC,1100.0,,,,,,
KRDR,07-30-2009,12:32,SPECI,,340,8.0,,,9999.0,,15.0,14.0,29.88,1012.8,,,,,,,,,,,,,,,8/8 Overcast,1200.0,,OVC,1200.0,,,,,,
KRDR,07-30-2009,12:26,SPECI,,340,8.0,,,9999.0,,15.0,14.0,29.88,1012.7,,,,,,,,,,,,,,,8/8 Overcast,1100.0,,OVC,1100.0,,,,,,
KRDR,07-30-2009,12:17,SPECI,,330,8.0,,,9999.0,,15.0,14.0,29.87,1012.7,,,,,,,,,,,,,,,8/8 Overcast,1100.0,,OVC,1400.0,,,,,,
KRDR,07-30-2009,12:00,METAR,,330,6.0,,,9999.0,,14.0,14.0,29.87,1012.5,,,,,,,,,,,TRACE,,TRACE,.07 IN,8/8 Overcast,1300.0,,BKN,1300.0,BKN,1800.0,OVC,5000.0,,
KRDR,07-30-2009,11:22,SPECI,,320,6.0,,,9999.0,,14.0,13.0,29.86,1012.4,,,,,,,,,,,,,,,8/8 Overcast,9000.0,,SCT,4800.0,OVC,8900.0,,,,
KRDR,07-30-2009,11:12,SPECI,,320,6.0,,,9999.0,Rain,14.0,13.0,29.86,1012.3,,,,61,,,,,,,,,,,8/8 Overcast,7000.0,,SCT,4800.0,OVC,6900.0,,,,
KRDR,07-30-2009,11:00,METAR,,330,7.0,,,9999.0,Drizzle,14.0,13.0,29.86,1012.3,,,,51,,,,,,,,,,,7/8 Mostly Cloudy,8500.0,,SCT,5000.0,BKN,8400.0,,,,
KRDR,07-30-2009,10:00,METAR,,320,6.0,,,9999.0,,14.0,13.0,29.85,1011.9,,,,,,,,,,,,,,,8/8 Overcast,8000.0,,OVC,7900.0,,,,,,
KRDR,07-30-2009,09:00,METAR,,310,5.0,,,9999.0,,14.0,13.0,29.85,1011.8,,,,,,,,,,,,,,,8/8 Overcast,10000.0,,OVC,9900.0,,,,,,
KRDR,07-30-2009,08:00,METAR,,310,5.0,,,9999.0,,13.0,12.0,29.84,1011.7,,,,,,,,,,,,,,,2/8 Mostly Clear,72000.0,,FEW,9900.0,,,,,,
KRDR,07-30-2009,07:00,METAR,,300,6.0,,,9999.0,,14.0,13.0,29.85,1011.8,,,,,,,,,,,,,,,4/8 Partly Cloudy,72000.0,,SCT,1000.0,,,,,,
KRDR,07-30-2009,06:47,SPECI,,290,7.0,,,9999.0,,14.0,13.0,29.85,1011.8,,,,,,,,,,,,,,,4/8 Partly Cloudy,72000.0,,SCT,1000.0,,,,,,
KRDR,07-30-2009,06:24,SPECI,,300,6.0,,,9999.0,,14.0,13.0,29.85,1011.8,,,,,,,,,,,,,,,7/8 Mostly Cloudy,1100.0,,BKN,1100.0,,,,,,
KRDR,07-30-2009,06:21,SPECI,,300,6.0,,,9999.0,,14.0,13.0,29.85,1011.8,,,,,,,,,,,,,,,4/8 Partly Cloudy,72000.0,,SCT,1100.0,,,,,,
KRDR,07-30-2009,06:15,SPECI,,310,6.0,,,9999.0,,14.0,13.0,29.85,1011.9,,,,,,,,,,,,,,,2/8 Mostly Clear,72000.0,,FEW,1000.0,,,,,,
KRDR,07-30-2009,06:00,METAR,,320,6.0,,,9999.0,,14.0,13.0,29.85,1011.8,,,,,,,,,,,,,.04 IN,,Clear,72000.0,,,73000.0,,,,,,
KRDR,07-30-2009,05:00,METAR,,350,6.0,,,9999.0,,15.0,13.0,29.84,1011.7,,,,,,,,,,,.02 IN,,,,7/8 Mostly Cloudy,8000.0,,FEW,4300.0,BKN,7900.0,,,,
KRDR,07-30-2009,04:20,SPECI,,310,4.0,,,9999.0,,15.0,13.0,29.85,1011.9,,,,,,,,,,,,,,,7/8 Mostly Cloudy,3900.0,,SCT,3000.0,BKN,4000.0,BKN,6900.0,,
KRDR,07-30-2009,04:00,METAR,,250,3.0,,,9999.0,Light Rain Showers,15.0,13.0,29.85,1011.9,,,,80,,,,,,,.01 IN,,,,7/8 Mostly Cloudy,3400.0,,FEW,2500.0,BKN,3500.0,BKN,6900.0,BKN,20000.0
KRDR,07-30-2009,03:44,SPECI,,,3.0,,,6400.0,Light Rain Showers,16.0,12.0,29.85,1011.8,,,,80,,,,,,,,,,,7/8 Mostly Cloudy,3300.0,,FEW,300.0,BKN,3400.0,BKN,5400.0,BKN,12000.0
KRDR,07-30-2009,03:00,METAR,,220,6.0,,,9999.0,,15.0,13.0,29.83,1011.4,,,,,,,,,,,,.01 IN,,,7/8 Mostly Cloudy,20000.0,,SCT,5400.0,SCT,7900.0,BKN,20000.0,,
KRDR,07-30-2009,02:00,METAR,,,5.0,,,9999.0,,17.0,12.0,29.82,1011.0,,,,,,,,,,,TRACE,,,,7/8 Mostly Cloudy,20000.0,,FEW,5900.0,SCT,7900.0,BKN,20000.0,,
KRDR,07-30-2009,01:18,SPECI,,300,7.0,,,9999.0,,18.0,14.0,29.83,1011.1,,,,,,,,,,,,,,,7/8 Mostly Cloudy,6000.0,,FEW,4500.0,BKN,5900.0,BKN,22000.0,,
KRDR,07-30-2009,01:02,SPECI,,200,7.0,,,9999.0,,18.0,14.0,29.82,1010.7,,,,,,,,,,,,,,,7/8 Mostly Cloudy,6000.0,,FEW,5000.0,BKN,5900.0,BKN,22000.0,,
KRDR,07-30-2009,01:00,METAR,,180,6.0,,,9999.0,Rain,18.0,14.0,29.81,1010.7,,,,61,,,,,,,TRACE,,,,7/8 Mostly Cloudy,7000.0,,FEW,5000.0,BKN,6900.0,BKN,22000.0,,
KRDR,07-30-2009,00:44,SPECI,,210,6.0,,,9999.0,,19.0,13.0,29.81,1010.7,,,,,,,,,,,,,,,7/8 Mostly Cloudy,7000.0,,FEW,5000.0,BKN,6900.0,BKN,22000.0,,
KRDR,07-30-2009,00:31,SPECI,,170,4.0,,,9999.0,Rain,20.0,13.0,29.81,1010.6,,,,61,,,,,,,,,,,7/8 Mostly Cloudy,7000.0,,FEW,5000.0,BKN,6900.0,BKN,22000.0,,
KRDR,07-30-2009,00:00,METAR,,,3.0,,,9999.0,,21.0,12.0,29.81,1010.6,,,,,,,,,,,,,TRACE,,7/8 Mostly Cloudy,12000.0,,FEW,5000.0,SCT,7400.0,BKN,12000.0,BKN,22000.0
KRDR,07-29-2009,23:00,METAR,,290,5.0,,,9999.0,,22.0,11.0,29.82,1010.8,,,,,,,,,,,,,,,7/8 Mostly Cloudy,8000.0,,SCT,5000.0,BKN,7900.0,BKN,22000.0,,
KRDR,07-29-2009,22:00,METAR,,290,5.0,,,9999.0,,21.0,11.0,29.83,1011.1,,,,,,,,,,,,,,,7/8 Mostly Cloudy,14000.0,,FEW,4000.0,SCT,8900.0,BKN,14000.0,,
KRDR,07-29-2009,21:00,METAR,,310,4.0,,,9999.0,,21.0,11.0,29.83,1011.2,,,,,,,,,,,TRACE,TRACE,,,7/8 Mostly Cloudy,12000.0,,FEW,5000.0,SCT,7900.0,BKN,12000.0,,
KRDR,07-29-2009,20:26,SPECI,,280,8.0,,,9999.0,,20.0,10.0,29.84,1011.5,,,,,,,,,,,,,,,7/8 Mostly Cloudy,12000.0,,FEW,4000.0,SCT,7900.0,BKN,12000.0,,
KRDR,07-29-2009,20:04,SPECI,,280,9.0,,,9999.0,,20.0,11.0,29.84,1011.6,,,,,,,,,,,,,,,7/8 Mostly Cloudy,12000.0,,FEW,5000.0,SCT,7900.0,BKN,12000.0,,
KRDR,07-29-2009,20:00,METAR,,310,7.0,,,9999.0,,20.0,10.0,29.84,1011.7,,,,,,,,,,,TRACE,,,,7/8 Mostly Cloudy,12000.0,,FEW,5000.0,SCT,7900.0,BKN,12000.0,,
KRDR,07-29-2009,19:31,SPECI,,320,5.0,,,9999.0,,19.0,12.0,29.85,1012.0,,,,,,,,,,,,,,,7/8 Mostly Cloudy,10000.0,,SCT,4500.0,BKN,9900.0,,,,
KRDR,07-29-2009,19:20,SPECI,,280,6.0,,,9999.0,,20.0,12.0,29.85,1011.8,,,,,,,,,,,,,,,7/8 Mostly Cloudy,10000.0,,FEW,4400.0,SCT,5900.0,BKN,9900.0,,
KRDR,07-29-2009,19:00,METAR,,340,7.0,,,9999.0,,21.0,12.0,29.85,1011.8,,,,,,,,,,,TRACE,,,,2/8 Mostly Clear,72000.0,,FEW,5900.0,,,,,,
KRDR,07-29-2009,18:04,SPECI,,320,7.0,,,9999.0,,20.0,12.0,29.86,1012.2,,,,,,,,,,,,,,,7/8 Mostly Cloudy,4100.0,,BKN,4200.0,,,,,,
KRDR,07-29-2009,18:00,METAR,,330,9.0,,,9999.0,Rain,19.0,12.0,29.86,1012.3,,,,61,,,,,,,.03 IN,,.03 IN,,7/8 Mostly Cloudy,4200.0,,BKN,4300.0,BKN,7900.0,,,,
KRDR,07-29-2009,17:42,SPECI,,320,10.0,,,9999.0,,19.0,13.0,29.86,1012.4,,,,,,,,,,,,,,,7/8 Mostly Cloudy,4300.0,,BKN,4400.0,BKN,7900.0,,,,
KRDR,07-29-2009,17:12,SPECI,,,0.0,,,9999.0,,17.0,12.0,29.87,1012.6,,,,,,,,,,,,,,,7/8 Mostly Cloudy,5500.0,,SCT,3500.0,BKN,5400.0,BKN,8400.0,,
KRDR,07-29-2009,17:04,SPECI,,,0.0,,,4800.0,Rain/Haze,17.0,13.0,29.87,1012.6,,,,61,5,,,,,,,,,,7/8 Mostly Cloudy,4100.0,,FEW,300.0,BKN,4200.0,BKN,8400.0,,
KRDR,07-29-2009,17:00,METAR,,280,12.0,17.0,,9999.0,Rain,19.0,14.0,29.87,1012.6,,,,61,,,,,,,TRACE,,,,7/8 Mostly Cloudy,8500.0,,SCT,4200.0,BKN,8400.0,,,,
KRDR,07-29-2009,16:48,SPECI,,290,14.0,17.0,,9999.0,Rain,21.0,12.0,29.87,1012.5,,,,61,,,,,,,,,,,7/8 Mostly Cloudy,8500.0,,SCT,4200.0,BKN,8400.0,,,,
KRDR,07-29-2009,16:00,METAR,,,5.0,,,9999.0,,19.0,12.0,29.87,1012.6,,,,,,,,,,,TRACE,,,,7/8 Mostly Cloudy,8500.0,,FEW,3000.0,BKN,8400.0,BKN,25000.0,,
KRDR,07-29-2009,15:32,SPECI,,300,5.0,,,9999.0,,18.0,12.0,29.87,1012.7,,,,,,,,,,,,,,,7/8 Mostly Cloudy,8500.0,,BKN,8400.0,BKN,25000.0,,,,
KRDR,07-29-2009,15:21,SPECI,,330,6.0,,,9999.0,Rain,18.0,12.0,29.87,1012.6,,,,61,,,,,,,,,,,7/8 Mostly Cloudy,8500.0,,BKN,8400.0,BKN,25000.0,,,,
KRDR,07-29-2009,15:19,SPECI,,320,7.0,,,9999.0,,18.0,12.0,29.87,1012.6,,,,,,,,,,,,,,,2/8 Mostly Clear,72000.0,,FEW,8400.0,,,,,,
KRDR,07-29-2009,15:09,SPECI,,320,7.0,,,9999.0,,17.0,11.0,29.87,1012.6,,,,,,,,,,,,,,,2/8 Mostly Clear,72000.0,,FEW,8400.0,,,,,,
KRDR,07-29-2009,15:00,METAR,,330,10.0,,,9999.0,,17.0,11.0,29.87,1012.6,,,,,,,,,,,,,,,Clear,72000.0,,,73000.0,,,,,,
KRDR,07-29-2009,14:00,METAR,,320,6.0,,,9999.0,,16.0,12.0,29.87,1012.6,,,,,,,,,,,,,,,8/8 Overcast,8000.0,,OVC,7900.0,,,,,,
KRDR,07-29-2009,13:00,METAR,,290,3.0,,,9999.0,,13.0,11.0,29.88,1012.8,,,,,,,,,,,,,,,8/8 Overcast,9000.0,,BKN,8900.0,OVC,25000.0,,,,
KRDR,07-29-2009,12:00,METAR,,300,5.0,,,9999.0,,11.0,9.0,29.87,1012.6,,,,,,,,,,,,,,,7/8 Mostly Cloudy,8500.0,,BKN,8400.0,BKN,25000.0,,,,
KRDR,07-29-2009,11:00,METAR,,290,5.0,,,9999.0,,8.0,7.0,29.86,1012.2,,,,,,,,,,,,,,,2/8 Mostly Clear,72000.0,,FEW,7900.0,FEW,25000.0,,,,
KRDR,07-29-2009,10:00,METAR,,300,4.0,,,9999.0,,9.0,7.0,29.86,1012.3,,,,,,,,,,,,,,,Clear,72000.0,,,73000.0,,,,,,
KRDR,07-29-2009,09:00,METAR,,290,5.0,,,9999.0,,10.0,9.0,29.86,1012.3,,,,,,,,,,,,,,,Clear,72000.0,,,73000.0,,,,,,
KRDR,07-29-2009,08:00,METAR,,270,4.0,,,9999.0,,10.0,9.0,29.86,1012.2,,,,,,,,,,,,,,,Clear,72000.0,,,73000.0,,,,,,
KRDR,07-29-2009,07:00,METAR,,,0.0,,,9999.0,,10.0,9.0,29.85,1012.0,,,,,,,,,,,,,,,Clear,72000.0,,,73000.0,,,,,,
KRDR,07-29-2009,06:00,METAR,,270,3.0,,,9999.0,,10.0,9.0,29.86,1012.2,,,,,,,,,,,,,TRACE,,Clear,72000.0,,,73000.0,,,,,,
KRDR,07-29-2009,05:00,METAR,,300,4.0,,,9999.0,,11.0,9.0,29.86,1012.3,,,,,,,,,,,,,,,Clear,72000.0,,,73000.0,,,,,,
KRDR,07-29-2009,04:00,METAR,,,0.0,,,9999.0,,12.0,10.0,29.87,1012.4,,,,,,,,,,,,,,,Clear,72000.0,,,73000.0,,,,,,
KRDR,07-29-2009,03:00,METAR,,320,9.0,,,9999.0,,14.0,10.0,29.86,1012.1,,,,,,,,,,,,TRACE,,,4/8 Partly Cloudy,72000.0,,FEW,5900.0,SCT,20000.0,,,,
KRDR,07-29-2009,02:00,METAR,,270,5.0,,,9999.0,,17.0,11.0,29.85,1011.9,,,,,,,,,,,TRACE,,,,7/8 Mostly Cloudy,20000.0,,FEW,5900.0,SCT,8400.0,BKN,20000.0,,
KRDR,07-29-2009,01:32,SPECI,,320,5.0,,,9999.0,,18.0,11.0,29.85,1011.8,,,,,,,,,,,,,,,7/8 Mostly Cloudy,20000.0,,SCT,5900.0,SCT,8900.0,BKN,20000.0,,
KRDR,07-29-2009,01:17,SPECI,,340,9.0,,,9999.0,Light Rain Showers,19.0,11.0,29.86,1012.3,,,,80,,,,,,,,,,,7/8 Mostly Cloudy,10000.0,,SCT,5900.0,BKN,9900.0,BKN,20000.0,,
KRDR,07-29-2009,01:00,METAR,,340,5.0,,,9999.0,,20.0,11.0,29.85,1012.0,,,,,,,,,,,,,,,7/8 Mostly Cloudy,20000.0,,FEW,6400.0,SCT,8900.0,BKN,20000.0,,
KRDR,07-29-2009,00:00,METAR,,360,7.0,,,9999.0,,21.0,9.0,29.86,1012.1,,,,,,,,,,,,,,,7/8 Mostly Cloudy,20000.0,,SCT,6900.0,BKN,20000.0,,,,
KRDR,07-28-2009,23:00,METAR,,340,7.0,,,9999.0,,23.0,8.0,29.87,1012.4,,,,,,,,,,,,,,,4/8 Partly Cloudy,72000.0,,SCT,5900.0,SCT,12000.0,,,,
KRDR,07-28-2009,22:00,METAR,,350,7.0,,,9999.0,,23.0,8.0,29.88,1012.9,,,,,,,,,,,,,,,4/8 Partly Cloudy,72000.0,,SCT,5900.0,,,,,,
KRDR,07-28-2009,21:00,METAR,,350,12.0,,,9999.0,,23.0,7.0,29.89,1013.1,,,,,,,,,,,,,,,Clear,72000.0,,,73000.0,,,,,,
KRDR,07-28-2009,20:00,METAR,,350,14.0,21.0,,9999.0,,23.0,7.0,29.88,1013.0,,,,,,,,,,,,,,,4/8 Partly Cloudy,72000.0,,SCT,5900.0,,,,,,
KRDR,07-28-2009,19:00,METAR,,330,17.0,20.0,,9999.0,,22.0,9.0,29.89,1013.1,,,,,,,,,,,,,,,7/8 Mostly Cloudy,6000.0,,BKN,5900.0,,,,,,
KRDR,07-28-2009,18:00,METAR,,340,13.0,18.0,,9999.0,,22.0,9.0,29.89,1013.3,,,,,,,,,,,,,,,7/8 Mostly Cloudy,6500.0,,BKN,6400.0,,,,,,
KRDR,07-28-2009,17:00,METAR,,350,10.0,17.0,,9999.0,,20.0,10.0,29.91,1013.7,,,,,,,,,,,,,,,7/8 Mostly Cloudy,6000.0,,BKN,5900.0,,,,,,
KRDR,07-28-2009,16:00,METAR,,330,11.0,,,9999.0,,20.0,11.0,29.91,1013.8,,,,,,,,,,,,,,,Clear,72000.0,,,73000.0,,,,,,
KRDR,07-28-2009,15:00,METAR,,330,12.0,,,9999.0,,19.0,11.0,29.91,1013.9,,,,,,,,,,,,,,,Clear,72000.0,,,73000.0,,,,,,
KRDR,07-28-2009,14:00,METAR,,310,11.0,,,9999.0,,17.0,11.0,29.91,1014.0,,,,,,,,,,,,,,,Clear,72000.0,,,73000.0,,,,,,
KRDR,07-28-2009,13:00,METAR,,300,8.0,,,9999.0,,15.0,11.0,29.91,1013.9,,,,,,,,,,,,,,,Clear,72000.0,,,73000.0,,,,,,
KRDR,07-28-2009,12:00,METAR,,310,8.0,,,9999.0,,13.0,11.0,29.90,1013.7,,,,,,,,,,,,,,,Clear,72000.0,,,73000.0,,,,,,
KRDR,07-28-2009,11:00,METAR,,310,7.0,,,9999.0,,12.0,10.0,29.90,1013.6,,,,,,,,,,,,,,,2/8 Mostly Clear,72000.0,,FEW,7900.0,,,,,,
KRDR,07-28-2009,10:00,METAR,,310,7.0,,,9999.0,,13.0,11.0,29.90,1013.6,,,,,,,,,,,,,,,Clear,72000.0,,,73000.0,,,,,,
KRDR,07-28-2009,09:00,METAR,,320,8.0,,,9999.0,,13.0,10.0,29.91,1013.8,,,,,,,,,,,,,,,Clear,72000.0,,,73000.0,,,,,,
KRDR,07-28-2009,08:00,METAR,,300,9.0,,,9999.0,,13.0,11.0,29.91,1013.9,,,,,,,,,,,,,,,Clear,72000.0,,,73000.0,,,,,,
KRDR,07-28-2009,07:00,METAR,,320,8.0,,,9999.0,,14.0,11.0,29.91,1013.8,,,,,,,,,,,,,,,Clear,72000.0,,,73000.0,,,,,,
KRDR,07-28-2009,06:00,METAR,,330,8.0,,,9999.0,,14.0,11.0,29.91,1013.8,,,,,,,,,,,,,,,Clear,72000.0,,,73000.0,,,,,,
KRDR,07-28-2009,05:00,METAR,,340,7.0,,,9999.0,,15.0,12.0,29.90,1013.5,,,,,,,,,,,,,,,4/8 Partly Cloudy,72000.0,,SCT,7400.0,,,,,,
KRDR,07-28-2009,04:00,METAR,,330,6.0,,,9999.0,,15.0,13.0,29.90,1013.5,,,,,,,,,,,,,,,4/8 Partly Cloudy,72000.0,,SCT,6900.0,,,,,,
KRDR,07-28-2009,03:00,METAR,,290,4.0,,,9999.0,,16.0,13.0,29.89,1013.1,,,,,,,,,,,,,,,4/8 Partly Cloudy,72000.0,,FEW,5900.0,SCT,8900.0,,,,
KRDR,07-28-2009,02:00,METAR,,290,4.0,,,9999.0,,16.0,12.0,29.89,1013.1,,,,,,,,,,,,,,,4/8 Partly Cloudy,72000.0,,FEW,7900.0,SCT,20000.0,,,,
KRDR,07-28-2009,01:00,METAR,,20,6.0,,010/31KTS,9999.0,,18.0,12.0,29.87,1012.6,,,,,,,,,,,,,,,4/8 Partly Cloudy,72000.0,,FEW,8900.0,SCT,20000.0,,,,
KRDR,07-28-2009,00:00,METAR,,20,13.0,,,9999.0,,21.0,11.0,29.86,1012.1,,,,,,,,,,,,,,,7/8 Mostly Cloudy,7000.0,,BKN,6900.0,BKN,20000.0,,,,
KRDR,07-27-2009,23:00,METAR,,350,13.0,21.0,,9999.0,,25.0,12.0,29.84,1011.7,,,,,,,,,,,,,,,7/8 Mostly Cloudy,20000.0,,SCT,6400.0,BKN,20000.0,,,,
KRDR,07-27-2009,22:00,METAR,,320,11.0,16.0,,9999.0,,25.0,12.0,29.84,1011.7,,,,,,,,,,,,,,,7/8 Mostly Cloudy,20000.0,,SCT,6400.0,BKN,20000.0,,,,
KRDR,07-27-2009,21:00,METAR,,330,15.0,18.0,290/28KTS,9999.0,,24.0,11.0,29.85,1012.1,,,,,,,,,,,,,,,7/8 Mostly Cloudy,20000.0,,SCT,5900.0,BKN,20000.0,,,,
KRDR,07-27-2009,20:00,METAR,,320,11.0,,,9999.0,,25.0,12.0,29.86,1012.1,,,,,,,,,,,,,,,4/8 Partly Cloudy,72000.0,,SCT,5900.0,SCT,20000.0,,,,
KRDR,07-27-2009,19:00,METAR,,320,17.0,22.0,,9999.0,,24.0,11.0,29.86,1012.3,,,,,,,,,,,,,,,4/8 Partly Cloudy,72000.0,,SCT,5900.0,SCT,20000.0,,,,
KRDR,07-27-2009,18:00,METAR,,330,14.0,20.0,,9999.0,,25.0,12.0,29.87,1012.6,,,,,,,,,,,,,,,4/8 Partly Cloudy,72000.0,,SCT,4800.0,SCT,20000.0,,,,
KRDR,07-27-2009,17:00,METAR,,330,13.0,,,9999.0,,24.0,14.0,29.87,1012.7,,,,,,,,,,,,,,,2/8 Mostly Clear,72000.0,,FEW,4000.0,FEW,25000.0,,,,
KRDR,07-27-2009,16:00,METAR,,330,11.0,15.0,,9999.0,,23.0,15.0,29.88,1012.8,,,,,,,,,,,,,,,2/8 Mostly Clear,72000.0,,FEW,4000.0,FEW,20000.0,,,,
KRDR,07-27-2009,15:00,METAR,,330,10.0,,,9999.0,,22.0,15.0,29.88,1012.7,,,,,,,,,,,,,,,2/8 Mostly Clear,72000.0,,FEW,5900.0,FEW,12000.0,,,,
KRDR,07-27-2009,14:00,METAR,,330,10.0,,,9999.0,,21.0,15.0,29.87,1012.7,,,,,,,,,,,,,,,2/8 Mostly Clear,72000.0,,FEW,5900.0,,,,,,
KRDR,07-27-2009,13:00,METAR,,320,11.0,,,9999.0,,20.0,16.0,29.87,1012.4,,,,,,,,,,,,,,,2/8 Mostly Clear,72000.0,,FEW,5900.0,,,,,,
KRDR,07-27-2009,12:00,METAR,,280,5.0,,,9999.0,,18.0,16.0,29.87,1012.6,,,,,,,,,,,TRACE,,TRACE,,7/8 Mostly Cloudy,6500.0,,BKN,6400.0,,,,,,
KRDR,07-27-2009,11:22,SPECI,,250,6.0,,,9999.0,,17.0,15.0,29.86,1012.3,,,,,,,,,,,,,,,7/8 Mostly Cloudy,10000.0,,BKN,9900.0,,,,,,
KRDR,07-27-2009,11:00,METAR,,270,4.0,,,9999.0,,18.0,15.0,29.86,1012.3,,,,,,,,,,,TRACE,,,,8/8 Overcast,9500.0,,OVC,9400.0,,,,,,
KRDR,07-27-2009,10:41,SPECI,,260,4.0,,,9999.0,,18.0,15.0,29.86,1012.2,,,,,,,,,,,,,,,7/8 Mostly Cloudy,10000.0,,BKN,9900.0,,,,,,
KRDR,07-27-2009,10:30,SPECI,,280,5.0,,,9999.0,,18.0,14.0,29.86,1012.3,,,,,,,,,,,,,,,4/8 Partly Cloudy,72000.0,,SCT,9400.0,,,,,,
KRDR,07-27-2009,10:00,METAR,,290,4.0,,,9999.0,,17.0,14.0,29.87,1012.6,,,,,,,,,,,TRACE,,,,7/8 Mostly Cloudy,10000.0,,FEW,5900.0,BKN,9900.0,,,,
KRDR,07-27-2009,09:00,METAR,,290,5.0,,,9999.0,Light Drizzle,17.0,14.0,29.88,1012.7,51,,,,,,,,,,TRACE,TRACE,,,8/8 Overcast,10000.0,,OVC,9900.0,,,,,,
KRDR,07-27-2009,08:48,SPECI,,290,4.0,,,9999.0,Light Drizzle,17.0,14.0,29.87,1012.7,51,,,,,,,,,,,,,,8/8 Overcast,11000.0,,OVC,11000.0,,,,,,
KRDR,07-27-2009,08:00,METAR,,290,5.0,,,9999.0,,16.0,14.0,29.87,1012.7,,,,,,,,,,,,,,,4/8 Partly Cloudy,72000.0,,SCT,12000.0,,,,,,
KRDR,07-27-2009,07:00,METAR,,,0.0,,,9999.0,,16.0,14.0,29.88,1012.8,,,,,,,,,,,,,,,Clear,72000.0,,,73000.0,,,,,,
KRDR,07-27-2009,06:00,METAR,,,0.0,,,9999.0,,15.0,13.0,29.89,1013.3,,,,,,,,,,,,,,,Clear,72000.0,,,73000.0,,,,,,
KRDR,07-27-2009,05:00,METAR,,,0.0,,,9999.0,,14.0,13.0,29.89,1013.3,,,,,,,,,,,,,,,Clear,72000.0,,,73000.0,,,,,,
KRDR,07-27-2009,04:00,METAR,,,0.0,,,9999.0,,17.0,15.0,29.90,1013.6,,,,,,,,,,,,,,,Clear,72000.0,,,73000.0,,,,,,
KRDR,07-27-2009,03:00,METAR,,10,7.0,,,9999.0,,18.0,16.0,29.90,1013.5,,,,,,,,,,,,,,,Clear,72000.0,,,73000.0,,,,,,
KRDR,07-27-2009,02:00,METAR,,50,6.0,,,9999.0,,23.0,17.0,29.88,1013.0,,,,,,,,,,,,,,,2/8 Mostly Clear,72000.0,,FEW,5400.0,,,,,,
KRDR,07-27-2009,01:00,METAR,,40,8.0,,,9999.0,,25.0,17.0,29.87,1012.7,,,,,,,,,,,,,,,7/8 Mostly Cloudy,6000.0,,BKN,5900.0,,,,,,
KRDR,07-27-2009,00:00,METAR,,40,13.0,,,9999.0,,26.0,18.0,29.88,1012.8,,,,,,,,,,,,,,,Clear,72000.0,,,73000.0,,,,,,
KRDR,07-26-2009,23:00,METAR,,70,10.0,,,9999.0,,27.0,17.0,29.87,1012.7,,,,,,,,,,,,,,,2/8 Mostly Clear,72000.0,,FEW,7400.0,,,,,,
KRDR,07-26-2009,22:00,METAR,,80,9.0,,,9999.0,,28.0,17.0,29.88,1012.8,,,,,,,,,,,,,,,4/8 Partly Cloudy,72000.0,,SCT,5900.0,,,,,,
KRDR,07-26-2009,21:00,METAR,,90,7.0,,,9999.0,,28.0,17.0,29.88,1013.0,,,,,,,,,,,,,,,Clear,72000.0,,,73000.0,,,,,,
KRDR,07-26-2009,20:00,METAR,,100,5.0,,,9999.0,,27.0,17.0,29.90,1013.5,,,,,,,,,,,,,,,7/8 Mostly Cloudy,8000.0,,BKN,7900.0,,,,,,
KRDR,07-26-2009,19:00,METAR,,,0.0,,,9999.0,,26.0,17.0,29.91,1013.9,,,,,,,,,,,,,,,4/8 Partly Cloudy,72000.0,,SCT,6900.0,,,,,,
KRDR,07-26-2009,18:00,METAR,,140,3.0,,,9999.0,,26.0,17.0,29.92,1014.3,,,,,,,,,,,,,TRACE,,2/8 Mostly Clear,72000.0,,FEW,7900.0,,,,,,
KRDR,07-26-2009,17:00,METAR,,220,5.0,,,9999.0,,25.0,17.0,29.93,1014.7,,,,,,,,,,,,,,,Clear,72000.0,,,73000.0,,,,,,
KRDR,07-26-2009,16:00,METAR,,170,4.0,,,9999.0,,22.0,17.0,29.95,1015.1,,,,,,,,,,,TRACE,,,,4/8 Partly Cloudy,72000.0,,SCT,7400.0,,,,,,
KRDR,07-26-2009,15:34,SPECI,,170,4.0,,,9999.0,,22.0,17.0,29.95,1015.1,,,,,,,,,,,,,,,7/8 Mostly Cloudy,7000.0,,BKN,6900.0,,,,,,
KRDR,07-26-2009,15:23,SPECI,,190,4.0,,,9999.0,Light Rain,22.0,17.0,29.95,1015.1,61,,,,,,,,,,,,,,7/8 Mostly Cloudy,7500.0,,BKN,7400.0,,,,,,
KRDR,07-26-2009,15:00,METAR,,140,3.0,,,9999.0,,22.0,16.0,29.94,1014.9,,,,,,,,,,,,TRACE,,,4/8 Partly Cloudy,72000.0,,SCT,6900.0,,,,,,
KRDR,07-26-2009,14:00,METAR,,,0.0,,,9999.0,,20.0,16.0,29.95,1015.2,,,,,,,,,,,,,,,4/8 Partly Cloudy,72000.0,,SCT,7400.0,,,,,,
KRDR,07-26-2009,13:00,METAR,,,0.0,,,9999.0,,18.0,16.0,29.95,1015.2,,,,,,,,,,,TRACE,,,,2/8 Mostly Clear,72000.0,,FEW,11000.0,,,,,,
KRDR,07-26-2009,12:39,SPECI,,,0.0,,,9999.0,,18.0,16.0,29.96,1015.4,,,,,,,,,,,,,,,2/8 Mostly Clear,72000.0,,FEW,11000.0,,,,,,
KRDR,07-26-2009,12:00,METAR,,250,3.0,,,9999.0,,17.0,16.0,29.96,1015.4,,,,,,,,,,,TRACE,,TRACE,,4/8 Partly Cloudy,72000.0,,SCT,9900.0,,,,,,
KRDR,07-26-2009,11:46,SPECI,,250,3.0,,,9999.0,,17.0,15.0,29.96,1015.4,,,,,,,,,,,,,,,2/8 Mostly Clear,72000.0,,FEW,9400.0,,,,,,
KRDR,07-26-2009,11:18,SPECI,,250,3.0,,,9999.0,,16.0,15.0,29.96,1015.4,,,,,,,,,,,,,,,4/8 Partly Cloudy,72000.0,,SCT,11000.0,,,,,,
KRDR,07-26-2009,11:00,METAR,,240,3.0,,,9999.0,,16.0,14.0,29.96,1015.4,,,,,,,,,,,TRACE,,,,8/8 Overcast,11000.0,,OVC,11000.0,,,,,,
KRDR,07-26-2009,10:08,SPECI,,220,3.0,,,9999.0,,16.0,14.0,29.96,1015.4,,,,,,,,,,,,,,,8/8 Overcast,11000.0,,OVC,11000.0,,,,,,
KRDR,07-26-2009,10:00,METAR,,,0.0,,,9999.0,Unknown Precipitation,15.0,14.0,29.95,1015.3,40,,,,,,,,,,,,,,8/8 Overcast,11000.0,,OVC,11000.0,,,,,,
KRDR,07-26-2009,09:00,METAR,,270,4.0,,,9999.0,,14.0,12.0,29.96,1015.6,,,,,,,,,,,,,,,Clear,72000.0,,,73000.0,,,,,,
KRDR,07-26-2009,08:00,METAR,,,0.0,,,9999.0,,12.0,11.0,29.96,1015.6,,,,,,,,,,,,,,,Clear,72000.0,,,73000.0,,,,,,
KRDR,07-26-2009,07:00,METAR,,,0.0,,,9999.0,,13.0,12.0,29.95,1015.3,,,,,,,,,,,,,,,Clear,72000.0,,,73000.0,,,,,,
KRDR,07-26-2009,06:00,METAR,,270,4.0,,,9999.0,,14.0,13.0,29.96,1015.5,,,,,,,,,,,,,,,Clear,72000.0,,,73000.0,,,,,,
KRDR,07-26-2009,05:00,METAR,,260,4.0,,,9999.0,,15.0,13.0,29.96,1015.4,,,,,,,,,,,,,,,Clear,72000.0,,,73000.0,,,,,,
KRDR,07-26-2009,04:00,METAR,,,0.0,,,9999.0,,15.0,14.0,29.96,1015.4,,,,,,,,,,,,,,,Clear,72000.0,,,73000.0,,,,,,
KRDR,07-26-2009,03:00,METAR,,310,3.0,,,9999.0,,17.0,14.0,29.96,1015.4,,,,,,,,,,,,,,,Clear,72000.0,,,73000.0,,,,,,
KRDR,07-26-2009,02:00,METAR,,330,3.0,,,9999.0,,21.0,15.0,29.94,1014.7,,,,,,,,,,,,,,,Clear,72000.0,,,73000.0,,,,,,
KRDR,07-26-2009,01:00,METAR,,360,5.0,,,9999.0,,23.0,15.0,29.94,1014.8,,,,,,,,,,,,,,,Clear,72000.0,,,73000.0,,,,,,
KRDR,07-26-2009,00:00,METAR,,350,10.0,17.0,,9999.0,,25.0,14.0,29.94,1014.9,,,,,,,,,,,,,,,Clear,72000.0,,,73000.0,,,,,,
KRDR,07-25-2009,23:00,METAR,,10,12.0,,,9999.0,,25.0,14.0,29.94,1015.0,,,,,,,,,,,,,,,Clear,72000.0,,,73000.0,,,,,,
KRDR,07-25-2009,22:00,METAR,,340,11.0,,,9999.0,,25.0,14.0,29.94,1015.0,,,,,,,,,,,,,,,Clear,72000.0,,,73000.0,,,,,,
KRDR,07-25-2009,21:00,METAR,,360,14.0,,,9999.0,,25.0,14.0,29.94,1015.0,,,,,,,,,,,,,,,Clear,72000.0,,,73000.0,,,,,,
KRDR,07-25-2009,20:00,METAR,,330,14.0,19.0,,9999.0,,25.0,14.0,29.95,1015.1,,,,,,,,,,,,,,,2/8 Mostly Clear,72000.0,,FEW,4400.0,,,,,,
KRDR,07-25-2009,19:00,METAR,,360,13.0,19.0,,9999.0,,24.0,14.0,29.95,1015.1,,,,,,,,,,,,,,,4/8 Partly Cloudy,72000.0,,SCT,5000.0,,,,,,
KRDR,07-25-2009,18:00,METAR,,350,10.0,,,9999.0,,23.0,15.0,29.95,1015.1,,,,,,,,,,,,,,,7/8 Mostly Cloudy,4300.0,,BKN,4400.0,,,,,,
KRDR,07-25-2009,17:00,METAR,,360,14.0,19.0,,9999.0,,23.0,15.0,29.93,1014.7,,,,,,,,,,,,,,,2/8 Mostly Clear,72000.0,,FEW,3200.0,,,,,,
KRDR,07-25-2009,16:00,METAR,,360,14.0,,,9999.0,,21.0,15.0,29.93,1014.5,,,,,,,,,,,,,,,4/8 Partly Cloudy,72000.0,,SCT,2700.0,,,,,,
KRDR,07-25-2009,15:46,SPECI,,350,15.0,19.0,,9999.0,,22.0,15.0,29.93,1014.6,,,,,,,,,,,,,,,7/8 Mostly Cloudy,2500.0,,BKN,2500.0,,,,,,
KRDR,07-25-2009,15:28,SPECI,,10,15.0,18.0,,9999.0,,21.0,15.0,29.93,1014.4,,,,,,,,,,,,,,,4/8 Partly Cloudy,72000.0,,SCT,2300.0,,,,,,
KRDR,07-25-2009,15:00,METAR,,350,10.0,18.0,,9999.0,,20.0,15.0,29.93,1014.5,,,,,,,,,,,,,,,7/8 Mostly Cloudy,2000.0,,BKN,2600.0,,,,,,
KRDR,07-25-2009,14:49,SPECI,,340,13.0,19.0,,9999.0,,20.0,15.0,29.93,1014.5,,,,,,,,,,,,,,,7/8 Mostly Cloudy,2000.0,,BKN,2800.0,,,,,,
KRDR,07-25-2009,14:00,METAR,,340,13.0,,,9999.0,,19.0,14.0,29.93,1014.4,,,,,,,,,,,,,,,Clear,72000.0,,,73000.0,,,,,,
KRDR,07-25-2009,13:00,METAR,,340,11.0,15.0,,9999.0,,17.0,14.0,29.91,1014.0,,,,,,,,,,,,,,,Clear,72000.0,,,73000.0,,,,,,
KRDR,07-25-2009,12:00,METAR,,320,8.0,,,9999.0,,16.0,13.0,29.90,1013.5,,,,,,,,,,,,,,,Clear,72000.0,,,73000.0,,,,,,
KRDR,07-25-2009,11:00,METAR,,330,8.0,,,9999.0,,15.0,13.0,29.89,1013.2,,,,,,,,,,,,,,,Clear,72000.0,,,73000.0,,,,,,
KRDR,07-25-2009,10:00,METAR,,330,9.0,,,9999.0,,16.0,13.0,29.88,1012.9,,,,,,,,,,,,,,,Clear,72000.0,,,73000.0,,,,,,
KRDR,07-25-2009,09:00,METAR,,320,10.0,,,9999.0,,16.0,12.0,29.87,1012.5,,,,,,,,,,,,,,,Clear,72000.0,,,73000.0,,,,,,
KRDR,07-25-2009,08:00,METAR,,300,8.0,,,9999.0,,15.0,13.0,29.86,1012.4,,,,,,,,,,,,,,,Clear,72000.0,,,73000.0,,,,,,
KRDR,07-25-2009,07:00,METAR,,320,7.0,,,9999.0,,16.0,13.0,29.86,1012.4,,,,,,,,,,,,,,,Clear,72000.0,,,73000.0,,,,,,
KRDR,07-25-2009,06:00,METAR,,340,7.0,,,9999.0,,15.0,13.0,29.87,1012.5,,,,,,,,,,,,,,,Clear,72000.0,,,73000.0,,,,,,
KRDR,07-25-2009,05:00,METAR,,330,7.0,,,9999.0,,15.0,12.0,29.86,1012.4,,,,,,,,,,,,,,,Clear,72000.0,,,73000.0,,,,,,
KRDR,07-25-2009,04:00,METAR,,320,6.0,,,9999.0,,17.0,13.0,29.85,1011.9,,,,,,,,,,,,,,,Clear,72000.0,,,73000.0,,,,,,
KRDR,07-25-2009,03:00,METAR,,330,5.0,,,9999.0,,18.0,13.0,29.84,1011.5,,,,,,,,,,,,,,,2/8 Mostly Clear,72000.0,,FEW,4900.0,,,,,,
KRDR,07-25-2009,02:00,METAR,,340,6.0,,,9999.0,,21.0,13.0,29.83,1011.4,,,,,,,,,,,,,,,4/8 Partly Cloudy,72000.0,,SCT,4900.0,,,,,,
KRDR,07-25-2009,01:00,METAR,,350,8.0,,,9999.0,,22.0,13.0,29.83,1011.2,,,,,,,,,,,,,,,2/8 Mostly Clear,72000.0,,FEW,5000.0,,,,,,
KRDR,07-25-2009,00:00,METAR,,360,12.0,17.0,,9999.0,,24.0,12.0,29.83,1011.2,,,,,,,,,,,,,,,4/8 Partly Cloudy,72000.0,,SCT,5000.0,,,,,,
KRDR,07-24-2009,23:00,METAR,,360,11.0,,,9999.0,,24.0,14.0,29.83,1011.2,,,,,,,,,,,,,,,7/8 Mostly Cloudy,4900.0,,BKN,5000.0,,,,,,
KRDR,07-24-2009,22:00,METAR,,360,12.0,,,9999.0,,23.0,14.0,29.82,1011.1,,,,,,,,,,,,,,,7/8 Mostly Cloudy,4900.0,,BKN,5000.0,,,,,,
KRDR,07-24-2009,21:00,METAR,,360,11.0,18.0,,9999.0,,25.0,14.0,29.82,1010.8,,,,,,,,,,,,,,,7/8 Mostly Cloudy,4900.0,,BKN,5000.0,,,,,,
KRDR,07-24-2009,20:00,METAR,,340,11.0,18.0,,9999.0,,24.0,14.0,29.82,1010.8,,,,,,,,,,,,,,,7/8 Mostly Cloudy,4900.0,,BKN,5000.0,,,,,,
KRDR,07-24-2009,19:00,METAR,,350,13.0,19.0,,9999.0,,23.0,14.0,29.82,1010.7,,,,,,,,,,,,,,,2/8 Mostly Clear,72000.0,,FEW,5000.0,,,,,,
KRDR,07-24-2009,18:00,METAR,,350,13.0,,,9999.0,,23.0,14.0,29.81,1010.7,,,,,,,,,,,,,,,2/8 Mostly Clear,72000.0,,FEW,4600.0,,,,,,
KRDR,07-24-2009,17:00,METAR,,330,13.0,19.0,,9999.0,,22.0,14.0,29.81,1010.6,,,,,,,,,,,,,,,Clear,72000.0,,,73000.0,,,,,,
KRDR,07-24-2009,16:00,METAR,,340,10.0,,,9999.0,,22.0,13.0,29.82,1010.8,,,,,,,,,,,,,,,2/8 Mostly Clear,72000.0,,FEW,6400.0,,,,,,
KRDR,07-24-2009,15:00,METAR,,330,9.0,,,9999.0,,20.0,14.0,29.82,1010.8,,,,,,,,,,,,,,,Clear,72000.0,,,73000.0,,,,,,
KRDR,07-24-2009,14:00,METAR,,330,11.0,,,9999.0,,20.0,14.0,29.81,1010.6,,,,,,,,,,,,,,,Clear,72000.0,,,73000.0,,,,,,
KRDR,07-24-2009,13:00,METAR,,320,8.0,,,9999.0,,18.0,14.0,29.81,1010.4,,,,,,,,,,,,,,,Clear,72000.0,,,73000.0,,,,,,
KRDR,07-24-2009,12:00,METAR,,290,5.0,,,9999.0,,15.0,13.0,29.79,1010.0,,,,,,,,,,,,,,.02 IN,Clear,72000.0,,,73000.0,,,,,,
KRDR,07-24-2009,11:00,METAR,,300,7.0,,,9999.0,,14.0,12.0,29.79,1009.9,,,,,,,,,,,,,,,Clear,72000.0,,,73000.0,,,,,,
KRDR,07-24-2009,10:00,METAR,,310,6.0,,,9999.0,,15.0,12.0,29.78,1009.5,,,,,,,,,,,,,,,Clear,72000.0,,,73000.0,,,,,,
KRDR,07-24-2009,09:00,METAR,,320,6.0,,,9999.0,,16.0,13.0,29.76,1009.0,,,,,,,,,,,,,,,Clear,72000.0,,,73000.0,,,,,,
KRDR,07-24-2009,08:00,METAR,,340,6.0,,,9999.0,,17.0,14.0,29.75,1008.6,,,,,,,,,,,,,,,Clear,72000.0,,,73000.0,,,,,,
KRDR,07-24-2009,07:00,METAR,,350,6.0,,,9999.0,,18.0,15.0,29.74,1008.3,,,,,,,,,,,,,,,Clear,72000.0,,,73000.0,,,,,,
KRDR,07-24-2009,06:00,METAR,,330,4.0,,,9999.0,,20.0,15.0,29.73,1007.9,,,,,,,,,,,,,.02 IN,,Clear,72000.0,,,73000.0,,,,,,
KRDR,07-24-2009,05:00,METAR,,340,5.0,,,9999.0,,21.0,15.0,29.72,1007.5,,,,,,,,,,,,,,,4/8 Partly Cloudy,72000.0,,SCT,12000.0,,,,,,
KRDR,07-24-2009,04:00,METAR,,320,6.0,,,9999.0,,23.0,16.0,29.69,1006.8,,,,,,,,,,,,,,,7/8 Mostly Cloudy,12000.0,,SCT,7900.0,BKN,12000.0,,,,
KRDR,07-24-2009,03:00,METAR,,310,6.0,,,9999.0,,23.0,15.0,29.66,1005.6,,,,,,,,,,,,.02 IN,,,7/8 Mostly Cloudy,12000.0,,SCT,7900.0,BKN,12000.0,BKN,25000.0,,
KRDR,07-24-2009,02:09,SPECI,,260,6.0,,,9999.0,,25.0,18.0,29.66,1005.6,,,,,,,,,,,,,,,7/8 Mostly Cloudy,8000.0,,BKN,7900.0,BKN,12000.0,BKN,25000.0,,
KRDR,07-24-2009,02:00,METAR,,230,7.0,,,9999.0,Thunderstorm,26.0,19.0,29.66,1005.5,,,,17,,,,,,,.02 IN,,,,7/8 Mostly Cloudy,8500.0,,FEW,6900.0,BKN,8400.0,,,,
KRDR,07-24-2009,01:42,SPECI,,210,4.0,,,9999.0,Thunderstorm,26.0,19.0,29.65,1005.3,,,,17,,,,,,,,,,,7/8 Mostly Cloudy,12000.0,,FEW,2600.0,SCT,6900.0,BKN,12000.0,BKN,25000.0
KRDR,07-24-2009,01:38,SPECI,,210,4.0,,,9999.0,Thunderstorm with Rain or Snow/Light Rain Showers,26.0,19.0,29.65,1005.3,,,,95,80,,,,,,,,,,7/8 Mostly Cloudy,12000.0,,FEW,2600.0,SCT,6900.0,BKN,12000.0,BKN,25000.0
KRDR,07-24-2009,01:28,SPECI,,300,6.0,15.0,,9999.0,Thunderstorm with Rain or Snow/Light Rain Showers,27.0,19.0,29.63,1004.8,,,,95,80,,,,,,,,,,2/8 Mostly Clear,72000.0,,FEW,300.0,,,,,,
KRDR,07-24-2009,01:25,SPECI,,300,10.0,15.0,,9999.0,Thunderstorm,27.0,19.0,29.63,,,,,17,,,,,,,,,,,7/8 Mostly Cloudy,12000.0,,SCT,6900.0,BKN,12000.0,BKN,25000.0,,
KRDR,07-24-2009,01:00,METAR,,220,5.0,,,9999.0,,28.0,20.0,29.66,1005.7,,,,,,,,,,,,,,,7/8 Mostly Cloudy,25000.0,,FEW,6900.0,SCT,12000.0,BKN,25000.0,,
KRDR,07-24-2009,00:00,METAR,,180,10.0,,,9999.0,,29.0,18.0,29.68,1006.1,,,,,,,,,,,,,,,7/8 Mostly Cloudy,12000.0,,BKN,12000.0,BKN,25000.0,,,,
KRDR,07-23-2009,23:00,METAR,,190,12.0,,,9999.0,,30.0,17.0,29.70,1006.9,,,,,,,,,,,,,,,7/8 Mostly Cloudy,12000.0,,FEW,7900.0,BKN,12000.0,BKN,25000.0,,
KRDR,07-23-2009,22:00,METAR,,200,16.0,21.0,,9999.0,,32.0,16.0,29.72,1007.7,,,,,,,,,,,,,,,7/8 Mostly Cloudy,25000.0,,FEW,7900.0,SCT,12000.0,BKN,25000.0,,
KRDR,07-23-2009,21:00,METAR,,210,14.0,,,9999.0,,32.0,15.0,29.75,1008.5,,,,,,,,,,,,,,,7/8 Mostly Cloudy,25000.0,,SCT,12000.0,BKN,25000.0,,,,
KRDR,07-23-2009,20:00,METAR,,210,12.0,,,9999.0,,31.0,13.0,29.77,1009.4,,,,,,,,,,,,,,,8/8 Overcast,25000.0,,FEW,9900.0,OVC,25000.0,,,,
KRDR,07-23-2009,19:00,METAR,,220,11.0,,,9999.0,,30.0,14.0,29.80,1010.3,,,,,,,,,,,,,,,7/8 Mostly Cloudy,25000.0,,FEW,9900.0,BKN,25000.0,,,,
KRDR,07-23-2009,18:00,METAR,,180,10.0,,,9999.0,,29.0,14.0,29.82,1011.0,,,,,,,,,,,,,,,7/8 Mostly Cloudy,22000.0,,FEW,9900.0,BKN,22000.0,,,,
KRDR,07-23-2009,17:00,METAR,,220,5.0,,,9999.0,,28.0,16.0,29.85,1011.8,,,,,,,,,,,,,,,Clear,72000.0,,,73000.0,,,,,,
KRDR,07-23-2009,16:00,METAR,,220,4.0,,,9999.0,,23.0,16.0,29.86,1012.2,,,,,,,,,,,,,,,7/8 Mostly Cloudy,20000.0,,FEW,9900.0,BKN,20000.0,,,,
KRDR,07-23-2009,15:00,METAR,,240,5.0,,,9999.0,,21.0,15.0,29.87,1012.6,,,,,,,,,,,,,,,7/8 Mostly Cloudy,20000.0,,FEW,9900.0,BKN,20000.0,,,,
KRDR,07-23-2009,14:00,METAR,,250,5.0,,,9999.0,,19.0,14.0,29.88,1012.7,,,,,,,,,,,,,,,8/8 Overcast,20000.0,,FEW,9900.0,OVC,20000.0,,,,
KRDR,07-23-2009,13:00,METAR,,240,4.0,,,9999.0,,20.0,14.0,29.88,1013.0,,,,,,,,,,,,,,,7/8 Mostly Cloudy,20000.0,,FEW,9900.0,BKN,20000.0,,,,
KRDR,07-23-2009,12:00,METAR,,210,3.0,,,9999.0,,15.0,12.0,29.89,1013.1,,,,,,,,,,,,,,.06 IN,Clear,72000.0,,,73000.0,,,,,,
KRDR,07-23-2009,11:00,METAR,,190,3.0,,,9999.0,,15.0,12.0,29.89,1013.3,,,,,,,,,,,,,,,8/8 Overcast,20000.0,,SCT,7900.0,OVC,20000.0,,,,
KRDR,07-23-2009,10:00,METAR,,210,6.0,,,9999.0,,15.0,12.0,29.89,1013.2,,,,,,,,,,,,,,,Clear,72000.0,,,73000.0,,,,,,
KRDR,07-23-2009,09:00,METAR,,220,4.0,,,9999.0,,14.0,11.0,29.90,1013.7,,,,,,,,,,,,,,,7/8 Mostly Cloudy,20000.0,,BKN,20000.0,,,,,,
KRDR,07-23-2009,08:00,METAR,,230,5.0,,,9999.0,,14.0,11.0,29.91,1013.9,,,,,,,,,,,,,,,Clear,72000.0,,,73000.0,,,,,,
KRDR,07-23-2009,07:00,METAR,,240,4.0,,,9999.0,,14.0,12.0,29.91,1014.0,,,,,,,,,,,,,,,Clear,72000.0,,,73000.0,,,,,,
KRDR,07-23-2009,06:00,METAR,,230,5.0,,,9999.0,,14.0,12.0,29.92,1014.1,,,,,,,,,,,,,.06 IN,,2/8 Mostly Clear,72000.0,,FEW,11000.0,,,,,,
KRDR,07-23-2009,05:00,METAR,,220,6.0,,,9999.0,,15.0,13.0,29.92,1014.2,,,,,,,,,,,,,,,4/8 Partly Cloudy,72000.0,,SCT,11000.0,,,,,,
KRDR,07-23-2009,04:00,METAR,,240,2.0,,,9999.0,,17.0,13.0,29.93,1014.7,,,,,,,,,,,,,,,7/8 Mostly Cloudy,10000.0,,BKN,9900.0,,,,,,
KRDR,07-23-2009,03:00,METAR,,250,4.0,,,9999.0,,16.0,14.0,29.92,1014.5,,,,,,,,,,,TRACE,.06 IN,,,7/8 Mostly Cloudy,10000.0,,SCT,4000.0,BKN,9900.0,BKN,25000.0,,
KRDR,07-23-2009,02:03,SPECI,,140,10.0,,,9999.0,,18.0,14.0,29.91,1013.9,,,,,,,,,,,,,,,7/8 Mostly Cloudy,11000.0,,SCT,4800.0,BKN,11000.0,BKN,25000.0,,
KRDR,07-23-2009,02:00,METAR,,120,9.0,,320/39KTS,9999.0,Rain,18.0,14.0,29.92,1014.4,,,,61,,,,,,,.06 IN,,,,7/8 Mostly Cloudy,5500.0,,BKN,5400.0,BKN,9900.0,,,,
KRDR,07-23-2009,01:33,SPECI,,40,13.0,20.0,320/39KTS,9999.0,Thunderstorm with Rain or Snow/Light Rain Showers,17.0,15.0,29.95,1015.3,,,,95,80,,,,,,,,,,7/8 Mostly Cloudy,5500.0,,BKN,5400.0,BKN,11000.0,BKN,25000.0,,
KRDR,07-23-2009,01:14,SPECI,,350,20.0,31.0,320/39KTS,9999.0,Thunderstorm with Rain or Snow/Light Rain Showers,21.0,14.0,29.96,1015.8,,,,95,80,,,,,,,,,,7/8 Mostly Cloudy,7000.0,,FEW,4700.0,SCT,5900.0,BKN,6900.0,,
KRDR,07-23-2009,01:00,METAR,,350,4.0,,,9999.0,Thunderstorm,23.0,12.0,29.92,1014.2,,,,17,,,,,,,TRACE,,,,7/8 Mostly Cloudy,11000.0,,SCT,4000.0,BKN,11000.0,BKN,25000.0,,
KRDR,07-23-2009,00:51,SPECI,,350,4.0,,,9999.0,Thunderstorm,23.0,12.0,29.91,,,,,17,,,,,,,,,,,7/8 Mostly Cloudy,11000.0,,SCT,5900.0,BKN,11000.0,BKN,25000.0,,
KRDR,07-23-2009,00:05,SPECI,,360,8.0,,,9999.0,,25.0,9.0,29.91,1013.9,,,,,,,,,,,,,,,7/8 Mostly Cloudy,10000.0,,SCT,5900.0,BKN,9900.0,BKN,25000.0,,
KRDR,07-23-2009,00:00,METAR,,350,11.0,19.0,,9999.0,,23.0,10.0,29.91,1013.9,,,,,,,,,,,TRACE,,TRACE,,7/8 Mostly Cloudy,10000.0,,SCT,5900.0,BKN,9900.0,BKN,25000.0,,
KRDR,07-22-2009,23:49,SPECI,,350,8.0,,,9999.0,,23.0,11.0,29.91,1014.0,,,,,,,,,,,,,,,7/8 Mostly Cloudy,10000.0,,SCT,7900.0,BKN,9900.0,BKN,25000.0,,
KRDR,07-22-2009,23:00,METAR,,,6.0,,,9999.0,,26.0,10.0,29.91,1014.0,,,,,,,,,,,,,,,7/8 Mostly Cloudy,6000.0,,BKN,5900.0,BKN,8900.0,BKN,25000.0,,
KRDR,07-22-2009,22:00,METAR,,330,6.0,,,9999.0,,27.0,8.0,29.92,1014.3,,,,,,,,,,,,,,,4/8 Partly Cloudy,72000.0,,FEW,5900.0,SCT,7900.0,SCT,25000.0,,
KRDR,07-22-2009,21:00,METAR,,320,9.0,,,9999.0,,27.0,9.0,29.92,1014.4,,,,,,,,,,,,,,,4/8 Partly Cloudy,72000.0,,FEW,5900.0,SCT,12000.0,,,,
KRDR,07-22-2009,20:00,METAR,,310,8.0,,,9999.0,,27.0,10.0,29.92,1014.5,,,,,,,,,,,,,,,4/8 Partly Cloudy,72000.0,,SCT,7900.0,,,,,,
KRDR,07-22-2009,19:00,METAR,,290,13.0,,,9999.0,,27.0,10.0,29.94,1014.9,,,,,,,,,,,,,,,4/8 Partly Cloudy,72000.0,,FEW,7900.0,SCT,12000.0,,,,
KRDR,07-22-2009,18:00,METAR,,300,9.0,,,9999.0,,26.0,11.0,29.95,1015.1,,,,,,,,,,,,,,,4/8 Partly Cloudy,72000.0,,FEW,7900.0,SCT,12000.0,,,,
KRDR,07-22-2009,17:00,METAR,,300,10.0,,,9999.0,,26.0,12.0,29.95,1015.2,,,,,,,,,,,,,,,2/8 Mostly Clear,72000.0,,FEW,7900.0,,,,,,
KRDR,07-22-2009,16:00,METAR,,320,5.0,,,9999.0,,24.0,14.0,29.95,1015.3,,,,,,,,,,,,,,,2/8 Mostly Clear,72000.0,,FEW,7900.0,,,,,,
KRDR,07-22-2009,15:00,METAR,,300,7.0,,,9999.0,,23.0,14.0,29.95,1015.1,,,,,,,,,,,,,,,4/8 Partly Cloudy,72000.0,,FEW,5000.0,SCT,12000.0,,,,
KRDR,07-22-2009,14:00,METAR,,290,6.0,,,9999.0,,21.0,14.0,29.95,1015.0,,,,,,,,,,,,,,,4/8 Partly Cloudy,72000.0,,FEW,5000.0,SCT,12000.0,,,,
KRDR,07-22-2009,13:00,METAR,,280,4.0,,,9999.0,,18.0,13.0,29.94,1014.9,,,,,,,,,,,,,,,4/8 Partly Cloudy,72000.0,,FEW,5000.0,SCT,12000.0,,,,
KRDR,07-22-2009,12:00,METAR,,270,5.0,,,9999.0,,15.0,12.0,29.93,1014.5,,,,,,,,,,,,,,,4/8 Partly Cloudy,72000.0,,FEW,4000.0,SCT,12000.0,,,,
KRDR,07-22-2009,11:00,METAR,,280,6.0,,,9999.0,,14.0,11.0,29.92,1014.3,,,,,,,,,,,,,,,4/8 Partly Cloudy,72000.0,,FEW,4000.0,SCT,12000.0,,,,
KRDR,07-22-2009,10:00,METAR,,270,5.0,,,9999.0,,13.0,11.0,29.91,1013.8,,,,,,,,,,,,,,,Clear,72000.0,,,73000.0,,,,,,
KRDR,07-22-2009,09:00,METAR,,270,5.0,,,9999.0,,13.0,11.0,29.91,1013.8,,,,,,,,,,,,,,,Clear,72000.0,,,73000.0,,,,,,
KRDR,07-22-2009,08:00,METAR,,270,5.0,,,9999.0,,14.0,11.0,29.91,1013.8,,,,,,,,,,,,,,,Clear,72000.0,,,73000.0,,,,,,
KRDR,07-22-2009,07:00,METAR,,270,6.0,,,9999.0,,16.0,11.0,29.91,1013.9,,,,,,,,,,,,,,,Clear,72000.0,,,73000.0,,,,,,
KRDR,07-22-2009,06:00,METAR,,280,6.0,,,9999.0,,18.0,12.0,29.91,1013.9,,,,,,,,,,,,,,,7/8 Mostly Cloudy,8000.0,,BKN,7900.0,,,,,,
KRDR,07-22-2009,05:00,METAR,,250,5.0,,,9999.0,,17.0,12.0,29.91,1014.0,,,,,,,,,,,,,,,8/8 Overcast,9500.0,,OVC,9400.0,,,,,,
KRDR,07-22-2009,04:00,METAR,,240,5.0,,,9999.0,,17.0,12.0,29.92,1014.1,,,,,,,,,,,,,,,7/8 Mostly Cloudy,9000.0,,BKN,8900.0,,,,,,
KRDR,07-22-2009,03:00,METAR,,250,5.0,,,9999.0,,17.0,11.0,29.91,1013.8,,,,,,,,,,,,,,,4/8 Partly Cloudy,72000.0,,SCT,9900.0,,,,,,
KRDR,07-22-2009,02:00,METAR,,290,4.0,,,9999.0,,21.0,11.0,29.90,1013.4,,,,,,,,,,,,,,,2/8 Mostly Clear,72000.0,,FEW,5900.0,,,,,,
KRDR,07-22-2009,01:00,METAR,,310,9.0,,,9999.0,,23.0,10.0,29.89,1013.2,,,,,,,,,,,,,,,2/8 Mostly Clear,72000.0,,FEW,5400.0,,,,,,
KRDR,07-22-2009,00:00,METAR,,330,9.0,,,9999.0,,24.0,9.0,29.88,1012.8,,,,,,,,,,,,,,,4/8 Partly Cloudy,72000.0,,SCT,7400.0,,,,,,
KRDR,07-21-2009,23:00,METAR,,320,13.0,,,9999.0,,25.0,9.0,29.88,1012.8,,,,,,,,,,,,,,,4/8 Partly Cloudy,72000.0,,SCT,5900.0,,,,,,
KRDR,07-21-2009,22:00,METAR,,310,10.0,15.0,,9999.0,,24.0,10.0,29.88,1012.9,,,,,,,,,,,,,,,4/8 Partly Cloudy,72000.0,,SCT,6400.0,SCT,8900.0,,,,
KRDR,07-21-2009,21:00,METAR,,300,14.0,19.0,,9999.0,,25.0,10.0,29.89,1013.2,,,,,,,,,,,,,,,4/8 Partly Cloudy,72000.0,,SCT,6400.0,SCT,9900.0,,,,
KRDR,07-21-2009,20:00,METAR,,300,14.0,23.0,,9999.0,,25.0,10.0,29.89,1013.4,,,,,,,,,,,,,,,7/8 Mostly Cloudy,10000.0,,SCT,5900.0,BKN,9900.0,,,,
KRDR,07-21-2009,19:00,METAR,,300,14.0,21.0,,9999.0,,25.0,11.0,29.89,1012.4,,,,,,,,,,,,,,,7/8 Mostly Cloudy,10000.0,,SCT,6400.0,BKN,9900.0,,,,
KRDR,07-21-2009,18:00,METAR,,290,10.0,19.0,,9999.0,,24.0,12.0,29.91,1013.9,,,,,,,,,,,,,,,4/8 Partly Cloudy,72000.0,,FEW,5900.0,SCT,9900.0,,,,
KRDR,07-21-2009,17:00,METAR,,310,13.0,19.0,,9999.0,,23.0,12.0,29.91,1014.0,,,,,,,,,,,,,,,Clear,72000.0,,,73000.0,,,,,,
KRDR,07-21-2009,16:00,METAR,,310,10.0,17.0,,9999.0,,21.0,12.0,29.92,1014.1,,,,,,,,,,,,,,,2/8 Mostly Clear,72000.0,,FEW,9900.0,,,,,,
KRDR,07-21-2009,15:00,METAR,,320,16.0,,,9999.0,,21.0,12.0,29.90,1013.6,,,,,,,,,,,,,,,2/8 Mostly Clear,72000.0,,FEW,9900.0,,,,,,
KRDR,07-21-2009,14:00,METAR,,290,11.0,,,9999.0,,19.0,13.0,29.90,1013.6,,,,,,,,,,,,,,,4/8 Partly Cloudy,72000.0,,SCT,9900.0,,,,,,
KRDR,07-21-2009,13:00,METAR,,290,9.0,,,9999.0,,18.0,13.0,29.90,1013.5,,,,,,,,,,,,,,,4/8 Partly Cloudy,72000.0,,SCT,9900.0,,,,,,
KRDR,07-21-2009,12:00,METAR,,280,8.0,,,9999.0,,17.0,13.0,29.89,1013.4,,,,,,,,,,,,,,,4/8 Partly Cloudy,72000.0,,SCT,9900.0,,,,,,
KRDR,07-21-2009,11:00,METAR,,280,9.0,,,9999.0,,17.0,13.0,29.88,1013.0,,,,,,,,,,,,,,,8/8 Overcast,11000.0,,OVC,11000.0,,,,,,
KRDR,07-21-2009,10:00,METAR,,270,7.0,,,9999.0,,17.0,13.0,29.88,1012.9,,,,,,,,,,,,,,,8/8 Overcast,10000.0,,OVC,9900.0,,,,,,
KRDR,07-21-2009,09:00,METAR,,270,4.0,,,9999.0,,17.0,13.0,29.87,1012.7,,,,,,,,,,,,,,,8/8 Overcast,11000.0,,OVC,11000.0,,,,,,
KRDR,07-21-2009,08:00,METAR,,280,7.0,,,9999.0,,16.0,13.0,29.87,1012.7,,,,,,,,,,,,,,,Clear,72000.0,,,73000.0,,,,,,
KRDR,07-21-2009,07:00,METAR,,280,6.0,,,9999.0,,17.0,13.0,29.87,1012.7,,,,,,,,,,,,,,,Clear,72000.0,,,73000.0,,,,,,
KRDR,07-21-2009,06:00,METAR,,270,7.0,,,9999.0,,16.0,13.0,29.88,1012.7,,,,,,,,,,,,,,,Clear,72000.0,,,73000.0,,,,,,
KRDR,07-21-2009,05:00,METAR,,290,4.0,,,9999.0,,16.0,13.0,29.88,1013.0,,,,,,,,,,,,,,,Clear,72000.0,,,73000.0,,,,,,
KRDR,07-21-2009,04:00,METAR,,260,5.0,,,9999.0,,18.0,15.0,29.89,1013.1,,,,,,,,,,,,,,,7/8 Mostly Cloudy,10000.0,,BKN,9900.0,,,,,,
KRDR,07-21-2009,03:00,METAR,,240,4.0,,,9999.0,,19.0,15.0,29.88,1013.0,,,,,,,,,,,,,,,7/8 Mostly Cloudy,9000.0,,SCT,5900.0,BKN,8900.0,BKN,25000.0,,
KRDR,07-21-2009,02:00,METAR,,,0.0,,,9999.0,,21.0,14.0,29.86,1012.3,,,,,,,,,,,,,,,4/8 Partly Cloudy,72000.0,,SCT,4000.0,SCT,8900.0,SCT,25000.0,,
KRDR,07-21-2009,01:00,METAR,,280,6.0,,,9999.0,,24.0,14.0,29.88,1012.7,,,,,,,,,,,,,,,4/8 Partly Cloudy,72000.0,,FEW,4900.0,SCT,9900.0,SCT,22000.0,,
KRDR,07-21-2009,00:00,METAR,,310,6.0,,,9999.0,,24.0,14.0,29.87,1012.5,,,,,,,,,,,,,TRACE,,4/8 Partly Cloudy,72000.0,,FEW,5000.0,SCT,9900.0,SCT,22000.0,,
KRDR,07-20-2009,23:00,METAR,,290,8.0,,,9999.0,,24.0,14.0,29.87,1012.6,,,,,,,,,,,,,,,7/8 Mostly Cloudy,22000.0,,SCT,4800.0,SCT,9900.0,BKN,22000.0,,
KRDR,07-20-2009,22:00,METAR,,300,14.0,20.0,,9999.0,,24.0,13.0,29.87,1012.4,,,,,,,,,,,,,,,7/8 Mostly Cloudy,22000.0,,FEW,4000.0,SCT,9900.0,BKN,22000.0,,
KRDR,07-20-2009,21:00,METAR,,280,9.0,,,9999.0,,23.0,12.0,29.85,1012.1,,,,,,,,,,,TRACE,TRACE,,,7/8 Mostly Cloudy,11000.0,,FEW,4000.0,BKN,11000.0,BKN,22000.0,,
KRDR,07-20-2009,20:00,SPECI,,270,7.0,,,9999.0,,21.0,14.0,29.85,,,,,,,,,,,,,,,,7/8 Mostly Cloudy,12000.0,,SCT,3000.0,BKN,12000.0,BKN,22000.0,,
KRDR,07-20-2009,20:00,METAR,,250,7.0,,,9999.0,Rain,21.0,14.0,29.85,1012.1,,,,61,,,,,,,TRACE,,,,7/8 Mostly Cloudy,12000.0,,SCT,3000.0,BKN,12000.0,BKN,22000.0,,
KRDR,07-20-2009,19:42,SPECI,,280,8.0,,,9999.0,Rain,22.0,13.0,29.86,1012.1,,,,61,,,,,,,,,,,7/8 Mostly Cloudy,12000.0,,SCT,3000.0,BKN,12000.0,,,,
KRDR,07-20-2009,19:00,METAR,,300,9.0,,,9999.0,,24.0,13.0,29.86,1012.3,,,,,,,,,,,,,,,8/8 Overcast,12000.0,,FEW,3000.0,OVC,12000.0,,,,
KRDR,07-20-2009,18:00,METAR,,310,9.0,,,9999.0,,25.0,14.0,29.85,1011.8,,,,,,,,,,,,,,,4/8 Partly Cloudy,72000.0,,FEW,4000.0,SCT,7900.0,,,,
KRDR,07-20-2009,17:00,METAR,,250,9.0,,,9999.0,,24.0,16.0,29.86,1012.2,,,,,,,,,,,,,,,4/8 Partly Cloudy,72000.0,,FEW,4000.0,SCT,7900.0,,,,
KRDR,07-20-2009,16:00,METAR,,230,6.0,,,9999.0,,21.0,16.0,29.85,1011.9,,,,,,,,,,,,,,,4/8 Partly Cloudy,72000.0,,FEW,4000.0,SCT,7900.0,,,,
KRDR,07-20-2009,15:00,METAR,,180,10.0,,,9999.0,,20.0,15.0,29.83,1011.4,,,,,,,,,,,,,,,2/8 Mostly Clear,72000.0,,FEW,7900.0,,,,,,
KRDR,07-20-2009,14:00,METAR,,190,11.0,,,9999.0,,18.0,15.0,29.85,1011.8,,,,,,,,,,,,,,,7/8 Mostly Cloudy,12000.0,,SCT,3500.0,BKN,12000.0,,,,
KRDR,07-20-2009,13:00,METAR,,190,11.0,,,9999.0,,17.0,14.0,29.85,1011.8,,,,,,,,,,,,,,,2/8 Mostly Clear,72000.0,,FEW,12000.0,,,,,,
KRDR,07-20-2009,12:14,SPECI,,270,9.0,,,9999.0,,16.0,14.0,29.83,1011.2,,,,,,,,,,,,,,,2/8 Mostly Clear,72000.0,,FEW,12000.0,,,,,,
KRDR,07-20-2009,12:00,METAR,,170,9.0,,,9999.0,,16.0,14.0,29.81,1010.6,,,,,,,,,,,TRACE,,.04 IN,.04 IN,4/8 Partly Cloudy,72000.0,,FEW,5000.0,SCT,12000.0,,,,
KRDR,07-20-2009,11:21,SPECI,,200,9.0,,,9999.0,,16.0,14.0,29.83,1011.2,,,,,,,,,,,,,,,4/8 Partly Cloudy,72000.0,,FEW,5000.0,SCT,12000.0,,,,
KRDR,07-20-2009,11:11,SPECI,,170,8.0,,,9999.0,Fog or Ice Fog,16.0,13.0,29.79,1009.8,,,,40,,,,,,,,,,,2/8 Mostly Clear,72000.0,,FEW,12000.0,,,,,,
KRDR,07-20-2009,11:00,METAR,,170,12.0,,,9999.0,,16.0,14.0,29.78,1009.7,,,,,,,,,,,,,,,4/8 Partly Cloudy,72000.0,,FEW,5000.0,SCT,12000.0,,,,
KRDR,07-20-2009,10:00,METAR,,190,8.0,,,9999.0,,16.0,15.0,29.82,1011.0,,,,,,,,,,,.04 IN,,,,2/8 Mostly Clear,72000.0,,FEW,12000.0,,,,,,
KRDR,07-20-2009,09:33,SPECI,,160,9.0,,,9999.0,,16.0,14.0,29.82,1010.8,,,,,,,,,,,,,,,2/8 Mostly Clear,72000.0,,FEW,900.0,,,,,,
KRDR,07-20-2009,09:14,SPECI,,180,11.0,,,9999.0,Rain,17.0,13.0,29.83,1011.2,62,,,,,,,,,,,,,,2/8 Mostly Clear,72000.0,,FEW,700.0,,,,,,
KRDR,07-20-2009,09:00,METAR,,200,10.0,,,9999.0,,18.0,13.0,29.84,1011.5,,,,,,,,,,,TRACE,TRACE,,,Clear,72000.0,,,73000.0,,,,,,
KRDR,07-20-2009,08:38,SPECI,,180,15.0,,,9999.0,,18.0,13.0,29.83,1011.2,,,,,,,,,,,,,,,Clear,72000.0,,,73000.0,,,,,,
KRDR,07-20-2009,08:00,METAR,,210,7.0,,,9999.0,,18.0,12.0,29.85,1012.0,,,,,,,,,,,,,,,Clear,72000.0,,,73000.0,,,,,,
KRDR,07-20-2009,07:00,METAR,,160,14.0,,,9999.0,,18.0,12.0,29.83,1011.4,,,,,,,,,,,,,,,Clear,72000.0,,,73000.0,,,,,,
KRDR,07-20-2009,06:00,METAR,,160,12.0,,,9999.0,,18.0,12.0,29.86,1012.2,,,,,,,,,,,,,,,4/8 Partly Cloudy,72000.0,,FEW,6900.0,SCT,25000.0,,,,
KRDR,07-20-2009,05:00,METAR,,160,14.0,,,9999.0,,19.0,12.0,29.87,1012.6,,,,,,,,,,,,,,,4/8 Partly Cloudy,72000.0,,FEW,6900.0,SCT,25000.0,,,,
KRDR,07-20-2009,04:00,METAR,,160,13.0,,,9999.0,,20.0,12.0,29.88,1013.0,,,,,,,,,,,,,,,4/8 Partly Cloudy,72000.0,,FEW,12000.0,SCT,25000.0,,,,
KRDR,07-20-2009,02:00,METAR,,160,13.0,,,9999.0,,23.0,14.0,29.87,1012.6,,,,,,,,,,,,,,,2/8 Mostly Clear,72000.0,,FEW,12000.0,FEW,25000.0,,,,
KRDR,07-20-2009,01:00,METAR,,160,13.0,,,9999.0,,25.0,14.0,29.88,1013.0,,,,,,,,,,,,,,,Clear,72000.0,,,73000.0,,,,,,
KRDR,07-20-2009,00:00,METAR,,180,19.0,,,9999.0,,26.0,14.0,29.90,1013.4,,,,,,,,,,,,,,,Clear,72000.0,,,73000.0,,,,,,
KRDR,07-19-2009,23:00,METAR,,170,17.0,,,9999.0,,27.0,14.0,29.91,1014.0,,,,,,,,,,,,,,,Clear,72000.0,,,73000.0,,,,,,
KRDR,07-19-2009,22:00,METAR,,180,16.0,,,9999.0,,27.0,14.0,29.93,1014.6,,,,,,,,,,,,,,,Clear,72000.0,,,73000.0,,,,,,
KRDR,07-19-2009,21:00,METAR,,170,15.0,20.0,,9999.0,,27.0,15.0,29.94,1014.9,,,,,,,,,,,,,,,2/8 Mostly Clear,72000.0,,FEW,5000.0,,,,,,
KRDR,07-19-2009,20:00,METAR,,170,14.0,19.0,,9999.0,,26.0,14.0,29.97,1015.8,,,,,,,,,,,,,,,4/8 Partly Cloudy,72000.0,,FEW,5000.0,SCT,25000.0,,,,
KRDR,07-19-2009,19:00,METAR,,170,14.0,,,9999.0,,26.0,14.0,29.98,1016.3,,,,,,,,,,,,,,,4/8 Partly Cloudy,72000.0,,FEW,5000.0,SCT,22000.0,,,,
KRDR,07-19-2009,18:00,METAR,,180,14.0,,,9999.0,,25.0,14.0,30.01,1017.2,,,,,,,,,,,,,,,Clear,72000.0,,,73000.0,,,,,,
KRDR,07-19-2009,17:00,METAR,,200,11.0,,,9999.0,,24.0,14.0,30.02,1017.6,,,,,,,,,,,,,,,Clear,72000.0,,,73000.0,,,,,,
KRDR,07-19-2009,16:00,METAR,,180,10.0,,,9999.0,,23.0,14.0,30.04,1018.2,,,,,,,,,,,,,,,Clear,72000.0,,,73000.0,,,,,,
KRDR,07-19-2009,15:00,METAR,,200,9.0,,,9999.0,,21.0,13.0,30.07,1019.0,,,,,,,,,,,,,,,Clear,72000.0,,,73000.0,,,,,,
KRDR,07-19-2009,14:00,METAR,,180,8.0,,,9999.0,,19.0,13.0,30.08,1019.5,,,,,,,,,,,,,,,Clear,72000.0,,,73000.0,,,,,,
KRDR,07-19-2009,13:00,METAR,,180,5.0,,,9999.0,,16.0,12.0,30.09,1019.8,,,,,,,,,,,,,,,Clear,72000.0,,,73000.0,,,,,,
KRDR,07-19-2009,12:00,METAR,,170,5.0,,,9999.0,,12.0,10.0,30.09,1019.9,,,,,,,,,,,,,,,Clear,72000.0,,,73000.0,,,,,,
KRDR,07-19-2009,11:00,METAR,,180,5.0,,,9999.0,,10.0,8.0,30.10,1020.0,,,,,,,,,,,,,,,Clear,72000.0,,,73000.0,,,,,,
KRDR,07-19-2009,10:00,METAR,,200,3.0,,,9999.0,,9.0,8.0,30.10,1020.1,,,,,,,,,,,,,,,Clear,72000.0,,,73000.0,,,,,,
KRDR,07-19-2009,09:00,METAR,,,0.0,,,9999.0,,10.0,8.0,30.10,1020.2,,,,,,,,,,,,,,,Clear,72000.0,,,73000.0,,,,,,
KRDR,07-19-2009,08:00,METAR,,170,4.0,,,9999.0,,11.0,9.0,30.11,1020.4,,,,,,,,,,,,,,,Clear,72000.0,,,73000.0,,,,,,
KRDR,07-19-2009,07:00,METAR,,230,3.0,,,9999.0,,11.0,10.0,30.11,1020.6,,,,,,,,,,,,,,,Clear,72000.0,,,73000.0,,,,,,
KRDR,07-19-2009,06:00,METAR,,200,3.0,,,9999.0,,11.0,10.0,30.12,1020.7,,,,,,,,,,,,,,,Clear,72000.0,,,73000.0,,,,,,
KRDR,07-19-2009,05:00,METAR,,,0.0,,,9999.0,,12.0,10.0,30.13,1021.1,,,,,,,,,,,,,,,Clear,72000.0,,,73000.0,,,,,,
KRDR,07-19-2009,04:00,METAR,,100,3.0,,,9999.0,,14.0,11.0,30.14,1021.3,,,,,,,,,,,,,,,Clear,72000.0,,,73000.0,,,,,,
KRDR,07-19-2009,03:00,METAR,,,0.0,,,9999.0,,15.0,11.0,30.13,1021.2,,,,,,,,,,,,,,,Clear,72000.0,,,73000.0,,,,,,
KRDR,07-19-2009,02:00,METAR,,70,4.0,,,9999.0,,20.0,11.0,30.12,1020.9,,,,,,,,,,,,,,,Clear,72000.0,,,73000.0,,,,,,
KRDR,07-19-2009,01:00,METAR,,30,6.0,,,9999.0,,22.0,11.0,30.12,1020.9,,,,,,,,,,,,,,,Clear,72000.0,,,73000.0,,,,,,
KRDR,07-19-2009,00:00,METAR,,20,7.0,,,9999.0,,22.0,10.0,30.13,1021.0,,,,,,,,,,,,,,,Clear,72000.0,,,73000.0,,,,,,
KRDR,07-18-2009,23:00,METAR,,40,8.0,,,9999.0,,23.0,10.0,30.13,1021.1,,,,,,,,,,,,,,,Clear,72000.0,,,73000.0,,,,,,
KRDR,07-18-2009,22:00,METAR,,10,9.0,,,9999.0,,23.0,10.0,30.14,1021.3,,,,,,,,,,,,,,,Clear,72000.0,,,73000.0,,,,,,
KRDR,07-18-2009,21:00,METAR,,350,9.0,,,9999.0,,23.0,10.0,30.15,1021.7,,,,,,,,,,,,,,,2/8 Mostly Clear,72000.0,,FEW,5000.0,,,,,,
KRDR,07-18-2009,20:00,METAR,,10,7.0,,,9999.0,,22.0,11.0,30.16,1022.2,,,,,,,,,,,,,,,2/8 Mostly Clear,72000.0,,FEW,5000.0,,,,,,
KRDR,07-18-2009,19:00,METAR,,30,5.0,,,9999.0,,22.0,10.0,30.17,1022.3,,,,,,,,,,,,,,,Clear,72000.0,,,73000.0,,,,,,
KRDR,07-18-2009,18:00,METAR,,360,7.0,,,9999.0,,21.0,10.0,30.18,1022.8,,,,,,,,,,,,,,,2/8 Mostly Clear,72000.0,,FEW,5400.0,,,,,,
KRDR,07-18-2009,17:00,METAR,,360,5.0,,,9999.0,,20.0,10.0,30.19,1023.1,,,,,,,,,,,,,,,2/8 Mostly Clear,72000.0,,FEW,4100.0,,,,,,
KRDR,07-18-2009,16:00,METAR,,10,7.0,,,9999.0,,19.0,11.0,30.20,1023.4,,,,,,,,,,,,,,,4/8 Partly Cloudy,72000.0,,SCT,3100.0,,,,,,
KRDR,07-18-2009,15:00,METAR,,320,5.0,,,9999.0,,18.0,10.0,30.20,1023.5,,,,,,,,,,,,,,,Clear,72000.0,,,73000.0,,,,,,
KRDR,07-18-2009,14:00,METAR,,,0.0,,,9999.0,,16.0,11.0,30.20,1023.5,,,,,,,,,,,,,,,4/8 Partly Cloudy,72000.0,,FEW,5900.0,SCT,22000.0,,,,
KRDR,07-18-2009,13:00,METAR,,300,3.0,,,9999.0,,14.0,11.0,30.20,1023.4,,,,,,,,,,,,,,,2/8 Mostly Clear,72000.0,,FEW,5000.0,FEW,9900.0,,,,
KRDR,07-18-2009,12:00,METAR,,300,4.0,,,9999.0,,10.0,9.0,30.19,1023.2,,,,,,,,,,,,,,,2/8 Mostly Clear,72000.0,,FEW,9900.0,FEW,20000.0,,,,
KRDR,07-18-2009,11:00,METAR,,310,4.0,,,9999.0,,8.0,7.0,30.19,1023.1,,,,,,,,,,,,,,,2/8 Mostly Clear,72000.0,,FEW,9900.0,FEW,20000.0,,,,
KRDR,07-18-2009,10:00,METAR,,310,5.0,,,9999.0,,10.0,8.0,30.19,1023.0,,,,,,,,,,,,,,,4/8 Partly Cloudy,72000.0,,SCT,3200.0,,,,,,
KRDR,07-18-2009,09:00,METAR,,,0.0,,,9999.0,,10.0,9.0,30.18,1022.7,,,,,,,,,,,,,,,7/8 Mostly Cloudy,3100.0,,BKN,3200.0,,,,,,
KRDR,07-18-2009,08:00,METAR,,310,6.0,,,9999.0,,10.0,9.0,30.17,1022.5,,,,,,,,,,,,,,,8/8 Overcast,4000.0,,OVC,4100.0,,,,,,
KRDR,07-18-2009,07:00,METAR,,310,4.0,,,9999.0,,9.0,8.0,30.17,1022.6,,,,,,,,,,,,,,,7/8 Mostly Cloudy,4000.0,,BKN,4100.0,,,,,,
KRDR,07-18-2009,06:00,METAR,,320,4.0,,,9999.0,,10.0,9.0,30.17,1022.6,,,,,,,,,,,,,,,Clear,72000.0,,,73000.0,,,,,,
KRDR,07-18-2009,05:00,METAR,,340,4.0,,,9999.0,,12.0,9.0,30.17,1022.4,,,,,,,,,,,,,,,Clear,72000.0,,,73000.0,,,,,,
KRDR,07-18-2009,04:00,METAR,,340,4.0,,,9999.0,,12.0,9.0,30.16,1022.0,,,,,,,,,,,,,,,2/8 Mostly Clear,72000.0,,FEW,12000.0,,,,,,
KRDR,07-18-2009,03:00,METAR,,350,4.0,,,9999.0,,13.0,10.0,30.15,1021.8,,,,,,,,,,,,,,,2/8 Mostly Clear,72000.0,,FEW,12000.0,,,,,,
KRDR,07-18-2009,02:00,METAR,,360,7.0,,,9999.0,,17.0,10.0,30.14,1021.4,,,,,,,,,,,,,,,2/8 Mostly Clear,72000.0,,FEW,5000.0,FEW,12000.0,,,,
KRDR,07-18-2009,01:00,METAR,,10,10.0,,,9999.0,,19.0,9.0,30.13,1021.3,,,,,,,,,,,,,,,2/8 Mostly Clear,72000.0,,FEW,4500.0,FEW,25000.0,,,,
KRDR,07-18-2009,00:00,METAR,,360,11.0,17.0,,9999.0,,20.0,9.0,30.13,1021.2,,,,,,,,,,,,,,,2/8 Mostly Clear,72000.0,,FEW,4500.0,FEW,25000.0,,,,
KRDR,07-17-2009,23:00,METAR,,10,15.0,20.0,,9999.0,,21.0,9.0,30.13,1021.2,,,,,,,,,,,,,,,2/8 Mostly Clear,72000.0,,FEW,4500.0,FEW,25000.0,,,,
KRDR,07-17-2009,22:00,METAR,,360,14.0,21.0,,9999.0,,21.0,9.0,30.13,1021.2,,,,,,,,,,,,,,,4/8 Partly Cloudy,72000.0,,FEW,4500.0,SCT,25000.0,,,,
KRDR,07-17-2009,21:00,METAR,,360,14.0,19.0,,9999.0,,21.0,11.0,30.13,1021.2,,,,,,,,,,,,,,,4/8 Partly Cloudy,72000.0,,FEW,4400.0,SCT,25000.0,,,,
KRDR,07-17-2009,20:00,METAR,,10,9.0,24.0,,9999.0,,20.0,10.0,30.13,1021.1,,,,,,,,,,,,,,,4/8 Partly Cloudy,72000.0,,FEW,4000.0,SCT,25000.0,,,,
KRDR,07-17-2009,19:00,METAR,,350,14.0,21.0,,9999.0,,20.0,9.0,30.14,1021.3,,,,,,,,,,,,,,,4/8 Partly Cloudy,72000.0,,FEW,4000.0,SCT,25000.0,,,,
KRDR,07-17-2009,18:00,METAR,,360,14.0,22.0,,9999.0,,19.0,9.0,30.13,1021.2,,,,,,,,,,,,,,,4/8 Partly Cloudy,72000.0,,FEW,3000.0,SCT,20000.0,,,,
KRDR,07-17-2009,17:00,METAR,,340,16.0,22.0,,9999.0,,19.0,10.0,30.13,1021.1,,,,,,,,,,,,,,,4/8 Partly Cloudy,72000.0,,SCT,3000.0,,,,,,
KRDR,07-17-2009,16:00,METAR,,350,13.0,21.0,,9999.0,,17.0,10.0,30.13,1021.0,,,,,,,,,,,,,,,4/8 Partly Cloudy,72000.0,,SCT,2700.0,,,,,,
KRDR,07-17-2009,15:00,METAR,,350,15.0,23.0,,9999.0,,16.0,10.0,30.12,1020.9,,,,,,,,,,,,,,,4/8 Partly Cloudy,72000.0,,SCT,2300.0,SCT,20000.0,,,,
KRDR,07-17-2009,14:00,METAR,,340,13.0,,,9999.0,,13.0,9.0,30.12,1020.9,,,,,,,,,,,,,,,4/8 Partly Cloudy,72000.0,,FEW,5000.0,SCT,20000.0,,,,
KRDR,07-17-2009,13:00,METAR,,320,7.0,,,9999.0,,12.0,8.0,30.11,1020.4,,,,,,,,,,,,,,,4/8 Partly Cloudy,72000.0,,FEW,5900.0,SCT,20000.0,,,,
KRDR,07-17-2009,12:00,METAR,,330,8.0,,,9999.0,,12.0,8.0,30.10,1020.1,,,,,,,,,,,,,,,4/8 Partly Cloudy,72000.0,,FEW,5000.0,SCT,20000.0,,,,
KRDR,07-17-2009,11:00,METAR,,330,7.0,,,9999.0,,11.0,8.0,30.09,1019.7,,,,,,,,,,,,,,,Clear,72000.0,,,73000.0,,,,,,
KRDR,07-17-2009,10:00,METAR,,320,7.0,,,9999.0,,11.0,9.0,30.07,1019.1,,,,,,,,,,,,,,,7/8 Mostly Cloudy,5500.0,,BKN,5400.0,,,,,,
KRDR,07-17-2009,09:00,METAR,,330,7.0,,,9999.0,,11.0,9.0,30.06,1019.0,,,,,,,,,,,,,,,Clear,72000.0,,,73000.0,,,,,,
KRDR,07-17-2009,08:00,METAR,,330,8.0,,,9999.0,,12.0,9.0,30.06,1018.8,,,,,,,,,,,,,,,Clear,72000.0,,,73000.0,,,,,,
KRDR,07-17-2009,07:00,METAR,,320,8.0,,,9999.0,,11.0,9.0,30.06,1018.8,,,,,,,,,,,,,,,Clear,72000.0,,,73000.0,,,,,,
KRDR,07-17-2009,06:00,METAR,,320,6.0,,,9999.0,,12.0,9.0,30.06,1019.0,,,,,,,,,,,,,TRACE,,Clear,72000.0,,,73000.0,,,,,,
KRDR,07-17-2009,05:00,METAR,,340,7.0,,,9999.0,,13.0,9.0,30.07,1019.1,,,,,,,,,,,,,,,Clear,72000.0,,,73000.0,,,,,,
KRDR,07-17-2009,04:00,METAR,,350,10.0,,,9999.0,,14.0,10.0,30.07,1019.2,,,,,,,,,,,,,,,4/8 Partly Cloudy,72000.0,,SCT,6900.0,,,,,,
KRDR,07-17-2009,03:00,METAR,,350,13.0,20.0,,9999.0,,16.0,10.0,30.06,1018.7,,,,,,,,,,,,,,,7/8 Mostly Cloudy,7000.0,,FEW,4100.0,BKN,6900.0,,,,
KRDR,07-17-2009,02:11,SPECI,,360,14.0,22.0,,9999.0,,16.0,10.0,30.04,1018.2,,,,,,,,,,,,,,,8/8 Overcast,6000.0,,OVC,5900.0,,,,,,
KRDR,07-17-2009,02:00,METAR,,360,15.0,21.0,340/27KTS,9999.0,,17.0,9.0,30.04,1018.1,,,,,,,,,,,,,,,7/8 Mostly Cloudy,6000.0,,SCT,4700.0,BKN,5900.0,,,,
KRDR,07-17-2009,01:00,METAR,,350,12.0,18.0,,9999.0,,18.0,9.0,30.03,1017.7,,,,,,,,,,,,,,,8/8 Overcast,5500.0,,BKN,5400.0,OVC,7400.0,,,,
KRDR,07-17-2009,00:00,METAR,,350,13.0,23.0,350/26KTS,9999.0,,18.0,8.0,30.01,1017.2,,,,,,,,,,,,,,,8/8 Overcast,5500.0,,BKN,5400.0,OVC,6400.0,,,,
KRDR,07-16-2009,23:00,METAR,,340,17.0,27.0,340/27KTS,9999.0,,19.0,8.0,30.00,1016.8,,,,,,,,,,,,,,,8/8 Overcast,6000.0,,BKN,5900.0,OVC,8900.0,,,,
KRDR,07-16-2009,22:00,METAR,,340,18.0,26.0,340/28KTS,9999.0,,19.0,8.0,29.98,1016.6,,,,,,,,,,,,,,,7/8 Mostly Cloudy,6000.0,,BKN,5900.0,BKN,8900.0,BKN,25000.0,,
KRDR,07-16-2009,21:00,METAR,,330,16.0,22.0,320/28KTS,9999.0,,19.0,8.0,29.99,1016.5,,,,,,,,,,,,,,,7/8 Mostly Cloudy,6000.0,,BKN,5900.0,BKN,8900.0,,,,
KRDR,07-16-2009,20:00,METAR,,340,18.0,28.0,330/31KTS,9999.0,,19.0,8.0,29.98,1016.5,,,,,,,,,,,,,,,7/8 Mostly Cloudy,4900.0,,BKN,5000.0,BKN,8900.0,BKN,25000.0,,
KRDR,07-16-2009,19:00,METAR,,340,19.0,28.0,330/31KTS,9999.0,,19.0,8.0,29.98,1016.3,,,,,,,,,,,,,,,4/8 Partly Cloudy,72000.0,,SCT,4500.0,,,,,,
KRDR,07-16-2009,18:00,METAR,,320,19.0,27.0,330/28KTS,9999.0,,18.0,7.0,29.98,1016.3,,,,,,,,,,,,,,,4/8 Partly Cloudy,72000.0,,SCT,4500.0,,,,,,
KRDR,07-16-2009,17:00,METAR,,330,16.0,28.0,340/29KTS,9999.0,,17.0,6.0,29.99,1016.6,,,,,,,,,,,,,,,4/8 Partly Cloudy,72000.0,,SCT,4600.0,,,,,,
KRDR,07-16-2009,16:00,METAR,,330,17.0,24.0,,9999.0,,16.0,7.0,30.00,1016.8,,,,,,,,,,,,,,,2/8 Mostly Clear,72000.0,,FEW,4000.0,,,,,,
KRDR,07-16-2009,15:00,METAR,,330,13.0,,,9999.0,,13.0,7.0,30.00,1016.8,,,,,,,,,,,,,,,7/8 Mostly Cloudy,6000.0,,SCT,3000.0,BKN,5900.0,,,,
KRDR,07-16-2009,14:00,METAR,,320,13.0,19.0,,9999.0,,11.0,6.0,30.00,1016.9,,,,,,,,,,,,,,,8/8 Overcast,3000.0,,SCT,2100.0,OVC,3000.0,,,,
KRDR,07-16-2009,13:00,METAR,,310,14.0,20.0,,9999.0,,10.0,6.0,30.00,1016.7,,,,,,,,,,,,,,,7/8 Mostly Cloudy,3000.0,,BKN,3000.0,,,,,,
KRDR,07-16-2009,12:05,SPECI,,320,14.0,19.0,,9999.0,,10.0,5.0,29.98,1016.0,,,,,,,,,,,,,,,7/8 Mostly Cloudy,3000.0,,BKN,3000.0,,,,,,
KRDR,07-16-2009,12:00,METAR,,320,15.0,22.0,,9999.0,,10.0,5.0,29.97,1016.0,,,,,,,,,,,,,,,7/8 Mostly Cloudy,3000.0,,BKN,3000.0,,,,,,
KRDR,07-16-2009,11:00,METAR,,320,12.0,,,9999.0,,9.0,6.0,29.97,1015.7,,,,,,,,,,,,,,,8/8 Overcast,3200.0,,OVC,3300.0,,,,,,
KRDR,07-16-2009,10:00,METAR,,320,10.0,,,9999.0,,10.0,6.0,29.97,1015.7,,,,,,,,,,,,,,,8/8 Overcast,3300.0,,OVC,3400.0,,,,,,
KRDR,07-16-2009,09:00,METAR,,310,11.0,17.0,,9999.0,,11.0,6.0,29.96,1015.5,,,,,,,,,,,,,,,4/8 Partly Cloudy,72000.0,,SCT,3100.0,,,,,,
KRDR,07-16-2009,08:29,SPECI,,320,9.0,,,9999.0,,12.0,7.0,29.96,1015.6,,,,,,,,,,,,,,,8/8 Overcast,3100.0,,OVC,3100.0,,,,,,
KRDR,07-16-2009,08:18,SPECI,,310,6.0,,,9999.0,,12.0,7.0,29.96,1015.6,,,,,,,,,,,,,,,8/8 Overcast,2900.0,,OVC,2900.0,,,,,,
KRDR,07-16-2009,08:00,METAR,,310,6.0,,,9999.0,,12.0,7.0,29.97,1015.8,,,,,,,,,,,,,,,8/8 Overcast,3100.0,,OVC,3100.0,,,,,,
KRDR,07-16-2009,07:00,METAR,,310,8.0,,,9999.0,,11.0,7.0,29.96,1015.9,,,,,,,,,,,,,,,4/8 Partly Cloudy,72000.0,,SCT,3500.0,,,,,,
KRDR,07-16-2009,06:00,METAR,,290,6.0,,,9999.0,,10.0,7.0,29.96,1015.9,,,,,,,,,,,,,,,Clear,72000.0,,,73000.0,,,,,,
KRDR,07-16-2009,05:00,METAR,,300,7.0,,,9999.0,,11.0,7.0,29.96,1016.0,,,,,,,,,,,,,,,Clear,72000.0,,,73000.0,,,,,,
KRDR,07-16-2009,04:00,METAR,,300,6.0,,,9999.0,,12.0,7.0,29.97,1016.1,,,,,,,,,,,,,,,2/8 Mostly Clear,72000.0,,FEW,5400.0,,,,,,
KRDR,07-16-2009,03:00,METAR,,320,9.0,,,9999.0,,15.0,8.0,29.97,1015.8,,,,,,,,,,,,,,,4/8 Partly Cloudy,72000.0,,SCT,5400.0,,,,,,
KRDR,07-16-2009,02:00,METAR,,320,11.0,19.0,,9999.0,,16.0,8.0,29.95,1015.4,,,,,,,,,,,,,,,4/8 Partly Cloudy,72000.0,,SCT,4600.0,,,,,,
KRDR,07-16-2009,01:00,METAR,,310,14.0,18.0,,9999.0,,17.0,8.0,29.93,1015.0,,,,,,,,,,,,,,,7/8 Mostly Cloudy,4800.0,,BKN,4900.0,,,,,,
KRDR,07-16-2009,00:00,METAR,,310,15.0,23.0,290/28KTS,9999.0,,17.0,8.0,29.93,1014.8,,,,,,,,,,,,,,,8/8 Overcast,4400.0,,BKN,4500.0,OVC,25000.0,,,,
KRDR,07-15-2009,23:00,METAR,,290,16.0,22.0,310/27KTS,9999.0,,18.0,9.0,29.92,1014.5,,,,,,,,,,,,,,,7/8 Mostly Cloudy,4600.0,,BKN,4700.0,,,,,,
KRDR,07-15-2009,22:00,METAR,,300,18.0,25.0,300/27KTS,9999.0,,18.0,9.0,29.92,1014.3,,,,,,,,,,,,,,,7/8 Mostly Cloudy,4900.0,,SCT,4300.0,BKN,5000.0,,,,
KRDR,07-15-2009,21:00,METAR,,300,18.0,27.0,300/28KTS,9999.0,,18.0,8.0,29.92,1014.0,,,,,,,,,,,,,,,8/8 Overcast,4800.0,,BKN,4900.0,OVC,5200.0,,,,
KRDR,07-15-2009,20:00,METAR,,290,14.0,21.0,280/27KTS,9999.0,,18.0,9.0,29.90,1013.6,,,,,,,,,,,,,,,8/8 Overcast,3800.0,,BKN,3900.0,OVC,5000.0,,,,
KRDR,07-15-2009,19:00,METAR,,300,17.0,25.0,280/27KTS,9999.0,,19.0,11.0,29.89,1013.3,,,,,,,,,,,,,,,7/8 Mostly Cloudy,3800.0,,BKN,3900.0,BKN,5000.0,,,,
KRDR,07-15-2009,18:00,METAR,,290,13.0,21.0,300/28KTS,9999.0,,18.0,11.0,29.88,1013.0,,,,,,,,,,,,,,,8/8 Overcast,3200.0,,OVC,3300.0,,,,,,
KRDR,07-15-2009,17:02,SPECI,,290,16.0,27.0,300/27KTS,9999.0,,17.0,10.0,29.87,1012.6,,,,,,,,,,,,,,,8/8 Overcast,3000.0,,OVC,3000.0,,,,,,
KRDR,07-15-2009,17:00,METAR,,290,15.0,20.0,280/28KTS,9999.0,,17.0,11.0,29.87,1012.5,,,,,,,,,,,,,,,8/8 Overcast,2800.0,,OVC,2800.0,,,,,,
KRDR,07-15-2009,16:00,METAR,,300,16.0,22.0,310/28KTS,9999.0,,17.0,11.0,29.85,1012.0,,,,,,,,,,,,,,,8/8 Overcast,2700.0,,OVC,2700.0,,,,,,
KRDR,07-15-2009,15:00,METAR,,300,21.0,26.0,310/27KTS,9999.0,,16.0,10.0,29.84,1011.6,,,,,,,,,,,,,,,8/8 Overcast,2700.0,,OVC,2700.0,,,,,,
KRDR,07-15-2009,14:07,SPECI,,290,17.0,22.0,,9999.0,,16.0,10.0,29.83,1011.2,,,,,,,,,,,,,,,8/8 Overcast,2500.0,,OVC,2500.0,,,,,,
KRDR,07-15-2009,14:00,METAR,,290,18.0,24.0,290/27KTS,9999.0,,15.0,10.0,29.83,1011.2,,,,,,,,,,,,,,,8/8 Overcast,2500.0,,OVC,2500.0,,,,,,
KRDR,07-15-2009,13:00,METAR,,280,21.0,26.0,290/26KTS,9999.0,,15.0,10.0,29.81,1010.5,,,,,,,,,,,,,,,8/8 Overcast,2500.0,,OVC,2500.0,,,,,,
KRDR,07-15-2009,12:00,METAR,,290,16.0,24.0,280/28KTS,9999.0,,15.0,10.0,29.78,1009.7,,,,,,,,,,,,,,.16 IN,8/8 Overcast,2600.0,,OVC,2600.0,,,,,,
KRDR,07-15-2009,11:00,METAR,,280,18.0,22.0,,9999.0,,15.0,11.0,29.76,1008.9,,,,,,,,,,,,,,,8/8 Overcast,2700.0,,OVC,2700.0,,,,,,
KRDR,07-15-2009,10:00,METAR,,280,15.0,22.0,,9999.0,,15.0,11.0,29.74,1008.2,,,,,,,,,,,,,,,8/8 Overcast,2700.0,,OVC,2700.0,,,,,,
KRDR,07-15-2009,09:00,METAR,,290,17.0,21.0,290/26KTS,9999.0,,16.0,12.0,29.71,1007.3,,,,,,,,,,,,,,,8/8 Overcast,2300.0,,OVC,2300.0,,,,,,
KRDR,07-15-2009,08:00,METAR,,290,19.0,26.0,320/28KTS,9999.0,,16.0,13.0,29.69,1006.7,,,,,,,,,,,,,,,7/8 Mostly Cloudy,2400.0,,BKN,2400.0,,,,,,
KRDR,07-15-2009,07:00,METAR,,290,16.0,20.0,,9999.0,,18.0,15.0,29.67,1005.8,,,,,,,,,,,,,,,7/8 Mostly Cloudy,1600.0,,BKN,2300.0,,,,,,
KRDR,07-15-2009,06:45,SPECI,,280,14.0,,,9999.0,,18.0,15.0,29.67,1005.9,,,,,,,,,,,,,,,7/8 Mostly Cloudy,1600.0,,BKN,2300.0,,,,,,
KRDR,07-15-2009,06:00,METAR,,270,9.0,,,9999.0,,18.0,16.0,29.65,1005.2,,,,,,,,,,,,,TRACE,,4/8 Partly Cloudy,72000.0,,SCT,4100.0,,,,,,
KRDR,07-15-2009,05:00,METAR,,280,7.0,,,9999.0,,18.0,15.0,29.64,1005.1,,,,,,,,,,,,,,,8/8 Overcast,6500.0,,FEW,4800.0,OVC,6400.0,,,,
KRDR,07-15-2009,04:00,METAR,,250,5.0,,,9999.0,,17.0,15.0,29.63,1004.5,,,,,,,,,,,,,,,7/8 Mostly Cloudy,20000.0,,SCT,5900.0,BKN,20000.0,,,,
KRDR,07-15-2009,03:00,METAR,,200,5.0,,,9999.0,,18.0,15.0,29.62,1004.4,,,,,,,,,,,,TRACE,,,7/8 Mostly Cloudy,20000.0,,SCT,7900.0,BKN,20000.0,,,,
KRDR,07-15-2009,02:00,METAR,,250,6.0,,,9999.0,,20.0,16.0,29.61,1004.0,,,,,,,,,,,,,,,7/8 Mostly Cloudy,20000.0,,FEW,7900.0,SCT,12000.0,BKN,20000.0,,
KRDR,07-15-2009,01:00,METAR,,220,7.0,,,9999.0,,21.0,19.0,29.59,1003.4,,,,,,,,,,,TRACE,,,,7/8 Mostly Cloudy,20000.0,,FEW,4000.0,SCT,8900.0,BKN,20000.0,,
KRDR,07-15-2009,00:48,SPECI,,210,9.0,,,9999.0,,21.0,19.0,29.59,1003.4,,,,,,,,,,,,,,,7/8 Mostly Cloudy,20000.0,,FEW,4000.0,SCT,8900.0,BKN,20000.0,,
KRDR,07-15-2009,00:31,SPECI,,190,5.0,,,9999.0,Drizzle,20.0,18.0,29.60,1003.6,,,,51,,,,,,,,,,,7/8 Mostly Cloudy,8000.0,,BKN,7900.0,BKN,20000.0,,,,
KRDR,07-15-2009,00:00,METAR,,240,3.0,,,9999.0,,19.0,17.0,29.60,1003.6,,,,,,,,,,,.03 IN,,.14 IN,,7/8 Mostly Cloudy,12000.0,,FEW,2000.0,SCT,4000.0,BKN,12000.0,,
KRDR,07-14-2009,23:39,SPECI,,,0.0,,,9999.0,,18.0,16.0,29.59,1003.4,,,,,,,,,,,,,,,7/8 Mostly Cloudy,12000.0,,FEW,500.0,FEW,3000.0,SCT,5000.0,BKN,12000.0
KRDR,07-14-2009,23:28,SPECI,,220,3.0,,,9999.0,Thunderstorm,17.0,16.0,29.61,1003.9,,,,17,,,,,,,,,,,7/8 Mostly Cloudy,15000.0,,FEW,1600.0,SCT,4000.0,BKN,15000.0,,
KRDR,07-14-2009,23:05,SPECI,,290,10.0,24.0,,4800.0,Thunderstorm/Mist,17.0,15.0,29.63,1004.6,,,,17,10,,,,,,,,,,7/8 Mostly Cloudy,3900.0,,FEW,500.0,SCT,1700.0,BKN,4000.0,BKN,12000.0
KRDR,07-14-2009,23:00,METAR,,290,16.0,,240/28KTS,4800.0,Thunderstorm with Rain or Snow/Light Rain Showers/Mist,20.0,19.0,29.64,1004.9,,,,95,80,10,,,,,.06 IN,,,,8/8 Overcast,3900.0,,FEW,500.0,BKN,4000.0,BKN,5400.0,OVC,12000.0
KRDR,07-14-2009,22:30,SPECI,,210,7.0,,,8000.0,Thunderstorm with Rain or Snow/Light Rain Showers/Mist,21.0,19.0,29.62,1004.4,,,,95,80,10,,,,,,,,,8/8 Overcast,6000.0,,SCT,3000.0,BKN,5900.0,OVC,9900.0,,
KRDR,07-14-2009,22:18,SPECI,,200,7.0,,,9999.0,Light Rain Showers/Thunderstorm,21.0,19.0,29.62,1004.3,,,,80,17,,,,,,,,,,7/8 Mostly Cloudy,6000.0,,SCT,4000.0,BKN,5900.0,BKN,12000.0,,
KRDR,07-14-2009,22:00,METAR,,170,8.0,,,9999.0,,21.0,19.0,29.62,1004.3,,,,,,,,,,,TRACE,,,,7/8 Mostly Cloudy,7000.0,,SCT,5000.0,BKN,6900.0,BKN,18000.0,,
KRDR,07-14-2009,21:05,SPECI,,160,9.0,,,9999.0,,21.0,19.0,29.65,1005.2,,,,,,,,,,,,,,,7/8 Mostly Cloudy,9000.0,,FEW,1300.0,SCT,3000.0,BKN,8900.0,BKN,20000.0
KRDR,07-14-2009,21:00,METAR,,150,10.0,,,9999.0,Rain,21.0,19.0,29.66,1005.6,,,,61,,,,,,,.01 IN,.05 IN,,,7/8 Mostly Cloudy,8000.0,,SCT,1400.0,BKN,7900.0,BKN,20000.0,,
KRDR,07-14-2009,20:31,SPECI,,190,9.0,,,9999.0,Rain,21.0,19.0,29.67,1006.1,,,,61,,,,,,,,,,,7/8 Mostly Cloudy,9000.0,,SCT,1500.0,BKN,8900.0,,,,
KRDR,07-14-2009,20:00,METAR,,180,13.0,,,9999.0,,23.0,18.0,29.67,1005.9,,,,,,,,,,,,,,,7/8 Mostly Cloudy,6500.0,,BKN,6400.0,,,,,,
KRDR,07-14-2009,19:00,METAR,,160,8.0,,,9999.0,,20.0,19.0,29.66,1005.5,,,,,,,,,,,.04 IN,,,,7/8 Mostly Cloudy,3000.0,,BKN,3000.0,,,,,,
KRDR,07-14-2009,18:49,SPECI,,150,9.0,,,9999.0,,20.0,19.0,29.66,1005.7,,,,,,,,,,,,,,,7/8 Mostly Cloudy,3000.0,,BKN,3000.0,,,,,,
KRDR,07-14-2009,18:13,SPECI,,200,7.0,,,9999.0,Light Rain Showers,20.0,18.0,29.72,1007.6,,,,80,,,,,,,,,,,4/8 Partly Cloudy,72000.0,,SCT,2100.0,,,,,,
KRDR,07-14-2009,18:00,METAR,,210,9.0,,,9999.0,Light Rain Showers,20.0,18.0,29.74,1008.2,,,,80,,,,,,,.01 IN,,.02 IN,,7/8 Mostly Cloudy,3000.0,,BKN,3000.0,,,,,,
KRDR,07-14-2009,17:40,SPECI,,200,11.0,,,9999.0,Light Rain Showers,20.0,18.0,29.73,1007.9,,,,80,,,,,,,,,,,4/8 Partly Cloudy,72000.0,,SCT,2700.0,,,,,,
KRDR,07-14-2009,17:00,METAR,,180,14.0,,,9999.0,Rain,21.0,17.0,29.72,1007.7,,,,61,,,,,,,TRACE,,,,8/8 Overcast,4900.0,,OVC,5000.0,,,,,,
KRDR,07-14-2009,16:37,SPECI,,180,13.0,18.0,,9999.0,,21.0,17.0,29.73,1007.8,,,,,,,,,,,,,,,7/8 Mostly Cloudy,6000.0,,BKN,5900.0,,,,,,
KRDR,07-14-2009,16:00,METAR,,170,15.0,,,9999.0,,21.0,17.0,29.70,1007.1,,,,,,,,,,,,,,,8/8 Overcast,4900.0,,BKN,5000.0,OVC,20000.0,,,,
KRDR,07-14-2009,15:00,METAR,,160,18.0,22.0,,9999.0,,22.0,16.0,29.69,1006.6,,,,,,,,,,,,.01 IN,,,2/8 Mostly Clear,72000.0,,FEW,9900.0,,,,,,
KRDR,07-14-2009,14:00,METAR,,140,12.0,,,9999.0,,19.0,14.0,29.72,1007.7,,,,,,,,,,,TRACE,,,,7/8 Mostly Cloudy,10000.0,,SCT,5000.0,BKN,9900.0,,,,
KRDR,07-14-2009,13:02,SPECI,,140,10.0,,,9999.0,,16.0,13.0,29.78,1009.7,,,,,,,,,,,,,,,4/8 Partly Cloudy,72000.0,,SCT,3600.0,SCT,5900.0,,,,
KRDR,07-14-2009,13:00,METAR,,140,8.0,,,9999.0,,16.0,13.0,29.79,1010.0,,,,,,,,,,,,,,,4/8 Partly Cloudy,72000.0,,SCT,5000.0,,,,,,
KRDR,07-14-2009,12:36,SPECI,,150,8.0,,,9999.0,,17.0,12.0,29.81,1010.4,,,,,,,,,,,,,,,8/8 Overcast,4900.0,,OVC,5000.0,,,,,,
KRDR,07-14-2009,12:26,SPECI,,150,8.0,,,9999.0,,17.0,12.0,29.80,1010.4,,,,,,,,,,,,,,,7/8 Mostly Cloudy,5500.0,,BKN,5400.0,BKN,6900.0,,,,
KRDR,07-14-2009,12:14,SPECI,,150,8.0,,,9999.0,,17.0,11.0,29.80,1010.4,,,,,,,,,,,,,,,7/8 Mostly Cloudy,5500.0,,BKN,5400.0,,,,,,
KRDR,07-14-2009,12:00,METAR,,130,6.0,,,9999.0,,17.0,10.0,29.80,1010.3,,,,,,,,,,,,,,,7/8 Mostly Cloudy,5500.0,,BKN,5400.0,,,,,,
KRDR,07-14-2009,11:00,METAR,,120,8.0,,,9999.0,,17.0,9.0,29.80,1010.2,,,,,,,,,,,,,,,7/8 Mostly Cloudy,3900.0,,BKN,4000.0,,,,,,
KRDR,07-14-2009,10:00,METAR,,120,10.0,,,9999.0,,17.0,10.0,29.81,1010.6,,,,,,,,,,,,,,,7/8 Mostly Cloudy,3500.0,,BKN,3600.0,,,,,,
KRDR,07-14-2009,09:00,METAR,,130,10.0,,,9999.0,,17.0,10.0,29.82,1011.0,,,,,,,,,,,,,,,7/8 Mostly Cloudy,6000.0,,SCT,3800.0,BKN,5900.0,,,,
KRDR,07-14-2009,08:00,METAR,,120,10.0,,,9999.0,,17.0,11.0,29.88,1012.8,,,,,,,,,,,,,,,Clear,72000.0,,,73000.0,,,,,,
KRDR,07-14-2009,07:00,METAR,,120,7.0,,,9999.0,,18.0,11.0,29.92,1014.3,,,,,,,,,,,,,,,8/8 Overcast,9500.0,,OVC,9400.0,,,,,,
KRDR,07-14-2009,06:00,METAR,,160,7.0,,,9999.0,,17.0,11.0,29.97,1015.7,,,,,,,,,,,,,,,8/8 Overcast,9000.0,,OVC,8900.0,,,,,,
KRDR,07-14-2009,05:00,METAR,,100,6.0,,,9999.0,,18.0,11.0,29.93,1014.6,,,,,,,,,,,,,,,4/8 Partly Cloudy,72000.0,,SCT,11000.0,,,,,,
KRDR,07-14-2009,04:00,METAR,,120,5.0,,,9999.0,,18.0,11.0,29.98,1016.0,,,,,,,,,,,,,,,8/8 Overcast,10000.0,,OVC,9900.0,,,,,,
KRDR,07-14-2009,03:00,METAR,,110,5.0,,,9999.0,,18.0,11.0,29.99,1016.5,,,,,,,,,,,,,,,8/8 Overcast,9500.0,,BKN,9400.0,OVC,20000.0,,,,
KRDR,07-14-2009,02:00,METAR,,130,5.0,,,9999.0,,19.0,10.0,29.99,1016.6,,,,,,,,,,,,,,,8/8 Overcast,20000.0,,SCT,8900.0,OVC,20000.0,,,,
KRDR,07-14-2009,01:00,METAR,,140,8.0,,,9999.0,,20.0,10.0,30.02,1017.5,,,,,,,,,,,,,,,7/8 Mostly Cloudy,20000.0,,SCT,8900.0,BKN,20000.0,,,,
KRDR,07-14-2009,00:00,METAR,,130,9.0,,,9999.0,,21.0,9.0,30.03,1017.7,,,,,,,,,,,,,,,7/8 Mostly Cloudy,20000.0,,SCT,9900.0,BKN,20000.0,,,,
KRDR,07-13-2009,23:00,METAR,,130,10.0,,,9999.0,,21.0,9.0,30.05,1018.3,,,,,,,,,,,,,,,7/8 Mostly Cloudy,20000.0,,FEW,5900.0,SCT,12000.0,BKN,20000.0,,
KRDR,07-13-2009,22:00,METAR,,130,9.0,,,9999.0,,22.0,9.0,30.05,1018.5,,,,,,,,,,,,,,,7/8 Mostly Cloudy,12000.0,,FEW,5900.0,BKN,12000.0,BKN,25000.0,,
KRDR,07-13-2009,21:00,METAR,,150,11.0,,,9999.0,,21.0,8.0,30.08,1019.4,,,,,,,,,,,,,,,7/8 Mostly Cloudy,12000.0,,FEW,5900.0,BKN,12000.0,BKN,25000.0,,
KRDR,07-13-2009,20:00,METAR,,140,10.0,,,9999.0,,21.0,9.0,30.10,1020.0,,,,,,,,,,,,,,,8/8 Overcast,12000.0,,FEW,4000.0,BKN,12000.0,OVC,25000.0,,
KRDR,07-13-2009,19:00,METAR,,150,11.0,,,9999.0,,21.0,8.0,30.11,1020.5,,,,,,,,,,,,,,,8/8 Overcast,12000.0,,FEW,4000.0,BKN,12000.0,OVC,25000.0,,
KRDR,07-13-2009,18:00,METAR,,140,8.0,,,9999.0,,21.0,9.0,30.13,1021.1,,,,,,,,,,,,,,,8/8 Overcast,25000.0,,FEW,4000.0,SCT,12000.0,OVC,25000.0,,
KRDR,07-13-2009,17:00,METAR,,130,7.0,,,9999.0,,20.0,10.0,30.15,1021.9,,,,,,,,,,,,,,,8/8 Overcast,25000.0,,FEW,4000.0,SCT,12000.0,OVC,25000.0,,
KRDR,07-13-2009,16:00,METAR,,130,6.0,,,9999.0,,19.0,11.0,30.16,1022.2,,,,,,,,,,,,,,,8/8 Overcast,25000.0,,FEW,12000.0,OVC,25000.0,,,,
KRDR,07-13-2009,15:00,METAR,,100,4.0,,,9999.0,,17.0,10.0,30.16,1022.3,,,,,,,,,,,,,,,7/8 Mostly Cloudy,25000.0,,FEW,9900.0,BKN,25000.0,,,,
KRDR,07-13-2009,14:00,METAR,,,0.0,,,9999.0,,15.0,9.0,30.17,1022.5,,,,,,,,,,,,,,,7/8 Mostly Cloudy,25000.0,,FEW,11000.0,BKN,25000.0,,,,
KRDR,07-13-2009,13:00,METAR,,,0.0,,,9999.0,,13.0,10.0,30.18,1022.7,,,,,,,,,,,,,,,7/8 Mostly Cloudy,25000.0,,BKN,25000.0,,,,,,
KRDR,07-13-2009,12:00,METAR,,,0.0,,,9999.0,,9.0,7.0,30.17,1022.3,,,,,,,,,,,,,,,7/8 Mostly Cloudy,25000.0,,FEW,12000.0,BKN,25000.0,,,,
KRDR,07-13-2009,11:00,METAR,,,0.0,,,9999.0,,7.0,6.0,30.17,1022.6,,,,,,,,,,,,,,,7/8 Mostly Cloudy,25000.0,,BKN,25000.0,,,,,,
KRDR,07-13-2009,10:00,METAR,,260,4.0,,,9999.0,,7.0,6.0,30.18,1022.8,,,,,,,,,,,,,,,Clear,72000.0,,,73000.0,,,,,,
KRDR,07-13-2009,09:00,METAR,,270,4.0,,,9999.0,,7.0,6.0,30.18,1022.9,,,,,,,,,,,,,,,Clear,72000.0,,,73000.0,,,,,,
KRDR,07-13-2009,08:00,METAR,,,0.0,,,9999.0,,8.0,6.0,30.17,1022.5,,,,,,,,,,,,,,,Clear,72000.0,,,73000.0,,,,,,
KRDR,07-13-2009,07:00,METAR,,,0.0,,,9999.0,,9.0,7.0,30.18,1022.8,,,,,,,,,,,,,,,Clear,72000.0,,,73000.0,,,,,,
KRDR,07-13-2009,06:00,METAR,,,0.0,,,9999.0,,10.0,7.0,30.19,1023.0,,,,,,,,,,,,,,,Clear,72000.0,,,73000.0,,,,,,
KRDR,07-13-2009,05:00,METAR,,320,3.0,,,9999.0,,11.0,7.0,30.18,1022.8,,,,,,,,,,,,,,,Clear,72000.0,,,73000.0,,,,,,
KRDR,07-13-2009,04:00,METAR,,10,4.0,,,9999.0,,13.0,8.0,30.17,1022.4,,,,,,,,,,,,,,,Clear,72000.0,,,73000.0,,,,,,
KRDR,07-13-2009,03:00,METAR,,20,3.0,,,9999.0,,15.0,9.0,30.16,1022.1,,,,,,,,,,,,,,,Clear,72000.0,,,73000.0,,,,,,
KRDR,07-13-2009,02:00,METAR,,30,6.0,,,9999.0,,19.0,9.0,30.15,1021.8,,,,,,,,,,,,,,,Clear,72000.0,,,73000.0,,,,,,
KRDR,07-13-2009,01:00,METAR,,20,7.0,,,9999.0,,21.0,10.0,30.15,1021.9,,,,,,,,,,,,,,,Clear,72000.0,,,73000.0,,,,,,
KRDR,07-13-2009,00:00,METAR,,10,7.0,,,9999.0,,22.0,11.0,30.15,1021.7,,,,,,,,,,,,,,,2/8 Mostly Clear,72000.0,,FEW,4900.0,,,,,,
KRDR,07-12-2009,23:00,METAR,,350,8.0,,,9999.0,,22.0,11.0,30.15,1021.9,,,,,,,,,,,,,,,2/8 Mostly Clear,72000.0,,FEW,4700.0,,,,,,
KRDR,07-12-2009,22:00,METAR,,30,10.0,,,9999.0,,22.0,11.0,30.16,1022.0,,,,,,,,,,,,,,,Clear,72000.0,,,73000.0,,,,,,
KRDR,07-12-2009,21:00,METAR,,10,5.0,,,9999.0,,22.0,11.0,30.16,1022.1,,,,,,,,,,,,,,,2/8 Mostly Clear,72000.0,,FEW,8900.0,,,,,,
KRDR,07-12-2009,20:00,METAR,,10,5.0,,,9999.0,,21.0,11.0,30.17,1022.3,,,,,,,,,,,,,,,2/8 Mostly Clear,72000.0,,FEW,8900.0,,,,,,
KRDR,07-12-2009,19:00,METAR,,10,6.0,,,9999.0,,21.0,10.0,30.17,1022.6,,,,,,,,,,,,,,,Clear,72000.0,,,73000.0,,,,,,
KRDR,07-12-2009,18:00,METAR,,90,7.0,,,9999.0,,20.0,10.0,30.18,1022.6,,,,,,,,,,,,,,,Clear,72000.0,,,73000.0,,,,,,
KRDR,07-12-2009,17:00,METAR,,,4.0,,,9999.0,,20.0,9.0,30.18,1022.9,,,,,,,,,,,,,,,Clear,72000.0,,,73000.0,,,,,,
KRDR,07-12-2009,16:00,METAR,,100,6.0,,,9999.0,,18.0,8.0,30.19,1023.0,,,,,,,,,,,,,,,4/8 Partly Cloudy,72000.0,,SCT,5400.0,,,,,,
KRDR,07-12-2009,15:00,METAR,,,4.0,,,9999.0,,16.0,10.0,30.18,1022.8,,,,,,,,,,,,,,,8/8 Overcast,5500.0,,OVC,5400.0,,,,,,
KRDR,07-12-2009,14:00,METAR,,50,3.0,,,9999.0,,15.0,10.0,30.17,1022.6,,,,,,,,,,,,,,,4/8 Partly Cloudy,72000.0,,SCT,5900.0,,,,,,
KRDR,07-12-2009,13:00,METAR,,80,4.0,,,9999.0,,14.0,10.0,30.16,1022.1,,,,,,,,,,,,,,,4/8 Partly Cloudy,72000.0,,SCT,5400.0,,,,,,
KRDR,07-12-2009,12:00,METAR,,70,4.0,,,9999.0,,13.0,10.0,30.15,1021.7,,,,,,,,,,,,,TRACE,,8/8 Overcast,5500.0,,OVC,5400.0,,,,,,
KRDR,07-12-2009,11:00,METAR,,90,7.0,,,9999.0,,13.0,9.0,30.14,1021.6,,,,,,,,,,,,,,,8/8 Overcast,4900.0,,OVC,5000.0,,,,,,
KRDR,07-12-2009,10:00,METAR,,100,6.0,,,9999.0,,14.0,8.0,30.14,1021.4,,,,,,,,,,,,,,,7/8 Mostly Cloudy,6000.0,,BKN,5900.0,,,,,,
KRDR,07-12-2009,09:00,METAR,,30,9.0,,,9999.0,,14.0,10.0,30.16,1022.0,,,,,,,,,,,TRACE,TRACE,,,8/8 Overcast,6000.0,,OVC,5900.0,,,,,,
KRDR,07-12-2009,08:09,SPECI,,100,3.0,,,9999.0,,14.0,9.0,30.14,1021.3,,,,,,,,,,,,,,,8/8 Overcast,5500.0,,FEW,2300.0,OVC,5400.0,,,,
KRDR,07-12-2009,08:00,METAR,,70,5.0,,,9999.0,Light Rain,15.0,8.0,30.13,1021.2,61,,,,,,,,,,TRACE,,,,8/8 Overcast,5500.0,,OVC,5400.0,,,,,,
KRDR,07-12-2009,07:48,SPECI,,80,4.0,,,9999.0,Unknown Precipitation,15.0,7.0,30.13,1021.1,40,,,,,,,,,,,,,,8/8 Overcast,6000.0,,OVC,5900.0,,,,,,
KRDR,07-12-2009,07:37,SPECI,,90,7.0,,,9999.0,,15.0,8.0,30.12,1020.8,,,,,,,,,,,,,,,8/8 Overcast,6000.0,,OVC,5900.0,,,,,,
KRDR,07-12-2009,07:28,SPECI,,100,7.0,,,9999.0,Unknown Precipitation,16.0,8.0,30.12,1020.8,40,,,,,,,,,,,,,,8/8 Overcast,6500.0,,OVC,6400.0,,,,,,
KRDR,07-12-2009,07:00,METAR,,100,5.0,,,9999.0,,16.0,7.0,30.12,1020.9,,,,,,,,,,,,,,,8/8 Overcast,6000.0,,OVC,5900.0,,,,,,
KRDR,07-12-2009,06:00,METAR,,90,6.0,,,9999.0,,16.0,6.0,30.13,1021.1,,,,,,,,,,,,,,,7/8 Mostly Cloudy,6000.0,,BKN,5900.0,,,,,,
KRDR,07-12-2009,05:00,METAR,,90,8.0,,,9999.0,,17.0,7.0,30.12,1020.9,,,,,,,,,,,,,,,7/8 Mostly Cloudy,7000.0,,BKN,6900.0,,,,,,
KRDR,07-12-2009,04:00,METAR,,40,7.0,,,9999.0,,18.0,8.0,30.13,1021.0,,,,,,,,,,,,,,,8/8 Overcast,6500.0,,OVC,6400.0,,,,,,
KRDR,07-12-2009,03:00,METAR,,,0.0,,,9999.0,,17.0,11.0,30.12,1020.8,,,,,,,,,,,,,,,8/8 Overcast,6000.0,,OVC,5900.0,,,,,,
KRDR,07-12-2009,02:00,METAR,,290,3.0,,,9999.0,,19.0,9.0,30.11,1020.4,,,,,,,,,,,,,,,4/8 Partly Cloudy,72000.0,,SCT,5900.0,,,,,,
KRDR,07-12-2009,01:00,METAR,,300,5.0,,,9999.0,,20.0,8.0,30.11,1020.5,,,,,,,,,,,,,,,Clear,72000.0,,,73000.0,,,,,,
KRDR,07-12-2009,00:00,METAR,,270,6.0,,,9999.0,,21.0,7.0,30.11,1020.6,,,,,,,,,,,,,,,Clear,72000.0,,,73000.0,,,,,,
KRDR,07-11-2009,23:00,METAR,,290,8.0,,,9999.0,,22.0,6.0,30.14,1021.3,,,,,,,,,,,,,,,Clear,72000.0,,,73000.0,,,,,,
KRDR,07-11-2009,22:00,METAR,,290,7.0,,,9999.0,,22.0,6.0,30.15,1021.8,,,,,,,,,,,,,,,Clear,72000.0,,,73000.0,,,,,,
KRDR,07-11-2009,21:00,METAR,,310,7.0,,,9999.0,,21.0,5.0,30.17,1022.5,,,,,,,,,,,,,,,Clear,72000.0,,,73000.0,,,,,,
KRDR,07-11-2009,20:00,METAR,,,5.0,,,9999.0,,21.0,5.0,30.17,1022.6,,,,,,,,,,,,,,,Clear,72000.0,,,73000.0,,,,,,
KRDR,07-11-2009,19:00,METAR,,340,8.0,,,9999.0,,20.0,5.0,30.19,1023.0,,,,,,,,,,,,,,,Clear,72000.0,,,73000.0,,,,,,
KRDR,07-11-2009,18:00,METAR,,,4.0,,,9999.0,,20.0,4.0,30.19,1023.1,,,,,,,,,,,,,,,Clear,72000.0,,,73000.0,,,,,,
KRDR,07-11-2009,17:00,METAR,,310,8.0,,,9999.0,,19.0,5.0,30.19,1023.1,,,,,,,,,,,,,,,Clear,72000.0,,,73000.0,,,,,,
KRDR,07-11-2009,16:00,METAR,,340,9.0,17.0,,9999.0,,18.0,5.0,30.19,1023.2,,,,,,,,,,,,,,,Clear,72000.0,,,73000.0,,,,,,
KRDR,07-11-2009,15:00,METAR,,320,9.0,,,9999.0,,17.0,6.0,30.20,1023.3,,,,,,,,,,,,,,,Clear,72000.0,,,73000.0,,,,,,
KRDR,07-11-2009,14:00,METAR,,300,9.0,,,9999.0,,15.0,8.0,30.20,1023.3,,,,,,,,,,,,,,,Clear,72000.0,,,73000.0,,,,,,
KRDR,07-11-2009,13:00,METAR,,290,7.0,,,9999.0,,13.0,8.0,30.19,1023.0,,,,,,,,,,,,,,,Clear,72000.0,,,73000.0,,,,,,
KRDR,07-11-2009,12:00,METAR,,290,6.0,,,9999.0,,11.0,8.0,30.17,1022.5,,,,,,,,,,,,,,.04 IN,Clear,72000.0,,,73000.0,,,,,,
KRDR,07-11-2009,11:00,METAR,,290,6.0,,,9999.0,,9.0,8.0,30.16,1022.1,,,,,,,,,,,,,,,Clear,72000.0,,,73000.0,,,,,,
KRDR,07-11-2009,10:00,METAR,,300,7.0,,,9999.0,,10.0,8.0,30.15,1021.7,,,,,,,,,,,,,,,Clear,72000.0,,,73000.0,,,,,,
KRDR,07-11-2009,09:00,METAR,,280,8.0,,,9999.0,,11.0,8.0,30.13,1021.1,,,,,,,,,,,,,,,Clear,72000.0,,,73000.0,,,,,,
KRDR,07-11-2009,08:00,METAR,,290,7.0,,,9999.0,,10.0,8.0,30.12,1020.9,,,,,,,,,,,,,,,Clear,72000.0,,,73000.0,,,,,,
KRDR,07-11-2009,07:00,METAR,,290,6.0,,,9999.0,,10.0,7.0,30.12,1020.9,,,,,,,,,,,,,,,Clear,72000.0,,,73000.0,,,,,,
KRDR,07-11-2009,06:00,METAR,,290,5.0,,,9999.0,,10.0,7.0,30.12,1020.9,,,,,,,,,,,,,,,Clear,72000.0,,,73000.0,,,,,,
KRDR,07-11-2009,05:00,METAR,,320,7.0,,,9999.0,,12.0,8.0,30.12,1020.6,,,,,,,,,,,,,,,Clear,72000.0,,,73000.0,,,,,,
KRDR,07-11-2009,04:00,METAR,,330,6.0,,,9999.0,,13.0,9.0,30.10,1020.1,,,,,,,,,,,,,,,Clear,72000.0,,,73000.0,,,,,,
KRDR,07-11-2009,03:00,METAR,,330,11.0,17.0,,9999.0,,15.0,9.0,30.07,1019.2,,,,,,,,,,,,,,,2/8 Mostly Clear,72000.0,,FEW,6900.0,,,,,,
KRDR,07-11-2009,02:00,METAR,,330,8.0,,,9999.0,,17.0,10.0,30.05,1018.5,,,,,,,,,,,,,,,2/8 Mostly Clear,72000.0,,FEW,6900.0,,,,,,
KRDR,07-11-2009,01:00,METAR,,300,11.0,20.0,,9999.0,,19.0,10.0,30.02,1017.5,,,,,,,,,,,,,,,7/8 Mostly Cloudy,9500.0,,BKN,9400.0,,,,,,
KRDR,07-11-2009,00:00,METAR,,280,9.0,,,9999.0,,20.0,14.0,30.01,1017.1,,,,,,,,,,,.04 IN,,.04 IN,,2/8 Mostly Clear,72000.0,,FEW,7900.0,,,,,,
KRDR,07-10-2009,23:23,SPECI,,310,8.0,,,9999.0,,18.0,14.0,30.01,1017.3,,,,,,,,,,,,,,,7/8 Mostly Cloudy,6500.0,,FEW,4700.0,BKN,6400.0,,,,
KRDR,07-10-2009,23:00,METAR,,310,10.0,,,9999.0,Light Rain Showers,21.0,11.0,30.00,1016.9,,,,80,,,,,,,,,,,7/8 Mostly Cloudy,7500.0,,BKN,7400.0,,,,,,
KRDR,07-10-2009,22:00,METAR,,290,11.0,,,9999.0,,22.0,11.0,30.01,1017.1,,,,,,,,,,,,,,,4/8 Partly Cloudy,72000.0,,SCT,5900.0,,,,,,
KRDR,07-10-2009,21:00,METAR,,300,14.0,,,9999.0,,22.0,11.0,30.01,1017.3,,,,,,,,,,,,,,,7/8 Mostly Cloudy,5500.0,,BKN,5400.0,,,,,,
KRDR,07-10-2009,20:00,METAR,,300,15.0,21.0,,9999.0,,23.0,11.0,30.01,1017.2,,,,,,,,,,,,,,,4/8 Partly Cloudy,72000.0,,SCT,5400.0,,,,,,
KRDR,07-10-2009,19:00,METAR,,320,14.0,19.0,,9999.0,,22.0,10.0,30.01,1017.0,,,,,,,,,,,,,,,4/8 Partly Cloudy,72000.0,,SCT,5900.0,,,,,,
KRDR,07-10-2009,18:00,METAR,,310,10.0,21.0,,9999.0,,22.0,10.0,30.00,1016.9,,,,,,,,,,,,,,,2/8 Mostly Clear,72000.0,,FEW,3000.0,FEW,25000.0,,,,
KRDR,07-10-2009,17:00,METAR,,310,9.0,19.0,,9999.0,,21.0,11.0,30.00,1016.8,,,,,,,,,,,,,,,2/8 Mostly Clear,72000.0,,FEW,3000.0,FEW,25000.0,,,,
KRDR,07-10-2009,16:00,METAR,,310,13.0,19.0,,9999.0,,20.0,12.0,29.98,1016.5,,,,,,,,,,,,,,,2/8 Mostly Clear,72000.0,,FEW,1500.0,FEW,25000.0,,,,
KRDR,07-10-2009,15:00,METAR,,330,16.0,,,9999.0,,19.0,11.0,29.98,1016.1,,,,,,,,,,,,,,,2/8 Mostly Clear,72000.0,,FEW,1000.0,FEW,25000.0,,,,
KRDR,07-10-2009,14:00,METAR,,310,16.0,21.0,,9999.0,,18.0,10.0,29.97,1016.1,,,,,,,,,,,,,,,2/8 Mostly Clear,72000.0,,FEW,1000.0,FEW,25000.0,,,,
KRDR,07-10-2009,13:00,METAR,,310,9.0,17.0,,9999.0,,17.0,12.0,29.94,1015.3,,,,,,,,,,,,,,,2/8 Mostly Clear,72000.0,,FEW,1000.0,FEW,12000.0,FEW,25000.0,,
KRDR,07-10-2009,12:00,METAR,,290,7.0,,,9999.0,,15.0,13.0,29.94,1015.3,,,,,,,,,,,,,,,2/8 Mostly Clear,72000.0,,FEW,12000.0,FEW,25000.0,,,,
KRDR,07-10-2009,11:00,METAR,,260,6.0,,,9999.0,,15.0,12.0,29.93,1014.7,,,,,,,,,,,,,,,2/8 Mostly Clear,72000.0,,FEW,8900.0,FEW,25000.0,,,,
KRDR,07-10-2009,10:00,METAR,,250,8.0,,,9999.0,,14.0,12.0,29.92,1014.1,,,,,,,,,,,,,,,2/8 Mostly Clear,72000.0,,FEW,8900.0,,,,,,
KRDR,07-10-2009,09:00,METAR,,250,8.0,,,9999.0,,15.0,12.0,29.90,1013.6,,,,,,,,,,,,,,,2/8 Mostly Clear,72000.0,,FEW,8900.0,,,,,,
KRDR,07-10-2009,08:00,METAR,,250,7.0,,,9999.0,,14.0,12.0,29.89,1013.2,,,,,,,,,,,,,,,Clear,72000.0,,,73000.0,,,,,,
KRDR,07-10-2009,07:00,METAR,,240,6.0,,,9999.0,,15.0,12.0,29.88,1012.7,,,,,,,,,,,,,,,Clear,72000.0,,,73000.0,,,,,,
KRDR,07-10-2009,06:00,METAR,,220,7.0,,,9999.0,,16.0,12.0,29.86,1012.3,,,,,,,,,,,,,,,Clear,72000.0,,,73000.0,,,,,,
KRDR,07-10-2009,05:00,METAR,,230,7.0,,,9999.0,,18.0,12.0,29.85,1012.1,,,,,,,,,,,,,,,Clear,72000.0,,,73000.0,,,,,,
KRDR,07-10-2009,04:00,METAR,,200,7.0,,,9999.0,,18.0,12.0,29.84,1011.5,,,,,,,,,,,,,,,Clear,72000.0,,,73000.0,,,,,,
KRDR,07-10-2009,03:00,METAR,,200,6.0,,,9999.0,,19.0,12.0,29.82,1010.8,,,,,,,,,,,,,,,2/8 Mostly Clear,72000.0,,FEW,5000.0,,,,,,
KRDR,07-10-2009,02:00,METAR,,250,7.0,,,9999.0,,22.0,12.0,29.81,1010.5,,,,,,,,,,,,,,,2/8 Mostly Clear,72000.0,,FEW,5000.0,,,,,,
KRDR,07-10-2009,01:00,METAR,,270,12.0,17.0,,9999.0,,25.0,11.0,29.79,1009.9,,,,,,,,,,,,,,,2/8 Mostly Clear,72000.0,,FEW,4000.0,,,,,,
KRDR,07-10-2009,00:00,METAR,,260,13.0,18.0,,9999.0,,26.0,11.0,29.77,1009.4,,,,,,,,,,,,,,,2/8 Mostly Clear,72000.0,,FEW,4000.0,,,,,,
KRDR,07-09-2009,23:00,METAR,,260,9.0,19.0,,9999.0,,27.0,10.0,29.77,1009.4,,,,,,,,,,,,,,,4/8 Partly Cloudy,72000.0,,FEW,4000.0,SCT,25000.0,,,,
KRDR,07-09-2009,22:00,METAR,,260,16.0,20.0,,9999.0,,27.0,11.0,29.77,1009.4,,,,,,,,,,,,,,,4/8 Partly Cloudy,72000.0,,FEW,4000.0,SCT,25000.0,,,,
KRDR,07-09-2009,21:00,METAR,,250,16.0,20.0,,9999.0,,28.0,12.0,29.77,1009.4,,,,,,,,,,,,,,,4/8 Partly Cloudy,72000.0,,FEW,4000.0,SCT,25000.0,,,,
KRDR,07-09-2009,20:00,METAR,,260,17.0,20.0,,9999.0,,28.0,14.0,29.77,1009.2,,,,,,,,,,,,,,,2/8 Mostly Clear,72000.0,,FEW,3000.0,,,,,,
KRDR,07-09-2009,19:00,METAR,,240,13.0,,,9999.0,,27.0,15.0,29.77,1009.3,,,,,,,,,,,,,,,2/8 Mostly Clear,72000.0,,FEW,3000.0,,,,,,
KRDR,07-09-2009,18:00,METAR,,250,14.0,,,9999.0,,26.0,16.0,29.75,1008.9,,,,,,,,,,,,,TRACE,,2/8 Mostly Clear,72000.0,,FEW,2700.0,,,,,,
KRDR,07-09-2009,17:00,METAR,,270,12.0,,,9999.0,,25.0,17.0,29.75,1008.8,,,,,,,,,,,,,,,2/8 Mostly Clear,72000.0,,FEW,2700.0,,,,,,
KRDR,07-09-2009,16:12,SPECI,,250,10.0,22.0,,9999.0,,24.0,18.0,29.75,,,,,,,,,,,,,,,,4/8 Partly Cloudy,72000.0,,FEW,2000.0,SCT,2700.0,,,,
KRDR,07-09-2009,16:00,METAR,,210,12.0,20.0,,9999.0,,23.0,19.0,29.73,1008.3,,,,,,,,,,,TRACE,,,,7/8 Mostly Cloudy,2500.0,,SCT,2000.0,BKN,2500.0,,,,
KRDR,07-09-2009,15:47,SPECI,,210,14.0,20.0,,9999.0,,23.0,19.0,29.73,1008.4,,,,,,,,,,,,,,,7/8 Mostly Cloudy,2500.0,,SCT,1800.0,BKN,2500.0,,,,
KRDR,07-09-2009,15:12,SPECI,,200,16.0,,,9999.0,,21.0,19.0,29.73,1008.4,,,,,,,,,,,,,,,7/8 Mostly Cloudy,3100.0,,FEW,1000.0,SCT,1600.0,BKN,3100.0,,
KRDR,07-09-2009,15:00,METAR,,200,17.0,22.0,,9999.0,,20.0,18.0,29.73,1008.4,,,,,,,,,,,,,,,8/8 Overcast,1600.0,,SCT,1100.0,BKN,1600.0,OVC,2400.0,,
KRDR,07-09-2009,14:33,SPECI,,200,16.0,25.0,,9999.0,,20.0,18.0,29.73,1007.9,,,,,,,,,,,,,,,8/8 Overcast,2400.0,,SCT,1100.0,OVC,2400.0,,,,
KRDR,07-09-2009,14:14,SPECI,,180,17.0,,,9999.0,,20.0,18.0,29.72,1007.5,,,,,,,,,,,,,,,8/8 Overcast,3100.0,,SCT,1000.0,SCT,1600.0,OVC,3100.0,,
KRDR,07-09-2009,14:03,SPECI,,180,15.0,,,9999.0,,20.0,18.0,29.72,1007.5,,,,,,,,,,,,,,,7/8 Mostly Cloudy,1600.0,,BKN,1600.0,BKN,3400.0,,,,
KRDR,07-09-2009,14:00,METAR,,180,16.0,,180/27KTS,9999.0,,20.0,18.0,29.72,1007.6,,,,,,,,,,,,,,,8/8 Overcast,1000.0,,SCT,900.0,BKN,1000.0,OVC,8900.0,,
KRDR,07-09-2009,13:33,SPECI,,170,17.0,23.0,180/27KTS,9999.0,,20.0,18.0,29.72,1007.5,,,,,,,,,,,,,,,7/8 Mostly Cloudy,1000.0,,BKN,1000.0,,,,,,
KRDR,07-09-2009,13:25,SPECI,,170,16.0,22.0,180/27KTS,9999.0,,20.0,18.0,29.71,1007.4,,,,,,,,,,,,,,,7/8 Mostly Cloudy,1500.0,,BKN,1500.0,,,,,,
KRDR,07-09-2009,13:00,METAR,,170,17.0,25.0,,9999.0,,19.0,18.0,29.71,1007.3,,,,,,,,,,,,,,,7/8 Mostly Cloudy,8000.0,,FEW,900.0,SCT,1400.0,BKN,7900.0,,
KRDR,07-09-2009,12:46,SPECI,,170,15.0,25.0,,9999.0,,19.0,18.0,29.72,1007.5,,,,,,,,,,,,,,,7/8 Mostly Cloudy,1300.0,,SCT,900.0,BKN,1300.0,BKN,8400.0,,
KRDR,07-09-2009,12:25,SPECI,,170,16.0,20.0,,9999.0,,19.0,18.0,29.73,1007.9,,,,,,,,,,,,,,,7/8 Mostly Cloudy,9000.0,,FEW,1000.0,BKN,8900.0,,,,
KRDR,07-09-2009,12:00,METAR,,170,13.0,,160/27KTS,9999.0,,19.0,18.0,29.71,1007.4,,,,,,,,,,,TRACE,,.24 IN,.24 IN,7/8 Mostly Cloudy,11000.0,,FEW,3100.0,BKN,11000.0,,,,
KRDR,07-09-2009,11:16,SPECI,,160,16.0,23.0,160/27KTS,9999.0,,18.0,18.0,29.73,1007.9,,,,,,,,,,,,,,,7/8 Mostly Cloudy,12000.0,,FEW,800.0,FEW,3100.0,BKN,12000.0,,
KRDR,07-09-2009,11:00,METAR,,160,24.0,30.0,130/33KTS,9999.0,,18.0,18.0,29.73,1007.9,,,,,,,,,,,.11 IN,,,,7/8 Mostly Cloudy,9000.0,,SCT,3100.0,BKN,8900.0,,,,
KRDR,07-09-2009,10:49,SPECI,,150,24.0,30.0,130/33KTS,9999.0,,18.0,18.0,29.71,1007.3,,,,,,,,,,,,,,,7/8 Mostly Cloudy,9000.0,,SCT,2600.0,BKN,8900.0,,,,
KRDR,07-09-2009,10:33,SPECI,,130,25.0,33.0,130/33KTS,8000.0,Rain/Mist,18.0,18.0,29.68,1006.2,,,,63,10,,,,,,,,,,7/8 Mostly Cloudy,2200.0,,BKN,2200.0,,,,,,
KRDR,07-09-2009,10:14,SPECI,,160,14.0,,,9999.0,Rain/Mist,18.0,18.0,29.77,1009.7,,,,61,10,,,,,,,,,,7/8 Mostly Cloudy,3100.0,,FEW,1100.0,BKN,3100.0,BKN,8900.0,,
KRDR,07-09-2009,10:00,METAR,,160,14.0,20.0,,9999.0,Rain,18.0,18.0,29.77,1009.7,,,,61,,,,,,,.05 IN,,,,7/8 Mostly Cloudy,3000.0,,BKN,3000.0,BKN,9900.0,,,,
KRDR,07-09-2009,09:21,SPECI,,140,15.0,,,9999.0,Rain,18.0,17.0,29.75,1009.0,,,,61,,,,,,,,,,,7/8 Mostly Cloudy,11000.0,,FEW,900.0,SCT,2100.0,BKN,11000.0,,
KRDR,07-09-2009,09:00,METAR,,120,5.0,,,9999.0,Rain,19.0,17.0,29.78,1009.8,,,,61,,,,,,,.05 IN,.08 IN,,,7/8 Mostly Cloudy,3000.0,,FEW,900.0,BKN,3000.0,,,,
KRDR,07-09-2009,08:47,SPECI,,110,5.0,,,9999.0,Rain,19.0,17.0,29.78,1009.8,,,,61,,,,,,,,,,,7/8 Mostly Cloudy,3000.0,,FEW,900.0,SCT,2200.0,BKN,3000.0,,
KRDR,07-09-2009,08:44,SPECI,,110,5.0,,,9999.0,Rain,19.0,17.0,29.78,1009.8,,,,61,,,,,,,,,,,7/8 Mostly Cloudy,2700.0,,FEW,900.0,BKN,2700.0,,,,
KRDR,07-09-2009,08:00,METAR,,200,4.0,,,9999.0,Rain,18.0,16.0,29.82,1010.9,,,,61,,,,,,,.03 IN,,,,7/8 Mostly Cloudy,2600.0,,BKN,2600.0,,,,,,
KRDR,07-09-2009,07:41,SPECI,,200,5.0,,,9999.0,Thunderstorm with Rain or Snow/Light Rain Showers,19.0,16.0,29.83,,,,,95,80,,,,,,,,,,4/8 Partly Cloudy,72000.0,,SCT,3500.0,SCT,12000.0,,,,
KRDR,07-09-2009,07:32,SPECI,,190,5.0,,,9999.0,Rain,19.0,15.0,29.83,1011.1,62,,,,,,,,,,,,,,4/8 Partly Cloudy,72000.0,,FEW,3200.0,SCT,4700.0,SCT,11000.0,,
KRDR,07-09-2009,07:27,SPECI,,180,3.0,,,9999.0,Thunderstorm and Rain or Snow Showers,19.0,15.0,29.82,1011.0,92,,,,,,,,,,,,,,4/8 Partly Cloudy,72000.0,,FEW,1100.0,SCT,4800.0,SCT,11000.0,,
KRDR,07-09-2009,07:25,SPECI,,160,3.0,,,9999.0,Dry Thunderstorm/Unknown Precipitation,20.0,15.0,29.82,1010.8,91,40,,,,,,,,,,,,,4/8 Partly Cloudy,72000.0,,SCT,4800.0,SCT,12000.0,,,,
KRDR,07-09-2009,07:06,SPECI,,140,8.0,,,9999.0,,20.0,14.0,29.81,1010.5,,,,,,,,,,,,,,,7/8 Mostly Cloudy,6500.0,,BKN,6400.0,,,,,,
KRDR,07-09-2009,07:00,METAR,,130,9.0,,,9999.0,,20.0,14.0,29.80,1010.2,,,,,,,,,,,,,,,4/8 Partly Cloudy,72000.0,,SCT,5000.0,,,,,,
KRDR,07-09-2009,06:00,METAR,,130,10.0,,,9999.0,,20.0,14.0,29.82,1011.0,,,,,,,,,,,,,,,8/8 Overcast,4200.0,,OVC,4300.0,,,,,,
KRDR,07-09-2009,05:00,METAR,,120,8.0,,,9999.0,,20.0,14.0,29.80,1010.1,,,,,,,,,,,,,,,Clear,72000.0,,,73000.0,,,,,,
KRDR,07-09-2009,04:00,METAR,,140,9.0,,,9999.0,,22.0,14.0,29.83,1011.1,,,,,,,,,,,,,,,4/8 Partly Cloudy,72000.0,,FEW,7400.0,SCT,25000.0,,,,
KRDR,07-09-2009,03:00,METAR,,140,10.0,,,9999.0,,23.0,13.0,29.81,1010.6,,,,,,,,,,,,,,,4/8 Partly Cloudy,72000.0,,FEW,7400.0,SCT,25000.0,,,,
KRDR,07-09-2009,02:00,METAR,,140,13.0,,,9999.0,,24.0,13.0,29.81,1010.6,,,,,,,,,,,,,,,4/8 Partly Cloudy,72000.0,,FEW,7400.0,SCT,25000.0,,,,
KRDR,07-09-2009,01:00,METAR,,130,11.0,,,9999.0,,26.0,14.0,29.84,1011.5,,,,,,,,,,,,,,,4/8 Partly Cloudy,72000.0,,SCT,7400.0,,,,,,
KRDR,07-09-2009,00:00,METAR,,140,12.0,,,9999.0,,26.0,13.0,29.85,1012.1,,,,,,,,,,,,,,,4/8 Partly Cloudy,72000.0,,FEW,6400.0,SCT,25000.0,,,,
KRDR,07-08-2009,23:00,METAR,,140,11.0,19.0,,9999.0,,27.0,14.0,29.86,1012.1,,,,,,,,,,,,,,,7/8 Mostly Cloudy,25000.0,,SCT,6400.0,BKN,25000.0,,,,
KRDR,07-08-2009,22:00,METAR,,140,13.0,,,9999.0,,27.0,13.0,29.86,1012.1,,,,,,,,,,,,,,,7/8 Mostly Cloudy,25000.0,,SCT,6400.0,BKN,25000.0,,,,
KRDR,07-08-2009,21:00,METAR,,120,12.0,18.0,,9999.0,,27.0,14.0,29.88,1012.8,,,,,,,,,,,,,,,7/8 Mostly Cloudy,25000.0,,SCT,5400.0,BKN,25000.0,,,,
KRDR,07-08-2009,20:00,METAR,,150,13.0,17.0,,9999.0,,26.0,14.0,29.88,1012.8,,,,,,,,,,,,,,,4/8 Partly Cloudy,72000.0,,SCT,5900.0,SCT,25000.0,,,,
KRDR,07-08-2009,19:00,METAR,,120,8.0,18.0,,9999.0,,27.0,12.0,29.88,1013.0,,,,,,,,,,,,,,,4/8 Partly Cloudy,72000.0,,FEW,5900.0,SCT,25000.0,,,,
KRDR,07-08-2009,18:00,METAR,,140,9.0,,,9999.0,,25.0,13.0,29.90,1013.6,,,,,,,,,,,,,,,4/8 Partly Cloudy,72000.0,,FEW,4500.0,SCT,25000.0,,,,
KRDR,07-08-2009,17:00,METAR,,130,6.0,,,9999.0,,24.0,14.0,29.92,1014.4,,,,,,,,,,,,,,,4/8 Partly Cloudy,72000.0,,SCT,25000.0,,,,,,
KRDR,07-08-2009,16:00,METAR,,90,6.0,,,9999.0,,22.0,14.0,29.93,1014.7,,,,,,,,,,,,,,,4/8 Partly Cloudy,72000.0,,SCT,25000.0,,,,,,
KRDR,07-08-2009,15:00,METAR,,120,4.0,,,9999.0,,20.0,13.0,29.93,1015.0,,,,,,,,,,,,,,,2/8 Mostly Clear,72000.0,,FEW,25000.0,,,,,,
KRDR,07-08-2009,14:00,METAR,,130,4.0,,,9999.0,,17.0,12.0,29.95,1015.3,,,,,,,,,,,,,,,Clear,72000.0,,,73000.0,,,,,,
KRDR,07-08-2009,13:00,METAR,,,0.0,,,9999.0,,15.0,11.0,29.95,1015.1,,,,,,,,,,,,,,,Clear,72000.0,,,73000.0,,,,,,
KRDR,07-08-2009,12:00,METAR,,10,3.0,,,9999.0,,11.0,10.0,29.93,1014.7,,,,,,,,,,,,,,,Clear,72000.0,,,73000.0,,,,,,
KRDR,07-08-2009,11:00,METAR,,340,4.0,,,9999.0,,10.0,9.0,29.94,1014.9,,,,,,,,,,,,,,,Clear,72000.0,,,73000.0,,,,,,
KRDR,07-08-2009,10:00,METAR,,350,4.0,,,9999.0,,10.0,9.0,29.94,1014.9,,,,,,,,,,,,,,,Clear,72000.0,,,73000.0,,,,,,
KRDR,07-08-2009,09:00,METAR,,10,5.0,,,9999.0,,11.0,9.0,29.94,1014.9,,,,,,,,,,,,,,,Clear,72000.0,,,73000.0,,,,,,
KRDR,07-08-2009,08:00,METAR,,70,3.0,,,9999.0,,14.0,10.0,29.94,1014.8,,,,,,,,,,,,,,,Clear,72000.0,,,73000.0,,,,,,
KRDR,07-08-2009,07:00,METAR,,90,5.0,,,9999.0,,15.0,10.0,29.93,1014.5,,,,,,,,,,,,,,,Clear,72000.0,,,73000.0,,,,,,
KRDR,07-08-2009,06:00,METAR,,70,6.0,,,9999.0,,16.0,10.0,29.94,1014.7,,,,,,,,,,,,,,,Clear,72000.0,,,73000.0,,,,,,
KRDR,07-08-2009,05:00,METAR,,70,8.0,,,9999.0,,18.0,11.0,29.93,1014.7,,,,,,,,,,,,,,,4/8 Partly Cloudy,72000.0,,SCT,6400.0,,,,,,
KRDR,07-08-2009,04:00,METAR,,60,8.0,,,9999.0,,19.0,12.0,29.93,1014.4,,,,,,,,,,,,,,,Clear,72000.0,,,73000.0,,,,,,
KRDR,07-08-2009,03:00,METAR,,60,8.0,,,9999.0,,20.0,12.0,29.91,1013.9,,,,,,,,,,,,,,,7/8 Mostly Cloudy,20000.0,,SCT,6900.0,BKN,20000.0,,,,
KRDR,07-08-2009,02:00,METAR,,40,7.0,,,9999.0,,21.0,13.0,29.89,1013.3,,,,,,,,,,,,,,,7/8 Mostly Cloudy,20000.0,,SCT,6900.0,SCT,12000.0,BKN,20000.0,,
KRDR,07-08-2009,01:00,METAR,,50,6.0,,,9999.0,,23.0,11.0,29.89,1013.1,,,,,,,,,,,,,,,7/8 Mostly Cloudy,20000.0,,FEW,6900.0,FEW,12000.0,BKN,20000.0,,
KRDR,07-08-2009,00:00,METAR,,50,9.0,,,9999.0,,24.0,11.0,29.89,1013.1,,,,,,,,,,,,,,,7/8 Mostly Cloudy,20000.0,,SCT,6400.0,BKN,20000.0,,,,
KRDR,07-07-2009,23:00,METAR,,30,7.0,,,9999.0,,24.0,10.0,29.89,1013.1,,,,,,,,,,,,,,,7/8 Mostly Cloudy,20000.0,,FEW,6400.0,BKN,20000.0,,,,
KRDR,07-07-2009,22:00,METAR,,20,6.0,,,9999.0,,24.0,10.0,29.89,1013.1,,,,,,,,,,,,,,,7/8 Mostly Cloudy,20000.0,,FEW,5900.0,BKN,20000.0,,,,
KRDR,07-07-2009,21:00,METAR,,,3.0,,,9999.0,,24.0,10.0,29.89,1013.1,,,,,,,,,,,,,,,7/8 Mostly Cloudy,20000.0,,FEW,5900.0,FEW,9900.0,BKN,20000.0,,
KRDR,07-07-2009,20:00,METAR,,40,5.0,,,9999.0,,24.0,10.0,29.90,1013.4,,,,,,,,,,,,,,,8/8 Overcast,20000.0,,FEW,5900.0,FEW,9900.0,OVC,20000.0,,
KRDR,07-07-2009,19:00,METAR,,100,5.0,,,9999.0,,23.0,10.0,29.90,1013.6,,,,,,,,,,,,,,,8/8 Overcast,25000.0,,FEW,6900.0,OVC,25000.0,,,,
KRDR,07-07-2009,18:00,METAR,,50,10.0,,,9999.0,,23.0,11.0,29.90,1013.7,,,,,,,,,,,,,,,8/8 Overcast,25000.0,,FEW,6900.0,OVC,25000.0,,,,
KRDR,07-07-2009,17:00,METAR,,40,8.0,,,9999.0,,22.0,12.0,29.91,1014.0,,,,,,,,,,,,,,,8/8 Overcast,25000.0,,FEW,6900.0,SCT,11000.0,OVC,25000.0,,
KRDR,07-07-2009,16:00,METAR,,50,8.0,,,9999.0,,21.0,12.0,29.91,1013.9,,,,,,,,,,,,,,,8/8 Overcast,25000.0,,FEW,6900.0,SCT,11000.0,OVC,25000.0,,
KRDR,07-07-2009,15:00,METAR,,50,6.0,,,9999.0,,19.0,12.0,29.92,1014.1,,,,,,,,,,,,,,,7/8 Mostly Cloudy,25000.0,,FEW,11000.0,BKN,25000.0,,,,
KRDR,07-07-2009,14:00,METAR,,40,5.0,,,9999.0,,16.0,11.0,29.92,1014.4,,,,,,,,,,,,,,,7/8 Mostly Cloudy,25000.0,,FEW,6900.0,BKN,25000.0,,,,
KRDR,07-07-2009,13:00,METAR,,20,5.0,,,9999.0,,14.0,12.0,29.93,1014.4,,,,,,,,,,,,,,,7/8 Mostly Cloudy,25000.0,,FEW,6900.0,BKN,25000.0,,,,
KRDR,07-07-2009,12:00,METAR,,10,5.0,,,9999.0,,11.0,10.0,29.93,1014.4,,,,,,,,,,,,,,,7/8 Mostly Cloudy,25000.0,,BKN,25000.0,,,,,,
KRDR,07-07-2009,11:00,METAR,,10,7.0,,,9999.0,,11.0,10.0,29.92,1014.3,,,,,,,,,,,,,,,7/8 Mostly Cloudy,25000.0,,BKN,25000.0,,,,,,
KRDR,07-07-2009,10:00,METAR,,350,5.0,,,9999.0,,12.0,10.0,29.93,1014.6,,,,,,,,,,,,,,,Clear,72000.0,,,73000.0,,,,,,
KRDR,07-07-2009,09:00,METAR,,360,6.0,,,9999.0,,12.0,11.0,29.93,1014.6,,,,,,,,,,,,,,,Clear,72000.0,,,73000.0,,,,,,
KRDR,07-07-2009,08:00,METAR,,340,5.0,,,9999.0,,14.0,12.0,29.94,1014.8,,,,,,,,,,,,,,,Clear,72000.0,,,73000.0,,,,,,
KRDR,07-07-2009,07:00,METAR,,,0.0,,,9999.0,,14.0,12.0,29.95,1015.2,,,,,,,,,,,,,,,Clear,72000.0,,,73000.0,,,,,,
KRDR,07-07-2009,06:00,METAR,,20,4.0,,,9999.0,,14.0,12.0,29.94,1014.7,,,,,,,,,,,,,,,Clear,72000.0,,,73000.0,,,,,,
KRDR,07-07-2009,05:00,METAR,,350,4.0,,,9999.0,,15.0,13.0,29.94,1015.0,,,,,,,,,,,,,,,Clear,72000.0,,,73000.0,,,,,,
KRDR,07-07-2009,04:00,METAR,,,0.0,,,9999.0,,16.0,13.0,29.93,1014.4,,,,,,,,,,,,,,,Clear,72000.0,,,73000.0,,,,,,
KRDR,07-07-2009,03:00,METAR,,40,4.0,,,9999.0,,18.0,13.0,29.92,1014.2,,,,,,,,,,,,,,,Clear,72000.0,,,73000.0,,,,,,
KRDR,07-07-2009,02:00,METAR,,30,5.0,,,9999.0,,20.0,14.0,29.92,1014.1,,,,,,,,,,,,,,,Clear,72000.0,,,73000.0,,,,,,
KRDR,07-07-2009,01:00,METAR,,20,8.0,,,9999.0,,24.0,13.0,29.92,1014.1,,,,,,,,,,,,,,,Clear,72000.0,,,73000.0,,,,,,
KRDR,07-07-2009,00:00,METAR,,20,7.0,,,9999.0,,25.0,13.0,29.92,1014.1,,,,,,,,,,,,,,,Clear,72000.0,,,73000.0,,,,,,
KRDR,07-06-2009,23:00,METAR,,20,4.0,,,9999.0,,25.0,13.0,29.93,1014.4,,,,,,,,,,,,,,,Clear,72000.0,,,73000.0,,,,,,
KRDR,07-06-2009,22:00,METAR,,,4.0,,,9999.0,,25.0,12.0,29.94,1014.8,,,,,,,,,,,,,,,4/8 Partly Cloudy,72000.0,,FEW,5400.0,SCT,20000.0,,,,
KRDR,07-06-2009,21:00,METAR,,360,8.0,,,9999.0,,25.0,13.0,29.95,1015.1,,,,,,,,,,,,,,,2/8 Mostly Clear,72000.0,,FEW,5400.0,,,,,,
KRDR,07-06-2009,20:00,METAR,,40,6.0,,,9999.0,,25.0,12.0,29.96,1015.6,,,,,,,,,,,,,,,2/8 Mostly Clear,72000.0,,FEW,5900.0,,,,,,
KRDR,07-06-2009,19:00,METAR,,40,11.0,,,9999.0,,25.0,12.0,29.97,1015.8,,,,,,,,,,,,,,,2/8 Mostly Clear,72000.0,,FEW,7900.0,,,,,,
KRDR,07-06-2009,18:00,METAR,,10,7.0,,,9999.0,,24.0,12.0,29.98,1016.3,,,,,,,,,,,,,,,2/8 Mostly Clear,72000.0,,FEW,5900.0,,,,,,
KRDR,07-06-2009,17:00,METAR,,350,6.0,,,9999.0,,23.0,13.0,29.99,1016.5,,,,,,,,,,,,,,,2/8 Mostly Clear,72000.0,,FEW,5000.0,,,,,,
KRDR,07-06-2009,16:00,METAR,,70,7.0,,,9999.0,,23.0,12.0,29.99,1016.4,,,,,,,,,,,,,,,4/8 Partly Cloudy,72000.0,,SCT,11000.0,,,,,,
KRDR,07-06-2009,15:00,METAR,,,3.0,,,9999.0,,22.0,13.0,29.99,1016.6,,,,,,,,,,,,,,,4/8 Partly Cloudy,72000.0,,SCT,11000.0,,,,,,
KRDR,07-06-2009,14:00,METAR,,70,3.0,,,9999.0,,20.0,13.0,30.00,1016.8,,,,,,,,,,,,,,,Clear,72000.0,,,73000.0,,,,,,
KRDR,07-06-2009,13:00,METAR,,20,3.0,,,9999.0,,18.0,14.0,29.99,1016.7,,,,,,,,,,,,,,,2/8 Mostly Clear,72000.0,,FEW,12000.0,,,,,,
KRDR,07-06-2009,12:00,METAR,,360,4.0,,,9999.0,,16.0,14.0,30.00,1016.9,,,,,,,,,,,,,,,7/8 Mostly Cloudy,12000.0,,BKN,12000.0,,,,,,
KRDR,07-06-2009,11:00,METAR,,320,4.0,,,9999.0,,15.0,13.0,30.00,1016.9,,,,,,,,,,,,,,,7/8 Mostly Cloudy,11000.0,,BKN,11000.0,BKN,25000.0,,,,
KRDR,07-06-2009,10:00,METAR,,,0.0,,,9999.0,,16.0,14.0,29.99,1016.5,,,,,,,,,,,,,,,8/8 Overcast,11000.0,,OVC,11000.0,,,,,,
KRDR,07-06-2009,09:00,METAR,,320,5.0,,,9999.0,,16.0,14.0,29.99,1016.5,,,,,,,,,,,,,,,8/8 Overcast,8500.0,,OVC,8400.0,,,,,,
KRDR,07-06-2009,08:00,METAR,,310,3.0,,,9999.0,,16.0,14.0,29.99,1016.5,,,,,,,,,,,,,,,8/8 Overcast,12000.0,,OVC,12000.0,,,,,,
KRDR,07-06-2009,07:00,METAR,,350,3.0,,,9999.0,,17.0,14.0,29.99,1016.4,,,,,,,,,,,,,,,8/8 Overcast,12000.0,,OVC,12000.0,,,,,,
KRDR,07-06-2009,06:00,METAR,,340,4.0,,,9999.0,,16.0,14.0,29.99,1016.7,,,,,,,,,,,,,,,8/8 Overcast,12000.0,,OVC,12000.0,,,,,,
KRDR,07-06-2009,05:00,METAR,,10,5.0,,,9999.0,,18.0,14.0,29.99,1016.6,,,,,,,,,,,,,,,8/8 Overcast,10000.0,,OVC,9900.0,,,,,,
KRDR,07-06-2009,04:00,METAR,,340,3.0,,,9999.0,,18.0,14.0,29.99,1016.5,,,,,,,,,,,,,,,7/8 Mostly Cloudy,11000.0,,BKN,11000.0,,,,,,
KRDR,07-06-2009,03:00,METAR,,340,3.0,,,9999.0,,18.0,14.0,29.98,1016.2,,,,,,,,,,,,,,,Clear,72000.0,,,73000.0,,,,,,
KRDR,07-06-2009,02:00,METAR,,20,5.0,,,9999.0,,20.0,14.0,29.98,1016.1,,,,,,,,,,,,,,,7/8 Mostly Cloudy,12000.0,,BKN,12000.0,,,,,,
KRDR,07-06-2009,01:00,METAR,,30,7.0,,,9999.0,,22.0,13.0,29.97,1015.9,,,,,,,,,,,,,,,2/8 Mostly Clear,72000.0,,FEW,12000.0,,,,,,
KRDR,07-06-2009,00:00,METAR,,40,10.0,,,9999.0,,24.0,14.0,29.97,1016.0,,,,,,,,,,,,,,,Clear,72000.0,,,73000.0,,,,,,
KRDR,07-05-2009,23:00,METAR,,40,10.0,,,9999.0,,25.0,14.0,29.99,1016.4,,,,,,,,,,,,,,,2/8 Mostly Clear,72000.0,,FEW,5400.0,,,,,,
KRDR,07-05-2009,22:00,METAR,,360,11.0,,,9999.0,,25.0,15.0,29.99,1016.6,,,,,,,,,,,,,,,4/8 Partly Cloudy,72000.0,,SCT,6400.0,,,,,,
KRDR,07-05-2009,21:00,METAR,,360,9.0,,,9999.0,,26.0,14.0,30.00,1016.8,,,,,,,,,,,,,,,2/8 Mostly Clear,72000.0,,FEW,7900.0,,,,,,
KRDR,07-05-2009,20:00,METAR,,40,7.0,,,9999.0,,26.0,14.0,30.00,1016.7,,,,,,,,,,,,,,,Clear,72000.0,,,73000.0,,,,,,
KRDR,07-05-2009,19:00,METAR,,250,4.0,,,9999.0,,26.0,13.0,30.01,1017.1,,,,,,,,,,,,,,,4/8 Partly Cloudy,72000.0,,SCT,5400.0,,,,,,
KRDR,07-05-2009,18:00,METAR,,,4.0,,,9999.0,,24.0,15.0,30.02,1017.5,,,,,,,,,,,,,,,Clear,72000.0,,,73000.0,,,,,,
KRDR,07-05-2009,17:00,METAR,,350,4.0,,,9999.0,,24.0,14.0,30.03,1017.8,,,,,,,,,,,,,,,Clear,72000.0,,,73000.0,,,,,,
KRDR,07-05-2009,16:00,METAR,,,0.0,,,9999.0,,23.0,14.0,30.04,1018.1,,,,,,,,,,,,,,,Clear,72000.0,,,73000.0,,,,,,
KRDR,07-05-2009,15:00,METAR,,,0.0,,,9999.0,,21.0,14.0,30.05,1018.4,,,,,,,,,,,,,,,Clear,72000.0,,,73000.0,,,,,,
KRDR,07-05-2009,14:00,METAR,,310,4.0,,,9999.0,,19.0,15.0,30.06,1018.7,,,,,,,,,,,,,,,Clear,72000.0,,,73000.0,,,,,,
KRDR,07-05-2009,13:00,METAR,,310,4.0,,,9999.0,,17.0,15.0,30.05,1018.6,,,,,,,,,,,,,,,Clear,72000.0,,,73000.0,,,,,,
KRDR,07-05-2009,12:00,METAR,,280,3.0,,,9999.0,,13.0,13.0,30.04,1018.2,,,,,,,,,,,,,,,Clear,72000.0,,,73000.0,,,,,,
KRDR,07-05-2009,11:02,SPECI,,280,3.0,,,4800.0,Mist,11.0,11.0,30.04,1018.1,10,,,,,,,,,,,,,,Clear,72000.0,,,73000.0,,,,,,
KRDR,07-05-2009,11:00,METAR,,300,3.0,,,4800.0,Mist,11.0,10.0,30.04,1018.1,10,,,,,,,,,,,,,,Clear,72000.0,,,73000.0,,,,,,
KRDR,07-05-2009,10:53,SPECI,,290,4.0,,,4000.0,Mist,11.0,10.0,30.04,1018.1,10,,,,,,,,,,,,,,Clear,72000.0,,,73000.0,,,,,,
KRDR,07-05-2009,10:00,METAR,,,0.0,,,9999.0,,11.0,11.0,30.04,1018.0,,,,,,,,,,,,,,,Clear,72000.0,,,73000.0,,,,,,
KRDR,07-05-2009,09:00,METAR,,,0.0,,,9999.0,,13.0,11.0,30.03,1017.8,,,,,,,,,,,,,,,Clear,72000.0,,,73000.0,,,,,,
KRDR,07-05-2009,08:00,METAR,,,0.0,,,9999.0,,13.0,12.0,30.03,1017.8,,,,,,,,,,,,,,,Clear,72000.0,,,73000.0,,,,,,
KRDR,07-05-2009,07:00,METAR,,290,5.0,,,9999.0,,14.0,12.0,30.03,1017.7,,,,,,,,,,,,,,,Clear,72000.0,,,73000.0,,,,,,
KRDR,07-05-2009,06:00,METAR,,270,5.0,,,9999.0,,14.0,12.0,30.02,1017.6,,,,,,,,,,,,,,,Clear,72000.0,,,73000.0,,,,,,
KRDR,07-05-2009,05:00,METAR,,250,3.0,,,9999.0,,15.0,12.0,30.03,1017.7,,,,,,,,,,,,,,,Clear,72000.0,,,73000.0,,,,,,
KRDR,07-05-2009,04:00,METAR,,50,7.0,,,9999.0,,19.0,12.0,30.03,1017.7,,,,,,,,,,,,,,,Clear,72000.0,,,73000.0,,,,,,
KRDR,07-05-2009,03:00,METAR,,,0.0,,,9999.0,,18.0,14.0,30.01,1017.2,,,,,,,,,,,,,,,Clear,72000.0,,,73000.0,,,,,,
KRDR,07-05-2009,02:00,METAR,,,0.0,,,9999.0,,22.0,14.0,30.01,1017.1,,,,,,,,,,,,,,,Clear,72000.0,,,73000.0,,,,,,
KRDR,07-05-2009,01:00,METAR,,20,3.0,,,9999.0,,23.0,13.0,30.01,1017.1,,,,,,,,,,,,,,,Clear,72000.0,,,73000.0,,,,,,
KRDR,07-05-2009,00:00,METAR,,340,5.0,,,9999.0,,25.0,11.0,30.01,1017.3,,,,,,,,,,,,,,,Clear,72000.0,,,73000.0,,,,,,
KRDR,07-04-2009,23:00,METAR,,,5.0,,,9999.0,,25.0,11.0,30.03,1017.8,,,,,,,,,,,,,,,2/8 Mostly Clear,72000.0,,FEW,6400.0,,,,,,
KRDR,07-04-2009,22:00,METAR,,,5.0,,,9999.0,,25.0,10.0,30.04,1018.2,,,,,,,,,,,,,,,Clear,72000.0,,,73000.0,,,,,,
KRDR,07-04-2009,21:00,METAR,,250,3.0,,,9999.0,,24.0,9.0,30.05,1018.6,,,,,,,,,,,,,,,Clear,72000.0,,,73000.0,,,,,,
KRDR,07-04-2009,20:00,METAR,,300,3.0,,,9999.0,,25.0,8.0,30.07,1019.2,,,,,,,,,,,,,,,Clear,72000.0,,,73000.0,,,,,,
KRDR,07-04-2009,19:00,METAR,,20,5.0,,,9999.0,,24.0,9.0,30.08,1019.5,,,,,,,,,,,,,,,Clear,72000.0,,,73000.0,,,,,,
KRDR,07-04-2009,18:00,METAR,,,3.0,,,9999.0,,23.0,9.0,30.09,1019.7,,,,,,,,,,,,,,,Clear,72000.0,,,73000.0,,,,,,
KRDR,07-04-2009,17:00,METAR,,340,8.0,,,9999.0,,23.0,10.0,30.10,1020.2,,,,,,,,,,,,,,,Clear,72000.0,,,73000.0,,,,,,
KRDR,07-04-2009,16:00,METAR,,300,5.0,,,9999.0,,22.0,11.0,30.10,1020.2,,,,,,,,,,,,,,,Clear,72000.0,,,73000.0,,,,,,
KRDR,07-04-2009,15:00,METAR,,330,3.0,,,9999.0,,21.0,12.0,30.10,1020.0,,,,,,,,,,,,,,,Clear,72000.0,,,73000.0,,,,,,
KRDR,07-04-2009,14:00,METAR,,340,3.0,,,9999.0,,18.0,12.0,30.10,1020.1,,,,,,,,,,,,,,,Clear,72000.0,,,73000.0,,,,,,
KRDR,07-04-2009,13:00,METAR,,360,4.0,,,9999.0,,15.0,12.0,30.10,1020.1,,,,,,,,,,,,,,,Clear,72000.0,,,73000.0,,,,,,
KRDR,07-04-2009,12:00,METAR,,320,3.0,,,9999.0,,13.0,11.0,30.09,1019.7,,,,,,,,,,,,,,,Clear,72000.0,,,73000.0,,,,,,
KRDR,07-04-2009,11:00,METAR,,320,5.0,,,9999.0,,10.0,9.0,30.09,1019.7,,,,,,,,,,,,,,,Clear,72000.0,,,73000.0,,,,,,
KRDR,07-04-2009,10:00,METAR,,320,3.0,,,9999.0,,11.0,10.0,30.08,1019.5,,,,,,,,,,,,,,,Clear,72000.0,,,73000.0,,,,,,
KRDR,07-04-2009,09:00,METAR,,,0.0,,,9999.0,,11.0,10.0,30.09,1019.9,,,,,,,,,,,,,,,Clear,72000.0,,,73000.0,,,,,,
KRDR,07-04-2009,08:00,METAR,,,0.0,,,9999.0,,11.0,11.0,30.10,1020.1,,,,,,,,,,,,,,,Clear,72000.0,,,73000.0,,,,,,
KRDR,07-04-2009,07:00,METAR,,,0.0,,,9999.0,,12.0,11.0,30.10,1020.2,,,,,,,,,,,,,,,Clear,72000.0,,,73000.0,,,,,,
KRDR,07-04-2009,06:00,METAR,,,0.0,,,9999.0,,13.0,11.0,30.10,1020.2,,,,,,,,,,,,,,,Clear,72000.0,,,73000.0,,,,,,
KRDR,07-04-2009,05:00,METAR,,20,4.0,,,9999.0,,14.0,11.0,30.10,1020.2,,,,,,,,,,,,,,,Clear,72000.0,,,73000.0,,,,,,
KRDR,07-04-2009,04:00,METAR,,30,5.0,,,9999.0,,15.0,12.0,30.10,1020.0,,,,,,,,,,,,,,,Clear,72000.0,,,73000.0,,,,,,
KRDR,07-04-2009,03:00,METAR,,20,3.0,,,9999.0,,18.0,13.0,30.10,1020.2,,,,,,,,,,,,,,,Clear,72000.0,,,73000.0,,,,,,
KRDR,07-04-2009,02:00,METAR,,30,4.0,,,9999.0,,21.0,13.0,30.10,1020.3,,,,,,,,,,,,,,,Clear,72000.0,,,73000.0,,,,,,
KRDR,07-04-2009,01:00,METAR,,80,4.0,,,9999.0,,22.0,11.0,30.10,1020.0,,,,,,,,,,,,,,,Clear,72000.0,,,73000.0,,,,,,
KRDR,07-04-2009,00:00,METAR,,70,7.0,,,9999.0,,23.0,10.0,30.11,1020.4,,,,,,,,,,,,,,,Clear,72000.0,,,73000.0,,,,,,
KRDR,07-03-2009,23:00,METAR,,70,5.0,,,9999.0,,24.0,10.0,30.11,1020.6,,,,,,,,,,,,,,,Clear,72000.0,,,73000.0,,,,,,
KRDR,07-03-2009,22:00,METAR,,60,7.0,,,9999.0,,24.0,10.0,30.12,1020.8,,,,,,,,,,,,,,,Clear,72000.0,,,73000.0,,,,,,
KRDR,07-03-2009,21:00,METAR,,120,8.0,,,9999.0,,24.0,10.0,30.12,1020.9,,,,,,,,,,,,,,,Clear,72000.0,,,73000.0,,,,,,
KRDR,07-03-2009,20:00,METAR,,50,7.0,,,9999.0,,23.0,9.0,30.13,1021.3,,,,,,,,,,,,,,,Clear,72000.0,,,73000.0,,,,,,
KRDR,07-03-2009,19:00,METAR,,,4.0,,,9999.0,,23.0,10.0,30.14,1021.6,,,,,,,,,,,,,,,Clear,72000.0,,,73000.0,,,,,,
KRDR,07-03-2009,18:00,METAR,,50,10.0,,,9999.0,,23.0,10.0,30.16,1022.0,,,,,,,,,,,,,,,Clear,72000.0,,,73000.0,,,,,,
KRDR,07-03-2009,17:00,METAR,,40,10.0,,,9999.0,,22.0,10.0,30.16,1022.2,,,,,,,,,,,,,,,Clear,72000.0,,,73000.0,,,,,,
KRDR,07-03-2009,16:00,METAR,,60,11.0,,,9999.0,,21.0,10.0,30.16,1022.2,,,,,,,,,,,,,,,Clear,72000.0,,,73000.0,,,,,,
KRDR,07-03-2009,15:00,METAR,,40,8.0,,,9999.0,,20.0,11.0,30.16,1022.2,,,,,,,,,,,,,,,Clear,72000.0,,,73000.0,,,,,,
KRDR,07-03-2009,14:00,METAR,,70,7.0,,,9999.0,,18.0,12.0,30.16,1022.3,,,,,,,,,,,,,,,Clear,72000.0,,,73000.0,,,,,,
KRDR,07-03-2009,13:00,METAR,,20,6.0,,,9999.0,,15.0,12.0,30.17,1022.4,,,,,,,,,,,,,,,Clear,72000.0,,,73000.0,,,,,,
KRDR,07-03-2009,12:00,METAR,,360,4.0,,,9999.0,,13.0,12.0,30.16,1022.1,,,,,,,,,,,,,,,Clear,72000.0,,,73000.0,,,,,,
KRDR,07-03-2009,11:00,METAR,,340,3.0,,,9999.0,,12.0,11.0,30.15,1021.9,,,,,,,,,,,,,,,Clear,72000.0,,,73000.0,,,,,,
KRDR,07-03-2009,10:00,METAR,,340,5.0,,,9999.0,,12.0,12.0,30.15,1021.8,,,,,,,,,,,,,,,Clear,72000.0,,,73000.0,,,,,,
KRDR,07-03-2009,09:00,METAR,,340,3.0,,,9999.0,,13.0,12.0,30.15,1021.7,,,,,,,,,,,,,,,Clear,72000.0,,,73000.0,,,,,,
KRDR,07-03-2009,08:00,METAR,,340,6.0,,,9999.0,,14.0,13.0,30.14,1021.5,,,,,,,,,,,,,,,Clear,72000.0,,,73000.0,,,,,,
KRDR,07-03-2009,07:00,METAR,,350,6.0,,,9999.0,,14.0,12.0,30.13,1021.1,,,,,,,,,,,,,,,Clear,72000.0,,,73000.0,,,,,,
KRDR,07-03-2009,06:00,METAR,,360,5.0,,,9999.0,,15.0,12.0,30.12,1020.9,,,,,,,,,,,,,,,Clear,72000.0,,,73000.0,,,,,,
KRDR,07-03-2009,05:00,METAR,,10,6.0,,,9999.0,,16.0,14.0,30.11,1020.3,,,,,,,,,,,,,,,Clear,72000.0,,,73000.0,,,,,,
KRDR,07-03-2009,04:00,METAR,,20,7.0,,,9999.0,,17.0,15.0,30.10,1020.2,,,,,,,,,,,,,,,Clear,72000.0,,,73000.0,,,,,,
KRDR,07-03-2009,03:00,METAR,,20,5.0,,,9999.0,,18.0,15.0,30.09,1019.9,,,,,,,,,,,,,,,Clear,72000.0,,,73000.0,,,,,,
KRDR,07-03-2009,02:00,METAR,,20,6.0,,,9999.0,,22.0,15.0,30.07,1019.1,,,,,,,,,,,,,,,Clear,72000.0,,,73000.0,,,,,,
KRDR,07-03-2009,01:00,METAR,,30,7.0,,,9999.0,,24.0,14.0,30.06,1018.7,,,,,,,,,,,,,,,4/8 Partly Cloudy,72000.0,,SCT,6400.0,,,,,,
KRDR,07-03-2009,00:00,METAR,,10,5.0,,,9999.0,,25.0,14.0,30.06,1018.7,,,,,,,,,,,,,,,7/8 Mostly Cloudy,7000.0,,BKN,6900.0,,,,,,
KRDR,07-02-2009,23:00,METAR,,30,5.0,,,9999.0,,24.0,14.0,30.06,1018.7,,,,,,,,,,,,,,,4/8 Partly Cloudy,72000.0,,SCT,7400.0,,,,,,
KRDR,07-02-2009,22:00,METAR,,10,6.0,,,9999.0,,25.0,14.0,30.06,1018.8,,,,,,,,,,,,,,,Clear,72000.0,,,73000.0,,,,,,
KRDR,07-02-2009,21:00,METAR,,,3.0,,,9999.0,,25.0,15.0,30.07,1019.0,,,,,,,,,,,,,,,2/8 Mostly Clear,72000.0,,FEW,4800.0,,,,,,
KRDR,07-02-2009,20:00,METAR,,340,6.0,,,9999.0,,25.0,15.0,30.07,1019.3,,,,,,,,,,,,,,,4/8 Partly Cloudy,72000.0,,SCT,4200.0,,,,,,
KRDR,07-02-2009,19:00,METAR,,340,7.0,,,9999.0,,25.0,16.0,30.07,1019.1,,,,,,,,,,,,,,,2/8 Mostly Clear,72000.0,,FEW,3800.0,,,,,,
KRDR,07-02-2009,18:00,METAR,,30,4.0,,,9999.0,,23.0,15.0,30.07,1019.2,,,,,,,,,,,,,,,2/8 Mostly Clear,72000.0,,FEW,3600.0,,,,,,
KRDR,07-02-2009,17:00,METAR,,,3.0,,,9999.0,,23.0,15.0,30.08,1019.5,,,,,,,,,,,,,,,2/8 Mostly Clear,72000.0,,FEW,2800.0,,,,,,
KRDR,07-02-2009,16:00,METAR,,340,5.0,,,9999.0,,22.0,15.0,30.09,1019.8,,,,,,,,,,,,,,,Clear,72000.0,,,73000.0,,,,,,
KRDR,07-02-2009,15:00,METAR,,330,4.0,,,9999.0,,20.0,15.0,30.09,1019.7,,,,,,,,,,,,,,,Clear,72000.0,,,73000.0,,,,,,
KRDR,07-02-2009,14:00,METAR,,10,5.0,,,9999.0,,18.0,14.0,30.08,1019.3,,,,,,,,,,,,,,,Clear,72000.0,,,73000.0,,,,,,
KRDR,07-02-2009,13:00,METAR,,350,4.0,,,9999.0,,16.0,13.0,30.08,1019.3,,,,,,,,,,,,,,,Clear,72000.0,,,73000.0,,,,,,
KRDR,07-02-2009,12:00,METAR,,330,4.0,,,9999.0,,13.0,12.0,30.06,1018.9,,,,,,,,,,,,,,,Clear,72000.0,,,73000.0,,,,,,
KRDR,07-02-2009,11:00,METAR,,320,5.0,,,9999.0,,11.0,10.0,30.05,1018.4,,,,,,,,,,,,,,,Clear,72000.0,,,73000.0,,,,,,
KRDR,07-02-2009,10:00,METAR,,,0.0,,,9999.0,,12.0,11.0,30.03,1017.9,,,,,,,,,,,,,,,Clear,72000.0,,,73000.0,,,,,,
KRDR,07-02-2009,09:00,METAR,,340,4.0,,,9999.0,,12.0,11.0,30.02,1017.6,,,,,,,,,,,,,,,Clear,72000.0,,,73000.0,,,,,,
KRDR,07-02-2009,08:00,METAR,,340,5.0,,,9999.0,,13.0,11.0,30.02,1017.5,,,,,,,,,,,,,,,Clear,72000.0,,,73000.0,,,,,,
KRDR,07-02-2009,07:00,METAR,,320,6.0,,,9999.0,,14.0,11.0,30.01,1017.3,,,,,,,,,,,,,,,Clear,72000.0,,,73000.0,,,,,,
KRDR,07-02-2009,06:00,METAR,,310,4.0,,,9999.0,,14.0,10.0,30.01,1017.1,,,,,,,,,,,,,,,Clear,72000.0,,,73000.0,,,,,,
KRDR,07-02-2009,05:00,METAR,,350,5.0,,,9999.0,,14.0,10.0,30.00,1016.8,,,,,,,,,,,,,,,Clear,72000.0,,,73000.0,,,,,,
KRDR,07-02-2009,04:00,METAR,,340,4.0,,,9999.0,,15.0,11.0,30.00,1016.7,,,,,,,,,,,,,,,Clear,72000.0,,,73000.0,,,,,,
KRDR,07-02-2009,03:00,METAR,,360,5.0,,,9999.0,,16.0,11.0,29.99,1016.4,,,,,,,,,,,,,,,Clear,72000.0,,,73000.0,,,,,,
KRDR,07-02-2009,02:00,METAR,,350,3.0,,,9999.0,,18.0,12.0,29.98,1016.2,,,,,,,,,,,,,,,Clear,72000.0,,,73000.0,,,,,,
KRDR,07-02-2009,01:00,METAR,,350,6.0,,,9999.0,,20.0,11.0,29.98,1016.1,,,,,,,,,,,,,,,Clear,72000.0,,,73000.0,,,,,,
KRDR,07-02-2009,00:00,METAR,,350,8.0,,,9999.0,,23.0,10.0,29.97,1015.9,,,,,,,,,,,,,,,Clear,72000.0,,,73000.0,,,,,,
KRDR,07-01-2009,23:00,METAR,,360,8.0,,,9999.0,,23.0,10.0,29.97,1015.7,,,,,,,,,,,,,,,Clear,72000.0,,,73000.0,,,,,,
KRDR,07-01-2009,22:00,METAR,,350,7.0,,,9999.0,,23.0,10.0,29.97,1015.7,,,,,,,,,,,,,,,Clear,72000.0,,,73000.0,,,,,,
KRDR,07-01-2009,21:00,METAR,,350,11.0,,,9999.0,,23.0,10.0,29.96,1015.7,,,,,,,,,,,,,,,Clear,72000.0,,,73000.0,,,,,,
KRDR,07-01-2009,20:00,METAR,,40,8.0,,,9999.0,,23.0,8.0,29.96,1015.5,,,,,,,,,,,,,,,Clear,72000.0,,,73000.0,,,,,,
KRDR,07-01-2009,19:00,METAR,,360,8.0,,,9999.0,,22.0,10.0,29.96,1015.5,,,,,,,,,,,,,,,Clear,72000.0,,,73000.0,,,,,,
KRDR,07-01-2009,18:00,METAR,,30,8.0,,,9999.0,,21.0,9.0,29.97,1016.0,,,,,,,,,,,,,,,Clear,72000.0,,,73000.0,,,,,,
KRDR,07-01-2009,17:00,METAR,,30,9.0,,,9999.0,,20.0,11.0,29.98,1016.1,,,,,,,,,,,,,,,Clear,72000.0,,,73000.0,,,,,,
KRDR,07-01-2009,16:00,METAR,,20,10.0,,,9999.0,,19.0,12.0,29.98,1016.2,,,,,,,,,,,,,,,Clear,72000.0,,,73000.0,,,,,,
KRDR,07-01-2009,15:00,METAR,,350,8.0,,,9999.0,,18.0,12.0,29.98,1016.3,,,,,,,,,,,,,,,Clear,72000.0,,,73000.0,,,,,,
KRDR,07-01-2009,14:00,METAR,,360,5.0,,,9999.0,,17.0,11.0,29.99,1016.7,,,,,,,,,,,,,,,Clear,72000.0,,,73000.0,,,,,,
KRDR,07-01-2009,13:00,METAR,,350,5.0,,,9999.0,,15.0,15.0,29.98,1016.3,,,,,,,,,,,,,,,Clear,72000.0,,,73000.0,,,,,,
KRDR,07-01-2009,12:00,METAR,,350,3.0,,,9999.0,,13.0,13.0,29.97,1015.8,,,,,,,,,,,,,,,2/8 Mostly Clear,72000.0,,FEW,20000.0,,,,,,
KRDR,07-01-2009,11:31,SPECI,,320,3.0,,,4800.0,Mist,12.0,12.0,29.97,1015.9,,,,10,,,,,,,,,,,2/8 Mostly Clear,72000.0,,FEW,20000.0,,,,,,
KRDR,07-01-2009,11:25,SPECI,,330,4.0,,,1200.0,Fog or Ice Fog,12.0,12.0,29.97,1015.7,,,,44,,,,,,,,,,,2/8 Mostly Clear,72000.0,,FEW,20000.0,,,,,,
KRDR,07-01-2009,11:17,SPECI,,340,4.0,,,800.0,Fog or Ice Fog,12.0,11.0,29.97,1015.7,,,,44,,,,,,,,,,,2/8 Mostly Clear,72000.0,,FEW,20000.0,,,,,,
KRDR,07-01-2009,11:02,SPECI,,340,4.0,,,400.0,Fog or Ice Fog,11.0,11.0,29.96,1015.7,,,,44,,,,,,,,,,,2/8 Mostly Clear,72000.0,,FEW,0.0,,,,,,
KRDR,07-01-2009,11:00,METAR,,,0.0,,,800.0,Fog,11.0,11.0,29.97,1015.7,30,,,,,,,,,,,,,,Clear,72000.0,,,73000.0,,,,,,
KRDR,07-01-2009,10:50,SPECI,,,0.0,,,800.0,Fog,11.0,11.0,29.97,1015.7,30,,,,,,,,,,,,,,Clear,72000.0,,,73000.0,,,,,,
KRDR,07-01-2009,10:45,SPECI,,,0.0,,,400.0,Fog,11.0,11.0,29.97,1015.8,30,,,,,,,,,,,,,,Clear,72000.0,,,73000.0,,,,,,
KRDR,07-01-2009,10:41,SPECI,,340,3.0,,,400.0,Fog,11.0,11.0,29.97,1015.8,30,,,,,,,,,,,,,,Clear,72000.0,,,73000.0,,,,,,
KRDR,07-01-2009,10:38,SPECI,,340,3.0,,,400.0,Fog,11.0,11.0,29.97,1015.8,30,,,,,,,,,,,,,,Clear,72000.0,,,73000.0,,,,,,
KRDR,07-01-2009,10:36,SPECI,,340,3.0,,,800.0,Fog,11.0,11.0,29.97,1015.8,30,,,,,,,,,,,,,,Clear,72000.0,,,73000.0,,,,,,
KRDR,07-01-2009,10:33,SPECI,,330,3.0,,,1600.0,Mist,12.0,11.0,29.97,1015.9,10,,,,,,,,,,,,,,Clear,72000.0,,,73000.0,,,,,,
KRDR,07-01-2009,10:30,SPECI,,350,3.0,,,2400.0,Mist,11.0,11.0,29.97,1015.8,10,,,,,,,,,,,,,,Clear,72000.0,,,73000.0,,,,,,
KRDR,07-01-2009,10:27,SPECI,,10,3.0,,,1600.0,Mist,11.0,11.0,29.97,1015.8,10,,,,,,,,,,,,,,Clear,72000.0,,,73000.0,,,,,,
KRDR,07-01-2009,10:21,SPECI,,20,3.0,,,1200.0,Mist,11.0,11.0,29.97,1015.8,10,,,,,,,,,,,,,,Clear,72000.0,,,73000.0,,,,,,
KRDR,07-01-2009,10:19,SPECI,,20,3.0,,,2000.0,Mist,11.0,11.0,29.97,1015.8,10,,,,,,,,,,,,,,Clear,72000.0,,,73000.0,,,,,,
KRDR,07-01-2009,10:16,SPECI,,20,3.0,,,4000.0,Mist,11.0,11.0,29.97,1015.7,10,,,,,,,,,,,,,,Clear,72000.0,,,73000.0,,,,,,
KRDR,07-01-2009,10:12,SPECI,,20,3.0,,,4000.0,Mist,12.0,11.0,29.97,1015.8,10,,,,,,,,,,,,,,Clear,72000.0,,,73000.0,,,,,,
KRDR,07-01-2009,10:11,SPECI,,20,3.0,,,3200.0,Mist,12.0,12.0,29.97,1015.8,10,,,,,,,,,,,,,,Clear,72000.0,,,73000.0,,,,,,
KRDR,07-01-2009,10:08,SPECI,,30,3.0,,,1600.0,Mist,12.0,12.0,29.97,1015.7,10,,,,,,,,,,,,,,Clear,72000.0,,,73000.0,,,,,,
KRDR,07-01-2009,10:06,SPECI,,30,4.0,,,1600.0,Mist,12.0,12.0,29.97,1015.7,10,,,,,,,,,,,,,,Clear,72000.0,,,73000.0,,,,,,
KRDR,07-01-2009,10:03,SPECI,,40,3.0,,,1200.0,Mist,12.0,12.0,29.97,1015.7,10,,,,,,,,,,,,,,Clear,72000.0,,,73000.0,,,,,,
KRDR,07-01-2009,10:00,METAR,,,0.0,,,1600.0,Mist,12.0,12.0,29.97,1015.9,10,,,,,,,,,,,,,,Clear,72000.0,,,73000.0,,,,,,
KRDR,07-01-2009,09:54,SPECI,,,0.0,,,1200.0,Mist,12.0,11.0,29.97,1015.8,10,,,,,,,,,,,,,,Clear,72000.0,,,73000.0,,,,,,
KRDR,07-01-2009,09:51,SPECI,,,0.0,,,1600.0,Mist,12.0,12.0,29.97,1015.9,10,,,,,,,,,,,,,,Clear,72000.0,,,73000.0,,,,,,
KRDR,07-01-2009,09:49,SPECI,,,0.0,,,2800.0,Mist,12.0,12.0,29.97,1015.9,10,,,,,,,,,,,,,,Clear,72000.0,,,73000.0,,,,,,
KRDR,07-01-2009,09:47,SPECI,,,0.0,,,4000.0,Mist,12.0,12.0,29.97,1015.9,10,,,,,,,,,,,,,,Clear,72000.0,,,73000.0,,,,,,
KRDR,07-01-2009,09:42,SPECI,,,0.0,,,4800.0,Mist,12.0,12.0,29.97,1015.8,10,,,,,,,,,,,,,,Clear,72000.0,,,73000.0,,,,,,
KRDR,07-01-2009,09:40,SPECI,,360,3.0,,,3200.0,Mist,12.0,12.0,29.97,1015.8,10,,,,,,,,,,,,,,Clear,72000.0,,,73000.0,,,,,,
KRDR,07-01-2009,09:37,SPECI,,10,3.0,,,2000.0,Mist,12.0,12.0,29.97,1015.7,10,,,,,,,,,,,,,,Clear,72000.0,,,73000.0,,,,,,
KRDR,07-01-2009,09:31,SPECI,,20,3.0,,,1600.0,Mist,12.0,12.0,29.96,1015.7,10,,,,,,,,,,,,,,Clear,72000.0,,,73000.0,,,,,,
KRDR,07-01-2009,09:29,SPECI,,10,3.0,,,2000.0,Mist,12.0,12.0,29.97,1015.7,10,,,,,,,,,,,,,,Clear,72000.0,,,73000.0,,,,,,
KRDR,07-01-2009,09:25,SPECI,,360,3.0,,,3200.0,Mist,12.0,12.0,29.97,1015.8,10,,,,,,,,,,,,,,Clear,72000.0,,,73000.0,,,,,,
KRDR,07-01-2009,09:00,METAR,,320,3.0,,,9999.0,,12.0,12.0,29.97,1015.8,,,,,,,,,,,,,,,Clear,72000.0,,,73000.0,,,,,,
KRDR,07-01-2009,08:03,SPECI,,,0.0,,,9999.0,,13.0,13.0,29.97,1015.7,,,,,,,,,,,,,,,4/8 Partly Cloudy,72000.0,,SCT,2500.0,,,,,,
KRDR,07-01-2009,08:00,METAR,,,0.0,,,9999.0,,13.0,13.0,29.96,1015.6,,,,,,,,,,,,,,,4/8 Partly Cloudy,72000.0,,SCT,2500.0,,,,,,
KRDR,07-01-2009,07:54,SPECI,,,0.0,,,9999.0,,13.0,13.0,29.96,1015.7,,,,,,,,,,,,,,,7/8 Mostly Cloudy,2500.0,,BKN,2500.0,,,,,,
KRDR,07-01-2009,07:17,SPECI,,80,3.0,,,9999.0,,16.0,13.0,29.96,1015.7,,,,,,,,,,,,,,,4/8 Partly Cloudy,72000.0,,SCT,2200.0,,,,,,
KRDR,07-01-2009,07:00,METAR,,,0.0,,,9999.0,,15.0,14.0,29.97,1015.7,,,,,,,,,,,,,,,7/8 Mostly Cloudy,2200.0,,BKN,2200.0,,,,,,
KRDR,07-01-2009,06:39,SPECI,,,0.0,,,9999.0,,15.0,14.0,29.96,1015.6,,,,,,,,,,,,,,,7/8 Mostly Cloudy,2100.0,,BKN,2100.0,,,,,,
KRDR,07-01-2009,06:00,METAR,,40,7.0,,,9999.0,,15.0,14.0,29.95,1015.3,,,,,,,,,,,,,,,2/8 Mostly Clear,72000.0,,FEW,3200.0,,,,,,
KRDR,07-01-2009,05:00,METAR,,360,6.0,,,9999.0,,16.0,14.0,29.94,1014.9,,,,,,,,,,,,,,,Clear,72000.0,,,73000.0,,,,,,
KRDR,07-01-2009,04:00,METAR,,360,6.0,,,9999.0,,16.0,14.0,29.95,1015.1,,,,,,,,,,,,,,,Clear,72000.0,,,73000.0,,,,,,
KRDR,07-01-2009,03:00,METAR,,360,7.0,,,9999.0,,17.0,15.0,29.94,1014.9,,,,,,,,,,,,,,,4/8 Partly Cloudy,72000.0,,FEW,9900.0,SCT,22000.0,,,,
KRDR,07-01-2009,02:00,METAR,,20,8.0,,,9999.0,,20.0,15.0,29.91,1013.9,,,,,,,,,,,,,,,4/8 Partly Cloudy,72000.0,,SCT,22000.0,,,,,,
KRDR,07-01-2009,01:00,METAR,,10,11.0,,,9999.0,,21.0,14.0,29.92,1014.1,,,,,,,,,,,,,,,4/8 Partly Cloudy,72000.0,,SCT,22000.0,,,,,,
KRDR,07-01-2009,00:00,METAR,,20,15.0,19.0,,9999.0,,22.0,11.0,29.93,1014.5,,,,,,,,,,,,,,,4/8 Partly Cloudy,72000.0,,SCT,22000.0,,,,,,
KRDR,06-30-2009,23:00,METAR,,10,14.0,,,9999.0,,22.0,10.0,29.94,1014.7,,,,,,,,,,,,,,,4/8 Partly Cloudy,72000.0,,SCT,22000.0,,,,,,
KRDR,06-30-2009,22:00,METAR,,360,15.0,,,9999.0,,22.0,8.0,29.95,1015.1,,,,,,,,,,,,,,,4/8 Partly Cloudy,72000.0,,SCT,22000.0,,,,,,
KRDR,06-30-2009,21:00,METAR,,10,13.0,,,9999.0,,22.0,10.0,29.95,1015.3,,,,,,,,,,,,,,,Clear,72000.0,,,73000.0,,,,,,
KRDR,06-30-2009,20:00,METAR,,350,16.0,21.0,,9999.0,,21.0,10.0,29.96,1015.4,,,,,,,,,,,,,,,2/8 Mostly Clear,72000.0,,FEW,22000.0,,,,,,
KRDR,06-30-2009,19:00,METAR,,10,16.0,23.0,,9999.0,,20.0,9.0,29.97,1015.7,,,,,,,,,,,,,,,Clear,72000.0,,,73000.0,,,,,,
KRDR,06-30-2009,18:00,METAR,,360,15.0,22.0,,9999.0,,20.0,9.0,29.96,1015.7,,,,,,,,,,,,,,,Clear,72000.0,,,73000.0,,,,,,
KRDR,06-30-2009,17:00,METAR,,360,15.0,19.0,,9999.0,,19.0,9.0,29.98,1016.1,,,,,,,,,,,,,,,Clear,72000.0,,,73000.0,,,,,,
KRDR,06-30-2009,16:00,METAR,,350,15.0,19.0,,9999.0,,17.0,9.0,29.98,1016.2,,,,,,,,,,,,,,,Clear,72000.0,,,73000.0,,,,,,
KRDR,06-30-2009,15:00,METAR,,350,12.0,,,9999.0,,16.0,10.0,29.99,1016.4,,,,,,,,,,,,,,,Clear,72000.0,,,73000.0,,,,,,
KRDR,06-30-2009,14:00,METAR,,360,12.0,,,9999.0,,15.0,10.0,29.99,1016.6,,,,,,,,,,,,,,,Clear,72000.0,,,73000.0,,,,,,
KRDR,06-30-2009,13:00,METAR,,350,11.0,,,9999.0,,13.0,10.0,29.99,1016.4,,,,,,,,,,,,,,,Clear,72000.0,,,73000.0,,,,,,
KRDR,06-30-2009,12:00,METAR,,340,7.0,,,9999.0,,12.0,10.0,29.99,1016.5,,,,,,,,,,,,,,,Clear,72000.0,,,73000.0,,,,,,
KRDR,06-30-2009,11:00,METAR,,340,6.0,,,9999.0,,11.0,10.0,29.99,1016.4,,,,,,,,,,,,,,,Clear,72000.0,,,73000.0,,,,,,
KRDR,06-30-2009,10:00,METAR,,340,7.0,,,9999.0,,11.0,11.0,29.98,1016.2,,,,,,,,,,,,,,,Clear,72000.0,,,73000.0,,,,,,
KRDR,06-30-2009,09:00,METAR,,340,7.0,,,9999.0,,12.0,11.0,29.97,1015.8,,,,,,,,,,,,,,,Clear,72000.0,,,73000.0,,,,,,
KRDR,06-30-2009,08:00,METAR,,340,6.0,,,9999.0,,12.0,11.0,29.97,1015.7,,,,,,,,,,,,,,,Clear,72000.0,,,73000.0,,,,,,
KRDR,06-30-2009,07:00,METAR,,360,8.0,,,9999.0,,13.0,12.0,29.95,1015.2,,,,,,,,,,,,,,,Clear,72000.0,,,73000.0,,,,,,
KRDR,06-30-2009,06:00,METAR,,350,8.0,,,9999.0,,14.0,12.0,29.95,1015.1,,,,,,,,,,,,,,,Clear,72000.0,,,73000.0,,,,,,
KRDR,06-30-2009,05:00,METAR,,350,7.0,,,9999.0,,14.0,12.0,29.94,1014.8,,,,,,,,,,,,,,,Clear,72000.0,,,73000.0,,,,,,
KRDR,06-30-2009,04:00,METAR,,360,7.0,,,9999.0,,15.0,12.0,29.94,1014.8,,,,,,,,,,,,,,,Clear,72000.0,,,73000.0,,,,,,
KRDR,06-30-2009,03:00,METAR,,360,8.0,,,9999.0,,16.0,13.0,29.93,1014.4,,,,,,,,,,,,,,,Clear,72000.0,,,73000.0,,,,,,
KRDR,06-30-2009,02:00,METAR,,10,8.0,,,9999.0,,18.0,13.0,29.91,1014.0,,,,,,,,,,,,,,,2/8 Mostly Clear,72000.0,,FEW,3100.0,,,,,,
KRDR,06-30-2009,01:00,METAR,,10,13.0,,,9999.0,,19.0,13.0,29.92,1014.3,,,,,,,,,,,,,,,2/8 Mostly Clear,72000.0,,FEW,4300.0,,,,,,
KRDR,06-30-2009,00:00,METAR,,20,13.0,,,9999.0,,19.0,13.0,29.92,1014.3,,,,,,,,,,,,,,,7/8 Mostly Cloudy,3400.0,,BKN,3500.0,,,,,,
KRDR,06-29-2009,23:00,METAR,,360,17.0,22.0,,9999.0,,20.0,13.0,29.91,1014.0,,,,,,,,,,,,,,,7/8 Mostly Cloudy,3400.0,,BKN,3500.0,,,,,,
KRDR,06-29-2009,22:00,METAR,,10,16.0,22.0,,9999.0,,20.0,13.0,29.91,1013.8,,,,,,,,,,,,,,,7/8 Mostly Cloudy,3200.0,,BKN,3300.0,,,,,,
KRDR,06-29-2009,21:34,SPECI,,360,16.0,21.0,,9999.0,,20.0,13.0,29.91,1013.7,,,,,,,,,,,,,,,7/8 Mostly Cloudy,3000.0,,BKN,3000.0,,,,,,
KRDR,06-29-2009,21:00,METAR,,20,15.0,22.0,,9999.0,,20.0,13.0,29.90,1013.6,,,,,,,,,,,,,,,7/8 Mostly Cloudy,3100.0,,BKN,3100.0,,,,,,
KRDR,06-29-2009,20:00,METAR,,360,14.0,20.0,,9999.0,,19.0,13.0,29.91,1013.8,,,,,,,,,,,,,,,7/8 Mostly Cloudy,3000.0,,BKN,3000.0,,,,,,
KRDR,06-29-2009,19:00,METAR,,10,14.0,18.0,,9999.0,,18.0,12.0,29.91,1013.8,,,,,,,,,,,,,,,7/8 Mostly Cloudy,2500.0,,BKN,2500.0,,,,,,
KRDR,06-29-2009,18:00,METAR,,360,13.0,18.0,,9999.0,,17.0,12.0,29.91,1013.7,,,,,,,,,,,,,TRACE,,8/8 Overcast,1700.0,,OVC,1700.0,,,,,,
KRDR,06-29-2009,17:00,METAR,,360,11.0,,,9999.0,,15.0,12.0,29.92,1014.0,,,,,,,,,,,,,,,8/8 Overcast,1300.0,,OVC,1300.0,,,,,,
KRDR,06-29-2009,16:00,METAR,,340,11.0,,,9999.0,,14.0,11.0,29.91,1014.0,,,,,,,,,,,TRACE,,,,8/8 Overcast,1400.0,,OVC,1400.0,,,,,,
KRDR,06-29-2009,15:36,SPECI,,360,10.0,,,9999.0,,14.0,12.0,29.92,1014.1,,,,,,,,,,,,,,,8/8 Overcast,1200.0,,OVC,1200.0,,,,,,
KRDR,06-29-2009,15:27,SPECI,,360,12.0,,,9999.0,Drizzle,14.0,12.0,29.91,1014.0,,,,51,,,,,,,,,,,8/8 Overcast,1200.0,,OVC,1200.0,,,,,,
KRDR,06-29-2009,15:11,SPECI,,350,11.0,18.0,,9999.0,,14.0,12.0,29.91,1014.0,,,,,,,,,,,,,,,8/8 Overcast,1500.0,,OVC,1500.0,,,,,,
KRDR,06-29-2009,15:00,METAR,,360,12.0,,,9999.0,,14.0,11.0,29.91,1014.0,,,,,,,,,,,,,,,8/8 Overcast,1200.0,,OVC,1200.0,,,,,,
KRDR,06-29-2009,14:00,METAR,,360,13.0,,,9999.0,,13.0,10.0,29.91,1013.7,,,,,,,,,,,,,,,8/8 Overcast,1400.0,,OVC,1400.0,,,,,,
KRDR,06-29-2009,13:47,SPECI,,350,14.0,,,9999.0,,13.0,10.0,29.90,1013.7,,,,,,,,,,,,,,,8/8 Overcast,1400.0,,OVC,1400.0,,,,,,
KRDR,06-29-2009,13:35,SPECI,,10,13.0,19.0,,9999.0,,13.0,10.0,29.90,1013.6,,,,,,,,,,,,,,,8/8 Overcast,1500.0,,OVC,1500.0,,,,,,
KRDR,06-29-2009,13:00,METAR,,360,10.0,,,9999.0,,13.0,11.0,29.89,1013.3,,,,,,,,,,,,,,,8/8 Overcast,1300.0,,OVC,1300.0,,,,,,
KRDR,06-29-2009,12:00,METAR,,350,9.0,,,9999.0,,13.0,10.0,29.89,1013.2,,,,,,,,,,,,,,,8/8 Overcast,1400.0,,OVC,1400.0,,,,,,
KRDR,06-29-2009,11:00,METAR,,350,12.0,,,9999.0,,13.0,10.0,29.87,1012.7,,,,,,,,,,,,,,,8/8 Overcast,1500.0,,OVC,1500.0,,,,,,
KRDR,06-29-2009,10:54,SPECI,,350,11.0,,,9999.0,,13.0,10.0,29.87,1012.7,,,,,,,,,,,,,,,8/8 Overcast,1400.0,,OVC,1400.0,,,,,,
KRDR,06-29-2009,10:34,SPECI,,350,7.0,,,9999.0,,12.0,10.0,29.87,1012.5,,,,,,,,,,,,,,,7/8 Mostly Cloudy,1600.0,,BKN,1600.0,,,,,,
KRDR,06-29-2009,10:00,METAR,,330,13.0,18.0,,9999.0,,12.0,10.0,29.86,1012.2,,,,,,,,,,,,,,,2/8 Mostly Clear,72000.0,,FEW,2000.0,,,,,,
KRDR,06-29-2009,09:17,SPECI,,340,13.0,,,9999.0,,13.0,10.0,29.86,1012.1,,,,,,,,,,,,,,,4/8 Partly Cloudy,72000.0,,SCT,2500.0,,,,,,
KRDR,06-29-2009,09:00,METAR,,350,12.0,,,9999.0,,13.0,10.0,29.85,1011.9,,,,,,,,,,,,,,,8/8 Overcast,2600.0,,OVC,2600.0,,,,,,
KRDR,06-29-2009,08:36,SPECI,,360,11.0,18.0,,9999.0,,13.0,10.0,29.85,1012.0,,,,,,,,,,,,,,,8/8 Overcast,2500.0,,FEW,1000.0,OVC,2500.0,,,,
KRDR,06-29-2009,08:33,SPECI,,360,14.0,18.0,,9999.0,,13.0,10.0,29.85,1012.0,,,,,,,,,,,,,,,8/8 Overcast,2700.0,,FEW,1000.0,SCT,2000.0,OVC,2700.0,,
KRDR,06-29-2009,08:26,SPECI,,360,13.0,21.0,,9999.0,,13.0,11.0,29.86,1012.1,,,,,,,,,,,,,,,8/8 Overcast,2100.0,,FEW,1000.0,OVC,2100.0,,,,
KRDR,06-29-2009,08:22,SPECI,,360,16.0,24.0,,9999.0,,13.0,11.0,29.85,1012.0,,,,,,,,,,,,,,,8/8 Overcast,1700.0,,OVC,1700.0,,,,,,
KRDR,06-29-2009,08:00,METAR,,20,19.0,24.0,,9999.0,,14.0,11.0,29.84,1011.5,,,,,,,,,,,,,,,8/8 Overcast,1500.0,,OVC,1500.0,,,,,,
KRDR,06-29-2009,07:00,METAR,,10,8.0,,,9999.0,,15.0,13.0,29.82,1010.9,,,,,,,,,,,,,,,8/8 Overcast,2000.0,,OVC,2000.0,,,,,,
KRDR,06-29-2009,06:35,SPECI,,360,9.0,,,9999.0,,15.0,13.0,29.82,1010.8,,,,,,,,,,,,,,,7/8 Mostly Cloudy,2000.0,,BKN,2000.0,,,,,,
KRDR,06-29-2009,06:00,METAR,,340,10.0,,,9999.0,,15.0,13.0,29.82,1010.9,,,,,,,,,,,,,,,Clear,72000.0,,,73000.0,,,,,,
KRDR,06-29-2009,05:31,SPECI,,350,9.0,,,9999.0,,16.0,13.0,29.82,1010.9,,,,,,,,,,,,,,,4/8 Partly Cloudy,72000.0,,SCT,2200.0,,,,,,
KRDR,06-29-2009,05:13,SPECI,,350,10.0,,,9999.0,,16.0,13.0,29.83,1011.1,,,,,,,,,,,,,,,7/8 Mostly Cloudy,2300.0,,BKN,2300.0,,,,,,
KRDR,06-29-2009,05:00,METAR,,360,12.0,17.0,,9999.0,,16.0,13.0,29.83,1011.1,,,,,,,,,,,,,,,Clear,72000.0,,,73000.0,,,,,,
KRDR,06-29-2009,04:00,METAR,,360,10.0,,,9999.0,,16.0,13.0,29.82,1010.8,,,,,,,,,,,,,,,Clear,72000.0,,,73000.0,,,,,,
KRDR,06-29-2009,03:00,METAR,,10,9.0,,,9999.0,,17.0,13.0,29.80,1010.2,,,,,,,,,,,,,,,Clear,72000.0,,,73000.0,,,,,,
KRDR,06-29-2009,02:00,METAR,,10,9.0,,,9999.0,,20.0,14.0,29.78,1009.5,,,,,,,,,,,,,,,2/8 Mostly Clear,72000.0,,FEW,5900.0,,,,,,
KRDR,06-29-2009,01:00,METAR,,330,13.0,,,9999.0,,22.0,12.0,29.77,1009.3,,,,,,,,,,,,,,,2/8 Mostly Clear,72000.0,,FEW,5900.0,,,,,,
KRDR,06-29-2009,00:00,METAR,,330,19.0,27.0,320/31KTS,9999.0,,23.0,12.0,29.77,1009.2,,,,,,,,,,,,,,,2/8 Mostly Clear,72000.0,,FEW,6900.0,,,,,,
KRDR,06-28-2009,23:00,METAR,,310,15.0,29.0,310/30KTS,9999.0,,23.0,12.0,29.77,1009.3,,,,,,,,,,,,,,,2/8 Mostly Clear,72000.0,,FEW,5900.0,,,,,,
KRDR,06-28-2009,22:00,METAR,,320,21.0,27.0,310/29KTS,9999.0,,24.0,12.0,29.78,1009.5,,,,,,,,,,,,,,,2/8 Mostly Clear,72000.0,,FEW,5900.0,,,,,,
KRDR,06-28-2009,21:00,METAR,,320,21.0,27.0,320/31KTS,9999.0,,23.0,13.0,29.78,1009.6,,,,,,,,,,,,,,,2/8 Mostly Clear,72000.0,,FEW,6400.0,,,,,,
KRDR,06-28-2009,20:00,METAR,,310,21.0,29.0,310/30KTS,9999.0,,23.0,12.0,29.78,1009.7,,,,,,,,,,,,,,,2/8 Mostly Clear,72000.0,,FEW,5000.0,,,,,,
KRDR,06-28-2009,19:00,METAR,,330,21.0,31.0,330/31KTS,9999.0,,22.0,12.0,29.78,1009.7,,,,,,,,,,,,,,,2/8 Mostly Clear,72000.0,,FEW,4900.0,,,,,,
KRDR,06-28-2009,18:00,METAR,,320,17.0,28.0,310/28KTS,9999.0,,22.0,13.0,29.79,1009.8,,,,,,,,,,,,,,,Clear,72000.0,,,73000.0,,,,,,
KRDR,06-28-2009,17:00,METAR,,310,14.0,24.0,310/30KTS,9999.0,,21.0,13.0,29.79,1009.9,,,,,,,,,,,,,,,Clear,72000.0,,,73000.0,,,,,,
KRDR,06-28-2009,16:00,METAR,,300,14.0,26.0,290/26KTS,9999.0,,19.0,13.0,29.79,1010.0,,,,,,,,,,,,,,,Clear,72000.0,,,73000.0,,,,,,
KRDR,06-28-2009,15:00,METAR,,300,18.0,24.0,,9999.0,,19.0,12.0,29.79,1009.9,,,,,,,,,,,,,,,Clear,72000.0,,,73000.0,,,,,,
KRDR,06-28-2009,14:00,METAR,,300,19.0,25.0,,9999.0,,18.0,11.0,29.77,1009.3,,,,,,,,,,,,,,,Clear,72000.0,,,73000.0,,,,,,
KRDR,06-28-2009,13:00,METAR,,300,14.0,20.0,,9999.0,,16.0,10.0,29.77,1009.2,,,,,,,,,,,,,,,Clear,72000.0,,,73000.0,,,,,,
KRDR,06-28-2009,12:00,METAR,,300,15.0,20.0,290/26KTS,9999.0,,14.0,10.0,29.77,1009.2,,,,,,,,,,,,,,.24 IN,Clear,72000.0,,,73000.0,,,,,,
KRDR,06-28-2009,11:00,METAR,,300,16.0,19.0,,9999.0,,14.0,9.0,29.76,1008.8,,,,,,,,,,,,,,,Clear,72000.0,,,73000.0,,,,,,
KRDR,06-28-2009,10:00,METAR,,300,13.0,22.0,,9999.0,,14.0,9.0,29.74,1008.4,,,,,,,,,,,,,,,Clear,72000.0,,,73000.0,,,,,,
KRDR,06-28-2009,09:00,METAR,,310,17.0,25.0,300/30KTS,9999.0,,15.0,9.0,29.74,1008.3,,,,,,,,,,,,,,,Clear,72000.0,,,73000.0,,,,,,
KRDR,06-28-2009,08:00,METAR,,300,17.0,27.0,300/27KTS,9999.0,,16.0,9.0,29.73,1007.9,,,,,,,,,,,,,,,Clear,72000.0,,,73000.0,,,,,,
KRDR,06-28-2009,07:00,METAR,,300,19.0,27.0,300/27KTS,9999.0,,16.0,9.0,29.73,1007.9,,,,,,,,,,,,,,,Clear,72000.0,,,73000.0,,,,,,
KRDR,06-28-2009,06:00,METAR,,300,11.0,,,9999.0,,16.0,10.0,29.74,1008.4,,,,,,,,,,,,,TRACE,,8/8 Overcast,6000.0,,OVC,5900.0,,,,,,
KRDR,06-28-2009,03:00,METAR,,270,16.0,23.0,,9999.0,,17.0,13.0,29.73,1008.1,,,,,,,,,,,,TRACE,,,Clear,72000.0,,,73000.0,,,,,,
KRDR,06-28-2009,02:00,METAR,,270,11.0,18.0,,9999.0,,16.0,12.0,29.73,1007.9,,,,,,,,,,,,,,,Clear,72000.0,,,73000.0,,,,,,
KRDR,06-28-2009,01:00,METAR,,290,10.0,,,9999.0,,16.0,12.0,29.72,1007.6,,,,,,,,,,,TRACE,,,,Clear,72000.0,,,73000.0,,,,,,
KRDR,06-28-2009,00:34,SPECI,,290,11.0,,,9999.0,,15.0,12.0,29.72,1007.5,,,,,,,,,,,,,,,Clear,72000.0,,,73000.0,,,,,,
KRDR,06-28-2009,00:00,METAR,,300,13.0,20.0,300/35KTS,9999.0,,15.0,12.0,29.74,1008.3,,,,,,,,,,,.04 IN,,.24 IN,,Clear,72000.0,,,73000.0,,,,,,
KRDR,06-27-2009,23:54,SPECI,,300,13.0,20.0,,9999.0,,15.0,12.0,29.74,1008.2,,,,,,,,,,,,,,,Clear,72000.0,,,73000.0,,,,,,
KRDR,06-27-2009,23:42,SPECI,,300,18.0,27.0,300/35KTS,9999.0,,15.0,12.0,29.75,1008.5,,,,,,,,,,,,,,,Clear,72000.0,,,73000.0,,,,,,
KRDR,06-27-2009,23:00,METAR,,270,15.0,,,9999.0,Light Rain,15.0,14.0,29.77,1009.3,61,,,,,,,,,,.11 IN,,,,7/8 Mostly Cloudy,2200.0,,BKN,2200.0,,,,,,
KRDR,06-27-2009,22:53,SPECI,,270,16.0,21.0,,9999.0,Light Rain,15.0,14.0,29.77,1009.3,61,,,,,,,,,,,,,,4/8 Partly Cloudy,72000.0,,SCT,2200.0,,,,,,
KRDR,06-27-2009,22:45,SPECI,,290,10.0,,,4800.0,Rain/Mist,15.0,14.0,29.75,1008.7,62,10,,,,,,,,,,,,,7/8 Mostly Cloudy,2400.0,,BKN,2400.0,,,,,,
KRDR,06-27-2009,22:42,SPECI,,290,8.0,,,4000.0,Rain/Mist,15.0,14.0,29.74,1008.2,62,10,,,,,,,,,,,,,7/8 Mostly Cloudy,2600.0,,BKN,2600.0,,,,,,
KRDR,06-27-2009,21:44,SPECI,,330,5.0,,,9999.0,Rain,16.0,14.0,29.71,1007.2,,,,61,,,,,,,,,,,4/8 Partly Cloudy,72000.0,,SCT,6900.0,,,,,,
KRDR,06-27-2009,15:00,METAR,,330,16.0,31.0,320/31KTS,9999.0,,19.0,15.0,29.58,1002.9,,,,,,,,,,,,,,,7/8 Mostly Cloudy,2100.0,,BKN,2100.0,,,,,,
KRDR,06-27-2009,14:00,METAR,,320,14.0,21.0,,9999.0,,18.0,16.0,29.55,1002.0,,,,,,,,,,,,,,,8/8 Overcast,1500.0,,OVC,1500.0,,,,,,
KRDR,06-27-2009,13:44,SPECI,,320,12.0,21.0,,9999.0,,18.0,16.0,29.55,1002.0,,,,,,,,,,,,,,,8/8 Overcast,1500.0,,OVC,1500.0,,,,,,
KRDR,06-27-2009,13:00,METAR,,320,15.0,22.0,,9999.0,,18.0,16.0,29.52,1001.0,,,,,,,,,,,,,,,8/8 Overcast,1100.0,,OVC,1300.0,,,,,,
KRDR,06-27-2009,12:45,SPECI,,320,13.0,18.0,,9999.0,,18.0,16.0,29.52,1000.9,,,,,,,,,,,,,,,8/8 Overcast,1100.0,,OVC,1400.0,,,,,,
KRDR,06-27-2009,12:29,SPECI,,320,12.0,,,9999.0,,18.0,17.0,29.50,1000.5,,,,,,,,,,,,,,,7/8 Mostly Cloudy,1300.0,,BKN,2200.0,,,,,,
KRDR,06-27-2009,12:23,SPECI,,320,11.0,,,9999.0,,18.0,17.0,29.50,1000.3,,,,,,,,,,,,,,,7/8 Mostly Cloudy,3400.0,,FEW,900.0,SCT,1400.0,BKN,3500.0,,
KRDR,06-27-2009,12:12,SPECI,,320,14.0,,,9999.0,,18.0,17.0,29.49,1000.1,,,,,,,,,,,,,,,7/8 Mostly Cloudy,3500.0,,SCT,900.0,BKN,3600.0,,,,
KRDR,06-27-2009,12:03,SPECI,,330,11.0,20.0,,9999.0,,18.0,17.0,29.49,999.9,,,,,,,,,,,,,,,8/8 Overcast,700.0,,OVC,1500.0,,,,,,
KRDR,06-27-2009,12:01,SPECI,,320,12.0,20.0,,9999.0,,18.0,17.0,29.49,1000.0,,,,,,,,,,,,,,,8/8 Overcast,700.0,,OVC,1200.0,,,,,,
KRDR,06-27-2009,12:00,METAR,,320,15.0,22.0,,9999.0,,18.0,17.0,29.48,999.8,,,,,,,,,,,.01 IN,,1 IN,2.7 IN,8/8 Overcast,800.0,,OVC,800.0,,,,,,
KRDR,06-27-2009,11:25,SPECI,,320,16.0,22.0,,9999.0,,18.0,18.0,29.47,999.3,,,,,,,,,,,,,,,8/8 Overcast,800.0,,OVC,800.0,,,,,,
KRDR,06-27-2009,11:13,SPECI,,320,14.0,22.0,,9999.0,Fog or Ice Fog,19.0,18.0,29.46,999.2,,,,40,,,,,,,,,,,8/8 Overcast,900.0,,OVC,900.0,,,,,,
KRDR,06-27-2009,11:09,SPECI,,330,14.0,22.0,,9999.0,,19.0,19.0,29.46,999.0,,,,,,,,,,,,,,,8/8 Overcast,900.0,,OVC,900.0,,,,,,
KRDR,06-27-2009,11:00,METAR,,240,9.0,,,9999.0,,21.0,21.0,29.44,998.5,,,,,,,,,,,,,,,8/8 Overcast,1200.0,,OVC,1200.0,,,,,,
KRDR,06-27-2009,11:00,SPECI,,280,13.0,19.0,,9999.0,,21.0,21.0,29.45,998.7,,,,,,,,,,,,,,,8/8 Overcast,1100.0,,OVC,1100.0,,,,,,
KRDR,06-27-2009,10:43,SPECI,,220,9.0,,,9999.0,,21.0,21.0,29.44,998.4,,,,,,,,,,,,,,,8/8 Overcast,1300.0,,SCT,900.0,OVC,1300.0,,,,
KRDR,06-27-2009,10:34,SPECI,,220,9.0,,,9999.0,,21.0,21.0,29.44,998.3,,,,,,,,,,,,,,,8/8 Overcast,1400.0,,OVC,1400.0,,,,,,
KRDR,06-27-2009,10:33,SPECI,,220,9.0,,,9999.0,,21.0,21.0,29.44,998.3,,,,,,,,,,,,,,,8/8 Overcast,1700.0,,SCT,1000.0,OVC,1700.0,,,,
KRDR,06-27-2009,10:28,SPECI,,210,9.0,,,9999.0,,21.0,21.0,29.44,998.3,,,,,,,,,,,,,,,8/8 Overcast,1100.0,,OVC,1100.0,,,,,,
KRDR,06-27-2009,10:18,SPECI,,210,10.0,,,9999.0,,21.0,21.0,29.44,998.2,,,,,,,,,,,,,,,8/8 Overcast,900.0,,OVC,900.0,,,,,,
KRDR,06-27-2009,10:09,SPECI,,200,11.0,,,9999.0,,21.0,21.0,29.44,998.3,,,,,,,,,,,,,,,8/8 Overcast,1000.0,,OVC,1000.0,,,,,,
KRDR,06-27-2009,10:00,METAR,,210,13.0,,,9999.0,Rain,21.0,21.0,29.45,998.6,,,,61,,,,,,,TRACE,,,,8/8 Overcast,900.0,,OVC,900.0,,,,,,
KRDR,06-27-2009,09:53,SPECI,,210,12.0,,,9999.0,,21.0,21.0,29.45,998.6,,,,,,,,,,,,,,,8/8 Overcast,900.0,,OVC,900.0,,,,,,
KRDR,06-27-2009,09:33,SPECI,,190,13.0,20.0,,9999.0,Rain,21.0,21.0,29.45,998.6,,,,61,,,,,,,,,,,8/8 Overcast,900.0,,OVC,900.0,,,,,,
KRDR,06-27-2009,09:00,METAR,,180,13.0,19.0,,9999.0,,21.0,21.0,29.46,998.9,,,,,,,,,,,.17 IN,.99 IN,,,8/8 Overcast,1000.0,,OVC,1000.0,,,,,,
KRDR,06-27-2009,08:54,SPECI,,190,14.0,19.0,,9999.0,,21.0,21.0,29.45,998.9,,,,,,,,,,,,,,,8/8 Overcast,1000.0,,OVC,1000.0,,,,,,
KRDR,06-27-2009,08:50,SPECI,,180,13.0,19.0,,9999.0,Rain,21.0,21.0,29.46,998.9,,,,61,,,,,,,,,,,8/8 Overcast,1000.0,,OVC,1000.0,,,,,,
KRDR,06-27-2009,08:44,SPECI,,180,11.0,,,9999.0,Rain,20.0,20.0,29.46,999.1,,,,61,,,,,,,,,,,8/8 Overcast,900.0,,OVC,900.0,,,,,,
KRDR,06-27-2009,08:37,SPECI,,180,8.0,,,9999.0,Rain,20.0,20.0,29.47,999.3,,,,61,,,,,,,,,,,8/8 Overcast,900.0,,FEW,500.0,BKN,900.0,OVC,1700.0,,
KRDR,06-27-2009,08:34,SPECI,,180,8.0,,,8000.0,Rain/Mist,20.0,20.0,29.47,999.3,,,,61,10,,,,,,,,,,8/8 Overcast,1700.0,,FEW,500.0,SCT,900.0,OVC,1700.0,,
KRDR,06-27-2009,08:30,SPECI,,150,6.0,,,4800.0,Rain/Mist,20.0,20.0,29.47,999.4,,,,61,10,,,,,,,,,,8/8 Overcast,1400.0,,FEW,400.0,OVC,1400.0,,,,
KRDR,06-27-2009,08:25,SPECI,,140,7.0,,,4800.0,Rain/Mist,20.0,20.0,29.48,999.6,,,,63,10,,,,,,,,,,8/8 Overcast,1500.0,,FEW,400.0,OVC,1500.0,,,,
KRDR,06-27-2009,08:19,SPECI,,130,8.0,,,4800.0,Rain/Mist,20.0,20.0,29.48,999.7,,,,63,10,,,,,,,,,,8/8 Overcast,1600.0,,FEW,500.0,OVC,1600.0,,,,
KRDR,06-27-2009,08:17,SPECI,,130,7.0,,,4000.0,Rain/Mist,20.0,20.0,29.48,999.7,,,,63,10,,,,,,,,,,8/8 Overcast,1600.0,,FEW,500.0,OVC,1600.0,,,,
KRDR,06-27-2009,08:14,SPECI,,120,7.0,,,3200.0,Heavy Rain/Mist,20.0,20.0,29.48,999.8,,,,65,10,,,,,,,,,,8/8 Overcast,1600.0,,OVC,1600.0,,,,,,
KRDR,06-27-2009,08:10,SPECI,,120,7.0,,,3200.0,Heavy Rain/Mist,20.0,20.0,29.49,1000.0,,,,65,10,,,,,,,,,,8/8 Overcast,1800.0,,OVC,1800.0,,,,,,
KRDR,06-27-2009,08:06,SPECI,,130,8.0,,,4000.0,Heavy Rain/Mist,20.0,20.0,29.49,1000.1,,,,65,10,,,,,,,,,,8/8 Overcast,1900.0,,FEW,300.0,OVC,1900.0,,,,
KRDR,06-27-2009,08:03,SPECI,,130,7.0,,,4800.0,Rain/Mist,19.0,19.0,29.49,1000.2,,,,61,10,,,,,,,,,,8/8 Overcast,1900.0,,FEW,300.0,SCT,1000.0,OVC,1900.0,,
KRDR,06-27-2009,08:00,METAR,,130,10.0,,,9999.0,Rain/Mist,19.0,19.0,29.50,1000.5,,,,61,10,,,,,,.34 IN,,,,8/8 Overcast,1700.0,,FEW,300.0,SCT,900.0,OVC,1700.0,,
KRDR,06-27-2009,07:45,SPECI,,120,10.0,,,9999.0,Rain/Mist,19.0,19.0,29.50,1000.5,,,,61,10,,,,,,,,,,8/8 Overcast,1700.0,,SCT,300.0,OVC,1700.0,,,,
KRDR,06-27-2009,07:40,SPECI,,130,11.0,,,4800.0,Rain/Mist,19.0,19.0,29.50,1000.5,,,,61,10,,,,,,,,,,8/8 Overcast,300.0,,BKN,300.0,BKN,800.0,OVC,1300.0,,
KRDR,06-27-2009,07:36,SPECI,,130,12.0,,,3200.0,Rain/Mist,19.0,19.0,29.51,1000.6,,,,63,10,,,,,,,,,,8/8 Overcast,600.0,,OVC,600.0,,,,,,
KRDR,06-27-2009,07:34,SPECI,,130,12.0,,,3200.0,Rain/Mist,19.0,19.0,29.51,1000.7,,,,63,10,,,,,,,,,,8/8 Overcast,800.0,,OVC,800.0,,,,,,
KRDR,06-27-2009,07:32,SPECI,,130,12.0,,,3200.0,Heavy Rain/Mist,19.0,19.0,29.51,1000.8,,,,65,10,,,,,,,,,,8/8 Overcast,300.0,,BKN,300.0,OVC,1300.0,,,,
KRDR,06-27-2009,07:22,SPECI,,130,15.0,,,4000.0,Heavy Rain/Mist,19.0,19.0,29.51,1000.8,,,,65,10,,,,,,,,,,8/8 Overcast,800.0,,OVC,800.0,,,,,,
KRDR,06-27-2009,07:18,SPECI,,140,12.0,,,4000.0,Heavy Rain/Mist,19.0,19.0,29.52,1000.9,,,,65,10,,,,,,,,,,8/8 Overcast,800.0,,OVC,800.0,,,,,,
KRDR,06-27-2009,07:15,SPECI,,140,15.0,,,4000.0,Heavy Rain/Mist,19.0,19.0,29.52,1001.0,,,,65,10,,,,,,,,,,8/8 Overcast,900.0,,OVC,900.0,,,,,,
KRDR,06-27-2009,07:14,SPECI,,130,16.0,,,4000.0,Heavy Rain/Mist,19.0,19.0,29.52,1001.0,,,,65,10,,,,,,,,,,8/8 Overcast,1100.0,,OVC,1100.0,,,,,,
KRDR,06-27-2009,07:07,SPECI,,140,14.0,,,4800.0,Heavy Rain/Mist,19.0,19.0,29.52,1001.1,,,,65,10,,,,,,,,,,8/8 Overcast,900.0,,OVC,900.0,,,,,,
KRDR,06-27-2009,07:01,SPECI,,140,16.0,,,4800.0,Rain/Mist,20.0,20.0,29.53,1001.2,,,,63,10,,,,,,,,,,8/8 Overcast,1000.0,,OVC,1000.0,,,,,,
KRDR,06-27-2009,07:00,METAR,,130,12.0,,,4800.0,Heavy Rain/Mist,20.0,20.0,29.53,1001.3,,,,65,10,,,,,,,,,,8/8 Overcast,900.0,,OVC,900.0,,,,,,
KRDR,06-27-2009,06:54,SPECI,,130,14.0,,,4000.0,Rain/Mist,19.0,19.0,29.53,1001.4,,,,63,10,,,,,,,,,,8/8 Overcast,900.0,,OVC,900.0,,,,,,
KRDR,06-27-2009,06:45,SPECI,,120,11.0,,,4800.0,Rain/Mist,19.0,19.0,29.54,1001.7,,,,63,10,,,,,,,,,,8/8 Overcast,800.0,,OVC,800.0,,,,,,
KRDR,06-27-2009,06:40,SPECI,,130,14.0,,,4800.0,Rain/Mist,19.0,19.0,29.55,1001.9,,,,63,10,,,,,,,,,,8/8 Overcast,600.0,,OVC,600.0,,,,,,
KRDR,06-27-2009,06:35,SPECI,,130,12.0,,,4800.0,Rain/Mist,20.0,20.0,29.55,1002.1,,,,63,10,,,,,,,,,,8/8 Overcast,800.0,,OVC,800.0,,,,,,
KRDR,06-27-2009,06:32,SPECI,,120,12.0,,,4000.0,Heavy Rain/Mist,20.0,20.0,29.55,1002.1,,,,65,10,,,,,,,,,,8/8 Overcast,800.0,,OVC,800.0,,,,,,
KRDR,06-27-2009,06:29,SPECI,,130,14.0,,,4000.0,Heavy Rain/Mist,20.0,20.0,29.56,1002.2,,,,65,10,,,,,,,,,,8/8 Overcast,600.0,,OVC,600.0,,,,,,
KRDR,06-27-2009,06:24,SPECI,,130,13.0,,,3200.0,Heavy Rain/Mist,20.0,20.0,29.56,1002.2,,,,65,10,,,,,,,,,,8/8 Overcast,400.0,,OVC,400.0,,,,,,
KRDR,06-27-2009,06:22,SPECI,,130,14.0,,,2800.0,Heavy Rain/Mist,20.0,20.0,29.56,1002.2,,,,65,10,,,,,,,,,,8/8 Overcast,400.0,,OVC,400.0,,,,,,
KRDR,06-27-2009,06:19,SPECI,,130,15.0,,,2800.0,Heavy Rain/Mist,20.0,20.0,29.56,1002.3,,,,65,10,,,,,,,,,,8/8 Overcast,500.0,,OVC,500.0,,,,,,
KRDR,06-27-2009,06:17,SPECI,,120,14.0,,,2800.0,Heavy Rain/Mist,20.0,20.0,29.56,1002.2,,,,65,10,,,,,,,,,,8/8 Overcast,700.0,,OVC,700.0,,,,,,
KRDR,06-27-2009,06:14,SPECI,,130,14.0,,,3200.0,Heavy Rain/Mist,20.0,20.0,29.56,1002.4,,,,65,10,,,,,,,,,,8/8 Overcast,700.0,,OVC,700.0,,,,,,
KRDR,06-27-2009,06:04,SPECI,,150,15.0,25.0,,4000.0,Heavy Rain/Mist,20.0,20.0,29.57,1002.6,,,,65,10,,,,,,,,,,8/8 Overcast,600.0,,OVC,600.0,,,,,,
KRDR,06-27-2009,06:02,SPECI,,130,17.0,25.0,,4800.0,Heavy Rain/Mist,20.0,20.0,29.57,1002.5,,,,65,10,,,,,,,,,,8/8 Overcast,600.0,,OVC,600.0,,,,,,
KRDR,06-27-2009,06:00,SPECI,,130,17.0,25.0,,4800.0,Rain/Mist,20.0,20.0,29.56,1002.5,,,,63,10,,,,,,,,,,8/8 Overcast,600.0,,OVC,600.0,,,,,,
KRDR,06-27-2009,06:00,METAR,,130,16.0,20.0,,9999.0,Rain,20.0,20.0,29.57,1002.8,,,,61,,,,,,,.1 IN,,1.7 IN,,8/8 Overcast,600.0,,OVC,600.0,,,,,,
KRDR,06-27-2009,05:53,SPECI,,130,18.0,,,9999.0,Rain,20.0,20.0,29.57,1002.8,,,,61,,,,,,,,,,,8/8 Overcast,500.0,,OVC,500.0,,,,,,
KRDR,06-27-2009,05:42,SPECI,,130,12.0,,,9999.0,Drizzle,20.0,20.0,29.58,1002.9,,,,51,,,,,,,,,,,8/8 Overcast,400.0,,BKN,400.0,OVC,1200.0,,,,
KRDR,06-27-2009,05:39,SPECI,,120,11.0,,,9999.0,Rain,19.0,19.0,29.58,1002.9,,,,61,,,,,,,,,,,8/8 Overcast,600.0,,OVC,600.0,,,,,,
KRDR,06-27-2009,05:35,SPECI,,120,11.0,,,6400.0,Rain/Mist,19.0,19.0,29.58,1002.9,,,,61,10,,,,,,,,,,8/8 Overcast,400.0,,BKN,400.0,OVC,1300.0,,,,
KRDR,06-27-2009,05:32,SPECI,,110,11.0,,,4800.0,Rain/Mist,19.0,19.0,29.58,1002.9,,,,61,10,,,,,,,,,,8/8 Overcast,600.0,,OVC,600.0,,,,,,
KRDR,06-27-2009,05:31,SPECI,,110,11.0,,,4800.0,Rain/Mist,19.0,19.0,29.58,1002.9,,,,61,10,,,,,,,,,,8/8 Overcast,700.0,,OVC,700.0,,,,,,
KRDR,06-27-2009,05:27,SPECI,,110,13.0,,,4000.0,Heavy Rain/Mist,19.0,19.0,29.58,1003.0,,,,65,10,,,,,,,,,,8/8 Overcast,800.0,,OVC,800.0,,,,,,
KRDR,06-27-2009,05:22,SPECI,,110,12.0,,,4800.0,Rain/Mist,19.0,19.0,29.59,1003.2,,,,63,10,,,,,,,,,,8/8 Overcast,700.0,,OVC,700.0,,,,,,
KRDR,06-27-2009,05:19,SPECI,,110,11.0,19.0,,6400.0,Rain/Mist,19.0,19.0,29.58,1003.1,,,,63,10,,,,,,,,,,8/8 Overcast,500.0,,OVC,500.0,,,,,,
KRDR,06-27-2009,05:10,SPECI,,110,14.0,,,9999.0,Rain,19.0,19.0,29.58,1003.1,,,,61,,,,,,,,,,,8/8 Overcast,600.0,,OVC,600.0,,,,,,
KRDR,06-27-2009,05:08,SPECI,,100,13.0,,,9999.0,Rain,19.0,19.0,29.58,1003.0,,,,61,,,,,,,,,,,8/8 Overcast,700.0,,OVC,700.0,,,,,,
KRDR,06-27-2009,05:00,METAR,,100,13.0,22.0,,9999.0,Rain,19.0,19.0,29.59,1003.3,,,,61,,,,,,,.11 IN,,,,8/8 Overcast,600.0,,BKN,600.0,BKN,1300.0,OVC,2300.0,,
KRDR,06-27-2009,04:56,SPECI,,100,10.0,22.0,,9999.0,Rain,19.0,19.0,29.59,1003.3,,,,61,,,,,,,,,,,8/8 Overcast,1000.0,,OVC,1000.0,,,,,,
KRDR,06-27-2009,04:51,SPECI,,100,13.0,22.0,,9999.0,Rain,19.0,19.0,29.59,1003.2,,,,61,,,,,,,,,,,8/8 Overcast,700.0,,FEW,300.0,BKN,700.0,OVC,2400.0,,
KRDR,06-27-2009,04:48,SPECI,,100,16.0,22.0,,9999.0,Rain/Mist,19.0,19.0,29.59,1003.2,,,,61,10,,,,,,,,,,8/8 Overcast,1300.0,,OVC,1300.0,,,,,,
KRDR,06-27-2009,04:46,SPECI,,100,15.0,18.0,,8000.0,Rain/Mist,19.0,19.0,29.59,1003.3,,,,61,10,,,,,,,,,,8/8 Overcast,1400.0,,OVC,1400.0,,,,,,
KRDR,06-27-2009,04:44,SPECI,,90,12.0,18.0,,9999.0,Rain/Mist,19.0,19.0,29.59,1003.3,,,,63,10,,,,,,,,,,8/8 Overcast,500.0,,BKN,500.0,BKN,1400.0,OVC,2700.0,,
KRDR,06-27-2009,04:40,SPECI,,90,13.0,,,9999.0,Rain,19.0,19.0,29.60,1003.7,,,,61,,,,,,,,,,,8/8 Overcast,1400.0,,SCT,500.0,BKN,1400.0,OVC,2600.0,,
KRDR,06-27-2009,04:35,SPECI,,100,12.0,,,9999.0,Rain/Mist,19.0,19.0,29.61,1003.9,,,,61,10,,,,,,,,,,8/8 Overcast,2500.0,,SCT,600.0,OVC,2500.0,,,,
KRDR,06-27-2009,04:33,SPECI,,100,13.0,,,8000.0,Rain/Mist,19.0,19.0,29.61,1004.0,,,,61,10,,,,,,,,,,8/8 Overcast,2800.0,,SCT,500.0,OVC,2800.0,,,,
KRDR,06-27-2009,04:32,SPECI,,100,12.0,,,8000.0,Rain/Mist,19.0,19.0,29.61,1004.0,,,,61,10,,,,,,,,,,8/8 Overcast,2900.0,,SCT,600.0,OVC,2900.0,,,,
KRDR,06-27-2009,04:26,SPECI,,100,14.0,,,9999.0,Rain,19.0,19.0,29.62,1004.2,,,,61,,,,,,,,,,,8/8 Overcast,1400.0,,SCT,700.0,BKN,1400.0,OVC,7900.0,,
KRDR,06-27-2009,04:17,SPECI,,90,14.0,23.0,,9999.0,Rain,19.0,19.0,29.61,1004.0,,,,61,,,,,,,,,,,8/8 Overcast,1600.0,,SCT,600.0,BKN,1600.0,OVC,7900.0,,
KRDR,06-27-2009,04:11,SPECI,,100,15.0,,,9999.0,,19.0,19.0,29.61,1004.1,,,,,,,,,,,,,,,8/8 Overcast,2300.0,,SCT,600.0,BKN,2300.0,OVC,7900.0,,
KRDR,06-27-2009,04:06,SPECI,,90,15.0,,,9999.0,,19.0,19.0,29.61,1004.0,,,,,,,,,,,,,,,8/8 Overcast,500.0,,BKN,500.0,BKN,2300.0,OVC,7900.0,,
KRDR,06-27-2009,04:04,SPECI,,90,15.0,,,6400.0,Rain/Mist,19.0,19.0,29.61,1003.9,,,,61,10,,,,,,,,,,8/8 Overcast,500.0,,BKN,500.0,BKN,2300.0,OVC,7900.0,,
KRDR,06-27-2009,04:03,SPECI,,90,16.0,24.0,,4000.0,Rain/Mist,19.0,19.0,29.60,1003.8,,,,61,10,,,,,,,,,,8/8 Overcast,600.0,,BKN,600.0,BKN,2300.0,OVC,7900.0,,
KRDR,06-27-2009,04:01,SPECI,,90,15.0,24.0,,2400.0,Rain/Mist,19.0,19.0,29.60,1003.8,,,,61,10,,,,,,,,,,8/8 Overcast,700.0,,FEW,300.0,BKN,700.0,OVC,5000.0,,
KRDR,06-27-2009,04:00,METAR,,90,16.0,24.0,,3200.0,Heavy Rain/Mist,19.0,19.0,29.61,1003.8,,,,65,10,,,,,,.1 IN,,,,8/8 Overcast,600.0,,BKN,600.0,BKN,2300.0,OVC,4900.0,,
KRDR,06-27-2009,03:54,SPECI,,90,20.0,24.0,,2000.0,Heavy Rain/Mist,19.0,19.0,29.60,1003.6,,,,65,10,,,,,,,,,,8/8 Overcast,1800.0,,OVC,1800.0,,,,,,
KRDR,06-27-2009,03:47,SPECI,,90,14.0,20.0,,9999.0,Rain,19.0,19.0,29.63,1004.5,,,,61,,,,,,,,,,,8/8 Overcast,2300.0,,SCT,600.0,BKN,2300.0,OVC,5000.0,,
KRDR,06-27-2009,03:41,SPECI,,90,15.0,,,9999.0,Rain,19.0,19.0,29.63,1004.5,,,,61,,,,,,,,,,,8/8 Overcast,600.0,,BKN,600.0,OVC,5000.0,,,,
KRDR,06-27-2009,03:36,SPECI,,90,15.0,22.0,,9999.0,Rain,19.0,19.0,29.62,1004.4,,,,61,,,,,,,,,,,8/8 Overcast,4900.0,,SCT,600.0,OVC,5000.0,,,,
KRDR,06-27-2009,03:08,SPECI,,90,18.0,25.0,,9999.0,,19.0,19.0,29.64,1005.0,,,,,,,,,,,,,,,7/8 Mostly Cloudy,4300.0,,FEW,500.0,SCT,1300.0,BKN,4400.0,,
KRDR,06-27-2009,03:01,SPECI,,90,19.0,25.0,,9999.0,Rain,19.0,19.0,29.64,1005.0,,,,61,,,,,,,,,,,8/8 Overcast,4600.0,,SCT,500.0,BKN,4700.0,OVC,6400.0,,
KRDR,06-27-2009,03:00,METAR,,90,17.0,23.0,,9999.0,Rain,19.0,19.0,29.64,1005.0,,,,61,,,,,,,.03 IN,1.39 IN,,,7/8 Mostly Cloudy,1200.0,,SCT,500.0,BKN,1200.0,BKN,4300.0,,
KRDR,06-27-2009,02:41,SPECI,,90,17.0,23.0,,9999.0,,19.0,19.0,29.64,1005.1,,,,,,,,,,,,,,,7/8 Mostly Cloudy,4900.0,,SCT,600.0,SCT,1100.0,BKN,5000.0,,
KRDR,06-27-2009,02:34,SPECI,,90,15.0,22.0,,9999.0,Rain,19.0,19.0,29.65,1005.4,,,,61,,,,,,,,,,,7/8 Mostly Cloudy,1100.0,,SCT,400.0,BKN,1100.0,BKN,5900.0,,
KRDR,06-27-2009,02:26,SPECI,,90,15.0,,,9999.0,Rain,19.0,19.0,29.65,1005.4,,,,61,,,,,,,,,,,8/8 Overcast,6000.0,,SCT,400.0,SCT,800.0,OVC,5900.0,,
KRDR,06-27-2009,02:22,SPECI,,90,14.0,,,9999.0,,19.0,19.0,29.66,1005.6,,,,,,,,,,,,,,,7/8 Mostly Cloudy,6000.0,,SCT,400.0,BKN,5900.0,,,,
KRDR,06-27-2009,02:17,SPECI,,80,13.0,,,9999.0,,19.0,19.0,29.65,1005.3,,,,,,,,,,,,,,,8/8 Overcast,1800.0,,OVC,1800.0,,,,,,
KRDR,06-27-2009,02:15,SPECI,,80,14.0,,,9999.0,,19.0,19.0,29.65,1005.4,,,,,,,,,,,,,,,8/8 Overcast,1200.0,,OVC,1200.0,,,,,,
KRDR,06-27-2009,02:12,SPECI,,70,12.0,19.0,,9999.0,Rain,19.0,19.0,29.64,1005.0,,,,61,,,,,,,,,,,8/8 Overcast,900.0,,OVC,900.0,,,,,,
KRDR,06-27-2009,02:10,SPECI,,70,13.0,19.0,,9999.0,Rain,19.0,19.0,29.64,1005.0,,,,61,,,,,,,,,,,8/8 Overcast,600.0,,OVC,600.0,,,,,,
KRDR,06-27-2009,02:08,SPECI,,70,12.0,21.0,,8000.0,Rain/Mist,19.0,19.0,29.64,1005.1,,,,61,10,,,,,,,,,,8/8 Overcast,1100.0,,OVC,1100.0,,,,,,
KRDR,06-27-2009,02:05,SPECI,,80,14.0,21.0,,8000.0,Rain/Mist,19.0,19.0,29.65,1005.4,,,,61,10,,,,,,,,,,8/8 Overcast,1300.0,,OVC,1300.0,,,,,,
KRDR,06-27-2009,02:01,SPECI,,70,17.0,21.0,,9999.0,Rain,19.0,19.0,29.65,1005.4,,,,61,,,,,,,,,,,8/8 Overcast,1900.0,,OVC,1900.0,,,,,,
KRDR,06-27-2009,02:00,METAR,,60,17.0,,,9999.0,Drizzle,19.0,19.0,29.65,1005.3,,,,51,,,,,,,,,,,8/8 Overcast,300.0,,BKN,300.0,BKN,1300.0,OVC,6900.0,,
KRDR,06-27-2009,01:46,SPECI,,80,18.0,,,9999.0,Rain,19.0,19.0,29.65,1005.2,,,,61,,,,,,,,,,,8/8 Overcast,1400.0,,FEW,300.0,BKN,1400.0,OVC,6900.0,,
KRDR,06-27-2009,01:36,SPECI,,70,16.0,,,4800.0,Rain/Mist,19.0,19.0,29.65,1005.4,,,,61,10,,,,,,,,,,8/8 Overcast,1700.0,,SCT,300.0,BKN,1700.0,OVC,6900.0,,
KRDR,06-27-2009,01:34,SPECI,,70,15.0,19.0,,3200.0,Rain/Mist,19.0,19.0,29.66,1005.8,,,,61,10,,,,,,,,,,8/8 Overcast,1700.0,,SCT,300.0,OVC,1700.0,,,,
KRDR,06-27-2009,01:32,SPECI,,60,12.0,19.0,,2400.0,Rain/Mist,19.0,19.0,29.67,1006.0,,,,61,10,,,,,,,,,,8/8 Overcast,300.0,,BKN,300.0,OVC,1700.0,,,,
KRDR,06-27-2009,01:28,SPECI,,60,17.0,,,1600.0,Rain/Mist,19.0,19.0,29.66,1005.5,,,,61,10,,,,,,,,,,8/8 Overcast,300.0,,BKN,300.0,OVC,1700.0,,,,
KRDR,06-27-2009,01:26,SPECI,,60,16.0,,,1200.0,Heavy Rain/Mist,19.0,19.0,29.66,1005.7,,,,65,10,,,,,,,,,,8/8 Overcast,300.0,,BKN,300.0,OVC,1800.0,,,,
KRDR,06-27-2009,01:25,SPECI,,60,15.0,,,800.0,Heavy Rain/Fog or Ice Fog,19.0,19.0,29.67,1005.9,,,,65,44,,,,,,,,,,8/8 Overcast,300.0,,BKN,300.0,OVC,1600.0,,,,
KRDR,06-27-2009,01:19,SPECI,,60,16.0,21.0,,800.0,Heavy Rain/Fog or Ice Fog,19.0,19.0,29.67,1006.1,,,,65,44,,,,,,,,,,8/8 Overcast,300.0,,BKN,300.0,OVC,1700.0,,,,
KRDR,06-27-2009,01:18,SPECI,,50,16.0,21.0,,400.0,Heavy Rain/Fog or Ice Fog,19.0,19.0,29.67,1006.0,,,,65,44,,,,,,,,,,8/8 Overcast,600.0,,OVC,600.0,,,,,,
KRDR,06-27-2009,01:10,SPECI,,60,15.0,21.0,,400.0,Heavy Rain/Fog or Ice Fog,19.0,19.0,29.69,1006.7,,,,65,44,,,,,,,,,,8/8 Overcast,400.0,,OVC,400.0,,,,,,
KRDR,06-27-2009,01:03,SPECI,,50,19.0,,,400.0,Heavy Rain/Fog or Ice Fog,19.0,19.0,29.70,1006.8,,,,65,44,,,,,,,,,,8/8 Overcast,500.0,,OVC,500.0,,,,,,
KRDR,06-27-2009,01:00,METAR,,40,17.0,25.0,360/44KTS,400.0,Heavy Rain/Fog or Ice Fog,20.0,19.0,29.68,1006.4,,,,65,44,,,,,,.65 IN,,,,8/8 Overcast,300.0,,BKN,300.0,OVC,1500.0,,,,
KRDR,06-27-2009,01:00,SPECI,,50,16.0,21.0,,800.0,Heavy Rain/Fog or Ice Fog,19.0,19.0,29.70,1007.1,,,,65,44,,,,,,,,,,8/8 Overcast,500.0,,OVC,500.0,,,,,,
KRDR,06-27-2009,00:56,SPECI,,40,15.0,21.0,,400.0,Heavy Rain/Fog or Ice Fog,19.0,19.0,29.71,1007.3,,,,65,44,,,,,,,,,,8/8 Overcast,500.0,,OVC,500.0,,,,,,
KRDR,06-27-2009,00:51,SPECI,,30,17.0,25.0,360/44KTS,400.0,Heavy Rain/Fog or Ice Fog,20.0,19.0,29.68,1006.2,,,,65,44,,,,,,,,,,8/8 Overcast,300.0,,BKN,300.0,OVC,1700.0,,,,
KRDR,06-27-2009,00:47,SPECI,,30,20.0,25.0,360/44KTS,400.0,Heavy Rain/Fog or Ice Fog,20.0,20.0,29.68,1006.1,,,,65,44,,,,,,,,,,8/8 Overcast,300.0,,BKN,300.0,OVC,1500.0,,,,
KRDR,06-27-2009,00:44,SPECI,,10,20.0,25.0,360/44KTS,800.0,Heavy Rain/Fog or Ice Fog,20.0,20.0,29.68,1006.2,,,,65,44,,,,,,,,,,8/8 Overcast,300.0,,BKN,300.0,OVC,1600.0,,,,
KRDR,06-27-2009,00:43,SPECI,,10,19.0,30.0,360/44KTS,1200.0,Heavy Rain/Mist,20.0,20.0,29.69,1006.5,,,,65,10,,,,,,,,,,8/8 Overcast,300.0,,BKN,300.0,OVC,1600.0,,,,
KRDR,06-27-2009,00:39,SPECI,,360,15.0,30.0,360/44KTS,2000.0,Rain/Mist,20.0,20.0,29.69,1006.6,,,,61,10,,,,,,,,,,8/8 Overcast,300.0,,BKN,300.0,OVC,2100.0,,,,
KRDR,06-27-2009,00:35,SPECI,,10,25.0,31.0,360/44KTS,1600.0,Heavy Rain/Mist,20.0,19.0,29.66,1005.5,,,,65,10,,,,,,,,,,8/8 Overcast,300.0,,BKN,300.0,BKN,1900.0,OVC,4000.0,,
KRDR,06-27-2009,00:33,SPECI,,10,25.0,31.0,360/44KTS,1600.0,Heavy Rain/Mist,20.0,19.0,29.63,1004.8,,,,65,10,,,,,,,,,,8/8 Overcast,1900.0,,SCT,300.0,BKN,1900.0,OVC,4000.0,,
KRDR,06-27-2009,00:30,SPECI,,10,22.0,31.0,360/44KTS,2800.0,Heavy Rain/Mist,20.0,19.0,29.65,1005.3,,,,65,10,,,,,,,,,,8/8 Overcast,1900.0,,SCT,300.0,BKN,1900.0,OVC,4000.0,,
KRDR,06-27-2009,00:18,SPECI,,10,31.0,40.0,360/44KTS,9999.0,Rain/Mist,19.0,18.0,29.66,1005.7,,,,63,10,,,,,,,,,,8/8 Overcast,2000.0,,FEW,600.0,BKN,2000.0,OVC,4000.0,,
KRDR,06-27-2009,00:16,SPECI,,10,33.0,40.0,360/44KTS,9999.0,Rain/Mist,19.0,18.0,29.65,1005.4,,,,63,10,,,,,,,,,,8/8 Overcast,3100.0,,FEW,800.0,BKN,3100.0,OVC,5000.0,,
KRDR,06-27-2009,00:09,SPECI,,350,27.0,44.0,360/44KTS,9999.0,,20.0,19.0,29.69,1006.5,,,,,,,,,,,,,,,7/8 Mostly Cloudy,3800.0,,FEW,1100.0,BKN,3900.0,BKN,5000.0,,
KRDR,06-27-2009,00:05,SPECI,,340,17.0,44.0,360/44KTS,9999.0,Rain/Mist,21.0,19.0,29.69,1006.8,,,,61,10,,,,,,,,,,7/8 Mostly Cloudy,3600.0,,FEW,1100.0,BKN,3700.0,BKN,5000.0,,
KRDR,06-27-2009,00:00,METAR,,280,16.0,31.0,290/31KTS,9999.0,,29.0,19.0,29.65,1005.2,,,,,,,,,,,TRACE,,TRACE,,4/8 Partly Cloudy,72000.0,,SCT,5900.0,,,,,,
KRDR,06-26-2009,23:55,SPECI,,10,23.0,31.0,010/31KTS,9999.0,Rain,27.0,20.0,29.65,1005.5,,,,61,,,,,,,,,,,4/8 Partly Cloudy,72000.0,,FEW,1200.0,SCT,5400.0,,,,
KRDR,06-26-2009,23:49,SPECI,,160,12.0,19.0,150/26KTS,9999.0,Fog or Ice Fog,29.0,19.0,29.61,1004.1,,,,40,,,,,,,,,,,2/8 Mostly Clear,72000.0,,FEW,5900.0,,,,,,
KRDR,06-26-2009,23:00,METAR,,160,18.0,23.0,150/29KTS,9999.0,,30.0,19.0,29.63,1004.6,,,,,,,,,,,,,,,2/8 Mostly Clear,72000.0,,FEW,11000.0,,,,,,
KRDR,06-26-2009,22:00,METAR,,150,14.0,22.0,160/27KTS,9999.0,,32.0,19.0,29.68,1006.4,,,,,,,,,,,,,,,2/8 Mostly Clear,72000.0,,FEW,6400.0,,,,,,
KRDR,06-26-2009,21:00,METAR,,150,16.0,24.0,,9999.0,,33.0,18.0,29.72,1007.5,,,,,,,,,,,,,,,Clear,72000.0,,,73000.0,,,,,,
KRDR,06-26-2009,20:00,METAR,,140,18.0,23.0,,9999.0,,32.0,17.0,29.74,1008.2,,,,,,,,,,,,,,,Clear,72000.0,,,73000.0,,,,,,
KRDR,06-26-2009,19:00,METAR,,160,17.0,21.0,,9999.0,,31.0,16.0,29.76,1008.9,,,,,,,,,,,,,,,Clear,72000.0,,,73000.0,,,,,,
KRDR,06-26-2009,18:00,METAR,,140,16.0,21.0,,9999.0,,30.0,15.0,29.78,1009.7,,,,,,,,,,,,,,,Clear,72000.0,,,73000.0,,,,,,
KRDR,06-26-2009,17:00,METAR,,170,11.0,,,9999.0,,29.0,15.0,29.82,1010.8,,,,,,,,,,,,,,,Clear,72000.0,,,73000.0,,,,,,
KRDR,06-26-2009,16:00,METAR,,180,12.0,,,9999.0,,27.0,13.0,29.83,1011.4,,,,,,,,,,,,,,,2/8 Mostly Clear,72000.0,,FEW,11000.0,,,,,,
KRDR,06-26-2009,15:00,METAR,,160,11.0,,,9999.0,,25.0,13.0,29.85,1011.9,,,,,,,,,,,,,,,Clear,72000.0,,,73000.0,,,,,,
KRDR,06-26-2009,14:00,METAR,,150,8.0,,,9999.0,,22.0,12.0,29.86,1012.3,,,,,,,,,,,,,,,Clear,72000.0,,,73000.0,,,,,,
KRDR,06-26-2009,13:00,METAR,,160,6.0,,,9999.0,,19.0,11.0,29.87,1012.5,,,,,,,,,,,,,,,Clear,72000.0,,,73000.0,,,,,,
KRDR,06-26-2009,12:00,METAR,,170,4.0,,,9999.0,,16.0,11.0,29.87,1012.6,,,,,,,,,,,,,,.04 IN,Clear,72000.0,,,73000.0,,,,,,
KRDR,06-26-2009,11:00,METAR,,150,6.0,,,9999.0,,16.0,10.0,29.84,1011.7,,,,,,,,,,,,,,,Clear,72000.0,,,73000.0,,,,,,
KRDR,06-26-2009,10:00,METAR,,170,7.0,,,9999.0,,15.0,10.0,29.84,1011.7,,,,,,,,,,,,,,,Clear,72000.0,,,73000.0,,,,,,
KRDR,06-26-2009,09:00,METAR,,180,7.0,,,9999.0,,15.0,10.0,29.86,1012.2,,,,,,,,,,,,,,,Clear,72000.0,,,73000.0,,,,,,
KRDR,06-26-2009,08:00,METAR,,170,6.0,,,9999.0,,16.0,10.0,29.86,1012.3,,,,,,,,,,,,,,,Clear,72000.0,,,73000.0,,,,,,
KRDR,06-26-2009,07:00,METAR,,180,6.0,,,9999.0,,17.0,10.0,29.88,1013.0,,,,,,,,,,,,,,,Clear,72000.0,,,73000.0,,,,,,
KRDR,06-26-2009,06:00,METAR,,180,5.0,,,9999.0,,15.0,10.0,29.89,1013.3,,,,,,,,,,,,,,,Clear,72000.0,,,73000.0,,,,,,
KRDR,06-26-2009,05:00,METAR,,170,3.0,,,9999.0,,15.0,11.0,29.89,1013.2,,,,,,,,,,,,,,,Clear,72000.0,,,73000.0,,,,,,
KRDR,06-26-2009,04:00,METAR,,170,3.0,,,9999.0,,16.0,11.0,29.88,1012.8,,,,,,,,,,,,,,,Clear,72000.0,,,73000.0,,,,,,
KRDR,06-26-2009,03:00,METAR,,150,4.0,,,9999.0,,21.0,11.0,29.86,1012.4,,,,,,,,,,,,,,,Clear,72000.0,,,73000.0,,,,,,
KRDR,06-26-2009,02:00,METAR,,130,3.0,,,9999.0,,25.0,10.0,29.87,1012.5,,,,,,,,,,,,,,,Clear,72000.0,,,73000.0,,,,,,
KRDR,06-26-2009,01:00,METAR,,90,6.0,,,9999.0,,27.0,8.0,29.87,1012.6,,,,,,,,,,,,,,,Clear,72000.0,,,73000.0,,,,,,
KRDR,06-26-2009,00:00,METAR,,100,5.0,,,9999.0,,27.0,8.0,29.88,1012.8,,,,,,,,,,,,,,,Clear,72000.0,,,73000.0,,,,,,
KRDR,06-25-2009,23:00,METAR,,100,6.0,,,9999.0,,28.0,8.0,29.89,1013.3,,,,,,,,,,,,,,,Clear,72000.0,,,73000.0,,,,,,
KRDR,06-25-2009,22:00,METAR,,,0.0,,,9999.0,,27.0,7.0,29.91,1013.8,,,,,,,,,,,,,,,Clear,72000.0,,,73000.0,,,,,,
KRDR,06-25-2009,21:00,METAR,,360,4.0,,,9999.0,,28.0,8.0,29.91,1014.0,,,,,,,,,,,,,,,Clear,72000.0,,,73000.0,,,,,,
KRDR,06-25-2009,20:10,SPECI,,40,4.0,,,9999.0,,27.0,8.0,29.92,1014.2,,,,,,,,,,,,,,,Clear,72000.0,,,73000.0,,,,,,
KRDR,06-25-2009,20:05,SPECI,,60,7.0,,,4800.0,Haze,27.0,9.0,29.92,1014.2,,,,5,,,,,,,,,,,Clear,72000.0,,,73000.0,,,,,,
KRDR,06-25-2009,20:04,SPECI,,,6.0,,,2000.0,Haze,27.0,9.0,29.92,1014.2,,,,5,,,,,,,,,,,Clear,72000.0,,,73000.0,,,,,,
KRDR,06-25-2009,20:00,METAR,,350,9.0,,,,,27.0,9.0,29.92,1014.2,,,,,,,,,,,,,,,,72000.0,,,,,,,,,
KRDR,06-25-2009,19:00,METAR,,,6.0,,,9999.0,,26.0,9.0,29.93,1014.5,,,,,,,,,,,,,,,Clear,72000.0,,,73000.0,,,,,,
KRDR,06-25-2009,18:00,METAR,,10,7.0,,,9999.0,,26.0,10.0,29.94,1014.9,,,,,,,,,,,,,.04 IN,,Clear,72000.0,,,73000.0,,,,,,
KRDR,06-25-2009,17:00,METAR,,,5.0,,,9999.0,,25.0,11.0,29.93,1014.7,,,,,,,,,,,,,,,Clear,72000.0,,,73000.0,,,,,,
KRDR,06-25-2009,16:00,METAR,,20,10.0,,,9999.0,,24.0,12.0,29.93,1014.7,,,,,,,,,,,.04 IN,,,,Clear,72000.0,,,73000.0,,,,,,
KRDR,06-25-2009,15:00,METAR,,10,9.0,,,9999.0,,22.0,12.0,29.94,1014.9,,,,,,,,,,,,,,,Clear,72000.0,,,73000.0,,,,,,
KRDR,06-25-2009,14:00,METAR,,350,8.0,,,9999.0,,21.0,13.0,29.93,1014.6,,,,,,,,,,,,,,,Clear,72000.0,,,73000.0,,,,,,
KRDR,06-25-2009,13:00,METAR,,360,8.0,,,9999.0,,20.0,14.0,29.91,1014.0,,,,,,,,,,,,,,,Clear,72000.0,,,73000.0,,,,,,
KRDR,06-25-2009,12:00,METAR,,330,5.0,,,9999.0,,17.0,15.0,29.90,1013.4,,,,,,,,,,,,,,.12 IN,Clear,72000.0,,,73000.0,,,,,,
KRDR,06-25-2009,11:00,METAR,,320,3.0,,,9999.0,,16.0,14.0,29.87,1012.6,,,,,,,,,,,,,,,Clear,72000.0,,,73000.0,,,,,,
KRDR,06-25-2009,10:00,METAR,,300,3.0,,,9999.0,,17.0,15.0,29.86,1012.1,,,,,,,,,,,,,,,Clear,72000.0,,,73000.0,,,,,,
KRDR,06-25-2009,09:00,METAR,,260,5.0,,,9999.0,,16.0,14.0,29.85,1012.0,,,,,,,,,,,,,,,Clear,72000.0,,,73000.0,,,,,,
KRDR,06-25-2009,08:00,METAR,,230,5.0,,,9999.0,,16.0,14.0,29.86,1012.1,,,,,,,,,,,,,,,Clear,72000.0,,,73000.0,,,,,,
KRDR,06-25-2009,07:00,METAR,,220,3.0,,,9999.0,,17.0,14.0,29.87,1012.4,,,,,,,,,,,,,,,Clear,72000.0,,,73000.0,,,,,,
KRDR,06-25-2009,06:00,METAR,,250,3.0,,,9999.0,,19.0,14.0,29.87,1012.7,,,,,,,,,,,,,,,Clear,72000.0,,,73000.0,,,,,,
KRDR,06-25-2009,05:00,METAR,,220,7.0,,,9999.0,,17.0,13.0,29.86,1012.3,,,,,,,,,,,,,,,2/8 Mostly Clear,72000.0,,FEW,15000.0,,,,,,
KRDR,06-25-2009,04:00,METAR,,200,6.0,,,9999.0,,19.0,12.0,29.86,1012.2,,,,,,,,,,,,,,,2/8 Mostly Clear,72000.0,,FEW,15000.0,,,,,,
KRDR,06-25-2009,03:00,METAR,,240,4.0,,,9999.0,,19.0,11.0,29.86,1012.2,,,,,,,,,,,,,,,2/8 Mostly Clear,72000.0,,FEW,15000.0,,,,,,
KRDR,06-25-2009,02:00,METAR,,250,6.0,,,9999.0,,23.0,11.0,29.85,1011.8,,,,,,,,,,,,,,,2/8 Mostly Clear,72000.0,,FEW,15000.0,,,,,,
KRDR,06-25-2009,01:00,METAR,,230,13.0,,,9999.0,,26.0,11.0,29.84,1011.7,,,,,,,,,,,,,,,2/8 Mostly Clear,72000.0,,FEW,15000.0,,,,,,
KRDR,06-25-2009,00:00,METAR,,250,6.0,,,9999.0,,28.0,11.0,29.84,1011.5,,,,,,,,,,,,,.12 IN,,2/8 Mostly Clear,72000.0,,FEW,25000.0,,,,,,
KRDR,06-24-2009,23:00,METAR,,230,5.0,,,9999.0,,28.0,10.0,29.85,1011.9,,,,,,,,,,,,,,,2/8 Mostly Clear,72000.0,,FEW,25000.0,,,,,,
KRDR,06-24-2009,22:00,METAR,,,5.0,,,9999.0,,28.0,11.0,29.87,1012.5,,,,,,,,,,,,,,,4/8 Partly Cloudy,72000.0,,FEW,5900.0,SCT,25000.0,,,,
KRDR,06-24-2009,21:00,METAR,,250,7.0,,,9999.0,,27.0,11.0,29.89,1013.1,,,,,,,,,,,.11 IN,.12 IN,,,7/8 Mostly Cloudy,25000.0,,FEW,5900.0,BKN,25000.0,,,,
KRDR,06-24-2009,20:00,METAR,,240,10.0,,,9999.0,,28.0,10.0,29.90,1013.5,,,,,,,,,,,.01 IN,,,,4/8 Partly Cloudy,72000.0,,FEW,5900.0,SCT,25000.0,,,,
KRDR,06-24-2009,19:00,METAR,,250,5.0,,,9999.0,,27.0,11.0,29.91,1013.9,,,,,,,,,,,,,,,4/8 Partly Cloudy,72000.0,,FEW,5900.0,SCT,25000.0,,,,
KRDR,06-24-2009,18:00,METAR,,250,8.0,,,9999.0,,28.0,11.0,29.93,1014.4,,,,,,,,,,,,,,,Clear,72000.0,,,73000.0,,,,,,
KRDR,06-24-2009,17:00,METAR,,270,8.0,,,9999.0,,27.0,13.0,29.94,1014.7,,,,,,,,,,,,,,,Clear,72000.0,,,73000.0,,,,,,
KRDR,06-24-2009,16:00,METAR,,250,8.0,,,9999.0,,27.0,14.0,29.94,1015.0,,,,,,,,,,,,,,,Clear,72000.0,,,73000.0,,,,,,
KRDR,06-24-2009,15:00,METAR,,250,9.0,,,9999.0,,25.0,14.0,29.94,1014.9,,,,,,,,,,,,,,,Clear,72000.0,,,73000.0,,,,,,
KRDR,06-24-2009,14:00,METAR,,240,6.0,,,9999.0,,23.0,14.0,29.93,1014.6,,,,,,,,,,,,,,,Clear,72000.0,,,73000.0,,,,,,
KRDR,06-24-2009,13:00,METAR,,260,6.0,,,9999.0,,19.0,13.0,29.93,1014.4,,,,,,,,,,,,,,,Clear,72000.0,,,73000.0,,,,,,
KRDR,06-24-2009,12:00,METAR,,230,4.0,,,9999.0,,15.0,12.0,29.93,1014.4,,,,,,,,,,,,,,.29 IN,Clear,72000.0,,,73000.0,,,,,,
KRDR,06-24-2009,11:00,METAR,,230,4.0,,,9999.0,,13.0,10.0,29.93,1014.4,,,,,,,,,,,,,,,Clear,72000.0,,,73000.0,,,,,,
KRDR,06-24-2009,10:00,METAR,,240,5.0,,,9999.0,,13.0,10.0,29.92,1014.2,,,,,,,,,,,,,,,Clear,72000.0,,,73000.0,,,,,,
KRDR,06-24-2009,09:00,METAR,,260,7.0,,,9999.0,,14.0,11.0,29.91,1014.0,,,,,,,,,,,,,,,Clear,72000.0,,,73000.0,,,,,,
KRDR,06-24-2009,08:00,METAR,,270,6.0,,,9999.0,,14.0,11.0,29.93,1014.4,,,,,,,,,,,,,,,Clear,72000.0,,,73000.0,,,,,,
KRDR,06-24-2009,07:00,METAR,,240,6.0,,,9999.0,,13.0,11.0,29.92,1014.1,,,,,,,,,,,,,,,Clear,72000.0,,,73000.0,,,,,,
KRDR,06-24-2009,06:00,METAR,,220,5.0,,,9999.0,,14.0,11.0,29.91,1013.9,,,,,,,,,,,,,,,Clear,72000.0,,,73000.0,,,,,,
KRDR,06-24-2009,05:00,METAR,,270,5.0,,,9999.0,,14.0,11.0,29.91,1013.9,,,,,,,,,,,,,,,Clear,72000.0,,,73000.0,,,,,,
KRDR,06-24-2009,04:00,METAR,,240,4.0,,,9999.0,,15.0,12.0,29.90,1013.5,,,,,,,,,,,,,,,Clear,72000.0,,,73000.0,,,,,,
KRDR,06-24-2009,03:00,METAR,,250,6.0,,,9999.0,,18.0,12.0,29.87,1012.7,,,,,,,,,,,,,,,Clear,72000.0,,,73000.0,,,,,,
KRDR,06-24-2009,02:00,METAR,,280,6.0,,,9999.0,,22.0,11.0,29.86,1012.2,,,,,,,,,,,,,,,Clear,72000.0,,,73000.0,,,,,,
KRDR,06-24-2009,01:00,METAR,,300,6.0,,,9999.0,,25.0,11.0,29.85,1011.9,,,,,,,,,,,,,,,Clear,72000.0,,,73000.0,,,,,,
KRDR,06-24-2009,00:00,METAR,,280,8.0,,,9999.0,,26.0,13.0,29.85,1011.9,,,,,,,,,,,,,,,Clear,72000.0,,,73000.0,,,,,,
KRDR,06-23-2009,23:00,METAR,,260,10.0,,,9999.0,,26.0,12.0,29.86,1012.2,,,,,,,,,,,,,,,Clear,72000.0,,,73000.0,,,,,,
KRDR,06-23-2009,22:00,METAR,,280,8.0,,,9999.0,,26.0,13.0,29.85,1012.0,,,,,,,,,,,,,,,Clear,72000.0,,,73000.0,,,,,,
KRDR,06-23-2009,21:00,METAR,,310,6.0,,,9999.0,,25.0,12.0,29.85,1011.8,,,,,,,,,,,,,,,2/8 Mostly Clear,72000.0,,FEW,5000.0,,,,,,
KRDR,06-23-2009,20:00,METAR,,,6.0,,,9999.0,,24.0,13.0,29.87,1012.4,,,,,,,,,,,,,,,4/8 Partly Cloudy,72000.0,,SCT,6900.0,,,,,,
KRDR,06-23-2009,19:00,METAR,,350,4.0,,,9999.0,,22.0,13.0,29.87,1012.6,,,,,,,,,,,,,,,7/8 Mostly Cloudy,5500.0,,BKN,5400.0,,,,,,
KRDR,06-23-2009,18:00,METAR,,360,9.0,,,9999.0,,19.0,14.0,29.87,1012.5,,,,,,,,,,,.07 IN,,.29 IN,,4/8 Partly Cloudy,72000.0,,SCT,5000.0,SCT,15000.0,,,,
KRDR,06-23-2009,17:19,SPECI,,360,12.0,19.0,,9999.0,,16.0,14.0,29.87,1012.6,,,,,,,,,,,,,,,4/8 Partly Cloudy,72000.0,,FEW,300.0,SCT,1200.0,SCT,5900.0,,
KRDR,06-23-2009,17:08,SPECI,,360,13.0,,,9999.0,Rain,14.0,13.0,29.86,1012.3,,,,61,,,,,,,,,,,7/8 Mostly Cloudy,4300.0,,FEW,300.0,SCT,1400.0,BKN,4400.0,,
KRDR,06-23-2009,17:00,METAR,,330,17.0,39.0,280/39KTS,1200.0,Heavy Thunderstorm with Rain or Snow/Heavy Rain Showers,17.0,13.0,29.90,1013.5,,,,97,82,,,,,,.22 IN,,,,8/8 Overcast,4300.0,,FEW,300.0,BKN,4400.0,OVC,6900.0,,
KRDR,06-23-2009,16:46,SPECI,,290,30.0,39.0,280/39KTS,1600.0,Thunderstorm with Rain or Snow/Rain Showers,18.0,13.0,29.92,1014.4,,,,95,81,,,,,,,,,,7/8 Mostly Cloudy,4200.0,,FEW,2000.0,BKN,4300.0,BKN,5900.0,,
KRDR,06-23-2009,16:29,SPECI,,10,11.0,,,9999.0,Rain,22.0,9.0,29.83,1011.2,,,,61,,,,,,,,,,,7/8 Mostly Cloudy,7500.0,,SCT,4500.0,BKN,7400.0,,,,
KRDR,06-23-2009,16:00,METAR,,360,9.0,,,9999.0,,23.0,12.0,29.86,1012.1,,,,,,,,,,,,,,,7/8 Mostly Cloudy,3900.0,,BKN,4000.0,,,,,,
KRDR,06-23-2009,15:00,METAR,,30,7.0,,,9999.0,,23.0,10.0,29.85,1011.8,,,,,,,,,,,,,,,4/8 Partly Cloudy,72000.0,,SCT,3800.0,,,,,,
KRDR,06-23-2009,14:00,METAR,,30,7.0,,,9999.0,,22.0,11.0,29.84,1011.7,,,,,,,,,,,,,,,Clear,72000.0,,,73000.0,,,,,,
KRDR,06-23-2009,13:00,METAR,,10,5.0,,,9999.0,,20.0,15.0,29.85,1011.8,,,,,,,,,,,,,,,Clear,72000.0,,,73000.0,,,,,,
KRDR,06-23-2009,12:00,METAR,,330,4.0,,,9999.0,,18.0,17.0,29.86,1012.2,,,,,,,,,,,,,,,Clear,72000.0,,,73000.0,,,,,,
KRDR,06-23-2009,11:00,METAR,,190,3.0,,,9999.0,,15.0,15.0,29.82,1010.9,,,,,,,,,,,,,,,Clear,72000.0,,,73000.0,,,,,,
KRDR,06-23-2009,10:00,METAR,,,0.0,,,9999.0,,16.0,15.0,29.81,1010.7,,,,,,,,,,,,,,,Clear,72000.0,,,73000.0,,,,,,
KRDR,06-23-2009,09:00,METAR,,240,3.0,,,9999.0,,17.0,16.0,29.82,1010.8,,,,,,,,,,,,,,,2/8 Mostly Clear,72000.0,,FEW,7400.0,,,,,,
KRDR,06-23-2009,08:00,METAR,,260,3.0,,,9999.0,,17.0,16.0,29.81,1010.5,,,,,,,,,,,,,,,Clear,72000.0,,,73000.0,,,,,,
KRDR,06-23-2009,07:00,METAR,,220,6.0,,,9999.0,,19.0,17.0,29.79,1009.8,,,,,,,,,,,,,,,Clear,72000.0,,,73000.0,,,,,,
KRDR,06-23-2009,06:00,METAR,,210,4.0,,,9999.0,,20.0,18.0,29.78,1009.7,,,,,,,,,,,,,,,Clear,72000.0,,,73000.0,,,,,,
KRDR,06-23-2009,05:00,METAR,,210,5.0,,,9999.0,,21.0,18.0,29.78,1009.5,,,,,,,,,,,,,,,Clear,72000.0,,,73000.0,,,,,,
KRDR,06-23-2009,04:00,METAR,,180,4.0,,,9999.0,,20.0,16.0,29.76,1008.8,,,,,,,,,,,,,,,4/8 Partly Cloudy,72000.0,,FEW,5400.0,SCT,12000.0,,,,
KRDR,06-23-2009,03:00,METAR,,,0.0,,,9999.0,,22.0,17.0,29.75,1008.5,,,,,,,,,,,,,,,4/8 Partly Cloudy,72000.0,,FEW,5400.0,SCT,12000.0,,,,
KRDR,06-23-2009,02:00,METAR,,310,3.0,,,9999.0,,26.0,16.0,29.73,1007.9,,,,,,,,,,,,,,,2/8 Mostly Clear,72000.0,,FEW,5400.0,,,,,,
KRDR,06-23-2009,01:00,METAR,,300,6.0,,,9999.0,,28.0,15.0,29.72,1007.6,,,,,,,,,,,,,,,2/8 Mostly Clear,72000.0,,FEW,5400.0,,,,,,
KRDR,06-23-2009,00:00,METAR,,300,4.0,,,9999.0,,29.0,15.0,29.70,1007.1,,,,,,,,,,,,,,,2/8 Mostly Clear,72000.0,,FEW,5400.0,,,,,,
KRDR,06-22-2009,23:00,METAR,,280,7.0,,,9999.0,,29.0,15.0,29.70,1007.0,,,,,,,,,,,,,,,2/8 Mostly Clear,72000.0,,FEW,5400.0,,,,,,
KRDR,06-22-2009,22:00,METAR,,260,7.0,,,9999.0,,29.0,17.0,29.70,1007.0,,,,,,,,,,,,,,,4/8 Partly Cloudy,72000.0,,SCT,5400.0,,,,,,
KRDR,06-22-2009,21:00,METAR,,,5.0,,,9999.0,,28.0,18.0,29.69,1006.8,,,,,,,,,,,,,,,7/8 Mostly Cloudy,4500.0,,BKN,4600.0,,,,,,
KRDR,06-22-2009,20:00,METAR,,,5.0,,,9999.0,,27.0,19.0,29.69,1006.5,,,,,,,,,,,,,,,7/8 Mostly Cloudy,3500.0,,BKN,3600.0,,,,,,
KRDR,06-22-2009,19:00,METAR,,130,6.0,,,9999.0,,26.0,18.0,29.69,1006.7,,,,,,,,,,,,,,,4/8 Partly Cloudy,72000.0,,SCT,2800.0,,,,,,
KRDR,06-22-2009,18:00,METAR,,,4.0,,,9999.0,,24.0,18.0,29.70,1007.1,,,,,,,,,,,,,,,7/8 Mostly Cloudy,2200.0,,BKN,2200.0,,,,,,
KRDR,06-22-2009,17:00,METAR,,,0.0,,,9999.0,,21.0,17.0,29.70,1006.9,,,,,,,,,,,,,,,7/8 Mostly Cloudy,1700.0,,BKN,1700.0,,,,,,
KRDR,06-22-2009,16:46,SPECI,,,0.0,,,9999.0,,21.0,17.0,29.70,1006.9,,,,,,,,,,,,,,,7/8 Mostly Cloudy,1500.0,,BKN,1500.0,,,,,,
KRDR,06-22-2009,16:00,METAR,,,0.0,,,9999.0,,20.0,17.0,29.69,1006.7,,,,,,,,,,,,,,,8/8 Overcast,1400.0,,OVC,1400.0,,,,,,
KRDR,06-22-2009,15:15,SPECI,,270,4.0,,,9999.0,,19.0,17.0,29.69,1006.7,,,,,,,,,,,,,,,8/8 Overcast,1400.0,,OVC,1400.0,,,,,,
KRDR,06-22-2009,15:10,SPECI,,,0.0,,,9999.0,,19.0,17.0,29.69,1006.6,,,,,,,,,,,,,,,8/8 Overcast,1500.0,,OVC,1500.0,,,,,,
KRDR,06-22-2009,15:00,METAR,,,0.0,,,9999.0,,19.0,17.0,29.69,1006.6,,,,,,,,,,,,,,,8/8 Overcast,1500.0,,OVC,1500.0,,,,,,
KRDR,06-22-2009,14:28,SPECI,,270,3.0,,,9999.0,,19.0,18.0,29.69,1006.7,,,,,,,,,,,,,,,8/8 Overcast,1500.0,,OVC,1500.0,,,,,,
KRDR,06-22-2009,14:16,SPECI,,240,4.0,,,9999.0,,19.0,19.0,29.69,1006.7,,,,,,,,,,,,,,,8/8 Overcast,1400.0,,FEW,800.0,OVC,1400.0,,,,
KRDR,06-22-2009,14:13,SPECI,,260,5.0,,,9999.0,,19.0,19.0,29.69,1006.8,,,,,,,,,,,,,,,8/8 Overcast,1500.0,,FEW,800.0,OVC,1500.0,,,,
KRDR,06-22-2009,14:08,SPECI,,250,4.0,,,9999.0,,19.0,19.0,29.69,1006.8,,,,,,,,,,,,,,,8/8 Overcast,1400.0,,FEW,900.0,OVC,1400.0,,,,
KRDR,06-22-2009,14:00,METAR,,270,4.0,,,9999.0,,18.0,18.0,29.69,1006.7,,,,,,,,,,,,,,,8/8 Overcast,1500.0,,OVC,1500.0,,,,,,
KRDR,06-22-2009,14:00,SPECI,,240,4.0,,,9999.0,,19.0,19.0,29.69,1006.7,,,,,,,,,,,,,,,8/8 Overcast,1400.0,,OVC,1400.0,,,,,,
KRDR,06-22-2009,13:01,SPECI,,260,5.0,,,9999.0,,18.0,18.0,29.69,1006.7,,,,,,,,,,,,,,,8/8 Overcast,1400.0,,OVC,1400.0,,,,,,
KRDR,06-22-2009,13:00,METAR,,270,5.0,,,9999.0,,18.0,18.0,29.69,1006.5,,,,,,,,,,,,,,,8/8 Overcast,1500.0,,OVC,1500.0,,,,,,
KRDR,06-22-2009,12:37,SPECI,,270,4.0,,,9999.0,,18.0,18.0,29.68,1006.3,,,,,,,,,,,,,,,8/8 Overcast,1500.0,,OVC,1500.0,,,,,,
KRDR,06-22-2009,12:31,SPECI,,300,3.0,,,9999.0,,18.0,18.0,29.68,1006.2,,,,,,,,,,,,,,,8/8 Overcast,1400.0,,OVC,1400.0,,,,,,
KRDR,06-22-2009,12:07,SPECI,,310,3.0,,,6400.0,Mist,18.0,18.0,29.68,1006.2,,,,10,,,,,,,,,,,8/8 Overcast,1600.0,,SCT,300.0,OVC,1600.0,,,,
KRDR,06-22-2009,12:06,SPECI,,320,3.0,,,6400.0,Mist,18.0,18.0,29.68,1006.2,,,,10,,,,,,,,,,,8/8 Overcast,1100.0,,OVC,1100.0,,,,,,
KRDR,06-22-2009,12:00,METAR,,310,3.0,,,4800.0,Mist,18.0,18.0,29.68,1006.3,,,,10,,,,,,,,,.01 IN,.11 IN,8/8 Overcast,800.0,,OVC,800.0,,,,,,
KRDR,06-22-2009,11:48,SPECI,,290,3.0,,,4800.0,Mist,18.0,18.0,29.68,1006.3,,,,10,,,,,,,,,,,8/8 Overcast,800.0,,OVC,800.0,,,,,,
KRDR,06-22-2009,11:45,SPECI,,290,3.0,,,3200.0,Mist,18.0,18.0,29.68,1006.3,,,,10,,,,,,,,,,,8/8 Overcast,800.0,,OVC,800.0,,,,,,
KRDR,06-22-2009,11:43,SPECI,,290,3.0,,,2400.0,Mist,18.0,18.0,29.68,1006.3,,,,10,,,,,,,,,,,8/8 Overcast,800.0,,OVC,800.0,,,,,,
KRDR,06-22-2009,11:40,SPECI,,290,3.0,,,1600.0,Mist,18.0,18.0,29.68,1006.3,,,,10,,,,,,,,,,,Sky Obscured (Unable to Estimate),800.0,100.0,,800.0,,,,,,
KRDR,06-22-2009,11:37,SPECI,,290,3.0,,,1200.0,Mist,17.0,17.0,29.68,1006.3,,,,10,,,,,,,,,,,Sky Obscured (Unable to Estimate),600.0,100.0,,600.0,,,,,,
KRDR,06-22-2009,11:18,SPECI,,280,4.0,,,1200.0,Mist,17.0,17.0,29.68,1006.2,,,,10,,,,,,,,,,,Sky Obscured (Unable to Estimate),600.0,100.0,,600.0,,,,,,
KRDR,06-22-2009,11:14,SPECI,,270,3.0,,,800.0,Fog or Ice Fog,17.0,17.0,29.68,1006.2,,,,45,,,,,,,,,,,Sky Obscured (Unable to Estimate),600.0,100.0,,600.0,,,,,,
KRDR,06-22-2009,11:06,SPECI,,,0.0,,,800.0,Fog or Ice Fog,17.0,17.0,29.68,1006.1,,,,45,,,,,,,,,,,Sky Obscured (Unable to Estimate),600.0,100.0,,600.0,,,,,,
KRDR,06-22-2009,11:03,SPECI,,,0.0,,,400.0,Fog,17.0,17.0,29.67,1006.1,30,,,,,,,,,,,,,,Sky Obscured (Unable to Estimate),600.0,100.0,,600.0,,,,,,
KRDR,06-22-2009,11:00,METAR,,280,3.0,,,800.0,Fog,17.0,17.0,29.67,1006.1,30,,,,,,,,,,.01 IN,,,,Sky Obscured (Unable to Estimate),600.0,100.0,,600.0,,,,,,
KRDR,06-22-2009,10:46,SPECI,,,0.0,,,800.0,Fog,17.0,17.0,29.67,1006.0,30,,,,,,,,,,,,,,Sky Obscured (Unable to Estimate),600.0,100.0,,600.0,,,,,,
KRDR,06-22-2009,10:39,SPECI,,,0.0,,,800.0,Fog,17.0,17.0,29.67,1006.0,30,,,,,,,,,,,,,,Sky Obscured (Unable to Estimate),600.0,100.0,,600.0,,,,,,
KRDR,06-22-2009,10:37,SPECI,,,0.0,,,800.0,Fog,17.0,17.0,29.67,1005.9,30,,,,,,,,,,,,,,Sky Obscured (Unable to Estimate),600.0,100.0,,600.0,,,,,,
KRDR,06-22-2009,10:32,SPECI,,,0.0,,,1200.0,Mist,17.0,17.0,29.67,1005.8,10,,,,,,,,,,,,,,Sky Obscured (Unable to Estimate),600.0,100.0,,600.0,,,,,,
KRDR,06-22-2009,10:29,SPECI,,,0.0,,,1600.0,Mist,17.0,17.0,29.67,1005.8,10,,,,,,,,,,,,,,Sky Obscured (Unable to Estimate),500.0,100.0,,500.0,,,,,,
KRDR,06-22-2009,10:25,SPECI,,,0.0,,,2000.0,Mist,17.0,17.0,29.67,1005.9,10,,,,,,,,,,,,,,7/8 Mostly Cloudy,500.0,,BKN,500.0,,,,,,
KRDR,06-22-2009,10:07,SPECI,,,0.0,,,2800.0,Mist,17.0,17.0,29.66,1005.8,10,,,,,,,,,,,,,,8/8 Overcast,500.0,,OVC,500.0,,,,,,
KRDR,06-22-2009,10:00,METAR,,,0.0,,,2800.0,Mist,17.0,17.0,29.66,1005.8,10,,,,,,,,,,,,,,8/8 Overcast,400.0,,OVC,400.0,,,,,,
KRDR,06-22-2009,09:50,SPECI,,,0.0,,,2800.0,Mist,17.0,17.0,29.67,1005.8,10,,,,,,,,,,,,,,8/8 Overcast,400.0,,OVC,400.0,,,,,,
KRDR,06-22-2009,09:38,SPECI,,,0.0,,,2800.0,Mist,17.0,17.0,29.67,1005.9,10,,,,,,,,,,,,,,8/8 Overcast,500.0,,OVC,500.0,,,,,,
KRDR,06-22-2009,09:32,SPECI,,,0.0,,,2800.0,Mist,17.0,17.0,29.67,1005.9,10,,,,,,,,,,,,,,8/8 Overcast,600.0,,OVC,600.0,,,,,,
KRDR,06-22-2009,09:09,SPECI,,,0.0,,,4000.0,Mist,17.0,17.0,29.68,1006.2,10,,,,,,,,,,,,,,8/8 Overcast,600.0,,OVC,600.0,,,,,,
KRDR,06-22-2009,09:04,SPECI,,,0.0,,,4000.0,Mist,17.0,17.0,29.67,1006.1,10,,,,,,,,,,,,,,8/8 Overcast,400.0,,OVC,400.0,,,,,,
KRDR,06-22-2009,09:00,METAR,,140,3.0,,,9999.0,Mist,18.0,18.0,29.67,1006.0,10,,,,,,,,,,,TRACE,,,8/8 Overcast,400.0,,OVC,400.0,,,,,,
KRDR,06-22-2009,08:46,SPECI,,,0.0,,,9999.0,,18.0,18.0,29.67,1006.0,,,,,,,,,,,,,,,8/8 Overcast,400.0,,OVC,400.0,,,,,,
KRDR,06-22-2009,08:30,SPECI,,,0.0,,,9999.0,,17.0,17.0,29.68,1006.1,,,,,,,,,,,,,,,8/8 Overcast,400.0,,OVC,400.0,,,,,,
KRDR,06-22-2009,08:21,SPECI,,,0.0,,,9999.0,,17.0,17.0,29.67,1006.0,,,,,,,,,,,,,,,8/8 Overcast,500.0,,OVC,500.0,,,,,,
KRDR,06-22-2009,08:11,SPECI,,,0.0,,,9999.0,,17.0,17.0,29.67,1006.1,,,,,,,,,,,,,,,8/8 Overcast,600.0,,OVC,600.0,,,,,,
KRDR,06-22-2009,08:00,METAR,,90,3.0,,,9999.0,,17.0,17.0,29.67,1005.9,,,,,,,,,,,,,,,8/8 Overcast,900.0,,OVC,900.0,,,,,,
KRDR,06-22-2009,07:25,SPECI,,80,4.0,,,9999.0,Mist,17.0,17.0,29.67,1005.8,10,,,,,,,,,,,,,,7/8 Mostly Cloudy,700.0,,BKN,700.0,,,,,,
KRDR,06-22-2009,07:17,SPECI,,90,4.0,,,8000.0,Mist,17.0,17.0,29.66,1005.8,10,,,,,,,,,,,,,,2/8 Mostly Clear,72000.0,,FEW,1000.0,,,,,,
KRDR,06-22-2009,07:00,METAR,,50,3.0,,,8000.0,Mist,17.0,17.0,29.68,1006.2,10,,,,,,,,,,TRACE,,,,7/8 Mostly Cloudy,1000.0,,BKN,1000.0,,,,,,
KRDR,06-22-2009,06:54,SPECI,,50,3.0,,,8000.0,Mist,17.0,17.0,29.68,1006.2,10,,,,,,,,,,,,,,7/8 Mostly Cloudy,900.0,,BKN,900.0,,,,,,
KRDR,06-22-2009,06:48,SPECI,,40,3.0,,,6400.0,Mist,17.0,17.0,29.68,1006.3,10,,,,,,,,,,,,,,7/8 Mostly Cloudy,1000.0,,BKN,1000.0,,,,,,
KRDR,06-22-2009,06:45,SPECI,,40,3.0,,,6400.0,Mist,17.0,17.0,29.68,1006.3,10,,,,,,,,,,,,,,7/8 Mostly Cloudy,1100.0,,BKN,1100.0,,,,,,
KRDR,06-22-2009,06:29,SPECI,,20,4.0,,,4000.0,Mist,17.0,17.0,29.69,1006.6,10,,,,,,,,,,,,,,8/8 Overcast,1300.0,,OVC,1300.0,,,,,,
KRDR,06-22-2009,06:20,SPECI,,20,4.0,,,4000.0,Light Drizzle/Mist,17.0,17.0,29.69,1006.7,51,10,,,,,,,,,,,,,8/8 Overcast,1300.0,,OVC,1300.0,,,,,,
KRDR,06-22-2009,06:14,SPECI,,20,4.0,,,4000.0,Light Drizzle/Mist,17.0,17.0,29.70,1006.9,51,10,,,,,,,,,,,,,8/8 Overcast,1300.0,,OVC,1300.0,,,,,,
KRDR,06-22-2009,06:11,SPECI,,20,3.0,,,4800.0,Light Drizzle/Mist,17.0,17.0,29.70,1006.9,51,10,,,,,,,,,,,,,8/8 Overcast,1300.0,,FEW,400.0,OVC,1300.0,,,,
KRDR,06-22-2009,06:07,SPECI,,20,3.0,,,4800.0,Light Drizzle/Mist,17.0,17.0,29.70,1006.9,51,10,,,,,,,,,,,,,8/8 Overcast,1300.0,,OVC,1300.0,,,,,,
KRDR,06-22-2009,06:03,SPECI,,,0.0,,,6400.0,Light Drizzle/Mist,17.0,17.0,29.70,1006.9,51,10,,,,,,,,,,,,,8/8 Overcast,1300.0,,OVC,1300.0,,,,,,
KRDR,06-22-2009,06:00,METAR,,,0.0,,,9999.0,Mist,17.0,17.0,29.70,1006.9,,,,10,,,,,,,.01 IN,,.07 IN,,8/8 Overcast,1000.0,,OVC,1000.0,,,,,,
KRDR,06-22-2009,05:54,SPECI,,30,3.0,,,9999.0,Mist,17.0,17.0,29.70,1006.9,,,,10,,,,,,,,,,,8/8 Overcast,1200.0,,OVC,1200.0,,,,,,
KRDR,06-22-2009,05:47,SPECI,,,0.0,,,9999.0,,17.0,17.0,29.70,1006.8,,,,,,,,,,,,,,,8/8 Overcast,1000.0,,OVC,1000.0,,,,,,
KRDR,06-22-2009,05:40,SPECI,,30,3.0,,,9999.0,Mist,17.0,17.0,29.70,1006.9,,,,10,,,,,,,,,,,8/8 Overcast,800.0,,OVC,800.0,,,,,,
KRDR,06-22-2009,05:34,SPECI,,30,3.0,,,9999.0,Mist,17.0,17.0,29.69,1006.7,,,,10,,,,,,,,,,,8/8 Overcast,600.0,,OVC,600.0,,,,,,
KRDR,06-22-2009,05:19,SPECI,,70,4.0,,,8000.0,Drizzle/Mist,17.0,17.0,29.68,1006.4,,,,51,10,,,,,,,,,,8/8 Overcast,600.0,,OVC,600.0,,,,,,
KRDR,06-22-2009,05:00,METAR,,80,5.0,,,6400.0,Drizzle/Mist,17.0,17.0,29.69,1006.6,,,,51,10,,,,,,.01 IN,,,,8/8 Overcast,400.0,,OVC,400.0,,,,,,
KRDR,06-22-2009,04:53,SPECI,,90,4.0,,,6400.0,Drizzle/Mist,17.0,17.0,29.69,1006.6,,,,51,10,,,,,,,,,,8/8 Overcast,400.0,,OVC,400.0,,,,,,
KRDR,06-22-2009,04:47,SPECI,,50,4.0,,,8000.0,Drizzle/Mist,17.0,17.0,29.69,1006.6,,,,51,10,,,,,,,,,,8/8 Overcast,400.0,,OVC,400.0,,,,,,
KRDR,06-22-2009,04:42,SPECI,,60,4.0,,,8000.0,Drizzle/Mist,17.0,17.0,29.69,1006.6,,,,51,10,,,,,,,,,,8/8 Overcast,600.0,,OVC,600.0,,,,,,
KRDR,06-22-2009,04:32,SPECI,,50,3.0,,,8000.0,Mist,17.0,17.0,29.69,1006.6,,,,10,,,,,,,,,,,8/8 Overcast,900.0,,OVC,900.0,,,,,,
KRDR,06-22-2009,04:28,SPECI,,80,4.0,,,8000.0,Mist,17.0,17.0,29.69,1006.6,,,,10,,,,,,,,,,,8/8 Overcast,1100.0,,FEW,400.0,OVC,1100.0,,,,
KRDR,06-22-2009,04:26,SPECI,,80,4.0,,,6400.0,Mist,17.0,17.0,29.69,1006.6,,,,10,,,,,,,,,,,8/8 Overcast,1200.0,,FEW,400.0,OVC,1200.0,,,,
KRDR,06-22-2009,04:24,SPECI,,80,5.0,,,6400.0,Drizzle/Mist,17.0,17.0,29.69,1006.6,,,,51,10,,,,,,,,,,8/8 Overcast,1300.0,,FEW,400.0,OVC,1300.0,,,,
KRDR,06-22-2009,04:23,SPECI,,90,6.0,,,6400.0,Drizzle/Mist,17.0,17.0,29.69,1006.6,,,,51,10,,,,,,,,,,8/8 Overcast,1100.0,,OVC,1100.0,,,,,,
KRDR,06-22-2009,04:15,SPECI,,80,5.0,,,9999.0,Mist,17.0,17.0,29.69,1006.5,,,,,10,,,,,,,,,,8/8 Overcast,1400.0,,OVC,1400.0,,,,,,
KRDR,06-22-2009,04:09,SPECI,,90,6.0,,,9999.0,Drizzle,17.0,17.0,29.69,1006.5,,,,51,,,,,,,,,,,8/8 Overcast,1900.0,,FEW,1000.0,OVC,1900.0,,,,
KRDR,06-22-2009,04:05,SPECI,,100,6.0,,,9999.0,Drizzle,17.0,17.0,29.69,1006.6,,,,51,,,,,,,,,,,8/8 Overcast,1900.0,,FEW,1000.0,OVC,1900.0,,,,
KRDR,06-22-2009,04:00,METAR,,90,8.0,,,9999.0,,17.0,17.0,29.69,1006.7,,,,,,,,,,,,,,,8/8 Overcast,2200.0,,OVC,2200.0,,,,,,
KRDR,06-22-2009,03:43,SPECI,,110,8.0,,,9999.0,,17.0,16.0,29.70,1007.0,,,,,,,,,,,,,,,8/8 Overcast,2000.0,,OVC,2000.0,,,,,,
KRDR,06-22-2009,03:35,SPECI,,110,8.0,,,9999.0,,18.0,16.0,29.70,1007.0,,,,,,,,,,,,,,,8/8 Overcast,1900.0,,OVC,1900.0,,,,,,
KRDR,06-22-2009,03:00,METAR,,,0.0,,,9999.0,,18.0,16.0,29.71,1007.2,,,,,,,,,,,TRACE,.05 IN,,,8/8 Overcast,2400.0,,OVC,2400.0,,,,,,
KRDR,06-22-2009,02:32,SPECI,,,0.0,,,9999.0,,18.0,17.0,29.70,1007.1,,,,,,,,,,,,,,,8/8 Overcast,2900.0,,OVC,2900.0,,,,,,
KRDR,06-22-2009,02:09,SPECI,,,0.0,,,9999.0,,18.0,17.0,29.71,1007.3,,,,,,,,,,,,,,,8/8 Overcast,4000.0,,OVC,4100.0,,,,,,
KRDR,06-22-2009,02:00,METAR,,,0.0,,,9999.0,Light Drizzle,19.0,16.0,29.72,1007.5,51,,,,,,,,,,,,,,8/8 Overcast,4700.0,,OVC,4800.0,,,,,,
KRDR,06-22-2009,01:00,METAR,,180,3.0,,,9999.0,,18.0,17.0,29.72,1007.6,,,,,,,,,,,.05 IN,,,,7/8 Mostly Cloudy,7000.0,,BKN,6900.0,,,,,,
KRDR,06-22-2009,00:36,SPECI,,200,6.0,,,9999.0,,17.0,17.0,29.73,1007.8,,,,,,,,,,,,,,,4/8 Partly Cloudy,72000.0,,SCT,4400.0,,,,,,
KRDR,06-22-2009,00:11,SPECI,,160,10.0,,,4800.0,Light Rain/Mist,17.0,16.0,29.74,1008.2,61,10,,,,,,,,,,,,,4/8 Partly Cloudy,72000.0,,FEW,300.0,SCT,3200.0,,,,
KRDR,06-22-2009,00:03,SPECI,,140,16.0,20.0,,3200.0,Light Rain/Mist,17.0,16.0,29.74,1008.2,61,10,,,,,,,,,,,,,7/8 Mostly Cloudy,3100.0,,SCT,300.0,BKN,3200.0,,,,
KRDR,06-22-2009,00:00,SPECI,,150,16.0,20.0,,4000.0,Mist,17.0,16.0,29.74,1008.4,10,,,,,,,,,,,,,,7/8 Mostly Cloudy,3400.0,,FEW,300.0,BKN,3500.0,,,,
KRDR,06-22-2009,00:00,METAR,,160,14.0,,160/26KTS,4800.0,Mist,18.0,16.0,29.74,1008.4,10,,,,,,,,,,.03 IN,,.03 IN,,7/8 Mostly Cloudy,3200.0,,FEW,300.0,SCT,2700.0,BKN,3300.0,,
KRDR,06-21-2009,23:50,SPECI,,150,14.0,21.0,160/26KTS,4000.0,Mist,18.0,17.0,29.74,1008.3,10,,,,,,,,,,,,,,7/8 Mostly Cloudy,3100.0,,SCT,300.0,BKN,3100.0,,,,
KRDR,06-21-2009,23:41,SPECI,,150,15.0,26.0,160/26KTS,3200.0,Light Rain/Mist,18.0,17.0,29.74,1008.3,61,10,,,,,,,,,,,,,7/8 Mostly Cloudy,2500.0,,FEW,300.0,BKN,2500.0,BKN,3500.0,,
KRDR,06-21-2009,23:39,SPECI,,150,16.0,26.0,160/26KTS,4000.0,Light Rain/Mist,18.0,17.0,29.74,1008.4,61,10,,,,,,,,,,,,,7/8 Mostly Cloudy,3400.0,,FEW,300.0,SCT,2500.0,BKN,3500.0,,
KRDR,06-21-2009,23:26,SPECI,,160,18.0,,,9999.0,Unknown Precipitation,21.0,16.0,29.74,1008.1,40,,,,,,,,,,,,,,7/8 Mostly Cloudy,4600.0,,FEW,1000.0,SCT,3600.0,BKN,4700.0,,
KRDR,06-21-2009,23:00,METAR,,150,8.0,,,9999.0,,24.0,15.0,29.71,1007.4,,,,,,,,,,,,,,,4/8 Partly Cloudy,72000.0,,FEW,4900.0,SCT,6900.0,,,,
KRDR,06-21-2009,22:00,METAR,,180,7.0,,,9999.0,,24.0,15.0,29.71,1007.4,,,,,,,,,,,,,,,4/8 Partly Cloudy,72000.0,,SCT,7400.0,,,,,,
KRDR,06-21-2009,21:00,METAR,,200,8.0,,,9999.0,,23.0,16.0,29.72,1007.7,,,,,,,,,,,TRACE,TRACE,,,4/8 Partly Cloudy,72000.0,,SCT,9900.0,,,,,,
KRDR,06-21-2009,20:05,SPECI,,170,16.0,,,9999.0,,23.0,17.0,29.73,1008.0,,,,,,,,,,,,,,,2/8 Mostly Clear,72000.0,,FEW,9900.0,,,,,,
KRDR,06-21-2009,20:00,METAR,,150,9.0,,,9999.0,,24.0,17.0,29.73,1007.8,,,,,,,,,,,TRACE,,,,Clear,72000.0,,,73000.0,,,,,,
KRDR,06-21-2009,19:14,SPECI,,130,9.0,,,9999.0,,26.0,15.0,29.71,1007.3,,,,,,,,,,,,,,,Clear,72000.0,,,73000.0,,,,,,
KRDR,06-21-2009,19:00,METAR,,130,10.0,,,9999.0,,26.0,15.0,29.71,1007.3,,,,,,,,,,,,,,,Clear,72000.0,,,73000.0,,,,,,
KRDR,06-21-2009,18:00,METAR,,130,8.0,,,9999.0,,27.0,14.0,29.72,1007.6,,,,,,,,,,,,,,,Clear,72000.0,,,73000.0,,,,,,
KRDR,06-21-2009,17:00,METAR,,140,9.0,,,9999.0,,26.0,14.0,29.74,1008.4,,,,,,,,,,,,,,,Clear,72000.0,,,73000.0,,,,,,
KRDR,06-21-2009,16:00,METAR,,130,8.0,,,9999.0,,25.0,15.0,29.75,1008.6,,,,,,,,,,,,,,,Clear,72000.0,,,73000.0,,,,,,
KRDR,06-21-2009,15:00,METAR,,130,7.0,,,9999.0,,25.0,16.0,29.76,1008.8,,,,,,,,,,,,,,,Clear,72000.0,,,73000.0,,,,,,
KRDR,06-21-2009,14:00,METAR,,130,5.0,,,9999.0,,21.0,15.0,29.77,1009.3,,,,,,,,,,,,,,,Clear,72000.0,,,73000.0,,,,,,
KRDR,06-21-2009,13:00,METAR,,,3.0,,,9999.0,,19.0,14.0,29.78,1009.5,,,,,,,,,,,,,,,Clear,72000.0,,,73000.0,,,,,,
KRDR,06-21-2009,12:00,METAR,,,0.0,,,9999.0,,18.0,14.0,29.78,1009.7,,,,,,,,,,,,,,,Clear,72000.0,,,73000.0,,,,,,
KRDR,06-21-2009,11:00,METAR,,100,4.0,,,9999.0,,16.0,14.0,29.78,1009.7,,,,,,,,,,,,,,,Clear,72000.0,,,73000.0,,,,,,
KRDR,06-21-2009,10:00,METAR,,,0.0,,,9999.0,,17.0,13.0,29.79,1009.8,,,,,,,,,,,,,,,Clear,72000.0,,,73000.0,,,,,,
KRDR,06-21-2009,09:00,METAR,,,0.0,,,9999.0,,15.0,13.0,29.79,1010.0,,,,,,,,,,,,,,,Clear,72000.0,,,73000.0,,,,,,
KRDR,06-21-2009,08:00,METAR,,,0.0,,,9999.0,,16.0,13.0,29.79,1009.9,,,,,,,,,,,,,,,Clear,72000.0,,,73000.0,,,,,,
KRDR,06-21-2009,07:00,METAR,,140,4.0,,,9999.0,,19.0,14.0,29.79,1010.0,,,,,,,,,,,,,,,Clear,72000.0,,,73000.0,,,,,,
KRDR,06-21-2009,06:00,METAR,,150,6.0,,,9999.0,,20.0,14.0,29.79,1009.8,,,,,,,,,,,,,,,Clear,72000.0,,,73000.0,,,,,,
KRDR,06-21-2009,05:00,METAR,,130,5.0,,,9999.0,,21.0,14.0,29.78,1009.7,,,,,,,,,,,,,,,Clear,72000.0,,,73000.0,,,,,,
KRDR,06-21-2009,04:00,METAR,,120,5.0,,,9999.0,,23.0,14.0,29.78,1009.5,,,,,,,,,,,,,,,Clear,72000.0,,,73000.0,,,,,,
KRDR,06-21-2009,03:00,METAR,,120,8.0,,,9999.0,,25.0,13.0,29.78,1009.5,,,,,,,,,,,,,,,7/8 Mostly Cloudy,20000.0,,FEW,9900.0,BKN,20000.0,,,,
KRDR,06-21-2009,02:00,METAR,,120,6.0,,,9999.0,,26.0,13.0,29.77,1009.2,,,,,,,,,,,,,,,7/8 Mostly Cloudy,20000.0,,FEW,7900.0,BKN,20000.0,,,,
KRDR,06-21-2009,01:00,METAR,,100,7.0,,,9999.0,,28.0,12.0,29.77,1009.3,,,,,,,,,,,,,,,7/8 Mostly Cloudy,20000.0,,FEW,7900.0,BKN,20000.0,,,,
KRDR,06-21-2009,00:00,METAR,,110,4.0,,,9999.0,,29.0,12.0,29.77,1009.3,,,,,,,,,,,,,,,Clear,72000.0,,,73000.0,,,,,,
KRDR,06-20-2009,23:00,METAR,,,4.0,,,9999.0,,30.0,11.0,29.78,1009.7,,,,,,,,,,,,,,,7/8 Mostly Cloudy,22000.0,,SCT,6900.0,BKN,22000.0,,,,
KRDR,06-20-2009,22:00,METAR,,60,4.0,,,9999.0,,30.0,12.0,29.79,1010.0,,,,,,,,,,,,,,,7/8 Mostly Cloudy,22000.0,,SCT,5000.0,BKN,22000.0,,,,
KRDR,06-20-2009,21:00,METAR,,,3.0,,,9999.0,,28.0,13.0,29.80,1010.3,,,,,,,,,,,,,,,Clear,72000.0,,,73000.0,,,,,,
KRDR,06-20-2009,20:00,METAR,,110,6.0,,,9999.0,,29.0,13.0,29.80,1010.4,,,,,,,,,,,,,,,Clear,72000.0,,,73000.0,,,,,,
KRDR,06-20-2009,19:00,METAR,,,5.0,,,9999.0,,28.0,13.0,29.81,1010.4,,,,,,,,,,,,,,,Clear,72000.0,,,73000.0,,,,,,
KRDR,06-20-2009,18:00,METAR,,,3.0,,,9999.0,,27.0,14.0,29.81,1010.7,,,,,,,,,,,,,,,Clear,72000.0,,,73000.0,,,,,,
KRDR,06-20-2009,17:00,METAR,,80,4.0,,,9999.0,,26.0,14.0,29.82,1011.1,,,,,,,,,,,,,,,Clear,72000.0,,,73000.0,,,,,,
KRDR,06-20-2009,16:00,METAR,,,0.0,,,9999.0,,24.0,15.0,29.83,1011.3,,,,,,,,,,,,,,,Clear,72000.0,,,73000.0,,,,,,
KRDR,06-20-2009,15:00,METAR,,,0.0,,,9999.0,,23.0,14.0,29.83,1011.3,,,,,,,,,,,,,,,Clear,72000.0,,,73000.0,,,,,,
KRDR,06-20-2009,14:00,METAR,,30,3.0,,,9999.0,,21.0,14.0,29.83,1011.2,,,,,,,,,,,,,,,Clear,72000.0,,,73000.0,,,,,,
KRDR,06-20-2009,13:00,METAR,,310,4.0,,,9999.0,,20.0,14.0,29.80,1010.3,,,,,,,,,,,,,,,Clear,72000.0,,,73000.0,,,,,,
KRDR,06-20-2009,12:00,METAR,,290,5.0,,,9999.0,,16.0,13.0,29.79,1009.8,,,,,,,,,,,,,,,Clear,72000.0,,,73000.0,,,,,,
KRDR,06-20-2009,11:00,METAR,,290,7.0,,,9999.0,,14.0,11.0,29.76,1009.1,,,,,,,,,,,,,,,Clear,72000.0,,,73000.0,,,,,,
KRDR,06-20-2009,10:00,METAR,,280,6.0,,,9999.0,,15.0,11.0,29.74,1008.3,,,,,,,,,,,,,,,Clear,72000.0,,,73000.0,,,,,,
KRDR,06-20-2009,09:00,METAR,,300,6.0,,,9999.0,,16.0,11.0,29.72,1007.5,,,,,,,,,,,,,,,Clear,72000.0,,,73000.0,,,,,,
KRDR,06-20-2009,08:00,METAR,,290,7.0,,,9999.0,,16.0,11.0,29.71,1007.3,,,,,,,,,,,,,,,Clear,72000.0,,,73000.0,,,,,,
KRDR,06-20-2009,07:00,METAR,,290,6.0,,,9999.0,,16.0,11.0,29.70,1007.0,,,,,,,,,,,,,,,Clear,72000.0,,,73000.0,,,,,,
KRDR,06-20-2009,06:00,METAR,,290,6.0,,,9999.0,,17.0,12.0,29.69,1006.7,,,,,,,,,,,,,,,Clear,72000.0,,,73000.0,,,,,,
KRDR,06-20-2009,05:00,METAR,,280,6.0,,,9999.0,,18.0,12.0,29.68,1006.4,,,,,,,,,,,,,,,Clear,72000.0,,,73000.0,,,,,,
KRDR,06-20-2009,04:00,METAR,,290,7.0,,,9999.0,,19.0,12.0,29.67,1006.0,,,,,,,,,,,,,,,Clear,72000.0,,,73000.0,,,,,,
KRDR,06-20-2009,03:00,METAR,,290,7.0,,,9999.0,,22.0,12.0,29.65,1005.3,,,,,,,,,,,,,,,2/8 Mostly Clear,72000.0,,FEW,5900.0,,,,,,
KRDR,06-20-2009,02:00,METAR,,300,9.0,,,9999.0,,24.0,11.0,29.62,1004.4,,,,,,,,,,,,,,,2/8 Mostly Clear,72000.0,,FEW,5000.0,,,,,,
KRDR,06-20-2009,01:00,METAR,,310,14.0,,,9999.0,,26.0,12.0,29.60,1003.7,,,,,,,,,,,,,,,4/8 Partly Cloudy,72000.0,,SCT,5000.0,,,,,,
KRDR,06-20-2009,00:00,METAR,,320,12.0,,,9999.0,,26.0,14.0,29.59,1003.2,,,,,,,,,,,,,,,4/8 Partly Cloudy,72000.0,,SCT,5900.0,,,,,,
KRDR,06-19-2009,23:00,METAR,,310,11.0,,,9999.0,,27.0,15.0,29.57,1002.8,,,,,,,,,,,,,,,4/8 Partly Cloudy,72000.0,,SCT,5400.0,,,,,,
KRDR,06-19-2009,22:00,METAR,,290,10.0,19.0,,9999.0,,26.0,15.0,29.57,1002.5,,,,,,,,,,,,,,,7/8 Mostly Cloudy,20000.0,,SCT,5000.0,BKN,20000.0,,,,
KRDR,06-19-2009,21:00,METAR,,300,13.0,,,9999.0,,27.0,15.0,29.57,1002.7,,,,,,,,,,,,,,,7/8 Mostly Cloudy,20000.0,,SCT,5900.0,BKN,20000.0,,,,
KRDR,06-19-2009,20:00,METAR,,290,9.0,,,9999.0,,26.0,15.0,29.57,1002.8,,,,,,,,,,,,,,,7/8 Mostly Cloudy,20000.0,,SCT,6400.0,SCT,12000.0,BKN,20000.0,,
KRDR,06-19-2009,19:00,METAR,,290,13.0,17.0,,9999.0,,27.0,15.0,29.56,1002.5,,,,,,,,,,,,,,,7/8 Mostly Cloudy,25000.0,,FEW,5400.0,SCT,11000.0,BKN,25000.0,,
KRDR,06-19-2009,18:00,METAR,,270,10.0,16.0,,9999.0,,26.0,15.0,29.57,1002.7,,,,,,,,,,,,,,,7/8 Mostly Cloudy,25000.0,,FEW,5900.0,SCT,11000.0,BKN,25000.0,,
KRDR,06-19-2009,17:00,METAR,,280,6.0,,,9999.0,,26.0,14.0,29.57,1002.8,,,,,,,,,,,,,,,7/8 Mostly Cloudy,25000.0,,FEW,11000.0,BKN,25000.0,,,,
KRDR,06-19-2009,16:00,METAR,,,4.0,,,9999.0,,25.0,14.0,29.58,1003.0,,,,,,,,,,,,,,,7/8 Mostly Cloudy,25000.0,,SCT,11000.0,BKN,25000.0,,,,
KRDR,06-19-2009,15:00,METAR,,,0.0,,,9999.0,,23.0,15.0,29.60,1003.7,,,,,,,,,,,,,,,7/8 Mostly Cloudy,11000.0,,BKN,11000.0,BKN,25000.0,,,,
KRDR,06-19-2009,14:00,METAR,,,0.0,,,9999.0,,21.0,15.0,29.61,1004.0,,,,,,,,,,,,,,,8/8 Overcast,11000.0,,BKN,11000.0,OVC,25000.0,,,,
KRDR,06-19-2009,13:00,METAR,,,0.0,,,9999.0,,19.0,16.0,29.59,1003.3,,,,,,,,,,,,,,,7/8 Mostly Cloudy,25000.0,,SCT,12000.0,BKN,25000.0,,,,
KRDR,06-19-2009,12:00,METAR,,,0.0,,,9999.0,,16.0,16.0,29.58,1003.2,,,,,,,,,,,,,,,7/8 Mostly Cloudy,25000.0,,SCT,9900.0,BKN,25000.0,,,,
KRDR,06-19-2009,11:00,METAR,,,0.0,,,9999.0,Shallow Fog or Ice Fog,12.0,12.0,29.54,1001.7,,,,12,,,,,,,,,,,2/8 Mostly Clear,72000.0,,FEW,9900.0,FEW,25000.0,,,,
KRDR,06-19-2009,10:00,METAR,,190,3.0,,,9999.0,,12.0,12.0,29.56,1002.2,,,,,,,,,,,,,,,Clear,72000.0,,,73000.0,,,,,,
KRDR,06-19-2009,09:00,METAR,,,0.0,,,9999.0,,14.0,14.0,29.56,1002.4,,,,,,,,,,,,,,,Clear,72000.0,,,73000.0,,,,,,
KRDR,06-19-2009,08:00,METAR,,20,3.0,,,9999.0,,15.0,15.0,29.58,1002.9,,,,,,,,,,,,,,,Clear,72000.0,,,73000.0,,,,,,
KRDR,06-19-2009,07:00,METAR,,270,4.0,,,9999.0,,14.0,14.0,29.57,1002.8,,,,,,,,,,,,,,,Clear,72000.0,,,73000.0,,,,,,
KRDR,06-19-2009,06:00,METAR,,310,6.0,,,9999.0,,16.0,16.0,29.58,1003.1,,,,,,,,,,,,,,,2/8 Mostly Clear,72000.0,,FEW,9900.0,,,,,,
KRDR,06-19-2009,05:00,METAR,,,0.0,,,9999.0,,16.0,15.0,29.57,1002.7,,,,,,,,,,,,,,,2/8 Mostly Clear,72000.0,,FEW,11000.0,,,,,,
KRDR,06-19-2009,04:00,METAR,,130,3.0,,,9999.0,,17.0,15.0,29.56,1002.4,,,,,,,,,,,,,,,4/8 Partly Cloudy,72000.0,,FEW,12000.0,SCT,20000.0,,,,
KRDR,06-19-2009,03:00,METAR,,80,7.0,,,9999.0,,18.0,16.0,29.57,1002.6,,,,,,,,,,,,,,,7/8 Mostly Cloudy,18000.0,,SCT,12000.0,BKN,18000.0,,,,
KRDR,06-19-2009,02:00,METAR,,260,3.0,,,9999.0,,20.0,16.0,29.58,1003.1,,,,,,,,,,,,,,,7/8 Mostly Cloudy,18000.0,,FEW,5900.0,SCT,9900.0,BKN,18000.0,,
KRDR,06-19-2009,01:00,METAR,,350,4.0,,,9999.0,,21.0,16.0,29.59,1003.2,,,,,,,,,,,,,,,7/8 Mostly Cloudy,18000.0,,FEW,5000.0,SCT,9900.0,BKN,18000.0,,
KRDR,06-19-2009,00:00,METAR,,30,10.0,,,9999.0,,22.0,16.0,29.58,1002.9,,,,,,,,,,,,,,,7/8 Mostly Cloudy,18000.0,,FEW,5400.0,SCT,8900.0,BKN,18000.0,,
KRDR,06-18-2009,23:19,SPECI,,20,17.0,22.0,,9999.0,,23.0,16.0,29.60,1003.6,,,,,,,,,,,,,,,7/8 Mostly Cloudy,9000.0,,FEW,5400.0,BKN,8900.0,BKN,18000.0,,
KRDR,06-18-2009,23:00,METAR,,190,7.0,,,9999.0,,27.0,15.0,29.57,1002.7,,,,,,,,,,,,,,,7/8 Mostly Cloudy,18000.0,,FEW,4000.0,SCT,7900.0,BKN,18000.0,,
KRDR,06-18-2009,22:00,METAR,,200,10.0,,,9999.0,,26.0,15.0,29.57,1002.8,,,,,,,,,,,,,,,7/8 Mostly Cloudy,22000.0,,FEW,4000.0,SCT,13000.0,BKN,22000.0,,
KRDR,06-18-2009,21:00,METAR,,220,9.0,,,9999.0,,27.0,17.0,29.57,1002.6,,,,,,,,,,,,TRACE,,,7/8 Mostly Cloudy,20000.0,,FEW,4400.0,SCT,12000.0,BKN,20000.0,,
KRDR,06-18-2009,20:00,METAR,,180,15.0,18.0,,9999.0,,28.0,17.0,29.60,1003.6,,,,,,,,,,,,,,,7/8 Mostly Cloudy,22000.0,,FEW,4500.0,SCT,12000.0,BKN,22000.0,,
KRDR,06-18-2009,18:00,METAR,,170,10.0,,,9999.0,,26.0,18.0,29.62,1004.4,,,,,,,,,,,,,,,7/8 Mostly Cloudy,12000.0,,SCT,4000.0,BKN,12000.0,BKN,25000.0,,
KRDR,06-18-2009,17:00,METAR,,200,10.0,,,9999.0,,26.0,18.0,29.63,1004.5,,,,,,,,,,,,,,,7/8 Mostly Cloudy,12000.0,,FEW,3000.0,BKN,12000.0,BKN,25000.0,,
KRDR,06-18-2009,16:00,METAR,,200,6.0,,,9999.0,,25.0,18.0,29.63,1004.6,,,,,,,,,,,,,,,7/8 Mostly Cloudy,12000.0,,BKN,12000.0,BKN,25000.0,,,,
KRDR,06-18-2009,15:00,METAR,,190,10.0,,,9999.0,,23.0,19.0,29.63,1004.7,,,,,,,,,,,,,,,7/8 Mostly Cloudy,25000.0,,SCT,12000.0,BKN,25000.0,,,,
KRDR,06-18-2009,14:00,METAR,,190,6.0,,,9999.0,,21.0,21.0,29.65,1005.2,,,,,,,,,,,,,,,7/8 Mostly Cloudy,25000.0,,SCT,12000.0,BKN,25000.0,,,,
KRDR,06-18-2009,13:00,METAR,,,0.0,,,8000.0,Mist,18.0,18.0,29.66,1005.6,,,,10,,,,,,,,,,,7/8 Mostly Cloudy,25000.0,,SCT,12000.0,BKN,25000.0,,,,
KRDR,06-18-2009,12:02,SPECI,,,0.0,,,4800.0,Mist,17.0,17.0,29.65,1005.5,,,,10,,,,,,,,,,,7/8 Mostly Cloudy,25000.0,,SCT,12000.0,BKN,25000.0,,,,
KRDR,06-18-2009,12:00,METAR,,,0.0,,,3200.0,Mist,17.0,17.0,29.65,1005.4,,,,10,,,,,,,,,,.01 IN,4/8 Partly Cloudy,72000.0,,FEW,0.0,SCT,12000.0,,,,
KRDR,06-18-2009,11:47,SPECI,,,0.0,,,2400.0,Mist,16.0,16.0,29.65,1005.4,,,,10,,,,,,,,,,,4/8 Partly Cloudy,72000.0,,FEW,0.0,SCT,12000.0,,,,
KRDR,06-18-2009,11:42,SPECI,,170,5.0,,,1200.0,Mist,16.0,16.0,29.65,1005.4,,,,10,,,,,,,,,,,7/8 Mostly Cloudy,12000.0,,SCT,0.0,BKN,12000.0,,,,
KRDR,06-18-2009,11:35,SPECI,,180,7.0,,,1000.0,Mist,16.0,16.0,29.65,1005.5,,,,10,,,,,,,,,,,7/8 Mostly Cloudy,12000.0,,BKN,0.0,BKN,12000.0,,,,
KRDR,06-18-2009,11:23,SPECI,,170,5.0,,,800.0,Fog or Ice Fog,16.0,16.0,29.66,1005.5,,,,45,,,,,,,,,,,Sky Obscured (Unable to Estimate),100.0,100.0,,100.0,,,,,,
KRDR,06-18-2009,11:00,METAR,,170,3.0,,,200.0,Fog or Ice Fog,16.0,16.0,29.65,1005.2,,,,45,,,,,,,,,,,Sky Obscured (Unable to Estimate),0.0,100.0,,0.0,,,,,,
KRDR,06-18-2009,10:00,METAR,,170,6.0,,,400.0,Fog,16.0,16.0,29.66,1005.7,30,,,,,,,,,,,,,,Clear,72000.0,,,73000.0,,,,,,
KRDR,06-18-2009,09:00,METAR,,,0.0,,,400.0,Fog,16.0,16.0,29.66,1005.8,30,,,,,,,,,,,,,,Clear,72000.0,,,73000.0,,,,,,
KRDR,06-18-2009,08:46,SPECI,,,0.0,,,400.0,Fog,16.0,16.0,29.67,1005.9,30,,,,,,,,,,,,,,Clear,72000.0,,,73000.0,,,,,,
KRDR,06-18-2009,08:40,SPECI,,100,3.0,,,800.0,Fog,16.0,16.0,29.67,1005.9,30,,,,,,,,,,,,,,Clear,72000.0,,,73000.0,,,,,,
KRDR,06-18-2009,08:37,SPECI,,100,3.0,,,1200.0,Mist,16.0,16.0,29.67,1006.0,10,,,,,,,,,,,,,,Clear,72000.0,,,73000.0,,,,,,
KRDR,06-18-2009,08:35,SPECI,,90,3.0,,,1600.0,Mist,16.0,16.0,29.67,1006.1,10,,,,,,,,,,,,,,Clear,72000.0,,,73000.0,,,,,,
KRDR,06-18-2009,08:26,SPECI,,,0.0,,,2400.0,Mist,16.0,16.0,29.67,1006.1,10,,,,,,,,,,,,,,Clear,72000.0,,,73000.0,,,,,,
KRDR,06-18-2009,08:25,SPECI,,,0.0,,,2000.0,Mist,16.0,16.0,29.68,1006.2,10,,,,,,,,,,,,,,Clear,72000.0,,,73000.0,,,,,,
KRDR,06-18-2009,08:22,SPECI,,,0.0,,,1200.0,Mist,16.0,16.0,29.68,1006.2,10,,,,,,,,,,,,,,Clear,72000.0,,,73000.0,,,,,,
KRDR,06-18-2009,08:18,SPECI,,,0.0,,,800.0,Fog,16.0,16.0,29.68,1006.2,30,,,,,,,,,,,,,,Clear,72000.0,,,73000.0,,,,,,
KRDR,06-18-2009,08:16,SPECI,,,0.0,,,400.0,Fog,16.0,16.0,29.68,1006.2,30,,,,,,,,,,,,,,Clear,72000.0,,,73000.0,,,,,,
KRDR,06-18-2009,08:12,SPECI,,,0.0,,,400.0,Fog,16.0,16.0,29.68,1006.2,30,,,,,,,,,,,,,,Clear,72000.0,,,73000.0,,,,,,
KRDR,06-18-2009,08:00,METAR,,,0.0,,,400.0,Fog,16.0,16.0,29.68,1006.3,30,,,,,,,,,,,,,,Clear,72000.0,,,73000.0,,,,,,
KRDR,06-18-2009,07:00,METAR,,,0.0,,,400.0,Fog,15.0,15.0,29.69,1006.5,30,,,,,,,,,,,,,,Clear,72000.0,,,73000.0,,,,,,
KRDR,06-18-2009,06:48,SPECI,,,0.0,,,400.0,Fog,15.0,15.0,29.68,1006.4,30,,,,,,,,,,,,,,Clear,72000.0,,,73000.0,,,,,,
KRDR,06-18-2009,06:38,SPECI,,,0.0,,,400.0,Fog,15.0,15.0,29.69,1006.5,30,,,,,,,,,,,,,,Clear,72000.0,,,73000.0,,,,,,
KRDR,06-18-2009,06:28,SPECI,,,0.0,,,400.0,Fog,15.0,15.0,29.68,1006.4,30,,,,,,,,,,,,,,Clear,72000.0,,,73000.0,,,,,,
KRDR,06-18-2009,06:26,SPECI,,110,3.0,,,400.0,Fog,15.0,15.0,29.68,1006.4,30,,,,,,,,,,,,,,Clear,72000.0,,,73000.0,,,,,,
KRDR,06-18-2009,06:21,SPECI,,110,3.0,,,400.0,Fog,15.0,15.0,29.68,1006.4,30,,,,,,,,,,,,,,Clear,72000.0,,,73000.0,,,,,,
KRDR,06-18-2009,06:18,SPECI,,110,3.0,,,800.0,Fog,15.0,15.0,29.68,1006.4,30,,,,,,,,,,,,,,Clear,72000.0,,,73000.0,,,,,,
KRDR,06-18-2009,06:11,SPECI,,,0.0,,,1200.0,Mist,16.0,16.0,29.69,1006.5,10,,,,,,,,,,,,,,Clear,72000.0,,,73000.0,,,,,,
KRDR,06-18-2009,06:03,SPECI,,,0.0,,,1600.0,Mist,16.0,16.0,29.69,1006.5,10,,,,,,,,,,,,,,Clear,72000.0,,,73000.0,,,,,,
KRDR,06-18-2009,06:00,METAR,,130,3.0,,,2000.0,Mist,16.0,16.0,29.69,1006.5,10,,,,,,,,,,,,,,Clear,72000.0,,,73000.0,,,,,,
KRDR,06-18-2009,05:46,SPECI,,130,3.0,,,2000.0,Mist,16.0,16.0,29.69,1006.6,10,,,,,,,,,,,,,,Clear,72000.0,,,73000.0,,,,,,
KRDR,06-18-2009,05:38,SPECI,,,0.0,,,2800.0,Mist,16.0,16.0,29.70,1006.9,10,,,,,,,,,,,,,,Clear,72000.0,,,73000.0,,,,,,
KRDR,06-18-2009,05:36,SPECI,,,0.0,,,2800.0,Mist,16.0,16.0,29.70,1006.9,10,,,,,,,,,,,,,,Clear,72000.0,,,73000.0,,,,,,
KRDR,06-18-2009,05:33,SPECI,,160,3.0,,,4000.0,Mist,17.0,17.0,29.70,1006.9,10,,,,,,,,,,,,,,Clear,72000.0,,,73000.0,,,,,,
KRDR,06-18-2009,05:03,SPECI,,150,3.0,,,6400.0,Mist,18.0,18.0,29.70,1007.1,10,,,,,,,,,,,,,,Clear,72000.0,,,73000.0,,,,,,
KRDR,06-18-2009,05:00,METAR,,130,3.0,,,9999.0,Mist,17.0,17.0,29.70,1007.0,10,,,,,,,,,,,,,,Clear,72000.0,,,73000.0,,,,,,
KRDR,06-18-2009,04:00,METAR,,150,6.0,,,9999.0,,19.0,18.0,29.71,1007.2,,,,,,,,,,,,,,,Clear,72000.0,,,73000.0,,,,,,
KRDR,06-18-2009,03:00,METAR,,150,8.0,,,9999.0,,20.0,18.0,29.72,1007.5,,,,,,,,,,,,,,,7/8 Mostly Cloudy,25000.0,,SCT,5900.0,BKN,25000.0,,,,
KRDR,06-18-2009,01:00,METAR,,140,6.0,,,9999.0,,22.0,18.0,29.73,1007.8,,,,,,,,,,,,,,,4/8 Partly Cloudy,72000.0,,SCT,4000.0,,,,,,
KRDR,06-18-2009,00:00,METAR,,150,6.0,,,9999.0,,23.0,17.0,29.72,1007.8,,,,,,,,,,,,,,,7/8 Mostly Cloudy,4400.0,,SCT,2400.0,BKN,4500.0,,,,
KRDR,06-17-2009,23:00,METAR,,120,5.0,,,9999.0,,23.0,17.0,29.73,1008.1,,,,,,,,,,,,,,,7/8 Mostly Cloudy,4500.0,,BKN,4600.0,,,,,,
KRDR,06-17-2009,22:00,METAR,,110,7.0,,,9999.0,,23.0,18.0,29.75,1008.6,,,,,,,,,,,,,,,7/8 Mostly Cloudy,2200.0,,BKN,2200.0,BKN,3500.0,,,,
KRDR,06-17-2009,21:00,METAR,,,4.0,,,9999.0,,22.0,16.0,29.76,1008.9,,,,,,,,,,,,,,,7/8 Mostly Cloudy,2600.0,,BKN,2600.0,,,,,,
KRDR,06-17-2009,20:00,METAR,,120,7.0,,,9999.0,,22.0,17.0,29.77,1009.4,,,,,,,,,,,,,,,7/8 Mostly Cloudy,1800.0,,BKN,1800.0,,,,,,
KRDR,06-17-2009,19:00,METAR,,,5.0,,,9999.0,,21.0,17.0,29.78,1009.6,,,,,,,,,,,,,,,7/8 Mostly Cloudy,1700.0,,BKN,1700.0,,,,,,
KRDR,06-17-2009,18:24,SPECI,,130,6.0,,,9999.0,,20.0,17.0,29.79,1009.8,,,,,,,,,,,,,,,7/8 Mostly Cloudy,1400.0,,SCT,900.0,BKN,1400.0,BKN,3500.0,,
KRDR,06-17-2009,18:17,SPECI,,,0.0,,,9999.0,,20.0,17.0,29.79,1009.9,,,,,,,,,,,,,,,7/8 Mostly Cloudy,2800.0,,FEW,500.0,SCT,900.0,BKN,2800.0,,
KRDR,06-17-2009,18:00,METAR,,,0.0,,,6400.0,Mist,19.0,18.0,29.80,1010.1,,,,10,,,,,,,.01 IN,,.01 IN,,8/8 Overcast,1200.0,,FEW,800.0,BKN,1200.0,OVC,3100.0,,
KRDR,06-17-2009,17:53,SPECI,,,0.0,,,6400.0,Mist,18.0,18.0,29.80,1010.1,,,,10,,,,,,,,,,,7/8 Mostly Cloudy,700.0,,BKN,700.0,,,,,,
KRDR,06-17-2009,17:20,SPECI,,140,7.0,,,3200.0,Drizzle/Mist,18.0,17.0,29.81,,,,,51,10,,,,,,,,,,8/8 Overcast,1100.0,,OVC,1100.0,,,,,,
KRDR,06-17-2009,17:00,METAR,,120,5.0,,,8000.0,Mist,18.0,17.0,29.80,1010.3,,,,10,,,,,,,TRACE,,,,8/8 Overcast,1000.0,,OVC,1000.0,,,,,,
KRDR,06-17-2009,16:01,SPECI,,120,8.0,,,9999.0,Drizzle/Mist,18.0,17.0,29.81,,,,,51,10,,,,,,,,,,8/8 Overcast,1700.0,,SCT,1000.0,OVC,1700.0,,,,
KRDR,06-17-2009,16:00,METAR,,120,8.0,,,9999.0,,19.0,16.0,29.80,1010.4,,,,,,,,,,,,,,,8/8 Overcast,1600.0,,OVC,1600.0,,,,,,
KRDR,06-17-2009,15:00,METAR,,120,10.0,,,9999.0,,19.0,17.0,29.81,1010.6,,,,,,,,,,,,,,,7/8 Mostly Cloudy,1500.0,,BKN,1500.0,,,,,,
KRDR,06-17-2009,14:00,METAR,,160,5.0,,,9999.0,,19.0,17.0,29.81,1010.5,,,,,,,,,,,,,,,7/8 Mostly Cloudy,2400.0,,FEW,1000.0,BKN,2400.0,,,,
KRDR,06-17-2009,13:00,METAR,,150,5.0,,,6400.0,Mist,17.0,17.0,29.81,1010.5,,,,10,,,,,,,,,,,8/8 Overcast,1000.0,,BKN,1000.0,OVC,1600.0,,,,
KRDR,06-17-2009,12:06,SPECI,,160,5.0,,,6400.0,Mist,17.0,17.0,29.80,1010.4,,,,10,,,,,,,,,,,7/8 Mostly Cloudy,1800.0,,FEW,800.0,BKN,1800.0,,,,
KRDR,06-17-2009,12:00,METAR,,140,5.0,,,4800.0,Mist,16.0,16.0,29.80,1010.3,,,,10,,,,,,,,,,,4/8 Partly Cloudy,72000.0,,SCT,3200.0,,,,,,
KRDR,06-17-2009,11:10,SPECI,,140,3.0,,,8000.0,Mist,16.0,16.0,29.81,1010.4,,,,10,,,,,,,,,,,8/8 Overcast,1700.0,,FEW,900.0,OVC,1700.0,,,,
KRDR,06-17-2009,11:00,METAR,,150,5.0,,,8000.0,Mist,16.0,16.0,29.81,1010.4,10,,,,,,,,,,,,,,8/8 Overcast,1600.0,,OVC,1600.0,,,,,,
KRDR,06-17-2009,10:33,SPECI,,150,7.0,,,9999.0,Mist,16.0,16.0,29.81,1010.5,10,,,,,,,,,,,,,,8/8 Overcast,1500.0,,FEW,1000.0,OVC,1500.0,,,,
KRDR,06-17-2009,10:28,SPECI,,140,7.0,,,9999.0,,16.0,16.0,29.81,1010.5,,,,,,,,,,,,,,,8/8 Overcast,1500.0,,FEW,900.0,OVC,1500.0,,,,
KRDR,06-17-2009,10:26,SPECI,,140,8.0,,,9999.0,,16.0,16.0,29.81,1010.5,,,,,,,,,,,,,,,8/8 Overcast,1500.0,,OVC,1500.0,,,,,,
KRDR,06-17-2009,10:20,SPECI,,130,6.0,,,9999.0,,16.0,16.0,29.81,1010.5,,,,,,,,,,,,,,,8/8 Overcast,1600.0,,FEW,900.0,OVC,1600.0,,,,
KRDR,06-17-2009,10:00,SPECI,,140,6.0,,,9999.0,,16.0,16.0,29.81,1010.5,,,,,,,,,,,,,,,7/8 Mostly Cloudy,1600.0,,BKN,1600.0,,,,,,
KRDR,06-17-2009,10:00,METAR,,130,5.0,,,9999.0,,16.0,16.0,29.81,1010.5,,,,,,,,,,,,,,,8/8 Overcast,1400.0,,OVC,1400.0,,,,,,
KRDR,06-17-2009,09:39,SPECI,,130,7.0,,,9999.0,,16.0,16.0,29.81,1010.4,,,,,,,,,,,,,,,8/8 Overcast,1200.0,,OVC,1200.0,,,,,,
KRDR,06-17-2009,09:33,SPECI,,130,7.0,,,9999.0,,16.0,16.0,29.81,1010.5,,,,,,,,,,,,,,,8/8 Overcast,1200.0,,OVC,1200.0,,,,,,
KRDR,06-17-2009,09:26,SPECI,,130,7.0,,,9999.0,,16.0,16.0,29.81,1010.4,,,,,,,,,,,,,,,8/8 Overcast,1100.0,,OVC,1100.0,,,,,,
KRDR,06-17-2009,09:00,METAR,,130,7.0,,,9999.0,,17.0,17.0,29.81,1010.5,,,,,,,,,,,,,,,8/8 Overcast,900.0,,OVC,900.0,,,,,,
KRDR,06-17-2009,08:23,SPECI,,130,6.0,,,9999.0,,17.0,17.0,29.81,1010.6,,,,,,,,,,,,,,,8/8 Overcast,900.0,,BKN,900.0,OVC,1800.0,,,,
KRDR,06-17-2009,08:19,SPECI,,130,6.0,,,9999.0,,17.0,17.0,29.81,1010.6,,,,,,,,,,,,,,,8/8 Overcast,1300.0,,SCT,900.0,BKN,1300.0,OVC,1900.0,,
KRDR,06-17-2009,08:15,SPECI,,130,7.0,,,9999.0,,17.0,17.0,29.81,1010.6,,,,,,,,,,,,,,,8/8 Overcast,1700.0,,FEW,900.0,OVC,1700.0,,,,
KRDR,06-17-2009,08:04,SPECI,,140,7.0,,,9999.0,,17.0,17.0,29.81,1010.6,,,,,,,,,,,,,,,7/8 Mostly Cloudy,2100.0,,FEW,1100.0,BKN,2100.0,,,,
KRDR,06-17-2009,08:03,SPECI,,140,7.0,,,9999.0,,17.0,17.0,29.81,1010.6,,,,,,,,,,,,,,,7/8 Mostly Cloudy,2100.0,,FEW,1100.0,BKN,2100.0,,,,
KRDR,06-17-2009,08:00,METAR,,140,7.0,,,9999.0,,17.0,17.0,29.81,1010.6,,,,,,,,,,,,,,,8/8 Overcast,1700.0,,OVC,1700.0,,,,,,
KRDR,06-17-2009,07:53,SPECI,,140,6.0,,,9999.0,,17.0,17.0,29.81,1010.6,,,,,,,,,,,,,,,8/8 Overcast,1700.0,,OVC,1700.0,,,,,,
KRDR,06-17-2009,07:40,SPECI,,140,6.0,,,9999.0,,16.0,16.0,29.81,1010.6,,,,,,,,,,,,,,,8/8 Overcast,1500.0,,OVC,1500.0,,,,,,
KRDR,06-17-2009,07:31,SPECI,,150,6.0,,,9999.0,,16.0,16.0,29.81,1010.5,,,,,,,,,,,,,,,8/8 Overcast,1300.0,,OVC,1300.0,,,,,,
KRDR,06-17-2009,07:22,SPECI,,140,5.0,,,9999.0,,17.0,17.0,29.81,1010.6,,,,,,,,,,,,,,,7/8 Mostly Cloudy,2800.0,,BKN,2800.0,,,,,,
KRDR,06-17-2009,07:00,METAR,,140,6.0,,,9999.0,,17.0,17.0,29.81,1010.6,,,,,,,,,,,,,,,7/8 Mostly Cloudy,9000.0,,BKN,8900.0,,,,,,
KRDR,06-17-2009,06:10,SPECI,,140,5.0,,,9999.0,,16.0,16.0,29.81,1010.6,,,,,,,,,,,,,,,7/8 Mostly Cloudy,10000.0,,BKN,9900.0,,,,,,
KRDR,06-17-2009,06:00,METAR,,140,5.0,,,9999.0,,17.0,17.0,29.81,1010.6,,,,,,,,,,,,,TRACE,,7/8 Mostly Cloudy,10000.0,,FEW,2100.0,BKN,9900.0,,,,
KRDR,06-17-2009,05:00,METAR,,150,6.0,,,9999.0,,18.0,17.0,29.82,1010.8,,,,,,,,,,,,,,,7/8 Mostly Cloudy,4600.0,,BKN,4700.0,,,,,,
KRDR,06-17-2009,04:00,METAR,,140,6.0,,,9999.0,,18.0,17.0,29.82,1010.8,,,,,,,,,,,,,,,4/8 Partly Cloudy,72000.0,,SCT,9400.0,,,,,,
KRDR,06-17-2009,03:00,METAR,,120,5.0,,,9999.0,Mist,18.0,18.0,29.81,1010.7,,,,10,,,,,,,TRACE,TRACE,,,7/8 Mostly Cloudy,4900.0,,BKN,5000.0,,,,,,
KRDR,06-17-2009,02:00,METAR,,130,6.0,,,9999.0,Drizzle,19.0,17.0,29.81,1010.6,,,,51,,,,,,,TRACE,,,,7/8 Mostly Cloudy,4500.0,,BKN,4600.0,,,,,,
KRDR,06-17-2009,01:00,METAR,,120,11.0,,,9999.0,,20.0,17.0,29.81,1010.6,,,,,,,,,,,,,,,7/8 Mostly Cloudy,8000.0,,SCT,3000.0,BKN,7900.0,,,,
KRDR,06-17-2009,00:00,METAR,,120,11.0,,,9999.0,,21.0,17.0,29.81,1010.5,,,,,,,,,,,,,,,8/8 Overcast,3000.0,,SCT,2200.0,BKN,3000.0,OVC,6400.0,,
KRDR,06-16-2009,23:00,METAR,,60,5.0,,,9999.0,,21.0,16.0,29.80,1010.2,,,,,,,,,,,,,,,7/8 Mostly Cloudy,2400.0,,BKN,2700.0,,,,,,
KRDR,06-16-2009,22:00,METAR,,80,8.0,,,9999.0,,21.0,16.0,29.80,1010.2,,,,,,,,,,,,,,,7/8 Mostly Cloudy,1700.0,,BKN,2000.0,,,,,,
KRDR,06-16-2009,21:00,METAR,,110,8.0,,,9999.0,,20.0,15.0,29.81,1010.7,,,,,,,,,,,,,,,8/8 Overcast,2200.0,,OVC,2200.0,,,,,,
KRDR,06-16-2009,20:00,METAR,,100,9.0,,,9999.0,,20.0,15.0,29.82,1011.0,,,,,,,,,,,,,,,8/8 Overcast,2200.0,,OVC,2200.0,,,,,,
KRDR,06-16-2009,19:00,METAR,,120,9.0,,,9999.0,,20.0,15.0,29.83,1011.2,,,,,,,,,,,,,,,8/8 Overcast,1900.0,,OVC,1900.0,,,,,,
KRDR,06-16-2009,18:00,METAR,,120,9.0,,,9999.0,,19.0,15.0,29.84,1011.5,,,,,,,,,,,,,,,8/8 Overcast,2500.0,,OVC,2500.0,,,,,,
KRDR,06-16-2009,17:00,METAR,,130,10.0,,,9999.0,,19.0,15.0,29.85,1012.0,,,,,,,,,,,,,,,8/8 Overcast,2500.0,,OVC,2500.0,,,,,,
KRDR,06-16-2009,16:00,METAR,,130,10.0,,,9999.0,,20.0,14.0,29.86,1012.1,,,,,,,,,,,,,,,8/8 Overcast,2800.0,,OVC,2800.0,,,,,,
KRDR,06-16-2009,15:00,METAR,,140,10.0,,,9999.0,,20.0,14.0,29.86,1012.1,,,,,,,,,,,,,,,8/8 Overcast,3600.0,,BKN,3700.0,OVC,6900.0,,,,
KRDR,06-16-2009,14:00,METAR,,160,11.0,17.0,,9999.0,,21.0,14.0,29.85,1012.0,,,,,,,,,,,,,,,8/8 Overcast,25000.0,,FEW,3000.0,SCT,7900.0,OVC,25000.0,,
KRDR,06-16-2009,13:00,METAR,,160,5.0,,,9999.0,,19.0,14.0,29.85,1012.0,,,,,,,,,,,,,,,8/8 Overcast,25000.0,,FEW,6900.0,OVC,25000.0,,,,
KRDR,06-16-2009,12:00,METAR,,140,7.0,,,9999.0,,17.0,13.0,29.86,1012.3,,,,,,,,,,,,,,,7/8 Mostly Cloudy,6000.0,,BKN,5900.0,BKN,9900.0,,,,
KRDR,06-16-2009,11:00,METAR,,100,5.0,,,9999.0,,16.0,13.0,29.86,1012.2,,,,,,,,,,,,,,,7/8 Mostly Cloudy,6000.0,,BKN,5900.0,,,,,,
KRDR,06-16-2009,10:00,METAR,,160,3.0,,,9999.0,,14.0,12.0,29.85,1012.0,,,,,,,,,,,,,,,Clear,72000.0,,,73000.0,,,,,,
KRDR,06-16-2009,09:00,METAR,,150,6.0,,,9999.0,,16.0,12.0,29.86,1012.2,,,,,,,,,,,,,,,Clear,72000.0,,,73000.0,,,,,,
KRDR,06-16-2009,08:00,METAR,,120,7.0,,,9999.0,,17.0,12.0,29.84,1011.7,,,,,,,,,,,,,,,2/8 Mostly Clear,72000.0,,FEW,11000.0,,,,,,
KRDR,06-16-2009,07:00,METAR,,130,4.0,,,9999.0,,17.0,13.0,29.87,1012.5,,,,,,,,,,,,,,,4/8 Partly Cloudy,72000.0,,SCT,12000.0,,,,,,
KRDR,06-16-2009,06:00,METAR,,150,6.0,,,9999.0,,17.0,12.0,29.86,1012.1,,,,,,,,,,,,,,,2/8 Mostly Clear,72000.0,,FEW,12000.0,,,,,,
KRDR,06-16-2009,05:00,METAR,,130,6.0,,,9999.0,,18.0,12.0,29.86,1012.3,,,,,,,,,,,,,,,2/8 Mostly Clear,72000.0,,FEW,12000.0,,,,,,
KRDR,06-16-2009,04:00,METAR,,130,5.0,,,9999.0,,19.0,12.0,29.87,1012.4,,,,,,,,,,,,,,,8/8 Overcast,11000.0,,OVC,11000.0,,,,,,
KRDR,06-16-2009,03:00,METAR,,140,6.0,,,9999.0,,20.0,12.0,29.86,1012.2,,,,,,,,,,,,,,,7/8 Mostly Cloudy,12000.0,,BKN,12000.0,,,,,,
KRDR,06-16-2009,02:00,METAR,,160,7.0,,,9999.0,,21.0,11.0,29.86,1012.2,,,,,,,,,,,,,,,7/8 Mostly Cloudy,9000.0,,BKN,8900.0,,,,,,
KRDR,06-16-2009,01:00,METAR,,160,10.0,,,9999.0,,23.0,12.0,29.85,1012.0,,,,,,,,,,,,,,,7/8 Mostly Cloudy,10000.0,,BKN,9900.0,,,,,,
KRDR,06-16-2009,00:00,METAR,,180,13.0,20.0,,9999.0,,24.0,12.0,29.85,1012.0,,,,,,,,,,,,,,,7/8 Mostly Cloudy,9000.0,,BKN,8900.0,,,,,,
KRDR,06-15-2009,23:00,METAR,,170,9.0,,,9999.0,,24.0,10.0,29.86,1012.1,,,,,,,,,,,,,,,7/8 Mostly Cloudy,9500.0,,BKN,9400.0,,,,,,
KRDR,06-15-2009,22:00,METAR,,170,17.0,25.0,,9999.0,,25.0,8.0,29.86,1012.3,,,,,,,,,,,,,,,7/8 Mostly Cloudy,9500.0,,BKN,9400.0,,,,,,
KRDR,06-15-2009,21:00,METAR,,160,13.0,,,9999.0,,26.0,12.0,29.87,1012.5,,,,,,,,,,,,,,,7/8 Mostly Cloudy,9000.0,,BKN,8900.0,,,,,,
KRDR,06-15-2009,20:00,METAR,,180,12.0,20.0,,9999.0,,25.0,11.0,29.88,1012.9,,,,,,,,,,,,,,,7/8 Mostly Cloudy,8500.0,,BKN,8400.0,,,,,,
KRDR,06-15-2009,19:00,METAR,,170,18.0,,,9999.0,,25.0,12.0,29.88,1013.0,,,,,,,,,,,,,,,8/8 Overcast,25000.0,,FEW,5900.0,SCT,15000.0,OVC,25000.0,,
KRDR,06-15-2009,18:00,METAR,,170,19.0,26.0,170/26KTS,9999.0,,25.0,13.0,29.89,1013.3,,,,,,,,,,,,,,,8/8 Overcast,15000.0,,FEW,5400.0,BKN,15000.0,OVC,25000.0,,
KRDR,06-15-2009,17:00,METAR,,170,16.0,23.0,170/27KTS,9999.0,,25.0,13.0,29.90,1013.5,,,,,,,,,,,,,,,8/8 Overcast,15000.0,,SCT,5400.0,BKN,15000.0,OVC,25000.0,,
KRDR,06-15-2009,16:00,METAR,,160,18.0,24.0,,9999.0,,25.0,13.0,29.90,1013.5,,,,,,,,,,,,,,,7/8 Mostly Cloudy,25000.0,,FEW,5400.0,SCT,15000.0,BKN,25000.0,,
KRDR,06-15-2009,15:00,METAR,,160,10.0,,,9999.0,,23.0,14.0,29.91,1014.0,,,,,,,,,,,,,,,7/8 Mostly Cloudy,25000.0,,FEW,9900.0,SCT,15000.0,BKN,25000.0,,
KRDR,06-15-2009,14:00,METAR,,130,7.0,,,9999.0,,21.0,13.0,29.91,1013.8,,,,,,,,,,,,,,,7/8 Mostly Cloudy,25000.0,,FEW,15000.0,BKN,25000.0,,,,
KRDR,06-15-2009,13:00,METAR,,150,4.0,,,9999.0,,19.0,12.0,29.90,1013.6,,,,,,,,,,,,,,,7/8 Mostly Cloudy,25000.0,,FEW,15000.0,BKN,25000.0,,,,
KRDR,06-15-2009,12:00,METAR,,,0.0,,,9999.0,,15.0,11.0,29.90,1013.7,,,,,,,,,,,,,,,7/8 Mostly Cloudy,25000.0,,BKN,25000.0,,,,,,
KRDR,06-15-2009,11:00,METAR,,,0.0,,,9999.0,,11.0,9.0,29.91,1013.9,,,,,,,,,,,,,,,Clear,72000.0,,,73000.0,,,,,,
KRDR,06-15-2009,10:00,METAR,,,0.0,,,9999.0,,10.0,9.0,29.91,1014.0,,,,,,,,,,,,,,,Clear,72000.0,,,73000.0,,,,,,
KRDR,06-15-2009,09:00,METAR,,,0.0,,,9999.0,Haze Smoke or Dust,12.0,9.0,29.92,1014.1,4,,,,,,,,,,,,,,2/8 Mostly Clear,72000.0,,FEW,9900.0,,,,,,
KRDR,06-15-2009,08:54,SPECI,,,0.0,,,9999.0,,12.0,9.0,29.92,1014.1,,,,,,,,,,,,,,,2/8 Mostly Clear,72000.0,,FEW,9900.0,,,,,,
KRDR,06-15-2009,08:41,SPECI,,,0.0,,,8000.0,Haze Smoke or Dust,12.0,9.0,29.92,1014.2,4,,,,,,,,,,,,,,2/8 Mostly Clear,72000.0,,FEW,9900.0,,,,,,
KRDR,06-15-2009,08:00,METAR,,,0.0,,,9999.0,,13.0,9.0,29.93,1014.4,,,,,,,,,,,,,,,Clear,72000.0,,,73000.0,,,,,,
KRDR,06-15-2009,07:00,METAR,,,0.0,,,9999.0,,15.0,9.0,29.93,1014.4,,,,,,,,,,,,,,,Clear,72000.0,,,73000.0,,,,,,
KRDR,06-15-2009,06:00,METAR,,140,6.0,,,9999.0,,17.0,9.0,29.92,1014.3,,,,,,,,,,,,,,,Clear,72000.0,,,73000.0,,,,,,
KRDR,06-15-2009,05:00,METAR,,120,6.0,,,9999.0,,19.0,9.0,29.92,1014.3,,,,,,,,,,,,,,,Clear,72000.0,,,73000.0,,,,,,
KRDR,06-15-2009,04:00,METAR,,150,5.0,,,9999.0,,20.0,9.0,29.93,1014.4,,,,,,,,,,,,,,,Clear,72000.0,,,73000.0,,,,,,
KRDR,06-15-2009,03:00,METAR,,160,5.0,,,3200.0,Haze Smoke or Dust,21.0,9.0,29.91,1013.9,4,,,,,,,,,,,,,,4/8 Partly Cloudy,72000.0,,SCT,8900.0,,,,,,
KRDR,06-15-2009,02:54,SPECI,,170,5.0,,,4800.0,Haze Smoke or Dust,21.0,9.0,29.91,1013.9,4,,,,,,,,,,,,,,4/8 Partly Cloudy,72000.0,,SCT,8900.0,,,,,,
KRDR,06-15-2009,02:45,SPECI,,140,6.0,,,4000.0,Haze Smoke or Dust,22.0,9.0,29.90,1013.7,4,,,,,,,,,,,,,,2/8 Mostly Clear,72000.0,,FEW,8900.0,,,,,,
KRDR,06-15-2009,02:00,METAR,,110,7.0,,,9999.0,,24.0,8.0,29.90,1013.4,,,,,,,,,,,,,,,Clear,72000.0,,,73000.0,,,,,,
KRDR,06-15-2009,01:00,METAR,,90,7.0,,,9999.0,,26.0,8.0,29.89,1013.3,,,,,,,,,,,,,,,Clear,72000.0,,,73000.0,,,,,,
KRDR,06-15-2009,00:00,METAR,,70,7.0,,,9999.0,,27.0,8.0,29.90,1013.5,,,,,,,,,,,,,,,Clear,72000.0,,,73000.0,,,,,,
KRDR,06-14-2009,23:00,METAR,,80,6.0,,,9999.0,,28.0,7.0,29.91,1013.8,,,,,,,,,,,,,,,Clear,72000.0,,,73000.0,,,,,,
KRDR,06-14-2009,22:00,METAR,,130,7.0,,,9999.0,,27.0,7.0,29.93,1014.5,,,,,,,,,,,,,,,Clear,72000.0,,,73000.0,,,,,,
KRDR,06-14-2009,21:00,METAR,,,3.0,,,9999.0,,27.0,7.0,29.95,1015.1,,,,,,,,,,,,,,,Clear,72000.0,,,73000.0,,,,,,
KRDR,06-14-2009,20:00,METAR,,150,5.0,,,9999.0,,27.0,7.0,29.96,1015.7,,,,,,,,,,,,,,,Clear,72000.0,,,73000.0,,,,,,
KRDR,06-14-2009,19:00,METAR,,,3.0,,,9999.0,,26.0,7.0,29.97,1015.9,,,,,,,,,,,,,,,Clear,72000.0,,,73000.0,,,,,,
KRDR,06-14-2009,18:00,METAR,,70,7.0,,,9999.0,,25.0,8.0,29.98,1016.2,,,,,,,,,,,,,,,Clear,72000.0,,,73000.0,,,,,,
KRDR,06-14-2009,17:00,METAR,,100,9.0,,,9999.0,,24.0,7.0,29.99,1016.5,,,,,,,,,,,,,,,Clear,72000.0,,,73000.0,,,,,,
KRDR,06-14-2009,16:00,METAR,,100,6.0,,,9999.0,,22.0,6.0,30.00,1016.7,,,,,,,,,,,,,,,Clear,72000.0,,,73000.0,,,,,,
KRDR,06-14-2009,15:00,METAR,,110,5.0,,,9999.0,,20.0,8.0,30.00,1016.9,,,,,,,,,,,,,,,Clear,72000.0,,,73000.0,,,,,,
KRDR,06-14-2009,14:00,METAR,,,0.0,,,9999.0,,17.0,8.0,30.00,1016.8,,,,,,,,,,,,,,,Clear,72000.0,,,73000.0,,,,,,
KRDR,06-14-2009,13:00,METAR,,30,3.0,,,9999.0,,13.0,8.0,30.00,1016.7,,,,,,,,,,,,,,,2/8 Mostly Clear,72000.0,,FEW,20000.0,,,,,,
KRDR,06-14-2009,12:00,METAR,,,0.0,,,9999.0,,9.0,8.0,30.00,1016.7,,,,,,,,,,,,,,,4/8 Partly Cloudy,72000.0,,SCT,20000.0,,,,,,
KRDR,06-14-2009,11:00,METAR,,,4.0,,,9999.0,,7.0,5.0,30.00,1016.7,,,,,,,,,,,,,,,4/8 Partly Cloudy,72000.0,,SCT,20000.0,,,,,,
KRDR,06-14-2009,10:00,METAR,,360,3.0,,,9999.0,,6.0,5.0,29.99,1016.4,,,,,,,,,,,,,,,Clear,72000.0,,,73000.0,,,,,,
KRDR,06-14-2009,09:00,METAR,,,0.0,,,9999.0,,7.0,5.0,29.99,1016.6,,,,,,,,,,,,,,,Clear,72000.0,,,73000.0,,,,,,
KRDR,06-14-2009,08:00,METAR,,,0.0,,,9999.0,,8.0,5.0,29.97,1016.0,,,,,,,,,,,,,,,Clear,72000.0,,,73000.0,,,,,,
KRDR,06-14-2009,07:00,METAR,,,0.0,,,9999.0,,8.0,6.0,29.97,1016.0,,,,,,,,,,,,,,,Clear,72000.0,,,73000.0,,,,,,
KRDR,06-14-2009,06:00,METAR,,,0.0,,,9999.0,,11.0,6.0,29.97,1015.9,,,,,,,,,,,,,,,Clear,72000.0,,,73000.0,,,,,,
KRDR,06-14-2009,05:00,METAR,,50,7.0,,,9999.0,,15.0,6.0,29.96,1015.6,,,,,,,,,,,,,,,Clear,72000.0,,,73000.0,,,,,,
KRDR,06-14-2009,04:00,METAR,,20,6.0,,,9999.0,,15.0,9.0,29.96,1015.5,,,,,,,,,,,,,,,Clear,72000.0,,,73000.0,,,,,,
KRDR,06-14-2009,03:00,METAR,,40,7.0,,,9999.0,,18.0,8.0,29.93,1014.6,,,,,,,,,,,,,,,Clear,72000.0,,,73000.0,,,,,,
KRDR,06-14-2009,02:00,METAR,,40,8.0,,,9999.0,,21.0,9.0,29.91,1013.9,,,,,,,,,,,,,,,Clear,72000.0,,,73000.0,,,,,,
KRDR,06-14-2009,01:00,METAR,,40,9.0,,,9999.0,,23.0,9.0,29.90,1013.7,,,,,,,,,,,,,,,Clear,72000.0,,,73000.0,,,,,,
KRDR,06-14-2009,00:00,METAR,,30,8.0,,,9999.0,,23.0,9.0,29.90,1013.6,,,,,,,,,,,,,,,Clear,72000.0,,,73000.0,,,,,,
KRDR,06-13-2009,23:00,METAR,,20,9.0,,,9999.0,,25.0,9.0,29.91,1013.8,,,,,,,,,,,,,,,2/8 Mostly Clear,72000.0,,FEW,7400.0,,,,,,
KRDR,06-13-2009,22:00,METAR,,,4.0,,,9999.0,,23.0,9.0,29.92,1014.2,,,,,,,,,,,,,,,2/8 Mostly Clear,72000.0,,FEW,8900.0,,,,,,
KRDR,06-13-2009,21:00,METAR,,,4.0,,,9999.0,,24.0,9.0,29.92,1014.4,,,,,,,,,,,,,,,2/8 Mostly Clear,72000.0,,FEW,7900.0,,,,,,
KRDR,06-13-2009,20:00,METAR,,,3.0,,,9999.0,,24.0,9.0,29.93,1014.6,,,,,,,,,,,,,,,Clear,72000.0,,,73000.0,,,,,,
KRDR,06-13-2009,19:00,METAR,,40,6.0,,,9999.0,,23.0,11.0,29.94,1014.8,,,,,,,,,,,,,,,Clear,72000.0,,,73000.0,,,,,,
KRDR,06-13-2009,18:00,METAR,,,0.0,,,9999.0,,22.0,12.0,29.95,1015.3,,,,,,,,,,,,,TRACE,,Clear,72000.0,,,73000.0,,,,,,
KRDR,06-13-2009,17:00,METAR,,90,4.0,,,9999.0,,21.0,13.0,29.95,1015.3,,,,,,,,,,,,,,,Clear,72000.0,,,73000.0,,,,,,
KRDR,06-13-2009,16:00,METAR,,10,5.0,,,9999.0,,19.0,13.0,29.95,1015.1,,,,,,,,,,,,,,,2/8 Mostly Clear,72000.0,,FEW,11000.0,,,,,,
KRDR,06-13-2009,15:00,METAR,,,0.0,,,9999.0,,18.0,13.0,29.94,1014.8,,,,,,,,,,,,TRACE,,,2/8 Mostly Clear,72000.0,,FEW,9900.0,,,,,,
KRDR,06-13-2009,14:00,METAR,,350,3.0,,,9999.0,,16.0,12.0,29.93,1014.5,,,,,,,,,,,TRACE,,,,Clear,72000.0,,,73000.0,,,,,,
KRDR,06-13-2009,13:19,SPECI,,180,4.0,,,9999.0,,15.0,12.0,29.93,1014.4,,,,,,,,,,,,,,,4/8 Partly Cloudy,72000.0,,SCT,9400.0,,,,,,
KRDR,06-13-2009,13:08,SPECI,,,0.0,,,9999.0,Light Rain,14.0,12.0,29.92,1014.4,61,,,,,,,,,,,,,,7/8 Mostly Cloudy,9500.0,,FEW,2600.0,BKN,9400.0,,,,
KRDR,06-13-2009,13:00,METAR,,150,6.0,,,9999.0,,14.0,13.0,29.91,1013.9,,,,,,,,,,,TRACE,,,,7/8 Mostly Cloudy,9500.0,,FEW,3200.0,BKN,9400.0,,,,
KRDR,06-13-2009,12:35,SPECI,,,0.0,,,9999.0,,13.0,13.0,29.93,1014.4,,,,,,,,,,,,,,,4/8 Partly Cloudy,72000.0,,SCT,9900.0,,,,,,
KRDR,06-13-2009,12:25,SPECI,,,0.0,,,9999.0,Unknown Precipitation,13.0,13.0,29.92,1014.3,40,,,,,,,,,,,,,,2/8 Mostly Clear,72000.0,,FEW,1900.0,,,,,,
KRDR,06-13-2009,12:00,METAR,,,0.0,,,9999.0,,12.0,12.0,29.92,1014.3,,,,,,,,,,,TRACE,,.01 IN,.01 IN,7/8 Mostly Cloudy,11000.0,,BKN,11000.0,,,,,,
KRDR,06-13-2009,11:28,SPECI,,,0.0,,,9999.0,,12.0,12.0,29.92,1014.4,,,,,,,,,,,,,,,4/8 Partly Cloudy,72000.0,,SCT,9900.0,,,,,,
KRDR,06-13-2009,11:00,METAR,,240,3.0,,,9999.0,,12.0,11.0,29.92,1014.3,,,,,,,,,,,TRACE,,,,8/8 Overcast,9500.0,,OVC,9400.0,,,,,,
KRDR,06-13-2009,10:37,SPECI,,160,3.0,,,9999.0,Light Drizzle,12.0,11.0,29.92,1014.1,51,,,,,,,,,,,,,,7/8 Mostly Cloudy,10000.0,,BKN,9900.0,,,,,,
KRDR,06-13-2009,10:00,METAR,,,0.0,,,9999.0,,12.0,10.0,29.91,1013.9,,,,,,,,,,,TRACE,,,,7/8 Mostly Cloudy,10000.0,,BKN,9900.0,,,,,,
KRDR,06-13-2009,09:00,METAR,,140,5.0,,,9999.0,,13.0,11.0,29.91,1013.8,,,,,,,,,,,TRACE,.01 IN,,,4/8 Partly Cloudy,72000.0,,SCT,8900.0,,,,,,
KRDR,06-13-2009,08:47,SPECI,,,0.0,,,9999.0,Light Drizzle,13.0,10.0,29.92,1014.2,51,,,,,,,,,,,,,,7/8 Mostly Cloudy,9500.0,,BKN,9400.0,,,,,,
KRDR,06-13-2009,08:00,METAR,,170,3.0,,,9999.0,,15.0,10.0,29.91,1014.0,,,,,,,,,,,,,,,4/8 Partly Cloudy,72000.0,,SCT,9400.0,,,,,,
KRDR,06-13-2009,07:00,METAR,,60,3.0,,,9999.0,,14.0,10.0,29.91,1013.8,,,,,,,,,,,.01 IN,,,,4/8 Partly Cloudy,72000.0,,SCT,12000.0,,,,,,
KRDR,06-13-2009,06:35,SPECI,,20,5.0,,,9999.0,,14.0,10.0,29.90,1013.6,,,,,,,,,,,,,,,4/8 Partly Cloudy,72000.0,,SCT,9400.0,,,,,,
KRDR,06-13-2009,06:13,SPECI,,240,4.0,,,9999.0,,15.0,9.0,29.90,1013.4,,,,,,,,,,,,,,,7/8 Mostly Cloudy,10000.0,,BKN,9900.0,,,,,,
KRDR,06-13-2009,06:00,METAR,,240,6.0,,,9999.0,,15.0,9.0,29.88,1013.0,,,,,,,,,,,,,TRACE,,7/8 Mostly Cloudy,10000.0,,BKN,9900.0,,,,,,
KRDR,06-13-2009,05:00,METAR,,240,7.0,,,9999.0,,17.0,9.0,29.87,1012.5,,,,,,,,,,,,,,,4/8 Partly Cloudy,72000.0,,SCT,9900.0,,,,,,
KRDR,06-13-2009,04:00,METAR,,210,9.0,20.0,,9999.0,,17.0,10.0,29.87,1012.6,,,,,,,,,,,TRACE,,,,7/8 Mostly Cloudy,10000.0,,BKN,9900.0,,,,,,
KRDR,06-13-2009,03:33,SPECI,,210,13.0,,,9999.0,,17.0,10.0,29.89,1013.1,,,,,,,,,,,,,,,4/8 Partly Cloudy,72000.0,,FEW,3100.0,SCT,8900.0,,,,
KRDR,06-13-2009,03:21,SPECI,,250,10.0,15.0,,9999.0,Rain,16.0,10.0,29.91,1013.8,,,,61,,,,,,,,,,,7/8 Mostly Cloudy,8500.0,,FEW,3100.0,BKN,8400.0,,,,
KRDR,06-13-2009,03:11,SPECI,,250,6.0,,,9999.0,,16.0,11.0,29.91,1013.9,,,,,,,,,,,,,,,7/8 Mostly Cloudy,8500.0,,BKN,8400.0,,,,,,
KRDR,06-13-2009,03:01,SPECI,,260,8.0,,,9999.0,Light Rain Showers,16.0,11.0,29.91,1013.9,,,,80,,,,,,,,,,,7/8 Mostly Cloudy,8500.0,,BKN,8400.0,,,,,,
KRDR,06-13-2009,03:00,METAR,,,0.0,,,9999.0,,17.0,11.0,29.89,1013.1,,,,,,,,,,,TRACE,TRACE,,,7/8 Mostly Cloudy,9500.0,,BKN,9400.0,,,,,,
KRDR,06-13-2009,02:41,SPECI,,,0.0,,,9999.0,Rain,17.0,9.0,29.88,1012.8,,,,61,,,,,,,,,,,7/8 Mostly Cloudy,8500.0,,BKN,8400.0,,,,,,
KRDR,06-13-2009,02:00,METAR,,350,9.0,,340/31KTS,9999.0,Precipitation in the Vicinity,17.0,10.0,29.88,1013.0,,,,16,,,,,,,TRACE,,,,8/8 Overcast,9000.0,,OVC,8900.0,,,,,,
KRDR,06-13-2009,01:32,SPECI,,330,16.0,25.0,340/31KTS,9999.0,Light Rain Showers,20.0,8.0,29.88,1012.8,,,,80,,,,,,,,,,,8/8 Overcast,9000.0,,OVC,8900.0,,,,,,
KRDR,06-13-2009,01:00,METAR,,270,9.0,,,9999.0,,24.0,6.0,29.84,1011.7,,,,,,,,,,,,,,,7/8 Mostly Cloudy,8000.0,,BKN,7900.0,BKN,12000.0,,,,
KRDR,06-13-2009,00:00,METAR,,280,10.0,,,9999.0,,24.0,5.0,29.84,1011.7,,,,,,,,,,,,,,,4/8 Partly Cloudy,72000.0,,SCT,7900.0,,,,,,
KRDR,06-12-2009,23:00,METAR,,260,6.0,,,9999.0,,24.0,7.0,29.85,1011.9,,,,,,,,,,,,,,,4/8 Partly Cloudy,72000.0,,SCT,7400.0,,,,,,
KRDR,06-12-2009,22:00,METAR,,270,7.0,,,9999.0,,25.0,6.0,29.85,1011.9,,,,,,,,,,,,,,,4/8 Partly Cloudy,72000.0,,SCT,6900.0,,,,,,
KRDR,06-12-2009,21:00,METAR,,300,10.0,,,9999.0,,24.0,7.0,29.86,1012.3,,,,,,,,,,,,,,,4/8 Partly Cloudy,72000.0,,SCT,5900.0,,,,,,
KRDR,06-12-2009,20:00,METAR,,270,7.0,,,9999.0,,24.0,8.0,29.87,1012.6,,,,,,,,,,,,,,,2/8 Mostly Clear,72000.0,,FEW,6900.0,,,,,,
KRDR,06-12-2009,19:00,METAR,,260,9.0,,,9999.0,,23.0,7.0,29.89,1013.1,,,,,,,,,,,,,,,2/8 Mostly Clear,72000.0,,FEW,5900.0,,,,,,
KRDR,06-12-2009,18:00,METAR,,280,8.0,,,9999.0,,22.0,7.0,29.89,1013.3,,,,,,,,,,,,,,,4/8 Partly Cloudy,72000.0,,FEW,5900.0,SCT,22000.0,,,,
KRDR,06-12-2009,17:00,METAR,,260,8.0,,,9999.0,,22.0,7.0,29.90,1013.5,,,,,,,,,,,,,,,2/8 Mostly Clear,72000.0,,FEW,5900.0,FEW,20000.0,,,,
KRDR,06-12-2009,16:00,METAR,,230,6.0,,,9999.0,,20.0,9.0,29.90,1013.6,,,,,,,,,,,,,,,2/8 Mostly Clear,72000.0,,FEW,5900.0,,,,,,
KRDR,06-12-2009,15:00,METAR,,310,3.0,,,9999.0,,19.0,10.0,29.90,1013.6,,,,,,,,,,,,,,,Clear,72000.0,,,73000.0,,,,,,
KRDR,06-12-2009,14:00,METAR,,300,6.0,,,9999.0,,16.0,11.0,29.90,1013.6,,,,,,,,,,,,,,,Clear,72000.0,,,73000.0,,,,,,
KRDR,06-12-2009,13:00,METAR,,260,6.0,,,9999.0,,14.0,10.0,29.90,1013.4,,,,,,,,,,,,,,,2/8 Mostly Clear,72000.0,,FEW,9900.0,,,,,,
KRDR,06-12-2009,12:00,METAR,,,0.0,,,9999.0,,10.0,9.0,29.89,1013.3,,,,,,,,,,,,,,.01 IN,Clear,72000.0,,,73000.0,,,,,,
KRDR,06-12-2009,11:00,METAR,,,0.0,,,9999.0,,6.0,6.0,29.89,1013.1,,,,,,,,,,,,,,,Clear,72000.0,,,73000.0,,,,,,
KRDR,06-12-2009,10:00,METAR,,220,4.0,,,9999.0,,8.0,7.0,29.88,1013.0,,,,,,,,,,,,,,,Clear,72000.0,,,73000.0,,,,,,
KRDR,06-12-2009,09:00,METAR,,220,4.0,,,9999.0,,8.0,8.0,29.89,1013.1,,,,,,,,,,,,,,,7/8 Mostly Cloudy,11000.0,,BKN,11000.0,,,,,,
KRDR,06-12-2009,08:00,METAR,,,0.0,,,9999.0,,10.0,9.0,29.89,1013.3,,,,,,,,,,,,,,,7/8 Mostly Cloudy,11000.0,,BKN,11000.0,,,,,,
KRDR,06-12-2009,07:00,METAR,,80,4.0,,,9999.0,,12.0,9.0,29.90,1013.7,,,,,,,,,,,,,,,8/8 Overcast,10000.0,,OVC,9900.0,,,,,,
KRDR,06-12-2009,06:00,METAR,,330,8.0,,,9999.0,,11.0,9.0,29.92,1014.3,,,,,,,,,,,,,.01 IN,,8/8 Overcast,9000.0,,OVC,8900.0,,,,,,
KRDR,06-12-2009,05:00,METAR,,190,6.0,,,9999.0,,10.0,9.0,29.91,1013.9,,,,,,,,,,,,,,,Clear,72000.0,,,73000.0,,,,,,
KRDR,06-12-2009,04:00,METAR,,140,6.0,,,9999.0,,11.0,10.0,29.91,1014.0,,,,,,,,,,,.01 IN,,,,Clear,72000.0,,,73000.0,,,,,,
KRDR,06-12-2009,03:24,SPECI,,190,6.0,,,9999.0,,13.0,10.0,29.93,1014.7,,,,,,,,,,,,,,,7/8 Mostly Cloudy,9500.0,,FEW,4500.0,SCT,6400.0,BKN,9400.0,,
KRDR,06-12-2009,03:00,METAR,,300,3.0,,,9999.0,,14.0,8.0,29.94,1014.9,,,,,,,,,,,TRACE,TRACE,,,7/8 Mostly Cloudy,7500.0,,BKN,7400.0,,,,,,
KRDR,06-12-2009,02:31,SPECI,,320,8.0,,,9999.0,,13.0,9.0,29.94,1014.7,,,,,,,,,,,,,,,8/8 Overcast,8500.0,,OVC,8400.0,,,,,,
KRDR,06-12-2009,02:00,METAR,,150,6.0,,250/26KTS,9999.0,,14.0,9.0,29.91,1013.8,,,,,,,,,,,TRACE,,,,7/8 Mostly Cloudy,11000.0,,SCT,7900.0,BKN,11000.0,,,,
KRDR,06-12-2009,01:03,SPECI,,210,13.0,26.0,250/26KTS,9999.0,Rain,15.0,9.0,29.92,1014.3,,,,61,,,,,,,,,,,7/8 Mostly Cloudy,7000.0,,BKN,6900.0,,,,,,
KRDR,06-12-2009,01:00,METAR,,250,19.0,28.0,250/28KTS,9999.0,,17.0,7.0,29.92,1014.1,,,,,,,,,,,TRACE,,,,7/8 Mostly Cloudy,7000.0,,BKN,6900.0,,,,,,
KRDR,06-12-2009,00:01,SPECI,,260,5.0,,,9999.0,,19.0,7.0,29.91,1013.8,,,,,,,,,,,,,,,7/8 Mostly Cloudy,9000.0,,SCT,6400.0,BKN,8900.0,,,,
KRDR,06-12-2009,00:00,METAR,,220,6.0,,,9999.0,,18.0,6.0,29.91,1013.8,,,,,,,,,,,TRACE,,TRACE,,7/8 Mostly Cloudy,8500.0,,SCT,6400.0,BKN,8400.0,,,,
KRDR,06-11-2009,23:00,METAR,,260,6.0,,,9999.0,,20.0,6.0,29.92,1014.2,,,,,,,,,,,,,,,7/8 Mostly Cloudy,9000.0,,BKN,8900.0,,,,,,
KRDR,06-11-2009,22:00,METAR,,230,3.0,,,9999.0,,19.0,5.0,29.93,1014.5,,,,,,,,,,,,,,,,72000.0,,,,,,,,,
KRDR,06-11-2009,21:00,METAR,,,4.0,,,9999.0,,19.0,6.0,29.94,1014.9,,,,,,,,,,,,TRACE,,,7/8 Mostly Cloudy,7000.0,,BKN,6900.0,,,,,,
KRDR,06-11-2009,20:00,METAR,,,0.0,,,9999.0,,17.0,6.0,29.95,1015.3,,,,,,,,,,,TRACE,,,,7/8 Mostly Cloudy,7000.0,,BKN,6900.0,,,,,,
KRDR,06-11-2009,19:39,SPECI,,,0.0,,,9999.0,,17.0,7.0,29.96,1015.4,,,,,,,,,,,,,,,7/8 Mostly Cloudy,7000.0,,BKN,6900.0,,,,,,
KRDR,06-11-2009,19:28,SPECI,,,0.0,,,9999.0,,17.0,5.0,29.96,1015.4,,,,,,,,,,,,,,,7/8 Mostly Cloudy,7000.0,,BKN,6900.0,,,,,,
KRDR,06-11-2009,19:00,METAR,,,0.0,,,9999.0,,17.0,6.0,29.96,1015.4,,,,,,,,,,,,,,,7/8 Mostly Cloudy,6000.0,,BKN,5900.0,,,,,,
KRDR,06-11-2009,18:00,METAR,,,4.0,,,9999.0,,17.0,5.0,29.97,1015.9,,,,,,,,,,,,,,,7/8 Mostly Cloudy,8000.0,,SCT,5900.0,BKN,7900.0,,,,
KRDR,06-11-2009,17:00,METAR,,120,4.0,,,9999.0,,17.0,6.0,29.98,1016.2,,,,,,,,,,,,,,,7/8 Mostly Cloudy,5500.0,,BKN,5400.0,,,,,,
KRDR,06-11-2009,16:00,METAR,,,0.0,,,9999.0,,17.0,7.0,29.99,1016.4,,,,,,,,,,,,,,,2/8 Mostly Clear,72000.0,,FEW,4000.0,,,,,,
KRDR,06-11-2009,15:00,METAR,,,0.0,,,9999.0,,15.0,6.0,29.99,1016.7,,,,,,,,,,,,,,,2/8 Mostly Clear,72000.0,,FEW,3600.0,FEW,6900.0,,,,
KRDR,06-11-2009,14:00,METAR,,,0.0,,,9999.0,,14.0,7.0,30.00,1017.0,,,,,,,,,,,,,,,2/8 Mostly Clear,72000.0,,FEW,5900.0,,,,,,
KRDR,06-11-2009,13:00,METAR,,,0.0,,,9999.0,,11.0,7.0,30.00,1017.0,,,,,,,,,,,,,,,2/8 Mostly Clear,72000.0,,FEW,5900.0,,,,,,
KRDR,06-11-2009,12:00,METAR,,,0.0,,,9999.0,,7.0,7.0,30.00,1016.9,,,,,,,,,,,,,,,2/8 Mostly Clear,72000.0,,FEW,5400.0,,,,,,
KRDR,06-11-2009,11:00,METAR,,260,4.0,,,9999.0,,3.0,3.0,29.99,1016.5,,,,,,,,,,,,,,,Clear,72000.0,,,73000.0,,,,,,
KRDR,06-11-2009,10:00,METAR,,280,3.0,,,9999.0,,4.0,3.0,29.98,1016.3,,,,,,,,,,,,,,,Clear,72000.0,,,73000.0,,,,,,
KRDR,06-11-2009,09:00,METAR,,,0.0,,,9999.0,,5.0,4.0,29.98,1016.1,,,,,,,,,,,,,,,Clear,72000.0,,,73000.0,,,,,,
KRDR,06-11-2009,08:00,METAR,,,0.0,,,9999.0,,6.0,5.0,29.98,1016.1,,,,,,,,,,,,,,,Clear,72000.0,,,73000.0,,,,,,
KRDR,06-11-2009,07:00,METAR,,300,4.0,,,9999.0,,6.0,5.0,29.98,1016.2,,,,,,,,,,,,,,,Clear,72000.0,,,73000.0,,,,,,
KRDR,06-11-2009,06:00,METAR,,,0.0,,,9999.0,,5.0,5.0,29.98,1016.3,,,,,,,,,,,,,,,Clear,72000.0,,,73000.0,,,,,,
KRDR,06-11-2009,05:00,METAR,,280,3.0,,,9999.0,,6.0,5.0,29.98,1016.2,,,,,,,,,,,,,,,Clear,72000.0,,,73000.0,,,,,,
KRDR,06-11-2009,04:00,METAR,,,0.0,,,9999.0,,7.0,5.0,29.98,1016.1,,,,,,,,,,,,,,,Clear,72000.0,,,73000.0,,,,,,
KRDR,06-11-2009,03:00,METAR,,30,3.0,,,9999.0,,11.0,6.0,29.96,1015.6,,,,,,,,,,,,,,,4/8 Partly Cloudy,72000.0,,SCT,8900.0,,,,,,
KRDR,06-11-2009,02:00,METAR,,60,5.0,,,9999.0,,14.0,7.0,29.95,1015.0,,,,,,,,,,,,,,,2/8 Mostly Clear,72000.0,,FEW,9400.0,,,,,,
KRDR,06-11-2009,01:00,METAR,,360,4.0,,,9999.0,,15.0,5.0,29.94,1014.9,,,,,,,,,,,,,,,4/8 Partly Cloudy,72000.0,,SCT,8900.0,,,,,,
KRDR,06-11-2009,00:00,METAR,,340,13.0,,,9999.0,,17.0,5.0,29.93,1014.6,,,,,,,,,,,,,,,4/8 Partly Cloudy,72000.0,,SCT,9900.0,,,,,,
KRDR,06-10-2009,23:00,METAR,,340,12.0,,,9999.0,,17.0,5.0,29.94,1014.8,,,,,,,,,,,,,,,4/8 Partly Cloudy,72000.0,,SCT,7400.0,,,,,,
KRDR,06-10-2009,22:00,METAR,,340,13.0,,,9999.0,,17.0,4.0,29.94,1014.9,,,,,,,,,,,,,,,7/8 Mostly Cloudy,9000.0,,BKN,8900.0,,,,,,
KRDR,06-10-2009,21:00,METAR,,340,12.0,20.0,,9999.0,,18.0,5.0,29.94,1014.9,,,,,,,,,,,,,,,7/8 Mostly Cloudy,8000.0,,BKN,7900.0,,,,,,
KRDR,06-10-2009,20:00,METAR,,310,7.0,16.0,,9999.0,,18.0,5.0,29.94,1014.7,,,,,,,,,,,,,,,7/8 Mostly Cloudy,9500.0,,BKN,9400.0,,,,,,
KRDR,06-10-2009,19:00,METAR,,320,11.0,,,9999.0,,17.0,4.0,29.94,1014.9,,,,,,,,,,,,,,,4/8 Partly Cloudy,72000.0,,SCT,6400.0,,,,,,
KRDR,06-10-2009,18:00,METAR,,310,10.0,,,9999.0,,16.0,5.0,29.95,1015.1,,,,,,,,,,,,,,,7/8 Mostly Cloudy,7000.0,,SCT,5000.0,BKN,6900.0,,,,
KRDR,06-10-2009,17:00,METAR,,320,8.0,,,9999.0,,16.0,5.0,29.96,1015.5,,,,,,,,,,,,,,,7/8 Mostly Cloudy,4400.0,,BKN,4500.0,BKN,25000.0,,,,
KRDR,06-10-2009,16:00,METAR,,330,7.0,,,9999.0,,16.0,6.0,29.97,1015.7,,,,,,,,,,,,,,,4/8 Partly Cloudy,72000.0,,SCT,5000.0,,,,,,
KRDR,06-10-2009,15:00,METAR,,280,6.0,,,9999.0,,15.0,7.0,29.99,1016.4,,,,,,,,,,,,,,,2/8 Mostly Clear,72000.0,,FEW,3200.0,,,,,,
KRDR,06-10-2009,14:00,METAR,,300,7.0,,,9999.0,,13.0,7.0,29.99,1016.6,,,,,,,,,,,,,,,2/8 Mostly Clear,72000.0,,FEW,5900.0,,,,,,
KRDR,06-10-2009,13:00,METAR,,280,5.0,,,9999.0,,8.0,6.0,29.99,1016.6,,,,,,,,,,,,,,,Clear,72000.0,,,73000.0,,,,,,
KRDR,06-10-2009,12:00,METAR,,270,3.0,,,9999.0,,6.0,6.0,29.99,1016.4,,,,,,,,,,,,,,,2/8 Mostly Clear,72000.0,,FEW,5400.0,,,,,,
KRDR,06-10-2009,11:00,METAR,,260,5.0,,,9999.0,,6.0,5.0,29.99,1016.4,,,,,,,,,,,,,,,2/8 Mostly Clear,72000.0,,FEW,5900.0,,,,,,
KRDR,06-10-2009,10:00,METAR,,250,5.0,,,9999.0,,4.0,4.0,29.98,1016.2,,,,,,,,,,,,,,,Clear,72000.0,,,73000.0,,,,,,
KRDR,06-10-2009,09:00,METAR,,280,5.0,,,9999.0,,4.0,4.0,29.97,1016.0,,,,,,,,,,,,,,,Clear,72000.0,,,73000.0,,,,,,
KRDR,06-10-2009,08:00,METAR,,280,4.0,,,9999.0,,6.0,5.0,29.98,1016.0,,,,,,,,,,,,,,,Clear,72000.0,,,73000.0,,,,,,
KRDR,06-10-2009,07:00,METAR,,280,5.0,,,9999.0,,5.0,5.0,29.98,1016.1,,,,,,,,,,,,,,,Clear,72000.0,,,73000.0,,,,,,
KRDR,06-10-2009,06:00,METAR,,280,4.0,,,9999.0,,6.0,5.0,29.98,1016.2,,,,,,,,,,,,,,,Clear,72000.0,,,73000.0,,,,,,
KRDR,06-10-2009,05:00,METAR,,260,3.0,,,9999.0,,7.0,6.0,29.99,1016.4,,,,,,,,,,,,,,,7/8 Mostly Cloudy,11000.0,,BKN,11000.0,,,,,,
KRDR,06-10-2009,04:00,METAR,,270,4.0,,,9999.0,,9.0,7.0,29.99,1016.6,,,,,,,,,,,,,,,8/8 Overcast,11000.0,,OVC,11000.0,,,,,,
KRDR,06-10-2009,03:00,METAR,,280,3.0,,,9999.0,,10.0,7.0,29.99,1016.4,,,,,,,,,,,,,,,8/8 Overcast,11000.0,,FEW,5900.0,BKN,11000.0,OVC,18000.0,,
KRDR,06-10-2009,02:00,METAR,,300,4.0,,,9999.0,,11.0,7.0,29.99,1016.4,,,,,,,,,,,,,,,7/8 Mostly Cloudy,10000.0,,SCT,5900.0,BKN,9900.0,BKN,18000.0,,
KRDR,06-10-2009,01:00,METAR,,,0.0,,,9999.0,,12.0,7.0,29.98,1016.3,,,,,,,,,,,,,,,7/8 Mostly Cloudy,4900.0,,BKN,5000.0,BKN,18000.0,,,,
KRDR,06-10-2009,00:00,METAR,,320,7.0,,,9999.0,,13.0,6.0,29.98,1016.3,,,,,,,,,,,,,,,8/8 Overcast,4600.0,,OVC,4700.0,,,,,,
KRDR,06-09-2009,23:00,METAR,,330,8.0,,,9999.0,,13.0,5.0,29.98,1016.1,,,,,,,,,,,,,,,7/8 Mostly Cloudy,4200.0,,BKN,4300.0,,,,,,
KRDR,06-09-2009,22:00,METAR,,10,8.0,,,9999.0,,14.0,7.0,29.97,1015.7,,,,,,,,,,,,,,,8/8 Overcast,4000.0,,FEW,3200.0,OVC,4100.0,,,,
KRDR,06-09-2009,21:00,METAR,,340,5.0,,,9999.0,,13.0,7.0,29.97,1015.7,,,,,,,,,,,,,,,8/8 Overcast,4000.0,,FEW,3000.0,OVC,4100.0,,,,
KRDR,06-09-2009,20:00,METAR,,10,6.0,,,9999.0,,13.0,7.0,29.97,1016.0,,,,,,,,,,,,,,,8/8 Overcast,3400.0,,OVC,3500.0,,,,,,
KRDR,06-09-2009,19:00,METAR,,300,5.0,,,9999.0,,12.0,6.0,29.97,1016.0,,,,,,,,,,,,,,,8/8 Overcast,2800.0,,OVC,2800.0,,,,,,
KRDR,06-09-2009,18:00,METAR,,,0.0,,,9999.0,,11.0,6.0,29.99,1016.5,,,,,,,,,,,,,,,8/8 Overcast,2500.0,,OVC,2500.0,,,,,,
KRDR,06-09-2009,17:00,METAR,,310,7.0,,,9999.0,,10.0,6.0,29.99,1016.5,,,,,,,,,,,,,,,8/8 Overcast,1900.0,,OVC,1900.0,,,,,,
KRDR,06-09-2009,16:00,METAR,,310,5.0,,,9999.0,,10.0,6.0,29.99,1016.4,,,,,,,,,,,,,,,8/8 Overcast,1700.0,,OVC,1700.0,,,,,,
KRDR,06-09-2009,15:00,METAR,,330,8.0,,,9999.0,,9.0,5.0,29.98,1016.3,,,,,,,,,,,,,,,8/8 Overcast,1900.0,,OVC,1900.0,,,,,,
KRDR,06-09-2009,14:00,METAR,,330,8.0,,,9999.0,,9.0,6.0,29.97,1015.9,,,,,,,,,,,,,,,8/8 Overcast,1300.0,,OVC,1700.0,,,,,,
KRDR,06-09-2009,13:25,SPECI,,310,10.0,,,9999.0,,8.0,6.0,29.97,1015.7,,,,,,,,,,,,,,,8/8 Overcast,1500.0,,OVC,1500.0,,,,,,
KRDR,06-09-2009,13:00,METAR,,310,11.0,,,9999.0,,8.0,6.0,29.96,1015.6,,,,,,,,,,,,,,,8/8 Overcast,1400.0,,OVC,1400.0,,,,,,
KRDR,06-09-2009,12:49,SPECI,,310,10.0,,,9999.0,,8.0,6.0,29.96,1015.6,,,,,,,,,,,,,,,8/8 Overcast,1400.0,,OVC,1400.0,,,,,,
KRDR,06-09-2009,12:00,METAR,,290,7.0,,,9999.0,,7.0,6.0,29.95,1015.2,,,,,,,,,,,,,,.24 IN,8/8 Overcast,1800.0,,OVC,1800.0,,,,,,
KRDR,06-09-2009,11:00,METAR,,260,5.0,,,9999.0,,4.0,4.0,29.94,1014.9,,,,,,,,,,,,,,,7/8 Mostly Cloudy,2300.0,,BKN,2300.0,,,,,,
KRDR,06-09-2009,10:45,SPECI,,260,5.0,,,9999.0,,4.0,4.0,29.94,1014.9,,,,,,,,,,,,,,,7/8 Mostly Cloudy,2300.0,,BKN,2300.0,,,,,,
KRDR,06-09-2009,10:00,METAR,,270,6.0,,,9999.0,,5.0,5.0,29.93,1014.4,,,,,,,,,,,,,,,4/8 Partly Cloudy,72000.0,,SCT,2000.0,,,,,,
KRDR,06-09-2009,09:50,SPECI,,270,7.0,,,9999.0,,5.0,5.0,29.92,1014.3,,,,,,,,,,,,,,,4/8 Partly Cloudy,72000.0,,SCT,2100.0,,,,,,
KRDR,06-09-2009,09:34,SPECI,,300,6.0,,,9999.0,,5.0,5.0,29.92,1014.2,,,,,,,,,,,,,,,7/8 Mostly Cloudy,1800.0,,BKN,1800.0,,,,,,
KRDR,06-09-2009,09:00,METAR,,280,4.0,,,9999.0,,5.0,5.0,29.91,1014.0,,,,,,,,,,,,,,,Clear,72000.0,,,73000.0,,,,,,
KRDR,06-09-2009,08:00,METAR,,310,5.0,,,9999.0,,7.0,6.0,29.91,1013.9,,,,,,,,,,,,,,,Clear,72000.0,,,73000.0,,,,,,
KRDR,06-09-2009,07:00,METAR,,300,4.0,,,9999.0,,9.0,9.0,29.91,1013.9,,,,,,,,,,,,,,,7/8 Mostly Cloudy,4900.0,,FEW,2300.0,BKN,5000.0,,,,
KRDR,06-09-2009,06:27,SPECI,,240,3.0,,,9999.0,,9.0,9.0,29.91,1013.8,,,,,,,,,,,,,,,8/8 Overcast,3100.0,,OVC,3100.0,,,,,,
KRDR,06-09-2009,06:25,SPECI,,240,3.0,,,9999.0,,9.0,9.0,29.91,1013.8,,,,,,,,,,,,,,,8/8 Overcast,1300.0,,OVC,2900.0,,,,,,
KRDR,06-09-2009,06:00,METAR,,230,5.0,,,9999.0,,9.0,8.0,29.90,1013.6,,,,,,,,,,,,,,,8/8 Overcast,4800.0,,OVC,4900.0,,,,,,
KRDR,06-09-2009,05:00,METAR,,210,4.0,,,9999.0,,8.0,8.0,29.90,1013.7,,,,,,,,,,,,,,,8/8 Overcast,4800.0,,OVC,4900.0,,,,,,
KRDR,06-09-2009,04:00,METAR,,190,3.0,,,9999.0,,7.0,7.0,29.90,1013.6,,,,,,,,,,,,,,,7/8 Mostly Cloudy,4900.0,,SCT,3800.0,BKN,5000.0,,,,
KRDR,06-09-2009,03:00,METAR,,170,3.0,,,9999.0,,9.0,8.0,29.90,1013.5,,,,,,,,,,,,,,,7/8 Mostly Cloudy,4900.0,,FEW,3000.0,BKN,5000.0,,,,
KRDR,06-09-2009,02:00,METAR,,,0.0,,,9999.0,,10.0,8.0,29.89,1013.1,,,,,,,,,,,,,,,7/8 Mostly Cloudy,6000.0,,FEW,2700.0,BKN,5900.0,,,,
KRDR,06-09-2009,01:22,SPECI,,,0.0,,,9999.0,,11.0,7.0,29.88,1013.0,,,,,,,,,,,,,,,4/8 Partly Cloudy,72000.0,,SCT,2700.0,,,,,,
KRDR,06-09-2009,01:00,METAR,,,0.0,,,9999.0,,11.0,8.0,29.88,1012.9,,,,,,,,,,,,,,,7/8 Mostly Cloudy,2800.0,,BKN,2800.0,BKN,12000.0,,,,
KRDR,06-09-2009,00:06,SPECI,,,0.0,,,9999.0,,10.0,8.0,29.88,1012.9,,,,,,,,,,,,,,,7/8 Mostly Cloudy,2800.0,,BKN,2800.0,,,,,,
KRDR,06-09-2009,00:00,METAR,,110,3.0,,,9999.0,,11.0,8.0,29.88,1012.8,,,,,,,,,,,,,TRACE,,7/8 Mostly Cloudy,2600.0,,FEW,1700.0,BKN,2600.0,,,,
KRDR,06-08-2009,23:31,SPECI,,60,4.0,,,9999.0,,11.0,8.0,29.88,1012.9,,,,,,,,,,,,,,,7/8 Mostly Cloudy,1200.0,,SCT,1400.0,BKN,2200.0,,,,
KRDR,06-08-2009,23:16,SPECI,,,0.0,,,9999.0,,11.0,8.0,29.88,1012.9,,,,,,,,,,,,,,,8/8 Overcast,1200.0,,OVC,1400.0,,,,,,
KRDR,06-08-2009,23:00,METAR,,,0.0,,,9999.0,,11.0,8.0,29.89,1013.1,,,,,,,,,,,,,,,8/8 Overcast,1500.0,,OVC,1500.0,,,,,,
KRDR,06-08-2009,22:12,SPECI,,,0.0,,,9999.0,,10.0,8.0,29.88,1013.0,,,,,,,,,,,,,,,8/8 Overcast,1000.0,,SCT,1100.0,OVC,1700.0,,,,
KRDR,06-08-2009,22:02,SPECI,,,0.0,,,9999.0,,10.0,8.0,29.89,1013.1,,,,,,,,,,,,,,,8/8 Overcast,1500.0,,SCT,1500.0,OVC,2500.0,,,,
KRDR,06-08-2009,22:00,METAR,,,0.0,,,9999.0,,10.0,8.0,29.89,1013.1,,,,,,,,,,,TRACE,,,,8/8 Overcast,1200.0,,OVC,1200.0,,,,,,
KRDR,06-08-2009,21:47,SPECI,,,0.0,,,9999.0,,10.0,8.0,29.89,1013.1,,,,,,,,,,,,,,,8/8 Overcast,1400.0,,BKN,1400.0,OVC,2400.0,,,,
KRDR,06-08-2009,21:41,SPECI,,,0.0,,,9999.0,,10.0,8.0,29.89,1013.2,,,,,,,,,,,,,,,8/8 Overcast,2100.0,,FEW,700.0,SCT,1500.0,OVC,2100.0,,
KRDR,06-08-2009,21:33,SPECI,,,0.0,,,9999.0,Mist,9.0,8.0,29.89,1013.3,,,,10,,,,,,,,,,,8/8 Overcast,1500.0,,BKN,1500.0,OVC,2500.0,,,,
KRDR,06-08-2009,21:16,SPECI,,,0.0,,,4800.0,,9.0,8.0,29.89,1013.3,,,,,,,,,,,,,,,8/8 Overcast,1300.0,,BKN,1300.0,OVC,2000.0,,,,
KRDR,06-08-2009,21:09,SPECI,,,0.0,,,3200.0,Drizzle/Mist,9.0,8.0,29.89,1013.3,,,,51,10,,,,,,,,,,8/8 Overcast,1200.0,,BKN,1200.0,OVC,2000.0,,,,
KRDR,06-08-2009,21:00,METAR,,,0.0,,,2800.0,Mist,9.0,7.0,29.89,1013.3,,,,,10,,,,,,TRACE,TRACE,,,8/8 Overcast,1300.0,,OVC,1300.0,,,,,,
KRDR,06-08-2009,20:36,SPECI,,,0.0,,,4800.0,Drizzle,10.0,7.0,29.89,1013.3,,,,51,,,,,,,,,,,8/8 Overcast,1000.0,,OVC,1000.0,,,,,,
KRDR,06-08-2009,20:00,METAR,,90,3.0,,,9999.0,,10.0,7.0,29.89,1013.2,,,,,,,,,,,,,,,8/8 Overcast,1300.0,,OVC,1300.0,,,,,,
KRDR,06-08-2009,19:12,SPECI,,,0.0,,,9999.0,,9.0,7.0,29.89,1013.2,,,,,,,,,,,,,,,8/8 Overcast,1500.0,,OVC,1500.0,,,,,,
KRDR,06-08-2009,19:00,METAR,,90,4.0,,,9999.0,,9.0,7.0,29.89,1013.2,,,,,,,,,,,,,,,8/8 Overcast,1400.0,,OVC,1400.0,,,,,,
KRDR,06-08-2009,18:00,METAR,,100,5.0,,,9999.0,,9.0,8.0,29.89,1013.3,,,,,,,,,,,TRACE,,.24 IN,,8/8 Overcast,1300.0,,OVC,1300.0,,,,,,
KRDR,06-08-2009,17:38,SPECI,,90,3.0,,,9999.0,,9.0,8.0,29.90,1013.5,,,,,,,,,,,,,,,8/8 Overcast,1200.0,,OVC,1200.0,,,,,,
KRDR,06-08-2009,17:25,SPECI,,60,4.0,,,9999.0,,9.0,8.0,29.90,1013.5,,,,,,,,,,,,,,,8/8 Overcast,1000.0,,SCT,800.0,OVC,1000.0,,,,
KRDR,06-08-2009,17:00,METAR,,50,4.0,,,9999.0,Drizzle,9.0,8.0,29.90,1013.5,,,,51,,,,,,,.02 IN,,,,8/8 Overcast,1100.0,,SCT,800.0,OVC,1100.0,,,,
KRDR,06-08-2009,16:28,SPECI,,70,8.0,,,9999.0,Rain,9.0,8.0,29.90,1013.5,,,,61,,,,,,,,,,,8/8 Overcast,1200.0,,OVC,1200.0,,,,,,
KRDR,06-08-2009,16:00,METAR,,80,7.0,,,9999.0,Rain,9.0,8.0,29.90,1013.6,,,,61,,,,,,,.04 IN,,,,8/8 Overcast,1500.0,,FEW,1000.0,OVC,1500.0,,,,
KRDR,06-08-2009,15:49,SPECI,,80,8.0,,,9999.0,Rain,8.0,8.0,29.90,1013.7,,,,61,,,,,,,,,,,8/8 Overcast,1500.0,,FEW,1000.0,OVC,1500.0,,,,
KRDR,06-08-2009,15:13,SPECI,,80,7.0,,,9999.0,Rain,8.0,8.0,29.91,1014.0,,,,61,,,,,,,,,,,8/8 Overcast,1400.0,,SCT,900.0,BKN,1400.0,OVC,2800.0,,
KRDR,06-08-2009,15:00,METAR,,70,7.0,,,9999.0,Rain,9.0,8.0,29.92,1014.0,,,,61,,,,,,,.02 IN,.18 IN,,,8/8 Overcast,2800.0,,FEW,800.0,SCT,1300.0,OVC,2800.0,,
KRDR,06-08-2009,14:14,SPECI,,100,5.0,,,9999.0,Drizzle,8.0,7.0,29.92,1014.1,,,,51,,,,,,,,,,,8/8 Overcast,1600.0,,FEW,600.0,BKN,1600.0,OVC,2700.0,,
KRDR,06-08-2009,14:06,SPECI,,100,8.0,,,9999.0,Rain,8.0,7.0,29.92,1014.1,,,,61,,,,,,,,,,,7/8 Mostly Cloudy,600.0,,SCT,600.0,BKN,1100.0,,,,
KRDR,06-08-2009,14:00,METAR,,90,6.0,,,9999.0,Rain,8.0,7.0,29.92,1014.2,,,,61,,,,,,,.07 IN,,,,8/8 Overcast,2900.0,,SCT,1100.0,OVC,2900.0,,,,
KRDR,06-08-2009,13:00,METAR,,80,3.0,,,8000.0,Rain,8.0,7.0,29.92,1014.4,,,,61,,,,,,,.09 IN,,,,8/8 Overcast,1400.0,,BKN,1400.0,OVC,3700.0,,,,
KRDR,06-08-2009,12:00,METAR,,40,3.0,,,9999.0,Rain,8.0,8.0,29.92,1014.5,,,,61,,,,,,,.1 IN,,.18 IN,.18 IN,8/8 Overcast,5500.0,,FEW,3700.0,OVC,5400.0,,,,
KRDR,06-08-2009,11:00,METAR,,,0.0,,,9999.0,Rain,9.0,8.0,29.93,1014.7,,,,61,,,,,,,.05 IN,,,,8/8 Overcast,3600.0,,OVC,3700.0,,,,,,
KRDR,06-08-2009,10:42,SPECI,,70,3.0,,,9999.0,Light Rain,9.0,8.0,29.93,1014.6,61,,,,,,,,,,,,,,2/8 Mostly Clear,72000.0,,FEW,3800.0,,,,,,
KRDR,06-08-2009,10:18,SPECI,,90,3.0,,,9999.0,,9.0,7.0,29.93,1014.4,,,,,,,,,,,,,,,Clear,72000.0,,,73000.0,,,,,,
KRDR,06-08-2009,10:02,SPECI,,100,3.0,,,9999.0,,9.0,7.0,29.92,1014.2,,,,,,,,,,,,,,,Clear,72000.0,,,73000.0,,,,,,
KRDR,06-08-2009,10:00,METAR,,110,6.0,,,9999.0,,10.0,7.0,29.92,1014.3,,,,,,,,,,,.03 IN,,,,Clear,72000.0,,,73000.0,,,,,,
KRDR,06-08-2009,09:45,SPECI,,100,6.0,,,9999.0,Light Rain,10.0,7.0,29.92,1014.2,61,,,,,,,,,,,,,,2/8 Mostly Clear,72000.0,,FEW,5400.0,,,,,,
KRDR,06-08-2009,09:41,SPECI,,110,7.0,,,9999.0,Light Rain,10.0,7.0,29.92,1014.1,61,,,,,,,,,,,,,,4/8 Partly Cloudy,72000.0,,SCT,5400.0,,,,,,
KRDR,06-08-2009,09:00,METAR,,80,6.0,,,9999.0,,12.0,6.0,29.92,1014.1,,,,,,,,,,,TRACE,TRACE,,,8/8 Overcast,4500.0,,OVC,4600.0,,,,,,
KRDR,06-08-2009,08:48,SPECI,,80,6.0,,,9999.0,,12.0,5.0,29.92,1014.1,,,,,,,,,,,,,,,8/8 Overcast,4500.0,,OVC,4600.0,,,,,,
KRDR,06-08-2009,08:00,METAR,,70,6.0,,,9999.0,,12.0,5.0,29.92,1014.3,,,,,,,,,,,,,,,8/8 Overcast,4800.0,,OVC,4900.0,,,,,,
KRDR,06-08-2009,07:00,METAR,,60,8.0,,,9999.0,,12.0,5.0,29.94,1014.8,,,,,,,,,,,,,,,8/8 Overcast,4900.0,,OVC,5000.0,,,,,,
KRDR,06-08-2009,06:00,METAR,,50,6.0,,,9999.0,,12.0,5.0,29.96,1015.4,,,,,,,,,,,,,,,8/8 Overcast,4700.0,,OVC,4800.0,,,,,,
KRDR,06-08-2009,05:00,METAR,,70,6.0,,,9999.0,,12.0,5.0,29.99,1016.4,,,,,,,,,,,,,,,8/8 Overcast,4900.0,,OVC,5000.0,,,,,,
KRDR,06-08-2009,04:00,METAR,,70,6.0,,,9999.0,,13.0,5.0,30.00,1016.7,,,,,,,,,,,,,,,8/8 Overcast,4700.0,,OVC,4800.0,,,,,,
KRDR,06-08-2009,03:00,METAR,,50,5.0,,,9999.0,,13.0,6.0,29.99,1016.4,,,,,,,,,,,,,,,8/8 Overcast,4800.0,,OVC,4900.0,,,,,,
KRDR,06-08-2009,02:00,METAR,,80,5.0,,,9999.0,,13.0,6.0,29.97,1016.0,,,,,,,,,,,,,,,8/8 Overcast,4800.0,,OVC,4900.0,,,,,,
KRDR,06-08-2009,01:00,METAR,,90,7.0,,,9999.0,,14.0,5.0,29.99,1016.6,,,,,,,,,,,,,,,8/8 Overcast,4600.0,,OVC,4700.0,,,,,,
KRDR,06-08-2009,00:00,METAR,,130,9.0,,,9999.0,,15.0,5.0,29.99,1016.5,,,,,,,,,,,,,,,8/8 Overcast,4500.0,,OVC,4600.0,,,,,,
KRDR,06-07-2009,23:00,METAR,,110,13.0,,,9999.0,,15.0,6.0,29.98,1016.3,,,,,,,,,,,,,,,7/8 Mostly Cloudy,6000.0,,FEW,4200.0,BKN,5900.0,,,,
KRDR,06-07-2009,22:00,METAR,,120,11.0,,,9999.0,,15.0,5.0,29.99,1016.5,,,,,,,,,,,,,,,8/8 Overcast,5500.0,,OVC,5400.0,,,,,,
KRDR,06-07-2009,21:00,METAR,,110,9.0,,,9999.0,,15.0,5.0,29.99,1016.5,,,,,,,,,,,,,,,8/8 Overcast,5500.0,,OVC,5400.0,,,,,,
KRDR,06-07-2009,20:00,METAR,,70,9.0,,,9999.0,,15.0,5.0,29.99,1016.6,,,,,,,,,,,,,,,8/8 Overcast,4900.0,,OVC,5000.0,,,,,,
KRDR,06-07-2009,19:00,METAR,,90,12.0,,,9999.0,,15.0,5.0,30.00,1016.7,,,,,,,,,,,,,,,7/8 Mostly Cloudy,4900.0,,BKN,5000.0,,,,,,
KRDR,06-07-2009,18:00,METAR,,100,12.0,,,9999.0,,15.0,4.0,30.01,1017.2,,,,,,,,,,,,,TRACE,,7/8 Mostly Cloudy,4600.0,,BKN,4700.0,,,,,,
KRDR,06-07-2009,17:00,METAR,,120,9.0,,,9999.0,,14.0,5.0,30.01,1017.3,,,,,,,,,,,,,,,7/8 Mostly Cloudy,4500.0,,BKN,4600.0,,,,,,
KRDR,06-07-2009,16:00,METAR,,100,11.0,,,9999.0,,12.0,5.0,30.03,1017.7,,,,,,,,,,,,,,,2/8 Mostly Clear,72000.0,,FEW,5900.0,,,,,,
KRDR,06-07-2009,15:00,METAR,,80,6.0,,,9999.0,,11.0,6.0,30.04,1018.2,,,,,,,,,,,TRACE,TRACE,,,Clear,72000.0,,,73000.0,,,,,,
KRDR,06-07-2009,14:43,SPECI,,80,4.0,,,9999.0,,11.0,6.0,30.04,1018.2,,,,,,,,,,,,,,,Clear,72000.0,,,73000.0,,,,,,
KRDR,06-07-2009,14:26,SPECI,,70,6.0,,,9999.0,,10.0,6.0,30.05,1018.4,,,,,,,,,,,,,,,Clear,72000.0,,,73000.0,,,,,,
KRDR,06-07-2009,14:22,SPECI,,110,5.0,,,9999.0,,10.0,6.0,30.05,1018.5,,,,,,,,,,,,,,,Clear,72000.0,,,73000.0,,,,,,
KRDR,06-07-2009,14:00,METAR,,110,7.0,,,9999.0,,10.0,5.0,30.05,1018.6,,,,,,,,,,,TRACE,,,,4/8 Partly Cloudy,72000.0,,SCT,5400.0,,,,,,
KRDR,06-07-2009,13:00,METAR,,80,6.0,,,9999.0,,9.0,5.0,30.01,1017.2,,,,,,,,,,,,,,,7/8 Mostly Cloudy,5500.0,,BKN,5400.0,,,,,,
KRDR,06-07-2009,12:00,METAR,,70,5.0,,,9999.0,,8.0,4.0,30.01,1017.3,,,,,,,,,,,,,,,8/8 Overcast,4300.0,,OVC,4400.0,,,,,,
KRDR,06-07-2009,11:00,METAR,,,0.0,,,9999.0,,7.0,5.0,30.00,1016.9,,,,,,,,,,,,,,,8/8 Overcast,4900.0,,OVC,5000.0,,,,,,
KRDR,06-07-2009,10:00,METAR,,10,4.0,,,9999.0,,7.0,5.0,30.00,1016.9,,,,,,,,,,,,,,,8/8 Overcast,6000.0,,OVC,5900.0,,,,,,
KRDR,06-07-2009,09:00,METAR,,30,4.0,,,9999.0,,7.0,5.0,30.00,1016.9,,,,,,,,,,,,,,,4/8 Partly Cloudy,72000.0,,SCT,5400.0,,,,,,
KRDR,06-07-2009,08:00,METAR,,340,3.0,,,9999.0,,8.0,4.0,30.02,1017.4,,,,,,,,,,,,,,,4/8 Partly Cloudy,72000.0,,SCT,5400.0,,,,,,
KRDR,06-07-2009,07:00,METAR,,160,3.0,,,9999.0,,8.0,4.0,30.01,1017.1,,,,,,,,,,,,,,,Clear,72000.0,,,73000.0,,,,,,
KRDR,06-07-2009,06:00,METAR,,60,4.0,,,9999.0,,9.0,3.0,30.01,1017.2,,,,,,,,,,,,,,,8/8 Overcast,6500.0,,SCT,4500.0,OVC,6400.0,,,,
KRDR,06-07-2009,05:00,METAR,,60,5.0,,,9999.0,,9.0,2.0,30.01,1017.0,,,,,,,,,,,,,,,7/8 Mostly Cloudy,8000.0,,FEW,4500.0,BKN,7900.0,,,,
KRDR,06-07-2009,04:00,METAR,,,0.0,,,9999.0,,9.0,3.0,30.01,1017.3,,,,,,,,,,,,,,,7/8 Mostly Cloudy,4900.0,,BKN,5000.0,,,,,,
KRDR,06-07-2009,03:00,METAR,,10,3.0,,,9999.0,,9.0,3.0,30.00,1017.0,,,,,,,,,,,,,,,7/8 Mostly Cloudy,4900.0,,BKN,5000.0,,,,,,
KRDR,06-07-2009,02:00,METAR,,80,4.0,,,9999.0,,10.0,2.0,29.98,1016.3,,,,,,,,,,,,,,,4/8 Partly Cloudy,72000.0,,SCT,5000.0,,,,,,
KRDR,06-07-2009,01:00,METAR,,80,5.0,,,9999.0,,11.0,1.0,29.98,1016.3,,,,,,,,,,,,,,,Clear,72000.0,,,73000.0,,,,,,
KRDR,06-07-2009,00:00,METAR,,110,7.0,,,9999.0,,11.0,0.0,29.97,1016.0,,,,,,,,,,,,,,,Clear,72000.0,,,73000.0,,,,,,
KRDR,06-06-2009,23:00,METAR,,90,7.0,,,9999.0,,11.0,1.0,29.97,1015.8,,,,,,,,,,,,,,,7/8 Mostly Cloudy,6500.0,,BKN,6400.0,,,,,,
KRDR,06-06-2009,22:00,METAR,,120,8.0,,,9999.0,,11.0,0.0,29.97,1015.9,,,,,,,,,,,,,,,Clear,72000.0,,,73000.0,,,,,,
KRDR,06-06-2009,21:00,METAR,,80,10.0,,,9999.0,,11.0,0.0,29.96,1015.5,,,,,,,,,,,,,,,Clear,72000.0,,,73000.0,,,,,,
KRDR,06-06-2009,20:00,METAR,,80,8.0,,,9999.0,,10.0,0.0,29.97,1015.8,,,,,,,,,,,,,,,Clear,72000.0,,,73000.0,,,,,,
KRDR,06-06-2009,19:00,METAR,,90,8.0,,,9999.0,,9.0,0.0,29.99,1016.6,,,,,,,,,,,,,,,Clear,72000.0,,,73000.0,,,,,,
KRDR,06-06-2009,18:00,METAR,,70,9.0,,,9999.0,,8.0,0.0,30.02,1017.5,,,,,,,,,,,,,,,Clear,72000.0,,,73000.0,,,,,,
KRDR,06-06-2009,17:00,METAR,,60,7.0,,,9999.0,,7.0,0.0,30.05,1018.5,,,,,,,,,,,,,,,Clear,72000.0,,,73000.0,,,,,,
KRDR,06-06-2009,16:00,METAR,,30,8.0,,,9999.0,,6.0,0.0,30.07,1019.1,,,,,,,,,,,,,,,Clear,72000.0,,,73000.0,,,,,,
KRDR,06-06-2009,15:00,METAR,,60,8.0,,,9999.0,,6.0,0.0,30.07,1019.0,,,,,,,,,,,,,,,Clear,72000.0,,,73000.0,,,,,,
KRDR,06-06-2009,14:00,METAR,,70,8.0,,,9999.0,,5.0,0.0,30.06,1018.9,,,,,,,,,,,,,,,Clear,72000.0,,,73000.0,,,,,,
KRDR,06-06-2009,13:00,METAR,,70,7.0,,,9999.0,,4.0,0.0,30.06,1018.7,,,,,,,,,,,,,,,Clear,72000.0,,,73000.0,,,,,,
KRDR,06-06-2009,12:00,METAR,,70,6.0,,,9999.0,,3.0,0.0,30.06,1018.7,,,,,,,,,,,,,,,Clear,72000.0,,,73000.0,,,,,,
KRDR,06-06-2009,11:00,METAR,,50,6.0,,,9999.0,,1.0,-1.0,30.05,1018.6,,,,,,,,,,,,,,,Clear,72000.0,,,73000.0,,,,,,
KRDR,06-06-2009,10:00,METAR,,20,6.0,,,9999.0,,-2.0,-2.0,30.04,1018.1,,,,,,,,,,,,,,,Clear,72000.0,,,73000.0,,,,,,
KRDR,06-06-2009,09:00,METAR,,10,6.0,,,9999.0,,-1.0,-2.0,30.06,1018.9,,,,,,,,,,,,,,,Clear,72000.0,,,73000.0,,,,,,
KRDR,06-06-2009,08:00,METAR,,,0.0,,,9999.0,,0.0,-2.0,30.06,1018.7,,,,,,,,,,,,,,,Clear,72000.0,,,73000.0,,,,,,
KRDR,06-06-2009,07:00,METAR,,360,6.0,,,9999.0,,1.0,-2.0,30.07,1019.0,,,,,,,,,,,,,,,Clear,72000.0,,,73000.0,,,,,,
KRDR,06-06-2009,06:00,METAR,,340,3.0,,,9999.0,,2.0,-1.0,30.07,1019.2,,,,,,,,,,,,,,,Clear,72000.0,,,73000.0,,,,,,
KRDR,06-06-2009,05:00,METAR,,20,3.0,,,9999.0,,3.0,-1.0,30.07,1019.1,,,,,,,,,,,,,,,Clear,72000.0,,,73000.0,,,,,,
KRDR,06-06-2009,04:00,METAR,,30,4.0,,,9999.0,,4.0,-1.0,30.07,1019.1,,,,,,,,,,,,,,,Clear,72000.0,,,73000.0,,,,,,
KRDR,06-06-2009,03:00,METAR,,30,7.0,,,9999.0,,6.0,-1.0,30.07,1019.1,,,,,,,,,,,,,,,Clear,72000.0,,,73000.0,,,,,,
KRDR,06-06-2009,02:00,METAR,,30,8.0,,,9999.0,,9.0,0.0,30.07,1019.1,,,,,,,,,,,,,,,Clear,72000.0,,,73000.0,,,,,,
KRDR,06-06-2009,01:00,METAR,,30,9.0,,,9999.0,,10.0,0.0,30.06,1019.0,,,,,,,,,,,,,,,Clear,72000.0,,,73000.0,,,,,,
KRDR,06-06-2009,00:00,METAR,,350,12.0,,,9999.0,,11.0,-1.0,30.06,1018.8,,,,,,,,,,,,,,,2/8 Mostly Clear,72000.0,,FEW,5000.0,FEW,25000.0,,,,
KRDR,06-05-2009,23:00,METAR,,20,14.0,19.0,,9999.0,,12.0,0.0,30.06,1018.7,,,,,,,,,,,,,,,4/8 Partly Cloudy,72000.0,,FEW,5000.0,SCT,25000.0,,,,
KRDR,06-05-2009,22:00,METAR,,10,13.0,17.0,,9999.0,,11.0,0.0,30.07,1019.2,,,,,,,,,,,,,,,4/8 Partly Cloudy,72000.0,,FEW,5000.0,SCT,25000.0,,,,
KRDR,06-05-2009,21:00,METAR,,10,12.0,19.0,,9999.0,,12.0,0.0,30.08,1019.5,,,,,,,,,,,,,,,7/8 Mostly Cloudy,4900.0,,BKN,5000.0,BKN,25000.0,,,,
KRDR,06-05-2009,20:00,METAR,,360,14.0,21.0,,9999.0,,11.0,-1.0,30.09,1019.8,,,,,,,,,,,,,,,7/8 Mostly Cloudy,4500.0,,BKN,4600.0,,,,,,
KRDR,06-05-2009,19:00,METAR,,350,12.0,21.0,,9999.0,,10.0,-1.0,30.10,1020.1,,,,,,,,,,,,,,,7/8 Mostly Cloudy,4300.0,,BKN,4400.0,,,,,,
KRDR,06-05-2009,18:00,METAR,,360,17.0,,,9999.0,,9.0,0.0,30.10,1020.1,,,,,,,,,,,,,,,7/8 Mostly Cloudy,4000.0,,BKN,4100.0,,,,,,
KRDR,06-05-2009,17:00,METAR,,350,16.0,22.0,,9999.0,,8.0,-1.0,30.09,1019.7,,,,,,,,,,,,,,,7/8 Mostly Cloudy,3900.0,,BKN,4000.0,,,,,,
KRDR,06-05-2009,16:00,METAR,,20,19.0,26.0,010/26KTS,9999.0,,8.0,0.0,30.08,1019.4,,,,,,,,,,,,,,,7/8 Mostly Cloudy,3400.0,,BKN,3500.0,,,,,,
KRDR,06-05-2009,15:00,METAR,,10,20.0,24.0,,9999.0,,7.0,0.0,30.07,1019.2,,,,,,,,,,,,,,,7/8 Mostly Cloudy,3000.0,,BKN,3000.0,,,,,,
KRDR,06-05-2009,14:28,SPECI,,350,15.0,23.0,,9999.0,,6.0,0.0,30.07,1019.2,,,,,,,,,,,,,,,7/8 Mostly Cloudy,3000.0,,BKN,3000.0,,,,,,
KRDR,06-05-2009,14:00,METAR,,340,19.0,24.0,,9999.0,,5.0,0.0,30.05,1018.6,,,,,,,,,,,,,,,7/8 Mostly Cloudy,2700.0,,BKN,2700.0,,,,,,
KRDR,06-05-2009,13:00,METAR,,360,18.0,24.0,,9999.0,,5.0,0.0,30.04,1018.3,,,,,,,,,,,,,,,7/8 Mostly Cloudy,2300.0,,BKN,2300.0,,,,,,
KRDR,06-05-2009,12:46,SPECI,,350,16.0,24.0,,9999.0,,4.0,0.0,30.04,1018.1,,,,,,,,,,,,,,,4/8 Partly Cloudy,72000.0,,SCT,2200.0,,,,,,
KRDR,06-05-2009,12:00,METAR,,350,19.0,24.0,360/26KTS,9999.0,,5.0,0.0,30.02,1017.4,,,,,,,,,,,,,,.04 IN,7/8 Mostly Cloudy,2200.0,,BKN,2200.0,,,,,,
KRDR,06-05-2009,11:00,METAR,,10,17.0,24.0,,9999.0,,5.0,3.0,29.99,1016.5,,,,,,,,,,,,,,,8/8 Overcast,2000.0,,OVC,2000.0,,,,,,
KRDR,06-05-2009,10:00,METAR,,350,8.0,,,9999.0,,6.0,4.0,29.97,1015.7,,,,,,,,,,,,,,,7/8 Mostly Cloudy,2400.0,,BKN,2400.0,,,,,,
KRDR,06-05-2009,09:43,SPECI,,350,9.0,,,9999.0,,6.0,4.0,29.96,1015.7,,,,,,,,,,,,,,,7/8 Mostly Cloudy,2400.0,,BKN,2400.0,,,,,,
KRDR,06-05-2009,09:00,METAR,,350,15.0,18.0,,9999.0,,7.0,4.0,29.94,1014.9,,,,,,,,,,,,,,,Clear,72000.0,,,73000.0,,,,,,
KRDR,06-05-2009,08:00,METAR,,340,8.0,,,9999.0,,8.0,5.0,29.92,1014.3,,,,,,,,,,,,,,,Clear,72000.0,,,73000.0,,,,,,
KRDR,06-05-2009,07:00,METAR,,360,15.0,24.0,010/28KTS,9999.0,,9.0,6.0,29.91,1013.8,,,,,,,,,,,,,,,4/8 Partly Cloudy,72000.0,,SCT,7400.0,,,,,,
KRDR,06-05-2009,06:00,METAR,,360,16.0,22.0,,9999.0,,12.0,9.0,29.88,1012.8,,,,,,,,,,,,,.04 IN,,7/8 Mostly Cloudy,7000.0,,BKN,6900.0,,,,,,
KRDR,06-05-2009,05:00,METAR,,330,8.0,,,9999.0,,14.0,10.0,29.84,1011.5,,,,,,,,,,,TRACE,,,,4/8 Partly Cloudy,72000.0,,SCT,9900.0,,,,,,
KRDR,06-05-2009,04:39,SPECI,,320,8.0,,,9999.0,,13.0,11.0,29.84,1011.5,,,,,,,,,,,,,,,4/8 Partly Cloudy,72000.0,,SCT,8900.0,,,,,,
KRDR,06-05-2009,04:15,SPECI,,320,7.0,,,9999.0,,14.0,11.0,29.83,1011.3,,,,,,,,,,,,,,,Clear,72000.0,,,73000.0,,,,,,
KRDR,06-05-2009,04:05,SPECI,,340,7.0,,,9999.0,,14.0,11.0,29.84,1011.5,,,,,,,,,,,,,,,Clear,72000.0,,,73000.0,,,,,,
KRDR,06-05-2009,04:00,METAR,,270,5.0,,,9999.0,Light Rain,14.0,11.0,29.83,1011.2,61,,,,,,,,,,.01 IN,,,,2/8 Mostly Clear,72000.0,,FEW,7900.0,,,,,,
KRDR,06-05-2009,03:38,SPECI,,270,5.0,,,9999.0,Fog or Ice Fog,13.0,12.0,29.81,1010.7,,,,40,,,,,,,,,,,2/8 Mostly Clear,72000.0,,FEW,7900.0,,,,,,
KRDR,06-05-2009,03:22,SPECI,,270,5.0,,,9999.0,,13.0,12.0,29.82,1010.8,,,,,,,,,,,,,,,4/8 Partly Cloudy,72000.0,,SCT,8400.0,,,,,,
KRDR,06-05-2009,03:10,SPECI,,250,4.0,,,9999.0,Rain,12.0,12.0,29.81,1010.7,,,,61,,,,,,,,,,,7/8 Mostly Cloudy,8500.0,,FEW,1100.0,BKN,8400.0,,,,
KRDR,06-05-2009,03:00,METAR,,250,4.0,,,9999.0,,13.0,11.0,29.81,1010.7,,,,,,,,,,,TRACE,.03 IN,,,2/8 Mostly Clear,72000.0,,FEW,9400.0,,,,,,
KRDR,06-05-2009,02:00,METAR,,10,3.0,,,9999.0,,15.0,12.0,29.80,1010.4,,,,,,,,,,,,,,,Clear,72000.0,,,73000.0,,,,,,
KRDR,06-05-2009,01:00,METAR,,290,3.0,,,9999.0,Rain,16.0,11.0,29.84,1011.7,,,,61,,,,,,,TRACE,,,,2/8 Mostly Clear,72000.0,,FEW,9900.0,,,,,,
KRDR,06-05-2009,00:42,SPECI,,360,7.0,,,9999.0,Rain,17.0,10.0,29.83,1011.3,,,,61,,,,,,,,,,,2/8 Mostly Clear,72000.0,,FEW,9900.0,,,,,,
KRDR,06-05-2009,00:00,METAR,,20,15.0,26.0,330/29KTS,9999.0,,18.0,10.0,29.79,1009.8,,,,,,,,,,,TRACE,,TRACE,,8/8 Overcast,10000.0,,FEW,5900.0,BKN,9900.0,OVC,25000.0,,
KRDR,06-04-2009,23:41,SPECI,,10,18.0,21.0,,9999.0,Light Rain Showers,20.0,8.0,29.79,,,,,80,,,,,,,,,,,8/8 Overcast,10000.0,,BKN,9900.0,OVC,25000.0,,,,
KRDR,06-04-2009,23:30,SPECI,,360,17.0,27.0,330/29KTS,9999.0,,21.0,7.0,29.79,1009.8,,,,,,,,,,,,,,,4/8 Partly Cloudy,72000.0,,SCT,9400.0,,,,,,
KRDR,06-04-2009,23:00,METAR,,300,11.0,,,9999.0,,24.0,5.0,29.77,1009.3,,,,,,,,,,,TRACE,,,,7/8 Mostly Cloudy,11000.0,,BKN,11000.0,BKN,25000.0,,,,
KRDR,06-04-2009,22:02,SPECI,,290,14.0,26.0,,9999.0,,25.0,5.0,29.77,,,,,,,,,,,,,,,,7/8 Mostly Cloudy,25000.0,,SCT,9900.0,BKN,25000.0,,,,
KRDR,06-04-2009,22:00,METAR,,310,11.0,,270/30KTS,9999.0,Light Rain Showers,24.0,5.0,29.78,1009.5,,,,80,,,,,,,,,,,7/8 Mostly Cloudy,25000.0,,SCT,9900.0,BKN,25000.0,,,,
KRDR,06-04-2009,21:00,METAR,,280,22.0,29.0,270/35KTS,9999.0,,26.0,3.0,29.79,1009.8,,,,,,,,,,,,,,,7/8 Mostly Cloudy,25000.0,,SCT,9900.0,BKN,25000.0,,,,
KRDR,06-04-2009,20:00,METAR,,260,20.0,32.0,280/33KTS,9999.0,,27.0,3.0,29.80,1010.3,,,,,,,,,,,,,,,7/8 Mostly Cloudy,25000.0,,SCT,9900.0,BKN,25000.0,,,,
KRDR,06-04-2009,19:00,METAR,,270,17.0,26.0,280/30KTS,9999.0,,24.0,3.0,29.82,1011.0,,,,,,,,,,,,,,,7/8 Mostly Cloudy,20000.0,,SCT,12000.0,BKN,20000.0,,,,
KRDR,06-04-2009,18:00,METAR,,270,19.0,27.0,270/27KTS,9999.0,,25.0,5.0,29.85,1011.8,,,,,,,,,,,,,,,7/8 Mostly Cloudy,20000.0,,SCT,12000.0,BKN,20000.0,,,,
KRDR,06-04-2009,17:00,METAR,,290,16.0,24.0,,9999.0,,23.0,5.0,29.87,1012.6,,,,,,,,,,,,,,,7/8 Mostly Cloudy,12000.0,,BKN,12000.0,BKN,20000.0,,,,
KRDR,06-04-2009,16:00,METAR,,270,9.0,18.0,,9999.0,,20.0,6.0,29.90,1013.6,,,,,,,,,,,,,,,7/8 Mostly Cloudy,12000.0,,BKN,12000.0,BKN,21000.0,,,,
KRDR,06-04-2009,15:00,METAR,,280,10.0,18.0,,9999.0,,18.0,6.0,29.92,1014.2,,,,,,,,,,,,,,,7/8 Mostly Cloudy,12000.0,,BKN,12000.0,,,,,,
KRDR,06-04-2009,14:00,METAR,,280,13.0,22.0,,9999.0,,17.0,6.0,29.91,1013.9,,,,,,,,,,,,,,,7/8 Mostly Cloudy,12000.0,,BKN,12000.0,,,,,,
KRDR,06-04-2009,13:00,METAR,,270,15.0,23.0,,9999.0,,15.0,6.0,29.92,1014.1,,,,,,,,,,,,,,,7/8 Mostly Cloudy,13000.0,,BKN,13000.0,,,,,,
KRDR,06-04-2009,12:00,METAR,,270,16.0,,,9999.0,,14.0,6.0,29.92,1014.3,,,,,,,,,,,,,,,7/8 Mostly Cloudy,12000.0,,BKN,12000.0,,,,,,
KRDR,06-04-2009,11:00,METAR,,260,14.0,20.0,,9999.0,,14.0,6.0,29.92,1014.6,,,,,,,,,,,,,,,7/8 Mostly Cloudy,13000.0,,BKN,13000.0,,,,,,
KRDR,06-04-2009,10:00,METAR,,250,15.0,21.0,,9999.0,,13.0,6.0,29.94,1014.9,,,,,,,,,,,,,,,Clear,72000.0,,,73000.0,,,,,,
KRDR,06-04-2009,09:00,METAR,,250,16.0,21.0,,9999.0,,14.0,6.0,29.95,1015.3,,,,,,,,,,,,,,,Clear,72000.0,,,73000.0,,,,,,
KRDR,06-04-2009,08:00,METAR,,250,13.0,,,9999.0,,14.0,5.0,29.96,1015.7,,,,,,,,,,,,,,,Clear,72000.0,,,73000.0,,,,,,
KRDR,06-04-2009,07:00,METAR,,240,11.0,,,9999.0,,14.0,3.0,29.98,1016.2,,,,,,,,,,,,,,,Clear,72000.0,,,73000.0,,,,,,
KRDR,06-04-2009,06:00,METAR,,230,10.0,,,9999.0,,13.0,2.0,30.00,1016.8,,,,,,,,,,,,,,,Clear,72000.0,,,73000.0,,,,,,
KRDR,06-04-2009,05:00,METAR,,210,8.0,,,9999.0,,13.0,1.0,30.01,1017.1,,,,,,,,,,,,,,,Clear,72000.0,,,73000.0,,,,,,
KRDR,06-04-2009,04:00,METAR,,220,5.0,,,9999.0,,13.0,1.0,30.02,1017.6,,,,,,,,,,,,,,,Clear,72000.0,,,73000.0,,,,,,
KRDR,06-04-2009,03:00,METAR,,220,6.0,,,9999.0,,13.0,2.0,30.03,1017.7,,,,,,,,,,,,,,,Clear,72000.0,,,73000.0,,,,,,
KRDR,06-04-2009,02:00,METAR,,240,6.0,,,9999.0,,18.0,2.0,30.04,1018.1,,,,,,,,,,,,,,,Clear,72000.0,,,73000.0,,,,,,
KRDR,06-04-2009,01:00,METAR,,280,10.0,,,9999.0,,21.0,0.0,30.05,1018.4,,,,,,,,,,,,,,,Clear,72000.0,,,73000.0,,,,,,
KRDR,06-04-2009,00:00,METAR,,270,10.0,17.0,,9999.0,,22.0,-1.0,30.06,1018.9,,,,,,,,,,,,,,,4/8 Partly Cloudy,72000.0,,FEW,8900.0,SCT,25000.0,,,,
KRDR,06-03-2009,23:00,METAR,,290,11.0,18.0,,9999.0,,22.0,-1.0,30.08,1019.4,,,,,,,,,,,,,,,4/8 Partly Cloudy,72000.0,,FEW,8900.0,SCT,25000.0,,,,
KRDR,06-03-2009,22:00,METAR,,300,10.0,,,9999.0,,22.0,-1.0,30.09,1019.9,,,,,,,,,,,,,,,4/8 Partly Cloudy,72000.0,,FEW,8900.0,SCT,25000.0,,,,
KRDR,06-03-2009,21:00,METAR,,280,8.0,16.0,,9999.0,,22.0,1.0,30.12,1020.8,,,,,,,,,,,,,,,4/8 Partly Cloudy,72000.0,,FEW,8900.0,SCT,25000.0,,,,
KRDR,06-03-2009,20:00,METAR,,250,10.0,,,9999.0,,22.0,1.0,30.14,1021.5,,,,,,,,,,,,,,,2/8 Mostly Clear,72000.0,,FEW,8400.0,,,,,,
KRDR,06-03-2009,19:00,METAR,,270,10.0,,,9999.0,,21.0,1.0,30.15,1022.2,,,,,,,,,,,,,,,2/8 Mostly Clear,72000.0,,FEW,7400.0,,,,,,
KRDR,06-03-2009,18:00,METAR,,260,5.0,,,9999.0,,21.0,1.0,30.18,1022.9,,,,,,,,,,,,,,,2/8 Mostly Clear,72000.0,,FEW,7400.0,,,,,,
KRDR,06-03-2009,17:00,METAR,,240,9.0,16.0,,9999.0,,20.0,0.0,30.21,1023.7,,,,,,,,,,,,,,,2/8 Mostly Clear,72000.0,,FEW,6900.0,,,,,,
KRDR,06-03-2009,16:00,METAR,,270,9.0,,,9999.0,,19.0,0.0,30.23,1024.4,,,,,,,,,,,,,,,Clear,72000.0,,,73000.0,,,,,,
KRDR,06-03-2009,15:00,METAR,,260,10.0,,,9999.0,,18.0,0.0,30.25,1025.1,,,,,,,,,,,,,,,Clear,72000.0,,,73000.0,,,,,,
KRDR,06-03-2009,14:00,METAR,,260,11.0,,,9999.0,,16.0,1.0,30.25,1025.1,,,,,,,,,,,,,,,Clear,72000.0,,,73000.0,,,,,,
KRDR,06-03-2009,13:00,METAR,,250,10.0,,,9999.0,,12.0,3.0,30.26,1025.4,,,,,,,,,,,,,,,Clear,72000.0,,,73000.0,,,,,,
KRDR,06-03-2009,12:00,METAR,,220,5.0,,,9999.0,,7.0,3.0,30.27,1025.7,,,,,,,,,,,,,,,Clear,72000.0,,,73000.0,,,,,,
KRDR,06-03-2009,11:00,METAR,,200,6.0,,,9999.0,,4.0,0.0,30.27,1025.7,,,,,,,,,,,,,,,Clear,72000.0,,,73000.0,,,,,,
KRDR,06-03-2009,10:00,METAR,,220,5.0,,,9999.0,,4.0,0.0,30.27,1025.8,,,,,,,,,,,,,,,Clear,72000.0,,,73000.0,,,,,,
KRDR,06-03-2009,09:00,METAR,,220,4.0,,,9999.0,,4.0,0.0,30.28,1026.2,,,,,,,,,,,,,,,Clear,72000.0,,,73000.0,,,,,,
KRDR,06-03-2009,08:00,METAR,,230,4.0,,,9999.0,,5.0,1.0,30.28,1026.2,,,,,,,,,,,,,,,Clear,72000.0,,,73000.0,,,,,,
KRDR,06-03-2009,07:00,METAR,,240,4.0,,,9999.0,,4.0,1.0,30.29,1026.4,,,,,,,,,,,,,,,Clear,72000.0,,,73000.0,,,,,,
KRDR,06-03-2009,06:00,METAR,,230,3.0,,,9999.0,,5.0,1.0,30.29,1026.3,,,,,,,,,,,,,,,Clear,72000.0,,,73000.0,,,,,,
KRDR,06-03-2009,05:00,METAR,,,0.0,,,9999.0,,6.0,2.0,30.29,1026.3,,,,,,,,,,,,,,,Clear,72000.0,,,73000.0,,,,,,
KRDR,06-03-2009,04:00,METAR,,160,3.0,,,9999.0,,8.0,2.0,30.29,1026.5,,,,,,,,,,,,,,,Clear,72000.0,,,73000.0,,,,,,
KRDR,06-03-2009,03:00,METAR,,80,4.0,,,9999.0,,12.0,0.0,30.28,1026.2,,,,,,,,,,,,,,,Clear,72000.0,,,73000.0,,,,,,
KRDR,06-03-2009,02:00,METAR,,50,5.0,,,9999.0,,13.0,1.0,30.28,1026.0,,,,,,,,,,,,,,,Clear,72000.0,,,73000.0,,,,,,
KRDR,06-03-2009,01:00,METAR,,20,10.0,,,9999.0,,15.0,0.0,30.27,1025.8,,,,,,,,,,,,,,,Clear,72000.0,,,73000.0,,,,,,
KRDR,06-03-2009,00:00,METAR,,20,11.0,,,9999.0,,16.0,0.0,30.27,1025.8,,,,,,,,,,,,,,,Clear,72000.0,,,73000.0,,,,,,
KRDR,06-02-2009,23:00,METAR,,20,15.0,,,9999.0,,16.0,-1.0,30.28,1026.1,,,,,,,,,,,,,,,Clear,72000.0,,,73000.0,,,,,,
KRDR,06-02-2009,22:00,METAR,,360,10.0,17.0,,9999.0,,16.0,0.0,30.28,1026.2,,,,,,,,,,,,,,,2/8 Mostly Clear,72000.0,,FEW,6900.0,,,,,,
KRDR,06-02-2009,21:00,METAR,,10,13.0,22.0,,9999.0,,16.0,0.0,30.30,1026.6,,,,,,,,,,,,,,,2/8 Mostly Clear,72000.0,,FEW,6900.0,,,,,,
KRDR,06-02-2009,20:00,METAR,,350,13.0,19.0,,9999.0,,16.0,0.0,30.30,1026.7,,,,,,,,,,,,,,,2/8 Mostly Clear,72000.0,,FEW,5900.0,,,,,,
KRDR,06-02-2009,19:00,METAR,,20,11.0,24.0,,9999.0,,15.0,1.0,30.30,1026.9,,,,,,,,,,,,,,,4/8 Partly Cloudy,72000.0,,SCT,5900.0,,,,,,
KRDR,06-02-2009,18:00,METAR,,350,13.0,23.0,,9999.0,,14.0,0.0,30.31,1027.2,,,,,,,,,,,,,,,4/8 Partly Cloudy,72000.0,,SCT,5900.0,,,,,,
KRDR,06-02-2009,17:00,METAR,,350,12.0,19.0,,9999.0,,14.0,0.0,30.31,1027.3,,,,,,,,,,,,,,,4/8 Partly Cloudy,72000.0,,SCT,5000.0,,,,,,
KRDR,06-02-2009,16:00,METAR,,20,18.0,23.0,,9999.0,,13.0,1.0,30.30,1027.1,,,,,,,,,,,,,,,7/8 Mostly Cloudy,4900.0,,BKN,5000.0,,,,,,
KRDR,06-02-2009,15:00,METAR,,360,13.0,,,9999.0,,12.0,2.0,30.31,1027.3,,,,,,,,,,,,,,,4/8 Partly Cloudy,72000.0,,SCT,4000.0,,,,,,
KRDR,06-02-2009,14:00,METAR,,360,13.0,,,9999.0,,11.0,3.0,30.30,1026.9,,,,,,,,,,,,,,,Clear,72000.0,,,73000.0,,,,,,
KRDR,06-02-2009,13:00,METAR,,350,15.0,,,9999.0,,9.0,3.0,30.29,1026.3,,,,,,,,,,,,,,,Clear,72000.0,,,73000.0,,,,,,
KRDR,06-02-2009,12:00,METAR,,340,8.0,,,9999.0,,7.0,4.0,30.26,1025.5,,,,,,,,,,,,,,,2/8 Mostly Clear,72000.0,,FEW,2000.0,,,,,,
KRDR,06-02-2009,11:00,METAR,,340,9.0,,,8000.0,Haze Smoke or Dust,6.0,3.0,30.24,1024.7,4,,,,,,,,,,,,,,Clear,72000.0,,,73000.0,,,,,,
KRDR,06-02-2009,10:08,SPECI,,340,9.0,,,9999.0,Haze Smoke or Dust,6.0,3.0,30.21,1023.7,4,,,,,,,,,,,,,,Clear,72000.0,,,73000.0,,,,,,
KRDR,06-02-2009,10:00,METAR,,350,10.0,,,9999.0,,7.0,4.0,30.20,1023.5,,,,,,,,,,,,,,,Clear,72000.0,,,73000.0,,,,,,
KRDR,06-02-2009,09:00,METAR,,350,11.0,,,9999.0,,7.0,4.0,30.18,1022.8,,,,,,,,,,,,,,,4/8 Partly Cloudy,72000.0,,SCT,2000.0,,,,,,
KRDR,06-02-2009,08:45,SPECI,,350,10.0,,,9999.0,,7.0,4.0,30.18,1022.8,,,,,,,,,,,,,,,4/8 Partly Cloudy,72000.0,,SCT,2000.0,,,,,,
KRDR,06-02-2009,08:35,SPECI,,350,9.0,,,9999.0,,7.0,4.0,30.18,1022.8,,,,,,,,,,,,,,,7/8 Mostly Cloudy,2000.0,,BKN,2000.0,,,,,,
KRDR,06-02-2009,08:00,METAR,,350,13.0,18.0,,9999.0,,8.0,4.0,30.17,1022.6,,,,,,,,,,,,,,,Clear,72000.0,,,73000.0,,,,,,
KRDR,06-02-2009,07:29,SPECI,,350,13.0,,,9999.0,,9.0,4.0,30.17,1022.3,,,,,,,,,,,,,,,4/8 Partly Cloudy,72000.0,,SCT,2300.0,,,,,,
KRDR,06-02-2009,07:00,METAR,,360,12.0,,,9999.0,,9.0,5.0,30.16,1022.0,,,,,,,,,,,,,,,7/8 Mostly Cloudy,1900.0,,BKN,1900.0,,,,,,
KRDR,06-02-2009,06:43,SPECI,,350,12.0,18.0,,9999.0,,9.0,5.0,30.16,1022.1,,,,,,,,,,,,,,,7/8 Mostly Cloudy,1800.0,,BKN,1800.0,,,,,,
KRDR,06-02-2009,06:00,METAR,,10,12.0,,010/28KTS,9999.0,,9.0,7.0,30.13,1021.2,,,,,,,,,,,,,,,7/8 Mostly Cloudy,9500.0,,SCT,1600.0,BKN,9400.0,,,,
KRDR,06-02-2009,05:00,METAR,,10,19.0,23.0,360/27KTS,9999.0,,12.0,7.0,30.09,1019.7,,,,,,,,,,,,,,,4/8 Partly Cloudy,72000.0,,SCT,12000.0,,,,,,
KRDR,06-02-2009,04:18,SPECI,,360,18.0,22.0,,9999.0,,14.0,7.0,30.05,1018.5,,,,,,,,,,,,,,,Clear,72000.0,,,73000.0,,,,,,
KRDR,06-02-2009,04:00,METAR,,330,9.0,,,9999.0,,15.0,5.0,30.03,1017.8,,,,,,,,,,,,,,,7/8 Mostly Cloudy,10000.0,,BKN,9900.0,BKN,20000.0,,,,
KRDR,06-02-2009,03:00,METAR,,330,5.0,,,9999.0,,16.0,6.0,30.00,1017.0,,,,,,,,,,,,,,,7/8 Mostly Cloudy,10000.0,,BKN,9900.0,BKN,20000.0,,,,
KRDR,06-02-2009,02:00,METAR,,360,7.0,,,9999.0,,18.0,6.0,29.98,1016.3,,,,,,,,,,,,,,,7/8 Mostly Cloudy,10000.0,,BKN,9900.0,BKN,20000.0,,,,
KRDR,06-02-2009,01:00,METAR,,340,11.0,,,9999.0,,19.0,6.0,29.98,1016.2,,,,,,,,,,,,,,,7/8 Mostly Cloudy,10000.0,,BKN,9900.0,BKN,20000.0,,,,
KRDR,06-02-2009,00:00,METAR,,310,11.0,,310/26KTS,9999.0,,21.0,6.0,29.96,1015.4,,,,,,,,,,,,,,,7/8 Mostly Cloudy,11000.0,,FEW,5900.0,BKN,11000.0,BKN,20000.0,,
KRDR,06-01-2009,23:00,METAR,,280,11.0,,,9999.0,Precipitation in the Vicinity,21.0,4.0,29.95,1015.2,,,,16,,,,,,,,,,,7/8 Mostly Cloudy,11000.0,,SCT,5000.0,BKN,11000.0,BKN,25000.0,,
KRDR,06-01-2009,22:00,METAR,,240,5.0,,,9999.0,,22.0,8.0,29.95,1015.1,,,,,,,,,,,,,,,7/8 Mostly Cloudy,20000.0,,SCT,5000.0,SCT,12000.0,BKN,20000.0,,
KRDR,06-01-2009,21:00,METAR,,170,4.0,,,9999.0,,21.0,9.0,29.97,1015.9,,,,,,,,,,,,,,,8/8 Overcast,20000.0,,FEW,5000.0,OVC,20000.0,,,,
KRDR,06-01-2009,20:00,METAR,,,4.0,,,9999.0,,20.0,9.0,29.98,1016.2,,,,,,,,,,,,,,,8/8 Overcast,20000.0,,OVC,20000.0,,,,,,
KRDR,06-01-2009,19:00,METAR,,150,5.0,,,9999.0,,18.0,9.0,30.00,1016.8,,,,,,,,,,,,,,,8/8 Overcast,20000.0,,FEW,11000.0,OVC,20000.0,,,,
KRDR,06-01-2009,18:00,METAR,,160,6.0,,,9999.0,,16.0,9.0,29.98,1016.6,,,,,,,,,,,,,,,8/8 Overcast,20000.0,,FEW,9900.0,OVC,20000.0,,,,
KRDR,06-01-2009,17:00,METAR,,,3.0,,,9999.0,,13.0,8.0,29.98,1016.6,,,,,,,,,,,,,,,8/8 Overcast,20000.0,,SCT,9900.0,OVC,20000.0,,,,
KRDR,06-01-2009,16:00,METAR,,160,4.0,,,9999.0,,11.0,8.0,29.97,1016.1,,,,,,,,,,,,,,,8/8 Overcast,11000.0,,BKN,11000.0,OVC,20000.0,,,,
KRDR,06-01-2009,15:34,SPECI,,200,2.0,,,9999.0,,10.0,8.0,29.97,1016.2,,,,,,,,,,,,,,,8/8 Overcast,20000.0,,SCT,500.0,SCT,11000.0,OVC,20000.0,,
KRDR,06-01-2009,15:11,SPECI,,140,3.0,,,9999.0,,9.0,8.0,29.97,1016.1,,,,,,,,,,,,,,,7/8 Mostly Cloudy,500.0,,BKN,500.0,,,,,,
KRDR,06-01-2009,15:00,METAR,,130,3.0,,,9999.0,,9.0,9.0,29.96,1015.9,,,,,,,,,,,,,,,8/8 Overcast,400.0,,BKN,400.0,OVC,900.0,,,,
KRDR,06-01-2009,14:32,SPECI,,140,4.0,,,9999.0,,8.0,8.0,29.96,1015.9,,,,,,,,,,,,,,,8/8 Overcast,400.0,,OVC,400.0,,,,,,
KRDR,06-01-2009,14:17,SPECI,,170,5.0,,,9999.0,,8.0,8.0,29.96,1015.9,,,,,,,,,,,,,,,8/8 Overcast,400.0,,OVC,400.0,,,,,,
KRDR,06-01-2009,14:01,SPECI,,140,6.0,,,9999.0,Mist,8.0,8.0,29.96,1015.6,,,,10,,,,,,,,,,,7/8 Mostly Cloudy,500.0,,BKN,500.0,,,,,,
KRDR,06-01-2009,14:00,METAR,,130,4.0,,,8000.0,Mist,7.0,7.0,29.95,1015.6,,,,10,,,,,,,,,,,8/8 Overcast,600.0,,OVC,600.0,,,,,,
KRDR,06-01-2009,13:46,SPECI,,150,6.0,,,4000.0,Mist,7.0,7.0,29.95,1015.5,,,,10,,,,,,,,,,,7/8 Mostly Cloudy,500.0,,BKN,500.0,,,,,,
KRDR,06-01-2009,13:42,SPECI,,150,6.0,,,3200.0,Mist,7.0,7.0,29.96,1015.5,,,,10,,,,,,,,,,,7/8 Mostly Cloudy,600.0,,BKN,600.0,,,,,,
KRDR,06-01-2009,13:35,SPECI,,150,7.0,,,2800.0,Mist,7.0,7.0,29.95,1015.5,,,,10,,,,,,,,,,,7/8 Mostly Cloudy,800.0,,FEW,500.0,BKN,800.0,,,,
KRDR,06-01-2009,13:30,SPECI,,170,7.0,,,2000.0,Mist,7.0,7.0,29.96,1015.5,,,,10,,,,,,,,,,,4/8 Partly Cloudy,72000.0,,SCT,400.0,,,,,,
KRDR,06-01-2009,13:27,SPECI,,150,6.0,,,1600.0,Mist,7.0,7.0,29.94,1015.2,,,,10,,,,,,,,,,,Sky Obscured (Unable to Estimate),400.0,100.0,,400.0,,,,,,
KRDR,06-01-2009,13:12,SPECI,,150,8.0,,,1200.0,Mist,6.0,6.0,29.93,1014.8,,,,10,,,,,,,,,,,8/8 Overcast,400.0,,OVC,400.0,,,,,,
KRDR,06-01-2009,13:09,SPECI,,140,8.0,,,1600.0,Mist,6.0,6.0,29.93,1014.9,,,,10,,,,,,,,,,,8/8 Overcast,400.0,,OVC,400.0,,,,,,
KRDR,06-01-2009,13:01,SPECI,,110,6.0,,,2000.0,Mist,6.0,6.0,29.94,1015.1,,,,10,,,,,,,,,,,Clear,72000.0,,,73000.0,,,,,,
KRDR,06-01-2009,13:00,METAR,,140,5.0,,,800.0,Fog or Ice Fog,6.0,6.0,29.95,1015.2,,,,44,,,,,,,,,,,8/8 Overcast,400.0,,OVC,400.0,,,,,,
KRDR,06-01-2009,12:54,SPECI,,120,6.0,,,1600.0,Mist,6.0,6.0,29.95,1015.1,,,,10,,,,,,,,,,,Clear,72000.0,,,73000.0,,,,,,
KRDR,06-01-2009,12:43,SPECI,,140,8.0,,,800.0,Fog or Ice Fog,6.0,6.0,29.95,1015.2,,,,45,,,,,,,,,,,Sky Obscured (Unable to Estimate),400.0,100.0,,400.0,,,,,,
KRDR,06-01-2009,12:00,METAR,,90,5.0,,,800.0,Fog or Ice Fog,6.0,6.0,29.94,1014.9,,,,45,,,,,,,,,,IN,Sky Obscured (Unable to Estimate),400.0,100.0,,400.0,,,,,,
KRDR,06-01-2009,11:35,SPECI,,70,9.0,,,800.0,Fog or Ice Fog,6.0,6.0,29.93,1014.7,,,,44,,,,,,,,,,,7/8 Mostly Cloudy,400.0,,BKN,400.0,,,,,,
KRDR,06-01-2009,11:34,SPECI,,70,8.0,,,2400.0,Mist,6.0,6.0,29.92,1014.6,,,,10,,,,,,,,,,,7/8 Mostly Cloudy,600.0,,BKN,600.0,,,,,,
KRDR,06-01-2009,11:21,SPECI,,70,6.0,,,9999.0,,6.0,6.0,29.93,1014.5,,,,,,,,,,,,,,,2/8 Mostly Clear,72000.0,,FEW,600.0,,,,,,
KRDR,06-01-2009,11:00,METAR,,70,4.0,,,9999.0,,6.0,6.0,29.92,1014.3,,,,,,,,,,,,,,,Clear,72000.0,,,73000.0,,,,,,
KRDR,06-01-2009,10:12,SPECI,,50,7.0,,,9999.0,,5.0,5.0,29.92,1014.0,,,,,,,,,,,,,,,Clear,72000.0,,,73000.0,,,,,,
KRDR,06-01-2009,10:03,SPECI,,40,6.0,,,9999.0,,4.0,4.0,29.91,1013.9,,,,,,,,,,,,,,,Clear,72000.0,,,73000.0,,,,,,
KRDR,06-01-2009,10:00,METAR,,40,5.0,,,9999.0,,4.0,4.0,29.90,1013.6,,,,,,,,,,,,,,,Clear,72000.0,,,73000.0,,,,,,
KRDR,06-01-2009,09:00,METAR,,330,4.0,,,9999.0,,4.0,4.0,29.89,1013.2,,,,,,,,,,,,,,,Clear,72000.0,,,73000.0,,,,,,
KRDR,06-01-2009,08:00,METAR,,70,4.0,,,9999.0,,7.0,6.0,29.86,1012.2,,,,,,,,,,,,,,,Clear,72000.0,,,73000.0,,,,,,
KRDR,06-01-2009,07:00,METAR,,,0.0,,,9999.0,,6.0,5.0,29.85,1011.8,,,,,,,,,,,,,,,Clear,72000.0,,,73000.0,,,,,,
KRDR,06-01-2009,06:00,METAR,,90,3.0,,,9999.0,,7.0,5.0,29.84,1011.5,,,,,,,,,,,,,,,Clear,72000.0,,,73000.0,,,,,,
KRDR,06-01-2009,05:00,METAR,,,0.0,,,9999.0,,10.0,7.0,29.83,1011.2,,,,,,,,,,,,,,,Clear,72000.0,,,73000.0,,,,,,
KRDR,06-01-2009,04:00,METAR,,,0.0,,,9999.0,,10.0,7.0,29.82,1010.9,,,,,,,,,,,,,,,Clear,72000.0,,,73000.0,,,,,,
KRDR,06-01-2009,03:00,METAR,,10,7.0,,,9999.0,,11.0,7.0,29.81,1010.5,,,,,,,,,,,,,,,Clear,72000.0,,,73000.0,,,,,,
KRDR,06-01-2009,02:00,METAR,,10,11.0,,,9999.0,,15.0,8.0,29.78,1009.6,,,,,,,,,,,,,,,Clear,72000.0,,,73000.0,,,,,,
KRDR,06-01-2009,01:00,METAR,,350,18.0,22.0,,9999.0,,17.0,8.0,29.75,1008.7,,,,,,,,,,,,,,,Clear,72000.0,,,73000.0,,,,,,
KRDR,06-01-2009,00:00,METAR,,350,19.0,24.0,350/28KTS,9999.0,,19.0,9.0,29.73,1008.0,,,,,,,,,,,,,,,Clear,72000.0,,,73000.0,,,,,,
KRDR,05-31-2009,23:00,METAR,,350,21.0,29.0,340/30KTS,9999.0,,20.0,10.0,29.69,1006.6,,,,,,,,,,,,,,,Clear,72000.0,,,73000.0,,,,,,
KRDR,05-31-2009,22:00,METAR,,360,17.0,22.0,360/30KTS,9999.0,,23.0,13.0,29.65,1005.4,,,,,,,,,,,,,,,Clear,72000.0,,,73000.0,,,,,,
KRDR,05-31-2009,21:00,METAR,,360,15.0,,,9999.0,,25.0,12.0,29.61,1004.1,,,,,,,,,,,,,,,Clear,72000.0,,,73000.0,,,,,,
KRDR,05-31-2009,20:00,METAR,,330,11.0,,,9999.0,,25.0,11.0,29.60,1003.6,,,,,,,,,,,,,,,Clear,72000.0,,,73000.0,,,,,,
KRDR,05-31-2009,19:00,METAR,,,3.0,,,9999.0,,23.0,11.0,29.59,1003.2,,,,,,,,,,,,,,,Clear,72000.0,,,73000.0,,,,,,
KRDR,05-31-2009,18:00,METAR,,130,7.0,,,9999.0,,20.0,11.0,29.60,1003.6,,,,,,,,,,,TRACE,,TRACE,,Clear,72000.0,,,73000.0,,,,,,
KRDR,05-31-2009,17:37,SPECI,,160,8.0,,,9999.0,,18.0,11.0,29.59,1003.2,,,,,,,,,,,,,,,Clear,72000.0,,,73000.0,,,,,,
KRDR,05-31-2009,17:25,SPECI,,130,10.0,,,9999.0,,18.0,11.0,29.57,1002.6,,,,,,,,,,,,,,,Clear,72000.0,,,73000.0,,,,,,
KRDR,05-31-2009,17:13,SPECI,,120,9.0,,,9999.0,,18.0,11.0,29.58,1003.0,,,,,,,,,,,,,,,Clear,72000.0,,,73000.0,,,,,,
KRDR,05-31-2009,17:00,METAR,,120,4.0,,,9999.0,,19.0,10.0,29.64,1004.9,,,,,,,,,,,TRACE,,,,2/8 Mostly Clear,72000.0,,FEW,12000.0,,,,,,
KRDR,05-31-2009,16:54,SPECI,,100,4.0,,,9999.0,,19.0,10.0,29.64,1004.8,,,,,,,,,,,,,,,2/8 Mostly Clear,72000.0,,FEW,12000.0,,,,,,
KRDR,05-31-2009,16:47,SPECI,,,0.0,,,9999.0,,18.0,10.0,29.65,1005.2,,,,,,,,,,,,,,,2/8 Mostly Clear,72000.0,,FEW,12000.0,,,,,,
KRDR,05-31-2009,16:32,SPECI,,150,10.0,,,9999.0,,19.0,9.0,29.61,1004.1,,,,,,,,,,,,,,,2/8 Mostly Clear,72000.0,,FEW,12000.0,,,,,,
KRDR,05-31-2009,16:00,METAR,,150,11.0,,,9999.0,,19.0,9.0,29.62,1004.2,,,,,,,,,,,,,,,Clear,72000.0,,,73000.0,,,,,,
KRDR,05-31-2009,15:00,METAR,,140,10.0,,,9999.0,,16.0,8.0,29.64,1004.9,,,,,,,,,,,TRACE,TRACE,,,2/8 Mostly Clear,72000.0,,FEW,9900.0,,,,,,
KRDR,05-31-2009,14:26,SPECI,,160,13.0,19.0,,9999.0,,13.0,7.0,29.64,1005.1,,,,,,,,,,,,,,,7/8 Mostly Cloudy,10000.0,,BKN,9900.0,,,,,,
KRDR,05-31-2009,14:09,SPECI,,150,15.0,,,9999.0,Rain,14.0,7.0,29.64,1005.1,,,,61,,,,,,,,,,,7/8 Mostly Cloudy,10000.0,,BKN,9900.0,,,,,,
KRDR,05-31-2009,14:00,SPECI,,130,15.0,,,9999.0,Rain,14.0,7.0,29.67,1006.0,,,,61,,,,,,,,,,,7/8 Mostly Cloudy,10000.0,,BKN,9900.0,,,,,,
KRDR,05-31-2009,14:00,METAR,,60,11.0,,,9999.0,,14.0,6.0,29.65,1005.3,,,,,,,,,,,,,,,7/8 Mostly Cloudy,10000.0,,BKN,9900.0,,,,,,
KRDR,05-31-2009,13:54,SPECI,,60,12.0,,,9999.0,Rain,14.0,6.0,29.66,1005.7,,,,61,,,,,,,,,,,7/8 Mostly Cloudy,10000.0,,BKN,9900.0,,,,,,
KRDR,05-31-2009,13:22,SPECI,,160,14.0,,,9999.0,,14.0,6.0,29.66,1005.7,,,,,,,,,,,,,,,Clear,72000.0,,,73000.0,,,,,,
KRDR,05-31-2009,13:00,METAR,,170,19.0,27.0,180/35KTS,9999.0,,13.0,6.0,29.60,1003.8,,,,,,,,,,,TRACE,,,,Clear,72000.0,,,73000.0,,,,,,
KRDR,05-31-2009,12:21,SPECI,,180,26.0,35.0,180/35KTS,9999.0,,12.0,6.0,29.62,1004.4,,,,,,,,,,,,,,,2/8 Mostly Clear,72000.0,,FEW,12000.0,,,,,,
KRDR,05-31-2009,12:03,SPECI,,190,19.0,30.0,180/30KTS,9999.0,,11.0,6.0,29.65,1005.2,,,,,,,,,,,,,,,2/8 Mostly Clear,72000.0,,FEW,12000.0,,,,,,
KRDR,05-31-2009,12:00,METAR,,180,21.0,28.0,180/30KTS,9999.0,,10.0,5.0,29.65,1005.2,,,,,,,,,,,.02 IN,,.02 IN,.02 IN,Clear,72000.0,,,73000.0,,,,,,
KRDR,05-31-2009,11:53,SPECI,,180,19.0,28.0,,9999.0,,10.0,5.0,29.64,1005.1,,,,,,,,,,,,,,,Clear,72000.0,,,73000.0,,,,,,
KRDR,05-31-2009,11:43,SPECI,,180,19.0,30.0,180/30KTS,9999.0,,10.0,5.0,29.65,1005.4,,,,,,,,,,,,,,,Clear,72000.0,,,73000.0,,,,,,
KRDR,05-31-2009,11:35,SPECI,,180,23.0,29.0,180/29KTS,9999.0,,9.0,5.0,29.66,1005.5,,,,,,,,,,,,,,,Clear,72000.0,,,73000.0,,,,,,
KRDR,05-31-2009,11:00,METAR,,140,13.0,,,9999.0,,10.0,4.0,29.76,1009.0,,,,,,,,,,,TRACE,,,,Clear,72000.0,,,73000.0,,,,,,
KRDR,05-31-2009,10:00,METAR,,150,5.0,,,9999.0,Light Rain,10.0,3.0,29.84,1011.5,61,,,,,,,,,,TRACE,,,,4/8 Partly Cloudy,72000.0,,SCT,9400.0,,,,,,
KRDR,05-31-2009,09:48,SPECI,,150,4.0,,,9999.0,,10.0,3.0,29.84,1011.5,,,,,,,,,,,,,,,4/8 Partly Cloudy,72000.0,,SCT,9400.0,,,,,,
KRDR,05-31-2009,09:43,SPECI,,140,5.0,,,9999.0,,11.0,3.0,29.84,1011.4,,,,,,,,,,,,,,,4/8 Partly Cloudy,72000.0,,SCT,9400.0,,,,,,
KRDR,05-31-2009,09:24,SPECI,,120,8.0,,,9999.0,Unknown Precipitation,11.0,3.0,29.83,1011.1,40,,,,,,,,,,,,,,4/8 Partly Cloudy,72000.0,,SCT,11000.0,,,,,,
KRDR,05-31-2009,09:21,SPECI,,110,7.0,,,9999.0,,11.0,3.0,29.83,1011.3,,,,,,,,,,,,,,,7/8 Mostly Cloudy,11000.0,,BKN,11000.0,,,,,,
KRDR,05-31-2009,09:07,SPECI,,110,7.0,,,9999.0,,11.0,2.0,29.85,1011.8,,,,,,,,,,,,,,,7/8 Mostly Cloudy,12000.0,,BKN,12000.0,,,,,,
KRDR,05-31-2009,09:00,METAR,,90,8.0,,,9999.0,,11.0,2.0,29.83,1011.4,,,,,,,,,,,,TRACE,,,8/8 Overcast,12000.0,,OVC,12000.0,,,,,,
KRDR,05-31-2009,08:00,METAR,,160,9.0,,,9999.0,,11.0,2.0,29.83,1011.1,,,,,,,,,,,TRACE,,,,2/8 Mostly Clear,72000.0,,FEW,12000.0,,,,,,
KRDR,05-31-2009,07:02,SPECI,,160,9.0,,,9999.0,,11.0,3.0,29.84,1011.5,,,,,,,,,,,,,,,2/8 Mostly Clear,72000.0,,FEW,12000.0,,,,,,
KRDR,05-31-2009,07:00,METAR,,160,11.0,,,9999.0,,11.0,3.0,29.83,1011.4,,,,,,,,,,,TRACE,,,,2/8 Mostly Clear,72000.0,,FEW,12000.0,,,,,,
KRDR,05-31-2009,06:00,METAR,,170,9.0,,,9999.0,,11.0,3.0,29.86,1012.3,,,,,,,,,,,,,,,Clear,72000.0,,,73000.0,,,,,,
KRDR,05-31-2009,05:00,METAR,,150,8.0,,,9999.0,,11.0,3.0,29.88,1012.9,,,,,,,,,,,,,,,Clear,72000.0,,,73000.0,,,,,,
KRDR,05-31-2009,04:00,METAR,,130,5.0,,,9999.0,,12.0,4.0,29.89,1013.2,,,,,,,,,,,,,,,Clear,72000.0,,,73000.0,,,,,,
KRDR,05-31-2009,03:00,METAR,,110,6.0,,,9999.0,,14.0,4.0,29.90,1013.6,,,,,,,,,,,,,,,7/8 Mostly Cloudy,12000.0,,BKN,12000.0,,,,,,
KRDR,05-31-2009,02:00,METAR,,110,4.0,,,9999.0,,16.0,4.0,29.91,1013.7,,,,,,,,,,,,,,,2/8 Mostly Clear,72000.0,,FEW,11000.0,,,,,,
KRDR,05-31-2009,01:00,METAR,,80,7.0,,,9999.0,,16.0,3.0,29.91,1014.0,,,,,,,,,,,,,,,Clear,72000.0,,,73000.0,,,,,,
KRDR,05-31-2009,00:00,METAR,,70,7.0,,,9999.0,,18.0,3.0,29.93,1014.6,,,,,,,,,,,,,,,Clear,72000.0,,,73000.0,,,,,,
KRDR,05-30-2009,23:00,METAR,,70,5.0,,,9999.0,,18.0,3.0,29.94,1014.9,,,,,,,,,,,,,,,Clear,72000.0,,,73000.0,,,,,,
KRDR,05-30-2009,22:00,METAR,,40,8.0,,,9999.0,,18.0,3.0,29.95,1015.3,,,,,,,,,,,,,,,Clear,72000.0,,,73000.0,,,,,,
KRDR,05-30-2009,21:00,METAR,,,5.0,,,9999.0,,17.0,2.0,29.97,1015.8,,,,,,,,,,,,,,,Clear,72000.0,,,73000.0,,,,,,
KRDR,05-30-2009,20:00,METAR,,20,8.0,,,9999.0,,17.0,1.0,29.98,1016.3,,,,,,,,,,,,,,,Clear,72000.0,,,73000.0,,,,,,
KRDR,05-30-2009,19:00,METAR,,,5.0,,,9999.0,,16.0,1.0,30.01,1017.0,,,,,,,,,,,,,,,Clear,72000.0,,,73000.0,,,,,,
KRDR,05-30-2009,18:00,METAR,,360,9.0,17.0,,9999.0,,16.0,2.0,30.02,1017.4,,,,,,,,,,,,,,,Clear,72000.0,,,73000.0,,,,,,
KRDR,05-30-2009,17:00,METAR,,10,9.0,,,9999.0,,15.0,1.0,30.03,1017.7,,,,,,,,,,,,,,,Clear,72000.0,,,73000.0,,,,,,
KRDR,05-30-2009,16:00,METAR,,20,12.0,,,9999.0,,14.0,0.0,30.03,1017.7,,,,,,,,,,,,,,,Clear,72000.0,,,73000.0,,,,,,
KRDR,05-30-2009,15:00,METAR,,350,9.0,,,9999.0,,13.0,0.0,30.03,1017.9,,,,,,,,,,,,,,,Clear,72000.0,,,73000.0,,,,,,
KRDR,05-30-2009,14:00,METAR,,10,11.0,,,9999.0,,12.0,1.0,30.02,1017.5,,,,,,,,,,,,,,,Clear,72000.0,,,73000.0,,,,,,
KRDR,05-30-2009,13:00,METAR,,350,9.0,,,9999.0,,10.0,3.0,30.02,1017.3,,,,,,,,,,,,,,,Clear,72000.0,,,73000.0,,,,,,
KRDR,05-30-2009,12:00,METAR,,360,7.0,,,9999.0,,8.0,4.0,30.00,1016.7,,,,,,,,,,,,,,,Clear,72000.0,,,73000.0,,,,,,
KRDR,05-30-2009,11:00,METAR,,330,6.0,,,9999.0,,6.0,3.0,29.97,1015.9,,,,,,,,,,,,,,,Clear,72000.0,,,73000.0,,,,,,
KRDR,05-30-2009,10:00,METAR,,310,5.0,,,9999.0,,6.0,4.0,29.95,1015.3,,,,,,,,,,,,,,,Clear,72000.0,,,73000.0,,,,,,
KRDR,05-30-2009,09:00,METAR,,320,5.0,,,9999.0,,6.0,4.0,29.94,1014.7,,,,,,,,,,,,,,,Clear,72000.0,,,73000.0,,,,,,
KRDR,05-30-2009,08:00,METAR,,350,7.0,,,9999.0,,9.0,5.0,29.93,1014.4,,,,,,,,,,,,,,,Clear,72000.0,,,73000.0,,,,,,
KRDR,05-30-2009,07:00,METAR,,360,12.0,,,9999.0,,11.0,5.0,29.90,1013.6,,,,,,,,,,,,,,,Clear,72000.0,,,73000.0,,,,,,
KRDR,05-30-2009,06:00,METAR,,350,7.0,,,9999.0,,10.0,5.0,29.88,1013.0,,,,,,,,,,,,,,,Clear,72000.0,,,73000.0,,,,,,
KRDR,05-30-2009,05:00,METAR,,10,9.0,,,9999.0,,11.0,5.0,29.87,1012.4,,,,,,,,,,,,,,,Clear,72000.0,,,73000.0,,,,,,
KRDR,05-30-2009,04:00,METAR,,10,14.0,23.0,,9999.0,,14.0,5.0,29.84,1011.7,,,,,,,,,,,,,,,Clear,72000.0,,,73000.0,,,,,,
KRDR,05-30-2009,03:00,METAR,,10,15.0,25.0,,9999.0,,18.0,2.0,29.80,1010.3,,,,,,,,,,,,,,,2/8 Mostly Clear,72000.0,,FEW,12000.0,,,,,,
KRDR,05-30-2009,02:00,METAR,,330,12.0,21.0,,9999.0,,22.0,2.0,29.76,1008.8,,,,,,,,,,,,,,,2/8 Mostly Clear,72000.0,,FEW,12000.0,,,,,,
KRDR,05-30-2009,01:00,METAR,,270,8.0,,,9999.0,,22.0,7.0,29.75,1008.4,,,,,,,,,,,,,,,7/8 Mostly Cloudy,12000.0,,BKN,12000.0,BKN,25000.0,,,,
KRDR,05-30-2009,00:00,METAR,,330,5.0,,,9999.0,,24.0,3.0,29.76,1008.8,,,,,,,,,,,,,,,7/8 Mostly Cloudy,11000.0,,BKN,11000.0,BKN,25000.0,,,,
KRDR,05-29-2009,23:00,METAR,,340,12.0,,320/26KTS,9999.0,,23.0,1.0,29.78,1009.6,,,,,,,,,,,,,,,8/8 Overcast,10000.0,,OVC,9900.0,,,,,,
KRDR,05-29-2009,22:00,METAR,,330,14.0,,,9999.0,,24.0,2.0,29.79,1010.0,,,,,,,,,,,,,,,8/8 Overcast,11000.0,,BKN,11000.0,OVC,25000.0,,,,
KRDR,05-29-2009,21:00,METAR,,290,16.0,25.0,,9999.0,,24.0,0.0,29.81,1010.5,,,,,,,,,,,,,,,7/8 Mostly Cloudy,11000.0,,BKN,11000.0,BKN,25000.0,,,,
KRDR,05-29-2009,20:00,METAR,,310,17.0,23.0,290/30KTS,9999.0,,25.0,2.0,29.83,1011.4,,,,,,,,,,,,,,,7/8 Mostly Cloudy,20000.0,,SCT,9900.0,BKN,20000.0,,,,
KRDR,05-29-2009,19:00,METAR,,300,22.0,29.0,300/31KTS,9999.0,,24.0,1.0,29.85,1012.0,,,,,,,,,,,,,,,7/8 Mostly Cloudy,25000.0,,SCT,6400.0,BKN,25000.0,,,,
KRDR,05-29-2009,18:00,METAR,,310,14.0,24.0,300/28KTS,9999.0,,24.0,0.0,29.87,1012.6,,,,,,,,,,,,,,,7/8 Mostly Cloudy,22000.0,,SCT,6400.0,SCT,12000.0,BKN,22000.0,,
KRDR,05-29-2009,17:00,METAR,,290,14.0,22.0,,9999.0,,24.0,4.0,29.89,1013.2,,,,,,,,,,,,,,,4/8 Partly Cloudy,72000.0,,SCT,22000.0,,,,,,
KRDR,05-29-2009,16:00,METAR,,270,9.0,,,9999.0,,21.0,9.0,29.91,1013.9,,,,,,,,,,,,,,,4/8 Partly Cloudy,72000.0,,FEW,9900.0,SCT,22000.0,,,,
KRDR,05-29-2009,15:00,METAR,,240,10.0,,,9999.0,,18.0,9.0,29.94,1014.8,,,,,,,,,,,,,,,4/8 Partly Cloudy,72000.0,,FEW,9900.0,SCT,20000.0,,,,
KRDR,05-29-2009,14:00,METAR,,190,11.0,,,9999.0,,15.0,7.0,29.96,1015.6,,,,,,,,,,,,,,,4/8 Partly Cloudy,72000.0,,FEW,9900.0,SCT,20000.0,,,,
KRDR,05-29-2009,13:00,METAR,,190,7.0,,,9999.0,,11.0,8.0,29.98,1016.1,,,,,,,,,,,,,,,4/8 Partly Cloudy,72000.0,,FEW,9900.0,SCT,20000.0,,,,
KRDR,05-29-2009,12:00,METAR,,170,4.0,,,9999.0,,8.0,7.0,29.99,1016.5,,,,,,,,,,,,,,,7/8 Mostly Cloudy,20000.0,,SCT,9900.0,BKN,20000.0,,,,
KRDR,05-29-2009,11:00,METAR,,230,3.0,,,9999.0,,6.0,5.0,29.99,1016.4,,,,,,,,,,,,,,,Clear,72000.0,,,73000.0,,,,,,
KRDR,05-29-2009,10:00,METAR,,260,3.0,,,9999.0,,5.0,4.0,29.99,1016.6,,,,,,,,,,,,,,,Clear,72000.0,,,73000.0,,,,,,
KRDR,05-29-2009,09:00,METAR,,210,8.0,,,9999.0,,6.0,5.0,29.98,1016.1,,,,,,,,,,,,,,,4/8 Partly Cloudy,72000.0,,SCT,9400.0,,,,,,
KRDR,05-29-2009,08:00,METAR,,350,4.0,,,9999.0,,5.0,5.0,30.00,1016.9,,,,,,,,,,,,,,,2/8 Mostly Clear,72000.0,,FEW,12000.0,,,,,,
KRDR,05-29-2009,07:00,METAR,,270,3.0,,,9999.0,,5.0,4.0,29.98,1016.1,,,,,,,,,,,,,,,Clear,72000.0,,,73000.0,,,,,,
KRDR,05-29-2009,06:00,METAR,,,0.0,,,9999.0,,6.0,5.0,29.98,1016.2,,,,,,,,,,,,,,,Clear,72000.0,,,73000.0,,,,,,
KRDR,05-29-2009,05:00,METAR,,,0.0,,,9999.0,,7.0,6.0,29.98,1016.3,,,,,,,,,,,,,,,4/8 Partly Cloudy,72000.0,,SCT,11000.0,,,,,,
KRDR,05-29-2009,04:00,METAR,,,0.0,,,9999.0,,8.0,6.0,29.98,1016.3,,,,,,,,,,,,,,,Clear,72000.0,,,73000.0,,,,,,
KRDR,05-29-2009,03:00,METAR,,10,3.0,,,9999.0,,10.0,6.0,29.97,1016.0,,,,,,,,,,,,,,,Clear,72000.0,,,73000.0,,,,,,
KRDR,05-29-2009,02:00,METAR,,10,6.0,,,9999.0,,12.0,7.0,29.96,1015.6,,,,,,,,,,,,,,,Clear,72000.0,,,73000.0,,,,,,
KRDR,05-29-2009,01:00,METAR,,20,9.0,,,9999.0,,15.0,7.0,29.95,1015.3,,,,,,,,,,,,,,,2/8 Mostly Clear,72000.0,,FEW,11000.0,,,,,,
KRDR,05-29-2009,00:00,METAR,,20,8.0,,,9999.0,,15.0,7.0,29.95,1015.1,,,,,,,,,,,,,TRACE,,2/8 Mostly Clear,72000.0,,FEW,11000.0,,,,,,
KRDR,05-28-2009,23:00,METAR,,20,8.0,,,9999.0,,15.0,7.0,29.94,1014.8,,,,,,,,,,,,,,,7/8 Mostly Cloudy,11000.0,,BKN,11000.0,,,,,,
KRDR,05-28-2009,22:00,METAR,,10,10.0,,,9999.0,,15.0,8.0,29.94,1015.0,,,,,,,,,,,TRACE,,,,8/8 Overcast,10000.0,,OVC,9900.0,,,,,,
KRDR,05-28-2009,21:35,SPECI,,30,8.0,,,9999.0,,14.0,8.0,29.95,1015.1,,,,,,,,,,,,,,,8/8 Overcast,9500.0,,OVC,9400.0,,,,,,
KRDR,05-28-2009,21:13,SPECI,,10,11.0,,,9999.0,Rain,16.0,8.0,29.95,1015.0,,,,61,,,,,,,,,,,8/8 Overcast,9500.0,,OVC,9400.0,,,,,,
KRDR,05-28-2009,21:00,METAR,,360,10.0,,,9999.0,,16.0,9.0,29.94,1014.9,,,,,,,,,,,,,,,8/8 Overcast,9500.0,,FEW,2500.0,OVC,9400.0,,,,
KRDR,05-28-2009,20:00,METAR,,340,11.0,,,9999.0,,15.0,8.0,29.93,1014.4,,,,,,,,,,,,,,,7/8 Mostly Cloudy,10000.0,,FEW,2300.0,BKN,9900.0,,,,
KRDR,05-28-2009,19:00,METAR,,360,12.0,,,9999.0,,15.0,9.0,29.93,1014.6,,,,,,,,,,,,,,,8/8 Overcast,4700.0,,FEW,2000.0,OVC,4800.0,,,,
KRDR,05-28-2009,18:00,METAR,,10,13.0,,,9999.0,,14.0,9.0,29.92,1014.1,,,,,,,,,,,,,,,7/8 Mostly Cloudy,10000.0,,FEW,2000.0,SCT,5000.0,BKN,9900.0,,
KRDR,05-28-2009,17:00,METAR,,10,14.0,,,9999.0,,15.0,10.0,29.91,1013.8,,,,,,,,,,,,,,,7/8 Mostly Cloudy,10000.0,,SCT,1900.0,SCT,6900.0,BKN,9900.0,,
KRDR,05-28-2009,16:00,METAR,,10,14.0,21.0,,9999.0,,16.0,10.0,29.90,1013.5,,,,,,,,,,,,,,,4/8 Partly Cloudy,72000.0,,FEW,1900.0,SCT,9900.0,,,,
KRDR,05-28-2009,15:00,METAR,,10,16.0,,,9999.0,,16.0,9.0,29.88,1013.0,,,,,,,,,,,,,,,2/8 Mostly Clear,72000.0,,FEW,1500.0,FEW,11000.0,,,,
KRDR,05-28-2009,14:00,METAR,,10,14.0,,,9999.0,,15.0,10.0,29.86,1012.3,,,,,,,,,,,,,,,Clear,72000.0,,,73000.0,,,,,,
KRDR,05-28-2009,13:00,METAR,,360,14.0,19.0,,9999.0,,14.0,9.0,29.84,1011.5,,,,,,,,,,,,,,,Clear,72000.0,,,73000.0,,,,,,
KRDR,05-28-2009,12:00,METAR,,330,10.0,,,9999.0,,13.0,8.0,29.81,1010.7,,,,,,,,,,,,,,,2/8 Mostly Clear,72000.0,,FEW,9900.0,,,,,,
KRDR,05-28-2009,11:00,METAR,,230,4.0,,,9999.0,,8.0,8.0,29.78,1009.9,,,,,,,,,,,,,,,2/8 Mostly Clear,72000.0,,FEW,9900.0,,,,,,
KRDR,05-28-2009,10:00,METAR,,180,8.0,,,9999.0,,10.0,9.0,29.77,1009.3,,,,,,,,,,,,,,,Clear,72000.0,,,73000.0,,,,,,
KRDR,05-28-2009,09:00,METAR,,200,8.0,,,9999.0,,12.0,9.0,29.78,1009.5,,,,,,,,,,,,,,,4/8 Partly Cloudy,72000.0,,SCT,12000.0,,,,,,
KRDR,05-28-2009,08:00,METAR,,190,9.0,,,9999.0,,12.0,10.0,29.78,1009.6,,,,,,,,,,,,,,,7/8 Mostly Cloudy,12000.0,,BKN,12000.0,,,,,,
KRDR,05-28-2009,07:00,METAR,,200,11.0,,,9999.0,,13.0,10.0,29.80,1010.1,,,,,,,,,,,,,,,8/8 Overcast,9500.0,,OVC,9400.0,,,,,,
KRDR,05-28-2009,06:00,METAR,,190,10.0,,,9999.0,,13.0,10.0,29.80,1010.1,,,,,,,,,,,,,,,4/8 Partly Cloudy,72000.0,,SCT,9900.0,,,,,,
KRDR,05-28-2009,05:00,METAR,,180,11.0,,,9999.0,,13.0,10.0,29.80,1010.2,,,,,,,,,,,,,,,Clear,72000.0,,,73000.0,,,,,,
KRDR,05-28-2009,04:00,METAR,,170,6.0,,,9999.0,,13.0,8.0,29.80,1010.3,,,,,,,,,,,,,,,Clear,72000.0,,,73000.0,,,,,,
KRDR,05-28-2009,03:00,METAR,,160,8.0,,,9999.0,,14.0,9.0,29.80,1010.3,,,,,,,,,,,,,,,Clear,72000.0,,,73000.0,,,,,,
KRDR,05-28-2009,02:00,METAR,,150,7.0,,,9999.0,,16.0,10.0,29.82,1010.8,,,,,,,,,,,,,,,Clear,72000.0,,,73000.0,,,,,,
KRDR,05-28-2009,01:00,METAR,,150,9.0,,,9999.0,,19.0,10.0,29.83,1011.1,,,,,,,,,,,,,,,Clear,72000.0,,,73000.0,,,,,,
KRDR,05-28-2009,00:00,METAR,,160,6.0,,,9999.0,,20.0,9.0,29.83,1011.2,,,,,,,,,,,,,,,Clear,72000.0,,,73000.0,,,,,,
KRDR,05-27-2009,23:00,METAR,,170,5.0,,,9999.0,,20.0,9.0,29.85,1011.9,,,,,,,,,,,,,,,Clear,72000.0,,,73000.0,,,,,,
KRDR,05-27-2009,22:00,METAR,,130,7.0,,,9999.0,,19.0,9.0,29.87,1012.4,,,,,,,,,,,,,,,Clear,72000.0,,,73000.0,,,,,,
KRDR,05-27-2009,21:00,METAR,,160,7.0,,,9999.0,,19.0,7.0,29.89,1013.2,,,,,,,,,,,,,,,2/8 Mostly Clear,72000.0,,FEW,25000.0,,,,,,
KRDR,05-27-2009,20:00,METAR,,120,6.0,,,9999.0,,18.0,8.0,29.91,1014.0,,,,,,,,,,,,,,,Clear,72000.0,,,73000.0,,,,,,
KRDR,05-27-2009,19:00,METAR,,,0.0,,,9999.0,,17.0,8.0,29.94,1014.7,,,,,,,,,,,,,,,2/8 Mostly Clear,72000.0,,FEW,25000.0,,,,,,
KRDR,05-27-2009,18:00,METAR,,,0.0,,,9999.0,,16.0,7.0,29.95,1015.4,,,,,,,,,,,,,,,Clear,72000.0,,,73000.0,,,,,,
KRDR,05-27-2009,17:00,METAR,,,0.0,,,9999.0,,14.0,7.0,29.97,1015.9,,,,,,,,,,,,,,,2/8 Mostly Clear,72000.0,,FEW,2000.0,,,,,,
KRDR,05-27-2009,16:00,METAR,,160,3.0,,,9999.0,,13.0,7.0,29.99,1016.6,,,,,,,,,,,,,,,2/8 Mostly Clear,72000.0,,FEW,2000.0,,,,,,
KRDR,05-27-2009,15:00,METAR,,90,4.0,,,9999.0,,12.0,7.0,30.01,1017.1,,,,,,,,,,,,,,,4/8 Partly Cloudy,72000.0,,SCT,1600.0,,,,,,
KRDR,05-27-2009,14:00,METAR,,100,4.0,,,9999.0,,10.0,7.0,30.01,1017.3,,,,,,,,,,,,,,,4/8 Partly Cloudy,72000.0,,SCT,1300.0,,,,,,
KRDR,05-27-2009,13:00,METAR,,70,4.0,,,9999.0,,9.0,9.0,30.02,1017.4,,,,,,,,,,,,,,,Clear,72000.0,,,73000.0,,,,,,
KRDR,05-27-2009,12:00,METAR,,,0.0,,,9999.0,,5.0,5.0,30.02,1017.5,,,,,,,,,,,,,,,Clear,72000.0,,,73000.0,,,,,,
KRDR,05-27-2009,11:41,SPECI,,,0.0,,,4800.0,Mist,4.0,4.0,30.02,1017.5,,,,10,,,,,,,,,,,Clear,72000.0,,,73000.0,,,,,,
KRDR,05-27-2009,11:30,SPECI,,,0.0,,,1600.0,Mist,3.0,3.0,30.02,1017.4,,,,10,,,,,,,,,,,Clear,72000.0,,,73000.0,,,,,,
KRDR,05-27-2009,11:06,SPECI,,,0.0,,,400.0,Fog or Ice Fog,2.0,2.0,30.01,1017.2,,,,44,,,,,,,,,,,Clear,72000.0,,,73000.0,,,,,,
KRDR,05-27-2009,11:00,METAR,,,0.0,,,400.0,Fog,2.0,2.0,30.01,1017.1,30,,,,,,,,,,,,,,Clear,72000.0,,,73000.0,,,,,,
KRDR,05-27-2009,10:47,SPECI,,,0.0,,,400.0,Fog,2.0,2.0,30.01,1017.2,30,,,,,,,,,,,,,,Clear,72000.0,,,73000.0,,,,,,
KRDR,05-27-2009,10:27,SPECI,,,0.0,,,400.0,Fog,4.0,4.0,30.01,1017.1,30,,,,,,,,,,,,,,Clear,72000.0,,,73000.0,,,,,,
KRDR,05-27-2009,10:24,SPECI,,,0.0,,,400.0,Fog,4.0,4.0,30.01,1017.1,30,,,,,,,,,,,,,,Clear,72000.0,,,73000.0,,,,,,
KRDR,05-27-2009,10:22,SPECI,,,0.0,,,400.0,Fog,4.0,4.0,30.01,1017.1,30,,,,,,,,,,,,,,Clear,72000.0,,,73000.0,,,,,,
KRDR,05-27-2009,10:20,SPECI,,,0.0,,,400.0,Fog,4.0,4.0,30.01,1017.1,30,,,,,,,,,,,,,,Clear,72000.0,,,73000.0,,,,,,
KRDR,05-27-2009,10:11,SPECI,,,0.0,,,800.0,Fog,4.0,4.0,30.01,1017.1,30,,,,,,,,,,,,,,Clear,72000.0,,,73000.0,,,,,,
KRDR,05-27-2009,10:00,METAR,,,0.0,,,1200.0,Mist,4.0,4.0,30.01,1017.2,10,,,,,,,,,,,,,,Clear,72000.0,,,73000.0,,,,,,
KRDR,05-27-2009,09:47,SPECI,,330,3.0,,,1200.0,Mist,4.0,4.0,30.01,1017.2,10,,,,,,,,,,,,,,Clear,72000.0,,,73000.0,,,,,,
KRDR,05-27-2009,09:43,SPECI,,,0.0,,,1600.0,Mist,4.0,4.0,30.01,1017.3,10,,,,,,,,,,,,,,Clear,72000.0,,,73000.0,,,,,,
KRDR,05-27-2009,09:41,SPECI,,,0.0,,,2000.0,Mist,4.0,4.0,30.01,1017.3,10,,,,,,,,,,,,,,Clear,72000.0,,,73000.0,,,,,,
KRDR,05-27-2009,09:35,SPECI,,,0.0,,,2400.0,Mist,4.0,4.0,30.01,1017.3,10,,,,,,,,,,,,,,Clear,72000.0,,,73000.0,,,,,,
KRDR,05-27-2009,09:29,SPECI,,330,3.0,,,2000.0,Mist,4.0,4.0,30.02,1017.4,10,,,,,,,,,,,,,,Clear,72000.0,,,73000.0,,,,,,
KRDR,05-27-2009,09:26,SPECI,,340,3.0,,,2800.0,Mist,4.0,4.0,30.02,1017.4,10,,,,,,,,,,,,,,Clear,72000.0,,,73000.0,,,,,,
KRDR,05-27-2009,09:24,SPECI,,340,3.0,,,4000.0,Mist,4.0,4.0,30.02,1017.4,10,,,,,,,,,,,,,,Clear,72000.0,,,73000.0,,,,,,
KRDR,05-27-2009,09:12,SPECI,,330,3.0,,,6400.0,Mist,4.0,4.0,30.02,1017.5,10,,,,,,,,,,,,,,Clear,72000.0,,,73000.0,,,,,,
KRDR,05-27-2009,09:08,SPECI,,,0.0,,,6400.0,Mist,4.0,4.0,30.02,1017.6,10,,,,,,,,,,,,,,Clear,72000.0,,,73000.0,,,,,,
KRDR,05-27-2009,09:00,METAR,,310,3.0,,,9999.0,,5.0,5.0,30.03,1017.7,,,,,,,,,,,,,,,Clear,72000.0,,,73000.0,,,,,,
KRDR,05-27-2009,08:00,METAR,,,0.0,,,8000.0,Mist,5.0,4.0,30.03,1017.9,10,,,,,,,,,,,,,,7/8 Mostly Cloudy,3500.0,,BKN,3600.0,,,,,,
KRDR,05-27-2009,07:49,SPECI,,,0.0,,,4800.0,Mist,5.0,5.0,30.03,1018.0,10,,,,,,,,,,,,,,7/8 Mostly Cloudy,3500.0,,BKN,3600.0,,,,,,
KRDR,05-27-2009,07:46,SPECI,,,0.0,,,3200.0,Mist,5.0,5.0,30.03,1018.0,10,,,,,,,,,,,,,,7/8 Mostly Cloudy,3500.0,,BKN,3600.0,,,,,,
KRDR,05-27-2009,07:41,SPECI,,,0.0,,,2400.0,Mist,5.0,5.0,30.03,1018.0,10,,,,,,,,,,,,,,4/8 Partly Cloudy,72000.0,,SCT,3600.0,,,,,,
KRDR,05-27-2009,07:36,SPECI,,,0.0,,,2000.0,Mist,6.0,6.0,30.04,1018.0,10,,,,,,,,,,,,,,4/8 Partly Cloudy,72000.0,,SCT,3600.0,,,,,,
KRDR,05-27-2009,07:33,SPECI,,,0.0,,,2800.0,Mist,6.0,6.0,30.04,1018.0,10,,,,,,,,,,,,,,4/8 Partly Cloudy,72000.0,,SCT,3600.0,,,,,,
KRDR,05-27-2009,07:30,SPECI,,,0.0,,,4000.0,Mist,6.0,6.0,30.04,1018.0,10,,,,,,,,,,,,,,2/8 Mostly Clear,72000.0,,FEW,3600.0,,,,,,
KRDR,05-27-2009,07:00,METAR,,,0.0,,,9999.0,,7.0,7.0,30.04,1018.1,,,,,,,,,,,,,,,4/8 Partly Cloudy,72000.0,,SCT,3800.0,,,,,,
KRDR,05-27-2009,06:00,METAR,,,0.0,,,9999.0,,8.0,8.0,30.04,1018.3,,,,,,,,,,,,,,,8/8 Overcast,3500.0,,OVC,3600.0,,,,,,
KRDR,05-27-2009,05:37,SPECI,,,0.0,,,6400.0,Mist,6.0,6.0,30.05,1018.3,10,,,,,,,,,,,,,,7/8 Mostly Cloudy,3400.0,,BKN,3500.0,,,,,,
KRDR,05-27-2009,05:33,SPECI,,,0.0,,,4800.0,Mist,6.0,6.0,30.04,1018.3,10,,,,,,,,,,,,,,7/8 Mostly Cloudy,3400.0,,BKN,3500.0,,,,,,
KRDR,05-27-2009,05:00,METAR,,190,3.0,,,9999.0,,8.0,8.0,30.04,1018.2,,,,,,,,,,,,,,,Clear,72000.0,,,73000.0,,,,,,
KRDR,05-27-2009,04:00,METAR,,130,3.0,,,9999.0,,11.0,9.0,30.04,1018.0,,,,,,,,,,,,,,,4/8 Partly Cloudy,72000.0,,SCT,3800.0,,,,,,
KRDR,05-27-2009,03:00,METAR,,100,3.0,,,9999.0,,12.0,9.0,30.02,1017.5,,,,,,,,,,,,,,,4/8 Partly Cloudy,72000.0,,SCT,4500.0,,,,,,
KRDR,05-27-2009,02:00,METAR,,80,4.0,,,9999.0,,15.0,10.0,30.00,1017.0,,,,,,,,,,,,,,,7/8 Mostly Cloudy,4700.0,,BKN,4800.0,,,,,,
KRDR,05-27-2009,01:00,METAR,,20,10.0,,,9999.0,,16.0,9.0,30.00,1016.8,,,,,,,,,,,,,,,7/8 Mostly Cloudy,4900.0,,BKN,5000.0,,,,,,
KRDR,05-27-2009,00:00,METAR,,30,9.0,,,9999.0,,16.0,9.0,30.00,1016.7,,,,,,,,,,,,,,,7/8 Mostly Cloudy,4300.0,,BKN,4400.0,,,,,,
KRDR,05-26-2009,23:00,METAR,,30,12.0,,,9999.0,,16.0,9.0,29.99,1016.5,,,,,,,,,,,,,,,7/8 Mostly Cloudy,4100.0,,BKN,4200.0,,,,,,
KRDR,05-26-2009,22:00,METAR,,20,13.0,20.0,,9999.0,,17.0,9.0,29.99,1016.6,,,,,,,,,,,,,,,7/8 Mostly Cloudy,3600.0,,BKN,3700.0,,,,,,
KRDR,05-26-2009,21:00,METAR,,10,17.0,24.0,,9999.0,,16.0,9.0,29.99,1016.5,,,,,,,,,,,,,,,7/8 Mostly Cloudy,3500.0,,BKN,3600.0,,,,,,
KRDR,05-26-2009,20:20,SPECI,,30,20.0,,,9999.0,,15.0,8.0,29.99,1016.5,,,,,,,,,,,,,,,7/8 Mostly Cloudy,3300.0,,BKN,3400.0,,,,,,
KRDR,05-26-2009,20:00,METAR,,30,19.0,24.0,,9999.0,,15.0,9.0,29.99,1016.6,,,,,,,,,,,,,,,8/8 Overcast,2700.0,,BKN,2700.0,OVC,3600.0,,,,
KRDR,05-26-2009,19:00,METAR,,20,17.0,22.0,,9999.0,,13.0,8.0,29.99,1016.6,,,,,,,,,,,,,,,8/8 Overcast,2400.0,,OVC,2400.0,,,,,,
KRDR,05-26-2009,18:00,METAR,,10,18.0,22.0,,9999.0,,12.0,8.0,29.99,1016.5,,,,,,,,,,,,,,,8/8 Overcast,1900.0,,OVC,1900.0,,,,,,
KRDR,05-26-2009,17:00,METAR,,360,17.0,23.0,020/26KTS,9999.0,,11.0,8.0,29.98,1016.3,,,,,,,,,,,,,,,8/8 Overcast,1800.0,,OVC,1800.0,,,,,,
KRDR,05-26-2009,16:00,METAR,,10,17.0,25.0,360/28KTS,9999.0,,10.0,7.0,29.97,1015.9,,,,,,,,,,,,,,,8/8 Overcast,1500.0,,OVC,1500.0,,,,,,
KRDR,05-26-2009,15:39,SPECI,,10,18.0,28.0,360/28KTS,9999.0,,10.0,7.0,29.97,1015.8,,,,,,,,,,,,,,,8/8 Overcast,1500.0,,OVC,1500.0,,,,,,
KRDR,05-26-2009,15:30,SPECI,,10,20.0,25.0,010/27KTS,9999.0,,10.0,7.0,29.97,1015.7,,,,,,,,,,,,,,,8/8 Overcast,1400.0,,OVC,1400.0,,,,,,
KRDR,05-26-2009,15:00,METAR,,10,20.0,24.0,010/27KTS,9999.0,,10.0,8.0,29.95,1015.3,,,,,,,,,,,,,,,8/8 Overcast,1600.0,,OVC,1600.0,,,,,,
KRDR,05-26-2009,14:46,SPECI,,10,19.0,27.0,010/27KTS,9999.0,,10.0,7.0,29.95,1015.2,,,,,,,,,,,,,,,8/8 Overcast,1600.0,,OVC,1600.0,,,,,,
KRDR,05-26-2009,14:00,METAR,,360,19.0,24.0,,9999.0,,9.0,8.0,29.94,1014.8,,,,,,,,,,,,,,,8/8 Overcast,1200.0,,OVC,1200.0,,,,,,
KRDR,05-26-2009,13:36,SPECI,,360,18.0,23.0,,9999.0,,8.0,8.0,29.94,1014.7,,,,,,,,,,,,,,,8/8 Overcast,1200.0,,OVC,1200.0,,,,,,
KRDR,05-26-2009,13:24,SPECI,,350,17.0,24.0,,9999.0,,8.0,8.0,29.93,1014.6,,,,,,,,,,,,,,,8/8 Overcast,1000.0,,OVC,1000.0,,,,,,
KRDR,05-26-2009,13:00,METAR,,360,16.0,22.0,,9999.0,,8.0,8.0,29.92,1014.2,,,,,,,,,,,,,,,8/8 Overcast,500.0,,OVC,500.0,,,,,,
KRDR,05-26-2009,12:47,SPECI,,360,14.0,,,9999.0,,8.0,8.0,29.92,1014.2,,,,,,,,,,,,,,,8/8 Overcast,500.0,,OVC,500.0,,,,,,
KRDR,05-26-2009,12:21,SPECI,,350,16.0,,,8000.0,Mist,8.0,8.0,29.91,1013.8,,,,10,,,,,,,,,,,8/8 Overcast,500.0,,OVC,500.0,,,,,,
KRDR,05-26-2009,12:12,SPECI,,360,11.0,,,6400.0,Mist,8.0,8.0,29.91,1013.8,,,,10,,,,,,,,,,,8/8 Overcast,700.0,,OVC,700.0,,,,,,
KRDR,05-26-2009,12:05,SPECI,,360,11.0,16.0,,8000.0,Mist,8.0,8.0,29.91,1013.7,,,,10,,,,,,,,,,,8/8 Overcast,900.0,,OVC,900.0,,,,,,
KRDR,05-26-2009,12:00,METAR,,360,12.0,,,9999.0,,8.0,8.0,29.90,1013.5,,,,,,,,,,,,,,.73 IN,8/8 Overcast,1300.0,,OVC,1300.0,,,,,,
KRDR,05-26-2009,11:34,SPECI,,360,13.0,19.0,,9999.0,,8.0,8.0,29.90,1013.4,,,,,,,,,,,,,,,8/8 Overcast,1100.0,,SCT,500.0,OVC,1100.0,,,,
KRDR,05-26-2009,11:00,METAR,,360,11.0,,,9999.0,,7.0,7.0,29.88,1012.9,,,,,,,,,,,,,,,8/8 Overcast,800.0,,OVC,800.0,,,,,,
KRDR,05-26-2009,10:41,SPECI,,360,12.0,,,9999.0,,7.0,7.0,29.88,1012.8,,,,,,,,,,,,,,,8/8 Overcast,900.0,,OVC,900.0,,,,,,
KRDR,05-26-2009,10:33,SPECI,,10,11.0,,,9999.0,,7.0,7.0,29.87,1012.7,,,,,,,,,,,,,,,8/8 Overcast,1100.0,,OVC,1100.0,,,,,,
KRDR,05-26-2009,10:13,SPECI,,10,12.0,,,9999.0,,7.0,7.0,29.87,1012.5,,,,,,,,,,,,,,,8/8 Overcast,1400.0,,OVC,1400.0,,,,,,
KRDR,05-26-2009,10:07,SPECI,,10,12.0,,,9999.0,,7.0,7.0,29.86,1012.4,,,,,,,,,,,,,,,8/8 Overcast,1600.0,,SCT,900.0,OVC,1600.0,,,,
KRDR,05-26-2009,10:00,METAR,,10,11.0,,,9999.0,,7.0,7.0,29.86,1012.2,,,,,,,,,,,,,,,8/8 Overcast,1000.0,,OVC,1000.0,,,,,,
KRDR,05-26-2009,09:53,SPECI,,10,10.0,,,9999.0,,7.0,7.0,29.86,1012.2,,,,,,,,,,,,,,,8/8 Overcast,1200.0,,OVC,1200.0,,,,,,
KRDR,05-26-2009,09:18,SPECI,,10,14.0,,,9999.0,,7.0,7.0,29.85,1011.8,,,,,,,,,,,,,,,8/8 Overcast,1000.0,,OVC,1000.0,,,,,,
KRDR,05-26-2009,09:00,METAR,,10,13.0,19.0,,9999.0,,7.0,7.0,29.84,1011.5,,,,,,,,,,,,,,,8/8 Overcast,700.0,,OVC,700.0,,,,,,
KRDR,05-26-2009,08:20,SPECI,,10,17.0,22.0,,9999.0,,8.0,8.0,29.83,1011.1,,,,,,,,,,,,,,,8/8 Overcast,700.0,,OVC,700.0,,,,,,
KRDR,05-26-2009,08:13,SPECI,,10,14.0,20.0,,9999.0,,8.0,8.0,29.83,1011.1,,,,,,,,,,,,,,,8/8 Overcast,600.0,,OVC,600.0,,,,,,
KRDR,05-26-2009,08:11,SPECI,,10,14.0,20.0,,9999.0,,8.0,8.0,29.82,1011.1,,,,,,,,,,,,,,,8/8 Overcast,700.0,,OVC,700.0,,,,,,
KRDR,05-26-2009,08:00,METAR,,10,16.0,19.0,,9999.0,,8.0,8.0,29.82,1010.8,,,,,,,,,,,,,,,8/8 Overcast,600.0,,OVC,600.0,,,,,,
KRDR,05-26-2009,07:50,SPECI,,10,17.0,,,9999.0,,8.0,8.0,29.82,1010.8,,,,,,,,,,,,,,,8/8 Overcast,600.0,,OVC,600.0,,,,,,
KRDR,05-26-2009,07:39,SPECI,,10,15.0,20.0,,9999.0,,8.0,8.0,29.81,1010.7,,,,,,,,,,,,,,,8/8 Overcast,500.0,,OVC,500.0,,,,,,
KRDR,05-26-2009,07:12,SPECI,,10,18.0,24.0,,9999.0,,8.0,8.0,29.81,1010.5,,,,,,,,,,,,,,,8/8 Overcast,600.0,,OVC,600.0,,,,,,
KRDR,05-26-2009,07:00,METAR,,10,18.0,22.0,,9999.0,,8.0,8.0,29.80,1010.3,,,,,,,,,,,,,,,8/8 Overcast,500.0,,OVC,500.0,,,,,,
KRDR,05-26-2009,06:14,SPECI,,360,18.0,24.0,,9999.0,,8.0,8.0,29.79,1010.0,,,,,,,,,,,,,,,8/8 Overcast,500.0,,OVC,500.0,,,,,,
KRDR,05-26-2009,06:00,METAR,,10,17.0,23.0,,9999.0,,8.0,8.0,29.80,1010.1,,,,,,,,,,,,,.02 IN,,8/8 Overcast,500.0,,OVC,500.0,,,,,,
KRDR,05-26-2009,05:32,SPECI,,360,17.0,,,9999.0,,8.0,8.0,29.79,1010.0,,,,,,,,,,,,,,,8/8 Overcast,500.0,,OVC,500.0,,,,,,
KRDR,05-26-2009,05:00,METAR,,10,15.0,,,9999.0,,9.0,9.0,29.78,1009.7,,,,,,,,,,,,,,,8/8 Overcast,600.0,,OVC,600.0,,,,,,
KRDR,05-26-2009,04:41,SPECI,,10,15.0,,,9999.0,,9.0,9.0,29.78,1009.6,,,,,,,,,,,,,,,8/8 Overcast,600.0,,OVC,600.0,,,,,,
KRDR,05-26-2009,04:00,METAR,,20,14.0,,,9999.0,,9.0,9.0,29.76,1009.0,,,,,,,,,,,TRACE,,,,8/8 Overcast,500.0,,OVC,500.0,,,,,,
KRDR,05-26-2009,03:27,SPECI,,30,16.0,23.0,,9999.0,,9.0,9.0,29.75,1008.7,,,,,,,,,,,,,,,8/8 Overcast,500.0,,OVC,500.0,,,,,,
KRDR,05-26-2009,03:23,SPECI,,30,17.0,23.0,,9999.0,,9.0,9.0,29.75,1008.7,,,,,,,,,,,,,,,8/8 Overcast,500.0,,OVC,500.0,,,,,,
KRDR,05-26-2009,03:16,SPECI,,30,19.0,,,9999.0,Mist,9.0,9.0,29.75,1008.5,10,,,,,,,,,,,,,,8/8 Overcast,600.0,,OVC,600.0,,,,,,
KRDR,05-26-2009,03:14,SPECI,,30,18.0,22.0,,9999.0,Mist,9.0,9.0,29.75,1008.6,10,,,,,,,,,,,,,,8/8 Overcast,400.0,,OVC,400.0,,,,,,
KRDR,05-26-2009,03:03,SPECI,,30,16.0,23.0,,6400.0,Light Rain/Mist,9.0,9.0,29.75,1008.6,61,10,,,,,,,,,,,,,8/8 Overcast,400.0,,OVC,400.0,,,,,,
KRDR,05-26-2009,03:00,METAR,,30,18.0,24.0,,4800.0,Light Rain/Mist,9.0,9.0,29.74,1008.3,61,10,,,,,,,,,.02 IN,.02 IN,,,8/8 Overcast,400.0,,OVC,400.0,,,,,,
KRDR,05-26-2009,02:48,SPECI,,30,16.0,23.0,,4800.0,Light Rain/Mist,9.0,9.0,29.74,1008.3,61,10,,,,,,,,,,,,,8/8 Overcast,400.0,,OVC,400.0,,,,,,
KRDR,05-26-2009,02:46,SPECI,,30,18.0,23.0,,6400.0,Light Rain/Mist,9.0,9.0,29.74,1008.3,61,10,,,,,,,,,,,,,8/8 Overcast,500.0,,OVC,500.0,,,,,,
KRDR,05-26-2009,02:43,SPECI,,30,19.0,23.0,,6400.0,Light Rain/Mist,9.0,9.0,29.74,1008.3,61,10,,,,,,,,,,,,,8/8 Overcast,500.0,,OVC,500.0,,,,,,
KRDR,05-26-2009,02:32,SPECI,,30,18.0,24.0,,9999.0,Light Rain,9.0,9.0,29.74,1008.2,61,,,,,,,,,,,,,,8/8 Overcast,400.0,,OVC,400.0,,,,,,
KRDR,05-26-2009,02:30,SPECI,,30,18.0,24.0,,9999.0,Light Rain,9.0,9.0,29.74,1008.2,61,,,,,,,,,,,,,,8/8 Overcast,500.0,,OVC,500.0,,,,,,
KRDR,05-26-2009,02:00,METAR,,30,15.0,,,9999.0,Light Rain,10.0,10.0,29.73,1008.0,61,,,,,,,,,,TRACE,,,,8/8 Overcast,400.0,,OVC,400.0,,,,,,
KRDR,05-26-2009,01:47,SPECI,,20,14.0,,,9999.0,Unknown Precipitation,10.0,10.0,29.73,1008.0,40,,,,,,,,,,,,,,8/8 Overcast,500.0,,OVC,500.0,,,,,,
KRDR,05-26-2009,01:43,SPECI,,30,14.0,,,9999.0,,10.0,10.0,29.73,1007.9,,,,,,,,,,,,,,,8/8 Overcast,500.0,,OVC,500.0,,,,,,
KRDR,05-26-2009,01:39,SPECI,,30,15.0,,,9999.0,,10.0,10.0,29.73,1007.9,,,,,,,,,,,,,,,8/8 Overcast,600.0,,OVC,600.0,,,,,,
KRDR,05-26-2009,01:25,SPECI,,20,12.0,,,9999.0,,10.0,10.0,29.73,1007.8,,,,,,,,,,,,,,,8/8 Overcast,900.0,,OVC,900.0,,,,,,
KRDR,05-26-2009,01:23,SPECI,,20,13.0,,,9999.0,Light Drizzle,10.0,10.0,29.73,1007.8,51,,,,,,,,,,,,,,8/8 Overcast,900.0,,OVC,900.0,,,,,,
KRDR,05-26-2009,01:09,SPECI,,30,13.0,,,9999.0,Light Rain,11.0,11.0,29.72,1007.5,61,,,,,,,,,,,,,,8/8 Overcast,1100.0,,OVC,1100.0,,,,,,
KRDR,05-26-2009,01:00,SPECI,,30,15.0,,,9999.0,Light Rain,11.0,10.0,29.72,1007.6,61,,,,,,,,,,,,,,8/8 Overcast,1400.0,,OVC,1400.0,,,,,,
KRDR,05-26-2009,01:00,METAR,,30,13.0,,,9999.0,,11.0,10.0,29.72,1007.6,,,,,,,,,,,,,,,8/8 Overcast,1300.0,,SCT,1000.0,OVC,2000.0,,,,
KRDR,05-26-2009,00:54,SPECI,,30,14.0,,,9999.0,Light Drizzle,11.0,10.0,29.72,1007.6,51,,,,,,,,,,,,,,8/8 Overcast,1000.0,,OVC,1700.0,,,,,,
KRDR,05-26-2009,00:47,SPECI,,30,15.0,,,9999.0,,11.0,10.0,29.72,1007.6,,,,,,,,,,,,,,,8/8 Overcast,1400.0,,SCT,1000.0,OVC,2100.0,,,,
KRDR,05-26-2009,00:31,SPECI,,30,14.0,,,9999.0,,11.0,10.0,29.72,1007.5,,,,,,,,,,,,,,,8/8 Overcast,1500.0,,OVC,1500.0,,,,,,
KRDR,05-26-2009,00:29,SPECI,,30,17.0,,,9999.0,,11.0,10.0,29.72,1007.5,,,,,,,,,,,,,,,8/8 Overcast,1300.0,,OVC,1300.0,,,,,,
KRDR,05-26-2009,00:27,SPECI,,30,15.0,,,9999.0,,11.0,10.0,29.72,1007.5,,,,,,,,,,,,,,,8/8 Overcast,1100.0,,OVC,1100.0,,,,,,
KRDR,05-26-2009,00:15,SPECI,,20,16.0,,,9999.0,,11.0,10.0,29.72,1007.7,,,,,,,,,,,,,,,8/8 Overcast,900.0,,OVC,900.0,,,,,,
KRDR,05-26-2009,00:00,METAR,,20,13.0,,,9999.0,,11.0,11.0,29.71,1007.4,,,,,,,,,,,,,.03 IN,,8/8 Overcast,1000.0,,OVC,1000.0,,,,,,
KRDR,05-25-2009,23:47,SPECI,,20,14.0,,,9999.0,,11.0,11.0,29.72,1007.5,,,,,,,,,,,,,,,8/8 Overcast,1100.0,,OVC,1100.0,,,,,,
KRDR,05-25-2009,23:45,SPECI,,20,14.0,,,9999.0,,11.0,11.0,29.72,1007.5,,,,,,,,,,,,,,,8/8 Overcast,1300.0,,OVC,1300.0,,,,,,
KRDR,05-25-2009,23:36,SPECI,,20,13.0,,,9999.0,,11.0,11.0,29.72,1007.6,,,,,,,,,,,,,,,8/8 Overcast,1600.0,,OVC,1600.0,,,,,,
KRDR,05-25-2009,23:26,SPECI,,20,14.0,,,9999.0,,11.0,11.0,29.72,1007.6,,,,,,,,,,,,,,,8/8 Overcast,1400.0,,OVC,1400.0,,,,,,
KRDR,05-25-2009,23:16,SPECI,,30,12.0,,,9999.0,,11.0,11.0,29.72,1007.4,,,,,,,,,,,,,,,8/8 Overcast,1700.0,,OVC,1700.0,,,,,,
KRDR,05-25-2009,23:14,SPECI,,30,12.0,,,9999.0,,11.0,11.0,29.71,1007.4,,,,,,,,,,,,,,,8/8 Overcast,1400.0,,OVC,1400.0,,,,,,
KRDR,05-25-2009,23:11,SPECI,,20,13.0,,,9999.0,,11.0,11.0,29.71,1007.4,,,,,,,,,,,,,,,8/8 Overcast,900.0,,BKN,900.0,OVC,3400.0,,,,
KRDR,05-25-2009,23:09,SPECI,,10,13.0,,,9999.0,,11.0,11.0,29.72,1007.5,,,,,,,,,,,,,,,8/8 Overcast,1400.0,,OVC,1400.0,,,,,,
KRDR,05-25-2009,23:00,METAR,,30,15.0,,,9999.0,,11.0,11.0,29.71,1007.3,,,,,,,,,,,TRACE,,,,8/8 Overcast,900.0,,BKN,900.0,OVC,4000.0,,,,
KRDR,05-25-2009,22:50,SPECI,,20,14.0,,,9999.0,,11.0,11.0,29.72,1007.5,,,,,,,,,,,,,,,8/8 Overcast,900.0,,BKN,900.0,OVC,4000.0,,,,
KRDR,05-25-2009,22:47,SPECI,,20,15.0,,,9999.0,,12.0,11.0,29.72,1007.5,,,,,,,,,,,,,,,8/8 Overcast,2300.0,,OVC,2300.0,,,,,,
KRDR,05-25-2009,22:43,SPECI,,20,14.0,,,9999.0,Light Rain,12.0,11.0,29.71,1007.4,61,,,,,,,,,,,,,,8/8 Overcast,2500.0,,OVC,2500.0,,,,,,
KRDR,05-25-2009,22:40,SPECI,,20,13.0,,,9999.0,Light Rain,12.0,11.0,29.71,1007.4,61,,,,,,,,,,,,,,8/8 Overcast,3900.0,,SCT,900.0,OVC,4000.0,,,,
KRDR,05-25-2009,22:36,SPECI,,20,12.0,,,9999.0,Light Rain,12.0,12.0,29.72,1007.5,61,,,,,,,,,,,,,,8/8 Overcast,900.0,,BKN,900.0,OVC,3900.0,,,,
KRDR,05-25-2009,22:20,SPECI,,30,11.0,,,9999.0,,12.0,12.0,29.72,1007.5,,,,,,,,,,,,,,,8/8 Overcast,3700.0,,FEW,1000.0,OVC,3800.0,,,,
KRDR,05-25-2009,22:00,METAR,,40,11.0,,,9999.0,,12.0,12.0,29.72,1007.6,,,,,,,,,,,,,,,8/8 Overcast,4000.0,,OVC,4100.0,,,,,,
KRDR,05-25-2009,21:00,METAR,,70,10.0,,,9999.0,,13.0,12.0,29.74,1008.2,,,,,,,,,,,,.03 IN,,,8/8 Overcast,3600.0,,OVC,3700.0,,,,,,
KRDR,05-25-2009,20:00,METAR,,70,10.0,,,9999.0,,13.0,13.0,29.76,1008.8,,,,,,,,,,,.01 IN,,,,4/8 Partly Cloudy,72000.0,,SCT,3900.0,,,,,,
KRDR,05-25-2009,19:42,SPECI,,70,10.0,,,9999.0,,13.0,13.0,29.76,1008.8,,,,,,,,,,,,,,,Clear,72000.0,,,73000.0,,,,,,
KRDR,05-25-2009,19:00,METAR,,100,11.0,,,6400.0,Light Rain/Mist,12.0,11.0,29.78,1009.7,61,10,,,,,,,,,.02 IN,,,,4/8 Partly Cloudy,72000.0,,SCT,2400.0,,,,,,
KRDR,05-25-2009,18:48,SPECI,,110,13.0,17.0,,9999.0,Light Rain/Mist,12.0,11.0,29.78,1009.6,61,10,,,,,,,,,,,,,4/8 Partly Cloudy,72000.0,,SCT,2700.0,,,,,,
KRDR,05-25-2009,18:28,SPECI,,60,8.0,,,9999.0,Light Drizzle,12.0,10.0,29.81,1010.5,51,,,,,,,,,,,,,,8/8 Overcast,1300.0,,OVC,2900.0,,,,,,
KRDR,05-25-2009,18:00,METAR,,130,15.0,,,9999.0,Light Rain,13.0,10.0,29.80,1010.1,61,,,,,,,,,,TRACE,,.68 IN,,8/8 Overcast,3800.0,,OVC,3900.0,,,,,,
KRDR,05-25-2009,17:41,SPECI,,130,15.0,22.0,,9999.0,Unknown Precipitation,13.0,10.0,29.80,1010.2,40,,,,,,,,,,,,,,8/8 Overcast,3800.0,,OVC,3900.0,,,,,,
KRDR,05-25-2009,17:00,METAR,,120,19.0,24.0,130/27KTS,9999.0,,12.0,9.0,29.80,1010.2,,,,,,,,,,,,,,,8/8 Overcast,3800.0,,OVC,3900.0,,,,,,
KRDR,05-25-2009,16:00,METAR,,120,19.0,26.0,110/26KTS,9999.0,,11.0,10.0,29.81,1010.6,,,,,,,,,,,.04 IN,,,,8/8 Overcast,4200.0,,OVC,4300.0,,,,,,
KRDR,05-25-2009,15:23,SPECI,,120,14.0,24.0,,9999.0,,10.0,10.0,29.84,1011.6,,,,,,,,,,,,,,,8/8 Overcast,4900.0,,OVC,5000.0,,,,,,
KRDR,05-25-2009,15:05,SPECI,,120,17.0,,,4800.0,Light Rain/Mist,10.0,9.0,29.86,1012.1,61,10,,,,,,,,,,,,,8/8 Overcast,5500.0,,SCT,3200.0,OVC,5400.0,,,,
KRDR,05-25-2009,15:02,SPECI,,120,18.0,,,4000.0,Light Rain/Mist,10.0,9.0,29.86,1012.3,61,10,,,,,,,,,,,,,8/8 Overcast,5500.0,,SCT,2700.0,OVC,5400.0,,,,
KRDR,05-25-2009,15:00,METAR,,100,14.0,,,2800.0,Rain/Mist,10.0,9.0,29.88,1013.0,62,10,,,,,,,,,.28 IN,.64 IN,,,8/8 Overcast,2800.0,,BKN,2800.0,OVC,5400.0,,,,
KRDR,05-25-2009,14:49,SPECI,,100,13.0,,,4000.0,Rain/Mist,10.0,9.0,29.88,1013.0,62,10,,,,,,,,,,,,,8/8 Overcast,3000.0,,BKN,3000.0,OVC,5400.0,,,,
KRDR,05-25-2009,14:39,SPECI,,100,16.0,,,4800.0,Light Rain/Mist,10.0,9.0,29.87,1012.5,61,10,,,,,,,,,,,,,7/8 Mostly Cloudy,2100.0,,BKN,2100.0,BKN,5900.0,,,,
KRDR,05-25-2009,14:26,SPECI,,80,11.0,,,4000.0,Rain/Mist,10.0,9.0,29.91,1013.8,62,10,,,,,,,,,,,,,7/8 Mostly Cloudy,2900.0,,BKN,2900.0,BKN,6900.0,,,,
KRDR,05-25-2009,14:05,SPECI,,100,12.0,,,4800.0,Light Rain/Mist,10.0,9.0,29.91,1013.9,61,10,,,,,,,,,,,,,8/8 Overcast,3900.0,,BKN,4000.0,OVC,5400.0,,,,
KRDR,05-25-2009,14:00,METAR,,80,7.0,,,4000.0,Light Rain/Mist,10.0,9.0,29.95,1015.2,61,10,,,,,,,,,.21 IN,,,,8/8 Overcast,3100.0,,OVC,3100.0,,,,,,
KRDR,05-25-2009,13:46,SPECI,,90,7.0,,,4000.0,Light Rain/Mist,10.0,9.0,29.95,1015.1,61,10,,,,,,,,,,,,,8/8 Overcast,3500.0,,BKN,3600.0,OVC,5400.0,,,,
KRDR,05-25-2009,13:41,SPECI,,100,11.0,,,4000.0,Light Rain/Mist,10.0,9.0,29.94,1014.8,61,10,,,,,,,,,,,,,8/8 Overcast,3300.0,,BKN,3400.0,OVC,5900.0,,,,
KRDR,05-25-2009,13:24,SPECI,,110,11.0,,,4000.0,Rain/Mist,10.0,9.0,29.94,1014.8,62,10,,,,,,,,,,,,,8/8 Overcast,4200.0,,BKN,4300.0,OVC,6400.0,,,,
KRDR,05-25-2009,13:00,METAR,,110,10.0,,,6400.0,Light Rain/Mist,10.0,9.0,29.96,1015.5,61,10,,,,,,,,,.15 IN,,,,7/8 Mostly Cloudy,4200.0,,BKN,4300.0,,,,,,
KRDR,05-25-2009,12:28,SPECI,,90,6.0,,,4800.0,Rain/Mist,10.0,9.0,29.98,1016.1,62,10,,,,,,,,,,,,,8/8 Overcast,3600.0,,BKN,3700.0,OVC,4800.0,,,,
KRDR,05-25-2009,12:16,SPECI,,80,7.0,,,4000.0,Rain,11.0,8.0,29.97,1015.9,62,,,,,,,,,,,,,,7/8 Mostly Cloudy,3800.0,,BKN,3900.0,,,,,,
KRDR,05-25-2009,12:00,METAR,,110,9.0,,,9999.0,Light Rain,11.0,8.0,29.95,1015.3,61,,,,,,,,,,.02 IN,,.13 IN,.13 IN,8/8 Overcast,7000.0,,OVC,6900.0,,,,,,
KRDR,05-25-2009,11:00,METAR,,110,11.0,,,9999.0,,11.0,8.0,29.96,1015.6,,,,,,,,,,,.04 IN,,,,Clear,72000.0,,,73000.0,,,,,,
KRDR,05-25-2009,10:00,METAR,,110,5.0,,,9999.0,Light Rain,11.0,8.0,30.00,1016.9,61,,,,,,,,,,.07 IN,,,,4/8 Partly Cloudy,72000.0,,SCT,5400.0,,,,,,
KRDR,05-25-2009,09:08,SPECI,,80,5.0,,,9999.0,,13.0,6.0,30.01,1017.3,,,,,,,,,,,,,,,Clear,72000.0,,,73000.0,,,,,,
KRDR,05-25-2009,09:00,METAR,,60,4.0,,,9999.0,,13.0,4.0,30.02,1017.6,,,,,,,,,,,TRACE,TRACE,,,Clear,72000.0,,,73000.0,,,,,,
KRDR,05-25-2009,08:44,SPECI,,,0.0,,,9999.0,,13.0,4.0,30.03,1017.7,,,,,,,,,,,,,,,Clear,72000.0,,,73000.0,,,,,,
KRDR,05-25-2009,08:42,SPECI,,80,3.0,,,9999.0,,13.0,4.0,30.03,1017.7,,,,,,,,,,,,,,,2/8 Mostly Clear,72000.0,,FEW,8400.0,,,,,,
KRDR,05-25-2009,08:33,SPECI,,,0.0,,,9999.0,,13.0,4.0,30.03,1017.7,,,,,,,,,,,,,,,2/8 Mostly Clear,72000.0,,FEW,8900.0,,,,,,
KRDR,05-25-2009,08:00,METAR,,140,5.0,,,9999.0,,14.0,2.0,30.01,1017.0,,,,,,,,,,,,,,,7/8 Mostly Cloudy,9000.0,,BKN,8900.0,,,,,,
KRDR,05-25-2009,07:00,METAR,,120,7.0,,,9999.0,,15.0,2.0,30.00,1017.0,,,,,,,,,,,,,,,7/8 Mostly Cloudy,8000.0,,BKN,7900.0,,,,,,
KRDR,05-25-2009,06:00,METAR,,120,8.0,,,9999.0,,15.0,1.0,30.02,1017.5,,,,,,,,,,,,,,,7/8 Mostly Cloudy,9000.0,,BKN,8900.0,,,,,,
KRDR,05-25-2009,05:00,METAR,,100,8.0,,,9999.0,,15.0,1.0,30.02,1017.6,,,,,,,,,,,,,,,Clear,72000.0,,,73000.0,,,,,,
KRDR,05-25-2009,04:00,METAR,,100,7.0,,,9999.0,,16.0,0.0,30.05,1018.6,,,,,,,,,,,,,,,4/8 Partly Cloudy,72000.0,,SCT,9400.0,,,,,,
KRDR,05-25-2009,03:00,METAR,,100,8.0,,,9999.0,,16.0,0.0,30.05,1018.4,,,,,,,,,,,,,,,Clear,72000.0,,,73000.0,,,,,,
KRDR,05-25-2009,02:00,METAR,,110,7.0,,,9999.0,,18.0,1.0,30.04,1018.1,,,,,,,,,,,,,,,Clear,72000.0,,,73000.0,,,,,,
KRDR,05-25-2009,01:00,METAR,,130,8.0,,,9999.0,,20.0,1.0,30.04,1018.2,,,,,,,,,,,,,,,Clear,72000.0,,,73000.0,,,,,,
KRDR,05-25-2009,00:00,METAR,,130,9.0,,,9999.0,,20.0,-1.0,30.04,1018.3,,,,,,,,,,,,,,,Clear,72000.0,,,73000.0,,,,,,
KRDR,05-24-2009,23:00,METAR,,140,4.0,,,9999.0,,21.0,-1.0,30.07,1019.1,,,,,,,,,,,,,,,Clear,72000.0,,,73000.0,,,,,,
KRDR,05-24-2009,22:10,SPECI,,110,7.0,,,4800.0,Haze Smoke or Dust,21.0,-1.0,30.08,1019.5,4,,,,,,,,,,,,,,Clear,72000.0,,,73000.0,,,,,,
KRDR,05-24-2009,22:08,SPECI,,,4.0,,,4000.0,Haze Smoke or Dust,21.0,-1.0,30.08,1019.6,4,,,,,,,,,,,,,,Clear,72000.0,,,73000.0,,,,,,
KRDR,05-24-2009,22:00,METAR,,130,4.0,,,3200.0,Haze Smoke or Dust,21.0,-1.0,30.09,1019.8,4,,,,,,,,,,,,,,Clear,72000.0,,,73000.0,,,,,,
KRDR,05-24-2009,21:47,SPECI,,150,8.0,16.0,,4000.0,Haze Smoke or Dust,21.0,-1.0,30.09,1019.9,4,,,,,,,,,,,,,,Clear,72000.0,,,73000.0,,,,,,
KRDR,05-24-2009,21:19,SPECI,,110,6.0,,,4800.0,Haze Smoke or Dust,21.0,-1.0,30.10,1020.3,4,,,,,,,,,,,,,,Clear,72000.0,,,73000.0,,,,,,
KRDR,05-24-2009,21:15,SPECI,,130,8.0,,,2400.0,Haze Smoke or Dust,21.0,-1.0,30.11,1020.4,4,,,,,,,,,,,,,,Clear,72000.0,,,73000.0,,,,,,
KRDR,05-24-2009,21:13,SPECI,,140,8.0,,,2000.0,Haze Smoke or Dust,21.0,-1.0,30.11,1020.4,4,,,,,,,,,,,,,,Clear,72000.0,,,73000.0,,,,,,
KRDR,05-24-2009,21:09,SPECI,,160,6.0,,,1600.0,Haze Smoke or Dust,21.0,-1.0,30.11,1020.4,4,,,,,,,,,,,,,,Clear,72000.0,,,73000.0,,,,,,
KRDR,05-24-2009,21:06,SPECI,,150,8.0,,,1200.0,Haze Smoke or Dust,21.0,0.0,30.11,1020.4,4,,,,,,,,,,,,,,Clear,72000.0,,,73000.0,,,,,,
KRDR,05-24-2009,21:03,SPECI,,,6.0,,,1200.0,Haze Smoke or Dust,21.0,0.0,30.11,1020.4,4,,,,,,,,,,,,,,Clear,72000.0,,,73000.0,,,,,,
KRDR,05-24-2009,21:02,SPECI,,180,5.0,,,800.0,Haze Smoke or Dust,21.0,0.0,30.11,1020.4,5,,,,,,,,,,,,,,Clear,72000.0,,,73000.0,,,,,,
KRDR,05-24-2009,21:00,METAR,,190,7.0,,,2800.0,Haze Smoke or Dust,21.0,0.0,30.11,1020.5,4,,,,,,,,,,,,,,Clear,72000.0,,,73000.0,,,,,,
KRDR,05-24-2009,20:55,SPECI,,210,5.0,,,1600.0,Haze Smoke or Dust,21.0,0.0,30.11,1020.5,4,,,,,,,,,,,,,,Clear,72000.0,,,73000.0,,,,,,
KRDR,05-24-2009,20:48,SPECI,,150,5.0,,,4000.0,Haze Smoke or Dust,20.0,0.0,30.11,1020.6,4,,,,,,,,,,,,,,Clear,72000.0,,,73000.0,,,,,,
KRDR,05-24-2009,20:20,SPECI,,120,7.0,,,4800.0,Haze Smoke or Dust,20.0,-1.0,30.12,1020.8,4,,,,,,,,,,,,,,Clear,72000.0,,,73000.0,,,,,,
KRDR,05-24-2009,20:18,SPECI,,,4.0,,,4000.0,Haze Smoke or Dust,20.0,-1.0,30.12,1020.8,4,,,,,,,,,,,,,,Clear,72000.0,,,73000.0,,,,,,
KRDR,05-24-2009,20:00,METAR,,100,6.0,,,9999.0,,20.0,-1.0,30.13,1021.0,,,,,,,,,,,,,,,Clear,72000.0,,,73000.0,,,,,,
KRDR,05-24-2009,19:18,SPECI,,130,10.0,,,6400.0,Haze Smoke or Dust,20.0,-1.0,30.14,1021.3,4,,,,,,,,,,,,,,Clear,72000.0,,,73000.0,,,,,,
KRDR,05-24-2009,19:16,SPECI,,100,9.0,,,3200.0,Haze Smoke or Dust,20.0,-1.0,30.13,1021.3,4,,,,,,,,,,,,,,Clear,72000.0,,,73000.0,,,,,,
KRDR,05-24-2009,19:14,SPECI,,90,8.0,,,2000.0,Haze Smoke or Dust,20.0,-1.0,30.14,1021.3,4,,,,,,,,,,,,,,Clear,72000.0,,,73000.0,,,,,,
KRDR,05-24-2009,19:06,SPECI,,210,5.0,,,1600.0,Haze Smoke or Dust,20.0,-1.0,30.14,1021.5,4,,,,,,,,,,,,,,Clear,72000.0,,,73000.0,,,,,,
KRDR,05-24-2009,19:04,SPECI,,200,7.0,,,2000.0,Haze Smoke or Dust,20.0,-1.0,30.14,1021.5,4,,,,,,,,,,,,,,Clear,72000.0,,,73000.0,,,,,,
KRDR,05-24-2009,19:02,SPECI,,,6.0,,,2800.0,Haze Smoke or Dust,20.0,-1.0,30.14,1021.5,4,,,,,,,,,,,,,,Clear,72000.0,,,73000.0,,,,,,
KRDR,05-24-2009,19:00,SPECI,,190,6.0,,,4000.0,Haze Smoke or Dust,20.0,-1.0,30.14,1021.5,4,,,,,,,,,,,,,,Clear,72000.0,,,73000.0,,,,,,
KRDR,05-24-2009,19:00,METAR,,,0.0,,,2400.0,Haze Smoke or Dust,19.0,-2.0,30.14,1021.5,4,,,,,,,,,,,,,,Clear,72000.0,,,73000.0,,,,,,
KRDR,05-24-2009,18:56,SPECI,,140,7.0,,,4800.0,Haze Smoke or Dust,20.0,-1.0,30.14,1021.6,4,,,,,,,,,,,,,,Clear,72000.0,,,73000.0,,,,,,
KRDR,05-24-2009,18:54,SPECI,,,5.0,,,3200.0,Haze Smoke or Dust,19.0,-2.0,30.14,1021.6,4,,,,,,,,,,,,,,Clear,72000.0,,,73000.0,,,,,,
KRDR,05-24-2009,18:47,SPECI,,,5.0,,,2000.0,Haze Smoke or Dust,19.0,-2.0,30.14,1021.6,4,,,,,,,,,,,,,,Clear,72000.0,,,73000.0,,,,,,
KRDR,05-24-2009,18:44,SPECI,,,3.0,,,2800.0,Haze Smoke or Dust,20.0,-2.0,30.14,1021.6,4,,,,,,,,,,,,,,Clear,72000.0,,,73000.0,,,,,,
KRDR,05-24-2009,18:41,SPECI,,150,7.0,,,4000.0,Haze Smoke or Dust,20.0,-1.0,30.15,1021.6,4,,,,,,,,,,,,,,Clear,72000.0,,,73000.0,,,,,,
KRDR,05-24-2009,18:12,SPECI,,90,4.0,,,6400.0,Haze Smoke or Dust,19.0,-2.0,30.15,1021.9,4,,,,,,,,,,,,,,Clear,72000.0,,,73000.0,,,,,,
KRDR,05-24-2009,18:07,SPECI,,110,10.0,,,3200.0,Haze Smoke or Dust,19.0,-2.0,30.15,1021.9,4,,,,,,,,,,,,,,Clear,72000.0,,,73000.0,,,,,,
KRDR,05-24-2009,18:00,METAR,,170,11.0,,,3200.0,Haze Smoke or Dust,19.0,-1.0,30.16,1022.2,4,,,,,,,,,,,,,,Clear,72000.0,,,73000.0,,,,,,
KRDR,05-24-2009,17:54,SPECI,,160,9.0,,,2800.0,Haze Smoke or Dust,19.0,0.0,30.16,1022.2,4,,,,,,,,,,,,,,Clear,72000.0,,,73000.0,,,,,,
KRDR,05-24-2009,17:47,SPECI,,,0.0,,,4000.0,Haze Smoke or Dust,19.0,-2.0,30.16,1022.2,4,,,,,,,,,,,,,,Clear,72000.0,,,73000.0,,,,,,
KRDR,05-24-2009,17:45,SPECI,,140,5.0,,,4800.0,Haze Smoke or Dust,19.0,-1.0,30.17,1022.3,4,,,,,,,,,,,,,,Clear,72000.0,,,73000.0,,,,,,
KRDR,05-24-2009,17:39,SPECI,,140,7.0,,,3200.0,Haze Smoke or Dust,19.0,-1.0,30.17,1022.3,4,,,,,,,,,,,,,,Clear,72000.0,,,73000.0,,,,,,
KRDR,05-24-2009,17:32,SPECI,,140,3.0,15.0,,2800.0,Haze Smoke or Dust,19.0,-1.0,30.17,1022.3,4,,,,,,,,,,,,,,Clear,72000.0,,,73000.0,,,,,,
KRDR,05-24-2009,17:30,SPECI,,160,8.0,15.0,,4000.0,Haze Smoke or Dust,19.0,-1.0,30.17,1022.4,4,,,,,,,,,,,,,,Clear,72000.0,,,73000.0,,,,,,
KRDR,05-24-2009,17:09,SPECI,,120,6.0,,,4800.0,Haze Smoke or Dust,19.0,-2.0,30.17,1022.5,4,,,,,,,,,,,,,,Clear,72000.0,,,73000.0,,,,,,
KRDR,05-24-2009,17:05,SPECI,,140,10.0,,,4000.0,Haze Smoke or Dust,19.0,-2.0,30.17,1022.5,4,,,,,,,,,,,,,,Clear,72000.0,,,73000.0,,,,,,
KRDR,05-24-2009,17:00,METAR,,120,6.0,,,9999.0,Haze Smoke or Dust,18.0,-2.0,30.17,1022.6,4,,,,,,,,,,,,,,Clear,72000.0,,,73000.0,,,,,,
KRDR,05-24-2009,16:23,SPECI,,120,8.0,,,4800.0,Haze Smoke or Dust,19.0,-2.0,30.18,1022.7,4,,,,,,,,,,,,,,Clear,72000.0,,,73000.0,,,,,,
KRDR,05-24-2009,16:21,SPECI,,120,8.0,,,3200.0,Haze Smoke or Dust,19.0,-1.0,30.18,1022.7,4,,,,,,,,,,,,,,Clear,72000.0,,,73000.0,,,,,,
KRDR,05-24-2009,16:19,SPECI,,120,7.0,,,2400.0,Haze Smoke or Dust,19.0,-1.0,30.18,1022.7,4,,,,,,,,,,,,,,Clear,72000.0,,,73000.0,,,,,,
KRDR,05-24-2009,16:06,SPECI,,,6.0,,,2000.0,Haze Smoke or Dust,18.0,-2.0,30.18,1022.8,4,,,,,,,,,,,,,,Clear,72000.0,,,73000.0,,,,,,
KRDR,05-24-2009,16:00,METAR,,160,5.0,,,1600.0,Haze Smoke or Dust,18.0,-1.0,30.19,1023.0,4,,,,,,,,,,,,,,Clear,72000.0,,,73000.0,,,,,,
KRDR,05-24-2009,15:56,SPECI,,190,5.0,,,3200.0,Haze Smoke or Dust,18.0,-2.0,30.18,1022.9,4,,,,,,,,,,,,,,Clear,72000.0,,,73000.0,,,,,,
KRDR,05-24-2009,15:55,SPECI,,,4.0,,,2400.0,Haze Smoke or Dust,18.0,-2.0,30.19,1022.9,4,,,,,,,,,,,,,,Clear,72000.0,,,73000.0,,,,,,
KRDR,05-24-2009,15:49,SPECI,,170,5.0,,,1200.0,Haze Smoke or Dust,18.0,-1.0,30.18,1022.9,4,,,,,,,,,,,,,,Clear,72000.0,,,73000.0,,,,,,
KRDR,05-24-2009,15:48,SPECI,,,5.0,,,800.0,Haze Smoke or Dust,18.0,0.0,30.18,1022.9,5,,,,,,,,,,,,,,Clear,72000.0,,,73000.0,,,,,,
KRDR,05-24-2009,15:00,METAR,,200,6.0,,,1200.0,Haze Smoke or Dust,17.0,-1.0,30.19,1023.1,4,,,,,,,,,,,,,,Clear,72000.0,,,73000.0,,,,,,
KRDR,05-24-2009,14:54,SPECI,,230,7.0,,,800.0,Haze Smoke or Dust,17.0,-1.0,30.19,1023.0,5,,,,,,,,,,,,,,Clear,72000.0,,,73000.0,,,,,,
KRDR,05-24-2009,14:43,SPECI,,190,6.0,,,800.0,Haze Smoke or Dust,16.0,0.0,30.19,1023.2,5,,,,,,,,,,,,,,Clear,72000.0,,,73000.0,,,,,,
KRDR,05-24-2009,14:24,SPECI,,210,6.0,,,800.0,Haze Smoke or Dust,16.0,0.0,30.20,1023.4,5,,,,,,,,,,,,,,Clear,72000.0,,,73000.0,,,,,,
KRDR,05-24-2009,14:09,SPECI,,210,6.0,,,800.0,Haze Smoke or Dust,15.0,0.0,30.20,1023.3,5,,,,,,,,,,,,,,Clear,72000.0,,,73000.0,,,,,,
KRDR,05-24-2009,14:07,SPECI,,220,6.0,,,800.0,Haze Smoke or Dust,15.0,0.0,30.20,1023.3,5,,,,,,,,,,,,,,Clear,72000.0,,,73000.0,,,,,,
KRDR,05-24-2009,14:04,SPECI,,220,7.0,,,800.0,Haze Smoke or Dust,15.0,0.0,30.20,1023.3,5,,,,,,,,,,,,,,Clear,72000.0,,,73000.0,,,,,,
KRDR,05-24-2009,14:02,SPECI,,230,7.0,,,1200.0,Haze Smoke or Dust,15.0,0.0,30.19,1023.2,4,,,,,,,,,,,,,,Clear,72000.0,,,73000.0,,,,,,
KRDR,05-24-2009,14:01,SPECI,,230,6.0,,,1600.0,Haze Smoke or Dust,15.0,0.0,30.19,1023.2,4,,,,,,,,,,,,,,Clear,72000.0,,,73000.0,,,,,,
KRDR,05-24-2009,14:00,METAR,,210,6.0,,,2800.0,Haze Smoke or Dust,15.0,1.0,30.20,1023.3,4,,,,,,,,,,,,,,Clear,72000.0,,,73000.0,,,,,,
KRDR,05-24-2009,13:32,SPECI,,230,4.0,,,4000.0,Haze Smoke or Dust,14.0,1.0,30.20,1023.3,4,,,,,,,,,,,,,,Clear,72000.0,,,73000.0,,,,,,
KRDR,05-24-2009,13:00,METAR,,210,3.0,,,9999.0,,10.0,4.0,30.19,1023.0,,,,,,,,,,,,,,,Clear,72000.0,,,73000.0,,,,,,
KRDR,05-24-2009,12:00,METAR,,,0.0,,,9999.0,,5.0,0.0,30.19,1023.1,,,,,,,,,,,,,,,Clear,72000.0,,,73000.0,,,,,,
KRDR,05-24-2009,11:00,METAR,,250,4.0,,,9999.0,,2.0,-1.0,30.18,1022.9,,,,,,,,,,,,,,,Clear,72000.0,,,73000.0,,,,,,
KRDR,05-24-2009,10:00,METAR,,230,3.0,,,9999.0,,2.0,-1.0,30.18,1022.8,,,,,,,,,,,,,,,Clear,72000.0,,,73000.0,,,,,,
KRDR,05-24-2009,09:00,METAR,,250,3.0,,,9999.0,,2.0,0.0,30.18,1022.9,,,,,,,,,,,,,,,Clear,72000.0,,,73000.0,,,,,,
KRDR,05-24-2009,08:00,METAR,,220,4.0,,,9999.0,,3.0,-1.0,30.19,1023.1,,,,,,,,,,,,,,,Clear,72000.0,,,73000.0,,,,,,
KRDR,05-24-2009,07:00,METAR,,250,4.0,,,9999.0,,3.0,0.0,30.19,1023.2,,,,,,,,,,,,,,,Clear,72000.0,,,73000.0,,,,,,
KRDR,05-24-2009,06:00,METAR,,,0.0,,,9999.0,,5.0,0.0,30.18,1022.9,,,,,,,,,,,,,,,Clear,72000.0,,,73000.0,,,,,,
KRDR,05-24-2009,05:00,METAR,,,0.0,,,9999.0,,6.0,0.0,30.18,1022.6,,,,,,,,,,,,,,,Clear,72000.0,,,73000.0,,,,,,
KRDR,05-24-2009,04:00,METAR,,270,4.0,,,9999.0,,7.0,1.0,30.17,1022.4,,,,,,,,,,,,,,,Clear,72000.0,,,73000.0,,,,,,
KRDR,05-24-2009,03:00,METAR,,260,5.0,,,9999.0,,9.0,2.0,30.16,1022.2,,,,,,,,,,,,,,,Clear,72000.0,,,73000.0,,,,,,
KRDR,05-24-2009,02:00,METAR,,290,4.0,,,8000.0,Haze Smoke or Dust,13.0,-1.0,30.15,1021.7,4,,,,,,,,,,,,,,Clear,72000.0,,,73000.0,,,,,,
KRDR,05-24-2009,01:00,METAR,,300,5.0,,,8000.0,Haze Smoke or Dust,16.0,-2.0,30.15,1021.8,4,,,,,,,,,,,,,,Clear,72000.0,,,73000.0,,,,,,
KRDR,05-24-2009,00:02,SPECI,,340,4.0,,,4000.0,Haze Smoke or Dust,17.0,-3.0,30.15,1021.8,4,,,,,,,,,,,,,,Clear,72000.0,,,73000.0,,,,,,
KRDR,05-24-2009,00:00,METAR,,290,7.0,,,4800.0,Haze Smoke or Dust,17.0,-3.0,30.15,1021.9,4,,,,,,,,,,,,,,Clear,72000.0,,,73000.0,,,,,,
KRDR,05-23-2009,23:54,SPECI,,280,6.0,,,4000.0,Haze Smoke or Dust,17.0,-3.0,30.15,1021.9,4,,,,,,,,,,,,,,Clear,72000.0,,,73000.0,,,,,,
KRDR,05-23-2009,23:00,METAR,,260,7.0,,,9999.0,,17.0,-3.0,30.17,1022.3,,,,,,,,,,,,,,,Clear,72000.0,,,73000.0,,,,,,
KRDR,05-23-2009,22:00,METAR,,,4.0,,,9999.0,,17.0,-2.0,30.18,1022.7,,,,,,,,,,,,,,,Clear,72000.0,,,73000.0,,,,,,
KRDR,05-23-2009,21:22,SPECI,,,6.0,,,4800.0,Haze Smoke or Dust,16.0,-3.0,30.18,1022.9,4,,,,,,,,,,,,,,Clear,72000.0,,,73000.0,,,,,,
KRDR,05-23-2009,21:13,SPECI,,10,6.0,,,4000.0,Haze Smoke or Dust,16.0,-2.0,30.18,1022.9,4,,,,,,,,,,,,,,Clear,72000.0,,,73000.0,,,,,,
KRDR,05-23-2009,21:00,METAR,,,0.0,,,9999.0,,16.0,-3.0,30.19,1023.2,,,,,,,,,,,,,,,Clear,72000.0,,,73000.0,,,,,,
KRDR,05-23-2009,20:00,METAR,,,6.0,,,9999.0,,15.0,-2.0,30.21,1023.9,,,,,,,,,,,,,,,Clear,72000.0,,,73000.0,,,,,,
KRDR,05-23-2009,19:00,METAR,,90,5.0,,,9999.0,,14.0,0.0,30.23,1024.4,,,,,,,,,,,,,,,Clear,72000.0,,,73000.0,,,,,,
KRDR,05-23-2009,18:00,METAR,,,4.0,,,9999.0,,13.0,-1.0,30.24,1024.9,,,,,,,,,,,,,,,Clear,72000.0,,,73000.0,,,,,,
KRDR,05-23-2009,17:00,METAR,,50,5.0,,,9999.0,,12.0,-1.0,30.26,1025.4,,,,,,,,,,,,,,,Clear,72000.0,,,73000.0,,,,,,
KRDR,05-23-2009,16:00,METAR,,,4.0,,,9999.0,,11.0,0.0,30.27,1025.6,,,,,,,,,,,,,,,Clear,72000.0,,,73000.0,,,,,,
KRDR,05-23-2009,15:00,METAR,,60,5.0,,,9999.0,,9.0,0.0,30.28,1025.9,,,,,,,,,,,,,,,Clear,72000.0,,,73000.0,,,,,,
KRDR,05-23-2009,14:00,METAR,,20,7.0,,,9999.0,,8.0,1.0,30.28,1026.1,,,,,,,,,,,,,,,Clear,72000.0,,,73000.0,,,,,,
KRDR,05-23-2009,13:00,METAR,,20,7.0,,,9999.0,,6.0,1.0,30.28,1026.0,,,,,,,,,,,,,,,Clear,72000.0,,,73000.0,,,,,,
KRDR,05-23-2009,12:00,METAR,,,0.0,,,9999.0,,2.0,0.0,30.28,1025.9,,,,,,,,,,,,,,.01 IN,Clear,72000.0,,,73000.0,,,,,,
KRDR,05-23-2009,11:00,METAR,,330,3.0,,,9999.0,,0.0,-1.0,30.26,1025.3,,,,,,,,,,,,,,,Clear,72000.0,,,73000.0,,,,,,
KRDR,05-23-2009,10:00,METAR,,340,7.0,,,9999.0,,1.0,-1.0,30.25,1025.1,,,,,,,,,,,,,,,Clear,72000.0,,,73000.0,,,,,,
KRDR,05-23-2009,09:00,METAR,,340,8.0,,,9999.0,,2.0,-1.0,30.25,1024.9,,,,,,,,,,,,,,,Clear,72000.0,,,73000.0,,,,,,
KRDR,05-23-2009,08:00,METAR,,340,7.0,,,9999.0,,2.0,0.0,30.25,1024.9,,,,,,,,,,,,,,,Clear,72000.0,,,73000.0,,,,,,
KRDR,05-23-2009,07:00,METAR,,350,7.0,,,9999.0,,4.0,0.0,30.24,1024.7,,,,,,,,,,,,,,,Clear,72000.0,,,73000.0,,,,,,
KRDR,05-23-2009,06:00,METAR,,350,9.0,,,9999.0,,5.0,1.0,30.24,1024.6,,,,,,,,,,,,,,,Clear,72000.0,,,73000.0,,,,,,
KRDR,05-23-2009,05:00,METAR,,360,13.0,,,9999.0,,6.0,1.0,30.22,1024.1,,,,,,,,,,,,,,,Clear,72000.0,,,73000.0,,,,,,
KRDR,05-23-2009,04:00,METAR,,360,15.0,18.0,,9999.0,,6.0,2.0,30.21,1023.7,,,,,,,,,,,,,,,Clear,72000.0,,,73000.0,,,,,,
KRDR,05-23-2009,03:00,METAR,,10,13.0,,,9999.0,,8.0,3.0,30.18,1022.8,,,,,,,,,,,,,,,Clear,72000.0,,,73000.0,,,,,,
KRDR,05-23-2009,02:00,METAR,,10,17.0,23.0,030/29KTS,9999.0,,12.0,5.0,30.14,1021.5,,,,,,,,,,,,,,,Clear,72000.0,,,73000.0,,,,,,
KRDR,05-23-2009,01:00,METAR,,10,19.0,28.0,010/28KTS,9999.0,,18.0,4.0,30.09,1019.8,,,,,,,,,,,,,,,Clear,72000.0,,,73000.0,,,,,,
KRDR,05-23-2009,00:00,METAR,,330,17.0,25.0,320/26KTS,9999.0,,21.0,1.0,30.05,1018.6,,,,,,,,,,,,,.01 IN,,Clear,72000.0,,,73000.0,,,,,,
KRDR,05-22-2009,23:00,METAR,,280,14.0,,,9999.0,,21.0,5.0,30.04,1018.1,,,,,,,,,,,,,,,Clear,72000.0,,,73000.0,,,,,,
KRDR,05-22-2009,22:00,METAR,,240,8.0,,280/28KTS,9999.0,,18.0,11.0,30.04,1018.3,,,,,,,,,,,.01 IN,,,,4/8 Partly Cloudy,72000.0,,SCT,6900.0,,,,,,
KRDR,05-22-2009,21:24,SPECI,,260,14.0,,280/28KTS,9999.0,,17.0,9.0,30.05,1018.6,,,,,,,,,,,,,,,2/8 Mostly Clear,72000.0,,FEW,9900.0,,,,,,
KRDR,05-22-2009,21:00,METAR,,300,19.0,23.0,270/26KTS,9999.0,Light Rain,19.0,9.0,30.04,1018.3,61,,,,,,,,,,TRACE,TRACE,,,4/8 Partly Cloudy,72000.0,,SCT,6900.0,,,,,,
KRDR,05-22-2009,20:42,SPECI,,280,16.0,23.0,270/26KTS,9999.0,Light Rain,21.0,7.0,30.04,1018.0,61,,,,,,,,,,,,,,7/8 Mostly Cloudy,7000.0,,BKN,6900.0,,,,,,
KRDR,05-22-2009,20:00,METAR,,270,18.0,26.0,260/28KTS,9999.0,,23.0,7.0,30.04,1018.1,,,,,,,,,,,,,,,2/8 Mostly Clear,72000.0,,FEW,6900.0,,,,,,
KRDR,05-22-2009,19:00,METAR,,230,15.0,29.0,220/32KTS,9999.0,,23.0,5.0,30.05,1018.4,,,,,,,,,,,,,,,Clear,72000.0,,,73000.0,,,,,,
KRDR,05-22-2009,18:00,METAR,,210,16.0,27.0,210/27KTS,9999.0,,20.0,5.0,30.08,1019.6,,,,,,,,,,,,,TRACE,,Clear,72000.0,,,73000.0,,,,,,
KRDR,05-22-2009,17:00,METAR,,210,19.0,24.0,200/27KTS,9999.0,,18.0,5.0,30.11,1020.4,,,,,,,,,,,,,,,Clear,72000.0,,,73000.0,,,,,,
KRDR,05-22-2009,16:00,METAR,,200,19.0,24.0,200/29KTS,9999.0,,17.0,4.0,30.12,1020.8,,,,,,,,,,,,,,,2/8 Mostly Clear,72000.0,,FEW,6900.0,,,,,,
KRDR,05-22-2009,15:00,METAR,,200,11.0,,,9999.0,,13.0,6.0,30.14,1021.5,,,,,,,,,,,,TRACE,,,7/8 Mostly Cloudy,7500.0,,BKN,7400.0,,,,,,
KRDR,05-22-2009,14:00,METAR,,200,14.0,,,9999.0,,11.0,5.0,30.17,1022.5,,,,,,,,,,,TRACE,,,,2/8 Mostly Clear,72000.0,,FEW,11000.0,,,,,,
KRDR,05-22-2009,13:38,SPECI,,200,14.0,,,9999.0,,10.0,5.0,30.17,1022.4,,,,,,,,,,,,,,,Clear,72000.0,,,73000.0,,,,,,
KRDR,05-22-2009,13:00,METAR,,220,9.0,,,9999.0,,11.0,3.0,30.19,1023.2,,,,,,,,,,,TRACE,,,,Clear,72000.0,,,73000.0,,,,,,
KRDR,05-22-2009,12:35,SPECI,,240,8.0,,,9999.0,,11.0,2.0,30.20,1023.4,,,,,,,,,,,,,,,2/8 Mostly Clear,72000.0,,FEW,6900.0,,,,,,
KRDR,05-22-2009,12:00,METAR,,180,5.0,,,9999.0,,10.0,1.0,30.18,1022.7,,,,,,,,,,,,,,,7/8 Mostly Cloudy,7500.0,,BKN,7400.0,,,,,,
KRDR,05-22-2009,11:00,METAR,,190,6.0,,,9999.0,,10.0,0.0,30.17,1022.4,,,,,,,,,,,,,,,Clear,72000.0,,,73000.0,,,,,,
KRDR,05-22-2009,10:00,METAR,,190,7.0,,,9999.0,,10.0,0.0,30.17,1022.4,,,,,,,,,,,,,,,7/8 Mostly Cloudy,8000.0,,BKN,7900.0,,,,,,
KRDR,05-22-2009,09:00,METAR,,210,5.0,,,9999.0,,9.0,0.0,30.18,1022.9,,,,,,,,,,,,,,,2/8 Mostly Clear,72000.0,,FEW,8900.0,,,,,,
KRDR,05-22-2009,08:00,METAR,,190,7.0,,,9999.0,,8.0,1.0,30.18,1022.8,,,,,,,,,,,,,,,Clear,72000.0,,,73000.0,,,,,,
KRDR,05-22-2009,07:00,METAR,,170,7.0,,,9999.0,,7.0,0.0,30.19,1023.2,,,,,,,,,,,,,,,2/8 Mostly Clear,72000.0,,FEW,12000.0,,,,,,
KRDR,05-22-2009,06:00,METAR,,170,7.0,,,9999.0,,7.0,0.0,30.20,1023.5,,,,,,,,,,,,,,,Clear,72000.0,,,73000.0,,,,,,
KRDR,05-22-2009,05:00,METAR,,170,4.0,,,9999.0,,6.0,0.0,30.21,1023.9,,,,,,,,,,,,,,,Clear,72000.0,,,73000.0,,,,,,
KRDR,05-22-2009,04:00,METAR,,140,4.0,,,9999.0,,7.0,1.0,30.22,1024.2,,,,,,,,,,,,,,,Clear,72000.0,,,73000.0,,,,,,
KRDR,05-22-2009,03:00,METAR,,,0.0,,,9999.0,,10.0,0.0,30.23,1024.5,,,,,,,,,,,,,,,Clear,72000.0,,,73000.0,,,,,,
KRDR,05-22-2009,02:00,METAR,,290,3.0,,,9999.0,,13.0,0.0,30.23,1024.3,,,,,,,,,,,,,,,Clear,72000.0,,,73000.0,,,,,,
KRDR,05-22-2009,01:00,METAR,,290,5.0,,,9999.0,,16.0,-1.0,30.22,1024.2,,,,,,,,,,,,,,,Clear,72000.0,,,73000.0,,,,,,
KRDR,05-22-2009,00:00,METAR,,300,4.0,,,9999.0,,17.0,-3.0,30.22,1024.2,,,,,,,,,,,,,,,Clear,72000.0,,,73000.0,,,,,,
