Platform Id,Date,Time (UTC),Report Type,Wind Condition,Wind Direction,Wind Speed (Knots),Wind Gust Speed,Peak Wind (Knots),Visibility (M),Weather,Air Temp (C),Dew Point (C),Altimeter (inHg),SLP (Millibars),Present Automated 1,Present Automated 2,Present Automated 3,Present Manual 1,Present Manual 2,Present Manual 3,Present Manual 4,Present Manual 5,Present Manual 6,Present Manual 7,Precip Hr1,Precip Hr3,Precip Hr6,Precip Hr24,Cloud Cover,Cloud Ceiling (Feet),Lowest Cloud Base Height (Feet),Cloud Cover1,Cloudbase 1,Cloud Cover2,Cloudbase 2,Cloud Cover3,Cloudbase 3,Cloud Cover4,Cloudbase 4
KRDR,10-09-2020,23:56,METAR,Normal,340,11.0,,,9999.0,,15.6,0.6,29.79,1009.7,,,,,,,,,,,,,,,Clear,72000.0,,,,,,,,,
KRDR,10-09-2020,22:56,METAR,Normal,330,12.0,21.0,,9999.0,,17.9,1.8,29.75,1008.2,,,,,,,,,,,,,,,Clear,72000.0,,,,,,,,,
KRDR,10-09-2020,21:56,METAR,Normal,340,17.0,24.0,,9999.0,,19.8,2.2,29.72,1007.0,,,,,,,,,,,,,,,Clear,72000.0,,,,,,,,,
KRDR,10-09-2020,20:56,METAR,Normal,320,18.0,23.0,,9999.0,,22.0,5.0,29.68,1005.6,,,,,,,,,,,,,,,Clear,72000.0,,,,,,,,,
KRDR,10-09-2020,19:56,METAR,Normal,350,15.0,22.0,,9999.0,,22.8,5.2,29.66,1004.9,,,,,,,,,,,,,,,Clear,72000.0,,,,,,,,,
KRDR,10-09-2020,18:56,METAR,Normal,360,13.0,,,9999.0,,21.6,4.2,29.65,1004.5,,,,,,,,,,,,,,,Clear,72000.0,,,,,,,,,
KRDR,10-09-2020,17:56,METAR,Normal,330,12.0,,,9999.0,,20.4,4.8,29.64,1004.2,,,,,,,,,,,,,,,2/8 Mostly Clear,72000.0,23000.0,FEW,23000.0,,,,,,
KRDR,10-09-2020,16:56,METAR,Normal,340,14.0,,,9999.0,,19.4,5.1,29.61,1003.2,,,,,,,,,,,,,,,,19000.0,16000.0,SCT,16000.0,BKN,19000.0,,,,
KRDR,10-09-2020,15:56,METAR,Normal,330,10.0,,,9999.0,,17.4,5.7,29.57,1001.9,,,,,,,,,,,,,,,,20000.0,15000.0,SCT,15000.0,BKN,20000.0,,,,
KRDR,10-09-2020,14:56,METAR,Normal,320,15.0,18.0,,9999.0,,17.1,6.3,29.55,1001.2,,,,,,,,,,,,,,,,20000.0,15000.0,SCT,15000.0,BKN,20000.0,,,,
KRDR,10-09-2020,13:57,METAR,Calm,,0.0,,,9999.0,,12.9,7.3,29.52,1000.2,,,,,,,,,,,,,,,4/8 Partly Cloudy,72000.0,15000.0,SCT,15000.0,SCT,20000.0,,,,
KRDR,10-09-2020,13:56,METAR,Calm,,0.0,,,9999.0,,12.8,7.3,29.52,1000.2,,,,,,,,,,,,,,,Clear,72000.0,,,,,,,,,
KRDR,10-09-2020,12:56,METAR,Normal,280,3.0,,,9999.0,,8.0,4.9,29.50,999.7,,,,,,,,,,,,,,,Clear,72000.0,,,,,,,,,
KRDR,10-09-2020,11:56,METAR,Normal,200,5.0,,,9999.0,,4.7,2.9,29.50,999.7,,,,,,,,,,,,,,,Clear,72000.0,,,,,,,,,
KRDR,10-09-2020,10:56,METAR,Normal,180,6.0,,,9999.0,,5.5,3.0,29.49,999.3,,,,,,,,,,,,,,,Clear,72000.0,,,,,,,,,
KRDR,10-09-2020,09:56,METAR,Normal,160,4.0,,,9999.0,,8.1,3.4,29.49,999.3,,,,,,,,,,,,,,,Clear,72000.0,,,,,,,,,
KRDR,10-09-2020,08:56,METAR,Normal,210,7.0,,,9999.0,,9.6,3.1,29.50,999.5,,,,,,,,,,,,,,,Clear,72000.0,,,,,,,,,
KRDR,10-09-2020,07:56,METAR,Normal,190,7.0,,,9999.0,,9.5,3.0,29.53,,,,,,,,,,,,,,,,Clear,72000.0,,,,,,,,,
KRDR,10-09-2020,06:56,METAR,Normal,190,10.0,,,9999.0,,11.4,2.9,29.55,1001.2,,,,,,,,,,,,,,,Clear,72000.0,,,,,,,,,
KRDR,10-09-2020,05:56,METAR,Normal,190,7.0,,,9999.0,,11.2,3.0,29.59,1002.6,,,,,,,,,,,,,,,Clear,72000.0,,,,,,,,,
KRDR,10-09-2020,04:56,METAR,Normal,180,10.0,,,9999.0,,12.9,2.7,29.62,1003.6,,,,,,,,,,,,,,,Clear,72000.0,,,,,,,,,
KRDR,10-09-2020,03:56,METAR,Normal,170,12.0,,,9999.0,,13.2,2.7,29.66,1005.1,,,,,,,,,,,,,,,Clear,72000.0,,,,,,,,,
KRDR,10-09-2020,02:56,METAR,Normal,180,11.0,,,9999.0,,13.4,2.9,29.69,1006.1,,,,,,,,,,,,,,,Clear,72000.0,,,,,,,,,
KRDR,10-09-2020,01:56,METAR,Normal,170,10.0,,,9999.0,,14.1,2.3,29.73,1007.6,,,,,,,,,,,,,,,Clear,72000.0,,,,,,,,,
KRDR,10-09-2020,00:56,METAR,Normal,170,12.0,,,9999.0,,15.2,2.0,29.76,1008.6,,,,,,,,,,,,,,,Clear,72000.0,,,,,,,,,
KRDR,10-08-2020,23:56,METAR,Normal,160,12.0,18.0,,9999.0,,16.3,2.3,29.76,1008.6,,,,,,,,,,,,,,,,23000.0,6000.0,FEW,6000.0,BKN,23000.0,,,,
KRDR,10-08-2020,22:56,METAR,Normal,160,17.0,26.0,170/26KTS,9999.0,,18.2,1.2,29.80,1010.0,,,,,,,,,,,,,,,,25000.0,25000.0,BKN,25000.0,,,,,,
KRDR,10-08-2020,21:56,METAR,Normal,160,13.0,,,9999.0,,18.7,1.7,29.84,1011.4,,,,,,,,,,,,,,,,23000.0,23000.0,BKN,23000.0,,,,,,
KRDR,10-08-2020,20:56,METAR,Normal,170,17.0,,,9999.0,,18.5,1.0,29.88,1012.7,,,,,,,,,,,,,,,,23000.0,23000.0,BKN,23000.0,,,,,,
KRDR,10-08-2020,19:56,METAR,Normal,180,13.0,,,9999.0,,18.5,1.9,29.93,1014.4,,,,,,,,,,,,,,,Clear,72000.0,,,,,,,,,
KRDR,10-08-2020,18:56,METAR,Normal,180,15.0,20.0,,9999.0,,17.8,2.1,29.98,1016.2,,,,,,,,,,,,,,,2/8 Mostly Clear,72000.0,10000.0,FEW,10000.0,FEW,25000.0,,,,
KRDR,10-08-2020,17:56,METAR,Normal,170,12.0,,,9999.0,,16.6,2.6,30.04,1018.3,,,,,,,,,,,,,,,4/8 Partly Cloudy,72000.0,10000.0,FEW,10000.0,SCT,25000.0,,,,
KRDR,10-08-2020,16:56,METAR,Normal,180,10.0,,,9999.0,,15.0,3.2,30.07,1019.3,,,,,,,,,,,,,,,,10000.0,10000.0,BKN,10000.0,BKN,25000.0,,,,
KRDR,10-08-2020,15:56,METAR,Normal,200,6.0,,,9999.0,,13.4,3.2,30.10,1020.4,,,,,,,,,,,,,,,,10000.0,10000.0,BKN,10000.0,BKN,25000.0,,,,
KRDR,10-08-2020,14:56,METAR,Normal,170,7.0,,,9999.0,,11.3,4.1,30.12,1021.1,,,,,,,,,,,,,,,,10000.0,10000.0,BKN,10000.0,BKN,25000.0,,,,
KRDR,10-08-2020,13:56,METAR,Calm,,0.0,,,9999.0,,7.3,4.3,30.13,1021.6,,,,,,,,,,,,,,,,10000.0,10000.0,BKN,10000.0,,,,,,
KRDR,10-08-2020,12:56,METAR,Normal,190,3.0,,,9999.0,,5.4,3.2,30.14,1021.9,,,,,,,,,,,,,,,,10000.0,10000.0,OVC,10000.0,,,,,,
KRDR,10-08-2020,11:56,METAR,Normal,220,3.0,,,9999.0,,4.6,3.9,30.14,1021.7,,,,,,,,,,,,,,,,9000.0,9000.0,OVC,9100.0,,,,,,
KRDR,10-08-2020,10:56,METAR,Normal,230,4.0,,,9999.0,,2.0,1.6,30.14,1021.7,,,,,,,,,,,,,,,,10000.0,10000.0,OVC,10000.0,,,,,,
KRDR,10-08-2020,09:56,METAR,Calm,,0.0,,,9999.0,,-0.3,-1.4,30.14,1021.7,,,,,,,,,,,,,,,,10000.0,10000.0,BKN,10000.0,,,,,,
KRDR,10-08-2020,08:56,METAR,Calm,,0.0,,,9999.0,,1.0,-0.6,30.15,1022.0,,,,,,,,,,,,,,,Clear,72000.0,,,,,,,,,
KRDR,10-08-2020,07:56,METAR,Normal,270,4.0,,,9999.0,,0.6,-0.4,30.15,1021.9,,,,,,,,,,,,,,,Clear,72000.0,,,,,,,,,
KRDR,10-08-2020,06:56,METAR,Normal,250,3.0,,,9999.0,,1.3,0.0,30.14,1021.6,,,,,,,,,,,,,,,Clear,72000.0,,,,,,,,,
KRDR,10-08-2020,05:56,METAR,Calm,,0.0,,,9999.0,,0.8,-0.8,30.14,1021.7,,,,,,,,,,,,,,,Clear,72000.0,,,,,,,,,
KRDR,10-08-2020,04:56,METAR,Normal,290,3.0,,,9999.0,,2.2,0.4,30.13,1021.3,,,,,,,,,,,,,,,Clear,72000.0,,,,,,,,,
KRDR,10-08-2020,03:56,METAR,Normal,310,3.0,,,9999.0,,2.9,0.6,30.12,1021.0,,,,,,,,,,,,,,,Clear,72000.0,,,,,,,,,
KRDR,10-08-2020,02:56,METAR,Calm,,0.0,,,9999.0,,3.7,0.9,30.11,1020.7,,,,,,,,,,,,,,,Clear,72000.0,,,,,,,,,
KRDR,10-08-2020,01:56,METAR,Normal,260,3.0,,,9999.0,,5.9,1.4,30.10,1020.4,,,,,,,,,,,,,,,Clear,72000.0,,,,,,,,,
KRDR,10-08-2020,00:56,METAR,Normal,350,6.0,,,9999.0,,7.9,1.1,30.09,1020.1,,,,,,,,,,,,,,,Clear,72000.0,,,,,,,,,
KRDR,10-07-2020,23:56,METAR,Normal,360,7.0,,,9999.0,,12.5,1.8,30.08,1019.6,,,,,,,,,,,,,,,Clear,72000.0,,,,,,,,,
KRDR,10-07-2020,22:56,METAR,Normal,350,11.0,,,9999.0,,15.6,1.0,30.06,1018.8,,,,,,,,,,,,,,,Clear,72000.0,,,,,,,,,
KRDR,10-07-2020,21:56,METAR,Normal,340,15.0,,,9999.0,,16.9,0.5,30.05,1018.5,,,,,,,,,,,,,,,4/8 Partly Cloudy,72000.0,6500.0,SCT,6500.0,,,,,,
KRDR,10-07-2020,20:56,METAR,Normal,320,13.0,22.0,310/26KTS,9999.0,,17.8,0.4,30.03,1017.7,,,,,,,,,,,,,,,4/8 Partly Cloudy,72000.0,7000.0,SCT,7000.0,SCT,20000.0,,,,
KRDR,10-07-2020,19:56,METAR,Normal,320,17.0,24.0,330/30KTS,9999.0,,18.3,0.4,30.02,1017.4,,,,,,,,,,,,,,,2/8 Mostly Clear,72000.0,7000.0,FEW,7000.0,FEW,20000.0,,,,
KRDR,10-07-2020,18:58,METAR,Normal,330,17.0,24.0,,9999.0,,18.4,0.0,30.01,1017.0,,,,,,,,,,,,,,,2/8 Mostly Clear,72000.0,7000.0,FEW,7000.0,,,,,,
KRDR,10-07-2020,18:56,METAR,Normal,330,19.0,23.0,300/31KTS,9999.0,,18.4,0.5,30.02,1017.4,,,,,,,,,,,,,,,Clear,72000.0,,,,,,,,,
KRDR,10-07-2020,17:56,METAR,Normal,340,19.0,26.0,310/30KTS,9999.0,,17.9,1.4,30.01,1016.9,,,,,,,,,,,,,,,Clear,72000.0,,,,,,,,,
KRDR,10-07-2020,16:56,METAR,Normal,320,17.0,23.0,,9999.0,,17.0,3.6,30.01,1016.9,,,,,,,,,,,,,,,Clear,72000.0,,,,,,,,,
KRDR,10-07-2020,15:56,METAR,Normal,310,14.0,22.0,,9999.0,,15.7,4.7,30.00,1016.6,,,,,,,,,,,,,,,Clear,72000.0,,,,,,,,,
KRDR,10-07-2020,14:56,METAR,Normal,310,11.0,,,9999.0,,13.0,5.9,29.98,1015.9,,,,,,,,,,,,,,,Clear,72000.0,,,,,,,,,
KRDR,10-07-2020,13:56,METAR,Normal,320,10.0,,,9999.0,,9.5,6.0,29.97,1015.6,,,,,,,,,,,,,,,Clear,72000.0,,,,,,,,,
KRDR,10-07-2020,12:56,METAR,Normal,300,6.0,,,9999.0,,5.8,4.4,29.95,1015.0,,,,,,,,,,,,,,,Clear,72000.0,,,,,,,,,
KRDR,10-07-2020,11:56,METAR,Normal,310,7.0,,,9999.0,,6.2,4.7,29.93,1014.3,,,,,,,,,,,,,,,Clear,72000.0,,,,,,,,,
KRDR,10-07-2020,10:56,METAR,Normal,300,8.0,,,9999.0,,5.7,4.8,29.90,1013.3,,,,,,,,,,,,,,,Clear,72000.0,,,,,,,,,
KRDR,10-07-2020,09:56,METAR,Normal,280,7.0,,,9999.0,,5.7,4.7,29.87,1012.3,,,,,,,,,,,,,,,Clear,72000.0,,,,,,,,,
KRDR,10-07-2020,08:56,METAR,Normal,220,4.0,,,9999.0,,5.1,3.4,29.84,1011.3,,,,,,,,,,,,,,,Clear,72000.0,,,,,,,,,
KRDR,10-07-2020,07:56,METAR,Normal,360,5.0,,,9999.0,,4.9,4.0,29.84,1011.2,,,,,,,,,,,,,,,,7000.0,7000.0,BKN,7000.0,,,,,,
KRDR,10-07-2020,06:56,METAR,Normal,300,4.0,,,9999.0,,5.6,4.1,29.80,1009.8,,,,,,,,,,,,,,,Clear,72000.0,,,,,,,,,
KRDR,10-07-2020,05:56,METAR,Normal,330,5.0,,,9999.0,,9.2,5.4,29.79,1009.3,,,,,,,,,,,,,,,Clear,72000.0,,,,,,,,,
KRDR,10-07-2020,04:56,METAR,Normal,340,9.0,,,9999.0,,13.0,5.2,29.78,1008.9,,,,,,,,,,,,,,,,15000.0,15000.0,BKN,15000.0,,,,,,
KRDR,10-07-2020,03:56,METAR,Normal,300,7.0,,,9999.0,,12.1,5.0,29.75,1007.9,,,,,,,,,,,,,,,4/8 Partly Cloudy,72000.0,18000.0,SCT,18000.0,,,,,,
KRDR,10-07-2020,02:56,METAR,Normal,310,8.0,,,9999.0,,15.7,4.7,29.74,1007.6,,,,,,,,,,,,,,,,17000.0,15000.0,FEW,15000.0,BKN,17000.0,,,,
KRDR,10-07-2020,01:56,METAR,Normal,320,13.0,19.0,,9999.0,,17.3,4.6,29.71,1006.6,,,,,,,,,,,,,,,4/8 Partly Cloudy,72000.0,14000.0,SCT,14000.0,,,,,,
KRDR,10-07-2020,00:56,METAR,Normal,300,13.0,20.0,,9999.0,,17.7,4.6,29.70,1006.3,,,,,,,,,,,,,,,,14000.0,14000.0,BKN,14000.0,,,,,,
KRDR,10-06-2020,23:56,METAR,Normal,300,14.0,22.0,,9999.0,,18.0,4.5,29.68,1005.7,,,,,,,,,,,,,,,,19000.0,15000.0,SCT,15000.0,BKN,19000.0,,,,
KRDR,10-06-2020,22:56,METAR,Normal,290,12.0,18.0,,9999.0,,18.8,5.3,29.64,1004.2,,,,,,,,,,,,,,,4/8 Partly Cloudy,72000.0,13000.0,SCT,13000.0,,,,,,
KRDR,10-06-2020,21:56,METAR,Normal,310,13.0,18.0,300/26KTS,9999.0,,18.8,5.6,29.66,1004.9,,,,,,,,,,,,,,,,12000.0,12000.0,BKN,12000.0,BKN,14000.0,,,,
KRDR,10-06-2020,20:56,METAR,Normal,310,13.0,22.0,,9999.0,,19.4,5.1,29.65,1004.7,,,,,,,,,,,,,,,,14000.0,14000.0,OVC,14000.0,,,,,,
KRDR,10-06-2020,19:56,METAR,Normal,290,13.0,21.0,300/28KTS,9999.0,,20.7,5.5,29.62,1003.5,,,,,,,,,,,,,,,,10000.0,8000.0,FEW,8000.0,BKN,10000.0,,,,
KRDR,10-06-2020,18:56,METAR,Normal,320,15.0,25.0,320/26KTS,9999.0,,21.6,4.2,29.65,1004.5,,,,,,,,,,,,,,,,14000.0,7000.0,FEW,7000.0,BKN,14000.0,BKN,20000.0,,
KRDR,10-06-2020,17:56,METAR,Normal,320,18.0,27.0,310/28KTS,9999.0,,22.0,4.1,29.66,1004.9,,,,,,,,,,,,,,,,15000.0,12000.0,SCT,12000.0,BKN,15000.0,BKN,21000.0,,
KRDR,10-06-2020,16:56,METAR,Normal,320,19.0,28.0,300/29KTS,9999.0,,21.0,4.1,29.65,1004.6,,,,,,,,,,,,,,,,10000.0,10000.0,BKN,10000.0,BKN,21000.0,,,,
KRDR,10-06-2020,15:56,METAR,Normal,310,15.0,22.0,290/26KTS,9999.0,,20.4,5.2,29.63,1004.0,,,,,,,,,,,,,,,,13000.0,10000.0,SCT,10000.0,BKN,13000.0,BKN,21000.0,,
KRDR,10-06-2020,14:56,METAR,Normal,290,12.0,21.0,280/30KTS,9999.0,,16.9,5.5,29.65,1004.7,,,,,,,,,,,,,,,,10000.0,10000.0,BKN,10000.0,BKN,13000.0,BKN,21000.0,,
KRDR,10-06-2020,14:32,SPECI,Normal,280,16.0,24.0,,9999.0,,16.0,5.0,29.65,1004.7,,,,,,,,,,,,,,,,13000.0,10000.0,SCT,10000.0,BKN,13000.0,,,,
KRDR,10-06-2020,13:56,METAR,Normal,260,10.0,,,9999.0,,13.6,4.5,29.65,1004.7,,,,,,,,,,,,,,,2/8 Mostly Clear,72000.0,11000.0,FEW,11000.0,,,,,,
KRDR,10-06-2020,12:56,METAR,Normal,240,8.0,,,9999.0,,11.8,4.3,29.66,1005.1,,,,,,,,,,,,,,,4/8 Partly Cloudy,72000.0,12000.0,SCT,12000.0,,,,,,
KRDR,10-06-2020,11:56,METAR,Normal,250,7.0,,,9999.0,,10.7,3.5,29.70,1006.3,,,,,,,,,,,,,,,,13000.0,13000.0,BKN,13000.0,,,,,,
KRDR,10-06-2020,10:56,METAR,Normal,250,7.0,,,9999.0,,11.3,2.8,29.73,1007.3,,,,,,,,,,,,,,,,10000.0,10000.0,BKN,10000.0,,,,,,
KRDR,10-06-2020,09:56,METAR,Normal,260,8.0,,,9999.0,,10.5,2.1,29.75,1007.9,,,,,,,,,,,,,,,,8500.0,8500.0,BKN,8600.0,BKN,11000.0,OVC,14000.0,,
KRDR,10-06-2020,08:56,METAR,Normal,260,5.0,,,9999.0,,8.2,2.0,29.77,1008.7,,,,,,,,,,,,,,,,15000.0,9500.0,SCT,9600.0,BKN,15000.0,,,,
KRDR,10-06-2020,07:56,METAR,Normal,270,7.0,,,9999.0,,10.4,2.0,29.77,1008.6,,,,,,,,,,,,,,,,10000.0,10000.0,OVC,10000.0,,,,,,
KRDR,10-06-2020,06:56,METAR,Normal,280,7.0,,,9999.0,,11.2,1.4,29.78,1008.9,,,,,,,,,,,,,,,,12000.0,12000.0,OVC,12000.0,,,,,,
KRDR,10-06-2020,05:56,METAR,Normal,280,6.0,,,9999.0,,9.1,1.5,29.78,1009.0,,,,,,,,,,,,,,,2/8 Mostly Clear,72000.0,15000.0,FEW,15000.0,,,,,,
KRDR,10-06-2020,04:56,METAR,Normal,280,6.0,,,9999.0,,8.8,1.7,29.79,1009.4,,,,,,,,,,,,,,,Clear,72000.0,,,,,,,,,
KRDR,10-06-2020,03:56,METAR,Normal,290,6.0,,,9999.0,,8.6,1.3,29.80,1009.9,,,,,,,,,,,,,,,Clear,72000.0,,,,,,,,,
KRDR,10-06-2020,02:56,METAR,Normal,300,7.0,,,9999.0,,10.5,1.3,29.80,1009.9,,,,,,,,,,,,,,,Clear,72000.0,,,,,,,,,
KRDR,10-06-2020,01:56,METAR,Normal,320,8.0,,,9999.0,,13.3,1.0,29.79,1009.6,,,,,,,,,,,,,,,Clear,72000.0,,,,,,,,,
KRDR,10-06-2020,00:56,METAR,Normal,320,6.0,,,9999.0,,13.9,2.2,29.78,1009.3,,,,,,,,,,,,,,,Clear,72000.0,,,,,,,,,
KRDR,10-05-2020,23:56,METAR,Normal,330,9.0,,310/27KTS,9999.0,,18.1,1.1,29.76,1008.5,,,,,,,,,,,,,,,Clear,72000.0,,,,,,,,,
KRDR,10-05-2020,22:56,METAR,Normal,330,13.0,24.0,330/27KTS,9999.0,,20.6,1.4,29.73,1007.3,,,,,,,,,,,,,,,Clear,72000.0,,,,,,,,,
KRDR,10-05-2020,21:56,METAR,Normal,340,20.0,28.0,330/29KTS,9999.0,,21.9,3.5,29.71,1006.6,,,,,,,,,,,,,,,2/8 Mostly Clear,72000.0,7500.0,FEW,7500.0,,,,,,
KRDR,10-05-2020,20:56,METAR,Normal,320,17.0,26.0,330/28KTS,9999.0,,22.6,5.9,29.69,1005.9,,,,,,,,,,,,,,,4/8 Partly Cloudy,72000.0,6500.0,SCT,6500.0,,,,,,
KRDR,10-05-2020,19:56,METAR,Normal,340,19.0,24.0,320/30KTS,9999.0,,22.2,7.6,29.67,1005.2,,,,,,,,,,,,,,,,5500.0,5500.0,BKN,5500.0,,,,,,
KRDR,10-05-2020,18:56,METAR,Normal,340,19.0,27.0,330/28KTS,9999.0,,22.0,10.2,29.66,1004.9,,,,,,,,,,,,,,,,4900.0,4900.0,BKN,4900.0,BKN,5500.0,,,,
KRDR,10-05-2020,17:56,METAR,Normal,330,18.0,23.0,,9999.0,,20.5,11.4,29.66,1004.8,,,,,,,,,,,,,,,4/8 Partly Cloudy,72000.0,5000.0,FEW,5000.0,FEW,10000.0,SCT,21000.0,,
KRDR,10-05-2020,16:56,METAR,Normal,320,14.0,,,9999.0,,18.0,8.8,29.64,1004.2,,,,,,,,,,,,,,,,10000.0,10000.0,BKN,10000.0,BKN,15000.0,,,,
KRDR,10-05-2020,15:56,METAR,Normal,310,9.0,,,9999.0,,15.1,7.1,29.62,1003.6,,,,,,,,,,,,,,,,13000.0,8000.0,SCT,8000.0,BKN,13000.0,,,,
KRDR,10-05-2020,14:56,METAR,Normal,290,5.0,,,9999.0,,13.3,7.7,29.59,1002.7,,,,,,,,,,,,,,,,14000.0,8000.0,FEW,8000.0,BKN,14000.0,,,,
KRDR,10-05-2020,13:56,METAR,Normal,230,7.0,,,9999.0,,9.9,7.0,29.57,1002.0,,,,,,,,,,,,,,,4/8 Partly Cloudy,72000.0,7000.0,FEW,7000.0,SCT,8000.0,,,,
KRDR,10-05-2020,12:56,METAR,Normal,210,7.0,,,9999.0,,8.0,6.6,29.56,1001.8,,,,,,,,,,,,,,,Clear,72000.0,,,,,,,,,
KRDR,10-05-2020,11:56,METAR,Normal,200,10.0,,,9999.0,,7.5,6.3,29.57,1002.1,,,,,,,,,,,,,,,Clear,72000.0,,,,,,,,,
KRDR,10-05-2020,10:56,METAR,Normal,200,11.0,,,9999.0,,8.3,6.1,29.58,1002.4,,,,,,,,,,,,,,,Clear,72000.0,,,,,,,,,
KRDR,10-05-2020,09:56,METAR,Normal,200,13.0,18.0,,9999.0,,8.6,6.0,29.60,1003.0,,,,,,,,,,,,,,,Clear,72000.0,,,,,,,,,
KRDR,10-05-2020,08:56,METAR,Normal,200,12.0,,,9999.0,,8.7,5.8,29.63,1004.0,,,,,,,,,,,,,,,Clear,72000.0,,,,,,,,,
KRDR,10-05-2020,07:56,METAR,Normal,180,10.0,,,9999.0,,9.1,5.5,29.68,1005.7,,,,,,,,,,,,,,,Clear,72000.0,,,,,,,,,
KRDR,10-05-2020,06:56,METAR,Normal,190,10.0,,,9999.0,,10.7,5.9,29.71,1006.8,,,,,,,,,,,,,,,Clear,72000.0,,,,,,,,,
KRDR,10-05-2020,05:56,METAR,Normal,200,12.0,,,9999.0,,12.0,5.4,29.73,1007.4,,,,,,,,,,,,,,,,19000.0,16000.0,SCT,16000.0,OVC,19000.0,,,,
KRDR,10-05-2020,04:56,METAR,Normal,200,12.0,,,9999.0,,12.2,4.9,29.76,1008.5,,,,,,,,,,,,,,,,15000.0,15000.0,BKN,15000.0,OVC,18000.0,,,,
KRDR,10-05-2020,03:56,METAR,Normal,190,13.0,,,9999.0,,12.1,4.6,29.79,1009.6,,,,,,,,,,,,,,,Clear,72000.0,,,,,,,,,
KRDR,10-05-2020,02:56,METAR,Normal,200,11.0,,,9999.0,,13.1,4.0,29.83,1011.0,,,,,,,,,,,,,,,,15000.0,15000.0,BKN,15000.0,,,,,,
KRDR,10-05-2020,01:56,METAR,Normal,190,12.0,,,9999.0,,14.0,4.0,29.85,1011.8,,,,,,,,,,,,,,,,14000.0,14000.0,OVC,14000.0,,,,,,
KRDR,10-05-2020,00:56,METAR,Normal,180,10.0,,,9999.0,,14.1,4.4,29.86,1012.3,,,,,,,,,,,,,,,,14000.0,14000.0,BKN,14000.0,,,,,,
KRDR,10-04-2020,23:56,METAR,Normal,190,11.0,,,9999.0,,14.7,4.1,29.88,1012.9,,,,,,,,,,,,,,,Clear,72000.0,,,,,,,,,
KRDR,10-04-2020,22:56,METAR,Normal,200,18.0,23.0,190/27KTS,9999.0,,16.7,3.4,29.92,1014.2,,,,,,,,,,,,,,,Clear,72000.0,,,,,,,,,
KRDR,10-04-2020,21:56,METAR,Normal,210,16.0,23.0,210/27KTS,9999.0,,16.8,2.8,29.94,1015.0,,,,,,,,,,,,,,,Clear,72000.0,,,,,,,,,
KRDR,10-04-2020,20:56,METAR,Normal,210,19.0,25.0,200/26KTS,9999.0,,17.2,2.4,29.97,1016.0,,,,,,,,,,,,,,,Clear,72000.0,,,,,,,,,
KRDR,10-04-2020,19:56,METAR,Normal,200,15.0,22.0,190/28KTS,9999.0,,16.5,1.8,30.01,1017.4,,,,,,,,,,,,,,,Clear,72000.0,,,,,,,,,
KRDR,10-04-2020,18:56,METAR,Normal,210,19.0,24.0,,9999.0,,15.3,0.7,30.04,1018.5,,,,,,,,,,,,,,,Clear,72000.0,,,,,,,,,
KRDR,10-04-2020,17:56,METAR,Normal,220,16.0,24.0,,9999.0,,14.6,-0.3,30.08,1019.8,,,,,,,,,,,,,,,Clear,72000.0,,,,,,,,,
KRDR,10-04-2020,16:56,METAR,Normal,210,15.0,23.0,,9999.0,,12.3,-1.3,30.11,1020.9,,,,,,,,,,,,,,,4/8 Partly Cloudy,72000.0,6000.0,SCT,6000.0,,,,,,
KRDR,10-04-2020,15:56,METAR,Normal,210,15.0,20.0,,9999.0,,9.9,-2.1,30.15,1022.4,,,,,,,,,,,,,,,,6000.0,6000.0,OVC,6000.0,,,,,,
KRDR,10-04-2020,14:56,METAR,Normal,210,7.0,,,9999.0,,7.9,0.1,30.17,1023.1,,,,,,,,,,,,,,,,6000.0,6000.0,OVC,6000.0,,,,,,
KRDR,10-04-2020,13:56,METAR,Normal,200,3.0,,,9999.0,,4.2,0.7,30.18,1023.5,,,,,,,,,,,,,,,,6000.0,6000.0,OVC,6000.0,,,,,,
KRDR,10-04-2020,12:56,METAR,Normal,210,5.0,,,9999.0,,-0.4,-3.8,30.19,1024.0,,,,,,,,,,,,,,,4/8 Partly Cloudy,72000.0,6500.0,SCT,6500.0,,,,,,
KRDR,10-04-2020,11:56,METAR,Normal,230,5.0,,,9999.0,,-0.6,-4.5,30.21,1024.5,,,,,,,,,,,,,,,Clear,72000.0,,,,,,,,,
KRDR,10-04-2020,10:56,METAR,Normal,230,5.0,,,9999.0,,-1.7,-4.7,30.21,1024.4,,,,,,,,,,,,,,,Clear,72000.0,,,,,,,,,
KRDR,10-04-2020,09:56,METAR,Normal,230,4.0,,,9999.0,,-2.7,-5.0,30.22,1024.8,,,,,,,,,,,,,,,Clear,72000.0,,,,,,,,,
KRDR,10-04-2020,08:56,METAR,Normal,230,5.0,,,9999.0,,-3.1,-4.7,30.22,1024.7,,,,,,,,,,,,,,,Clear,72000.0,,,,,,,,,
KRDR,10-04-2020,07:56,METAR,Normal,200,3.0,,,9999.0,,-3.0,-5.0,30.23,1025.0,,,,,,,,,,,,,,,Clear,72000.0,,,,,,,,,
KRDR,10-04-2020,06:56,METAR,Normal,250,4.0,,,9999.0,,-3.7,-5.3,30.23,1025.1,,,,,,,,,,,,,,,Clear,72000.0,,,,,,,,,
KRDR,10-04-2020,05:56,METAR,Calm,,0.0,,,9999.0,,-2.7,-4.7,30.23,1025.1,,,,,,,,,,,,,,,Clear,72000.0,,,,,,,,,
KRDR,10-04-2020,04:56,METAR,Calm,,0.0,,,9999.0,,-2.6,-4.6,30.23,1025.1,,,,,,,,,,,,,,,Clear,72000.0,,,,,,,,,
KRDR,10-04-2020,03:56,METAR,Calm,,0.0,,,9999.0,,-2.2,-3.9,30.23,1025.1,,,,,,,,,,,,,,,Clear,72000.0,,,,,,,,,
KRDR,10-04-2020,02:56,METAR,Calm,,0.0,,,9999.0,,-0.4,-4.1,30.22,1024.8,,,,,,,,,,,,,,,Clear,72000.0,,,,,,,,,
KRDR,10-04-2020,01:56,METAR,Calm,,0.0,,,9999.0,,1.0,-3.3,30.22,1024.8,,,,,,,,,,,,,,,Clear,72000.0,,,,,,,,,
KRDR,10-04-2020,00:56,METAR,Calm,,0.0,,,9999.0,,2.0,-2.5,30.22,1024.8,,,,,,,,,,,,,,,Clear,72000.0,,,,,,,,,
KRDR,10-03-2020,23:56,METAR,Normal,30,3.0,,,9999.0,,8.0,-4.1,30.21,1024.3,,,,,,,,,,,,,,,Clear,72000.0,,,,,,,,,
KRDR,10-03-2020,22:56,METAR,Normal,30,6.0,,,9999.0,,11.1,-6.3,30.20,1023.8,,,,,,,,,,,,,,,Clear,72000.0,,,,,,,,,
KRDR,10-03-2020,21:56,METAR,Normal,50,8.0,,,9999.0,,11.8,-5.7,30.19,1023.4,,,,,,,,,,,,,,,Clear,72000.0,,,,,,,,,
KRDR,10-03-2020,20:56,METAR,Normal,360,5.0,,,9999.0,,12.3,-5.2,30.20,1023.7,,,,,,,,,,,,,,,Clear,72000.0,,,,,,,,,
KRDR,10-03-2020,19:56,METAR,Normal,40,8.0,,,9999.0,,12.4,-5.6,30.20,1023.7,,,,,,,,,,,,,,,,19000.0,5000.0,FEW,5000.0,BKN,19000.0,,,,
KRDR,10-03-2020,18:56,METAR,Normal,30,7.0,,,9999.0,,11.8,-4.4,30.21,1024.1,,,,,,,,,,,,,,,2/8 Mostly Clear,72000.0,18000.0,FEW,18000.0,,,,,,
KRDR,10-03-2020,17:56,METAR,Normal,90,6.0,,,9999.0,,11.7,-3.3,30.21,1024.1,,,,,,,,,,,,,,,4/8 Partly Cloudy,72000.0,9000.0,SCT,9100.0,,,,,,
KRDR,10-03-2020,16:56,METAR,Normal,70,4.0,,,9999.0,,10.8,-1.6,30.21,1024.1,,,,,,,,,,,,,,,2/8 Mostly Clear,72000.0,6000.0,FEW,6000.0,,,,,,
KRDR,10-03-2020,15:56,METAR,Normal,30,6.0,,,9999.0,,9.5,0.1,30.21,1024.1,,,,,,,,,,,,,,,Clear,72000.0,,,,,,,,,
KRDR,10-03-2020,14:56,METAR,Normal,20,6.0,,,9999.0,,6.9,2.4,30.21,1024.2,,,,,,,,,,,,,,,,6500.0,6500.0,OVC,6500.0,,,,,,
KRDR,10-03-2020,13:56,METAR,Normal,20,5.0,,,9999.0,,5.1,3.0,30.20,1023.9,,,,,,,,,,,,,,,,5500.0,5500.0,BKN,5500.0,OVC,6500.0,,,,
KRDR,10-03-2020,12:56,METAR,Calm,,0.0,,,9999.0,,3.7,3.6,30.19,1023.6,,,,,,,,,,,,,,,,5000.0,5000.0,BKN,5000.0,OVC,6000.0,,,,
KRDR,10-03-2020,11:56,METAR,Calm,,0.0,,,9999.0,,4.1,3.7,30.18,1023.3,,,,,,,,,,,,,TRACE,,,6000.0,6000.0,BKN,6000.0,OVC,8600.0,,,,
KRDR,10-03-2020,10:56,METAR,Calm,,0.0,,,9999.0,,4.7,4.6,30.17,1022.8,,,,,,,,,,,,,,,,5000.0,5000.0,OVC,5000.0,,,,,,
KRDR,10-03-2020,09:56,METAR,Calm,,0.0,,,9999.0,,5.4,3.2,30.16,1022.4,,,,,,,,,,,,,,,,5000.0,5000.0,OVC,5000.0,,,,,,
KRDR,10-03-2020,08:56,METAR,Calm,,0.0,,,9999.0,,5.2,3.7,30.15,1022.1,,,,,,,,,,,TRACE,TRACE,,,,5000.0,5000.0,OVC,5000.0,,,,,,
KRDR,10-03-2020,08:18,SPECI,Calm,,0.0,,,9999.0,,6.0,3.0,30.16,1022.4,,,,,,,,,,,,,,,,5000.0,5000.0,BKN,5000.0,,,,,,
KRDR,10-03-2020,08:06,SPECI,Calm,,0.0,,,9999.0,Light Rain,6.0,2.0,30.16,1022.4,61,,,,,,,,,,,,,,,5000.0,2900.0,SCT,2900.0,BKN,5000.0,,,,
KRDR,10-03-2020,07:56,METAR,Normal,40,3.0,,,9999.0,Light Drizzle,5.2,3.2,30.16,1022.4,51,,,,,,,,,,TRACE,,,,,2900.0,1200.0,FEW,1200.0,BKN,2900.0,BKN,3900.0,,
KRDR,10-03-2020,07:55,SPECI,Normal,40,3.0,,,9999.0,Light Drizzle,5.0,3.0,30.16,1022.4,51,,,,,,,,,,,,,,,2900.0,2900.0,BKN,2900.0,BKN,3900.0,,,,
KRDR,10-03-2020,07:35,SPECI,Calm,,0.0,,,9999.0,Light Rain,5.0,3.0,30.15,1022.1,61,,,,,,,,,,,,,,,4200.0,3000.0,FEW,3000.0,OVC,4200.0,,,,
KRDR,10-03-2020,06:56,METAR,Calm,,0.0,,,9999.0,,5.6,1.9,30.15,1022.1,,,,,,,,,,,,,,,,4500.0,4500.0,OVC,4500.0,,,,,,
KRDR,10-03-2020,05:56,METAR,Calm,,0.0,,,9999.0,,5.9,0.4,30.15,1022.2,,,,,,,,,,,,,,,,4900.0,4900.0,OVC,4900.0,,,,,,
KRDR,10-03-2020,04:56,METAR,Calm,,0.0,,,9999.0,,5.9,0.0,30.15,1022.2,,,,,,,,,,,,,,,,5500.0,5500.0,BKN,5500.0,OVC,7000.0,,,,
KRDR,10-03-2020,03:56,METAR,Normal,150,4.0,,,9999.0,,6.2,0.1,30.14,1021.9,,,,,,,,,,,,,,,,8000.0,8000.0,BKN,8000.0,OVC,10000.0,,,,
KRDR,10-03-2020,02:56,METAR,Normal,110,5.0,,,9999.0,,6.9,-0.6,30.15,1022.3,,,,,,,,,,,,,,,,9000.0,7000.0,SCT,7000.0,OVC,9100.0,,,,
KRDR,10-03-2020,01:56,METAR,Normal,110,4.0,,,9999.0,,7.2,0.0,30.15,1022.4,,,,,,,,,,,,,,,,9000.0,9000.0,OVC,9100.0,,,,,,
KRDR,10-03-2020,00:56,METAR,Normal,80,4.0,,,9999.0,,7.6,-0.4,30.14,1022.1,,,,,,,,,,,,,,,,9500.0,6500.0,SCT,6500.0,OVC,9600.0,,,,
KRDR,10-02-2020,23:56,METAR,Normal,140,3.0,,,9999.0,,7.9,-1.4,30.13,1021.8,,,,,,,,,,,,,,,,16000.0,10000.0,SCT,10000.0,BKN,16000.0,,,,
KRDR,10-02-2020,22:56,METAR,Normal,210,3.0,,,9999.0,,9.6,-1.8,30.13,1021.8,,,,,,,,,,,,,,,,5000.0,5000.0,BKN,5000.0,OVC,8600.0,,,,
KRDR,10-02-2020,21:56,METAR,Normal,360,3.0,,,9999.0,,10.4,-1.6,30.13,1021.8,,,,,,,,,,,,,,,,5000.0,5000.0,BKN,5000.0,,,,,,
KRDR,10-02-2020,20:56,METAR,Normal,240,3.0,,,9999.0,,11.3,-2.2,30.14,1022.0,,,,,,,,,,,,,,,,5000.0,5000.0,OVC,5000.0,,,,,,
KRDR,10-02-2020,19:56,METAR,Calm,,0.0,,,9999.0,,11.0,-1.8,30.14,1022.0,,,,,,,,,,,,,,,4/8 Partly Cloudy,72000.0,4900.0,SCT,4900.0,,,,,,
KRDR,10-02-2020,18:56,METAR,Normal,170,3.0,,,9999.0,,9.2,-1.5,30.16,1022.7,,,,,,,,,,,,,,,,21000.0,3800.0,SCT,3800.0,SCT,13000.0,BKN,21000.0,,
KRDR,10-02-2020,17:56,METAR,Normal,190,3.0,,,9999.0,,8.0,-1.0,30.19,1023.7,,,,,,,,,,,,,,,,21000.0,5500.0,FEW,5500.0,SCT,12000.0,BKN,21000.0,,
KRDR,10-02-2020,16:56,METAR,Normal,160,5.0,,,9999.0,,7.4,-0.8,30.20,1024.0,,,,,,,,,,,,,,,,21000.0,5000.0,FEW,5000.0,SCT,12000.0,BKN,21000.0,,
KRDR,10-02-2020,15:56,METAR,Normal,140,4.0,,,9999.0,,5.0,0.0,30.21,1024.4,,,,,,,,,,,,,,,,21000.0,5000.0,FEW,5000.0,SCT,12000.0,BKN,21000.0,,
KRDR,10-02-2020,14:56,METAR,Normal,110,3.0,,,9999.0,,2.0,0.1,30.22,1024.8,,,,,,,,,,,,,,,,21000.0,5000.0,SCT,5000.0,SCT,13000.0,BKN,21000.0,,
KRDR,10-02-2020,14:26,SPECI,Calm,,0.0,,,9999.0,,1.0,-1.0,30.23,1025.1,,,,,,,,,,,,,,,,21000.0,5000.0,SCT,5000.0,SCT,13000.0,BKN,21000.0,,
KRDR,10-02-2020,13:56,METAR,Normal,90,5.0,,,9999.0,,0.7,-0.2,30.23,1025.2,,,,,,,,,,,,,,,,4900.0,4900.0,BKN,4900.0,,,,,,
KRDR,10-02-2020,12:56,METAR,Calm,,0.0,,,9999.0,,-1.8,-1.9,30.24,1025.6,,,,,,,,,,,,,,,,4900.0,4900.0,OVC,4900.0,,,,,,
KRDR,10-02-2020,11:56,METAR,Calm,,0.0,,,9999.0,,-2.5,-2.6,30.24,1025.5,,,,,,,,,,,,,,,,4900.0,4900.0,OVC,4900.0,,,,,,
KRDR,10-02-2020,10:56,METAR,Calm,,0.0,,,9999.0,,-4.1,-4.2,30.25,1025.9,,,,,,,,,,,,,,,,5000.0,5000.0,BKN,5000.0,,,,,,
KRDR,10-02-2020,09:56,METAR,Calm,,0.0,,,9999.0,,-3.9,-4.0,30.25,1025.9,,,,,,,,,,,,,,,Clear,72000.0,,,,,,,,,
KRDR,10-02-2020,08:56,METAR,Normal,330,3.0,,,9999.0,,-3.2,-3.3,30.26,1026.2,,,,,,,,,,,,,,,Clear,72000.0,,,,,,,,,
KRDR,10-02-2020,07:56,METAR,Calm,,0.0,,,9999.0,,-2.5,-2.8,30.27,1026.5,,,,,,,,,,,,,,,Clear,72000.0,,,,,,,,,
KRDR,10-02-2020,06:56,METAR,Normal,350,4.0,,,9999.0,,-1.5,-1.8,30.28,1026.8,,,,,,,,,,,,,,,Clear,72000.0,,,,,,,,,
KRDR,10-02-2020,05:56,METAR,Normal,50,3.0,,,9999.0,,1.3,-0.8,30.29,1027.1,,,,,,,,,,,,,,,,5000.0,5000.0,OVC,5000.0,,,,,,
KRDR,10-02-2020,04:56,METAR,Normal,80,4.0,,,9999.0,,2.9,-0.4,30.29,1027.0,,,,,,,,,,,,,,,,4900.0,4900.0,BKN,4900.0,,,,,,
KRDR,10-02-2020,03:56,METAR,Normal,40,7.0,,,9999.0,,5.0,0.8,30.28,1026.7,,,,,,,,,,,,,,,,4900.0,4900.0,OVC,4900.0,,,,,,
KRDR,10-02-2020,02:56,METAR,Normal,10,5.0,,,9999.0,,6.1,2.2,30.28,1026.7,,,,,,,,,,,,,,,,4600.0,4600.0,OVC,4600.0,,,,,,
KRDR,10-02-2020,01:56,METAR,Normal,10,5.0,,,9999.0,,5.9,2.7,30.29,1027.1,,,,,,,,,,,,,,,,4600.0,4600.0,OVC,4600.0,,,,,,
KRDR,10-02-2020,00:56,METAR,Normal,40,5.0,,,9999.0,,6.4,2.5,30.29,1027.1,,,,,,,,,,,,,,,,4900.0,4900.0,OVC,4900.0,,,,,,
KRDR,10-01-2020,23:56,METAR,Normal,40,7.0,,,9999.0,,7.3,2.6,30.29,1027.1,,,,,,,,,,,,,,,,4700.0,4700.0,OVC,4700.0,,,,,,
KRDR,10-01-2020,22:56,METAR,Normal,10,7.0,,,9999.0,,8.5,0.9,30.30,1027.3,,,,,,,,,,,,,,,,5000.0,3800.0,FEW,3800.0,OVC,5000.0,,,,
KRDR,10-01-2020,21:56,METAR,Normal,360,11.0,,,9999.0,,8.9,0.3,30.30,1027.3,,,,,,,,,,,,,,,,5000.0,5000.0,OVC,5000.0,,,,,,
KRDR,10-01-2020,20:56,METAR,Normal,10,10.0,,,9999.0,,9.3,-0.9,30.32,1028.0,,,,,,,,,,,,,,,,4600.0,4600.0,BKN,4600.0,,,,,,
KRDR,10-01-2020,19:56,METAR,Normal,20,14.0,,,9999.0,,10.0,-0.2,30.33,1028.2,,,,,,,,,,,,,,,,4000.0,4000.0,OVC,4000.0,,,,,,
KRDR,10-01-2020,18:56,METAR,Normal,10,8.0,16.0,,9999.0,,9.1,-0.2,30.34,1028.6,,,,,,,,,,,,,,,,3700.0,3700.0,BKN,3700.0,,,,,,
KRDR,10-01-2020,18:29,SPECI,Normal,30,13.0,,,9999.0,,9.0,-1.0,30.34,1028.6,,,,,,,,,,,,,,,,3600.0,3600.0,BKN,3600.0,,,,,,
KRDR,10-01-2020,17:56,METAR,Normal,10,12.0,21.0,,9999.0,,8.5,-0.3,30.35,1028.9,,,,,,,,,,,,,,,,3500.0,3500.0,BKN,3500.0,,,,,,
KRDR,10-01-2020,16:56,METAR,Normal,20,16.0,20.0,,9999.0,,8.0,-0.2,30.35,1028.9,,,,,,,,,,,,,,,,3100.0,3100.0,BKN,3100.0,,,,,,
KRDR,10-01-2020,16:46,SPECI,Normal,10,15.0,,,9999.0,,7.0,0.0,30.35,1028.9,,,,,,,,,,,,,,,,3000.0,3000.0,BKN,3000.0,,,,,,
KRDR,10-01-2020,15:56,METAR,Normal,360,14.0,21.0,,9999.0,,7.6,1.2,30.34,1028.6,,,,,,,,,,,,,,,,2500.0,2500.0,BKN,2500.0,,,,,,
KRDR,10-01-2020,15:06,SPECI,Normal,10,13.0,21.0,,9999.0,,6.0,2.0,30.33,1028.3,,,,,,,,,,,,,,,,2600.0,1800.0,SCT,1800.0,BKN,2600.0,,,,
KRDR,10-01-2020,14:56,METAR,Normal,360,16.0,21.0,,9999.0,,5.7,1.6,30.33,1028.3,,,,,,,,,,,,,,,4/8 Partly Cloudy,72000.0,1800.0,SCT,1800.0,,,,,,
KRDR,10-01-2020,13:56,METAR,Normal,360,10.0,,,9999.0,,4.3,1.5,30.32,1028.0,,,,,,,,,,,,,,,Clear,72000.0,,,,,,,,,
KRDR,10-01-2020,12:56,METAR,Normal,350,9.0,,,9999.0,,3.1,1.5,30.31,1027.7,,,,,,,,,,,,,,,2/8 Mostly Clear,72000.0,3500.0,FEW,3500.0,,,,,,
KRDR,10-01-2020,11:56,METAR,Normal,350,10.0,15.0,,9999.0,,3.4,1.9,30.28,1026.7,,,,,,,,,,,,,TRACE,.01 IN,4/8 Partly Cloudy,72000.0,3400.0,SCT,3400.0,,,,,,
KRDR,10-01-2020,10:56,METAR,Normal,360,13.0,,,9999.0,,4.7,2.2,30.25,1025.6,,,,,,,,,,,,,,,,3300.0,2000.0,FEW,2000.0,OVC,3300.0,,,,
KRDR,10-01-2020,10:46,SPECI,Normal,10,14.0,19.0,,9999.0,,5.0,2.0,30.25,1025.6,,,,,,,,,,,,,,,,2700.0,1900.0,SCT,1900.0,BKN,2700.0,OVC,3300.0,,
KRDR,10-01-2020,10:36,SPECI,Normal,10,14.0,21.0,,9999.0,,5.0,3.0,30.25,1025.5,,,,,,,,,,,,,,,,1900.0,1900.0,BKN,1900.0,OVC,3300.0,,,,
KRDR,10-01-2020,10:06,SPECI,Normal,360,11.0,,,9999.0,,4.0,3.0,30.23,1024.8,,,,,,,,,,,,,,,,2200.0,2200.0,BKN,2200.0,,,,,,
KRDR,10-01-2020,09:56,METAR,Normal,10,10.0,,,9999.0,,4.2,2.5,30.23,1024.8,,,,,,,,,,,TRACE,,,,,6000.0,2200.0,SCT,2200.0,BKN,6000.0,,,,
KRDR,10-01-2020,09:30,SPECI,Normal,10,12.0,20.0,,9999.0,,5.0,3.0,30.22,1024.4,,,,,,,,,,,,,,,,6000.0,1600.0,FEW,1600.0,SCT,2100.0,SCT,3600.0,OVC,6000.0
KRDR,10-01-2020,09:20,SPECI,Normal,10,13.0,25.0,,9999.0,,5.0,3.0,30.21,1024.1,,,,,,,,,,,,,,,,1700.0,1700.0,BKN,1700.0,BKN,2700.0,BKN,3600.0,OVC,6000.0
KRDR,10-01-2020,09:11,SPECI,Normal,10,19.0,25.0,,9999.0,Light Rain,6.0,3.0,30.21,1024.0,61,,,,,,,,,,,,,,,1700.0,1700.0,OVC,1700.0,,,,,,
KRDR,10-01-2020,08:56,METAR,Normal,10,16.0,24.0,010/27KTS,9999.0,,5.7,3.2,30.20,1023.7,,,,,,,,,,,,,,,,1800.0,1800.0,BKN,1800.0,OVC,2400.0,,,,
KRDR,10-01-2020,08:46,SPECI,Normal,10,15.0,24.0,,9999.0,,6.0,3.0,30.20,1023.7,,,,,,,,,,,,,,,,2000.0,2000.0,BKN,2000.0,OVC,2700.0,,,,
KRDR,10-01-2020,08:36,SPECI,Normal,20,17.0,24.0,,9999.0,,6.0,3.0,30.19,1023.4,,,,,,,,,,,,,,,,1900.0,1900.0,OVC,1900.0,,,,,,
KRDR,10-01-2020,07:56,METAR,Normal,360,15.0,19.0,360/28KTS,9999.0,,6.1,3.4,30.17,1022.6,,,,,,,,,,,,,,,,2100.0,2100.0,OVC,2100.0,,,,,,
KRDR,10-01-2020,07:26,SPECI,Normal,10,16.0,20.0,,9999.0,,6.0,4.0,30.16,1022.3,,,,,,,,,,,,,,,,2100.0,2100.0,BKN,2100.0,OVC,5500.0,,,,
KRDR,10-01-2020,06:56,METAR,Normal,360,14.0,25.0,350/29KTS,9999.0,,6.4,4.2,30.14,1021.6,,,,,,,,,,,,,,,,1800.0,1800.0,BKN,1800.0,,,,,,
KRDR,10-01-2020,06:46,SPECI,Normal,360,16.0,26.0,,9999.0,,6.0,4.0,30.14,1021.6,,,,,,,,,,,,,,,,1800.0,1800.0,BKN,1800.0,BKN,2500.0,,,,
KRDR,10-01-2020,06:16,SPECI,Normal,360,15.0,23.0,,9999.0,,7.0,4.0,30.12,1020.9,,,,,,,,,,,,,,,,3900.0,2300.0,SCT,2300.0,BKN,3900.0,,,,
KRDR,10-01-2020,05:56,METAR,Normal,10,20.0,26.0,360/27KTS,9999.0,,7.3,4.4,30.11,1020.5,,,,,,,,,,,,,TRACE,,,2000.0,2000.0,OVC,2000.0,,,,,,
KRDR,10-01-2020,04:56,METAR,Normal,350,19.0,24.0,350/32KTS,9999.0,,8.0,5.6,30.08,1019.5,,,,,,,,,,,TRACE,,,,,2300.0,2300.0,BKN,2300.0,BKN,2700.0,OVC,10000.0,,
KRDR,10-01-2020,04:54,SPECI,Normal,360,19.0,27.0,,9999.0,,8.0,6.0,30.08,1019.4,,,,,,,,,,,,,,,,2300.0,2300.0,BKN,2300.0,BKN,2700.0,OVC,10000.0,,
KRDR,10-01-2020,04:45,SPECI,Normal,360,22.0,27.0,,9999.0,Light Drizzle,8.0,5.0,30.08,1019.4,51,,,,,,,,,,,,,,,2100.0,2100.0,OVC,2100.0,,,,,,
KRDR,10-01-2020,03:56,METAR,Normal,360,22.0,31.0,350/31KTS,9999.0,,8.8,5.0,30.06,1018.8,,,,,,,,,,,TRACE,,,,,2400.0,2400.0,OVC,2400.0,,,,,,
KRDR,10-01-2020,03:23,SPECI,Normal,360,18.0,25.0,,9999.0,,8.0,5.0,30.05,1018.5,,,,,,,,,,,,,,,,2600.0,2600.0,OVC,2600.0,,,,,,
KRDR,10-01-2020,03:09,SPECI,Normal,360,14.0,22.0,,9999.0,Light Rain,9.0,5.0,30.04,1018.1,61,,,,,,,,,,,,,,,2800.0,2800.0,OVC,2800.0,,,,,,
KRDR,10-01-2020,03:06,SPECI,Normal,360,16.0,22.0,,9999.0,,9.0,5.0,30.04,1018.1,,,,,,,,,,,,,,,,2800.0,2800.0,OVC,2800.0,,,,,,
KRDR,10-01-2020,02:56,METAR,Normal,360,14.0,24.0,350/30KTS,9999.0,,8.8,4.8,30.04,1018.2,,,,,,,,,,,,TRACE,,,,3000.0,3000.0,OVC,3000.0,,,,,,
KRDR,10-01-2020,01:56,METAR,Normal,330,10.0,,,9999.0,,8.4,5.3,30.01,1017.2,,,,,,,,,,,,,,,,4200.0,4200.0,OVC,4200.0,,,,,,
KRDR,10-01-2020,00:56,METAR,Normal,340,13.0,,,9999.0,,8.6,5.3,30.00,1017.0,,,,,,,,,,,TRACE,,,,,9500.0,9500.0,OVC,9600.0,,,,,,
KRDR,10-01-2020,00:17,SPECI,Normal,340,13.0,18.0,,9999.0,,9.0,6.0,29.98,1016.3,,,,,,,,,,,,,,,,7000.0,7000.0,BKN,7000.0,BKN,8600.0,,,,
KRDR,10-01-2020,00:07,SPECI,Normal,340,10.0,,,9999.0,Light Rain,9.0,6.0,29.97,1015.9,61,,,,,,,,,,,,,,,7000.0,7000.0,BKN,7000.0,,,,,,
KRDR,09-30-2020,23:56,METAR,Normal,330,10.0,,,9999.0,,8.8,6.1,29.97,1015.9,,,,,,,,,,,.01 IN,,.01 IN,,,6500.0,6500.0,BKN,6500.0,,,,,,
KRDR,09-30-2020,23:48,SPECI,Normal,330,11.0,,,9999.0,,9.0,6.0,29.97,1015.9,,,,,,,,,,,,,,,4/8 Partly Cloudy,72000.0,6500.0,SCT,6500.0,SCT,8000.0,,,,
KRDR,09-30-2020,22:56,METAR,Normal,10,13.0,19.0,350/35KTS,9999.0,Light Rain,8.6,7.7,29.96,1015.5,61,,,,,,,,,,TRACE,,,,,4600.0,3000.0,FEW,3000.0,SCT,3900.0,BKN,4600.0,OVC,6000.0
KRDR,09-30-2020,22:39,SPECI,Normal,20,19.0,33.0,,9999.0,Light Rain,11.0,6.0,29.95,1015.1,61,,,,,,,,,,,,,,,3900.0,3900.0,BKN,3900.0,BKN,6000.0,OVC,8600.0,,
KRDR,09-30-2020,22:34,SPECI,Normal,10,22.0,33.0,,9999.0,,13.0,5.0,29.94,1014.7,,,,,,,,,,,,,,,,6000.0,3900.0,SCT,3900.0,BKN,6000.0,OVC,9100.0,,
KRDR,09-30-2020,21:56,METAR,Normal,330,18.0,27.0,310/28KTS,9999.0,,12.4,4.8,29.92,1014.0,,,,,,,,,,,TRACE,,,,,9000.0,5000.0,FEW,5000.0,OVC,9100.0,,,,
KRDR,09-30-2020,21:37,SPECI,Normal,320,11.0,27.0,,9999.0,,12.0,5.0,29.91,1013.7,,,,,,,,,,,,,,,,8500.0,5500.0,FEW,5500.0,OVC,8600.0,,,,
KRDR,09-30-2020,21:28,SPECI,Normal,330,20.0,27.0,,9999.0,Light Rain,13.0,3.0,29.91,1013.7,61,,,,,,,,,,,,,,,8000.0,5500.0,FEW,5500.0,OVC,8000.0,,,,
KRDR,09-30-2020,20:58,METAR,Normal,330,12.0,,350/26KTS,9999.0,,13.0,3.6,29.90,1013.4,,,,,,,,,,,TRACE,TRACE,,,,6000.0,6000.0,BKN,6000.0,BKN,8600.0,,,,
KRDR,09-30-2020,20:38,SPECI,Normal,330,14.0,23.0,,9999.0,,11.0,6.0,29.90,1013.4,,,,,,,,,,,,,,,,6000.0,6000.0,BKN,6000.0,OVC,8000.0,,,,
KRDR,09-30-2020,20:21,SPECI,Normal,350,15.0,23.0,,9999.0,Light Rain,14.0,3.0,29.89,1013.0,61,,,,,,,,,,,,,,,7000.0,7000.0,BKN,7000.0,OVC,8600.0,,,,
KRDR,09-30-2020,19:56,METAR,Normal,350,19.0,25.0,330/28KTS,9999.0,,14.0,2.9,29.89,1013.0,,,,,,,,,,,TRACE,,,,,6000.0,6000.0,BKN,6000.0,BKN,8000.0,,,,
KRDR,09-30-2020,19:52,SPECI,Normal,350,20.0,25.0,,9999.0,Light Rain,15.0,2.0,29.88,1012.7,61,,,,,,,,,,,,,,,6000.0,6000.0,BKN,6000.0,BKN,8000.0,,,,
KRDR,09-30-2020,18:56,METAR,Normal,340,19.0,27.0,,9999.0,,14.7,2.2,29.88,1012.7,,,,,,,,,,,,,,,,5000.0,5000.0,BKN,5000.0,BKN,6500.0,BKN,9100.0,,
KRDR,09-30-2020,17:56,METAR,Normal,360,19.0,24.0,310/30KTS,9999.0,,14.6,3.1,29.89,1013.0,,,,,,,,,,,,,,,,5000.0,5000.0,BKN,5000.0,BKN,10000.0,,,,
KRDR,09-30-2020,16:56,METAR,Normal,320,14.0,23.0,,9999.0,,14.9,3.1,29.88,1012.6,,,,,,,,,,,,,,,,5500.0,5500.0,BKN,5500.0,BKN,9100.0,,,,
KRDR,09-30-2020,15:56,METAR,Normal,330,13.0,22.0,,9999.0,,13.8,3.6,29.87,1012.3,,,,,,,,,,,,,,,2/8 Mostly Clear,72000.0,9000.0,FEW,9100.0,,,,,,
KRDR,09-30-2020,15:07,SPECI,Normal,320,15.0,20.0,,9999.0,,13.0,4.0,29.87,1012.3,,,,,,,,,,,,,,,,15000.0,15000.0,BKN,15000.0,,,,,,
KRDR,09-30-2020,14:56,METAR,Normal,330,12.0,,,9999.0,,11.8,3.6,29.87,1012.3,,,,,,,,,,,,,,,,16000.0,8000.0,SCT,8000.0,BKN,16000.0,,,,
KRDR,09-30-2020,13:56,METAR,Normal,320,9.0,,,9999.0,,10.0,3.5,29.85,1011.6,,,,,,,,,,,,,,,2/8 Mostly Clear,72000.0,14000.0,FEW,14000.0,,,,,,
KRDR,09-30-2020,12:56,METAR,Normal,320,10.0,,,9999.0,,7.2,3.4,29.83,1011.0,,,,,,,,,,,,,,,Clear,72000.0,,,,,,,,,
KRDR,09-30-2020,11:56,METAR,Normal,330,8.0,,,9999.0,,7.3,3.5,29.81,1010.3,,,,,,,,,,,,,,,Clear,72000.0,,,,,,,,,
KRDR,09-30-2020,10:56,METAR,Normal,340,11.0,,,9999.0,,8.4,3.8,29.79,1009.4,,,,,,,,,,,,,,,Clear,72000.0,,,,,,,,,
KRDR,09-30-2020,09:56,METAR,Normal,330,13.0,21.0,,9999.0,,9.3,4.5,29.76,1008.3,,,,,,,,,,,,,,,,9000.0,9000.0,BKN,9100.0,,,,,,
KRDR,09-30-2020,08:56,METAR,Normal,320,10.0,,,9999.0,,9.4,6.3,29.73,1007.3,,,,,,,,,,,,,,,4/8 Partly Cloudy,72000.0,9000.0,FEW,9100.0,SCT,11000.0,,,,
KRDR,09-30-2020,07:56,METAR,Normal,310,9.0,,,9999.0,,8.0,7.1,29.73,1007.3,,,,,,,,,,,,,,,,8500.0,8500.0,BKN,8600.0,,,,,,
KRDR,09-30-2020,06:56,METAR,Normal,300,7.0,,,9999.0,,6.7,6.6,29.71,1006.7,,,,,,,,,,,,,,,Clear,72000.0,,,,,,,,,
KRDR,09-30-2020,05:56,METAR,Normal,320,6.0,,,9999.0,,8.5,8.2,29.71,1006.6,,,,,,,,,,,,,TRACE,,4/8 Partly Cloudy,72000.0,11000.0,SCT,11000.0,,,,,,
KRDR,09-30-2020,04:56,METAR,Normal,360,9.0,,,9999.0,,10.0,8.8,29.70,1006.4,,,,,,,,,,,,,,,,11000.0,6500.0,SCT,6500.0,BKN,11000.0,,,,
KRDR,09-30-2020,03:56,METAR,Normal,30,11.0,,,9999.0,,10.9,8.8,29.68,1005.7,,,,,,,,,,,,,,,,8500.0,7000.0,FEW,7000.0,BKN,8600.0,OVC,12000.0,,
KRDR,09-30-2020,02:56,METAR,Normal,320,7.0,,,9999.0,,10.7,7.8,29.65,1004.7,,,,,,,,,,,TRACE,TRACE,,,2/8 Mostly Clear,72000.0,8000.0,FEW,8000.0,,,,,,
KRDR,09-30-2020,02:13,SPECI,Normal,50,10.0,,,9999.0,,12.0,8.0,29.63,1004.0,,,,,,,,,,,,,,,,7500.0,7500.0,BKN,7500.0,OVC,9100.0,,,,
KRDR,09-30-2020,01:56,METAR,Normal,20,14.0,,,9999.0,Light Rain,13.7,8.3,29.63,1004.0,61,,,,,,,,,,TRACE,,,,,7500.0,7500.0,BKN,7500.0,OVC,9100.0,,,,
KRDR,09-30-2020,01:47,SPECI,Normal,350,9.0,,,9999.0,Light Rain,15.0,7.0,29.62,1003.7,61,,,,,,,,,,,,,,,7500.0,7500.0,BKN,7500.0,OVC,8600.0,,,,
KRDR,09-30-2020,01:24,SPECI,Normal,290,7.0,,,9999.0,Light Rain,14.0,5.0,29.61,1003.4,61,,,,,,,,,,,,,,,7500.0,7500.0,OVC,7500.0,,,,,,
KRDR,09-30-2020,00:56,METAR,Normal,260,5.0,,,9999.0,,13.7,3.5,29.62,1003.8,,,,,,,,,,,,,,,,10000.0,8000.0,SCT,8000.0,BKN,10000.0,,,,
KRDR,09-29-2020,23:56,METAR,Normal,290,6.0,,,9999.0,,15.1,3.2,29.64,1004.4,,,,,,,,,,,,,,,,8000.0,8000.0,BKN,8000.0,,,,,,
KRDR,09-29-2020,22:56,METAR,Normal,330,11.0,,,9999.0,,19.6,1.5,29.67,1005.3,,,,,,,,,,,,,,,,7500.0,7500.0,BKN,7500.0,,,,,,
KRDR,09-29-2020,21:56,METAR,Normal,340,15.0,23.0,,9999.0,,21.2,0.9,29.67,1005.2,,,,,,,,,,,,,,,,10000.0,7500.0,SCT,7500.0,BKN,10000.0,,,,
KRDR,09-29-2020,20:56,METAR,Normal,330,8.0,,,9999.0,,20.2,2.1,29.69,1006.0,,,,,,,,,,,,,,,,20000.0,7000.0,SCT,7000.0,BKN,20000.0,,,,
KRDR,09-29-2020,20:43,SPECI,Normal,330,15.0,20.0,,9999.0,,20.0,3.0,29.69,1006.0,,,,,,,,,,,,,,,,9000.0,7500.0,SCT,7500.0,BKN,9100.0,,,,
KRDR,09-29-2020,19:56,METAR,Normal,350,15.0,23.0,,9999.0,,21.7,2.4,29.70,1006.2,,,,,,,,,,,,,,,,20000.0,7000.0,SCT,7000.0,BKN,20000.0,,,,
KRDR,09-29-2020,18:56,METAR,Normal,360,17.0,22.0,,9999.0,,21.1,1.4,29.71,1006.6,,,,,,,,,,,,,,,,19000.0,7000.0,FEW,7000.0,BKN,19000.0,,,,
KRDR,09-29-2020,17:56,METAR,Normal,360,14.0,,,9999.0,,20.8,3.5,29.71,1006.6,,,,,,,,,,,,,,,,19000.0,7000.0,FEW,7000.0,BKN,19000.0,,,,
KRDR,09-29-2020,16:56,METAR,Normal,350,14.0,,,9999.0,,18.9,6.4,29.71,1006.7,,,,,,,,,,,,,,,,18000.0,7000.0,FEW,7000.0,BKN,18000.0,,,,
KRDR,09-29-2020,15:56,METAR,Normal,360,12.0,,,9999.0,,16.6,6.1,29.71,1006.8,,,,,,,,,,,,,,,,18000.0,7000.0,FEW,7000.0,BKN,18000.0,BKN,22000.0,,
KRDR,09-29-2020,14:56,METAR,Normal,340,13.0,,,9999.0,,15.1,6.4,29.70,1006.5,,,,,,,,,,,,,,,,18000.0,7000.0,FEW,7000.0,BKN,18000.0,,,,
KRDR,09-29-2020,13:56,METAR,Normal,340,7.0,,,9999.0,,12.6,7.3,29.69,1006.1,,,,,,,,,,,,,,,,18000.0,7000.0,FEW,7000.0,BKN,18000.0,,,,
KRDR,09-29-2020,12:56,METAR,Normal,270,5.0,,,9999.0,,7.1,5.6,29.69,1006.3,,,,,,,,,,,,,,,Clear,72000.0,,,,,,,,,
KRDR,09-29-2020,11:56,METAR,Normal,240,6.0,,,9999.0,,9.5,6.2,29.71,1006.9,,,,,,,,,,,,,TRACE,,,11000.0,11000.0,BKN,11000.0,,,,,,
KRDR,09-29-2020,10:56,METAR,Normal,230,7.0,,,9999.0,,10.7,6.8,29.71,1006.8,,,,,,,,,,,TRACE,,,,4/8 Partly Cloudy,72000.0,8500.0,SCT,8600.0,,,,,,
KRDR,09-29-2020,10:42,SPECI,Normal,230,7.0,,,9999.0,,11.0,8.0,29.72,1007.1,,,,,,,,,,,,,,,,8000.0,6000.0,FEW,6000.0,BKN,8000.0,OVC,10000.0,,
KRDR,09-29-2020,10:31,SPECI,Normal,230,8.0,,,9999.0,Light Rain,11.0,7.0,29.73,1007.4,61,,,,,,,,,,,,,,,7500.0,6000.0,FEW,6000.0,BKN,7500.0,OVC,8600.0,,
KRDR,09-29-2020,09:56,METAR,Normal,220,6.0,,,9999.0,,10.9,7.2,29.75,1008.1,,,,,,,,,,,TRACE,,,,,8000.0,8000.0,OVC,8000.0,,,,,,
KRDR,09-29-2020,09:29,SPECI,Normal,220,5.0,,,9999.0,,10.0,8.0,29.76,1008.5,,,,,,,,,,,,,,,,8000.0,8000.0,OVC,8000.0,,,,,,
KRDR,09-29-2020,09:17,SPECI,Normal,230,7.0,,,9999.0,Light Rain,10.0,8.0,29.77,1008.8,61,,,,,,,,,,,,,,,8000.0,8000.0,BKN,8000.0,,,,,,
KRDR,09-29-2020,09:07,SPECI,Normal,230,6.0,,,9999.0,,10.0,8.0,29.78,1009.1,,,,,,,,,,,,,,,,8000.0,8000.0,BKN,8000.0,,,,,,
KRDR,09-29-2020,08:58,SPECI,Normal,240,6.0,,,9999.0,Light Rain,11.0,7.0,29.79,1009.5,61,,,,,,,,,,,,,,,8000.0,8000.0,OVC,8000.0,,,,,,
KRDR,09-29-2020,08:56,METAR,Normal,250,6.0,,,9999.0,,10.6,7.1,29.79,1009.5,,,,,,,,,,,,TRACE,,,,8000.0,8000.0,OVC,8000.0,,,,,,
KRDR,09-29-2020,07:56,METAR,Normal,240,6.0,,,9999.0,,9.7,7.1,29.83,1010.9,,,,,,,,,,,,,,,,8000.0,8000.0,BKN,8000.0,OVC,10000.0,,,,
KRDR,09-29-2020,06:56,METAR,Normal,260,6.0,,,9999.0,,9.2,6.6,29.87,1012.3,,,,,,,,,,,TRACE,,,,,8000.0,8000.0,OVC,8000.0,,,,,,
KRDR,09-29-2020,06:35,SPECI,Normal,260,5.0,,,9999.0,,9.0,7.0,29.88,1012.7,,,,,,,,,,,,,,,4/8 Partly Cloudy,72000.0,5500.0,FEW,5500.0,SCT,9100.0,,,,
KRDR,09-29-2020,06:26,SPECI,Normal,260,6.0,,,9999.0,Light Drizzle,9.0,7.0,29.88,1012.7,51,,,,,,,,,,,,,,4/8 Partly Cloudy,72000.0,5500.0,FEW,5500.0,SCT,8600.0,,,,
KRDR,09-29-2020,05:56,METAR,Normal,260,6.0,,,9999.0,,8.9,6.2,29.90,1013.4,,,,,,,,,,,,,,,4/8 Partly Cloudy,72000.0,11000.0,FEW,11000.0,SCT,16000.0,SCT,18000.0,,
KRDR,09-29-2020,04:56,METAR,Normal,290,4.0,,,9999.0,,8.7,6.1,29.92,1014.1,,,,,,,,,,,,,,,4/8 Partly Cloudy,72000.0,11000.0,SCT,11000.0,,,,,,
KRDR,09-29-2020,03:56,METAR,Calm,,0.0,,,9999.0,,8.1,5.4,29.93,1014.4,,,,,,,,,,,,,,,4/8 Partly Cloudy,72000.0,13000.0,SCT,13000.0,,,,,,
KRDR,09-29-2020,02:56,METAR,Normal,310,4.0,,,9999.0,,8.5,5.2,29.95,1015.1,,,,,,,,,,,,,,,Clear,72000.0,,,,,,,,,
KRDR,09-29-2020,01:56,METAR,Normal,330,6.0,,,9999.0,,10.1,5.5,29.97,1015.8,,,,,,,,,,,,,,,Clear,72000.0,,,,,,,,,
KRDR,09-29-2020,00:56,METAR,Normal,340,6.0,,,9999.0,,11.1,5.4,29.97,1015.8,,,,,,,,,,,,,,,4/8 Partly Cloudy,72000.0,4000.0,SCT,4000.0,,,,,,
KRDR,09-28-2020,23:56,METAR,Normal,360,7.0,,,9999.0,,12.7,5.4,29.97,1015.8,,,,,,,,,,,,,,,,4000.0,4000.0,BKN,4000.0,,,,,,
KRDR,09-28-2020,22:56,METAR,Normal,360,12.0,17.0,,9999.0,,15.1,4.7,29.97,1015.6,,,,,,,,,,,,,,,,4900.0,4900.0,OVC,4900.0,,,,,,
KRDR,09-28-2020,21:56,METAR,Normal,350,13.0,20.0,,9999.0,,15.7,5.3,29.98,1016.0,,,,,,,,,,,,,,,,4000.0,4000.0,BKN,4000.0,BKN,5000.0,,,,
KRDR,09-28-2020,20:56,METAR,Normal,350,15.0,20.0,,9999.0,,15.3,6.0,29.99,1016.3,,,,,,,,,,,,,,,,3900.0,3900.0,BKN,3900.0,BKN,5000.0,,,,
KRDR,09-28-2020,19:56,METAR,Normal,350,13.0,23.0,,9999.0,,15.0,5.8,29.99,1016.3,,,,,,,,,,,,,,,,3600.0,3600.0,BKN,3600.0,,,,,,
KRDR,09-28-2020,18:56,METAR,Normal,350,13.0,,,9999.0,,12.8,6.4,30.01,1017.0,,,,,,,,,,,,,,,,3300.0,3300.0,OVC,3300.0,,,,,,
KRDR,09-28-2020,17:56,METAR,Normal,360,16.0,22.0,350/26KTS,9999.0,,12.1,6.2,30.01,1017.1,,,,,,,,,,,,,,,,3000.0,3000.0,BKN,3000.0,BKN,4300.0,,,,
KRDR,09-28-2020,16:56,METAR,Normal,350,14.0,25.0,360/26KTS,9999.0,,11.2,6.1,30.02,1017.4,,,,,,,,,,,,,,,,2800.0,2800.0,OVC,2800.0,,,,,,
KRDR,09-28-2020,16:10,SPECI,Normal,360,17.0,23.0,,9999.0,,11.0,6.0,30.01,1017.0,,,,,,,,,,,,,,,,2800.0,2800.0,BKN,2800.0,OVC,4800.0,,,,
KRDR,09-28-2020,14:58,METAR,Normal,10,19.0,25.0,,9999.0,,10.8,6.4,30.00,1016.7,,,,,,,,,,,,,,,,2300.0,2300.0,BKN,2300.0,BKN,5500.0,,,,
KRDR,09-28-2020,13:56,METAR,Normal,350,17.0,22.0,340/29KTS,9999.0,,9.7,6.4,29.99,1016.4,,,,,,,,,,,,,,,,2800.0,2300.0,SCT,2300.0,BKN,2800.0,BKN,3500.0,OVC,5500.0
KRDR,09-28-2020,13:46,SPECI,Normal,350,17.0,21.0,,9999.0,,10.0,7.0,29.99,1016.4,,,,,,,,,,,,,,,,3500.0,2600.0,SCT,2600.0,BKN,3500.0,OVC,5500.0,,
KRDR,09-28-2020,12:56,METAR,Normal,340,10.0,,,9999.0,,9.5,6.2,29.98,1016.0,,,,,,,,,,,,,,,,2600.0,2600.0,BKN,2600.0,BKN,3200.0,OVC,4100.0,,
KRDR,09-28-2020,11:56,METAR,Normal,340,12.0,19.0,,9999.0,,9.7,6.0,29.97,1015.6,,,,,,,,,,,,,,.02 IN,,2700.0,2700.0,OVC,2700.0,,,,,,
KRDR,09-28-2020,11:26,SPECI,Normal,330,13.0,,,9999.0,,10.0,6.0,29.96,1015.3,,,,,,,,,,,,,,,,2900.0,2900.0,OVC,2900.0,,,,,,
KRDR,09-28-2020,10:56,METAR,Normal,340,14.0,20.0,,9999.0,,10.1,5.7,29.95,1014.9,,,,,,,,,,,,,,,,3000.0,3000.0,OVC,3000.0,,,,,,
KRDR,09-28-2020,09:56,METAR,Normal,340,11.0,,,9999.0,,10.4,6.4,29.94,1014.6,,,,,,,,,,,,,,,,3200.0,3200.0,BKN,3200.0,OVC,6000.0,,,,
KRDR,09-28-2020,08:56,METAR,Normal,350,8.0,,,9999.0,,10.6,6.5,29.93,1014.2,,,,,,,,,,,,,,,,5500.0,5500.0,OVC,5500.0,,,,,,
KRDR,09-28-2020,07:56,METAR,Normal,330,7.0,,,9999.0,,10.6,8.2,29.93,1014.2,,,,,,,,,,,,,,,,4700.0,3400.0,SCT,3400.0,OVC,4700.0,,,,
KRDR,09-28-2020,06:56,METAR,Normal,340,10.0,,,9999.0,,10.7,8.3,29.92,1013.9,,,,,,,,,,,,,,,,5500.0,5500.0,OVC,5500.0,,,,,,
KRDR,09-28-2020,05:56,METAR,Normal,330,8.0,,,9999.0,,10.9,8.8,29.91,1013.6,,,,,,,,,,,,,TRACE,,,6000.0,6000.0,OVC,6000.0,,,,,,
KRDR,09-28-2020,04:56,METAR,Normal,350,14.0,22.0,,9999.0,,12.0,7.9,29.91,1013.5,,,,,,,,,,,TRACE,,,,,3600.0,2600.0,FEW,2600.0,BKN,3600.0,OVC,4400.0,,
KRDR,09-28-2020,03:59,SPECI,Normal,350,12.0,,,9999.0,,12.0,8.0,29.89,1012.9,,,,,,,,,,,,,,,,3700.0,3700.0,BKN,3700.0,OVC,4500.0,,,,
KRDR,09-28-2020,03:56,METAR,Normal,350,12.0,19.0,,9999.0,Light Drizzle,12.0,8.3,29.89,1012.9,51,,,,,,,,,,TRACE,,,,,3700.0,3700.0,BKN,3700.0,OVC,4700.0,,,,
KRDR,09-28-2020,03:47,SPECI,Normal,360,15.0,19.0,,9999.0,Light Drizzle,12.0,8.0,29.89,1013.0,51,,,,,,,,,,,,,,,4300.0,4300.0,BKN,4300.0,OVC,5500.0,,,,
KRDR,09-28-2020,02:56,METAR,Normal,350,8.0,,,9999.0,,12.5,8.0,29.88,1012.6,,,,,,,,,,,,,,,,5000.0,5000.0,OVC,5000.0,,,,,,
KRDR,09-28-2020,01:56,METAR,Normal,20,9.0,,,9999.0,,13.1,8.0,29.86,1011.9,,,,,,,,,,,,,,,,5000.0,5000.0,BKN,5000.0,OVC,6500.0,,,,
KRDR,09-28-2020,00:56,METAR,Normal,360,8.0,,,9999.0,,13.5,8.1,29.83,1010.9,,,,,,,,,,,,,,,,6000.0,4600.0,SCT,4600.0,BKN,6000.0,BKN,7500.0,OVC,9600.0
KRDR,09-27-2020,23:56,METAR,Normal,340,14.0,20.0,,9999.0,,15.6,7.1,29.79,1009.4,,,,,,,,,,,,,TRACE,,,6500.0,5000.0,SCT,5000.0,BKN,6500.0,OVC,8600.0,,
KRDR,09-27-2020,22:56,METAR,Normal,350,12.0,,,9999.0,,16.1,5.7,29.77,1008.7,,,,,,,,,,,,,,,,9000.0,6000.0,SCT,6000.0,BKN,9100.0,,,,
KRDR,09-27-2020,21:56,METAR,Normal,340,16.0,21.0,330/27KTS,9999.0,,16.3,5.9,29.75,1008.1,,,,,,,,,,,TRACE,,,,,9500.0,5500.0,FEW,5500.0,SCT,7000.0,OVC,9600.0,,
KRDR,09-27-2020,21:48,SPECI,Normal,350,13.0,24.0,,9999.0,,16.0,7.0,29.75,1008.1,,,,,,,,,,,,,,,,7000.0,5500.0,FEW,5500.0,BKN,7000.0,OVC,9600.0,,
KRDR,09-27-2020,21:32,SPECI,Normal,360,19.0,24.0,,9999.0,Light Rain,17.0,6.0,29.74,1007.7,61,,,,,,,,,,,,,,,8000.0,6000.0,FEW,6000.0,OVC,8000.0,,,,
KRDR,09-27-2020,20:56,METAR,Normal,350,12.0,21.0,320/28KTS,9999.0,,16.7,6.2,29.73,1007.4,,,,,,,,,,,,,,,,8000.0,6000.0,SCT,6000.0,OVC,8000.0,,,,
KRDR,09-27-2020,19:56,METAR,Normal,330,19.0,23.0,310/26KTS,9999.0,,16.8,6.6,29.72,1007.0,,,,,,,,,,,,,,,,7500.0,7500.0,BKN,7500.0,,,,,,
KRDR,09-27-2020,18:56,METAR,Normal,330,14.0,22.0,,9999.0,,16.7,8.1,29.71,1006.6,,,,,,,,,,,,,,,,6500.0,3900.0,SCT,3900.0,SCT,5000.0,OVC,6500.0,,
KRDR,09-27-2020,17:56,METAR,Normal,330,12.0,19.0,,9999.0,,15.7,8.9,29.70,1006.3,,,,,,,,,,,,,.02 IN,,,6500.0,3600.0,FEW,3600.0,SCT,4700.0,OVC,6500.0,,
KRDR,09-27-2020,16:56,METAR,Normal,350,16.0,22.0,,9999.0,,16.4,10.3,29.67,1005.2,,,,,,,,,,,,,,,4/8 Partly Cloudy,72000.0,3200.0,FEW,3200.0,SCT,18000.0,,,,
KRDR,09-27-2020,15:56,METAR,Normal,330,11.0,,,9999.0,,13.0,12.1,29.64,1004.3,,,,,,,,,,,TRACE,,,,,8000.0,8000.0,BKN,8000.0,BKN,10000.0,,,,
KRDR,09-27-2020,15:18,SPECI,Normal,330,10.0,,,9999.0,,12.0,12.0,29.62,1003.7,,,,,,,,,,,,,,,,6500.0,2100.0,FEW,2100.0,SCT,5000.0,OVC,6500.0,,
KRDR,09-27-2020,15:16,SPECI,Normal,340,11.0,,,9999.0,Light Rain,12.0,12.0,29.63,1004.0,61,,,,,,,,,,,,,,,6000.0,1900.0,FEW,1900.0,FEW,2300.0,SCT,5000.0,OVC,6000.0
KRDR,09-27-2020,15:06,SPECI,Normal,330,11.0,,,9999.0,Light Rain,12.0,12.0,29.62,1003.7,61,,,,,,,,,,,,,,,2400.0,1900.0,SCT,1900.0,BKN,2400.0,OVC,5000.0,,
KRDR,09-27-2020,14:56,METAR,Normal,340,11.0,,,9999.0,Light Drizzle,12.2,12.2,29.61,1003.3,51,,,,,,,,,,.02 IN,.02 IN,,,,1900.0,1900.0,BKN,1900.0,OVC,5000.0,,,,
KRDR,09-27-2020,14:49,SPECI,Normal,340,12.0,,,9999.0,Light Rain,12.0,12.0,29.61,1003.3,61,,,,,,,,,,,,,,,6000.0,1900.0,SCT,1900.0,OVC,6000.0,,,,
KRDR,09-27-2020,14:39,SPECI,Normal,330,11.0,,,9999.0,Light Rain,12.0,12.0,29.60,1003.0,61,,,,,,,,,,,,,,,2400.0,1900.0,SCT,1900.0,BKN,2400.0,OVC,6000.0,,
KRDR,09-27-2020,14:34,SPECI,Normal,330,13.0,,,9999.0,,12.0,12.0,29.60,1003.0,,,,,,,,,,,,,,,,4200.0,2200.0,SCT,2200.0,BKN,4200.0,OVC,6000.0,,
KRDR,09-27-2020,14:24,SPECI,Normal,330,14.0,18.0,,9999.0,,12.0,12.0,29.59,1002.6,,,,,,,,,,,,,,,,6000.0,1900.0,FEW,1900.0,SCT,2400.0,SCT,4200.0,OVC,6000.0
KRDR,09-27-2020,14:16,SPECI,Normal,340,11.0,,,9999.0,Light Rain,12.0,12.0,29.58,1002.3,61,,,,,,,,,,,,,,,3900.0,1400.0,FEW,1400.0,SCT,2000.0,BKN,3900.0,BKN,6000.0
KRDR,09-27-2020,13:56,METAR,Normal,340,14.0,17.0,,9999.0,Rain,11.9,11.7,29.57,1001.9,62,,,,,,,,,,TRACE,,,,,1600.0,1600.0,BKN,1600.0,OVC,3000.0,,,,
KRDR,09-27-2020,13:43,SPECI,Normal,340,13.0,,,9999.0,Light Rain,12.0,12.0,29.56,1001.5,61,,,,,,,,,,,,,,,2100.0,1600.0,SCT,1600.0,BKN,2100.0,BKN,3200.0,OVC,5500.0
KRDR,09-27-2020,13:19,SPECI,Normal,330,9.0,,,9999.0,,12.0,12.0,29.54,1000.8,,,,,,,,,,,,,,,,5500.0,2900.0,FEW,2900.0,BKN,5500.0,,,,
KRDR,09-27-2020,13:05,SPECI,Normal,320,8.0,,,9999.0,Light Drizzle,12.0,12.0,29.54,1000.8,51,,,,,,,,,,,,,,,5500.0,5500.0,BKN,5500.0,BKN,8600.0,,,,
KRDR,09-27-2020,12:56,METAR,Normal,320,6.0,,,9999.0,,11.8,11.6,29.53,1000.5,,,,,,,,,,,TRACE,,,,,6000.0,2600.0,FEW,2600.0,FEW,4700.0,BKN,6000.0,BKN,8600.0
KRDR,09-27-2020,12:48,SPECI,Normal,310,6.0,,,9999.0,,12.0,12.0,29.53,1000.5,,,,,,,,,,,,,,,,6000.0,2600.0,FEW,2600.0,SCT,4700.0,BKN,6000.0,,
KRDR,09-27-2020,12:21,SPECI,Normal,310,9.0,,,9999.0,Light Drizzle,12.0,12.0,29.52,1000.1,51,,,,,,,,,,,,,,2/8 Mostly Clear,72000.0,4900.0,FEW,4900.0,FEW,6000.0,,,,
KRDR,09-27-2020,12:16,SPECI,Normal,310,8.0,,,9999.0,,12.0,12.0,29.52,1000.1,,,,,,,,,,,,,,,4/8 Partly Cloudy,72000.0,4900.0,FEW,4900.0,SCT,6000.0,,,,
KRDR,09-27-2020,11:56,METAR,Normal,310,9.0,,,9999.0,Light Drizzle,12.3,11.2,29.51,999.8,51,,,,,,,,,,TRACE,,TRACE,,,6000.0,4100.0,SCT,4100.0,OVC,6000.0,,,,
KRDR,09-27-2020,11:40,SPECI,Normal,300,9.0,,,9999.0,Light Rain,13.0,10.0,29.50,999.4,61,,,,,,,,,,,,,,,6000.0,4100.0,SCT,4100.0,OVC,6000.0,,,,
KRDR,09-27-2020,10:56,METAR,Normal,270,8.0,,,9999.0,,11.7,8.5,29.50,999.4,,,,,,,,,,,,,,,,6500.0,6500.0,OVC,6500.0,,,,,,
KRDR,09-27-2020,09:56,METAR,Normal,260,6.0,,,9999.0,,11.2,8.2,29.49,999.1,,,,,,,,,,,,,,,,7000.0,7000.0,BKN,7000.0,,,,,,
KRDR,09-27-2020,08:56,METAR,Normal,280,12.0,,,9999.0,,11.9,7.4,29.48,998.6,,,,,,,,,,,,,,,Clear,72000.0,,,,,,,,,
KRDR,09-27-2020,07:56,METAR,Normal,280,11.0,,,9999.0,,12.6,5.7,29.48,998.6,,,,,,,,,,,,,,,Clear,72000.0,,,,,,,,,
KRDR,09-27-2020,06:56,METAR,Normal,280,9.0,,,9999.0,,13.2,5.8,29.47,998.2,,,,,,,,,,,,,,,Clear,72000.0,,,,,,,,,
KRDR,09-27-2020,05:56,METAR,Normal,290,10.0,20.0,,9999.0,,14.6,5.1,29.47,998.2,,,,,,,,,,,,,,,Clear,72000.0,,,,,,,,,
KRDR,09-27-2020,04:56,METAR,Normal,290,11.0,,,9999.0,,15.6,5.2,29.47,998.2,,,,,,,,,,,,,,,,12000.0,9500.0,SCT,9600.0,BKN,12000.0,,,,
KRDR,09-27-2020,03:56,METAR,Normal,260,10.0,,,9999.0,,14.1,5.2,29.47,998.3,,,,,,,,,,,,,,,,13000.0,13000.0,BKN,13000.0,,,,,,
KRDR,09-27-2020,02:56,METAR,Normal,240,6.0,,,9999.0,,15.3,6.0,29.47,998.3,,,,,,,,,,,,,,,,13000.0,13000.0,OVC,13000.0,,,,,,
KRDR,09-27-2020,01:56,METAR,Normal,250,8.0,,,9999.0,,17.2,5.2,29.47,998.3,,,,,,,,,,,,,,,4/8 Partly Cloudy,72000.0,11000.0,SCT,11000.0,,,,,,
KRDR,09-27-2020,00:56,METAR,Normal,250,12.0,,,9999.0,,18.5,4.6,29.46,998.0,,,,,,,,,,,,,,,,13000.0,13000.0,BKN,13000.0,OVC,15000.0,,,,
KRDR,09-26-2020,23:56,METAR,Normal,260,9.0,,,9999.0,,19.8,4.3,29.46,998.1,,,,,,,,,,,,,,,4/8 Partly Cloudy,72000.0,12000.0,SCT,12000.0,SCT,17000.0,,,,
KRDR,09-26-2020,22:56,METAR,Normal,260,9.0,23.0,,9999.0,,21.1,3.8,29.46,998.1,,,,,,,,,,,,,,,2/8 Mostly Clear,72000.0,9500.0,FEW,9600.0,FEW,12000.0,,,,
KRDR,09-26-2020,21:56,METAR,Normal,290,14.0,23.0,,9999.0,,21.9,3.1,29.45,997.6,,,,,,,,,,,,,,,2/8 Mostly Clear,72000.0,9000.0,FEW,9100.0,,,,,,
KRDR,09-26-2020,20:56,METAR,Normal,280,13.0,21.0,,9999.0,,23.1,3.1,29.44,997.2,,,,,,,,,,,,,,,2/8 Mostly Clear,72000.0,16000.0,FEW,16000.0,FEW,18000.0,,,,
KRDR,09-26-2020,19:56,METAR,Normal,260,14.0,20.0,,9999.0,,25.1,3.7,29.44,997.1,,,,,,,,,,,,,,,,13000.0,10000.0,SCT,10000.0,BKN,13000.0,,,,
KRDR,09-26-2020,18:56,METAR,Normal,260,13.0,21.0,,9999.0,,26.5,3.0,29.45,997.5,,,,,,,,,,,,,,,2/8 Mostly Clear,72000.0,11000.0,FEW,11000.0,,,,,,
KRDR,09-26-2020,18:33,SPECI,Normal,240,10.0,19.0,,9999.0,,26.0,3.0,29.45,997.5,,,,,,,,,,,,,,,4/8 Partly Cloudy,72000.0,11000.0,SCT,11000.0,,,,,,
KRDR,09-26-2020,17:56,METAR,Normal,270,10.0,,,9999.0,,25.5,4.0,29.46,997.9,,,,,,,,,,,,,,,4/8 Partly Cloudy,72000.0,10000.0,FEW,10000.0,SCT,20000.0,,,,
KRDR,09-26-2020,16:56,METAR,Normal,260,10.0,,,9999.0,,23.5,5.4,29.48,998.6,,,,,,,,,,,,,,,,10000.0,10000.0,BKN,10000.0,,,,,,
KRDR,09-26-2020,15:56,METAR,Normal,250,11.0,22.0,,9999.0,,22.7,5.1,29.50,999.3,,,,,,,,,,,,,,,4/8 Partly Cloudy,72000.0,10000.0,SCT,10000.0,SCT,21000.0,,,,
KRDR,09-26-2020,14:56,METAR,Normal,230,10.0,,,9999.0,,19.7,5.3,29.50,999.4,,,,,,,,,,,,,,,2/8 Mostly Clear,72000.0,19000.0,FEW,19000.0,,,,,,
KRDR,09-26-2020,13:56,METAR,Normal,220,6.0,,,9999.0,,16.3,5.3,29.50,999.5,,,,,,,,,,,,,,,,10000.0,10000.0,BKN,10000.0,,,,,,
KRDR,09-26-2020,12:56,METAR,Normal,220,5.0,,,9999.0,,14.8,3.9,29.52,1000.2,,,,,,,,,,,,,,,4/8 Partly Cloudy,72000.0,10000.0,SCT,10000.0,,,,,,
KRDR,09-26-2020,11:56,METAR,Normal,210,5.0,,,9999.0,,12.5,6.3,29.54,1000.8,,,,,,,,,,,,,,.01 IN,,12000.0,10000.0,SCT,10000.0,BKN,12000.0,,,,
KRDR,09-26-2020,10:56,METAR,Calm,,0.0,,,9999.0,,11.6,6.7,29.55,1001.0,,,,,,,,,,,,,,,,10000.0,10000.0,OVC,10000.0,,,,,,
KRDR,09-26-2020,09:56,METAR,Normal,270,5.0,,,9999.0,,14.3,5.6,29.57,1001.6,,,,,,,,,,,,,,,,16000.0,12000.0,SCT,12000.0,BKN,16000.0,,,,
KRDR,09-26-2020,08:56,METAR,Normal,230,6.0,,,9999.0,,14.4,4.9,29.59,1002.2,,,,,,,,,,,,,,,4/8 Partly Cloudy,72000.0,10000.0,SCT,10000.0,,,,,,
KRDR,09-26-2020,07:56,METAR,Normal,230,6.0,,,9999.0,,14.7,4.4,29.60,1002.6,,,,,,,,,,,,,,,2/8 Mostly Clear,72000.0,15000.0,FEW,15000.0,,,,,,
KRDR,09-26-2020,06:56,METAR,Normal,240,6.0,,,9999.0,,13.3,5.2,29.61,1002.9,,,,,,,,,,,,,,,4/8 Partly Cloudy,72000.0,16000.0,SCT,16000.0,,,,,,
KRDR,09-26-2020,05:56,METAR,Normal,250,5.0,,,9999.0,,12.7,5.1,29.62,1003.4,,,,,,,,,,,,,,,2/8 Mostly Clear,72000.0,21000.0,FEW,21000.0,,,,,,
KRDR,09-26-2020,04:56,METAR,Normal,250,5.0,,,9999.0,,13.4,5.1,29.63,1003.7,,,,,,,,,,,,,,,Clear,72000.0,,,,,,,,,
KRDR,09-26-2020,03:56,METAR,Normal,240,6.0,,,9999.0,,13.2,5.4,29.64,1004.1,,,,,,,,,,,,,,,Clear,72000.0,,,,,,,,,
KRDR,09-26-2020,02:56,METAR,Normal,250,6.0,,,9999.0,,13.4,5.3,29.63,1003.9,,,,,,,,,,,,,,,Clear,72000.0,,,,,,,,,
KRDR,09-26-2020,01:56,METAR,Normal,260,5.0,,,9999.0,,11.7,5.3,29.62,1003.7,,,,,,,,,,,,,,,Clear,72000.0,,,,,,,,,
KRDR,09-26-2020,00:56,METAR,Normal,230,4.0,,,9999.0,,15.1,5.0,29.61,1003.2,,,,,,,,,,,,,,,Clear,72000.0,,,,,,,,,
KRDR,09-25-2020,23:56,METAR,Normal,270,5.0,,,9999.0,,19.8,5.4,29.62,1003.4,,,,,,,,,,,,,,,Clear,72000.0,,,,,,,,,
KRDR,09-25-2020,22:56,METAR,Normal,300,10.0,,,9999.0,,23.7,4.1,29.62,1003.3,,,,,,,,,,,,,,,Clear,72000.0,,,,,,,,,
KRDR,09-25-2020,21:56,METAR,Normal,290,11.0,,,9999.0,,24.5,4.3,29.62,1003.2,,,,,,,,,,,,,,,Clear,72000.0,,,,,,,,,
KRDR,09-25-2020,20:56,METAR,Normal,300,13.0,20.0,,9999.0,,25.4,3.3,29.63,1003.5,,,,,,,,,,,,,,,2/8 Mostly Clear,72000.0,20000.0,FEW,20000.0,,,,,,
KRDR,09-25-2020,19:56,METAR,Normal,290,10.0,,,9999.0,,25.1,3.7,29.63,1003.5,,,,,,,,,,,,,,,4/8 Partly Cloudy,72000.0,17000.0,SCT,17000.0,,,,,,
KRDR,09-25-2020,18:56,METAR,Normal,290,9.0,,,9999.0,,26.0,6.1,29.64,1003.9,,,,,,,,,,,,,,,4/8 Partly Cloudy,72000.0,18000.0,SCT,18000.0,,,,,,
KRDR,09-25-2020,17:56,METAR,Normal,290,6.0,,,9999.0,,23.6,8.8,29.65,1004.2,,,,,,,,,,,,,.01 IN,,4/8 Partly Cloudy,72000.0,20000.0,SCT,20000.0,,,,,,
KRDR,09-25-2020,16:56,METAR,Normal,310,6.0,,,9999.0,,22.4,9.5,29.66,1004.6,,,,,,,,,,,,,,,,20000.0,18000.0,SCT,18000.0,BKN,20000.0,,,,
KRDR,09-25-2020,15:56,METAR,Normal,330,6.0,,,9999.0,,20.4,10.8,29.66,1004.7,,,,,,,,,,,,,,,,21000.0,14000.0,SCT,14000.0,BKN,21000.0,,,,
KRDR,09-25-2020,14:56,METAR,Normal,280,4.0,,,9999.0,,17.2,13.3,29.65,1004.5,,,,,,,,,,,,.01 IN,,,,21000.0,12000.0,SCT,12000.0,BKN,21000.0,,,,
KRDR,09-25-2020,13:56,METAR,Normal,320,3.0,,,9999.0,,14.5,14.5,29.63,1003.8,,,,,,,,,,,TRACE,,,,,14000.0,10000.0,SCT,10000.0,BKN,14000.0,,,,
KRDR,09-25-2020,13:22,SPECI,Calm,,0.0,,,9999.0,,15.0,15.0,29.63,1003.8,,,,,,,,,,,,,,,,10000.0,10000.0,BKN,10000.0,BKN,12000.0,,,,
KRDR,09-25-2020,12:59,METAR,Normal,300,7.0,,,9999.0,Light Drizzle,15.2,15.2,29.64,1004.1,51,,,,,,,,,,.01 IN,,,,,10000.0,10000.0,BKN,10000.0,,,,,,
KRDR,09-25-2020,12:09,SPECI,Normal,240,4.0,,,9999.0,Light Rain,15.0,15.0,29.66,1004.7,61,,,,,,,,,,,,,,,7500.0,7500.0,BKN,7500.0,,,,,,
KRDR,09-25-2020,11:56,METAR,Normal,190,5.0,,,9999.0,,15.2,15.2,29.63,1003.7,,,,,,,,,,,TRACE,,TRACE,,4/8 Partly Cloudy,72000.0,6000.0,FEW,6000.0,SCT,8000.0,,,,
KRDR,09-25-2020,11:48,SPECI,Normal,260,4.0,,,9999.0,,15.0,15.0,29.64,1004.1,,,,,,,,,,,,,,,4/8 Partly Cloudy,72000.0,6000.0,FEW,6000.0,SCT,8000.0,SCT,9100.0,,
KRDR,09-25-2020,11:21,SPECI,Normal,220,5.0,,,9999.0,Light Rain,16.0,16.0,29.63,1003.7,61,,,,,,,,,,,,,,,10000.0,10000.0,OVC,10000.0,,,,,,
KRDR,09-25-2020,10:56,METAR,Normal,210,7.0,,,9999.0,,16.2,16.0,29.64,1004.0,,,,,,,,,,,TRACE,,,,,11000.0,11000.0,BKN,11000.0,,,,,,
KRDR,09-25-2020,10:07,SPECI,Normal,250,5.0,,,9999.0,,17.0,16.0,29.64,1003.9,,,,,,,,,,,,,,,4/8 Partly Cloudy,72000.0,9000.0,FEW,9100.0,SCT,12000.0,,,,
KRDR,09-25-2020,09:56,METAR,Normal,200,10.0,,,9999.0,Light Rain,17.3,15.3,29.61,1002.9,61,,,,,,,,,,,,,,,12000.0,9000.0,FEW,9100.0,BKN,12000.0,,,,
KRDR,09-25-2020,09:54,SPECI,Normal,200,10.0,,,9999.0,Light Rain,17.0,15.0,29.61,1002.9,61,,,,,,,,,,,,,,,12000.0,9000.0,FEW,9100.0,BKN,12000.0,BKN,14000.0,,
KRDR,09-25-2020,08:56,METAR,Normal,190,9.0,,,9999.0,,16.7,15.9,29.62,1003.3,,,,,,,,,,,,,,,,12000.0,12000.0,BKN,12000.0,BKN,16000.0,,,,
KRDR,09-25-2020,07:56,METAR,Normal,190,9.0,,,9999.0,,16.6,16.1,29.65,1004.4,,,,,,,,,,,,,,,,9000.0,9000.0,BKN,9100.0,OVC,16000.0,,,,
KRDR,09-25-2020,06:56,METAR,Normal,200,8.0,,,9999.0,,16.8,16.3,29.66,1004.8,,,,,,,,,,,,,,,,9500.0,9500.0,BKN,9600.0,,,,,,
KRDR,09-25-2020,05:56,METAR,Normal,190,10.0,,,9999.0,,17.4,16.2,29.63,1003.8,,,,,,,,,,,,,,,,15000.0,15000.0,BKN,15000.0,OVC,17000.0,,,,
KRDR,09-25-2020,04:56,METAR,Normal,200,12.0,,,9999.0,,17.5,16.0,29.64,1004.2,,,,,,,,,,,,,,,,16000.0,16000.0,BKN,16000.0,OVC,20000.0,,,,
KRDR,09-25-2020,03:56,METAR,Normal,190,13.0,,,9999.0,,17.6,15.9,29.64,1004.3,,,,,,,,,,,,,,,Clear,72000.0,,,,,,,,,
KRDR,09-25-2020,02:56,METAR,Normal,170,14.0,20.0,,9999.0,,17.7,16.0,29.65,1004.7,,,,,,,,,,,,,,,Clear,72000.0,,,,,,,,,
KRDR,09-25-2020,01:56,METAR,Normal,170,13.0,,,9999.0,,18.5,15.5,29.68,1005.7,,,,,,,,,,,,,,,Clear,72000.0,,,,,,,,,
KRDR,09-25-2020,00:56,METAR,Normal,160,7.0,,,9999.0,,18.1,15.3,29.69,1006.1,,,,,,,,,,,,,,,Clear,72000.0,,,,,,,,,
KRDR,09-24-2020,23:56,METAR,Normal,190,8.0,,,9999.0,,21.3,15.8,29.70,1006.4,,,,,,,,,,,,,,,Clear,72000.0,,,,,,,,,
KRDR,09-24-2020,22:56,METAR,Normal,200,10.0,,,9999.0,,22.3,15.4,29.71,1006.7,,,,,,,,,,,,,,,Clear,72000.0,,,,,,,,,
KRDR,09-24-2020,21:56,METAR,Normal,170,14.0,,,9999.0,,22.5,15.6,29.73,1007.3,,,,,,,,,,,,,,,Clear,72000.0,,,,,,,,,
KRDR,09-24-2020,20:56,METAR,Normal,180,11.0,,,9999.0,,21.5,15.6,29.77,1008.7,,,,,,,,,,,,,,,,20000.0,16000.0,SCT,16000.0,BKN,20000.0,,,,
KRDR,09-24-2020,19:56,METAR,Normal,170,8.0,,,9999.0,,19.2,14.6,29.80,1009.8,,,,,,,,,,,,,,,,20000.0,17000.0,SCT,17000.0,BKN,20000.0,,,,
KRDR,09-24-2020,18:56,METAR,Normal,170,7.0,,,9999.0,,17.1,13.6,29.84,1011.2,,,,,,,,,,,,,,,,20000.0,17000.0,SCT,17000.0,BKN,20000.0,,,,
KRDR,09-24-2020,17:59,METAR,Normal,160,8.0,,,9999.0,,15.2,13.0,29.86,1011.9,,,,,,,,,,,,,,,,15000.0,15000.0,BKN,15000.0,OVC,18000.0,,,,
KRDR,09-24-2020,17:33,SPECI,Normal,170,6.0,,,9999.0,,15.0,13.0,29.88,1012.6,,,,,,,,,,,,,,,,17000.0,700.0,SCT,700.0,BKN,17000.0,,,,
KRDR,09-24-2020,16:59,METAR,Normal,160,4.0,,,8000.0,Mist,12.7,12.5,29.89,1013.0,10,,,,,,,,,,,,,,,800.0,400.0,SCT,400.0,OVC,800.0,,,,
KRDR,09-24-2020,16:37,SPECI,Normal,200,3.0,,,8000.0,Mist,12.0,12.0,29.89,1013.0,10,,,,,,,,,,,,,,,300.0,300.0,OVC,300.0,,,,,,
KRDR,09-24-2020,15:59,METAR,Variable,,3.0,,,4000.0,Mist,10.4,10.4,29.91,1013.8,10,,,,,,,,,,,,,,,200.0,200.0,OVC,200.0,,,,,,
KRDR,09-24-2020,15:20,SPECI,Calm,,0.0,,,1600.0,Mist,10.0,10.0,29.90,1013.4,10,,,,,,,,,,,,,,,200.0,200.0,OVC,200.0,,,,,,
KRDR,09-24-2020,14:59,METAR,Calm,,0.0,,,800.0,Fog,9.4,9.4,29.90,1013.4,30,,,,,,,,,,,,,,Sky Obscured (Unable to Estimate),100.0,100.0,,100.0,,,,,,
KRDR,09-24-2020,14:42,SPECI,Calm,,0.0,,,4000.0,Mist,9.0,9.0,29.91,1013.8,10,,,,,,,,,,,,,,,200.0,200.0,OVC,200.0,,,,,,
KRDR,09-24-2020,14:22,SPECI,Normal,20,3.0,,,2400.0,Mist,9.0,9.0,29.91,1013.8,10,,,,,,,,,,,,,,,200.0,200.0,OVC,200.0,,,,,,
KRDR,09-24-2020,13:56,METAR,Normal,340,3.0,,,800.0,Fog,8.1,8.1,29.92,1014.1,30,,,,,,,,,,,,,,Sky Obscured (Unable to Estimate),100.0,100.0,,100.0,,,,,,
KRDR,09-24-2020,13:46,SPECI,Normal,360,3.0,,,6400.0,Mist,8.0,8.0,29.92,1014.1,10,,,,,,,,,,,,,,,300.0,300.0,OVC,300.0,,,,,,
KRDR,09-24-2020,13:36,SPECI,Normal,10,4.0,,,800.0,Fog,8.0,8.0,29.92,1014.1,30,,,,,,,,,,,,,,Sky Obscured (Unable to Estimate),100.0,100.0,,100.0,,,,,,
KRDR,09-24-2020,13:33,SPECI,Normal,360,4.0,,,1600.0,Mist,8.0,8.0,29.93,1014.4,,,,10,,,,,,,,,,,,300.0,300.0,OVC,300.0,,,,,,
KRDR,09-24-2020,13:22,SPECI,Normal,340,5.0,,,4800.0,Mist,7.0,7.0,29.93,1014.4,,,,10,,,,,,,,,,,,300.0,300.0,OVC,300.0,,,,,,
KRDR,09-24-2020,12:56,METAR,Normal,340,4.0,,,9999.0,,6.6,6.6,29.93,1014.4,,,,,,,,,,,,,,,,300.0,300.0,OVC,300.0,,,,,,
KRDR,09-24-2020,12:06,SPECI,Normal,350,4.0,,,9999.0,,6.0,6.0,29.93,1014.4,,,,,,,,,,,,,,,,400.0,400.0,BKN,400.0,,,,,,
KRDR,09-24-2020,11:56,METAR,Normal,350,3.0,,,9999.0,,6.2,6.2,29.92,1014.0,,,,,,,,,,,,,,,4/8 Partly Cloudy,72000.0,300.0,SCT,300.0,,,,,,
KRDR,09-24-2020,11:28,SPECI,Normal,340,5.0,,,9999.0,,6.0,6.0,29.92,1014.0,,,,,,,,,,,,,,,2/8 Mostly Clear,72000.0,200.0,FEW,200.0,,,,,,
KRDR,09-24-2020,10:56,METAR,Normal,10,4.0,,,9999.0,,6.3,6.3,29.91,1013.7,,,,,,,,,,,,,,,Clear,72000.0,,,,,,,,,
KRDR,09-24-2020,10:17,SPECI,Normal,360,7.0,,,9999.0,,6.0,6.0,29.93,1014.4,,,,,,,,,,,,,,,2/8 Mostly Clear,72000.0,700.0,FEW,700.0,,,,,,
KRDR,09-24-2020,09:56,METAR,Normal,10,5.0,,,9999.0,,7.0,7.0,29.93,1014.4,,,,,,,,,,,,,,,2/8 Mostly Clear,72000.0,3000.0,FEW,3000.0,,,,,,
KRDR,09-24-2020,08:56,METAR,Normal,10,6.0,,,9999.0,,7.3,7.3,29.93,1014.3,,,,,,,,,,,,,,,Clear,72000.0,,,,,,,,,
KRDR,09-24-2020,07:56,METAR,Normal,360,5.0,,,9999.0,,7.7,7.7,29.93,1014.3,,,,,,,,,,,,,,,Clear,72000.0,,,,,,,,,
KRDR,09-24-2020,06:56,METAR,Normal,20,7.0,,,9999.0,,8.9,8.9,29.94,1014.5,,,,,,,,,,,,,,,Clear,72000.0,,,,,,,,,
KRDR,09-24-2020,05:56,METAR,Normal,10,7.0,,,9999.0,,10.0,10.0,29.95,1014.9,,,,,,,,,,,,,,,Clear,72000.0,,,,,,,,,
KRDR,09-24-2020,04:56,METAR,Normal,10,8.0,,,9999.0,,9.9,9.9,29.96,1015.3,,,,,,,,,,,,,,,Clear,72000.0,,,,,,,,,
KRDR,09-24-2020,03:56,METAR,Normal,20,9.0,,,9999.0,,10.9,10.9,29.98,1016.0,,,,,,,,,,,,,,,,19000.0,19000.0,BKN,19000.0,,,,,,
KRDR,09-24-2020,02:56,METAR,Normal,30,4.0,,,9999.0,,10.4,10.4,29.97,1015.7,,,,,,,,,,,,,,,Clear,72000.0,,,,,,,,,
KRDR,09-24-2020,01:56,METAR,Normal,30,6.0,,,9999.0,,12.3,12.1,29.99,1016.4,,,,,,,,,,,,,,,4/8 Partly Cloudy,72000.0,12000.0,SCT,12000.0,,,,,,
KRDR,09-24-2020,00:56,METAR,Normal,20,10.0,,,9999.0,,13.0,12.5,29.99,1016.4,,,,,,,,,,,,,,,Clear,72000.0,,,,,,,,,
KRDR,09-23-2020,23:56,METAR,Normal,10,14.0,21.0,,9999.0,,15.0,12.8,29.99,1016.3,,,,,,,,,,,,,,,Clear,72000.0,,,,,,,,,
KRDR,09-23-2020,22:56,METAR,Normal,40,11.0,,,9999.0,,16.4,12.9,29.95,1014.9,,,,,,,,,,,,,,,2/8 Mostly Clear,72000.0,17000.0,FEW,17000.0,,,,,,
KRDR,09-23-2020,21:56,METAR,Normal,70,12.0,,,9999.0,,15.5,11.9,29.93,1014.1,,,,,,,,,,,,,,,4/8 Partly Cloudy,72000.0,12000.0,SCT,12000.0,SCT,14000.0,,,,
KRDR,09-23-2020,21:40,SPECI,Normal,70,14.0,,,9999.0,,16.0,12.0,29.94,1014.5,,,,,,,,,,,,,,,4/8 Partly Cloudy,72000.0,11000.0,FEW,11000.0,SCT,14000.0,,,,
KRDR,09-23-2020,20:56,METAR,Normal,10,16.0,27.0,010/27KTS,9999.0,,16.5,12.2,29.98,1015.8,,,,,,,,,,,,,,,,20000.0,15000.0,SCT,15000.0,BKN,20000.0,,,,
KRDR,09-23-2020,19:56,METAR,Normal,40,15.0,,,9999.0,,18.2,12.8,29.94,1014.4,,,,,,,,,,,,,,,,20000.0,13000.0,FEW,13000.0,SCT,15000.0,BKN,20000.0,,
KRDR,09-23-2020,18:56,METAR,Normal,60,8.0,,,9999.0,,19.0,12.9,29.95,1014.6,,,,,,,,,,,,,,,,20000.0,16000.0,SCT,16000.0,BKN,20000.0,,,,
KRDR,09-23-2020,17:56,METAR,Normal,50,10.0,,,9999.0,,15.0,11.9,29.99,1016.2,,,,,,,,,,,,,,,,20000.0,13000.0,SCT,13000.0,OVC,20000.0,,,,
KRDR,09-23-2020,16:56,METAR,Normal,20,12.0,16.0,,9999.0,,13.2,11.6,30.02,1017.3,,,,,,,,,,,,,,,,19000.0,14000.0,SCT,14000.0,OVC,19000.0,,,,
KRDR,09-23-2020,15:56,METAR,Normal,20,17.0,22.0,,9999.0,,13.8,12.0,30.02,1017.2,,,,,,,,,,,,,,,,19000.0,4500.0,FEW,4500.0,SCT,15000.0,OVC,19000.0,,
KRDR,09-23-2020,14:56,METAR,Normal,10,13.0,,,9999.0,,13.9,12.1,29.99,1016.1,,,,,,,,,,,,,,,,20000.0,14000.0,SCT,14000.0,OVC,20000.0,,,,
KRDR,09-23-2020,13:56,METAR,Normal,20,9.0,,,9999.0,,12.4,11.6,29.97,1015.6,,,,,,,,,,,,,,,,13000.0,13000.0,BKN,13000.0,,,,,,
KRDR,09-23-2020,12:56,METAR,Normal,10,9.0,,,9999.0,,11.7,10.9,29.97,1015.5,,,,,,,,,,,,,,,Clear,72000.0,,,,,,,,,
KRDR,09-23-2020,11:56,METAR,Normal,20,9.0,,,9999.0,,11.7,10.3,29.96,1015.0,,,,,,,,,,,,,,,Clear,72000.0,,,,,,,,,
KRDR,09-23-2020,10:56,METAR,Normal,10,9.0,,,9999.0,,12.5,10.0,29.95,1014.5,,,,,,,,,,,,,,,Clear,72000.0,,,,,,,,,
KRDR,09-23-2020,09:56,METAR,Normal,10,10.0,,,9999.0,,14.3,9.5,29.94,1014.1,,,,,,,,,,,,,,,Clear,72000.0,,,,,,,,,
KRDR,09-23-2020,08:56,METAR,Normal,360,7.0,,,9999.0,,13.5,9.5,29.94,1014.1,,,,,,,,,,,,,,,Clear,72000.0,,,,,,,,,
KRDR,09-23-2020,07:56,METAR,Normal,350,7.0,,,9999.0,,16.7,9.9,29.94,1014.0,,,,,,,,,,,,,,,Clear,72000.0,,,,,,,,,
KRDR,09-23-2020,06:56,METAR,Normal,240,6.0,,,9999.0,,16.4,10.3,29.90,1012.6,,,,,,,,,,,,,,,Clear,72000.0,,,,,,,,,
KRDR,09-23-2020,05:56,METAR,Normal,220,6.0,,,9999.0,,14.8,9.2,29.90,1012.7,,,,,,,,,,,,,,,Clear,72000.0,,,,,,,,,
KRDR,09-23-2020,04:56,METAR,Normal,210,7.0,,,9999.0,,14.6,8.8,29.91,1013.1,,,,,,,,,,,,,,,Clear,72000.0,,,,,,,,,
KRDR,09-23-2020,03:56,METAR,Normal,220,6.0,,,9999.0,,15.5,8.5,29.91,1013.2,,,,,,,,,,,,,,,Clear,72000.0,,,,,,,,,
KRDR,09-23-2020,02:56,METAR,Normal,220,6.0,,,9999.0,,17.7,7.4,29.92,1013.6,,,,,,,,,,,,,,,Clear,72000.0,,,,,,,,,
KRDR,09-23-2020,01:56,METAR,Normal,220,5.0,,,9999.0,,16.3,7.2,29.92,1013.8,,,,,,,,,,,,,,,Clear,72000.0,,,,,,,,,
KRDR,09-23-2020,00:56,METAR,Normal,190,7.0,,,9999.0,,19.0,6.5,29.92,1013.9,,,,,,,,,,,,,,,Clear,72000.0,,,,,,,,,
KRDR,09-22-2020,23:56,METAR,Normal,210,7.0,,,9999.0,,24.5,6.2,29.92,1013.7,,,,,,,,,,,,,,,Clear,72000.0,,,,,,,,,
KRDR,09-22-2020,22:56,METAR,Normal,230,10.0,,,9999.0,,28.8,4.3,29.91,1013.3,,,,,,,,,,,,,,,Clear,72000.0,,,,,,,,,
KRDR,09-22-2020,21:56,METAR,Normal,220,12.0,,,9999.0,,30.0,5.3,29.92,1013.6,,,,,,,,,,,,,,,Clear,72000.0,,,,,,,,,
KRDR,09-22-2020,20:56,METAR,Normal,230,9.0,,,9999.0,,30.3,6.2,29.93,1013.9,,,,,,,,,,,,,,,Clear,72000.0,,,,,,,,,
KRDR,09-22-2020,19:56,METAR,Normal,210,11.0,,,9999.0,,30.4,6.9,29.94,1014.2,,,,,,,,,,,,,,,Clear,72000.0,,,,,,,,,
KRDR,09-22-2020,18:56,METAR,Normal,200,10.0,,,9999.0,,29.1,8.2,29.97,1015.3,,,,,,,,,,,,,,,Clear,72000.0,,,,,,,,,
KRDR,09-22-2020,17:56,METAR,Normal,170,11.0,,,9999.0,,27.5,7.9,30.00,1016.3,,,,,,,,,,,,,,,Clear,72000.0,,,,,,,,,
KRDR,09-22-2020,16:56,METAR,Normal,190,11.0,,,9999.0,,25.6,7.2,30.02,1017.0,,,,,,,,,,,,,,,Clear,72000.0,,,,,,,,,
KRDR,09-22-2020,15:56,METAR,Normal,200,8.0,,,9999.0,,22.8,7.3,30.04,1017.8,,,,,,,,,,,,,,,Clear,72000.0,,,,,,,,,
KRDR,09-22-2020,14:56,METAR,Normal,190,7.0,,,9999.0,,18.9,9.1,30.04,1017.8,,,,,,,,,,,,,,,Clear,72000.0,,,,,,,,,
KRDR,09-22-2020,13:56,METAR,Calm,,0.0,,,9999.0,,12.9,9.2,30.04,1018.0,,,,,,,,,,,,,,,Clear,72000.0,,,,,,,,,
KRDR,09-22-2020,12:56,METAR,Normal,210,3.0,,,9999.0,,7.0,5.9,30.04,1018.1,,,,,,,,,,,,,,,Clear,72000.0,,,,,,,,,
KRDR,09-22-2020,11:56,METAR,Normal,160,3.0,,,9999.0,,6.5,5.9,30.04,1017.9,,,,,,,,,,,,,,,Clear,72000.0,,,,,,,,,
KRDR,09-22-2020,10:56,METAR,Calm,,0.0,,,9999.0,,6.6,5.9,30.03,1017.5,,,,,,,,,,,,,,,Clear,72000.0,,,,,,,,,
KRDR,09-22-2020,09:56,METAR,Calm,,0.0,,,9999.0,,6.6,5.9,30.03,1017.5,,,,,,,,,,,,,,,Clear,72000.0,,,,,,,,,
KRDR,09-22-2020,08:56,METAR,Calm,,0.0,,,9999.0,,6.9,6.0,30.03,1017.5,,,,,,,,,,,,,,,Clear,72000.0,,,,,,,,,
KRDR,09-22-2020,07:56,METAR,Normal,240,3.0,,,9999.0,,9.9,7.0,30.03,1017.4,,,,,,,,,,,,,,,Clear,72000.0,,,,,,,,,
KRDR,09-22-2020,06:56,METAR,Normal,230,5.0,,,9999.0,,9.5,6.8,30.03,1017.4,,,,,,,,,,,,,,,Clear,72000.0,,,,,,,,,
KRDR,09-22-2020,05:56,METAR,Calm,,0.0,,,9999.0,,8.6,6.7,30.02,1017.1,,,,,,,,,,,,,,,Clear,72000.0,,,,,,,,,
KRDR,09-22-2020,04:56,METAR,Normal,220,5.0,,,9999.0,,11.5,7.4,30.02,1017.0,,,,,,,,,,,,,,,Clear,72000.0,,,,,,,,,
KRDR,09-22-2020,03:56,METAR,Normal,240,3.0,,,9999.0,,10.9,7.4,30.01,1016.7,,,,,,,,,,,,,,,Clear,72000.0,,,,,,,,,
KRDR,09-22-2020,02:56,METAR,Normal,250,6.0,,,9999.0,,12.0,7.7,30.00,1016.5,,,,,,,,,,,,,,,Clear,72000.0,,,,,,,,,
KRDR,09-22-2020,01:56,METAR,Normal,260,5.0,,,9999.0,,14.2,7.5,29.99,1016.1,,,,,,,,,,,,,,,Clear,72000.0,,,,,,,,,
KRDR,09-22-2020,00:56,METAR,Normal,270,5.0,,,9999.0,,17.5,7.8,29.97,1015.4,,,,,,,,,,,,,,,Clear,72000.0,,,,,,,,,
KRDR,09-21-2020,23:56,METAR,Normal,290,9.0,,,9999.0,,23.2,6.0,29.96,1014.9,,,,,,,,,,,,,,,Clear,72000.0,,,,,,,,,
KRDR,09-21-2020,22:56,METAR,Normal,280,15.0,21.0,,9999.0,,24.7,5.9,29.94,1014.1,,,,,,,,,,,,,,,Clear,72000.0,,,,,,,,,
KRDR,09-21-2020,21:56,METAR,Normal,300,18.0,28.0,290/28KTS,9999.0,,25.5,5.1,29.93,1013.8,,,,,,,,,,,,,,,Clear,72000.0,,,,,,,,,
KRDR,09-21-2020,20:56,METAR,Normal,280,21.0,32.0,,9999.0,Haze Smoke or Dust,25.8,4.8,29.92,1013.5,05,,,,,,,,,,,,,,Clear,72000.0,,,,,,,,,
KRDR,09-21-2020,19:56,METAR,Normal,280,20.0,30.0,290/34KTS,9999.0,,26.3,5.8,29.91,1013.0,,,,,,,,,,,,,,,Clear,72000.0,,,,,,,,,
KRDR,09-21-2020,18:56,METAR,Normal,290,21.0,27.0,300/31KTS,9999.0,,26.0,6.6,29.91,1013.1,,,,,,,,,,,,,,,Clear,72000.0,,,,,,,,,
KRDR,09-21-2020,17:56,METAR,Normal,280,23.0,30.0,280/31KTS,9999.0,,25.5,7.6,29.91,1013.0,,,,,,,,,,,,,,,Clear,72000.0,,,,,,,,,
KRDR,09-21-2020,16:56,METAR,Normal,270,22.0,29.0,270/31KTS,9999.0,,24.6,9.3,29.92,1013.4,,,,,,,,,,,,,,,Clear,72000.0,,,,,,,,,
KRDR,09-21-2020,15:56,METAR,Normal,270,17.0,23.0,,9999.0,,22.7,10.1,29.93,1013.8,,,,,,,,,,,,,,,Clear,72000.0,,,,,,,,,
KRDR,09-21-2020,14:56,METAR,Normal,270,12.0,21.0,,9999.0,,20.7,10.8,29.93,1013.8,,,,,,,,,,,,,,,Clear,72000.0,,,,,,,,,
KRDR,09-21-2020,13:56,METAR,Normal,260,9.0,17.0,,9999.0,,18.5,10.3,29.92,1013.5,,,,,,,,,,,,,,,Clear,72000.0,,,,,,,,,
KRDR,09-21-2020,12:56,METAR,Normal,250,9.0,,,9999.0,,16.3,9.9,29.90,1012.9,,,,,,,,,,,,,,,Clear,72000.0,,,,,,,,,
KRDR,09-21-2020,11:56,METAR,Normal,240,10.0,,,9999.0,,16.6,9.8,29.88,1012.1,,,,,,,,,,,,,,,Clear,72000.0,,,,,,,,,
KRDR,09-21-2020,10:56,METAR,Normal,250,15.0,23.0,,9999.0,,17.5,9.6,29.86,1011.4,,,,,,,,,,,,,,,Clear,72000.0,,,,,,,,,
KRDR,09-21-2020,09:56,METAR,Normal,230,10.0,,,9999.0,,16.3,9.9,29.85,1011.0,,,,,,,,,,,,,,,Clear,72000.0,,,,,,,,,
KRDR,09-21-2020,08:56,METAR,Normal,230,9.0,,,9999.0,,13.3,9.2,29.84,1010.8,,,,,,,,,,,,,,,Clear,72000.0,,,,,,,,,
KRDR,09-21-2020,07:56,METAR,Normal,230,9.0,,,9999.0,,17.7,9.3,29.84,1010.8,,,,,,,,,,,,,,,Clear,72000.0,,,,,,,,,
KRDR,09-21-2020,06:56,METAR,Normal,240,8.0,,,9999.0,,16.3,10.2,29.84,1010.8,,,,,,,,,,,,,,,Clear,72000.0,,,,,,,,,
KRDR,09-21-2020,05:56,METAR,Normal,220,8.0,,,9999.0,,17.5,9.9,29.84,1010.8,,,,,,,,,,,,,,,Clear,72000.0,,,,,,,,,
KRDR,09-21-2020,04:56,METAR,Normal,260,8.0,,,9999.0,,16.9,9.6,29.83,1010.5,,,,,,,,,,,,,,,Clear,72000.0,,,,,,,,,
KRDR,09-21-2020,03:56,METAR,Normal,230,9.0,,,9999.0,,18.4,11.5,29.81,1009.9,,,,,,,,,,,,,,,2/8 Mostly Clear,72000.0,9000.0,FEW,9100.0,FEW,16000.0,,,,
KRDR,09-21-2020,02:56,METAR,Normal,210,10.0,,,9999.0,,19.8,15.4,29.79,1009.2,,,,,,,,,,,,,,,Clear,72000.0,,,,,,,,,
KRDR,09-21-2020,01:56,METAR,Normal,190,10.0,,,9999.0,,21.0,16.6,29.79,1009.2,,,,,,,,,,,,,,,2/8 Mostly Clear,72000.0,9000.0,FEW,9100.0,,,,,,
KRDR,09-21-2020,00:56,METAR,Normal,200,11.0,,,9999.0,,21.7,16.4,29.78,1008.8,,,,,,,,,,,,,,,Clear,72000.0,,,,,,,,,
KRDR,09-20-2020,23:56,METAR,Normal,190,12.0,,,9999.0,,23.5,16.0,29.77,1008.4,,,,,,,,,,,,,,,Clear,72000.0,,,,,,,,,
KRDR,09-20-2020,22:56,METAR,Normal,210,15.0,20.0,,9999.0,,24.8,16.2,29.77,1008.4,,,,,,,,,,,,,,,Clear,72000.0,,,,,,,,,
KRDR,09-20-2020,21:56,METAR,Normal,220,19.0,24.0,190/28KTS,9999.0,,24.9,16.0,29.77,1008.4,,,,,,,,,,,,,,,Clear,72000.0,,,,,,,,,
KRDR,09-20-2020,20:56,METAR,Normal,200,18.0,28.0,210/28KTS,9999.0,,24.2,15.9,29.77,1008.4,,,,,,,,,,,,,,,2/8 Mostly Clear,72000.0,13000.0,FEW,13000.0,,,,,,
KRDR,09-20-2020,19:56,METAR,Normal,200,14.0,25.0,,9999.0,,22.0,16.0,29.78,1008.8,,,,,,,,,,,TRACE,,,,,15000.0,8000.0,FEW,8000.0,SCT,10000.0,SCT,13000.0,BKN,15000.0
KRDR,09-20-2020,19:53,SPECI,Normal,200,19.0,25.0,,9999.0,Light Rain Showers,22.0,16.0,29.78,1008.8,,,,80,,,,,,,,,,,4/8 Partly Cloudy,72000.0,7500.0,FEW,7500.0,SCT,13000.0,SCT,15000.0,,
KRDR,09-20-2020,18:56,METAR,Normal,190,16.0,22.0,,9999.0,,23.1,15.9,29.77,1008.4,,,,,,,,,,,,,,,4/8 Partly Cloudy,72000.0,18000.0,SCT,18000.0,,,,,,
KRDR,09-20-2020,17:56,METAR,Normal,180,14.0,22.0,,9999.0,,22.4,15.5,29.76,1008.1,,,,,,,,,,,,,,,,20000.0,15000.0,SCT,15000.0,BKN,20000.0,,,,
KRDR,09-20-2020,16:56,METAR,Normal,190,16.0,24.0,190/27KTS,9999.0,,20.6,14.9,29.80,1009.5,,,,,,,,,,,,,,,4/8 Partly Cloudy,72000.0,18000.0,SCT,18000.0,SCT,20000.0,,,,
KRDR,09-20-2020,15:56,METAR,Normal,200,16.0,28.0,190/28KTS,9999.0,,18.6,13.7,29.81,1009.9,,,,,,,,,,,,,,,4/8 Partly Cloudy,72000.0,20000.0,SCT,20000.0,,,,,,
KRDR,09-20-2020,14:56,METAR,Normal,190,16.0,,,9999.0,,16.8,12.9,29.80,1009.6,,,,,,,,,,,,,,,Clear,72000.0,,,,,,,,,
KRDR,09-20-2020,13:56,METAR,Normal,180,15.0,20.0,,9999.0,,15.3,12.2,29.81,1009.9,,,,,,,,,,,,,,,Clear,72000.0,,,,,,,,,
KRDR,09-20-2020,12:56,METAR,Normal,170,16.0,20.0,,9999.0,,15.2,12.0,29.82,1010.2,,,,,,,,,,,,,,,2/8 Mostly Clear,72000.0,21000.0,FEW,21000.0,,,,,,
KRDR,09-20-2020,11:56,METAR,Normal,170,13.0,,,9999.0,,15.1,11.7,29.83,1010.5,,,,,,,,,,,,,,,,18000.0,18000.0,BKN,18000.0,,,,,,
KRDR,09-20-2020,10:56,METAR,Normal,170,13.0,19.0,,9999.0,,15.0,11.6,29.84,1010.8,,,,,,,,,,,,,,,,21000.0,21000.0,BKN,21000.0,,,,,,
KRDR,09-20-2020,09:56,METAR,Normal,170,13.0,,,9999.0,,15.1,11.7,29.85,1011.1,,,,,,,,,,,,,,,Clear,72000.0,,,,,,,,,
KRDR,09-20-2020,08:56,METAR,Normal,160,12.0,,,9999.0,,15.2,11.8,29.87,1011.8,,,,,,,,,,,,,,,Clear,72000.0,,,,,,,,,
KRDR,09-20-2020,07:56,METAR,Normal,160,10.0,,,9999.0,,15.4,12.0,29.89,1012.5,,,,,,,,,,,,,,,Clear,72000.0,,,,,,,,,
KRDR,09-20-2020,06:56,METAR,Normal,160,11.0,,,9999.0,,15.5,12.1,29.91,1013.1,,,,,,,,,,,,,,,Clear,72000.0,,,,,,,,,
KRDR,09-20-2020,05:56,METAR,Normal,150,7.0,,,9999.0,,15.1,12.4,29.93,1013.9,,,,,,,,,,,,,,,Clear,72000.0,,,,,,,,,
KRDR,09-20-2020,04:56,METAR,Normal,150,7.0,,,9999.0,,15.7,12.6,29.95,1014.6,,,,,,,,,,,,,,,Clear,72000.0,,,,,,,,,
KRDR,09-20-2020,03:56,METAR,Normal,160,10.0,,,9999.0,,17.0,12.9,29.95,1014.7,,,,,,,,,,,,,,,Clear,72000.0,,,,,,,,,
KRDR,09-20-2020,02:56,METAR,Normal,150,10.0,,,9999.0,,17.7,13.0,29.96,1015.1,,,,,,,,,,,,,,,Clear,72000.0,,,,,,,,,
KRDR,09-20-2020,01:56,METAR,Normal,160,11.0,,,9999.0,,19.7,13.4,29.95,1014.8,,,,,,,,,,,,,,,Clear,72000.0,,,,,,,,,
KRDR,09-20-2020,00:56,METAR,Normal,160,9.0,,,9999.0,,21.0,13.7,29.94,1014.5,,,,,,,,,,,,,,,Clear,72000.0,,,,,,,,,
KRDR,09-19-2020,23:56,METAR,Normal,160,11.0,,,9999.0,,23.3,13.2,29.94,1014.5,,,,,,,,,,,,,,,Clear,72000.0,,,,,,,,,
KRDR,09-19-2020,22:56,METAR,Normal,150,12.0,,,9999.0,,24.8,12.7,29.94,1014.4,,,,,,,,,,,,,,,Clear,72000.0,,,,,,,,,
KRDR,09-19-2020,21:56,METAR,Normal,160,14.0,,,9999.0,,25.4,11.9,29.95,1014.7,,,,,,,,,,,,,,,Clear,72000.0,,,,,,,,,
KRDR,09-19-2020,20:56,METAR,Normal,140,12.0,19.0,,9999.0,,25.1,10.9,29.96,1015.0,,,,,,,,,,,,,,,Clear,72000.0,,,,,,,,,
KRDR,09-19-2020,19:56,METAR,Normal,140,11.0,,,9999.0,,24.7,10.2,29.98,1015.7,,,,,,,,,,,,,,,Clear,72000.0,,,,,,,,,
KRDR,09-19-2020,18:56,METAR,Normal,150,9.0,,,9999.0,,23.5,9.8,30.00,1016.4,,,,,,,,,,,,,,,Clear,72000.0,,,,,,,,,
KRDR,09-19-2020,17:56,METAR,Normal,200,6.0,,,9999.0,,22.3,9.4,30.03,1017.5,,,,,,,,,,,,,,,Clear,72000.0,,,,,,,,,
KRDR,09-19-2020,16:56,METAR,Normal,200,5.0,,,9999.0,,19.7,8.1,30.05,1018.2,,,,,,,,,,,,,,,Clear,72000.0,,,,,,,,,
KRDR,09-19-2020,15:56,METAR,Normal,180,7.0,,,9999.0,,17.4,7.4,30.06,1018.6,,,,,,,,,,,,,,,Clear,72000.0,,,,,,,,,
KRDR,09-19-2020,14:56,METAR,Normal,200,8.0,,,9999.0,,14.3,7.1,30.06,1018.7,,,,,,,,,,,,,,,Clear,72000.0,,,,,,,,,
KRDR,09-19-2020,13:56,METAR,Normal,200,8.0,,,9999.0,,10.8,6.7,30.07,1019.1,,,,,,,,,,,,,,,Clear,72000.0,,,,,,,,,
KRDR,09-19-2020,12:56,METAR,Normal,190,5.0,,,9999.0,,7.2,6.0,30.07,1019.2,,,,,,,,,,,,,,,Clear,72000.0,,,,,,,,,
KRDR,09-19-2020,11:56,METAR,Normal,190,7.0,,,9999.0,,6.6,5.9,30.07,1019.0,,,,,,,,,,,,,,,Clear,72000.0,,,,,,,,,
KRDR,09-19-2020,10:56,METAR,Normal,200,6.0,,,9999.0,,8.0,6.3,30.07,1019.0,,,,,,,,,,,,,,,Clear,72000.0,,,,,,,,,
KRDR,09-19-2020,09:56,METAR,Normal,200,7.0,,,9999.0,,8.2,6.5,30.07,1019.0,,,,,,,,,,,,,,,Clear,72000.0,,,,,,,,,
KRDR,09-19-2020,08:56,METAR,Normal,200,8.0,,,9999.0,,9.2,7.0,30.09,1019.6,,,,,,,,,,,,,,,Clear,72000.0,,,,,,,,,
KRDR,09-19-2020,07:56,METAR,Normal,200,9.0,,,9999.0,,9.7,7.1,30.10,1019.9,,,,,,,,,,,,,,,Clear,72000.0,,,,,,,,,
KRDR,09-19-2020,06:56,METAR,Normal,190,8.0,,,9999.0,,9.6,7.2,30.11,1020.3,,,,,,,,,,,,,,,Clear,72000.0,,,,,,,,,
KRDR,09-19-2020,05:56,METAR,Normal,200,7.0,,,9999.0,,10.4,7.5,30.12,1020.6,,,,,,,,,,,,,,,Clear,72000.0,,,,,,,,,
KRDR,09-19-2020,04:56,METAR,Normal,200,8.0,,,9999.0,,11.3,7.6,30.12,1020.7,,,,,,,,,,,,,,,Clear,72000.0,,,,,,,,,
KRDR,09-19-2020,03:56,METAR,Normal,200,7.0,,,9999.0,,11.8,7.7,30.13,1021.1,,,,,,,,,,,,,,,Clear,72000.0,,,,,,,,,
KRDR,09-19-2020,02:56,METAR,Normal,200,8.0,,,9999.0,,12.4,7.5,30.12,1020.8,,,,,,,,,,,,,,,Clear,72000.0,,,,,,,,,
KRDR,09-19-2020,01:56,METAR,Normal,190,8.0,,,9999.0,,13.2,7.4,30.13,1021.2,,,,,,,,,,,,,,,Clear,72000.0,,,,,,,,,
KRDR,09-19-2020,00:56,METAR,Normal,190,7.0,,,9999.0,,15.0,7.3,30.13,1021.3,,,,,,,,,,,,,,,Clear,72000.0,,,,,,,,,
KRDR,09-18-2020,23:56,METAR,Normal,200,11.0,,,9999.0,,18.6,6.4,30.14,1021.5,,,,,,,,,,,,,,,Clear,72000.0,,,,,,,,,
KRDR,09-18-2020,22:56,METAR,Normal,230,12.0,,,9999.0,,20.0,6.3,30.15,1021.8,,,,,,,,,,,,,,,Clear,72000.0,,,,,,,,,
KRDR,09-18-2020,21:56,METAR,Normal,220,15.0,21.0,,9999.0,,20.7,5.9,30.16,1022.1,,,,,,,,,,,,,,,Clear,72000.0,,,,,,,,,
KRDR,09-18-2020,20:56,METAR,Normal,220,11.0,17.0,,9999.0,,20.9,5.7,30.19,1023.2,,,,,,,,,,,,,,,Clear,72000.0,,,,,,,,,
KRDR,09-18-2020,19:56,METAR,Normal,210,14.0,21.0,,9999.0,,20.6,6.5,30.21,1023.9,,,,,,,,,,,,,,,,22000.0,15000.0,SCT,15000.0,BKN,22000.0,,,,
KRDR,09-18-2020,18:56,METAR,Normal,210,14.0,21.0,,9999.0,,20.1,5.7,30.25,1025.4,,,,,,,,,,,,,,,4/8 Partly Cloudy,72000.0,8000.0,FEW,8000.0,FEW,12000.0,SCT,22000.0,,
KRDR,09-18-2020,17:56,METAR,Normal,210,11.0,18.0,,9999.0,,19.3,6.4,30.27,1026.1,,,,,,,,,,,,,,,4/8 Partly Cloudy,72000.0,12000.0,FEW,12000.0,SCT,22000.0,,,,
KRDR,09-18-2020,16:56,METAR,Normal,210,11.0,,,9999.0,,17.1,6.6,30.30,1027.1,,,,,,,,,,,,,,,4/8 Partly Cloudy,72000.0,8000.0,FEW,8000.0,SCT,22000.0,,,,
KRDR,09-18-2020,15:56,METAR,Normal,220,9.0,,,9999.0,,14.4,7.7,30.32,1027.9,,,,,,,,,,,,,,,4/8 Partly Cloudy,72000.0,8000.0,FEW,8000.0,FEW,11000.0,SCT,23000.0,,
KRDR,09-18-2020,14:56,METAR,Normal,180,8.0,,,9999.0,,11.0,7.1,30.33,1028.3,,,,,,,,,,,,,,,4/8 Partly Cloudy,72000.0,8500.0,FEW,8600.0,SCT,12000.0,SCT,23000.0,,
KRDR,09-18-2020,13:56,METAR,Normal,200,7.0,,,9999.0,,8.4,6.7,30.34,1028.7,,,,,,,,,,,,,,,,10000.0,7000.0,SCT,7000.0,BKN,10000.0,,,,
KRDR,09-18-2020,12:56,METAR,Normal,170,5.0,,,9999.0,,4.9,4.3,30.34,1028.6,,,,,,,,,,,,,,,,10000.0,10000.0,BKN,10000.0,,,,,,
KRDR,09-18-2020,11:56,METAR,Normal,170,3.0,,,9999.0,,2.6,1.4,30.34,1028.6,,,,,,,,,,,,,,,,10000.0,10000.0,BKN,10000.0,,,,,,
KRDR,09-18-2020,10:56,METAR,Normal,150,3.0,,,9999.0,,3.6,1.3,30.34,1028.5,,,,,,,,,,,,,,,,10000.0,10000.0,BKN,10000.0,,,,,,
KRDR,09-18-2020,09:56,METAR,Normal,140,4.0,,,9999.0,,4.1,0.4,30.36,1029.1,,,,,,,,,,,,,,,2/8 Mostly Clear,72000.0,10000.0,FEW,10000.0,,,,,,
KRDR,09-18-2020,08:56,METAR,Calm,,0.0,,,9999.0,,3.6,3.5,30.36,1029.1,,,,,,,,,,,,,,,,10000.0,10000.0,OVC,10000.0,,,,,,
KRDR,09-18-2020,07:56,METAR,Calm,,0.0,,,9999.0,,1.7,1.6,30.36,1029.2,,,,,,,,,,,,,,,,10000.0,10000.0,OVC,10000.0,,,,,,
KRDR,09-18-2020,06:56,METAR,Calm,,0.0,,,9999.0,,-0.3,-0.4,30.37,1029.7,,,,,,,,,,,,,,,Clear,72000.0,,,,,,,,,
KRDR,09-18-2020,05:56,METAR,Normal,290,3.0,,,9999.0,,-0.4,-0.5,30.37,1029.7,,,,,,,,,,,,,,,Clear,72000.0,,,,,,,,,
KRDR,09-18-2020,04:56,METAR,Calm,,0.0,,,9999.0,,1.1,0.2,30.36,1029.4,,,,,,,,,,,,,,,Clear,72000.0,,,,,,,,,
KRDR,09-18-2020,03:56,METAR,Calm,,0.0,,,9999.0,,1.5,0.2,30.35,1029.1,,,,,,,,,,,,,,,Clear,72000.0,,,,,,,,,
KRDR,09-18-2020,02:56,METAR,Normal,20,3.0,,,9999.0,,3.6,0.6,30.35,1029.0,,,,,,,,,,,,,,,2/8 Mostly Clear,72000.0,8500.0,FEW,8600.0,,,,,,
KRDR,09-18-2020,01:56,METAR,Normal,50,4.0,,,9999.0,,4.8,1.3,30.34,1028.7,,,,,,,,,,,,,,,Clear,72000.0,,,,,,,,,
KRDR,09-18-2020,00:56,METAR,Normal,70,5.0,,,9999.0,,9.1,0.0,30.32,1028.0,,,,,,,,,,,,,,,2/8 Mostly Clear,72000.0,15000.0,FEW,15000.0,,,,,,
KRDR,09-17-2020,23:56,METAR,Normal,70,8.0,,,9999.0,,11.7,-0.8,30.31,1027.5,,,,,,,,,,,,,,,,13000.0,13000.0,BKN,13000.0,,,,,,
KRDR,09-17-2020,22:56,METAR,Normal,60,11.0,,,9999.0,,14.1,-0.4,30.29,1026.7,,,,,,,,,,,,,,,,13000.0,13000.0,BKN,13000.0,,,,,,
KRDR,09-17-2020,21:56,METAR,Normal,90,6.0,,,9999.0,,15.6,1.7,30.29,1026.6,,,,,,,,,,,,,,,2/8 Mostly Clear,72000.0,15000.0,FEW,15000.0,,,,,,
KRDR,09-17-2020,20:56,METAR,Normal,100,5.0,,,9999.0,,15.1,2.6,30.28,1026.3,,,,,,,,,,,,,,,4/8 Partly Cloudy,72000.0,8000.0,FEW,8000.0,SCT,12000.0,SCT,14000.0,SCT,17000.0
KRDR,09-17-2020,19:56,METAR,Normal,130,7.0,,,9999.0,,15.6,3.1,30.30,1026.9,,,,,,,,,,,,,,,,8500.0,8500.0,BKN,8600.0,,,,,,
KRDR,09-17-2020,18:56,METAR,Normal,100,5.0,,,9999.0,,13.9,3.1,30.31,1027.3,,,,,,,,,,,,,,,,8500.0,8500.0,BKN,8600.0,,,,,,
KRDR,09-17-2020,17:56,METAR,Normal,80,5.0,,,9999.0,,12.8,2.9,30.31,1027.4,,,,,,,,,,,,,,,,8000.0,8000.0,BKN,8000.0,,,,,,
KRDR,09-17-2020,16:56,METAR,Normal,90,4.0,,,9999.0,,11.5,2.2,30.31,1027.5,,,,,,,,,,,,,,,,8000.0,8000.0,BKN,8000.0,BKN,12000.0,,,,
KRDR,09-17-2020,15:56,METAR,Normal,110,7.0,,,9999.0,,10.6,1.4,30.31,1027.6,,,,,,,,,,,,,,,,8000.0,8000.0,BKN,8000.0,BKN,12000.0,,,,
KRDR,09-17-2020,14:56,METAR,Normal,110,5.0,,,9999.0,,9.2,0.9,30.31,1027.5,,,,,,,,,,,,,,,,8000.0,8000.0,BKN,8000.0,BKN,12000.0,,,,
KRDR,09-17-2020,13:56,METAR,Normal,110,5.0,,,9999.0,,7.5,2.8,30.30,1027.2,,,,,,,,,,,,,,,2/8 Mostly Clear,72000.0,6000.0,FEW,6000.0,FEW,12000.0,,,,
KRDR,09-17-2020,12:56,METAR,Normal,90,4.0,,,9999.0,,5.1,3.1,30.29,1026.9,,,,,,,,,,,,,,,,8000.0,8000.0,OVC,8000.0,,,,,,
KRDR,09-17-2020,11:56,METAR,Normal,70,6.0,,,9999.0,,6.6,4.1,30.27,1026.0,,,,,,,,,,,,,,,,8000.0,8000.0,OVC,8000.0,,,,,,
KRDR,09-17-2020,10:56,METAR,Normal,70,4.0,,,9999.0,,7.9,3.4,30.26,1025.6,,,,,,,,,,,,,,,2/8 Mostly Clear,72000.0,8000.0,FEW,8000.0,,,,,,
KRDR,09-17-2020,09:56,METAR,Normal,180,4.0,,,9999.0,,7.3,4.3,30.25,1025.3,,,,,,,,,,,,,,,,8000.0,8000.0,OVC,8000.0,,,,,,
KRDR,09-17-2020,08:56,METAR,Normal,140,4.0,,,9999.0,,7.5,4.1,30.25,1025.3,,,,,,,,,,,,,,,,8000.0,8000.0,OVC,8000.0,,,,,,
KRDR,09-17-2020,07:56,METAR,Normal,130,3.0,,,9999.0,,8.2,3.1,30.25,1025.3,,,,,,,,,,,,,,,,8000.0,8000.0,OVC,8000.0,,,,,,
KRDR,09-17-2020,06:56,METAR,Normal,190,3.0,,,9999.0,,7.9,3.4,30.26,1025.7,,,,,,,,,,,,,,,,8000.0,8000.0,OVC,8000.0,,,,,,
KRDR,09-17-2020,05:56,METAR,Normal,190,3.0,,,9999.0,,6.8,4.6,30.26,1025.7,,,,,,,,,,,,,,,,9000.0,9000.0,BKN,9100.0,,,,,,
KRDR,09-17-2020,04:56,METAR,Calm,,0.0,,,9999.0,,4.3,3.0,30.25,1025.5,,,,,,,,,,,,,,,4/8 Partly Cloudy,72000.0,9000.0,SCT,9100.0,,,,,,
KRDR,09-17-2020,03:56,METAR,Normal,210,3.0,,,9999.0,,3.4,1.8,30.24,1025.2,,,,,,,,,,,,,,,2/8 Mostly Clear,72000.0,25000.0,FEW,25000.0,,,,,,
KRDR,09-17-2020,02:56,METAR,Normal,120,4.0,,,9999.0,,7.4,2.9,30.23,1024.7,,,,,,,,,,,,,,,2/8 Mostly Clear,72000.0,25000.0,FEW,25000.0,,,,,,
KRDR,09-17-2020,01:56,METAR,Normal,100,4.0,,,9999.0,,8.0,3.3,30.23,1024.7,,,,,,,,,,,,,,,2/8 Mostly Clear,72000.0,25000.0,FEW,25000.0,,,,,,
KRDR,09-17-2020,00:56,METAR,Normal,90,4.0,,,9999.0,,10.0,2.8,30.23,1024.7,,,,,,,,,,,,,,,2/8 Mostly Clear,72000.0,8000.0,FEW,8000.0,,,,,,
KRDR,09-16-2020,23:56,METAR,Normal,70,5.0,,,9999.0,,12.7,2.3,30.23,1024.5,,,,,,,,,,,,,,,Clear,72000.0,,,,,,,,,
KRDR,09-16-2020,22:56,METAR,Normal,310,5.0,,,9999.0,,14.1,2.6,30.23,1024.5,,,,,,,,,,,,,,,2/8 Mostly Clear,72000.0,5000.0,FEW,5000.0,,,,,,
KRDR,09-16-2020,21:56,METAR,Normal,30,6.0,,,9999.0,,14.0,2.2,30.25,1025.2,,,,,,,,,,,,,,,2/8 Mostly Clear,72000.0,4000.0,FEW,4000.0,,,,,,
KRDR,09-16-2020,20:56,METAR,Normal,340,7.0,,,9999.0,,13.4,2.3,30.26,1025.6,,,,,,,,,,,,,,,4/8 Partly Cloudy,72000.0,4200.0,SCT,4200.0,,,,,,
KRDR,09-16-2020,19:56,METAR,Normal,360,12.0,18.0,,9999.0,,14.0,2.6,30.27,1025.9,,,,,,,,,,,,,,,4/8 Partly Cloudy,72000.0,4200.0,SCT,4200.0,,,,,,
KRDR,09-16-2020,18:56,METAR,Normal,360,14.0,18.0,,9999.0,,12.2,3.4,30.28,1026.3,,,,,,,,,,,,,,,,4200.0,4200.0,BKN,4200.0,,,,,,
KRDR,09-16-2020,18:11,SPECI,Normal,30,14.0,20.0,,9999.0,,13.0,5.0,30.29,1026.5,,,,,,,,,,,,,,,,4200.0,3300.0,SCT,3300.0,BKN,4200.0,,,,
KRDR,09-16-2020,17:56,METAR,Normal,10,13.0,18.0,,9999.0,,12.9,4.3,30.29,1026.5,,,,,,,,,,,,,,,,4200.0,3300.0,SCT,3300.0,BKN,4200.0,,,,
KRDR,09-16-2020,16:56,METAR,Normal,20,12.0,,,9999.0,,12.1,4.8,30.29,1026.7,,,,,,,,,,,,,,,,4200.0,4200.0,BKN,4200.0,BKN,4800.0,,,,
KRDR,09-16-2020,15:56,METAR,Normal,20,14.0,21.0,,9999.0,,12.0,4.5,30.28,1026.3,,,,,,,,,,,,,,,,3300.0,3300.0,BKN,3300.0,BKN,4000.0,,,,
KRDR,09-16-2020,14:56,METAR,Normal,360,15.0,22.0,,9999.0,,11.4,6.5,30.25,1025.2,,,,,,,,,,,,,,,,3000.0,2600.0,SCT,2600.0,BKN,3000.0,,,,
KRDR,09-16-2020,13:56,METAR,Normal,360,14.0,18.0,,9999.0,,11.1,8.5,30.21,1023.7,,,,,,,,,,,,,,,,2600.0,2600.0,BKN,2600.0,BKN,3000.0,,,,
KRDR,09-16-2020,12:56,METAR,Normal,10,8.0,,,9999.0,,10.7,8.8,30.19,1023.1,,,,,,,,,,,,,,,,1500.0,1500.0,BKN,1500.0,OVC,2200.0,,,,
KRDR,09-16-2020,11:56,METAR,Normal,10,14.0,21.0,,9999.0,,10.9,7.8,30.14,1021.3,,,,,,,,,,,,,,,,,,,,,,,,,
KRDR,09-16-2020,10:56,METAR,Normal,340,10.0,,,9999.0,,10.1,8.9,30.10,1019.9,,,,,,,,,,,,,,,,,,,,,,,,,
KRDR,09-16-2020,09:56,METAR,Normal,310,7.0,,,9999.0,,9.5,8.7,30.07,1018.9,,,,,,,,,,,,,,,,1500.0,1500.0,BKN,1500.0,OVC,4500.0,,,,
KRDR,09-16-2020,08:56,METAR,Normal,320,8.0,,,9999.0,,9.9,9.3,30.05,1018.2,,,,,,,,,,,,,,,,,,,,,,,,,
KRDR,09-16-2020,07:56,METAR,Normal,310,5.0,,,9999.0,,11.1,9.5,30.04,,,,,,,,,,,,,,,,,,,,,,,,,,
KRDR,09-16-2020,06:56,METAR,Normal,330,6.0,,,9999.0,,11.9,9.5,30.02,1017.1,,,,,,,,,,,,,,,,,,,,,,,,,
KRDR,09-16-2020,05:56,METAR,Normal,340,5.0,,,9999.0,,12.5,10.0,30.00,,,,,,,,,,,,,,,,,,,,,,,,,,
KRDR,09-16-2020,04:56,METAR,Normal,350,6.0,,,9999.0,,9.7,9.2,29.99,,,,,,,,,,,,,,,,,,,,,,,,,,
KRDR,09-16-2020,03:56,METAR,Normal,360,4.0,,,9999.0,,11.5,10.6,29.97,,,,,,,,,,,,,,,,,,,,,,,,,,
KRDR,09-16-2020,02:56,METAR,Normal,10,4.0,,,9999.0,,16.6,12.5,29.96,1015.2,,,,,,,,,,,,,,,,5000.0,5000.0,BKN,5000.0,,,,,,
KRDR,09-16-2020,01:56,METAR,Normal,10,4.0,,,9999.0,,16.6,12.5,29.96,1015.2,,,,,,,,,,,,,,,,5000.0,5000.0,BKN,5000.0,,,,,,
KRDR,09-16-2020,00:56,METAR,Normal,340,3.0,,,9999.0,,15.2,13.9,29.95,1015.0,,,,,,,,,,,,,,,,5000.0,5000.0,BKN,5000.0,,,,,,
KRDR,09-15-2020,23:56,METAR,Calm,,0.0,,,9999.0,,18.3,12.7,29.93,1014.2,,,,,,,,,,,,,,,,20000.0,4000.0,FEW,4000.0,OVC,20000.0,,,,
KRDR,09-15-2020,22:56,METAR,Normal,30,4.0,,,9999.0,,19.4,12.9,29.94,1014.5,,,,,,,,,,,,,,,,20000.0,5000.0,FEW,5000.0,OVC,20000.0,,,,
KRDR,09-15-2020,21:56,METAR,Normal,20,7.0,,,9999.0,,20.3,12.8,29.93,1014.1,,,,,,,,,,,,,,,,,,,,,,,,,
KRDR,09-15-2020,20:56,METAR,Normal,340,4.0,,,9999.0,,21.0,12.0,29.94,,,,,,,,,,,,,,,,,20000.0,20000.0,OVC,20000.0,,,,,,
KRDR,09-15-2020,19:56,METAR,Normal,10,3.0,,,9999.0,,20.7,12.1,29.95,1014.8,,,,,,,,,,,,,,,,20000.0,20000.0,OVC,20000.0,,,,,,
KRDR,09-15-2020,18:56,METAR,Calm,,0.0,,,9999.0,,19.7,12.2,29.95,1014.8,,,,,,,,,,,,,,,,18000.0,18000.0,OVC,18000.0,,,,,,
KRDR,09-15-2020,17:56,METAR,Normal,30,6.0,,,9999.0,,19.0,13.0,29.96,1015.1,,,,,,,,,,,,,,,,18000.0,18000.0,OVC,18000.0,,,,,,
KRDR,09-15-2020,16:58,METAR,Normal,20,7.0,,,9999.0,,18.0,13.0,29.96,1015.1,,,,,,,,,,,,,,,,20000.0,20000.0,OVC,20000.0,,,,,,
KRDR,09-15-2020,15:58,METAR,Normal,10,6.0,,,9999.0,,15.0,12.0,29.96,1015.1,,,,,,,,,,,,,,,,20000.0,20000.0,OVC,20000.0,,,,,,
KRDR,09-15-2020,14:56,METAR,Normal,360,8.0,,,9999.0,,12.9,12.3,29.95,1014.9,,,,,,,,,,,,,,,,20000.0,2700.0,FEW,2700.0,OVC,20000.0,,,,
KRDR,09-15-2020,13:56,METAR,Normal,340,7.0,,,9999.0,,11.1,11.1,29.94,1014.5,,,,,,,,,,,,,,,,2700.0,2700.0,BKN,2700.0,OVC,20000.0,,,,
KRDR,09-15-2020,12:56,METAR,Normal,310,6.0,,,9999.0,,9.5,9.5,29.92,1013.9,,,,,,,,,,,,,,,Clear,72000.0,,,,,,,,,
KRDR,09-15-2020,11:56,METAR,Normal,330,5.0,,,9999.0,,9.5,9.5,29.90,1013.2,,,,,,,,,,,,,,,Clear,72000.0,,,,,,,,,
KRDR,09-15-2020,10:56,METAR,Normal,330,6.0,,,9999.0,,9.8,9.8,29.88,1012.4,,,,,,,,,,,,,,,Clear,72000.0,,,,,,,,,
KRDR,09-15-2020,09:56,METAR,Normal,330,4.0,,,9999.0,,10.2,10.2,29.86,,,,,,,,,,,,,,,,Clear,72000.0,,,,,,,,,
KRDR,09-15-2020,08:56,METAR,Normal,300,5.0,,,9999.0,,9.7,9.7,29.84,,,,,,,,,,,,,,,,Clear,72000.0,,,,,,,,,
KRDR,09-15-2020,07:56,METAR,Normal,290,5.0,,,9999.0,,10.1,10.1,29.86,,,,,,,,,,,,,,,,,21000.0,21000.0,BKN,21000.0,,,,,,
KRDR,09-15-2020,06:56,METAR,Normal,350,3.0,,,9999.0,,10.1,10.1,29.85,,,,,,,,,,,,,,,,,22000.0,22000.0,BKN,22000.0,,,,,,
KRDR,09-15-2020,05:56,METAR,Calm,,0.0,,,9999.0,,10.4,10.4,29.86,,,,,,,,,,,,,,,,,21000.0,21000.0,BKN,21000.0,,,,,,
KRDR,09-15-2020,04:56,METAR,Normal,80,4.0,,,9999.0,,12.2,12.2,29.86,,,,,,,,,,,,,,,,4/8 Partly Cloudy,72000.0,22000.0,SCT,22000.0,,,,,,
KRDR,09-15-2020,03:56,METAR,Normal,40,4.0,,,9999.0,,13.4,13.2,29.90,,,,,,,,,,,,,,,,Clear,72000.0,,,,,,,,,
KRDR,09-15-2020,02:56,METAR,Calm,,0.0,,,9999.0,,13.8,13.6,29.91,,,,,,,,,,,,,,,,Clear,72000.0,,,,,,,,,
KRDR,09-15-2020,01:56,METAR,Normal,120,5.0,,,9999.0,,16.5,14.3,29.92,,,,,,,,,,,,,,,,Clear,72000.0,,,,,,,,,
KRDR,09-15-2020,00:56,METAR,Normal,130,4.0,,,9999.0,,16.8,14.3,29.94,,,,,,,,,,,,,,,,,20000.0,15000.0,SCT,15000.0,OVC,20000.0,,,,
KRDR,09-14-2020,23:56,METAR,Normal,150,8.0,,,9999.0,,19.1,14.3,29.96,,,,,,,,,,,,,,,,,20000.0,15000.0,SCT,15000.0,OVC,20000.0,,,,
KRDR,09-14-2020,22:56,METAR,Normal,160,12.0,,,9999.0,,20.7,13.6,29.98,1016.1,,,,,,,,,,,,,,,,20000.0,15000.0,SCT,15000.0,OVC,20000.0,,,,
KRDR,09-14-2020,21:56,METAR,Normal,160,13.0,17.0,,9999.0,,21.0,13.2,30.00,1016.8,,,,,,,,,,,,,,,,20000.0,20000.0,BKN,20000.0,,,,,,
KRDR,09-14-2020,20:56,METAR,Normal,130,11.0,,,9999.0,,21.0,11.9,30.04,1018.1,,,,,,,,,,,,,,,,20000.0,18000.0,FEW,18000.0,OVC,20000.0,,,,
KRDR,09-14-2020,20:39,SPECI,Normal,170,12.0,,,9999.0,,21.0,12.0,30.05,1018.4,,,,,,,,,,,,,,,,20000.0,18000.0,FEW,18000.0,OVC,20000.0,,,,
KRDR,09-14-2020,19:56,METAR,Normal,160,9.0,16.0,,9999.0,,20.0,9.8,30.10,,,,,,,,,,,,,,,,,21000.0,18000.0,SCT,18000.0,OVC,21000.0,,,,
KRDR,09-14-2020,18:56,METAR,Normal,150,10.0,,,9999.0,,18.7,8.1,30.13,,,,,,,,,,,,,,,,,20000.0,20000.0,OVC,20000.0,,,,,,
KRDR,09-14-2020,17:56,METAR,Normal,150,10.0,,,9999.0,,17.3,7.6,30.19,,,,,,,,,,,,,,,,,15000.0,15000.0,BKN,15000.0,,,,,,
KRDR,09-14-2020,16:56,METAR,Normal,140,9.0,,,9999.0,,15.5,7.5,30.23,,,,,,,,,,,,,,,,,20000.0,20000.0,OVC,20000.0,,,,,,
KRDR,09-14-2020,15:56,METAR,Variable,,4.0,,,9999.0,,12.8,7.7,30.26,,,,,,,,,,,,,,,,,15000.0,15000.0,OVC,15000.0,,,,,,
KRDR,09-14-2020,14:56,METAR,Normal,150,6.0,,,9999.0,,9.4,7.7,,,,,,,,,,,,,,,,,Clear,72000.0,,,,,,,,,
KRDR,09-14-2020,13:56,METAR,Calm,,0.0,,,9999.0,,4.7,4.7,30.32,,,,,,,,,,,,,,,,,15000.0,15000.0,OVC,15000.0,,,,,,
KRDR,09-14-2020,12:56,METAR,Calm,,0.0,,,9999.0,,0.5,0.5,30.29,,,,,,,,,,,,,,,,Clear,72000.0,,,,,,,,,
KRDR,09-14-2020,11:56,METAR,Calm,,0.0,,,9999.0,,-0.2,-0.2,30.29,,,,,,,,,,,,,,,,Clear,72000.0,,,,,,,,,
KRDR,09-14-2020,10:56,METAR,Calm,,0.0,,,9999.0,,0.4,0.4,30.29,,,,,,,,,,,,,,,,Clear,72000.0,,,,,,,,,
KRDR,09-14-2020,09:59,METAR,Calm,,0.0,,,9999.0,,0.8,0.8,30.30,,,,,,,,,,,,,,,,Clear,72000.0,,,,,,,,,
KRDR,09-14-2020,08:56,METAR,Calm,,0.0,,,9999.0,,1.6,1.5,30.30,,,,,,,,,,,,,,,,Clear,72000.0,,,,,,,,,
KRDR,09-14-2020,07:56,METAR,Normal,290,3.0,,,9999.0,,1.7,1.6,30.31,,,,,,,,,,,,,,,,Clear,72000.0,,,,,,,,,
KRDR,09-14-2020,06:56,METAR,Calm,,0.0,,,9999.0,,2.3,2.2,30.30,,,,,,,,,,,,,,,,Clear,72000.0,,,,,,,,,
KRDR,09-14-2020,05:56,METAR,Calm,,0.0,,,9999.0,,4.1,3.4,30.31,,,,,,,,,,,,,,,,Clear,72000.0,,,,,,,,,
KRDR,09-14-2020,04:56,METAR,Normal,30,3.0,,,9999.0,,4.9,3.9,30.30,,,,,,,,,,,,,,,,Clear,72000.0,,,,,,,,,
KRDR,09-14-2020,03:56,METAR,Normal,30,4.0,,,9999.0,,6.2,4.7,30.29,,,,,,,,,,,,,,,,Clear,72000.0,,,,,,,,,
KRDR,09-14-2020,02:56,METAR,Normal,20,5.0,,,9999.0,,7.3,5.4,30.26,,,,,,,,,,,,,,,,4/8 Partly Cloudy,72000.0,12000.0,SCT,12000.0,,,,,,
KRDR,09-14-2020,01:56,METAR,Normal,360,4.0,,,9999.0,,8.7,6.0,30.27,,,,,,,,,,,,,,,,,12000.0,12000.0,BKN,12000.0,,,,,,
KRDR,09-14-2020,00:56,METAR,Normal,30,6.0,,,9999.0,,8.9,6.3,30.26,,,,,,,,,,,,,,,,Clear,72000.0,,,,,,,,,
KRDR,09-13-2020,23:56,METAR,Normal,20,6.0,,,9999.0,,14.0,5.6,,,,,,,,,,,,,,,,,Clear,72000.0,,,,,,,,,
KRDR,09-13-2020,22:56,METAR,Normal,30,9.0,,,9999.0,,16.3,4.3,30.22,,,,,,,,,,,,,,,,Clear,72000.0,,,,,,,,,
KRDR,09-13-2020,21:56,METAR,Normal,10,10.0,,,9999.0,,17.4,4.3,30.20,,,,,,,,,,,,,,,,Clear,72000.0,,,,,,,,,
KRDR,09-13-2020,20:56,METAR,Normal,10,12.0,,,9999.0,,17.6,3.1,30.20,,,,,,,,,,,,,,,,,,4000.0,FEW,4000.0,,,,,,
KRDR,09-13-2020,19:56,METAR,Normal,10,12.0,18.0,,9999.0,,18.1,4.6,30.18,,,,,,,,,,,,,,,,Clear,72000.0,,,,,,,,,
KRDR,09-13-2020,19:38,SPECI,Normal,350,10.0,17.0,,9999.0,,18.0,5.0,30.18,,,,,,,,,,,,,,,,,,4000.0,FEW,4000.0,,,,,,
KRDR,09-13-2020,18:56,METAR,Normal,10,11.0,,,9999.0,,17.0,6.0,30.18,1022.3,,,,,,,,,,,,,,,,,4000.0,FEW,4000.0,FEW,20000.0,,,,
KRDR,09-13-2020,17:56,METAR,Normal,40,9.0,,,9999.0,,16.0,6.0,30.18,1022.3,,,,,,,,,,,,,,,,,4000.0,FEW,4000.0,,,,,,
KRDR,09-13-2020,16:56,METAR,Normal,30,9.0,15.0,,9999.0,,16.0,6.0,30.18,1022.3,,,,,,,,,,,,,,,,,4000.0,FEW,4000.0,SCT,20000.0,,,,
KRDR,09-13-2020,15:58,METAR,Normal,10,11.0,,,9999.0,,14.0,6.0,30.16,1021.8,,,,,,,,,,,,,,,,20000.0,5000.0,FEW,5000.0,SCT,8000.0,BKN,20000.0,,
KRDR,09-13-2020,15:56,METAR,Normal,10,11.0,,,9999.0,,14.0,6.0,30.16,1021.8,,,,,,,,,,,,,,,,20000.0,5000.0,FEW,5000.0,SCT,8000.0,BKN,20000.0,,
KRDR,09-13-2020,14:53,METAR,Normal,360,8.0,,,9999.0,,13.0,8.0,30.13,1020.7,,,,,,,,,,,,,,,,8000.0,5000.0,FEW,5000.0,BKN,8000.0,,,,
KRDR,09-13-2020,13:56,METAR,Normal,360,12.0,,,9999.0,,12.0,8.0,30.10,1019.7,,,,,,,,,,,,,,,,7000.0,7000.0,BKN,7000.0,BKN,12000.0,,,,
KRDR,09-13-2020,12:56,METAR,Normal,30,6.0,,,9999.0,,11.0,7.0,30.08,,,,,,,,,,,,,,,,,6000.0,6000.0,BKN,6000.0,BKN,12000.0,,,,
KRDR,09-13-2020,11:56,METAR,Normal,340,4.0,,,9999.0,,9.0,6.0,30.01,,,,,,,,,,,,,,,,,12000.0,6000.0,FEW,6000.0,BKN,12000.0,,,,
KRDR,09-13-2020,10:56,METAR,Normal,20,6.0,,,9999.0,,9.0,9.0,29.96,,,,,,,,,,,,,,,,,,12000.0,FEW,12000.0,,,,,,
KRDR,09-13-2020,09:56,METAR,Normal,360,5.0,,,9999.0,,8.7,7.8,30.01,,,,,,,,,,,,,,,,,12000.0,12000.0,BKN,12000.0,BKN,15000.0,,,,
KRDR,09-13-2020,08:56,METAR,Calm,,0.0,,,9999.0,,9.0,9.0,29.94,,,,,,,,,,,,,,,,Clear,72000.0,,,,,,,,,
KRDR,09-13-2020,07:56,METAR,Normal,300,4.0,,,9999.0,,9.0,9.0,29.94,,,,,,,,,,,,,,,,Clear,72000.0,,,,,,,,,
KRDR,09-13-2020,06:56,METAR,Normal,30,6.0,,,9999.0,,11.0,9.0,29.93,,,,,,,,,,,,,,,,Clear,72000.0,,,,,,,,,
KRDR,09-13-2020,05:56,METAR,Normal,360,5.0,,,9999.0,,11.0,9.0,29.92,,,,,,,,,,,,,,,,,,10000.0,FEW,10000.0,,,,,,
KRDR,09-13-2020,04:56,METAR,Normal,360,4.0,,,9999.0,,12.0,11.0,29.91,,,,,,,,,,,,,,,,,,10000.0,SCT,10000.0,,,,,,
KRDR,09-13-2020,03:56,METAR,Normal,50,6.0,,,9999.0,,14.0,12.0,29.90,,,,,,,,,,,,,,,,,,16000.0,FEW,16000.0,,,,,,
KRDR,09-13-2020,02:56,METAR,Calm,,0.0,,,9999.0,,16.0,12.0,29.87,,,,,,,,,,,,,,,,,,16000.0,FEW,16000.0,,,,,,
KRDR,09-13-2020,01:56,METAR,Normal,50,6.0,,,9999.0,,17.0,13.0,29.86,,,,,,,,,,,,,,,,,,16000.0,SCT,16000.0,,,,,,
KRDR,09-13-2020,00:56,METAR,Normal,50,4.0,,,9999.0,,17.4,13.3,29.86,1011.7,,,,,,,,,,,,,,,,,16000.0,SCT,16000.0,,,,,,
KRDR,09-12-2020,23:56,METAR,Calm,,0.0,,,9999.0,,21.6,14.2,29.85,1011.3,,,,,,,,,,,,,,,Clear,72000.0,,,,,,,,,
KRDR,09-12-2020,22:56,METAR,Normal,50,4.0,,,9999.0,,23.6,10.6,29.83,1010.5,,,,,,,,,,,,,,,Clear,72000.0,,,,,,,,,
KRDR,09-12-2020,21:56,METAR,Calm,,0.0,,,9999.0,,24.1,10.7,29.82,1010.2,,,,,,,,,,,,,,,,14000.0,14000.0,BKN,14000.0,,,,,,
KRDR,09-12-2020,20:56,METAR,Normal,180,5.0,,,9999.0,,22.8,12.4,29.83,1010.6,,,,,,,,,,,,,,,Clear,72000.0,,,,,,,,,
KRDR,09-12-2020,19:56,METAR,Normal,180,8.0,,,9999.0,,21.7,14.3,29.83,1010.6,,,,,,,,,,,,,,,Clear,72000.0,,,,,,,,,
KRDR,09-12-2020,18:56,METAR,Normal,210,6.0,,,9999.0,,20.2,14.5,29.86,1011.7,,,,,,,,,,,,,,,,,3000.0,FEW,3000.0,FEW,20000.0,,,,
KRDR,09-12-2020,17:56,METAR,Normal,230,4.0,,,9999.0,,19.1,13.9,29.87,1012.1,,,,,,,,,,,,,,,,,2400.0,FEW,2400.0,,,,,,
KRDR,09-12-2020,16:56,METAR,Normal,230,6.0,,,9999.0,,17.2,14.1,29.89,1012.8,,,,,,,,,,,,,,,,,6000.0,FEW,6000.0,SCT,20000.0,,,,
KRDR,09-12-2020,15:56,METAR,Normal,250,4.0,,,9999.0,,14.0,13.7,29.90,1013.2,,,,,,,,,,,,,,,Clear,72000.0,,,,,,,,,
KRDR,09-12-2020,14:56,METAR,Normal,270,6.0,,,9999.0,,13.9,13.9,29.89,1012.9,,,,,,,,,,,,,,,,,700.0,FEW,700.0,SCT,5000.0,,,,
KRDR,09-12-2020,14:40,SPECI,Normal,240,6.0,,,9999.0,,14.0,14.0,29.89,1012.9,,,,,,,,,,,,,,,,18000.0,600.0,FEW,600.0,SCT,5000.0,SCT,16000.0,BKN,18000.0
KRDR,09-12-2020,13:56,METAR,Normal,210,4.0,,,9999.0,,12.6,12.6,29.89,1013.0,,,,,,,,,,,,,,,,5500.0,5500.0,OVC,5500.0,,,,,,
KRDR,09-12-2020,12:56,METAR,Normal,180,5.0,,,9999.0,,12.2,12.2,29.88,1012.6,,,,,,,,,,,,,,,,6000.0,6000.0,OVC,6000.0,,,,,,
KRDR,09-12-2020,11:56,METAR,Normal,190,3.0,,,9999.0,,11.7,11.7,29.89,1012.9,,,,,,,,,,,,,,.08 IN,,12000.0,3700.0,FEW,3700.0,SCT,10000.0,OVC,12000.0,,
KRDR,09-12-2020,10:56,METAR,Normal,170,5.0,,,9999.0,,11.8,11.8,29.89,1012.8,,,,,,,,,,,,,,,,10000.0,1100.0,FEW,1100.0,BKN,10000.0,,,,
KRDR,09-12-2020,10:36,SPECI,Normal,180,5.0,,,9999.0,,12.0,12.0,29.89,1012.8,,,,,,,,,,,,,,,,10000.0,1100.0,FEW,1100.0,BKN,10000.0,,,,
KRDR,09-12-2020,10:26,SPECI,Normal,180,4.0,,,9999.0,,12.0,12.0,29.89,1012.8,,,,,,,,,,,,,,,,1100.0,1100.0,BKN,1100.0,,,,,,
KRDR,09-12-2020,10:16,SPECI,Normal,190,3.0,,,9999.0,,12.0,12.0,29.89,1012.8,,,,,,,,,,,,,,,,1000.0,1000.0,BKN,1000.0,,,,,,
KRDR,09-12-2020,09:56,METAR,Normal,180,3.0,,,9999.0,,11.9,11.9,29.89,1012.8,,,,,,,,,,,,,,,,900.0,900.0,OVC,900.0,,,,,,
KRDR,09-12-2020,09:26,SPECI,Calm,,0.0,,,9999.0,,12.0,12.0,29.90,1013.1,,,,,,,,,,,,,,,,1000.0,1000.0,OVC,1000.0,,,,,,
KRDR,09-12-2020,08:56,METAR,Normal,210,4.0,,,9999.0,,11.9,11.9,29.91,1013.4,,,,,,,,,,,,,,,,800.0,800.0,OVC,800.0,,,,,,
KRDR,09-12-2020,07:56,METAR,Normal,210,4.0,,,9999.0,,11.7,11.7,29.93,1014.1,,,,,,,,,,,,,,,,700.0,700.0,OVC,700.0,,,,,,
KRDR,09-12-2020,07:16,SPECI,Calm,,0.0,,,9999.0,,12.0,12.0,29.94,1014.4,,,,,,,,,,,,,,,,700.0,700.0,OVC,700.0,,,,,,
KRDR,09-12-2020,06:56,METAR,Normal,230,4.0,,,9999.0,,11.5,11.5,29.94,1014.4,,,,,,,,,,,,,,,,800.0,800.0,OVC,800.0,,,,,,
KRDR,09-12-2020,06:38,SPECI,Normal,210,4.0,,,9999.0,,12.0,12.0,29.95,1014.8,,,,,,,,,,,,,,,,800.0,800.0,BKN,800.0,OVC,6000.0,,,,
KRDR,09-12-2020,06:28,SPECI,Normal,200,6.0,,,9999.0,,12.0,12.0,29.95,1014.8,,,,,,,,,,,,,,,,6000.0,900.0,FEW,900.0,OVC,6000.0,,,,
KRDR,09-12-2020,05:56,METAR,Normal,200,5.0,,,9999.0,,11.5,11.5,29.96,1015.2,,,,,,,,,,,,,.08 IN,,,6500.0,6500.0,OVC,6500.0,,,,,,
KRDR,09-12-2020,04:56,METAR,Normal,190,6.0,,,9999.0,,10.6,10.6,29.97,1015.6,,,,,,,,,,,,,,,,,2400.0,FEW,2400.0,SCT,6000.0,,,,
KRDR,09-12-2020,04:46,SPECI,Normal,200,6.0,,,9999.0,,11.0,11.0,29.97,1015.6,,,,,,,,,,,,,,,,,2500.0,SCT,2500.0,,,,,,
KRDR,09-12-2020,04:36,SPECI,Normal,190,5.0,,,9999.0,,11.0,11.0,29.97,1015.6,,,,,,,,,,,,,,,,2500.0,2500.0,BKN,2500.0,BKN,22000.0,,,,
KRDR,09-12-2020,03:56,METAR,Normal,200,7.0,,,9999.0,,11.2,11.2,29.98,1016.0,,,,,,,,,,,,,,,,23000.0,2500.0,SCT,2500.0,SCT,9600.0,BKN,23000.0,,
KRDR,09-12-2020,02:56,METAR,Normal,190,5.0,,,9999.0,,11.3,11.3,30.00,1016.7,,,,,,,,,,,.01 IN,.08 IN,,,,14000.0,3600.0,FEW,3600.0,SCT,7000.0,BKN,14000.0,,
KRDR,09-12-2020,02:39,SPECI,Normal,190,7.0,,,9999.0,,11.0,11.0,30.01,1017.1,,,,,,,,,,,,,,,,3200.0,3200.0,BKN,3200.0,OVC,6000.0,,,,
KRDR,09-12-2020,02:12,SPECI,Normal,200,5.0,,,9999.0,Light Drizzle,11.0,11.0,30.02,1017.5,51,,,,,,,,,,,,,,,6000.0,6000.0,OVC,6000.0,,,,,,
KRDR,09-12-2020,02:10,SPECI,Normal,200,6.0,,,9999.0,,11.0,11.0,30.02,1017.5,,,,,,,,,,,,,,,,6000.0,6000.0,OVC,6000.0,,,,,,
KRDR,09-12-2020,01:56,METAR,Normal,200,7.0,,,9999.0,Light Rain,11.3,11.3,30.02,1017.5,61,,,,,,,,,,.04 IN,,,,,6000.0,4900.0,SCT,4900.0,OVC,6000.0,,,,
KRDR,09-12-2020,01:05,SPECI,Normal,210,10.0,,,9999.0,Light Rain,11.0,11.0,30.03,1018.0,61,,,,,,,,,,,,,,,5000.0,5000.0,OVC,5000.0,,,,,,
KRDR,09-12-2020,00:57,SPECI,Normal,200,12.0,,,9999.0,,12.0,11.0,30.03,1017.9,,,,,,,,,,,,,,,,5500.0,5500.0,OVC,5500.0,,,,,,
KRDR,09-12-2020,00:56,METAR,Normal,200,11.0,,,9999.0,Light Rain,11.5,11.3,30.03,1017.9,61,,,,,,,,,,.03 IN,,,,,5500.0,5500.0,OVC,5500.0,,,,,,
KRDR,09-12-2020,00:05,SPECI,Normal,180,7.0,,,9999.0,Light Drizzle,14.0,9.0,30.03,1018.0,51,,,,,,,,,,,,,,,5500.0,5500.0,BKN,5500.0,,,,,,
KRDR,09-11-2020,22:56,METAR,Normal,200,15.0,22.0,,9999.0,,16.9,6.1,30.05,1018.5,,,,,,,,,,,,,,,,7500.0,4900.0,SCT,4900.0,BKN,7500.0,BKN,12000.0,,
KRDR,09-11-2020,21:56,METAR,Normal,200,12.0,,,9999.0,,18.4,4.6,30.05,1018.4,,,,,,,,,,,,,,,,,13000.0,FEW,13000.0,FEW,17000.0,,,,
KRDR,09-11-2020,20:56,METAR,Normal,220,13.0,,,9999.0,,20.1,2.4,30.07,1019.0,,,,,,,,,,,,,,,,25000.0,9000.0,SCT,9100.0,BKN,25000.0,,,,
KRDR,09-11-2020,20:10,SPECI,Normal,200,11.0,22.0,,9999.0,,21.0,3.0,30.09,1019.7,,,,,,,,,,,,,,,Clear,72000.0,,,,,,,,,
KRDR,09-11-2020,19:56,METAR,Normal,160,13.0,19.0,,9999.0,,20.3,3.5,30.09,1019.7,,,,,,,,,,,,,,,,,20000.0,FEW,20000.0,FEW,25000.0,,,,
KRDR,09-11-2020,19:18,SPECI,Normal,210,13.0,17.0,,9999.0,,20.0,4.0,30.11,1020.3,,,,,,,,,,,,,,,Clear,72000.0,,,,,,,,,
KRDR,09-11-2020,18:56,METAR,Normal,160,12.0,17.0,,9999.0,,19.2,4.9,30.12,1020.7,,,,,,,,,,,,,,,,,20000.0,FEW,20000.0,FEW,25000.0,,,,
KRDR,09-11-2020,17:56,METAR,Normal,170,10.0,17.0,,9999.0,,18.5,6.0,30.15,1021.6,,,,,,,,,,,,,,,,,20000.0,FEW,20000.0,SCT,25000.0,,,,
KRDR,09-11-2020,16:56,METAR,Normal,190,12.0,,,9999.0,,17.2,5.8,30.19,1023.0,,,,,,,,,,,,,,,,,20000.0,FEW,20000.0,SCT,25000.0,,,,
KRDR,09-11-2020,15:56,METAR,Normal,190,5.0,,,9999.0,,15.0,6.8,30.21,1023.7,,,,,,,,,,,,,,,,,20000.0,FEW,20000.0,SCT,25000.0,,,,
KRDR,09-11-2020,14:56,METAR,Normal,200,7.0,,,9999.0,,12.5,7.0,30.23,1024.5,,,,,,,,,,,,,,,,,18000.0,FEW,18000.0,SCT,25000.0,,,,
KRDR,09-11-2020,13:56,METAR,Normal,200,6.0,,,9999.0,,9.1,6.2,30.24,1024.9,,,,,,,,,,,,,,,,,18000.0,FEW,18000.0,,,,,,
KRDR,09-11-2020,12:56,METAR,Normal,180,4.0,,,9999.0,,5.3,4.7,30.25,1025.3,,,,,,,,,,,,,,,Clear,72000.0,,,,,,,,,
KRDR,09-11-2020,11:56,METAR,Normal,190,6.0,,,9999.0,,3.1,3.0,30.25,1025.2,,,,,,,,,,,,,,,Clear,72000.0,,,,,,,,,
KRDR,09-11-2020,10:56,METAR,Normal,170,5.0,,,9999.0,,4.5,3.9,30.25,1025.1,,,,,,,,,,,,,,,Clear,72000.0,,,,,,,,,
KRDR,09-11-2020,09:56,METAR,Normal,160,6.0,,,9999.0,,5.2,3.9,30.26,1025.5,,,,,,,,,,,,,,,Clear,72000.0,,,,,,,,,
KRDR,09-11-2020,08:56,METAR,Normal,180,6.0,,,9999.0,,6.3,4.3,30.26,1025.4,,,,,,,,,,,,,,,Clear,72000.0,,,,,,,,,
KRDR,09-11-2020,07:56,METAR,Normal,190,6.0,,,9999.0,,7.5,4.6,30.27,,,,,,,,,,,,,,,,Clear,72000.0,,,,,,,,,
KRDR,09-11-2020,06:56,METAR,Normal,220,6.0,,,9999.0,,9.1,4.9,30.27,1025.7,,,,,,,,,,,,,,,Clear,72000.0,,,,,,,,,
KRDR,09-11-2020,05:56,METAR,Normal,230,7.0,,,9999.0,,10.8,4.7,30.27,1025.7,,,,,,,,,,,,,,,Clear,72000.0,,,,,,,,,
KRDR,09-11-2020,04:56,METAR,Normal,230,8.0,,,9999.0,,12.1,4.6,30.27,1025.7,,,,,,,,,,,,,,,Clear,72000.0,,,,,,,,,
KRDR,09-11-2020,03:56,METAR,Normal,220,8.0,,,9999.0,,12.8,4.2,30.28,1026.1,,,,,,,,,,,,,,,Clear,72000.0,,,,,,,,,
KRDR,09-11-2020,02:56,METAR,Normal,200,9.0,,,9999.0,,11.2,5.3,30.27,1025.9,,,,,,,,,,,,,,,Clear,72000.0,,,,,,,,,
KRDR,09-11-2020,01:56,METAR,Normal,200,9.0,,,9999.0,,14.6,4.3,30.26,1025.6,,,,,,,,,,,,,,,Clear,72000.0,,,,,,,,,
KRDR,09-11-2020,00:56,METAR,Normal,200,9.0,,,9999.0,,16.1,4.2,30.24,1025.0,,,,,,,,,,,,,,,Clear,72000.0,,,,,,,,,
KRDR,09-10-2020,23:56,METAR,Normal,230,6.0,,,9999.0,,21.1,3.8,30.25,1025.2,,,,,,,,,,,,,,,Clear,72000.0,,,,,,,,,
KRDR,09-10-2020,22:56,METAR,Normal,270,6.0,,,9999.0,,22.9,3.9,30.26,1025.5,,,,,,,,,,,,,,,Clear,72000.0,,,,,,,,,
KRDR,09-10-2020,21:56,METAR,Normal,220,10.0,,,9999.0,,23.5,2.9,30.27,1025.8,,,,,,,,,,,,,,,Clear,72000.0,,,,,,,,,
KRDR,09-10-2020,20:56,METAR,Normal,260,11.0,15.0,,9999.0,,23.4,2.8,30.28,,,,,,,,,,,,,,,,Clear,72000.0,,,,,,,,,
KRDR,09-10-2020,19:56,METAR,Normal,260,9.0,15.0,,9999.0,,22.0,2.0,30.31,993.0,,,,,,,,,,,,,,,Clear,72000.0,,,,,,,,,
KRDR,09-10-2020,18:56,METAR,Normal,260,12.0,17.0,,9999.0,,21.0,2.0,30.32,,,,,,,,,,,,,,,,Clear,72000.0,,,,,,,,,
KRDR,09-10-2020,17:56,METAR,Normal,250,11.0,17.0,,9999.0,,21.2,3.4,30.31,1027.2,,,,,,,,,,,,,,,Clear,72000.0,,,,,,,,,
KRDR,09-10-2020,16:56,METAR,Normal,230,10.0,,,9999.0,,19.1,3.3,30.32,1027.6,,,,,,,,,,,,,,,Clear,72000.0,,,,,,,,,
KRDR,09-10-2020,15:56,METAR,Normal,240,10.0,,,9999.0,,16.8,3.1,30.32,1027.6,,,,,,,,,,,,,,,Clear,72000.0,,,,,,,,,
KRDR,09-10-2020,14:56,METAR,Normal,230,10.0,,,9999.0,,13.1,4.0,30.32,1027.8,,,,,,,,,,,,,,,Clear,72000.0,,,,,,,,,
KRDR,09-10-2020,13:56,METAR,Normal,230,10.0,,,9999.0,,9.6,3.8,30.32,1027.9,,,,,,,,,,,,,,,Clear,72000.0,,,,,,,,,
KRDR,09-10-2020,12:56,METAR,Normal,220,10.0,,,9999.0,,6.0,2.6,30.32,1027.9,,,,,,,,,,,,,,,Clear,72000.0,,,,,,,,,
KRDR,09-10-2020,11:56,METAR,Normal,210,8.0,,,9999.0,,4.2,2.1,30.32,1027.8,,,,,,,,,,,,,,,Clear,72000.0,,,,,,,,,
KRDR,09-10-2020,10:56,METAR,Normal,200,8.0,,,9999.0,,3.5,1.9,30.32,1027.7,,,,,,,,,,,,,,,Clear,72000.0,,,,,,,,,
KRDR,09-10-2020,09:56,METAR,Normal,210,8.0,,,9999.0,,3.9,1.9,30.31,1027.4,,,,,,,,,,,,,,,Clear,72000.0,,,,,,,,,
KRDR,09-10-2020,08:56,METAR,Normal,220,7.0,,,9999.0,,5.3,2.1,30.31,1027.4,,,,,,,,,,,,,,,Clear,72000.0,,,,,,,,,
KRDR,09-10-2020,07:56,METAR,Normal,220,6.0,,,9999.0,,4.5,2.0,30.31,1027.4,,,,,,,,,,,,,,,Clear,72000.0,,,,,,,,,
KRDR,09-10-2020,06:56,METAR,Normal,210,7.0,,,9999.0,,4.7,2.1,30.31,1027.4,,,,,,,,,,,,,,,Clear,72000.0,,,,,,,,,
KRDR,09-10-2020,05:56,METAR,Normal,210,7.0,,,9999.0,,5.1,2.3,30.33,1028.2,,,,,,,,,,,,,,,Clear,72000.0,,,,,,,,,
KRDR,09-10-2020,04:56,METAR,Normal,210,8.0,,,9999.0,,5.9,2.4,30.33,1028.2,,,,,,,,,,,,,,,Clear,72000.0,,,,,,,,,
KRDR,09-10-2020,03:56,METAR,Normal,200,7.0,,,9999.0,,6.3,2.4,30.34,1028.5,,,,,,,,,,,,,,,Clear,72000.0,,,,,,,,,
KRDR,09-10-2020,02:56,METAR,Normal,200,7.0,,,9999.0,,5.3,1.8,30.33,1028.2,,,,,,,,,,,,,,,Clear,72000.0,,,,,,,,,
KRDR,09-10-2020,01:56,METAR,Normal,190,7.0,,,9999.0,,7.0,1.7,30.33,1028.3,,,,,,,,,,,,,,,Clear,72000.0,,,,,,,,,
KRDR,09-10-2020,00:56,METAR,Normal,210,5.0,,,9999.0,,9.9,0.2,30.32,1028.0,,,,,,,,,,,,,,,Clear,72000.0,,,,,,,,,
KRDR,09-09-2020,23:56,METAR,Normal,230,8.0,,,9999.0,,14.3,-2.2,30.32,1028.0,,,,,,,,,,,,,,,Clear,72000.0,,,,,,,,,
KRDR,09-09-2020,22:56,METAR,Normal,230,11.0,,,9999.0,,15.4,-2.1,30.32,1028.0,,,,,,,,,,,,,,,Clear,72000.0,,,,,,,,,
KRDR,09-09-2020,21:56,METAR,Normal,220,11.0,16.0,,9999.0,,15.8,-2.2,30.32,1027.9,,,,,,,,,,,,,,,Clear,72000.0,,,,,,,,,
KRDR,09-09-2020,20:56,METAR,Normal,210,15.0,18.0,,9999.0,,15.6,-1.9,30.34,1028.6,,,,,,,,,,,,,,,2/8 Mostly Clear,72000.0,7000.0,FEW,7000.0,,,,,,
KRDR,09-09-2020,19:56,METAR,Normal,190,8.0,16.0,,9999.0,,15.9,-1.2,30.36,1029.2,,,,,,,,,,,,,,,2/8 Mostly Clear,72000.0,6500.0,FEW,6500.0,,,,,,
KRDR,09-09-2020,18:56,METAR,Normal,250,3.0,,,9999.0,,14.6,-1.5,30.38,1030.0,,,,,,,,,,,,,,,4/8 Partly Cloudy,72000.0,6000.0,SCT,6000.0,,,,,,
KRDR,09-09-2020,17:56,METAR,Normal,230,6.0,,,9999.0,,12.6,0.0,30.40,1030.8,,,,,,,,,,,,,,,,6500.0,6500.0,BKN,6500.0,,,,,,
KRDR,09-09-2020,16:56,METAR,Normal,200,5.0,,,9999.0,,12.2,-0.7,30.41,1031.1,,,,,,,,,,,,,,,,5000.0,5000.0,BKN,5000.0,BKN,6000.0,,,,
KRDR,09-09-2020,15:56,METAR,Normal,230,7.0,,,9999.0,,12.5,2.9,30.41,1031.0,,,,,,,,,,,,,,,2/8 Mostly Clear,72000.0,4500.0,FEW,4500.0,FEW,20000.0,,,,
KRDR,09-09-2020,14:56,METAR,Normal,220,5.0,,,9999.0,,10.8,4.7,30.42,1031.4,,,,,,,,,,,,,,,2/8 Mostly Clear,72000.0,18000.0,FEW,18000.0,,,,,,
KRDR,09-09-2020,13:56,METAR,Normal,240,5.0,,,9999.0,,6.2,5.2,30.42,1031.5,,,,,,,,,,,,,,,,19000.0,19000.0,BKN,19000.0,,,,,,
KRDR,09-09-2020,12:56,METAR,Normal,220,5.0,,,9999.0,,1.9,1.8,30.42,1031.6,,,,,,,,,,,,,,,,19000.0,19000.0,BKN,19000.0,,,,,,
KRDR,09-09-2020,11:56,METAR,Normal,220,5.0,,,9999.0,,-0.6,-0.7,30.40,1030.8,,,,,,,,,,,,,,,Clear,72000.0,,,,,,,,,
KRDR,09-09-2020,10:56,METAR,Normal,230,5.0,,,9999.0,,-0.5,-0.6,30.40,1030.8,,,,,,,,,,,,,,,Clear,72000.0,,,,,,,,,
KRDR,09-09-2020,09:56,METAR,Normal,220,4.0,,,9999.0,,-1.0,-1.1,30.40,1030.8,,,,,,,,,,,,,,,2/8 Mostly Clear,72000.0,21000.0,FEW,21000.0,,,,,,
KRDR,09-09-2020,08:56,METAR,Normal,220,4.0,,,9999.0,,-0.7,-0.8,30.41,1031.2,,,,,,,,,,,,,,,Clear,72000.0,,,,,,,,,
KRDR,09-09-2020,07:56,METAR,Normal,220,3.0,,,9999.0,,-0.5,-0.6,30.41,1031.2,,,,,,,,,,,,,,,Clear,72000.0,,,,,,,,,
KRDR,09-09-2020,05:56,METAR,Normal,240,4.0,,,9999.0,,-0.1,-0.2,30.40,1030.8,,,,,,,,,,,,,,,Clear,72000.0,,,,,,,,,
KRDR,09-09-2020,04:56,METAR,Calm,,0.0,,,9999.0,,0.4,0.3,30.40,1030.9,,,,,,,,,,,,,,,Clear,72000.0,,,,,,,,,
KRDR,09-09-2020,03:56,METAR,Normal,250,4.0,,,9999.0,,1.8,1.7,30.41,1031.2,,,,,,,,,,,,,,,Clear,72000.0,,,,,,,,,
KRDR,09-09-2020,02:56,METAR,Normal,220,3.0,,,9999.0,,2.5,1.8,30.41,1031.2,,,,,,,,,,,,,,,Clear,72000.0,,,,,,,,,
KRDR,09-09-2020,01:56,METAR,Normal,310,3.0,,,9999.0,,3.2,2.2,30.41,1031.2,,,,,,,,,,,,,,,Clear,72000.0,,,,,,,,,
KRDR,09-09-2020,00:56,METAR,Calm,,0.0,,,9999.0,,6.7,3.3,30.40,1030.9,,,,,,,,,,,,,,,Clear,72000.0,,,,,,,,,
KRDR,09-08-2020,23:56,METAR,Normal,30,4.0,,,9999.0,,10.2,3.0,30.38,1030.1,,,,,,,,,,,,,,,2/8 Mostly Clear,72000.0,4000.0,FEW,4000.0,,,,,,
KRDR,09-08-2020,22:56,METAR,Normal,50,7.0,,,9999.0,,10.5,3.5,30.38,1030.1,,,,,,,,,,,,,,,,5500.0,4000.0,FEW,4000.0,BKN,5500.0,,,,
KRDR,09-08-2020,21:56,METAR,Normal,50,7.0,,,9999.0,,10.8,3.6,30.38,1030.1,,,,,,,,,,,,,,,,5000.0,3800.0,FEW,3800.0,OVC,5000.0,,,,
KRDR,09-08-2020,20:56,METAR,Normal,30,9.0,,,9999.0,,11.2,3.2,30.39,1030.4,,,,,,,,,,,,,,,,4300.0,4300.0,OVC,4300.0,,,,,,
KRDR,09-08-2020,19:56,METAR,Normal,10,8.0,,,9999.0,,10.2,3.9,30.41,1031.1,,,,,,,,,,,,,,,,3400.0,3400.0,BKN,3400.0,OVC,4100.0,,,,
KRDR,09-08-2020,18:56,METAR,Normal,10,8.0,,,9999.0,,10.0,3.9,30.41,1031.1,,,,,,,,,,,,,,,,3100.0,3100.0,OVC,3100.0,,,,,,
KRDR,09-08-2020,17:56,METAR,Normal,10,7.0,,,9999.0,,9.3,4.1,30.42,1031.4,,,,,,,,,,,,,,,,2400.0,2400.0,OVC,2400.0,,,,,,
KRDR,09-08-2020,16:56,METAR,Normal,10,7.0,,,9999.0,,8.0,4.0,30.44,1032.2,,,,,,,,,,,,,,,,2300.0,2300.0,OVC,2300.0,,,,,,
KRDR,09-08-2020,16:26,SPECI,Normal,330,9.0,,,9999.0,,8.0,4.0,30.44,1032.2,,,,,,,,,,,,,,,,2000.0,2000.0,OVC,2000.0,,,,,,
KRDR,09-08-2020,15:56,METAR,Normal,340,7.0,,,9999.0,,7.0,3.8,30.43,1031.9,,,,,,,,,,,,,,,,1600.0,1600.0,OVC,1600.0,,,,,,
KRDR,09-08-2020,15:51,SPECI,Normal,360,8.0,,,9999.0,,7.0,4.0,30.44,1032.2,,,,,,,,,,,,,,,,1500.0,1500.0,BKN,1500.0,OVC,2300.0,,,,
KRDR,09-08-2020,15:21,SPECI,Normal,350,10.0,,,9999.0,,6.0,4.0,30.43,1031.9,,,,,,,,,,,,,,,,1400.0,1400.0,OVC,1400.0,,,,,,
KRDR,09-08-2020,15:11,SPECI,Normal,340,9.0,,,9999.0,,6.0,3.0,30.43,1031.9,,,,,,,,,,,,,,,,1300.0,1300.0,OVC,1300.0,,,,,,
KRDR,09-08-2020,14:46,SPECI,Normal,350,9.0,,,9999.0,,6.0,3.0,30.42,1031.5,,,,,,,,,,,,,,,,2300.0,1400.0,FEW,1400.0,BKN,2300.0,BKN,3200.0,,
KRDR,09-08-2020,13:56,METAR,Normal,340,10.0,,,9999.0,,4.5,2.4,30.41,1031.2,,,,,,,,,,,,,,,4/8 Partly Cloudy,72000.0,2400.0,SCT,2400.0,SCT,3000.0,,,,
KRDR,09-08-2020,12:56,METAR,Normal,330,7.0,,,9999.0,,1.6,1.0,30.40,1030.8,,,,,,,,,,,,,,,Clear,72000.0,,,,,,,,,
KRDR,09-08-2020,11:56,METAR,Normal,310,6.0,,,9999.0,,0.5,0.4,30.39,1030.5,,,,,,,,,,,,,,,Clear,72000.0,,,,,,,,,
KRDR,09-08-2020,10:56,METAR,Normal,320,5.0,,,9999.0,,0.8,0.5,30.37,1029.7,,,,,,,,,,,,,,,Clear,72000.0,,,,,,,,,
KRDR,09-08-2020,09:56,METAR,Normal,330,7.0,,,9999.0,,1.4,0.5,30.33,1028.4,,,,,,,,,,,,,,,Clear,72000.0,,,,,,,,,
KRDR,09-08-2020,08:56,METAR,Normal,330,7.0,,,9999.0,,1.8,0.8,30.33,1028.3,,,,,,,,,,,,,,,Clear,72000.0,,,,,,,,,
KRDR,09-08-2020,07:56,METAR,Normal,330,7.0,,,9999.0,,2.1,0.8,30.34,1028.6,,,,,,,,,,,,,,,Clear,72000.0,,,,,,,,,
KRDR,09-08-2020,06:56,METAR,Normal,320,6.0,,,9999.0,,2.6,0.8,30.32,1028.0,,,,,,,,,,,,,,,Clear,72000.0,,,,,,,,,
KRDR,09-08-2020,05:56,METAR,Normal,340,7.0,,,9999.0,,2.7,0.8,30.30,1027.3,,,,,,,,,,,,,,,Clear,72000.0,,,,,,,,,
KRDR,09-08-2020,04:56,METAR,Normal,340,7.0,,,9999.0,,2.5,1.2,30.29,1026.9,,,,,,,,,,,,,,,Clear,72000.0,,,,,,,,,
KRDR,09-08-2020,03:56,METAR,Normal,340,4.0,,,9999.0,,3.0,1.2,30.28,1026.7,,,,,,,,,,,,,,,Clear,72000.0,,,,,,,,,
KRDR,09-08-2020,02:56,METAR,Normal,10,7.0,,,9999.0,,4.4,1.8,30.27,1026.2,,,,,,,,,,,,,,,Clear,72000.0,,,,,,,,,
KRDR,09-08-2020,01:56,METAR,Normal,10,7.0,,,9999.0,,5.3,2.3,30.24,1025.2,,,,,,,,,,,,,,,2/8 Mostly Clear,72000.0,7000.0,FEW,7000.0,,,,,,
KRDR,09-08-2020,00:56,METAR,Normal,20,10.0,,,9999.0,,7.1,2.4,30.20,1023.8,,,,,,,,,,,,,,,Clear,72000.0,,,,,,,,,
KRDR,09-07-2020,23:56,METAR,Normal,20,14.0,,,9999.0,,9.7,3.0,30.19,1023.4,,,,,,,,,,,,,,,,6500.0,5000.0,SCT,5000.0,OVC,6500.0,,,,
KRDR,09-07-2020,23:03,SPECI,Normal,40,12.0,,,9999.0,,11.0,1.0,30.16,1022.4,,,,,,,,,,,,,,,,5500.0,5500.0,BKN,5500.0,,,,,,
KRDR,09-07-2020,22:56,METAR,Normal,360,11.0,,,9999.0,,11.4,-0.7,30.15,1022.0,,,,,,,,,,,,,,,4/8 Partly Cloudy,72000.0,5500.0,SCT,5500.0,,,,,,
KRDR,09-07-2020,21:56,METAR,Normal,350,9.0,,,9999.0,,11.3,-0.5,30.14,1021.7,,,,,,,,,,,,,,,,6000.0,6000.0,BKN,6000.0,BKN,16000.0,,,,
KRDR,09-07-2020,20:56,METAR,Normal,350,9.0,15.0,,9999.0,,11.8,0.8,30.14,1021.6,,,,,,,,,,,,,,,,6000.0,6000.0,OVC,6000.0,,,,,,
KRDR,09-07-2020,19:56,METAR,Normal,10,8.0,,,9999.0,,11.0,1.2,30.13,1021.3,,,,,,,,,,,,,,,,4900.0,4900.0,BKN,4900.0,BKN,15000.0,,,,
KRDR,09-07-2020,18:56,METAR,Normal,350,12.0,17.0,,9999.0,,11.1,1.3,30.12,1020.9,,,,,,,,,,,,,,,,4300.0,4300.0,BKN,4300.0,BKN,19000.0,,,,
KRDR,09-07-2020,17:56,METAR,Normal,10,12.0,18.0,,9999.0,,10.9,2.7,30.10,1020.2,,,,,,,,,,,,,,,,4200.0,4200.0,BKN,4200.0,BKN,18000.0,OVC,20000.0,,
KRDR,09-07-2020,16:56,METAR,Normal,360,12.0,,,9999.0,,10.7,3.0,30.09,1019.9,,,,,,,,,,,,,,,,3700.0,3700.0,BKN,3700.0,,,,,,
KRDR,09-07-2020,16:36,SPECI,Normal,10,11.0,,,9999.0,,10.0,4.0,30.09,1019.9,,,,,,,,,,,,,,,,3300.0,3300.0,BKN,3300.0,BKN,4100.0,,,,
KRDR,09-07-2020,16:16,SPECI,Normal,30,13.0,,,9999.0,,10.0,5.0,30.08,1019.6,,,,,,,,,,,,,,,,2900.0,2900.0,BKN,2900.0,OVC,3500.0,,,,
KRDR,09-07-2020,16:06,SPECI,Normal,10,9.0,,,9999.0,,10.0,5.0,30.08,1019.6,,,,,,,,,,,,,,,,2900.0,2900.0,OVC,2900.0,,,,,,
KRDR,09-07-2020,15:56,METAR,Normal,360,12.0,,,9999.0,,9.7,4.9,30.08,1019.5,,,,,,,,,,,,,,,,3000.0,3000.0,BKN,3000.0,OVC,3700.0,,,,
KRDR,09-07-2020,15:46,SPECI,Normal,10,9.0,,,9999.0,,10.0,5.0,30.08,1019.5,,,,,,,,,,,,,,,,2800.0,2800.0,BKN,2800.0,BKN,3300.0,,,,
KRDR,09-07-2020,14:56,METAR,Normal,20,12.0,,,9999.0,,9.2,4.6,30.07,1019.2,,,,,,,,,,,,,,,,3600.0,2900.0,FEW,2900.0,OVC,3600.0,,,,
KRDR,09-07-2020,14:16,SPECI,Normal,10,10.0,,,9999.0,,9.0,6.0,30.07,1019.1,,,,,,,,,,,,,,,,3700.0,2700.0,SCT,2700.0,BKN,3700.0,,,,
KRDR,09-07-2020,13:56,METAR,Normal,10,10.0,,,9999.0,,8.6,7.4,30.07,1019.1,,,,,,,,,,,,,,,,2900.0,2900.0,BKN,2900.0,,,,,,
KRDR,09-07-2020,13:06,SPECI,Normal,10,8.0,,,9999.0,,8.0,8.0,30.05,1018.4,,,,,,,,,,,,,,,4/8 Partly Cloudy,72000.0,2500.0,FEW,2500.0,SCT,3300.0,,,,
KRDR,09-07-2020,12:56,METAR,Normal,360,7.0,,,9999.0,,8.2,8.1,30.05,1018.4,,,,,,,,,,,,,,,,2700.0,2700.0,BKN,2700.0,BKN,3400.0,,,,
KRDR,09-07-2020,12:46,SPECI,Normal,350,6.0,,,9999.0,,8.0,8.0,30.06,1018.7,,,,,,,,,,,,,,,,2600.0,2600.0,BKN,2600.0,,,,,,
KRDR,09-07-2020,11:56,METAR,Normal,350,7.0,,,9999.0,,7.8,7.7,30.04,1018.0,,,,,,,,,,,,,,,Clear,72000.0,,,,,,,,,
KRDR,09-07-2020,10:56,METAR,Normal,340,6.0,,,9999.0,,7.3,7.2,30.02,1017.3,,,,,,,,,,,,,,,Clear,72000.0,,,,,,,,,
KRDR,09-07-2020,09:56,METAR,Normal,330,6.0,,,9999.0,,6.9,6.8,30.01,1016.9,,,,,,,,,,,,,,,Clear,72000.0,,,,,,,,,
KRDR,09-07-2020,08:56,METAR,Normal,330,7.0,,,9999.0,,7.1,7.0,30.00,1016.6,,,,,,,,,,,,,,,Clear,72000.0,,,,,,,,,
KRDR,09-07-2020,07:56,METAR,Normal,320,5.0,,,9999.0,,7.0,6.9,29.99,1016.2,,,,,,,,,,,,,,,Clear,72000.0,,,,,,,,,
KRDR,09-07-2020,06:56,METAR,Normal,330,8.0,,,9999.0,,8.2,7.4,30.00,1016.5,,,,,,,,,,,,,,,Clear,72000.0,,,,,,,,,
KRDR,09-07-2020,05:56,METAR,Normal,320,5.0,,,9999.0,,8.1,6.9,29.99,1016.2,,,,,,,,,,,,,,,Clear,72000.0,,,,,,,,,
KRDR,09-07-2020,04:56,METAR,Normal,350,8.0,,,9999.0,,9.7,6.8,29.98,1015.8,,,,,,,,,,,,,,,Clear,72000.0,,,,,,,,,
KRDR,09-07-2020,03:56,METAR,Normal,10,8.0,,,9999.0,,11.2,6.9,29.98,1015.7,,,,,,,,,,,,,,,2/8 Mostly Clear,72000.0,5500.0,FEW,5500.0,,,,,,
KRDR,09-07-2020,02:56,METAR,Normal,360,15.0,20.0,,9999.0,,13.4,6.0,29.96,1015.1,,,,,,,,,,,,,,,Clear,72000.0,,,,,,,,,
KRDR,09-07-2020,01:56,METAR,Normal,360,12.0,22.0,330/27KTS,9999.0,,15.8,5.4,29.92,1013.7,,,,,,,,,,,,,,,,6000.0,6000.0,BKN,6000.0,,,,,,
KRDR,09-07-2020,00:56,METAR,Normal,340,19.0,29.0,340/29KTS,9999.0,,17.2,3.8,29.88,1012.4,,,,,,,,,,,,,,,,22000.0,22000.0,BKN,22000.0,,,,,,
KRDR,09-06-2020,23:56,METAR,Normal,340,16.0,29.0,320/34KTS,9999.0,,18.9,3.9,29.85,1011.3,,,,,,,,,,,,,,,2/8 Mostly Clear,72000.0,22000.0,FEW,22000.0,,,,,,
KRDR,09-06-2020,22:56,METAR,Normal,340,16.0,29.0,320/36KTS,9999.0,,19.5,4.8,29.84,1010.9,,,,,,,,,,,,,,,,19000.0,19000.0,BKN,19000.0,,,,,,
KRDR,09-06-2020,21:56,METAR,Normal,330,27.0,36.0,,9999.0,,21.0,3.7,29.80,1009.6,,,,,,,,,,,,,,,4/8 Partly Cloudy,72000.0,18000.0,SCT,18000.0,,,,,,
KRDR,09-06-2020,20:56,METAR,Normal,340,20.0,30.0,320/32KTS,9999.0,,21.3,6.0,29.79,1009.2,,,,,,,,,,,,,,,4/8 Partly Cloudy,72000.0,17000.0,FEW,17000.0,SCT,20000.0,,,,
KRDR,09-06-2020,19:56,METAR,Normal,340,21.0,28.0,340/35KTS,9999.0,,21.7,10.2,29.78,1008.9,,,,,,,,,,,,,,,,18000.0,14000.0,FEW,14000.0,BKN,18000.0,,,,
KRDR,09-06-2020,18:56,METAR,Normal,320,22.0,32.0,310/34KTS,9999.0,,23.5,10.9,29.75,1007.8,,,,,,,,,,,,,,,,19000.0,13000.0,FEW,13000.0,SCT,17000.0,BKN,19000.0,,
KRDR,09-06-2020,17:56,METAR,Normal,350,17.0,28.0,340/30KTS,9999.0,,22.9,11.9,29.74,1007.5,,,,,,,,,,,,,,,4/8 Partly Cloudy,72000.0,13000.0,FEW,13000.0,SCT,19000.0,SCT,21000.0,,
KRDR,09-06-2020,16:56,METAR,Normal,340,15.0,23.0,330/31KTS,9999.0,,22.2,13.8,29.72,1006.7,,,,,,,,,,,,,,,Clear,72000.0,,,,,,,,,
KRDR,09-06-2020,15:56,METAR,Normal,330,16.0,31.0,330/31KTS,9999.0,,22.7,13.7,29.69,1005.7,,,,,,,,,,,,,,,2/8 Mostly Clear,72000.0,18000.0,FEW,18000.0,FEW,22000.0,,,,
KRDR,09-06-2020,14:56,METAR,Normal,330,15.0,23.0,,9999.0,,19.7,13.4,29.66,1004.7,,,,,,,,,,,,,,,Clear,72000.0,,,,,,,,,
KRDR,09-06-2020,13:56,METAR,Normal,330,11.0,,,9999.0,,18.4,13.5,29.64,1004.0,,,,,,,,,,,,,,,Clear,72000.0,,,,,,,,,
KRDR,09-06-2020,12:56,METAR,Normal,240,8.0,,,9999.0,,15.7,13.9,29.64,1004.1,,,,,,,,,,,,,,,Clear,72000.0,,,,,,,,,
KRDR,09-06-2020,11:56,METAR,Normal,220,12.0,,,9999.0,,15.7,13.5,29.64,1003.9,,,,,,,,,,,,,,,Clear,72000.0,,,,,,,,,
KRDR,09-06-2020,11:08,SPECI,Normal,250,13.0,21.0,,9999.0,,16.0,14.0,29.66,1004.6,,,,,,,,,,,,,,,Clear,72000.0,,,,,,,,,
KRDR,09-06-2020,10:56,METAR,Normal,220,11.0,,,9999.0,,15.3,13.3,29.67,1005.0,,,,,,,,,,,,,,,Clear,72000.0,,,,,,,,,
KRDR,09-06-2020,09:56,METAR,Normal,190,7.0,,,9999.0,,13.2,12.2,29.69,1005.7,,,,,,,,,,,,,,,Clear,72000.0,,,,,,,,,
KRDR,09-06-2020,08:56,METAR,Normal,180,6.0,,,9999.0,,12.7,12.1,29.71,1006.4,,,,,,,,,,,,,,,Clear,72000.0,,,,,,,,,
KRDR,09-06-2020,07:56,METAR,Normal,150,4.0,,,9999.0,,11.8,11.3,29.75,1007.8,,,,,,,,,,,,,,,,17000.0,17000.0,BKN,17000.0,,,,,,
KRDR,09-06-2020,06:56,METAR,Normal,130,7.0,,,9999.0,,14.1,11.8,29.77,1008.4,,,,,,,,,,,,,,,2/8 Mostly Clear,72000.0,18000.0,FEW,18000.0,,,,,,
KRDR,09-06-2020,05:56,METAR,Normal,180,7.0,,,9999.0,,13.8,11.3,29.82,1010.1,,,,,,,,,,,,,,,Clear,72000.0,,,,,,,,,
KRDR,09-06-2020,04:56,METAR,Normal,160,8.0,,,9999.0,,15.4,11.8,29.86,1011.5,,,,,,,,,,,,,,,Clear,72000.0,,,,,,,,,
KRDR,09-06-2020,03:56,METAR,Normal,170,8.0,,,9999.0,,17.0,11.9,29.91,1013.2,,,,,,,,,,,,,,,2/8 Mostly Clear,72000.0,19000.0,FEW,19000.0,,,,,,
KRDR,09-06-2020,02:56,METAR,Normal,180,9.0,,,9999.0,,18.7,12.0,29.93,1013.9,,,,,,,,,,,,,,,,16000.0,16000.0,OVC,16000.0,,,,,,
KRDR,09-06-2020,01:56,METAR,Normal,150,7.0,,,9999.0,,20.0,10.7,29.96,1015.0,,,,,,,,,,,,,,,,15000.0,15000.0,OVC,15000.0,,,,,,
KRDR,09-06-2020,00:56,METAR,Normal,180,11.0,,,9999.0,,21.0,10.2,29.97,1015.4,,,,,,,,,,,,,,,,18000.0,18000.0,OVC,18000.0,,,,,,
KRDR,09-05-2020,23:56,METAR,Normal,180,10.0,,,9999.0,,23.0,10.4,30.01,1016.9,,,,,,,,,,,,,,,,20000.0,16000.0,FEW,16000.0,SCT,18000.0,BKN,20000.0,,
KRDR,09-05-2020,22:56,METAR,Normal,180,11.0,,,9999.0,,23.6,8.4,30.03,1017.5,,,,,,,,,,,,,,,,17000.0,17000.0,BKN,17000.0,,,,,,
KRDR,09-05-2020,21:56,METAR,Normal,170,12.0,,,9999.0,,24.6,9.3,30.04,1017.8,,,,,,,,,,,,,,,2/8 Mostly Clear,72000.0,18000.0,FEW,18000.0,,,,,,
KRDR,09-05-2020,20:56,METAR,Normal,150,10.0,,,9999.0,,24.1,8.1,30.07,1018.9,,,,,,,,,,,,,,,Clear,72000.0,,,,,,,,,
KRDR,09-05-2020,19:56,METAR,Normal,180,5.0,,,9999.0,,25.1,7.7,30.10,1019.8,,,,,,,,,,,,,,,Clear,72000.0,,,,,,,,,
KRDR,09-05-2020,18:56,METAR,Normal,180,8.0,,,9999.0,,24.6,8.5,30.12,1020.5,,,,,,,,,,,,,,,Clear,72000.0,,,,,,,,,
KRDR,09-05-2020,17:56,METAR,Normal,200,5.0,,,9999.0,,23.4,7.9,30.14,1021.2,,,,,,,,,,,,,,,2/8 Mostly Clear,72000.0,20000.0,FEW,20000.0,,,,,,
KRDR,09-05-2020,16:56,METAR,Calm,,0.0,,,9999.0,,23.1,10.5,30.15,1021.6,,,,,,,,,,,,,,,Clear,72000.0,,,,,,,,,
KRDR,09-05-2020,15:56,METAR,Calm,,0.0,,,9999.0,,21.8,12.6,30.17,1022.3,,,,,,,,,,,,,,,Clear,72000.0,,,,,,,,,
KRDR,09-05-2020,14:56,METAR,Calm,,0.0,,,9999.0,,18.4,13.7,30.17,1022.4,,,,,,,,,,,,,,,Clear,72000.0,,,,,,,,,
KRDR,09-05-2020,13:56,METAR,Normal,270,4.0,,,9999.0,,15.1,12.9,30.17,1022.4,,,,,,,,,,,,,,,4/8 Partly Cloudy,72000.0,12000.0,SCT,12000.0,,,,,,
KRDR,09-05-2020,12:56,METAR,Normal,280,4.0,,,9999.0,,11.4,11.2,30.16,1022.0,,,,,,,,,,,,,,,Clear,72000.0,,,,,,,,,
KRDR,09-05-2020,11:56,METAR,Calm,,0.0,,,9999.0,,7.7,7.7,30.16,1022.0,,,,,,,,,,,,,,,Clear,72000.0,,,,,,,,,
KRDR,09-05-2020,10:56,METAR,Normal,270,3.0,,,9999.0,,7.3,7.3,30.15,1021.7,,,,,,,,,,,,,,,Clear,72000.0,,,,,,,,,
KRDR,09-05-2020,09:56,METAR,Normal,270,4.0,,,9999.0,,6.6,6.5,30.14,1021.4,,,,,,,,,,,,,,,Clear,72000.0,,,,,,,,,
KRDR,09-05-2020,08:56,METAR,Normal,270,3.0,,,9999.0,,6.4,6.4,30.14,1021.4,,,,,,,,,,,,,,,Clear,72000.0,,,,,,,,,
KRDR,09-05-2020,07:56,METAR,Normal,230,3.0,,,9999.0,,8.2,8.1,30.13,1020.9,,,,,,,,,,,,,,,Clear,72000.0,,,,,,,,,
KRDR,09-05-2020,06:56,METAR,Normal,250,5.0,,,9999.0,,8.0,7.9,30.12,1020.6,,,,,,,,,,,,,,,Clear,72000.0,,,,,,,,,
KRDR,09-05-2020,05:56,METAR,Calm,,0.0,,,9999.0,,9.4,8.6,30.12,1020.5,,,,,,,,,,,,,,,Clear,72000.0,,,,,,,,,
KRDR,09-05-2020,04:56,METAR,Normal,270,3.0,,,9999.0,,9.8,9.5,30.11,1020.2,,,,,,,,,,,,,,,Clear,72000.0,,,,,,,,,
KRDR,09-05-2020,03:56,METAR,Normal,290,3.0,,,9999.0,,9.9,9.3,30.10,1019.9,,,,,,,,,,,,,,,Clear,72000.0,,,,,,,,,
KRDR,09-05-2020,02:56,METAR,Normal,300,4.0,,,9999.0,,10.2,9.3,30.08,1019.3,,,,,,,,,,,,,,,Clear,72000.0,,,,,,,,,
KRDR,09-05-2020,01:56,METAR,Normal,300,3.0,,,9999.0,,12.3,10.4,30.07,1019.0,,,,,,,,,,,,,,,Clear,72000.0,,,,,,,,,
KRDR,09-05-2020,00:56,METAR,Normal,330,4.0,,,9999.0,,16.8,11.3,30.04,1017.9,,,,,,,,,,,,,,,Clear,72000.0,,,,,,,,,
KRDR,09-04-2020,23:56,METAR,Normal,340,4.0,,,9999.0,,19.6,11.1,30.04,1017.8,,,,,,,,,,,,,,,4/8 Partly Cloudy,72000.0,7500.0,SCT,7500.0,,,,,,
KRDR,09-04-2020,22:56,METAR,Normal,330,6.0,,,9999.0,,20.6,9.2,30.03,1017.5,,,,,,,,,,,,,,,4/8 Partly Cloudy,72000.0,7500.0,FEW,7500.0,SCT,9600.0,,,,
KRDR,09-04-2020,21:56,METAR,Normal,340,7.0,,,9999.0,,21.5,8.4,30.03,1017.5,,,,,,,,,,,,,,,4/8 Partly Cloudy,72000.0,10000.0,SCT,10000.0,,,,,,
KRDR,09-04-2020,21:02,SPECI,Normal,360,11.0,17.0,,9999.0,,23.0,8.0,30.02,1017.1,,,,,,,,,,,,,,,4/8 Partly Cloudy,72000.0,7500.0,SCT,7500.0,SCT,9100.0,,,,
KRDR,09-04-2020,20:56,METAR,Normal,310,11.0,,,9999.0,,22.6,7.9,30.02,1017.1,,,,,,,,,,,,,,,4/8 Partly Cloudy,72000.0,7500.0,FEW,7500.0,SCT,9100.0,,,,
KRDR,09-04-2020,19:56,METAR,Normal,340,13.0,18.0,,9999.0,,22.8,7.7,30.03,1017.5,,,,,,,,,,,,,,,Clear,72000.0,,,,,,,,,
KRDR,09-04-2020,18:56,METAR,Normal,340,12.0,,,9999.0,,22.6,8.3,30.02,1017.1,,,,,,,,,,,,,,,2/8 Mostly Clear,72000.0,6500.0,FEW,6500.0,,,,,,
KRDR,09-04-2020,17:56,METAR,Normal,330,12.0,17.0,,9999.0,,22.1,8.6,30.02,1017.1,,,,,,,,,,,,,TRACE,,2/8 Mostly Clear,72000.0,6000.0,FEW,6000.0,,,,,,
KRDR,09-04-2020,16:56,METAR,Normal,320,6.0,,,9999.0,,21.1,10.0,30.02,1017.1,,,,,,,,,,,,,,,2/8 Mostly Clear,72000.0,5000.0,FEW,5000.0,FEW,8000.0,,,,
KRDR,09-04-2020,15:56,METAR,Normal,320,7.0,,,9999.0,,19.8,10.5,30.02,1017.1,,,,,,,,,,,,,,,2/8 Mostly Clear,72000.0,8000.0,FEW,8000.0,,,,,,
KRDR,09-04-2020,14:56,METAR,Normal,290,5.0,,,9999.0,,17.0,11.5,30.01,1016.9,,,,,,,,,,,,TRACE,,,4/8 Partly Cloudy,72000.0,8000.0,SCT,8000.0,SCT,11000.0,,,,
KRDR,09-04-2020,13:56,METAR,Normal,290,5.0,,,9999.0,Precipitation in the Vicinity,13.9,10.9,30.01,1017.0,,,,16,,,,,,,,,,,,8500.0,8500.0,BKN,8600.0,BKN,11000.0,,,,
KRDR,09-04-2020,12:56,METAR,Normal,300,3.0,,,9999.0,,12.2,9.7,30.00,1016.6,,,,,,,,,,,TRACE,,,,,9500.0,7500.0,SCT,7500.0,BKN,9600.0,OVC,12000.0,,
KRDR,09-04-2020,12:00,SPECI,Normal,270,6.0,,,9999.0,,12.0,10.0,29.99,1016.2,,,,,,,,,,,,,,,,7500.0,7500.0,BKN,7500.0,OVC,9100.0,,,,
KRDR,09-04-2020,11:56,METAR,Normal,270,6.0,,,9999.0,Light Drizzle,11.6,9.7,29.99,1016.2,51,,,,,,,,,,TRACE,,TRACE,,,7500.0,7500.0,BKN,7500.0,OVC,9600.0,,,,
KRDR,09-04-2020,11:50,SPECI,Normal,270,7.0,,,9999.0,Light Drizzle,12.0,10.0,29.98,1015.8,51,,,,,,,,,,,,,,,8000.0,8000.0,BKN,8000.0,OVC,10000.0,,,,
KRDR,09-04-2020,10:56,METAR,Normal,280,6.0,,,9999.0,,10.7,8.8,29.98,1015.8,,,,,,,,,,,,,,,,8000.0,8000.0,OVC,8000.0,,,,,,
KRDR,09-04-2020,09:56,METAR,Normal,270,6.0,,,9999.0,,8.9,7.8,29.96,1015.2,,,,,,,,,,,,,,,,9000.0,9000.0,BKN,9100.0,,,,,,
KRDR,09-04-2020,08:56,METAR,Normal,290,5.0,,,9999.0,,10.8,8.2,29.95,1014.8,,,,,,,,,,,,,,,,9500.0,9500.0,BKN,9600.0,BKN,17000.0,,,,
KRDR,09-04-2020,07:56,METAR,Normal,280,6.0,,,9999.0,,9.4,7.3,29.95,1014.9,,,,,,,,,,,,,,,Clear,72000.0,,,,,,,,,
KRDR,09-04-2020,06:56,METAR,Normal,300,7.0,,,9999.0,,10.7,7.9,29.94,1014.5,,,,,,,,,,,,,,,Clear,72000.0,,,,,,,,,
KRDR,09-04-2020,05:56,METAR,Normal,310,8.0,,,9999.0,,11.4,8.3,29.92,1013.9,,,,,,,,,,,,,,,Clear,72000.0,,,,,,,,,
KRDR,09-04-2020,04:56,METAR,Normal,280,6.0,,,9999.0,,12.4,8.3,29.91,1013.5,,,,,,,,,,,,,,,Clear,72000.0,,,,,,,,,
KRDR,09-04-2020,03:56,METAR,Normal,280,8.0,,,9999.0,,13.6,8.2,29.91,1013.5,,,,,,,,,,,,,,,Clear,72000.0,,,,,,,,,
KRDR,09-04-2020,02:56,METAR,Normal,280,8.0,,,9999.0,,12.7,8.2,29.89,1012.9,,,,,,,,,,,,,,,Clear,72000.0,,,,,,,,,
KRDR,09-04-2020,01:56,METAR,Normal,280,6.0,,,9999.0,,12.0,7.7,29.88,1012.6,,,,,,,,,,,,,,,Clear,72000.0,,,,,,,,,
KRDR,09-04-2020,00:56,METAR,Normal,290,5.0,,,9999.0,,14.7,7.3,29.88,1012.6,,,,,,,,,,,,,,,Clear,72000.0,,,,,,,,,
KRDR,09-03-2020,23:56,METAR,Normal,310,12.0,18.0,300/26KTS,9999.0,,18.1,5.0,29.87,1012.2,,,,,,,,,,,,,,,Clear,72000.0,,,,,,,,,
KRDR,09-03-2020,22:56,METAR,Normal,310,16.0,,,9999.0,,18.9,5.4,29.87,1012.1,,,,,,,,,,,,,,,Clear,72000.0,,,,,,,,,
KRDR,09-03-2020,21:56,METAR,Normal,310,19.0,25.0,330/28KTS,9999.0,,18.9,3.9,29.88,1012.4,,,,,,,,,,,,,,,Clear,72000.0,,,,,,,,,
KRDR,09-03-2020,20:56,METAR,Normal,320,19.0,27.0,300/28KTS,9999.0,,18.9,4.6,29.88,1012.4,,,,,,,,,,,,,,,2/8 Mostly Clear,72000.0,6000.0,FEW,6000.0,,,,,,
KRDR,09-03-2020,19:56,METAR,Normal,290,16.0,24.0,330/30KTS,9999.0,,18.8,4.5,29.88,1012.4,,,,,,,,,,,,,,,2/8 Mostly Clear,72000.0,5000.0,FEW,5000.0,,,,,,
KRDR,09-03-2020,18:56,METAR,Normal,310,20.0,29.0,320/33KTS,9999.0,,18.0,4.2,29.88,1012.4,,,,,,,,,,,,,,,2/8 Mostly Clear,72000.0,5000.0,FEW,5000.0,,,,,,
KRDR,09-03-2020,17:56,METAR,Normal,310,19.0,29.0,320/31KTS,9999.0,,17.1,3.7,29.88,1012.4,,,,,,,,,,,,,,,2/8 Mostly Clear,72000.0,4500.0,FEW,4500.0,,,,,,
KRDR,09-03-2020,16:56,METAR,Normal,320,16.0,25.0,330/29KTS,9999.0,,15.9,6.3,29.86,1011.7,,,,,,,,,,,,,,,2/8 Mostly Clear,72000.0,4600.0,FEW,4600.0,,,,,,
KRDR,09-03-2020,15:56,METAR,Normal,310,16.0,23.0,320/26KTS,9999.0,,15.0,9.6,29.87,1012.2,,,,,,,,,,,,,,,2/8 Mostly Clear,72000.0,3000.0,FEW,3000.0,,,,,,
KRDR,09-03-2020,14:56,METAR,Normal,330,18.0,25.0,320/27KTS,9999.0,,13.4,9.3,29.84,1011.2,,,,,,,,,,,,,,,2/8 Mostly Clear,72000.0,2000.0,FEW,2000.0,,,,,,
KRDR,09-03-2020,13:56,METAR,Normal,330,16.0,27.0,340/29KTS,9999.0,,12.1,9.1,29.81,1010.2,,,,,,,,,,,,,,,4/8 Partly Cloudy,72000.0,1900.0,SCT,1900.0,,,,,,
KRDR,09-03-2020,13:46,SPECI,Normal,340,19.0,27.0,,9999.0,,12.0,9.0,29.81,1010.1,,,,,,,,,,,,,,,,1900.0,1900.0,BKN,1900.0,,,,,,
KRDR,09-03-2020,13:36,SPECI,Normal,330,22.0,29.0,,9999.0,,12.0,9.0,29.81,1010.0,,,,,,,,,,,,,,,,2000.0,2000.0,BKN,2000.0,,,,,,
KRDR,09-03-2020,12:56,METAR,Normal,320,17.0,22.0,,9999.0,,11.4,9.5,29.79,1009.3,,,,,,,,,,,,,,,Clear,72000.0,,,,,,,,,
KRDR,09-03-2020,11:56,METAR,Normal,320,14.0,24.0,310/27KTS,9999.0,,10.6,9.5,29.76,1008.2,,,,,,,,,,,,,,.24 IN,Clear,72000.0,,,,,,,,,
KRDR,09-03-2020,10:56,METAR,Normal,320,16.0,22.0,310/26KTS,9999.0,,10.6,9.7,29.72,1006.9,,,,,,,,,,,,,,,Clear,72000.0,,,,,,,,,
KRDR,09-03-2020,09:56,METAR,Normal,330,17.0,24.0,,9999.0,,11.4,10.0,29.69,1005.8,,,,,,,,,,,,,,,Clear,72000.0,,,,,,,,,
KRDR,09-03-2020,08:56,METAR,Normal,320,16.0,23.0,320/32KTS,9999.0,,11.8,10.2,29.65,1004.5,,,,,,,,,,,,,,,2/8 Mostly Clear,72000.0,4200.0,FEW,4200.0,,,,,,
KRDR,09-03-2020,07:56,METAR,Normal,320,17.0,30.0,310/30KTS,9999.0,,12.4,10.5,29.61,1003.1,,,,,,,,,,,,,,,4/8 Partly Cloudy,72000.0,4300.0,SCT,4300.0,,,,,,
KRDR,09-03-2020,06:56,METAR,Normal,310,17.0,25.0,,9999.0,,12.5,11.4,29.58,1002.0,,,,,,,,,,,,,,,,6000.0,6000.0,BKN,6000.0,BKN,7000.0,,,,
KRDR,09-03-2020,05:56,METAR,Normal,330,16.0,21.0,330/33KTS,9999.0,,12.4,12.2,29.57,1001.7,,,,,,,,,,,,,.24 IN,,,3300.0,2000.0,SCT,2000.0,BKN,3300.0,,,,
KRDR,09-03-2020,05:26,SPECI,Normal,330,14.0,27.0,,9999.0,,13.0,13.0,29.55,1001.1,,,,,,,,,,,,,,,4/8 Partly Cloudy,72000.0,1300.0,SCT,1300.0,,,,,,
KRDR,09-03-2020,05:16,SPECI,Normal,340,18.0,31.0,,9999.0,,13.0,13.0,29.53,1000.3,,,,,,,,,,,,,,,,1300.0,1300.0,BKN,1300.0,,,,,,
KRDR,09-03-2020,04:56,METAR,Normal,330,21.0,35.0,320/35KTS,9999.0,,14.4,13.9,29.50,999.3,,,,,,,,,,,,,,,,1600.0,1600.0,BKN,1600.0,BKN,2100.0,OVC,15000.0,,
KRDR,09-03-2020,04:52,SPECI,Normal,330,26.0,35.0,,9999.0,,15.0,15.0,29.49,998.9,,,,,,,,,,,,,,,,1600.0,1600.0,BKN,1600.0,BKN,2100.0,OVC,15000.0,,
KRDR,09-03-2020,04:46,SPECI,Normal,320,26.0,33.0,,9999.0,,16.0,15.0,29.48,998.6,,,,,,,,,,,,,,,,2300.0,1700.0,SCT,1700.0,BKN,2300.0,OVC,15000.0,,
KRDR,09-03-2020,04:31,SPECI,Normal,290,12.0,20.0,,9999.0,,15.0,15.0,29.47,998.2,,,,,,,,,,,,,,,,15000.0,2500.0,FEW,2500.0,SCT,4400.0,OVC,15000.0,,
KRDR,09-03-2020,03:56,METAR,Normal,260,7.0,,,9999.0,,12.6,12.6,29.47,998.3,,,,,,,,,,,,,,,2/8 Mostly Clear,72000.0,3500.0,FEW,3500.0,,,,,,
KRDR,09-03-2020,02:56,METAR,Calm,,0.0,,350/30KTS,9999.0,,13.1,13.1,29.40,996.0,,,,,,,,,,,.01 IN,.24 IN,,,2/8 Mostly Clear,72000.0,12000.0,FEW,12000.0,,,,,,
KRDR,09-03-2020,02:37,SPECI,Normal,60,4.0,,,9999.0,,13.0,13.0,29.40,996.0,,,,,,,,,,,,,,,,3400.0,3400.0,BKN,3400.0,BKN,8000.0,BKN,13000.0,,
KRDR,09-03-2020,02:24,SPECI,Normal,30,11.0,,,9999.0,Light Drizzle,13.0,13.0,29.43,997.1,51,,,,,,,,,,,,,,,2700.0,2700.0,BKN,2700.0,BKN,6000.0,BKN,8000.0,,
KRDR,09-03-2020,01:57,METAR,Normal,360,20.0,35.0,330/51KTS,8000.0,Thunderstorm and Rain or Snow Showers,14.4,14.4,29.45,997.8,92,,,,,,,,,,.23 IN,,,,,4100.0,4100.0,BKN,4100.0,,,,,,
KRDR,09-03-2020,01:47,SPECI,Normal,350,24.0,35.0,,6400.0,Thunderstorm and Rain or Snow Showers,16.0,16.0,29.46,998.1,92,,,,,,,,,,,,,,,4200.0,4200.0,BKN,4200.0,BKN,5500.0,OVC,10000.0,,
KRDR,09-03-2020,01:39,SPECI,Normal,350,21.0,50.0,,1600.0,Heavy Thunderstorm and Rain or Snow Showers,18.0,17.0,29.44,997.3,95,,,,,,,,,,,,,,,2800.0,2800.0,BKN,2800.0,BKN,11000.0,,,,
KRDR,09-03-2020,01:33,SPECI,Normal,350,37.0,50.0,,400.0,Heavy Thunderstorm and Rain or Snow Showers,20.0,14.0,29.38,995.2,95,,,,,,,,,,,,,,,11000.0,2300.0,FEW,2300.0,FEW,3900.0,BKN,11000.0,,
KRDR,09-03-2020,01:32,SPECI,Normal,350,36.0,45.0,,400.0,Thunderstorm and Rain or Snow Showers,21.0,14.0,29.39,995.5,92,,,,,,,,,,,,,,,3900.0,3900.0,BKN,3900.0,BKN,11000.0,,,,
KRDR,09-03-2020,01:29,SPECI,Normal,300,31.0,43.0,,9999.0,,21.0,14.0,29.38,995.2,,,,,,,,,,,,,,,,11000.0,11000.0,BKN,11000.0,,,,,,
KRDR,09-03-2020,01:28,SPECI,Normal,250,22.0,43.0,,9999.0,,21.0,14.0,29.34,993.8,,,,,,,,,,,,,,,,11000.0,11000.0,BKN,11000.0,,,,,,
KRDR,09-03-2020,01:27,SPECI,Normal,210,14.0,37.0,,9999.0,,21.0,14.0,29.34,993.8,,,,,,,,,,,,,,,,11000.0,11000.0,BKN,11000.0,,,,,,
KRDR,09-03-2020,00:56,METAR,Normal,170,13.0,,,9999.0,,20.9,13.6,29.32,993.2,,,,,,,,,,,,,,,,12000.0,12000.0,BKN,12000.0,BKN,14000.0,,,,
KRDR,09-02-2020,23:56,METAR,Normal,170,9.0,,,9999.0,,22.1,11.8,29.40,996.0,,,,,,,,,,,,,,,,15000.0,15000.0,BKN,15000.0,BKN,18000.0,,,,
KRDR,09-02-2020,22:56,METAR,Normal,150,8.0,,,9999.0,,21.4,12.2,29.48,998.7,,,,,,,,,,,,,,,,13000.0,13000.0,BKN,13000.0,BKN,15000.0,,,,
KRDR,09-02-2020,21:56,METAR,Normal,180,9.0,,,9999.0,,22.1,10.9,29.54,1000.7,,,,,,,,,,,,,,,,15000.0,11000.0,SCT,11000.0,BKN,15000.0,,,,
KRDR,09-02-2020,20:56,METAR,Normal,200,11.0,,,9999.0,,21.7,8.6,29.57,1001.7,,,,,,,,,,,,,,,,10000.0,7000.0,FEW,7000.0,OVC,10000.0,,,,
KRDR,09-02-2020,19:56,METAR,Normal,200,7.0,,,9999.0,,22.3,8.0,29.61,1003.1,,,,,,,,,,,,,,,,10000.0,10000.0,BKN,10000.0,,,,,,
KRDR,09-02-2020,18:56,METAR,Normal,260,6.0,,,9999.0,,23.7,6.0,29.65,1004.3,,,,,,,,,,,,,,,,10000.0,10000.0,BKN,10000.0,BKN,13000.0,BKN,19000.0,,
KRDR,09-02-2020,17:56,METAR,Normal,280,8.0,,,9999.0,,22.4,8.8,29.68,1005.4,,,,,,,,,,,,,,,,18000.0,12000.0,SCT,12000.0,BKN,18000.0,,,,
KRDR,09-02-2020,16:56,METAR,Normal,270,10.0,,,9999.0,,22.6,8.7,29.70,1006.0,,,,,,,,,,,,,,,4/8 Partly Cloudy,72000.0,12000.0,FEW,12000.0,SCT,18000.0,,,,
KRDR,09-02-2020,15:56,METAR,Normal,320,10.0,,,9999.0,,20.6,9.8,29.72,1006.7,,,,,,,,,,,,,,,2/8 Mostly Clear,72000.0,12000.0,FEW,12000.0,,,,,,
KRDR,09-02-2020,14:56,METAR,Normal,290,10.0,,,9999.0,,19.0,9.7,29.72,1006.8,,,,,,,,,,,,,,,2/8 Mostly Clear,72000.0,12000.0,FEW,12000.0,,,,,,
KRDR,09-02-2020,13:56,METAR,Normal,290,11.0,,,9999.0,,16.2,10.1,29.71,1006.5,,,,,,,,,,,,,,,2/8 Mostly Clear,72000.0,12000.0,FEW,12000.0,,,,,,
KRDR,09-02-2020,12:56,METAR,Normal,280,10.0,,,9999.0,,13.5,9.3,29.71,1006.5,,,,,,,,,,,,,,,Clear,72000.0,,,,,,,,,
KRDR,09-02-2020,11:56,METAR,Normal,280,8.0,,,9999.0,,12.0,8.7,29.69,1005.8,,,,,,,,,,,,,,,Clear,72000.0,,,,,,,,,
KRDR,09-02-2020,10:56,METAR,Normal,270,7.0,,,9999.0,,12.2,9.0,29.67,1005.1,,,,,,,,,,,,,,,Clear,72000.0,,,,,,,,,
KRDR,09-02-2020,09:56,METAR,Normal,280,6.0,,,9999.0,,12.8,9.6,29.65,1004.3,,,,,,,,,,,,,,,Clear,72000.0,,,,,,,,,
KRDR,09-02-2020,08:56,METAR,Normal,280,7.0,,,9999.0,,13.6,9.8,29.64,1003.9,,,,,,,,,,,,,,,Clear,72000.0,,,,,,,,,
KRDR,09-02-2020,07:56,METAR,Normal,270,7.0,,,9999.0,,12.8,9.8,29.64,1004.0,,,,,,,,,,,,,,,Clear,72000.0,,,,,,,,,
KRDR,09-02-2020,06:56,METAR,Normal,280,7.0,,,9999.0,,14.2,9.0,29.64,1004.1,,,,,,,,,,,,,,,Clear,72000.0,,,,,,,,,
KRDR,09-02-2020,05:56,METAR,Normal,300,9.0,,,9999.0,,15.3,8.3,29.63,1003.7,,,,,,,,,,,,,,,Clear,72000.0,,,,,,,,,
KRDR,09-02-2020,04:56,METAR,Normal,290,10.0,,,9999.0,,15.5,9.8,29.61,1003.0,,,,,,,,,,,,,,,Clear,72000.0,,,,,,,,,
KRDR,09-02-2020,03:56,METAR,Normal,280,8.0,,,9999.0,,16.0,9.6,29.60,1002.7,,,,,,,,,,,,,,,Clear,72000.0,,,,,,,,,
KRDR,09-02-2020,02:56,METAR,Normal,300,10.0,,,9999.0,,17.1,8.0,29.57,1001.7,,,,,,,,,,,,,,,Clear,72000.0,,,,,,,,,
KRDR,09-02-2020,01:56,METAR,Normal,290,11.0,,,9999.0,,18.4,8.1,29.54,1000.7,,,,,,,,,,,,,,,Clear,72000.0,,,,,,,,,
KRDR,09-02-2020,00:56,METAR,Normal,290,14.0,21.0,310/31KTS,9999.0,,20.2,6.5,29.50,999.4,,,,,,,,,,,,,,,,18000.0,18000.0,OVC,18000.0,,,,,,
KRDR,09-01-2020,23:56,METAR,Normal,290,13.0,21.0,280/28KTS,9999.0,,22.6,7.2,29.48,998.6,,,,,,,,,,,,,TRACE,,,18000.0,12000.0,SCT,12000.0,BKN,18000.0,,,,
KRDR,09-01-2020,22:56,METAR,Normal,290,15.0,23.0,300/36KTS,9999.0,,23.5,6.7,29.46,998.0,,,,,,,,,,,,,,,4/8 Partly Cloudy,72000.0,13000.0,FEW,13000.0,SCT,16000.0,,,,
KRDR,09-01-2020,21:56,METAR,Normal,310,24.0,30.0,280/30KTS,9999.0,Precipitation in the Vicinity,24.9,7.1,29.44,997.4,,,,16,,,,,,,TRACE,,,,,9000.0,9000.0,BKN,9100.0,BKN,14000.0,,,,
KRDR,09-01-2020,21:34,SPECI,Normal,290,16.0,27.0,,9999.0,,24.0,8.0,29.44,997.4,,,,,,,,,,,,,,,,10000.0,10000.0,BKN,10000.0,BKN,14000.0,,,,
KRDR,09-01-2020,21:23,SPECI,Normal,290,20.0,27.0,,9999.0,Light Rain,24.0,6.0,29.43,997.0,61,,,,,,,,,,,,,,,9000.0,9000.0,BKN,9100.0,,,,,,
KRDR,09-01-2020,21:19,SPECI,Normal,280,18.0,30.0,,9999.0,Light Drizzle,25.0,5.0,29.43,997.0,51,,,,,,,,,,,,,,,9000.0,9000.0,BKN,9100.0,,,,,,
KRDR,09-01-2020,20:56,METAR,Normal,280,21.0,31.0,260/33KTS,9999.0,,25.2,4.3,29.43,997.0,,,,,,,,,,,,,,,,9500.0,9500.0,BKN,9600.0,BKN,12000.0,,,,
KRDR,09-01-2020,19:56,METAR,Normal,260,20.0,30.0,260/30KTS,9999.0,,25.7,7.8,29.45,997.7,,,,,,,,,,,,,,,,15000.0,9000.0,SCT,9100.0,SCT,12000.0,BKN,15000.0,,
KRDR,09-01-2020,18:56,METAR,Normal,220,18.0,25.0,210/27KTS,9999.0,,22.6,12.2,29.48,998.7,,,,,,,,,,,,,,,,16000.0,7000.0,FEW,7000.0,SCT,11000.0,BKN,16000.0,,
KRDR,09-01-2020,17:56,METAR,Normal,220,19.0,25.0,200/28KTS,9999.0,,21.1,11.7,29.51,999.8,,,,,,,,,,,,,,,,14000.0,11000.0,SCT,11000.0,BKN,14000.0,BKN,18000.0,,
KRDR,09-01-2020,16:56,METAR,Normal,230,20.0,27.0,230/27KTS,9999.0,,21.1,10.0,29.54,1000.8,,,,,,,,,,,,,,,,12000.0,12000.0,BKN,12000.0,BKN,16000.0,BKN,19000.0,,
KRDR,09-01-2020,15:56,METAR,Normal,230,17.0,26.0,220/26KTS,9999.0,,19.3,10.3,29.58,1002.3,,,,,,,,,,,,,,,,16000.0,16000.0,BKN,16000.0,BKN,21000.0,,,,
KRDR,09-01-2020,14:56,METAR,Normal,230,17.0,,,9999.0,,18.3,10.4,29.61,1003.3,,,,,,,,,,,,,,,,16000.0,16000.0,BKN,16000.0,,,,,,
KRDR,09-01-2020,13:56,METAR,Normal,240,11.0,,,9999.0,,16.1,9.7,29.63,1004.0,,,,,,,,,,,,,,,,12000.0,10000.0,SCT,10000.0,OVC,12000.0,,,,
KRDR,09-01-2020,12:56,METAR,Normal,240,9.0,,,9999.0,,14.8,8.9,29.65,1004.6,,,,,,,,,,,,,,,,12000.0,12000.0,BKN,12000.0,OVC,15000.0,,,,
KRDR,09-01-2020,11:56,METAR,Normal,250,7.0,,,9999.0,,12.0,8.8,29.66,1004.9,,,,,,,,,,,,,,,,16000.0,16000.0,OVC,16000.0,,,,,,
KRDR,09-01-2020,10:56,METAR,Normal,240,6.0,,,9999.0,,10.6,8.5,29.67,1005.3,,,,,,,,,,,,,,,,12000.0,12000.0,OVC,12000.0,,,,,,
KRDR,09-01-2020,09:56,METAR,Normal,210,6.0,,,9999.0,,7.9,7.1,29.69,1006.1,,,,,,,,,,,,,,,Clear,72000.0,,,,,,,,,
KRDR,09-01-2020,08:56,METAR,Normal,200,5.0,,,9999.0,,8.6,7.2,29.72,1007.0,,,,,,,,,,,,,,,2/8 Mostly Clear,72000.0,12000.0,FEW,12000.0,,,,,,
KRDR,09-01-2020,07:56,METAR,Normal,210,6.0,,,9999.0,,8.7,7.2,29.75,1008.0,,,,,,,,,,,,,,,4/8 Partly Cloudy,72000.0,11000.0,SCT,11000.0,,,,,,
KRDR,09-01-2020,06:56,METAR,Normal,220,6.0,,,9999.0,,8.6,6.9,29.77,1008.7,,,,,,,,,,,,,,,Clear,72000.0,,,,,,,,,
KRDR,09-01-2020,05:56,METAR,Normal,230,7.0,,,9999.0,,8.3,7.2,29.77,1008.7,,,,,,,,,,,,,,,Clear,72000.0,,,,,,,,,
KRDR,09-01-2020,04:56,METAR,Normal,240,6.0,,,9999.0,,9.0,7.1,29.78,1009.1,,,,,,,,,,,,,,,Clear,72000.0,,,,,,,,,
KRDR,09-01-2020,03:56,METAR,Normal,240,5.0,,,9999.0,,8.9,7.2,29.79,1009.5,,,,,,,,,,,,,,,Clear,72000.0,,,,,,,,,
KRDR,09-01-2020,02:56,METAR,Normal,240,6.0,,,9999.0,,10.7,7.2,29.79,1009.5,,,,,,,,,,,,,,,Clear,72000.0,,,,,,,,,
KRDR,09-01-2020,01:56,METAR,Normal,260,5.0,,,9999.0,,12.4,6.9,29.78,1009.1,,,,,,,,,,,,,,,Clear,72000.0,,,,,,,,,
KRDR,09-01-2020,00:56,METAR,Normal,260,6.0,,,9999.0,,15.1,6.9,29.77,1008.8,,,,,,,,,,,,,,,Clear,72000.0,,,,,,,,,
KRDR,08-31-2020,23:56,METAR,Normal,290,7.0,,,9999.0,,17.8,4.0,29.76,1008.4,,,,,,,,,,,,,,,,20000.0,6000.0,FEW,6000.0,BKN,20000.0,,,,
KRDR,08-31-2020,22:56,METAR,Normal,300,11.0,17.0,,9999.0,,18.6,3.6,29.75,1008.0,,,,,,,,,,,,,,,,20000.0,6000.0,FEW,6000.0,BKN,20000.0,,,,
KRDR,08-31-2020,21:56,METAR,Normal,300,7.0,,,9999.0,,18.5,5.7,29.74,1007.7,,,,,,,,,,,,,,,2/8 Mostly Clear,72000.0,20000.0,FEW,20000.0,,,,,,
KRDR,08-31-2020,20:56,METAR,Normal,310,14.0,24.0,,9999.0,,19.4,4.7,29.73,1007.3,,,,,,,,,,,,,,,,18000.0,7000.0,FEW,7000.0,BKN,18000.0,,,,
KRDR,08-31-2020,19:56,METAR,Normal,300,15.0,22.0,,9999.0,,20.0,6.0,29.74,1007.5,,,,,,,,,,,,,,,2/8 Mostly Clear,72000.0,7000.0,FEW,7000.0,FEW,22000.0,,,,
KRDR,08-31-2020,18:56,METAR,Normal,300,18.0,24.0,,9999.0,,19.6,4.9,29.73,1007.2,,,,,,,,,,,,,,,2/8 Mostly Clear,72000.0,4000.0,FEW,4000.0,FEW,20000.0,,,,
KRDR,08-31-2020,17:56,METAR,Normal,310,14.0,22.0,,9999.0,,19.2,4.9,29.73,1007.3,,,,,,,,,,,,,,,Clear,72000.0,,,,,,,,,
KRDR,08-31-2020,16:56,METAR,Normal,290,12.0,16.0,,9999.0,,18.8,6.3,29.73,1007.3,,,,,,,,,,,,,,,Clear,72000.0,,,,,,,,,
KRDR,08-31-2020,15:56,METAR,Normal,300,10.0,16.0,,9999.0,,17.1,7.2,29.72,1007.0,,,,,,,,,,,,,,,Clear,72000.0,,,,,,,,,
KRDR,08-31-2020,14:56,METAR,Normal,290,14.0,17.0,,9999.0,,15.7,8.7,29.72,1007.0,,,,,,,,,,,,,,,Clear,72000.0,,,,,,,,,
KRDR,08-31-2020,13:56,METAR,Normal,280,7.0,,,9999.0,,14.0,11.0,29.72,1007.0,,,,,,,,,,,,,,,Clear,72000.0,,,,,,,,,
KRDR,08-31-2020,12:56,METAR,Normal,280,7.0,,,9999.0,,11.6,10.2,29.71,1006.7,,,,,,,,,,,,,,,Clear,72000.0,,,,,,,,,
KRDR,08-31-2020,11:56,METAR,Normal,290,7.0,,,9999.0,,10.0,9.2,29.71,1006.7,,,,,,,,,,,,,,.16 IN,Clear,72000.0,,,,,,,,,
KRDR,08-31-2020,10:56,METAR,Normal,290,6.0,,,9999.0,,10.0,9.4,29.69,1006.0,,,,,,,,,,,,,,,Clear,72000.0,,,,,,,,,
KRDR,08-31-2020,09:56,METAR,Normal,300,6.0,,,9999.0,,11.5,10.2,29.69,1005.9,,,,,,,,,,,,,,,Clear,72000.0,,,,,,,,,
KRDR,08-31-2020,08:56,METAR,Normal,310,9.0,,,9999.0,,13.1,11.5,29.69,1005.8,,,,,,,,,,,,,,,Clear,72000.0,,,,,,,,,
KRDR,08-31-2020,07:56,METAR,Normal,290,7.0,,,9999.0,,13.6,12.5,29.68,1005.4,,,,,,,,,,,,,,,2/8 Mostly Clear,72000.0,19000.0,FEW,19000.0,,,,,,
KRDR,08-31-2020,06:56,METAR,Normal,290,8.0,,,9999.0,,13.3,12.0,29.69,1005.8,,,,,,,,,,,,,,,2/8 Mostly Clear,72000.0,11000.0,FEW,11000.0,,,,,,
KRDR,08-31-2020,05:56,METAR,Normal,280,6.0,,,9999.0,,12.6,12.4,29.70,1006.1,,,,,,,,,,,,,.08 IN,,2/8 Mostly Clear,72000.0,10000.0,FEW,10000.0,,,,,,
KRDR,08-31-2020,04:56,METAR,Normal,300,4.0,,,9999.0,,12.7,12.7,29.69,1005.8,,,,,,,,,,,,,,,2/8 Mostly Clear,72000.0,6500.0,FEW,6500.0,FEW,14000.0,,,,
KRDR,08-31-2020,03:56,METAR,Normal,300,5.0,,,9999.0,,12.9,12.9,29.69,1005.8,,,,,,,,,,,,,,,,6000.0,2400.0,FEW,2400.0,SCT,3000.0,BKN,6000.0,OVC,7500.0
KRDR,08-31-2020,03:46,SPECI,Normal,300,4.0,,,9999.0,,13.0,13.0,29.68,1005.4,,,,,,,,,,,,,,,,3000.0,2300.0,SCT,2300.0,BKN,3000.0,BKN,5500.0,OVC,7500.0
KRDR,08-31-2020,03:26,SPECI,Normal,320,6.0,,,9999.0,,13.0,13.0,29.69,1005.8,,,,,,,,,,,,,,,,2200.0,2200.0,BKN,2200.0,BKN,13000.0,,,,
KRDR,08-31-2020,02:56,METAR,Normal,310,6.0,,,9999.0,,13.4,13.4,29.69,1005.8,,,,,,,,,,,,.08 IN,,,,19000.0,1400.0,FEW,1400.0,BKN,19000.0,,,,
KRDR,08-31-2020,02:46,SPECI,Normal,320,6.0,,,9999.0,,14.0,14.0,29.68,1005.5,,,,,,,,,,,,,,,,19000.0,1300.0,SCT,1300.0,BKN,19000.0,,,,
KRDR,08-31-2020,02:36,SPECI,Normal,330,8.0,,,9999.0,,14.0,14.0,29.67,1005.2,,,,,,,,,,,,,,,,1300.0,1300.0,OVC,1300.0,,,,,,
KRDR,08-31-2020,02:16,SPECI,Normal,330,13.0,18.0,,9999.0,,14.0,14.0,29.67,1005.2,,,,,,,,,,,,,,,,1200.0,1200.0,OVC,1200.0,,,,,,
KRDR,08-31-2020,01:56,METAR,Normal,330,12.0,,,9999.0,,15.0,15.0,29.66,1004.9,,,,,,,,,,,.05 IN,,,,,1100.0,1100.0,BKN,1100.0,BKN,3400.0,OVC,4400.0,,
KRDR,08-31-2020,01:46,SPECI,Normal,340,9.0,,,9999.0,,15.0,15.0,29.65,1004.5,,,,,,,,,,,,,,,,3400.0,1000.0,FEW,1000.0,SCT,2200.0,BKN,3400.0,OVC,4400.0
KRDR,08-31-2020,01:36,SPECI,Normal,320,9.0,,,9999.0,,15.0,15.0,29.65,1004.5,,,,,,,,,,,,,,,,2600.0,800.0,FEW,800.0,SCT,2100.0,BKN,2600.0,BKN,3100.0
KRDR,08-31-2020,01:24,SPECI,Normal,340,7.0,,,9999.0,Light Rain,15.0,15.0,29.64,1004.2,61,,,,,,,,,,,,,,,2300.0,800.0,FEW,800.0,SCT,1400.0,BKN,2300.0,OVC,3900.0
KRDR,08-31-2020,01:14,SPECI,Normal,340,9.0,,,9999.0,Light Rain,16.0,16.0,29.63,1003.8,61,,,,,,,,,,,,,,,1400.0,700.0,SCT,700.0,BKN,1400.0,,,,
KRDR,08-31-2020,01:04,SPECI,Normal,350,7.0,,,9999.0,Rain,16.0,16.0,29.63,1003.8,62,,,,,,,,,,,,,,,6000.0,1000.0,FEW,1000.0,SCT,1500.0,OVC,6000.0,,
KRDR,08-31-2020,00:56,METAR,Normal,340,9.0,,,9999.0,Rain,16.2,16.2,29.64,1004.2,62,,,,,,,,,,.03 IN,,,,,6000.0,6000.0,BKN,6000.0,OVC,9100.0,,,,
KRDR,08-31-2020,00:27,SPECI,Normal,340,11.0,,,9999.0,Light Rain,18.0,17.0,29.62,1003.5,61,,,,,,,,,,,,,,,9000.0,1700.0,SCT,1700.0,OVC,9100.0,,,,
KRDR,08-30-2020,23:56,METAR,Normal,340,11.0,18.0,,9999.0,,18.2,17.5,29.61,1003.2,,,,,,,,,,,TRACE,,.08 IN,,,9000.0,2000.0,FEW,2000.0,OVC,9100.0,,,,
KRDR,08-30-2020,23:19,SPECI,Normal,360,10.0,,,9999.0,,19.0,18.0,29.60,1002.8,,,,,,,,,,,,,,,,9000.0,7500.0,FEW,7500.0,OVC,9100.0,,,,
KRDR,08-30-2020,23:09,SPECI,Normal,30,8.0,,,9999.0,Light Rain,19.0,19.0,29.59,1002.5,61,,,,,,,,,,,,,,,9000.0,7500.0,FEW,7500.0,OVC,9100.0,,,,
KRDR,08-30-2020,22:56,METAR,Normal,350,7.0,,,9999.0,,19.7,19.4,29.59,1002.4,,,,,,,,,,,.04 IN,,,,,9000.0,3400.0,FEW,3400.0,FEW,4100.0,OVC,9100.0,,
KRDR,08-30-2020,22:42,SPECI,Calm,,0.0,,,9999.0,,19.0,19.0,29.57,1001.8,,,,,,,,,,,,,,,,4200.0,2200.0,FEW,2200.0,SCT,3500.0,BKN,4200.0,BKN,9100.0
KRDR,08-30-2020,22:24,SPECI,Normal,160,3.0,,,9999.0,Light Drizzle/Distant Lightning,19.0,19.0,29.57,1001.8,51,12,,,,,,,,,,,,,,3500.0,2700.0,SCT,2700.0,BKN,3500.0,BKN,4400.0,,
KRDR,08-30-2020,22:09,SPECI,Calm,,0.0,,,9999.0,Thunderstorm and Rain or Snow Showers,20.0,18.0,29.56,1001.5,92,,,,,,,,,,,,,,,3300.0,3300.0,BKN,3300.0,OVC,4500.0,,,,
KRDR,08-30-2020,21:56,METAR,Normal,260,3.0,,,9999.0,Light Rain,20.4,17.8,29.57,1001.7,61,,,,,,,,,,.02 IN,,,,,3600.0,2000.0,FEW,2000.0,OVC,3600.0,,,,
KRDR,08-30-2020,21:42,SPECI,Normal,290,4.0,,,9999.0,Light Drizzle,21.0,17.0,29.57,1001.7,51,,,,,,,,,,,,,,,4200.0,3200.0,FEW,3200.0,OVC,4200.0,,,,
KRDR,08-30-2020,20:56,METAR,Normal,190,9.0,,,9999.0,,21.5,17.3,29.55,1001.0,,,,,,,,,,,,.02 IN,,,,4300.0,4300.0,OVC,4300.0,,,,,,
KRDR,08-30-2020,20:06,SPECI,Normal,200,11.0,,,9999.0,,21.0,17.0,29.55,1001.0,,,,,,,,,,,,,,,,4600.0,4600.0,OVC,4600.0,,,,,,
KRDR,08-30-2020,19:56,METAR,Normal,190,11.0,,,9999.0,Dry Thunderstorm,21.3,17.1,29.55,1001.0,91,,,,,,,,,,.01 IN,,,,,4900.0,4900.0,OVC,4900.0,,,,,,
KRDR,08-30-2020,19:37,SPECI,Normal,200,8.0,,,9999.0,Dry Thunderstorm,21.0,18.0,29.56,1001.4,91,,,,,,,,,,,,,,,4900.0,4900.0,OVC,4900.0,,,,,,
KRDR,08-30-2020,19:10,SPECI,Normal,190,8.0,,,9999.0,,21.0,18.0,29.56,1001.4,,,,,,,,,,,,,,,,4700.0,2000.0,FEW,2000.0,BKN,4700.0,OVC,9600.0,,
KRDR,08-30-2020,18:56,METAR,Normal,170,13.0,,,9999.0,Thunderstorm and Rain or Snow Showers,21.1,16.7,29.55,1001.1,92,,,,,,,,,,.01 IN,,,,,10000.0,2900.0,FEW,2900.0,SCT,4500.0,BKN,10000.0,,
KRDR,08-30-2020,18:55,SPECI,Normal,170,13.0,,,9999.0,Thunderstorm and Rain or Snow Showers,21.0,17.0,29.55,1001.1,92,,,,,,,,,,,,,,,10000.0,2900.0,FEW,2900.0,SCT,4500.0,BKN,10000.0,,
KRDR,08-30-2020,18:53,SPECI,Normal,170,14.0,,,9999.0,Light Rain/Distant Lightning,21.0,16.0,29.55,1001.1,61,12,,,,,,,,,,,,,,10000.0,3100.0,FEW,3100.0,SCT,4500.0,BKN,10000.0,,
KRDR,08-30-2020,18:45,SPECI,Normal,170,11.0,,,9999.0,Distant Lightning,21.0,17.0,29.56,1001.3,12,,,,,,,,,,,,,,,10000.0,4500.0,SCT,4500.0,BKN,10000.0,,,,
KRDR,08-30-2020,18:33,SPECI,Normal,180,10.0,,,9999.0,Light Rain/Distant Lightning,22.0,15.0,29.58,1002.0,61,12,,,,,,,,,,,,,,4600.0,4600.0,BKN,4600.0,OVC,10000.0,,,,
KRDR,08-30-2020,17:56,METAR,Normal,220,9.0,,180/28KTS,9999.0,,22.2,14.6,29.60,1002.7,,,,,,,,,,,,,,,,9500.0,9500.0,BKN,9600.0,OVC,14000.0,,,,
KRDR,08-30-2020,16:56,METAR,Normal,190,20.0,28.0,190/29KTS,9999.0,,23.9,14.0,29.56,1001.3,,,,,,,,,,,,,,,2/8 Mostly Clear,72000.0,19000.0,FEW,19000.0,,,,,,
KRDR,08-30-2020,15:56,METAR,Normal,190,19.0,27.0,180/27KTS,9999.0,,21.9,14.3,29.60,1002.6,,,,,,,,,,,,,,,Clear,72000.0,,,,,,,,,
KRDR,08-30-2020,14:56,METAR,Normal,180,16.0,22.0,,9999.0,,20.5,13.9,29.62,1003.4,,,,,,,,,,,,,,,Clear,72000.0,,,,,,,,,
KRDR,08-30-2020,13:56,METAR,Normal,180,14.0,17.0,,9999.0,,17.7,13.6,29.65,1004.4,,,,,,,,,,,,,,,Clear,72000.0,,,,,,,,,
KRDR,08-30-2020,12:56,METAR,Normal,170,14.0,19.0,,9999.0,,15.2,12.9,29.67,1005.2,,,,,,,,,,,,,,,Clear,72000.0,,,,,,,,,
KRDR,08-30-2020,11:56,METAR,Normal,180,11.0,,,9999.0,,13.6,12.6,29.69,1005.8,,,,,,,,,,,,,,,Clear,72000.0,,,,,,,,,
KRDR,08-30-2020,10:56,METAR,Normal,170,11.0,,,9999.0,,13.4,12.6,29.71,1006.4,,,,,,,,,,,,,,,Clear,72000.0,,,,,,,,,
KRDR,08-30-2020,09:56,METAR,Normal,170,8.0,,,9999.0,,13.2,12.4,29.73,1007.1,,,,,,,,,,,,,,,Clear,72000.0,,,,,,,,,
KRDR,08-30-2020,08:56,METAR,Normal,160,8.0,,,9999.0,,13.3,12.3,29.75,1007.8,,,,,,,,,,,,,,,Clear,72000.0,,,,,,,,,
KRDR,08-30-2020,07:56,METAR,Normal,170,8.0,,,9999.0,,13.9,12.3,29.78,1008.8,,,,,,,,,,,,,,,Clear,72000.0,,,,,,,,,
KRDR,08-30-2020,06:56,METAR,Normal,180,6.0,,,9999.0,,13.8,12.2,29.81,1009.8,,,,,,,,,,,,,,,Clear,72000.0,,,,,,,,,
KRDR,08-30-2020,05:56,METAR,Normal,180,7.0,,,9999.0,,14.0,12.0,29.82,1010.1,,,,,,,,,,,,,,,Clear,72000.0,,,,,,,,,
KRDR,08-30-2020,04:56,METAR,Normal,180,7.0,,,9999.0,,14.5,12.2,29.83,1010.5,,,,,,,,,,,,,,,Clear,72000.0,,,,,,,,,
KRDR,08-30-2020,03:56,METAR,Normal,180,7.0,,,9999.0,,15.3,12.2,29.84,1010.9,,,,,,,,,,,,,,,Clear,72000.0,,,,,,,,,
KRDR,08-30-2020,02:56,METAR,Normal,170,7.0,,,9999.0,,15.8,12.0,29.85,1011.3,,,,,,,,,,,,,,,Clear,72000.0,,,,,,,,,
KRDR,08-30-2020,01:56,METAR,Normal,180,6.0,,,9999.0,,17.4,12.3,29.85,1011.3,,,,,,,,,,,,,,,Clear,72000.0,,,,,,,,,
KRDR,08-30-2020,00:56,METAR,Normal,160,5.0,,,9999.0,,19.7,12.4,29.85,1011.3,,,,,,,,,,,,,,,Clear,72000.0,,,,,,,,,
KRDR,08-29-2020,23:56,METAR,Normal,190,7.0,,,9999.0,,22.9,11.6,29.86,1011.7,,,,,,,,,,,,,,,2/8 Mostly Clear,72000.0,6500.0,FEW,6500.0,,,,,,
KRDR,08-29-2020,22:56,METAR,Normal,130,4.0,,,9999.0,,23.6,10.3,29.87,1012.0,,,,,,,,,,,,,,,Clear,72000.0,,,,,,,,,
KRDR,08-29-2020,21:56,METAR,Calm,,0.0,,,9999.0,,23.9,9.8,29.89,1012.7,,,,,,,,,,,,,,,Clear,72000.0,,,,,,,,,
KRDR,08-29-2020,20:56,METAR,Calm,,0.0,,,9999.0,,23.7,10.0,29.91,1013.3,,,,,,,,,,,,,,,Clear,72000.0,,,,,,,,,
KRDR,08-29-2020,19:56,METAR,Normal,160,3.0,,,9999.0,,23.5,10.2,29.93,1014.0,,,,,,,,,,,,,,,,6000.0,6000.0,BKN,6000.0,,,,,,
KRDR,08-29-2020,18:56,METAR,Calm,,0.0,,,9999.0,,23.3,10.7,29.95,1014.7,,,,,,,,,,,,,,,,5500.0,5500.0,BKN,5500.0,,,,,,
KRDR,08-29-2020,17:56,METAR,Normal,340,3.0,,,9999.0,,23.4,11.4,29.96,1015.0,,,,,,,,,,,,,,,2/8 Mostly Clear,72000.0,4500.0,FEW,4500.0,,,,,,
KRDR,08-29-2020,16:56,METAR,Normal,350,3.0,,,9999.0,,22.1,13.2,29.98,1015.7,,,,,,,,,,,,,,,Clear,72000.0,,,,,,,,,
KRDR,08-29-2020,15:56,METAR,Normal,20,3.0,,,9999.0,,20.6,14.2,29.98,1015.7,,,,,,,,,,,,,,,Clear,72000.0,,,,,,,,,
KRDR,08-29-2020,14:56,METAR,Normal,360,4.0,,,9999.0,,18.1,13.6,29.99,1016.1,,,,,,,,,,,,,,,Clear,72000.0,,,,,,,,,
KRDR,08-29-2020,13:56,METAR,Normal,340,5.0,,,9999.0,,16.2,12.9,29.98,1015.8,,,,,,,,,,,,,,,Clear,72000.0,,,,,,,,,
KRDR,08-29-2020,12:56,METAR,Normal,300,5.0,,,9999.0,,12.4,11.8,29.98,1015.8,,,,,,,,,,,,,,,Clear,72000.0,,,,,,,,,
KRDR,08-29-2020,11:56,METAR,Calm,,0.0,,,9999.0,,8.6,8.6,29.97,1015.4,,,,,,,,,,,,,,,Clear,72000.0,,,,,,,,,
KRDR,08-29-2020,10:56,METAR,Normal,300,5.0,,,9999.0,,9.2,9.2,29.96,1015.1,,,,,,,,,,,,,,,Clear,72000.0,,,,,,,,,
KRDR,08-29-2020,09:56,METAR,Normal,300,5.0,,,9999.0,,9.3,9.1,29.95,1014.8,,,,,,,,,,,,,,,Clear,72000.0,,,,,,,,,
KRDR,08-29-2020,08:56,METAR,Normal,300,6.0,,,9999.0,,10.4,9.8,29.94,1014.4,,,,,,,,,,,,,,,Clear,72000.0,,,,,,,,,
KRDR,08-29-2020,07:56,METAR,Normal,320,5.0,,,9999.0,,10.9,9.8,29.94,1014.4,,,,,,,,,,,,,,,Clear,72000.0,,,,,,,,,
KRDR,08-29-2020,06:56,METAR,Normal,330,5.0,,,9999.0,,11.1,10.0,29.94,1014.4,,,,,,,,,,,,,,,Clear,72000.0,,,,,,,,,
KRDR,08-29-2020,05:56,METAR,Normal,310,6.0,,,9999.0,,11.8,10.0,29.94,1014.4,,,,,,,,,,,,,,,Clear,72000.0,,,,,,,,,
KRDR,08-29-2020,04:56,METAR,Normal,310,6.0,,,9999.0,,12.9,10.3,29.93,1014.1,,,,,,,,,,,,,,,Clear,72000.0,,,,,,,,,
KRDR,08-29-2020,03:56,METAR,Normal,320,6.0,,,9999.0,,14.2,10.6,29.92,1013.6,,,,,,,,,,,,,,,Clear,72000.0,,,,,,,,,
KRDR,08-29-2020,02:56,METAR,Normal,320,5.0,,,9999.0,,14.5,10.1,29.91,1013.3,,,,,,,,,,,,,,,Clear,72000.0,,,,,,,,,
KRDR,08-29-2020,01:56,METAR,Normal,330,7.0,,,9999.0,,15.8,10.3,29.90,1012.9,,,,,,,,,,,,,,,Clear,72000.0,,,,,,,,,
KRDR,08-29-2020,00:56,METAR,Normal,330,7.0,,,9999.0,,19.9,9.5,29.88,1012.2,,,,,,,,,,,,,,,Clear,72000.0,,,,,,,,,
KRDR,08-28-2020,23:56,METAR,Normal,340,9.0,,,9999.0,,22.0,10.2,29.87,1011.8,,,,,,,,,,,,,,,Clear,72000.0,,,,,,,,,
KRDR,08-28-2020,22:56,METAR,Normal,350,15.0,22.0,,9999.0,,23.2,8.5,29.87,1011.8,,,,,,,,,,,,,,,2/8 Mostly Clear,72000.0,7000.0,FEW,7000.0,,,,,,
KRDR,08-28-2020,21:56,METAR,Normal,350,19.0,23.0,,9999.0,,23.8,9.7,29.86,1011.4,,,,,,,,,,,,,,,4/8 Partly Cloudy,72000.0,6000.0,SCT,6000.0,,,,,,
KRDR,08-28-2020,20:56,METAR,Normal,340,16.0,24.0,330/27KTS,9999.0,,23.8,10.8,29.85,1011.1,,,,,,,,,,,,,,,2/8 Mostly Clear,72000.0,5500.0,FEW,5500.0,,,,,,
KRDR,08-28-2020,19:56,METAR,Normal,360,16.0,23.0,360/27KTS,9999.0,,23.6,12.2,29.84,1010.8,,,,,,,,,,,,,,,4/8 Partly Cloudy,72000.0,4900.0,SCT,4900.0,,,,,,
KRDR,08-28-2020,18:56,METAR,Normal,10,18.0,22.0,340/26KTS,9999.0,,22.4,14.2,29.83,1010.5,,,,,,,,,,,,,,,4/8 Partly Cloudy,72000.0,4300.0,SCT,4300.0,,,,,,
KRDR,08-28-2020,17:56,METAR,Normal,10,17.0,24.0,340/29KTS,9999.0,,21.5,15.3,29.82,1010.2,,,,,,,,,,,,,,,4/8 Partly Cloudy,72000.0,3000.0,SCT,3000.0,SCT,5000.0,,,,
KRDR,08-28-2020,16:56,METAR,Normal,340,16.0,,340/31KTS,9999.0,,19.5,16.7,29.80,1009.5,,,,,,,,,,,,,,,,2200.0,2200.0,BKN,2200.0,OVC,2900.0,,,,
KRDR,08-28-2020,16:47,SPECI,Normal,350,17.0,31.0,,9999.0,,20.0,17.0,29.80,1009.5,,,,,,,,,,,,,,,,2200.0,2200.0,BKN,2200.0,OVC,3500.0,,,,
KRDR,08-28-2020,15:56,METAR,Normal,340,15.0,24.0,,9999.0,,21.2,18.6,29.76,1008.1,,,,,,,,,,,,,,,,2200.0,1500.0,SCT,1500.0,BKN,2200.0,OVC,3300.0,,
KRDR,08-28-2020,15:36,SPECI,Normal,340,16.0,,,9999.0,,22.0,19.0,29.76,1008.0,,,,,,,,,,,,,,,,2900.0,1500.0,SCT,1500.0,BKN,2900.0,OVC,3600.0,,
KRDR,08-28-2020,14:56,METAR,Normal,320,14.0,,,9999.0,,21.6,19.1,29.74,1007.4,,,,,,,,,,,,,,,,2700.0,2000.0,SCT,2000.0,BKN,2700.0,BKN,12000.0,,
KRDR,08-28-2020,14:37,SPECI,Normal,320,10.0,,,9999.0,,21.0,19.0,29.74,1007.4,,,,,,,,,,,,,,,,2800.0,1900.0,SCT,1900.0,BKN,2800.0,BKN,11000.0,,
KRDR,08-28-2020,13:56,METAR,Normal,290,6.0,,,9999.0,,19.2,19.2,29.73,1007.1,,,,,,,,,,,,,,,Clear,72000.0,,,,,,,,,
KRDR,08-28-2020,12:56,METAR,Normal,240,3.0,,,9999.0,,16.9,16.9,29.73,1007.1,,,,,,,,,,,,,,,2/8 Mostly Clear,72000.0,8000.0,FEW,8000.0,FEW,10000.0,,,,
KRDR,08-28-2020,11:56,METAR,Normal,240,3.0,,,9999.0,,15.8,15.8,29.74,1007.4,,,,,,,,,,,,,,,,14000.0,7000.0,FEW,7000.0,OVC,14000.0,,,,
KRDR,08-28-2020,10:56,METAR,Calm,,0.0,,,9999.0,,15.6,15.6,29.73,1007.1,,,,,,,,,,,,,,,,14000.0,7000.0,FEW,7000.0,OVC,14000.0,,,,
KRDR,08-28-2020,09:56,METAR,Normal,340,5.0,,,9999.0,,16.1,16.1,29.73,1007.1,,,,,,,,,,,,,,,,22000.0,10000.0,FEW,10000.0,BKN,22000.0,,,,
KRDR,08-28-2020,08:56,METAR,Normal,280,6.0,,,9999.0,,16.0,16.0,29.75,1007.7,,,,,,,,,,,,,,,,7500.0,7500.0,OVC,7500.0,,,,,,
KRDR,08-28-2020,07:56,METAR,Normal,310,4.0,,,9999.0,,15.0,15.0,29.75,1007.8,,,,,,,,,,,,,,,Clear,72000.0,,,,,,,,,
KRDR,08-28-2020,06:56,METAR,Calm,,0.0,,,9999.0,,14.8,14.8,29.75,1007.8,,,,,,,,,,,,,,,Clear,72000.0,,,,,,,,,
KRDR,08-28-2020,05:56,METAR,Calm,,0.0,,,9999.0,,14.1,14.1,29.76,1008.2,,,,,,,,,,,,,TRACE,,Clear,72000.0,,,,,,,,,
KRDR,08-28-2020,04:56,METAR,Normal,110,3.0,,,9999.0,,16.1,16.1,29.75,1007.8,,,,,,,,,,,,,,,Clear,72000.0,,,,,,,,,
KRDR,08-28-2020,03:56,METAR,Normal,110,3.0,,,9999.0,,17.8,17.3,29.79,1009.1,,,,,,,,,,,TRACE,,,,2/8 Mostly Clear,72000.0,10000.0,FEW,10000.0,,,,,,
KRDR,08-28-2020,03:46,SPECI,Normal,130,4.0,,,9999.0,,18.0,17.0,29.79,1009.1,,,,,,,,,,,,,,,2/8 Mostly Clear,72000.0,10000.0,FEW,10000.0,,,,,,
KRDR,08-28-2020,03:45,SPECI,Normal,130,4.0,,,9999.0,Light Drizzle,18.0,17.0,29.79,1009.1,51,,,,,,,,,,,,,,2/8 Mostly Clear,72000.0,10000.0,FEW,10000.0,,,,,,
KRDR,08-28-2020,02:56,METAR,Normal,150,6.0,,,9999.0,,18.9,17.7,29.82,1010.1,,,,,,,,,,,,TRACE,,,,12000.0,10000.0,FEW,10000.0,OVC,12000.0,,,,
KRDR,08-28-2020,01:56,METAR,Calm,,0.0,,,9999.0,,18.4,18.4,29.82,1010.3,,,,,,,,,,,,,,,,10000.0,10000.0,BKN,10000.0,BKN,14000.0,,,,
KRDR,08-28-2020,00:56,METAR,Normal,130,4.0,,,9999.0,,20.4,18.7,29.82,1010.3,,,,,,,,,,,TRACE,,,,,10000.0,10000.0,OVC,10000.0,,,,,,
KRDR,08-28-2020,00:23,SPECI,Normal,110,5.0,,,9999.0,,20.0,19.0,29.81,1009.9,,,,,,,,,,,,,,,,10000.0,10000.0,BKN,10000.0,,,,,,
KRDR,08-27-2020,23:56,METAR,Normal,140,5.0,,,9999.0,Light Rain,21.3,19.0,29.83,1010.6,61,,,,,,,,,,TRACE,,TRACE,,4/8 Partly Cloudy,72000.0,9000.0,FEW,9100.0,SCT,11000.0,,,,
KRDR,08-27-2020,23:03,SPECI,Normal,150,3.0,,,9999.0,,22.0,19.0,29.86,1011.6,,,,,,,,,,,,,,,,10000.0,10000.0,OVC,10000.0,,,,,,
KRDR,08-27-2020,22:56,METAR,Normal,130,5.0,,,9999.0,Light Rain,21.5,18.3,29.85,1011.3,61,,,,,,,,,,TRACE,,,,2/8 Mostly Clear,72000.0,10000.0,FEW,10000.0,,,,,,
KRDR,08-27-2020,22:55,SPECI,Normal,130,5.0,,,9999.0,Light Rain,22.0,18.0,29.85,1011.3,61,,,,,,,,,,,,,,2/8 Mostly Clear,72000.0,10000.0,FEW,10000.0,,,,,,
KRDR,08-27-2020,22:45,SPECI,Normal,120,6.0,,,9999.0,,22.0,18.0,29.86,1011.7,,,,,,,,,,,,,,,2/8 Mostly Clear,72000.0,5500.0,FEW,5500.0,,,,,,
KRDR,08-27-2020,22:35,SPECI,Normal,110,4.0,,,9999.0,Light Rain,22.0,18.0,29.87,1012.0,61,,,,,,,,,,,,,,4/8 Partly Cloudy,72000.0,2900.0,FEW,2900.0,FEW,4200.0,FEW,5500.0,SCT,10000.0
KRDR,08-27-2020,21:56,METAR,Normal,80,3.0,,,9999.0,,22.6,17.1,29.88,1012.3,,,,,,,,,,,TRACE,,,,2/8 Mostly Clear,72000.0,11000.0,FEW,11000.0,,,,,,
KRDR,08-27-2020,21:43,SPECI,Normal,120,3.0,,,9999.0,,23.0,17.0,29.88,1012.3,,,,,,,,,,,,,,,2/8 Mostly Clear,72000.0,11000.0,FEW,11000.0,,,,,,
KRDR,08-27-2020,21:30,SPECI,Calm,,0.0,,,9999.0,Light Drizzle,23.0,16.0,29.88,1012.2,51,,,,,,,,,,,,,,2/8 Mostly Clear,72000.0,12000.0,FEW,12000.0,,,,,,
KRDR,08-27-2020,20:56,METAR,Calm,,0.0,,,9999.0,,23.1,16.6,29.88,1012.2,,,,,,,,,,,,,,,4/8 Partly Cloudy,72000.0,9000.0,FEW,9100.0,SCT,12000.0,SCT,17000.0,,
KRDR,08-27-2020,19:56,METAR,Normal,220,3.0,,,9999.0,,23.0,16.5,29.92,1013.6,,,,,,,,,,,,,,,,9000.0,9000.0,BKN,9100.0,BKN,12000.0,OVC,20000.0,,
KRDR,08-27-2020,18:56,METAR,Normal,100,6.0,,,9999.0,,22.6,17.1,29.89,1012.7,,,,,,,,,,,,,,,,20000.0,13000.0,SCT,13000.0,OVC,20000.0,,,,
KRDR,08-27-2020,17:56,METAR,Normal,80,6.0,,,9999.0,,22.2,17.3,29.91,1013.3,,,,,,,,,,,,,,,,20000.0,12000.0,SCT,12000.0,OVC,20000.0,,,,
KRDR,08-27-2020,16:56,METAR,Normal,90,5.0,,,9999.0,,22.4,16.9,29.92,1013.7,,,,,,,,,,,,,,,,20000.0,12000.0,SCT,12000.0,OVC,20000.0,,,,
KRDR,08-27-2020,15:56,METAR,Normal,140,6.0,,,9999.0,,20.7,17.1,29.92,1013.7,,,,,,,,,,,,,,,4/8 Partly Cloudy,72000.0,13000.0,SCT,13000.0,SCT,20000.0,,,,
KRDR,08-27-2020,14:56,METAR,Calm,,0.0,,,9999.0,,18.6,16.2,29.94,1014.4,,,,,,,,,,,,,,,,8000.0,8000.0,BKN,8000.0,,,,,,
KRDR,08-27-2020,13:56,METAR,Calm,,0.0,,,9999.0,,16.6,16.6,29.91,1013.3,,,,,,,,,,,,,,,4/8 Partly Cloudy,72000.0,7000.0,SCT,7000.0,SCT,20000.0,,,,
KRDR,08-27-2020,12:56,METAR,Normal,80,3.0,,,9999.0,,13.9,13.9,29.90,1013.0,,,,,,,,,,,,,,,2/8 Mostly Clear,72000.0,9500.0,FEW,9600.0,,,,,,
KRDR,08-27-2020,11:56,METAR,Normal,70,3.0,,,9999.0,,12.8,12.8,29.91,1013.3,,,,,,,,,,,,,,,,11000.0,11000.0,BKN,11000.0,,,,,,
KRDR,08-27-2020,10:56,METAR,Normal,320,4.0,,,9999.0,,11.1,11.1,29.91,1013.3,,,,,,,,,,,,,,,Clear,72000.0,,,,,,,,,
KRDR,08-27-2020,09:56,METAR,Calm,,0.0,,,9999.0,,11.8,11.8,29.89,1012.6,,,,,,,,,,,,,,,Clear,72000.0,,,,,,,,,
KRDR,08-27-2020,08:56,METAR,Normal,360,3.0,,,9999.0,,12.4,12.4,29.88,1012.2,,,,,,,,,,,,,,,Clear,72000.0,,,,,,,,,
KRDR,08-27-2020,07:56,METAR,Calm,,0.0,,,9999.0,,12.1,12.1,29.87,1012.0,,,,,,,,,,,,,,,Clear,72000.0,,,,,,,,,
KRDR,08-27-2020,06:56,METAR,Calm,,0.0,,,9999.0,,11.5,11.5,29.86,1011.6,,,,,,,,,,,,,,,Clear,72000.0,,,,,,,,,
KRDR,08-27-2020,05:56,METAR,Calm,,0.0,,,9999.0,,12.2,12.2,29.86,1011.6,,,,,,,,,,,,,,,Clear,72000.0,,,,,,,,,
KRDR,08-27-2020,04:56,METAR,Calm,,0.0,,,9999.0,,12.8,12.8,29.85,1011.3,,,,,,,,,,,,,,,Clear,72000.0,,,,,,,,,
KRDR,08-27-2020,03:56,METAR,Calm,,0.0,,,9999.0,,13.5,13.5,29.84,1010.9,,,,,,,,,,,,,,,Clear,72000.0,,,,,,,,,
KRDR,08-27-2020,02:56,METAR,Normal,300,3.0,,,9999.0,,14.5,14.3,29.84,1010.8,,,,,,,,,,,,,,,Clear,72000.0,,,,,,,,,
KRDR,08-27-2020,01:56,METAR,Calm,,0.0,,,9999.0,,16.8,15.0,29.83,1010.5,,,,,,,,,,,,,,,Clear,72000.0,,,,,,,,,
KRDR,08-27-2020,00:56,METAR,Normal,20,3.0,,,9999.0,,19.9,15.7,29.81,1009.7,,,,,,,,,,,,,,,Clear,72000.0,,,,,,,,,
KRDR,08-26-2020,23:56,METAR,Normal,30,7.0,,,9999.0,,23.3,15.3,29.80,1009.4,,,,,,,,,,,,,,,Clear,72000.0,,,,,,,,,
KRDR,08-26-2020,22:56,METAR,Normal,360,9.0,,,9999.0,,24.3,17.5,29.79,1009.0,,,,,,,,,,,,,,,2/8 Mostly Clear,72000.0,17000.0,FEW,17000.0,,,,,,
KRDR,08-26-2020,21:56,METAR,Normal,340,7.0,,,9999.0,,23.7,17.9,29.79,1009.0,,,,,,,,,,,,,,,4/8 Partly Cloudy,72000.0,15000.0,SCT,15000.0,,,,,,
KRDR,08-26-2020,20:56,METAR,Normal,10,7.0,,,9999.0,,23.0,15.8,29.79,1009.0,,,,,,,,,,,,,,,,21000.0,17000.0,SCT,17000.0,BKN,21000.0,,,,
KRDR,08-26-2020,19:56,METAR,Normal,330,10.0,,,9999.0,,22.2,17.1,29.81,1009.7,,,,,,,,,,,,,,,,12000.0,12000.0,BKN,12000.0,OVC,18000.0,,,,
KRDR,08-26-2020,18:56,METAR,Normal,340,11.0,,,9999.0,,23.8,19.3,29.78,1008.6,,,,,,,,,,,,,,,,13000.0,13000.0,BKN,13000.0,OVC,15000.0,,,,
KRDR,08-26-2020,17:57,METAR,Normal,20,14.0,,,9999.0,,23.9,17.8,29.76,1007.9,,,,,,,,,,,,,,,4/8 Partly Cloudy,72000.0,12000.0,FEW,12000.0,SCT,18000.0,,,,
KRDR,08-26-2020,16:56,METAR,Variable,360,8.0,,,9999.0,,21.7,20.5,29.79,1009.0,,,,,,,,,,,,,,,,19000.0,1300.0,FEW,1300.0,BKN,19000.0,,,,
KRDR,08-26-2020,16:36,SPECI,Normal,360,9.0,,,9999.0,,22.0,21.0,29.79,1009.0,,,,,,,,,,,,,,,4/8 Partly Cloudy,72000.0,100.0,SCT,100.0,,,,,,
KRDR,08-26-2020,15:56,METAR,Normal,20,10.0,,,9999.0,,22.2,21.3,29.79,1009.0,,,,,,,,,,,,,,,,1300.0,1300.0,BKN,1300.0,BKN,1900.0,OVC,20000.0,,
KRDR,08-26-2020,15:32,SPECI,Normal,360,12.0,,,9999.0,,22.0,21.0,29.80,1009.3,,,,,,,,,,,,,,,,1400.0,1400.0,BKN,1400.0,OVC,20000.0,,,,
KRDR,08-26-2020,14:08,SPECI,Normal,20,11.0,,,9999.0,,23.0,23.0,29.73,1006.8,,,,,,,,,,,,,,,,1100.0,1100.0,OVC,1100.0,,,,,,
KRDR,08-26-2020,13:56,METAR,Normal,360,5.0,,,9999.0,,21.7,21.7,29.74,1007.2,,,,,,,,,,,,,,,,1200.0,1200.0,BKN,1200.0,OVC,20000.0,,,,
KRDR,08-26-2020,13:36,SPECI,Calm,,0.0,,,9999.0,,21.0,21.0,29.74,1007.2,,,,,,,,,,,,,,,,1300.0,1300.0,BKN,1300.0,,,,,,
KRDR,08-26-2020,13:25,SPECI,Normal,310,3.0,,,9999.0,,21.0,21.0,29.74,1007.2,,,,,,,,,,,,,,,,1400.0,1400.0,BKN,1400.0,OVC,20000.0,,,,
KRDR,08-26-2020,12:56,METAR,Calm,,0.0,,,9999.0,,18.9,18.9,29.72,1006.6,,,,,,,,,,,,,,,Clear,72000.0,,,,,,,,,
KRDR,08-26-2020,11:56,METAR,Normal,260,3.0,,,9999.0,,17.4,17.4,29.70,,,,,,,,,,,,,,TRACE,,Clear,72000.0,,,,,,,,,
KRDR,08-26-2020,10:56,METAR,Normal,200,5.0,,,9999.0,,18.3,18.3,29.70,,,,,,,,,,,,,,,,Clear,72000.0,,,,,,,,,
KRDR,08-26-2020,09:57,METAR,Calm,,0.0,,,9999.0,,19.4,19.4,29.69,1005.4,,,,,,,,,,,,,,,4/8 Partly Cloudy,72000.0,16000.0,FEW,16000.0,SCT,23000.0,,,,
KRDR,08-26-2020,09:11,SPECI,Normal,270,4.0,,,9999.0,,20.0,20.0,29.69,1005.4,,,,,,,,,,,,,,,2/8 Mostly Clear,72000.0,17000.0,FEW,17000.0,,,,,,
KRDR,08-26-2020,08:56,METAR,Normal,310,3.0,,,9999.0,,19.5,19.5,29.70,1005.8,,,,,,,,,,,,,,,Clear,72000.0,,,,,,,,,
KRDR,08-26-2020,08:06,SPECI,Calm,,0.0,,,9999.0,,20.0,20.0,29.68,1005.1,,,,,,,,,,,,,,,4/8 Partly Cloudy,72000.0,2800.0,SCT,2800.0,SCT,3700.0,,,,
KRDR,08-26-2020,07:56,METAR,Calm,,0.0,,,9999.0,,19.9,19.9,29.68,1005.1,,,,,,,,,,,,,,,,2800.0,2800.0,BKN,2800.0,BKN,3800.0,,,,
KRDR,08-26-2020,07:46,SPECI,Normal,300,3.0,,,9999.0,,20.0,20.0,29.70,1005.8,,,,,,,,,,,,,,,,2800.0,2800.0,BKN,2800.0,BKN,3400.0,,,,
KRDR,08-26-2020,06:56,METAR,Calm,,0.0,,,9999.0,,19.9,19.9,29.70,1005.8,,,,,,,,,,,,,,,4/8 Partly Cloudy,72000.0,3200.0,FEW,3200.0,SCT,18000.0,,,,
KRDR,08-26-2020,05:56,METAR,Normal,80,3.0,,,9999.0,,20.6,20.6,29.71,1006.2,,,,,,,,,,,,,,,,3200.0,3200.0,BKN,3200.0,,,,,,
KRDR,08-26-2020,04:56,METAR,Normal,60,3.0,,,9999.0,,21.2,21.2,29.72,1006.6,,,,,,,,,,,,,,,,3800.0,3800.0,BKN,3800.0,BKN,19000.0,,,,
KRDR,08-26-2020,03:56,METAR,Normal,30,5.0,,,9999.0,,21.4,21.4,29.73,1007.0,,,,,,,,,,,,,,,4/8 Partly Cloudy,72000.0,4100.0,FEW,4100.0,SCT,20000.0,,,,
KRDR,08-26-2020,02:57,METAR,Normal,140,4.0,,,9999.0,,23.2,22.3,29.75,1007.6,,,,,,,,,,,,,,,Clear,72000.0,,,,,,,,,
KRDR,08-26-2020,02:56,METAR,Normal,140,4.0,,,9999.0,,23.2,22.3,29.75,1007.6,,,,,,,,,,,,,,,Clear,72000.0,,,,,,,,,
KRDR,08-26-2020,01:56,METAR,Normal,160,7.0,,,9999.0,,24.6,22.6,29.74,1007.3,,,,,,,,,,,,,,,,3200.0,3200.0,BKN,3200.0,,,,,,
KRDR,08-26-2020,00:56,METAR,Normal,150,8.0,,,9999.0,,25.9,23.0,29.74,1007.4,,,,,,,,,,,,,,,2/8 Mostly Clear,72000.0,3200.0,FEW,3200.0,,,,,,
KRDR,08-25-2020,23:56,METAR,Normal,150,8.0,,,9999.0,,27.0,23.0,29.75,1007.8,,,,,,,,,,,,,,,,17000.0,3600.0,FEW,3600.0,BKN,17000.0,,,,
KRDR,08-25-2020,22:56,METAR,Normal,150,7.0,,,9999.0,,27.4,22.5,29.77,1008.4,,,,,,,,,,,,,,,Clear,72000.0,,,,,,,,,
KRDR,08-25-2020,21:56,METAR,Normal,150,7.0,,,9999.0,,29.0,22.5,29.80,1009.4,,,,,,,,,,,,,,,2/8 Mostly Clear,72000.0,18000.0,FEW,18000.0,,,,,,
KRDR,08-25-2020,20:56,METAR,Normal,180,8.0,,,9999.0,,28.0,21.3,29.82,1010.1,,,,,,,,,,,,,,,,20000.0,15000.0,SCT,15000.0,BKN,20000.0,,,,
KRDR,08-25-2020,19:56,METAR,Normal,160,17.0,,,9999.0,,28.6,20.6,29.80,1009.4,,,,,,,,,,,,,,,,20000.0,17000.0,SCT,17000.0,BKN,20000.0,,,,
KRDR,08-25-2020,18:56,METAR,Normal,150,15.0,,,9999.0,,26.9,20.0,29.83,1010.4,,,,,,,,,,,,,,,,17000.0,13000.0,SCT,13000.0,BKN,17000.0,BKN,20000.0,,
KRDR,08-25-2020,17:56,METAR,Normal,140,10.0,,,9999.0,,22.8,18.3,29.86,1011.6,,,,,,,,,,,,,,,,17000.0,17000.0,BKN,17000.0,OVC,20000.0,,,,
KRDR,08-25-2020,16:56,METAR,Normal,160,6.0,,,9999.0,,22.1,17.7,29.91,1013.3,,,,,,,,,,,,,,,,15000.0,15000.0,BKN,15000.0,OVC,20000.0,,,,
KRDR,08-25-2020,15:56,METAR,Normal,140,7.0,,,9999.0,,21.9,17.7,29.92,1013.6,,,,,,,,,,,,,,,,19000.0,19000.0,OVC,19000.0,,,,,,
KRDR,08-25-2020,14:56,METAR,Normal,150,5.0,,,9999.0,,19.9,16.9,29.94,1014.3,,,,,,,,,,,,,,,,20000.0,12000.0,SCT,12000.0,BKN,20000.0,,,,
KRDR,08-25-2020,13:56,METAR,Normal,190,4.0,,,9999.0,,17.6,16.8,29.94,1014.2,,,,,,,,,,,,,,,,20000.0,15000.0,SCT,15000.0,BKN,20000.0,,,,
KRDR,08-25-2020,12:56,METAR,Normal,160,3.0,,,9999.0,,14.4,14.4,29.94,1014.2,,,,,,,,,,,,,,,4/8 Partly Cloudy,72000.0,20000.0,SCT,20000.0,,,,,,
KRDR,08-25-2020,11:56,METAR,Calm,,0.0,,,9999.0,,11.3,11.3,29.95,1014.6,,,,,,,,,,,,,,,2/8 Mostly Clear,72000.0,23000.0,FEW,23000.0,,,,,,
KRDR,08-25-2020,10:56,METAR,Calm,,0.0,,,9999.0,,10.5,10.5,29.95,1014.5,,,,,,,,,,,,,,,Clear,72000.0,,,,,,,,,
KRDR,08-25-2020,09:56,METAR,Calm,,0.0,,,9999.0,,10.6,10.6,29.96,1014.9,,,,,,,,,,,,,,,Clear,72000.0,,,,,,,,,
KRDR,08-25-2020,08:56,METAR,Calm,,0.0,,,9999.0,,10.6,10.6,29.96,1014.9,,,,,,,,,,,,,,,Clear,72000.0,,,,,,,,,
KRDR,08-25-2020,07:56,METAR,Calm,,0.0,,,9999.0,,11.1,11.1,29.96,1014.9,,,,,,,,,,,,,,,Clear,72000.0,,,,,,,,,
KRDR,08-25-2020,06:56,METAR,Calm,,0.0,,,9999.0,,12.6,12.6,29.97,1015.2,,,,,,,,,,,,,,,Clear,72000.0,,,,,,,,,
KRDR,08-25-2020,05:56,METAR,Calm,,0.0,,,9999.0,,13.3,13.3,29.97,1015.2,,,,,,,,,,,,,,,Clear,72000.0,,,,,,,,,
KRDR,08-25-2020,04:56,METAR,Calm,,0.0,,,9999.0,,14.0,13.7,29.97,1015.3,,,,,,,,,,,,,,,Clear,72000.0,,,,,,,,,
KRDR,08-25-2020,03:56,METAR,Normal,170,6.0,,,9999.0,,14.6,14.3,29.96,1014.9,,,,,,,,,,,,,,,Clear,72000.0,,,,,,,,,
KRDR,08-25-2020,02:56,METAR,Normal,180,4.0,,,9999.0,,16.2,15.2,29.97,1015.3,,,,,,,,,,,,,,,Clear,72000.0,,,,,,,,,
KRDR,08-25-2020,01:56,METAR,Normal,170,4.0,,,9999.0,,19.8,15.6,29.97,1015.3,,,,,,,,,,,,,,,Clear,72000.0,,,,,,,,,
KRDR,08-25-2020,00:56,METAR,Normal,150,5.0,,,9999.0,,24.5,14.8,29.95,1014.5,,,,,,,,,,,,,,,Clear,72000.0,,,,,,,,,
KRDR,08-24-2020,23:56,METAR,Normal,160,6.0,,,9999.0,,27.4,11.8,29.96,1014.9,,,,,,,,,,,,,,,Clear,72000.0,,,,,,,,,
KRDR,08-24-2020,22:56,METAR,Normal,160,10.0,,,9999.0,,28.5,12.0,29.96,1014.8,,,,,,,,,,,,,,,Clear,72000.0,,,,,,,,,
KRDR,08-24-2020,21:56,METAR,Normal,160,9.0,,,9999.0,,29.1,11.6,29.97,1015.1,,,,,,,,,,,,,,,Clear,72000.0,,,,,,,,,
KRDR,08-24-2020,20:56,METAR,Normal,150,8.0,,,9999.0,,28.9,11.4,29.98,1015.4,,,,,,,,,,,,,,,Clear,72000.0,,,,,,,,,
KRDR,08-24-2020,19:56,METAR,Normal,160,8.0,,,9999.0,,28.7,10.8,29.98,1015.4,,,,,,,,,,,,,,,Clear,72000.0,,,,,,,,,
KRDR,08-24-2020,18:56,METAR,Normal,140,5.0,,,9999.0,,27.7,12.1,30.00,1016.0,,,,,,,,,,,,,,,2/8 Mostly Clear,72000.0,8000.0,FEW,8000.0,FEW,20000.0,,,,
KRDR,08-24-2020,17:56,METAR,Normal,170,6.0,,,9999.0,,26.4,12.8,30.01,1016.4,,,,,,,,,,,,,,,2/8 Mostly Clear,72000.0,8000.0,FEW,8000.0,,,,,,
KRDR,08-24-2020,16:56,METAR,Normal,150,6.0,,,9999.0,,24.7,13.9,30.02,1016.8,,,,,,,,,,,,,,,Clear,72000.0,,,,,,,,,
KRDR,08-24-2020,15:56,METAR,Normal,180,6.0,,,9999.0,,23.1,15.4,30.02,1016.8,,,,,,,,,,,,,,,Clear,72000.0,,,,,,,,,
KRDR,08-24-2020,14:56,METAR,Normal,170,3.0,,,9999.0,,21.1,17.1,30.02,1016.9,,,,,,,,,,,,,,,Clear,72000.0,,,,,,,,,
KRDR,08-24-2020,13:56,METAR,Calm,,0.0,,,9999.0,,18.8,18.5,30.01,1016.6,,,,,,,,,,,,,,,Clear,72000.0,,,,,,,,,
KRDR,08-24-2020,12:56,METAR,Calm,,0.0,,,9999.0,,14.6,14.6,30.00,1016.3,,,,,,,,,,,,,,,Clear,72000.0,,,,,,,,,
KRDR,08-24-2020,11:56,METAR,Normal,360,5.0,,,9999.0,,12.5,12.5,30.01,1016.7,,,,,,,,,,,,,,,Clear,72000.0,,,,,,,,,
KRDR,08-24-2020,10:56,METAR,Normal,200,4.0,,,9999.0,,13.6,13.6,30.01,1016.6,,,,,,,,,,,,,,,Clear,72000.0,,,,,,,,,
KRDR,08-24-2020,10:06,SPECI,Normal,10,7.0,,,9999.0,,14.0,14.0,29.99,1015.9,,,,,,,,,,,,,,,4/8 Partly Cloudy,72000.0,2300.0,SCT,2300.0,,,,,,
KRDR,08-24-2020,09:56,METAR,Normal,10,7.0,,,9999.0,,13.5,13.5,30.00,1016.3,,,,,,,,,,,,,,,,2300.0,2300.0,BKN,2300.0,,,,,,
KRDR,08-24-2020,09:46,SPECI,Normal,360,5.0,,,9999.0,,14.0,14.0,30.00,1016.3,,,,,,,,,,,,,,,,2300.0,2300.0,BKN,2300.0,,,,,,
KRDR,08-24-2020,08:56,METAR,Normal,350,3.0,,,9999.0,,15.1,15.1,29.99,1015.9,,,,,,,,,,,,,,,Clear,72000.0,,,,,,,,,
KRDR,08-24-2020,07:56,METAR,Normal,350,4.0,,,9999.0,,16.3,16.3,29.98,1015.4,,,,,,,,,,,,,,,Clear,72000.0,,,,,,,,,
KRDR,08-24-2020,06:56,METAR,Normal,330,5.0,,,9999.0,,18.0,18.0,29.99,1015.7,,,,,,,,,,,,,,,2/8 Mostly Clear,72000.0,13000.0,FEW,13000.0,,,,,,
KRDR,08-24-2020,05:56,METAR,Normal,320,4.0,,,9999.0,,17.8,17.8,29.99,1015.7,,,,,,,,,,,,,TRACE,,2/8 Mostly Clear,72000.0,13000.0,FEW,13000.0,,,,,,
KRDR,08-24-2020,04:56,METAR,Normal,300,4.0,,,9999.0,,18.0,18.0,29.98,1015.4,,,,,,,,,,,,,,,Clear,72000.0,,,,,,,,,
KRDR,08-24-2020,03:56,METAR,Normal,330,3.0,,,9999.0,,19.1,19.1,29.95,1014.4,,,,,,,,,,,,,,,,13000.0,13000.0,OVC,13000.0,,,,,,
KRDR,08-24-2020,02:56,METAR,Normal,350,7.0,,,9999.0,,19.6,19.6,29.93,1013.8,,,,,,,,,,,,TRACE,,,,16000.0,14000.0,SCT,14000.0,BKN,16000.0,,,,
KRDR,08-24-2020,01:56,METAR,Normal,360,10.0,17.0,,9999.0,,20.4,20.4,29.92,1013.5,,,,,,,,,,,TRACE,,,,4/8 Partly Cloudy,72000.0,14000.0,SCT,14000.0,,,,,,
KRDR,08-24-2020,01:41,SPECI,Normal,350,10.0,,,9999.0,,20.0,20.0,29.92,1013.5,,,,,,,,,,,,,,,4/8 Partly Cloudy,72000.0,3500.0,FEW,3500.0,SCT,15000.0,,,,
KRDR,08-24-2020,01:10,SPECI,Normal,350,10.0,,,9999.0,Light Rain,21.0,21.0,29.93,1013.9,61,,,,,,,,,,,,,,,14000.0,2900.0,SCT,2900.0,BKN,14000.0,,,,
KRDR,08-24-2020,00:56,METAR,Normal,40,4.0,,,9999.0,,21.1,21.1,29.88,1012.2,,,,,,,,,,,,,,,4/8 Partly Cloudy,72000.0,13000.0,SCT,13000.0,,,,,,
KRDR,08-23-2020,23:56,METAR,Normal,30,5.0,,,9999.0,,21.2,21.2,29.88,1012.3,,,,,,,,,,,TRACE,,TRACE,,Clear,72000.0,,,,,,,,,
KRDR,08-23-2020,22:56,METAR,Normal,310,9.0,,,9999.0,,23.0,20.3,29.95,1014.6,,,,,,,,,,,,,,,Clear,72000.0,,,,,,,,,
KRDR,08-23-2020,21:56,METAR,Normal,290,10.0,,,9999.0,,24.3,20.8,29.93,1013.9,,,,,,,,,,,,,,,4/8 Partly Cloudy,72000.0,16000.0,SCT,16000.0,SCT,18000.0,,,,
KRDR,08-23-2020,20:56,METAR,Normal,300,8.0,,,9999.0,,25.2,20.8,29.88,1012.1,,,,,,,,,,,,,,,2/8 Mostly Clear,72000.0,16000.0,FEW,16000.0,,,,,,
KRDR,08-23-2020,19:56,METAR,Normal,280,11.0,,,9999.0,,27.5,20.8,29.88,1012.1,,,,,,,,,,,,,,,4/8 Partly Cloudy,72000.0,14000.0,FEW,14000.0,SCT,17000.0,SCT,19000.0,,
KRDR,08-23-2020,18:56,METAR,Normal,210,6.0,,,9999.0,,29.8,22.7,29.85,1010.9,,,,,,,,,,,,,,,2/8 Mostly Clear,72000.0,20000.0,FEW,20000.0,,,,,,
KRDR,08-23-2020,17:56,METAR,Normal,220,7.0,,,9999.0,,28.8,22.3,29.85,1010.9,,,,,,,,,,,,,,,2/8 Mostly Clear,72000.0,18000.0,FEW,18000.0,,,,,,
KRDR,08-23-2020,16:56,METAR,Normal,190,8.0,,,9999.0,,27.1,21.8,29.88,1012.0,,,,,,,,,,,,,,,Clear,72000.0,,,,,,,,,
KRDR,08-23-2020,15:56,METAR,Normal,200,7.0,,,9999.0,,25.3,21.2,29.88,1012.1,,,,,,,,,,,,,,,Clear,72000.0,,,,,,,,,
KRDR,08-23-2020,14:56,METAR,Normal,160,7.0,,,9999.0,,22.5,21.6,29.88,1012.1,,,,,,,,,,,,,,,Clear,72000.0,,,,,,,,,
KRDR,08-23-2020,13:56,METAR,Normal,140,3.0,,,9999.0,,18.7,18.7,29.89,1012.5,,,,,,,,,,,,,,,Clear,72000.0,,,,,,,,,
KRDR,08-23-2020,12:56,METAR,Calm,,0.0,,,9999.0,Mist,15.3,15.3,29.90,1012.8,10,,,,,,,,,,,,,,2/8 Mostly Clear,72000.0,13000.0,FEW,13000.0,,,,,,
KRDR,08-23-2020,11:56,METAR,Calm,,0.0,,,9999.0,Mist,12.7,12.7,29.88,1012.1,10,,,,,,,,,,,,,,4/8 Partly Cloudy,72000.0,1000.0,FEW,1000.0,SCT,7000.0,,,,
KRDR,08-23-2020,11:16,SPECI,Calm,,0.0,,,9999.0,Mist,13.0,13.0,29.88,1012.1,10,,,,,,,,,,,,,,4/8 Partly Cloudy,72000.0,1000.0,FEW,1000.0,SCT,7000.0,,,,
KRDR,08-23-2020,10:56,METAR,Calm,,0.0,,,9999.0,Mist,14.1,14.1,29.87,1011.7,10,,,,,,,,,,,,,,4/8 Partly Cloudy,72000.0,1000.0,FEW,1000.0,SCT,7000.0,,,,
KRDR,08-23-2020,09:56,METAR,Calm,,0.0,,,9999.0,Mist,14.4,14.4,29.87,1011.7,10,,,,,,,,,,,,,,4/8 Partly Cloudy,72000.0,1000.0,SCT,1000.0,,,,,,
KRDR,08-23-2020,08:56,METAR,Normal,300,3.0,,,9999.0,Mist,14.4,14.4,29.87,1011.7,10,,,,,,,,,,,,,,2/8 Mostly Clear,72000.0,1000.0,FEW,1000.0,,,,,,
KRDR,08-23-2020,07:56,METAR,Calm,,0.0,,,9999.0,Mist,14.3,14.3,29.86,1011.4,10,,,,,,,,,,,,,,4/8 Partly Cloudy,72000.0,1000.0,SCT,1000.0,,,,,,
KRDR,08-23-2020,06:56,METAR,Normal,300,3.0,,,9999.0,,15.1,15.1,29.86,1011.3,,,,,,,,,,,,,,,2/8 Mostly Clear,72000.0,1000.0,FEW,1000.0,,,,,,
KRDR,08-23-2020,05:56,METAR,Calm,,0.0,,,9999.0,,16.0,16.0,29.87,1011.7,,,,,,,,,,,,,,,2/8 Mostly Clear,72000.0,1000.0,FEW,1000.0,,,,,,
KRDR,08-23-2020,04:56,METAR,Calm,,0.0,,,9999.0,,16.7,16.7,29.87,1011.7,,,,,,,,,,,,,,,2/8 Mostly Clear,72000.0,1000.0,FEW,1000.0,,,,,,
KRDR,08-23-2020,03:56,METAR,Calm,,0.0,,,9999.0,,17.8,17.8,29.87,1011.7,,,,,,,,,,,,,,,2/8 Mostly Clear,72000.0,1000.0,FEW,1000.0,,,,,,
KRDR,08-23-2020,02:56,METAR,Normal,30,5.0,,,9999.0,,19.2,19.2,29.87,1011.7,,,,,,,,,,,,,,,Clear,72000.0,,,,,,,,,
KRDR,08-23-2020,01:56,METAR,Normal,30,5.0,,,9999.0,,21.4,20.4,29.85,1011.0,,,,,,,,,,,,,,,Clear,72000.0,,,,,,,,,
KRDR,08-23-2020,00:56,METAR,Normal,30,6.0,,,9999.0,,25.6,21.0,29.83,1010.3,,,,,,,,,,,,,,,Clear,72000.0,,,,,,,,,
KRDR,08-22-2020,23:56,METAR,Normal,40,5.0,,,9999.0,,27.8,20.6,29.81,1009.6,,,,,,,,,,,,,,,Clear,72000.0,,,,,,,,,
KRDR,08-22-2020,22:56,METAR,Normal,10,6.0,,,9999.0,,28.7,19.6,29.81,1009.6,,,,,,,,,,,,,,,2/8 Mostly Clear,72000.0,5000.0,FEW,5000.0,,,,,,
KRDR,08-22-2020,21:56,METAR,Normal,340,7.0,,,9999.0,,29.0,20.1,29.81,1009.5,,,,,,,,,,,,,,,2/8 Mostly Clear,72000.0,4800.0,FEW,4800.0,,,,,,
KRDR,08-22-2020,20:56,METAR,Normal,340,7.0,,,9999.0,,29.0,20.9,29.81,1009.6,,,,,,,,,,,,,,,Clear,72000.0,,,,,,,,,
KRDR,08-22-2020,19:56,METAR,Normal,360,5.0,,,9999.0,,28.7,20.4,29.81,1009.6,,,,,,,,,,,,,,,Clear,72000.0,,,,,,,,,
KRDR,08-22-2020,18:56,METAR,Normal,330,8.0,,,9999.0,,28.8,20.0,29.81,1009.6,,,,,,,,,,,,,,,Clear,72000.0,,,,,,,,,
KRDR,08-22-2020,17:56,METAR,Normal,10,6.0,,,9999.0,,27.7,20.7,29.81,1009.6,,,,,,,,,,,,,,,Clear,72000.0,,,,,,,,,
KRDR,08-22-2020,16:56,METAR,Normal,340,5.0,,,9999.0,,26.9,20.9,29.81,1009.6,,,,,,,,,,,,,,,Clear,72000.0,,,,,,,,,
KRDR,08-22-2020,15:56,METAR,Normal,340,5.0,,,9999.0,,25.5,20.7,29.80,1009.3,,,,,,,,,,,,,,,Clear,72000.0,,,,,,,,,
KRDR,08-22-2020,14:56,METAR,Normal,10,6.0,,,9999.0,,23.5,20.8,29.80,1009.3,,,,,,,,,,,,,,,Clear,72000.0,,,,,,,,,
KRDR,08-22-2020,13:56,METAR,Normal,360,6.0,,,9999.0,,21.8,21.8,29.79,1009.0,,,,,,,,,,,,,,,Clear,72000.0,,,,,,,,,
KRDR,08-22-2020,12:56,METAR,Normal,320,3.0,,,9999.0,,19.8,19.8,29.78,1008.6,,,,,,,,,,,,,,,Clear,72000.0,,,,,,,,,
KRDR,08-22-2020,12:46,SPECI,Calm,,0.0,,,8000.0,Mist,19.0,19.0,29.78,1008.6,10,,,,,,,,,,,,,,Clear,72000.0,,,,,,,,,
KRDR,08-22-2020,12:36,SPECI,Calm,,0.0,,,2600.0,Mist,19.0,19.0,29.78,1008.7,10,,,,,,,,,,,,,,Clear,72000.0,,,,,,,,,
KRDR,08-22-2020,11:56,METAR,Normal,310,4.0,,,9999.0,Mist,17.2,17.2,29.76,1008.0,10,,,,,,,,,,,,,.01 IN,Clear,72000.0,,,,,,,,,
KRDR,08-22-2020,10:56,METAR,Normal,240,3.0,,,9999.0,,17.1,17.1,29.75,1007.7,,,,,,,,,,,,,,,Clear,72000.0,,,,,,,,,
KRDR,08-22-2020,09:56,METAR,Normal,200,3.0,,,9999.0,,18.1,18.1,29.75,1007.6,,,,,,,,,,,,,,,Clear,72000.0,,,,,,,,,
KRDR,08-22-2020,08:56,METAR,Normal,180,4.0,,,9999.0,,17.7,17.7,29.75,1007.6,,,,,,,,,,,,,,,Clear,72000.0,,,,,,,,,
KRDR,08-22-2020,07:56,METAR,Normal,220,3.0,,,9999.0,,17.5,17.5,29.75,1007.5,,,,,,,,,,,,,,,Clear,72000.0,,,,,,,,,
KRDR,08-22-2020,06:56,METAR,Normal,200,3.0,,,9999.0,,17.8,17.8,29.75,1007.5,,,,,,,,,,,,,,,Clear,72000.0,,,,,,,,,
KRDR,08-22-2020,05:56,METAR,Normal,240,3.0,,,9999.0,,17.8,17.8,29.76,1007.9,,,,,,,,,,,,,,,Clear,72000.0,,,,,,,,,
KRDR,08-22-2020,04:56,METAR,Normal,150,3.0,,,9999.0,,18.5,18.5,29.76,1007.9,,,,,,,,,,,,,,,Clear,72000.0,,,,,,,,,
KRDR,08-22-2020,03:56,METAR,Calm,,0.0,,,9999.0,,17.7,17.7,29.77,1008.3,,,,,,,,,,,,,,,2/8 Mostly Clear,72000.0,12000.0,FEW,12000.0,,,,,,
KRDR,08-22-2020,02:56,METAR,Calm,,0.0,,,9999.0,,19.8,19.8,29.78,1008.7,,,,,,,,,,,,,,,Clear,72000.0,,,,,,,,,
KRDR,08-22-2020,01:56,METAR,Normal,240,4.0,,,9999.0,,21.4,21.4,29.76,1008.0,,,,,,,,,,,,,,,Clear,72000.0,,,,,,,,,
KRDR,08-22-2020,00:56,METAR,Normal,290,3.0,,,9999.0,,23.8,22.6,29.72,1006.6,,,,,,,,,,,,,,,4/8 Partly Cloudy,72000.0,13000.0,SCT,13000.0,,,,,,
KRDR,08-21-2020,23:56,METAR,Normal,260,3.0,,,9999.0,,23.8,22.0,29.73,1007.0,,,,,,,,,,,TRACE,,.02 IN,,4/8 Partly Cloudy,72000.0,13000.0,SCT,13000.0,,,,,,
KRDR,08-21-2020,23:01,SPECI,Normal,70,5.0,,,9999.0,,23.0,21.0,29.74,1007.4,,,,,,,,,,,,,,,2/8 Mostly Clear,72000.0,5500.0,FEW,5500.0,FEW,10000.0,,,,
KRDR,08-21-2020,22:56,METAR,Normal,90,7.0,,,9999.0,Light Rain,23.3,21.4,29.75,1007.8,61,,,,,,,,,,.02 IN,,,,,6000.0,2900.0,FEW,2900.0,BKN,6000.0,BKN,10000.0,,
KRDR,08-21-2020,22:29,SPECI,Normal,330,5.0,,,9999.0,Light Rain,24.0,20.0,29.78,1008.7,61,,,,,,,,,,,,,,,7500.0,4000.0,SCT,4000.0,BKN,7500.0,OVC,18000.0,,
KRDR,08-21-2020,21:56,METAR,Normal,290,6.0,,,9999.0,,24.7,21.0,29.80,1009.3,,,,,,,,,,,,,,,,4000.0,3100.0,FEW,3100.0,BKN,4000.0,OVC,18000.0,,
KRDR,08-21-2020,20:56,METAR,Normal,330,6.0,,,9999.0,,26.8,23.8,29.78,1008.6,,,,,,,,,,,,,,,,18000.0,1000.0,FEW,1000.0,FEW,3000.0,OVC,18000.0,,
KRDR,08-21-2020,19:56,METAR,Normal,310,5.0,,,9999.0,,27.7,23.7,29.79,1008.9,,,,,,,,,,,,,,,,20000.0,3000.0,SCT,3000.0,FEW,3500.0,BKN,20000.0,,
KRDR,08-21-2020,18:56,METAR,Calm,,0.0,,,9999.0,,27.9,23.7,29.77,1008.2,,,,,,,,,,,,,,,,20000.0,2800.0,SCT,2800.0,BKN,20000.0,,,,
KRDR,08-21-2020,18:06,SPECI,Normal,200,6.0,,,9999.0,,28.0,24.0,29.76,1007.9,,,,,,,,,,,,,,,,2300.0,2300.0,BKN,2300.0,,,,,,
KRDR,08-21-2020,17:56,METAR,Normal,180,4.0,,,9999.0,,27.6,24.0,29.75,1007.5,,,,,,,,,,,,,,,,7000.0,7000.0,BKN,7000.0,BKN,15000.0,,,,
KRDR,08-21-2020,17:22,SPECI,Normal,150,3.0,,,9999.0,,27.0,24.0,29.77,1008.2,,,,,,,,,,,,,,,,20000.0,1900.0,SCT,1900.0,BKN,20000.0,,,,
KRDR,08-21-2020,16:59,METAR,Normal,130,3.0,,,9999.0,,26.7,24.5,29.77,1008.2,,,,,,,,,,,,,,,,20000.0,1600.0,SCT,1600.0,BKN,20000.0,,,,
KRDR,08-21-2020,16:11,SPECI,Calm,,0.0,,,9999.0,,24.0,24.0,29.78,1008.6,,,,,,,,,,,,,,,,20000.0,700.0,SCT,700.0,BKN,20000.0,,,,
KRDR,08-21-2020,15:56,METAR,Calm,,0.0,,,9999.0,Mist,23.6,23.6,29.78,1008.6,10,,,,,,,,,,TRACE,,,,,600.0,600.0,BKN,600.0,BKN,20000.0,,,,
KRDR,08-21-2020,15:32,SPECI,Calm,,0.0,,,9999.0,Mist,22.0,22.0,29.78,1008.6,10,,,,,,,,,,,,,,,400.0,400.0,BKN,400.0,,,,,,
KRDR,08-21-2020,15:21,SPECI,Calm,,0.0,,,4800.0,Mist,21.0,21.0,29.77,1008.3,10,,,,,,,,,,,,,,,400.0,400.0,BKN,400.0,,,,,,
KRDR,08-21-2020,15:05,SPECI,Calm,,0.0,,,1600.0,Mist,21.0,21.0,29.78,1008.7,10,,,,,,,,,,,,,,Sky Obscured (Unable to Estimate),100.0,100.0,,100.0,,,,,,
KRDR,08-21-2020,14:58,METAR,Calm,,0.0,,,1200.0,Mist,20.9,20.9,29.77,1008.3,10,,,,,,,,,,,,,,Sky Obscured (Unable to Estimate),100.0,100.0,,100.0,,,,,,
KRDR,08-21-2020,14:23,SPECI,Normal,110,3.0,,,400.0,Fog or Ice Fog,21.0,21.0,29.76,1007.9,,,,44,,,,,,,,,,,Sky Obscured (Unable to Estimate),0.0,0.0,,0.0,,,,,,
KRDR,08-21-2020,13:56,METAR,Normal,90,3.0,,,1200.0,Mist,20.0,20.0,29.77,1008.3,10,,,,,,,,,,,,,,Sky Obscured (Unable to Estimate),100.0,100.0,,100.0,,,,,,
KRDR,08-21-2020,13:29,SPECI,Normal,120,3.0,,,400.0,Fog or Ice Fog,19.0,19.0,29.76,1007.9,,,,44,,,,,,,,,,,Sky Obscured (Unable to Estimate),0.0,0.0,,0.0,,,,,,
KRDR,08-21-2020,12:56,METAR,Calm,,0.0,,,100.0,Fog or Ice Fog,18.3,18.3,29.77,1008.3,,,,44,,,,,,,,,,,Sky Obscured (Unable to Estimate),0.0,0.0,,0.0,,,,,,
KRDR,08-21-2020,12:40,SPECI,Calm,,0.0,,,0.0,Fog or Ice Fog,18.0,18.0,29.77,1008.2,,,,44,,,,,,,,,,,Sky Obscured (Unable to Estimate),0.0,0.0,,0.0,,,,,,
KRDR,08-21-2020,11:57,METAR,Calm,,0.0,,,100.0,Fog or Ice Fog,16.9,16.9,29.77,1008.3,,,,44,,,,,,,,,,,Sky Obscured (Unable to Estimate),100.0,100.0,,100.0,,,,,,
KRDR,08-21-2020,11:44,SPECI,Calm,,0.0,,,100.0,Fog or Ice Fog,16.0,16.0,29.76,1007.9,,,,44,,,,,,,,,,,Sky Obscured (Unable to Estimate),200.0,200.0,,200.0,,,,,,
KRDR,08-21-2020,11:36,SPECI,Calm,,0.0,,,400.0,Fog,16.0,16.0,29.76,1007.9,30,,,,,,,,,,,,,,Sky Obscured (Unable to Estimate),200.0,200.0,,200.0,,,,,,
KRDR,08-21-2020,11:26,SPECI,Calm,,0.0,,,800.0,Fog,16.0,16.0,29.75,1007.6,30,,,,,,,,,,,,,,Sky Obscured (Unable to Estimate),300.0,300.0,,300.0,,,,,,
KRDR,08-21-2020,11:17,SPECI,Calm,,0.0,,,400.0,Fog or Ice Fog,16.0,16.0,29.75,1007.6,,,,44,,,,,,,,,,,Sky Obscured (Unable to Estimate),0.0,0.0,,0.0,,,,,,
KRDR,08-21-2020,11:16,SPECI,Calm,,0.0,,,1200.0,Mist,16.0,16.0,29.75,1007.6,10,,,,,,,,,,,,,,4/8 Partly Cloudy,72000.0,0.0,SCT,0.0,,,,,,
KRDR,08-21-2020,11:06,SPECI,Normal,40,4.0,,,400.0,Fog,16.0,16.0,29.75,1007.6,30,,,,,,,,,,,,,,,0.0,0.0,BKN,0.0,,,,,,
KRDR,08-21-2020,11:05,SPECI,Normal,40,4.0,,,400.0,Fog or Ice Fog,16.0,16.0,29.75,1007.6,,,,44,,,,,,,,,,,Sky Obscured (Unable to Estimate),0.0,0.0,,0.0,,,,,,
KRDR,08-21-2020,10:56,METAR,Normal,20,4.0,,,600.0,Fog,15.6,15.6,29.76,1007.9,30,,,,,,,,,,,,,,,0.0,0.0,BKN,0.0,,,,,,
KRDR,08-21-2020,10:38,SPECI,Normal,10,3.0,,,400.0,Fog,16.0,16.0,29.75,1007.5,30,,,,,,,,,,,,,,,0.0,0.0,BKN,0.0,,,,,,
KRDR,08-21-2020,10:17,SPECI,Calm,,0.0,,,600.0,Fog or Ice Fog,16.0,16.0,29.75,1007.5,,,,44,,,,,,,,,,,,0.0,0.0,BKN,0.0,,,,,,
KRDR,08-21-2020,10:14,SPECI,Calm,,0.0,,,3600.0,Mist,16.0,16.0,29.75,1007.5,,,,10,,,,,,,,,,,2/8 Mostly Clear,72000.0,0.0,FEW,0.0,,,,,,
KRDR,08-21-2020,10:10,SPECI,Calm,,0.0,,,6400.0,Mist,17.0,17.0,29.74,1007.2,,,,10,,,,,,,,,,,Clear,72000.0,,,,,,,,,
KRDR,08-21-2020,10:01,SPECI,Calm,,0.0,,,8000.0,Mist,17.0,17.0,29.74,1007.2,10,,,,,,,,,,,,,,Clear,72000.0,,,,,,,,,
KRDR,08-21-2020,09:56,METAR,Calm,,0.0,,,1000.0,Mist,16.6,16.6,29.74,1007.2,10,,,,,,,,,,,,,,Clear,72000.0,,,,,,,,,
KRDR,08-21-2020,09:46,SPECI,Calm,,0.0,,,600.0,Fog,16.0,16.0,29.74,1007.2,30,,,,,,,,,,,,,,Clear,72000.0,,,,,,,,,
KRDR,08-21-2020,09:16,SPECI,Calm,,0.0,,,800.0,Fog,16.0,16.0,29.74,1007.2,30,,,,,,,,,,,,,,Clear,72000.0,,,,,,,,,
KRDR,08-21-2020,08:56,METAR,Calm,,0.0,,,600.0,Fog,16.2,16.2,29.74,1007.2,30,,,,,,,,,,,,,,Clear,72000.0,,,,,,,,,
KRDR,08-21-2020,08:41,SPECI,Calm,,0.0,,,400.0,Fog,16.0,16.0,29.74,1007.2,30,,,,,,,,,,,,,,Clear,72000.0,,,,,,,,,
KRDR,08-21-2020,08:31,SPECI,Calm,,0.0,,,1200.0,Mist,16.0,16.0,29.74,1007.2,10,,,,,,,,,,,,,,Clear,72000.0,,,,,,,,,
KRDR,08-21-2020,08:21,SPECI,Calm,,0.0,,,400.0,Fog,17.0,17.0,29.74,1007.2,30,,,,,,,,,,,,,,Clear,72000.0,,,,,,,,,
KRDR,08-21-2020,08:16,SPECI,Calm,,0.0,,,400.0,Fog,17.0,17.0,29.74,1007.2,30,,,,,,,,,,,,,,Clear,72000.0,,,,,,,,,
KRDR,08-21-2020,07:56,METAR,Calm,,0.0,,,400.0,Fog,17.2,17.2,29.74,1007.2,30,,,,,,,,,,,,,,Clear,72000.0,,,,,,,,,
KRDR,08-21-2020,07:46,SPECI,Calm,,0.0,,,400.0,Fog,17.0,17.0,29.74,1007.2,30,,,,,,,,,,,,,,Clear,72000.0,,,,,,,,,
KRDR,08-21-2020,07:36,SPECI,Calm,,0.0,,,1000.0,Mist,17.0,17.0,29.74,1007.2,10,,,,,,,,,,,,,,4/8 Partly Cloudy,72000.0,700.0,SCT,700.0,,,,,,
KRDR,08-21-2020,07:26,SPECI,Calm,,0.0,,,800.0,Fog,18.0,18.0,29.74,1007.1,30,,,,,,,,,,,,,,4/8 Partly Cloudy,72000.0,700.0,SCT,700.0,,,,,,
KRDR,08-21-2020,06:56,METAR,Calm,,0.0,,,600.0,Fog,17.9,17.9,29.74,1007.1,30,,,,,,,,,,,,,,4/8 Partly Cloudy,72000.0,700.0,SCT,700.0,,,,,,
KRDR,08-21-2020,06:36,SPECI,Calm,,0.0,,,800.0,Fog,18.0,18.0,29.74,1007.2,30,,,,,,,,,,,,,,4/8 Partly Cloudy,72000.0,700.0,SCT,700.0,,,,,,
KRDR,08-21-2020,06:26,SPECI,Calm,,0.0,,,1600.0,Mist,18.0,18.0,29.74,1007.2,10,,,,,,,,,,,,,,4/8 Partly Cloudy,72000.0,700.0,SCT,700.0,,,,,,
KRDR,08-21-2020,05:56,METAR,Calm,,0.0,,,9999.0,,18.7,18.7,29.75,1007.5,,,,,,,,,,,,,,,Clear,72000.0,,,,,,,,,
KRDR,08-21-2020,05:34,SPECI,Normal,140,3.0,,,9999.0,Mist,19.0,19.0,29.75,1007.5,,,,10,,,,,,,,,,,4/8 Partly Cloudy,72000.0,700.0,SCT,700.0,,,,,,
KRDR,08-21-2020,04:56,METAR,Calm,,0.0,,,9999.0,,19.0,19.0,29.76,1008.0,,,,,,,,,,,,,,,Clear,72000.0,,,,,,,,,
KRDR,08-21-2020,03:56,METAR,Normal,160,4.0,,,9999.0,,22.2,22.0,29.76,1008.0,,,,,,,,,,,,,,,4/8 Partly Cloudy,72000.0,13000.0,SCT,13000.0,,,,,,
KRDR,08-21-2020,02:56,METAR,Normal,160,4.0,,,9999.0,,22.0,21.6,29.76,1007.9,,,,,,,,,,,,,,,2/8 Mostly Clear,72000.0,13000.0,FEW,13000.0,,,,,,
KRDR,08-21-2020,01:56,METAR,Normal,170,4.0,,,9999.0,,23.5,21.7,29.75,1007.6,,,,,,,,,,,,,,,4/8 Partly Cloudy,72000.0,13000.0,SCT,13000.0,,,,,,
KRDR,08-21-2020,00:56,METAR,Normal,150,5.0,,,9999.0,,26.5,22.1,29.73,1006.8,,,,,,,,,,,,,,,Clear,72000.0,,,,,,,,,
KRDR,08-20-2020,23:56,METAR,Normal,150,7.0,,,9999.0,,27.9,22.3,29.74,1007.2,,,,,,,,,,,,,,,Clear,72000.0,,,,,,,,,
KRDR,08-20-2020,22:56,METAR,Normal,190,6.0,,,9999.0,,28.7,21.7,29.74,1007.1,,,,,,,,,,,,,,,Clear,72000.0,,,,,,,,,
KRDR,08-20-2020,21:56,METAR,Normal,170,6.0,,,9999.0,,29.3,21.5,29.75,1007.5,,,,,,,,,,,,,,,Clear,72000.0,,,,,,,,,
KRDR,08-20-2020,20:56,METAR,Normal,210,7.0,,,9999.0,,29.6,21.5,29.75,1007.4,,,,,,,,,,,,,,,2/8 Mostly Clear,72000.0,5000.0,FEW,5000.0,FEW,20000.0,,,,
KRDR,08-20-2020,19:56,METAR,Normal,130,6.0,,,9999.0,,29.3,18.7,29.75,1007.4,,,,,,,,,,,,,,,2/8 Mostly Clear,72000.0,5000.0,FEW,5000.0,FEW,20000.0,,,,
KRDR,08-20-2020,18:55,METAR,Normal,110,7.0,,,9999.0,,29.2,17.0,29.73,1006.8,,,,,,,,,,,,,,,2/8 Mostly Clear,72000.0,18000.0,FEW,18000.0,,,,,,
KRDR,08-20-2020,17:56,METAR,Normal,130,5.0,,,9999.0,,27.9,18.6,29.73,1006.8,,,,,,,,,,,,,.05 IN,,Clear,72000.0,,,,,,,,,
KRDR,08-20-2020,16:59,METAR,Variable,,4.0,,,9999.0,,24.0,16.2,29.75,1007.6,,,,,,,,,,,,,.05 IN,,4/8 Partly Cloudy,72000.0,10000.0,SCT,10000.0,SCT,20000.0,,,,
KRDR,08-20-2020,15:57,METAR,Normal,220,9.0,,,9999.0,,20.1,18.2,29.77,1008.4,,,,,,,,,,,.01 IN,,,,,10000.0,6000.0,SCT,6000.0,BKN,10000.0,BKN,12000.0,,
KRDR,08-20-2020,15:31,SPECI,Normal,190,9.0,,,9999.0,Light Drizzle,20.0,18.0,29.78,1008.7,51,,,,,,,,,,,,,,,7500.0,5500.0,SCT,5500.0,BKN,7500.0,BKN,11000.0,,
KRDR,08-20-2020,14:59,METAR,Calm,,0.0,,,9999.0,Light Drizzle/Distant Lightning,21.1,16.7,29.82,1010.0,12,51,,,,,,,,,TRACE,.04 IN,,,,10000.0,10000.0,BKN,10000.0,,,,,,
KRDR,08-20-2020,14:46,SPECI,Variable,,6.0,16.0,,9999.0,Dry Thunderstorm,20.0,17.0,29.81,1009.6,91,,,,,,,,,,,,,,,10000.0,10000.0,BKN,10000.0,,,,,,
KRDR,08-20-2020,13:58,METAR,Normal,320,15.0,23.0,180/28KTS,9999.0,Thunderstorm and Rain or Snow Showers,19.8,17.4,29.81,1009.6,92,,,,,,,,,,.04 IN,,,,,10000.0,3400.0,FEW,3400.0,BKN,10000.0,BKN,15000.0,,
KRDR,08-20-2020,13:46,SPECI,Normal,240,12.0,,,9999.0,Thunderstorm and Rain or Snow Showers,21.0,18.0,29.75,1007.5,92,,,,,,,,,,,,,,,7000.0,1000.0,FEW,1000.0,BKN,7000.0,BKN,15000.0,,
KRDR,08-20-2020,13:44,SPECI,Normal,250,14.0,,,9999.0,Light Rain/Distant Lightning,21.0,18.0,29.74,1007.2,61,12,,,,,,,,,,,,,,7000.0,1000.0,FEW,1000.0,BKN,7000.0,BKN,15000.0,,
KRDR,08-20-2020,13:40,SPECI,Normal,230,14.0,19.0,,9999.0,Light Drizzle/Distant Lightning,21.0,17.0,29.72,1006.5,12,51,,,,,,,,,,,,,,12000.0,1000.0,FEW,1000.0,BKN,12000.0,BKN,15000.0,,
KRDR,08-20-2020,12:56,METAR,Normal,190,12.0,,,9999.0,,19.4,17.5,29.74,1007.1,,,,,,,,,,,TRACE,,,,2/8 Mostly Clear,72000.0,6000.0,FEW,6000.0,FEW,9100.0,,,,
KRDR,08-20-2020,12:37,SPECI,Normal,210,6.0,,,9999.0,,19.0,18.0,29.78,1008.5,,,,,,,,,,,,,,,,13000.0,5500.0,FEW,5500.0,FEW,7500.0,FEW,9600.0,BKN,13000.0
KRDR,08-20-2020,12:26,SPECI,Normal,310,5.0,,,9999.0,Light Rain Showers,19.0,18.0,29.80,1009.2,81,,,,,,,,,,,,,,,13000.0,7000.0,FEW,7000.0,BKN,13000.0,,,,
KRDR,08-20-2020,12:12,SPECI,Normal,270,6.0,,,9999.0,,19.0,17.0,29.80,1009.1,,,,,,,,,,,,,,,,12000.0,4000.0,SCT,4000.0,BKN,12000.0,OVC,18000.0,,
KRDR,08-20-2020,11:56,METAR,Normal,200,5.0,,,9999.0,,18.9,17.2,29.78,1008.5,,,,,,,,,,,,,,.16 IN,,13000.0,13000.0,BKN,13000.0,BKN,15000.0,BKN,18000.0,,
KRDR,08-20-2020,10:56,METAR,Normal,170,8.0,,,9999.0,,19.3,17.1,29.79,1008.8,,,,,,,,,,,,,,,,13000.0,13000.0,BKN,13000.0,OVC,19000.0,,,,
KRDR,08-20-2020,09:56,METAR,Normal,150,6.0,,,9999.0,,19.2,17.7,29.80,1009.1,,,,,,,,,,,,,,,Clear,72000.0,,,,,,,,,
KRDR,08-20-2020,08:56,METAR,Normal,80,6.0,,,9999.0,,20.1,17.5,29.84,1010.4,,,,,,,,,,,,,,,,19000.0,14000.0,FEW,14000.0,SCT,17000.0,BKN,19000.0,,
KRDR,08-20-2020,08:14,SPECI,Normal,80,11.0,15.0,,9999.0,,21.0,18.0,29.84,1010.4,,,,,,,,,,,,,,,,19000.0,19000.0,BKN,19000.0,,,,,,
KRDR,08-20-2020,07:56,METAR,Normal,60,12.0,,360/32KTS,9999.0,,19.9,17.3,29.83,1010.2,,,,,,,,,,,,,,,4/8 Partly Cloudy,72000.0,19000.0,SCT,19000.0,,,,,,
KRDR,08-20-2020,07:22,SPECI,Normal,40,21.0,30.0,,9999.0,,22.0,20.0,29.85,1010.8,,,,,,,,,,,,,,,,13000.0,2100.0,FEW,2100.0,BKN,13000.0,,,,
KRDR,08-20-2020,06:56,METAR,Normal,20,3.0,,350/29KTS,9999.0,,21.5,21.5,29.80,1009.1,,,,,,,,,,,,,,,,14000.0,14000.0,OVC,14000.0,,,,,,
KRDR,08-20-2020,05:56,METAR,Normal,190,6.0,,,9999.0,,20.8,20.8,29.77,,,,,,,,,,,,,,,,Clear,72000.0,,,,,,,,,
KRDR,08-20-2020,04:56,METAR,Normal,200,4.0,,,9999.0,,20.3,20.3,29.77,,,,,,,,,,,,,,,,Clear,72000.0,,,,,,,,,
KRDR,08-20-2020,03:56,METAR,Normal,230,3.0,,,9999.0,,21.0,21.0,29.78,,,,,,,,,,,,,,,,Clear,72000.0,,,,,,,,,
KRDR,08-20-2020,02:56,METAR,Normal,180,6.0,,,9999.0,,23.5,23.1,29.77,,,,,,,,,,,,,,,,2/8 Mostly Clear,72000.0,9500.0,FEW,9600.0,,,,,,
KRDR,08-20-2020,01:56,METAR,Normal,210,5.0,,,9999.0,,25.0,23.8,29.77,1008.2,,,,,,,,,,,,,,,,10000.0,10000.0,BKN,10000.0,,,,,,
KRDR,08-20-2020,00:57,METAR,Normal,190,5.0,,,9999.0,,28.3,24.3,29.77,1008.2,,,,,,,,,,,,,,,4/8 Partly Cloudy,72000.0,10000.0,SCT,10000.0,,,,,,
KRDR,08-19-2020,23:56,METAR,Normal,180,6.0,,,9999.0,,30.5,23.6,29.77,1008.1,,,,,,,,,,,,,,,Clear,72000.0,,,,,,,,,
KRDR,08-19-2020,22:56,METAR,Normal,190,7.0,,,9999.0,,31.4,22.7,29.78,1008.4,,,,,,,,,,,,,,,Clear,72000.0,,,,,,,,,
KRDR,08-19-2020,21:56,METAR,Normal,210,6.0,,,9999.0,,31.7,22.1,29.79,1008.7,,,,,,,,,,,,,,,Clear,72000.0,,,,,,,,,
KRDR,08-19-2020,20:56,METAR,Normal,250,7.0,,,9999.0,,31.4,23.7,29.79,1008.7,,,,,,,,,,,,,,,2/8 Mostly Clear,72000.0,15000.0,FEW,15000.0,,,,,,
KRDR,08-19-2020,19:59,METAR,Normal,200,6.0,,,9999.0,,31.0,24.0,29.80,1009.1,,,,,,,,,,,,,,,Clear,72000.0,,,,,,,,,
KRDR,08-19-2020,19:56,METAR,Normal,180,6.0,,,9999.0,,30.4,24.0,29.80,1009.1,,,,,,,,,,,,,,,2/8 Mostly Clear,72000.0,15000.0,FEW,15000.0,,,,,,
KRDR,08-19-2020,17:56,METAR,Normal,200,9.0,,,9999.0,,27.4,23.2,29.81,1009.5,,,,,,,,,,,,,.16 IN,,2/8 Mostly Clear,72000.0,12000.0,FEW,12000.0,,,,,,
KRDR,08-19-2020,16:56,METAR,Normal,210,10.0,,,9999.0,,25.5,22.4,29.83,1010.2,,,,,,,,,,,,,,,2/8 Mostly Clear,72000.0,12000.0,FEW,12000.0,,,,,,
KRDR,08-19-2020,15:56,METAR,Normal,210,11.0,,,9999.0,,24.4,21.7,29.84,1010.6,,,,,,,,,,,,,,,2/8 Mostly Clear,72000.0,12000.0,FEW,12000.0,FEW,20000.0,,,,
KRDR,08-19-2020,14:56,METAR,Normal,180,10.0,,,9999.0,,22.5,21.8,29.83,1010.3,,,,,,,,,,,,.16 IN,,,4/8 Partly Cloudy,72000.0,12000.0,FEW,12000.0,SCT,20000.0,,,,
KRDR,08-19-2020,13:59,METAR,Normal,160,8.0,,,9999.0,,20.4,20.4,29.84,1010.7,,,,,,,,,,,.16 IN,,,,4/8 Partly Cloudy,72000.0,6000.0,FEW,6000.0,SCT,12000.0,,,,
KRDR,08-19-2020,13:40,SPECI,Normal,140,6.0,,,9999.0,Distant Lightning,20.0,20.0,29.83,1010.3,12,,,,,,,,,,,,,,,11000.0,8000.0,SCT,8000.0,BKN,11000.0,,,,
KRDR,08-19-2020,13:30,SPECI,Normal,140,6.0,,,9999.0,Rain,20.0,20.0,29.84,1010.7,,,,61,,,,,,,,,,,,11000.0,11000.0,BKN,11000.0,,,,,,
KRDR,08-19-2020,13:21,SPECI,Normal,160,7.0,,,9999.0,,20.0,20.0,29.83,1010.3,,,,,,,,,,,,,,,,11000.0,1000.0,FEW,1000.0,SCT,600.0,BKN,11000.0,,
KRDR,08-19-2020,13:12,SPECI,Variable,,4.0,23.0,,9999.0,Thunderstorm with Rain or Snow,20.0,20.0,29.84,1010.6,,,,95,,,,,,,,,,,,11000.0,800.0,SCT,800.0,BKN,11000.0,,,,
KRDR,08-19-2020,13:06,SPECI,Normal,190,9.0,,,400.0,Heavy Thunderstorm and Hail/Heavy Rain,21.0,20.0,29.83,1010.3,,,,99,65,,,,,,,,,,,,,,,,,,,,
KRDR,08-19-2020,12:56,METAR,Normal,150,6.0,,,9999.0,,20.0,20.0,29.83,1010.3,,,,,,,,,,,,,,,2/8 Mostly Clear,72000.0,16000.0,FEW,16000.0,,,,,,
KRDR,08-19-2020,11:56,METAR,Normal,130,8.0,,,9999.0,,19.8,19.8,29.82,1009.9,,,,,,,,,,,,,,,4/8 Partly Cloudy,72000.0,10000.0,FEW,10000.0,SCT,14000.0,SCT,16000.0,,
KRDR,08-19-2020,10:56,METAR,Normal,170,7.0,,,9999.0,,20.9,20.0,29.81,1009.4,,,,,,,,,,,,,,,4/8 Partly Cloudy,72000.0,10000.0,FEW,10000.0,SCT,15000.0,,,,
KRDR,08-19-2020,09:56,METAR,Normal,220,9.0,,,9999.0,,21.8,19.9,29.81,1009.4,,,,,,,,,,,,,,,4/8 Partly Cloudy,72000.0,9500.0,SCT,9600.0,,,,,,
KRDR,08-19-2020,08:56,METAR,Normal,210,8.0,,,9999.0,,21.6,19.5,29.85,1010.8,,,,,,,,,,,,,,,,11000.0,10000.0,SCT,10000.0,BKN,11000.0,BKN,14000.0,,
KRDR,08-19-2020,07:56,METAR,Normal,210,8.0,,,9999.0,,21.3,19.2,29.87,1011.5,,,,,,,,,,,,,,,4/8 Partly Cloudy,72000.0,14000.0,SCT,14000.0,,,,,,
KRDR,08-19-2020,06:56,METAR,Normal,220,8.0,,,9999.0,,21.3,19.6,29.88,1011.9,,,,,,,,,,,,,,,Clear,72000.0,,,,,,,,,
KRDR,08-19-2020,05:56,METAR,Normal,200,7.0,,,9999.0,,21.2,20.5,29.89,1012.2,,,,,,,,,,,,,,,Clear,72000.0,,,,,,,,,
KRDR,08-19-2020,04:56,METAR,Normal,190,7.0,,,9999.0,,21.8,21.1,29.90,1012.6,,,,,,,,,,,,,,,Clear,72000.0,,,,,,,,,
KRDR,08-19-2020,03:56,METAR,Normal,190,6.0,,,9999.0,,22.2,21.2,29.90,1012.6,,,,,,,,,,,,,,,2/8 Mostly Clear,72000.0,8500.0,FEW,8600.0,,,,,,
KRDR,08-19-2020,02:56,METAR,Normal,190,7.0,,,9999.0,,22.1,19.4,29.91,1013.0,,,,,,,,,,,,,,,Clear,72000.0,,,,,,,,,
KRDR,08-19-2020,01:56,METAR,Normal,200,7.0,,,9999.0,,23.5,19.4,29.91,1013.1,,,,,,,,,,,,,,,Clear,72000.0,,,,,,,,,
KRDR,08-19-2020,00:56,METAR,Normal,190,8.0,,,9999.0,,25.9,19.3,29.92,1013.4,,,,,,,,,,,,,,,Clear,72000.0,,,,,,,,,
KRDR,08-18-2020,23:56,METAR,Normal,210,9.0,,,9999.0,,28.5,17.3,29.92,1013.4,,,,,,,,,,,,,,,Clear,72000.0,,,,,,,,,
KRDR,08-18-2020,22:56,METAR,Normal,220,13.0,,,9999.0,,30.1,14.6,29.93,1013.7,,,,,,,,,,,,,,,Clear,72000.0,,,,,,,,,
KRDR,08-18-2020,21:56,METAR,Normal,210,11.0,,,9999.0,,30.5,16.8,29.94,1014.0,,,,,,,,,,,,,,,Clear,72000.0,,,,,,,,,
KRDR,08-18-2020,20:56,METAR,Normal,220,12.0,,,9999.0,,30.8,16.0,29.96,1014.7,,,,,,,,,,,,,,,2/8 Mostly Clear,72000.0,12000.0,FEW,12000.0,,,,,,
KRDR,08-18-2020,19:56,METAR,Normal,200,10.0,,,9999.0,,30.2,18.3,29.98,1015.4,,,,,,,,,,,,,,,2/8 Mostly Clear,72000.0,10000.0,FEW,10000.0,,,,,,
KRDR,08-18-2020,18:56,METAR,Normal,200,14.0,,,9999.0,,29.0,17.5,30.00,1016.1,,,,,,,,,,,,,,,2/8 Mostly Clear,72000.0,10000.0,FEW,10000.0,,,,,,
KRDR,08-18-2020,17:56,METAR,Normal,190,15.0,,,9999.0,,28.3,17.2,30.02,1016.8,,,,,,,,,,,,,,,2/8 Mostly Clear,72000.0,10000.0,FEW,10000.0,,,,,,
KRDR,08-18-2020,16:56,METAR,Normal,210,15.0,,,9999.0,,26.9,18.7,30.04,1017.5,,,,,,,,,,,,,,,Clear,72000.0,,,,,,,,,
KRDR,08-18-2020,15:56,METAR,Normal,210,9.0,,,9999.0,,24.6,19.2,30.05,1017.9,,,,,,,,,,,,,,,2/8 Mostly Clear,72000.0,10000.0,FEW,10000.0,FEW,22000.0,,,,
KRDR,08-18-2020,14:56,METAR,Normal,190,8.0,,,9999.0,,21.3,18.5,30.06,1018.3,,,,,,,,,,,,,,,4/8 Partly Cloudy,72000.0,10000.0,FEW,10000.0,SCT,22000.0,,,,
KRDR,08-18-2020,13:56,METAR,Normal,180,7.0,,,9999.0,,17.9,17.7,30.06,1018.3,,,,,,,,,,,,,,,4/8 Partly Cloudy,72000.0,10000.0,FEW,10000.0,SCT,22000.0,,,,
KRDR,08-18-2020,12:56,METAR,Normal,210,6.0,,,9999.0,,16.1,16.1,30.06,1018.3,,,,,,,,,,,,,,,2/8 Mostly Clear,72000.0,22000.0,FEW,22000.0,,,,,,
KRDR,08-18-2020,11:56,METAR,Normal,150,5.0,,,9999.0,,14.8,14.8,30.06,1018.3,,,,,,,,,,,,,,,Clear,72000.0,,,,,,,,,
KRDR,08-18-2020,10:56,METAR,Normal,190,5.0,,,9999.0,,15.1,15.1,30.07,1018.5,,,,,,,,,,,,,,,Clear,72000.0,,,,,,,,,
KRDR,08-18-2020,09:56,METAR,Normal,230,5.0,,,9999.0,,15.3,15.3,30.07,1018.5,,,,,,,,,,,,,,,Clear,72000.0,,,,,,,,,
KRDR,08-18-2020,08:56,METAR,Normal,200,5.0,,,9999.0,,15.0,15.0,30.07,1018.6,,,,,,,,,,,,,,,Clear,72000.0,,,,,,,,,
KRDR,08-18-2020,07:56,METAR,Calm,,0.0,,,9999.0,,14.8,14.8,30.09,1019.3,,,,,,,,,,,,,,,Clear,72000.0,,,,,,,,,
KRDR,08-18-2020,06:56,METAR,Normal,190,4.0,,,9999.0,,14.9,14.9,30.08,1018.9,,,,,,,,,,,,,,,Clear,72000.0,,,,,,,,,
KRDR,08-18-2020,05:56,METAR,Normal,190,4.0,,,9999.0,,15.1,15.1,30.10,1019.6,,,,,,,,,,,,,,,Clear,72000.0,,,,,,,,,
KRDR,08-18-2020,04:56,METAR,Normal,180,3.0,,,9999.0,,15.6,15.4,30.10,1019.6,,,,,,,,,,,,,,,Clear,72000.0,,,,,,,,,
KRDR,08-18-2020,03:56,METAR,Normal,180,3.0,,,9999.0,,15.8,15.8,30.11,1020.0,,,,,,,,,,,,,,,Clear,72000.0,,,,,,,,,
KRDR,08-18-2020,02:56,METAR,Normal,170,5.0,,,9999.0,,18.9,16.1,30.10,1019.6,,,,,,,,,,,,,,,Clear,72000.0,,,,,,,,,
KRDR,08-18-2020,01:56,METAR,Normal,140,5.0,,,9999.0,,21.3,16.5,30.11,1020.0,,,,,,,,,,,,,,,Clear,72000.0,,,,,,,,,
KRDR,08-18-2020,00:56,METAR,Normal,130,3.0,,,9999.0,,24.1,15.6,30.11,1020.0,,,,,,,,,,,,,,,Clear,72000.0,,,,,,,,,
KRDR,08-17-2020,23:56,METAR,Calm,,0.0,,,9999.0,,25.5,14.0,30.11,1020.1,,,,,,,,,,,,,,,Clear,72000.0,,,,,,,,,
KRDR,08-17-2020,22:56,METAR,Normal,300,3.0,,,9999.0,,26.4,13.8,30.12,1020.4,,,,,,,,,,,,,,,Clear,72000.0,,,,,,,,,
KRDR,08-17-2020,21:56,METAR,Calm,,0.0,,,9999.0,,26.1,14.5,30.12,1020.4,,,,,,,,,,,,,,,Clear,72000.0,,,,,,,,,
KRDR,08-17-2020,20:56,METAR,Calm,,0.0,,,9999.0,,25.9,14.0,30.13,1020.8,,,,,,,,,,,,,,,2/8 Mostly Clear,72000.0,20000.0,FEW,20000.0,,,,,,
KRDR,08-17-2020,19:56,METAR,Normal,340,5.0,,,9999.0,,25.8,14.6,30.15,1021.4,,,,,,,,,,,,,,,2/8 Mostly Clear,72000.0,4000.0,FEW,4000.0,,,,,,
KRDR,08-17-2020,18:56,METAR,Normal,40,5.0,,,9999.0,,25.4,14.5,30.16,1021.8,,,,,,,,,,,,,,,2/8 Mostly Clear,72000.0,4000.0,FEW,4000.0,,,,,,
KRDR,08-17-2020,17:56,METAR,Calm,,0.0,,,9999.0,,24.5,13.4,30.17,1022.1,,,,,,,,,,,,,,,2/8 Mostly Clear,72000.0,4000.0,FEW,4000.0,,,,,,
KRDR,08-17-2020,16:56,METAR,Calm,,0.0,,,9999.0,,23.5,12.5,30.19,1022.7,,,,,,,,,,,,,,,2/8 Mostly Clear,72000.0,4000.0,FEW,4000.0,,,,,,
KRDR,08-17-2020,15:56,METAR,Normal,250,3.0,,,9999.0,,23.4,9.0,30.19,1022.7,,,,,,,,,,,,,,,Clear,72000.0,,,,,,,,,
KRDR,08-17-2020,14:56,METAR,Normal,330,3.0,,,9999.0,,21.3,11.0,30.20,1023.1,,,,,,,,,,,,,,,2/8 Mostly Clear,72000.0,7000.0,FEW,7000.0,,,,,,
KRDR,08-17-2020,13:56,METAR,Calm,,0.0,,,9999.0,,19.6,14.8,30.20,1023.1,,,,,,,,,,,,,,,2/8 Mostly Clear,72000.0,7000.0,FEW,7000.0,,,,,,
KRDR,08-17-2020,12:56,METAR,Calm,,0.0,,,9999.0,,15.0,15.0,30.19,1022.8,,,,,,,,,,,,,,,Clear,72000.0,,,,,,,,,
KRDR,08-17-2020,11:56,METAR,Calm,,0.0,,,9999.0,,10.4,10.4,30.18,1022.5,,,,,,,,,,,,,,,Clear,72000.0,,,,,,,,,
KRDR,08-17-2020,10:56,METAR,Calm,,0.0,,,9999.0,,11.2,11.2,30.17,1022.1,,,,,,,,,,,,,,,4/8 Partly Cloudy,72000.0,6500.0,SCT,6500.0,,,,,,
KRDR,08-17-2020,09:56,METAR,Normal,310,3.0,,,9999.0,,11.2,11.2,30.16,1021.8,,,,,,,,,,,,,,,,6500.0,6500.0,BKN,6500.0,,,,,,
KRDR,08-17-2020,08:56,METAR,Normal,280,3.0,,,9999.0,,10.6,10.6,30.15,1021.4,,,,,,,,,,,,,,,Clear,72000.0,,,,,,,,,
KRDR,08-17-2020,07:56,METAR,Calm,,0.0,,,9999.0,,10.3,10.3,30.14,1021.1,,,,,,,,,,,,,,,Clear,72000.0,,,,,,,,,
KRDR,08-17-2020,06:56,METAR,Normal,290,3.0,,,9999.0,,11.5,11.5,30.14,1021.0,,,,,,,,,,,,,,,Clear,72000.0,,,,,,,,,
KRDR,08-17-2020,05:56,METAR,Normal,300,4.0,,,9999.0,,12.3,12.3,30.13,1020.7,,,,,,,,,,,,,,,Clear,72000.0,,,,,,,,,
KRDR,08-17-2020,04:56,METAR,Normal,340,3.0,,,9999.0,,13.2,13.0,30.12,1020.4,,,,,,,,,,,,,,,Clear,72000.0,,,,,,,,,
KRDR,08-17-2020,03:56,METAR,Normal,360,6.0,,,9999.0,,15.1,13.8,30.11,1020.0,,,,,,,,,,,,,,,Clear,72000.0,,,,,,,,,
KRDR,08-17-2020,02:56,METAR,Normal,320,4.0,,,9999.0,,16.0,14.4,30.09,1019.3,,,,,,,,,,,,,,,Clear,72000.0,,,,,,,,,
KRDR,08-17-2020,01:56,METAR,Normal,320,4.0,,,9999.0,,17.8,15.2,30.07,1018.7,,,,,,,,,,,,,,,Clear,72000.0,,,,,,,,,
KRDR,08-17-2020,00:56,METAR,Normal,350,4.0,,,9999.0,,21.6,15.4,30.06,1018.3,,,,,,,,,,,,,,,Clear,72000.0,,,,,,,,,
KRDR,08-16-2020,23:56,METAR,Normal,10,6.0,,,9999.0,,23.9,14.3,30.06,1018.3,,,,,,,,,,,,,,,Clear,72000.0,,,,,,,,,
KRDR,08-16-2020,22:56,METAR,Normal,10,8.0,,,9999.0,,23.9,13.1,30.05,1017.9,,,,,,,,,,,,,,,Clear,72000.0,,,,,,,,,
KRDR,08-16-2020,21:56,METAR,Normal,10,10.0,,,9999.0,,24.9,12.5,30.05,1017.9,,,,,,,,,,,,,,,2/8 Mostly Clear,72000.0,8000.0,FEW,8000.0,,,,,,
KRDR,08-16-2020,20:56,METAR,Normal,340,9.0,,,9999.0,,25.2,13.1,30.04,1017.6,,,,,,,,,,,,,,,2/8 Mostly Clear,72000.0,6000.0,FEW,6000.0,FEW,8000.0,,,,
KRDR,08-16-2020,19:56,METAR,Normal,10,10.0,,,9999.0,,26.0,15.1,30.04,1017.6,,,,,,,,,,,,,,,Clear,72000.0,,,,,,,,,
KRDR,08-16-2020,18:56,METAR,Normal,10,11.0,,,9999.0,,25.3,17.2,30.03,1017.3,,,,,,,,,,,,,,,,8000.0,4700.0,FEW,4700.0,BKN,8000.0,,,,
KRDR,08-16-2020,17:56,METAR,Normal,320,12.0,,,9999.0,,26.5,14.9,30.02,1016.8,,,,,,,,,,,,,,,Clear,72000.0,,,,,,,,,
KRDR,08-16-2020,16:56,METAR,Normal,320,4.0,,,9999.0,,25.2,17.4,30.03,1017.2,,,,,,,,,,,,,,,Clear,72000.0,,,,,,,,,
KRDR,08-16-2020,15:56,METAR,Normal,310,7.0,,,9999.0,,23.8,17.0,30.03,1017.2,,,,,,,,,,,,,,,,8500.0,8500.0,OVC,8600.0,,,,,,
KRDR,08-16-2020,14:56,METAR,Normal,260,3.0,,,9999.0,,23.1,16.9,30.02,1016.9,,,,,,,,,,,,,,,,8500.0,8500.0,BKN,8600.0,,,,,,
KRDR,08-16-2020,13:56,METAR,Calm,,0.0,,,9999.0,,19.2,18.0,30.02,1017.0,,,,,,,,,,,,,,,,10000.0,10000.0,OVC,10000.0,,,,,,
KRDR,08-16-2020,12:56,METAR,Calm,,0.0,,,9999.0,,16.5,16.5,30.02,1016.9,,,,,,,,,,,,,,,,9000.0,9000.0,BKN,9100.0,OVC,10000.0,,,,
KRDR,08-16-2020,11:56,METAR,Calm,,0.0,,,9999.0,,16.4,16.2,30.02,1016.9,,,,,,,,,,,,,,,,9000.0,9000.0,OVC,9100.0,,,,,,
KRDR,08-16-2020,10:56,METAR,Normal,250,3.0,,,9999.0,,15.4,15.4,30.01,1016.5,,,,,,,,,,,,,,,,9000.0,9000.0,OVC,9100.0,,,,,,
KRDR,08-16-2020,09:56,METAR,Normal,250,4.0,,,9999.0,,15.5,15.3,30.00,1016.2,,,,,,,,,,,,,,,,10000.0,10000.0,OVC,10000.0,,,,,,
KRDR,08-16-2020,08:56,METAR,Normal,280,6.0,,,9999.0,,12.7,12.7,29.99,1015.9,,,,,,,,,,,,,,,2/8 Mostly Clear,72000.0,9500.0,FEW,9600.0,,,,,,
KRDR,08-16-2020,07:56,METAR,Normal,250,4.0,,,9999.0,,13.2,13.2,29.99,1015.9,,,,,,,,,,,,,,,Clear,72000.0,,,,,,,,,
KRDR,08-16-2020,06:56,METAR,Calm,,0.0,,,9999.0,,13.9,13.9,29.99,1015.9,,,,,,,,,,,,,,,Clear,72000.0,,,,,,,,,
KRDR,08-16-2020,05:56,METAR,Normal,300,7.0,,,9999.0,,14.7,14.5,29.99,1015.9,,,,,,,,,,,,,,,Clear,72000.0,,,,,,,,,
KRDR,08-16-2020,04:56,METAR,Normal,290,7.0,,,9999.0,,14.9,14.4,29.98,1015.5,,,,,,,,,,,,,,,Clear,72000.0,,,,,,,,,
KRDR,08-16-2020,03:56,METAR,Normal,270,4.0,,,9999.0,,15.4,15.2,29.98,1015.7,,,,,,,,,,,,,,,Clear,72000.0,,,,,,,,,
KRDR,08-16-2020,02:56,METAR,Normal,270,4.0,,,9999.0,,16.1,15.6,29.97,1015.3,,,,,,,,,,,,,,,Clear,72000.0,,,,,,,,,
KRDR,08-16-2020,01:56,METAR,Normal,300,3.0,,,9999.0,,19.4,14.2,29.96,1014.9,,,,,,,,,,,,,,,Clear,72000.0,,,,,,,,,
KRDR,08-16-2020,00:56,METAR,Normal,320,4.0,,,9999.0,,23.0,16.8,29.95,1014.6,,,,,,,,,,,,,,,Clear,72000.0,,,,,,,,,
KRDR,08-15-2020,23:56,METAR,Normal,340,5.0,,,9999.0,,23.7,16.2,29.93,1013.9,,,,,,,,,,,,,,,4/8 Partly Cloudy,72000.0,7500.0,SCT,7500.0,,,,,,
KRDR,08-15-2020,22:56,METAR,Normal,290,6.0,,,9999.0,,26.0,14.8,29.93,1013.9,,,,,,,,,,,,,,,Clear,72000.0,,,,,,,,,
KRDR,08-15-2020,21:56,METAR,Normal,310,5.0,,,9999.0,,26.3,15.3,29.92,1013.5,,,,,,,,,,,,,,,,15000.0,15000.0,BKN,15000.0,,,,,,
KRDR,08-15-2020,20:56,METAR,Normal,240,5.0,,,9999.0,,26.5,15.2,29.93,1013.9,,,,,,,,,,,,,,,Clear,72000.0,,,,,,,,,
KRDR,08-15-2020,19:56,METAR,Normal,220,3.0,,,9999.0,,26.6,13.7,29.93,1013.9,,,,,,,,,,,,,,,Clear,72000.0,,,,,,,,,
KRDR,08-15-2020,18:56,METAR,Calm,,0.0,,,9999.0,,25.8,10.8,29.93,1013.9,,,,,,,,,,,,,,,Clear,72000.0,,,,,,,,,
KRDR,08-15-2020,17:56,METAR,Normal,180,4.0,,,9999.0,,24.7,17.2,29.94,1014.3,,,,,,,,,,,,,,,Clear,72000.0,,,,,,,,,
KRDR,08-15-2020,16:56,METAR,Normal,200,4.0,,,9999.0,,24.2,17.9,29.95,1014.7,,,,,,,,,,,,,,,Clear,72000.0,,,,,,,,,
KRDR,08-15-2020,15:56,METAR,Normal,240,4.0,,,9999.0,,20.0,17.4,29.97,1015.4,,,,,,,,,,,,,,,,14000.0,11000.0,FEW,11000.0,BKN,14000.0,,,,
KRDR,08-15-2020,14:56,METAR,Normal,240,5.0,,,9999.0,,19.6,17.0,29.97,1015.4,,,,,,,,,,,,,,,,14000.0,14000.0,OVC,14000.0,,,,,,
KRDR,08-15-2020,13:56,METAR,Normal,240,6.0,,,9999.0,,18.5,16.1,29.98,1015.8,,,,,,,,,,,,,,,Clear,72000.0,,,,,,,,,
KRDR,08-15-2020,12:56,METAR,Normal,220,7.0,,,9999.0,,15.0,15.0,29.97,1015.4,,,,,,,,,,,,,,,Clear,72000.0,,,,,,,,,
KRDR,08-15-2020,11:56,METAR,Normal,230,5.0,,,9999.0,,12.7,12.7,29.97,1015.5,,,,,,,,,,,,,,.61 IN,Clear,72000.0,,,,,,,,,
KRDR,08-15-2020,10:56,METAR,Normal,210,6.0,,,9999.0,,11.0,11.0,29.95,1014.9,,,,,,,,,,,,,,,Clear,72000.0,,,,,,,,,
KRDR,08-15-2020,09:56,METAR,Normal,220,6.0,,,9999.0,,11.1,11.1,29.95,1014.9,,,,,,,,,,,,,,,Clear,72000.0,,,,,,,,,
KRDR,08-15-2020,08:56,METAR,Normal,240,5.0,,,9999.0,,11.4,11.4,29.95,1014.9,,,,,,,,,,,,,,,Clear,72000.0,,,,,,,,,
KRDR,08-15-2020,07:56,METAR,Normal,240,5.0,,,9999.0,,10.5,10.5,29.95,1014.9,,,,,,,,,,,,,,,2/8 Mostly Clear,72000.0,4300.0,FEW,4300.0,,,,,,
KRDR,08-15-2020,06:56,METAR,Normal,250,6.0,,,9999.0,,9.7,9.7,29.94,1014.5,,,,,,,,,,,,,,,Clear,72000.0,,,,,,,,,
KRDR,08-15-2020,05:56,METAR,Normal,220,4.0,,,9999.0,,10.5,10.5,29.94,1014.5,,,,,,,,,,,,,,,Clear,72000.0,,,,,,,,,
KRDR,08-15-2020,04:56,METAR,Normal,230,3.0,,,9999.0,,11.0,11.0,29.93,1014.1,,,,,,,,,,,,,,,Clear,72000.0,,,,,,,,,
KRDR,08-15-2020,03:56,METAR,Calm,,0.0,,,9999.0,,12.0,12.0,29.92,1013.8,,,,,,,,,,,,,,,Clear,72000.0,,,,,,,,,
KRDR,08-15-2020,02:56,METAR,Normal,310,5.0,,,9999.0,,12.3,12.3,29.92,1013.8,,,,,,,,,,,,,,,Clear,72000.0,,,,,,,,,
KRDR,08-15-2020,01:56,METAR,Normal,320,6.0,,,9999.0,,13.5,13.5,29.91,1013.4,,,,,,,,,,,,,,,Clear,72000.0,,,,,,,,,
KRDR,08-15-2020,00:56,METAR,Normal,330,10.0,,,9999.0,,16.4,14.9,29.88,1012.2,,,,,,,,,,,,,,,4/8 Partly Cloudy,72000.0,2400.0,SCT,2400.0,SCT,3000.0,,,,
KRDR,08-15-2020,00:26,SPECI,Normal,340,9.0,,,9999.0,,16.0,15.0,29.88,1012.2,,,,,,,,,,,,,,,,2300.0,2300.0,BKN,2300.0,OVC,3100.0,,,,
KRDR,08-15-2020,00:16,SPECI,Normal,350,10.0,17.0,,9999.0,,16.0,14.0,29.88,1012.3,,,,,,,,,,,,,,,,3200.0,2300.0,SCT,2300.0,OVC,3200.0,,,,
KRDR,08-14-2020,23:56,METAR,Normal,340,10.0,,,9999.0,,16.4,15.4,29.87,1012.0,,,,,,,,,,,,,.35 IN,,,2300.0,2300.0,BKN,2300.0,OVC,5000.0,,,,
KRDR,08-14-2020,23:16,SPECI,Normal,340,9.0,,,9999.0,,16.0,16.0,29.87,1012.0,,,,,,,,,,,,,,,,2000.0,1400.0,SCT,1400.0,OVC,2000.0,,,,
KRDR,08-14-2020,22:56,METAR,Normal,330,12.0,18.0,,9999.0,,15.4,15.4,29.88,1012.3,,,,,,,,,,,TRACE,,,,,1400.0,1400.0,BKN,1400.0,OVC,1900.0,,,,
KRDR,08-14-2020,22:39,SPECI,Normal,350,11.0,19.0,,9999.0,,15.0,15.0,29.88,1012.3,,,,,,,,,,,,,,,,1400.0,1400.0,BKN,1400.0,OVC,5500.0,,,,
KRDR,08-14-2020,22:29,SPECI,Normal,360,14.0,20.0,,9999.0,,15.0,15.0,29.88,1012.3,,,,,,,,,,,,,,,,5500.0,1200.0,SCT,1200.0,OVC,5500.0,,,,
KRDR,08-14-2020,22:19,SPECI,Normal,360,14.0,20.0,,9999.0,,15.0,15.0,29.87,1012.0,,,,,,,,,,,,,,,,1100.0,1100.0,BKN,1100.0,BKN,5500.0,,,,
KRDR,08-14-2020,22:16,SPECI,Normal,360,14.0,,,9999.0,Light Rain,15.0,15.0,29.87,1012.0,61,,,,,,,,,,,,,,,1100.0,1100.0,BKN,1100.0,BKN,5500.0,,,,
KRDR,08-14-2020,22:06,SPECI,Normal,350,13.0,21.0,,9999.0,Light Rain,15.0,15.0,29.86,1011.6,61,,,,,,,,,,,,,,,1900.0,800.0,FEW,800.0,SCT,1200.0,BKN,1900.0,BKN,9100.0
KRDR,08-14-2020,21:56,METAR,Normal,10,15.0,22.0,,9999.0,Light Rain,15.4,15.4,29.85,1011.3,61,,,,,,,,,,.07 IN,,,,,2600.0,900.0,SCT,900.0,BKN,2600.0,,,,
KRDR,08-14-2020,21:16,SPECI,Normal,350,13.0,22.0,,9999.0,Light Rain,15.0,15.0,29.85,1011.3,61,,,,,,,,,,,,,,,3100.0,700.0,FEW,700.0,BKN,3100.0,BKN,4000.0,OVC,4700.0
KRDR,08-14-2020,20:56,METAR,Normal,340,15.0,24.0,320/32KTS,9999.0,Rain,15.5,15.5,29.85,1011.3,62,,,,,,,,,,.16 IN,.28 IN,,,,2400.0,1000.0,FEW,1000.0,OVC,2400.0,,,,
KRDR,08-14-2020,20:54,SPECI,Normal,340,17.0,27.0,,9999.0,Rain,16.0,16.0,29.85,1011.3,62,,,,,,,,,,,,,,,2400.0,1000.0,FEW,1000.0,OVC,2400.0,,,,
KRDR,08-14-2020,20:44,SPECI,Normal,330,20.0,32.0,,6400.0,Heavy Rain/Mist,16.0,16.0,29.85,1011.3,63,10,,,,,,,,,,,,,,2200.0,700.0,FEW,700.0,FEW,1200.0,OVC,2200.0,,
KRDR,08-14-2020,20:24,SPECI,Normal,320,15.0,22.0,,9999.0,Heavy Rain,17.0,17.0,29.83,1010.6,63,,,,,,,,,,,,,,,1700.0,500.0,FEW,500.0,OVC,1700.0,,,,
KRDR,08-14-2020,20:04,SPECI,Normal,330,10.0,,,9999.0,Heavy Rain,17.0,17.0,29.82,1010.3,63,,,,,,,,,,,,,,,2500.0,400.0,FEW,400.0,FEW,1700.0,OVC,2500.0,,
KRDR,08-14-2020,19:56,METAR,Normal,350,12.0,,,9999.0,Heavy Rain,17.2,17.2,29.81,1009.9,63,,,,,,,,,,.04 IN,,,,,2500.0,1700.0,FEW,1700.0,OVC,2500.0,,,,
KRDR,08-14-2020,19:46,SPECI,Normal,10,10.0,,,9999.0,Light Rain,17.0,17.0,29.81,1009.9,61,,,,,,,,,,,,,,,2300.0,2300.0,OVC,2300.0,,,,,,
KRDR,08-14-2020,19:36,SPECI,Normal,360,10.0,,,6400.0,Light Rain/Mist,18.0,18.0,29.81,1009.9,61,10,,,,,,,,,,,,,,1500.0,700.0,FEW,700.0,OVC,1500.0,,,,
KRDR,08-14-2020,19:26,SPECI,Normal,10,10.0,,,9999.0,Light Rain,18.0,18.0,29.80,1009.5,61,,,,,,,,,,,,,,,1300.0,700.0,FEW,700.0,OVC,1300.0,,,,
KRDR,08-14-2020,19:16,SPECI,Normal,360,7.0,,,9999.0,Light Rain/Mist,18.0,18.0,29.82,1010.2,61,10,,,,,,,,,,,,,,1500.0,700.0,FEW,700.0,OVC,1500.0,,,,
KRDR,08-14-2020,19:06,SPECI,Normal,10,7.0,,,9999.0,Light Rain,18.0,18.0,29.82,1010.2,61,,,,,,,,,,,,,,,2100.0,900.0,SCT,900.0,SCT,1400.0,OVC,2100.0,,
KRDR,08-14-2020,18:56,METAR,Normal,360,7.0,,,8000.0,Light Rain/Mist,17.7,17.7,29.82,1010.2,61,10,,,,,,,,,.08 IN,,,,4/8 Partly Cloudy,72000.0,700.0,SCT,700.0,,,,,,
KRDR,08-14-2020,18:49,SPECI,Normal,330,5.0,,,4800.0,Rain/Mist,18.0,18.0,29.82,1010.1,62,10,,,,,,,,,,,,,,2100.0,700.0,SCT,700.0,OVC,2100.0,,,,
KRDR,08-14-2020,18:39,SPECI,Normal,330,6.0,,,4400.0,Rain/Mist,18.0,18.0,29.82,1010.1,62,10,,,,,,,,,,,,,,600.0,600.0,BKN,600.0,BKN,1100.0,BKN,1900.0,OVC,2400.0
KRDR,08-14-2020,18:29,SPECI,Normal,350,4.0,,,8000.0,Light Rain/Mist,18.0,18.0,29.82,1010.1,61,10,,,,,,,,,,,,,,600.0,600.0,BKN,600.0,OVC,1600.0,,,,
KRDR,08-14-2020,18:09,SPECI,Normal,320,11.0,,,9999.0,Light Drizzle,19.0,19.0,29.82,1010.1,51,,,,,,,,,,,,,,,500.0,500.0,BKN,500.0,OVC,1300.0,,,,
KRDR,08-14-2020,18:06,SPECI,Normal,330,11.0,,,9999.0,,19.0,19.0,29.82,1010.1,,,,,,,,,,,,,,,,400.0,400.0,OVC,400.0,,,,,,
KRDR,08-14-2020,17:56,METAR,Normal,310,10.0,,,9999.0,,19.1,19.1,29.81,1009.7,,,,,,,,,,,,,.26 IN,,,500.0,500.0,BKN,500.0,OVC,1100.0,,,,
KRDR,08-14-2020,17:50,SPECI,Normal,300,10.0,,,9999.0,,19.0,19.0,29.81,1009.7,,,,,,,,,,,,,,,,500.0,500.0,BKN,500.0,BKN,900.0,BKN,1300.0,,
KRDR,08-14-2020,17:40,SPECI,Normal,290,10.0,19.0,,9999.0,,20.0,20.0,29.80,1009.4,,,,,,,,,,,,,,,,700.0,700.0,BKN,700.0,BKN,1300.0,BKN,2800.0,OVC,11000.0
KRDR,08-14-2020,17:30,SPECI,Normal,270,14.0,19.0,,9999.0,,20.0,20.0,29.80,1009.4,,,,,,,,,,,,,,,,2800.0,900.0,FEW,900.0,SCT,1300.0,SCT,1900.0,BKN,2800.0
KRDR,08-14-2020,17:29,SPECI,Normal,270,13.0,17.0,,9999.0,,20.0,20.0,29.80,1009.4,,,,,,,,,,,,,,,,11000.0,1300.0,FEW,1300.0,SCT,1900.0,SCT,2800.0,OVC,11000.0
KRDR,08-14-2020,16:38,SPECI,Normal,80,24.0,37.0,,9999.0,,18.0,18.0,29.61,1002.9,,,,,,,,,,,,,,,,800.0,800.0,BKN,800.0,BKN,2500.0,,,,
KRDR,08-14-2020,15:56,METAR,Normal,80,22.0,28.0,,9999.0,Light Rain,18.6,18.6,29.70,1006.0,61,,,,,,,,,,.18 IN,,,,,500.0,500.0,BKN,500.0,BKN,2500.0,,,,
KRDR,08-14-2020,15:41,SPECI,Normal,90,12.0,,,2400.0,Rain,19.0,19.0,29.85,1011.1,62,,,,,,,,,,,,,,,400.0,400.0,OVC,400.0,,,,,,
KRDR,08-14-2020,14:56,METAR,Normal,320,6.0,,,8000.0,Light Rain,18.4,18.4,29.83,1010.4,61,,,,,,,,,,.1 IN,.1 IN,,,,2700.0,2700.0,OVC,2700.0,,,,,,
KRDR,08-14-2020,14:19,SPECI,Normal,70,10.0,,,2400.0,Rain/Mist,19.0,19.0,29.75,1007.6,,,,63,10,,,,,,,,,,,100.0,100.0,OVC,100.0,,,,,,
KRDR,08-14-2020,13:56,METAR,Normal,10,3.0,,,400.0,Light Rain/Fog,18.6,18.6,29.85,1011.0,61,30,,,,,,,,,TRACE,,,,,100.0,100.0,OVC,100.0,,,,,,
KRDR,08-14-2020,13:53,SPECI,Calm,,0.0,,,1000.0,Light Rain/Mist,19.0,19.0,29.86,1011.3,61,10,,,,,,,,,,,,,,100.0,100.0,OVC,100.0,,,,,,
KRDR,08-14-2020,13:43,SPECI,Normal,330,4.0,,,600.0,Light Rain/Fog,19.0,19.0,29.87,1011.7,61,30,,,,,,,,,,,,,,100.0,100.0,OVC,100.0,,,,,,
KRDR,08-14-2020,13:41,SPECI,Normal,320,5.0,,,800.0,Fog,19.0,19.0,29.87,1011.7,30,,,,,,,,,,,,,,,100.0,100.0,OVC,100.0,,,,,,
KRDR,08-14-2020,13:21,SPECI,Normal,60,6.0,,,800.0,Fog,19.0,19.0,29.82,1009.9,30,,,,,,,,,,,,,,Sky Obscured (Unable to Estimate),0.0,0.0,,0.0,,,,,,
KRDR,08-14-2020,12:56,METAR,Normal,40,7.0,,,400.0,Fog,19.0,19.0,29.84,1010.6,30,,,,,,,,,,,,,,Sky Obscured (Unable to Estimate),0.0,0.0,,0.0,,,,,,
KRDR,08-14-2020,11:56,METAR,Normal,40,9.0,,,200.0,Fog,18.8,18.8,29.84,1010.5,30,,,,,,,,,,,,,,Sky Obscured (Unable to Estimate),0.0,0.0,,0.0,,,,,,
KRDR,08-14-2020,11:46,SPECI,Normal,30,8.0,,,400.0,Fog,19.0,19.0,29.84,1010.5,30,,,,,,,,,,,,,,Sky Obscured (Unable to Estimate),0.0,0.0,,0.0,,,,,,
KRDR,08-14-2020,11:36,SPECI,Normal,40,7.0,,,200.0,Fog,19.0,19.0,29.83,1010.2,30,,,,,,,,,,,,,,Sky Obscured (Unable to Estimate),0.0,0.0,,0.0,,,,,,
KRDR,08-14-2020,11:16,SPECI,Normal,30,4.0,,,600.0,Fog,19.0,19.0,29.84,1010.5,30,,,,,,,,,,,,,,Sky Obscured (Unable to Estimate),0.0,0.0,,0.0,,,,,,
KRDR,08-14-2020,11:06,SPECI,Normal,360,4.0,,,800.0,Fog,19.0,19.0,29.85,1010.9,30,,,,,,,,,,,,,,Sky Obscured (Unable to Estimate),0.0,0.0,,0.0,,,,,,
KRDR,08-14-2020,10:56,METAR,Normal,10,3.0,,,1400.0,Mist,19.0,19.0,29.85,1010.9,10,,,,,,,,,,,,,,Sky Obscured (Unable to Estimate),0.0,0.0,,0.0,,,,,,
KRDR,08-14-2020,10:46,SPECI,Normal,60,5.0,,,1000.0,Mist,19.0,19.0,29.84,1010.5,10,,,,,,,,,,,,,,Sky Obscured (Unable to Estimate),0.0,0.0,,0.0,,,,,,
KRDR,08-14-2020,10:41,SPECI,Normal,50,4.0,,,600.0,Fog,19.0,19.0,29.85,1010.8,30,,,,,,,,,,,,,,Sky Obscured (Unable to Estimate),0.0,0.0,,0.0,,,,,,
KRDR,08-14-2020,10:06,SPECI,Normal,30,5.0,,,400.0,Fog,19.0,19.0,29.84,1010.5,30,,,,,,,,,,,,,,Sky Obscured (Unable to Estimate),0.0,0.0,,0.0,,,,,,
KRDR,08-14-2020,09:56,METAR,Normal,20,4.0,,,800.0,Fog,19.2,19.2,29.84,1010.5,30,,,,,,,,,,,,,,Sky Obscured (Unable to Estimate),0.0,0.0,,0.0,,,,,,
KRDR,08-14-2020,09:51,SPECI,Normal,20,5.0,,,1200.0,Mist,19.0,19.0,29.84,1010.5,10,,,,,,,,,,,,,,Sky Obscured (Unable to Estimate),0.0,0.0,,0.0,,,,,,
KRDR,08-14-2020,09:46,SPECI,Normal,30,5.0,,,2200.0,Mist,19.0,19.0,29.84,1010.5,10,,,,,,,,,,,,,,,0.0,0.0,OVC,0.0,,,,,,
KRDR,08-14-2020,09:36,SPECI,Normal,70,7.0,,,2200.0,Mist,19.0,19.0,29.84,1010.5,10,,,,,,,,,,,,,,,200.0,200.0,OVC,200.0,,,,,,
KRDR,08-14-2020,09:16,SPECI,Normal,50,5.0,,,8000.0,Mist,18.0,18.0,29.84,1010.6,10,,,,,,,,,,,,,,,200.0,200.0,BKN,200.0,,,,,,
KRDR,08-14-2020,09:06,SPECI,Normal,20,5.0,,,9999.0,,18.0,18.0,29.83,1010.2,,,,,,,,,,,,,,,2/8 Mostly Clear,72000.0,300.0,FEW,300.0,,,,,,
KRDR,08-14-2020,08:56,METAR,Normal,40,6.0,,,9999.0,,18.2,18.2,29.83,1010.3,,,,,,,,,,,,,,,Clear,72000.0,,,,,,,,,
KRDR,08-14-2020,08:46,SPECI,Normal,20,5.0,,,3200.0,Mist,18.0,18.0,29.85,1010.9,10,,,,,,,,,,,,,,Clear,72000.0,,,,,,,,,
KRDR,08-14-2020,08:26,SPECI,Normal,340,4.0,,,4400.0,Mist,18.0,18.0,29.84,1010.6,10,,,,,,,,,,,,,,Clear,72000.0,,,,,,,,,
KRDR,08-14-2020,08:16,SPECI,Normal,340,5.0,,,2200.0,Mist,18.0,18.0,29.83,1010.3,10,,,,,,,,,,,,,,Clear,72000.0,,,,,,,,,
KRDR,08-14-2020,08:11,SPECI,Normal,330,6.0,,,1000.0,Mist,17.0,17.0,29.83,1010.3,10,,,,,,,,,,,,,,Clear,72000.0,,,,,,,,,
KRDR,08-14-2020,08:01,SPECI,Normal,290,4.0,,,600.0,Fog,17.0,17.0,29.82,1010.0,30,,,,,,,,,,,,,,Clear,72000.0,,,,,,,,,
KRDR,08-14-2020,07:56,METAR,Normal,280,5.0,,,400.0,Fog,17.7,17.7,29.82,1009.9,30,,,,,,,,,,,,,,Clear,72000.0,,,,,,,,,
KRDR,08-14-2020,07:11,SPECI,Calm,,0.0,,,600.0,Fog,18.0,18.0,29.82,1010.0,30,,,,,,,,,,,,,,Clear,72000.0,,,,,,,,,
KRDR,08-14-2020,07:01,SPECI,Calm,,0.0,,,1000.0,Mist,19.0,19.0,29.82,1009.9,10,,,,,,,,,,,,,,Clear,72000.0,,,,,,,,,
KRDR,08-14-2020,06:56,METAR,Calm,,0.0,,,1800.0,Mist,18.9,18.9,29.83,1010.3,10,,,,,,,,,,,,,,Clear,72000.0,,,,,,,,,
KRDR,08-14-2020,06:51,SPECI,Calm,,0.0,,,2000.0,Mist,20.0,20.0,29.83,1010.3,10,,,,,,,,,,,,,,Clear,72000.0,,,,,,,,,
KRDR,08-14-2020,06:46,SPECI,Calm,,0.0,,,1000.0,Mist,19.0,19.0,29.83,1010.3,10,,,,,,,,,,,,,,Clear,72000.0,,,,,,,,,
KRDR,08-14-2020,05:56,METAR,Normal,320,3.0,,,9999.0,,20.2,20.2,29.83,1010.3,,,,,,,,,,,,,,,Clear,72000.0,,,,,,,,,
KRDR,08-14-2020,04:56,METAR,Normal,20,5.0,,,9999.0,,21.0,21.0,29.82,1009.9,,,,,,,,,,,,,,,Clear,72000.0,,,,,,,,,
KRDR,08-14-2020,03:56,METAR,Normal,30,6.0,,,9999.0,,21.7,21.7,29.83,1010.3,,,,,,,,,,,,,,,Clear,72000.0,,,,,,,,,
KRDR,08-14-2020,02:56,METAR,Normal,30,7.0,,,9999.0,,23.4,23.2,29.85,1011.0,,,,,,,,,,,,,,,4/8 Partly Cloudy,72000.0,3600.0,SCT,3600.0,,,,,,
KRDR,08-14-2020,01:56,METAR,Normal,350,11.0,,,9999.0,,24.9,22.9,29.81,1009.6,,,,,,,,,,,,,,,4/8 Partly Cloudy,72000.0,16000.0,SCT,16000.0,,,,,,
KRDR,08-14-2020,00:56,METAR,Normal,350,8.0,,,9999.0,,27.1,23.9,29.81,1009.6,,,,,,,,,,,,,,,Clear,72000.0,,,,,,,,,
KRDR,08-13-2020,23:56,METAR,Normal,360,6.0,,,9999.0,,29.1,24.6,29.79,1008.8,,,,,,,,,,,,,,,Clear,72000.0,,,,,,,,,
KRDR,08-13-2020,22:56,METAR,Normal,350,4.0,,,9999.0,,29.8,24.8,29.79,1008.8,,,,,,,,,,,,,,,Clear,72000.0,,,,,,,,,
KRDR,08-13-2020,21:56,METAR,Normal,90,4.0,,,9999.0,,29.7,24.3,29.80,1009.1,,,,,,,,,,,,,,,2/8 Mostly Clear,72000.0,17000.0,FEW,17000.0,,,,,,
KRDR,08-13-2020,20:56,METAR,Normal,90,9.0,,,9999.0,,28.6,23.7,29.79,1008.8,,,,,,,,,,,,,,,Clear,72000.0,,,,,,,,,
KRDR,08-13-2020,19:56,METAR,Normal,70,9.0,,,9999.0,,27.9,23.7,29.81,1009.6,,,,,,,,,,,,,,,,4000.0,2100.0,FEW,2100.0,SCT,3500.0,BKN,4000.0,,
KRDR,08-13-2020,18:56,METAR,Normal,20,7.0,,,9999.0,,26.2,23.4,29.81,1009.6,,,,,,,,,,,,,,,,1900.0,1900.0,BKN,1900.0,BKN,3000.0,BKN,4100.0,,
KRDR,08-13-2020,18:36,SPECI,Normal,30,6.0,,,9999.0,,26.0,24.0,29.82,1010.0,,,,,,,,,,,,,,,,2400.0,2400.0,BKN,2400.0,BKN,3200.0,,,,
KRDR,08-13-2020,17:56,METAR,Calm,,0.0,,,9999.0,,26.3,23.3,29.81,1009.6,,,,,,,,,,,,,,,,1700.0,1700.0,BKN,1700.0,BKN,2400.0,,,,
KRDR,08-13-2020,16:56,METAR,Normal,140,8.0,,,9999.0,,24.4,22.6,29.79,1009.0,,,,,,,,,,,,,,,,1400.0,1400.0,BKN,1400.0,BKN,2200.0,,,,
KRDR,08-13-2020,16:36,SPECI,Normal,140,10.0,,,9999.0,,24.0,22.0,29.79,1009.0,,,,,,,,,,,,,,,,1200.0,1200.0,BKN,1200.0,,,,,,
KRDR,08-13-2020,16:16,SPECI,Normal,140,8.0,,,9999.0,,22.0,22.0,29.80,1009.3,,,,,,,,,,,,,,,,1000.0,1000.0,OVC,1000.0,,,,,,
KRDR,08-13-2020,15:56,METAR,Normal,160,6.0,,,9999.0,,22.3,21.9,29.80,1009.3,,,,,,,,,,,,,,,,900.0,900.0,OVC,900.0,,,,,,
KRDR,08-13-2020,15:36,SPECI,Normal,150,9.0,,,9999.0,,22.0,22.0,29.78,1008.7,,,,,,,,,,,,,,,,800.0,800.0,OVC,800.0,,,,,,
KRDR,08-13-2020,15:26,SPECI,Normal,160,9.0,,,9999.0,,22.0,22.0,29.79,1009.0,,,,,,,,,,,,,,,,700.0,700.0,OVC,700.0,,,,,,
KRDR,08-13-2020,15:06,SPECI,Normal,160,10.0,,,9999.0,Mist,21.0,21.0,29.79,1009.0,10,,,,,,,,,,,,,,,600.0,600.0,OVC,600.0,,,,,,
KRDR,08-13-2020,14:56,METAR,Normal,160,12.0,,,9999.0,Mist,20.6,20.6,29.79,1009.0,10,,,,,,,,,,,,,,,500.0,500.0,OVC,500.0,,,,,,
KRDR,08-13-2020,13:56,METAR,Normal,160,11.0,16.0,,8000.0,,19.8,19.8,29.81,1009.7,,,,,,,,,,,,,,,,600.0,600.0,OVC,600.0,,,,,,
KRDR,08-13-2020,13:26,SPECI,Normal,180,12.0,,,9999.0,,20.0,20.0,29.81,1009.6,,,,,,,,,,,,,,,,700.0,700.0,OVC,700.0,,,,,,
KRDR,08-13-2020,12:56,METAR,Normal,160,11.0,,,9999.0,,19.4,19.2,29.81,1009.6,,,,,,,,,,,,,,,,900.0,900.0,OVC,900.0,,,,,,
KRDR,08-13-2020,12:52,SPECI,Normal,160,8.0,,,9999.0,,19.0,19.0,29.81,1009.6,,,,,,,,,,,,,,,,900.0,900.0,OVC,900.0,,,,,,
KRDR,08-13-2020,12:02,SPECI,Normal,150,14.0,,,9999.0,,19.0,19.0,29.82,1009.9,,,,,,,,,,,,,,,,1000.0,1000.0,OVC,1000.0,,,,,,
KRDR,08-13-2020,11:56,METAR,Normal,150,12.0,,,9999.0,,19.2,18.9,29.82,1009.9,,,,,,,,,,,,,,,,1200.0,1200.0,OVC,1200.0,,,,,,
KRDR,08-13-2020,10:56,METAR,Normal,140,9.0,,,9999.0,,19.1,18.8,29.85,1010.9,,,,,,,,,,,,,,,,1200.0,1200.0,OVC,1200.0,,,,,,
KRDR,08-13-2020,09:56,METAR,Normal,140,7.0,,,9999.0,,19.0,18.8,29.86,1011.2,,,,,,,,,,,,,,,,1200.0,1200.0,OVC,1200.0,,,,,,
KRDR,08-13-2020,09:54,SPECI,Normal,140,8.0,,,9999.0,,19.0,19.0,29.86,1011.2,,,,,,,,,,,,,,,,1200.0,1200.0,OVC,1200.0,,,,,,
KRDR,08-13-2020,09:44,SPECI,Normal,140,7.0,,,9999.0,,19.0,19.0,29.86,1011.2,,,,,,,,,,,,,,,,1100.0,1100.0,OVC,1100.0,,,,,,
KRDR,08-13-2020,09:16,SPECI,Normal,140,7.0,,,9999.0,,19.0,19.0,29.87,1011.6,,,,,,,,,,,,,,,,1200.0,1200.0,OVC,1200.0,,,,,,
KRDR,08-13-2020,08:56,METAR,Normal,140,6.0,,,9999.0,,18.7,18.7,29.87,1011.6,,,,,,,,,,,,,,,,1300.0,1300.0,OVC,1300.0,,,,,,
KRDR,08-13-2020,08:46,SPECI,Normal,140,8.0,,,9999.0,,19.0,19.0,29.87,1011.6,,,,,,,,,,,,,,,,1300.0,1300.0,OVC,1300.0,,,,,,
KRDR,08-13-2020,08:26,SPECI,Normal,140,10.0,,,9999.0,,19.0,19.0,29.88,1011.9,,,,,,,,,,,,,,,,1400.0,1400.0,OVC,1400.0,,,,,,
KRDR,08-13-2020,08:06,SPECI,Normal,150,11.0,,,9999.0,,19.0,18.0,29.88,1011.9,,,,,,,,,,,,,,,,1700.0,1700.0,BKN,1700.0,OVC,2700.0,,,,
KRDR,08-13-2020,07:56,METAR,Normal,150,11.0,,,9999.0,,18.6,18.4,29.89,1012.2,,,,,,,,,,,,,,,,2700.0,1800.0,SCT,1800.0,OVC,2700.0,,,,
KRDR,08-13-2020,07:46,SPECI,Normal,150,9.0,,,9999.0,,19.0,19.0,29.89,1012.2,,,,,,,,,,,,,,,,2800.0,2800.0,BKN,2800.0,OVC,4200.0,,,,
KRDR,08-13-2020,07:26,SPECI,Normal,140,7.0,,,9999.0,,18.0,18.0,29.90,1012.6,,,,,,,,,,,,,,,,4000.0,2500.0,FEW,2500.0,OVC,4000.0,,,,
KRDR,08-13-2020,06:56,METAR,Normal,150,7.0,,,9999.0,,18.0,18.0,29.91,1013.0,,,,,,,,,,,,,,,,2300.0,2300.0,OVC,2300.0,,,,,,
KRDR,08-13-2020,06:46,SPECI,Normal,160,9.0,,,9999.0,,18.0,18.0,29.91,1013.0,,,,,,,,,,,,,,,,2500.0,2500.0,BKN,2500.0,,,,,,
KRDR,08-13-2020,05:56,METAR,Normal,150,7.0,,,9999.0,,17.6,17.6,29.92,1013.4,,,,,,,,,,,,,,,Clear,72000.0,,,,,,,,,
KRDR,08-13-2020,04:56,METAR,Normal,150,6.0,,,9999.0,,18.6,18.6,29.93,1013.7,,,,,,,,,,,,,,,Clear,72000.0,,,,,,,,,
KRDR,08-13-2020,03:56,METAR,Normal,160,7.0,,,9999.0,,19.6,18.9,29.92,1013.4,,,,,,,,,,,,,,,Clear,72000.0,,,,,,,,,
KRDR,08-13-2020,02:56,METAR,Normal,160,8.0,,,9999.0,,21.2,19.1,29.92,1013.4,,,,,,,,,,,,,,,Clear,72000.0,,,,,,,,,
KRDR,08-13-2020,01:56,METAR,Normal,160,10.0,,,9999.0,,22.4,19.5,29.91,1013.1,,,,,,,,,,,,,,,Clear,72000.0,,,,,,,,,
KRDR,08-13-2020,00:56,METAR,Normal,160,12.0,,,9999.0,,24.5,20.0,29.90,1012.7,,,,,,,,,,,,,,,Clear,72000.0,,,,,,,,,
KRDR,08-12-2020,23:56,METAR,Normal,160,17.0,,,9999.0,,26.6,19.4,29.89,1012.4,,,,,,,,,,,,,,,Clear,72000.0,,,,,,,,,
KRDR,08-12-2020,22:56,METAR,Normal,150,12.0,,,9999.0,,27.5,19.3,29.89,1012.4,,,,,,,,,,,,,,,Clear,72000.0,,,,,,,,,
KRDR,08-12-2020,21:56,METAR,Normal,190,12.0,,,9999.0,,28.2,18.8,29.88,1012.0,,,,,,,,,,,,,,,Clear,72000.0,,,,,,,,,
KRDR,08-12-2020,20:56,METAR,Normal,200,13.0,18.0,,9999.0,,28.3,19.2,29.89,1012.4,,,,,,,,,,,,,,,Clear,72000.0,,,,,,,,,
KRDR,08-12-2020,19:56,METAR,Normal,190,11.0,,,9999.0,,28.6,18.9,29.90,1012.7,,,,,,,,,,,,,,,2/8 Mostly Clear,72000.0,5000.0,FEW,5000.0,FEW,20000.0,,,,
KRDR,08-12-2020,18:56,METAR,Normal,190,7.0,16.0,,9999.0,,27.8,19.8,29.90,1012.7,,,,,,,,,,,,,,,2/8 Mostly Clear,72000.0,4000.0,FEW,4000.0,FEW,20000.0,,,,
KRDR,08-12-2020,17:56,METAR,Normal,160,9.0,,,9999.0,,25.6,21.0,29.91,1013.1,,,,,,,,,,,,,,,,20000.0,4000.0,FEW,4000.0,SCT,12000.0,BKN,20000.0,,
KRDR,08-12-2020,16:56,METAR,Normal,130,8.0,,,9999.0,,24.1,20.2,29.91,1013.1,,,,,,,,,,,,,,,,20000.0,14000.0,SCT,14000.0,BKN,20000.0,,,,
KRDR,08-12-2020,15:56,METAR,Normal,70,5.0,,,9999.0,,22.2,19.5,29.89,1012.5,,,,,,,,,,,,,,,,20000.0,12000.0,SCT,12000.0,BKN,20000.0,,,,
KRDR,08-12-2020,14:56,METAR,Normal,100,4.0,,,9999.0,,21.3,19.0,29.89,1012.4,,,,,,,,,,,,,,,,19000.0,12000.0,SCT,12000.0,BKN,19000.0,,,,
KRDR,08-12-2020,13:56,METAR,Normal,110,6.0,,,9999.0,,18.7,18.7,29.90,1012.8,,,,,,,,,,,,,,,,20000.0,12000.0,SCT,12000.0,BKN,20000.0,,,,
KRDR,08-12-2020,12:56,METAR,Normal,120,6.0,,,9999.0,,17.0,17.0,29.90,1012.7,,,,,,,,,,,,,,,Clear,72000.0,,,,,,,,,
KRDR,08-12-2020,11:56,METAR,Calm,,0.0,,,9999.0,,15.9,15.9,29.91,1013.1,,,,,,,,,,,,,,,Clear,72000.0,,,,,,,,,
KRDR,08-12-2020,10:56,METAR,Normal,150,4.0,,,9999.0,,16.0,16.0,29.90,1012.7,,,,,,,,,,,,,,,Clear,72000.0,,,,,,,,,
KRDR,08-12-2020,09:56,METAR,Normal,140,4.0,,,9999.0,,16.6,16.6,29.89,1012.4,,,,,,,,,,,,,,,Clear,72000.0,,,,,,,,,
KRDR,08-12-2020,08:56,METAR,Normal,120,4.0,,,9999.0,,16.6,16.6,29.88,1012.0,,,,,,,,,,,,,,,Clear,72000.0,,,,,,,,,
KRDR,08-12-2020,07:56,METAR,Calm,,0.0,,,9999.0,,14.9,14.9,29.91,1013.1,,,,,,,,,,,,,,,Clear,72000.0,,,,,,,,,
KRDR,08-12-2020,06:56,METAR,Calm,,0.0,,,9999.0,,14.2,14.2,29.92,1013.4,,,,,,,,,,,,,,,Clear,72000.0,,,,,,,,,
KRDR,08-12-2020,05:56,METAR,Calm,,0.0,,,9999.0,,15.6,15.1,29.92,1013.4,,,,,,,,,,,,,,,Clear,72000.0,,,,,,,,,
KRDR,08-12-2020,04:56,METAR,Normal,120,4.0,,,9999.0,,17.6,15.0,29.91,1013.0,,,,,,,,,,,,,,,Clear,72000.0,,,,,,,,,
KRDR,08-12-2020,03:56,METAR,Calm,,0.0,,,9999.0,,16.5,14.3,29.92,1013.4,,,,,,,,,,,,,,,Clear,72000.0,,,,,,,,,
KRDR,08-12-2020,02:56,METAR,Normal,130,3.0,,,9999.0,,21.1,14.9,29.89,1012.3,,,,,,,,,,,,,,,Clear,72000.0,,,,,,,,,
KRDR,08-12-2020,01:56,METAR,Normal,160,6.0,,,9999.0,,20.8,15.1,29.87,1011.7,,,,,,,,,,,,,,,Clear,72000.0,,,,,,,,,
KRDR,08-12-2020,00:56,METAR,Normal,130,5.0,,,9999.0,,24.9,14.9,29.87,1011.7,,,,,,,,,,,,,,,Clear,72000.0,,,,,,,,,
KRDR,08-11-2020,23:56,METAR,Normal,120,6.0,,,9999.0,,26.7,12.7,29.87,1011.8,,,,,,,,,,,,,,,Clear,72000.0,,,,,,,,,
KRDR,08-11-2020,22:56,METAR,Normal,160,4.0,,,9999.0,,27.4,10.6,29.87,1011.8,,,,,,,,,,,,,,,Clear,72000.0,,,,,,,,,
KRDR,08-11-2020,21:56,METAR,Normal,90,6.0,,,9999.0,,27.5,11.5,29.88,1012.1,,,,,,,,,,,,,,,Clear,72000.0,,,,,,,,,
KRDR,08-11-2020,20:56,METAR,Normal,60,5.0,,,9999.0,,27.8,11.3,29.89,1012.4,,,,,,,,,,,,,,,Clear,72000.0,,,,,,,,,
KRDR,08-11-2020,19:56,METAR,Normal,30,3.0,,,9999.0,,27.4,10.1,29.88,1012.0,,,,,,,,,,,,,,,Clear,72000.0,,,,,,,,,
KRDR,08-11-2020,18:56,METAR,Normal,80,3.0,,,9999.0,,27.0,10.2,29.89,1012.4,,,,,,,,,,,,,,,Clear,72000.0,,,,,,,,,
KRDR,08-11-2020,17:56,METAR,Calm,,0.0,,,9999.0,,26.6,9.9,29.89,1012.4,,,,,,,,,,,,,,,Clear,72000.0,,,,,,,,,
KRDR,08-11-2020,16:56,METAR,Normal,270,5.0,,,9999.0,,26.5,9.8,29.91,1013.0,,,,,,,,,,,,,,,Clear,72000.0,,,,,,,,,
KRDR,08-11-2020,15:56,METAR,Normal,250,3.0,,,9999.0,,26.1,8.6,29.91,1013.1,,,,,,,,,,,,,,,Clear,72000.0,,,,,,,,,
KRDR,08-11-2020,14:56,METAR,Normal,260,3.0,,,9999.0,,24.6,11.5,29.88,1012.1,,,,,,,,,,,,,,,Clear,72000.0,,,,,,,,,
KRDR,08-11-2020,13:56,METAR,Normal,260,5.0,,,9999.0,,21.7,11.7,29.87,1011.8,,,,,,,,,,,,,,,Clear,72000.0,,,,,,,,,
KRDR,08-11-2020,12:56,METAR,Normal,240,3.0,,,9999.0,,17.3,12.0,29.87,1011.8,,,,,,,,,,,,,,,Clear,72000.0,,,,,,,,,
KRDR,08-11-2020,11:56,METAR,Normal,280,5.0,,,9999.0,,13.6,9.4,29.85,1011.2,,,,,,,,,,,,,,,Clear,72000.0,,,,,,,,,
KRDR,08-11-2020,10:56,METAR,Normal,300,6.0,,,9999.0,,13.3,8.8,29.83,1010.5,,,,,,,,,,,,,,,Clear,72000.0,,,,,,,,,
KRDR,08-11-2020,09:56,METAR,Normal,300,8.0,,,9999.0,,13.3,8.6,29.83,1010.5,,,,,,,,,,,,,,,Clear,72000.0,,,,,,,,,
KRDR,08-11-2020,08:56,METAR,Normal,210,7.0,,,9999.0,,14.8,8.1,29.81,1009.7,,,,,,,,,,,,,,,Clear,72000.0,,,,,,,,,
KRDR,08-11-2020,07:56,METAR,Normal,320,9.0,19.0,,9999.0,,16.5,6.3,29.82,1010.0,,,,,,,,,,,,,,,Clear,72000.0,,,,,,,,,
KRDR,08-11-2020,06:56,METAR,Normal,240,8.0,,,9999.0,,16.0,5.9,29.79,1009.0,,,,,,,,,,,,,,,Clear,72000.0,,,,,,,,,
KRDR,08-11-2020,05:56,METAR,Normal,240,8.0,,,9999.0,,16.3,6.7,29.78,1008.7,,,,,,,,,,,,,,,Clear,72000.0,,,,,,,,,
KRDR,08-11-2020,04:56,METAR,Normal,230,9.0,,,9999.0,,16.3,6.1,29.78,1008.7,,,,,,,,,,,,,,,Clear,72000.0,,,,,,,,,
KRDR,08-11-2020,03:56,METAR,Normal,240,7.0,,,9999.0,,15.6,8.1,29.80,1009.4,,,,,,,,,,,,,,,Clear,72000.0,,,,,,,,,
KRDR,08-11-2020,02:56,METAR,Normal,230,6.0,,,9999.0,,16.0,9.6,29.81,1009.8,,,,,,,,,,,,,,,Clear,72000.0,,,,,,,,,
KRDR,08-11-2020,01:56,METAR,Normal,230,6.0,,,9999.0,,17.3,10.4,29.82,1010.2,,,,,,,,,,,,,,,Clear,72000.0,,,,,,,,,
KRDR,08-11-2020,00:56,METAR,Normal,260,5.0,,,9999.0,,22.3,9.4,29.83,1010.5,,,,,,,,,,,,,,,Clear,72000.0,,,,,,,,,
KRDR,08-10-2020,23:56,METAR,Normal,290,10.0,,,9999.0,,24.6,6.3,29.84,1010.8,,,,,,,,,,,,,,,Clear,72000.0,,,,,,,,,
KRDR,08-10-2020,22:56,METAR,Normal,290,12.0,19.0,,9999.0,,25.6,5.7,29.85,1011.0,,,,,,,,,,,,,,,Clear,72000.0,,,,,,,,,
KRDR,08-10-2020,21:56,METAR,Normal,290,11.0,,310/28KTS,9999.0,,25.7,6.3,29.85,1011.1,,,,,,,,,,,,,,,Clear,72000.0,,,,,,,,,
KRDR,08-10-2020,20:56,METAR,Normal,310,14.0,21.0,290/26KTS,9999.0,,25.6,6.2,29.85,1011.2,,,,,,,,,,,,,,,Clear,72000.0,,,,,,,,,
KRDR,08-10-2020,19:56,METAR,Normal,310,18.0,27.0,290/28KTS,9999.0,,25.7,6.3,29.86,1011.4,,,,,,,,,,,,,,,Clear,72000.0,,,,,,,,,
KRDR,08-10-2020,18:56,METAR,Normal,300,17.0,26.0,300/29KTS,9999.0,,25.5,6.1,29.88,1012.1,,,,,,,,,,,,,,,Clear,72000.0,,,,,,,,,
KRDR,08-10-2020,17:56,METAR,Normal,290,16.0,26.0,280/26KTS,9999.0,,24.9,7.1,29.89,1012.5,,,,,,,,,,,,,,,Clear,72000.0,,,,,,,,,
KRDR,08-10-2020,16:56,METAR,Normal,290,11.0,,,9999.0,,24.4,9.1,29.90,1012.8,,,,,,,,,,,,,,,Clear,72000.0,,,,,,,,,
KRDR,08-10-2020,15:56,METAR,Normal,260,10.0,17.0,,9999.0,,23.0,10.7,29.93,1013.9,,,,,,,,,,,,,,,Clear,72000.0,,,,,,,,,
KRDR,08-10-2020,14:56,METAR,Normal,280,10.0,,,9999.0,,21.5,11.2,29.92,1013.5,,,,,,,,,,,,,,,Clear,72000.0,,,,,,,,,
KRDR,08-10-2020,13:56,METAR,Normal,280,9.0,,,9999.0,,19.2,11.7,29.92,1013.5,,,,,,,,,,,,,,,Clear,72000.0,,,,,,,,,
KRDR,08-10-2020,12:56,METAR,Normal,280,6.0,,,9999.0,,16.6,10.7,29.91,1013.2,,,,,,,,,,,,,,,Clear,72000.0,,,,,,,,,
KRDR,08-10-2020,11:56,METAR,Normal,280,7.0,,,9999.0,,14.8,10.4,29.89,1012.5,,,,,,,,,,,,,,.18 IN,Clear,72000.0,,,,,,,,,
KRDR,08-10-2020,10:56,METAR,Normal,290,8.0,,,9999.0,,15.0,10.4,29.89,1012.5,,,,,,,,,,,,,,,,21000.0,21000.0,BKN,21000.0,,,,,,
KRDR,08-10-2020,09:56,METAR,Normal,290,9.0,,,9999.0,,14.9,10.1,29.89,1012.5,,,,,,,,,,,,,,,4/8 Partly Cloudy,72000.0,19000.0,SCT,19000.0,SCT,21000.0,,,,
KRDR,08-10-2020,08:56,METAR,Normal,270,6.0,,,9999.0,,12.2,9.9,29.89,1012.6,,,,,,,,,,,,,,,Clear,72000.0,,,,,,,,,
KRDR,08-10-2020,07:56,METAR,Normal,260,7.0,,,9999.0,,13.2,10.4,29.89,1012.7,,,,,,,,,,,,,,,Clear,72000.0,,,,,,,,,
KRDR,08-10-2020,06:56,METAR,Normal,280,9.0,,,9999.0,,15.9,10.9,29.89,1012.6,,,,,,,,,,,,,,,Clear,72000.0,,,,,,,,,
KRDR,08-10-2020,05:56,METAR,Normal,270,5.0,,,9999.0,,13.5,10.3,29.89,1012.4,,,,,,,,,,,,,,,Clear,72000.0,,,,,,,,,
KRDR,08-10-2020,04:56,METAR,Normal,300,8.0,,,9999.0,,14.9,9.9,29.88,1012.1,,,,,,,,,,,,,,,Clear,72000.0,,,,,,,,,
KRDR,08-10-2020,03:56,METAR,Normal,270,4.0,,,9999.0,,15.7,11.9,29.88,1012.1,,,,,,,,,,,,,,,Clear,72000.0,,,,,,,,,
KRDR,08-10-2020,02:56,METAR,Normal,290,7.0,,,9999.0,,15.9,12.6,29.88,1012.2,,,,,,,,,,,,,,,Clear,72000.0,,,,,,,,,
KRDR,08-10-2020,01:56,METAR,Normal,260,4.0,,,9999.0,,18.4,15.1,29.85,1011.2,,,,,,,,,,,,,,,Clear,72000.0,,,,,,,,,
KRDR,08-10-2020,00:56,METAR,Normal,320,5.0,,,9999.0,,21.9,15.0,29.84,1010.7,,,,,,,,,,,,,,,Clear,72000.0,,,,,,,,,
KRDR,08-09-2020,23:56,METAR,Normal,330,9.0,,,9999.0,,23.2,15.0,29.83,1010.4,,,,,,,,,,,,,.24 IN,,Clear,72000.0,,,,,,,,,
KRDR,08-09-2020,22:56,METAR,Normal,330,10.0,,,9999.0,,23.8,17.5,29.81,1009.7,,,,,,,,,,,,,,,,17000.0,13000.0,SCT,13000.0,BKN,17000.0,,,,
KRDR,08-09-2020,21:56,METAR,Normal,340,7.0,,,9999.0,,22.7,19.0,29.79,1009.0,,,,,,,,,,,,,,,,12000.0,12000.0,BKN,12000.0,,,,,,
KRDR,08-09-2020,20:56,METAR,Normal,10,8.0,,,9999.0,,23.0,22.1,29.75,1007.7,,,,,,,,,,,,.18 IN,,,,13000.0,7000.0,FEW,7000.0,BKN,13000.0,BKN,18000.0,,
KRDR,08-09-2020,19:56,METAR,Normal,330,3.0,,,9999.0,,19.8,19.8,29.71,1006.4,,,,,,,,,,,TRACE,,,,,5500.0,5500.0,BKN,5500.0,,,,,,
KRDR,08-09-2020,19:18,SPECI,Normal,310,10.0,,,9999.0,Distant Lightning,20.0,20.0,29.71,1006.4,12,,,,,,,,,,,,,,4/8 Partly Cloudy,72000.0,2000.0,FEW,2000.0,SCT,4900.0,,,,
KRDR,08-09-2020,19:07,SPECI,Normal,310,13.0,17.0,,9999.0,Dry Thunderstorm,19.0,19.0,29.72,1006.9,91,,,,,,,,,,,,,,,4900.0,2200.0,SCT,2200.0,SCT,3300.0,BKN,4900.0,BKN,8000.0
KRDR,08-09-2020,19:06,SPECI,Normal,310,12.0,17.0,,9999.0,Thunderstorm and Rain or Snow Showers,19.0,19.0,29.71,1006.5,92,,,,,,,,,,,,,,,4900.0,2200.0,SCT,2200.0,SCT,3300.0,BKN,4900.0,BKN,8000.0
KRDR,08-09-2020,18:56,METAR,Normal,350,10.0,30.0,350/36KTS,6400.0,Thunderstorm and Rain or Snow Showers/Mist,19.5,19.5,29.70,1006.2,92,10,,,,,,,,,.24 IN,,,,,2200.0,1600.0,FEW,1600.0,BKN,2200.0,OVC,3300.0,,
KRDR,08-09-2020,18:36,SPECI,Normal,10,20.0,25.0,,9999.0,Heavy Thunderstorm and Rain or Snow Showers/Mist,23.0,22.0,29.72,1006.7,95,10,,,,,,,,,,,,,,2200.0,1500.0,SCT,1500.0,BKN,2200.0,OVC,2900.0,,
KRDR,08-09-2020,18:25,SPECI,Normal,320,6.0,,,9999.0,Thunderstorm with Rain or Snow,26.0,25.0,29.71,1006.3,,,,95,,,,,,,,,,,,2800.0,1400.0,FEW,1400.0,SCT,1900.0,BKN,2800.0,OVC,4300.0
KRDR,08-09-2020,18:17,SPECI,Normal,120,6.0,,,9999.0,Dry Thunderstorm,26.0,25.0,29.71,1006.3,91,,,,,,,,,,,,,,,2500.0,1900.0,SCT,1900.0,BKN,2500.0,BKN,3000.0,BKN,4200.0
KRDR,08-09-2020,18:16,SPECI,Normal,110,8.0,,,9999.0,,26.0,25.0,29.70,1005.9,,,,,,,,,,,,,,,,2700.0,1900.0,SCT,1900.0,BKN,2700.0,BKN,3200.0,BKN,4200.0
KRDR,08-09-2020,17:56,METAR,Normal,130,4.0,,,9999.0,,27.0,24.4,29.72,1006.6,,,,,,,,,,,,,,,4/8 Partly Cloudy,72000.0,1800.0,FEW,1800.0,FEW,14000.0,SCT,18000.0,,
KRDR,08-09-2020,17:16,SPECI,Normal,100,3.0,,,9999.0,,26.0,24.0,29.70,1005.9,,,,,,,,,,,,,,,,17000.0,1600.0,SCT,1600.0,SCT,13000.0,BKN,17000.0,,
KRDR,08-09-2020,16:56,METAR,Normal,330,6.0,,,9999.0,,27.1,24.1,29.73,1006.9,,,,,,,,,,,,,,,,1500.0,1500.0,BKN,1500.0,,,,,,
KRDR,08-09-2020,16:52,SPECI,Normal,300,7.0,,,9999.0,,28.0,24.0,29.74,1007.2,,,,,,,,,,,,,,,,1500.0,1500.0,BKN,1500.0,,,,,,
KRDR,08-09-2020,16:42,SPECI,Normal,300,7.0,,,9999.0,,27.0,24.0,29.74,1007.3,,,,,,,,,,,,,,,,1400.0,1400.0,BKN,1400.0,,,,,,
KRDR,08-09-2020,16:18,SPECI,Normal,280,5.0,,,9999.0,Distant Lightning,27.0,24.0,29.73,1007.0,12,,,,,,,,,,,,,,4/8 Partly Cloudy,72000.0,700.0,FEW,700.0,SCT,12000.0,,,,
KRDR,08-09-2020,16:04,SPECI,Normal,260,6.0,,,9999.0,Thunderstorm,26.0,24.0,29.73,1007.0,,,,17,,,,,,,,,,,,600.0,600.0,BKN,600.0,,,,,,
KRDR,08-09-2020,15:56,METAR,Normal,260,5.0,,,9999.0,,24.7,23.6,29.72,1006.6,,,,,,,,,,,,,,,,600.0,600.0,OVC,600.0,,,,,,
KRDR,08-09-2020,15:46,SPECI,Normal,290,6.0,,,9999.0,,23.0,23.0,29.73,1007.0,,,,,,,,,,,,,,,,600.0,600.0,OVC,600.0,,,,,,
KRDR,08-09-2020,15:16,SPECI,Calm,,0.0,,,9999.0,,22.0,22.0,29.74,1007.4,,,,,,,,,,,,,,,,500.0,500.0,OVC,500.0,,,,,,
KRDR,08-09-2020,14:56,METAR,Normal,220,5.0,,,9999.0,,20.7,20.7,29.76,1008.0,,,,,,,,,,,,,,,,600.0,600.0,OVC,600.0,,,,,,
KRDR,08-09-2020,14:03,SPECI,Normal,230,4.0,,,9999.0,,20.0,20.0,29.77,1008.3,,,,,,,,,,,,,,,,600.0,600.0,BKN,600.0,OVC,3000.0,,,,
KRDR,08-09-2020,13:56,METAR,Normal,210,3.0,,,9999.0,Dry Thunderstorm,20.0,20.0,29.77,1008.3,91,,,,,,,,,,,,,,,600.0,600.0,BKN,600.0,OVC,3000.0,,,,
KRDR,08-09-2020,13:48,SPECI,Calm,,0.0,,,9999.0,Thunderstorm,20.0,20.0,29.78,1008.6,,,,17,,,,,,,,,,,,800.0,800.0,BKN,800.0,OVC,3000.0,,,,
KRDR,08-09-2020,13:26,SPECI,Normal,150,4.0,,,9999.0,,20.0,20.0,29.80,1009.3,,,,,,,,,,,,,,,,800.0,800.0,OVC,800.0,,,,,,
KRDR,08-09-2020,13:16,SPECI,Calm,,0.0,,,9999.0,,20.0,20.0,29.80,1009.3,,,,,,,,,,,,,,,,700.0,700.0,OVC,700.0,,,,,,
KRDR,08-09-2020,13:06,SPECI,Normal,140,6.0,,,9999.0,,20.0,20.0,29.80,1009.2,,,,,,,,,,,,,,,,800.0,800.0,OVC,800.0,,,,,,
KRDR,08-09-2020,12:56,METAR,Normal,120,5.0,,,9999.0,,19.5,19.5,29.79,1008.9,,,,,,,,,,,,,,,,600.0,600.0,BKN,600.0,OVC,3100.0,,,,
KRDR,08-09-2020,12:50,SPECI,Normal,120,3.0,,,9999.0,,19.0,19.0,29.80,1009.3,,,,,,,,,,,,,,,,600.0,600.0,BKN,600.0,BKN,3100.0,,,,
KRDR,08-09-2020,12:30,SPECI,Normal,130,5.0,,,9999.0,,18.0,18.0,29.80,1009.3,,,,,,,,,,,,,,,,5000.0,800.0,FEW,800.0,BKN,5000.0,,,,
KRDR,08-09-2020,11:56,METAR,Calm,,0.0,,,9999.0,,17.1,17.1,29.80,1009.3,,,,,,,,,,,,,,,2/8 Mostly Clear,72000.0,3000.0,FEW,3000.0,,,,,,
KRDR,08-09-2020,10:56,METAR,Normal,180,6.0,,,9999.0,,17.4,17.4,29.79,1009.0,,,,,,,,,,,,,,,,10000.0,10000.0,BKN,10000.0,,,,,,
KRDR,08-09-2020,09:56,METAR,Normal,170,6.0,,,9999.0,,18.3,18.3,29.82,1009.9,,,,,,,,,,,,,,,Clear,72000.0,,,,,,,,,
KRDR,08-09-2020,08:56,METAR,Normal,170,6.0,,,9999.0,,17.3,16.0,29.85,1011.0,,,,,,,,,,,,,,,Clear,72000.0,,,,,,,,,
KRDR,08-09-2020,07:56,METAR,Normal,170,3.0,,,9999.0,,16.8,14.3,29.87,1011.7,,,,,,,,,,,,,,,Clear,72000.0,,,,,,,,,
KRDR,08-09-2020,06:56,METAR,Normal,180,7.0,,,9999.0,,14.8,13.8,29.87,1011.8,,,,,,,,,,,,,,,Clear,72000.0,,,,,,,,,
KRDR,08-09-2020,05:56,METAR,Normal,180,3.0,,,9999.0,,14.9,14.4,29.90,1012.8,,,,,,,,,,,,,TRACE,,Clear,72000.0,,,,,,,,,
KRDR,08-09-2020,04:56,METAR,Normal,200,3.0,,,9999.0,,16.6,14.8,29.91,1013.1,,,,,,,,,,,,,,,Clear,72000.0,,,,,,,,,
KRDR,08-09-2020,03:56,METAR,Normal,190,3.0,,,9999.0,,16.9,15.1,29.91,1013.1,,,,,,,,,,,,,,,Clear,72000.0,,,,,,,,,
KRDR,08-09-2020,02:56,METAR,Calm,,0.0,,,9999.0,Mist,18.3,15.5,29.91,1013.1,10,,,,,,,,,,TRACE,TRACE,,,Clear,72000.0,,,,,,,,,
KRDR,08-09-2020,01:56,METAR,Normal,160,3.0,,,9999.0,,22.3,15.1,29.89,1012.4,,,,,,,,,,,,,,,Clear,72000.0,,,,,,,,,
KRDR,08-09-2020,00:56,METAR,Normal,190,5.0,,,9999.0,,25.5,15.2,29.89,1012.4,,,,,,,,,,,,,,,Clear,72000.0,,,,,,,,,
KRDR,08-08-2020,23:56,METAR,Normal,190,5.0,,,9999.0,,27.1,12.7,29.90,1012.7,,,,,,,,,,,,,,,Clear,72000.0,,,,,,,,,
KRDR,08-08-2020,22:56,METAR,Normal,220,4.0,,,9999.0,,27.2,13.9,29.92,1013.3,,,,,,,,,,,,,,,Clear,72000.0,,,,,,,,,
KRDR,08-08-2020,21:56,METAR,Normal,190,8.0,,,9999.0,,27.8,14.1,29.93,1013.6,,,,,,,,,,,,,,,Clear,72000.0,,,,,,,,,
KRDR,08-08-2020,20:56,METAR,Normal,110,4.0,,,9999.0,,27.5,11.5,29.94,1014.0,,,,,,,,,,,,,,,Clear,72000.0,,,,,,,,,
KRDR,08-08-2020,19:56,METAR,Normal,50,8.0,,,9999.0,,27.7,12.9,29.90,1012.6,,,,,,,,,,,,,,,Clear,72000.0,,,,,,,,,
KRDR,08-08-2020,18:56,METAR,Normal,30,9.0,,,9999.0,,25.8,13.3,29.86,1011.3,,,,,,,,,,,,,,,,18000.0,10000.0,FEW,10000.0,SCT,15000.0,BKN,18000.0,BKN,20000.0
KRDR,08-08-2020,17:56,METAR,Normal,60,3.0,,,9999.0,,25.4,12.6,29.93,1013.7,,,,,,,,,,,,,,,2/8 Mostly Clear,72000.0,20000.0,FEW,20000.0,,,,,,
KRDR,08-08-2020,16:56,METAR,Normal,340,3.0,,,9999.0,,24.6,12.2,30.00,1016.0,,,,,,,,,,,,,,,4/8 Partly Cloudy,72000.0,9500.0,FEW,9600.0,SCT,18000.0,SCT,21000.0,,
KRDR,08-08-2020,15:56,METAR,Normal,330,4.0,,,9999.0,,23.6,13.2,29.99,1015.8,,,,,,,,,,,,,,,Clear,72000.0,,,,,,,,,
KRDR,08-08-2020,14:56,METAR,Normal,360,8.0,,,9999.0,,22.6,14.4,29.97,1015.1,,,,,,,,,,,,,,,Clear,72000.0,,,,,,,,,
KRDR,08-08-2020,13:56,METAR,Normal,360,8.0,,,9999.0,,21.1,14.7,29.94,1014.1,,,,,,,,,,,,,,,Clear,72000.0,,,,,,,,,
KRDR,08-08-2020,12:56,METAR,Normal,360,6.0,,,9999.0,,18.9,15.0,29.90,1012.7,,,,,,,,,,,,,,,Clear,72000.0,,,,,,,,,
KRDR,08-08-2020,11:56,METAR,Normal,340,6.0,,,9999.0,,17.4,16.6,29.88,1012.1,,,,,,,,,,,,,,,Clear,72000.0,,,,,,,,,
KRDR,08-08-2020,10:56,METAR,Normal,320,5.0,,,9999.0,,18.5,18.5,29.86,1011.3,,,,,,,,,,,,,,,Clear,72000.0,,,,,,,,,
KRDR,08-08-2020,09:56,METAR,Normal,350,8.0,,,9999.0,,20.5,20.3,29.83,1010.3,,,,,,,,,,,,,,,4/8 Partly Cloudy,72000.0,2200.0,SCT,2200.0,SCT,2900.0,,,,
KRDR,08-08-2020,09:23,SPECI,Normal,320,9.0,,,9999.0,,21.0,21.0,29.81,1009.6,,,,,,,,,,,,,,,4/8 Partly Cloudy,72000.0,2200.0,SCT,2200.0,SCT,2900.0,,,,
KRDR,08-08-2020,09:13,SPECI,Normal,310,7.0,,,9999.0,,21.0,21.0,29.81,1009.6,,,,,,,,,,,,,,,,2200.0,1000.0,FEW,1000.0,SCT,1700.0,BKN,2200.0,OVC,2800.0
KRDR,08-08-2020,09:06,SPECI,Normal,310,6.0,,,9999.0,,20.0,20.0,29.80,1009.2,,,,,,,,,,,,,,,,2300.0,1200.0,FEW,1200.0,OVC,2300.0,,,,
KRDR,08-08-2020,08:56,METAR,Normal,310,4.0,,,9999.0,,19.9,19.9,29.80,1009.2,,,,,,,,,,,,,,,,1800.0,1000.0,FEW,1000.0,BKN,1800.0,OVC,2500.0,,
KRDR,08-08-2020,08:55,SPECI,Normal,310,4.0,,,9999.0,,20.0,20.0,29.80,1009.2,,,,,,,,,,,,,,,,1800.0,1000.0,SCT,1000.0,BKN,1800.0,OVC,2500.0,,
KRDR,08-08-2020,08:45,SPECI,Normal,320,4.0,,,9999.0,,19.0,19.0,29.79,1009.0,,,,,,,,,,,,,,,,2500.0,700.0,FEW,700.0,FEW,1600.0,BKN,2500.0,,
KRDR,08-08-2020,08:36,SPECI,Calm,,0.0,,,9999.0,,19.0,19.0,29.79,1009.0,,,,,,,,,,,,,,,,2500.0,2500.0,BKN,2500.0,,,,,,
KRDR,08-08-2020,07:56,METAR,Normal,340,4.0,,,9999.0,,19.6,19.6,29.79,1009.0,,,,,,,,,,,,,,,Clear,72000.0,,,,,,,,,
KRDR,08-08-2020,06:56,METAR,Normal,190,6.0,,,9999.0,,19.1,19.1,29.75,1007.6,,,,,,,,,,,,,,,Clear,72000.0,,,,,,,,,
KRDR,08-08-2020,05:56,METAR,Normal,200,5.0,,,9999.0,,19.7,19.7,29.77,1008.3,,,,,,,,,,,,,,,Clear,72000.0,,,,,,,,,
KRDR,08-08-2020,04:56,METAR,Normal,160,7.0,,,9999.0,,20.3,20.3,29.77,1008.3,,,,,,,,,,,,,,,Clear,72000.0,,,,,,,,,
KRDR,08-08-2020,03:56,METAR,Normal,170,5.0,,,9999.0,,20.4,20.4,29.78,1008.7,,,,,,,,,,,,,,,Clear,72000.0,,,,,,,,,
KRDR,08-08-2020,02:56,METAR,Normal,160,6.0,,,9999.0,,20.7,20.7,29.80,1009.3,,,,,,,,,,,,,,,Clear,72000.0,,,,,,,,,
KRDR,08-08-2020,01:56,METAR,Normal,140,8.0,,,9999.0,,22.1,22.1,29.78,1008.7,,,,,,,,,,,,,,,Clear,72000.0,,,,,,,,,
KRDR,08-08-2020,00:56,METAR,Normal,150,9.0,,,9999.0,,24.2,21.9,29.76,1008.0,,,,,,,,,,,,,,,2/8 Mostly Clear,72000.0,15000.0,FEW,15000.0,,,,,,
KRDR,08-07-2020,23:56,METAR,Normal,170,10.0,,,9999.0,,24.5,21.4,29.77,1008.3,,,,,,,,,,,,,,,2/8 Mostly Clear,72000.0,17000.0,FEW,17000.0,,,,,,
KRDR,08-07-2020,22:56,METAR,Normal,160,9.0,,,9999.0,,24.5,20.8,29.78,1008.7,,,,,,,,,,,,,,,Clear,72000.0,,,,,,,,,
KRDR,08-07-2020,21:56,METAR,Normal,160,11.0,,,9999.0,,25.3,21.2,29.78,1008.7,,,,,,,,,,,,,,,2/8 Mostly Clear,72000.0,19000.0,FEW,19000.0,FEW,21000.0,,,,
KRDR,08-07-2020,20:56,METAR,Normal,180,13.0,,,9999.0,,25.8,20.6,29.79,1009.0,,,,,,,,,,,,,,,4/8 Partly Cloudy,72000.0,15000.0,FEW,15000.0,SCT,18000.0,,,,
KRDR,08-07-2020,19:56,METAR,Normal,190,14.0,18.0,,9999.0,,24.3,21.6,29.78,1008.7,,,,,,,,,,,,,,,,14000.0,1800.0,FEW,1800.0,BKN,14000.0,BKN,18000.0,,
KRDR,08-07-2020,19:06,SPECI,Normal,200,12.0,,,9999.0,,24.0,21.0,29.79,1009.0,,,,,,,,,,,,,,,,14000.0,2000.0,SCT,2000.0,SCT,11000.0,BKN,14000.0,,
KRDR,08-07-2020,18:56,METAR,Normal,200,12.0,,,9999.0,,23.7,21.6,29.79,1009.0,,,,,,,,,,,,,,,,2000.0,2000.0,BKN,2000.0,OVC,14000.0,,,,
KRDR,08-07-2020,18:53,SPECI,Normal,200,12.0,,,9999.0,,24.0,21.0,29.79,1009.0,,,,,,,,,,,,,,,,2000.0,2000.0,BKN,2000.0,OVC,14000.0,,,,
KRDR,08-07-2020,18:43,SPECI,Normal,190,14.0,,,9999.0,,24.0,22.0,29.79,1009.0,,,,,,,,,,,,,,,,1900.0,1900.0,BKN,1900.0,BKN,14000.0,,,,
KRDR,08-07-2020,17:56,METAR,Normal,190,8.0,,,9999.0,,25.4,22.1,29.79,1009.0,,,,,,,,,,,,,,,,15000.0,2000.0,FEW,2000.0,SCT,11000.0,BKN,15000.0,,
KRDR,08-07-2020,16:56,METAR,Normal,190,8.0,,,9999.0,,22.7,22.7,29.80,1009.3,,,,,,,,,,,,,,,,1400.0,1400.0,BKN,1400.0,OVC,2000.0,,,,
KRDR,08-07-2020,16:54,SPECI,Normal,190,8.0,,,9999.0,,23.0,23.0,29.80,1009.3,,,,,,,,,,,,,,,,1100.0,1100.0,BKN,1100.0,OVC,2000.0,,,,
KRDR,08-07-2020,16:53,SPECI,Normal,190,7.0,,,9999.0,,23.0,23.0,29.80,1009.3,,,,,,,,,,,,,,,,1400.0,1400.0,BKN,1400.0,OVC,2000.0,,,,
KRDR,08-07-2020,16:36,SPECI,Normal,190,9.0,,,9999.0,,23.0,23.0,29.80,1009.3,,,,,,,,,,,,,,,,900.0,900.0,OVC,900.0,,,,,,
KRDR,08-07-2020,16:26,SPECI,Normal,180,9.0,,,9999.0,,22.0,22.0,29.80,1009.3,,,,,,,,,,,,,,,,700.0,700.0,BKN,700.0,OVC,1200.0,,,,
KRDR,08-07-2020,16:06,SPECI,Normal,180,10.0,,,9999.0,,22.0,22.0,29.79,1009.0,,,,,,,,,,,,,,,,600.0,600.0,OVC,600.0,,,,,,
KRDR,08-07-2020,15:56,METAR,Normal,180,10.0,,,9999.0,,21.3,21.3,29.79,1009.0,,,,,,,,,,,,,,,,500.0,500.0,OVC,500.0,,,,,,
KRDR,08-07-2020,15:46,SPECI,Normal,180,10.0,,,9999.0,Mist,21.0,21.0,29.79,1009.0,10,,,,,,,,,,,,,,,500.0,500.0,OVC,500.0,,,,,,
KRDR,08-07-2020,14:56,METAR,Normal,180,9.0,,,8000.0,Mist,20.6,20.6,29.79,1009.0,10,,,,,,,,,,,,,,,400.0,400.0,OVC,400.0,,,,,,
KRDR,08-07-2020,13:56,METAR,Normal,160,10.0,,,8000.0,Mist,19.7,19.7,29.77,1008.3,10,,,,,,,,,,,,,,,300.0,300.0,OVC,300.0,,,,,,
KRDR,08-07-2020,13:51,SPECI,Normal,160,10.0,,,8000.0,Mist,20.0,20.0,29.77,1008.3,10,,,,,,,,,,,,,,,300.0,300.0,OVC,300.0,,,,,,
KRDR,08-07-2020,13:31,SPECI,Normal,170,10.0,,,4800.0,Mist,19.0,19.0,29.78,1008.7,10,,,,,,,,,,,,,,,200.0,200.0,OVC,200.0,,,,,,
KRDR,08-07-2020,13:21,SPECI,Normal,170,10.0,,,3200.0,Mist,19.0,19.0,29.79,1009.0,10,,,,,,,,,,,,,,,200.0,200.0,OVC,200.0,,,,,,
KRDR,08-07-2020,13:11,SPECI,Normal,170,7.0,,,2200.0,Mist,19.0,19.0,29.79,1009.0,10,,,,,,,,,,,,,,,200.0,200.0,OVC,200.0,,,,,,
KRDR,08-07-2020,12:56,METAR,Normal,150,10.0,,,1600.0,Mist,18.8,18.8,29.79,1009.0,10,,,,,,,,,,,,,,,200.0,200.0,OVC,200.0,,,,,,
KRDR,08-07-2020,12:41,SPECI,Normal,160,9.0,,,1200.0,Mist,19.0,19.0,29.79,1009.0,10,,,,,,,,,,,,,,,200.0,200.0,OVC,200.0,,,,,,
KRDR,08-07-2020,12:36,SPECI,Normal,150,9.0,,,1400.0,Mist,19.0,19.0,29.80,1009.3,10,,,,,,,,,,,,,,,300.0,300.0,OVC,300.0,,,,,,
KRDR,08-07-2020,12:26,SPECI,Normal,150,8.0,,,3600.0,Mist,18.0,18.0,29.79,1009.0,10,,,,,,,,,,,,,,,300.0,300.0,OVC,300.0,,,,,,
KRDR,08-07-2020,12:16,SPECI,Normal,140,7.0,,,9999.0,,18.0,18.0,29.79,1009.0,,,,,,,,,,,,,,,,400.0,400.0,OVC,400.0,,,,,,
KRDR,08-07-2020,11:56,METAR,Normal,140,7.0,,,9999.0,,17.7,17.7,29.80,1009.3,,,,,,,,,,,,,,,,500.0,500.0,OVC,500.0,,,,,,
KRDR,08-07-2020,11:52,SPECI,Normal,150,7.0,,,9999.0,,18.0,18.0,29.80,1009.3,,,,,,,,,,,,,,,,500.0,500.0,OVC,500.0,,,,,,
KRDR,08-07-2020,11:32,SPECI,Normal,160,5.0,,,9999.0,,17.0,17.0,29.81,1009.6,,,,,,,,,,,,,,,,800.0,800.0,BKN,800.0,BKN,18000.0,,,,
KRDR,08-07-2020,11:26,SPECI,Normal,150,5.0,,,9999.0,,17.0,17.0,29.82,1010.0,,,,,,,,,,,,,,,,1400.0,1000.0,SCT,1000.0,BKN,1400.0,BKN,18000.0,,
KRDR,08-07-2020,11:12,SPECI,Normal,150,7.0,,,9999.0,,17.0,17.0,29.82,1010.0,,,,,,,,,,,,,,,,18000.0,1000.0,SCT,1000.0,BKN,18000.0,,,,
KRDR,08-07-2020,10:56,METAR,Normal,150,5.0,,,9999.0,,16.5,16.5,29.82,1010.0,,,,,,,,,,,,,,,,18000.0,18000.0,BKN,18000.0,,,,,,
KRDR,08-07-2020,09:56,METAR,Normal,170,5.0,,,9999.0,,17.0,17.0,29.83,1010.3,,,,,,,,,,,,,,,Clear,72000.0,,,,,,,,,
KRDR,08-07-2020,08:56,METAR,Normal,160,5.0,,,9999.0,,16.7,16.7,29.85,1011.0,,,,,,,,,,,,,,,Clear,72000.0,,,,,,,,,
KRDR,08-07-2020,07:56,METAR,Normal,150,5.0,,,9999.0,,17.1,17.1,29.86,1011.3,,,,,,,,,,,,,,,Clear,72000.0,,,,,,,,,
KRDR,08-07-2020,06:56,METAR,Normal,140,5.0,,,9999.0,,17.8,17.8,29.87,1011.7,,,,,,,,,,,,,,,Clear,72000.0,,,,,,,,,
KRDR,08-07-2020,05:56,METAR,Normal,150,5.0,,,9999.0,,18.5,18.3,29.89,1012.4,,,,,,,,,,,,,,,2/8 Mostly Clear,72000.0,2800.0,FEW,2800.0,,,,,,
KRDR,08-07-2020,04:56,METAR,Normal,180,5.0,,,9999.0,,18.6,18.1,29.89,1012.4,,,,,,,,,,,,,,,Clear,72000.0,,,,,,,,,
KRDR,08-07-2020,03:56,METAR,Normal,170,7.0,,,9999.0,,20.0,18.5,29.89,1012.4,,,,,,,,,,,,,,,Clear,72000.0,,,,,,,,,
KRDR,08-07-2020,02:56,METAR,Normal,180,6.0,,,9999.0,,21.2,18.4,29.89,1012.4,,,,,,,,,,,,,,,Clear,72000.0,,,,,,,,,
KRDR,08-07-2020,01:56,METAR,Normal,170,7.0,,,9999.0,,22.6,18.5,29.88,1012.1,,,,,,,,,,,,,,,Clear,72000.0,,,,,,,,,
KRDR,08-06-2020,23:56,METAR,Normal,160,9.0,,,9999.0,,26.6,18.7,29.88,1012.1,,,,,,,,,,,,,,,Clear,72000.0,,,,,,,,,
KRDR,08-06-2020,22:56,METAR,Normal,160,7.0,,,9999.0,,27.1,17.8,29.90,1012.7,,,,,,,,,,,,,,,4/8 Partly Cloudy,72000.0,4700.0,SCT,4700.0,,,,,,
KRDR,08-06-2020,21:56,METAR,Normal,200,8.0,,,9999.0,,26.6,17.9,29.91,1013.1,,,,,,,,,,,,,,,2/8 Mostly Clear,72000.0,4800.0,FEW,4800.0,,,,,,
KRDR,08-06-2020,20:56,METAR,Normal,200,8.0,,,9999.0,,26.6,17.6,29.91,1013.1,,,,,,,,,,,,,,,4/8 Partly Cloudy,72000.0,4600.0,SCT,4600.0,,,,,,
KRDR,08-06-2020,19:56,METAR,Normal,200,10.0,18.0,,9999.0,,26.4,18.2,29.93,1013.8,,,,,,,,,,,,,,,,4100.0,4100.0,BKN,4100.0,,,,,,
KRDR,08-06-2020,18:56,METAR,Normal,190,11.0,,,9999.0,,25.8,18.7,29.94,1014.1,,,,,,,,,,,,,,,2/8 Mostly Clear,72000.0,3700.0,FEW,3700.0,,,,,,
KRDR,08-06-2020,17:56,METAR,Normal,190,6.0,,,9999.0,,24.6,18.5,29.95,1014.5,,,,,,,,,,,,,,,,3100.0,3100.0,BKN,3100.0,,,,,,
KRDR,08-06-2020,17:46,SPECI,Normal,200,7.0,,,9999.0,,24.0,19.0,29.96,1014.9,,,,,,,,,,,,,,,4/8 Partly Cloudy,72000.0,2900.0,SCT,2900.0,,,,,,
KRDR,08-06-2020,17:36,SPECI,Normal,200,7.0,,,9999.0,,24.0,19.0,29.96,1014.9,,,,,,,,,,,,,,,,2900.0,2900.0,BKN,2900.0,,,,,,
KRDR,08-06-2020,16:56,METAR,Normal,200,6.0,,,9999.0,,23.5,18.8,29.96,1014.9,,,,,,,,,,,,,,,2/8 Mostly Clear,72000.0,2500.0,FEW,2500.0,,,,,,
KRDR,08-06-2020,15:56,METAR,Normal,190,7.0,,,9999.0,,22.0,18.2,29.97,1015.2,,,,,,,,,,,,,,,2/8 Mostly Clear,72000.0,2000.0,FEW,2000.0,,,,,,
KRDR,08-06-2020,14:56,METAR,Normal,200,7.0,,,9999.0,,21.1,18.1,29.97,1015.2,,,,,,,,,,,,,,,Clear,72000.0,,,,,,,,,
KRDR,08-06-2020,13:56,METAR,Normal,180,7.0,,,9999.0,,19.1,18.3,29.98,1015.5,,,,,,,,,,,,,,,Clear,72000.0,,,,,,,,,
KRDR,08-06-2020,12:56,METAR,Normal,180,5.0,,,9999.0,,16.7,16.7,29.98,1015.5,,,,,,,,,,,,,,,Clear,72000.0,,,,,,,,,
KRDR,08-06-2020,11:56,METAR,Normal,180,4.0,,,9999.0,,14.6,14.6,29.98,1015.5,,,,,,,,,,,,,,,Clear,72000.0,,,,,,,,,
KRDR,08-06-2020,10:56,METAR,Normal,170,4.0,,,9999.0,,14.3,14.3,29.97,1015.2,,,,,,,,,,,,,,,Clear,72000.0,,,,,,,,,
KRDR,08-06-2020,09:56,METAR,Normal,180,6.0,,,9999.0,,15.1,15.1,29.96,1014.9,,,,,,,,,,,,,,,Clear,72000.0,,,,,,,,,
KRDR,08-06-2020,08:56,METAR,Normal,180,5.0,,,9999.0,,15.1,15.1,29.96,1014.9,,,,,,,,,,,,,,,Clear,72000.0,,,,,,,,,
KRDR,08-06-2020,07:56,METAR,Normal,190,5.0,,,9999.0,,15.2,15.2,29.96,1014.9,,,,,,,,,,,,,,,Clear,72000.0,,,,,,,,,
KRDR,08-06-2020,06:56,METAR,Normal,190,6.0,,,9999.0,,16.2,16.2,29.96,1014.8,,,,,,,,,,,,,,,Clear,72000.0,,,,,,,,,
KRDR,08-06-2020,05:56,METAR,Normal,190,6.0,,,9999.0,,16.6,16.6,29.96,1014.8,,,,,,,,,,,,,,,Clear,72000.0,,,,,,,,,
KRDR,08-06-2020,04:56,METAR,Normal,200,6.0,,,9999.0,,16.9,16.9,29.96,1014.9,,,,,,,,,,,,,,,Clear,72000.0,,,,,,,,,
KRDR,08-06-2020,03:56,METAR,Normal,200,5.0,,,9999.0,,17.6,17.3,29.95,1014.5,,,,,,,,,,,,,,,Clear,72000.0,,,,,,,,,
KRDR,08-06-2020,02:56,METAR,Normal,180,4.0,,,9999.0,,18.9,17.2,29.94,1014.2,,,,,,,,,,,,,,,Clear,72000.0,,,,,,,,,
KRDR,08-06-2020,01:56,METAR,Normal,180,6.0,,,9999.0,,20.9,18.5,29.93,1013.8,,,,,,,,,,,,,,,Clear,72000.0,,,,,,,,,
KRDR,08-06-2020,00:56,METAR,Normal,190,7.0,,,9999.0,,23.7,17.2,29.92,1013.5,,,,,,,,,,,,,,,4/8 Partly Cloudy,72000.0,9000.0,SCT,9100.0,,,,,,
KRDR,08-05-2020,23:56,METAR,Normal,220,6.0,,,9999.0,,25.3,17.5,29.93,1013.8,,,,,,,,,,,,,,,4/8 Partly Cloudy,72000.0,4500.0,SCT,4500.0,SCT,9100.0,,,,
KRDR,08-05-2020,22:56,METAR,Normal,190,10.0,,,9999.0,,25.4,18.1,29.93,1013.8,,,,,,,,,,,,,,,,8000.0,4500.0,SCT,4500.0,BKN,8000.0,,,,
KRDR,08-05-2020,21:56,METAR,Normal,210,4.0,,,9999.0,,25.9,17.5,29.93,1013.8,,,,,,,,,,,,,,,,4000.0,4000.0,BKN,4000.0,,,,,,
KRDR,08-05-2020,20:56,METAR,Normal,240,6.0,,,9999.0,,25.8,18.4,29.94,1014.2,,,,,,,,,,,,,,,2/8 Mostly Clear,72000.0,4400.0,FEW,4400.0,,,,,,
KRDR,08-05-2020,19:56,METAR,Normal,210,10.0,17.0,,9999.0,,25.8,18.4,29.94,1014.2,,,,,,,,,,,,,,,,6500.0,3800.0,SCT,3800.0,BKN,6500.0,BKN,8000.0,,
KRDR,08-05-2020,18:57,METAR,Normal,200,7.0,,,9999.0,,25.1,18.5,29.95,1014.5,,,,,,,,,,,,,,,,3400.0,3400.0,BKN,3400.0,BKN,4400.0,OVC,6000.0,,
KRDR,08-05-2020,18:33,SPECI,Normal,200,7.0,15.0,,9999.0,,25.0,18.0,29.96,1014.9,,,,,,,,,,,,,,,,3100.0,3100.0,BKN,3100.0,,,,,,
KRDR,08-05-2020,17:56,METAR,Normal,200,9.0,,,9999.0,,24.1,18.3,29.95,1014.5,,,,,,,,,,,,,,,,4000.0,3200.0,SCT,3200.0,BKN,4000.0,,,,
KRDR,08-05-2020,16:56,METAR,Normal,190,9.0,,,9999.0,,23.1,18.2,29.96,1014.9,,,,,,,,,,,,,,,,2600.0,2600.0,BKN,2600.0,BKN,7000.0,,,,
KRDR,08-05-2020,15:56,METAR,Normal,190,8.0,,,9999.0,,22.7,18.0,29.96,1014.9,,,,,,,,,,,,,,,Clear,72000.0,,,,,,,,,
KRDR,08-05-2020,14:56,METAR,Normal,200,6.0,,,9999.0,,21.2,17.8,29.97,1015.2,,,,,,,,,,,,,,,Clear,72000.0,,,,,,,,,
KRDR,08-05-2020,13:56,METAR,Normal,190,6.0,,,9999.0,,19.6,17.4,29.96,1014.9,,,,,,,,,,,,,,,Clear,72000.0,,,,,,,,,
KRDR,08-05-2020,12:56,METAR,Normal,180,3.0,,,9999.0,,16.0,15.7,29.95,1014.5,,,,,,,,,,,,,,,2/8 Mostly Clear,72000.0,16000.0,FEW,16000.0,,,,,,
KRDR,08-05-2020,11:56,METAR,Normal,150,3.0,,,9999.0,,15.5,15.2,29.95,1014.6,,,,,,,,,,,,,,,,14000.0,14000.0,OVC,14000.0,,,,,,
KRDR,08-05-2020,10:56,METAR,Normal,150,4.0,,,9999.0,,15.3,15.0,29.94,1014.2,,,,,,,,,,,,,,,,14000.0,14000.0,BKN,14000.0,,,,,,
KRDR,08-05-2020,09:56,METAR,Normal,190,5.0,,,9999.0,,15.3,14.8,29.93,1013.9,,,,,,,,,,,,,,,,14000.0,14000.0,BKN,14000.0,OVC,16000.0,,,,
KRDR,08-05-2020,08:56,METAR,Normal,190,6.0,,,9999.0,,14.7,14.1,29.94,1014.2,,,,,,,,,,,,,,,4/8 Partly Cloudy,72000.0,22000.0,SCT,22000.0,,,,,,
KRDR,08-05-2020,07:56,METAR,Normal,190,5.0,,,9999.0,,14.4,13.9,29.96,1014.9,,,,,,,,,,,,,,,,7000.0,7000.0,BKN,7000.0,,,,,,
KRDR,08-05-2020,06:56,METAR,Normal,180,4.0,,,9999.0,,15.0,13.9,29.98,1015.5,,,,,,,,,,,,,,,Clear,72000.0,,,,,,,,,
KRDR,08-05-2020,05:56,METAR,Normal,170,6.0,,,9999.0,,15.9,13.9,29.98,1015.6,,,,,,,,,,,,,,,2/8 Mostly Clear,72000.0,16000.0,FEW,16000.0,,,,,,
KRDR,08-05-2020,04:56,METAR,Normal,180,6.0,,,9999.0,,17.5,14.0,29.99,1015.9,,,,,,,,,,,,,,,,14000.0,14000.0,BKN,14000.0,,,,,,
KRDR,08-05-2020,03:56,METAR,Normal,160,7.0,,,9999.0,,17.5,14.0,29.99,1015.9,,,,,,,,,,,,,,,2/8 Mostly Clear,72000.0,14000.0,FEW,14000.0,,,,,,
KRDR,08-05-2020,02:56,METAR,Normal,150,6.0,,,9999.0,,18.5,14.8,30.00,1016.2,,,,,,,,,,,,,,,Clear,72000.0,,,,,,,,,
KRDR,08-05-2020,01:56,METAR,Normal,130,5.0,,,9999.0,,20.7,15.0,29.99,1015.9,,,,,,,,,,,,,,,2/8 Mostly Clear,72000.0,19000.0,FEW,19000.0,,,,,,
KRDR,08-05-2020,01:20,SPECI,Normal,130,6.0,,,9999.0,,23.0,15.0,30.00,1016.2,,,,,,,,,,,,,,,,19000.0,19000.0,BKN,19000.0,,,,,,
KRDR,08-05-2020,00:56,METAR,Normal,130,7.0,,,9999.0,,23.0,14.5,30.00,1016.3,,,,,,,,,,,,,,,Clear,72000.0,,,,,,,,,
KRDR,08-04-2020,23:56,METAR,Normal,190,3.0,,,9999.0,,23.0,12.9,30.01,1016.7,,,,,,,,,,,,,,,Clear,72000.0,,,,,,,,,
KRDR,08-04-2020,22:56,METAR,Normal,200,6.0,,,9999.0,,23.8,12.7,30.02,1017.1,,,,,,,,,,,,,,,2/8 Mostly Clear,72000.0,19000.0,FEW,19000.0,,,,,,
KRDR,08-04-2020,21:56,METAR,Normal,190,6.0,,,9999.0,,23.7,12.0,30.04,1017.8,,,,,,,,,,,,,,,2/8 Mostly Clear,72000.0,20000.0,FEW,20000.0,,,,,,
KRDR,08-04-2020,20:56,METAR,Normal,170,9.0,,,9999.0,,24.5,12.4,30.05,1018.0,,,,,,,,,,,,,,,2/8 Mostly Clear,72000.0,5500.0,FEW,5500.0,,,,,,
KRDR,08-04-2020,19:56,METAR,Normal,190,6.0,,,9999.0,,24.5,12.8,30.07,1018.7,,,,,,,,,,,,,,,2/8 Mostly Clear,72000.0,17000.0,FEW,17000.0,FEW,20000.0,,,,
KRDR,08-04-2020,18:56,METAR,Normal,230,8.0,,,9999.0,,24.1,13.0,30.10,1019.7,,,,,,,,,,,,,,,4/8 Partly Cloudy,72000.0,16000.0,FEW,16000.0,SCT,18000.0,,,,
KRDR,08-04-2020,17:56,METAR,Normal,170,9.0,,,9999.0,,22.6,12.2,30.11,1020.1,,,,,,,,,,,,,,,,18000.0,10000.0,FEW,10000.0,FEW,15000.0,BKN,18000.0,,
KRDR,08-04-2020,16:56,METAR,Normal,170,7.0,,,9999.0,,22.7,13.5,30.13,1020.8,,,,,,,,,,,,,,,4/8 Partly Cloudy,72000.0,16000.0,FEW,16000.0,SCT,19000.0,,,,
KRDR,08-04-2020,15:56,METAR,Normal,220,6.0,,,9999.0,,22.0,13.9,30.14,1021.1,,,,,,,,,,,,,,,Clear,72000.0,,,,,,,,,
KRDR,08-04-2020,14:56,METAR,Calm,,0.0,,,9999.0,,20.4,14.5,30.13,1020.8,,,,,,,,,,,,,,,Clear,72000.0,,,,,,,,,
KRDR,08-04-2020,13:56,METAR,Normal,230,4.0,,,9999.0,,17.6,13.7,30.13,1020.7,,,,,,,,,,,,,,,Clear,72000.0,,,,,,,,,
KRDR,08-04-2020,12:56,METAR,Normal,140,3.0,,,9999.0,,14.8,12.3,30.12,1020.4,,,,,,,,,,,,,,,Clear,72000.0,,,,,,,,,
KRDR,08-04-2020,11:56,METAR,Calm,,0.0,,,9999.0,,10.6,10.1,30.13,1020.8,,,,,,,,,,,,,,,Clear,72000.0,,,,,,,,,
KRDR,08-04-2020,10:56,METAR,Normal,200,3.0,,,9999.0,,9.5,9.3,30.13,1020.8,,,,,,,,,,,,,,,Clear,72000.0,,,,,,,,,
KRDR,08-04-2020,09:56,METAR,Normal,210,3.0,,,9999.0,,9.5,9.3,30.14,1021.2,,,,,,,,,,,,,,,Clear,72000.0,,,,,,,,,
KRDR,08-04-2020,08:56,METAR,Calm,,0.0,,,9999.0,,10.5,10.2,30.13,1020.8,,,,,,,,,,,,,,,Clear,72000.0,,,,,,,,,
KRDR,08-04-2020,07:56,METAR,Normal,220,3.0,,,9999.0,,12.5,10.7,30.14,1021.0,,,,,,,,,,,,,,,Clear,72000.0,,,,,,,,,
KRDR,08-04-2020,06:56,METAR,Calm,,0.0,,,9999.0,,12.1,10.5,30.14,1021.1,,,,,,,,,,,,,,,Clear,72000.0,,,,,,,,,
KRDR,08-04-2020,05:56,METAR,Normal,220,4.0,,,9999.0,,13.1,10.6,30.14,1021.1,,,,,,,,,,,,,,,Clear,72000.0,,,,,,,,,
KRDR,08-04-2020,04:56,METAR,Normal,210,4.0,,,9999.0,,13.7,11.9,30.15,1021.4,,,,,,,,,,,,,,,Clear,72000.0,,,,,,,,,
KRDR,08-04-2020,03:56,METAR,Normal,230,4.0,,,9999.0,,14.1,13.0,30.17,1022.1,,,,,,,,,,,,,,,Clear,72000.0,,,,,,,,,
KRDR,08-04-2020,02:56,METAR,Normal,210,3.0,,,9999.0,,15.7,13.2,30.16,1021.8,,,,,,,,,,,,,,,Clear,72000.0,,,,,,,,,
KRDR,08-04-2020,01:56,METAR,Normal,180,4.0,,,9999.0,,19.3,13.0,30.15,1021.4,,,,,,,,,,,,,,,Clear,72000.0,,,,,,,,,
KRDR,08-04-2020,00:56,METAR,Normal,160,4.0,,,9999.0,,22.1,12.6,30.14,1021.1,,,,,,,,,,,,,,,Clear,72000.0,,,,,,,,,
KRDR,08-03-2020,23:56,METAR,Normal,130,8.0,,,9999.0,,23.6,11.3,30.15,1021.5,,,,,,,,,,,,,,,4/8 Partly Cloudy,72000.0,6000.0,SCT,6000.0,,,,,,
KRDR,08-03-2020,22:56,METAR,Normal,100,5.0,,,9999.0,,23.9,10.2,30.16,1021.9,,,,,,,,,,,,,,,Clear,72000.0,,,,,,,,,
KRDR,08-03-2020,21:56,METAR,Normal,120,4.0,,,9999.0,,24.0,11.0,30.17,1022.2,,,,,,,,,,,,,,,Clear,72000.0,,,,,,,,,
KRDR,08-03-2020,20:56,METAR,Normal,100,5.0,,,9999.0,,24.2,10.8,30.18,1022.5,,,,,,,,,,,,,,,Clear,72000.0,,,,,,,,,
KRDR,08-03-2020,19:56,METAR,Normal,80,4.0,,,9999.0,,24.3,10.6,30.19,1022.8,,,,,,,,,,,,,,,Clear,72000.0,,,,,,,,,
KRDR,08-03-2020,18:56,METAR,Normal,130,6.0,,,9999.0,,23.7,11.0,30.20,1023.1,,,,,,,,,,,,,,,4/8 Partly Cloudy,72000.0,6000.0,SCT,6000.0,,,,,,
KRDR,08-03-2020,17:56,METAR,Normal,70,6.0,,,9999.0,,23.8,11.1,30.21,1023.5,,,,,,,,,,,,,,,4/8 Partly Cloudy,72000.0,5500.0,SCT,5500.0,,,,,,
KRDR,08-03-2020,16:56,METAR,Normal,80,5.0,,,9999.0,,23.1,11.5,30.22,1023.8,,,,,,,,,,,,,,,Clear,72000.0,,,,,,,,,
KRDR,08-03-2020,15:56,METAR,Normal,130,4.0,,,9999.0,,21.5,13.4,30.23,1024.2,,,,,,,,,,,,,,,Clear,72000.0,,,,,,,,,
KRDR,08-03-2020,14:56,METAR,Calm,,0.0,,,9999.0,,19.3,13.5,30.23,1024.2,,,,,,,,,,,,,,,Clear,72000.0,,,,,,,,,
KRDR,08-03-2020,13:56,METAR,Calm,,0.0,,,9999.0,,16.1,13.7,30.23,1024.2,,,,,,,,,,,,,,,Clear,72000.0,,,,,,,,,
KRDR,08-03-2020,12:56,METAR,Normal,10,3.0,,,9999.0,,13.6,12.6,30.23,1024.2,,,,,,,,,,,,,,,Clear,72000.0,,,,,,,,,
KRDR,08-03-2020,11:56,METAR,Calm,,0.0,,,9999.0,,9.7,9.7,30.22,1024.0,,,,,,,,,,,,,,,Clear,72000.0,,,,,,,,,
KRDR,08-03-2020,10:56,METAR,Calm,,0.0,,,9999.0,,8.8,8.8,30.21,1023.6,,,,,,,,,,,,,,,Clear,72000.0,,,,,,,,,
KRDR,08-03-2020,09:56,METAR,Calm,,0.0,,,9999.0,,10.3,10.1,30.20,1023.2,,,,,,,,,,,,,,,Clear,72000.0,,,,,,,,,
KRDR,08-03-2020,08:56,METAR,Normal,320,4.0,,,9999.0,,10.7,10.5,30.20,1023.2,,,,,,,,,,,,,,,Clear,72000.0,,,,,,,,,
KRDR,08-03-2020,07:56,METAR,Calm,,0.0,,,9999.0,,11.4,11.1,30.19,1022.8,,,,,,,,,,,,,,,Clear,72000.0,,,,,,,,,
KRDR,08-03-2020,06:56,METAR,Normal,320,4.0,,,9999.0,,11.7,11.2,30.18,1022.5,,,,,,,,,,,,,,,Clear,72000.0,,,,,,,,,
KRDR,08-03-2020,05:56,METAR,Normal,320,4.0,,,9999.0,,12.3,11.5,30.19,1022.8,,,,,,,,,,,,,,,Clear,72000.0,,,,,,,,,
KRDR,08-03-2020,04:56,METAR,Normal,310,5.0,,,9999.0,,12.4,11.8,30.18,1022.6,,,,,,,,,,,,,,,Clear,72000.0,,,,,,,,,
KRDR,08-03-2020,03:56,METAR,Normal,310,3.0,,,9999.0,,13.5,12.2,30.18,1022.5,,,,,,,,,,,,,,,Clear,72000.0,,,,,,,,,
KRDR,08-03-2020,02:56,METAR,Normal,320,3.0,,,9999.0,,15.3,13.1,30.17,1022.2,,,,,,,,,,,,,,,Clear,72000.0,,,,,,,,,
KRDR,08-03-2020,01:56,METAR,Normal,20,5.0,,,9999.0,,17.6,13.5,30.17,1022.1,,,,,,,,,,,,,,,Clear,72000.0,,,,,,,,,
KRDR,08-03-2020,00:56,METAR,Normal,30,6.0,,,9999.0,,21.5,13.1,30.17,1022.1,,,,,,,,,,,,,,,4/8 Partly Cloudy,72000.0,8000.0,SCT,8000.0,,,,,,
KRDR,08-02-2020,23:56,METAR,Normal,30,6.0,,,9999.0,,22.1,11.8,30.17,1022.1,,,,,,,,,,,,,,,,8500.0,8500.0,OVC,8600.0,,,,,,
KRDR,08-02-2020,22:56,METAR,Normal,40,6.0,,,9999.0,,23.3,10.7,30.17,1022.1,,,,,,,,,,,,,,,,7500.0,7500.0,BKN,7500.0,,,,,,
KRDR,08-02-2020,21:56,METAR,Normal,30,9.0,,,9999.0,,23.8,11.1,30.17,1022.1,,,,,,,,,,,,,,,4/8 Partly Cloudy,72000.0,7000.0,SCT,7000.0,,,,,,
KRDR,08-02-2020,20:56,METAR,Normal,60,8.0,,,9999.0,,23.0,10.1,30.17,1022.1,,,,,,,,,,,,,,,,7000.0,7000.0,BKN,7000.0,,,,,,
KRDR,08-02-2020,19:56,METAR,Normal,40,12.0,,,9999.0,,24.2,10.8,30.17,1022.1,,,,,,,,,,,,,,,4/8 Partly Cloudy,72000.0,7000.0,SCT,7000.0,,,,,,
KRDR,08-02-2020,18:56,METAR,Normal,30,8.0,,,9999.0,,23.2,12.2,30.18,1022.4,,,,,,,,,,,,,,,4/8 Partly Cloudy,72000.0,7000.0,SCT,7000.0,,,,,,
KRDR,08-02-2020,17:56,METAR,Normal,40,10.0,15.0,,9999.0,,23.4,12.1,30.19,1022.7,,,,,,,,,,,,,,,,6500.0,5000.0,SCT,5000.0,BKN,6500.0,,,,
KRDR,08-02-2020,16:56,METAR,Normal,40,5.0,,,9999.0,,20.9,14.3,30.20,1023.1,,,,,,,,,,,,,,,,4800.0,3800.0,SCT,3800.0,BKN,4800.0,BKN,6500.0,,
KRDR,08-02-2020,15:56,METAR,Normal,30,6.0,,,9999.0,,20.9,15.9,30.20,1023.1,,,,,,,,,,,,,,,2/8 Mostly Clear,72000.0,2200.0,FEW,2200.0,,,,,,
KRDR,08-02-2020,14:56,METAR,Normal,40,7.0,,,9999.0,,19.3,15.9,30.20,1023.1,,,,,,,,,,,,,,,Clear,72000.0,,,,,,,,,
KRDR,08-02-2020,13:56,METAR,Normal,10,8.0,,,9999.0,,17.0,15.7,30.19,1022.8,,,,,,,,,,,,,,,Clear,72000.0,,,,,,,,,
KRDR,08-02-2020,12:56,METAR,Normal,360,6.0,,,9999.0,,14.8,14.8,30.19,1022.7,,,,,,,,,,,,,,,2/8 Mostly Clear,72000.0,7500.0,FEW,7500.0,,,,,,
KRDR,08-02-2020,11:56,METAR,Normal,340,5.0,,,9999.0,,13.1,13.1,30.19,1022.8,,,,,,,,,,,,,,,Clear,72000.0,,,,,,,,,
KRDR,08-02-2020,10:56,METAR,Normal,360,6.0,,,9999.0,,12.8,12.8,30.17,1022.1,,,,,,,,,,,,,,,Clear,72000.0,,,,,,,,,
KRDR,08-02-2020,09:56,METAR,Normal,360,6.0,,,9999.0,,13.4,13.4,30.15,1021.4,,,,,,,,,,,,,,,Clear,72000.0,,,,,,,,,
KRDR,08-02-2020,08:56,METAR,Normal,330,6.0,,,9999.0,,13.7,13.7,30.15,1021.4,,,,,,,,,,,,,,,Clear,72000.0,,,,,,,,,
KRDR,08-02-2020,07:56,METAR,Normal,350,5.0,,,9999.0,,14.3,14.3,30.14,1021.0,,,,,,,,,,,,,,,Clear,72000.0,,,,,,,,,
KRDR,08-02-2020,06:56,METAR,Normal,350,6.0,,,9999.0,,14.3,14.3,30.13,1020.7,,,,,,,,,,,,,,,Clear,72000.0,,,,,,,,,
KRDR,08-02-2020,05:56,METAR,Normal,360,5.0,,,9999.0,,14.8,14.6,30.13,1020.6,,,,,,,,,,,,,,,Clear,72000.0,,,,,,,,,
KRDR,08-02-2020,04:56,METAR,Normal,360,7.0,,,9999.0,,15.8,15.2,30.12,1020.3,,,,,,,,,,,,,,,Clear,72000.0,,,,,,,,,
KRDR,08-02-2020,03:56,METAR,Normal,360,6.0,,,9999.0,,16.1,14.6,30.13,1020.7,,,,,,,,,,,,,,,Clear,72000.0,,,,,,,,,
KRDR,08-02-2020,02:56,METAR,Normal,350,7.0,,,9999.0,,17.9,14.2,30.12,1020.4,,,,,,,,,,,,,,,2/8 Mostly Clear,72000.0,10000.0,FEW,10000.0,,,,,,
KRDR,08-02-2020,01:56,METAR,Normal,20,5.0,,,9999.0,,18.7,15.0,30.10,1019.7,,,,,,,,,,,,,,,2/8 Mostly Clear,72000.0,5000.0,FEW,5000.0,FEW,10000.0,,,,
KRDR,08-02-2020,01:50,SPECI,Normal,20,6.0,,,9999.0,,19.0,15.0,30.10,1019.7,,,,,,,,,,,,,,,2/8 Mostly Clear,72000.0,5000.0,FEW,5000.0,FEW,10000.0,,,,
KRDR,08-02-2020,01:43,SPECI,Normal,10,6.0,,,9999.0,,19.0,15.0,30.10,1019.7,,,,,,,,,,,,,,,4/8 Partly Cloudy,72000.0,5000.0,FEW,5000.0,SCT,10000.0,,,,
KRDR,08-02-2020,00:56,METAR,Normal,10,9.0,,,9999.0,,22.2,15.3,30.09,1019.3,,,,,,,,,,,,,,,Clear,72000.0,,,,,,,,,
KRDR,08-01-2020,23:56,METAR,Normal,10,14.0,,,9999.0,,23.3,15.3,30.08,1019.0,,,,,,,,,,,,,TRACE,,Clear,72000.0,,,,,,,,,
KRDR,08-01-2020,22:56,METAR,Normal,20,12.0,19.0,,9999.0,,24.3,14.1,30.08,1019.0,,,,,,,,,,,,,,,Clear,72000.0,,,,,,,,,
KRDR,08-01-2020,21:56,METAR,Normal,20,14.0,,,9999.0,,23.0,15.6,30.08,1019.0,,,,,,,,,,,TRACE,,,,4/8 Partly Cloudy,72000.0,10000.0,SCT,10000.0,,,,,,
KRDR,08-01-2020,21:36,SPECI,Normal,20,11.0,,,9999.0,,22.0,17.0,30.08,1019.0,,,,,,,,,,,,,,,,9500.0,4500.0,FEW,4500.0,FEW,6000.0,BKN,9600.0,,
KRDR,08-01-2020,21:23,SPECI,Normal,30,19.0,25.0,,9999.0,Light Rain,25.0,16.0,30.08,1018.9,61,,,,,,,,,,,,,,4/8 Partly Cloudy,72000.0,4600.0,SCT,4600.0,SCT,9100.0,,,,
KRDR,08-01-2020,20:56,METAR,Normal,20,11.0,20.0,,9999.0,,24.7,15.6,30.08,1018.9,,,,,,,,,,,,,,,2/8 Mostly Clear,72000.0,4800.0,FEW,4800.0,FEW,9100.0,,,,
KRDR,08-01-2020,19:56,METAR,Normal,20,15.0,20.0,,9999.0,,25.0,15.0,30.08,1018.9,,,,,,,,,,,,,,,4/8 Partly Cloudy,72000.0,4700.0,FEW,4700.0,SCT,6000.0,,,,
KRDR,08-01-2020,18:56,METAR,Normal,10,17.0,22.0,,9999.0,,24.2,15.1,30.09,1019.2,,,,,,,,,,,,,,,4/8 Partly Cloudy,72000.0,5000.0,FEW,5000.0,SCT,6000.0,,,,
KRDR,08-01-2020,17:56,METAR,Normal,10,13.0,19.0,,9999.0,,24.1,15.8,30.10,1019.5,,,,,,,,,,,,,,,4/8 Partly Cloudy,72000.0,4300.0,SCT,4300.0,SCT,22000.0,,,,
KRDR,08-01-2020,16:56,METAR,Normal,20,15.0,20.0,,9999.0,,23.2,14.7,30.10,1019.5,,,,,,,,,,,,,,,2/8 Mostly Clear,72000.0,4100.0,FEW,4100.0,,,,,,
KRDR,08-01-2020,15:56,METAR,Normal,20,14.0,19.0,,9999.0,,22.5,17.2,30.09,1019.2,,,,,,,,,,,,,,,2/8 Mostly Clear,72000.0,2800.0,FEW,2800.0,,,,,,
KRDR,08-01-2020,14:56,METAR,Normal,10,12.0,,,9999.0,,20.8,16.8,30.09,1019.2,,,,,,,,,,,,,,,Clear,72000.0,,,,,,,,,
KRDR,08-01-2020,13:56,METAR,Normal,360,12.0,,,9999.0,,19.2,15.8,30.08,1018.9,,,,,,,,,,,,,,,Clear,72000.0,,,,,,,,,
KRDR,08-01-2020,12:35,SPECI,Normal,360,12.0,,,9999.0,,17.0,14.0,30.07,1018.5,,,,,,,,,,,,,,,2/8 Mostly Clear,72000.0,1100.0,FEW,1100.0,,,,,,
KRDR,08-01-2020,11:56,METAR,Normal,350,10.0,,,9999.0,,15.4,13.6,30.06,1018.3,,,,,,,,,,,,,,,4/8 Partly Cloudy,72000.0,1500.0,SCT,1500.0,,,,,,
KRDR,08-01-2020,10:56,METAR,Normal,340,8.0,,,9999.0,,14.6,13.1,30.06,1018.2,,,,,,,,,,,,,,,Clear,72000.0,,,,,,,,,
KRDR,08-01-2020,09:56,METAR,Normal,340,8.0,,,9999.0,,15.2,13.6,30.05,1017.9,,,,,,,,,,,,,,,Clear,72000.0,,,,,,,,,
KRDR,08-01-2020,08:56,METAR,Normal,350,7.0,,,9999.0,,16.1,15.0,30.03,1017.2,,,,,,,,,,,,,,,Clear,72000.0,,,,,,,,,
KRDR,08-01-2020,07:56,METAR,Normal,350,7.0,,,9999.0,,17.4,16.9,30.03,1017.2,,,,,,,,,,,,,,,Clear,72000.0,,,,,,,,,
KRDR,08-01-2020,06:56,METAR,Normal,340,7.0,,,9999.0,,19.0,19.0,30.02,1016.9,,,,,,,,,,,,,,,,9000.0,9000.0,OVC,9100.0,,,,,,
KRDR,08-01-2020,05:56,METAR,Normal,360,7.0,,,9999.0,,19.5,19.5,30.02,1016.8,,,,,,,,,,,,,,,4/8 Partly Cloudy,72000.0,9000.0,SCT,9100.0,,,,,,
KRDR,08-01-2020,04:56,METAR,Normal,10,8.0,,,9999.0,,20.0,19.5,30.01,1016.3,,,,,,,,,,,,,,,2/8 Mostly Clear,72000.0,8000.0,FEW,8000.0,,,,,,
KRDR,08-01-2020,03:56,METAR,Normal,360,8.0,,,9999.0,,20.7,19.5,30.01,1016.3,,,,,,,,,,,,,,,Clear,72000.0,,,,,,,,,
KRDR,08-01-2020,02:56,METAR,Normal,10,9.0,,,9999.0,,22.0,20.6,30.00,1016.0,,,,,,,,,,,,,,,2/8 Mostly Clear,72000.0,9500.0,FEW,9600.0,,,,,,
KRDR,08-01-2020,01:56,METAR,Normal,360,5.0,,,9999.0,,22.5,20.9,29.97,1015.0,,,,,,,,,,,,,,,Clear,72000.0,,,,,,,,,
KRDR,08-01-2020,00:56,METAR,Normal,10,6.0,,,9999.0,,24.5,21.0,29.97,1015.0,,,,,,,,,,,,,,,Clear,72000.0,,,,,,,,,
KRDR,07-31-2020,23:56,METAR,Normal,360,7.0,,,9999.0,,25.4,19.7,29.97,1015.1,,,,,,,,,,,,,TRACE,,,4500.0,4500.0,BKN,4500.0,,,,,,
KRDR,07-31-2020,22:56,METAR,Normal,10,8.0,,,9999.0,,26.4,19.3,29.97,1015.1,,,,,,,,,,,,,,,Clear,72000.0,,,,,,,,,
KRDR,07-31-2020,21:56,METAR,Normal,10,9.0,,,9999.0,,25.9,21.5,29.98,1015.4,,,,,,,,,,,,,,,4/8 Partly Cloudy,72000.0,11000.0,SCT,11000.0,,,,,,
KRDR,07-31-2020,20:56,METAR,Normal,320,5.0,,,9999.0,,25.6,20.8,29.98,1015.4,,,,,,,,,,,,TRACE,,,2/8 Mostly Clear,72000.0,20000.0,FEW,20000.0,,,,,,
KRDR,07-31-2020,19:56,METAR,Calm,,0.0,,,9999.0,,24.9,19.9,29.98,1015.5,,,,,,,,,,,,,,,,20000.0,12000.0,FEW,12000.0,FEW,14000.0,SCT,17000.0,BKN,20000.0
KRDR,07-31-2020,18:56,METAR,Calm,,0.0,,,9999.0,,21.6,21.1,29.98,1015.5,,,,,,,,,,,TRACE,,,,4/8 Partly Cloudy,72000.0,14000.0,FEW,14000.0,SCT,17000.0,SCT,20000.0,,
KRDR,07-31-2020,18:31,SPECI,Calm,,0.0,,,9999.0,,21.0,21.0,29.97,1015.2,,,,,,,,,,,,,,,4/8 Partly Cloudy,72000.0,4500.0,SCT,4500.0,SCT,15000.0,,,,
KRDR,07-31-2020,18:22,SPECI,Normal,150,9.0,,,9999.0,Rain,22.0,21.0,29.95,1014.5,,,,61,,,,,,,,,,,,4700.0,4700.0,BKN,4700.0,BKN,5500.0,BKN,8000.0,,
KRDR,07-31-2020,17:59,METAR,Normal,160,5.0,,,9999.0,Drizzle,22.0,20.3,29.98,1015.5,,,,51,,,,,,,TRACE,,TRACE,,,4100.0,4100.0,BKN,4100.0,BKN,4900.0,BKN,8000.0,,
KRDR,07-31-2020,17:54,SPECI,Normal,200,3.0,,,9999.0,Thunderstorm and Rain or Snow Showers,23.0,20.0,29.99,1015.9,92,,,,,,,,,,,,,,,8000.0,3900.0,SCT,3900.0,BKN,8000.0,OVC,10000.0,,
KRDR,07-31-2020,17:39,SPECI,Normal,300,4.0,,,9999.0,Dry Thunderstorm/Light Drizzle,23.0,20.0,30.00,1016.2,51,91,,,,,,,,,,,,,,9500.0,5000.0,FEW,5000.0,OVC,9600.0,,,,
KRDR,07-31-2020,16:56,METAR,Normal,280,8.0,,,9999.0,,27.1,19.4,29.99,1015.8,,,,,,,,,,,,,,,,9000.0,4400.0,FEW,4400.0,BKN,9100.0,,,,
KRDR,07-31-2020,16:08,METAR,Normal,190,15.0,20.0,,9999.0,,27.4,19.2,29.94,1014.0,,,,,,,,,,,,,,,,10000.0,10000.0,BKN,10000.0,,,,,,
KRDR,07-31-2020,15:56,METAR,Normal,190,13.0,,,9999.0,,27.0,19.3,29.94,1014.0,,,,,,,,,,,,,,,Clear,72000.0,,,,,,,,,
KRDR,07-31-2020,14:56,METAR,Normal,190,10.0,,,9999.0,,25.7,18.8,29.96,1014.6,,,,,,,,,,,,,,,Clear,72000.0,,,,,,,,,
KRDR,07-31-2020,13:56,METAR,Normal,200,8.0,,,9999.0,,23.5,18.6,29.97,1015.0,,,,,,,,,,,,,,,,7000.0,7000.0,BKN,7000.0,,,,,,
KRDR,07-31-2020,12:56,METAR,Normal,190,7.0,,,9999.0,,21.1,18.6,29.98,1015.3,,,,,,,,,,,,,,,Clear,72000.0,,,,,,,,,
KRDR,07-31-2020,11:56,METAR,Normal,190,7.0,,,9999.0,,18.3,17.8,29.98,1015.4,,,,,,,,,,,,,,,4/8 Partly Cloudy,72000.0,6500.0,SCT,6500.0,,,,,,
KRDR,07-31-2020,10:56,METAR,Normal,180,5.0,,,9999.0,,17.1,16.8,29.99,1015.8,,,,,,,,,,,,,,,2/8 Mostly Clear,72000.0,7500.0,FEW,7500.0,,,,,,
KRDR,07-31-2020,09:56,METAR,Normal,190,4.0,,,9999.0,,17.8,17.1,30.00,1016.1,,,,,,,,,,,,,,,4/8 Partly Cloudy,72000.0,6500.0,SCT,6500.0,,,,,,
KRDR,07-31-2020,08:56,METAR,Normal,180,5.0,,,9999.0,,17.7,17.0,30.00,1016.0,,,,,,,,,,,,,,,4/8 Partly Cloudy,72000.0,5500.0,SCT,5500.0,,,,,,
KRDR,07-31-2020,07:56,METAR,Normal,190,3.0,,,9999.0,,16.9,16.2,30.01,1016.4,,,,,,,,,,,,,,,Clear,72000.0,,,,,,,,,
KRDR,07-31-2020,06:56,METAR,Normal,180,5.0,,,9999.0,,17.4,16.2,30.02,1016.8,,,,,,,,,,,,,,,Clear,72000.0,,,,,,,,,
KRDR,07-31-2020,05:56,METAR,Normal,190,4.0,,,9999.0,,16.7,16.7,30.03,1017.1,,,,,,,,,,,,,,,Clear,72000.0,,,,,,,,,
KRDR,07-31-2020,04:56,METAR,Normal,170,4.0,,,9999.0,,17.5,16.7,30.03,1017.1,,,,,,,,,,,,,,,Clear,72000.0,,,,,,,,,
KRDR,07-31-2020,03:56,METAR,Normal,180,5.0,,,9999.0,,19.8,16.8,30.04,1017.5,,,,,,,,,,,,,,,Clear,72000.0,,,,,,,,,
KRDR,07-31-2020,02:56,METAR,Normal,160,5.0,,,9999.0,,21.1,16.7,30.05,1017.8,,,,,,,,,,,,,,,Clear,72000.0,,,,,,,,,
KRDR,07-31-2020,01:56,METAR,Normal,160,4.0,,,9999.0,,23.6,17.3,30.04,1017.5,,,,,,,,,,,,,,,Clear,72000.0,,,,,,,,,
KRDR,07-31-2020,00:56,METAR,Normal,210,3.0,,,9999.0,,26.7,17.7,30.03,1017.1,,,,,,,,,,,,,,,Clear,72000.0,,,,,,,,,
KRDR,07-30-2020,23:56,METAR,Calm,,0.0,,,9999.0,,28.0,14.9,30.04,1017.5,,,,,,,,,,,,,,,Clear,72000.0,,,,,,,,,
KRDR,07-30-2020,22:56,METAR,Calm,,0.0,,,9999.0,,27.7,15.0,30.04,1017.5,,,,,,,,,,,,,,,Clear,72000.0,,,,,,,,,
KRDR,07-30-2020,21:56,METAR,Calm,,0.0,,,9999.0,,26.9,15.9,30.05,1017.9,,,,,,,,,,,,,,,2/8 Mostly Clear,72000.0,5000.0,FEW,5000.0,,,,,,
KRDR,07-30-2020,19:56,METAR,Calm,,0.0,,,9999.0,,27.5,15.5,30.07,1018.5,,,,,,,,,,,,,,,4/8 Partly Cloudy,72000.0,5000.0,SCT,5000.0,,,,,,
KRDR,07-30-2020,18:56,METAR,Calm,,0.0,,,9999.0,,27.3,16.6,30.08,1018.9,,,,,,,,,,,,,,,2/8 Mostly Clear,72000.0,5000.0,FEW,5000.0,,,,,,
KRDR,07-30-2020,17:56,METAR,Calm,,0.0,,,9999.0,,26.4,17.2,30.08,1018.9,,,,,,,,,,,,,,,4/8 Partly Cloudy,72000.0,4500.0,SCT,4500.0,,,,,,
KRDR,07-30-2020,16:56,METAR,Normal,30,3.0,,,9999.0,,26.7,18.0,30.09,1019.2,,,,,,,,,,,,,,,,4200.0,4200.0,BKN,4200.0,,,,,,
KRDR,07-30-2020,15:56,METAR,Calm,,0.0,,,9999.0,,24.9,18.1,30.10,1019.6,,,,,,,,,,,,,,,Clear,72000.0,,,,,,,,,
KRDR,07-30-2020,14:56,METAR,Calm,,0.0,,,9999.0,,22.7,18.6,30.10,1019.6,,,,,,,,,,,,,,,Clear,72000.0,,,,,,,,,
KRDR,07-30-2020,13:56,METAR,Calm,,0.0,,,9999.0,,20.5,18.2,30.09,1019.2,,,,,,,,,,,,,,,Clear,72000.0,,,,,,,,,
KRDR,07-30-2020,12:56,METAR,Calm,,0.0,,,9999.0,,18.0,17.7,30.09,1019.2,,,,,,,,,,,,,,,Clear,72000.0,,,,,,,,,
KRDR,07-30-2020,11:56,METAR,Calm,,0.0,,,9999.0,,13.6,13.6,30.07,1018.6,,,,,,,,,,,,,,,Clear,72000.0,,,,,,,,,
KRDR,07-30-2020,10:56,METAR,Calm,,0.0,,,9999.0,,13.8,13.8,30.07,1018.6,,,,,,,,,,,,,,,Clear,72000.0,,,,,,,,,
KRDR,07-30-2020,09:56,METAR,Normal,300,3.0,,,9999.0,,13.6,13.6,30.06,1018.3,,,,,,,,,,,,,,,Clear,72000.0,,,,,,,,,
KRDR,07-30-2020,08:56,METAR,Calm,,0.0,,,9999.0,,14.5,14.5,30.05,1017.9,,,,,,,,,,,,,,,Clear,72000.0,,,,,,,,,
KRDR,07-30-2020,07:56,METAR,Calm,,0.0,,,9999.0,,14.7,14.7,30.05,1017.9,,,,,,,,,,,,,,,Clear,72000.0,,,,,,,,,
KRDR,07-30-2020,06:56,METAR,Normal,310,4.0,,,9999.0,,15.3,15.3,30.05,1017.9,,,,,,,,,,,,,,,Clear,72000.0,,,,,,,,,
KRDR,07-30-2020,05:56,METAR,Calm,,0.0,,,9999.0,,15.8,15.8,30.04,1017.5,,,,,,,,,,,,,,,Clear,72000.0,,,,,,,,,
KRDR,07-30-2020,04:56,METAR,Normal,310,4.0,,,9999.0,,16.2,16.2,30.03,1017.2,,,,,,,,,,,,,,,Clear,72000.0,,,,,,,,,
KRDR,07-30-2020,03:56,METAR,Normal,360,3.0,,,9999.0,,17.8,17.8,30.02,1016.8,,,,,,,,,,,,,,,Clear,72000.0,,,,,,,,,
KRDR,07-30-2020,02:56,METAR,Normal,20,4.0,,,9999.0,,18.4,17.6,30.02,1016.9,,,,,,,,,,,,,,,Clear,72000.0,,,,,,,,,
KRDR,07-30-2020,01:56,METAR,Normal,360,3.0,,,9999.0,,22.2,19.2,30.00,1016.2,,,,,,,,,,,,,,,Clear,72000.0,,,,,,,,,
KRDR,07-30-2020,00:56,METAR,Normal,360,3.0,,,9999.0,,23.5,18.8,29.99,1015.8,,,,,,,,,,,,,,,Clear,72000.0,,,,,,,,,
KRDR,07-29-2020,23:56,METAR,Normal,20,6.0,,,9999.0,,25.6,16.7,29.99,1015.9,,,,,,,,,,,,,,,Clear,72000.0,,,,,,,,,
KRDR,07-29-2020,22:56,METAR,Normal,340,5.0,,,9999.0,,26.5,16.4,29.99,1015.9,,,,,,,,,,,,,,,Clear,72000.0,,,,,,,,,
KRDR,07-29-2020,21:56,METAR,Normal,340,4.0,,,9999.0,,25.9,17.2,29.99,1015.9,,,,,,,,,,,,,,,Clear,72000.0,,,,,,,,,
KRDR,07-29-2020,20:56,METAR,Normal,50,4.0,,,9999.0,,26.7,16.9,30.00,1016.2,,,,,,,,,,,,,,,2/8 Mostly Clear,72000.0,4500.0,FEW,4500.0,FEW,20000.0,,,,
KRDR,07-29-2020,19:56,METAR,Normal,120,3.0,,,9999.0,,26.0,17.1,29.99,1015.9,,,,,,,,,,,,,,,4/8 Partly Cloudy,72000.0,16000.0,FEW,16000.0,SCT,19000.0,SCT,21000.0,,
KRDR,07-29-2020,18:56,METAR,Normal,90,7.0,,,9999.0,,26.0,17.1,29.99,1015.9,,,,,,,,,,,,,,,Clear,72000.0,,,,,,,,,
KRDR,07-29-2020,17:56,METAR,Normal,60,5.0,,,9999.0,,25.2,17.1,30.00,1016.2,,,,,,,,,,,,,,,Clear,72000.0,,,,,,,,,
KRDR,07-29-2020,16:56,METAR,Normal,130,4.0,,,9999.0,,24.5,17.0,30.01,1016.6,,,,,,,,,,,,,,,Clear,72000.0,,,,,,,,,
KRDR,07-29-2020,15:56,METAR,Calm,,0.0,,,9999.0,,23.8,16.6,30.00,1016.2,,,,,,,,,,,,,,,Clear,72000.0,,,,,,,,,
KRDR,07-29-2020,14:56,METAR,Normal,70,3.0,,,9999.0,,22.3,16.5,30.00,1016.2,,,,,,,,,,,,,,,Clear,72000.0,,,,,,,,,
KRDR,07-29-2020,13:56,METAR,Normal,30,3.0,,,9999.0,,20.0,17.2,29.99,1015.8,,,,,,,,,,,,,,,Clear,72000.0,,,,,,,,,
KRDR,07-29-2020,12:56,METAR,Normal,20,5.0,,,9999.0,,17.1,16.6,29.98,1015.5,,,,,,,,,,,,,,,Clear,72000.0,,,,,,,,,
KRDR,07-29-2020,11:56,METAR,Calm,,0.0,,,9999.0,,13.6,13.6,29.98,1015.5,,,,,,,,,,,,,,,Clear,72000.0,,,,,,,,,
KRDR,07-29-2020,10:56,METAR,Calm,,0.0,,,9999.0,,12.3,12.3,29.97,1015.3,,,,,,,,,,,,,,,Clear,72000.0,,,,,,,,,
KRDR,07-29-2020,09:56,METAR,Calm,,0.0,,,9999.0,,12.3,12.3,29.95,1014.5,,,,,,,,,,,,,,,Clear,72000.0,,,,,,,,,
KRDR,07-29-2020,08:56,METAR,Normal,360,3.0,,,9999.0,,13.2,13.2,29.94,1014.2,,,,,,,,,,,,,,,Clear,72000.0,,,,,,,,,
KRDR,07-29-2020,07:56,METAR,Calm,,0.0,,,9999.0,,13.6,13.6,29.94,1014.1,,,,,,,,,,,,,,,Clear,72000.0,,,,,,,,,
KRDR,07-29-2020,06:56,METAR,Normal,310,3.0,,,9999.0,,14.5,14.5,29.95,1014.5,,,,,,,,,,,,,,,Clear,72000.0,,,,,,,,,
KRDR,07-29-2020,05:56,METAR,Calm,,0.0,,,9999.0,,15.2,15.0,29.94,1014.1,,,,,,,,,,,,,,,Clear,72000.0,,,,,,,,,
KRDR,07-29-2020,04:56,METAR,Normal,300,3.0,,,9999.0,,14.9,14.9,29.94,1014.1,,,,,,,,,,,,,,,Clear,72000.0,,,,,,,,,
KRDR,07-29-2020,03:56,METAR,Calm,,0.0,,,9999.0,,16.3,16.0,29.92,1013.4,,,,,,,,,,,,,,,Clear,72000.0,,,,,,,,,
KRDR,07-29-2020,02:56,METAR,Calm,,0.0,,,9999.0,,18.4,15.4,29.92,1013.4,,,,,,,,,,,,,,,Clear,72000.0,,,,,,,,,
KRDR,07-29-2020,01:56,METAR,Normal,30,5.0,,,9999.0,,21.4,16.6,29.90,1012.7,,,,,,,,,,,,,,,Clear,72000.0,,,,,,,,,
KRDR,07-29-2020,00:56,METAR,Normal,30,6.0,,,9999.0,,24.6,15.2,29.89,1012.3,,,,,,,,,,,,,,,Clear,72000.0,,,,,,,,,
KRDR,07-28-2020,23:56,METAR,Normal,30,8.0,,,9999.0,,25.9,15.0,29.89,1012.4,,,,,,,,,,,,,,,Clear,72000.0,,,,,,,,,
KRDR,07-28-2020,22:56,METAR,Normal,40,9.0,,,9999.0,,26.6,15.6,29.89,1012.4,,,,,,,,,,,,,,,Clear,72000.0,,,,,,,,,
KRDR,07-28-2020,21:56,METAR,Normal,20,10.0,,,9999.0,,27.0,17.4,29.89,1012.4,,,,,,,,,,,,,,,4/8 Partly Cloudy,72000.0,5000.0,SCT,5000.0,,,,,,
KRDR,07-28-2020,20:56,METAR,Normal,360,11.0,,,9999.0,,27.5,15.2,29.89,1012.4,,,,,,,,,,,,,,,4/8 Partly Cloudy,72000.0,5500.0,SCT,5500.0,,,,,,
KRDR,07-28-2020,19:56,METAR,Normal,340,8.0,,,9999.0,,27.9,14.5,29.89,1012.3,,,,,,,,,,,,,,,2/8 Mostly Clear,72000.0,6000.0,FEW,6000.0,,,,,,
KRDR,07-28-2020,18:56,METAR,Normal,320,10.0,15.0,,9999.0,,27.6,13.9,29.90,1012.7,,,,,,,,,,,,,,,Clear,72000.0,,,,,,,,,
KRDR,07-28-2020,17:56,METAR,Normal,340,11.0,,,9999.0,,27.1,14.5,29.91,1013.0,,,,,,,,,,,,,,,2/8 Mostly Clear,72000.0,6000.0,FEW,6000.0,,,,,,
KRDR,07-28-2020,16:56,METAR,Normal,330,9.0,,,9999.0,,26.4,14.5,29.91,1013.1,,,,,,,,,,,,,,,Clear,72000.0,,,,,,,,,
KRDR,07-28-2020,15:56,METAR,Normal,320,8.0,,,9999.0,,25.6,16.4,29.91,1013.1,,,,,,,,,,,,,,,Clear,72000.0,,,,,,,,,
KRDR,07-28-2020,14:56,METAR,Normal,330,8.0,,,9999.0,,24.1,16.8,29.91,1013.1,,,,,,,,,,,,,,,Clear,72000.0,,,,,,,,,
KRDR,07-28-2020,13:56,METAR,Normal,330,7.0,,,9999.0,,22.3,16.8,29.90,1012.7,,,,,,,,,,,,,,,Clear,72000.0,,,,,,,,,
KRDR,07-28-2020,12:56,METAR,Normal,300,6.0,,,9999.0,,20.0,17.0,29.90,1012.7,,,,,,,,,,,,,,,Clear,72000.0,,,,,,,,,
KRDR,07-28-2020,11:56,METAR,Normal,300,6.0,,,9999.0,,17.0,16.3,29.90,1012.7,,,,,,,,,,,,,,,Clear,72000.0,,,,,,,,,
KRDR,07-28-2020,10:56,METAR,Normal,300,6.0,,,9999.0,,16.0,15.8,29.90,1012.7,,,,,,,,,,,,,,,Clear,72000.0,,,,,,,,,
KRDR,07-28-2020,09:56,METAR,Normal,290,6.0,,,9999.0,,16.7,16.5,29.89,1012.4,,,,,,,,,,,,,,,Clear,72000.0,,,,,,,,,
KRDR,07-28-2020,08:56,METAR,Normal,280,6.0,,,9999.0,,16.3,15.5,29.89,1012.4,,,,,,,,,,,,,,,Clear,72000.0,,,,,,,,,
KRDR,07-28-2020,07:56,METAR,Normal,280,6.0,,,9999.0,,17.0,15.2,29.90,1012.7,,,,,,,,,,,,,,,Clear,72000.0,,,,,,,,,
KRDR,07-28-2020,06:56,METAR,Normal,270,5.0,,,9999.0,,15.6,15.4,29.90,1012.7,,,,,,,,,,,,,,,Clear,72000.0,,,,,,,,,
KRDR,07-28-2020,05:56,METAR,Normal,270,6.0,,,9999.0,,15.9,15.9,29.91,1013.1,,,,,,,,,,,,,,,Clear,72000.0,,,,,,,,,
KRDR,07-28-2020,04:56,METAR,Normal,260,5.0,,,9999.0,,15.8,15.6,29.91,1013.1,,,,,,,,,,,,,,,Clear,72000.0,,,,,,,,,
KRDR,07-28-2020,03:56,METAR,Normal,260,4.0,,,9999.0,,16.5,16.2,29.91,1013.1,,,,,,,,,,,,,,,Clear,72000.0,,,,,,,,,
KRDR,07-28-2020,02:56,METAR,Normal,280,3.0,,,9999.0,,18.0,16.5,29.91,1013.1,,,,,,,,,,,,,,,Clear,72000.0,,,,,,,,,
KRDR,07-28-2020,01:56,METAR,Normal,300,5.0,,,9999.0,,21.6,16.7,29.91,1013.0,,,,,,,,,,,,,,,Clear,72000.0,,,,,,,,,
KRDR,07-28-2020,00:56,METAR,Normal,330,6.0,,,9999.0,,24.3,15.8,29.92,1013.4,,,,,,,,,,,,,,,Clear,72000.0,,,,,,,,,
KRDR,07-27-2020,23:56,METAR,Normal,340,8.0,,,9999.0,,25.4,14.5,29.92,1013.4,,,,,,,,,,,,,,,Clear,72000.0,,,,,,,,,
KRDR,07-27-2020,22:56,METAR,Normal,320,12.0,17.0,,9999.0,,26.1,13.6,29.93,1013.8,,,,,,,,,,,,,,,,8000.0,6500.0,SCT,6500.0,BKN,8000.0,,,,
KRDR,07-27-2020,21:56,METAR,Normal,310,9.0,,,9999.0,,26.6,14.3,29.95,1014.4,,,,,,,,,,,,,,,4/8 Partly Cloudy,72000.0,7000.0,SCT,7000.0,,,,,,
KRDR,07-27-2020,20:56,METAR,Normal,320,10.0,,,9999.0,,26.5,13.6,29.96,1014.7,,,,,,,,,,,,,,,2/8 Mostly Clear,72000.0,6500.0,FEW,6500.0,,,,,,
KRDR,07-27-2020,19:56,METAR,Normal,320,11.0,,,9999.0,,26.2,14.0,29.97,1015.1,,,,,,,,,,,,,,,Clear,72000.0,,,,,,,,,
KRDR,07-27-2020,18:56,METAR,Normal,330,14.0,20.0,,9999.0,,25.9,14.0,29.98,1015.4,,,,,,,,,,,,,,,Clear,72000.0,,,,,,,,,
KRDR,07-27-2020,17:56,METAR,Normal,330,14.0,20.0,,9999.0,,25.7,14.5,29.99,1015.8,,,,,,,,,,,,,,,Clear,72000.0,,,,,,,,,
KRDR,07-27-2020,16:56,METAR,Normal,320,15.0,19.0,,9999.0,,24.7,16.7,30.00,1016.2,,,,,,,,,,,,,,,Clear,72000.0,,,,,,,,,
KRDR,07-27-2020,15:56,METAR,Normal,310,9.0,,,9999.0,,23.7,16.2,30.00,1016.2,,,,,,,,,,,,,,,Clear,72000.0,,,,,,,,,
KRDR,07-27-2020,14:56,METAR,Normal,320,10.0,,,9999.0,,22.7,16.2,30.00,1016.2,,,,,,,,,,,,,,,Clear,72000.0,,,,,,,,,
KRDR,07-27-2020,12:56,METAR,Normal,310,6.0,,,9999.0,,19.2,15.7,29.99,1015.8,,,,,,,,,,,,,,,Clear,72000.0,,,,,,,,,
KRDR,07-27-2020,11:56,METAR,Normal,300,7.0,,,9999.0,,16.9,15.2,29.98,1015.5,,,,,,,,,,,,,,,Clear,72000.0,,,,,,,,,
KRDR,07-27-2020,10:56,METAR,Normal,290,6.0,,,9999.0,,16.1,15.0,29.98,1015.5,,,,,,,,,,,,,,,Clear,72000.0,,,,,,,,,
KRDR,07-27-2020,09:56,METAR,Normal,300,6.0,,,9999.0,,16.7,15.4,29.98,1015.4,,,,,,,,,,,,,,,Clear,72000.0,,,,,,,,,
KRDR,07-27-2020,08:56,METAR,Normal,290,7.0,,,9999.0,,17.6,15.4,29.97,1015.1,,,,,,,,,,,,,,,Clear,72000.0,,,,,,,,,
KRDR,07-27-2020,07:56,METAR,Normal,290,5.0,,,9999.0,,17.3,15.6,29.98,1015.5,,,,,,,,,,,,,,,Clear,72000.0,,,,,,,,,
KRDR,07-27-2020,06:56,METAR,Normal,290,6.0,,,9999.0,,17.5,15.7,29.98,1015.4,,,,,,,,,,,,,,,Clear,72000.0,,,,,,,,,
KRDR,07-27-2020,05:56,METAR,Normal,290,6.0,,,9999.0,,17.9,15.9,29.99,1015.8,,,,,,,,,,,,,,,Clear,72000.0,,,,,,,,,
KRDR,07-27-2020,04:56,METAR,Normal,270,6.0,,,9999.0,,17.6,16.1,29.99,1015.8,,,,,,,,,,,,,,,Clear,72000.0,,,,,,,,,
KRDR,07-27-2020,03:56,METAR,Normal,280,7.0,,,9999.0,,18.5,16.1,29.99,1015.8,,,,,,,,,,,,,,,Clear,72000.0,,,,,,,,,
KRDR,07-27-2020,02:56,METAR,Normal,270,5.0,,,9999.0,,18.7,16.3,29.98,1015.5,,,,,,,,,,,,,,,Clear,72000.0,,,,,,,,,
KRDR,07-27-2020,01:56,METAR,Normal,310,6.0,,,9999.0,,21.4,16.1,29.97,1015.1,,,,,,,,,,,,,,,Clear,72000.0,,,,,,,,,
KRDR,07-27-2020,00:56,METAR,Normal,320,8.0,,,9999.0,,24.1,15.8,29.98,1015.5,,,,,,,,,,,,,,,Clear,72000.0,,,,,,,,,
KRDR,07-26-2020,23:56,METAR,Normal,320,12.0,17.0,,9999.0,,25.2,14.3,29.98,1015.5,,,,,,,,,,,,,,,Clear,72000.0,,,,,,,,,
KRDR,07-26-2020,22:56,METAR,Normal,310,10.0,17.0,,9999.0,,26.1,13.9,29.98,1015.5,,,,,,,,,,,,,,,Clear,72000.0,,,,,,,,,
KRDR,07-26-2020,21:56,METAR,Normal,310,11.0,,,9999.0,,26.3,14.1,30.00,1016.1,,,,,,,,,,,,,,,Clear,72000.0,,,,,,,,,
KRDR,07-26-2020,20:56,METAR,Normal,310,15.0,20.0,,9999.0,,25.8,13.3,30.00,1016.1,,,,,,,,,,,,,,,Clear,72000.0,,,,,,,,,
KRDR,07-26-2020,19:56,METAR,Normal,300,17.0,23.0,,9999.0,,25.9,12.7,30.01,1016.4,,,,,,,,,,,,,,,Clear,72000.0,,,,,,,,,
KRDR,07-26-2020,18:56,METAR,Normal,300,15.0,20.0,,9999.0,,25.6,13.1,30.01,1016.4,,,,,,,,,,,,,,,Clear,72000.0,,,,,,,,,
KRDR,07-26-2020,17:56,METAR,Normal,300,14.0,,,9999.0,,25.0,12.6,30.02,1016.8,,,,,,,,,,,,,,,Clear,72000.0,,,,,,,,,
KRDR,07-26-2020,16:56,METAR,Normal,310,12.0,,,9999.0,,24.8,13.3,30.03,1017.1,,,,,,,,,,,,,,,Clear,72000.0,,,,,,,,,
KRDR,07-26-2020,15:56,METAR,Normal,310,7.0,,,9999.0,,23.9,15.4,30.03,1017.1,,,,,,,,,,,,,,,Clear,72000.0,,,,,,,,,
KRDR,07-26-2020,14:56,METAR,Normal,300,6.0,,,9999.0,,22.6,14.7,30.02,1016.6,,,,,,,,,,,,,,,Clear,72000.0,,,,,,,,,
KRDR,07-26-2020,13:56,METAR,Normal,340,7.0,,,9999.0,,20.4,15.4,30.00,1016.0,,,,,,,,,,,,,,,Clear,72000.0,,,,,,,,,
KRDR,07-26-2020,12:56,METAR,Normal,320,5.0,,,9999.0,,17.9,14.8,30.01,1016.3,,,,,,,,,,,,,,,Clear,72000.0,,,,,,,,,
KRDR,07-26-2020,11:56,METAR,Normal,320,7.0,,,9999.0,,16.1,14.3,29.98,1015.3,,,,,,,,,,,,,,.54 IN,Clear,72000.0,,,,,,,,,
KRDR,07-26-2020,10:56,METAR,Normal,330,7.0,,,9999.0,,16.2,15.1,29.95,1014.3,,,,,,,,,,,,,,,Clear,72000.0,,,,,,,,,
KRDR,07-26-2020,09:56,METAR,Normal,340,10.0,,,9999.0,,17.5,16.2,29.94,1013.9,,,,,,,,,,,,,,,Clear,72000.0,,,,,,,,,
KRDR,07-26-2020,08:56,METAR,Normal,340,5.0,,,9999.0,,18.1,18.1,29.95,1014.2,,,,,,,,,,,,,,,Clear,72000.0,,,,,,,,,
KRDR,07-26-2020,07:56,METAR,Normal,330,11.0,,,9999.0,,18.8,18.8,29.94,1013.9,,,,,,,,,,,,,,,Clear,72000.0,,,,,,,,,
KRDR,07-26-2020,06:56,METAR,Normal,360,5.0,,,9999.0,,18.8,18.8,29.95,1014.2,,,,,,,,,,,,,,,4/8 Partly Cloudy,72000.0,8000.0,FEW,8000.0,SCT,22000.0,,,,
KRDR,07-26-2020,05:56,METAR,Calm,,0.0,,,9999.0,,19.7,19.7,29.95,1014.2,,,,,,,,,,,.17 IN,,.71 IN,,4/8 Partly Cloudy,72000.0,8000.0,SCT,8000.0,SCT,22000.0,,,,
KRDR,07-26-2020,04:56,METAR,Normal,10,10.0,,320/28KTS,8000.0,Rain/Distant Lightning/Mist,19.9,19.9,29.92,1013.3,62,10,12,,,,,,,,.32 IN,,,,,4200.0,4200.0,BKN,4200.0,OVC,4900.0,,,,
KRDR,07-26-2020,04:53,SPECI,Normal,10,9.0,,,4800.0,Heavy Rain/Distant Lightning/Mist,20.0,20.0,29.92,1013.3,63,10,12,,,,,,,,,,,,,4400.0,4400.0,OVC,4400.0,,,,,,
KRDR,07-26-2020,04:51,SPECI,Normal,20,9.0,,,4000.0,Heavy Thunderstorm and Rain or Snow Showers/Mist,20.0,20.0,29.92,1013.3,95,10,,,,,,,,,,,,,,4400.0,4400.0,OVC,4400.0,,,,,,
KRDR,07-26-2020,04:42,SPECI,Normal,320,10.0,24.0,,4800.0,Heavy Thunderstorm with Rain or Snow/Mist,21.0,21.0,29.95,1014.2,,,,97,10,,,,,,,,,,,4700.0,4700.0,BKN,4700.0,BKN,8000.0,OVC,12000.0,,
KRDR,07-26-2020,04:31,SPECI,Normal,320,19.0,28.0,,6400.0,Thunderstorm and Rain or Snow Showers,21.0,21.0,29.94,1013.9,92,,,,,,,,,,,,,,,8000.0,4200.0,SCT,4200.0,BKN,8000.0,BKN,10000.0,BKN,12000.0
KRDR,07-26-2020,04:28,SPECI,Normal,310,18.0,28.0,,9999.0,Light Rain/Distant Lightning,21.0,21.0,29.93,1013.6,61,12,,,,,,,,,,,,,,10000.0,4100.0,FEW,4100.0,SCT,8000.0,BKN,10000.0,BKN,12000.0
KRDR,07-26-2020,04:09,SPECI,Normal,330,5.0,,,9999.0,Lightning,21.0,21.0,29.88,1011.9,,,,13,,,,,,,,,,,,12000.0,4800.0,FEW,4800.0,SCT,10000.0,BKN,12000.0,,
KRDR,07-26-2020,03:56,METAR,Normal,70,5.0,,,9999.0,Dry Thunderstorm,20.6,20.4,29.88,1011.9,91,,,,,,,,,,.21 IN,,,,,12000.0,6000.0,FEW,6000.0,BKN,12000.0,,,,
KRDR,07-26-2020,03:22,SPECI,Normal,250,12.0,,,6400.0,Heavy Thunderstorm and Rain or Snow Showers/Mist,22.0,21.0,29.90,1012.6,95,10,,,,,,,,,,,,,,3600.0,3600.0,BKN,3600.0,BKN,4500.0,OVC,5500.0,,
KRDR,07-26-2020,03:12,SPECI,Normal,280,17.0,25.0,,8000.0,Thunderstorm and Rain or Snow Showers,24.0,22.0,29.89,1012.2,92,,,,,,,,,,,,,,,4900.0,3600.0,SCT,3600.0,BKN,4900.0,BKN,7000.0,BKN,12000.0
KRDR,07-26-2020,02:56,METAR,Normal,320,6.0,,,9999.0,Thunderstorm and Rain or Snow Showers,26.6,25.2,29.85,1010.8,92,,,,,,,,,,.01 IN,.01 IN,,,,12000.0,4900.0,SCT,4900.0,SCT,7000.0,BKN,12000.0,OVC,14000.0
KRDR,07-26-2020,02:47,SPECI,Normal,340,4.0,,,9999.0,Thunderstorm with Rain or Snow,28.0,25.0,29.84,1010.4,,,,95,,,,,,,,,,,,4800.0,4800.0,BKN,4800.0,BKN,12000.0,OVC,14000.0,,
KRDR,07-26-2020,02:38,SPECI,Normal,340,6.0,,,9999.0,Light Rain/Distant Lightning,27.0,25.0,29.83,1010.1,12,61,,,,,,,,,,,,,,4800.0,4800.0,BKN,4800.0,BKN,14000.0,,,,
KRDR,07-26-2020,02:35,SPECI,Variable,,6.0,,,9999.0,Lightning,27.0,26.0,29.82,1009.8,,,,13,,,,,,,,,,,,4800.0,4800.0,BKN,4800.0,BKN,14000.0,,,,
KRDR,07-26-2020,02:01,SPECI,Normal,180,5.0,,,9999.0,,27.0,26.0,29.80,1009.1,,,,,,,,,,,,,,,,6000.0,3000.0,SCT,3000.0,BKN,6000.0,BKN,20000.0,,
KRDR,07-26-2020,01:56,METAR,Normal,190,6.0,,,9999.0,,27.4,26.3,29.81,1009.5,,,,,,,,,,,,,,,,6000.0,3000.0,SCT,3000.0,BKN,6000.0,BKN,20000.0,,
KRDR,07-26-2020,00:56,METAR,Normal,190,5.0,,,9999.0,,29.2,25.8,29.81,1009.5,,,,,,,,,,,,,,,,10000.0,3000.0,SCT,3000.0,BKN,10000.0,BKN,20000.0,,
KRDR,07-25-2020,23:56,METAR,Normal,190,5.0,,,9999.0,,31.1,24.7,29.80,1009.1,,,,,,,,,,,,,,,4/8 Partly Cloudy,72000.0,3000.0,FEW,3000.0,SCT,8600.0,SCT,20000.0,,
KRDR,07-25-2020,22:56,METAR,Normal,220,6.0,,,9999.0,,31.5,24.3,29.80,1009.1,,,,,,,,,,,,,,,2/8 Mostly Clear,72000.0,3000.0,FEW,3000.0,,,,,,
KRDR,07-25-2020,21:56,METAR,Calm,,0.0,,,9999.0,,32.0,24.3,29.81,1009.4,,,,,,,,,,,,,,,2/8 Mostly Clear,72000.0,3000.0,FEW,3000.0,,,,,,
KRDR,07-25-2020,20:56,METAR,Normal,220,5.0,,,9999.0,,31.5,24.8,29.80,1009.1,,,,,,,,,,,,,,,Clear,72000.0,,,,,,,,,
KRDR,07-25-2020,19:56,METAR,Normal,190,6.0,,,9999.0,,31.1,23.9,29.79,1008.7,,,,,,,,,,,,,,,Clear,72000.0,,,,,,,,,
KRDR,07-25-2020,18:56,METAR,Normal,200,5.0,,,9999.0,,30.4,25.0,29.79,1008.7,,,,,,,,,,,,,,,Clear,72000.0,,,,,,,,,
KRDR,07-25-2020,17:56,METAR,Calm,,0.0,,,9999.0,,30.0,24.1,29.79,1008.7,,,,,,,,,,,,,,,Clear,72000.0,,,,,,,,,
KRDR,07-25-2020,16:56,METAR,Normal,230,5.0,,,9999.0,,28.9,24.4,29.79,1008.8,,,,,,,,,,,,,,,Clear,72000.0,,,,,,,,,
KRDR,07-25-2020,15:56,METAR,Normal,240,7.0,,,9999.0,,27.3,23.7,29.79,1008.8,,,,,,,,,,,,,,,2/8 Mostly Clear,72000.0,1000.0,FEW,1000.0,,,,,,
KRDR,07-25-2020,14:56,METAR,Normal,270,5.0,,,9999.0,,25.7,23.5,29.78,1008.3,,,,,,,,,,,,,,,2/8 Mostly Clear,72000.0,800.0,FEW,800.0,,,,,,
KRDR,07-25-2020,14:17,SPECI,Normal,270,7.0,,,9999.0,,24.0,24.0,29.77,1008.0,,,,,,,,,,,,,,,4/8 Partly Cloudy,72000.0,800.0,SCT,800.0,,,,,,
KRDR,07-25-2020,13:56,METAR,Normal,290,6.0,,,9999.0,,23.6,23.6,29.78,1008.3,,,,,,,,,,,,,,,,800.0,800.0,BKN,800.0,,,,,,
KRDR,07-25-2020,13:36,SPECI,Normal,260,7.0,,,9999.0,,22.0,22.0,29.78,1008.4,,,,,,,,,,,,,,,,600.0,600.0,OVC,600.0,,,,,,
KRDR,07-25-2020,13:16,SPECI,Normal,250,6.0,,,9999.0,,22.0,22.0,29.78,1008.4,,,,,,,,,,,,,,,,500.0,500.0,OVC,500.0,,,,,,
KRDR,07-25-2020,12:56,METAR,Normal,260,6.0,,,9999.0,,21.9,21.9,29.77,1008.0,,,,,,,,,,,,,,,,600.0,600.0,OVC,600.0,,,,,,
KRDR,07-25-2020,12:46,SPECI,Normal,240,7.0,,,9999.0,,22.0,22.0,29.77,1008.0,,,,,,,,,,,,,,,,600.0,600.0,OVC,600.0,,,,,,
KRDR,07-25-2020,12:16,SPECI,Normal,250,7.0,,,9999.0,,21.0,21.0,29.77,1008.0,,,,,,,,,,,,,,,,500.0,500.0,OVC,500.0,,,,,,
KRDR,07-25-2020,12:06,SPECI,Normal,250,7.0,,,9999.0,,21.0,21.0,29.77,1008.0,,,,,,,,,,,,,,,,600.0,600.0,OVC,600.0,,,,,,
KRDR,07-25-2020,11:56,METAR,Normal,240,6.0,,,9999.0,,21.3,21.3,29.77,1008.0,,,,,,,,,,,,,.14 IN,.74 IN,,700.0,700.0,OVC,700.0,,,,,,
KRDR,07-25-2020,11:46,SPECI,Normal,240,5.0,,,9999.0,,21.0,21.0,29.77,1008.0,,,,,,,,,,,,,,,,700.0,700.0,OVC,700.0,,,,,,
KRDR,07-25-2020,11:06,SPECI,Normal,210,4.0,,,9999.0,,21.0,21.0,29.76,1007.7,,,,,,,,,,,,,,,,900.0,900.0,OVC,900.0,,,,,,
KRDR,07-25-2020,10:56,METAR,Normal,200,4.0,,,9999.0,,20.9,20.9,29.76,1007.7,,,,,,,,,,,,,,,,1100.0,1100.0,BKN,1100.0,BKN,1600.0,,,,
KRDR,07-25-2020,10:48,SPECI,Normal,190,6.0,,,9999.0,,21.0,21.0,29.75,1007.3,,,,,,,,,,,,,,,,1100.0,1100.0,BKN,1100.0,BKN,1600.0,,,,
KRDR,07-25-2020,09:56,METAR,Normal,40,4.0,,,9999.0,,20.5,20.5,29.74,1007.0,,,,,,,,,,,,,,,,14000.0,14000.0,BKN,14000.0,BKN,23000.0,,,,
KRDR,07-25-2020,08:56,METAR,Calm,,0.0,,,9999.0,,20.7,20.7,29.73,1006.7,,,,,,,,,,,.04 IN,.14 IN,,,,16000.0,5500.0,SCT,5500.0,SCT,7000.0,BKN,16000.0,,
KRDR,07-25-2020,08:38,SPECI,Normal,160,3.0,,,9999.0,,21.0,21.0,29.75,1007.3,,,,,,,,,,,,,,,,5500.0,5500.0,OVC,5500.0,,,,,,
KRDR,07-25-2020,07:56,METAR,Normal,220,3.0,,,9999.0,Rain,21.5,21.5,29.75,1007.3,62,,,,,,,,,,.08 IN,,,,,5500.0,5500.0,BKN,5500.0,OVC,8600.0,,,,
KRDR,07-25-2020,07:36,SPECI,Normal,160,5.0,,,9999.0,Light Rain,22.0,22.0,29.76,1007.6,61,,,,,,,,,,,,,,,9000.0,3300.0,FEW,3300.0,FEW,5500.0,BKN,9100.0,OVC,13000.0
KRDR,07-25-2020,07:22,SPECI,Normal,160,8.0,,,9999.0,,22.0,22.0,29.75,1007.3,,,,,,,,,,,,,,,,13000.0,3900.0,FEW,3900.0,FEW,7000.0,SCT,8600.0,BKN,13000.0
KRDR,07-25-2020,07:06,SPECI,Normal,160,12.0,,,9999.0,Light Rain,22.0,22.0,29.74,1006.9,61,,,,,,,,,,,,,,,8500.0,4500.0,FEW,4500.0,SCT,7000.0,BKN,8600.0,OVC,14000.0
KRDR,07-25-2020,06:56,METAR,Normal,160,9.0,,,9999.0,,21.5,21.5,29.75,1007.3,,,,,,,,,,,.02 IN,,,,,8000.0,5500.0,FEW,5500.0,BKN,8000.0,OVC,9100.0,,
KRDR,07-25-2020,06:51,SPECI,Normal,160,11.0,,,9999.0,,21.0,21.0,29.75,1007.3,,,,,,,,,,,,,,,,7500.0,5500.0,FEW,5500.0,BKN,7500.0,OVC,9100.0,,
KRDR,07-25-2020,06:29,SPECI,Normal,170,10.0,,,9999.0,Light Drizzle,22.0,22.0,29.76,1007.6,51,,,,,,,,,,,,,,,7000.0,4900.0,SCT,4900.0,BKN,7000.0,OVC,10000.0,,
KRDR,07-25-2020,05:56,METAR,Normal,110,5.0,,,9999.0,,21.5,21.5,29.74,1007.0,,,,,,,,,,,TRACE,,.59 IN,,,13000.0,13000.0,OVC,13000.0,,,,,,
KRDR,07-25-2020,05:04,SPECI,Normal,50,6.0,,,9999.0,,21.0,21.0,29.75,1007.3,,,,,,,,,,,,,,,2/8 Mostly Clear,72000.0,15000.0,FEW,15000.0,,,,,,
KRDR,07-25-2020,04:56,METAR,Normal,30,5.0,,,9999.0,Light Rain,21.0,21.0,29.76,1007.7,61,,,,,,,,,,.24 IN,,,,2/8 Mostly Clear,72000.0,7000.0,FEW,7000.0,,,,,,
KRDR,07-25-2020,04:51,SPECI,Normal,30,6.0,,,9999.0,Light Rain,21.0,21.0,29.76,1007.7,61,,,,,,,,,,,,,,2/8 Mostly Clear,72000.0,6000.0,FEW,6000.0,,,,,,
KRDR,07-25-2020,04:17,SPECI,Normal,350,13.0,,,8000.0,Heavy Thunderstorm and Rain or Snow Showers/Mist,21.0,21.0,29.78,1008.4,95,10,,,,,,,,,,,,,,4800.0,4800.0,BKN,4800.0,,,,,,
KRDR,07-25-2020,03:56,METAR,Normal,360,8.0,,300/38KTS,8000.0,Thunderstorm and Rain or Snow Showers,21.2,21.2,29.81,1009.4,92,,,,,,,,,,.35 IN,,,,,7500.0,3900.0,SCT,3900.0,BKN,7500.0,,,,
KRDR,07-25-2020,03:25,SPECI,Normal,330,14.0,30.0,,3200.0,Heavy Thunderstorm and Rain or Snow Showers/Mist,21.0,21.0,29.79,1008.8,95,10,,,,,,,,,,,,,,2700.0,2700.0,BKN,2700.0,BKN,3400.0,OVC,4400.0,,
KRDR,07-25-2020,03:21,SPECI,Normal,310,16.0,36.0,,2000.0,Heavy Thunderstorm with Rain or Snow/Mist,22.0,22.0,29.80,1009.1,,,,97,10,,,,,,,,,,,4400.0,3200.0,SCT,3200.0,OVC,4400.0,,,,
KRDR,07-25-2020,03:04,SPECI,Normal,310,28.0,37.0,,3200.0,Thunderstorm and Rain or Snow Showers,27.0,22.0,29.76,1007.6,92,,,,,,,,,,,,,,,4500.0,2700.0,FEW,2700.0,SCT,3500.0,BKN,4500.0,,
KRDR,07-25-2020,02:56,METAR,Normal,280,12.0,19.0,,9999.0,Dry Thunderstorm,28.9,26.1,29.75,1007.2,91,,,,,,,,,,,,,,4/8 Partly Cloudy,72000.0,4600.0,FEW,4600.0,SCT,9600.0,,,,
KRDR,07-25-2020,02:29,SPECI,Normal,170,6.0,,,9999.0,Thunderstorm,30.0,26.0,29.72,1006.2,,,,17,,,,,,,,,,,,9000.0,9000.0,BKN,9100.0,OVC,10000.0,,,,
KRDR,07-25-2020,02:19,SPECI,Normal,160,7.0,,,9999.0,Lightning,30.0,26.0,29.71,1005.9,,,,13,,,,,,,,,,,,8000.0,4600.0,FEW,4600.0,BKN,8000.0,OVC,10000.0,,
KRDR,07-25-2020,01:56,METAR,Normal,150,5.0,,,9999.0,,29.7,26.2,29.72,1006.2,,,,,,,,,,,,,,,,7000.0,4500.0,FEW,4500.0,BKN,7000.0,BKN,10000.0,,
KRDR,07-25-2020,00:56,METAR,Normal,190,6.0,,,9999.0,,31.0,26.4,29.74,1007.0,,,,,,,,,,,,,,,4/8 Partly Cloudy,72000.0,4700.0,SCT,4700.0,,,,,,
KRDR,07-24-2020,23:56,METAR,Normal,190,8.0,,,9999.0,,32.8,26.5,29.75,1007.3,,,,,,,,,,,,,,,Clear,72000.0,,,,,,,,,
KRDR,07-24-2020,22:56,METAR,Normal,200,7.0,,,9999.0,,33.6,26.3,29.76,1007.6,,,,,,,,,,,,,,,Clear,72000.0,,,,,,,,,
KRDR,07-24-2020,21:56,METAR,Normal,230,7.0,,,9999.0,,33.4,26.4,29.77,1007.9,,,,,,,,,,,,,,,2/8 Mostly Clear,72000.0,17000.0,FEW,17000.0,FEW,19000.0,,,,
KRDR,07-24-2020,20:56,METAR,Normal,230,9.0,,,9999.0,,31.7,26.2,29.77,1008.0,,,,,,,,,,,,,,,,18000.0,18000.0,BKN,18000.0,,,,,,
KRDR,07-24-2020,19:56,METAR,Normal,200,10.0,,,9999.0,,32.6,27.3,29.77,1007.9,,,,,,,,,,,,,,,,20000.0,16000.0,FEW,16000.0,BKN,20000.0,,,,
KRDR,07-24-2020,18:56,METAR,Normal,240,10.0,,,9999.0,,33.8,27.0,29.77,1007.9,,,,,,,,,,,,,,,2/8 Mostly Clear,72000.0,19000.0,FEW,19000.0,,,,,,
KRDR,07-24-2020,17:56,METAR,Normal,230,11.0,,,9999.0,,32.8,27.0,29.75,1007.3,,,,,,,,,,,,,.01 IN,,Clear,72000.0,,,,,,,,,
KRDR,07-24-2020,16:56,METAR,Normal,230,12.0,17.0,,9999.0,,31.7,26.7,29.75,1007.3,,,,,,,,,,,,,,,Clear,72000.0,,,,,,,,,
KRDR,07-24-2020,15:56,METAR,Normal,230,14.0,18.0,,9999.0,,30.4,25.9,29.73,1006.6,,,,,,,,,,,,,,,2/8 Mostly Clear,72000.0,2200.0,FEW,2200.0,,,,,,
KRDR,07-24-2020,14:56,METAR,Normal,200,13.0,,,9999.0,,28.3,25.7,29.72,1006.4,,,,,,,,,,,,.01 IN,,,Clear,72000.0,,,,,,,,,
KRDR,07-24-2020,14:36,SPECI,Normal,210,12.0,,,9999.0,,28.0,25.0,29.73,1006.7,,,,,,,,,,,,,,,4/8 Partly Cloudy,72000.0,1800.0,SCT,1800.0,,,,,,
KRDR,07-24-2020,14:16,SPECI,Normal,210,16.0,19.0,,9999.0,,27.0,25.0,29.73,1006.7,,,,,,,,,,,,,,,,1500.0,1500.0,BKN,1500.0,,,,,,
KRDR,07-24-2020,13:56,METAR,Normal,200,12.0,,,9999.0,,25.2,24.8,29.73,1006.8,,,,,,,,,,,,,,,,1400.0,1400.0,BKN,1400.0,,,,,,
KRDR,07-24-2020,13:26,SPECI,Normal,190,14.0,,,9999.0,,25.0,25.0,29.73,1006.8,,,,,,,,,,,,,,,,1300.0,1300.0,OVC,1300.0,,,,,,
KRDR,07-24-2020,12:56,METAR,Normal,190,14.0,,180/27KTS,9999.0,,23.9,23.9,29.73,1006.8,,,,,,,,,,,.01 IN,,,,,1200.0,1200.0,OVC,1200.0,,,,,,
KRDR,07-24-2020,12:33,SPECI,Normal,180,15.0,,,9999.0,,24.0,24.0,29.72,1006.4,,,,,,,,,,,,,,,,1300.0,1300.0,OVC,1300.0,,,,,,
KRDR,07-24-2020,12:23,SPECI,Normal,190,15.0,25.0,,9999.0,,24.0,24.0,29.73,1006.8,,,,,,,,,,,,,,,,1400.0,1400.0,OVC,1400.0,,,,,,
KRDR,07-24-2020,12:15,SPECI,Normal,190,14.0,27.0,,9999.0,Light Rain,24.0,24.0,29.73,1006.8,61,,,,,,,,,,,,,,,1400.0,1400.0,OVC,1400.0,,,,,,
KRDR,07-24-2020,12:06,SPECI,Normal,180,19.0,26.0,,9999.0,,24.0,24.0,29.73,1006.8,,,,,,,,,,,,,,,,1400.0,1400.0,OVC,1400.0,,,,,,
KRDR,07-24-2020,11:56,METAR,Normal,180,18.0,22.0,,9999.0,,23.8,23.8,29.73,1006.8,,,,,,,,,,,,,,,,1200.0,1200.0,OVC,1200.0,,,,,,
KRDR,07-24-2020,10:56,METAR,Normal,180,16.0,,,9999.0,,23.7,23.5,29.74,1007.0,,,,,,,,,,,,,,,,1400.0,1400.0,BKN,1400.0,OVC,2000.0,,,,
KRDR,07-24-2020,10:26,SPECI,Normal,180,14.0,22.0,,9999.0,,24.0,23.0,29.75,1007.4,,,,,,,,,,,,,,,,1600.0,1600.0,BKN,1600.0,OVC,2100.0,,,,
KRDR,07-24-2020,09:56,METAR,Normal,170,13.0,20.0,,9999.0,,23.5,23.0,29.76,1007.7,,,,,,,,,,,,,,,,2500.0,2500.0,OVC,2500.0,,,,,,
KRDR,07-24-2020,09:46,SPECI,Normal,170,14.0,,,9999.0,,23.0,23.0,29.76,1007.8,,,,,,,,,,,,,,,,2800.0,2800.0,BKN,2800.0,,,,,,
KRDR,07-24-2020,08:56,METAR,Normal,170,12.0,,,9999.0,,22.7,22.3,29.78,1008.5,,,,,,,,,,,,,,,Clear,72000.0,,,,,,,,,
KRDR,07-24-2020,07:56,METAR,Normal,160,14.0,20.0,,9999.0,,22.8,21.8,29.79,1008.8,,,,,,,,,,,,,,,Clear,72000.0,,,,,,,,,
KRDR,07-24-2020,06:56,METAR,Normal,170,14.0,,,9999.0,,22.9,21.5,29.83,1010.2,,,,,,,,,,,,,,,,23000.0,6000.0,FEW,6000.0,BKN,23000.0,,,,
KRDR,07-24-2020,05:56,METAR,Normal,170,12.0,20.0,,9999.0,,23.0,21.2,29.85,1010.9,,,,,,,,,,,,,,,2/8 Mostly Clear,72000.0,6000.0,FEW,6000.0,,,,,,
KRDR,07-24-2020,04:56,METAR,Normal,170,12.0,,,9999.0,,22.8,21.4,29.86,1011.3,,,,,,,,,,,,,,,Clear,72000.0,,,,,,,,,
KRDR,07-24-2020,03:56,METAR,Normal,170,10.0,,,9999.0,,23.0,21.8,29.86,1011.3,,,,,,,,,,,,,,,Clear,72000.0,,,,,,,,,
KRDR,07-24-2020,02:56,METAR,Normal,170,11.0,,,9999.0,,23.7,21.9,29.88,1012.0,,,,,,,,,,,,,,,Clear,72000.0,,,,,,,,,
KRDR,07-24-2020,01:56,METAR,Normal,150,10.0,,,9999.0,,24.6,21.9,29.88,1012.0,,,,,,,,,,,,,,,Clear,72000.0,,,,,,,,,
KRDR,07-24-2020,00:56,METAR,Normal,170,14.0,,,9999.0,,25.6,21.7,29.87,1011.7,,,,,,,,,,,,,,,Clear,72000.0,,,,,,,,,
KRDR,07-23-2020,23:56,METAR,Normal,170,16.0,22.0,170/27KTS,9999.0,,26.3,21.5,29.87,1011.7,,,,,,,,,,,,,,,Clear,72000.0,,,,,,,,,
KRDR,07-23-2020,22:56,METAR,Normal,170,18.0,24.0,190/27KTS,9999.0,,27.8,22.2,29.89,1012.4,,,,,,,,,,,,,,,Clear,72000.0,,,,,,,,,
KRDR,07-23-2020,21:56,METAR,Normal,170,16.0,25.0,160/27KTS,9999.0,,27.7,22.2,29.90,1012.7,,,,,,,,,,,,,,,2/8 Mostly Clear,72000.0,20000.0,FEW,20000.0,,,,,,
KRDR,07-23-2020,20:56,METAR,Normal,180,15.0,24.0,,9999.0,,26.5,21.5,29.92,1013.4,,,,,,,,,,,,,,,2/8 Mostly Clear,72000.0,15000.0,FEW,15000.0,FEW,17000.0,,,,
KRDR,07-23-2020,19:56,METAR,Normal,170,15.0,21.0,,9999.0,,26.3,21.3,29.95,1014.5,,,,,,,,,,,,,,,,19000.0,12000.0,FEW,12000.0,SCT,16000.0,BKN,19000.0,,
KRDR,07-23-2020,18:56,METAR,Normal,160,15.0,22.0,,9999.0,,26.2,20.7,29.95,1014.5,,,,,,,,,,,,,,,4/8 Partly Cloudy,72000.0,17000.0,FEW,17000.0,SCT,20000.0,,,,
KRDR,07-23-2020,17:56,METAR,Normal,180,19.0,23.0,,9999.0,,24.8,20.0,29.94,1014.1,,,,,,,,,,,,,,,4/8 Partly Cloudy,72000.0,14000.0,FEW,14000.0,SCT,17000.0,SCT,19000.0,,
KRDR,07-23-2020,16:56,METAR,Normal,170,18.0,21.0,180/26KTS,9999.0,,23.5,18.6,29.98,1015.5,,,,,,,,,,,,,,,4/8 Partly Cloudy,72000.0,8500.0,FEW,8600.0,FEW,12000.0,SCT,17000.0,SCT,20000.0
KRDR,07-23-2020,15:56,METAR,Normal,170,18.0,23.0,170/27KTS,9999.0,,22.7,17.8,29.99,1015.9,,,,,,,,,,,,,,,Clear,72000.0,,,,,,,,,
KRDR,07-23-2020,14:56,METAR,Normal,180,15.0,,,9999.0,,21.1,16.9,29.99,1015.9,,,,,,,,,,,,,,,Clear,72000.0,,,,,,,,,
KRDR,07-23-2020,13:56,METAR,Normal,190,15.0,,,9999.0,,19.1,16.1,30.00,1016.2,,,,,,,,,,,,,,,4/8 Partly Cloudy,72000.0,5500.0,SCT,5500.0,,,,,,
KRDR,07-23-2020,12:56,METAR,Normal,180,14.0,,,9999.0,,17.6,15.8,30.01,1016.5,,,,,,,,,,,,,,,Clear,72000.0,,,,,,,,,
KRDR,07-23-2020,11:56,METAR,Normal,170,9.0,,,9999.0,,16.0,15.8,30.01,1016.6,,,,,,,,,,,,,,,Clear,72000.0,,,,,,,,,
KRDR,07-23-2020,10:56,METAR,Normal,180,6.0,,,9999.0,,15.9,15.7,30.02,1016.9,,,,,,,,,,,,,,,,5500.0,5500.0,OVC,5500.0,,,,,,
KRDR,07-23-2020,09:56,METAR,Normal,170,8.0,,,9999.0,,15.8,15.5,30.01,1016.6,,,,,,,,,,,,,,,Clear,72000.0,,,,,,,,,
KRDR,07-23-2020,08:56,METAR,Normal,180,9.0,,,9999.0,,16.3,16.1,30.02,1016.9,,,,,,,,,,,,,,,Clear,72000.0,,,,,,,,,
KRDR,07-23-2020,07:56,METAR,Normal,180,9.0,,,9999.0,,16.3,16.3,30.02,1016.9,,,,,,,,,,,,,,,Clear,72000.0,,,,,,,,,
KRDR,07-23-2020,06:56,METAR,Normal,170,8.0,,,9999.0,,16.6,16.4,30.02,1016.9,,,,,,,,,,,,,,,Clear,72000.0,,,,,,,,,
KRDR,07-23-2020,05:56,METAR,Normal,160,7.0,,,9999.0,,17.0,16.0,30.02,1016.9,,,,,,,,,,,,,,,Clear,72000.0,,,,,,,,,
KRDR,07-23-2020,04:56,METAR,Normal,180,7.0,,,9999.0,,17.0,16.0,30.02,1017.0,,,,,,,,,,,,,,,Clear,72000.0,,,,,,,,,
KRDR,07-23-2020,03:56,METAR,Normal,170,5.0,,,9999.0,,17.7,16.2,30.01,1016.6,,,,,,,,,,,,,,,Clear,72000.0,,,,,,,,,
KRDR,07-23-2020,02:56,METAR,Normal,160,6.0,,,9999.0,,18.7,15.9,30.01,1016.6,,,,,,,,,,,,,,,Clear,72000.0,,,,,,,,,
KRDR,07-23-2020,01:56,METAR,Normal,160,5.0,,,9999.0,,20.8,15.8,30.00,1016.3,,,,,,,,,,,,,,,Clear,72000.0,,,,,,,,,
KRDR,07-23-2020,00:56,METAR,Normal,160,5.0,,,9999.0,,23.1,16.1,30.00,1016.3,,,,,,,,,,,,,,,Clear,72000.0,,,,,,,,,
KRDR,07-22-2020,23:56,METAR,Normal,170,9.0,,,9999.0,,23.7,15.5,30.00,1016.3,,,,,,,,,,,,,,,Clear,72000.0,,,,,,,,,
KRDR,07-22-2020,22:56,METAR,Normal,190,11.0,,,9999.0,,24.1,15.6,30.01,1016.7,,,,,,,,,,,,,,,Clear,72000.0,,,,,,,,,
KRDR,07-22-2020,21:56,METAR,Normal,180,10.0,,,9999.0,,24.3,15.8,30.03,1017.4,,,,,,,,,,,,,,,Clear,72000.0,,,,,,,,,
KRDR,07-22-2020,20:56,METAR,Normal,180,10.0,17.0,,9999.0,,24.2,15.1,30.04,1017.7,,,,,,,,,,,,,,,2/8 Mostly Clear,72000.0,4500.0,FEW,4500.0,,,,,,
KRDR,07-22-2020,19:56,METAR,Normal,170,10.0,,,9999.0,,23.7,15.5,30.05,1018.0,,,,,,,,,,,,,,,2/8 Mostly Clear,72000.0,5000.0,FEW,5000.0,,,,,,
KRDR,07-22-2020,18:56,METAR,Normal,150,12.0,17.0,,9999.0,,23.4,15.7,30.06,1018.4,,,,,,,,,,,,,,,2/8 Mostly Clear,72000.0,4000.0,FEW,4000.0,,,,,,
KRDR,07-22-2020,17:56,METAR,Normal,150,11.0,,,9999.0,,22.9,14.7,30.06,1018.4,,,,,,,,,,,,,,,Clear,72000.0,,,,,,,,,
KRDR,07-22-2020,16:56,METAR,Normal,160,10.0,,,9999.0,,21.8,13.9,30.08,1019.1,,,,,,,,,,,,,,,Clear,72000.0,,,,,,,,,
KRDR,07-22-2020,15:56,METAR,Normal,180,12.0,,,9999.0,,20.8,12.7,30.08,1019.1,,,,,,,,,,,,,,,Clear,72000.0,,,,,,,,,
KRDR,07-22-2020,14:56,METAR,Normal,160,6.0,,,9999.0,,18.8,14.3,30.07,1018.7,,,,,,,,,,,,,,,Clear,72000.0,,,,,,,,,
KRDR,07-22-2020,13:56,METAR,Normal,170,5.0,,,9999.0,,16.2,16.2,30.07,1018.7,,,,,,,,,,,,,,,Clear,72000.0,,,,,,,,,
KRDR,07-22-2020,12:56,METAR,Normal,200,5.0,,,9999.0,,14.2,14.2,30.07,1018.8,,,,,,,,,,,,,,,Clear,72000.0,,,,,,,,,
KRDR,07-22-2020,11:56,METAR,Normal,270,3.0,,,9999.0,,12.3,12.3,30.07,1018.8,,,,,,,,,,,,,,.01 IN,Clear,72000.0,,,,,,,,,
KRDR,07-22-2020,10:56,METAR,Normal,130,4.0,,,9999.0,,12.1,12.1,30.06,1018.5,,,,,,,,,,,,,,,Clear,72000.0,,,,,,,,,
KRDR,07-22-2020,10:15,SPECI,Calm,,0.0,,,6400.0,Mist,11.0,11.0,30.06,1018.6,,,,10,,,,,,,,,,,Clear,72000.0,,,,,,,,,
KRDR,07-22-2020,10:11,SPECI,Calm,,0.0,,,800.0,Fog,11.0,11.0,30.06,1018.6,30,,,,,,,,,,,,,,Clear,72000.0,,,,,,,,,
KRDR,07-22-2020,10:06,SPECI,Calm,,0.0,,,2600.0,Mist,11.0,11.0,30.06,1018.6,10,,,,,,,,,,,,,,Clear,72000.0,,,,,,,,,
KRDR,07-22-2020,09:56,METAR,Calm,,0.0,,,9999.0,,10.5,10.5,30.06,1018.6,,,,,,,,,,,,,,,Clear,72000.0,,,,,,,,,
KRDR,07-22-2020,08:56,METAR,Calm,,0.0,,,9999.0,,11.7,11.7,30.05,1018.2,,,,,,,,,,,,,,,Clear,72000.0,,,,,,,,,
KRDR,07-22-2020,07:56,METAR,Calm,,0.0,,,6400.0,Mist,11.4,11.4,30.04,1017.8,10,,,,,,,,,,,,,,Clear,72000.0,,,,,,,,,
KRDR,07-22-2020,06:56,METAR,Calm,,0.0,,,4800.0,Mist,11.4,11.4,30.03,1017.5,10,,,,,,,,,,,,,,Clear,72000.0,,,,,,,,,
KRDR,07-22-2020,05:56,METAR,Calm,,0.0,,,6400.0,Mist,11.5,11.5,30.03,1017.5,10,,,,,,,,,,,,,,Clear,72000.0,,,,,,,,,
KRDR,07-22-2020,04:56,METAR,Calm,,0.0,,,4800.0,Mist,13.3,13.3,30.03,1017.5,10,,,,,,,,,,,,,,Clear,72000.0,,,,,,,,,
KRDR,07-22-2020,04:36,SPECI,Calm,,0.0,,,3000.0,Mist,14.0,14.0,30.03,1017.5,10,,,,,,,,,,,,,,Clear,72000.0,,,,,,,,,
KRDR,07-22-2020,04:26,SPECI,Calm,,0.0,,,4800.0,Mist,13.0,13.0,30.03,1017.5,10,,,,,,,,,,,,,,Clear,72000.0,,,,,,,,,
KRDR,07-22-2020,04:16,SPECI,Calm,,0.0,,,3000.0,Mist,14.0,14.0,30.02,1017.1,10,,,,,,,,,,,,,,Clear,72000.0,,,,,,,,,
KRDR,07-22-2020,03:56,METAR,Calm,,0.0,,,9999.0,,14.1,14.1,30.02,1017.1,,,,,,,,,,,,,,,Clear,72000.0,,,,,,,,,
KRDR,07-22-2020,02:56,METAR,Calm,,0.0,,,9999.0,,16.6,15.3,30.01,1016.7,,,,,,,,,,,,,,,Clear,72000.0,,,,,,,,,
KRDR,07-22-2020,01:56,METAR,Calm,,0.0,,,9999.0,,19.2,15.3,29.99,1016.0,,,,,,,,,,,,,,,Clear,72000.0,,,,,,,,,
KRDR,07-22-2020,00:56,METAR,Normal,100,4.0,,,9999.0,,20.4,15.6,29.99,1016.0,,,,,,,,,,,,,,,Clear,72000.0,,,,,,,,,
KRDR,07-21-2020,23:56,METAR,Normal,130,4.0,,,9999.0,,20.4,16.6,30.00,1016.3,,,,,,,,,,,,,TRACE,,Clear,72000.0,,,,,,,,,
KRDR,07-21-2020,22:56,METAR,Normal,120,6.0,,,9999.0,,19.6,16.8,29.99,1016.0,,,,,,,,,,,TRACE,,,,,8000.0,8000.0,OVC,8000.0,,,,,,
KRDR,07-21-2020,22:23,SPECI,Normal,140,5.0,,,9999.0,,19.0,17.0,30.00,1016.4,,,,,,,,,,,,,,,,8000.0,4100.0,SCT,4100.0,SCT,7000.0,BKN,8000.0,,
KRDR,07-21-2020,22:09,SPECI,Normal,120,5.0,,,9999.0,Light Drizzle,20.0,17.0,30.00,1016.3,51,,,,,,,,,,,,,,,4200.0,2600.0,FEW,2600.0,BKN,4200.0,BKN,5000.0,,
KRDR,07-21-2020,21:56,METAR,Normal,130,9.0,,,9999.0,,19.8,17.0,30.01,1016.7,,,,,,,,,,,,,,,,3600.0,1100.0,FEW,1100.0,FEW,2600.0,BKN,3600.0,BKN,4900.0
KRDR,07-21-2020,21:51,SPECI,Normal,130,7.0,,,9999.0,,20.0,17.0,30.01,1016.7,,,,,,,,,,,,,,,,3600.0,1100.0,FEW,1100.0,FEW,2400.0,BKN,3600.0,BKN,4900.0
KRDR,07-21-2020,20:56,METAR,Normal,90,7.0,,,9999.0,,19.6,16.2,30.00,1016.3,,,,,,,,,,,,,,,,5000.0,3800.0,SCT,3800.0,OVC,5000.0,,,,
KRDR,07-21-2020,19:56,METAR,Normal,50,9.0,,,9999.0,,21.7,18.1,29.99,1015.9,,,,,,,,,,,,,,,,6000.0,1900.0,FEW,1900.0,BKN,6000.0,,,,
KRDR,07-21-2020,19:26,SPECI,Normal,50,8.0,,,9999.0,,21.0,17.0,29.99,1015.9,,,,,,,,,,,,,,,,6000.0,1800.0,SCT,1800.0,SCT,2600.0,OVC,6000.0,,
KRDR,07-21-2020,18:56,METAR,Normal,20,8.0,,,9999.0,,20.6,17.8,29.99,1015.9,,,,,,,,,,,,,,,,2500.0,1900.0,SCT,1900.0,BKN,2500.0,OVC,6000.0,,
KRDR,07-21-2020,18:46,SPECI,Normal,30,6.0,,,9999.0,,21.0,18.0,29.99,1015.9,,,,,,,,,,,,,,,,2700.0,1900.0,SCT,1900.0,BKN,2700.0,BKN,3500.0,OVC,6000.0
KRDR,07-21-2020,18:26,SPECI,Normal,40,5.0,,,9999.0,,21.0,18.0,29.99,1015.9,,,,,,,,,,,,,,,,1500.0,1500.0,BKN,1500.0,BKN,2100.0,BKN,2700.0,OVC,5500.0
KRDR,07-21-2020,18:16,SPECI,Normal,20,5.0,,,9999.0,,20.0,18.0,29.99,1016.0,,,,,,,,,,,,,,,,2000.0,1500.0,SCT,1500.0,BKN,2000.0,OVC,5500.0,,
KRDR,07-21-2020,17:56,METAR,Normal,50,4.0,,,9999.0,,19.6,17.9,29.99,1016.0,,,,,,,,,,,,,.01 IN,,,5500.0,1800.0,FEW,1800.0,OVC,5500.0,,,,
KRDR,07-21-2020,17:46,SPECI,Normal,20,5.0,,,9999.0,,20.0,18.0,29.99,1016.0,,,,,,,,,,,,,,,,5500.0,1300.0,SCT,1300.0,SCT,2000.0,OVC,5500.0,,
KRDR,07-21-2020,17:36,SPECI,Normal,10,5.0,,,9999.0,,20.0,18.0,29.99,1016.0,,,,,,,,,,,,,,,,1400.0,1400.0,BKN,1400.0,OVC,2000.0,,,,
KRDR,07-21-2020,17:26,SPECI,Normal,40,5.0,,,9999.0,,19.0,18.0,29.99,1016.0,,,,,,,,,,,,,,,,1200.0,1200.0,BKN,1200.0,OVC,2000.0,,,,
KRDR,07-21-2020,17:16,SPECI,Normal,40,7.0,,,9999.0,,19.0,19.0,29.99,1016.0,,,,,,,,,,,,,,,,1500.0,800.0,SCT,800.0,BKN,1500.0,OVC,2000.0,,
KRDR,07-21-2020,17:06,SPECI,Normal,30,6.0,,,9999.0,,19.0,19.0,29.99,1016.0,,,,,,,,,,,,,,,,1400.0,800.0,SCT,800.0,BKN,1400.0,OVC,2000.0,,
KRDR,07-21-2020,16:56,METAR,Normal,40,8.0,,,9999.0,,18.8,18.8,29.99,1016.0,,,,,,,,,,,,,,,,700.0,700.0,BKN,700.0,OVC,1400.0,,,,
KRDR,07-21-2020,16:06,SPECI,Normal,40,6.0,,,9999.0,,17.0,17.0,29.99,1016.1,,,,,,,,,,,,,,,,700.0,700.0,OVC,700.0,,,,,,
KRDR,07-21-2020,15:56,METAR,Normal,40,5.0,,,9999.0,,17.3,17.3,29.99,1016.1,,,,,,,,,,,,,,,,600.0,600.0,OVC,600.0,,,,,,
KRDR,07-21-2020,15:26,SPECI,Normal,30,5.0,,,9999.0,,17.0,17.0,29.99,1016.1,,,,,,,,,,,,,,,,600.0,600.0,OVC,600.0,,,,,,
KRDR,07-21-2020,15:16,SPECI,Normal,30,6.0,,,9999.0,,17.0,17.0,29.99,1016.1,,,,,,,,,,,,,,,,700.0,700.0,BKN,700.0,OVC,1100.0,,,,
KRDR,07-21-2020,15:06,SPECI,Normal,20,5.0,,,9999.0,,17.0,17.0,29.98,1015.7,,,,,,,,,,,,,,,,900.0,900.0,OVC,900.0,,,,,,
KRDR,07-21-2020,14:56,METAR,Normal,10,5.0,,,9999.0,,16.7,16.7,29.98,1015.7,,,,,,,,,,,,.01 IN,,,,700.0,700.0,BKN,700.0,OVC,1200.0,,,,
KRDR,07-21-2020,14:36,SPECI,Normal,360,5.0,,,9999.0,,16.0,16.0,29.99,1016.1,,,,,,,,,,,,,,,,700.0,700.0,BKN,700.0,OVC,1200.0,,,,
KRDR,07-21-2020,14:26,SPECI,Normal,10,6.0,,,9999.0,,16.0,16.0,29.99,1016.1,,,,,,,,,,,,,,,,1000.0,1000.0,OVC,1000.0,,,,,,
KRDR,07-21-2020,13:56,METAR,Normal,20,6.0,,,9999.0,,16.0,16.0,29.98,1015.7,,,,,,,,,,,TRACE,,,,,700.0,700.0,BKN,700.0,OVC,1200.0,,,,
KRDR,07-21-2020,13:48,SPECI,Normal,30,5.0,,,9999.0,,16.0,16.0,29.98,1015.7,,,,,,,,,,,,,,,,1200.0,700.0,SCT,700.0,OVC,1200.0,,,,
KRDR,07-21-2020,13:47,SPECI,Normal,20,5.0,,,9999.0,Light Drizzle,16.0,16.0,29.98,1015.7,51,,,,,,,,,,,,,,,1200.0,700.0,FEW,700.0,OVC,1200.0,,,,
KRDR,07-21-2020,13:46,SPECI,Normal,20,6.0,,,9999.0,Light Drizzle,16.0,16.0,29.98,1015.7,51,,,,,,,,,,,,,,,1200.0,1200.0,OVC,1200.0,,,,,,
KRDR,07-21-2020,13:26,SPECI,Normal,10,6.0,,,9999.0,Light Drizzle,16.0,16.0,29.98,1015.7,51,,,,,,,,,,,,,,,1300.0,500.0,FEW,500.0,OVC,1300.0,,,,
KRDR,07-21-2020,13:16,SPECI,Normal,10,6.0,,,9999.0,Light Drizzle,16.0,16.0,29.98,1015.7,51,,,,,,,,,,,,,,,1500.0,500.0,SCT,500.0,OVC,1500.0,,,,
KRDR,07-21-2020,13:06,SPECI,Normal,10,6.0,,,9999.0,Light Drizzle,16.0,16.0,29.98,1015.7,51,,,,,,,,,,,,,,,500.0,500.0,BKN,500.0,OVC,2400.0,,,,
KRDR,07-21-2020,12:52,SPECI,Normal,10,5.0,,,9999.0,Light Drizzle,15.0,15.0,29.98,1015.7,51,,,,,,,,,,,,,,,800.0,800.0,OVC,800.0,,,,,,
KRDR,07-21-2020,12:42,SPECI,Normal,10,6.0,,,9999.0,Light Rain,15.0,15.0,29.98,1015.7,61,,,,,,,,,,,,,,,1100.0,600.0,SCT,600.0,BKN,1100.0,BKN,1800.0,OVC,3200.0
KRDR,07-21-2020,12:32,SPECI,Normal,10,5.0,,,9999.0,Light Drizzle,15.0,15.0,29.98,1015.7,51,,,,,,,,,,,,,,,1800.0,1100.0,SCT,1100.0,BKN,1800.0,OVC,3000.0,,
KRDR,07-21-2020,11:56,METAR,Normal,10,5.0,,,6400.0,Light Rain/Mist,15.3,15.3,29.98,1015.7,61,10,,,,,,,,,.01 IN,,.07 IN,.35 IN,,2700.0,2200.0,SCT,2200.0,BKN,2700.0,BKN,3600.0,OVC,4500.0
KRDR,07-21-2020,11:18,SPECI,Normal,20,7.0,,,9999.0,Light Drizzle,16.0,16.0,29.97,1015.3,51,,,,,,,,,,,,,,,3600.0,3600.0,BKN,3600.0,OVC,4700.0,,,,
KRDR,07-21-2020,10:56,METAR,Normal,10,6.0,,,9999.0,,15.9,15.9,29.96,1014.9,,,,,,,,,,,,,,,,3900.0,3900.0,BKN,3900.0,OVC,4900.0,,,,
KRDR,07-21-2020,09:56,METAR,Normal,10,6.0,,,9999.0,,15.6,15.6,29.95,1014.6,,,,,,,,,,,.01 IN,,,,,3800.0,3000.0,SCT,3000.0,OVC,3800.0,,,,
KRDR,07-21-2020,08:59,SPECI,Normal,10,6.0,,,9999.0,,16.0,16.0,29.94,1014.2,,,,,,,,,,,,,,,,3800.0,3800.0,BKN,3800.0,OVC,6000.0,,,,
KRDR,07-21-2020,08:56,METAR,Normal,20,6.0,,,9999.0,Light Drizzle,15.6,15.6,29.94,1014.2,51,,,,,,,,,,.02 IN,.05 IN,,,,3800.0,3800.0,BKN,3800.0,OVC,6000.0,,,,
KRDR,07-21-2020,07:56,METAR,Normal,40,4.0,,,9999.0,Light Rain,15.9,15.9,29.95,1014.5,61,,,,,,,,,,TRACE,,,,,4400.0,4400.0,BKN,4400.0,OVC,5500.0,,,,
KRDR,07-21-2020,07:52,SPECI,Normal,40,3.0,,,9999.0,Light Drizzle,16.0,16.0,29.95,1014.5,51,,,,,,,,,,,,,,,4400.0,4400.0,BKN,4400.0,OVC,5500.0,,,,
KRDR,07-21-2020,07:18,SPECI,Normal,50,5.0,,,9999.0,,16.0,16.0,29.95,1014.5,,,,,,,,,,,,,,,,5000.0,4300.0,SCT,4300.0,BKN,5000.0,OVC,9600.0,,
KRDR,07-21-2020,06:56,METAR,Calm,,0.0,,,9999.0,Light Drizzle,16.1,16.1,29.95,1014.5,51,,,,,,,,,,.03 IN,,,,,4900.0,4900.0,BKN,4900.0,,,,,,
KRDR,07-21-2020,05:56,METAR,Calm,,0.0,,,9999.0,Light Rain,16.5,16.5,29.97,1015.2,61,,,,,,,,,,.04 IN,,.25 IN,,,6000.0,4500.0,SCT,4500.0,BKN,6000.0,,,,
KRDR,07-21-2020,04:56,METAR,Normal,300,4.0,,,9999.0,Light Rain,16.6,16.6,29.98,1015.5,61,,,,,,,,,,.05 IN,,,,,4300.0,4300.0,OVC,4300.0,,,,,,
KRDR,07-21-2020,04:37,SPECI,Calm,,0.0,,,9999.0,Light Rain,17.0,17.0,29.97,1015.2,61,,,,,,,,,,,,,,,4200.0,4200.0,OVC,4200.0,,,,,,
KRDR,07-21-2020,04:24,SPECI,Calm,,0.0,,,9999.0,,17.0,17.0,29.97,1015.2,,,,,,,,,,,,,,,,4200.0,4200.0,BKN,4200.0,BKN,6000.0,OVC,9100.0,,
KRDR,07-21-2020,03:56,METAR,Normal,150,3.0,,,9999.0,Light Rain,17.2,17.2,29.97,1015.2,61,,,,,,,,,,TRACE,,,,,6000.0,4500.0,SCT,4500.0,BKN,6000.0,OVC,7500.0,,
KRDR,07-21-2020,03:55,SPECI,Normal,150,3.0,,,9999.0,Light Rain,17.0,17.0,29.97,1015.2,61,,,,,,,,,,,,,,,6000.0,4500.0,SCT,4500.0,BKN,6000.0,OVC,7500.0,,
KRDR,07-21-2020,03:03,SPECI,Normal,80,5.0,,,9999.0,,17.0,17.0,29.97,1015.3,,,,,,,,,,,,,,,,6500.0,6500.0,OVC,6500.0,,,,,,
KRDR,07-21-2020,02:56,METAR,Normal,80,6.0,,,9999.0,Light Rain,17.2,17.2,29.97,1015.3,61,,,,,,,,,,.05 IN,.16 IN,,,,6000.0,6000.0,OVC,6000.0,,,,,,
KRDR,07-21-2020,01:56,METAR,Normal,120,3.0,,,9999.0,Light Rain,18.2,18.2,29.98,1015.6,61,,,,,,,,,,.05 IN,,,,,6500.0,4000.0,FEW,4000.0,SCT,5000.0,OVC,6500.0,,
KRDR,07-21-2020,00:58,SPECI,Normal,110,4.0,,,9999.0,Light Rain,19.0,19.0,29.97,1015.3,61,,,,,,,,,,,,,,,7500.0,7500.0,BKN,7500.0,BKN,9100.0,,,,
KRDR,07-21-2020,00:56,METAR,Normal,100,5.0,,,9999.0,,18.9,18.7,29.97,1015.3,,,,,,,,,,,.06 IN,,,,,7500.0,7500.0,BKN,7500.0,BKN,10000.0,,,,
KRDR,07-21-2020,00:55,SPECI,Normal,100,5.0,,,9999.0,,19.0,19.0,29.97,1015.3,,,,,,,,,,,,,,,,7500.0,7500.0,BKN,7500.0,BKN,10000.0,,,,
KRDR,07-20-2020,23:56,METAR,Normal,80,4.0,,,9999.0,Light Rain,19.6,18.4,29.97,1015.4,61,,,,,,,,,,.05 IN,,.09 IN,,,4100.0,4100.0,OVC,4100.0,,,,,,
KRDR,07-20-2020,23:16,SPECI,Normal,70,4.0,,,9999.0,Light Rain,21.0,18.0,29.97,1015.4,61,,,,,,,,,,,,,,,10000.0,900.0,FEW,900.0,FEW,6000.0,FEW,8000.0,BKN,10000.0
KRDR,07-20-2020,23:12,SPECI,Normal,60,5.0,,,9999.0,Light Rain,21.0,18.0,29.97,1015.4,61,,,,,,,,,,,,,,,10000.0,6000.0,FEW,6000.0,FEW,8000.0,BKN,10000.0,,
KRDR,07-20-2020,23:07,SPECI,Normal,70,5.0,,,9999.0,,21.0,18.0,29.97,1015.4,,,,,,,,,,,,,,,,10000.0,8000.0,FEW,8000.0,BKN,10000.0,,,,
KRDR,07-20-2020,22:58,SPECI,Normal,80,6.0,,,9999.0,Light Drizzle,21.0,19.0,29.97,1015.4,51,,,,,,,,,,,,,,,10000.0,2600.0,FEW,2600.0,BKN,10000.0,,,,
KRDR,07-20-2020,22:56,METAR,Normal,90,5.0,,,9999.0,,21.4,18.6,29.97,1015.4,,,,,,,,,,,TRACE,,,,,10000.0,3000.0,FEW,3000.0,BKN,10000.0,,,,
KRDR,07-20-2020,22:44,SPECI,Normal,70,5.0,,,9999.0,,22.0,19.0,29.97,1015.4,,,,,,,,,,,,,,,,3800.0,3800.0,BKN,3800.0,,,,,,
KRDR,07-20-2020,22:05,SPECI,Normal,140,6.0,,,9999.0,Light Drizzle,22.0,16.0,29.98,1015.7,51,,,,,,,,,,,,,,4/8 Partly Cloudy,72000.0,2700.0,FEW,2700.0,SCT,9100.0,,,,
KRDR,07-20-2020,22:03,SPECI,Normal,130,6.0,,,9999.0,,22.0,16.0,29.98,1015.7,,,,,,,,,,,,,,,4/8 Partly Cloudy,72000.0,2700.0,SCT,2700.0,SCT,9100.0,,,,
KRDR,07-20-2020,21:56,METAR,Normal,140,6.0,,,9999.0,Light Rain,22.4,16.9,29.98,1015.7,61,,,,,,,,,,TRACE,,,,4/8 Partly Cloudy,72000.0,4000.0,FEW,4000.0,SCT,9100.0,SCT,12000.0,,
KRDR,07-20-2020,21:47,SPECI,Normal,150,5.0,,,9999.0,Light Drizzle,23.0,16.0,29.98,1015.7,51,,,,,,,,,,,,,,4/8 Partly Cloudy,72000.0,9500.0,FEW,9600.0,SCT,12000.0,,,,
KRDR,07-20-2020,20:56,METAR,Normal,150,4.0,,,9999.0,,23.5,15.8,29.99,1016.0,,,,,,,,,,,,,,,,19000.0,14000.0,FEW,14000.0,SCT,16000.0,BKN,19000.0,,
KRDR,07-20-2020,19:56,METAR,Normal,160,4.0,,,9999.0,,23.7,15.7,30.00,1016.3,,,,,,,,,,,,,,,,16000.0,4300.0,FEW,4300.0,FEW,13000.0,BKN,16000.0,BKN,19000.0
KRDR,07-20-2020,18:56,METAR,Normal,140,5.0,,,9999.0,,24.2,15.9,30.01,1016.6,,,,,,,,,,,,,,,,20000.0,4400.0,FEW,4400.0,FEW,12000.0,FEW,17000.0,BKN,20000.0
KRDR,07-20-2020,17:56,METAR,Normal,180,5.0,,,9999.0,,23.6,15.9,30.03,1017.3,,,,,,,,,,,,,,,,6000.0,6000.0,BKN,6000.0,OVC,12000.0,,,,
KRDR,07-20-2020,16:56,METAR,Normal,110,4.0,,,9999.0,,23.4,15.2,30.03,1017.3,,,,,,,,,,,,,,,2/8 Mostly Clear,72000.0,16000.0,FEW,16000.0,FEW,20000.0,,,,
KRDR,07-20-2020,15:56,METAR,Calm,,0.0,,,9999.0,,22.6,13.6,30.03,1017.3,,,,,,,,,,,,,,,Clear,72000.0,,,,,,,,,
KRDR,07-20-2020,14:56,METAR,Normal,120,3.0,,,9999.0,,21.2,14.8,30.03,1017.3,,,,,,,,,,,,,,,Clear,72000.0,,,,,,,,,
KRDR,07-20-2020,13:56,METAR,Calm,,0.0,,,9999.0,,19.5,15.5,30.03,1017.2,,,,,,,,,,,,,,,Clear,72000.0,,,,,,,,,
KRDR,07-20-2020,12:56,METAR,Calm,,0.0,,,9999.0,,16.9,16.9,30.02,1017.0,,,,,,,,,,,,,,,Clear,72000.0,,,,,,,,,
KRDR,07-20-2020,12:32,SPECI,Calm,,0.0,,,9999.0,,16.0,16.0,30.02,1017.0,,,,,,,,,,,,,,,Clear,72000.0,,,,,,,,,
KRDR,07-20-2020,11:17,SPECI,Calm,,0.0,,,9999.0,Mist,11.0,11.0,30.01,1016.7,10,,,,,,,,,,,,,,Clear,72000.0,,,,,,,,,
KRDR,07-20-2020,11:16,SPECI,Calm,,0.0,,,3600.0,Mist,11.0,11.0,30.01,1016.7,10,,,,,,,,,,,,,,Clear,72000.0,,,,,,,,,
KRDR,07-20-2020,11:06,SPECI,Calm,,0.0,,,2400.0,Mist,11.0,11.0,30.01,1016.7,10,,,,,,,,,,,,,,Clear,72000.0,,,,,,,,,
KRDR,07-20-2020,10:56,METAR,Calm,,0.0,,,9999.0,Mist,11.0,11.0,30.01,1016.7,10,,,,,,,,,,,,,,Clear,72000.0,,,,,,,,,
KRDR,07-20-2020,10:51,SPECI,Calm,,0.0,,,4800.0,Mist,11.0,11.0,30.01,1016.7,10,,,,,,,,,,,,,,Clear,72000.0,,,,,,,,,
KRDR,07-20-2020,10:41,SPECI,Calm,,0.0,,,1000.0,Mist,11.0,11.0,30.00,1016.4,10,,,,,,,,,,,,,,Clear,72000.0,,,,,,,,,
KRDR,07-20-2020,10:36,SPECI,Calm,,0.0,,,1800.0,Mist,12.0,12.0,30.00,1016.3,10,,,,,,,,,,,,,,Clear,72000.0,,,,,,,,,
KRDR,07-20-2020,09:56,METAR,Calm,,0.0,,,9999.0,,12.5,12.5,30.00,1016.3,,,,,,,,,,,,,,,Clear,72000.0,,,,,,,,,
KRDR,07-20-2020,08:56,METAR,Normal,230,4.0,,,9999.0,,12.4,12.4,30.00,1016.3,,,,,,,,,,,,,,,Clear,72000.0,,,,,,,,,
KRDR,07-20-2020,07:56,METAR,Normal,310,3.0,,,9999.0,,12.7,12.7,29.99,1015.9,,,,,,,,,,,,,,,Clear,72000.0,,,,,,,,,
KRDR,07-20-2020,06:56,METAR,Normal,270,3.0,,,9999.0,,13.1,13.1,29.99,1016.1,,,,,,,,,,,,,,,Clear,72000.0,,,,,,,,,
KRDR,07-20-2020,05:56,METAR,Normal,320,3.0,,,9999.0,,13.8,13.8,29.98,1015.6,,,,,,,,,,,,,,,Clear,72000.0,,,,,,,,,
KRDR,07-20-2020,04:56,METAR,Calm,,0.0,,,9999.0,,14.8,14.8,29.98,1015.6,,,,,,,,,,,,,,,Clear,72000.0,,,,,,,,,
KRDR,07-20-2020,03:56,METAR,Calm,,0.0,,,9999.0,,15.0,15.0,29.97,1015.3,,,,,,,,,,,,,,,Clear,72000.0,,,,,,,,,
KRDR,07-20-2020,02:56,METAR,Calm,,0.0,,,9999.0,,17.3,15.3,29.96,1014.9,,,,,,,,,,,,,,,Clear,72000.0,,,,,,,,,
KRDR,07-20-2020,01:56,METAR,Normal,60,4.0,,,9999.0,,20.7,15.2,29.94,1014.1,,,,,,,,,,,,,,,4/8 Partly Cloudy,72000.0,4700.0,SCT,4700.0,,,,,,
KRDR,07-20-2020,00:56,METAR,Normal,20,6.0,,,9999.0,,21.9,16.8,29.93,1013.8,,,,,,,,,,,,,,,4/8 Partly Cloudy,72000.0,6000.0,SCT,6000.0,,,,,,
KRDR,07-19-2020,23:56,METAR,Normal,10,6.0,,,9999.0,,23.0,17.0,29.93,1013.8,,,,,,,,,,,,,,,Clear,72000.0,,,,,,,,,
KRDR,07-19-2020,22:56,METAR,Normal,20,10.0,,,9999.0,,22.2,17.1,29.92,1013.5,,,,,,,,,,,,,,,2/8 Mostly Clear,72000.0,3400.0,FEW,3400.0,FEW,7500.0,FEW,20000.0,,
KRDR,07-19-2020,21:56,METAR,Normal,10,11.0,14.0,,9999.0,,23.6,17.8,29.92,1013.4,,,,,,,,,,,,,,,Clear,72000.0,,,,,,,,,
KRDR,07-19-2020,20:56,METAR,Normal,360,12.0,,,9999.0,,23.5,17.2,29.91,1013.1,,,,,,,,,,,,,,,2/8 Mostly Clear,72000.0,3600.0,FEW,3600.0,,,,,,
KRDR,07-19-2020,20:43,SPECI,Normal,20,10.0,,,9999.0,,23.0,17.0,29.91,1013.1,,,,,,,,,,,,,,,2/8 Mostly Clear,72000.0,3600.0,FEW,3600.0,,,,,,
KRDR,07-19-2020,19:56,METAR,Normal,360,15.0,20.0,,9999.0,,24.0,16.7,29.90,1012.7,,,,,,,,,,,,,,,4/8 Partly Cloudy,72000.0,3400.0,FEW,3400.0,SCT,7500.0,,,,
KRDR,07-19-2020,18:56,METAR,Normal,360,11.0,,,9999.0,,21.8,16.5,29.91,1013.1,,,,,,,,,,,,,,,,4500.0,3500.0,SCT,3500.0,BKN,4500.0,OVC,6500.0,,
KRDR,07-19-2020,17:56,METAR,Normal,340,16.0,24.0,,9999.0,,23.2,16.0,29.89,1012.4,,,,,,,,,,,,,,,2/8 Mostly Clear,72000.0,3700.0,FEW,3700.0,,,,,,
KRDR,07-19-2020,16:56,METAR,Normal,320,13.0,21.0,,9999.0,,22.9,15.7,29.87,1011.7,,,,,,,,,,,,,,,2/8 Mostly Clear,72000.0,3800.0,FEW,3800.0,,,,,,
KRDR,07-19-2020,15:56,METAR,Normal,310,15.0,,,9999.0,,22.2,15.5,29.85,1011.1,,,,,,,,,,,,,,,Clear,72000.0,,,,,,,,,
KRDR,07-19-2020,14:56,METAR,Normal,320,12.0,20.0,,9999.0,,20.8,15.3,29.85,1011.1,,,,,,,,,,,,,,,Clear,72000.0,,,,,,,,,
KRDR,07-19-2020,13:56,METAR,Normal,310,14.0,19.0,,9999.0,,20.1,15.5,29.83,1010.4,,,,,,,,,,,,,,,Clear,72000.0,,,,,,,,,
KRDR,07-19-2020,12:56,METAR,Normal,300,13.0,20.0,,9999.0,,19.0,15.3,29.82,1010.0,,,,,,,,,,,,,,,Clear,72000.0,,,,,,,,,
KRDR,07-19-2020,11:56,METAR,Normal,280,11.0,,,9999.0,,17.6,15.2,29.79,1009.0,,,,,,,,,,,,,,,Clear,72000.0,,,,,,,,,
KRDR,07-19-2020,10:56,METAR,Normal,280,12.0,,,9999.0,,16.9,15.4,29.77,1008.3,,,,,,,,,,,,,,,Clear,72000.0,,,,,,,,,
KRDR,07-19-2020,09:56,METAR,Normal,290,8.0,,,9999.0,,17.4,15.0,29.77,1008.4,,,,,,,,,,,,,,,Clear,72000.0,,,,,,,,,
KRDR,07-19-2020,08:56,METAR,Normal,280,9.0,,,9999.0,,17.7,15.9,29.76,1007.9,,,,,,,,,,,,,,,Clear,72000.0,,,,,,,,,
KRDR,07-19-2020,07:56,METAR,Normal,290,9.0,,,9999.0,,17.7,16.7,29.77,1008.3,,,,,,,,,,,,,,,Clear,72000.0,,,,,,,,,
KRDR,07-19-2020,06:56,METAR,Normal,280,8.0,,,9999.0,,17.7,16.2,29.77,1008.3,,,,,,,,,,,,,,,Clear,72000.0,,,,,,,,,
KRDR,07-19-2020,05:56,METAR,Normal,290,10.0,,,9999.0,,18.2,16.2,29.77,1008.3,,,,,,,,,,,,,,,Clear,72000.0,,,,,,,,,
KRDR,07-19-2020,04:56,METAR,Normal,280,8.0,,,9999.0,,18.3,17.5,29.77,1008.3,,,,,,,,,,,,,,,Clear,72000.0,,,,,,,,,
KRDR,07-19-2020,03:56,METAR,Normal,300,6.0,,,9999.0,,17.7,17.7,29.77,1008.3,,,,,,,,,,,,,,,Clear,72000.0,,,,,,,,,
KRDR,07-19-2020,02:56,METAR,Normal,290,5.0,,,9999.0,,18.6,17.3,29.77,1008.3,,,,,,,,,,,,,,,Clear,72000.0,,,,,,,,,
KRDR,07-19-2020,01:56,METAR,Normal,300,10.0,,,9999.0,,20.6,17.0,29.76,1007.9,,,,,,,,,,,,,,,Clear,72000.0,,,,,,,,,
KRDR,07-19-2020,00:56,METAR,Normal,290,14.0,21.0,,9999.0,,23.2,17.6,29.76,1007.9,,,,,,,,,,,,,,,Clear,72000.0,,,,,,,,,
KRDR,07-18-2020,23:56,METAR,Normal,280,13.0,,,9999.0,,24.3,18.0,29.75,1007.6,,,,,,,,,,,,,TRACE,,,4100.0,4100.0,BKN,4100.0,BKN,5000.0,,,,
KRDR,07-18-2020,22:56,METAR,Normal,290,9.0,,,9999.0,,24.9,17.6,29.77,1008.3,,,,,,,,,,,,,,,Clear,72000.0,,,,,,,,,
KRDR,07-18-2020,21:56,METAR,Normal,300,12.0,,,9999.0,,23.9,18.3,29.77,1008.4,,,,,,,,,,,,,,,,12000.0,12000.0,BKN,12000.0,BKN,15000.0,,,,
KRDR,07-18-2020,20:56,METAR,Normal,320,9.0,,,9999.0,,25.6,19.2,29.76,1007.9,,,,,,,,,,,TRACE,TRACE,,,2/8 Mostly Clear,72000.0,4100.0,FEW,4100.0,,,,,,
KRDR,07-18-2020,20:00,SPECI,Normal,290,7.0,,,9999.0,,25.0,17.0,29.77,1008.3,,,,,,,,,,,,,,,4/8 Partly Cloudy,72000.0,13000.0,FEW,13000.0,FEW,17000.0,SCT,19000.0,,
KRDR,07-18-2020,19:56,METAR,Normal,290,11.0,,,9999.0,Light Rain,24.5,17.9,29.77,1008.3,61,,,,,,,,,,TRACE,,,,4/8 Partly Cloudy,72000.0,12000.0,FEW,12000.0,SCT,17000.0,SCT,19000.0,,
KRDR,07-18-2020,19:50,SPECI,Normal,290,7.0,,,9999.0,Light Rain,25.0,18.0,29.78,1008.7,61,,,,,,,,,,,,,,4/8 Partly Cloudy,72000.0,13000.0,FEW,13000.0,SCT,17000.0,SCT,19000.0,,
KRDR,07-18-2020,18:56,METAR,Normal,300,11.0,,,9999.0,,26.7,19.0,29.77,1008.2,,,,,,,,,,,,,,,2/8 Mostly Clear,72000.0,12000.0,FEW,12000.0,FEW,19000.0,,,,
KRDR,07-18-2020,17:56,METAR,Normal,330,8.0,,,9999.0,,26.4,18.5,29.76,1007.9,,,,,,,,,,,,,,,4/8 Partly Cloudy,72000.0,14000.0,SCT,14000.0,,,,,,
KRDR,07-18-2020,16:56,METAR,Normal,350,10.0,,,9999.0,,26.2,19.3,29.75,1007.5,,,,,,,,,,,,,,,2/8 Mostly Clear,72000.0,18000.0,FEW,18000.0,,,,,,
KRDR,07-18-2020,15:56,METAR,Normal,330,9.0,,,9999.0,,25.3,20.7,29.74,1007.2,,,,,,,,,,,,,,,Clear,72000.0,,,,,,,,,
KRDR,07-18-2020,14:56,METAR,Normal,320,6.0,,,9999.0,,23.9,21.2,29.73,1007.0,,,,,,,,,,,,,,,2/8 Mostly Clear,72000.0,20000.0,FEW,20000.0,,,,,,
KRDR,07-18-2020,13:56,METAR,Normal,300,10.0,,,9999.0,,22.2,20.5,29.74,1007.4,,,,,,,,,,,,,,,Clear,72000.0,,,,,,,,,
KRDR,07-18-2020,12:56,METAR,Normal,240,6.0,,,9999.0,,20.1,20.1,29.74,1007.4,,,,,,,,,,,,,,,Clear,72000.0,,,,,,,,,
KRDR,07-18-2020,11:56,METAR,Normal,160,5.0,,,9999.0,,17.7,17.7,29.72,1006.8,,,,,,,,,,,,,,1.04 IN,4/8 Partly Cloudy,72000.0,23000.0,SCT,23000.0,,,,,,
KRDR,07-18-2020,10:56,METAR,Calm,,0.0,,,9999.0,,17.2,17.2,29.73,1007.2,,,,,,,,,,,,,,,2/8 Mostly Clear,72000.0,21000.0,FEW,21000.0,,,,,,
KRDR,07-18-2020,09:56,METAR,Normal,280,6.0,,,9999.0,,16.7,16.7,29.72,1006.7,,,,,,,,,,,,,,,2/8 Mostly Clear,72000.0,22000.0,FEW,22000.0,,,,,,
KRDR,07-18-2020,08:56,METAR,Normal,250,6.0,,,9999.0,,17.1,17.1,29.73,1006.8,,,,,,,,,,,,,,,Clear,72000.0,,,,,,,,,
KRDR,07-18-2020,07:56,METAR,Normal,250,5.0,,,9999.0,,17.7,17.7,29.69,1005.3,,,,,,,,,,,,,,,Clear,72000.0,,,,,,,,,
KRDR,07-18-2020,06:56,METAR,Normal,270,5.0,,,9999.0,,18.2,18.2,29.70,1005.7,,,,,,,,,,,,,,,Clear,72000.0,,,,,,,,,
KRDR,07-18-2020,05:56,METAR,Normal,230,11.0,,,9999.0,,19.2,19.2,29.72,1006.4,,,,,,,,,,,,,.3 IN,,Clear,72000.0,,,,,,,,,
KRDR,07-18-2020,04:56,METAR,Normal,230,10.0,21.0,160/35KTS,9999.0,,19.2,19.0,29.71,1006.1,,,,,,,,,,,TRACE,,,,Clear,72000.0,,,,,,,,,
KRDR,07-18-2020,04:45,SPECI,Normal,210,10.0,23.0,,9999.0,,19.0,19.0,29.67,1004.8,,,,,,,,,,,,,,,Clear,72000.0,,,,,,,,,
KRDR,07-18-2020,04:09,SPECI,Normal,160,24.0,29.0,,9999.0,,19.0,19.0,29.60,1002.4,,,,,,,,,,,,,,,2/8 Mostly Clear,72000.0,12000.0,FEW,12000.0,,,,,,
KRDR,07-18-2020,03:56,METAR,Normal,150,24.0,29.0,140/32KTS,9999.0,Light Drizzle,18.4,18.4,29.65,1004.1,51,,,,,,,,,,.03 IN,,,,2/8 Mostly Clear,72000.0,12000.0,FEW,12000.0,,,,,,
KRDR,07-18-2020,02:58,SPECI,Normal,140,18.0,25.0,,9999.0,Light Rain,18.0,18.0,29.75,1007.6,61,,,,,,,,,,,,,,,5500.0,5500.0,OVC,5500.0,,,,,,
KRDR,07-18-2020,02:56,METAR,Normal,150,18.0,25.0,140/26KTS,9999.0,,18.1,18.1,29.76,1007.9,,,,,,,,,,,.14 IN,.27 IN,,,,5500.0,5500.0,OVC,5500.0,,,,,,
KRDR,07-18-2020,02:38,SPECI,Normal,150,18.0,,,9999.0,,18.0,18.0,29.79,1009.0,,,,,,,,,,,,,,,,8000.0,8000.0,OVC,8000.0,,,,,,
KRDR,07-18-2020,02:34,SPECI,Normal,150,15.0,,,9999.0,Light Rain,18.0,18.0,29.80,1009.3,61,,,,,,,,,,,,,,,8000.0,8000.0,OVC,8000.0,,,,,,
KRDR,07-18-2020,01:56,METAR,Normal,260,4.0,,,9999.0,Thunderstorm and Rain or Snow Showers,18.6,18.6,29.87,1011.7,92,,,,,,,,,,.04 IN,,,,,8000.0,8000.0,BKN,8000.0,OVC,11000.0,,,,
KRDR,07-18-2020,01:53,SPECI,Normal,250,4.0,,,9999.0,Thunderstorm and Rain or Snow Showers,19.0,19.0,29.87,1011.7,92,,,,,,,,,,,,,,,8000.0,8000.0,BKN,8000.0,OVC,11000.0,,,,
KRDR,07-18-2020,01:18,SPECI,Normal,150,6.0,,,9999.0,Light Rain,19.0,19.0,29.81,1009.7,61,,,,,,,,,,,,,,4/8 Partly Cloudy,72000.0,7500.0,FEW,7500.0,SCT,9600.0,,,,
KRDR,07-18-2020,00:57,SPECI,Normal,130,12.0,,,9999.0,Distant Lightning,19.0,19.0,29.78,1008.7,12,,,,,,,,,,,,,,4/8 Partly Cloudy,72000.0,5000.0,FEW,5000.0,SCT,9600.0,,,,
KRDR,07-18-2020,00:56,METAR,Normal,120,12.0,18.0,110/26KTS,9999.0,Light Drizzle/Distant Lightning,18.5,18.5,29.77,1008.4,51,12,,,,,,,,,.09 IN,,,,4/8 Partly Cloudy,72000.0,5500.0,FEW,5500.0,SCT,9100.0,SCT,11000.0,,
KRDR,07-18-2020,00:48,SPECI,Normal,100,12.0,18.0,,9999.0,Light Drizzle,18.0,18.0,29.77,1008.4,51,,,,,,,,,,,,,,,9000.0,3400.0,FEW,3400.0,SCT,6000.0,BKN,9100.0,BKN,11000.0
KRDR,07-18-2020,00:43,SPECI,Normal,80,10.0,23.0,,9999.0,,18.0,18.0,29.78,1008.8,,,,,,,,,,,,,,,,9000.0,6500.0,SCT,6500.0,BKN,9100.0,OVC,11000.0,,
KRDR,07-18-2020,00:36,SPECI,Normal,70,11.0,26.0,,9999.0,Light Rain,18.0,18.0,29.74,1007.5,61,,,,,,,,,,,,,,,6500.0,6500.0,BKN,6500.0,BKN,8000.0,OVC,9600.0,,
KRDR,07-18-2020,00:32,SPECI,Normal,110,21.0,26.0,,9999.0,Light Rain,18.0,18.0,29.69,1005.8,61,,,,,,,,,,,,,,,6000.0,6000.0,OVC,6000.0,,,,,,
KRDR,07-18-2020,00:06,SPECI,Normal,80,20.0,23.0,,4800.0,Thunderstorm and Rain or Snow Showers/Mist,18.0,18.0,29.74,1007.5,92,10,,,,,,,,,,,,,,6000.0,6000.0,OVC,6000.0,,,,,,
KRDR,07-17-2020,23:56,METAR,Normal,110,15.0,,,4800.0,Thunderstorm and Rain or Snow Showers/Mist,17.7,17.7,29.80,1009.5,92,10,,,,,,,,,.28 IN,,.74 IN,,,6500.0,6500.0,OVC,6500.0,,,,,,
KRDR,07-17-2020,23:48,SPECI,Normal,100,16.0,,,9999.0,Thunderstorm and Rain or Snow Showers/Mist,18.0,18.0,29.80,1009.6,92,10,,,,,,,,,,,,,,7000.0,5500.0,FEW,5500.0,OVC,7000.0,,,,
KRDR,07-17-2020,23:27,SPECI,Normal,50,7.0,,,8000.0,Thunderstorm and Rain or Snow Showers/Mist,18.0,18.0,29.84,1011.0,92,10,,,,,,,,,,,,,,6000.0,6000.0,OVC,6000.0,,,,,,
KRDR,07-17-2020,23:17,SPECI,Normal,60,8.0,,,3200.0,Heavy Thunderstorm and Rain or Snow Showers/Mist,18.0,18.0,29.83,1010.7,95,10,,,,,,,,,,,,,,6000.0,6000.0,BKN,6000.0,OVC,9100.0,,,,
KRDR,07-17-2020,23:10,SPECI,Normal,200,9.0,,,9999.0,Thunderstorm with Rain or Snow,18.0,18.0,29.87,1012.0,,,,95,,,,,,,,,,,,6500.0,6500.0,BKN,6500.0,OVC,9100.0,,,,
KRDR,07-17-2020,22:56,METAR,Normal,30,3.0,,340/43KTS,9999.0,Thunderstorm and Rain or Snow Showers,17.6,17.6,29.82,1010.3,92,,,,,,,,,,.46 IN,,,,,4500.0,4500.0,BKN,4500.0,,,,,,
KRDR,07-17-2020,22:30,SPECI,Normal,50,13.0,29.0,,9999.0,Thunderstorm and Rain or Snow Showers,18.0,18.0,29.80,1009.6,92,,,,,,,,,,,,,,,3400.0,3400.0,BKN,3400.0,,,,,,
KRDR,07-17-2020,22:26,SPECI,Normal,30,18.0,30.0,,9999.0,Thunderstorm and Rain or Snow Showers/Mist,18.0,18.0,29.80,1009.6,92,10,,,,,,,,,,,,,,3300.0,3300.0,OVC,3300.0,,,,,,
KRDR,07-17-2020,22:22,SPECI,Normal,20,17.0,31.0,,4000.0,Heavy Thunderstorm and Rain or Snow Showers/Mist,18.0,18.0,29.82,1010.3,95,10,,,,,,,,,,,,,,3300.0,3300.0,OVC,3300.0,,,,,,
KRDR,07-17-2020,22:20,SPECI,Normal,20,22.0,35.0,,1200.0,Heavy Thunderstorm and Rain or Snow Showers/Mist,18.0,18.0,29.81,1010.0,95,10,,,,,,,,,,,,,,3100.0,3100.0,OVC,3100.0,,,,,,
KRDR,07-17-2020,22:12,SPECI,Normal,360,25.0,35.0,,800.0,Heavy Thunderstorm and Rain or Snow Showers/Mist,18.0,18.0,29.85,1011.3,95,10,,,,,,,,,,,,,,2800.0,2800.0,BKN,2800.0,BKN,4500.0,OVC,5500.0,,
KRDR,07-17-2020,22:08,SPECI,Normal,350,22.0,28.0,,,Heavy Thunderstorm with Rain or Snow/Heavy Rain/Mist,18.0,18.0,29.86,1011.7,,,,97,65,10,,,,,,,,,,,,,,,,,,,
KRDR,07-17-2020,22:01,SPECI,Variable,30,8.0,31.0,,3200.0,Heavy Thunderstorm and Rain or Snow Showers,19.0,18.0,29.85,1011.3,95,,,,,,,,,,,,,,,4300.0,2800.0,SCT,2800.0,BKN,4300.0,OVC,5000.0,,
KRDR,07-17-2020,22:00,SPECI,Normal,40,8.0,31.0,,9999.0,Heavy Thunderstorm and Rain or Snow Showers,20.0,18.0,29.86,1011.6,95,,,,,,,,,,,,,,,5000.0,2800.0,SCT,2800.0,SCT,4300.0,BKN,5000.0,BKN,15000.0
KRDR,07-17-2020,21:59,SPECI,Normal,20,10.0,31.0,,9999.0,Light Rain/Distant Lightning,21.0,17.0,29.87,1011.9,61,12,,,,,,,,,,,,,,5000.0,2800.0,SCT,2800.0,SCT,4300.0,BKN,5000.0,BKN,15000.0
KRDR,07-17-2020,21:57,SPECI,Normal,10,14.0,31.0,,9999.0,Thunderstorm and Rain or Snow Showers,21.0,17.0,29.87,1011.9,92,,,,,,,,,,,,,,,5000.0,3200.0,FEW,3200.0,SCT,4300.0,OVC,5000.0,,
KRDR,07-17-2020,21:56,METAR,Normal,10,16.0,36.0,340/51KTS,9999.0,Light Rain/Distant Lightning,21.8,17.2,29.88,1012.2,61,12,,,,,,,,,TRACE,,,,,5000.0,3400.0,FEW,3400.0,SCT,4300.0,BKN,5000.0,BKN,15000.0
KRDR,07-17-2020,21:53,SPECI,Normal,360,21.0,46.0,,9999.0,Light Drizzle/Distant Lightning,23.0,17.0,29.86,1011.5,51,12,,,,,,,,,,,,,,5000.0,4300.0,FEW,4300.0,BKN,5000.0,BKN,15000.0,,
KRDR,07-17-2020,21:45,SPECI,Normal,360,33.0,46.0,,9999.0,Squalls,29.0,22.0,,,18,,,,,,,,,,,,,,4/8 Partly Cloudy,72000.0,4700.0,FEW,4700.0,SCT,15000.0,SCT,20000.0,,
KRDR,07-17-2020,20:56,METAR,Normal,190,13.0,,180/27KTS,9999.0,,30.2,22.3,29.73,1006.8,,,,,,,,,,,,,,,4/8 Partly Cloudy,72000.0,5500.0,FEW,5500.0,SCT,22000.0,,,,
KRDR,07-17-2020,19:56,METAR,Normal,180,19.0,26.0,190/28KTS,9999.0,,33.2,22.9,29.73,1006.8,,,,,,,,,,,,,,,4/8 Partly Cloudy,72000.0,14000.0,FEW,14000.0,FEW,18000.0,SCT,21000.0,,
KRDR,07-17-2020,18:56,METAR,Normal,170,15.0,25.0,,9999.0,,31.8,20.4,29.78,1008.5,,,,,,,,,,,,,,,Clear,72000.0,,,,,,,,,
KRDR,07-17-2020,17:56,METAR,Normal,170,16.0,,,9999.0,,30.7,16.3,29.83,1010.3,,,,,,,,,,,,,,,Clear,72000.0,,,,,,,,,
KRDR,07-17-2020,16:56,METAR,Normal,190,14.0,,,9999.0,,28.9,17.1,29.87,1011.7,,,,,,,,,,,,,,,Clear,72000.0,,,,,,,,,
KRDR,07-17-2020,15:56,METAR,Normal,180,13.0,,,9999.0,,27.4,17.2,29.87,1011.7,,,,,,,,,,,,,,,Clear,72000.0,,,,,,,,,
KRDR,07-17-2020,14:56,METAR,Normal,170,10.0,,,9999.0,,25.3,17.5,29.89,1012.4,,,,,,,,,,,,,,,Clear,72000.0,,,,,,,,,
KRDR,07-17-2020,13:56,METAR,Normal,180,9.0,,,9999.0,,22.8,16.8,29.90,1012.6,,,,,,,,,,,,,,,Clear,72000.0,,,,,,,,,
KRDR,07-17-2020,12:56,METAR,Normal,170,5.0,,,9999.0,,19.9,16.5,29.91,1013.0,,,,,,,,,,,,,,,Clear,72000.0,,,,,,,,,
KRDR,07-17-2020,11:56,METAR,Normal,150,5.0,,,9999.0,,17.1,15.1,29.91,1013.0,,,,,,,,,,,,,,,Clear,72000.0,,,,,,,,,
KRDR,07-17-2020,10:56,METAR,Normal,240,4.0,,,9999.0,,14.0,13.5,29.92,1013.4,,,,,,,,,,,,,,,Clear,72000.0,,,,,,,,,
KRDR,07-17-2020,09:56,METAR,Normal,230,5.0,,,9999.0,,14.2,13.7,29.91,1013.1,,,,,,,,,,,,,,,Clear,72000.0,,,,,,,,,
KRDR,07-17-2020,08:56,METAR,Normal,220,4.0,,,9999.0,,15.0,14.4,29.93,1013.8,,,,,,,,,,,,,,,Clear,72000.0,,,,,,,,,
KRDR,07-17-2020,07:56,METAR,Normal,220,4.0,,,9999.0,,15.2,14.2,29.93,1013.8,,,,,,,,,,,,,,,Clear,72000.0,,,,,,,,,
KRDR,07-17-2020,06:56,METAR,Normal,220,5.0,,,9999.0,,15.5,14.5,29.93,1013.7,,,,,,,,,,,,,,,Clear,72000.0,,,,,,,,,
KRDR,07-17-2020,05:56,METAR,Normal,230,4.0,,,9999.0,,15.6,14.8,29.93,1013.7,,,,,,,,,,,,,,,Clear,72000.0,,,,,,,,,
KRDR,07-17-2020,04:56,METAR,Normal,260,4.0,,,9999.0,,15.5,14.7,29.92,1013.4,,,,,,,,,,,,,,,Clear,72000.0,,,,,,,,,
KRDR,07-17-2020,03:56,METAR,Normal,260,4.0,,,9999.0,,16.7,14.9,29.92,1013.4,,,,,,,,,,,,,,,Clear,72000.0,,,,,,,,,
KRDR,07-17-2020,02:56,METAR,Normal,270,3.0,,,9999.0,,18.4,16.0,29.91,1013.1,,,,,,,,,,,,,,,Clear,72000.0,,,,,,,,,
KRDR,07-17-2020,01:56,METAR,Normal,310,3.0,,,9999.0,,23.3,15.8,29.89,1012.2,,,,,,,,,,,,,,,Clear,72000.0,,,,,,,,,
KRDR,07-17-2020,00:56,METAR,Normal,310,5.0,,,9999.0,,25.7,14.8,29.88,1011.9,,,,,,,,,,,,,,,Clear,72000.0,,,,,,,,,
KRDR,07-16-2020,23:56,METAR,Normal,310,8.0,,,9999.0,,26.7,13.8,29.88,1012.0,,,,,,,,,,,,,,,Clear,72000.0,,,,,,,,,
KRDR,07-16-2020,22:56,METAR,Normal,320,8.0,,,9999.0,,27.2,13.5,29.87,1011.6,,,,,,,,,,,,,,,2/8 Mostly Clear,72000.0,6500.0,FEW,6500.0,,,,,,
KRDR,07-16-2020,21:56,METAR,Normal,300,13.0,18.0,,9999.0,,27.2,14.9,29.87,1011.6,,,,,,,,,,,,,,,2/8 Mostly Clear,72000.0,6000.0,FEW,6000.0,,,,,,
KRDR,07-16-2020,20:56,METAR,Normal,310,12.0,,,9999.0,,27.0,14.7,29.87,1011.6,,,,,,,,,,,,,,,2/8 Mostly Clear,72000.0,6000.0,FEW,6000.0,,,,,,
KRDR,07-16-2020,19:56,METAR,Normal,310,14.0,19.0,,9999.0,,27.4,13.7,29.87,1011.6,,,,,,,,,,,,,,,2/8 Mostly Clear,72000.0,6500.0,FEW,6500.0,FEW,8000.0,,,,
KRDR,07-16-2020,18:56,METAR,Normal,330,12.0,21.0,,9999.0,,27.2,13.9,29.87,1011.6,,,,,,,,,,,,,,,4/8 Partly Cloudy,72000.0,6000.0,SCT,6000.0,,,,,,
KRDR,07-16-2020,17:56,METAR,Normal,330,14.0,19.0,,9999.0,,27.1,13.8,29.86,1011.3,,,,,,,,,,,,,,,2/8 Mostly Clear,72000.0,6000.0,FEW,6000.0,,,,,,
KRDR,07-16-2020,16:56,METAR,Normal,310,8.0,,,9999.0,,26.7,12.3,29.85,1010.9,,,,,,,,,,,,,,,2/8 Mostly Clear,72000.0,5000.0,FEW,5000.0,,,,,,
KRDR,07-16-2020,15:56,METAR,Normal,330,6.0,,,9999.0,,25.7,14.8,29.85,1011.0,,,,,,,,,,,,,,,Clear,72000.0,,,,,,,,,
KRDR,07-16-2020,14:56,METAR,Normal,310,6.0,,,9999.0,,24.5,15.7,29.86,1011.3,,,,,,,,,,,,,,,Clear,72000.0,,,,,,,,,
KRDR,07-16-2020,13:56,METAR,Normal,230,6.0,,,9999.0,,23.9,14.8,29.83,1010.3,,,,,,,,,,,,,,,,9000.0,9000.0,BKN,9100.0,,,,,,
KRDR,07-16-2020,12:56,METAR,Normal,230,8.0,,,9999.0,,21.2,13.4,29.81,1009.6,,,,,,,,,,,,,,,,10000.0,10000.0,BKN,10000.0,,,,,,
KRDR,07-16-2020,11:56,METAR,Normal,190,5.0,,,9999.0,,16.3,13.4,29.81,1009.6,,,,,,,,,,,,,,,,13000.0,13000.0,BKN,13000.0,,,,,,
KRDR,07-16-2020,10:56,METAR,Normal,220,3.0,,,9999.0,,18.4,12.6,29.82,1009.9,,,,,,,,,,,,,,,,12000.0,12000.0,BKN,12000.0,OVC,14000.0,,,,
KRDR,07-16-2020,09:56,METAR,Calm,,0.0,,,9999.0,,19.6,11.9,29.83,1010.2,,,,,,,,,,,,,,,,11000.0,11000.0,BKN,11000.0,OVC,14000.0,,,,
KRDR,07-16-2020,08:56,METAR,Normal,270,4.0,,,9999.0,,19.1,12.8,29.86,1011.2,,,,,,,,,,,,,,,,10000.0,10000.0,BKN,10000.0,BKN,14000.0,,,,
KRDR,07-16-2020,07:56,METAR,Normal,320,4.0,,,9999.0,,21.3,10.1,29.85,1010.9,,,,,,,,,,,,,,,,10000.0,7500.0,FEW,7500.0,BKN,10000.0,,,,
KRDR,07-16-2020,06:56,METAR,Normal,270,6.0,,,9999.0,,20.5,10.0,29.85,1010.9,,,,,,,,,,,,,,,,11000.0,7500.0,FEW,7500.0,BKN,11000.0,,,,
KRDR,07-16-2020,05:56,METAR,Normal,230,5.0,,,9999.0,,18.7,13.5,29.84,1010.6,,,,,,,,,,,,,,,2/8 Mostly Clear,72000.0,13000.0,FEW,13000.0,,,,,,
KRDR,07-16-2020,04:56,METAR,Normal,200,6.0,,,9999.0,,18.7,13.3,29.84,1010.6,,,,,,,,,,,,,,,Clear,72000.0,,,,,,,,,
KRDR,07-16-2020,03:56,METAR,Normal,210,6.0,,,9999.0,,17.6,12.5,29.85,1011.0,,,,,,,,,,,,,,,Clear,72000.0,,,,,,,,,
KRDR,07-16-2020,02:56,METAR,Normal,220,4.0,,,9999.0,,18.9,13.1,29.86,1011.3,,,,,,,,,,,,,,,Clear,72000.0,,,,,,,,,
KRDR,07-16-2020,01:56,METAR,Normal,260,5.0,,,9999.0,,22.4,12.9,29.85,1011.0,,,,,,,,,,,,,,,Clear,72000.0,,,,,,,,,
KRDR,07-16-2020,00:56,METAR,Normal,290,7.0,,,9999.0,,25.6,9.4,29.85,1010.9,,,,,,,,,,,,,,,Clear,72000.0,,,,,,,,,
KRDR,07-15-2020,23:56,METAR,Normal,300,11.0,,,9999.0,,27.1,8.0,29.85,1011.0,,,,,,,,,,,,,,,Clear,72000.0,,,,,,,,,
KRDR,07-15-2020,22:56,METAR,Normal,290,13.0,18.0,,9999.0,,27.9,9.2,29.85,1011.0,,,,,,,,,,,,,,,Clear,72000.0,,,,,,,,,
KRDR,07-15-2020,21:56,METAR,Normal,280,12.0,19.0,,9999.0,,28.1,8.4,29.86,1011.3,,,,,,,,,,,,,,,Clear,72000.0,,,,,,,,,
KRDR,07-15-2020,20:56,METAR,Normal,290,11.0,,,9999.0,,28.3,9.5,29.87,1011.7,,,,,,,,,,,,,,,Clear,72000.0,,,,,,,,,
KRDR,07-15-2020,19:56,METAR,Normal,270,11.0,18.0,,9999.0,,27.9,9.7,29.88,1012.0,,,,,,,,,,,,,,,Clear,72000.0,,,,,,,,,
KRDR,07-15-2020,18:56,METAR,Normal,280,11.0,,,9999.0,,27.7,9.5,29.90,1012.7,,,,,,,,,,,,,,,Clear,72000.0,,,,,,,,,
KRDR,07-15-2020,17:56,METAR,Normal,300,12.0,,,9999.0,,27.6,9.9,29.91,1013.0,,,,,,,,,,,,,,,Clear,72000.0,,,,,,,,,
KRDR,07-15-2020,16:56,METAR,Normal,270,13.0,,,9999.0,,26.9,11.8,29.91,1013.1,,,,,,,,,,,,,,,Clear,72000.0,,,,,,,,,
KRDR,07-15-2020,15:56,METAR,Normal,280,11.0,,,9999.0,,26.6,11.5,29.89,1012.4,,,,,,,,,,,,,,,Clear,72000.0,,,,,,,,,
KRDR,07-15-2020,14:56,METAR,Normal,270,6.0,,,9999.0,,24.8,14.6,29.89,1012.4,,,,,,,,,,,,,,,Clear,72000.0,,,,,,,,,
KRDR,07-15-2020,13:56,METAR,Normal,260,10.0,,,9999.0,,21.8,14.2,29.88,1012.1,,,,,,,,,,,,,,,Clear,72000.0,,,,,,,,,
KRDR,07-15-2020,12:56,METAR,Normal,250,8.0,,,9999.0,,19.7,13.6,29.88,1012.0,,,,,,,,,,,,,,,2/8 Mostly Clear,72000.0,12000.0,FEW,12000.0,,,,,,
KRDR,07-15-2020,11:56,METAR,Normal,270,9.0,,,9999.0,,17.6,12.3,29.87,1011.7,,,,,,,,,,,,,,,Clear,72000.0,,,,,,,,,
KRDR,07-15-2020,10:56,METAR,Normal,260,8.0,,,9999.0,,16.0,11.6,29.86,1011.4,,,,,,,,,,,,,,,Clear,72000.0,,,,,,,,,
KRDR,07-15-2020,09:56,METAR,Normal,250,8.0,,,9999.0,,16.4,11.1,29.86,1011.4,,,,,,,,,,,,,,,Clear,72000.0,,,,,,,,,
KRDR,07-15-2020,08:56,METAR,Normal,250,8.0,,,9999.0,,16.5,10.3,29.85,1011.0,,,,,,,,,,,,,,,4/8 Partly Cloudy,72000.0,11000.0,SCT,11000.0,,,,,,
KRDR,07-15-2020,07:56,METAR,Normal,240,7.0,,,9999.0,,18.0,10.6,29.87,1011.7,,,,,,,,,,,,,,,,11000.0,11000.0,BKN,11000.0,,,,,,
KRDR,07-15-2020,06:56,METAR,Normal,240,8.0,,,9999.0,,16.6,10.7,29.87,1011.7,,,,,,,,,,,,,,,2/8 Mostly Clear,72000.0,12000.0,FEW,12000.0,,,,,,
KRDR,07-15-2020,05:56,METAR,Normal,230,8.0,,,9999.0,,16.3,11.2,29.88,1012.1,,,,,,,,,,,,,,,Clear,72000.0,,,,,,,,,
KRDR,07-15-2020,04:56,METAR,Normal,230,7.0,,,9999.0,,15.7,12.1,29.88,,,,,,,,,,,,,,,,Clear,72000.0,,,,,,,,,
KRDR,07-15-2020,03:56,METAR,Normal,220,4.0,,,9999.0,,15.5,12.6,29.88,,,,,,,,,,,,,,,,Clear,72000.0,,,,,,,,,
KRDR,07-15-2020,02:56,METAR,Normal,230,6.0,,,9999.0,,17.6,12.5,29.88,,,,,,,,,,,,,,,,Clear,72000.0,,,,,,,,,
KRDR,07-15-2020,01:56,METAR,Normal,250,4.0,,,9999.0,,20.9,13.3,29.88,1012.2,,,,,,,,,,,,,,,Clear,72000.0,,,,,,,,,
KRDR,07-15-2020,00:56,METAR,Normal,290,8.0,,,9999.0,,24.3,9.8,29.88,1012.1,,,,,,,,,,,,,,,Clear,72000.0,,,,,,,,,
KRDR,07-14-2020,23:56,METAR,Normal,290,11.0,,,9999.0,,25.0,9.3,29.88,1012.1,,,,,,,,,,,,,,,Clear,72000.0,,,,,,,,,
KRDR,07-14-2020,22:56,METAR,Normal,290,15.0,20.0,,9999.0,,25.5,8.9,29.87,1011.8,,,,,,,,,,,,,,,2/8 Mostly Clear,72000.0,7500.0,FEW,7500.0,,,,,,
KRDR,07-14-2020,21:56,METAR,Normal,290,13.0,22.0,,9999.0,,25.5,9.3,29.88,1012.1,,,,,,,,,,,,,,,2/8 Mostly Clear,72000.0,7500.0,FEW,7500.0,,,,,,
KRDR,07-14-2020,20:56,METAR,Normal,290,14.0,21.0,,9999.0,,25.7,9.9,29.88,1012.1,,,,,,,,,,,,,,,2/8 Mostly Clear,72000.0,7000.0,FEW,7000.0,,,,,,
KRDR,07-14-2020,19:56,METAR,Normal,300,9.0,19.0,,9999.0,,25.1,9.0,29.88,1012.1,,,,,,,,,,,,,,,2/8 Mostly Clear,72000.0,7000.0,FEW,7000.0,,,,,,
KRDR,07-14-2020,18:56,METAR,Normal,300,13.0,18.0,,9999.0,,24.9,10.4,29.88,1012.1,,,,,,,,,,,,,,,2/8 Mostly Clear,72000.0,6500.0,FEW,6500.0,,,,,,
KRDR,07-14-2020,17:56,METAR,Normal,280,15.0,22.0,,9999.0,,24.7,9.4,29.88,1012.0,,,,,,,,,,,,,,,Clear,72000.0,,,,,,,,,
KRDR,07-14-2020,16:56,METAR,Normal,270,9.0,,,9999.0,,24.0,11.3,29.88,1012.0,,,,,,,,,,,,,,,Clear,72000.0,,,,,,,,,
KRDR,07-14-2020,15:56,METAR,Normal,270,8.0,,,9999.0,,22.9,11.9,29.87,1011.6,,,,,,,,,,,,,,,Clear,72000.0,,,,,,,,,
KRDR,07-14-2020,14:56,METAR,Normal,260,9.0,,,9999.0,,20.0,13.4,29.87,1011.8,,,,,,,,,,,,,,,Clear,72000.0,,,,,,,,,
KRDR,07-14-2020,13:56,METAR,Normal,260,6.0,,,9999.0,,16.7,13.8,29.88,1012.1,,,,,,,,,,,,,,,4/8 Partly Cloudy,72000.0,19000.0,SCT,19000.0,,,,,,
KRDR,07-14-2020,12:56,METAR,Normal,270,6.0,,,9999.0,,16.0,14.0,29.86,1011.4,,,,,,,,,,,,,,,Clear,72000.0,,,,,,,,,
KRDR,07-14-2020,11:56,METAR,Normal,250,6.0,,,9999.0,,15.4,14.3,29.84,1010.8,,,,,,,,,,,,,,.07 IN,2/8 Mostly Clear,72000.0,19000.0,FEW,19000.0,,,,,,
KRDR,07-14-2020,10:56,METAR,Normal,240,4.0,,,9999.0,,14.7,13.9,29.83,1010.4,,,,,,,,,,,,,,,2/8 Mostly Clear,72000.0,18000.0,FEW,18000.0,,,,,,
KRDR,07-14-2020,09:56,METAR,Normal,240,4.0,,,9999.0,,15.5,14.0,29.85,1011.2,,,,,,,,,,,,,,,Clear,72000.0,,,,,,,,,
KRDR,07-14-2020,08:56,METAR,Normal,290,5.0,,,9999.0,,15.4,14.3,29.82,1010.2,,,,,,,,,,,,,,,Clear,72000.0,,,,,,,,,
KRDR,07-14-2020,07:56,METAR,Normal,300,5.0,,,9999.0,,16.0,14.0,29.80,1009.3,,,,,,,,,,,,,,,Clear,72000.0,,,,,,,,,
KRDR,07-14-2020,06:56,METAR,Normal,300,6.0,,,9999.0,,17.0,13.5,29.80,1009.3,,,,,,,,,,,,,,,Clear,72000.0,,,,,,,,,
KRDR,07-14-2020,05:56,METAR,Normal,320,5.0,,,9999.0,,18.2,14.5,29.78,1008.6,,,,,,,,,,,,,,,Clear,72000.0,,,,,,,,,
KRDR,07-14-2020,04:56,METAR,Normal,330,10.0,,,9999.0,,20.3,14.6,29.76,1007.8,,,,,,,,,,,,,,,Clear,72000.0,,,,,,,,,
KRDR,07-14-2020,03:56,METAR,Normal,310,15.0,19.0,,9999.0,,22.1,17.2,29.73,1006.8,,,,,,,,,,,,,,,4/8 Partly Cloudy,72000.0,5500.0,SCT,5500.0,,,,,,
KRDR,07-14-2020,02:56,METAR,Normal,240,5.0,,,9999.0,,20.0,19.8,29.70,1005.9,,,,,,,,,,,,,,,Clear,72000.0,,,,,,,,,
KRDR,07-14-2020,01:56,METAR,Normal,290,4.0,,,9999.0,,22.6,19.5,29.68,1005.2,,,,,,,,,,,,,,,Clear,72000.0,,,,,,,,,
KRDR,07-14-2020,00:56,METAR,Normal,320,9.0,,,9999.0,,24.2,19.5,29.65,1004.2,,,,,,,,,,,,,,,Clear,72000.0,,,,,,,,,
KRDR,07-13-2020,23:56,METAR,Normal,310,10.0,,,9999.0,,25.2,21.1,29.65,1004.1,,,,,,,,,,,,,.07 IN,,4/8 Partly Cloudy,72000.0,2200.0,SCT,2200.0,,,,,,
KRDR,07-13-2020,23:46,SPECI,Normal,330,9.0,,,9999.0,,25.0,22.0,29.65,1004.1,,,,,,,,,,,,,,,4/8 Partly Cloudy,72000.0,2200.0,SCT,2200.0,SCT,2800.0,,,,
KRDR,07-13-2020,23:06,SPECI,Normal,300,13.0,19.0,,9999.0,,25.0,22.0,29.63,1003.4,,,,,,,,,,,,,,,,2200.0,2200.0,BKN,2200.0,,,,,,
KRDR,07-13-2020,22:56,METAR,Normal,300,12.0,16.0,,9999.0,,25.5,22.6,29.62,1003.1,,,,,,,,,,,,,,,4/8 Partly Cloudy,72000.0,2400.0,SCT,2400.0,SCT,3500.0,,,,
KRDR,07-13-2020,22:26,SPECI,Normal,290,7.0,,,9999.0,,24.0,24.0,29.62,1003.2,,,,,,,,,,,,,,,,2600.0,1600.0,SCT,1600.0,BKN,2600.0,BKN,5500.0,OVC,7000.0
KRDR,07-13-2020,21:56,METAR,Normal,250,6.0,,,9999.0,,22.7,22.7,29.61,1002.8,,,,,,,,,,,.01 IN,,,,,4600.0,4600.0,BKN,4600.0,BKN,6000.0,,,,
KRDR,07-13-2020,20:56,METAR,Normal,230,12.0,,,8000.0,Light Rain/Mist,21.8,21.8,29.61,1002.9,61,10,,,,,,,,,.06 IN,.06 IN,,,,3300.0,3300.0,BKN,3300.0,BKN,4200.0,,,,
KRDR,07-13-2020,20:47,SPECI,Normal,240,11.0,,,9999.0,Light Rain,22.0,22.0,29.61,1002.9,61,,,,,,,,,,,,,,,3500.0,2800.0,FEW,2800.0,OVC,3500.0,,,,
KRDR,07-13-2020,20:35,SPECI,Normal,240,11.0,21.0,,9999.0,Thunderstorm and Rain or Snow Showers,22.0,22.0,29.62,1003.2,92,,,,,,,,,,,,,,,3100.0,3100.0,OVC,3100.0,,,,,,
KRDR,07-13-2020,20:25,SPECI,Normal,230,12.0,,,9999.0,Thunderstorm with Rain or Snow,23.0,22.0,29.61,1002.8,,,,95,,,,,,,,,,,,3300.0,3300.0,OVC,3300.0,,,,,,
KRDR,07-13-2020,19:56,METAR,Normal,220,12.0,,,9999.0,Light Drizzle,25.6,20.8,29.61,1002.8,51,,,,,,,,,,TRACE,,,,,4200.0,4200.0,OVC,4200.0,,,,,,
KRDR,07-13-2020,19:51,SPECI,Normal,210,11.0,,,9999.0,Light Drizzle,26.0,20.0,29.60,1002.4,51,,,,,,,,,,,,,,,4400.0,4400.0,OVC,4400.0,,,,,,
KRDR,07-13-2020,19:22,SPECI,Normal,190,12.0,,,9999.0,,26.0,20.0,29.61,1002.8,,,,,,,,,,,,,,,,4500.0,4500.0,OVC,4500.0,,,,,,
KRDR,07-13-2020,19:20,SPECI,Normal,180,11.0,,,9999.0,Light Drizzle,26.0,20.0,29.61,1002.8,51,,,,,,,,,,,,,,,4500.0,4500.0,OVC,4500.0,,,,,,
KRDR,07-13-2020,18:56,METAR,Normal,170,15.0,22.0,180/28KTS,9999.0,,26.3,19.7,29.62,1003.1,,,,,,,,,,,,,,,,4400.0,4400.0,OVC,4400.0,,,,,,
KRDR,07-13-2020,17:56,METAR,Normal,170,18.0,22.0,170/29KTS,9999.0,,27.4,20.0,29.63,1003.4,,,,,,,,,,,,,,,,8500.0,8500.0,BKN,8600.0,,,,,,
KRDR,07-13-2020,16:56,METAR,Normal,170,17.0,23.0,,9999.0,,27.4,20.0,29.66,1004.4,,,,,,,,,,,,,,,,15000.0,8000.0,SCT,8000.0,BKN,15000.0,,,,
KRDR,07-13-2020,15:56,METAR,Normal,160,9.0,,,9999.0,,24.8,20.3,29.69,1005.4,,,,,,,,,,,,,,,,8000.0,8000.0,OVC,8000.0,,,,,,
KRDR,07-13-2020,14:56,METAR,Normal,160,11.0,,,9999.0,,22.7,19.4,29.71,1006.2,,,,,,,,,,,,,,,,8000.0,8000.0,BKN,8000.0,,,,,,
KRDR,07-13-2020,13:56,METAR,Normal,150,12.0,,,9999.0,,21.3,19.0,29.74,1007.2,,,,,,,,,,,,,,,4/8 Partly Cloudy,72000.0,8000.0,FEW,8000.0,SCT,19000.0,,,,
KRDR,07-13-2020,12:56,METAR,Normal,160,6.0,,,9999.0,,20.4,18.9,29.78,1008.5,,,,,,,,,,,,,,,,7500.0,7500.0,OVC,7500.0,,,,,,
KRDR,07-13-2020,11:56,METAR,Normal,140,7.0,,,9999.0,,20.3,18.9,29.79,1008.8,,,,,,,,,,,,,,,,7500.0,7500.0,OVC,7500.0,,,,,,
KRDR,07-13-2020,10:56,METAR,Normal,160,9.0,,,9999.0,,20.3,18.8,29.79,1008.8,,,,,,,,,,,,,,,,8000.0,8000.0,BKN,8000.0,,,,,,
KRDR,07-13-2020,09:56,METAR,Normal,190,9.0,,,9999.0,,20.5,18.6,29.78,1008.5,,,,,,,,,,,,,,,2/8 Mostly Clear,72000.0,17000.0,FEW,17000.0,,,,,,
KRDR,07-13-2020,08:56,METAR,Normal,190,10.0,,,9999.0,,20.3,18.4,29.77,1008.2,,,,,,,,,,,,,,,2/8 Mostly Clear,72000.0,18000.0,FEW,18000.0,,,,,,
KRDR,07-13-2020,07:56,METAR,Normal,180,11.0,,,9999.0,,20.4,18.5,29.80,1009.2,,,,,,,,,,,,,,,,21000.0,21000.0,BKN,21000.0,,,,,,
KRDR,07-13-2020,06:56,METAR,Normal,180,8.0,,,9999.0,,20.8,18.2,29.81,1009.5,,,,,,,,,,,,,,,Clear,72000.0,,,,,,,,,
KRDR,07-13-2020,05:56,METAR,Normal,180,8.0,,,9999.0,,20.7,18.1,29.80,1009.2,,,,,,,,,,,,,,,Clear,72000.0,,,,,,,,,
KRDR,07-13-2020,04:56,METAR,Normal,180,9.0,,,9999.0,,21.5,17.7,29.81,1009.5,,,,,,,,,,,,,,,Clear,72000.0,,,,,,,,,
KRDR,07-13-2020,03:56,METAR,Normal,180,10.0,,,9999.0,,22.4,17.7,29.81,1009.5,,,,,,,,,,,,,,,Clear,72000.0,,,,,,,,,
KRDR,07-13-2020,02:56,METAR,Normal,170,10.0,,,9999.0,,23.4,18.5,29.82,1009.9,,,,,,,,,,,,,,,Clear,72000.0,,,,,,,,,
KRDR,07-13-2020,01:56,METAR,Normal,170,12.0,,,9999.0,,25.1,18.8,29.83,1010.2,,,,,,,,,,,,,,,2/8 Mostly Clear,72000.0,6500.0,FEW,6500.0,,,,,,
KRDR,07-13-2020,00:56,METAR,Normal,170,12.0,,,9999.0,,27.6,18.8,29.84,1010.5,,,,,,,,,,,,,,,,6500.0,6500.0,BKN,6500.0,,,,,,
KRDR,07-12-2020,23:56,METAR,Normal,200,8.0,,,9999.0,,27.9,16.8,29.85,1011.0,,,,,,,,,,,,,,,Clear,72000.0,,,,,,,,,
KRDR,07-12-2020,22:56,METAR,Normal,180,10.0,,,9999.0,,28.3,17.8,29.85,1011.0,,,,,,,,,,,,,,,Clear,72000.0,,,,,,,,,
KRDR,07-12-2020,21:56,METAR,Normal,170,7.0,,,9999.0,,27.5,18.2,29.87,1011.7,,,,,,,,,,,,,,,4/8 Partly Cloudy,72000.0,6000.0,FEW,6000.0,SCT,20000.0,,,,
KRDR,07-12-2020,20:56,METAR,Normal,200,10.0,,,9999.0,,27.6,18.0,29.88,1012.0,,,,,,,,,,,,,,,2/8 Mostly Clear,72000.0,5000.0,FEW,5000.0,,,,,,
KRDR,07-12-2020,19:56,METAR,Normal,190,10.0,,,9999.0,,27.7,17.8,29.90,1012.7,,,,,,,,,,,,,,,,6500.0,4900.0,SCT,4900.0,BKN,6500.0,BKN,9600.0,,
KRDR,07-12-2020,18:56,METAR,Normal,210,13.0,,,9999.0,,28.0,18.4,29.92,1013.4,,,,,,,,,,,,,,,4/8 Partly Cloudy,72000.0,4700.0,SCT,4700.0,SCT,7500.0,SCT,12000.0,,
KRDR,07-12-2020,17:56,METAR,Normal,200,9.0,,,9999.0,,26.1,17.4,29.94,1014.1,,,,,,,,,,,,,,,,9000.0,9000.0,BKN,9100.0,,,,,,
KRDR,07-12-2020,17:49,SPECI,Normal,200,8.0,,,9999.0,,26.0,18.0,29.95,1014.5,,,,,,,,,,,,,,,,8500.0,8500.0,BKN,8600.0,,,,,,
KRDR,07-12-2020,16:56,METAR,Normal,190,8.0,,,9999.0,,26.7,18.5,29.97,1015.1,,,,,,,,,,,,,,,Clear,72000.0,,,,,,,,,
KRDR,07-12-2020,15:56,METAR,Normal,220,9.0,,,9999.0,,26.0,17.6,29.98,1015.4,,,,,,,,,,,,,,,Clear,72000.0,,,,,,,,,
KRDR,07-12-2020,14:56,METAR,Normal,210,9.0,,,9999.0,,24.7,16.4,29.99,1015.7,,,,,,,,,,,,,,,Clear,72000.0,,,,,,,,,
KRDR,07-12-2020,13:56,METAR,Normal,210,7.0,,,9999.0,,23.3,16.6,30.00,1016.0,,,,,,,,,,,,,,,Clear,72000.0,,,,,,,,,
KRDR,07-12-2020,12:56,METAR,Normal,230,3.0,,,9999.0,,21.1,18.6,29.99,1015.7,,,,,,,,,,,,,,,Clear,72000.0,,,,,,,,,
KRDR,07-12-2020,11:56,METAR,Calm,,0.0,,,9999.0,,16.5,16.5,29.99,1015.8,,,,,,,,,,,,,,.12 IN,Clear,72000.0,,,,,,,,,
KRDR,07-12-2020,10:56,METAR,Calm,,0.0,,,9999.0,,15.5,15.5,29.99,1015.8,,,,,,,,,,,,,,,Clear,72000.0,,,,,,,,,
KRDR,07-12-2020,09:56,METAR,Normal,220,3.0,,,9999.0,,15.3,15.3,29.99,1015.8,,,,,,,,,,,,,,,Clear,72000.0,,,,,,,,,
KRDR,07-12-2020,08:56,METAR,Calm,,0.0,,,9999.0,,15.5,15.5,29.99,1015.8,,,,,,,,,,,,,,,Clear,72000.0,,,,,,,,,
KRDR,07-12-2020,07:56,METAR,Normal,250,3.0,,,9999.0,,15.8,15.8,29.99,1015.9,,,,,,,,,,,,,,,Clear,72000.0,,,,,,,,,
KRDR,07-12-2020,06:56,METAR,Calm,,0.0,,,9999.0,,15.5,15.5,30.00,1016.2,,,,,,,,,,,,,,,Clear,72000.0,,,,,,,,,
KRDR,07-12-2020,05:56,METAR,Calm,,0.0,,,9999.0,,16.3,16.3,30.00,1016.2,,,,,,,,,,,,,,,Clear,72000.0,,,,,,,,,
KRDR,07-12-2020,04:56,METAR,Calm,,0.0,,,9999.0,,17.1,17.1,30.00,1016.2,,,,,,,,,,,,,,,Clear,72000.0,,,,,,,,,
KRDR,07-12-2020,03:56,METAR,Calm,,0.0,,,9999.0,,17.5,17.5,30.00,1016.2,,,,,,,,,,,,,,,Clear,72000.0,,,,,,,,,
KRDR,07-12-2020,02:56,METAR,Normal,30,3.0,,,9999.0,,20.3,18.2,29.99,1015.8,,,,,,,,,,,,,,,Clear,72000.0,,,,,,,,,
KRDR,07-12-2020,01:56,METAR,Normal,30,5.0,,,9999.0,,23.0,18.1,29.99,1015.8,,,,,,,,,,,,,,,Clear,72000.0,,,,,,,,,
KRDR,07-12-2020,00:56,METAR,Normal,30,5.0,,,9999.0,,25.5,18.4,29.98,1015.4,,,,,,,,,,,,,,,Clear,72000.0,,,,,,,,,
KRDR,07-11-2020,23:56,METAR,Normal,20,8.0,,,9999.0,,26.2,18.1,29.98,1015.4,,,,,,,,,,,,,.1 IN,,Clear,72000.0,,,,,,,,,
KRDR,07-11-2020,22:56,METAR,Normal,360,5.0,,,9999.0,,26.8,17.8,29.98,1015.4,,,,,,,,,,,,,,,Clear,72000.0,,,,,,,,,
KRDR,07-11-2020,21:56,METAR,Normal,10,6.0,,,9999.0,,26.6,18.2,29.97,1015.1,,,,,,,,,,,TRACE,,,,Clear,72000.0,,,,,,,,,
KRDR,07-11-2020,21:04,SPECI,Normal,30,10.0,,,9999.0,,27.0,20.0,29.98,1015.5,,,,,,,,,,,,,,,4/8 Partly Cloudy,72000.0,12000.0,SCT,12000.0,SCT,20000.0,,,,
KRDR,07-11-2020,20:57,SPECI,Normal,60,7.0,,,9999.0,Light Drizzle,26.0,18.0,29.98,1015.5,51,,,,,,,,,,,,,,2/8 Mostly Clear,72000.0,12000.0,FEW,12000.0,FEW,20000.0,,,,
KRDR,07-11-2020,20:56,METAR,Normal,40,8.0,,,9999.0,,26.4,18.0,29.98,1015.5,,,,,,,,,,,,.1 IN,,,4/8 Partly Cloudy,72000.0,9000.0,FEW,9100.0,FEW,12000.0,SCT,20000.0,,
KRDR,07-11-2020,19:56,METAR,Normal,70,6.0,,,9999.0,,22.1,18.5,29.98,1015.7,,,,,,,,,,,.1 IN,,,,4/8 Partly Cloudy,72000.0,4900.0,FEW,4900.0,FEW,7000.0,SCT,13000.0,SCT,15000.0
KRDR,07-11-2020,19:55,SPECI,Normal,70,5.0,,,9999.0,,22.0,19.0,29.98,1015.7,,,,,,,,,,,,,,,,15000.0,4900.0,FEW,4900.0,FEW,7000.0,SCT,13000.0,BKN,15000.0
KRDR,07-11-2020,19:45,SPECI,Normal,60,4.0,,,9999.0,Light Rain,21.0,19.0,29.98,1015.7,61,,,,,,,,,,,,,,,9500.0,4200.0,FEW,4200.0,FEW,5500.0,SCT,7000.0,BKN,9600.0
KRDR,07-11-2020,19:34,SPECI,Normal,40,7.0,,,9999.0,,21.0,18.0,29.98,1015.7,,,,,,,,,,,,,,,,7500.0,4300.0,FEW,4300.0,SCT,6000.0,BKN,7500.0,BKN,10000.0
KRDR,07-11-2020,19:14,SPECI,Normal,50,16.0,24.0,,9999.0,Light Rain/Distant Lightning,24.0,19.0,29.98,1015.5,61,12,,,,,,,,,,,,,,4000.0,2400.0,FEW,2400.0,BKN,4000.0,BKN,5000.0,OVC,6500.0
KRDR,07-11-2020,19:10,SPECI,Normal,50,16.0,24.0,,9999.0,Distant Lightning,25.0,19.0,29.98,1015.5,12,,,,,,,,,,,,,,,3800.0,2400.0,FEW,2400.0,FEW,3100.0,BKN,3800.0,BKN,5000.0
KRDR,07-11-2020,18:56,METAR,Normal,360,6.0,,,9999.0,,26.5,18.3,29.97,1015.1,,,,,,,,,,,,,,,,5000.0,3900.0,SCT,3900.0,BKN,5000.0,BKN,7000.0,,
KRDR,07-11-2020,17:56,METAR,Normal,30,4.0,,,9999.0,,25.1,18.8,29.97,1015.1,,,,,,,,,,,,,.02 IN,,,5500.0,3300.0,SCT,3300.0,BKN,5500.0,,,,
KRDR,07-11-2020,16:56,METAR,Normal,40,4.0,,,9999.0,,24.7,20.4,29.96,1014.8,,,,,,,,,,,,,,,4/8 Partly Cloudy,72000.0,2400.0,SCT,2400.0,SCT,9100.0,,,,
KRDR,07-11-2020,15:56,METAR,Calm,,0.0,,,9999.0,,23.7,19.6,29.95,1014.4,,,,,,,,,,,,,,,,8500.0,8500.0,BKN,8600.0,OVC,12000.0,,,,
KRDR,07-11-2020,14:56,METAR,Normal,140,5.0,,,9999.0,,21.4,21.0,29.94,1014.1,,,,,,,,,,,,.02 IN,,,,8500.0,8500.0,OVC,8600.0,,,,,,
KRDR,07-11-2020,13:56,METAR,Calm,,0.0,,,9999.0,,19.4,19.4,29.95,1014.5,,,,,,,,,,,.02 IN,,,,2/8 Mostly Clear,72000.0,9500.0,FEW,9600.0,FEW,20000.0,,,,
KRDR,07-11-2020,13:31,SPECI,Normal,350,4.0,,,9999.0,,20.0,20.0,29.95,1014.4,,,,,,,,,,,,,,,4/8 Partly Cloudy,72000.0,4100.0,SCT,4100.0,,,,,,
KRDR,07-11-2020,12:56,METAR,Normal,60,4.0,,,9999.0,Light Rain,19.6,19.6,29.95,1014.3,61,,,,,,,,,,TRACE,,,,,6000.0,3400.0,SCT,3400.0,BKN,6000.0,BKN,8000.0,BKN,10000.0
KRDR,07-11-2020,12:39,SPECI,Calm,,0.0,,,9999.0,Light Rain,19.0,19.0,29.95,1014.4,61,,,,,,,,,,,,,,4/8 Partly Cloudy,72000.0,10000.0,SCT,10000.0,,,,,,
KRDR,07-11-2020,11:56,METAR,Calm,,0.0,,,9999.0,,18.5,18.5,29.94,1014.1,,,,,,,,,,,.01 IN,,.02 IN,.02 IN,,18000.0,10000.0,FEW,10000.0,FEW,14000.0,BKN,18000.0,,
KRDR,07-11-2020,11:40,SPECI,Normal,120,3.0,,,9999.0,,19.0,19.0,29.93,1013.7,,,,,,,,,,,,,,,2/8 Mostly Clear,72000.0,17000.0,FEW,17000.0,,,,,,
KRDR,07-11-2020,10:56,METAR,Calm,,0.0,,,9999.0,Light Rain/Distant Lightning,18.1,18.1,29.94,1014.1,61,12,,,,,,,,,.01 IN,,,,,10000.0,10000.0,BKN,10000.0,FEW,12000.0,,,,
KRDR,07-11-2020,10:41,SPECI,Calm,,0.0,,,9999.0,Light Rain,18.0,18.0,29.94,1014.1,61,,,,,,,,,,,,,,4/8 Partly Cloudy,72000.0,10000.0,FEW,10000.0,SCT,12000.0,,,,
KRDR,07-11-2020,09:56,METAR,Normal,260,5.0,,,9999.0,,15.8,15.8,29.95,1014.5,,,,,,,,,,,,,,,,12000.0,12000.0,OVC,12000.0,,,,,,
KRDR,07-11-2020,08:56,METAR,Normal,240,4.0,,,9999.0,,15.0,15.0,29.94,1014.2,,,,,,,,,,,,,,,,13000.0,13000.0,BKN,13000.0,,,,,,
KRDR,07-11-2020,07:56,METAR,Calm,,0.0,,,9999.0,,14.6,14.6,29.94,1014.2,,,,,,,,,,,,,,,Clear,72000.0,,,,,,,,,
KRDR,07-11-2020,07:24,SPECI,Calm,,0.0,,,9999.0,,15.0,15.0,29.95,1014.5,,,,,,,,,,,,,,,Clear,72000.0,,,,,,,,,
KRDR,07-11-2020,07:06,SPECI,Calm,,0.0,,,8000.0,Mist,16.0,16.0,29.95,1014.5,10,,,,,,,,,,,,,,Clear,72000.0,,,,,,,,,
KRDR,07-11-2020,06:56,METAR,Calm,,0.0,,,9999.0,,15.9,15.9,29.95,1014.5,,,,,,,,,,,,,,,Clear,72000.0,,,,,,,,,
KRDR,07-11-2020,05:56,METAR,Calm,,0.0,,,9999.0,,16.0,16.0,29.94,1014.1,,,,,,,,,,,,,,,Clear,72000.0,,,,,,,,,
KRDR,07-11-2020,04:56,METAR,Normal,70,3.0,,,9999.0,,17.2,17.2,29.92,1013.4,,,,,,,,,,,,,,,Clear,72000.0,,,,,,,,,
KRDR,07-11-2020,03:56,METAR,Calm,,0.0,,,9999.0,,18.9,18.9,29.95,1014.4,,,,,,,,,,,,,,,Clear,72000.0,,,,,,,,,
KRDR,07-11-2020,02:56,METAR,Calm,,0.0,,,9999.0,,20.6,18.3,29.96,1014.7,,,,,,,,,,,,,,,4/8 Partly Cloudy,72000.0,5000.0,SCT,5000.0,,,,,,
KRDR,07-11-2020,01:56,METAR,Calm,,0.0,,,9999.0,,23.1,17.8,29.95,1014.4,,,,,,,,,,,,,,,2/8 Mostly Clear,72000.0,6000.0,FEW,6000.0,,,,,,
KRDR,07-11-2020,00:56,METAR,Normal,10,5.0,,,9999.0,,25.7,17.8,29.96,1014.7,,,,,,,,,,,,,,,2/8 Mostly Clear,72000.0,4600.0,FEW,4600.0,,,,,,
KRDR,07-10-2020,23:56,METAR,Normal,330,5.0,,,9999.0,,26.0,18.4,29.96,1014.7,,,,,,,,,,,,,,,4/8 Partly Cloudy,72000.0,4500.0,FEW,4500.0,SCT,22000.0,,,,
KRDR,07-10-2020,22:56,METAR,Normal,10,5.0,,,9999.0,,26.3,16.8,29.95,1014.5,,,,,,,,,,,,,,,2/8 Mostly Clear,72000.0,4900.0,FEW,4900.0,FEW,23000.0,,,,
KRDR,07-10-2020,21:56,METAR,Calm,,0.0,,,9999.0,,26.3,17.4,29.95,1014.5,,,,,,,,,,,,,,,,4500.0,4500.0,BKN,4500.0,BKN,6500.0,,,,
KRDR,07-10-2020,20:56,METAR,Normal,50,4.0,,,9999.0,,25.9,17.2,29.95,1014.4,,,,,,,,,,,,,,,4/8 Partly Cloudy,72000.0,4400.0,SCT,4400.0,SCT,6000.0,,,,
KRDR,07-10-2020,19:56,METAR,Normal,300,4.0,,,9999.0,,25.9,16.4,29.96,1014.8,,,,,,,,,,,,,,,,20000.0,5000.0,FEW,5000.0,SCT,6000.0,BKN,20000.0,,
KRDR,07-10-2020,18:56,METAR,Calm,,0.0,,,9999.0,,26.2,16.4,29.95,1014.4,,,,,,,,,,,,,,,4/8 Partly Cloudy,72000.0,6000.0,SCT,6000.0,,,,,,
KRDR,07-10-2020,17:56,METAR,Normal,280,4.0,,,9999.0,,25.0,16.7,29.95,1014.5,,,,,,,,,,,,,,,4/8 Partly Cloudy,72000.0,4000.0,SCT,4000.0,SCT,19000.0,,,,
KRDR,07-10-2020,16:56,METAR,Normal,340,6.0,,,9999.0,,25.3,17.2,29.95,1014.4,,,,,,,,,,,,,,,4/8 Partly Cloudy,72000.0,3600.0,SCT,3600.0,,,,,,
KRDR,07-10-2020,16:35,SPECI,Normal,330,7.0,,,9999.0,,25.0,18.0,29.96,1014.7,,,,,,,,,,,,,,,4/8 Partly Cloudy,72000.0,3500.0,SCT,3500.0,,,,,,
KRDR,07-10-2020,15:56,METAR,Normal,320,6.0,,,9999.0,,24.3,18.0,29.96,1014.8,,,,,,,,,,,,,,,Clear,72000.0,,,,,,,,,
KRDR,07-10-2020,14:56,METAR,Normal,310,8.0,,,9999.0,,22.8,18.3,29.97,1015.1,,,,,,,,,,,,,,,Clear,72000.0,,,,,,,,,
KRDR,07-10-2020,13:56,METAR,Normal,320,6.0,,,9999.0,,21.1,17.5,29.96,1014.7,,,,,,,,,,,,,,,Clear,72000.0,,,,,,,,,
KRDR,07-10-2020,12:56,METAR,Normal,300,7.0,,,9999.0,,19.6,17.0,29.96,1014.7,,,,,,,,,,,,,,,Clear,72000.0,,,,,,,,,
KRDR,07-10-2020,11:56,METAR,Normal,300,4.0,,,9999.0,,17.6,16.8,29.95,1014.5,,,,,,,,,,,,,,,Clear,72000.0,,,,,,,,,
KRDR,07-10-2020,10:56,METAR,Normal,300,6.0,,,9999.0,,16.3,16.3,29.94,1014.1,,,,,,,,,,,,,,,Clear,72000.0,,,,,,,,,
KRDR,07-10-2020,09:56,METAR,Normal,290,7.0,,,9999.0,,16.5,16.2,29.94,1014.1,,,,,,,,,,,,,,,Clear,72000.0,,,,,,,,,
KRDR,07-10-2020,08:56,METAR,Normal,300,8.0,,,9999.0,,17.0,16.2,29.93,1013.8,,,,,,,,,,,,,,,Clear,72000.0,,,,,,,,,
KRDR,07-10-2020,07:56,METAR,Normal,290,6.0,,,9999.0,,16.9,16.4,29.91,1013.1,,,,,,,,,,,,,,,Clear,72000.0,,,,,,,,,
KRDR,07-10-2020,06:56,METAR,Normal,300,7.0,,,9999.0,,17.6,16.3,29.90,1012.7,,,,,,,,,,,,,,,Clear,72000.0,,,,,,,,,
KRDR,07-10-2020,05:56,METAR,Normal,290,7.0,,,9999.0,,17.9,16.6,29.90,1012.8,,,,,,,,,,,,,,,Clear,72000.0,,,,,,,,,
KRDR,07-10-2020,04:56,METAR,Normal,290,8.0,,,9999.0,,18.8,16.4,29.89,1012.4,,,,,,,,,,,,,,,Clear,72000.0,,,,,,,,,
KRDR,07-10-2020,03:56,METAR,Normal,280,7.0,,,9999.0,,18.7,16.5,29.89,1012.4,,,,,,,,,,,,,,,Clear,72000.0,,,,,,,,,
KRDR,07-10-2020,02:56,METAR,Normal,290,6.0,,,9999.0,,19.8,16.2,29.88,1012.1,,,,,,,,,,,,,,,2/8 Mostly Clear,72000.0,7500.0,FEW,7500.0,,,,,,
KRDR,07-10-2020,01:56,METAR,Normal,280,6.0,,,9999.0,,22.5,16.0,29.87,1011.6,,,,,,,,,,,,,,,Clear,72000.0,,,,,,,,,
KRDR,07-09-2020,23:56,METAR,Normal,290,11.0,,,9999.0,,24.2,16.2,29.84,1010.7,,,,,,,,,,,,,,,2/8 Mostly Clear,72000.0,4500.0,FEW,4500.0,,,,,,
KRDR,07-09-2020,22:56,METAR,Normal,290,11.0,18.0,,9999.0,,25.1,15.7,29.82,1010.0,,,,,,,,,,,,,,,2/8 Mostly Clear,72000.0,5500.0,FEW,5500.0,,,,,,
KRDR,07-09-2020,21:56,METAR,Normal,300,13.0,24.0,,9999.0,,25.3,15.6,29.81,1009.7,,,,,,,,,,,,,,,,6000.0,4900.0,SCT,4900.0,BKN,6000.0,,,,
KRDR,07-09-2020,20:56,METAR,Normal,300,16.0,23.0,,9999.0,,24.9,15.5,29.81,1009.6,,,,,,,,,,,,,,,,4600.0,4600.0,BKN,4600.0,,,,,,
KRDR,07-09-2020,19:56,METAR,Normal,300,19.0,24.0,300/27KTS,9999.0,,24.4,15.3,29.80,1009.3,,,,,,,,,,,,,,,4/8 Partly Cloudy,72000.0,4300.0,SCT,4300.0,,,,,,
KRDR,07-09-2020,18:56,METAR,Normal,300,17.0,25.0,310/31KTS,9999.0,,23.9,15.1,29.80,1009.3,,,,,,,,,,,,,,,2/8 Mostly Clear,72000.0,4300.0,FEW,4300.0,,,,,,
KRDR,07-09-2020,17:56,METAR,Normal,300,15.0,24.0,290/29KTS,9999.0,,22.9,15.0,29.79,1009.0,,,,,,,,,,,,,,,4/8 Partly Cloudy,72000.0,4000.0,SCT,4000.0,,,,,,
KRDR,07-09-2020,16:56,METAR,Normal,300,15.0,25.0,310/28KTS,9999.0,,22.2,14.6,29.79,1009.0,,,,,,,,,,,,,,,,3800.0,3800.0,BKN,3800.0,,,,,,
KRDR,07-09-2020,15:56,METAR,Normal,300,18.0,27.0,300/27KTS,9999.0,,22.2,14.8,29.77,1008.3,,,,,,,,,,,,,,,,3800.0,3800.0,BKN,3800.0,,,,,,
KRDR,07-09-2020,14:56,METAR,Normal,300,19.0,26.0,300/26KTS,9999.0,,22.4,13.7,29.76,1007.9,,,,,,,,,,,,,,,Clear,72000.0,,,,,,,,,
KRDR,07-09-2020,13:56,METAR,Normal,280,12.0,16.0,,9999.0,,21.9,14.3,29.75,1007.5,,,,,,,,,,,,,,,Clear,72000.0,,,,,,,,,
KRDR,07-09-2020,12:56,METAR,Normal,250,9.0,,,9999.0,,20.0,14.3,29.75,1007.5,,,,,,,,,,,,,,,Clear,72000.0,,,,,,,,,
KRDR,07-09-2020,11:56,METAR,Normal,270,9.0,,,9999.0,,18.4,14.1,29.75,1007.5,,,,,,,,,,,,,,,Clear,72000.0,,,,,,,,,
KRDR,07-09-2020,10:56,METAR,Calm,,0.0,,,9999.0,,17.3,16.3,29.74,1007.2,,,,,,,,,,,,,,,Clear,72000.0,,,,,,,,,
KRDR,07-09-2020,09:56,METAR,Normal,240,3.0,,,9999.0,,17.6,17.4,29.74,1007.2,,,,,,,,,,,,,,,Clear,72000.0,,,,,,,,,
KRDR,07-09-2020,08:56,METAR,Normal,320,9.0,,,9999.0,,18.9,17.6,29.75,1007.5,,,,,,,,,,,,,,,Clear,72000.0,,,,,,,,,
KRDR,07-09-2020,07:56,METAR,Normal,230,6.0,,,9999.0,,18.0,18.0,29.75,1007.5,,,,,,,,,,,,,,,Clear,72000.0,,,,,,,,,
KRDR,07-09-2020,06:56,METAR,Normal,220,4.0,,,9999.0,,18.0,18.0,29.73,1006.8,,,,,,,,,,,,,,,Clear,72000.0,,,,,,,,,
KRDR,07-09-2020,05:56,METAR,Normal,260,3.0,,,9999.0,,18.4,18.4,29.73,1006.9,,,,,,,,,,,,,,,Clear,72000.0,,,,,,,,,
KRDR,07-09-2020,04:56,METAR,Normal,300,4.0,,,9999.0,,19.6,18.9,29.73,1006.8,,,,,,,,,,,,,,,Clear,72000.0,,,,,,,,,
KRDR,07-09-2020,03:56,METAR,Normal,280,3.0,,,9999.0,,19.8,19.8,29.73,1006.8,,,,,,,,,,,,,,,Clear,72000.0,,,,,,,,,
KRDR,07-09-2020,02:56,METAR,Normal,320,4.0,,,9999.0,,21.1,21.1,29.73,1006.8,,,,,,,,,,,,,,,Clear,72000.0,,,,,,,,,
KRDR,07-09-2020,01:56,METAR,Normal,310,3.0,,,9999.0,,24.7,21.2,29.73,1006.8,,,,,,,,,,,,,,,Clear,72000.0,,,,,,,,,
KRDR,07-08-2020,23:56,METAR,Calm,,0.0,,,9999.0,,27.5,17.3,29.73,1006.8,,,,,,,,,,,,,,,2/8 Mostly Clear,72000.0,10000.0,FEW,10000.0,,,,,,
KRDR,07-08-2020,22:56,METAR,Normal,30,5.0,,,9999.0,,28.1,18.5,29.73,1006.8,,,,,,,,,,,,,,,4/8 Partly Cloudy,72000.0,4500.0,FEW,4500.0,SCT,15000.0,,,,
KRDR,07-08-2020,21:56,METAR,Normal,30,5.0,,,9999.0,,28.0,19.5,29.73,1006.8,,,,,,,,,,,,,,,2/8 Mostly Clear,72000.0,4500.0,FEW,4500.0,,,,,,
KRDR,07-08-2020,20:56,METAR,Normal,340,10.0,16.0,,9999.0,,28.1,20.1,29.72,1006.5,,,,,,,,,,,,,,,Clear,72000.0,,,,,,,,,
KRDR,07-08-2020,19:56,METAR,Normal,310,9.0,,,9999.0,,28.0,19.2,29.73,1006.8,,,,,,,,,,,,,,,Clear,72000.0,,,,,,,,,
KRDR,07-08-2020,18:56,METAR,Normal,300,10.0,,,9999.0,,27.1,19.9,29.74,1007.1,,,,,,,,,,,,,,,Clear,72000.0,,,,,,,,,
KRDR,07-08-2020,17:56,METAR,Normal,290,9.0,,,9999.0,,26.3,20.6,29.75,1007.5,,,,,,,,,,,,,,,4/8 Partly Cloudy,72000.0,3000.0,FEW,3000.0,SCT,20000.0,,,,
KRDR,07-08-2020,16:56,METAR,Normal,280,11.0,,,9999.0,,25.0,20.4,29.75,1007.5,,,,,,,,,,,,,,,2/8 Mostly Clear,72000.0,18000.0,FEW,18000.0,FEW,20000.0,,,,
KRDR,07-08-2020,15:56,METAR,Normal,250,10.0,18.0,,9999.0,,25.4,20.6,29.74,1007.1,,,,,,,,,,,,,,,2/8 Mostly Clear,72000.0,2200.0,FEW,2200.0,,,,,,
KRDR,07-08-2020,14:56,METAR,Normal,260,10.0,15.0,,9999.0,,24.6,20.5,29.73,1006.8,,,,,,,,,,,,,,,4/8 Partly Cloudy,72000.0,20000.0,SCT,20000.0,,,,,,
KRDR,07-08-2020,13:56,METAR,Normal,270,7.0,,,9999.0,,22.7,20.6,29.71,1006.1,,,,,,,,,,,,,,,,20000.0,20000.0,BKN,20000.0,,,,,,
KRDR,07-08-2020,12:56,METAR,Normal,270,4.0,,,9999.0,,20.6,20.6,29.70,1005.8,,,,,,,,,,,,,,,4/8 Partly Cloudy,72000.0,15000.0,SCT,15000.0,,,,,,
KRDR,07-08-2020,11:56,METAR,Normal,190,6.0,,,9999.0,,19.5,19.5,29.70,1005.8,,,,,,,,,,,,,.48 IN,.48 IN,,8000.0,8000.0,OVC,8000.0,,,,,,
KRDR,07-08-2020,10:56,METAR,Normal,160,6.0,,,9999.0,,19.1,19.1,29.65,1004.1,,,,,,,,,,,TRACE,,,,,9000.0,7000.0,SCT,7000.0,BKN,9100.0,,,,
KRDR,07-08-2020,10:43,SPECI,Normal,100,10.0,,,9999.0,Rain,19.0,19.0,29.65,1004.1,,,,61,,,,,,,,,,,,8000.0,8000.0,OVC,8000.0,,,,,,
KRDR,07-08-2020,09:56,METAR,Normal,110,9.0,,100/30KTS,9999.0,,18.8,18.8,29.67,1004.8,,,,,,,,,,,.02 IN,,,,,12000.0,9000.0,FEW,9100.0,OVC,12000.0,,,,
KRDR,07-08-2020,09:36,SPECI,Normal,90,22.0,30.0,,9999.0,,18.0,18.0,,,,,,,,,,,,,,,,,,11000.0,11000.0,OVC,11000.0,,,,,,
KRDR,07-08-2020,08:56,METAR,Normal,10,15.0,19.0,,9999.0,Rain,18.2,18.2,29.81,1009.6,62,,,,,,,,,,.22 IN,.46 IN,,,,3900.0,3900.0,BKN,3900.0,BKN,4800.0,,,,
KRDR,07-08-2020,08:37,SPECI,Normal,320,14.0,24.0,,9999.0,Rain/Lightning,19.0,19.0,29.87,1011.6,,,,63,13,,,,,,,,,,,3600.0,3600.0,OVC,3600.0,,,,,,
KRDR,07-08-2020,08:33,SPECI,Normal,320,15.0,24.0,,9999.0,Thunderstorm with Rain or Snow,20.0,20.0,29.87,1011.6,,,,95,,,,,,,,,,,,3600.0,3600.0,OVC,3600.0,,,,,,
KRDR,07-08-2020,08:25,SPECI,Normal,300,13.0,24.0,,8000.0,Thunderstorm with Rain or Snow,20.0,20.0,29.86,1011.2,,,,95,,,,,,,,,,,2/8 Mostly Clear,72000.0,2000.0,FEW,2000.0,,,,,,
KRDR,07-08-2020,08:15,SPECI,Normal,,,,,,Thunderstorm with Rain or Snow/Rain/Mist,20.0,20.0,29.83,1010.2,,,,95,63,10,,,,,,,,,,,,,,,,,,,
KRDR,07-08-2020,08:07,SPECI,Normal,280,9.0,18.0,,4000.0,Heavy Thunderstorm with Rain or Snow/Mist,20.0,20.0,29.83,1010.2,,,,97,10,,,,,,,,,,2/8 Mostly Clear,72000.0,2000.0,FEW,2000.0,,,,,,
KRDR,07-08-2020,07:56,METAR,Normal,230,8.0,,,9999.0,Thunderstorm and Rain or Snow Showers/Mist,20.3,20.3,29.83,1010.2,92,10,,,,,,,,,.24 IN,,,,,4800.0,4800.0,BKN,4800.0,,,,,,
KRDR,07-08-2020,07:31,SPECI,Normal,180,8.0,,,9999.0,Thunderstorm with Rain or Snow,21.0,20.0,29.79,1008.8,,,,95,,,,,,,,,,,,4400.0,4400.0,BKN,4400.0,OVC,9100.0,,,,
KRDR,07-08-2020,07:22,SPECI,Normal,170,7.0,,,6400.0,Heavy Thunderstorm with Rain or Snow,22.0,19.0,29.78,1008.5,,,,97,,,,,,,,,,,,4800.0,4800.0,BKN,4800.0,OVC,9100.0,,,,
KRDR,07-08-2020,07:13,SPECI,Normal,180,9.0,,,9999.0,Thunderstorm and Rain or Snow Showers,23.0,18.0,29.76,1007.7,92,,,,,,,,,,,,,,,8500.0,4500.0,SCT,4500.0,OVC,8600.0,,,,
KRDR,07-08-2020,07:12,SPECI,Normal,190,9.0,,,9999.0,Thunderstorm,23.0,18.0,29.77,1008.1,,,,17,,,,,,,,,,,,8500.0,4500.0,SCT,4500.0,OVC,8600.0,,,,
KRDR,07-08-2020,06:56,METAR,Normal,140,10.0,,,9999.0,,22.5,17.4,29.73,1006.7,,,,,,,,,,,,,,,,8500.0,8500.0,BKN,8600.0,BKN,10000.0,,,,
KRDR,07-08-2020,05:56,METAR,Normal,120,10.0,,,9999.0,,22.2,17.3,29.75,1007.4,,,,,,,,,,,,,,,4/8 Partly Cloudy,72000.0,10000.0,SCT,10000.0,,,,,,
KRDR,07-08-2020,04:56,METAR,Normal,120,8.0,,,9999.0,,22.3,17.2,29.79,1008.8,,,,,,,,,,,,,,,,21000.0,21000.0,BKN,21000.0,,,,,,
KRDR,07-08-2020,03:56,METAR,Normal,130,6.0,,,9999.0,,22.6,17.1,29.81,1009.5,,,,,,,,,,,,,,,Clear,72000.0,,,,,,,,,
KRDR,07-08-2020,02:56,METAR,Normal,130,4.0,,,9999.0,,23.6,17.8,29.80,1009.1,,,,,,,,,,,,,,,Clear,72000.0,,,,,,,,,
KRDR,07-08-2020,01:56,METAR,Normal,100,9.0,,,9999.0,,25.3,17.7,29.81,1009.5,,,,,,,,,,,,,,,,20000.0,20000.0,BKN,20000.0,,,,,,
KRDR,07-08-2020,00:56,METAR,Normal,110,12.0,,,9999.0,,26.6,17.4,29.84,1010.5,,,,,,,,,,,,,,,,15000.0,5000.0,FEW,5000.0,BKN,15000.0,,,,
KRDR,07-07-2020,23:56,METAR,Normal,110,10.0,,,9999.0,,28.2,16.8,29.87,1011.6,,,,,,,,,,,,,,,4/8 Partly Cloudy,72000.0,5000.0,FEW,5000.0,SCT,20000.0,,,,
KRDR,07-07-2020,22:56,METAR,Normal,120,10.0,,,9999.0,,28.8,16.7,29.88,1012.0,,,,,,,,,,,,,,,2/8 Mostly Clear,72000.0,5000.0,FEW,5000.0,FEW,20000.0,,,,
KRDR,07-07-2020,21:52,METAR,Normal,120,6.0,,,9999.0,,28.9,15.4,29.90,1012.6,,,,,,,,,,,,,,,2/8 Mostly Clear,72000.0,5000.0,FEW,5000.0,,,,,,
KRDR,07-07-2020,20:56,METAR,Normal,130,9.0,,,9999.0,,28.9,14.3,29.91,1013.0,,,,,,,,,,,,,,,2/8 Mostly Clear,72000.0,5000.0,FEW,5000.0,,,,,,
KRDR,07-07-2020,19:56,METAR,Variable,,6.0,,,9999.0,,28.7,16.6,29.93,1013.7,,,,,,,,,,,,,,,2/8 Mostly Clear,72000.0,5000.0,FEW,5000.0,,,,,,
KRDR,07-07-2020,18:56,METAR,Normal,120,7.0,,,9999.0,,28.2,16.4,29.94,1014.0,,,,,,,,,,,,,,,2/8 Mostly Clear,72000.0,4900.0,FEW,4900.0,,,,,,
KRDR,07-07-2020,17:56,METAR,Normal,120,6.0,,,9999.0,,27.9,16.8,29.95,1014.3,,,,,,,,,,,,,,,2/8 Mostly Clear,72000.0,4900.0,FEW,4900.0,,,,,,
KRDR,07-07-2020,16:56,METAR,Normal,110,6.0,,,9999.0,,27.6,15.2,29.96,1014.6,,,,,,,,,,,,,,,2/8 Mostly Clear,72000.0,4900.0,FEW,4900.0,,,,,,
KRDR,07-07-2020,15:56,METAR,Normal,90,4.0,,,9999.0,,26.9,16.8,29.97,1015.0,,,,,,,,,,,,,,,2/8 Mostly Clear,72000.0,3000.0,FEW,3000.0,,,,,,
KRDR,07-07-2020,14:56,METAR,Normal,130,4.0,,,9999.0,,25.9,18.0,29.97,1015.0,,,,,,,,,,,,,,,Clear,72000.0,,,,,,,,,
KRDR,07-07-2020,13:56,METAR,Variable,,3.0,,,9999.0,,23.8,19.3,29.98,1015.3,,,,,,,,,,,,,,,Clear,72000.0,,,,,,,,,
KRDR,07-07-2020,12:56,METAR,Calm,,0.0,,,9999.0,,20.2,19.2,29.96,1014.7,,,,,,,,,,,,,,,Clear,72000.0,,,,,,,,,
KRDR,07-07-2020,11:56,METAR,Calm,,0.0,,,9999.0,,17.4,17.4,29.97,1015.1,,,,,,,,,,,,,,TRACE,Clear,72000.0,,,,,,,,,
KRDR,07-07-2020,10:56,METAR,Normal,330,3.0,,,9999.0,,15.0,15.0,29.96,1014.7,,,,,,,,,,,,,,,Clear,72000.0,,,,,,,,,
KRDR,07-07-2020,09:56,METAR,Normal,330,4.0,,,9999.0,,16.2,16.2,29.95,1014.4,,,,,,,,,,,,,,,Clear,72000.0,,,,,,,,,
KRDR,07-07-2020,08:56,METAR,Normal,320,3.0,,,9999.0,,16.0,16.0,29.95,1014.4,,,,,,,,,,,,,,,Clear,72000.0,,,,,,,,,
KRDR,07-07-2020,07:56,METAR,Normal,320,3.0,,,9999.0,,16.0,16.0,29.94,1014.1,,,,,,,,,,,,,,,Clear,72000.0,,,,,,,,,
KRDR,07-07-2020,06:56,METAR,Calm,,0.0,,,9999.0,,17.4,17.1,29.91,,,,,,,,,,,,,,,,Clear,72000.0,,,,,,,,,
KRDR,07-07-2020,05:56,METAR,Calm,,0.0,,,9999.0,,17.7,17.7,29.95,1014.3,,,,,,,,,,,,,,,Clear,72000.0,,,,,,,,,
KRDR,07-07-2020,04:56,METAR,Normal,240,3.0,,,9999.0,,19.1,18.1,29.95,,,,,,,,,,,,,,,,Clear,72000.0,,,,,,,,,
KRDR,07-07-2020,03:56,METAR,Normal,230,5.0,,,9999.0,,18.3,18.3,29.95,,,,,,,,,,,,,,,,Clear,72000.0,,,,,,,,,
KRDR,07-07-2020,02:56,METAR,Calm,,0.0,,,9999.0,,20.2,19.7,29.93,,,,,,,,,,,,,,,,Clear,72000.0,,,,,,,,,
KRDR,07-07-2020,01:56,METAR,Normal,20,4.0,,,9999.0,,23.7,19.4,29.92,1013.3,,,,,,,,,,,,,,,Clear,72000.0,,,,,,,,,
KRDR,07-07-2020,00:56,METAR,Normal,20,6.0,,,9999.0,,25.9,17.2,29.93,1013.6,,,,,,,,,,,,,,,4/8 Partly Cloudy,72000.0,4000.0,SCT,4000.0,,,,,,
KRDR,07-06-2020,23:56,METAR,Normal,20,6.0,,,9999.0,,26.9,19.0,29.93,1013.6,,,,,,,,,,,,,TRACE,,4/8 Partly Cloudy,72000.0,4000.0,SCT,4000.0,,,,,,
KRDR,07-06-2020,22:56,METAR,Normal,300,6.0,,,9999.0,,28.6,18.3,29.93,1013.6,,,,,,,,,,,,,,,4/8 Partly Cloudy,72000.0,5000.0,SCT,5000.0,,,,,,
KRDR,07-06-2020,21:56,METAR,Normal,,,,,9999.0,,27.2,18.2,29.94,1014.0,,,,,,,,,,,,,,,2/8 Mostly Clear,72000.0,6500.0,FEW,6500.0,FEW,8000.0,,,,
KRDR,07-06-2020,20:56,METAR,Normal,300,6.0,,,9999.0,,28.0,18.4,29.94,1014.0,,,,,,,,,,,,TRACE,,,,15000.0,2000.0,SCT,2000.0,SCT,10000.0,BKN,15000.0,,
KRDR,07-06-2020,19:56,METAR,Calm,,0.0,,,9999.0,,27.2,18.7,29.95,1014.3,,,,,,,,,,,TRACE,,,,,10000.0,2000.0,SCT,2000.0,BKN,10000.0,BKN,17000.0,,
KRDR,07-06-2020,19:13,SPECI,Normal,340,6.0,,,9999.0,,24.0,21.0,29.97,1015.1,,,,,,,,,,,,,,,,10000.0,2000.0,SCT,2000.0,BKN,10000.0,,,,
KRDR,07-06-2020,18:58,METAR,Normal,350,6.0,,,9999.0,Light Rain,25.4,19.7,29.97,1015.0,61,,,,,,,,,,TRACE,,,,,,,,,,,,,,
KRDR,07-06-2020,17:55,METAR,Normal,10,4.0,,,9999.0,,26.0,18.0,29.98,,,,,,,,,,,,,,,,,21000.0,3000.0,FEW,3000.0,SCT,10000.0,BKN,21000.0,,
KRDR,07-06-2020,16:56,METAR,Normal,20,3.0,,,9999.0,,26.0,19.0,30.01,,,,,,,,,,,,,,,,,16000.0,4000.0,SCT,4000.0,BKN,16000.0,,,,
KRDR,07-06-2020,15:56,METAR,Normal,10,3.0,,,9999.0,,23.0,17.0,29.99,,,,,,,,,,,,,,,,,12000.0,3000.0,SCT,3000.0,BKN,12000.0,,,,
KRDR,07-06-2020,14:56,METAR,Normal,10,5.0,,,9999.0,,23.0,20.0,29.95,1014.2,,,,,,,,,,,,,,,,12000.0,6000.0,FEW,6000.0,BKN,12000.0,,,,
KRDR,07-06-2020,13:56,METAR,Normal,10,10.0,,,9999.0,,23.0,20.0,29.95,1014.2,,,,,,,,,,,,,,,4/8 Partly Cloudy,72000.0,13000.0,SCT,13000.0,,,,,,
KRDR,07-06-2020,12:58,METAR,Normal,300,4.0,,,9999.0,,22.8,21.4,29.93,1013.6,,,,,,,,,,,,,,,,14000.0,14000.0,BKN,14000.0,,,,,,
KRDR,07-06-2020,11:55,METAR,Calm,,0.0,,,9999.0,,20.3,20.3,29.92,1013.2,,,,,,,,,,,,,,,,14000.0,14000.0,BKN,14000.0,,,,,,
KRDR,07-06-2020,10:59,METAR,Normal,310,4.0,,,9999.0,,19.8,19.8,29.91,1012.8,,,,,,,,,,,,,,,,15000.0,15000.0,BKN,15000.0,,,,,,
KRDR,07-06-2020,09:58,METAR,Normal,310,6.0,,,9999.0,,19.7,19.7,29.90,1012.5,,,,,,,,,,,,,,,Clear,72000.0,,,,,,,,,
KRDR,07-06-2020,08:59,METAR,Normal,310,5.0,,,9999.0,,20.1,20.1,29.90,1012.5,,,,,,,,,,,,,,,Clear,72000.0,,,,,,,,,
KRDR,07-06-2020,07:58,METAR,Normal,360,4.0,,,9999.0,,20.3,20.3,29.91,1012.8,,,,,,,,,,,,,,,Clear,72000.0,,,,,,,,,
KRDR,07-06-2020,06:56,METAR,Normal,300,6.0,,,9999.0,,21.1,19.9,29.90,1012.5,,,,,,,,,,,,,,,Clear,72000.0,,,,,,,,,
KRDR,07-06-2020,05:57,METAR,Normal,280,7.0,,,9999.0,,21.1,19.6,29.89,1012.1,,,,,,,,,,,,,TRACE,,Clear,72000.0,,,,,,,,,
KRDR,07-06-2020,04:55,METAR,Normal,280,5.0,,,9999.0,,21.4,20.0,29.90,1012.5,,,,,,,,,,,,,,,Clear,72000.0,,,,,,,,,
KRDR,07-06-2020,03:56,METAR,Normal,280,4.0,,,9999.0,,22.2,20.5,29.88,1011.9,,,,,,,,,,,,,,,,17000.0,17000.0,BKN,17000.0,,,,,,
KRDR,07-06-2020,02:58,METAR,Normal,280,4.0,,,9999.0,,24.3,21.2,29.88,1011.9,,,,,,,,,,,,TRACE,,,,18000.0,18000.0,BKN,18000.0,,,,,,
KRDR,07-06-2020,01:57,METAR,Normal,320,6.0,,,9999.0,,25.1,22.6,29.85,1010.8,,,,,,,,,,,TRACE,,,,,17000.0,17000.0,BKN,17000.0,,,,,,
KRDR,07-06-2020,01:04,SPECI,Normal,230,3.0,,,9999.0,,26.0,22.0,29.87,1011.5,,,,,,,,,,,,,,,,12000.0,12000.0,BKN,12000.0,,,,,,
KRDR,07-06-2020,00:56,METAR,Normal,280,5.0,,,9999.0,Light Rain,26.6,22.0,29.88,1011.9,61,,,,,,,,,,TRACE,,,,,12000.0,6000.0,FEW,6000.0,BKN,12000.0,,,,
KRDR,07-06-2020,00:50,SPECI,Normal,290,5.0,,,9999.0,Light Drizzle,27.0,22.0,29.89,1012.2,51,,,,,,,,,,,,,,,12000.0,12000.0,BKN,12000.0,,,,,,
KRDR,07-06-2020,00:34,SPECI,Calm,,0.0,,,9999.0,,27.0,21.0,29.88,1011.9,,,,,,,,,,,,,,,,12000.0,8000.0,FEW,8000.0,OVC,12000.0,,,,
KRDR,07-06-2020,00:29,SPECI,Normal,290,4.0,,,9999.0,Rain,28.0,21.0,29.88,1011.9,,,,61,,,,,,,,,,,,12000.0,12000.0,OVC,12000.0,,,,,,
KRDR,07-06-2020,00:21,SPECI,Normal,280,7.0,,,9999.0,Light Rain,28.0,21.0,29.89,1012.2,61,,,,,,,,,,,,,,,12000.0,12000.0,OVC,12000.0,,,,,,
KRDR,07-05-2020,23:56,METAR,Normal,280,7.0,,,9999.0,,29.2,20.1,29.88,1011.8,,,,,,,,,,,,,,,,11000.0,6000.0,SCT,6000.0,SCT,7000.0,OVC,11000.0,,
KRDR,07-05-2020,22:56,METAR,Normal,,,,,,,31.6,19.5,29.84,1010.4,,,,,,,,,,,,,,,,,,,,,,,,,
KRDR,07-05-2020,21:56,METAR,Normal,280,8.0,,,9999.0,,31.5,19.5,29.85,1010.8,,,,,,,,,,,,,,,4/8 Partly Cloudy,72000.0,25000.0,SCT,25000.0,,,,,,
KRDR,07-05-2020,20:56,METAR,Normal,290,7.0,,,9999.0,,31.6,19.5,29.87,1011.4,,,,,,,,,,,,,,,Clear,72000.0,,,,,,,,,
KRDR,07-05-2020,19:56,METAR,Normal,270,11.0,,,9999.0,,31.5,18.8,29.88,1011.8,,,,,,,,,,,,,,,2/8 Mostly Clear,72000.0,19000.0,FEW,19000.0,,,,,,
KRDR,07-05-2020,18:56,METAR,Normal,260,10.0,,,9999.0,,31.0,22.6,29.88,1011.8,,,,,,,,,,,,,,,2/8 Mostly Clear,72000.0,4200.0,FEW,4200.0,,,,,,
KRDR,07-05-2020,17:56,METAR,Normal,270,10.0,,,9999.0,,30.4,23.5,29.88,1011.8,,,,,,,,,,,,,,,2/8 Mostly Clear,72000.0,3200.0,FEW,3200.0,,,,,,
KRDR,07-05-2020,16:56,METAR,Normal,250,10.0,,,9999.0,,29.1,23.5,29.90,1012.5,,,,,,,,,,,,,,,Clear,72000.0,,,,,,,,,
KRDR,07-05-2020,15:56,METAR,Normal,250,8.0,,,9999.0,,28.0,23.3,29.90,1012.5,,,,,,,,,,,,,,,2/8 Mostly Clear,72000.0,15000.0,FEW,15000.0,,,,,,
KRDR,07-05-2020,14:56,METAR,Normal,240,6.0,,,9999.0,,25.3,22.4,29.91,1012.9,,,,,,,,,,,,,,,4/8 Partly Cloudy,72000.0,9000.0,FEW,9100.0,SCT,12000.0,,,,
KRDR,07-05-2020,13:56,METAR,Calm,,0.0,,,9999.0,,24.5,21.2,29.87,1011.4,,,,,,,,,,,,,,,2/8 Mostly Clear,72000.0,12000.0,FEW,12000.0,,,,,,
KRDR,07-05-2020,12:56,METAR,Normal,260,3.0,,,9999.0,,22.9,21.0,29.87,1011.4,,,,,,,,,,,,,,,Clear,72000.0,,,,,,,,,
KRDR,07-05-2020,11:56,METAR,Normal,230,8.0,,,9999.0,,22.7,20.4,29.88,1011.8,,,,,,,,,,,,,,.36 IN,Clear,72000.0,,,,,,,,,
KRDR,07-05-2020,10:56,METAR,Normal,220,5.0,,,9999.0,,20.8,20.8,29.91,1012.8,,,,,,,,,,,,,,,Clear,72000.0,,,,,,,,,
KRDR,07-05-2020,09:56,METAR,Normal,190,3.0,,,9999.0,,20.8,20.8,29.91,1012.8,,,,,,,,,,,,,,,Clear,72000.0,,,,,,,,,
KRDR,07-05-2020,08:56,METAR,Normal,170,4.0,,,9999.0,,21.4,21.4,29.92,1013.2,,,,,,,,,,,,,,,Clear,72000.0,,,,,,,,,
KRDR,07-05-2020,07:56,METAR,Normal,180,4.0,,,9999.0,,21.3,21.3,29.90,1012.5,,,,,,,,,,,,,,,Clear,72000.0,,,,,,,,,
KRDR,07-05-2020,06:56,METAR,Normal,140,4.0,,,9999.0,,22.5,22.5,29.90,1012.5,,,,,,,,,,,,,,,Clear,72000.0,,,,,,,,,
KRDR,07-05-2020,05:56,METAR,Normal,120,7.0,,,9999.0,,23.2,22.7,29.92,1013.2,,,,,,,,,,,,,TRACE,,Clear,72000.0,,,,,,,,,
KRDR,07-05-2020,04:56,METAR,Calm,,0.0,,,9999.0,,23.2,21.6,29.92,1013.2,,,,,,,,,,,,,,,Clear,72000.0,,,,,,,,,
KRDR,07-05-2020,03:56,METAR,Normal,210,5.0,,,9999.0,,24.0,21.7,29.93,1013.6,,,,,,,,,,,,,,,Clear,72000.0,,,,,,,,,
KRDR,07-05-2020,02:56,METAR,Normal,170,4.0,,,9999.0,,25.1,22.4,29.92,1013.3,,,,,,,,,,,,TRACE,,,Clear,72000.0,,,,,,,,,
KRDR,07-05-2020,01:56,METAR,Normal,200,11.0,,,9999.0,,28.5,22.0,29.91,1012.9,,,,,,,,,,,,,,,2/8 Mostly Clear,72000.0,5000.0,FEW,5000.0,,,,,,
KRDR,07-05-2020,00:56,METAR,Normal,200,7.0,,,9999.0,,30.6,23.0,29.92,1013.2,,,,,,,,,,,,,,,,25000.0,6500.0,FEW,6500.0,BKN,25000.0,,,,
KRDR,07-04-2020,23:56,METAR,Normal,210,6.0,,,9999.0,,30.8,21.5,29.91,1012.9,,,,,,,,,,,,,,,,23000.0,4000.0,SCT,4000.0,BKN,23000.0,,,,
KRDR,07-04-2020,22:56,METAR,Normal,210,8.0,,,9999.0,,31.2,22.2,29.93,1013.5,,,,,,,,,,,,,,,Clear,72000.0,,,,,,,,,
KRDR,07-04-2020,21:56,METAR,Normal,200,9.0,,,9999.0,,30.5,22.1,29.96,1014.5,,,,,,,,,,,,,,,,6000.0,4800.0,SCT,4800.0,BKN,6000.0,,,,
KRDR,07-04-2020,20:56,METAR,Normal,180,8.0,,,9999.0,,30.1,23.3,29.98,1015.2,,,,,,,,,,,,,,,2/8 Mostly Clear,72000.0,18000.0,FEW,18000.0,,,,,,
KRDR,07-04-2020,19:56,METAR,Normal,180,4.0,,,9999.0,,29.4,23.5,29.98,1015.2,,,,,,,,,,,,,,,4/8 Partly Cloudy,72000.0,13000.0,FEW,13000.0,FEW,17000.0,SCT,19000.0,,
KRDR,07-04-2020,18:56,METAR,Normal,170,8.0,,,9999.0,,28.5,24.7,29.98,1015.2,,,,,,,,,,,,,,,,15000.0,2000.0,SCT,2000.0,BKN,15000.0,BKN,20000.0,,
KRDR,07-04-2020,17:56,METAR,Normal,150,11.0,,,9999.0,,27.5,24.3,29.99,1015.5,,,,,,,,,,,,,.36 IN,,2/8 Mostly Clear,72000.0,3000.0,FEW,3000.0,FEW,19000.0,,,,
KRDR,07-04-2020,16:56,METAR,Normal,150,9.0,,,9999.0,,26.6,23.6,29.98,1015.2,,,,,,,,,,,,,,,2/8 Mostly Clear,72000.0,13000.0,FEW,13000.0,FEW,19000.0,,,,
KRDR,07-04-2020,15:56,METAR,Normal,180,10.0,,,9999.0,,24.5,22.9,30.01,1016.2,,,,,,,,,,,,,,,,20000.0,13000.0,FEW,13000.0,FEW,16000.0,BKN,20000.0,,
KRDR,07-04-2020,14:56,METAR,Normal,140,9.0,,,9999.0,,21.6,21.6,30.03,1017.0,,,,,,,,,,,.03 IN,.36 IN,,,2/8 Mostly Clear,72000.0,5500.0,FEW,5500.0,,,,,,
KRDR,07-04-2020,14:23,SPECI,Normal,140,4.0,,,9999.0,,20.0,20.0,30.05,1017.7,,,,,,,,,,,,,,,,6000.0,3500.0,FEW,3500.0,BKN,6000.0,BKN,10000.0,,
KRDR,07-04-2020,14:14,SPECI,Normal,100,6.0,,,9999.0,Light Rain/Distant Lightning,20.0,20.0,30.05,1017.7,61,12,,,,,,,,,,,,,,6000.0,3500.0,SCT,3500.0,BKN,6000.0,BKN,10000.0,,
KRDR,07-04-2020,13:56,METAR,Calm,,0.0,,,9999.0,Thunderstorm and Rain or Snow Showers,20.2,20.2,30.07,1018.3,92,,,,,,,,,,.33 IN,,,,,6000.0,6000.0,BKN,6000.0,BKN,9600.0,,,,
KRDR,07-04-2020,13:51,SPECI,Normal,150,6.0,,,9999.0,Thunderstorm and Rain or Snow Showers,20.0,20.0,30.06,1018.0,92,,,,,,,,,,,,,,,9000.0,6000.0,SCT,6000.0,BKN,9100.0,,,,
KRDR,07-04-2020,13:42,SPECI,Normal,120,5.0,,,9999.0,Dry Thunderstorm,20.0,20.0,30.05,1017.7,91,,,,,,,,,,,,,,,10000.0,2400.0,FEW,2400.0,SCT,9100.0,BKN,10000.0,,
KRDR,07-04-2020,13:32,SPECI,Normal,100,8.0,,,9999.0,Dry Thunderstorm,20.0,20.0,30.04,1017.3,91,,,,,,,,,,,,,,,2500.0,2500.0,BKN,2500.0,BKN,11000.0,,,,
KRDR,07-04-2020,13:30,SPECI,Normal,90,12.0,,,9999.0,,20.0,20.0,30.04,1017.3,,,,,,,,,,,,,,,,2700.0,2700.0,BKN,2700.0,BKN,12000.0,,,,
KRDR,07-04-2020,13:27,SPECI,Normal,90,12.0,,,9999.0,Light Rain,20.0,20.0,30.04,1017.3,61,,,,,,,,,,,,,,,2700.0,2700.0,BKN,2700.0,,,,,,
KRDR,07-04-2020,13:19,SPECI,Normal,80,15.0,,,2000.0,Thunderstorm and Rain or Snow Showers/Mist,19.0,19.0,30.04,1017.3,92,10,,,,,,,,,,,,,,2600.0,2600.0,BKN,2600.0,OVC,5000.0,,,,
KRDR,07-04-2020,12:59,SPECI,Normal,100,15.0,,,9999.0,Thunderstorm and Rain or Snow Showers,20.0,19.0,30.05,1017.6,92,,,,,,,,,,,,,,,4900.0,4900.0,BKN,4900.0,BKN,5500.0,OVC,7000.0,,
KRDR,07-04-2020,12:56,METAR,Normal,100,15.0,,70/30KTS,9999.0,Dry Thunderstorm,19.8,19.3,30.04,1017.3,91,,,,,,,,,,TRACE,,,,,4900.0,4900.0,BKN,4900.0,OVC,6000.0,,,,
KRDR,07-04-2020,12:23,SPECI,Normal,90,15.0,24.0,,9999.0,Distant Lightning,19.0,19.0,30.05,1017.7,12,,,,,,,,,,,,,,4/8 Partly Cloudy,72000.0,5000.0,SCT,5000.0,,,,,,
KRDR,07-04-2020,12:10,SPECI,Normal,70,20.0,30.0,,9999.0,Dry Thunderstorm,19.0,19.0,30.04,1017.3,91,,,,,,,,,,,,,,,5000.0,1700.0,SCT,1700.0,BKN,5000.0,,,,
KRDR,07-04-2020,12:06,SPECI,Normal,70,20.0,30.0,,9999.0,Thunderstorm and Rain or Snow Showers,19.0,19.0,30.04,1017.3,92,,,,,,,,,,,,,,,5000.0,1700.0,SCT,1700.0,BKN,5000.0,,,,
KRDR,07-04-2020,11:56,METAR,Normal,,,,040/33KTS,9999.0,Thunderstorm and Rain or Snow Showers,19.5,19.5,30.06,1017.9,92,,,,,,,,,,.31 IN,,.33 IN,.33 IN,,1700.0,1700.0,BKN,1700.0,OVC,5000.0,,,,
KRDR,07-04-2020,11:44,SPECI,Normal,30,18.0,27.0,,8000.0,Heavy Thunderstorm and Rain or Snow Showers,20.0,20.0,30.10,1019.3,95,,,,,,,,,,,,,,,1700.0,1700.0,BKN,1700.0,OVC,2400.0,,,,
KRDR,07-04-2020,11:28,SPECI,Normal,,,,,9999.0,Thunderstorm and Rain or Snow Showers,21.0,21.0,30.06,1017.9,92,,,,,,,,,,,,,,,1600.0,900.0,FEW,900.0,BKN,1600.0,OVC,2500.0,,
KRDR,07-04-2020,11:24,SPECI,Normal,40,5.0,,,9999.0,Thunderstorm,21.0,21.0,30.05,1017.5,,,,17,,,,,,,,,,,,2500.0,900.0,FEW,900.0,SCT,1600.0,OVC,2500.0,,
KRDR,07-04-2020,11:01,SPECI,Normal,70,9.0,,,9999.0,Distant Lightning,21.0,21.0,30.04,1017.2,12,,,,,,,,,,,,,,,2600.0,800.0,FEW,800.0,BKN,2600.0,BKN,4200.0,OVC,5500.0
KRDR,07-04-2020,10:56,METAR,Normal,70,9.0,,,9999.0,Distant Lightning,21.4,21.4,30.03,1016.9,12,,,,,,,,,,.02 IN,,,,,4200.0,2700.0,FEW,2700.0,BKN,4200.0,BKN,6000.0,OVC,12000.0
KRDR,07-04-2020,10:49,SPECI,Normal,90,10.0,,,9999.0,Dry Thunderstorm,21.0,21.0,30.02,1016.5,91,,,,,,,,,,,,,,,4200.0,4200.0,BKN,4200.0,BKN,5500.0,BKN,12000.0,,
KRDR,07-04-2020,10:31,SPECI,Normal,100,10.0,,,9999.0,Thunderstorm and Rain or Snow Showers,22.0,22.0,30.01,1016.2,92,,,,,,,,,,,,,,,3700.0,3700.0,BKN,3700.0,BKN,12000.0,,,,
KRDR,07-04-2020,10:18,SPECI,Normal,110,11.0,,,,Dry Thunderstorm,22.0,22.0,30.02,1016.5,91,,,,,,,,,,,,,,,,,,,,,,,,
KRDR,07-04-2020,10:17,SPECI,Normal,,,,,9999.0,Light Rain,22.0,22.0,30.02,1016.5,61,,,,,,,,,,,,,,,3600.0,3600.0,OVC,3600.0,,,,,,
KRDR,07-04-2020,10:05,SPECI,Normal,120,5.0,,,9999.0,Thunderstorm and Rain or Snow Showers,23.0,21.0,30.03,1016.8,92,,,,,,,,,,,,,,,3600.0,800.0,FEW,800.0,BKN,3600.0,,,,
KRDR,07-04-2020,10:02,SPECI,Normal,120,5.0,,,9999.0,Thunderstorm and Rain or Snow Showers,23.0,21.0,30.03,1016.8,92,,,,,,,,,,,,,,,3500.0,3500.0,OVC,3500.0,,,,,,
KRDR,07-04-2020,09:56,METAR,Normal,100,6.0,,,9999.0,Distant Lightning,22.3,20.4,30.04,1017.2,12,,,,,,,,,,,,,,,3500.0,3500.0,OVC,3500.0,,,,,,
KRDR,07-04-2020,08:56,METAR,Normal,90,6.0,,,9999.0,Distant Lightning,21.9,21.7,30.04,1017.2,12,,,,,,,,,,,,,,,5000.0,4000.0,SCT,4000.0,OVC,5000.0,,,,
KRDR,07-04-2020,07:56,METAR,Normal,120,8.0,,,9999.0,,22.8,21.9,30.04,1017.2,,,,,,,,,,,,,,,2/8 Mostly Clear,72000.0,6500.0,FEW,6500.0,,,,,,
KRDR,07-04-2020,06:56,METAR,Normal,80,6.0,,,9999.0,,23.5,21.4,30.06,1017.9,,,,,,,,,,,,,,,Clear,72000.0,,,,,,,,,
KRDR,07-04-2020,05:56,METAR,Normal,120,7.0,,,9999.0,,24.9,23.1,30.06,1017.8,,,,,,,,,,,,,,,4/8 Partly Cloudy,72000.0,6000.0,FEW,6000.0,SCT,9100.0,,,,
KRDR,07-04-2020,04:56,METAR,Normal,160,6.0,,,9999.0,,25.3,22.4,30.04,1017.1,,,,,,,,,,,,,,,Clear,72000.0,,,,,,,,,
KRDR,07-04-2020,03:56,METAR,Normal,160,5.0,,,9999.0,,26.0,22.2,30.03,1016.9,,,,,,,,,,,,,,,Clear,72000.0,,,,,,,,,
KRDR,07-04-2020,02:56,METAR,Normal,160,6.0,,,9999.0,,27.1,23.1,30.02,1016.5,,,,,,,,,,,,,,,2/8 Mostly Clear,72000.0,6000.0,FEW,6000.0,,,,,,
KRDR,07-04-2020,01:56,METAR,Normal,170,6.0,,,9999.0,,29.4,23.5,30.01,1016.1,,,,,,,,,,,,,,,2/8 Mostly Clear,72000.0,5500.0,FEW,5500.0,,,,,,
KRDR,07-04-2020,00:56,METAR,Normal,140,5.0,,,9999.0,,31.3,23.4,30.02,1016.5,,,,,,,,,,,,,,,,8000.0,6000.0,SCT,6000.0,BKN,8000.0,,,,
KRDR,07-03-2020,23:56,METAR,Normal,140,7.0,,,9999.0,,31.7,22.4,30.02,1016.6,,,,,,,,,,,,,,,4/8 Partly Cloudy,72000.0,5500.0,SCT,5500.0,,,,,,
KRDR,07-03-2020,22:56,METAR,Normal,130,6.0,,,9999.0,,32.4,22.7,30.03,1016.9,,,,,,,,,,,,,,,Clear,72000.0,,,,,,,,,
KRDR,07-03-2020,21:56,METAR,Normal,180,4.0,,,9999.0,,31.9,22.8,30.04,1017.2,,,,,,,,,,,,,,,2/8 Mostly Clear,72000.0,4700.0,FEW,4700.0,,,,,,
KRDR,07-03-2020,20:56,METAR,Normal,190,7.0,,,9999.0,,31.6,23.4,30.04,1017.2,,,,,,,,,,,,,,,2/8 Mostly Clear,72000.0,4200.0,FEW,4200.0,,,,,,
KRDR,07-03-2020,19:56,METAR,Normal,140,9.0,,,9999.0,,31.2,21.9,30.05,1017.5,,,,,,,,,,,,,,,Clear,72000.0,,,,,,,,,
KRDR,07-03-2020,18:56,METAR,Normal,140,4.0,,,9999.0,,30.8,21.8,30.06,1017.9,,,,,,,,,,,,,,,4/8 Partly Cloudy,72000.0,18000.0,SCT,18000.0,,,,,,
KRDR,07-03-2020,17:56,METAR,Calm,,0.0,,,9999.0,,30.3,21.6,30.07,1018.2,,,,,,,,,,,,,,,4/8 Partly Cloudy,72000.0,18000.0,SCT,18000.0,,,,,,
KRDR,07-03-2020,16:56,METAR,Normal,,,,,,,30.2,20.7,30.07,1018.2,,,,,,,,,,,,,,,,19000.0,16000.0,SCT,16000.0,BKN,19000.0,BKN,21000.0,,
KRDR,07-03-2020,15:56,METAR,Normal,180,6.0,,,9999.0,,28.7,23.1,30.07,1018.2,,,,,,,,,,,,,,,4/8 Partly Cloudy,72000.0,18000.0,SCT,18000.0,,,,,,
KRDR,07-03-2020,14:56,METAR,Normal,180,4.0,,,9999.0,,26.8,22.6,30.07,1018.2,,,,,,,,,,,,,,,,18000.0,18000.0,BKN,18000.0,,,,,,
KRDR,07-03-2020,13:56,METAR,Normal,290,4.0,,,9999.0,,26.4,21.8,30.06,1017.9,,,,,,,,,,,,,,,Clear,72000.0,,,,,,,,,
KRDR,07-03-2020,12:56,METAR,Normal,320,4.0,,,9999.0,,24.4,20.9,30.05,1017.5,,,,,,,,,,,,,,,4/8 Partly Cloudy,72000.0,19000.0,SCT,19000.0,,,,,,
KRDR,07-03-2020,11:56,METAR,Normal,300,4.0,,,9999.0,,20.3,20.3,30.04,1017.3,,,,,,,,,,,,,,,4/8 Partly Cloudy,72000.0,21000.0,SCT,21000.0,,,,,,
KRDR,07-03-2020,10:56,METAR,Normal,310,4.0,,,9999.0,,21.8,20.4,30.01,1016.2,,,,,,,,,,,,,,,Clear,72000.0,,,,,,,,,
KRDR,07-03-2020,09:56,METAR,Normal,120,6.0,,,9999.0,,22.8,18.9,29.98,1015.1,,,,,,,,,,,,,,,Clear,72000.0,,,,,,,,,
KRDR,07-03-2020,08:56,METAR,Normal,120,7.0,,,9999.0,,22.5,19.2,29.99,1015.4,,,,,,,,,,,,,,,Clear,72000.0,,,,,,,,,
KRDR,07-03-2020,07:56,METAR,Normal,110,8.0,,,9999.0,,22.4,18.6,30.01,1016.2,,,,,,,,,,,,,,,Clear,72000.0,,,,,,,,,
KRDR,07-03-2020,06:56,METAR,Calm,,0.0,,,9999.0,,23.3,17.7,30.05,1017.5,,,,,,,,,,,,,,,Clear,72000.0,,,,,,,,,
KRDR,07-03-2020,06:00,SPECI,Normal,270,15.0,,,9999.0,,26.0,24.0,30.05,1017.5,,,,,,,,,,,,,,,2/8 Mostly Clear,72000.0,2600.0,FEW,2600.0,,,,,,
KRDR,07-03-2020,05:56,METAR,Normal,230,12.0,,,9999.0,,26.4,23.6,30.04,1017.1,,,,,,,,,,,,,,,Clear,72000.0,,,,,,,,,
KRDR,07-03-2020,04:56,METAR,Normal,180,11.0,,,9999.0,,26.1,23.5,30.01,1016.1,,,,,,,,,,,,,,,Clear,72000.0,,,,,,,,,
KRDR,07-03-2020,03:56,METAR,Normal,180,9.0,,,9999.0,,26.0,23.6,30.00,1015.8,,,,,,,,,,,,,,,Clear,72000.0,,,,,,,,,
KRDR,07-03-2020,02:56,METAR,Normal,140,9.0,,,9999.0,,27.1,23.9,29.96,1014.5,,,,,,,,,,,,,,,Clear,72000.0,,,,,,,,,
KRDR,07-03-2020,01:56,METAR,Normal,150,9.0,,,9999.0,,28.3,24.3,29.95,1014.1,,,,,,,,,,,,,,,Clear,72000.0,,,,,,,,,
KRDR,07-03-2020,00:56,METAR,Normal,140,7.0,,,9999.0,,29.6,23.3,29.95,1014.1,,,,,,,,,,,,,,,Clear,72000.0,,,,,,,,,
KRDR,07-02-2020,23:56,METAR,Normal,140,13.0,,,9999.0,,31.5,23.0,29.94,1013.8,,,,,,,,,,,,,,,Clear,72000.0,,,,,,,,,
KRDR,07-02-2020,22:56,METAR,Normal,160,14.0,,,9999.0,,32.3,23.2,29.96,1014.5,,,,,,,,,,,,,,,Clear,72000.0,,,,,,,,,
KRDR,07-02-2020,21:56,METAR,Normal,160,13.0,17.0,,9999.0,,32.4,23.6,29.98,1015.2,,,,,,,,,,,,,,,Clear,72000.0,,,,,,,,,
KRDR,07-02-2020,20:56,METAR,Normal,170,15.0,,,9999.0,,32.3,23.2,29.99,1015.5,,,,,,,,,,,,,,,Clear,72000.0,,,,,,,,,
KRDR,07-02-2020,19:56,METAR,Normal,160,12.0,,,9999.0,,31.7,22.9,29.99,1015.5,,,,,,,,,,,,,,,Clear,72000.0,,,,,,,,,
KRDR,07-02-2020,18:56,METAR,Normal,170,17.0,,,9999.0,,30.9,22.7,29.99,1015.5,,,,,,,,,,,,,,,Clear,72000.0,,,,,,,,,
KRDR,07-02-2020,17:56,METAR,Normal,170,13.0,,,9999.0,,30.3,23.7,30.00,1015.9,,,,,,,,,,,,,,,Clear,72000.0,,,,,,,,,
KRDR,07-02-2020,16:56,METAR,Normal,180,13.0,,,9999.0,,29.4,23.3,30.00,1015.9,,,,,,,,,,,,,,,Clear,72000.0,,,,,,,,,
KRDR,07-02-2020,15:56,METAR,Normal,180,11.0,,,9999.0,,28.3,24.1,30.00,1015.9,,,,,,,,,,,,,,,Clear,72000.0,,,,,,,,,
KRDR,07-02-2020,14:56,METAR,Normal,160,12.0,,,9999.0,,26.8,24.2,30.00,1015.9,,,,,,,,,,,,,,,Clear,72000.0,,,,,,,,,
KRDR,07-02-2020,13:56,METAR,Normal,150,11.0,,,9999.0,,24.9,24.2,29.99,1015.6,,,,,,,,,,,,,,,Clear,72000.0,,,,,,,,,
KRDR,07-02-2020,12:56,METAR,Normal,160,8.0,,,9999.0,,23.1,23.1,29.99,1015.6,,,,,,,,,,,,,,,Clear,72000.0,,,,,,,,,
KRDR,07-02-2020,11:56,METAR,Normal,170,6.0,,,9999.0,,21.2,21.2,29.99,1015.7,,,,,,,,,,,,,,,Clear,72000.0,,,,,,,,,
KRDR,07-02-2020,10:56,METAR,Normal,140,5.0,,,9999.0,,19.6,19.6,29.98,1015.3,,,,,,,,,,,,,,,Clear,72000.0,,,,,,,,,
KRDR,07-02-2020,09:56,METAR,Normal,150,6.0,,,9999.0,,19.7,19.7,29.97,1015.0,,,,,,,,,,,,,,,Clear,72000.0,,,,,,,,,
KRDR,07-02-2020,08:56,METAR,Normal,150,6.0,,,9999.0,,20.2,20.2,29.96,1014.6,,,,,,,,,,,,,,,Clear,72000.0,,,,,,,,,
KRDR,07-02-2020,07:56,METAR,Normal,140,4.0,,,9999.0,,21.2,21.2,29.96,1014.6,,,,,,,,,,,,,,,Clear,72000.0,,,,,,,,,
KRDR,07-02-2020,06:56,METAR,Normal,180,7.0,,,9999.0,,21.3,21.3,29.96,1014.6,,,,,,,,,,,,,,,Clear,72000.0,,,,,,,,,
KRDR,07-02-2020,05:56,METAR,Normal,180,10.0,,,9999.0,,21.9,21.7,29.94,1014.0,,,,,,,,,,,,,,,Clear,72000.0,,,,,,,,,
KRDR,07-02-2020,04:56,METAR,Normal,170,9.0,,,9999.0,,22.4,21.7,29.93,1013.7,,,,,,,,,,,,,,,Clear,72000.0,,,,,,,,,
KRDR,07-02-2020,03:56,METAR,Normal,140,7.0,,,9999.0,,23.1,21.9,29.94,1014.0,,,,,,,,,,,,,,,Clear,72000.0,,,,,,,,,
KRDR,07-02-2020,02:56,METAR,Normal,90,3.0,,,9999.0,,24.0,19.1,29.92,1013.3,,,,,,,,,,,,TRACE,,,Clear,72000.0,,,,,,,,,
KRDR,07-02-2020,01:56,METAR,Normal,120,3.0,,,9999.0,,25.5,17.7,29.91,1012.9,,,,,,,,,,,,,,,Clear,72000.0,,,,,,,,,
KRDR,07-02-2020,00:56,METAR,Normal,160,5.0,,,9999.0,,27.1,17.8,29.91,1012.9,,,,,,,,,,,TRACE,,,,Clear,72000.0,,,,,,,,,
KRDR,07-02-2020,00:03,SPECI,Normal,180,7.0,,,9999.0,,27.0,18.0,29.90,1012.6,,,,,,,,,,,,,,,Clear,72000.0,,,,,,,,,
KRDR,07-01-2020,23:56,METAR,Normal,180,6.0,,,9999.0,Light Rain,27.4,16.6,29.90,1012.6,61,,,,,,,,,,TRACE,,TRACE,,Clear,72000.0,,,,,,,,,
KRDR,07-01-2020,22:56,METAR,Normal,210,6.0,,,9999.0,,27.8,17.0,29.89,1012.2,,,,,,,,,,,,,,,Clear,72000.0,,,,,,,,,
KRDR,07-01-2020,21:56,METAR,Normal,220,4.0,,,9999.0,,27.4,18.1,29.89,1012.3,,,,,,,,,,,,,,,Clear,72000.0,,,,,,,,,
KRDR,07-01-2020,20:56,METAR,Normal,220,7.0,,,9999.0,,27.3,19.1,29.88,1012.0,,,,,,,,,,,,,,,Clear,72000.0,,,,,,,,,
KRDR,07-01-2020,19:56,METAR,Normal,190,10.0,,,9999.0,,26.8,18.4,29.88,1012.0,,,,,,,,,,,,,,,Clear,72000.0,,,,,,,,,
KRDR,07-01-2020,18:56,METAR,Normal,210,10.0,,,9999.0,,26.0,19.8,29.87,1011.6,,,,,,,,,,,,,,,2/8 Mostly Clear,72000.0,20000.0,FEW,20000.0,,,,,,
KRDR,07-01-2020,17:56,METAR,Normal,230,10.0,,,9999.0,,25.1,20.5,29.87,1011.7,,,,,,,,,,,,,TRACE,,2/8 Mostly Clear,72000.0,20000.0,FEW,20000.0,,,,,,
KRDR,07-01-2020,16:56,METAR,Normal,210,8.0,,,9999.0,,24.2,20.1,29.86,1011.3,,,,,,,,,,,,,,,4/8 Partly Cloudy,72000.0,2100.0,SCT,2100.0,,,,,,
KRDR,07-01-2020,16:26,SPECI,Normal,220,7.0,,,9999.0,,24.0,20.0,29.86,1011.3,,,,,,,,,,,,,,,4/8 Partly Cloudy,72000.0,2000.0,SCT,2000.0,,,,,,
KRDR,07-01-2020,16:06,SPECI,Normal,230,8.0,,,9999.0,,24.0,20.0,29.85,1011.0,,,,,,,,,,,,,,,,2000.0,2000.0,BKN,2000.0,,,,,,
KRDR,07-01-2020,15:56,METAR,Normal,210,10.0,,,9999.0,,23.5,20.0,29.85,1011.0,,,,,,,,,,,,,,,,1900.0,1900.0,BKN,1900.0,,,,,,
KRDR,07-01-2020,15:26,SPECI,Normal,230,9.0,,,9999.0,,23.0,21.0,29.84,1010.7,,,,,,,,,,,,,,,,2100.0,2100.0,OVC,2100.0,,,,,,
KRDR,07-01-2020,15:06,SPECI,Normal,220,10.0,,,9999.0,,22.0,20.0,29.84,1010.7,,,,,,,,,,,,,,,,1500.0,1500.0,BKN,1500.0,OVC,2100.0,,,,
KRDR,07-01-2020,14:56,METAR,Normal,220,9.0,,,9999.0,,21.3,20.1,29.84,1010.7,,,,,,,,,,,,TRACE,,,,1400.0,1400.0,OVC,1400.0,,,,,,
KRDR,07-01-2020,14:46,SPECI,Normal,230,11.0,,,9999.0,,21.0,21.0,29.83,1010.4,,,,,,,,,,,,,,,,1400.0,1400.0,OVC,1400.0,,,,,,
KRDR,07-01-2020,14:26,SPECI,Normal,230,10.0,,,9999.0,,21.0,21.0,29.82,1010.0,,,,,,,,,,,,,,,,1600.0,1600.0,BKN,1600.0,,,,,,
KRDR,07-01-2020,14:16,SPECI,Normal,220,13.0,,,9999.0,,22.0,21.0,29.81,1009.6,,,,,,,,,,,,,,,4/8 Partly Cloudy,72000.0,1700.0,SCT,1700.0,,,,,,
KRDR,07-01-2020,13:56,METAR,Normal,230,9.0,,,9999.0,,21.5,21.5,29.81,1009.6,,,,,,,,,,,,,,,,1300.0,1200.0,SCT,1200.0,OVC,1800.0,,,,
KRDR,07-01-2020,13:55,SPECI,Normal,230,9.0,,,9999.0,,22.0,22.0,29.81,1009.6,,,,,,,,,,,,,,,,1100.0,1200.0,SCT,1200.0,OVC,1800.0,,,,
KRDR,07-01-2020,13:45,SPECI,Normal,230,11.0,,,9999.0,,21.0,21.0,29.80,1009.3,,,,,,,,,,,,,,,,1100.0,1100.0,BKN,1100.0,OVC,2100.0,,,,
KRDR,07-01-2020,13:35,SPECI,Normal,210,9.0,,,9999.0,,20.0,20.0,29.80,1009.3,,,,,,,,,,,,,,,,1800.0,1000.0,SCT,1000.0,BKN,1800.0,OVC,2300.0,,
KRDR,07-01-2020,13:25,SPECI,Normal,210,8.0,,,9999.0,,20.0,20.0,29.80,1009.3,,,,,,,,,,,,,,,,1100.0,1000.0,SCT,1000.0,OVC,2000.0,,,,
KRDR,07-01-2020,13:05,SPECI,Normal,220,8.0,,,9999.0,,20.0,20.0,29.79,1009.0,,,,,,,,,,,,,,,,1100.0,1100.0,OVC,1100.0,,,,,,
KRDR,07-01-2020,12:56,METAR,Normal,190,9.0,,,9999.0,,20.0,20.0,29.78,1008.7,,,,,,,,,,,TRACE,,,,,1200.0,1200.0,BKN,1200.0,,,,,,
KRDR,07-01-2020,12:47,SPECI,Normal,190,7.0,,,9999.0,,20.0,20.0,29.78,1008.7,,,,,,,,,,,,,,,,1200.0,1200.0,BKN,1200.0,BKN,2500.0,BKN,3100.0,,
KRDR,07-01-2020,12:37,SPECI,Normal,190,6.0,,,9999.0,,20.0,20.0,29.78,1008.7,,,,,,,,,,,,,,,,1000.0,1000.0,SCT,1000.0,SCT,1500.0,BKN,2600.0,BKN,3100.0
KRDR,07-01-2020,12:27,SPECI,Normal,180,6.0,,,9999.0,,20.0,20.0,29.77,1008.3,,,,,,,,,,,,,,,,1400.0,900.0,SCT,900.0,BKN,1400.0,BKN,2900.0,BKN,4200.0
KRDR,07-01-2020,12:17,SPECI,Normal,190,6.0,,,9999.0,,20.0,20.0,29.77,1008.3,,,,,,,,,,,,,,,,900.0,900.0,SCT,900.0,BKN,2600.0,BKN,3100.0,BKN,4300.0
KRDR,07-01-2020,12:07,SPECI,Normal,180,6.0,,,9999.0,,20.0,20.0,29.77,1008.3,,,,,,,,,,,,,,,,700.0,900.0,BKN,900.0,OVC,2400.0,,,,
KRDR,07-01-2020,11:57,SPECI,Normal,180,8.0,,,9999.0,,20.0,20.0,29.78,1008.7,,,,,,,,,,,,,,,,700.0,700.0,BKN,700.0,OVC,2400.0,,,,
KRDR,07-01-2020,11:56,METAR,Normal,180,7.0,,,9999.0,Light Drizzle,19.5,19.5,29.78,1008.7,51,,,,,,,,,,.02 IN,,.27 IN,5.68 IN,,700.0,700.0,BKN,700.0,OVC,2400.0,,,,
KRDR,07-01-2020,11:53,SPECI,Normal,190,9.0,,,9999.0,Light Rain,20.0,20.0,29.78,1008.7,61,,,,,,,,,,,,,,,700.0,700.0,BKN,700.0,OVC,2400.0,,,,
KRDR,07-01-2020,11:13,SPECI,Normal,150,11.0,,,9999.0,Light Rain,20.0,20.0,29.75,1007.6,61,,,,,,,,,,,,,,,2100.0,600.0,FEW,600.0,SCT,1200.0,BKN,2100.0,BKN,2700.0
KRDR,07-01-2020,11:09,SPECI,Normal,140,10.0,,,9999.0,,20.0,20.0,29.75,1007.6,,,,,,,,,,,,,,,,1400.0,800.0,FEW,800.0,SCT,1200.0,BKN,2100.0,,
KRDR,07-01-2020,11:06,SPECI,Normal,120,10.0,,,9999.0,,20.0,20.0,29.74,1007.2,,,,,,,,,,,,,,,,1400.0,1200.0,SCT,1200.0,BKN,2100.0,,,,
KRDR,07-01-2020,10:56,METAR,Normal,130,10.0,,,9999.0,,19.5,19.5,29.73,1006.8,,,,,,,,,,,.02 IN,,,,,1400.0,700.0,FEW,700.0,BKN,1400.0,OVC,1900.0,,
KRDR,07-01-2020,10:54,SPECI,Normal,130,11.0,,,9999.0,,20.0,20.0,29.73,1006.8,,,,,,,,,,,,,,,,1400.0,700.0,FEW,700.0,BKN,1400.0,OVC,1900.0,,
KRDR,07-01-2020,10:53,SPECI,Normal,130,12.0,,,9999.0,,20.0,20.0,29.73,1006.8,,,,,,,,,,,,,,,,1400.0,1400.0,BKN,1400.0,OVC,1900.0,,,,
KRDR,07-01-2020,10:36,SPECI,Normal,150,9.0,,,9999.0,Light Rain,20.0,20.0,29.75,1007.6,61,,,,,,,,,,,,,,,1600.0,1800.0,OVC,1800.0,,,,,,
KRDR,07-01-2020,10:16,SPECI,Normal,160,7.0,,,9999.0,Light Drizzle,20.0,20.0,29.72,1006.5,51,,,,,,,,,,,,,,,2200.0,2200.0,OVC,2200.0,,,,,,
KRDR,07-01-2020,10:11,SPECI,Normal,160,6.0,,,9999.0,,20.0,20.0,29.72,1006.5,,,,,,,,,,,,,,,,2200.0,2200.0,OVC,2200.0,,,,,,
KRDR,07-01-2020,10:03,SPECI,Normal,120,5.0,,,9999.0,Light Rain,20.0,20.0,29.69,1005.5,61,,,,,,,,,,,,,,,2300.0,2300.0,OVC,2300.0,,,,,,
KRDR,07-01-2020,09:56,METAR,Normal,110,6.0,,,9999.0,,19.5,19.5,29.68,1005.1,,,,,,,,,,,TRACE,,,,,2300.0,2300.0,BKN,2300.0,OVC,3000.0,,,,
KRDR,07-01-2020,09:38,SPECI,Normal,100,5.0,,,9999.0,,20.0,20.0,29.70,1005.7,,,,,,,,,,,,,,,,2300.0,1000.0,FEW,1000.0,BKN,2300.0,BKN,3000.0,BKN,15000.0
KRDR,07-01-2020,09:08,SPECI,Normal,170,6.0,,,9999.0,,20.0,20.0,29.71,1006.1,,,,,,,,,,,,,,,4/8 Partly Cloudy,72000.0,700.0,SCT,700.0,SCT,13000.0,,,,
KRDR,07-01-2020,08:56,METAR,Calm,,0.0,,,9999.0,Light Rain,19.8,19.8,29.70,1005.7,61,,,,,,,,,,.03 IN,.23 IN,,,,13000.0,500.0,SCT,500.0,BKN,13000.0,,,,
KRDR,07-01-2020,08:55,SPECI,Calm,,0.0,,,9999.0,Light Rain,20.0,20.0,29.70,1005.7,61,,,,,,,,,,,,,,,13000.0,500.0,SCT,500.0,BKN,13000.0,,,,
KRDR,07-01-2020,08:50,SPECI,Normal,60,4.0,,,9999.0,,20.0,20.0,29.69,1005.4,,,,,,,,,,,,,,,,600.0,600.0,BKN,600.0,,,,,,
KRDR,07-01-2020,08:40,SPECI,Normal,110,7.0,18.0,,9999.0,,20.0,20.0,29.69,1005.4,,,,,,,,,,,,,,,2/8 Mostly Clear,72000.0,700.0,FEW,700.0,,,,,,
KRDR,07-01-2020,08:36,SPECI,Normal,100,9.0,18.0,,9999.0,Light Rain,20.0,20.0,29.70,1005.7,61,,,,,,,,,,,,,,,2800.0,700.0,FEW,700.0,BKN,2800.0,,,,
KRDR,07-01-2020,08:16,SPECI,Normal,110,9.0,,,9999.0,Light Rain/Distant Lightning,20.0,20.0,29.70,1005.7,61,12,,,,,,,,,,,,,,5000.0,800.0,FEW,800.0,FEW,2100.0,FEW,2600.0,BKN,5000.0
KRDR,07-01-2020,08:11,SPECI,Normal,130,9.0,,,9999.0,Light Rain/Distant Lightning,20.0,20.0,29.72,1006.4,61,12,,,,,,,,,,,,,4/8 Partly Cloudy,72000.0,2200.0,FEW,2200.0,FEW,2600.0,SCT,4200.0,,
KRDR,07-01-2020,07:56,METAR,Normal,120,9.0,,,9999.0,Thunderstorm and Rain or Snow Showers,19.9,19.9,29.70,1005.7,92,,,,,,,,,,.06 IN,,,,,2400.0,2400.0,BKN,2400.0,,,,,,
KRDR,07-01-2020,07:38,SPECI,Normal,210,4.0,,,9999.0,Thunderstorm and Rain or Snow Showers,20.0,20.0,29.74,1007.1,92,,,,,,,,,,,,,,,2500.0,2300.0,SCT,2300.0,BKN,2800.0,BKN,9600.0,,
KRDR,07-01-2020,07:32,SPECI,Normal,240,6.0,,,9999.0,Light Rain/Distant Lightning,20.0,20.0,29.72,1006.4,61,12,,,,,,,,,,,,,,2500.0,2500.0,BKN,2500.0,BKN,3400.0,BKN,9600.0,,
KRDR,07-01-2020,07:12,SPECI,Normal,90,6.0,,,9999.0,Light Rain,20.0,20.0,29.70,1005.7,61,,,,,,,,,,,,,,,3500.0,2000.0,FEW,2000.0,BKN,3500.0,BKN,4500.0,BKN,6000.0
KRDR,07-01-2020,06:56,METAR,Normal,70,6.0,,,9999.0,Thunderstorm and Rain or Snow Showers/Mist,19.5,19.5,29.71,1006.1,92,10,,,,,,,,,.14 IN,,,,,4500.0,2100.0,FEW,2100.0,BKN,4500.0,BKN,6000.0,BKN,7000.0
KRDR,07-01-2020,06:42,SPECI,Normal,280,8.0,,,9999.0,Thunderstorm with Rain or Snow,20.0,20.0,29.73,1006.8,,,,95,,,,,,,,,,,,7000.0,2300.0,FEW,2300.0,SCT,4700.0,BKN,7000.0,,
KRDR,07-01-2020,06:25,SPECI,Normal,40,6.0,,,9999.0,Light Rain/Distant Lightning,19.0,19.0,29.70,1005.8,61,12,,,,,,,,,,,,,4/8 Partly Cloudy,72000.0,2400.0,SCT,2400.0,SCT,4700.0,,,,
KRDR,07-01-2020,06:14,SPECI,Normal,30,13.0,17.0,,9999.0,Thunderstorm and Rain or Snow Showers,19.0,19.0,29.68,1005.1,92,,,,,,,,,,,,,,4/8 Partly Cloudy,72000.0,1100.0,FEW,1100.0,SCT,2900.0,SCT,4700.0,,
KRDR,07-01-2020,06:13,SPECI,Normal,30,12.0,17.0,,9999.0,Thunderstorm and Rain or Snow Showers,19.0,19.0,29.68,1005.1,92,,,,,,,,,,,,,,,4700.0,1600.0,SCT,1600.0,SCT,2900.0,BKN,4700.0,,
KRDR,07-01-2020,06:04,SPECI,Normal,80,12.0,18.0,,9999.0,Thunderstorm and Rain or Snow Showers,19.0,19.0,29.71,1006.1,92,,,,,,,,,,,,,,,3000.0,500.0,FEW,500.0,BKN,3000.0,BKN,7000.0,,
KRDR,07-01-2020,05:56,METAR,Normal,30,12.0,,,9999.0,Thunderstorm and Rain or Snow Showers,19.2,19.2,29.69,1005.4,92,,,,,,,,,,.22 IN,,3.09 IN,,4/8 Partly Cloudy,72000.0,3800.0,SCT,3800.0,SCT,7500.0,,,,
KRDR,07-01-2020,05:31,SPECI,Normal,30,12.0,,,9999.0,Thunderstorm with Rain or Snow,19.0,19.0,29.71,1006.1,,,,95,,,,,,,,,,,,4600.0,4600.0,BKN,4600.0,,,,,,
KRDR,07-01-2020,04:56,METAR,Calm,,0.0,,,2800.0,Heavy Thunderstorm and Rain or Snow Showers/Mist,19.5,19.5,29.75,1007.5,95,10,,,,,,,,,1.23 IN,,,,,3000.0,3000.0,OVC,3000.0,,,,,,
KRDR,07-01-2020,04:26,SPECI,Normal,340,13.0,,,8000.0,Heavy Thunderstorm and Rain or Snow Showers/Mist,20.0,20.0,29.75,1007.5,95,10,,,,,,,,,,,,,,2300.0,2300.0,OVC,2300.0,,,,,,
KRDR,07-01-2020,04:16,SPECI,Normal,330,16.0,23.0,,3600.0,Heavy Thunderstorm and Rain or Snow Showers/Mist,20.0,20.0,29.74,1007.1,95,10,,,,,,,,,,,,,,2200.0,2200.0,OVC,2200.0,,,,,,
KRDR,07-01-2020,04:06,SPECI,Normal,310,11.0,,,8000.0,Heavy Thunderstorm and Rain or Snow Showers/Mist,20.0,20.0,29.76,1007.8,95,10,,,,,,,,,,,,,,2100.0,2100.0,OVC,2100.0,,,,,,
KRDR,07-01-2020,03:56,METAR,Normal,290,13.0,21.0,290/35KTS,6400.0,Heavy Thunderstorm and Rain or Snow Showers/Mist,19.6,19.6,29.75,1007.5,95,10,,,,,,,,,.9 IN,,,,,1900.0,1900.0,OVC,1900.0,,,,,,
KRDR,07-01-2020,03:51,SPECI,Normal,300,16.0,24.0,,4000.0,Heavy Thunderstorm and Rain or Snow Showers/Mist,20.0,20.0,29.74,1007.1,95,10,,,,,,,,,,,,,,1900.0,1900.0,OVC,1900.0,,,,,,
KRDR,07-01-2020,03:41,SPECI,Normal,280,25.0,35.0,,2000.0,Heavy Thunderstorm and Rain or Snow Showers/Mist,20.0,20.0,29.74,1007.1,95,10,,,,,,,,,,,,,,2000.0,2000.0,BKN,2000.0,OVC,3500.0,,,,
KRDR,07-01-2020,03:36,SPECI,Normal,300,25.0,35.0,,4000.0,Heavy Thunderstorm with Rain or Snow/Mist,20.0,20.0,29.73,1006.8,,,,97,10,,,,,,,,,,,2000.0,800.0,FEW,800.0,BKN,2000.0,OVC,3500.0,,
KRDR,07-01-2020,03:23,SPECI,Normal,300,16.0,31.0,,9999.0,Heavy Thunderstorm and Rain or Snow Showers,21.0,21.0,29.74,1007.1,95,,,,,,,,,,,,,,,2500.0,800.0,FEW,800.0,BKN,2500.0,OVC,3500.0,,
KRDR,07-01-2020,03:13,SPECI,Normal,290,25.0,31.0,,9999.0,Thunderstorm and Rain or Snow Showers,21.0,21.0,29.72,1006.5,92,,,,,,,,,,,,,,,3500.0,800.0,SCT,800.0,SCT,2600.0,OVC,3500.0,,
KRDR,07-01-2020,03:03,SPECI,Normal,270,11.0,,,9999.0,Thunderstorm and Rain or Snow Showers,22.0,22.0,29.71,1006.1,92,,,,,,,,,,,,,,,3500.0,800.0,FEW,800.0,BKN,3500.0,OVC,6000.0,,
KRDR,07-01-2020,02:58,SPECI,Normal,80,7.0,,,9999.0,Thunderstorm and Rain or Snow Showers,22.0,22.0,29.69,1005.4,92,,,,,,,,,,,,,,,3500.0,3500.0,BKN,3500.0,BKN,5500.0,,,,
KRDR,07-01-2020,02:56,METAR,Normal,100,7.0,,,9999.0,Distant Lightning,21.6,21.6,29.68,1005.1,12,,,,,,,,,,,.74 IN,,,,3500.0,3500.0,BKN,3500.0,BKN,5500.0,BKN,7000.0,,
KRDR,07-01-2020,01:56,METAR,Normal,50,5.0,,,9999.0,,22.9,22.9,29.66,1004.4,,,,,,,,,,,.05 IN,,,,,3800.0,3800.0,BKN,3800.0,BKN,4900.0,,,,
KRDR,07-01-2020,01:48,SPECI,Normal,40,5.0,,,9999.0,,23.0,23.0,29.66,1004.4,,,,,,,,,,,,,,,,3700.0,3700.0,BKN,3700.0,,,,,,
KRDR,07-01-2020,01:21,SPECI,Normal,130,9.0,,,9999.0,Distant Lightning,23.0,23.0,29.64,1003.8,12,,,,,,,,,,,,,,,5500.0,5500.0,BKN,5500.0,,,,,,
KRDR,07-01-2020,01:19,SPECI,Normal,130,9.0,,,9999.0,Dry Thunderstorm,23.0,23.0,29.64,1003.8,91,,,,,,,,,,,,,,,5500.0,5500.0,BKN,5500.0,,,,,,
KRDR,07-01-2020,00:56,METAR,Normal,120,14.0,31.0,130/31KTS,9999.0,Thunderstorm and Rain or Snow Showers,22.6,22.6,29.65,1004.1,92,,,,,,,,,,.69 IN,,,,,4700.0,4700.0,BKN,4700.0,BKN,5500.0,,,,
KRDR,07-01-2020,00:39,SPECI,Normal,120,13.0,29.0,,8000.0,Thunderstorm and Rain or Snow Showers,22.0,22.0,29.64,1003.8,92,,,,,,,,,,,,,,,3700.0,3700.0,OVC,3700.0,,,,,,
KRDR,07-01-2020,00:29,SPECI,Normal,120,17.0,31.0,,3200.0,Heavy Thunderstorm and Rain or Snow Showers,22.0,22.0,29.65,1004.1,95,,,,,,,,,,,,,,,4200.0,4200.0,OVC,4200.0,,,,,,
KRDR,07-01-2020,00:26,SPECI,Normal,130,20.0,25.0,,4400.0,Heavy Thunderstorm and Rain or Snow Showers,21.0,21.0,29.68,1005.2,95,,,,,,,,,,,,,,,4300.0,4300.0,BKN,4300.0,,,,,,
KRDR,07-01-2020,00:06,SPECI,Normal,60,7.0,21.0,,4800.0,Thunderstorm and Rain or Snow Showers,21.0,21.0,29.71,1006.2,92,,,,,,,,,,,,,,,3000.0,3000.0,BKN,3000.0,,,,,,
KRDR,06-30-2020,23:56,METAR,Normal,50,15.0,26.0,160/31KTS,4400.0,Thunderstorm and Rain or Snow Showers,21.5,21.5,29.67,1004.8,92,,,,,,,,,,1.68 IN,,2.32 IN,,,2300.0,2300.0,OVC,2300.0,,,,,,
KRDR,06-30-2020,23:55,SPECI,Normal,60,15.0,26.0,,3000.0,Thunderstorm and Rain or Snow Showers,22.0,22.0,29.68,1005.1,92,,,,,,,,,,,,,,,2300.0,2300.0,OVC,2300.0,,,,,,
KRDR,06-30-2020,23:50,SPECI,Normal,80,18.0,31.0,,1600.0,Heavy Thunderstorm and Rain or Snow Showers,22.0,21.0,29.66,1004.5,95,,,,,,,,,,,,,,,2200.0,2200.0,OVC,2200.0,,,,,,
KRDR,06-30-2020,23:49,SPECI,Normal,70,19.0,31.0,,1800.0,Heavy Thunderstorm with Rain or Snow,21.0,20.0,29.66,1004.5,,,,97,,,,,,,,,,,,2200.0,2200.0,OVC,2200.0,,,,,,
KRDR,06-30-2020,23:16,SPECI,Normal,80,14.0,18.0,,1200.0,Heavy Thunderstorm with Rain or Snow,23.0,22.0,29.67,1004.8,,,,97,,,,,,,,,,,,4000.0,4000.0,OVC,4000.0,,,,,,
KRDR,06-30-2020,22:56,METAR,Normal,120,11.0,,,3000.0,Heavy Thunderstorm and Rain or Snow Showers/Mist,25.1,25.1,29.69,1005.4,95,10,,,,,,,,,.63 IN,,,,,3700.0,3700.0,OVC,3700.0,,,,,,
KRDR,06-30-2020,22:50,SPECI,Normal,120,14.0,20.0,,3000.0,Heavy Thunderstorm and Rain or Snow Showers/Mist,25.0,25.0,29.68,1005.1,95,10,,,,,,,,,,,,,,3700.0,3700.0,OVC,3700.0,,,,,,
KRDR,06-30-2020,22:30,SPECI,Normal,130,11.0,,,4800.0,Thunderstorm and Rain or Snow Showers/Mist,24.0,24.0,29.66,1004.4,92,10,,,,,,,,,,,,,,4100.0,2500.0,FEW,2500.0,SCT,3200.0,OVC,4100.0,,
KRDR,06-30-2020,22:20,SPECI,Normal,180,10.0,,,3600.0,Thunderstorm and Rain or Snow Showers/Mist,25.0,25.0,29.67,1004.8,92,10,,,,,,,,,,,,,,2700.0,2700.0,BKN,2700.0,OVC,3600.0,,,,
KRDR,06-30-2020,22:10,SPECI,Normal,160,9.0,,,9999.0,Thunderstorm and Rain or Snow Showers/Mist,26.0,26.0,29.67,1004.7,92,10,,,,,,,,,,,,,,3100.0,2500.0,SCT,2500.0,OVC,3100.0,,,,
KRDR,06-30-2020,22:08,SPECI,Normal,160,11.0,,,9999.0,Light Rain/Distant Lightning/Mist,26.0,26.0,29.68,1005.1,61,10,12,,,,,,,,,,,,,3100.0,2500.0,SCT,2500.0,BKN,3100.0,,,,
KRDR,06-30-2020,21:56,METAR,Normal,130,10.0,,,9999.0,Thunderstorm and Rain or Snow Showers,27.1,26.9,29.68,1005.0,92,,,,,,,,,,.01 IN,,,,,3000.0,3000.0,BKN,3000.0,BKN,5000.0,BKN,6000.0,,
KRDR,06-30-2020,21:50,SPECI,Normal,160,13.0,,,9999.0,Thunderstorm and Rain or Snow Showers,28.0,26.0,29.70,1005.7,92,,,,,,,,,,,,,,,6000.0,3100.0,SCT,3100.0,SCT,5000.0,BKN,6000.0,,
KRDR,06-30-2020,21:37,SPECI,Normal,120,9.0,,,9999.0,Light Drizzle/Distant Lightning,29.0,25.0,29.67,1004.6,51,12,,,,,,,,,,,,,,6000.0,3300.0,SCT,3300.0,SCT,5000.0,BKN,6000.0,,
KRDR,06-30-2020,21:36,SPECI,Normal,120,9.0,,,9999.0,Distant Lightning,29.0,25.0,29.67,1004.6,12,,,,,,,,,,,,,,,6000.0,3300.0,SCT,3300.0,SCT,5000.0,BKN,6000.0,,
KRDR,06-30-2020,20:56,METAR,Normal,90,12.0,,,9999.0,,30.6,24.7,29.69,1005.3,,,,,,,,,,,,,,,4/8 Partly Cloudy,72000.0,3400.0,FEW,3400.0,SCT,7500.0,SCT,18000.0,,
KRDR,06-30-2020,19:59,METAR,Normal,70,7.0,,,9999.0,,29.5,24.1,29.72,1006.3,,,,,,,,,,,,,,,,3000.0,3000.0,BKN,3000.0,OVC,4100.0,,,,
KRDR,06-30-2020,18:56,METAR,Normal,120,3.0,,,9999.0,,30.0,24.1,29.73,1006.6,,,,,,,,,,,,,,,,3000.0,3000.0,BKN,3000.0,BKN,5000.0,,,,
KRDR,06-30-2020,17:58,METAR,Normal,70,5.0,,,9999.0,,29.7,24.1,29.72,1006.3,,,,,,,,,,,,,,,,3000.0,3000.0,BKN,3000.0,BKN,18000.0,,,,
KRDR,06-30-2020,17:40,SPECI,Normal,100,4.0,,,9999.0,,29.0,24.0,29.72,1006.4,,,,,,,,,,,,,,,,2700.0,2700.0,BKN,2700.0,OVC,3500.0,,,,
KRDR,06-30-2020,16:16,SPECI,Normal,130,11.0,,,9999.0,,28.0,23.0,29.72,1006.4,,,,,,,,,,,,,,,,2100.0,2100.0,BKN,2100.0,,,,,,
KRDR,06-30-2020,16:06,SPECI,Normal,120,8.0,,,9999.0,,28.0,23.0,29.72,1006.4,,,,,,,,,,,,,,,4/8 Partly Cloudy,72000.0,2100.0,SCT,2100.0,,,,,,
KRDR,06-30-2020,15:56,METAR,Normal,150,7.0,,,9999.0,,27.4,23.0,29.73,1006.7,,,,,,,,,,,,,,,,2100.0,2100.0,BKN,2100.0,,,,,,
KRDR,06-30-2020,15:16,SPECI,Normal,120,7.0,,,9999.0,,27.0,22.0,29.73,1006.7,,,,,,,,,,,,,,,4/8 Partly Cloudy,72000.0,1700.0,SCT,1700.0,,,,,,
KRDR,06-30-2020,14:56,METAR,Normal,120,7.0,,,9999.0,,25.5,22.0,29.73,1006.7,,,,,,,,,,,,,,,,1700.0,1700.0,OVC,1700.0,,,,,,
KRDR,06-30-2020,13:56,METAR,Normal,140,10.0,,,9999.0,,24.4,21.7,29.74,1007.0,,,,,,,,,,,,,,,,1600.0,1600.0,OVC,1600.0,,,,,,
KRDR,06-30-2020,12:56,METAR,Normal,110,9.0,,,9999.0,,23.6,22.5,29.73,1006.6,,,,,,,,,,,,,,,,1500.0,1500.0,OVC,1500.0,,,,,,
KRDR,06-30-2020,12:26,SPECI,Normal,120,5.0,,,9999.0,,23.0,23.0,29.73,1006.7,,,,,,,,,,,,,,,,1500.0,1500.0,OVC,1500.0,,,,,,
KRDR,06-30-2020,11:56,METAR,Normal,100,6.0,,,9999.0,,23.2,23.2,29.71,1006.0,,,,,,,,,,,,,,,,1400.0,1400.0,OVC,1400.0,,,,,,
KRDR,06-30-2020,10:56,METAR,Normal,100,5.0,,,9999.0,,23.4,23.4,29.74,1007.0,,,,,,,,,,,,,,,,1400.0,1400.0,OVC,1400.0,,,,,,
KRDR,06-30-2020,10:36,SPECI,Normal,110,3.0,,,9999.0,,24.0,23.0,29.75,1007.3,,,,,,,,,,,,,,,,1300.0,1300.0,OVC,1300.0,,,,,,
KRDR,06-30-2020,09:56,METAR,Calm,,0.0,,,9999.0,,22.8,22.8,29.76,1007.7,,,,,,,,,,,,,,,,1200.0,1200.0,OVC,1200.0,,,,,,
KRDR,06-30-2020,08:56,METAR,Normal,180,6.0,,,9999.0,,23.4,23.4,29.74,1007.0,,,,,,,,,,,,,,,,1200.0,1200.0,OVC,1200.0,,,,,,
KRDR,06-30-2020,07:56,METAR,Normal,180,9.0,,,9999.0,,23.6,23.6,29.74,1006.9,,,,,,,,,,,,,,,,1100.0,1100.0,OVC,1100.0,,,,,,
KRDR,06-30-2020,07:54,SPECI,Normal,180,8.0,,,9999.0,,24.0,24.0,29.74,1006.9,,,,,,,,,,,,,,,,1100.0,1100.0,OVC,1100.0,,,,,,
KRDR,06-30-2020,07:26,SPECI,Normal,150,7.0,,,9999.0,,24.0,24.0,29.73,1006.6,,,,,,,,,,,,,,,,1200.0,1200.0,OVC,1200.0,,,,,,
KRDR,06-30-2020,06:56,METAR,Normal,140,5.0,,,9999.0,,23.8,23.4,29.72,1006.3,,,,,,,,,,,,,,,,1300.0,1300.0,OVC,1300.0,,,,,,
KRDR,06-30-2020,06:46,SPECI,Normal,140,6.0,,,9999.0,,24.0,24.0,29.72,1006.3,,,,,,,,,,,,,,,,1400.0,1400.0,OVC,1400.0,,,,,,
KRDR,06-30-2020,05:56,METAR,Normal,150,6.0,,,9999.0,,23.5,23.5,29.73,1006.6,,,,,,,,,,,,,,,,1700.0,1700.0,OVC,1700.0,,,,,,
KRDR,06-30-2020,05:46,SPECI,Normal,150,6.0,,,9999.0,,24.0,23.0,29.73,1006.7,,,,,,,,,,,,,,,,1700.0,1700.0,BKN,1700.0,,,,,,
KRDR,06-30-2020,04:56,METAR,Normal,160,7.0,,,9999.0,,23.8,22.7,29.73,1006.7,,,,,,,,,,,,,,,Clear,72000.0,,,,,,,,,
KRDR,06-30-2020,03:56,METAR,Normal,160,6.0,,,9999.0,,24.6,22.4,29.72,1006.4,,,,,,,,,,,,,,,Clear,72000.0,,,,,,,,,
KRDR,06-30-2020,02:56,METAR,Normal,140,9.0,,,9999.0,,25.5,21.6,29.68,1005.1,,,,,,,,,,,,,,,Clear,72000.0,,,,,,,,,
KRDR,06-30-2020,01:56,METAR,Normal,130,7.0,,,9999.0,,27.4,21.2,29.67,1004.7,,,,,,,,,,,,,,,Clear,72000.0,,,,,,,,,
KRDR,06-30-2020,00:56,METAR,Normal,140,8.0,,,9999.0,,29.6,21.0,29.68,1005.0,,,,,,,,,,,,,,,Clear,72000.0,,,,,,,,,
KRDR,06-29-2020,23:56,METAR,Normal,130,8.0,,,9999.0,,30.3,21.1,29.67,1004.6,,,,,,,,,,,,,,,Clear,72000.0,,,,,,,,,
KRDR,06-29-2020,22:56,METAR,Normal,140,7.0,,,9999.0,,31.1,21.0,29.66,1004.3,,,,,,,,,,,,,,,Clear,72000.0,,,,,,,,,
KRDR,06-29-2020,21:56,METAR,Normal,150,5.0,,,9999.0,,31.1,21.5,29.67,1004.6,,,,,,,,,,,,,,,Clear,72000.0,,,,,,,,,
KRDR,06-29-2020,20:56,METAR,Normal,160,9.0,,,9999.0,,31.0,20.6,29.66,1004.3,,,,,,,,,,,,,,,Clear,72000.0,,,,,,,,,
KRDR,06-29-2020,19:56,METAR,Normal,130,6.0,,,9999.0,,31.1,19.4,29.66,1004.3,,,,,,,,,,,,,,,Clear,72000.0,,,,,,,,,
KRDR,06-29-2020,18:56,METAR,Normal,170,8.0,,,9999.0,,29.9,19.2,29.66,1004.3,,,,,,,,,,,,,,,Clear,72000.0,,,,,,,,,
KRDR,06-29-2020,17:56,METAR,Normal,200,9.0,,,9999.0,,28.9,19.5,29.66,1004.3,,,,,,,,,,,TRACE,,TRACE,,2/8 Mostly Clear,72000.0,14000.0,FEW,14000.0,FEW,20000.0,,,,
KRDR,06-29-2020,16:56,METAR,Normal,230,6.0,,,9999.0,,27.7,20.5,29.64,1003.6,,,,,,,,,,,TRACE,,,,2/8 Mostly Clear,72000.0,20000.0,FEW,20000.0,,,,,,
KRDR,06-29-2020,16:55,SPECI,Normal,230,6.0,,,9999.0,,28.0,21.0,29.64,1003.6,,,,,,,,,,,,,,,2/8 Mostly Clear,72000.0,19000.0,FEW,19000.0,,,,,,
KRDR,06-29-2020,16:48,SPECI,Normal,200,5.0,,,9999.0,Light Drizzle,27.0,21.0,29.63,1003.3,51,,,,,,,,,,,,,,2/8 Mostly Clear,72000.0,15000.0,FEW,15000.0,FEW,18000.0,,,,
KRDR,06-29-2020,15:56,METAR,Normal,180,7.0,,,9999.0,,25.5,20.5,29.63,1003.3,,,,,,,,,,,,,,,4/8 Partly Cloudy,72000.0,15000.0,FEW,15000.0,SCT,18000.0,SCT,20000.0,,
KRDR,06-29-2020,14:56,METAR,Normal,210,10.0,,,9999.0,,22.9,20.4,29.62,1003.0,,,,,,,,,,,,,,,,20000.0,20000.0,BKN,20000.0,,,,,,
KRDR,06-29-2020,13:56,METAR,Normal,130,6.0,,,9999.0,,22.3,20.4,29.61,1002.7,,,,,,,,,,,,,,,Clear,72000.0,,,,,,,,,
KRDR,06-29-2020,12:56,METAR,Normal,110,5.0,,,9999.0,,22.1,19.8,29.60,1002.3,,,,,,,,,,,,,,,Clear,72000.0,,,,,,,,,
KRDR,06-29-2020,11:56,METAR,Normal,100,5.0,,,9999.0,,21.8,19.7,29.58,1001.6,,,,,,,,,,,,,,,4/8 Partly Cloudy,72000.0,20000.0,SCT,20000.0,,,,,,
KRDR,06-29-2020,10:56,METAR,Normal,210,5.0,,,9999.0,,21.4,19.7,29.59,1001.9,,,,,,,,,,,,,,,Clear,72000.0,,,,,,,,,
KRDR,06-29-2020,09:56,METAR,Normal,150,8.0,,,9999.0,,22.2,20.1,29.55,1000.5,,,,,,,,,,,,,,,Clear,72000.0,,,,,,,,,
KRDR,06-29-2020,08:56,METAR,Normal,130,11.0,,,9999.0,,22.2,21.7,29.57,1001.2,,,,,,,,,,,,,,,2/8 Mostly Clear,72000.0,4900.0,FEW,4900.0,,,,,,
KRDR,06-29-2020,07:56,METAR,Normal,140,7.0,,,9999.0,,21.7,21.7,29.56,1000.9,,,,,,,,,,,,,,,Clear,72000.0,,,,,,,,,
KRDR,06-29-2020,06:56,METAR,Normal,130,8.0,,,9999.0,,23.1,21.0,29.57,1001.2,,,,,,,,,,,,,,,2/8 Mostly Clear,72000.0,4900.0,FEW,4900.0,,,,,,
KRDR,06-29-2020,05:56,METAR,Normal,140,8.0,,,9999.0,,23.3,21.2,29.59,1001.9,,,,,,,,,,,,,,,Clear,72000.0,,,,,,,,,
KRDR,06-29-2020,04:56,METAR,Normal,130,8.0,,,9999.0,,24.7,21.6,29.60,1002.2,,,,,,,,,,,,,,,Clear,72000.0,,,,,,,,,
KRDR,06-29-2020,03:56,METAR,Normal,150,12.0,,,9999.0,,25.9,21.5,29.59,1001.9,,,,,,,,,,,,,,,Clear,72000.0,,,,,,,,,
KRDR,06-29-2020,02:56,METAR,Normal,140,12.0,,,9999.0,,26.9,21.4,29.55,1000.5,,,,,,,,,,,,,,,Clear,72000.0,,,,,,,,,
KRDR,06-29-2020,01:56,METAR,Normal,140,15.0,,,9999.0,,28.1,21.4,29.54,1000.2,,,,,,,,,,,,,,,2/8 Mostly Clear,72000.0,5000.0,FEW,5000.0,,,,,,
KRDR,06-29-2020,00:56,METAR,Normal,130,11.0,,150/27KTS,9999.0,,29.7,21.3,29.54,1000.2,,,,,,,,,,,,,,,Clear,72000.0,,,,,,,,,
KRDR,06-28-2020,23:56,METAR,Normal,140,20.0,28.0,150/33KTS,9999.0,,30.4,20.9,29.52,999.6,,,,,,,,,,,,,,,Clear,72000.0,,,,,,,,,
KRDR,06-28-2020,22:56,METAR,Normal,140,22.0,28.0,160/31KTS,9999.0,,31.5,21.0,29.49,998.6,,,,,,,,,,,,,,,2/8 Mostly Clear,72000.0,5000.0,FEW,5000.0,,,,,,
KRDR,06-28-2020,21:56,METAR,Normal,160,22.0,,170/29KTS,9999.0,,31.3,20.8,29.54,1000.3,,,,,,,,,,,,,,,4/8 Partly Cloudy,72000.0,5500.0,SCT,5500.0,,,,,,
KRDR,06-28-2020,20:56,METAR,Normal,140,20.0,27.0,140/29KTS,9999.0,,32.1,21.0,29.54,1000.2,,,,,,,,,,,,,,,2/8 Mostly Clear,72000.0,5000.0,FEW,5000.0,,,,,,
KRDR,06-28-2020,19:56,METAR,Normal,150,20.0,24.0,140/30KTS,9999.0,,31.4,21.5,29.54,1000.2,,,,,,,,,,,,,,,4/8 Partly Cloudy,72000.0,4800.0,SCT,4800.0,,,,,,
KRDR,06-28-2020,18:56,METAR,Normal,150,17.0,26.0,150/29KTS,9999.0,,31.6,21.4,29.54,1000.2,,,,,,,,,,,,,,,2/8 Mostly Clear,72000.0,4700.0,FEW,4700.0,,,,,,
KRDR,06-28-2020,17:56,METAR,Normal,140,17.0,26.0,170/26KTS,9999.0,,31.2,21.6,29.54,1000.2,,,,,,,,,,,,,,,Clear,72000.0,,,,,,,,,
KRDR,06-28-2020,16:56,METAR,Normal,160,18.0,27.0,160/27KTS,9999.0,,30.1,22.0,29.55,1000.5,,,,,,,,,,,,,,,Clear,72000.0,,,,,,,,,
KRDR,06-28-2020,15:56,METAR,Normal,160,14.0,,,9999.0,,28.8,22.0,29.58,1001.5,,,,,,,,,,,,,,,Clear,72000.0,,,,,,,,,
KRDR,06-28-2020,14:56,METAR,Normal,170,13.0,,,9999.0,,26.7,20.7,29.60,1002.3,,,,,,,,,,,,,,,Clear,72000.0,,,,,,,,,
KRDR,06-28-2020,13:56,METAR,Normal,170,10.0,,,9999.0,,24.9,19.7,29.61,1002.6,,,,,,,,,,,,,,,Clear,72000.0,,,,,,,,,
KRDR,06-28-2020,12:56,METAR,Normal,160,15.0,20.0,,9999.0,,22.7,18.2,29.60,1002.3,,,,,,,,,,,,,,,Clear,72000.0,,,,,,,,,
KRDR,06-28-2020,11:56,METAR,Normal,150,7.0,,,9999.0,,20.0,17.8,29.60,1002.3,,,,,,,,,,,,,,,Clear,72000.0,,,,,,,,,
KRDR,06-28-2020,10:56,METAR,Normal,140,7.0,,,9999.0,,18.4,17.6,29.59,1002.0,,,,,,,,,,,,,,,Clear,72000.0,,,,,,,,,
KRDR,06-28-2020,09:56,METAR,Normal,150,7.0,,,9999.0,,18.9,17.4,29.59,1002.0,,,,,,,,,,,,,,,Clear,72000.0,,,,,,,,,
KRDR,06-28-2020,08:56,METAR,Normal,170,8.0,,,9999.0,,19.7,17.3,29.59,1001.9,,,,,,,,,,,,,,,Clear,72000.0,,,,,,,,,
KRDR,06-28-2020,07:56,METAR,Normal,160,10.0,,,9999.0,,20.2,17.2,29.59,1001.9,,,,,,,,,,,,,,,Clear,72000.0,,,,,,,,,
KRDR,06-28-2020,06:56,METAR,Normal,160,10.0,,,9999.0,,21.6,17.2,29.60,1002.3,,,,,,,,,,,,,,,Clear,72000.0,,,,,,,,,
KRDR,06-28-2020,05:56,METAR,Normal,160,11.0,,,9999.0,,22.3,17.6,29.62,1002.9,,,,,,,,,,,,,,,Clear,72000.0,,,,,,,,,
KRDR,06-28-2020,04:56,METAR,Normal,160,10.0,,,9999.0,,23.0,17.7,29.62,1002.9,,,,,,,,,,,,,,,Clear,72000.0,,,,,,,,,
KRDR,06-28-2020,03:56,METAR,Normal,150,12.0,,,9999.0,,24.3,17.3,29.63,1003.3,,,,,,,,,,,,,,,Clear,72000.0,,,,,,,,,
KRDR,06-28-2020,02:56,METAR,Normal,150,9.0,,,9999.0,,24.6,16.6,29.62,1002.9,,,,,,,,,,,,,,,Clear,72000.0,,,,,,,,,
KRDR,06-28-2020,01:56,METAR,Normal,160,9.0,,,9999.0,,27.5,16.4,29.62,1002.9,,,,,,,,,,,,,,,Clear,72000.0,,,,,,,,,
KRDR,06-28-2020,00:56,METAR,Normal,160,11.0,,,9999.0,,29.8,14.7,29.62,1002.9,,,,,,,,,,,,,,,Clear,72000.0,,,,,,,,,
KRDR,06-27-2020,23:56,METAR,Normal,180,12.0,,,9999.0,,30.9,13.6,29.63,1003.3,,,,,,,,,,,,,,,Clear,72000.0,,,,,,,,,
KRDR,06-27-2020,22:56,METAR,Normal,180,14.0,,,9999.0,,31.7,13.0,29.65,1004.1,,,,,,,,,,,,,,,Clear,72000.0,,,,,,,,,
KRDR,06-27-2020,21:56,METAR,Normal,190,14.0,21.0,190/26KTS,9999.0,,31.9,13.6,29.66,1004.4,,,,,,,,,,,,,,,2/8 Mostly Clear,72000.0,8000.0,FEW,8000.0,,,,,,
KRDR,06-27-2020,20:56,METAR,Normal,190,14.0,,,9999.0,,31.9,14.1,29.68,1005.1,,,,,,,,,,,,,,,2/8 Mostly Clear,72000.0,7500.0,FEW,7500.0,,,,,,
KRDR,06-27-2020,19:56,METAR,Normal,180,14.0,20.0,,9999.0,,31.7,14.8,29.70,1005.8,,,,,,,,,,,,,,,2/8 Mostly Clear,72000.0,6500.0,FEW,6500.0,,,,,,
KRDR,06-27-2020,18:56,METAR,Normal,190,10.0,18.0,,9999.0,,30.6,16.6,29.71,1006.2,,,,,,,,,,,,,,,Clear,72000.0,,,,,,,,,
KRDR,06-27-2020,18:48,SPECI,Normal,170,10.0,18.0,,9999.0,,31.0,17.0,29.71,1006.2,,,,,,,,,,,,,,,Clear,72000.0,,,,,,,,,
KRDR,06-27-2020,18:45,SPECI,Normal,220,12.0,,,9999.0,,31.0,18.0,29.71,1006.2,,,,,,,,,,,,,,,Clear,72000.0,,,,,,,,,
KRDR,06-27-2020,17:56,METAR,Normal,170,11.0,,,9999.0,,29.5,18.6,29.72,1006.5,,,,,,,,,,,,,,,Clear,72000.0,,,,,,,,,
KRDR,06-27-2020,16:56,METAR,Normal,160,12.0,,,9999.0,,28.4,17.6,29.74,1007.2,,,,,,,,,,,,,,,Clear,72000.0,,,,,,,,,
KRDR,06-27-2020,15:56,METAR,Normal,170,15.0,,,9999.0,,27.3,16.2,29.76,1007.9,,,,,,,,,,,,,,,Clear,72000.0,,,,,,,,,
KRDR,06-27-2020,14:56,METAR,Normal,180,11.0,,,9999.0,,26.3,16.5,29.77,1008.2,,,,,,,,,,,,,,,Clear,72000.0,,,,,,,,,
KRDR,06-27-2020,13:56,METAR,Normal,190,13.0,,,9999.0,,24.0,16.5,29.78,1008.5,,,,,,,,,,,,,,,Clear,72000.0,,,,,,,,,
KRDR,06-27-2020,12:56,METAR,Normal,180,10.0,,,9999.0,,21.5,16.4,29.79,1008.8,,,,,,,,,,,,,,,Clear,72000.0,,,,,,,,,
KRDR,06-27-2020,11:56,METAR,Normal,180,7.0,,,9999.0,,18.1,17.3,29.77,1008.2,,,,,,,,,,,,,,,Clear,72000.0,,,,,,,,,
KRDR,06-27-2020,10:56,METAR,Normal,180,5.0,,,9999.0,,14.3,14.3,29.77,1008.3,,,,,,,,,,,,,,,Clear,72000.0,,,,,,,,,
KRDR,06-27-2020,09:56,METAR,Normal,190,5.0,,,9999.0,,15.5,15.0,29.78,1008.7,,,,,,,,,,,,,,,Clear,72000.0,,,,,,,,,
KRDR,06-27-2020,08:56,METAR,Normal,200,5.0,,,9999.0,,15.2,15.0,29.80,1009.3,,,,,,,,,,,,,,,Clear,72000.0,,,,,,,,,
KRDR,06-27-2020,07:56,METAR,Normal,200,4.0,,,9999.0,,15.3,14.8,29.81,1009.7,,,,,,,,,,,,,,,Clear,72000.0,,,,,,,,,
KRDR,06-27-2020,06:56,METAR,Normal,200,6.0,,,9999.0,,14.9,14.7,29.81,1009.7,,,,,,,,,,,,,,,Clear,72000.0,,,,,,,,,
KRDR,06-27-2020,05:56,METAR,Normal,180,4.0,,,9999.0,,15.2,15.0,29.81,1009.7,,,,,,,,,,,,,,,Clear,72000.0,,,,,,,,,
KRDR,06-27-2020,04:56,METAR,Normal,180,4.0,,,9999.0,,16.0,15.8,29.83,1010.4,,,,,,,,,,,,,,,Clear,72000.0,,,,,,,,,
KRDR,06-27-2020,03:56,METAR,Normal,200,4.0,,,9999.0,,17.7,16.2,29.83,1010.4,,,,,,,,,,,,,,,Clear,72000.0,,,,,,,,,
KRDR,06-27-2020,02:56,METAR,Normal,130,3.0,,,9999.0,,20.7,14.1,29.83,1010.3,,,,,,,,,,,,,,,Clear,72000.0,,,,,,,,,
KRDR,06-27-2020,01:56,METAR,Normal,110,3.0,,,9999.0,,25.0,14.1,29.83,1010.2,,,,,,,,,,,,,,,Clear,72000.0,,,,,,,,,
KRDR,06-27-2020,00:56,METAR,Normal,50,3.0,,,9999.0,,26.6,12.2,29.83,1010.2,,,,,,,,,,,,,,,Clear,72000.0,,,,,,,,,
KRDR,06-26-2020,23:56,METAR,Normal,20,4.0,,,9999.0,,27.3,12.5,29.84,1010.6,,,,,,,,,,,,,,,Clear,72000.0,,,,,,,,,
KRDR,06-26-2020,22:56,METAR,Normal,330,6.0,,,9999.0,,28.0,12.3,29.84,1010.7,,,,,,,,,,,,,,,Clear,72000.0,,,,,,,,,
KRDR,06-26-2020,21:56,METAR,Normal,360,7.0,,,9999.0,,26.7,13.4,29.84,1010.7,,,,,,,,,,,,,,,Clear,72000.0,,,,,,,,,
KRDR,06-26-2020,20:56,METAR,Normal,360,8.0,,,9999.0,,28.1,12.8,29.85,1011.0,,,,,,,,,,,,,,,Clear,72000.0,,,,,,,,,
KRDR,06-26-2020,19:56,METAR,Normal,360,8.0,,,9999.0,,27.9,14.1,29.85,1010.9,,,,,,,,,,,,,,,2/8 Mostly Clear,72000.0,14000.0,FEW,14000.0,FEW,21000.0,,,,
KRDR,06-26-2020,18:56,METAR,Normal,360,10.0,,,9999.0,,27.1,14.5,29.86,1011.3,,,,,,,,,,,,,,,Clear,72000.0,,,,,,,,,
KRDR,06-26-2020,17:56,METAR,Normal,360,9.0,,,9999.0,,26.6,15.3,29.85,1011.0,,,,,,,,,,,,,,,4/8 Partly Cloudy,72000.0,5000.0,SCT,5000.0,SCT,18000.0,,,,
KRDR,06-26-2020,16:56,METAR,Normal,340,13.0,,,9999.0,,25.8,15.8,29.84,1010.7,,,,,,,,,,,,,,,Clear,72000.0,,,,,,,,,
KRDR,06-26-2020,15:56,METAR,Normal,350,13.0,,,9999.0,,24.7,17.7,29.85,1011.0,,,,,,,,,,,,,,,Clear,72000.0,,,,,,,,,
KRDR,06-26-2020,14:56,METAR,Normal,340,13.0,,,9999.0,,23.5,18.1,29.85,1011.0,,,,,,,,,,,,,,,Clear,72000.0,,,,,,,,,
KRDR,06-26-2020,13:56,METAR,Normal,320,10.0,,,9999.0,,22.3,19.2,29.85,1011.0,,,,,,,,,,,,,,,Clear,72000.0,,,,,,,,,
KRDR,06-26-2020,12:56,METAR,Normal,310,11.0,,,9999.0,,20.4,19.7,29.85,1011.0,,,,,,,,,,,,,,,Clear,72000.0,,,,,,,,,
KRDR,06-26-2020,11:56,METAR,Normal,310,9.0,,,9999.0,,18.5,18.5,29.84,1010.8,,,,,,,,,,,,,,.18 IN,Clear,72000.0,,,,,,,,,
KRDR,06-26-2020,10:56,METAR,Normal,290,6.0,,,9999.0,,16.2,16.2,29.83,1010.5,,,,,,,,,,,,,,,Clear,72000.0,,,,,,,,,
KRDR,06-26-2020,09:56,METAR,Normal,300,6.0,,,9999.0,,16.6,16.6,29.81,1009.9,,,,,,,,,,,,,,,Clear,72000.0,,,,,,,,,
KRDR,06-26-2020,08:56,METAR,Normal,290,5.0,,,9999.0,,16.7,16.7,29.80,1009.5,,,,,,,,,,,,,,,Clear,72000.0,,,,,,,,,
KRDR,06-26-2020,07:56,METAR,Normal,320,7.0,,,9999.0,,17.6,17.6,29.78,1008.7,,,,,,,,,,,,,,,Clear,72000.0,,,,,,,,,
KRDR,06-26-2020,06:56,METAR,Normal,320,6.0,,,9999.0,,18.2,18.2,29.77,1008.3,,,,,,,,,,,,,,,2/8 Mostly Clear,72000.0,2500.0,FEW,2500.0,,,,,,
KRDR,06-26-2020,05:56,METAR,Normal,230,4.0,,,4800.0,Mist,16.8,16.8,29.75,1007.7,10,,,,,,,,,,,,,,Clear,72000.0,,,,,,,,,
KRDR,06-26-2020,04:56,METAR,Calm,,0.0,,,9999.0,,19.0,19.0,29.76,1008.0,,,,,,,,,,,,,,,Clear,72000.0,,,,,,,,,
KRDR,06-26-2020,03:56,METAR,Normal,200,5.0,,,9999.0,,19.9,19.9,29.76,1008.0,,,,,,,,,,,,,,,Clear,72000.0,,,,,,,,,
KRDR,06-26-2020,02:56,METAR,Normal,200,6.0,,,9999.0,,20.0,20.0,29.75,1007.6,,,,,,,,,,,,,,,Clear,72000.0,,,,,,,,,
KRDR,06-26-2020,01:56,METAR,Normal,220,5.0,,,9999.0,,21.2,21.2,29.73,1007.0,,,,,,,,,,,,,,,Clear,72000.0,,,,,,,,,
KRDR,06-26-2020,00:56,METAR,Normal,210,8.0,,,9999.0,,22.2,22.2,29.73,1007.0,,,,,,,,,,,,,,,,11000.0,11000.0,OVC,11000.0,,,,,,
KRDR,06-25-2020,23:56,METAR,Normal,170,6.0,,,9999.0,,20.8,20.8,29.73,1007.0,,,,,,,,,,,,,.17 IN,,,11000.0,11000.0,OVC,11000.0,,,,,,
KRDR,06-25-2020,22:56,METAR,Normal,120,3.0,,,9999.0,,20.4,20.4,29.74,1007.4,,,,,,,,,,,TRACE,,,,,12000.0,7000.0,FEW,7000.0,BKN,12000.0,,,,
KRDR,06-25-2020,22:30,SPECI,Normal,110,5.0,,,9999.0,,20.0,20.0,29.75,1007.8,,,,,,,,,,,,,,,,21000.0,9000.0,FEW,9100.0,SCT,13000.0,BKN,21000.0,,
KRDR,06-25-2020,21:56,METAR,Calm,,0.0,,,9999.0,Thunderstorm and Rain or Snow Showers,18.9,18.9,29.77,1008.5,92,,,,,,,,,,.12 IN,,,,,10000.0,4100.0,SCT,4100.0,BKN,10000.0,,,,
KRDR,06-25-2020,20:56,METAR,Normal,60,3.0,,,9999.0,Thunderstorm and Rain or Snow Showers,19.3,19.3,29.78,1008.8,92,,,,,,,,,,.05 IN,.05 IN,,,,4300.0,4300.0,OVC,4300.0,,,,,,
KRDR,06-25-2020,19:56,METAR,Normal,340,5.0,,,9999.0,Thunderstorm and Rain or Snow Showers,21.3,20.1,29.78,1008.8,92,,,,,,,,,,TRACE,,,,4/8 Partly Cloudy,72000.0,10000.0,SCT,10000.0,,,,,,
KRDR,06-25-2020,19:52,SPECI,Normal,360,5.0,,,9999.0,Light Rain,22.0,20.0,29.78,1008.8,61,,,,,,,,,,,,,,,10000.0,10000.0,BKN,10000.0,,,,,,
KRDR,06-25-2020,19:37,SPECI,Normal,30,3.0,,,9999.0,Thunderstorm and Rain or Snow Showers,23.0,18.0,29.76,1008.0,92,,,,,,,,,,,,,,,10000.0,10000.0,OVC,10000.0,,,,,,
KRDR,06-25-2020,19:36,SPECI,Normal,360,4.0,,,9999.0,Thunderstorm and Rain or Snow Showers,23.0,18.0,29.76,1008.0,92,,,,,,,,,,,,,,,10000.0,10000.0,OVC,10000.0,,,,,,
KRDR,06-25-2020,18:56,METAR,Normal,130,7.0,,,9999.0,,23.0,18.7,29.76,1008.0,,,,,,,,,,,TRACE,,,,,12000.0,12000.0,BKN,12000.0,BKN,15000.0,,,,
KRDR,06-25-2020,17:56,METAR,Normal,140,7.0,,,9999.0,Light Rain,21.9,19.2,29.79,1009.1,61,,,,,,,,,,.01 IN,,.01 IN,,2/8 Mostly Clear,72000.0,1300.0,FEW,1300.0,FEW,21000.0,,,,
KRDR,06-25-2020,16:56,METAR,Normal,220,3.0,,,9999.0,Light Drizzle,22.5,18.7,29.81,1009.7,51,,,,,,,,,,TRACE,,,,2/8 Mostly Clear,72000.0,13000.0,FEW,13000.0,,,,,,
KRDR,06-25-2020,16:51,SPECI,Normal,220,3.0,,,9999.0,Light Drizzle,23.0,18.0,29.81,1009.7,51,,,,,,,,,,,,,,2/8 Mostly Clear,72000.0,13000.0,FEW,13000.0,,,,,,
KRDR,06-25-2020,15:56,METAR,Normal,170,10.0,,,9999.0,,22.6,15.9,29.79,1009.0,,,,,,,,,,,,,,,2/8 Mostly Clear,72000.0,20000.0,FEW,20000.0,,,,,,
KRDR,06-25-2020,14:56,METAR,Normal,170,12.0,,,9999.0,,24.1,15.3,29.79,1009.0,,,,,,,,,,,,,,,2/8 Mostly Clear,72000.0,19000.0,FEW,19000.0,,,,,,
KRDR,06-25-2020,13:56,METAR,Normal,150,9.0,,,9999.0,,20.3,14.0,29.80,1009.3,,,,,,,,,,,,,,,,10000.0,10000.0,BKN,10000.0,,,,,,
KRDR,06-25-2020,12:56,METAR,Normal,150,8.0,,,9999.0,,19.0,13.4,29.80,1009.3,,,,,,,,,,,,,,,,12000.0,10000.0,SCT,10000.0,OVC,12000.0,,,,
KRDR,06-25-2020,11:56,METAR,Normal,140,8.0,,,9999.0,,18.1,12.3,29.81,1009.6,,,,,,,,,,,,,,,,13000.0,13000.0,OVC,13000.0,,,,,,
KRDR,06-25-2020,10:56,METAR,Normal,160,8.0,,,9999.0,,18.2,11.7,29.83,1010.3,,,,,,,,,,,,,,,,8000.0,8000.0,BKN,8000.0,BKN,9100.0,OVC,15000.0,,
KRDR,06-25-2020,09:56,METAR,Normal,170,8.0,,,9999.0,,17.1,11.6,29.83,1010.3,,,,,,,,,,,,,,,4/8 Partly Cloudy,72000.0,8000.0,SCT,8000.0,,,,,,
KRDR,06-25-2020,08:56,METAR,Normal,190,7.0,,,9999.0,,16.3,11.6,29.83,1010.4,,,,,,,,,,,,,,,4/8 Partly Cloudy,72000.0,9000.0,SCT,9100.0,,,,,,
KRDR,06-25-2020,07:56,METAR,Normal,180,7.0,,,9999.0,,16.7,11.6,29.83,1010.4,,,,,,,,,,,,,,,Clear,72000.0,,,,,,,,,
KRDR,06-25-2020,06:56,METAR,Normal,180,8.0,,,9999.0,,16.2,12.4,29.84,1010.7,,,,,,,,,,,,,,,Clear,72000.0,,,,,,,,,
KRDR,06-25-2020,05:56,METAR,Normal,160,5.0,,,9999.0,,16.1,13.2,29.84,1010.8,,,,,,,,,,,,,,,Clear,72000.0,,,,,,,,,
KRDR,06-25-2020,04:56,METAR,Normal,150,7.0,,,9999.0,,17.9,13.4,29.85,1011.0,,,,,,,,,,,,,,,Clear,72000.0,,,,,,,,,
KRDR,06-25-2020,03:56,METAR,Normal,130,6.0,,,9999.0,,18.7,12.9,29.84,1010.7,,,,,,,,,,,,,,,Clear,72000.0,,,,,,,,,
KRDR,06-25-2020,02:56,METAR,Normal,140,5.0,,,9999.0,,19.8,12.5,29.84,1010.7,,,,,,,,,,,,,,,Clear,72000.0,,,,,,,,,
KRDR,06-25-2020,01:56,METAR,Normal,140,6.0,,,9999.0,,22.4,13.2,29.84,1010.7,,,,,,,,,,,,,,,Clear,72000.0,,,,,,,,,
KRDR,06-25-2020,00:56,METAR,Normal,90,5.0,,,9999.0,,25.6,10.6,29.83,1010.4,,,,,,,,,,,,,,,Clear,72000.0,,,,,,,,,
KRDR,06-24-2020,23:56,METAR,Normal,90,3.0,,,9999.0,,25.4,9.6,29.84,1010.8,,,,,,,,,,,,,,,Clear,72000.0,,,,,,,,,
KRDR,06-24-2020,22:56,METAR,Calm,,0.0,,,9999.0,,26.5,9.3,29.85,1011.2,,,,,,,,,,,,,,,Clear,72000.0,,,,,,,,,
KRDR,06-24-2020,21:56,METAR,Normal,300,4.0,,,9999.0,,26.5,10.2,29.86,1011.6,,,,,,,,,,,,,,,Clear,72000.0,,,,,,,,,
KRDR,06-24-2020,20:56,METAR,Normal,60,5.0,,,9999.0,,26.2,10.3,29.87,1011.9,,,,,,,,,,,,,,,Clear,72000.0,,,,,,,,,
KRDR,06-24-2020,19:56,METAR,Calm,,0.0,,,9999.0,,25.8,10.0,29.89,1012.6,,,,,,,,,,,,,,,Clear,72000.0,,,,,,,,,
KRDR,06-24-2020,18:56,METAR,Normal,350,3.0,,,9999.0,,25.5,11.3,29.90,1012.9,,,,,,,,,,,,,,,Clear,72000.0,,,,,,,,,
KRDR,06-24-2020,17:56,METAR,Normal,60,4.0,,,9999.0,,24.7,11.6,29.91,1013.2,,,,,,,,,,,,,,,2/8 Mostly Clear,72000.0,5500.0,FEW,5500.0,,,,,,
KRDR,06-24-2020,16:56,METAR,Normal,130,4.0,,,9999.0,,24.0,12.3,29.91,1013.3,,,,,,,,,,,,,,,2/8 Mostly Clear,72000.0,4900.0,FEW,4900.0,,,,,,
KRDR,06-24-2020,15:56,METAR,Calm,,0.0,,,9999.0,,23.2,13.9,29.92,1013.6,,,,,,,,,,,,,,,Clear,72000.0,,,,,,,,,
KRDR,06-24-2020,14:56,METAR,Normal,90,3.0,,,9999.0,,21.5,13.9,29.93,1013.8,,,,,,,,,,,,,,,Clear,72000.0,,,,,,,,,
KRDR,06-24-2020,13:56,METAR,Calm,,0.0,,,9999.0,,19.3,15.6,29.92,1013.6,,,,,,,,,,,,,,,Clear,72000.0,,,,,,,,,
KRDR,06-24-2020,12:56,METAR,Calm,,0.0,,,9999.0,,16.3,16.1,29.92,1013.6,,,,,,,,,,,,,,,Clear,72000.0,,,,,,,,,
KRDR,06-24-2020,11:56,METAR,Calm,,0.0,,,9999.0,,12.2,12.2,29.92,1013.7,,,,,,,,,,,,,,,Clear,72000.0,,,,,,,,,
KRDR,06-24-2020,10:56,METAR,Calm,,0.0,,,9999.0,,9.8,9.8,29.92,1013.6,,,,,,,,,,,,,,,Clear,72000.0,,,,,,,,,
KRDR,06-24-2020,09:56,METAR,Calm,,0.0,,,9999.0,,8.6,8.6,29.90,1013.0,,,,,,,,,,,,,,,Clear,72000.0,,,,,,,,,
KRDR,06-24-2020,08:56,METAR,Calm,,0.0,,,9999.0,,8.9,8.9,29.91,1013.4,,,,,,,,,,,,,,,Clear,72000.0,,,,,,,,,
KRDR,06-24-2020,07:56,METAR,Calm,,0.0,,,9999.0,,10.3,10.3,29.90,,,,,,,,,,,,,,,,Clear,72000.0,,,,,,,,,
KRDR,06-24-2020,06:56,METAR,Calm,,0.0,,,9999.0,,12.2,12.2,29.90,,,,,,,,,,,,,,,,Clear,72000.0,,,,,,,,,
KRDR,06-24-2020,05:56,METAR,Normal,280,3.0,,,9999.0,,12.0,12.0,29.90,,,,,,,,,,,,,,TRACE,,Clear,72000.0,,,,,,,,,
KRDR,06-24-2020,04:56,METAR,Calm,,0.0,,,9999.0,,12.7,12.7,29.91,,,,,,,,,,,,,,,,Clear,72000.0,,,,,,,,,
KRDR,06-24-2020,03:56,METAR,Normal,260,5.0,,,9999.0,,13.4,13.4,29.92,,,,,,,,,,,,,,,,Clear,72000.0,,,,,,,,,
KRDR,06-24-2020,02:56,METAR,Normal,180,3.0,,,9999.0,,17.0,16.0,29.91,,,,,,,,,,,,,TRACE,,,,11000.0,11000.0,BKN,11000.0,,,,,,
KRDR,06-24-2020,01:56,METAR,Normal,250,4.0,,,9999.0,,17.9,16.4,29.92,,,,,,,,,,,,TRACE,,,,,7500.0,7500.0,OVC,7500.0,,,,,,
KRDR,06-24-2020,01:28,SPECI,Calm,,0.0,,,9999.0,,18.0,16.0,29.92,1013.7,,,,,,,,,,,,,,,,7500.0,7500.0,BKN,7500.0,OVC,9100.0,,,,
KRDR,06-24-2020,01:03,SPECI,Normal,10,3.0,,,9999.0,Light Rain,19.0,15.0,29.92,1013.6,61,,,,,,,,,,,,,,,7500.0,7500.0,BKN,7500.0,OVC,9100.0,,,,
KRDR,06-24-2020,00:56,METAR,Normal,10,8.0,,,9999.0,,19.8,14.4,29.92,1013.6,,,,,,,,,,,,,,,,7500.0,7500.0,BKN,7500.0,OVC,9100.0,,,,
KRDR,06-23-2020,23:56,METAR,Normal,20,17.0,22.0,,9999.0,,22.7,12.0,29.91,1013.3,,,,,,,,,,,TRACE,,TRACE,,,7500.0,7500.0,OVC,7500.0,,,,,,
KRDR,06-23-2020,23:43,SPECI,Normal,320,5.0,,,9999.0,,24.0,12.0,29.91,1013.3,,,,,,,,,,,,,,,,7500.0,7500.0,BKN,7500.0,BKN,10000.0,,,,
KRDR,06-23-2020,23:36,SPECI,Normal,350,4.0,,,9999.0,Light Drizzle,24.0,12.0,29.91,1013.3,51,,,,,,,,,,,,,,,7500.0,7500.0,BKN,7500.0,,,,,,
KRDR,06-23-2020,22:56,METAR,Calm,,0.0,,,9999.0,,25.1,10.2,29.91,1013.3,,,,,,,,,,,,,,,Clear,72000.0,,,,,,,,,
KRDR,06-23-2020,21:56,METAR,Normal,330,8.0,,,9999.0,,25.2,11.0,29.93,1013.9,,,,,,,,,,,,,,,4/8 Partly Cloudy,72000.0,6000.0,SCT,6000.0,SCT,9600.0,,,,
KRDR,06-23-2020,20:56,METAR,Normal,330,3.0,,,9999.0,,23.4,11.1,29.95,1014.7,,,,,,,,,,,,,,,2/8 Mostly Clear,72000.0,6000.0,FEW,6000.0,,,,,,
KRDR,06-23-2020,19:56,METAR,Normal,10,4.0,,,9999.0,,23.8,12.1,29.97,1015.3,,,,,,,,,,,,,,,,9000.0,6000.0,FEW,6000.0,SCT,7500.0,BKN,9100.0,BKN,20000.0
KRDR,06-23-2020,18:56,METAR,Normal,360,4.0,,,9999.0,,23.4,11.1,29.98,1015.7,,,,,,,,,,,,,,,,10000.0,5500.0,SCT,5500.0,BKN,10000.0,BKN,18000.0,,
KRDR,06-23-2020,17:56,METAR,Normal,300,5.0,,,9999.0,,23.0,12.3,29.99,1016.0,,,,,,,,,,,,,,,2/8 Mostly Clear,72000.0,4500.0,FEW,4500.0,,,,,,
KRDR,06-23-2020,16:56,METAR,Normal,10,6.0,,,9999.0,,21.9,12.7,30.01,1016.7,,,,,,,,,,,,,,,Clear,72000.0,,,,,,,,,
KRDR,06-23-2020,15:56,METAR,Normal,340,7.0,,,9999.0,,20.2,13.9,30.02,1017.0,,,,,,,,,,,,,,,2/8 Mostly Clear,72000.0,15000.0,FEW,15000.0,FEW,17000.0,,,,
KRDR,06-23-2020,14:56,METAR,Normal,360,8.0,,,9999.0,,18.8,14.1,30.02,1017.0,,,,,,,,,,,,,,,,14000.0,14000.0,BKN,14000.0,,,,,,
KRDR,06-23-2020,13:56,METAR,Normal,360,6.0,,,9999.0,,18.1,14.0,30.02,1017.0,,,,,,,,,,,,,,,,14000.0,14000.0,OVC,14000.0,,,,,,
KRDR,06-23-2020,12:56,METAR,Normal,330,6.0,,,9999.0,,15.8,14.0,30.02,1017.1,,,,,,,,,,,,,,,Clear,72000.0,,,,,,,,,
KRDR,06-23-2020,11:56,METAR,Normal,310,5.0,,,9999.0,,13.1,13.1,30.01,1016.8,,,,,,,,,,,,,,,Clear,72000.0,,,,,,,,,
KRDR,06-23-2020,10:56,METAR,Normal,300,6.0,,,9999.0,,11.0,11.0,30.00,1016.5,,,,,,,,,,,,,,,Clear,72000.0,,,,,,,,,
KRDR,06-23-2020,09:56,METAR,Normal,310,6.0,,,9999.0,,11.1,11.1,30.00,1016.5,,,,,,,,,,,,,,,Clear,72000.0,,,,,,,,,
KRDR,06-23-2020,08:56,METAR,Normal,320,6.0,,,9999.0,,11.8,11.8,30.00,1016.5,,,,,,,,,,,,,,,Clear,72000.0,,,,,,,,,
KRDR,06-23-2020,07:56,METAR,Normal,330,8.0,,,9999.0,,12.4,12.4,29.99,1016.2,,,,,,,,,,,,,,,Clear,72000.0,,,,,,,,,
KRDR,06-23-2020,06:56,METAR,Normal,320,6.0,,,9999.0,,12.9,12.9,29.99,1016.2,,,,,,,,,,,,,,,Clear,72000.0,,,,,,,,,
KRDR,06-23-2020,05:56,METAR,Normal,330,7.0,,,9999.0,,13.8,13.6,29.99,1016.1,,,,,,,,,,,,,,,Clear,72000.0,,,,,,,,,
KRDR,06-23-2020,04:56,METAR,Normal,320,6.0,,,9999.0,,14.1,13.6,29.99,1016.1,,,,,,,,,,,,,,,Clear,72000.0,,,,,,,,,
KRDR,06-23-2020,03:56,METAR,Normal,340,8.0,,,9999.0,,15.4,13.9,29.99,1016.1,,,,,,,,,,,,,,,4/8 Partly Cloudy,72000.0,8000.0,SCT,8000.0,,,,,,
KRDR,06-23-2020,02:56,METAR,Normal,340,8.0,,,9999.0,,16.7,13.6,29.98,1015.7,,,,,,,,,,,,,,,,8000.0,8000.0,OVC,8000.0,,,,,,
KRDR,06-23-2020,01:56,METAR,Normal,340,8.0,,,9999.0,,17.7,14.2,29.97,1015.3,,,,,,,,,,,,,,,,8000.0,8000.0,BKN,8000.0,,,,,,
KRDR,06-23-2020,00:56,METAR,Normal,340,10.0,,,9999.0,,18.3,13.2,29.97,1015.4,,,,,,,,,,,,,,,4/8 Partly Cloudy,72000.0,9000.0,SCT,9100.0,,,,,,
KRDR,06-22-2020,23:56,METAR,Normal,350,9.0,,,9999.0,,18.8,14.3,29.96,1015.1,,,,,,,,,,,,,TRACE,,,8500.0,7000.0,SCT,7000.0,OVC,8600.0,,,,
KRDR,06-22-2020,22:56,METAR,Normal,340,13.0,,,9999.0,,20.0,13.4,29.95,1014.8,,,,,,,,,,,,,,,,8500.0,4200.0,SCT,4200.0,BKN,8600.0,,,,
KRDR,06-22-2020,21:56,METAR,Normal,340,12.0,,,9999.0,,19.8,13.5,29.94,1014.5,,,,,,,,,,,,,,,,8000.0,3300.0,SCT,3300.0,OVC,8000.0,,,,
KRDR,06-22-2020,20:56,METAR,Normal,360,10.0,16.0,,9999.0,,19.6,15.4,29.94,1014.5,,,,,,,,,,,,TRACE,,,,7500.0,2600.0,FEW,2600.0,SCT,5000.0,BKN,7500.0,,
KRDR,06-22-2020,19:56,METAR,Normal,10,7.0,,,9999.0,,17.8,14.3,29.95,1014.9,,,,,,,,,,,TRACE,,,,,6500.0,5000.0,SCT,5000.0,OVC,6500.0,,,,
KRDR,06-22-2020,19:30,SPECI,Normal,350,4.0,,,9999.0,,17.0,15.0,29.95,1014.9,,,,,,,,,,,,,,,,5000.0,3000.0,FEW,3000.0,BKN,5000.0,OVC,6500.0,,
KRDR,06-22-2020,19:27,SPECI,Normal,340,4.0,,,9999.0,Light Drizzle,17.0,15.0,29.95,1014.9,51,,,,,,,,,,,,,,,5500.0,3000.0,FEW,3000.0,SCT,4600.0,BKN,5500.0,OVC,7000.0
KRDR,06-22-2020,19:02,SPECI,Normal,310,6.0,,,9999.0,,17.0,16.0,29.95,1014.9,,,,,,,,,,,,,,,,5500.0,4300.0,SCT,4300.0,BKN,5500.0,OVC,7500.0,,
KRDR,06-22-2020,18:56,METAR,Normal,310,7.0,,,9999.0,Light Rain,17.1,15.4,29.95,1014.9,61,,,,,,,,,,TRACE,,,,,4600.0,3600.0,SCT,3600.0,BKN,4600.0,OVC,5500.0,,
KRDR,06-22-2020,18:45,SPECI,Normal,310,10.0,,,9999.0,Light Rain,19.0,13.0,29.95,1014.9,61,,,,,,,,,,,,,,,5000.0,3500.0,FEW,3500.0,OVC,5000.0,,,,
KRDR,06-22-2020,17:56,METAR,Normal,350,7.0,,,9999.0,,18.1,12.5,29.95,1014.9,,,,,,,,,,,,,,,,6000.0,3500.0,FEW,3500.0,OVC,6000.0,,,,
KRDR,06-22-2020,16:56,METAR,Normal,320,7.0,,,9999.0,,19.7,12.2,29.94,1014.5,,,,,,,,,,,,,,,,6000.0,6000.0,BKN,6000.0,,,,,,
KRDR,06-22-2020,15:56,METAR,Normal,300,7.0,,,9999.0,,18.5,12.5,29.93,1014.1,,,,,,,,,,,,,,,,3300.0,3300.0,BKN,3300.0,BKN,5500.0,,,,
KRDR,06-22-2020,14:56,METAR,Normal,340,6.0,,,9999.0,,18.0,12.0,29.93,1014.0,,,,,,,,,,,,,,,,5000.0,5000.0,OVC,5000.0,,,,,,
KRDR,06-22-2020,13:56,METAR,Normal,310,8.0,,,9999.0,,17.5,11.5,29.91,1013.3,,,,,,,,,,,,,,,Clear,72000.0,,,,,,,,,
KRDR,06-22-2020,12:56,METAR,Normal,300,9.0,,,9999.0,,16.0,12.2,29.89,1012.7,,,,,,,,,,,,,,,Clear,72000.0,,,,,,,,,
KRDR,06-22-2020,11:56,METAR,Normal,290,5.0,,,9999.0,,13.0,13.0,29.88,1012.4,,,,,,,,,,,,,,,Clear,72000.0,,,,,,,,,
KRDR,06-22-2020,10:56,METAR,Normal,280,7.0,,,9999.0,,9.8,9.8,29.88,1012.4,,,,,,,,,,,,,,,Clear,72000.0,,,,,,,,,
KRDR,06-22-2020,09:56,METAR,Normal,290,3.0,,,9999.0,,9.1,9.1,29.88,1012.4,,,,,,,,,,,,,,,Clear,72000.0,,,,,,,,,
KRDR,06-22-2020,08:56,METAR,Normal,280,3.0,,,9999.0,,10.0,10.0,29.89,1012.7,,,,,,,,,,,,,,,2/8 Mostly Clear,72000.0,6500.0,FEW,6500.0,,,,,,
KRDR,06-22-2020,07:56,METAR,Calm,,0.0,,,9999.0,,9.6,9.6,29.88,1012.5,,,,,,,,,,,,,,,,6500.0,6500.0,OVC,6500.0,,,,,,
KRDR,06-22-2020,06:56,METAR,Calm,,0.0,,,9999.0,,8.2,8.2,29.87,1012.2,,,,,,,,,,,,,,,4/8 Partly Cloudy,72000.0,6500.0,SCT,6500.0,,,,,,
KRDR,06-22-2020,05:56,METAR,Calm,,0.0,,,9999.0,,8.6,8.6,29.86,1011.9,,,,,,,,,,,,,,,2/8 Mostly Clear,72000.0,6500.0,FEW,6500.0,,,,,,
KRDR,06-22-2020,04:56,METAR,Normal,220,4.0,,,9999.0,,10.1,10.1,29.85,1011.5,,,,,,,,,,,,,,,2/8 Mostly Clear,72000.0,7000.0,FEW,7000.0,,,,,,
KRDR,06-22-2020,03:56,METAR,Normal,30,5.0,,,9999.0,,10.9,10.9,29.83,1010.8,,,,,,,,,,,,,,,2/8 Mostly Clear,72000.0,6500.0,FEW,6500.0,,,,,,
KRDR,06-22-2020,02:56,METAR,Normal,40,3.0,,,9999.0,,15.2,12.1,29.82,1010.3,,,,,,,,,,,,,,,2/8 Mostly Clear,72000.0,7000.0,FEW,7000.0,,,,,,
KRDR,06-22-2020,01:56,METAR,Normal,40,5.0,,,9999.0,,16.9,11.6,29.81,1010.0,,,,,,,,,,,,,,,,7000.0,7000.0,BKN,7000.0,,,,,,
KRDR,06-22-2020,00:56,METAR,Normal,30,5.0,,,9999.0,,18.2,10.3,29.79,1009.3,,,,,,,,,,,,,,,,7000.0,7000.0,BKN,7000.0,,,,,,
KRDR,06-21-2020,23:56,METAR,Normal,330,8.0,,,9999.0,,19.4,8.1,29.79,1009.3,,,,,,,,,,,,,,,4/8 Partly Cloudy,72000.0,6500.0,SCT,6500.0,,,,,,
KRDR,06-21-2020,22:56,METAR,Normal,320,10.0,,,9999.0,,20.6,8.2,29.80,1009.6,,,,,,,,,,,,,,,,7000.0,7000.0,BKN,7000.0,,,,,,
KRDR,06-21-2020,21:56,METAR,Normal,340,9.0,16.0,,9999.0,,21.5,9.4,29.80,1009.6,,,,,,,,,,,,,,,4/8 Partly Cloudy,72000.0,6000.0,SCT,6000.0,,,,,,
KRDR,06-21-2020,21:48,SPECI,Normal,310,12.0,,,9999.0,,21.0,9.0,29.80,1009.6,,,,,,,,,,,,,,,,6000.0,6000.0,BKN,6000.0,,,,,,
KRDR,06-21-2020,20:56,METAR,Normal,290,8.0,,,9999.0,,21.4,9.9,29.79,1009.3,,,,,,,,,,,,,,,,6000.0,6000.0,BKN,6000.0,,,,,,
KRDR,06-21-2020,19:56,METAR,Normal,300,7.0,,,9999.0,,18.6,9.9,29.80,1009.6,,,,,,,,,,,,,,,,6000.0,4500.0,SCT,4500.0,BKN,6000.0,,,,
KRDR,06-21-2020,18:56,METAR,Normal,330,7.0,,,9999.0,,18.7,10.8,29.79,1009.3,,,,,,,,,,,,,,,,4900.0,3800.0,SCT,3800.0,BKN,4900.0,BKN,6000.0,,
KRDR,06-21-2020,17:56,METAR,Normal,330,9.0,,,9999.0,,17.5,10.8,29.80,1009.6,,,,,,,,,,,,,,,,4600.0,3600.0,SCT,3600.0,BKN,4600.0,,,,
KRDR,06-21-2020,16:56,METAR,Normal,330,11.0,14.0,,9999.0,,17.4,11.0,29.79,1009.2,,,,,,,,,,,,,,,,3100.0,3100.0,BKN,3100.0,,,,,,
KRDR,06-21-2020,16:46,SPECI,Normal,320,12.0,,,9999.0,,18.0,11.0,29.79,1009.2,,,,,,,,,,,,,,,,3900.0,3000.0,SCT,3000.0,BKN,3900.0,,,,
KRDR,06-21-2020,16:36,SPECI,Normal,310,9.0,,,9999.0,,17.0,11.0,29.79,1009.3,,,,,,,,,,,,,,,,2900.0,2900.0,BKN,2900.0,,,,,,
KRDR,06-21-2020,15:56,METAR,Normal,310,10.0,,,9999.0,,16.9,11.6,29.78,1008.9,,,,,,,,,,,,,,,2/8 Mostly Clear,72000.0,2800.0,FEW,2800.0,,,,,,
KRDR,06-21-2020,14:56,METAR,Normal,300,10.0,,,9999.0,,16.5,9.9,29.77,1008.6,,,,,,,,,,,,,,,Clear,72000.0,,,,,,,,,
KRDR,06-21-2020,13:56,METAR,Normal,290,11.0,,,9999.0,,15.1,11.3,29.77,1008.6,,,,,,,,,,,,,,,Clear,72000.0,,,,,,,,,
KRDR,06-21-2020,12:56,METAR,Normal,300,8.0,,,9999.0,,13.9,11.1,29.77,1008.6,,,,,,,,,,,,,,,Clear,72000.0,,,,,,,,,
KRDR,06-21-2020,11:56,METAR,Normal,310,6.0,,,9999.0,,12.3,12.1,29.76,1008.3,,,,,,,,,,,,,,.35 IN,Clear,72000.0,,,,,,,,,
KRDR,06-21-2020,10:56,METAR,Normal,290,5.0,,,9999.0,,10.1,10.1,29.74,1007.7,,,,,,,,,,,,,,,Clear,72000.0,,,,,,,,,
KRDR,06-21-2020,09:56,METAR,Normal,300,6.0,,,9999.0,,11.3,11.3,29.73,1007.3,,,,,,,,,,,,,,,Clear,72000.0,,,,,,,,,
KRDR,06-21-2020,08:56,METAR,Normal,280,8.0,,,9999.0,,11.5,11.5,29.73,1007.3,,,,,,,,,,,,,,,Clear,72000.0,,,,,,,,,
KRDR,06-21-2020,07:56,METAR,Normal,270,5.0,,,9999.0,,12.3,11.5,29.73,1007.3,,,,,,,,,,,,,,,2/8 Mostly Clear,72000.0,10000.0,FEW,10000.0,,,,,,
KRDR,06-21-2020,06:56,METAR,Normal,270,5.0,,,9999.0,,13.3,13.3,29.74,1007.5,,,,,,,,,,,,,,,Clear,72000.0,,,,,,,,,
KRDR,06-21-2020,05:56,METAR,Normal,250,5.0,,,9999.0,,14.2,14.2,29.74,1007.5,,,,,,,,,,,,,,,,11000.0,11000.0,BKN,11000.0,,,,,,
KRDR,06-21-2020,04:56,METAR,Normal,200,4.0,,,9999.0,,16.0,16.0,29.74,1007.6,,,,,,,,,,,,,,,,17000.0,11000.0,SCT,11000.0,BKN,17000.0,,,,
KRDR,06-21-2020,03:56,METAR,Normal,210,7.0,,,9999.0,,16.4,16.4,29.74,1007.5,,,,,,,,,,,,,,,,11000.0,11000.0,OVC,11000.0,,,,,,
KRDR,06-21-2020,02:56,METAR,Normal,200,7.0,,,9999.0,,16.7,16.7,29.73,1007.3,,,,,,,,,,,,,,,Clear,72000.0,,,,,,,,,
KRDR,06-21-2020,01:56,METAR,Normal,190,6.0,,,9999.0,,18.1,18.1,29.73,1007.2,,,,,,,,,,,,,,,Clear,72000.0,,,,,,,,,
KRDR,06-21-2020,00:56,METAR,Normal,180,8.0,,,9999.0,,19.2,18.2,29.74,1007.5,,,,,,,,,,,,,,,Clear,72000.0,,,,,,,,,
KRDR,06-20-2020,23:56,METAR,Normal,160,10.0,,,9999.0,,19.5,19.2,29.75,1007.8,,,,,,,,,,,TRACE,,TRACE,,2/8 Mostly Clear,72000.0,5000.0,FEW,5000.0,FEW,6500.0,,,,
KRDR,06-20-2020,23:03,SPECI,Normal,200,12.0,17.0,,9999.0,,18.0,18.0,29.74,1007.5,,,,,,,,,,,,,,,,9000.0,9000.0,BKN,9100.0,,,,,,
KRDR,06-20-2020,22:56,METAR,Normal,200,13.0,,200/31KTS,9999.0,Light Rain,18.2,18.2,29.74,1007.5,61,,,,,,,,,,TRACE,,,,,8500.0,8500.0,BKN,8600.0,,,,,,
KRDR,06-20-2020,22:47,SPECI,Normal,190,16.0,25.0,,9999.0,Light Rain,19.0,19.0,29.73,1007.2,61,,,,,,,,,,,,,,4/8 Partly Cloudy,72000.0,9000.0,SCT,9100.0,SCT,17000.0,,,,
KRDR,06-20-2020,21:56,METAR,Normal,180,19.0,25.0,,9999.0,,19.9,15.7,29.74,1007.5,,,,,,,,,,,,,,,4/8 Partly Cloudy,72000.0,6000.0,FEW,6000.0,FEW,9100.0,SCT,12000.0,SCT,14000.0
KRDR,06-20-2020,20:56,METAR,Normal,170,12.0,,,9999.0,,18.6,18.4,29.76,1008.2,,,,,,,,,,,TRACE,TRACE,,,4/8 Partly Cloudy,72000.0,2900.0,FEW,2900.0,SCT,19000.0,,,,
KRDR,06-20-2020,19:57,SPECI,Normal,140,13.0,,,9999.0,,20.0,18.0,29.76,1008.2,,,,,,,,,,,,,,,4/8 Partly Cloudy,72000.0,14000.0,SCT,14000.0,SCT,17000.0,,,,
KRDR,06-20-2020,19:56,METAR,Normal,140,13.0,,,9999.0,Light Rain,19.6,18.1,29.76,1008.2,61,,,,,,,,,,TRACE,,,,4/8 Partly Cloudy,72000.0,3400.0,FEW,3400.0,SCT,14000.0,SCT,17000.0,,
KRDR,06-20-2020,19:47,SPECI,Normal,140,11.0,,,9999.0,Light Rain,20.0,18.0,29.77,1008.4,61,,,,,,,,,,,,,,,21000.0,2900.0,FEW,2900.0,FEW,4000.0,SCT,13000.0,SCT,18000.0
KRDR,06-20-2020,19:41,SPECI,Normal,150,14.0,,,9999.0,,21.0,18.0,29.77,,,,,,,,,,,,,,,,,18000.0,2500.0,FEW,2500.0,SCT,11000.0,SCT,13000.0,SCT,16000.0
KRDR,06-20-2020,19:26,SPECI,Normal,140,13.0,21.0,,9999.0,,21.0,19.0,29.78,1008.8,,,,,,,,,,,,,,,,15000.0,2200.0,SCT,2200.0,SCT,2900.0,BKN,15000.0,BKN,21000.0
KRDR,06-20-2020,19:16,SPECI,Normal,150,16.0,21.0,,9999.0,,23.0,19.0,29.79,1009.1,,,,,,,,,,,,,,,,2300.0,2300.0,BKN,2300.0,,,,,,
KRDR,06-20-2020,18:56,METAR,Normal,160,16.0,,,9999.0,,22.1,18.9,29.80,1009.4,,,,,,,,,,,,,,,4/8 Partly Cloudy,72000.0,2400.0,FEW,2400.0,FEW,12000.0,SCT,19000.0,,
KRDR,06-20-2020,17:56,METAR,Normal,150,17.0,,,9999.0,,18.8,18.1,29.82,1010.2,,,,,,,,,,,.01 IN,,.35 IN,,4/8 Partly Cloudy,72000.0,12000.0,SCT,12000.0,,,,,,
KRDR,06-20-2020,17:06,SPECI,Normal,150,15.0,,,9999.0,,17.0,17.0,29.84,1011.0,,,,,,,,,,,,,,,,4600.0,4600.0,BKN,4600.0,BKN,8000.0,OVC,12000.0,,
KRDR,06-20-2020,16:59,SPECI,Normal,160,14.0,21.0,,9999.0,Light Rain,17.0,17.0,29.84,1011.0,61,,,,,,,,,,,,,,,4600.0,4600.0,BKN,4600.0,BKN,7000.0,OVC,8000.0,,
KRDR,06-20-2020,16:56,METAR,Normal,160,12.0,21.0,,9999.0,,16.8,16.8,29.84,1011.0,,,,,,,,,,,.01 IN,,,,,4300.0,4300.0,BKN,4300.0,BKN,7000.0,OVC,8000.0,,
KRDR,06-20-2020,16:54,SPECI,Normal,160,13.0,21.0,,9999.0,,17.0,17.0,29.85,1011.3,,,,,,,,,,,,,,,,4300.0,4300.0,BKN,4300.0,OVC,7000.0,,,,
KRDR,06-20-2020,16:43,SPECI,Normal,170,18.0,25.0,,9999.0,Light Rain,17.0,16.0,29.86,1011.6,61,,,,,,,,,,,,,,,7000.0,3200.0,SCT,3200.0,OVC,7000.0,,,,
KRDR,06-20-2020,15:56,METAR,Normal,150,13.0,,,9999.0,,18.0,18.0,29.86,1011.6,,,,,,,,,,,,,,,,4400.0,4400.0,BKN,4400.0,BKN,11000.0,,,,
KRDR,06-20-2020,14:56,METAR,Normal,140,9.0,,,9999.0,,15.5,15.5,29.88,1012.3,,,,,,,,,,,.13 IN,.33 IN,,,,4800.0,4800.0,OVC,4800.0,,,,,,
KRDR,06-20-2020,14:34,SPECI,Normal,130,9.0,,,9999.0,,15.0,15.0,29.89,1012.7,,,,,,,,,,,,,,,,5000.0,5000.0,OVC,5000.0,,,,,,
KRDR,06-20-2020,14:27,SPECI,Normal,130,9.0,,,9999.0,Dry Thunderstorm,15.0,15.0,29.89,1012.7,91,,,,,,,,,,,,,,,5500.0,3800.0,FEW,3800.0,OVC,5500.0,,,,
KRDR,06-20-2020,14:19,SPECI,Normal,140,8.0,,,9999.0,Thunderstorm and Rain or Snow Showers,15.0,15.0,29.90,1013.0,92,,,,,,,,,,,,,,,5000.0,3900.0,SCT,3900.0,OVC,5000.0,,,,
KRDR,06-20-2020,13:56,METAR,Calm,,0.0,,,9999.0,Heavy Thunderstorm and Rain or Snow Showers/Mist,15.0,15.0,29.91,1013.3,95,10,,,,,,,,,.14 IN,,,,,4900.0,1200.0,FEW,1200.0,SCT,3400.0,BKN,4900.0,OVC,6500.0
KRDR,06-20-2020,13:51,SPECI,Calm,,0.0,,,9999.0,Thunderstorm with Rain or Snow,15.0,15.0,29.91,1013.3,,,,95,,,,,,,,,,,,4900.0,1200.0,FEW,1200.0,SCT,3400.0,BKN,4900.0,OVC,6500.0
KRDR,06-20-2020,13:48,SPECI,Normal,160,3.0,,,9999.0,Light Rain,15.0,15.0,29.92,1013.6,61,,,,,,,,,,,,,,,6500.0,3100.0,FEW,3100.0,SCT,5000.0,OVC,6500.0,,
KRDR,06-20-2020,13:45,SPECI,Calm,,0.0,,,9999.0,,15.0,15.0,29.92,1013.6,,,,,,,,,,,,,,,,6500.0,2800.0,FEW,2800.0,SCT,5000.0,OVC,6500.0,,
KRDR,06-20-2020,13:30,SPECI,Normal,260,4.0,,,9999.0,Rain,15.0,15.0,29.89,1012.6,62,,,,,,,,,,,,,,,6500.0,6500.0,OVC,6500.0,,,,,,
KRDR,06-20-2020,13:27,SPECI,Calm,,0.0,,,9999.0,,15.0,15.0,29.89,1012.5,,,,,,,,,,,,,,,,6500.0,6500.0,OVC,6500.0,,,,,,
KRDR,06-20-2020,13:17,SPECI,Normal,140,8.0,,,9999.0,Light Rain,15.0,15.0,29.89,1012.5,61,,,,,,,,,,,,,,,6500.0,6500.0,OVC,6500.0,,,,,,
KRDR,06-20-2020,12:56,METAR,Normal,110,6.0,,,9999.0,,15.0,15.0,29.88,1012.2,,,,,,,,,,,.06 IN,,,,,6500.0,6500.0,BKN,6500.0,OVC,8000.0,,,,
KRDR,06-20-2020,12:53,SPECI,Normal,110,6.0,,,9999.0,,15.0,15.0,29.89,1012.5,,,,,,,,,,,,,,,,7000.0,5500.0,SCT,5500.0,OVC,7000.0,,,,
KRDR,06-20-2020,11:56,METAR,Normal,180,8.0,,,9999.0,Light Rain,15.3,15.3,29.91,1013.2,61,,,,,,,,,,.08 IN,,.14 IN,.14 IN,,7000.0,7000.0,OVC,7000.0,,,,,,
KRDR,06-20-2020,11:20,SPECI,Normal,190,9.0,,,9999.0,Light Rain,16.0,15.0,29.91,1013.2,61,,,,,,,,,,,,,,,7000.0,7000.0,BKN,7000.0,OVC,9100.0,,,,
KRDR,06-20-2020,11:06,SPECI,Normal,180,9.0,,,9999.0,,15.0,15.0,29.91,1013.2,,,,,,,,,,,,,,,,8500.0,5500.0,FEW,5500.0,BKN,8600.0,BKN,10000.0,,
KRDR,06-20-2020,10:56,METAR,Normal,180,9.0,,,9999.0,Light Rain,15.3,15.3,29.91,1013.3,61,,,,,,,,,,.02 IN,,,,,8500.0,5500.0,FEW,5500.0,BKN,8600.0,BKN,10000.0,,
KRDR,06-20-2020,10:38,SPECI,Normal,190,8.0,,,9999.0,Light Rain,16.0,15.0,29.91,1013.2,61,,,,,,,,,,,,,,4/8 Partly Cloudy,72000.0,8000.0,FEW,8000.0,SCT,9100.0,SCT,18000.0,,
KRDR,06-20-2020,10:09,SPECI,Normal,180,10.0,,,9999.0,,15.0,15.0,29.92,1013.5,,,,,,,,,,,,,,,,13000.0,2500.0,FEW,2500.0,FEW,7500.0,SCT,9100.0,BKN,13000.0
KRDR,06-20-2020,09:56,METAR,Normal,170,11.0,,,9999.0,Light Rain,15.2,15.0,29.92,1013.5,61,,,,,,,,,,.02 IN,,,,,9000.0,2500.0,FEW,2500.0,SCT,7500.0,BKN,9100.0,,
KRDR,06-20-2020,09:40,SPECI,Normal,180,10.0,,,9999.0,Light Rain,16.0,15.0,29.93,1013.9,61,,,,,,,,,,,,,,,7500.0,7500.0,BKN,7500.0,BKN,10000.0,,,,
KRDR,06-20-2020,08:56,METAR,Normal,170,9.0,,,9999.0,,16.0,14.7,29.94,1014.2,,,,,,,,,,,.02 IN,.02 IN,,,,7500.0,5000.0,SCT,5000.0,BKN,7500.0,BKN,11000.0,,
KRDR,06-20-2020,08:53,SPECI,Normal,170,7.0,,,9999.0,,16.0,15.0,29.94,1014.2,,,,,,,,,,,,,,,,5000.0,5000.0,BKN,5000.0,,,,,,
KRDR,06-20-2020,08:10,SPECI,Normal,230,13.0,19.0,,9999.0,Light Rain,17.0,13.0,29.95,1014.6,61,,,,,,,,,,,,,,,7500.0,7500.0,BKN,7500.0,OVC,10000.0,,,,
KRDR,06-20-2020,08:09,SPECI,Normal,240,14.0,19.0,,9999.0,,17.0,13.0,29.95,1014.6,,,,,,,,,,,,,,,,7500.0,7500.0,BKN,7500.0,OVC,10000.0,,,,
KRDR,06-20-2020,07:56,METAR,Normal,180,10.0,,,9999.0,,16.9,12.6,29.93,1013.9,,,,,,,,,,,TRACE,,,,,8000.0,8000.0,BKN,8000.0,OVC,10000.0,,,,
KRDR,06-20-2020,07:34,SPECI,Normal,170,11.0,,,9999.0,,17.0,13.0,29.93,1013.9,,,,,,,,,,,,,,,,7500.0,5500.0,FEW,5500.0,BKN,7500.0,BKN,9100.0,,
KRDR,06-20-2020,07:25,SPECI,Normal,180,13.0,,,9999.0,Light Drizzle,17.0,13.0,29.93,1013.9,51,,,,,,,,,,,,,,,9000.0,5000.0,FEW,5000.0,FEW,7000.0,BKN,9100.0,,
KRDR,06-20-2020,06:56,METAR,Normal,180,10.0,,,9999.0,,17.1,12.2,29.94,1014.2,,,,,,,,,,,,,,,,10000.0,10000.0,BKN,10000.0,OVC,13000.0,,,,
KRDR,06-20-2020,05:56,METAR,Normal,170,11.0,,,9999.0,,16.4,11.9,29.94,1014.3,,,,,,,,,,,,,,,Clear,72000.0,,,,,,,,,
KRDR,06-20-2020,04:56,METAR,Normal,150,7.0,,,9999.0,,15.6,11.2,29.95,1014.7,,,,,,,,,,,,,,,2/8 Mostly Clear,72000.0,10000.0,FEW,10000.0,,,,,,
KRDR,06-20-2020,03:56,METAR,Normal,130,9.0,,,9999.0,,16.8,10.6,29.96,1015.0,,,,,,,,,,,,,,,Clear,72000.0,,,,,,,,,
KRDR,06-20-2020,02:56,METAR,Normal,130,7.0,,,9999.0,,18.1,8.6,29.97,1015.4,,,,,,,,,,,,,,,4/8 Partly Cloudy,72000.0,9500.0,SCT,9600.0,,,,,,
KRDR,06-20-2020,01:56,METAR,Calm,,0.0,,,9999.0,,21.2,6.3,29.98,1015.7,,,,,,,,,,,,,,,Clear,72000.0,,,,,,,,,
KRDR,06-20-2020,00:56,METAR,Normal,240,3.0,,,9999.0,,22.3,6.5,29.97,1015.3,,,,,,,,,,,,,,,Clear,72000.0,,,,,,,,,
KRDR,06-19-2020,23:56,METAR,Normal,260,4.0,,,9999.0,,23.0,7.1,29.98,1015.7,,,,,,,,,,,,,,,2/8 Mostly Clear,72000.0,8000.0,FEW,8000.0,,,,,,
KRDR,06-19-2020,22:56,METAR,Normal,250,6.0,,,9999.0,,21.6,7.0,29.99,1016.1,,,,,,,,,,,,,,,4/8 Partly Cloudy,72000.0,8000.0,SCT,8000.0,,,,,,
KRDR,06-19-2020,21:56,METAR,Normal,280,10.0,16.0,,9999.0,,22.3,7.3,30.00,1016.4,,,,,,,,,,,,,,,4/8 Partly Cloudy,72000.0,7500.0,SCT,7500.0,,,,,,
KRDR,06-19-2020,20:56,METAR,Normal,260,7.0,,,9999.0,,21.1,7.0,30.02,1017.2,,,,,,,,,,,,,,,2/8 Mostly Clear,72000.0,7000.0,FEW,7000.0,FEW,19000.0,,,,
KRDR,06-19-2020,19:56,METAR,Normal,290,10.0,16.0,,9999.0,,21.7,6.4,30.04,1017.8,,,,,,,,,,,,,,,,6000.0,6000.0,BKN,6000.0,,,,,,
KRDR,06-19-2020,18:56,METAR,Normal,270,10.0,16.0,,9999.0,,20.8,6.7,30.05,1018.2,,,,,,,,,,,,,,,4/8 Partly Cloudy,72000.0,5500.0,SCT,5500.0,,,,,,
KRDR,06-19-2020,18:02,SPECI,Normal,310,11.0,17.0,,9999.0,,20.0,9.0,30.05,1018.2,,,,,,,,,,,,,,,2/8 Mostly Clear,72000.0,4700.0,FEW,4700.0,FEW,20000.0,,,,
KRDR,06-19-2020,17:56,METAR,Normal,260,10.0,17.0,,9999.0,,19.4,9.0,30.05,1018.2,,,,,,,,,,,,,,,2/8 Mostly Clear,72000.0,4700.0,FEW,4700.0,,,,,,
KRDR,06-19-2020,17:45,SPECI,Normal,260,12.0,18.0,,9999.0,,19.0,9.0,30.05,1018.2,,,,,,,,,,,,,,,2/8 Mostly Clear,72000.0,4500.0,FEW,4500.0,,,,,,
KRDR,06-19-2020,15:56,METAR,Normal,290,12.0,,,9999.0,,17.1,9.5,30.05,1018.2,,,,,,,,,,,,,,,2/8 Mostly Clear,72000.0,3500.0,FEW,3500.0,,,,,,
KRDR,06-19-2020,14:56,METAR,Normal,300,13.0,19.0,,9999.0,,16.5,9.2,30.05,1018.2,,,,,,,,,,,,,,,4/8 Partly Cloudy,72000.0,3200.0,SCT,3200.0,,,,,,
KRDR,06-19-2020,13:56,METAR,Normal,290,11.0,,,9999.0,,15.1,9.4,30.05,1018.2,,,,,,,,,,,,,,,2/8 Mostly Clear,72000.0,3100.0,FEW,3100.0,,,,,,
KRDR,06-19-2020,12:56,METAR,Normal,270,10.0,15.0,,9999.0,,13.9,9.7,30.05,1018.2,,,,,,,,,,,,,,,Clear,72000.0,,,,,,,,,
KRDR,06-19-2020,11:56,METAR,Normal,270,6.0,,,9999.0,,12.3,10.0,30.04,1017.8,,,,,,,,,,,,,,,Clear,72000.0,,,,,,,,,
KRDR,06-19-2020,10:56,METAR,Normal,250,7.0,,,9999.0,,12.0,9.9,30.03,1017.5,,,,,,,,,,,,,,,,3500.0,3500.0,BKN,3500.0,,,,,,
KRDR,06-19-2020,09:56,METAR,Normal,250,5.0,,,9999.0,,12.1,11.0,30.01,1016.8,,,,,,,,,,,,,,,,3800.0,3800.0,OVC,3800.0,,,,,,
KRDR,06-19-2020,08:56,METAR,Normal,230,4.0,,,9999.0,,8.3,8.3,30.00,1016.5,,,,,,,,,,,,,,,,4000.0,4000.0,BKN,4000.0,,,,,,
KRDR,06-19-2020,07:56,METAR,Normal,200,4.0,,,9999.0,,9.1,9.1,30.00,1016.5,,,,,,,,,,,,,,,Clear,72000.0,,,,,,,,,
KRDR,06-19-2020,06:56,METAR,Normal,270,5.0,,,9999.0,,9.4,9.2,29.99,1016.1,,,,,,,,,,,,,,,Clear,72000.0,,,,,,,,,
KRDR,06-19-2020,05:56,METAR,Normal,290,4.0,,,9999.0,,11.0,9.3,29.99,1016.0,,,,,,,,,,,,,,,Clear,72000.0,,,,,,,,,
KRDR,06-19-2020,04:56,METAR,Normal,290,4.0,,,9999.0,,11.0,9.7,30.00,1016.4,,,,,,,,,,,,,,,4/8 Partly Cloudy,72000.0,4500.0,SCT,4500.0,,,,,,
KRDR,06-19-2020,03:56,METAR,Normal,340,3.0,,,9999.0,,12.3,10.4,29.99,1016.1,,,,,,,,,,,,,,,Clear,72000.0,,,,,,,,,
KRDR,06-19-2020,02:56,METAR,Normal,320,6.0,,,9999.0,,14.1,10.9,29.96,1015.0,,,,,,,,,,,,,,,Clear,72000.0,,,,,,,,,
KRDR,06-19-2020,01:56,METAR,Normal,320,9.0,,,9999.0,,16.9,9.6,29.94,1014.2,,,,,,,,,,,,,,,Clear,72000.0,,,,,,,,,
KRDR,06-19-2020,00:56,METAR,Normal,310,15.0,20.0,,9999.0,,18.6,10.2,29.92,1013.5,,,,,,,,,,,,,,,Clear,72000.0,,,,,,,,,
KRDR,06-18-2020,23:56,METAR,Normal,300,15.0,25.0,,9999.0,,19.7,11.5,29.90,1012.8,,,,,,,,,,,,,,,4/8 Partly Cloudy,72000.0,4200.0,SCT,4200.0,,,,,,
KRDR,06-18-2020,22:56,METAR,Normal,270,13.0,21.0,,9999.0,,20.7,12.9,29.88,1012.1,,,,,,,,,,,,,,,2/8 Mostly Clear,72000.0,3900.0,FEW,3900.0,,,,,,
KRDR,06-18-2020,21:56,METAR,Normal,300,14.0,22.0,300/29KTS,9999.0,,20.0,12.7,29.87,1011.8,,,,,,,,,,,,,,,,3600.0,3600.0,BKN,3600.0,,,,,,
KRDR,06-18-2020,20:56,METAR,Normal,290,17.0,25.0,300/26KTS,9999.0,,21.7,13.6,29.84,1010.7,,,,,,,,,,,,,,,,11000.0,4000.0,SCT,4000.0,BKN,11000.0,BKN,16000.0,OVC,19000.0
KRDR,06-18-2020,19:56,METAR,Normal,280,20.0,26.0,,9999.0,,23.5,15.8,29.82,1009.9,,,,,,,,,,,,,,,,11000.0,4800.0,SCT,4800.0,BKN,11000.0,BKN,15000.0,BKN,19000.0
KRDR,06-18-2020,18:56,METAR,Normal,260,11.0,,,9999.0,,24.9,14.9,29.81,1009.5,,,,,,,,,,,,,,,4/8 Partly Cloudy,72000.0,4600.0,SCT,4600.0,,,,,,
KRDR,06-18-2020,18:27,SPECI,Normal,280,13.0,21.0,,9999.0,,25.0,15.0,29.81,1009.5,,,,,,,,,,,,,,,4/8 Partly Cloudy,72000.0,4600.0,FEW,4600.0,SCT,18000.0,,,,
KRDR,06-18-2020,18:18,SPECI,Normal,210,11.0,18.0,,9999.0,,25.0,16.0,29.81,1009.5,,,,,,,,,,,,,,,2/8 Mostly Clear,72000.0,4300.0,FEW,4300.0,,,,,,
KRDR,06-18-2020,17:56,METAR,Normal,240,13.0,17.0,,9999.0,,24.1,15.8,29.81,1009.6,,,,,,,,,,,,,,,4/8 Partly Cloudy,72000.0,4000.0,FEW,4000.0,SCT,10000.0,,,,
KRDR,06-18-2020,16:56,METAR,Normal,270,7.0,,,9999.0,,22.4,16.9,29.80,1009.2,,,,,,,,,,,,,,,,20000.0,7500.0,SCT,7500.0,SCT,17000.0,BKN,20000.0,,
KRDR,06-18-2020,16:06,SPECI,Normal,260,7.0,,,9999.0,,20.0,17.0,29.81,1009.6,,,,,,,,,,,,,,,,4900.0,2400.0,SCT,2400.0,OVC,4900.0,,,,
KRDR,06-18-2020,15:56,METAR,Normal,260,9.0,,,9999.0,,19.9,16.5,29.81,1009.6,,,,,,,,,,,,,,,,2400.0,2400.0,BKN,2400.0,OVC,4900.0,,,,
KRDR,06-18-2020,15:36,SPECI,Normal,260,7.0,,,9999.0,,20.0,18.0,29.80,1009.3,,,,,,,,,,,,,,,,2200.0,2200.0,BKN,2200.0,OVC,4400.0,,,,
KRDR,06-18-2020,14:56,METAR,Normal,280,7.0,,,9999.0,,20.5,18.4,29.80,1009.2,,,,,,,,,,,,,,,,3700.0,2000.0,FEW,2000.0,OVC,3700.0,,,,
KRDR,06-18-2020,13:56,METAR,Normal,310,6.0,,,9999.0,,20.2,19.4,29.79,1008.9,,,,,,,,,,,,,,,,4900.0,4900.0,BKN,4900.0,,,,,,
KRDR,06-18-2020,13:28,SPECI,Normal,320,6.0,,,9999.0,,20.0,20.0,29.77,1008.3,,,,,,,,,,,,,,,,3100.0,3100.0,BKN,3100.0,,,,,,
KRDR,06-18-2020,12:58,SPECI,Normal,280,4.0,,,9999.0,,20.0,20.0,29.76,1007.9,,,,,,,,,,,,,,,,1200.0,1100.0,FEW,1100.0,SCT,2000.0,OVC,2700.0,,
KRDR,06-18-2020,12:56,METAR,Normal,250,3.0,,,9999.0,,20.1,20.1,29.76,1007.9,,,,,,,,,,,,,,,,1200.0,1200.0,SCT,1200.0,SCT,2000.0,OVC,2700.0,,
KRDR,06-18-2020,12:46,SPECI,Calm,,0.0,,,9999.0,,20.0,20.0,29.76,1007.9,,,,,,,,,,,,,,,,1200.0,1200.0,BKN,1200.0,OVC,2300.0,,,,
KRDR,06-18-2020,12:26,SPECI,Normal,260,4.0,,,9999.0,,20.0,20.0,29.75,1007.4,,,,,,,,,,,,,,,,1300.0,1300.0,BKN,1300.0,,,,,,
KRDR,06-18-2020,11:56,METAR,Normal,170,7.0,,,9999.0,,20.0,20.0,29.74,1007.0,,,,,,,,,,,,,.01 IN,.29 IN,2/8 Mostly Clear,72000.0,13000.0,FEW,13000.0,,,,,,
KRDR,06-18-2020,10:57,METAR,Normal,120,10.0,,,9999.0,,19.6,19.6,29.72,1006.3,,,,,,,,,,,,,,,,12000.0,3600.0,FEW,3600.0,BKN,12000.0,,,,
KRDR,06-18-2020,10:56,METAR,Normal,130,6.0,,,9999.0,,19.7,19.7,29.73,1006.6,,,,,,,,,,,,,.01 IN,.13 IN,4/8 Partly Cloudy,72000.0,3600.0,FEW,3600.0,SCT,12000.0,,,,
KRDR,06-18-2020,09:56,METAR,Calm,,0.0,,,9999.0,,19.5,19.5,29.72,1006.4,,,,,,,,,,,.01 IN,,,,,5500.0,5500.0,BKN,5500.0,,,,,,
KRDR,06-18-2020,09:47,SPECI,Normal,310,4.0,,,9999.0,Light Rain,20.0,20.0,29.72,1006.4,61,,,,,,,,,,,,,,,5500.0,5500.0,BKN,5500.0,,,,,,
KRDR,06-18-2020,09:33,SPECI,Normal,340,4.0,,,9999.0,Rain,20.0,20.0,29.73,1006.8,,,,61,,,,,,,,,,,,5500.0,5500.0,BKN,5500.0,,,,,,
KRDR,06-18-2020,08:57,METAR,Normal,160,6.0,,,9999.0,Thunderstorm with Rain or Snow,20.9,20.9,29.75,1007.4,,,,95,,,,,,,TRACE,TRACE,,,,5500.0,5500.0,BKN,5500.0,,,,,,
KRDR,06-18-2020,08:56,METAR,Normal,160,5.0,,,9999.0,,20.9,20.9,29.75,1007.4,,,,,,,,,,,TRACE,TRACE,,,Clear,72000.0,,,,,,,,,
KRDR,06-18-2020,08:56,SPECI,Normal,150,5.0,,,9999.0,Thunderstorm with Rain or Snow,21.0,21.0,29.75,1007.4,,,,95,,,,,,,,,,,,5500.0,5500.0,BKN,5500.0,,,,,,
KRDR,06-18-2020,08:49,SPECI,Normal,180,7.0,,,9999.0,,21.0,21.0,29.77,1008.1,,,,,,,,,,,,,,,Clear,72000.0,,,,,,,,,
KRDR,06-18-2020,08:37,SPECI,Normal,200,7.0,,,9999.0,Light Rain,21.0,20.0,29.77,1008.1,61,,,,,,,,,,,,,,2/8 Mostly Clear,72000.0,5500.0,FEW,5500.0,,,,,,
KRDR,06-18-2020,07:56,METAR,Normal,340,3.0,,,9999.0,,21.4,21.4,29.75,1007.4,,,,,,,,,,,,,,,,5500.0,5500.0,BKN,5500.0,,,,,,
KRDR,06-18-2020,06:56,METAR,Normal,290,6.0,,,9999.0,,22.2,21.5,29.74,1007.0,,,,,,,,,,,,,,,,6000.0,2500.0,SCT,2500.0,SCT,4900.0,BKN,6000.0,,
KRDR,06-18-2020,06:46,SPECI,Normal,270,6.0,,,9999.0,,22.0,21.0,29.73,1006.7,,,,,,,,,,,,,,,,4700.0,2500.0,SCT,2500.0,BKN,4700.0,BKN,6000.0,,
KRDR,06-18-2020,05:56,METAR,Normal,190,7.0,,,9999.0,,22.7,22.7,29.72,1006.3,,,,,,,,,,,,,.28 IN,,,5500.0,5500.0,BKN,5500.0,BKN,19000.0,,,,
KRDR,06-18-2020,04:56,METAR,Normal,240,6.0,,,9999.0,,23.3,22.9,29.68,1004.9,,,,,,,,,,,,,,,Clear,72000.0,,,,,,,,,
KRDR,06-18-2020,03:56,METAR,Normal,220,11.0,,,9999.0,,23.8,21.3,29.71,1006.0,,,,,,,,,,,,,,,Clear,72000.0,,,,,,,,,
KRDR,06-18-2020,02:56,METAR,Normal,190,18.0,23.0,180/29KTS,9999.0,,25.3,21.6,29.68,1005.0,,,,,,,,,,,,.12 IN,,,4/8 Partly Cloudy,72000.0,19000.0,SCT,19000.0,,,,,,
KRDR,06-18-2020,01:56,METAR,Normal,180,23.0,28.0,220/35KTS,9999.0,Distant Lightning,25.4,22.9,29.65,1004.0,12,,,,,,,,,,TRACE,,,,,10000.0,7000.0,SCT,7000.0,BKN,10000.0,,,,
KRDR,06-18-2020,01:25,SPECI,Normal,190,14.0,24.0,,9999.0,,23.0,21.0,29.62,1003.1,,,,,,,,,,,,,,,4/8 Partly Cloudy,72000.0,6500.0,FEW,6500.0,FEW,8000.0,SCT,12000.0,,
KRDR,06-18-2020,01:20,SPECI,Normal,200,18.0,27.0,,9999.0,Light Rain,23.0,19.0,29.61,1002.7,61,,,,,,,,,,,,,,2/8 Mostly Clear,72000.0,6500.0,FEW,6500.0,FEW,8600.0,,,,
KRDR,06-18-2020,01:07,SPECI,Normal,200,23.0,32.0,,9999.0,Thunderstorm and Rain or Snow Showers,23.0,19.0,29.61,1002.7,92,,,,,,,,,,,,,,,9000.0,5000.0,FEW,5000.0,SCT,6500.0,SCT,8000.0,BKN,9100.0
KRDR,06-18-2020,01:06,SPECI,Normal,200,22.0,32.0,,9999.0,Dry Thunderstorm,23.0,20.0,29.61,1002.7,91,,,,,,,,,,,,,,,9000.0,5000.0,FEW,5000.0,SCT,7000.0,BKN,9100.0,,
KRDR,06-18-2020,01:05,SPECI,Normal,200,23.0,36.0,,9999.0,Light Rain/Distant Lightning,23.0,20.0,29.61,1002.7,61,12,,,,,,,,,,,,,,9000.0,5000.0,FEW,5000.0,SCT,7000.0,BKN,9100.0,,
KRDR,06-18-2020,01:04,SPECI,Normal,200,24.0,36.0,,9999.0,Distant Lightning,23.0,20.0,29.61,1002.7,12,,,,,,,,,,,,,,,9000.0,5000.0,FEW,5000.0,SCT,7000.0,BKN,9100.0,,
KRDR,06-18-2020,00:56,METAR,Normal,220,30.0,36.0,200/60KTS,9999.0,Dry Thunderstorm,23.6,21.5,29.62,1003.0,91,,,,,,,,,,.28 IN,,,,,9000.0,4800.0,FEW,4800.0,SCT,6500.0,BKN,9100.0,,
KRDR,06-18-2020,00:50,SPECI,Normal,220,27.0,34.0,,9999.0,Dry Thunderstorm,24.0,22.0,29.63,1003.3,91,,,,,,,,,,,,,,,7000.0,4800.0,FEW,4800.0,BKN,7000.0,BKN,9100.0,,
KRDR,06-18-2020,00:44,SPECI,Normal,200,22.0,48.0,,9999.0,Thunderstorm and Rain or Snow Showers/Mist,25.0,24.0,29.63,1003.3,92,10,,,,,,,,,,,,,,7000.0,4500.0,FEW,4500.0,BKN,7000.0,,,,
KRDR,06-18-2020,00:33,SPECI,Normal,170,23.0,46.0,,9999.0,Thunderstorm and Rain or Snow Showers,28.0,24.0,29.61,1002.6,92,,,,,,,,,,,,,,,7000.0,5500.0,FEW,5500.0,BKN,7000.0,,,,
KRDR,06-18-2020,00:25,SPECI,Normal,190,21.0,29.0,,9999.0,Light Rain,33.0,18.0,29.59,1001.8,61,,,,,,,,,,,,,,,7500.0,7500.0,BKN,7500.0,,,,,,
KRDR,06-17-2020,23:56,METAR,Normal,180,19.0,28.0,210/31KTS,9999.0,,33.0,18.7,29.58,1001.5,,,,,,,,,,,,,,,2/8 Mostly Clear,72000.0,7500.0,FEW,7500.0,,,,,,
KRDR,06-17-2020,23:48,SPECI,Normal,180,21.0,28.0,,9999.0,,33.0,19.0,29.59,1001.8,,,,,,,,,,,,,,,,7000.0,7000.0,BKN,7000.0,,,,,,
KRDR,06-17-2020,23:19,SPECI,Normal,180,25.0,30.0,,9999.0,Thunderstorm,34.0,19.0,29.61,,,,,17,,,,,,,,,,,,7000.0,7000.0,BKN,7000.0,BKN,10000.0,,,,
KRDR,06-17-2020,22:56,METAR,Normal,180,16.0,28.0,210/29KTS,9999.0,,33.7,18.6,29.62,1002.8,,,,,,,,,,,,,,,4/8 Partly Cloudy,72000.0,7000.0,FEW,7000.0,SCT,10000.0,SCT,13000.0,,
KRDR,06-17-2020,22:17,SPECI,Normal,170,19.0,24.0,,9999.0,,34.0,19.0,29.64,1003.5,,,,,,,,,,,,,,,2/8 Mostly Clear,72000.0,7500.0,FEW,7500.0,,,,,,
KRDR,06-17-2020,21:56,METAR,Normal,40,6.0,,,9999.0,,32.0,21.5,29.66,1004.2,,,,,,,,,,,,,,,,7000.0,7000.0,BKN,7000.0,,,,,,
KRDR,06-17-2020,20:56,METAR,Normal,360,6.0,,,9999.0,,28.9,22.8,29.69,1005.2,,,,,,,,,,,,,,,,20000.0,6500.0,SCT,6500.0,SCT,8600.0,BKN,20000.0,,
KRDR,06-17-2020,19:57,METAR,Normal,300,8.0,,,9999.0,,30.5,21.5,29.71,1005.9,,,,,,,,,,,,,,,,19000.0,5500.0,FEW,5500.0,FEW,7000.0,SCT,16000.0,BKN,19000.0
KRDR,06-17-2020,18:59,METAR,Normal,250,9.0,,,9999.0,Lightning,30.5,20.7,29.71,1005.9,,,,13,,,,,,,,,,,,20000.0,13000.0,SCT,13000.0,SCT,17000.0,BKN,20000.0,,
KRDR,06-17-2020,18:09,SPECI,Normal,190,18.0,23.0,,9999.0,,30.0,20.0,29.73,1006.5,,,,,,,,,,,,,,,,17000.0,5000.0,SCT,5000.0,BKN,17000.0,BKN,19000.0,,
KRDR,06-17-2020,17:46,METAR,Normal,200,13.0,,,9999.0,,30.7,20.6,29.72,1006.1,,,,,,,,,,,,,,,,15000.0,15000.0,BKN,15000.0,BKN,18000.0,,,,
KRDR,06-17-2020,16:56,METAR,Normal,210,17.0,23.0,,9999.0,,30.4,19.4,29.71,1005.9,,,,,,,,,,,,,,,Clear,72000.0,,,,,,,,,
KRDR,06-17-2020,15:56,METAR,Normal,190,15.0,22.0,220/26KTS,9999.0,,28.2,20.2,29.71,1005.9,,,,,,,,,,,,,,,,20000.0,12000.0,FEW,12000.0,FEW,15000.0,SCT,18000.0,BKN,20000.0
KRDR,06-17-2020,14:56,METAR,Normal,200,21.0,27.0,210/31KTS,9999.0,,27.5,19.8,29.73,1006.5,,,,,,,,,,,,,,,4/8 Partly Cloudy,72000.0,14000.0,FEW,14000.0,SCT,20000.0,,,,
KRDR,06-17-2020,13:56,METAR,Normal,180,18.0,26.0,190/29KTS,9999.0,,25.6,19.7,29.72,1006.2,,,,,,,,,,,,,,,Clear,72000.0,,,,,,,,,
KRDR,06-17-2020,12:56,METAR,Normal,160,20.0,26.0,180/28KTS,9999.0,,25.2,19.3,29.70,1005.5,,,,,,,,,,,,,,,Clear,72000.0,,,,,,,,,
KRDR,06-17-2020,11:56,METAR,Normal,160,12.0,,,9999.0,,23.4,17.8,29.76,1007.6,,,,,,,,,,,,,TRACE,,Clear,72000.0,,,,,,,,,
KRDR,06-17-2020,10:56,METAR,Normal,140,6.0,,,9999.0,,23.7,17.4,29.77,1007.9,,,,,,,,,,,TRACE,,,,Clear,72000.0,,,,,,,,,
KRDR,06-17-2020,09:56,METAR,Normal,190,10.0,,,9999.0,,24.8,17.3,29.79,1008.5,,,,,,,,,,,,,,,4/8 Partly Cloudy,72000.0,6000.0,SCT,6000.0,,,,,,
KRDR,06-17-2020,08:56,METAR,Normal,190,21.0,27.0,180/30KTS,9999.0,,26.4,16.6,29.78,1008.2,,,,,,,,,,,,,,,Clear,72000.0,,,,,,,,,
KRDR,06-17-2020,07:56,METAR,Normal,180,19.0,27.0,170/30KTS,9999.0,,26.9,16.2,29.73,1006.5,,,,,,,,,,,,,,,Clear,72000.0,,,,,,,,,
KRDR,06-17-2020,06:56,METAR,Normal,170,19.0,27.0,170/28KTS,9999.0,,27.3,15.9,29.72,1006.2,,,,,,,,,,,,,,,4/8 Partly Cloudy,72000.0,19000.0,SCT,19000.0,,,,,,
KRDR,06-17-2020,05:56,METAR,Normal,170,20.0,28.0,170/28KTS,9999.0,,27.8,15.8,29.74,1006.8,,,,,,,,,,,,,,,2/8 Mostly Clear,72000.0,20000.0,FEW,20000.0,,,,,,
KRDR,06-17-2020,04:56,METAR,Normal,160,17.0,24.0,,9999.0,,28.2,16.1,29.72,1006.2,,,,,,,,,,,,,,,,20000.0,20000.0,BKN,20000.0,,,,,,
KRDR,06-17-2020,03:56,METAR,Normal,170,18.0,23.0,160/29KTS,9999.0,,29.7,15.4,29.73,1006.5,,,,,,,,,,,,,,,Clear,72000.0,,,,,,,,,
KRDR,06-17-2020,02:56,METAR,Normal,170,18.0,25.0,180/28KTS,9999.0,,30.7,15.9,29.73,1006.6,,,,,,,,,,,,,,,Clear,72000.0,,,,,,,,,
KRDR,06-17-2020,01:56,METAR,Normal,180,20.0,34.0,180/34KTS,9999.0,,32.1,14.2,29.72,1006.2,,,,,,,,,,,,,,,Clear,72000.0,,,,,,,,,
KRDR,06-17-2020,00:56,METAR,Normal,170,20.0,32.0,190/35KTS,9999.0,,32.8,14.4,29.71,1006.0,,,,,,,,,,,,,,,Clear,72000.0,,,,,,,,,
KRDR,06-16-2020,23:56,METAR,Normal,170,25.0,35.0,190/39KTS,9999.0,,34.0,14.4,29.70,1005.7,,,,,,,,,,,,,,,Clear,72000.0,,,,,,,,,
KRDR,06-16-2020,22:56,METAR,Normal,180,24.0,31.0,190/40KTS,9999.0,,34.4,14.8,29.72,1006.4,,,,,,,,,,,,,,,2/8 Mostly Clear,72000.0,18000.0,FEW,18000.0,FEW,21000.0,,,,
KRDR,06-16-2020,21:56,METAR,Normal,170,23.0,34.0,170/39KTS,9999.0,,34.9,14.7,29.73,1006.8,,,,,,,,,,,,,,,2/8 Mostly Clear,72000.0,17000.0,FEW,17000.0,FEW,20000.0,,,,
KRDR,06-16-2020,20:56,METAR,Normal,170,23.0,34.0,180/34KTS,9999.0,,35.3,15.1,29.74,1007.0,,,,,,,,,,,,,,,4/8 Partly Cloudy,72000.0,16000.0,FEW,16000.0,SCT,19000.0,,,,
KRDR,06-16-2020,19:56,METAR,Normal,170,19.0,23.0,170/27KTS,9999.0,,33.0,17.2,29.76,1007.8,,,,,,,,,,,,,,,,18000.0,15000.0,FEW,15000.0,BKN,18000.0,,,,
KRDR,06-16-2020,18:56,METAR,Normal,160,16.0,23.0,,9999.0,,31.5,17.7,29.79,1008.8,,,,,,,,,,,,,,,,20000.0,14000.0,FEW,14000.0,SCT,17000.0,BKN,20000.0,,
KRDR,06-16-2020,17:56,METAR,Normal,160,20.0,23.0,,9999.0,,32.0,17.8,29.82,1009.8,,,,,,,,,,,,,,,,19000.0,11000.0,FEW,11000.0,SCT,17000.0,BKN,19000.0,,
KRDR,06-16-2020,16:56,METAR,Normal,170,21.0,27.0,,9999.0,,30.7,17.4,29.83,1010.1,,,,,,,,,,,,,,,2/8 Mostly Clear,72000.0,19000.0,FEW,19000.0,,,,,,
KRDR,06-16-2020,16:11,SPECI,Normal,150,16.0,21.0,,9999.0,,29.0,18.0,29.85,1010.8,,,,,,,,,,,,,,,Clear,72000.0,,,,,,,,,
KRDR,06-16-2020,15:56,METAR,Normal,150,14.0,,,9999.0,,28.8,18.5,29.85,1010.8,,,,,,,,,,,,,,,Clear,72000.0,,,,,,,,,
KRDR,06-16-2020,14:56,METAR,Normal,150,8.0,,,9999.0,,25.7,18.4,29.87,1011.6,,,,,,,,,,,,,,,Clear,72000.0,,,,,,,,,
KRDR,06-16-2020,13:56,METAR,Normal,120,7.0,,,9999.0,,23.7,17.7,29.90,1012.5,,,,,,,,,,,,,,,Clear,72000.0,,,,,,,,,
KRDR,06-16-2020,11:56,METAR,Calm,,0.0,,,9999.0,,17.3,14.2,29.93,1013.7,,,,,,,,,,,,,,,Clear,72000.0,,,,,,,,,
KRDR,06-16-2020,10:56,METAR,Normal,360,7.0,,,9999.0,,15.3,12.1,29.93,1013.7,,,,,,,,,,,,,,,Clear,72000.0,,,,,,,,,
KRDR,06-16-2020,09:56,METAR,Normal,350,6.0,,,9999.0,,14.9,13.8,29.94,1014.0,,,,,,,,,,,,,,,,17000.0,17000.0,BKN,17000.0,,,,,,
KRDR,06-16-2020,08:56,METAR,Calm,,0.0,,,9999.0,,16.0,13.3,29.94,1014.0,,,,,,,,,,,,,,,,17000.0,17000.0,BKN,17000.0,,,,,,
KRDR,06-16-2020,07:56,METAR,Calm,,0.0,,,9999.0,,17.8,11.6,29.94,1014.0,,,,,,,,,,,,,,,,17000.0,17000.0,BKN,17000.0,,,,,,
KRDR,06-16-2020,06:56,METAR,Normal,300,7.0,,,9999.0,,17.3,12.0,29.93,1013.7,,,,,,,,,,,,,,,,20000.0,20000.0,OVC,20000.0,,,,,,
KRDR,06-16-2020,05:56,METAR,Normal,310,5.0,,,9999.0,,19.1,11.4,29.93,1013.6,,,,,,,,,,,,,,,,21000.0,17000.0,FEW,17000.0,BKN,21000.0,,,,
KRDR,06-16-2020,04:56,METAR,Normal,340,5.0,,,9999.0,,20.0,11.2,29.94,1014.0,,,,,,,,,,,,,,,,6000.0,6000.0,BKN,6000.0,,,,,,
KRDR,06-16-2020,03:56,METAR,Normal,300,8.0,,,9999.0,,20.6,11.2,29.93,1013.6,,,,,,,,,,,,,,,Clear,72000.0,,,,,,,,,
KRDR,06-16-2020,02:56,METAR,Normal,330,5.0,,,9999.0,,23.0,11.4,29.92,1013.3,,,,,,,,,,,,,,,Clear,72000.0,,,,,,,,,
KRDR,06-16-2020,01:56,METAR,Normal,350,9.0,,,9999.0,,25.8,16.9,29.90,1012.5,,,,,,,,,,,,,,,4/8 Partly Cloudy,72000.0,7500.0,SCT,7500.0,,,,,,
KRDR,06-16-2020,00:56,METAR,Normal,330,4.0,,,9999.0,,27.5,20.0,29.89,1012.1,,,,,,,,,,,,,,,,7000.0,7000.0,BKN,7000.0,,,,,,
KRDR,06-15-2020,23:56,METAR,Normal,310,4.0,,,9999.0,,29.4,17.5,29.88,1011.9,,,,,,,,,,,,,,,Clear,72000.0,,,,,,,,,
KRDR,06-15-2020,22:56,METAR,Normal,310,5.0,,,9999.0,,29.3,17.8,29.88,1011.9,,,,,,,,,,,,,,,Clear,72000.0,,,,,,,,,
KRDR,06-15-2020,21:56,METAR,Normal,350,4.0,,,9999.0,,30.3,18.0,29.89,1012.1,,,,,,,,,,,,,,,2/8 Mostly Clear,72000.0,17000.0,FEW,17000.0,FEW,19000.0,,,,
KRDR,06-15-2020,20:56,METAR,Normal,280,5.0,,,9999.0,,29.9,18.6,29.89,1012.1,,,,,,,,,,,,,,,2/8 Mostly Clear,72000.0,16000.0,FEW,16000.0,FEW,20000.0,,,,
KRDR,06-15-2020,19:56,METAR,Normal,230,7.0,,,9999.0,,29.5,19.8,29.88,1011.8,,,,,,,,,,,,,,,4/8 Partly Cloudy,72000.0,5000.0,FEW,5000.0,FEW,12000.0,SCT,19000.0,,
KRDR,06-15-2020,18:56,METAR,Normal,200,13.0,,,9999.0,,28.7,18.1,29.88,1011.8,,,,,,,,,,,,,,,,13000.0,4800.0,SCT,4800.0,BKN,13000.0,,,,
KRDR,06-15-2020,17:56,METAR,Normal,210,12.0,,,9999.0,,28.3,17.8,29.87,1011.5,,,,,,,,,,,,,,,,18000.0,4900.0,FEW,4900.0,BKN,18000.0,,,,
KRDR,06-15-2020,16:56,METAR,Normal,200,16.0,23.0,190/28KTS,9999.0,,28.5,18.0,29.85,1010.8,,,,,,,,,,,,,,,2/8 Mostly Clear,72000.0,16000.0,FEW,16000.0,,,,,,
KRDR,06-15-2020,15:56,METAR,Normal,180,18.0,25.0,190/30KTS,9999.0,,26.9,18.4,29.86,1011.2,,,,,,,,,,,,,,,2/8 Mostly Clear,72000.0,20000.0,FEW,20000.0,,,,,,
KRDR,06-15-2020,14:56,METAR,Normal,180,22.0,,190/33KTS,9999.0,,25.6,18.3,29.87,1011.5,,,,,,,,,,,,,,,,,,,,,,,,,
KRDR,06-15-2020,13:56,METAR,Normal,170,23.0,33.0,180/33KTS,9999.0,,25.0,18.2,29.85,1010.8,,,,,,,,,,,,,,,Clear,72000.0,,,,,,,,,
KRDR,06-15-2020,12:56,METAR,Normal,170,17.0,25.0,180/27KTS,9999.0,,23.5,19.0,29.84,1010.5,,,,,,,,,,,,,,,Clear,72000.0,,,,,,,,,
KRDR,06-15-2020,11:56,METAR,Normal,170,19.0,24.0,170/29KTS,9999.0,,21.8,18.0,29.82,1009.9,,,,,,,,,,,,,,,Clear,72000.0,,,,,,,,,
KRDR,06-15-2020,10:56,METAR,Normal,170,20.0,26.0,180/28KTS,9999.0,,21.3,16.9,29.81,1009.5,,,,,,,,,,,,,,,Clear,72000.0,,,,,,,,,
KRDR,06-15-2020,09:56,METAR,Normal,160,21.0,26.0,180/31KTS,9999.0,,21.5,16.2,29.80,1009.2,,,,,,,,,,,,,,,2/8 Mostly Clear,72000.0,19000.0,FEW,19000.0,,,,,,
KRDR,06-15-2020,08:56,METAR,Normal,160,17.0,26.0,180/28KTS,9999.0,,21.8,15.4,29.80,1009.2,,,,,,,,,,,,,,,Clear,72000.0,,,,,,,,,
KRDR,06-15-2020,07:56,METAR,Normal,160,19.0,26.0,170/30KTS,9999.0,,22.3,14.7,29.80,1009.1,,,,,,,,,,,,,,,Clear,72000.0,,,,,,,,,
KRDR,06-15-2020,06:56,METAR,Normal,150,17.0,23.0,,9999.0,,22.4,14.2,29.82,1009.9,,,,,,,,,,,,,,,Clear,72000.0,,,,,,,,,
KRDR,06-15-2020,05:56,METAR,Normal,150,13.0,,,9999.0,,21.8,13.2,29.83,1010.2,,,,,,,,,,,,,,,2/8 Mostly Clear,72000.0,18000.0,FEW,18000.0,,,,,,
KRDR,06-15-2020,04:56,METAR,Normal,140,15.0,,,9999.0,,21.8,12.9,29.85,1010.9,,,,,,,,,,,,,,,Clear,72000.0,,,,,,,,,
KRDR,06-15-2020,03:56,METAR,Normal,130,15.0,21.0,,9999.0,,22.6,12.2,29.86,1011.3,,,,,,,,,,,,,,,,18000.0,14000.0,FEW,14000.0,BKN,18000.0,,,,
KRDR,06-15-2020,02:56,METAR,Normal,130,19.0,23.0,150/26KTS,9999.0,,23.3,12.3,29.86,1011.3,,,,,,,,,,,,,,,4/8 Partly Cloudy,72000.0,9000.0,FEW,9100.0,SCT,14000.0,,,,
KRDR,06-15-2020,01:56,METAR,Normal,140,17.0,23.0,140/29KTS,9999.0,,24.4,12.0,29.87,1011.7,,,,,,,,,,,,,,,2/8 Mostly Clear,72000.0,15000.0,FEW,15000.0,,,,,,
KRDR,06-15-2020,00:56,METAR,Normal,140,16.0,24.0,170/29KTS,9999.0,,25.1,12.0,29.87,1011.7,,,,,,,,,,,,,,,Clear,72000.0,,,,,,,,,
KRDR,06-14-2020,23:56,METAR,Normal,140,18.0,29.0,150/33KTS,9999.0,,26.1,12.5,29.87,1011.8,,,,,,,,,,,,,,,Clear,72000.0,,,,,,,,,
KRDR,06-14-2020,22:56,METAR,Normal,150,22.0,27.0,180/37KTS,9999.0,,27.2,12.4,29.87,1011.7,,,,,,,,,,,,,,,Clear,72000.0,,,,,,,,,
KRDR,06-14-2020,21:56,METAR,Normal,150,22.0,32.0,180/34KTS,9999.0,,26.3,12.7,29.88,1012.1,,,,,,,,,,,,,,,4/8 Partly Cloudy,72000.0,15000.0,FEW,15000.0,SCT,18000.0,SCT,20000.0,,
KRDR,06-14-2020,20:56,METAR,Normal,160,22.0,30.0,160/35KTS,9999.0,,26.5,11.8,29.87,1011.7,,,,,,,,,,,,,,,Clear,72000.0,,,,,,,,,
KRDR,06-14-2020,19:56,METAR,Normal,150,24.0,29.0,120/34KTS,9999.0,,27.2,12.0,29.88,1012.0,,,,,,,,,,,,,,,2/8 Mostly Clear,72000.0,15000.0,FEW,15000.0,FEW,20000.0,,,,
KRDR,06-14-2020,18:56,METAR,Normal,130,23.0,32.0,170/34KTS,9999.0,,26.7,12.3,29.88,1012.0,,,,,,,,,,,,,,,4/8 Partly Cloudy,72000.0,16000.0,FEW,16000.0,SCT,20000.0,,,,
KRDR,06-14-2020,17:56,METAR,Normal,150,22.0,32.0,160/33KTS,9999.0,,25.0,12.2,29.92,1013.4,,,,,,,,,,,,,,,4/8 Partly Cloudy,72000.0,13000.0,FEW,13000.0,FEW,15000.0,SCT,18000.0,SCT,21000.0
KRDR,06-14-2020,16:56,METAR,Normal,150,20.0,31.0,170/32KTS,9999.0,,24.0,11.7,29.94,1014.1,,,,,,,,,,,,,,,Clear,72000.0,,,,,,,,,
KRDR,06-14-2020,15:56,METAR,Normal,140,21.0,33.0,160/33KTS,9999.0,,22.8,11.2,29.97,1015.1,,,,,,,,,,,,,,,2/8 Mostly Clear,72000.0,17000.0,FEW,17000.0,,,,,,
KRDR,06-14-2020,14:56,METAR,Normal,140,17.0,26.0,150/28KTS,9999.0,,20.9,10.1,29.99,1015.9,,,,,,,,,,,,,,,Clear,72000.0,,,,,,,,,
KRDR,06-14-2020,13:56,METAR,Normal,150,16.0,24.0,180/26KTS,9999.0,,18.4,9.2,30.02,1016.9,,,,,,,,,,,,,,,Clear,72000.0,,,,,,,,,
KRDR,06-14-2020,12:56,METAR,Normal,150,12.0,,,9999.0,,17.4,9.0,30.03,1017.2,,,,,,,,,,,,,,,Clear,72000.0,,,,,,,,,
KRDR,06-14-2020,11:56,METAR,Normal,140,9.0,,,9999.0,,14.9,10.5,30.05,1018.0,,,,,,,,,,,,,,,Clear,72000.0,,,,,,,,,
KRDR,06-14-2020,10:56,METAR,Normal,140,8.0,,,9999.0,,14.1,10.7,30.06,1018.3,,,,,,,,,,,,,,,Clear,72000.0,,,,,,,,,
KRDR,06-14-2020,09:56,METAR,Normal,140,10.0,,,9999.0,,15.1,10.7,30.05,1017.9,,,,,,,,,,,,,,,Clear,72000.0,,,,,,,,,
KRDR,06-14-2020,08:56,METAR,Normal,140,9.0,,,9999.0,,16.2,10.5,30.05,1017.9,,,,,,,,,,,,,,,Clear,72000.0,,,,,,,,,
KRDR,06-14-2020,07:56,METAR,Normal,150,13.0,,,9999.0,,16.5,11.0,30.08,1018.9,,,,,,,,,,,,,,,Clear,72000.0,,,,,,,,,
KRDR,06-14-2020,06:56,METAR,Normal,140,11.0,,,9999.0,,16.8,10.9,30.08,1018.9,,,,,,,,,,,,,,,Clear,72000.0,,,,,,,,,
KRDR,06-14-2020,05:56,METAR,Normal,140,11.0,,,9999.0,,17.3,10.9,30.07,1018.6,,,,,,,,,,,,,,,Clear,72000.0,,,,,,,,,
KRDR,06-14-2020,04:56,METAR,Normal,130,11.0,,,9999.0,,18.3,10.6,30.08,1018.9,,,,,,,,,,,,,,,Clear,72000.0,,,,,,,,,
KRDR,06-14-2020,03:56,METAR,Normal,130,10.0,,,9999.0,,18.2,10.8,30.09,1019.3,,,,,,,,,,,,,,,Clear,72000.0,,,,,,,,,
KRDR,06-14-2020,02:56,METAR,Normal,130,11.0,,,9999.0,,19.6,9.8,30.08,1019.0,,,,,,,,,,,,,,,Clear,72000.0,,,,,,,,,
KRDR,06-14-2020,01:56,METAR,Normal,130,13.0,,,9999.0,,21.5,8.4,30.07,1018.7,,,,,,,,,,,,,,,Clear,72000.0,,,,,,,,,
KRDR,06-14-2020,00:56,METAR,Normal,130,13.0,20.0,,9999.0,,23.0,6.3,30.08,1019.1,,,,,,,,,,,,,,,Clear,72000.0,,,,,,,,,
KRDR,06-13-2020,23:56,METAR,Normal,130,15.0,22.0,,9999.0,,23.9,5.3,30.08,1019.1,,,,,,,,,,,,,,,Clear,72000.0,,,,,,,,,
KRDR,06-13-2020,22:56,METAR,Normal,120,13.0,21.0,,9999.0,,24.6,3.8,30.10,1019.8,,,,,,,,,,,,,,,Clear,72000.0,,,,,,,,,
KRDR,06-13-2020,21:56,METAR,Normal,120,18.0,21.0,,9999.0,,24.7,3.9,30.12,1020.5,,,,,,,,,,,,,,,Clear,72000.0,,,,,,,,,
KRDR,06-13-2020,20:56,METAR,Normal,130,13.0,21.0,,9999.0,,24.2,5.0,30.14,1021.2,,,,,,,,,,,,,,,Clear,72000.0,,,,,,,,,
KRDR,06-13-2020,19:56,METAR,Normal,130,16.0,,,9999.0,,23.7,5.1,30.17,1022.2,,,,,,,,,,,,,,,Clear,72000.0,,,,,,,,,
KRDR,06-13-2020,18:56,METAR,Normal,120,17.0,24.0,,9999.0,,22.7,5.1,30.18,1022.6,,,,,,,,,,,,,,,Clear,72000.0,,,,,,,,,
KRDR,06-13-2020,17:56,METAR,Normal,120,14.0,20.0,150/26KTS,9999.0,,22.2,6.4,30.20,1023.2,,,,,,,,,,,,,,,Clear,72000.0,,,,,,,,,
KRDR,06-13-2020,16:56,METAR,Normal,130,14.0,22.0,,9999.0,,21.1,7.7,30.21,1023.6,,,,,,,,,,,,,,,Clear,72000.0,,,,,,,,,
KRDR,06-13-2020,15:56,METAR,Normal,140,15.0,19.0,,9999.0,,19.9,6.9,30.23,1024.2,,,,,,,,,,,,,,,Clear,72000.0,,,,,,,,,
KRDR,06-13-2020,14:56,METAR,Normal,140,16.0,20.0,,9999.0,,18.2,5.7,30.26,1025.3,,,,,,,,,,,,,,,Clear,72000.0,,,,,,,,,
KRDR,06-13-2020,13:56,METAR,Normal,140,12.0,19.0,,9999.0,,15.9,6.6,30.26,1025.3,,,,,,,,,,,,,,,Clear,72000.0,,,,,,,,,
KRDR,06-13-2020,12:56,METAR,Normal,130,12.0,,,9999.0,,13.8,9.6,30.27,1025.6,,,,,,,,,,,,,,,Clear,72000.0,,,,,,,,,
KRDR,06-13-2020,11:56,METAR,Normal,130,7.0,,,9999.0,,11.3,9.9,30.27,1025.7,,,,,,,,,,,,,,,Clear,72000.0,,,,,,,,,
KRDR,06-13-2020,10:56,METAR,Calm,,0.0,,,9999.0,,9.5,9.3,30.27,1025.7,,,,,,,,,,,,,,,Clear,72000.0,,,,,,,,,
KRDR,06-13-2020,09:56,METAR,Normal,120,4.0,,,9999.0,,9.1,9.1,30.25,1025.0,,,,,,,,,,,,,,,Clear,72000.0,,,,,,,,,
KRDR,06-13-2020,08:56,METAR,Calm,,0.0,,,9999.0,,7.1,7.1,30.27,1025.8,,,,,,,,,,,,,,,Clear,72000.0,,,,,,,,,
KRDR,06-13-2020,07:56,METAR,Normal,80,3.0,,,9999.0,,9.4,9.2,30.28,1026.1,,,,,,,,,,,,,,,Clear,72000.0,,,,,,,,,
KRDR,06-13-2020,06:56,METAR,Calm,,0.0,,,9999.0,,8.3,8.3,30.29,1026.5,,,,,,,,,,,,,,,Clear,72000.0,,,,,,,,,
KRDR,06-13-2020,05:56,METAR,Normal,60,3.0,,,9999.0,,11.5,8.5,30.29,1026.4,,,,,,,,,,,,,,,Clear,72000.0,,,,,,,,,
KRDR,06-13-2020,04:56,METAR,Calm,,0.0,,,9999.0,,13.0,8.3,30.30,1026.7,,,,,,,,,,,,,,,Clear,72000.0,,,,,,,,,
KRDR,06-13-2020,03:56,METAR,Normal,90,4.0,,,9999.0,,14.0,9.2,30.30,1026.7,,,,,,,,,,,,,,,Clear,72000.0,,,,,,,,,
KRDR,06-13-2020,02:56,METAR,Normal,80,4.0,,,9999.0,,14.9,9.3,30.29,1026.4,,,,,,,,,,,,,,,Clear,72000.0,,,,,,,,,
KRDR,06-13-2020,01:56,METAR,Normal,100,6.0,,,9999.0,,17.9,8.7,30.29,1026.3,,,,,,,,,,,,,,,Clear,72000.0,,,,,,,,,
KRDR,06-13-2020,00:56,METAR,Normal,110,8.0,,,9999.0,,19.6,8.9,30.29,1026.3,,,,,,,,,,,,,,,Clear,72000.0,,,,,,,,,
KRDR,06-12-2020,23:56,METAR,Normal,100,8.0,,,9999.0,,20.0,8.3,30.29,1026.4,,,,,,,,,,,,,,,Clear,72000.0,,,,,,,,,
KRDR,06-12-2020,22:56,METAR,Normal,70,7.0,,,9999.0,,20.5,9.1,30.31,1027.2,,,,,,,,,,,,,,,Clear,72000.0,,,,,,,,,
KRDR,06-12-2020,21:56,METAR,Normal,80,9.0,,,9999.0,,20.4,9.3,30.32,1027.5,,,,,,,,,,,,,,,Clear,72000.0,,,,,,,,,
KRDR,06-12-2020,20:56,METAR,Normal,50,11.0,16.0,,9999.0,,19.9,10.0,30.33,1027.8,,,,,,,,,,,,,,,Clear,72000.0,,,,,,,,,
KRDR,06-12-2020,19:56,METAR,Normal,40,10.0,15.0,,9999.0,,19.7,9.6,30.34,1028.2,,,,,,,,,,,,,,,Clear,72000.0,,,,,,,,,
KRDR,06-12-2020,18:56,METAR,Normal,40,9.0,,,9999.0,,18.8,9.6,30.36,1028.9,,,,,,,,,,,,,,,Clear,72000.0,,,,,,,,,
KRDR,06-12-2020,17:56,METAR,Normal,60,11.0,16.0,,9999.0,,18.4,9.7,30.36,1028.8,,,,,,,,,,,,,,,Clear,72000.0,,,,,,,,,
KRDR,06-12-2020,16:56,METAR,Normal,50,7.0,,,9999.0,,18.0,9.3,30.37,1029.1,,,,,,,,,,,,,,,Clear,72000.0,,,,,,,,,
KRDR,06-12-2020,15:56,METAR,Normal,80,7.0,,,9999.0,,17.0,9.2,30.37,1029.1,,,,,,,,,,,,,,,Clear,72000.0,,,,,,,,,
KRDR,06-12-2020,14:56,METAR,Normal,70,8.0,,,9999.0,,15.6,9.9,30.37,1029.1,,,,,,,,,,,,,,,Clear,72000.0,,,,,,,,,
KRDR,06-12-2020,13:56,METAR,Normal,60,9.0,,,9999.0,,13.6,10.2,30.38,1029.4,,,,,,,,,,,,,,,Clear,72000.0,,,,,,,,,
KRDR,06-12-2020,12:56,METAR,Normal,40,6.0,,,9999.0,,11.6,10.7,30.37,1029.1,,,,,,,,,,,,,,,Clear,72000.0,,,,,,,,,
KRDR,06-12-2020,11:56,METAR,Normal,10,7.0,,,9999.0,,9.1,9.1,30.35,1028.4,,,,,,,,,,,,,,,Clear,72000.0,,,,,,,,,
KRDR,06-12-2020,10:56,METAR,Normal,10,7.0,,,9999.0,,7.5,7.5,30.32,1027.4,,,,,,,,,,,,,,,Clear,72000.0,,,,,,,,,
KRDR,06-12-2020,09:56,METAR,Normal,350,6.0,,,9999.0,,7.7,7.7,30.31,1027.0,,,,,,,,,,,,,,,Clear,72000.0,,,,,,,,,
KRDR,06-12-2020,08:56,METAR,Normal,360,7.0,,,9999.0,,8.0,8.0,30.28,1026.1,,,,,,,,,,,,,,,Clear,72000.0,,,,,,,,,
KRDR,06-12-2020,07:56,METAR,Normal,360,7.0,,,9999.0,,8.9,8.9,30.27,1025.7,,,,,,,,,,,,,,,Clear,72000.0,,,,,,,,,
KRDR,06-12-2020,06:56,METAR,Normal,360,8.0,,,9999.0,,9.7,9.7,30.25,1024.9,,,,,,,,,,,,,,,Clear,72000.0,,,,,,,,,
KRDR,06-12-2020,05:56,METAR,Normal,20,7.0,,,9999.0,,12.1,10.7,30.23,1024.2,,,,,,,,,,,,,,,,10000.0,10000.0,BKN,10000.0,,,,,,
KRDR,06-12-2020,04:56,METAR,Normal,10,9.0,,,9999.0,,13.2,11.3,30.21,1023.5,,,,,,,,,,,,,,,,10000.0,10000.0,BKN,10000.0,,,,,,
KRDR,06-12-2020,03:56,METAR,Normal,20,9.0,,,9999.0,,15.4,11.4,30.19,1022.8,,,,,,,,,,,,,,,,10000.0,10000.0,OVC,10000.0,,,,,,
KRDR,06-12-2020,02:56,METAR,Normal,20,10.0,,,9999.0,,16.2,12.4,30.17,1022.2,,,,,,,,,,,,,,,Clear,72000.0,,,,,,,,,
KRDR,06-12-2020,01:56,METAR,Normal,20,10.0,,,9999.0,,18.4,13.5,30.13,1020.8,,,,,,,,,,,,,,,Clear,72000.0,,,,,,,,,
KRDR,06-12-2020,00:56,METAR,Normal,30,7.0,,,9999.0,,20.4,13.3,30.11,1020.1,,,,,,,,,,,,,,,Clear,72000.0,,,,,,,,,
KRDR,06-11-2020,23:56,METAR,Normal,50,12.0,,,9999.0,,20.8,13.5,30.08,1019.1,,,,,,,,,,,,,,,2/8 Mostly Clear,72000.0,10000.0,FEW,10000.0,,,,,,
KRDR,06-11-2020,22:56,METAR,Normal,40,11.0,25.0,,9999.0,,23.7,10.4,30.04,1017.7,,,,,,,,,,,,,,,,10000.0,10000.0,BKN,10000.0,,,,,,
KRDR,06-11-2020,21:56,METAR,Normal,320,9.0,,,9999.0,,23.6,8.4,30.02,1017.1,,,,,,,,,,,,,,,4/8 Partly Cloudy,72000.0,9500.0,SCT,9600.0,SCT,12000.0,,,,
KRDR,06-11-2020,20:56,METAR,Normal,290,13.0,26.0,280/26KTS,9999.0,,22.9,7.4,30.03,1017.4,,,,,,,,,,,TRACE,,,,,12000.0,8000.0,SCT,8000.0,BKN,12000.0,,,,
KRDR,06-11-2020,20:53,SPECI,Normal,290,13.0,26.0,,9999.0,,23.0,7.0,30.03,1017.4,,,,,,,,,,,,,,,,12000.0,8000.0,SCT,8000.0,BKN,12000.0,,,,
KRDR,06-11-2020,20:45,SPECI,Normal,290,20.0,26.0,,9999.0,Light Rain Showers,23.0,7.0,30.03,1017.4,,,,80,,,,,,,,,,,,8500.0,5500.0,SCT,5500.0,BKN,8600.0,BKN,13000.0,,
KRDR,06-11-2020,19:56,METAR,Normal,290,9.0,,,9999.0,,22.7,8.0,30.02,1017.1,,,,,,,,,,,,,,,,9500.0,9500.0,BKN,9600.0,BKN,13000.0,,,,
KRDR,06-11-2020,18:56,METAR,Normal,310,9.0,,,9999.0,,24.0,8.8,30.02,1017.1,,,,,,,,,,,,,,,,9000.0,8000.0,SCT,8000.0,BKN,9100.0,,,,
KRDR,06-11-2020,17:56,METAR,Normal,330,13.0,20.0,,9999.0,,23.3,8.6,30.02,1017.1,,,,,,,,,,,,,,,,20000.0,7500.0,FEW,7500.0,SCT,9100.0,BKN,20000.0,,
KRDR,06-11-2020,17:36,SPECI,Normal,340,13.0,22.0,,9999.0,,23.0,9.0,30.01,,,,,,,,,,,,,,,,4/8 Partly Cloudy,72000.0,5000.0,SCT,5000.0,,,,,,
KRDR,06-11-2020,16:56,METAR,Normal,310,10.0,,,9999.0,,22.8,9.2,30.01,1016.6,,,,,,,,,,,,,,,Clear,72000.0,,,,,,,,,
KRDR,06-11-2020,15:56,METAR,Normal,320,10.0,,,9999.0,,21.3,11.3,30.00,1016.3,,,,,,,,,,,,,,,Clear,72000.0,,,,,,,,,
KRDR,06-11-2020,14:56,METAR,Normal,350,7.0,,,9999.0,,18.8,12.1,30.00,1016.5,,,,,,,,,,,,,,,Clear,72000.0,,,,,,,,,
KRDR,06-11-2020,13:56,METAR,Normal,330,9.0,,,9999.0,,17.3,11.6,29.98,1015.7,,,,,,,,,,,,,,,Clear,72000.0,,,,,,,,,
KRDR,06-11-2020,12:56,METAR,Normal,310,8.0,,,9999.0,,15.1,11.9,29.96,1015.0,,,,,,,,,,,,,,,Clear,72000.0,,,,,,,,,
KRDR,06-11-2020,11:56,METAR,Normal,300,7.0,,,9999.0,,13.5,12.4,29.94,1014.4,,,,,,,,,,,,,,,Clear,72000.0,,,,,,,,,
KRDR,06-11-2020,10:56,METAR,Normal,290,8.0,,,9999.0,,11.5,11.5,29.91,1013.3,,,,,,,,,,,,,,,Clear,72000.0,,,,,,,,,
KRDR,06-11-2020,09:56,METAR,Normal,290,7.0,,,9999.0,,9.8,9.8,29.89,1012.7,,,,,,,,,,,,,,,Clear,72000.0,,,,,,,,,
KRDR,06-11-2020,08:56,METAR,Normal,280,3.0,,,9999.0,,10.3,10.3,29.88,1012.4,,,,,,,,,,,,,,,Clear,72000.0,,,,,,,,,
KRDR,06-11-2020,07:56,METAR,Normal,280,7.0,,,9999.0,,10.1,10.1,29.87,1012.1,,,,,,,,,,,,,,,2/8 Mostly Clear,72000.0,16000.0,FEW,16000.0,,,,,,
KRDR,06-11-2020,06:56,METAR,Normal,270,4.0,,,9999.0,,9.0,9.0,29.85,1011.4,,,,,,,,,,,,,,,Clear,72000.0,,,,,,,,,
KRDR,06-11-2020,05:56,METAR,Normal,20,3.0,,,9999.0,,11.3,11.3,29.85,1011.4,,,,,,,,,,,,,TRACE,,Clear,72000.0,,,,,,,,,
KRDR,06-11-2020,04:56,METAR,Normal,270,6.0,,,9999.0,,15.4,11.2,29.83,1010.6,,,,,,,,,,,TRACE,,,,,8500.0,8500.0,OVC,8600.0,,,,,,
KRDR,06-11-2020,04:35,SPECI,Normal,300,5.0,,,9999.0,,16.0,12.0,29.83,1010.6,,,,,,,,,,,,,,,,8500.0,8500.0,OVC,8600.0,,,,,,
KRDR,06-11-2020,04:26,SPECI,Normal,300,4.0,,,9999.0,Light Rain,16.0,10.0,29.83,1010.6,61,,,,,,,,,,,,,,,8000.0,8000.0,BKN,8000.0,OVC,9100.0,,,,
KRDR,06-11-2020,03:56,METAR,Normal,230,5.0,,,9999.0,,15.5,12.1,29.84,1010.9,,,,,,,,,,,,,,,,8500.0,8500.0,OVC,8600.0,,,,,,
KRDR,06-11-2020,02:56,METAR,Normal,190,4.0,,,9999.0,,13.6,11.3,29.83,1010.7,,,,,,,,,,,,,,,2/8 Mostly Clear,72000.0,10000.0,FEW,10000.0,,,,,,
KRDR,06-11-2020,01:56,METAR,Calm,,0.0,,,9999.0,,17.4,10.7,29.82,1010.3,,,,,,,,,,,,,,,Clear,72000.0,,,,,,,,,
KRDR,06-11-2020,00:56,METAR,Normal,30,5.0,,,9999.0,,19.9,9.2,29.82,1010.3,,,,,,,,,,,,,,,Clear,72000.0,,,,,,,,,
KRDR,06-10-2020,23:56,METAR,Normal,10,7.0,,,9999.0,,20.4,9.0,29.82,1010.3,,,,,,,,,,,,,,,Clear,72000.0,,,,,,,,,
KRDR,06-10-2020,22:56,METAR,Normal,360,13.0,21.0,,9999.0,,21.5,8.0,29.82,1010.3,,,,,,,,,,,,,,,Clear,72000.0,,,,,,,,,
KRDR,06-10-2020,21:56,METAR,Normal,360,14.0,23.0,,9999.0,,21.4,8.6,29.81,1010.0,,,,,,,,,,,,,,,Clear,72000.0,,,,,,,,,
KRDR,06-10-2020,20:56,METAR,Normal,340,16.0,24.0,,9999.0,,21.3,8.2,29.80,1009.6,,,,,,,,,,,,,,,Clear,72000.0,,,,,,,,,
KRDR,06-10-2020,19:56,METAR,Normal,340,15.0,21.0,340/26KTS,9999.0,,20.4,9.0,29.79,1009.3,,,,,,,,,,,,,,,,5500.0,5500.0,BKN,5500.0,BKN,18000.0,,,,
KRDR,06-10-2020,18:56,METAR,Normal,340,14.0,23.0,360/28KTS,9999.0,,20.1,9.9,29.78,1009.0,,,,,,,,,,,,,,,2/8 Mostly Clear,72000.0,5000.0,FEW,5000.0,FEW,18000.0,,,,
KRDR,06-10-2020,17:56,METAR,Normal,350,19.0,26.0,350/28KTS,9999.0,,19.3,9.8,29.78,1009.0,,,,,,,,,,,,,,,4/8 Partly Cloudy,72000.0,4900.0,SCT,4900.0,,,,,,
KRDR,06-10-2020,16:56,METAR,Normal,340,15.0,25.0,330/30KTS,9999.0,,18.4,9.2,29.78,1009.0,,,,,,,,,,,,,,,4/8 Partly Cloudy,72000.0,4700.0,FEW,4700.0,SCT,6000.0,,,,
KRDR,06-10-2020,15:56,METAR,Normal,340,21.0,26.0,350/27KTS,9999.0,,17.8,9.9,29.77,1008.6,,,,,,,,,,,,,,,4/8 Partly Cloudy,72000.0,4500.0,SCT,4500.0,,,,,,
KRDR,06-10-2020,14:56,METAR,Normal,330,17.0,24.0,,9999.0,,16.9,10.7,29.76,1008.3,,,,,,,,,,,,,,,Clear,72000.0,,,,,,,,,
KRDR,06-10-2020,13:56,METAR,Normal,330,17.0,22.0,,9999.0,,15.3,10.7,29.75,1008.0,,,,,,,,,,,,,,,Clear,72000.0,,,,,,,,,
KRDR,06-10-2020,12:56,METAR,Normal,320,13.0,20.0,,9999.0,,13.7,10.1,29.75,1008.1,,,,,,,,,,,,,,,Clear,72000.0,,,,,,,,,
KRDR,06-10-2020,11:56,METAR,Normal,320,13.0,,,9999.0,,12.6,10.0,29.74,1007.7,,,,,,,,,,,,,,.31 IN,Clear,72000.0,,,,,,,,,
KRDR,06-10-2020,10:56,METAR,Normal,320,12.0,,,9999.0,,11.6,10.5,29.73,1007.4,,,,,,,,,,,,,,,Clear,72000.0,,,,,,,,,
KRDR,06-10-2020,09:56,METAR,Normal,320,8.0,,,9999.0,,11.1,10.8,29.72,1007.0,,,,,,,,,,,,,,,Clear,72000.0,,,,,,,,,
KRDR,06-10-2020,08:56,METAR,Normal,330,10.0,,,9999.0,,11.9,11.4,29.71,1006.6,,,,,,,,,,,,,,,Clear,72000.0,,,,,,,,,
KRDR,06-10-2020,07:56,METAR,Normal,320,9.0,,,9999.0,,12.4,12.4,29.71,1006.7,,,,,,,,,,,,,,,Clear,72000.0,,,,,,,,,
KRDR,06-10-2020,06:56,METAR,Normal,320,9.0,,,9999.0,,12.9,12.7,29.72,1007.0,,,,,,,,,,,,,,,2/8 Mostly Clear,72000.0,11000.0,FEW,11000.0,,,,,,
KRDR,06-10-2020,05:56,METAR,Normal,340,9.0,,,9999.0,,13.9,13.9,29.73,1007.3,,,,,,,,,,,,,TRACE,,,13000.0,13000.0,BKN,13000.0,,,,,,
KRDR,06-10-2020,04:56,METAR,Normal,320,9.0,,,9999.0,,13.9,13.9,29.73,,,,,,,,,,,,,,,,,12000.0,12000.0,OVC,12000.0,,,,,,
KRDR,06-10-2020,03:56,METAR,Normal,330,8.0,,,9999.0,,14.0,14.0,29.73,,,,,,,,,,,,,,,,,10000.0,10000.0,OVC,10000.0,,,,,,
KRDR,06-10-2020,02:56,METAR,Normal,320,7.0,,,9999.0,,14.2,14.2,29.73,,,,,,,,,,,,,TRACE,,,,9000.0,9000.0,OVC,9100.0,,,,,,
KRDR,06-10-2020,01:56,METAR,Normal,340,7.0,,,9999.0,,14.5,14.5,29.74,1007.6,,,,,,,,,,,TRACE,,,,,9500.0,9500.0,OVC,9600.0,,,,,,
KRDR,06-10-2020,01:20,SPECI,Normal,340,7.0,,,9999.0,,15.0,15.0,29.75,1007.9,,,,,,,,,,,,,,,,9500.0,9500.0,OVC,9600.0,,,,,,
KRDR,06-10-2020,01:03,SPECI,Normal,330,10.0,,,9999.0,Light Drizzle,15.0,15.0,29.75,1007.9,51,,,,,,,,,,,,,,,9000.0,8000.0,SCT,8000.0,BKN,9100.0,,,,
KRDR,06-10-2020,01:01,SPECI,Normal,330,11.0,,,9999.0,,15.0,15.0,29.75,1007.9,,,,,,,,,,,,,,,,9000.0,8000.0,SCT,8000.0,BKN,9100.0,,,,
KRDR,06-10-2020,00:56,METAR,Normal,350,9.0,,,9999.0,Light Rain,14.9,14.9,29.74,1007.6,61,,,,,,,,,,TRACE,,,,,9000.0,7000.0,FEW,7000.0,OVC,9100.0,,,,
KRDR,06-10-2020,00:47,SPECI,Normal,340,9.0,,,9999.0,Light Drizzle,15.0,15.0,29.75,1007.9,51,,,,,,,,,,,,,,,8500.0,8500.0,OVC,8600.0,,,,,,
KRDR,06-10-2020,00:30,SPECI,Normal,340,9.0,,,9999.0,,15.0,15.0,29.74,1007.6,,,,,,,,,,,,,,,,8500.0,8500.0,OVC,8600.0,,,,,,
KRDR,06-10-2020,00:18,SPECI,Normal,330,8.0,,,9999.0,Light Drizzle,15.0,15.0,29.74,1007.6,51,,,,,,,,,,,,,,,8500.0,8500.0,OVC,8600.0,,,,,,
KRDR,06-09-2020,23:56,METAR,Normal,340,9.0,,,9999.0,,15.1,15.1,29.74,1007.6,,,,,,,,,,,,,TRACE,,,8500.0,8500.0,OVC,8600.0,,,,,,
KRDR,06-09-2020,22:56,METAR,Normal,330,11.0,,,9999.0,,15.5,13.7,29.74,1007.5,,,,,,,,,,,,,,,,8000.0,8000.0,OVC,8000.0,,,,,,
KRDR,06-09-2020,21:56,METAR,Normal,350,13.0,,,9999.0,,16.5,15.0,29.72,1006.8,,,,,,,,,,,,,,,,7000.0,7000.0,OVC,7000.0,,,,,,
KRDR,06-09-2020,21:26,SPECI,Normal,350,12.0,20.0,,9999.0,,17.0,15.0,29.72,1006.8,,,,,,,,,,,,,,,,7000.0,2100.0,SCT,2100.0,OVC,7000.0,,,,
KRDR,06-09-2020,21:06,SPECI,Normal,360,16.0,,,9999.0,,17.0,17.0,29.72,1006.8,,,,,,,,,,,,,,,,2100.0,2100.0,BKN,2100.0,OVC,7000.0,,,,
KRDR,06-09-2020,20:56,METAR,Normal,350,11.0,,,9999.0,,17.0,16.5,29.73,1007.1,,,,,,,,,,,,TRACE,,,,7000.0,2200.0,SCT,2200.0,OVC,7000.0,,,,
KRDR,06-09-2020,19:56,METAR,Normal,340,12.0,,,9999.0,,16.3,16.1,29.74,1007.5,,,,,,,,,,,,,,,,6500.0,6500.0,OVC,6500.0,,,,,,
KRDR,06-09-2020,18:56,METAR,Normal,330,15.0,,,9999.0,,16.2,16.2,29.75,1007.8,,,,,,,,,,,TRACE,,,,,6000.0,1900.0,FEW,1900.0,OVC,6000.0,,,,
KRDR,06-09-2020,18:05,SPECI,Normal,330,11.0,,,9999.0,Light Rain,16.0,16.0,29.74,1007.4,61,,,,,,,,,,,,,,,3200.0,3200.0,BKN,3200.0,OVC,4100.0,,,,
KRDR,06-09-2020,17:56,METAR,Normal,330,11.0,,,9999.0,Light Rain,15.7,15.7,29.75,1007.8,61,,,,,,,,,,.13 IN,,.31 IN,,,4300.0,2000.0,FEW,2000.0,OVC,4300.0,,,,
KRDR,06-09-2020,16:56,METAR,Normal,290,11.0,,,9999.0,Heavy Rain/Mist,15.7,15.7,29.74,1007.4,63,10,,,,,,,,,.14 IN,,,,,3900.0,3900.0,OVC,3900.0,,,,,,
KRDR,06-09-2020,16:26,SPECI,Normal,310,12.0,,,9999.0,Light Rain,16.0,16.0,29.75,1007.8,61,,,,,,,,,,,,,,,3900.0,3900.0,OVC,3900.0,,,,,,
KRDR,06-09-2020,16:05,SPECI,Normal,310,10.0,,,9999.0,,16.0,16.0,29.74,1007.4,,,,,,,,,,,,,,,,3600.0,3600.0,BKN,3600.0,OVC,4400.0,,,,
KRDR,06-09-2020,15:56,METAR,Normal,310,11.0,,,9999.0,Light Rain,16.0,16.0,29.73,1007.1,61,,,,,,,,,,.04 IN,,,,,3500.0,3500.0,OVC,3500.0,,,,,,
KRDR,06-09-2020,15:35,SPECI,Normal,310,12.0,,,9999.0,Light Rain,16.0,16.0,29.73,1007.1,61,,,,,,,,,,,,,,,3400.0,3400.0,BKN,3400.0,OVC,4200.0,,,,
KRDR,06-09-2020,15:29,SPECI,Normal,320,11.0,18.0,,9999.0,,16.0,16.0,29.73,1007.1,,,,,,,,,,,,,,,,3400.0,3400.0,BKN,3400.0,OVC,4200.0,,,,
KRDR,06-09-2020,15:09,SPECI,Normal,310,13.0,,,9999.0,Light Rain,16.0,16.0,29.72,1006.8,61,,,,,,,,,,,,,,,3400.0,3400.0,BKN,3400.0,OVC,4600.0,,,,
KRDR,06-09-2020,14:56,METAR,Normal,320,13.0,,,9999.0,Light Rain,16.4,16.4,29.71,1006.4,61,,,,,,,,,,TRACE,TRACE,,,,4600.0,4600.0,OVC,4600.0,,,,,,
KRDR,06-09-2020,14:45,SPECI,Normal,330,9.0,,,9999.0,Light Rain,17.0,17.0,29.72,1006.7,61,,,,,,,,,,,,,,,4600.0,2700.0,FEW,2700.0,OVC,4600.0,,,,
KRDR,06-09-2020,13:56,METAR,Normal,340,12.0,,,9999.0,,17.1,17.1,29.71,1006.3,,,,,,,,,,,TRACE,,,,,4400.0,4400.0,BKN,4400.0,BKN,8000.0,,,,
KRDR,06-09-2020,12:57,SPECI,Normal,340,10.0,,,9999.0,,17.0,17.0,29.71,1006.3,,,,,,,,,,,,,,,,4200.0,4200.0,OVC,4200.0,,,,,,
KRDR,06-09-2020,12:56,METAR,Normal,340,13.0,,,9999.0,Light Rain,17.0,17.0,29.71,1006.3,61,,,,,,,,,,TRACE,,,,,4200.0,4200.0,OVC,4200.0,,,,,,
KRDR,06-09-2020,12:31,SPECI,Normal,330,16.0,22.0,,9999.0,Light Drizzle,17.0,17.0,29.71,1006.3,51,,,,,,,,,,,,,,,4100.0,4100.0,OVC,4100.0,,,,,,
KRDR,06-09-2020,11:56,METAR,Normal,340,14.0,21.0,010/27KTS,9999.0,,17.5,17.5,29.67,1005.0,,,,,,,,,,,TRACE,,.04 IN,.51 IN,,3600.0,1600.0,FEW,1600.0,SCT,2600.0,BKN,3600.0,,
KRDR,06-09-2020,11:17,SPECI,Normal,340,14.0,,,9999.0,,18.0,18.0,29.65,1004.3,,,,,,,,,,,,,,,,3000.0,3000.0,BKN,3000.0,,,,,,
KRDR,06-09-2020,11:15,SPECI,Normal,340,15.0,,,9999.0,Light Rain,18.0,18.0,29.65,1004.3,61,,,,,,,,,,,,,,,3000.0,3000.0,BKN,3000.0,,,,,,
KRDR,06-09-2020,10:56,METAR,Normal,340,15.0,,,9999.0,Drizzle,17.8,17.8,29.65,1004.3,,,,51,,,,,,,TRACE,,.08 IN,.51 IN,,3000.0,3000.0,BKN,3000.0,,,,,,
KRDR,06-09-2020,09:56,METAR,Normal,340,10.0,,,9999.0,Light Rain,18.4,18.4,29.70,1005.8,61,,,,,,,,,,.04 IN,,,,,1100.0,1100.0,OVC,1100.0,,,,,,
KRDR,06-09-2020,09:48,SPECI,Normal,340,10.0,,,9999.0,Light Rain,18.0,18.0,29.70,1005.8,61,,,,,,,,,,,,,,4/8 Partly Cloudy,72000.0,1100.0,SCT,1100.0,,,,,,
KRDR,06-09-2020,09:08,SPECI,Normal,340,8.0,,,9999.0,Light Rain,19.0,19.0,29.70,1005.8,61,,,,,,,,,,,,,,,1100.0,1100.0,BKN,1100.0,OVC,2400.0,,,,
KRDR,06-09-2020,08:58,SPECI,Normal,350,5.0,,,9999.0,Light Rain,19.0,19.0,29.71,1006.1,61,,,,,,,,,,,,,,,2300.0,1100.0,SCT,1100.0,BKN,2300.0,BKN,2700.0,OVC,4900.0
KRDR,06-09-2020,08:56,METAR,Normal,350,5.0,,,9999.0,Light Rain,18.7,18.7,29.71,1006.1,61,,,,,,,,,,TRACE,TRACE,,,,2300.0,1300.0,FEW,1300.0,BKN,2300.0,BKN,2700.0,OVC,4900.0
KRDR,06-09-2020,08:35,SPECI,Normal,290,10.0,,,9999.0,Light Rain,19.0,19.0,29.72,1006.4,61,,,,,,,,,,,,,,,2300.0,1500.0,SCT,1500.0,BKN,2300.0,BKN,11000.0,,
KRDR,06-09-2020,08:25,SPECI,Normal,300,12.0,,,9999.0,Light Drizzle,19.0,19.0,29.70,1005.8,51,,,,,,,,,,,,,,,11000.0,1500.0,FEW,1500.0,SCT,2300.0,SCT,9100.0,BKN,11000.0
KRDR,06-09-2020,07:56,METAR,Normal,320,16.0,,,9999.0,,19.2,19.2,29.66,1004.4,,,,,,,,,,,,,,,,11000.0,2400.0,FEW,2400.0,BKN,11000.0,,,,
KRDR,06-09-2020,06:56,METAR,Normal,310,11.0,,,9999.0,,21.2,21.2,29.64,1003.7,,,,,,,,,,,,,,,,16000.0,2300.0,FEW,2300.0,SCT,3000.0,SCT,11000.0,OVC,16000.0
KRDR,06-09-2020,05:56,METAR,Normal,320,8.0,,,9999.0,,21.4,21.4,29.63,1003.3,,,,,,,,,,,.04 IN,,.04 IN,,,7000.0,2400.0,FEW,2400.0,SCT,5000.0,BKN,7000.0,OVC,12000.0
KRDR,06-09-2020,05:52,SPECI,Normal,320,7.0,,,9999.0,,21.0,21.0,29.64,1003.7,,,,,,,,,,,,,,,,7000.0,2100.0,FEW,2100.0,FEW,2600.0,SCT,5000.0,BKN,7000.0
KRDR,06-09-2020,05:48,SPECI,Normal,320,8.0,,,9999.0,Light Rain,22.0,22.0,29.64,1003.6,61,,,,,,,,,,,,,,,7000.0,1900.0,FEW,1900.0,SCT,5000.0,BKN,7000.0,BKN,12000.0
KRDR,06-09-2020,05:25,SPECI,Normal,260,6.0,,,9999.0,Rain/Mist,22.0,22.0,29.66,1004.3,,,,61,10,,,,,,,,,,,2000.0,1500.0,FEW,1500.0,BKN,2000.0,BKN,9600.0,OVC,12000.0
KRDR,06-09-2020,04:56,METAR,Normal,310,6.0,,,8000.0,Mist,21.1,21.1,29.64,1003.7,10,,,,,,,,,,,,,,,10000.0,1400.0,FEW,1400.0,BKN,10000.0,OVC,12000.0,,
KRDR,06-09-2020,04:30,SPECI,Calm,,0.0,,,6400.0,Mist,21.0,21.0,29.64,1003.7,,,,10,,,,,,,,,,,,10000.0,10000.0,BKN,10000.0,,,,,,
KRDR,06-09-2020,03:56,METAR,Normal,310,5.0,,,9999.0,Mist,20.7,20.7,29.65,1004.1,10,,,,,,,,,,,,,,,10000.0,10000.0,OVC,10000.0,,,,,,
KRDR,06-09-2020,02:56,METAR,Normal,320,4.0,,,9999.0,,20.9,20.9,29.62,1003.1,,,,,,,,,,,,,,,2/8 Mostly Clear,72000.0,10000.0,FEW,10000.0,,,,,,
KRDR,06-09-2020,01:56,METAR,Normal,330,4.0,,,9999.0,,22.2,22.2,29.61,1002.8,,,,,,,,,,,,,,,2/8 Mostly Clear,72000.0,10000.0,FEW,10000.0,,,,,,
KRDR,06-09-2020,00:56,METAR,Normal,330,5.0,,,9999.0,,22.4,22.4,29.61,1002.8,,,,,,,,,,,,,,,4/8 Partly Cloudy,72000.0,2800.0,FEW,2800.0,SCT,10000.0,,,,
KRDR,06-08-2020,23:56,METAR,Normal,330,6.0,,,9999.0,,22.9,22.9,29.60,1002.5,,,,,,,,,,,TRACE,,.43 IN,,4/8 Partly Cloudy,72000.0,6500.0,SCT,6500.0,,,,,,
KRDR,06-08-2020,22:56,METAR,Normal,20,5.0,,300/32KTS,9999.0,,21.8,21.8,29.57,1001.6,,,,,,,,,,,.43 IN,,,,,11000.0,900.0,SCT,900.0,SCT,10000.0,BKN,11000.0,BKN,18000.0
KRDR,06-08-2020,22:46,SPECI,Normal,360,5.0,,,9999.0,Light Rain/Distant Lightning,21.0,21.0,29.58,1001.9,61,12,,,,,,,,,,,,,,3900.0,1300.0,SCT,1300.0,BKN,3900.0,BKN,14000.0,BKN,17000.0
KRDR,06-08-2020,22:37,SPECI,Normal,10,13.0,,,4000.0,Thunderstorm and Rain or Snow Showers,21.0,21.0,29.59,1002.3,92,,,,,,,,,,,,,,,1700.0,500.0,FEW,500.0,BKN,1700.0,BKN,3800.0,OVC,6000.0
KRDR,06-08-2020,22:35,SPECI,Normal,360,12.0,,,1600.0,Thunderstorm and Rain or Snow Showers,21.0,21.0,29.60,1002.6,92,,,,,,,,,,,,,,,1700.0,1700.0,BKN,1700.0,BKN,3800.0,OVC,6000.0,,
KRDR,06-08-2020,22:32,SPECI,Normal,40,14.0,32.0,,800.0,Heavy Thunderstorm and Rain or Snow Showers,21.0,21.0,29.59,1002.3,95,,,,,,,,,,,,,,,2500.0,2500.0,BKN,2500.0,BKN,3800.0,OVC,6000.0,,
KRDR,06-08-2020,22:29,SPECI,Variable,340,9.0,32.0,,3200.0,Heavy Thunderstorm and Hail/Heavy Rain/Mist,22.0,22.0,29.58,1001.9,,,,99,65,10,,,,,,,,,,,,,,,,,,,
KRDR,06-08-2020,22:26,SPECI,Normal,310,20.0,32.0,,8000.0,Heavy Thunderstorm and Hail/Heavy Rain/Mist,24.0,24.0,29.61,1002.9,,,,99,65,10,,,,,,,,,,,,,,,,,,,
KRDR,06-08-2020,22:02,SPECI,Calm,,0.0,,,9999.0,Thunderstorm and Rain or Snow Showers,28.0,23.0,29.55,1000.7,92,,,,,,,,,,,,,,,6000.0,4000.0,SCT,4000.0,OVC,6000.0,,,,
KRDR,06-08-2020,21:58,SPECI,Normal,220,3.0,,,9999.0,Light Rain/Distant Lightning,28.0,23.0,29.55,1000.7,61,12,,,,,,,,,,,,,,6000.0,4000.0,SCT,4000.0,OVC,6000.0,,,,
KRDR,06-08-2020,21:56,METAR,Normal,200,3.0,,,9999.0,Distant Lightning,27.8,22.5,29.55,1000.7,12,,,,,,,,,,,,,,,6000.0,4000.0,SCT,4000.0,OVC,6000.0,,,,
KRDR,06-08-2020,21:50,SPECI,Normal,200,4.0,,,9999.0,Distant Lightning,28.0,23.0,29.55,1000.7,12,,,,,,,,,,,,,,,4000.0,4000.0,BKN,4000.0,OVC,6000.0,,,,
KRDR,06-08-2020,20:56,METAR,Normal,190,8.0,,,9999.0,,29.7,22.4,29.56,1001.0,,,,,,,,,,,,,,,,5500.0,4100.0,SCT,4100.0,BKN,5500.0,,,,
KRDR,06-08-2020,19:56,METAR,Normal,170,7.0,,,9999.0,,29.5,22.7,29.56,1001.0,,,,,,,,,,,,,,,4/8 Partly Cloudy,72000.0,4100.0,FEW,4100.0,FEW,17000.0,SCT,19000.0,,
KRDR,06-08-2020,18:56,METAR,Normal,180,5.0,,,9999.0,,28.8,22.5,29.57,1001.3,,,,,,,,,,,,,,,,4600.0,3800.0,SCT,3800.0,BKN,4600.0,BKN,8000.0,,
KRDR,06-08-2020,16:56,METAR,Normal,220,8.0,19.0,,9999.0,,28.3,22.7,29.55,1000.7,,,,,,,,,,,,,,,2/8 Mostly Clear,72000.0,2900.0,FEW,2900.0,,,,,,
KRDR,06-08-2020,16:52,SPECI,Normal,230,11.0,19.0,,9999.0,,28.0,23.0,29.55,1000.7,,,,,,,,,,,,,,,2/8 Mostly Clear,72000.0,2900.0,FEW,2900.0,,,,,,
KRDR,06-08-2020,16:42,SPECI,Normal,230,10.0,,,9999.0,,28.0,23.0,29.54,1000.3,,,,,,,,,,,,,,,2/8 Mostly Clear,72000.0,3000.0,FEW,3000.0,,,,,,
KRDR,06-08-2020,15:56,METAR,Normal,170,14.0,,,9999.0,,26.7,23.5,29.54,1000.4,,,,,,,,,,,,,,,Clear,72000.0,,,,,,,,,
KRDR,06-08-2020,14:56,METAR,Normal,160,13.0,19.0,,9999.0,,24.2,23.7,29.55,1000.8,,,,,,,,,,,,,,,2/8 Mostly Clear,72000.0,1600.0,FEW,1600.0,,,,,,
KRDR,06-08-2020,13:56,METAR,Normal,140,12.0,,,9999.0,,22.6,22.6,29.57,1001.2,,,,,,,,,,,,,,,Clear,72000.0,,,,,,,,,
KRDR,06-08-2020,12:56,METAR,Normal,140,8.0,,,9999.0,,21.2,21.2,29.60,1002.3,,,,,,,,,,,,,,,Clear,72000.0,,,,,,,,,
KRDR,06-08-2020,11:56,METAR,Normal,110,4.0,,,9999.0,,18.8,18.8,29.61,1002.6,,,,,,,,,,,,,.03 IN,.2 IN,,5500.0,5500.0,OVC,5500.0,,,,,,
KRDR,06-08-2020,10:56,METAR,Normal,90,4.0,,,9999.0,,18.1,18.1,29.61,1002.6,,,,,,,,,,,,,,,,5500.0,5500.0,OVC,5500.0,,,,,,
KRDR,06-08-2020,09:56,METAR,Normal,60,9.0,,,9999.0,,17.6,17.6,29.57,1001.3,,,,,,,,,,,TRACE,,,,,3300.0,3300.0,OVC,3300.0,,,,,,
KRDR,06-08-2020,09:08,SPECI,Normal,70,11.0,,,9999.0,,18.0,18.0,29.59,1001.9,,,,,,,,,,,,,,,,5500.0,5500.0,BKN,5500.0,BKN,13000.0,,,,
KRDR,06-08-2020,08:56,METAR,Normal,70,9.0,,,9999.0,Light Rain,18.8,18.8,29.61,1002.6,61,,,,,,,,,,TRACE,.03 IN,,,,6500.0,2400.0,FEW,2400.0,BKN,6500.0,BKN,8600.0,OVC,13000.0
KRDR,06-08-2020,08:54,SPECI,Normal,70,9.0,,,9999.0,Light Rain,19.0,19.0,29.61,1002.6,61,,,,,,,,,,,,,,,6500.0,600.0,FEW,600.0,FEW,2400.0,BKN,6500.0,OVC,13000.0
KRDR,06-08-2020,08:44,SPECI,Normal,70,5.0,,,9999.0,,19.0,19.0,29.61,1002.6,,,,,,,,,,,,,,,,6500.0,600.0,FEW,600.0,FEW,2200.0,BKN,6500.0,OVC,8000.0
KRDR,06-08-2020,08:10,SPECI,Normal,60,10.0,,,9999.0,,19.0,19.0,29.57,1001.2,,,,,,,,,,,,,,,,9000.0,3900.0,FEW,3900.0,BKN,9100.0,BKN,13000.0,,
KRDR,06-08-2020,07:57,SPECI,Normal,70,9.0,,,9999.0,Light Rain,19.0,19.0,29.58,1001.6,61,,,,,,,,,,,,,,,12000.0,9500.0,SCT,9600.0,BKN,12000.0,,,,
KRDR,06-08-2020,07:56,METAR,Normal,60,10.0,,,9999.0,,18.9,18.9,29.58,1001.6,,,,,,,,,,,TRACE,,,,,12000.0,9500.0,SCT,9600.0,BKN,12000.0,,,,
KRDR,06-08-2020,07:43,SPECI,Normal,60,8.0,,,9999.0,,19.0,19.0,29.59,1001.9,,,,,,,,,,,,,,,4/8 Partly Cloudy,72000.0,12000.0,SCT,12000.0,,,,,,
KRDR,06-08-2020,07:30,SPECI,Normal,40,5.0,,,9999.0,Light Rain,19.0,19.0,29.62,1002.9,61,,,,,,,,,,,,,,4/8 Partly Cloudy,72000.0,12000.0,SCT,12000.0,,,,,,
KRDR,06-08-2020,06:56,METAR,Calm,,0.0,,,9999.0,,19.4,19.4,,,,,,,,,,,,,.03 IN,,,,4/8 Partly Cloudy,72000.0,5500.0,FEW,5500.0,SCT,12000.0,,,,
KRDR,06-08-2020,06:24,SPECI,Normal,80,7.0,,,9999.0,,20.0,20.0,29.48,998.2,,,,,,,,,,,,,,,4/8 Partly Cloudy,72000.0,7000.0,SCT,7000.0,,,,,,
KRDR,06-08-2020,06:08,SPECI,Normal,120,16.0,,,9999.0,Light Rain,20.0,20.0,29.53,999.9,61,,,,,,,,,,,,,,,7500.0,7500.0,BKN,7500.0,OVC,9100.0,,,,
KRDR,06-08-2020,06:06,SPECI,Normal,130,15.0,,,9999.0,,20.0,20.0,29.55,1000.6,,,,,,,,,,,,,,,,8000.0,8000.0,BKN,8000.0,,,,,,
KRDR,06-08-2020,05:59,SPECI,Normal,170,13.0,17.0,,9999.0,,21.0,21.0,29.61,1002.6,,,,,,,,,,,,,,,,8500.0,8500.0,BKN,8600.0,,,,,,
KRDR,06-08-2020,05:56,METAR,Normal,160,12.0,,,9999.0,Light Rain,21.0,19.8,29.62,1002.9,61,,,,,,,,,,.01 IN,,.17 IN,,,9000.0,7500.0,FEW,7500.0,BKN,9100.0,,,,
KRDR,06-08-2020,05:48,SPECI,Normal,120,10.0,,,9999.0,Light Rain,21.0,20.0,29.62,1002.9,61,,,,,,,,,,,,,,,9000.0,9000.0,BKN,9100.0,BKN,10000.0,,,,
KRDR,06-08-2020,05:18,SPECI,Normal,90,8.0,,,9999.0,,20.0,20.0,29.61,1002.7,,,,,,,,,,,,,,,,10000.0,2300.0,SCT,2300.0,OVC,10000.0,,,,
KRDR,06-08-2020,05:16,SPECI,Normal,90,8.0,,,9999.0,Light Rain,20.0,20.0,29.61,1002.7,61,,,,,,,,,,,,,,,11000.0,2400.0,SCT,2400.0,SCT,9100.0,BKN,11000.0,,
KRDR,06-08-2020,04:56,METAR,Normal,110,6.0,,,9999.0,Light Rain,20.1,20.1,29.61,1002.7,61,,,,,,,,,,.04 IN,,,,,2800.0,2800.0,BKN,2800.0,,,,,,
KRDR,06-08-2020,04:18,SPECI,Calm,,0.0,,,9999.0,Light Rain,20.0,20.0,29.61,1002.7,61,,,,,,,,,,,,,,4/8 Partly Cloudy,72000.0,7500.0,FEW,7500.0,FEW,9100.0,SCT,13000.0,,
KRDR,06-08-2020,03:58,SPECI,Calm,,0.0,,,9999.0,,20.0,20.0,29.59,1002.0,,,,,,,,,,,,,,,2/8 Mostly Clear,72000.0,13000.0,FEW,13000.0,,,,,,
KRDR,06-08-2020,03:56,METAR,Normal,40,4.0,,,9999.0,Light Rain,19.6,19.6,29.59,1002.0,61,,,,,,,,,,.03 IN,,,,4/8 Partly Cloudy,72000.0,5000.0,FEW,5000.0,SCT,13000.0,,,,
KRDR,06-08-2020,03:12,SPECI,Normal,200,7.0,,,9999.0,Light Rain,21.0,21.0,29.58,1001.7,61,,,,,,,,,,,,,,,7000.0,7000.0,BKN,7000.0,,,,,,
KRDR,06-08-2020,03:11,SPECI,Normal,200,8.0,,,9999.0,Thunderstorm and Rain or Snow Showers,21.0,21.0,29.59,1002.1,92,,,,,,,,,,,,,,,7000.0,7000.0,BKN,7000.0,,,,,,
KRDR,06-08-2020,03:10,SPECI,Normal,210,8.0,,,9999.0,Light Rain,21.0,21.0,29.59,1002.1,61,,,,,,,,,,,,,,,7000.0,7000.0,BKN,7000.0,,,,,,
KRDR,06-08-2020,02:56,METAR,Normal,210,16.0,24.0,230/48KTS,9999.0,Thunderstorm and Rain or Snow Showers,20.7,20.0,29.60,1002.4,92,,,,,,,,,,.09 IN,.09 IN,,,,6500.0,6500.0,OVC,6500.0,,,,,,
KRDR,06-08-2020,02:35,SPECI,Normal,230,32.0,48.0,,4800.0,Thunderstorm and Rain or Snow Showers,22.0,19.0,29.56,1001.1,92,,,,,,,,,,,,,,,5500.0,5500.0,OVC,5500.0,,,,,,
KRDR,06-08-2020,02:25,SPECI,Normal,240,28.0,40.0,,1600.0,Heavy Thunderstorm and Rain or Snow Showers,24.0,18.0,29.52,999.7,95,,,,,,,,,,,,,,,6000.0,600.0,SCT,600.0,OVC,6000.0,,,,
KRDR,06-08-2020,02:15,SPECI,Variable,230,21.0,38.0,,1600.0,Thunderstorm and Rain or Snow Showers,29.0,20.0,29.50,,92,,,,,,,,,,,,,,,1500.0,1500.0,OVC,1500.0,,,,,,
KRDR,06-08-2020,02:09,SPECI,Normal,180,5.0,,,9999.0,Distant Lightning,28.0,22.0,29.43,996.5,12,,,,,,,,,,,,,,,8000.0,2000.0,SCT,2000.0,BKN,8000.0,,,,
KRDR,06-08-2020,02:07,SPECI,Normal,180,5.0,,,9999.0,Distant Lightning,28.0,22.0,29.43,996.5,12,,,,,,,,,,,,,,,8000.0,2000.0,SCT,2000.0,BKN,8000.0,,,,
KRDR,06-08-2020,01:56,METAR,Normal,140,8.0,,,9999.0,,28.1,22.3,29.40,995.6,,,,,,,,,,,,,,,4/8 Partly Cloudy,72000.0,8000.0,SCT,8000.0,,,,,,
KRDR,06-08-2020,00:56,METAR,Normal,150,14.0,21.0,,9999.0,,29.8,22.2,29.43,996.6,,,,,,,,,,,,,,,,9500.0,7500.0,SCT,7500.0,BKN,9600.0,,,,
KRDR,06-07-2020,23:56,METAR,Normal,190,15.0,19.0,210/29KTS,9999.0,Distant Lightning,34.1,19.3,29.43,996.5,12,,,,,,,,,,,,TRACE,,,5000.0,5000.0,BKN,5000.0,,,,,,
KRDR,06-07-2020,22:56,METAR,Normal,180,21.0,28.0,,9999.0,Distant Lightning,33.4,18.3,29.45,997.3,12,,,,,,,,,,,,,,4/8 Partly Cloudy,72000.0,6000.0,SCT,6000.0,,,,,,
KRDR,06-07-2020,22:43,SPECI,Normal,190,21.0,27.0,,,Distant Lightning,34.0,20.0,29.46,997.6,12,,,,,,,,,,,,,,,,,,,,,,,,
KRDR,06-07-2020,22:01,SPECI,Normal,190,13.0,21.0,,9999.0,,31.0,21.0,29.49,998.7,,,,,,,,,,,,,,,,5000.0,2300.0,SCT,2300.0,BKN,5000.0,,,,
KRDR,06-07-2020,21:56,METAR,Normal,190,16.0,21.0,,9999.0,Light Rain Showers,31.8,21.6,29.49,998.7,81,,,,,,,,,,TRACE,,,,,5000.0,5000.0,BKN,5000.0,BKN,13000.0,,,,
KRDR,06-07-2020,21:46,SPECI,Normal,200,16.0,20.0,,9999.0,Light Rain Showers,33.0,20.0,29.49,998.6,81,,,,,,,,,,,,,,,5000.0,5000.0,BKN,5000.0,FEW,13000.0,,,,
KRDR,06-07-2020,20:56,METAR,Normal,170,15.0,,230/27KTS,9999.0,,34.4,21.1,29.50,999.0,,,,,,,,,,,,,,,,5000.0,5000.0,BKN,5000.0,,,,,,
KRDR,06-07-2020,20:17,SPECI,Normal,170,21.0,26.0,,9999.0,,33.0,22.0,29.51,999.3,,,,,,,,,,,,,,,,14000.0,5000.0,SCT,5000.0,BKN,14000.0,BKN,20000.0,,
KRDR,06-07-2020,19:56,METAR,Normal,170,15.0,,,9999.0,,31.9,22.6,29.53,1000.0,,,,,,,,,,,,,,,,18000.0,13000.0,FEW,13000.0,SCT,16000.0,BKN,18000.0,BKN,20000.0
KRDR,06-07-2020,18:56,METAR,Normal,180,13.0,,,9999.0,,30.8,22.1,29.54,1000.4,,,,,,,,,,,,,,,,14000.0,4900.0,FEW,4900.0,BKN,14000.0,BKN,18000.0,,
KRDR,06-07-2020,17:56,METAR,Normal,180,18.0,24.0,180/27KTS,9999.0,,30.5,21.5,29.55,1000.7,,,,,,,,,,,,,,,2/8 Mostly Clear,72000.0,4500.0,FEW,4500.0,,,,,,
KRDR,06-07-2020,16:56,METAR,Normal,170,18.0,24.0,,9999.0,,29.9,21.8,29.56,1001.1,,,,,,,,,,,,,,,2/8 Mostly Clear,72000.0,16000.0,FEW,16000.0,FEW,19000.0,,,,
KRDR,06-07-2020,15:56,METAR,Normal,170,16.0,24.0,180/27KTS,9999.0,,27.0,20.8,29.57,1001.5,,,,,,,,,,,,,,,2/8 Mostly Clear,72000.0,15000.0,FEW,15000.0,,,,,,
KRDR,06-07-2020,14:56,METAR,Normal,160,20.0,26.0,150/28KTS,9999.0,,24.0,19.1,29.60,1002.6,,,,,,,,,,,,,,,Clear,72000.0,,,,,,,,,
KRDR,06-07-2020,13:56,METAR,Normal,150,14.0,23.0,130/27KTS,9999.0,,20.5,18.1,29.61,1003.0,,,,,,,,,,,,,,,Clear,72000.0,,,,,,,,,
KRDR,06-07-2020,13:36,SPECI,Normal,140,17.0,22.0,,9999.0,,19.0,18.0,29.61,1003.0,,,,,,,,,,,,,,,4/8 Partly Cloudy,72000.0,2700.0,SCT,2700.0,,,,,,
KRDR,06-07-2020,12:56,METAR,Normal,130,18.0,24.0,,9999.0,,17.0,17.0,29.63,1003.8,,,,,,,,,,,,,,,,2800.0,2800.0,OVC,2800.0,,,,,,
KRDR,06-07-2020,12:16,SPECI,Normal,130,14.0,24.0,,9999.0,,16.0,16.0,29.65,1004.5,,,,,,,,,,,,,,,,2900.0,2900.0,BKN,2900.0,OVC,3500.0,,,,
KRDR,06-07-2020,11:56,METAR,Normal,130,17.0,22.0,,9999.0,,15.4,15.4,29.67,1005.2,,,,,,,,,,,,,.14 IN,.17 IN,,3500.0,3500.0,OVC,3500.0,,,,,,
KRDR,06-07-2020,10:56,METAR,Normal,120,12.0,21.0,120/27KTS,9999.0,,14.6,14.6,29.68,1005.4,,,,,,,,,,,,,,,Clear,72000.0,,,,,,,,,
KRDR,06-07-2020,09:56,METAR,Normal,100,15.0,21.0,110/32KTS,9999.0,,14.5,14.5,29.69,1005.8,,,,,,,,,,,,,,,2/8 Mostly Clear,72000.0,19000.0,FEW,19000.0,,,,,,
KRDR,06-07-2020,08:56,METAR,Normal,100,21.0,28.0,120/30KTS,9999.0,,14.2,14.2,29.72,1006.9,,,,,,,,,,,,.14 IN,,,Clear,72000.0,,,,,,,,,
KRDR,06-07-2020,07:56,METAR,Normal,90,12.0,18.0,,9999.0,,14.8,14.8,29.74,1007.5,,,,,,,,,,,.13 IN,,,,,4800.0,4800.0,BKN,4800.0,BKN,5500.0,,,,
KRDR,06-07-2020,07:32,SPECI,Normal,100,12.0,,,9999.0,,15.0,15.0,29.79,,,,,,,,,,,,,,,,,4100.0,200.0,FEW,200.0,FEW,2400.0,BKN,4100.0,OVC,5000.0
KRDR,06-07-2020,07:23,SPECI,Normal,90,10.0,,,9999.0,Thunderstorm and Rain or Snow Showers,15.0,15.0,29.80,,92,,,,,,,,,,,,,,,4100.0,300.0,FEW,300.0,FEW,2400.0,BKN,4100.0,BKN,5000.0
KRDR,06-07-2020,07:15,SPECI,Normal,360,3.0,,,6400.0,Thunderstorm and Rain or Snow Showers/Mist,15.0,15.0,,,92,10,,,,,,,,,,,,,,4700.0,300.0,FEW,300.0,SCT,2400.0,BKN,4700.0,BKN,7500.0
KRDR,06-07-2020,07:07,SPECI,Variable,290,7.0,17.0,,3200.0,Thunderstorm and Hail/Rain,15.0,15.0,29.83,,,,,96,63,,,,,,,,,,,,,,,,,,,,
KRDR,06-07-2020,07:05,SPECI,Normal,260,15.0,19.0,,8000.0,Thunderstorm and Hail/Rain,15.0,15.0,29.86,,,,,96,63,,,,,,,,,,,,,,,,,,,,
KRDR,06-07-2020,06:55,METAR,Normal,100,14.0,20.0,,9999.0,Thunderstorm and Rain or Snow Showers,15.1,15.1,29.71,,92,,,,,,,,,,.01 IN,,,,,7500.0,5500.0,SCT,5500.0,BKN,7500.0,,,,
KRDR,06-07-2020,06:40,SPECI,Normal,90,16.0,,,9999.0,Thunderstorm and Rain or Snow Showers,16.0,16.0,29.73,,92,,,,,,,,,,,,,,,5500.0,3300.0,FEW,3300.0,OVC,5500.0,,,,
KRDR,06-07-2020,06:09,SPECI,Normal,90,10.0,,,9999.0,Dry Thunderstorm,16.0,15.0,29.78,,91,,,,,,,,,,,,,,,6000.0,3400.0,FEW,3400.0,SCT,4800.0,OVC,6000.0,,
KRDR,06-07-2020,05:55,METAR,Variable,120,8.0,21.0,,9999.0,Thunderstorm and Rain or Snow Showers,16.2,14.4,29.79,1009.2,92,,,,,,,,,,TRACE,,.02 IN,,,4800.0,2500.0,FEW,2500.0,SCT,3400.0,BKN,4800.0,OVC,6500.0
KRDR,06-07-2020,05:34,SPECI,Normal,100,11.0,,,9999.0,Thunderstorm and Rain or Snow Showers,16.0,14.0,29.80,1009.5,92,,,,,,,,,,,,,,,7500.0,6000.0,FEW,6000.0,OVC,7500.0,,,,
KRDR,06-07-2020,05:32,SPECI,Normal,100,12.0,,,9999.0,Dry Thunderstorm,16.0,14.0,29.80,1009.5,91,,,,,,,,,,,,,,,7500.0,6000.0,FEW,6000.0,OVC,7500.0,,,,
KRDR,06-07-2020,04:56,METAR,Normal,100,13.0,20.0,,9999.0,,16.0,14.2,29.82,1010.3,,,,,,,,,,,,,,,,9500.0,9500.0,OVC,9600.0,,,,,,
KRDR,06-07-2020,03:56,METAR,Normal,90,11.0,,,9999.0,,15.9,14.6,29.84,1010.9,,,,,,,,,,,,,,,,9000.0,9000.0,BKN,9100.0,BKN,16000.0,BKN,20000.0,,
KRDR,06-07-2020,02:56,METAR,Normal,90,11.0,,,9999.0,,16.2,14.5,29.86,1011.6,,,,,,,,,,,,.02 IN,,,,18000.0,18000.0,BKN,18000.0,OVC,20000.0,,,,
KRDR,06-07-2020,01:56,METAR,Normal,110,10.0,,,9999.0,,16.7,14.3,29.88,1012.3,,,,,,,,,,,,,,,,12000.0,12000.0,BKN,12000.0,BKN,18000.0,OVC,20000.0,,
KRDR,06-07-2020,00:56,METAR,Normal,80,12.0,22.0,,9999.0,,17.1,14.0,29.89,1012.8,,,,,,,,,,,.02 IN,,,,,11000.0,7000.0,FEW,7000.0,BKN,11000.0,OVC,13000.0,,
KRDR,06-07-2020,00:42,SPECI,Normal,90,10.0,,,9999.0,,17.0,14.0,29.89,1012.8,,,,,,,,,,,,,,,,5000.0,5000.0,BKN,5000.0,OVC,12000.0,,,,
KRDR,06-07-2020,00:01,SPECI,Normal,110,14.0,22.0,,9999.0,Light Rain Showers,20.0,9.0,29.90,1013.1,81,,,,,,,,,,,,,,,5500.0,5500.0,BKN,5500.0,OVC,8000.0,,,,
KRDR,06-06-2020,23:56,METAR,Normal,120,11.0,19.0,,9999.0,,19.7,8.7,29.90,1013.1,,,,,,,,,,,,,.01 IN,,,5000.0,5000.0,BKN,5000.0,OVC,8000.0,,,,
KRDR,06-06-2020,23:38,SPECI,Normal,120,17.0,23.0,,9999.0,,20.0,8.0,29.92,1013.8,,,,,,,,,,,,,,,,5000.0,5000.0,BKN,5000.0,OVC,8000.0,,,,
KRDR,06-06-2020,23:06,SPECI,Normal,110,13.0,18.0,,9999.0,,21.0,10.0,29.92,1013.9,,,,,,,,,,,,,,,,5000.0,5000.0,BKN,5000.0,SCT,10000.0,BKN,12000.0,BKN,14000.0
KRDR,06-06-2020,23:04,SPECI,Normal,120,14.0,20.0,,9999.0,,21.0,10.0,29.93,1014.3,,,,,,,,,,,,,,,,5000.0,5000.0,BKN,5000.0,SCT,10000.0,BKN,12000.0,BKN,14000.0
KRDR,06-06-2020,22:56,METAR,Normal,120,15.0,20.0,,9999.0,,21.0,9.9,29.93,1014.3,,,,,,,,,,,,,,,,13000.0,10000.0,SCT,10000.0,BKN,13000.0,,,,
KRDR,06-06-2020,21:56,METAR,Normal,100,15.0,20.0,,9999.0,,21.7,9.6,29.96,1015.2,,,,,,,,,,,,,,,,13000.0,11000.0,FEW,11000.0,BKN,13000.0,BKN,20000.0,,
KRDR,06-06-2020,20:56,METAR,Normal,110,13.0,,,9999.0,,20.2,10.9,29.98,1016.0,,,,,,,,,,,,.01 IN,,,4/8 Partly Cloudy,72000.0,14000.0,FEW,14000.0,FEW,16000.0,SCT,18000.0,SCT,21000.0
KRDR,06-06-2020,19:56,METAR,Normal,100,11.0,,,9999.0,,18.5,12.5,30.00,1016.6,,,,,,,,,,,,,,,,13000.0,13000.0,BKN,13000.0,,,,,,
KRDR,06-06-2020,18:56,METAR,Normal,80,12.0,,,9999.0,,18.5,14.2,30.00,1016.6,,,,,,,,,,,.01 IN,,,,,15000.0,3100.0,FEW,3100.0,SCT,11000.0,BKN,15000.0,BKN,17000.0
KRDR,06-06-2020,18:48,SPECI,Normal,80,9.0,,,9999.0,,18.0,14.0,30.02,1017.3,,,,,,,,,,,,,,,4/8 Partly Cloudy,72000.0,3300.0,FEW,3300.0,SCT,10000.0,SCT,15000.0,,
KRDR,06-06-2020,18:24,METAR,Normal,110,15.0,,,9999.0,Rain,17.0,13.0,,1018.3,,,,61,,,,,,,,,,,,8000.0,4000.0,SCT,4000.0,BKN,8000.0,OVC,12000.0,,
KRDR,06-06-2020,18:24,SPECI,Normal,110,15.0,,,9999.0,Rain,17.0,13.0,,1018.3,,,,61,,,,,,,,,,,,8000.0,4000.0,SCT,4000.0,BKN,8000.0,OVC,12000.0,,
KRDR,06-06-2020,13:56,METAR,Normal,100,8.0,,,9999.0,,15.9,11.3,30.13,1020.8,,,,,,,,,,,,,,,Clear,72000.0,,,,,,,,,
KRDR,06-06-2020,12:56,METAR,Normal,100,5.0,,,9999.0,,11.9,10.8,30.13,1020.8,,,,,,,,,,,,,,,Clear,72000.0,,,,,,,,,
KRDR,06-06-2020,11:56,METAR,Calm,,0.0,,,9999.0,,10.2,10.0,30.13,1020.8,,,,,,,,,,,,,,,Clear,72000.0,,,,,,,,,
KRDR,06-06-2020,06:56,METAR,Normal,360,3.0,,,9999.0,,8.2,6.5,30.10,1019.9,,,,,,,,,,,,,,,Clear,72000.0,,,,,,,,,
KRDR,06-06-2020,05:56,METAR,Normal,10,4.0,,,9999.0,,8.9,6.9,30.09,1019.5,,,,,,,,,,,,,,,Clear,72000.0,,,,,,,,,
KRDR,06-06-2020,04:56,METAR,Calm,,0.0,,,9999.0,,10.8,6.5,30.08,1019.2,,,,,,,,,,,,,,,Clear,72000.0,,,,,,,,,
KRDR,06-06-2020,03:56,METAR,Normal,40,4.0,,,9999.0,,15.2,5.7,30.07,1018.7,,,,,,,,,,,,,,,Clear,72000.0,,,,,,,,,
KRDR,06-06-2020,02:56,METAR,Normal,80,5.0,,,9999.0,,16.9,5.5,30.05,1018.0,,,,,,,,,,,,,,,Clear,72000.0,,,,,,,,,
KRDR,06-06-2020,01:56,METAR,Normal,50,7.0,,,9999.0,,19.5,5.9,30.03,1017.3,,,,,,,,,,,,,,,Clear,72000.0,,,,,,,,,
KRDR,06-06-2020,00:56,METAR,Normal,30,10.0,,,9999.0,,22.0,5.0,30.01,1016.6,,,,,,,,,,,,,,,Clear,72000.0,,,,,,,,,
KRDR,06-05-2020,23:56,METAR,Normal,340,10.0,16.0,,9999.0,,23.4,2.2,30.00,1016.3,,,,,,,,,,,,,,,Clear,72000.0,,,,,,,,,
KRDR,06-05-2020,22:56,METAR,Normal,340,10.0,19.0,340/26KTS,9999.0,,24.3,3.0,29.99,1016.1,,,,,,,,,,,,,,,Clear,72000.0,,,,,,,,,
KRDR,06-05-2020,21:56,METAR,Normal,340,14.0,22.0,340/27KTS,9999.0,,24.3,3.0,29.99,1016.1,,,,,,,,,,,,,,,Clear,72000.0,,,,,,,,,
KRDR,06-05-2020,21:25,SPECI,Normal,300,12.0,22.0,,9999.0,,24.0,4.0,29.99,1016.0,,,,,,,,,,,,,,,Clear,72000.0,,,,,,,,,
KRDR,06-05-2020,20:56,METAR,Normal,340,21.0,25.0,320/28KTS,9999.0,,24.2,4.0,29.99,1016.0,,,,,,,,,,,,,,,2/8 Mostly Clear,72000.0,8500.0,FEW,8600.0,,,,,,
KRDR,06-05-2020,19:56,METAR,Normal,330,20.0,26.0,340/29KTS,9999.0,,24.0,3.8,29.99,1015.9,,,,,,,,,,,,,,,Clear,72000.0,,,,,,,,,
KRDR,06-05-2020,18:56,METAR,Normal,330,19.0,24.0,340/27KTS,9999.0,,23.4,5.3,29.99,1016.1,,,,,,,,,,,,,,,Clear,72000.0,,,,,,,,,
KRDR,06-05-2020,17:56,METAR,Normal,330,17.0,25.0,350/27KTS,9999.0,,23.0,5.4,29.98,1015.6,,,,,,,,,,,,,,,Clear,72000.0,,,,,,,,,
KRDR,06-05-2020,16:56,METAR,Normal,320,20.0,24.0,,9999.0,,21.6,7.0,29.98,1015.6,,,,,,,,,,,,,,,Clear,72000.0,,,,,,,,,
KRDR,06-05-2020,15:56,METAR,Normal,330,13.0,21.0,,9999.0,,20.4,9.0,29.96,1014.9,,,,,,,,,,,,,,,Clear,72000.0,,,,,,,,,
KRDR,06-05-2020,14:56,METAR,Normal,330,13.0,,,9999.0,,18.9,9.9,29.95,1014.6,,,,,,,,,,,,,,,Clear,72000.0,,,,,,,,,
KRDR,06-05-2020,13:56,METAR,Normal,320,12.0,,,9999.0,,17.4,11.2,29.94,1014.2,,,,,,,,,,,,,,,Clear,72000.0,,,,,,,,,
KRDR,06-05-2020,12:56,METAR,Normal,310,8.0,,,9999.0,,15.7,10.5,29.92,1013.5,,,,,,,,,,,,,,,Clear,72000.0,,,,,,,,,
KRDR,06-05-2020,11:56,METAR,Normal,290,7.0,,,9999.0,,13.0,9.3,29.91,1013.2,,,,,,,,,,,,,,.01 IN,Clear,72000.0,,,,,,,,,
KRDR,06-05-2020,10:56,METAR,Normal,290,7.0,,,9999.0,,10.4,8.2,29.87,1011.9,,,,,,,,,,,,,,,Clear,72000.0,,,,,,,,,
KRDR,06-05-2020,09:56,METAR,Normal,300,9.0,,,9999.0,,10.9,8.6,29.85,1011.2,,,,,,,,,,,,,,,Clear,72000.0,,,,,,,,,
KRDR,06-05-2020,08:56,METAR,Normal,280,8.0,,,9999.0,,12.6,8.9,29.83,1010.4,,,,,,,,,,,,,,,Clear,72000.0,,,,,,,,,
KRDR,06-05-2020,07:56,METAR,Normal,290,8.0,,,9999.0,,13.4,10.0,29.81,1009.7,,,,,,,,,,,,,,,Clear,72000.0,,,,,,,,,
KRDR,06-05-2020,06:56,METAR,Normal,260,5.0,,,9999.0,,11.6,11.6,29.80,1009.5,,,,,,,,,,,,,,,Clear,72000.0,,,,,,,,,
KRDR,06-05-2020,05:56,METAR,Normal,210,6.0,,,9999.0,,14.6,12.8,29.80,1009.4,,,,,,,,,,,,,.01 IN,,4/8 Partly Cloudy,72000.0,11000.0,SCT,11000.0,,,,,,
KRDR,06-05-2020,04:56,METAR,Normal,190,11.0,,,9999.0,,16.5,11.6,29.81,1009.6,,,,,,,,,,,.01 IN,,,,,9500.0,5500.0,FEW,5500.0,BKN,9600.0,OVC,13000.0,,
KRDR,06-05-2020,04:19,SPECI,Normal,220,8.0,,,9999.0,Rain,16.0,13.0,29.81,1009.7,,,,61,,,,,,,,,,,,8000.0,5000.0,FEW,5000.0,OVC,8000.0,,,,
KRDR,06-05-2020,04:04,SPECI,Normal,260,3.0,,,9999.0,Thunderstorm and Rain or Snow Showers,17.0,13.0,29.79,1009.0,92,,,,,,,,,,,,,,,8000.0,8000.0,OVC,8000.0,,,,,,
KRDR,06-05-2020,03:56,METAR,Calm,,0.0,,,9999.0,,17.3,10.9,29.77,1008.3,,,,,,,,,,,TRACE,,,,,9000.0,9000.0,OVC,9100.0,,,,,,
KRDR,06-05-2020,03:32,SPECI,Calm,,0.0,,,9999.0,,19.0,10.0,29.77,1008.3,,,,,,,,,,,,,,,,9500.0,7500.0,FEW,7500.0,OVC,9600.0,,,,
KRDR,06-05-2020,03:08,SPECI,Calm,,0.0,,,9999.0,Light Rain,18.0,7.0,29.77,1008.3,61,,,,,,,,,,,,,,,10000.0,10000.0,OVC,10000.0,,,,,,
KRDR,06-05-2020,02:56,METAR,Calm,,0.0,,,9999.0,,19.7,5.7,29.76,1007.9,,,,,,,,,,,,,,,,9500.0,9500.0,BKN,9600.0,BKN,12000.0,,,,
KRDR,06-05-2020,01:56,METAR,Normal,320,12.0,,,9999.0,,22.4,3.5,29.75,1007.6,,,,,,,,,,,,,,,,9500.0,9500.0,OVC,9600.0,,,,,,
KRDR,06-05-2020,00:56,METAR,Normal,310,9.0,,,9999.0,,23.3,3.2,29.73,1007.0,,,,,,,,,,,,,,,,9500.0,9500.0,BKN,9600.0,,,,,,
KRDR,06-04-2020,23:56,METAR,Normal,310,8.0,,,9999.0,,24.1,3.9,29.72,1006.7,,,,,,,,,,,,,,,,10000.0,10000.0,OVC,10000.0,,,,,,
KRDR,06-04-2020,22:56,METAR,Normal,290,12.0,,,9999.0,,26.5,3.7,29.72,1006.7,,,,,,,,,,,,,,,,11000.0,11000.0,BKN,11000.0,BKN,14000.0,,,,
KRDR,06-04-2020,22:18,SPECI,Normal,320,11.0,20.0,,9999.0,,27.0,4.0,29.72,1006.7,,,,,,,,,,,,,,,2/8 Mostly Clear,72000.0,11000.0,FEW,11000.0,,,,,,
KRDR,06-04-2020,21:56,METAR,Normal,310,10.0,17.0,,9999.0,,26.1,3.9,29.73,1007.1,,,,,,,,,,,,,,,4/8 Partly Cloudy,72000.0,11000.0,SCT,11000.0,,,,,,
KRDR,06-04-2020,20:56,METAR,Normal,270,12.0,21.0,,9999.0,,27.5,3.9,29.73,1007.0,,,,,,,,,,,,,,,4/8 Partly Cloudy,72000.0,13000.0,SCT,13000.0,SCT,19000.0,,,,
KRDR,06-04-2020,19:56,METAR,Normal,310,14.0,21.0,320/26KTS,9999.0,,26.7,2.5,29.76,1008.0,,,,,,,,,,,,,,,,11000.0,11000.0,BKN,11000.0,,,,,,
KRDR,06-04-2020,19:33,SPECI,Normal,260,13.0,25.0,,9999.0,,27.0,3.0,29.76,1008.0,,,,,,,,,,,,,,,,11000.0,11000.0,BKN,11000.0,,,,,,
KRDR,06-04-2020,18:56,METAR,Normal,290,16.0,24.0,,9999.0,,26.2,3.4,29.76,1008.0,,,,,,,,,,,,,,,4/8 Partly Cloudy,72000.0,12000.0,SCT,12000.0,,,,,,
KRDR,06-04-2020,17:56,METAR,Normal,290,17.0,21.0,,9999.0,,25.8,1.1,29.78,1008.6,,,,,,,,,,,,,,,Clear,72000.0,,,,,,,,,
KRDR,06-04-2020,17:29,SPECI,Normal,270,11.0,22.0,,9999.0,,26.0,2.0,29.78,1008.6,,,,,,,,,,,,,,,Clear,72000.0,,,,,,,,,
KRDR,06-04-2020,16:56,METAR,Normal,300,14.0,,,9999.0,,26.2,2.1,29.78,1008.6,,,,,,,,,,,,,,,Clear,72000.0,,,,,,,,,
KRDR,06-04-2020,12:56,METAR,Normal,260,5.0,,,9999.0,,18.1,7.8,29.77,1008.3,,,,,,,,,,,,,,,Clear,72000.0,,,,,,,,,
KRDR,06-04-2020,11:56,METAR,Normal,280,8.0,,,9999.0,,14.5,5.6,29.77,1008.3,,,,,,,,,,,,,,.02 IN,Clear,72000.0,,,,,,,,,
KRDR,06-04-2020,09:56,METAR,Normal,280,7.0,,,9999.0,,12.5,4.5,29.73,1007.0,,,,,,,,,,,,,,,Clear,72000.0,,,,,,,,,
KRDR,06-04-2020,08:56,METAR,Normal,300,6.0,,,9999.0,,12.3,5.2,29.73,1007.0,,,,,,,,,,,,,,,Clear,72000.0,,,,,,,,,
KRDR,06-04-2020,07:56,METAR,Normal,290,6.0,,,9999.0,,15.0,4.7,29.73,1006.9,,,,,,,,,,,,,,,Clear,72000.0,,,,,,,,,
KRDR,06-04-2020,06:56,METAR,Normal,310,8.0,,,9999.0,,16.6,4.9,29.72,1006.6,,,,,,,,,,,,,,,2/8 Mostly Clear,72000.0,9500.0,FEW,9600.0,,,,,,
KRDR,06-04-2020,05:56,METAR,Normal,320,12.0,,,9999.0,,19.4,4.7,29.72,1006.5,,,,,,,,,,,,,.01 IN,,,10000.0,10000.0,BKN,10000.0,,,,,,
KRDR,06-04-2020,04:56,METAR,Normal,310,11.0,,,9999.0,,20.4,9.9,29.68,1005.1,,,,,,,,,,,,,,,Clear,72000.0,,,,,,,,,
KRDR,06-04-2020,03:56,METAR,Normal,250,5.0,,,9999.0,,19.3,14.5,29.65,1004.2,,,,,,,,,,,.01 IN,,,,Clear,72000.0,,,,,,,,,
KRDR,06-04-2020,03:11,SPECI,Normal,250,7.0,,,9999.0,,22.0,14.0,29.66,1004.5,,,,,,,,,,,,,,,,9000.0,6500.0,FEW,6500.0,BKN,9100.0,OVC,10000.0,,
KRDR,06-04-2020,02:57,SPECI,Normal,260,5.0,,,9999.0,Light Rain,23.0,11.0,29.66,1004.5,61,,,,,,,,,,,,,,,9000.0,9000.0,BKN,9100.0,BKN,10000.0,,,,
KRDR,06-04-2020,02:56,METAR,Normal,270,5.0,,,9999.0,,23.2,10.9,29.66,1004.5,,,,,,,,,,,,,,,,9000.0,9000.0,BKN,9100.0,BKN,10000.0,,,,
KRDR,06-04-2020,01:56,METAR,Normal,200,7.0,,,9999.0,,26.4,8.8,29.65,1004.1,,,,,,,,,,,,,,,,9500.0,9500.0,OVC,9600.0,,,,,,
KRDR,06-04-2020,00:56,METAR,Normal,190,8.0,,,9999.0,,26.6,7.1,29.67,1004.9,,,,,,,,,,,,,,,4/8 Partly Cloudy,72000.0,10000.0,SCT,10000.0,SCT,14000.0,,,,
KRDR,06-03-2020,23:56,METAR,Normal,200,3.0,,,9999.0,,27.6,7.9,29.70,1006.0,,,,,,,,,,,,,,,,17000.0,9500.0,FEW,9600.0,SCT,14000.0,BKN,17000.0,,
KRDR,06-03-2020,22:56,METAR,Normal,240,12.0,,,9999.0,,27.6,6.9,29.72,1006.7,,,,,,,,,,,,,,,,20000.0,12000.0,SCT,12000.0,BKN,20000.0,,,,
KRDR,06-03-2020,21:56,METAR,Normal,230,11.0,,,9999.0,,27.9,6.6,29.74,1007.4,,,,,,,,,,,,,,,,20000.0,11000.0,FEW,11000.0,BKN,20000.0,,,,
KRDR,06-03-2020,20:56,METAR,Normal,210,12.0,,,9999.0,,28.1,6.8,29.77,1008.4,,,,,,,,,,,,,,,,21000.0,15000.0,SCT,15000.0,SCT,18000.0,BKN,21000.0,,
KRDR,06-03-2020,19:56,METAR,Normal,220,14.0,21.0,,9999.0,,28.3,6.9,29.80,1009.4,,,,,,,,,,,,,,,2/8 Mostly Clear,72000.0,9500.0,FEW,9600.0,,,,,,
KRDR,06-03-2020,18:56,METAR,Normal,180,9.0,,,9999.0,,27.3,6.1,29.82,1010.1,,,,,,,,,,,,,,,2/8 Mostly Clear,72000.0,17000.0,FEW,17000.0,FEW,20000.0,,,,
KRDR,06-03-2020,18:46,SPECI,Normal,220,11.0,16.0,,9999.0,,27.0,6.0,29.82,1010.1,,,,,,,,,,,,,,,2/8 Mostly Clear,72000.0,18000.0,FEW,18000.0,FEW,20000.0,,,,
KRDR,06-03-2020,17:56,METAR,Normal,220,9.0,,,9999.0,,26.3,6.8,29.84,1010.7,,,,,,,,,,,,,,,2/8 Mostly Clear,72000.0,15000.0,FEW,15000.0,FEW,19000.0,,,,
KRDR,06-03-2020,16:56,METAR,Normal,160,6.0,,,9999.0,,25.3,6.0,29.86,1011.3,,,,,,,,,,,,,,,Clear,72000.0,,,,,,,,,
KRDR,06-03-2020,15:56,METAR,Normal,170,7.0,,,9999.0,,23.7,6.9,29.89,1012.4,,,,,,,,,,,,,,,Clear,72000.0,,,,,,,,,
KRDR,06-03-2020,14:56,METAR,Normal,190,4.0,,,9999.0,,22.2,7.6,29.91,1013.0,,,,,,,,,,,,,,,Clear,72000.0,,,,,,,,,
KRDR,06-03-2020,13:56,METAR,Normal,190,4.0,,,9999.0,,19.9,10.6,29.92,1013.4,,,,,,,,,,,,,,,Clear,72000.0,,,,,,,,,
KRDR,06-03-2020,12:56,METAR,Calm,,0.0,,,9999.0,,16.9,12.4,29.93,1013.7,,,,,,,,,,,,,,,Clear,72000.0,,,,,,,,,
KRDR,06-03-2020,11:56,METAR,Calm,,0.0,,,9999.0,,11.6,11.6,29.93,1013.8,,,,,,,,,,,,,,,Clear,72000.0,,,,,,,,,
KRDR,06-03-2020,10:56,METAR,Calm,,0.0,,,9999.0,,9.1,9.1,29.92,1013.5,,,,,,,,,,,,,,,Clear,72000.0,,,,,,,,,
KRDR,06-03-2020,09:56,METAR,Normal,300,5.0,,,9999.0,,9.7,9.7,29.91,1013.2,,,,,,,,,,,,,,,Clear,72000.0,,,,,,,,,
KRDR,06-03-2020,08:56,METAR,Normal,300,5.0,,,9999.0,,10.9,10.1,29.92,1013.5,,,,,,,,,,,,,,,Clear,72000.0,,,,,,,,,
KRDR,06-03-2020,07:56,METAR,Normal,300,5.0,,,9999.0,,11.0,9.6,29.93,1013.9,,,,,,,,,,,,,,,Clear,72000.0,,,,,,,,,
KRDR,06-03-2020,06:56,METAR,Calm,,0.0,,,9999.0,,12.8,9.8,29.93,1013.9,,,,,,,,,,,,,,,Clear,72000.0,,,,,,,,,
KRDR,06-03-2020,05:56,METAR,Normal,10,8.0,,,9999.0,,16.0,10.1,29.92,1013.4,,,,,,,,,,,,,,,Clear,72000.0,,,,,,,,,
KRDR,06-03-2020,04:56,METAR,Normal,350,11.0,,,9999.0,,19.3,6.1,29.89,1012.3,,,,,,,,,,,,,,,Clear,72000.0,,,,,,,,,
KRDR,06-03-2020,03:56,METAR,Normal,320,8.0,,,9999.0,,20.9,4.9,29.85,1011.0,,,,,,,,,,,,,,,Clear,72000.0,,,,,,,,,
KRDR,06-03-2020,02:56,METAR,Normal,300,9.0,,,9999.0,,22.0,6.2,29.83,1010.3,,,,,,,,,,,,,,,Clear,72000.0,,,,,,,,,
KRDR,06-03-2020,01:56,METAR,Normal,260,8.0,,,9999.0,,24.6,8.1,29.81,1009.6,,,,,,,,,,,,,,,Clear,72000.0,,,,,,,,,
KRDR,06-03-2020,00:56,METAR,Normal,280,15.0,18.0,,9999.0,,27.1,7.5,29.82,1009.9,,,,,,,,,,,,,,,Clear,72000.0,,,,,,,,,
KRDR,06-02-2020,23:56,METAR,Normal,280,12.0,18.0,,9999.0,,27.7,7.5,29.83,1010.3,,,,,,,,,,,,,,,Clear,72000.0,,,,,,,,,
KRDR,06-02-2020,22:56,METAR,Normal,280,13.0,20.0,,9999.0,,28.4,8.1,29.84,1010.8,,,,,,,,,,,,,,,Clear,72000.0,,,,,,,,,
KRDR,06-02-2020,21:56,METAR,Normal,280,16.0,22.0,,9999.0,,28.0,9.3,29.85,1011.0,,,,,,,,,,,,,,,Clear,72000.0,,,,,,,,,
KRDR,06-02-2020,21:41,SPECI,Normal,280,13.0,21.0,,9999.0,,28.0,9.0,29.85,1011.0,,,,,,,,,,,,,,,2/8 Mostly Clear,72000.0,8000.0,FEW,8000.0,,,,,,
KRDR,06-02-2020,20:56,METAR,Normal,280,17.0,26.0,300/27KTS,9999.0,,28.1,8.9,29.85,1011.0,,,,,,,,,,,,,,,Clear,72000.0,,,,,,,,,
KRDR,06-02-2020,20:30,SPECI,Normal,290,17.0,20.0,,9999.0,,28.0,9.0,29.87,1011.6,,,,,,,,,,,,,,,Clear,72000.0,,,,,,,,,
KRDR,06-02-2020,19:56,METAR,Normal,290,11.0,,,9999.0,,27.2,8.1,29.88,1012.0,,,,,,,,,,,,,,,4/8 Partly Cloudy,72000.0,15000.0,FEW,15000.0,SCT,17000.0,,,,
KRDR,06-02-2020,18:56,METAR,Normal,310,7.0,,,9999.0,,24.2,8.2,29.90,1012.7,,,,,,,,,,,,,,,,11000.0,11000.0,BKN,11000.0,,,,,,
KRDR,06-02-2020,17:56,METAR,Normal,330,12.0,17.0,,9999.0,,28.3,6.9,29.89,1012.2,,,,,,,,,,,,,TRACE,,4/8 Partly Cloudy,72000.0,15000.0,SCT,15000.0,SCT,18000.0,,,,
KRDR,06-02-2020,16:56,METAR,Normal,350,4.0,,,9999.0,,26.6,6.6,29.88,1011.9,,,,,,,,,,,,,,,2/8 Mostly Clear,72000.0,12000.0,FEW,12000.0,FEW,19000.0,,,,
KRDR,06-02-2020,15:56,METAR,Normal,300,3.0,,,9999.0,,23.7,9.7,29.88,1012.0,,,,,,,,,,,TRACE,,,,,11000.0,9000.0,FEW,9100.0,BKN,11000.0,,,,
KRDR,06-02-2020,15:41,SPECI,Calm,,0.0,,,9999.0,Light Rain,23.0,11.0,29.90,1012.6,61,,,,,,,,,,,,,,,12000.0,8500.0,FEW,8600.0,BKN,12000.0,BKN,16000.0,,
KRDR,06-02-2020,14:56,METAR,Normal,360,3.0,,,9999.0,,23.2,9.6,29.86,1011.2,,,,,,,,,,,,,,,4/8 Partly Cloudy,72000.0,14000.0,SCT,14000.0,,,,,,
KRDR,06-02-2020,13:56,METAR,Normal,10,4.0,,,9999.0,,21.4,9.6,29.87,1011.6,,,,,,,,,,,,,,,2/8 Mostly Clear,72000.0,15000.0,FEW,15000.0,,,,,,
KRDR,06-02-2020,12:56,METAR,Normal,350,6.0,,,9999.0,,20.7,9.6,29.84,1010.5,,,,,,,,,,,,,,,Clear,72000.0,,,,,,,,,
KRDR,06-02-2020,11:56,METAR,Normal,320,3.0,,,9999.0,,16.6,10.9,29.83,1010.2,,,,,,,,,,,,,,,Clear,72000.0,,,,,,,,,
KRDR,06-02-2020,10:56,METAR,Normal,280,4.0,,,9999.0,,12.9,9.0,29.82,1009.9,,,,,,,,,,,,,,,Clear,72000.0,,,,,,,,,
KRDR,06-02-2020,09:56,METAR,Normal,300,7.0,,,9999.0,,16.9,7.5,29.79,1008.8,,,,,,,,,,,,,,,Clear,72000.0,,,,,,,,,
KRDR,06-02-2020,08:56,METAR,Normal,300,7.0,,,9999.0,,15.9,8.4,29.78,1008.5,,,,,,,,,,,,,,,Clear,72000.0,,,,,,,,,
KRDR,06-02-2020,07:56,METAR,Normal,300,6.0,,,9999.0,,18.8,7.9,29.78,1008.4,,,,,,,,,,,,,,,Clear,72000.0,,,,,,,,,
KRDR,06-02-2020,06:56,METAR,Normal,300,6.0,,,9999.0,,19.3,8.0,29.78,1008.5,,,,,,,,,,,,,,,Clear,72000.0,,,,,,,,,
KRDR,06-02-2020,05:56,METAR,Normal,300,6.0,,,9999.0,,19.4,9.6,29.77,1008.1,,,,,,,,,,,,,,,Clear,72000.0,,,,,,,,,
KRDR,06-02-2020,04:56,METAR,Normal,300,7.0,,,9999.0,,21.1,9.0,29.76,1007.8,,,,,,,,,,,,,,,Clear,72000.0,,,,,,,,,
KRDR,06-02-2020,03:56,METAR,Normal,280,7.0,,,9999.0,,22.8,9.9,29.75,1007.4,,,,,,,,,,,,,,,Clear,72000.0,,,,,,,,,
KRDR,06-02-2020,02:56,METAR,Normal,270,8.0,,,9999.0,,24.6,9.3,29.73,1006.8,,,,,,,,,,,,,,,Clear,72000.0,,,,,,,,,
KRDR,06-02-2020,01:56,METAR,Normal,260,8.0,,,9999.0,,26.2,9.5,29.72,1006.5,,,,,,,,,,,,,,,Clear,72000.0,,,,,,,,,
KRDR,06-02-2020,00:56,METAR,Normal,290,12.0,,,9999.0,,29.3,9.9,29.71,1006.1,,,,,,,,,,,,,,,Clear,72000.0,,,,,,,,,
KRDR,06-01-2020,23:56,METAR,Normal,280,17.0,,,9999.0,,30.8,8.5,29.71,1006.1,,,,,,,,,,,,,,,Clear,72000.0,,,,,,,,,
KRDR,06-01-2020,22:56,METAR,Normal,280,13.0,,,9999.0,,32.2,9.0,29.70,1005.7,,,,,,,,,,,,,,,Clear,72000.0,,,,,,,,,
KRDR,06-01-2020,21:56,METAR,Normal,290,13.0,21.0,,9999.0,,33.2,9.2,29.70,1005.7,,,,,,,,,,,,,,,Clear,72000.0,,,,,,,,,
KRDR,06-01-2020,20:56,METAR,Normal,310,13.0,18.0,,9999.0,,33.2,11.1,29.69,1005.3,,,,,,,,,,,,,,,Clear,72000.0,,,,,,,,,
KRDR,06-01-2020,19:56,METAR,Normal,280,9.0,,,9999.0,,32.0,18.5,29.69,1005.3,,,,,,,,,,,,,,,Clear,72000.0,,,,,,,,,
KRDR,06-01-2020,19:28,SPECI,Normal,270,10.0,,,9999.0,,32.0,19.0,29.69,1005.3,,,,,,,,,,,,,,,2/8 Mostly Clear,72000.0,20000.0,FEW,20000.0,,,,,,
KRDR,06-01-2020,18:56,METAR,Normal,320,11.0,,,9999.0,,31.4,19.0,29.69,1005.3,,,,,,,,,,,,,,,2/8 Mostly Clear,72000.0,18000.0,FEW,18000.0,FEW,21000.0,,,,
KRDR,06-01-2020,17:56,METAR,Calm,,0.0,,,9999.0,,30.4,19.1,29.70,1005.7,,,,,,,,,,,,,,,Clear,72000.0,,,,,,,,,
KRDR,06-01-2020,16:56,METAR,Calm,,0.0,,,9999.0,,29.0,18.4,29.71,1006.1,,,,,,,,,,,,,,,Clear,72000.0,,,,,,,,,
KRDR,06-01-2020,15:56,METAR,Normal,130,3.0,,,9999.0,,27.1,17.8,29.71,1006.1,,,,,,,,,,,,,,,Clear,72000.0,,,,,,,,,
KRDR,06-01-2020,14:56,METAR,Normal,200,9.0,,,9999.0,,24.4,17.1,29.71,1006.2,,,,,,,,,,,,,,,Clear,72000.0,,,,,,,,,
KRDR,06-01-2020,13:56,METAR,Normal,170,8.0,,,9999.0,,21.4,15.9,29.72,1006.5,,,,,,,,,,,,,,,Clear,72000.0,,,,,,,,,
KRDR,06-01-2020,12:56,METAR,Normal,180,5.0,,,9999.0,,18.0,14.5,29.73,1006.9,,,,,,,,,,,,,,,,15000.0,15000.0,BKN,15000.0,,,,,,
KRDR,06-01-2020,11:56,METAR,Normal,190,6.0,,,9999.0,,18.5,14.2,29.73,1006.9,,,,,,,,,,,,,TRACE,,Clear,72000.0,,,,,,,,,
KRDR,06-01-2020,10:56,METAR,Normal,170,11.0,,,9999.0,,18.3,14.0,29.71,1006.2,,,,,,,,,,,TRACE,,,,4/8 Partly Cloudy,72000.0,9000.0,FEW,9100.0,SCT,13000.0,SCT,15000.0,,
KRDR,06-01-2020,10:44,SPECI,Normal,160,11.0,,,9999.0,,18.0,14.0,29.71,1006.2,,,,,,,,,,,,,,,,13000.0,1400.0,FEW,1400.0,FEW,2900.0,SCT,9100.0,BKN,13000.0
KRDR,06-01-2020,10:34,SPECI,Normal,160,11.0,,,9999.0,Light Rain,18.0,14.0,29.73,1006.8,61,,,,,,,,,,,,,,,12000.0,5000.0,FEW,5000.0,BKN,12000.0,BKN,14000.0,,
KRDR,06-01-2020,10:21,SPECI,Normal,160,10.0,,,9999.0,,18.0,15.0,29.72,1006.6,,,,,,,,,,,,,,,,13000.0,5000.0,FEW,5000.0,BKN,13000.0,,,,
KRDR,06-01-2020,10:07,SPECI,Normal,170,15.0,18.0,,9999.0,Light Rain,19.0,13.0,29.73,1006.8,61,,,,,,,,,,,,,,,13000.0,13000.0,BKN,13000.0,OVC,16000.0,,,,
KRDR,06-01-2020,09:56,METAR,Normal,170,10.0,,,9999.0,,19.2,12.5,29.73,1006.9,,,,,,,,,,,,,,,,14000.0,14000.0,BKN,14000.0,BKN,16000.0,,,,
KRDR,06-01-2020,08:56,METAR,Normal,150,10.0,,,9999.0,,19.4,12.2,29.75,1007.6,,,,,,,,,,,,,,,,16000.0,13000.0,SCT,13000.0,BKN,16000.0,,,,
KRDR,06-01-2020,07:56,METAR,Normal,160,14.0,20.0,,9999.0,,20.0,11.7,29.78,1008.6,,,,,,,,,,,,,,,,17000.0,15000.0,FEW,15000.0,BKN,17000.0,,,,
KRDR,06-01-2020,06:56,METAR,Normal,160,13.0,,,9999.0,,21.1,12.0,29.82,1010.0,,,,,,,,,,,,,,,,5500.0,5500.0,OVC,5500.0,,,,,,
KRDR,06-01-2020,05:56,METAR,Normal,150,11.0,,,9999.0,,20.8,12.2,29.85,1011.0,,,,,,,,,,,,,,,,5000.0,5000.0,OVC,5000.0,,,,,,
KRDR,06-01-2020,04:56,METAR,Normal,150,9.0,,,9999.0,,20.5,11.9,29.87,1011.7,,,,,,,,,,,,,,,2/8 Mostly Clear,72000.0,5500.0,FEW,5500.0,,,,,,
KRDR,06-01-2020,03:56,METAR,Normal,150,10.0,,,9999.0,,21.2,11.5,29.87,1011.8,,,,,,,,,,,,,,,,24000.0,24000.0,BKN,24000.0,,,,,,
KRDR,06-01-2020,02:56,METAR,Normal,150,9.0,,,9999.0,,22.3,11.1,29.87,1011.8,,,,,,,,,,,,,,,Clear,72000.0,,,,,,,,,
KRDR,06-01-2020,01:56,METAR,Normal,170,12.0,,,9999.0,,24.3,10.9,29.89,1012.5,,,,,,,,,,,,,,,Clear,72000.0,,,,,,,,,
KRDR,06-01-2020,00:56,METAR,Normal,170,16.0,20.0,,9999.0,,25.9,10.1,29.90,1012.8,,,,,,,,,,,,,,,Clear,72000.0,,,,,,,,,
KRDR,05-31-2020,23:56,METAR,Normal,180,15.0,,,9999.0,,25.8,9.6,29.92,1013.6,,,,,,,,,,,,,,,Clear,72000.0,,,,,,,,,
KRDR,05-31-2020,22:56,METAR,Normal,160,17.0,23.0,,9999.0,,26.8,8.7,29.95,1014.7,,,,,,,,,,,,,,,4/8 Partly Cloudy,72000.0,7000.0,SCT,7000.0,,,,,,
KRDR,05-31-2020,21:56,METAR,Normal,180,13.0,23.0,,9999.0,,26.0,7.1,29.99,1016.1,,,,,,,,,,,,,,,2/8 Mostly Clear,72000.0,7000.0,FEW,7000.0,,,,,,
KRDR,05-31-2020,20:56,METAR,Normal,150,14.0,25.0,,9999.0,,25.7,6.3,30.02,1017.1,,,,,,,,,,,,,,,Clear,72000.0,,,,,,,,,
KRDR,05-31-2020,20:36,SPECI,Normal,140,13.0,20.0,,9999.0,,26.0,6.0,30.03,1017.5,,,,,,,,,,,,,,,Clear,72000.0,,,,,,,,,
KRDR,05-31-2020,19:56,METAR,Normal,190,15.0,,,9999.0,,24.7,5.5,30.04,1017.8,,,,,,,,,,,,,,,Clear,72000.0,,,,,,,,,
KRDR,05-31-2020,18:56,METAR,Normal,150,10.0,,,9999.0,,23.5,2.3,30.08,1019.2,,,,,,,,,,,,,,,4/8 Partly Cloudy,72000.0,14000.0,FEW,14000.0,SCT,19000.0,,,,
KRDR,05-31-2020,17:56,METAR,Normal,160,11.0,18.0,,9999.0,,22.7,1.6,30.12,1020.6,,,,,,,,,,,,,,,2/8 Mostly Clear,72000.0,16000.0,FEW,16000.0,,,,,,
KRDR,05-31-2020,16:56,METAR,Normal,130,9.0,16.0,,9999.0,,20.8,0.6,30.16,1022.0,,,,,,,,,,,,,,,Clear,72000.0,,,,,,,,,
KRDR,05-31-2020,16:20,SPECI,Normal,190,10.0,17.0,,9999.0,,20.0,0.0,30.18,1022.7,,,,,,,,,,,,,,,Clear,72000.0,,,,,,,,,
KRDR,05-31-2020,15:56,METAR,Normal,160,8.0,15.0,,9999.0,,19.4,-0.1,30.19,1023.1,,,,,,,,,,,,,,,Clear,72000.0,,,,,,,,,
KRDR,05-31-2020,14:56,METAR,Normal,170,12.0,,,9999.0,,17.9,0.1,30.21,1023.7,,,,,,,,,,,,,,,Clear,72000.0,,,,,,,,,
KRDR,05-31-2020,13:56,METAR,Normal,170,6.0,,,9999.0,,15.5,2.3,30.23,1024.3,,,,,,,,,,,,,,,Clear,72000.0,,,,,,,,,
KRDR,05-31-2020,12:56,METAR,Normal,180,12.0,,,9999.0,,13.2,1.2,30.23,1024.3,,,,,,,,,,,,,,,Clear,72000.0,,,,,,,,,
KRDR,05-31-2020,11:56,METAR,Normal,190,6.0,,,9999.0,,10.5,1.1,30.24,1024.7,,,,,,,,,,,,,,,Clear,72000.0,,,,,,,,,
KRDR,05-31-2020,10:56,METAR,Normal,190,6.0,,,9999.0,,6.5,-1.2,30.23,1024.5,,,,,,,,,,,,,,,Clear,72000.0,,,,,,,,,
KRDR,05-31-2020,09:56,METAR,Normal,200,5.0,,,9999.0,,5.1,-1.2,30.23,1024.5,,,,,,,,,,,,,,,Clear,72000.0,,,,,,,,,
KRDR,05-31-2020,08:56,METAR,Normal,210,4.0,,,9999.0,,5.6,-0.9,30.24,1024.9,,,,,,,,,,,,,,,Clear,72000.0,,,,,,,,,
KRDR,05-31-2020,07:56,METAR,Normal,190,5.0,,,9999.0,,7.0,-0.5,30.24,1024.9,,,,,,,,,,,,,,,Clear,72000.0,,,,,,,,,
KRDR,05-31-2020,06:56,METAR,Normal,190,6.0,,,9999.0,,8.2,-0.8,30.25,1025.2,,,,,,,,,,,,,,,Clear,72000.0,,,,,,,,,
KRDR,05-31-2020,05:56,METAR,Normal,190,6.0,,,9999.0,,7.9,-0.1,30.25,1025.2,,,,,,,,,,,,,,,Clear,72000.0,,,,,,,,,
KRDR,05-31-2020,04:56,METAR,Normal,190,4.0,,,9999.0,,7.7,0.2,30.25,1025.2,,,,,,,,,,,,,,,Clear,72000.0,,,,,,,,,
KRDR,05-31-2020,03:56,METAR,Normal,190,4.0,,,9999.0,,8.7,1.1,30.25,1025.3,,,,,,,,,,,,,,,Clear,72000.0,,,,,,,,,
KRDR,05-31-2020,02:56,METAR,Normal,190,4.0,,,9999.0,,10.5,1.3,30.25,1025.2,,,,,,,,,,,,,,,Clear,72000.0,,,,,,,,,
KRDR,05-31-2020,01:56,METAR,Normal,160,3.0,,,9999.0,,16.3,-2.3,30.24,1024.8,,,,,,,,,,,,,,,Clear,72000.0,,,,,,,,,
KRDR,05-31-2020,00:56,METAR,Calm,,0.0,,,9999.0,,18.0,-3.5,30.25,1025.2,,,,,,,,,,,,,,,Clear,72000.0,,,,,,,,,
KRDR,05-30-2020,23:56,METAR,Normal,50,4.0,,,9999.0,,18.0,-2.3,30.26,1025.6,,,,,,,,,,,,,,,Clear,72000.0,,,,,,,,,
KRDR,05-30-2020,22:56,METAR,Normal,70,4.0,,,9999.0,,18.8,-1.7,30.28,1026.4,,,,,,,,,,,,,,,Clear,72000.0,,,,,,,,,
KRDR,05-30-2020,21:56,METAR,Normal,70,4.0,,,9999.0,,18.6,-1.3,30.30,1027.1,,,,,,,,,,,,,,,Clear,72000.0,,,,,,,,,
KRDR,05-30-2020,20:56,METAR,Normal,100,4.0,,,9999.0,,18.1,-1.7,30.31,1027.4,,,,,,,,,,,,,,,Clear,72000.0,,,,,,,,,
KRDR,05-30-2020,19:56,METAR,Normal,60,6.0,,,9999.0,,17.9,-1.9,30.32,1027.7,,,,,,,,,,,,,,,Clear,72000.0,,,,,,,,,
KRDR,05-30-2020,18:56,METAR,Normal,10,9.0,,,9999.0,,17.1,-2.1,30.34,1028.4,,,,,,,,,,,,,,,Clear,72000.0,,,,,,,,,
KRDR,05-30-2020,17:56,METAR,Normal,40,7.0,,,9999.0,,16.0,-2.0,30.35,1028.6,,,,,,,,,,,,,,,Clear,72000.0,,,,,,,,,
KRDR,05-30-2020,16:56,METAR,Normal,50,7.0,,,9999.0,,15.2,-1.8,30.36,1028.9,,,,,,,,,,,,,,,Clear,72000.0,,,,,,,,,
KRDR,05-30-2020,15:56,METAR,Normal,10,6.0,,,9999.0,,13.6,-1.2,30.38,1029.6,,,,,,,,,,,,,,,Clear,72000.0,,,,,,,,,
KRDR,05-30-2020,14:56,METAR,Normal,30,5.0,,,9999.0,,11.9,0.6,30.39,1030.1,,,,,,,,,,,,,,,Clear,72000.0,,,,,,,,,
KRDR,05-30-2020,13:56,METAR,Normal,40,6.0,,,9999.0,,10.5,-0.1,30.38,1029.7,,,,,,,,,,,,,,,Clear,72000.0,,,,,,,,,
KRDR,05-30-2020,12:56,METAR,Normal,30,6.0,,,9999.0,,8.2,2.0,30.38,1029.7,,,,,,,,,,,,,,,Clear,72000.0,,,,,,,,,
KRDR,05-30-2020,11:56,METAR,Normal,330,3.0,,,9999.0,,4.5,3.5,30.37,1029.4,,,,,,,,,,,,,,,Clear,72000.0,,,,,,,,,
KRDR,05-30-2020,10:56,METAR,Normal,310,3.0,,,9999.0,,1.3,0.7,30.35,1028.8,,,,,,,,,,,,,,,Clear,72000.0,,,,,,,,,
KRDR,05-30-2020,09:56,METAR,Normal,300,4.0,,,9999.0,,1.0,0.4,30.34,1028.5,,,,,,,,,,,,,,,Clear,72000.0,,,,,,,,,
KRDR,05-30-2020,08:56,METAR,Normal,320,5.0,,,9999.0,,2.1,0.8,30.33,1028.2,,,,,,,,,,,,,,,Clear,72000.0,,,,,,,,,
KRDR,05-30-2020,07:56,METAR,Normal,340,5.0,,,9999.0,,3.8,0.8,30.32,1027.7,,,,,,,,,,,,,,,Clear,72000.0,,,,,,,,,
KRDR,05-30-2020,06:56,METAR,Normal,350,8.0,,,9999.0,,4.9,1.4,30.30,1027.1,,,,,,,,,,,,,,,Clear,72000.0,,,,,,,,,
KRDR,05-30-2020,05:56,METAR,Normal,350,8.0,,,9999.0,,8.9,1.6,30.30,1026.9,,,,,,,,,,,,,,,4/8 Partly Cloudy,72000.0,6000.0,SCT,6000.0,,,,,,
KRDR,05-30-2020,04:56,METAR,Normal,360,11.0,,,9999.0,,11.3,2.1,30.28,1026.2,,,,,,,,,,,,,,,,4800.0,4800.0,OVC,4800.0,,,,,,
KRDR,05-30-2020,03:56,METAR,Normal,10,12.0,,,9999.0,,11.2,4.2,30.26,1025.6,,,,,,,,,,,,,,,,4100.0,4100.0,OVC,4100.0,,,,,,
KRDR,05-30-2020,02:56,METAR,Normal,10,6.0,,,9999.0,,8.8,6.2,30.23,1024.7,,,,,,,,,,,,,,,Clear,72000.0,,,,,,,,,
KRDR,05-30-2020,01:56,METAR,Normal,10,10.0,,,9999.0,,12.8,6.6,30.22,1024.2,,,,,,,,,,,,,,,Clear,72000.0,,,,,,,,,
KRDR,05-30-2020,00:56,METAR,Normal,30,11.0,,,9999.0,,15.2,7.7,30.21,1023.8,,,,,,,,,,,,,,,Clear,72000.0,,,,,,,,,
KRDR,05-29-2020,23:56,METAR,Normal,20,9.0,,,9999.0,,16.1,7.6,30.20,1023.5,,,,,,,,,,,,,,,,6000.0,6000.0,BKN,6000.0,OVC,7000.0,,,,
KRDR,05-29-2020,22:56,METAR,Normal,20,7.0,,,9999.0,,17.1,8.0,30.20,1023.5,,,,,,,,,,,,,,,4/8 Partly Cloudy,72000.0,6000.0,FEW,6000.0,SCT,7500.0,,,,
KRDR,05-29-2020,21:56,METAR,Normal,350,5.0,,,9999.0,,16.8,7.4,30.20,1023.5,,,,,,,,,,,,,,,,7000.0,7000.0,OVC,7000.0,,,,,,
KRDR,05-29-2020,20:56,METAR,Normal,340,6.0,,,9999.0,,16.3,8.0,30.21,1023.9,,,,,,,,,,,,,,,,6500.0,3800.0,FEW,3800.0,OVC,6500.0,,,,
KRDR,05-29-2020,19:56,METAR,Normal,10,4.0,,,9999.0,,14.9,8.8,30.22,1024.3,,,,,,,,,,,,,,,,6000.0,4200.0,FEW,4200.0,OVC,6000.0,,,,
KRDR,05-29-2020,18:56,METAR,Normal,350,10.0,,,9999.0,,15.5,8.5,30.22,1024.2,,,,,,,,,,,,,,,,5500.0,3400.0,FEW,3400.0,OVC,5500.0,,,,
KRDR,05-29-2020,17:56,METAR,Normal,340,5.0,,,9999.0,,15.4,8.2,30.23,1024.5,,,,,,,,,,,,,,,,3200.0,3200.0,BKN,3200.0,OVC,6000.0,,,,
KRDR,05-29-2020,16:56,METAR,Normal,360,7.0,,,9999.0,,14.6,8.3,30.24,1024.8,,,,,,,,,,,,,,,,6000.0,2700.0,SCT,2700.0,OVC,6000.0,,,,
KRDR,05-29-2020,16:36,SPECI,Normal,350,7.0,,,9999.0,,14.0,8.0,30.24,1024.9,,,,,,,,,,,,,,,,6000.0,2500.0,SCT,2500.0,OVC,6000.0,,,,
KRDR,05-29-2020,15:56,METAR,Normal,360,10.0,,,9999.0,,13.3,8.4,30.24,1024.9,,,,,,,,,,,,,,,,2100.0,2100.0,BKN,2100.0,BKN,2600.0,,,,
KRDR,05-29-2020,15:16,SPECI,Normal,340,12.0,,,9999.0,,12.0,8.0,30.25,1025.2,,,,,,,,,,,,,,,,2000.0,2000.0,OVC,2000.0,,,,,,
KRDR,05-29-2020,14:56,METAR,Normal,10,12.0,,,9999.0,,11.7,7.8,30.25,1025.2,,,,,,,,,,,,,,,,1900.0,1900.0,BKN,1900.0,,,,,,
KRDR,05-29-2020,13:56,METAR,Normal,350,14.0,,,9999.0,,10.7,7.6,30.25,1025.2,,,,,,,,,,,,,,,,1800.0,1800.0,BKN,1800.0,,,,,,
KRDR,05-29-2020,12:56,METAR,Normal,350,14.0,20.0,,9999.0,,10.4,7.5,30.24,1024.9,,,,,,,,,,,,,,,,1800.0,1800.0,OVC,1800.0,,,,,,
KRDR,05-29-2020,12:36,SPECI,Normal,350,13.0,,,9999.0,,9.0,7.0,30.23,1024.5,,,,,,,,,,,,,,,,1700.0,1700.0,BKN,1700.0,,,,,,
KRDR,05-29-2020,12:14,SPECI,Normal,340,13.0,,,9999.0,,9.0,7.0,30.23,1024.5,,,,,,,,,,,,,,,4/8 Partly Cloudy,72000.0,1500.0,SCT,1500.0,,,,,,
KRDR,05-29-2020,11:56,METAR,Normal,340,15.0,19.0,,9999.0,,8.7,7.5,30.22,1024.2,,,,,,,,,,,,,,,,1500.0,1500.0,BKN,1500.0,BKN,2100.0,,,,
KRDR,05-29-2020,10:56,METAR,Normal,350,9.0,,,9999.0,,7.8,7.7,30.20,1023.5,,,,,,,,,,,,,,,4/8 Partly Cloudy,72000.0,2300.0,SCT,2300.0,,,,,,
KRDR,05-29-2020,09:56,METAR,Normal,330,5.0,,,9999.0,,7.2,6.8,30.19,1023.2,,,,,,,,,,,,,,,,2400.0,2400.0,BKN,2400.0,,,,,,
KRDR,05-29-2020,09:36,SPECI,Normal,320,7.0,,,9999.0,,6.0,6.0,30.19,1023.3,,,,,,,,,,,,,,,,2200.0,2200.0,BKN,2200.0,,,,,,
KRDR,05-29-2020,09:26,SPECI,Normal,310,6.0,,,9999.0,,6.0,6.0,30.19,1023.3,,,,,,,,,,,,,,,4/8 Partly Cloudy,72000.0,2200.0,SCT,2200.0,,,,,,
KRDR,05-29-2020,09:16,SPECI,Normal,310,7.0,,,9999.0,,6.0,5.0,30.19,1023.3,,,,,,,,,,,,,,,,2200.0,2200.0,BKN,2200.0,,,,,,
KRDR,05-29-2020,08:56,METAR,Normal,320,7.0,,,9999.0,,6.4,5.2,30.19,1023.3,,,,,,,,,,,,,,,Clear,72000.0,,,,,,,,,
KRDR,05-29-2020,08:16,SPECI,Normal,340,8.0,17.0,,9999.0,,8.0,5.0,30.18,1022.8,,,,,,,,,,,,,,,4/8 Partly Cloudy,72000.0,2200.0,SCT,2200.0,,,,,,
KRDR,05-29-2020,07:56,METAR,Normal,360,11.0,,,9999.0,,7.2,5.3,30.18,1022.9,,,,,,,,,,,,,,,,2100.0,2100.0,BKN,2100.0,,,,,,
KRDR,05-29-2020,07:46,SPECI,Normal,360,10.0,,,9999.0,,8.0,5.0,30.17,1022.5,,,,,,,,,,,,,,,4/8 Partly Cloudy,72000.0,2100.0,SCT,2100.0,,,,,,
KRDR,05-29-2020,06:56,METAR,Normal,350,12.0,,,9999.0,,7.8,5.3,30.17,1022.5,,,,,,,,,,,,,,,,2800.0,2800.0,BKN,2800.0,,,,,,
KRDR,05-29-2020,05:56,METAR,Normal,350,9.0,,,9999.0,,8.2,5.5,30.15,1021.8,,,,,,,,,,,,,,,Clear,72000.0,,,,,,,,,
KRDR,05-29-2020,05:26,SPECI,Normal,350,13.0,,,9999.0,,10.0,6.0,30.14,1021.4,,,,,,,,,,,,,,,,3700.0,2300.0,SCT,2300.0,SCT,3000.0,BKN,3700.0,,
KRDR,05-29-2020,04:56,METAR,Normal,360,14.0,26.0,350/26KTS,9999.0,,10.1,7.7,30.14,1021.4,,,,,,,,,,,,,,,,2300.0,2300.0,BKN,2300.0,OVC,3100.0,,,,
KRDR,05-29-2020,04:36,SPECI,Normal,350,13.0,,,9999.0,,10.0,9.0,30.14,1021.4,,,,,,,,,,,,,,,,3200.0,1600.0,FEW,1600.0,SCT,2200.0,BKN,3200.0,OVC,3900.0
KRDR,05-29-2020,04:16,SPECI,Normal,350,12.0,,,9999.0,,10.0,9.0,30.14,1021.4,,,,,,,,,,,,,,,,2800.0,1700.0,FEW,1700.0,SCT,2200.0,BKN,2800.0,OVC,3500.0
KRDR,05-29-2020,03:56,METAR,Normal,360,15.0,23.0,010/27KTS,9999.0,,10.4,7.8,30.14,1021.5,,,,,,,,,,,,,,,,3600.0,2800.0,FEW,2800.0,BKN,3600.0,OVC,4800.0,,
KRDR,05-29-2020,02:56,METAR,Normal,340,10.0,,,9999.0,,12.5,4.2,30.11,1020.3,,,,,,,,,,,,,,,,4400.0,4400.0,OVC,4400.0,,,,,,
KRDR,05-29-2020,01:56,METAR,Normal,330,12.0,,,9999.0,,13.0,3.9,30.09,1019.6,,,,,,,,,,,,,,,,4900.0,4900.0,OVC,4900.0,,,,,,
KRDR,05-29-2020,00:56,METAR,Normal,320,13.0,21.0,,9999.0,,13.4,4.0,30.08,1019.3,,,,,,,,,,,,,,,,5500.0,4700.0,SCT,4700.0,BKN,5500.0,,,,
KRDR,05-28-2020,23:56,METAR,Normal,330,14.0,20.0,,9999.0,,14.7,3.8,30.06,1018.6,,,,,,,,,,,,,,,,5000.0,5000.0,OVC,5000.0,,,,,,
KRDR,05-28-2020,22:56,METAR,Normal,340,16.0,24.0,330/27KTS,9999.0,,15.8,3.9,30.04,1017.9,,,,,,,,,,,,,,,,5000.0,5000.0,OVC,5000.0,,,,,,
KRDR,05-28-2020,21:56,METAR,Normal,330,18.0,,340/26KTS,9999.0,,16.4,4.4,30.03,1017.5,,,,,,,,,,,,,,,,5000.0,5000.0,OVC,5000.0,,,,,,
KRDR,05-28-2020,20:56,METAR,Normal,330,19.0,28.0,340/28KTS,9999.0,,16.1,4.8,30.03,1017.6,,,,,,,,,,,,,,,,5000.0,5000.0,BKN,5000.0,BKN,6000.0,,,,
KRDR,05-28-2020,19:56,METAR,Normal,300,19.0,25.0,300/29KTS,9999.0,,15.8,5.7,30.02,1017.3,,,,,,,,,,,,,,,,4800.0,4800.0,OVC,4800.0,,,,,,
KRDR,05-28-2020,18:56,METAR,Normal,310,18.0,27.0,290/29KTS,9999.0,,16.8,5.7,30.01,1016.9,,,,,,,,,,,,,,,,5000.0,5000.0,OVC,5000.0,,,,,,
KRDR,05-28-2020,17:56,METAR,Normal,310,16.0,28.0,320/31KTS,9999.0,,17.5,5.4,30.01,1016.9,,,,,,,,,,,,,,,4/8 Partly Cloudy,72000.0,4900.0,SCT,4900.0,,,,,,
KRDR,05-28-2020,16:56,METAR,Normal,310,19.0,27.0,290/28KTS,9999.0,,16.4,5.1,30.01,1016.9,,,,,,,,,,,,,,,4/8 Partly Cloudy,72000.0,4100.0,SCT,4100.0,,,,,,
KRDR,05-28-2020,15:56,METAR,Normal,300,22.0,29.0,310/30KTS,9999.0,,14.7,6.0,30.00,1016.5,,,,,,,,,,,,,,,,4100.0,4100.0,BKN,4100.0,OVC,4900.0,,,,
KRDR,05-28-2020,14:56,METAR,Normal,310,21.0,28.0,290/31KTS,9999.0,,16.4,5.9,30.00,1016.5,,,,,,,,,,,,,,,,4500.0,4500.0,BKN,4500.0,,,,,,
KRDR,05-28-2020,13:56,METAR,Normal,300,23.0,28.0,300/29KTS,9999.0,,16.1,5.7,29.99,1016.0,,,,,,,,,,,,,,,Clear,72000.0,,,,,,,,,
KRDR,05-28-2020,12:56,METAR,Normal,290,18.0,24.0,,9999.0,,15.5,4.8,29.99,1015.9,,,,,,,,,,,,,,,Clear,72000.0,,,,,,,,,
KRDR,05-28-2020,11:56,METAR,Normal,280,14.0,17.0,,9999.0,,14.3,4.3,29.99,1015.9,,,,,,,,,,,,,,,Clear,72000.0,,,,,,,,,
KRDR,05-28-2020,10:56,METAR,Normal,280,11.0,,,9999.0,,13.5,3.8,29.98,1015.6,,,,,,,,,,,,,,,Clear,72000.0,,,,,,,,,
KRDR,05-28-2020,09:56,METAR,Normal,270,9.0,,,9999.0,,13.4,3.5,29.97,1015.3,,,,,,,,,,,,,,,,11000.0,11000.0,BKN,11000.0,,,,,,
KRDR,05-28-2020,08:56,METAR,Normal,260,7.0,,,9999.0,,11.9,3.6,29.96,1014.9,,,,,,,,,,,,,,,4/8 Partly Cloudy,72000.0,11000.0,SCT,11000.0,,,,,,
KRDR,05-28-2020,07:56,METAR,Normal,240,8.0,,,9999.0,,9.9,4.9,29.96,1015.0,,,,,,,,,,,,,,,Clear,72000.0,,,,,,,,,
KRDR,05-28-2020,06:56,METAR,Normal,240,8.0,,,9999.0,,10.7,4.6,29.96,1015.0,,,,,,,,,,,,,,,Clear,72000.0,,,,,,,,,
KRDR,05-28-2020,05:56,METAR,Normal,270,6.0,,,9999.0,,12.8,2.3,29.96,1014.9,,,,,,,,,,,,,,,2/8 Mostly Clear,72000.0,12000.0,FEW,12000.0,,,,,,
KRDR,05-28-2020,04:56,METAR,Normal,290,6.0,,,9999.0,,13.8,2.4,29.96,1014.9,,,,,,,,,,,,,,,Clear,72000.0,,,,,,,,,
KRDR,05-28-2020,03:56,METAR,Normal,290,7.0,,,9999.0,,14.9,2.4,29.95,1014.5,,,,,,,,,,,,,,,Clear,72000.0,,,,,,,,,
KRDR,05-28-2020,02:56,METAR,Normal,290,6.0,,,9999.0,,16.7,2.7,29.94,1014.2,,,,,,,,,,,,,,,Clear,72000.0,,,,,,,,,
KRDR,05-28-2020,01:56,METAR,Normal,300,8.0,,,9999.0,,20.0,1.4,29.93,1013.8,,,,,,,,,,,,,,,Clear,72000.0,,,,,,,,,
KRDR,05-28-2020,00:56,METAR,Normal,290,10.0,,,9999.0,,22.3,2.9,29.92,1013.4,,,,,,,,,,,,,,,Clear,72000.0,,,,,,,,,
KRDR,05-27-2020,23:56,METAR,Normal,290,15.0,20.0,,9999.0,,23.9,4.3,29.91,1013.1,,,,,,,,,,,,,,,Clear,72000.0,,,,,,,,,
KRDR,05-27-2020,22:56,METAR,Normal,280,17.0,23.0,290/26KTS,9999.0,,24.6,5.4,29.89,1012.5,,,,,,,,,,,,,,,Clear,72000.0,,,,,,,,,
KRDR,05-27-2020,21:56,METAR,Normal,290,17.0,24.0,280/26KTS,9999.0,,24.5,6.2,29.90,1012.9,,,,,,,,,,,,,,,Clear,72000.0,,,,,,,,,
KRDR,05-27-2020,20:56,METAR,Normal,280,15.0,25.0,310/33KTS,9999.0,,25.3,5.5,29.88,1012.2,,,,,,,,,,,,,,,Clear,72000.0,,,,,,,,,
KRDR,05-27-2020,19:56,METAR,Normal,280,20.0,27.0,300/27KTS,9999.0,,25.3,7.9,29.88,1012.2,,,,,,,,,,,,,,,Clear,72000.0,,,,,,,,,
KRDR,05-27-2020,18:56,METAR,Normal,300,14.0,23.0,,9999.0,,25.6,7.7,29.87,1011.8,,,,,,,,,,,,,,,Clear,72000.0,,,,,,,,,
KRDR,05-27-2020,17:56,METAR,Normal,290,14.0,19.0,,9999.0,,25.7,8.6,29.86,1011.4,,,,,,,,,,,,,,,2/8 Mostly Clear,72000.0,20000.0,FEW,20000.0,,,,,,
KRDR,05-27-2020,16:56,METAR,Normal,300,15.0,19.0,,9999.0,,25.3,10.3,29.86,1011.4,,,,,,,,,,,,,,,Clear,72000.0,,,,,,,,,
KRDR,05-27-2020,15:56,METAR,Normal,290,14.0,,,9999.0,,24.5,10.4,29.84,1010.8,,,,,,,,,,,,,,,Clear,72000.0,,,,,,,,,
KRDR,05-27-2020,14:56,METAR,Normal,300,14.0,,,9999.0,,23.8,11.5,29.83,1010.4,,,,,,,,,,,,,,,Clear,72000.0,,,,,,,,,
KRDR,05-27-2020,13:56,METAR,Normal,260,9.0,,,9999.0,,22.0,14.4,29.81,1009.7,,,,,,,,,,,,,,,Clear,72000.0,,,,,,,,,
KRDR,05-27-2020,12:56,METAR,Normal,220,7.0,,,9999.0,,19.7,13.6,29.81,1009.7,,,,,,,,,,,,,,,Clear,72000.0,,,,,,,,,
KRDR,05-27-2020,11:56,METAR,Normal,250,6.0,,,9999.0,,16.5,13.0,29.81,1009.7,,,,,,,,,,,,,,,Clear,72000.0,,,,,,,,,
KRDR,05-27-2020,10:56,METAR,Normal,260,6.0,,,9999.0,,13.1,12.5,29.78,1008.8,,,,,,,,,,,,,,,Clear,72000.0,,,,,,,,,
KRDR,05-27-2020,09:56,METAR,Normal,240,7.0,,,9999.0,,12.2,11.7,29.78,1008.8,,,,,,,,,,,,,,,Clear,72000.0,,,,,,,,,
KRDR,05-27-2020,08:56,METAR,Normal,230,6.0,,,9999.0,,13.7,10.9,29.78,1008.8,,,,,,,,,,,,,,,Clear,72000.0,,,,,,,,,
KRDR,05-27-2020,07:56,METAR,Normal,220,7.0,,,9999.0,,12.3,10.7,29.77,1008.5,,,,,,,,,,,,,,,Clear,72000.0,,,,,,,,,
KRDR,05-27-2020,06:56,METAR,Normal,200,7.0,,,9999.0,,13.0,10.4,29.77,1008.5,,,,,,,,,,,,,,,Clear,72000.0,,,,,,,,,
KRDR,05-27-2020,05:56,METAR,Normal,200,6.0,,,9999.0,,14.6,10.4,29.77,,,,,,,,,,,,,,,,Clear,72000.0,,,,,,,,,
KRDR,05-27-2020,04:56,METAR,Normal,210,6.0,,,9999.0,,14.1,10.7,29.77,,,,,,,,,,,,,,,,2/8 Mostly Clear,72000.0,8000.0,FEW,8000.0,,,,,,
KRDR,05-27-2020,03:56,METAR,Normal,200,6.0,,,9999.0,,14.3,10.9,29.76,,,,,,,,,,,,,,,,Clear,72000.0,,,,,,,,,
KRDR,05-27-2020,02:56,METAR,Normal,190,5.0,,,9999.0,,15.5,11.5,29.77,,,,,,,,,,,,,,,,Clear,72000.0,,,,,,,,,
KRDR,05-27-2020,01:56,METAR,Normal,230,5.0,,,9999.0,,19.7,11.5,29.76,1008.2,,,,,,,,,,,,,,,Clear,72000.0,,,,,,,,,
KRDR,05-27-2020,00:56,METAR,Normal,240,5.0,,,9999.0,,22.8,10.9,29.77,1008.4,,,,,,,,,,,,,,,Clear,72000.0,,,,,,,,,
KRDR,05-26-2020,23:56,METAR,Normal,220,6.0,,,9999.0,,23.7,10.4,29.77,1008.4,,,,,,,,,,,,,,,2/8 Mostly Clear,72000.0,9500.0,FEW,9600.0,,,,,,
KRDR,05-26-2020,22:56,METAR,Normal,230,7.0,,,9999.0,,24.2,10.5,29.77,1008.4,,,,,,,,,,,,,,,,9000.0,9000.0,BKN,9100.0,,,,,,
KRDR,05-26-2020,21:56,METAR,Normal,260,3.0,,,9999.0,,23.9,10.5,29.77,1008.4,,,,,,,,,,,,,,,,9500.0,6500.0,SCT,6500.0,SCT,8000.0,BKN,9600.0,,
KRDR,05-26-2020,20:56,METAR,Calm,,0.0,,,9999.0,,23.0,10.7,29.78,1008.8,,,,,,,,,,,,,,,,8000.0,6500.0,FEW,6500.0,BKN,8000.0,,,,
KRDR,05-26-2020,19:56,METAR,Normal,110,3.0,,,9999.0,,23.3,10.3,29.79,1009.2,,,,,,,,,,,,,,,4/8 Partly Cloudy,72000.0,6000.0,FEW,6000.0,SCT,10000.0,SCT,16000.0,,
KRDR,05-26-2020,18:56,METAR,Calm,,0.0,,,9999.0,,23.0,10.1,29.81,1009.8,,,,,,,,,,,,,,,4/8 Partly Cloudy,72000.0,7000.0,SCT,7000.0,SCT,11000.0,,,,
KRDR,05-26-2020,17:56,METAR,Normal,320,5.0,,,9999.0,,21.7,9.6,29.82,1010.2,,,,,,,,,,,,,TRACE,,2/8 Mostly Clear,72000.0,8000.0,FEW,8000.0,FEW,17000.0,FEW,20000.0,,
KRDR,05-26-2020,16:56,METAR,Normal,280,3.0,,,9999.0,,20.1,9.9,29.84,1010.9,,,,,,,,,,,,,,,,17000.0,5500.0,FEW,5500.0,SCT,7500.0,SCT,11000.0,BKN,17000.0
KRDR,05-26-2020,15:56,METAR,Normal,300,4.0,,,9999.0,,17.1,10.7,29.86,1011.6,,,,,,,,,,,,,,,,5500.0,5500.0,OVC,5500.0,,,,,,
KRDR,05-26-2020,14:56,METAR,Normal,330,3.0,,,9999.0,,15.7,12.1,29.86,1011.6,,,,,,,,,,,TRACE,.02 IN,,,,10000.0,5000.0,SCT,5000.0,BKN,10000.0,,,,
KRDR,05-26-2020,14:40,SPECI,Normal,320,3.0,,,9999.0,,15.0,12.0,29.86,1011.7,,,,,,,,,,,,,,,,5000.0,5000.0,OVC,5000.0,,,,,,
KRDR,05-26-2020,13:56,METAR,Normal,320,4.0,,,9999.0,Light Rain,14.7,13.1,29.86,1011.6,61,,,,,,,,,,.02 IN,,,,,10000.0,6000.0,SCT,6000.0,OVC,10000.0,,,,
KRDR,05-26-2020,13:30,SPECI,Normal,320,3.0,,,9999.0,Light Rain,15.0,12.0,29.86,1011.6,61,,,,,,,,,,,,,,,9500.0,6000.0,SCT,6000.0,OVC,9600.0,,,,
KRDR,05-26-2020,13:18,SPECI,Normal,300,3.0,,,9999.0,,15.0,12.0,29.86,1011.6,,,,,,,,,,,,,,,4/8 Partly Cloudy,72000.0,9500.0,SCT,9600.0,,,,,,
KRDR,05-26-2020,13:07,SPECI,Normal,300,3.0,,,9999.0,Light Rain,14.0,12.0,29.86,1011.6,61,,,,,,,,,,,,,,,9500.0,9500.0,BKN,9600.0,,,,,,
KRDR,05-26-2020,12:56,METAR,Normal,300,4.0,,,9999.0,,14.2,12.7,29.86,1011.6,,,,,,,,,,,TRACE,,,,,9500.0,9500.0,OVC,9600.0,,,,,,
KRDR,05-26-2020,12:06,SPECI,Normal,320,4.0,,,9999.0,,14.0,12.0,29.86,1011.6,,,,,,,,,,,,,,,,3700.0,3700.0,OVC,3700.0,,,,,,
KRDR,05-26-2020,12:02,SPECI,Normal,320,5.0,,,9999.0,Light Rain,14.0,12.0,29.86,1011.6,61,,,,,,,,,,,,,,,3700.0,3700.0,OVC,3700.0,,,,,,
KRDR,05-26-2020,11:56,METAR,Normal,320,5.0,,,9999.0,,14.0,12.4,29.86,1011.6,,,,,,,,,,,TRACE,,TRACE,,,3700.0,3700.0,OVC,3700.0,,,,,,
KRDR,05-26-2020,11:46,SPECI,Normal,320,4.0,,,9999.0,,14.0,12.0,29.87,1012.0,,,,,,,,,,,,,,,,3700.0,3700.0,OVC,3700.0,,,,,,
KRDR,05-26-2020,11:37,SPECI,Normal,320,4.0,,,9999.0,Light Drizzle,14.0,12.0,29.87,1012.0,51,,,,,,,,,,,,,,,3600.0,3600.0,OVC,3600.0,,,,,,
KRDR,05-26-2020,11:30,SPECI,Normal,320,4.0,,,9999.0,,14.0,13.0,29.87,1012.0,,,,,,,,,,,,,,,,3600.0,3600.0,BKN,3600.0,BKN,9600.0,,,,
KRDR,05-26-2020,10:57,SPECI,Normal,310,4.0,,,9999.0,Light Drizzle,14.0,12.0,29.86,1011.6,51,,,,,,,,,,,,,,2/8 Mostly Clear,72000.0,3600.0,FEW,3600.0,,,,,,
KRDR,05-26-2020,10:56,METAR,Normal,310,4.0,,,9999.0,,13.9,12.4,29.86,1011.6,,,,,,,,,,,,,,,2/8 Mostly Clear,72000.0,3600.0,FEW,3600.0,,,,,,
KRDR,05-26-2020,09:56,METAR,Normal,300,3.0,,,9999.0,,14.1,13.1,29.87,1011.9,,,,,,,,,,,,,,,,3700.0,3700.0,BKN,3700.0,BKN,9600.0,,,,
KRDR,05-26-2020,08:56,METAR,Normal,310,5.0,,,9999.0,,14.4,13.1,29.88,1012.2,,,,,,,,,,,,TRACE,,,2/8 Mostly Clear,72000.0,4100.0,FEW,4100.0,FEW,8600.0,,,,
KRDR,05-26-2020,07:56,METAR,Normal,300,6.0,,,9999.0,,13.9,13.9,29.89,1012.6,,,,,,,,,,,TRACE,,,,,9500.0,9500.0,OVC,9600.0,,,,,,
KRDR,05-26-2020,07:16,SPECI,Normal,310,4.0,,,9999.0,,14.0,14.0,29.90,1012.9,,,,,,,,,,,,,,,,9500.0,9500.0,BKN,9600.0,,,,,,
KRDR,05-26-2020,07:09,SPECI,Normal,320,4.0,,,9999.0,Light Drizzle,14.0,14.0,29.90,1013.0,51,,,,,,,,,,,,,,,9000.0,9000.0,BKN,9100.0,,,,,,
KRDR,05-26-2020,06:56,METAR,Normal,330,3.0,,,9999.0,,14.6,14.6,29.90,1012.9,,,,,,,,,,,TRACE,,,,,9000.0,9000.0,OVC,9100.0,,,,,,
KRDR,05-26-2020,06:34,SPECI,Normal,310,4.0,,,9999.0,,14.0,14.0,29.91,1013.3,,,,,,,,,,,,,,,,9500.0,9500.0,OVC,9600.0,,,,,,
KRDR,05-26-2020,05:56,METAR,Normal,270,3.0,,,9999.0,Light Rain,14.7,14.2,29.93,1013.9,61,,,,,,,,,,TRACE,,TRACE,,,7000.0,7000.0,BKN,7000.0,OVC,9100.0,,,,
KRDR,05-26-2020,05:40,SPECI,Calm,,0.0,,,9999.0,Light Drizzle,15.0,13.0,29.93,1014.0,51,,,,,,,,,,,,,,,7500.0,7500.0,BKN,7500.0,OVC,11000.0,,,,
KRDR,05-26-2020,04:56,METAR,Normal,30,5.0,,,9999.0,,16.1,11.7,29.92,1013.7,,,,,,,,,,,,,,,,12000.0,9500.0,SCT,9600.0,OVC,12000.0,,,,
KRDR,05-26-2020,03:56,METAR,Normal,40,3.0,,,9999.0,,16.8,12.1,29.93,1014.0,,,,,,,,,,,,,,,,9500.0,9500.0,BKN,9600.0,OVC,13000.0,,,,
KRDR,05-26-2020,02:56,METAR,Normal,350,8.0,,,9999.0,,17.5,12.2,29.92,1013.7,,,,,,,,,,,,,,,,9000.0,9000.0,OVC,9100.0,,,,,,
KRDR,05-26-2020,01:56,METAR,Normal,350,6.0,,,9999.0,,18.1,12.7,29.92,1013.7,,,,,,,,,,,,,,,4/8 Partly Cloudy,72000.0,8000.0,SCT,8000.0,SCT,14000.0,,,,
KRDR,05-26-2020,00:56,METAR,Normal,20,4.0,,,9999.0,,19.5,13.0,29.93,1014.1,,,,,,,,,,,,,,,2/8 Mostly Clear,72000.0,12000.0,FEW,12000.0,,,,,,
KRDR,05-25-2020,23:56,METAR,Normal,20,6.0,,,9999.0,,20.3,12.8,29.93,1014.1,,,,,,,,,,,,,,,,5000.0,5000.0,BKN,5000.0,,,,,,
KRDR,05-25-2020,22:56,METAR,Normal,360,7.0,,,9999.0,,20.8,11.7,29.93,1014.1,,,,,,,,,,,,,,,,15000.0,4800.0,FEW,4800.0,BKN,15000.0,,,,
KRDR,05-25-2020,21:56,METAR,Normal,10,8.0,,,9999.0,,21.5,11.8,29.93,1014.1,,,,,,,,,,,,,,,4/8 Partly Cloudy,72000.0,4900.0,FEW,4900.0,SCT,16000.0,SCT,19000.0,,
KRDR,05-25-2020,20:56,METAR,Normal,360,9.0,,,9999.0,,21.6,11.9,29.93,1014.1,,,,,,,,,,,,,,,2/8 Mostly Clear,72000.0,18000.0,FEW,18000.0,,,,,,
KRDR,05-25-2020,19:56,METAR,Normal,30,5.0,,,9999.0,,21.4,12.5,29.94,1014.4,,,,,,,,,,,,,,,4/8 Partly Cloudy,72000.0,4300.0,SCT,4300.0,,,,,,
KRDR,05-25-2020,18:56,METAR,Normal,340,8.0,,,9999.0,,20.1,11.8,29.96,1015.1,,,,,,,,,,,,,,,,20000.0,5500.0,SCT,5500.0,SCT,17000.0,BKN,20000.0,,
KRDR,05-25-2020,17:56,METAR,Normal,30,9.0,15.0,,9999.0,,20.0,12.2,29.96,1015.1,,,,,,,,,,,,,,,2/8 Mostly Clear,72000.0,21000.0,FEW,21000.0,,,,,,
KRDR,05-25-2020,16:56,METAR,Normal,350,14.0,,,9999.0,,18.7,12.7,29.96,1015.1,,,,,,,,,,,,,,,2/8 Mostly Clear,72000.0,20000.0,FEW,20000.0,,,,,,
KRDR,05-25-2020,15:56,METAR,Normal,340,13.0,,,9999.0,,16.7,12.2,29.96,1015.2,,,,,,,,,,,,,,,,3300.0,3300.0,BKN,3300.0,,,,,,
KRDR,05-25-2020,14:56,METAR,Normal,360,10.0,,,9999.0,,15.3,13.0,29.97,1015.6,,,,,,,,,,,,,,,4/8 Partly Cloudy,72000.0,3700.0,SCT,3700.0,,,,,,
KRDR,05-25-2020,13:56,METAR,Normal,360,9.0,,,9999.0,,13.1,13.1,29.97,1015.6,,,,,,,,,,,,,,,,3200.0,3200.0,OVC,3200.0,,,,,,
KRDR,05-25-2020,12:56,METAR,Normal,350,10.0,,,9999.0,,12.5,12.5,29.97,1015.6,,,,,,,,,,,,,,,,3100.0,3100.0,OVC,3100.0,,,,,,
KRDR,05-25-2020,11:56,METAR,Normal,340,8.0,,,9999.0,,11.6,11.6,29.97,1015.5,,,,,,,,,,,,,,.16 IN,,2500.0,2500.0,OVC,2500.0,,,,,,
KRDR,05-25-2020,10:56,METAR,Normal,330,7.0,,,9999.0,,10.6,10.6,29.95,1014.8,,,,,,,,,,,,,,,,2300.0,2300.0,BKN,2300.0,,,,,,
KRDR,05-25-2020,09:56,METAR,Normal,340,9.0,,,9999.0,,10.6,10.6,29.92,1013.7,,,,,,,,,,,,,,,Clear,72000.0,,,,,,,,,
KRDR,05-25-2020,08:56,METAR,Normal,330,8.0,,,9999.0,,10.7,10.7,29.92,1013.7,,,,,,,,,,,,,,,2/8 Mostly Clear,72000.0,5000.0,FEW,5000.0,,,,,,
KRDR,05-25-2020,07:56,METAR,Normal,330,10.0,,,9999.0,,11.0,11.0,29.90,1013.1,,,,,,,,,,,,,,,2/8 Mostly Clear,72000.0,7000.0,FEW,7000.0,,,,,,
KRDR,05-25-2020,06:56,METAR,Normal,340,11.0,,,9999.0,,11.7,11.7,29.90,1013.0,,,,,,,,,,,,,,,,7000.0,5500.0,SCT,5500.0,OVC,7000.0,,,,
KRDR,05-25-2020,05:56,METAR,Normal,340,9.0,,,9999.0,,12.3,12.3,29.90,1013.0,,,,,,,,,,,,,.01 IN,,,6500.0,6500.0,OVC,6500.0,,,,,,
KRDR,05-25-2020,04:56,METAR,Normal,340,7.0,,,9999.0,,12.8,12.8,29.90,1013.0,,,,,,,,,,,,,,,,8500.0,8500.0,OVC,8600.0,,,,,,
KRDR,05-25-2020,03:56,METAR,Normal,340,11.0,,,9999.0,,13.3,13.3,29.88,1012.3,,,,,,,,,,,,,,,,7500.0,4500.0,SCT,4500.0,OVC,7500.0,,,,
KRDR,05-25-2020,02:56,METAR,Normal,350,8.0,,,9999.0,,13.9,13.9,29.88,1012.3,,,,,,,,,,,,.01 IN,,,,8000.0,8000.0,OVC,8000.0,,,,,,
KRDR,05-25-2020,01:56,METAR,Normal,360,11.0,,,9999.0,,14.5,14.5,29.85,1011.3,,,,,,,,,,,,,,,,8000.0,8000.0,OVC,8000.0,,,,,,
KRDR,05-25-2020,01:06,SPECI,Normal,360,12.0,,,9999.0,,15.0,15.0,29.83,1010.7,,,,,,,,,,,,,,,,7500.0,900.0,SCT,900.0,OVC,7500.0,,,,
KRDR,05-25-2020,00:56,METAR,Normal,360,13.0,19.0,,9999.0,,15.6,15.6,29.83,1010.7,,,,,,,,,,,.01 IN,,,,,800.0,800.0,BKN,800.0,BKN,8000.0,,,,
KRDR,05-25-2020,00:43,SPECI,Normal,350,11.0,,,9999.0,,16.0,16.0,29.83,1010.7,,,,,,,,,,,,,,,,800.0,800.0,BKN,800.0,BKN,8000.0,,,,
KRDR,05-25-2020,00:36,SPECI,Normal,350,11.0,,,9999.0,Light Rain,16.0,16.0,29.82,1010.3,61,,,,,,,,,,,,,,,700.0,700.0,SCT,700.0,BKN,1400.0,BKN,8000.0,,
KRDR,05-25-2020,00:26,SPECI,Normal,350,12.0,17.0,,9999.0,Light Rain,17.0,17.0,29.82,1010.3,61,,,,,,,,,,,,,,,800.0,800.0,BKN,800.0,BKN,2300.0,OVC,3300.0,,
KRDR,05-24-2020,23:56,METAR,Normal,330,7.0,,,9999.0,Light Rain/Mist,17.4,17.4,29.82,1010.3,61,10,,,,,,,,,.12 IN,,.16 IN,,,2400.0,900.0,FEW,900.0,OVC,2400.0,,,,
KRDR,05-24-2020,23:50,SPECI,Normal,330,6.0,,,9999.0,Rain/Mist,17.0,17.0,29.81,1010.0,62,10,,,,,,,,,,,,,,2100.0,1000.0,SCT,1000.0,BKN,2100.0,OVC,2700.0,,
KRDR,05-24-2020,23:49,SPECI,Normal,330,6.0,,,9999.0,Rain,17.0,17.0,29.81,1010.0,,,,61,,,,,,,,,,,,2100.0,1000.0,SCT,1000.0,BKN,2100.0,OVC,2700.0,,
KRDR,05-24-2020,23:26,SPECI,Normal,310,7.0,,,9999.0,Thunderstorm and Rain or Snow Showers,18.0,18.0,29.82,1010.3,92,,,,,,,,,,,,,,,3200.0,2700.0,SCT,2700.0,BKN,3200.0,BKN,9100.0,,
KRDR,05-24-2020,23:25,SPECI,Normal,310,7.0,,,9999.0,Thunderstorm with Rain or Snow/Mist,18.0,18.0,29.82,1010.3,,,,95,10,,,,,,,,,,,2700.0,2700.0,BKN,2700.0,BKN,3200.0,BKN,9100.0,,
KRDR,05-24-2020,22:56,METAR,Normal,320,9.0,16.0,,9999.0,Light Drizzle,19.6,18.4,29.81,1009.9,51,,,,,,,,,,TRACE,,,,,3200.0,3200.0,BKN,3200.0,BKN,7000.0,OVC,9100.0,,
KRDR,05-24-2020,22:44,SPECI,Normal,310,5.0,,,9999.0,Light Rain,20.0,18.0,29.80,1009.6,61,,,,,,,,,,,,,,,7500.0,3200.0,SCT,3200.0,BKN,7500.0,OVC,9100.0,,
KRDR,05-24-2020,21:56,METAR,Calm,,0.0,,,9999.0,,21.4,17.2,29.80,1009.6,,,,,,,,,,,,,,,,3400.0,3400.0,BKN,3400.0,OVC,4300.0,,,,
KRDR,05-24-2020,20:56,METAR,Normal,210,3.0,,,9999.0,,21.8,17.2,29.79,1009.2,,,,,,,,,,,,.04 IN,,,,9000.0,3000.0,FEW,3000.0,SCT,7000.0,BKN,9100.0,BKN,18000.0
KRDR,05-24-2020,19:56,METAR,Calm,,0.0,,,9999.0,,21.4,18.4,29.79,1009.2,,,,,,,,,,,.04 IN,,,,,12000.0,8000.0,FEW,8000.0,FEW,10000.0,OVC,12000.0,OVC,20000.0
KRDR,05-24-2020,19:35,SPECI,Normal,240,3.0,,,9999.0,,21.0,18.0,29.80,1009.6,,,,,,,,,,,,,,,,12000.0,3000.0,FEW,3000.0,BKN,12000.0,,,,
KRDR,05-24-2020,18:56,METAR,Calm,,0.0,,,9999.0,Light Rain,21.6,16.7,29.80,1009.6,61,,,,,,,,,,.01 IN,,,,4/8 Partly Cloudy,72000.0,6000.0,FEW,6000.0,FEW,7500.0,SCT,10000.0,SCT,20000.0
KRDR,05-24-2020,18:52,SPECI,Normal,190,3.0,,,9999.0,Light Rain,22.0,17.0,29.80,1009.6,61,,,,,,,,,,,,,,4/8 Partly Cloudy,72000.0,8000.0,FEW,8000.0,SCT,10000.0,SCT,20000.0,,
KRDR,05-24-2020,18:39,SPECI,Normal,140,3.0,,,9999.0,,22.0,17.0,29.80,1009.5,,,,,,,,,,,,,,,4/8 Partly Cloudy,72000.0,8000.0,FEW,8000.0,SCT,10000.0,SCT,21000.0,,
KRDR,05-24-2020,18:20,SPECI,Calm,,0.0,,,9999.0,Light Drizzle,22.0,17.0,29.81,1009.9,51,,,,,,,,,,,,,,4/8 Partly Cloudy,72000.0,8000.0,FEW,8000.0,SCT,10000.0,,,,
KRDR,05-24-2020,17:56,METAR,Calm,,0.0,,,9999.0,,22.2,16.9,29.81,1009.9,,,,,,,,,,,,,,,,15000.0,13000.0,FEW,13000.0,BKN,15000.0,BKN,18000.0,BKN,21000.0
KRDR,05-24-2020,16:56,METAR,Normal,210,5.0,,,9999.0,,21.1,17.3,29.83,1010.5,,,,,,,,,,,,,,,,9000.0,7000.0,SCT,7000.0,BKN,9100.0,BKN,17000.0,,
KRDR,05-24-2020,15:56,METAR,Normal,220,3.0,,,9999.0,,20.3,17.1,29.82,1010.1,,,,,,,,,,,,,,,,7500.0,7500.0,BKN,7500.0,BKN,19000.0,,,,
KRDR,05-24-2020,14:56,METAR,Normal,170,5.0,,,9999.0,,19.3,16.9,29.81,1009.8,,,,,,,,,,,,,,,2/8 Mostly Clear,72000.0,16000.0,FEW,16000.0,FEW,20000.0,,,,
KRDR,05-24-2020,13:56,METAR,Calm,,0.0,,,9999.0,,17.7,16.9,29.80,1009.4,,,,,,,,,,,,,,,Clear,72000.0,,,,,,,,,
KRDR,05-24-2020,12:56,METAR,Normal,140,5.0,,,9999.0,,15.9,15.9,29.81,1009.7,,,,,,,,,,,,,,,Clear,72000.0,,,,,,,,,
KRDR,05-24-2020,11:56,METAR,Normal,90,4.0,,,9999.0,,14.1,14.1,29.80,1009.5,,,,,,,,,,,,,,,Clear,72000.0,,,,,,,,,
KRDR,05-24-2020,10:56,METAR,Normal,120,3.0,,,9999.0,,13.4,13.4,29.82,1010.1,,,,,,,,,,,,,,,Clear,72000.0,,,,,,,,,
KRDR,05-24-2020,09:56,METAR,Normal,130,7.0,,,9999.0,,13.6,13.6,29.83,1010.5,,,,,,,,,,,,,,,2/8 Mostly Clear,72000.0,8000.0,FEW,8000.0,,,,,,
KRDR,05-24-2020,08:56,METAR,Normal,110,4.0,,,9999.0,,13.2,13.2,29.81,1009.8,,,,,,,,,,,,,,,Clear,72000.0,,,,,,,,,
KRDR,05-24-2020,07:56,METAR,Normal,360,8.0,,,9999.0,,12.9,12.9,29.80,1009.5,,,,,,,,,,,,,,,2/8 Mostly Clear,72000.0,7000.0,FEW,7000.0,,,,,,
KRDR,05-24-2020,06:56,METAR,Normal,190,3.0,,,9999.0,,12.7,12.7,29.82,1010.1,,,,,,,,,,,,,,,Clear,72000.0,,,,,,,,,
KRDR,05-24-2020,05:56,METAR,Normal,170,5.0,,,9999.0,,14.9,14.1,29.83,1010.5,,,,,,,,,,,,,,,Clear,72000.0,,,,,,,,,
KRDR,05-24-2020,04:56,METAR,Normal,150,6.0,,,9999.0,,16.5,14.1,29.83,1010.4,,,,,,,,,,,,,,,Clear,72000.0,,,,,,,,,
KRDR,05-24-2020,03:56,METAR,Normal,150,9.0,,,9999.0,,18.4,13.9,29.83,1010.4,,,,,,,,,,,,,,,Clear,72000.0,,,,,,,,,
KRDR,05-24-2020,02:56,METAR,Normal,140,8.0,,,9999.0,,19.5,14.1,29.81,1009.7,,,,,,,,,,,,,,,Clear,72000.0,,,,,,,,,
KRDR,05-24-2020,01:56,METAR,Normal,140,7.0,,,9999.0,,21.5,14.4,29.79,1009.1,,,,,,,,,,,,,,,Clear,72000.0,,,,,,,,,
KRDR,05-24-2020,00:56,METAR,Normal,150,10.0,,,9999.0,,23.5,14.5,29.77,1008.4,,,,,,,,,,,,,,,Clear,72000.0,,,,,,,,,
KRDR,05-23-2020,23:56,METAR,Normal,130,8.0,,,9999.0,,24.7,14.7,29.77,1008.4,,,,,,,,,,,,,,,Clear,72000.0,,,,,,,,,
KRDR,05-23-2020,22:56,METAR,Normal,140,8.0,,,9999.0,,24.5,14.6,29.78,1008.8,,,,,,,,,,,,,,,Clear,72000.0,,,,,,,,,
KRDR,05-23-2020,21:56,METAR,Normal,180,6.0,,,9999.0,,24.5,14.3,29.79,1009.1,,,,,,,,,,,,,,,2/8 Mostly Clear,72000.0,6000.0,FEW,6000.0,,,,,,
KRDR,05-23-2020,20:56,METAR,Normal,150,7.0,,,9999.0,,24.8,14.8,29.80,1009.4,,,,,,,,,,,,,,,Clear,72000.0,,,,,,,,,
KRDR,05-23-2020,19:56,METAR,Normal,130,10.0,,,9999.0,,24.8,14.8,29.81,1009.7,,,,,,,,,,,,,,,4/8 Partly Cloudy,72000.0,4600.0,FEW,4600.0,FEW,19000.0,SCT,21000.0,,
KRDR,05-23-2020,18:56,METAR,Normal,140,10.0,,,9999.0,,24.3,15.5,29.82,1010.1,,,,,,,,,,,,,,,4/8 Partly Cloudy,72000.0,4000.0,FEW,4000.0,FEW,13000.0,SCT,18000.0,SCT,20000.0
KRDR,05-23-2020,17:56,METAR,Normal,140,9.0,,,9999.0,,23.5,16.5,29.83,1010.4,,,,,,,,,,,,,,,2/8 Mostly Clear,72000.0,11000.0,FEW,11000.0,FEW,19000.0,,,,
KRDR,05-23-2020,16:56,METAR,Normal,160,7.0,,,9999.0,,22.7,16.9,29.84,1010.8,,,,,,,,,,,,,,,,20000.0,5000.0,FEW,5000.0,FEW,13000.0,SCT,17000.0,BKN,20000.0
KRDR,05-23-2020,15:56,METAR,Normal,180,6.0,,,9999.0,,21.0,17.0,29.86,1011.5,,,,,,,,,,,,,,,,18000.0,4900.0,SCT,4900.0,BKN,18000.0,BKN,20000.0,,
KRDR,05-23-2020,14:56,METAR,Normal,160,9.0,,,9999.0,,19.5,16.7,29.85,1011.1,,,,,,,,,,,,,,,2/8 Mostly Clear,72000.0,20000.0,FEW,20000.0,,,,,,
KRDR,05-23-2020,13:56,METAR,Normal,170,9.0,,,9999.0,,17.3,16.6,29.87,1011.8,,,,,,,,,,,,,,,Clear,72000.0,,,,,,,,,
KRDR,05-23-2020,12:56,METAR,Normal,160,10.0,,,9999.0,,15.4,15.4,29.86,1011.5,,,,,,,,,,,,,,,Clear,72000.0,,,,,,,,,
KRDR,05-23-2020,11:56,METAR,Normal,140,5.0,,,9999.0,,14.2,14.2,29.87,1011.8,,,,,,,,,,,,,,,2/8 Mostly Clear,72000.0,3100.0,FEW,3100.0,,,,,,
KRDR,05-23-2020,10:56,METAR,Normal,150,5.0,,,9999.0,,13.6,13.6,29.85,1011.2,,,,,,,,,,,,,,,Clear,72000.0,,,,,,,,,
KRDR,05-23-2020,09:56,METAR,Normal,140,6.0,,,9999.0,,12.9,12.9,29.83,1010.5,,,,,,,,,,,,,,,4/8 Partly Cloudy,72000.0,5000.0,SCT,5000.0,,,,,,
KRDR,05-23-2020,08:56,METAR,Normal,170,8.0,,,9999.0,,14.7,14.7,29.84,1010.9,,,,,,,,,,,,,,,4/8 Partly Cloudy,72000.0,4200.0,SCT,4200.0,,,,,,
KRDR,05-23-2020,07:56,METAR,Normal,160,10.0,,,9999.0,,14.6,14.4,29.82,1010.2,,,,,,,,,,,,,,,Clear,72000.0,,,,,,,,,
KRDR,05-23-2020,06:56,METAR,Normal,150,10.0,,,9999.0,,15.1,14.3,29.83,1010.5,,,,,,,,,,,,,,,Clear,72000.0,,,,,,,,,
KRDR,05-23-2020,05:56,METAR,Normal,150,8.0,,,9999.0,,16.0,14.0,29.84,1010.9,,,,,,,,,,,,,,,Clear,72000.0,,,,,,,,,
KRDR,05-23-2020,04:56,METAR,Normal,150,10.0,,,9999.0,,17.0,13.9,29.83,1010.5,,,,,,,,,,,,,,,Clear,72000.0,,,,,,,,,
KRDR,05-23-2020,03:56,METAR,Normal,140,12.0,,,9999.0,,18.0,13.9,29.82,1010.3,,,,,,,,,,,,,,,Clear,72000.0,,,,,,,,,
KRDR,05-23-2020,02:56,METAR,Normal,140,11.0,,,9999.0,,19.0,14.2,29.81,1009.9,,,,,,,,,,,,,,,2/8 Mostly Clear,72000.0,5000.0,FEW,5000.0,,,,,,
KRDR,05-23-2020,01:56,METAR,Normal,140,11.0,,,9999.0,,20.7,14.3,29.79,1009.2,,,,,,,,,,,,,,,Clear,72000.0,,,,,,,,,
KRDR,05-23-2020,00:56,METAR,Normal,140,10.0,,,9999.0,,22.8,15.1,29.79,1009.1,,,,,,,,,,,,,,,2/8 Mostly Clear,72000.0,5000.0,FEW,5000.0,,,,,,
KRDR,05-22-2020,23:56,METAR,Normal,150,11.0,,,9999.0,,23.4,14.9,29.79,1009.1,,,,,,,,,,,,,,,2/8 Mostly Clear,72000.0,4900.0,FEW,4900.0,,,,,,
KRDR,05-22-2020,22:56,METAR,Normal,150,11.0,,,9999.0,,23.0,15.3,29.80,1009.5,,,,,,,,,,,,,,,,4700.0,4700.0,OVC,4700.0,,,,,,
KRDR,05-22-2020,21:56,METAR,Normal,150,13.0,,,9999.0,,22.4,15.5,29.82,1010.1,,,,,,,,,,,,,,,,3800.0,3800.0,OVC,3800.0,,,,,,
KRDR,05-22-2020,20:56,METAR,Normal,170,9.0,,,9999.0,,21.7,16.0,29.83,1010.5,,,,,,,,,,,,,,,,3900.0,3900.0,OVC,3900.0,,,,,,
KRDR,05-22-2020,19:56,METAR,Normal,180,13.0,,,9999.0,,20.8,16.0,29.84,1010.9,,,,,,,,,,,,,,,,4800.0,3800.0,FEW,3800.0,BKN,4800.0,OVC,6000.0,,
KRDR,05-22-2020,19:06,SPECI,Normal,180,15.0,,,9999.0,,21.0,16.0,29.85,1011.2,,,,,,,,,,,,,,,,3700.0,3000.0,SCT,3000.0,BKN,3700.0,BKN,6000.0,,
KRDR,05-22-2020,18:56,METAR,Normal,180,14.0,,,9999.0,,20.8,15.8,29.85,1011.2,,,,,,,,,,,,,,,,2900.0,2900.0,BKN,2900.0,BKN,3600.0,OVC,6000.0,,
KRDR,05-22-2020,18:46,SPECI,Normal,190,15.0,,,9999.0,,21.0,16.0,29.85,1011.2,,,,,,,,,,,,,,,,3000.0,3000.0,OVC,3000.0,,,,,,
KRDR,05-22-2020,17:56,METAR,Normal,170,12.0,,,9999.0,,20.2,15.6,29.85,1011.2,,,,,,,,,,,,,,,,2300.0,2300.0,OVC,2300.0,,,,,,
KRDR,05-22-2020,17:06,SPECI,Normal,160,11.0,,,9999.0,,19.0,16.0,29.86,1011.6,,,,,,,,,,,,,,,,1700.0,1700.0,BKN,1700.0,OVC,2400.0,,,,
KRDR,05-22-2020,16:56,METAR,Normal,150,11.0,,,9999.0,,18.8,16.4,29.86,1011.6,,,,,,,,,,,,,,,,2400.0,1700.0,SCT,1700.0,OVC,2400.0,,,,
KRDR,05-22-2020,16:26,SPECI,Normal,150,11.0,,,9999.0,,18.0,16.0,29.87,1011.9,,,,,,,,,,,,,,,,2700.0,2700.0,BKN,2700.0,BKN,7500.0,BKN,9100.0,,
KRDR,05-22-2020,15:56,METAR,Normal,170,14.0,,,9999.0,,16.9,15.1,29.88,1012.2,,,,,,,,,,,,,,,,9500.0,6000.0,FEW,6000.0,BKN,9600.0,BKN,20000.0,,
KRDR,05-22-2020,14:56,METAR,Normal,180,12.0,,,9999.0,,17.2,15.0,29.87,1011.9,,,,,,,,,,,,,,,,7000.0,1900.0,FEW,1900.0,BKN,7000.0,BKN,10000.0,,
KRDR,05-22-2020,14:46,SPECI,Normal,170,9.0,17.0,,9999.0,,17.0,15.0,29.87,1011.9,,,,,,,,,,,,,,,4/8 Partly Cloudy,72000.0,1900.0,SCT,1900.0,SCT,10000.0,,,,
KRDR,05-22-2020,14:36,SPECI,Normal,160,11.0,,,9999.0,,17.0,15.0,29.87,1011.9,,,,,,,,,,,,,,,,1900.0,1900.0,BKN,1900.0,,,,,,
KRDR,05-22-2020,13:56,METAR,Normal,170,11.0,,,9999.0,,15.8,14.8,29.87,1011.9,,,,,,,,,,,,,,,,2000.0,2000.0,OVC,2000.0,,,,,,
KRDR,05-22-2020,12:56,METAR,Normal,170,12.0,,,9999.0,,15.6,15.1,29.87,1011.9,,,,,,,,,,,,,,,,2100.0,2100.0,BKN,2100.0,OVC,10000.0,,,,
KRDR,05-22-2020,12:36,SPECI,Normal,160,10.0,,,9999.0,,15.0,15.0,29.87,1011.9,,,,,,,,,,,,,,,,2000.0,2000.0,OVC,2000.0,,,,,,
KRDR,05-22-2020,11:56,METAR,Normal,160,9.0,,,9999.0,,14.8,14.8,29.87,1011.9,,,,,,,,,,,,,TRACE,,,1700.0,1700.0,OVC,1700.0,,,,,,
KRDR,05-22-2020,10:56,METAR,Normal,160,11.0,,,9999.0,,14.9,14.9,29.87,1011.9,,,,,,,,,,,,,,,,1700.0,1700.0,OVC,1700.0,,,,,,
KRDR,05-22-2020,09:56,METAR,Normal,160,9.0,,,9999.0,,15.1,15.1,29.86,1011.6,,,,,,,,,,,TRACE,,,,,1800.0,1800.0,OVC,1800.0,,,,,,
KRDR,05-22-2020,09:36,SPECI,Normal,180,11.0,,,9999.0,,15.0,15.0,29.86,1011.6,,,,,,,,,,,,,,,,1800.0,1800.0,BKN,1800.0,OVC,10000.0,,,,
KRDR,05-22-2020,09:34,SPECI,Normal,180,11.0,,,9999.0,Light Rain,15.0,15.0,29.86,1011.6,61,,,,,,,,,,,,,,,1800.0,1800.0,BKN,1800.0,OVC,10000.0,,,,
KRDR,05-22-2020,09:24,SPECI,Normal,170,10.0,,,9999.0,Light Rain,15.0,15.0,29.86,1011.6,61,,,,,,,,,,,,,,,10000.0,2000.0,FEW,2000.0,OVC,10000.0,,,,
KRDR,05-22-2020,08:56,METAR,Normal,170,9.0,,,9999.0,,15.7,15.5,29.85,1011.2,,,,,,,,,,,,TRACE,,,,10000.0,10000.0,OVC,10000.0,,,,,,
KRDR,05-22-2020,07:56,METAR,Normal,170,11.0,,,9999.0,,15.9,15.6,29.85,1011.2,,,,,,,,,,,TRACE,,,,,11000.0,11000.0,BKN,11000.0,,,,,,
KRDR,05-22-2020,07:43,SPECI,Normal,170,13.0,,,9999.0,,16.0,16.0,29.85,1011.2,,,,,,,,,,,,,,,,10000.0,10000.0,BKN,10000.0,,,,,,
KRDR,05-22-2020,07:35,SPECI,Normal,160,12.0,,,9999.0,Light Rain,17.0,15.0,29.85,1011.1,61,,,,,,,,,,,,,,,11000.0,11000.0,OVC,11000.0,,,,,,
KRDR,05-22-2020,06:56,METAR,Normal,170,13.0,20.0,,9999.0,,16.8,14.4,29.87,1011.8,,,,,,,,,,,,,,,,10000.0,10000.0,BKN,10000.0,BKN,13000.0,OVC,16000.0,,
KRDR,05-22-2020,05:56,METAR,Normal,170,14.0,21.0,,9999.0,,17.0,14.4,29.86,1011.4,,,,,,,,,,,,,,,,13000.0,11000.0,FEW,11000.0,BKN,13000.0,,,,
KRDR,05-22-2020,04:56,METAR,Normal,160,16.0,,,9999.0,,17.3,14.4,29.86,1011.5,,,,,,,,,,,,,,,,13000.0,3700.0,FEW,3700.0,BKN,13000.0,,,,
KRDR,05-22-2020,03:56,METAR,Normal,160,12.0,,,9999.0,,18.2,14.5,29.85,1011.2,,,,,,,,,,,,,,,,12000.0,9000.0,SCT,9100.0,BKN,12000.0,OVC,14000.0,,
KRDR,05-22-2020,02:56,METAR,Normal,170,17.0,22.0,,9999.0,,18.6,14.5,29.84,1010.9,,,,,,,,,,,,,,,,13000.0,13000.0,OVC,13000.0,,,,,,
KRDR,05-22-2020,01:56,METAR,Normal,170,16.0,21.0,,9999.0,,19.6,14.6,29.83,1010.5,,,,,,,,,,,,,,,,12000.0,4200.0,FEW,4200.0,BKN,12000.0,,,,
KRDR,05-22-2020,00:56,METAR,Normal,170,16.0,21.0,180/27KTS,9999.0,,20.7,14.6,29.83,1010.5,,,,,,,,,,,,,,,,10000.0,10000.0,OVC,10000.0,,,,,,
KRDR,05-21-2020,23:56,METAR,Normal,170,17.0,24.0,180/26KTS,9999.0,,21.5,14.9,29.82,1010.2,,,,,,,,,,,,,,,,4300.0,4300.0,BKN,4300.0,BKN,10000.0,,,,
KRDR,05-21-2020,22:56,METAR,Normal,160,17.0,25.0,190/26KTS,9999.0,,21.8,15.4,29.82,1010.2,,,,,,,,,,,,,,,,3700.0,3700.0,BKN,3700.0,OVC,6000.0,,,,
KRDR,05-21-2020,21:56,METAR,Normal,170,19.0,26.0,190/27KTS,9999.0,,21.4,15.0,29.83,1010.6,,,,,,,,,,,,,,,,4000.0,4000.0,OVC,4000.0,,,,,,
KRDR,05-21-2020,20:56,METAR,Normal,170,16.0,23.0,180/29KTS,9999.0,,21.8,14.9,29.83,1010.5,,,,,,,,,,,,,,,,3600.0,3600.0,BKN,3600.0,,,,,,
KRDR,05-21-2020,19:56,METAR,Normal,170,21.0,26.0,180/29KTS,9999.0,,21.7,15.1,29.84,,,,,,,,,,,,,,,,,3400.0,3400.0,BKN,3400.0,,,,,,
KRDR,05-21-2020,18:56,METAR,Normal,150,21.0,27.0,170/29KTS,9999.0,,21.7,14.8,29.84,,,,,,,,,,,,,,,,,3300.0,3300.0,BKN,3300.0,,,,,,
KRDR,05-21-2020,17:56,METAR,Normal,170,17.0,29.0,170/29KTS,9999.0,,22.1,15.2,29.85,,,,,,,,,,,,,,,,,5000.0,3200.0,SCT,3200.0,BKN,5000.0,,,,
KRDR,05-21-2020,17:36,SPECI,Normal,170,16.0,29.0,,9999.0,,21.0,15.0,29.85,,,,,,,,,,,,,,,,,3000.0,3000.0,BKN,3000.0,OVC,5000.0,,,,
KRDR,05-21-2020,16:56,METAR,Normal,170,19.0,26.0,180/27KTS,9999.0,,20.3,14.9,29.86,1011.6,,,,,,,,,,,,,,,,2800.0,2800.0,OVC,2800.0,,,,,,
KRDR,05-21-2020,15:56,METAR,Normal,170,20.0,27.0,180/28KTS,9999.0,,19.5,14.7,29.86,1011.6,,,,,,,,,,,,,,,,2500.0,2500.0,OVC,2500.0,,,,,,
KRDR,05-21-2020,15:19,SPECI,Normal,170,18.0,,,9999.0,,18.0,15.0,29.86,1011.6,,,,,,,,,,,,,,,,2300.0,2300.0,OVC,2300.0,,,,,,
KRDR,05-21-2020,14:56,METAR,Normal,170,16.0,24.0,160/26KTS,9999.0,,17.8,14.5,29.87,1011.9,,,,,,,,,,,,,,,,2200.0,2200.0,OVC,2200.0,,,,,,
KRDR,05-21-2020,13:56,METAR,Normal,160,19.0,22.0,160/29KTS,9999.0,,16.4,14.6,29.87,1011.9,,,,,,,,,,,,,,,,2200.0,2200.0,OVC,2200.0,,,,,,
KRDR,05-21-2020,13:06,SPECI,Normal,170,18.0,23.0,,9999.0,,16.0,15.0,29.88,1012.2,,,,,,,,,,,,,,,,2600.0,2600.0,BKN,2600.0,,,,,,
KRDR,05-21-2020,12:56,METAR,Normal,160,17.0,,,9999.0,,15.7,15.1,29.87,1011.9,,,,,,,,,,,,,,,2/8 Mostly Clear,72000.0,2700.0,FEW,2700.0,,,,,,
KRDR,05-21-2020,11:56,METAR,Normal,160,13.0,,,9999.0,,13.8,13.8,29.88,1012.3,,,,,,,,,,,,,,,Clear,72000.0,,,,,,,,,
KRDR,05-21-2020,10:56,METAR,Normal,150,13.0,,,9999.0,,13.3,13.3,29.88,1012.3,,,,,,,,,,,,,,,Clear,72000.0,,,,,,,,,
KRDR,05-21-2020,09:56,METAR,Normal,150,15.0,,,9999.0,,13.9,13.9,29.88,1012.2,,,,,,,,,,,,,,,Clear,72000.0,,,,,,,,,
KRDR,05-21-2020,08:56,METAR,Normal,150,11.0,,,9999.0,,14.0,14.0,29.90,1012.9,,,,,,,,,,,,,,,Clear,72000.0,,,,,,,,,
KRDR,05-21-2020,07:56,METAR,Normal,160,11.0,,,9999.0,,14.4,14.4,29.92,1013.7,,,,,,,,,,,,,,,Clear,72000.0,,,,,,,,,
KRDR,05-21-2020,04:56,METAR,Normal,150,7.0,,,9999.0,,15.4,14.3,29.92,1013.7,,,,,,,,,,,,,,,Clear,72000.0,,,,,,,,,
KRDR,05-21-2020,03:56,METAR,Normal,140,8.0,,,9999.0,,16.4,14.0,29.91,1013.3,,,,,,,,,,,,,,,Clear,72000.0,,,,,,,,,
KRDR,05-21-2020,02:56,METAR,Normal,150,10.0,,,9999.0,,18.2,14.1,29.92,1013.7,,,,,,,,,,,,,,,Clear,72000.0,,,,,,,,,
KRDR,05-21-2020,01:56,METAR,Normal,150,9.0,,,9999.0,,19.4,14.4,29.91,1013.3,,,,,,,,,,,,,,,Clear,72000.0,,,,,,,,,
KRDR,05-21-2020,00:56,METAR,Normal,180,16.0,,170/26KTS,9999.0,,20.1,14.2,29.92,1013.7,,,,,,,,,,,,,,,2/8 Mostly Clear,72000.0,3400.0,FEW,3400.0,,,,,,
KRDR,05-20-2020,23:56,METAR,Normal,160,17.0,26.0,170/28KTS,9999.0,,20.6,14.2,29.93,1013.9,,,,,,,,,,,,,,,,3600.0,3600.0,OVC,3600.0,,,,,,
KRDR,05-20-2020,22:56,METAR,Normal,160,19.0,27.0,190/29KTS,9999.0,,21.5,14.6,29.94,1014.3,,,,,,,,,,,,,,,,3600.0,3600.0,OVC,3600.0,,,,,,
KRDR,05-20-2020,21:56,METAR,Normal,160,21.0,25.0,170/30KTS,9999.0,,22.6,14.4,29.94,1014.3,,,,,,,,,,,,,,,2/8 Mostly Clear,72000.0,3700.0,FEW,3700.0,,,,,,
KRDR,05-20-2020,20:56,METAR,Normal,180,22.0,25.0,180/29KTS,9999.0,,22.9,14.7,29.95,1014.6,,,,,,,,,,,,,,,4/8 Partly Cloudy,72000.0,3600.0,SCT,3600.0,,,,,,
KRDR,05-20-2020,20:16,SPECI,Normal,180,19.0,26.0,,9999.0,,21.0,15.0,29.97,1015.3,,,,,,,,,,,,,,,,3000.0,3000.0,OVC,3000.0,,,,,,
KRDR,05-20-2020,19:56,METAR,Normal,170,19.0,26.0,,9999.0,,20.4,15.0,29.98,1015.7,,,,,,,,,,,,,,,,2700.0,2700.0,OVC,2700.0,,,,,,
KRDR,05-20-2020,18:56,METAR,Normal,160,18.0,26.0,150/26KTS,9999.0,,19.2,14.9,30.00,1016.4,,,,,,,,,,,,,,,,2500.0,2500.0,OVC,2500.0,,,,,,
KRDR,05-20-2020,17:56,METAR,Normal,170,18.0,23.0,180/29KTS,9999.0,,19.4,15.0,30.00,1016.3,,,,,,,,,,,,,,,,2300.0,2300.0,OVC,2300.0,,,,,,
KRDR,05-20-2020,16:56,METAR,Normal,160,18.0,26.0,170/28KTS,9999.0,,18.8,14.9,30.01,1016.7,,,,,,,,,,,,,,,,2100.0,2100.0,OVC,2100.0,,,,,,
KRDR,05-20-2020,16:16,SPECI,Normal,170,18.0,27.0,,9999.0,,18.0,15.0,30.01,1016.7,,,,,,,,,,,,,,,,2000.0,2000.0,OVC,2000.0,,,,,,
KRDR,05-20-2020,15:56,METAR,Normal,180,19.0,23.0,,9999.0,,17.5,14.9,30.01,1016.7,,,,,,,,,,,,,,,,1700.0,1700.0,OVC,1700.0,,,,,,
KRDR,05-20-2020,14:56,METAR,Normal,170,17.0,,,9999.0,,16.6,14.9,30.01,1016.7,,,,,,,,,,,,,,,,1500.0,1500.0,OVC,1500.0,,,,,,
KRDR,05-20-2020,13:56,METAR,Normal,170,14.0,,,9999.0,,15.6,14.3,30.02,1017.0,,,,,,,,,,,,,,,,1500.0,1500.0,OVC,1500.0,,,,,,
KRDR,05-20-2020,12:56,METAR,Normal,160,11.0,,,9999.0,,14.3,14.3,30.01,1016.6,,,,,,,,,,,,,,,,1500.0,1500.0,OVC,1500.0,,,,,,
KRDR,05-20-2020,11:56,METAR,Normal,170,8.0,,,9999.0,,13.9,13.9,30.01,1016.6,,,,,,,,,,,,,,,,1500.0,1500.0,OVC,1500.0,,,,,,
KRDR,05-20-2020,11:46,SPECI,Normal,180,9.0,,,9999.0,,14.0,14.0,30.02,1017.0,,,,,,,,,,,,,,,,1500.0,1500.0,OVC,1500.0,,,,,,
KRDR,05-20-2020,11:36,SPECI,Normal,180,8.0,,,9999.0,,14.0,14.0,30.01,1016.6,,,,,,,,,,,,,,,,1400.0,1400.0,OVC,1400.0,,,,,,
KRDR,05-20-2020,10:56,METAR,Normal,180,12.0,,,9999.0,,13.6,13.6,30.00,1016.3,,,,,,,,,,,,,,,,1300.0,1300.0,BKN,1300.0,,,,,,
KRDR,05-20-2020,10:36,SPECI,Normal,180,14.0,,,9999.0,,14.0,14.0,30.00,1016.3,,,,,,,,,,,,,,,4/8 Partly Cloudy,72000.0,1300.0,SCT,1300.0,,,,,,
KRDR,05-20-2020,10:26,SPECI,Normal,190,13.0,,,9999.0,,14.0,14.0,29.99,1015.9,,,,,,,,,,,,,,,,1300.0,1300.0,BKN,1300.0,,,,,,
KRDR,05-20-2020,09:56,METAR,Normal,180,14.0,,,9999.0,,13.7,13.7,29.99,1015.9,,,,,,,,,,,,,,,Clear,72000.0,,,,,,,,,
KRDR,05-20-2020,08:56,METAR,Normal,170,8.0,,,9999.0,,13.3,13.1,29.99,1015.9,,,,,,,,,,,,,,,Clear,72000.0,,,,,,,,,
KRDR,05-20-2020,07:56,METAR,Normal,170,10.0,,,9999.0,,14.8,13.2,29.97,1015.3,,,,,,,,,,,,,,,Clear,72000.0,,,,,,,,,
KRDR,05-20-2020,06:56,METAR,Normal,170,11.0,,,9999.0,,15.4,12.5,29.96,1014.9,,,,,,,,,,,,,,,Clear,72000.0,,,,,,,,,
KRDR,05-20-2020,05:56,METAR,Normal,170,10.0,,,9999.0,,16.1,12.3,29.96,1014.9,,,,,,,,,,,,,,,Clear,72000.0,,,,,,,,,
KRDR,05-20-2020,04:56,METAR,Normal,140,8.0,,,9999.0,,14.9,11.3,29.95,1014.6,,,,,,,,,,,,,,,Clear,72000.0,,,,,,,,,
KRDR,05-20-2020,03:56,METAR,Normal,160,10.0,,,9999.0,,17.1,11.1,29.95,1014.6,,,,,,,,,,,,,,,Clear,72000.0,,,,,,,,,
KRDR,05-20-2020,02:56,METAR,Normal,150,10.0,,,9999.0,,18.4,10.2,29.94,1014.3,,,,,,,,,,,,,,,Clear,72000.0,,,,,,,,,
KRDR,05-20-2020,01:56,METAR,Normal,150,10.0,,,9999.0,,20.9,9.5,29.93,1013.9,,,,,,,,,,,,,,,Clear,72000.0,,,,,,,,,
KRDR,05-20-2020,00:56,METAR,Normal,160,11.0,21.0,,9999.0,,23.3,9.3,29.92,1013.6,,,,,,,,,,,,,,,Clear,72000.0,,,,,,,,,
KRDR,05-19-2020,23:56,METAR,Normal,170,17.0,22.0,,9999.0,,24.0,8.4,29.92,1013.6,,,,,,,,,,,,,,,Clear,72000.0,,,,,,,,,
KRDR,05-19-2020,22:56,METAR,Normal,160,14.0,21.0,180/26KTS,9999.0,,24.4,8.3,29.93,1014.0,,,,,,,,,,,,,,,Clear,72000.0,,,,,,,,,
KRDR,05-19-2020,21:56,METAR,Normal,180,19.0,26.0,,9999.0,,24.5,8.8,29.93,1013.9,,,,,,,,,,,,,,,Clear,72000.0,,,,,,,,,
KRDR,05-19-2020,20:56,METAR,Normal,170,20.0,23.0,160/26KTS,9999.0,,24.0,8.4,29.95,1014.6,,,,,,,,,,,,,,,Clear,72000.0,,,,,,,,,
KRDR,05-19-2020,19:56,METAR,Normal,150,18.0,24.0,170/26KTS,9999.0,,23.8,8.6,29.97,1015.3,,,,,,,,,,,,,,,Clear,72000.0,,,,,,,,,
KRDR,05-19-2020,18:56,METAR,Normal,160,16.0,25.0,140/26KTS,9999.0,,22.7,8.0,29.98,1015.6,,,,,,,,,,,,,,,Clear,72000.0,,,,,,,,,
KRDR,05-19-2020,17:56,METAR,Normal,150,19.0,25.0,130/26KTS,9999.0,,22.0,7.8,29.99,1016.0,,,,,,,,,,,,,,,Clear,72000.0,,,,,,,,,
KRDR,05-19-2020,16:56,METAR,Normal,140,15.0,22.0,,9999.0,,20.8,8.1,30.01,1016.7,,,,,,,,,,,,,,,Clear,72000.0,,,,,,,,,
KRDR,05-19-2020,15:56,METAR,Normal,160,15.0,20.0,,9999.0,,19.3,7.1,30.04,1017.7,,,,,,,,,,,,,,,Clear,72000.0,,,,,,,,,
KRDR,05-19-2020,14:56,METAR,Normal,150,16.0,,,9999.0,,17.7,6.5,30.06,1018.4,,,,,,,,,,,,,,,Clear,72000.0,,,,,,,,,
KRDR,05-19-2020,13:56,METAR,Normal,160,13.0,20.0,,9999.0,,15.4,5.9,30.07,1018.7,,,,,,,,,,,,,,,Clear,72000.0,,,,,,,,,
KRDR,05-19-2020,12:56,METAR,Normal,160,15.0,,,9999.0,,13.1,4.8,30.08,1019.1,,,,,,,,,,,,,,,Clear,72000.0,,,,,,,,,
KRDR,05-19-2020,11:56,METAR,Normal,160,9.0,,,9999.0,,11.0,4.9,30.08,1019.1,,,,,,,,,,,,,,,Clear,72000.0,,,,,,,,,
KRDR,05-19-2020,10:56,METAR,Normal,170,7.0,,,9999.0,,10.1,4.7,30.08,1019.1,,,,,,,,,,,,,,,Clear,72000.0,,,,,,,,,
KRDR,05-19-2020,09:56,METAR,Normal,170,9.0,,,9999.0,,10.2,4.3,30.07,1018.7,,,,,,,,,,,,,,,Clear,72000.0,,,,,,,,,
KRDR,05-19-2020,08:56,METAR,Normal,160,8.0,,,9999.0,,11.3,3.8,30.06,1018.4,,,,,,,,,,,,,,,Clear,72000.0,,,,,,,,,
KRDR,05-19-2020,07:56,METAR,Normal,150,10.0,,,9999.0,,13.2,3.3,30.06,1018.3,,,,,,,,,,,,,,,Clear,72000.0,,,,,,,,,
KRDR,05-19-2020,06:56,METAR,Normal,150,10.0,,,9999.0,,14.0,3.2,30.06,1018.3,,,,,,,,,,,,,,,Clear,72000.0,,,,,,,,,
KRDR,05-19-2020,05:56,METAR,Normal,140,9.0,,,9999.0,,14.0,3.7,30.05,1018.0,,,,,,,,,,,,,,,Clear,72000.0,,,,,,,,,
KRDR,05-19-2020,04:56,METAR,Normal,150,10.0,,,9999.0,,15.1,3.6,30.05,1018.0,,,,,,,,,,,,,,,Clear,72000.0,,,,,,,,,
KRDR,05-19-2020,03:56,METAR,Normal,140,9.0,,,9999.0,,16.8,2.8,30.05,1018.0,,,,,,,,,,,,,,,Clear,72000.0,,,,,,,,,
KRDR,05-19-2020,02:56,METAR,Normal,130,10.0,,,9999.0,,18.5,1.9,30.04,1017.8,,,,,,,,,,,,,,,Clear,72000.0,,,,,,,,,
KRDR,05-19-2020,01:56,METAR,Normal,140,10.0,,,9999.0,,20.1,2.4,30.02,1017.1,,,,,,,,,,,,,,,Clear,72000.0,,,,,,,,,
KRDR,05-18-2020,23:56,METAR,Normal,150,12.0,,,9999.0,,24.4,3.1,30.01,1016.7,,,,,,,,,,,,,,,Clear,72000.0,,,,,,,,,
KRDR,05-18-2020,22:56,METAR,Normal,140,15.0,18.0,,9999.0,,25.2,2.6,30.01,1016.7,,,,,,,,,,,,,,,Clear,72000.0,,,,,,,,,
KRDR,05-18-2020,22:06,SPECI,Normal,160,12.0,,,9999.0,,25.0,3.0,30.03,1017.4,,,,,,,,,,,,,,,Clear,72000.0,,,,,,,,,
KRDR,05-18-2020,21:56,METAR,Normal,130,14.0,20.0,,9999.0,,25.4,2.7,30.02,1017.1,,,,,,,,,,,,,,,Clear,72000.0,,,,,,,,,
KRDR,05-18-2020,21:15,SPECI,Normal,110,15.0,20.0,,9999.0,,25.0,2.0,30.04,1017.8,,,,,,,,,,,,,,,Clear,72000.0,,,,,,,,,
KRDR,05-18-2020,20:56,METAR,Normal,130,16.0,23.0,,9999.0,,25.1,2.5,30.04,1017.8,,,,,,,,,,,,,,,Clear,72000.0,,,,,,,,,
KRDR,05-18-2020,20:42,SPECI,Normal,160,16.0,19.0,,9999.0,,25.0,3.0,30.05,1018.1,,,,,,,,,,,,,,,Clear,72000.0,,,,,,,,,
KRDR,05-18-2020,19:56,METAR,Normal,150,17.0,21.0,,9999.0,,24.5,3.7,30.06,1018.4,,,,,,,,,,,,,,,Clear,72000.0,,,,,,,,,
KRDR,05-18-2020,19:25,SPECI,Normal,160,12.0,20.0,,9999.0,,24.0,4.0,30.08,1019.1,,,,,,,,,,,,,,,Clear,72000.0,,,,,,,,,
KRDR,05-18-2020,18:56,METAR,Normal,150,15.0,24.0,,9999.0,,23.6,4.0,30.08,1019.1,,,,,,,,,,,,,,,Clear,72000.0,,,,,,,,,
KRDR,05-18-2020,17:56,METAR,Normal,140,14.0,22.0,130/26KTS,9999.0,,22.8,3.8,30.10,1019.7,,,,,,,,,,,,,,,Clear,72000.0,,,,,,,,,
KRDR,05-18-2020,16:56,METAR,Normal,140,11.0,,,9999.0,,21.2,4.7,30.12,1020.5,,,,,,,,,,,,,,,Clear,72000.0,,,,,,,,,
KRDR,05-18-2020,15:56,METAR,Normal,150,10.0,,,9999.0,,19.3,5.0,30.14,1021.2,,,,,,,,,,,,,,,Clear,72000.0,,,,,,,,,
KRDR,05-18-2020,14:56,METAR,Normal,150,10.0,,,9999.0,,15.5,6.5,30.16,1021.9,,,,,,,,,,,,,,,Clear,72000.0,,,,,,,,,
KRDR,05-18-2020,13:56,METAR,Normal,140,7.0,,,9999.0,,13.6,5.2,30.17,1022.3,,,,,,,,,,,,,,,Clear,72000.0,,,,,,,,,
KRDR,05-18-2020,12:56,METAR,Normal,120,3.0,,,9999.0,,8.9,5.5,30.17,1022.3,,,,,,,,,,,,,,,2/8 Mostly Clear,72000.0,18000.0,FEW,18000.0,,,,,,
KRDR,05-18-2020,11:56,METAR,Calm,,0.0,,,9999.0,,9.3,4.5,30.17,1022.3,,,,,,,,,,,,,,,4/8 Partly Cloudy,72000.0,20000.0,SCT,20000.0,,,,,,
KRDR,05-18-2020,10:56,METAR,Normal,150,4.0,,,9999.0,,8.5,3.5,30.17,1022.3,,,,,,,,,,,,,,,,21000.0,21000.0,OVC,21000.0,,,,,,
KRDR,05-18-2020,09:56,METAR,Normal,170,7.0,,,9999.0,,9.7,3.0,30.17,1022.2,,,,,,,,,,,,,,,,21000.0,21000.0,BKN,21000.0,,,,,,
KRDR,05-18-2020,08:56,METAR,Normal,190,4.0,,,9999.0,,9.1,3.1,30.16,1021.9,,,,,,,,,,,,,,,Clear,72000.0,,,,,,,,,
KRDR,05-18-2020,07:56,METAR,Normal,180,7.0,,,9999.0,,9.3,3.3,30.13,1020.9,,,,,,,,,,,,,,,Clear,72000.0,,,,,,,,,
KRDR,05-18-2020,06:56,METAR,Normal,170,5.0,,,9999.0,,10.8,2.9,30.11,1020.1,,,,,,,,,,,,,,,Clear,72000.0,,,,,,,,,
KRDR,05-18-2020,05:56,METAR,Normal,160,8.0,,,9999.0,,12.2,4.2,30.10,1019.8,,,,,,,,,,,,,,,Clear,72000.0,,,,,,,,,
KRDR,05-18-2020,04:56,METAR,Normal,140,6.0,,,9999.0,,13.0,5.4,30.09,1019.5,,,,,,,,,,,,,,,Clear,72000.0,,,,,,,,,
KRDR,05-18-2020,03:56,METAR,Normal,150,8.0,,,9999.0,,14.3,5.4,30.10,1019.9,,,,,,,,,,,,,,,Clear,72000.0,,,,,,,,,
KRDR,05-18-2020,02:56,METAR,Normal,160,7.0,,,9999.0,,15.2,5.4,30.09,1019.5,,,,,,,,,,,,,,,Clear,72000.0,,,,,,,,,
KRDR,05-18-2020,01:56,METAR,Normal,100,4.0,,,9999.0,,18.8,5.3,30.08,1019.2,,,,,,,,,,,,,,,Clear,72000.0,,,,,,,,,
KRDR,05-18-2020,00:56,METAR,Normal,90,7.0,,,9999.0,,21.9,4.0,30.06,1018.4,,,,,,,,,,,,,,,Clear,72000.0,,,,,,,,,
KRDR,05-17-2020,23:56,METAR,Normal,100,7.0,,,9999.0,,22.7,3.7,30.05,1018.3,,,,,,,,,,,,,,,Clear,72000.0,,,,,,,,,
KRDR,05-17-2020,22:56,METAR,Normal,150,9.0,,,9999.0,,23.1,4.1,30.06,1018.7,,,,,,,,,,,,,,,Clear,72000.0,,,,,,,,,
KRDR,05-17-2020,21:56,METAR,Normal,80,10.0,,,9999.0,,23.5,2.9,30.06,1018.6,,,,,,,,,,,,,,,Clear,72000.0,,,,,,,,,
KRDR,05-17-2020,21:37,SPECI,Normal,120,10.0,,,9999.0,,23.0,3.0,30.07,1019.0,,,,,,,,,,,,,,,Clear,72000.0,,,,,,,,,
KRDR,05-17-2020,20:56,METAR,Normal,90,14.0,,,9999.0,,23.1,2.0,30.07,1019.0,,,,,,,,,,,,,,,Clear,72000.0,,,,,,,,,
KRDR,05-17-2020,19:56,METAR,Normal,110,11.0,16.0,,9999.0,,23.1,3.6,30.08,1019.3,,,,,,,,,,,,,,,Clear,72000.0,,,,,,,,,
KRDR,05-17-2020,18:56,METAR,Normal,110,11.0,15.0,,9999.0,,22.0,4.5,30.10,1020.0,,,,,,,,,,,,,,,Clear,72000.0,,,,,,,,,
KRDR,05-17-2020,17:56,METAR,Normal,90,11.0,,,9999.0,,21.4,3.6,30.11,1020.3,,,,,,,,,,,,,,,2/8 Mostly Clear,72000.0,19000.0,FEW,19000.0,,,,,,
KRDR,05-17-2020,16:56,METAR,Normal,90,3.0,,,9999.0,,20.1,7.5,30.12,1020.7,,,,,,,,,,,,,,,Clear,72000.0,,,,,,,,,
KRDR,05-17-2020,15:56,METAR,Normal,100,4.0,,,9999.0,,18.7,10.3,30.12,1020.7,,,,,,,,,,,,,,,Clear,72000.0,,,,,,,,,
KRDR,05-17-2020,14:56,METAR,Calm,,0.0,,,9999.0,,16.2,10.7,30.13,1021.0,,,,,,,,,,,,,,,Clear,72000.0,,,,,,,,,
KRDR,05-17-2020,13:56,METAR,Normal,90,3.0,,,9999.0,,12.7,8.8,30.13,1020.9,,,,,,,,,,,,,,,Clear,72000.0,,,,,,,,,
KRDR,05-17-2020,12:56,METAR,Normal,90,5.0,,,9999.0,,11.0,8.2,30.13,1020.9,,,,,,,,,,,,,,,Clear,72000.0,,,,,,,,,
KRDR,05-17-2020,11:56,METAR,Calm,,0.0,,,9999.0,,4.1,4.1,30.11,1020.5,,,,,,,,,,,,,,,Clear,72000.0,,,,,,,,,
KRDR,05-17-2020,10:56,METAR,Normal,280,3.0,,,9999.0,,3.1,3.1,30.11,1020.5,,,,,,,,,,,,,,,Clear,72000.0,,,,,,,,,
KRDR,05-17-2020,09:56,METAR,Calm,,0.0,,,9999.0,,4.4,4.4,30.09,1019.7,,,,,,,,,,,,,,,Clear,72000.0,,,,,,,,,
KRDR,05-17-2020,08:56,METAR,Normal,230,3.0,,,9999.0,,4.5,4.5,30.09,1019.7,,,,,,,,,,,,,,,Clear,72000.0,,,,,,,,,
KRDR,05-17-2020,07:56,METAR,Calm,,0.0,,,9999.0,,5.5,5.5,30.08,1019.3,,,,,,,,,,,,,,,Clear,72000.0,,,,,,,,,
KRDR,05-17-2020,06:56,METAR,Calm,,0.0,,,9999.0,,6.1,6.1,30.07,1019.0,,,,,,,,,,,,,,,Clear,72000.0,,,,,,,,,
KRDR,05-17-2020,05:56,METAR,Calm,,0.0,,,9999.0,,6.5,6.5,30.08,1019.3,,,,,,,,,,,,,,,Clear,72000.0,,,,,,,,,
KRDR,05-17-2020,04:56,METAR,Calm,,0.0,,,9999.0,,8.5,8.5,30.08,1019.3,,,,,,,,,,,,,,,Clear,72000.0,,,,,,,,,
KRDR,05-17-2020,03:56,METAR,Calm,,0.0,,,9999.0,,9.6,8.8,30.09,1019.7,,,,,,,,,,,,,,,Clear,72000.0,,,,,,,,,
KRDR,05-17-2020,02:56,METAR,Calm,,0.0,,,9999.0,,11.5,7.4,30.09,1019.7,,,,,,,,,,,,,,,Clear,72000.0,,,,,,,,,
KRDR,05-17-2020,01:56,METAR,Normal,130,3.0,,,9999.0,,17.3,5.2,30.09,1019.6,,,,,,,,,,,,,,,Clear,72000.0,,,,,,,,,
KRDR,05-17-2020,00:56,METAR,Normal,140,6.0,,,9999.0,,18.6,4.7,30.08,1019.3,,,,,,,,,,,,,,,Clear,72000.0,,,,,,,,,
KRDR,05-16-2020,23:56,METAR,Normal,140,7.0,,,9999.0,,20.1,3.3,30.07,1019.1,,,,,,,,,,,,,,,Clear,72000.0,,,,,,,,,
KRDR,05-16-2020,22:56,METAR,Normal,80,8.0,,,9999.0,,21.1,3.8,30.06,1018.8,,,,,,,,,,,,,,,2/8 Mostly Clear,72000.0,18000.0,FEW,18000.0,FEW,21000.0,,,,
KRDR,05-16-2020,21:56,METAR,Normal,80,9.0,,,9999.0,,21.4,3.6,30.07,1019.1,,,,,,,,,,,,,,,2/8 Mostly Clear,72000.0,20000.0,FEW,20000.0,,,,,,
KRDR,05-16-2020,20:56,METAR,Normal,90,9.0,,,9999.0,,21.3,3.9,30.08,1019.4,,,,,,,,,,,,,,,2/8 Mostly Clear,72000.0,20000.0,FEW,20000.0,,,,,,
KRDR,05-16-2020,19:56,METAR,Normal,90,9.0,,,9999.0,,21.2,4.3,30.09,1019.7,,,,,,,,,,,,,,,2/8 Mostly Clear,72000.0,15000.0,FEW,15000.0,FEW,20000.0,,,,
KRDR,05-16-2020,18:56,METAR,Normal,30,4.0,,,9999.0,,20.2,4.6,30.11,1020.5,,,,,,,,,,,,,,,2/8 Mostly Clear,72000.0,14000.0,FEW,14000.0,FEW,21000.0,,,,
KRDR,05-16-2020,17:56,METAR,Normal,150,5.0,,,9999.0,,20.0,6.0,30.13,1021.1,,,,,,,,,,,,,,,4/8 Partly Cloudy,72000.0,6000.0,FEW,6000.0,SCT,18000.0,,,,
KRDR,05-16-2020,16:56,METAR,Normal,160,5.0,,,9999.0,,18.9,5.4,30.14,1021.4,,,,,,,,,,,,,,,2/8 Mostly Clear,72000.0,20000.0,FEW,20000.0,,,,,,
KRDR,05-16-2020,15:56,METAR,Normal,150,5.0,,,9999.0,,17.8,7.5,30.14,1021.4,,,,,,,,,,,,,,,Clear,72000.0,,,,,,,,,
KRDR,05-16-2020,14:56,METAR,Calm,,0.0,,,9999.0,,15.4,7.2,30.14,1021.5,,,,,,,,,,,,,,,Clear,72000.0,,,,,,,,,
KRDR,05-16-2020,13:56,METAR,Calm,,0.0,,,9999.0,,12.6,7.3,30.13,1020.9,,,,,,,,,,,,,,,Clear,72000.0,,,,,,,,,
KRDR,05-16-2020,12:56,METAR,Calm,,0.0,,,9999.0,,8.6,8.1,30.13,1021.0,,,,,,,,,,,,,,,Clear,72000.0,,,,,,,,,
KRDR,05-16-2020,11:56,METAR,Calm,,0.0,,,9999.0,,3.8,3.8,30.12,1020.9,,,,,,,,,,,,,,,Clear,72000.0,,,,,,,,,
KRDR,05-16-2020,10:56,METAR,Normal,310,3.0,,,9999.0,,2.5,2.5,30.11,1020.5,,,,,,,,,,,,,,,Clear,72000.0,,,,,,,,,
KRDR,05-16-2020,09:56,METAR,Normal,340,4.0,,,9999.0,,2.6,2.6,30.09,1019.8,,,,,,,,,,,,,,,Clear,72000.0,,,,,,,,,
KRDR,05-16-2020,08:56,METAR,Calm,,0.0,,,9999.0,,4.2,4.2,30.09,1019.8,,,,,,,,,,,,,,,Clear,72000.0,,,,,,,,,
KRDR,05-16-2020,07:56,METAR,Normal,210,4.0,,,9999.0,,5.0,5.0,30.09,1019.8,,,,,,,,,,,,,,,Clear,72000.0,,,,,,,,,
KRDR,05-16-2020,06:56,METAR,Normal,210,3.0,,,9999.0,,4.5,4.5,30.08,1019.4,,,,,,,,,,,,,,,Clear,72000.0,,,,,,,,,
KRDR,05-16-2020,05:56,METAR,Calm,,0.0,,,9999.0,,6.2,6.2,30.08,1019.5,,,,,,,,,,,,,,,Clear,72000.0,,,,,,,,,
KRDR,05-16-2020,04:56,METAR,Calm,,0.0,,,9999.0,,7.2,7.1,30.06,1018.8,,,,,,,,,,,,,,,Clear,72000.0,,,,,,,,,
KRDR,05-16-2020,03:56,METAR,Calm,,0.0,,,9999.0,,8.3,7.9,30.06,1018.8,,,,,,,,,,,,,,,Clear,72000.0,,,,,,,,,
KRDR,05-16-2020,02:56,METAR,Calm,,0.0,,,9999.0,,9.8,6.3,30.05,1018.5,,,,,,,,,,,,,,,Clear,72000.0,,,,,,,,,
KRDR,05-16-2020,01:56,METAR,Calm,,0.0,,,9999.0,,16.8,2.4,30.04,1018.0,,,,,,,,,,,,,,,Clear,72000.0,,,,,,,,,
KRDR,05-16-2020,00:56,METAR,Normal,110,5.0,,,9999.0,,18.1,2.0,30.02,1017.3,,,,,,,,,,,,,,,Clear,72000.0,,,,,,,,,
KRDR,05-15-2020,23:56,METAR,Normal,130,5.0,,,9999.0,,18.9,1.4,30.02,1017.5,,,,,,,,,,,,,,,Clear,72000.0,,,,,,,,,
KRDR,05-15-2020,22:56,METAR,Normal,170,5.0,,,9999.0,,19.1,2.0,30.03,1017.9,,,,,,,,,,,,,,,Clear,72000.0,,,,,,,,,
KRDR,05-15-2020,21:56,METAR,Normal,120,3.0,,,9999.0,,19.1,2.4,30.03,1017.8,,,,,,,,,,,,,,,Clear,72000.0,,,,,,,,,
KRDR,05-15-2020,20:56,METAR,Normal,70,3.0,,,9999.0,,18.8,2.6,30.03,1017.9,,,,,,,,,,,,,,,Clear,72000.0,,,,,,,,,
KRDR,05-15-2020,19:56,METAR,Calm,,0.0,,,9999.0,,18.4,1.8,30.04,1018.3,,,,,,,,,,,,,,,Clear,72000.0,,,,,,,,,
KRDR,05-15-2020,18:56,METAR,Normal,80,6.0,,,9999.0,,18.0,1.5,30.04,1018.2,,,,,,,,,,,,,,,2/8 Mostly Clear,72000.0,18000.0,FEW,18000.0,,,,,,
KRDR,05-15-2020,17:56,METAR,Normal,50,4.0,,,9999.0,,16.1,1.4,30.05,1018.6,,,,,,,,,,,,,,,2/8 Mostly Clear,72000.0,13000.0,FEW,13000.0,,,,,,
KRDR,05-15-2020,16:56,METAR,Normal,80,4.0,,,9999.0,,15.2,4.3,30.04,1018.3,,,,,,,,,,,,,,,Clear,72000.0,,,,,,,,,
KRDR,05-15-2020,15:56,METAR,Normal,130,6.0,,,9999.0,,14.0,5.4,30.04,1018.3,,,,,,,,,,,,,,,Clear,72000.0,,,,,,,,,
KRDR,05-15-2020,14:56,METAR,Normal,160,4.0,,,9999.0,,12.4,6.0,30.05,1018.6,,,,,,,,,,,,,,,Clear,72000.0,,,,,,,,,
KRDR,05-15-2020,13:56,METAR,Calm,,0.0,,,9999.0,,10.3,6.6,30.04,1018.2,,,,,,,,,,,,,,,Clear,72000.0,,,,,,,,,
KRDR,05-15-2020,12:56,METAR,Calm,,0.0,,,9999.0,,7.4,6.0,30.02,1017.6,,,,,,,,,,,,,,,Clear,72000.0,,,,,,,,,
KRDR,05-15-2020,11:56,METAR,Normal,290,3.0,,,9999.0,,2.5,2.5,29.98,1016.4,,,,,,,,,,,,,,,Clear,72000.0,,,,,,,,,
KRDR,05-15-2020,10:56,METAR,Normal,310,3.0,,,9999.0,,1.2,1.2,29.95,1015.4,,,,,,,,,,,,,,,Clear,72000.0,,,,,,,,,
KRDR,05-15-2020,09:56,METAR,Calm,,0.0,,,9999.0,,2.3,2.3,29.93,1014.7,,,,,,,,,,,,,,,Clear,72000.0,,,,,,,,,
KRDR,05-15-2020,08:56,METAR,Normal,310,4.0,,,9999.0,,1.5,1.5,29.91,1013.9,,,,,,,,,,,,,,,Clear,72000.0,,,,,,,,,
KRDR,05-15-2020,07:56,METAR,Normal,260,3.0,,,9999.0,,0.5,0.5,29.91,1013.9,,,,,,,,,,,,,,,Clear,72000.0,,,,,,,,,
KRDR,05-15-2020,06:56,METAR,Calm,,0.0,,,9999.0,,2.5,2.5,29.90,1013.5,,,,,,,,,,,,,,,Clear,72000.0,,,,,,,,,
KRDR,05-15-2020,05:56,METAR,Normal,210,4.0,,,9999.0,,2.0,2.0,29.89,1013.2,,,,,,,,,,,,,,,Clear,72000.0,,,,,,,,,
KRDR,05-15-2020,04:56,METAR,Calm,,0.0,,,9999.0,,3.9,3.9,29.89,1013.2,,,,,,,,,,,,,,,Clear,72000.0,,,,,,,,,
KRDR,05-15-2020,03:56,METAR,Calm,,0.0,,,9999.0,,3.9,3.9,29.89,1013.2,,,,,,,,,,,,,,,Clear,72000.0,,,,,,,,,
KRDR,05-15-2020,02:56,METAR,Normal,290,4.0,,,9999.0,,5.6,5.3,29.87,1012.5,,,,,,,,,,,,,,,Clear,72000.0,,,,,,,,,
KRDR,05-15-2020,01:56,METAR,Normal,310,6.0,,,9999.0,,9.2,5.4,29.86,1012.1,,,,,,,,,,,,,,,4/8 Partly Cloudy,72000.0,4000.0,FEW,4000.0,SCT,7500.0,,,,
KRDR,05-15-2020,00:56,METAR,Normal,320,9.0,,,9999.0,,10.5,5.1,29.84,1011.4,,,,,,,,,,,,,,,4/8 Partly Cloudy,72000.0,3600.0,SCT,3600.0,,,,,,
KRDR,05-14-2020,23:56,METAR,Normal,320,15.0,20.0,,9999.0,,10.3,5.7,29.82,1010.8,,,,,,,,,,,,,,,,4300.0,3200.0,SCT,3200.0,OVC,4300.0,,,,
KRDR,05-14-2020,22:56,METAR,Normal,300,17.0,,,9999.0,,10.9,5.2,29.81,1010.6,,,,,,,,,,,,,,,,4700.0,3000.0,FEW,3000.0,FEW,3800.0,BKN,4700.0,BKN,12000.0
KRDR,05-14-2020,22:06,SPECI,Normal,310,18.0,25.0,,9999.0,,11.0,7.0,29.80,1010.2,,,,,,,,,,,,,,,,3900.0,2600.0,SCT,2600.0,OVC,3900.0,,,,
KRDR,05-14-2020,21:56,METAR,Normal,310,18.0,27.0,330/28KTS,9999.0,,10.5,6.6,29.80,1010.2,,,,,,,,,,,,,,,,2900.0,2200.0,FEW,2200.0,BKN,2900.0,OVC,3700.0,,
KRDR,05-14-2020,21:16,SPECI,Normal,310,16.0,25.0,,9999.0,,12.0,7.0,29.77,1009.1,,,,,,,,,,,,,,,,2500.0,2700.0,BKN,2700.0,OVC,3500.0,,,,
KRDR,05-14-2020,21:06,SPECI,Normal,320,19.0,25.0,,9999.0,,12.0,7.0,29.76,1008.6,,,,,,,,,,,,,,,,3300.0,2500.0,SCT,2500.0,BKN,3300.0,,,,
KRDR,05-14-2020,20:56,METAR,Normal,320,21.0,28.0,290/32KTS,9999.0,,13.0,7.2,29.76,1008.6,,,,,,,,,,,,,,,,2400.0,2400.0,BKN,2400.0,BKN,3200.0,,,,
KRDR,05-14-2020,20:36,SPECI,Normal,300,22.0,29.0,,9999.0,,13.0,8.0,29.74,1008.0,,,,,,,,,,,,,,,,2200.0,2200.0,BKN,2200.0,,,,,,
KRDR,05-14-2020,19:56,METAR,Normal,280,19.0,27.0,300/28KTS,9999.0,,14.6,8.3,29.71,1006.8,,,,,,,,,,,,,,,4/8 Partly Cloudy,72000.0,3300.0,SCT,3300.0,,,,,,
KRDR,05-14-2020,18:56,METAR,Normal,270,15.0,20.0,,9999.0,,15.7,7.7,29.70,1006.5,,,,,,,,,,,,,,,,6000.0,4200.0,SCT,4200.0,BKN,6000.0,BKN,8000.0,,
KRDR,05-14-2020,17:56,METAR,Normal,280,13.0,19.0,,9999.0,,16.1,9.5,29.69,1006.1,,,,,,,,,,,,,TRACE,,,3400.0,3400.0,BKN,3400.0,BKN,4400.0,BKN,6000.0,,
KRDR,05-14-2020,17:06,SPECI,Normal,260,10.0,,,9999.0,,16.0,11.0,29.68,1005.8,,,,,,,,,,,,,,,,4000.0,2300.0,FEW,2300.0,SCT,3000.0,BKN,4000.0,BKN,5000.0
KRDR,05-14-2020,16:56,METAR,Normal,240,9.0,,,9999.0,,14.8,11.8,29.69,1006.1,,,,,,,,,,,,,,,,2200.0,1800.0,FEW,1800.0,SCT,2200.0,BKN,2900.0,BKN,3900.0
KRDR,05-14-2020,16:46,SPECI,Normal,230,7.0,,,9999.0,,14.0,13.0,29.69,1006.2,,,,,,,,,,,,,,,,1600.0,1700.0,SCT,1700.0,BKN,2200.0,BKN,2900.0,BKN,4200.0
KRDR,05-14-2020,16:06,SPECI,Normal,210,10.0,,,9999.0,,12.0,12.0,29.70,1006.6,,,,,,,,,,,,,,,,1500.0,1500.0,BKN,1500.0,OVC,3100.0,,,,
KRDR,05-14-2020,15:56,METAR,Normal,180,11.0,,,9999.0,,12.1,12.1,29.71,1006.9,,,,,,,,,,,,,,,,3100.0,1300.0,FEW,1300.0,OVC,3100.0,,,,
KRDR,05-14-2020,15:06,SPECI,Normal,170,5.0,,,9999.0,,11.0,11.0,29.71,1006.9,,,,,,,,,,,,,,,,5000.0,600.0,SCT,600.0,SCT,1000.0,OVC,5000.0,,
KRDR,05-14-2020,14:56,METAR,Normal,160,4.0,,,9999.0,,10.3,10.3,29.72,1007.4,,,,,,,,,,,TRACE,TRACE,,,,600.0,600.0,BKN,600.0,OVC,5500.0,,,,
KRDR,05-14-2020,14:45,SPECI,Normal,150,4.0,,,9999.0,,10.0,10.0,29.72,1007.4,,,,,,,,,,,,,,,,5500.0,500.0,SCT,500.0,SCT,900.0,OVC,5500.0,,
KRDR,05-14-2020,14:38,SPECI,Normal,150,4.0,,,9999.0,Light Rain,10.0,10.0,29.72,1007.4,61,,,,,,,,,,,,,,,5500.0,500.0,SCT,500.0,OVC,5500.0,,,,
KRDR,05-14-2020,14:28,SPECI,Normal,160,3.0,,,9999.0,,10.0,10.0,29.73,1007.7,,,,,,,,,,,,,,,,5500.0,500.0,SCT,500.0,SCT,1500.0,OVC,5500.0,,
KRDR,05-14-2020,14:18,SPECI,Normal,180,4.0,,,9999.0,,10.0,10.0,29.73,1007.7,,,,,,,,,,,,,,,,1500.0,500.0,SCT,500.0,SCT,1500.0,BKN,2200.0,OVC,6000.0
KRDR,05-14-2020,14:08,SPECI,Normal,150,3.0,,,9999.0,,9.0,9.0,29.73,1007.7,,,,,,,,,,,,,,,,1500.0,500.0,SCT,500.0,BKN,1500.0,BKN,2200.0,OVC,5500.0
KRDR,05-14-2020,14:07,SPECI,Normal,140,3.0,,,9999.0,Light Rain,9.0,9.0,29.73,1007.7,61,,,,,,,,,,,,,,,2200.0,500.0,SCT,500.0,SCT,1500.0,BKN,2200.0,OVC,5500.0
KRDR,05-14-2020,13:57,SPECI,Calm,,0.0,,,9999.0,Light Rain,9.0,9.0,29.73,1007.7,61,,,,,,,,,,,,,,,5500.0,400.0,FEW,400.0,SCT,2200.0,OVC,5500.0,,
KRDR,05-14-2020,13:56,METAR,Calm,,0.0,,,9999.0,,8.8,8.8,29.74,1008.0,,,,,,,,,,,,,,,,2200.0,400.0,FEW,400.0,BKN,2200.0,OVC,5500.0,,
KRDR,05-14-2020,13:27,SPECI,Normal,190,3.0,,,9999.0,,9.0,9.0,29.73,1007.7,,,,,,,,,,,,,,,,8000.0,400.0,FEW,400.0,SCT,6000.0,BKN,8000.0,,
KRDR,05-14-2020,12:48,METAR,Normal,140,3.0,,,9999.0,Mist,6.9,6.9,29.73,1007.8,,,,10,,,,,,,,,,,,7000.0,7000.0,OVC,7000.0,,,,,,
KRDR,05-14-2020,12:02,SPECI,Normal,200,5.0,,,9999.0,Mist,6.0,6.0,29.73,1007.8,,,,10,,,,,,,,,,,,6500.0,6500.0,OVC,6500.0,,,,,,
KRDR,05-14-2020,11:56,METAR,Calm,,0.0,,,3200.0,Mist,5.0,5.0,29.74,1008.2,,,,10,,,,,,,,,TRACE,.28 IN,,7000.0,7000.0,BKN,7000.0,,,,,,
KRDR,05-14-2020,10:56,METAR,Normal,220,5.0,,,400.0,Fog or Ice Fog,3.4,3.4,29.73,1007.9,,,,44,,,,,,,,,,,Sky Obscured (Unable to Estimate),0.0,0.0,,0.0,,,,,,
KRDR,05-14-2020,10:43,SPECI,Normal,220,5.0,,,800.0,Fog or Ice Fog,3.0,3.0,29.73,1007.9,,,,44,,,,,,,,,,,,0.0,0.0,BKN,0.0,BKN,6500.0,,,,
KRDR,05-14-2020,09:56,METAR,Normal,220,3.0,,,1000.0,Fog,4.5,4.5,29.71,1007.1,30,,,,,,,,,,,,,,Clear,72000.0,,,,,,,,,
KRDR,05-14-2020,09:36,SPECI,Calm,,0.0,,,1000.0,Fog,5.0,5.0,29.72,1007.5,30,,,,,,,,,,,,,,Clear,72000.0,,,,,,,,,
KRDR,05-14-2020,09:16,SPECI,Calm,,0.0,,,1400.0,Fog,6.0,6.0,29.72,1007.4,30,,,,,,,,,,,,,,,7000.0,7000.0,BKN,7000.0,,,,,,
KRDR,05-14-2020,08:56,METAR,Normal,240,3.0,,,8900.0,Mist,7.3,7.3,29.72,1007.4,10,,,,,,,,,,,,,,,7000.0,7000.0,OVC,7000.0,,,,,,
KRDR,05-14-2020,07:56,METAR,Normal,200,6.0,,,9999.0,Mist,8.1,8.1,29.72,1007.4,10,,,,,,,,,,,,,,,7000.0,7000.0,OVC,7000.0,,,,,,
KRDR,05-14-2020,06:56,METAR,Normal,220,4.0,,,8000.0,Mist,8.6,8.6,29.72,1007.4,10,,,,,,,,,,,,,,,6500.0,6500.0,OVC,6500.0,,,,,,
KRDR,05-14-2020,06:36,SPECI,Normal,210,5.0,,,9999.0,,9.0,9.0,29.73,1007.7,,,,,,,,,,,,,,,,6500.0,800.0,FEW,800.0,SCT,2400.0,OVC,6500.0,,
KRDR,05-14-2020,05:56,METAR,Normal,200,6.0,,,8000.0,Mist,8.7,8.7,29.73,1007.8,10,,,,,,,,,,,,TRACE,,,2300.0,700.0,FEW,700.0,OVC,2300.0,,,,
KRDR,05-14-2020,05:42,SPECI,Normal,200,5.0,,,9999.0,,9.0,9.0,29.73,1007.8,,,,,,,,,,,,,,,,2300.0,700.0,FEW,700.0,OVC,2300.0,,,,
KRDR,05-14-2020,05:26,SPECI,Normal,200,5.0,,,9999.0,Mist,9.0,9.0,29.73,1007.8,10,,,,,,,,,,,,,,,1600.0,2000.0,OVC,2000.0,,,,,,
KRDR,05-14-2020,05:16,SPECI,Normal,190,6.0,,,9999.0,,9.0,9.0,29.73,1007.8,,,,,,,,,,,,,,,,1600.0,1600.0,BKN,1600.0,OVC,2300.0,,,,
KRDR,05-14-2020,05:06,SPECI,Normal,190,6.0,,,9999.0,,9.0,9.0,29.74,1008.1,,,,,,,,,,,,,,,,1400.0,1400.0,OVC,1400.0,,,,,,
KRDR,05-14-2020,04:56,METAR,Normal,190,5.0,,,8900.0,Mist,8.6,8.6,29.74,1008.1,10,,,,,,,,,,,,,,,1300.0,500.0,FEW,500.0,OVC,1300.0,,,,
KRDR,05-14-2020,04:46,SPECI,Normal,180,6.0,,,8000.0,Mist,9.0,9.0,29.74,1008.1,10,,,,,,,,,,,,,,,400.0,400.0,SCT,400.0,OVC,1300.0,,,,
KRDR,05-14-2020,04:16,SPECI,Normal,160,7.0,,,6400.0,Mist,9.0,9.0,29.74,1008.1,10,,,,,,,,,,,,,,,400.0,400.0,OVC,400.0,,,,,,
KRDR,05-14-2020,03:56,METAR,Normal,150,6.0,,,7200.0,Mist,8.5,8.5,29.73,1007.8,10,,,,,,,,,,,,,,,500.0,500.0,OVC,500.0,,,,,,
KRDR,05-14-2020,03:06,SPECI,Normal,160,6.0,,,9999.0,Mist,9.0,9.0,29.73,1007.8,10,,,,,,,,,,,,,,,400.0,400.0,OVC,400.0,,,,,,
KRDR,05-14-2020,02:56,METAR,Normal,160,6.0,,,8000.0,Mist,8.5,8.5,29.73,1007.8,10,,,,,,,,,,TRACE,.01 IN,,,,500.0,500.0,OVC,500.0,,,,,,
KRDR,05-14-2020,02:19,SPECI,Normal,160,7.0,,,9999.0,Mist,9.0,9.0,29.73,1007.8,10,,,,,,,,,,,,,,,500.0,500.0,OVC,500.0,,,,,,
KRDR,05-14-2020,01:56,METAR,Normal,150,9.0,,,9999.0,Light Rain/Mist,8.6,8.6,29.73,1007.8,61,10,,,,,,,,,.01 IN,,,,,600.0,600.0,OVC,600.0,,,,,,
KRDR,05-14-2020,01:26,SPECI,Normal,150,9.0,,,9999.0,,9.0,9.0,29.73,1007.8,,,,,,,,,,,,,,,,600.0,600.0,OVC,600.0,,,,,,
KRDR,05-14-2020,01:06,SPECI,Normal,160,9.0,,,9999.0,,9.0,9.0,29.73,1007.8,,,,,,,,,,,,,,,,700.0,700.0,OVC,700.0,,,,,,
KRDR,05-14-2020,00:56,METAR,Normal,160,11.0,,,9999.0,,8.7,8.7,29.74,1008.2,,,,,,,,,,,TRACE,,,,,800.0,800.0,OVC,800.0,,,,,,
KRDR,05-14-2020,00:35,SPECI,Normal,160,10.0,,,9999.0,,9.0,9.0,29.74,1008.2,,,,,,,,,,,,,,,,800.0,800.0,OVC,800.0,,,,,,
KRDR,05-14-2020,00:27,SPECI,Normal,160,11.0,,,9999.0,Light Rain,9.0,9.0,29.74,1008.2,61,,,,,,,,,,,,,,,800.0,800.0,OVC,800.0,,,,,,
KRDR,05-14-2020,00:24,SPECI,Normal,160,11.0,,,9999.0,,9.0,9.0,29.74,1008.2,,,,,,,,,,,,,,,,800.0,800.0,OVC,800.0,,,,,,
KRDR,05-14-2020,00:14,SPECI,Normal,160,12.0,,,9999.0,Light Rain,9.0,9.0,29.74,1008.2,61,,,,,,,,,,,,,,,900.0,900.0,OVC,900.0,,,,,,
KRDR,05-14-2020,00:07,SPECI,Normal,160,13.0,,,9999.0,,9.0,9.0,29.75,1008.5,,,,,,,,,,,,,,,,900.0,900.0,OVC,900.0,,,,,,
KRDR,05-14-2020,00:06,SPECI,Normal,160,13.0,,,9999.0,Light Drizzle,9.0,9.0,29.75,1008.5,51,,,,,,,,,,,,,,,900.0,900.0,OVC,900.0,,,,,,
KRDR,05-13-2020,23:56,METAR,Normal,160,11.0,,,9999.0,Light Rain,8.9,8.9,29.75,1008.5,61,,,,,,,,,,.02 IN,,.19 IN,,,1000.0,1000.0,OVC,1000.0,,,,,,
KRDR,05-13-2020,23:46,SPECI,Normal,160,11.0,,,9999.0,Light Rain,9.0,9.0,29.75,1008.5,61,,,,,,,,,,,,,,,1000.0,1000.0,OVC,1000.0,,,,,,
KRDR,05-13-2020,23:30,SPECI,Normal,170,11.0,,,9999.0,,9.0,9.0,29.76,1008.9,,,,,,,,,,,,,,,,1000.0,1000.0,BKN,1000.0,BKN,2200.0,BKN,2700.0,OVC,4500.0
KRDR,05-13-2020,23:07,SPECI,Normal,170,13.0,,,9999.0,Light Rain,9.0,9.0,29.76,1008.9,61,,,,,,,,,,,,,,,2500.0,1000.0,FEW,1000.0,FEW,1400.0,BKN,2500.0,OVC,3200.0
KRDR,05-13-2020,23:06,SPECI,Normal,170,12.0,,,9999.0,Light Rain,9.0,9.0,29.76,1008.9,61,,,,,,,,,,,,,,,3200.0,1400.0,FEW,1400.0,SCT,2500.0,OVC,3200.0,,
KRDR,05-13-2020,22:56,METAR,Normal,170,13.0,,,9999.0,Light Rain,8.9,8.9,29.77,1009.1,61,,,,,,,,,,.1 IN,,,,,2900.0,1400.0,SCT,1400.0,OVC,2900.0,,,,
KRDR,05-13-2020,21:56,METAR,Normal,170,12.0,,,9999.0,Light Rain/Mist,8.9,8.9,29.77,1009.1,61,10,,,,,,,,,.07 IN,,,,,2700.0,2700.0,OVC,2700.0,,,,,,
KRDR,05-13-2020,21:47,SPECI,Normal,170,12.0,,,9999.0,Light Rain/Mist,9.0,9.0,29.77,1009.1,61,10,,,,,,,,,,,,,,2700.0,2700.0,OVC,2700.0,,,,,,
KRDR,05-13-2020,21:40,SPECI,Normal,170,11.0,,,9999.0,Mist,9.0,9.0,29.77,1009.1,10,,,,,,,,,,,,,,,2800.0,2800.0,OVC,2800.0,,,,,,
KRDR,05-13-2020,20:56,METAR,Normal,170,12.0,,,9999.0,Light Rain,9.8,7.7,29.77,1009.1,61,,,,,,,,,,TRACE,TRACE,,,,2800.0,2800.0,OVC,2800.0,,,,,,
KRDR,05-13-2020,20:49,SPECI,Normal,170,11.0,,,9999.0,Light Rain,10.0,7.0,29.77,1009.1,61,,,,,,,,,,,,,,,2800.0,2800.0,OVC,2800.0,,,,,,
KRDR,05-13-2020,20:46,SPECI,Normal,170,12.0,,,9999.0,,10.0,7.0,29.77,1009.1,,,,,,,,,,,,,,,,2800.0,2800.0,OVC,2800.0,,,,,,
KRDR,05-13-2020,19:56,METAR,Normal,150,10.0,,,9999.0,,9.4,8.5,29.79,1009.8,,,,,,,,,,,,,,,,3000.0,3000.0,OVC,3000.0,,,,,,
KRDR,05-13-2020,19:06,SPECI,Normal,140,10.0,,,9999.0,,9.0,9.0,29.79,1009.8,,,,,,,,,,,,,,,,3200.0,1900.0,SCT,1900.0,SCT,2500.0,OVC,3200.0,,
KRDR,05-13-2020,18:56,METAR,Normal,150,12.0,,,9999.0,,8.5,8.4,29.80,1010.2,,,,,,,,,,,,,,,,1900.0,1900.0,BKN,1900.0,BKN,2500.0,OVC,3400.0,,
KRDR,05-13-2020,18:26,SPECI,Normal,150,11.0,,,9999.0,,8.0,8.0,29.82,1010.9,,,,,,,,,,,,,,,,1900.0,1900.0,BKN,1900.0,BKN,2500.0,OVC,4000.0,,
KRDR,05-13-2020,18:06,SPECI,Normal,150,14.0,,,9999.0,,8.0,8.0,29.83,1011.2,,,,,,,,,,,,,,,,1700.0,1400.0,FEW,1400.0,BKN,2100.0,OVC,4000.0,,
KRDR,05-13-2020,17:56,METAR,Normal,150,13.0,21.0,,9999.0,,7.7,7.7,29.83,1011.2,,,,,,,,,,,.01 IN,,.09 IN,,,1300.0,1400.0,SCT,1400.0,BKN,1900.0,OVC,4200.0,,
KRDR,05-13-2020,17:52,SPECI,Normal,140,12.0,21.0,,9999.0,,8.0,8.0,29.83,1011.2,,,,,,,,,,,,,,,,1300.0,1400.0,SCT,1400.0,BKN,1900.0,OVC,4200.0,,
KRDR,05-13-2020,17:42,SPECI,Normal,140,17.0,22.0,,9999.0,,8.0,8.0,29.83,1011.2,,,,,,,,,,,,,,,,1300.0,1300.0,BKN,1300.0,BKN,1900.0,OVC,4400.0,,
KRDR,05-13-2020,17:32,SPECI,Normal,140,16.0,25.0,,9999.0,,7.0,7.0,29.84,1011.6,,,,,,,,,,,,,,,,1500.0,1000.0,FEW,1000.0,BKN,1500.0,OVC,4400.0,,
KRDR,05-13-2020,17:30,SPECI,Normal,140,15.0,25.0,,9999.0,,7.0,7.0,29.84,1011.6,,,,,,,,,,,,,,,,1200.0,1200.0,BKN,1200.0,OVC,4400.0,,,,
KRDR,05-13-2020,17:25,SPECI,Normal,150,18.0,25.0,,9999.0,Light Rain,7.0,7.0,29.84,1011.6,61,,,,,,,,,,,,,,,1200.0,1200.0,BKN,1200.0,OVC,4600.0,,,,
KRDR,05-13-2020,17:15,SPECI,Normal,140,16.0,,,9999.0,Light Rain,7.0,7.0,29.84,1011.6,61,,,,,,,,,,,,,,,1300.0,1300.0,BKN,1300.0,,,,,,
KRDR,05-13-2020,17:05,SPECI,Normal,140,14.0,23.0,,9999.0,Light Rain,7.0,7.0,29.85,1011.9,61,,,,,,,,,,,,,,,1100.0,1100.0,OVC,1100.0,,,,,,
KRDR,05-13-2020,16:41,SPECI,Normal,140,14.0,21.0,,9999.0,,7.0,7.0,29.85,1011.9,,,,,,,,,,,,,,,,1000.0,1000.0,BKN,1000.0,OVC,1400.0,,,,
KRDR,05-13-2020,16:08,SPECI,Normal,150,15.0,21.0,,9999.0,Light Rain,7.0,7.0,29.87,1012.6,61,,,,,,,,,,,,,,,1100.0,1100.0,OVC,1100.0,,,,,,
KRDR,05-13-2020,16:05,SPECI,Normal,150,16.0,22.0,,9999.0,,7.0,7.0,29.87,1012.6,,,,,,,,,,,,,,,,1100.0,1100.0,OVC,1100.0,,,,,,
KRDR,05-13-2020,15:57,SPECI,Normal,140,18.0,24.0,,9999.0,Light Rain,7.0,7.0,29.87,1012.6,61,,,,,,,,,,,,,,,1100.0,1100.0,OVC,1100.0,,,,,,
KRDR,05-13-2020,15:56,METAR,Normal,140,14.0,24.0,160/28KTS,9999.0,,6.5,6.5,29.87,1012.6,,,,,,,,,,,.01 IN,,,,,1100.0,1100.0,BKN,1100.0,OVC,3300.0,,,,
KRDR,05-13-2020,15:49,SPECI,Normal,150,17.0,24.0,,9999.0,,7.0,7.0,29.87,1012.6,,,,,,,,,,,,,,,,1100.0,1100.0,BKN,1100.0,OVC,3300.0,,,,
KRDR,05-13-2020,15:40,SPECI,Normal,150,19.0,24.0,,9999.0,,6.0,6.0,29.88,1012.9,,,,,,,,,,,,,,,,1300.0,1300.0,BKN,1300.0,OVC,3100.0,,,,
KRDR,05-13-2020,15:36,SPECI,Normal,150,17.0,23.0,,9999.0,Light Rain,6.0,6.0,29.88,1012.9,61,,,,,,,,,,,,,,,1300.0,1300.0,BKN,1300.0,BKN,2800.0,OVC,3400.0,,
KRDR,05-13-2020,15:16,SPECI,Normal,150,17.0,23.0,,9999.0,Light Rain,6.0,6.0,29.88,1012.9,61,,,,,,,,,,,,,,,2900.0,1400.0,FEW,1400.0,SCT,2300.0,BKN,2900.0,,
KRDR,05-13-2020,14:56,METAR,Normal,150,20.0,24.0,,9999.0,Light Rain,6.4,6.3,29.89,1013.3,61,,,,,,,,,,.03 IN,.07 IN,,,,3600.0,2700.0,FEW,2700.0,OVC,3600.0,,,,
KRDR,05-13-2020,13:56,METAR,Normal,150,12.0,,,9999.0,Light Rain,6.0,5.9,29.93,1014.7,61,,,,,,,,,,.02 IN,,,,,3300.0,3300.0,OVC,3300.0,,,,,,
KRDR,05-13-2020,12:56,METAR,Normal,140,10.0,,,9999.0,Light Rain,5.5,5.4,29.95,1015.3,61,,,,,,,,,,.02 IN,,,,,3300.0,2200.0,FEW,2200.0,BKN,3300.0,,,,
KRDR,05-13-2020,12:16,SPECI,Normal,130,8.0,,,9999.0,Light Rain,6.0,5.0,29.96,1015.6,61,,,,,,,,,,,,,,,3100.0,2200.0,FEW,2200.0,OVC,3100.0,,,,
KRDR,05-13-2020,11:56,METAR,Normal,150,10.0,,,9999.0,Light Rain,5.4,4.8,29.96,1015.6,61,,,,,,,,,,.01 IN,,.01 IN,.01 IN,,2500.0,2500.0,BKN,2500.0,BKN,3000.0,BKN,3500.0,,
KRDR,05-13-2020,10:56,METAR,Normal,170,12.0,,,9999.0,Light Rain,6.2,2.6,29.99,1016.6,61,,,,,,,,,,TRACE,,,,,3000.0,3000.0,BKN,3000.0,BKN,4200.0,,,,
KRDR,05-13-2020,10:33,SPECI,Normal,200,14.0,19.0,,9999.0,Light Rain,7.0,0.0,29.98,1016.2,61,,,,,,,,,,,,,,4/8 Partly Cloudy,72000.0,2200.0,FEW,2200.0,FEW,2800.0,SCT,3500.0,,
KRDR,05-13-2020,10:22,SPECI,Normal,200,10.0,19.0,,9999.0,,7.0,0.0,29.98,1016.2,,,,,,,,,,,,,,,2/8 Mostly Clear,72000.0,2200.0,FEW,2200.0,,,,,,
KRDR,05-13-2020,10:14,SPECI,Normal,200,11.0,25.0,,9999.0,Light Rain,8.0,0.0,29.98,1016.2,61,,,,,,,,,,,,,,2/8 Mostly Clear,72000.0,2000.0,FEW,2000.0,,,,,,
KRDR,05-13-2020,09:56,METAR,Normal,170,8.0,,,9999.0,Light Drizzle,6.7,-1.2,29.98,1016.2,51,,,,,,,,,,TRACE,,,,2/8 Mostly Clear,72000.0,6500.0,FEW,6500.0,,,,,,
KRDR,05-13-2020,09:54,SPECI,Normal,160,8.0,,,9999.0,Light Drizzle,7.0,-1.0,29.98,1016.2,51,,,,,,,,,,,,,,2/8 Mostly Clear,72000.0,6500.0,FEW,6500.0,,,,,,
KRDR,05-13-2020,08:56,METAR,Normal,140,4.0,,,9999.0,,7.2,-3.1,29.99,1016.6,,,,,,,,,,,,,,,2/8 Mostly Clear,72000.0,7000.0,FEW,7000.0,,,,,,
KRDR,05-13-2020,07:56,METAR,Normal,140,6.0,,,9999.0,,7.1,-2.9,30.02,1017.6,,,,,,,,,,,,,,,4/8 Partly Cloudy,72000.0,7000.0,SCT,7000.0,,,,,,
KRDR,05-13-2020,06:56,METAR,Normal,160,7.0,,,9999.0,,6.4,-2.2,30.04,1018.3,,,,,,,,,,,,,,,2/8 Mostly Clear,72000.0,6500.0,FEW,6500.0,,,,,,
KRDR,05-13-2020,05:56,METAR,Normal,120,5.0,,,9999.0,,6.8,-3.5,30.04,1018.3,,,,,,,,,,,,,,,,14000.0,12000.0,SCT,12000.0,BKN,14000.0,,,,
KRDR,05-13-2020,04:56,METAR,Normal,120,4.0,,,9999.0,,6.8,-2.6,30.06,1019.1,,,,,,,,,,,,,,,,12000.0,12000.0,OVC,12000.0,,,,,,
KRDR,05-13-2020,03:56,METAR,Normal,110,4.0,,,9999.0,,7.1,-2.6,30.06,,,,,,,,,,,,,,,,,17000.0,17000.0,OVC,17000.0,,,,,,
KRDR,05-13-2020,02:56,METAR,Normal,110,4.0,,,9999.0,,7.9,-4.2,30.07,,,,,,,,,,,,,,,,,18000.0,18000.0,BKN,18000.0,,,,,,
KRDR,05-13-2020,01:56,METAR,Normal,150,5.0,,,9999.0,,7.9,-5.6,30.08,,,,,,,,,,,,,,,,Clear,72000.0,,,,,,,,,
KRDR,05-13-2020,00:56,METAR,Normal,170,7.0,,,9999.0,,9.4,-6.9,30.09,1020.3,,,,,,,,,,,,,,,Clear,72000.0,,,,,,,,,
KRDR,05-12-2020,23:56,METAR,Normal,160,7.0,,,9999.0,,10.6,-8.1,30.10,1020.7,,,,,,,,,,,,,,,2/8 Mostly Clear,72000.0,19000.0,FEW,19000.0,,,,,,
KRDR,05-12-2020,22:56,METAR,Normal,150,4.0,,,9999.0,,10.9,-7.9,30.12,1021.4,,,,,,,,,,,,,,,Clear,72000.0,,,,,,,,,
KRDR,05-12-2020,21:56,METAR,Normal,210,4.0,,,9999.0,,10.6,-8.6,30.14,1022.1,,,,,,,,,,,,,,,Clear,72000.0,,,,,,,,,
KRDR,05-12-2020,20:56,METAR,Normal,210,6.0,,,9999.0,,10.7,-8.0,30.17,1023.1,,,,,,,,,,,,,,,Clear,72000.0,,,,,,,,,
KRDR,05-12-2020,19:56,METAR,Normal,140,3.0,,,9999.0,,10.3,-8.4,30.19,1023.8,,,,,,,,,,,,,,,Clear,72000.0,,,,,,,,,
KRDR,05-12-2020,18:56,METAR,Normal,190,3.0,,,9999.0,,9.6,-8.5,30.22,1024.8,,,,,,,,,,,,,,,Clear,72000.0,,,,,,,,,
KRDR,05-12-2020,17:56,METAR,Normal,260,6.0,,,9999.0,,9.2,-9.3,30.24,1025.5,,,,,,,,,,,,,,,Clear,72000.0,,,,,,,,,
KRDR,05-12-2020,16:56,METAR,Normal,120,4.0,,,9999.0,,7.5,-10.8,30.26,1026.2,,,,,,,,,,,,,,,Clear,72000.0,,,,,,,,,
KRDR,05-12-2020,15:56,METAR,Normal,140,3.0,,,9999.0,,6.6,-10.6,30.27,1026.5,,,,,,,,,,,,,,,Clear,72000.0,,,,,,,,,
KRDR,05-12-2020,14:56,METAR,Calm,,0.0,,,9999.0,,5.3,-11.8,30.28,1026.9,,,,,,,,,,,,,,,Clear,72000.0,,,,,,,,,
KRDR,05-12-2020,13:56,METAR,Normal,50,3.0,,,9999.0,,3.4,-9.6,30.29,1027.2,,,,,,,,,,,,,,,Clear,72000.0,,,,,,,,,
KRDR,05-12-2020,12:56,METAR,Normal,20,4.0,,,9999.0,,0.5,-6.2,30.29,1027.1,,,,,,,,,,,,,,,Clear,72000.0,,,,,,,,,
KRDR,05-12-2020,11:56,METAR,Normal,320,3.0,,,9999.0,,-3.3,-6.4,30.29,1027.3,,,,,,,,,,,,,,,Clear,72000.0,,,,,,,,,
KRDR,05-12-2020,10:56,METAR,Normal,310,3.0,,,9999.0,,-5.2,-8.0,30.29,1027.3,,,,,,,,,,,,,,,Clear,72000.0,,,,,,,,,
KRDR,05-12-2020,09:56,METAR,Normal,320,4.0,,,9999.0,,-5.3,-8.1,30.28,1027.0,,,,,,,,,,,,,,,Clear,72000.0,,,,,,,,,
KRDR,05-12-2020,08:56,METAR,Normal,330,4.0,,,9999.0,,-4.1,-8.1,30.27,1026.6,,,,,,,,,,,,,,,Clear,72000.0,,,,,,,,,
KRDR,05-12-2020,07:56,METAR,Normal,350,4.0,,,9999.0,,-3.5,-8.0,30.27,1026.6,,,,,,,,,,,,,,,Clear,72000.0,,,,,,,,,
KRDR,05-12-2020,06:56,METAR,Normal,320,4.0,,,9999.0,,-3.5,-8.0,30.27,1026.6,,,,,,,,,,,,,,,Clear,72000.0,,,,,,,,,
KRDR,05-12-2020,05:56,METAR,Normal,320,3.0,,,9999.0,,-3.3,-7.8,30.27,1026.7,,,,,,,,,,,,,,,Clear,72000.0,,,,,,,,,
KRDR,05-12-2020,04:56,METAR,Normal,350,6.0,,,9999.0,,-1.7,-8.5,30.27,1026.6,,,,,,,,,,,,,,,Clear,72000.0,,,,,,,,,
KRDR,05-12-2020,03:56,METAR,Normal,10,8.0,,,9999.0,,-0.7,-9.6,30.28,1027.0,,,,,,,,,,,,,,,Clear,72000.0,,,,,,,,,
KRDR,05-12-2020,02:56,METAR,Normal,20,8.0,,,9999.0,,0.4,-10.2,30.27,1026.7,,,,,,,,,,,,,,,Clear,72000.0,,,,,,,,,
KRDR,05-12-2020,01:56,METAR,Normal,10,8.0,,,9999.0,,3.1,-11.3,30.25,1025.9,,,,,,,,,,,,,,,Clear,72000.0,,,,,,,,,
KRDR,05-12-2020,00:56,METAR,Normal,360,11.0,,,9999.0,,6.7,-12.5,30.25,1025.9,,,,,,,,,,,,,,,Clear,72000.0,,,,,,,,,
KRDR,05-11-2020,23:56,METAR,Normal,10,9.0,,,9999.0,,7.6,-12.8,30.26,1026.3,,,,,,,,,,,,,,,Clear,72000.0,,,,,,,,,
KRDR,05-11-2020,22:56,METAR,Normal,350,11.0,16.0,,9999.0,,8.1,-12.9,30.27,1026.6,,,,,,,,,,,,,,,Clear,72000.0,,,,,,,,,
KRDR,05-11-2020,22:32,SPECI,Normal,360,13.0,,,9999.0,,8.0,-12.0,30.28,1027.0,,,,,,,,,,,,,,,Clear,72000.0,,,,,,,,,
KRDR,05-11-2020,22:22,SPECI,Normal,40,11.0,16.0,,9999.0,,8.0,-13.0,30.28,1027.0,,,,,,,,,,,,,,,Clear,72000.0,,,,,,,,,
KRDR,05-11-2020,22:01,SPECI,Normal,20,10.0,,,9999.0,,8.0,-12.0,30.29,1027.3,,,,,,,,,,,,,,,Clear,72000.0,,,,,,,,,
KRDR,05-11-2020,21:56,METAR,Normal,360,8.0,,,9999.0,,8.2,-12.3,30.29,1027.3,,,,,,,,,,,,,,,Clear,72000.0,,,,,,,,,
KRDR,05-11-2020,20:56,METAR,Normal,30,12.0,16.0,,9999.0,,7.8,-12.6,30.30,1027.6,,,,,,,,,,,,,,,Clear,72000.0,,,,,,,,,
KRDR,05-11-2020,20:46,SPECI,Normal,20,10.0,18.0,,9999.0,,8.0,-11.0,30.31,1028.0,,,,,,,,,,,,,,,Clear,72000.0,,,,,,,,,
KRDR,05-11-2020,19:56,METAR,Normal,350,14.0,,,9999.0,,7.8,-11.0,30.33,1028.6,,,,,,,,,,,,,,,Clear,72000.0,,,,,,,,,
KRDR,05-11-2020,19:27,SPECI,Normal,10,11.0,,,9999.0,,7.0,-11.0,30.33,1028.6,,,,,,,,,,,,,,,Clear,72000.0,,,,,,,,,
KRDR,05-11-2020,19:20,SPECI,Normal,20,10.0,17.0,,9999.0,,7.0,-10.0,30.34,1028.9,,,,,,,,,,,,,,,Clear,72000.0,,,,,,,,,
KRDR,05-11-2020,18:56,METAR,Normal,30,10.0,16.0,,9999.0,,6.5,-10.3,30.34,1028.9,,,,,,,,,,,,,,,Clear,72000.0,,,,,,,,,
KRDR,05-11-2020,17:56,METAR,Normal,30,6.0,15.0,,9999.0,,5.9,-11.2,30.37,1029.9,,,,,,,,,,,,,,,Clear,72000.0,,,,,,,,,
KRDR,05-11-2020,16:56,METAR,Normal,350,7.0,,,9999.0,,5.0,-10.0,30.38,1030.3,,,,,,,,,,,,,,,Clear,72000.0,,,,,,,,,
KRDR,05-11-2020,15:56,METAR,Normal,350,11.0,16.0,,9999.0,,3.8,-9.2,30.40,1031.0,,,,,,,,,,,,,,,Clear,72000.0,,,,,,,,,
KRDR,05-11-2020,14:56,METAR,Normal,360,9.0,,,9999.0,,1.9,-7.4,30.40,1031.0,,,,,,,,,,,,,,,Clear,72000.0,,,,,,,,,
KRDR,05-11-2020,13:56,METAR,Normal,360,11.0,,,9999.0,,0.5,-7.0,30.41,1031.3,,,,,,,,,,,,,,,Clear,72000.0,,,,,,,,,
KRDR,05-11-2020,12:56,METAR,Normal,350,10.0,,,9999.0,,-1.4,-7.3,30.41,1031.3,,,,,,,,,,,,,,,Clear,72000.0,,,,,,,,,
KRDR,05-11-2020,11:56,METAR,Normal,350,9.0,,,9999.0,,-3.1,-7.4,30.40,1031.0,,,,,,,,,,,,,,,Clear,72000.0,,,,,,,,,
KRDR,05-11-2020,10:56,METAR,Normal,340,7.0,,,9999.0,,-4.2,-7.3,30.40,1031.0,,,,,,,,,,,,,,,Clear,72000.0,,,,,,,,,
KRDR,05-11-2020,09:56,METAR,Normal,350,9.0,,,9999.0,,-3.8,-7.4,30.39,1030.6,,,,,,,,,,,,,,,Clear,72000.0,,,,,,,,,
KRDR,05-11-2020,08:56,METAR,Normal,350,8.0,,,9999.0,,-3.0,-7.2,30.39,1030.6,,,,,,,,,,,,,,,Clear,72000.0,,,,,,,,,
KRDR,05-11-2020,07:56,METAR,Normal,360,8.0,,,9999.0,,-2.4,-7.7,30.39,1030.6,,,,,,,,,,,,,,,Clear,72000.0,,,,,,,,,
KRDR,05-11-2020,06:56,METAR,Normal,360,10.0,,,9999.0,,-1.4,-7.7,30.39,1030.6,,,,,,,,,,,,,,,Clear,72000.0,,,,,,,,,
KRDR,05-11-2020,05:56,METAR,Normal,10,10.0,,,9999.0,,-0.4,-7.7,30.38,1030.2,,,,,,,,,,,,,,,Clear,72000.0,,,,,,,,,
KRDR,05-11-2020,04:56,METAR,Normal,10,8.0,,,9999.0,,0.1,-7.2,30.38,1030.3,,,,,,,,,,,,,,,Clear,72000.0,,,,,,,,,
KRDR,05-11-2020,03:56,METAR,Normal,10,14.0,,,9999.0,,2.1,-8.3,30.37,1029.9,,,,,,,,,,,,,,,Clear,72000.0,,,,,,,,,
KRDR,05-11-2020,02:56,METAR,Normal,360,11.0,,,9999.0,,3.0,-6.9,30.36,1029.6,,,,,,,,,,,,,,,Clear,72000.0,,,,,,,,,
KRDR,05-11-2020,01:56,METAR,Normal,360,14.0,18.0,,9999.0,,4.7,-6.2,30.35,1029.2,,,,,,,,,,,,,,,2/8 Mostly Clear,72000.0,16000.0,FEW,16000.0,,,,,,
KRDR,05-11-2020,00:56,METAR,Normal,360,16.0,24.0,360/26KTS,9999.0,,7.2,-6.5,30.34,1028.9,,,,,,,,,,,,,,,Clear,72000.0,,,,,,,,,
KRDR,05-10-2020,23:56,METAR,Normal,360,17.0,25.0,350/27KTS,9999.0,,8.4,-7.0,30.33,1028.4,,,,,,,,,,,,,,,4/8 Partly Cloudy,72000.0,7000.0,SCT,7000.0,,,,,,
KRDR,05-10-2020,22:56,METAR,Normal,360,18.0,25.0,340/28KTS,9999.0,,9.5,-7.2,30.33,1028.4,,,,,,,,,,,,,,,4/8 Partly Cloudy,72000.0,7000.0,SCT,7000.0,,,,,,
KRDR,05-10-2020,21:56,METAR,Normal,20,18.0,24.0,360/27KTS,9999.0,,9.0,-7.2,30.34,1028.8,,,,,,,,,,,,,,,,7000.0,7000.0,OVC,7000.0,,,,,,
KRDR,05-10-2020,20:56,METAR,Normal,10,16.0,23.0,010/27KTS,9999.0,,9.0,-6.0,30.34,1028.7,,,,,,,,,,,,,,,,7000.0,7000.0,BKN,7000.0,,,,,,
KRDR,05-10-2020,19:56,METAR,Normal,20,19.0,26.0,350/29KTS,9999.0,,9.7,-5.4,30.35,1029.1,,,,,,,,,,,,,,,4/8 Partly Cloudy,72000.0,6000.0,SCT,6000.0,,,,,,
KRDR,05-10-2020,18:56,METAR,Normal,20,17.0,26.0,360/28KTS,9999.0,,8.9,-4.7,30.35,1029.1,,,,,,,,,,,,,,,4/8 Partly Cloudy,72000.0,6000.0,SCT,6000.0,,,,,,
KRDR,05-10-2020,17:56,METAR,Normal,10,21.0,27.0,030/28KTS,9999.0,,7.8,-6.0,30.37,1029.7,,,,,,,,,,,,,,,2/8 Mostly Clear,72000.0,5500.0,FEW,5500.0,,,,,,
KRDR,05-10-2020,16:56,METAR,Normal,20,19.0,24.0,,9999.0,,6.5,-5.2,30.37,1029.8,,,,,,,,,,,,,,,Clear,72000.0,,,,,,,,,
KRDR,05-10-2020,15:56,METAR,Normal,360,19.0,26.0,020/27KTS,9999.0,,5.2,-5.5,30.37,1029.9,,,,,,,,,,,,,,,Clear,72000.0,,,,,,,,,
KRDR,05-10-2020,14:56,METAR,Normal,360,17.0,21.0,,9999.0,,3.8,-5.2,30.37,1029.9,,,,,,,,,,,,,,,Clear,72000.0,,,,,,,,,
KRDR,05-10-2020,13:56,METAR,Normal,360,18.0,,,9999.0,,2.9,-5.0,30.36,1029.5,,,,,,,,,,,,,,,Clear,72000.0,,,,,,,,,
KRDR,05-10-2020,12:56,METAR,Normal,360,15.0,21.0,,9999.0,,1.6,-4.5,30.35,1029.2,,,,,,,,,,,,,,,,6500.0,6500.0,OVC,6500.0,,,,,,
KRDR,05-10-2020,11:56,METAR,Normal,360,14.0,,,9999.0,,1.0,-4.1,30.34,1028.9,,,,,,,,,,,,,,.18 IN,,13000.0,6500.0,SCT,6500.0,BKN,13000.0,,,,
KRDR,05-10-2020,10:56,METAR,Normal,10,13.0,,,9999.0,,0.9,-4.0,30.31,1027.8,,,,,,,,,,,,,,,,4700.0,4700.0,BKN,4700.0,OVC,6000.0,,,,
KRDR,05-10-2020,09:56,METAR,Normal,360,13.0,18.0,,9999.0,,1.8,-3.3,30.29,1027.1,,,,,,,,,,,,,,,,6500.0,6500.0,OVC,6500.0,,,,,,
KRDR,05-10-2020,08:56,METAR,Normal,360,15.0,20.0,,9999.0,,2.2,-3.3,30.28,1026.8,,,,,,,,,,,,,,,,6500.0,6500.0,OVC,6500.0,,,,,,
KRDR,05-10-2020,07:56,METAR,Normal,360,14.0,21.0,,9999.0,,2.7,-3.4,30.27,1026.5,,,,,,,,,,,,,,,,6500.0,6500.0,OVC,6500.0,,,,,,
KRDR,05-10-2020,06:56,METAR,Normal,360,14.0,21.0,,9999.0,,3.1,-3.1,30.27,1026.5,,,,,,,,,,,,,,,,6000.0,6000.0,OVC,6000.0,,,,,,
KRDR,05-10-2020,05:56,METAR,Normal,360,13.0,,,9999.0,,3.6,-2.0,30.26,1026.2,,,,,,,,,,,,,,,,6000.0,6000.0,OVC,6000.0,,,,,,
KRDR,05-10-2020,04:56,METAR,Normal,360,13.0,,,9999.0,,3.6,-2.4,30.25,1025.9,,,,,,,,,,,,,,,,6000.0,6000.0,BKN,6000.0,,,,,,
KRDR,05-10-2020,03:56,METAR,Normal,10,12.0,,,9999.0,,3.6,-2.6,30.24,1025.6,,,,,,,,,,,,,,,Clear,72000.0,,,,,,,,,
KRDR,05-10-2020,02:56,METAR,Normal,10,12.0,,,9999.0,,4.3,-2.6,30.23,1025.3,,,,,,,,,,,,,,,Clear,72000.0,,,,,,,,,
KRDR,05-10-2020,01:56,METAR,Normal,20,14.0,,,9999.0,,5.2,-2.6,30.20,1024.1,,,,,,,,,,,,,,,Clear,72000.0,,,,,,,,,
KRDR,05-09-2020,23:56,METAR,Normal,10,17.0,24.0,340/27KTS,9999.0,,7.0,-5.4,30.17,1023.0,,,,,,,,,,,,,TRACE,,Clear,72000.0,,,,,,,,,
KRDR,05-09-2020,22:56,METAR,Normal,10,20.0,26.0,,9999.0,,7.6,-6.2,30.15,1022.2,,,,,,,,,,,,,,,4/8 Partly Cloudy,72000.0,11000.0,SCT,11000.0,,,,,,
KRDR,05-09-2020,21:56,METAR,Normal,10,20.0,25.0,350/26KTS,9999.0,,7.2,-5.5,30.14,1021.9,,,,,,,,,,,,,,,2/8 Mostly Clear,72000.0,9500.0,FEW,9600.0,,,,,,
KRDR,05-09-2020,20:56,METAR,Normal,360,15.0,19.0,,9999.0,,6.3,1.4,30.13,1021.6,,,,,,,,,,,,TRACE,,,4/8 Partly Cloudy,72000.0,7000.0,SCT,7000.0,,,,,,
KRDR,05-09-2020,19:56,METAR,Normal,330,8.0,,,9999.0,,4.1,3.2,30.13,1021.7,,,,,,,,,,,,,,,Clear,72000.0,,,,,,,,,
KRDR,05-09-2020,18:56,METAR,Normal,10,8.0,,,9999.0,,2.7,2.7,30.14,1022.0,,,,,,,,,,,TRACE,,,,4/8 Partly Cloudy,72000.0,800.0,SCT,800.0,,,,,,
KRDR,05-09-2020,18:36,SPECI,Normal,20,8.0,,,9999.0,Light Rain,2.0,2.0,30.14,1022.1,61,,,,,,,,,,,,,,,700.0,800.0,BKN,800.0,,,,,,
KRDR,05-09-2020,18:16,SPECI,Normal,50,10.0,,,9999.0,Light Rain,2.0,2.0,30.14,1022.0,61,,,,,,,,,,,,,,,1000.0,600.0,FEW,600.0,OVC,1000.0,,,,
KRDR,05-09-2020,17:56,METAR,Normal,40,12.0,,,8000.0,Light Rain/Mist,1.4,1.4,30.14,1022.1,61,10,,,,,,,,,.03 IN,,.21 IN,,,600.0,800.0,OVC,800.0,,,,,,
KRDR,05-09-2020,17:26,SPECI,Normal,60,10.0,,,4800.0,Light Snow/Mist,1.0,1.0,30.14,1022.1,71,10,,,,,,,,,,,,,,400.0,600.0,OVC,600.0,,,,,,
KRDR,05-09-2020,17:16,SPECI,Normal,60,11.0,,,4800.0,Light Snow/Mist,1.0,1.0,30.13,1021.8,71,10,,,,,,,,,,,,,,400.0,400.0,OVC,400.0,,,,,,
KRDR,05-09-2020,17:06,SPECI,Normal,60,12.0,,,3000.0,Light Snow/Mist,1.0,1.0,30.13,1021.7,71,10,,,,,,,,,,,,,,400.0,400.0,OVC,400.0,,,,,,
KRDR,05-09-2020,16:56,METAR,Normal,60,12.0,,,1800.0,Light Snow/Mist,0.5,0.5,30.13,1021.7,71,10,,,,,,,,,.04 IN,,,,,400.0,400.0,OVC,400.0,,,,,,
KRDR,05-09-2020,16:51,SPECI,Normal,60,11.0,,,1400.0,Light Snow/Mist,0.0,0.0,30.13,1021.8,71,10,,,,,,,,,,,,,Sky Obscured (Unable to Estimate),400.0,400.0,,400.0,,,,,,
KRDR,05-09-2020,16:21,SPECI,Normal,60,11.0,,,1000.0,Light Snow/Mist,0.0,0.0,30.12,1021.4,71,10,,,,,,,,,,,,,Sky Obscured (Unable to Estimate),400.0,400.0,,400.0,,,,,,
KRDR,05-09-2020,16:11,SPECI,Normal,60,11.0,,,1400.0,Light Snow/Mist,1.0,1.0,30.11,1021.0,71,10,,,,,,,,,,,,,Sky Obscured (Unable to Estimate),400.0,500.0,,500.0,,,,,,
KRDR,05-09-2020,16:06,SPECI,Normal,50,13.0,,,2400.0,Light Snow/Mist,1.0,1.0,30.11,1021.0,71,10,,,,,,,,,,,,,,400.0,400.0,OVC,400.0,,,,,,
KRDR,05-09-2020,15:56,METAR,Normal,60,11.0,,,4800.0,Light Snow/Mist,0.8,0.8,30.11,1021.0,71,10,,,,,,,,,.01 IN,,,,,400.0,400.0,OVC,400.0,,,,,,
KRDR,05-09-2020,15:46,SPECI,Normal,50,12.0,,,4800.0,Light Snow/Mist,1.0,1.0,30.11,1021.0,71,10,,,,,,,,,,,,,,300.0,300.0,OVC,300.0,,,,,,
KRDR,05-09-2020,15:36,SPECI,Normal,60,13.0,,,3000.0,Light Snow/Mist,1.0,1.0,30.11,1021.1,71,10,,,,,,,,,,,,,,300.0,300.0,OVC,300.0,,,,,,
KRDR,05-09-2020,15:16,SPECI,Normal,70,12.0,,,4800.0,Light Snow/Mist,1.0,1.0,30.10,1020.7,71,10,,,,,,,,,,,,,,300.0,300.0,OVC,300.0,,,,,,
KRDR,05-09-2020,15:06,SPECI,Normal,70,12.0,,,4800.0,Light Snow/Mist,1.0,1.0,30.09,1020.3,71,10,,,,,,,,,,,,,,300.0,400.0,OVC,400.0,,,,,,
KRDR,05-09-2020,14:56,METAR,Normal,80,11.0,,,3600.0,Light Snow/Mist,0.8,0.8,30.09,1020.3,71,10,,,,,,,,,.02 IN,.12 IN,,,,400.0,400.0,OVC,400.0,,,,,,
KRDR,05-09-2020,14:37,SPECI,Normal,80,11.0,,,4400.0,Light Snow/Mist,1.0,1.0,30.09,1020.3,71,10,,,,,,,,,,,,,,500.0,500.0,OVC,500.0,,,,,,
KRDR,05-09-2020,13:57,SPECI,Normal,90,8.0,,,4800.0,Light Snow/Mist,1.0,1.0,30.09,1020.3,71,10,,,,,,,,,,,,,,500.0,500.0,OVC,500.0,,,,,,
KRDR,05-09-2020,13:56,METAR,Normal,90,9.0,,,4400.0,Light Snow/Mist,0.8,0.8,30.09,1020.3,71,10,,,,,,,,,.07 IN,,,,,500.0,500.0,OVC,500.0,,,,,,
KRDR,05-09-2020,13:24,SPECI,Normal,100,9.0,,,2400.0,Light Snow/Mist,1.0,1.0,30.08,1019.9,,,,71,10,,,,,,,,,,,900.0,900.0,OVC,900.0,,,,,,
KRDR,05-09-2020,13:09,SPECI,Normal,110,8.0,,,6400.0,Light Snow/Mist,2.0,2.0,30.08,1019.9,,,,71,10,,,,,,,,,,,900.0,900.0,OVC,900.0,,,,,,
KRDR,05-09-2020,12:56,METAR,Normal,110,10.0,,,6400.0,Rain/Mist,2.0,1.9,30.08,1019.9,,,,61,10,,,,,,.04 IN,,,,,1200.0,1200.0,OVC,1200.0,,,,,,
KRDR,05-09-2020,12:37,SPECI,Normal,100,12.0,,,8000.0,Light Rain/Mist,3.0,2.0,30.08,1019.8,61,10,,,,,,,,,,,,,,1300.0,1300.0,BKN,1300.0,OVC,3000.0,,,,
KRDR,05-09-2020,12:24,SPECI,Normal,120,8.0,,,9999.0,Light Rain/Mist,3.0,2.0,30.08,1019.8,61,10,,,,,,,,,,,,,,1100.0,1100.0,BKN,1100.0,OVC,3000.0,,,,
KRDR,05-09-2020,12:06,SPECI,Normal,130,7.0,,,9999.0,Light Rain/Mist,3.0,2.0,30.08,1019.8,61,10,,,,,,,,,,,,,,1900.0,1900.0,BKN,1900.0,OVC,3000.0,,,,
KRDR,05-09-2020,11:56,METAR,Normal,120,7.0,,,9999.0,Light Rain/Mist,3.6,0.6,30.07,1019.4,61,10,,,,,,,,,TRACE,,TRACE,,,2100.0,2100.0,BKN,2100.0,OVC,3000.0,,,,
KRDR,05-09-2020,11:36,SPECI,Normal,140,5.0,,,9999.0,Rain,4.0,0.0,30.07,1019.4,,,,61,,,,,,,,,,,,1500.0,1500.0,BKN,1500.0,OVC,3000.0,,,,
KRDR,05-09-2020,11:26,SPECI,Normal,120,5.0,,,9999.0,Light Drizzle/Mist,4.0,0.0,30.07,1019.4,51,10,,,,,,,,,,,,,,1700.0,1700.0,BKN,1700.0,OVC,3000.0,,,,
KRDR,05-09-2020,11:07,SPECI,Normal,110,4.0,,,9999.0,Drizzle/Mist,4.0,0.0,30.08,1019.8,,,,51,10,,,,,,,,,,,3000.0,3000.0,BKN,3000.0,OVC,5000.0,,,,
KRDR,05-09-2020,10:56,METAR,Normal,90,5.0,,,9999.0,,4.0,-0.2,30.08,1019.8,,,,,,,,,,,,,,,,3000.0,3000.0,BKN,3000.0,OVC,5500.0,,,,
KRDR,05-09-2020,09:56,METAR,Normal,130,5.0,,,9999.0,,4.8,-2.1,30.09,1020.1,,,,,,,,,,,,,,,,3000.0,3000.0,BKN,3000.0,OVC,9100.0,,,,
KRDR,05-09-2020,08:56,METAR,Normal,110,9.0,,,9999.0,,4.7,-2.0,30.09,1020.1,,,,,,,,,,,,,,,,3000.0,3000.0,BKN,3000.0,OVC,9100.0,,,,
KRDR,05-09-2020,07:56,METAR,Normal,130,4.0,,,9999.0,,4.9,-1.1,30.11,1020.8,,,,,,,,,,,,,,,2/8 Mostly Clear,72000.0,10000.0,FEW,10000.0,,,,,,
KRDR,05-09-2020,06:56,METAR,Calm,,0.0,,,9999.0,,4.5,-0.5,30.13,1021.5,,,,,,,,,,,,,,,,9500.0,9500.0,BKN,9600.0,,,,,,
KRDR,05-09-2020,05:56,METAR,Normal,170,5.0,,,9999.0,,5.3,-2.3,30.13,1021.6,,,,,,,,,,,,,,,,11000.0,11000.0,BKN,11000.0,,,,,,
KRDR,05-09-2020,04:56,METAR,Normal,150,6.0,,,9999.0,,6.3,-3.4,30.13,1021.6,,,,,,,,,,,,,,,2/8 Mostly Clear,72000.0,8000.0,FEW,8000.0,,,,,,
KRDR,05-09-2020,03:56,METAR,Normal,130,5.0,,,9999.0,,6.4,-4.1,30.15,1022.2,,,,,,,,,,,,,,,,12000.0,12000.0,OVC,12000.0,,,,,,
KRDR,05-09-2020,02:56,METAR,Normal,110,4.0,,,9999.0,,6.8,-4.9,30.17,1023.0,,,,,,,,,,,,,,,,10000.0,10000.0,BKN,10000.0,OVC,13000.0,,,,
KRDR,05-09-2020,01:56,METAR,Normal,90,3.0,,,9999.0,,7.4,-6.0,30.17,1023.1,,,,,,,,,,,,,,,,12000.0,12000.0,BKN,12000.0,BKN,15000.0,,,,
KRDR,05-09-2020,00:56,METAR,Normal,30,4.0,,,9999.0,,8.8,-7.0,30.18,1023.3,,,,,,,,,,,,,,,2/8 Mostly Clear,72000.0,14000.0,FEW,14000.0,,,,,,
KRDR,05-08-2020,23:56,METAR,Normal,40,5.0,,,9999.0,,9.8,-7.4,30.19,1023.7,,,,,,,,,,,,,,,Clear,72000.0,,,,,,,,,
KRDR,05-08-2020,22:56,METAR,Normal,10,4.0,,,9999.0,,10.3,-7.4,30.21,1024.4,,,,,,,,,,,,,,,Clear,72000.0,,,,,,,,,
KRDR,05-08-2020,21:56,METAR,Normal,20,8.0,,,9999.0,,9.8,-7.4,30.22,1024.8,,,,,,,,,,,,,,,Clear,72000.0,,,,,,,,,
KRDR,05-08-2020,20:56,METAR,Normal,20,6.0,,,9999.0,,9.4,-6.9,30.24,1025.4,,,,,,,,,,,,,,,Clear,72000.0,,,,,,,,,
KRDR,05-08-2020,19:56,METAR,Normal,350,8.0,,,9999.0,,8.7,-5.9,30.26,1026.1,,,,,,,,,,,,,,,Clear,72000.0,,,,,,,,,
KRDR,05-08-2020,18:56,METAR,Normal,350,5.0,,,9999.0,,8.1,-5.7,30.29,1027.1,,,,,,,,,,,,,,,Clear,72000.0,,,,,,,,,
KRDR,05-08-2020,17:56,METAR,Normal,40,8.0,,,9999.0,,7.0,-5.0,30.31,1027.8,,,,,,,,,,,,,,,Clear,72000.0,,,,,,,,,
KRDR,05-08-2020,16:56,METAR,Normal,20,6.0,,,9999.0,,5.9,-5.7,30.33,1028.5,,,,,,,,,,,,,,,Clear,72000.0,,,,,,,,,
KRDR,05-08-2020,15:56,METAR,Normal,50,7.0,,,9999.0,,5.1,-4.7,30.34,1028.9,,,,,,,,,,,,,,,Clear,72000.0,,,,,,,,,
KRDR,05-08-2020,14:56,METAR,Normal,30,7.0,,,9999.0,,3.5,-4.2,30.34,1028.9,,,,,,,,,,,,,,,Clear,72000.0,,,,,,,,,
KRDR,05-08-2020,13:56,METAR,Normal,360,6.0,,,9999.0,,1.6,-3.1,30.36,1029.5,,,,,,,,,,,,,,,Clear,72000.0,,,,,,,,,
KRDR,05-08-2020,12:56,METAR,Normal,10,9.0,,,9999.0,,0.1,-3.5,30.37,1029.9,,,,,,,,,,,,,,,Clear,72000.0,,,,,,,,,
KRDR,05-08-2020,11:56,METAR,Normal,360,6.0,,,9999.0,,-1.6,-4.0,30.35,1029.2,,,,,,,,,,,,,,,Clear,72000.0,,,,,,,,,
KRDR,05-08-2020,10:56,METAR,Normal,10,8.0,,,9999.0,,-2.5,-4.7,30.34,1028.9,,,,,,,,,,,,,,,Clear,72000.0,,,,,,,,,
KRDR,05-08-2020,09:56,METAR,Normal,340,8.0,,,9999.0,,-2.6,-4.6,30.33,1028.5,,,,,,,,,,,,,,,Clear,72000.0,,,,,,,,,
KRDR,05-08-2020,08:56,METAR,Normal,360,7.0,,,9999.0,,-1.8,-4.6,30.33,1028.5,,,,,,,,,,,,,,,Clear,72000.0,,,,,,,,,
KRDR,05-08-2020,07:56,METAR,Normal,360,8.0,,,9999.0,,-0.9,-4.6,30.33,1028.5,,,,,,,,,,,,,,,Clear,72000.0,,,,,,,,,
KRDR,05-08-2020,06:56,METAR,Normal,350,8.0,,,9999.0,,-0.4,-4.7,30.32,1028.1,,,,,,,,,,,,,,,Clear,72000.0,,,,,,,,,
KRDR,05-08-2020,05:56,METAR,Normal,350,9.0,,,9999.0,,0.8,-4.8,30.32,1028.1,,,,,,,,,,,,,,,Clear,72000.0,,,,,,,,,
KRDR,05-08-2020,04:56,METAR,Normal,10,11.0,,,9999.0,,2.1,-5.5,30.30,1027.4,,,,,,,,,,,,,,,Clear,72000.0,,,,,,,,,
KRDR,05-08-2020,03:56,METAR,Normal,10,12.0,,,9999.0,,3.4,-6.0,30.29,1027.1,,,,,,,,,,,,,,,Clear,72000.0,,,,,,,,,
KRDR,05-08-2020,02:56,METAR,Normal,350,11.0,,,9999.0,,4.1,-5.7,30.27,1026.4,,,,,,,,,,,,,,,Clear,72000.0,,,,,,,,,
KRDR,05-08-2020,01:56,METAR,Normal,10,11.0,19.0,,9999.0,,5.9,-7.0,30.24,1025.4,,,,,,,,,,,,,,,Clear,72000.0,,,,,,,,,
KRDR,05-08-2020,00:56,METAR,Normal,20,15.0,22.0,,9999.0,,7.9,-9.1,30.22,1024.8,,,,,,,,,,,,,,,Clear,72000.0,,,,,,,,,
KRDR,05-07-2020,23:56,METAR,Normal,30,18.0,24.0,020/28KTS,9999.0,,9.1,-10.4,30.20,1024.1,,,,,,,,,,,,,,,Clear,72000.0,,,,,,,,,
KRDR,05-07-2020,22:56,METAR,Normal,30,20.0,26.0,010/27KTS,9999.0,,10.0,-11.3,30.19,1023.7,,,,,,,,,,,,,,,Clear,72000.0,,,,,,,,,
KRDR,05-07-2020,21:56,METAR,Normal,20,19.0,26.0,020/27KTS,9999.0,,10.1,-11.3,30.19,1023.7,,,,,,,,,,,,,,,Clear,72000.0,,,,,,,,,
KRDR,05-07-2020,20:56,METAR,Normal,20,22.0,28.0,020/28KTS,9999.0,,10.2,-9.5,30.19,1023.7,,,,,,,,,,,,,,,Clear,72000.0,,,,,,,,,
KRDR,05-07-2020,19:56,METAR,Normal,20,20.0,25.0,350/26KTS,9999.0,,9.7,-8.9,30.20,1024.0,,,,,,,,,,,,,,,Clear,72000.0,,,,,,,,,
KRDR,05-07-2020,18:56,METAR,Normal,30,19.0,26.0,020/26KTS,9999.0,,9.3,-9.2,30.20,1024.0,,,,,,,,,,,,,,,Clear,72000.0,,,,,,,,,
KRDR,05-07-2020,17:56,METAR,Normal,20,17.0,,,9999.0,,8.4,-9.1,30.22,1024.7,,,,,,,,,,,,,,,Clear,72000.0,,,,,,,,,
KRDR,05-07-2020,16:56,METAR,Normal,20,14.0,24.0,,9999.0,,7.4,-7.8,30.22,1024.7,,,,,,,,,,,,,,,Clear,72000.0,,,,,,,,,
KRDR,05-07-2020,15:56,METAR,Normal,20,12.0,,,9999.0,,6.6,-7.4,30.23,1024.9,,,,,,,,,,,,,,,Clear,72000.0,,,,,,,,,
KRDR,05-07-2020,14:56,METAR,Normal,20,9.0,,,9999.0,,5.0,-3.5,30.24,1025.3,,,,,,,,,,,,,,,Clear,72000.0,,,,,,,,,
KRDR,05-07-2020,13:56,METAR,Normal,30,10.0,,,9999.0,,2.9,-3.5,30.23,1025.0,,,,,,,,,,,,,,,Clear,72000.0,,,,,,,,,
KRDR,05-07-2020,12:56,METAR,Normal,30,11.0,,,9999.0,,0.5,-3.6,30.22,1024.5,,,,,,,,,,,,,,,Clear,72000.0,,,,,,,,,
KRDR,05-07-2020,11:56,METAR,Normal,20,8.0,,,9999.0,,-1.0,-3.7,30.21,1024.2,,,,,,,,,,,,,,,Clear,72000.0,,,,,,,,,
KRDR,05-07-2020,10:56,METAR,Normal,10,9.0,,,9999.0,,-1.8,-4.6,30.21,1024.2,,,,,,,,,,,,,,,Clear,72000.0,,,,,,,,,
KRDR,05-07-2020,09:56,METAR,Normal,10,9.0,,,9999.0,,-1.0,-4.7,30.21,1024.1,,,,,,,,,,,,,,,Clear,72000.0,,,,,,,,,
KRDR,05-07-2020,08:56,METAR,Normal,10,8.0,,,9999.0,,-0.7,-4.8,30.20,1023.8,,,,,,,,,,,,,,,Clear,72000.0,,,,,,,,,
KRDR,05-07-2020,07:56,METAR,Normal,10,6.0,,,9999.0,,0.1,-4.4,30.20,1023.8,,,,,,,,,,,,,,,Clear,72000.0,,,,,,,,,
KRDR,05-07-2020,06:56,METAR,Normal,10,8.0,,,9999.0,,1.1,-3.0,30.20,1023.8,,,,,,,,,,,,,,,Clear,72000.0,,,,,,,,,
KRDR,05-07-2020,05:56,METAR,Normal,10,6.0,,,9999.0,,1.2,-1.2,30.20,1023.9,,,,,,,,,,,,,,,Clear,72000.0,,,,,,,,,
KRDR,05-07-2020,04:56,METAR,Normal,20,6.0,,,9999.0,,3.4,-0.2,30.18,1023.1,,,,,,,,,,,,,,,Clear,72000.0,,,,,,,,,
KRDR,05-07-2020,03:56,METAR,Normal,50,8.0,,,9999.0,,6.3,0.8,30.17,1022.7,,,,,,,,,,,,,,,Clear,72000.0,,,,,,,,,
KRDR,05-07-2020,02:56,METAR,Normal,30,6.0,,,9999.0,,6.9,1.4,30.17,1022.7,,,,,,,,,,,,,,,Clear,72000.0,,,,,,,,,
KRDR,05-07-2020,01:56,METAR,Normal,20,6.0,,,9999.0,,9.4,1.6,30.16,1022.4,,,,,,,,,,,,,,,Clear,72000.0,,,,,,,,,
KRDR,05-07-2020,00:56,METAR,Normal,30,10.0,,,9999.0,,13.7,0.7,30.16,1022.3,,,,,,,,,,,,,,,Clear,72000.0,,,,,,,,,
KRDR,05-06-2020,23:56,METAR,Normal,10,12.0,,,9999.0,,15.5,2.0,30.17,1022.6,,,,,,,,,,,,,,,Clear,72000.0,,,,,,,,,
KRDR,05-06-2020,22:56,METAR,Normal,40,6.0,,,9999.0,,15.9,2.7,30.17,1022.7,,,,,,,,,,,,,,,Clear,72000.0,,,,,,,,,
KRDR,05-06-2020,21:56,METAR,Normal,350,5.0,,,9999.0,,16.2,2.9,30.18,1023.0,,,,,,,,,,,,,,,Clear,72000.0,,,,,,,,,
KRDR,05-06-2020,20:56,METAR,Normal,350,6.0,,,9999.0,,16.1,2.8,30.19,1023.3,,,,,,,,,,,,,,,4/8 Partly Cloudy,72000.0,8000.0,SCT,8000.0,,,,,,
KRDR,05-06-2020,19:56,METAR,Normal,10,9.0,,,9999.0,,15.6,2.4,30.21,1024.0,,,,,,,,,,,,,,,Clear,72000.0,,,,,,,,,
KRDR,05-06-2020,18:56,METAR,Normal,10,9.0,,,9999.0,,15.1,1.6,30.23,1024.7,,,,,,,,,,,,,,,,8000.0,8000.0,BKN,8000.0,,,,,,
KRDR,05-06-2020,17:56,METAR,Normal,10,4.0,,,9999.0,,13.9,1.5,30.24,1025.0,,,,,,,,,,,,,,,2/8 Mostly Clear,72000.0,8000.0,FEW,8000.0,,,,,,
KRDR,05-06-2020,16:56,METAR,Normal,20,6.0,,,9999.0,,12.7,2.3,30.25,1025.4,,,,,,,,,,,,,,,,18000.0,7500.0,FEW,7500.0,SCT,10000.0,BKN,18000.0,,
KRDR,05-06-2020,15:56,METAR,Normal,360,7.0,,,9999.0,,11.3,3.6,30.26,1025.8,,,,,,,,,,,,,,,,10000.0,10000.0,BKN,10000.0,,,,,,
KRDR,05-06-2020,14:56,METAR,Normal,20,7.0,,,9999.0,,10.2,3.2,30.26,1025.8,,,,,,,,,,,,,,,Clear,72000.0,,,,,,,,,
KRDR,05-06-2020,13:56,METAR,Normal,350,5.0,,,9999.0,,7.9,3.6,30.26,1025.8,,,,,,,,,,,,,,,Clear,72000.0,,,,,,,,,
KRDR,05-06-2020,12:56,METAR,Normal,350,8.0,,,9999.0,,6.6,3.4,30.26,1025.8,,,,,,,,,,,,,,,Clear,72000.0,,,,,,,,,
KRDR,05-06-2020,11:56,METAR,Normal,320,6.0,,,9999.0,,3.1,2.5,30.25,1025.6,,,,,,,,,,,,,,.03 IN,Clear,72000.0,,,,,,,,,
KRDR,05-06-2020,10:56,METAR,Normal,320,5.0,,,9999.0,,2.1,2.0,30.23,1024.9,,,,,,,,,,,,,,,Clear,72000.0,,,,,,,,,
KRDR,05-06-2020,09:56,METAR,Normal,310,8.0,,,9999.0,,3.2,2.2,30.23,1024.9,,,,,,,,,,,,,,,Clear,72000.0,,,,,,,,,
KRDR,05-06-2020,08:56,METAR,Normal,300,7.0,,,9999.0,,3.5,2.6,30.23,1025.0,,,,,,,,,,,,,,,Clear,72000.0,,,,,,,,,
KRDR,05-06-2020,07:56,METAR,Normal,300,7.0,,,9999.0,,3.4,2.8,30.22,1024.5,,,,,,,,,,,,,,,Clear,72000.0,,,,,,,,,
KRDR,05-06-2020,06:56,METAR,Normal,320,6.0,,,9999.0,,4.7,4.0,30.22,1024.5,,,,,,,,,,,,,,,Clear,72000.0,,,,,,,,,
KRDR,05-06-2020,05:56,METAR,Normal,310,8.0,,,9999.0,,5.2,5.1,30.21,1024.2,,,,,,,,,,,,,,,Clear,72000.0,,,,,,,,,
KRDR,05-06-2020,04:56,METAR,Normal,300,7.0,,,9999.0,,6.5,6.4,30.20,1023.8,,,,,,,,,,,,,,,4/8 Partly Cloudy,72000.0,14000.0,SCT,14000.0,,,,,,
KRDR,05-06-2020,03:56,METAR,Normal,290,6.0,,,9999.0,,7.0,6.7,30.19,1023.5,,,,,,,,,,,,,,,4/8 Partly Cloudy,72000.0,13000.0,SCT,13000.0,,,,,,
KRDR,05-06-2020,02:56,METAR,Normal,280,7.0,,,9999.0,,8.2,7.1,30.19,1023.5,,,,,,,,,,,,,,,,14000.0,14000.0,BKN,14000.0,,,,,,
KRDR,05-06-2020,01:56,METAR,Normal,270,5.0,,,9999.0,,8.8,6.6,30.17,1022.8,,,,,,,,,,,,,,,,15000.0,15000.0,BKN,15000.0,,,,,,
KRDR,05-06-2020,00:57,METAR,Calm,,0.0,,,9999.0,,11.0,5.9,30.16,1022.4,,,,,,,,,,,,,,,,18000.0,18000.0,BKN,18000.0,,,,,,
KRDR,05-05-2020,23:58,METAR,Normal,360,5.0,,,9999.0,,11.5,4.7,30.16,1022.4,,,,,,,,,,,,,TRACE,,,5500.0,5500.0,BKN,5500.0,BKN,7000.0,,,,
KRDR,05-05-2020,22:57,METAR,Normal,360,8.0,,,9999.0,,11.3,5.8,30.16,1022.4,,,,,,,,,,,TRACE,,,,,3500.0,3500.0,BKN,3500.0,BKN,4400.0,,,,
KRDR,05-05-2020,22:43,SPECI,Normal,340,7.0,,,9999.0,,11.0,6.0,30.15,1022.1,,,,,,,,,,,,,,,4/8 Partly Cloudy,72000.0,3400.0,FEW,3400.0,SCT,4400.0,,,,
KRDR,05-05-2020,22:05,SPECI,Normal,20,7.0,,,9999.0,Rain,11.0,6.0,30.15,1022.1,,,,61,,,,,,,,,,,,4500.0,4500.0,BKN,4500.0,OVC,7000.0,,,,
KRDR,05-05-2020,21:58,METAR,Normal,350,7.0,,,9999.0,,10.8,6.0,30.15,1022.1,,,,,,,,,,,TRACE,,,,,7000.0,4500.0,SCT,4500.0,OVC,7000.0,,,,
KRDR,05-05-2020,20:56,METAR,Normal,10,9.0,,,9999.0,Drizzle,8.9,7.2,30.15,1022.2,,,,51,,,,,,,TRACE,TRACE,,,,6000.0,3100.0,SCT,3100.0,OVC,6000.0,,,,
KRDR,05-05-2020,19:56,METAR,Normal,40,13.0,,,9999.0,,10.9,5.2,30.13,1021.4,,,,,,,,,,,,,,,,6500.0,4000.0,FEW,4000.0,OVC,6500.0,,,,
KRDR,05-05-2020,19:01,SPECI,Normal,20,15.0,19.0,,9999.0,,11.0,6.0,30.12,1021.1,,,,,,,,,,,,,,,,10000.0,2700.0,SCT,2700.0,SCT,8000.0,BKN,10000.0,,
KRDR,05-05-2020,17:55,METAR,Normal,20,9.0,,,9999.0,,8.4,8.3,30.12,1021.1,,,,,,,,,,,TRACE,,.03 IN,,,3900.0,3900.0,BKN,3900.0,,,,,,
KRDR,05-05-2020,16:57,METAR,Normal,30,9.0,,,9999.0,Rain,8.2,7.9,30.11,1020.8,,,,61,,,,,,,.01 IN,,,,,3300.0,1900.0,SCT,1900.0,SCT,2500.0,BKN,3300.0,,
KRDR,05-05-2020,12:58,METAR,Normal,310,3.0,,,9999.0,Rain,5.0,5.0,30.08,1019.8,,,,61,,,,,,,TRACE,,,,,400.0,400.0,SCT,400.0,BKN,900.0,OVC,3000.0,OVC,3700.0
KRDR,05-05-2020,12:46,SPECI,Normal,340,3.0,,,9999.0,Rain,5.0,5.0,30.08,1019.8,,,,61,,,,,,,,,,,,900.0,400.0,SCT,400.0,OVC,900.0,,,,
KRDR,05-05-2020,12:36,SPECI,Normal,340,3.0,,,9999.0,Drizzle,5.0,5.0,30.08,1019.8,,,,51,,,,,,,,,,,,700.0,600.0,SCT,600.0,OVC,700.0,OVC,2900.0,,
KRDR,05-05-2020,11:58,METAR,Normal,10,3.0,,,9999.0,,4.8,4.8,30.07,1019.5,,,,,,,,,,,.01 IN,,.04 IN,.47 IN,,900.0,700.0,SCT,700.0,OVC,900.0,,,,
KRDR,05-05-2020,10:58,METAR,Normal,10,5.0,,,9999.0,Rain/Mist,4.9,4.9,30.05,1018.8,,,,61,10,,,,,,.01 IN,,,,,600.0,900.0,BKN,900.0,,,,,,
KRDR,05-05-2020,09:58,METAR,Normal,360,5.0,,,9999.0,Rain,5.0,5.0,30.05,1018.8,,,,61,,,,,,,.02 IN,,,,,700.0,900.0,BKN,900.0,OVC,1100.0,,,,
KRDR,05-05-2020,08:58,METAR,Normal,360,6.0,,,9999.0,Rain,5.1,5.1,30.05,1018.8,,,,61,,,,,,,.01 IN,.06 IN,,,,1100.0,1100.0,BKN,1100.0,,,,,,
KRDR,05-05-2020,07:58,METAR,Normal,330,4.0,,,9999.0,Rain,5.2,5.2,30.05,1018.8,,,,61,,,,,,,.02 IN,,,,,2500.0,800.0,SCT,800.0,BKN,2500.0,,,,
KRDR,05-05-2020,06:58,METAR,Normal,340,6.0,,,9999.0,Rain,5.3,5.3,30.07,1019.5,,,,61,,,,,,,.03 IN,,,,,2300.0,900.0,SCT,900.0,OVC,2300.0,,,,
KRDR,05-05-2020,05:58,METAR,Normal,10,8.0,,,9999.0,Rain/Mist,5.4,5.4,30.07,1019.5,,,,63,10,,,,,,.02 IN,,.08 IN,,,2200.0,900.0,SCT,900.0,OVC,2200.0,,,,
KRDR,05-05-2020,05:16,SPECI,Normal,20,5.0,,,9999.0,Rain,5.0,5.0,30.07,1019.5,,,,61,,,,,,,,,,,,2200.0,2500.0,OVC,2500.0,,,,,,
KRDR,05-05-2020,04:58,METAR,Normal,10,7.0,,,9999.0,,5.3,5.3,30.08,1019.8,,,,,,,,,,,.02 IN,,,,,900.0,300.0,FEW,300.0,BKN,900.0,OVC,2700.0,,
KRDR,05-05-2020,04:48,SPECI,Normal,10,4.0,,,9999.0,,5.0,5.0,30.08,1019.8,,,,,,,,,,,,,,,,1000.0,500.0,SCT,500.0,BKN,1000.0,OVC,2800.0,,
KRDR,05-05-2020,03:58,METAR,Normal,20,7.0,,,9999.0,Rain,5.4,5.4,30.08,1019.8,,,,61,,,,,,,.04 IN,,,,,900.0,300.0,SCT,300.0,OVC,900.0,,,,
KRDR,05-05-2020,03:31,SPECI,Normal,30,6.0,,,9999.0,Rain,6.0,6.0,30.09,1020.2,,,,61,,,,,,,,,,,,300.0,400.0,SCT,400.0,OVC,1000.0,,,,
KRDR,05-05-2020,02:58,METAR,Normal,20,6.0,,,9999.0,Rain,5.6,5.6,30.09,1020.2,,,,61,,,,,,,.02 IN,.08 IN,,,,1200.0,400.0,SCT,400.0,BKN,1200.0,OVC,3000.0,,
KRDR,05-05-2020,02:38,SPECI,Normal,10,6.0,,,9999.0,Rain,6.0,6.0,30.09,1020.2,,,,61,,,,,,,,,,,,3000.0,400.0,SCT,400.0,OVC,3000.0,,,,
KRDR,05-05-2020,01:58,METAR,Normal,20,6.0,,,9999.0,Rain,6.0,6.0,30.09,1020.3,,,,61,,,,,,,.03 IN,,,,,1200.0,1200.0,BKN,1200.0,OVC,3200.0,,,,
KRDR,05-05-2020,00:58,METAR,Normal,30,5.0,,,8000.0,Rain/Mist,6.4,6.4,30.09,1020.3,,,,61,10,,,,,,.03 IN,,,,,2600.0,2600.0,OVC,2600.0,,,,,,
KRDR,05-04-2020,23:55,METAR,Normal,10,4.0,,,8000.0,Rain/Mist,6.4,6.4,30.09,1020.4,,,,61,10,,,,,,.08 IN,,.4 IN,,,2600.0,2600.0,OVC,2600.0,,,,,,
KRDR,05-04-2020,22:55,METAR,Normal,10,5.0,,,8000.0,Rain,6.5,6.5,30.10,1020.7,,,,61,,,,,,,.09 IN,,,,,2800.0,2800.0,OVC,2800.0,,,,,,
KRDR,05-04-2020,21:59,METAR,Normal,330,3.0,,,8000.0,Rain,6.7,6.6,30.10,1020.7,,,,61,,,,,,,.14 IN,,,,,1900.0,1900.0,SCT,1900.0,BKN,2900.0,,,,
KRDR,05-04-2020,20:55,METAR,Normal,330,4.0,,,8000.0,Rain,7.5,6.4,30.08,1020.0,,,,61,,,,,,,.05 IN,.09 IN,,,,5000.0,5000.0,OVC,5000.0,,,,,,
KRDR,05-04-2020,19:57,METAR,Normal,50,3.0,,,9999.0,Rain,7.6,5.4,30.07,1019.6,,,,61,,,,,,,.01 IN,,,,,6000.0,6000.0,OVC,6000.0,,,,,,
KRDR,05-04-2020,18:56,METAR,Normal,60,3.0,,,9999.0,Rain,6.8,5.1,30.08,1019.9,,,,61,,,,,,,.03 IN,,,,,5000.0,5000.0,OVC,5000.0,,,,,,
KRDR,05-04-2020,17:57,METAR,Normal,360,4.0,,,9999.0,Rain,6.7,4.2,30.11,1020.9,,,,61,,,,,,,.03 IN,,.03 IN,,,5000.0,5000.0,OVC,5000.0,,,,,,
KRDR,05-04-2020,17:36,SPECI,Normal,360,3.0,,,9999.0,,7.0,4.0,30.12,1021.3,,,,,,,,,,,,,,,Clear,72000.0,,,,,,,,,
KRDR,05-04-2020,17:26,SPECI,Calm,,0.0,,,9999.0,,7.0,4.0,30.12,1021.3,,,,,,,,,,,,,,,,2000.0,2000.0,OVC,2000.0,,,,,,
KRDR,05-04-2020,16:56,METAR,Normal,180,3.0,,,9999.0,Light Rain,7.4,2.7,30.12,1021.2,61,,,,,,,,,,TRACE,,,,4/8 Partly Cloudy,72000.0,1800.0,SCT,1800.0,,,,,,
KRDR,05-04-2020,16:46,SPECI,Normal,180,8.0,,,9999.0,Light Rain,8.0,2.0,30.13,1021.6,61,,,,,,,,,,,,,,2/8 Mostly Clear,72000.0,2600.0,FEW,2600.0,FEW,3500.0,,,,
KRDR,05-04-2020,15:56,METAR,Normal,150,7.0,,,9999.0,,7.6,1.2,30.13,1021.6,,,,,,,,,,,,,,,2/8 Mostly Clear,72000.0,9000.0,FEW,9100.0,,,,,,
KRDR,05-04-2020,14:56,METAR,Normal,130,8.0,,,9999.0,,5.9,1.2,30.15,1022.2,,,,,,,,,,,,,,,4/8 Partly Cloudy,72000.0,11000.0,SCT,11000.0,,,,,,
KRDR,05-04-2020,13:56,METAR,Normal,140,7.0,,,9999.0,,4.5,0.8,30.17,1022.9,,,,,,,,,,,,,,,,14000.0,14000.0,BKN,14000.0,,,,,,
KRDR,05-04-2020,12:56,METAR,Calm,,0.0,,,9999.0,,3.0,0.9,30.18,1023.3,,,,,,,,,,,,,,,2/8 Mostly Clear,72000.0,16000.0,FEW,16000.0,,,,,,
KRDR,05-04-2020,11:56,METAR,Normal,330,3.0,,,9999.0,,0.2,-1.1,30.16,1022.6,,,,,,,,,,,,,,,Clear,72000.0,,,,,,,,,
KRDR,05-04-2020,10:56,METAR,Normal,120,3.0,,,9999.0,,-0.1,-1.1,30.12,1021.3,,,,,,,,,,,,,,,Clear,72000.0,,,,,,,,,
KRDR,05-04-2020,09:56,METAR,Normal,130,5.0,,,9999.0,,0.8,-1.0,30.11,1020.9,,,,,,,,,,,,,,,Clear,72000.0,,,,,,,,,
KRDR,05-04-2020,08:56,METAR,Normal,100,5.0,,,9999.0,,1.0,-0.6,30.11,1020.9,,,,,,,,,,,,,,,Clear,72000.0,,,,,,,,,
KRDR,05-04-2020,07:56,METAR,Normal,120,8.0,,,9999.0,,2.1,-0.2,30.13,1021.6,,,,,,,,,,,,,,,Clear,72000.0,,,,,,,,,
KRDR,05-04-2020,06:56,METAR,Normal,110,5.0,,,9999.0,,2.2,-0.6,30.14,1022.0,,,,,,,,,,,,,,,Clear,72000.0,,,,,,,,,
KRDR,05-04-2020,05:56,METAR,Normal,110,5.0,,,9999.0,,3.1,-0.2,30.15,1022.3,,,,,,,,,,,,,,,Clear,72000.0,,,,,,,,,
KRDR,05-04-2020,04:56,METAR,Normal,120,6.0,,,9999.0,,4.3,0.1,30.15,1022.4,,,,,,,,,,,,,,,Clear,72000.0,,,,,,,,,
KRDR,05-04-2020,03:56,METAR,Normal,90,5.0,,,9999.0,,4.6,0.4,30.14,1022.0,,,,,,,,,,,,,,,Clear,72000.0,,,,,,,,,
KRDR,05-04-2020,02:56,METAR,Normal,90,5.0,,,9999.0,,5.5,0.3,30.13,1021.7,,,,,,,,,,,,,,,Clear,72000.0,,,,,,,,,
KRDR,05-04-2020,01:56,METAR,Normal,90,6.0,,,9999.0,,6.4,0.5,30.13,1021.7,,,,,,,,,,,,,,,Clear,72000.0,,,,,,,,,
KRDR,05-04-2020,00:56,METAR,Normal,100,8.0,,,9999.0,,9.2,0.4,30.13,1021.6,,,,,,,,,,,,,,,Clear,72000.0,,,,,,,,,
KRDR,05-03-2020,23:56,METAR,Normal,80,9.0,,,9999.0,,9.9,0.0,30.13,1021.6,,,,,,,,,,,,,,,Clear,72000.0,,,,,,,,,
KRDR,05-03-2020,22:56,METAR,Normal,50,9.0,,,9999.0,,10.3,0.6,30.12,1021.3,,,,,,,,,,,,,,,Clear,72000.0,,,,,,,,,
KRDR,05-03-2020,21:56,METAR,Normal,60,8.0,,,9999.0,,9.6,0.2,30.14,1022.0,,,,,,,,,,,,,,,Clear,72000.0,,,,,,,,,
KRDR,05-03-2020,20:56,METAR,Normal,60,11.0,17.0,,9999.0,,9.4,0.3,30.14,1022.0,,,,,,,,,,,,,,,Clear,72000.0,,,,,,,,,
KRDR,05-03-2020,19:56,METAR,Normal,50,13.0,20.0,,9999.0,,9.0,-1.1,30.16,1022.6,,,,,,,,,,,,,,,Clear,72000.0,,,,,,,,,
KRDR,05-03-2020,18:56,METAR,Normal,20,13.0,18.0,,9999.0,,7.5,-1.2,30.16,1022.7,,,,,,,,,,,,,,,Clear,72000.0,,,,,,,,,
KRDR,05-03-2020,17:56,METAR,Normal,20,11.0,17.0,,9999.0,,6.2,-1.7,30.17,1023.1,,,,,,,,,,,,,,,4/8 Partly Cloudy,72000.0,2900.0,SCT,2900.0,,,,,,
KRDR,05-03-2020,17:35,SPECI,Normal,30,16.0,,,9999.0,,6.0,-2.0,30.17,1023.1,,,,,,,,,,,,,,,2/8 Mostly Clear,72000.0,2600.0,FEW,2600.0,,,,,,
KRDR,05-03-2020,17:05,SPECI,Normal,50,11.0,,,9999.0,,5.0,-2.0,30.17,1023.1,,,,,,,,,,,,,,,,2400.0,2400.0,BKN,2400.0,,,,,,
KRDR,05-03-2020,16:56,METAR,Normal,30,11.0,,,9999.0,,4.5,-2.2,30.17,1023.1,,,,,,,,,,,,,,,,2400.0,2400.0,BKN,2400.0,,,,,,
KRDR,05-03-2020,15:56,METAR,Normal,10,16.0,20.0,,9999.0,,3.4,-2.6,30.18,1023.3,,,,,,,,,,,,,,,,2200.0,2300.0,OVC,2300.0,,,,,,
KRDR,05-03-2020,14:56,METAR,Normal,30,16.0,,,9999.0,,2.2,-3.3,30.18,1023.3,,,,,,,,,,,,,,,,2200.0,2200.0,OVC,2200.0,,,,,,
KRDR,05-03-2020,13:56,METAR,Normal,20,16.0,24.0,,9999.0,,1.5,-3.4,30.17,1022.8,,,,,,,,,,,,,,,,2100.0,2100.0,OVC,2100.0,,,,,,
KRDR,05-03-2020,13:26,SPECI,Normal,10,17.0,24.0,,9999.0,,1.0,-3.0,30.17,1022.8,,,,,,,,,,,,,,,,2000.0,2000.0,OVC,2000.0,,,,,,
KRDR,05-03-2020,12:56,METAR,Normal,20,19.0,23.0,,9999.0,,0.0,-3.2,30.16,1022.5,,,,,,,,,,,,,,,,1800.0,1800.0,OVC,1800.0,,,,,,
KRDR,05-03-2020,11:56,METAR,Normal,20,14.0,,,9999.0,,-0.2,-2.4,30.14,1021.7,,,,,,,,,,,,,,,,1800.0,1800.0,BKN,1800.0,,,,,,
KRDR,05-03-2020,11:46,SPECI,Normal,20,13.0,,,9999.0,,-1.0,-2.0,30.14,1021.7,,,,,,,,,,,,,,,,1800.0,1800.0,BKN,1800.0,,,,,,
KRDR,05-03-2020,10:56,METAR,Normal,10,11.0,,,9999.0,,-0.9,-3.0,30.12,1021.1,,,,,,,,,,,,,,,Clear,72000.0,,,,,,,,,
KRDR,05-03-2020,09:56,METAR,Normal,10,8.0,,,9999.0,,-0.7,-2.3,30.10,1020.4,,,,,,,,,,,,,,,Clear,72000.0,,,,,,,,,
KRDR,05-03-2020,08:56,METAR,Normal,10,8.0,,,9999.0,,-0.3,-2.5,30.09,1020.0,,,,,,,,,,,,,,,Clear,72000.0,,,,,,,,,
KRDR,05-03-2020,07:56,METAR,Normal,10,10.0,,,9999.0,,0.4,-1.8,30.07,1019.3,,,,,,,,,,,,,,,2/8 Mostly Clear,72000.0,7500.0,FEW,7500.0,,,,,,
KRDR,05-03-2020,06:56,METAR,Normal,20,12.0,,,9999.0,,0.8,-1.8,30.05,1018.6,,,,,,,,,,,,,,,Clear,72000.0,,,,,,,,,
KRDR,05-03-2020,06:46,SPECI,Normal,20,11.0,,,9999.0,,1.0,-2.0,30.06,1018.9,,,,,,,,,,,,,,,4/8 Partly Cloudy,72000.0,2000.0,SCT,2000.0,,,,,,
KRDR,05-03-2020,06:36,SPECI,Normal,20,12.0,,,9999.0,,1.0,-2.0,30.05,1018.6,,,,,,,,,,,,,,,,2000.0,2000.0,BKN,2000.0,,,,,,
KRDR,05-03-2020,05:56,METAR,Normal,30,14.0,18.0,,9999.0,,2.5,-0.3,30.04,1018.3,,,,,,,,,,,,,,,,1800.0,1900.0,BKN,1900.0,,,,,,
KRDR,05-03-2020,04:56,METAR,Normal,20,14.0,,,9999.0,,3.5,0.7,30.02,1017.6,,,,,,,,,,,,,,,Clear,72000.0,,,,,,,,,
KRDR,05-03-2020,03:56,METAR,Normal,30,12.0,,,9999.0,,6.2,2.8,30.00,1016.9,,,,,,,,,,,,,,,Clear,72000.0,,,,,,,,,
KRDR,05-03-2020,02:56,METAR,Normal,30,11.0,,,9999.0,,9.0,4.4,29.97,1015.8,,,,,,,,,,,,,,,2/8 Mostly Clear,72000.0,8000.0,FEW,8000.0,,,,,,
KRDR,05-03-2020,01:56,METAR,Normal,350,7.0,,,9999.0,,11.2,3.2,29.94,1014.7,,,,,,,,,,,,,,,Clear,72000.0,,,,,,,,,
KRDR,05-03-2020,00:56,METAR,Normal,350,14.0,21.0,340/30KTS,9999.0,,14.9,1.4,29.92,1013.9,,,,,,,,,,,,,,,Clear,72000.0,,,,,,,,,
KRDR,05-02-2020,23:56,METAR,Normal,340,16.0,26.0,330/28KTS,9999.0,,16.1,1.4,29.92,1013.9,,,,,,,,,,,,,,,Clear,72000.0,,,,,,,,,
KRDR,05-02-2020,22:56,METAR,Normal,330,21.0,27.0,320/29KTS,9999.0,,16.9,1.3,29.91,1013.6,,,,,,,,,,,,,,,2/8 Mostly Clear,72000.0,6500.0,FEW,6500.0,,,,,,
KRDR,05-02-2020,21:56,METAR,Normal,330,21.0,28.0,320/31KTS,9999.0,,16.5,2.1,29.90,1013.2,,,,,,,,,,,,,,,2/8 Mostly Clear,72000.0,6000.0,FEW,6000.0,,,,,,
KRDR,05-02-2020,20:56,METAR,Normal,320,22.0,30.0,310/36KTS,9999.0,,17.6,2.3,29.90,1013.2,,,,,,,,,,,,,,,2/8 Mostly Clear,72000.0,6500.0,FEW,6500.0,,,,,,
KRDR,05-02-2020,19:56,METAR,Normal,330,23.0,32.0,330/34KTS,9999.0,,17.1,2.3,29.90,1013.2,,,,,,,,,,,,,,,2/8 Mostly Clear,72000.0,6000.0,FEW,6000.0,,,,,,
KRDR,05-02-2020,18:56,METAR,Normal,330,21.0,28.0,320/32KTS,9999.0,,17.0,3.6,29.90,1013.2,,,,,,,,,,,,,,,2/8 Mostly Clear,72000.0,5500.0,FEW,5500.0,FEW,21000.0,,,,
KRDR,05-02-2020,17:56,METAR,Normal,320,17.0,25.0,300/28KTS,9999.0,,15.1,3.9,29.90,1013.2,,,,,,,,,,,,,,,Clear,72000.0,,,,,,,,,
KRDR,05-02-2020,16:56,METAR,Normal,320,17.0,24.0,310/26KTS,9999.0,,13.9,4.7,29.90,1013.3,,,,,,,,,,,,,,,2/8 Mostly Clear,72000.0,3600.0,FEW,3600.0,,,,,,
KRDR,05-02-2020,15:56,METAR,Normal,320,16.0,26.0,320/27KTS,9999.0,,12.5,4.9,29.89,1013.1,,,,,,,,,,,,,,,4/8 Partly Cloudy,72000.0,3200.0,SCT,3200.0,,,,,,
KRDR,05-02-2020,14:56,METAR,Normal,350,15.0,22.0,320/26KTS,9999.0,,11.9,5.1,29.88,1012.7,,,,,,,,,,,,,,,2/8 Mostly Clear,72000.0,3100.0,FEW,3100.0,,,,,,
KRDR,05-02-2020,13:56,METAR,Normal,330,19.0,27.0,330/27KTS,9999.0,,12.5,4.7,29.85,1011.5,,,,,,,,,,,,,,,Clear,72000.0,,,,,,,,,
KRDR,05-02-2020,12:56,METAR,Normal,290,12.0,,,9999.0,,11.3,5.4,29.83,1010.9,,,,,,,,,,,,,,,Clear,72000.0,,,,,,,,,
KRDR,05-02-2020,11:56,METAR,Normal,280,10.0,,,9999.0,,9.3,5.1,29.82,1010.6,,,,,,,,,,,,,,.01 IN,Clear,72000.0,,,,,,,,,
KRDR,05-02-2020,10:56,METAR,Normal,280,10.0,,,9999.0,,9.2,5.2,29.80,1009.9,,,,,,,,,,,,,,,Clear,72000.0,,,,,,,,,
KRDR,05-02-2020,09:56,METAR,Normal,290,10.0,,,9999.0,,9.9,5.5,29.78,1009.1,,,,,,,,,,,,,,,Clear,72000.0,,,,,,,,,
KRDR,05-02-2020,08:56,METAR,Normal,290,10.0,,,9999.0,,9.3,6.0,29.78,1009.2,,,,,,,,,,,,,,,Clear,72000.0,,,,,,,,,
KRDR,05-02-2020,07:56,METAR,Normal,270,7.0,,,9999.0,,8.1,6.4,29.77,1008.9,,,,,,,,,,,,,,,Clear,72000.0,,,,,,,,,
KRDR,05-02-2020,06:56,METAR,Normal,290,6.0,,,9999.0,,9.9,6.8,29.75,1008.2,,,,,,,,,,,,,,,Clear,72000.0,,,,,,,,,
KRDR,05-02-2020,05:56,METAR,Normal,310,10.0,,,9999.0,,10.9,7.0,29.75,1008.2,,,,,,,,,,,,,,,Clear,72000.0,,,,,,,,,
KRDR,05-02-2020,04:56,METAR,Normal,280,8.0,,,9999.0,,10.0,8.4,29.73,1007.5,,,,,,,,,,,,,,,Clear,72000.0,,,,,,,,,
KRDR,05-02-2020,02:56,METAR,Normal,250,3.0,,,9999.0,,10.0,9.5,29.73,1007.5,,,,,,,,,,,,,,,Clear,72000.0,,,,,,,,,
KRDR,05-02-2020,01:56,METAR,Normal,330,3.0,,,9999.0,,12.7,12.5,29.72,1007.1,,,,,,,,,,,,,,,Clear,72000.0,,,,,,,,,
KRDR,05-02-2020,00:56,METAR,Calm,,0.0,,,9999.0,,15.5,14.0,29.70,1006.4,,,,,,,,,,,,,,,,4200.0,4200.0,BKN,4200.0,BKN,5000.0,,,,
KRDR,05-01-2020,23:56,METAR,Normal,330,6.0,,,9999.0,,15.3,12.6,29.68,1005.7,,,,,,,,,,,,,.01 IN,,,9500.0,5500.0,SCT,5500.0,BKN,9600.0,,,,
KRDR,05-01-2020,22:56,METAR,Normal,340,7.0,,,9999.0,,14.4,14.2,29.68,1005.8,,,,,,,,,,,.01 IN,,,,,3900.0,2900.0,SCT,2900.0,BKN,3900.0,BKN,4800.0,BKN,6000.0
KRDR,05-01-2020,22:55,SPECI,Normal,340,8.0,,,9999.0,,14.0,14.0,29.68,1005.8,,,,,,,,,,,,,,,,3900.0,2900.0,SCT,2900.0,BKN,3900.0,BKN,4800.0,,
KRDR,05-01-2020,22:54,SPECI,Normal,330,8.0,,,9999.0,Light Drizzle,14.0,14.0,29.68,1005.8,51,,,,,,,,,,,,,,,3900.0,2900.0,SCT,2900.0,BKN,3900.0,BKN,4800.0,,
KRDR,05-01-2020,22:44,SPECI,Normal,330,8.0,,,9999.0,Light Rain,15.0,14.0,29.68,1005.7,61,,,,,,,,,,,,,,,2700.0,2800.0,BKN,2800.0,BKN,3400.0,,,,
KRDR,05-01-2020,22:34,SPECI,Normal,320,13.0,16.0,,9999.0,Light Rain,17.0,11.0,29.68,1005.7,61,,,,,,,,,,,,,,,3000.0,3000.0,BKN,3000.0,,,,,,
KRDR,05-01-2020,21:56,METAR,Calm,,0.0,,,9999.0,,17.1,10.2,29.67,1005.3,,,,,,,,,,,,,,,4/8 Partly Cloudy,72000.0,8500.0,SCT,8600.0,,,,,,
KRDR,05-01-2020,20:56,METAR,Normal,140,5.0,,,9999.0,,15.6,10.6,29.65,1004.7,,,,,,,,,,,TRACE,TRACE,,,4/8 Partly Cloudy,72000.0,8000.0,SCT,8000.0,,,,,,
KRDR,05-01-2020,20:28,SPECI,Calm,,0.0,,,9999.0,,15.0,11.0,29.66,1005.0,,,,,,,,,,,,,,,2/8 Mostly Clear,72000.0,9000.0,FEW,9100.0,,,,,,
KRDR,05-01-2020,20:15,SPECI,Normal,120,3.0,,,9999.0,Light Rain,14.0,11.0,29.66,1005.1,61,,,,,,,,,,,,,,4/8 Partly Cloudy,72000.0,3700.0,FEW,3700.0,FEW,4700.0,SCT,9100.0,,
KRDR,05-01-2020,19:56,METAR,Normal,110,4.0,,,9999.0,,14.3,11.4,29.66,1005.1,,,,,,,,,,,,,,,,4600.0,4600.0,BKN,4600.0,,,,,,
KRDR,05-01-2020,18:56,METAR,Normal,160,3.0,,,9999.0,,13.5,9.9,29.66,1005.0,,,,,,,,,,,,,,,,6000.0,6000.0,BKN,6000.0,BKN,7000.0,,,,
KRDR,05-01-2020,17:56,METAR,Normal,200,5.0,,,9999.0,,12.9,9.2,29.67,1005.4,,,,,,,,,,,TRACE,,TRACE,,,8500.0,7000.0,FEW,7000.0,BKN,8600.0,,,,
KRDR,05-01-2020,17:18,SPECI,Normal,190,8.0,,,9999.0,,13.0,9.0,29.65,1004.7,,,,,,,,,,,,,,,2/8 Mostly Clear,72000.0,6000.0,FEW,6000.0,,,,,,
KRDR,05-01-2020,17:12,SPECI,Normal,190,7.0,,,9999.0,Light Rain,13.0,9.0,29.65,1004.7,61,,,,,,,,,,,,,,2/8 Mostly Clear,72000.0,6500.0,FEW,6500.0,,,,,,
KRDR,05-01-2020,17:10,SPECI,Normal,200,6.0,,,9999.0,,13.0,8.0,29.65,1004.7,,,,,,,,,,,,,,,Clear,72000.0,,,,,,,,,
KRDR,05-01-2020,16:56,METAR,Normal,210,9.0,,,9999.0,Light Rain,13.3,7.5,29.65,1004.7,61,,,,,,,,,,TRACE,,,,2/8 Mostly Clear,72000.0,8500.0,FEW,8600.0,,,,,,
KRDR,05-01-2020,16:35,SPECI,Normal,210,6.0,,,9999.0,Light Rain,15.0,6.0,29.65,1004.7,61,,,,,,,,,,,,,,2/8 Mostly Clear,72000.0,9000.0,FEW,9100.0,,,,,,
KRDR,05-01-2020,15:56,METAR,Normal,170,10.0,,,9999.0,,15.0,3.5,29.64,1004.2,,,,,,,,,,,,,,,Clear,72000.0,,,,,,,,,
KRDR,05-01-2020,14:56,METAR,Normal,200,4.0,,,9999.0,,14.1,5.2,29.65,1004.6,,,,,,,,,,,,,,,Clear,72000.0,,,,,,,,,
KRDR,05-01-2020,13:56,METAR,Normal,150,7.0,,,9999.0,,12.8,5.5,29.66,1004.9,,,,,,,,,,,,,,,2/8 Mostly Clear,72000.0,10000.0,FEW,10000.0,FEW,15000.0,,,,
KRDR,05-01-2020,12:56,METAR,Normal,140,6.0,,,9999.0,,12.5,4.5,29.66,1004.9,,,,,,,,,,,,,,,2/8 Mostly Clear,72000.0,12000.0,FEW,12000.0,,,,,,
KRDR,05-01-2020,11:56,METAR,Normal,170,9.0,,,9999.0,,11.8,3.8,29.67,1005.2,,,,,,,,,,,,,,,,12000.0,12000.0,OVC,12000.0,,,,,,
KRDR,05-01-2020,10:56,METAR,Calm,,0.0,,,9999.0,,10.9,4.6,29.68,1005.6,,,,,,,,,,,,,,,,14000.0,14000.0,OVC,14000.0,,,,,,
KRDR,05-01-2020,09:56,METAR,Normal,160,8.0,,,9999.0,,11.5,4.9,29.69,1005.9,,,,,,,,,,,,,,,,18000.0,14000.0,SCT,14000.0,BKN,18000.0,BKN,20000.0,,
KRDR,05-01-2020,08:56,METAR,Normal,160,10.0,,,9999.0,,12.1,5.3,29.71,1006.6,,,,,,,,,,,,,,,,14000.0,14000.0,BKN,14000.0,,,,,,
KRDR,05-01-2020,07:56,METAR,Normal,180,9.0,,,9999.0,,12.2,5.6,29.72,1006.9,,,,,,,,,,,,,,,,12000.0,12000.0,OVC,12000.0,,,,,,
KRDR,05-01-2020,06:56,METAR,Normal,180,8.0,,,9999.0,,13.0,5.9,29.74,1007.5,,,,,,,,,,,,,,,,12000.0,12000.0,OVC,12000.0,,,,,,
KRDR,05-01-2020,05:56,METAR,Normal,170,6.0,,,9999.0,,12.7,6.7,29.76,1008.3,,,,,,,,,,,,,,,,12000.0,12000.0,OVC,12000.0,,,,,,
KRDR,05-01-2020,04:56,METAR,Normal,170,5.0,,,9999.0,,13.4,5.8,29.76,1008.3,,,,,,,,,,,,,,,,12000.0,12000.0,BKN,12000.0,BKN,14000.0,,,,
KRDR,05-01-2020,03:56,METAR,Normal,180,6.0,,,9999.0,,14.6,6.4,29.76,1008.3,,,,,,,,,,,,,,,,14000.0,14000.0,BKN,14000.0,,,,,,
KRDR,05-01-2020,02:56,METAR,Normal,170,8.0,,,9999.0,,15.5,6.8,29.76,1008.3,,,,,,,,,,,,,,,,9000.0,9000.0,BKN,9100.0,BKN,11000.0,,,,
KRDR,05-01-2020,01:56,METAR,Normal,170,7.0,,,9999.0,,16.2,7.4,29.76,1008.3,,,,,,,,,,,,,,,4/8 Partly Cloudy,72000.0,12000.0,SCT,12000.0,,,,,,
KRDR,04-30-2020,23:56,METAR,Normal,190,10.0,,,9999.0,,20.1,5.3,29.78,1009.2,,,,,,,,,,,,,,,2/8 Mostly Clear,72000.0,17000.0,FEW,17000.0,,,,,,
KRDR,04-30-2020,22:56,METAR,Normal,200,10.0,,,9999.0,,20.2,4.6,29.80,1010.0,,,,,,,,,,,,,,,4/8 Partly Cloudy,72000.0,11000.0,SCT,11000.0,,,,,,
KRDR,04-30-2020,21:56,METAR,Normal,210,13.0,18.0,,9999.0,,20.5,4.5,29.81,1010.2,,,,,,,,,,,,,,,4/8 Partly Cloudy,72000.0,11000.0,SCT,11000.0,,,,,,
KRDR,04-30-2020,20:56,METAR,Normal,210,15.0,17.0,,9999.0,,20.7,3.8,29.83,1010.9,,,,,,,,,,,,,,,4/8 Partly Cloudy,72000.0,13000.0,FEW,13000.0,SCT,16000.0,,,,
KRDR,04-30-2020,19:56,METAR,Normal,210,15.0,,,9999.0,,21.6,3.7,29.85,1011.6,,,,,,,,,,,,,,,,15000.0,15000.0,BKN,15000.0,,,,,,
KRDR,04-30-2020,18:56,METAR,Normal,210,14.0,,,9999.0,,20.7,3.8,29.88,1012.6,,,,,,,,,,,,,,,,15000.0,15000.0,BKN,15000.0,OVC,18000.0,,,,
KRDR,04-30-2020,17:56,METAR,Normal,190,10.0,,,9999.0,,19.8,4.3,29.90,1013.3,,,,,,,,,,,,,,,,18000.0,18000.0,BKN,18000.0,,,,,,
KRDR,04-30-2020,16:56,METAR,Normal,220,10.0,,,9999.0,,18.6,4.4,29.93,1014.4,,,,,,,,,,,,,,,Clear,72000.0,,,,,,,,,
KRDR,04-30-2020,15:56,METAR,Normal,210,12.0,,,9999.0,,17.1,4.4,29.95,1015.1,,,,,,,,,,,,,,,Clear,72000.0,,,,,,,,,
KRDR,04-30-2020,14:56,METAR,Normal,190,11.0,,,9999.0,,15.6,4.6,29.97,1015.8,,,,,,,,,,,,,,,Clear,72000.0,,,,,,,,,
KRDR,04-30-2020,13:56,METAR,Normal,210,7.0,,,9999.0,,12.9,5.8,29.99,1016.3,,,,,,,,,,,,,,,Clear,72000.0,,,,,,,,,
KRDR,04-30-2020,12:56,METAR,Normal,200,3.0,,,9999.0,,8.8,5.9,29.99,1016.4,,,,,,,,,,,,,,,Clear,72000.0,,,,,,,,,
KRDR,04-30-2020,11:56,METAR,Normal,220,5.0,,,9999.0,,3.9,2.4,29.99,1016.5,,,,,,,,,,,,,,,Clear,72000.0,,,,,,,,,
KRDR,04-30-2020,10:56,METAR,Normal,250,5.0,,,9999.0,,2.5,2.2,30.00,1016.8,,,,,,,,,,,,,,,Clear,72000.0,,,,,,,,,
KRDR,04-30-2020,09:56,METAR,Normal,220,4.0,,,9999.0,,2.8,1.6,30.00,1016.8,,,,,,,,,,,,,,,Clear,72000.0,,,,,,,,,
KRDR,04-30-2020,08:56,METAR,Normal,210,3.0,,,9999.0,,3.0,2.3,30.00,1016.8,,,,,,,,,,,,,,,Clear,72000.0,,,,,,,,,
KRDR,04-30-2020,07:56,METAR,Normal,240,3.0,,,9999.0,,3.0,2.9,30.02,1017.5,,,,,,,,,,,,,,,Clear,72000.0,,,,,,,,,
KRDR,04-30-2020,06:56,METAR,Normal,250,4.0,,,9999.0,,3.5,3.4,30.04,1018.2,,,,,,,,,,,,,,,Clear,72000.0,,,,,,,,,
KRDR,04-30-2020,05:56,METAR,Normal,260,4.0,,,9999.0,,3.6,3.5,30.05,1018.5,,,,,,,,,,,,,,,Clear,72000.0,,,,,,,,,
KRDR,04-30-2020,04:56,METAR,Normal,260,3.0,,,9999.0,,3.6,3.5,30.06,1018.9,,,,,,,,,,,,,,,Clear,72000.0,,,,,,,,,
KRDR,04-30-2020,03:56,METAR,Calm,,0.0,,,9999.0,,5.1,5.0,30.07,1019.3,,,,,,,,,,,,,,,Clear,72000.0,,,,,,,,,
KRDR,04-30-2020,02:56,METAR,Calm,,0.0,,,9999.0,,6.1,5.1,30.07,1019.4,,,,,,,,,,,,,,,Clear,72000.0,,,,,,,,,
KRDR,04-30-2020,01:56,METAR,Normal,70,5.0,,,9999.0,,12.1,3.6,30.07,1019.3,,,,,,,,,,,,,,,Clear,72000.0,,,,,,,,,
KRDR,04-30-2020,00:56,METAR,Normal,20,6.0,,,9999.0,,14.7,1.9,30.08,1019.5,,,,,,,,,,,,,,,Clear,72000.0,,,,,,,,,
KRDR,04-29-2020,23:56,METAR,Normal,20,9.0,,,9999.0,,16.5,1.0,30.09,1019.8,,,,,,,,,,,,,,,Clear,72000.0,,,,,,,,,
KRDR,04-29-2020,22:56,METAR,Normal,360,10.0,15.0,,9999.0,,17.2,1.2,30.10,1020.1,,,,,,,,,,,,,,,Clear,72000.0,,,,,,,,,
KRDR,04-29-2020,22:21,SPECI,Normal,40,11.0,15.0,,9999.0,,17.0,1.0,30.10,1020.1,,,,,,,,,,,,,,,Clear,72000.0,,,,,,,,,
KRDR,04-29-2020,21:56,METAR,Normal,340,13.0,,,9999.0,,17.4,1.0,30.10,1020.1,,,,,,,,,,,,,,,Clear,72000.0,,,,,,,,,
KRDR,04-29-2020,20:56,METAR,Normal,20,12.0,,,9999.0,,16.5,2.1,30.11,1020.5,,,,,,,,,,,,,,,Clear,72000.0,,,,,,,,,
KRDR,04-29-2020,19:56,METAR,Normal,350,9.0,17.0,,9999.0,,17.0,2.2,30.12,1020.8,,,,,,,,,,,,,,,Clear,72000.0,,,,,,,,,
KRDR,04-29-2020,19:04,SPECI,Normal,350,13.0,18.0,,9999.0,,16.0,3.0,30.13,1021.1,,,,,,,,,,,,,,,Clear,72000.0,,,,,,,,,
KRDR,04-29-2020,18:56,METAR,Normal,10,12.0,18.0,,9999.0,,16.0,2.4,30.13,1021.1,,,,,,,,,,,,,,,Clear,72000.0,,,,,,,,,
KRDR,04-29-2020,18:10,SPECI,Normal,30,12.0,,,9999.0,,16.0,2.0,30.14,1021.4,,,,,,,,,,,,,,,Clear,72000.0,,,,,,,,,
KRDR,04-29-2020,17:56,METAR,Normal,20,12.0,,,9999.0,,15.2,2.7,30.14,1021.5,,,,,,,,,,,,,,,Clear,72000.0,,,,,,,,,
KRDR,04-29-2020,16:56,METAR,Normal,10,12.0,,,9999.0,,14.4,4.4,30.15,1021.8,,,,,,,,,,,,,,,Clear,72000.0,,,,,,,,,
KRDR,04-29-2020,15:56,METAR,Normal,10,15.0,20.0,,9999.0,,12.0,5.4,30.14,1021.5,,,,,,,,,,,,,,,Clear,72000.0,,,,,,,,,
KRDR,04-29-2020,14:56,METAR,Normal,350,14.0,,,9999.0,,8.4,5.3,30.15,1021.9,,,,,,,,,,,,,,,,6500.0,6500.0,OVC,6500.0,,,,,,
KRDR,04-29-2020,13:56,METAR,Normal,10,12.0,,,9999.0,,5.8,5.2,30.14,1021.7,,,,,,,,,,,,,,,,7000.0,7000.0,OVC,7000.0,,,,,,
KRDR,04-29-2020,13:01,SPECI,Normal,360,14.0,19.0,,9999.0,,6.0,6.0,30.14,1021.7,,,,,,,,,,,,,,,,7000.0,1000.0,FEW,1000.0,BKN,7000.0,,,,
KRDR,04-29-2020,12:56,METAR,Normal,10,13.0,,,9999.0,,6.3,6.2,30.14,1021.7,,,,,,,,,,,,,,,,7500.0,7500.0,BKN,7500.0,,,,,,
KRDR,04-29-2020,11:56,METAR,Normal,360,14.0,20.0,,9999.0,,6.1,5.7,30.11,1020.6,,,,,,,,,,,,,,.02 IN,,9500.0,9500.0,BKN,9600.0,OVC,13000.0,,,,
KRDR,04-29-2020,10:56,METAR,Normal,10,13.0,,,9999.0,,6.5,5.8,30.09,1019.8,,,,,,,,,,,,,,,,8500.0,8500.0,OVC,8600.0,,,,,,
KRDR,04-29-2020,09:56,METAR,Normal,360,13.0,,,9999.0,,6.8,5.9,30.07,1019.2,,,,,,,,,,,,,,,,8000.0,8000.0,OVC,8000.0,,,,,,
KRDR,04-29-2020,08:56,METAR,Normal,360,14.0,24.0,,9999.0,,6.7,6.0,30.04,1018.1,,,,,,,,,,,,,,,,10000.0,8000.0,SCT,8000.0,BKN,10000.0,,,,
KRDR,04-29-2020,07:56,METAR,Normal,350,12.0,,,9999.0,,7.2,6.8,30.02,1017.5,,,,,,,,,,,,,,,,8500.0,8500.0,OVC,8600.0,,,,,,
KRDR,04-29-2020,06:56,METAR,Normal,360,14.0,19.0,,9999.0,,7.9,7.3,30.01,1017.0,,,,,,,,,,,,,,,,8000.0,8000.0,OVC,8000.0,,,,,,
KRDR,04-29-2020,05:56,METAR,Normal,360,13.0,,,9999.0,,9.4,9.1,29.98,1016.0,,,,,,,,,,,.01 IN,,.02 IN,,4/8 Partly Cloudy,72000.0,3900.0,SCT,3900.0,,,,,,
KRDR,04-29-2020,05:48,SPECI,Normal,10,14.0,,,9999.0,,10.0,9.0,29.98,1016.0,,,,,,,,,,,,,,,4/8 Partly Cloudy,72000.0,3700.0,SCT,3700.0,SCT,4500.0,,,,
KRDR,04-29-2020,04:56,METAR,Normal,340,11.0,,,9999.0,Light Rain,10.3,10.3,29.95,1015.0,61,,,,,,,,,,TRACE,,,,,8000.0,6000.0,SCT,6000.0,BKN,8000.0,,,,
KRDR,04-29-2020,04:48,SPECI,Normal,360,11.0,,,9999.0,Light Rain,10.0,10.0,29.95,1015.0,61,,,,,,,,,,,,,,,7000.0,7000.0,BKN,7000.0,,,,,,
KRDR,04-29-2020,03:56,METAR,Normal,310,6.0,,,9999.0,,10.4,10.4,29.93,1014.4,,,,,,,,,,,TRACE,,,,,6500.0,6500.0,OVC,6500.0,,,,,,
KRDR,04-29-2020,03:51,SPECI,Normal,310,4.0,,,9999.0,,10.0,10.0,29.93,1014.4,,,,,,,,,,,,,,,,7000.0,7000.0,BKN,7000.0,,,,,,
KRDR,04-29-2020,03:09,SPECI,Normal,290,6.0,,,9999.0,Light Drizzle,11.0,11.0,29.92,1014.0,51,,,,,,,,,,,,,,4/8 Partly Cloudy,72000.0,7000.0,SCT,7000.0,,,,,,
KRDR,04-29-2020,02:57,SPECI,Calm,,0.0,,,9999.0,,11.0,11.0,29.91,1013.6,,,,,,,,,,,,,,,,7500.0,3500.0,FEW,3500.0,FEW,4400.0,BKN,7500.0,,
KRDR,04-29-2020,02:56,METAR,Calm,,0.0,,,9999.0,Light Rain,11.3,11.3,29.91,1013.6,61,,,,,,,,,,.01 IN,.01 IN,,,,7500.0,3500.0,FEW,3500.0,SCT,4500.0,BKN,7500.0,,
KRDR,04-29-2020,02:21,SPECI,Normal,110,7.0,,,9999.0,Light Drizzle,12.0,11.0,29.90,1013.3,51,,,,,,,,,,,,,,4/8 Partly Cloudy,72000.0,6000.0,FEW,6000.0,SCT,7500.0,,,,
KRDR,04-29-2020,01:56,METAR,Normal,10,5.0,,,9999.0,,12.0,10.9,29.89,1013.0,,,,,,,,,,,,,,,,6000.0,6000.0,BKN,6000.0,OVC,7000.0,,,,
KRDR,04-29-2020,00:56,METAR,Normal,20,5.0,,,9999.0,,12.6,10.7,29.87,1012.3,,,,,,,,,,,TRACE,,,,4/8 Partly Cloudy,72000.0,6500.0,SCT,6500.0,,,,,,
KRDR,04-29-2020,00:48,SPECI,Normal,10,6.0,,,9999.0,,13.0,11.0,29.87,1012.3,,,,,,,,,,,,,,,4/8 Partly Cloudy,72000.0,6000.0,SCT,6000.0,,,,,,
KRDR,04-29-2020,00:37,SPECI,Normal,,,,,9999.0,Light Rain,13.0,11.0,29.86,1011.9,61,,,,,,,,,,,,,,2/8 Mostly Clear,72000.0,6500.0,FEW,6500.0,,,,,,
KRDR,04-29-2020,00:23,SPECI,Normal,30,6.0,,,9999.0,,14.0,10.0,29.86,1011.9,,,,,,,,,,,,,,,Clear,72000.0,,,,,,,,,
KRDR,04-29-2020,00:12,SPECI,Normal,30,6.0,,,9999.0,Light Rain,14.0,9.0,29.85,1011.6,61,,,,,,,,,,,,,,2/8 Mostly Clear,72000.0,6500.0,FEW,6500.0,,,,,,
KRDR,04-28-2020,23:56,METAR,Normal,40,6.0,,,9999.0,,14.7,8.2,29.84,1011.2,,,,,,,,,,,,,,,Clear,72000.0,,,,,,,,,
KRDR,04-28-2020,22:56,METAR,Normal,290,3.0,,,9999.0,,15.8,7.8,29.82,1010.5,,,,,,,,,,,,,,,,12000.0,9500.0,FEW,9600.0,BKN,12000.0,,,,
KRDR,04-28-2020,21:56,METAR,Normal,330,5.0,,,9999.0,,15.8,8.3,29.81,1010.1,,,,,,,,,,,,,,,,10000.0,10000.0,BKN,10000.0,,,,,,
KRDR,04-28-2020,20:56,METAR,Normal,360,6.0,,,9999.0,,16.2,8.7,29.81,1010.1,,,,,,,,,,,,,,,,10000.0,10000.0,OVC,10000.0,,,,,,
KRDR,04-28-2020,19:56,METAR,Normal,290,7.0,,,9999.0,,15.5,9.2,29.81,1010.2,,,,,,,,,,,,,,,2/8 Mostly Clear,72000.0,10000.0,FEW,10000.0,FEW,18000.0,,,,
KRDR,04-28-2020,18:56,METAR,Normal,270,9.0,,,9999.0,,15.2,10.0,29.81,1010.2,,,,,,,,,,,,,,,4/8 Partly Cloudy,72000.0,11000.0,SCT,11000.0,,,,,,
KRDR,04-28-2020,17:56,METAR,Normal,280,10.0,,,9999.0,,16.0,10.5,29.80,1009.8,,,,,,,,,,,,,,,,13000.0,13000.0,BKN,13000.0,,,,,,
KRDR,04-28-2020,16:56,METAR,Calm,,0.0,,,9999.0,,14.8,10.2,29.80,1009.8,,,,,,,,,,,,,,,2/8 Mostly Clear,72000.0,11000.0,FEW,11000.0,,,,,,
KRDR,04-28-2020,15:56,METAR,Normal,210,5.0,,,9999.0,,12.6,10.1,29.80,1009.8,,,,,,,,,,,,,,,,10000.0,8000.0,FEW,8000.0,BKN,10000.0,,,,
KRDR,04-28-2020,14:56,METAR,Normal,210,6.0,,,9999.0,,12.0,9.4,29.79,1009.5,,,,,,,,,,,,,,,,8000.0,8000.0,BKN,8000.0,,,,,,
KRDR,04-28-2020,13:56,METAR,Normal,240,6.0,,,9999.0,,11.8,8.8,29.80,1009.8,,,,,,,,,,,,,,,,8000.0,8000.0,BKN,8000.0,OVC,11000.0,,,,
KRDR,04-28-2020,12:56,METAR,Normal,250,6.0,,,9999.0,,11.0,8.0,29.79,1009.4,,,,,,,,,,,,,,,,10000.0,10000.0,BKN,10000.0,BKN,12000.0,,,,
KRDR,04-28-2020,11:56,METAR,Normal,160,5.0,,,9999.0,,10.5,6.8,29.77,1008.7,,,,,,,,,,,,,,,2/8 Mostly Clear,72000.0,10000.0,FEW,10000.0,FEW,13000.0,,,,
KRDR,04-28-2020,10:56,METAR,Calm,,0.0,,,9999.0,,10.5,5.5,29.78,1009.0,,,,,,,,,,,,,,,,12000.0,12000.0,BKN,12000.0,,,,,,
KRDR,04-28-2020,09:56,METAR,Calm,,0.0,,,9999.0,,12.0,4.2,29.80,1009.6,,,,,,,,,,,,,,,,8000.0,8000.0,OVC,8000.0,,,,,,
KRDR,04-28-2020,08:56,METAR,Calm,,0.0,,,9999.0,,12.1,3.8,29.79,1009.4,,,,,,,,,,,,,,,,8000.0,8000.0,OVC,8000.0,,,,,,
KRDR,04-28-2020,07:56,METAR,Normal,110,3.0,,,9999.0,,10.5,5.3,29.79,1009.4,,,,,,,,,,,,,,,2/8 Mostly Clear,72000.0,9000.0,FEW,9100.0,FEW,12000.0,,,,
KRDR,04-28-2020,06:56,METAR,Normal,180,4.0,,,9999.0,,10.9,4.8,29.79,1009.4,,,,,,,,,,,,,,,,12000.0,12000.0,BKN,12000.0,,,,,,
KRDR,04-28-2020,05:56,METAR,Normal,160,4.0,,,9999.0,,10.9,4.1,29.78,1009.0,,,,,,,,,,,,,,,,11000.0,11000.0,BKN,11000.0,,,,,,
KRDR,04-28-2020,04:56,METAR,Normal,170,7.0,,,9999.0,,12.6,3.3,29.80,1009.7,,,,,,,,,,,,,,,,10000.0,10000.0,BKN,10000.0,BKN,13000.0,,,,
KRDR,04-28-2020,03:56,METAR,Normal,140,4.0,,,9999.0,,13.4,3.7,29.82,1010.5,,,,,,,,,,,,,,,4/8 Partly Cloudy,72000.0,11000.0,SCT,11000.0,,,,,,
KRDR,04-28-2020,02:56,METAR,Normal,150,8.0,,,9999.0,,13.6,3.9,29.82,1010.5,,,,,,,,,,,,,,,Clear,72000.0,,,,,,,,,
KRDR,04-28-2020,01:56,METAR,Normal,100,5.0,,,9999.0,,14.8,1.0,29.82,1010.5,,,,,,,,,,,,,,,4/8 Partly Cloudy,72000.0,13000.0,SCT,13000.0,SCT,16000.0,,,,
KRDR,04-28-2020,00:56,METAR,Normal,110,4.0,,,9999.0,,16.6,0.7,29.82,1010.5,,,,,,,,,,,,,,,,11000.0,11000.0,BKN,11000.0,,,,,,
KRDR,04-27-2020,23:56,METAR,Normal,80,3.0,,,9999.0,,18.8,-1.1,29.83,1010.9,,,,,,,,,,,,,,,,11000.0,11000.0,BKN,11000.0,BKN,13000.0,,,,
KRDR,04-27-2020,22:56,METAR,Normal,330,7.0,,,9999.0,,19.4,-1.1,29.83,1010.9,,,,,,,,,,,,,,,2/8 Mostly Clear,72000.0,11000.0,FEW,11000.0,,,,,,
KRDR,04-27-2020,21:56,METAR,Normal,350,8.0,,,9999.0,,19.5,-0.5,29.83,1010.9,,,,,,,,,,,,,,,Clear,72000.0,,,,,,,,,
KRDR,04-27-2020,20:56,METAR,Normal,330,11.0,,,9999.0,,18.9,-1.0,29.84,1011.1,,,,,,,,,,,,,,,2/8 Mostly Clear,72000.0,11000.0,FEW,11000.0,,,,,,
KRDR,04-27-2020,19:56,METAR,Normal,320,13.0,20.0,,9999.0,,19.7,-0.4,29.85,1011.5,,,,,,,,,,,,,,,2/8 Mostly Clear,72000.0,17000.0,FEW,17000.0,,,,,,
KRDR,04-27-2020,18:56,METAR,Normal,330,13.0,19.0,,9999.0,,19.8,-0.3,29.84,1011.1,,,,,,,,,,,,,,,4/8 Partly Cloudy,72000.0,18000.0,SCT,18000.0,SCT,21000.0,,,,
KRDR,04-27-2020,18:45,SPECI,Normal,310,13.0,20.0,,9999.0,,20.0,0.0,29.85,1011.4,,,,,,,,,,,,,,,2/8 Mostly Clear,72000.0,19000.0,FEW,19000.0,,,,,,
KRDR,04-27-2020,18:33,SPECI,Normal,350,13.0,21.0,,9999.0,,19.0,-1.0,29.86,1011.8,,,,,,,,,,,,,,,2/8 Mostly Clear,72000.0,19000.0,FEW,19000.0,,,,,,
KRDR,04-27-2020,17:56,METAR,Normal,330,12.0,,,9999.0,,18.9,-0.5,29.86,1011.7,,,,,,,,,,,,,,,Clear,72000.0,,,,,,,,,
KRDR,04-27-2020,16:56,METAR,Normal,340,9.0,,,9999.0,,17.8,0.9,29.87,1012.1,,,,,,,,,,,,,,,Clear,72000.0,,,,,,,,,
KRDR,04-27-2020,15:56,METAR,Normal,350,10.0,,,9999.0,,15.8,2.9,29.87,1012.2,,,,,,,,,,,,,,,Clear,72000.0,,,,,,,,,
KRDR,04-27-2020,14:56,METAR,Normal,320,8.0,,,9999.0,,13.8,4.1,29.87,1012.2,,,,,,,,,,,,,,,Clear,72000.0,,,,,,,,,
KRDR,04-27-2020,13:56,METAR,Normal,320,8.0,,,9999.0,,11.9,4.1,29.87,1012.2,,,,,,,,,,,,,,,Clear,72000.0,,,,,,,,,
KRDR,04-27-2020,12:56,METAR,Normal,310,6.0,,,9999.0,,8.7,2.9,29.86,1011.9,,,,,,,,,,,,,,,Clear,72000.0,,,,,,,,,
KRDR,04-27-2020,11:56,METAR,Normal,320,6.0,,,9999.0,,5.9,1.0,29.85,1011.6,,,,,,,,,,,,,,.01 IN,Clear,72000.0,,,,,,,,,
KRDR,04-27-2020,10:56,METAR,Normal,320,8.0,,,9999.0,,6.5,1.0,29.83,1010.9,,,,,,,,,,,,,,,Clear,72000.0,,,,,,,,,
KRDR,04-27-2020,09:56,METAR,Normal,300,8.0,,,9999.0,,6.8,0.7,29.82,1010.5,,,,,,,,,,,,,,,Clear,72000.0,,,,,,,,,
KRDR,04-27-2020,08:56,METAR,Normal,320,8.0,,,9999.0,,10.2,0.0,29.81,1010.0,,,,,,,,,,,,,,,Clear,72000.0,,,,,,,,,
KRDR,04-27-2020,07:56,METAR,Normal,310,7.0,,,9999.0,,8.7,2.7,29.80,1009.8,,,,,,,,,,,,,,,Clear,72000.0,,,,,,,,,
KRDR,04-27-2020,06:56,METAR,Normal,300,4.0,,,9999.0,,10.2,7.1,29.81,1010.1,,,,,,,,,,,,,,,2/8 Mostly Clear,72000.0,11000.0,FEW,11000.0,,,,,,
KRDR,04-27-2020,05:56,METAR,Normal,260,6.0,,,9999.0,,11.3,8.5,29.81,1010.1,,,,,,,,,,,,,.01 IN,,2/8 Mostly Clear,72000.0,11000.0,FEW,11000.0,,,,,,
KRDR,04-27-2020,04:56,METAR,Normal,230,10.0,,,9999.0,,12.1,8.0,29.80,1009.8,,,,,,,,,,,,,,,4/8 Partly Cloudy,72000.0,11000.0,SCT,11000.0,,,,,,
KRDR,04-27-2020,03:56,METAR,Normal,210,10.0,,210/36KTS,9999.0,,12.2,9.6,29.80,1009.8,,,,,,,,,,,,,,,,13000.0,11000.0,FEW,11000.0,OVC,13000.0,,,,
KRDR,04-27-2020,03:04,SPECI,Normal,200,24.0,36.0,,9999.0,,14.0,8.0,29.77,1008.7,,,,,,,,,,,,,,,2/8 Mostly Clear,72000.0,900.0,FEW,900.0,,,,,,
KRDR,04-27-2020,02:56,METAR,Normal,210,24.0,32.0,210/41KTS,9999.0,,13.2,8.5,29.80,1009.8,,,,,,,,,,,.01 IN,.01 IN,,,4/8 Partly Cloudy,72000.0,2500.0,SCT,2500.0,,,,,,
KRDR,04-27-2020,02:48,SPECI,Normal,220,19.0,36.0,,9999.0,,13.0,9.0,29.82,1010.5,,,,,,,,,,,,,,,,7000.0,2500.0,SCT,2500.0,SCT,4500.0,BKN,7000.0,,
KRDR,04-27-2020,02:23,SPECI,Normal,220,10.0,,,9999.0,Light Rain,14.0,7.0,29.81,1010.2,61,,,,,,,,,,,,,,,8000.0,4700.0,FEW,4700.0,OVC,8000.0,,,,
KRDR,04-27-2020,01:56,METAR,Normal,200,6.0,,,9999.0,,14.7,5.5,29.80,1009.8,,,,,,,,,,,,,,,,8500.0,8500.0,BKN,8600.0,,,,,,
KRDR,04-27-2020,00:56,METAR,Normal,180,10.0,,,9999.0,,16.0,5.3,29.80,1010.0,,,,,,,,,,,,,,,,10000.0,10000.0,BKN,10000.0,,,,,,
KRDR,04-26-2020,23:56,METAR,Normal,180,12.0,,,9999.0,Light Rain,17.3,4.9,29.83,1011.0,61,,,,,,,,,,TRACE,,TRACE,,,10000.0,10000.0,BKN,10000.0,,,,,,
KRDR,04-26-2020,22:56,METAR,Normal,210,13.0,,,9999.0,,17.6,3.8,29.86,1012.0,,,,,,,,,,,,,,,2/8 Mostly Clear,72000.0,9500.0,FEW,9600.0,,,,,,
KRDR,04-26-2020,21:56,METAR,Normal,210,15.0,,,9999.0,,18.1,3.2,29.86,1012.1,,,,,,,,,,,,,,,4/8 Partly Cloudy,72000.0,10000.0,FEW,10000.0,SCT,12000.0,,,,
KRDR,04-26-2020,20:56,METAR,Normal,200,16.0,21.0,,9999.0,,19.0,4.0,29.89,1013.1,,,,,,,,,,,,,,,,12000.0,12000.0,BKN,12000.0,,,,,,
KRDR,04-26-2020,19:56,METAR,Normal,210,15.0,,,9999.0,,18.6,2.8,29.91,1013.6,,,,,,,,,,,,,,,Clear,72000.0,,,,,,,,,
KRDR,04-26-2020,18:56,METAR,Normal,210,17.0,23.0,,9999.0,,17.9,4.1,29.93,1014.3,,,,,,,,,,,,,,,2/8 Mostly Clear,72000.0,18000.0,FEW,18000.0,,,,,,
KRDR,04-26-2020,17:56,METAR,Normal,210,13.0,,,9999.0,,17.0,6.5,29.97,1015.7,,,,,,,,,,,,,,,2/8 Mostly Clear,72000.0,19000.0,FEW,19000.0,FEW,21000.0,,,,
KRDR,04-26-2020,16:56,METAR,Normal,200,12.0,,,9999.0,,15.9,7.4,29.98,1016.0,,,,,,,,,,,,,,,Clear,72000.0,,,,,,,,,
KRDR,04-26-2020,15:56,METAR,Normal,210,12.0,,,9999.0,,14.5,7.3,30.00,1016.7,,,,,,,,,,,,,,,Clear,72000.0,,,,,,,,,
KRDR,04-26-2020,14:56,METAR,Normal,190,6.0,,,9999.0,,13.0,7.7,30.01,1017.1,,,,,,,,,,,,,,,Clear,72000.0,,,,,,,,,
KRDR,04-26-2020,13:56,METAR,Normal,190,7.0,,,9999.0,,10.4,7.5,30.03,1017.9,,,,,,,,,,,,,,,Clear,72000.0,,,,,,,,,
KRDR,04-26-2020,12:56,METAR,Normal,240,3.0,,,9999.0,,6.8,6.8,30.04,1018.2,,,,,,,,,,,,,,,Clear,72000.0,,,,,,,,,
KRDR,04-26-2020,12:11,SPECI,Calm,,0.0,,,6400.0,Mist,3.0,3.0,30.03,1018.0,10,,,,,,,,,,,,,,Clear,72000.0,,,,,,,,,
KRDR,04-26-2020,12:06,SPECI,Calm,,0.0,,,800.0,Fog,3.0,3.0,30.03,1018.0,30,,,,,,,,,,,,,,Clear,72000.0,,,,,,,,,
KRDR,04-26-2020,11:56,METAR,Calm,,0.0,,,8000.0,Mist,2.3,2.3,30.03,1018.0,10,,,,,,,,,,,,,,Clear,72000.0,,,,,,,,,
KRDR,04-26-2020,10:56,METAR,Calm,,0.0,,,9999.0,,3.0,3.0,30.05,1018.7,,,,,,,,,,,,,,,,7500.0,7500.0,OVC,7500.0,,,,,,
KRDR,04-26-2020,10:01,SPECI,Calm,,0.0,,,4800.0,Mist,2.0,2.0,30.05,1018.7,10,,,,,,,,,,,,,,,8000.0,8000.0,BKN,8000.0,,,,,,
KRDR,04-26-2020,09:56,METAR,Calm,,0.0,,,1600.0,Mist,1.7,1.7,30.05,1018.7,10,,,,,,,,,,,,,,,8000.0,8000.0,BKN,8000.0,,,,,,
KRDR,04-26-2020,09:51,SPECI,Calm,,0.0,,,1200.0,Mist,2.0,2.0,30.05,1018.7,10,,,,,,,,,,,,,,,8000.0,8000.0,BKN,8000.0,,,,,,
KRDR,04-26-2020,09:41,SPECI,Calm,,0.0,,,1600.0,Mist,1.0,1.0,30.05,1018.7,10,,,,,,,,,,,,,,2/8 Mostly Clear,72000.0,8000.0,FEW,8000.0,,,,,,
KRDR,04-26-2020,09:36,SPECI,Normal,310,3.0,,,1800.0,Mist,1.0,1.0,30.05,1018.7,10,,,,,,,,,,,,,,Clear,72000.0,,,,,,,,,
KRDR,04-26-2020,09:31,SPECI,Normal,310,3.0,,,1000.0,Mist,1.0,1.0,30.05,1018.7,10,,,,,,,,,,,,,,Clear,72000.0,,,,,,,,,
KRDR,04-26-2020,09:21,SPECI,Calm,,0.0,,,1200.0,Mist,2.0,2.0,30.05,1018.7,10,,,,,,,,,,,,,,Clear,72000.0,,,,,,,,,
KRDR,04-26-2020,09:16,SPECI,Calm,,0.0,,,1800.0,Mist,2.0,2.0,30.05,1018.7,10,,,,,,,,,,,,,,Clear,72000.0,,,,,,,,,
KRDR,04-26-2020,09:06,SPECI,Calm,,0.0,,,2000.0,Mist,2.0,2.0,30.05,1018.7,10,,,,,,,,,,,,,,Clear,72000.0,,,,,,,,,
KRDR,04-26-2020,09:01,SPECI,Calm,,0.0,,,1000.0,Mist,2.0,2.0,30.05,1018.7,10,,,,,,,,,,,,,,Clear,72000.0,,,,,,,,,
KRDR,04-26-2020,08:56,METAR,Calm,,0.0,,,1800.0,Mist,1.9,1.9,30.05,1018.7,10,,,,,,,,,,,,,,Clear,72000.0,,,,,,,,,
KRDR,04-26-2020,07:56,METAR,Normal,320,4.0,,,9999.0,,4.0,4.0,30.07,1019.3,,,,,,,,,,,,,,,Clear,72000.0,,,,,,,,,
KRDR,04-26-2020,06:56,METAR,Normal,320,3.0,,,9999.0,,6.6,6.5,30.07,1019.2,,,,,,,,,,,,,,,,8000.0,8000.0,BKN,8000.0,OVC,10000.0,,,,
KRDR,04-26-2020,05:56,METAR,Calm,,0.0,,,9999.0,,6.9,6.8,30.07,1019.2,,,,,,,,,,,,,,,,7000.0,7000.0,BKN,7000.0,BKN,10000.0,,,,
KRDR,04-26-2020,04:56,METAR,Normal,30,4.0,,,9999.0,,7.6,7.2,30.08,1019.6,,,,,,,,,,,,,,,,10000.0,8000.0,FEW,8000.0,BKN,10000.0,,,,
KRDR,04-26-2020,03:56,METAR,Normal,20,5.0,,,9999.0,,8.6,7.2,30.09,1019.8,,,,,,,,,,,,,,,,7500.0,7500.0,BKN,7500.0,,,,,,
KRDR,04-26-2020,02:56,METAR,Normal,30,7.0,,,9999.0,,8.8,6.6,30.08,1019.6,,,,,,,,,,,,,,,2/8 Mostly Clear,72000.0,8500.0,FEW,8600.0,,,,,,
KRDR,04-26-2020,01:56,METAR,Normal,20,5.0,,,9999.0,,9.9,6.4,30.07,1019.3,,,,,,,,,,,,,,,,8500.0,8500.0,BKN,8600.0,,,,,,
KRDR,04-26-2020,00:56,METAR,Normal,40,9.0,,,9999.0,,12.0,6.3,30.07,1019.3,,,,,,,,,,,,,,,,10000.0,6000.0,FEW,6000.0,BKN,10000.0,,,,
KRDR,04-25-2020,23:56,METAR,Normal,50,12.0,,,9999.0,,13.5,5.4,30.05,1018.6,,,,,,,,,,,,,,,Clear,72000.0,,,,,,,,,
KRDR,04-25-2020,22:56,METAR,Normal,30,13.0,,,9999.0,,13.7,6.5,30.05,1018.6,,,,,,,,,,,,,,,4/8 Partly Cloudy,72000.0,12000.0,SCT,12000.0,,,,,,
KRDR,04-25-2020,21:56,METAR,Normal,10,14.0,19.0,,9999.0,,12.5,5.4,30.05,1018.7,,,,,,,,,,,,,,,4/8 Partly Cloudy,72000.0,8000.0,FEW,8000.0,SCT,10000.0,,,,
KRDR,04-25-2020,20:56,METAR,Normal,360,10.0,,,9999.0,,13.1,5.5,30.06,1018.9,,,,,,,,,,,,,,,Clear,72000.0,,,,,,,,,
KRDR,04-25-2020,19:56,METAR,Normal,10,10.0,,,9999.0,,13.1,5.3,30.06,1019.0,,,,,,,,,,,,,,,4/8 Partly Cloudy,72000.0,7000.0,FEW,7000.0,SCT,10000.0,,,,
KRDR,04-25-2020,18:56,METAR,Normal,20,10.0,,,9999.0,,13.9,5.5,30.05,1018.5,,,,,,,,,,,,,,,4/8 Partly Cloudy,72000.0,9500.0,SCT,9600.0,SCT,14000.0,,,,
KRDR,04-25-2020,17:56,METAR,Normal,40,8.0,,,9999.0,,13.6,6.0,30.05,1018.6,,,,,,,,,,,,,,,,10000.0,8000.0,SCT,8000.0,BKN,10000.0,,,,
KRDR,04-25-2020,16:56,METAR,Normal,50,6.0,,,9999.0,,12.5,6.5,30.05,1018.6,,,,,,,,,,,,,,,,7000.0,7000.0,BKN,7000.0,BKN,9100.0,,,,
KRDR,04-25-2020,15:56,METAR,Normal,70,4.0,,,9999.0,,12.1,5.9,30.04,1018.3,,,,,,,,,,,,,,,,10000.0,7500.0,SCT,7500.0,OVC,10000.0,,,,
KRDR,04-25-2020,14:56,METAR,Normal,20,5.0,,,9999.0,,10.9,6.6,30.04,1018.3,,,,,,,,,,,,,,,Clear,72000.0,,,,,,,,,
KRDR,04-25-2020,13:56,METAR,Normal,10,6.0,,,9999.0,,7.1,7.0,30.04,1018.3,,,,,,,,,,,,,,,,7500.0,7500.0,BKN,7500.0,,,,,,
KRDR,04-25-2020,12:56,METAR,Normal,10,5.0,,,9999.0,,6.1,6.1,30.02,1017.6,,,,,,,,,,,,,,,4/8 Partly Cloudy,72000.0,7000.0,FEW,7000.0,SCT,8600.0,,,,
KRDR,04-25-2020,11:56,METAR,Calm,,0.0,,,9999.0,,4.2,4.2,30.01,1017.2,,,,,,,,,,,,,,,,7000.0,7000.0,BKN,7000.0,OVC,10000.0,,,,
KRDR,04-25-2020,10:56,METAR,Normal,330,3.0,,,9999.0,,4.6,4.6,30.00,1016.8,,,,,,,,,,,,,,,,8500.0,8500.0,OVC,8600.0,,,,,,
KRDR,04-25-2020,09:56,METAR,Normal,340,4.0,,,9999.0,,3.1,3.1,30.00,1016.8,,,,,,,,,,,,,,,2/8 Mostly Clear,72000.0,8000.0,FEW,8000.0,,,,,,
KRDR,04-25-2020,08:56,METAR,Calm,,0.0,,,9999.0,,4.1,4.1,29.99,1016.4,,,,,,,,,,,,,,,4/8 Partly Cloudy,72000.0,8500.0,SCT,8600.0,,,,,,
KRDR,04-25-2020,07:56,METAR,Normal,360,5.0,,,9999.0,,3.8,3.8,29.99,1016.4,,,,,,,,,,,,,,,,8000.0,8000.0,BKN,8000.0,,,,,,
KRDR,04-25-2020,06:56,METAR,Calm,,0.0,,,9999.0,,5.1,5.1,29.98,1016.1,,,,,,,,,,,,,,,,10000.0,10000.0,BKN,10000.0,,,,,,
KRDR,04-25-2020,05:56,METAR,Calm,,0.0,,,9999.0,,4.3,4.3,29.99,1016.5,,,,,,,,,,,,,,,,9000.0,9000.0,BKN,9100.0,,,,,,
KRDR,04-25-2020,05:46,SPECI,Calm,,0.0,,,4800.0,Mist,4.0,4.0,29.99,1016.5,10,,,,,,,,,,,,,,4/8 Partly Cloudy,72000.0,9000.0,SCT,9100.0,,,,,,
KRDR,04-25-2020,04:56,METAR,Calm,,0.0,,,9999.0,,4.6,4.6,29.98,1016.2,,,,,,,,,,,,,,,Clear,72000.0,,,,,,,,,
KRDR,04-25-2020,03:56,METAR,Calm,,0.0,,,9999.0,,5.9,5.9,29.99,1016.5,,,,,,,,,,,,,,,Clear,72000.0,,,,,,,,,
KRDR,04-25-2020,02:56,METAR,Calm,,0.0,,,9999.0,,6.2,6.1,29.98,1016.2,,,,,,,,,,,,,,,4/8 Partly Cloudy,72000.0,13000.0,SCT,13000.0,,,,,,
KRDR,04-25-2020,01:56,METAR,Calm,,0.0,,,9999.0,,9.5,5.9,29.97,1015.8,,,,,,,,,,,,,,,4/8 Partly Cloudy,72000.0,10000.0,SCT,10000.0,,,,,,
KRDR,04-25-2020,00:56,METAR,Normal,60,8.0,,,9999.0,,12.5,6.3,29.96,1015.5,,,,,,,,,,,,,,,4/8 Partly Cloudy,72000.0,8000.0,SCT,8000.0,,,,,,
KRDR,04-25-2020,00:26,SPECI,Normal,20,12.0,25.0,,9999.0,,14.0,5.0,29.95,1015.2,,,,,,,,,,,,,,,4/8 Partly Cloudy,72000.0,8000.0,SCT,8000.0,,,,,,
KRDR,04-24-2020,23:56,METAR,Calm,,0.0,,,9999.0,,16.7,-1.0,29.94,1014.9,,,,,,,,,,,,,,,Clear,72000.0,,,,,,,,,
KRDR,04-24-2020,22:56,METAR,Calm,,0.0,,,9999.0,,17.4,0.5,29.93,1014.5,,,,,,,,,,,,,,,Clear,72000.0,,,,,,,,,
KRDR,04-24-2020,21:56,METAR,Calm,,0.0,,,9999.0,,17.6,-0.2,29.93,1014.4,,,,,,,,,,,,,,,Clear,72000.0,,,,,,,,,
KRDR,04-24-2020,20:56,METAR,Normal,160,4.0,,,9999.0,,17.6,0.3,29.93,1014.4,,,,,,,,,,,,,,,Clear,72000.0,,,,,,,,,
KRDR,04-24-2020,19:56,METAR,Normal,120,4.0,,,9999.0,,17.9,0.1,29.95,1015.1,,,,,,,,,,,,,,,Clear,72000.0,,,,,,,,,
KRDR,04-24-2020,18:56,METAR,Normal,130,7.0,,,9999.0,,17.1,0.3,29.96,1015.4,,,,,,,,,,,,,,,Clear,72000.0,,,,,,,,,
KRDR,04-24-2020,17:56,METAR,Calm,,0.0,,,9999.0,,16.6,1.5,29.96,1015.4,,,,,,,,,,,,,,,Clear,72000.0,,,,,,,,,
KRDR,04-24-2020,16:56,METAR,Normal,60,7.0,,,9999.0,,15.6,1.3,29.97,1015.8,,,,,,,,,,,,,,,Clear,72000.0,,,,,,,,,
KRDR,04-24-2020,15:56,METAR,Normal,20,6.0,,,9999.0,,13.4,2.3,29.97,1015.9,,,,,,,,,,,,,,,Clear,72000.0,,,,,,,,,
KRDR,04-24-2020,14:56,METAR,Normal,30,8.0,,,9999.0,,11.1,2.1,29.96,1015.6,,,,,,,,,,,,,,,Clear,72000.0,,,,,,,,,
KRDR,04-24-2020,12:56,METAR,Normal,340,5.0,,,9999.0,,5.9,2.9,29.93,1014.4,,,,,,,,,,,,,,,Clear,72000.0,,,,,,,,,
KRDR,04-24-2020,11:56,METAR,Normal,320,6.0,,,9999.0,,0.8,0.4,29.91,1014.0,,,,,,,,,,,,,,,Clear,72000.0,,,,,,,,,
KRDR,04-24-2020,10:56,METAR,Normal,320,6.0,,,9999.0,,1.2,0.3,29.88,1012.9,,,,,,,,,,,,,,,Clear,72000.0,,,,,,,,,
KRDR,04-24-2020,09:56,METAR,Normal,340,5.0,,,9999.0,,2.2,1.2,29.87,1012.6,,,,,,,,,,,,,,,Clear,72000.0,,,,,,,,,
KRDR,04-24-2020,08:56,METAR,Normal,340,6.0,,,9999.0,,2.3,1.4,29.85,1011.7,,,,,,,,,,,,,,,Clear,72000.0,,,,,,,,,
KRDR,04-24-2020,07:56,METAR,Normal,340,5.0,,,9999.0,,3.4,1.6,29.85,1011.7,,,,,,,,,,,,,,,Clear,72000.0,,,,,,,,,
KRDR,04-24-2020,06:56,METAR,Normal,330,6.0,,,9999.0,,4.4,1.9,29.82,1010.7,,,,,,,,,,,,,,,Clear,72000.0,,,,,,,,,
KRDR,04-24-2020,05:56,METAR,Normal,330,6.0,,,9999.0,,4.6,4.5,29.80,1010.0,,,,,,,,,,,,,,,Clear,72000.0,,,,,,,,,
KRDR,04-24-2020,04:56,METAR,Normal,320,7.0,,,9999.0,,6.0,5.9,29.80,1010.1,,,,,,,,,,,,,,,Clear,72000.0,,,,,,,,,
KRDR,04-24-2020,03:56,METAR,Normal,320,5.0,,,9999.0,,5.4,5.4,29.78,1009.5,,,,,,,,,,,,,,,Clear,72000.0,,,,,,,,,
KRDR,04-24-2020,02:56,METAR,Normal,290,4.0,,,9999.0,,5.6,5.6,29.77,1009.1,,,,,,,,,,,,,,,Clear,72000.0,,,,,,,,,
KRDR,04-24-2020,01:56,METAR,Normal,290,3.0,,,9999.0,,8.7,7.9,29.75,1008.4,,,,,,,,,,,,,,,Clear,72000.0,,,,,,,,,
KRDR,04-24-2020,00:56,METAR,Calm,,0.0,,,9999.0,,13.4,7.8,29.74,1008.0,,,,,,,,,,,,,,,Clear,72000.0,,,,,,,,,
KRDR,04-23-2020,23:56,METAR,Normal,210,3.0,,,9999.0,,13.7,7.0,29.73,1007.6,,,,,,,,,,,,,TRACE,,,10000.0,10000.0,BKN,10000.0,,,,,,
KRDR,04-23-2020,22:56,METAR,Normal,100,6.0,,,9999.0,,13.9,5.8,29.72,1007.3,,,,,,,,,,,TRACE,,,,,7000.0,7000.0,BKN,7000.0,BKN,12000.0,,,,
KRDR,04-23-2020,22:05,SPECI,Normal,70,10.0,,,9999.0,,13.0,7.0,29.71,1007.0,,,,,,,,,,,,,,,2/8 Mostly Clear,72000.0,7000.0,FEW,7000.0,,,,,,
KRDR,04-23-2020,21:56,METAR,Normal,50,13.0,,010/28KTS,9999.0,Light Rain,12.7,8.0,29.71,1007.0,61,,,,,,,,,,TRACE,,,,2/8 Mostly Clear,72000.0,7000.0,FEW,7000.0,,,,,,
KRDR,04-23-2020,21:51,SPECI,Normal,40,14.0,,,9999.0,Light Rain,13.0,7.0,29.70,1006.7,61,,,,,,,,,,,,,,2/8 Mostly Clear,72000.0,6500.0,FEW,6500.0,,,,,,
KRDR,04-23-2020,21:47,SPECI,Normal,30,17.0,27.0,,9999.0,,13.0,7.0,29.70,1006.7,,,,,,,,,,,,,,,4/8 Partly Cloudy,72000.0,6500.0,SCT,6500.0,,,,,,
KRDR,04-23-2020,21:27,SPECI,Normal,10,14.0,20.0,,9999.0,Light Drizzle,16.0,6.0,29.69,1006.2,51,,,,,,,,,,,,,,,6000.0,6000.0,BKN,6000.0,BKN,7500.0,,,,
KRDR,04-23-2020,21:12,SPECI,Normal,10,6.0,,,9999.0,Distant Lightning,18.0,2.0,29.68,1005.8,12,,,,,,,,,,,,,,4/8 Partly Cloudy,72000.0,6500.0,SCT,6500.0,SCT,10000.0,,,,
KRDR,04-23-2020,20:56,METAR,Normal,130,3.0,,,9999.0,,17.8,3.3,29.68,1005.8,,,,,,,,,,,,,,,2/8 Mostly Clear,72000.0,11000.0,FEW,11000.0,,,,,,
KRDR,04-23-2020,19:56,METAR,Normal,70,4.0,,,9999.0,,17.0,5.3,29.68,1005.9,,,,,,,,,,,,,,,,11000.0,7500.0,FEW,7500.0,SCT,9100.0,BKN,11000.0,,
KRDR,04-23-2020,18:56,METAR,Normal,30,4.0,,,9999.0,,16.4,7.3,29.69,1006.2,,,,,,,,,,,,,,,4/8 Partly Cloudy,72000.0,8500.0,SCT,8600.0,,,,,,
KRDR,04-23-2020,17:56,METAR,Normal,340,6.0,,,9999.0,,15.3,6.8,29.70,1006.6,,,,,,,,,,,,,,,,18000.0,7500.0,SCT,7500.0,SCT,9600.0,BKN,18000.0,,
KRDR,04-23-2020,16:56,METAR,Normal,360,4.0,,,9999.0,,12.5,7.2,29.70,1006.7,,,,,,,,,,,,,,,4/8 Partly Cloudy,72000.0,7500.0,SCT,7500.0,SCT,11000.0,,,,
KRDR,04-23-2020,15:56,METAR,Normal,320,6.0,,,9999.0,,11.7,6.6,29.70,1006.7,,,,,,,,,,,,,,,4/8 Partly Cloudy,72000.0,9000.0,FEW,9100.0,SCT,11000.0,,,,
KRDR,04-23-2020,14:56,METAR,Normal,350,4.0,,,9999.0,,9.9,6.4,29.69,1006.4,,,,,,,,,,,,,,,,8000.0,8000.0,BKN,8000.0,,,,,,
KRDR,04-23-2020,13:56,METAR,Calm,,0.0,,,9999.0,,7.6,7.2,29.69,1006.4,,,,,,,,,,,,,,,2/8 Mostly Clear,72000.0,8000.0,FEW,8000.0,,,,,,
KRDR,04-23-2020,12:56,METAR,Calm,,0.0,,,9999.0,,6.3,6.2,29.68,1006.0,,,,,,,,,,,,,,,,8000.0,8000.0,BKN,8000.0,,,,,,
KRDR,04-23-2020,11:56,METAR,Calm,,0.0,,,9999.0,,4.8,4.7,29.66,1005.3,,,,,,,,,,,.01 IN,,.03 IN,.03 IN,2/8 Mostly Clear,72000.0,8000.0,FEW,8000.0,,,,,,
KRDR,04-23-2020,11:32,SPECI,Normal,160,6.0,,,9999.0,,6.0,6.0,29.66,1005.2,,,,,,,,,,,,,,,,7500.0,6500.0,SCT,6500.0,BKN,7500.0,,,,
KRDR,04-23-2020,11:18,SPECI,Normal,180,6.0,,,9999.0,Light Rain,6.0,6.0,29.66,1005.2,61,,,,,,,,,,,,,,,6500.0,6500.0,BKN,6500.0,,,,,,
KRDR,04-23-2020,10:59,SPECI,Normal,170,5.0,,,9999.0,,6.0,6.0,29.66,1005.2,,,,,,,,,,,,,,,,6500.0,3100.0,FEW,3100.0,BKN,6500.0,BKN,8000.0,,
KRDR,04-23-2020,10:56,METAR,Normal,90,5.0,,,9999.0,Light Drizzle,5.7,5.6,29.66,1005.2,51,,,,,,,,,,.01 IN,,,,,6500.0,3100.0,FEW,3100.0,BKN,6500.0,,,,
KRDR,04-23-2020,10:36,SPECI,Normal,320,3.0,,,9999.0,Light Rain,6.0,5.0,29.67,1005.6,61,,,,,,,,,,,,,,,6000.0,6000.0,OVC,6000.0,,,,,,
KRDR,04-23-2020,09:56,METAR,Normal,160,5.0,,,9999.0,,5.2,5.1,29.66,1005.3,,,,,,,,,,,.01 IN,,,,,6500.0,6500.0,BKN,6500.0,BKN,13000.0,,,,
KRDR,04-23-2020,09:31,SPECI,Normal,90,4.0,,,9999.0,,5.0,5.0,29.68,1006.0,,,,,,,,,,,,,,,,6500.0,3900.0,FEW,3900.0,BKN,6500.0,,,,
KRDR,04-23-2020,08:56,METAR,Normal,270,4.0,,,9999.0,Light Rain,5.2,5.1,29.67,1005.6,61,,,,,,,,,,TRACE,TRACE,,,,7000.0,7000.0,OVC,7000.0,,,,,,
KRDR,04-23-2020,08:50,SPECI,Normal,270,4.0,,,9999.0,Light Rain,5.0,5.0,29.67,1005.6,61,,,,,,,,,,,,,,,7000.0,7000.0,OVC,7000.0,,,,,,
KRDR,04-23-2020,07:56,METAR,Calm,,0.0,,,9999.0,,4.8,4.7,29.67,1005.7,,,,,,,,,,,,,,,2/8 Mostly Clear,72000.0,7500.0,FEW,7500.0,,,,,,
KRDR,04-23-2020,06:56,METAR,Calm,,0.0,,,9999.0,,5.8,4.9,29.68,1006.0,,,,,,,,,,,,,,,,8500.0,8500.0,BKN,8600.0,,,,,,
KRDR,04-23-2020,05:56,METAR,Calm,,0.0,,,9999.0,,5.7,5.6,29.69,1006.4,,,,,,,,,,,,,,,,10000.0,10000.0,OVC,10000.0,,,,,,
KRDR,04-23-2020,04:56,METAR,Calm,,0.0,,,9999.0,,3.9,3.9,29.69,1006.5,,,,,,,,,,,,,,,,10000.0,10000.0,BKN,10000.0,,,,,,
KRDR,04-23-2020,03:56,METAR,Calm,,0.0,,,9999.0,,4.1,4.0,29.70,1006.9,,,,,,,,,,,,,,,Clear,72000.0,,,,,,,,,
KRDR,04-23-2020,02:56,METAR,Calm,,0.0,,,9999.0,,5.4,3.1,29.71,1007.3,,,,,,,,,,,,,,,Clear,72000.0,,,,,,,,,
KRDR,04-23-2020,01:56,METAR,Normal,70,3.0,,,9999.0,,8.7,3.1,29.71,1007.2,,,,,,,,,,,,,,,Clear,72000.0,,,,,,,,,
KRDR,04-23-2020,00:56,METAR,Normal,350,3.0,,,9999.0,,11.3,4.1,29.72,1007.6,,,,,,,,,,,,,,,Clear,72000.0,,,,,,,,,
KRDR,04-22-2020,23:56,METAR,Normal,330,4.0,,,9999.0,,13.4,3.5,29.73,1007.8,,,,,,,,,,,,,,,Clear,72000.0,,,,,,,,,
KRDR,04-22-2020,22:56,METAR,Calm,,0.0,,,9999.0,,13.4,3.2,29.71,1007.1,,,,,,,,,,,,,,,Clear,72000.0,,,,,,,,,
KRDR,04-22-2020,21:56,METAR,Calm,,0.0,,,9999.0,,13.5,3.0,29.71,1007.1,,,,,,,,,,,,,,,Clear,72000.0,,,,,,,,,
KRDR,04-22-2020,20:56,METAR,Normal,20,3.0,,,9999.0,,12.3,2.2,29.72,1007.6,,,,,,,,,,,,,,,Clear,72000.0,,,,,,,,,
KRDR,04-22-2020,19:56,METAR,Normal,70,4.0,,,9999.0,,11.7,1.6,29.71,1007.2,,,,,,,,,,,,,,,Clear,72000.0,,,,,,,,,
KRDR,04-22-2020,18:56,METAR,Normal,70,6.0,,,9999.0,,11.3,1.5,29.73,1007.9,,,,,,,,,,,,,,,Clear,72000.0,,,,,,,,,
KRDR,04-22-2020,17:56,METAR,Normal,40,6.0,,,9999.0,,10.8,0.5,29.72,1007.6,,,,,,,,,,,,,,,Clear,72000.0,,,,,,,,,
KRDR,04-22-2020,16:56,METAR,Normal,40,5.0,,,9999.0,,8.8,0.0,29.71,1007.4,,,,,,,,,,,,,,,Clear,72000.0,,,,,,,,,
KRDR,04-22-2020,15:56,METAR,Calm,,0.0,,,9999.0,,7.4,-1.1,29.71,1007.4,,,,,,,,,,,,,,,Clear,72000.0,,,,,,,,,
KRDR,04-22-2020,14:56,METAR,Normal,140,3.0,,,9999.0,,5.5,-1.7,29.71,1007.4,,,,,,,,,,,,,,,Clear,72000.0,,,,,,,,,
KRDR,04-22-2020,13:56,METAR,Normal,140,6.0,,,9999.0,,3.8,-2.2,29.71,1007.4,,,,,,,,,,,,,,,2/8 Mostly Clear,72000.0,18000.0,FEW,18000.0,,,,,,
KRDR,04-22-2020,12:56,METAR,Normal,150,4.0,,,9999.0,,1.3,-1.8,29.69,1006.8,,,,,,,,,,,,,,,,13000.0,13000.0,BKN,13000.0,,,,,,
KRDR,04-22-2020,11:56,METAR,Normal,140,6.0,,,9999.0,,0.9,-2.2,29.69,1006.7,,,,,,,,,,,,,TRACE,,,10000.0,10000.0,BKN,10000.0,OVC,14000.0,,,,
KRDR,04-22-2020,10:56,METAR,Normal,120,10.0,,,9999.0,,0.1,-1.7,29.67,1006.1,,,,,,,,,,,TRACE,,,,2/8 Mostly Clear,72000.0,11000.0,FEW,11000.0,,,,,,
KRDR,04-22-2020,10:32,SPECI,Normal,80,6.0,,,9999.0,,0.0,-1.0,29.70,1007.2,,,,,,,,,,,,,,,2/8 Mostly Clear,72000.0,11000.0,FEW,11000.0,FEW,13000.0,,,,
KRDR,04-22-2020,10:21,SPECI,Normal,340,5.0,,,9999.0,Precipitation,0.0,-1.0,29.73,1008.2,41,,,,,,,,,,,,,,,11000.0,4200.0,FEW,4200.0,BKN,11000.0,BKN,13000.0,,
KRDR,04-22-2020,09:56,METAR,Normal,110,6.0,,,9999.0,,-0.3,-1.4,29.69,1006.8,,,,,,,,,,,,,,,,12000.0,12000.0,OVC,12000.0,,,,,,
KRDR,04-22-2020,08:56,METAR,Normal,190,4.0,,,9999.0,,-0.1,-1.2,29.70,1007.2,,,,,,,,,,,,,,,,12000.0,12000.0,BKN,12000.0,BKN,15000.0,,,,
KRDR,04-22-2020,07:56,METAR,Normal,130,8.0,,,9999.0,,0.1,-1.0,29.69,1006.9,,,,,,,,,,,,,,,,11000.0,11000.0,BKN,11000.0,BKN,16000.0,,,,
KRDR,04-22-2020,06:56,METAR,Normal,160,9.0,,,9999.0,,0.1,-1.2,29.72,1007.9,,,,,,,,,,,,,,,,10000.0,10000.0,BKN,10000.0,,,,,,
KRDR,04-22-2020,05:56,METAR,Normal,60,4.0,,,9999.0,,-1.1,-1.5,29.76,1009.4,,,,,,,,,,,,,,,2/8 Mostly Clear,72000.0,11000.0,FEW,11000.0,FEW,15000.0,,,,
KRDR,04-22-2020,04:56,METAR,Normal,150,4.0,,,9999.0,,-1.1,-1.7,29.76,1009.4,,,,,,,,,,,,,,,Clear,72000.0,,,,,,,,,
KRDR,04-22-2020,03:56,METAR,Normal,160,7.0,,,9999.0,,0.5,-0.8,29.78,1010.0,,,,,,,,,,,,,,,Clear,72000.0,,,,,,,,,
KRDR,04-22-2020,02:56,METAR,Normal,140,8.0,,,9999.0,,1.0,-0.3,29.80,1010.7,,,,,,,,,,,,,,,Clear,72000.0,,,,,,,,,
KRDR,04-22-2020,01:56,METAR,Normal,130,8.0,,,9999.0,,2.0,0.5,29.81,1011.1,,,,,,,,,,,,,,,2/8 Mostly Clear,72000.0,1800.0,FEW,1800.0,,,,,,
KRDR,04-22-2020,01:36,SPECI,Normal,140,8.0,,,9999.0,,3.0,1.0,29.81,1011.0,,,,,,,,,,,,,,,2/8 Mostly Clear,72000.0,1800.0,FEW,1800.0,,,,,,
KRDR,04-21-2020,23:56,METAR,Normal,150,11.0,,,9999.0,,4.1,0.6,29.83,1011.7,,,,,,,,,,,,,,,,1700.0,1700.0,OVC,1700.0,,,,,,
KRDR,04-21-2020,23:02,SPECI,Normal,150,12.0,,,9999.0,,5.0,1.0,29.84,1012.1,,,,,,,,,,,,,,,,1700.0,1800.0,OVC,1800.0,,,,,,
KRDR,04-21-2020,22:56,METAR,Normal,190,12.0,,,9999.0,,4.3,0.4,29.85,1012.4,,,,,,,,,,,,,,,,1700.0,1800.0,OVC,1800.0,,,,,,
KRDR,04-21-2020,22:53,SPECI,Normal,190,13.0,,,9999.0,,4.0,1.0,29.85,1012.4,,,,,,,,,,,,,,,,1700.0,1800.0,OVC,1800.0,,,,,,
KRDR,04-21-2020,21:56,METAR,Normal,170,11.0,,,9999.0,,3.4,-0.8,29.88,1013.5,,,,,,,,,,,,,,,,1800.0,1800.0,BKN,1800.0,BKN,11000.0,,,,
KRDR,04-21-2020,21:36,SPECI,Normal,180,12.0,,,9999.0,,3.0,-1.0,29.89,1013.9,,,,,,,,,,,,,,,,11000.0,1800.0,SCT,1800.0,BKN,11000.0,,,,
KRDR,04-21-2020,20:56,METAR,Normal,180,12.0,,,9999.0,,3.1,-1.3,29.91,1014.5,,,,,,,,,,,,,,,,1900.0,1900.0,OVC,1900.0,,,,,,
KRDR,04-21-2020,20:16,SPECI,Normal,190,13.0,,,9999.0,,3.0,-2.0,29.93,1015.2,,,,,,,,,,,,,,,,2200.0,2000.0,SCT,2000.0,BKN,2500.0,BKN,10000.0,,
KRDR,04-21-2020,19:56,METAR,Normal,180,12.0,20.0,,9999.0,,2.7,-2.0,29.92,1014.9,,,,,,,,,,,,,,,,10000.0,2100.0,FEW,2100.0,BKN,10000.0,,,,
KRDR,04-21-2020,19:16,SPECI,Normal,180,12.0,,,9999.0,,2.0,-3.0,29.94,1015.6,,,,,,,,,,,,,,,,4900.0,2100.0,FEW,2100.0,OVC,4900.0,,,,
KRDR,04-21-2020,19:06,SPECI,Normal,170,11.0,,,9999.0,,2.0,-3.0,29.94,1015.6,,,,,,,,,,,,,,,,2100.0,2100.0,BKN,2100.0,OVC,5000.0,,,,
KRDR,04-21-2020,18:56,METAR,Normal,180,10.0,,,9999.0,,1.5,-3.2,29.95,1016.0,,,,,,,,,,,,,,,,5000.0,2100.0,SCT,2100.0,OVC,5000.0,,,,
KRDR,04-21-2020,17:56,METAR,Normal,160,11.0,,,9999.0,,-0.1,-3.5,29.96,1016.3,,,,,,,,,,,,,TRACE,,,5500.0,1800.0,FEW,1800.0,OVC,5500.0,,,,
KRDR,04-21-2020,16:56,METAR,Normal,170,11.0,,,9999.0,,-0.6,-3.0,29.98,1017.1,,,,,,,,,,,.02 IN,,.02 IN,,,6000.0,1300.0,FEW,1300.0,SCT,3300.0,BKN,6000.0,,
KRDR,04-21-2020,16:29,SPECI,Normal,160,11.0,,,9999.0,Light Snow,-1.0,-2.0,30.00,1017.7,,,,71,,,,,,,,,,,,1300.0,900.0,FEW,900.0,BKN,1400.0,BKN,6500.0,,
KRDR,04-21-2020,15:56,METAR,Normal,180,9.0,,,3200.0,Light Snow/Mist,-1.9,-3.6,30.01,1018.0,71,10,,,,,,,,,TRACE,,,,,1500.0,1500.0,OVC,1500.0,,,,,,
KRDR,04-21-2020,15:52,SPECI,Normal,190,9.0,,,3200.0,Precipitation/Mist,-2.0,-4.0,30.01,1018.0,41,10,,,,,,,,,,,,,,1500.0,1500.0,OVC,1500.0,,,,,,
KRDR,04-21-2020,15:42,SPECI,Normal,180,9.0,,,3600.0,Light Snow,-2.0,-4.0,30.01,1018.0,71,,,,,,,,,,,,,,,1900.0,2000.0,OVC,2000.0,,,,,,
KRDR,04-21-2020,15:31,SPECI,Normal,180,6.0,,,8000.0,Light Snow,-2.0,-5.0,30.01,1018.0,,,,71,,,,,,,,,,,,1900.0,1900.0,BKN,1900.0,BKN,2500.0,OVC,3000.0,,
KRDR,04-21-2020,15:19,SPECI,Normal,190,7.0,,,8000.0,Light Snow,-1.0,-5.0,30.02,1018.3,71,,,,,,,,,,,,,,,2300.0,2100.0,SCT,2100.0,BKN,2700.0,OVC,3300.0,,
KRDR,04-21-2020,15:01,SPECI,Normal,150,6.0,,,9999.0,,-1.0,-7.0,30.02,1018.3,,,,,,,,,,,,,,,,3300.0,1900.0,FEW,1900.0,BKN,3300.0,OVC,5000.0,,
KRDR,04-21-2020,14:56,METAR,Normal,160,4.0,,,9999.0,Precipitation,-1.1,-6.8,30.02,1018.3,41,,,,,,,,,,TRACE,TRACE,,,,3400.0,1900.0,FEW,1900.0,SCT,2700.0,OVC,3400.0,,
KRDR,04-21-2020,14:51,SPECI,Normal,160,5.0,,,9999.0,Precipitation,-1.0,-7.0,30.02,1018.3,41,,,,,,,,,,,,,,,2800.0,1900.0,SCT,1900.0,BKN,2800.0,OVC,3400.0,,
KRDR,04-21-2020,14:48,SPECI,Normal,170,6.0,,,9999.0,,-1.0,-7.0,30.01,1018.0,,,,,,,,,,,,,,,,3400.0,1900.0,SCT,1900.0,SCT,2700.0,OVC,3400.0,,
KRDR,04-21-2020,14:46,SPECI,Normal,160,4.0,,,9999.0,Precipitation,-1.0,-7.0,30.01,1018.0,41,,,,,,,,,,,,,,,3500.0,1900.0,SCT,1900.0,SCT,2900.0,BKN,3500.0,,
KRDR,04-21-2020,13:56,METAR,Normal,150,3.0,,,9999.0,,-1.4,-5.8,30.04,1018.9,,,,,,,,,,,,,,,,7500.0,3000.0,FEW,3000.0,FEW,3800.0,SCT,4600.0,SCT,6000.0
KRDR,04-21-2020,12:56,METAR,Calm,,0.0,,,9999.0,,-2.0,-5.2,30.03,1018.6,,,,,,,,,,,,,,,,7000.0,5500.0,FEW,5500.0,BKN,7000.0,OVC,8600.0,,
KRDR,04-21-2020,11:56,METAR,Calm,,0.0,,,9999.0,,-3.7,-3.8,30.01,1017.9,,,,,,,,,,,,,,,,6500.0,6500.0,BKN,6500.0,OVC,9100.0,,,,
KRDR,04-21-2020,10:56,METAR,Calm,,0.0,,,9999.0,,-4.1,-4.2,29.99,1017.2,,,,,,,,,,,,,,,,7500.0,7500.0,BKN,7500.0,BKN,8600.0,,,,
KRDR,04-21-2020,09:56,METAR,Calm,,0.0,,,9999.0,,-4.5,-4.8,29.98,1016.9,,,,,,,,,,,,,,,,9500.0,9500.0,BKN,9600.0,,,,,,
KRDR,04-21-2020,08:56,METAR,Normal,290,3.0,,,9999.0,,-3.9,-4.6,29.96,1016.3,,,,,,,,,,,,,,,,11000.0,11000.0,BKN,11000.0,OVC,14000.0,,,,
KRDR,04-21-2020,07:56,METAR,Normal,330,5.0,,,9999.0,,-5.0,-5.7,29.96,1016.2,,,,,,,,,,,,,,,4/8 Partly Cloudy,72000.0,11000.0,SCT,11000.0,,,,,,
KRDR,04-21-2020,06:56,METAR,Normal,300,4.0,,,9999.0,,-5.2,-5.3,29.95,1015.8,,,,,,,,,,,,,,,Clear,72000.0,,,,,,,,,
KRDR,04-21-2020,05:56,METAR,Normal,340,5.0,,,9999.0,,-3.9,-4.7,29.94,1015.5,,,,,,,,,,,,,,,Clear,72000.0,,,,,,,,,
KRDR,04-21-2020,04:56,METAR,Normal,350,6.0,,,9999.0,,-3.9,-5.3,29.93,1015.1,,,,,,,,,,,,,,,Clear,72000.0,,,,,,,,,
KRDR,04-21-2020,03:56,METAR,Normal,360,9.0,,,9999.0,,-1.5,-5.9,29.92,1014.7,,,,,,,,,,,,,,,Clear,72000.0,,,,,,,,,
KRDR,04-21-2020,02:56,METAR,Normal,350,9.0,,,9999.0,,-1.5,-4.8,29.90,1014.0,,,,,,,,,,,,,,,Clear,72000.0,,,,,,,,,
KRDR,04-21-2020,01:56,METAR,Normal,360,11.0,,,9999.0,,0.3,-5.1,29.87,1013.0,,,,,,,,,,,,,,,2/8 Mostly Clear,72000.0,4500.0,FEW,4500.0,,,,,,
KRDR,04-21-2020,00:56,METAR,Normal,10,13.0,20.0,,9999.0,,2.6,-4.4,29.84,1011.8,,,,,,,,,,,,,,,,4700.0,3200.0,FEW,3200.0,FEW,3900.0,OVC,4700.0,,
KRDR,04-20-2020,23:56,METAR,Normal,10,14.0,,,9999.0,,3.9,-3.4,29.81,1010.8,,,,,,,,,,,,,TRACE,,Clear,72000.0,,,,,,,,,
KRDR,04-20-2020,22:56,METAR,Normal,360,17.0,,,9999.0,,3.0,-0.6,29.79,1010.1,,,,,,,,,,,TRACE,,,,,5000.0,2800.0,FEW,2800.0,SCT,3800.0,BKN,5000.0,BKN,7000.0
KRDR,04-20-2020,22:55,SPECI,Normal,350,17.0,,,9999.0,,3.0,-1.0,29.79,1010.1,,,,,,,,,,,,,,,,5000.0,2800.0,FEW,2800.0,SCT,3600.0,BKN,5000.0,BKN,6000.0
KRDR,04-20-2020,22:45,SPECI,Normal,360,16.0,,,9999.0,,3.0,0.0,29.79,1010.1,,,,,,,,,,,,,,,,2900.0,2100.0,FEW,2100.0,BKN,2900.0,BKN,3800.0,BKN,6000.0
KRDR,04-20-2020,22:35,SPECI,Normal,20,19.0,24.0,,9999.0,,3.0,1.0,29.78,1009.8,,,,,,,,,,,,,,,,4600.0,2200.0,FEW,2200.0,SCT,2800.0,SCT,3400.0,BKN,4600.0
KRDR,04-20-2020,22:25,SPECI,Normal,10,14.0,,,9999.0,,3.0,3.0,29.78,1009.8,,,,,,,,,,,,,,,,1300.0,1300.0,FEW,1300.0,SCT,2100.0,BKN,2800.0,,
KRDR,04-20-2020,22:16,SPECI,Normal,10,9.0,,,9999.0,Light Snow,2.0,2.0,29.77,1009.5,71,,,,,,,,,,,,,,4/8 Partly Cloudy,72000.0,1500.0,SCT,1500.0,,,,,,
KRDR,04-20-2020,22:06,SPECI,Normal,10,11.0,,,8000.0,Light Snow/Mist,1.0,1.0,29.77,1009.5,71,10,,,,,,,,,,,,,,1400.0,1400.0,BKN,1400.0,BKN,2000.0,BKN,2800.0,BKN,3500.0
KRDR,04-20-2020,21:56,METAR,Normal,360,21.0,,030/30KTS,9999.0,Light Snow/Mist,2.7,0.6,29.77,1009.4,71,10,,,,,,,,,TRACE,,,,,2000.0,1600.0,SCT,1600.0,BKN,2000.0,BKN,2900.0,BKN,3500.0
KRDR,04-20-2020,21:49,SPECI,Normal,10,23.0,27.0,,9999.0,Light Rain,5.0,0.0,29.76,1009.0,61,,,,,,,,,,,,,,,2900.0,2000.0,SCT,2000.0,BKN,2900.0,BKN,3500.0,,
KRDR,04-20-2020,21:45,SPECI,Normal,10,24.0,27.0,,9999.0,,5.0,0.0,29.76,1009.0,,,,,,,,,,,,,,,,4400.0,1900.0,FEW,1900.0,SCT,2900.0,SCT,3500.0,BKN,4400.0
KRDR,04-20-2020,21:05,SPECI,Normal,360,16.0,,,9999.0,,3.0,3.0,29.75,1008.7,,,,,,,,,,,,,,,,3500.0,1500.0,SCT,1500.0,BKN,3500.0,BKN,6000.0,,
KRDR,04-20-2020,20:56,METAR,Normal,360,6.0,,,9999.0,Light Snow,2.3,2.2,29.74,1008.4,71,,,,,,,,,,TRACE,TRACE,,,,1200.0,1500.0,BKN,1500.0,,,,,,
KRDR,04-20-2020,20:44,SPECI,Normal,340,8.0,,,9999.0,Light Snow/Mist,2.0,1.0,29.75,1008.8,71,10,,,,,,,,,,,,,,1600.0,1800.0,OVC,1800.0,,,,,,
KRDR,04-20-2020,20:34,SPECI,Normal,10,14.0,18.0,,9999.0,Light Snow,2.0,1.0,29.75,1008.8,71,,,,,,,,,,,,,,,1700.0,1600.0,FEW,1600.0,OVC,2400.0,,,,
KRDR,04-20-2020,20:24,SPECI,Normal,340,7.0,,,9999.0,Light Snow,3.0,0.0,29.74,1008.4,71,,,,,,,,,,,,,,,1700.0,2400.0,OVC,2400.0,,,,,,
KRDR,04-20-2020,20:10,SPECI,Normal,10,13.0,21.0,,9999.0,Light Rain,5.0,-1.0,29.72,1007.6,61,,,,,,,,,,,,,,,2600.0,2600.0,BKN,2600.0,BKN,3500.0,OVC,4200.0,,
KRDR,04-20-2020,20:00,SPECI,Normal,20,15.0,,,9999.0,,5.0,-1.0,29.72,1007.6,,,,,,,,,,,,,,,,2600.0,2600.0,BKN,2600.0,OVC,3900.0,,,,
KRDR,04-20-2020,19:56,METAR,Normal,20,14.0,,,9999.0,Light Rain,4.8,-0.6,29.71,1007.3,61,,,,,,,,,,TRACE,,,,,3100.0,2600.0,FEW,2600.0,BKN,3100.0,OVC,4100.0,,
KRDR,04-20-2020,19:28,SPECI,Normal,360,14.0,,,9999.0,Light Rain,5.0,-2.0,29.71,1007.3,61,,,,,,,,,,,,,,,4000.0,2100.0,FEW,2100.0,FEW,2600.0,SCT,3000.0,BKN,4000.0
KRDR,04-20-2020,19:27,SPECI,Normal,10,14.0,,,9999.0,,5.0,-2.0,29.71,1007.3,,,,,,,,,,,,,,,,4000.0,2100.0,FEW,2100.0,SCT,3000.0,BKN,4000.0,BKN,5000.0
KRDR,04-20-2020,19:25,SPECI,Normal,20,13.0,,,9999.0,Light Rain,5.0,-2.0,29.70,1007.0,61,,,,,,,,,,,,,,,4000.0,2100.0,FEW,2100.0,SCT,3000.0,BKN,4000.0,BKN,5000.0
KRDR,04-20-2020,18:56,METAR,Normal,360,15.0,,,9999.0,,5.3,-2.5,29.70,1006.9,,,,,,,,,,,TRACE,,,,,7000.0,7000.0,OVC,7000.0,,,,,,
KRDR,04-20-2020,18:13,SPECI,Normal,20,12.0,18.0,,9999.0,,5.0,-3.0,29.69,1006.5,,,,,,,,,,,,,,,,6000.0,2300.0,FEW,2300.0,SCT,3100.0,BKN,6000.0,,
KRDR,04-20-2020,17:58,SPECI,Normal,20,15.0,,,9999.0,Light Rain,4.0,-2.0,29.70,1006.9,61,,,,,,,,,,,,,,,3000.0,2300.0,SCT,2300.0,OVC,3000.0,,,,
KRDR,04-20-2020,17:56,METAR,Normal,10,16.0,,,9999.0,,4.1,-1.5,29.70,1006.9,,,,,,,,,,,TRACE,,TRACE,,,2100.0,2100.0,SCT,2100.0,OVC,2800.0,,,,
KRDR,04-20-2020,17:54,SPECI,Normal,10,16.0,,,9999.0,,4.0,-1.0,29.70,1006.9,,,,,,,,,,,,,,,,2200.0,2300.0,BKN,2300.0,OVC,2800.0,,,,
KRDR,04-20-2020,17:45,SPECI,Normal,10,15.0,,,9999.0,Light Rain,5.0,-1.0,29.69,1006.5,61,,,,,,,,,,,,,,,2100.0,2100.0,BKN,2100.0,BKN,2700.0,OVC,4300.0,,
KRDR,04-20-2020,16:56,METAR,Normal,10,13.0,19.0,,9999.0,,5.0,-0.8,29.66,1005.4,,,,,,,,,,,TRACE,,,,,2800.0,2800.0,BKN,2800.0,BKN,3800.0,,,,
KRDR,04-20-2020,16:44,SPECI,Normal,10,12.0,21.0,,9999.0,,6.0,-1.0,29.65,1005.1,,,,,,,,,,,,,,,,2800.0,2800.0,BKN,2800.0,BKN,9100.0,,,,
KRDR,04-20-2020,16:04,SPECI,Normal,350,12.0,,,9999.0,,4.0,-1.0,29.64,1004.8,,,,,,,,,,,,,,,,7000.0,2100.0,FEW,2100.0,FEW,5000.0,BKN,7000.0,BKN,8600.0
KRDR,04-20-2020,15:56,METAR,Normal,350,13.0,,,9999.0,Light Rain,4.3,-1.3,29.64,1004.8,61,,,,,,,,,,TRACE,,,,,7000.0,1700.0,FEW,1700.0,FEW,2400.0,SCT,5000.0,OVC,7000.0
KRDR,04-20-2020,15:53,SPECI,Normal,360,13.0,,,9999.0,Light Rain,4.0,-1.0,29.64,1004.8,61,,,,,,,,,,,,,,,7000.0,1700.0,FEW,1700.0,FEW,2400.0,FEW,4200.0,SCT,5000.0
KRDR,04-20-2020,14:56,METAR,Normal,360,10.0,,,9999.0,,4.8,-0.8,29.62,1004.2,,,,,,,,,,,,,,,4/8 Partly Cloudy,72000.0,6000.0,SCT,6000.0,SCT,8600.0,SCT,20000.0,,
KRDR,04-20-2020,13:56,METAR,Normal,360,9.0,,,9999.0,,4.9,-1.3,29.60,1003.5,,,,,,,,,,,,,,,,8500.0,6000.0,SCT,6000.0,OVC,8600.0,,,,
KRDR,04-20-2020,12:56,METAR,Normal,310,10.0,,,9999.0,,5.5,-0.6,29.57,1002.3,,,,,,,,,,,,,,,Clear,72000.0,,,,,,,,,
KRDR,04-20-2020,11:56,METAR,Normal,280,8.0,,,9999.0,,4.4,-0.8,29.56,1002.0,,,,,,,,,,,,,,,,6000.0,6000.0,BKN,6000.0,OVC,10000.0,,,,
KRDR,04-20-2020,10:56,METAR,Normal,280,7.0,,,9999.0,,4.7,-1.3,29.56,1002.0,,,,,,,,,,,,,,,,15000.0,8000.0,FEW,8000.0,SCT,13000.0,BKN,15000.0,,
KRDR,04-20-2020,09:56,METAR,Normal,280,6.0,,,9999.0,,5.4,-1.7,29.56,1002.0,,,,,,,,,,,,,,,,8500.0,8500.0,BKN,8600.0,,,,,,
KRDR,04-20-2020,09:39,SPECI,Normal,280,7.0,,,9999.0,,6.0,-2.0,29.57,1002.3,,,,,,,,,,,,,,,,8500.0,8500.0,BKN,8600.0,,,,,,
KRDR,04-20-2020,08:56,METAR,Normal,280,8.0,,,9999.0,,5.3,-1.6,29.57,1002.4,,,,,,,,,,,,,,,Clear,72000.0,,,,,,,,,
KRDR,04-20-2020,07:56,METAR,Normal,290,8.0,,,9999.0,,4.6,-1.2,29.58,1002.7,,,,,,,,,,,,,,,Clear,72000.0,,,,,,,,,
KRDR,04-20-2020,06:56,METAR,Normal,280,8.0,,,9999.0,,6.2,-0.8,29.58,1002.7,,,,,,,,,,,,,,,Clear,72000.0,,,,,,,,,
KRDR,04-20-2020,05:56,METAR,Normal,280,12.0,,,9999.0,,7.4,-1.3,29.59,1003.1,,,,,,,,,,,,,,,,12000.0,9500.0,SCT,9600.0,BKN,12000.0,,,,
KRDR,04-20-2020,04:56,METAR,Normal,270,14.0,27.0,260/27KTS,9999.0,,8.3,-2.6,29.56,1002.1,,,,,,,,,,,,,,,4/8 Partly Cloudy,72000.0,9000.0,SCT,9100.0,,,,,,
KRDR,04-20-2020,03:56,METAR,Normal,240,13.0,,,9999.0,,7.4,-2.3,29.57,1002.5,,,,,,,,,,,,,,,Clear,72000.0,,,,,,,,,
KRDR,04-20-2020,02:56,METAR,Normal,240,15.0,,,9999.0,,7.5,-2.8,29.59,1003.2,,,,,,,,,,,,,,,Clear,72000.0,,,,,,,,,
KRDR,04-20-2020,01:56,METAR,Normal,230,10.0,,,9999.0,,7.3,-2.4,29.61,1004.0,,,,,,,,,,,,,,,Clear,72000.0,,,,,,,,,
KRDR,04-20-2020,00:56,METAR,Normal,260,12.0,,,9999.0,,10.1,-5.1,29.65,1005.2,,,,,,,,,,,,,,,4/8 Partly Cloudy,72000.0,12000.0,SCT,12000.0,,,,,,
KRDR,04-20-2020,00:15,SPECI,Normal,270,12.0,18.0,,9999.0,,10.0,-6.0,29.67,1006.1,,,,,,,,,,,,,,,,13000.0,13000.0,BKN,13000.0,,,,,,
KRDR,04-19-2020,23:56,METAR,Normal,270,9.0,,,9999.0,,10.2,-4.6,29.68,1006.4,,,,,,,,,,,,,,,,13000.0,10000.0,SCT,10000.0,BKN,13000.0,,,,
KRDR,04-19-2020,22:56,METAR,Normal,250,12.0,29.0,240/29KTS,9999.0,,10.0,-4.4,29.71,1007.4,,,,,,,,,,,,,,,,13000.0,8000.0,FEW,8000.0,BKN,13000.0,BKN,20000.0,,
KRDR,04-19-2020,21:56,METAR,Normal,240,17.0,24.0,260/26KTS,9999.0,,9.7,-3.9,29.74,1008.4,,,,,,,,,,,,,,,,13000.0,6000.0,FEW,6000.0,BKN,13000.0,,,,
KRDR,04-19-2020,20:56,METAR,Normal,250,17.0,21.0,,9999.0,,9.3,-5.0,29.78,1009.8,,,,,,,,,,,,,,,4/8 Partly Cloudy,72000.0,6000.0,FEW,6000.0,SCT,20000.0,,,,
KRDR,04-19-2020,20:46,SPECI,Normal,250,14.0,22.0,,9999.0,,9.0,-5.0,29.79,1010.1,,,,,,,,,,,,,,,,20000.0,6000.0,FEW,6000.0,BKN,20000.0,,,,
KRDR,04-19-2020,19:56,METAR,Normal,270,10.0,,,9999.0,,8.1,-6.1,29.83,1011.5,,,,,,,,,,,,,,,,19000.0,6000.0,FEW,6000.0,SCT,16000.0,BKN,19000.0,,
KRDR,04-19-2020,19:43,SPECI,Normal,270,12.0,17.0,,9999.0,,8.0,-6.0,29.84,1011.8,,,,,,,,,,,,,,,4/8 Partly Cloudy,72000.0,13000.0,FEW,13000.0,SCT,17000.0,SCT,19000.0,SCT,21000.0
KRDR,04-19-2020,18:56,METAR,Normal,260,13.0,19.0,,9999.0,,7.1,-6.6,29.87,1012.9,,,,,,,,,,,,,,,2/8 Mostly Clear,72000.0,16000.0,FEW,16000.0,FEW,19000.0,,,,
KRDR,04-19-2020,17:56,METAR,Normal,260,11.0,16.0,,9999.0,,6.4,-5.9,29.91,1014.3,,,,,,,,,,,,,,,4/8 Partly Cloudy,72000.0,4700.0,SCT,4700.0,SCT,15000.0,,,,
KRDR,04-19-2020,16:56,METAR,Normal,260,8.0,,,9999.0,,3.9,-6.4,29.94,1015.4,,,,,,,,,,,,,,,,4400.0,4400.0,BKN,4400.0,BKN,20000.0,,,,
KRDR,04-19-2020,15:56,METAR,Normal,210,10.0,,,9999.0,,3.3,-4.6,29.96,1016.0,,,,,,,,,,,,,,,,4100.0,3300.0,SCT,3300.0,BKN,4100.0,,,,
KRDR,04-19-2020,14:56,METAR,Normal,220,10.0,,,9999.0,,2.4,-5.5,29.98,1016.7,,,,,,,,,,,,,,,,20000.0,3000.0,FEW,3000.0,BKN,20000.0,,,,
KRDR,04-19-2020,13:56,METAR,Normal,210,6.0,,,9999.0,,1.1,-5.6,29.98,1016.7,,,,,,,,,,,,,,,Clear,72000.0,,,,,,,,,
KRDR,04-19-2020,12:56,METAR,Calm,,0.0,,,9999.0,,-0.1,-6.9,29.98,1016.7,,,,,,,,,,,,,,,2/8 Mostly Clear,72000.0,5500.0,FEW,5500.0,,,,,,
KRDR,04-19-2020,11:56,METAR,Normal,350,4.0,,,9999.0,,-4.5,-7.4,29.97,1016.4,,,,,,,,,,,,,TRACE,,4/8 Partly Cloudy,72000.0,5000.0,SCT,5000.0,,,,,,
KRDR,04-19-2020,10:57,METAR,Normal,350,5.0,,,9999.0,,-2.8,-7.2,29.97,1016.4,,,,,,,,,,,,,,,,5000.0,5000.0,BKN,5000.0,,,,,,
KRDR,04-19-2020,09:56,METAR,Normal,360,7.0,,,9999.0,,-1.9,-7.2,29.96,1015.9,,,,,,,,,,,,,,,,5000.0,5000.0,OVC,5000.0,,,,,,
KRDR,04-19-2020,08:57,METAR,Normal,360,7.0,,,9999.0,,-1.4,-6.7,29.95,1015.5,,,,,,,,,,,,,,,,5500.0,5500.0,OVC,5500.0,,,,,,
KRDR,04-19-2020,07:57,METAR,Normal,10,13.0,,,9999.0,,-1.0,-7.0,29.95,1015.5,,,,,,,,,,,,,,,,5500.0,5500.0,OVC,5500.0,,,,,,
KRDR,04-19-2020,06:56,METAR,Normal,360,12.0,,,9999.0,,-0.6,-5.4,29.94,1015.1,,,,,,,,,,,,,,,,4500.0,4500.0,BKN,4500.0,OVC,6000.0,,,,
KRDR,04-19-2020,05:56,METAR,Normal,340,10.0,,,9999.0,,-0.6,-4.3,29.92,1014.4,,,,,,,,,,,,,TRACE,,,6500.0,6500.0,OVC,6500.0,,,,,,
KRDR,04-19-2020,04:56,METAR,Normal,350,12.0,,,9999.0,,0.0,-3.4,29.90,1013.8,,,,,,,,,,,,,,,,6000.0,6000.0,OVC,6000.0,,,,,,
KRDR,04-19-2020,03:56,METAR,Normal,350,16.0,20.0,,9999.0,,0.8,-1.9,29.88,1013.1,,,,,,,,,,,TRACE,,,,,7000.0,4200.0,SCT,4200.0,BKN,7000.0,,,,
KRDR,04-19-2020,03:46,SPECI,Normal,350,13.0,,,9999.0,,1.0,-2.0,29.87,1012.8,,,,,,,,,,,,,,,,6500.0,4200.0,FEW,4200.0,FEW,5000.0,BKN,6500.0,BKN,7500.0
KRDR,04-19-2020,03:35,SPECI,Normal,360,14.0,18.0,,9999.0,Light Rain,1.0,-2.0,29.86,1012.4,61,,,,,,,,,,,,,,,5000.0,3400.0,FEW,3400.0,FEW,4200.0,BKN,5000.0,BKN,7000.0
KRDR,04-19-2020,02:56,METAR,Normal,360,14.0,22.0,,9999.0,,1.8,-1.3,29.84,1011.7,,,,,,,,,,,,,,,,5000.0,5000.0,BKN,5000.0,OVC,7500.0,,,,
KRDR,04-19-2020,02:35,SPECI,Normal,360,13.0,19.0,,9999.0,,2.0,-1.0,29.83,1011.4,,,,,,,,,,,,,,,,5500.0,5500.0,BKN,5500.0,OVC,7500.0,,,,
KRDR,04-19-2020,01:56,METAR,Normal,360,13.0,,,9999.0,,2.9,-0.6,29.80,1010.4,,,,,,,,,,,,,,,,6000.0,6000.0,BKN,6000.0,OVC,7500.0,,,,
KRDR,04-19-2020,00:56,METAR,Normal,360,15.0,21.0,,9999.0,,4.7,0.3,29.76,1009.0,,,,,,,,,,,,,,,,4400.0,2600.0,FEW,2600.0,BKN,4400.0,OVC,7500.0,,
KRDR,04-18-2020,23:56,METAR,Normal,350,19.0,23.0,,9999.0,,6.2,1.9,29.73,1007.9,,,,,,,,,,,TRACE,,TRACE,,4/8 Partly Cloudy,72000.0,2300.0,FEW,2300.0,SCT,8000.0,,,,
KRDR,04-18-2020,23:43,SPECI,Normal,360,17.0,21.0,,9999.0,,7.0,2.0,29.72,1007.6,,,,,,,,,,,,,,,,8000.0,2300.0,SCT,2300.0,BKN,8000.0,,,,
KRDR,04-18-2020,23:30,SPECI,Normal,360,15.0,,,9999.0,Light Rain,7.0,3.0,29.72,1007.6,61,,,,,,,,,,,,,,,4000.0,2300.0,SCT,2300.0,SCT,3000.0,BKN,4000.0,BKN,8600.0
KRDR,04-18-2020,23:26,SPECI,Normal,350,19.0,22.0,,9999.0,,7.0,3.0,29.72,1007.6,,,,,,,,,,,,,,,,2300.0,2300.0,SCT,2300.0,BKN,8600.0,,,,
KRDR,04-18-2020,22:56,METAR,Normal,350,17.0,,350/32KTS,9999.0,,7.5,2.8,29.70,1006.8,,,,,,,,,,,,,,,,8000.0,3000.0,SCT,3000.0,BKN,8000.0,,,,
KRDR,04-18-2020,22:21,SPECI,Normal,360,25.0,32.0,,9999.0,Squalls,9.0,2.0,29.67,1005.7,18,,,,,,,,,,,,,,,7500.0,2900.0,FEW,2900.0,FEW,5500.0,OVC,7500.0,,
KRDR,04-18-2020,21:56,METAR,Normal,360,18.0,27.0,330/31KTS,9999.0,,10.8,-1.9,29.66,1005.3,,,,,,,,,,,,,,,,7000.0,3800.0,FEW,3800.0,OVC,7000.0,,,,
KRDR,04-18-2020,21:51,SPECI,Normal,360,18.0,27.0,,9999.0,,11.0,-1.0,29.66,1005.3,,,,,,,,,,,,,,,,7000.0,3800.0,FEW,3800.0,BKN,7000.0,,,,
KRDR,04-18-2020,20:56,METAR,Normal,320,23.0,29.0,310/31KTS,9999.0,,11.4,-1.1,29.63,1004.3,,,,,,,,,,,,,,,4/8 Partly Cloudy,72000.0,7000.0,SCT,7000.0,,,,,,
KRDR,04-18-2020,19:56,METAR,Normal,320,19.0,26.0,310/27KTS,9999.0,,11.8,-1.0,29.61,1003.6,,,,,,,,,,,,,,,,5000.0,5000.0,BKN,5000.0,,,,,,
KRDR,04-18-2020,18:56,METAR,Normal,320,19.0,23.0,,9999.0,,11.4,1.1,29.60,1003.3,,,,,,,,,,,,,,,,5000.0,5000.0,BKN,5000.0,OVC,7500.0,,,,
KRDR,04-18-2020,17:56,METAR,Normal,310,18.0,25.0,,9999.0,,12.1,2.3,29.60,1003.3,,,,,,,,,,,,,TRACE,,,4300.0,4300.0,BKN,4300.0,BKN,7000.0,,,,
KRDR,04-18-2020,16:56,METAR,Normal,310,11.0,,,9999.0,,10.0,2.6,29.60,1003.3,,,,,,,,,,,,,,,4/8 Partly Cloudy,72000.0,3000.0,FEW,3000.0,SCT,7500.0,,,,
KRDR,04-18-2020,15:56,METAR,Normal,320,12.0,,,9999.0,,9.4,1.8,29.60,1003.3,,,,,,,,,,,,,,,,7500.0,7500.0,OVC,7500.0,,,,,,
KRDR,04-18-2020,14:56,METAR,Normal,320,11.0,,,9999.0,,8.0,2.5,29.58,1002.7,,,,,,,,,,,,TRACE,,,,8000.0,8000.0,OVC,8000.0,,,,,,
KRDR,04-18-2020,13:56,METAR,Normal,320,8.0,,,9999.0,,6.2,1.7,29.56,1002.1,,,,,,,,,,,TRACE,,,,,8000.0,6000.0,SCT,6000.0,OVC,8000.0,,,,
KRDR,04-18-2020,13:28,SPECI,Normal,320,7.0,,,9999.0,,6.0,2.0,29.55,1001.7,,,,,,,,,,,,,,,,5500.0,5500.0,BKN,5500.0,OVC,7500.0,,,,
KRDR,04-18-2020,13:15,SPECI,Normal,310,7.0,,,9999.0,Light Rain,5.0,2.0,29.55,1001.7,61,,,,,,,,,,,,,,,5500.0,5500.0,OVC,5500.0,,,,,,
KRDR,04-18-2020,12:56,METAR,Normal,310,7.0,,,9999.0,,5.4,1.3,29.53,1001.0,,,,,,,,,,,,,,,,5500.0,5500.0,BKN,5500.0,OVC,7500.0,,,,
KRDR,04-18-2020,11:56,METAR,Normal,300,11.0,,,9999.0,,5.4,0.9,29.50,999.9,,,,,,,,,,,,,,,,8500.0,8500.0,BKN,8600.0,,,,,,
KRDR,04-18-2020,10:56,METAR,Normal,290,11.0,,,9999.0,,5.9,0.8,29.47,998.9,,,,,,,,,,,,,,,,5500.0,5500.0,BKN,5500.0,OVC,7500.0,,,,
KRDR,04-18-2020,09:56,METAR,Normal,280,13.0,,,9999.0,,7.4,-0.1,29.45,998.1,,,,,,,,,,,,,,,,6500.0,6500.0,OVC,6500.0,,,,,,
KRDR,04-18-2020,08:56,METAR,Normal,250,13.0,18.0,,9999.0,,6.8,-0.9,29.45,998.1,,,,,,,,,,,,,,,,8000.0,8000.0,BKN,8000.0,,,,,,
KRDR,04-18-2020,08:43,SPECI,Normal,250,16.0,,,9999.0,,7.0,-1.0,29.45,998.1,,,,,,,,,,,,,,,,8000.0,8000.0,BKN,8000.0,,,,,,
KRDR,04-18-2020,07:56,METAR,Normal,240,11.0,,,9999.0,,5.8,-0.9,29.46,998.6,,,,,,,,,,,,,,,,9000.0,9000.0,BKN,9100.0,OVC,11000.0,,,,
KRDR,04-18-2020,06:56,METAR,Normal,220,12.0,,,9999.0,,5.7,-0.8,29.49,999.6,,,,,,,,,,,,,,,,9000.0,9000.0,OVC,9100.0,,,,,,
KRDR,04-18-2020,05:56,METAR,Normal,220,13.0,,,9999.0,,5.4,-1.1,29.51,1000.3,,,,,,,,,,,,,,,,10000.0,10000.0,BKN,10000.0,,,,,,
KRDR,04-18-2020,04:56,METAR,Normal,220,16.0,21.0,,9999.0,,5.7,-1.5,29.53,1001.0,,,,,,,,,,,,,,,,10000.0,10000.0,OVC,10000.0,,,,,,
KRDR,04-18-2020,03:56,METAR,Normal,210,13.0,,,9999.0,,6.3,-1.6,29.56,1002.1,,,,,,,,,,,,,,,,10000.0,10000.0,BKN,10000.0,,,,,,
KRDR,04-18-2020,02:56,METAR,Normal,180,10.0,,,9999.0,,5.7,-0.8,29.59,1003.2,,,,,,,,,,,,,,,Clear,72000.0,,,,,,,,,
KRDR,04-18-2020,01:56,METAR,Normal,180,10.0,,,9999.0,,6.0,-1.2,29.62,1004.3,,,,,,,,,,,,,,,2/8 Mostly Clear,72000.0,13000.0,FEW,13000.0,,,,,,
KRDR,04-18-2020,00:56,METAR,Normal,190,9.0,,,9999.0,,8.9,-1.5,29.65,1005.3,,,,,,,,,,,,,,,4/8 Partly Cloudy,72000.0,11000.0,SCT,11000.0,,,,,,
KRDR,04-17-2020,23:56,METAR,Normal,220,13.0,,,9999.0,,10.2,-2.8,29.69,1006.7,,,,,,,,,,,,,,,4/8 Partly Cloudy,72000.0,10000.0,FEW,10000.0,SCT,20000.0,,,,
KRDR,04-17-2020,22:56,METAR,Normal,230,15.0,,,9999.0,,10.8,-3.3,29.72,1007.7,,,,,,,,,,,,,,,4/8 Partly Cloudy,72000.0,15000.0,SCT,15000.0,,,,,,
KRDR,04-17-2020,21:56,METAR,Normal,230,17.0,22.0,220/26KTS,9999.0,,10.9,-5.2,29.75,1008.7,,,,,,,,,,,,,,,Clear,72000.0,,,,,,,,,
KRDR,04-17-2020,20:56,METAR,Normal,240,16.0,22.0,,9999.0,,10.8,-4.8,29.78,1009.8,,,,,,,,,,,,,,,2/8 Mostly Clear,72000.0,5000.0,FEW,5000.0,FEW,10000.0,,,,
KRDR,04-17-2020,19:56,METAR,Normal,270,13.0,22.0,,9999.0,,10.5,-4.0,29.81,1010.8,,,,,,,,,,,,,,,4/8 Partly Cloudy,72000.0,6500.0,FEW,6500.0,SCT,10000.0,,,,
KRDR,04-17-2020,18:56,METAR,Normal,240,18.0,22.0,280/26KTS,9999.0,,10.4,-4.8,29.85,1012.2,,,,,,,,,,,,,,,4/8 Partly Cloudy,72000.0,6500.0,SCT,6500.0,SCT,10000.0,,,,
KRDR,04-17-2020,17:56,METAR,Normal,270,14.0,22.0,,9999.0,,9.1,-5.2,29.87,1012.9,,,,,,,,,,,,,,,2/8 Mostly Clear,72000.0,5000.0,FEW,5000.0,,,,,,
KRDR,04-17-2020,17:32,SPECI,Normal,250,13.0,19.0,,9999.0,,9.0,-5.0,29.89,1013.6,,,,,,,,,,,,,,,2/8 Mostly Clear,72000.0,3000.0,FEW,3000.0,FEW,20000.0,,,,
KRDR,04-17-2020,16:56,METAR,Normal,230,13.0,,,9999.0,,8.6,-3.9,29.91,1014.3,,,,,,,,,,,,,,,2/8 Mostly Clear,72000.0,3000.0,FEW,3000.0,FEW,20000.0,,,,
KRDR,04-17-2020,15:56,METAR,Normal,230,11.0,,,9999.0,,6.6,-3.1,29.93,1015.0,,,,,,,,,,,,,,,Clear,72000.0,,,,,,,,,
KRDR,04-17-2020,14:56,METAR,Normal,240,9.0,,,9999.0,,4.7,-2.0,29.96,1016.0,,,,,,,,,,,,,,,4/8 Partly Cloudy,72000.0,6500.0,SCT,6500.0,,,,,,
KRDR,04-17-2020,13:56,METAR,Normal,230,9.0,,,9999.0,,2.6,-2.3,29.99,1017.1,,,,,,,,,,,,,,,4/8 Partly Cloudy,72000.0,6500.0,SCT,6500.0,,,,,,
KRDR,04-17-2020,12:56,METAR,Normal,240,7.0,,,9999.0,,-0.6,-3.3,30.00,1017.5,,,,,,,,,,,,,,,,6000.0,6000.0,BKN,6000.0,,,,,,
KRDR,04-17-2020,11:56,METAR,Normal,240,6.0,,,9999.0,,-2.5,-4.4,30.01,1017.8,,,,,,,,,,,,,,,4/8 Partly Cloudy,72000.0,5500.0,SCT,5500.0,,,,,,
KRDR,04-17-2020,10:56,METAR,Normal,250,6.0,,,9999.0,,-3.3,-4.9,30.02,1018.2,,,,,,,,,,,,,,,2/8 Mostly Clear,72000.0,6000.0,FEW,6000.0,,,,,,
KRDR,04-17-2020,09:56,METAR,Normal,230,6.0,,,9999.0,,-3.9,-5.2,30.04,1018.8,,,,,,,,,,,,,,,Clear,72000.0,,,,,,,,,
KRDR,04-17-2020,08:56,METAR,Normal,250,6.0,,,9999.0,,-3.0,-5.0,30.05,1019.2,,,,,,,,,,,,,,,Clear,72000.0,,,,,,,,,
KRDR,04-17-2020,07:56,METAR,Normal,240,6.0,,,9999.0,,-2.3,-4.3,30.07,1019.9,,,,,,,,,,,,,,,,5500.0,5500.0,OVC,5500.0,,,,,,
KRDR,04-17-2020,06:56,METAR,Normal,250,6.0,,,9999.0,,-3.4,-5.0,30.09,1020.5,,,,,,,,,,,,,,,Clear,72000.0,,,,,,,,,
KRDR,04-17-2020,05:56,METAR,Normal,250,5.0,,,9999.0,,-2.9,-4.5,30.10,1021.0,,,,,,,,,,,,,,,Clear,72000.0,,,,,,,,,
KRDR,04-17-2020,04:56,METAR,Normal,240,6.0,,,9999.0,,-3.0,-4.3,30.12,1021.6,,,,,,,,,,,,,,,2/8 Mostly Clear,72000.0,7000.0,FEW,7000.0,,,,,,
KRDR,04-17-2020,03:56,METAR,Normal,240,6.0,,,9999.0,,-2.5,-4.1,30.13,1022.0,,,,,,,,,,,,,,,Clear,72000.0,,,,,,,,,
KRDR,04-17-2020,02:56,METAR,Normal,250,5.0,,,9999.0,,-0.1,-5.1,30.15,1022.6,,,,,,,,,,,,,,,,7000.0,7000.0,BKN,7000.0,,,,,,
KRDR,04-17-2020,01:56,METAR,Normal,300,5.0,,,9999.0,,1.1,-5.2,30.14,1022.2,,,,,,,,,,,,,,,,7000.0,4200.0,FEW,4200.0,SCT,5000.0,BKN,7000.0,,
KRDR,04-17-2020,00:56,METAR,Normal,330,4.0,,,9999.0,,2.8,-6.6,30.13,1022.0,,,,,,,,,,,,,,,,5500.0,5500.0,BKN,5500.0,OVC,7500.0,,,,
KRDR,04-16-2020,23:56,METAR,Normal,300,7.0,,,9999.0,,3.6,-9.4,30.14,1022.5,,,,,,,,,,,,,,,,7000.0,7000.0,BKN,7000.0,,,,,,
KRDR,04-16-2020,22:56,METAR,Normal,310,11.0,,,9999.0,,4.6,-9.9,30.14,1022.4,,,,,,,,,,,,,,,,6000.0,6000.0,OVC,6000.0,,,,,,
KRDR,04-16-2020,21:56,METAR,Normal,330,12.0,,,9999.0,,5.2,-9.8,30.14,1022.4,,,,,,,,,,,,,,,,6000.0,6000.0,OVC,6000.0,,,,,,
KRDR,04-16-2020,21:45,SPECI,Normal,320,11.0,,,9999.0,,5.0,-10.0,30.14,1022.4,,,,,,,,,,,,,,,,6000.0,6000.0,OVC,6000.0,,,,,,
KRDR,04-16-2020,20:56,METAR,Normal,340,12.0,,,9999.0,,4.6,-10.3,30.16,1023.1,,,,,,,,,,,,,,,,6000.0,6000.0,OVC,6000.0,,,,,,
KRDR,04-16-2020,19:56,METAR,Normal,320,7.0,,,9999.0,,4.7,-11.4,30.17,1023.3,,,,,,,,,,,,,,,,6000.0,6000.0,OVC,6000.0,,,,,,
KRDR,04-16-2020,18:56,METAR,Calm,,0.0,,,9999.0,,4.9,-10.8,30.18,1023.7,,,,,,,,,,,,,,,4/8 Partly Cloudy,72000.0,6000.0,SCT,6000.0,,,,,,
KRDR,04-16-2020,17:56,METAR,Normal,300,5.0,,,9999.0,,3.8,-12.6,30.20,1024.4,,,,,,,,,,,,,,,Clear,72000.0,,,,,,,,,
KRDR,04-16-2020,16:56,METAR,Calm,,0.0,,,9999.0,,3.2,-12.7,30.22,1025.1,,,,,,,,,,,,,,,Clear,72000.0,,,,,,,,,
KRDR,04-16-2020,15:56,METAR,Calm,,0.0,,,9999.0,,2.3,-13.5,30.22,1025.1,,,,,,,,,,,,,,,Clear,72000.0,,,,,,,,,
KRDR,04-16-2020,14:56,METAR,Calm,,0.0,,,9999.0,,1.8,-12.4,30.22,1025.1,,,,,,,,,,,,,,,Clear,72000.0,,,,,,,,,
KRDR,04-16-2020,13:56,METAR,Calm,,0.0,,,9999.0,,0.3,,30.22,1025.1,,,,,,,,,,,,,,,Clear,72000.0,,,,,,,,,
KRDR,04-16-2020,12:56,METAR,Calm,,0.0,,,9999.0,,-2.6,-4.6,30.21,1024.9,,,,,,,,,,,,,,,Clear,72000.0,,,,,,,,,
KRDR,04-16-2020,11:56,METAR,Normal,290,5.0,,,9999.0,,-7.2,-8.3,30.19,1024.3,,,,,,,,,,,,,,,Clear,72000.0,,,,,,,,,
KRDR,04-16-2020,10:56,METAR,Normal,290,5.0,,,9999.0,,-6.9,-8.0,30.18,1023.9,,,,,,,,,,,,,,,Clear,72000.0,,,,,,,,,
KRDR,04-16-2020,09:56,METAR,Normal,290,6.0,,,9999.0,,-6.6,-7.1,30.18,1023.9,,,,,,,,,,,,,,,Clear,72000.0,,,,,,,,,
KRDR,04-16-2020,08:56,METAR,Normal,300,4.0,,,9999.0,,-6.6,-6.7,30.18,1023.9,,,,,,,,,,,,,,,Clear,72000.0,,,,,,,,,
KRDR,04-16-2020,07:56,METAR,Normal,270,4.0,,,9999.0,,-6.0,-6.1,30.17,1023.5,,,,,,,,,,,,,,,Clear,72000.0,,,,,,,,,
KRDR,04-16-2020,06:56,METAR,Calm,,0.0,,,9999.0,,-4.8,-5.4,30.17,1023.5,,,,,,,,,,,,,,,Clear,72000.0,,,,,,,,,
KRDR,04-16-2020,05:56,METAR,Normal,240,3.0,,,9999.0,,-5.2,-5.3,30.17,1023.5,,,,,,,,,,,,,,,Clear,72000.0,,,,,,,,,
KRDR,04-16-2020,04:56,METAR,Normal,240,3.0,,,9999.0,,-4.5,-5.3,30.17,1023.5,,,,,,,,,,,,,,,Clear,72000.0,,,,,,,,,
KRDR,04-16-2020,03:56,METAR,Normal,230,4.0,,,9999.0,,-4.4,-5.0,30.17,1023.5,,,,,,,,,,,,,,,Clear,72000.0,,,,,,,,,
KRDR,04-16-2020,02:56,METAR,Normal,230,3.0,,,9999.0,,-4.4,-5.2,30.16,1023.2,,,,,,,,,,,,,,,Clear,72000.0,,,,,,,,,
KRDR,04-16-2020,01:56,METAR,Calm,,0.0,,,9999.0,,-2.8,-7.3,30.15,1022.9,,,,,,,,,,,,,,,Clear,72000.0,,,,,,,,,
KRDR,04-16-2020,00:56,METAR,Normal,10,5.0,,,9999.0,,-0.8,-8.3,30.14,1022.6,,,,,,,,,,,,,,,4/8 Partly Cloudy,72000.0,5000.0,SCT,5000.0,,,,,,
KRDR,04-15-2020,23:56,METAR,Normal,360,8.0,,,9999.0,,1.2,-10.0,30.14,1022.6,,,,,,,,,,,,,,,,5000.0,5000.0,OVC,5000.0,,,,,,
KRDR,04-15-2020,22:56,METAR,Normal,340,12.0,18.0,,9999.0,,1.6,-9.4,30.14,1022.6,,,,,,,,,,,,,,,,5000.0,2700.0,FEW,2700.0,FEW,4400.0,BKN,5000.0,,
KRDR,04-15-2020,21:56,METAR,Normal,350,7.0,,,9999.0,,1.2,-9.7,30.12,1021.9,,,,,,,,,,,,,,,4/8 Partly Cloudy,72000.0,3600.0,FEW,3600.0,SCT,4700.0,SCT,5500.0,,
KRDR,04-15-2020,20:56,METAR,Normal,340,8.0,,,9999.0,,1.7,-9.6,30.12,1021.9,,,,,,,,,,,,,,,4/8 Partly Cloudy,72000.0,4700.0,SCT,4700.0,,,,,,
KRDR,04-15-2020,20:21,SPECI,Normal,320,11.0,24.0,,9999.0,,1.0,-12.0,30.12,1021.9,,,,,,,,,,,,,,,4/8 Partly Cloudy,72000.0,4700.0,SCT,4700.0,,,,,,
KRDR,04-15-2020,19:56,METAR,Normal,310,7.0,17.0,,9999.0,,2.1,-10.8,30.11,1021.5,,,,,,,,,,,,,,,4/8 Partly Cloudy,72000.0,5000.0,SCT,5000.0,,,,,,
KRDR,04-15-2020,18:56,METAR,Normal,30,9.0,16.0,,9999.0,,1.0,-11.1,30.11,1021.5,,,,,,,,,,,,,,,2/8 Mostly Clear,72000.0,4800.0,FEW,4800.0,,,,,,
KRDR,04-15-2020,18:39,SPECI,Normal,330,10.0,17.0,,9999.0,,1.0,-11.0,30.11,1021.5,,,,,,,,,,,,,,,2/8 Mostly Clear,72000.0,4800.0,FEW,4800.0,,,,,,
KRDR,04-15-2020,17:56,METAR,Normal,340,10.0,,,9999.0,,0.8,-10.4,30.11,1021.5,,,,,,,,,,,,,,,2/8 Mostly Clear,72000.0,4500.0,FEW,4500.0,,,,,,
KRDR,04-15-2020,16:56,METAR,Normal,360,9.0,,,9999.0,,0.1,-8.8,30.11,1021.5,,,,,,,,,,,,,,,2/8 Mostly Clear,72000.0,3600.0,FEW,3600.0,,,,,,
KRDR,04-15-2020,15:56,METAR,Normal,20,10.0,,,9999.0,,-0.5,-7.8,30.10,1021.2,,,,,,,,,,,,,,,2/8 Mostly Clear,72000.0,3100.0,FEW,3100.0,,,,,,
KRDR,04-15-2020,14:55,METAR,Normal,360,8.0,,,9999.0,,-1.0,-7.4,30.09,1020.9,,,,,,,,,,,,,,,2/8 Mostly Clear,72000.0,2000.0,FEW,2000.0,,,,,,
KRDR,04-15-2020,13:55,METAR,Normal,310,9.0,,,9999.0,,-3.0,-7.3,30.09,1020.9,,,,,,,,,,,,,,,4/8 Partly Cloudy,72000.0,3800.0,FEW,3800.0,SCT,4800.0,,,,
KRDR,04-15-2020,12:55,METAR,Normal,280,6.0,,,9999.0,,-5.7,-8.5,30.08,1020.7,,,,,,,,,,,TRACE,,,,4/8 Partly Cloudy,72000.0,5000.0,SCT,5000.0,,,,,,
KRDR,04-15-2020,12:43,SPECI,Normal,280,5.0,,,9999.0,,-6.0,-9.0,30.07,1020.3,,,,,,,,,,,,,,,,4300.0,4300.0,BKN,4300.0,BKN,5000.0,,,,
KRDR,04-15-2020,12:37,SPECI,Normal,280,5.0,,,9999.0,Light Snow,-6.0,-9.0,30.07,1020.3,71,,,,,,,,,,,,,,,4700.0,4700.0,BKN,4700.0,,,,,,
KRDR,04-15-2020,11:56,METAR,Normal,270,7.0,,,9999.0,,-7.2,-9.3,30.06,1020.0,,,,,,,,,,,,,,,Clear,72000.0,,,,,,,,,
KRDR,04-15-2020,10:56,METAR,Normal,250,6.0,,,9999.0,,-7.9,-9.0,30.05,1019.7,,,,,,,,,,,,,,,Clear,72000.0,,,,,,,,,
KRDR,04-15-2020,09:56,METAR,Normal,240,6.0,,,9999.0,,-7.8,-8.8,30.05,1019.7,,,,,,,,,,,,,,,Clear,72000.0,,,,,,,,,
KRDR,04-15-2020,08:56,METAR,Normal,230,6.0,,,9999.0,,-7.5,-8.2,30.05,1019.6,,,,,,,,,,,,,,,Clear,72000.0,,,,,,,,,
KRDR,04-15-2020,07:56,METAR,Normal,230,6.0,,,9999.0,,-7.3,-8.0,30.06,1020.1,,,,,,,,,,,,,,,Clear,72000.0,,,,,,,,,
KRDR,04-15-2020,06:56,METAR,Normal,210,5.0,,,9999.0,,-6.9,-7.6,30.07,1020.4,,,,,,,,,,,,,,,Clear,72000.0,,,,,,,,,
KRDR,04-15-2020,05:56,METAR,Normal,220,5.0,,,9999.0,,-6.8,-7.6,30.08,1020.7,,,,,,,,,,,,,TRACE,,Clear,72000.0,,,,,,,,,
KRDR,04-15-2020,04:56,METAR,Normal,220,4.0,,,9999.0,,-7.0,-8.1,30.08,1020.7,,,,,,,,,,,,,,,Clear,72000.0,,,,,,,,,
KRDR,04-15-2020,03:56,METAR,Normal,180,5.0,,,9999.0,,-6.6,-8.9,30.08,1020.8,,,,,,,,,,,TRACE,,,,Clear,72000.0,,,,,,,,,
KRDR,04-15-2020,02:56,METAR,Normal,160,4.0,,,9999.0,,-6.1,-9.8,30.08,1020.7,,,,,,,,,,,,,,,4/8 Partly Cloudy,72000.0,4800.0,FEW,4800.0,SCT,6500.0,,,,
KRDR,04-15-2020,01:56,METAR,Normal,130,5.0,,,9999.0,,-4.8,-9.3,30.08,1020.7,,,,,,,,,,,,,,,,3400.0,2800.0,SCT,2800.0,BKN,3400.0,OVC,6500.0,,
KRDR,04-15-2020,01:06,SPECI,Normal,340,3.0,,,9999.0,,-4.0,-10.0,30.08,1020.8,,,,,,,,,,,,,,,,2500.0,2800.0,BKN,2800.0,OVC,3400.0,,,,
KRDR,04-15-2020,00:56,METAR,Calm,,0.0,,,9999.0,,-4.3,-10.1,30.08,1020.8,,,,,,,,,,,,,,,,2800.0,2800.0,SCT,2800.0,BKN,3500.0,,,,
KRDR,04-14-2020,23:56,METAR,Normal,30,3.0,,,9999.0,,-3.8,-10.7,30.08,1020.9,,,,,,,,,,,,,TRACE,,4/8 Partly Cloudy,72000.0,2900.0,SCT,2900.0,SCT,3700.0,SCT,10000.0,,
KRDR,04-14-2020,22:56,METAR,Normal,330,7.0,,,9999.0,,-3.4,-10.1,30.08,1020.9,,,,,,,,,,,TRACE,,,,,3000.0,3000.0,BKN,3000.0,BKN,3900.0,OVC,5500.0,,
KRDR,04-14-2020,22:11,SPECI,Normal,310,6.0,,,9999.0,Light Snow,-4.0,-10.0,30.08,1020.9,71,,,,,,,,,,,,,,,5000.0,2500.0,FEW,2500.0,SCT,3200.0,SCT,4200.0,OVC,5000.0
KRDR,04-14-2020,21:56,METAR,Normal,20,8.0,,,9999.0,,-3.5,-10.2,30.08,1020.8,,,,,,,,,,,TRACE,,,,,5000.0,2800.0,FEW,2800.0,SCT,3300.0,OVC,5000.0,,
KRDR,04-14-2020,20:56,METAR,Normal,310,7.0,,,9999.0,Light Snow,-3.9,-9.9,30.08,1020.8,71,,,,,,,,,,TRACE,TRACE,,,,3000.0,2600.0,SCT,2600.0,BKN,3000.0,,,,
KRDR,04-14-2020,20:49,SPECI,Normal,340,7.0,,,9999.0,Precipitation,-4.0,-9.0,30.08,1020.8,41,,,,,,,,,,,,,,4/8 Partly Cloudy,72000.0,2300.0,FEW,2300.0,SCT,2800.0,,,,
KRDR,04-14-2020,20:32,SPECI,Normal,330,6.0,,,9999.0,,-4.0,-10.0,30.09,1021.2,,,,,,,,,,,,,,,,2300.0,2100.0,SCT,2100.0,BKN,2900.0,OVC,3900.0,,
KRDR,04-14-2020,20:26,SPECI,Normal,330,8.0,,,9999.0,Precipitation,-4.0,-9.0,30.09,1021.2,41,,,,,,,,,,,,,,,2300.0,1900.0,SCT,1900.0,BKN,2700.0,BKN,3400.0,OVC,4600.0
KRDR,04-14-2020,20:16,SPECI,Normal,350,8.0,,,9999.0,Precipitation,-4.0,-9.0,30.09,1021.2,41,,,,,,,,,,,,,,,3000.0,2300.0,FEW,2300.0,BKN,3000.0,BKN,3900.0,OVC,4600.0
KRDR,04-14-2020,19:56,METAR,Normal,330,9.0,,,9999.0,Light Snow,-4.6,-9.1,30.10,1021.5,71,,,,,,,,,,TRACE,,,,,2500.0,1700.0,FEW,1700.0,BKN,2500.0,OVC,3400.0,,
KRDR,04-14-2020,19:47,SPECI,Normal,340,9.0,,,9999.0,Light Snow,-5.0,-10.0,30.10,1021.5,71,,,,,,,,,,,,,,,2800.0,2100.0,SCT,2100.0,BKN,2800.0,OVC,3400.0,,
KRDR,04-14-2020,19:06,SPECI,Normal,340,9.0,,,8000.0,Light Snow,-5.0,-9.0,30.10,1021.5,71,,,,,,,,,,,,,,,2500.0,1800.0,FEW,1800.0,BKN,2500.0,OVC,3700.0,,
KRDR,04-14-2020,18:56,METAR,Normal,320,8.0,,,9999.0,Light Snow,-4.8,-9.4,30.10,1021.5,71,,,,,,,,,,TRACE,,,,,3900.0,2500.0,SCT,2500.0,OVC,3900.0,,,,
KRDR,04-14-2020,18:03,SPECI,Normal,340,8.0,,,9999.0,Light Snow,-5.0,-12.0,30.10,1021.5,71,,,,,,,,,,,,,,,3300.0,3300.0,OVC,3300.0,,,,,,
KRDR,04-14-2020,17:56,METAR,Normal,330,7.0,,,9999.0,,-5.3,-11.9,30.10,1021.5,,,,,,,,,,,,,,,,3500.0,3500.0,OVC,3500.0,,,,,,
KRDR,04-14-2020,17:11,METAR,Normal,350,9.0,,,9999.0,,-5.3,-12.1,30.11,1021.8,,,,,,,,,,,,,,,,3800.0,3800.0,OVC,3800.0,,,,,,
KRDR,04-14-2020,15:56,METAR,Normal,320,9.0,,,9999.0,,-6.5,-12.6,30.11,1021.8,,,,,,,,,,,,,,,,3600.0,2800.0,SCT,2800.0,BKN,3600.0,OVC,4500.0,,
KRDR,04-14-2020,15:50,SPECI,Normal,320,7.0,,,9999.0,,-6.0,-13.0,30.11,1021.8,,,,,,,,,,,,,,,,3800.0,2800.0,SCT,2800.0,BKN,3800.0,BKN,4600.0,,
KRDR,04-14-2020,15:05,SPECI,Normal,290,5.0,,,9999.0,,-7.0,-11.0,30.11,1021.8,,,,,,,,,,,,,,,,4600.0,1100.0,FEW,1100.0,SCT,1600.0,BKN,4600.0,,
KRDR,04-14-2020,14:56,METAR,Normal,300,6.0,,,9999.0,,-7.0,-11.2,30.11,1021.8,,,,,,,,,,,,,,,,4600.0,1400.0,FEW,1400.0,FEW,2300.0,BKN,4600.0,,
KRDR,04-14-2020,14:16,SPECI,Normal,310,7.0,,,9999.0,,-8.0,-12.0,30.11,1021.9,,,,,,,,,,,,,,,,3300.0,1700.0,SCT,1700.0,SCT,2800.0,BKN,3300.0,OVC,4800.0
KRDR,04-14-2020,14:06,SPECI,Normal,300,7.0,,,9999.0,,-8.0,-12.0,30.12,1022.3,,,,,,,,,,,,,,,,2300.0,1700.0,SCT,1700.0,BKN,2300.0,OVC,3200.0,,
KRDR,04-14-2020,13:56,METAR,Normal,300,7.0,,,9999.0,,-7.9,-11.7,30.12,1022.3,,,,,,,,,,,,,,,,3200.0,1800.0,FEW,1800.0,BKN,3200.0,OVC,5000.0,,
KRDR,04-14-2020,12:56,METAR,Normal,310,6.0,,,9999.0,,-9.5,-12.5,30.11,1021.9,,,,,,,,,,,,,,,,3600.0,3600.0,BKN,3600.0,OVC,4700.0,,,,
KRDR,04-14-2020,11:57,METAR,Normal,290,5.0,,,9999.0,,-12.5,-14.5,30.11,1022.0,,,,,,,,,,,,,TRACE,,,5000.0,5000.0,BKN,5000.0,,,,,,
KRDR,04-14-2020,10:56,METAR,Normal,300,6.0,,,9999.0,,-13.0,-15.0,30.10,1021.7,,,,,,,,,,,TRACE,,,,,4000.0,4000.0,BKN,4000.0,,,,,,
KRDR,04-14-2020,10:24,SPECI,Normal,310,5.0,,,9999.0,,-12.0,-14.0,30.10,1021.7,,,,,,,,,,,,,,,4/8 Partly Cloudy,72000.0,4100.0,FEW,4100.0,FEW,4800.0,SCT,6000.0,,
KRDR,04-14-2020,10:18,SPECI,Normal,310,5.0,,,9999.0,Light Snow,-12.0,-14.0,30.11,1022.0,,,,71,,,,,,,,,,,,4500.0,2000.0,FEW,2000.0,BKN,4500.0,,,,
KRDR,04-14-2020,09:56,METAR,Normal,300,6.0,,,9999.0,,-11.5,-13.7,30.11,1021.9,,,,,,,,,,,,,,,2/8 Mostly Clear,72000.0,6000.0,FEW,6000.0,,,,,,
KRDR,04-14-2020,08:57,METAR,Normal,320,5.0,,,9999.0,,-10.6,-12.2,30.11,1021.9,,,,,,,,,,,,TRACE,,,,6500.0,6500.0,BKN,6500.0,,,,,,
KRDR,04-14-2020,07:57,METAR,Normal,350,3.0,,,9999.0,,-9.2,-10.7,30.11,1021.8,,,,,,,,,,,TRACE,,,,,7000.0,7000.0,BKN,7000.0,,,,,,
KRDR,04-14-2020,06:57,METAR,Normal,360,4.0,,,9999.0,Light Snow,-8.8,-10.2,30.12,1022.2,,,,71,,,,,,,TRACE,,,,,3200.0,2100.0,FEW,2100.0,BKN,3200.0,BKN,4700.0,,
KRDR,04-14-2020,06:11,SPECI,Normal,350,5.0,,,9999.0,Light Snow/Mist,-9.0,-10.0,30.12,1022.2,,,,71,10,,,,,,,,,,,1400.0,2100.0,BKN,2100.0,BKN,5500.0,,,,
KRDR,04-14-2020,05:57,METAR,Normal,340,4.0,,,9999.0,,-9.1,-10.2,30.12,1022.2,,,,,,,,,,,TRACE,,.02 IN,,,3300.0,1800.0,SCT,1800.0,SCT,2800.0,BKN,3300.0,BKN,5000.0
KRDR,04-14-2020,05:49,METAR,Normal,340,4.0,,,9999.0,,-9.1,-10.2,30.12,1022.2,,,,,,,,,,,TRACE,,.02 IN,,,3300.0,1800.0,SCT,1800.0,SCT,2800.0,BKN,3300.0,BKN,5000.0
KRDR,04-14-2020,05:44,SPECI,Normal,330,4.0,,,9999.0,,-9.0,-10.0,30.12,1022.2,,,,,,,,,,,,,,,,5000.0,2100.0,FEW,2100.0,SCT,2800.0,SCT,4300.0,BKN,5000.0
KRDR,04-14-2020,04:58,METAR,Normal,360,5.0,,,9999.0,Light Snow/Mist,-8.8,-9.6,30.12,1022.3,,,,71,10,,,,,,TRACE,,,,,500.0,1000.0,BKN,1000.0,OVC,2800.0,,,,
KRDR,04-14-2020,04:57,METAR,Normal,360,5.0,,,9999.0,Light Snow/Mist,-8.8,-9.6,30.12,1022.3,,,,71,10,,,,,,TRACE,,,,,500.0,1000.0,BKN,1000.0,OVC,2800.0,,,,
KRDR,04-14-2020,04:32,SPECI,Normal,10,5.0,,,9999.0,Light Snow/Mist,-8.0,-9.0,30.12,1022.2,,,,71,10,,,,,,,,,,,500.0,600.0,SCT,600.0,OVC,2800.0,,,,
KRDR,04-14-2020,03:57,METAR,Normal,350,4.0,,,9999.0,Light Snow,-7.9,-9.0,30.11,1021.8,,,,71,,,,,,,.01 IN,,,,,1800.0,1000.0,FEW,1000.0,BKN,1800.0,OVC,3100.0,,
KRDR,04-14-2020,03:43,SPECI,Normal,350,4.0,,,9999.0,Light Snow,-8.0,-9.0,30.11,1021.8,,,,71,,,,,,,,,,,,3200.0,1800.0,SCT,1800.0,OVC,3200.0,,,,
KRDR,04-14-2020,02:57,METAR,Normal,350,4.0,,,9999.0,Light Snow/Mist,-7.7,-8.4,30.11,1021.8,,,,71,10,,,,,,.01 IN,.01 IN,,,,1200.0,1700.0,OVC,1700.0,,,,,,
KRDR,04-14-2020,02:34,SPECI,Normal,10,8.0,,,6400.0,Light Snow/Mist,-8.0,-8.0,30.11,1021.8,71,10,,,,,,,,,,,,,,1300.0,1300.0,BKN,1300.0,OVC,3300.0,,,,
KRDR,04-14-2020,02:24,SPECI,Normal,10,7.0,,,9999.0,Light Snow,-9.0,-9.0,30.10,1021.6,,,,71,,,,,,,,,,,,3300.0,1400.0,SCT,1400.0,BKN,3300.0,,,,
KRDR,04-14-2020,01:56,METAR,Calm,,0.0,,,9999.0,,-8.6,-10.0,30.09,1021.2,,,,,,,,,,,,,,,Clear,72000.0,,,,,,,,,
KRDR,04-14-2020,00:57,METAR,Normal,360,6.0,,,9999.0,,-6.9,-10.3,30.08,1020.8,,,,,,,,,,,TRACE,,,,,2000.0,1000.0,FEW,1000.0,BKN,2000.0,,,,
KRDR,04-14-2020,00:56,METAR,Normal,360,7.0,,,9999.0,,-6.9,-10.3,30.08,1020.8,,,,,,,,,,,TRACE,,,,,5000.0,1000.0,FEW,1000.0,FEW,2000.0,BKN,5000.0,,
KRDR,04-13-2020,23:56,METAR,Normal,360,11.0,,,9999.0,,-5.6,-9.2,30.07,1020.4,,,,,,,,,,,TRACE,,.01 IN,,,2800.0,1800.0,SCT,1800.0,BKN,2800.0,,,,
KRDR,04-13-2020,23:07,SPECI,Normal,10,12.0,,,8000.0,Light Snow,-5.0,-7.0,30.06,1020.1,71,,,,,,,,,,,,,,,1600.0,1100.0,SCT,1100.0,BKN,1600.0,,,,
KRDR,04-13-2020,22:56,METAR,Normal,360,10.0,,,4800.0,Light Snow,-4.9,-7.0,30.06,1020.1,71,,,,,,,,,,TRACE,,,,,1400.0,800.0,FEW,800.0,SCT,1400.0,OVC,1900.0,,
KRDR,04-13-2020,22:26,SPECI,Normal,300,12.0,17.0,,1200.0,Light Snow,-5.0,-8.0,30.06,1020.1,,,,71,,,,,,,,,,,,1700.0,2000.0,BKN,2000.0,BKN,4200.0,,,,
KRDR,04-13-2020,22:18,SPECI,Normal,310,10.0,,,8000.0,Light Snow/Mist,-6.0,-8.0,30.06,1020.1,71,10,,,,,,,,,,,,,,1000.0,1100.0,FEW,1100.0,BKN,2200.0,BKN,4200.0,,
KRDR,04-13-2020,21:56,METAR,Normal,340,8.0,,,1200.0,Light Snow/Mist,-5.8,-7.6,30.05,1019.7,71,10,,,,,,,,,TRACE,,,,,1900.0,2100.0,BKN,2100.0,OVC,2600.0,,,,
KRDR,04-13-2020,21:42,SPECI,Normal,360,11.0,,,8000.0,Light Snow,-5.0,-8.0,30.05,1019.6,71,,,,,,,,,,,,,,,2000.0,2000.0,BKN,2000.0,OVC,3200.0,,,,
KRDR,04-13-2020,21:40,SPECI,Normal,360,12.0,,,8000.0,Haze Smoke or Dust,-5.0,-9.0,30.05,1019.6,05,,,,,,,,,,,,,,,3200.0,2000.0,SCT,2000.0,OVC,3200.0,,,,
KRDR,04-13-2020,21:37,SPECI,Normal,350,12.0,15.0,,9999.0,Precipitation,-5.0,-10.0,30.05,1019.6,41,,,,,,,,,,,,,,,3100.0,2200.0,SCT,2200.0,BKN,3100.0,OVC,4000.0,,
KRDR,04-13-2020,21:36,SPECI,Normal,360,13.0,,,9999.0,,-5.0,-10.0,30.04,1019.3,,,,,,,,,,,,,,,,2700.0,2000.0,SCT,2000.0,BKN,2700.0,BKN,3200.0,OVC,4000.0
KRDR,04-13-2020,21:16,SPECI,Calm,,0.0,,,9999.0,,-5.0,-9.0,30.04,1019.3,,,,,,,,,,,,,,,,4100.0,1100.0,FEW,1100.0,SCT,3200.0,BKN,4100.0,BKN,5500.0
KRDR,04-13-2020,20:56,METAR,Calm,,0.0,,,8000.0,Light Snow,-5.9,-8.6,30.05,1019.7,71,,,,,,,,,,TRACE,TRACE,,,,1600.0,900.0,FEW,900.0,OVC,1600.0,,,,
KRDR,04-13-2020,20:30,SPECI,Calm,,0.0,,,1600.0,Light Snow/Mist,-4.0,-8.0,30.05,1019.6,71,10,,,,,,,,,,,,,,1600.0,800.0,SCT,800.0,BKN,1600.0,BKN,2300.0,OVC,3700.0
KRDR,04-13-2020,20:11,SPECI,Normal,20,5.0,,,9999.0,Light Snow,-5.0,-9.0,30.05,1019.6,71,,,,,,,,,,,,,,,1700.0,1700.0,BKN,1700.0,BKN,3900.0,,,,
KRDR,04-13-2020,19:56,METAR,Normal,340,6.0,,,1600.0,Light Snow/Mist,-5.3,-9.0,30.06,1020.0,71,10,,,,,,,,,TRACE,,,,,1600.0,1700.0,BKN,1700.0,OVC,2300.0,,,,
KRDR,04-13-2020,19:46,SPECI,Normal,330,7.0,,,9999.0,Light Snow/Mist,-4.0,-7.0,30.06,1019.9,71,10,,,,,,,,,,,,,,1400.0,1700.0,BKN,1700.0,BKN,2300.0,OVC,3000.0,,
KRDR,04-13-2020,19:34,SPECI,Normal,340,6.0,,,2400.0,Light Snow,-5.0,-8.0,30.06,1020.0,71,,,,,,,,,,,,,,,1700.0,1700.0,BKN,1700.0,OVC,2600.0,,,,
KRDR,04-13-2020,19:29,SPECI,Normal,330,10.0,,,1600.0,Light Snow,-5.0,-8.0,30.06,1020.0,71,,,,,,,,,,,,,,,1700.0,1700.0,BKN,1700.0,BKN,2700.0,OVC,5500.0,,
KRDR,04-13-2020,19:05,SPECI,Normal,330,7.0,,,8000.0,Light Snow,-6.0,-9.0,30.07,1020.3,71,,,,,,,,,,,,,,,1900.0,1100.0,FEW,1100.0,BKN,1900.0,BKN,2800.0,,
KRDR,04-13-2020,18:56,METAR,Normal,20,8.0,,,1600.0,Light Snow,-5.0,-9.1,30.06,1020.0,71,,,,,,,,,,TRACE,,,,,3500.0,1800.0,SCT,1800.0,BKN,3500.0,,,,
KRDR,04-13-2020,18:54,SPECI,Normal,20,9.0,,,9999.0,Light Snow,-5.0,-9.0,30.06,1020.0,71,,,,,,,,,,,,,,,3500.0,1100.0,FEW,1100.0,SCT,1800.0,BKN,3500.0,,
KRDR,04-13-2020,18:47,SPECI,Normal,360,10.0,,,9999.0,Blowing or Drifting Snow or Sand,-5.0,-8.0,30.07,1020.3,27,,,,,,,,,,,,,,,1500.0,1800.0,BKN,1800.0,BKN,3300.0,,,,
KRDR,04-13-2020,18:30,SPECI,Normal,330,7.0,,,8000.0,Light Snow,-6.0,-8.0,30.07,1020.3,71,,,,,,,,,,,,,,,2000.0,2000.0,BKN,2000.0,BKN,2800.0,BKN,3300.0,,
KRDR,04-13-2020,18:20,SPECI,Normal,350,11.0,,,1600.0,Snow,-5.0,-9.0,30.07,1020.3,72,,,,,,,,,,,,,,,2200.0,2200.0,BKN,2200.0,BKN,3100.0,,,,
KRDR,04-13-2020,17:56,METAR,Normal,330,12.0,,,8000.0,Light Snow/Mist,-4.8,-10.2,30.07,1020.3,71,10,,,,,,,,,TRACE,,TRACE,,,2200.0,2200.0,BKN,2200.0,,,,,,
KRDR,04-13-2020,17:31,SPECI,Normal,10,16.0,19.0,,8000.0,Light Snow,-4.0,-10.0,30.07,1020.2,71,,,,,,,,,,,,,,,2700.0,2700.0,BKN,2700.0,,,,,,
KRDR,04-13-2020,17:15,METAR,Normal,360,11.0,18.0,,6400.0,Light Snow/Mist,-5.2,-8.9,30.07,1020.3,71,10,,,,,,,,,TRACE,,TRACE,,,2200.0,2200.0,BKN,2200.0,,,,,,
KRDR,04-13-2020,16:48,SPECI,Normal,350,13.0,18.0,,1600.0,Light Snow/Mist,-6.0,-9.0,30.07,1020.3,71,10,,,,,,,,,,,,,,2100.0,2100.0,BKN,2100.0,BKN,2800.0,OVC,4000.0,,
KRDR,04-13-2020,15:56,METAR,Normal,10,16.0,,,4800.0,Light Snow/Mist,-6.3,-9.2,30.05,1019.6,71,10,,,,,,,,,TRACE,,,,,1800.0,1300.0,FEW,1300.0,BKN,1800.0,,,,
KRDR,04-13-2020,14:57,METAR,Normal,360,13.0,23.0,,3200.0,Light Snow/Mist,-6.7,-9.3,30.03,1019.0,71,10,,,,,,,,,TRACE,TRACE,,,,1000.0,1000.0,OVC,1000.0,,,,,,
KRDR,04-13-2020,14:38,SPECI,Normal,360,16.0,24.0,,3200.0,Light Snow/Mist,-7.0,-9.0,30.03,1019.0,71,10,,,,,,,,,,,,,,1000.0,1000.0,OVC,1000.0,,,,,,
KRDR,04-13-2020,13:56,METAR,Normal,350,19.0,23.0,,1600.0,Light Snow,-6.4,-7.8,30.01,1018.2,71,,,,,,,,,,TRACE,,,,,1000.0,1000.0,OVC,1000.0,,,,,,
KRDR,04-13-2020,13:28,SPECI,Normal,350,16.0,,,1600.0,Light Snow,-6.0,-8.0,30.01,1018.2,71,,,,,,,,,,,,,,,1600.0,1000.0,FEW,1000.0,OVC,1600.0,,,,
KRDR,04-13-2020,13:03,SPECI,Normal,320,13.0,21.0,,3200.0,Light Snow,-6.0,-9.0,30.00,1017.9,,,,71,,,,,,,,,,,,2000.0,1400.0,FEW,1400.0,BKN,2600.0,OVC,3100.0,,
KRDR,04-13-2020,12:56,METAR,Normal,310,14.0,21.0,,9999.0,Light Snow,-6.1,-8.8,30.00,1017.9,71,,,,,,,,,,TRACE,,,,,2100.0,1500.0,SCT,1500.0,SCT,2100.0,OVC,2800.0,,
KRDR,04-13-2020,12:34,SPECI,Normal,310,11.0,22.0,,9999.0,Light Snow,-6.0,-9.0,30.00,1017.9,71,,,,,,,,,,,,,,,2000.0,2000.0,SCT,2000.0,BKN,2700.0,OVC,3400.0,,
KRDR,04-13-2020,12:14,SPECI,Normal,310,14.0,,,9999.0,Light Snow,-6.0,-10.0,29.99,1017.5,71,,,,,,,,,,,,,,,3400.0,3400.0,OVC,3400.0,,,,,,
KRDR,04-13-2020,12:10,SPECI,Normal,310,14.0,,,9999.0,,-6.0,-10.0,30.00,1017.9,,,,,,,,,,,,,,,,3300.0,3300.0,BKN,3300.0,,,,,,
KRDR,04-13-2020,12:00,SPECI,Normal,300,13.0,,,9999.0,Light Snow,-7.0,-10.0,30.00,1017.9,71,,,,,,,,,,,,,,,3300.0,3300.0,BKN,3300.0,,,,,,
KRDR,04-13-2020,11:56,METAR,Normal,310,15.0,,,9999.0,,-6.8,-10.3,30.00,1017.9,,,,,,,,,,,TRACE,,TRACE,,,3300.0,3300.0,BKN,3300.0,,,,,,
KRDR,04-13-2020,11:55,SPECI,Normal,310,15.0,,,9999.0,,-7.0,-10.0,30.00,1017.9,,,,,,,,,,,,,,,,3300.0,3300.0,BKN,3300.0,,,,,,
KRDR,04-13-2020,11:50,SPECI,Normal,310,15.0,,,9999.0,Light Snow,-7.0,-10.0,30.00,1017.9,71,,,,,,,,,,,,,,,3100.0,3100.0,BKN,3100.0,,,,,,
KRDR,04-13-2020,10:56,METAR,Normal,310,13.0,,,9999.0,,-6.7,-10.2,30.00,1017.9,,,,,,,,,,,,,,,Clear,72000.0,,,,,,,,,
KRDR,04-13-2020,09:56,METAR,Normal,310,10.0,,,9999.0,,-6.1,-10.7,30.00,1017.9,,,,,,,,,,,,,,,Clear,72000.0,,,,,,,,,
KRDR,04-13-2020,08:56,METAR,Normal,320,11.0,,,9999.0,,-5.6,-9.7,30.01,1018.1,,,,,,,,,,,,,,,Clear,72000.0,,,,,,,,,
KRDR,04-13-2020,07:56,METAR,Normal,320,12.0,,,9999.0,,-4.8,-9.4,30.01,1018.1,,,,,,,,,,,,,,,Clear,72000.0,,,,,,,,,
KRDR,04-13-2020,06:56,METAR,Normal,310,8.0,,,9999.0,,-4.4,-6.7,30.02,1018.5,,,,,,,,,,,,,,,Clear,72000.0,,,,,,,,,
KRDR,04-13-2020,05:56,METAR,Normal,320,7.0,,,9999.0,,-4.3,-6.3,30.03,1018.8,,,,,,,,,,,,,,,Clear,72000.0,,,,,,,,,
KRDR,04-13-2020,04:56,METAR,Normal,310,6.0,,,9999.0,,-4.7,-7.0,30.04,1019.1,,,,,,,,,,,,,,,Clear,72000.0,,,,,,,,,
KRDR,04-13-2020,03:56,METAR,Normal,270,3.0,,,9999.0,,-3.6,-7.9,30.05,1019.5,,,,,,,,,,,,,,,Clear,72000.0,,,,,,,,,
KRDR,04-13-2020,02:56,METAR,Calm,,0.0,,,9999.0,,-2.9,-9.2,30.07,1020.1,,,,,,,,,,,,,,,,5000.0,5000.0,BKN,5000.0,OVC,6000.0,,,,
KRDR,04-13-2020,01:56,METAR,Calm,,0.0,,,9999.0,,-2.8,-9.1,30.07,1020.2,,,,,,,,,,,,,,,,5000.0,5000.0,BKN,5000.0,OVC,6000.0,,,,
KRDR,04-13-2020,00:56,METAR,Calm,,0.0,,,9999.0,,-2.6,-8.9,30.06,1019.8,,,,,,,,,,,,,,,,6000.0,4500.0,FEW,4500.0,BKN,6000.0,,,,
KRDR,04-12-2020,23:56,METAR,Normal,360,6.0,,,9999.0,,-1.8,-7.1,30.07,1020.2,,,,,,,,,,,TRACE,,TRACE,,Clear,72000.0,,,,,,,,,
KRDR,04-12-2020,23:39,SPECI,Normal,20,8.0,,,9999.0,,-2.0,-6.0,30.07,1020.2,,,,,,,,,,,,,,,,,6000.0,FEW,6000.0,,,,,,
KRDR,04-12-2020,22:56,METAR,Normal,340,7.0,,,9999.0,Light Snow,-0.7,-8.2,30.07,1020.1,71,,,,,,,,,,TRACE,,,,,3600.0,3000.0,SCT,3000.0,BKN,3600.0,BKN,4400.0,OVC,5500.0
KRDR,04-12-2020,22:36,SPECI,Normal,10,8.0,,,9999.0,Light Snow,-1.0,-8.0,30.07,1020.1,71,,,,,,,,,,,,,,,6000.0,3400.0,SCT,3400.0,SCT,4800.0,OVC,6000.0,,
KRDR,04-12-2020,22:01,SPECI,Normal,360,9.0,,,9999.0,,-2.0,-6.0,30.06,1019.7,,,,,,,,,,,,,,,,3900.0,1600.0,FEW,1600.0,BKN,3900.0,OVC,4900.0,,
KRDR,04-12-2020,21:56,METAR,Normal,350,12.0,,,9999.0,Light Snow,-1.6,-5.3,30.07,1020.1,71,,,,,,,,,,TRACE,,,,,3900.0,1600.0,FEW,1600.0,BKN,3900.0,BKN,4900.0,OVC,5500.0
KRDR,04-12-2020,21:46,SPECI,Normal,10,14.0,21.0,,9999.0,Light Snow,0.0,-7.0,30.06,1019.7,71,,,,,,,,,,,,,,,5500.0,700.0,FEW,700.0,SCT,4000.0,OVC,5500.0,,
KRDR,04-12-2020,21:44,SPECI,Normal,360,17.0,21.0,,9999.0,,0.0,-9.0,30.06,1019.7,,,,,,,,,,,,,,,,5500.0,700.0,FEW,700.0,SCT,4000.0,OVC,5500.0,,
KRDR,04-12-2020,21:42,SPECI,Normal,350,17.0,21.0,,9999.0,,0.0,-10.0,30.06,1019.7,,,,,,,,,,,,,,,,5500.0,500.0,FEW,500.0,SCT,4000.0,OVC,5500.0,,
KRDR,04-12-2020,21:13,SPECI,Normal,330,13.0,21.0,,9999.0,,-1.0,-9.0,30.06,1019.7,,,,,,,,,,,,,,,,5500.0,2500.0,FEW,2500.0,SCT,4200.0,OVC,5500.0,,
KRDR,04-12-2020,20:56,METAR,Normal,340,13.0,,,9999.0,Light Snow,-1.0,-7.8,30.06,1019.7,71,,,,,,,,,,TRACE,TRACE,,,,3400.0,3400.0,BKN,3400.0,BKN,4600.0,OVC,5500.0,,
KRDR,04-12-2020,20:47,SPECI,Normal,340,12.0,,,9999.0,Light Snow,-1.0,-8.0,30.06,1019.7,71,,,,,,,,,,,,,,,3400.0,3400.0,BKN,3400.0,BKN,4600.0,OVC,6000.0,,
KRDR,04-12-2020,20:34,SPECI,Normal,330,12.0,,,9999.0,,-1.0,-8.0,30.06,1019.7,,,,,,,,,,,,,,,,6000.0,3100.0,FEW,3100.0,SCT,3800.0,SCT,4900.0,OVC,6000.0
KRDR,04-12-2020,20:25,SPECI,Normal,310,11.0,,,9999.0,Light Snow,-1.0,-7.0,30.07,1020.0,71,,,,,,,,,,,,,,,6000.0,3300.0,SCT,3300.0,SCT,4000.0,OVC,6000.0,,
KRDR,04-12-2020,19:56,METAR,Normal,300,14.0,18.0,,9999.0,,-0.9,-5.9,30.07,1020.0,,,,,,,,,,,TRACE,,,,,3300.0,2600.0,SCT,2600.0,BKN,3300.0,BKN,4000.0,OVC,6000.0
KRDR,04-12-2020,19:52,SPECI,Normal,310,13.0,,,9999.0,Light Snow,-1.0,-6.0,30.07,1020.0,71,,,,,,,,,,,,,,,3500.0,2600.0,SCT,2600.0,BKN,3500.0,OVC,6000.0,,
KRDR,04-12-2020,19:32,SPECI,Normal,350,9.0,,,9999.0,Light Snow,-2.0,-4.0,30.08,1020.4,71,,,,,,,,,,,,,,,1600.0,700.0,FEW,700.0,SCT,1700.0,BKN,2300.0,BKN,2900.0
KRDR,04-12-2020,19:12,SPECI,Normal,310,10.0,,,9999.0,Light Snow,-2.0,-5.0,30.08,1020.4,71,,,,,,,,,,,,,,,1700.0,700.0,FEW,700.0,SCT,1300.0,BKN,2100.0,OVC,3300.0
KRDR,04-12-2020,19:02,SPECI,Normal,340,5.0,,,9999.0,Light Snow,-1.0,-5.0,30.08,1020.3,71,,,,,,,,,,,,,,,1600.0,700.0,FEW,700.0,BKN,1900.0,BKN,2900.0,,
KRDR,04-12-2020,18:56,METAR,Normal,340,7.0,,,9999.0,Light Snow,-1.4,-5.4,30.08,1020.3,71,,,,,,,,,,TRACE,,,,,2200.0,1900.0,SCT,1900.0,BKN,2800.0,BKN,3300.0,OVC,6500.0
KRDR,04-12-2020,18:53,SPECI,Normal,340,7.0,,,9999.0,Light Snow,-1.0,-6.0,30.08,1020.3,71,,,,,,,,,,,,,,,3000.0,1400.0,FEW,1400.0,SCT,2400.0,BKN,3000.0,BKN,6500.0
KRDR,04-12-2020,18:47,SPECI,Normal,330,12.0,,,9999.0,,0.0,-6.0,30.08,1020.3,,,,,,,,,,,,,,,,3000.0,2300.0,SCT,2300.0,BKN,3000.0,OVC,3600.0,,
KRDR,04-12-2020,18:37,SPECI,Normal,320,11.0,,,9999.0,,-1.0,-7.0,30.08,1020.3,,,,,,,,,,,,,,,,2700.0,2900.0,BKN,2900.0,OVC,3500.0,,,,
KRDR,04-12-2020,18:36,SPECI,Normal,330,10.0,,,9999.0,Light Snow,-1.0,-7.0,30.08,1020.3,71,,,,,,,,,,,,,,,3200.0,2500.0,FEW,2500.0,OVC,3200.0,,,,
KRDR,04-12-2020,17:56,METAR,Normal,340,7.0,,,9999.0,Light Snow,-1.7,-8.5,30.09,1020.7,71,,,,,,,,,,TRACE,,TRACE,,,3300.0,2800.0,FEW,2800.0,BKN,3300.0,OVC,4200.0,,
KRDR,04-12-2020,17:54,SPECI,Normal,320,7.0,,,9999.0,Light Snow,-2.0,-8.0,30.09,1020.7,71,,,,,,,,,,,,,,,3100.0,3100.0,BKN,3100.0,OVC,4200.0,,,,
KRDR,04-12-2020,17:51,SPECI,Normal,310,3.0,,,9999.0,,-2.0,-8.0,30.09,1020.8,,,,,,,,,,,,,,,,3300.0,2400.0,FEW,2400.0,BKN,3300.0,OVC,4200.0,,
KRDR,04-12-2020,17:29,SPECI,Normal,320,8.0,,,9999.0,Light Snow,-1.0,-9.0,30.09,1020.7,71,,,,,,,,,,,,,,,3500.0,2700.0,FEW,2700.0,BKN,3500.0,OVC,4400.0,,
KRDR,04-12-2020,16:56,METAR,Normal,360,10.0,15.0,,9999.0,,-1.1,-10.5,30.08,1020.3,,,,,,,,,,,,,,,,5500.0,3300.0,FEW,3300.0,SCT,4000.0,OVC,5500.0,,
KRDR,04-12-2020,15:56,METAR,Normal,10,9.0,,,9999.0,,-1.3,-10.7,30.09,1020.7,,,,,,,,,,,,,,,,3000.0,3000.0,BKN,3000.0,OVC,3800.0,,,,
KRDR,04-12-2020,14:56,METAR,Normal,10,10.0,,,9999.0,,-1.9,-12.0,30.08,1020.3,,,,,,,,,,,,,,,,3500.0,3500.0,OVC,3500.0,,,,,,
KRDR,04-12-2020,13:56,METAR,Normal,10,11.0,,,9999.0,,-2.3,-10.4,30.09,1020.7,,,,,,,,,,,,,,,,3600.0,3600.0,OVC,3600.0,,,,,,
KRDR,04-12-2020,11:56,METAR,Normal,10,9.0,,,9999.0,,-3.4,-9.6,30.07,1020.0,,,,,,,,,,,,,,,,5500.0,5500.0,OVC,5500.0,,,,,,
KRDR,04-12-2020,10:56,METAR,Normal,10,10.0,,,9999.0,,-2.8,-8.9,30.05,1019.2,,,,,,,,,,,,,,,,5500.0,5500.0,OVC,5500.0,,,,,,
KRDR,04-12-2020,09:56,METAR,Normal,10,10.0,,,9999.0,,-2.4,-7.5,30.03,1018.5,,,,,,,,,,,,,,,,4600.0,4600.0,BKN,4600.0,OVC,5500.0,,,,
KRDR,04-12-2020,08:56,METAR,Normal,10,10.0,,,9999.0,,-1.8,-7.9,30.02,1018.2,,,,,,,,,,,,,,,,4700.0,4700.0,OVC,4700.0,,,,,,
KRDR,04-12-2020,07:56,METAR,Normal,360,10.0,,,9999.0,,-1.5,-6.6,30.02,1018.1,,,,,,,,,,,,,,,,4600.0,4600.0,OVC,4600.0,,,,,,
KRDR,04-12-2020,06:56,METAR,Normal,360,9.0,,,9999.0,,-1.1,-6.7,30.01,1017.8,,,,,,,,,,,,,,,,4000.0,4000.0,BKN,4000.0,OVC,4900.0,,,,
KRDR,04-12-2020,05:56,METAR,Normal,10,8.0,,,9999.0,,-1.0,-5.4,30.00,1017.5,,,,,,,,,,,,,TRACE,,,4600.0,3500.0,SCT,3500.0,OVC,4600.0,,,,
KRDR,04-12-2020,04:56,METAR,Normal,10,7.0,,,9999.0,,-1.0,-5.6,29.99,1017.1,,,,,,,,,,,TRACE,,,,,5000.0,3600.0,SCT,3600.0,OVC,5000.0,,,,
KRDR,04-12-2020,04:12,SPECI,Normal,360,7.0,,,9999.0,,-1.0,-5.0,29.99,1017.1,,,,,,,,,,,,,,,,3600.0,3600.0,BKN,3600.0,OVC,4900.0,,,,
KRDR,04-12-2020,03:56,METAR,Normal,360,8.0,,,9999.0,Precipitation,-0.5,-4.7,29.99,1017.1,41,,,,,,,,,,TRACE,,,,,3500.0,3500.0,BKN,3500.0,OVC,4500.0,,,,
KRDR,04-12-2020,03:48,SPECI,Normal,350,9.0,,,9999.0,Precipitation,0.0,-5.0,29.99,1017.1,41,,,,,,,,,,,,,,,3500.0,3500.0,BKN,3500.0,OVC,4500.0,,,,
KRDR,04-12-2020,03:18,SPECI,Normal,10,8.0,,,9999.0,,0.0,-5.0,29.98,1016.8,,,,,,,,,,,,,,,,3500.0,3500.0,OVC,3500.0,,,,,,
KRDR,04-12-2020,03:08,SPECI,Normal,10,7.0,,,9999.0,Precipitation,0.0,-5.0,29.98,1016.8,41,,,,,,,,,,,,,,,3400.0,3400.0,OVC,3400.0,,,,,,
KRDR,04-12-2020,03:00,SPECI,Normal,10,11.0,,,9999.0,,0.0,-5.0,29.98,1016.8,,,,,,,,,,,,,,,,3400.0,3400.0,OVC,3400.0,,,,,,
KRDR,04-12-2020,02:56,METAR,Normal,10,11.0,,,9999.0,Light Rain,-0.1,-4.5,29.98,1016.8,61,,,,,,,,,,TRACE,TRACE,,,,3400.0,3400.0,BKN,3400.0,OVC,4200.0,,,,
KRDR,04-12-2020,02:49,SPECI,Normal,10,11.0,,,9999.0,Light Rain,0.0,-4.0,29.98,1016.8,61,,,,,,,,,,,,,,,3700.0,3700.0,BKN,3700.0,BKN,4700.0,OVC,6000.0,,
KRDR,04-12-2020,02:32,SPECI,Normal,20,8.0,,,9999.0,,0.0,-4.0,29.97,1016.4,,,,,,,,,,,,,,,,4800.0,2900.0,FEW,2900.0,SCT,3800.0,BKN,4800.0,OVC,6000.0
KRDR,04-12-2020,02:22,SPECI,Normal,10,8.0,,,9999.0,Light Rain,0.0,-4.0,29.97,1016.4,61,,,,,,,,,,,,,,,3400.0,2400.0,FEW,2400.0,BKN,3400.0,BKN,4100.0,OVC,6000.0
KRDR,04-12-2020,02:10,SPECI,Normal,10,12.0,,,9999.0,,1.0,-4.0,29.96,1016.1,,,,,,,,,,,,,,,,3600.0,2500.0,FEW,2500.0,BKN,3600.0,OVC,4300.0,,
KRDR,04-12-2020,01:56,METAR,Normal,20,8.0,,,9999.0,Light Rain,0.5,-4.3,29.96,1016.1,61,,,,,,,,,,TRACE,,,,,3600.0,2500.0,FEW,2500.0,OVC,3600.0,,,,
KRDR,04-12-2020,01:52,SPECI,Normal,10,8.0,,,9999.0,Precipitation,1.0,-4.0,29.95,1015.8,41,,,,,,,,,,,,,,,3600.0,2500.0,FEW,2500.0,BKN,3600.0,OVC,6500.0,,
KRDR,04-12-2020,01:21,SPECI,Normal,20,10.0,,,9999.0,,1.0,-4.0,29.94,1015.4,,,,,,,,,,,,,,,,3600.0,2500.0,FEW,2500.0,BKN,3600.0,BKN,4900.0,OVC,6000.0
KRDR,04-12-2020,00:57,SPECI,Normal,20,8.0,,,9999.0,Light Snow,1.0,-4.0,29.93,1015.1,71,,,,,,,,,,,,,,,3400.0,2800.0,FEW,2800.0,BKN,3400.0,BKN,4700.0,OVC,6000.0
KRDR,04-12-2020,00:56,METAR,Normal,20,8.0,,,9999.0,,1.0,-4.4,29.93,1015.1,,,,,,,,,,,,,,,,3200.0,3200.0,BKN,3200.0,BKN,4700.0,BKN,6500.0,,
