Platform Id,Date,Time (UTC),Report Type,Wind Condition,Wind Direction,Wind Speed (Knots),Wind Gust Speed,Peak Wind (Knots),Visibility (M),Weather,Air Temp (C),Dew Point (C),Altimeter (inHg),SLP (Millibars),Present Automated 1,Present Automated 2,Present Automated 3,Present Manual 1,Present Manual 2,Present Manual 3,Present Manual 4,Present Manual 5,Present Manual 6,Present Manual 7,Precip Hr1,Precip Hr3,Precip Hr6,Precip Hr24,Cloud Cover,Cloud Ceiling (Feet),Lowest Cloud Base Height (Feet),Cloud Cover1,Cloudbase 1,Cloud Cover2,Cloudbase 2,Cloud Cover3,Cloudbase 3,Cloud Cover4,Cloudbase 4
KRDR,10-29-2014,23:58,METAR,Normal,160,6.0,,,9999.0,,4.1,-1.4,29.99,1017.0,,,,,,,,,,,,,,,,9500.0,9500.0,BKN,9600.0,,,,,,
KRDR,10-29-2014,22:58,METAR,Normal,130,5.0,,,9999.0,,4.6,-1.8,30.01,1017.6,,,,,,,,,,,,,,,,11000.0,11000.0,BKN,11000.0,,,,,,
KRDR,10-29-2014,21:58,METAR,Normal,180,8.0,,,9999.0,,4.9,-2.2,30.02,1017.9,,,,,,,,,,,,,,,,10000.0,10000.0,OVC,10000.0,,,,,,
KRDR,10-29-2014,20:58,METAR,Normal,160,5.0,,,9999.0,,4.9,-2.4,30.02,1017.9,,,,,,,,,,,,,,,,12000.0,12000.0,OVC,12000.0,,,,,,
KRDR,10-29-2014,19:58,METAR,Normal,160,6.0,,,9999.0,,4.8,-2.7,30.04,1018.6,,,,,,,,,,,,,,,,11000.0,2900.0,FEW,2900.0,OVC,11000.0,,,,
KRDR,10-29-2014,19:33,SPECI,Normal,200,7.0,,,9999.0,,5.0,-2.0,30.06,,,,,,,,,,,,,,,,,10000.0,2700.0,SCT,2700.0,OVC,10000.0,,,,
KRDR,10-29-2014,18:58,METAR,Normal,180,6.0,,,9999.0,,4.3,-2.4,30.07,1019.6,,,,,,,,,,,,,,,,2500.0,2500.0,OVC,2500.0,,,,,,
KRDR,10-29-2014,17:58,METAR,Variable,,5.0,,,9999.0,,3.6,-2.3,30.09,1020.4,,,,,,,,,,,,,,,,2400.0,2400.0,OVC,2400.0,,,,,,
KRDR,10-29-2014,16:58,METAR,Normal,230,8.0,,,9999.0,,3.1,-3.0,30.11,1021.1,,,,,,,,,,,,,,,,2400.0,2400.0,OVC,2400.0,,,,,,
KRDR,10-29-2014,15:58,METAR,Normal,250,5.0,,,9999.0,,2.6,-2.7,30.12,1021.4,,,,,,,,,,,,,,,,2300.0,2300.0,OVC,2300.0,,,,,,
KRDR,10-29-2014,14:58,METAR,Normal,280,6.0,,,9999.0,,2.3,-2.5,30.13,1021.8,,,,,,,,,,,,,,,,2300.0,2300.0,OVC,2300.0,,,,,,
KRDR,10-29-2014,13:58,METAR,Normal,280,3.0,,,9999.0,,1.7,-1.5,30.12,1021.4,,,,,,,,,,,,,,,,2200.0,2200.0,OVC,2200.0,,,,,,
KRDR,10-29-2014,12:58,METAR,Normal,300,4.0,,,9999.0,,1.5,-1.3,30.12,1021.4,,,,,,,,,,,,,,,,2400.0,2400.0,OVC,2400.0,,,,,,
KRDR,10-29-2014,11:58,METAR,Normal,320,1.0,,,9999.0,,1.4,-1.7,30.12,1021.5,,,,,,,,,,,,,,IN,,2600.0,2600.0,OVC,2600.0,,,,,,
KRDR,10-29-2014,10:58,METAR,Normal,350,5.0,,,9999.0,,1.6,-1.6,30.11,1021.1,,,,,,,,,,,,,,,,2700.0,2700.0,OVC,2700.0,,,,,,
KRDR,10-29-2014,09:58,METAR,Normal,330,6.0,,,9999.0,,1.7,-1.7,30.12,1021.4,,,,,,,,,,,,,,,,2800.0,2200.0,FEW,2200.0,OVC,2800.0,,,,
KRDR,10-29-2014,09:08,SPECI,Normal,330,6.0,,,9999.0,,2.0,-2.0,30.11,,,,,,,,,,,,,,,,,2100.0,2100.0,BKN,2100.0,OVC,3000.0,,,,
KRDR,10-29-2014,09:03,SPECI,Normal,340,8.0,,,9999.0,,2.0,-2.0,30.12,,,,,,,,,,,,,,,,,3000.0,2200.0,SCT,2200.0,OVC,3000.0,,,,
KRDR,10-29-2014,08:58,METAR,Normal,340,8.0,,,9999.0,,1.9,-2.4,30.11,1021.1,,,,,,,,,,,,,,,,2900.0,2200.0,SCT,2200.0,OVC,2900.0,,,,
KRDR,10-29-2014,07:58,METAR,Normal,330,9.0,,,9999.0,,2.0,-2.1,30.11,1021.1,,,,,,,,,,,,,,,,2700.0,2700.0,OVC,2700.0,,,,,,
KRDR,10-29-2014,07:23,SPECI,Normal,340,8.0,,,9999.0,,2.0,-2.0,30.10,,,,,,,,,,,,,,,,,2900.0,2900.0,OVC,2900.0,,,,,,
KRDR,10-29-2014,06:58,METAR,Normal,340,9.0,,,9999.0,,2.1,-2.3,30.10,1020.7,,,,,,,,,,,,,,,,3100.0,3100.0,OVC,3100.0,,,,,,
KRDR,10-29-2014,05:58,METAR,Normal,350,9.0,,,9999.0,,2.1,-2.4,30.09,1020.4,,,,,,,,,,,,,,,,3300.0,3300.0,OVC,3300.0,,,,,,
KRDR,10-29-2014,05:38,SPECI,Normal,350,10.0,,,9999.0,,2.0,-2.0,30.09,,,,,,,,,,,,,,,,,3400.0,2500.0,SCT,2500.0,OVC,3400.0,,,,
KRDR,10-29-2014,04:58,METAR,Normal,340,10.0,,,9999.0,,2.0,-2.3,30.09,1020.4,,,,,,,,,,,,,,,,2400.0,2400.0,OVC,2400.0,,,,,,
KRDR,10-29-2014,04:18,SPECI,Normal,350,12.0,,,9999.0,,2.0,-2.0,30.08,,,,,,,,,,,,,,,,,2300.0,2300.0,BKN,2300.0,OVC,4200.0,,,,
KRDR,10-29-2014,03:58,METAR,Normal,350,13.0,,,9999.0,,2.0,-2.3,30.07,1019.7,,,,,,,,,,,,,,,,2400.0,2400.0,OVC,2400.0,,,,,,
KRDR,10-29-2014,03:38,SPECI,Normal,350,16.0,22.0,,9999.0,,2.0,-3.0,30.07,,,,,,,,,,,,,,,,,2500.0,2500.0,BKN,2500.0,OVC,4300.0,,,,
KRDR,10-29-2014,02:58,METAR,Normal,350,12.0,21.0,,9999.0,,2.6,-2.5,30.05,1019.0,,,,,,,,,,,,,,,,2600.0,2700.0,FEW,2700.0,OVC,4300.0,,,,
KRDR,10-29-2014,02:33,SPECI,Normal,340,12.0,18.0,,9999.0,,3.0,-2.0,30.04,,,,,,,,,,,,,,,,,2700.0,2800.0,SCT,2800.0,OVC,4200.0,,,,
KRDR,10-29-2014,01:58,METAR,Normal,350,14.0,19.0,,9999.0,,2.7,-2.6,30.04,1018.7,,,,,,,,,,,,,,,,2800.0,2800.0,OVC,2800.0,,,,,,
KRDR,10-29-2014,01:33,SPECI,Normal,340,15.0,20.0,,9999.0,,3.0,-3.0,30.03,,,,,,,,,,,,,,,,,2900.0,2900.0,BKN,2900.0,OVC,4100.0,,,,
KRDR,10-29-2014,00:58,METAR,Normal,350,15.0,21.0,330/29KTS,9999.0,,2.9,-2.7,30.02,1018.0,,,,,,,,,,,,,,,,3000.0,3000.0,SCT,3000.0,OVC,4100.0,,,,
KRDR,10-28-2014,23:58,METAR,Normal,350,14.0,22.0,320/29KTS,9999.0,,3.0,-2.8,30.00,1017.3,,,,,,,,,,,,,,,,3100.0,3100.0,OVC,3100.0,,,,,,
KRDR,10-28-2014,22:58,METAR,Normal,350,17.0,25.0,340/28KTS,9999.0,,3.5,-2.4,29.97,1016.2,,,,,,,,,,,,,,,,3200.0,3200.0,OVC,3200.0,,,,,,
KRDR,10-28-2014,22:43,SPECI,Variable,350,17.0,24.0,,9999.0,,4.0,-2.0,29.96,,,,,,,,,,,,,,,,,3100.0,3100.0,OVC,3100.0,,,,,,
KRDR,10-28-2014,22:28,SPECI,Normal,350,16.0,22.0,,9999.0,,4.0,-2.0,29.96,,,,,,,,,,,,,,,,,2900.0,2900.0,OVC,2900.0,,,,,,
KRDR,10-28-2014,22:23,SPECI,Variable,350,16.0,28.0,,9999.0,,4.0,-3.0,29.95,,,,,,,,,,,,,,,,,3000.0,3000.0,OVC,3000.0,,,,,,
KRDR,10-28-2014,22:18,SPECI,Normal,350,16.0,28.0,,9999.0,,4.0,-3.0,29.95,,,,,,,,,,,,,,,,,2900.0,2900.0,OVC,2900.0,,,,,,
KRDR,10-28-2014,21:58,METAR,Normal,350,18.0,27.0,350/28KTS,9999.0,,3.7,-2.7,29.94,1015.2,,,,,,,,,,,,,,,,3100.0,3100.0,OVC,3100.0,,,,,,
KRDR,10-28-2014,20:58,METAR,Normal,340,19.0,,330/28KTS,,,,,,,,,,,,,,,,,,,,,,,,,,,,,,,
KRDR,10-28-2014,19:58,METAR,Normal,340,21.0,26.0,320/28KTS,9999.0,,4.0,-1.5,29.88,1013.1,,,,,,,,,,,,,,,,2700.0,2700.0,OVC,2700.0,,,,,,
KRDR,10-28-2014,18:58,METAR,Normal,330,18.0,26.0,310/29KTS,9999.0,,3.6,-1.3,29.87,1012.8,,,,,,,,,,,,,,,,2500.0,2500.0,OVC,2500.0,,,,,,
KRDR,10-28-2014,17:58,METAR,Normal,330,19.0,23.0,320/27KTS,9999.0,,2.6,-1.3,29.87,1012.8,,,,,,,,,,,TRACE,,TRACE,,,2300.0,2300.0,BKN,2300.0,OVC,2900.0,,,,
KRDR,10-28-2014,16:59,SPECI,Normal,330,16.0,26.0,,9999.0,,3.0,-1.0,29.85,,,,,,,,,,,,,,,,,2100.0,2100.0,BKN,2100.0,OVC,3200.0,,,,
KRDR,10-28-2014,16:58,METAR,Normal,330,18.0,26.0,320/30KTS,9999.0,Unknown Precipitation,2.6,-1.0,29.85,1012.1,40,,,,,,,,,,TRACE,,,,,2100.0,2100.0,BKN,2100.0,OVC,3200.0,,,,
KRDR,10-28-2014,16:27,SPECI,Normal,330,20.0,27.0,,9999.0,Unknown Precipitation,3.0,0.0,29.84,,40,,,,,,,,,,,,,,,2000.0,2000.0,OVC,2000.0,,,,,,
KRDR,10-28-2014,15:58,METAR,Normal,330,21.0,26.0,320/28KTS,9999.0,,2.7,-0.1,29.83,1011.4,,,,,,,,,,,,,,,,1800.0,1800.0,OVC,1800.0,,,,,,
KRDR,10-28-2014,14:58,METAR,Normal,330,18.0,,,9999.0,,2.6,0.8,29.82,1011.0,,,,,,,,,,,,,,,,1700.0,1700.0,OVC,1700.0,,,,,,
KRDR,10-28-2014,14:18,SPECI,Normal,330,13.0,20.0,,9999.0,,3.0,0.0,29.80,,,,,,,,,,,,,,,,,1800.0,1800.0,BKN,1800.0,OVC,2900.0,,,,
KRDR,10-28-2014,13:58,METAR,Normal,320,13.0,23.0,,9999.0,,2.7,0.0,29.79,1010.0,,,,,,,,,,,,,,,,2800.0,1800.0,FEW,1800.0,OVC,2800.0,,,,
KRDR,10-28-2014,13:38,SPECI,Normal,330,14.0,22.0,,9999.0,,3.0,0.0,29.79,,,,,,,,,,,,,,,,,1900.0,2100.0,BKN,2100.0,OVC,2700.0,,,,
KRDR,10-28-2014,13:33,SPECI,Normal,330,17.0,21.0,,9999.0,,3.0,0.0,29.78,,,,,,,,,,,,,,,,,1900.0,1900.0,BKN,1900.0,OVC,2700.0,,,,
KRDR,10-28-2014,13:18,SPECI,Normal,330,12.0,21.0,,9999.0,,3.0,0.0,29.78,,,,,,,,,,,,,,,,,1800.0,1800.0,SCT,1800.0,OVC,2500.0,,,,
KRDR,10-28-2014,13:03,SPECI,Normal,320,14.0,19.0,,9999.0,,3.0,1.0,29.78,,,,,,,,,,,,,,,,,1700.0,1700.0,BKN,1700.0,OVC,2500.0,,,,
KRDR,10-28-2014,12:58,METAR,Normal,330,11.0,21.0,,9999.0,,2.7,1.1,29.78,1009.6,,,,,,,,,,,,,,,,2000.0,2000.0,BKN,2000.0,OVC,2600.0,,,,
KRDR,10-28-2014,11:58,METAR,Normal,320,13.0,,,9999.0,,3.2,2.3,29.76,1008.9,,,,,,,,,,,,,TRACE,,,1700.0,1700.0,BKN,1700.0,OVC,2600.0,,,,
KRDR,10-28-2014,11:43,SPECI,Normal,330,11.0,17.0,,9999.0,,3.0,2.0,29.76,,,,,,,,,,,,,,,,,1700.0,1700.0,BKN,1700.0,OVC,2700.0,,,,
KRDR,10-28-2014,11:38,SPECI,Normal,330,12.0,17.0,,9999.0,,3.0,2.0,29.76,,,,,,,,,,,,,,,,,1600.0,1700.0,SCT,1700.0,BKN,2200.0,OVC,2700.0,,
KRDR,10-28-2014,11:33,SPECI,Normal,340,11.0,18.0,,9999.0,,3.0,3.0,29.76,,,,,,,,,,,,,,,,,1900.0,1900.0,BKN,1900.0,OVC,2800.0,,,,
KRDR,10-28-2014,11:28,SPECI,Normal,340,12.0,18.0,,9999.0,,3.0,3.0,29.76,,,,,,,,,,,,,,,,,1300.0,1400.0,SCT,1400.0,BKN,2100.0,OVC,2800.0,,
KRDR,10-28-2014,11:13,SPECI,Normal,340,14.0,19.0,,9999.0,,4.0,3.0,29.75,,,,,,,,,,,,,,,,,1400.0,1400.0,BKN,1400.0,OVC,2100.0,,,,
KRDR,10-28-2014,11:08,SPECI,Normal,340,15.0,18.0,,9999.0,,4.0,3.0,29.75,,,,,,,,,,,,,,,,,1500.0,1500.0,BKN,1500.0,OVC,2100.0,,,,
KRDR,10-28-2014,10:58,METAR,Normal,330,11.0,,,9999.0,,3.9,3.6,29.75,1008.5,,,,,,,,,,,,,,,,1400.0,1400.0,OVC,1400.0,,,,,,
KRDR,10-28-2014,10:48,SPECI,Normal,340,13.0,,,9999.0,,4.0,4.0,29.74,,,,,,,,,,,,,,,,,1500.0,1500.0,OVC,1500.0,,,,,,
KRDR,10-28-2014,10:33,SPECI,Normal,340,12.0,,,9999.0,,4.0,4.0,29.74,,,,,,,,,,,,,,,,,1300.0,1300.0,OVC,1300.0,,,,,,
KRDR,10-28-2014,10:13,SPECI,Normal,350,11.0,,,9999.0,,4.0,4.0,29.73,,,,,,,,,,,,,,,,,1100.0,1100.0,BKN,1100.0,OVC,1600.0,,,,
KRDR,10-28-2014,10:11,SPECI,Normal,350,10.0,,,9999.0,,4.0,4.0,29.73,,,,,,,,,,,,,,,,,1200.0,1200.0,OVC,1200.0,,,,,,
KRDR,10-28-2014,10:01,SPECI,Normal,360,10.0,,,9999.0,,4.0,4.0,29.73,,,,,,,,,,,,,,,,,1000.0,1000.0,BKN,1000.0,OVC,1400.0,,,,
KRDR,10-28-2014,09:58,METAR,Normal,360,9.0,,,9999.0,,4.2,4.1,29.73,1007.8,,,,,,,,,,,,,,,,1200.0,1200.0,OVC,1200.0,,,,,,
KRDR,10-28-2014,09:39,SPECI,Normal,350,10.0,,,9999.0,,4.0,4.0,29.72,,,,,,,,,,,,,,,,,1100.0,1200.0,BKN,1200.0,BKN,2000.0,OVC,2800.0,,
KRDR,10-28-2014,09:34,SPECI,Normal,350,10.0,,,9999.0,,4.0,4.0,29.72,,,,,,,,,,,,,,,,,1100.0,1100.0,BKN,1100.0,BKN,2000.0,OVC,2800.0,,
KRDR,10-28-2014,09:29,SPECI,Normal,360,10.0,,,9999.0,,4.0,4.0,29.72,,,,,,,,,,,,,,,,,1200.0,1100.0,SCT,1100.0,BKN,2000.0,OVC,2700.0,,
KRDR,10-28-2014,09:28,SPECI,Normal,360,10.0,,,9999.0,,4.0,4.0,29.72,,,,,,,,,,,,,,,,,900.0,1200.0,BKN,1200.0,BKN,2100.0,OVC,2700.0,,
KRDR,10-28-2014,09:23,SPECI,Normal,360,11.0,,,9999.0,,4.0,4.0,29.72,,,,,,,,,,,,,,,,,900.0,900.0,SCT,900.0,BKN,1300.0,OVC,2100.0,,
KRDR,10-28-2014,08:58,METAR,Normal,350,9.0,,,9999.0,,4.6,4.5,29.71,1007.1,,,,,,,,,,,TRACE,TRACE,,,,700.0,700.0,BKN,700.0,OVC,1300.0,,,,
KRDR,10-28-2014,08:47,SPECI,Normal,360,9.0,,,9999.0,,5.0,4.0,29.71,,,,,,,,,,,,,,,,,700.0,800.0,BKN,800.0,OVC,1400.0,,,,
KRDR,10-28-2014,08:43,SPECI,Normal,360,9.0,,,9999.0,Light Drizzle,5.0,4.0,29.71,,51,,,,,,,,,,,,,,,700.0,700.0,SCT,700.0,OVC,1200.0,,,,
KRDR,10-28-2014,08:28,SPECI,Normal,10,11.0,,,9999.0,Light Rain,5.0,4.0,29.71,,61,,,,,,,,,,,,,,,700.0,700.0,BKN,700.0,BKN,1300.0,OVC,1800.0,,
KRDR,10-28-2014,08:13,SPECI,Normal,10,10.0,16.0,,9999.0,Light Drizzle,5.0,5.0,29.70,,51,,,,,,,,,,,,,,,600.0,600.0,BKN,600.0,OVC,1800.0,,,,
KRDR,10-28-2014,07:58,METAR,Normal,10,9.0,,,9999.0,Light Rain,4.8,4.6,29.70,1006.7,61,,,,,,,,,,TRACE,,,,,700.0,700.0,BKN,700.0,OVC,2000.0,,,,
KRDR,10-28-2014,07:54,SPECI,Normal,10,11.0,,,9999.0,Light Drizzle,5.0,5.0,29.70,,51,,,,,,,,,,,,,,,700.0,700.0,BKN,700.0,OVC,2000.0,,,,
KRDR,10-28-2014,07:49,SPECI,Normal,360,9.0,,,9999.0,Light Drizzle,5.0,5.0,29.69,,51,,,,,,,,,,,,,,,2000.0,700.0,SCT,700.0,OVC,2000.0,,,,
KRDR,10-28-2014,07:39,SPECI,Normal,360,10.0,,,9999.0,Light Drizzle,5.0,4.0,29.69,,51,,,,,,,,,,,,,,,2000.0,800.0,FEW,800.0,OVC,2000.0,,,,
KRDR,10-28-2014,07:35,SPECI,Normal,10,13.0,,,9999.0,Light Drizzle,5.0,4.0,29.69,,51,,,,,,,,,,,,,,,2000.0,2000.0,OVC,2000.0,,,,,,
KRDR,10-28-2014,06:58,METAR,Normal,10,10.0,,,9999.0,,5.9,3.3,29.67,1005.7,,,,,,,,,,,,,,,,2200.0,2200.0,OVC,2200.0,,,,,,
KRDR,10-28-2014,06:08,SPECI,Normal,330,8.0,,,9999.0,,6.0,4.0,29.66,,,,,,,,,,,,,,,,,2100.0,2100.0,BKN,2100.0,OVC,6500.0,,,,
KRDR,10-28-2014,05:58,METAR,Normal,320,7.0,,,9999.0,,6.3,3.7,29.66,1005.4,,,,,,,,,,,,,,,,6500.0,1900.0,FEW,1900.0,SCT,4400.0,OVC,6500.0,,
KRDR,10-28-2014,04:58,METAR,Normal,290,5.0,,,9999.0,,6.2,3.0,29.65,1005.0,,,,,,,,,,,,,,,,6500.0,6500.0,OVC,6500.0,,,,,,
KRDR,10-28-2014,03:58,METAR,Normal,290,6.0,,,9999.0,,6.8,2.2,29.65,1005.0,,,,,,,,,,,,,,,,6500.0,6500.0,OVC,6500.0,,,,,,
KRDR,10-28-2014,02:58,METAR,Normal,300,5.0,,,9999.0,,7.1,2.3,29.64,1004.8,,,,,,,,,,,,,,,,5500.0,5500.0,OVC,5500.0,,,,,,
KRDR,10-28-2014,01:58,METAR,Normal,310,4.0,,,9999.0,,7.5,1.7,29.65,1005.1,,,,,,,,,,,,,,,,5500.0,5500.0,OVC,5500.0,,,,,,
KRDR,10-28-2014,00:58,METAR,Normal,290,5.0,,,9999.0,,8.4,1.5,29.65,1005.1,,,,,,,,,,,,,,,,4600.0,4600.0,OVC,4600.0,,,,,,
KRDR,10-27-2014,23:58,METAR,Normal,290,3.0,,,9999.0,,8.3,2.3,29.66,1005.4,,,,,,,,,,,,,TRACE,,,4900.0,4900.0,BKN,4900.0,OVC,5500.0,,,,
KRDR,10-27-2014,22:58,METAR,Normal,330,5.0,,,9999.0,,9.5,2.3,29.65,1005.0,,,,,,,,,,,,,,,,4500.0,4500.0,OVC,4500.0,,,,,,
KRDR,10-27-2014,21:58,METAR,Normal,340,2.0,,,9999.0,,10.2,4.2,29.65,1005.0,,,,,,,,,,,TRACE,,,,Clear,72000.0,,,,,,,,,
KRDR,10-27-2014,20:58,METAR,Normal,310,7.0,,,9999.0,,10.4,2.6,29.64,1004.6,,,,,,,,,,,,,,,Clear,72000.0,,,,,,,,,
KRDR,10-27-2014,19:58,METAR,Normal,290,10.0,,,9999.0,,11.3,2.3,29.62,1003.9,,,,,,,,,,,,,,,4/8 Partly Cloudy,72000.0,9000.0,SCT,9100.0,,,,,,
KRDR,10-27-2014,18:58,METAR,Normal,330,9.0,,,9999.0,,10.1,2.3,29.62,1004.0,,,,,,,,,,,,,,,,10000.0,10000.0,BKN,10000.0,BKN,12000.0,,,,
KRDR,10-27-2014,17:58,METAR,Normal,320,6.0,,,9999.0,,9.2,2.4,29.64,1004.6,,,,,,,,,,,,,,,Clear,10000.0,,,,,,,,,
KRDR,10-27-2014,16:58,METAR,Normal,320,7.0,,,9999.0,,9.3,3.1,29.64,1004.6,,,,,,,,,,,,,,,Clear,72000.0,,,,,,,,,
KRDR,10-27-2014,15:58,METAR,Normal,310,10.0,,,9999.0,,8.6,4.1,29.63,1004.3,,,,,,,,,,,,,,,Clear,72000.0,,,,,,,,,
KRDR,10-27-2014,14:58,METAR,Normal,330,2.0,,,9999.0,,7.0,6.0,29.60,1003.3,,,,,,,,,,,,,,,Clear,72000.0,,,,,,,,,
KRDR,10-27-2014,13:58,METAR,Normal,300,2.0,,,9999.0,,5.6,4.7,29.60,1003.3,,,,,,,,,,,,,,,Clear,72000.0,,,,,,,,,
KRDR,10-27-2014,12:58,METAR,Normal,330,5.0,,,9999.0,,6.3,4.8,29.57,1002.2,,,,,,,,,,,,,,,Clear,72000.0,,,,,,,,,
KRDR,10-27-2014,11:58,METAR,Normal,300,6.0,,,9999.0,,6.5,4.8,29.57,1002.2,,,,,,,,,,,,,,,Clear,72000.0,,,,,,,,,
KRDR,10-27-2014,10:58,METAR,Normal,300,8.0,,,9999.0,,6.5,4.4,29.55,1001.4,,,,,,,,,,,,,,,Clear,72000.0,,,,,,,,,
KRDR,10-27-2014,09:58,METAR,Normal,300,5.0,,,9999.0,,7.8,4.5,29.54,1001.0,,,,,,,,,,,,,,,Clear,72000.0,,,,,,,,,
KRDR,10-27-2014,08:58,METAR,Normal,290,10.0,,,9999.0,,9.8,4.6,29.51,999.9,,,,,,,,,,,,,,,Clear,72000.0,,,,,,,,,
KRDR,10-27-2014,07:58,METAR,Normal,290,9.0,,,9999.0,,6.6,3.0,29.51,1000.0,,,,,,,,,,,,,,,Clear,72000.0,,,,,,,,,
KRDR,10-27-2014,06:58,METAR,Normal,220,7.0,,,9999.0,,5.9,1.3,29.48,999.0,,,,,,,,,,,,,,,Clear,72000.0,,,,,,,,,
KRDR,10-27-2014,05:58,METAR,Normal,230,6.0,,,9999.0,,7.6,0.4,29.48,999.0,,,,,,,,,,,,,,,Clear,72000.0,,,,,,,,,
KRDR,10-27-2014,04:58,METAR,Normal,230,7.0,,,9999.0,,8.8,-0.2,29.49,999.3,,,,,,,,,,,,,,,Clear,72000.0,,,,,,,,,
KRDR,10-27-2014,03:58,METAR,Normal,210,7.0,,,9999.0,,9.3,-0.4,29.49,999.4,,,,,,,,,,,,,,,Clear,72000.0,,,,,,,,,
KRDR,10-27-2014,02:58,METAR,Normal,200,7.0,,,9999.0,,9.7,-0.5,29.50,999.9,,,,,,,,,,,,,,,Clear,72000.0,,,,,,,,,
KRDR,10-27-2014,01:58,METAR,Normal,200,9.0,,,9999.0,,11.5,-1.0,29.52,1000.7,,,,,,,,,,,,,,,Clear,72000.0,,,,,,,,,
KRDR,10-27-2014,00:58,METAR,Normal,190,10.0,,,9999.0,,12.7,-1.5,29.52,1000.7,,,,,,,,,,,,,,,Clear,72000.0,,,,,,,,,
KRDR,10-26-2014,23:58,METAR,Normal,180,10.0,,,9999.0,,13.8,-2.0,29.52,1000.7,,,,,,,,,,,,,,,Clear,72000.0,,,,,,,,,
KRDR,10-26-2014,22:58,METAR,Normal,180,13.0,19.0,,9999.0,,15.7,-2.7,29.53,1000.9,,,,,,,,,,,,,,,Clear,72000.0,,,,,,,,,
KRDR,10-26-2014,21:58,METAR,Normal,180,17.0,23.0,,9999.0,,16.6,-3.8,29.53,1000.9,,,,,,,,,,,,,,,,,4700.0,FEW,4700.0,,,,,,
KRDR,10-26-2014,20:58,METAR,Normal,180,18.0,23.0,150/26KTS,9999.0,,16.4,-4.9,29.55,1001.6,,,,,,,,,,,,,,,,4400.0,4400.0,OVC,4400.0,,,,,,
KRDR,10-26-2014,19:58,METAR,Normal,180,15.0,24.0,,9999.0,,16.7,-4.9,29.58,1002.6,,,,,,,,,,,,,,,,4500.0,4500.0,OVC,4500.0,,,,,,
KRDR,10-26-2014,18:58,METAR,Normal,160,21.0,28.0,140/28KTS,9999.0,,17.0,-4.6,29.61,1003.6,,,,,,,,,,,,,,,,,5500.0,SCT,5500.0,,,,,,
KRDR,10-26-2014,17:58,METAR,Normal,160,17.0,25.0,,9999.0,,14.9,-3.4,29.66,1005.4,,,,,,,,,,,,,,,Clear,72000.0,,,,,,,,,
KRDR,10-26-2014,16:58,METAR,Normal,170,19.0,24.0,,9999.0,,13.7,-3.7,29.73,1007.8,,,,,,,,,,,,,,,Clear,72000.0,,,,,,,,,
KRDR,10-26-2014,15:58,METAR,Normal,170,14.0,21.0,,9999.0,,10.9,-2.8,29.76,1008.9,,,,,,,,,,,,,,,Clear,72000.0,,,,,,,,,
KRDR,10-26-2014,14:58,METAR,Normal,160,8.0,,,9999.0,,5.1,-1.9,29.79,1010.1,,,,,,,,,,,,,,,Clear,72000.0,,,,,,,,,
KRDR,10-26-2014,13:58,METAR,Normal,170,5.0,,,9999.0,,1.3,-3.0,29.81,1010.8,,,,,,,,,,,,,,,Clear,72000.0,,,,,,,,,
KRDR,10-26-2014,12:58,METAR,Normal,160,7.0,,,9999.0,,0.0,-3.5,29.83,1011.5,,,,,,,,,,,,,,,Clear,72000.0,,,,,,,,,
KRDR,10-26-2014,11:58,METAR,Normal,150,6.0,,,9999.0,,-0.7,-3.5,29.86,1012.5,,,,,,,,,,,,,,,Clear,72000.0,,,,,,,,,
KRDR,10-26-2014,10:58,METAR,Normal,140,5.0,,,9999.0,,0.9,-2.7,29.89,1013.3,,,,,,,,,,,,,,,Clear,72000.0,,,,,,,,,
KRDR,10-26-2014,09:58,METAR,Normal,160,6.0,,,9999.0,,0.1,-3.0,29.91,1013.9,,,,,,,,,,,,,,,Clear,72000.0,,,,,,,,,
KRDR,10-26-2014,08:58,METAR,Normal,170,3.0,,,9999.0,,-1.1,-3.9,29.93,1014.6,,,,,,,,,,,,,,,Clear,72000.0,,,,,,,,,
KRDR,10-26-2014,07:58,METAR,Normal,180,1.0,,,9999.0,,-1.1,-3.6,29.95,1015.3,,,,,,,,,,,,,,,Clear,72000.0,,,,,,,,,
KRDR,10-26-2014,06:58,METAR,Calm,,0.0,,,9999.0,,0.6,-4.0,29.97,1015.9,,,,,,,,,,,,,,,Clear,72000.0,,,,,,,,,
KRDR,10-26-2014,05:58,METAR,Normal,240,3.0,,,9999.0,,0.5,-3.9,29.98,1016.3,,,,,,,,,,,,,,,Clear,72000.0,,,,,,,,,
KRDR,10-26-2014,04:58,METAR,Normal,240,4.0,,,9999.0,,1.7,-4.1,29.98,1016.3,,,,,,,,,,,,,,,Clear,72000.0,,,,,,,,,
KRDR,10-26-2014,03:58,METAR,Normal,240,4.0,,,9999.0,,2.7,-4.6,29.99,1016.6,,,,,,,,,,,,,,,Clear,72000.0,,,,,,,,,
KRDR,10-26-2014,02:58,METAR,Normal,250,4.0,,,9999.0,,2.8,-3.6,30.00,1017.1,,,,,,,,,,,,,,,Clear,72000.0,,,,,,,,,
KRDR,10-26-2014,01:58,METAR,Normal,290,5.0,,,9999.0,,4.1,-3.2,30.01,1017.5,,,,,,,,,,,,,,,Clear,72000.0,,,,,,,,,
KRDR,10-26-2014,00:58,METAR,Normal,270,4.0,,,9999.0,,5.3,-2.9,30.02,1017.9,,,,,,,,,,,,,,,Clear,72000.0,,,,,,,,,
KRDR,10-25-2014,23:58,METAR,Normal,270,7.0,,,9999.0,,7.2,-3.2,30.03,1018.1,,,,,,,,,,,,,,,Clear,72000.0,,,,,,,,,
KRDR,10-25-2014,22:58,METAR,Normal,290,5.0,,,9999.0,,13.1,-2.9,30.04,1018.2,,,,,,,,,,,,,,,Clear,72000.0,,,,,,,,,
KRDR,10-25-2014,21:58,METAR,Normal,310,9.0,,,9999.0,,15.4,-4.3,30.05,1018.5,,,,,,,,,,,,,,,Clear,72000.0,,,,,,,,,
KRDR,10-25-2014,20:58,METAR,Normal,300,9.0,15.0,,9999.0,,16.1,-2.7,30.06,1018.8,,,,,,,,,,,,,,,Clear,72000.0,,,,,,,,,
KRDR,10-25-2014,19:58,METAR,Normal,330,6.0,19.0,,9999.0,,15.8,-4.0,30.07,1019.1,,,,,,,,,,,,,,,Clear,72000.0,,,,,,,,,
KRDR,10-25-2014,18:58,METAR,Normal,340,13.0,22.0,,9999.0,,15.2,-5.1,30.07,1019.1,,,,,,,,,,,,,,,Clear,72000.0,,,,,,,,,
KRDR,10-25-2014,17:58,METAR,Normal,320,13.0,17.0,,9999.0,,14.7,-2.8,30.08,1019.4,,,,,,,,,,,,,,,Clear,72000.0,,,,,,,,,
KRDR,10-25-2014,16:58,METAR,Normal,340,13.0,,,9999.0,,13.2,-1.3,30.09,1019.8,,,,,,,,,,,,,,,Clear,72000.0,,,,,,,,,
KRDR,10-25-2014,15:58,METAR,Normal,320,13.0,,,9999.0,,11.8,-0.4,30.09,1019.8,,,,,,,,,,,,,,,Clear,72000.0,,,,,,,,,
KRDR,10-25-2014,14:58,METAR,Normal,320,9.0,,,9999.0,,9.2,0.4,30.07,1019.2,,,,,,,,,,,,,,,Clear,72000.0,,,,,,,,,
KRDR,10-25-2014,13:58,METAR,Normal,300,8.0,,,9999.0,,6.3,0.1,30.06,1018.9,,,,,,,,,,,,,,,Clear,72000.0,,,,,,,,,
KRDR,10-25-2014,12:58,METAR,Normal,310,7.0,,,9999.0,,3.3,-0.1,30.05,1018.6,,,,,,,,,,,,,,,Clear,72000.0,,,,,,,,,
KRDR,10-25-2014,11:58,METAR,Normal,290,7.0,,,9999.0,,5.3,0.8,30.04,1018.1,,,,,,,,,,,,,,,Clear,72000.0,,,,,,,,,
KRDR,10-25-2014,10:58,METAR,Normal,310,6.0,,,9999.0,,5.7,0.9,30.01,1017.0,,,,,,,,,,,,,,,Clear,72000.0,,,,,,,,,
KRDR,10-25-2014,09:58,METAR,Normal,300,8.0,,,9999.0,,7.4,1.1,30.00,1016.6,,,,,,,,,,,,,,,Clear,72000.0,,,,,,,,,
KRDR,10-25-2014,08:58,METAR,Normal,310,8.0,,,9999.0,,8.0,1.1,29.98,1015.8,,,,,,,,,,,,,,,Clear,72000.0,,,,,,,,,
KRDR,10-25-2014,07:58,METAR,Normal,300,7.0,,,9999.0,,8.2,1.3,29.97,1015.5,,,,,,,,,,,,,,,Clear,72000.0,,,,,,,,,
KRDR,10-25-2014,06:58,METAR,Normal,320,11.0,,,9999.0,,9.5,1.5,29.96,1015.1,,,,,,,,,,,,,,,Clear,72000.0,,,,,,,,,
KRDR,10-25-2014,05:58,METAR,Normal,310,9.0,,,9999.0,,9.6,1.6,29.93,1014.1,,,,,,,,,,,,,,,Clear,72000.0,,,,,,,,,
KRDR,10-25-2014,04:58,METAR,Normal,300,11.0,,,9999.0,,10.8,1.9,29.91,1013.4,,,,,,,,,,,,,,,Clear,72000.0,,,,,,,,,
KRDR,10-25-2014,03:58,METAR,Normal,300,9.0,,,9999.0,,11.3,1.8,29.91,1013.5,,,,,,,,,,,,,,,Clear,72000.0,,,,,,,,,
KRDR,10-25-2014,02:58,METAR,Normal,310,9.0,,,9999.0,,12.2,1.6,29.88,1012.5,,,,,,,,,,,,,,,Clear,72000.0,,,,,,,,,
KRDR,10-25-2014,01:58,METAR,Normal,310,9.0,,,9999.0,,12.5,1.2,29.86,1011.9,,,,,,,,,,,,,,,Clear,72000.0,,,,,,,,,
KRDR,10-25-2014,00:58,METAR,Normal,270,7.0,,,9999.0,,13.6,0.7,29.84,1011.4,,,,,,,,,,,,,,,Clear,72000.0,,,,,,,,,
KRDR,10-24-2014,23:58,METAR,Normal,270,9.0,,,9999.0,,16.4,-0.1,29.82,1010.6,,,,,,,,,,,,,,,Clear,72000.0,,,,,,,,,
KRDR,10-24-2014,22:58,METAR,Normal,280,8.0,,/  KTS,9999.0,,18.7,-0.7,29.80,1009.8,,,,,,,,,,,,,,,Clear,72000.0,,,,,,,,,
KRDR,10-24-2014,21:58,METAR,Normal,280,18.0,32.0,,9999.0,,20.6,0.2,29.78,1009.0,,,,,,,,,,,,,,,Clear,72000.0,,,,,,,,,
KRDR,10-24-2014,20:58,METAR,Normal,280,15.0,26.0,,9999.0,,22.0,3.9,29.75,1007.9,,,,,,,,,,,,,,,Clear,72000.0,,,,,,,,,
KRDR,10-24-2014,19:58,METAR,Normal,270,19.0,24.0,,9999.0,,22.4,4.4,29.73,1007.2,,,,,,,,,,,,,,,Clear,72000.0,,,,,,,,,
KRDR,10-24-2014,18:58,METAR,Normal,280,13.0,23.0,,9999.0,,22.4,5.6,29.74,1007.5,,,,,,,,,,,,,,,Clear,72000.0,,,,,,,,,
KRDR,10-24-2014,17:58,METAR,Normal,270,14.0,22.0,,9999.0,,21.0,5.0,29.76,1008.3,,,,,,,,,,,,,,,4/8 Partly Cloudy,72000.0,12000.0,SCT,12000.0,,,,,,
KRDR,10-24-2014,16:58,METAR,Normal,280,11.0,,,9999.0,,20.9,5.6,29.75,1007.9,,,,,,,,,,,,,,,Clear,72000.0,,,,,,,,,
KRDR,10-24-2014,15:58,METAR,Normal,270,9.0,,,9999.0,,17.6,5.0,29.76,1008.4,,,,,,,,,,,,,,,Clear,72000.0,,,,,,,,,
KRDR,10-24-2014,14:58,METAR,Normal,270,8.0,,,9999.0,,15.0,4.0,29.77,1008.8,,,,,,,,,,,,,,,Clear,72000.0,,,,,,,,,
KRDR,10-24-2014,13:58,METAR,Normal,270,7.0,,,9999.0,,10.1,3.9,29.76,1008.7,,,,,,,,,,,,,,,Clear,72000.0,,,,,,,,,
KRDR,10-24-2014,12:58,METAR,Normal,240,4.0,,,9999.0,,5.7,2.3,29.75,1008.4,,,,,,,,,,,,,,,Clear,72000.0,,,,,,,,,
KRDR,10-24-2014,11:58,METAR,Normal,230,5.0,,,9999.0,,5.8,2.5,29.75,1008.4,,,,,,,,,,,,,,,Clear,72000.0,,,,,,,,,
KRDR,10-24-2014,10:58,METAR,Normal,260,5.0,,,9999.0,,8.2,2.9,29.75,1008.2,,,,,,,,,,,,,,,Clear,72000.0,,,,,,,,,
KRDR,10-24-2014,09:58,METAR,Normal,240,8.0,,,9999.0,,8.1,2.8,29.74,1007.7,,,,,,,,,,,,,,,Clear,72000.0,,,,,,,,,
KRDR,10-24-2014,08:58,METAR,Normal,260,6.0,,,9999.0,,11.5,3.0,29.75,1007.9,,,,,,,,,,,,,,,Clear,72000.0,,,,,,,,,
KRDR,10-24-2014,07:58,METAR,Normal,240,7.0,,,9999.0,,11.3,3.2,29.75,1007.9,,,,,,,,,,,,,,,Clear,72000.0,,,,,,,,,
KRDR,10-24-2014,06:58,METAR,Normal,240,8.0,,,9999.0,,12.1,3.0,29.75,1007.9,,,,,,,,,,,,,,,Clear,72000.0,,,,,,,,,
KRDR,10-24-2014,05:58,METAR,Normal,210,9.0,,,9999.0,,10.7,2.6,29.75,1007.9,,,,,,,,,,,,,,,Clear,72000.0,,,,,,,,,
KRDR,10-24-2014,04:58,METAR,Normal,190,7.0,,,9999.0,,10.9,3.5,29.75,1008.0,,,,,,,,,,,,,,,Clear,72000.0,,,,,,,,,
KRDR,10-24-2014,03:58,METAR,Normal,190,5.0,,,9999.0,,9.2,3.7,29.77,1008.8,,,,,,,,,,,,,,,Clear,72000.0,,,,,,,,,
KRDR,10-24-2014,02:58,METAR,Normal,170,8.0,,,9999.0,,9.5,4.1,29.77,1008.9,,,,,,,,,,,,,,,Clear,72000.0,,,,,,,,,
KRDR,10-24-2014,01:58,METAR,Normal,200,6.0,,,9999.0,,8.0,4.0,29.78,1009.4,,,,,,,,,,,,,,,Clear,72000.0,,,,,,,,,
KRDR,10-24-2014,00:58,METAR,Normal,190,7.0,,,9999.0,,10.0,3.8,29.78,1009.4,,,,,,,,,,,,,,,Clear,72000.0,,,,,,,,,
KRDR,10-23-2014,23:58,METAR,Normal,200,5.0,,,9999.0,,10.8,3.7,29.79,1009.8,,,,,,,,,,,,,,,Clear,72000.0,,,,,,,,,
KRDR,10-23-2014,22:58,METAR,Normal,220,5.0,,,9999.0,,14.9,3.2,29.78,1009.3,,,,,,,,,,,,,,,Clear,72000.0,,,,,,,,,
KRDR,10-23-2014,21:58,METAR,Normal,240,9.0,,,9999.0,,20.5,3.0,29.79,1009.4,,,,,,,,,,,,,,,Clear,72000.0,,,,,,,,,
KRDR,10-23-2014,20:58,METAR,Normal,240,9.0,,,9999.0,,21.8,3.5,29.80,1009.6,,,,,,,,,,,,,,,Clear,72000.0,,,,,,,,,
KRDR,10-23-2014,19:58,METAR,Normal,240,9.0,,,9999.0,,21.3,2.8,29.82,1010.3,,,,,,,,,,,,,,,Clear,72000.0,,,,,,,,,
KRDR,10-23-2014,18:58,METAR,Normal,220,11.0,,,9999.0,,20.6,4.0,29.82,1010.4,,,,,,,,,,,,,,,Clear,72000.0,,,,,,,,,
KRDR,10-23-2014,17:58,METAR,Normal,230,9.0,,,9999.0,,19.9,4.8,29.84,1011.1,,,,,,,,,,,,,,,Clear,72000.0,,,,,,,,,
KRDR,10-23-2014,16:58,METAR,Normal,250,11.0,,,9999.0,,17.9,5.2,29.86,1011.8,,,,,,,,,,,,,,,Clear,72000.0,,,,,,,,,
KRDR,10-23-2014,15:58,METAR,Normal,240,10.0,,,9999.0,,15.5,6.0,29.86,1011.9,,,,,,,,,,,,,,,Clear,72000.0,,,,,,,,,
KRDR,10-23-2014,14:58,METAR,Normal,240,8.0,,,9999.0,,11.9,6.0,29.86,1011.9,,,,,,,,,,,,,,,Clear,72000.0,,,,,,,,,
KRDR,10-23-2014,13:58,METAR,Normal,240,9.0,,,9999.0,,8.7,5.7,29.86,1012.1,,,,,,,,,,,,,,,Clear,72000.0,,,,,,,,,
KRDR,10-23-2014,12:58,METAR,Normal,270,8.0,,,9999.0,,7.4,5.8,29.85,1011.8,,,,,,,,,,,,,,,Clear,72000.0,,,,,,,,,
KRDR,10-23-2014,11:58,METAR,Normal,250,6.0,,,9999.0,,6.2,6.1,29.84,1011.4,,,,,,,,,,,,,,.02 IN,Clear,72000.0,,,,,,,,,
KRDR,10-23-2014,10:58,METAR,Normal,250,6.0,,,9999.0,,7.2,7.1,29.84,1011.4,,,,,,,,,,,,,,,Clear,72000.0,,,,,,,,,
KRDR,10-23-2014,09:58,METAR,Normal,220,7.0,,,9999.0,,9.6,9.3,29.83,1010.9,,,,,,,,,,,,,,,4/8 Partly Cloudy,72000.0,8000.0,SCT,8000.0,,,,,,
KRDR,10-23-2014,08:58,METAR,Normal,220,8.0,,,9999.0,,10.3,9.8,29.83,1010.9,,,,,,,,,,,,,,,,7500.0,7500.0,OVC,7500.0,,,,,,
KRDR,10-23-2014,07:58,METAR,Normal,230,7.0,,,9999.0,,9.7,9.5,29.84,1011.1,,,,,,,,,,,,,,,,7000.0,7000.0,OVC,7000.0,,,,,,
KRDR,10-23-2014,06:58,METAR,Normal,230,7.0,,,9999.0,,8.8,8.6,29.84,1011.1,,,,,,,,,,,,,,,,8000.0,8000.0,OVC,8000.0,,,,,,
KRDR,10-23-2014,05:58,METAR,Normal,230,9.0,,,9999.0,,7.2,7.2,29.85,1011.5,,,,,,,,,,,,,,,Clear,72000.0,,,,,,,,,
KRDR,10-23-2014,04:58,METAR,Normal,220,7.0,,,9999.0,,8.8,8.7,29.85,1011.5,,,,,,,,,,,,,,,Clear,72000.0,,,,,,,,,
KRDR,10-23-2014,03:58,METAR,Normal,210,9.0,,,9999.0,,9.5,9.4,29.85,1011.6,,,,,,,,,,,,,,,Clear,72000.0,,,,,,,,,
KRDR,10-23-2014,02:58,METAR,Normal,210,8.0,,,9999.0,,10.9,10.7,29.85,1011.6,,,,,,,,,,,,,,,Clear,72000.0,,,,,,,,,
KRDR,10-23-2014,01:58,METAR,Normal,200,7.0,,,9999.0,,10.9,10.8,29.84,1011.3,,,,,,,,,,,,,,,2/8 Mostly Clear,72000.0,12000.0,FEW,12000.0,,,,,,
KRDR,10-23-2014,00:58,METAR,Normal,220,5.0,,,9999.0,,11.5,11.4,29.84,1011.3,,,,,,,,,,,,,,,Clear,72000.0,,,,,,,,,
KRDR,10-22-2014,23:58,METAR,Normal,210,7.0,,,9999.0,,12.5,12.3,29.84,1011.2,,,,,,,,,,,.01 IN,,.02 IN,,,5500.0,5500.0,BKN,5500.0,BKN,12000.0,,,,
KRDR,10-22-2014,23:27,SPECI,Normal,230,9.0,,,9999.0,,13.0,13.0,29.83,,,,,,,,,,,,,,,,,8500.0,3400.0,FEW,3400.0,SCT,5500.0,BKN,8600.0,,
KRDR,10-22-2014,23:01,SPECI,Normal,220,9.0,,,9999.0,Light Rain,13.0,13.0,29.82,,61,,,,,,,,,,,,,,,6000.0,3300.0,SCT,3300.0,BKN,6000.0,OVC,8600.0,,
KRDR,10-22-2014,22:58,METAR,Normal,220,9.0,,,9999.0,,13.3,13.1,29.82,1010.5,,,,,,,,,,,.01 IN,,,,,6000.0,3300.0,SCT,3300.0,BKN,6000.0,OVC,8600.0,,
KRDR,10-22-2014,22:49,SPECI,Normal,230,8.0,,,9999.0,,13.0,13.0,29.82,,,,,,,,,,,,,,,,,7500.0,3200.0,FEW,3200.0,BKN,7500.0,OVC,9100.0,,
KRDR,10-22-2014,22:36,SPECI,Normal,220,7.0,,,9999.0,Light Rain,14.0,13.0,29.81,,61,,,,,,,,,,,,,,,8500.0,7000.0,SCT,7000.0,OVC,8600.0,,,,
KRDR,10-22-2014,21:58,METAR,Normal,210,7.0,,,9999.0,,14.0,13.8,29.81,1010.1,,,,,,,,,,,TRACE,,,,,6000.0,6000.0,OVC,6000.0,,,,,,
KRDR,10-22-2014,21:47,SPECI,Normal,200,7.0,,,9999.0,,14.0,14.0,29.81,,,,,,,,,,,,,,,,,6500.0,6500.0,OVC,6500.0,,,,,,
KRDR,10-22-2014,21:08,SPECI,Normal,210,9.0,,,9999.0,Light Rain,15.0,12.0,29.81,,61,,,,,,,,,,,,,,,8000.0,8000.0,BKN,8000.0,BKN,10000.0,,,,
KRDR,10-22-2014,20:58,METAR,Normal,210,9.0,,,9999.0,,15.6,11.9,29.81,1010.0,,,,,,,,,,,TRACE,TRACE,,,4/8 Partly Cloudy,72000.0,7500.0,FEW,7500.0,SCT,9600.0,,,,
KRDR,10-22-2014,20:38,SPECI,Normal,220,11.0,,,9999.0,,16.0,11.0,29.80,,,,,,,,,,,,,,,,,9500.0,4400.0,FEW,4400.0,SCT,5500.0,BKN,9600.0,,
KRDR,10-22-2014,20:06,SPECI,Normal,190,10.0,,,9999.0,Light Drizzle,17.0,9.0,29.79,,51,,,,,,,,,,,,,,,9000.0,6500.0,FEW,6500.0,BKN,9100.0,,,,
KRDR,10-22-2014,19:58,METAR,Normal,190,11.0,,,9999.0,,17.4,9.1,29.78,1009.0,,,,,,,,,,,,,,,,9000.0,6000.0,FEW,6000.0,BKN,9100.0,,,,
KRDR,10-22-2014,18:58,METAR,Normal,170,17.0,21.0,,9999.0,,18.4,9.3,29.79,1009.3,,,,,,,,,,,,,,,,9500.0,9500.0,BKN,9600.0,,,,,,
KRDR,10-22-2014,17:58,METAR,Normal,200,19.0,26.0,,9999.0,,18.3,8.8,29.80,1009.6,,,,,,,,,,,,,,,4/8 Partly Cloudy,72000.0,11000.0,SCT,11000.0,,,,,,
KRDR,10-22-2014,16:58,METAR,Normal,170,15.0,,,9999.0,,15.8,8.2,29.80,1009.7,,,,,,,,,,,,,,,,12000.0,12000.0,OVC,12000.0,,,,,,
KRDR,10-22-2014,15:58,METAR,Normal,180,18.0,24.0,180/27KTS,9999.0,,13.9,7.3,29.81,1010.1,,,,,,,,,,,,,,,,12000.0,12000.0,BKN,12000.0,,,,,,
KRDR,10-22-2014,14:58,METAR,Normal,180,18.0,25.0,,9999.0,,13.1,6.8,29.81,1010.2,,,,,,,,,,,,,,,Clear,72000.0,,,,,,,,,
KRDR,10-22-2014,13:58,METAR,Normal,160,16.0,25.0,,9999.0,,12.0,6.4,29.79,1009.5,,,,,,,,,,,,,,,Clear,72000.0,,,,,,,,,
KRDR,10-22-2014,12:58,METAR,Normal,190,16.0,26.0,,9999.0,,12.1,6.0,29.79,1009.5,,,,,,,,,,,,,,,Clear,72000.0,,,,,,,,,
KRDR,10-22-2014,11:58,METAR,Normal,190,21.0,29.0,,9999.0,,12.7,5.9,29.79,1009.4,,,,,,,,,,,,,,,Clear,72000.0,,,,,,,,,
KRDR,10-22-2014,10:58,METAR,Normal,190,18.0,27.0,170/30KTS,9999.0,,12.9,5.8,29.79,1009.3,,,,,,,,,,,,,,,4/8 Partly Cloudy,72000.0,12000.0,SCT,12000.0,,,,,,
KRDR,10-22-2014,09:58,METAR,Normal,160,17.0,24.0,,9999.0,,12.8,5.7,29.79,1009.3,,,,,,,,,,,,,,,Clear,72000.0,,,,,,,,,
KRDR,10-22-2014,08:58,METAR,Normal,160,20.0,27.0,,9999.0,,12.6,5.8,29.79,1009.3,,,,,,,,,,,,,,,Clear,72000.0,,,,,,,,,
KRDR,10-22-2014,07:58,METAR,Normal,160,21.0,27.0,,9999.0,,12.5,5.7,29.81,1010.0,,,,,,,,,,,,,,,Clear,72000.0,,,,,,,,,
KRDR,10-22-2014,06:58,METAR,Normal,160,19.0,26.0,,9999.0,,12.5,5.7,29.82,1010.4,,,,,,,,,,,,,,,Clear,72000.0,,,,,,,,,
KRDR,10-22-2014,05:58,METAR,Normal,160,17.0,24.0,,9999.0,,12.5,5.6,29.84,1011.1,,,,,,,,,,,,,,,Clear,72000.0,,,,,,,,,
KRDR,10-22-2014,04:58,METAR,Normal,160,20.0,24.0,,9999.0,,12.8,5.6,29.84,1011.2,,,,,,,,,,,,,,,Clear,72000.0,,,,,,,,,
KRDR,10-22-2014,03:58,METAR,Normal,160,17.0,23.0,,9999.0,,12.9,5.6,29.85,1011.6,,,,,,,,,,,,,,,Clear,72000.0,,,,,,,,,
KRDR,10-22-2014,02:58,METAR,Normal,160,16.0,26.0,,9999.0,,13.4,5.6,29.85,1011.7,,,,,,,,,,,,,,,Clear,72000.0,,,,,,,,,
KRDR,10-22-2014,01:58,METAR,Normal,160,17.0,26.0,,9999.0,,13.6,5.8,29.84,1011.4,,,,,,,,,,,,,,,Clear,72000.0,,,,,,,,,
KRDR,10-22-2014,00:58,METAR,Normal,150,18.0,24.0,,9999.0,,14.4,6.0,29.84,1011.4,,,,,,,,,,,,,,,Clear,72000.0,,,,,,,,,
KRDR,10-21-2014,23:58,METAR,Normal,150,16.0,23.0,,9999.0,,15.8,6.1,29.83,1011.0,,,,,,,,,,,,,,,Clear,72000.0,,,,,,,,,
KRDR,10-21-2014,22:58,METAR,Normal,150,20.0,29.0,,9999.0,,17.7,5.8,29.83,1011.0,,,,,,,,,,,,,,,Clear,72000.0,,,,,,,,,
KRDR,10-21-2014,21:58,METAR,Normal,150,21.0,27.0,,9999.0,,18.9,5.6,29.84,1011.3,,,,,,,,,,,,,,,Clear,72000.0,,,,,,,,,
KRDR,10-21-2014,20:58,METAR,Normal,150,24.0,31.0,,9999.0,,19.4,5.6,29.85,1011.6,,,,,,,,,,,,,,,Clear,72000.0,,,,,,,,,
KRDR,10-21-2014,19:58,METAR,Normal,160,23.0,28.0,,9999.0,,19.1,5.8,29.86,1012.0,,,,,,,,,,,,,,,Clear,72000.0,,,,,,,,,
KRDR,10-21-2014,18:58,METAR,Normal,150,20.0,27.0,,9999.0,,17.6,5.8,29.89,1013.0,,,,,,,,,,,,,,,Clear,72000.0,,,,,,,,,
KRDR,10-21-2014,17:58,METAR,Normal,150,20.0,25.0,,9999.0,,15.8,6.1,29.93,1014.4,,,,,,,,,,,,,,,Clear,72000.0,,,,,,,,,
KRDR,10-21-2014,16:58,METAR,Normal,150,16.0,21.0,,9999.0,,12.8,6.3,29.95,1015.2,,,,,,,,,,,,,,,Clear,72000.0,,,,,,,,,
KRDR,10-21-2014,15:58,METAR,Normal,160,14.0,20.0,,9999.0,,9.6,6.2,29.98,1016.3,,,,,,,,,,,,,,,Clear,72000.0,,,,,,,,,
KRDR,10-21-2014,14:58,METAR,Normal,160,12.0,20.0,,9999.0,,6.9,6.1,29.99,1016.7,,,,,,,,,,,,,,,Clear,72000.0,,,,,,,,,
KRDR,10-21-2014,13:58,METAR,Normal,170,10.0,,,9999.0,,4.3,4.2,30.00,1017.1,,,,,,,,,,,,,,,Clear,72000.0,,,,,,,,,
KRDR,10-21-2014,12:58,METAR,Normal,170,7.0,,,9999.0,,2.7,2.5,30.02,1017.8,,,,,,,,,,,,,,,Clear,72000.0,,,,,,,,,
KRDR,10-21-2014,11:58,METAR,Normal,170,7.0,,,9999.0,,2.6,2.5,30.02,1017.7,,,,,,,,,,,,,,,Clear,72000.0,,,,,,,,,
KRDR,10-21-2014,10:58,METAR,Normal,180,7.0,,,9999.0,,2.6,2.5,30.03,1017.9,,,,,,,,,,,,,,,Clear,72000.0,,,,,,,,,
KRDR,10-21-2014,09:58,METAR,Normal,170,7.0,,,9999.0,,2.7,2.5,30.03,1017.9,,,,,,,,,,,,,,,Clear,72000.0,,,,,,,,,
KRDR,10-21-2014,08:58,METAR,Normal,170,7.0,,,9999.0,,3.5,3.4,30.04,1018.2,,,,,,,,,,,,,,,Clear,72000.0,,,,,,,,,
KRDR,10-21-2014,07:58,METAR,Normal,170,6.0,,,9999.0,,2.6,2.5,30.05,1018.6,,,,,,,,,,,,,,,Clear,72000.0,,,,,,,,,
KRDR,10-21-2014,06:58,METAR,Normal,180,5.0,,,9999.0,,3.9,3.5,30.05,1018.6,,,,,,,,,,,,,,,Clear,72000.0,,,,,,,,,
KRDR,10-21-2014,05:58,METAR,Normal,150,9.0,,,9999.0,,4.9,3.7,30.05,1018.6,,,,,,,,,,,,,,,Clear,72000.0,,,,,,,,,
KRDR,10-21-2014,04:58,METAR,Normal,160,7.0,,,9999.0,,4.9,3.9,30.05,1018.7,,,,,,,,,,,,,,,Clear,72000.0,,,,,,,,,
KRDR,10-21-2014,03:58,METAR,Normal,160,5.0,,,9999.0,,4.9,3.9,30.04,,,,,,,,,,,,,,,,Clear,72000.0,,,,,,,,,
KRDR,10-21-2014,02:58,METAR,Normal,150,5.0,,,9999.0,,6.7,4.6,30.04,1018.4,,,,,,,,,,,,,,,Clear,72000.0,,,,,,,,,
KRDR,10-21-2014,01:58,METAR,Normal,140,5.0,,,9999.0,,7.7,5.1,30.03,1018.2,,,,,,,,,,,,,,,Clear,72000.0,,,,,,,,,
KRDR,10-21-2014,00:58,METAR,Normal,140,5.0,,,9999.0,,9.1,5.5,30.03,1018.2,,,,,,,,,,,,,,,Clear,72000.0,,,,,,,,,
KRDR,10-20-2014,23:58,METAR,Normal,120,5.0,,,9999.0,,10.5,6.0,30.03,1018.1,,,,,,,,,,,,,,,Clear,72000.0,,,,,,,,,
KRDR,10-20-2014,22:58,METAR,Normal,120,5.0,,,9999.0,,13.7,6.7,30.03,1018.0,,,,,,,,,,,,,,,Clear,72000.0,,,,,,,,,
KRDR,10-20-2014,21:58,METAR,Normal,120,4.0,,,9999.0,,15.1,6.5,30.03,1017.9,,,,,,,,,,,,,,,Clear,72000.0,,,,,,,,,
KRDR,10-20-2014,20:58,METAR,Variable,,1.0,,,9999.0,,15.4,6.3,30.03,1017.9,,,,,,,,,,,,,,,Clear,72000.0,,,,,,,,,
KRDR,10-20-2014,19:58,METAR,Variable,,1.0,,,9999.0,,14.4,6.3,30.04,1018.2,,,,,,,,,,,,,,,Clear,72000.0,,,,,,,,,
KRDR,10-20-2014,18:58,METAR,Normal,50,4.0,,,9999.0,,13.4,6.4,30.06,1018.9,,,,,,,,,,,,,,,Clear,72000.0,,,,,,,,,
KRDR,10-20-2014,17:58,METAR,Normal,20,3.0,,,9999.0,,12.2,6.8,30.07,1019.3,,,,,,,,,,,,,,,Clear,72000.0,,,,,,,,,
KRDR,10-20-2014,16:58,METAR,Normal,70,4.0,,,9999.0,,10.8,6.7,30.08,1019.6,,,,,,,,,,,,,,,Clear,72000.0,,,,,,,,,
KRDR,10-20-2014,15:58,METAR,Normal,40,4.0,,,9999.0,,9.0,6.7,30.09,1020.0,,,,,,,,,,,,,,,Clear,72000.0,,,,,,,,,
KRDR,10-20-2014,14:58,METAR,Normal,20,4.0,,,9999.0,,6.7,6.4,30.08,1019.6,,,,,,,,,,,,,,,Clear,72000.0,,,,,,,,,
KRDR,10-20-2014,13:58,METAR,Normal,330,3.0,,,9999.0,,2.7,2.6,30.07,1019.4,,,,,,,,,,,,,,,Clear,72000.0,,,,,,,,,
KRDR,10-20-2014,12:58,METAR,Normal,320,2.0,,,9999.0,,1.5,1.3,30.06,1019.2,,,,,,,,,,,,,,,Clear,72000.0,,,,,,,,,
KRDR,10-20-2014,11:58,METAR,Normal,320,4.0,,,9999.0,,1.6,1.5,30.04,1018.3,,,,,,,,,,,,,,,Clear,72000.0,,,,,,,,,
KRDR,10-20-2014,10:58,METAR,Normal,330,4.0,,,9999.0,,2.3,2.2,30.03,1017.9,,,,,,,,,,,,,,,Clear,72000.0,,,,,,,,,
KRDR,10-20-2014,09:58,METAR,Normal,350,5.0,,,9999.0,,4.4,3.6,30.02,1017.4,,,,,,,,,,,,,,,Clear,72000.0,,,,,,,,,
KRDR,10-20-2014,08:58,METAR,Normal,340,5.0,,,9999.0,,5.4,3.6,30.00,1016.6,,,,,,,,,,,,,,,Clear,72000.0,,,,,,,,,
KRDR,10-20-2014,07:58,METAR,Normal,330,6.0,,,9999.0,,5.6,3.4,29.98,1016.0,,,,,,,,,,,,,,,Clear,72000.0,,,,,,,,,
KRDR,10-20-2014,06:58,METAR,Normal,310,8.0,,,9999.0,,6.3,3.6,29.96,1015.3,,,,,,,,,,,,,,,Clear,72000.0,,,,,,,,,
KRDR,10-20-2014,05:58,METAR,Normal,300,7.0,,,9999.0,,6.2,3.6,29.94,1014.7,,,,,,,,,,,,,,,Clear,72000.0,,,,,,,,,
KRDR,10-20-2014,04:58,METAR,Normal,310,5.0,,,9999.0,,6.9,3.8,29.94,1014.7,,,,,,,,,,,,,,,Clear,72000.0,,,,,,,,,
KRDR,10-20-2014,03:58,METAR,Normal,330,4.0,,,9999.0,,7.8,3.8,29.93,1014.4,,,,,,,,,,,,,,,Clear,72000.0,,,,,,,,,
KRDR,10-20-2014,02:58,METAR,Normal,340,7.0,,,9999.0,,9.8,4.1,29.91,1013.7,,,,,,,,,,,,,,,Clear,72000.0,,,,,,,,,
KRDR,10-20-2014,01:58,METAR,Normal,300,8.0,,,9999.0,,10.1,4.3,29.89,1013.2,,,,,,,,,,,,,,,Clear,72000.0,,,,,,,,,
KRDR,10-20-2014,00:58,METAR,Normal,300,6.0,,,9999.0,,8.9,3.6,29.89,1013.4,,,,,,,,,,,,,,,Clear,72000.0,,,,,,,,,
KRDR,10-19-2014,23:58,METAR,Normal,310,3.0,,,9999.0,,12.3,4.2,29.87,1012.5,,,,,,,,,,,,,,,Clear,72000.0,,,,,,,,,
KRDR,10-19-2014,22:58,METAR,Normal,360,7.0,,,9999.0,,17.8,5.0,29.86,1012.0,,,,,,,,,,,,,,,Clear,72000.0,,,,,,,,,
KRDR,10-19-2014,21:58,METAR,Normal,350,10.0,17.0,,9999.0,,19.0,4.9,29.85,1011.6,,,,,,,,,,,,,,,Clear,72000.0,,,,,,,,,
KRDR,10-19-2014,20:58,METAR,Normal,360,11.0,22.0,,9999.0,,19.6,5.5,29.84,1011.2,,,,,,,,,,,,,,,Clear,72000.0,,,,,,,,,
KRDR,10-19-2014,19:58,METAR,Normal,340,14.0,,,9999.0,,19.6,5.9,29.83,1010.9,,,,,,,,,,,,,,,Clear,72000.0,,,,,,,,,
KRDR,10-19-2014,18:58,METAR,Normal,350,13.0,18.0,,9999.0,,18.6,5.8,29.82,1010.6,,,,,,,,,,,,,,,Clear,72000.0,,,,,,,,,
KRDR,10-19-2014,17:58,METAR,Normal,350,13.0,18.0,,9999.0,,17.3,6.2,29.82,1010.6,,,,,,,,,,,,,,,Clear,72000.0,,,,,,,,,
KRDR,10-19-2014,16:58,METAR,Normal,340,13.0,,,9999.0,,15.6,6.5,29.82,1010.6,,,,,,,,,,,,,,,Clear,72000.0,,,,,,,,,
KRDR,10-19-2014,15:58,METAR,Normal,350,13.0,17.0,,9999.0,,14.3,6.2,29.79,1009.7,,,,,,,,,,,,,,,Clear,72000.0,,,,,,,,,
KRDR,10-19-2014,14:58,METAR,Normal,340,9.0,,,9999.0,,11.5,7.4,29.78,1009.4,,,,,,,,,,,,,,,Clear,72000.0,,,,,,,,,
KRDR,10-19-2014,13:58,METAR,Normal,310,6.0,,,9999.0,,7.4,7.1,29.76,1008.9,,,,,,,,,,,,,,,Clear,72000.0,,,,,,,,,
KRDR,10-19-2014,12:58,METAR,Normal,230,1.0,,,9999.0,,2.3,2.1,29.74,1008.4,,,,,,,,,,,,,,,Clear,72000.0,,,,,,,,,
KRDR,10-19-2014,11:58,METAR,Normal,220,5.0,,,9999.0,,2.8,2.6,29.74,1008.3,,,,,,,,,,,,,,,Clear,72000.0,,,,,,,,,
KRDR,10-19-2014,10:58,METAR,Normal,210,5.0,,,9999.0,,3.7,3.6,29.75,1008.7,,,,,,,,,,,,,,,Clear,72000.0,,,,,,,,,
KRDR,10-19-2014,09:58,METAR,Normal,210,7.0,,,9999.0,,4.6,4.5,29.76,1008.9,,,,,,,,,,,,,,,2/8 Mostly Clear,72000.0,11000.0,FEW,11000.0,,,,,,
KRDR,10-19-2014,08:58,METAR,Normal,200,6.0,,,9999.0,,5.3,5.1,29.77,1009.3,,,,,,,,,,,,,,,Clear,72000.0,,,,,,,,,
KRDR,10-19-2014,07:58,METAR,Normal,200,11.0,,,9999.0,,5.4,5.3,29.79,1010.0,,,,,,,,,,,,,,,Clear,72000.0,,,,,,,,,
KRDR,10-19-2014,06:58,METAR,Normal,190,10.0,,,9999.0,,5.3,5.1,29.82,1011.0,,,,,,,,,,,,,,,Clear,72000.0,,,,,,,,,
KRDR,10-19-2014,05:58,METAR,Normal,190,11.0,,,9999.0,,5.8,5.2,29.85,1011.9,,,,,,,,,,,,,,,Clear,72000.0,,,,,,,,,
KRDR,10-19-2014,04:58,METAR,Normal,190,11.0,,,9999.0,,5.5,5.0,29.88,1013.0,,,,,,,,,,,,,,,4/8 Partly Cloudy,72000.0,12000.0,SCT,12000.0,,,,,,
KRDR,10-19-2014,03:58,METAR,Normal,190,9.0,,,9999.0,,5.4,4.9,29.92,1014.4,,,,,,,,,,,,,,,Clear,72000.0,,,,,,,,,
KRDR,10-19-2014,02:58,METAR,Normal,190,9.0,,,9999.0,,5.1,5.0,29.95,1015.5,,,,,,,,,,,,,,,Clear,72000.0,,,,,,,,,
KRDR,10-19-2014,01:58,METAR,Normal,190,9.0,,,9999.0,,5.2,4.5,29.97,1016.2,,,,,,,,,,,,,,,Clear,72000.0,,,,,,,,,
KRDR,10-19-2014,01:18,SPECI,Normal,200,8.0,,,9999.0,,6.0,4.0,29.98,,,,,,,,,,,,,,,,4/8 Partly Cloudy,72000.0,1500.0,SCT,1500.0,,,,,,
KRDR,10-19-2014,00:58,METAR,Normal,180,12.0,,,9999.0,,6.4,4.7,29.98,1016.4,,,,,,,,,,,,,,,,1500.0,1500.0,OVC,1500.0,,,,,,
KRDR,10-18-2014,23:58,METAR,Normal,180,13.0,,,9999.0,,6.5,4.5,29.99,1016.8,,,,,,,,,,,,,,,,1500.0,1500.0,OVC,1500.0,,,,,,
KRDR,10-18-2014,23:28,SPECI,Normal,160,11.0,,,9999.0,,7.0,5.0,30.01,,,,,,,,,,,,,,,,,1500.0,1500.0,OVC,1500.0,,,,,,
KRDR,10-18-2014,22:58,METAR,Normal,170,14.0,,,9999.0,,6.4,4.8,30.02,1017.8,,,,,,,,,,,,,,,,1300.0,1300.0,OVC,1300.0,,,,,,
KRDR,10-18-2014,21:58,METAR,Normal,180,14.0,,,9999.0,,6.5,4.5,30.06,1019.2,,,,,,,,,,,,,,,,1300.0,1300.0,OVC,1300.0,,,,,,
KRDR,10-18-2014,20:58,METAR,Normal,180,14.0,,,9999.0,,6.2,4.4,30.08,1019.8,,,,,,,,,,,,,,,,1200.0,1200.0,OVC,1200.0,,,,,,
KRDR,10-18-2014,20:11,SPECI,Normal,210,12.0,,,9999.0,,6.0,4.0,30.11,,,,,,,,,,,,,,,,,1200.0,1200.0,OVC,1200.0,,,,,,
KRDR,10-18-2014,20:01,SPECI,Normal,210,13.0,,,9999.0,,6.0,4.0,30.12,,,,,,,,,,,,,,,,,1100.0,1100.0,OVC,1100.0,,,,,,
KRDR,10-18-2014,19:58,METAR,Normal,210,11.0,,,9999.0,,6.3,4.3,30.12,1021.2,,,,,,,,,,,,,,,,1200.0,1200.0,OVC,1200.0,,,,,,
KRDR,10-18-2014,18:58,METAR,Normal,190,12.0,,,9999.0,,6.5,4.3,30.14,1021.9,,,,,,,,,,,,,,,,1300.0,1300.0,OVC,1300.0,,,,,,
KRDR,10-18-2014,18:23,SPECI,Normal,230,10.0,,,9999.0,,7.0,4.0,30.16,,,,,,,,,,,,,,,,,1400.0,1400.0,OVC,1400.0,,,,,,
KRDR,10-18-2014,17:58,METAR,Normal,230,10.0,,,9999.0,,6.6,4.0,30.17,1022.9,,,,,,,,,,,,,,,,1500.0,1500.0,OVC,1500.0,,,,,,
KRDR,10-18-2014,16:58,METAR,Normal,200,9.0,,,9999.0,,6.4,3.7,30.19,1023.6,,,,,,,,,,,,,,,,1500.0,1500.0,OVC,1500.0,,,,,,
KRDR,10-18-2014,15:58,METAR,Normal,210,7.0,,,9999.0,,6.0,3.7,30.21,1024.3,,,,,,,,,,,,,,,,1600.0,1600.0,OVC,1600.0,,,,,,
KRDR,10-18-2014,14:58,METAR,Normal,170,5.0,,,9999.0,,5.4,4.2,30.22,1024.6,,,,,,,,,,,,,,,,1700.0,1700.0,OVC,1700.0,,,,,,
KRDR,10-18-2014,13:58,METAR,Normal,150,4.0,,,9999.0,,5.1,4.4,30.21,1024.3,,,,,,,,,,,,,,,,1800.0,1800.0,OVC,1800.0,,,,,,
KRDR,10-18-2014,12:58,METAR,Normal,150,3.0,,,9999.0,,4.8,4.1,30.21,1024.3,,,,,,,,,,,,,,,,1800.0,1800.0,OVC,1800.0,,,,,,
KRDR,10-18-2014,11:58,METAR,Calm,,0.0,,,9999.0,,4.8,4.6,30.23,1025.0,,,,,,,,,,,,,,,,1900.0,1900.0,OVC,1900.0,,,,,,
KRDR,10-18-2014,10:58,METAR,Normal,360,3.0,,,9999.0,,4.8,4.5,30.23,1025.0,,,,,,,,,,,,,,,,2000.0,2000.0,OVC,2000.0,,,,,,
KRDR,10-18-2014,09:58,METAR,Normal,360,3.0,,,9999.0,,4.8,4.2,30.23,1024.9,,,,,,,,,,,,,,,,2000.0,2000.0,OVC,2000.0,,,,,,
KRDR,10-18-2014,08:58,METAR,Normal,360,3.0,,,9999.0,,4.9,4.2,30.22,1024.5,,,,,,,,,,,,,,,,2300.0,2300.0,OVC,2300.0,,,,,,
KRDR,10-18-2014,07:58,METAR,Normal,10,4.0,,,9999.0,,5.1,4.0,30.23,1025.0,,,,,,,,,,,,,,,,2300.0,2300.0,OVC,2300.0,,,,,,
KRDR,10-18-2014,06:58,METAR,Normal,360,5.0,,,9999.0,,5.2,4.2,30.22,1024.6,,,,,,,,,,,,,,,,2500.0,2500.0,OVC,2500.0,,,,,,
KRDR,10-18-2014,05:58,METAR,Normal,10,5.0,,,9999.0,,5.3,4.0,30.21,1024.3,,,,,,,,,,,,,,,,2700.0,2700.0,OVC,2700.0,,,,,,
KRDR,10-18-2014,05:38,SPECI,Normal,10,5.0,,,9999.0,,5.0,4.0,30.22,,,,,,,,,,,,,,,,,2900.0,2900.0,OVC,2900.0,,,,,,
KRDR,10-18-2014,04:58,METAR,Normal,10,7.0,,,9999.0,,5.5,3.8,30.22,1024.6,,,,,,,,,,,,,,,,3100.0,3100.0,OVC,3100.0,,,,,,
KRDR,10-18-2014,03:58,METAR,Normal,10,8.0,,,9999.0,,5.7,3.7,30.22,1024.6,,,,,,,,,,,,,,,,3400.0,2400.0,SCT,2400.0,OVC,3400.0,,,,
KRDR,10-18-2014,03:53,SPECI,Normal,10,8.0,,,9999.0,,6.0,4.0,30.22,,,,,,,,,,,,,,,,,2400.0,2300.0,SCT,2300.0,OVC,3400.0,,,,
KRDR,10-18-2014,02:58,METAR,Normal,10,8.0,,,9999.0,,6.0,3.9,30.21,1024.3,,,,,,,,,,,,,,,,1800.0,1800.0,OVC,1800.0,,,,,,
KRDR,10-18-2014,01:58,METAR,Normal,20,11.0,,,9999.0,,6.1,3.6,30.20,1023.9,,,,,,,,,,,,,,,,1700.0,1700.0,OVC,1700.0,,,,,,
KRDR,10-18-2014,00:58,METAR,Normal,10,10.0,,,9999.0,,6.2,4.0,30.19,1023.6,,,,,,,,,,,,,,,,1600.0,1600.0,OVC,1600.0,,,,,,
KRDR,10-17-2014,23:58,METAR,Normal,10,10.0,19.0,,9999.0,,6.4,3.8,30.18,1023.3,,,,,,,,,,,,,,,,1700.0,1700.0,OVC,1700.0,,,,,,
KRDR,10-17-2014,22:58,METAR,Normal,360,12.0,,,9999.0,,6.9,3.9,30.16,1022.5,,,,,,,,,,,,,,,,1900.0,1900.0,OVC,1900.0,,,,,,
KRDR,10-17-2014,21:58,METAR,Normal,20,17.0,23.0,,9999.0,,7.6,4.0,30.14,1021.7,,,,,,,,,,,,,,,,2000.0,2000.0,OVC,2000.0,,,,,,
KRDR,10-17-2014,20:58,METAR,Normal,20,17.0,21.0,,9999.0,,7.7,4.2,30.12,1021.1,,,,,,,,,,,,,,,,2000.0,2000.0,OVC,2000.0,,,,,,
KRDR,10-17-2014,19:58,METAR,Normal,20,16.0,21.0,,9999.0,,7.0,4.0,30.11,1020.8,,,,,,,,,,,,,,,,1700.0,1700.0,OVC,1700.0,,,,,,
KRDR,10-17-2014,18:58,METAR,Normal,20,15.0,22.0,,9999.0,,6.8,3.9,30.09,1020.0,,,,,,,,,,,,,,,,1500.0,1500.0,OVC,1500.0,,,,,,
KRDR,10-17-2014,18:53,SPECI,Normal,20,15.0,22.0,,9999.0,,7.0,4.0,30.09,,,,,,,,,,,,,,,,,1500.0,1500.0,OVC,1500.0,,,,,,
KRDR,10-17-2014,17:58,METAR,Normal,20,15.0,23.0,350/27KTS,9999.0,,6.0,3.8,30.09,1020.1,,,,,,,,,,,,,TRACE,,,1200.0,1200.0,OVC,1200.0,,,,,,
KRDR,10-17-2014,17:49,SPECI,Normal,20,16.0,24.0,,9999.0,,6.0,4.0,30.09,,,,,,,,,,,,,,,,,1200.0,1200.0,OVC,1200.0,,,,,,
KRDR,10-17-2014,17:34,SPECI,Normal,10,18.0,25.0,,9999.0,,6.0,4.0,30.08,,,,,,,,,,,,,,,,,1100.0,1100.0,OVC,1100.0,,,,,,
KRDR,10-17-2014,17:14,SPECI,Normal,360,19.0,24.0,,9999.0,,6.0,4.0,30.08,,,,,,,,,,,,,,,,,1100.0,1100.0,OVC,1100.0,,,,,,
KRDR,10-17-2014,16:58,METAR,Normal,10,16.0,23.0,350/30KTS,9999.0,,6.0,4.0,30.07,1019.4,,,,,,,,,,,,,,,,1200.0,1200.0,OVC,1200.0,,,,,,
KRDR,10-17-2014,16:28,SPECI,Normal,20,19.0,24.0,,9999.0,,6.0,4.0,30.06,,,,,,,,,,,,,,,,,1200.0,1200.0,OVC,1200.0,,,,,,
KRDR,10-17-2014,16:18,SPECI,Normal,20,16.0,27.0,,9999.0,,6.0,4.0,30.06,,,,,,,,,,,,,,,,,1100.0,1100.0,OVC,1100.0,,,,,,
KRDR,10-17-2014,15:58,METAR,Normal,10,18.0,27.0,340/29KTS,9999.0,,5.6,3.9,30.06,1019.0,,,,,,,,,,,,,,,,1200.0,1200.0,OVC,1200.0,,,,,,
KRDR,10-17-2014,15:13,SPECI,Normal,10,20.0,24.0,,9999.0,,6.0,4.0,30.03,,,,,,,,,,,,,,,,,1200.0,1200.0,OVC,1200.0,,,,,,
KRDR,10-17-2014,14:58,METAR,Normal,10,20.0,27.0,350/29KTS,9999.0,,5.5,4.3,30.02,1017.7,,,,,,,,,,,TRACE,TRACE,,,,1100.0,1100.0,OVC,1100.0,,,,,,
KRDR,10-17-2014,14:41,SPECI,Normal,10,19.0,26.0,,9999.0,,5.0,4.0,30.01,,,,,,,,,,,,,,,,,1100.0,1100.0,OVC,1100.0,,,,,,
KRDR,10-17-2014,14:27,SPECI,Normal,10,21.0,26.0,,9999.0,Unknown Precipitation,5.0,4.0,30.01,,40,,,,,,,,,,,,,,,1100.0,1100.0,OVC,1100.0,,,,,,
KRDR,10-17-2014,14:14,SPECI,Normal,10,18.0,29.0,,9999.0,,5.0,4.0,30.01,,,,,,,,,,,,,,,,,1100.0,1100.0,OVC,1100.0,,,,,,
KRDR,10-17-2014,13:58,METAR,Normal,10,17.0,29.0,010/29KTS,9999.0,,5.5,4.0,30.00,1017.0,,,,,,,,,,,,,,,,1300.0,1300.0,OVC,1300.0,,,,,,
KRDR,10-17-2014,12:58,METAR,Normal,10,20.0,26.0,010/29KTS,9999.0,,5.8,4.5,29.96,1015.6,,,,,,,,,,,,,,,,1300.0,1300.0,OVC,1300.0,,,,,,
KRDR,10-17-2014,11:58,METAR,Normal,10,18.0,28.0,350/29KTS,9999.0,,6.1,5.0,29.93,1014.6,,,,,,,,,,,,,,.06 IN,,1300.0,1300.0,OVC,1300.0,,,,,,
KRDR,10-17-2014,10:58,METAR,Normal,360,20.0,25.0,340/29KTS,9999.0,,6.3,5.4,29.90,1013.5,,,,,,,,,,,,,,,,1300.0,1300.0,OVC,1300.0,,,,,,
KRDR,10-17-2014,09:58,METAR,Normal,360,18.0,28.0,340/29KTS,9999.0,,6.6,5.2,29.87,1012.4,,,,,,,,,,,,,,,,1400.0,1400.0,OVC,1400.0,,,,,,
KRDR,10-17-2014,08:58,METAR,Normal,360,19.0,25.0,330/29KTS,9999.0,,6.8,5.6,29.83,1011.0,,,,,,,,,,,,,,,,1400.0,1400.0,OVC,1400.0,,,,,,
KRDR,10-17-2014,08:38,SPECI,Normal,360,18.0,27.0,,9999.0,,7.0,6.0,29.82,,,,,,,,,,,,,,,,,1400.0,1400.0,OVC,1400.0,,,,,,
KRDR,10-17-2014,08:28,SPECI,Normal,360,18.0,26.0,,9999.0,,7.0,6.0,29.82,,,,,,,,,,,,,,,,,1500.0,1500.0,OVC,1500.0,,,,,,
KRDR,10-17-2014,08:18,SPECI,Normal,360,19.0,26.0,,9999.0,,7.0,6.0,29.82,,,,,,,,,,,,,,,,,1400.0,1400.0,OVC,1400.0,,,,,,
KRDR,10-17-2014,07:58,METAR,Variable,360,20.0,27.0,350/31KTS,9999.0,,7.2,5.9,29.80,1009.9,,,,,,,,,,,,,,,,1500.0,1500.0,OVC,1500.0,,,,,,
KRDR,10-17-2014,06:58,METAR,Normal,350,18.0,28.0,330/33KTS,9999.0,,7.7,6.0,29.78,1009.1,,,,,,,,,,,,,,,,1700.0,1700.0,OVC,1700.0,,,,,,
KRDR,10-17-2014,05:58,METAR,Normal,350,20.0,28.0,340/33KTS,9999.0,,8.0,6.6,29.75,1008.2,,,,,,,,,,,,,.02 IN,,,1600.0,1600.0,OVC,1600.0,,,,,,
KRDR,10-17-2014,04:58,METAR,Normal,350,19.0,29.0,360/33KTS,9999.0,,8.6,7.1,29.74,1007.8,,,,,,,,,,,,,,,,1700.0,1700.0,OVC,1700.0,,,,,,
KRDR,10-17-2014,03:58,METAR,Normal,350,19.0,26.0,330/28KTS,9999.0,,9.3,7.6,29.71,1006.8,,,,,,,,,,,,,,,,1800.0,1800.0,OVC,1800.0,,,,,,
KRDR,10-17-2014,03:28,SPECI,Normal,350,14.0,23.0,,9999.0,,9.0,8.0,29.70,,,,,,,,,,,,,,,,,2000.0,2000.0,BKN,2000.0,OVC,6000.0,,,,
KRDR,10-17-2014,02:58,METAR,Normal,340,14.0,23.0,330/30KTS,9999.0,,9.7,8.1,29.68,1005.9,,,,,,,,,,,,.02 IN,,,,5500.0,2100.0,FEW,2100.0,OVC,5500.0,,,,
KRDR,10-17-2014,01:58,METAR,Normal,340,14.0,25.0,,9999.0,,10.4,8.9,29.65,1004.8,,,,,,,,,,,TRACE,,,,,5000.0,2600.0,FEW,2600.0,OVC,5000.0,,,,
KRDR,10-17-2014,01:11,SPECI,Normal,350,10.0,,,9999.0,,10.0,9.0,29.63,,,,,,,,,,,,,,,,,4700.0,4700.0,OVC,4700.0,,,,,,
KRDR,10-17-2014,00:58,METAR,Normal,340,12.0,,,9999.0,Light Rain,10.2,8.8,29.62,1003.9,61,,,,,,,,,,.02 IN,,,,,4600.0,4600.0,OVC,4600.0,,,,,,
KRDR,10-17-2014,00:33,SPECI,Normal,310,7.0,,,9999.0,Light Rain,9.0,9.0,29.61,,61,,,,,,,,,,,,,,,4100.0,4100.0,BKN,4100.0,OVC,4900.0,,,,
KRDR,10-17-2014,00:27,SPECI,Normal,310,6.0,,,9999.0,,9.0,9.0,29.61,,,,,,,,,,,,,,,,,4400.0,4400.0,OVC,4400.0,,,,,,
KRDR,10-16-2014,23:58,METAR,Normal,340,7.0,,,9999.0,Light Rain,9.6,9.4,29.60,1003.1,61,,,,,,,,,,.04 IN,,.04 IN,,,4200.0,4200.0,BKN,4200.0,OVC,5500.0,,,,
KRDR,10-16-2014,23:10,SPECI,Normal,330,8.0,15.0,,9999.0,Light Rain,12.0,6.0,29.58,,61,,,,,,,,,,,,,,,6500.0,3700.0,FEW,3700.0,OVC,6500.0,,,,
KRDR,10-16-2014,22:58,METAR,Normal,340,10.0,,,9999.0,,12.4,5.8,29.57,1002.0,,,,,,,,,,,TRACE,,,,,6500.0,3700.0,FEW,3700.0,OVC,6500.0,,,,
KRDR,10-16-2014,22:15,SPECI,Normal,340,11.0,,,9999.0,,13.0,6.0,29.56,,,,,,,,,,,,,,,,,9000.0,7000.0,SCT,7000.0,BKN,9100.0,,,,
KRDR,10-16-2014,22:06,SPECI,Normal,330,14.0,,,9999.0,Light Rain,13.0,6.0,29.56,,61,,,,,,,,,,,,,,2/8 Mostly Clear,72000.0,9000.0,FEW,9100.0,,,,,,
KRDR,10-16-2014,21:58,METAR,Normal,320,11.0,,,9999.0,,13.0,6.5,29.55,1001.3,,,,,,,,,,,,,,,4/8 Partly Cloudy,72000.0,9000.0,SCT,9100.0,SCT,12000.0,,,,
KRDR,10-16-2014,20:58,METAR,Normal,320,13.0,,,9999.0,,15.7,6.8,29.53,1000.6,,,,,,,,,,,,TRACE,,,2/8 Mostly Clear,72000.0,4100.0,FEW,4100.0,,,,,,
KRDR,10-16-2014,19:59,SPECI,Normal,350,11.0,,,9999.0,,16.0,6.0,29.51,,,,,,,,,,,,,,,,,10000.0,10000.0,BKN,10000.0,,,,,,
KRDR,10-16-2014,19:58,METAR,Normal,340,11.0,,,9999.0,,16.1,6.4,29.51,999.8,,,,,,,,,,,,,,,,10000.0,10000.0,BKN,10000.0,,,,,,
KRDR,10-16-2014,18:58,METAR,Normal,330,11.0,16.0,,9999.0,,17.3,6.8,29.47,998.5,,,,,,,,,,,TRACE,,,,Clear,72000.0,,,,,,,,,
KRDR,10-16-2014,17:58,METAR,Normal,320,11.0,,,9999.0,,15.7,6.8,29.48,998.9,,,,,,,,,,,,,,,2/8 Mostly Clear,72000.0,11000.0,FEW,11000.0,,,,,,
KRDR,10-16-2014,16:58,METAR,Normal,310,9.0,,,9999.0,,16.2,6.7,29.46,998.2,,,,,,,,,,,,,,,Clear,72000.0,,,,,,,,,
KRDR,10-16-2014,15:58,METAR,Normal,240,9.0,,,9999.0,,14.4,4.6,29.46,998.2,,,,,,,,,,,,,,,Clear,72000.0,,,,,,,,,
KRDR,10-16-2014,14:58,METAR,Normal,190,12.0,,,9999.0,,12.2,3.1,29.47,998.6,,,,,,,,,,,,,,,Clear,72000.0,,,,,,,,,
KRDR,10-16-2014,13:58,METAR,Normal,170,12.0,,,9999.0,,10.6,2.7,29.47,998.6,,,,,,,,,,,,,,,Clear,72000.0,,,,,,,,,
KRDR,10-16-2014,12:58,METAR,Normal,180,11.0,,,9999.0,,9.8,2.3,29.48,999.0,,,,,,,,,,,,,,,Clear,72000.0,,,,,,,,,
KRDR,10-16-2014,11:58,METAR,Normal,180,10.0,,,9999.0,,10.6,1.9,29.50,999.5,,,,,,,,,,,,,,,Clear,72000.0,,,,,,,,,
KRDR,10-16-2014,10:58,METAR,Normal,170,12.0,,,9999.0,,11.4,1.7,29.50,999.5,,,,,,,,,,,,,,,Clear,72000.0,,,,,,,,,
KRDR,10-16-2014,09:58,METAR,Normal,170,13.0,,,9999.0,,12.3,1.4,29.52,1000.1,,,,,,,,,,,,,,,Clear,72000.0,,,,,,,,,
KRDR,10-16-2014,08:58,METAR,Normal,160,16.0,,,9999.0,,12.3,1.3,29.54,1000.7,,,,,,,,,,,,,,,Clear,72000.0,,,,,,,,,
KRDR,10-16-2014,07:58,METAR,Normal,160,13.0,21.0,,9999.0,,12.7,1.4,29.57,1001.7,,,,,,,,,,,,,,,Clear,72000.0,,,,,,,,,
KRDR,10-16-2014,06:58,METAR,Normal,140,11.0,,,9999.0,,12.5,1.9,29.58,1002.1,,,,,,,,,,,,,,,Clear,72000.0,,,,,,,,,
KRDR,10-16-2014,05:58,METAR,Normal,150,12.0,,,9999.0,,11.6,2.2,29.62,1003.5,,,,,,,,,,,,,,,Clear,72000.0,,,,,,,,,
KRDR,10-16-2014,04:58,METAR,Normal,150,12.0,,,9999.0,,11.3,2.5,29.65,1004.7,,,,,,,,,,,,,,,Clear,72000.0,,,,,,,,,
KRDR,10-16-2014,03:58,METAR,Normal,150,13.0,,,9999.0,,11.7,2.6,29.67,1005.4,,,,,,,,,,,,,,,Clear,72000.0,,,,,,,,,
KRDR,10-16-2014,02:58,METAR,Normal,150,13.0,,,9999.0,,12.7,2.4,29.69,1006.1,,,,,,,,,,,,,,,Clear,72000.0,,,,,,,,,
KRDR,10-16-2014,01:58,METAR,Normal,150,10.0,,,9999.0,,13.7,2.2,29.71,1006.9,,,,,,,,,,,,,,,Clear,72000.0,,,,,,,,,
KRDR,10-16-2014,00:58,METAR,Normal,140,11.0,,,9999.0,,14.2,2.1,29.72,1007.4,,,,,,,,,,,,,,,Clear,72000.0,,,,,,,,,
KRDR,10-15-2014,23:58,METAR,Normal,140,9.0,,,9999.0,,16.0,2.0,29.73,1007.6,,,,,,,,,,,,,,,Clear,72000.0,,,,,,,,,
KRDR,10-15-2014,22:58,METAR,Normal,140,12.0,,,9999.0,,18.4,2.5,29.74,1007.8,,,,,,,,,,,,,,,Clear,72000.0,,,,,,,,,
KRDR,10-15-2014,21:58,METAR,Normal,150,18.0,23.0,,9999.0,,20.4,2.8,29.75,1008.1,,,,,,,,,,,,,,,Clear,72000.0,,,,,,,,,
KRDR,10-15-2014,20:58,METAR,Normal,160,16.0,25.0,,9999.0,,20.7,2.4,29.77,1008.7,,,,,,,,,,,,,,,Clear,72000.0,,,,,,,,,
KRDR,10-15-2014,19:58,METAR,Normal,160,20.0,21.0,,9999.0,,20.6,2.2,29.80,1009.7,,,,,,,,,,,,,,,Clear,72000.0,,,,,,,,,
KRDR,10-15-2014,18:58,METAR,Normal,180,15.0,21.0,,9999.0,,19.8,2.5,29.84,1011.1,,,,,,,,,,,,,,,Clear,72000.0,,,,,,,,,
KRDR,10-15-2014,17:58,METAR,Normal,180,18.0,23.0,,9999.0,,18.8,2.1,29.86,1011.8,,,,,,,,,,,,,,,Clear,72000.0,,,,,,,,,
KRDR,10-15-2014,16:58,METAR,Normal,180,14.0,,,9999.0,,16.8,2.9,29.89,1012.9,,,,,,,,,,,,,,,Clear,72000.0,,,,,,,,,
KRDR,10-15-2014,15:58,METAR,Normal,180,12.0,,,9999.0,,14.0,2.8,29.89,1013.0,,,,,,,,,,,,,,,Clear,72000.0,,,,,,,,,
KRDR,10-15-2014,14:58,METAR,Normal,170,11.0,,,9999.0,,10.3,2.3,29.90,1013.4,,,,,,,,,,,,,,,Clear,72000.0,,,,,,,,,
KRDR,10-15-2014,13:58,METAR,Normal,170,9.0,,,9999.0,,7.2,2.5,29.92,1014.2,,,,,,,,,,,,,,,Clear,72000.0,,,,,,,,,
KRDR,10-15-2014,12:58,METAR,Normal,160,7.0,,,9999.0,,4.4,2.1,29.92,1014.3,,,,,,,,,,,,,,,Clear,72000.0,,,,,,,,,
KRDR,10-15-2014,11:58,METAR,Normal,180,7.0,,,9999.0,,5.1,2.3,29.93,1014.5,,,,,,,,,,,,,,,Clear,72000.0,,,,,,,,,
KRDR,10-15-2014,10:58,METAR,Normal,180,7.0,,,9999.0,,6.0,2.3,29.93,1014.4,,,,,,,,,,,,,,,Clear,72000.0,,,,,,,,,
KRDR,10-15-2014,09:58,METAR,Normal,180,8.0,,,9999.0,,7.1,2.4,29.92,1013.9,,,,,,,,,,,,,,,Clear,72000.0,,,,,,,,,
KRDR,10-15-2014,08:58,METAR,Normal,170,10.0,,,9999.0,,7.3,2.1,29.93,1014.3,,,,,,,,,,,,,,,Clear,72000.0,,,,,,,,,
KRDR,10-15-2014,07:58,METAR,Normal,180,7.0,,,9999.0,,8.2,2.6,29.94,1014.5,,,,,,,,,,,,,,,Clear,72000.0,,,,,,,,,
KRDR,10-15-2014,06:58,METAR,Normal,180,8.0,,,9999.0,,6.6,2.9,29.94,1014.6,,,,,,,,,,,,,,,Clear,72000.0,,,,,,,,,
KRDR,10-15-2014,05:58,METAR,Normal,190,7.0,,,9999.0,,8.0,3.4,29.94,1014.6,,,,,,,,,,,,,,,Clear,72000.0,,,,,,,,,
KRDR,10-15-2014,04:58,METAR,Normal,190,8.0,,,9999.0,,8.7,3.8,29.95,1015.0,,,,,,,,,,,,,,,Clear,72000.0,,,,,,,,,
KRDR,10-15-2014,03:58,METAR,Normal,170,8.0,,,9999.0,,7.6,3.4,29.96,1015.5,,,,,,,,,,,,,,,Clear,72000.0,,,,,,,,,
KRDR,10-15-2014,02:58,METAR,Normal,180,8.0,,,9999.0,,8.9,3.7,29.96,1015.5,,,,,,,,,,,,,,,Clear,72000.0,,,,,,,,,
KRDR,10-15-2014,01:58,METAR,Normal,160,9.0,,,9999.0,,9.8,3.9,29.97,1016.0,,,,,,,,,,,,,,,Clear,72000.0,,,,,,,,,
KRDR,10-15-2014,00:58,METAR,Normal,160,9.0,,,9999.0,,10.0,4.4,29.97,1016.2,,,,,,,,,,,,,,,Clear,72000.0,,,,,,,,,
KRDR,10-14-2014,23:58,METAR,Normal,150,7.0,,,9999.0,,12.5,4.4,29.95,1015.3,,,,,,,,,,,,,,,Clear,72000.0,,,,,,,,,
KRDR,10-14-2014,22:58,METAR,Normal,150,6.0,,,9999.0,,15.1,5.1,29.96,1015.6,,,,,,,,,,,,,,,Clear,72000.0,,,,,,,,,
KRDR,10-14-2014,21:58,METAR,Normal,160,8.0,,,9999.0,,18.5,3.5,29.96,1015.5,,,,,,,,,,,,,,,Clear,72000.0,,,,,,,,,
KRDR,10-14-2014,20:58,METAR,Normal,180,5.0,,,9999.0,,18.5,3.0,29.98,1016.2,,,,,,,,,,,,,,,Clear,72000.0,,,,,,,,,
KRDR,10-14-2014,19:58,METAR,Normal,170,7.0,,,9999.0,,19.1,2.7,29.98,1016.0,,,,,,,,,,,,,,,Clear,72000.0,,,,,,,,,
KRDR,10-14-2014,18:58,METAR,Normal,170,6.0,,,9999.0,,18.5,3.0,29.99,1016.4,,,,,,,,,,,,,,,Clear,72000.0,,,,,,,,,
KRDR,10-14-2014,17:58,METAR,Variable,,5.0,,,9999.0,,17.4,4.8,30.00,1016.8,,,,,,,,,,,,,,,Clear,72000.0,,,,,,,,,
KRDR,10-14-2014,16:58,METAR,Normal,150,2.0,,,9999.0,,15.1,5.5,30.02,1017.5,,,,,,,,,,,,,,,Clear,72000.0,,,,,,,,,
KRDR,10-14-2014,15:58,METAR,Normal,180,2.0,,,9999.0,,12.3,6.7,30.02,1017.6,,,,,,,,,,,,,,,Clear,72000.0,,,,,,,,,
KRDR,10-14-2014,14:58,METAR,Normal,260,1.0,,,9999.0,,9.2,5.3,30.02,1017.7,,,,,,,,,,,,,,,Clear,72000.0,,,,,,,,,
KRDR,10-14-2014,13:58,METAR,Calm,,0.0,,,9999.0,,3.0,2.9,30.01,1017.5,,,,,,,,,,,,,,,Clear,72000.0,,,,,,,,,
KRDR,10-14-2014,12:58,METAR,Calm,,0.0,,,9999.0,,-0.5,-0.6,29.99,1016.9,,,,,,,,,,,,,,,Clear,72000.0,,,,,,,,,
KRDR,10-14-2014,11:58,METAR,Normal,280,2.0,,,9999.0,,0.5,0.4,29.97,1016.1,,,,,,,,,,,,,,,Clear,72000.0,,,,,,,,,
KRDR,10-14-2014,10:58,METAR,Normal,280,3.0,,,9999.0,,0.3,0.2,29.97,1015.9,,,,,,,,,,,,,,,Clear,72000.0,,,,,,,,,
KRDR,10-14-2014,09:58,METAR,Normal,230,2.0,,,9999.0,,1.2,1.1,29.97,1015.8,,,,,,,,,,,,,,,Clear,72000.0,,,,,,,,,
KRDR,10-14-2014,08:58,METAR,Normal,260,3.0,,,9999.0,,2.2,2.0,29.96,1015.4,,,,,,,,,,,,,,,Clear,72000.0,,,,,,,,,
KRDR,10-14-2014,07:58,METAR,Normal,270,3.0,,,9999.0,,3.8,2.1,29.96,1015.4,,,,,,,,,,,,,,,Clear,72000.0,,,,,,,,,
KRDR,10-14-2014,06:58,METAR,Normal,310,5.0,,,9999.0,,4.2,2.6,29.95,1015.1,,,,,,,,,,,,,,,Clear,72000.0,,,,,,,,,
KRDR,10-14-2014,05:58,METAR,Normal,300,4.0,,,9999.0,,3.3,2.4,29.95,1015.2,,,,,,,,,,,,,,,Clear,72000.0,,,,,,,,,
KRDR,10-14-2014,04:58,METAR,Normal,290,2.0,,,9999.0,,5.0,3.1,29.95,1015.1,,,,,,,,,,,,,,,Clear,72000.0,,,,,,,,,
KRDR,10-14-2014,03:58,METAR,Normal,280,1.0,,,9999.0,,5.2,3.5,29.94,1014.9,,,,,,,,,,,,,,,Clear,72000.0,,,,,,,,,
KRDR,10-14-2014,02:58,METAR,Normal,310,5.0,,,9999.0,,5.3,3.4,29.94,1014.9,,,,,,,,,,,,,,,Clear,72000.0,,,,,,,,,
KRDR,10-14-2014,01:58,METAR,Normal,310,4.0,,,9999.0,,5.6,4.4,29.93,1014.7,,,,,,,,,,,,,,,Clear,72000.0,,,,,,,,,
KRDR,10-14-2014,00:58,METAR,Normal,310,2.0,,,9999.0,,7.5,5.3,29.92,1014.4,,,,,,,,,,,,,,,Clear,72000.0,,,,,,,,,
KRDR,10-13-2014,23:58,METAR,Normal,10,3.0,,,9999.0,,11.6,4.4,29.92,1014.2,,,,,,,,,,,,,,,Clear,72000.0,,,,,,,,,
KRDR,10-13-2014,22:58,METAR,Normal,360,5.0,,,9999.0,,16.7,4.6,29.91,1013.6,,,,,,,,,,,,,,,Clear,72000.0,,,,,,,,,
KRDR,10-13-2014,21:58,METAR,Normal,340,9.0,,,9999.0,,18.4,5.2,29.90,1013.2,,,,,,,,,,,,,,,Clear,72000.0,,,,,,,,,
KRDR,10-13-2014,20:58,METAR,Normal,20,6.0,,,9999.0,,19.0,5.2,29.89,1012.8,,,,,,,,,,,,,,,Clear,72000.0,,,,,,,,,
KRDR,10-13-2014,19:58,METAR,Normal,10,3.0,,,9999.0,,17.3,7.1,29.89,1012.9,,,,,,,,,,,,,,,2/8 Mostly Clear,72000.0,6000.0,FEW,6000.0,,,,,,
KRDR,10-13-2014,18:58,METAR,Variable,,4.0,,,9999.0,,16.6,6.6,29.90,1013.2,,,,,,,,,,,,,,,Clear,72000.0,,,,,,,,,
KRDR,10-13-2014,17:58,METAR,Normal,360,5.0,,,9999.0,,15.0,7.0,29.92,1014.0,,,,,,,,,,,,,,,Clear,72000.0,,,,,,,,,
KRDR,10-13-2014,16:58,METAR,Normal,350,7.0,,,9999.0,,14.0,7.0,29.91,1013.6,,,,,,,,,,,,,,,Clear,72000.0,,,,,,,,,
KRDR,10-13-2014,15:58,METAR,Normal,330,8.0,,,9999.0,,12.2,7.2,29.89,1013.0,,,,,,,,,,,,,,,Clear,72000.0,,,,,,,,,
KRDR,10-13-2014,14:58,METAR,Normal,340,9.0,,,9999.0,,10.2,7.2,29.87,1012.4,,,,,,,,,,,,,,,Clear,72000.0,,,,,,,,,
KRDR,10-13-2014,13:58,METAR,Normal,310,6.0,,,9999.0,,6.4,6.2,29.87,1012.5,,,,,,,,,,,,,,,Clear,72000.0,,,,,,,,,
KRDR,10-13-2014,12:58,METAR,Normal,300,3.0,,,9999.0,,4.5,4.3,29.85,1011.9,,,,,,,,,,,,,,,Clear,72000.0,,,,,,,,,
KRDR,10-13-2014,11:58,METAR,Normal,320,5.0,,,9999.0,,5.5,5.4,29.83,1011.2,,,,,,,,,,,,,,.28 IN,Clear,72000.0,,,,,,,,,
KRDR,10-13-2014,10:58,METAR,Normal,330,6.0,,,9999.0,,6.8,6.6,29.80,1010.1,,,,,,,,,,,,,,,Clear,72000.0,,,,,,,,,
KRDR,10-13-2014,09:58,METAR,Normal,330,7.0,,,9999.0,,8.4,8.3,29.79,1009.6,,,,,,,,,,,,,,,Clear,72000.0,,,,,,,,,
KRDR,10-13-2014,08:58,METAR,Normal,340,5.0,,,9999.0,,8.8,8.8,29.77,1008.9,,,,,,,,,,,,,,,Clear,72000.0,,,,,,,,,
KRDR,10-13-2014,08:28,SPECI,Normal,330,4.0,,,9999.0,,9.0,9.0,29.76,,,,,,,,,,,,,,,,Clear,72000.0,,,,,,,,,
KRDR,10-13-2014,08:18,SPECI,Normal,350,4.0,,,8000.0,Mist,8.0,8.0,29.76,,10,,,,,,,,,,,,,,Clear,72000.0,,,,,,,,,
KRDR,10-13-2014,08:13,SPECI,Normal,340,3.0,,,4000.0,Mist,8.0,8.0,29.76,,10,,,,,,,,,,,,,,Clear,72000.0,,,,,,,,,
KRDR,10-13-2014,08:08,SPECI,Normal,340,3.0,,,2000.0,Mist,8.0,8.0,29.76,,10,,,,,,,,,,,,,,Clear,72000.0,,,,,,,,,
KRDR,10-13-2014,08:03,SPECI,Normal,340,2.0,,,1600.0,Mist,8.0,8.0,29.76,,10,,,,,,,,,,,,,,Clear,72000.0,,,,,,,,,
KRDR,10-13-2014,07:58,METAR,Normal,330,2.0,,,2000.0,Mist,8.4,8.4,29.76,1008.6,10,,,,,,,,,,,,,,Clear,72000.0,,,,,,,,,
KRDR,10-13-2014,07:53,SPECI,Normal,310,2.0,,,1600.0,Mist,8.0,8.0,29.76,,10,,,,,,,,,,,,,,Clear,72000.0,,,,,,,,,
KRDR,10-13-2014,07:48,SPECI,Normal,140,2.0,,,2000.0,Mist,9.0,9.0,29.76,,10,,,,,,,,,,,,,,Clear,72000.0,,,,,,,,,
KRDR,10-13-2014,07:43,SPECI,Calm,,0.0,,,3200.0,Mist,9.0,9.0,29.76,,10,,,,,,,,,,,,,,Clear,72000.0,,,,,,,,,
KRDR,10-13-2014,07:33,SPECI,Calm,,0.0,,,8000.0,Mist,9.0,9.0,29.75,,10,,,,,,,,,,,,,,Clear,72000.0,,,,,,,,,
KRDR,10-13-2014,07:28,SPECI,Calm,,0.0,,,4000.0,Mist,9.0,9.0,29.75,,10,,,,,,,,,,,,,,Clear,72000.0,,,,,,,,,
KRDR,10-13-2014,07:23,SPECI,Calm,,0.0,,,2000.0,Mist,9.0,9.0,29.75,,10,,,,,,,,,,,,,,Clear,72000.0,,,,,,,,,
KRDR,10-13-2014,07:18,SPECI,Calm,,0.0,,,2000.0,Mist,9.0,9.0,29.75,,10,,,,,,,,,,,,,,Clear,72000.0,,,,,,,,,
KRDR,10-13-2014,07:13,SPECI,Calm,,0.0,,,4800.0,Mist,9.0,9.0,29.75,,10,,,,,,,,,,,,,,Clear,72000.0,,,,,,,,,
KRDR,10-13-2014,07:08,SPECI,Calm,,0.0,,,9999.0,,9.0,9.0,29.75,,,,,,,,,,,,,,,,Clear,72000.0,,,,,,,,,
KRDR,10-13-2014,07:03,SPECI,Calm,,0.0,,,9999.0,,9.0,9.0,29.75,,,,,,,,,,,,,,,,Clear,72000.0,,,,,,,,,
KRDR,10-13-2014,06:58,METAR,Calm,,0.0,,,9999.0,,9.4,9.4,29.75,1008.2,,,,,,,,,,,,,,,Clear,72000.0,,,,,,,,,
KRDR,10-13-2014,06:03,SPECI,Normal,340,2.0,,,9999.0,,9.0,9.0,29.73,,,,,,,,,,,,,,,,Clear,72000.0,,,,,,,,,
KRDR,10-13-2014,05:58,METAR,Normal,340,3.0,,,9999.0,,9.0,9.0,29.73,1007.5,,,,,,,,,,,TRACE,,.23 IN,,Clear,72000.0,,,,,,,,,
KRDR,10-13-2014,05:55,SPECI,Normal,340,3.0,,,8000.0,Mist,9.0,9.0,29.73,,10,,,,,,,,,,,,,,Clear,72000.0,,,,,,,,,
KRDR,10-13-2014,05:50,SPECI,Normal,350,3.0,,,4000.0,Mist,9.0,9.0,29.73,,10,,,,,,,,,,,,,,Clear,72000.0,,,,,,,,,
KRDR,10-13-2014,05:45,SPECI,Normal,340,2.0,,,4800.0,Mist,9.0,9.0,29.73,,10,,,,,,,,,,,,,,Clear,72000.0,,,,,,,,,
KRDR,10-13-2014,05:40,SPECI,Normal,340,2.0,,,8000.0,Mist,9.0,9.0,29.73,,10,,,,,,,,,,,,,,Clear,72000.0,,,,,,,,,
KRDR,10-13-2014,05:30,SPECI,Normal,330,2.0,,,6400.0,Mist,9.0,9.0,29.72,,10,,,,,,,,,,,,,,Clear,72000.0,,,,,,,,,
KRDR,10-13-2014,05:00,SPECI,Normal,330,2.0,,,9999.0,,9.0,9.0,29.72,,,,,,,,,,,,,,,,Clear,72000.0,,,,,,,,,
KRDR,10-13-2014,04:58,METAR,Normal,330,2.0,,,9999.0,Light Drizzle,9.2,9.2,29.72,,51,,,,,,,,,,.01 IN,,,,2/8 Mostly Clear,72000.0,4500.0,FEW,4500.0,,,,,,
KRDR,10-13-2014,04:51,SPECI,Normal,330,2.0,,,9999.0,Light Drizzle,9.0,9.0,29.72,,51,,,,,,,,,,,,,,2/8 Mostly Clear,72000.0,4500.0,FEW,4500.0,,,,,,
KRDR,10-13-2014,04:48,SPECI,Normal,330,2.0,,,9999.0,,9.0,9.0,29.72,,,,,,,,,,,,,,,,2/8 Mostly Clear,72000.0,4500.0,FEW,4500.0,,,,,,
KRDR,10-13-2014,04:28,SPECI,Normal,300,3.0,,,9999.0,Light Drizzle/Mist,9.0,9.0,29.72,,51,10,,,,,,,,,,,,,2/8 Mostly Clear,72000.0,4200.0,FEW,4200.0,,,,,,
KRDR,10-13-2014,04:18,SPECI,Normal,310,3.0,,,4800.0,Light Drizzle/Mist,9.0,9.0,29.72,,51,10,,,,,,,,,,,,,4/8 Partly Cloudy,72000.0,4200.0,FEW,4200.0,SCT,6500.0,,,,
KRDR,10-13-2014,04:03,SPECI,Normal,310,3.0,,,3200.0,Light Drizzle/Mist,9.0,9.0,29.72,,51,10,,,,,,,,,,,,,,6500.0,3900.0,SCT,3900.0,BKN,6500.0,,,,
KRDR,10-13-2014,03:58,METAR,Variable,,1.0,,,2800.0,Light Drizzle/Mist,9.1,9.1,29.72,,51,10,,,,,,,,,.04 IN,,,,,4300.0,4300.0,BKN,4300.0,OVC,6500.0,,,,
KRDR,10-13-2014,03:48,SPECI,Calm,,0.0,,,2400.0,Light Drizzle/Mist,9.0,9.0,29.72,,51,10,,,,,,,,,,,,,,4600.0,4600.0,OVC,4600.0,,,,,,
KRDR,10-13-2014,03:38,SPECI,Calm,,0.0,,,2000.0,Light Rain/Mist,9.0,9.0,29.72,,61,10,,,,,,,,,,,,,,6000.0,6000.0,OVC,6000.0,,,,,,
KRDR,10-13-2014,03:28,SPECI,Calm,,0.0,,,2400.0,Light Rain/Mist,9.0,9.0,29.72,,61,10,,,,,,,,,,,,,,6000.0,6000.0,OVC,6000.0,,,,,,
KRDR,10-13-2014,03:23,SPECI,Calm,,0.0,,,2800.0,Light Rain/Mist,9.0,9.0,29.72,,61,10,,,,,,,,,,,,,,6000.0,6000.0,OVC,6000.0,,,,,,
KRDR,10-13-2014,03:13,SPECI,Calm,,0.0,,,4000.0,Light Rain/Mist,9.0,9.0,29.72,,61,10,,,,,,,,,,,,,,6000.0,6000.0,OVC,6000.0,,,,,,
KRDR,10-13-2014,03:08,SPECI,Calm,,0.0,,,4800.0,Light Rain/Mist,9.0,9.0,29.72,,61,10,,,,,,,,,,,,,,6000.0,6000.0,OVC,6000.0,,,,,,
KRDR,10-13-2014,02:58,METAR,Calm,,0.0,,,6400.0,Light Rain/Mist,9.5,9.5,29.72,1007.3,61,10,,,,,,,,,.06 IN,.18 IN,,,,6000.0,6000.0,OVC,6000.0,,,,,,
KRDR,10-13-2014,02:38,SPECI,Calm,,0.0,,,8000.0,Light Rain/Mist,10.0,10.0,29.71,,61,10,,,,,,,,,,,,,,6000.0,6000.0,OVC,6000.0,,,,,,
KRDR,10-13-2014,02:03,SPECI,Calm,,0.0,,,8000.0,Light Rain/Mist,10.0,10.0,29.70,,61,10,,,,,,,,,,,,,,6000.0,5000.0,FEW,5000.0,OVC,6000.0,,,,
KRDR,10-13-2014,01:58,METAR,Calm,,0.0,,,6400.0,Light Rain/Mist,9.6,9.6,29.70,1006.7,61,10,,,,,,,,,.09 IN,,,,,6000.0,4800.0,FEW,4800.0,OVC,6000.0,,,,
KRDR,10-13-2014,01:33,SPECI,Calm,,0.0,,,6400.0,Light Rain/Mist,10.0,10.0,29.70,,61,10,,,,,,,,,,,,,,4500.0,4500.0,OVC,4500.0,,,,,,
KRDR,10-13-2014,00:58,METAR,Calm,,0.0,,,9999.0,Light Rain,9.7,9.7,29.69,1006.3,61,,,,,,,,,,.03 IN,,,,,4600.0,4600.0,OVC,4600.0,,,,,,
KRDR,10-13-2014,00:33,SPECI,Normal,200,3.0,,,9999.0,Light Rain,10.0,10.0,29.69,,61,,,,,,,,,,,,,,,4500.0,4500.0,BKN,4500.0,OVC,7500.0,,,,
KRDR,10-12-2014,23:58,METAR,Normal,230,3.0,,,9999.0,Light Rain,9.9,9.8,29.67,1005.6,61,,,,,,,,,,.03 IN,,.05 IN,,,7000.0,7000.0,OVC,7000.0,,,,,,
KRDR,10-12-2014,22:58,METAR,Normal,210,6.0,,,9999.0,Light Rain,10.1,10.0,29.65,1005.0,61,,,,,,,,,,.02 IN,,,,,6500.0,6500.0,OVC,6500.0,,,,,,
KRDR,10-12-2014,22:22,SPECI,Normal,200,10.0,,,9999.0,Light Drizzle,11.0,10.0,29.64,,51,,,,,,,,,,,,,,,7000.0,7000.0,BKN,7000.0,,,,,,
KRDR,10-12-2014,22:21,SPECI,Normal,200,9.0,,,9999.0,,11.0,10.0,29.64,,,,,,,,,,,,,,,,,7000.0,7000.0,BKN,7000.0,,,,,,
KRDR,10-12-2014,22:02,SPECI,Normal,200,7.0,,,9999.0,Light Drizzle,12.0,8.0,29.63,,51,,,,,,,,,,,,,,4/8 Partly Cloudy,72000.0,6000.0,FEW,6000.0,SCT,7500.0,,,,
KRDR,10-12-2014,21:58,METAR,Normal,190,10.0,,,9999.0,,12.7,8.6,29.63,1004.2,,,,,,,,,,,,,,,4/8 Partly Cloudy,72000.0,8000.0,SCT,8000.0,,,,,,
KRDR,10-12-2014,20:58,METAR,Normal,210,6.0,,,9999.0,,14.1,5.3,29.62,1003.8,,,,,,,,,,,,,,,Clear,72000.0,,,,,,,,,
KRDR,10-12-2014,19:58,METAR,Normal,200,9.0,,,9999.0,,14.3,5.2,29.60,1003.1,,,,,,,,,,,,,,,Clear,72000.0,,,,,,,,,
KRDR,10-12-2014,18:58,METAR,Normal,190,7.0,,,9999.0,,14.2,4.9,29.59,1002.7,,,,,,,,,,,,,,,Clear,72000.0,,,,,,,,,
KRDR,10-12-2014,17:58,METAR,Normal,190,7.0,,,9999.0,,13.5,4.6,29.59,1002.7,,,,,,,,,,,,,TRACE,,Clear,72000.0,,,,,,,,,
KRDR,10-12-2014,16:58,METAR,Normal,210,9.0,,,9999.0,,12.6,4.3,29.59,1002.7,,,,,,,,,,,,,,,2/8 Mostly Clear,72000.0,12000.0,FEW,12000.0,,,,,,
KRDR,10-12-2014,14:58,METAR,Normal,200,10.0,,,9999.0,,9.1,3.3,29.60,1003.1,,,,,,,,,,,,TRACE,,,,7500.0,8000.0,SCT,8000.0,BKN,10000.0,,,,
KRDR,10-12-2014,13:58,METAR,Normal,200,10.0,,,9999.0,,7.8,3.3,29.58,1002.5,,,,,,,,,,,,,,,,10000.0,10000.0,BKN,10000.0,,,,,,
KRDR,10-12-2014,12:58,METAR,Normal,190,12.0,,,9999.0,,8.0,4.0,29.56,1001.8,,,,,,,,,,,TRACE,,,,,8500.0,3900.0,FEW,3900.0,BKN,8600.0,OVC,12000.0,,
KRDR,10-12-2014,12:54,SPECI,Normal,190,12.0,,,9999.0,,8.0,4.0,29.56,,,,,,,,,,,,,,,,,8000.0,6500.0,FEW,6500.0,BKN,8000.0,OVC,12000.0,,
KRDR,10-12-2014,12:38,SPECI,Normal,200,11.0,,,9999.0,Light Rain,8.0,4.0,29.56,,61,,,,,,,,,,,,,,,9000.0,7000.0,SCT,7000.0,BKN,9100.0,,,,
KRDR,10-12-2014,12:25,SPECI,Normal,200,12.0,,,9999.0,,8.0,4.0,29.56,,,,,,,,,,,,,,,,,9000.0,5000.0,FEW,5000.0,SCT,7000.0,BKN,9100.0,,
KRDR,10-12-2014,12:14,SPECI,Normal,200,10.0,,,9999.0,Light Rain,8.0,4.0,29.57,,61,,,,,,,,,,,,,,,12000.0,6000.0,FEW,6000.0,SCT,10000.0,BKN,12000.0,,
KRDR,10-12-2014,11:58,METAR,Normal,190,11.0,,,9999.0,,7.9,3.7,29.56,1001.7,,,,,,,,,,,,,,,,12000.0,8000.0,FEW,8000.0,BKN,12000.0,,,,
KRDR,10-12-2014,10:58,METAR,Normal,200,12.0,,,9999.0,,8.4,3.4,29.57,1002.0,,,,,,,,,,,,,,,,12000.0,12000.0,OVC,12000.0,,,,,,
KRDR,10-12-2014,09:58,METAR,Normal,190,14.0,,,9999.0,,8.8,3.3,29.58,1002.3,,,,,,,,,,,,,,,4/8 Partly Cloudy,72000.0,10000.0,SCT,10000.0,SCT,12000.0,,,,
KRDR,10-12-2014,08:58,METAR,Normal,200,11.0,,,9999.0,,9.1,3.3,29.59,1002.6,,,,,,,,,,,,,,,2/8 Mostly Clear,72000.0,12000.0,FEW,12000.0,,,,,,
KRDR,10-12-2014,07:58,METAR,Normal,190,14.0,,,9999.0,,9.6,3.2,29.60,1003.0,,,,,,,,,,,,,,,2/8 Mostly Clear,72000.0,12000.0,FEW,12000.0,,,,,,
KRDR,10-12-2014,06:58,METAR,Normal,200,12.0,,,9999.0,,10.6,3.2,29.62,1003.6,,,,,,,,,,,,,,,2/8 Mostly Clear,72000.0,12000.0,FEW,12000.0,,,,,,
KRDR,10-12-2014,05:58,METAR,Normal,190,12.0,21.0,,9999.0,,11.8,3.1,29.64,1004.3,,,,,,,,,,,,,,,Clear,72000.0,,,,,,,,,
KRDR,10-12-2014,04:58,METAR,Normal,200,13.0,22.0,,9999.0,,12.3,3.0,29.65,1004.7,,,,,,,,,,,,,,,Clear,72000.0,,,,,,,,,
KRDR,10-12-2014,03:58,METAR,Normal,200,16.0,,/  KTS,9999.0,,12.4,2.7,29.67,1005.5,,,,,,,,,,,,,,,Clear,72000.0,,,,,,,,,
KRDR,10-12-2014,02:58,METAR,Normal,200,17.0,24.0,,9999.0,,13.4,2.7,29.68,1005.9,,,,,,,,,,,,,,,Clear,72000.0,,,,,,,,,
KRDR,10-12-2014,01:58,METAR,Normal,190,16.0,22.0,,9999.0,,13.9,2.6,29.70,1006.5,,,,,,,,,,,,,,,Clear,72000.0,,,,,,,,,
KRDR,10-12-2014,00:58,METAR,Normal,190,14.0,,,9999.0,,14.2,2.3,29.71,1007.0,,,,,,,,,,,,,,,Clear,72000.0,,,,,,,,,
KRDR,10-11-2014,23:58,METAR,Normal,180,14.0,22.0,,9999.0,,15.5,1.9,29.73,1007.6,,,,,,,,,,,,,,,Clear,72000.0,,,,,,,,,
KRDR,10-11-2014,22:58,METAR,Normal,190,18.0,28.0,,9999.0,,17.2,1.8,29.75,1008.3,,,,,,,,,,,,,,,Clear,72000.0,,,,,,,,,
KRDR,10-11-2014,21:58,METAR,Normal,190,22.0,31.0,,9999.0,,17.8,1.1,29.77,1008.9,,,,,,,,,,,,,,,Clear,72000.0,,,,,,,,,
KRDR,10-11-2014,20:58,METAR,Normal,200,23.0,31.0,,9999.0,,17.8,0.4,29.81,1010.2,,,,,,,,,,,,,,,Clear,72000.0,,,,,,,,,
KRDR,10-11-2014,19:58,METAR,Normal,200,22.0,29.0,,9999.0,,17.7,-0.5,29.85,1011.6,,,,,,,,,,,,,,,Clear,72000.0,,,,,,,,,
KRDR,10-11-2014,18:58,METAR,Normal,200,22.0,30.0,,9999.0,,16.6,-1.4,29.90,1013.4,,,,,,,,,,,,,,,Clear,72000.0,,,,,,,,,
KRDR,10-11-2014,17:58,METAR,Normal,190,22.0,29.0,,9999.0,,15.5,-1.8,29.94,1014.8,,,,,,,,,,,,,,,Clear,72000.0,,,,,,,,,
KRDR,10-11-2014,16:58,METAR,Normal,200,23.0,29.0,,9999.0,,14.0,-1.5,29.97,1015.9,,,,,,,,,,,,,,,Clear,72000.0,,,,,,,,,
KRDR,10-11-2014,15:58,METAR,Normal,210,14.0,,,9999.0,,11.5,-0.7,30.01,1017.4,,,,,,,,,,,,,,,Clear,72000.0,,,,,,,,,
KRDR,10-11-2014,14:58,METAR,Normal,210,13.0,,,9999.0,,8.5,-1.1,30.03,1018.1,,,,,,,,,,,,,,,Clear,72000.0,,,,,,,,,
KRDR,10-11-2014,13:58,METAR,Normal,210,7.0,,,9999.0,,6.5,-1.7,30.05,1018.8,,,,,,,,,,,,,,,Clear,72000.0,,,,,,,,,
KRDR,10-11-2014,12:58,METAR,Normal,220,7.0,,,9999.0,,3.3,-1.9,30.05,1019.0,,,,,,,,,,,,,,,Clear,72000.0,,,,,,,,,
KRDR,10-11-2014,11:58,METAR,Normal,230,7.0,,,9999.0,,3.9,-2.0,30.06,1019.1,,,,,,,,,,,,,,,Clear,72000.0,,,,,,,,,
KRDR,10-11-2014,10:58,METAR,Normal,230,8.0,,,9999.0,,4.8,-2.0,30.07,1019.2,,,,,,,,,,,,,,,Clear,72000.0,,,,,,,,,
KRDR,10-11-2014,09:58,METAR,Normal,230,7.0,,,9999.0,,4.3,-1.6,30.08,1019.6,,,,,,,,,,,,,,,Clear,72000.0,,,,,,,,,
KRDR,10-11-2014,08:58,METAR,Normal,230,8.0,,,9999.0,,4.7,-1.5,30.09,1019.9,,,,,,,,,,,,,,,Clear,72000.0,,,,,,,,,
KRDR,10-11-2014,07:58,METAR,Normal,240,7.0,,,9999.0,,4.9,-1.5,30.10,1020.2,,,,,,,,,,,,,,,Clear,72000.0,,,,,,,,,
KRDR,10-11-2014,06:58,METAR,Normal,230,7.0,,,9999.0,,4.6,-1.5,30.11,1020.7,,,,,,,,,,,,,,,Clear,72000.0,,,,,,,,,
KRDR,10-11-2014,05:58,METAR,Normal,220,7.0,,,9999.0,,2.8,-1.6,30.11,1020.8,,,,,,,,,,,,,,,Clear,72000.0,,,,,,,,,
KRDR,10-11-2014,04:58,METAR,Normal,220,5.0,,,9999.0,,3.2,-1.7,30.12,1021.2,,,,,,,,,,,,,,,Clear,72000.0,,,,,,,,,
KRDR,10-11-2014,03:58,METAR,Normal,220,5.0,,,9999.0,,2.2,-1.7,30.13,1021.6,,,,,,,,,,,,,,,Clear,72000.0,,,,,,,,,
KRDR,10-11-2014,02:58,METAR,Normal,210,7.0,,,9999.0,,3.6,-1.8,30.13,1021.6,,,,,,,,,,,,,,,Clear,72000.0,,,,,,,,,
KRDR,10-11-2014,02:23,SPECI,Normal,180,4.0,,,9999.0,,4.0,-1.0,30.14,,,,,,,,,,,,,,,,Clear,72000.0,,,,,,,,,
KRDR,10-11-2014,02:08,SPECI,Normal,210,5.0,,,9999.0,,4.0,-1.0,30.14,,,,,,,,,,,,,,,,Clear,72000.0,,,,,,,,,
KRDR,10-11-2014,01:58,METAR,Normal,200,4.0,,,9999.0,,3.7,-1.3,30.14,1022.2,,,,,,,,,,,,,,,Clear,72000.0,,,,,,,,,
KRDR,10-11-2014,01:48,SPECI,Normal,210,5.0,,,9999.0,,3.0,-1.0,30.15,,,,,,,,,,,,,,,,Clear,72000.0,,,,,,,,,
KRDR,10-11-2014,01:18,SPECI,Normal,200,5.0,,,9999.0,,4.0,-1.0,30.15,,,,,,,,,,,,,,,,2/8 Mostly Clear,72000.0,8000.0,FEW,8000.0,,,,,,
KRDR,10-11-2014,00:58,METAR,Normal,180,6.0,,,9999.0,,4.9,-0.9,30.15,1022.7,,,,,,,,,,,,,,,Clear,72000.0,,,,,,,,,
KRDR,10-10-2014,23:58,METAR,Normal,200,3.0,,,9999.0,,9.5,-0.2,30.16,1022.9,,,,,,,,,,,,,,,4/8 Partly Cloudy,72000.0,9000.0,SCT,9100.0,,,,,,
KRDR,10-10-2014,22:58,METAR,Normal,270,1.0,,,9999.0,,13.6,-1.3,30.17,1023.1,,,,,,,,,,,,,,,4/8 Partly Cloudy,72000.0,8500.0,SCT,8600.0,,,,,,
KRDR,10-10-2014,21:58,METAR,Normal,290,6.0,,,9999.0,Haze Smoke or Dust,14.1,-1.4,30.19,1023.7,05,,,,,,,,,,,,,,Clear,72000.0,,,,,,,,,
KRDR,10-10-2014,20:58,METAR,Normal,260,3.0,,,9999.0,,13.8,-1.2,30.20,1024.0,,,,,,,,,,,,,,,Clear,72000.0,,,,,,,,,
KRDR,10-10-2014,19:58,METAR,Normal,270,7.0,,,9999.0,,13.5,-0.7,30.22,1024.7,,,,,,,,,,,,,,,Clear,72000.0,,,,,,,,,
KRDR,10-10-2014,18:58,METAR,Variable,,4.0,,,9999.0,,12.2,1.0,30.24,1025.4,,,,,,,,,,,,,,,Clear,72000.0,,,,,,,,,
KRDR,10-10-2014,17:58,METAR,Variable,,5.0,,,9999.0,,10.9,0.3,30.27,1026.4,,,,,,,,,,,,,,,Clear,72000.0,,,,,,,,,
KRDR,10-10-2014,16:58,METAR,Variable,,3.0,,,9999.0,,8.9,0.3,30.29,1027.2,,,,,,,,,,,,,,,Clear,72000.0,,,,,,,,,
KRDR,10-10-2014,15:58,METAR,Variable,,3.0,,,9999.0,,6.6,0.5,30.30,1027.6,,,,,,,,,,,,,,,Clear,72000.0,,,,,,,,,
KRDR,10-10-2014,14:58,METAR,Calm,,0.0,,,9999.0,,4.3,1.0,30.30,1027.6,,,,,,,,,,,,,,,Clear,72000.0,,,,,,,,,
KRDR,10-10-2014,13:58,METAR,Calm,,0.0,,,9999.0,,-1.1,-1.4,30.29,1027.4,,,,,,,,,,,,,,,Clear,72000.0,,,,,,,,,
KRDR,10-10-2014,12:58,METAR,Normal,250,2.0,,,9999.0,,-4.6,-4.9,30.29,1027.6,,,,,,,,,,,,,,,Clear,72000.0,,,,,,,,,
KRDR,10-10-2014,11:58,METAR,Normal,260,4.0,,,9999.0,,-5.0,-5.2,30.29,1027.4,,,,,,,,,,,,,,,Clear,72000.0,,,,,,,,,
KRDR,10-10-2014,10:58,METAR,Normal,270,2.0,,,9999.0,,-5.6,-5.8,30.30,1027.6,,,,,,,,,,,,,,,Clear,72000.0,,,,,,,,,
KRDR,10-10-2014,09:58,METAR,Normal,320,2.0,,,9999.0,,-5.3,-5.5,30.29,1027.2,,,,,,,,,,,,,,,Clear,72000.0,,,,,,,,,
KRDR,10-10-2014,08:58,METAR,Normal,280,2.0,,,9999.0,,-5.1,-5.3,30.29,1027.2,,,,,,,,,,,,,,,Clear,72000.0,,,,,,,,,
KRDR,10-10-2014,07:58,METAR,Normal,280,3.0,,,9999.0,,-4.7,-4.9,30.29,1027.2,,,,,,,,,,,,,,,Clear,72000.0,,,,,,,,,
KRDR,10-10-2014,06:58,METAR,Normal,320,3.0,,,9999.0,,-4.4,-4.7,30.28,1026.9,,,,,,,,,,,,,,,Clear,72000.0,,,,,,,,,
KRDR,10-10-2014,05:58,METAR,Normal,30,5.0,,,9999.0,,-1.9,-2.6,30.29,1027.1,,,,,,,,,,,,,,,Clear,72000.0,,,,,,,,,
KRDR,10-10-2014,04:58,METAR,Normal,340,3.0,,,9999.0,,-3.3,-3.8,30.28,1026.9,,,,,,,,,,,,,,,Clear,72000.0,,,,,,,,,
KRDR,10-10-2014,03:58,METAR,Normal,290,2.0,,,9999.0,,-2.5,-3.5,30.26,1026.3,,,,,,,,,,,,,,,Clear,72000.0,,,,,,,,,
KRDR,10-10-2014,02:58,METAR,Calm,,0.0,,,9999.0,,-0.6,-3.1,30.26,1026.3,,,,,,,,,,,,,,,Clear,72000.0,,,,,,,,,
KRDR,10-10-2014,01:58,METAR,Normal,290,2.0,,,9999.0,,-0.2,-2.2,30.26,1026.4,,,,,,,,,,,,,,,Clear,72000.0,,,,,,,,,
KRDR,10-10-2014,00:58,METAR,Calm,,0.0,,,9999.0,,1.4,-2.0,30.25,1026.1,,,,,,,,,,,,,,,Clear,72000.0,,,,,,,,,
KRDR,10-09-2014,23:58,METAR,Normal,20,5.0,,,9999.0,,6.1,-2.0,30.24,1025.6,,,,,,,,,,,,,,,Clear,72000.0,,,,,,,,,
KRDR,10-09-2014,22:58,METAR,Normal,330,7.0,,,9999.0,,9.7,-2.6,30.23,1025.1,,,,,,,,,,,,,,,Clear,72000.0,,,,,,,,,
KRDR,10-09-2014,21:58,METAR,Normal,330,8.0,,,9999.0,,10.7,-2.3,30.23,1025.1,,,,,,,,,,,,,,,Clear,72000.0,,,,,,,,,
KRDR,10-09-2014,20:58,METAR,Normal,360,9.0,,,9999.0,,10.9,-1.9,30.23,1025.0,,,,,,,,,,,,,,,Clear,72000.0,,,,,,,,,
KRDR,10-09-2014,19:58,METAR,Normal,20,8.0,,,9999.0,,10.7,-1.1,30.25,1025.7,,,,,,,,,,,,,,,2/8 Mostly Clear,72000.0,4200.0,FEW,4200.0,,,,,,
KRDR,10-09-2014,18:58,METAR,Normal,330,7.0,15.0,,9999.0,,9.4,-0.8,30.26,1026.1,,,,,,,,,,,,,,,2/8 Mostly Clear,72000.0,3900.0,FEW,3900.0,,,,,,
KRDR,10-09-2014,17:58,METAR,Variable,350,7.0,,,9999.0,,9.0,-0.2,30.26,1026.2,,,,,,,,,,,,,,,2/8 Mostly Clear,72000.0,3300.0,FEW,3300.0,,,,,,
KRDR,10-09-2014,16:58,METAR,Normal,10,8.0,,,9999.0,,7.6,0.1,30.27,1026.5,,,,,,,,,,,,,,,Clear,72000.0,,,,,,,,,
KRDR,10-09-2014,15:58,METAR,Normal,20,8.0,,,9999.0,,6.1,0.6,30.26,1026.2,,,,,,,,,,,,,,,Clear,72000.0,,,,,,,,,
KRDR,10-09-2014,14:58,METAR,Normal,10,8.0,,,9999.0,,3.7,0.8,30.25,1025.9,,,,,,,,,,,,,,,Clear,72000.0,,,,,,,,,
KRDR,10-09-2014,13:58,METAR,Normal,340,6.0,,,9999.0,,0.7,-0.8,30.23,1025.4,,,,,,,,,,,,,,,Clear,72000.0,,,,,,,,,
KRDR,10-09-2014,12:58,METAR,Normal,330,4.0,,,9999.0,,-2.7,-3.4,30.22,1025.0,,,,,,,,,,,,,,,Clear,72000.0,,,,,,,,,
KRDR,10-09-2014,11:58,METAR,Normal,330,5.0,,,9999.0,,-2.0,-2.8,30.21,1024.6,,,,,,,,,,,,,,,Clear,72000.0,,,,,,,,,
KRDR,10-09-2014,10:58,METAR,Normal,320,5.0,,,9999.0,,-2.3,-2.7,30.20,1024.1,,,,,,,,,,,,,,,Clear,72000.0,,,,,,,,,
KRDR,10-09-2014,09:58,METAR,Normal,310,6.0,,,9999.0,,-3.6,-3.8,30.18,1023.4,,,,,,,,,,,,,,,Clear,72000.0,,,,,,,,,
KRDR,10-09-2014,08:58,METAR,Normal,330,5.0,,,9999.0,,-2.3,-2.9,30.18,1023.3,,,,,,,,,,,,,,,Clear,72000.0,,,,,,,,,
KRDR,10-09-2014,07:58,METAR,Normal,320,4.0,,,9999.0,,-1.9,-2.7,30.18,1023.3,,,,,,,,,,,,,,,Clear,72000.0,,,,,,,,,
KRDR,10-09-2014,06:58,METAR,Normal,300,5.0,,,9999.0,,-2.4,-2.8,30.17,1023.1,,,,,,,,,,,,,,,Clear,72000.0,,,,,,,,,
KRDR,10-09-2014,05:58,METAR,Normal,300,4.0,,,9999.0,,-3.0,-3.7,30.17,1023.1,,,,,,,,,,,,,,,Clear,72000.0,,,,,,,,,
KRDR,10-09-2014,04:58,METAR,Normal,300,3.0,,,9999.0,,-1.6,-3.2,30.16,1022.8,,,,,,,,,,,,,,,Clear,72000.0,,,,,,,,,
KRDR,10-09-2014,03:58,METAR,Normal,10,6.0,,,9999.0,,0.0,-2.9,30.14,1022.1,,,,,,,,,,,,,,,Clear,72000.0,,,,,,,,,
KRDR,10-09-2014,02:58,METAR,Normal,340,4.0,,,9999.0,,-1.0,-3.2,30.12,1021.6,,,,,,,,,,,,,,,Clear,72000.0,,,,,,,,,
KRDR,10-09-2014,01:58,METAR,Normal,340,2.0,,,9999.0,,-0.5,-3.1,30.11,1021.2,,,,,,,,,,,,,,,Clear,72000.0,,,,,,,,,
KRDR,10-09-2014,00:58,METAR,Normal,30,3.0,,,9999.0,,1.8,-3.1,30.08,1020.2,,,,,,,,,,,,,,,Clear,72000.0,,,,,,,,,
KRDR,10-08-2014,23:58,METAR,Normal,350,5.0,,,9999.0,,6.3,-3.3,30.06,1019.5,,,,,,,,,,,,,,,Clear,72000.0,,,,,,,,,
KRDR,10-08-2014,22:58,METAR,Normal,360,9.0,,,9999.0,,9.8,-4.0,30.06,1019.4,,,,,,,,,,,,,,,Clear,72000.0,,,,,,,,,
KRDR,10-08-2014,21:58,METAR,Normal,330,6.0,,,9999.0,,10.5,-3.8,30.06,1019.3,,,,,,,,,,,,,,,Clear,72000.0,,,,,,,,,
KRDR,10-08-2014,20:58,METAR,Normal,340,8.0,,,9999.0,,10.9,-3.6,30.06,1019.2,,,,,,,,,,,,,,,Clear,72000.0,,,,,,,,,
KRDR,10-08-2014,19:58,METAR,Normal,320,12.0,,,9999.0,,10.5,-3.8,30.07,1019.6,,,,,,,,,,,,,,,Clear,72000.0,,,,,,,,,
KRDR,10-08-2014,18:58,METAR,Normal,340,10.0,15.0,,9999.0,,9.7,-3.3,30.07,1019.6,,,,,,,,,,,,,,,Clear,72000.0,,,,,,,,,
KRDR,10-08-2014,17:58,METAR,Normal,340,11.0,15.0,,9999.0,,8.8,-2.8,30.08,1020.0,,,,,,,,,,,,,,,Clear,72000.0,,,,,,,,,
KRDR,10-08-2014,16:58,METAR,Normal,360,12.0,20.0,,9999.0,,7.8,-2.2,30.07,1019.6,,,,,,,,,,,,,,,Clear,72000.0,,,,,,,,,
KRDR,10-08-2014,15:58,METAR,Normal,360,11.0,,,9999.0,,6.2,-1.5,30.06,1019.3,,,,,,,,,,,,,,,Clear,72000.0,,,,,,,,,
KRDR,10-08-2014,14:58,METAR,Normal,330,6.0,,,9999.0,,3.2,-0.1,30.05,1018.9,,,,,,,,,,,,,,,Clear,72000.0,,,,,,,,,
KRDR,10-08-2014,13:58,METAR,Normal,340,9.0,,,9999.0,,1.5,0.1,30.01,1017.5,,,,,,,,,,,,,,,Clear,72000.0,,,,,,,,,
KRDR,10-08-2014,12:58,METAR,Normal,320,8.0,,,9999.0,,-1.2,-1.7,29.99,1016.9,,,,,,,,,,,,,,,Clear,72000.0,,,,,,,,,
KRDR,10-08-2014,11:58,METAR,Normal,310,7.0,,,9999.0,,-2.7,-3.1,29.97,1016.2,,,,,,,,,,,,,,,Clear,72000.0,,,,,,,,,
KRDR,10-08-2014,10:58,METAR,Normal,280,4.0,,,9999.0,,-4.1,-4.5,29.95,1015.6,,,,,,,,,,,,,,,Clear,72000.0,,,,,,,,,
KRDR,10-08-2014,09:58,METAR,Normal,290,4.0,,,9999.0,,-3.3,-3.9,29.93,1014.8,,,,,,,,,,,,,,,Clear,72000.0,,,,,,,,,
KRDR,10-08-2014,08:58,METAR,Normal,320,5.0,,,9999.0,,-1.3,-2.4,29.92,1014.4,,,,,,,,,,,,,,,Clear,72000.0,,,,,,,,,
KRDR,10-08-2014,07:58,METAR,Normal,300,4.0,,,9999.0,,-2.1,-2.5,29.91,1014.0,,,,,,,,,,,,,,,Clear,72000.0,,,,,,,,,
KRDR,10-08-2014,06:58,METAR,Normal,290,3.0,,,9999.0,,-1.6,-2.0,29.89,,,,,,,,,,,,,,,,2/8 Mostly Clear,72000.0,8500.0,FEW,8600.0,,,,,,
KRDR,10-08-2014,05:58,METAR,Calm,,0.0,,,9999.0,,-1.1,-2.0,29.87,,,,,,,,,,,,,,,,4/8 Partly Cloudy,72000.0,9000.0,SCT,9100.0,,,,,,
KRDR,10-08-2014,04:58,METAR,Normal,360,2.0,,,9999.0,,-1.0,-2.2,29.86,1012.4,,,,,,,,,,,,,,,Clear,72000.0,,,,,,,,,
KRDR,10-08-2014,03:58,METAR,Normal,320,4.0,,,9999.0,,2.3,-1.0,29.86,1012.3,,,,,,,,,,,,,,,2/8 Mostly Clear,72000.0,8000.0,FEW,8000.0,,,,,,
KRDR,10-08-2014,02:58,METAR,Normal,10,11.0,,,9999.0,,6.6,-0.9,29.84,1011.5,,,,,,,,,,,,,,,,9000.0,9000.0,BKN,9100.0,,,,,,
KRDR,10-08-2014,01:58,METAR,Normal,310,6.0,,,9999.0,,8.3,-0.1,29.80,1010.2,,,,,,,,,,,,,,,,7500.0,7500.0,BKN,7500.0,BKN,9100.0,,,,
KRDR,10-08-2014,00:58,METAR,Normal,330,6.0,,,9999.0,,7.7,-1.2,29.80,1010.2,,,,,,,,,,,,,,,2/8 Mostly Clear,72000.0,9000.0,FEW,9100.0,,,,,,
KRDR,10-07-2014,23:58,METAR,Normal,340,7.0,,310/29KTS,9999.0,,10.4,-1.6,29.77,1009.1,,,,,,,,,,,,,,,4/8 Partly Cloudy,72000.0,6500.0,SCT,6500.0,SCT,8000.0,,,,
KRDR,10-07-2014,22:58,METAR,Normal,340,16.0,24.0,300/29KTS,9999.0,,12.2,-3.4,29.75,1008.3,,,,,,,,,,,,,,,2/8 Mostly Clear,72000.0,7000.0,FEW,7000.0,,,,,,
KRDR,10-07-2014,21:58,METAR,Normal,340,20.0,29.0,/  KTS,9999.0,,12.6,-7.2,29.74,1008.0,,,,,,,,,,,,,,,Clear,72000.0,,,,,,,,,
KRDR,10-07-2014,20:58,METAR,Normal,340,25.0,32.0,/  KTS,9999.0,,12.7,-9.3,29.72,1007.3,,,,,,,,,,,,,,,Clear,72000.0,,,,,,,,,
KRDR,10-07-2014,19:58,METAR,Normal,330,18.0,25.0,,9999.0,,12.9,-6.9,29.70,1006.7,,,,,,,,,,,,,,,2/8 Mostly Clear,72000.0,6000.0,FEW,6000.0,,,,,,
KRDR,10-07-2014,18:58,METAR,Normal,320,18.0,22.0,340/27KTS,9999.0,,12.0,-3.0,29.69,,,,,,,,,,,,,,,,2/8 Mostly Clear,72000.0,6000.0,FEW,6000.0,,,,,,
KRDR,10-07-2014,17:58,METAR,Normal,,,,350/30KTS,,,,,,,,,,,,,,,,,,,,,4/8 Partly Cloudy,72000.0,5000.0,SCT,5000.0,,,,,,
KRDR,10-07-2014,16:58,METAR,Normal,350,19.0,28.0,330/30KTS,9999.0,,10.0,-2.0,29.67,1005.9,,,,,,,,,,,,,,,2/8 Mostly Clear,72000.0,4800.0,FEW,4800.0,,,,,,
KRDR,10-07-2014,14:58,METAR,Variable,360,14.0,19.0,,9999.0,,8.0,1.0,29.63,1004.4,,,,,,,,,,,,,,,2/8 Mostly Clear,72000.0,4700.0,FEW,4700.0,,,,,,
KRDR,10-07-2014,13:58,METAR,Normal,330,10.0,17.0,,9999.0,,7.0,1.6,29.60,1003.5,,,,,,,,,,,,,,,2/8 Mostly Clear,72000.0,7500.0,FEW,7500.0,,,,,,
KRDR,10-07-2014,12:58,METAR,Normal,330,14.0,19.0,,9999.0,,6.5,1.5,29.56,1002.0,,,,,,,,,,,,,,,2/8 Mostly Clear,72000.0,6000.0,FEW,6000.0,,,,,,
KRDR,10-07-2014,11:58,METAR,Normal,320,9.0,,,9999.0,,6.1,2.6,29.54,1001.4,,,,,,,,,,,,,,,2/8 Mostly Clear,72000.0,3600.0,FEW,3600.0,,,,,,
KRDR,10-07-2014,10:58,METAR,Normal,320,8.0,,,9999.0,,6.9,3.2,29.51,1000.2,,,,,,,,,,,,,,,,4800.0,3500.0,SCT,3500.0,BKN,4800.0,,,,
KRDR,10-07-2014,09:58,METAR,Normal,300,9.0,,,9999.0,,6.3,3.8,29.48,999.2,,,,,,,,,,,,,,,Clear,72000.0,,,,,,,,,
KRDR,10-07-2014,08:58,METAR,Normal,310,8.0,,,9999.0,,5.7,1.9,29.45,998.1,,,,,,,,,,,,,,,2/8 Mostly Clear,72000.0,11000.0,FEW,11000.0,,,,,,
KRDR,10-07-2014,07:58,METAR,Normal,300,8.0,,,9999.0,,3.0,0.2,29.45,998.1,,,,,,,,,,,,,,,2/8 Mostly Clear,72000.0,11000.0,FEW,11000.0,,,,,,
KRDR,10-07-2014,06:58,METAR,Normal,250,2.0,,,9999.0,,0.8,-0.7,29.44,998.0,,,,,,,,,,,,,,,4/8 Partly Cloudy,72000.0,4400.0,SCT,4400.0,SCT,5000.0,,,,
KRDR,10-07-2014,05:58,METAR,Normal,210,5.0,,,9999.0,,0.2,-2.0,29.44,997.9,,,,,,,,,,,,,,,4/8 Partly Cloudy,72000.0,4800.0,SCT,4800.0,,,,,,
KRDR,10-07-2014,04:58,METAR,Normal,230,2.0,,,9999.0,,-0.2,-2.4,29.43,997.6,,,,,,,,,,,,,,,Clear,72000.0,,,,,,,,,
KRDR,10-07-2014,03:58,METAR,Normal,230,3.0,,,9999.0,,0.5,-1.5,29.43,997.7,,,,,,,,,,,,,,,Clear,72000.0,,,,,,,,,
KRDR,10-07-2014,02:58,METAR,Normal,150,3.0,,,9999.0,,5.0,-1.0,29.44,997.9,,,,,,,,,,,,,,,,7500.0,7500.0,OVC,7500.0,,,,,,
KRDR,10-07-2014,01:58,METAR,Normal,70,2.0,,,9999.0,,5.1,-1.6,29.45,998.4,,,,,,,,,,,,,,,,6500.0,6500.0,BKN,6500.0,BKN,7500.0,,,,
KRDR,10-07-2014,00:58,METAR,Normal,80,3.0,,,9999.0,,6.9,-1.7,29.45,998.4,,,,,,,,,,,,,,,,6500.0,6500.0,OVC,6500.0,,,,,,
KRDR,10-06-2014,23:58,METAR,Normal,70,8.0,,,9999.0,,8.2,-2.8,29.42,997.3,,,,,,,,,,,,,,,,6500.0,6500.0,BKN,6500.0,,,,,,
KRDR,10-06-2014,22:58,METAR,Normal,20,10.0,,,9999.0,,10.6,-5.6,29.41,996.9,,,,,,,,,,,,,,,,6500.0,6500.0,OVC,6500.0,,,,,,
KRDR,10-06-2014,21:58,METAR,Normal,360,12.0,22.0,,9999.0,,12.0,-6.3,29.38,995.9,,,,,,,,,,,,,,,,7000.0,7000.0,BKN,7000.0,,,,,,
KRDR,10-06-2014,20:58,METAR,Normal,330,15.0,25.0,330/29KTS,9999.0,,12.9,-6.2,29.36,995.1,,,,,,,,,,,,,,,,9000.0,9000.0,BKN,9100.0,,,,,,
KRDR,10-06-2014,19:58,METAR,Normal,330,19.0,27.0,320/30KTS,9999.0,,14.0,-4.3,29.34,994.4,,,,,,,,,,,,,,,2/8 Mostly Clear,72000.0,12000.0,FEW,12000.0,,,,,,
KRDR,10-06-2014,18:58,METAR,Normal,320,22.0,28.0,,9999.0,,12.4,-8.0,29.35,994.8,,,,,,,,,,,,,,,Clear,72000.0,,,,,,,,,
KRDR,10-06-2014,17:58,METAR,Normal,330,18.0,30.0,,9999.0,,13.9,-5.0,29.35,994.7,,,,,,,,,,,,,,,Clear,72000.0,,,,,,,,,
KRDR,10-06-2014,16:58,METAR,Normal,330,20.0,26.0,,9999.0,,12.6,-2.4,29.36,995.1,,,,,,,,,,,,,,,Clear,72000.0,,,,,,,,,
KRDR,10-06-2014,15:58,METAR,Normal,320,18.0,27.0,,9999.0,,10.8,0.7,29.36,995.1,,,,,,,,,,,,,,,Clear,72000.0,,,,,,,,,
KRDR,10-06-2014,14:58,METAR,Normal,320,15.0,26.0,,9999.0,,9.3,1.8,29.37,995.6,,,,,,,,,,,,,,,Clear,72000.0,,,,,,,,,
KRDR,10-06-2014,13:58,METAR,Normal,280,10.0,,,9999.0,,6.4,4.7,29.38,995.9,,,,,,,,,,,,,,,Clear,72000.0,,,,,,,,,
KRDR,10-06-2014,12:58,METAR,Normal,260,8.0,,,9999.0,,2.7,2.5,29.40,996.7,,,,,,,,,,,,,,,Clear,72000.0,,,,,,,,,
KRDR,10-06-2014,11:58,METAR,Normal,270,11.0,,,9999.0,,2.5,2.4,29.42,997.3,,,,,,,,,,,,,,,Clear,72000.0,,,,,,,,,
KRDR,10-06-2014,10:58,METAR,Normal,280,8.0,,,9999.0,,2.8,2.0,29.43,997.6,,,,,,,,,,,,,,,Clear,72000.0,,,,,,,,,
KRDR,10-06-2014,09:58,METAR,Normal,280,9.0,,,9999.0,,2.3,0.8,29.45,998.3,,,,,,,,,,,,,,,Clear,72000.0,,,,,,,,,
KRDR,10-06-2014,08:58,METAR,Normal,300,9.0,16.0,,9999.0,,3.0,0.4,29.46,998.6,,,,,,,,,,,,,,,Clear,72000.0,,,,,,,,,
KRDR,10-06-2014,07:58,METAR,Normal,300,8.0,,,9999.0,,3.4,0.1,29.47,998.9,,,,,,,,,,,,,,,2/8 Mostly Clear,72000.0,9000.0,FEW,9100.0,,,,,,
KRDR,10-06-2014,06:58,METAR,Normal,310,11.0,,,9999.0,,4.0,-0.5,29.48,999.2,,,,,,,,,,,,,,,Clear,72000.0,,,,,,,,,
KRDR,10-06-2014,05:58,METAR,Normal,310,11.0,,,9999.0,,5.1,-3.9,29.50,999.9,,,,,,,,,,,,,,,,10000.0,10000.0,BKN,10000.0,,,,,,
KRDR,10-06-2014,04:58,METAR,Normal,320,11.0,20.0,,9999.0,,5.3,-5.7,29.51,1000.3,,,,,,,,,,,,,,,2/8 Mostly Clear,72000.0,7000.0,FEW,7000.0,,,,,,
KRDR,10-06-2014,03:58,METAR,Normal,310,12.0,,,9999.0,,5.5,-5.8,29.52,1000.7,,,,,,,,,,,,,,,2/8 Mostly Clear,72000.0,10000.0,FEW,10000.0,,,,,,
KRDR,10-06-2014,02:58,METAR,Normal,310,9.0,,,9999.0,,5.4,-5.5,29.53,1001.1,,,,,,,,,,,,,,,Clear,72000.0,,,,,,,,,
KRDR,10-06-2014,01:58,METAR,Normal,320,9.0,,,9999.0,,6.3,-5.7,29.54,1001.4,,,,,,,,,,,,,,,Clear,72000.0,,,,,,,,,
KRDR,10-06-2014,00:58,METAR,Normal,320,9.0,,,9999.0,,7.0,-6.4,29.54,1001.4,,,,,,,,,,,,,,,Clear,72000.0,,,,,,,,,
KRDR,10-05-2014,23:58,METAR,Normal,330,10.0,19.0,,9999.0,,8.5,-7.7,29.53,1001.1,,,,,,,,,,,,,,,Clear,72000.0,,,,,,,,,
KRDR,10-05-2014,22:58,METAR,Normal,330,16.0,27.0,,9999.0,,10.3,-8.7,29.52,1000.7,,,,,,,,,,,,,,,Clear,72000.0,,,,,,,,,
KRDR,10-05-2014,21:58,METAR,Normal,330,18.0,30.0,,9999.0,,11.1,-9.2,29.52,1000.6,,,,,,,,,,,,,,,Clear,72000.0,,,,,,,,,
KRDR,10-05-2014,20:58,METAR,Normal,320,18.0,23.0,,9999.0,,11.6,-7.5,29.51,1000.3,,,,,,,,,,,,,,,Clear,72000.0,,,,,,,,,
KRDR,10-05-2014,19:58,METAR,Normal,330,18.0,23.0,,9999.0,,11.7,-7.1,29.52,1000.5,,,,,,,,,,,,,,,Clear,72000.0,,,,,,,,,
KRDR,10-05-2014,18:58,METAR,Normal,340,15.0,21.0,,9999.0,,10.9,-4.6,29.54,1001.3,,,,,,,,,,,,,,,Clear,72000.0,,,,,,,,,
KRDR,10-05-2014,18:45,SPECI,Normal,350,16.0,23.0,,9999.0,,11.0,-4.0,29.54,,,,,,,,,,,,,,,,2/8 Mostly Clear,72000.0,6000.0,FEW,6000.0,,,,,,
KRDR,10-05-2014,17:58,METAR,Normal,330,14.0,21.0,,9999.0,,10.5,-2.4,29.55,1001.7,,,,,,,,,,,,,,,2/8 Mostly Clear,72000.0,4700.0,FEW,4700.0,,,,,,
KRDR,10-05-2014,16:58,METAR,Normal,340,13.0,22.0,,9999.0,,9.5,-1.3,29.56,1002.0,,,,,,,,,,,,,,,2/8 Mostly Clear,72000.0,4200.0,FEW,4200.0,,,,,,
KRDR,10-05-2014,15:58,METAR,Normal,340,15.0,19.0,,9999.0,,8.2,-1.1,29.58,1002.9,,,,,,,,,,,,,,,Clear,72000.0,,,,,,,,,
KRDR,10-05-2014,14:58,METAR,Normal,330,9.0,,,9999.0,,6.4,-0.4,29.59,1003.3,,,,,,,,,,,,,,,,7000.0,7000.0,BKN,7000.0,,,,,,
KRDR,10-05-2014,13:58,METAR,Normal,320,7.0,,,9999.0,,4.9,0.1,29.60,1003.6,,,,,,,,,,,,,,,,7000.0,7000.0,OVC,7000.0,,,,,,
KRDR,10-05-2014,12:58,METAR,Normal,320,6.0,,,9999.0,,4.4,-0.2,29.61,1004.0,,,,,,,,,,,,,,,,7000.0,7000.0,OVC,7000.0,,,,,,
KRDR,10-05-2014,11:58,METAR,Normal,310,6.0,,,9999.0,,4.4,-0.2,29.62,1004.3,,,,,,,,,,,,,,,,6500.0,6500.0,OVC,6500.0,,,,,,
KRDR,10-05-2014,10:58,METAR,Normal,310,5.0,,,9999.0,,4.3,-0.1,29.62,1004.2,,,,,,,,,,,,,,,,7500.0,7500.0,OVC,7500.0,,,,,,
KRDR,10-05-2014,09:58,METAR,Normal,320,5.0,,,9999.0,,4.5,-0.2,29.61,1003.8,,,,,,,,,,,,,,,,7500.0,7500.0,OVC,7500.0,,,,,,
KRDR,10-05-2014,08:58,METAR,Normal,330,7.0,,,9999.0,,4.4,-0.4,29.62,1004.2,,,,,,,,,,,,,,,,9500.0,9500.0,OVC,9600.0,,,,,,
KRDR,10-05-2014,07:58,METAR,Normal,320,7.0,,,9999.0,,4.5,-0.5,29.63,1004.5,,,,,,,,,,,,,,,,8000.0,8000.0,BKN,8000.0,OVC,10000.0,,,,
KRDR,10-05-2014,06:58,METAR,Normal,310,7.0,,,9999.0,,3.7,-0.5,29.64,1004.9,,,,,,,,,,,,,,,,8000.0,8000.0,OVC,8000.0,,,,,,
KRDR,10-05-2014,05:58,METAR,Normal,300,5.0,,,9999.0,,3.3,-0.8,29.65,1005.2,,,,,,,,,,,,,,,,8000.0,8000.0,OVC,8000.0,,,,,,
KRDR,10-05-2014,04:58,METAR,Normal,300,5.0,,,9999.0,,2.6,-0.7,29.67,1005.9,,,,,,,,,,,,,,,,9000.0,9000.0,BKN,9100.0,OVC,11000.0,,,,
KRDR,10-05-2014,03:58,METAR,Normal,290,4.0,,,9999.0,,2.1,0.1,29.69,1006.7,,,,,,,,,,,,,,,Clear,72000.0,,,,,,,,,
KRDR,10-05-2014,02:58,METAR,Normal,280,4.0,,,9999.0,,0.4,-1.0,29.71,1007.5,,,,,,,,,,,,,,,2/8 Mostly Clear,72000.0,11000.0,FEW,11000.0,,,,,,
KRDR,10-05-2014,01:58,METAR,Normal,340,3.0,,,9999.0,,1.5,-1.5,29.73,1008.2,,,,,,,,,,,,,,,2/8 Mostly Clear,72000.0,12000.0,FEW,12000.0,,,,,,
KRDR,10-05-2014,00:58,METAR,Normal,350,5.0,,,9999.0,,2.1,-1.7,29.75,1008.9,,,,,,,,,,,,,,,Clear,72000.0,,,,,,,,,
KRDR,10-04-2014,23:58,METAR,Normal,330,4.0,,,9999.0,,4.3,-1.7,29.75,1008.9,,,,,,,,,,,,,,,Clear,72000.0,,,,,,,,,
KRDR,10-04-2014,22:58,METAR,Normal,360,6.0,,,9999.0,,5.5,-2.1,29.77,1009.5,,,,,,,,,,,,,,,4/8 Partly Cloudy,72000.0,4400.0,SCT,4400.0,,,,,,
KRDR,10-04-2014,21:58,METAR,Normal,340,8.0,15.0,,9999.0,,6.6,-3.1,29.79,1010.1,,,,,,,,,,,,,,,2/8 Mostly Clear,72000.0,4000.0,FEW,4000.0,,,,,,
KRDR,10-04-2014,20:58,METAR,Normal,350,9.0,,,9999.0,,5.6,-3.2,29.81,1010.8,,,,,,,,,,,,,,,,3700.0,3700.0,OVC,3700.0,,,,,,
KRDR,10-04-2014,19:58,METAR,Normal,330,11.0,,,9999.0,,5.6,-3.1,29.84,1011.7,,,,,,,,,,,,,,,,3600.0,3600.0,OVC,3600.0,,,,,,
KRDR,10-04-2014,18:58,METAR,Normal,320,10.0,20.0,,9999.0,,6.4,-3.1,29.85,1012.1,,,,,,,,,,,,,,,,3900.0,3900.0,OVC,3900.0,,,,,,
KRDR,10-04-2014,18:53,SPECI,Normal,300,14.0,,,9999.0,,6.0,-3.0,29.85,,,,,,,,,,,,,,,,,4000.0,4000.0,OVC,4000.0,,,,,,
KRDR,10-04-2014,17:58,METAR,Normal,330,18.0,21.0,,9999.0,,6.9,-3.6,29.86,1012.3,,,,,,,,,,,,,,,,4100.0,4100.0,OVC,4100.0,,,,,,
KRDR,10-04-2014,16:58,METAR,Normal,350,16.0,19.0,,9999.0,,6.7,-3.9,29.89,1013.4,,,,,,,,,,,,,,,,4100.0,4100.0,BKN,4100.0,,,,,,
KRDR,10-04-2014,15:58,METAR,Normal,340,15.0,20.0,,9999.0,,5.6,-3.2,29.90,1013.8,,,,,,,,,,,,,,,Clear,72000.0,,,,,,,,,
KRDR,10-04-2014,14:58,METAR,Normal,340,11.0,20.0,,9999.0,,3.8,-3.0,29.91,1014.2,,,,,,,,,,,,,,,Clear,72000.0,,,,,,,,,
KRDR,10-04-2014,13:58,METAR,Normal,330,11.0,17.0,,9999.0,,1.6,-2.8,29.91,1014.3,,,,,,,,,,,,,,,Clear,72000.0,,,,,,,,,
KRDR,10-04-2014,12:58,METAR,Normal,330,9.0,,,9999.0,,-0.2,-2.8,29.92,1014.7,,,,,,,,,,,,,,,Clear,72000.0,,,,,,,,,
KRDR,10-04-2014,11:58,METAR,Normal,330,9.0,,,9999.0,,-0.3,-2.8,29.93,1014.9,,,,,,,,,,,,,,,Clear,72000.0,,,,,,,,,
KRDR,10-04-2014,10:58,METAR,Normal,330,9.0,,,9999.0,,0.0,-2.7,29.93,1014.9,,,,,,,,,,,,,,,Clear,72000.0,,,,,,,,,
KRDR,10-04-2014,10:33,SPECI,Normal,330,10.0,,,9999.0,,0.0,-2.0,29.94,,,,,,,,,,,,,,,,4/8 Partly Cloudy,72000.0,2900.0,SCT,2900.0,,,,,,
KRDR,10-04-2014,10:23,SPECI,Normal,320,9.0,,,9999.0,,0.0,-2.0,29.94,,,,,,,,,,,,,,,,,2900.0,2900.0,BKN,2900.0,,,,,,
KRDR,10-04-2014,10:08,SPECI,Normal,330,9.0,,,9999.0,,0.0,-2.0,29.94,,,,,,,,,,,,,,,,4/8 Partly Cloudy,72000.0,2900.0,SCT,2900.0,,,,,,
KRDR,10-04-2014,09:58,METAR,Normal,330,10.0,,,9999.0,,0.8,-2.5,29.94,1015.2,,,,,,,,,,,,,,,,2800.0,2800.0,BKN,2800.0,,,,,,
KRDR,10-04-2014,09:48,SPECI,Normal,330,9.0,,,9999.0,,0.0,-3.0,29.93,,,,,,,,,,,,,,,,,2800.0,2800.0,BKN,2800.0,,,,,,
KRDR,10-04-2014,09:38,SPECI,Normal,330,9.0,,,9999.0,,1.0,-3.0,29.93,,,,,,,,,,,,,,,,4/8 Partly Cloudy,72000.0,2800.0,SCT,2800.0,,,,,,
KRDR,10-04-2014,09:28,SPECI,Normal,330,9.0,,,9999.0,,1.0,-3.0,29.93,,,,,,,,,,,,,,,,,2800.0,2800.0,BKN,2800.0,,,,,,
KRDR,10-04-2014,09:23,SPECI,Normal,340,10.0,,,9999.0,,1.0,-3.0,29.93,,,,,,,,,,,,,,,,4/8 Partly Cloudy,72000.0,2900.0,SCT,2900.0,,,,,,
KRDR,10-04-2014,08:58,METAR,Normal,330,10.0,,,9999.0,,2.3,-2.4,29.94,1015.2,,,,,,,,,,,,,,,,3000.0,3000.0,BKN,3000.0,OVC,7500.0,,,,
KRDR,10-04-2014,07:58,METAR,Normal,340,16.0,23.0,,9999.0,,3.6,-2.6,29.94,1015.1,,,,,,,,,,,,,,,,7000.0,3100.0,SCT,3100.0,OVC,7000.0,,,,
KRDR,10-04-2014,06:58,METAR,Normal,340,15.0,23.0,,9999.0,,3.9,-2.4,29.94,1015.1,,,,,,,,,,,,,,,,6000.0,6000.0,OVC,6000.0,,,,,,
KRDR,10-04-2014,05:58,METAR,Normal,340,13.0,21.0,,9999.0,,3.9,-2.3,29.94,1015.1,,,,,,,,,,,,,,,,6500.0,6500.0,SCT,6500.0,OVC,8000.0,,,,
KRDR,10-04-2014,04:58,METAR,Normal,330,15.0,18.0,,9999.0,,3.7,-2.3,29.95,1015.5,,,,,,,,,,,,,,,,7500.0,7500.0,OVC,7500.0,,,,,,
KRDR,10-04-2014,03:58,METAR,Normal,330,14.0,21.0,,9999.0,,3.7,-2.6,29.96,,,,,,,,,,,,,,,,,8000.0,8000.0,OVC,8000.0,,,,,,
KRDR,10-04-2014,02:58,METAR,Normal,330,16.0,21.0,,9999.0,,3.8,-2.6,29.97,,,,,,,,,,,,,,,,,7500.0,4600.0,SCT,4600.0,OVC,7500.0,,,,
KRDR,10-04-2014,01:58,METAR,Normal,330,12.0,18.0,,9999.0,,3.4,-2.7,29.97,,,,,,,,,,,,,,,,2/8 Mostly Clear,72000.0,5000.0,FEW,5000.0,,,,,,
KRDR,10-04-2014,00:58,METAR,Normal,330,14.0,,,9999.0,,4.1,-3.0,29.96,,,,,,,,,,,,,,,,4/8 Partly Cloudy,72000.0,7500.0,SCT,7500.0,,,,,,
KRDR,10-03-2014,23:58,METAR,Normal,340,16.0,22.0,330/33KTS,9999.0,,5.4,-3.9,29.96,,,,,,,,,,,,TRACE,,TRACE,,,6000.0,6000.0,SCT,6000.0,OVC,8000.0,,,,
KRDR,10-03-2014,23:18,SPECI,Normal,340,23.0,29.0,,9999.0,,6.0,-4.0,29.95,,,,,,,,,,,,,,,,,6000.0,4800.0,SCT,4800.0,BKN,6000.0,,,,
KRDR,10-03-2014,23:15,SPECI,Normal,330,21.0,29.0,,9999.0,Unknown Precipitation,6.0,-4.0,29.95,,40,,,,,,,,,,,,,,,6000.0,4800.0,SCT,4800.0,BKN,6000.0,,,,
KRDR,10-03-2014,22:58,METAR,Normal,340,23.0,30.0,310/33KTS,9999.0,,6.0,-4.2,29.95,1015.5,,,,,,,,,,,TRACE,,,,,6000.0,4800.0,SCT,4800.0,BKN,6000.0,,,,
KRDR,10-03-2014,22:57,SPECI,Normal,340,22.0,30.0,,9999.0,,6.0,-4.0,29.95,,,,,,,,,,,,,,,,,6000.0,4800.0,SCT,4800.0,BKN,6000.0,,,,
KRDR,10-03-2014,22:47,SPECI,Variable,330,20.0,33.0,,9999.0,Unknown Precipitation,6.0,-4.0,29.94,,40,,,,,,,,,,,,,,,6000.0,4800.0,SCT,4800.0,BKN,6000.0,,,,
KRDR,10-03-2014,22:26,SPECI,Normal,340,21.0,30.0,,9999.0,,6.0,-4.0,29.93,,,,,,,,,,,,,,,,,4800.0,4800.0,BKN,4800.0,OVC,6000.0,,,,
KRDR,10-03-2014,22:16,SPECI,Normal,330,20.0,30.0,,9999.0,Unknown Precipitation,7.0,-4.0,29.93,,40,,,,,,,,,,,,,,,4900.0,4900.0,BKN,4900.0,OVC,6000.0,,,,
KRDR,10-03-2014,22:03,SPECI,Normal,330,23.0,31.0,,9999.0,,7.0,-4.0,29.93,,,,,,,,,,,,,,,,,4900.0,4900.0,BKN,4900.0,OVC,6000.0,,,,
KRDR,10-03-2014,21:58,METAR,Normal,330,17.0,33.0,310/35KTS,9999.0,Unknown Precipitation,7.0,-4.0,29.93,1014.7,40,,,,,,,,,,TRACE,,,,,5000.0,5000.0,BKN,5000.0,OVC,6500.0,,,,
KRDR,10-03-2014,21:54,SPECI,Normal,340,24.0,33.0,,9999.0,Unknown Precipitation,7.0,-4.0,29.93,,40,,,,,,,,,,,,,,,5000.0,5000.0,BKN,5000.0,OVC,6500.0,,,,
KRDR,10-03-2014,21:11,SPECI,Normal,340,18.0,29.0,,9999.0,,6.0,-4.0,29.93,,,,,,,,,,,,,,,,,4900.0,4900.0,OVC,4900.0,,,,,,
KRDR,10-03-2014,20:59,SPECI,Normal,330,22.0,29.0,,9999.0,Unknown Precipitation,6.0,-4.0,29.92,,40,,,,,,,,,,,,,,,4700.0,4700.0,BKN,4700.0,OVC,6000.0,,,,
KRDR,10-03-2014,20:58,METAR,Normal,330,22.0,29.0,330/30KTS,9999.0,,6.2,-3.7,29.92,1014.4,,,,,,,,,,,,TRACE,,,,4700.0,4700.0,BKN,4700.0,OVC,6000.0,,,,
KRDR,10-03-2014,19:58,METAR,Normal,340,21.0,29.0,300/32KTS,9999.0,,6.0,-3.5,29.92,1014.4,,,,,,,,,,,TRACE,,,,,4500.0,4500.0,BKN,4500.0,OVC,6500.0,,,,
KRDR,10-03-2014,19:39,SPECI,Normal,350,20.0,29.0,,9999.0,,6.0,-4.0,29.92,,,,,,,,,,,,,,,,,4500.0,4500.0,BKN,4500.0,,,,,,
KRDR,10-03-2014,19:28,SPECI,Normal,340,22.0,31.0,,9999.0,Unknown Precipitation,6.0,-4.0,29.92,,40,,,,,,,,,,,,,,,4400.0,4400.0,OVC,4400.0,,,,,,
KRDR,10-03-2014,18:58,METAR,Normal,340,20.0,29.0,330/31KTS,9999.0,,5.8,-3.5,29.92,1014.4,,,,,,,,,,,TRACE,,,,,4300.0,4300.0,BKN,4300.0,,,,,,
KRDR,10-03-2014,18:44,SPECI,Normal,340,21.0,30.0,,9999.0,,6.0,-4.0,29.93,,,,,,,,,,,,,,,,,4200.0,4200.0,BKN,4200.0,,,,,,
KRDR,10-03-2014,18:34,SPECI,Normal,330,24.0,31.0,,9999.0,Unknown Precipitation,6.0,-3.0,29.93,,40,,,,,,,,,,,,,,,4100.0,4100.0,OVC,4100.0,,,,,,
KRDR,10-03-2014,17:58,METAR,Normal,340,22.0,31.0,330/33KTS,9999.0,,5.3,-3.4,29.93,1014.7,,,,,,,,,,,,,TRACE,,,4000.0,4000.0,BKN,4000.0,OVC,8600.0,,,,
KRDR,10-03-2014,16:58,METAR,Normal,340,21.0,28.0,330/34KTS,9999.0,,4.8,-3.6,29.93,1014.7,,,,,,,,,,,TRACE,,,,,8000.0,3800.0,FEW,3800.0,OVC,8000.0,,,,
KRDR,10-03-2014,16:35,SPECI,Normal,350,21.0,30.0,,9999.0,,5.0,-3.0,29.93,,,,,,,,,,,,,,,,,8000.0,3600.0,SCT,3600.0,OVC,8000.0,,,,
KRDR,10-03-2014,16:28,SPECI,Normal,330,24.0,32.0,,9999.0,Unknown Precipitation,5.0,-3.0,29.93,,40,,,,,,,,,,,,,,,8000.0,3500.0,SCT,3500.0,BKN,8000.0,,,,
KRDR,10-03-2014,16:17,SPECI,Normal,340,22.0,31.0,,9999.0,,5.0,-3.0,29.93,,,,,,,,,,,,,,,,,8000.0,3400.0,SCT,3400.0,BKN,8000.0,,,,
KRDR,10-03-2014,16:10,SPECI,Normal,350,24.0,32.0,,9999.0,Unknown Precipitation,5.0,-3.0,29.94,,40,,,,,,,,,,,,,,,8000.0,3400.0,SCT,3400.0,BKN,8000.0,,,,
KRDR,10-03-2014,16:02,SPECI,Normal,340,23.0,32.0,,9999.0,,5.0,-3.0,29.94,,,,,,,,,,,,,,,,,3400.0,3400.0,BKN,3400.0,,,,,,
KRDR,10-03-2014,15:58,METAR,Normal,350,24.0,32.0,330/34KTS,9999.0,Unknown Precipitation,5.0,-3.0,29.94,1015.0,40,,,,,,,,,,TRACE,,,,,3400.0,3400.0,BKN,3400.0,,,,,,
KRDR,10-03-2014,15:54,SPECI,Normal,340,22.0,31.0,,9999.0,Unknown Precipitation,5.0,-3.0,29.94,,40,,,,,,,,,,,,,,,3400.0,3400.0,BKN,3400.0,,,,,,
KRDR,10-03-2014,15:49,SPECI,Normal,340,19.0,31.0,,9999.0,,5.0,-3.0,29.94,,,,,,,,,,,,,,,,,3400.0,3400.0,BKN,3400.0,,,,,,
KRDR,10-03-2014,15:39,SPECI,Normal,330,21.0,30.0,,9999.0,Unknown Precipitation,5.0,-3.0,29.94,,40,,,,,,,,,,,,,,,,3400.0,SCT,3400.0,,,,,,
KRDR,10-03-2014,15:17,SPECI,Normal,350,25.0,31.0,,9999.0,,4.0,-3.0,29.94,,,,,,,,,,,,,,,,,,3300.0,SCT,3300.0,,,,,,
KRDR,10-03-2014,15:09,SPECI,Normal,350,21.0,33.0,,9999.0,Unknown Precipitation,4.0,-3.0,29.94,,40,,,,,,,,,,,,,,,,3200.0,SCT,3200.0,,,,,,
KRDR,10-03-2014,14:58,METAR,Normal,330,17.0,31.0,310/32KTS,9999.0,,4.2,-2.4,29.94,1015.1,,,,,,,,,,,,,,,,,3100.0,SCT,3100.0,,,,,,
KRDR,10-03-2014,13:58,METAR,Normal,330,18.0,29.0,,9999.0,,3.1,-3.1,29.94,1015.1,,,,,,,,,,,,,,,Clear,72000.0,,,,,,,,,
KRDR,10-03-2014,12:58,METAR,Normal,330,18.0,25.0,,9999.0,,2.4,-2.1,29.93,1014.7,,,,,,,,,,,,,,,Clear,7000.0,,,,,,,,,
KRDR,10-03-2014,11:58,METAR,Normal,330,21.0,26.0,340/35KTS,9999.0,,3.4,-1.9,29.93,1014.7,,,,,,,,,,,TRACE,,.01 IN,.12 IN,,6500.0,6500.0,OVC,6500.0,,,,,,
KRDR,10-03-2014,11:38,SPECI,Normal,340,24.0,32.0,,9999.0,,4.0,-2.0,29.92,,,,,,,,,,,,,,,,,6500.0,6500.0,OVC,6500.0,,,,,,
KRDR,10-03-2014,11:20,SPECI,Normal,330,21.0,32.0,,9999.0,Unknown Precipitation,4.0,-2.0,29.92,,40,,,,,,,,,,,,,,,6500.0,6500.0,OVC,6500.0,,,,,,
KRDR,10-03-2014,08:58,METAR,Normal,330,20.0,29.0,320/33KTS,9999.0,,4.6,0.4,29.90,1013.2,,,,,,,,,,,TRACE,.01 IN,,,,7000.0,4700.0,SCT,4700.0,OVC,7000.0,,,,
KRDR,10-03-2014,06:58,METAR,Normal,330,23.0,32.0,320/33KTS,9999.0,,6.1,4.4,29.86,1011.9,,,,,,,,,,,.01 IN,,,,,2100.0,2100.0,OVC,2100.0,,,,,,
KRDR,10-03-2014,06:45,SPECI,Normal,330,22.0,31.0,,9999.0,Light Drizzle,6.0,5.0,29.85,,51,,,,,,,,,,,,,,,2200.0,2200.0,OVC,2200.0,,,,,,
KRDR,10-03-2014,05:34,SPECI,Normal,320,17.0,23.0,,9999.0,Light Drizzle,8.0,4.0,29.83,,51,,,,,,,,,,,,,,,3100.0,3100.0,OVC,3100.0,,,,,,
KRDR,10-03-2014,05:03,SPECI,Normal,330,14.0,24.0,,9999.0,,8.0,4.0,29.84,,,,,,,,,,,,,,,,,3200.0,3200.0,BKN,3200.0,OVC,5000.0,,,,
KRDR,10-03-2014,04:55,SPECI,Normal,330,16.0,24.0,,9999.0,,8.0,4.0,29.83,,,,,,,,,,,,,,,,,4900.0,2800.0,SCT,2800.0,OVC,4900.0,,,,
KRDR,10-03-2014,04:28,SPECI,Normal,320,16.0,23.0,,9999.0,,8.0,4.0,29.84,,,,,,,,,,,,,,,,,2700.0,2700.0,BKN,2700.0,OVC,4400.0,,,,
KRDR,10-03-2014,03:03,SPECI,Normal,330,16.0,28.0,,9999.0,,8.0,6.0,29.83,,,,,,,,,,,,,,,,,2300.0,2400.0,SCT,2400.0,OVC,4200.0,,,,
KRDR,10-02-2014,23:58,METAR,Normal,200,4.0,,,9999.0,,10.7,10.4,29.75,1008.3,,,,,,,,,,,.02 IN,,.05 IN,,,6500.0,6500.0,BKN,6500.0,BKN,9100.0,,,,
KRDR,10-02-2014,22:33,SPECI,Normal,340,3.0,,,9999.0,Light Drizzle,13.0,9.0,29.73,,51,,,,,,,,,,,,,,,,3200.0,FEW,3200.0,SCT,8600.0,,,,
KRDR,10-02-2014,22:11,SPECI,Normal,320,4.0,,,9999.0,,13.0,9.0,29.73,,,,,,,,,,,,,,,,,4700.0,4700.0,BKN,4700.0,OVC,8600.0,,,,
KRDR,10-02-2014,21:58,METAR,Normal,300,6.0,,280/29KTS,9999.0,Light Rain,12.8,8.8,29.74,1007.8,61,,,,,,,,,,TRACE,,,,,5500.0,5500.0,BKN,5500.0,OVC,7000.0,,,,
KRDR,10-02-2014,21:41,SPECI,Normal,290,18.0,29.0,,9999.0,Light Rain,16.0,7.0,29.74,,61,,,,,,,,,,,,,,,8000.0,7000.0,SCT,7000.0,BKN,8000.0,,,,
KRDR,10-02-2014,18:58,METAR,Variable,280,8.0,,,9999.0,,19.0,4.1,29.77,1008.7,,,,,,,,,,,,,,,Clear,72000.0,,,,,,,,,
KRDR,10-02-2014,17:58,METAR,Normal,340,8.0,,,9999.0,,18.1,5.6,29.80,1009.6,,,,,,,,,,,,,,,Clear,72000.0,,,,,,,,,
KRDR,10-02-2014,16:58,METAR,Normal,340,8.0,,,9999.0,,17.1,7.0,29.81,1010.0,,,,,,,,,,,,,,,Clear,72000.0,,,,,,,,,
KRDR,10-02-2014,15:58,METAR,Normal,300,5.0,,,9999.0,,14.4,9.5,29.81,1010.0,,,,,,,,,,,,,,,Clear,72000.0,,,,,,,,,
KRDR,10-02-2014,14:58,METAR,Normal,300,7.0,,,9999.0,,11.7,10.1,29.82,1010.5,,,,,,,,,,,,,,,Clear,72000.0,,,,,,,,,
KRDR,10-02-2014,13:58,METAR,Normal,270,5.0,,,9999.0,,10.6,10.4,29.82,1010.5,,,,,,,,,,,,,,,Clear,72000.0,,,,,,,,,
KRDR,10-02-2014,12:58,METAR,Normal,240,3.0,,,9999.0,,9.1,9.0,29.82,1010.6,,,,,,,,,,,,,,,Clear,72000.0,,,,,,,,,
KRDR,10-02-2014,11:58,METAR,Normal,280,5.0,,,9999.0,,9.3,9.2,29.82,1010.5,,,,,,,,,,,,,,,Clear,72000.0,,,,,,,,,
KRDR,10-02-2014,10:58,METAR,Normal,280,5.0,,,9999.0,,9.7,9.5,29.81,1010.2,,,,,,,,,,,,,,,Clear,72000.0,,,,,,,,,
KRDR,10-02-2014,09:58,METAR,Normal,270,8.0,,,9999.0,,9.6,9.4,29.80,1009.8,,,,,,,,,,,,,,,Clear,72000.0,,,,,,,,,
KRDR,10-02-2014,08:58,METAR,Normal,230,5.0,,,9999.0,,8.0,7.8,29.81,1010.2,,,,,,,,,,,,,,,Clear,72000.0,,,,,,,,,
KRDR,10-02-2014,07:58,METAR,Normal,270,6.0,,,9999.0,,9.5,9.2,29.80,1009.8,,,,,,,,,,,,,,,Clear,72000.0,,,,,,,,,
KRDR,10-02-2014,06:58,METAR,Normal,270,7.0,,,9999.0,,10.3,9.8,29.79,1009.4,,,,,,,,,,,,,,,Clear,72000.0,,,,,,,,,
KRDR,10-02-2014,05:58,METAR,Normal,290,7.0,,,9999.0,,13.2,10.7,29.78,1009.0,,,,,,,,,,,,,,,,6000.0,6000.0,OVC,6000.0,,,,,,
KRDR,10-02-2014,04:58,METAR,Normal,290,9.0,,,9999.0,,13.8,11.0,29.77,1008.6,,,,,,,,,,,,,,,,6500.0,6500.0,OVC,6500.0,,,,,,
KRDR,10-02-2014,03:58,METAR,Normal,290,8.0,,,9999.0,,14.8,11.7,29.75,1007.9,,,,,,,,,,,,,,,,6500.0,6500.0,OVC,6500.0,,,,,,
KRDR,10-02-2014,02:58,METAR,Normal,260,7.0,,,9999.0,,15.2,11.8,29.74,1007.6,,,,,,,,,,,,,,,,7000.0,4600.0,FEW,4600.0,OVC,7000.0,,,,
KRDR,10-02-2014,01:58,METAR,Normal,280,7.0,,,9999.0,,15.4,11.2,29.73,1007.3,,,,,,,,,,,,,,,,6500.0,6500.0,OVC,6500.0,,,,,,
KRDR,10-02-2014,00:58,METAR,Normal,260,6.0,,,9999.0,,15.3,11.9,29.70,1006.3,,,,,,,,,,,,,,,,6000.0,6000.0,OVC,6000.0,,,,,,
KRDR,10-01-2014,23:58,METAR,Normal,260,6.0,,,9999.0,,15.7,12.2,29.68,1005.6,,,,,,,,,,,,,,,,5500.0,5500.0,BKN,5500.0,,,,,,
KRDR,10-01-2014,22:58,METAR,Normal,240,8.0,,,9999.0,,16.4,13.5,29.65,1004.5,,,,,,,,,,,,,,,,4100.0,1000.0,FEW,1000.0,BKN,4100.0,OVC,7000.0,,
KRDR,10-01-2014,22:31,SPECI,Normal,260,13.0,16.0,,9999.0,,17.0,14.0,29.64,,,,,,,,,,,,,,,,,3100.0,400.0,FEW,400.0,BKN,3100.0,OVC,5500.0,,
KRDR,10-01-2014,21:58,METAR,Normal,230,10.0,,,9999.0,,16.9,13.8,29.63,1003.8,,,,,,,,,,,,,,,,6000.0,4000.0,FEW,4000.0,SCT,4700.0,OVC,6000.0,,
KRDR,10-01-2014,20:58,METAR,Normal,240,12.0,,,9999.0,,17.0,13.0,29.61,1003.1,,,,,,,,,,,,,,,,4000.0,1700.0,FEW,1700.0,SCT,2900.0,OVC,4000.0,,
KRDR,10-01-2014,19:58,METAR,Normal,250,13.0,20.0,210/28KTS,9999.0,,18.2,12.7,29.60,1002.8,,,,,,,,,,,,,,,,3600.0,3600.0,BKN,3600.0,OVC,4400.0,,,,
KRDR,10-01-2014,18:58,METAR,Normal,240,16.0,20.0,,9999.0,,18.0,12.1,29.59,1002.4,,,,,,,,,,,,,,,,3400.0,3400.0,OVC,3400.0,,,,,,
KRDR,10-01-2014,17:58,METAR,Normal,220,12.0,,,9999.0,,17.9,13.0,29.59,1002.4,,,,,,,,,,,,,,,,3800.0,3800.0,BKN,3800.0,OVC,5000.0,,,,
KRDR,10-01-2014,17:18,SPECI,Normal,240,14.0,,,9999.0,,18.0,13.0,29.59,,,,,,,,,,,,,,,,,3400.0,2500.0,SCT,2500.0,OVC,3400.0,,,,
KRDR,10-01-2014,16:58,METAR,Normal,240,12.0,21.0,,9999.0,,18.1,13.3,29.59,1002.5,,,,,,,,,,,,,,,,2500.0,2500.0,BKN,2500.0,OVC,3000.0,,,,
KRDR,10-01-2014,15:58,METAR,Normal,230,15.0,21.0,,9999.0,,18.9,13.6,29.58,1002.1,,,,,,,,,,,,,,,,2400.0,2400.0,BKN,2400.0,,,,,,
KRDR,10-01-2014,15:43,SPECI,Normal,240,14.0,20.0,,9999.0,,18.0,14.0,29.58,,,,,,,,,,,,,,,,,2500.0,2500.0,BKN,2500.0,,,,,,
KRDR,10-01-2014,15:38,SPECI,Normal,220,14.0,,,9999.0,,18.0,13.0,29.58,,,,,,,,,,,,,,,,4/8 Partly Cloudy,72000.0,2300.0,SCT,2300.0,,,,,,
KRDR,10-01-2014,14:58,METAR,Normal,190,14.0,,,9999.0,,16.0,14.0,29.58,1002.2,,,,,,,,,,,,,,,,1900.0,1900.0,OVC,1900.0,,,,,,
KRDR,10-01-2014,14:13,SPECI,Normal,190,12.0,,,9999.0,,15.0,14.0,29.57,,,,,,,,,,,,,,,,,1800.0,1800.0,BKN,1800.0,BKN,2900.0,OVC,3500.0,,
KRDR,10-01-2014,13:58,METAR,Normal,190,11.0,,,9999.0,,14.9,13.9,29.57,1001.9,,,,,,,,,,,,,,,,3000.0,3000.0,BKN,3000.0,OVC,3700.0,,,,
KRDR,10-01-2014,13:48,SPECI,Normal,190,12.0,,,9999.0,,15.0,14.0,29.57,,,,,,,,,,,,,,,,,3200.0,3200.0,OVC,3200.0,,,,,,
KRDR,10-01-2014,13:38,SPECI,Normal,190,9.0,,,9999.0,,15.0,13.0,29.56,,,,,,,,,,,,,,,,,2900.0,2900.0,OVC,2900.0,,,,,,
KRDR,10-01-2014,13:13,SPECI,Normal,190,10.0,,,9999.0,,14.0,13.0,29.56,,,,,,,,,,,,,,,,,3200.0,700.0,FEW,700.0,SCT,2500.0,OVC,3200.0,,
KRDR,10-01-2014,12:58,METAR,Normal,200,11.0,,,9999.0,,14.2,12.8,29.56,1001.6,,,,,,,,,,,,,,,,2400.0,700.0,FEW,700.0,BKN,2400.0,OVC,3400.0,,
KRDR,10-01-2014,12:54,SPECI,Normal,200,10.0,,,9999.0,,14.0,13.0,29.56,,,,,,,,,,,,,,,,,2400.0,700.0,FEW,700.0,BKN,2400.0,OVC,3400.0,,
KRDR,10-01-2014,12:49,SPECI,Normal,200,11.0,,,9999.0,,14.0,13.0,29.56,,,,,,,,,,,,,,,,,3100.0,700.0,FEW,700.0,SCT,1400.0,OVC,3100.0,,
KRDR,10-01-2014,12:38,SPECI,Normal,200,11.0,,,9999.0,,14.0,13.0,29.56,,,,,,,,,,,,,,,,,3000.0,1600.0,FEW,1600.0,OVC,3000.0,,,,
KRDR,10-01-2014,11:58,METAR,Normal,210,12.0,,,9999.0,,14.5,12.3,29.54,1000.8,,,,,,,,,,,,,,.02 IN,,2800.0,2800.0,OVC,2800.0,,,,,,
KRDR,10-01-2014,10:58,METAR,Normal,210,17.0,22.0,200/26KTS,9999.0,,14.9,12.0,29.53,1000.6,,,,,,,,,,,,,,,,2400.0,2400.0,BKN,2400.0,OVC,3100.0,,,,
KRDR,10-01-2014,09:58,METAR,Normal,210,21.0,28.0,,9999.0,,15.5,13.0,29.51,999.9,,,,,,,,,,,,,,,,2200.0,2200.0,BKN,2200.0,OVC,2700.0,,,,
KRDR,10-01-2014,08:58,METAR,Normal,180,23.0,29.0,190/30KTS,9999.0,,16.4,13.6,29.49,999.1,,,,,,,,,,,,,,,,2500.0,2500.0,OVC,2500.0,,,,,,
KRDR,10-01-2014,07:58,METAR,Normal,170,16.0,25.0,170/27KTS,9999.0,,15.5,15.3,29.48,998.8,,,,,,,,,,,,,,,,1600.0,1600.0,BKN,1600.0,BKN,2300.0,,,,
KRDR,10-01-2014,06:58,METAR,Normal,160,18.0,,,9999.0,,16.2,14.9,29.49,999.1,,,,,,,,,,,,,,,,1700.0,1700.0,OVC,1700.0,,,,,,
KRDR,10-01-2014,05:58,METAR,Normal,160,19.0,25.0,170/27KTS,9999.0,,15.7,13.6,29.51,999.8,,,,,,,,,,,,,.01 IN,,,2000.0,2000.0,OVC,2000.0,,,,,,
KRDR,10-01-2014,04:58,METAR,Normal,140,17.0,22.0,,9999.0,,13.7,11.1,29.54,1001.0,,,,,,,,,,,,,,,,2200.0,2200.0,OVC,2200.0,,,,,,
KRDR,10-01-2014,03:58,METAR,Normal,140,15.0,23.0,140/27KTS,9999.0,,13.2,10.4,29.57,1002.1,,,,,,,,,,,,,,,,2400.0,2400.0,OVC,2400.0,,,,,,
KRDR,10-01-2014,03:18,SPECI,Normal,130,13.0,21.0,,9999.0,,13.0,10.0,29.58,,,,,,,,,,,,,,,,,2600.0,2600.0,BKN,2600.0,BKN,3100.0,,,,
KRDR,10-01-2014,03:13,SPECI,Normal,120,12.0,21.0,,9999.0,,13.0,10.0,29.58,,,,,,,,,,,,,,,,,3100.0,2600.0,SCT,2600.0,BKN,3100.0,,,,
KRDR,10-01-2014,02:58,METAR,Normal,120,14.0,19.0,,9999.0,,13.1,10.0,29.59,1002.9,,,,,,,,,,,,.01 IN,,,,2500.0,2500.0,BKN,2500.0,,,,,,
KRDR,10-01-2014,01:58,METAR,Normal,150,16.0,23.0,,9999.0,,13.7,10.1,29.63,1004.2,,,,,,,,,,,.01 IN,,,,,2600.0,2600.0,OVC,2600.0,,,,,,
KRDR,10-01-2014,00:58,METAR,Normal,120,9.0,,,9999.0,,13.7,10.9,29.64,1004.6,,,,,,,,,,,,,,,,2800.0,2800.0,OVC,2800.0,,,,,,
KRDR,09-30-2014,23:58,METAR,Normal,120,7.0,,,9999.0,,13.6,11.5,29.65,1005.0,,,,,,,,,,,TRACE,,.01 IN,,,2800.0,2800.0,OVC,2800.0,,,,,,
KRDR,09-30-2014,23:06,SPECI,Normal,120,7.0,,,9999.0,,13.0,12.0,29.68,,,,,,,,,,,,,,,,,2700.0,2700.0,OVC,2700.0,,,,,,
KRDR,09-30-2014,22:59,SPECI,Normal,120,7.0,,,9999.0,Light Drizzle,13.0,12.0,29.68,,51,,,,,,,,,,,,,,,2800.0,2800.0,OVC,2800.0,,,,,,
KRDR,09-30-2014,22:58,METAR,Normal,120,8.0,,,9999.0,,13.3,12.4,29.68,1006.0,,,,,,,,,,,TRACE,,,,,2800.0,2800.0,OVC,2800.0,,,,,,
KRDR,09-30-2014,22:36,SPECI,Normal,100,6.0,,,9999.0,,13.0,12.0,29.68,,,,,,,,,,,,,,,,,2900.0,2900.0,BKN,2900.0,OVC,3800.0,,,,
KRDR,09-30-2014,22:31,SPECI,Normal,110,5.0,,,9999.0,,13.0,12.0,29.68,,,,,,,,,,,,,,,,,3000.0,3000.0,BKN,3000.0,BKN,4500.0,,,,
KRDR,09-30-2014,22:18,SPECI,Normal,150,8.0,,,9999.0,Light Rain,13.0,12.0,29.70,,61,,,,,,,,,,,,,,,3200.0,3200.0,BKN,3200.0,BKN,5500.0,BKN,10000.0,,
KRDR,09-30-2014,22:13,SPECI,Normal,120,8.0,,,9999.0,,13.0,12.0,29.70,,,,,,,,,,,,,,,,,4900.0,2900.0,FEW,2900.0,SCT,3600.0,BKN,4900.0,,
KRDR,09-30-2014,21:59,SPECI,Normal,100,9.0,,,9999.0,Light Rain,13.0,12.0,29.69,,61,,,,,,,,,,,,,,,3700.0,1800.0,FEW,1800.0,BKN,3700.0,BKN,10000.0,,
KRDR,09-30-2014,21:58,METAR,Normal,110,8.0,,,9999.0,,13.1,11.8,29.69,1006.3,,,,,,,,,,,.01 IN,,,,,3700.0,1800.0,FEW,1800.0,BKN,3700.0,OVC,10000.0,,
KRDR,09-30-2014,21:50,SPECI,Normal,100,9.0,,,9999.0,,13.0,12.0,29.69,,,,,,,,,,,,,,,,,3400.0,1900.0,FEW,1900.0,OVC,3400.0,,,,
KRDR,09-30-2014,21:32,SPECI,Normal,120,11.0,,,9999.0,Light Drizzle,14.0,11.0,29.72,,51,,,,,,,,,,,,,,,4100.0,3100.0,SCT,3100.0,BKN,4100.0,OVC,5000.0,,
KRDR,09-30-2014,21:18,SPECI,Normal,120,11.0,,,9999.0,Haze Smoke or Dust,14.0,11.0,29.72,,05,,,,,,,,,,,,,,,5500.0,3200.0,FEW,3200.0,BKN,5500.0,OVC,9100.0,,
KRDR,09-30-2014,21:08,SPECI,Normal,120,16.0,20.0,,9999.0,Light Rain,16.0,9.0,29.72,,61,,,,,,,,,,,,,,,8000.0,4500.0,FEW,4500.0,BKN,8000.0,BKN,9100.0,,
KRDR,09-30-2014,20:58,METAR,Normal,120,11.0,17.0,,9999.0,,15.6,8.1,29.72,1007.2,,,,,,,,,,,,,,,4/8 Partly Cloudy,72000.0,7000.0,FEW,7000.0,SCT,9100.0,SCT,11000.0,,
KRDR,09-30-2014,19:58,METAR,Normal,120,14.0,,,9999.0,,15.5,8.2,29.75,1008.3,,,,,,,,,,,,,,,2/8 Mostly Clear,72000.0,10000.0,FEW,10000.0,,,,,,
KRDR,09-30-2014,18:58,METAR,Normal,130,13.0,20.0,,9999.0,,14.3,7.8,29.79,1009.7,,,,,,,,,,,,,,,,6000.0,6000.0,BKN,6000.0,BKN,10000.0,,,,
KRDR,09-30-2014,17:58,METAR,Normal,140,14.0,22.0,,9999.0,,13.0,8.3,29.84,1011.4,,,,,,,,,,,,,,,4/8 Partly Cloudy,72000.0,2200.0,FEW,2200.0,SCT,8600.0,,,,
KRDR,09-30-2014,17:38,SPECI,Normal,140,15.0,19.0,,9999.0,,13.0,8.0,29.85,,,,,,,,,,,,,,,,,9500.0,2100.0,SCT,2100.0,BKN,9600.0,,,,
KRDR,09-30-2014,17:23,SPECI,Normal,130,10.0,22.0,,9999.0,,12.0,8.0,29.85,,,,,,,,,,,,,,,,,1600.0,1700.0,BKN,1700.0,BKN,9600.0,,,,
KRDR,09-30-2014,17:18,SPECI,Normal,140,14.0,21.0,,9999.0,,12.0,8.0,29.85,,,,,,,,,,,,,,,,,9500.0,1600.0,SCT,1600.0,BKN,9600.0,,,,
KRDR,09-30-2014,17:08,SPECI,Normal,130,15.0,,,9999.0,,11.0,8.0,29.85,,,,,,,,,,,,,,,,,1600.0,1600.0,BKN,1600.0,,,,,,
KRDR,09-30-2014,17:03,SPECI,Normal,130,13.0,,,9999.0,,11.0,8.0,29.86,,,,,,,,,,,,,,,,,1400.0,1400.0,OVC,1400.0,,,,,,
KRDR,09-30-2014,16:58,METAR,Normal,130,16.0,,,9999.0,,11.0,9.0,29.86,1012.1,,,,,,,,,,,,,,,,1500.0,1500.0,OVC,1500.0,,,,,,
KRDR,09-30-2014,16:43,SPECI,Normal,110,11.0,,,9999.0,,11.0,9.0,29.85,,,,,,,,,,,,,,,,,1300.0,1300.0,OVC,1300.0,,,,,,
KRDR,09-30-2014,16:23,SPECI,Normal,100,12.0,,,9999.0,,9.0,9.0,29.87,,,,,,,,,,,,,,,,,1000.0,1000.0,OVC,1000.0,,,,,,
KRDR,09-30-2014,15:58,METAR,Normal,130,11.0,,,9999.0,,8.3,8.2,29.88,1012.9,,,,,,,,,,,,,,,,800.0,800.0,OVC,800.0,,,,,,
KRDR,09-30-2014,14:58,METAR,Normal,130,11.0,,,9999.0,,6.9,6.8,29.91,1013.9,,,,,,,,,,,,,,,,700.0,700.0,OVC,700.0,,,,,,
KRDR,09-30-2014,14:53,SPECI,Normal,130,8.0,,,9999.0,,7.0,7.0,29.91,,,,,,,,,,,,,,,,,700.0,700.0,OVC,700.0,,,,,,
KRDR,09-30-2014,14:33,SPECI,Normal,130,11.0,,,9999.0,,7.0,7.0,29.93,,,,,,,,,,,,,,,,,600.0,600.0,OVC,600.0,,,,,,
KRDR,09-30-2014,13:58,METAR,Normal,130,9.0,,,9999.0,,6.1,6.0,29.93,1014.7,,,,,,,,,,,,,,,,500.0,500.0,OVC,500.0,,,,,,
KRDR,09-30-2014,12:58,METAR,Normal,130,7.0,,,9999.0,,5.3,5.1,29.95,1015.3,,,,,,,,,,,,,,,,500.0,500.0,BKN,500.0,OVC,7000.0,,,,
KRDR,09-30-2014,12:53,SPECI,Normal,130,8.0,,,9999.0,,5.0,5.0,29.95,,,,,,,,,,,,,,,,,500.0,500.0,BKN,500.0,OVC,7000.0,,,,
KRDR,09-30-2014,12:23,SPECI,Normal,130,9.0,,,9999.0,,5.0,4.0,29.94,,,,,,,,,,,,,,,,,7000.0,500.0,FEW,500.0,BKN,7000.0,,,,
KRDR,09-30-2014,11:58,METAR,Normal,140,6.0,,,9999.0,,4.3,4.2,29.96,1015.6,,,,,,,,,,,,,,,Clear,72000.0,,,,,,,,,
KRDR,09-30-2014,10:58,METAR,Normal,140,7.0,,,9999.0,,4.5,4.3,29.97,1015.9,,,,,,,,,,,,,,,Clear,72000.0,,,,,,,,,
KRDR,09-30-2014,09:58,METAR,Normal,140,6.0,,,9999.0,,4.8,4.7,29.99,1016.5,,,,,,,,,,,,,,,Clear,72000.0,,,,,,,,,
KRDR,09-30-2014,08:58,METAR,Normal,140,5.0,,,9999.0,,5.7,5.5,30.01,1017.2,,,,,,,,,,,,,,,Clear,72000.0,,,,,,,,,
KRDR,09-30-2014,07:58,METAR,Normal,160,8.0,,,9999.0,,6.2,6.1,30.03,1017.9,,,,,,,,,,,,,,,Clear,72000.0,,,,,,,,,
KRDR,09-30-2014,06:58,METAR,Normal,150,5.0,,,9999.0,,5.6,5.5,30.04,1018.3,,,,,,,,,,,,,,,Clear,72000.0,,,,,,,,,
KRDR,09-30-2014,05:58,METAR,Normal,150,6.0,,,9999.0,,6.4,6.2,30.05,1018.6,,,,,,,,,,,,,,,Clear,72000.0,,,,,,,,,
KRDR,09-30-2014,04:58,METAR,Normal,150,5.0,,,9999.0,,6.9,6.8,30.06,1018.9,,,,,,,,,,,,,,,Clear,72000.0,,,,,,,,,
KRDR,09-30-2014,03:58,METAR,Normal,120,7.0,,,9999.0,,8.0,7.8,30.06,1018.9,,,,,,,,,,,,,,,Clear,72000.0,,,,,,,,,
KRDR,09-30-2014,02:58,METAR,Normal,110,7.0,,,9999.0,,8.5,8.3,30.08,1019.6,,,,,,,,,,,,,,,2/8 Mostly Clear,72000.0,4000.0,FEW,4000.0,,,,,,
KRDR,09-30-2014,01:58,METAR,Normal,30,2.0,,,9999.0,,7.1,7.0,30.09,1020.0,,,,,,,,,,,,,,,Clear,72000.0,,,,,,,,,
KRDR,09-30-2014,00:58,METAR,Normal,20,3.0,,,9999.0,,8.6,8.4,30.10,1020.4,,,,,,,,,,,,,,,Clear,72000.0,,,,,,,,,
KRDR,09-29-2014,23:58,METAR,Normal,40,4.0,,,9999.0,,12.4,9.5,30.10,1020.2,,,,,,,,,,,,,,,2/8 Mostly Clear,72000.0,2900.0,FEW,2900.0,,,,,,
KRDR,09-29-2014,23:38,SPECI,Normal,80,5.0,,,9999.0,,13.0,10.0,30.11,,,,,,,,,,,,,,,,4/8 Partly Cloudy,72000.0,2900.0,SCT,2900.0,,,,,,
KRDR,09-29-2014,23:28,SPECI,Normal,70,4.0,,,9999.0,,14.0,9.0,30.11,,,,,,,,,,,,,,,,,2900.0,2900.0,BKN,2900.0,,,,,,
KRDR,09-29-2014,22:58,METAR,Normal,100,3.0,,,9999.0,,13.3,9.2,30.13,1021.3,,,,,,,,,,,,,,,4/8 Partly Cloudy,72000.0,2800.0,SCT,2800.0,,,,,,
KRDR,09-29-2014,22:48,SPECI,Normal,100,7.0,,,9999.0,,14.0,9.0,30.13,,,,,,,,,,,,,,,,4/8 Partly Cloudy,72000.0,2800.0,SCT,2800.0,,,,,,
KRDR,09-29-2014,22:28,SPECI,Normal,100,5.0,,,9999.0,,13.0,9.0,30.13,,,,,,,,,,,,,,,,,2500.0,2700.0,BKN,2700.0,,,,,,
KRDR,09-29-2014,22:23,SPECI,Normal,80,6.0,,,9999.0,,14.0,9.0,30.13,,,,,,,,,,,,,,,,,3000.0,2500.0,SCT,2500.0,BKN,3000.0,,,,
KRDR,09-29-2014,21:58,METAR,Normal,40,6.0,,,9999.0,,14.3,9.3,30.14,1021.5,,,,,,,,,,,,,,,,2600.0,2600.0,BKN,2600.0,,,,,,
KRDR,09-29-2014,20:58,METAR,Normal,80,7.0,,,9999.0,,13.4,9.4,30.16,1022.2,,,,,,,,,,,,,,,,2200.0,2200.0,OVC,2200.0,,,,,,
KRDR,09-29-2014,19:58,METAR,Normal,120,7.0,,,9999.0,,12.5,9.3,30.18,1022.9,,,,,,,,,,,,,,,,1800.0,1800.0,OVC,1800.0,,,,,,
KRDR,09-29-2014,18:58,METAR,Normal,90,6.0,,,9999.0,,11.7,9.5,30.20,1023.7,,,,,,,,,,,,,,,,1600.0,1600.0,OVC,1600.0,,,,,,
KRDR,09-29-2014,18:13,SPECI,Normal,80,7.0,,,9999.0,,11.0,9.0,30.22,,,,,,,,,,,,,,,,,1500.0,1500.0,OVC,1500.0,,,,,,
KRDR,09-29-2014,18:03,SPECI,Normal,70,6.0,,,9999.0,,11.0,9.0,30.22,,,,,,,,,,,,,,,,,1400.0,1400.0,OVC,1400.0,,,,,,
KRDR,09-29-2014,17:58,METAR,Normal,60,5.0,,,9999.0,,11.0,9.0,30.22,1024.3,,,,,,,,,,,,,,,,1500.0,1500.0,OVC,1500.0,,,,,,
KRDR,09-29-2014,17:39,SPECI,Normal,70,4.0,,,9999.0,,11.0,10.0,30.22,,,,,,,,,,,,,,,,,1200.0,1200.0,OVC,1200.0,,,,,,
KRDR,09-29-2014,17:29,SPECI,Normal,40,4.0,,,9999.0,,11.0,10.0,30.23,,,,,,,,,,,,,,,,,1100.0,1100.0,OVC,1100.0,,,,,,
KRDR,09-29-2014,17:28,SPECI,Normal,30,5.0,,,9999.0,,11.0,10.0,30.23,,,,,,,,,,,,,,,,,1200.0,1200.0,OVC,1200.0,,,,,,
KRDR,09-29-2014,17:23,SPECI,Normal,40,5.0,,,9999.0,,11.0,10.0,30.23,,,,,,,,,,,,,,,,,900.0,1000.0,OVC,1000.0,,,,,,
KRDR,09-29-2014,16:58,METAR,Normal,80,5.0,,,9999.0,,9.8,9.7,30.23,1024.7,,,,,,,,,,,,,,,,800.0,800.0,OVC,800.0,,,,,,
KRDR,09-29-2014,16:33,SPECI,Normal,80,4.0,,,9999.0,,10.0,10.0,30.24,,,,,,,,,,,,,,,,,700.0,700.0,OVC,700.0,,,,,,
KRDR,09-29-2014,15:58,METAR,Normal,50,5.0,,,9999.0,,9.0,9.0,30.24,1025.1,,,,,,,,,,,,,,,,600.0,600.0,OVC,600.0,,,,,,
KRDR,09-29-2014,15:13,SPECI,Normal,40,6.0,,,9999.0,,9.0,9.0,30.25,,,,,,,,,,,,,,,,,500.0,500.0,OVC,500.0,,,,,,
KRDR,09-29-2014,14:58,METAR,Normal,40,7.0,,,9999.0,,8.2,8.2,30.25,1025.4,,,,,,,,,,,,,,,,400.0,400.0,OVC,400.0,,,,,,
KRDR,09-29-2014,14:08,SPECI,Normal,20,7.0,,,6400.0,Mist,8.0,8.0,30.25,,10,,,,,,,,,,,,,,,400.0,400.0,OVC,400.0,,,,,,
KRDR,09-29-2014,14:03,SPECI,Normal,20,8.0,,,6400.0,Mist,8.0,8.0,30.25,,10,,,,,,,,,,,,,,,300.0,300.0,OVC,300.0,,,,,,
KRDR,09-29-2014,13:58,METAR,Normal,20,9.0,,,4000.0,Mist,7.5,7.5,30.25,1025.4,10,,,,,,,,,,,,,,,300.0,300.0,OVC,300.0,,,,,,
KRDR,09-29-2014,13:53,SPECI,Normal,20,9.0,,,3200.0,Mist,8.0,8.0,30.25,,10,,,,,,,,,,,,,,,300.0,300.0,OVC,300.0,,,,,,
KRDR,09-29-2014,13:43,SPECI,Normal,20,9.0,,,2400.0,Mist,8.0,8.0,30.25,,10,,,,,,,,,,,,,,,300.0,300.0,OVC,300.0,,,,,,
KRDR,09-29-2014,13:38,SPECI,Normal,30,9.0,,,2000.0,Mist,7.0,7.0,30.25,,10,,,,,,,,,,,,,,,300.0,300.0,OVC,300.0,,,,,,
KRDR,09-29-2014,13:33,SPECI,Normal,20,9.0,,,2400.0,Mist,7.0,7.0,30.25,,10,,,,,,,,,,,,,,,300.0,300.0,OVC,300.0,,,,,,
KRDR,09-29-2014,13:23,SPECI,Normal,10,8.0,,,4000.0,Mist,7.0,7.0,30.25,,10,,,,,,,,,,,,,,,300.0,300.0,OVC,300.0,,,,,,
KRDR,09-29-2014,13:18,SPECI,Normal,30,9.0,,,2400.0,Mist,7.0,7.0,30.25,,10,,,,,,,,,,,,,,,300.0,300.0,OVC,300.0,,,,,,
KRDR,09-29-2014,13:08,SPECI,Normal,30,9.0,,,3200.0,Mist,7.0,7.0,30.25,,10,,,,,,,,,,,,,,,300.0,300.0,OVC,300.0,,,,,,
KRDR,09-29-2014,13:03,SPECI,Normal,40,7.0,,,2800.0,Mist,7.0,7.0,30.25,,10,,,,,,,,,,,,,,,300.0,300.0,OVC,300.0,,,,,,
KRDR,09-29-2014,12:58,METAR,Normal,40,9.0,,,3200.0,Mist,7.2,7.2,30.25,1025.4,10,,,,,,,,,,,,,,,300.0,300.0,OVC,300.0,,,,,,
KRDR,09-29-2014,12:48,SPECI,Normal,30,8.0,,,4000.0,Mist,7.0,7.0,30.25,,10,,,,,,,,,,,,,,,300.0,300.0,OVC,300.0,,,,,,
KRDR,09-29-2014,12:43,SPECI,Normal,30,7.0,,,4000.0,Mist,7.0,7.0,30.25,,10,,,,,,,,,,,,,,,400.0,400.0,OVC,400.0,,,,,,
KRDR,09-29-2014,12:33,SPECI,Normal,40,9.0,,,6400.0,Mist,7.0,7.0,30.25,,10,,,,,,,,,,,,,,,400.0,400.0,OVC,400.0,,,,,,
KRDR,09-29-2014,12:28,SPECI,Normal,40,9.0,,,8000.0,Mist,7.0,7.0,30.25,,10,,,,,,,,,,,,,,,500.0,500.0,OVC,500.0,,,,,,
KRDR,09-29-2014,12:18,SPECI,Normal,30,9.0,,,9999.0,,7.0,7.0,30.25,,,,,,,,,,,,,,,,,500.0,500.0,OVC,500.0,,,,,,
KRDR,09-29-2014,11:58,METAR,Normal,30,9.0,,,9999.0,Mist,7.2,7.2,30.25,1025.4,10,,,,,,,,,,TRACE,,TRACE,.24 IN,,400.0,400.0,OVC,400.0,,,,,,
KRDR,09-29-2014,11:51,SPECI,Normal,30,8.0,,,9999.0,Mist,7.0,7.0,30.25,,10,,,,,,,,,,,,,,,400.0,400.0,OVC,400.0,,,,,,
KRDR,09-29-2014,11:41,SPECI,Normal,30,7.0,,,9999.0,,7.0,7.0,30.25,,,,,,,,,,,,,,,,,300.0,300.0,OVC,300.0,,,,,,
KRDR,09-29-2014,11:30,SPECI,Normal,30,10.0,,,9999.0,Unknown Precipitation,7.0,7.0,30.25,,40,,,,,,,,,,,,,,,300.0,300.0,OVC,300.0,,,,,,
KRDR,09-29-2014,11:08,SPECI,Normal,20,9.0,,,9999.0,,7.0,7.0,30.25,,,,,,,,,,,,,,,,,300.0,300.0,OVC,300.0,,,,,,
KRDR,09-29-2014,11:03,SPECI,Normal,20,9.0,,,9999.0,,7.0,7.0,30.25,,,,,,,,,,,,,,,,,300.0,300.0,OVC,300.0,,,,,,
KRDR,09-29-2014,10:58,METAR,Normal,20,10.0,,,9999.0,,7.1,7.0,30.25,1025.4,,,,,,,,,,,,,,,,400.0,400.0,OVC,400.0,,,,,,
KRDR,09-29-2014,10:18,SPECI,Normal,20,9.0,,,9999.0,,7.0,7.0,30.25,,,,,,,,,,,,,,,,,400.0,400.0,OVC,400.0,,,,,,
KRDR,09-29-2014,10:03,SPECI,Normal,20,9.0,,,9999.0,,7.0,7.0,30.24,,,,,,,,,,,,,,,,,500.0,500.0,OVC,500.0,,,,,,
KRDR,09-29-2014,09:58,METAR,Normal,20,11.0,,,9999.0,,7.5,7.4,30.24,1025.1,,,,,,,,,,,,,,,,600.0,600.0,OVC,600.0,,,,,,
KRDR,09-29-2014,09:53,SPECI,Normal,40,9.0,,,9999.0,,7.0,7.0,30.25,,,,,,,,,,,,,,,,,600.0,600.0,OVC,600.0,,,,,,
KRDR,09-29-2014,08:58,METAR,Normal,20,11.0,,,9999.0,,7.9,7.7,30.26,1025.8,,,,,,,,,,,,,,,,700.0,700.0,OVC,700.0,,,,,,
KRDR,09-29-2014,07:58,METAR,Normal,20,11.0,,,9999.0,,8.1,8.0,30.25,1025.4,,,,,,,,,,,,,,,,700.0,700.0,OVC,700.0,,,,,,
KRDR,09-29-2014,07:43,SPECI,Normal,20,10.0,,,9999.0,,8.0,8.0,30.25,,,,,,,,,,,,,,,,,500.0,700.0,OVC,700.0,,,,,,
KRDR,09-29-2014,07:38,SPECI,Normal,20,8.0,,,9999.0,,8.0,8.0,30.26,,,,,,,,,,,,,,,,,500.0,500.0,OVC,500.0,,,,,,
KRDR,09-29-2014,07:33,SPECI,Normal,20,7.0,,,9999.0,,8.0,8.0,30.26,,,,,,,,,,,,,,,,,600.0,600.0,OVC,600.0,,,,,,
KRDR,09-29-2014,07:28,SPECI,Normal,20,10.0,,,9999.0,,8.0,8.0,30.26,,,,,,,,,,,,,,,,,600.0,600.0,OVC,600.0,,,,,,
KRDR,09-29-2014,06:58,METAR,Normal,20,9.0,,,9999.0,,8.4,8.3,30.26,1025.7,,,,,,,,,,,,,,,,800.0,800.0,OVC,800.0,,,,,,
KRDR,09-29-2014,05:58,METAR,Normal,20,10.0,,,9999.0,,8.5,8.4,30.27,1026.0,,,,,,,,,,,,,.02 IN,,,800.0,800.0,OVC,800.0,,,,,,
KRDR,09-29-2014,05:08,SPECI,Normal,20,10.0,,,9999.0,,9.0,8.0,30.26,,,,,,,,,,,,,,,,,900.0,900.0,OVC,900.0,,,,,,
KRDR,09-29-2014,04:58,METAR,Normal,20,11.0,,,9999.0,,8.7,8.6,30.27,1026.0,,,,,,,,,,,,,,,,1000.0,1000.0,OVC,1000.0,,,,,,
KRDR,09-29-2014,03:58,METAR,Normal,20,9.0,,,9999.0,,9.0,9.0,30.27,1026.0,,,,,,,,,,,,,,,,1100.0,1100.0,OVC,1100.0,,,,,,
KRDR,09-29-2014,03:55,SPECI,Normal,20,10.0,,,9999.0,,9.0,9.0,30.27,,,,,,,,,,,,,,,,,1100.0,1100.0,OVC,1100.0,,,,,,
KRDR,09-29-2014,03:33,SPECI,Normal,20,10.0,,,9999.0,,9.0,9.0,30.26,,,,,,,,,,,,,,,,,1200.0,1200.0,BKN,1200.0,BKN,1800.0,,,,
KRDR,09-29-2014,03:23,SPECI,Normal,20,9.0,,,9999.0,,9.0,9.0,30.26,,,,,,,,,,,,,,,,,1500.0,1500.0,BKN,1500.0,,,,,,
KRDR,09-29-2014,03:13,SPECI,Normal,20,9.0,,,9999.0,,9.0,9.0,30.26,,,,,,,,,,,,,,,,4/8 Partly Cloudy,72000.0,1300.0,SCT,1300.0,,,,,,
KRDR,09-29-2014,03:08,SPECI,Normal,20,9.0,,,9999.0,,9.0,9.0,30.27,,,,,,,,,,,,,,,,,1200.0,1200.0,BKN,1200.0,,,,,,
KRDR,09-29-2014,02:58,METAR,Normal,30,9.0,,,9999.0,,9.0,8.8,30.27,1026.0,,,,,,,,,,,,.02 IN,,,4/8 Partly Cloudy,72000.0,1300.0,SCT,1300.0,,,,,,
KRDR,09-29-2014,02:53,SPECI,Normal,30,10.0,,,9999.0,,9.0,9.0,30.26,,,,,,,,,,,,,,,,4/8 Partly Cloudy,72000.0,1300.0,SCT,1300.0,,,,,,
KRDR,09-29-2014,02:43,SPECI,Normal,30,12.0,,,9999.0,,9.0,9.0,30.26,,,,,,,,,,,,,,,,,1200.0,1200.0,BKN,1200.0,BKN,3900.0,,,,
KRDR,09-29-2014,02:28,SPECI,Normal,30,10.0,,,9999.0,,9.0,9.0,30.26,,,,,,,,,,,,,,,,,3900.0,1400.0,FEW,1400.0,SCT,2100.0,BKN,3900.0,,
KRDR,09-29-2014,02:08,SPECI,Normal,30,12.0,,,9999.0,,10.0,10.0,30.26,,,,,,,,,,,,,,,,,1100.0,1200.0,SCT,1200.0,OVC,2000.0,,,,
KRDR,09-29-2014,02:03,SPECI,Normal,20,12.0,,,9999.0,,10.0,10.0,30.26,,,,,,,,,,,,,,,,,1200.0,1200.0,BKN,1200.0,BKN,1900.0,OVC,3600.0,,
KRDR,09-29-2014,01:58,METAR,Normal,20,12.0,,,9999.0,,9.9,9.8,30.26,1025.6,,,,,,,,,,,.01 IN,,,,,1100.0,1100.0,BKN,1100.0,BKN,1900.0,OVC,3600.0,,
KRDR,09-29-2014,01:48,SPECI,Normal,30,11.0,,,9999.0,,10.0,10.0,30.25,,,,,,,,,,,,,,,,,1100.0,1100.0,BKN,1100.0,BKN,1900.0,OVC,4600.0,,
KRDR,09-29-2014,01:43,SPECI,Normal,30,11.0,20.0,,9999.0,,10.0,10.0,30.25,,,,,,,,,,,,,,,,,1200.0,1200.0,BKN,1200.0,BKN,1800.0,OVC,4600.0,,
KRDR,09-29-2014,01:33,SPECI,Normal,30,15.0,20.0,,9999.0,,10.0,10.0,30.25,,,,,,,,,,,,,,,,,1100.0,1100.0,OVC,1100.0,,,,,,
KRDR,09-29-2014,00:58,METAR,Normal,20,13.0,,,9999.0,,10.4,10.3,30.24,1025.0,,,,,,,,,,,.01 IN,,,,,800.0,900.0,OVC,900.0,,,,,,
KRDR,09-29-2014,00:57,SPECI,Normal,20,12.0,,,9999.0,,10.0,10.0,30.24,,,,,,,,,,,,,,,,,800.0,900.0,OVC,900.0,,,,,,
KRDR,09-29-2014,00:22,SPECI,Normal,20,11.0,17.0,,9999.0,,10.0,10.0,30.24,,,,,,,,,,,,,,,,,700.0,700.0,BKN,700.0,OVC,1200.0,,,,
KRDR,09-29-2014,00:13,SPECI,Normal,20,11.0,,,9999.0,Light Rain,10.0,10.0,30.23,,61,,,,,,,,,,,,,,,700.0,700.0,OVC,700.0,,,,,,
KRDR,09-28-2014,23:58,METAR,Normal,10,10.0,,,9999.0,Light Rain,10.2,10.2,30.24,1025.0,61,,,,,,,,,,.08 IN,,.22 IN,,,600.0,600.0,OVC,600.0,,,,,,
KRDR,09-28-2014,23:38,SPECI,Normal,20,11.0,,,6400.0,Rain/Mist,10.0,10.0,30.23,,62,10,,,,,,,,,,,,,,600.0,600.0,OVC,600.0,,,,,,
KRDR,09-28-2014,22:58,METAR,Normal,20,11.0,,,9999.0,Light Rain,10.3,10.3,30.24,1025.0,61,,,,,,,,,,.06 IN,,,,,700.0,700.0,OVC,700.0,,,,,,
KRDR,09-28-2014,22:13,SPECI,Normal,10,15.0,,,9999.0,Light Rain/Mist,10.0,10.0,30.23,,61,10,,,,,,,,,,,,,,700.0,700.0,OVC,700.0,,,,,,
KRDR,09-28-2014,22:03,SPECI,Normal,20,13.0,18.0,,6400.0,Rain/Mist,10.0,10.0,30.23,,62,10,,,,,,,,,,,,,,600.0,600.0,OVC,600.0,,,,,,
KRDR,09-28-2014,21:58,METAR,Normal,10,11.0,,,8000.0,Light Rain/Mist,10.2,10.2,30.23,1024.5,61,10,,,,,,,,,.05 IN,,,,,700.0,700.0,OVC,700.0,,,,,,
KRDR,09-28-2014,21:48,SPECI,Normal,20,11.0,18.0,,9999.0,Light Rain,10.0,10.0,30.23,,61,,,,,,,,,,,,,,,700.0,700.0,OVC,700.0,,,,,,
KRDR,09-28-2014,21:38,SPECI,Normal,10,12.0,,,9999.0,Light Rain/Mist,10.0,10.0,30.22,,61,10,,,,,,,,,,,,,,600.0,600.0,OVC,600.0,,,,,,
KRDR,09-28-2014,21:28,SPECI,Normal,20,11.0,,,9999.0,Light Rain,10.0,10.0,30.22,,61,,,,,,,,,,,,,,,700.0,700.0,OVC,700.0,,,,,,
KRDR,09-28-2014,21:18,SPECI,Normal,20,15.0,18.0,,9999.0,Light Drizzle,10.0,10.0,30.21,,51,,,,,,,,,,,,,,,600.0,600.0,OVC,600.0,,,,,,
KRDR,09-28-2014,21:13,SPECI,Normal,10,14.0,18.0,,9999.0,Light Rain,10.0,10.0,30.22,,61,,,,,,,,,,,,,,,700.0,700.0,OVC,700.0,,,,,,
KRDR,09-28-2014,21:03,SPECI,Normal,20,14.0,19.0,,9999.0,Light Rain,10.0,10.0,30.22,,61,,,,,,,,,,,,,,,600.0,600.0,OVC,600.0,,,,,,
KRDR,09-28-2014,20:58,METAR,Normal,20,11.0,18.0,,9999.0,Light Rain,10.1,10.0,30.22,1024.2,61,,,,,,,,,,.02 IN,.03 IN,,,,700.0,700.0,OVC,700.0,,,,,,
KRDR,09-28-2014,20:33,SPECI,Normal,20,13.0,20.0,,9999.0,Light Drizzle,10.0,10.0,30.22,,51,,,,,,,,,,,,,,,700.0,700.0,OVC,700.0,,,,,,
KRDR,09-28-2014,20:28,SPECI,Normal,20,14.0,19.0,,9999.0,Light Drizzle,10.0,10.0,30.22,,51,,,,,,,,,,,,,,,600.0,600.0,OVC,600.0,,,,,,
KRDR,09-28-2014,20:23,SPECI,Normal,20,14.0,,,9999.0,,10.0,10.0,30.22,,,,,,,,,,,,,,,,,600.0,600.0,OVC,600.0,,,,,,
KRDR,09-28-2014,19:58,METAR,Normal,20,13.0,18.0,,8000.0,Light Rain/Mist,10.5,10.4,30.22,1024.2,61,10,,,,,,,,,.01 IN,,,,,600.0,600.0,OVC,600.0,,,,,,
KRDR,09-28-2014,19:39,SPECI,Normal,20,15.0,21.0,,9999.0,Light Drizzle,11.0,11.0,30.22,,51,,,,,,,,,,,,,,,700.0,700.0,OVC,700.0,,,,,,
KRDR,09-28-2014,18:58,METAR,Normal,10,15.0,20.0,350/26KTS,9999.0,,11.1,11.0,30.22,1024.1,,,,,,,,,,,TRACE,,,,,800.0,800.0,OVC,800.0,,,,,,
KRDR,09-28-2014,18:34,SPECI,Normal,20,16.0,22.0,,9999.0,,11.0,11.0,30.21,,,,,,,,,,,,,,,,,800.0,800.0,OVC,800.0,,,,,,
KRDR,09-28-2014,18:14,SPECI,Normal,30,18.0,25.0,,9999.0,Light Rain,12.0,11.0,30.20,,61,,,,,,,,,,,,,,,900.0,900.0,OVC,900.0,,,,,,
KRDR,09-28-2014,17:58,METAR,Normal,20,17.0,24.0,360/28KTS,9999.0,,12.0,11.5,30.20,1023.4,,,,,,,,,,,,,,,,900.0,900.0,OVC,900.0,,,,,,
KRDR,09-28-2014,16:58,METAR,Normal,20,17.0,23.0,,9999.0,,12.2,11.9,30.19,1023.0,,,,,,,,,,,,,,,,900.0,900.0,OVC,900.0,,,,,,
KRDR,09-28-2014,16:28,SPECI,Normal,20,16.0,23.0,,9999.0,,13.0,12.0,30.19,,,,,,,,,,,,,,,,,900.0,900.0,BKN,900.0,OVC,1300.0,,,,
KRDR,09-28-2014,15:58,METAR,Variable,10,13.0,20.0,,9999.0,,12.5,12.3,30.19,1022.9,,,,,,,,,,,,,,,,1100.0,1100.0,BKN,1100.0,OVC,3100.0,,,,
KRDR,09-28-2014,15:39,SPECI,Normal,20,14.0,,,9999.0,,13.0,12.0,30.18,,,,,,,,,,,,,,,,,1400.0,900.0,FEW,900.0,OVC,1400.0,,,,
KRDR,09-28-2014,14:58,METAR,Normal,20,12.0,18.0,,9999.0,,12.8,11.6,30.17,1022.2,,,,,,,,,,,,,,,,1300.0,1300.0,BKN,1300.0,OVC,2400.0,,,,
KRDR,09-28-2014,14:23,SPECI,Normal,10,12.0,18.0,,9999.0,,13.0,11.0,30.17,,,,,,,,,,,,,,,,,1200.0,1200.0,BKN,1200.0,OVC,2700.0,,,,
KRDR,09-28-2014,13:58,METAR,Normal,10,14.0,20.0,,9999.0,,12.4,10.9,30.16,1021.9,,,,,,,,,,,,,,,,1300.0,1300.0,OVC,1300.0,,,,,,
KRDR,09-28-2014,13:43,SPECI,Normal,20,13.0,,,9999.0,,12.0,11.0,30.16,,,,,,,,,,,,,,,,,1300.0,1300.0,BKN,1300.0,OVC,2900.0,,,,
KRDR,09-28-2014,13:23,SPECI,Normal,10,12.0,17.0,,9999.0,,12.0,11.0,30.15,,,,,,,,,,,,,,,,,2900.0,1400.0,FEW,1400.0,OVC,2900.0,,,,
KRDR,09-28-2014,13:13,SPECI,Normal,20,12.0,,,9999.0,,12.0,11.0,30.14,,,,,,,,,,,,,,,,,3000.0,1400.0,SCT,1400.0,OVC,3000.0,,,,
KRDR,09-28-2014,12:58,METAR,Normal,10,10.0,,,9999.0,,11.4,10.5,30.14,1021.2,,,,,,,,,,,,,,,,1400.0,1400.0,BKN,1400.0,BKN,11000.0,,,,
KRDR,09-28-2014,12:48,SPECI,Normal,20,9.0,,,9999.0,,11.0,10.0,30.14,,,,,,,,,,,,,,,,,1400.0,1400.0,BKN,1400.0,BKN,11000.0,,,,
KRDR,09-28-2014,12:43,SPECI,Normal,10,11.0,,,9999.0,,11.0,10.0,30.14,,,,,,,,,,,,,,,,,1500.0,1500.0,BKN,1500.0,BKN,11000.0,,,,
KRDR,09-28-2014,11:58,METAR,Normal,10,11.0,,,9999.0,,11.4,10.2,30.13,1020.8,,,,,,,,,,,,,,,Clear,72000.0,,,,,,,,,
KRDR,09-28-2014,10:58,METAR,Normal,20,13.0,,,9999.0,,12.2,10.5,30.12,1020.2,,,,,,,,,,,,,,,2/8 Mostly Clear,72000.0,10000.0,FEW,10000.0,,,,,,
KRDR,09-28-2014,09:58,METAR,Normal,20,11.0,,,9999.0,,12.7,11.2,30.12,1020.2,,,,,,,,,,,,,,,Clear,72000.0,,,,,,,,,
KRDR,09-28-2014,08:58,METAR,Normal,20,12.0,17.0,,9999.0,,13.1,10.5,30.11,1019.9,,,,,,,,,,,,,,,2/8 Mostly Clear,72000.0,9000.0,FEW,9100.0,,,,,,
KRDR,09-28-2014,07:58,METAR,Normal,10,10.0,,,9999.0,,13.5,10.5,30.10,1019.5,,,,,,,,,,,,,,,Clear,72000.0,,,,,,,,,
KRDR,09-28-2014,06:58,METAR,Normal,10,11.0,,,9999.0,,14.3,11.7,30.08,1018.8,,,,,,,,,,,,,,,Clear,72000.0,,,,,,,,,
KRDR,09-28-2014,05:58,METAR,Normal,10,13.0,,,9999.0,,15.5,12.0,30.07,1018.5,,,,,,,,,,,,,,,Clear,72000.0,,,,,,,,,
KRDR,09-28-2014,04:58,METAR,Normal,10,13.0,18.0,,9999.0,,17.1,13.1,30.05,1017.8,,,,,,,,,,,,,,,Clear,72000.0,,,,,,,,,
KRDR,09-28-2014,03:58,METAR,Normal,10,10.0,16.0,,9999.0,,18.9,15.1,30.03,1017.1,,,,,,,,,,,,,,,Clear,72000.0,,,,,,,,,
KRDR,09-28-2014,02:58,METAR,Normal,360,8.0,,,9999.0,,20.4,16.5,30.01,1016.5,,,,,,,,,,,,,,,Clear,72000.0,,,,,,,,,
KRDR,09-28-2014,01:58,METAR,Normal,290,5.0,,,9999.0,,21.4,14.3,29.99,1015.9,,,,,,,,,,,,,,,4/8 Partly Cloudy,72000.0,8000.0,SCT,8000.0,,,,,,
KRDR,09-28-2014,00:58,METAR,Normal,150,7.0,,,9999.0,,22.2,14.8,29.96,1014.9,,,,,,,,,,,,,,,Clear,72000.0,,,,,,,,,
KRDR,09-27-2014,23:58,METAR,Normal,150,6.0,,,9999.0,,25.6,14.7,29.94,1014.1,,,,,,,,,,,,,,,Clear,72000.0,,,,,,,,,
KRDR,09-27-2014,22:58,METAR,Normal,170,9.0,,,9999.0,,29.3,13.0,29.92,1013.3,,,,,,,,,,,,,,,Clear,72000.0,,,,,,,,,
KRDR,09-27-2014,21:58,METAR,Normal,190,10.0,,,9999.0,,30.4,12.4,29.92,1013.3,,,,,,,,,,,,,,,Clear,72000.0,,,,,,,,,
KRDR,09-27-2014,20:58,METAR,Normal,200,10.0,16.0,,9999.0,,30.4,12.6,29.92,1013.3,,,,,,,,,,,,,,,Clear,72000.0,,,,,,,,,
KRDR,09-27-2014,19:58,METAR,Normal,170,11.0,,,9999.0,,30.1,13.2,29.93,1013.6,,,,,,,,,,,,,,,Clear,72000.0,,,,,,,,,
KRDR,09-27-2014,18:58,METAR,Normal,170,12.0,,,9999.0,,29.2,13.4,29.94,1014.0,,,,,,,,,,,,,,,Clear,72000.0,,,,,,,,,
KRDR,09-27-2014,17:58,METAR,Normal,200,11.0,,,9999.0,,27.8,13.8,29.95,1014.3,,,,,,,,,,,,,,,Clear,72000.0,,,,,,,,,
KRDR,09-27-2014,16:58,METAR,Normal,190,10.0,,,9999.0,,25.5,14.9,29.95,1014.3,,,,,,,,,,,,,,,Clear,72000.0,,,,,,,,,
KRDR,09-27-2014,15:58,METAR,Normal,210,13.0,16.0,,9999.0,,23.6,15.3,29.95,1014.4,,,,,,,,,,,,,,,Clear,72000.0,,,,,,,,,
KRDR,09-27-2014,14:58,METAR,Normal,220,8.0,,,9999.0,,20.8,16.0,29.95,1014.5,,,,,,,,,,,,,,,Clear,72000.0,,,,,,,,,
KRDR,09-27-2014,13:58,METAR,Normal,180,9.0,,,9999.0,,18.1,17.0,29.94,1014.2,,,,,,,,,,,,,,,Clear,72000.0,,,,,,,,,
KRDR,09-27-2014,12:58,METAR,Normal,170,7.0,,,9999.0,,16.1,16.0,29.93,1013.8,,,,,,,,,,,,,,,Clear,72000.0,,,,,,,,,
KRDR,09-27-2014,11:58,METAR,Normal,190,8.0,,,9999.0,,15.9,15.7,29.93,1013.8,,,,,,,,,,,,,,,Clear,72000.0,,,,,,,,,
KRDR,09-27-2014,10:58,METAR,Normal,190,6.0,,,9999.0,,16.4,16.2,29.93,1013.7,,,,,,,,,,,,,,,Clear,72000.0,,,,,,,,,
KRDR,09-27-2014,09:58,METAR,Normal,200,6.0,,,9999.0,,16.7,16.6,29.92,1013.3,,,,,,,,,,,,,,,Clear,72000.0,,,,,,,,,
KRDR,09-27-2014,08:58,METAR,Normal,190,7.0,,,9999.0,,16.8,16.2,29.92,1013.3,,,,,,,,,,,,,,,Clear,72000.0,,,,,,,,,
KRDR,09-27-2014,07:58,METAR,Normal,180,7.0,,,9999.0,,17.0,15.9,29.93,1013.7,,,,,,,,,,,,,,,Clear,72000.0,,,,,,,,,
KRDR,09-27-2014,06:58,METAR,Normal,180,8.0,,,9999.0,,17.1,15.6,29.93,1013.7,,,,,,,,,,,,,,,Clear,72000.0,,,,,,,,,
KRDR,09-27-2014,05:58,METAR,Normal,170,8.0,,,9999.0,,17.5,15.3,29.94,1014.0,,,,,,,,,,,,,,,Clear,72000.0,,,,,,,,,
KRDR,09-27-2014,04:58,METAR,Normal,150,10.0,,,9999.0,,18.8,15.4,29.95,1014.3,,,,,,,,,,,,,,,Clear,72000.0,,,,,,,,,
KRDR,09-27-2014,03:58,METAR,Normal,160,11.0,,,9999.0,,19.4,15.7,29.95,1014.4,,,,,,,,,,,,,,,Clear,72000.0,,,,,,,,,
KRDR,09-27-2014,02:58,METAR,Normal,160,9.0,,,9999.0,,20.5,15.5,29.95,1014.5,,,,,,,,,,,,,,,Clear,72000.0,,,,,,,,,
KRDR,09-27-2014,01:58,METAR,Normal,140,10.0,,,9999.0,,21.9,14.7,29.94,1014.2,,,,,,,,,,,,,,,Clear,72000.0,,,,,,,,,
KRDR,09-27-2014,00:58,METAR,Normal,150,12.0,,,9999.0,,23.4,14.3,29.94,1014.2,,,,,,,,,,,,,,,Clear,72000.0,,,,,,,,,
KRDR,09-26-2014,23:58,METAR,Normal,150,11.0,,,9999.0,,25.8,14.7,29.93,1013.8,,,,,,,,,,,,,,,Clear,72000.0,,,,,,,,,
KRDR,09-26-2014,22:58,METAR,Normal,160,13.0,23.0,,9999.0,,27.6,15.4,29.93,1013.7,,,,,,,,,,,,,,,Clear,72000.0,,,,,,,,,
KRDR,09-26-2014,21:58,METAR,Normal,150,17.0,22.0,,9999.0,,28.6,16.2,29.94,1014.1,,,,,,,,,,,,,,,Clear,72000.0,,,,,,,,,
KRDR,09-26-2014,20:58,METAR,Normal,170,20.0,25.0,,9999.0,,29.2,16.7,29.94,1014.0,,,,,,,,,,,,,,,Clear,72000.0,,,,,,,,,
KRDR,09-26-2014,19:58,METAR,Normal,160,19.0,27.0,,9999.0,,29.4,16.5,29.96,1014.7,,,,,,,,,,,,,,,Clear,72000.0,,,,,,,,,
KRDR,09-26-2014,18:58,METAR,Normal,160,21.0,27.0,,9999.0,,28.8,16.3,29.97,1015.0,,,,,,,,,,,,,,,Clear,72000.0,,,,,,,,,
KRDR,09-26-2014,17:58,METAR,Normal,160,20.0,26.0,,9999.0,,28.0,17.4,29.99,1015.7,,,,,,,,,,,,,,,Clear,72000.0,,,,,,,,,
KRDR,09-26-2014,16:58,METAR,Normal,170,18.0,22.0,,9999.0,,25.8,17.8,30.00,1016.0,,,,,,,,,,,,,,,Clear,72000.0,,,,,,,,,
KRDR,09-26-2014,15:58,METAR,Normal,160,14.0,,,9999.0,,23.7,18.0,30.00,1016.1,,,,,,,,,,,,,,,Clear,72000.0,,,,,,,,,
KRDR,09-26-2014,14:58,METAR,Normal,160,12.0,,,9999.0,,20.7,18.4,30.01,1016.6,,,,,,,,,,,,,,,Clear,72000.0,,,,,,,,,
KRDR,09-26-2014,13:58,METAR,Normal,160,10.0,,,9999.0,,17.9,17.7,30.00,1016.3,,,,,,,,,,,,,,,Clear,72000.0,,,,,,,,,
KRDR,09-26-2014,12:58,METAR,Normal,150,7.0,,,9999.0,,16.1,16.1,30.00,1016.3,,,,,,,,,,,,,,,Clear,72000.0,,,,,,,,,
KRDR,09-26-2014,11:58,METAR,Normal,160,10.0,,,9999.0,,15.8,15.8,30.01,1016.6,,,,,,,,,,,,,,,Clear,72000.0,,,,,,,,,
KRDR,09-26-2014,10:58,METAR,Normal,150,8.0,,,9999.0,,16.0,16.0,30.01,1016.4,,,,,,,,,,,,,,,Clear,72000.0,,,,,,,,,
KRDR,09-26-2014,09:58,METAR,Normal,160,8.0,,,9999.0,,16.4,16.4,30.01,1016.4,,,,,,,,,,,,,,,Clear,72000.0,,,,,,,,,
KRDR,09-26-2014,08:58,METAR,Normal,180,7.0,,,9999.0,,16.8,16.8,30.01,1016.4,,,,,,,,,,,,,,,Clear,72000.0,,,,,,,,,
KRDR,09-26-2014,07:58,METAR,Normal,160,8.0,,,9999.0,,16.8,16.8,30.01,1016.4,,,,,,,,,,,,,,,Clear,72000.0,,,,,,,,,
KRDR,09-26-2014,06:58,METAR,Normal,150,6.0,,,9999.0,,18.1,18.0,30.01,1016.5,,,,,,,,,,,,,,,Clear,72000.0,,,,,,,,,
KRDR,09-26-2014,05:58,METAR,Normal,160,8.0,,,9999.0,,18.1,17.9,30.02,1016.9,,,,,,,,,,,,,,,Clear,72000.0,,,,,,,,,
KRDR,09-26-2014,04:58,METAR,Normal,150,8.0,,,9999.0,,18.9,18.7,30.03,1017.3,,,,,,,,,,,,,,,Clear,72000.0,,,,,,,,,
KRDR,09-26-2014,03:58,METAR,Normal,160,7.0,,,9999.0,,19.7,19.3,30.03,1017.4,,,,,,,,,,,,,,,Clear,72000.0,,,,,,,,,
KRDR,09-26-2014,02:58,METAR,Normal,160,5.0,,,9999.0,,19.3,19.1,30.03,1017.4,,,,,,,,,,,,,,,Clear,72000.0,,,,,,,,,
KRDR,09-26-2014,01:58,METAR,Normal,150,8.0,,,9999.0,,20.0,19.2,30.03,1017.4,,,,,,,,,,,,,,,Clear,72000.0,,,,,,,,,
KRDR,09-26-2014,00:58,METAR,Normal,150,7.0,,,9999.0,,21.9,19.1,30.03,1017.4,,,,,,,,,,,,,,,Clear,72000.0,,,,,,,,,
KRDR,09-25-2014,23:58,METAR,Normal,150,6.0,,,9999.0,,27.0,19.0,30.02,1016.9,,,,,,,,,,,,,,,Clear,72000.0,,,,,,,,,
KRDR,09-25-2014,22:58,METAR,Normal,150,6.0,,,9999.0,,27.0,19.0,30.02,1016.9,,,,,,,,,,,,,,,Clear,72000.0,,,,,,,,,
KRDR,09-25-2014,22:03,SPECI,Normal,160,7.0,,,9999.0,,28.0,18.0,30.03,,,,,,,,,,,,,,,,Clear,72000.0,,,,,,,,,
KRDR,09-25-2014,22:01,SPECI,Normal,160,7.0,,,4000.0,Haze,28.0,18.0,30.04,,,,,05,,,,,,,,,,,Clear,72000.0,,,,,,,,,
KRDR,09-25-2014,21:58,METAR,Normal,170,8.0,,,9999.0,,28.1,18.3,30.04,1017.5,,,,,,,,,,,,,,,Clear,72000.0,,,,,,,,,
KRDR,09-25-2014,20:58,METAR,Variable,160,7.0,,,9999.0,,27.5,18.7,30.05,1017.9,,,,,,,,,,,,,,,Clear,72000.0,,,,,,,,,
KRDR,09-25-2014,19:58,METAR,Normal,160,10.0,,,9999.0,,26.2,18.9,30.06,1018.3,,,,,,,,,,,,,,,Clear,72000.0,,,,,,,,,
KRDR,09-25-2014,18:58,METAR,Normal,170,11.0,,,9999.0,,23.1,18.4,30.08,1019.0,,,,,,,,,,,,,,,Clear,72000.0,,,,,,,,,
KRDR,09-25-2014,17:58,METAR,Normal,160,10.0,,,9999.0,,20.5,18.0,30.10,1019.7,,,,,,,,,,,,,,,Clear,72000.0,,,,,,,,,
KRDR,09-25-2014,17:28,SPECI,Normal,150,10.0,,,9999.0,,19.0,18.0,30.10,,,,,,,,,,,,,,,,4/8 Partly Cloudy,72000.0,700.0,SCT,700.0,,,,,,
KRDR,09-25-2014,17:13,SPECI,Normal,160,9.0,,,9999.0,,19.0,18.0,30.11,,,,,,,,,,,,,,,,,700.0,700.0,OVC,700.0,,,,,,
KRDR,09-25-2014,17:03,SPECI,Normal,150,9.0,,,9999.0,,18.0,18.0,30.11,,,,,,,,,,,,,,,,,600.0,600.0,OVC,600.0,,,,,,
KRDR,09-25-2014,16:58,METAR,Normal,160,9.0,,,9999.0,,17.5,17.3,30.11,1020.1,,,,,,,,,,,,,,,,500.0,500.0,OVC,500.0,,,,,,
KRDR,09-25-2014,16:38,SPECI,Normal,170,10.0,,,9999.0,,17.0,17.0,30.11,,,,,,,,,,,,,,,,,500.0,500.0,OVC,500.0,,,,,,
KRDR,09-25-2014,15:58,METAR,Normal,170,9.0,,,9999.0,,15.6,15.6,30.11,1020.2,,,,,,,,,,,,,,,,400.0,400.0,OVC,400.0,,,,,,
KRDR,09-25-2014,15:13,SPECI,Normal,180,11.0,,,8000.0,Mist,15.0,15.0,30.11,,10,,,,,,,,,,,,,,,400.0,400.0,OVC,400.0,,,,,,
KRDR,09-25-2014,14:58,METAR,Normal,160,11.0,,,9999.0,Mist,14.8,14.8,30.11,1020.2,10,,,,,,,,,,,,,,,300.0,300.0,OVC,300.0,,,,,,
KRDR,09-25-2014,14:53,SPECI,Normal,170,10.0,,,8000.0,Mist,15.0,15.0,30.11,,10,,,,,,,,,,,,,,,300.0,300.0,OVC,300.0,,,,,,
KRDR,09-25-2014,14:38,SPECI,Normal,170,9.0,,,3200.0,Mist,15.0,15.0,30.10,,10,,,,,,,,,,,,,,,300.0,300.0,OVC,300.0,,,,,,
KRDR,09-25-2014,14:33,SPECI,Normal,170,11.0,,,4000.0,Mist,15.0,15.0,30.11,,10,,,,,,,,,,,,,,,300.0,300.0,OVC,300.0,,,,,,
KRDR,09-25-2014,14:28,SPECI,Normal,170,9.0,,,2800.0,Mist,15.0,15.0,30.10,,10,,,,,,,,,,,,,,,300.0,300.0,OVC,300.0,,,,,,
KRDR,09-25-2014,14:23,SPECI,Normal,160,9.0,,,2000.0,Mist,15.0,15.0,30.10,,10,,,,,,,,,,,,,,,200.0,200.0,OVC,200.0,,,,,,
KRDR,09-25-2014,14:18,SPECI,Normal,170,10.0,,,1600.0,Mist,14.0,14.0,30.10,,10,,,,,,,,,,,,,,Sky Obscured (Unable to Estimate),200.0,200.0,,200.0,,,,,,
KRDR,09-25-2014,14:13,SPECI,Normal,180,7.0,,,1200.0,Mist,14.0,14.0,30.10,,10,,,,,,,,,,,,,,Sky Obscured (Unable to Estimate),200.0,200.0,,200.0,,,,,,
KRDR,09-25-2014,14:03,SPECI,Normal,180,8.0,,,1200.0,Mist,14.0,14.0,30.10,,10,,,,,,,,,,,,,,,200.0,200.0,OVC,200.0,,,,,,
KRDR,09-25-2014,13:58,METAR,Normal,180,7.0,,,800.0,Fog,14.0,14.0,30.10,1019.9,30,,,,,,,,,,,,,,,200.0,200.0,OVC,200.0,,,,,,
KRDR,09-25-2014,13:53,SPECI,Normal,180,9.0,,,1200.0,Mist,14.0,14.0,30.10,,10,,,,,,,,,,,,,,,200.0,200.0,OVC,200.0,,,,,,
KRDR,09-25-2014,13:48,SPECI,Normal,180,7.0,,,2000.0,Mist,14.0,14.0,30.10,,10,,,,,,,,,,,,,,,300.0,300.0,OVC,300.0,,,,,,
KRDR,09-25-2014,13:43,SPECI,Normal,170,7.0,,,2400.0,Mist,14.0,14.0,30.10,,10,,,,,,,,,,,,,,,300.0,300.0,OVC,300.0,,,,,,
KRDR,09-25-2014,13:31,SPECI,Normal,190,7.0,,,2400.0,Mist,14.0,14.0,30.09,,,,,10,,,,,,,,,,,,300.0,300.0,OVC,300.0,,,,,,
KRDR,09-25-2014,13:23,SPECI,Normal,190,8.0,,,6400.0,Mist,14.0,14.0,30.09,,10,,,,,,,,,,,,,,,300.0,300.0,OVC,300.0,,,,,,
KRDR,09-25-2014,13:13,SPECI,Normal,190,8.0,,,6400.0,Mist,14.0,14.0,30.09,,10,,,,,,,,,,,,,,,400.0,400.0,OVC,400.0,,,,,,
KRDR,09-25-2014,13:08,SPECI,Normal,180,6.0,,,2000.0,Mist,14.0,14.0,30.09,,10,,,,,,,,,,,,,,,400.0,400.0,OVC,400.0,,,,,,
KRDR,09-25-2014,12:58,METAR,Normal,190,5.0,,,2000.0,Mist,13.9,13.8,30.09,1019.5,10,,,,,,,,,,,,,,,400.0,400.0,OVC,400.0,,,,,,
KRDR,09-25-2014,12:56,SPECI,Normal,180,5.0,,,6400.0,Mist,14.0,14.0,30.09,,10,,,,,,,,,,,,,,,400.0,400.0,OVC,400.0,,,,,,
KRDR,09-25-2014,12:55,SPECI,Normal,180,5.0,,,2000.0,Mist,14.0,14.0,30.09,,,,,10,,,,,,,,,,,,400.0,400.0,OVC,400.0,,,,,,
KRDR,09-25-2014,12:36,SPECI,Normal,190,5.0,,,8000.0,Mist,13.0,13.0,30.09,,10,,,,,,,,,,,,,,,400.0,400.0,OVC,400.0,,,,,,
KRDR,09-25-2014,12:16,SPECI,Normal,180,4.0,,,6400.0,Mist,12.0,12.0,30.09,,10,,,,,,,,,,,,,,,500.0,500.0,BKN,500.0,,,,,,
KRDR,09-25-2014,12:01,SPECI,Normal,200,3.0,,,6400.0,Mist,12.0,12.0,30.09,,10,,,,,,,,,,,,,,2/8 Mostly Clear,72000.0,600.0,FEW,600.0,,,,,,
KRDR,09-25-2014,11:58,METAR,Normal,190,5.0,,,8000.0,Mist,12.0,12.0,30.08,1019.2,10,,,,,,,,,,,,,,Clear,72000.0,,,,,,,,,
KRDR,09-25-2014,10:58,METAR,Normal,180,5.0,,,6400.0,Mist,12.3,12.3,30.08,1019.1,10,,,,,,,,,,,,,,Clear,72000.0,,,,,,,,,
KRDR,09-25-2014,09:58,METAR,Normal,180,7.0,,,6400.0,Mist,13.1,13.1,30.08,1019.1,10,,,,,,,,,,,,,,Clear,72000.0,,,,,,,,,
KRDR,09-25-2014,08:58,METAR,Normal,170,7.0,,,8000.0,Mist,13.6,13.6,30.08,1019.1,10,,,,,,,,,,,,,,Clear,72000.0,,,,,,,,,
KRDR,09-25-2014,07:58,METAR,Normal,180,5.0,,,9999.0,Mist,13.8,13.8,30.07,1018.8,10,,,,,,,,,,,,,,Clear,72000.0,,,,,,,,,
KRDR,09-25-2014,07:08,SPECI,Normal,170,6.0,,,9999.0,,14.0,14.0,30.07,,,,,,,,,,,,,,,,Clear,72000.0,,,,,,,,,
KRDR,09-25-2014,06:58,METAR,Normal,170,7.0,,,9999.0,,14.6,14.6,30.07,1018.7,,,,,,,,,,,,,,,Clear,72000.0,,,,,,,,,
KRDR,09-25-2014,05:58,METAR,Normal,180,7.0,,,9999.0,,15.5,15.5,30.06,1018.4,,,,,,,,,,,,,,,Clear,72000.0,,,,,,,,,
KRDR,09-25-2014,04:58,METAR,Normal,170,7.0,,,9999.0,,15.4,15.4,30.05,1018.1,,,,,,,,,,,,,,,Clear,72000.0,,,,,,,,,
KRDR,09-25-2014,03:58,METAR,Normal,180,7.0,,,9999.0,,16.1,15.9,30.05,1018.1,,,,,,,,,,,,,,,Clear,72000.0,,,,,,,,,
KRDR,09-25-2014,03:28,SPECI,Normal,180,7.0,,,9999.0,,17.0,17.0,30.05,,,,,,,,,,,,,,,,4/8 Partly Cloudy,72000.0,1900.0,SCT,1900.0,,,,,,
KRDR,09-25-2014,02:58,METAR,Normal,180,8.0,,,9999.0,,17.1,16.9,30.05,1018.1,,,,,,,,,,,,,,,,1900.0,1900.0,OVC,1900.0,,,,,,
KRDR,09-25-2014,01:58,METAR,Normal,180,5.0,,,9999.0,,17.4,17.2,30.04,1017.8,,,,,,,,,,,,,,,,2200.0,2200.0,OVC,2200.0,,,,,,
KRDR,09-25-2014,00:58,METAR,Normal,140,7.0,,,9999.0,,18.8,17.5,30.02,1017.1,,,,,,,,,,,,,,,,2300.0,2300.0,OVC,2300.0,,,,,,
KRDR,09-24-2014,23:58,METAR,Normal,180,7.0,,,9999.0,,19.7,17.2,30.00,1016.3,,,,,,,,,,,,,,,,2300.0,2300.0,OVC,2300.0,,,,,,
KRDR,09-24-2014,22:58,METAR,Normal,180,8.0,,,9999.0,,20.5,17.1,30.00,1016.3,,,,,,,,,,,,,,,,2300.0,2300.0,OVC,2300.0,,,,,,
KRDR,09-24-2014,21:58,METAR,Normal,180,7.0,,,9999.0,,20.6,16.8,30.00,1016.3,,,,,,,,,,,,,,,,2300.0,2300.0,OVC,2300.0,,,,,,
KRDR,09-24-2014,20:58,METAR,Normal,210,6.0,,,9999.0,,20.3,16.5,29.99,1016.1,,,,,,,,,,,,,,,,2100.0,2100.0,OVC,2100.0,,,,,,
KRDR,09-24-2014,19:58,METAR,Normal,210,7.0,,,9999.0,,20.0,16.4,30.00,1016.3,,,,,,,,,,,,,,,,2000.0,2000.0,OVC,2000.0,,,,,,
KRDR,09-24-2014,18:58,METAR,Normal,200,8.0,,,9999.0,,20.0,16.4,29.99,1016.0,,,,,,,,,,,,,,,,1900.0,1900.0,OVC,1900.0,,,,,,
KRDR,09-24-2014,17:58,METAR,Normal,190,7.0,,,9999.0,,19.1,16.7,30.00,1016.4,,,,,,,,,,,,,,,,1600.0,1600.0,OVC,1600.0,,,,,,
KRDR,09-24-2014,17:43,SPECI,Normal,190,8.0,,,9999.0,,19.0,17.0,30.00,,,,,,,,,,,,,,,,,1400.0,1400.0,OVC,1400.0,,,,,,
KRDR,09-24-2014,17:18,SPECI,Normal,200,9.0,,,9999.0,,18.0,17.0,30.00,,,,,,,,,,,,,,,,,1200.0,1200.0,OVC,1200.0,,,,,,
KRDR,09-24-2014,16:58,METAR,Normal,180,8.0,,,9999.0,,17.8,16.7,30.00,1016.5,,,,,,,,,,,,,,,,1100.0,1100.0,OVC,1100.0,,,,,,
KRDR,09-24-2014,16:33,SPECI,Normal,200,9.0,,,9999.0,,18.0,17.0,30.00,,,,,,,,,,,,,,,,,1000.0,1000.0,OVC,1000.0,,,,,,
KRDR,09-24-2014,15:58,METAR,Normal,200,8.0,,,9999.0,,16.7,16.5,29.99,1016.2,,,,,,,,,,,,,,,,800.0,800.0,OVC,800.0,,,,,,
KRDR,09-24-2014,15:28,SPECI,Normal,190,10.0,,,9999.0,,16.0,16.0,29.99,,,,,,,,,,,,,,,,,700.0,700.0,OVC,700.0,,,,,,
KRDR,09-24-2014,14:58,METAR,Normal,190,9.0,,,9999.0,,15.7,15.6,29.99,1016.1,,,,,,,,,,,,,,,,600.0,600.0,OVC,600.0,,,,,,
KRDR,09-24-2014,14:28,SPECI,Normal,180,10.0,,,9999.0,,15.0,15.0,29.98,,,,,,,,,,,,,,,,,600.0,600.0,OVC,600.0,,,,,,
KRDR,09-24-2014,13:58,METAR,Normal,180,9.0,,,9999.0,,15.1,15.0,29.98,1015.8,,,,,,,,,,,,,,,,500.0,500.0,OVC,500.0,,,,,,
KRDR,09-24-2014,13:08,SPECI,Normal,170,8.0,,,9999.0,,15.0,15.0,29.97,,,,,,,,,,,,,,,,,500.0,500.0,OVC,500.0,,,,,,
KRDR,09-24-2014,12:58,METAR,Normal,200,8.0,,,9999.0,,14.8,14.8,29.97,1015.4,,,,,,,,,,,,,,,,600.0,600.0,OVC,600.0,,,,,,
KRDR,09-24-2014,11:58,METAR,Normal,200,7.0,,,9999.0,,14.6,14.6,29.97,1015.3,,,,,,,,,,,,,,,,500.0,500.0,OVC,500.0,,,,,,
KRDR,09-24-2014,10:58,METAR,Normal,200,7.0,,,9999.0,,14.5,14.3,29.96,1014.9,,,,,,,,,,,,,,,,500.0,500.0,OVC,500.0,,,,,,
KRDR,09-24-2014,10:48,SPECI,Normal,200,7.0,,,9999.0,,15.0,14.0,29.96,,,,,,,,,,,,,,,,,500.0,500.0,OVC,500.0,,,,,,
KRDR,09-24-2014,10:18,SPECI,Normal,190,8.0,,,9999.0,,15.0,14.0,29.97,,,,,,,,,,,,,,,,,600.0,600.0,OVC,600.0,,,,,,
KRDR,09-24-2014,10:13,SPECI,Normal,190,8.0,,,9999.0,,15.0,14.0,29.97,,,,,,,,,,,,,,,,,700.0,700.0,OVC,700.0,,,,,,
KRDR,09-24-2014,09:58,METAR,Normal,200,6.0,,,9999.0,,14.5,14.3,29.97,1015.2,,,,,,,,,,,,,,,,600.0,600.0,OVC,600.0,,,,,,
KRDR,09-24-2014,09:38,SPECI,Normal,190,7.0,,,9999.0,,14.0,14.0,29.97,,,,,,,,,,,,,,,,,600.0,600.0,OVC,600.0,,,,,,
KRDR,09-24-2014,08:58,METAR,Normal,190,7.0,,,9999.0,,14.4,14.2,29.97,1015.2,,,,,,,,,,,,,,,,500.0,500.0,OVC,500.0,,,,,,
KRDR,09-24-2014,08:53,SPECI,Normal,190,7.0,,,9999.0,,14.0,14.0,29.97,,,,,,,,,,,,,,,,,600.0,600.0,OVC,600.0,,,,,,
KRDR,09-24-2014,08:48,SPECI,Normal,190,7.0,,,9999.0,,14.0,14.0,29.97,,,,,,,,,,,,,,,,,600.0,600.0,OVC,600.0,,,,,,
KRDR,09-24-2014,08:43,SPECI,Normal,190,7.0,,,9999.0,,15.0,14.0,29.97,,,,,,,,,,,,,,,,,600.0,600.0,OVC,600.0,,,,,,
KRDR,09-24-2014,08:03,SPECI,Normal,190,10.0,,,9999.0,,15.0,15.0,29.97,,,,,,,,,,,,,,,,,900.0,900.0,OVC,900.0,,,,,,
KRDR,09-24-2014,07:58,METAR,Normal,190,9.0,,,9999.0,,14.9,14.7,29.98,1015.5,,,,,,,,,,,,,,,,1000.0,1000.0,OVC,1000.0,,,,,,
KRDR,09-24-2014,07:21,SPECI,Normal,190,10.0,,,9999.0,,15.0,14.0,29.99,,,,,,,,,,,,,,,,,1100.0,1100.0,BKN,1100.0,OVC,1900.0,,,,
KRDR,09-24-2014,07:18,SPECI,Normal,190,9.0,,,9999.0,,15.0,14.0,29.99,,,,,,,,,,,,,,,,,1400.0,1400.0,BKN,1400.0,OVC,2000.0,,,,
KRDR,09-24-2014,06:58,METAR,Normal,180,10.0,,,9999.0,,14.8,14.0,29.99,1015.9,,,,,,,,,,,,,,,,2000.0,2000.0,OVC,2000.0,,,,,,
KRDR,09-24-2014,05:58,METAR,Normal,180,6.0,,,9999.0,,13.6,12.8,30.00,1016.3,,,,,,,,,,,,,,,,2400.0,2400.0,BKN,2400.0,BKN,5000.0,,,,
KRDR,09-24-2014,05:53,SPECI,Normal,170,5.0,,,9999.0,,13.0,13.0,30.00,,,,,,,,,,,,,,,,,2400.0,2400.0,BKN,2400.0,BKN,5000.0,,,,
KRDR,09-24-2014,04:58,METAR,Normal,170,7.0,,,9999.0,,13.2,12.2,30.01,1016.7,,,,,,,,,,,,,,,Clear,72000.0,,,,,,,,,
KRDR,09-24-2014,03:58,METAR,Normal,170,6.0,,,9999.0,,13.4,12.1,30.01,1016.8,,,,,,,,,,,,,,,2/8 Mostly Clear,72000.0,4700.0,FEW,4700.0,,,,,,
KRDR,09-24-2014,02:58,METAR,Normal,170,11.0,,,9999.0,,15.9,12.2,30.01,1016.7,,,,,,,,,,,,,,,Clear,72000.0,,,,,,,,,
KRDR,09-24-2014,01:58,METAR,Normal,160,13.0,,,9999.0,,17.5,12.2,30.01,1016.8,,,,,,,,,,,,,,,2/8 Mostly Clear,72000.0,5500.0,FEW,5500.0,,,,,,
KRDR,09-24-2014,00:58,METAR,Normal,170,14.0,21.0,,9999.0,,18.6,11.8,30.00,1016.5,,,,,,,,,,,,,,,2/8 Mostly Clear,72000.0,12000.0,FEW,12000.0,,,,,,
KRDR,09-23-2014,23:58,METAR,Normal,160,19.0,27.0,,9999.0,,20.7,10.9,29.98,1015.8,,,,,,,,,,,,,,,Clear,72000.0,,,,,,,,,
KRDR,09-23-2014,22:58,METAR,Normal,160,16.0,24.0,,9999.0,,23.1,12.2,29.97,1015.4,,,,,,,,,,,,,,,Clear,72000.0,,,,,,,,,
KRDR,09-23-2014,21:58,METAR,Normal,180,14.0,,/  KTS,9999.0,,24.5,11.3,29.97,1015.3,,,,,,,,,,,,,,,Clear,72000.0,,,,,,,,,
KRDR,09-23-2014,20:58,METAR,Normal,170,19.0,27.0,170/27KTS,9999.0,,24.5,14.1,29.97,1015.3,,,,,,,,,,,,,,,2/8 Mostly Clear,72000.0,4500.0,FEW,4500.0,,,,,,
KRDR,09-23-2014,19:58,METAR,Normal,180,14.0,,,9999.0,,24.2,14.8,29.99,1016.1,,,,,,,,,,,,,,,Clear,72000.0,,,,,,,,,
KRDR,09-23-2014,18:58,METAR,Normal,180,16.0,22.0,,9999.0,,24.9,15.1,29.99,1016.0,,,,,,,,,,,,,,,Clear,72000.0,,,,,,,,,
KRDR,09-23-2014,17:58,METAR,Normal,170,14.0,,,9999.0,,23.3,14.4,30.01,1016.7,,,,,,,,,,,,,,,Clear,72000.0,,,,,,,,,
KRDR,09-23-2014,16:58,METAR,Normal,170,13.0,,,9999.0,,21.2,13.3,30.02,1017.1,,,,,,,,,,,,,,,Clear,72000.0,,,,,,,,,
KRDR,09-23-2014,15:58,METAR,Normal,170,10.0,,,9999.0,,19.1,12.7,30.02,1017.1,,,,,,,,,,,,,,,Clear,72000.0,,,,,,,,,
KRDR,09-23-2014,14:58,METAR,Normal,170,9.0,,,9999.0,,16.4,12.1,30.02,1017.1,,,,,,,,,,,,,,,Clear,72000.0,,,,,,,,,
KRDR,09-23-2014,13:58,METAR,Normal,160,10.0,,,9999.0,,13.6,11.3,30.02,1017.3,,,,,,,,,,,,,,,Clear,72000.0,,,,,,,,,
KRDR,09-23-2014,12:58,METAR,Normal,180,7.0,,,9999.0,,11.4,10.7,30.02,1017.3,,,,,,,,,,,,,,,Clear,72000.0,,,,,,,,,
KRDR,09-23-2014,11:58,METAR,Normal,180,8.0,,,9999.0,,10.7,10.4,30.02,1017.1,,,,,,,,,,,,,,,Clear,72000.0,,,,,,,,,
KRDR,09-23-2014,10:58,METAR,Normal,180,9.0,,,9999.0,,10.6,10.2,30.02,1017.0,,,,,,,,,,,,,,,Clear,72000.0,,,,,,,,,
KRDR,09-23-2014,09:58,METAR,Normal,150,6.0,,,9999.0,,10.5,10.2,30.01,1016.7,,,,,,,,,,,,,,,Clear,72000.0,,,,,,,,,
KRDR,09-23-2014,08:58,METAR,Normal,150,6.0,,,9999.0,,11.0,10.2,30.01,1016.7,,,,,,,,,,,,,,,Clear,72000.0,,,,,,,,,
KRDR,09-23-2014,07:58,METAR,Normal,150,5.0,,,9999.0,,9.9,9.6,30.01,1016.7,,,,,,,,,,,,,,,Clear,72000.0,,,,,,,,,
KRDR,09-23-2014,06:58,METAR,Normal,150,5.0,,,9999.0,,10.7,9.8,30.03,1017.4,,,,,,,,,,,,,,,Clear,72000.0,,,,,,,,,
KRDR,09-23-2014,05:58,METAR,Normal,140,6.0,,,9999.0,,11.6,9.3,30.03,1017.3,,,,,,,,,,,,,,,Clear,72000.0,,,,,,,,,
KRDR,09-23-2014,04:58,METAR,Normal,160,7.0,,,9999.0,,12.8,9.5,30.03,1017.4,,,,,,,,,,,,,,,Clear,72000.0,,,,,,,,,
KRDR,09-23-2014,03:58,METAR,Normal,170,6.0,,,9999.0,,13.0,9.5,30.03,1017.4,,,,,,,,,,,,,,,Clear,72000.0,,,,,,,,,
KRDR,09-23-2014,02:58,METAR,Normal,160,6.0,,,9999.0,,13.9,9.6,30.03,1017.4,,,,,,,,,,,,,,,Clear,72000.0,,,,,,,,,
KRDR,09-23-2014,01:58,METAR,Normal,150,7.0,,,9999.0,,14.2,9.2,30.03,1017.5,,,,,,,,,,,,,,,Clear,72000.0,,,,,,,,,
KRDR,09-23-2014,00:58,METAR,Normal,150,6.0,,,9999.0,,16.9,8.7,30.02,1017.3,,,,,,,,,,,,,,,Clear,72000.0,,,,,,,,,
KRDR,09-22-2014,23:58,METAR,Normal,190,7.0,,,9999.0,,21.3,8.7,30.02,1017.2,,,,,,,,,,,,,,,Clear,72000.0,,,,,,,,,
KRDR,09-22-2014,22:58,METAR,Normal,210,10.0,,,9999.0,,24.5,6.8,30.02,1017.1,,,,,,,,,,,,,,,Clear,72000.0,,,,,,,,,
KRDR,09-22-2014,21:58,METAR,Normal,210,11.0,,,9999.0,,25.2,6.8,30.03,1017.4,,,,,,,,,,,,,,,Clear,72000.0,,,,,,,,,
KRDR,09-22-2014,20:58,METAR,Normal,210,9.0,,,9999.0,,25.3,7.3,30.05,1018.1,,,,,,,,,,,,,,,Clear,72000.0,,,,,,,,,
KRDR,09-22-2014,19:58,METAR,Normal,210,12.0,16.0,,9999.0,,25.6,7.4,30.07,1018.8,,,,,,,,,,,,,,,Clear,72000.0,,,,,,,,,
KRDR,09-22-2014,18:58,METAR,Normal,220,6.0,,,9999.0,,25.4,7.5,30.09,1019.5,,,,,,,,,,,,,,,Clear,72000.0,,,,,,,,,
KRDR,09-22-2014,17:58,METAR,Normal,220,8.0,,,9999.0,,24.7,9.6,30.11,1020.1,,,,,,,,,,,,,,,Clear,72000.0,,,,,,,,,
KRDR,09-22-2014,16:58,METAR,Normal,240,7.0,,,9999.0,,23.0,10.1,30.12,1020.5,,,,,,,,,,,,,,,Clear,72000.0,,,,,,,,,
KRDR,09-22-2014,15:58,METAR,Normal,230,8.0,,,9999.0,,21.0,9.9,30.13,1020.9,,,,,,,,,,,,,,,Clear,72000.0,,,,,,,,,
KRDR,09-22-2014,13:58,METAR,Normal,240,5.0,,,9999.0,,14.9,10.4,30.13,1021.1,,,,,,,,,,,,,,,Clear,72000.0,,,,,,,,,
KRDR,09-22-2014,12:58,METAR,Normal,240,5.0,,,9999.0,,10.7,9.0,30.14,1021.5,,,,,,,,,,,,,,,Clear,72000.0,,,,,,,,,
KRDR,09-22-2014,11:58,METAR,Normal,240,5.0,,,9999.0,,8.6,8.2,30.14,1021.4,,,,,,,,,,,,,,,Clear,72000.0,,,,,,,,,
KRDR,09-22-2014,10:58,METAR,Normal,250,5.0,,,9999.0,,7.9,7.8,30.15,1021.8,,,,,,,,,,,,,,,Clear,72000.0,,,,,,,,,
KRDR,09-22-2014,09:58,METAR,Normal,260,5.0,,,9999.0,,8.0,7.9,30.14,1021.4,,,,,,,,,,,,,,,Clear,72000.0,,,,,,,,,
KRDR,09-22-2014,08:58,METAR,Normal,230,5.0,,,9999.0,,8.3,8.2,30.14,1021.4,,,,,,,,,,,,,,,Clear,72000.0,,,,,,,,,
KRDR,09-22-2014,07:58,METAR,Normal,230,6.0,,,9999.0,,8.2,8.1,30.15,1021.8,,,,,,,,,,,,,,,Clear,72000.0,,,,,,,,,
KRDR,09-22-2014,06:58,METAR,Normal,240,6.0,,,9999.0,,8.9,8.7,30.16,1022.1,,,,,,,,,,,,,,,Clear,72000.0,,,,,,,,,
KRDR,09-22-2014,05:58,METAR,Normal,230,5.0,,,9999.0,,9.5,9.4,30.16,1022.0,,,,,,,,,,,,,,,Clear,72000.0,,,,,,,,,
KRDR,09-22-2014,04:58,METAR,Normal,220,6.0,,,9999.0,,11.0,10.8,30.18,1022.7,,,,,,,,,,,,,,,Clear,72000.0,,,,,,,,,
KRDR,09-22-2014,03:58,METAR,Normal,220,5.0,,,9999.0,,9.0,8.9,30.18,1022.8,,,,,,,,,,,,,,,Clear,72000.0,,,,,,,,,
KRDR,09-22-2014,02:58,METAR,Normal,190,5.0,,,9999.0,,10.4,9.9,30.19,1023.2,,,,,,,,,,,,,,,Clear,72000.0,,,,,,,,,
KRDR,09-22-2014,01:58,METAR,Normal,210,5.0,,,9999.0,,11.0,10.2,30.19,1023.2,,,,,,,,,,,,,,,Clear,72000.0,,,,,,,,,
KRDR,09-22-2014,00:58,METAR,Normal,170,5.0,,,9999.0,,13.2,10.2,30.19,1023.2,,,,,,,,,,,,,,,Clear,72000.0,,,,,,,,,
KRDR,09-21-2014,23:58,METAR,Normal,150,4.0,,,9999.0,,17.3,11.1,30.19,1023.1,,,,,,,,,,,,,,,Clear,72000.0,,,,,,,,,
KRDR,09-21-2014,22:58,METAR,Normal,100,1.0,,,9999.0,,18.4,10.1,30.19,1023.1,,,,,,,,,,,,,,,Clear,72000.0,,,,,,,,,
KRDR,09-21-2014,21:58,METAR,Normal,20,4.0,,,9999.0,,18.7,10.4,30.20,1023.3,,,,,,,,,,,,,,,4/8 Partly Cloudy,72000.0,4200.0,SCT,4200.0,,,,,,
KRDR,09-21-2014,20:58,METAR,Normal,340,6.0,,,9999.0,,18.9,10.8,30.21,1023.7,,,,,,,,,,,,,,,4/8 Partly Cloudy,72000.0,4600.0,SCT,4600.0,,,,,,
KRDR,09-21-2014,19:58,METAR,Normal,30,8.0,,,9999.0,,18.1,11.3,30.22,1024.0,,,,,,,,,,,,,,,,3500.0,3300.0,SCT,3300.0,OVC,4400.0,,,,
KRDR,09-21-2014,18:58,METAR,Normal,20,8.0,,,9999.0,,17.2,11.3,30.23,1024.4,,,,,,,,,,,,,,,4/8 Partly Cloudy,72000.0,2700.0,FEW,2700.0,SCT,3800.0,,,,
KRDR,09-21-2014,18:33,SPECI,Variable,,4.0,,,9999.0,,17.0,11.0,30.23,,,,,,,,,,,,,,,,,2800.0,2800.0,SCT,2800.0,OVC,4100.0,,,,
KRDR,09-21-2014,18:08,SPECI,Normal,40,11.0,,,9999.0,,16.0,11.0,30.23,,,,,,,,,,,,,,,,,2600.0,2600.0,BKN,2600.0,BKN,4000.0,,,,
KRDR,09-21-2014,17:58,METAR,Normal,30,7.0,,,9999.0,,16.4,11.3,30.23,1024.4,,,,,,,,,,,,,,,,4000.0,2400.0,FEW,2400.0,BKN,4000.0,,,,
KRDR,09-21-2014,16:58,METAR,Normal,20,8.0,,,9999.0,,16.2,11.7,30.24,1024.8,,,,,,,,,,,,,,,2/8 Mostly Clear,72000.0,1800.0,FEW,1800.0,,,,,,
KRDR,09-21-2014,16:43,SPECI,Normal,20,8.0,,,9999.0,,16.0,12.0,30.24,,,,,,,,,,,,,,,,4/8 Partly Cloudy,72000.0,1800.0,FEW,1800.0,SCT,2500.0,,,,
KRDR,09-21-2014,15:58,METAR,Variable,360,7.0,,,9999.0,,14.2,12.2,30.23,1024.5,,,,,,,,,,,,,,,,1600.0,1600.0,BKN,1600.0,OVC,2100.0,,,,
KRDR,09-21-2014,15:38,SPECI,Normal,360,8.0,,,9999.0,,14.0,12.0,30.23,,,,,,,,,,,,,,,,,1500.0,1500.0,OVC,1500.0,,,,,,
KRDR,09-21-2014,14:58,METAR,Normal,10,12.0,,,9999.0,,13.6,12.0,30.21,1023.8,,,,,,,,,,,,,,,,1300.0,1300.0,BKN,1300.0,,,,,,
KRDR,09-21-2014,14:53,SPECI,Normal,10,11.0,,,9999.0,,14.0,12.0,30.21,,,,,,,,,,,,,,,,,1300.0,1300.0,BKN,1300.0,,,,,,
KRDR,09-21-2014,13:58,METAR,Normal,340,8.0,,,9999.0,,11.9,11.4,30.19,1023.2,,,,,,,,,,,,,,,Clear,72000.0,,,,,,,,,
KRDR,09-21-2014,12:58,METAR,Normal,330,8.0,,,9999.0,,9.7,9.6,30.16,1022.2,,,,,,,,,,,,,,,Clear,72000.0,,,,,,,,,
KRDR,09-21-2014,11:58,METAR,Normal,330,8.0,,,9999.0,,9.5,9.4,30.14,1021.4,,,,,,,,,,,,,,.16 IN,Clear,72000.0,,,,,,,,,
KRDR,09-21-2014,10:58,METAR,Normal,320,7.0,,,9999.0,,9.5,9.4,30.11,1020.5,,,,,,,,,,,,,,,Clear,72000.0,,,,,,,,,
KRDR,09-21-2014,09:58,METAR,Normal,330,8.0,,,9999.0,,10.5,10.4,30.08,1019.2,,,,,,,,,,,,,,,Clear,72000.0,,,,,,,,,
KRDR,09-21-2014,08:58,METAR,Normal,320,6.0,,,9999.0,,10.0,9.9,30.06,1018.6,,,,,,,,,,,,,,,Clear,72000.0,,,,,,,,,
KRDR,09-21-2014,07:58,METAR,Normal,340,6.0,,,9999.0,,10.8,10.4,30.04,1018.0,,,,,,,,,,,,,,,Clear,72000.0,,,,,,,,,
KRDR,09-21-2014,06:58,METAR,Normal,340,8.0,,,9999.0,,11.0,10.6,30.02,1017.3,,,,,,,,,,,,,,,Clear,72000.0,,,,,,,,,
KRDR,09-21-2014,05:58,METAR,Normal,340,7.0,,,9999.0,,11.7,10.8,30.00,1016.6,,,,,,,,,,,,,TRACE,,,6500.0,6500.0,OVC,6500.0,,,,,,
KRDR,09-21-2014,04:58,METAR,Normal,320,8.0,,,9999.0,,12.1,11.1,29.98,1015.8,,,,,,,,,,,,,,,,7500.0,6000.0,FEW,6000.0,BKN,7500.0,,,,
KRDR,09-21-2014,03:58,METAR,Normal,330,8.0,,,9999.0,,12.2,11.4,29.96,1015.2,,,,,,,,,,,,,,,,6000.0,4900.0,FEW,4900.0,BKN,6000.0,,,,
KRDR,09-21-2014,02:58,METAR,Normal,320,6.0,,,9999.0,,11.9,11.7,29.94,1014.5,,,,,,,,,,,,TRACE,,,,9500.0,5500.0,SCT,5500.0,BKN,9600.0,,,,
KRDR,09-21-2014,01:58,METAR,Normal,330,4.0,,,9999.0,,11.4,11.2,29.92,1013.9,,,,,,,,,,,,,,,,10000.0,10000.0,BKN,10000.0,,,,,,
KRDR,09-21-2014,00:58,METAR,Normal,40,8.0,,,9999.0,,14.2,12.9,29.89,1013.0,,,,,,,,,,,TRACE,,,,,7000.0,7000.0,BKN,7000.0,BKN,8000.0,OVC,10000.0,,
KRDR,09-21-2014,00:44,SPECI,Normal,20,7.0,,,9999.0,,14.0,13.0,29.88,,,,,,,,,,,,,,,,,6000.0,900.0,FEW,900.0,BKN,6000.0,OVC,8000.0,,
KRDR,09-21-2014,00:41,SPECI,Normal,30,8.0,,,9999.0,Light Rain,15.0,13.0,29.87,,61,,,,,,,,,,,,,,,6500.0,900.0,FEW,900.0,BKN,6500.0,OVC,8000.0,,
KRDR,09-21-2014,00:29,SPECI,Normal,50,11.0,,,9999.0,Light Rain,16.0,12.0,29.87,,61,,,,,,,,,,,,,,,6500.0,6500.0,BKN,6500.0,OVC,8000.0,,,,
KRDR,09-20-2014,23:58,METAR,Normal,340,8.0,,,9999.0,,16.1,10.9,29.85,1011.5,,,,,,,,,,,,,.02 IN,,4/8 Partly Cloudy,72000.0,8500.0,SCT,8600.0,SCT,11000.0,,,,
KRDR,09-20-2014,22:58,METAR,Normal,340,9.0,,320/33KTS,9999.0,,15.2,9.3,29.83,1010.9,,,,,,,,,,,TRACE,,,,,10000.0,6000.0,SCT,6000.0,SCT,8000.0,BKN,10000.0,,
KRDR,09-20-2014,22:55,SPECI,Normal,340,9.0,,,9999.0,,15.0,9.0,29.83,,,,,,,,,,,,,,,,,10000.0,6000.0,SCT,6000.0,SCT,8000.0,BKN,10000.0,,
KRDR,09-20-2014,22:37,SPECI,Variable,10,17.0,21.0,,9999.0,Light Rain,19.0,12.0,29.83,,61,,,,,,,,,,,,,,4/8 Partly Cloudy,72000.0,4700.0,FEW,4700.0,SCT,9600.0,,,,
KRDR,09-20-2014,21:58,METAR,Normal,340,16.0,22.0,,9999.0,,19.0,11.3,29.81,1010.0,,,,,,,,,,,,,,,Clear,72000.0,,,,,,,,,
KRDR,09-20-2014,20:58,METAR,Normal,340,15.0,27.0,340/27KTS,9999.0,,18.3,11.8,29.82,1010.5,,,,,,,,,,,,.02 IN,,,4/8 Partly Cloudy,72000.0,3400.0,SCT,3400.0,,,,,,
KRDR,09-20-2014,20:13,SPECI,Normal,330,15.0,27.0,,9999.0,,16.0,12.0,29.81,,,,,,,,,,,,,,,,,4800.0,2100.0,FEW,2100.0,SCT,2700.0,BKN,4800.0,,
KRDR,09-20-2014,19:58,METAR,Normal,330,18.0,25.0,310/27KTS,9999.0,,16.0,12.8,29.81,1010.1,,,,,,,,,,,TRACE,,,,,2000.0,2000.0,BKN,2000.0,BKN,2700.0,OVC,3400.0,,
KRDR,09-20-2014,19:43,SPECI,Normal,340,14.0,18.0,,9999.0,,16.0,13.0,29.81,,,,,,,,,,,,,,,,,2000.0,2000.0,BKN,2000.0,BKN,2700.0,,,,
KRDR,09-20-2014,18:58,METAR,Normal,340,17.0,23.0,,9999.0,,13.7,13.6,29.79,1009.5,,,,,,,,,,,.02 IN,,,,,4900.0,1900.0,FEW,1900.0,SCT,4000.0,BKN,4900.0,,
KRDR,09-20-2014,18:56,SPECI,Normal,340,17.0,23.0,,9999.0,,14.0,14.0,29.79,,,,,,,,,,,,,,,,,4900.0,1900.0,FEW,1900.0,SCT,4000.0,BKN,4900.0,,
KRDR,09-20-2014,18:41,SPECI,Normal,330,17.0,23.0,,9999.0,Light Drizzle,14.0,14.0,29.78,,51,,,,,,,,,,,,,,,4500.0,1800.0,SCT,1800.0,BKN,4500.0,,,,
KRDR,09-20-2014,18:22,SPECI,Normal,330,14.0,21.0,,9999.0,,14.0,14.0,29.77,,,,,,,,,,,,,,,,4/8 Partly Cloudy,72000.0,1600.0,FEW,1600.0,SCT,4000.0,,,,
KRDR,09-20-2014,17:58,METAR,Normal,330,13.0,19.0,270/46KTS,9999.0,Light Rain,13.7,13.6,29.75,1008.1,61,,,,,,,,,,.14 IN,,.14 IN,,,6000.0,6000.0,OVC,6000.0,,,,,,
KRDR,09-20-2014,17:48,SPECI,Normal,330,11.0,,,9999.0,Rain/Distant Lightning/Mist,14.0,13.0,29.75,,62,10,12,,,,,,,,,,,,,6500.0,6500.0,OVC,6500.0,,,,,,
KRDR,09-20-2014,17:33,SPECI,Normal,320,15.0,33.0,,4800.0,Thunderstorm and Rain or Snow Showers/Mist,14.0,14.0,29.76,,92,10,,,,,,,,,,,,,,4700.0,3100.0,FEW,3100.0,OVC,5500.0,,,,
KRDR,09-20-2014,17:32,SPECI,Normal,320,17.0,36.0,,4800.0,Rain/Distant Lightning/Mist,14.0,14.0,29.76,,62,10,12,,,,,,,,,,,,,4700.0,1600.0,FEW,1600.0,SCT,3100.0,OVC,5500.0,,
KRDR,09-20-2014,17:27,SPECI,Normal,330,23.0,40.0,,2000.0,Heavy Rain/Mist,16.0,15.0,29.76,,63,10,,,,,,,,,,,,,,2900.0,1600.0,FEW,1600.0,SCT,3200.0,BKN,4500.0,,
KRDR,09-20-2014,17:22,SPECI,Normal,320,27.0,40.0,,2400.0,Light Rain,19.0,17.0,29.76,,61,,,,,,,,,,,,,,,3200.0,3200.0,BKN,3200.0,BKN,6000.0,,,,
KRDR,09-20-2014,17:17,SPECI,Normal,290,14.0,17.0,,9999.0,Light Rain,20.0,15.0,29.74,,61,,,,,,,,,,,,,,,6000.0,3200.0,SCT,3200.0,BKN,6000.0,,,,
KRDR,09-20-2014,16:58,METAR,Normal,240,7.0,,,9999.0,,19.7,15.0,29.73,1007.1,,,,,,,,,,,,,,,,6000.0,6000.0,BKN,6000.0,,,,,,
KRDR,09-20-2014,15:58,METAR,Normal,210,5.0,,,9999.0,,17.1,14.5,29.76,1008.2,,,,,,,,,,,,,,,Clear,72000.0,,,,,,,,,
KRDR,09-20-2014,14:58,METAR,Normal,220,6.0,,,9999.0,,15.0,14.1,29.79,1009.3,,,,,,,,,,,,,,,2/8 Mostly Clear,72000.0,1100.0,FEW,1100.0,,,,,,
KRDR,09-20-2014,14:44,SPECI,Normal,230,6.0,,,9999.0,,15.0,14.0,29.80,,,,,,,,,,,,,,,,2/8 Mostly Clear,72000.0,1100.0,FEW,1100.0,,,,,,
KRDR,09-20-2014,13:58,METAR,Normal,220,5.0,,,9999.0,,13.3,13.2,29.81,1010.0,,,,,,,,,,,,,,,Clear,72000.0,,,,,,,,,
KRDR,09-20-2014,12:58,METAR,Normal,200,5.0,,,9999.0,,9.5,9.5,29.81,1010.0,,,,,,,,,,,,,,,4/8 Partly Cloudy,72000.0,1700.0,SCT,1700.0,,,,,,
KRDR,09-20-2014,11:58,METAR,Normal,240,3.0,,,9999.0,,10.1,10.1,29.80,1009.6,,,,,,,,,,,,,,,,3800.0,3800.0,OVC,3800.0,,,,,,
KRDR,09-20-2014,10:58,METAR,Normal,300,3.0,,,9999.0,,8.4,8.3,29.78,1008.8,,,,,,,,,,,,,,,4/8 Partly Cloudy,72000.0,3900.0,SCT,3900.0,,,,,,
KRDR,09-20-2014,09:58,METAR,Normal,330,4.0,,,9999.0,,10.7,10.6,29.77,1008.4,,,,,,,,,,,,,,,Clear,72000.0,,,,,,,,,
KRDR,09-20-2014,08:58,METAR,Normal,310,6.0,,,9999.0,,10.6,10.4,29.76,1008.0,,,,,,,,,,,,,,,Clear,72000.0,,,,,,,,,
KRDR,09-20-2014,07:58,METAR,Normal,310,7.0,,,9999.0,,11.4,11.3,29.75,1007.7,,,,,,,,,,,,,,,Clear,72000.0,,,,,,,,,
KRDR,09-20-2014,06:58,METAR,Normal,320,4.0,,,9999.0,,12.0,11.9,29.75,1007.8,,,,,,,,,,,,,,,Clear,72000.0,,,,,,,,,
KRDR,09-20-2014,05:58,METAR,Normal,350,8.0,,,9999.0,,14.1,12.6,29.73,1007.1,,,,,,,,,,,,,,,2/8 Mostly Clear,72000.0,1400.0,FEW,1400.0,,,,,,
KRDR,09-20-2014,05:48,SPECI,Normal,350,9.0,,,9999.0,,15.0,13.0,29.73,,,,,,,,,,,,,,,,4/8 Partly Cloudy,72000.0,1400.0,SCT,1400.0,,,,,,
KRDR,09-20-2014,05:18,SPECI,Normal,360,9.0,,,9999.0,,15.0,13.0,29.72,,,,,,,,,,,,,,,,,1400.0,1400.0,BKN,1400.0,,,,,,
KRDR,09-20-2014,04:58,METAR,Normal,360,8.0,,,9999.0,,15.4,12.8,29.71,1006.5,,,,,,,,,,,,,,,4/8 Partly Cloudy,72000.0,1700.0,FEW,1700.0,SCT,11000.0,,,,
KRDR,09-20-2014,03:58,METAR,Normal,350,9.0,,,9999.0,,16.6,13.3,29.68,1005.4,,,,,,,,,,,,,,,,11000.0,11000.0,BKN,11000.0,,,,,,
KRDR,09-20-2014,02:58,METAR,Normal,360,12.0,16.0,,9999.0,,16.9,14.3,29.65,1004.4,,,,,,,,,,,,,,,Clear,72000.0,,,,,,,,,
KRDR,09-20-2014,01:58,METAR,Variable,360,12.0,,,9999.0,,18.6,16.8,29.62,1003.3,,,,,,,,,,,,,,,Clear,72000.0,,,,,,,,,
KRDR,09-20-2014,01:07,SPECI,Normal,10,12.0,20.0,,9999.0,,21.0,13.0,29.56,,,,,,,,,,,,,,,,Clear,72000.0,,,,,,,,,
KRDR,09-20-2014,00:58,METAR,Normal,310,6.0,,,9999.0,,21.3,13.5,29.54,1000.5,,,,,,,,,,,,,,,Clear,72000.0,,,,,,,,,
KRDR,09-19-2014,23:58,METAR,Normal,270,6.0,,,9999.0,,24.5,13.8,29.51,999.5,,,,,,,,,,,,,,,Clear,72000.0,,,,,,,,,
KRDR,09-19-2014,22:58,METAR,Normal,280,12.0,19.0,,9999.0,,27.4,12.1,29.51,999.4,,,,,,,,,,,,,,,Clear,72000.0,,,,,,,,,
KRDR,09-19-2014,21:58,METAR,Normal,260,10.0,16.0,,9999.0,,28.6,13.5,29.50,999.0,,,,,,,,,,,,,,,Clear,72000.0,,,,,,,,,
KRDR,09-19-2014,20:58,METAR,Normal,250,9.0,,,9999.0,,28.2,16.4,29.50,999.0,,,,,,,,,,,,,,,2/8 Mostly Clear,72000.0,11000.0,FEW,11000.0,,,,,,
KRDR,09-19-2014,19:58,METAR,Normal,230,14.0,,,9999.0,,27.7,17.0,29.52,999.6,,,,,,,,,,,,,,,Clear,72000.0,,,,,,,,,
KRDR,09-19-2014,18:58,METAR,Normal,190,10.0,,,9999.0,,25.6,18.1,29.52,999.7,,,,,,,,,,,,,,,Clear,72000.0,,,,,,,,,
KRDR,09-19-2014,17:58,METAR,Normal,170,10.0,,,9999.0,,21.2,19.8,29.53,1000.1,,,,,,,,,,,TRACE,,TRACE,,Clear,72000.0,,,,,,,,,
KRDR,09-19-2014,17:16,SPECI,Normal,150,6.0,,,9999.0,Distant Lightning,19.0,19.0,29.53,,12,,,,,,,,,,,,,,,12000.0,400.0,FEW,400.0,SCT,9100.0,OVC,12000.0,,
KRDR,09-19-2014,17:11,SPECI,Normal,150,6.0,,,8000.0,Dry Thunderstorm/Mist,19.0,19.0,29.52,,91,10,,,,,,,,,,,,,,9000.0,400.0,FEW,400.0,BKN,9100.0,OVC,12000.0,,
KRDR,09-19-2014,17:06,SPECI,Normal,120,5.0,,,3200.0,Thunderstorm and Rain or Snow Showers/Mist,19.0,19.0,29.52,,92,10,,,,,,,,,,,,,,9000.0,300.0,FEW,300.0,BKN,9100.0,OVC,12000.0,,
KRDR,09-19-2014,17:01,SPECI,Normal,100,3.0,,,4800.0,Thunderstorm and Rain or Snow Showers/Mist,19.0,19.0,29.53,,92,10,,,,,,,,,,,,,,9000.0,800.0,FEW,800.0,OVC,9100.0,,,,
KRDR,09-19-2014,16:58,METAR,Normal,250,4.0,,,9999.0,Light Drizzle,18.8,18.6,29.55,1000.9,51,,,,,,,,,,TRACE,,,,,9000.0,9000.0,OVC,9100.0,,,,,,
KRDR,09-19-2014,16:41,SPECI,Normal,190,6.0,,,9999.0,Light Rain,19.0,19.0,29.57,,61,,,,,,,,,,,,,,,9500.0,9500.0,OVC,9600.0,,,,,,
KRDR,09-19-2014,16:40,SPECI,Normal,200,6.0,,,9999.0,,19.0,19.0,29.57,,,,,,,,,,,,,,,,,9500.0,9500.0,OVC,9600.0,,,,,,
KRDR,09-19-2014,16:29,SPECI,Normal,200,6.0,,,9999.0,Light Rain,19.0,18.0,29.57,,61,,,,,,,,,,,,,,,10000.0,10000.0,OVC,10000.0,,,,,,
KRDR,09-19-2014,15:58,METAR,Normal,190,9.0,,,9999.0,,19.5,18.3,29.55,1000.9,,,,,,,,,,,,,,,,9500.0,9500.0,BKN,9600.0,OVC,12000.0,,,,
KRDR,09-19-2014,14:58,METAR,Normal,220,10.0,,,9999.0,,18.9,18.2,29.53,1000.2,,,,,,,,,,,,,,,4/8 Partly Cloudy,72000.0,12000.0,SCT,12000.0,,,,,,
KRDR,09-19-2014,13:58,METAR,Normal,170,11.0,,,9999.0,,18.3,18.0,29.53,1000.3,,,,,,,,,,,,,,,,11000.0,11000.0,OVC,11000.0,,,,,,
KRDR,09-19-2014,12:58,METAR,Normal,180,10.0,,,9999.0,,18.2,17.5,29.53,1000.3,,,,,,,,,,,,,,,Clear,72000.0,,,,,,,,,
KRDR,09-19-2014,11:58,METAR,Normal,180,16.0,,,9999.0,,18.2,16.9,29.54,1000.5,,,,,,,,,,,,,,,,12000.0,12000.0,BKN,12000.0,,,,,,
KRDR,09-19-2014,10:58,METAR,Normal,210,13.0,22.0,,9999.0,,18.3,15.9,29.57,1001.6,,,,,,,,,,,,,,,,12000.0,12000.0,OVC,12000.0,,,,,,
KRDR,09-19-2014,09:58,METAR,Normal,210,19.0,27.0,,9999.0,,18.6,15.3,29.58,1001.8,,,,,,,,,,,,,,,Clear,72000.0,,,,,,,,,
KRDR,09-19-2014,08:58,METAR,Normal,220,20.0,25.0,190/26KTS,9999.0,,19.0,15.0,29.58,1001.8,,,,,,,,,,,,,,,2/8 Mostly Clear,72000.0,12000.0,FEW,12000.0,,,,,,
KRDR,09-19-2014,07:58,METAR,Normal,210,20.0,26.0,200/28KTS,9999.0,,19.4,14.9,29.61,1002.9,,,,,,,,,,,,,,,,12000.0,12000.0,BKN,12000.0,,,,,,
KRDR,09-19-2014,06:58,METAR,Normal,210,20.0,30.0,,9999.0,,19.8,15.3,29.62,1003.3,,,,,,,,,,,,,,,Clear,72000.0,,,,,,,,,
KRDR,09-19-2014,05:58,METAR,Normal,210,19.0,27.0,,9999.0,,20.2,15.2,29.65,1004.4,,,,,,,,,,,,,,,Clear,72000.0,,,,,,,,,
KRDR,09-19-2014,04:58,METAR,Normal,200,14.0,20.0,,9999.0,,20.1,16.0,29.66,1004.8,,,,,,,,,,,,,,,Clear,72000.0,,,,,,,,,
KRDR,09-19-2014,03:58,METAR,Normal,200,13.0,20.0,,9999.0,,20.3,16.6,29.68,1005.6,,,,,,,,,,,,,,,Clear,72000.0,,,,,,,,,
KRDR,09-19-2014,02:58,METAR,Normal,170,15.0,,,9999.0,,20.5,16.8,29.69,1006.0,,,,,,,,,,,,,,,Clear,72000.0,,,,,,,,,
KRDR,09-19-2014,01:58,METAR,Normal,160,14.0,,,9999.0,,20.2,17.0,29.71,1006.7,,,,,,,,,,,,,,,Clear,72000.0,,,,,,,,,
KRDR,09-19-2014,00:58,METAR,Normal,150,10.0,,,9999.0,,20.3,16.6,29.71,1006.8,,,,,,,,,,,,,,,Clear,72000.0,,,,,,,,,
KRDR,09-18-2014,23:58,METAR,Normal,150,12.0,,,9999.0,,20.9,15.7,29.73,1007.5,,,,,,,,,,,,,,,Clear,72000.0,,,,,,,,,
KRDR,09-18-2014,22:58,METAR,Normal,170,15.0,20.0,,9999.0,,21.8,15.1,29.75,1008.2,,,,,,,,,,,,,,,,12000.0,7500.0,FEW,7500.0,BKN,12000.0,,,,
KRDR,09-18-2014,21:58,METAR,Normal,170,15.0,,,9999.0,,21.7,14.5,29.78,1009.2,,,,,,,,,,,,,,,Clear,72000.0,,,,,,,,,
KRDR,09-18-2014,20:58,METAR,Normal,160,15.0,,,9999.0,,22.0,14.5,29.81,1010.2,,,,,,,,,,,,,,,Clear,72000.0,,,,,,,,,
KRDR,09-18-2014,19:58,METAR,Normal,170,15.0,,,9999.0,,21.1,14.2,29.85,1011.6,,,,,,,,,,,,,,,Clear,72000.0,,,,,,,,,
KRDR,09-18-2014,18:58,METAR,Normal,150,12.0,,,9999.0,,18.0,13.7,29.90,1013.4,,,,,,,,,,,,,,,Clear,72000.0,,,,,,,,,
KRDR,09-18-2014,18:18,SPECI,Normal,150,11.0,,,9999.0,,16.0,13.0,29.92,,,,,,,,,,,,,,,,4/8 Partly Cloudy,72000.0,1200.0,SCT,1200.0,,,,,,
KRDR,09-18-2014,18:03,SPECI,Normal,140,11.0,,,9999.0,,16.0,13.0,29.92,,,,,,,,,,,,,,,,,1100.0,1100.0,BKN,1100.0,,,,,,
KRDR,09-18-2014,17:58,METAR,Normal,170,12.0,,,9999.0,,15.0,13.0,29.93,1014.4,,,,,,,,,,,,,,,,800.0,900.0,BKN,900.0,OVC,1300.0,,,,
KRDR,09-18-2014,17:23,SPECI,Normal,150,11.0,,,9999.0,,14.0,13.0,29.94,,,,,,,,,,,,,,,,,700.0,700.0,OVC,700.0,,,,,,
KRDR,09-18-2014,17:08,SPECI,Normal,150,13.0,,,9999.0,,13.0,13.0,29.94,,,,,,,,,,,,,,,,,600.0,600.0,OVC,600.0,,,,,,
KRDR,09-18-2014,16:58,METAR,Normal,160,11.0,,,9999.0,,13.0,12.8,29.95,1015.2,,,,,,,,,,,,,,,,500.0,500.0,OVC,500.0,,,,,,
KRDR,09-18-2014,16:38,SPECI,Normal,150,11.0,,,9999.0,,12.0,12.0,29.96,,,,,,,,,,,,,,,,,500.0,500.0,OVC,500.0,,,,,,
KRDR,09-18-2014,16:08,SPECI,Normal,160,9.0,,,9999.0,,11.0,11.0,29.97,,,,,,,,,,,,,,,,,400.0,400.0,OVC,400.0,,,,,,
KRDR,09-18-2014,15:58,METAR,Normal,150,7.0,,,9999.0,,10.8,10.8,29.97,1015.8,,,,,,,,,,,,,,,,300.0,300.0,OVC,300.0,,,,,,
KRDR,09-18-2014,15:43,SPECI,Normal,160,9.0,,,8000.0,Mist,10.0,10.0,29.97,,10,,,,,,,,,,,,,,,200.0,200.0,OVC,200.0,,,,,,
KRDR,09-18-2014,15:38,SPECI,Normal,150,8.0,,,3200.0,Mist,10.0,10.0,29.97,,10,,,,,,,,,,,,,,,200.0,200.0,OVC,200.0,,,,,,
KRDR,09-18-2014,15:33,SPECI,Normal,150,9.0,,,2400.0,Mist,10.0,10.0,29.97,,10,,,,,,,,,,,,,,,200.0,200.0,OVC,200.0,,,,,,
KRDR,09-18-2014,15:28,SPECI,Normal,160,8.0,,,1600.0,Mist,10.0,10.0,29.97,,10,,,,,,,,,,,,,,Sky Obscured (Unable to Estimate),200.0,200.0,,200.0,,,,,,
KRDR,09-18-2014,15:23,SPECI,Normal,160,8.0,,,800.0,Fog,9.0,9.0,29.97,,30,,,,,,,,,,,,,,Sky Obscured (Unable to Estimate),200.0,200.0,,200.0,,,,,,
KRDR,09-18-2014,15:18,SPECI,Normal,150,9.0,,,800.0,Fog,9.0,9.0,29.97,,30,,,,,,,,,,,,,,Sky Obscured (Unable to Estimate),200.0,200.0,,200.0,,,,,,
KRDR,09-18-2014,15:03,SPECI,Normal,160,9.0,,,800.0,Fog,9.0,9.0,29.98,,30,,,,,,,,,,,,,,Sky Obscured (Unable to Estimate),200.0,200.0,,200.0,,,,,,
KRDR,09-18-2014,14:58,METAR,Normal,150,9.0,,,800.0,Fog,8.0,8.0,29.98,1016.2,30,,,,,,,,,,,,,,Sky Obscured (Unable to Estimate),100.0,100.0,,100.0,,,,,,
KRDR,09-18-2014,14:48,SPECI,Normal,160,7.0,,,800.0,Fog,8.0,8.0,29.98,,30,,,,,,,,,,,,,,Sky Obscured (Unable to Estimate),100.0,100.0,,100.0,,,,,,
KRDR,09-18-2014,14:38,SPECI,Normal,150,8.0,,,400.0,Fog,8.0,8.0,29.98,,30,,,,,,,,,,,,,,Sky Obscured (Unable to Estimate),100.0,100.0,,100.0,,,,,,
KRDR,09-18-2014,14:33,SPECI,Normal,160,9.0,,,400.0,Fog,7.0,7.0,29.98,,30,,,,,,,,,,,,,,Sky Obscured (Unable to Estimate),200.0,200.0,,200.0,,,,,,
KRDR,09-18-2014,14:28,SPECI,Normal,150,7.0,,,800.0,Fog,7.0,7.0,29.98,,30,,,,,,,,,,,,,,Sky Obscured (Unable to Estimate),200.0,200.0,,200.0,,,,,,
KRDR,09-18-2014,14:18,SPECI,Normal,140,7.0,,,800.0,Fog,7.0,7.0,29.98,,30,,,,,,,,,,,,,,Sky Obscured (Unable to Estimate),200.0,200.0,,200.0,,,,,,
KRDR,09-18-2014,14:13,SPECI,Normal,140,8.0,,,1200.0,Mist,7.0,7.0,29.98,,10,,,,,,,,,,,,,,Sky Obscured (Unable to Estimate),200.0,200.0,,200.0,,,,,,
KRDR,09-18-2014,14:08,SPECI,Normal,140,7.0,,,2800.0,Mist,7.0,7.0,29.98,,10,,,,,,,,,,,,,,,300.0,300.0,OVC,300.0,,,,,,
KRDR,09-18-2014,14:03,SPECI,Normal,140,6.0,,,4000.0,Mist,7.0,7.0,29.98,,10,,,,,,,,,,,,,,,300.0,300.0,OVC,300.0,,,,,,
KRDR,09-18-2014,13:58,METAR,Normal,140,7.0,,,6400.0,Mist,6.7,6.6,29.99,1016.6,10,,,,,,,,,,,,,,,300.0,300.0,OVC,300.0,,,,,,
KRDR,09-18-2014,13:50,SPECI,Normal,150,7.0,,,9999.0,,7.0,6.0,29.99,,,,,,,,,,,,,,,,,300.0,300.0,OVC,300.0,,,,,,
KRDR,09-18-2014,13:40,SPECI,Normal,170,5.0,,,9999.0,,6.0,6.0,29.99,,,,,,,,,,,,,,,,,400.0,400.0,OVC,400.0,,,,,,
KRDR,09-18-2014,13:25,SPECI,Normal,140,1.0,,,9999.0,,5.0,5.0,29.99,,,,,,,,,,,,,,,,,500.0,500.0,BKN,500.0,,,,,,
KRDR,09-18-2014,13:15,SPECI,Calm,,0.0,,,9999.0,,4.0,4.0,29.99,,,,,,,,,,,,,,,,2/8 Mostly Clear,72000.0,500.0,FEW,500.0,,,,,,
KRDR,09-18-2014,12:58,METAR,Calm,,0.0,,,8000.0,Mist,2.3,2.2,30.00,1017.0,10,,,,,,,,,,,,,,Clear,72000.0,,,,,,,,,
KRDR,09-18-2014,12:48,SPECI,Normal,230,2.0,,,6400.0,Mist,2.0,2.0,30.00,,10,,,,,,,,,,,,,,Clear,72000.0,,,,,,,,,
KRDR,09-18-2014,12:43,SPECI,Normal,230,2.0,,,1200.0,Mist,2.0,1.0,30.00,,10,,,,,,,,,,,,,,Clear,72000.0,,,,,,,,,
KRDR,09-18-2014,12:23,SPECI,Normal,240,1.0,,,400.0,Fog,1.0,0.0,30.00,,30,,,,,,,,,,,,,,Clear,72000.0,,,,,,,,,
KRDR,09-18-2014,11:58,METAR,Calm,,0.0,,,800.0,Fog,1.3,1.2,29.99,1016.6,30,,,,,,,,,,,,,,Clear,72000.0,,,,,,,,,
KRDR,09-18-2014,11:48,SPECI,Calm,,0.0,,,1200.0,Mist,0.0,0.0,29.99,,10,,,,,,,,,,,,,,Clear,72000.0,,,,,,,,,
KRDR,09-18-2014,11:33,SPECI,Calm,,0.0,,,800.0,Fog or Ice Fog,0.0,0.0,30.00,,,,,44,,,,,,,,,,,Clear,72000.0,,,,,,,,,
KRDR,09-18-2014,11:28,SPECI,Calm,,0.0,,,1200.0,Mist,0.0,0.0,30.00,,10,,,,,,,,,,,,,,Clear,72000.0,,,,,,,,,
KRDR,09-18-2014,11:23,SPECI,Calm,,0.0,,,1600.0,Mist,1.0,0.0,30.00,,10,,,,,,,,,,,,,,Clear,72000.0,,,,,,,,,
KRDR,09-18-2014,11:18,SPECI,Normal,350,1.0,,,1200.0,Mist,1.0,0.0,30.00,,10,,,,,,,,,,,,,,Clear,72000.0,,,,,,,,,
KRDR,09-18-2014,11:00,SPECI,Normal,30,2.0,,,9999.0,,2.0,2.0,30.00,,,,,,,,,,,,,,,,Clear,72000.0,,,,,,,,,
KRDR,09-18-2014,10:58,METAR,Normal,30,2.0,,,1200.0,Mist,1.7,1.5,30.00,1016.8,10,,,,,,,,,,,,,,Clear,72000.0,,,,,,,,,
KRDR,09-18-2014,10:53,SPECI,Normal,20,2.0,,,1200.0,Mist,2.0,1.0,30.00,,10,,,,,,,,,,,,,,Clear,72000.0,,,,,,,,,
KRDR,09-18-2014,10:48,SPECI,Normal,350,2.0,,,1200.0,Mist,2.0,1.0,30.01,,10,,,,,,,,,,,,,,Clear,72000.0,,,,,,,,,
KRDR,09-18-2014,10:43,SPECI,Normal,350,2.0,,,1200.0,Mist,2.0,2.0,30.01,,10,,,,,,,,,,,,,,Clear,72000.0,,,,,,,,,
KRDR,09-18-2014,10:38,SPECI,Normal,350,2.0,,,3200.0,Mist,2.0,2.0,30.01,,10,,,,,,,,,,,,,,Clear,72000.0,,,,,,,,,
KRDR,09-18-2014,10:33,SPECI,Normal,350,2.0,,,4000.0,Mist,2.0,2.0,30.01,,10,,,,,,,,,,,,,,Clear,72000.0,,,,,,,,,
KRDR,09-18-2014,10:18,SPECI,Normal,350,2.0,,,6400.0,Mist,2.0,2.0,30.01,,10,,,,,,,,,,,,,,Clear,72000.0,,,,,,,,,
KRDR,09-18-2014,10:03,SPECI,Normal,340,2.0,,,9999.0,Mist,2.0,2.0,30.02,,10,,,,,,,,,,,,,,Clear,72000.0,,,,,,,,,
KRDR,09-18-2014,09:58,METAR,Normal,320,2.0,,,4000.0,Mist,2.0,2.0,30.02,1017.5,10,,,,,,,,,,,,,,Clear,72000.0,,,,,,,,,
KRDR,09-18-2014,09:53,SPECI,Normal,330,4.0,,,1600.0,Mist,2.0,2.0,30.02,,10,,,,,,,,,,,,,,Clear,72000.0,,,,,,,,,
KRDR,09-18-2014,09:43,SPECI,Normal,10,2.0,,,1200.0,Mist,2.0,2.0,30.02,,10,,,,,,,,,,,,,,Clear,72000.0,,,,,,,,,
KRDR,09-18-2014,09:38,SPECI,Normal,20,2.0,,,1600.0,Mist,2.0,2.0,30.02,,10,,,,,,,,,,,,,,Clear,72000.0,,,,,,,,,
KRDR,09-18-2014,09:33,SPECI,Normal,30,3.0,,,4800.0,Mist,2.0,2.0,30.02,,10,,,,,,,,,,,,,,Clear,72000.0,,,,,,,,,
KRDR,09-18-2014,09:28,SPECI,Normal,30,3.0,,,4000.0,Mist,3.0,2.0,30.02,,10,,,,,,,,,,,,,,Clear,72000.0,,,,,,,,,
KRDR,09-18-2014,09:23,SPECI,Normal,30,3.0,,,2800.0,Mist,2.0,2.0,30.02,,10,,,,,,,,,,,,,,Clear,72000.0,,,,,,,,,
KRDR,09-18-2014,09:18,SPECI,Normal,10,3.0,,,2400.0,Mist,2.0,2.0,30.02,,10,,,,,,,,,,,,,,Clear,72000.0,,,,,,,,,
KRDR,09-18-2014,09:13,SPECI,Normal,360,2.0,,,1200.0,Mist,2.0,2.0,30.02,,10,,,,,,,,,,,,,,Clear,72000.0,,,,,,,,,
KRDR,09-18-2014,09:08,SPECI,Normal,10,3.0,,,800.0,Fog,2.0,2.0,30.02,,30,,,,,,,,,,,,,,Clear,72000.0,,,,,,,,,
KRDR,09-18-2014,09:03,SPECI,Normal,20,3.0,,,1200.0,Mist,2.0,2.0,30.02,,10,,,,,,,,,,,,,,Clear,72000.0,,,,,,,,,
KRDR,09-18-2014,08:58,METAR,Normal,30,3.0,,,3200.0,Mist,2.0,2.0,30.03,1017.9,10,,,,,,,,,,,,,,Clear,72000.0,,,,,,,,,
KRDR,09-18-2014,08:53,SPECI,Normal,30,2.0,,,4800.0,Mist,3.0,3.0,30.03,,10,,,,,,,,,,,,,,Clear,72000.0,,,,,,,,,
KRDR,09-18-2014,08:33,SPECI,Normal,10,2.0,,,9999.0,,3.0,3.0,30.03,,,,,,,,,,,,,,,,Clear,72000.0,,,,,,,,,
KRDR,09-18-2014,08:23,SPECI,Normal,360,3.0,,,9999.0,,3.0,3.0,30.03,,,,,,,,,,,,,,,,Clear,72000.0,,,,,,,,,
KRDR,09-18-2014,08:18,SPECI,Normal,360,3.0,,,9999.0,,3.0,3.0,30.03,,,,,,,,,,,,,,,,Clear,72000.0,,,,,,,,,
KRDR,09-18-2014,07:58,METAR,Normal,360,3.0,,,9999.0,,3.0,2.9,30.04,1018.2,,,,,,,,,,,,,,,Clear,72000.0,,,,,,,,,
KRDR,09-18-2014,07:48,SPECI,Normal,360,3.0,,,9999.0,,3.0,3.0,30.04,,,,,,,,,,,,,,,,Clear,72000.0,,,,,,,,,
KRDR,09-18-2014,07:28,SPECI,Normal,350,3.0,,,9999.0,,3.0,3.0,30.04,,,,,,,,,,,,,,,,Clear,72000.0,,,,,,,,,
KRDR,09-18-2014,07:13,SPECI,Normal,350,2.0,,,9999.0,,3.0,3.0,30.05,,,,,,,,,,,,,,,,Clear,72000.0,,,,,,,,,
KRDR,09-18-2014,07:03,SPECI,Normal,360,2.0,,,9999.0,,3.0,3.0,30.05,,,,,,,,,,,,,,,,Clear,72000.0,,,,,,,,,
KRDR,09-18-2014,06:58,METAR,Normal,10,3.0,,,9999.0,,3.4,3.3,30.04,1018.2,,,,,,,,,,,,,,,Clear,72000.0,,,,,,,,,
KRDR,09-18-2014,05:58,METAR,Normal,360,3.0,,,9999.0,,4.1,3.9,30.05,1018.6,,,,,,,,,,,,,,,Clear,72000.0,,,,,,,,,
KRDR,09-18-2014,04:58,METAR,Normal,30,4.0,,,9999.0,,5.4,5.3,30.06,1018.9,,,,,,,,,,,,,,,Clear,72000.0,,,,,,,,,
KRDR,09-18-2014,03:58,METAR,Normal,70,4.0,,,9999.0,,7.9,6.7,30.06,1018.8,,,,,,,,,,,,,,,Clear,72000.0,,,,,,,,,
KRDR,09-18-2014,02:58,METAR,Normal,90,7.0,,,9999.0,,9.3,7.3,30.06,1018.8,,,,,,,,,,,,,,,Clear,72000.0,,,,,,,,,
KRDR,09-18-2014,01:58,METAR,Normal,90,8.0,,,9999.0,,11.2,7.6,30.05,1018.5,,,,,,,,,,,,,,,Clear,72000.0,,,,,,,,,
KRDR,09-18-2014,00:58,METAR,Normal,50,4.0,,,9999.0,,13.1,8.3,30.04,1018.1,,,,,,,,,,,,,,,Clear,72000.0,,,,,,,,,
KRDR,09-17-2014,23:58,METAR,Normal,60,6.0,,,9999.0,,15.7,8.7,30.03,1017.8,,,,,,,,,,,,,,,Clear,72000.0,,,,,,,,,
KRDR,09-17-2014,22:58,METAR,Normal,80,8.0,,,9999.0,,17.0,9.3,30.02,1017.3,,,,,,,,,,,,,,,Clear,72000.0,,,,,,,,,
KRDR,09-17-2014,21:58,METAR,Normal,40,10.0,,,9999.0,,17.0,10.1,30.02,1017.4,,,,,,,,,,,,,,,Clear,72000.0,,,,,,,,,
KRDR,09-17-2014,20:58,METAR,Normal,20,9.0,,,9999.0,,17.0,10.6,30.03,1017.7,,,,,,,,,,,,,,,Clear,72000.0,,,,,,,,,
KRDR,09-17-2014,20:08,SPECI,Normal,30,11.0,17.0,,9999.0,,16.0,11.0,30.03,,,,,,,,,,,,,,,,4/8 Partly Cloudy,72000.0,2100.0,SCT,2100.0,,,,,,
KRDR,09-17-2014,19:58,METAR,Normal,20,9.0,,,9999.0,,15.7,10.8,30.03,1017.7,,,,,,,,,,,,,,,,2000.0,2000.0,BKN,2000.0,,,,,,
KRDR,09-17-2014,19:13,SPECI,Normal,20,11.0,,,9999.0,,16.0,11.0,30.03,,,,,,,,,,,,,,,,,1900.0,1900.0,BKN,1900.0,,,,,,
KRDR,09-17-2014,18:58,METAR,Normal,20,13.0,19.0,,9999.0,,15.5,11.1,30.03,1017.7,,,,,,,,,,,,,,,4/8 Partly Cloudy,72000.0,1800.0,SCT,1800.0,,,,,,
KRDR,09-17-2014,18:18,SPECI,Normal,10,13.0,,,9999.0,,15.0,11.0,30.03,,,,,,,,,,,,,,,,4/8 Partly Cloudy,72000.0,1300.0,SCT,1300.0,,,,,,
KRDR,09-17-2014,18:03,SPECI,Normal,20,11.0,,,9999.0,,14.0,11.0,30.03,,,,,,,,,,,,,,,,,1200.0,1200.0,BKN,1200.0,,,,,,
KRDR,09-17-2014,17:58,METAR,Normal,20,11.0,,,9999.0,,14.1,10.7,30.02,1017.4,,,,,,,,,,,,,,,,1100.0,1100.0,BKN,1100.0,,,,,,
KRDR,09-17-2014,16:58,METAR,Normal,20,13.0,18.0,,9999.0,,12.6,10.2,30.02,1017.4,,,,,,,,,,,,,,,,1000.0,1000.0,OVC,1000.0,,,,,,
KRDR,09-17-2014,16:21,SPECI,Normal,20,13.0,,,9999.0,,13.0,10.0,30.01,,,,,,,,,,,,,,,,,1100.0,1100.0,BKN,1100.0,,,,,,
KRDR,09-17-2014,16:18,SPECI,Normal,30,13.0,,,9999.0,,13.0,10.0,30.01,,,,,,,,,,,,,,,,,1200.0,1200.0,BKN,1200.0,,,,,,
KRDR,09-17-2014,15:58,METAR,Normal,30,12.0,,,9999.0,,13.6,10.2,30.00,1016.6,,,,,,,,,,,,,,,Clear,72000.0,,,,,,,,,
KRDR,09-17-2014,14:58,METAR,Normal,20,13.0,,,9999.0,,11.9,10.0,29.98,1016.0,,,,,,,,,,,,,,,2/8 Mostly Clear,72000.0,900.0,FEW,900.0,,,,,,
KRDR,09-17-2014,14:34,SPECI,Normal,10,12.0,,,9999.0,,11.0,10.0,29.97,,,,,,,,,,,,,,,,2/8 Mostly Clear,72000.0,900.0,FEW,900.0,,,,,,
KRDR,09-17-2014,13:58,METAR,Normal,20,9.0,,,9999.0,,9.8,9.6,29.97,1015.8,,,,,,,,,,,,,,,Clear,72000.0,,,,,,,,,
KRDR,09-17-2014,12:58,METAR,Normal,10,7.0,,,9999.0,,6.9,6.7,29.96,1015.4,,,,,,,,,,,,,,,Clear,72000.0,,,,,,,,,
KRDR,09-17-2014,11:58,METAR,Normal,330,3.0,,,9999.0,,5.8,5.7,29.94,1014.6,,,,,,,,,,,,,,,Clear,72000.0,,,,,,,,,
KRDR,09-17-2014,10:58,METAR,Normal,330,1.0,,,9999.0,,8.3,7.3,29.92,1013.8,,,,,,,,,,,,,,,Clear,72000.0,,,,,,,,,
KRDR,09-17-2014,09:58,METAR,Normal,250,3.0,,,9999.0,,6.3,6.0,29.89,1012.8,,,,,,,,,,,,,,,Clear,72000.0,,,,,,,,,
KRDR,09-17-2014,08:58,METAR,Normal,210,4.0,,,9999.0,,8.3,6.5,29.89,1012.7,,,,,,,,,,,,,,,Clear,72000.0,,,,,,,,,
KRDR,09-17-2014,07:58,METAR,Normal,220,5.0,,,9999.0,,8.6,6.6,29.90,1013.0,,,,,,,,,,,,,,,Clear,72000.0,,,,,,,,,
KRDR,09-17-2014,06:58,METAR,Normal,230,5.0,,,9999.0,,8.6,6.2,29.90,1013.1,,,,,,,,,,,,,,,Clear,72000.0,,,,,,,,,
KRDR,09-17-2014,05:58,METAR,Normal,200,4.0,,,9999.0,,8.8,6.4,29.91,1013.4,,,,,,,,,,,,,,,Clear,72000.0,,,,,,,,,
KRDR,09-17-2014,04:58,METAR,Normal,210,6.0,,,9999.0,,10.4,6.5,29.91,1013.4,,,,,,,,,,,,,,,Clear,72000.0,,,,,,,,,
KRDR,09-17-2014,03:58,METAR,Normal,190,5.0,,,9999.0,,11.6,6.8,29.92,1013.8,,,,,,,,,,,,,,,Clear,72000.0,,,,,,,,,
KRDR,09-17-2014,02:58,METAR,Normal,190,7.0,,,9999.0,,11.9,6.5,29.92,1013.9,,,,,,,,,,,,,,,Clear,72000.0,,,,,,,,,
KRDR,09-17-2014,01:58,METAR,Normal,180,7.0,,,9999.0,,11.3,7.0,29.92,1014.0,,,,,,,,,,,,,,,Clear,72000.0,,,,,,,,,
KRDR,09-17-2014,00:58,METAR,Normal,220,3.0,,,9999.0,,14.8,7.5,29.92,1014.0,,,,,,,,,,,,,,,Clear,72000.0,,,,,,,,,
KRDR,09-16-2014,23:58,METAR,Normal,200,5.0,,,9999.0,,19.7,7.5,29.93,1014.2,,,,,,,,,,,,,,,Clear,72000.0,,,,,,,,,
KRDR,09-16-2014,22:58,METAR,Normal,200,7.0,,,9999.0,,22.0,5.7,29.93,1014.1,,,,,,,,,,,,,,,Clear,72000.0,,,,,,,,,
KRDR,09-16-2014,21:58,METAR,Normal,230,7.0,,,9999.0,,22.7,4.8,29.94,1014.4,,,,,,,,,,,,,,,Clear,72000.0,,,,,,,,,
KRDR,09-16-2014,20:58,METAR,Normal,240,5.0,,,9999.0,,22.9,4.4,29.95,1014.7,,,,,,,,,,,,,,,Clear,72000.0,,,,,,,,,
KRDR,09-16-2014,19:58,METAR,Normal,290,5.0,,,9999.0,,23.6,5.3,29.97,1015.3,,,,,,,,,,,,,,,Clear,72000.0,,,,,,,,,
KRDR,09-16-2014,18:58,METAR,Normal,240,8.0,,,9999.0,,22.5,6.4,29.98,1015.8,,,,,,,,,,,,,,,Clear,72000.0,,,,,,,,,
KRDR,09-16-2014,17:58,METAR,Normal,240,9.0,,,9999.0,,22.0,7.6,30.00,1016.5,,,,,,,,,,,,,,,Clear,72000.0,,,,,,,,,
KRDR,09-16-2014,16:58,METAR,Normal,230,7.0,,,9999.0,,20.2,6.9,30.01,1016.9,,,,,,,,,,,,,,,Clear,72000.0,,,,,,,,,
KRDR,09-16-2014,15:58,METAR,Normal,250,10.0,,,9999.0,,17.9,6.3,30.02,1017.3,,,,,,,,,,,,,,,Clear,72000.0,,,,,,,,,
KRDR,09-16-2014,14:58,METAR,Normal,260,7.0,,,9999.0,,15.5,6.0,30.02,1017.4,,,,,,,,,,,,,,,Clear,72000.0,,,,,,,,,
KRDR,09-16-2014,13:58,METAR,Normal,220,4.0,,,9999.0,,10.0,5.4,30.03,1017.9,,,,,,,,,,,,,,,Clear,72000.0,,,,,,,,,
KRDR,09-16-2014,12:58,METAR,Normal,250,5.0,,,9999.0,,7.8,4.8,30.04,1018.1,,,,,,,,,,,,,,,Clear,72000.0,,,,,,,,,
KRDR,09-16-2014,11:58,METAR,Normal,240,6.0,,,9999.0,,7.1,4.3,30.04,1018.1,,,,,,,,,,,,,,,Clear,72000.0,,,,,,,,,
KRDR,09-16-2014,10:58,METAR,Normal,250,5.0,,,9999.0,,7.6,4.2,30.04,1018.0,,,,,,,,,,,,,,,Clear,72000.0,,,,,,,,,
KRDR,09-16-2014,09:58,METAR,Normal,230,8.0,,,9999.0,,9.3,4.0,30.05,1018.3,,,,,,,,,,,,,,,Clear,72000.0,,,,,,,,,
KRDR,09-16-2014,08:58,METAR,Normal,230,8.0,,,9999.0,,10.4,4.1,30.05,1018.2,,,,,,,,,,,,,,,Clear,72000.0,,,,,,,,,
KRDR,09-16-2014,07:58,METAR,Normal,270,10.0,,,9999.0,,11.3,4.1,30.05,1018.2,,,,,,,,,,,,,,,Clear,72000.0,,,,,,,,,
KRDR,09-16-2014,06:58,METAR,Normal,240,5.0,,,9999.0,,7.9,4.7,30.06,1018.7,,,,,,,,,,,,,,,Clear,72000.0,,,,,,,,,
KRDR,09-16-2014,05:58,METAR,Normal,220,6.0,,,9999.0,,7.7,5.2,30.07,1019.0,,,,,,,,,,,,,,,Clear,72000.0,,,,,,,,,
KRDR,09-16-2014,04:58,METAR,Normal,230,9.0,,,9999.0,,8.7,5.5,30.08,1019.4,,,,,,,,,,,,,,,Clear,72000.0,,,,,,,,,
KRDR,09-16-2014,03:58,METAR,Normal,240,7.0,,,9999.0,,8.5,5.3,30.09,1019.8,,,,,,,,,,,,,,,Clear,72000.0,,,,,,,,,
KRDR,09-16-2014,02:58,METAR,Normal,240,6.0,,,9999.0,,7.5,5.4,30.09,1019.9,,,,,,,,,,,,,,,Clear,72000.0,,,,,,,,,
KRDR,09-16-2014,01:58,METAR,Normal,240,4.0,,,9999.0,,9.9,6.0,30.09,1020.0,,,,,,,,,,,,,,,Clear,72000.0,,,,,,,,,
KRDR,09-16-2014,00:58,METAR,Normal,240,4.0,,,9999.0,,13.6,5.9,30.08,1019.6,,,,,,,,,,,,,,,Clear,72000.0,,,,,,,,,
KRDR,09-15-2014,23:58,METAR,Normal,260,5.0,,,9999.0,,17.3,4.9,30.09,1020.0,,,,,,,,,,,,,,,Clear,72000.0,,,,,,,,,
KRDR,09-15-2014,22:58,METAR,Normal,270,8.0,,,9999.0,,18.8,3.8,30.10,1020.2,,,,,,,,,,,,,,,Clear,72000.0,,,,,,,,,
KRDR,09-15-2014,21:58,METAR,Normal,270,12.0,,,9999.0,,19.2,3.5,30.12,1020.9,,,,,,,,,,,,,,,2/8 Mostly Clear,72000.0,7000.0,FEW,7000.0,,,,,,
KRDR,09-15-2014,20:58,METAR,Normal,290,13.0,18.0,,9999.0,,19.1,3.2,30.13,1021.1,,,,,,,,,,,,,,,,7000.0,7000.0,BKN,7000.0,,,,,,
KRDR,09-15-2014,19:58,METAR,Normal,280,12.0,17.0,,9999.0,,19.5,3.3,30.16,1022.1,,,,,,,,,,,,,,,,7000.0,7000.0,BKN,7000.0,,,,,,
KRDR,09-15-2014,18:58,METAR,Normal,280,10.0,,,9999.0,,18.2,3.3,30.18,1022.8,,,,,,,,,,,,,,,2/8 Mostly Clear,72000.0,6500.0,FEW,6500.0,,,,,,
KRDR,09-15-2014,17:58,METAR,Variable,290,10.0,16.0,,9999.0,,17.9,3.6,30.19,1023.1,,,,,,,,,,,,,,,2/8 Mostly Clear,72000.0,6000.0,FEW,6000.0,,,,,,
KRDR,09-15-2014,16:58,METAR,Normal,300,6.0,,,9999.0,,16.3,3.2,30.21,1023.9,,,,,,,,,,,,,,,Clear,72000.0,,,,,,,,,
KRDR,09-15-2014,15:58,METAR,Normal,310,9.0,,,9999.0,,15.0,3.7,30.22,1024.2,,,,,,,,,,,,,,,Clear,72000.0,,,,,,,,,
KRDR,09-15-2014,14:58,METAR,Normal,300,10.0,,,9999.0,,12.8,5.5,30.22,1024.3,,,,,,,,,,,,,,,Clear,72000.0,,,,,,,,,
KRDR,09-15-2014,13:58,METAR,Normal,240,3.0,,,9999.0,,7.6,6.6,30.22,1024.4,,,,,,,,,,,,,,,Clear,72000.0,,,,,,,,,
KRDR,09-15-2014,12:58,METAR,Normal,180,2.0,,,9999.0,,4.4,4.3,30.22,1024.5,,,,,,,,,,,,,,,,7500.0,7500.0,OVC,7500.0,,,,,,
KRDR,09-15-2014,11:58,METAR,Normal,210,4.0,,,9999.0,,0.9,0.7,30.21,1024.3,,,,,,,,,,,,,,,4/8 Partly Cloudy,72000.0,7500.0,SCT,7500.0,,,,,,
KRDR,09-15-2014,10:58,METAR,Normal,270,2.0,,,9999.0,,1.6,1.5,30.21,1024.2,,,,,,,,,,,,,,,Clear,72000.0,,,,,,,,,
KRDR,09-15-2014,09:58,METAR,Normal,300,5.0,,,9999.0,,3.1,2.9,30.19,1023.4,,,,,,,,,,,,,,,Clear,72000.0,,,,,,,,,
KRDR,09-15-2014,08:58,METAR,Normal,300,6.0,,,9999.0,,3.9,3.8,30.19,1023.4,,,,,,,,,,,,,,,Clear,72000.0,,,,,,,,,
KRDR,09-15-2014,07:58,METAR,Normal,300,5.0,,,9999.0,,4.5,4.4,30.19,1023.3,,,,,,,,,,,,,,,Clear,72000.0,,,,,,,,,
KRDR,09-15-2014,06:58,METAR,Normal,280,2.0,,,9999.0,,7.5,7.2,30.18,1022.9,,,,,,,,,,,,,,,,7500.0,7500.0,OVC,7500.0,,,,,,
KRDR,09-15-2014,05:58,METAR,Normal,290,1.0,,,9999.0,,8.0,7.2,30.18,1023.0,,,,,,,,,,,,,,,,7500.0,7500.0,OVC,7500.0,,,,,,
KRDR,09-15-2014,04:58,METAR,Normal,310,3.0,,,9999.0,,8.5,7.3,30.17,1022.6,,,,,,,,,,,,,,,,5500.0,5500.0,BKN,5500.0,OVC,7000.0,,,,
KRDR,09-15-2014,03:58,METAR,Normal,330,2.0,,,9999.0,,8.6,6.9,30.16,1022.3,,,,,,,,,,,,,,,,7500.0,7500.0,OVC,7500.0,,,,,,
KRDR,09-15-2014,02:58,METAR,Normal,300,2.0,,,9999.0,,9.1,7.0,30.15,1021.9,,,,,,,,,,,,,,,,7500.0,5000.0,FEW,5000.0,OVC,7500.0,,,,
KRDR,09-15-2014,01:58,METAR,Normal,300,3.0,,,9999.0,,9.1,6.9,30.14,1021.6,,,,,,,,,,,,,,,,8000.0,8000.0,OVC,8000.0,,,,,,
KRDR,09-15-2014,00:58,METAR,Normal,300,4.0,,,9999.0,,10.5,6.8,30.13,1021.3,,,,,,,,,,,,,,,,7000.0,7000.0,OVC,7000.0,,,,,,
KRDR,09-14-2014,23:58,METAR,Normal,310,3.0,,,9999.0,,12.1,6.0,30.12,1020.9,,,,,,,,,,,,,,,,7000.0,7000.0,OVC,7000.0,,,,,,
KRDR,09-14-2014,22:58,METAR,Normal,360,7.0,,,9999.0,,13.1,4.2,30.11,1020.5,,,,,,,,,,,,,,,,6500.0,6500.0,OVC,6500.0,,,,,,
KRDR,09-14-2014,21:58,METAR,Normal,320,10.0,,,9999.0,,13.8,3.5,30.11,1020.5,,,,,,,,,,,,,,,,4800.0,4800.0,SCT,4800.0,OVC,6500.0,,,,
KRDR,09-14-2014,20:58,METAR,Normal,360,9.0,,,9999.0,,14.2,5.0,30.10,1020.2,,,,,,,,,,,,,,,,7000.0,4300.0,FEW,4300.0,OVC,7000.0,,,,
KRDR,09-14-2014,19:58,METAR,Normal,310,5.0,,,9999.0,,14.8,5.9,30.10,1020.2,,,,,,,,,,,,,,,,4500.0,6000.0,BKN,6000.0,,,,,,
KRDR,09-14-2014,18:58,METAR,Normal,340,7.0,14.0,,9999.0,,13.3,6.3,30.12,1020.9,,,,,,,,,,,,,,,,3700.0,3700.0,BKN,3700.0,OVC,4400.0,,,,
KRDR,09-14-2014,18:13,SPECI,Normal,320,9.0,,,9999.0,,13.0,7.0,30.12,,,,,,,,,,,,,,,,,3100.0,3100.0,OVC,3100.0,,,,,,
KRDR,09-14-2014,17:58,METAR,Normal,330,9.0,,,9999.0,,11.9,6.5,30.12,1020.9,,,,,,,,,,,,,,,,2800.0,2800.0,OVC,2800.0,,,,,,
KRDR,09-14-2014,16:58,METAR,Normal,330,9.0,,,9999.0,,11.5,6.6,30.12,1020.9,,,,,,,,,,,,,,,,2500.0,2500.0,OVC,2500.0,,,,,,
KRDR,09-14-2014,15:58,METAR,Normal,340,12.0,,,9999.0,,10.9,6.9,30.10,1020.2,,,,,,,,,,,,,,,,2200.0,2200.0,OVC,2200.0,,,,,,
KRDR,09-14-2014,14:58,METAR,Normal,330,11.0,,,9999.0,,10.3,6.9,30.09,1019.8,,,,,,,,,,,,,,,,2000.0,2000.0,OVC,2000.0,,,,,,
KRDR,09-14-2014,14:28,SPECI,Normal,330,9.0,,,9999.0,,11.0,8.0,30.08,,,,,,,,,,,,,,,,,1800.0,1800.0,BKN,1800.0,BKN,4900.0,,,,
KRDR,09-14-2014,13:58,METAR,Normal,330,8.0,,,9999.0,,10.1,7.7,30.07,1019.2,,,,,,,,,,,,,,,Clear,72000.0,,,,,,,,,
KRDR,09-14-2014,13:38,SPECI,Normal,330,10.0,,,9999.0,,10.0,8.0,30.06,,,,,,,,,,,,,,,,,4400.0,2500.0,SCT,2500.0,BKN,4400.0,BKN,5500.0,,
KRDR,09-14-2014,12:58,METAR,Normal,320,8.0,,,9999.0,,9.3,8.0,30.05,1018.5,,,,,,,,,,,,,,,,2400.0,1900.0,SCT,1900.0,BKN,2400.0,OVC,4700.0,,
KRDR,09-14-2014,12:48,SPECI,Normal,320,8.0,,,9999.0,,9.0,8.0,30.05,,,,,,,,,,,,,,,,,2300.0,1800.0,FEW,1800.0,BKN,2300.0,OVC,4600.0,,
KRDR,09-14-2014,11:58,METAR,Normal,300,8.0,,,9999.0,,8.5,7.5,30.03,1017.7,,,,,,,,,,,,,,.02 IN,,4400.0,4400.0,OVC,4400.0,,,,,,
KRDR,09-14-2014,10:58,METAR,Normal,300,10.0,,,9999.0,,8.4,7.2,30.01,1017.0,,,,,,,,,,,,,,,,3000.0,2300.0,FEW,2300.0,OVC,3000.0,,,,
KRDR,09-14-2014,09:58,METAR,Normal,300,8.0,,,9999.0,,7.8,6.8,30.00,1016.6,,,,,,,,,,,,,,,,2200.0,2200.0,BKN,2200.0,OVC,4300.0,,,,
KRDR,09-14-2014,08:58,METAR,Normal,280,6.0,,,9999.0,,6.0,5.6,29.99,1016.4,,,,,,,,,,,,,,,4/8 Partly Cloudy,72000.0,4900.0,SCT,4900.0,,,,,,
KRDR,09-14-2014,07:58,METAR,Normal,260,6.0,,,9999.0,,5.7,5.0,29.98,1016.0,,,,,,,,,,,,,,,Clear,72000.0,,,,,,,,,
KRDR,09-14-2014,06:58,METAR,Normal,270,7.0,,,9999.0,,7.0,5.4,29.98,1016.0,,,,,,,,,,,,,,,Clear,72000.0,,,,,,,,,
KRDR,09-14-2014,05:58,METAR,Normal,270,7.0,,,9999.0,,7.2,5.6,29.97,1015.7,,,,,,,,,,,,,.02 IN,,Clear,72000.0,,,,,,,,,
KRDR,09-14-2014,04:58,METAR,Normal,280,7.0,,,9999.0,,8.7,6.0,29.97,1015.8,,,,,,,,,,,,,,,Clear,72000.0,,,,,,,,,
KRDR,09-14-2014,03:58,METAR,Normal,290,10.0,,,9999.0,,10.7,6.4,29.96,1015.4,,,,,,,,,,,,,,,2/8 Mostly Clear,72000.0,8000.0,FEW,8000.0,,,,,,
KRDR,09-14-2014,02:58,METAR,Normal,280,10.0,,,9999.0,,11.3,7.0,29.95,1015.1,,,,,,,,,,,,.02 IN,,,,8500.0,8500.0,BKN,8600.0,,,,,,
KRDR,09-14-2014,01:58,METAR,Normal,270,6.0,,,9999.0,,11.0,8.4,29.94,1014.9,,,,,,,,,,,,,,,,6000.0,6000.0,BKN,6000.0,,,,,,
KRDR,09-14-2014,00:58,METAR,Normal,340,4.0,,,9999.0,,12.3,9.7,29.92,1014.2,,,,,,,,,,,.02 IN,,,,,6000.0,6000.0,BKN,6000.0,BKN,7000.0,OVC,9100.0,,
KRDR,09-14-2014,00:41,SPECI,Normal,240,4.0,,,9999.0,,13.0,10.0,29.92,,,,,,,,,,,,,,,,,5500.0,500.0,FEW,500.0,OVC,5500.0,,,,
KRDR,09-14-2014,00:17,SPECI,Normal,300,11.0,,,9999.0,Light Rain,13.0,9.0,29.92,,61,,,,,,,,,,,,,,,5000.0,900.0,FEW,900.0,BKN,5000.0,OVC,7000.0,,
KRDR,09-13-2014,23:59,SPECI,Normal,210,10.0,,,9999.0,Light Rain,16.0,6.0,29.91,,61,,,,,,,,,,,,,,,7500.0,6000.0,SCT,6000.0,BKN,7500.0,,,,
KRDR,09-13-2014,23:58,METAR,Normal,200,10.0,,,9999.0,,15.7,6.8,29.91,1013.8,,,,,,,,,,,,,,,,7500.0,6000.0,SCT,6000.0,BKN,7500.0,BKN,10000.0,,
KRDR,09-13-2014,22:58,METAR,Normal,190,10.0,,,9999.0,,16.0,6.3,29.93,1014.5,,,,,,,,,,,,,,,,11000.0,11000.0,OVC,11000.0,,,,,,
KRDR,09-13-2014,21:58,METAR,Normal,200,12.0,,,9999.0,,16.6,5.5,29.95,1015.1,,,,,,,,,,,,,,,4/8 Partly Cloudy,72000.0,5000.0,FEW,5000.0,SCT,11000.0,,,,
KRDR,09-13-2014,20:58,METAR,Normal,200,17.0,23.0,180/29KTS,9999.0,,17.1,5.1,29.96,1015.5,,,,,,,,,,,,,,,4/8 Partly Cloudy,72000.0,5000.0,SCT,5000.0,,,,,,
KRDR,09-13-2014,19:58,METAR,Normal,180,27.0,31.0,,9999.0,,16.5,3.7,29.98,1016.2,,,,,,,,,,,,,,,2/8 Mostly Clear,72000.0,5500.0,FEW,5500.0,,,,,,
KRDR,09-13-2014,18:58,METAR,Normal,180,20.0,31.0,170/31KTS,9999.0,,16.1,3.1,30.00,1016.9,,,,,,,,,,,,,,,2/8 Mostly Clear,72000.0,5500.0,FEW,5500.0,,,,,,
KRDR,09-13-2014,17:58,METAR,Normal,190,21.0,27.0,190/31KTS,9999.0,,15.7,3.6,30.03,1017.9,,,,,,,,,,,,,,,2/8 Mostly Clear,72000.0,5000.0,FEW,5000.0,,,,,,
KRDR,09-13-2014,16:58,METAR,Normal,190,15.0,23.0,,9999.0,,12.8,4.7,30.06,1019.0,,,,,,,,,,,,,,,Clear,72000.0,,,,,,,,,
KRDR,09-13-2014,15:58,METAR,Normal,190,14.0,,,9999.0,,11.0,4.2,30.09,1020.1,,,,,,,,,,,,,,,Clear,72000.0,,,,,,,,,
KRDR,09-13-2014,14:58,METAR,Normal,180,14.0,,,9999.0,,9.9,4.0,30.09,1020.1,,,,,,,,,,,,,,,Clear,72000.0,,,,,,,,,
KRDR,09-13-2014,13:58,METAR,Normal,160,8.0,,,9999.0,,5.8,3.6,30.12,1021.2,,,,,,,,,,,,,,,Clear,72000.0,,,,,,,,,
KRDR,09-13-2014,12:58,METAR,Normal,180,9.0,,,9999.0,,4.4,2.9,30.14,1021.9,,,,,,,,,,,,,,,Clear,72000.0,,,,,,,,,
KRDR,09-13-2014,11:58,METAR,Normal,220,4.0,,,9999.0,,3.5,2.7,30.16,1022.4,,,,,,,,,,,,,,,Clear,72000.0,,,,,,,,,
KRDR,09-13-2014,10:58,METAR,Normal,200,6.0,,,9999.0,,2.2,1.7,30.17,1022.8,,,,,,,,,,,,,,,Clear,72000.0,,,,,,,,,
KRDR,09-13-2014,09:58,METAR,Normal,200,5.0,,,9999.0,,1.7,1.1,30.18,1023.1,,,,,,,,,,,,,,,Clear,72000.0,,,,,,,,,
KRDR,09-13-2014,08:58,METAR,Normal,210,6.0,,,9999.0,,2.1,1.2,30.20,1023.8,,,,,,,,,,,,,,,Clear,72000.0,,,,,,,,,
KRDR,09-13-2014,07:58,METAR,Normal,210,4.0,,,9999.0,,1.6,0.5,30.21,1024.2,,,,,,,,,,,,,,,Clear,72000.0,,,,,,,,,
KRDR,09-13-2014,06:58,METAR,Normal,230,5.0,,,9999.0,,2.0,1.1,30.23,1024.9,,,,,,,,,,,,,,,Clear,72000.0,,,,,,,,,
KRDR,09-13-2014,05:58,METAR,Normal,220,6.0,,,9999.0,,2.2,0.8,30.25,1025.6,,,,,,,,,,,,,,,Clear,72000.0,,,,,,,,,
KRDR,09-13-2014,04:58,METAR,Normal,240,2.0,,,9999.0,,2.6,0.9,30.26,1025.8,,,,,,,,,,,,,,,Clear,72000.0,,,,,,,,,
KRDR,09-13-2014,03:58,METAR,Normal,210,4.0,,,9999.0,,2.2,1.0,30.26,1025.9,,,,,,,,,,,,,,,Clear,72000.0,,,,,,,,,
KRDR,09-13-2014,02:58,METAR,Normal,190,5.0,,,9999.0,,3.3,1.7,30.27,1026.2,,,,,,,,,,,,,,,Clear,72000.0,,,,,,,,,
KRDR,09-13-2014,01:58,METAR,Normal,180,5.0,,,9999.0,,4.8,1.5,30.28,1026.7,,,,,,,,,,,,,,,Clear,72000.0,,,,,,,,,
KRDR,09-13-2014,00:58,METAR,Normal,230,4.0,,,9999.0,,7.7,1.4,30.29,1027.0,,,,,,,,,,,,,,,Clear,72000.0,,,,,,,,,
KRDR,09-12-2014,23:58,METAR,Normal,230,3.0,,,9999.0,,11.6,0.3,30.30,1027.1,,,,,,,,,,,,,,,,6500.0,6500.0,BKN,6500.0,,,,,,
KRDR,09-12-2014,22:58,METAR,Normal,270,2.0,,,9999.0,,13.3,-0.6,30.31,1027.5,,,,,,,,,,,,,,,,7000.0,7000.0,BKN,7000.0,,,,,,
KRDR,09-12-2014,21:58,METAR,Normal,230,7.0,,,9999.0,,13.9,-0.6,30.33,1028.1,,,,,,,,,,,,,,,,7000.0,7000.0,OVC,7000.0,,,,,,
KRDR,09-12-2014,20:58,METAR,Normal,220,6.0,17.0,,9999.0,,13.8,-1.0,30.35,1028.8,,,,,,,,,,,,,,,,7000.0,7000.0,OVC,7000.0,,,,,,
KRDR,09-12-2014,19:58,METAR,Normal,240,1.0,,,9999.0,,12.2,-0.9,30.38,1029.9,,,,,,,,,,,,,,,,7500.0,6000.0,SCT,6000.0,OVC,7500.0,,,,
KRDR,09-12-2014,18:58,METAR,Normal,280,8.0,,,9999.0,,12.6,-1.7,30.40,1030.5,,,,,,,,,,,,,,,,7500.0,7500.0,OVC,7500.0,,,,,,
KRDR,09-12-2014,17:58,METAR,Normal,300,4.0,,,9999.0,,11.6,-2.2,30.42,1031.2,,,,,,,,,,,,,,,,7500.0,7500.0,OVC,7500.0,,,,,,
KRDR,09-12-2014,16:58,METAR,Normal,330,8.0,,,9999.0,,12.1,-2.5,30.44,1031.9,,,,,,,,,,,,,,,4/8 Partly Cloudy,72000.0,6500.0,SCT,6500.0,,,,,,
KRDR,09-12-2014,15:58,METAR,Normal,360,9.0,,,9999.0,,11.5,-1.3,30.45,1032.2,,,,,,,,,,,,,,,Clear,72000.0,,,,,,,,,
KRDR,09-12-2014,14:58,METAR,Normal,320,6.0,,,9999.0,,9.6,1.6,30.46,1032.7,,,,,,,,,,,,,,,Clear,72000.0,,,,,,,,,
KRDR,09-12-2014,13:58,METAR,Normal,290,5.0,,,9999.0,,3.8,1.3,30.47,1033.2,,,,,,,,,,,,,,,4/8 Partly Cloudy,72000.0,8500.0,SCT,8600.0,,,,,,
KRDR,09-12-2014,12:58,METAR,Normal,310,6.0,,,9999.0,,3.7,0.9,30.47,1033.1,,,,,,,,,,,,,,,,8500.0,8500.0,OVC,8600.0,,,,,,
KRDR,09-12-2014,11:58,METAR,Normal,300,6.0,,,9999.0,,4.6,1.8,30.47,1033.0,,,,,,,,,,,,,,,,8000.0,8000.0,OVC,8000.0,,,,,,
KRDR,09-12-2014,10:58,METAR,Normal,310,4.0,,,9999.0,,5.1,2.7,30.46,1032.7,,,,,,,,,,,,,,,,6000.0,5000.0,SCT,5000.0,BKN,6000.0,OVC,8600.0,,
KRDR,09-12-2014,09:58,METAR,Normal,300,5.0,,,9999.0,,4.8,2.8,30.46,1032.6,,,,,,,,,,,,,,,,9000.0,5500.0,FEW,5500.0,OVC,9100.0,,,,
KRDR,09-12-2014,08:58,METAR,Normal,320,5.0,,,9999.0,,5.3,2.8,30.45,1032.2,,,,,,,,,,,,,,,,9000.0,9000.0,OVC,9100.0,,,,,,
KRDR,09-12-2014,07:58,METAR,Normal,310,5.0,,,9999.0,,5.1,4.3,30.45,1032.3,,,,,,,,,,,,,,,,9000.0,7500.0,SCT,7500.0,OVC,9100.0,,,,
KRDR,09-12-2014,06:58,METAR,Normal,320,5.0,,,9999.0,,5.5,4.0,30.45,1032.2,,,,,,,,,,,,,,,,9000.0,9000.0,OVC,9100.0,,,,,,
KRDR,09-12-2014,05:58,METAR,Normal,320,3.0,,,9999.0,,5.0,4.3,30.44,1031.9,,,,,,,,,,,,,,,,9000.0,9000.0,OVC,9100.0,,,,,,
KRDR,09-12-2014,04:58,METAR,Normal,320,4.0,,,9999.0,,5.5,4.3,30.44,1032.0,,,,,,,,,,,,,,,,7000.0,7000.0,SCT,7000.0,OVC,9100.0,,,,
KRDR,09-12-2014,03:58,METAR,Normal,320,4.0,,,9999.0,,4.6,3.2,30.44,1032.0,,,,,,,,,,,,,,,,9500.0,9500.0,OVC,9600.0,,,,,,
KRDR,09-12-2014,02:58,METAR,Normal,320,4.0,,,9999.0,,4.4,2.6,30.44,1032.0,,,,,,,,,,,,,,,2/8 Mostly Clear,72000.0,9500.0,FEW,9600.0,,,,,,
KRDR,09-12-2014,01:58,METAR,Normal,310,5.0,,,9999.0,,5.5,3.5,30.43,1031.7,,,,,,,,,,,,,,,4/8 Partly Cloudy,72000.0,10000.0,SCT,10000.0,,,,,,
KRDR,09-12-2014,00:58,METAR,Normal,340,5.0,,,9999.0,,8.4,3.1,30.41,1031.0,,,,,,,,,,,,,,,,9500.0,6000.0,FEW,6000.0,SCT,7500.0,OVC,9600.0,,
KRDR,09-11-2014,23:58,METAR,Normal,20,7.0,,,9999.0,,10.1,2.3,30.40,1030.6,,,,,,,,,,,,,TRACE,,,9500.0,5500.0,FEW,5500.0,OVC,9600.0,,,,
KRDR,09-11-2014,22:58,METAR,Normal,30,7.0,,,9999.0,,11.0,3.4,30.39,1030.3,,,,,,,,,,,TRACE,,,,,10000.0,6500.0,FEW,6500.0,BKN,10000.0,,,,
KRDR,09-11-2014,22:37,SPECI,Normal,30,6.0,,,9999.0,,11.0,4.0,30.39,,,,,,,,,,,,,,,,,6000.0,2500.0,FEW,2500.0,SCT,4500.0,BKN,6000.0,,
KRDR,09-11-2014,22:24,SPECI,Normal,30,11.0,,,9999.0,Light Drizzle,11.0,3.0,30.39,,51,,,,,,,,,,,,,,,4500.0,4500.0,BKN,4500.0,BKN,6500.0,BKN,10000.0,,
KRDR,09-11-2014,22:16,SPECI,Normal,30,11.0,,,9999.0,,11.0,2.0,30.39,,,,,,,,,,,,,,,,,4500.0,4500.0,BKN,4500.0,OVC,10000.0,,,,
KRDR,09-11-2014,21:58,METAR,Normal,350,9.0,,,9999.0,,11.6,1.7,30.39,1030.3,,,,,,,,,,,,,,,,10000.0,4900.0,FEW,4900.0,BKN,10000.0,,,,
KRDR,09-11-2014,20:58,METAR,Normal,10,7.0,,,9999.0,,11.6,2.1,30.38,1029.9,,,,,,,,,,,,TRACE,,,,7500.0,7500.0,BKN,7500.0,BKN,9100.0,,,,
KRDR,09-11-2014,19:58,METAR,Normal,340,12.0,19.0,,9999.0,,11.0,2.4,30.39,1030.2,,,,,,,,,,,TRACE,,,,,7500.0,5500.0,SCT,5500.0,BKN,7500.0,OVC,9100.0,,
KRDR,09-11-2014,19:54,SPECI,Normal,340,14.0,19.0,,9999.0,,11.0,2.0,30.38,,,,,,,,,,,,,,,,,5500.0,5500.0,BKN,5500.0,OVC,8600.0,,,,
KRDR,09-11-2014,19:44,SPECI,Normal,360,10.0,19.0,,9999.0,Light Drizzle,12.0,2.0,30.39,,51,,,,,,,,,,,,,,,8000.0,5500.0,FEW,5500.0,BKN,8000.0,OVC,9100.0,,
KRDR,09-11-2014,18:58,METAR,Normal,350,10.0,,,9999.0,,12.4,0.6,30.38,1029.8,,,,,,,,,,,,,,,,9000.0,9000.0,OVC,9100.0,,,,,,
KRDR,09-11-2014,17:58,METAR,Normal,340,8.0,,,9999.0,,11.0,0.8,30.39,1030.2,,,,,,,,,,,,,,,,6500.0,4900.0,FEW,4900.0,BKN,6500.0,OVC,9100.0,,
KRDR,09-11-2014,16:58,METAR,Normal,360,9.0,,,9999.0,,11.9,2.5,30.40,1030.5,,,,,,,,,,,,,,,4/8 Partly Cloudy,72000.0,4000.0,SCT,4000.0,,,,,,
KRDR,09-11-2014,15:58,METAR,Normal,360,8.0,,,9999.0,,9.7,3.5,30.41,1030.9,,,,,,,,,,,,,,,,8500.0,8500.0,OVC,8600.0,,,,,,
KRDR,09-11-2014,14:58,METAR,Normal,10,8.0,,,9999.0,,9.6,3.1,30.40,1030.5,,,,,,,,,,,,,,,4/8 Partly Cloudy,72000.0,5500.0,FEW,5500.0,SCT,8000.0,,,,
KRDR,09-11-2014,13:58,METAR,Variable,10,11.0,,,9999.0,,7.3,3.5,30.39,1030.3,,,,,,,,,,,,,,,Clear,72000.0,,,,,,,,,
KRDR,09-11-2014,12:58,METAR,Normal,350,7.0,,,9999.0,,5.9,3.3,30.39,1030.3,,,,,,,,,,,,,,,,8500.0,8500.0,BKN,8600.0,BKN,10000.0,,,,
KRDR,09-11-2014,11:58,METAR,Normal,330,5.0,,,9999.0,,4.6,3.6,30.38,1029.9,,,,,,,,,,,,,TRACE,,,8000.0,8000.0,BKN,8000.0,OVC,11000.0,,,,
KRDR,09-11-2014,10:58,METAR,Normal,320,4.0,,,9999.0,,3.9,2.9,30.35,1028.9,,,,,,,,,,,,,,,,11000.0,8000.0,FEW,8000.0,OVC,11000.0,,,,
KRDR,09-11-2014,09:58,METAR,Normal,360,6.0,,,9999.0,,4.6,3.2,30.32,1027.8,,,,,,,,,,,,,,,,12000.0,12000.0,BKN,12000.0,,,,,,
KRDR,09-11-2014,08:58,METAR,Normal,350,4.0,,,9999.0,,6.1,3.4,30.32,1027.7,,,,,,,,,,,TRACE,TRACE,,,,5000.0,5000.0,BKN,5000.0,BKN,10000.0,,,,
KRDR,09-11-2014,08:32,SPECI,Normal,360,5.0,,,9999.0,,6.0,3.0,30.32,,,,,,,,,,,,,,,,4/8 Partly Cloudy,72000.0,10000.0,SCT,10000.0,,,,,,
KRDR,09-11-2014,08:19,SPECI,Normal,350,6.0,,,9999.0,Light Drizzle,6.0,4.0,30.32,,51,,,,,,,,,,,,,,,3600.0,1100.0,FEW,1100.0,,,,,,
KRDR,09-11-2014,07:59,SPECI,Normal,350,5.0,,,9999.0,,6.0,3.0,30.32,,,,,,,,,,,,,,,,2/8 Mostly Clear,72000.0,5000.0,FEW,5000.0,,,,,,
KRDR,09-11-2014,07:58,METAR,Normal,350,5.0,,,9999.0,Light Drizzle,6.3,3.5,30.32,1027.7,51,,,,,,,,,,TRACE,,,,2/8 Mostly Clear,72000.0,5000.0,FEW,5000.0,,,,,,
KRDR,09-11-2014,07:48,SPECI,Normal,340,4.0,,,9999.0,Light Drizzle,6.0,4.0,30.32,,51,,,,,,,,,,,,,,2/8 Mostly Clear,72000.0,2000.0,FEW,2000.0,,,,,,
KRDR,09-11-2014,07:30,SPECI,Normal,360,5.0,,,9999.0,,6.0,3.0,30.32,,,,,,,,,,,,,,,,2/8 Mostly Clear,72000.0,2100.0,FEW,2100.0,,,,,,
KRDR,09-11-2014,07:18,SPECI,Normal,10,5.0,,,9999.0,Light Drizzle,7.0,2.0,30.32,,51,,,,,,,,,,,,,,,5000.0,1400.0,FEW,1400.0,SCT,2000.0,BKN,5000.0,,
KRDR,09-11-2014,07:08,SPECI,Normal,330,4.0,,,9999.0,,7.0,2.0,30.31,,,,,,,,,,,,,,,,4/8 Partly Cloudy,72000.0,2000.0,FEW,2000.0,SCT,5000.0,,,,
KRDR,09-11-2014,06:59,SPECI,Normal,10,6.0,,,9999.0,Light Drizzle,7.0,2.0,30.31,,51,,,,,,,,,,,,,,4/8 Partly Cloudy,72000.0,2000.0,FEW,2000.0,SCT,3000.0,,,,
KRDR,09-11-2014,06:58,METAR,Normal,20,7.0,,,9999.0,,7.2,1.3,30.31,1027.4,,,,,,,,,,,,,,,2/8 Mostly Clear,72000.0,1600.0,FEW,1600.0,,,,,,
KRDR,09-11-2014,05:58,METAR,Normal,20,8.0,,,9999.0,,7.2,1.4,30.29,1026.7,,,,,,,,,,,,,,,Clear,9000.0,,,,,,,,,
KRDR,09-11-2014,04:58,METAR,Normal,20,9.0,,,9999.0,,7.6,1.4,30.28,1026.5,,,,,,,,,,,,,,,,11000.0,11000.0,BKN,11000.0,,,,,,
KRDR,09-11-2014,03:58,METAR,Normal,20,11.0,,,9999.0,,8.0,1.5,30.26,1025.8,,,,,,,,,,,,,,,,6500.0,6500.0,BKN,6500.0,OVC,11000.0,,,,
KRDR,09-11-2014,02:58,METAR,Normal,10,9.0,,,9999.0,,8.4,1.0,30.26,1025.8,,,,,,,,,,,,,,,,6500.0,6500.0,OVC,6500.0,,,,,,
KRDR,09-11-2014,01:58,METAR,Normal,20,11.0,,,9999.0,,8.7,0.7,30.21,1024.1,,,,,,,,,,,,,,,4/8 Partly Cloudy,72000.0,12000.0,SCT,12000.0,,,,,,
KRDR,09-11-2014,00:58,METAR,Normal,20,11.0,,,9999.0,,9.1,0.9,30.19,1023.5,,,,,,,,,,,,,,,4/8 Partly Cloudy,72000.0,12000.0,SCT,12000.0,,,,,,
KRDR,09-10-2014,23:58,METAR,Normal,20,12.0,,,9999.0,,9.9,0.9,30.18,1023.0,,,,,,,,,,,,,,,Clear,72000.0,,,,,,,,,
KRDR,09-10-2014,22:58,METAR,Normal,40,13.0,,,9999.0,,12.5,-0.7,30.17,1022.6,,,,,,,,,,,,,,,Clear,72000.0,,,,,,,,,
KRDR,09-10-2014,21:58,METAR,Normal,40,18.0,19.0,,9999.0,,13.2,0.2,30.16,1022.3,,,,,,,,,,,,,,,Clear,72000.0,,,,,,,,,
KRDR,09-10-2014,20:58,METAR,Normal,30,19.0,25.0,020/26KTS,9999.0,,13.0,0.4,30.16,1022.3,,,,,,,,,,,,,,,,12000.0,12000.0,BKN,12000.0,,,,,,
KRDR,09-10-2014,20:42,SPECI,Normal,10,16.0,24.0,,9999.0,,13.0,0.0,30.16,,,,,,,,,,,,,,,,,12000.0,12000.0,BKN,12000.0,,,,,,
KRDR,09-10-2014,19:58,METAR,Normal,40,17.0,24.0,030/27KTS,9999.0,,13.5,-0.2,30.16,1022.2,,,,,,,,,,,,,,,2/8 Mostly Clear,72000.0,12000.0,FEW,12000.0,,,,,,
KRDR,09-10-2014,18:58,METAR,Normal,30,21.0,28.0,020/28KTS,9999.0,,12.3,-0.1,30.16,1022.3,,,,,,,,,,,,,,,,9500.0,9500.0,BKN,9600.0,,,,,,
KRDR,09-10-2014,17:58,METAR,Normal,30,17.0,25.0,010/26KTS,9999.0,,11.9,1.6,30.16,1022.3,,,,,,,,,,,,,,,2/8 Mostly Clear,72000.0,4300.0,FEW,4300.0,,,,,,
KRDR,09-10-2014,16:58,METAR,Normal,30,13.0,,,9999.0,,9.7,3.1,30.17,1022.7,,,,,,,,,,,,,,,2/8 Mostly Clear,72000.0,8500.0,FEW,8600.0,,,,,,
KRDR,09-10-2014,15:58,METAR,Normal,30,15.0,22.0,,9999.0,,9.1,3.4,30.17,1022.7,,,,,,,,,,,,,,,,8000.0,8000.0,OVC,8000.0,,,,,,
KRDR,09-10-2014,14:58,METAR,Normal,30,16.0,,,9999.0,,7.9,2.9,30.16,1022.4,,,,,,,,,,,,,,,,8000.0,8000.0,OVC,8000.0,,,,,,
KRDR,09-10-2014,13:58,METAR,Normal,30,15.0,,,9999.0,,7.5,3.1,30.14,1021.7,,,,,,,,,,,,,,,,7500.0,7500.0,OVC,7500.0,,,,,,
KRDR,09-10-2014,12:58,METAR,Normal,30,11.0,,,9999.0,,7.2,3.0,30.14,1021.7,,,,,,,,,,,,,,,,7500.0,7500.0,OVC,7500.0,,,,,,
KRDR,09-10-2014,11:58,METAR,Normal,20,11.0,,,9999.0,,7.1,3.2,30.13,1021.4,,,,,,,,,,,,,,.3 IN,,4400.0,4400.0,SCT,4400.0,OVC,7000.0,,,,
KRDR,09-10-2014,10:58,METAR,Normal,20,12.0,,,9999.0,,7.1,3.2,30.11,1020.7,,,,,,,,,,,,,,,,6500.0,6500.0,OVC,6500.0,,,,,,
KRDR,09-10-2014,09:58,METAR,Normal,30,17.0,21.0,,9999.0,,7.4,3.1,30.09,1020.0,,,,,,,,,,,,,,,,6500.0,6500.0,OVC,6500.0,,,,,,
KRDR,09-10-2014,08:58,METAR,Normal,30,12.0,17.0,,9999.0,,7.5,3.7,30.09,1020.0,,,,,,,,,,,,,,,,6000.0,4500.0,FEW,4500.0,OVC,6000.0,,,,
KRDR,09-10-2014,07:58,METAR,Normal,30,14.0,,,9999.0,,7.6,3.8,30.08,1019.6,,,,,,,,,,,,,,,,6000.0,3400.0,FEW,3400.0,OVC,6000.0,,,,
KRDR,09-10-2014,06:58,METAR,Normal,30,14.0,,,9999.0,,7.7,4.6,30.08,1019.6,,,,,,,,,,,,,,,,3100.0,3100.0,OVC,3100.0,,,,,,
KRDR,09-10-2014,05:58,METAR,Normal,30,15.0,,,9999.0,,7.8,5.4,30.07,1019.2,,,,,,,,,,,,,.11 IN,,,3000.0,3000.0,OVC,3000.0,,,,,,
KRDR,09-10-2014,05:48,SPECI,Normal,40,14.0,,,9999.0,,8.0,5.0,30.07,,,,,,,,,,,,,,,,,3000.0,3000.0,OVC,3000.0,,,,,,
KRDR,09-10-2014,04:58,METAR,Normal,30,12.0,,,9999.0,,7.7,5.8,30.08,1019.6,,,,,,,,,,,,,,,,2700.0,2700.0,OVC,2700.0,,,,,,
KRDR,09-10-2014,03:58,METAR,Normal,30,13.0,,,9999.0,,7.7,6.7,30.08,1019.6,,,,,,,,,,,TRACE,,,,,2700.0,2700.0,BKN,2700.0,OVC,5500.0,,,,
KRDR,09-10-2014,03:09,SPECI,Normal,30,11.0,,,9999.0,,8.0,8.0,30.08,,,,,,,,,,,,,,,,,2800.0,2800.0,OVC,2800.0,,,,,,
KRDR,09-10-2014,02:58,METAR,Normal,20,11.0,,,9999.0,Light Drizzle,7.8,7.7,30.08,1019.6,51,,,,,,,,,,.02 IN,.11 IN,,,,2900.0,2900.0,OVC,2900.0,,,,,,
KRDR,09-10-2014,02:54,SPECI,Normal,20,12.0,,,9999.0,Light Drizzle,8.0,8.0,30.08,,51,,,,,,,,,,,,,,,2900.0,2900.0,OVC,2900.0,,,,,,
KRDR,09-10-2014,02:53,SPECI,Normal,20,11.0,,,9999.0,,8.0,8.0,30.08,,,,,,,,,,,,,,,,,2900.0,2900.0,OVC,2900.0,,,,,,
KRDR,09-10-2014,02:43,SPECI,Normal,40,13.0,,,9999.0,,8.0,8.0,30.06,,,,,,,,,,,,,,,,,3000.0,3000.0,OVC,3000.0,,,,,,
KRDR,09-10-2014,01:58,METAR,Normal,50,10.0,,,9999.0,Light Rain,7.9,7.8,30.06,1018.9,61,,,,,,,,,,.02 IN,,,,,3100.0,3100.0,OVC,3100.0,,,,,,
KRDR,09-10-2014,01:18,SPECI,Normal,30,13.0,,,9999.0,Light Rain,8.0,8.0,30.05,,61,,,,,,,,,,,,,,,3300.0,3300.0,BKN,3300.0,OVC,4500.0,,,,
KRDR,09-10-2014,01:08,SPECI,Normal,40,14.0,,,9999.0,Light Rain,8.0,8.0,30.04,,61,,,,,,,,,,,,,,,4900.0,3500.0,SCT,3500.0,OVC,4900.0,,,,
KRDR,09-10-2014,00:58,METAR,Normal,10,13.0,,,9999.0,Light Rain,8.2,7.9,30.04,1018.3,61,,,,,,,,,,.07 IN,,,,,3500.0,3500.0,BKN,3500.0,BKN,6500.0,OVC,8000.0,,
KRDR,09-10-2014,00:43,SPECI,Normal,40,14.0,,,9999.0,Light Rain,8.0,8.0,30.04,,61,,,,,,,,,,,,,,,6000.0,2900.0,SCT,2900.0,OVC,6000.0,,,,
KRDR,09-10-2014,00:28,SPECI,Normal,30,17.0,21.0,,9999.0,Light Rain,8.0,8.0,30.03,,61,,,,,,,,,,,,,,,2900.0,2900.0,BKN,2900.0,OVC,7000.0,,,,
KRDR,09-09-2014,23:58,METAR,Normal,30,12.0,,,9999.0,Light Rain,9.1,9.0,30.03,1017.9,61,,,,,,,,,,.08 IN,,.19 IN,,,3400.0,2700.0,FEW,2700.0,OVC,6000.0,,,,
KRDR,09-09-2014,23:43,SPECI,Normal,30,12.0,,,9999.0,Light Rain,9.0,9.0,30.02,,61,,,,,,,,,,,,,,,5500.0,2700.0,SCT,2700.0,OVC,5500.0,,,,
KRDR,09-09-2014,22:58,METAR,Normal,60,7.0,,,8000.0,Light Rain/Mist,9.9,9.5,30.04,1018.3,61,10,,,,,,,,,.09 IN,,,,,2800.0,2800.0,OVC,2800.0,,,,,,
KRDR,09-09-2014,22:53,SPECI,Normal,80,5.0,,,8000.0,Light Rain/Mist,10.0,10.0,30.04,,61,10,,,,,,,,,,,,,,2800.0,2800.0,OVC,2800.0,,,,,,
KRDR,09-09-2014,22:48,SPECI,Normal,80,7.0,,,9999.0,Light Rain/Mist,10.0,9.0,30.03,,61,10,,,,,,,,,,,,,,3000.0,3000.0,OVC,3000.0,,,,,,
KRDR,09-09-2014,21:58,METAR,Normal,60,9.0,,,9999.0,Light Rain,10.6,8.8,30.02,1017.5,61,,,,,,,,,,.02 IN,,,,,3100.0,3100.0,BKN,3100.0,OVC,10000.0,,,,
KRDR,09-09-2014,21:50,SPECI,Normal,60,8.0,,,9999.0,Light Drizzle,11.0,9.0,30.02,,51,,,,,,,,,,,,,,,3100.0,3100.0,BKN,3100.0,OVC,10000.0,,,,
KRDR,09-09-2014,21:46,SPECI,Normal,50,9.0,,,9999.0,,11.0,9.0,30.02,,,,,,,,,,,,,,,,,3100.0,3100.0,BKN,3100.0,OVC,10000.0,,,,
KRDR,09-09-2014,21:36,SPECI,Normal,40,13.0,,,9999.0,,10.0,9.0,30.01,,,,,,,,,,,,,,,,,2900.0,2900.0,BKN,2900.0,BKN,10000.0,,,,
KRDR,09-09-2014,20:58,METAR,Normal,30,9.0,,,9999.0,Light Rain,10.6,8.1,30.03,1017.8,61,,,,,,,,,,TRACE,TRACE,,,,2300.0,2300.0,OVC,2300.0,,,,,,
KRDR,09-09-2014,20:52,SPECI,Normal,40,10.0,,,9999.0,Light Rain,11.0,8.0,30.03,,61,,,,,,,,,,,,,,,2400.0,2400.0,OVC,2400.0,,,,,,
KRDR,09-09-2014,20:05,SPECI,Normal,30,14.0,23.0,,9999.0,,10.0,8.0,30.00,,,,,,,,,,,,,,,,,2200.0,2200.0,OVC,2200.0,,,,,,
KRDR,09-09-2014,19:58,METAR,Normal,50,18.0,24.0,020/27KTS,9999.0,Light Rain,10.1,8.4,29.99,1016.5,61,,,,,,,,,,TRACE,,,,,2100.0,2100.0,OVC,2100.0,,,,,,
KRDR,09-09-2014,19:51,SPECI,Normal,40,19.0,24.0,,9999.0,Light Rain,10.0,8.0,29.99,,61,,,,,,,,,,,,,,,2100.0,2100.0,OVC,2100.0,,,,,,
KRDR,09-09-2014,19:11,SPECI,Normal,30,19.0,21.0,,9999.0,,10.0,9.0,30.00,,,,,,,,,,,,,,,,,2000.0,2000.0,BKN,2000.0,,,,,,
KRDR,09-09-2014,18:58,METAR,Normal,20,16.0,,,9999.0,Light Rain,10.1,8.7,30.02,1017.5,61,,,,,,,,,,TRACE,,,,,2000.0,2000.0,OVC,2000.0,,,,,,
KRDR,09-09-2014,18:47,SPECI,Normal,20,13.0,18.0,,9999.0,Light Rain,10.0,8.0,30.04,,61,,,,,,,,,,,,,,,2100.0,2100.0,OVC,2100.0,,,,,,
KRDR,09-09-2014,18:40,SPECI,Normal,20,12.0,,,9999.0,,10.0,8.0,30.05,,,,,,,,,,,,,,,,,2100.0,2100.0,OVC,2100.0,,,,,,
KRDR,09-09-2014,18:30,SPECI,Normal,10,11.0,,,9999.0,Light Rain,11.0,7.0,30.05,,61,,,,,,,,,,,,,,,2000.0,2000.0,OVC,2000.0,,,,,,
KRDR,09-09-2014,17:58,METAR,Normal,40,14.0,,,9999.0,,10.9,7.3,30.03,1017.8,,,,,,,,,,,,,,,,2000.0,2000.0,OVC,2000.0,,,,,,
KRDR,09-09-2014,16:58,METAR,Normal,40,13.0,,,9999.0,,10.9,6.9,30.00,1016.7,,,,,,,,,,,,,,,,2100.0,2100.0,OVC,2100.0,,,,,,
KRDR,09-09-2014,15:58,METAR,Normal,50,15.0,,,9999.0,,10.1,6.6,29.98,1016.0,,,,,,,,,,,,,,,,1600.0,1600.0,OVC,1600.0,,,,,,
KRDR,09-09-2014,15:33,SPECI,Normal,40,13.0,20.0,,9999.0,,10.0,7.0,29.97,,,,,,,,,,,,,,,,,1500.0,1500.0,OVC,1500.0,,,,,,
KRDR,09-09-2014,15:18,SPECI,Normal,60,15.0,20.0,,9999.0,,10.0,7.0,29.96,,,,,,,,,,,,,,,,,1400.0,1400.0,OVC,1400.0,,,,,,
KRDR,09-09-2014,14:58,METAR,Normal,60,17.0,,,9999.0,,9.8,6.6,29.95,1015.0,,,,,,,,,,,,,,,,1500.0,1500.0,OVC,1500.0,,,,,,
KRDR,09-09-2014,14:53,SPECI,Normal,70,16.0,,,9999.0,,10.0,7.0,29.96,,,,,,,,,,,,,,,,,1500.0,1500.0,OVC,1500.0,,,,,,
KRDR,09-09-2014,13:58,METAR,Normal,40,13.0,,,9999.0,,8.6,6.6,29.98,1016.0,,,,,,,,,,,,,,,,1200.0,1200.0,OVC,1200.0,,,,,,
KRDR,09-09-2014,12:58,METAR,Normal,30,12.0,17.0,,9999.0,,8.3,6.7,30.01,1017.0,,,,,,,,,,,,,,,,1200.0,1200.0,OVC,1200.0,,,,,,
KRDR,09-09-2014,12:18,SPECI,Normal,30,13.0,,,9999.0,,8.0,7.0,29.97,,,,,,,,,,,,,,,,,1200.0,1200.0,OVC,1200.0,,,,,,
KRDR,09-09-2014,12:08,SPECI,Normal,30,16.0,22.0,,9999.0,,8.0,6.0,29.97,,,,,,,,,,,,,,,,,1100.0,1100.0,OVC,1100.0,,,,,,
KRDR,09-09-2014,11:58,METAR,Normal,30,13.0,,,9999.0,,7.9,6.3,29.97,1015.6,,,,,,,,,,,,,,,,1200.0,1200.0,OVC,1200.0,,,,,,
KRDR,09-09-2014,11:23,SPECI,Normal,30,13.0,20.0,,9999.0,,8.0,6.0,29.96,,,,,,,,,,,,,,,,,1400.0,1400.0,BKN,1400.0,OVC,4200.0,,,,
KRDR,09-09-2014,11:13,SPECI,Normal,50,16.0,23.0,,9999.0,,8.0,6.0,29.95,,,,,,,,,,,,,,,,,1400.0,1500.0,SCT,1500.0,OVC,4200.0,,,,
KRDR,09-09-2014,11:03,SPECI,Normal,40,17.0,24.0,,9999.0,,8.0,6.0,29.96,,,,,,,,,,,,,,,,,1500.0,1500.0,BKN,1500.0,OVC,4200.0,,,,
KRDR,09-09-2014,10:58,METAR,Normal,40,18.0,23.0,,9999.0,,8.6,6.3,29.95,1014.8,,,,,,,,,,,,,,,,1400.0,1400.0,BKN,1400.0,OVC,4200.0,,,,
KRDR,09-09-2014,10:43,SPECI,Normal,40,16.0,20.0,,9999.0,,9.0,7.0,29.95,,,,,,,,,,,,,,,,,1400.0,1400.0,OVC,1400.0,,,,,,
KRDR,09-09-2014,10:38,SPECI,Normal,40,15.0,20.0,,9999.0,,9.0,7.0,29.95,,,,,,,,,,,,,,,,,1500.0,1500.0,OVC,1500.0,,,,,,
KRDR,09-09-2014,10:28,SPECI,Normal,30,15.0,21.0,,9999.0,,9.0,7.0,29.95,,,,,,,,,,,,,,,,,1400.0,1400.0,BKN,1400.0,OVC,4200.0,,,,
KRDR,09-09-2014,10:13,SPECI,Normal,30,17.0,,,9999.0,,9.0,7.0,29.94,,,,,,,,,,,,,,,,,1500.0,1500.0,BKN,1500.0,OVC,4200.0,,,,
KRDR,09-09-2014,10:03,SPECI,Normal,30,13.0,,,9999.0,,9.0,7.0,29.93,,,,,,,,,,,,,,,,,4300.0,1500.0,SCT,1500.0,OVC,4300.0,,,,
KRDR,09-09-2014,09:58,METAR,Normal,30,12.0,20.0,,9999.0,,9.0,7.0,29.93,1014.0,,,,,,,,,,,,,,,,1500.0,1500.0,BKN,1500.0,OVC,4300.0,,,,
KRDR,09-09-2014,09:48,SPECI,Normal,30,16.0,,,9999.0,,9.0,7.0,29.93,,,,,,,,,,,,,,,,,1400.0,1400.0,BKN,1400.0,BKN,1900.0,OVC,4500.0,,
KRDR,09-09-2014,09:03,SPECI,Normal,30,14.0,20.0,,9999.0,,10.0,7.0,29.93,,,,,,,,,,,,,,,,,1600.0,1600.0,BKN,1600.0,BKN,4000.0,OVC,5000.0,,
KRDR,09-09-2014,08:58,METAR,Normal,30,13.0,19.0,,9999.0,,9.7,7.3,29.93,1013.8,,,,,,,,,,,,,,,,4000.0,1500.0,SCT,1500.0,BKN,4000.0,OVC,5000.0,,
KRDR,09-09-2014,08:03,SPECI,Normal,30,15.0,21.0,,9999.0,,10.0,8.0,29.93,,,,,,,,,,,,,,,,,4300.0,1700.0,SCT,1700.0,OVC,4300.0,,,,
KRDR,09-09-2014,07:58,METAR,Normal,40,15.0,21.0,,9999.0,,10.5,7.6,29.93,1013.8,,,,,,,,,,,,,,,,1700.0,1700.0,BKN,1700.0,OVC,4200.0,,,,
KRDR,09-09-2014,06:58,METAR,Normal,20,14.0,19.0,,9999.0,,10.9,8.4,29.91,1013.2,,,,,,,,,,,,,,,,1600.0,1600.0,OVC,1600.0,,,,,,
KRDR,09-09-2014,05:58,METAR,Normal,20,15.0,,,9999.0,,11.5,8.9,29.89,1012.5,,,,,,,,,,,,,,,,1700.0,1700.0,OVC,1700.0,,,,,,
KRDR,09-09-2014,04:58,METAR,Normal,30,18.0,23.0,,9999.0,,12.3,9.1,29.88,1012.2,,,,,,,,,,,,,,,,2000.0,2000.0,OVC,2000.0,,,,,,
KRDR,09-09-2014,04:28,SPECI,Normal,30,16.0,,,9999.0,,12.0,9.0,29.87,,,,,,,,,,,,,,,,,2100.0,2100.0,BKN,2100.0,,,,,,
KRDR,09-09-2014,04:23,SPECI,Normal,30,18.0,,,9999.0,,12.0,9.0,29.87,,,,,,,,,,,,,,,,4/8 Partly Cloudy,72000.0,2200.0,SCT,2200.0,,,,,,
KRDR,09-09-2014,03:58,METAR,Normal,40,16.0,23.0,,9999.0,,13.0,9.8,29.86,1011.6,,,,,,,,,,,,,,,,2200.0,2200.0,OVC,2200.0,,,,,,
KRDR,09-09-2014,02:58,METAR,Normal,20,16.0,20.0,,9999.0,,13.7,10.3,29.84,1010.9,,,,,,,,,,,,,,,,2600.0,2600.0,BKN,2600.0,,,,,,
KRDR,09-09-2014,02:47,SPECI,Normal,20,16.0,21.0,,9999.0,,14.0,11.0,29.84,,,,,,,,,,,,,,,,4/8 Partly Cloudy,72000.0,2500.0,SCT,2500.0,,,,,,
KRDR,09-09-2014,01:58,METAR,Normal,10,15.0,23.0,,9999.0,,15.6,12.0,29.81,1009.9,,,,,,,,,,,,,,,,2200.0,2200.0,OVC,2200.0,,,,,,
KRDR,09-09-2014,00:58,METAR,Normal,30,17.0,22.0,,9999.0,,16.0,12.9,29.79,1009.3,,,,,,,,,,,,,,,,1900.0,1900.0,OVC,1900.0,,,,,,
KRDR,09-09-2014,00:23,SPECI,Normal,30,17.0,22.0,,9999.0,,17.0,13.0,29.77,,,,,,,,,,,,,,,,,2100.0,2100.0,BKN,2100.0,,,,,,
KRDR,09-08-2014,23:58,METAR,Normal,20,15.0,22.0,,9999.0,,17.1,13.4,29.76,1008.3,,,,,,,,,,,,,,,Clear,72000.0,,,,,,,,,
KRDR,09-08-2014,22:58,METAR,Normal,20,16.0,24.0,,9999.0,,20.5,14.5,29.71,1006.4,,,,,,,,,,,,,,,Clear,72000.0,,,,,,,,,
KRDR,09-08-2014,21:58,METAR,Normal,30,20.0,24.0,,9999.0,,25.3,16.4,29.67,1005.0,,,,,,,,,,,,,,,Clear,72000.0,,,,,,,,,
KRDR,09-08-2014,20:58,METAR,Normal,260,8.0,,,9999.0,,29.8,15.5,29.63,1003.4,,,,,,,,,,,,,,,Clear,72000.0,,,,,,,,,
KRDR,09-08-2014,19:58,METAR,Normal,230,9.0,,,9999.0,,29.0,16.3,29.63,1003.4,,,,,,,,,,,,,,,Clear,72000.0,,,,,,,,,
KRDR,09-08-2014,18:58,METAR,Normal,180,10.0,,,9999.0,,27.4,17.2,29.63,1003.5,,,,,,,,,,,,,,,Clear,72000.0,,,,,,,,,
KRDR,09-08-2014,17:58,METAR,Normal,190,10.0,,,9999.0,,25.8,17.1,29.62,1003.2,,,,,,,,,,,,,,,Clear,72000.0,,,,,,,,,
KRDR,09-08-2014,17:09,SPECI,Normal,220,13.0,,,9999.0,,24.0,17.0,29.63,,,,,,,,,,,,,,,,Clear,72000.0,,,,,,,,,
KRDR,09-08-2014,16:58,METAR,Normal,190,11.0,,,9999.0,,23.5,16.6,29.64,1003.8,,,,,,,,,,,,,,,Clear,72000.0,,,,,,,,,
KRDR,09-08-2014,15:58,METAR,Normal,200,14.0,,,9999.0,,21.6,15.8,29.63,1003.5,,,,,,,,,,,,,,,Clear,72000.0,,,,,,,,,
KRDR,09-08-2014,14:58,METAR,Normal,190,14.0,,,9999.0,,19.4,15.3,29.64,1004.0,,,,,,,,,,,,,,,Clear,72000.0,,,,,,,,,
KRDR,09-08-2014,13:58,METAR,Normal,180,15.0,21.0,,9999.0,,17.1,15.2,29.64,1004.1,,,,,,,,,,,,,,,Clear,72000.0,,,,,,,,,
KRDR,09-08-2014,12:58,METAR,Normal,170,12.0,,,9999.0,,15.2,15.1,29.66,1004.7,,,,,,,,,,,,,,,Clear,72000.0,,,,,,,,,
KRDR,09-08-2014,11:58,METAR,Normal,180,13.0,,,9999.0,,14.7,14.5,29.66,1004.6,,,,,,,,,,,,,,,Clear,72000.0,,,,,,,,,
KRDR,09-08-2014,10:58,METAR,Normal,190,9.0,,,9999.0,,15.0,14.8,29.67,1004.9,,,,,,,,,,,,,,,Clear,72000.0,,,,,,,,,
KRDR,09-08-2014,09:58,METAR,Normal,190,8.0,,,9999.0,,15.0,14.9,29.68,1005.3,,,,,,,,,,,,,,,Clear,72000.0,,,,,,,,,
KRDR,09-08-2014,08:58,METAR,Normal,200,10.0,,,9999.0,,15.7,15.4,29.70,1005.9,,,,,,,,,,,,,,,Clear,72000.0,,,,,,,,,
KRDR,09-08-2014,07:58,METAR,Normal,200,10.0,,,9999.0,,16.2,15.1,29.72,1006.6,,,,,,,,,,,,,,,Clear,72000.0,,,,,,,,,
KRDR,09-08-2014,06:58,METAR,Normal,200,10.0,,,9999.0,,16.8,14.9,29.74,1007.3,,,,,,,,,,,,,,,Clear,72000.0,,,,,,,,,
KRDR,09-08-2014,05:58,METAR,Normal,200,11.0,,,9999.0,,18.1,14.7,29.75,1007.6,,,,,,,,,,,,,,,Clear,72000.0,,,,,,,,,
KRDR,09-08-2014,04:58,METAR,Normal,200,11.0,,,9999.0,,18.9,14.9,29.76,1008.0,,,,,,,,,,,,,,,Clear,72000.0,,,,,,,,,
KRDR,09-08-2014,03:58,METAR,Normal,200,9.0,,,9999.0,,19.5,15.4,29.77,1008.4,,,,,,,,,,,,,,,Clear,72000.0,,,,,,,,,
KRDR,09-08-2014,02:58,METAR,Normal,190,9.0,,,9999.0,,18.8,17.0,29.78,1008.8,,,,,,,,,,,,,,,Clear,72000.0,,,,,,,,,
KRDR,09-08-2014,01:58,METAR,Normal,200,7.0,,,9999.0,,18.5,16.5,29.79,1009.4,,,,,,,,,,,,,,,Clear,72000.0,,,,,,,,,
KRDR,09-08-2014,00:58,METAR,Normal,200,7.0,,,9999.0,,21.5,16.8,29.79,1009.3,,,,,,,,,,,,,,,Clear,72000.0,,,,,,,,,
KRDR,09-07-2014,23:58,METAR,Normal,210,11.0,,,9999.0,,25.0,15.9,29.80,1009.6,,,,,,,,,,,,,,,Clear,72000.0,,,,,,,,,
KRDR,09-07-2014,22:58,METAR,Normal,210,12.0,19.0,,9999.0,,26.2,16.1,29.82,1010.2,,,,,,,,,,,,,,,Clear,72000.0,,,,,,,,,
KRDR,09-07-2014,21:58,METAR,Normal,180,14.0,,,9999.0,,26.3,16.5,29.83,1010.5,,,,,,,,,,,,,,,Clear,72000.0,,,,,,,,,
KRDR,09-07-2014,20:58,METAR,Normal,180,12.0,,,9999.0,,26.7,15.0,29.85,1011.2,,,,,,,,,,,,,,,Clear,72000.0,,,,,,,,,
KRDR,09-07-2014,19:58,METAR,Normal,170,9.0,,,9999.0,,26.3,15.3,29.87,1011.9,,,,,,,,,,,,,,,Clear,72000.0,,,,,,,,,
KRDR,09-07-2014,18:58,METAR,Normal,180,11.0,,,9999.0,,25.4,15.1,29.90,1012.9,,,,,,,,,,,,,,,Clear,72000.0,,,,,,,,,
KRDR,09-07-2014,17:58,METAR,Normal,150,7.0,,,9999.0,,23.8,14.3,29.93,1013.9,,,,,,,,,,,,,,,Clear,72000.0,,,,,,,,,
KRDR,09-07-2014,16:58,METAR,Normal,180,7.0,,,9999.0,,21.5,13.9,29.95,1014.6,,,,,,,,,,,,,,,Clear,72000.0,,,,,,,,,
KRDR,09-07-2014,15:58,METAR,Variable,,2.0,,,9999.0,,19.1,14.0,29.97,1015.4,,,,,,,,,,,,,,,Clear,72000.0,,,,,,,,,
KRDR,09-07-2014,14:58,METAR,Calm,,0.0,,,9999.0,,15.2,12.8,29.98,1015.8,,,,,,,,,,,,,,,Clear,72000.0,,,,,,,,,
KRDR,09-07-2014,13:58,METAR,Calm,,0.0,,,9999.0,,12.3,12.2,29.99,1016.2,,,,,,,,,,,,,,,Clear,72000.0,,,,,,,,,
KRDR,09-07-2014,12:58,METAR,Normal,20,2.0,,,9999.0,,9.9,9.9,29.99,1016.2,,,,,,,,,,,,,,,Clear,72000.0,,,,,,,,,
KRDR,09-07-2014,11:58,METAR,Normal,10,4.0,,,9999.0,,8.5,8.3,30.00,1016.5,,,,,,,,,,,,,,,Clear,72000.0,,,,,,,,,
KRDR,09-07-2014,10:58,METAR,Normal,360,4.0,,,9999.0,,9.1,9.0,30.00,1016.4,,,,,,,,,,,,,,,Clear,72000.0,,,,,,,,,
KRDR,09-07-2014,09:58,METAR,Normal,360,5.0,,,9999.0,,9.8,9.6,30.01,1016.7,,,,,,,,,,,,,,,Clear,72000.0,,,,,,,,,
KRDR,09-07-2014,08:58,METAR,Normal,360,5.0,,,9999.0,,10.3,10.2,30.02,1017.0,,,,,,,,,,,,,,,Clear,72000.0,,,,,,,,,
KRDR,09-07-2014,07:58,METAR,Normal,350,4.0,,,9999.0,,10.3,10.2,30.01,1016.7,,,,,,,,,,,,,,,Clear,72000.0,,,,,,,,,
KRDR,09-07-2014,06:58,METAR,Normal,350,4.0,,,9999.0,,12.1,11.2,30.01,1016.6,,,,,,,,,,,,,,,Clear,72000.0,,,,,,,,,
KRDR,09-07-2014,05:58,METAR,Normal,330,5.0,,,9999.0,,12.4,10.8,30.01,1016.7,,,,,,,,,,,,,,,Clear,72000.0,,,,,,,,,
KRDR,09-07-2014,04:58,METAR,Normal,300,4.0,,,9999.0,,13.4,10.3,30.01,1016.6,,,,,,,,,,,,,,,Clear,72000.0,,,,,,,,,
KRDR,09-07-2014,03:58,METAR,Normal,260,6.0,,,9999.0,,14.8,10.2,30.00,1016.3,,,,,,,,,,,,,,,Clear,72000.0,,,,,,,,,
KRDR,09-07-2014,02:58,METAR,Normal,250,7.0,,,9999.0,,15.7,10.4,30.00,1016.3,,,,,,,,,,,,,,,Clear,72000.0,,,,,,,,,
KRDR,09-07-2014,01:58,METAR,Normal,240,5.0,,,9999.0,,15.1,10.7,30.00,1016.5,,,,,,,,,,,,,,,Clear,72000.0,,,,,,,,,
KRDR,09-07-2014,00:58,METAR,Normal,240,5.0,,,9999.0,,18.8,10.5,30.00,1016.5,,,,,,,,,,,,,,,Clear,72000.0,,,,,,,,,
KRDR,09-06-2014,23:58,METAR,Normal,270,6.0,,,9999.0,,23.8,9.1,30.00,1016.5,,,,,,,,,,,,,,,Clear,72000.0,,,,,,,,,
KRDR,09-06-2014,22:58,METAR,Normal,280,11.0,17.0,,9999.0,,25.5,7.3,30.01,1016.7,,,,,,,,,,,,,,,Clear,72000.0,,,,,,,,,
KRDR,09-06-2014,21:58,METAR,Normal,290,13.0,19.0,,9999.0,,26.1,7.4,30.02,1017.0,,,,,,,,,,,,,,,Clear,72000.0,,,,,,,,,
KRDR,09-06-2014,20:58,METAR,Normal,280,16.0,24.0,,9999.0,,25.7,7.9,30.03,1017.4,,,,,,,,,,,,,,,,9500.0,9500.0,BKN,9600.0,,,,,,
KRDR,09-06-2014,20:04,SPECI,Normal,260,12.0,,,9999.0,,26.0,9.0,30.05,,,,,,,,,,,,,,,,Clear,72000.0,,,,,,,,,
KRDR,09-06-2014,19:58,METAR,Normal,270,12.0,19.0,,9999.0,,25.8,10.0,30.05,1018.1,,,,,,,,,,,,,,,Clear,72000.0,,,,,,,,,
KRDR,09-06-2014,18:58,METAR,Normal,240,8.0,,,9999.0,,24.8,11.6,30.07,1018.8,,,,,,,,,,,,,,,Clear,72000.0,,,,,,,,,
KRDR,09-06-2014,17:58,METAR,Variable,,5.0,,,9999.0,,23.8,10.3,30.09,1019.4,,,,,,,,,,,,,,,Clear,72000.0,,,,,,,,,
KRDR,09-06-2014,16:58,METAR,Normal,250,8.0,14.0,,9999.0,,22.7,10.8,30.11,1020.1,,,,,,,,,,,,,,,Clear,72000.0,,,,,,,,,
KRDR,09-06-2014,15:58,METAR,Normal,240,8.0,,,9999.0,,21.1,11.8,30.13,1020.8,,,,,,,,,,,,,,,Clear,72000.0,,,,,,,,,
KRDR,09-06-2014,14:58,METAR,Variable,,5.0,,,9999.0,,18.7,12.3,30.14,1021.2,,,,,,,,,,,,,,,Clear,72000.0,,,,,,,,,
KRDR,09-06-2014,13:58,METAR,Normal,250,5.0,,,9999.0,,15.5,13.0,30.15,1021.6,,,,,,,,,,,,,,,Clear,72000.0,,,,,,,,,
KRDR,09-06-2014,12:58,METAR,Normal,240,3.0,,,9999.0,,11.3,11.2,30.15,1021.6,,,,,,,,,,,,,,,Clear,72000.0,,,,,,,,,
KRDR,09-06-2014,11:58,METAR,Normal,250,2.0,,,9999.0,,7.7,7.6,30.15,1021.6,,,,,,,,,,,,,,,Clear,72000.0,,,,,,,,,
KRDR,09-06-2014,10:58,METAR,Normal,270,4.0,,,9999.0,,8.2,8.1,30.15,1021.6,,,,,,,,,,,,,,,Clear,72000.0,,,,,,,,,
KRDR,09-06-2014,09:58,METAR,Normal,270,4.0,,,9999.0,,9.2,9.1,30.14,1021.2,,,,,,,,,,,,,,,Clear,72000.0,,,,,,,,,
KRDR,09-06-2014,08:58,METAR,Normal,270,3.0,,,9999.0,,8.4,8.2,30.14,1021.3,,,,,,,,,,,,,,,Clear,72000.0,,,,,,,,,
KRDR,09-06-2014,07:58,METAR,Normal,270,3.0,,,9999.0,,8.0,7.8,30.13,1020.9,,,,,,,,,,,,,,,Clear,72000.0,,,,,,,,,
KRDR,09-06-2014,06:58,METAR,Normal,300,4.0,,,9999.0,,8.3,8.2,30.13,1020.9,,,,,,,,,,,,,,,Clear,72000.0,,,,,,,,,
KRDR,09-06-2014,05:58,METAR,Normal,310,5.0,,,9999.0,,10.7,9.6,30.13,1020.9,,,,,,,,,,,,,,,Clear,72000.0,,,,,,,,,
KRDR,09-06-2014,04:58,METAR,Normal,310,5.0,,,9999.0,,11.4,9.9,30.12,1020.6,,,,,,,,,,,,,,,Clear,72000.0,,,,,,,,,
KRDR,09-06-2014,03:58,METAR,Normal,330,7.0,,,9999.0,,13.7,10.2,30.10,1019.9,,,,,,,,,,,,,,,Clear,72000.0,,,,,,,,,
KRDR,09-06-2014,02:58,METAR,Normal,300,5.0,,,9999.0,,13.8,9.7,30.08,1019.2,,,,,,,,,,,,,,,Clear,72000.0,,,,,,,,,
KRDR,09-06-2014,01:58,METAR,Normal,300,5.0,,,9999.0,,16.0,10.2,30.07,1018.9,,,,,,,,,,,,,,,2/8 Mostly Clear,72000.0,12000.0,FEW,12000.0,,,,,,
KRDR,09-06-2014,00:58,METAR,Normal,270,6.0,,,9999.0,,18.2,9.8,30.05,1018.3,,,,,,,,,,,,,,,2/8 Mostly Clear,72000.0,12000.0,FEW,12000.0,,,,,,
KRDR,09-05-2014,23:58,METAR,Normal,280,8.0,,,9999.0,,21.0,9.4,30.05,1018.2,,,,,,,,,,,,,,,2/8 Mostly Clear,72000.0,12000.0,FEW,12000.0,,,,,,
KRDR,09-05-2014,22:58,METAR,Normal,260,9.0,19.0,,9999.0,,22.2,9.0,30.06,1018.5,,,,,,,,,,,,,,,Clear,72000.0,,,,,,,,,
KRDR,09-05-2014,21:58,METAR,Normal,270,11.0,,,9999.0,,22.4,8.1,30.08,1019.2,,,,,,,,,,,,,,,Clear,72000.0,,,,,,,,,
KRDR,09-05-2014,20:58,METAR,Normal,290,15.0,19.0,,9999.0,,22.4,7.8,30.11,1020.2,,,,,,,,,,,,,,,2/8 Mostly Clear,72000.0,7000.0,FEW,7000.0,,,,,,
KRDR,09-05-2014,19:58,METAR,Normal,280,10.0,16.0,,9999.0,,21.8,8.5,30.13,1020.9,,,,,,,,,,,,,,,4/8 Partly Cloudy,72000.0,6000.0,SCT,6000.0,,,,,,
KRDR,09-05-2014,18:58,METAR,Normal,290,12.0,,,9999.0,,20.8,9.0,30.14,1021.2,,,,,,,,,,,,,,,,5500.0,5500.0,BKN,5500.0,,,,,,
KRDR,09-05-2014,17:58,METAR,Normal,300,12.0,17.0,,9999.0,,20.1,9.4,30.15,1021.6,,,,,,,,,,,,,,,Clear,72000.0,,,,,,,,,
KRDR,09-05-2014,16:58,METAR,Normal,300,9.0,,,9999.0,,19.2,9.1,30.15,1021.6,,,,,,,,,,,,,,,Clear,72000.0,,,,,,,,,
KRDR,09-05-2014,15:58,METAR,Normal,290,7.0,,,9999.0,,17.8,10.8,30.16,1022.0,,,,,,,,,,,,,,,Clear,72000.0,,,,,,,,,
KRDR,09-05-2014,14:58,METAR,Normal,310,9.0,,,9999.0,,15.8,10.5,30.16,1022.0,,,,,,,,,,,,,,,Clear,72000.0,,,,,,,,,
KRDR,09-05-2014,13:58,METAR,Normal,310,7.0,,,9999.0,,13.3,9.7,30.16,1022.0,,,,,,,,,,,,,,,Clear,72000.0,,,,,,,,,
KRDR,09-05-2014,12:58,METAR,Normal,310,7.0,,,9999.0,,10.1,9.1,30.15,1021.8,,,,,,,,,,,,,,,Clear,72000.0,,,,,,,,,
KRDR,09-05-2014,11:58,METAR,Normal,300,5.0,,,9999.0,,7.6,7.5,30.13,1021.1,,,,,,,,,,,,,,,Clear,72000.0,,,,,,,,,
KRDR,09-05-2014,10:58,METAR,Normal,320,7.0,,,9999.0,,8.8,8.1,30.12,1020.7,,,,,,,,,,,,,,,Clear,72000.0,,,,,,,,,
KRDR,09-05-2014,09:58,METAR,Normal,330,9.0,,,9999.0,,9.4,8.0,30.10,1019.9,,,,,,,,,,,,,,,Clear,72000.0,,,,,,,,,
KRDR,09-05-2014,08:58,METAR,Normal,330,9.0,,,9999.0,,9.8,8.2,30.08,1019.2,,,,,,,,,,,,,,,Clear,72000.0,,,,,,,,,
KRDR,09-05-2014,07:58,METAR,Normal,330,10.0,,,9999.0,,10.0,9.1,30.06,1018.5,,,,,,,,,,,,,,,Clear,72000.0,,,,,,,,,
KRDR,09-05-2014,06:58,METAR,Normal,320,11.0,,,9999.0,,10.5,9.4,30.04,1017.8,,,,,,,,,,,,,,,Clear,72000.0,,,,,,,,,
KRDR,09-05-2014,05:58,METAR,Normal,340,10.0,18.0,,9999.0,,11.6,10.2,30.02,1017.1,,,,,,,,,,,,,,,Clear,72000.0,,,,,,,,,
KRDR,09-05-2014,04:58,METAR,Normal,340,13.0,,,9999.0,,12.9,11.0,29.99,1016.0,,,,,,,,,,,,,,,,3700.0,2300.0,SCT,2300.0,OVC,3700.0,,,,
KRDR,09-05-2014,04:48,SPECI,Normal,330,13.0,,,9999.0,,13.0,11.0,29.99,,,,,,,,,,,,,,,,,2300.0,2300.0,SCT,2300.0,OVC,3600.0,,,,
KRDR,09-05-2014,04:38,SPECI,Normal,330,11.0,16.0,,9999.0,,12.0,11.0,29.98,,,,,,,,,,,,,,,,,2300.0,2300.0,BKN,2300.0,OVC,3400.0,,,,
KRDR,09-05-2014,03:58,METAR,Normal,310,6.0,,,9999.0,,11.8,10.8,29.97,1015.4,,,,,,,,,,,,,,,Clear,72000.0,,,,,,,,,
KRDR,09-05-2014,02:58,METAR,Normal,330,8.0,,,9999.0,,12.3,10.6,29.95,1014.8,,,,,,,,,,,,,,,2/8 Mostly Clear,72000.0,2800.0,FEW,2800.0,,,,,,
KRDR,09-05-2014,02:13,SPECI,Normal,340,7.0,,,9999.0,,13.0,11.0,29.93,,,,,,,,,,,,,,,,4/8 Partly Cloudy,72000.0,2600.0,SCT,2600.0,,,,,,
KRDR,09-05-2014,01:58,METAR,Variable,350,9.0,,,9999.0,,14.1,10.7,29.92,1013.7,,,,,,,,,,,,,,,,2500.0,2500.0,BKN,2500.0,,,,,,
KRDR,09-05-2014,01:38,SPECI,Normal,340,13.0,20.0,,9999.0,,14.0,10.0,29.91,,,,,,,,,,,,,,,,,2600.0,2600.0,BKN,2600.0,,,,,,
KRDR,09-05-2014,01:33,SPECI,Normal,340,13.0,20.0,,9999.0,,14.0,10.0,29.90,,,,,,,,,,,,,,,,4/8 Partly Cloudy,72000.0,2600.0,SCT,2600.0,,,,,,
KRDR,09-05-2014,01:03,SPECI,Normal,340,16.0,23.0,,9999.0,,15.0,11.0,29.88,,,,,,,,,,,,,,,,,2700.0,2700.0,BKN,2700.0,,,,,,
KRDR,09-05-2014,00:58,METAR,Normal,340,16.0,25.0,310/31KTS,9999.0,,15.0,10.6,29.87,1012.0,,,,,,,,,,,,,,,4/8 Partly Cloudy,72000.0,2800.0,SCT,2800.0,SCT,3300.0,,,,
KRDR,09-04-2014,23:58,METAR,Normal,320,16.0,23.0,,9999.0,,17.1,11.5,29.83,1010.6,,,,,,,,,,,,,,,Clear,72000.0,,,,,,,,,
KRDR,09-04-2014,22:58,METAR,Normal,320,20.0,28.0,,9999.0,,19.6,12.5,29.78,1008.8,,,,,,,,,,,,,,,Clear,72000.0,,,,,,,,,
KRDR,09-04-2014,21:58,METAR,Normal,320,18.0,25.0,,9999.0,,21.7,13.0,29.75,1007.8,,,,,,,,,,,,,,,Clear,72000.0,,,,,,,,,
KRDR,09-04-2014,20:58,METAR,Normal,300,19.0,26.0,,9999.0,,22.2,11.7,29.72,1006.7,,,,,,,,,,,,,,,Clear,72000.0,,,,,,,,,
KRDR,09-04-2014,19:59,METAR,Normal,320,17.0,24.0,,9999.0,,22.3,14.2,29.71,1006.4,,,,,,,,,,,,,,,,3900.0,3900.0,BKN,3900.0,,,,,,
KRDR,09-04-2014,18:58,METAR,Normal,300,12.0,,,9999.0,,21.5,17.4,29.69,1005.7,,,,,,,,,,,,,,,,3400.0,2200.0,SCT,2200.0,OVC,3400.0,,,,
KRDR,09-04-2014,18:38,SPECI,Normal,290,9.0,,,9999.0,,22.0,19.0,29.69,,,,,,,,,,,,,,,,,2200.0,2200.0,BKN,2200.0,BKN,2800.0,BKN,4700.0,,
KRDR,09-04-2014,18:13,SPECI,Normal,300,11.0,17.0,,9999.0,,22.0,18.0,29.69,,,,,,,,,,,,,,,,,2500.0,2300.0,FEW,2300.0,SCT,2800.0,BKN,3400.0,,
KRDR,09-04-2014,17:58,METAR,Normal,300,13.0,20.0,,9999.0,,21.7,18.8,29.69,1005.7,,,,,,,,,,,,,,,,2300.0,2300.0,BKN,2300.0,OVC,3100.0,,,,
KRDR,09-04-2014,16:58,METAR,Normal,260,8.0,,,9999.0,,22.1,19.1,29.69,1005.7,,,,,,,,,,,,,,,,2000.0,2000.0,BKN,2000.0,,,,,,
KRDR,09-04-2014,16:28,SPECI,Normal,270,8.0,,,9999.0,,22.0,20.0,29.69,,,,,,,,,,,,,,,,,1500.0,1500.0,BKN,1500.0,BKN,2000.0,OVC,2600.0,,
KRDR,09-04-2014,16:18,SPECI,Normal,270,9.0,,,9999.0,,21.0,19.0,29.69,,,,,,,,,,,,,,,,,1400.0,1400.0,BKN,1400.0,OVC,1900.0,,,,
KRDR,09-04-2014,16:13,SPECI,Normal,290,8.0,,,9999.0,,21.0,19.0,29.69,,,,,,,,,,,,,,,,,1600.0,1600.0,OVC,1600.0,,,,,,
KRDR,09-04-2014,15:58,METAR,Normal,310,7.0,,,9999.0,,20.5,19.0,29.69,1005.7,,,,,,,,,,,,,,,,1500.0,1500.0,OVC,1500.0,,,,,,
KRDR,09-04-2014,15:48,SPECI,Normal,280,6.0,,,9999.0,,20.0,19.0,29.69,,,,,,,,,,,,,,,,,1600.0,1600.0,BKN,1600.0,,,,,,
KRDR,09-04-2014,15:43,SPECI,Normal,300,6.0,,,9999.0,,20.0,19.0,29.69,,,,,,,,,,,,,,,,,1400.0,1400.0,BKN,1400.0,,,,,,
KRDR,09-04-2014,15:33,SPECI,Normal,300,6.0,,,9999.0,,20.0,19.0,29.69,,,,,,,,,,,,,,,,,1500.0,1500.0,BKN,1500.0,,,,,,
KRDR,09-04-2014,15:28,SPECI,Variable,310,7.0,,,9999.0,,20.0,19.0,29.69,,,,,,,,,,,,,,,,4/8 Partly Cloudy,72000.0,1700.0,SCT,1700.0,,,,,,
KRDR,09-04-2014,15:08,SPECI,Normal,330,6.0,,,9999.0,,19.0,18.0,29.68,,,,,,,,,,,,,,,,,1700.0,1700.0,BKN,1700.0,,,,,,
KRDR,09-04-2014,14:58,METAR,Normal,320,6.0,,,9999.0,,18.9,18.2,29.68,1005.4,,,,,,,,,,,,,,,2/8 Mostly Clear,72000.0,1800.0,FEW,1800.0,,,,,,
KRDR,09-04-2014,13:58,METAR,Normal,340,5.0,,,9999.0,,16.9,16.7,29.67,1005.0,,,,,,,,,,,,,,,Clear,72000.0,,,,,,,,,
KRDR,09-04-2014,12:58,METAR,Normal,330,7.0,,,9999.0,,15.9,15.9,29.65,1004.3,,,,,,,,,,,,,,,2/8 Mostly Clear,72000.0,1500.0,FEW,1500.0,,,,,,
KRDR,09-04-2014,12:54,SPECI,Normal,320,8.0,,,9999.0,,16.0,16.0,29.65,,,,,,,,,,,,,,,,4/8 Partly Cloudy,72000.0,1500.0,SCT,1500.0,,,,,,
KRDR,09-04-2014,12:49,SPECI,Normal,330,8.0,,,9999.0,,16.0,16.0,29.66,,,,,,,,,,,,,,,,,1600.0,1000.0,FEW,1000.0,BKN,1600.0,,,,
KRDR,09-04-2014,12:39,SPECI,Normal,330,7.0,,,9999.0,,16.0,16.0,29.65,,,,,,,,,,,,,,,,,1000.0,1000.0,SCT,1000.0,SCT,1600.0,,,,
KRDR,09-04-2014,12:19,SPECI,Normal,330,4.0,,,9999.0,,16.0,16.0,29.65,,,,,,,,,,,,,,,,,1100.0,1100.0,BKN,1100.0,BKN,1900.0,OVC,12000.0,,
KRDR,09-04-2014,12:09,SPECI,Normal,330,6.0,,,9999.0,,16.0,16.0,29.64,,,,,,,,,,,,,,,,,1900.0,1100.0,FEW,1100.0,BKN,1900.0,OVC,12000.0,,
KRDR,09-04-2014,12:04,SPECI,Normal,330,7.0,,,9999.0,,17.0,17.0,29.64,,,,,,,,,,,,,,,,,12000.0,1100.0,FEW,1100.0,SCT,1900.0,OVC,12000.0,,
KRDR,09-04-2014,11:58,METAR,Normal,260,1.0,,,9999.0,,17.0,16.8,29.63,1003.5,,,,,,,,,,,,,.07 IN,.07 IN,,12000.0,12000.0,BKN,12000.0,,,,,,
KRDR,09-04-2014,10:58,METAR,Normal,110,13.0,,,9999.0,,16.4,16.4,29.55,1000.8,,,,,,,,,,,,,,,Clear,72000.0,,,,,,,,,
KRDR,09-04-2014,10:33,SPECI,Normal,120,11.0,,,9999.0,,16.0,16.0,29.58,,,,,,,,,,,,,,,,Clear,72000.0,,,,,,,,,
KRDR,09-04-2014,09:58,METAR,Normal,140,9.0,,,9999.0,,15.1,14.9,29.65,1004.2,,,,,,,,,,,TRACE,,,,Clear,72000.0,,,,,,,,,
KRDR,09-04-2014,09:02,SPECI,Normal,80,11.0,,,9999.0,,15.0,15.0,29.66,,,,,,,,,,,,,,,,2/8 Mostly Clear,72000.0,1200.0,FEW,1200.0,,,,,,
KRDR,09-04-2014,08:58,METAR,Normal,80,8.0,,,9999.0,Light Drizzle,14.8,14.6,29.67,1004.9,51,,,,,,,,,,.06 IN,.07 IN,,,2/8 Mostly Clear,72000.0,1800.0,FEW,1800.0,,,,,,
KRDR,09-04-2014,08:22,SPECI,Normal,360,10.0,,,9999.0,Light Rain,15.0,15.0,29.70,,61,,,,,,,,,,,,,,,4700.0,4700.0,BKN,4700.0,OVC,11000.0,,,,
KRDR,09-04-2014,08:17,SPECI,Normal,20,10.0,,,9999.0,Light Rain,15.0,15.0,29.70,,61,,,,,,,,,,,,,,,3900.0,3900.0,BKN,3900.0,OVC,11000.0,,,,
KRDR,09-04-2014,08:13,SPECI,Normal,40,12.0,,,9999.0,Light Rain,15.0,15.0,29.69,,61,,,,,,,,,,,,,,,4100.0,4100.0,OVC,4100.0,,,,,,
KRDR,09-04-2014,08:08,SPECI,Normal,60,11.0,,,8000.0,Rain/Mist,15.0,15.0,29.67,,62,10,,,,,,,,,,,,,,4900.0,4900.0,OVC,4900.0,,,,,,
KRDR,09-04-2014,07:58,METAR,Normal,60,11.0,,,9999.0,Light Rain,15.0,15.0,29.71,1006.3,61,,,,,,,,,,.01 IN,,,,,4000.0,4000.0,BKN,4000.0,BKN,5000.0,BKN,6500.0,,
KRDR,09-04-2014,07:57,SPECI,Normal,60,11.0,,,9999.0,Light Rain,15.0,15.0,29.72,,61,,,,,,,,,,,,,,,3500.0,3500.0,BKN,3500.0,BKN,4800.0,BKN,6500.0,,
KRDR,09-04-2014,07:37,SPECI,Normal,350,8.0,,,9999.0,Light Rain,15.0,15.0,29.77,,61,,,,,,,,,,,,,,2/8 Mostly Clear,72000.0,7000.0,FEW,7000.0,,,,,,
KRDR,09-04-2014,06:58,METAR,Normal,20,6.0,,,9999.0,,15.3,15.1,29.73,1007.0,,,,,,,,,,,,,,,4/8 Partly Cloudy,72000.0,2700.0,SCT,2700.0,,,,,,
KRDR,09-04-2014,05:58,METAR,Normal,50,7.0,,,9999.0,,16.6,15.0,29.69,1005.6,,,,,,,,,,,,,,,Clear,72000.0,,,,,,,,,
KRDR,09-04-2014,05:23,SPECI,Normal,50,7.0,,,9999.0,,17.0,15.0,29.70,,,,,,,,,,,,,,,,4/8 Partly Cloudy,72000.0,2800.0,SCT,2800.0,,,,,,
KRDR,09-04-2014,04:58,METAR,Normal,70,7.0,,,9999.0,,17.1,15.0,29.70,,,,,,,,,,,,,,,,,2800.0,2800.0,BKN,2800.0,,,,,,
KRDR,09-04-2014,04:53,SPECI,Normal,80,6.0,,,9999.0,,17.0,15.0,29.71,,,,,,,,,,,,,,,,,2900.0,2900.0,BKN,2900.0,,,,,,
KRDR,09-04-2014,03:58,METAR,Normal,70,8.0,,,9999.0,,17.4,14.8,29.70,,,,,,,,,,,,,,,,Clear,72000.0,,,,,,,,,
KRDR,09-04-2014,02:58,METAR,Normal,60,8.0,,,9999.0,,18.9,15.0,29.71,,,,,,,,,,,,,,,,4/8 Partly Cloudy,72000.0,4700.0,SCT,4700.0,,,,,,
KRDR,09-04-2014,01:58,METAR,Normal,50,6.0,,,9999.0,,20.2,13.9,29.70,,,,,,,,,,,,,,,,Clear,72000.0,,,,,,,,,
KRDR,09-04-2014,00:58,METAR,Normal,60,7.0,,,9999.0,,21.7,13.8,29.69,1005.8,,,,,,,,,,,,,,,Clear,72000.0,,,,,,,,,
KRDR,09-03-2014,23:58,METAR,Normal,30,5.0,,,9999.0,,24.6,14.4,29.69,1005.8,,,,,,,,,,,,,,,Clear,72000.0,,,,,,,,,
KRDR,09-03-2014,22:58,METAR,Normal,70,8.0,,,9999.0,,26.0,14.2,29.68,1005.5,,,,,,,,,,,,,,,4/8 Partly Cloudy,72000.0,6000.0,SCT,6000.0,,,,,,
KRDR,09-03-2014,21:58,METAR,Normal,80,8.0,,,9999.0,,25.7,13.5,29.68,1005.4,,,,,,,,,,,,,,,Clear,72000.0,,,,,,,,,
KRDR,09-03-2014,20:58,METAR,Normal,70,9.0,,,9999.0,,26.5,12.9,29.69,1005.8,,,,,,,,,,,,,,,Clear,72000.0,,,,,,,,,
KRDR,09-03-2014,19:58,METAR,Normal,60,7.0,,,9999.0,,26.3,13.0,29.70,1006.1,,,,,,,,,,,,,,,Clear,72000.0,,,,,,,,,
KRDR,09-03-2014,18:58,METAR,Normal,90,7.0,,,9999.0,,25.6,12.9,29.70,1006.0,,,,,,,,,,,,,,,Clear,72000.0,,,,,,,,,
KRDR,09-03-2014,17:58,METAR,Normal,60,8.0,,,9999.0,,24.5,14.3,29.70,1006.0,,,,,,,,,,,,,,,Clear,72000.0,,,,,,,,,
KRDR,09-03-2014,16:58,METAR,Normal,120,6.0,,,9999.0,,22.6,14.4,29.71,1006.4,,,,,,,,,,,,,,,Clear,72000.0,,,,,,,,,
KRDR,09-03-2014,15:58,METAR,Normal,130,5.0,,,9999.0,,19.8,15.0,29.73,1007.1,,,,,,,,,,,,,,,Clear,72000.0,,,,,,,,,
KRDR,09-03-2014,14:58,METAR,Normal,120,6.0,,,9999.0,,17.4,15.3,29.73,1007.2,,,,,,,,,,,,,,,Clear,72000.0,,,,,,,,,
KRDR,09-03-2014,13:58,METAR,Variable,,1.0,,,9999.0,,14.5,14.3,29.74,1007.6,,,,,,,,,,,,,,,Clear,72000.0,,,,,,,,,
KRDR,09-03-2014,12:58,METAR,Normal,310,2.0,,,9999.0,,10.4,10.4,29.74,1007.7,,,,,,,,,,,,,,,Clear,72000.0,,,,,,,,,
KRDR,09-03-2014,11:58,METAR,Normal,300,2.0,,,9999.0,,7.8,7.8,29.74,1007.6,,,,,,,,,,,,,,.06 IN,Clear,72000.0,,,,,,,,,
KRDR,09-03-2014,10:58,METAR,Normal,260,2.0,,,9999.0,,7.9,7.9,29.73,1007.2,,,,,,,,,,,,,,,Clear,72000.0,,,,,,,,,
KRDR,09-03-2014,09:58,METAR,Normal,300,3.0,,,9999.0,,8.7,8.7,29.74,1007.5,,,,,,,,,,,,,,,Clear,72000.0,,,,,,,,,
KRDR,09-03-2014,08:58,METAR,Normal,290,3.0,,,9999.0,,9.4,9.2,29.74,1007.6,,,,,,,,,,,,,,,Clear,72000.0,,,,,,,,,
KRDR,09-03-2014,07:58,METAR,Normal,300,4.0,,,9999.0,,10.0,9.9,29.74,1007.5,,,,,,,,,,,,,,,Clear,72000.0,,,,,,,,,
KRDR,09-03-2014,06:58,METAR,Normal,320,4.0,,,9999.0,,11.3,11.1,29.74,1007.5,,,,,,,,,,,,,,,Clear,72000.0,,,,,,,,,
KRDR,09-03-2014,05:58,METAR,Normal,250,3.0,,,9999.0,,12.8,12.1,29.74,1007.5,,,,,,,,,,,,,,,Clear,72000.0,,,,,,,,,
KRDR,09-03-2014,04:58,METAR,Normal,300,7.0,,,9999.0,,15.2,12.3,29.73,1007.2,,,,,,,,,,,,,,,Clear,72000.0,,,,,,,,,
KRDR,09-03-2014,03:58,METAR,Normal,280,5.0,,,9999.0,,16.2,12.4,29.73,1007.3,,,,,,,,,,,,,,,Clear,72000.0,,,,,,,,,
KRDR,09-03-2014,02:58,METAR,Normal,230,8.0,,,9999.0,,15.4,13.4,29.72,1006.9,,,,,,,,,,,,,,,Clear,72000.0,,,,,,,,,
KRDR,09-03-2014,01:58,METAR,Normal,230,7.0,,,9999.0,,16.6,13.4,29.71,1006.6,,,,,,,,,,,,,,,Clear,72000.0,,,,,,,,,
KRDR,09-03-2014,00:58,METAR,Normal,240,5.0,,,9999.0,,19.8,14.8,29.69,1005.9,,,,,,,,,,,,,,,Clear,72000.0,,,,,,,,,
KRDR,09-02-2014,23:58,METAR,Normal,250,6.0,,,9999.0,,23.5,12.5,29.68,1005.4,,,,,,,,,,,,,,,Clear,72000.0,,,,,,,,,
KRDR,09-02-2014,22:58,METAR,Normal,250,12.0,,,9999.0,,24.8,12.1,29.69,1005.8,,,,,,,,,,,,,,,2/8 Mostly Clear,72000.0,8500.0,FEW,8600.0,,,,,,
KRDR,09-02-2014,21:58,METAR,Normal,230,13.0,20.0,,9999.0,,25.7,13.3,29.69,1005.8,,,,,,,,,,,,,,,Clear,72000.0,,,,,,,,,
KRDR,09-02-2014,20:58,METAR,Normal,200,10.0,,,9999.0,,23.1,14.5,29.71,1006.5,,,,,,,,,,,,,,,4/8 Partly Cloudy,72000.0,11000.0,SCT,11000.0,,,,,,
KRDR,09-02-2014,19:58,METAR,Normal,240,12.0,16.0,,9999.0,,23.7,13.6,29.73,1007.1,,,,,,,,,,,,,,,2/8 Mostly Clear,72000.0,12000.0,FEW,12000.0,,,,,,
KRDR,09-02-2014,18:58,METAR,Normal,200,11.0,,,9999.0,,22.5,13.7,29.74,1007.5,,,,,,,,,,,,,,,Clear,72000.0,,,,,,,,,
KRDR,09-02-2014,17:58,METAR,Normal,210,9.0,,,9999.0,,20.2,14.6,29.75,1007.9,,,,,,,,,,,,,.06 IN,,2/8 Mostly Clear,72000.0,11000.0,FEW,11000.0,,,,,,
KRDR,09-02-2014,16:58,METAR,Normal,200,9.0,,,9999.0,,17.9,15.0,29.75,1008.0,,,,,,,,,,,TRACE,,,,4/8 Partly Cloudy,72000.0,9000.0,SCT,9100.0,,,,,,
KRDR,09-02-2014,16:41,SPECI,Normal,220,7.0,,,9999.0,,18.0,14.0,29.75,,,,,,,,,,,,,,,,2/8 Mostly Clear,72000.0,9000.0,FEW,9100.0,,,,,,
KRDR,09-02-2014,16:31,SPECI,Normal,240,5.0,,,9999.0,Light Drizzle,19.0,15.0,29.75,,51,,,,,,,,,,,,,,2/8 Mostly Clear,72000.0,9000.0,FEW,9100.0,,,,,,
KRDR,09-02-2014,15:58,METAR,Normal,200,11.0,,240/29KTS,9999.0,,15.0,12.0,29.76,1008.4,,,,,,,,,,,.06 IN,,,,,10000.0,3400.0,SCT,3400.0,BKN,10000.0,,,,
KRDR,09-02-2014,15:57,SPECI,Normal,210,11.0,,,9999.0,,15.0,12.0,29.76,,,,,,,,,,,,,,,,,10000.0,3400.0,SCT,3400.0,BKN,10000.0,,,,
KRDR,09-02-2014,15:47,SPECI,Normal,210,23.0,29.0,,4800.0,Light Rain,15.0,12.0,29.76,,61,,,,,,,,,,,,,,,3700.0,3700.0,OVC,3700.0,,,,,,
KRDR,09-02-2014,15:06,SPECI,Normal,270,6.0,,,9999.0,Light Drizzle,16.0,13.0,29.81,,51,,,,,,,,,,,,,,,9000.0,6000.0,FEW,6000.0,SCT,8000.0,BKN,9100.0,,
KRDR,09-02-2014,14:58,METAR,Normal,260,3.0,,,9999.0,,15.9,12.7,29.79,1009.4,,,,,,,,,,,,,,,,9000.0,9000.0,BKN,9100.0,BKN,11000.0,,,,
KRDR,09-02-2014,13:58,METAR,Normal,240,2.0,,,9999.0,,14.7,12.9,29.78,1009.0,,,,,,,,,,,,,,,Clear,72000.0,,,,,,,,,
KRDR,09-02-2014,12:58,METAR,Normal,260,4.0,,,9999.0,,12.3,11.7,29.78,1009.0,,,,,,,,,,,,,,,Clear,72000.0,,,,,,,,,
KRDR,09-02-2014,11:58,METAR,Normal,260,5.0,,,9999.0,,10.7,10.6,29.77,1008.6,,,,,,,,,,,,,,.01 IN,Clear,72000.0,,,,,,,,,
KRDR,09-02-2014,10:58,METAR,Normal,260,5.0,,,9999.0,,10.9,10.6,29.78,1009.0,,,,,,,,,,,,,,,Clear,72000.0,,,,,,,,,
KRDR,09-02-2014,09:58,METAR,Normal,260,5.0,,,9999.0,,10.2,9.9,29.78,1009.0,,,,,,,,,,,,,,,Clear,72000.0,,,,,,,,,
KRDR,09-02-2014,08:58,METAR,Normal,270,5.0,,,9999.0,,11.2,9.9,29.78,1009.0,,,,,,,,,,,,,,,Clear,72000.0,,,,,,,,,
KRDR,09-02-2014,07:58,METAR,Normal,260,6.0,,,9999.0,,12.2,10.3,29.77,1008.6,,,,,,,,,,,,,,,Clear,72000.0,,,,,,,,,
KRDR,09-02-2014,06:58,METAR,Normal,250,6.0,,,9999.0,,11.6,11.1,29.76,1008.2,,,,,,,,,,,,,,,Clear,72000.0,,,,,,,,,
KRDR,09-02-2014,05:58,METAR,Normal,250,6.0,,,9999.0,,10.9,10.8,29.77,1008.5,,,,,,,,,,,,,,,Clear,72000.0,,,,,,,,,
KRDR,09-02-2014,04:58,METAR,Normal,250,5.0,,,9999.0,,11.2,11.1,29.78,1008.9,,,,,,,,,,,,,,,Clear,72000.0,,,,,,,,,
KRDR,09-02-2014,03:58,METAR,Normal,250,5.0,,,9999.0,,11.8,11.2,29.78,1008.9,,,,,,,,,,,,,,,Clear,72000.0,,,,,,,,,
KRDR,09-02-2014,02:58,METAR,Normal,260,5.0,,,9999.0,,12.7,11.5,29.77,1008.6,,,,,,,,,,,,,,,Clear,72000.0,,,,,,,,,
KRDR,09-02-2014,01:58,METAR,Normal,290,5.0,,,9999.0,,16.5,13.0,29.76,1008.2,,,,,,,,,,,,,,,4/8 Partly Cloudy,72000.0,10000.0,FEW,10000.0,SCT,12000.0,,,,
KRDR,09-02-2014,00:58,METAR,Normal,230,4.0,,,9999.0,,17.7,14.2,29.75,1007.9,,,,,,,,,,,,,,,Clear,72000.0,,,,,,,,,
KRDR,09-01-2014,23:58,METAR,Normal,20,2.0,,,9999.0,,20.7,13.2,29.74,1007.6,,,,,,,,,,,,,.01 IN,,Clear,72000.0,,,,,,,,,
KRDR,09-01-2014,22:58,METAR,Normal,10,5.0,,,9999.0,,21.2,11.8,29.74,1007.5,,,,,,,,,,,,,,,Clear,72000.0,,,,,,,,,
KRDR,09-01-2014,21:58,METAR,Normal,340,8.0,,,9999.0,,21.0,11.9,29.73,1007.2,,,,,,,,,,,,,,,,10000.0,8000.0,SCT,8000.0,BKN,10000.0,,,,
KRDR,09-01-2014,20:58,METAR,Normal,320,8.0,,,9999.0,,19.0,13.0,29.72,1006.9,,,,,,,,,,,TRACE,.01 IN,,,2/8 Mostly Clear,72000.0,12000.0,FEW,12000.0,,,,,,
KRDR,09-01-2014,20:54,SPECI,Normal,320,5.0,,,9999.0,,18.0,14.0,29.72,,,,,,,,,,,,,,,,2/8 Mostly Clear,72000.0,12000.0,FEW,12000.0,,,,,,
KRDR,09-01-2014,20:40,SPECI,Normal,340,8.0,,,9999.0,Light Rain,17.0,13.0,29.73,,61,,,,,,,,,,,,,,4/8 Partly Cloudy,72000.0,4200.0,FEW,4200.0,SCT,6000.0,,,,
KRDR,09-01-2014,20:32,SPECI,Normal,350,8.0,,,9999.0,,17.0,13.0,29.73,,,,,,,,,,,,,,,,4/8 Partly Cloudy,72000.0,4000.0,FEW,4000.0,SCT,6000.0,,,,
KRDR,09-01-2014,20:13,SPECI,Normal,350,19.0,24.0,,9999.0,Light Drizzle/Distant Lightning,22.0,13.0,29.73,,51,12,,,,,,,,,,,,,4/8 Partly Cloudy,72000.0,6000.0,FEW,6000.0,SCT,12000.0,,,,
KRDR,09-01-2014,20:04,SPECI,Normal,340,8.0,,,9999.0,,22.0,13.0,29.71,,,,,,,,,,,,,,,,2/8 Mostly Clear,72000.0,2500.0,FEW,2500.0,,,,,,
KRDR,09-01-2014,19:58,METAR,Normal,330,7.0,,,9999.0,Light Rain,21.1,15.1,29.71,1006.5,61,,,,,,,,,,.01 IN,,,,2/8 Mostly Clear,72000.0,2300.0,FEW,2300.0,,,,,,
KRDR,09-01-2014,19:31,SPECI,Normal,330,6.0,,,9999.0,Light Rain,21.0,15.0,29.71,,61,,,,,,,,,,,,,,2/8 Mostly Clear,72000.0,1200.0,FEW,1200.0,,,,,,
KRDR,09-01-2014,19:22,SPECI,Normal,320,4.0,,,9999.0,,21.0,15.0,29.71,,,,,,,,,,,,,,,,2/8 Mostly Clear,72000.0,1300.0,FEW,1300.0,,,,,,
KRDR,09-01-2014,19:21,SPECI,Normal,320,4.0,,,9999.0,Light Rain,21.0,16.0,29.71,,61,,,,,,,,,,,,,,2/8 Mostly Clear,72000.0,1100.0,FEW,1100.0,,,,,,
KRDR,09-01-2014,18:59,SPECI,Normal,310,4.0,,,9999.0,Light Drizzle,21.0,15.0,29.71,,51,,,,,,,,,,,,,,2/8 Mostly Clear,72000.0,11000.0,FEW,11000.0,,,,,,
KRDR,09-01-2014,18:58,METAR,Normal,320,5.0,,,9999.0,,21.4,14.1,29.71,1006.4,,,,,,,,,,,TRACE,,,,2/8 Mostly Clear,72000.0,10000.0,FEW,10000.0,,,,,,
KRDR,09-01-2014,18:39,SPECI,Normal,320,3.0,,,9999.0,,21.0,15.0,29.71,,,,,,,,,,,,,,,,,12000.0,5000.0,SCT,5000.0,SCT,10000.0,BKN,12000.0,,
KRDR,09-01-2014,18:16,SPECI,Normal,280,6.0,,,9999.0,Light Drizzle,24.0,13.0,29.71,,51,,,,,,,,,,,,,,2/8 Mostly Clear,72000.0,5500.0,FEW,5500.0,,,,,,
KRDR,09-01-2014,17:58,METAR,Normal,290,6.0,,,9999.0,,23.9,13.2,29.71,1006.4,,,,,,,,,,,,,,,2/8 Mostly Clear,72000.0,4400.0,FEW,4400.0,,,,,,
KRDR,09-01-2014,16:58,METAR,Variable,,6.0,,,9999.0,,22.6,14.6,29.72,1006.7,,,,,,,,,,,,,,,Clear,72000.0,,,,,,,,,
KRDR,09-01-2014,15:58,METAR,Normal,320,4.0,,,9999.0,,20.3,15.2,29.71,1006.4,,,,,,,,,,,,,,,,6000.0,6000.0,BKN,6000.0,,,,,,
KRDR,09-01-2014,14:58,METAR,Variable,,5.0,,,9999.0,,19.3,15.2,29.71,1006.4,,,,,,,,,,,,,,,4/8 Partly Cloudy,72000.0,6500.0,SCT,6500.0,,,,,,
KRDR,09-01-2014,13:58,METAR,Normal,330,5.0,,,9999.0,,16.5,15.7,29.70,1006.1,,,,,,,,,,,,,,,Clear,72000.0,,,,,,,,,
KRDR,09-01-2014,12:58,METAR,Normal,290,6.0,,,9999.0,,14.2,14.0,29.70,1006.2,,,,,,,,,,,,,,,Clear,72000.0,,,,,,,,,
KRDR,09-01-2014,11:58,METAR,Normal,290,5.0,,,9999.0,,11.3,11.3,29.69,1005.8,,,,,,,,,,,,,,.04 IN,Clear,72000.0,,,,,,,,,
KRDR,09-01-2014,10:58,METAR,Normal,310,6.0,,,9999.0,,11.9,11.7,29.68,1005.5,,,,,,,,,,,,,,,Clear,72000.0,,,,,,,,,
KRDR,09-01-2014,09:58,METAR,Normal,300,4.0,,,9999.0,,12.2,12.2,29.68,1005.4,,,,,,,,,,,,,,,Clear,72000.0,,,,,,,,,
KRDR,09-01-2014,08:58,METAR,Normal,310,7.0,,,9999.0,,12.0,12.0,29.67,1005.1,,,,,,,,,,,,,,,Clear,72000.0,,,,,,,,,
KRDR,09-01-2014,07:58,METAR,Normal,320,5.0,,,9999.0,,12.3,12.2,29.68,1005.5,,,,,,,,,,,,,,,Clear,72000.0,,,,,,,,,
KRDR,09-01-2014,06:58,METAR,Normal,330,6.0,,,9999.0,,13.6,13.5,29.67,1005.1,,,,,,,,,,,,,,,Clear,72000.0,,,,,,,,,
KRDR,09-01-2014,05:58,METAR,Normal,320,5.0,,,9999.0,,12.4,12.2,29.67,1005.2,,,,,,,,,,,,,,,Clear,72000.0,,,,,,,,,
KRDR,09-01-2014,04:58,METAR,Normal,310,2.0,,,9999.0,,13.8,13.6,29.66,1004.9,,,,,,,,,,,,,,,Clear,72000.0,,,,,,,,,
KRDR,09-01-2014,03:58,METAR,Normal,330,5.0,,,9999.0,,14.7,14.5,29.64,1004.1,,,,,,,,,,,,,,,Clear,72000.0,,,,,,,,,
KRDR,09-01-2014,02:58,METAR,Normal,310,6.0,,,9999.0,,16.7,14.0,29.62,1003.4,,,,,,,,,,,,,,,Clear,72000.0,,,,,,,,,
KRDR,09-01-2014,01:58,METAR,Normal,320,7.0,,,9999.0,,18.1,14.2,29.61,1003.0,,,,,,,,,,,,,,,Clear,72000.0,,,,,,,,,
KRDR,09-01-2014,00:58,METAR,Normal,310,6.0,,,9999.0,,19.1,15.7,29.61,1003.0,,,,,,,,,,,,,,,Clear,72000.0,,,,,,,,,
KRDR,08-31-2014,23:58,METAR,Normal,280,5.0,,,9999.0,,22.0,17.0,29.62,1003.3,,,,,,,,,,,,,,,Clear,72000.0,,,,,,,,,
KRDR,08-31-2014,22:58,METAR,Normal,300,7.0,,,9999.0,,22.2,16.2,29.62,1003.3,,,,,,,,,,,,,,,Clear,72000.0,,,,,,,,,
KRDR,08-31-2014,21:58,METAR,Normal,300,11.0,,,9999.0,,22.6,17.6,29.60,1002.6,,,,,,,,,,,,,,,2/8 Mostly Clear,72000.0,3700.0,FEW,3700.0,,,,,,
KRDR,08-31-2014,20:58,METAR,Normal,310,12.0,20.0,,9999.0,,22.6,17.2,29.58,1002.0,,,,,,,,,,,,,,,4/8 Partly Cloudy,72000.0,2700.0,FEW,2700.0,SCT,3200.0,SCT,4200.0,,
KRDR,08-31-2014,20:23,SPECI,Normal,280,10.0,,,9999.0,,22.0,19.0,29.57,,,,,,,,,,,,,,,,,2600.0,2500.0,SCT,2500.0,BKN,3400.0,,,,
KRDR,08-31-2014,19:58,METAR,Normal,300,9.0,,,9999.0,,21.1,17.9,29.57,1001.7,,,,,,,,,,,,,,,,2800.0,2300.0,SCT,2300.0,BKN,2800.0,,,,
KRDR,08-31-2014,18:58,METAR,Normal,290,12.0,,,9999.0,,21.0,19.2,29.56,1001.3,,,,,,,,,,,,,,,,1800.0,1800.0,BKN,1800.0,OVC,2600.0,,,,
KRDR,08-31-2014,18:33,SPECI,Normal,300,9.0,,,9999.0,,21.0,20.0,29.54,,,,,,,,,,,,,,,,,1500.0,1500.0,OVC,1500.0,,,,,,
KRDR,08-31-2014,18:23,SPECI,Normal,310,11.0,,,9999.0,,20.0,20.0,29.54,,,,,,,,,,,,,,,,,1400.0,1000.0,FEW,1000.0,OVC,1400.0,,,,
KRDR,08-31-2014,18:03,SPECI,Normal,310,13.0,,,9999.0,,20.0,19.0,29.55,,,,,,,,,,,,,,,,,900.0,1000.0,SCT,1000.0,BKN,1500.0,OVC,6500.0,,
KRDR,08-31-2014,17:58,METAR,Normal,290,11.0,,,9999.0,,19.4,,29.55,1001.1,,,,,,,,,,,TRACE,,.04 IN,,,900.0,900.0,SCT,900.0,BKN,6500.0,,,,
KRDR,08-31-2014,17:44,SPECI,Normal,290,9.0,,,9999.0,,19.0,19.0,29.55,,,,,,,,,,,,,,,,,1600.0,800.0,SCT,800.0,SCT,1800.0,BKN,6000.0,,
KRDR,08-31-2014,17:39,SPECI,Normal,280,8.0,,,9999.0,,19.0,19.0,29.55,,,,,,,,,,,,,,,,,700.0,800.0,SCT,800.0,BKN,2300.0,OVC,6000.0,,
KRDR,08-31-2014,17:29,SPECI,Normal,270,6.0,,,9999.0,Light Drizzle,18.0,18.0,29.55,,51,,,,,,,,,,,,,,,700.0,700.0,BKN,700.0,BKN,1100.0,OVC,2200.0,,
KRDR,08-31-2014,17:27,SPECI,Normal,280,7.0,,,9999.0,,18.0,18.0,29.55,,,,,,,,,,,,,,,,,800.0,800.0,BKN,800.0,BKN,1400.0,OVC,2200.0,,
KRDR,08-31-2014,17:17,SPECI,Normal,270,8.0,,,9999.0,Light Drizzle,18.0,18.0,29.56,,51,,,,,,,,,,,,,,,700.0,700.0,BKN,700.0,OVC,1400.0,,,,
KRDR,08-31-2014,17:03,SPECI,Normal,250,6.0,,,9999.0,,18.0,18.0,29.56,,,,,,,,,,,,,,,,,700.0,700.0,OVC,700.0,,,,,,
KRDR,08-31-2014,16:58,METAR,Normal,250,5.0,,,9999.0,,18.1,18.1,29.56,1001.5,,,,,,,,,,,.02 IN,,,,,600.0,600.0,OVC,600.0,,,,,,
KRDR,08-31-2014,16:55,SPECI,Normal,250,6.0,,,9999.0,,18.0,18.0,29.56,,,,,,,,,,,,,,,,,600.0,600.0,OVC,600.0,,,,,,
KRDR,08-31-2014,16:44,SPECI,Normal,260,4.0,,,6400.0,Light Rain/Mist,18.0,18.0,29.55,,61,10,,,,,,,,,,,,,,600.0,600.0,OVC,600.0,,,,,,
KRDR,08-31-2014,16:39,SPECI,Normal,260,3.0,,,6400.0,Light Rain/Mist,18.0,18.0,29.55,,61,10,,,,,,,,,,,,,,500.0,500.0,OVC,500.0,,,,,,
KRDR,08-31-2014,16:38,SPECI,Normal,260,3.0,,,6400.0,Mist,18.0,18.0,29.55,,10,,,,,,,,,,,,,,,500.0,500.0,OVC,500.0,,,,,,
KRDR,08-31-2014,16:33,SPECI,Normal,260,3.0,,,4800.0,Mist,18.0,18.0,29.55,,10,,,,,,,,,,,,,,,600.0,600.0,OVC,600.0,,,,,,
KRDR,08-31-2014,16:28,SPECI,Normal,240,2.0,,,3200.0,Mist,18.0,18.0,29.55,,10,,,,,,,,,,,,,,,600.0,600.0,OVC,600.0,,,,,,
KRDR,08-31-2014,16:23,SPECI,Normal,230,3.0,,,3200.0,Mist,18.0,18.0,29.56,,10,,,,,,,,,,,,,,,500.0,500.0,OVC,500.0,,,,,,
KRDR,08-31-2014,16:18,SPECI,Normal,230,3.0,,,3200.0,Mist,18.0,18.0,29.56,,10,,,,,,,,,,,,,,,600.0,600.0,OVC,600.0,,,,,,
KRDR,08-31-2014,16:08,SPECI,Normal,210,3.0,,,3200.0,Mist,18.0,18.0,29.56,,10,,,,,,,,,,,,,,,500.0,500.0,OVC,500.0,,,,,,
KRDR,08-31-2014,15:58,METAR,Normal,210,3.0,,,2800.0,Mist,17.6,17.6,29.56,1001.4,10,,,,,,,,,,.01 IN,,,,,500.0,500.0,OVC,500.0,,,,,,
KRDR,08-31-2014,15:45,SPECI,Normal,200,3.0,,,4000.0,Mist,18.0,18.0,29.56,,10,,,,,,,,,,,,,,,500.0,500.0,OVC,500.0,,,,,,
KRDR,08-31-2014,15:40,SPECI,Normal,180,1.0,,,3200.0,Mist,17.0,17.0,29.56,,10,,,,,,,,,,,,,,,600.0,600.0,OVC,600.0,,,,,,
KRDR,08-31-2014,15:15,SPECI,Normal,180,3.0,,,2800.0,Mist,17.0,17.0,29.57,,10,,,,,,,,,,,,,,,500.0,900.0,OVC,900.0,,,,,,
KRDR,08-31-2014,15:10,SPECI,Normal,180,3.0,,,3200.0,Mist,17.0,17.0,29.57,,10,,,,,,,,,,,,,,,600.0,700.0,FEW,700.0,OVC,1100.0,,,,
KRDR,08-31-2014,15:05,SPECI,Normal,180,3.0,,,4000.0,Mist,17.0,17.0,29.57,,10,,,,,,,,,,,,,,,600.0,800.0,FEW,800.0,OVC,1200.0,,,,
KRDR,08-31-2014,14:58,METAR,Normal,170,3.0,,,4800.0,Mist,17.4,17.4,29.57,1001.7,10,,,,,,,,,,.01 IN,.01 IN,,,,600.0,1400.0,OVC,1400.0,,,,,,
KRDR,08-31-2014,14:54,SPECI,Normal,150,2.0,,,4000.0,Mist,17.0,17.0,29.57,,10,,,,,,,,,,,,,,,600.0,1500.0,OVC,1500.0,,,,,,
KRDR,08-31-2014,14:14,SPECI,Normal,120,2.0,,,9999.0,Mist,18.0,18.0,29.58,,10,,,,,,,,,,,,,,,2800.0,1100.0,FEW,1100.0,BKN,2800.0,OVC,3400.0,,
KRDR,08-31-2014,14:13,SPECI,Normal,120,2.0,,,9999.0,,18.0,18.0,29.58,,,,,,,,,,,,,,,,,2800.0,1200.0,FEW,1200.0,BKN,2800.0,OVC,3400.0,,
KRDR,08-31-2014,13:58,METAR,Normal,170,3.0,,,9999.0,,17.5,17.5,29.59,1002.4,,,,,,,,,,,,,,,,1100.0,1200.0,FEW,1200.0,OVC,3600.0,,,,
KRDR,08-31-2014,13:03,SPECI,Normal,190,4.0,,,9999.0,,17.0,17.0,29.59,,,,,,,,,,,,,,,,,600.0,600.0,SCT,600.0,OVC,6500.0,,,,
KRDR,08-31-2014,12:58,METAR,Normal,170,6.0,,,9999.0,,16.7,16.7,29.58,1002.0,,,,,,,,,,,,,,,,700.0,700.0,BKN,700.0,OVC,7000.0,,,,
KRDR,08-31-2014,11:58,METAR,Normal,170,10.0,,,9999.0,,16.4,,29.62,1003.3,,,,,,,,,,,TRACE,,.07 IN,.07 IN,,700.0,700.0,OVC,700.0,,,,,,
KRDR,08-31-2014,11:15,SPECI,Normal,190,6.0,,,9999.0,,16.0,16.0,29.65,,,,,,,,,,,,,,,,,700.0,700.0,OVC,700.0,,,,,,
KRDR,08-31-2014,11:05,SPECI,Normal,190,7.0,,,9999.0,,16.0,16.0,29.64,,,,,,,,,,,,,,,,,600.0,600.0,OVC,600.0,,,,,,
KRDR,08-31-2014,11:00,SPECI,Normal,190,9.0,,,9999.0,,16.0,16.0,29.64,,,,,,,,,,,,,,,,,500.0,500.0,OVC,500.0,,,,,,
KRDR,08-31-2014,10:58,METAR,Normal,190,9.0,,,9999.0,Light Drizzle,15.7,,29.65,1004.3,51,,,,,,,,,,.02 IN,,,,,500.0,500.0,OVC,500.0,,,,,,
KRDR,08-31-2014,10:45,SPECI,Normal,190,8.0,,,9999.0,Light Rain,16.0,16.0,29.64,,61,,,,,,,,,,,,,,,500.0,500.0,OVC,500.0,,,,,,
KRDR,08-31-2014,10:40,SPECI,Normal,180,8.0,,,9999.0,Light Rain,16.0,16.0,29.64,,61,,,,,,,,,,,,,,,500.0,500.0,OVC,500.0,,,,,,
KRDR,08-31-2014,10:35,SPECI,Normal,160,10.0,,,9999.0,Light Rain,16.0,16.0,29.63,,61,,,,,,,,,,,,,,,500.0,500.0,OVC,500.0,,,,,,
KRDR,08-31-2014,10:30,SPECI,Normal,170,10.0,,,9999.0,Light Drizzle,16.0,16.0,29.64,,51,,,,,,,,,,,,,,,400.0,400.0,OVC,400.0,,,,,,
KRDR,08-31-2014,10:19,SPECI,Normal,140,11.0,,,9999.0,,15.0,15.0,29.64,,,,,,,,,,,,,,,,,400.0,400.0,OVC,400.0,,,,,,
KRDR,08-31-2014,10:18,SPECI,Normal,140,11.0,,,9999.0,Light Drizzle,15.0,15.0,29.63,,51,,,,,,,,,,,,,,,400.0,400.0,OVC,400.0,,,,,,
KRDR,08-31-2014,10:13,SPECI,Normal,120,12.0,,,9999.0,Light Rain/Mist,15.0,15.0,29.63,,61,10,,,,,,,,,,,,,,300.0,300.0,OVC,300.0,,,,,,
KRDR,08-31-2014,10:08,SPECI,Normal,110,11.0,,,8000.0,Light Rain/Mist,15.0,15.0,29.62,,61,10,,,,,,,,,,,,,,300.0,300.0,BKN,300.0,OVC,800.0,,,,
KRDR,08-31-2014,10:03,SPECI,Normal,110,14.0,,,8000.0,Light Rain/Mist,15.0,15.0,29.62,,61,10,,,,,,,,,,,,,,800.0,300.0,SCT,300.0,BKN,800.0,OVC,1400.0,,
KRDR,08-31-2014,09:58,METAR,Normal,120,14.0,,,8000.0,Light Rain/Mist,15.0,15.0,29.64,1004.0,61,10,,,,,,,,,.05 IN,,,,,900.0,500.0,SCT,500.0,BKN,900.0,OVC,1400.0,,
KRDR,08-31-2014,09:53,SPECI,Normal,120,10.0,,,9999.0,Light Rain/Mist,15.0,15.0,29.67,,61,10,,,,,,,,,,,,,,1400.0,700.0,SCT,700.0,OVC,1400.0,,,,
KRDR,08-31-2014,09:38,SPECI,Normal,140,7.0,,,9999.0,Light Rain,15.0,15.0,29.70,,61,,,,,,,,,,,,,,,800.0,800.0,FEW,800.0,BKN,2100.0,,,,
KRDR,08-31-2014,09:28,SPECI,Normal,150,6.0,,,9999.0,Light Rain,15.0,15.0,29.70,,61,,,,,,,,,,,,,,2/8 Mostly Clear,72000.0,800.0,FEW,800.0,,,,,,
KRDR,08-31-2014,09:18,SPECI,Normal,130,5.0,,,9999.0,Light Rain,15.0,15.0,29.69,,61,,,,,,,,,,,,,,4/8 Partly Cloudy,72000.0,900.0,SCT,900.0,SCT,1400.0,SCT,11000.0,,
KRDR,08-31-2014,09:13,SPECI,Normal,130,7.0,,,9999.0,,15.0,15.0,29.70,,,,,,,,,,,,,,,,4/8 Partly Cloudy,72000.0,800.0,SCT,800.0,SCT,1500.0,,,,
KRDR,08-31-2014,09:08,SPECI,Normal,130,5.0,,,9999.0,,15.0,15.0,29.71,,,,,,,,,,,,,,,,,800.0,800.0,SCT,800.0,BKN,1500.0,,,,
KRDR,08-31-2014,09:03,SPECI,Normal,110,3.0,,,9999.0,,15.0,15.0,29.72,,,,,,,,,,,,,,,,,900.0,900.0,BKN,900.0,BKN,1500.0,,,,
KRDR,08-31-2014,08:58,METAR,Normal,170,2.0,,,9999.0,,14.1,14.1,29.73,1007.1,,,,,,,,,,,,,,,,900.0,900.0,BKN,900.0,BKN,1700.0,,,,
KRDR,08-31-2014,08:55,SPECI,Normal,200,3.0,,,9999.0,,14.0,14.0,29.74,,,,,,,,,,,,,,,,,900.0,900.0,BKN,900.0,BKN,1700.0,,,,
KRDR,08-31-2014,08:40,SPECI,Calm,,0.0,,,9999.0,,14.0,14.0,29.74,,,,,,,,,,,,,,,,2/8 Mostly Clear,72000.0,600.0,FEW,600.0,,,,,,
KRDR,08-31-2014,08:38,SPECI,Calm,,0.0,,,9999.0,,14.0,14.0,29.74,,,,,,,,,,,,,,,,Clear,72000.0,,,,,,,,,
KRDR,08-31-2014,07:58,METAR,Normal,140,5.0,,,9999.0,,14.6,14.6,29.73,1007.1,,,,,,,,,,,,,,,Clear,72000.0,,,,,,,,,
KRDR,08-31-2014,06:58,METAR,Normal,160,5.0,,,9999.0,,14.6,14.6,29.75,1007.8,,,,,,,,,,,,,,,Clear,72000.0,,,,,,,,,
KRDR,08-31-2014,06:03,SPECI,Normal,160,6.0,,,9999.0,,15.0,15.0,29.77,,,,,,,,,,,,,,,,4/8 Partly Cloudy,72000.0,1600.0,SCT,1600.0,,,,,,
KRDR,08-31-2014,05:58,METAR,Normal,150,5.0,,,9999.0,,14.8,14.8,29.77,1008.6,,,,,,,,,,,,,,,,1600.0,1600.0,BKN,1600.0,,,,,,
KRDR,08-31-2014,05:38,SPECI,Normal,170,5.0,,,9999.0,,14.0,14.0,29.78,,,,,,,,,,,,,,,,,1600.0,1600.0,BKN,1600.0,,,,,,
KRDR,08-31-2014,04:58,METAR,Normal,200,4.0,,,9999.0,,14.2,14.0,29.79,1009.3,,,,,,,,,,,,,,,2/8 Mostly Clear,72000.0,1500.0,FEW,1500.0,,,,,,
KRDR,08-31-2014,03:58,METAR,Normal,170,7.0,,,9999.0,,15.3,15.2,29.76,1008.3,,,,,,,,,,,,,,,Clear,72000.0,,,,,,,,,
KRDR,08-31-2014,02:58,METAR,Normal,180,8.0,,,9999.0,,16.6,16.2,29.78,1009.0,,,,,,,,,,,,,,,2/8 Mostly Clear,72000.0,4300.0,FEW,4300.0,,,,,,
KRDR,08-31-2014,01:58,METAR,Normal,150,7.0,,,9999.0,,18.2,13.7,29.79,1009.4,,,,,,,,,,,,,,,2/8 Mostly Clear,72000.0,4300.0,FEW,4300.0,,,,,,
KRDR,08-31-2014,00:58,METAR,Normal,170,4.0,,,9999.0,,19.2,13.5,29.80,1009.7,,,,,,,,,,,,,,,Clear,72000.0,,,,,,,,,
KRDR,08-30-2014,23:58,METAR,Normal,160,8.0,,,9999.0,,21.5,12.2,29.81,1010.0,,,,,,,,,,,,,,,Clear,72000.0,,,,,,,,,
KRDR,08-30-2014,22:58,METAR,Normal,140,5.0,,,9999.0,,21.9,11.2,29.82,1010.3,,,,,,,,,,,,,,,Clear,72000.0,,,,,,,,,
KRDR,08-30-2014,21:58,METAR,Normal,130,5.0,,,9999.0,,22.0,10.1,29.84,1011.0,,,,,,,,,,,,,,,Clear,72000.0,,,,,,,,,
KRDR,08-30-2014,20:58,METAR,Normal,130,4.0,,,9999.0,,21.9,11.0,29.85,1011.3,,,,,,,,,,,,,,,Clear,72000.0,,,,,,,,,
KRDR,08-30-2014,19:58,METAR,Calm,,0.0,,,9999.0,,21.3,11.2,29.87,1012.0,,,,,,,,,,,,,,,Clear,72000.0,,,,,,,,,
KRDR,08-30-2014,18:58,METAR,Variable,,1.0,,,9999.0,,20.3,10.4,29.90,1013.1,,,,,,,,,,,,,,,Clear,72000.0,,,,,,,,,
KRDR,08-30-2014,17:58,METAR,Variable,,3.0,,,9999.0,,19.4,12.3,29.91,1013.4,,,,,,,,,,,,,,,Clear,72000.0,,,,,,,,,
KRDR,08-30-2014,16:58,METAR,Normal,140,3.0,,,9999.0,,18.2,13.4,29.93,1014.1,,,,,,,,,,,,,,,Clear,72000.0,,,,,,,,,
KRDR,08-30-2014,15:58,METAR,Variable,,2.0,,,9999.0,,16.7,13.3,29.94,1014.4,,,,,,,,,,,,,,,Clear,72000.0,,,,,,,,,
KRDR,08-30-2014,14:58,METAR,Normal,30,4.0,,,9999.0,,14.4,12.7,29.95,1014.8,,,,,,,,,,,,,,,Clear,72000.0,,,,,,,,,
KRDR,08-30-2014,13:58,METAR,Normal,30,6.0,,,9999.0,,12.3,12.1,29.95,1014.9,,,,,,,,,,,,,,,Clear,72000.0,,,,,,,,,
KRDR,08-30-2014,12:58,METAR,Normal,10,6.0,,,9999.0,,10.3,10.1,29.97,1015.6,,,,,,,,,,,,,,,Clear,72000.0,,,,,,,,,
KRDR,08-30-2014,11:58,METAR,Normal,360,5.0,,,9999.0,,8.7,8.6,29.96,1015.3,,,,,,,,,,,,,,,Clear,72000.0,,,,,,,,,
KRDR,08-30-2014,10:58,METAR,Normal,360,5.0,,,9999.0,,9.2,9.1,29.96,1015.3,,,,,,,,,,,,,,,Clear,72000.0,,,,,,,,,
KRDR,08-30-2014,09:58,METAR,Normal,340,7.0,,,9999.0,,10.1,10.0,29.95,1014.9,,,,,,,,,,,,,,,Clear,72000.0,,,,,,,,,
KRDR,08-30-2014,08:58,METAR,Normal,350,6.0,,,9999.0,,10.6,10.5,29.95,1014.8,,,,,,,,,,,,,,,Clear,72000.0,,,,,,,,,
KRDR,08-30-2014,07:58,METAR,Normal,350,6.0,,,9999.0,,10.7,10.6,29.94,1014.4,,,,,,,,,,,,,,,Clear,72000.0,,,,,,,,,
KRDR,08-30-2014,06:58,METAR,Normal,10,4.0,,,9999.0,,11.4,11.2,29.94,1014.4,,,,,,,,,,,,,,,Clear,72000.0,,,,,,,,,
KRDR,08-30-2014,05:58,METAR,Normal,10,6.0,,,9999.0,,13.1,12.9,29.93,1014.0,,,,,,,,,,,,,,,Clear,72000.0,,,,,,,,,
KRDR,08-30-2014,04:58,METAR,Normal,10,9.0,,,9999.0,,14.1,14.0,29.93,1014.0,,,,,,,,,,,,,,,2/8 Mostly Clear,72000.0,2200.0,FEW,2200.0,,,,,,
KRDR,08-30-2014,03:58,METAR,Variable,10,10.0,,,9999.0,,15.4,14.9,29.93,1013.9,,,,,,,,,,,,,,,,4900.0,4900.0,BKN,4900.0,BKN,6000.0,OVC,8600.0,,
KRDR,08-30-2014,02:58,METAR,Normal,10,10.0,,,9999.0,,16.2,14.7,29.92,1013.6,,,,,,,,,,,,,,,,4500.0,4500.0,OVC,4500.0,,,,,,
KRDR,08-30-2014,02:01,SPECI,Variable,360,12.0,,,9999.0,,16.0,16.0,29.90,,,,,,,,,,,,,,,,,3800.0,1100.0,FEW,1100.0,OVC,3800.0,,,,
KRDR,08-30-2014,01:58,METAR,Normal,360,11.0,,,9999.0,,16.3,16.1,29.90,1012.9,,,,,,,,,,,,,,,,3800.0,3800.0,OVC,3800.0,,,,,,
KRDR,08-30-2014,00:58,METAR,Normal,10,11.0,,,9999.0,,16.0,13.8,29.88,1012.2,,,,,,,,,,,,,,,,3500.0,3500.0,OVC,3500.0,,,,,,
KRDR,08-30-2014,00:18,SPECI,Normal,20,16.0,22.0,,9999.0,,16.0,14.0,29.86,,,,,,,,,,,,,,,,,3400.0,1300.0,FEW,1300.0,SCT,2600.0,OVC,3400.0,,
KRDR,08-30-2014,00:03,SPECI,Normal,10,11.0,19.0,,9999.0,,16.0,15.0,29.86,,,,,,,,,,,,,,,,,1200.0,1300.0,SCT,1300.0,OVC,2500.0,,,,
KRDR,08-29-2014,23:58,METAR,Normal,10,15.0,19.0,,9999.0,,16.2,15.9,29.86,1011.6,,,,,,,,,,,TRACE,,TRACE,,,1200.0,1300.0,BKN,1300.0,OVC,2500.0,,,,
KRDR,08-29-2014,23:50,SPECI,Normal,10,15.0,18.0,,9999.0,,16.0,16.0,29.85,,,,,,,,,,,,,,,,,1200.0,1200.0,BKN,1200.0,OVC,2500.0,,,,
KRDR,08-29-2014,23:40,SPECI,Normal,10,16.0,19.0,,9999.0,,17.0,16.0,29.85,,,,,,,,,,,,,,,,,1200.0,1300.0,SCT,1300.0,OVC,2300.0,,,,
KRDR,08-29-2014,23:15,SPECI,Normal,10,16.0,20.0,,9999.0,,17.0,17.0,29.84,,,,,,,,,,,,,,,,,2200.0,1400.0,FEW,1400.0,OVC,2200.0,,,,
KRDR,08-29-2014,22:58,METAR,Normal,20,14.0,23.0,360/30KTS,9999.0,Light Rain,17.1,15.7,29.83,1010.5,61,,,,,,,,,,TRACE,,,,,2100.0,2100.0,OVC,2100.0,,,,,,
KRDR,08-29-2014,22:42,SPECI,Normal,20,21.0,27.0,,9999.0,Light Drizzle,18.0,15.0,29.82,,51,,,,,,,,,,,,,,,1800.0,1800.0,OVC,1800.0,,,,,,
KRDR,08-29-2014,22:18,SPECI,Normal,20,21.0,27.0,,9999.0,,18.0,15.0,29.81,,,,,,,,,,,,,,,,,1500.0,1500.0,OVC,1500.0,,,,,,
KRDR,08-29-2014,21:58,METAR,Normal,20,17.0,27.0,350/29KTS,9999.0,,17.6,15.8,29.81,1009.8,,,,,,,,,,,,,,,,1300.0,800.0,FEW,800.0,OVC,1300.0,,,,
KRDR,08-29-2014,21:48,SPECI,Normal,20,19.0,25.0,,9999.0,,18.0,16.0,29.81,,,,,,,,,,,,,,,,,1100.0,1100.0,OVC,1100.0,,,,,,
KRDR,08-29-2014,21:33,SPECI,Normal,360,17.0,21.0,,9999.0,,18.0,18.0,29.81,,,,,,,,,,,,,,,,,900.0,900.0,OVC,900.0,,,,,,
KRDR,08-29-2014,20:58,METAR,Normal,10,16.0,22.0,360/26KTS,9999.0,,19.3,18.9,29.79,1009.1,,,,,,,,,,,,,,,,1000.0,1000.0,OVC,1000.0,,,,,,
KRDR,08-29-2014,20:57,SPECI,Normal,10,15.0,22.0,,9999.0,,19.0,19.0,29.79,,,,,,,,,,,,,,,,,1000.0,1000.0,OVC,1000.0,,,,,,
KRDR,08-29-2014,20:52,SPECI,Normal,10,14.0,23.0,,9999.0,,19.0,19.0,29.79,,,,,,,,,,,,,,,,,900.0,900.0,BKN,900.0,OVC,1500.0,,,,
KRDR,08-29-2014,20:47,SPECI,Normal,10,17.0,24.0,,9999.0,,19.0,19.0,29.79,,,,,,,,,,,,,,,,,1000.0,1000.0,BKN,1000.0,OVC,1600.0,,,,
KRDR,08-29-2014,20:42,SPECI,Variable,10,18.0,24.0,,9999.0,,20.0,19.0,29.78,,,,,,,,,,,,,,,,,1200.0,1000.0,SCT,1000.0,OVC,1600.0,,,,
KRDR,08-29-2014,20:33,SPECI,Normal,360,15.0,26.0,,9999.0,,21.0,20.0,29.78,,,,,,,,,,,,,,,,,1400.0,1400.0,BKN,1400.0,BKN,2000.0,OVC,4900.0,,
KRDR,08-29-2014,19:58,METAR,Normal,30,3.0,,,9999.0,,21.5,20.7,29.77,1008.3,,,,,,,,,,,,,,,,3500.0,1000.0,FEW,1000.0,OVC,3500.0,,,,
KRDR,08-29-2014,19:38,SPECI,Calm,,0.0,,,9999.0,,21.0,21.0,29.77,,,,,,,,,,,,,,,,,3400.0,1100.0,SCT,1100.0,OVC,3400.0,,,,
KRDR,08-29-2014,19:23,SPECI,Variable,,2.0,,,9999.0,,21.0,21.0,29.77,,,,,,,,,,,,,,,,,1100.0,1100.0,BKN,1100.0,BKN,3700.0,OVC,4400.0,,
KRDR,08-29-2014,18:58,METAR,Normal,30,1.0,,,9999.0,,21.0,20.8,29.77,1008.3,,,,,,,,,,,,,,,,4100.0,800.0,FEW,800.0,SCT,2700.0,OVC,4100.0,,
KRDR,08-29-2014,18:53,SPECI,Normal,90,3.0,,,9999.0,,21.0,21.0,29.77,,,,,,,,,,,,,,,,,3700.0,900.0,SCT,900.0,SCT,2700.0,OVC,3700.0,,
KRDR,08-29-2014,18:48,SPECI,Calm,,0.0,,,9999.0,,21.0,21.0,29.77,,,,,,,,,,,,,,,,,900.0,900.0,SCT,900.0,BKN,2800.0,OVC,3500.0,,
KRDR,08-29-2014,18:28,SPECI,Calm,,0.0,,,9999.0,,20.0,20.0,29.77,,,,,,,,,,,,,,,,,900.0,900.0,BKN,900.0,OVC,1500.0,,,,
KRDR,08-29-2014,18:23,SPECI,Normal,220,1.0,,,9999.0,,20.0,20.0,29.77,,,,,,,,,,,,,,,,,700.0,700.0,SCT,700.0,BKN,1200.0,OVC,1700.0,,
KRDR,08-29-2014,18:13,SPECI,Normal,230,2.0,,,9999.0,,20.0,20.0,29.77,,,,,,,,,,,,,,,,,600.0,900.0,OVC,900.0,,,,,,
KRDR,08-29-2014,17:58,METAR,Normal,170,3.0,,,9999.0,,20.0,20.0,29.77,1008.4,,,,,,,,,,,TRACE,,TRACE,,,500.0,600.0,OVC,600.0,,,,,,
KRDR,08-29-2014,17:23,SPECI,Normal,180,4.0,,,4800.0,Mist,20.0,20.0,29.77,,10,,,,,,,,,,,,,,,500.0,500.0,OVC,500.0,,,,,,
KRDR,08-29-2014,17:18,SPECI,Normal,200,3.0,,,4800.0,Mist,20.0,20.0,29.78,,10,,,,,,,,,,,,,,,600.0,600.0,OVC,600.0,,,,,,
KRDR,08-29-2014,17:15,SPECI,Normal,200,1.0,,,4800.0,Light Drizzle/Mist,19.0,19.0,29.78,,51,10,,,,,,,,,,,,,,600.0,600.0,OVC,600.0,,,,,,
KRDR,08-29-2014,17:05,SPECI,Normal,130,1.0,,,3200.0,Light Drizzle/Mist,19.0,19.0,29.78,,51,10,,,,,,,,,,,,,,600.0,600.0,BKN,600.0,OVC,1000.0,,,,
KRDR,08-29-2014,17:00,SPECI,Normal,140,1.0,,,6400.0,Light Drizzle/Mist,20.0,20.0,29.78,,51,10,,,,,,,,,,,,,,700.0,700.0,BKN,700.0,OVC,1100.0,,,,
KRDR,08-29-2014,16:58,METAR,Variable,,2.0,,,9999.0,,19.6,19.5,29.78,1008.7,,,,,,,,,,,,,,,,700.0,900.0,OVC,900.0,,,,,,
KRDR,08-29-2014,16:43,SPECI,Normal,140,3.0,,,9999.0,,20.0,20.0,29.77,,,,,,,,,,,,,,,,,600.0,900.0,OVC,900.0,,,,,,
KRDR,08-29-2014,16:33,SPECI,Normal,120,2.0,,,9999.0,,19.0,19.0,29.77,,,,,,,,,,,,,,,,,700.0,700.0,BKN,700.0,OVC,1100.0,,,,
KRDR,08-29-2014,16:18,SPECI,Normal,130,2.0,,,9999.0,,19.0,19.0,29.77,,,,,,,,,,,,,,,,,600.0,600.0,OVC,600.0,,,,,,
KRDR,08-29-2014,15:58,METAR,Normal,170,6.0,,,9999.0,,19.5,19.5,29.77,1008.4,,,,,,,,,,,,,,,,700.0,700.0,OVC,700.0,,,,,,
KRDR,08-29-2014,15:53,SPECI,Normal,170,5.0,,,9999.0,,19.0,19.0,29.77,,,,,,,,,,,,,,,,,700.0,700.0,OVC,700.0,,,,,,
KRDR,08-29-2014,15:43,SPECI,Normal,150,3.0,,,9999.0,,19.0,19.0,29.76,,,,,,,,,,,,,,,,,500.0,600.0,BKN,600.0,OVC,1100.0,,,,
KRDR,08-29-2014,15:38,SPECI,Normal,160,4.0,,,9999.0,,19.0,19.0,29.77,,,,,,,,,,,,,,,,,500.0,500.0,OVC,500.0,,,,,,
KRDR,08-29-2014,15:13,SPECI,Normal,160,5.0,,,9999.0,,19.0,19.0,29.76,,,,,,,,,,,,,,,,,600.0,600.0,BKN,600.0,OVC,1000.0,,,,
KRDR,08-29-2014,14:58,METAR,Normal,190,3.0,,,9999.0,Mist,18.9,18.9,29.77,1008.4,10,,,,,,,,,,,,,,,500.0,500.0,OVC,500.0,,,,,,
KRDR,08-29-2014,14:53,SPECI,Normal,200,4.0,,,9999.0,,19.0,19.0,29.77,,,,,,,,,,,,,,,,,600.0,600.0,OVC,600.0,,,,,,
KRDR,08-29-2014,14:48,SPECI,Normal,180,5.0,,,9999.0,,19.0,19.0,29.76,,,,,,,,,,,,,,,,,500.0,500.0,OVC,500.0,,,,,,
KRDR,08-29-2014,14:38,SPECI,Normal,180,5.0,,,9999.0,,19.0,19.0,29.76,,,,,,,,,,,,,,,,,600.0,600.0,OVC,600.0,,,,,,
KRDR,08-29-2014,14:33,SPECI,Normal,180,4.0,,,9999.0,,19.0,19.0,29.76,,,,,,,,,,,,,,,,,500.0,500.0,OVC,500.0,,,,,,
KRDR,08-29-2014,14:23,SPECI,Normal,180,5.0,,,9999.0,,19.0,19.0,29.76,,,,,,,,,,,,,,,,,600.0,600.0,OVC,600.0,,,,,,
KRDR,08-29-2014,13:58,METAR,Normal,200,4.0,,,9999.0,,18.6,18.6,29.76,1008.0,,,,,,,,,,,,,,,,700.0,700.0,OVC,700.0,,,,,,
KRDR,08-29-2014,12:58,METAR,Normal,190,2.0,,,9999.0,,18.7,18.7,29.77,1008.4,,,,,,,,,,,,,,,,700.0,700.0,OVC,700.0,,,,,,
KRDR,08-29-2014,11:58,METAR,Normal,210,4.0,,,9999.0,,18.5,18.5,29.77,1008.3,,,,,,,,,,,,,,,,800.0,800.0,OVC,800.0,,,,,,
KRDR,08-29-2014,10:58,METAR,Normal,250,4.0,,,9999.0,,18.6,18.6,29.78,1008.7,,,,,,,,,,,,,,,,700.0,700.0,OVC,700.0,,,,,,
KRDR,08-29-2014,10:48,SPECI,Normal,250,4.0,,,9999.0,,19.0,19.0,29.79,,,,,,,,,,,,,,,,,700.0,700.0,OVC,700.0,,,,,,
KRDR,08-29-2014,09:58,METAR,Normal,220,7.0,,,9999.0,,18.7,18.7,29.79,1009.0,,,,,,,,,,,,,,,,600.0,600.0,OVC,600.0,,,,,,
KRDR,08-29-2014,09:33,SPECI,Normal,220,7.0,,,9999.0,,19.0,19.0,29.79,,,,,,,,,,,,,,,,,600.0,600.0,OVC,600.0,,,,,,
KRDR,08-29-2014,08:58,METAR,Normal,210,8.0,,,9999.0,,18.8,,29.79,1009.0,,,,,,,,,,,,,,,,700.0,700.0,OVC,700.0,,,,,,
KRDR,08-29-2014,07:58,METAR,Normal,210,7.0,,,9999.0,,19.2,19.0,29.80,1009.3,,,,,,,,,,,,,,,,800.0,800.0,OVC,800.0,,,,,,
KRDR,08-29-2014,06:58,METAR,Normal,200,9.0,,,9999.0,,19.5,19.3,29.80,1009.3,,,,,,,,,,,,,,,,900.0,900.0,OVC,900.0,,,,,,
KRDR,08-29-2014,05:58,METAR,Normal,210,9.0,,,9999.0,,19.5,19.3,29.81,1009.6,,,,,,,,,,,,,,,,900.0,900.0,OVC,900.0,,,,,,
KRDR,08-29-2014,05:38,SPECI,Normal,210,9.0,,,9999.0,,20.0,19.0,29.82,,,,,,,,,,,,,,,,,900.0,900.0,OVC,900.0,,,,,,
KRDR,08-29-2014,04:58,METAR,Normal,210,9.0,,,9999.0,,19.7,19.6,29.84,1010.7,,,,,,,,,,,,,,,,1000.0,1000.0,OVC,1000.0,,,,,,
KRDR,08-29-2014,03:58,METAR,Normal,200,9.0,,,9999.0,,19.8,19.6,29.85,1011.0,,,,,,,,,,,,,,,,900.0,900.0,OVC,900.0,,,,,,
KRDR,08-29-2014,02:58,METAR,Normal,200,8.0,,,9999.0,,20.0,19.8,29.86,1011.4,,,,,,,,,,,,,,,,900.0,900.0,OVC,900.0,,,,,,
KRDR,08-29-2014,01:58,METAR,Normal,200,8.0,,,9999.0,,20.5,20.3,29.86,1011.4,,,,,,,,,,,,,,,,1100.0,1100.0,OVC,1100.0,,,,,,
KRDR,08-29-2014,01:43,SPECI,Normal,210,9.0,,,9999.0,,21.0,20.0,29.86,,,,,,,,,,,,,,,,,1100.0,1100.0,OVC,1100.0,,,,,,
KRDR,08-29-2014,00:58,METAR,Normal,200,10.0,,,9999.0,,20.9,20.4,29.86,1011.5,,,,,,,,,,,,,,,,1300.0,1300.0,OVC,1300.0,,,,,,
KRDR,08-29-2014,00:13,SPECI,Normal,200,9.0,,,9999.0,,21.0,21.0,29.86,,,,,,,,,,,,,,,,,1300.0,1300.0,BKN,1300.0,BKN,8600.0,,,,
KRDR,08-28-2014,23:58,METAR,Normal,190,12.0,,,9999.0,,21.7,20.6,29.86,1011.5,,,,,,,,,,,,,,,,1500.0,1400.0,SCT,1400.0,BKN,8600.0,,,,
KRDR,08-28-2014,23:33,SPECI,Normal,190,12.0,,,9999.0,,22.0,21.0,29.86,,,,,,,,,,,,,,,,,9000.0,1800.0,SCT,1800.0,BKN,9100.0,,,,
KRDR,08-28-2014,22:58,METAR,Normal,190,11.0,,,9999.0,,22.7,20.7,29.86,1011.4,,,,,,,,,,,,,,,,1800.0,1900.0,BKN,1900.0,,,,,,
KRDR,08-28-2014,22:53,SPECI,Normal,190,10.0,,,9999.0,,23.0,21.0,29.86,,,,,,,,,,,,,,,,,1800.0,1800.0,BKN,1800.0,BKN,2300.0,,,,
KRDR,08-28-2014,22:33,SPECI,Normal,200,11.0,,,9999.0,,23.0,21.0,29.87,,,,,,,,,,,,,,,,,3000.0,1800.0,FEW,1800.0,SCT,2400.0,BKN,3000.0,,
KRDR,08-28-2014,21:58,METAR,Normal,190,11.0,,,9999.0,,23.2,20.7,29.87,1011.8,,,,,,,,,,,,,,,,2100.0,2100.0,BKN,2100.0,OVC,2600.0,,,,
KRDR,08-28-2014,20:58,METAR,Normal,210,11.0,,,9999.0,,23.6,20.4,29.89,1012.5,,,,,,,,,,,,,,,,2200.0,2200.0,OVC,2200.0,,,,,,
KRDR,08-28-2014,20:13,SPECI,Normal,190,12.0,,,9999.0,,24.0,20.0,29.90,,,,,,,,,,,,,,,,,2000.0,2000.0,BKN,2000.0,,,,,,
KRDR,08-28-2014,19:58,METAR,Normal,170,14.0,,,9999.0,,24.1,20.6,29.90,1012.8,,,,,,,,,,,,,,,2/8 Mostly Clear,72000.0,1900.0,FEW,1900.0,,,,,,
KRDR,08-28-2014,19:18,SPECI,Normal,200,11.0,,,9999.0,,24.0,21.0,29.91,,,,,,,,,,,,,,,,,6000.0,2000.0,SCT,2000.0,BKN,6000.0,,,,
KRDR,08-28-2014,19:13,SPECI,Normal,200,12.0,,,9999.0,,24.0,21.0,29.91,,,,,,,,,,,,,,,,,2000.0,2000.0,BKN,2000.0,BKN,6000.0,,,,
KRDR,08-28-2014,18:58,METAR,Normal,200,11.0,,,9999.0,,23.3,20.4,29.92,1013.5,,,,,,,,,,,,,,,,6000.0,1900.0,SCT,1900.0,BKN,6000.0,,,,
KRDR,08-28-2014,18:56,SPECI,Normal,200,11.0,,,9999.0,,23.0,20.0,29.92,,,,,,,,,,,,,,,,,6000.0,1900.0,SCT,1900.0,BKN,6000.0,,,,
KRDR,08-28-2014,18:08,SPECI,Normal,200,9.0,,,9999.0,,24.0,21.0,29.93,,,,,,,,,,,,,,,,,4000.0,1800.0,SCT,1800.0,BKN,4000.0,,,,
KRDR,08-28-2014,17:58,METAR,Normal,200,10.0,,,9999.0,,23.7,20.7,29.93,1013.8,,,,,,,,,,,,,,,,4500.0,4500.0,BKN,4500.0,,,,,,
KRDR,08-28-2014,16:58,METAR,Normal,180,7.0,,,9999.0,,22.2,20.3,29.94,1014.2,,,,,,,,,,,,,,,4/8 Partly Cloudy,72000.0,6000.0,SCT,6000.0,,,,,,
KRDR,08-28-2014,15:58,METAR,Normal,200,11.0,,,9999.0,,21.5,19.6,29.95,1014.6,,,,,,,,,,,,,,,2/8 Mostly Clear,72000.0,7000.0,FEW,7000.0,,,,,,
KRDR,08-28-2014,14:58,METAR,Normal,190,10.0,,,9999.0,,19.8,19.2,29.96,1015.0,,,,,,,,,,,,,,,,5500.0,3200.0,SCT,3200.0,BKN,5500.0,,,,
KRDR,08-28-2014,13:58,METAR,Normal,190,11.0,,,9999.0,,18.5,18.4,29.96,1014.9,,,,,,,,,,,,,,,,3700.0,3700.0,BKN,3700.0,,,,,,
KRDR,08-28-2014,12:58,METAR,Normal,180,9.0,,,9999.0,,16.9,,29.97,1015.3,,,,,,,,,,,,,,,Clear,72000.0,,,,,,,,,
KRDR,08-28-2014,11:58,METAR,Normal,180,7.0,,,9999.0,,16.3,16.3,29.97,1015.3,,,,,,,,,,,,,,,,6500.0,6500.0,OVC,6500.0,,,,,,
KRDR,08-28-2014,10:58,METAR,Normal,170,5.0,,,9999.0,,15.7,15.7,29.98,1015.5,,,,,,,,,,,,,,,4/8 Partly Cloudy,72000.0,7500.0,SCT,7500.0,,,,,,
KRDR,08-28-2014,09:58,METAR,Normal,150,5.0,,,9999.0,,15.5,15.4,30.00,1016.3,,,,,,,,,,,,,,,,6000.0,6000.0,BKN,6000.0,,,,,,
KRDR,08-28-2014,08:58,METAR,Normal,170,4.0,,,9999.0,,16.1,15.9,30.00,1016.2,,,,,,,,,,,,,,,,8000.0,6500.0,FEW,6500.0,OVC,8000.0,,,,
KRDR,08-28-2014,07:58,METAR,Normal,180,5.0,,,9999.0,,15.4,15.2,30.01,1016.6,,,,,,,,,,,,,,,4/8 Partly Cloudy,72000.0,7000.0,SCT,7000.0,,,,,,
KRDR,08-28-2014,06:58,METAR,Normal,180,6.0,,,9999.0,,15.1,15.0,30.03,1017.3,,,,,,,,,,,,,,,Clear,72000.0,,,,,,,,,
KRDR,08-28-2014,05:58,METAR,Normal,180,7.0,,,9999.0,,15.4,15.3,30.04,1017.6,,,,,,,,,,,,,,,Clear,72000.0,,,,,,,,,
KRDR,08-28-2014,04:58,METAR,Normal,190,7.0,,,9999.0,,15.8,15.6,30.05,1018.0,,,,,,,,,,,,,,,Clear,72000.0,,,,,,,,,
KRDR,08-28-2014,03:58,METAR,Normal,190,5.0,,,9999.0,,15.5,15.4,30.07,1018.7,,,,,,,,,,,,,,,Clear,72000.0,,,,,,,,,
KRDR,08-28-2014,02:58,METAR,Normal,170,5.0,,,9999.0,,16.1,15.9,30.07,1018.8,,,,,,,,,,,,,,,Clear,72000.0,,,,,,,,,
KRDR,08-28-2014,01:58,METAR,Normal,170,6.0,,,9999.0,,17.8,16.0,30.07,1018.8,,,,,,,,,,,,,,,Clear,72000.0,,,,,,,,,
KRDR,08-28-2014,00:58,METAR,Normal,170,6.0,,,9999.0,,20.0,16.0,30.07,1018.8,,,,,,,,,,,,,,,Clear,72000.0,,,,,,,,,
KRDR,08-27-2014,23:58,METAR,Normal,200,9.0,,,9999.0,,22.0,15.0,30.08,1019.2,,,,,,,,,,,,,,,Clear,72000.0,,,,,,,,,
KRDR,08-27-2014,22:58,METAR,Normal,200,8.0,,,9999.0,,22.9,15.0,30.09,1019.5,,,,,,,,,,,,,,,Clear,72000.0,,,,,,,,,
KRDR,08-27-2014,21:58,METAR,Normal,210,7.0,,,9999.0,,23.2,14.6,30.11,1020.1,,,,,,,,,,,,,,,Clear,72000.0,,,,,,,,,
KRDR,08-27-2014,20:58,METAR,Normal,220,7.0,,,9999.0,,22.6,14.2,30.12,1020.5,,,,,,,,,,,,,,,2/8 Mostly Clear,72000.0,3900.0,FEW,3900.0,,,,,,
KRDR,08-27-2014,19:58,METAR,Normal,210,8.0,,,9999.0,,23.1,12.2,30.14,1021.2,,,,,,,,,,,,,,,4/8 Partly Cloudy,72000.0,4800.0,SCT,4800.0,,,,,,
KRDR,08-27-2014,18:58,METAR,Variable,,5.0,,,9999.0,,22.4,10.8,30.15,1021.5,,,,,,,,,,,,,,,Clear,72000.0,,,,,,,,,
KRDR,08-27-2014,17:58,METAR,Normal,230,8.0,,,9999.0,,22.0,12.0,30.17,1022.2,,,,,,,,,,,,,,,Clear,72000.0,,,,,,,,,
KRDR,08-27-2014,16:58,METAR,Normal,240,7.0,,,9999.0,,20.8,13.2,30.18,1022.5,,,,,,,,,,,,,,,Clear,72000.0,,,,,,,,,
KRDR,08-27-2014,15:58,METAR,Variable,,2.0,,,9999.0,,19.2,14.2,30.18,1022.6,,,,,,,,,,,,,,,Clear,72000.0,,,,,,,,,
KRDR,08-27-2014,14:58,METAR,Variable,,3.0,,,9999.0,,16.7,14.3,30.18,1022.7,,,,,,,,,,,,,,,Clear,72000.0,,,,,,,,,
KRDR,08-27-2014,13:58,METAR,Normal,220,3.0,,,9999.0,,14.4,13.8,30.18,1022.7,,,,,,,,,,,,,,,Clear,72000.0,,,,,,,,,
KRDR,08-27-2014,12:58,METAR,Normal,200,2.0,,,9999.0,,11.1,11.1,30.18,1022.7,,,,,,,,,,,,,,,Clear,72000.0,,,,,,,,,
KRDR,08-27-2014,11:58,METAR,Normal,200,2.0,,,9999.0,,8.1,8.0,30.17,1022.4,,,,,,,,,,,,,,,Clear,72000.0,,,,,,,,,
KRDR,08-27-2014,11:28,SPECI,Calm,,0.0,,,8000.0,Mist,8.0,8.0,30.17,,10,,,,,,,,,,,,,,Clear,72000.0,,,,,,,,,
KRDR,08-27-2014,11:23,SPECI,Calm,,0.0,,,8000.0,Mist,8.0,8.0,30.17,,10,,,,,,,,,,,,,,Clear,72000.0,,,,,,,,,
KRDR,08-27-2014,10:58,METAR,Calm,,0.0,,,9999.0,,8.7,8.6,30.16,1022.0,,,,,,,,,,,,,,,Clear,72000.0,,,,,,,,,
KRDR,08-27-2014,09:58,METAR,Normal,260,2.0,,,9999.0,,10.0,9.9,30.16,1022.0,,,,,,,,,,,,,,,Clear,72000.0,,,,,,,,,
KRDR,08-27-2014,08:58,METAR,Normal,290,2.0,,,9999.0,,10.9,10.8,30.17,1022.3,,,,,,,,,,,,,,,Clear,72000.0,,,,,,,,,
KRDR,08-27-2014,07:58,METAR,Normal,260,5.0,,,9999.0,,10.8,10.8,30.16,1022.0,,,,,,,,,,,,,,,Clear,72000.0,,,,,,,,,
KRDR,08-27-2014,06:58,METAR,Normal,250,5.0,,,9999.0,,11.2,11.2,30.17,1022.3,,,,,,,,,,,,,,,Clear,72000.0,,,,,,,,,
KRDR,08-27-2014,05:58,METAR,Normal,240,5.0,,,9999.0,,11.8,11.7,30.17,1022.4,,,,,,,,,,,,,,,Clear,72000.0,,,,,,,,,
KRDR,08-27-2014,04:58,METAR,Normal,250,5.0,,,9999.0,,11.7,11.6,30.16,1022.0,,,,,,,,,,,,,,,Clear,72000.0,,,,,,,,,
KRDR,08-27-2014,03:58,METAR,Normal,240,5.0,,,9999.0,,12.0,11.8,30.15,1021.7,,,,,,,,,,,,,,,Clear,72000.0,,,,,,,,,
KRDR,08-27-2014,02:58,METAR,Normal,230,5.0,,,9999.0,,13.1,12.9,30.15,1021.7,,,,,,,,,,,,,,,Clear,72000.0,,,,,,,,,
KRDR,08-27-2014,01:58,METAR,Normal,220,4.0,,,9999.0,,14.3,14.0,30.13,1021.1,,,,,,,,,,,,,,,2/8 Mostly Clear,72000.0,5500.0,FEW,5500.0,,,,,,
KRDR,08-27-2014,00:58,METAR,Normal,250,4.0,,,9999.0,,17.4,13.9,30.12,1020.7,,,,,,,,,,,,,,,4/8 Partly Cloudy,72000.0,5500.0,SCT,5500.0,,,,,,
KRDR,08-26-2014,23:58,METAR,Normal,240,1.0,,,9999.0,,19.7,10.7,30.13,1021.0,,,,,,,,,,,,,,,2/8 Mostly Clear,72000.0,5000.0,FEW,5000.0,,,,,,
KRDR,08-26-2014,22:58,METAR,Calm,,0.0,,,9999.0,,19.4,12.8,30.14,1021.4,,,,,,,,,,,,,,,Clear,72000.0,,,,,,,,,
KRDR,08-26-2014,21:58,METAR,Calm,,0.0,,,9999.0,,18.9,11.4,30.14,1021.4,,,,,,,,,,,,,,,,5500.0,4300.0,FEW,4300.0,BKN,5500.0,,,,
KRDR,08-26-2014,20:58,METAR,Variable,,2.0,,,9999.0,,19.6,11.6,30.15,1021.6,,,,,,,,,,,,,,,,5500.0,4400.0,SCT,4400.0,BKN,5500.0,,,,
KRDR,08-26-2014,19:58,METAR,Variable,,3.0,,,9999.0,,19.3,11.5,30.16,1022.0,,,,,,,,,,,,,,,,4100.0,4100.0,BKN,4100.0,,,,,,
KRDR,08-26-2014,18:58,METAR,Normal,230,1.0,,,9999.0,,18.9,11.0,30.18,1022.7,,,,,,,,,,,,,,,2/8 Mostly Clear,72000.0,4100.0,FEW,4100.0,,,,,,
KRDR,08-26-2014,17:58,METAR,Normal,340,3.0,,,9999.0,,16.7,10.6,30.19,1023.1,,,,,,,,,,,,,,,,3000.0,2900.0,FEW,2900.0,BKN,3900.0,,,,
KRDR,08-26-2014,17:28,SPECI,Variable,,1.0,,,9999.0,,17.0,10.0,30.20,,,,,,,,,,,,,,,,,3600.0,3000.0,SCT,3000.0,BKN,3600.0,,,,
KRDR,08-26-2014,17:03,SPECI,Normal,260,4.0,,,9999.0,,17.0,10.0,30.21,,,,,,,,,,,,,,,,,2800.0,2800.0,BKN,2800.0,BKN,3500.0,,,,
KRDR,08-26-2014,16:58,METAR,Variable,,4.0,,,9999.0,,16.5,10.1,30.21,1023.8,,,,,,,,,,,,,,,,2700.0,2900.0,SCT,2900.0,BKN,3600.0,,,,
KRDR,08-26-2014,16:13,SPECI,Variable,,1.0,,,9999.0,,15.0,10.0,30.21,,,,,,,,,,,,,,,,4/8 Partly Cloudy,72000.0,2400.0,SCT,2400.0,,,,,,
KRDR,08-26-2014,16:08,SPECI,Normal,150,2.0,,,9999.0,,15.0,10.0,30.21,,,,,,,,,,,,,,,,,2400.0,2400.0,BKN,2400.0,,,,,,
KRDR,08-26-2014,15:58,METAR,Variable,,2.0,,,9999.0,,15.2,10.1,30.21,1023.8,,,,,,,,,,,,,,,4/8 Partly Cloudy,72000.0,2300.0,SCT,2300.0,,,,,,
KRDR,08-26-2014,14:58,METAR,Normal,90,2.0,,,9999.0,,13.8,10.6,30.20,1023.5,,,,,,,,,,,,,,,2/8 Mostly Clear,72000.0,2800.0,FEW,2800.0,,,,,,
KRDR,08-26-2014,14:43,SPECI,Calm,,0.0,,,9999.0,,13.0,10.0,30.20,,,,,,,,,,,,,,,,4/8 Partly Cloudy,72000.0,2800.0,SCT,2800.0,,,,,,
KRDR,08-26-2014,14:33,SPECI,Calm,,0.0,,,9999.0,,13.0,11.0,30.20,,,,,,,,,,,,,,,,,2800.0,2800.0,BKN,2800.0,,,,,,
KRDR,08-26-2014,14:28,SPECI,Normal,140,1.0,,,9999.0,,12.0,11.0,30.20,,,,,,,,,,,,,,,,4/8 Partly Cloudy,72000.0,2900.0,SCT,2900.0,,,,,,
KRDR,08-26-2014,14:18,SPECI,Calm,,0.0,,,9999.0,,12.0,11.0,30.20,,,,,,,,,,,,,,,,,2900.0,2900.0,BKN,2900.0,,,,,,
KRDR,08-26-2014,14:13,SPECI,Normal,150,1.0,,,9999.0,,13.0,11.0,30.20,,,,,,,,,,,,,,,,4/8 Partly Cloudy,72000.0,2900.0,SCT,2900.0,,,,,,
KRDR,08-26-2014,13:58,METAR,Calm,,0.0,,,9999.0,,11.6,10.5,30.20,1023.5,,,,,,,,,,,,,,,,2900.0,2900.0,OVC,2900.0,,,,,,
KRDR,08-26-2014,13:53,SPECI,Calm,,0.0,,,9999.0,,12.0,11.0,30.20,,,,,,,,,,,,,,,,,2900.0,2900.0,OVC,2900.0,,,,,,
KRDR,08-26-2014,12:58,METAR,Calm,,0.0,,,9999.0,,10.6,10.5,30.18,1022.8,,,,,,,,,,,,,,,Clear,72000.0,,,,,,,,,
KRDR,08-26-2014,11:58,METAR,Normal,200,1.0,,,9999.0,,7.2,7.1,30.16,1022.3,,,,,,,,,,,,,,,Clear,72000.0,,,,,,,,,
KRDR,08-26-2014,10:58,METAR,Normal,310,3.0,,,9999.0,,7.9,7.8,30.14,1021.5,,,,,,,,,,,,,,,Clear,72000.0,,,,,,,,,
KRDR,08-26-2014,09:58,METAR,Normal,310,5.0,,,9999.0,,8.3,8.1,30.13,1021.1,,,,,,,,,,,,,,,Clear,72000.0,,,,,,,,,
KRDR,08-26-2014,08:58,METAR,Normal,280,3.0,,,9999.0,,9.0,8.9,30.11,1020.5,,,,,,,,,,,,,,,Clear,72000.0,,,,,,,,,
KRDR,08-26-2014,07:58,METAR,Normal,330,5.0,,,9999.0,,9.6,9.5,30.11,1020.4,,,,,,,,,,,,,,,Clear,72000.0,,,,,,,,,
KRDR,08-26-2014,06:58,METAR,Normal,300,3.0,,,9999.0,,9.3,9.2,30.12,1020.7,,,,,,,,,,,,,,,Clear,72000.0,,,,,,,,,
KRDR,08-26-2014,05:58,METAR,Normal,290,6.0,,,9999.0,,9.4,9.3,30.10,1020.1,,,,,,,,,,,,,,,Clear,72000.0,,,,,,,,,
KRDR,08-26-2014,04:58,METAR,Normal,290,6.0,,,9999.0,,9.4,9.2,30.09,1019.7,,,,,,,,,,,,,,,Clear,72000.0,,,,,,,,,
KRDR,08-26-2014,03:58,METAR,Normal,290,5.0,,,9999.0,,9.7,9.6,30.06,1018.7,,,,,,,,,,,,,,,Clear,72000.0,,,,,,,,,
KRDR,08-26-2014,02:58,METAR,Normal,300,7.0,,,9999.0,,11.0,9.9,30.05,1018.4,,,,,,,,,,,,,,,4/8 Partly Cloudy,72000.0,4500.0,SCT,4500.0,,,,,,
KRDR,08-26-2014,01:58,METAR,Normal,290,7.0,,,9999.0,,11.3,9.3,30.03,1017.7,,,,,,,,,,,,,,,Clear,72000.0,,,,,,,,,
KRDR,08-26-2014,00:58,METAR,Normal,300,9.0,,,9999.0,,13.1,9.4,30.01,1016.9,,,,,,,,,,,,,,,,4000.0,2900.0,FEW,2900.0,BKN,4000.0,,,,
KRDR,08-25-2014,23:58,METAR,Normal,300,10.0,18.0,,9999.0,,13.4,9.1,30.00,1016.6,,,,,,,,,,,,,,,,4500.0,3700.0,SCT,3700.0,OVC,4500.0,,,,
KRDR,08-25-2014,22:58,METAR,Variable,320,10.0,,,9999.0,,14.3,9.1,29.98,1015.8,,,,,,,,,,,,,,,,4600.0,3500.0,SCT,3500.0,OVC,4600.0,,,,
KRDR,08-25-2014,21:58,METAR,Normal,310,11.0,18.0,,9999.0,,14.8,9.5,29.97,1015.5,,,,,,,,,,,,,,,,4100.0,2800.0,FEW,2800.0,BKN,4100.0,OVC,4900.0,,
KRDR,08-25-2014,20:58,METAR,Normal,320,11.0,23.0,,9999.0,,15.4,8.7,29.95,1014.9,,,,,,,,,,,,,,,,4200.0,3300.0,SCT,3300.0,OVC,4200.0,,,,
KRDR,08-25-2014,19:58,METAR,Normal,290,13.0,20.0,,9999.0,,15.8,8.7,29.94,1014.5,,,,,,,,,,,,,,,,3800.0,3800.0,OVC,3800.0,,,,,,
KRDR,08-25-2014,18:58,METAR,Normal,290,16.0,20.0,,9999.0,,16.2,9.2,29.92,1013.8,,,,,,,,,,,,,,,,3700.0,3700.0,BKN,3700.0,,,,,,
KRDR,08-25-2014,17:58,METAR,Normal,310,15.0,,,9999.0,,15.7,10.4,29.91,1013.4,,,,,,,,,,,,,,,,3000.0,3000.0,BKN,3000.0,BKN,3500.0,OVC,6000.0,,
KRDR,08-25-2014,17:48,SPECI,Normal,320,13.0,,,9999.0,,15.0,10.0,29.91,,,,,,,,,,,,,,,,,3000.0,3000.0,BKN,3000.0,OVC,6000.0,,,,
KRDR,08-25-2014,17:03,SPECI,Normal,300,17.0,22.0,,9999.0,,17.0,11.0,29.90,,,,,,,,,,,,,,,,,2700.0,2900.0,BKN,2900.0,BKN,3400.0,,,,
KRDR,08-25-2014,16:58,METAR,Normal,290,12.0,20.0,,9999.0,,16.6,10.6,29.89,1012.7,,,,,,,,,,,,,,,,3300.0,2700.0,SCT,2700.0,BKN,3300.0,,,,
KRDR,08-25-2014,16:28,SPECI,Normal,290,16.0,23.0,,9999.0,,16.0,11.0,29.86,,,,,,,,,,,,,,,,,1900.0,2500.0,BKN,2500.0,,,,,,
KRDR,08-25-2014,16:23,SPECI,Normal,310,15.0,22.0,,9999.0,,17.0,11.0,29.86,,,,,,,,,,,,,,,,4/8 Partly Cloudy,72000.0,1900.0,FEW,1900.0,SCT,2500.0,,,,
KRDR,08-25-2014,16:18,SPECI,Normal,310,15.0,22.0,,9999.0,,16.0,11.0,29.86,,,,,,,,,,,,,,,,,1900.0,2200.0,SCT,2200.0,SCT,6000.0,,,,
KRDR,08-25-2014,15:58,METAR,Normal,310,18.0,24.0,,9999.0,,15.6,11.4,29.85,1011.3,,,,,,,,,,,,,,,,2300.0,2300.0,BKN,2300.0,OVC,6000.0,,,,
KRDR,08-25-2014,15:28,SPECI,Normal,320,17.0,23.0,,9999.0,,15.0,10.0,29.84,,,,,,,,,,,,,,,,,2500.0,2500.0,BKN,2500.0,BKN,5500.0,,,,
KRDR,08-25-2014,14:58,METAR,Normal,320,16.0,22.0,300/28KTS,9999.0,,14.4,10.7,29.82,1010.3,,,,,,,,,,,,,,,,1600.0,1900.0,FEW,1900.0,BKN,4500.0,BKN,8000.0,,
KRDR,08-25-2014,14:38,SPECI,Normal,310,19.0,24.0,,9999.0,,15.0,11.0,29.81,,,,,,,,,,,,,,,,,2300.0,1900.0,SCT,1900.0,SCT,4400.0,BKN,8000.0,,
KRDR,08-25-2014,14:28,SPECI,Normal,310,18.0,26.0,,9999.0,,15.0,11.0,29.80,,,,,,,,,,,,,,,,,2000.0,1500.0,FEW,1500.0,BKN,2000.0,BKN,10000.0,,
KRDR,08-25-2014,14:18,SPECI,Normal,300,20.0,23.0,,9999.0,,15.0,12.0,29.79,,,,,,,,,,,,,,,,,10000.0,1500.0,SCT,1500.0,OVC,10000.0,,,,
KRDR,08-25-2014,13:58,METAR,Normal,290,14.0,26.0,260/30KTS,9999.0,,14.6,12.7,29.77,1008.6,,,,,,,,,,,,,,,,1500.0,1500.0,OVC,1500.0,,,,,,
KRDR,08-25-2014,12:58,METAR,Normal,260,14.0,22.0,,9999.0,,14.9,13.1,29.73,1007.1,,,,,,,,,,,,,,,,1600.0,1600.0,OVC,1600.0,,,,,,
KRDR,08-25-2014,11:58,METAR,Normal,230,13.0,,,9999.0,,14.9,11.9,29.72,1006.7,,,,,,,,,,,,,,.13 IN,,2100.0,2100.0,OVC,2100.0,,,,,,
KRDR,08-25-2014,10:58,METAR,Normal,230,11.0,,,9999.0,,14.5,11.8,29.72,1006.7,,,,,,,,,,,,,,,,2400.0,2400.0,OVC,2400.0,,,,,,
KRDR,08-25-2014,09:58,METAR,Normal,230,12.0,,,9999.0,,14.3,11.5,29.72,1006.7,,,,,,,,,,,,,,,,2300.0,2300.0,OVC,2300.0,,,,,,
KRDR,08-25-2014,09:13,SPECI,Normal,230,11.0,,,9999.0,,14.0,11.0,29.71,,,,,,,,,,,,,,,,,2600.0,2600.0,BKN,2600.0,,,,,,
KRDR,08-25-2014,08:58,METAR,Normal,240,11.0,,,9999.0,,13.5,10.6,29.71,1006.3,,,,,,,,,,,,,,,2/8 Mostly Clear,72000.0,2800.0,FEW,2800.0,,,,,,
KRDR,08-25-2014,07:58,METAR,Normal,220,10.0,19.0,,9999.0,,13.8,10.2,29.71,1006.3,,,,,,,,,,,,,,,Clear,72000.0,,,,,,,,,
KRDR,08-25-2014,06:58,METAR,Normal,240,11.0,,,9999.0,,14.1,10.0,29.72,1006.7,,,,,,,,,,,,,,,Clear,72000.0,,,,,,,,,
KRDR,08-25-2014,05:58,METAR,Normal,230,11.0,,,9999.0,,15.1,10.8,29.73,1007.1,,,,,,,,,,,,,,,Clear,72000.0,,,,,,,,,
KRDR,08-25-2014,04:58,METAR,Normal,230,6.0,,,9999.0,,15.3,11.7,29.74,1007.4,,,,,,,,,,,,,,,Clear,72000.0,,,,,,,,,
KRDR,08-25-2014,03:58,METAR,Normal,240,5.0,,,9999.0,,16.0,12.7,29.75,1007.8,,,,,,,,,,,,,,,Clear,72000.0,,,,,,,,,
KRDR,08-25-2014,02:58,METAR,Normal,230,6.0,,,9999.0,,16.2,12.9,29.74,1007.4,,,,,,,,,,,,,,,Clear,72000.0,,,,,,,,,
KRDR,08-25-2014,01:58,METAR,Normal,230,8.0,,,9999.0,,18.7,12.9,29.73,1007.0,,,,,,,,,,,,,,,Clear,72000.0,,,,,,,,,
KRDR,08-25-2014,00:58,METAR,Normal,240,7.0,,,9999.0,,20.9,12.7,29.72,1006.7,,,,,,,,,,,,,,,Clear,72000.0,,,,,,,,,
KRDR,08-24-2014,23:58,METAR,Normal,230,14.0,21.0,,9999.0,,22.7,13.5,29.71,1006.3,,,,,,,,,,,,,,,,6000.0,6000.0,BKN,6000.0,,,,,,
KRDR,08-24-2014,22:58,METAR,Normal,240,13.0,21.0,,9999.0,,23.8,14.7,29.69,1005.5,,,,,,,,,,,,,,,2/8 Mostly Clear,72000.0,4800.0,FEW,4800.0,,,,,,
KRDR,08-24-2014,21:58,METAR,Normal,230,17.0,21.0,,9999.0,,24.6,16.7,29.67,1004.9,,,,,,,,,,,,,,,2/8 Mostly Clear,72000.0,4100.0,FEW,4100.0,,,,,,
KRDR,08-24-2014,20:58,METAR,Normal,230,14.0,21.0,,9999.0,,26.6,18.5,29.65,1004.1,,,,,,,,,,,,,,,4/8 Partly Cloudy,72000.0,4000.0,SCT,4000.0,,,,,,
KRDR,08-24-2014,20:03,SPECI,Normal,200,14.0,19.0,,9999.0,,26.0,22.0,29.65,,,,,,,,,,,,,,,,4/8 Partly Cloudy,72000.0,1700.0,FEW,1700.0,SCT,2300.0,,,,
KRDR,08-24-2014,19:58,METAR,Normal,200,13.0,19.0,,9999.0,,25.6,22.6,29.66,1004.5,,,,,,,,,,,,,,,,1700.0,1700.0,SCT,1700.0,BKN,2300.0,,,,
KRDR,08-24-2014,19:23,SPECI,Normal,200,10.0,,,9999.0,,24.0,22.0,29.66,,,,,,,,,,,,,,,,,1500.0,1500.0,BKN,1500.0,BKN,2700.0,,,,
KRDR,08-24-2014,18:58,METAR,Normal,200,12.0,17.0,,9999.0,,22.6,22.1,29.67,1004.9,,,,,,,,,,,,,,,,1400.0,1400.0,OVC,1400.0,,,,,,
KRDR,08-24-2014,18:31,SPECI,Normal,190,11.0,,,9999.0,,23.0,22.0,29.67,,,,,,,,,,,,,,,,,1300.0,1300.0,OVC,1300.0,,,,,,
KRDR,08-24-2014,18:11,SPECI,Normal,190,10.0,,,9999.0,,22.0,22.0,29.67,,,,,,,,,,,,,,,,,1100.0,1100.0,OVC,1100.0,,,,,,
KRDR,08-24-2014,17:58,METAR,Normal,190,11.0,,,9999.0,,21.9,21.6,29.67,1004.9,,,,,,,,,,,,,.13 IN,,,1200.0,1200.0,OVC,1200.0,,,,,,
KRDR,08-24-2014,17:43,SPECI,Normal,190,10.0,,,9999.0,,22.0,22.0,29.67,,,,,,,,,,,,,,,,,1400.0,1400.0,OVC,1400.0,,,,,,
KRDR,08-24-2014,16:58,METAR,Normal,170,12.0,,,9999.0,,22.9,21.5,29.66,1004.5,,,,,,,,,,,,,,,,1800.0,1800.0,OVC,1800.0,,,,,,
KRDR,08-24-2014,16:43,SPECI,Normal,180,11.0,,,9999.0,,23.0,22.0,29.67,,,,,,,,,,,,,,,,,1700.0,1700.0,OVC,1700.0,,,,,,
KRDR,08-24-2014,15:58,METAR,Normal,190,12.0,,,9999.0,,22.1,21.9,29.66,1004.6,,,,,,,,,,,,,,,,1200.0,1200.0,OVC,1200.0,,,,,,
KRDR,08-24-2014,15:48,SPECI,Normal,180,13.0,,,9999.0,,22.0,22.0,29.67,,,,,,,,,,,,,,,,,1100.0,1100.0,OVC,1100.0,,,,,,
KRDR,08-24-2014,14:58,METAR,Normal,180,10.0,,,9999.0,,20.7,,29.66,1004.6,,,,,,,,,,,,.13 IN,,,,700.0,700.0,BKN,700.0,BKN,3600.0,OVC,4300.0,,
KRDR,08-24-2014,14:34,SPECI,Normal,190,10.0,,,9999.0,,21.0,21.0,29.66,,,,,,,,,,,,,,,,,700.0,700.0,BKN,700.0,,,,,,
KRDR,08-24-2014,14:24,SPECI,Normal,180,10.0,,,9999.0,,21.0,21.0,29.65,,,,,,,,,,,,,,,,4/8 Partly Cloudy,72000.0,700.0,FEW,700.0,SCT,2400.0,,,,
KRDR,08-24-2014,14:18,SPECI,Normal,190,8.0,,,9999.0,,21.0,21.0,29.65,,,,,,,,,,,,,,,,,12000.0,2400.0,SCT,2400.0,BKN,12000.0,,,,
KRDR,08-24-2014,13:58,METAR,Normal,180,8.0,,,9999.0,,19.5,,29.66,1004.6,,,,,,,,,,,.04 IN,,,,,2400.0,400.0,SCT,400.0,OVC,2400.0,,,,
KRDR,08-24-2014,13:46,SPECI,Normal,170,6.0,,,9999.0,,19.0,19.0,29.67,,,,,,,,,,,,,,,,,400.0,400.0,SCT,400.0,OVC,2200.0,,,,
KRDR,08-24-2014,13:41,SPECI,Normal,170,7.0,,,9999.0,,19.0,19.0,29.67,,,,,,,,,,,,,,,,,400.0,400.0,SCT,400.0,BKN,1000.0,OVC,2200.0,,
KRDR,08-24-2014,13:36,SPECI,Normal,170,8.0,,,9999.0,,19.0,19.0,29.67,,,,,,,,,,,,,,,,,400.0,400.0,BKN,400.0,BKN,1600.0,OVC,2200.0,,
KRDR,08-24-2014,13:26,SPECI,Normal,180,6.0,,,9999.0,,19.0,19.0,29.67,,,,,,,,,,,,,,,,,2200.0,600.0,FEW,600.0,SCT,1600.0,BKN,2200.0,,
KRDR,08-24-2014,13:24,SPECI,Normal,180,7.0,,,9999.0,,19.0,19.0,29.67,,,,,,,,,,,,,,,,,2200.0,1400.0,SCT,1400.0,BKN,2200.0,BKN,2700.0,,
KRDR,08-24-2014,13:17,SPECI,Normal,170,5.0,,,4800.0,Light Rain/Mist,19.0,19.0,29.66,,61,10,,,,,,,,,,,,,,2800.0,1700.0,SCT,1700.0,BKN,2800.0,,,,
KRDR,08-24-2014,13:07,SPECI,Normal,150,6.0,,,9999.0,Light Rain,19.0,19.0,29.66,,61,,,,,,,,,,,,,,,2800.0,1200.0,FEW,1200.0,SCT,2100.0,BKN,2800.0,,
KRDR,08-24-2014,12:58,METAR,Normal,180,4.0,,,9999.0,,18.8,18.8,29.67,1005.0,,,,,,,,,,,.09 IN,,,,,2800.0,2800.0,BKN,2800.0,OVC,4200.0,,,,
KRDR,08-24-2014,12:53,SPECI,Normal,190,4.0,,,9999.0,,19.0,19.0,29.67,,,,,,,,,,,,,,,,,2800.0,2800.0,BKN,2800.0,OVC,4000.0,,,,
KRDR,08-24-2014,12:33,SPECI,Normal,210,3.0,,,6400.0,Light Rain/Mist,19.0,19.0,29.67,,61,10,,,,,,,,,,,,,,4100.0,4100.0,BKN,4100.0,,,,,,
KRDR,08-24-2014,12:23,SPECI,Normal,210,4.0,,,4000.0,Light Rain/Mist,19.0,19.0,29.67,,61,10,,,,,,,,,,,,,,3600.0,3600.0,BKN,3600.0,,,,,,
KRDR,08-24-2014,12:13,SPECI,Normal,210,4.0,,,9999.0,Light Rain,19.0,19.0,29.67,,61,,,,,,,,,,,,,,4/8 Partly Cloudy,72000.0,1900.0,FEW,1900.0,SCT,3900.0,,,,
KRDR,08-24-2014,12:11,SPECI,Normal,210,4.0,,,9999.0,,19.0,19.0,29.67,,,,,,,,,,,,,,,,4/8 Partly Cloudy,72000.0,1400.0,FEW,1400.0,SCT,3900.0,,,,
KRDR,08-24-2014,12:03,SPECI,Normal,220,3.0,,,9999.0,Light Rain,19.0,19.0,29.67,,61,,,,,,,,,,,,,,,3800.0,2200.0,SCT,2200.0,BKN,3800.0,BKN,5500.0,,
KRDR,08-24-2014,11:58,METAR,Normal,220,4.0,,,9999.0,Light Rain,18.7,18.7,29.67,1005.0,61,,,,,,,,,,.04 IN,,.5 IN,1.09 IN,,2400.0,600.0,FEW,600.0,BKN,2400.0,OVC,5500.0,,
KRDR,08-24-2014,11:49,SPECI,Normal,210,5.0,,,9999.0,Light Rain,19.0,19.0,29.67,,61,,,,,,,,,,,,,,,2300.0,600.0,FEW,600.0,BKN,2300.0,OVC,3900.0,,
KRDR,08-24-2014,11:39,SPECI,Normal,220,2.0,,,9999.0,Light Rain,19.0,19.0,29.67,,61,,,,,,,,,,,,,,,500.0,600.0,SCT,600.0,BKN,2400.0,,,,
KRDR,08-24-2014,11:34,SPECI,Normal,210,3.0,,,9999.0,Light Rain,19.0,19.0,29.67,,61,,,,,,,,,,,,,,,500.0,500.0,BKN,500.0,,,,,,
KRDR,08-24-2014,11:22,SPECI,Normal,200,4.0,,,9999.0,,19.0,19.0,29.67,,,,,,,,,,,,,,,,,500.0,500.0,BKN,500.0,,,,,,
KRDR,08-24-2014,11:13,SPECI,Normal,180,3.0,,,9999.0,Light Rain,19.0,19.0,29.67,,61,,,,,,,,,,,,,,,500.0,500.0,BKN,500.0,OVC,1700.0,,,,
KRDR,08-24-2014,11:03,SPECI,Normal,240,5.0,,,9999.0,Light Rain,19.0,19.0,29.67,,61,,,,,,,,,,,,,,,500.0,500.0,BKN,500.0,OVC,2500.0,,,,
KRDR,08-24-2014,10:58,METAR,Normal,230,6.0,,,9999.0,Light Rain,18.8,18.8,29.67,1004.9,61,,,,,,,,,,.16 IN,,,,,2800.0,400.0,SCT,400.0,OVC,2800.0,,,,
KRDR,08-24-2014,10:56,SPECI,Normal,220,6.0,,,9999.0,Light Rain,19.0,19.0,29.67,,61,,,,,,,,,,,,,,,2800.0,400.0,SCT,400.0,OVC,2800.0,,,,
KRDR,08-24-2014,10:51,SPECI,Normal,180,5.0,,,9999.0,Light Rain,19.0,19.0,29.67,,61,,,,,,,,,,,,,,,3000.0,500.0,FEW,500.0,OVC,3000.0,,,,
KRDR,08-24-2014,09:58,METAR,Normal,110,5.0,,,9999.0,Light Rain/Mist,18.9,18.9,29.66,1004.6,61,10,,,,,,,,,.12 IN,,,,,5500.0,5500.0,OVC,5500.0,,,,,,
KRDR,08-24-2014,09:42,SPECI,Normal,120,7.0,,,9999.0,Light Rain/Mist,19.0,19.0,29.66,,61,10,,,,,,,,,,,,,,4800.0,2700.0,FEW,2700.0,BKN,4800.0,,,,
KRDR,08-24-2014,09:34,SPECI,Normal,140,9.0,,,9999.0,Thunderstorm and Rain or Snow Showers,19.0,19.0,29.66,,92,,,,,,,,,,,,,,,3600.0,2700.0,FEW,2700.0,BKN,3600.0,,,,
KRDR,08-24-2014,09:29,SPECI,Normal,150,12.0,,,9999.0,Thunderstorm and Rain or Snow Showers,19.0,19.0,29.67,,92,,,,,,,,,,,,,,4/8 Partly Cloudy,72000.0,3500.0,SCT,3500.0,,,,,,
KRDR,08-24-2014,09:19,SPECI,Normal,160,8.0,,,9999.0,Thunderstorm and Rain or Snow Showers,19.0,19.0,29.66,,92,,,,,,,,,,,,,,4/8 Partly Cloudy,72000.0,4400.0,SCT,4400.0,,,,,,
KRDR,08-24-2014,08:58,METAR,Normal,140,10.0,,,9999.0,Light Drizzle/Distant Lightning,19.1,,29.66,1004.6,51,12,,,,,,,,,.03 IN,.18 IN,,,4/8 Partly Cloudy,72000.0,500.0,SCT,500.0,,,,,,
KRDR,08-24-2014,08:53,SPECI,Normal,150,9.0,,,9999.0,Light Rain,19.0,19.0,29.67,,61,,,,,,,,,,,,,,,500.0,500.0,BKN,500.0,,,,,,
KRDR,08-24-2014,08:33,SPECI,Normal,150,11.0,,,9999.0,Light Rain,19.0,19.0,29.69,,61,,,,,,,,,,,,,,,600.0,600.0,OVC,600.0,,,,,,
KRDR,08-24-2014,08:28,SPECI,Normal,150,9.0,,,9999.0,Light Rain,19.0,19.0,29.68,,61,,,,,,,,,,,,,,,700.0,700.0,OVC,700.0,,,,,,
KRDR,08-24-2014,08:23,SPECI,Normal,140,13.0,,,9999.0,Light Rain,19.0,19.0,29.69,,61,,,,,,,,,,,,,,,600.0,600.0,OVC,600.0,,,,,,
KRDR,08-24-2014,08:13,SPECI,Normal,160,10.0,,,9999.0,Light Rain,19.0,19.0,29.70,,61,,,,,,,,,,,,,,,600.0,600.0,BKN,600.0,OVC,2200.0,,,,
KRDR,08-24-2014,08:08,SPECI,Normal,170,8.0,,,9999.0,Light Rain,20.0,20.0,29.70,,61,,,,,,,,,,,,,,,2400.0,700.0,SCT,700.0,OVC,2400.0,,,,
KRDR,08-24-2014,08:03,SPECI,Normal,160,9.0,,,9999.0,Light Rain,20.0,20.0,29.70,,61,,,,,,,,,,,,,,,2000.0,700.0,FEW,700.0,BKN,2000.0,,,,
KRDR,08-24-2014,07:58,METAR,Normal,160,7.0,,,9999.0,Light Rain,19.7,19.7,29.70,1005.9,61,,,,,,,,,,.07 IN,,,,,2400.0,1000.0,FEW,1000.0,BKN,2400.0,,,,
KRDR,08-24-2014,07:55,SPECI,Normal,160,7.0,,,9999.0,Light Rain,20.0,20.0,29.69,,61,,,,,,,,,,,,,,,2500.0,800.0,FEW,800.0,BKN,2500.0,,,,
KRDR,08-24-2014,07:50,SPECI,Normal,160,7.0,,,9999.0,Light Rain,20.0,20.0,29.70,,61,,,,,,,,,,,,,,,700.0,1000.0,FEW,1000.0,BKN,3300.0,,,,
KRDR,08-24-2014,07:45,SPECI,Normal,170,7.0,,,9999.0,Light Rain,20.0,20.0,29.70,,61,,,,,,,,,,,,,,,3100.0,1000.0,SCT,1000.0,BKN,3100.0,,,,
KRDR,08-24-2014,07:35,SPECI,Normal,170,11.0,,,9999.0,Light Rain,20.0,20.0,29.71,,61,,,,,,,,,,,,,,,900.0,1000.0,SCT,1000.0,BKN,1600.0,,,,
KRDR,08-24-2014,07:30,SPECI,Normal,170,12.0,,,9999.0,Light Rain,20.0,20.0,29.71,,61,,,,,,,,,,,,,,,900.0,900.0,BKN,900.0,BKN,1900.0,,,,
KRDR,08-24-2014,07:20,SPECI,Normal,160,10.0,20.0,,9999.0,Light Rain,20.0,20.0,29.72,,61,,,,,,,,,,,,,,,1500.0,900.0,FEW,900.0,BKN,1500.0,,,,
KRDR,08-24-2014,07:13,SPECI,Normal,160,13.0,,,9999.0,Light Rain,20.0,20.0,29.72,,61,,,,,,,,,,,,,,,900.0,1300.0,SCT,1300.0,BKN,2100.0,,,,
KRDR,08-24-2014,07:08,SPECI,Normal,160,13.0,,,9999.0,Light Rain,20.0,20.0,29.72,,61,,,,,,,,,,,,,,,800.0,1400.0,BKN,1400.0,,,,,,
KRDR,08-24-2014,06:58,METAR,Normal,150,13.0,,,9999.0,Light Rain,20.1,,29.73,1007.0,61,,,,,,,,,,.08 IN,,,,,700.0,800.0,BKN,800.0,BKN,1400.0,BKN,2300.0,,
KRDR,08-24-2014,06:43,SPECI,Normal,150,13.0,19.0,,9999.0,Light Rain,20.0,20.0,29.74,,61,,,,,,,,,,,,,,,700.0,700.0,OVC,700.0,,,,,,
KRDR,08-24-2014,06:33,SPECI,Normal,150,11.0,,,9999.0,Light Rain,20.0,20.0,29.74,,61,,,,,,,,,,,,,,,700.0,700.0,OVC,700.0,,,,,,
KRDR,08-24-2014,06:28,SPECI,Normal,150,13.0,,,9999.0,Light Rain,20.0,20.0,29.74,,61,,,,,,,,,,,,,,,700.0,700.0,OVC,700.0,,,,,,
KRDR,08-24-2014,06:23,SPECI,Normal,150,11.0,,,9999.0,Light Rain,20.0,20.0,29.74,,61,,,,,,,,,,,,,,,700.0,700.0,OVC,700.0,,,,,,
KRDR,08-24-2014,06:08,SPECI,Normal,170,10.0,,,9999.0,Light Rain/Distant Lightning,20.0,20.0,29.75,,61,12,,,,,,,,,,,,,,600.0,600.0,BKN,600.0,OVC,1100.0,,,,
KRDR,08-24-2014,05:58,METAR,Normal,130,11.0,,,9999.0,Light Rain/Distant Lightning/Mist,20.0,20.0,29.76,1008.1,61,10,12,,,,,,,,.32 IN,,.57 IN,,,600.0,800.0,BKN,800.0,OVC,1200.0,,,,
KRDR,08-24-2014,05:48,SPECI,Normal,110,12.0,19.0,,6400.0,Light Rain/Distant Lightning/Mist,20.0,20.0,29.76,,61,10,12,,,,,,,,,,,,,600.0,1100.0,OVC,1100.0,,,,,,
KRDR,08-24-2014,05:43,SPECI,Normal,110,12.0,19.0,,9999.0,Light Rain/Distant Lightning/Mist,20.0,20.0,29.76,,61,10,12,,,,,,,,,,,,,700.0,800.0,SCT,800.0,OVC,1200.0,,,,
KRDR,08-24-2014,05:39,SPECI,Normal,100,14.0,19.0,,4800.0,Thunderstorm and Rain or Snow Showers/Mist,20.0,20.0,29.75,,92,10,,,,,,,,,,,,,,400.0,800.0,FEW,800.0,BKN,1100.0,OVC,1900.0,,
KRDR,08-24-2014,05:34,SPECI,Normal,110,13.0,,,2000.0,Thunderstorm and Rain or Snow Showers/Mist,20.0,20.0,29.76,,92,10,,,,,,,,,,,,,,500.0,700.0,FEW,700.0,BKN,1200.0,OVC,2100.0,,
KRDR,08-24-2014,05:29,SPECI,Normal,100,13.0,,,2400.0,Thunderstorm and Rain or Snow Showers/Mist,20.0,20.0,29.77,,92,10,,,,,,,,,,,,,,500.0,700.0,FEW,700.0,BKN,1200.0,OVC,2500.0,,
KRDR,08-24-2014,05:28,SPECI,Normal,110,13.0,,,2800.0,Rain/Distant Lightning/Mist,20.0,20.0,29.77,,62,10,12,,,,,,,,,,,,,500.0,700.0,FEW,700.0,BKN,1200.0,OVC,2500.0,,
KRDR,08-24-2014,05:18,SPECI,Normal,120,11.0,21.0,,8000.0,Light Rain/Distant Lightning/Mist,20.0,20.0,29.77,,61,10,12,,,,,,,,,,,,,600.0,800.0,FEW,800.0,BKN,1300.0,BKN,2200.0,,
KRDR,08-24-2014,05:08,SPECI,Normal,90,14.0,,,9999.0,Light Rain,20.0,20.0,29.76,,61,,,,,,,,,,,,,,,1300.0,800.0,FEW,800.0,BKN,1300.0,BKN,2000.0,,
KRDR,08-24-2014,05:03,SPECI,Normal,100,13.0,,,9999.0,Light Rain,20.0,20.0,29.77,,61,,,,,,,,,,,,,,,700.0,1100.0,BKN,1100.0,BKN,2000.0,,,,
KRDR,08-24-2014,04:58,METAR,Normal,110,13.0,,,9999.0,Light Rain,20.0,,29.78,1008.8,61,,,,,,,,,,.15 IN,,,,,700.0,900.0,FEW,900.0,BKN,1400.0,OVC,2100.0,,
KRDR,08-24-2014,04:48,SPECI,Normal,110,12.0,,,6400.0,Light Rain/Mist,20.0,20.0,29.80,,61,10,,,,,,,,,,,,,,2200.0,900.0,FEW,900.0,OVC,2200.0,,,,
KRDR,08-24-2014,04:43,SPECI,Normal,120,11.0,,,9999.0,Light Rain/Mist,20.0,20.0,29.80,,61,10,,,,,,,,,,,,,,2200.0,1000.0,FEW,1000.0,OVC,2200.0,,,,
KRDR,08-24-2014,04:38,SPECI,Normal,110,9.0,,,9999.0,Light Rain,20.0,20.0,29.80,,61,,,,,,,,,,,,,,,2200.0,1000.0,FEW,1000.0,OVC,2200.0,,,,
KRDR,08-24-2014,04:33,SPECI,Normal,110,12.0,,,9999.0,Light Rain,20.0,20.0,29.80,,61,,,,,,,,,,,,,,,2500.0,1000.0,FEW,1000.0,OVC,2500.0,,,,
KRDR,08-24-2014,04:23,SPECI,Normal,100,10.0,,,6400.0,Rain/Mist,20.0,20.0,29.80,,62,10,,,,,,,,,,,,,,2400.0,700.0,FEW,700.0,OVC,2400.0,,,,
KRDR,08-24-2014,03:58,METAR,Normal,110,10.0,,,9999.0,Light Rain,20.0,,29.83,1010.5,61,,,,,,,,,,.05 IN,,,,,1100.0,900.0,SCT,900.0,BKN,1700.0,,,,
KRDR,08-24-2014,03:55,SPECI,Normal,110,10.0,,,9999.0,Light Rain,20.0,20.0,29.83,,61,,,,,,,,,,,,,,,1100.0,1000.0,SCT,1000.0,BKN,1700.0,,,,
KRDR,08-24-2014,03:50,SPECI,Normal,100,9.0,,,9999.0,Light Rain,20.0,20.0,29.83,,61,,,,,,,,,,,,,,,1100.0,1100.0,BKN,1100.0,OVC,1700.0,,,,
KRDR,08-24-2014,03:45,SPECI,Normal,110,9.0,,,9999.0,Light Rain/Mist,20.0,20.0,29.83,,61,10,,,,,,,,,,,,,,1200.0,1100.0,SCT,1100.0,OVC,1900.0,,,,
KRDR,08-24-2014,03:42,SPECI,Normal,110,10.0,,,8000.0,Light Rain/Mist,20.0,20.0,29.83,,61,10,,,,,,,,,,,,,,1200.0,1200.0,SCT,1200.0,OVC,2000.0,,,,
KRDR,08-24-2014,03:37,SPECI,Normal,110,8.0,,,9999.0,Light Rain/Mist,20.0,20.0,29.84,,61,10,,,,,,,,,,,,,,1200.0,1200.0,BKN,1200.0,BKN,1800.0,OVC,2300.0,,
KRDR,08-24-2014,03:32,SPECI,Normal,110,10.0,,,9999.0,Light Rain,20.0,20.0,29.84,,61,,,,,,,,,,,,,,,1500.0,1500.0,OVC,1500.0,,,,,,
KRDR,08-24-2014,03:27,SPECI,Normal,100,8.0,,,9999.0,Light Rain,20.0,20.0,29.84,,61,,,,,,,,,,,,,,,1300.0,1300.0,OVC,1300.0,,,,,,
KRDR,08-24-2014,03:25,SPECI,Normal,110,8.0,,,9999.0,,20.0,20.0,29.85,,,,,,,,,,,,,,,,,1400.0,1400.0,OVC,1400.0,,,,,,
KRDR,08-24-2014,03:23,SPECI,Normal,100,9.0,,,9999.0,Light Rain,20.0,20.0,29.85,,61,,,,,,,,,,,,,,,1500.0,1500.0,OVC,1500.0,,,,,,
KRDR,08-24-2014,03:18,SPECI,Normal,110,8.0,,,9999.0,Light Rain,20.0,20.0,29.85,,61,,,,,,,,,,,,,,,1400.0,1600.0,OVC,1600.0,,,,,,
KRDR,08-24-2014,03:13,SPECI,Normal,110,7.0,,,9999.0,Light Rain,20.0,20.0,29.85,,61,,,,,,,,,,,,,,,1400.0,1400.0,BKN,1400.0,OVC,1900.0,,,,
KRDR,08-24-2014,03:08,SPECI,Normal,110,7.0,,,9999.0,Light Rain,20.0,20.0,29.85,,61,,,,,,,,,,,,,,,1600.0,1600.0,BKN,1600.0,OVC,2200.0,,,,
KRDR,08-24-2014,02:58,METAR,Normal,100,8.0,,,9999.0,,20.1,,29.85,1011.2,,,,,,,,,,,TRACE,.05 IN,,,,2000.0,2000.0,OVC,2000.0,,,,,,
KRDR,08-24-2014,02:33,SPECI,Normal,100,9.0,,,9999.0,,20.0,20.0,29.86,,,,,,,,,,,,,,,,,2600.0,1800.0,SCT,1800.0,OVC,2600.0,,,,
KRDR,08-24-2014,02:23,SPECI,Normal,100,9.0,,,9999.0,Light Rain,20.0,20.0,29.87,,61,,,,,,,,,,,,,,,2700.0,2700.0,OVC,2700.0,,,,,,
KRDR,08-24-2014,02:08,SPECI,Normal,100,10.0,,,9999.0,,20.0,20.0,29.87,,,,,,,,,,,,,,,,,2900.0,1200.0,FEW,1200.0,BKN,2900.0,,,,
KRDR,08-24-2014,01:58,METAR,Normal,110,9.0,,,9999.0,,20.0,,29.88,1012.2,,,,,,,,,,,.05 IN,,,,,3100.0,1400.0,FEW,1400.0,BKN,3100.0,,,,
KRDR,08-24-2014,01:56,SPECI,Normal,110,9.0,,,9999.0,,20.0,20.0,29.88,,,,,,,,,,,,,,,,,3100.0,1400.0,FEW,1400.0,BKN,3100.0,,,,
KRDR,08-24-2014,01:53,SPECI,Normal,120,9.0,,,9999.0,Light Drizzle,20.0,20.0,29.88,,51,,,,,,,,,,,,,,,3200.0,1500.0,FEW,1500.0,BKN,3200.0,,,,
KRDR,08-24-2014,01:33,SPECI,Normal,110,10.0,,,9999.0,Light Rain,20.0,20.0,29.88,,61,,,,,,,,,,,,,,,3200.0,3200.0,BKN,3200.0,,,,,,
KRDR,08-24-2014,00:58,METAR,Normal,110,9.0,,,9999.0,Light Rain,20.3,,29.89,1012.6,61,,,,,,,,,,TRACE,,,,,8000.0,1200.0,FEW,1200.0,BKN,8000.0,,,,
KRDR,08-24-2014,00:53,SPECI,Normal,110,9.0,,,9999.0,Light Rain,20.0,20.0,29.89,,61,,,,,,,,,,,,,,,8000.0,5000.0,FEW,5000.0,BKN,8000.0,,,,
KRDR,08-24-2014,00:29,SPECI,Normal,110,8.0,,,9999.0,,21.0,21.0,29.89,,,,,,,,,,,,,,,,,7500.0,7500.0,OVC,7500.0,,,,,,
KRDR,08-24-2014,00:15,SPECI,Normal,120,9.0,,,9999.0,Light Drizzle,21.0,21.0,29.89,,51,,,,,,,,,,,,,,,7000.0,7000.0,BKN,7000.0,,,,,,
KRDR,08-24-2014,00:07,SPECI,Normal,120,10.0,,,9999.0,,21.0,21.0,29.89,,,,,,,,,,,,,,,,,7500.0,7500.0,OVC,7500.0,,,,,,
KRDR,08-23-2014,23:58,METAR,Normal,120,9.0,,,9999.0,Light Rain,20.7,,29.90,1012.9,61,,,,,,,,,,.01 IN,,.02 IN,,,8000.0,8000.0,BKN,8000.0,,,,,,
KRDR,08-23-2014,23:57,SPECI,Normal,120,10.0,,,9999.0,Light Rain,21.0,21.0,29.90,,61,,,,,,,,,,,,,,,8000.0,8000.0,BKN,8000.0,,,,,,
KRDR,08-23-2014,23:44,SPECI,Normal,120,11.0,,,9999.0,,21.0,21.0,29.90,,,,,,,,,,,,,,,,,8000.0,1600.0,FEW,1600.0,BKN,8000.0,,,,
KRDR,08-23-2014,23:33,SPECI,Normal,120,10.0,,,9999.0,Light Rain,21.0,21.0,29.91,,61,,,,,,,,,,,,,,,4800.0,1800.0,SCT,1800.0,BKN,4800.0,,,,
KRDR,08-23-2014,23:28,SPECI,Normal,120,12.0,,,9999.0,Light Rain,21.0,21.0,29.91,,61,,,,,,,,,,,,,,,1700.0,1600.0,SCT,1600.0,BKN,2100.0,BKN,4900.0,,
KRDR,08-23-2014,23:18,SPECI,Normal,140,12.0,,,9999.0,,22.0,22.0,29.91,,,,,,,,,,,,,,,,,1700.0,1700.0,BKN,1700.0,,,,,,
KRDR,08-23-2014,22:58,METAR,Normal,130,11.0,,,9999.0,,21.9,21.8,29.92,1013.5,,,,,,,,,,,.01 IN,,,,4/8 Partly Cloudy,72000.0,2100.0,FEW,2100.0,SCT,4900.0,,,,
KRDR,08-23-2014,22:38,SPECI,Normal,120,11.0,,,9999.0,,22.0,22.0,29.92,,,,,,,,,,,,,,,,,4300.0,2200.0,FEW,2200.0,BKN,4300.0,,,,
KRDR,08-23-2014,22:16,SPECI,Normal,120,12.0,,,9999.0,Light Drizzle,23.0,21.0,29.93,,51,,,,,,,,,,,,,,,4500.0,2200.0,FEW,2200.0,SCT,3100.0,BKN,4500.0,,
KRDR,08-23-2014,21:58,METAR,Normal,110,11.0,,,9999.0,,23.2,21.6,29.94,1014.2,,,,,,,,,,,,,,,4/8 Partly Cloudy,72000.0,1900.0,FEW,1900.0,SCT,2700.0,SCT,4800.0,,
KRDR,08-23-2014,21:23,SPECI,Normal,100,10.0,,,9999.0,,23.0,22.0,29.94,,,,,,,,,,,,,,,,,3400.0,2100.0,FEW,2100.0,SCT,2900.0,BKN,3400.0,,
KRDR,08-23-2014,20:58,METAR,Normal,60,7.0,,,9999.0,,22.1,21.9,29.95,1014.6,,,,,,,,,,,,,,,,2000.0,2000.0,BKN,2000.0,BKN,2900.0,BKN,6000.0,,
KRDR,08-23-2014,20:18,SPECI,Normal,30,8.0,,,9999.0,,21.0,21.0,29.96,,,,,,,,,,,,,,,,,900.0,1000.0,SCT,1000.0,BKN,1600.0,OVC,2500.0,,
KRDR,08-23-2014,19:58,METAR,Normal,40,9.0,,,9999.0,,20.7,20.5,29.97,1015.3,,,,,,,,,,,,,,,,900.0,900.0,OVC,900.0,,,,,,
KRDR,08-23-2014,18:58,METAR,Normal,20,8.0,,,9999.0,,19.5,,29.99,1016.0,,,,,,,,,,,,,,,,700.0,700.0,OVC,700.0,,,,,,
KRDR,08-23-2014,18:48,SPECI,Normal,20,9.0,,,9999.0,,19.0,19.0,30.00,,,,,,,,,,,,,,,,,700.0,700.0,OVC,700.0,,,,,,
KRDR,08-23-2014,18:38,SPECI,Normal,20,8.0,,,9999.0,,19.0,19.0,30.00,,,,,,,,,,,,,,,,,600.0,600.0,OVC,600.0,,,,,,
KRDR,08-23-2014,18:23,SPECI,Normal,40,7.0,,,9999.0,,18.0,18.0,30.01,,,,,,,,,,,,,,,,,500.0,500.0,OVC,500.0,,,,,,
KRDR,08-23-2014,18:08,SPECI,Normal,30,8.0,,,9999.0,,18.0,18.0,30.01,,,,,,,,,,,,,,,,,400.0,400.0,OVC,400.0,,,,,,
KRDR,08-23-2014,17:58,METAR,Normal,30,7.0,,,9999.0,,17.6,17.6,30.02,1017.0,,,,,,,,,,,,,TRACE,,,300.0,300.0,OVC,300.0,,,,,,
KRDR,08-23-2014,16:58,METAR,Normal,30,9.0,,,9999.0,Mist,16.5,,30.04,1017.7,10,,,,,,,,,,,,,,,200.0,200.0,OVC,200.0,,,,,,
KRDR,08-23-2014,15:58,METAR,Normal,40,9.0,,,9999.0,,15.7,,30.04,1017.8,,,,,,,,,,,,,,,,200.0,200.0,OVC,200.0,,,,,,
KRDR,08-23-2014,15:13,SPECI,Normal,20,8.0,,,4800.0,Mist,15.0,15.0,30.05,,10,,,,,,,,,,,,,,,200.0,200.0,OVC,200.0,,,,,,
KRDR,08-23-2014,15:08,SPECI,Normal,30,8.0,,,3200.0,Mist,15.0,15.0,30.05,,10,,,,,,,,,,,,,,,200.0,200.0,OVC,200.0,,,,,,
KRDR,08-23-2014,15:03,SPECI,Normal,30,9.0,,,2000.0,Mist,15.0,15.0,30.05,,10,,,,,,,,,,,,,,,200.0,200.0,OVC,200.0,,,,,,
KRDR,08-23-2014,14:58,METAR,Normal,30,10.0,,,1600.0,Mist,15.1,15.1,30.05,1018.1,10,,,,,,,,,,,TRACE,,,Sky Obscured (Unable to Estimate),200.0,200.0,,200.0,,,,,,
KRDR,08-23-2014,14:53,SPECI,Normal,30,9.0,,,1600.0,Mist,15.0,15.0,30.05,,10,,,,,,,,,,,,,,Sky Obscured (Unable to Estimate),200.0,200.0,,200.0,,,,,,
KRDR,08-23-2014,14:43,SPECI,Normal,30,10.0,,,1200.0,Mist,15.0,15.0,30.05,,10,,,,,,,,,,,,,,Sky Obscured (Unable to Estimate),200.0,200.0,,200.0,,,,,,
KRDR,08-23-2014,14:38,SPECI,Normal,30,9.0,,,800.0,Fog,15.0,15.0,30.05,,30,,,,,,,,,,,,,,Sky Obscured (Unable to Estimate),200.0,200.0,,200.0,,,,,,
KRDR,08-23-2014,14:33,SPECI,Normal,30,7.0,,,1200.0,Mist,15.0,15.0,30.06,,10,,,,,,,,,,,,,,Sky Obscured (Unable to Estimate),200.0,200.0,,200.0,,,,,,
KRDR,08-23-2014,14:28,SPECI,Normal,30,9.0,,,1200.0,Mist,15.0,15.0,30.06,,10,,,,,,,,,,,,,,Sky Obscured (Unable to Estimate),200.0,200.0,,200.0,,,,,,
KRDR,08-23-2014,14:23,SPECI,Normal,30,9.0,,,1600.0,Mist,15.0,15.0,30.06,,10,,,,,,,,,,,,,,,200.0,200.0,OVC,200.0,,,,,,
KRDR,08-23-2014,14:18,SPECI,Normal,30,10.0,,,1600.0,Mist,15.0,15.0,30.06,,10,,,,,,,,,,,,,,,200.0,200.0,OVC,200.0,,,,,,
KRDR,08-23-2014,14:13,SPECI,Normal,30,11.0,,,2000.0,Mist,15.0,15.0,30.06,,10,,,,,,,,,,,,,,,200.0,200.0,OVC,200.0,,,,,,
KRDR,08-23-2014,14:08,SPECI,Normal,30,9.0,,,3200.0,Mist,15.0,15.0,30.06,,10,,,,,,,,,,,,,,,200.0,200.0,OVC,200.0,,,,,,
KRDR,08-23-2014,13:58,METAR,Normal,30,9.0,,,6400.0,Mist,14.6,,30.06,1018.4,10,,,,,,,,,,,,,,,200.0,200.0,OVC,200.0,,,,,,
KRDR,08-23-2014,13:23,SPECI,Normal,20,10.0,,,9999.0,,15.0,15.0,30.06,,,,,,,,,,,,,,,,,300.0,300.0,OVC,300.0,,,,,,
KRDR,08-23-2014,12:58,METAR,Normal,30,11.0,,,9999.0,,14.6,,30.06,1018.4,,,,,,,,,,,TRACE,,,,,400.0,400.0,OVC,400.0,,,,,,
KRDR,08-23-2014,12:52,SPECI,Normal,30,11.0,,,9999.0,,15.0,15.0,30.06,,,,,,,,,,,,,,,,,400.0,400.0,OVC,400.0,,,,,,
KRDR,08-23-2014,12:12,SPECI,Normal,20,9.0,,,9999.0,,15.0,15.0,30.07,,,,,,,,,,,,,,,,,500.0,500.0,OVC,500.0,,,,,,
KRDR,08-23-2014,12:05,SPECI,Normal,30,9.0,,,9999.0,Light Drizzle,15.0,15.0,30.07,,51,,,,,,,,,,,,,,,500.0,500.0,OVC,500.0,,,,,,
KRDR,08-23-2014,11:58,METAR,Normal,20,10.0,,,9999.0,,14.7,,30.07,1018.7,,,,,,,,,,,.07 IN,,.13 IN,.13 IN,,500.0,500.0,OVC,500.0,,,,,,
KRDR,08-23-2014,11:49,SPECI,Normal,30,9.0,,,9999.0,,15.0,15.0,30.08,,,,,,,,,,,,,,,,,500.0,500.0,OVC,500.0,,,,,,
KRDR,08-23-2014,11:48,SPECI,Normal,30,10.0,,,9999.0,Light Drizzle,15.0,15.0,30.08,,51,,,,,,,,,,,,,,,500.0,500.0,OVC,500.0,,,,,,
KRDR,08-23-2014,11:38,SPECI,Normal,30,10.0,,,8000.0,Light Rain/Mist,15.0,15.0,30.07,,61,10,,,,,,,,,,,,,,400.0,400.0,OVC,400.0,,,,,,
KRDR,08-23-2014,11:33,SPECI,Normal,30,11.0,,,4800.0,Light Rain/Mist,15.0,15.0,30.07,,61,10,,,,,,,,,,,,,,400.0,400.0,OVC,400.0,,,,,,
KRDR,08-23-2014,11:28,SPECI,Normal,20,13.0,,,4000.0,Rain/Mist,15.0,15.0,30.07,,62,10,,,,,,,,,,,,,,400.0,400.0,OVC,400.0,,,,,,
KRDR,08-23-2014,11:18,SPECI,Normal,30,10.0,,,4800.0,Light Rain/Mist,15.0,15.0,30.07,,61,10,,,,,,,,,,,,,,400.0,400.0,OVC,400.0,,,,,,
KRDR,08-23-2014,11:13,SPECI,Normal,30,13.0,,,4800.0,Light Rain/Mist,15.0,15.0,30.07,,61,10,,,,,,,,,,,,,,500.0,500.0,OVC,500.0,,,,,,
KRDR,08-23-2014,11:08,SPECI,Normal,30,10.0,,,8000.0,Light Rain/Mist,15.0,15.0,30.06,,61,10,,,,,,,,,,,,,,500.0,500.0,OVC,500.0,,,,,,
KRDR,08-23-2014,11:03,SPECI,Normal,30,10.0,,,9999.0,Light Drizzle,15.0,15.0,30.06,,51,,,,,,,,,,,,,,,500.0,500.0,OVC,500.0,,,,,,
KRDR,08-23-2014,10:58,METAR,Normal,30,9.0,,,9999.0,Light Rain/Mist,15.0,,30.07,1018.7,61,10,,,,,,,,,.04 IN,,,,,500.0,500.0,OVC,500.0,,,,,,
KRDR,08-23-2014,10:48,SPECI,Normal,30,12.0,,,4800.0,Light Rain/Mist,15.0,15.0,30.06,,61,10,,,,,,,,,,,,,,500.0,500.0,OVC,500.0,,,,,,
KRDR,08-23-2014,10:43,SPECI,Normal,30,10.0,,,4800.0,Light Rain/Mist,15.0,15.0,30.06,,61,10,,,,,,,,,,,,,,500.0,500.0,OVC,500.0,,,,,,
KRDR,08-23-2014,10:38,SPECI,Normal,30,12.0,,,4800.0,Light Rain/Mist,15.0,15.0,30.06,,61,10,,,,,,,,,,,,,,500.0,500.0,OVC,500.0,,,,,,
KRDR,08-23-2014,10:33,SPECI,Normal,30,11.0,18.0,,4000.0,Light Rain/Mist,15.0,15.0,30.06,,61,10,,,,,,,,,,,,,,500.0,500.0,OVC,500.0,,,,,,
KRDR,08-23-2014,10:28,SPECI,Normal,30,12.0,18.0,,4800.0,Light Rain/Mist,15.0,15.0,30.06,,61,10,,,,,,,,,,,,,,500.0,500.0,OVC,500.0,,,,,,
KRDR,08-23-2014,10:23,SPECI,Normal,30,11.0,,,8000.0,Light Rain/Mist,15.0,15.0,30.06,,61,10,,,,,,,,,,,,,,600.0,600.0,OVC,600.0,,,,,,
KRDR,08-23-2014,10:08,SPECI,Normal,30,13.0,,,9999.0,Light Drizzle,15.0,15.0,30.06,,51,,,,,,,,,,,,,,,600.0,600.0,OVC,600.0,,,,,,
KRDR,08-23-2014,09:58,METAR,Normal,30,12.0,,,9999.0,Light Drizzle,15.5,,30.06,1018.4,51,,,,,,,,,,.01 IN,,,,,500.0,500.0,OVC,500.0,,,,,,
KRDR,08-23-2014,09:42,SPECI,Normal,20,12.0,,,9999.0,Light Rain/Mist,16.0,16.0,30.07,,61,10,,,,,,,,,,,,,,500.0,500.0,OVC,500.0,,,,,,
KRDR,08-23-2014,09:41,SPECI,Normal,20,13.0,,,9999.0,Mist,16.0,16.0,30.07,,10,,,,,,,,,,,,,,,500.0,500.0,OVC,500.0,,,,,,
KRDR,08-23-2014,09:34,SPECI,Normal,20,13.0,,,9999.0,Light Rain/Mist,16.0,16.0,30.07,,61,10,,,,,,,,,,,,,,500.0,500.0,OVC,500.0,,,,,,
KRDR,08-23-2014,09:24,SPECI,Normal,20,13.0,,,9999.0,Light Drizzle,16.0,16.0,30.07,,51,,,,,,,,,,,,,,,600.0,600.0,OVC,600.0,,,,,,
KRDR,08-23-2014,09:19,SPECI,Normal,20,11.0,,,9999.0,Light Drizzle,16.0,16.0,30.07,,51,,,,,,,,,,,,,,,600.0,600.0,OVC,600.0,,,,,,
KRDR,08-23-2014,09:08,SPECI,Normal,20,10.0,,,9999.0,,16.0,16.0,30.08,,,,,,,,,,,,,,,,,600.0,600.0,OVC,600.0,,,,,,
KRDR,08-23-2014,08:58,METAR,Normal,10,12.0,,,9999.0,,16.2,,30.07,1018.7,,,,,,,,,,,TRACE,.01 IN,,,,500.0,500.0,OVC,500.0,,,,,,
KRDR,08-23-2014,08:11,SPECI,Normal,20,9.0,,,9999.0,,16.0,16.0,30.08,,,,,,,,,,,,,,,,,500.0,500.0,OVC,500.0,,,,,,
KRDR,08-23-2014,07:58,METAR,Normal,20,10.0,,,9999.0,Light Drizzle/Mist,16.4,,30.08,1019.0,51,10,,,,,,,,,TRACE,,,,,500.0,500.0,OVC,500.0,,,,,,
KRDR,08-23-2014,07:47,SPECI,Normal,20,10.0,,,9999.0,Light Drizzle,16.0,16.0,30.08,,51,,,,,,,,,,,,,,,500.0,500.0,OVC,500.0,,,,,,
KRDR,08-23-2014,07:23,SPECI,Normal,20,8.0,,,9999.0,,16.0,16.0,30.09,,,,,,,,,,,,,,,,,500.0,500.0,OVC,500.0,,,,,,
KRDR,08-23-2014,06:58,METAR,Normal,10,8.0,,,9999.0,,16.4,,30.09,1019.4,,,,,,,,,,,.01 IN,,,,,600.0,600.0,OVC,600.0,,,,,,
KRDR,08-23-2014,06:56,SPECI,Normal,20,9.0,,,9999.0,,16.0,16.0,30.09,,,,,,,,,,,,,,,,,600.0,600.0,OVC,600.0,,,,,,
KRDR,08-23-2014,06:36,SPECI,Normal,20,10.0,,,9999.0,Light Drizzle,16.0,16.0,30.09,,51,,,,,,,,,,,,,,,600.0,600.0,OVC,600.0,,,,,,
KRDR,08-23-2014,06:31,SPECI,Normal,20,10.0,,,9999.0,,16.0,16.0,30.09,,,,,,,,,,,,,,,,,600.0,600.0,OVC,600.0,,,,,,
KRDR,08-23-2014,06:17,SPECI,Normal,20,8.0,,,9999.0,Light Drizzle,17.0,17.0,30.10,,51,,,,,,,,,,,,,,,600.0,600.0,OVC,600.0,,,,,,
KRDR,08-23-2014,06:14,SPECI,Normal,20,7.0,,,9999.0,,17.0,17.0,30.11,,,,,,,,,,,,,,,,,600.0,600.0,BKN,600.0,OVC,1000.0,,,,
KRDR,08-23-2014,06:04,SPECI,Normal,20,8.0,,,9999.0,,17.0,17.0,30.11,,,,,,,,,,,,,,,,,700.0,700.0,BKN,700.0,OVC,1100.0,,,,
KRDR,08-23-2014,05:58,METAR,Normal,10,10.0,,,9999.0,Light Drizzle,16.6,,30.11,1020.1,51,,,,,,,,,,TRACE,,TRACE,,,700.0,700.0,OVC,700.0,,,,,,
KRDR,08-23-2014,05:55,SPECI,Normal,10,11.0,,,9999.0,Light Drizzle,17.0,17.0,30.11,,51,,,,,,,,,,,,,,,700.0,700.0,OVC,700.0,,,,,,
KRDR,08-23-2014,05:49,SPECI,Normal,10,9.0,,,9999.0,,17.0,17.0,30.11,,,,,,,,,,,,,,,,,800.0,800.0,BKN,800.0,OVC,1300.0,,,,
KRDR,08-23-2014,05:37,SPECI,Normal,10,9.0,,,9999.0,Light Rain,17.0,17.0,30.11,,61,,,,,,,,,,,,,,,700.0,900.0,BKN,900.0,OVC,1300.0,,,,
KRDR,08-23-2014,05:32,SPECI,Normal,10,10.0,,,8000.0,Light Rain/Mist,17.0,17.0,30.11,,61,10,,,,,,,,,,,,,,600.0,900.0,SCT,900.0,OVC,1200.0,,,,
KRDR,08-23-2014,05:21,SPECI,Normal,10,9.0,,,9999.0,Light Drizzle,18.0,17.0,30.11,,51,,,,,,,,,,,,,,,1300.0,1300.0,OVC,1300.0,,,,,,
KRDR,08-23-2014,05:18,SPECI,Normal,20,11.0,,,9999.0,,18.0,17.0,30.11,,,,,,,,,,,,,,,,,1300.0,1300.0,BKN,1300.0,OVC,1800.0,,,,
KRDR,08-23-2014,04:58,METAR,Normal,20,10.0,,,9999.0,,18.0,17.5,30.11,1020.0,,,,,,,,,,,,,,,,1700.0,1700.0,OVC,1700.0,,,,,,
KRDR,08-23-2014,03:58,METAR,Normal,20,9.0,,,9999.0,,18.4,17.8,30.10,1019.7,,,,,,,,,,,,,,,,1500.0,1700.0,BKN,1700.0,OVC,3000.0,,,,
KRDR,08-23-2014,02:58,METAR,Normal,10,11.0,,,9999.0,,18.7,17.6,30.09,1019.3,,,,,,,,,,,,,,,,2000.0,2000.0,OVC,2000.0,,,,,,
KRDR,08-23-2014,01:58,METAR,Normal,10,11.0,,,9999.0,,19.5,17.7,30.08,1019.0,,,,,,,,,,,,,,,,1900.0,1900.0,OVC,1900.0,,,,,,
KRDR,08-23-2014,00:58,METAR,Normal,30,7.0,,,9999.0,,20.3,18.3,30.07,1018.6,,,,,,,,,,,,,,,,2500.0,2500.0,OVC,2500.0,,,,,,
KRDR,08-22-2014,23:58,METAR,Normal,20,7.0,,,9999.0,,21.1,18.8,30.06,1018.3,,,,,,,,,,,,,,,,2200.0,2200.0,OVC,2200.0,,,,,,
KRDR,08-22-2014,22:58,METAR,Normal,20,10.0,,,9999.0,,21.0,18.7,30.05,1017.9,,,,,,,,,,,,,,,,2100.0,2100.0,OVC,2100.0,,,,,,
KRDR,08-22-2014,22:16,SPECI,Normal,30,10.0,,,9999.0,,21.1,19.0,30.05,1017.9,,,,,,,,,,,,,,,,2000.0,2000.0,OVC,2000.0,,,,,,
KRDR,08-22-2014,21:58,METAR,Normal,30,8.0,,,9999.0,,21.1,19.0,30.05,1017.9,,,,,,,,,,,,,,,,1800.0,1800.0,OVC,1800.0,,,,,,
KRDR,08-22-2014,20:58,METAR,Normal,20,11.0,,,9999.0,,21.5,18.7,30.04,1017.5,,,,,,,,,,,,,,,,1800.0,1800.0,OVC,1800.0,,,,,,
KRDR,08-22-2014,20:18,SPECI,Normal,10,13.0,,,9999.0,,22.0,20.0,30.03,,,,,,,,,,,,,,,,,1500.0,1500.0,OVC,1500.0,,,,,,
KRDR,08-22-2014,19:58,METAR,Normal,10,13.0,,,9999.0,,21.0,19.5,30.03,1017.2,,,,,,,,,,,,,,,,1300.0,1300.0,OVC,1300.0,,,,,,
KRDR,08-22-2014,19:33,SPECI,Normal,10,11.0,,,9999.0,,20.0,20.0,30.03,,,,,,,,,,,,,,,,,1200.0,1200.0,OVC,1200.0,,,,,,
KRDR,08-22-2014,18:58,METAR,Normal,20,11.0,,,9999.0,,20.2,20.0,30.03,1017.2,,,,,,,,,,,,,,,,900.0,900.0,OVC,900.0,,,,,,
KRDR,08-22-2014,17:58,METAR,Normal,10,8.0,,,9999.0,,19.3,19.1,30.03,1017.3,,,,,,,,,,,,,,,,800.0,800.0,OVC,800.0,,,,,,
KRDR,08-22-2014,16:58,METAR,Normal,20,12.0,,,9999.0,,19.2,19.0,30.01,1016.6,,,,,,,,,,,,,,,,700.0,700.0,OVC,700.0,,,,,,
KRDR,08-22-2014,15:58,METAR,Normal,20,11.0,,,9999.0,,19.2,19.1,30.01,1016.6,,,,,,,,,,,,,,,,800.0,800.0,OVC,800.0,,,,,,
KRDR,08-22-2014,15:48,SPECI,Normal,10,10.0,,,9999.0,,19.0,19.0,30.01,,,,,,,,,,,,,,,,,700.0,700.0,OVC,700.0,,,,,,
KRDR,08-22-2014,15:08,SPECI,Normal,360,10.0,,,9999.0,,19.0,19.0,30.00,,,,,,,,,,,,,,,,,600.0,600.0,OVC,600.0,,,,,,
KRDR,08-22-2014,14:58,METAR,Normal,10,10.0,,,9999.0,,18.4,,30.00,1016.3,,,,,,,,,,,,,,,,500.0,500.0,OVC,500.0,,,,,,
KRDR,08-22-2014,14:08,SPECI,Normal,360,8.0,,,9999.0,,19.0,19.0,30.00,,,,,,,,,,,,,,,,,500.0,500.0,OVC,500.0,,,,,,
KRDR,08-22-2014,13:58,METAR,Normal,360,9.0,,,9999.0,,18.5,,29.99,1015.9,,,,,,,,,,,,,,,,400.0,400.0,OVC,400.0,,,,,,
KRDR,08-22-2014,13:53,SPECI,Normal,10,10.0,,,9999.0,,18.0,18.0,29.99,,,,,,,,,,,,,,,,,400.0,400.0,OVC,400.0,,,,,,
KRDR,08-22-2014,13:28,SPECI,Normal,350,9.0,,,9999.0,,19.0,19.0,29.99,,,,,,,,,,,,,,,,,300.0,300.0,OVC,300.0,,,,,,
KRDR,08-22-2014,12:58,METAR,Normal,360,8.0,,,9999.0,,19.1,,29.99,1015.8,,,,,,,,,,,,,,,,400.0,400.0,OVC,400.0,,,,,,
KRDR,08-22-2014,12:38,SPECI,Normal,360,8.0,,,9999.0,,19.0,19.0,29.99,,,,,,,,,,,,,,,,,400.0,400.0,OVC,400.0,,,,,,
KRDR,08-22-2014,11:58,METAR,Normal,10,7.0,,,9999.0,,19.2,19.2,29.98,1015.4,,,,,,,,,,,,,,.07 IN,,500.0,500.0,BKN,500.0,OVC,3700.0,,,,
KRDR,08-22-2014,11:54,SPECI,Normal,10,8.0,,,9999.0,,19.0,19.0,29.98,,,,,,,,,,,,,,,,,500.0,500.0,BKN,500.0,OVC,3600.0,,,,
KRDR,08-22-2014,11:49,SPECI,Normal,360,8.0,,,9999.0,,19.0,19.0,29.98,,,,,,,,,,,,,,,,,600.0,600.0,BKN,600.0,OVC,3600.0,,,,
KRDR,08-22-2014,11:44,SPECI,Normal,360,8.0,,,9999.0,,19.0,19.0,29.98,,,,,,,,,,,,,,,,,500.0,500.0,OVC,500.0,,,,,,
KRDR,08-22-2014,11:34,SPECI,Variable,360,9.0,,,9999.0,,19.0,19.0,29.97,,,,,,,,,,,,,,,,,600.0,600.0,OVC,600.0,,,,,,
KRDR,08-22-2014,11:14,SPECI,Normal,350,7.0,,,9999.0,,19.0,19.0,29.96,,,,,,,,,,,,,,,,,700.0,700.0,BKN,700.0,OVC,2300.0,,,,
KRDR,08-22-2014,10:59,SPECI,Normal,350,7.0,,,9999.0,,19.0,19.0,29.95,,,,,,,,,,,,,,,,,2200.0,700.0,FEW,700.0,BKN,2200.0,,,,
KRDR,08-22-2014,10:58,METAR,Normal,350,8.0,,,9999.0,,19.2,,29.95,1014.4,,,,,,,,,,,,,,,,2000.0,2000.0,BKN,2000.0,,,,,,
KRDR,08-22-2014,09:58,METAR,Variable,360,7.0,,,9999.0,,19.4,19.4,29.94,1014.1,,,,,,,,,,,,,,,,1600.0,700.0,SCT,700.0,OVC,1600.0,,,,
KRDR,08-22-2014,09:48,SPECI,Normal,360,7.0,,,9999.0,,19.0,19.0,29.94,,,,,,,,,,,,,,,,,700.0,700.0,SCT,700.0,OVC,1600.0,,,,
KRDR,08-22-2014,09:43,SPECI,Normal,350,7.0,,,9999.0,,19.0,19.0,29.94,,,,,,,,,,,,,,,,,600.0,700.0,BKN,700.0,OVC,1600.0,,,,
KRDR,08-22-2014,09:38,SPECI,Normal,360,6.0,,,9999.0,,19.0,19.0,29.93,,,,,,,,,,,,,,,,,600.0,700.0,SCT,700.0,OVC,1600.0,,,,
KRDR,08-22-2014,09:33,SPECI,Normal,360,6.0,,,9999.0,,19.0,19.0,29.93,,,,,,,,,,,,,,,,,600.0,600.0,BKN,600.0,OVC,1600.0,,,,
KRDR,08-22-2014,08:58,METAR,Normal,360,7.0,,,9999.0,,19.5,19.5,29.93,1013.7,,,,,,,,,,,,,,,,600.0,600.0,OVC,600.0,,,,,,
KRDR,08-22-2014,08:48,SPECI,Normal,360,8.0,,,9999.0,,20.0,20.0,29.93,,,,,,,,,,,,,,,,,500.0,500.0,OVC,500.0,,,,,,
KRDR,08-22-2014,08:08,SPECI,Normal,10,7.0,,,9999.0,,20.0,20.0,29.90,,,,,,,,,,,,,,,,,400.0,400.0,OVC,400.0,,,,,,
KRDR,08-22-2014,07:58,METAR,Normal,10,9.0,,,9999.0,,19.6,,29.90,1012.6,,,,,,,,,,,,,,,,500.0,500.0,BKN,500.0,OVC,2400.0,,,,
KRDR,08-22-2014,07:35,SPECI,Normal,360,7.0,,,9999.0,,20.0,20.0,29.90,,,,,,,,,,,,,,,,,600.0,600.0,BKN,600.0,BKN,1800.0,OVC,2400.0,,
KRDR,08-22-2014,07:10,SPECI,Normal,360,5.0,,,9999.0,,20.0,20.0,29.90,,,,,,,,,,,,,,,,,1600.0,800.0,FEW,800.0,OVC,1600.0,,,,
KRDR,08-22-2014,06:58,METAR,Normal,10,5.0,,,9999.0,,19.7,19.7,29.90,1012.7,,,,,,,,,,,,,,,,1600.0,1600.0,OVC,1600.0,,,,,,
KRDR,08-22-2014,06:43,SPECI,Normal,10,7.0,,,9999.0,,20.0,20.0,29.90,,,,,,,,,,,,,,,,,1500.0,1500.0,OVC,1500.0,,,,,,
KRDR,08-22-2014,06:23,SPECI,Normal,10,7.0,,,9999.0,,20.0,20.0,29.90,,,,,,,,,,,,,,,,,1400.0,1400.0,BKN,1400.0,,,,,,
KRDR,08-22-2014,06:18,SPECI,Normal,360,6.0,,,9999.0,,20.0,20.0,29.90,,,,,,,,,,,,,,,,,1500.0,1500.0,BKN,1500.0,,,,,,
KRDR,08-22-2014,05:58,METAR,Normal,360,7.0,,,9999.0,,19.5,19.5,29.89,1012.4,,,,,,,,,,,,,.07 IN,,,,1200.0,FEW,1200.0,SCT,3000.0,,,,
KRDR,08-22-2014,05:46,SPECI,Normal,10,6.0,,,9999.0,,20.0,20.0,29.89,,,,,,,,,,,,,,,,,2900.0,2900.0,BKN,2900.0,,,,,,
KRDR,08-22-2014,05:41,SPECI,Normal,20,5.0,,,9999.0,,20.0,20.0,29.89,,,,,,,,,,,,,,,,,3000.0,500.0,FEW,500.0,BKN,3000.0,,,,
KRDR,08-22-2014,05:11,SPECI,Normal,360,6.0,,,9999.0,,20.0,20.0,29.89,,,,,,,,,,,,,,,,,2700.0,500.0,FEW,500.0,BKN,2700.0,,,,
KRDR,08-22-2014,05:08,SPECI,Normal,360,5.0,,,9999.0,,19.0,19.0,29.88,,,,,,,,,,,,,,,,,2700.0,2700.0,BKN,2700.0,,,,,,
KRDR,08-22-2014,05:03,SPECI,Normal,10,4.0,,,9999.0,,19.0,19.0,29.88,,,,,,,,,,,,,,,,,,2700.0,SCT,2700.0,,,,,,
KRDR,08-22-2014,04:58,METAR,Normal,20,4.0,,,9999.0,,20.0,20.0,29.88,1012.0,,,,,,,,,,,,,,,,,2700.0,FEW,2700.0,,,,,,
KRDR,08-22-2014,04:38,SPECI,Normal,340,3.0,,,9999.0,,20.0,20.0,29.88,,,,,,,,,,,,,,,,Clear,72000.0,,,,,,,,,
KRDR,08-22-2014,04:28,SPECI,Normal,320,4.0,,,9999.0,,20.0,20.0,29.88,,,,,,,,,,,,,,,,,,3000.0,FEW,3000.0,,,,,,
KRDR,08-22-2014,04:08,SPECI,Normal,320,4.0,,,9999.0,,20.0,20.0,29.88,,,,,,,,,,,,,,,,,,3100.0,FEW,3100.0,,,,,,
KRDR,08-22-2014,04:03,SPECI,Normal,330,3.0,,,9999.0,,20.0,20.0,29.88,,,,,,,,,,,,,,,,,,3100.0,FEW,3100.0,SCT,6500.0,,,,
KRDR,08-22-2014,03:58,METAR,Normal,330,3.0,,,9999.0,,20.0,20.0,29.88,1012.1,,,,,,,,,,,,,,,,,3100.0,FEW,3100.0,SCT,6500.0,,,,
KRDR,08-22-2014,03:38,SPECI,Normal,300,4.0,,,9999.0,,20.0,20.0,29.88,,,,,,,,,,,,,,,,,6500.0,3000.0,FEW,3000.0,BKN,6500.0,,,,
KRDR,08-22-2014,03:28,SPECI,Calm,,0.0,,,9999.0,,21.0,21.0,29.88,,,,,,,,,,,,,,,,,6000.0,2600.0,SCT,2600.0,SCT,3600.0,BKN,6000.0,,
KRDR,08-22-2014,03:23,SPECI,Calm,,0.0,,,9999.0,,21.0,21.0,29.88,,,,,,,,,,,,,,,,,2500.0,2700.0,SCT,2700.0,BKN,3500.0,BKN,5500.0,,
KRDR,08-22-2014,02:58,METAR,Normal,300,2.0,,,9999.0,,20.2,20.2,29.89,1012.4,,,,,,,,,,,,.07 IN,,,,2400.0,2400.0,BKN,2400.0,OVC,6000.0,,,,
KRDR,08-22-2014,02:48,SPECI,Normal,290,3.0,,,9999.0,,20.0,20.0,29.88,,,,,,,,,,,,,,,,,2500.0,2500.0,BKN,2500.0,BKN,6000.0,,,,
KRDR,08-22-2014,01:58,METAR,Normal,90,2.0,,,9999.0,,21.2,21.2,29.86,1011.4,,,,,,,,,,,,,,,,,2500.0,FEW,2500.0,,,,,,
KRDR,08-22-2014,00:58,METAR,Normal,360,3.0,,,9999.0,,21.7,21.7,29.86,1011.3,,,,,,,,,,,.07 IN,,,,,,7000.0,FEW,7000.0,,,,,,
KRDR,08-22-2014,00:42,SPECI,Normal,20,6.0,,,9999.0,,22.0,22.0,29.85,,,,,,,,,,,,,,,,,,3600.0,FEW,3600.0,SCT,6500.0,,,,
KRDR,08-22-2014,00:13,SPECI,Normal,360,4.0,,,4800.0,Light Rain/Distant Lightning/Mist,23.0,23.0,29.84,,61,10,12,,,,,,,,,,,,,3700.0,2000.0,FEW,2000.0,OVC,3700.0,,,,
KRDR,08-22-2014,00:08,SPECI,Calm,,0.0,,,4000.0,Rain/Distant Lightning/Mist,24.0,23.0,29.84,,62,10,12,,,,,,,,,,,,,3900.0,2000.0,SCT,2000.0,BKN,3900.0,OVC,5000.0,,
KRDR,08-21-2014,23:58,METAR,Calm,,0.0,,,6400.0,Light Rain/Distant Lightning,24.0,21.0,29.84,1010.7,61,12,,,,,,,,,TRACE,,TRACE,,,3900.0,3900.0,BKN,3900.0,,,,,,
KRDR,08-21-2014,23:54,SPECI,Calm,,0.0,,,9999.0,Light Rain/Distant Lightning,24.0,21.0,29.84,,61,12,,,,,,,,,,,,,,3900.0,3900.0,BKN,3900.0,,,,,,
KRDR,08-21-2014,22:58,METAR,Normal,140,5.0,,,9999.0,,24.8,21.2,29.82,1009.9,,,,,,,,,,,,,,,,7500.0,3400.0,SCT,3400.0,SCT,4200.0,BKN,7500.0,,
KRDR,08-21-2014,21:58,METAR,Normal,90,3.0,,,9999.0,,24.8,21.3,29.82,1009.9,,,,,,,,,,,,,,,,,2100.0,FEW,2100.0,,,,,,
KRDR,08-21-2014,20:58,METAR,Normal,150,5.0,,,9999.0,,24.3,21.7,29.81,1009.6,,,,,,,,,,,,,,,,1900.0,1800.0,FEW,1800.0,SCT,2700.0,OVC,5000.0,,
KRDR,08-21-2014,20:48,SPECI,Normal,130,5.0,,,9999.0,,24.0,22.0,29.81,,,,,,,,,,,,,,,,,5000.0,2800.0,SCT,2800.0,OVC,5000.0,,,,
KRDR,08-21-2014,20:18,SPECI,Normal,140,4.0,,,9999.0,,25.0,22.0,29.81,,,,,,,,,,,,,,,,,1900.0,2000.0,SCT,2000.0,BKN,2600.0,OVC,3800.0,,
KRDR,08-21-2014,20:08,SPECI,Normal,120,4.0,,,9999.0,,25.0,22.0,29.80,,,,,,,,,,,,,,,,,3700.0,1900.0,FEW,1900.0,BKN,3700.0,OVC,4600.0,,
KRDR,08-21-2014,19:58,METAR,Variable,,4.0,,,9999.0,,24.6,21.1,29.80,1009.2,,,,,,,,,,,,,,,,2800.0,1800.0,SCT,1800.0,OVC,2800.0,,,,
KRDR,08-21-2014,19:43,SPECI,Normal,360,3.0,,,9999.0,,25.0,21.0,29.80,,,,,,,,,,,,,,,,,1700.0,1700.0,BKN,1700.0,OVC,4500.0,,,,
KRDR,08-21-2014,18:58,METAR,Normal,50,2.0,,,9999.0,,23.3,21.8,29.80,1009.3,,,,,,,,,,,,,,,,3200.0,1600.0,FEW,1600.0,BKN,3200.0,OVC,4100.0,,
KRDR,08-21-2014,17:58,METAR,Variable,,1.0,,,9999.0,,22.8,22.1,29.79,1009.0,,,,,,,,,,,,,,,,3000.0,1400.0,SCT,1400.0,OVC,3000.0,,,,
KRDR,08-21-2014,17:43,SPECI,Variable,,3.0,,,9999.0,,23.0,22.0,29.79,,,,,,,,,,,,,,,,,3000.0,1400.0,FEW,1400.0,OVC,3000.0,,,,
KRDR,08-21-2014,17:28,SPECI,Variable,,2.0,,,9999.0,,23.0,22.0,29.78,,,,,,,,,,,,,,,,,1400.0,1400.0,SCT,1400.0,OVC,2800.0,,,,
KRDR,08-21-2014,16:58,METAR,Normal,180,1.0,,,9999.0,,22.6,21.5,29.79,1009.0,,,,,,,,,,,,,,,,1200.0,1200.0,OVC,1200.0,,,,,,
KRDR,08-21-2014,16:48,SPECI,Normal,150,4.0,,,9999.0,,23.0,22.0,29.78,,,,,,,,,,,,,,,,,1200.0,1200.0,OVC,1200.0,,,,,,
KRDR,08-21-2014,15:58,METAR,Normal,90,3.0,,,9999.0,,22.3,21.4,29.78,1008.6,,,,,,,,,,,,,,,,1100.0,1100.0,OVC,1100.0,,,,,,
KRDR,08-21-2014,14:58,METAR,Normal,90,5.0,,,9999.0,,21.3,20.7,29.78,1008.6,,,,,,,,,,,,,,,,1100.0,1100.0,BKN,1100.0,OVC,1900.0,,,,
KRDR,08-21-2014,14:52,SPECI,Normal,70,4.0,,,9999.0,,21.0,21.0,29.78,,,,,,,,,,,,,,,,,1100.0,1100.0,BKN,1100.0,OVC,1900.0,,,,
KRDR,08-21-2014,14:42,SPECI,Normal,130,6.0,,,9999.0,,21.0,21.0,29.78,,,,,,,,,,,,,,,,,1200.0,1200.0,BKN,1200.0,OVC,1900.0,,,,
KRDR,08-21-2014,14:17,SPECI,Normal,80,6.0,,,9999.0,,22.0,21.0,29.77,,,,,,,,,,,,,,,,,2000.0,1100.0,FEW,1100.0,OVC,2000.0,,,,
KRDR,08-21-2014,13:58,METAR,Normal,90,6.0,,,9999.0,,20.8,20.5,29.77,1008.2,,,,,,,,,,,,,,,,1900.0,1900.0,OVC,1900.0,,,,,,
KRDR,08-21-2014,12:58,METAR,Normal,90,3.0,,,9999.0,,20.5,20.4,29.78,1008.6,,,,,,,,,,,,,,,,1600.0,1600.0,OVC,1600.0,,,,,,
KRDR,08-21-2014,11:58,METAR,Normal,100,2.0,,,9999.0,,19.9,19.7,29.78,1008.5,,,,,,,,,,,,,,,,1600.0,1600.0,OVC,1600.0,,,,,,
KRDR,08-21-2014,11:18,SPECI,Normal,110,1.0,,,9999.0,,20.0,20.0,29.77,,,,,,,,,,,,,,,,,1700.0,1700.0,BKN,1700.0,OVC,11000.0,,,,
KRDR,08-21-2014,10:58,METAR,Normal,110,4.0,,,9999.0,,19.9,19.7,29.75,1007.5,,,,,,,,,,,,,,,,11000.0,11000.0,OVC,11000.0,,,,,,
KRDR,08-21-2014,09:58,METAR,Normal,120,4.0,,,9999.0,,20.2,20.1,29.74,1007.1,,,,,,,,,,,,,,,,12000.0,12000.0,BKN,12000.0,,,,,,
KRDR,08-21-2014,08:58,METAR,Normal,120,7.0,,,9999.0,,20.4,20.2,29.73,1006.8,,,,,,,,,,,,,,,,4300.0,3400.0,SCT,3400.0,BKN,4300.0,BKN,5000.0,,
KRDR,08-21-2014,07:58,METAR,Normal,120,9.0,,,9999.0,,20.1,19.9,29.72,1006.5,,,,,,,,,,,,,,,Clear,72000.0,,,,,,,,,
KRDR,08-21-2014,06:58,METAR,Normal,110,8.0,,,9999.0,,20.4,20.2,29.72,1006.5,,,,,,,,,,,,,,,Clear,72000.0,,,,,,,,,
KRDR,08-21-2014,05:58,METAR,Normal,130,8.0,,,9999.0,,21.2,21.0,29.78,1008.5,,,,,,,,,,,,,,,Clear,72000.0,,,,,,,,,
KRDR,08-21-2014,04:58,METAR,Normal,150,7.0,,,9999.0,,21.5,21.3,29.80,1009.2,,,,,,,,,,,,,,,Clear,72000.0,,,,,,,,,
KRDR,08-21-2014,03:58,METAR,Normal,130,6.0,,,9999.0,,21.4,21.2,29.79,1008.9,,,,,,,,,,,,,,,Clear,72000.0,,,,,,,,,
KRDR,08-21-2014,02:58,METAR,Normal,110,7.0,,,9999.0,,22.5,21.4,29.78,1008.6,,,,,,,,,,,,,,,Clear,72000.0,,,,,,,,,
KRDR,08-21-2014,01:58,METAR,Normal,120,8.0,,,9999.0,,23.5,21.7,29.77,1008.3,,,,,,,,,,,,,,,Clear,72000.0,,,,,,,,,
KRDR,08-21-2014,00:58,METAR,Normal,130,6.0,,,9999.0,,25.1,21.0,29.79,1009.0,,,,,,,,,,,,,,,,,3900.0,SCT,3900.0,,,,,,
KRDR,08-20-2014,23:58,METAR,Normal,150,9.0,,,9999.0,,26.8,20.8,29.78,1008.6,,,,,,,,,,,,,,,Clear,72000.0,,,,,,,,,
KRDR,08-20-2014,22:58,METAR,Normal,150,7.0,,,9999.0,,27.5,20.0,29.79,1008.9,,,,,,,,,,,,,,,Clear,72000.0,,,,,,,,,
KRDR,08-20-2014,21:58,METAR,Normal,140,10.0,,,9999.0,,28.3,20.2,29.78,1008.6,,,,,,,,,,,,,,,,,3900.0,SCT,3900.0,,,,,,
KRDR,08-20-2014,20:58,METAR,Normal,140,12.0,,,9999.0,,28.3,20.4,29.78,1008.6,,,,,,,,,,,,,,,Clear,72000.0,,,,,,,,,
KRDR,08-20-2014,19:58,METAR,Normal,140,11.0,,,9999.0,,28.3,20.1,29.79,1008.9,,,,,,,,,,,,,,,,,3700.0,SCT,3700.0,,,,,,
KRDR,08-20-2014,18:58,METAR,Normal,150,13.0,,,9999.0,,28.1,20.8,29.78,1008.6,,,,,,,,,,,,,,,,,3400.0,FEW,3400.0,,,,,,
KRDR,08-20-2014,17:58,METAR,Normal,150,14.0,,,9999.0,,27.4,20.3,29.79,1008.9,,,,,,,,,,,,,,,,,3300.0,FEW,3300.0,,,,,,
KRDR,08-20-2014,16:58,METAR,Normal,160,11.0,,,9999.0,,26.0,20.6,29.78,1008.6,,,,,,,,,,,,,,,Clear,72000.0,,,,,,,,,
KRDR,08-20-2014,15:58,METAR,Normal,140,8.0,,,9999.0,,24.9,20.7,29.78,1008.6,,,,,,,,,,,,,,,Clear,72000.0,,,,,,,,,
KRDR,08-20-2014,14:58,METAR,Normal,140,7.0,,,9999.0,,23.0,20.3,29.79,1009.0,,,,,,,,,,,,,,,Clear,72000.0,,,,,,,,,
KRDR,08-20-2014,13:58,METAR,Normal,160,7.0,,,9999.0,,19.8,19.6,29.79,1009.0,,,,,,,,,,,,,,,Clear,72000.0,,,,,,,,,
KRDR,08-20-2014,12:58,METAR,Normal,140,5.0,,,9999.0,,18.0,18.0,29.79,1009.0,,,,,,,,,,,,,,,Clear,72000.0,,,,,,,,,
KRDR,08-20-2014,11:58,METAR,Normal,120,4.0,,,9999.0,,16.0,16.0,29.78,1008.7,,,,,,,,,,,,,,,Clear,72000.0,,,,,,,,,
KRDR,08-20-2014,10:58,METAR,Normal,140,4.0,,,9999.0,,17.2,17.2,29.77,1008.3,,,,,,,,,,,,,,,Clear,72000.0,,,,,,,,,
KRDR,08-20-2014,09:58,METAR,Normal,150,4.0,,,9999.0,,17.2,17.2,29.77,1008.3,,,,,,,,,,,,,,,Clear,72000.0,,,,,,,,,
KRDR,08-20-2014,08:58,METAR,Normal,100,3.0,,,9999.0,,18.3,18.1,29.76,1007.9,,,,,,,,,,,,,,,Clear,72000.0,,,,,,,,,
KRDR,08-20-2014,07:58,METAR,Normal,150,4.0,,,9999.0,,17.9,17.8,29.77,1008.2,,,,,,,,,,,,,,,Clear,72000.0,,,,,,,,,
KRDR,08-20-2014,06:58,METAR,Normal,180,5.0,,,9999.0,,18.0,17.8,29.77,1008.3,,,,,,,,,,,,,,,Clear,72000.0,,,,,,,,,
KRDR,08-20-2014,05:58,METAR,Normal,150,4.0,,,9999.0,,19.1,18.9,29.77,1008.3,,,,,,,,,,,,,,,Clear,72000.0,,,,,,,,,
KRDR,08-20-2014,04:58,METAR,Normal,150,4.0,,,9999.0,,19.3,19.1,29.76,,,,,,,,,,,,,,,,Clear,72000.0,,,,,,,,,
KRDR,08-20-2014,03:58,METAR,Normal,130,6.0,,,9999.0,,20.7,19.5,29.76,,,,,,,,,,,,,,,,Clear,72000.0,,,,,,,,,
KRDR,08-20-2014,02:58,METAR,Normal,120,5.0,,,9999.0,,21.4,19.9,29.76,,,,,,,,,,,,,,,,Clear,72000.0,,,,,,,,,
KRDR,08-20-2014,01:58,METAR,Normal,110,5.0,,,9999.0,,22.6,20.2,29.75,,,,,,,,,,,,,,,,Clear,72000.0,,,,,,,,,
KRDR,08-20-2014,00:58,METAR,Normal,110,5.0,,,9999.0,,25.0,19.9,29.75,1007.6,,,,,,,,,,,,,,,Clear,72000.0,,,,,,,,,
KRDR,08-19-2014,23:58,METAR,Normal,90,5.0,,,9999.0,,26.4,18.5,29.74,1007.3,,,,,,,,,,,,,,,Clear,72000.0,,,,,,,,,
KRDR,08-19-2014,22:58,METAR,Normal,90,3.0,,,9999.0,,26.9,18.4,29.74,1007.3,,,,,,,,,,,,,,,Clear,72000.0,,,,,,,,,
KRDR,08-19-2014,21:58,METAR,Variable,,2.0,,,9999.0,,27.4,18.7,29.74,1007.3,,,,,,,,,,,,,,,Clear,72000.0,,,,,,,,,
KRDR,08-19-2014,20:58,METAR,Normal,20,4.0,,,9999.0,,26.9,19.0,29.75,1007.6,,,,,,,,,,,,,,,,3700.0,3700.0,BKN,3700.0,,,,,,
KRDR,08-19-2014,19:58,METAR,Variable,,4.0,,,9999.0,,26.7,19.5,29.75,1007.6,,,,,,,,,,,,,,,2/8 Mostly Clear,72000.0,3500.0,FEW,3500.0,,,,,,
KRDR,08-19-2014,18:58,METAR,Variable,,2.0,,,9999.0,,26.3,20.3,29.75,1007.6,,,,,,,,,,,,,,,,6000.0,2900.0,SCT,2900.0,SCT,3400.0,BKN,6000.0,,
KRDR,08-19-2014,18:14,SPECI,Normal,350,5.0,,,9999.0,,25.0,20.0,29.76,,,,,,,,,,,,,,,,4/8 Partly Cloudy,72000.0,2600.0,SCT,2600.0,,,,,,
KRDR,08-19-2014,18:08,SPECI,Variable,,2.0,,,9999.0,,25.0,20.0,29.76,,,,,,,,,,,,,,,,,2600.0,2600.0,BKN,2600.0,,,,,,
KRDR,08-19-2014,17:58,METAR,Normal,290,3.0,,,9999.0,,25.3,20.1,29.76,1008.0,,,,,,,,,,,,,,,2/8 Mostly Clear,72000.0,2400.0,FEW,2400.0,,,,,,
KRDR,08-19-2014,16:58,METAR,Variable,,3.0,,,9999.0,,24.5,20.3,29.77,1008.4,,,,,,,,,,,,,,,Clear,72000.0,,,,,,,,,
KRDR,08-19-2014,15:58,METAR,Normal,340,2.0,,,9999.0,,22.6,20.2,29.77,1008.4,,,,,,,,,,,,,,,Clear,72000.0,,,,,,,,,
KRDR,08-19-2014,14:58,METAR,Variable,,2.0,,,9999.0,,20.8,20.2,29.77,1008.4,,,,,,,,,,,,,,,Clear,72000.0,,,,,,,,,
KRDR,08-19-2014,13:58,METAR,Variable,,2.0,,,9999.0,,19.2,19.1,29.77,1008.4,,,,,,,,,,,,,,,Clear,72000.0,,,,,,,,,
KRDR,08-19-2014,12:58,METAR,Normal,270,4.0,,,9999.0,,17.2,17.1,29.76,1008.1,,,,,,,,,,,,,,,Clear,72000.0,,,,,,,,,
KRDR,08-19-2014,11:58,METAR,Normal,280,5.0,,,9999.0,,14.9,14.9,29.75,1007.8,,,,,,,,,,,,,,.19 IN,Clear,72000.0,,,,,,,,,
KRDR,08-19-2014,10:58,METAR,Normal,280,5.0,,,9999.0,,14.9,14.9,29.73,1007.0,,,,,,,,,,,,,,,Clear,72000.0,,,,,,,,,
KRDR,08-19-2014,10:48,SPECI,Normal,310,3.0,,,9999.0,,15.0,15.0,29.73,,,,,,,,,,,,,,,,Clear,72000.0,,,,,,,,,
KRDR,08-19-2014,09:58,METAR,Normal,300,4.0,,,9999.0,,15.5,15.5,29.72,1006.7,,,,,,,,,,,,,,,Clear,72000.0,,,,,,,,,
KRDR,08-19-2014,08:58,METAR,Normal,300,5.0,,,9999.0,,15.7,15.7,29.72,1006.7,,,,,,,,,,,,,,,Clear,72000.0,,,,,,,,,
KRDR,08-19-2014,07:58,METAR,Normal,270,5.0,,,9999.0,,15.7,15.7,29.71,1006.4,,,,,,,,,,,,,,,Clear,72000.0,,,,,,,,,
KRDR,08-19-2014,06:58,METAR,Normal,290,3.0,,,9999.0,,16.4,16.4,29.71,1006.3,,,,,,,,,,,,,,,Clear,72000.0,,,,,,,,,
KRDR,08-19-2014,05:58,METAR,Normal,260,4.0,,,9999.0,,16.0,16.0,29.71,1006.3,,,,,,,,,,,,,,,Clear,72000.0,,,,,,,,,
KRDR,08-19-2014,05:13,SPECI,Normal,270,2.0,,,9999.0,,16.0,16.0,29.72,,,,,,,,,,,,,,,,Clear,72000.0,,,,,,,,,
KRDR,08-19-2014,04:58,METAR,Normal,250,2.0,,,9999.0,,16.4,16.4,29.72,1006.8,,,,,,,,,,,,,,,Clear,72000.0,,,,,,,,,
KRDR,08-19-2014,04:43,SPECI,Normal,210,2.0,,,9999.0,,17.0,17.0,29.72,,,,,,,,,,,,,,,,Clear,72000.0,,,,,,,,,
KRDR,08-19-2014,04:18,SPECI,Normal,260,3.0,,,9999.0,,17.0,17.0,29.72,,,,,,,,,,,,,,,,Clear,72000.0,,,,,,,,,
KRDR,08-19-2014,04:03,SPECI,Calm,,0.0,,,9999.0,,18.0,18.0,29.72,,,,,,,,,,,,,,,,Clear,72000.0,,,,,,,,,
KRDR,08-19-2014,03:58,METAR,Calm,,0.0,,,9999.0,,17.3,17.3,29.72,1006.8,,,,,,,,,,,,,,,Clear,72000.0,,,,,,,,,
KRDR,08-19-2014,03:38,SPECI,Normal,240,2.0,,,9999.0,,17.0,17.0,29.72,,,,,,,,,,,,,,,,Clear,72000.0,,,,,,,,,
KRDR,08-19-2014,03:28,SPECI,Calm,,0.0,,,9999.0,,17.0,17.0,29.72,,,,,,,,,,,,,,,,Clear,72000.0,,,,,,,,,
KRDR,08-19-2014,02:58,METAR,Calm,,0.0,,,9999.0,,18.4,18.4,29.72,1006.7,,,,,,,,,,,,,,,Clear,72000.0,,,,,,,,,
KRDR,08-19-2014,02:43,SPECI,Normal,270,2.0,,,9999.0,,18.0,18.0,29.73,,,,,,,,,,,,,,,,Clear,72000.0,,,,,,,,,
KRDR,08-19-2014,01:58,METAR,Normal,300,3.0,,,9999.0,,19.0,19.0,29.72,1006.7,,,,,,,,,,,,,,,Clear,72000.0,,,,,,,,,
KRDR,08-19-2014,00:58,METAR,Normal,340,3.0,,,9999.0,,21.0,20.8,29.71,1006.3,,,,,,,,,,,,,,,Clear,72000.0,,,,,,,,,
KRDR,08-18-2014,23:58,METAR,Normal,320,5.0,,,9999.0,,23.7,19.6,29.71,1006.3,,,,,,,,,,,,,.04 IN,,Clear,72000.0,,,,,,,,,
KRDR,08-18-2014,22:58,METAR,Normal,340,9.0,,,9999.0,,23.8,19.4,29.71,1006.3,,,,,,,,,,,,,,,Clear,72000.0,,,,,,,,,
KRDR,08-18-2014,21:58,METAR,Normal,330,8.0,,,9999.0,,23.7,20.0,29.70,1005.9,,,,,,,,,,,,,,,Clear,72000.0,,,,,,,,,
KRDR,08-18-2014,20:58,METAR,Normal,330,6.0,,,9999.0,,21.8,21.4,29.71,1006.3,,,,,,,,,,,,.04 IN,,,2/8 Mostly Clear,72000.0,1300.0,FEW,1300.0,,,,,,
KRDR,08-18-2014,19:58,METAR,Normal,300,4.0,,,9999.0,Distant Lightning,19.5,19.4,29.72,1006.7,12,,,,,,,,,,.04 IN,,,,4/8 Partly Cloudy,72000.0,6000.0,FEW,6000.0,SCT,12000.0,,,,
KRDR,08-18-2014,19:52,SPECI,Normal,320,5.0,,,9999.0,Distant Lightning,19.0,19.0,29.72,,12,,,,,,,,,,,,,,4/8 Partly Cloudy,72000.0,6500.0,SCT,6500.0,,,,,,
KRDR,08-18-2014,19:48,SPECI,Normal,320,6.0,,,9999.0,Light Rain,19.0,19.0,29.72,,61,,,,,,,,,,,,,,4/8 Partly Cloudy,72000.0,7000.0,SCT,7000.0,,,,,,
KRDR,08-18-2014,19:26,SPECI,Normal,320,8.0,,,9999.0,Thunderstorm and Rain or Snow Showers/Mist,20.0,20.0,29.71,,92,10,,,,,,,,,,,,,,3400.0,300.0,FEW,300.0,BKN,3400.0,OVC,7500.0,,
KRDR,08-18-2014,19:21,SPECI,Normal,310,7.0,,,2000.0,Thunderstorm and Rain or Snow Showers/Mist,20.0,20.0,29.71,,92,10,,,,,,,,,,,,,,1600.0,400.0,SCT,400.0,BKN,1600.0,OVC,5500.0,,
KRDR,08-18-2014,19:16,SPECI,Normal,250,5.0,15.0,,1200.0,Thunderstorm and Rain or Snow Showers/Mist,21.0,21.0,29.71,,92,10,,,,,,,,,,,,,,1900.0,300.0,SCT,300.0,SCT,1600.0,BKN,2400.0,,
KRDR,08-18-2014,19:12,SPECI,Normal,310,8.0,15.0,,1600.0,Light Rain/Distant Lightning/Mist,22.0,21.0,29.71,,61,10,12,,,,,,,,,,,,,2500.0,300.0,SCT,300.0,SCT,2000.0,BKN,2800.0,,
KRDR,08-18-2014,19:07,SPECI,Normal,320,11.0,15.0,,3200.0,Light Drizzle/Distant Lightning/Mist,23.0,20.0,29.71,,51,10,12,,,,,,,,,,,,,2500.0,400.0,FEW,400.0,BKN,2500.0,BKN,3400.0,,
KRDR,08-18-2014,19:06,SPECI,Normal,340,9.0,,,4000.0,Light Drizzle/Distant Lightning,23.0,20.0,29.71,,51,12,,,,,,,,,,,,,,3400.0,2500.0,SCT,2500.0,BKN,3400.0,,,,
KRDR,08-18-2014,18:58,METAR,Normal,360,5.0,,,9999.0,,23.1,20.2,29.71,1006.3,,,,,,,,,,,,,,,,9000.0,2200.0,FEW,2200.0,SCT,3000.0,BKN,9100.0,,
KRDR,08-18-2014,17:58,METAR,Variable,,3.0,,,9999.0,,22.5,21.0,29.71,1006.3,,,,,,,,,,,,,.15 IN,,2/8 Mostly Clear,72000.0,800.0,FEW,800.0,,,,,,
KRDR,08-18-2014,17:28,SPECI,Variable,,2.0,,,9999.0,,20.0,20.0,29.72,,,,,,,,,,,,,,,,4/8 Partly Cloudy,72000.0,700.0,SCT,700.0,,,,,,
KRDR,08-18-2014,17:23,SPECI,Normal,280,3.0,,,9999.0,,20.0,20.0,29.72,,,,,,,,,,,,,,,,,600.0,700.0,BKN,700.0,BKN,12000.0,,,,
KRDR,08-18-2014,17:08,SPECI,Normal,270,2.0,,,9999.0,,20.0,20.0,29.72,,,,,,,,,,,,,,,,,500.0,600.0,BKN,600.0,,,,,,
KRDR,08-18-2014,17:03,SPECI,Normal,310,2.0,,,9999.0,,20.0,20.0,29.72,,,,,,,,,,,,,,,,,500.0,500.0,BKN,500.0,,,,,,
KRDR,08-18-2014,16:58,METAR,Normal,270,3.0,,,9999.0,,19.7,19.6,29.72,1006.7,,,,,,,,,,,,,,,,12000.0,500.0,SCT,500.0,BKN,12000.0,,,,
KRDR,08-18-2014,16:42,SPECI,Normal,310,3.0,,,9999.0,,19.0,19.0,29.72,,,,,,,,,,,,,,,,4/8 Partly Cloudy,72000.0,500.0,FEW,500.0,SCT,12000.0,,,,
KRDR,08-18-2014,15:58,METAR,Normal,110,2.0,,,9999.0,,18.6,18.6,29.72,1006.7,,,,,,,,,,,.12 IN,,,,,10000.0,10000.0,BKN,10000.0,BKN,12000.0,,,,
KRDR,08-18-2014,15:48,SPECI,Normal,150,2.0,,,9999.0,,19.0,19.0,29.73,,,,,,,,,,,,,,,,,10000.0,6000.0,FEW,6000.0,BKN,10000.0,,,,
KRDR,08-18-2014,15:04,SPECI,Normal,160,6.0,,,8000.0,Rain/Mist,19.0,19.0,29.73,,,,,61,10,,,,,,,,,,,7000.0,400.0,FEW,400.0,OVC,7000.0,,,,
KRDR,08-18-2014,15:03,SPECI,Normal,160,5.0,,,4800.0,Light Rain/Mist,19.0,19.0,29.73,,61,10,,,,,,,,,,,,,,6500.0,400.0,FEW,400.0,BKN,6500.0,OVC,8000.0,,
KRDR,08-18-2014,14:58,METAR,Normal,130,5.0,,,2800.0,Light Rain/Mist,19.0,19.0,29.72,1006.7,61,10,,,,,,,,,.03 IN,.03 IN,,,,6000.0,400.0,SCT,400.0,BKN,6000.0,OVC,8000.0,,
KRDR,08-18-2014,14:54,SPECI,Normal,110,3.0,,,2400.0,Light Rain/Mist,19.0,19.0,29.73,,61,10,,,,,,,,,,,,,,5500.0,400.0,SCT,400.0,BKN,5500.0,OVC,8000.0,,
KRDR,08-18-2014,14:51,SPECI,Normal,90,5.0,,,2800.0,Mist,19.0,19.0,29.73,,10,,,,,,,,,,,,,,,5500.0,500.0,SCT,500.0,BKN,5500.0,OVC,8000.0,,
KRDR,08-18-2014,14:41,SPECI,Normal,70,3.0,,,9999.0,Mist,19.0,19.0,29.72,,10,,,,,,,,,,,,,,,5500.0,600.0,FEW,600.0,BKN,5500.0,OVC,8000.0,,
KRDR,08-18-2014,13:58,METAR,Normal,40,3.0,,,9999.0,,19.3,19.3,29.73,1007.0,,,,,,,,,,,,,,,,5500.0,4300.0,FEW,4300.0,BKN,5500.0,BKN,8000.0,,
KRDR,08-18-2014,13:33,SPECI,Normal,330,4.0,,,9999.0,,19.0,19.0,29.73,,,,,,,,,,,,,,,,,6000.0,4400.0,FEW,4400.0,OVC,6000.0,,,,
KRDR,08-18-2014,13:32,SPECI,Normal,330,4.0,,,9999.0,,19.0,19.0,29.73,,,,,,,,,,,,,,,,,6000.0,6000.0,OVC,6000.0,,,,,,
KRDR,08-18-2014,12:58,METAR,Normal,180,6.0,,,9999.0,,17.9,17.9,29.72,1006.6,,,,,,,,,,,,,,,4/8 Partly Cloudy,72000.0,6500.0,SCT,6500.0,SCT,11000.0,,,,
KRDR,08-18-2014,11:58,METAR,Normal,180,4.0,,,9999.0,,17.3,17.3,29.73,1007.0,,,,,,,,,,,,,.14 IN,.56 IN,2/8 Mostly Clear,72000.0,8000.0,FEW,8000.0,,,,,,
KRDR,08-18-2014,10:58,METAR,Normal,190,8.0,,,9999.0,,18.2,,29.73,1006.9,,,,,,,,,,,.01 IN,,,,,9000.0,9000.0,BKN,9100.0,BKN,12000.0,,,,
KRDR,08-18-2014,10:12,SPECI,Normal,180,7.0,,,9999.0,,18.0,18.0,29.74,,,,,,,,,,,,,,,,,9500.0,9500.0,OVC,9600.0,,,,,,
KRDR,08-18-2014,09:58,METAR,Normal,160,8.0,,,9999.0,Light Rain,18.3,18.3,29.74,1007.2,61,,,,,,,,,,.13 IN,,,,,9000.0,9000.0,OVC,9100.0,,,,,,
KRDR,08-18-2014,09:53,SPECI,Normal,160,9.0,,,9999.0,Light Rain,18.0,18.0,29.73,,61,,,,,,,,,,,,,,,9000.0,200.0,FEW,200.0,OVC,9100.0,,,,
KRDR,08-18-2014,09:43,SPECI,Normal,180,8.0,,,9999.0,Thunderstorm and Rain or Snow Showers,18.0,18.0,29.74,,92,,,,,,,,,,,,,,,9000.0,300.0,FEW,300.0,SCT,6500.0,OVC,9100.0,,
KRDR,08-18-2014,09:38,SPECI,Normal,180,8.0,,,6400.0,Thunderstorm and Rain or Snow Showers/Mist,18.0,18.0,29.74,,92,10,,,,,,,,,,,,,,6500.0,300.0,FEW,300.0,BKN,6500.0,OVC,8000.0,,
KRDR,08-18-2014,09:31,SPECI,Normal,180,6.0,,,4800.0,Light Rain/Distant Lightning/Mist,18.0,18.0,29.75,,61,10,12,,,,,,,,,,,,,7000.0,900.0,SCT,900.0,SCT,4800.0,OVC,7000.0,,
KRDR,08-18-2014,09:29,SPECI,Normal,180,6.0,,,6400.0,Distant Lightning/Mist,18.0,18.0,29.75,,10,12,,,,,,,,,,,,,,6500.0,1000.0,SCT,1000.0,BKN,6500.0,OVC,8000.0,,
KRDR,08-18-2014,09:22,SPECI,Normal,190,4.0,,,9999.0,Light Rain/Distant Lightning/Mist,18.0,18.0,29.75,,61,10,12,,,,,,,,,,,,,6500.0,1000.0,FEW,1000.0,BKN,6500.0,OVC,10000.0,,
KRDR,08-18-2014,09:10,SPECI,Normal,110,3.0,,,9999.0,Light Drizzle/Distant Lightning,17.0,17.0,29.75,,51,12,,,,,,,,,,,,,,10000.0,6500.0,SCT,6500.0,BKN,10000.0,BKN,12000.0,,
KRDR,08-18-2014,08:58,METAR,Normal,90,4.0,,,9999.0,,17.4,17.4,29.74,1007.2,,,,,,,,,,,,,,,,12000.0,10000.0,SCT,10000.0,BKN,12000.0,,,,
KRDR,08-18-2014,08:28,SPECI,Normal,340,2.0,,,9999.0,,17.0,17.0,29.74,,,,,,,,,,,,,,,,,9000.0,9000.0,BKN,9100.0,OVC,11000.0,,,,
KRDR,08-18-2014,08:03,SPECI,Normal,190,2.0,,,9999.0,,17.0,17.0,29.74,,,,,,,,,,,,,,,,4/8 Partly Cloudy,72000.0,8500.0,FEW,8600.0,SCT,11000.0,,,,
KRDR,08-18-2014,07:58,METAR,Normal,160,2.0,,,9999.0,,16.7,16.7,29.74,1007.4,,,,,,,,,,,,,,,2/8 Mostly Clear,72000.0,8500.0,FEW,8600.0,,,,,,
KRDR,08-18-2014,06:58,METAR,Normal,180,7.0,,,9999.0,,16.9,16.9,29.75,1007.8,,,,,,,,,,,,,,,2/8 Mostly Clear,72000.0,11000.0,FEW,11000.0,,,,,,
KRDR,08-18-2014,05:58,METAR,Normal,170,9.0,,,9999.0,,17.7,,29.76,1008.0,,,,,,,,,,,.06 IN,,.4 IN,,Clear,72000.0,,,,,,,,,
KRDR,08-18-2014,05:34,SPECI,Normal,180,10.0,,,9999.0,,18.0,18.0,29.77,,,,,,,,,,,,,,,,4/8 Partly Cloudy,72000.0,8500.0,SCT,8600.0,,,,,,
KRDR,08-18-2014,05:18,SPECI,Normal,180,9.0,,,9999.0,Light Rain,18.0,18.0,29.80,,61,,,,,,,,,,,,,,,9000.0,9000.0,OVC,9100.0,,,,,,
KRDR,08-18-2014,04:58,METAR,Normal,140,9.0,,,9999.0,Light Rain,17.9,17.9,29.80,1009.5,61,,,,,,,,,,.34 IN,,,,,9000.0,9000.0,OVC,9100.0,,,,,,
KRDR,08-18-2014,04:57,SPECI,Normal,140,8.0,,,9999.0,Light Rain,18.0,18.0,29.80,,61,,,,,,,,,,,,,,,9000.0,9000.0,OVC,9100.0,,,,,,
KRDR,08-18-2014,04:52,SPECI,Normal,160,10.0,,,9999.0,Light Rain,18.0,18.0,29.80,,61,,,,,,,,,,,,,,,9000.0,9000.0,OVC,9100.0,,,,,,
KRDR,08-18-2014,04:32,SPECI,Normal,160,8.0,,,9999.0,Light Rain,18.0,18.0,29.82,,61,,,,,,,,,,,,,,,8000.0,6500.0,FEW,6500.0,OVC,8000.0,,,,
KRDR,08-18-2014,04:22,SPECI,Normal,180,14.0,,,8000.0,Thunderstorm and Rain or Snow Showers/Mist,18.0,18.0,29.84,,92,10,,,,,,,,,,,,,,6500.0,500.0,FEW,500.0,OVC,6500.0,,,,
KRDR,08-18-2014,04:17,SPECI,Normal,190,13.0,,,9999.0,Heavy Thunderstorm and Rain or Snow Showers/Mist,18.0,18.0,29.85,,95,10,,,,,,,,,,,,,,6500.0,600.0,FEW,600.0,OVC,6500.0,,,,
KRDR,08-18-2014,04:13,SPECI,Normal,170,11.0,,,8000.0,Light Rain/Distant Lightning/Mist,18.0,18.0,29.85,,61,10,12,,,,,,,,,,,,,6000.0,600.0,FEW,600.0,SCT,3200.0,OVC,6000.0,,
KRDR,08-18-2014,04:08,SPECI,Normal,220,9.0,,,6400.0,Light Rain/Distant Lightning/Mist,18.0,18.0,29.87,,61,10,12,,,,,,,,,,,,,5500.0,400.0,FEW,400.0,SCT,1700.0,OVC,5500.0,,
KRDR,08-18-2014,03:58,METAR,Normal,120,6.0,,,9999.0,Light Rain/Distant Lightning,18.2,18.1,29.84,1010.9,61,12,,,,,,,,,TRACE,,,,,3200.0,400.0,SCT,400.0,BKN,3200.0,OVC,6000.0,,
KRDR,08-18-2014,03:57,SPECI,Normal,120,6.0,,,9999.0,Light Rain/Distant Lightning,18.0,18.0,29.84,,61,12,,,,,,,,,,,,,,3200.0,400.0,SCT,400.0,BKN,3200.0,OVC,6000.0,,
KRDR,08-18-2014,03:52,SPECI,Normal,70,7.0,,,9999.0,Mist,18.0,18.0,29.84,,10,,,,,,,,,,,,,,,3100.0,400.0,SCT,400.0,BKN,3100.0,OVC,6000.0,,
KRDR,08-18-2014,03:47,SPECI,Normal,40,7.0,,,8000.0,Mist,18.0,18.0,29.83,,10,,,,,,,,,,,,,,,1500.0,400.0,SCT,400.0,BKN,1500.0,OVC,5500.0,,
KRDR,08-18-2014,03:42,SPECI,Normal,30,2.0,,,8000.0,Light Rain/Mist,18.0,18.0,29.84,,61,10,,,,,,,,,,,,,,1500.0,400.0,SCT,400.0,BKN,1500.0,OVC,4400.0,,
KRDR,08-18-2014,03:37,SPECI,Normal,270,4.0,,,6400.0,Light Rain/Mist,19.0,18.0,29.85,,61,10,,,,,,,,,,,,,,1500.0,400.0,SCT,400.0,BKN,1500.0,OVC,3000.0,,
KRDR,08-18-2014,03:27,SPECI,Normal,290,15.0,22.0,,2400.0,Light Drizzle/Distant Lightning,20.0,17.0,29.88,,51,12,,,,,,,,,,,,,,2400.0,300.0,FEW,300.0,BKN,2900.0,OVC,3600.0,,
KRDR,08-18-2014,03:22,SPECI,Normal,310,10.0,,,6400.0,Light Rain/Distant Lightning,20.0,17.0,29.88,,61,12,,,,,,,,,,,,,,2400.0,500.0,FEW,500.0,BKN,2600.0,OVC,3300.0,,
KRDR,08-18-2014,03:13,SPECI,Normal,320,6.0,,,9999.0,,20.0,17.0,29.87,,,,,,,,,,,,,,,,,2400.0,1400.0,FEW,1400.0,BKN,2400.0,OVC,11000.0,,
KRDR,08-18-2014,02:58,METAR,Variable,350,11.0,,,9999.0,,21.5,21.1,29.87,1011.8,,,,,,,,,,,,,,,,4200.0,1300.0,SCT,1300.0,BKN,4200.0,OVC,11000.0,,
KRDR,08-18-2014,01:58,METAR,Normal,150,9.0,,,9999.0,,22.2,21.7,29.81,1009.7,,,,,,,,,,,,,,,Clear,72000.0,,,,,,,,,
KRDR,08-18-2014,00:58,METAR,Normal,140,9.0,,,9999.0,,23.8,21.7,29.81,1009.7,,,,,,,,,,,,,,,Clear,72000.0,,,,,,,,,
KRDR,08-17-2014,23:58,METAR,Normal,140,10.0,,,9999.0,,24.8,21.6,29.82,1010.0,,,,,,,,,,,,,,,Clear,72000.0,,,,,,,,,
KRDR,08-17-2014,23:28,SPECI,Normal,140,9.0,,,9999.0,,25.0,22.0,29.82,,,,,,,,,,,,,,,,,3000.0,3000.0,BKN,3000.0,BKN,3600.0,,,,
KRDR,08-17-2014,23:23,SPECI,Normal,140,8.0,,,9999.0,,25.0,22.0,29.82,,,,,,,,,,,,,,,,,2800.0,2800.0,BKN,2800.0,BKN,3400.0,,,,
KRDR,08-17-2014,22:58,METAR,Normal,130,9.0,,,9999.0,,25.8,21.7,29.84,1010.7,,,,,,,,,,,,,,,4/8 Partly Cloudy,72000.0,2500.0,FEW,2500.0,SCT,3100.0,,,,
KRDR,08-17-2014,22:13,SPECI,Normal,110,7.0,,,9999.0,,26.0,22.0,29.86,,,,,,,,,,,,,,,,4/8 Partly Cloudy,72000.0,2000.0,FEW,2000.0,SCT,2500.0,SCT,3000.0,,
KRDR,08-17-2014,21:58,METAR,Normal,140,6.0,,,9999.0,,25.5,21.9,29.87,1011.7,,,,,,,,,,,,,,,,2000.0,2000.0,BKN,2000.0,OVC,2500.0,,,,
KRDR,08-17-2014,21:33,SPECI,Variable,,5.0,,,9999.0,,26.0,22.0,29.87,,,,,,,,,,,,,,,,,1800.0,1900.0,BKN,1900.0,BKN,4900.0,,,,
KRDR,08-17-2014,21:18,SPECI,Normal,100,6.0,,,9999.0,,25.0,22.0,29.88,,,,,,,,,,,,,,,,,4800.0,1700.0,SCT,1700.0,BKN,4800.0,,,,
KRDR,08-17-2014,21:13,SPECI,Variable,,4.0,,,9999.0,,25.0,22.0,29.88,,,,,,,,,,,,,,,,,1700.0,1700.0,BKN,1700.0,BKN,4800.0,,,,
KRDR,08-17-2014,21:03,SPECI,Normal,120,7.0,,,9999.0,,25.0,22.0,29.88,,,,,,,,,,,,,,,,4/8 Partly Cloudy,72000.0,1500.0,SCT,1500.0,,,,,,
KRDR,08-17-2014,20:58,METAR,Normal,120,6.0,,,9999.0,,24.7,21.7,29.88,1012.0,,,,,,,,,,,,,,,,1400.0,1400.0,BKN,1400.0,,,,,,
KRDR,08-17-2014,20:53,SPECI,Normal,110,7.0,,,9999.0,,25.0,22.0,29.88,,,,,,,,,,,,,,,,,1400.0,1400.0,BKN,1400.0,,,,,,
KRDR,08-17-2014,19:58,METAR,Variable,,3.0,,,9999.0,,22.4,21.5,29.91,1013.1,,,,,,,,,,,,,,,,3600.0,1200.0,SCT,1200.0,SCT,2900.0,OVC,3600.0,,
KRDR,08-17-2014,19:53,SPECI,Variable,,3.0,,,9999.0,,23.0,21.0,29.91,,,,,,,,,,,,,,,,,1100.0,1000.0,SCT,1000.0,BKN,2900.0,OVC,3600.0,,
KRDR,08-17-2014,18:58,METAR,Normal,170,3.0,,,9999.0,,21.4,20.9,29.92,1013.5,,,,,,,,,,,,,,,,1000.0,1000.0,OVC,1000.0,,,,,,
KRDR,08-17-2014,18:53,SPECI,Normal,180,3.0,,,9999.0,,21.0,21.0,29.92,,,,,,,,,,,,,,,,,1000.0,1000.0,OVC,1000.0,,,,,,
KRDR,08-17-2014,18:03,SPECI,Variable,,4.0,,,9999.0,,21.0,21.0,29.93,,,,,,,,,,,,,,,,,700.0,700.0,OVC,700.0,,,,,,
KRDR,08-17-2014,17:58,METAR,Variable,,2.0,,,9999.0,,21.0,20.8,29.92,1013.5,,,,,,,,,,,,,.02 IN,,,600.0,600.0,OVC,600.0,,,,,,
KRDR,08-17-2014,16:58,METAR,Normal,140,2.0,,,9999.0,,19.5,19.3,29.94,1014.2,,,,,,,,,,,,,,,,600.0,600.0,OVC,600.0,,,,,,
KRDR,08-17-2014,16:43,SPECI,Normal,100,1.0,,,9999.0,,19.0,19.0,29.94,,,,,,,,,,,,,,,,,600.0,600.0,OVC,600.0,,,,,,
KRDR,08-17-2014,16:28,SPECI,Normal,210,2.0,,,9999.0,,19.0,19.0,29.95,,,,,,,,,,,,,,,,,500.0,500.0,OVC,500.0,,,,,,
KRDR,08-17-2014,15:58,METAR,Normal,150,2.0,,,6400.0,Mist,18.4,18.4,29.94,1014.2,10,,,,,,,,,,,,,,,400.0,400.0,OVC,400.0,,,,,,
KRDR,08-17-2014,15:13,SPECI,Normal,40,2.0,,,9999.0,Mist,18.0,18.0,29.94,,10,,,,,,,,,,,,,,,400.0,400.0,OVC,400.0,,,,,,
KRDR,08-17-2014,14:58,METAR,Normal,50,2.0,,,9999.0,,17.8,17.8,29.94,1014.2,,,,,,,,,,,.02 IN,.02 IN,,,,500.0,500.0,OVC,500.0,,,,,,
KRDR,08-17-2014,14:43,SPECI,Normal,40,2.0,,,9999.0,,18.0,18.0,29.94,,,,,,,,,,,,,,,,,600.0,600.0,OVC,600.0,,,,,,
KRDR,08-17-2014,14:33,SPECI,Normal,30,3.0,,,9999.0,,18.0,18.0,29.94,,,,,,,,,,,,,,,,,700.0,700.0,OVC,700.0,,,,,,
KRDR,08-17-2014,14:23,SPECI,Normal,20,3.0,,,9999.0,Light Drizzle,18.0,18.0,29.94,,51,,,,,,,,,,,,,,,700.0,700.0,OVC,700.0,,,,,,
KRDR,08-17-2014,14:08,SPECI,Normal,50,5.0,,,6400.0,Light Rain/Mist,18.0,18.0,29.93,,61,10,,,,,,,,,,,,,,600.0,600.0,OVC,600.0,,,,,,
KRDR,08-17-2014,13:58,METAR,Normal,30,3.0,,,9999.0,Light Rain/Mist,17.7,17.5,29.94,1014.2,61,10,,,,,,,,,TRACE,,,,,700.0,700.0,OVC,700.0,,,,,,
KRDR,08-17-2014,13:48,SPECI,Normal,20,4.0,,,9999.0,Light Drizzle,18.0,17.0,29.94,,51,,,,,,,,,,,,,,,700.0,700.0,OVC,700.0,,,,,,
KRDR,08-17-2014,13:44,SPECI,Normal,20,4.0,,,9999.0,,18.0,17.0,29.94,,,,,,,,,,,,,,,,,700.0,700.0,OVC,700.0,,,,,,
KRDR,08-17-2014,13:04,SPECI,Normal,10,4.0,,,9999.0,Light Rain,18.0,18.0,29.95,,61,,,,,,,,,,,,,,,900.0,900.0,OVC,900.0,,,,,,
KRDR,08-17-2014,12:58,METAR,Normal,360,4.0,,,9999.0,,17.7,17.6,29.95,1014.5,,,,,,,,,,,,,,,,900.0,900.0,OVC,900.0,,,,,,
KRDR,08-17-2014,12:43,SPECI,Normal,340,3.0,,,9999.0,,18.0,18.0,29.95,,,,,,,,,,,,,,,,,900.0,900.0,OVC,900.0,,,,,,
KRDR,08-17-2014,11:58,METAR,Normal,360,3.0,,,9999.0,,17.7,17.5,29.95,1014.5,,,,,,,,,,,,,,,,1100.0,1100.0,OVC,1100.0,,,,,,
KRDR,08-17-2014,11:49,SPECI,Normal,360,2.0,,,9999.0,,18.0,18.0,29.95,,,,,,,,,,,,,,,,,1100.0,1100.0,OVC,1100.0,,,,,,
KRDR,08-17-2014,11:03,SPECI,Normal,50,5.0,,,9999.0,,18.0,17.0,29.93,,,,,,,,,,,,,,,,,1400.0,1400.0,OVC,1400.0,,,,,,
KRDR,08-17-2014,10:58,METAR,Normal,50,5.0,,,9999.0,,18.0,17.3,29.93,1013.7,,,,,,,,,,,,,,,,1500.0,1500.0,OVC,1500.0,,,,,,
KRDR,08-17-2014,10:28,SPECI,Normal,10,5.0,,,9999.0,,17.0,17.0,29.93,,,,,,,,,,,,,,,,,2100.0,1400.0,SCT,1400.0,BKN,2100.0,OVC,12000.0,,
KRDR,08-17-2014,09:58,METAR,Normal,10,3.0,,,9999.0,,17.3,17.1,29.93,1013.8,,,,,,,,,,,,,,,,12000.0,12000.0,BKN,12000.0,,,,,,
KRDR,08-17-2014,09:53,SPECI,Normal,20,3.0,,,9999.0,,17.0,17.0,29.93,,,,,,,,,,,,,,,,,12000.0,12000.0,BKN,12000.0,,,,,,
KRDR,08-17-2014,09:48,SPECI,Normal,20,3.0,,,9999.0,,17.0,17.0,29.93,,,,,,,,,,,,,,,,,12000.0,12000.0,BKN,12000.0,,,,,,
KRDR,08-17-2014,09:23,SPECI,Normal,20,3.0,,,9999.0,,18.0,17.0,29.93,,,,,,,,,,,,,,,,4/8 Partly Cloudy,72000.0,1700.0,SCT,1700.0,,,,,,
KRDR,08-17-2014,08:58,METAR,Normal,30,3.0,,,9999.0,,18.3,17.1,29.93,1013.7,,,,,,,,,,,,,,,,1800.0,1800.0,OVC,1800.0,,,,,,
KRDR,08-17-2014,08:18,SPECI,Normal,60,4.0,,,9999.0,,18.0,17.0,29.93,,,,,,,,,,,,,,,,,2100.0,2100.0,BKN,2100.0,BKN,3600.0,BKN,4900.0,,
KRDR,08-17-2014,07:58,METAR,Normal,60,4.0,,,9999.0,,18.7,17.1,29.93,1013.8,,,,,,,,,,,,,,,,4400.0,2200.0,SCT,2200.0,OVC,4400.0,,,,
KRDR,08-17-2014,07:28,SPECI,Normal,70,6.0,,,9999.0,,19.0,17.0,29.93,,,,,,,,,,,,,,,,,3300.0,2700.0,SCT,2700.0,BKN,3300.0,OVC,4300.0,,
KRDR,08-17-2014,07:18,SPECI,Normal,70,6.0,,,9999.0,,19.0,17.0,29.94,,,,,,,,,,,,,,,,,2800.0,2800.0,BKN,2800.0,OVC,3300.0,,,,
KRDR,08-17-2014,06:58,METAR,Normal,60,6.0,,,9999.0,,18.9,17.1,29.95,1014.5,,,,,,,,,,,,,,,,3200.0,2800.0,SCT,2800.0,BKN,3200.0,OVC,4100.0,,
KRDR,08-17-2014,05:58,METAR,Normal,60,9.0,,,9999.0,,19.2,17.0,29.94,1014.1,,,,,,,,,,,,,,,,3600.0,3600.0,OVC,3600.0,,,,,,
KRDR,08-17-2014,05:43,SPECI,Normal,60,7.0,,,9999.0,,19.0,17.0,29.94,,,,,,,,,,,,,,,,,3000.0,3000.0,BKN,3000.0,OVC,3700.0,,,,
KRDR,08-17-2014,05:18,SPECI,Normal,50,6.0,,,9999.0,,20.0,17.0,29.95,,,,,,,,,,,,,,,,,2900.0,2900.0,BKN,2900.0,OVC,3600.0,,,,
KRDR,08-17-2014,05:08,SPECI,Normal,60,6.0,,,9999.0,,20.0,17.0,29.95,,,,,,,,,,,,,,,,,2900.0,2900.0,BKN,2900.0,BKN,3600.0,,,,
KRDR,08-17-2014,04:58,METAR,Normal,60,7.0,,,9999.0,,19.5,17.1,29.95,1014.4,,,,,,,,,,,,,,,4/8 Partly Cloudy,72000.0,3200.0,SCT,3200.0,,,,,,
KRDR,08-17-2014,03:58,METAR,Normal,40,4.0,,,9999.0,,20.3,17.2,29.95,1014.4,,,,,,,,,,,,,,,,3300.0,3300.0,BKN,3300.0,,,,,,
KRDR,08-17-2014,02:58,METAR,Normal,40,4.0,,,9999.0,,20.8,17.3,29.96,1014.7,,,,,,,,,,,,,,,Clear,72000.0,,,,,,,,,
KRDR,08-17-2014,01:58,METAR,Normal,30,4.0,,,9999.0,,21.8,18.5,29.92,1013.4,,,,,,,,,,,,,,,Clear,72000.0,,,,,,,,,
KRDR,08-17-2014,00:58,METAR,Normal,40,7.0,,,9999.0,,23.5,19.9,29.91,1013.0,,,,,,,,,,,,,,,2/8 Mostly Clear,72000.0,3000.0,FEW,3000.0,,,,,,
KRDR,08-17-2014,00:38,SPECI,Normal,40,5.0,,,9999.0,,24.0,20.0,29.90,,,,,,,,,,,,,,,,4/8 Partly Cloudy,72000.0,2800.0,SCT,2800.0,,,,,,
KRDR,08-17-2014,00:33,SPECI,Normal,40,5.0,,,9999.0,,24.0,20.0,29.90,,,,,,,,,,,,,,,,,2800.0,2800.0,BKN,2800.0,,,,,,
KRDR,08-16-2014,23:58,METAR,Normal,50,6.0,,,9999.0,,24.3,19.6,29.91,1013.0,,,,,,,,,,,,,,,4/8 Partly Cloudy,72000.0,3900.0,SCT,3900.0,,,,,,
KRDR,08-16-2014,22:58,METAR,Normal,50,9.0,,,9999.0,,24.7,19.7,29.91,1013.0,,,,,,,,,,,,,,,,3500.0,2600.0,FEW,2600.0,OVC,3500.0,,,,
KRDR,08-16-2014,22:43,SPECI,Normal,60,9.0,,,9999.0,,25.0,20.0,29.92,,,,,,,,,,,,,,,,,3400.0,2700.0,SCT,2700.0,OVC,3400.0,,,,
KRDR,08-16-2014,22:23,SPECI,Normal,60,9.0,,,9999.0,,25.0,20.0,29.92,,,,,,,,,,,,,,,,,2600.0,2600.0,BKN,2600.0,OVC,3600.0,,,,
KRDR,08-16-2014,22:18,SPECI,Normal,60,8.0,,,9999.0,,25.0,20.0,29.92,,,,,,,,,,,,,,,,,2600.0,2600.0,BKN,2600.0,OVC,3600.0,,,,
KRDR,08-16-2014,21:58,METAR,Normal,70,7.0,,,9999.0,,25.1,20.4,29.91,1013.0,,,,,,,,,,,,,,,,3400.0,3400.0,OVC,3400.0,,,,,,
KRDR,08-16-2014,20:58,METAR,Normal,60,11.0,,,9999.0,,24.8,20.5,29.91,1013.0,,,,,,,,,,,,,,,,3000.0,3000.0,OVC,3000.0,,,,,,
KRDR,08-16-2014,20:48,SPECI,Normal,60,10.0,,,9999.0,,24.0,21.0,29.90,,,,,,,,,,,,,,,,,3000.0,3000.0,OVC,3000.0,,,,,,
KRDR,08-16-2014,19:58,METAR,Normal,60,10.0,,,9999.0,,23.2,20.7,29.91,1013.0,,,,,,,,,,,,,,,,1700.0,1700.0,OVC,1700.0,,,,,,
KRDR,08-16-2014,18:58,METAR,Normal,60,11.0,,,9999.0,,23.2,21.3,29.90,1012.7,,,,,,,,,,,,,,,,1800.0,1800.0,OVC,1800.0,,,,,,
KRDR,08-16-2014,18:18,SPECI,Normal,60,12.0,,,9999.0,,23.0,21.0,29.91,,,,,,,,,,,,,,,,,1500.0,1500.0,OVC,1500.0,,,,,,
KRDR,08-16-2014,17:58,METAR,Normal,40,9.0,,,9999.0,,22.9,21.7,29.90,1012.6,,,,,,,,,,,,,,,,1200.0,1200.0,OVC,1200.0,,,,,,
KRDR,08-16-2014,16:58,METAR,Normal,20,8.0,,,9999.0,,23.2,22.3,29.91,1013.0,,,,,,,,,,,,,,,,1200.0,1200.0,OVC,1200.0,,,,,,
KRDR,08-16-2014,16:23,SPECI,Normal,10,9.0,,,9999.0,,23.0,22.0,29.90,,,,,,,,,,,,,,,,,1200.0,1200.0,OVC,1200.0,,,,,,
KRDR,08-16-2014,15:58,METAR,Normal,10,8.0,,,9999.0,,23.1,22.5,29.89,1012.3,,,,,,,,,,,,,,,,1000.0,1000.0,OVC,1000.0,,,,,,
KRDR,08-16-2014,15:48,SPECI,Normal,10,9.0,,,9999.0,,23.0,23.0,29.89,,,,,,,,,,,,,,,,,1000.0,1000.0,OVC,1000.0,,,,,,
KRDR,08-16-2014,14:58,METAR,Normal,10,9.0,,,9999.0,,22.1,22.0,29.88,1012.0,,,,,,,,,,,,,,,,800.0,800.0,OVC,800.0,,,,,,
KRDR,08-16-2014,14:33,SPECI,Normal,10,8.0,,,9999.0,,22.0,22.0,29.87,,,,,,,,,,,,,,,,,700.0,700.0,OVC,700.0,,,,,,
KRDR,08-16-2014,13:58,METAR,Normal,10,8.0,,,9999.0,,20.9,,29.87,1011.6,,,,,,,,,,,,,,,,600.0,600.0,OVC,600.0,,,,,,
KRDR,08-16-2014,13:48,SPECI,Normal,360,9.0,,,9999.0,,21.0,21.0,29.86,,,,,,,,,,,,,,,,,600.0,600.0,OVC,600.0,,,,,,
KRDR,08-16-2014,13:18,SPECI,Normal,350,7.0,,,9999.0,,20.0,20.0,29.87,,,,,,,,,,,,,,,,,500.0,500.0,OVC,500.0,,,,,,
KRDR,08-16-2014,12:58,METAR,Normal,360,8.0,,,9999.0,,19.8,,29.86,1011.2,,,,,,,,,,,,,,,,400.0,400.0,OVC,400.0,,,,,,
KRDR,08-16-2014,12:38,SPECI,Normal,350,9.0,,,9999.0,,20.0,20.0,29.86,,,,,,,,,,,,,,,,,400.0,400.0,OVC,400.0,,,,,,
KRDR,08-16-2014,12:28,SPECI,Normal,350,9.0,,,9999.0,,20.0,20.0,29.86,,,,,,,,,,,,,,,,,500.0,500.0,OVC,500.0,,,,,,
KRDR,08-16-2014,11:58,METAR,Normal,330,7.0,,,9999.0,,19.5,19.5,29.85,1010.8,,,,,,,,,,,,,,,,600.0,600.0,BKN,600.0,,,,,,
KRDR,08-16-2014,11:49,SPECI,Normal,340,7.0,,,9999.0,,20.0,20.0,29.85,,,,,,,,,,,,,,,,,600.0,600.0,BKN,600.0,,,,,,
KRDR,08-16-2014,11:44,SPECI,Normal,340,8.0,,,9999.0,,20.0,20.0,29.85,,,,,,,,,,,,,,,,,600.0,600.0,BKN,600.0,,,,,,
KRDR,08-16-2014,11:34,SPECI,Normal,330,9.0,,,9999.0,,20.0,20.0,29.84,,,,,,,,,,,,,,,,2/8 Mostly Clear,72000.0,600.0,FEW,600.0,,,,,,
KRDR,08-16-2014,10:58,METAR,Normal,330,6.0,,,9999.0,,20.0,20.0,29.83,1010.2,,,,,,,,,,,,,,,Clear,72000.0,,,,,,,,,
KRDR,08-16-2014,09:58,METAR,Normal,330,5.0,,,9999.0,,20.8,20.8,29.83,1010.2,,,,,,,,,,,,,,,Clear,72000.0,,,,,,,,,
KRDR,08-16-2014,08:58,METAR,Normal,310,3.0,,,9999.0,,21.3,21.3,29.82,1009.8,,,,,,,,,,,,,,,Clear,72000.0,,,,,,,,,
KRDR,08-16-2014,08:03,SPECI,Normal,320,5.0,,,9999.0,,20.0,20.0,29.81,,,,,,,,,,,,,,,,2/8 Mostly Clear,72000.0,4100.0,FEW,4100.0,,,,,,
KRDR,08-16-2014,07:58,METAR,Normal,310,4.0,,,9999.0,,20.6,20.6,29.81,1009.5,,,,,,,,,,,,,,,2/8 Mostly Clear,72000.0,4100.0,FEW,4100.0,,,,,,
KRDR,08-16-2014,07:53,SPECI,Normal,300,3.0,,,9999.0,,21.0,21.0,29.81,,,,,,,,,,,,,,,,2/8 Mostly Clear,72000.0,4100.0,FEW,4100.0,,,,,,
KRDR,08-16-2014,06:58,METAR,Normal,330,2.0,,,9999.0,,21.8,21.8,29.81,1009.4,,,,,,,,,,,,,,,,6500.0,4000.0,FEW,4000.0,BKN,6500.0,,,,
KRDR,08-16-2014,06:13,SPECI,Normal,180,5.0,,,9999.0,,22.0,22.0,29.81,,,,,,,,,,,,,,,,4/8 Partly Cloudy,72000.0,4000.0,SCT,4000.0,SCT,6500.0,,,,
KRDR,08-16-2014,06:03,SPECI,Normal,180,3.0,,,9999.0,,23.0,22.0,29.81,,,,,,,,,,,,,,,,,6000.0,3700.0,FEW,3700.0,SCT,4500.0,BKN,6000.0,,
KRDR,08-16-2014,05:58,METAR,Normal,190,3.0,,,9999.0,,22.5,22.3,29.81,1009.5,,,,,,,,,,,,,,,,3800.0,3800.0,BKN,3800.0,BKN,5000.0,OVC,6500.0,,
KRDR,08-16-2014,04:58,METAR,Normal,200,5.0,,,9999.0,,23.3,22.8,29.81,1009.5,,,,,,,,,,,,,,,,4200.0,4200.0,BKN,4200.0,OVC,6000.0,,,,
KRDR,08-16-2014,04:28,SPECI,Normal,160,4.0,,,9999.0,,23.0,23.0,29.82,,,,,,,,,,,,,,,,,6000.0,4300.0,SCT,4300.0,BKN,6000.0,,,,
KRDR,08-16-2014,04:18,SPECI,Normal,140,3.0,,,9999.0,,23.0,23.0,29.82,,,,,,,,,,,,,,,,,6000.0,3900.0,FEW,3900.0,BKN,6000.0,,,,
KRDR,08-16-2014,03:58,METAR,Calm,,0.0,,,9999.0,,23.3,23.1,29.82,1009.9,,,,,,,,,,,,,,,,4000.0,4000.0,BKN,4000.0,OVC,6000.0,,,,
KRDR,08-16-2014,03:23,SPECI,Calm,,0.0,,,9999.0,,23.0,23.0,29.82,,,,,,,,,,,,,,,,,6000.0,4100.0,FEW,4100.0,OVC,6000.0,,,,
KRDR,08-16-2014,03:08,SPECI,Normal,200,1.0,,,9999.0,,23.0,23.0,29.82,,,,,,,,,,,,,,,,,4100.0,4100.0,BKN,4100.0,OVC,6000.0,,,,
KRDR,08-16-2014,02:58,METAR,Calm,,0.0,,,9999.0,,22.8,22.6,29.82,1009.9,,,,,,,,,,,,,,,,4000.0,4000.0,BKN,4000.0,OVC,6000.0,,,,
KRDR,08-16-2014,02:28,SPECI,Calm,,0.0,,,9999.0,,24.0,23.0,29.81,,,,,,,,,,,,,,,,4/8 Partly Cloudy,72000.0,4000.0,FEW,4000.0,SCT,6500.0,,,,
KRDR,08-16-2014,01:58,METAR,Normal,110,2.0,,,9999.0,,25.6,22.1,29.80,1009.2,,,,,,,,,,,,,,,4/8 Partly Cloudy,72000.0,6000.0,SCT,6000.0,,,,,,
KRDR,08-16-2014,00:58,METAR,Calm,,0.0,,,9999.0,,26.8,22.7,29.81,1009.6,,,,,,,,,,,,,,,2/8 Mostly Clear,72000.0,6500.0,FEW,6500.0,,,,,,
KRDR,08-15-2014,23:58,METAR,Normal,330,1.0,,,9999.0,,28.6,21.8,29.82,1009.9,,,,,,,,,,,,,,,2/8 Mostly Clear,72000.0,6500.0,FEW,6500.0,,,,,,
KRDR,08-15-2014,22:58,METAR,Normal,210,5.0,,,9999.0,,28.5,20.9,29.81,1009.6,,,,,,,,,,,,,,,Clear,72000.0,,,,,,,,,
KRDR,08-15-2014,21:58,METAR,Normal,180,7.0,,,9999.0,,29.3,21.7,29.82,1009.9,,,,,,,,,,,,,,,Clear,72000.0,,,,,,,,,
KRDR,08-15-2014,20:58,METAR,Normal,150,8.0,,,9999.0,,29.1,21.5,29.83,1010.2,,,,,,,,,,,,,,,,3800.0,3800.0,BKN,3800.0,,,,,,
KRDR,08-15-2014,19:58,METAR,Normal,120,7.0,,,9999.0,,29.2,21.1,29.84,1010.5,,,,,,,,,,,,,,,,3600.0,3600.0,BKN,3600.0,,,,,,
KRDR,08-15-2014,18:58,METAR,Normal,120,5.0,,,9999.0,,29.0,21.9,29.85,1010.8,,,,,,,,,,,,,,,4/8 Partly Cloudy,72000.0,2900.0,SCT,2900.0,,,,,,
KRDR,08-15-2014,18:28,SPECI,Normal,170,6.0,,,9999.0,,28.0,22.0,29.85,,,,,,,,,,,,,,,,4/8 Partly Cloudy,72000.0,2700.0,SCT,2700.0,,,,,,
KRDR,08-15-2014,18:13,SPECI,Variable,,5.0,,,9999.0,,28.0,22.0,29.85,,,,,,,,,,,,,,,,,2600.0,2600.0,BKN,2600.0,,,,,,
KRDR,08-15-2014,17:58,METAR,Normal,150,8.0,,,9999.0,,27.5,21.5,29.86,1011.2,,,,,,,,,,,,,,,4/8 Partly Cloudy,72000.0,2500.0,SCT,2500.0,SCT,4400.0,,,,
KRDR,08-15-2014,16:58,METAR,Normal,140,8.0,,,9999.0,,26.2,21.0,29.87,1011.6,,,,,,,,,,,,,,,Clear,72000.0,,,,,,,,,
KRDR,08-15-2014,15:58,METAR,Normal,110,7.0,,,9999.0,,24.5,20.6,29.87,1011.6,,,,,,,,,,,,,,,Clear,72000.0,,,,,,,,,
KRDR,08-15-2014,14:58,METAR,Normal,160,6.0,,,9999.0,,22.5,20.1,29.87,1011.6,,,,,,,,,,,,,,,Clear,72000.0,,,,,,,,,
KRDR,08-15-2014,13:59,SPECI,Normal,150,4.0,,,9999.0,,21.0,20.0,29.88,,,,,,,,,,,,,,,,2/8 Mostly Clear,72000.0,900.0,FEW,900.0,,,,,,
KRDR,08-15-2014,13:58,METAR,Normal,140,4.0,,,9999.0,,20.7,19.8,29.88,1012.0,,,,,,,,,,,,,,,Clear,72000.0,,,,,,,,,
KRDR,08-15-2014,13:27,SPECI,Normal,140,4.0,,,9999.0,,20.0,20.0,29.88,,,,,,,,,,,,,,,,2/8 Mostly Clear,72000.0,800.0,FEW,800.0,,,,,,
KRDR,08-15-2014,12:58,METAR,Normal,110,3.0,,,9999.0,,19.0,18.8,29.88,1012.0,,,,,,,,,,,,,,,4/8 Partly Cloudy,72000.0,8500.0,SCT,8600.0,,,,,,
KRDR,08-15-2014,11:58,METAR,Normal,130,5.0,,,9999.0,,17.9,17.9,29.88,1012.0,,,,,,,,,,,,,,,4/8 Partly Cloudy,72000.0,8000.0,SCT,8000.0,,,,,,
KRDR,08-15-2014,10:58,METAR,Normal,160,4.0,,,9999.0,,17.9,17.9,29.87,1011.6,,,,,,,,,,,,,,,2/8 Mostly Clear,72000.0,8000.0,FEW,8000.0,,,,,,
KRDR,08-15-2014,09:58,METAR,Normal,160,5.0,,,9999.0,,18.3,18.3,29.88,1012.0,,,,,,,,,,,,,,,,7500.0,7500.0,OVC,7500.0,,,,,,
KRDR,08-15-2014,08:58,METAR,Normal,140,6.0,,,9999.0,,19.6,19.5,29.87,1011.6,,,,,,,,,,,,,,,,8000.0,8000.0,OVC,8000.0,,,,,,
KRDR,08-15-2014,07:58,METAR,Normal,150,6.0,,,9999.0,,20.4,20.3,29.88,1011.9,,,,,,,,,,,,,,,,8000.0,8000.0,OVC,8000.0,,,,,,
KRDR,08-15-2014,06:58,METAR,Normal,140,5.0,,,9999.0,,20.3,20.2,29.88,1011.9,,,,,,,,,,,,,,,,8000.0,8000.0,BKN,8000.0,,,,,,
KRDR,08-15-2014,05:58,METAR,Normal,150,6.0,,,9999.0,,20.5,20.0,29.90,1012.6,,,,,,,,,,,,,,,4/8 Partly Cloudy,72000.0,8000.0,SCT,8000.0,,,,,,
KRDR,08-15-2014,04:58,METAR,Normal,170,7.0,,,9999.0,,21.7,20.1,29.91,1013.0,,,,,,,,,,,,,,,,8000.0,8000.0,BKN,8000.0,,,,,,
KRDR,08-15-2014,03:58,METAR,Normal,170,9.0,,,9999.0,,21.9,19.7,29.92,1013.4,,,,,,,,,,,,,,,,10000.0,8000.0,SCT,8000.0,BKN,10000.0,,,,
KRDR,08-15-2014,02:58,METAR,Normal,170,7.0,,,9999.0,,22.3,19.3,29.92,1013.4,,,,,,,,,,,,,,,,8000.0,8000.0,OVC,8000.0,,,,,,
KRDR,08-15-2014,01:58,METAR,Normal,150,6.0,,,9999.0,,23.3,19.2,29.91,1013.1,,,,,,,,,,,,,,,,7500.0,7500.0,OVC,7500.0,,,,,,
KRDR,08-15-2014,00:58,METAR,Normal,140,7.0,,,9999.0,,23.9,18.2,29.91,1013.1,,,,,,,,,,,,,,,Clear,72000.0,,,,,,,,,
KRDR,08-14-2014,23:58,METAR,Normal,130,7.0,,,9999.0,,25.4,18.1,29.91,1013.1,,,,,,,,,,,,,,,Clear,72000.0,,,,,,,,,
KRDR,08-14-2014,22:58,METAR,Normal,140,8.0,,,9999.0,,26.7,17.1,29.93,1013.7,,,,,,,,,,,,,,,Clear,72000.0,,,,,,,,,
KRDR,08-14-2014,21:58,METAR,Normal,140,10.0,,,9999.0,,27.3,16.5,29.95,1014.4,,,,,,,,,,,,,,,2/8 Mostly Clear,72000.0,11000.0,FEW,11000.0,,,,,,
KRDR,08-14-2014,21:22,SPECI,Normal,140,11.0,,,9999.0,,28.0,17.0,29.95,,,,,,,,,,,,,,,,,11000.0,11000.0,BKN,11000.0,,,,,,
KRDR,08-14-2014,20:58,METAR,Normal,150,11.0,,,9999.0,,27.9,16.8,29.95,1014.3,,,,,,,,,,,,,,,4/8 Partly Cloudy,72000.0,11000.0,SCT,11000.0,,,,,,
KRDR,08-14-2014,19:58,METAR,Normal,170,13.0,,,9999.0,,27.6,17.4,29.97,1015.0,,,,,,,,,,,,,,,Clear,72000.0,,,,,,,,,
KRDR,08-14-2014,18:58,METAR,Normal,140,8.0,,,9999.0,,26.5,18.0,29.98,1015.4,,,,,,,,,,,,,,,Clear,72000.0,,,,,,,,,
KRDR,08-14-2014,17:58,METAR,Normal,120,7.0,,,9999.0,,24.8,18.2,30.00,1016.1,,,,,,,,,,,,,,,Clear,72000.0,,,,,,,,,
KRDR,08-14-2014,16:58,METAR,Normal,160,7.0,,,9999.0,,22.4,17.5,30.01,1016.5,,,,,,,,,,,,,,,Clear,72000.0,,,,,,,,,
KRDR,08-14-2014,15:58,METAR,Normal,160,9.0,,,9999.0,,21.4,17.2,30.01,1016.5,,,,,,,,,,,,,,,2/8 Mostly Clear,72000.0,10000.0,FEW,10000.0,,,,,,
KRDR,08-14-2014,14:58,METAR,Normal,140,6.0,,,9999.0,,19.5,16.2,30.03,1017.2,,,,,,,,,,,,,,,,12000.0,10000.0,SCT,10000.0,BKN,12000.0,,,,
KRDR,08-14-2014,13:59,METAR,Normal,140,6.0,,,9999.0,,18.4,15.6,30.04,1017.6,,,,,,,,,,,,,,,,10000.0,10000.0,OVC,10000.0,,,,,,
KRDR,08-14-2014,12:58,METAR,Normal,150,7.0,,,9999.0,,18.2,15.1,30.03,1017.2,,,,,,,,,,,,,,,4/8 Partly Cloudy,72000.0,10000.0,SCT,10000.0,,,,,,
KRDR,08-14-2014,11:58,METAR,Normal,140,5.0,,,9999.0,,15.5,14.4,30.03,1017.2,,,,,,,,,,,,,,.05 IN,Clear,72000.0,,,,,,,,,
KRDR,08-14-2014,10:58,METAR,Normal,130,6.0,,,9999.0,,16.5,14.1,30.04,1017.5,,,,,,,,,,,,,,,,10000.0,10000.0,BKN,10000.0,,,,,,
KRDR,08-14-2014,09:58,METAR,Normal,110,5.0,,,9999.0,,17.0,14.1,30.04,1017.5,,,,,,,,,,,,,,,,10000.0,10000.0,OVC,10000.0,,,,,,
KRDR,08-14-2014,08:58,METAR,Normal,120,5.0,,,9999.0,,16.6,13.8,30.05,1017.8,,,,,,,,,,,,,,,4/8 Partly Cloudy,72000.0,10000.0,FEW,10000.0,SCT,12000.0,,,,
KRDR,08-14-2014,07:58,METAR,Normal,140,5.0,,,9999.0,,17.4,13.8,30.06,1018.2,,,,,,,,,,,,,,,,10000.0,10000.0,OVC,10000.0,,,,,,
KRDR,08-14-2014,06:58,METAR,Normal,80,5.0,,,9999.0,,18.0,12.9,30.06,1018.2,,,,,,,,,,,,,,,,11000.0,11000.0,BKN,11000.0,,,,,,
KRDR,08-14-2014,05:58,METAR,Normal,120,6.0,,,9999.0,,18.6,14.2,30.08,1018.8,,,,,,,,,,,,,,,,11000.0,11000.0,OVC,11000.0,,,,,,
KRDR,08-14-2014,04:58,METAR,Normal,130,5.0,,,9999.0,,19.0,14.0,30.07,1018.5,,,,,,,,,,,,,,,,10000.0,10000.0,OVC,10000.0,,,,,,
KRDR,08-14-2014,03:58,METAR,Normal,100,5.0,,,9999.0,,20.3,14.5,30.07,1018.5,,,,,,,,,,,,,,,,11000.0,11000.0,BKN,11000.0,,,,,,
KRDR,08-14-2014,02:58,METAR,Normal,90,5.0,,,9999.0,,20.7,15.6,30.07,1018.5,,,,,,,,,,,,,,,2/8 Mostly Clear,72000.0,10000.0,FEW,10000.0,,,,,,
KRDR,08-14-2014,01:58,METAR,Normal,80,4.0,,,9999.0,,21.5,15.1,30.06,1018.3,,,,,,,,,,,,,,,Clear,72000.0,,,,,,,,,
KRDR,08-14-2014,00:58,METAR,Normal,70,5.0,,,9999.0,,23.6,14.4,30.07,1018.6,,,,,,,,,,,,,,,Clear,72000.0,,,,,,,,,
KRDR,08-13-2014,23:58,METAR,Normal,100,5.0,,,9999.0,,25.2,13.1,30.07,1018.7,,,,,,,,,,,,,.03 IN,,Clear,72000.0,,,,,,,,,
KRDR,08-13-2014,22:58,METAR,Normal,100,8.0,,,9999.0,,26.3,13.8,30.06,1018.3,,,,,,,,,,,,,,,Clear,72000.0,,,,,,,,,
KRDR,08-13-2014,21:58,METAR,Variable,,6.0,,,9999.0,,26.8,12.8,30.07,1018.5,,,,,,,,,,,,,,,Clear,72000.0,,,,,,,,,
KRDR,08-13-2014,20:58,METAR,Normal,110,6.0,,,9999.0,,26.7,13.5,30.08,1018.8,,,,,,,,,,,,.03 IN,,,Clear,72000.0,,,,,,,,,
KRDR,08-13-2014,19:58,METAR,Normal,100,6.0,,,9999.0,,26.6,12.9,30.09,1019.2,,,,,,,,,,,.03 IN,,,,Clear,72000.0,,,,,,,,,
KRDR,08-13-2014,18:55,SPECI,Variable,,6.0,,,9999.0,,26.0,14.0,30.10,,,,,,,,,,,,,,,,Clear,72000.0,,,,,,,,,
KRDR,08-13-2014,18:54,SPECI,Variable,290,32.0,61.0,,9999.0,Squalls,26.0,14.0,30.10,,18,,,,,,,,,,,,,,Clear,72000.0,,,,,,,,,
KRDR,08-13-2014,18:52,SPECI,Normal,340,35.0,,,9999.0,Squalls,26.0,14.0,30.10,,18,,,,,,,,,,,,,,Clear,72000.0,,,,,,,,,
KRDR,08-13-2014,17:58,METAR,Variable,,5.0,,,9999.0,,25.0,14.3,30.11,1019.9,,,,,,,,,,,,,.02 IN,,Clear,72000.0,,,,,,,,,
KRDR,08-13-2014,16:58,METAR,Normal,60,6.0,,,9999.0,,24.2,15.6,30.12,1020.2,,,,,,,,,,,,,,,Clear,72000.0,,,,,,,,,
KRDR,08-13-2014,15:58,METAR,Variable,,3.0,,,9999.0,,22.1,15.8,30.12,1020.2,,,,,,,,,,,,,,,Clear,72000.0,,,,,,,,,
KRDR,08-13-2014,14:58,METAR,Normal,90,2.0,,,9999.0,,19.6,15.2,30.13,1020.6,,,,,,,,,,,,.02 IN,,,Clear,72000.0,,,,,,,,,
KRDR,08-13-2014,13:58,METAR,Normal,50,5.0,,,9999.0,,20.0,14.9,30.11,1019.9,,,,,,,,,,,.02 IN,,,,Clear,72000.0,,,,,,,,,
KRDR,08-13-2014,12:58,METAR,Normal,360,6.0,,,9999.0,,15.6,14.7,30.12,1020.2,,,,,,,,,,,,,,,Clear,72000.0,,,,,,,,,
KRDR,08-13-2014,11:58,METAR,Normal,320,5.0,,,9999.0,,13.3,13.1,30.11,1020.0,,,,,,,,,,,,,,,Clear,72000.0,,,,,,,,,
KRDR,08-13-2014,10:58,METAR,Normal,350,6.0,,,9999.0,,13.7,13.5,30.09,1019.2,,,,,,,,,,,,,,,4/8 Partly Cloudy,72000.0,6500.0,SCT,6500.0,,,,,,
KRDR,08-13-2014,09:58,METAR,Normal,340,5.0,,,9999.0,,15.0,14.6,30.09,1019.2,,,,,,,,,,,,,,,4/8 Partly Cloudy,72000.0,6500.0,SCT,6500.0,,,,,,
KRDR,08-13-2014,08:58,METAR,Normal,310,5.0,,,9999.0,,16.1,15.2,30.08,1018.8,,,,,,,,,,,,,,,,9000.0,6500.0,FEW,6500.0,BKN,9100.0,,,,
KRDR,08-13-2014,07:58,METAR,Normal,350,6.0,,,9999.0,,16.4,15.6,30.07,1018.5,,,,,,,,,,,,,,,4/8 Partly Cloudy,72000.0,7000.0,FEW,7000.0,SCT,10000.0,,,,
KRDR,08-13-2014,06:58,METAR,Normal,350,7.0,,,9999.0,,17.9,16.9,30.07,1018.4,,,,,,,,,,,,,,,,6500.0,6500.0,OVC,6500.0,,,,,,
KRDR,08-13-2014,05:58,METAR,Normal,360,6.0,,,9999.0,,17.7,17.4,30.06,1018.1,,,,,,,,,,,,,,,,7000.0,7000.0,BKN,7000.0,,,,,,
KRDR,08-13-2014,04:58,METAR,Normal,350,5.0,,,9999.0,,17.2,16.8,30.05,1017.8,,,,,,,,,,,,,,,Clear,72000.0,,,,,,,,,
KRDR,08-13-2014,03:58,METAR,Normal,350,3.0,,,9999.0,,19.8,17.1,30.04,1017.4,,,,,,,,,,,,,,,Clear,72000.0,,,,,,,,,
KRDR,08-13-2014,03:38,SPECI,Normal,360,3.0,,,9999.0,,20.0,17.0,30.03,,,,,,,,,,,,,,,,2/8 Mostly Clear,72000.0,7500.0,FEW,7500.0,,,,,,
KRDR,08-13-2014,02:58,METAR,Normal,340,5.0,,,9999.0,,19.4,17.7,30.03,1017.2,,,,,,,,,,,,,,,4/8 Partly Cloudy,72000.0,7000.0,SCT,7000.0,,,,,,
KRDR,08-13-2014,02:38,SPECI,Normal,310,3.0,,,9999.0,,21.0,18.0,30.02,,,,,,,,,,,,,,,,2/8 Mostly Clear,72000.0,7000.0,FEW,7000.0,,,,,,
KRDR,08-13-2014,01:58,METAR,Normal,290,2.0,,,9999.0,,22.2,18.4,30.01,1016.5,,,,,,,,,,,,,,,,9000.0,7000.0,SCT,7000.0,BKN,9100.0,,,,
KRDR,08-13-2014,00:58,METAR,Normal,350,2.0,,,9999.0,,25.2,17.1,30.00,1016.2,,,,,,,,,,,,,,,,6500.0,6500.0,BKN,6500.0,,,,,,
KRDR,08-12-2014,23:58,METAR,Normal,300,3.0,,,9999.0,,26.9,16.6,30.00,1016.2,,,,,,,,,,,,,,,,6500.0,6500.0,BKN,6500.0,BKN,9600.0,,,,
KRDR,08-12-2014,22:58,METAR,Normal,300,6.0,,,9999.0,,28.0,14.3,30.01,1016.6,,,,,,,,,,,,,,,2/8 Mostly Clear,72000.0,6500.0,FEW,6500.0,,,,,,
KRDR,08-12-2014,21:58,METAR,Normal,280,7.0,,,9999.0,,28.2,14.2,30.03,1017.2,,,,,,,,,,,,,,,2/8 Mostly Clear,72000.0,6500.0,FEW,6500.0,,,,,,
KRDR,08-12-2014,20:58,METAR,Normal,300,6.0,,,9999.0,,28.1,14.1,30.04,1017.6,,,,,,,,,,,,,,,Clear,72000.0,,,,,,,,,
KRDR,08-12-2014,19:58,METAR,Variable,,4.0,,,9999.0,,28.2,13.7,30.04,1017.6,,,,,,,,,,,,,,,Clear,72000.0,,,,,,,,,
KRDR,08-12-2014,18:58,METAR,Normal,260,9.0,,,9999.0,,27.5,13.4,30.06,1018.3,,,,,,,,,,,,,,,Clear,72000.0,,,,,,,,,
KRDR,08-12-2014,17:58,METAR,Normal,260,7.0,,,9999.0,,27.2,13.4,30.07,1018.6,,,,,,,,,,,,,,,Clear,72000.0,,,,,,,,,
KRDR,08-12-2014,16:58,METAR,Normal,280,8.0,,,9999.0,,25.9,13.7,30.09,1019.3,,,,,,,,,,,,,,,Clear,72000.0,,,,,,,,,
KRDR,08-12-2014,15:58,METAR,Normal,280,10.0,,,9999.0,,24.5,13.6,30.10,1019.7,,,,,,,,,,,,,,,Clear,72000.0,,,,,,,,,
KRDR,08-12-2014,14:58,METAR,Normal,270,9.0,,,9999.0,,22.7,13.6,30.10,1019.7,,,,,,,,,,,,,,,Clear,72000.0,,,,,,,,,
KRDR,08-12-2014,13:58,METAR,Normal,260,7.0,,,9999.0,,20.0,13.7,30.11,1020.0,,,,,,,,,,,,,,,Clear,72000.0,,,,,,,,,
KRDR,08-12-2014,12:58,METAR,Normal,260,5.0,,,9999.0,,16.6,13.6,30.11,1020.0,,,,,,,,,,,,,,,Clear,72000.0,,,,,,,,,
KRDR,08-12-2014,11:58,METAR,Normal,250,5.0,,,9999.0,,12.6,11.7,30.11,1020.1,,,,,,,,,,,,,,,Clear,72000.0,,,,,,,,,
KRDR,08-12-2014,10:58,METAR,Normal,240,4.0,,,9999.0,,12.0,11.0,30.11,1020.1,,,,,,,,,,,,,,,Clear,72000.0,,,,,,,,,
KRDR,08-12-2014,09:58,METAR,Normal,230,4.0,,,9999.0,,12.0,11.2,30.11,1020.1,,,,,,,,,,,,,,,Clear,72000.0,,,,,,,,,
KRDR,08-12-2014,08:58,METAR,Normal,230,4.0,,,9999.0,,11.2,11.1,30.11,1020.1,,,,,,,,,,,,,,,Clear,72000.0,,,,,,,,,
KRDR,08-12-2014,07:58,METAR,Normal,230,5.0,,,9999.0,,12.2,11.7,30.12,1020.4,,,,,,,,,,,,,,,Clear,72000.0,,,,,,,,,
KRDR,08-12-2014,06:58,METAR,Normal,250,6.0,,,9999.0,,10.7,10.6,30.13,1020.8,,,,,,,,,,,,,,,Clear,72000.0,,,,,,,,,
KRDR,08-12-2014,05:58,METAR,Normal,230,3.0,,,9999.0,,11.5,11.4,30.14,1021.1,,,,,,,,,,,,,,,Clear,72000.0,,,,,,,,,
KRDR,08-12-2014,04:58,METAR,Normal,240,3.0,,,9999.0,,12.9,12.8,30.14,1021.1,,,,,,,,,,,,,,,Clear,72000.0,,,,,,,,,
KRDR,08-12-2014,03:58,METAR,Normal,250,2.0,,,9999.0,,12.3,12.1,30.15,1021.5,,,,,,,,,,,,,,,Clear,72000.0,,,,,,,,,
KRDR,08-12-2014,03:03,SPECI,Normal,240,1.0,,,9999.0,,13.0,13.0,30.15,,,,,,,,,,,,,,,,Clear,72000.0,,,,,,,,,
KRDR,08-12-2014,02:58,METAR,Calm,,0.0,,,9999.0,,13.4,12.7,30.15,1021.5,,,,,,,,,,,,,,,Clear,72000.0,,,,,,,,,
KRDR,08-12-2014,02:48,SPECI,Normal,230,1.0,,,9999.0,,14.0,13.0,30.15,,,,,,,,,,,,,,,,Clear,72000.0,,,,,,,,,
KRDR,08-12-2014,01:58,METAR,Calm,,0.0,,,9999.0,,17.2,12.9,30.15,1021.4,,,,,,,,,,,,,,,Clear,72000.0,,,,,,,,,
KRDR,08-12-2014,00:58,METAR,Normal,20,4.0,,,9999.0,,21.3,11.6,30.15,1021.4,,,,,,,,,,,,,,,Clear,72000.0,,,,,,,,,
KRDR,08-11-2014,23:58,METAR,Normal,20,6.0,,,9999.0,,23.1,9.7,30.16,1021.8,,,,,,,,,,,,,,,Clear,72000.0,,,,,,,,,
KRDR,08-11-2014,22:58,METAR,Normal,360,8.0,,,9999.0,,23.5,10.2,30.16,1021.7,,,,,,,,,,,,,,,Clear,72000.0,,,,,,,,,
KRDR,08-11-2014,21:58,METAR,Normal,10,8.0,,,9999.0,,23.8,9.7,30.17,1022.1,,,,,,,,,,,,,,,Clear,72000.0,,,,,,,,,
KRDR,08-11-2014,20:58,METAR,Normal,340,12.0,16.0,,9999.0,,23.6,9.3,30.18,1022.4,,,,,,,,,,,,,,,Clear,72000.0,,,,,,,,,
KRDR,08-11-2014,19:58,METAR,Variable,350,7.0,,,9999.0,,23.8,9.7,30.19,1022.7,,,,,,,,,,,,,,,4/8 Partly Cloudy,72000.0,6000.0,SCT,6000.0,,,,,,
KRDR,08-11-2014,18:59,SPECI,Normal,10,13.0,18.0,,9999.0,,23.0,10.0,30.21,,,,,,,,,,,,,,,,4/8 Partly Cloudy,72000.0,5500.0,SCT,5500.0,,,,,,
KRDR,08-11-2014,18:58,METAR,Normal,350,13.0,18.0,,9999.0,,23.2,10.2,30.21,1023.4,,,,,,,,,,,,,,,4/8 Partly Cloudy,72000.0,5500.0,SCT,5500.0,,,,,,
KRDR,08-11-2014,18:42,SPECI,Normal,330,11.0,,,9999.0,,23.0,11.0,30.21,,,,,,,,,,,,,,,,4/8 Partly Cloudy,72000.0,5500.0,SCT,5500.0,,,,,,
KRDR,08-11-2014,17:58,METAR,Normal,350,11.0,,,9999.0,,22.5,11.9,30.21,1023.4,,,,,,,,,,,,,,,4/8 Partly Cloudy,72000.0,5000.0,FEW,5000.0,SCT,6000.0,,,,
KRDR,08-11-2014,16:58,METAR,Normal,340,10.0,,,9999.0,,22.3,12.7,30.22,1023.7,,,,,,,,,,,,,,,2/8 Mostly Clear,72000.0,4000.0,FEW,4000.0,,,,,,
KRDR,08-11-2014,15:58,METAR,Normal,340,7.0,,,9999.0,,21.1,13.6,30.22,1023.8,,,,,,,,,,,,,,,Clear,72000.0,,,,,,,,,
KRDR,08-11-2014,14:58,METAR,Normal,330,8.0,,,9999.0,,19.3,13.7,30.22,1023.8,,,,,,,,,,,,,,,4/8 Partly Cloudy,72000.0,6500.0,SCT,6500.0,,,,,,
KRDR,08-11-2014,13:58,METAR,Normal,330,7.0,,,9999.0,,17.5,13.5,30.21,1023.5,,,,,,,,,,,,,,,Clear,72000.0,,,,,,,,,
KRDR,08-11-2014,12:58,METAR,Normal,320,7.0,,,9999.0,,14.9,12.8,30.20,1023.1,,,,,,,,,,,,,,,Clear,72000.0,,,,,,,,,
KRDR,08-11-2014,11:58,METAR,Normal,300,6.0,,,9999.0,,12.2,12.0,30.19,1022.9,,,,,,,,,,,,,,,Clear,72000.0,,,,,,,,,
KRDR,08-11-2014,10:58,METAR,Normal,320,6.0,,,9999.0,,12.6,12.0,30.18,1022.5,,,,,,,,,,,,,,,Clear,72000.0,,,,,,,,,
KRDR,08-11-2014,09:58,METAR,Normal,310,7.0,,,9999.0,,13.0,12.1,30.17,1022.1,,,,,,,,,,,,,,,Clear,72000.0,,,,,,,,,
KRDR,08-11-2014,08:58,METAR,Normal,310,7.0,,,9999.0,,13.5,12.5,30.16,1021.7,,,,,,,,,,,,,,,Clear,72000.0,,,,,,,,,
KRDR,08-11-2014,07:58,METAR,Normal,300,7.0,,,9999.0,,14.0,13.1,30.16,1021.7,,,,,,,,,,,,,,,Clear,72000.0,,,,,,,,,
KRDR,08-11-2014,06:58,METAR,Normal,300,6.0,,,9999.0,,14.8,13.2,30.15,1021.4,,,,,,,,,,,,,,,Clear,72000.0,,,,,,,,,
KRDR,08-11-2014,05:58,METAR,Normal,310,7.0,,,9999.0,,15.3,13.1,30.16,1021.7,,,,,,,,,,,,,,,Clear,72000.0,,,,,,,,,
KRDR,08-11-2014,04:58,METAR,Normal,320,6.0,,,9999.0,,16.8,13.0,30.15,1021.3,,,,,,,,,,,,,,,Clear,72000.0,,,,,,,,,
KRDR,08-11-2014,03:58,METAR,Normal,330,6.0,,,9999.0,,16.8,13.4,30.15,1021.4,,,,,,,,,,,,,,,Clear,72000.0,,,,,,,,,
KRDR,08-11-2014,02:58,METAR,Normal,340,6.0,,,9999.0,,16.8,13.6,30.14,1021.0,,,,,,,,,,,,,,,Clear,72000.0,,,,,,,,,
KRDR,08-11-2014,01:58,METAR,Normal,350,4.0,,,9999.0,,17.6,13.2,30.12,1020.4,,,,,,,,,,,,,,,Clear,72000.0,,,,,,,,,
KRDR,08-11-2014,00:58,METAR,Normal,350,9.0,,,9999.0,,20.1,12.8,30.11,1020.0,,,,,,,,,,,,,,,Clear,72000.0,,,,,,,,,
KRDR,08-10-2014,23:58,METAR,Normal,340,9.0,,,9999.0,,21.0,12.9,30.11,1020.0,,,,,,,,,,,,,,,Clear,72000.0,,,,,,,,,
KRDR,08-10-2014,22:58,METAR,Normal,360,10.0,,,9999.0,,22.8,12.6,30.10,1019.5,,,,,,,,,,,,,,,Clear,72000.0,,,,,,,,,
KRDR,08-10-2014,21:58,METAR,Normal,350,13.0,,,9999.0,,23.9,12.8,30.10,1019.5,,,,,,,,,,,,,,,2/8 Mostly Clear,72000.0,5000.0,FEW,5000.0,,,,,,
KRDR,08-10-2014,20:58,METAR,Normal,350,15.0,,,9999.0,,23.9,12.9,30.10,1019.5,,,,,,,,,,,,,,,2/8 Mostly Clear,72000.0,4900.0,FEW,4900.0,,,,,,
KRDR,08-10-2014,19:58,METAR,Variable,340,10.0,14.0,,9999.0,,24.5,13.8,30.10,1019.5,,,,,,,,,,,,,,,2/8 Mostly Clear,72000.0,4600.0,FEW,4600.0,,,,,,
KRDR,08-10-2014,18:58,METAR,Normal,350,9.0,,,9999.0,,23.5,13.3,30.11,1019.9,,,,,,,,,,,,,,,,10000.0,10000.0,BKN,10000.0,,,,,,
KRDR,08-10-2014,17:58,METAR,Variable,340,11.0,,,9999.0,,23.0,15.3,30.12,1020.2,,,,,,,,,,,,,,,Clear,72000.0,,,,,,,,,
KRDR,08-10-2014,16:58,METAR,Normal,340,11.0,,,9999.0,,21.8,15.5,30.12,1020.2,,,,,,,,,,,,,,,4/8 Partly Cloudy,72000.0,10000.0,SCT,10000.0,,,,,,
KRDR,08-10-2014,15:58,METAR,Normal,10,11.0,19.0,,9999.0,,20.3,15.1,30.11,1019.9,,,,,,,,,,,,,,,4/8 Partly Cloudy,72000.0,4500.0,SCT,4500.0,SCT,11000.0,,,,
KRDR,08-10-2014,14:58,METAR,Normal,360,14.0,18.0,,9999.0,,20.3,14.8,30.11,1019.9,,,,,,,,,,,,,,,,4300.0,4300.0,BKN,4300.0,,,,,,
KRDR,08-10-2014,13:58,METAR,Normal,350,14.0,,,9999.0,,19.9,15.6,30.09,1019.2,,,,,,,,,,,,,,,,4200.0,4200.0,BKN,4200.0,OVC,7500.0,,,,
KRDR,08-10-2014,13:03,SPECI,Normal,340,9.0,,,9999.0,,19.0,17.0,30.09,,,,,,,,,,,,,,,,,3300.0,2800.0,FEW,2800.0,BKN,3300.0,OVC,3900.0,,
KRDR,08-10-2014,12:58,METAR,Normal,340,8.0,,,9999.0,,18.8,16.6,30.09,1019.2,,,,,,,,,,,,,,,,2800.0,2900.0,BKN,2900.0,BKN,3700.0,OVC,6000.0,,
KRDR,08-10-2014,12:53,SPECI,Normal,340,8.0,,,9999.0,,19.0,16.0,30.09,,,,,,,,,,,,,,,,,3000.0,3000.0,BKN,3000.0,BKN,4200.0,OVC,6000.0,,
KRDR,08-10-2014,11:58,METAR,Normal,330,8.0,,,9999.0,,19.0,19.0,30.06,1018.2,,,,,,,,,,,,,,,,2500.0,2500.0,BKN,2500.0,BKN,3900.0,,,,
KRDR,08-10-2014,11:33,SPECI,Normal,350,9.0,,,9999.0,,19.0,19.0,30.05,,,,,,,,,,,,,,,,4/8 Partly Cloudy,72000.0,2000.0,SCT,2000.0,,,,,,
KRDR,08-10-2014,11:13,SPECI,Normal,350,12.0,,,9999.0,,20.0,20.0,30.04,,,,,,,,,,,,,,,,,1200.0,1300.0,SCT,1300.0,OVC,2000.0,,,,
KRDR,08-10-2014,10:58,METAR,Normal,320,9.0,,,9999.0,,19.4,,30.05,1017.8,,,,,,,,,,,,,,,,1200.0,1200.0,BKN,1200.0,OVC,1700.0,,,,
KRDR,08-10-2014,10:38,SPECI,Normal,290,6.0,,,9999.0,,19.0,19.0,30.04,,,,,,,,,,,,,,,,,1300.0,1300.0,BKN,1300.0,OVC,2000.0,,,,
KRDR,08-10-2014,09:58,METAR,Normal,240,5.0,,,9999.0,,19.4,19.4,30.04,1017.4,,,,,,,,,,,,,,,,1800.0,1800.0,BKN,1800.0,BKN,2700.0,OVC,3700.0,,
KRDR,08-10-2014,09:43,SPECI,Normal,210,5.0,,,9999.0,,19.0,19.0,30.04,,,,,,,,,,,,,,,,,2900.0,1900.0,FEW,1900.0,BKN,2900.0,OVC,7500.0,,
KRDR,08-10-2014,09:03,SPECI,Normal,210,5.0,,,9999.0,,19.0,19.0,30.04,,,,,,,,,,,,,,,,,10000.0,7000.0,SCT,7000.0,BKN,10000.0,,,,
KRDR,08-10-2014,08:58,METAR,Normal,200,5.0,,,9999.0,,19.4,19.4,30.04,1017.4,,,,,,,,,,,,,,,,10000.0,7500.0,SCT,7500.0,BKN,10000.0,,,,
KRDR,08-10-2014,08:03,SPECI,Normal,180,6.0,,,9999.0,,19.0,19.0,30.03,,,,,,,,,,,,,,,,,10000.0,10000.0,BKN,10000.0,,,,,,
KRDR,08-10-2014,07:58,METAR,Normal,190,5.0,,,9999.0,,19.2,19.2,30.03,1017.1,,,,,,,,,,,,,,,,10000.0,10000.0,BKN,10000.0,,,,,,
KRDR,08-10-2014,06:58,METAR,Normal,160,4.0,,,9999.0,,18.7,18.7,30.03,1017.1,,,,,,,,,,,,,,,,8500.0,8500.0,OVC,8600.0,,,,,,
KRDR,08-10-2014,06:43,SPECI,Normal,140,3.0,,,9999.0,,18.0,18.0,30.03,,,,,,,,,,,,,,,,,9000.0,9000.0,BKN,9100.0,,,,,,
KRDR,08-10-2014,06:33,SPECI,Normal,140,4.0,,,9999.0,,18.0,18.0,30.03,,,,,,,,,,,,,,,,4/8 Partly Cloudy,72000.0,9000.0,SCT,9100.0,,,,,,
KRDR,08-10-2014,06:23,SPECI,Normal,130,3.0,,,9999.0,,18.0,18.0,30.03,,,,,,,,,,,,,,,,Clear,72000.0,,,,,,,,,
KRDR,08-10-2014,05:58,METAR,Normal,120,4.0,,,9999.0,,17.9,17.9,30.03,1017.1,,,,,,,,,,,,,TRACE,,Clear,72000.0,,,,,,,,,
KRDR,08-10-2014,05:43,SPECI,Calm,,0.0,,,9999.0,,19.0,19.0,30.03,,,,,,,,,,,,,,,,Clear,72000.0,,,,,,,,,
KRDR,08-10-2014,05:38,SPECI,Calm,,0.0,,,9999.0,,19.0,19.0,30.03,,,,,,,,,,,,,,,,Clear,72000.0,,,,,,,,,
KRDR,08-10-2014,05:13,SPECI,Normal,160,1.0,,,9999.0,,19.0,19.0,30.04,,,,,,,,,,,,,,,,Clear,72000.0,,,,,,,,,
KRDR,08-10-2014,04:58,METAR,Normal,190,2.0,,,9999.0,,19.2,19.2,30.03,1017.1,,,,,,,,,,,,,,,Clear,72000.0,,,,,,,,,
KRDR,08-10-2014,03:58,METAR,Normal,180,8.0,,,9999.0,,21.0,20.4,30.03,1017.1,,,,,,,,,,,,,,,Clear,72000.0,,,,,,,,,
KRDR,08-10-2014,02:58,METAR,Normal,170,8.0,,,9999.0,,21.7,20.7,30.02,1016.8,,,,,,,,,,,,TRACE,,,2/8 Mostly Clear,72000.0,9500.0,FEW,9600.0,,,,,,
KRDR,08-10-2014,01:58,METAR,Normal,170,4.0,,,9999.0,,22.4,20.4,30.03,1017.2,,,,,,,,,,,,,,,,9000.0,9000.0,BKN,9100.0,OVC,12000.0,,,,
KRDR,08-10-2014,00:58,METAR,Normal,120,4.0,,,9999.0,,23.6,20.6,30.03,1017.1,,,,,,,,,,,TRACE,,,,,6500.0,6500.0,OVC,6500.0,,,,,,
KRDR,08-10-2014,00:34,SPECI,Normal,170,3.0,,,9999.0,,24.0,20.0,30.02,,,,,,,,,,,,,,,,,6000.0,4700.0,FEW,4700.0,BKN,6000.0,OVC,8000.0,,
KRDR,08-10-2014,00:23,SPECI,Normal,200,5.0,,,9999.0,Light Rain,23.0,21.0,30.02,,61,,,,,,,,,,,,,,,6000.0,2900.0,FEW,2900.0,BKN,6000.0,OVC,8000.0,,
KRDR,08-10-2014,00:08,SPECI,Normal,180,7.0,,,9999.0,,24.0,20.0,30.02,,,,,,,,,,,,,,,,,3000.0,3000.0,BKN,3000.0,BKN,4600.0,OVC,7500.0,,
KRDR,08-10-2014,00:03,SPECI,Normal,180,8.0,,,9999.0,,24.0,20.0,30.02,,,,,,,,,,,,,,,,,2900.0,2900.0,BKN,2900.0,OVC,7500.0,,,,
KRDR,08-09-2014,23:58,METAR,Normal,150,7.0,,,9999.0,,23.8,19.9,30.02,1016.8,,,,,,,,,,,,,,,,3100.0,3100.0,BKN,3100.0,OVC,7000.0,,,,
KRDR,08-09-2014,22:58,METAR,Normal,150,9.0,,,9999.0,,24.9,18.9,30.03,1017.2,,,,,,,,,,,,,,,,6500.0,6500.0,BKN,6500.0,,,,,,
KRDR,08-09-2014,21:58,METAR,Normal,150,9.0,,,9999.0,,25.7,18.6,30.02,1016.8,,,,,,,,,,,,,,,2/8 Mostly Clear,72000.0,7000.0,FEW,7000.0,,,,,,
KRDR,08-09-2014,20:58,METAR,Normal,160,11.0,,,9999.0,,25.5,17.2,30.03,1017.1,,,,,,,,,,,,,,,,7000.0,7000.0,OVC,7000.0,,,,,,
KRDR,08-09-2014,19:58,METAR,Normal,140,13.0,17.0,,9999.0,,26.8,16.6,30.04,1017.4,,,,,,,,,,,,,,,,5500.0,4100.0,FEW,4100.0,BKN,5500.0,,,,
KRDR,08-09-2014,18:58,METAR,Normal,170,9.0,,,9999.0,,26.6,18.4,30.04,1017.4,,,,,,,,,,,,,,,,7000.0,4200.0,SCT,4200.0,OVC,7000.0,,,,
KRDR,08-09-2014,17:58,METAR,Normal,150,9.0,,,9999.0,,26.5,18.7,30.05,1017.8,,,,,,,,,,,,,,,4/8 Partly Cloudy,72000.0,4000.0,SCT,4000.0,,,,,,
KRDR,08-09-2014,16:58,METAR,Normal,140,9.0,,,9999.0,,26.0,18.1,30.05,1017.8,,,,,,,,,,,,,,,Clear,72000.0,,,,,,,,,
KRDR,08-09-2014,15:58,METAR,Normal,160,8.0,,,9999.0,,24.8,19.1,30.07,1018.4,,,,,,,,,,,,,,,,8000.0,8000.0,BKN,8000.0,,,,,,
KRDR,08-09-2014,14:58,METAR,Normal,140,6.0,,,9999.0,,21.7,19.4,30.07,1018.5,,,,,,,,,,,,,,,,7000.0,7000.0,OVC,7000.0,,,,,,
KRDR,08-09-2014,13:58,METAR,Normal,150,4.0,,,9999.0,,20.3,19.0,30.07,1018.5,,,,,,,,,,,,,,,,7000.0,4300.0,FEW,4300.0,SCT,5500.0,BKN,7000.0,,
KRDR,08-09-2014,12:58,METAR,Normal,150,6.0,,,9999.0,,18.5,18.3,30.05,1017.8,,,,,,,,,,,,,,,,4300.0,4300.0,BKN,4300.0,,,,,,
KRDR,08-09-2014,11:58,METAR,Normal,150,5.0,,,9999.0,,17.1,17.1,30.05,1017.8,,,,,,,,,,,,,,,2/8 Mostly Clear,72000.0,7000.0,FEW,7000.0,,,,,,
KRDR,08-09-2014,10:58,METAR,Normal,170,4.0,,,9999.0,,16.8,16.8,30.05,1017.8,,,,,,,,,,,,,,,,6500.0,6500.0,OVC,6500.0,,,,,,
KRDR,08-09-2014,09:58,METAR,Normal,150,6.0,,,9999.0,,17.2,17.2,30.04,1017.4,,,,,,,,,,,,,,,Clear,72000.0,,,,,,,,,
KRDR,08-09-2014,08:58,METAR,Normal,160,4.0,,,9999.0,,16.9,16.9,30.05,1017.8,,,,,,,,,,,,,,,Clear,72000.0,,,,,,,,,
KRDR,08-09-2014,08:18,SPECI,Normal,160,4.0,,,9999.0,,17.0,17.0,30.05,,,,,,,,,,,,,,,,Clear,72000.0,,,,,,,,,
KRDR,08-09-2014,07:58,METAR,Normal,140,2.0,,,9999.0,Mist,17.6,17.6,30.04,1017.4,10,,,,,,,,,,,,,,Clear,72000.0,,,,,,,,,
KRDR,08-09-2014,06:58,METAR,Normal,170,5.0,,,9999.0,,17.8,17.6,30.04,1017.4,,,,,,,,,,,,,,,Clear,72000.0,,,,,,,,,
KRDR,08-09-2014,05:58,METAR,Normal,180,5.0,,,9999.0,,18.0,17.8,30.03,1017.1,,,,,,,,,,,,,,,Clear,72000.0,,,,,,,,,
KRDR,08-09-2014,04:58,METAR,Normal,170,5.0,,,9999.0,,18.9,18.8,30.03,1017.1,,,,,,,,,,,,,,,Clear,72000.0,,,,,,,,,
KRDR,08-09-2014,03:58,METAR,Normal,150,4.0,,,9999.0,,19.7,19.1,30.02,1016.7,,,,,,,,,,,,,,,Clear,72000.0,,,,,,,,,
KRDR,08-09-2014,01:58,METAR,Normal,170,7.0,,,9999.0,,22.1,19.4,30.02,1016.8,,,,,,,,,,,,,,,Clear,72000.0,,,,,,,,,
KRDR,08-09-2014,00:58,METAR,Normal,180,8.0,,,9999.0,,25.1,18.8,30.01,1016.4,,,,,,,,,,,,,,,Clear,72000.0,,,,,,,,,
KRDR,08-08-2014,23:58,METAR,Normal,180,10.0,,,9999.0,,26.8,17.7,30.00,1016.1,,,,,,,,,,,,,,,Clear,72000.0,,,,,,,,,
KRDR,08-08-2014,22:58,METAR,Normal,180,13.0,,,9999.0,,27.5,18.3,30.01,1016.5,,,,,,,,,,,,,,,Clear,72000.0,,,,,,,,,
KRDR,08-08-2014,21:58,METAR,Normal,190,9.0,,,9999.0,,27.9,18.2,30.01,1016.4,,,,,,,,,,,,,,,Clear,72000.0,,,,,,,,,
KRDR,08-08-2014,20:58,METAR,Normal,180,13.0,,,9999.0,,27.7,19.1,30.01,1016.4,,,,,,,,,,,,,,,2/8 Mostly Clear,72000.0,4200.0,FEW,4200.0,,,,,,
KRDR,08-08-2014,19:58,METAR,Normal,160,10.0,,,9999.0,,27.8,19.4,30.02,1016.7,,,,,,,,,,,,,,,4/8 Partly Cloudy,72000.0,4000.0,SCT,4000.0,SCT,5500.0,,,,
KRDR,08-08-2014,18:58,METAR,Normal,170,12.0,16.0,,9999.0,,27.3,19.9,30.03,1017.1,,,,,,,,,,,,,,,4/8 Partly Cloudy,72000.0,3600.0,SCT,3600.0,SCT,5500.0,,,,
KRDR,08-08-2014,17:58,METAR,Normal,180,8.0,,,9999.0,,25.9,20.5,30.03,1017.1,,,,,,,,,,,,,,,4/8 Partly Cloudy,72000.0,2900.0,SCT,2900.0,SCT,3900.0,,,,
KRDR,08-08-2014,17:43,SPECI,Normal,160,9.0,,,9999.0,,26.0,21.0,30.03,,,,,,,,,,,,,,,,,4000.0,2800.0,SCT,2800.0,BKN,4000.0,BKN,6000.0,,
KRDR,08-08-2014,17:33,SPECI,Normal,160,10.0,,,9999.0,,26.0,21.0,30.04,,,,,,,,,,,,,,,,,2600.0,2600.0,BKN,2600.0,BKN,3100.0,OVC,6000.0,,
KRDR,08-08-2014,17:18,SPECI,Normal,170,9.0,,,9999.0,,26.0,21.0,30.04,,,,,,,,,,,,,,,,,3200.0,2500.0,SCT,2500.0,BKN,3200.0,BKN,4200.0,,
KRDR,08-08-2014,17:13,SPECI,Normal,200,6.0,,,9999.0,,26.0,21.0,30.04,,,,,,,,,,,,,,,,,2600.0,2600.0,BKN,2600.0,BKN,3300.0,BKN,4000.0,,
KRDR,08-08-2014,16:58,METAR,Normal,210,7.0,,,9999.0,,25.8,21.2,30.04,1017.4,,,,,,,,,,,,,,,2/8 Mostly Clear,72000.0,2600.0,FEW,2600.0,,,,,,
KRDR,08-08-2014,15:58,METAR,Normal,210,4.0,,,9999.0,,25.6,20.8,30.04,1017.4,,,,,,,,,,,,,,,Clear,72000.0,,,,,,,,,
KRDR,08-08-2014,14:58,METAR,Normal,180,5.0,,,9999.0,,23.4,20.5,30.03,1017.1,,,,,,,,,,,,,,,Clear,72000.0,,,,,,,,,
KRDR,08-08-2014,13:58,METAR,Normal,180,5.0,,,9999.0,,20.7,19.3,30.03,1017.1,,,,,,,,,,,,,,,Clear,72000.0,,,,,,,,,
KRDR,08-08-2014,12:58,METAR,Normal,170,4.0,,,9999.0,,17.9,17.8,30.03,1017.2,,,,,,,,,,,,,,,Clear,72000.0,,,,,,,,,
KRDR,08-08-2014,11:58,METAR,Normal,100,1.0,,,9999.0,,16.6,16.4,30.03,1017.1,,,,,,,,,,,,,,,,5000.0,5000.0,BKN,5000.0,OVC,6000.0,,,,
KRDR,08-08-2014,10:58,METAR,Normal,180,5.0,,,9999.0,,15.4,15.4,30.02,1016.8,,,,,,,,,,,,,,,Clear,72000.0,,,,,,,,,
KRDR,08-08-2014,09:58,METAR,Normal,170,2.0,,,9999.0,,15.9,15.9,30.00,1016.1,,,,,,,,,,,,,,,Clear,72000.0,,,,,,,,,
KRDR,08-08-2014,08:58,METAR,Normal,150,4.0,,,9999.0,,15.7,15.6,29.99,1015.8,,,,,,,,,,,,,,,Clear,72000.0,,,,,,,,,
KRDR,08-08-2014,07:58,METAR,Normal,130,3.0,,,9999.0,,16.4,16.3,29.99,1015.8,,,,,,,,,,,,,,,Clear,72000.0,,,,,,,,,
KRDR,08-08-2014,06:58,METAR,Normal,160,3.0,,,9999.0,,16.9,16.7,29.98,1015.4,,,,,,,,,,,,,,,Clear,72000.0,,,,,,,,,
KRDR,08-08-2014,05:58,METAR,Normal,200,5.0,,,9999.0,,17.7,17.0,29.99,1015.8,,,,,,,,,,,,,,,Clear,72000.0,,,,,,,,,
KRDR,08-08-2014,04:58,METAR,Normal,170,7.0,,,9999.0,,18.9,16.6,29.98,1015.4,,,,,,,,,,,,,,,Clear,72000.0,,,,,,,,,
KRDR,08-08-2014,03:58,METAR,Normal,190,6.0,,,9999.0,,19.6,16.3,29.98,1015.4,,,,,,,,,,,,,,,Clear,72000.0,,,,,,,,,
KRDR,08-08-2014,02:58,METAR,Normal,180,8.0,,,9999.0,,19.7,16.6,29.97,1015.1,,,,,,,,,,,,,,,Clear,72000.0,,,,,,,,,
KRDR,08-08-2014,01:58,METAR,Normal,170,7.0,,,9999.0,,21.4,16.1,29.97,1015.1,,,,,,,,,,,,,,,Clear,72000.0,,,,,,,,,
KRDR,08-08-2014,00:58,METAR,Normal,170,8.0,,,9999.0,,24.5,15.6,29.97,1015.1,,,,,,,,,,,,,,,2/8 Mostly Clear,72000.0,12000.0,FEW,12000.0,,,,,,
KRDR,08-07-2014,23:58,METAR,Normal,170,13.0,,,9999.0,,26.3,15.3,29.96,1014.7,,,,,,,,,,,,,,,2/8 Mostly Clear,72000.0,12000.0,FEW,12000.0,,,,,,
KRDR,08-07-2014,22:58,METAR,Normal,170,13.0,,,9999.0,,26.9,14.9,29.97,1015.1,,,,,,,,,,,,,,,Clear,72000.0,,,,,,,,,
KRDR,08-07-2014,21:58,METAR,Normal,160,10.0,,,9999.0,,27.4,15.1,29.98,1015.5,,,,,,,,,,,,,,,Clear,72000.0,,,,,,,,,
KRDR,08-07-2014,20:58,METAR,Normal,170,14.0,,,9999.0,,27.0,16.5,29.99,1015.8,,,,,,,,,,,,,,,Clear,72000.0,,,,,,,,,
KRDR,08-07-2014,19:58,METAR,Normal,170,13.0,,,9999.0,,26.9,15.2,30.00,1016.1,,,,,,,,,,,,,,,Clear,72000.0,,,,,,,,,
KRDR,08-07-2014,18:58,METAR,Normal,190,12.0,20.0,,9999.0,,26.7,16.8,30.01,1016.4,,,,,,,,,,,,,,,2/8 Mostly Clear,72000.0,4500.0,FEW,4500.0,,,,,,
KRDR,08-07-2014,17:58,METAR,Normal,170,13.0,20.0,,9999.0,,26.0,17.3,30.02,1016.8,,,,,,,,,,,,,,,2/8 Mostly Clear,72000.0,3900.0,FEW,3900.0,,,,,,
KRDR,08-07-2014,16:58,METAR,Normal,180,10.0,,,9999.0,,24.6,18.3,30.03,1017.2,,,,,,,,,,,,,,,Clear,72000.0,,,,,,,,,
KRDR,08-07-2014,15:58,METAR,Normal,170,9.0,,,9999.0,,24.9,18.8,30.04,1017.5,,,,,,,,,,,,,,,Clear,72000.0,,,,,,,,,
KRDR,08-07-2014,14:58,METAR,Normal,160,7.0,,,9999.0,,22.2,18.5,30.04,1017.6,,,,,,,,,,,,,,,Clear,72000.0,,,,,,,,,
KRDR,08-07-2014,13:58,METAR,Normal,180,6.0,,,9999.0,,21.4,18.8,30.05,1017.8,,,,,,,,,,,,,,,Clear,72000.0,,,,,,,,,
KRDR,08-07-2014,12:58,METAR,Normal,180,4.0,,,9999.0,,19.1,18.9,30.05,1017.8,,,,,,,,,,,,,,,Clear,72000.0,,,,,,,,,
KRDR,08-07-2014,11:58,METAR,Normal,180,4.0,,,9999.0,,16.5,16.5,30.04,1017.5,,,,,,,,,,,,,,,Clear,72000.0,,,,,,,,,
KRDR,08-07-2014,10:58,METAR,Normal,180,5.0,,,9999.0,,15.5,15.5,30.03,1017.2,,,,,,,,,,,,,,,Clear,72000.0,,,,,,,,,
KRDR,08-07-2014,09:58,METAR,Normal,190,4.0,,,9999.0,,15.2,15.2,30.04,1017.5,,,,,,,,,,,,,,,Clear,72000.0,,,,,,,,,
KRDR,08-07-2014,08:58,METAR,Normal,210,4.0,,,9999.0,,15.6,15.6,30.04,1017.5,,,,,,,,,,,,,,,Clear,72000.0,,,,,,,,,
KRDR,08-07-2014,07:58,METAR,Normal,210,2.0,,,9999.0,,15.9,15.9,30.04,1017.5,,,,,,,,,,,,,,,Clear,72000.0,,,,,,,,,
KRDR,08-07-2014,06:58,METAR,Normal,200,1.0,,,9999.0,,16.9,16.9,30.05,1017.8,,,,,,,,,,,,,,,Clear,72000.0,,,,,,,,,
KRDR,08-07-2014,06:33,SPECI,Normal,200,1.0,,,9999.0,,17.0,17.0,30.05,,,,,,,,,,,,,,,,,6000.0,6000.0,BKN,6000.0,,,,,,
KRDR,08-07-2014,06:23,SPECI,Normal,220,1.0,,,9999.0,,17.0,17.0,30.05,,,,,,,,,,,,,,,,,5500.0,5500.0,OVC,5500.0,,,,,,
KRDR,08-07-2014,05:58,METAR,Calm,,0.0,,,9999.0,,17.0,17.0,30.05,1017.8,,,,,,,,,,,,,,,,6000.0,6000.0,OVC,6000.0,,,,,,
KRDR,08-07-2014,05:53,SPECI,Normal,200,1.0,,,9999.0,,17.0,17.0,30.05,,,,,,,,,,,,,,,,,6000.0,6000.0,OVC,6000.0,,,,,,
KRDR,08-07-2014,04:58,METAR,Normal,210,1.0,,,9999.0,,16.8,16.8,30.05,1017.9,,,,,,,,,,,,,,,Clear,72000.0,,,,,,,,,
KRDR,08-07-2014,03:58,METAR,Calm,,0.0,,,9999.0,,17.4,17.4,30.05,1017.9,,,,,,,,,,,,,,,Clear,72000.0,,,,,,,,,
KRDR,08-07-2014,02:58,METAR,Calm,,0.0,,,9999.0,,18.5,18.4,30.05,1017.9,,,,,,,,,,,,,,,Clear,72000.0,,,,,,,,,
KRDR,08-07-2014,02:48,SPECI,Calm,,0.0,,,9999.0,,19.0,18.0,30.05,,,,,,,,,,,,,,,,Clear,72000.0,,,,,,,,,
KRDR,08-07-2014,01:58,METAR,Normal,210,3.0,,,9999.0,,22.3,19.1,30.04,1017.6,,,,,,,,,,,,,,,Clear,72000.0,,,,,,,,,
KRDR,08-07-2014,00:58,METAR,Normal,200,2.0,,,9999.0,,24.4,19.1,30.04,1017.5,,,,,,,,,,,,,,,Clear,72000.0,,,,,,,,,
KRDR,08-06-2014,23:58,METAR,Normal,210,5.0,,,9999.0,,25.7,17.6,30.05,1017.9,,,,,,,,,,,,,,,Clear,72000.0,,,,,,,,,
KRDR,08-06-2014,22:58,METAR,Normal,190,8.0,,,9999.0,,25.9,18.3,30.06,1018.3,,,,,,,,,,,,,,,2/8 Mostly Clear,72000.0,5500.0,FEW,5500.0,,,,,,
KRDR,08-06-2014,21:58,METAR,Normal,150,6.0,,,9999.0,,26.8,16.4,30.07,1018.6,,,,,,,,,,,,,,,Clear,72000.0,,,,,,,,,
KRDR,08-06-2014,20:58,METAR,Normal,140,6.0,,,9999.0,,26.5,16.6,30.08,1018.9,,,,,,,,,,,,,,,2/8 Mostly Clear,72000.0,4500.0,FEW,4500.0,,,,,,
KRDR,08-06-2014,19:58,METAR,Normal,160,8.0,,,9999.0,,26.7,16.8,30.09,1019.2,,,,,,,,,,,,,,,,4600.0,4600.0,BKN,4600.0,,,,,,
KRDR,08-06-2014,18:58,METAR,Normal,150,7.0,,,9999.0,,26.2,16.9,30.10,1019.6,,,,,,,,,,,,,,,4/8 Partly Cloudy,72000.0,4300.0,SCT,4300.0,,,,,,
KRDR,08-06-2014,17:58,METAR,Normal,170,8.0,,,9999.0,,25.8,17.2,30.11,1020.0,,,,,,,,,,,,,,,Clear,72000.0,,,,,,,,,
KRDR,08-06-2014,16:58,METAR,Normal,120,6.0,,,9999.0,,25.0,18.1,30.11,1020.0,,,,,,,,,,,,,,,Clear,72000.0,,,,,,,,,
KRDR,08-06-2014,15:58,METAR,Normal,120,3.0,,,9999.0,,22.9,18.0,30.12,1020.3,,,,,,,,,,,,,,,Clear,72000.0,,,,,,,,,
KRDR,08-06-2014,14:58,METAR,Normal,30,4.0,,,9999.0,,21.0,17.8,30.12,1020.3,,,,,,,,,,,,,,,Clear,72000.0,,,,,,,,,
KRDR,08-06-2014,13:58,METAR,Normal,360,2.0,,,9999.0,,18.3,18.2,30.12,1020.3,,,,,,,,,,,,,,,Clear,72000.0,,,,,,,,,
KRDR,08-06-2014,12:58,METAR,Calm,,0.0,,,9999.0,,16.6,16.6,30.11,1020.0,,,,,,,,,,,,,,,Clear,72000.0,,,,,,,,,
KRDR,08-06-2014,11:58,METAR,Calm,,0.0,,,9999.0,,14.5,14.5,30.11,1020.0,,,,,,,,,,,,,,,Clear,72000.0,,,,,,,,,
KRDR,08-06-2014,10:58,METAR,Calm,,0.0,,,9999.0,,13.0,13.0,30.10,1019.7,,,,,,,,,,,,,,,Clear,72000.0,,,,,,,,,
KRDR,08-06-2014,09:58,METAR,Normal,230,3.0,,,9999.0,,13.5,13.5,30.09,1019.3,,,,,,,,,,,,,,,Clear,72000.0,,,,,,,,,
KRDR,08-06-2014,08:58,METAR,Calm,,0.0,,,9999.0,,13.7,13.7,30.09,1019.3,,,,,,,,,,,,,,,Clear,72000.0,,,,,,,,,
KRDR,08-06-2014,07:58,METAR,Calm,,0.0,,,9999.0,,15.0,15.0,30.09,1019.2,,,,,,,,,,,,,,,Clear,72000.0,,,,,,,,,
KRDR,08-06-2014,06:58,METAR,Calm,,0.0,,,9999.0,,14.2,14.2,30.09,1019.3,,,,,,,,,,,,,,,Clear,72000.0,,,,,,,,,
KRDR,08-06-2014,05:58,METAR,Calm,,0.0,,,9999.0,,14.4,14.4,30.11,1020.0,,,,,,,,,,,TRACE,,TRACE,,Clear,72000.0,,,,,,,,,
KRDR,08-06-2014,04:58,METAR,Normal,230,2.0,,,9999.0,,15.4,15.4,30.12,1020.3,,,,,,,,,,,,,,,Clear,72000.0,,,,,,,,,
KRDR,08-06-2014,03:58,METAR,Calm,,0.0,,,9999.0,,16.5,16.4,30.12,1020.3,,,,,,,,,,,,,,,Clear,72000.0,,,,,,,,,
KRDR,08-06-2014,02:58,METAR,Normal,200,3.0,,,9999.0,,17.8,17.6,30.11,1020.0,,,,,,,,,,,,,,,Clear,72000.0,,,,,,,,,
KRDR,08-06-2014,01:58,METAR,Normal,190,3.0,,,9999.0,,20.7,18.3,30.10,1019.6,,,,,,,,,,,,,,,Clear,72000.0,,,,,,,,,
KRDR,08-06-2014,00:58,METAR,Normal,200,3.0,,,9999.0,,23.0,17.8,30.10,1019.6,,,,,,,,,,,,,,,Clear,72000.0,,,,,,,,,
KRDR,08-05-2014,23:58,METAR,Normal,200,5.0,,,9999.0,,24.9,16.1,30.11,1020.0,,,,,,,,,,,,,,,Clear,72000.0,,,,,,,,,
KRDR,08-05-2014,22:56,METAR,Normal,160,5.0,,,9999.0,,25.0,15.0,30.11,1020.0,,,,,,,,,,,,,,,Clear,72000.0,,,,,,,,,
KRDR,08-05-2014,21:58,METAR,Variable,,3.0,,,9999.0,,25.4,14.0,30.12,1020.4,,,,,,,,,,,,,,,Clear,72000.0,,,,,,,,,
KRDR,08-05-2014,20:58,METAR,Normal,200,5.0,,,9999.0,,26.1,14.5,30.12,1020.3,,,,,,,,,,,,,,,Clear,72000.0,,,,,,,,,
KRDR,08-05-2014,19:58,METAR,Variable,,2.0,,,9999.0,,26.4,15.0,30.13,1020.6,,,,,,,,,,,,,,,Clear,72000.0,,,,,,,,,
KRDR,08-05-2014,18:58,METAR,Normal,220,7.0,,,9999.0,,26.0,14.5,30.14,1021.0,,,,,,,,,,,,,,,Clear,72000.0,,,,,,,,,
KRDR,08-05-2014,17:58,METAR,Variable,,5.0,,,9999.0,,24.8,14.5,30.15,1021.3,,,,,,,,,,,,,,,Clear,72000.0,,,,,,,,,
KRDR,08-05-2014,16:58,METAR,Normal,240,3.0,,,9999.0,,24.5,15.4,30.16,1021.7,,,,,,,,,,,,,,,Clear,72000.0,,,,,,,,,
KRDR,08-05-2014,15:58,METAR,Normal,220,4.0,,,9999.0,,23.5,16.0,30.16,1021.7,,,,,,,,,,,,,,,Clear,72000.0,,,,,,,,,
KRDR,08-05-2014,14:58,METAR,Normal,210,3.0,,,9999.0,,21.2,15.8,30.16,1021.7,,,,,,,,,,,,,,,Clear,72000.0,,,,,,,,,
KRDR,08-05-2014,13:58,METAR,Normal,240,2.0,,,9999.0,,18.3,16.6,30.16,1021.7,,,,,,,,,,,,,,,Clear,72000.0,,,,,,,,,
KRDR,08-05-2014,12:58,METAR,Calm,,0.0,,,9999.0,,16.3,15.5,30.15,1021.3,,,,,,,,,,,,,,,Clear,72000.0,,,,,,,,,
KRDR,08-05-2014,11:58,METAR,Normal,230,2.0,,,9999.0,,12.4,12.4,30.15,1021.4,,,,,,,,,,,,,,,Clear,72000.0,,,,,,,,,
KRDR,08-05-2014,10:58,METAR,Calm,,0.0,,,9999.0,,11.7,11.7,30.13,1020.7,,,,,,,,,,,,,,,Clear,72000.0,,,,,,,,,
KRDR,08-05-2014,09:58,METAR,Normal,220,2.0,,,9999.0,,12.4,12.3,30.12,1020.4,,,,,,,,,,,,,,,Clear,72000.0,,,,,,,,,
KRDR,08-05-2014,08:58,METAR,Normal,240,1.0,,,9999.0,,13.6,13.6,30.13,1020.6,,,,,,,,,,,,,,,Clear,72000.0,,,,,,,,,
KRDR,08-05-2014,07:58,METAR,Normal,250,3.0,,,9999.0,,13.1,12.9,30.13,1020.7,,,,,,,,,,,,,,,Clear,72000.0,,,,,,,,,
KRDR,08-05-2014,06:58,METAR,Normal,200,3.0,,,9999.0,,14.3,14.1,30.14,1021.0,,,,,,,,,,,,,,,Clear,72000.0,,,,,,,,,
KRDR,08-05-2014,05:58,METAR,Normal,230,3.0,,,9999.0,,15.5,15.3,30.14,1021.0,,,,,,,,,,,,,,,Clear,72000.0,,,,,,,,,
KRDR,08-05-2014,04:58,METAR,Normal,200,4.0,,,9999.0,,15.2,15.1,30.13,1020.7,,,,,,,,,,,,,,,Clear,72000.0,,,,,,,,,
KRDR,08-05-2014,03:58,METAR,Normal,210,4.0,,,9999.0,,15.9,15.7,30.13,1020.6,,,,,,,,,,,,,,,Clear,72000.0,,,,,,,,,
KRDR,08-05-2014,02:58,METAR,Normal,200,4.0,,,9999.0,,17.1,15.8,30.12,1020.4,,,,,,,,,,,,,,,Clear,72000.0,,,,,,,,,
KRDR,08-05-2014,01:58,METAR,Normal,120,2.0,,,9999.0,,21.5,14.2,30.12,1020.3,,,,,,,,,,,,,,,Clear,72000.0,,,,,,,,,
KRDR,08-05-2014,00:58,METAR,Normal,110,3.0,,,9999.0,,23.5,13.1,30.11,1020.0,,,,,,,,,,,,,,,Clear,72000.0,,,,,,,,,
KRDR,08-04-2014,23:58,METAR,Normal,90,4.0,,,9999.0,,24.5,12.9,30.11,1020.1,,,,,,,,,,,,,,,Clear,72000.0,,,,,,,,,
KRDR,08-04-2014,22:58,METAR,Normal,80,3.0,,,9999.0,,25.2,11.8,30.12,1020.4,,,,,,,,,,,,,,,Clear,72000.0,,,,,,,,,
KRDR,08-04-2014,21:58,METAR,Variable,,4.0,,,9999.0,,25.2,12.1,30.12,1020.4,,,,,,,,,,,,,,,Clear,72000.0,,,,,,,,,
KRDR,08-04-2014,20:58,METAR,Variable,,3.0,,,9999.0,,25.3,12.5,30.14,1021.1,,,,,,,,,,,,,,,Clear,72000.0,,,,,,,,,
KRDR,08-04-2014,19:58,METAR,Normal,170,3.0,,,9999.0,,25.0,11.9,30.14,1021.0,,,,,,,,,,,,,,,Clear,72000.0,,,,,,,,,
KRDR,08-04-2014,18:58,METAR,Variable,,1.0,,,9999.0,,24.6,12.6,30.15,1021.4,,,,,,,,,,,,,,,Clear,72000.0,,,,,,,,,
KRDR,08-04-2014,17:58,METAR,Normal,160,5.0,,,9999.0,,24.0,12.7,30.17,1022.1,,,,,,,,,,,,,,,Clear,72000.0,,,,,,,,,
KRDR,08-04-2014,16:58,METAR,Normal,130,4.0,,,9999.0,,23.3,13.0,30.18,1022.5,,,,,,,,,,,,,,,Clear,72000.0,,,,,,,,,
KRDR,08-04-2014,15:58,METAR,Normal,170,4.0,,,9999.0,,22.6,12.2,30.18,1022.4,,,,,,,,,,,,,,,Clear,72000.0,,,,,,,,,
KRDR,08-04-2014,14:58,METAR,Variable,,3.0,,,9999.0,,20.2,14.1,30.18,1022.5,,,,,,,,,,,,,,,Clear,72000.0,,,,,,,,,
KRDR,08-04-2014,13:58,METAR,Normal,190,3.0,,,9999.0,,18.2,15.7,30.18,1022.4,,,,,,,,,,,,,,,Clear,72000.0,,,,,,,,,
KRDR,08-04-2014,12:58,METAR,Calm,,0.0,,,9999.0,,14.5,14.5,30.17,1022.1,,,,,,,,,,,,,,,Clear,72000.0,,,,,,,,,
KRDR,08-04-2014,11:58,METAR,Calm,,0.0,,,9999.0,,10.3,10.3,30.16,1021.9,,,,,,,,,,,,,,,Clear,72000.0,,,,,,,,,
KRDR,08-04-2014,10:58,METAR,Calm,,0.0,,,9999.0,,10.0,10.0,30.16,1021.9,,,,,,,,,,,,,,,Clear,72000.0,,,,,,,,,
KRDR,08-04-2014,10:28,SPECI,Normal,250,1.0,,,9999.0,,10.0,10.0,30.15,,,,,,,,,,,,,,,,Clear,72000.0,,,,,,,,,
KRDR,08-04-2014,10:18,SPECI,Calm,,0.0,,,4800.0,Mist,10.0,10.0,30.15,,10,,,,,,,,,,,,,,Clear,72000.0,,,,,,,,,
KRDR,08-04-2014,10:13,SPECI,Normal,230,1.0,,,9999.0,,10.0,10.0,30.15,,,,,,,,,,,,,,,,Clear,72000.0,,,,,,,,,
KRDR,08-04-2014,09:58,METAR,Normal,10,1.0,,,9999.0,,11.7,11.7,30.16,1021.8,,,,,,,,,,,,,,,Clear,72000.0,,,,,,,,,
KRDR,08-04-2014,08:58,METAR,Calm,,0.0,,,9999.0,,10.5,10.5,30.16,1021.8,,,,,,,,,,,,,,,Clear,72000.0,,,,,,,,,
KRDR,08-04-2014,07:58,METAR,Normal,290,3.0,,,9999.0,,11.8,11.8,30.16,1021.7,,,,,,,,,,,,,,,Clear,72000.0,,,,,,,,,
KRDR,08-04-2014,06:58,METAR,Normal,220,1.0,,,9999.0,,12.2,12.2,30.16,1021.7,,,,,,,,,,,,,,,Clear,72000.0,,,,,,,,,
KRDR,08-04-2014,05:58,METAR,Normal,200,1.0,,,9999.0,,14.1,14.0,30.15,1021.4,,,,,,,,,,,,,,,Clear,72000.0,,,,,,,,,
KRDR,08-04-2014,04:58,METAR,Normal,250,2.0,,,9999.0,,13.0,12.9,30.15,1021.4,,,,,,,,,,,,,,,Clear,72000.0,,,,,,,,,
KRDR,08-04-2014,03:58,METAR,Normal,280,2.0,,,9999.0,,14.3,14.3,30.16,1021.8,,,,,,,,,,,,,,,Clear,72000.0,,,,,,,,,
KRDR,08-04-2014,02:58,METAR,Calm,,0.0,,,9999.0,,15.2,14.8,30.14,,,,,,,,,,,,,,,,Clear,72000.0,,,,,,,,,
KRDR,08-04-2014,01:58,METAR,Normal,80,1.0,,,9999.0,,20.5,12.8,30.14,,,,,,,,,,,,,,,,Clear,72000.0,,,,,,,,,
KRDR,08-04-2014,00:58,METAR,Normal,90,5.0,,,9999.0,,22.5,14.0,30.14,,,,,,,,,,,,,,,,Clear,72000.0,,,,,,,,,
KRDR,08-03-2014,23:58,METAR,Normal,80,5.0,,,9999.0,,22.9,13.5,30.14,1021.0,,,,,,,,,,,,,,,Clear,72000.0,,,,,,,,,
KRDR,08-03-2014,22:58,METAR,Normal,50,6.0,,,9999.0,,23.6,12.8,30.14,1021.0,,,,,,,,,,,,,,,Clear,72000.0,,,,,,,,,
KRDR,08-03-2014,21:58,METAR,Normal,40,6.0,,,9999.0,,24.4,11.2,30.16,1021.7,,,,,,,,,,,,,,,Clear,72000.0,,,,,,,,,
KRDR,08-03-2014,20:58,METAR,Normal,60,5.0,,,9999.0,,24.8,11.9,30.16,1021.6,,,,,,,,,,,,,,,Clear,72000.0,,,,,,,,,
KRDR,08-03-2014,19:58,METAR,Normal,50,5.0,,,9999.0,,25.1,12.6,30.16,1021.7,,,,,,,,,,,,,,,Clear,72000.0,,,,,,,,,
KRDR,08-03-2014,18:58,METAR,Normal,70,7.0,,,9999.0,,24.4,12.1,30.17,1022.0,,,,,,,,,,,,,,,Clear,72000.0,,,,,,,,,
KRDR,08-03-2014,17:58,METAR,Normal,50,9.0,,,9999.0,,23.9,13.7,30.18,,,,,,,,,,,,,,,,Clear,72000.0,,,,,,,,,
KRDR,08-03-2014,16:58,METAR,Normal,40,9.0,,,9999.0,,23.6,14.7,30.17,1021.9,,,,,,,,,,,,,,,Clear,72000.0,,,,,,,,,
KRDR,08-03-2014,15:58,METAR,Normal,40,4.0,,,9999.0,,22.1,17.2,30.18,1022.3,,,,,,,,,,,,,,,Clear,72000.0,,,,,,,,,
KRDR,08-03-2014,14:58,METAR,Normal,20,6.0,,,9999.0,,19.5,18.5,30.18,1022.4,,,,,,,,,,,,,,,Clear,72000.0,,,,,,,,,
KRDR,08-03-2014,11:58,METAR,Normal,350,7.0,,,9999.0,,15.3,15.3,30.17,1022.2,,,,,,,,,,,,,,.43 IN,Clear,72000.0,,,,,,,,,
KRDR,08-03-2014,10:58,METAR,Normal,330,5.0,,,9999.0,,15.6,15.6,30.16,1021.8,,,,,,,,,,,,,,,,8000.0,8000.0,BKN,8000.0,,,,,,
KRDR,08-03-2014,09:58,METAR,Normal,330,6.0,,,9999.0,,15.6,15.6,30.14,1021.1,,,,,,,,,,,,,,,Clear,72000.0,,,,,,,,,
KRDR,08-03-2014,08:58,METAR,Normal,340,5.0,,,9999.0,,15.2,15.2,30.14,1021.1,,,,,,,,,,,,,,,,8500.0,8500.0,BKN,8600.0,,,,,,
KRDR,08-03-2014,07:58,METAR,Normal,340,4.0,,,9999.0,,15.1,15.1,30.12,1020.2,,,,,,,,,,,,,,,Clear,72000.0,,,,,,,,,
KRDR,08-03-2014,06:58,METAR,Normal,350,7.0,,,9999.0,,16.5,16.5,30.12,1020.2,,,,,,,,,,,,,,,4/8 Partly Cloudy,72000.0,7500.0,SCT,7500.0,,,,,,
KRDR,08-03-2014,05:58,METAR,Normal,350,5.0,,,9999.0,,17.0,17.0,30.12,1020.2,,,,,,,,,,,,,,,,7000.0,7000.0,BKN,7000.0,,,,,,
KRDR,08-03-2014,04:58,METAR,Normal,340,5.0,,,9999.0,,17.1,17.1,30.12,1020.2,,,,,,,,,,,,,,,,7500.0,7500.0,BKN,7500.0,,,,,,
KRDR,08-03-2014,03:58,METAR,Normal,310,3.0,,,9999.0,,17.7,17.7,30.11,1019.9,,,,,,,,,,,,,,,,7000.0,7000.0,BKN,7000.0,,,,,,
KRDR,08-03-2014,02:58,METAR,Normal,290,2.0,,,9999.0,,18.6,18.6,30.09,1019.2,,,,,,,,,,,,,,,Clear,72000.0,,,,,,,,,
KRDR,08-03-2014,01:58,METAR,Normal,330,5.0,,,9999.0,,19.5,19.5,30.09,1019.2,,,,,,,,,,,,,,,,,8500.0,FEW,8600.0,,,,,,
KRDR,08-03-2014,00:58,METAR,Normal,360,6.0,,,9999.0,,21.2,20.6,30.08,1018.9,,,,,,,,,,,,,,,,,12000.0,FEW,12000.0,,,,,,
KRDR,08-02-2014,23:58,METAR,Normal,340,5.0,,,9999.0,,19.3,19.2,30.08,1019.1,,,,,,,,,,,,,.43 IN,,,,7000.0,FEW,7000.0,,,,,,
KRDR,08-02-2014,22:58,METAR,Normal,250,3.0,,,9999.0,,20.3,20.1,30.08,1019.1,,,,,,,,,,,.08 IN,,,,,,11000.0,SCT,11000.0,,,,,,
KRDR,08-02-2014,22:37,SPECI,Normal,220,2.0,,,9999.0,,20.0,20.0,30.08,,,,,,,,,,,,,,,,,,8000.0,SCT,8000.0,,,,,,
KRDR,08-02-2014,21:58,METAR,Normal,250,9.0,,,9999.0,Light Rain,19.6,19.5,30.10,1019.7,61,,,,,,,,,,.29 IN,,,,,9000.0,9000.0,BKN,9100.0,OVC,11000.0,,,,
KRDR,08-02-2014,21:46,SPECI,Normal,240,6.0,,,9999.0,Light Rain,20.0,20.0,30.10,,61,,,,,,,,,,,,,,,7500.0,7500.0,BKN,7500.0,OVC,11000.0,,,,
KRDR,08-02-2014,21:12,SPECI,Normal,230,5.0,,,8000.0,Thunderstorm and Rain or Snow Showers,20.0,16.0,30.09,,92,,,,,,,,,,,,,,,7000.0,5500.0,FEW,5500.0,OVC,7000.0,,,,
KRDR,08-02-2014,20:59,SPECI,Normal,260,12.0,21.0,,9999.0,Heavy Rain/Distant Lightning,20.0,17.0,30.10,,63,12,,,,,,,,,,,,,,5500.0,5500.0,BKN,5500.0,OVC,7000.0,,,,
KRDR,08-02-2014,20:58,METAR,Normal,250,16.0,21.0,350/32KTS,9999.0,Heavy Thunderstorm and Rain or Snow Showers,20.5,19.2,30.10,1019.7,95,,,,,,,,,,.06 IN,.06 IN,,,,6000.0,6000.0,BKN,6000.0,OVC,7000.0,,,,
KRDR,08-02-2014,20:56,SPECI,Variable,260,15.0,21.0,,9999.0,Heavy Thunderstorm and Rain or Snow Showers/Mist,21.0,19.0,30.10,,95,10,,,,,,,,,,,,,,5500.0,5500.0,BKN,5500.0,OVC,7000.0,,,,
KRDR,08-02-2014,20:44,SPECI,Normal,300,17.0,22.0,,9999.0,Thunderstorm and Rain or Snow Showers,22.0,17.0,30.09,,92,,,,,,,,,,,,,,,6000.0,6000.0,BKN,6000.0,,,,,,
KRDR,08-02-2014,20:41,SPECI,Normal,310,14.0,20.0,,9999.0,Light Drizzle,22.0,17.0,30.08,,51,,,,,,,,,,,,,,,6000.0,6000.0,BKN,6000.0,,,,,,
KRDR,08-02-2014,19:58,METAR,Normal,130,5.0,,,9999.0,,28.8,16.1,30.07,1018.5,,,,,,,,,,,,,,,,5500.0,5500.0,BKN,5500.0,,,,,,
KRDR,08-02-2014,18:58,METAR,Normal,180,3.0,,,9999.0,,28.1,16.0,30.09,1019.2,,,,,,,,,,,,,,,Clear,72000.0,,,,,,,,,
KRDR,08-02-2014,17:58,METAR,Variable,,2.0,,,9999.0,,27.4,16.3,30.10,1019.5,,,,,,,,,,,,,,,Clear,72000.0,,,,,,,,,
KRDR,08-02-2014,16:58,METAR,Variable,,1.0,,,9999.0,,26.5,17.2,30.11,1019.8,,,,,,,,,,,,,,,Clear,72000.0,,,,,,,,,
KRDR,08-02-2014,15:58,METAR,Normal,40,4.0,,,9999.0,,25.9,17.4,30.11,1019.8,,,,,,,,,,,,,,,Clear,72000.0,,,,,,,,,
KRDR,08-02-2014,14:58,METAR,Normal,30,2.0,,,9999.0,,24.7,17.2,30.11,1019.8,,,,,,,,,,,,,,,Clear,72000.0,,,,,,,,,
KRDR,08-02-2014,13:58,METAR,Normal,220,3.0,,,9999.0,,21.5,17.5,30.10,1019.5,,,,,,,,,,,,,,,Clear,72000.0,,,,,,,,,
KRDR,08-02-2014,12:58,METAR,Calm,,0.0,,,9999.0,,18.4,16.6,30.09,1019.2,,,,,,,,,,,,,,,Clear,72000.0,,,,,,,,,
KRDR,08-02-2014,11:58,METAR,Normal,220,2.0,,,9999.0,,14.6,14.5,30.09,1019.2,,,,,,,,,,,,,,,Clear,72000.0,,,,,,,,,
KRDR,08-02-2014,10:58,METAR,Normal,200,5.0,,,9999.0,,14.8,14.6,30.09,1019.2,,,,,,,,,,,,,,,Clear,72000.0,,,,,,,,,
KRDR,08-02-2014,09:58,METAR,Normal,220,5.0,,,9999.0,,15.3,15.1,30.08,1018.9,,,,,,,,,,,,,,,Clear,72000.0,,,,,,,,,
KRDR,08-02-2014,08:58,METAR,Normal,210,5.0,,,9999.0,,15.7,15.6,30.08,1018.8,,,,,,,,,,,,,,,Clear,72000.0,,,,,,,,,
KRDR,08-02-2014,07:58,METAR,Normal,210,4.0,,,9999.0,,15.3,15.2,30.08,1018.9,,,,,,,,,,,,,,,Clear,72000.0,,,,,,,,,
KRDR,08-02-2014,06:58,METAR,Normal,220,4.0,,,9999.0,,16.3,16.2,30.09,1019.2,,,,,,,,,,,,,,,Clear,72000.0,,,,,,,,,
KRDR,08-02-2014,06:03,SPECI,Normal,190,2.0,,,9999.0,,16.0,16.0,30.08,,,,,,,,,,,,,,,,Clear,72000.0,,,,,,,,,
KRDR,08-02-2014,05:58,METAR,Normal,210,3.0,,,9999.0,,16.5,16.4,30.08,1018.9,,,,,,,,,,,,,,,Clear,72000.0,,,,,,,,,
KRDR,08-02-2014,05:53,SPECI,Normal,210,3.0,,,9999.0,,17.0,17.0,30.09,,,,,,,,,,,,,,,,Clear,72000.0,,,,,,,,,
KRDR,08-02-2014,04:58,METAR,Normal,190,3.0,,,9999.0,,17.7,17.5,30.07,1018.5,,,,,,,,,,,,,,,Clear,72000.0,,,,,,,,,
KRDR,08-02-2014,03:58,METAR,Normal,190,4.0,,,9999.0,,18.4,17.5,30.07,1018.5,,,,,,,,,,,,,,,Clear,72000.0,,,,,,,,,
KRDR,08-02-2014,02:58,METAR,Normal,180,3.0,,,9999.0,,19.7,17.7,30.07,1018.5,,,,,,,,,,,,,,,Clear,72000.0,,,,,,,,,
KRDR,08-02-2014,01:58,METAR,Normal,140,5.0,,,9999.0,,22.8,17.5,30.06,1018.2,,,,,,,,,,,,,,,Clear,72000.0,,,,,,,,,
KRDR,08-02-2014,00:58,METAR,Normal,130,4.0,,,9999.0,,25.1,17.5,30.06,1018.2,,,,,,,,,,,,,,,Clear,72000.0,,,,,,,,,
KRDR,08-01-2014,23:58,METAR,Normal,90,4.0,,,9999.0,,26.8,15.6,30.07,1018.5,,,,,,,,,,,,,,,Clear,72000.0,,,,,,,,,
KRDR,08-01-2014,22:58,METAR,Normal,10,1.0,,,9999.0,,27.1,15.3,30.07,1018.5,,,,,,,,,,,,,,,Clear,72000.0,,,,,,,,,
KRDR,08-01-2014,21:58,METAR,Variable,,1.0,,,9999.0,,27.2,16.0,30.07,1018.5,,,,,,,,,,,,,,,Clear,72000.0,,,,,,,,,
KRDR,08-01-2014,20:58,METAR,Variable,,1.0,,,9999.0,,27.2,16.5,30.08,1018.8,,,,,,,,,,,,,,,Clear,72000.0,,,,,,,,,
KRDR,08-01-2014,19:58,METAR,Variable,,5.0,,,9999.0,,27.0,16.2,30.08,1018.8,,,,,,,,,,,,,,,Clear,72000.0,,,,,,,,,
KRDR,08-01-2014,18:58,METAR,Normal,20,6.0,,,9999.0,,26.8,15.6,30.09,1019.2,,,,,,,,,,,,,,,Clear,72000.0,,,,,,,,,
KRDR,08-01-2014,17:58,METAR,Normal,10,4.0,,,9999.0,,26.3,15.8,30.09,1019.2,,,,,,,,,,,,,,,Clear,72000.0,,,,,,,,,
KRDR,08-01-2014,16:58,METAR,Normal,20,4.0,,,9999.0,,25.3,15.4,30.10,1019.6,,,,,,,,,,,,,,,Clear,72000.0,,,,,,,,,
KRDR,08-01-2014,15:58,METAR,Normal,10,3.0,,,9999.0,,24.2,15.1,30.09,1019.2,,,,,,,,,,,,,,,Clear,72000.0,,,,,,,,,
KRDR,08-01-2014,14:58,METAR,Normal,20,3.0,,,9999.0,,22.4,15.9,30.08,1018.9,,,,,,,,,,,,,,,Clear,72000.0,,,,,,,,,
KRDR,08-01-2014,13:58,METAR,Normal,30,4.0,,,9999.0,,19.6,17.3,30.07,1018.5,,,,,,,,,,,,,,,Clear,72000.0,,,,,,,,,
KRDR,08-01-2014,12:58,METAR,Normal,330,2.0,,,9999.0,,17.4,17.3,30.07,1018.5,,,,,,,,,,,,,,,Clear,72000.0,,,,,,,,,
KRDR,08-01-2014,11:58,METAR,Normal,310,3.0,,,9999.0,,14.4,14.4,30.06,1018.3,,,,,,,,,,,,,,,Clear,72000.0,,,,,,,,,
KRDR,08-01-2014,10:58,METAR,Normal,290,5.0,,,9999.0,,15.4,15.4,30.05,1017.9,,,,,,,,,,,,,,,Clear,72000.0,,,,,,,,,
KRDR,08-01-2014,09:58,METAR,Normal,310,5.0,,,9999.0,,16.6,16.6,30.05,1017.8,,,,,,,,,,,,,,,,5500.0,4200.0,SCT,4200.0,BKN,5500.0,,,,
KRDR,08-01-2014,08:58,METAR,Normal,320,4.0,,,9999.0,,15.4,15.4,30.04,1017.5,,,,,,,,,,,,,,,Clear,72000.0,,,,,,,,,
KRDR,08-01-2014,07:58,METAR,Normal,290,4.0,,,9999.0,,16.7,16.7,30.03,1017.1,,,,,,,,,,,,,,,Clear,72000.0,,,,,,,,,
KRDR,08-01-2014,06:58,METAR,Normal,320,4.0,,,9999.0,,16.6,16.6,30.03,1017.1,,,,,,,,,,,,,,,4/8 Partly Cloudy,72000.0,6000.0,SCT,6000.0,,,,,,
KRDR,08-01-2014,05:58,METAR,Normal,270,2.0,,,9999.0,,16.5,16.5,30.03,,,,,,,,,,,,,,TRACE,,Clear,72000.0,,,,,,,,,
KRDR,08-01-2014,05:28,SPECI,Normal,320,2.0,,,9999.0,,17.0,17.0,30.02,,,,,,,,,,,,,,,,4/8 Partly Cloudy,72000.0,6500.0,SCT,6500.0,,,,,,
KRDR,08-01-2014,04:58,METAR,Normal,310,3.0,,,9999.0,,17.1,17.1,30.02,1016.8,,,,,,,,,,,TRACE,,,,Clear,72000.0,,,,,,,,,
KRDR,08-01-2014,03:58,METAR,Normal,300,2.0,,,9999.0,,18.3,18.2,30.01,1016.5,,,,,,,,,,,,,,,Clear,72000.0,,,,,,,,,
KRDR,08-01-2014,03:28,SPECI,Normal,280,2.0,,,9999.0,,18.0,18.0,30.01,,,,,,,,,,,,,,,,Clear,72000.0,,,,,,,,,
KRDR,08-01-2014,03:08,SPECI,Normal,250,2.0,,,9999.0,,19.0,18.0,30.00,,,,,,,,,,,,,,,,Clear,72000.0,,,,,,,,,
KRDR,08-01-2014,02:58,METAR,Normal,240,2.0,,,9999.0,,19.4,19.2,30.00,1016.2,,,,,,,,,,,,,,,Clear,72000.0,,,,,,,,,
KRDR,08-01-2014,01:58,METAR,Normal,190,2.0,,,9999.0,,22.1,21.0,29.99,1015.8,,,,,,,,,,,,,,,Clear,72000.0,,,,,,,,,
KRDR,08-01-2014,00:58,METAR,Normal,30,2.0,,,9999.0,,24.3,19.9,30.00,1016.2,,,,,,,,,,,,,,,Clear,72000.0,,,,,,,,,
KRDR,07-31-2014,23:58,METAR,Normal,30,3.0,,,9999.0,,26.5,16.3,30.00,1016.2,,,,,,,,,,,,,,,2/8 Mostly Clear,72000.0,6500.0,FEW,6500.0,,,,,,
KRDR,07-31-2014,22:58,METAR,Normal,350,4.0,,,9999.0,,25.8,18.4,30.01,1016.5,,,,,,,,,,,,,,,,6000.0,6000.0,BKN,6000.0,BKN,7000.0,BKN,9100.0,,
KRDR,07-31-2014,21:58,METAR,Variable,,4.0,,,9999.0,,27.9,16.9,30.01,1016.4,,,,,,,,,,,,,,,2/8 Mostly Clear,72000.0,5500.0,FEW,5500.0,,,,,,
KRDR,07-31-2014,20:58,METAR,Variable,,5.0,,,9999.0,,27.8,16.6,30.02,1016.8,,,,,,,,,,,,,,,2/8 Mostly Clear,72000.0,5500.0,FEW,5500.0,,,,,,
KRDR,07-31-2014,19:58,METAR,Normal,40,5.0,,,9999.0,,27.7,15.2,30.02,1016.8,,,,,,,,,,,,,,,Clear,72000.0,,,,,,,,,
KRDR,07-31-2014,18:58,METAR,Variable,,4.0,,,9999.0,,27.3,15.6,30.02,1016.8,,,,,,,,,,,,,,,Clear,72000.0,,,,,,,,,
KRDR,07-31-2014,17:58,METAR,Variable,,4.0,,,9999.0,,26.5,17.1,30.03,1017.2,,,,,,,,,,,,,,,Clear,72000.0,,,,,,,,,
KRDR,07-31-2014,16:58,METAR,Normal,300,4.0,,,9999.0,,25.6,18.8,30.04,1017.5,,,,,,,,,,,,,,,Clear,72000.0,,,,,,,,,
KRDR,07-31-2014,15:58,METAR,Variable,,5.0,,,9999.0,,24.0,18.4,30.05,1017.9,,,,,,,,,,,,,,,Clear,72000.0,,,,,,,,,
KRDR,07-31-2014,14:58,METAR,Normal,340,4.0,,,9999.0,,22.4,17.8,30.04,1017.6,,,,,,,,,,,,,,,Clear,72000.0,,,,,,,,,
KRDR,07-31-2014,13:58,METAR,Normal,330,6.0,,,9999.0,,20.6,17.7,30.04,1017.5,,,,,,,,,,,,,,,Clear,72000.0,,,,,,,,,
KRDR,07-31-2014,12:58,METAR,Normal,290,5.0,,,9999.0,,18.3,17.5,30.04,1017.5,,,,,,,,,,,,,,,Clear,72000.0,,,,,,,,,
KRDR,07-31-2014,11:58,METAR,Normal,300,6.0,,,9999.0,,16.0,15.8,30.05,1017.9,,,,,,,,,,,,,,,2/8 Mostly Clear,72000.0,7000.0,FEW,7000.0,,,,,,
KRDR,07-31-2014,10:58,METAR,Normal,290,5.0,,,9999.0,,15.4,15.2,30.04,1017.5,,,,,,,,,,,,,,,Clear,72000.0,,,,,,,,,
KRDR,07-31-2014,09:58,METAR,Normal,280,6.0,,,9999.0,,15.9,15.7,30.04,1017.5,,,,,,,,,,,,,,,Clear,72000.0,,,,,,,,,
KRDR,07-31-2014,08:58,METAR,Normal,240,4.0,,,9999.0,,14.8,14.6,30.04,1017.5,,,,,,,,,,,,,,,4/8 Partly Cloudy,72000.0,6500.0,SCT,6500.0,,,,,,
KRDR,07-31-2014,07:58,METAR,Normal,260,2.0,,,9999.0,,14.9,14.7,30.04,1017.5,,,,,,,,,,,,,,,Clear,72000.0,,,,,,,,,
KRDR,07-31-2014,06:58,METAR,Normal,250,2.0,,,9999.0,,14.6,14.5,30.05,1017.9,,,,,,,,,,,,,,,Clear,72000.0,,,,,,,,,
KRDR,07-31-2014,05:58,METAR,Normal,250,3.0,,,9999.0,,15.4,15.3,30.05,1017.9,,,,,,,,,,,,,,,Clear,72000.0,,,,,,,,,
KRDR,07-31-2014,04:58,METAR,Normal,250,2.0,,,9999.0,,15.4,15.2,30.05,1017.9,,,,,,,,,,,,,,,Clear,72000.0,,,,,,,,,
KRDR,07-31-2014,03:58,METAR,Normal,260,2.0,,,9999.0,,16.1,16.1,30.05,1017.9,,,,,,,,,,,,,,,Clear,72000.0,,,,,,,,,
KRDR,07-31-2014,03:23,SPECI,Normal,270,2.0,,,9999.0,,16.0,16.0,30.06,,,,,,,,,,,,,,,,Clear,72000.0,,,,,,,,,
KRDR,07-31-2014,03:18,SPECI,Normal,280,3.0,,,9999.0,,16.0,16.0,30.06,,,,,,,,,,,,,,,,Clear,72000.0,,,,,,,,,
KRDR,07-31-2014,02:58,METAR,Normal,280,2.0,,,9999.0,,17.1,16.5,30.06,1018.3,,,,,,,,,,,,,,,Clear,72000.0,,,,,,,,,
KRDR,07-31-2014,01:58,METAR,Normal,20,2.0,,,9999.0,,20.9,16.3,30.05,1017.9,,,,,,,,,,,,,,,Clear,72000.0,,,,,,,,,
KRDR,07-31-2014,00:58,METAR,Normal,10,3.0,,,9999.0,,24.0,15.8,30.05,1017.9,,,,,,,,,,,,,,,Clear,72000.0,,,,,,,,,
KRDR,07-30-2014,23:58,METAR,Normal,350,6.0,,,9999.0,,25.3,14.6,30.05,1018.0,,,,,,,,,,,,,,,Clear,72000.0,,,,,,,,,
KRDR,07-30-2014,22:58,METAR,Normal,340,7.0,,,9999.0,,26.4,14.2,30.06,1018.3,,,,,,,,,,,,,,,Clear,72000.0,,,,,,,,,
KRDR,07-30-2014,21:58,METAR,Normal,340,8.0,,,9999.0,,26.5,13.9,30.07,1018.7,,,,,,,,,,,,,,,2/8 Mostly Clear,72000.0,6500.0,FEW,6500.0,,,,,,
KRDR,07-30-2014,20:58,METAR,Normal,350,10.0,,,9999.0,,26.6,13.1,30.08,1018.9,,,,,,,,,,,,,,,2/8 Mostly Clear,72000.0,6500.0,FEW,6500.0,,,,,,
KRDR,07-30-2014,19:58,METAR,Normal,330,8.0,,,9999.0,,26.8,13.4,30.09,1019.2,,,,,,,,,,,,,,,Clear,72000.0,,,,,,,,,
KRDR,07-30-2014,18:58,METAR,Normal,360,4.0,,,9999.0,,25.7,14.3,30.09,1019.3,,,,,,,,,,,,,,,2/8 Mostly Clear,72000.0,5500.0,FEW,5500.0,,,,,,
KRDR,07-30-2014,17:58,METAR,Variable,360,9.0,,,9999.0,,25.3,14.1,30.11,1020.0,,,,,,,,,,,,,,,Clear,72000.0,,,,,,,,,
KRDR,07-30-2014,16:58,METAR,Normal,330,7.0,,,9999.0,,24.7,14.7,30.12,1020.3,,,,,,,,,,,,,,,Clear,72000.0,,,,,,,,,
KRDR,07-30-2014,15:58,METAR,Normal,320,5.0,,,9999.0,,23.8,15.1,30.13,1020.6,,,,,,,,,,,,,,,Clear,72000.0,,,,,,,,,
KRDR,07-30-2014,14:58,METAR,Normal,290,7.0,,,9999.0,,22.5,15.0,30.13,1020.6,,,,,,,,,,,,,,,Clear,72000.0,,,,,,,,,
KRDR,07-30-2014,13:58,METAR,Normal,300,5.0,,,9999.0,,19.9,16.5,30.13,1020.6,,,,,,,,,,,,,,,Clear,72000.0,,,,,,,,,
KRDR,07-30-2014,12:58,METAR,Normal,290,4.0,,,9999.0,,16.1,15.6,30.14,1021.0,,,,,,,,,,,,,,,Clear,72000.0,,,,,,,,,
KRDR,07-30-2014,11:58,METAR,Normal,270,1.0,,,9999.0,,11.6,11.6,30.13,1020.8,,,,,,,,,,,,,,,Clear,72000.0,,,,,,,,,
KRDR,07-30-2014,10:58,METAR,Normal,260,3.0,,,9999.0,,11.6,11.4,30.13,1020.7,,,,,,,,,,,,,,,Clear,72000.0,,,,,,,,,
KRDR,07-30-2014,09:58,METAR,Normal,300,4.0,,,9999.0,,12.3,12.2,30.13,1020.7,,,,,,,,,,,,,,,Clear,72000.0,,,,,,,,,
KRDR,07-30-2014,08:58,METAR,Normal,280,2.0,,,9999.0,,13.1,12.9,30.12,1020.4,,,,,,,,,,,,,,,Clear,72000.0,,,,,,,,,
KRDR,07-30-2014,07:58,METAR,Normal,280,5.0,,,9999.0,,13.7,13.5,30.12,1020.3,,,,,,,,,,,,,,,Clear,72000.0,,,,,,,,,
KRDR,07-30-2014,06:58,METAR,Normal,280,3.0,,,9999.0,,13.7,13.5,30.12,1020.3,,,,,,,,,,,,,,,Clear,72000.0,,,,,,,,,
KRDR,07-30-2014,05:58,METAR,Normal,260,2.0,,,9999.0,,14.2,14.1,30.12,1020.4,,,,,,,,,,,,,,,Clear,72000.0,,,,,,,,,
KRDR,07-30-2014,04:58,METAR,Normal,300,2.0,,,9999.0,,14.3,14.2,30.12,,,,,,,,,,,,,,,,Clear,72000.0,,,,,,,,,
KRDR,07-30-2014,03:58,METAR,Normal,280,3.0,,,9999.0,,14.8,14.6,30.11,,,,,,,,,,,,,,,,Clear,72000.0,,,,,,,,,
KRDR,07-30-2014,02:58,METAR,Normal,330,2.0,,,9999.0,,16.4,15.3,30.11,,,,,,,,,,,,,,,,Clear,72000.0,,,,,,,,,
KRDR,07-30-2014,01:59,METAR,Normal,350,2.0,,,9999.0,,20.0,15.0,30.10,1019.6,,,,,,,,,,,,,,,Clear,72000.0,,,,,,,,,
KRDR,07-30-2014,00:58,METAR,Normal,10,3.0,,,9999.0,,22.9,13.4,30.10,1019.6,,,,,,,,,,,,,,,Clear,72000.0,,,,,,,,,
KRDR,07-29-2014,23:58,METAR,Normal,10,8.0,,,9999.0,,24.1,13.3,30.11,1020.0,,,,,,,,,,,,,,,Clear,72000.0,,,,,,,,,
KRDR,07-29-2014,22:58,METAR,Normal,340,5.0,,,9999.0,,24.9,13.6,30.12,1020.4,,,,,,,,,,,,,,,Clear,72000.0,,,,,,,,,
KRDR,07-29-2014,21:58,METAR,Normal,300,4.0,,,9999.0,,25.0,13.3,30.13,1020.7,,,,,,,,,,,,,,,2/8 Mostly Clear,72000.0,5500.0,FEW,5500.0,,,,,,
KRDR,07-29-2014,20:58,METAR,Normal,340,7.0,,,9999.0,,25.0,12.8,30.14,1021.0,,,,,,,,,,,,,,,Clear,72000.0,,,,,,,,,
KRDR,07-29-2014,19:58,METAR,Normal,300,6.0,,,9999.0,,25.3,13.1,30.15,1021.4,,,,,,,,,,,,,,,Clear,72000.0,,,,,,,,,
KRDR,07-29-2014,18:58,METAR,Variable,,5.0,,,9999.0,,24.6,13.1,30.16,1021.7,,,,,,,,,,,,,,,4/8 Partly Cloudy,72000.0,5000.0,SCT,5000.0,,,,,,
KRDR,07-29-2014,17:58,METAR,Normal,350,7.0,,,9999.0,,24.0,12.5,30.17,1022.1,,,,,,,,,,,,,,,4/8 Partly Cloudy,72000.0,4500.0,SCT,4500.0,SCT,6000.0,,,,
KRDR,07-29-2014,16:58,METAR,Normal,320,6.0,,,9999.0,,23.4,14.2,30.18,1022.4,,,,,,,,,,,,,,,Clear,72000.0,,,,,,,,,
KRDR,07-29-2014,15:58,METAR,Normal,320,5.0,,,9999.0,,22.1,14.2,30.18,1022.5,,,,,,,,,,,,,,,Clear,72000.0,,,,,,,,,
KRDR,07-29-2014,14:58,METAR,Normal,330,5.0,,,9999.0,,20.7,15.0,30.18,1022.5,,,,,,,,,,,,,,,Clear,72000.0,,,,,,,,,
KRDR,07-29-2014,13:58,METAR,Normal,300,7.0,,,9999.0,,18.6,14.8,30.19,1022.7,,,,,,,,,,,,,,,Clear,72000.0,,,,,,,,,
KRDR,07-29-2014,12:58,METAR,Normal,290,5.0,,,9999.0,,16.0,15.3,30.19,1022.7,,,,,,,,,,,,,,,Clear,72000.0,,,,,,,,,
KRDR,07-29-2014,11:58,METAR,Normal,280,1.0,,,9999.0,,12.8,12.7,30.18,1022.5,,,,,,,,,,,,,,,Clear,72000.0,,,,,,,,,
KRDR,07-29-2014,10:58,METAR,Normal,290,5.0,,,9999.0,,11.8,11.6,30.18,1022.5,,,,,,,,,,,,,,,Clear,72000.0,,,,,,,,,
KRDR,07-29-2014,09:58,METAR,Normal,280,5.0,,,9999.0,,11.9,11.7,30.18,1022.5,,,,,,,,,,,,,,,Clear,72000.0,,,,,,,,,
KRDR,07-29-2014,08:58,METAR,Normal,280,6.0,,,9999.0,,12.1,11.9,30.18,1022.5,,,,,,,,,,,,,,,Clear,72000.0,,,,,,,,,
KRDR,07-29-2014,07:58,METAR,Normal,270,2.0,,,9999.0,,12.4,12.2,30.19,1022.8,,,,,,,,,,,,,,,Clear,72000.0,,,,,,,,,
KRDR,07-29-2014,06:58,METAR,Normal,260,2.0,,,9999.0,,12.0,11.8,30.19,1022.8,,,,,,,,,,,,,,,Clear,72000.0,,,,,,,,,
KRDR,07-29-2014,05:58,METAR,Normal,270,1.0,,,9999.0,,13.1,13.0,30.19,1022.8,,,,,,,,,,,,,,,Clear,72000.0,,,,,,,,,
KRDR,07-29-2014,04:58,METAR,Normal,280,2.0,,,9999.0,,13.4,13.4,30.19,1022.8,,,,,,,,,,,,,,,Clear,72000.0,,,,,,,,,
KRDR,07-29-2014,03:58,METAR,Normal,270,2.0,,,9999.0,,14.2,14.0,30.20,1023.1,,,,,,,,,,,,,,,Clear,72000.0,,,,,,,,,
KRDR,07-29-2014,03:38,SPECI,Normal,270,2.0,,,9999.0,,15.0,14.0,30.20,,,,,,,,,,,,,,,,Clear,72000.0,,,,,,,,,
KRDR,07-29-2014,03:13,SPECI,Normal,280,2.0,,,9999.0,,15.0,15.0,30.20,,,,,,,,,,,,,,,,Clear,72000.0,,,,,,,,,
KRDR,07-29-2014,02:58,METAR,Normal,300,2.0,,,9999.0,,15.3,15.1,30.20,1023.2,,,,,,,,,,,,,,,Clear,72000.0,,,,,,,,,
KRDR,07-29-2014,01:58,METAR,Normal,350,3.0,,,9999.0,,18.4,14.8,30.19,1022.8,,,,,,,,,,,,,,,Clear,72000.0,,,,,,,,,
KRDR,07-29-2014,00:58,METAR,Normal,360,3.0,,,9999.0,,21.3,13.9,30.20,1023.1,,,,,,,,,,,,,,,Clear,72000.0,,,,,,,,,
KRDR,07-28-2014,23:58,METAR,Normal,340,7.0,,,9999.0,,22.6,13.2,30.20,1023.1,,,,,,,,,,,,,,,2/8 Mostly Clear,72000.0,4800.0,FEW,4800.0,,,,,,
KRDR,07-28-2014,22:58,METAR,Normal,350,5.0,,,9999.0,,23.0,12.9,30.22,1023.8,,,,,,,,,,,,,,,Clear,72000.0,,,,,,,,,
KRDR,07-28-2014,21:58,METAR,Normal,350,6.0,,,9999.0,,23.3,13.2,30.23,1024.1,,,,,,,,,,,,,,,2/8 Mostly Clear,72000.0,7000.0,FEW,7000.0,,,,,,
KRDR,07-28-2014,20:58,METAR,Normal,350,9.0,,,9999.0,,23.4,13.3,30.24,1024.5,,,,,,,,,,,,,,,4/8 Partly Cloudy,72000.0,4500.0,FEW,4500.0,SCT,6000.0,,,,
KRDR,07-28-2014,19:58,METAR,Normal,360,7.0,,,9999.0,,23.5,13.9,30.25,1024.7,,,,,,,,,,,,,,,,6000.0,4300.0,FEW,4300.0,BKN,6000.0,,,,
KRDR,07-28-2014,18:58,METAR,Normal,350,11.0,,,9999.0,,23.1,13.8,30.26,1025.1,,,,,,,,,,,,,,,,6500.0,6500.0,BKN,6500.0,,,,,,
KRDR,07-28-2014,17:58,METAR,Normal,310,10.0,,,9999.0,,21.7,13.5,30.27,1025.5,,,,,,,,,,,,,,,2/8 Mostly Clear,72000.0,4200.0,FEW,4200.0,,,,,,
KRDR,07-28-2014,16:58,METAR,Normal,320,7.0,,,9999.0,,21.8,13.7,30.28,1025.8,,,,,,,,,,,,,,,2/8 Mostly Clear,72000.0,3600.0,FEW,3600.0,,,,,,
KRDR,07-28-2014,15:58,METAR,Normal,350,7.0,,,9999.0,,20.8,14.3,30.29,1026.2,,,,,,,,,,,,,,,Clear,72000.0,,,,,,,,,
KRDR,07-28-2014,14:58,METAR,Normal,350,7.0,,,9999.0,,19.1,14.7,30.29,1026.3,,,,,,,,,,,,,,,2/8 Mostly Clear,72000.0,6500.0,FEW,6500.0,,,,,,
KRDR,07-28-2014,13:58,METAR,Normal,310,7.0,,,9999.0,,16.9,14.0,30.29,1026.3,,,,,,,,,,,,,,,,6000.0,6000.0,OVC,6000.0,,,,,,
KRDR,07-28-2014,12:58,METAR,Normal,300,4.0,,,9999.0,,15.8,13.9,30.28,1025.9,,,,,,,,,,,,,,,,6000.0,6000.0,OVC,6000.0,,,,,,
KRDR,07-28-2014,11:58,METAR,Normal,310,4.0,,,9999.0,,15.0,13.7,30.28,1025.9,,,,,,,,,,,,,,,,6500.0,6500.0,OVC,6500.0,,,,,,
KRDR,07-28-2014,10:58,METAR,Normal,300,5.0,,,9999.0,,15.2,13.5,30.27,1025.5,,,,,,,,,,,,,,,,6500.0,6500.0,OVC,6500.0,,,,,,
KRDR,07-28-2014,09:58,METAR,Normal,300,5.0,,,9999.0,,15.3,13.7,30.26,1025.2,,,,,,,,,,,,,,,,6500.0,6500.0,OVC,6500.0,,,,,,
KRDR,07-28-2014,08:58,METAR,Normal,300,6.0,,,9999.0,,15.4,14.1,30.25,1024.9,,,,,,,,,,,,,,,,6500.0,6500.0,OVC,6500.0,,,,,,
KRDR,07-28-2014,07:58,METAR,Normal,290,5.0,,,9999.0,,15.3,14.2,30.25,1024.9,,,,,,,,,,,,,,,,6000.0,6000.0,OVC,6000.0,,,,,,
KRDR,07-28-2014,06:58,METAR,Normal,300,5.0,,,9999.0,,15.2,14.1,30.24,1024.6,,,,,,,,,,,,,,,,6500.0,6500.0,OVC,6500.0,,,,,,
KRDR,07-28-2014,05:58,METAR,Normal,330,6.0,,,9999.0,,15.5,13.9,30.23,1024.2,,,,,,,,,,,,,,,,7000.0,7000.0,OVC,7000.0,,,,,,
KRDR,07-28-2014,04:58,METAR,Normal,310,6.0,,,9999.0,,15.6,13.8,30.23,1024.2,,,,,,,,,,,,,,,,7000.0,7000.0,OVC,7000.0,,,,,,
KRDR,07-28-2014,03:58,METAR,Normal,300,5.0,,,9999.0,,15.9,14.1,30.23,1024.2,,,,,,,,,,,,,,,,7000.0,7000.0,OVC,7000.0,,,,,,
KRDR,07-28-2014,02:58,METAR,Normal,310,6.0,,,9999.0,,14.9,14.8,30.22,1024.0,,,,,,,,,,,,,,,4/8 Partly Cloudy,72000.0,7000.0,SCT,7000.0,,,,,,
KRDR,07-28-2014,01:58,METAR,Normal,330,4.0,,,9999.0,,16.8,14.9,30.20,1023.2,,,,,,,,,,,,,,,,6500.0,6500.0,OVC,6500.0,,,,,,
KRDR,07-28-2014,00:58,METAR,Normal,360,8.0,,,9999.0,,18.7,14.2,30.20,1023.1,,,,,,,,,,,,,,,,6500.0,6500.0,OVC,6500.0,,,,,,
KRDR,07-27-2014,23:58,METAR,Normal,350,11.0,,,9999.0,,19.4,14.4,30.19,1022.8,,,,,,,,,,,,,,,,6500.0,6500.0,OVC,6500.0,,,,,,
KRDR,07-27-2014,22:58,METAR,Normal,10,11.0,,,9999.0,,20.1,14.6,30.19,1022.8,,,,,,,,,,,,,,,,3500.0,2900.0,SCT,2900.0,BKN,3500.0,OVC,6000.0,,
KRDR,07-27-2014,21:58,METAR,Normal,360,11.0,,,9999.0,,20.2,14.3,30.18,1022.5,,,,,,,,,,,,,,,,4300.0,2900.0,SCT,2900.0,BKN,4300.0,OVC,5000.0,,
KRDR,07-27-2014,21:08,SPECI,Normal,350,12.0,,,9999.0,,20.0,15.0,30.17,,,,,,,,,,,,,,,,,3300.0,2700.0,SCT,2700.0,BKN,3300.0,OVC,4700.0,,
KRDR,07-27-2014,20:58,METAR,Normal,360,11.0,,,9999.0,,19.5,14.5,30.17,1022.1,,,,,,,,,,,,,,,,2600.0,2800.0,BKN,2800.0,BKN,3500.0,OVC,4700.0,,
KRDR,07-27-2014,20:53,SPECI,Normal,350,12.0,,,9999.0,,19.0,14.0,30.17,,,,,,,,,,,,,,,,,2600.0,2600.0,BKN,2600.0,BKN,3800.0,OVC,4800.0,,
KRDR,07-27-2014,20:38,SPECI,Normal,350,12.0,,,9999.0,,19.0,14.0,30.17,,,,,,,,,,,,,,,,,2700.0,2700.0,BKN,2700.0,BKN,3600.0,OVC,4400.0,,
KRDR,07-27-2014,20:33,SPECI,Normal,340,13.0,,,9999.0,,19.0,15.0,30.17,,,,,,,,,,,,,,,,,4100.0,2700.0,SCT,2700.0,OVC,4100.0,,,,
KRDR,07-27-2014,20:18,SPECI,Normal,340,12.0,,,9999.0,,20.0,14.0,30.17,,,,,,,,,,,,,,,,,2800.0,2800.0,BKN,2800.0,OVC,4200.0,,,,
KRDR,07-27-2014,20:08,SPECI,Normal,350,13.0,,,9999.0,,20.0,14.0,30.17,,,,,,,,,,,,,,,,,3300.0,2600.0,SCT,2600.0,BKN,3300.0,OVC,4200.0,,
KRDR,07-27-2014,19:58,METAR,Normal,340,11.0,,,9999.0,,19.0,14.0,30.17,1022.1,,,,,,,,,,,,,,,,2400.0,2400.0,BKN,2400.0,OVC,3200.0,,,,
KRDR,07-27-2014,19:43,SPECI,Normal,330,13.0,,,9999.0,,19.0,14.0,30.17,,,,,,,,,,,,,,,,,3200.0,2300.0,SCT,2300.0,BKN,3200.0,OVC,3900.0,,
KRDR,07-27-2014,18:58,METAR,Normal,330,16.0,,,9999.0,,18.8,14.3,30.15,1021.4,,,,,,,,,,,,,,,,2500.0,2500.0,BKN,2500.0,OVC,3500.0,,,,
KRDR,07-27-2014,18:38,SPECI,Normal,360,17.0,,,9999.0,,18.0,15.0,30.15,,,,,,,,,,,,,,,,,3000.0,2300.0,SCT,2300.0,OVC,3000.0,,,,
KRDR,07-27-2014,18:18,SPECI,Normal,340,14.0,21.0,,9999.0,,19.0,15.0,30.14,,,,,,,,,,,,,,,,,2200.0,2400.0,BKN,2400.0,OVC,3100.0,,,,
KRDR,07-27-2014,18:08,SPECI,Normal,350,15.0,,,9999.0,,18.0,15.0,30.14,,,,,,,,,,,,,,,,,3000.0,2200.0,SCT,2200.0,OVC,3000.0,,,,
KRDR,07-27-2014,18:03,SPECI,Variable,350,11.0,,,9999.0,,19.0,15.0,30.14,,,,,,,,,,,,,,,,,2300.0,2400.0,BKN,2400.0,OVC,3200.0,,,,
KRDR,07-27-2014,17:58,METAR,Normal,350,14.0,18.0,,9999.0,,19.0,14.0,30.14,1021.1,,,,,,,,,,,,,TRACE,,,3000.0,2200.0,SCT,2200.0,OVC,3000.0,,,,
KRDR,07-27-2014,16:58,METAR,Normal,340,18.0,,,9999.0,,16.5,14.4,30.13,1020.8,,,,,,,,,,,,,,,,1700.0,1700.0,OVC,1700.0,,,,,,
KRDR,07-27-2014,15:58,METAR,Normal,350,15.0,21.0,,9999.0,,16.6,14.5,30.10,1019.7,,,,,,,,,,,,,,,,1800.0,1800.0,OVC,1800.0,,,,,,
KRDR,07-27-2014,15:38,SPECI,Normal,350,18.0,24.0,,9999.0,,17.0,14.0,30.09,,,,,,,,,,,,,,,,,1600.0,1600.0,BKN,1600.0,OVC,2400.0,,,,
KRDR,07-27-2014,15:18,SPECI,Normal,340,16.0,,,9999.0,,16.0,15.0,30.08,,,,,,,,,,,,,,,,,1200.0,1200.0,BKN,1200.0,OVC,2500.0,,,,
KRDR,07-27-2014,14:58,METAR,Normal,340,15.0,22.0,,9999.0,,16.1,15.4,30.07,1018.8,,,,,,,,,,,TRACE,TRACE,,,,1100.0,1100.0,OVC,1100.0,,,,,,
KRDR,07-27-2014,14:47,SPECI,Normal,350,17.0,22.0,,9999.0,,16.0,15.0,30.07,,,,,,,,,,,,,,,,,1000.0,1000.0,OVC,1000.0,,,,,,
KRDR,07-27-2014,14:38,SPECI,Normal,330,13.0,20.0,,9999.0,Light Drizzle,16.0,15.0,30.07,,51,,,,,,,,,,,,,,,1000.0,1000.0,OVC,1000.0,,,,,,
KRDR,07-27-2014,14:30,SPECI,Normal,340,15.0,19.0,,9999.0,,15.0,15.0,30.07,,,,,,,,,,,,,,,,,1000.0,1000.0,BKN,1000.0,OVC,1400.0,,,,
KRDR,07-27-2014,14:03,SPECI,Normal,340,14.0,,,9999.0,Light Drizzle,16.0,15.0,30.05,,51,,,,,,,,,,,,,,,1100.0,600.0,FEW,600.0,OVC,1100.0,,,,
KRDR,07-27-2014,14:02,SPECI,Normal,340,14.0,,,9999.0,,16.0,15.0,30.05,,,,,,,,,,,,,,,,,1100.0,1100.0,OVC,1100.0,,,,,,
KRDR,07-27-2014,13:58,METAR,Normal,340,13.0,,,9999.0,,16.0,15.1,30.05,1018.0,,,,,,,,,,,,,,,,1200.0,1200.0,OVC,1200.0,,,,,,
KRDR,07-27-2014,13:33,SPECI,Normal,340,14.0,21.0,,9999.0,,16.0,15.0,30.04,,,,,,,,,,,,,,,,,1200.0,1200.0,OVC,1200.0,,,,,,
KRDR,07-27-2014,13:23,SPECI,Normal,340,15.0,22.0,,9999.0,,16.0,15.0,30.03,,,,,,,,,,,,,,,,,1100.0,1100.0,OVC,1100.0,,,,,,
KRDR,07-27-2014,12:58,METAR,Normal,340,14.0,23.0,,9999.0,,16.0,15.3,30.02,1017.0,,,,,,,,,,,,,,,,1400.0,1400.0,OVC,1400.0,,,,,,
KRDR,07-27-2014,12:15,SPECI,Normal,330,17.0,,,9999.0,,16.0,16.0,30.00,,,,,,,,,,,,,,,,,1200.0,900.0,FEW,900.0,BKN,1200.0,OVC,2700.0,,
KRDR,07-27-2014,12:13,SPECI,Normal,330,15.0,,,9999.0,,16.0,16.0,30.00,,,,,,,,,,,,,,,,,1200.0,1200.0,BKN,1200.0,BKN,2300.0,OVC,2800.0,,
KRDR,07-27-2014,12:03,SPECI,Normal,330,16.0,22.0,,9999.0,,16.0,15.0,29.99,,,,,,,,,,,,,,,,,1200.0,1200.0,SCT,1200.0,BKN,1800.0,OVC,3100.0,,
KRDR,07-27-2014,11:58,METAR,Normal,330,13.0,20.0,020/26KTS,9999.0,,15.5,15.3,29.99,1015.9,,,,,,,,,,,TRACE,,TRACE,,,1200.0,1200.0,BKN,1200.0,BKN,1800.0,OVC,3100.0,,
KRDR,07-27-2014,11:52,SPECI,Normal,330,14.0,21.0,,9999.0,,15.0,15.0,29.98,,,,,,,,,,,,,,,,,1200.0,700.0,FEW,700.0,BKN,1200.0,OVC,2100.0,,
KRDR,07-27-2014,11:42,SPECI,Normal,330,13.0,,,9999.0,,15.0,15.0,29.98,,,,,,,,,,,,,,,,,1000.0,1000.0,BKN,1000.0,BKN,1400.0,OVC,1800.0,,
KRDR,07-27-2014,11:35,SPECI,Normal,330,16.0,22.0,,9999.0,Light Drizzle,15.0,15.0,29.98,,51,,,,,,,,,,,,,,,1000.0,1000.0,BKN,1000.0,BKN,1900.0,OVC,3100.0,,
KRDR,07-27-2014,11:20,SPECI,Normal,320,14.0,24.0,,9999.0,Light Rain,16.0,16.0,29.97,,61,,,,,,,,,,,,,,,2500.0,1000.0,FEW,1000.0,BKN,2500.0,OVC,3000.0,,
KRDR,07-27-2014,11:18,SPECI,Normal,330,14.0,24.0,,9999.0,Light Rain,16.0,15.0,29.97,,61,,,,,,,,,,,,,,,2800.0,1400.0,FEW,1400.0,SCT,2100.0,OVC,2800.0,,
KRDR,07-27-2014,11:03,SPECI,Normal,330,17.0,,,9999.0,,16.0,15.0,29.96,,,,,,,,,,,,,,,,,1400.0,1400.0,SCT,1400.0,OVC,2500.0,,,,
KRDR,07-27-2014,10:58,METAR,Normal,330,17.0,22.0,,9999.0,,16.0,15.3,29.96,1014.9,,,,,,,,,,,TRACE,,,,,1400.0,1400.0,BKN,1400.0,OVC,2500.0,,,,
KRDR,07-27-2014,10:22,SPECI,Normal,330,16.0,25.0,,9999.0,,16.0,16.0,29.93,,,,,,,,,,,,,,,,,1400.0,1400.0,OVC,1400.0,,,,,,
KRDR,07-27-2014,10:17,SPECI,Normal,340,17.0,25.0,,9999.0,,16.0,16.0,29.93,,,,,,,,,,,,,,,,,1500.0,1000.0,FEW,1000.0,OVC,1500.0,,,,
KRDR,07-27-2014,10:04,SPECI,Normal,330,15.0,24.0,,9999.0,,16.0,16.0,29.92,,,,,,,,,,,,,,,,,1300.0,1300.0,OVC,1300.0,,,,,,
KRDR,07-27-2014,09:58,METAR,Normal,340,16.0,25.0,330/27KTS,9999.0,Light Rain,15.9,15.7,29.92,1013.5,61,,,,,,,,,,TRACE,,,,,1100.0,600.0,FEW,600.0,OVC,1100.0,,,,
KRDR,07-27-2014,09:53,SPECI,Normal,330,20.0,25.0,,9999.0,Light Rain,16.0,16.0,29.92,,61,,,,,,,,,,,,,,,1100.0,600.0,FEW,600.0,OVC,1100.0,,,,
KRDR,07-27-2014,09:50,SPECI,Normal,330,19.0,25.0,,9999.0,,16.0,16.0,29.92,,,,,,,,,,,,,,,,,1100.0,600.0,FEW,600.0,OVC,1100.0,,,,
KRDR,07-27-2014,09:43,SPECI,Normal,340,18.0,27.0,,9999.0,,16.0,16.0,29.91,,,,,,,,,,,,,,,,,1200.0,1200.0,OVC,1200.0,,,,,,
KRDR,07-27-2014,09:23,SPECI,Normal,330,18.0,24.0,,9999.0,,16.0,16.0,29.90,,,,,,,,,,,,,,,,,1100.0,1100.0,OVC,1100.0,,,,,,
KRDR,07-27-2014,09:18,SPECI,Normal,330,16.0,24.0,,9999.0,,16.0,16.0,29.90,,,,,,,,,,,,,,,,,900.0,900.0,OVC,900.0,,,,,,
KRDR,07-27-2014,09:03,SPECI,Normal,330,17.0,21.0,,9999.0,Light Drizzle,16.0,16.0,29.89,,51,,,,,,,,,,,,,,,600.0,900.0,OVC,900.0,,,,,,
KRDR,07-27-2014,08:58,METAR,Normal,330,17.0,24.0,350/29KTS,9999.0,Light Rain,16.0,16.0,29.89,1012.5,61,,,,,,,,,,TRACE,TRACE,,,,600.0,600.0,SCT,600.0,BKN,1000.0,OVC,1300.0,,
KRDR,07-27-2014,08:56,SPECI,Normal,330,16.0,24.0,,9999.0,Light Rain,16.0,16.0,29.89,,61,,,,,,,,,,,,,,,600.0,600.0,SCT,600.0,BKN,1000.0,OVC,1300.0,,
KRDR,07-27-2014,08:46,SPECI,Normal,330,15.0,26.0,,9999.0,Light Rain,17.0,16.0,29.89,,61,,,,,,,,,,,,,,,1300.0,600.0,SCT,600.0,OVC,1300.0,,,,
KRDR,07-27-2014,08:38,SPECI,Normal,330,16.0,26.0,,9999.0,,17.0,16.0,29.88,,,,,,,,,,,,,,,,,1400.0,500.0,FEW,500.0,BKN,1400.0,OVC,1900.0,,
KRDR,07-27-2014,08:24,SPECI,Normal,330,17.0,22.0,,9999.0,,17.0,16.0,29.87,,,,,,,,,,,,,,,,,1500.0,1500.0,OVC,1500.0,,,,,,
KRDR,07-27-2014,08:15,SPECI,Normal,330,15.0,24.0,,9999.0,Light Drizzle,17.0,16.0,29.87,,51,,,,,,,,,,,,,,,1500.0,1500.0,OVC,1500.0,,,,,,
KRDR,07-27-2014,07:58,METAR,Normal,310,15.0,21.0,,9999.0,,17.2,15.9,29.86,1011.4,,,,,,,,,,,,,,,,1500.0,1500.0,OVC,1500.0,,,,,,
KRDR,07-27-2014,06:58,METAR,Normal,320,14.0,21.0,,9999.0,,17.3,15.8,29.85,1011.1,,,,,,,,,,,,,,,,1600.0,1600.0,OVC,1600.0,,,,,,
KRDR,07-27-2014,05:58,METAR,Normal,300,12.0,,,9999.0,,16.9,15.8,29.82,1010.0,,,,,,,,,,,,,TRACE,,,1800.0,1800.0,OVC,1800.0,,,,,,
KRDR,07-27-2014,05:38,SPECI,Normal,310,13.0,,,9999.0,,17.0,16.0,29.81,,,,,,,,,,,,,,,,,1800.0,1800.0,BKN,1800.0,,,,,,
KRDR,07-27-2014,04:58,METAR,Normal,310,11.0,,,9999.0,,17.0,15.9,29.80,1009.4,,,,,,,,,,,TRACE,,,,,8500.0,2600.0,SCT,2600.0,BKN,8600.0,,,,
KRDR,07-27-2014,04:56,SPECI,Normal,310,11.0,,,9999.0,,17.0,16.0,29.80,,,,,,,,,,,,,,,,,8500.0,2600.0,SCT,2600.0,BKN,8600.0,,,,
KRDR,07-27-2014,04:51,SPECI,Normal,310,11.0,,,9999.0,,17.0,16.0,29.80,,,,,,,,,,,,,,,,,2700.0,2700.0,BKN,2700.0,BKN,3600.0,OVC,8600.0,,
KRDR,07-27-2014,04:46,SPECI,Normal,300,10.0,,,9999.0,,17.0,16.0,29.80,,,,,,,,,,,,,,,,,3400.0,2800.0,SCT,2800.0,BKN,3400.0,BKN,4700.0,,
KRDR,07-27-2014,04:41,SPECI,Normal,300,11.0,,,9999.0,,17.0,16.0,29.80,,,,,,,,,,,,,,,,,2700.0,2800.0,BKN,2800.0,BKN,3600.0,BKN,6000.0,,
KRDR,07-27-2014,04:16,SPECI,Normal,310,14.0,,,9999.0,,17.0,15.0,29.79,,,,,,,,,,,,,,,,4/8 Partly Cloudy,72000.0,8000.0,FEW,8000.0,SCT,9100.0,SCT,11000.0,,
KRDR,07-27-2014,04:03,SPECI,Normal,300,15.0,19.0,,9999.0,Light Rain,18.0,15.0,29.78,,61,,,,,,,,,,,,,,4/8 Partly Cloudy,72000.0,10000.0,SCT,10000.0,,,,,,
KRDR,07-27-2014,03:58,METAR,Normal,300,12.0,19.0,,9999.0,,18.0,15.2,29.78,1008.7,,,,,,,,,,,,,,,2/8 Mostly Clear,72000.0,11000.0,FEW,11000.0,,,,,,
KRDR,07-27-2014,02:58,METAR,Normal,290,12.0,,,9999.0,,18.4,15.9,29.76,1008.0,,,,,,,,,,,,TRACE,,,Clear,72000.0,,,,,,,,,
KRDR,07-27-2014,01:58,METAR,Normal,290,13.0,,,9999.0,,19.7,14.9,29.74,1007.3,,,,,,,,,,,,,,,4/8 Partly Cloudy,72000.0,3600.0,SCT,3600.0,SCT,4400.0,,,,
KRDR,07-27-2014,00:58,METAR,Normal,270,13.0,19.0,,9999.0,,21.2,15.6,29.73,1007.0,,,,,,,,,,,TRACE,,,,Clear,72000.0,,,,,,,,,
KRDR,07-27-2014,00:19,SPECI,Normal,270,12.0,19.0,,9999.0,,20.0,16.0,29.73,,,,,,,,,,,,,,,,,12000.0,5000.0,FEW,5000.0,SCT,8000.0,BKN,12000.0,,
KRDR,07-27-2014,00:08,SPECI,Normal,270,17.0,25.0,,9999.0,Light Rain,21.0,16.0,29.73,,61,,,,,,,,,,,,,,,8000.0,4900.0,SCT,4900.0,BKN,8000.0,BKN,12000.0,,
KRDR,07-26-2014,23:58,METAR,Normal,260,16.0,20.0,270/27KTS,9999.0,,21.8,15.0,29.73,1007.0,,,,,,,,,,,,,TRACE,,,12000.0,9000.0,SCT,9100.0,BKN,12000.0,,,,
KRDR,07-26-2014,22:58,METAR,Normal,260,13.0,23.0,,9999.0,,23.6,14.9,29.73,1007.0,,,,,,,,,,,,,,,4/8 Partly Cloudy,72000.0,4300.0,SCT,4300.0,,,,,,
KRDR,07-26-2014,21:58,METAR,Normal,240,12.0,,270/26KTS,9999.0,,20.3,15.6,29.76,1008.2,,,,,,,,,,,TRACE,,,,,8500.0,7000.0,FEW,7000.0,OVC,8600.0,,,,
KRDR,07-26-2014,21:49,SPECI,Normal,250,13.0,26.0,,9999.0,,20.0,16.0,29.76,,,,,,,,,,,,,,,,,8000.0,8000.0,OVC,8000.0,,,,,,
KRDR,07-26-2014,21:34,SPECI,Normal,270,17.0,24.0,,9999.0,Light Drizzle,22.0,14.0,29.76,,51,,,,,,,,,,,,,,,7500.0,5500.0,FEW,5500.0,BKN,7500.0,OVC,8600.0,,
KRDR,07-26-2014,20:58,METAR,Normal,280,11.0,,,9999.0,,22.1,12.9,29.76,1008.2,,,,,,,,,,,TRACE,TRACE,,,,7000.0,5000.0,FEW,5000.0,BKN,7000.0,OVC,9100.0,,
KRDR,07-26-2014,20:55,SPECI,Normal,280,12.0,,,9999.0,,22.0,13.0,29.76,,,,,,,,,,,,,,,,,7000.0,5000.0,SCT,5000.0,BKN,7000.0,OVC,9100.0,,
KRDR,07-26-2014,20:46,SPECI,Normal,290,12.0,20.0,,9999.0,Light Drizzle,23.0,13.0,29.76,,51,,,,,,,,,,,,,,,7500.0,5500.0,SCT,5500.0,BKN,7500.0,BKN,9600.0,,
KRDR,07-26-2014,19:58,METAR,Variable,270,12.0,,,9999.0,,23.3,12.9,29.77,1008.4,,,,,,,,,,,,,,,,8500.0,5000.0,FEW,5000.0,SCT,7000.0,BKN,8600.0,,
KRDR,07-26-2014,18:58,METAR,Normal,270,12.0,19.0,,9999.0,,23.8,14.1,29.77,1008.4,,,,,,,,,,,,,,,,7500.0,4700.0,SCT,4700.0,BKN,7500.0,,,,
KRDR,07-26-2014,17:58,METAR,Normal,260,15.0,21.0,,9999.0,,23.9,13.9,29.77,1008.4,,,,,,,,,,,,,,,2/8 Mostly Clear,72000.0,4500.0,FEW,4500.0,,,,,,
KRDR,07-26-2014,16:58,METAR,Normal,280,10.0,,,9999.0,,23.3,13.7,29.76,1008.0,,,,,,,,,,,,,,,Clear,72000.0,,,,,,,,,
KRDR,07-26-2014,15:58,METAR,Normal,270,12.0,,,9999.0,,23.0,14.4,29.76,1008.0,,,,,,,,,,,,,,,Clear,72000.0,,,,,,,,,
KRDR,07-26-2014,14:58,METAR,Normal,270,15.0,21.0,,9999.0,,22.4,14.4,29.76,1008.0,,,,,,,,,,,,,,,Clear,72000.0,,,,,,,,,
KRDR,07-26-2014,13:58,METAR,Normal,250,11.0,,,9999.0,,21.7,15.9,29.74,1007.2,,,,,,,,,,,,,,,Clear,72000.0,,,,,,,,,
KRDR,07-26-2014,12:58,METAR,Normal,220,9.0,,,9999.0,,20.1,15.3,29.74,1007.2,,,,,,,,,,,,,,,Clear,72000.0,,,,,,,,,
KRDR,07-26-2014,11:58,METAR,Normal,220,7.0,,,9999.0,,16.7,14.6,29.74,1007.3,,,,,,,,,,,,,,,Clear,72000.0,,,,,,,,,
KRDR,07-26-2014,10:58,METAR,Normal,230,6.0,,,9999.0,,14.6,13.5,29.74,1007.3,,,,,,,,,,,,,,,Clear,72000.0,,,,,,,,,
KRDR,07-26-2014,09:58,METAR,Normal,190,5.0,,,9999.0,,15.1,13.4,29.74,1007.3,,,,,,,,,,,,,,,Clear,72000.0,,,,,,,,,
KRDR,07-26-2014,08:58,METAR,Normal,180,7.0,,,9999.0,,14.4,14.0,29.75,1007.6,,,,,,,,,,,,,,,Clear,72000.0,,,,,,,,,
KRDR,07-26-2014,07:58,METAR,Normal,180,7.0,,,9999.0,,14.3,14.2,29.76,1008.0,,,,,,,,,,,,,,,Clear,72000.0,,,,,,,,,
KRDR,07-26-2014,06:58,METAR,Normal,200,4.0,,,9999.0,,15.4,14.9,29.78,1008.7,,,,,,,,,,,,,,,Clear,72000.0,,,,,,,,,
KRDR,07-26-2014,05:58,METAR,Normal,210,5.0,,,9999.0,,14.8,14.6,29.79,1009.0,,,,,,,,,,,,,,,Clear,72000.0,,,,,,,,,
KRDR,07-26-2014,04:58,METAR,Normal,190,5.0,,,9999.0,,16.1,15.3,29.79,1009.0,,,,,,,,,,,,,,,Clear,72000.0,,,,,,,,,
KRDR,07-26-2014,03:58,METAR,Normal,220,5.0,,,9999.0,,16.1,16.0,29.79,1009.1,,,,,,,,,,,,,,,Clear,72000.0,,,,,,,,,
KRDR,07-26-2014,02:58,METAR,Normal,270,4.0,,,9999.0,,18.4,15.4,29.79,1009.1,,,,,,,,,,,,,,,Clear,72000.0,,,,,,,,,
KRDR,07-26-2014,01:58,METAR,Normal,290,5.0,,,9999.0,,21.7,15.2,29.77,1008.3,,,,,,,,,,,,,,,Clear,72000.0,,,,,,,,,
KRDR,07-26-2014,00:58,METAR,Normal,280,4.0,,,9999.0,,24.6,15.3,29.76,1007.9,,,,,,,,,,,,,,,Clear,72000.0,,,,,,,,,
KRDR,07-25-2014,23:58,METAR,Normal,280,8.0,,,9999.0,,25.5,13.6,29.75,1007.6,,,,,,,,,,,,,,,Clear,72000.0,,,,,,,,,
KRDR,07-25-2014,22:58,METAR,Normal,290,10.0,,,9999.0,,26.5,13.0,29.74,1007.2,,,,,,,,,,,,,,,Clear,72000.0,,,,,,,,,
KRDR,07-25-2014,21:58,METAR,Normal,300,10.0,,,9999.0,,26.7,12.6,29.75,1007.5,,,,,,,,,,,,,,,Clear,72000.0,,,,,,,,,
KRDR,07-25-2014,20:58,METAR,Normal,300,13.0,,,9999.0,,27.2,13.7,29.75,1007.5,,,,,,,,,,,,,,,Clear,72000.0,,,,,,,,,
KRDR,07-25-2014,19:58,METAR,Normal,300,13.0,,,9999.0,,27.0,17.1,29.75,1007.5,,,,,,,,,,,,,,,Clear,72000.0,,,,,,,,,
KRDR,07-25-2014,18:58,METAR,Normal,280,9.0,,,9999.0,,24.9,20.2,29.75,1007.5,,,,,,,,,,,,,,,,3400.0,3400.0,BKN,3400.0,BKN,4400.0,OVC,5000.0,,
KRDR,07-25-2014,18:23,SPECI,Normal,250,4.0,,,9999.0,,26.0,22.0,29.75,,,,,,,,,,,,,,,,,3200.0,2400.0,SCT,2400.0,BKN,3200.0,OVC,4200.0,,
KRDR,07-25-2014,17:58,METAR,Normal,220,7.0,,,9999.0,,26.1,21.6,29.75,1007.5,,,,,,,,,,,,,,,,2900.0,2200.0,SCT,2200.0,BKN,2900.0,,,,
KRDR,07-25-2014,16:58,METAR,Variable,,5.0,,,9999.0,,24.4,20.1,29.75,1007.6,,,,,,,,,,,,,,,2/8 Mostly Clear,72000.0,2100.0,FEW,2100.0,,,,,,
KRDR,07-25-2014,16:48,SPECI,Variable,,2.0,,,9999.0,,24.0,20.0,29.76,,,,,,,,,,,,,,,,4/8 Partly Cloudy,72000.0,2100.0,SCT,2100.0,,,,,,
KRDR,07-25-2014,15:58,METAR,Normal,230,5.0,,,9999.0,,23.2,19.8,29.77,1008.3,,,,,,,,,,,,,,,,1900.0,1900.0,OVC,1900.0,,,,,,
KRDR,07-25-2014,14:58,METAR,Normal,310,5.0,,,9999.0,,21.5,19.3,29.77,1008.3,,,,,,,,,,,,,,,,1600.0,1600.0,OVC,1600.0,,,,,,
KRDR,07-25-2014,14:28,SPECI,Normal,320,7.0,,,9999.0,,22.0,19.0,29.77,,,,,,,,,,,,,,,,,1600.0,1600.0,BKN,1600.0,,,,,,
KRDR,07-25-2014,13:58,METAR,Normal,310,6.0,,,9999.0,,21.4,19.0,29.77,1008.3,,,,,,,,,,,,,,,2/8 Mostly Clear,72000.0,1500.0,FEW,1500.0,,,,,,
KRDR,07-25-2014,12:58,METAR,Normal,270,4.0,,,9999.0,,19.8,18.7,29.72,1006.6,,,,,,,,,,,,,,,Clear,72000.0,,,,,,,,,
KRDR,07-25-2014,11:58,METAR,Normal,180,11.0,,,9999.0,,18.6,18.4,29.69,1005.6,,,,,,,,,,,,,,,Clear,72000.0,,,,,,,,,
KRDR,07-25-2014,10:58,METAR,Normal,160,11.0,,,9999.0,,18.3,18.1,29.68,1005.3,,,,,,,,,,,,,,,Clear,72000.0,,,,,,,,,
KRDR,07-25-2014,09:58,METAR,Normal,190,5.0,,,9999.0,,18.7,18.6,29.75,1007.6,,,,,,,,,,,,,,,Clear,72000.0,,,,,,,,,
KRDR,07-25-2014,08:58,METAR,Normal,170,8.0,,,9999.0,,19.5,18.6,29.73,1006.9,,,,,,,,,,,,,,,Clear,72000.0,,,,,,,,,
KRDR,07-25-2014,07:58,METAR,Normal,120,7.0,,,9999.0,,20.0,18.5,29.76,1007.9,,,,,,,,,,,,,,,,4000.0,4000.0,OVC,4000.0,,,,,,
KRDR,07-25-2014,06:58,METAR,Normal,50,3.0,,,9999.0,,20.1,18.5,29.78,1008.6,,,,,,,,,,,,,,,,6500.0,5000.0,SCT,5000.0,OVC,6500.0,,,,
KRDR,07-25-2014,05:58,METAR,Normal,130,6.0,,,9999.0,,20.1,18.4,29.79,1009.0,,,,,,,,,,,,,TRACE,,,4200.0,4200.0,OVC,4200.0,,,,,,
KRDR,07-25-2014,04:58,METAR,Normal,110,5.0,,,9999.0,,20.4,18.4,29.80,1009.3,,,,,,,,,,,,,,,,4100.0,4100.0,OVC,4100.0,,,,,,
KRDR,07-25-2014,03:58,METAR,Normal,110,5.0,,,9999.0,,20.3,18.3,29.81,1009.7,,,,,,,,,,,,,,,,4600.0,4600.0,OVC,4600.0,,,,,,
KRDR,07-25-2014,02:58,METAR,Normal,130,5.0,,,9999.0,,20.2,18.1,29.80,1009.4,,,,,,,,,,,,TRACE,,,Clear,72000.0,,,,,,,,,
KRDR,07-25-2014,01:58,METAR,Normal,110,7.0,,,9999.0,,21.7,18.0,29.77,1008.4,,,,,,,,,,,,,,,Clear,72000.0,,,,,,,,,
KRDR,07-25-2014,00:58,METAR,Normal,110,15.0,,,9999.0,,22.3,19.1,29.75,,,,,,,,,,,,TRACE,,,,Clear,72000.0,,,,,,,,,
KRDR,07-25-2014,00:25,SPECI,Normal,140,8.0,,,9999.0,,22.0,19.0,29.86,,,,,,,,,,,,,,,,,7000.0,7000.0,BKN,7000.0,,,,,,
KRDR,07-25-2014,00:15,SPECI,Normal,170,8.0,,,9999.0,Light Rain,23.0,19.0,29.88,,61,,,,,,,,,,,,,,,7000.0,3900.0,FEW,3900.0,BKN,7000.0,,,,
KRDR,07-24-2014,23:58,METAR,Normal,180,7.0,,,9999.0,,23.3,18.0,29.91,1013.2,,,,,,,,,,,,,,,,7000.0,7000.0,OVC,7000.0,,,,,,
KRDR,07-24-2014,22:58,METAR,Normal,150,11.0,,,9999.0,,24.5,17.5,29.88,1012.1,,,,,,,,,,,,,,,,6500.0,6500.0,BKN,6500.0,,,,,,
KRDR,07-24-2014,21:58,METAR,Normal,150,14.0,,,9999.0,,25.4,16.4,29.88,1012.1,,,,,,,,,,,,,,,Clear,72000.0,,,,,,,,,
KRDR,07-24-2014,20:58,METAR,Normal,160,13.0,,,9999.0,,24.9,16.3,29.90,1012.8,,,,,,,,,,,,,,,Clear,72000.0,,,,,,,,,
KRDR,07-24-2014,19:58,METAR,Normal,150,14.0,21.0,,9999.0,,24.5,16.5,29.89,1012.5,,,,,,,,,,,,,,,Clear,72000.0,,,,,,,,,
KRDR,07-24-2014,18:58,METAR,Normal,170,21.0,27.0,,9999.0,,23.0,18.3,29.86,1011.5,,,,,,,,,,,,,,,Clear,72000.0,,,,,,,,,
KRDR,07-24-2014,17:58,METAR,Normal,140,14.0,18.0,,9999.0,,20.8,18.3,29.89,1012.5,,,,,,,,,,,TRACE,,TRACE,,2/8 Mostly Clear,72000.0,10000.0,FEW,10000.0,,,,,,
KRDR,07-24-2014,17:41,SPECI,Normal,120,14.0,20.0,,9999.0,,20.0,19.0,29.87,,,,,,,,,,,,,,,,2/8 Mostly Clear,72000.0,10000.0,FEW,10000.0,,,,,,
KRDR,07-24-2014,17:26,SPECI,Normal,140,13.0,,,9999.0,Light Rain,20.0,18.0,29.94,,61,,,,,,,,,,,,,,2/8 Mostly Clear,72000.0,12000.0,FEW,12000.0,,,,,,
KRDR,07-24-2014,16:58,METAR,Normal,200,8.0,,,9999.0,,21.7,18.1,30.04,1017.6,,,,,,,,,,,,,,,,8500.0,8500.0,BKN,8600.0,,,,,,
KRDR,07-24-2014,15:58,METAR,Normal,270,7.0,,,9999.0,,22.0,17.3,30.11,1020.0,,,,,,,,,,,,,,,4/8 Partly Cloudy,72000.0,9500.0,SCT,9600.0,,,,,,
KRDR,07-24-2014,14:58,METAR,Normal,170,6.0,,,9999.0,,20.3,16.9,30.06,1018.3,,,,,,,,,,,,,,,Clear,72000.0,,,,,,,,,
KRDR,07-24-2014,13:58,METAR,Normal,170,6.0,,,9999.0,,18.2,17.2,30.06,1018.3,,,,,,,,,,,,,,,Clear,72000.0,,,,,,,,,
KRDR,07-24-2014,12:58,METAR,Normal,150,7.0,,,9999.0,,17.2,16.4,30.06,1018.3,,,,,,,,,,,,,,,Clear,72000.0,,,,,,,,,
KRDR,07-24-2014,11:58,METAR,Normal,140,2.0,,,9999.0,,15.3,15.1,30.10,1019.7,,,,,,,,,,,,,,,Clear,72000.0,,,,,,,,,
KRDR,07-24-2014,10:58,METAR,Normal,160,5.0,,,9999.0,,14.9,14.7,30.11,1020.0,,,,,,,,,,,,,,,Clear,72000.0,,,,,,,,,
KRDR,07-24-2014,09:58,METAR,Normal,140,4.0,,,9999.0,,14.9,14.8,30.11,1020.0,,,,,,,,,,,,,,,Clear,72000.0,,,,,,,,,
KRDR,07-24-2014,08:58,METAR,Normal,140,2.0,,,9999.0,,14.9,14.8,30.13,1020.7,,,,,,,,,,,,,,,Clear,72000.0,,,,,,,,,
KRDR,07-24-2014,07:58,METAR,Normal,190,2.0,,,9999.0,,15.0,15.0,30.15,1021.4,,,,,,,,,,,,,,,2/8 Mostly Clear,72000.0,4800.0,FEW,4800.0,,,,,,
KRDR,07-24-2014,06:58,METAR,Normal,190,2.0,,,9999.0,,15.3,15.3,30.16,1021.7,,,,,,,,,,,,,,,Clear,72000.0,,,,,,,,,
KRDR,07-24-2014,05:58,METAR,Calm,,0.0,,,9999.0,,15.7,15.7,30.17,1022.1,,,,,,,,,,,,,,,4/8 Partly Cloudy,72000.0,5000.0,SCT,5000.0,,,,,,
KRDR,07-24-2014,04:58,METAR,Calm,,0.0,,,9999.0,,16.6,14.9,30.17,1022.1,,,,,,,,,,,,,,,Clear,72000.0,,,,,,,,,
KRDR,07-24-2014,03:58,METAR,Normal,40,1.0,,,9999.0,,17.9,14.8,30.18,1022.4,,,,,,,,,,,,,,,Clear,72000.0,,,,,,,,,
KRDR,07-24-2014,02:58,METAR,Normal,40,3.0,,,9999.0,,18.6,15.0,30.19,1022.7,,,,,,,,,,,,,,,Clear,72000.0,,,,,,,,,
KRDR,07-24-2014,01:58,METAR,Normal,60,3.0,,,9999.0,,20.2,15.0,30.19,1022.7,,,,,,,,,,,,,,,Clear,72000.0,,,,,,,,,
KRDR,07-24-2014,00:58,METAR,Normal,50,5.0,,,9999.0,,21.9,15.3,30.20,1023.1,,,,,,,,,,,,,,,Clear,72000.0,,,,,,,,,
KRDR,07-23-2014,23:58,METAR,Normal,340,4.0,,,9999.0,,22.5,15.0,30.22,1023.8,,,,,,,,,,,,,,,Clear,72000.0,,,,,,,,,
KRDR,07-23-2014,22:58,METAR,Normal,60,6.0,,,9999.0,,23.1,15.0,30.24,1024.5,,,,,,,,,,,,,,,Clear,72000.0,,,,,,,,,
KRDR,07-23-2014,21:58,METAR,Normal,340,6.0,,,9999.0,,22.4,14.6,30.26,1025.1,,,,,,,,,,,,,,,2/8 Mostly Clear,72000.0,3700.0,FEW,3700.0,,,,,,
KRDR,07-23-2014,20:58,METAR,Variable,,5.0,,,9999.0,,23.1,14.5,30.27,1025.5,,,,,,,,,,,,,,,Clear,72000.0,,,,,,,,,
KRDR,07-23-2014,19:58,METAR,Normal,360,6.0,,,9999.0,,22.8,14.9,30.28,1025.8,,,,,,,,,,,,,,,Clear,72000.0,,,,,,,,,
KRDR,07-23-2014,18:58,METAR,Normal,20,4.0,,,9999.0,,22.1,15.1,30.30,1026.4,,,,,,,,,,,,,,,Clear,72000.0,,,,,,,,,
KRDR,07-23-2014,17:58,METAR,Variable,30,7.0,,,9999.0,,21.7,14.0,30.30,1026.5,,,,,,,,,,,,,,,2/8 Mostly Clear,72000.0,6000.0,FEW,6000.0,,,,,,
KRDR,07-23-2014,16:58,METAR,Normal,20,6.0,,,9999.0,,20.5,14.9,30.32,1027.2,,,,,,,,,,,,,,,,6000.0,6000.0,OVC,6000.0,,,,,,
KRDR,07-23-2014,15:58,METAR,Normal,20,7.0,,,9999.0,,20.0,15.2,30.32,1027.2,,,,,,,,,,,,,,,2/8 Mostly Clear,72000.0,4700.0,FEW,4700.0,,,,,,
KRDR,07-23-2014,14:58,METAR,Variable,,4.0,,,9999.0,,17.8,16.7,30.32,1027.2,,,,,,,,,,,,,,,Clear,72000.0,,,,,,,,,
KRDR,07-23-2014,13:58,METAR,Normal,350,5.0,,,9999.0,,16.6,16.5,30.33,1027.5,,,,,,,,,,,,,,,,7000.0,7000.0,BKN,7000.0,,,,,,
KRDR,07-23-2014,12:58,METAR,Normal,340,4.0,,,9999.0,,15.7,15.5,30.32,1027.1,,,,,,,,,,,,,,,,7000.0,7000.0,BKN,7000.0,,,,,,
KRDR,07-23-2014,11:58,METAR,Normal,360,6.0,,,9999.0,,14.6,14.6,30.31,1026.8,,,,,,,,,,,,,,,Clear,72000.0,,,,,,,,,
KRDR,07-23-2014,10:58,METAR,Normal,360,4.0,,,9999.0,,14.6,14.6,30.30,1026.4,,,,,,,,,,,,,,,Clear,72000.0,,,,,,,,,
KRDR,07-23-2014,09:58,METAR,Normal,10,6.0,,,9999.0,,14.7,14.5,30.29,1026.1,,,,,,,,,,,,,,,,7500.0,7500.0,BKN,7500.0,,,,,,
KRDR,07-23-2014,08:58,METAR,Normal,350,6.0,,,9999.0,,15.1,14.9,30.27,1025.4,,,,,,,,,,,,,,,2/8 Mostly Clear,72000.0,7500.0,FEW,7500.0,,,,,,
KRDR,07-23-2014,07:58,METAR,Normal,320,5.0,,,9999.0,,16.5,16.4,30.28,1025.7,,,,,,,,,,,,,,,2/8 Mostly Clear,72000.0,8000.0,FEW,8000.0,,,,,,
KRDR,07-23-2014,06:58,METAR,Variable,,4.0,,,9999.0,,16.6,16.5,30.27,1025.4,,,,,,,,,,,,,,,,7000.0,7000.0,BKN,7000.0,,,,,,
KRDR,07-23-2014,05:58,METAR,Normal,300,4.0,,,9999.0,,16.3,16.2,30.27,1025.4,,,,,,,,,,,,,,,Clear,72000.0,,,,,,,,,
KRDR,07-23-2014,04:58,METAR,Normal,330,2.0,,,9999.0,,16.6,16.4,30.25,1024.7,,,,,,,,,,,,,,,Clear,72000.0,,,,,,,,,
KRDR,07-23-2014,03:58,METAR,Normal,330,1.0,,,9999.0,,17.8,16.0,30.24,1024.4,,,,,,,,,,,,,,,Clear,72000.0,,,,,,,,,
KRDR,07-23-2014,02:58,METAR,Normal,360,2.0,,,9999.0,,18.5,16.6,30.24,1024.4,,,,,,,,,,,,,,,Clear,72000.0,,,,,,,,,
KRDR,07-23-2014,01:58,METAR,Normal,20,5.0,,,9999.0,,20.1,16.3,30.21,1023.4,,,,,,,,,,,,,,,Clear,72000.0,,,,,,,,,
KRDR,07-23-2014,00:58,METAR,Normal,20,6.0,,,9999.0,,23.1,15.1,30.21,1023.3,,,,,,,,,,,,,,,Clear,72000.0,,,,,,,,,
KRDR,07-22-2014,23:58,METAR,Normal,360,9.0,,,9999.0,,23.9,14.9,30.20,1023.0,,,,,,,,,,,,,,,Clear,72000.0,,,,,,,,,
KRDR,07-22-2014,22:58,METAR,Normal,340,9.0,,,9999.0,,24.6,15.1,30.19,1022.6,,,,,,,,,,,,,,,Clear,72000.0,,,,,,,,,
KRDR,07-22-2014,21:58,METAR,Normal,350,10.0,14.0,,9999.0,,24.6,15.2,30.18,1022.3,,,,,,,,,,,,,,,Clear,72000.0,,,,,,,,,
KRDR,07-22-2014,20:58,METAR,Normal,360,9.0,17.0,,9999.0,,24.5,15.3,30.18,1022.3,,,,,,,,,,,,,,,Clear,72000.0,,,,,,,,,
KRDR,07-22-2014,19:58,METAR,Normal,320,10.0,,,9999.0,,24.2,15.2,30.18,1022.3,,,,,,,,,,,,,,,Clear,72000.0,,,,,,,,,
KRDR,07-22-2014,18:58,METAR,Normal,330,8.0,,,9999.0,,23.6,14.9,30.17,1021.9,,,,,,,,,,,,,,,Clear,72000.0,,,,,,,,,
KRDR,07-22-2014,17:58,METAR,Normal,330,10.0,,,9999.0,,23.4,14.0,30.16,1021.6,,,,,,,,,,,,,,,Clear,72000.0,,,,,,,,,
KRDR,07-22-2014,16:58,METAR,Normal,360,9.0,,,9999.0,,22.8,14.2,30.15,1021.3,,,,,,,,,,,,,,,Clear,72000.0,,,,,,,,,
KRDR,07-22-2014,15:58,METAR,Normal,340,9.0,,,9999.0,,22.1,14.4,30.14,1020.9,,,,,,,,,,,,,,,Clear,72000.0,,,,,,,,,
KRDR,07-22-2014,14:58,METAR,Normal,330,8.0,,,9999.0,,21.2,16.0,30.11,1020.0,,,,,,,,,,,,,,,Clear,72000.0,,,,,,,,,
KRDR,07-22-2014,13:58,METAR,Normal,320,7.0,,,9999.0,,19.8,16.8,30.09,1019.3,,,,,,,,,,,,,,,Clear,72000.0,,,,,,,,,
KRDR,07-22-2014,12:58,METAR,Normal,330,8.0,,,9999.0,,18.5,17.2,30.06,1018.3,,,,,,,,,,,,,,,Clear,72000.0,,,,,,,,,
KRDR,07-22-2014,11:58,METAR,Normal,320,8.0,,,9999.0,,16.8,16.6,30.03,1017.1,,,,,,,,,,,,,TRACE,IN,Clear,72000.0,,,,,,,,,
KRDR,07-22-2014,10:58,METAR,Normal,310,8.0,,,9999.0,,17.0,16.8,30.00,1016.0,,,,,,,,,,,,,,,Clear,72000.0,,,,,,,,,
KRDR,07-22-2014,09:58,METAR,Normal,310,11.0,,,9999.0,,17.2,17.2,29.96,1014.6,,,,,,,,,,,,,,,Clear,72000.0,,,,,,,,,
KRDR,07-22-2014,08:58,METAR,Normal,310,9.0,,,9999.0,,17.3,17.3,29.93,1013.6,,,,,,,,,,,,TRACE,,,Clear,72000.0,,,,,,,,,
KRDR,07-22-2014,07:58,METAR,Normal,320,11.0,,,9999.0,,17.7,17.7,29.90,1012.5,,,,,,,,,,,,,,,4/8 Partly Cloudy,72000.0,1700.0,SCT,1700.0,,,,,,
KRDR,07-22-2014,07:53,SPECI,Normal,320,10.0,,,9999.0,,18.0,18.0,29.90,,,,,,,,,,,,,,,,4/8 Partly Cloudy,72000.0,1800.0,SCT,1800.0,,,,,,
KRDR,07-22-2014,06:58,METAR,Normal,320,12.0,,,9999.0,,18.0,18.0,29.87,1011.5,,,,,,,,,,,TRACE,,,,,800.0,900.0,SCT,900.0,OVC,2000.0,,,,
KRDR,07-22-2014,06:56,SPECI,Normal,330,12.0,,,9999.0,,18.0,18.0,29.87,,,,,,,,,,,,,,,,,800.0,900.0,SCT,900.0,OVC,2000.0,,,,
KRDR,07-22-2014,06:46,SPECI,Normal,320,15.0,,,9999.0,,18.0,18.0,29.86,,,,,,,,,,,,,,,,,800.0,800.0,BKN,800.0,BKN,2300.0,,,,
KRDR,07-22-2014,06:36,SPECI,Normal,320,11.0,,,9999.0,,18.0,18.0,29.86,,,,,,,,,,,,,,,,,2300.0,800.0,FEW,800.0,BKN,2300.0,,,,
KRDR,07-22-2014,06:31,SPECI,Normal,320,10.0,,,9999.0,,18.0,18.0,29.85,,,,,,,,,,,,,,,,4/8 Partly Cloudy,72000.0,800.0,FEW,800.0,SCT,2300.0,,,,
KRDR,07-22-2014,06:16,SPECI,Normal,320,9.0,,,9999.0,,18.0,18.0,29.85,,,,,,,,,,,,,,,,2/8 Mostly Clear,72000.0,8000.0,FEW,8000.0,,,,,,
KRDR,07-22-2014,05:58,METAR,Normal,330,8.0,,,9999.0,Light Rain,18.4,18.4,29.85,1010.8,61,,,,,,,,,,.1 IN,,4.9 IN,,,8000.0,1300.0,FEW,1300.0,SCT,1800.0,BKN,8000.0,,
KRDR,07-22-2014,05:55,SPECI,Normal,330,7.0,,,9999.0,Light Rain,18.0,18.0,29.85,,61,,,,,,,,,,,,,,,8000.0,1100.0,FEW,1100.0,SCT,1800.0,OVC,8000.0,,
KRDR,07-22-2014,05:45,SPECI,Normal,310,8.0,,,9999.0,Light Rain,19.0,19.0,29.85,,61,,,,,,,,,,,,,,,1100.0,1100.0,SCT,1100.0,BKN,1800.0,OVC,8600.0,,
KRDR,07-22-2014,05:43,SPECI,Normal,310,9.0,,,9999.0,Light Rain,19.0,19.0,29.86,,61,,,,,,,,,,,,,,,1100.0,1200.0,SCT,1200.0,BKN,1800.0,OVC,8000.0,,
KRDR,07-22-2014,05:23,SPECI,Normal,280,10.0,,,9999.0,Light Rain/Mist,19.0,19.0,29.85,,61,10,,,,,,,,,,,,,,1100.0,1100.0,OVC,1100.0,,,,,,
KRDR,07-22-2014,05:21,SPECI,Normal,280,9.0,,,9999.0,Light Rain/Mist,19.0,19.0,29.85,,61,10,,,,,,,,,,,,,,1200.0,1200.0,OVC,1200.0,,,,,,
KRDR,07-22-2014,05:06,SPECI,Normal,270,7.0,,,9999.0,Light Rain,19.0,19.0,29.84,,61,,,,,,,,,,,,,,,1100.0,1100.0,BKN,1100.0,OVC,9100.0,,,,
KRDR,07-22-2014,05:01,SPECI,Normal,270,7.0,,,9999.0,Light Rain,19.0,19.0,29.83,,61,,,,,,,,,,,,,,,1600.0,1100.0,SCT,1100.0,BKN,1600.0,OVC,9100.0,,
KRDR,07-22-2014,04:58,METAR,Normal,250,6.0,,050/27KTS,9999.0,Light Rain,18.9,18.9,29.81,1009.5,61,,,,,,,,,,.09 IN,,,,,9000.0,1300.0,SCT,1300.0,OVC,9100.0,,,,
KRDR,07-22-2014,04:43,SPECI,Normal,30,5.0,,,9999.0,Light Rain,19.0,19.0,29.79,,61,,,,,,,,,,,,,,,9000.0,9000.0,BKN,9100.0,OVC,11000.0,,,,
KRDR,07-22-2014,04:08,SPECI,Normal,10,19.0,22.0,,9999.0,Light Rain,19.0,19.0,29.76,,61,,,,,,,,,,,,,,,6500.0,800.0,FEW,800.0,BKN,6500.0,BKN,10000.0,,
KRDR,07-22-2014,03:58,METAR,Normal,20,15.0,30.0,040/49KTS,9999.0,Mist,18.7,18.7,29.74,1007.1,10,,,,,,,,,,.21 IN,,,,,7000.0,600.0,FEW,600.0,BKN,7000.0,,,,
KRDR,07-22-2014,03:53,SPECI,Normal,20,20.0,33.0,,8000.0,Mist,19.0,19.0,29.72,,10,,,,,,,,,,,,,,,7000.0,600.0,FEW,600.0,OVC,7000.0,,,,
KRDR,07-22-2014,03:41,SPECI,Normal,20,29.0,42.0,,4800.0,Light Rain/Mist,19.0,19.0,29.65,,61,10,,,,,,,,,,,,,,7500.0,600.0,SCT,600.0,OVC,7500.0,,,,
KRDR,07-22-2014,03:37,SPECI,Normal,20,29.0,42.0,,4800.0,Mist,19.0,19.0,29.65,,10,,,,,,,,,,,,,,,8000.0,600.0,SCT,600.0,OVC,8000.0,,,,
KRDR,07-22-2014,03:22,SPECI,Normal,30,22.0,25.0,,6400.0,Rain/Mist,19.0,19.0,29.69,,62,10,,,,,,,,,,,,,,8000.0,700.0,FEW,700.0,OVC,8000.0,,,,
KRDR,07-22-2014,03:17,SPECI,Normal,30,19.0,25.0,,8000.0,Rain/Mist,19.0,19.0,29.74,,62,10,,,,,,,,,,,,,,7500.0,700.0,FEW,700.0,OVC,7500.0,,,,
KRDR,07-22-2014,03:12,SPECI,Normal,30,19.0,25.0,,9999.0,Thunderstorm and Rain or Snow Showers/Mist,19.0,19.0,29.77,,92,10,,,,,,,,,,,,,,7000.0,700.0,FEW,700.0,OVC,7000.0,,,,
KRDR,07-22-2014,03:10,SPECI,Normal,20,18.0,24.0,,9999.0,Dry Thunderstorm/Mist,19.0,19.0,29.78,,91,10,,,,,,,,,,,,,,6500.0,600.0,FEW,600.0,OVC,6500.0,,,,
KRDR,07-22-2014,03:02,SPECI,Normal,20,17.0,24.0,,9999.0,Thunderstorm and Rain or Snow Showers,19.0,19.0,29.81,,92,,,,,,,,,,,,,,,4900.0,600.0,FEW,600.0,OVC,4900.0,,,,
KRDR,07-22-2014,03:00,SPECI,Normal,10,18.0,24.0,,9999.0,Rain/Distant Lightning/Mist,19.0,19.0,29.81,,62,10,12,,,,,,,,,,,,,4700.0,600.0,FEW,600.0,OVC,4700.0,,,,
KRDR,07-22-2014,02:58,METAR,Normal,10,16.0,23.0,300/32KTS,9999.0,Thunderstorm and Rain or Snow Showers/Mist,19.0,19.0,29.81,1009.6,92,10,,,,,,,,,1.24 IN,4.5 IN,,,,4300.0,500.0,FEW,500.0,OVC,4300.0,,,,
KRDR,07-22-2014,02:57,SPECI,Normal,10,17.0,23.0,,8000.0,Heavy Thunderstorm and Rain or Snow Showers/Mist,19.0,19.0,29.81,,95,10,,,,,,,,,,,,,,4100.0,500.0,FEW,500.0,OVC,4100.0,,,,
KRDR,07-22-2014,02:52,SPECI,Normal,360,17.0,23.0,,4800.0,Heavy Thunderstorm and Rain or Snow Showers/Mist,19.0,19.0,29.82,,95,10,,,,,,,,,,,,,,1700.0,500.0,FEW,500.0,OVC,2800.0,,,,
KRDR,07-22-2014,02:47,SPECI,Normal,340,17.0,24.0,,2000.0,Heavy Thunderstorm and Rain or Snow Showers/Mist,20.0,20.0,29.83,,95,10,,,,,,,,,,,,,,1500.0,600.0,SCT,600.0,OVC,2000.0,,,,
KRDR,07-22-2014,02:45,SPECI,Normal,330,16.0,32.0,,1600.0,Heavy Thunderstorm and Rain or Snow Showers/Mist,20.0,20.0,29.84,,95,10,,,,,,,,,,,,,,1700.0,600.0,SCT,600.0,OVC,1700.0,,,,
KRDR,07-22-2014,02:40,SPECI,Normal,310,18.0,32.0,,1200.0,Heavy Thunderstorm and Rain or Snow Showers/Mist,20.0,20.0,29.84,,95,10,,,,,,,,,,,,,,1500.0,800.0,SCT,800.0,OVC,1500.0,,,,
KRDR,07-22-2014,02:31,SPECI,Normal,290,18.0,21.0,,1200.0,Heavy Rain/Mist,19.0,19.0,29.85,,63,10,,,,,,,,,,,,,,700.0,700.0,SCT,700.0,OVC,1600.0,,,,
KRDR,07-22-2014,02:26,SPECI,Normal,270,13.0,,,2400.0,Heavy Rain/Mist,20.0,20.0,29.84,,63,10,,,,,,,,,,,,,,700.0,700.0,BKN,700.0,BKN,1400.0,OVC,2300.0,,
KRDR,07-22-2014,02:25,SPECI,Normal,270,12.0,,,2800.0,Heavy Thunderstorm and Rain or Snow Showers/Mist,20.0,20.0,29.84,,95,10,,,,,,,,,,,,,,700.0,700.0,BKN,700.0,BKN,1400.0,OVC,2400.0,,
KRDR,07-22-2014,02:20,SPECI,Normal,280,10.0,19.0,,6400.0,Heavy Thunderstorm and Rain or Snow Showers/Mist,20.0,20.0,29.82,,95,10,,,,,,,,,,,,,,800.0,800.0,BKN,800.0,BKN,1400.0,OVC,2300.0,,
KRDR,07-22-2014,02:15,SPECI,Normal,320,9.0,19.0,,8000.0,Heavy Thunderstorm and Rain or Snow Showers/Mist,20.0,20.0,29.80,,95,10,,,,,,,,,,,,,,1200.0,900.0,SCT,900.0,BKN,1400.0,OVC,2300.0,,
KRDR,07-22-2014,02:10,SPECI,Normal,350,14.0,20.0,,4800.0,Thunderstorm and Rain or Snow Showers/Mist,20.0,20.0,29.78,,92,10,,,,,,,,,,,,,,2400.0,1000.0,FEW,1000.0,SCT,1400.0,OVC,2400.0,,
KRDR,07-22-2014,02:06,SPECI,Variable,340,12.0,22.0,,4000.0,Thunderstorm and Rain or Snow Showers/Mist,20.0,20.0,29.77,,92,10,,,,,,,,,,,,,,1600.0,1200.0,FEW,1200.0,BKN,2500.0,OVC,4700.0,,
KRDR,07-22-2014,02:01,SPECI,Variable,330,13.0,28.0,,1600.0,Heavy Thunderstorm and Rain or Snow Showers/Mist,20.0,20.0,29.76,,95,10,,,,,,,,,,,,,,1400.0,1100.0,FEW,1100.0,BKN,2300.0,OVC,4700.0,,
KRDR,07-22-2014,01:58,METAR,Variable,320,15.0,28.0,220/38KTS,1200.0,Heavy Thunderstorm and Rain or Snow Showers/Mist,20.0,20.0,29.75,1007.5,95,10,,,,,,,,,.99 IN,,,,,1400.0,1100.0,FEW,1100.0,BKN,1600.0,OVC,4800.0,,
KRDR,07-22-2014,01:57,SPECI,Variable,340,13.0,28.0,,1200.0,Heavy Thunderstorm and Rain or Snow Showers/Mist,20.0,20.0,29.75,,95,10,,,,,,,,,,,,,,1400.0,1100.0,FEW,1100.0,BKN,1600.0,OVC,4800.0,,
KRDR,07-22-2014,01:54,SPECI,Variable,10,16.0,32.0,,1200.0,Heavy Thunderstorm and Rain or Snow Showers/Mist,19.0,19.0,29.72,,95,10,,,,,,,,,,,,,,4800.0,1200.0,SCT,1200.0,OVC,4800.0,,,,
KRDR,07-22-2014,01:52,SPECI,Variable,20,19.0,32.0,,2000.0,Heavy Thunderstorm and Rain or Snow Showers/Mist,19.0,19.0,29.72,,95,10,,,,,,,,,,,,,,4800.0,1100.0,SCT,1100.0,OVC,4800.0,,,,
KRDR,07-22-2014,01:51,SPECI,Variable,320,17.0,32.0,,2800.0,Heavy Thunderstorm and Rain or Snow Showers/Mist,19.0,19.0,29.74,,95,10,,,,,,,,,,,,,,4800.0,1100.0,SCT,1100.0,OVC,4800.0,,,,
KRDR,07-22-2014,01:50,SPECI,Variable,270,16.0,32.0,,4000.0,Heavy Thunderstorm and Rain or Snow Showers/Mist,19.0,19.0,29.77,,95,10,,,,,,,,,,,,,,4800.0,1100.0,SCT,1100.0,OVC,4800.0,,,,
KRDR,07-22-2014,01:48,SPECI,Normal,240,18.0,32.0,,9999.0,Heavy Thunderstorm and Rain or Snow Showers/Mist,19.0,19.0,29.78,,95,10,,,,,,,,,,,,,,4800.0,1100.0,FEW,1100.0,OVC,4800.0,,,,
KRDR,07-22-2014,01:45,SPECI,Normal,210,25.0,32.0,,9999.0,Thunderstorm and Rain or Snow Showers,20.0,20.0,29.76,,92,,,,,,,,,,,,,,,4800.0,1100.0,FEW,1100.0,OVC,4800.0,,,,
KRDR,07-22-2014,01:43,SPECI,Variable,170,11.0,27.0,,9999.0,Light Rain/Distant Lightning,20.0,20.0,29.76,,61,12,,,,,,,,,,,,,,4900.0,4900.0,OVC,4900.0,,,,,,
KRDR,07-22-2014,01:42,SPECI,Variable,60,10.0,27.0,,9999.0,Thunderstorm and Rain or Snow Showers,20.0,20.0,29.77,,92,,,,,,,,,,,,,,,4900.0,4900.0,OVC,4900.0,,,,,,
KRDR,07-22-2014,01:41,SPECI,Variable,30,12.0,27.0,,9999.0,Thunderstorm and Rain or Snow Showers,20.0,20.0,29.77,,92,,,,,,,,,,,,,,,4700.0,4700.0,BKN,4700.0,OVC,5500.0,,,,
KRDR,07-22-2014,01:36,SPECI,Normal,20,17.0,31.0,,9999.0,Thunderstorm and Rain or Snow Showers,20.0,20.0,29.63,,92,,,,,,,,,,,,,,,4900.0,4900.0,OVC,4900.0,,,,,,
KRDR,07-22-2014,01:31,SPECI,Normal,20,20.0,31.0,,9999.0,Thunderstorm and Rain or Snow Showers,20.0,20.0,29.65,,92,,,,,,,,,,,,,,,5000.0,3700.0,FEW,3700.0,OVC,5000.0,,,,
KRDR,07-22-2014,01:19,SPECI,Normal,20,23.0,31.0,,8000.0,Thunderstorm and Rain or Snow Showers/Mist,20.0,20.0,29.65,,92,10,,,,,,,,,,,,,,5500.0,2200.0,SCT,2200.0,OVC,5500.0,,,,
KRDR,07-22-2014,01:14,SPECI,Normal,20,25.0,31.0,,4800.0,Thunderstorm and Rain or Snow Showers/Mist,20.0,20.0,29.66,,92,10,,,,,,,,,,,,,,2200.0,2200.0,BKN,2200.0,OVC,5500.0,,,,
KRDR,07-22-2014,01:09,SPECI,Normal,360,25.0,37.0,,2400.0,Heavy Thunderstorm and Rain or Snow Showers/Mist,20.0,20.0,29.68,,95,10,,,,,,,,,,,,,,1400.0,2000.0,OVC,2000.0,,,,,,
KRDR,07-22-2014,01:04,SPECI,Normal,10,25.0,37.0,,1600.0,Heavy Thunderstorm and Rain or Snow Showers/Mist,20.0,20.0,29.65,,95,10,,,,,,,,,,,,,Sky Obscured (Unable to Estimate),1000.0,1600.0,,1600.0,,,,,,
KRDR,07-22-2014,00:59,SPECI,Normal,30,29.0,35.0,,800.0,Heavy Thunderstorm and Rain or Snow Showers/Fog,20.0,20.0,29.64,,95,30,,,,,,,,,,,,,Sky Obscured (Unable to Estimate),1200.0,1200.0,,1200.0,,,,,,
KRDR,07-22-2014,00:58,METAR,Normal,20,26.0,35.0,310/46KTS,800.0,Heavy Thunderstorm and Rain or Snow Showers/Fog,20.0,20.0,29.64,1003.9,95,30,,,,,,,,,2.27 IN,,,,Sky Obscured (Unable to Estimate),1200.0,1200.0,,1200.0,,,,,,
KRDR,07-22-2014,00:57,SPECI,Normal,10,24.0,35.0,,800.0,Heavy Thunderstorm and Rain or Snow Showers/Fog,20.0,20.0,29.65,,95,30,,,,,,,,,,,,,Sky Obscured (Unable to Estimate),1200.0,1200.0,,1200.0,,,,,,
KRDR,07-22-2014,00:47,SPECI,Normal,340,27.0,45.0,,400.0,Heavy Thunderstorm and Rain or Snow Showers/Fog,21.0,21.0,29.64,,95,30,,,,,,,,,,,,,,1100.0,600.0,FEW,600.0,BKN,1100.0,OVC,3000.0,,
KRDR,07-22-2014,00:46,SPECI,Normal,330,25.0,45.0,,400.0,Heavy Thunderstorm and Rain or Snow Showers/Fog,21.0,21.0,29.65,,95,30,,,,,,,,,,,,,,1100.0,600.0,FEW,600.0,BKN,1100.0,OVC,3000.0,,
KRDR,07-22-2014,00:41,SPECI,Normal,300,33.0,45.0,,400.0,Heavy Thunderstorm and Rain or Snow Showers/Fog,21.0,21.0,29.77,,95,30,,,,,,,,,,,,,,1500.0,600.0,FEW,600.0,BKN,1500.0,OVC,3000.0,,
KRDR,07-22-2014,00:40,SPECI,Normal,310,37.0,44.0,,800.0,Heavy Thunderstorm and Rain or Snow Showers/Fog,21.0,21.0,29.77,,95,30,,,,,,,,,,,,,,1600.0,600.0,FEW,600.0,BKN,1700.0,OVC,3000.0,,
KRDR,07-22-2014,00:38,SPECI,Normal,310,37.0,44.0,,800.0,Heavy Thunderstorm and Rain or Snow Showers/Fog,22.0,22.0,29.73,,95,30,,,,,,,,,,,,,,1700.0,1700.0,BKN,1700.0,BKN,2600.0,OVC,3800.0,,
KRDR,07-22-2014,00:33,SPECI,Normal,320,39.0,44.0,,1600.0,Heavy Thunderstorm and Rain or Snow Showers/Mist,23.0,23.0,29.64,,95,10,,,,,,,,,,,,,,2100.0,2100.0,BKN,2100.0,BKN,2800.0,OVC,4000.0,,
KRDR,07-22-2014,00:28,SPECI,Normal,340,24.0,29.0,,4800.0,Thunderstorm and Rain or Snow Showers/Mist,24.0,23.0,29.61,,92,10,,,,,,,,,,,,,,2600.0,2600.0,BKN,2600.0,BKN,3300.0,OVC,4000.0,,
KRDR,07-22-2014,00:24,SPECI,Normal,20,23.0,29.0,,9999.0,Thunderstorm and Rain or Snow Showers,24.0,24.0,29.62,,92,,,,,,,,,,,,,,,2700.0,2700.0,BKN,2700.0,BKN,3300.0,BKN,4000.0,,
KRDR,07-22-2014,00:19,SPECI,Normal,30,20.0,26.0,,3200.0,Thunderstorm and Rain or Snow Showers/Mist,26.0,25.0,29.62,,92,10,,,,,,,,,,,,,,3000.0,3000.0,BKN,3000.0,BKN,4000.0,BKN,4800.0,,
KRDR,07-22-2014,00:15,SPECI,Normal,40,18.0,21.0,,1600.0,Heavy Thunderstorm and Rain or Snow Showers/Mist,27.0,27.0,29.62,,95,10,,,,,,,,,,,,,,3000.0,3000.0,BKN,3000.0,BKN,4100.0,BKN,4900.0,,
KRDR,07-22-2014,00:10,SPECI,Normal,60,14.0,,,2000.0,Thunderstorm and Rain or Snow Showers/Mist,28.0,27.0,29.62,,92,10,,,,,,,,,,,,,,3400.0,2400.0,SCT,2400.0,BKN,3400.0,BKN,4900.0,,
KRDR,07-22-2014,00:05,SPECI,Normal,70,14.0,,,9999.0,Thunderstorm and Rain or Snow Showers,29.0,26.0,29.63,,92,,,,,,,,,,,,,,,3400.0,2200.0,FEW,2200.0,SCT,3400.0,BKN,4100.0,,
KRDR,07-22-2014,00:03,SPECI,Normal,70,14.0,,,9999.0,Dry Thunderstorm,29.0,26.0,29.64,,91,,,,,,,,,,,,,,,4900.0,3400.0,SCT,3400.0,SCT,4100.0,BKN,4900.0,,
KRDR,07-21-2014,23:58,METAR,Normal,70,9.0,,,9999.0,Thunderstorm and Rain or Snow Showers,30.0,26.0,29.67,1004.7,92,,,,,,,,,,TRACE,,TRACE,,,3500.0,3500.0,SCT,3500.0,BKN,4700.0,BKN,7000.0,,
KRDR,07-21-2014,23:55,SPECI,Normal,70,11.0,,,9999.0,Thunderstorm and Rain or Snow Showers,30.0,26.0,29.67,,92,,,,,,,,,,,,,,,4700.0,3500.0,SCT,3500.0,BKN,4700.0,BKN,7000.0,,
KRDR,07-21-2014,23:52,SPECI,Normal,70,9.0,,,9999.0,Light Rain,30.0,25.0,29.67,,61,,,,,,,,,,,,,,,3500.0,3500.0,BKN,3500.0,BKN,4700.0,,,,
KRDR,07-21-2014,22:58,METAR,Normal,110,7.0,,,9999.0,,30.6,25.2,29.72,1006.4,,,,,,,,,,,,,,,2/8 Mostly Clear,72000.0,3900.0,FEW,3900.0,,,,,,
KRDR,07-21-2014,21:58,METAR,Normal,140,7.0,,,9999.0,,31.4,24.8,29.74,1007.1,,,,,,,,,,,,,,,2/8 Mostly Clear,72000.0,4300.0,FEW,4300.0,,,,,,
KRDR,07-21-2014,20:58,METAR,Normal,160,9.0,,,9999.0,,32.4,24.6,29.75,1007.4,,,,,,,,,,,,,,,2/8 Mostly Clear,72000.0,4000.0,FEW,4000.0,,,,,,
KRDR,07-21-2014,19:58,METAR,Normal,150,8.0,,,9999.0,,31.5,24.1,29.77,1008.1,,,,,,,,,,,,,,,2/8 Mostly Clear,72000.0,3200.0,FEW,3200.0,,,,,,
KRDR,07-21-2014,18:58,METAR,Normal,140,8.0,,,9999.0,,30.9,24.7,29.79,1008.8,,,,,,,,,,,,,,,,3200.0,3200.0,BKN,3200.0,BKN,3900.0,,,,
KRDR,07-21-2014,17:58,METAR,Variable,,5.0,,,9999.0,,30.8,23.6,29.80,1009.1,,,,,,,,,,,,,,,Clear,72000.0,,,,,,,,,
KRDR,07-21-2014,16:58,METAR,Normal,150,10.0,,,9999.0,,29.8,22.1,29.80,1009.1,,,,,,,,,,,,,,,Clear,72000.0,,,,,,,,,
KRDR,07-21-2014,15:58,METAR,Normal,140,13.0,,,9999.0,,28.5,20.8,29.81,1009.5,,,,,,,,,,,,,,,Clear,72000.0,,,,,,,,,
KRDR,07-21-2014,14:58,METAR,Normal,130,9.0,,,9999.0,,27.0,18.9,29.82,1009.8,,,,,,,,,,,,,,,Clear,72000.0,,,,,,,,,
KRDR,07-21-2014,13:58,METAR,Normal,120,7.0,,,9999.0,,24.7,19.4,29.83,1010.1,,,,,,,,,,,,,,,Clear,72000.0,,,,,,,,,
KRDR,07-21-2014,12:58,METAR,Normal,80,7.0,,,9999.0,,22.3,21.4,29.82,1009.8,,,,,,,,,,,,,,,Clear,72000.0,,,,,,,,,
KRDR,07-21-2014,11:58,METAR,Normal,50,9.0,,,9999.0,,19.8,19.8,29.82,1009.8,,,,,,,,,,,,,,,Clear,72000.0,,,,,,,,,
KRDR,07-21-2014,10:58,METAR,Normal,360,8.0,,,9999.0,,18.5,18.5,29.84,1010.4,,,,,,,,,,,,,,,Clear,72000.0,,,,,,,,,
KRDR,07-21-2014,09:58,METAR,Normal,360,5.0,,,9999.0,,16.7,16.7,29.78,1008.4,,,,,,,,,,,,,,,Clear,72000.0,,,,,,,,,
KRDR,07-21-2014,08:58,METAR,Normal,360,3.0,,,9999.0,,17.1,17.1,29.76,1007.8,,,,,,,,,,,,,,,Clear,72000.0,,,,,,,,,
KRDR,07-21-2014,07:58,METAR,Normal,240,1.0,,,9999.0,,17.8,17.8,29.75,1007.4,,,,,,,,,,,,,,,Clear,72000.0,,,,,,,,,
KRDR,07-21-2014,06:58,METAR,Normal,240,2.0,,,9999.0,,17.8,17.8,29.74,1007.1,,,,,,,,,,,,,,,Clear,72000.0,,,,,,,,,
KRDR,07-21-2014,05:58,METAR,Calm,,0.0,,,9999.0,,18.4,18.2,29.74,1007.1,,,,,,,,,,,,,,,Clear,72000.0,,,,,,,,,
KRDR,07-21-2014,04:58,METAR,Calm,,0.0,,,9999.0,,19.5,19.3,29.74,1007.1,,,,,,,,,,,,,,,Clear,72000.0,,,,,,,,,
KRDR,07-21-2014,03:58,METAR,Normal,280,3.0,,,9999.0,,20.8,19.9,29.74,1007.1,,,,,,,,,,,,,,,Clear,72000.0,,,,,,,,,
KRDR,07-21-2014,02:58,METAR,Normal,270,2.0,,,9999.0,,23.1,19.8,29.72,1006.5,,,,,,,,,,,,,,,Clear,72000.0,,,,,,,,,
KRDR,07-21-2014,01:58,METAR,Normal,320,3.0,,,9999.0,,26.4,21.4,29.70,1005.7,,,,,,,,,,,,,,,Clear,72000.0,,,,,,,,,
KRDR,07-21-2014,00:58,METAR,Normal,360,4.0,,,9999.0,,29.8,20.1,29.68,1005.0,,,,,,,,,,,,,,,Clear,72000.0,,,,,,,,,
KRDR,07-20-2014,23:58,METAR,Normal,300,7.0,,,9999.0,,31.8,18.0,29.66,1004.3,,,,,,,,,,,,,,,Clear,72000.0,,,,,,,,,
KRDR,07-20-2014,22:58,METAR,Normal,300,8.0,,,9999.0,,33.4,18.2,29.64,1003.6,,,,,,,,,,,,,,,Clear,72000.0,,,,,,,,,
KRDR,07-20-2014,21:58,METAR,Normal,280,7.0,,,9999.0,,33.6,18.2,29.64,1003.6,,,,,,,,,,,,,,,Clear,72000.0,,,,,,,,,
KRDR,07-20-2014,20:58,METAR,Normal,290,9.0,,,9999.0,,33.3,17.5,29.64,1003.6,,,,,,,,,,,,,,,Clear,72000.0,,,,,,,,,
KRDR,07-20-2014,19:58,METAR,Normal,280,8.0,,,9999.0,,32.9,19.9,29.63,1003.3,,,,,,,,,,,,,,,Clear,72000.0,,,,,,,,,
KRDR,07-20-2014,18:58,METAR,Normal,230,9.0,,,9999.0,,31.8,21.5,29.62,1002.9,,,,,,,,,,,,,,,Clear,72000.0,,,,,,,,,
KRDR,07-20-2014,17:58,METAR,Normal,220,11.0,,,9999.0,,30.3,22.3,29.61,1002.7,,,,,,,,,,,,,,,Clear,72000.0,,,,,,,,,
KRDR,07-20-2014,16:58,METAR,Normal,230,10.0,,,9999.0,,28.7,22.5,29.62,1003.1,,,,,,,,,,,,,,,Clear,72000.0,,,,,,,,,
KRDR,07-20-2014,15:58,METAR,Normal,220,9.0,,,9999.0,,26.3,23.2,29.61,1002.8,,,,,,,,,,,,,,,Clear,72000.0,,,,,,,,,
KRDR,07-20-2014,14:58,METAR,Normal,220,14.0,,,9999.0,,24.6,22.6,29.62,1003.1,,,,,,,,,,,,,,,Clear,72000.0,,,,,,,,,
KRDR,07-20-2014,13:58,METAR,Normal,220,13.0,19.0,,9999.0,,23.0,22.4,29.63,1003.5,,,,,,,,,,,,,,,2/8 Mostly Clear,72000.0,1000.0,FEW,1000.0,,,,,,
KRDR,07-20-2014,12:58,METAR,Normal,200,10.0,,,9999.0,,21.0,20.9,29.62,1003.1,,,,,,,,,,,,,,,2/8 Mostly Clear,72000.0,900.0,FEW,900.0,,,,,,
KRDR,07-20-2014,12:34,SPECI,Normal,200,10.0,,,9999.0,,21.0,20.0,29.63,,,,,,,,,,,,,,,,2/8 Mostly Clear,72000.0,800.0,FEW,800.0,,,,,,
KRDR,07-20-2014,11:58,METAR,Normal,200,11.0,,,9999.0,,19.8,19.8,29.63,1003.4,,,,,,,,,,,,,,,2/8 Mostly Clear,72000.0,9000.0,FEW,9100.0,,,,,,
KRDR,07-20-2014,10:58,METAR,Normal,180,8.0,,,9999.0,,18.7,18.7,29.64,1003.8,,,,,,,,,,,,,,,,10000.0,10000.0,BKN,10000.0,,,,,,
KRDR,07-20-2014,09:58,METAR,Normal,170,7.0,,,9999.0,,18.4,18.2,29.66,1004.5,,,,,,,,,,,,,,,2/8 Mostly Clear,72000.0,12000.0,FEW,12000.0,,,,,,
KRDR,07-20-2014,08:58,METAR,Normal,190,7.0,,,9999.0,,18.6,18.5,29.68,1005.2,,,,,,,,,,,,,,,Clear,72000.0,,,,,,,,,
KRDR,07-20-2014,07:58,METAR,Normal,180,7.0,,,9999.0,,19.4,17.6,29.69,1005.5,,,,,,,,,,,,,,,,11000.0,11000.0,BKN,11000.0,,,,,,
KRDR,07-20-2014,06:58,METAR,Normal,180,8.0,,,9999.0,,18.9,16.6,29.70,1005.9,,,,,,,,,,,,,,,2/8 Mostly Clear,72000.0,11000.0,FEW,11000.0,,,,,,
KRDR,07-20-2014,05:58,METAR,Normal,180,8.0,,,9999.0,,18.2,15.9,29.73,1007.0,,,,,,,,,,,,,,,Clear,72000.0,,,,,,,,,
KRDR,07-20-2014,04:58,METAR,Normal,180,6.0,,,9999.0,,18.1,15.8,29.75,1007.6,,,,,,,,,,,,,,,Clear,72000.0,,,,,,,,,
KRDR,07-20-2014,03:58,METAR,Normal,170,7.0,,,9999.0,,18.4,15.8,29.77,1008.4,,,,,,,,,,,,,,,Clear,72000.0,,,,,,,,,
KRDR,07-20-2014,02:58,METAR,Normal,180,5.0,,,9999.0,,19.7,15.4,29.78,1008.7,,,,,,,,,,,,,,,Clear,72000.0,,,,,,,,,
KRDR,07-20-2014,01:58,METAR,Normal,170,6.0,,,9999.0,,21.5,15.6,29.77,1008.4,,,,,,,,,,,,,,,Clear,72000.0,,,,,,,,,
KRDR,07-20-2014,00:58,METAR,Normal,190,7.0,,,9999.0,,24.3,15.2,29.79,1009.0,,,,,,,,,,,,,,,Clear,72000.0,,,,,,,,,
KRDR,07-19-2014,23:58,METAR,Normal,210,6.0,,,9999.0,,25.6,12.8,29.80,1009.3,,,,,,,,,,,,,,,Clear,72000.0,,,,,,,,,
KRDR,07-19-2014,22:58,METAR,Normal,190,8.0,,,9999.0,,26.0,13.5,29.81,1009.7,,,,,,,,,,,,,,,Clear,72000.0,,,,,,,,,
KRDR,07-19-2014,21:58,METAR,Variable,,3.0,,,9999.0,,25.8,14.1,29.81,1009.7,,,,,,,,,,,,,,,Clear,72000.0,,,,,,,,,
KRDR,07-19-2014,20:58,METAR,Variable,,4.0,,,9999.0,,25.4,13.5,29.82,1010.1,,,,,,,,,,,,,,,Clear,72000.0,,,,,,,,,
KRDR,07-19-2014,19:58,METAR,Normal,260,4.0,,,9999.0,,25.3,14.6,29.83,1010.4,,,,,,,,,,,,,,,Clear,72000.0,,,,,,,,,
KRDR,07-19-2014,18:58,METAR,Variable,,2.0,,,9999.0,,24.1,13.1,29.85,1011.1,,,,,,,,,,,,,,,Clear,72000.0,,,,,,,,,
KRDR,07-19-2014,17:58,METAR,Normal,10,5.0,,,9999.0,,23.5,14.2,29.85,1011.0,,,,,,,,,,,,,,,Clear,72000.0,,,,,,,,,
KRDR,07-19-2014,16:58,METAR,Normal,330,6.0,,,9999.0,,22.5,15.1,29.84,1010.8,,,,,,,,,,,,,,,Clear,72000.0,,,,,,,,,
KRDR,07-19-2014,15:58,METAR,Normal,10,8.0,,,9999.0,,21.0,14.7,29.84,1010.8,,,,,,,,,,,,,,,Clear,72000.0,,,,,,,,,
KRDR,07-19-2014,14:58,METAR,Normal,340,10.0,,,9999.0,,19.7,14.2,29.85,1011.1,,,,,,,,,,,,,,,Clear,72000.0,,,,,,,,,
KRDR,07-19-2014,13:58,METAR,Normal,340,11.0,,,9999.0,,19.0,14.9,29.85,1011.0,,,,,,,,,,,,,,,Clear,72000.0,,,,,,,,,
KRDR,07-19-2014,12:58,METAR,Normal,310,7.0,,,9999.0,,17.2,15.1,29.83,1010.4,,,,,,,,,,,,,,,Clear,72000.0,,,,,,,,,
KRDR,07-19-2014,11:58,METAR,Normal,300,6.0,,,9999.0,,15.2,14.8,29.82,1010.0,,,,,,,,,,,,,,.06 IN,Clear,72000.0,,,,,,,,,
KRDR,07-19-2014,10:58,METAR,Normal,290,4.0,,,9999.0,,14.5,14.3,29.80,1009.3,,,,,,,,,,,,,,,Clear,72000.0,,,,,,,,,
KRDR,07-19-2014,09:58,METAR,Normal,300,5.0,,,9999.0,,14.5,14.4,29.80,1009.3,,,,,,,,,,,,,,,Clear,72000.0,,,,,,,,,
KRDR,07-19-2014,08:58,METAR,Normal,280,5.0,,,9999.0,,15.6,15.4,29.79,1009.0,,,,,,,,,,,,,,,Clear,72000.0,,,,,,,,,
KRDR,07-19-2014,07:58,METAR,Normal,280,6.0,,,9999.0,,16.7,16.2,29.77,1008.2,,,,,,,,,,,,,,,Clear,72000.0,,,,,,,,,
KRDR,07-19-2014,06:58,METAR,Normal,250,5.0,,,9999.0,,15.7,15.5,29.76,1007.9,,,,,,,,,,,,,,,Clear,72000.0,,,,,,,,,
KRDR,07-19-2014,05:58,METAR,Normal,240,4.0,,,9999.0,,17.6,17.0,29.76,1007.9,,,,,,,,,,,,,.06 IN,,Clear,72000.0,,,,,,,,,
KRDR,07-19-2014,04:58,METAR,Normal,260,5.0,,,9999.0,,17.5,16.8,29.74,1007.3,,,,,,,,,,,,,,,Clear,72000.0,,,,,,,,,
KRDR,07-19-2014,03:58,METAR,Normal,250,3.0,,,9999.0,,19.0,16.6,29.74,1007.2,,,,,,,,,,,,,,,Clear,72000.0,,,,,,,,,
KRDR,07-19-2014,02:58,METAR,Normal,310,6.0,,,9999.0,,20.8,18.6,29.73,1006.9,,,,,,,,,,,,.06 IN,,,,4900.0,4900.0,BKN,4900.0,,,,,,
KRDR,07-19-2014,01:58,METAR,Normal,250,8.0,,,9999.0,,22.5,21.3,29.70,1005.9,,,,,,,,,,,.06 IN,,,,,4200.0,4200.0,OVC,4200.0,,,,,,
KRDR,07-19-2014,01:49,SPECI,Normal,240,10.0,19.0,,9999.0,,23.0,21.0,29.70,,,,,,,,,,,,,,,,,4200.0,3400.0,FEW,3400.0,OVC,4200.0,,,,
KRDR,07-19-2014,01:43,SPECI,Normal,250,14.0,19.0,,9999.0,Light Rain/Mist,22.0,21.0,29.70,,61,10,,,,,,,,,,,,,,4100.0,4100.0,BKN,4100.0,OVC,5000.0,,,,
KRDR,07-19-2014,01:36,SPECI,Normal,240,7.0,,,9999.0,,22.0,21.0,29.70,,,,,,,,,,,,,,,,,4100.0,4100.0,BKN,4100.0,OVC,5000.0,,,,
KRDR,07-19-2014,01:33,SPECI,Normal,250,7.0,,,4800.0,Light Rain/Mist,22.0,21.0,29.70,,61,10,,,,,,,,,,,,,,4100.0,4100.0,BKN,4100.0,OVC,5500.0,,,,
KRDR,07-19-2014,01:28,SPECI,Normal,240,9.0,18.0,,4000.0,Heavy Rain/Mist,23.0,21.0,29.69,,63,10,,,,,,,,,,,,,,4500.0,3400.0,FEW,3400.0,BKN,4500.0,BKN,5500.0,,
KRDR,07-19-2014,01:13,SPECI,Normal,240,10.0,,,9999.0,Light Rain,25.0,18.0,29.69,,61,,,,,,,,,,,,,,,5500.0,5500.0,BKN,5500.0,,,,,,
KRDR,07-19-2014,01:06,SPECI,Normal,240,11.0,,,9999.0,,25.0,17.0,29.69,,,,,,,,,,,,,,,,,5500.0,5500.0,BKN,5500.0,,,,,,
KRDR,07-19-2014,00:58,METAR,Normal,230,14.0,,190/26KTS,9999.0,Light Drizzle,25.1,16.7,29.68,1005.2,51,,,,,,,,,,TRACE,,,,4/8 Partly Cloudy,72000.0,5500.0,SCT,5500.0,,,,,,
KRDR,07-19-2014,00:57,SPECI,Normal,230,14.0,,,9999.0,Light Drizzle,25.0,17.0,29.68,,51,,,,,,,,,,,,,,4/8 Partly Cloudy,72000.0,5500.0,SCT,5500.0,,,,,,
KRDR,07-19-2014,00:49,SPECI,Normal,220,12.0,,,9999.0,,25.0,17.0,29.67,,,,,,,,,,,,,,,,,5500.0,5500.0,BKN,5500.0,,,,,,
KRDR,07-19-2014,00:17,SPECI,Normal,210,16.0,25.0,,9999.0,Light Rain,27.0,16.0,29.67,,61,,,,,,,,,,,,,,,6000.0,6000.0,BKN,6000.0,,,,,,
KRDR,07-18-2014,23:58,METAR,Normal,200,16.0,27.0,220/29KTS,9999.0,,27.4,16.1,29.65,1004.2,,,,,,,,,,,,,,,,6000.0,6000.0,BKN,6000.0,,,,,,
KRDR,07-18-2014,22:58,METAR,Normal,210,23.0,32.0,,9999.0,,29.2,16.3,29.65,,,,,,,,,,,,,,,,Clear,72000.0,,,,,,,,,
KRDR,07-18-2014,21:58,METAR,Normal,220,24.0,30.0,,9999.0,,29.7,17.0,29.67,1004.8,,,,,,,,,,,,,,,Clear,72000.0,,,,,,,,,
KRDR,07-18-2014,20:58,METAR,Normal,220,22.0,30.0,,9999.0,,29.0,16.5,29.66,1004.4,,,,,,,,,,,,,,,Clear,72000.0,,,,,,,,,
KRDR,07-18-2014,19:58,METAR,Normal,210,19.0,31.0,,9999.0,,28.5,17.5,29.66,1004.4,,,,,,,,,,,,,,,Clear,72000.0,,,,,,,,,
KRDR,07-18-2014,18:58,METAR,Normal,200,18.0,26.0,,9999.0,,27.9,18.1,29.68,1005.1,,,,,,,,,,,,,,,Clear,72000.0,,,,,,,,,
KRDR,07-18-2014,17:58,METAR,Normal,200,17.0,24.0,,9999.0,,26.6,17.9,29.70,1005.8,,,,,,,,,,,,,,,Clear,72000.0,,,,,,,,,
KRDR,07-18-2014,16:58,METAR,Normal,200,15.0,25.0,,9999.0,,25.2,17.5,29.72,1006.5,,,,,,,,,,,,,,,Clear,72000.0,,,,,,,,,
KRDR,07-18-2014,15:58,METAR,Normal,190,16.0,22.0,,9999.0,,23.9,17.7,29.73,1006.8,,,,,,,,,,,,,,,Clear,72000.0,,,,,,,,,
KRDR,07-18-2014,14:58,METAR,Normal,200,16.0,22.0,,9999.0,,22.2,16.6,29.75,1007.6,,,,,,,,,,,,,,,Clear,72000.0,,,,,,,,,
KRDR,07-18-2014,13:58,METAR,Normal,200,13.0,,,9999.0,,20.5,16.5,29.77,1008.3,,,,,,,,,,,,,,,Clear,72000.0,,,,,,,,,
KRDR,07-18-2014,12:58,METAR,Normal,190,10.0,,,9999.0,,18.8,16.2,29.79,1009.0,,,,,,,,,,,,,,,4/8 Partly Cloudy,72000.0,8000.0,SCT,8000.0,,,,,,
KRDR,07-18-2014,11:58,METAR,Normal,190,7.0,,,9999.0,,17.1,16.2,29.80,1009.3,,,,,,,,,,,,,,,,7500.0,7500.0,BKN,7500.0,,,,,,
KRDR,07-18-2014,10:58,METAR,Normal,180,6.0,,,9999.0,,15.7,15.5,29.79,1009.0,,,,,,,,,,,,,,,,7000.0,7000.0,BKN,7000.0,,,,,,
KRDR,07-18-2014,09:58,METAR,Normal,170,7.0,,,9999.0,,16.0,15.9,29.79,1009.0,,,,,,,,,,,,,,,4/8 Partly Cloudy,72000.0,7000.0,SCT,7000.0,,,,,,
KRDR,07-18-2014,08:58,METAR,Normal,190,8.0,,,9999.0,,18.0,15.5,29.80,1009.2,,,,,,,,,,,,,,,2/8 Mostly Clear,72000.0,7000.0,FEW,7000.0,,,,,,
KRDR,07-18-2014,07:58,METAR,Normal,200,8.0,,,9999.0,,18.3,15.9,29.81,1009.6,,,,,,,,,,,,,,,Clear,72000.0,,,,,,,,,
KRDR,07-18-2014,06:58,METAR,Normal,200,8.0,,,9999.0,,19.0,16.3,29.83,1010.3,,,,,,,,,,,,,,,Clear,72000.0,,,,,,,,,
KRDR,07-18-2014,05:58,METAR,Normal,210,9.0,,,9999.0,,19.8,16.1,29.84,1010.6,,,,,,,,,,,,,,,Clear,72000.0,,,,,,,,,
KRDR,07-18-2014,04:58,METAR,Normal,200,8.0,,,9999.0,,19.8,16.3,29.83,1010.3,,,,,,,,,,,,,,,Clear,72000.0,,,,,,,,,
KRDR,07-18-2014,03:58,METAR,Normal,190,8.0,,,9999.0,,20.5,16.4,29.83,1010.3,,,,,,,,,,,,,,,2/8 Mostly Clear,72000.0,7000.0,FEW,7000.0,,,,,,
KRDR,07-18-2014,02:58,METAR,Normal,170,8.0,,,9999.0,,21.6,16.3,29.83,1010.3,,,,,,,,,,,,,,,Clear,72000.0,,,,,,,,,
KRDR,07-18-2014,01:58,METAR,Normal,180,6.0,,,9999.0,,22.7,16.1,29.84,1010.7,,,,,,,,,,,,,,,Clear,72000.0,,,,,,,,,
KRDR,07-18-2014,00:58,METAR,Normal,190,8.0,,,9999.0,,24.5,15.5,29.85,1011.0,,,,,,,,,,,,,,,Clear,72000.0,,,,,,,,,
KRDR,07-17-2014,23:58,METAR,Normal,190,9.0,,,9999.0,,26.2,14.6,29.85,1011.1,,,,,,,,,,,,,,,Clear,72000.0,,,,,,,,,
KRDR,07-17-2014,22:58,METAR,Normal,210,10.0,,,9999.0,,26.9,13.4,29.86,1011.4,,,,,,,,,,,,,,,Clear,72000.0,,,,,,,,,
KRDR,07-17-2014,21:58,METAR,Normal,200,8.0,,,9999.0,,27.2,12.9,29.87,1011.7,,,,,,,,,,,,,,,Clear,72000.0,,,,,,,,,
KRDR,07-17-2014,20:58,METAR,Normal,190,11.0,,,9999.0,,27.4,13.5,29.88,1012.1,,,,,,,,,,,,,,,Clear,72000.0,,,,,,,,,
KRDR,07-17-2014,19:58,METAR,Normal,200,10.0,,,9999.0,,27.2,11.8,29.89,1012.4,,,,,,,,,,,,,,,Clear,72000.0,,,,,,,,,
KRDR,07-17-2014,18:58,METAR,Normal,210,11.0,17.0,,9999.0,,26.4,12.4,29.91,1013.1,,,,,,,,,,,,,,,Clear,72000.0,,,,,,,,,
KRDR,07-17-2014,17:58,METAR,Normal,240,9.0,,,9999.0,,26.2,14.5,29.92,1013.4,,,,,,,,,,,,,,,Clear,72000.0,,,,,,,,,
KRDR,07-17-2014,16:58,METAR,Normal,230,6.0,,,9999.0,,23.8,15.0,29.93,1013.8,,,,,,,,,,,,,,,Clear,72000.0,,,,,,,,,
KRDR,07-17-2014,15:58,METAR,Normal,250,9.0,,,9999.0,,24.1,13.9,29.93,1013.8,,,,,,,,,,,,,,,Clear,72000.0,,,,,,,,,
KRDR,07-17-2014,14:58,METAR,Normal,260,7.0,,,9999.0,,23.1,14.9,29.93,1013.8,,,,,,,,,,,,,,,Clear,72000.0,,,,,,,,,
KRDR,07-17-2014,13:58,METAR,Normal,230,3.0,,,9999.0,,19.6,16.0,29.93,1013.8,,,,,,,,,,,,,,,Clear,72000.0,,,,,,,,,
KRDR,07-17-2014,12:58,METAR,Normal,240,4.0,,,9999.0,,16.7,15.9,29.94,1014.2,,,,,,,,,,,,,,,Clear,72000.0,,,,,,,,,
KRDR,07-17-2014,11:58,METAR,Normal,250,3.0,,,9999.0,,14.1,13.9,29.93,1013.9,,,,,,,,,,,,,,,Clear,72000.0,,,,,,,,,
KRDR,07-17-2014,10:58,METAR,Normal,240,4.0,,,9999.0,,13.0,12.9,29.93,1013.9,,,,,,,,,,,,,,,Clear,72000.0,,,,,,,,,
KRDR,07-17-2014,09:58,METAR,Normal,240,5.0,,,9999.0,,13.7,13.6,29.93,1013.9,,,,,,,,,,,,,,,Clear,9000.0,,,,,,,,,
KRDR,07-17-2014,08:58,METAR,Normal,210,4.0,,,9999.0,,13.9,13.8,29.93,1013.9,,,,,,,,,,,,,,,Clear,72000.0,,,,,,,,,
KRDR,07-17-2014,07:58,METAR,Normal,210,4.0,,,9999.0,,13.7,13.6,29.94,1014.2,,,,,,,,,,,,,,,Clear,72000.0,,,,,,,,,
KRDR,07-17-2014,06:58,METAR,Normal,200,5.0,,,9999.0,,13.7,13.5,29.94,1014.2,,,,,,,,,,,,,,,Clear,72000.0,,,,,,,,,
KRDR,07-17-2014,05:58,METAR,Normal,220,3.0,,,9999.0,,15.5,15.3,29.95,1014.5,,,,,,,,,,,,,,,Clear,72000.0,,,,,,,,,
KRDR,07-17-2014,04:58,METAR,Normal,260,4.0,,,9999.0,,15.8,15.6,29.96,1014.9,,,,,,,,,,,,,,,Clear,72000.0,,,,,,,,,
KRDR,07-17-2014,03:58,METAR,Normal,220,3.0,,,9999.0,,16.2,16.0,29.96,1014.9,,,,,,,,,,,,,,,Clear,72000.0,,,,,,,,,
KRDR,07-17-2014,02:58,METAR,Normal,210,1.0,,,9999.0,,18.1,16.8,29.95,,,,,,,,,,,,,,,,Clear,72000.0,,,,,,,,,
KRDR,07-17-2014,01:58,METAR,Normal,60,1.0,,,9999.0,,22.0,15.9,29.94,1014.1,,,,,,,,,,,,,,,Clear,72000.0,,,,,,,,,
KRDR,07-17-2014,00:58,METAR,Normal,250,1.0,,,9999.0,,22.9,16.7,29.94,1014.2,,,,,,,,,,,,,,,,10000.0,10000.0,OVC,10000.0,,,,,,
KRDR,07-16-2014,23:58,METAR,Normal,300,3.0,,,9999.0,,23.5,15.7,29.95,1014.6,,,,,,,,,,,,,TRACE,,,9000.0,9000.0,OVC,9100.0,,,,,,
KRDR,07-16-2014,22:58,METAR,Normal,270,2.0,,,9999.0,,24.6,14.2,29.96,1015.0,,,,,,,,,,,,,,,,11000.0,11000.0,BKN,11000.0,,,,,,
KRDR,07-16-2014,21:58,METAR,Normal,280,3.0,,,9999.0,,24.1,14.0,29.98,1015.7,,,,,,,,,,,TRACE,,,,,10000.0,10000.0,OVC,10000.0,,,,,,
KRDR,07-16-2014,21:14,SPECI,Normal,230,3.0,,,9999.0,,22.0,15.0,29.99,,,,,,,,,,,,,,,,,8000.0,6000.0,SCT,6000.0,OVC,8000.0,,,,
KRDR,07-16-2014,20:59,SPECI,Normal,270,2.0,,,9999.0,Light Rain,23.0,15.0,29.99,,61,,,,,,,,,,,,,,,7500.0,6000.0,SCT,6000.0,OVC,7500.0,,,,
KRDR,07-16-2014,20:58,METAR,Normal,290,3.0,,,9999.0,,23.8,13.3,29.99,1016.1,,,,,,,,,,,,,,,,7500.0,6000.0,FEW,6000.0,OVC,7500.0,,,,
KRDR,07-16-2014,19:58,METAR,Normal,10,5.0,,,9999.0,,24.0,13.3,30.00,1016.4,,,,,,,,,,,,,,,Clear,9000.0,,,,,,,,,
KRDR,07-16-2014,18:58,METAR,Normal,290,6.0,,,9999.0,,25.1,13.4,30.01,1016.7,,,,,,,,,,,,,,,2/8 Mostly Clear,72000.0,5000.0,FEW,5000.0,,,,,,
KRDR,07-16-2014,17:58,METAR,Normal,240,6.0,,,9999.0,,23.7,13.3,30.02,1017.1,,,,,,,,,,,,,,,4/8 Partly Cloudy,72000.0,4900.0,SCT,4900.0,,,,,,
KRDR,07-16-2014,16:58,METAR,Variable,,6.0,,,9999.0,,23.4,13.1,30.04,1017.8,,,,,,,,,,,,,,,Clear,72000.0,,,,,,,,,
KRDR,07-16-2014,15:58,METAR,Normal,220,4.0,,,9999.0,,22.5,12.8,30.05,1018.0,,,,,,,,,,,,,,,Clear,72000.0,,,,,,,,,
KRDR,07-16-2014,14:58,METAR,Normal,190,5.0,,,9999.0,,21.6,13.1,30.05,1018.0,,,,,,,,,,,,,,,Clear,72000.0,,,,,,,,,
KRDR,07-16-2014,13:58,METAR,Normal,250,3.0,,,9999.0,Haze Smoke or Dust,19.0,13.8,30.07,1018.7,05,,,,,,,,,,,,,,Clear,72000.0,,,,,,,,,
KRDR,07-16-2014,12:58,METAR,Normal,320,1.0,,,9999.0,,14.9,14.0,30.07,1018.7,,,,,,,,,,,,,,,2/8 Mostly Clear,72000.0,5000.0,FEW,5000.0,,,,,,
KRDR,07-16-2014,11:58,METAR,Calm,,0.0,,,9999.0,,10.6,10.6,30.07,1018.8,,,,,,,,,,,,,,,Clear,72000.0,,,,,,,,,
KRDR,07-16-2014,10:58,METAR,Calm,,0.0,,,9999.0,,8.6,8.6,30.07,1018.8,,,,,,,,,,,,,,,Clear,72000.0,,,,,,,,,
KRDR,07-16-2014,10:33,SPECI,Calm,,0.0,,,9999.0,,8.0,8.0,30.08,,,,,,,,,,,,,,,,Clear,72000.0,,,,,,,,,
KRDR,07-16-2014,10:23,SPECI,Normal,220,1.0,,,9999.0,,9.0,9.0,30.07,,,,,,,,,,,,,,,,Clear,72000.0,,,,,,,,,
KRDR,07-16-2014,09:58,METAR,Calm,,0.0,,,9999.0,,8.8,8.7,30.07,1018.8,,,,,,,,,,,,,,,4/8 Partly Cloudy,72000.0,4500.0,SCT,4500.0,,,,,,
KRDR,07-16-2014,08:58,METAR,Calm,,0.0,,,9999.0,,9.9,9.9,30.07,1018.8,,,,,,,,,,,,,,,4/8 Partly Cloudy,72000.0,4600.0,SCT,4600.0,,,,,,
KRDR,07-16-2014,07:58,METAR,Calm,,0.0,,,9999.0,,9.9,9.9,30.07,1018.8,,,,,,,,,,,,,,,,4800.0,4800.0,BKN,4800.0,,,,,,
KRDR,07-16-2014,06:58,METAR,Calm,,0.0,,,9999.0,,9.5,9.3,30.08,1019.2,,,,,,,,,,,,,,,Clear,72000.0,,,,,,,,,
KRDR,07-16-2014,05:58,METAR,Normal,270,2.0,,,9999.0,,10.6,10.6,30.07,1018.8,,,,,,,,,,,,,,,Clear,72000.0,,,,,,,,,
KRDR,07-16-2014,04:58,METAR,Normal,280,1.0,,,9999.0,,11.2,11.1,30.08,1019.2,,,,,,,,,,,,,,,Clear,72000.0,,,,,,,,,
KRDR,07-16-2014,03:58,METAR,Normal,300,2.0,,,9999.0,,12.4,12.2,30.08,1019.2,,,,,,,,,,,,,,,Clear,72000.0,,,,,,,,,
KRDR,07-16-2014,02:58,METAR,Normal,30,2.0,,,9999.0,,14.6,12.3,30.07,1018.8,,,,,,,,,,,,,,,Clear,72000.0,,,,,,,,,
KRDR,07-16-2014,02:33,SPECI,Normal,40,3.0,,,9999.0,,16.0,12.0,30.07,,,,,,,,,,,,,,,,Clear,72000.0,,,,,,,,,
KRDR,07-16-2014,02:18,SPECI,Normal,50,3.0,,,4000.0,Haze Smoke or Dust,17.0,13.0,30.07,,05,,,,,,,,,,,,,,Clear,72000.0,,,,,,,,,
KRDR,07-16-2014,01:58,METAR,Normal,30,4.0,,,9999.0,,18.3,12.3,30.07,1018.8,,,,,,,,,,,,,,,Clear,72000.0,,,,,,,,,
KRDR,07-16-2014,00:58,METAR,Normal,50,8.0,,,9999.0,,21.3,10.9,30.07,1018.7,,,,,,,,,,,,,,,Clear,72000.0,,,,,,,,,
KRDR,07-15-2014,23:58,METAR,Normal,30,7.0,,,9999.0,,21.7,11.2,30.07,1018.8,,,,,,,,,,,,,,,Clear,72000.0,,,,,,,,,
KRDR,07-15-2014,22:58,METAR,Normal,30,8.0,,,9999.0,,22.1,10.7,30.09,1019.5,,,,,,,,,,,,,,,Clear,72000.0,,,,,,,,,
KRDR,07-15-2014,21:58,METAR,Normal,60,12.0,,,9999.0,,22.6,11.2,30.10,1019.8,,,,,,,,,,,,,,,Clear,72000.0,,,,,,,,,
KRDR,07-15-2014,20:58,METAR,Normal,360,5.0,,,9999.0,,22.6,11.4,30.12,1020.4,,,,,,,,,,,,,,,Clear,72000.0,,,,,,,,,
KRDR,07-15-2014,19:58,METAR,Normal,40,10.0,14.0,,9999.0,,21.5,11.8,30.13,1020.8,,,,,,,,,,,,,,,4/8 Partly Cloudy,72000.0,4700.0,FEW,4700.0,SCT,5500.0,,,,
KRDR,07-15-2014,18:58,METAR,Normal,30,10.0,17.0,,9999.0,,21.7,11.5,30.14,1021.2,,,,,,,,,,,,,,,2/8 Mostly Clear,72000.0,4500.0,FEW,4500.0,,,,,,
KRDR,07-15-2014,17:58,METAR,Variable,,4.0,,,9999.0,,20.6,10.6,30.15,1021.5,,,,,,,,,,,,,,,Clear,72000.0,,,,,,,,,
KRDR,07-15-2014,16:58,METAR,Variable,30,9.0,,,9999.0,,19.9,11.1,30.17,1022.2,,,,,,,,,,,,,,,2/8 Mostly Clear,72000.0,3700.0,FEW,3700.0,,,,,,
KRDR,07-15-2014,15:58,METAR,Normal,10,9.0,,,9999.0,,18.7,13.0,30.18,1022.5,,,,,,,,,,,,,,,4/8 Partly Cloudy,72000.0,2500.0,FEW,2500.0,SCT,3300.0,SCT,4000.0,,
KRDR,07-15-2014,15:48,SPECI,Variable,,6.0,,,9999.0,,19.0,13.0,30.18,,,,,,,,,,,,,,,,4/8 Partly Cloudy,72000.0,2300.0,FEW,2300.0,SCT,3600.0,,,,
KRDR,07-15-2014,15:23,SPECI,Normal,360,8.0,,,9999.0,,18.0,14.0,30.19,,,,,,,,,,,,,,,,,2000.0,2200.0,SCT,2200.0,BKN,2800.0,BKN,3500.0,,
KRDR,07-15-2014,14:58,METAR,Normal,20,6.0,,,9999.0,,17.7,14.1,30.19,1022.9,,,,,,,,,,,,,,,Clear,72000.0,,,,,,,,,
KRDR,07-15-2014,13:58,METAR,Normal,350,4.0,,,9999.0,,15.8,13.3,30.19,1022.9,,,,,,,,,,,,,,,4/8 Partly Cloudy,72000.0,3800.0,SCT,3800.0,,,,,,
KRDR,07-15-2014,12:58,METAR,Normal,360,6.0,,,9999.0,,13.9,12.6,30.19,1022.9,,,,,,,,,,,,,,,Clear,72000.0,,,,,,,,,
KRDR,07-15-2014,11:58,METAR,Normal,310,5.0,,,9999.0,,12.0,11.8,30.19,1022.9,,,,,,,,,,,,,,,Clear,72000.0,,,,,,,,,
KRDR,07-15-2014,10:58,METAR,Normal,330,6.0,,,9999.0,,11.0,10.8,30.18,1022.6,,,,,,,,,,,,,,,Clear,72000.0,,,,,,,,,
KRDR,07-15-2014,09:58,METAR,Normal,330,4.0,,,9999.0,,11.0,10.9,30.18,1022.7,,,,,,,,,,,,,,,Clear,72000.0,,,,,,,,,
KRDR,07-15-2014,08:58,METAR,Normal,330,6.0,,,9999.0,,11.7,11.6,30.18,1022.6,,,,,,,,,,,,,,,4/8 Partly Cloudy,72000.0,4300.0,FEW,4300.0,SCT,5000.0,,,,
KRDR,07-15-2014,07:58,METAR,Normal,330,5.0,,,9999.0,,12.7,12.4,30.18,1022.6,,,,,,,,,,,,,,,,4000.0,4200.0,SCT,4200.0,BKN,5000.0,,,,
KRDR,07-15-2014,06:58,METAR,Normal,320,5.0,,,9999.0,,12.3,12.1,30.18,1022.7,,,,,,,,,,,,,,,2/8 Mostly Clear,72000.0,4200.0,FEW,4200.0,,,,,,
KRDR,07-15-2014,05:58,METAR,Normal,340,7.0,,,9999.0,,13.7,12.8,30.18,1022.6,,,,,,,,,,,,,,,,6000.0,4600.0,FEW,4600.0,BKN,6000.0,,,,
KRDR,07-15-2014,04:58,METAR,Normal,330,5.0,,,9999.0,,13.0,12.7,30.18,1022.7,,,,,,,,,,,,,,,2/8 Mostly Clear,72000.0,6000.0,FEW,6000.0,,,,,,
KRDR,07-15-2014,03:58,METAR,Variable,,6.0,,,9999.0,,13.8,12.6,30.18,1022.7,,,,,,,,,,,,,,,Clear,72000.0,,,,,,,,,
KRDR,07-15-2014,02:58,METAR,Normal,10,6.0,,,9999.0,,15.6,12.5,30.18,1022.7,,,,,,,,,,,,,,,4/8 Partly Cloudy,72000.0,6000.0,SCT,6000.0,,,,,,
KRDR,07-15-2014,01:58,METAR,Normal,20,7.0,,,9999.0,,18.0,11.8,30.17,,,,,,,,,,,,,,,,,3900.0,3900.0,BKN,3900.0,BKN,7000.0,,,,
KRDR,07-15-2014,00:58,METAR,Normal,10,11.0,,,9999.0,,18.6,12.0,30.17,1022.3,,,,,,,,,,,,,,,,4900.0,3900.0,SCT,3900.0,BKN,7000.0,,,,
KRDR,07-14-2014,23:58,METAR,Normal,10,13.0,20.0,360/28KTS,9999.0,,18.7,11.6,30.17,1022.3,,,,,,,,,,,,,,,4/8 Partly Cloudy,72000.0,7500.0,SCT,7500.0,,,,,,
KRDR,07-14-2014,22:58,METAR,Normal,20,19.0,26.0,350/28KTS,9999.0,,19.6,10.7,30.17,1022.3,,,,,,,,,,,,,,,2/8 Mostly Clear,72000.0,7000.0,FEW,7000.0,,,,,,
KRDR,07-14-2014,21:58,METAR,Normal,10,20.0,29.0,030/29KTS,9999.0,,18.6,11.1,30.17,1022.4,,,,,,,,,,,,,,,4/8 Partly Cloudy,72000.0,7000.0,SCT,7000.0,,,,,,
KRDR,07-14-2014,20:58,METAR,Normal,30,19.0,27.0,010/28KTS,9999.0,,18.8,10.4,30.16,1022.0,,,,,,,,,,,,,,,4/8 Partly Cloudy,72000.0,4700.0,FEW,4700.0,SCT,7500.0,,,,
KRDR,07-14-2014,19:58,METAR,Normal,10,15.0,24.0,350/29KTS,9999.0,,18.2,10.6,30.16,1022.0,,,,,,,,,,,,,,,4/8 Partly Cloudy,72000.0,3500.0,FEW,3500.0,SCT,6000.0,,,,
KRDR,07-14-2014,18:58,METAR,Normal,30,17.0,23.0,350/28KTS,9999.0,,17.9,10.6,30.15,1021.6,,,,,,,,,,,,,,,4/8 Partly Cloudy,72000.0,3400.0,SCT,3400.0,,,,,,
KRDR,07-14-2014,18:16,SPECI,Normal,350,15.0,26.0,,9999.0,,18.0,11.0,30.15,,,,,,,,,,,,,,,,4/8 Partly Cloudy,72000.0,3200.0,FEW,3200.0,SCT,6000.0,,,,
KRDR,07-14-2014,17:58,METAR,Normal,20,21.0,24.0,350/29KTS,9999.0,,16.7,11.0,30.15,1021.6,,,,,,,,,,,,,,,,3300.0,2600.0,FEW,2600.0,SCT,3200.0,BKN,5000.0,,
KRDR,07-14-2014,17:43,SPECI,Normal,20,20.0,28.0,,9999.0,,16.0,11.0,30.15,,,,,,,,,,,,,,,,,2700.0,2700.0,SCT,2700.0,BKN,3400.0,,,,
KRDR,07-14-2014,17:38,SPECI,Normal,10,20.0,25.0,,9999.0,,16.0,11.0,30.15,,,,,,,,,,,,,,,,,2500.0,2700.0,BKN,2700.0,BKN,3400.0,,,,
KRDR,07-14-2014,16:58,METAR,Normal,360,15.0,25.0,350/29KTS,9999.0,,14.6,10.7,30.15,1021.6,,,,,,,,,,,,,,,,2300.0,2300.0,BKN,2300.0,BKN,3000.0,,,,
KRDR,07-14-2014,16:18,SPECI,Normal,10,22.0,27.0,,9999.0,,15.0,10.0,30.14,,,,,,,,,,,,,,,,,2400.0,2400.0,BKN,2400.0,OVC,3900.0,,,,
KRDR,07-14-2014,16:08,SPECI,Normal,360,17.0,27.0,,9999.0,,15.0,10.0,30.14,,,,,,,,,,,,,,,,,2200.0,2400.0,SCT,2400.0,BKN,4000.0,,,,
KRDR,07-14-2014,15:58,METAR,Variable,360,19.0,26.0,010/28KTS,9999.0,,15.1,10.3,30.14,1021.3,,,,,,,,,,,,,,,,2400.0,2400.0,BKN,2400.0,,,,,,
KRDR,07-14-2014,15:43,SPECI,Normal,360,19.0,27.0,,9999.0,,15.0,10.0,30.14,,,,,,,,,,,,,,,,,2300.0,2300.0,BKN,2300.0,,,,,,
KRDR,07-14-2014,15:33,SPECI,Normal,360,17.0,28.0,,9999.0,,15.0,10.0,30.13,,,,,,,,,,,,,,,,,2300.0,2300.0,SCT,2300.0,,,,,,
KRDR,07-14-2014,15:28,SPECI,Normal,360,21.0,28.0,,9999.0,,15.0,10.0,30.13,,,,,,,,,,,,,,,,,2400.0,2400.0,BKN,2400.0,BKN,7500.0,,,,
KRDR,07-14-2014,14:58,METAR,Normal,360,17.0,25.0,,9999.0,,14.0,9.4,30.13,1020.9,,,,,,,,,,,,,,,2/8 Mostly Clear,72000.0,4000.0,FEW,4000.0,,,,,,
KRDR,07-14-2014,13:58,METAR,Normal,360,18.0,25.0,,9999.0,,12.1,8.9,30.12,1020.6,,,,,,,,,,,,,,,,4800.0,2000.0,SCT,2000.0,BKN,4800.0,,,,
KRDR,07-14-2014,12:58,METAR,Normal,360,16.0,22.0,,9999.0,,10.8,9.3,30.11,1020.3,,,,,,,,,,,,,,,2/8 Mostly Clear,72000.0,1600.0,FEW,1600.0,,,,,,
KRDR,07-14-2014,11:58,METAR,Normal,360,12.0,,,9999.0,,9.5,9.2,30.09,1019.7,,,,,,,,,,,,,TRACE,.01 IN,Clear,72000.0,,,,,,,,,
KRDR,07-14-2014,10:58,METAR,Variable,350,11.0,,,9999.0,,8.9,8.7,30.07,1019.0,,,,,,,,,,,,,,,4/8 Partly Cloudy,72000.0,2500.0,SCT,2500.0,,,,,,
KRDR,07-14-2014,09:58,METAR,Normal,350,10.0,,,9999.0,,8.6,8.5,30.05,1018.3,,,,,,,,,,,,,,,Clear,72000.0,,,,,,,,,
KRDR,07-14-2014,08:58,METAR,Normal,360,12.0,21.0,,9999.0,,9.7,9.3,30.03,1017.5,,,,,,,,,,,,TRACE,,,2/8 Mostly Clear,72000.0,1700.0,FEW,1700.0,,,,,,
KRDR,07-14-2014,08:43,SPECI,Normal,10,17.0,22.0,,9999.0,,10.0,9.0,30.03,,,,,,,,,,,,,,,,4/8 Partly Cloudy,72000.0,1700.0,SCT,1700.0,,,,,,
KRDR,07-14-2014,08:03,SPECI,Normal,10,14.0,17.0,,9999.0,,11.0,10.0,30.01,,,,,,,,,,,,,,,,,2700.0,2000.0,FEW,2000.0,BKN,2700.0,,,,
KRDR,07-14-2014,07:58,METAR,Normal,10,8.0,,,9999.0,,10.5,10.4,30.01,1016.8,,,,,,,,,,,,,,,,2600.0,2100.0,FEW,2100.0,SCT,2700.0,BKN,7000.0,,
KRDR,07-14-2014,06:58,METAR,Normal,360,13.0,18.0,,9999.0,,11.3,11.2,29.99,1016.1,,,,,,,,,,,TRACE,,,,,5000.0,1400.0,FEW,1400.0,BKN,5000.0,BKN,7500.0,,
KRDR,07-14-2014,06:52,SPECI,Normal,340,16.0,19.0,,9999.0,,11.0,11.0,29.99,,,,,,,,,,,,,,,,,5000.0,1400.0,FEW,1400.0,SCT,2200.0,BKN,5000.0,,
KRDR,07-14-2014,06:44,SPECI,Normal,330,13.0,24.0,,9999.0,Light Rain,12.0,12.0,29.98,,61,,,,,,,,,,,,,,,4500.0,1300.0,FEW,1300.0,BKN,4500.0,OVC,5500.0,,
KRDR,07-14-2014,06:39,SPECI,Normal,330,14.0,24.0,,9999.0,Light Rain,12.0,12.0,29.98,,61,,,,,,,,,,,,,,,4800.0,1100.0,FEW,1100.0,SCT,2200.0,OVC,4800.0,,
KRDR,07-14-2014,06:38,SPECI,Normal,330,14.0,24.0,,9999.0,Light Rain,12.0,12.0,29.98,,61,,,,,,,,,,,,,,,4800.0,1500.0,FEW,1500.0,SCT,2200.0,OVC,4800.0,,
KRDR,07-14-2014,06:33,SPECI,Normal,330,16.0,21.0,,9999.0,Light Rain,13.0,12.0,29.98,,61,,,,,,,,,,,,,,,4600.0,1500.0,FEW,1500.0,SCT,2200.0,OVC,4600.0,,
KRDR,07-14-2014,05:58,METAR,Normal,320,11.0,,,9999.0,,12.3,12.1,29.98,1015.8,,,,,,,,,,,.01 IN,,.01 IN,,,4700.0,1700.0,FEW,1700.0,SCT,4500.0,BKN,7500.0,,
KRDR,07-14-2014,05:50,SPECI,Normal,350,13.0,,,9999.0,,12.0,12.0,29.98,,,,,,,,,,,,,,,,,1700.0,1700.0,SCT,1700.0,SCT,2600.0,BKN,7500.0,,
KRDR,07-14-2014,05:40,SPECI,Normal,340,10.0,,,9999.0,,12.0,12.0,29.98,,,,,,,,,,,,,,,,,1700.0,1700.0,BKN,1700.0,BKN,2800.0,,,,
KRDR,07-14-2014,05:32,SPECI,Variable,360,7.0,,,9999.0,Light Drizzle,12.0,12.0,29.98,,51,,,,,,,,,,,,,,,1900.0,1300.0,FEW,1300.0,BKN,1900.0,OVC,2800.0,,
KRDR,07-14-2014,05:17,SPECI,Normal,30,12.0,,,9999.0,Light Rain,13.0,12.0,29.98,,61,,,,,,,,,,,,,,,2900.0,1500.0,FEW,1500.0,BKN,2900.0,BKN,3500.0,,
KRDR,07-14-2014,05:08,SPECI,Normal,40,12.0,,,9999.0,,14.0,11.0,29.97,,,,,,,,,,,,,,,,,6000.0,3000.0,FEW,3000.0,SCT,3500.0,BKN,6000.0,,
KRDR,07-14-2014,04:58,METAR,Normal,360,9.0,,,9999.0,,14.9,9.3,29.97,1015.3,,,,,,,,,,,,,,,,6000.0,3600.0,FEW,3600.0,BKN,6000.0,,,,
KRDR,07-14-2014,03:58,METAR,Normal,330,10.0,,,9999.0,,15.1,8.4,29.96,1015.0,,,,,,,,,,,,,,,4/8 Partly Cloudy,72000.0,7500.0,SCT,7500.0,,,,,,
KRDR,07-14-2014,02:58,METAR,Normal,330,10.0,15.0,,9999.0,,16.2,8.4,29.96,1015.0,,,,,,,,,,,,,,,,7000.0,7000.0,OVC,7000.0,,,,,,
KRDR,07-14-2014,01:58,METAR,Normal,350,11.0,,,9999.0,,17.0,8.9,29.95,1014.7,,,,,,,,,,,,,,,,7500.0,7500.0,OVC,7500.0,,,,,,
KRDR,07-14-2014,00:58,METAR,Normal,350,12.0,,,9999.0,,17.8,8.3,29.95,1014.7,,,,,,,,,,,,,,,,7500.0,7500.0,BKN,7500.0,,,,,,
KRDR,07-13-2014,23:58,METAR,Normal,330,14.0,,,9999.0,,18.2,7.6,29.94,1014.4,,,,,,,,,,,,,,,,7500.0,7500.0,BKN,7500.0,,,,,,
KRDR,07-13-2014,22:58,METAR,Normal,350,13.0,,,9999.0,,18.9,8.2,29.93,1014.1,,,,,,,,,,,,,,,2/8 Mostly Clear,72000.0,7000.0,FEW,7000.0,,,,,,
KRDR,07-13-2014,21:58,METAR,Normal,330,18.0,25.0,330/30KTS,9999.0,,19.5,9.4,29.93,1014.1,,,,,,,,,,,,,,,4/8 Partly Cloudy,72000.0,8000.0,SCT,8000.0,,,,,,
KRDR,07-13-2014,20:58,METAR,Normal,330,15.0,26.0,310/29KTS,9999.0,,20.7,8.4,29.93,1014.0,,,,,,,,,,,,,,,4/8 Partly Cloudy,72000.0,7500.0,SCT,7500.0,,,,,,
KRDR,07-13-2014,19:58,METAR,Normal,340,20.0,24.0,320/27KTS,9999.0,,20.6,7.7,29.92,1013.7,,,,,,,,,,,,,,,2/8 Mostly Clear,72000.0,6000.0,FEW,6000.0,,,,,,
KRDR,07-13-2014,18:58,METAR,Normal,320,12.0,24.0,320/29KTS,9999.0,,21.5,8.1,29.93,1014.0,,,,,,,,,,,,,,,2/8 Mostly Clear,72000.0,6000.0,FEW,6000.0,,,,,,
KRDR,07-13-2014,17:58,METAR,Normal,320,16.0,26.0,290/30KTS,9999.0,,20.5,7.7,29.94,1014.4,,,,,,,,,,,,,,,2/8 Mostly Clear,72000.0,6000.0,FEW,6000.0,,,,,,
KRDR,07-13-2014,16:58,METAR,Normal,330,18.0,26.0,300/29KTS,9999.0,,20.8,7.7,29.95,1014.7,,,,,,,,,,,,,,,2/8 Mostly Clear,72000.0,6000.0,FEW,6000.0,,,,,,
KRDR,07-13-2014,15:58,METAR,Normal,320,18.0,22.0,,9999.0,,20.3,8.2,29.95,1014.7,,,,,,,,,,,,,,,Clear,72000.0,,,,,,,,,
KRDR,07-13-2014,14:58,METAR,Normal,320,11.0,,,9999.0,,18.9,10.5,29.96,1015.0,,,,,,,,,,,,,,,Clear,72000.0,,,,,,,,,
KRDR,07-13-2014,13:58,METAR,Normal,320,9.0,,,9999.0,,16.8,11.0,29.97,1015.4,,,,,,,,,,,,,,,Clear,72000.0,,,,,,,,,
KRDR,07-13-2014,12:58,METAR,Normal,300,7.0,,,9999.0,,15.0,10.8,29.96,1015.1,,,,,,,,,,,,,,,Clear,72000.0,,,,,,,,,
KRDR,07-13-2014,11:58,METAR,Normal,300,8.0,,,9999.0,,12.9,11.0,29.96,1015.0,,,,,,,,,,,,,,.11 IN,Clear,72000.0,,,,,,,,,
KRDR,07-13-2014,10:58,METAR,Normal,300,8.0,,,9999.0,,11.7,11.0,29.95,1014.6,,,,,,,,,,,,,,,Clear,72000.0,,,,,,,,,
KRDR,07-13-2014,08:58,METAR,Normal,290,7.0,,,9999.0,,12.3,12.3,29.94,1014.2,,,,,,,,,,,,,,,Clear,72000.0,,,,,,,,,
KRDR,07-13-2014,07:58,METAR,Normal,240,5.0,,,9999.0,,11.3,11.3,29.95,1014.6,,,,,,,,,,,,,,,Clear,72000.0,,,,,,,,,
KRDR,07-13-2014,06:58,METAR,Normal,270,4.0,,,9999.0,,11.6,11.6,29.96,1014.9,,,,,,,,,,,,,,,Clear,72000.0,,,,,,,,,
KRDR,07-13-2014,05:58,METAR,Normal,290,5.0,,,9999.0,,11.5,11.5,29.97,1015.3,,,,,,,,,,,,,.11 IN,,Clear,72000.0,,,,,,,,,
KRDR,07-13-2014,04:58,METAR,Normal,300,5.0,,,9999.0,,12.1,12.1,29.97,1015.3,,,,,,,,,,,,,,,Clear,72000.0,,,,,,,,,
KRDR,07-13-2014,03:58,METAR,Normal,320,4.0,,,9999.0,,13.1,13.1,29.97,1015.3,,,,,,,,,,,.01 IN,,,,Clear,72000.0,,,,,,,,,
KRDR,07-13-2014,02:58,METAR,Normal,310,3.0,,,9999.0,,14.2,14.2,29.95,1014.7,,,,,,,,,,,.01 IN,.1 IN,,,Clear,72000.0,,,,,,,,,
KRDR,07-13-2014,02:15,SPECI,Normal,330,6.0,,,9999.0,,16.0,16.0,29.94,,,,,,,,,,,,,,,,,10000.0,8000.0,SCT,8000.0,BKN,10000.0,,,,
KRDR,07-13-2014,02:04,SPECI,Normal,260,3.0,,,9999.0,Rain,16.0,16.0,29.93,,62,,,,,,,,,,,,,,,8000.0,4000.0,FEW,4000.0,BKN,8000.0,OVC,10000.0,,
KRDR,07-13-2014,01:58,METAR,Normal,300,4.0,,,9999.0,,15.5,15.5,29.93,1014.0,,,,,,,,,,,.06 IN,,,,,8000.0,4500.0,FEW,4500.0,OVC,8000.0,,,,
KRDR,07-13-2014,01:52,SPECI,Normal,280,3.0,,,9999.0,,16.0,16.0,29.94,,,,,,,,,,,,,,,,,8000.0,4100.0,FEW,4100.0,OVC,8000.0,,,,
KRDR,07-13-2014,01:30,SPECI,Normal,240,6.0,,,9999.0,Light Rain,16.0,16.0,29.94,,61,,,,,,,,,,,,,,,7000.0,4500.0,FEW,4500.0,BKN,7000.0,OVC,9100.0,,
KRDR,07-13-2014,01:26,SPECI,Normal,260,4.0,,,9999.0,,16.0,16.0,29.94,,,,,,,,,,,,,,,,,8000.0,4500.0,FEW,4500.0,BKN,8000.0,OVC,10000.0,,
KRDR,07-13-2014,00:58,METAR,Normal,330,10.0,,,9999.0,Rain,16.3,15.6,29.97,1015.4,62,,,,,,,,,,.03 IN,,,,,6500.0,6500.0,BKN,6500.0,,,,,,
KRDR,07-13-2014,00:39,SPECI,Normal,340,14.0,,,9999.0,Light Rain,18.0,14.0,29.95,,61,,,,,,,,,,,,,,,6500.0,6500.0,BKN,6500.0,BKN,8000.0,,,,
KRDR,07-13-2014,00:23,SPECI,Normal,350,12.0,22.0,,9999.0,,18.0,14.0,29.95,,,,,,,,,,,,,,,,,7000.0,7000.0,BKN,7000.0,BKN,8600.0,BKN,11000.0,,
KRDR,07-12-2014,11:58,METAR,Normal,290,5.0,,,9999.0,,14.8,14.6,30.04,1017.5,,,,,,,,,,,,,,,Clear,72000.0,,,,,,,,,
KRDR,07-12-2014,10:58,METAR,Normal,310,5.0,,,9999.0,,12.9,12.8,30.03,1017.2,,,,,,,,,,,,,,,Clear,72000.0,,,,,,,,,
KRDR,07-12-2014,09:58,METAR,Normal,310,4.0,,,9999.0,,13.9,13.5,30.03,1017.1,,,,,,,,,,,,,,,Clear,72000.0,,,,,,,,,
KRDR,07-12-2014,08:58,METAR,Normal,320,5.0,,,9999.0,,14.6,14.4,30.03,1017.1,,,,,,,,,,,,,,,Clear,72000.0,,,,,,,,,
KRDR,07-12-2014,07:58,METAR,Normal,280,5.0,,,9999.0,,14.2,14.0,30.04,1017.5,,,,,,,,,,,,,,,Clear,72000.0,,,,,,,,,
KRDR,07-12-2014,06:58,METAR,Normal,310,5.0,,,9999.0,,15.0,14.5,30.04,1017.5,,,,,,,,,,,,,,,Clear,72000.0,,,,,,,,,
KRDR,07-12-2014,05:58,METAR,Normal,300,5.0,,,9999.0,,15.8,14.8,30.05,1017.8,,,,,,,,,,,,,,,Clear,72000.0,,,,,,,,,
KRDR,07-12-2014,04:58,METAR,Normal,290,4.0,,,9999.0,,17.2,14.1,30.04,1017.5,,,,,,,,,,,,,,,Clear,72000.0,,,,,,,,,
KRDR,07-12-2014,03:58,METAR,Normal,310,5.0,,,9999.0,,17.3,14.5,30.02,1016.8,,,,,,,,,,,,,,,Clear,72000.0,,,,,,,,,
KRDR,07-12-2014,02:58,METAR,Normal,340,5.0,,,9999.0,,20.4,14.1,30.01,1016.4,,,,,,,,,,,,,,,Clear,72000.0,,,,,,,,,
KRDR,07-12-2014,01:58,METAR,Normal,320,7.0,,,9999.0,,22.8,14.3,29.99,1015.7,,,,,,,,,,,,,,,Clear,72000.0,,,,,,,,,
KRDR,07-12-2014,00:58,METAR,Normal,340,7.0,,,9999.0,,25.7,13.0,29.96,1014.7,,,,,,,,,,,,,,,Clear,72000.0,,,,,,,,,
KRDR,07-11-2014,23:58,METAR,Normal,280,12.0,,,9999.0,,26.8,13.6,29.94,1014.1,,,,,,,,,,,,,,,Clear,72000.0,,,,,,,,,
KRDR,07-11-2014,22:58,METAR,Normal,290,13.0,17.0,,9999.0,,28.3,14.8,29.94,1014.1,,,,,,,,,,,,,,,Clear,72000.0,,,,,,,,,
KRDR,07-11-2014,21:58,METAR,Normal,310,12.0,,,9999.0,,28.8,14.4,29.94,1014.1,,,,,,,,,,,,,,,Clear,72000.0,,,,,,,,,
KRDR,07-11-2014,20:58,METAR,Normal,310,11.0,,,9999.0,,29.0,12.0,29.94,1014.0,,,,,,,,,,,,,,,Clear,72000.0,,,,,,,,,
KRDR,07-11-2014,19:58,METAR,Normal,340,11.0,,,9999.0,,29.0,11.4,29.93,1013.7,,,,,,,,,,,,,,,Clear,72000.0,,,,,,,,,
KRDR,07-11-2014,19:32,SPECI,Normal,360,13.0,19.0,,9999.0,,29.0,11.0,29.92,,,,,,,,,,,,,,,,Clear,72000.0,,,,,,,,,
KRDR,07-11-2014,18:58,METAR,Normal,360,5.0,,,9999.0,,26.9,15.4,29.92,1013.3,,,,,,,,,,,,,,,Clear,72000.0,,,,,,,,,
KRDR,07-11-2014,17:58,METAR,Normal,330,11.0,,,9999.0,,27.5,18.6,29.91,1013.0,,,,,,,,,,,,,,,Clear,72000.0,,,,,,,,,
KRDR,07-11-2014,16:58,METAR,Normal,360,9.0,,,9999.0,,26.9,21.4,29.90,1012.6,,,,,,,,,,,,,,,2/8 Mostly Clear,72000.0,2800.0,FEW,2800.0,,,,,,
KRDR,07-11-2014,15:58,METAR,Normal,10,11.0,,,9999.0,,26.4,21.9,29.89,1012.3,,,,,,,,,,,,,,,Clear,72000.0,,,,,,,,,
KRDR,07-11-2014,14:58,METAR,Normal,310,5.0,,,9999.0,,24.3,23.2,29.87,1011.6,,,,,,,,,,,,,,,4/8 Partly Cloudy,72000.0,5000.0,SCT,5000.0,,,,,,
KRDR,07-11-2014,13:58,METAR,Normal,280,5.0,,,9999.0,,21.5,21.5,29.85,1010.9,,,,,,,,,,,,,,,4/8 Partly Cloudy,72000.0,5500.0,SCT,5500.0,,,,,,
KRDR,07-11-2014,12:58,METAR,Normal,250,4.0,,,9999.0,,19.1,19.1,29.83,1010.3,,,,,,,,,,,,,,,2/8 Mostly Clear,72000.0,100.0,FEW,100.0,,,,,,
KRDR,07-11-2014,12:53,SPECI,Normal,240,4.0,,,9999.0,Mist,19.0,19.0,29.84,,10,,,,,,,,,,,,,,2/8 Mostly Clear,72000.0,100.0,FEW,100.0,,,,,,
KRDR,07-11-2014,12:48,SPECI,Normal,240,4.0,,,2400.0,Mist,19.0,19.0,29.84,,10,,,,,,,,,,,,,,4/8 Partly Cloudy,72000.0,100.0,SCT,100.0,,,,,,
KRDR,07-11-2014,12:43,SPECI,Normal,250,5.0,,,1200.0,Mist,18.0,18.0,29.84,,10,,,,,,,,,,,,,,Sky Obscured (Unable to Estimate),100.0,100.0,,100.0,,,,,,
KRDR,07-11-2014,12:38,SPECI,Normal,250,4.0,,,400.0,Fog,18.0,18.0,29.84,,30,,,,,,,,,,,,,,Sky Obscured (Unable to Estimate),100.0,100.0,,100.0,,,,,,
KRDR,07-11-2014,11:58,METAR,Calm,,0.0,,,400.0,Fog,17.0,17.0,29.83,1010.4,30,,,,,,,,,,,,TRACE,,Sky Obscured (Unable to Estimate),100.0,100.0,,100.0,,,,,,
KRDR,07-11-2014,10:58,METAR,Calm,,0.0,,,400.0,Fog,15.3,15.3,29.81,1009.7,30,,,,,,,,,,,,,,Sky Obscured (Unable to Estimate),100.0,100.0,,100.0,,,,,,
KRDR,07-11-2014,10:28,SPECI,Calm,,0.0,,,400.0,Fog,15.0,15.0,29.81,,30,,,,,,,,,,,,,,Sky Obscured (Unable to Estimate),100.0,100.0,,100.0,,,,,,
KRDR,07-11-2014,10:23,SPECI,Calm,,0.0,,,400.0,Fog,15.0,15.0,29.81,,30,,,,,,,,,,,,,,Clear,72000.0,,,,,,,,,
KRDR,07-11-2014,09:58,METAR,Calm,,0.0,,,9999.0,,15.3,15.3,29.80,1009.3,,,,,,,,,,,,,,,Clear,72000.0,,,,,,,,,
KRDR,07-11-2014,08:55,METAR,Calm,,0.0,,,9999.0,,16.0,16.0,29.79,,,,,,,,,,,,,,,,Clear,72000.0,,,,,,,,,
KRDR,07-11-2014,07:55,METAR,Normal,170,2.0,,,9999.0,,16.6,16.6,29.80,1009.3,,,,,,,,,,,TRACE,,,,Clear,72000.0,,,,,,,,,
KRDR,07-11-2014,07:45,SPECI,Calm,,0.0,,,9999.0,,16.0,16.0,29.80,,,,,,,,,,,,,,,,Clear,72000.0,,,,,,,,,
KRDR,07-11-2014,07:35,SPECI,Calm,,0.0,,,800.0,Fog,16.0,16.0,29.80,,30,,,,,,,,,,,,,,Clear,72000.0,,,,,,,,,
KRDR,07-11-2014,07:30,SPECI,Calm,,0.0,,,9999.0,,16.0,16.0,29.81,,,,,,,,,,,,,,,,Clear,72000.0,,,,,,,,,
KRDR,07-11-2014,07:25,SPECI,Calm,,0.0,,,400.0,Fog,16.0,16.0,29.81,,30,,,,,,,,,,,,,,Clear,72000.0,,,,,,,,,
KRDR,07-11-2014,07:15,SPECI,Calm,,0.0,,,800.0,Fog,17.0,17.0,29.81,,30,,,,,,,,,,,,,,Clear,72000.0,,,,,,,,,
KRDR,07-11-2014,07:10,SPECI,Calm,,0.0,,,1200.0,Mist,17.0,17.0,29.81,,10,,,,,,,,,,,,,,Clear,72000.0,,,,,,,,,
KRDR,07-11-2014,07:05,SPECI,Calm,,0.0,,,3200.0,Light Drizzle/Mist,18.0,18.0,29.81,,51,10,,,,,,,,,,,,,Clear,72000.0,,,,,,,,,
KRDR,07-11-2014,07:00,SPECI,Calm,,0.0,,,9999.0,Light Drizzle,18.0,18.0,29.81,,51,,,,,,,,,,,,,,2/8 Mostly Clear,72000.0,4000.0,FEW,4000.0,,,,,,
KRDR,07-11-2014,06:58,METAR,Calm,,0.0,,,9999.0,,17.7,17.6,29.81,1009.6,,,,,,,,,,,,,,,2/8 Mostly Clear,72000.0,4000.0,FEW,4000.0,,,,,,
KRDR,07-11-2014,06:53,SPECI,Calm,,0.0,,,9999.0,,18.0,18.0,29.81,,,,,,,,,,,,,,,,2/8 Mostly Clear,72000.0,4000.0,FEW,4000.0,,,,,,
KRDR,07-11-2014,05:58,METAR,Normal,190,2.0,,,9999.0,,18.2,18.2,29.82,1010.0,,,,,,,,,,,,,,,Clear,72000.0,,,,,,,,,
KRDR,07-11-2014,04:58,METAR,Normal,200,5.0,,,9999.0,,19.7,19.6,29.82,1009.9,,,,,,,,,,,,,,,2/8 Mostly Clear,72000.0,4100.0,FEW,4100.0,,,,,,
KRDR,07-11-2014,03:58,METAR,Normal,190,8.0,,,9999.0,,20.3,20.1,29.82,1010.0,,,,,,,,,,,,,,,Clear,72000.0,,,,,,,,,
KRDR,07-11-2014,02:58,METAR,Normal,180,10.0,,,9999.0,,21.9,19.7,29.82,1010.0,,,,,,,,,,,,,,,Clear,72000.0,,,,,,,,,
KRDR,07-11-2014,01:58,METAR,Normal,170,11.0,,,9999.0,,24.2,19.5,29.81,1009.6,,,,,,,,,,,,,,,,3900.0,3900.0,BKN,3900.0,BKN,5000.0,,,,
KRDR,07-11-2014,00:58,METAR,Normal,140,8.0,,,9999.0,,25.6,18.7,29.80,1009.3,,,,,,,,,,,,,,,4/8 Partly Cloudy,72000.0,4500.0,SCT,4500.0,SCT,5500.0,,,,
KRDR,07-10-2014,23:58,METAR,Normal,140,9.0,,,9999.0,,25.2,18.9,29.81,1009.7,,,,,,,,,,,,,,,4/8 Partly Cloudy,72000.0,5500.0,SCT,5500.0,,,,,,
KRDR,07-10-2014,22:58,METAR,Normal,150,13.0,,,9999.0,,26.0,17.3,29.84,1010.8,,,,,,,,,,,,,,,2/8 Mostly Clear,72000.0,8500.0,FEW,8600.0,,,,,,
KRDR,07-10-2014,21:58,METAR,Normal,140,10.0,,,9999.0,,26.1,17.0,29.85,1011.1,,,,,,,,,,,,,,,Clear,72000.0,,,,,,,,,
KRDR,07-10-2014,20:58,METAR,Normal,150,11.0,,,9999.0,,26.0,15.6,29.86,1011.4,,,,,,,,,,,,,,,Clear,72000.0,,,,,,,,,
KRDR,07-10-2014,19:58,METAR,Normal,170,12.0,,,9999.0,,26.6,16.0,29.87,1011.8,,,,,,,,,,,,,,,2/8 Mostly Clear,72000.0,10000.0,FEW,10000.0,,,,,,
KRDR,07-10-2014,18:58,METAR,Normal,170,15.0,,,9999.0,,25.2,15.8,29.89,1012.5,,,,,,,,,,,,,,,2/8 Mostly Clear,72000.0,12000.0,FEW,12000.0,,,,,,
KRDR,07-10-2014,17:58,METAR,Normal,160,15.0,20.0,,9999.0,,25.3,15.5,29.90,1012.8,,,,,,,,,,,,,,,Clear,72000.0,,,,,,,,,
KRDR,07-10-2014,16:58,METAR,Normal,160,15.0,,,9999.0,,25.3,15.9,29.91,1013.1,,,,,,,,,,,,,,,Clear,72000.0,,,,,,,,,
KRDR,07-10-2014,15:58,METAR,Normal,160,9.0,,,9999.0,,23.6,15.6,29.92,1013.5,,,,,,,,,,,,,,,Clear,72000.0,,,,,,,,,
KRDR,07-10-2014,14:58,METAR,Normal,170,10.0,,,9999.0,,21.6,14.5,29.94,1014.2,,,,,,,,,,,,,,,Clear,72000.0,,,,,,,,,
KRDR,07-10-2014,13:58,METAR,Normal,160,10.0,,,9999.0,,19.5,13.9,29.95,1014.5,,,,,,,,,,,,,,,Clear,72000.0,,,,,,,,,
KRDR,07-10-2014,12:58,METAR,Normal,190,6.0,,,9999.0,,16.5,13.8,29.95,1014.5,,,,,,,,,,,,,,,Clear,72000.0,,,,,,,,,
KRDR,07-10-2014,11:58,METAR,Normal,180,6.0,,,9999.0,,14.1,12.7,29.94,1014.3,,,,,,,,,,,,,,,Clear,72000.0,,,,,,,,,
KRDR,07-10-2014,10:58,METAR,Normal,180,6.0,,,9999.0,,13.1,11.8,29.95,1014.6,,,,,,,,,,,,,,,Clear,72000.0,,,,,,,,,
KRDR,07-10-2014,09:58,METAR,Normal,190,5.0,,,9999.0,,13.0,11.7,29.95,1014.6,,,,,,,,,,,,,,,Clear,72000.0,,,,,,,,,
KRDR,07-10-2014,08:58,METAR,Normal,200,5.0,,,9999.0,,12.8,11.3,29.95,1014.6,,,,,,,,,,,,,,,Clear,72000.0,,,,,,,,,
KRDR,07-10-2014,07:58,METAR,Normal,190,5.0,,,9999.0,,13.2,11.4,29.96,1015.0,,,,,,,,,,,,,,,Clear,72000.0,,,,,,,,,
KRDR,07-10-2014,06:58,METAR,Normal,190,5.0,,,9999.0,,13.9,11.3,29.97,1015.3,,,,,,,,,,,,,,,Clear,72000.0,,,,,,,,,
KRDR,07-10-2014,05:58,METAR,Normal,180,4.0,,,9999.0,,14.1,11.7,29.97,1015.3,,,,,,,,,,,,,,,Clear,72000.0,,,,,,,,,
KRDR,07-10-2014,05:48,SPECI,Normal,180,4.0,,,9999.0,Haze Smoke or Dust,14.0,12.0,29.97,,05,,,,,,,,,,,,,,Clear,72000.0,,,,,,,,,
KRDR,07-10-2014,05:28,SPECI,Normal,180,5.0,,,6400.0,Mist,14.0,12.0,29.97,,10,,,,,,,,,,,,,,Clear,72000.0,,,,,,,,,
KRDR,07-10-2014,05:23,SPECI,Normal,180,4.0,,,9999.0,Haze Smoke or Dust,14.0,12.0,29.97,,05,,,,,,,,,,,,,,Clear,72000.0,,,,,,,,,
KRDR,07-10-2014,04:58,METAR,Normal,170,4.0,,,9999.0,,14.8,11.2,29.98,1015.7,,,,,,,,,,,,,,,Clear,72000.0,,,,,,,,,
KRDR,07-10-2014,03:58,METAR,Normal,150,5.0,,,9999.0,,16.4,11.4,29.98,1015.7,,,,,,,,,,,,,,,Clear,72000.0,,,,,,,,,
KRDR,07-10-2014,02:58,METAR,Normal,140,5.0,,,9999.0,,18.2,11.3,29.98,1015.7,,,,,,,,,,,,,,,Clear,72000.0,,,,,,,,,
KRDR,07-10-2014,01:58,METAR,Normal,140,5.0,,,9999.0,,20.3,11.8,29.98,1015.6,,,,,,,,,,,,,,,Clear,72000.0,,,,,,,,,
KRDR,07-10-2014,00:58,METAR,Calm,,0.0,,,9999.0,,22.1,10.0,29.98,1015.6,,,,,,,,,,,,,,,Clear,72000.0,,,,,,,,,
KRDR,07-10-2014,00:23,SPECI,Calm,,0.0,,,4800.0,Haze Smoke or Dust,22.0,10.0,29.99,,05,,,,,,,,,,,,,,Clear,72000.0,,,,,,,,,
KRDR,07-10-2014,00:13,SPECI,Normal,340,3.0,,,4000.0,Haze Smoke or Dust,22.0,10.0,29.99,,05,,,,,,,,,,,,,,Clear,72000.0,,,,,,,,,
KRDR,07-09-2014,23:58,METAR,Normal,60,1.0,,,8000.0,Haze Smoke or Dust,22.3,10.0,29.99,1016.0,05,,,,,,,,,,,,,,Clear,72000.0,,,,,,,,,
KRDR,07-09-2014,23:43,SPECI,Variable,,2.0,,,4800.0,Haze Smoke or Dust,22.0,10.0,29.99,,05,,,,,,,,,,,,,,Clear,72000.0,,,,,,,,,
KRDR,07-09-2014,23:33,SPECI,Normal,50,5.0,,,4000.0,Haze Smoke or Dust,22.0,10.0,30.00,,05,,,,,,,,,,,,,,Clear,72000.0,,,,,,,,,
KRDR,07-09-2014,23:18,SPECI,Normal,20,3.0,,,4800.0,Haze Smoke or Dust,22.0,10.0,30.00,,05,,,,,,,,,,,,,,Clear,72000.0,,,,,,,,,
KRDR,07-09-2014,23:13,SPECI,Normal,20,6.0,,,4000.0,Haze Smoke or Dust,23.0,10.0,30.00,,05,,,,,,,,,,,,,,Clear,72000.0,,,,,,,,,
KRDR,07-09-2014,22:58,METAR,Variable,,3.0,,,6400.0,Haze Smoke or Dust,22.4,10.0,30.00,1016.4,05,,,,,,,,,,,,,,Clear,72000.0,,,,,,,,,
KRDR,07-09-2014,22:48,SPECI,Variable,,2.0,,,4800.0,Haze Smoke or Dust,23.0,10.0,30.00,,05,,,,,,,,,,,,,,Clear,72000.0,,,,,,,,,
KRDR,07-09-2014,22:38,SPECI,Normal,350,2.0,,,4000.0,Haze Smoke or Dust,23.0,9.0,30.01,,05,,,,,,,,,,,,,,Clear,72000.0,,,,,,,,,
KRDR,07-09-2014,22:33,SPECI,Variable,,4.0,,,4800.0,Haze Smoke or Dust,22.0,10.0,30.00,,05,,,,,,,,,,,,,,Clear,72000.0,,,,,,,,,
KRDR,07-09-2014,22:23,SPECI,Normal,350,5.0,,,4000.0,Haze Smoke or Dust,22.0,10.0,30.01,,05,,,,,,,,,,,,,,Clear,72000.0,,,,,,,,,
KRDR,07-09-2014,22:18,SPECI,Variable,,1.0,,,4800.0,Haze Smoke or Dust,22.0,9.0,30.01,,05,,,,,,,,,,,,,,Clear,72000.0,,,,,,,,,
KRDR,07-09-2014,22:08,SPECI,Normal,360,4.0,,,4000.0,Haze Smoke or Dust,22.0,10.0,30.01,,05,,,,,,,,,,,,,,Clear,72000.0,,,,,,,,,
KRDR,07-09-2014,21:58,METAR,Variable,,4.0,,,4800.0,Haze Smoke or Dust,22.0,10.8,30.01,1016.7,05,,,,,,,,,,,,,,Clear,72000.0,,,,,,,,,
KRDR,07-09-2014,21:48,SPECI,Calm,,0.0,,,4000.0,Haze Smoke or Dust,22.0,10.0,30.01,,05,,,,,,,,,,,,,,Clear,72000.0,,,,,,,,,
KRDR,07-09-2014,20:58,METAR,Normal,40,5.0,,,9999.0,,22.1,11.1,30.02,1017.0,,,,,,,,,,,,,,,Clear,72000.0,,,,,,,,,
KRDR,07-09-2014,19:58,METAR,Variable,,5.0,,,9999.0,,22.0,10.1,30.03,1017.4,,,,,,,,,,,,,,,Clear,72000.0,,,,,,,,,
KRDR,07-09-2014,18:58,METAR,Normal,20,6.0,,,9999.0,,20.9,9.8,30.04,1017.7,,,,,,,,,,,,,,,Clear,72000.0,,,,,,,,,
KRDR,07-09-2014,17:58,METAR,Normal,30,6.0,,,9999.0,,20.5,10.3,30.05,1018.0,,,,,,,,,,,,,,,Clear,72000.0,,,,,,,,,
KRDR,07-09-2014,16:58,METAR,Normal,10,8.0,,,9999.0,,20.0,10.0,30.06,1018.4,,,,,,,,,,,,,,,Clear,72000.0,,,,,,,,,
KRDR,07-09-2014,15:58,METAR,Variable,350,9.0,,,9999.0,,19.3,11.6,30.05,1018.0,,,,,,,,,,,,,,,Clear,72000.0,,,,,,,,,
KRDR,07-09-2014,14:58,METAR,Normal,360,8.0,,,9999.0,,17.9,11.8,30.05,1018.1,,,,,,,,,,,,,,,Clear,72000.0,,,,,,,,,
KRDR,07-09-2014,13:58,METAR,Normal,10,10.0,,,9999.0,,16.5,12.8,30.05,1018.1,,,,,,,,,,,,,,,Clear,72000.0,,,,,,,,,
KRDR,07-09-2014,12:58,METAR,Normal,360,7.0,,,9999.0,,14.9,13.2,30.04,1017.7,,,,,,,,,,,,,,,Clear,72000.0,,,,,,,,,
KRDR,07-09-2014,11:58,METAR,Normal,330,5.0,,,9999.0,,13.4,13.3,30.03,1017.4,,,,,,,,,,,,,,.01 IN,Clear,72000.0,,,,,,,,,
KRDR,07-09-2014,10:58,METAR,Normal,330,5.0,,,9999.0,,11.9,11.9,30.02,1017.0,,,,,,,,,,,,,,,Clear,72000.0,,,,,,,,,
KRDR,07-09-2014,09:58,METAR,Normal,320,6.0,,,9999.0,,13.1,13.1,30.00,1016.3,,,,,,,,,,,,,,,Clear,72000.0,,,,,,,,,
KRDR,07-09-2014,08:58,METAR,Normal,320,6.0,,,9999.0,,13.6,13.5,29.99,1015.9,,,,,,,,,,,,,,,Clear,72000.0,,,,,,,,,
KRDR,07-09-2014,07:58,METAR,Normal,320,7.0,,,9999.0,,14.4,14.3,29.99,1015.9,,,,,,,,,,,,,,,Clear,72000.0,,,,,,,,,
KRDR,07-09-2014,06:58,METAR,Normal,330,8.0,,,9999.0,,15.1,15.0,29.97,1015.3,,,,,,,,,,,,,,,Clear,72000.0,,,,,,,,,
KRDR,07-09-2014,05:58,METAR,Normal,330,7.0,,,9999.0,,15.8,15.6,29.96,1014.9,,,,,,,,,,,,,.01 IN,,Clear,72000.0,,,,,,,,,
KRDR,07-09-2014,04:58,METAR,Normal,330,7.0,,,9999.0,,16.5,16.0,29.96,1015.0,,,,,,,,,,,,,,,Clear,72000.0,,,,,,,,,
KRDR,07-09-2014,03:58,METAR,Normal,330,6.0,,,9999.0,,16.6,15.9,29.94,1014.3,,,,,,,,,,,,,,,,10000.0,8500.0,SCT,8600.0,BKN,10000.0,,,,
KRDR,07-09-2014,02:58,METAR,Normal,300,5.0,,,9999.0,,15.8,15.6,29.93,1014.0,,,,,,,,,,,,.01 IN,,,2/8 Mostly Clear,72000.0,8000.0,FEW,8000.0,,,,,,
KRDR,07-09-2014,01:58,METAR,Normal,10,4.0,,,9999.0,,16.7,16.3,29.92,1013.7,,,,,,,,,,,.01 IN,,,,4/8 Partly Cloudy,72000.0,700.0,FEW,700.0,SCT,5500.0,SCT,7000.0,,
KRDR,07-09-2014,01:50,SPECI,Normal,30,6.0,,,9999.0,,17.0,16.0,29.92,,,,,,,,,,,,,,,,4/8 Partly Cloudy,72000.0,600.0,FEW,600.0,SCT,5500.0,,,,
KRDR,07-09-2014,01:20,SPECI,Normal,30,11.0,,,9999.0,Rain,21.0,13.0,29.92,,62,,,,,,,,,,,,,,,9000.0,600.0,FEW,600.0,SCT,5500.0,BKN,9100.0,,
KRDR,07-09-2014,01:19,SPECI,Normal,30,9.0,,,9999.0,Light Rain,21.0,12.0,29.92,,61,,,,,,,,,,,,,,,9000.0,5500.0,SCT,5500.0,BKN,9100.0,,,,
KRDR,07-09-2014,00:58,METAR,Normal,50,2.0,,,9999.0,,21.2,12.4,29.91,1013.2,,,,,,,,,,,,,,,4/8 Partly Cloudy,72000.0,9500.0,SCT,9600.0,,,,,,
KRDR,07-08-2014,23:58,METAR,Normal,360,8.0,,,9999.0,,22.7,11.2,29.92,1013.5,,,,,,,,,,,,,,,Clear,72000.0,,,,,,,,,
KRDR,07-08-2014,22:58,METAR,Normal,350,9.0,,,9999.0,,23.1,10.3,29.93,1013.9,,,,,,,,,,,,,,,Clear,72000.0,,,,,,,,,
KRDR,07-08-2014,21:58,METAR,Normal,360,11.0,15.0,,9999.0,,22.6,11.5,29.93,1013.9,,,,,,,,,,,,,,,4/8 Partly Cloudy,72000.0,6000.0,SCT,6000.0,SCT,7000.0,,,,
KRDR,07-08-2014,20:58,METAR,Normal,10,14.0,,,9999.0,,23.4,11.0,29.93,1013.8,,,,,,,,,,,,,,,2/8 Mostly Clear,72000.0,5500.0,FEW,5500.0,,,,,,
KRDR,07-08-2014,19:58,METAR,Normal,10,14.0,18.0,,9999.0,,22.5,10.4,29.93,1013.9,,,,,,,,,,,,,,,Clear,72000.0,,,,,,,,,
KRDR,07-08-2014,18:58,METAR,Normal,350,14.0,19.0,,9999.0,,21.8,10.8,29.93,1013.9,,,,,,,,,,,,,,,Clear,72000.0,,,,,,,,,
KRDR,07-08-2014,17:58,METAR,Normal,360,17.0,21.0,,9999.0,,20.8,10.0,29.92,1013.5,,,,,,,,,,,,,,,Clear,72000.0,,,,,,,,,
KRDR,07-08-2014,16:58,METAR,Normal,360,14.0,19.0,,9999.0,,19.9,10.0,29.91,1013.3,,,,,,,,,,,,,,,Clear,72000.0,,,,,,,,,
KRDR,07-08-2014,15:58,METAR,Normal,350,15.0,20.0,,9999.0,,19.0,11.0,29.90,1012.9,,,,,,,,,,,,,,,2/8 Mostly Clear,72000.0,3000.0,FEW,3000.0,,,,,,
KRDR,07-08-2014,15:48,SPECI,Variable,360,12.0,20.0,,9999.0,,19.0,11.0,29.90,,,,,,,,,,,,,,,,4/8 Partly Cloudy,72000.0,2900.0,SCT,2900.0,,,,,,
KRDR,07-08-2014,15:23,SPECI,Normal,340,14.0,19.0,,9999.0,,18.0,12.0,29.90,,,,,,,,,,,,,,,,,2800.0,2800.0,BKN,2800.0,,,,,,
KRDR,07-08-2014,14:58,METAR,Normal,360,13.0,23.0,,9999.0,,18.0,11.7,29.89,1012.6,,,,,,,,,,,,,,,4/8 Partly Cloudy,72000.0,2700.0,SCT,2700.0,,,,,,
KRDR,07-08-2014,14:28,SPECI,Normal,340,17.0,24.0,,9999.0,,18.0,12.0,29.89,,,,,,,,,,,,,,,,,2600.0,2600.0,BKN,2600.0,,,,,,
KRDR,07-08-2014,14:18,SPECI,Variable,360,14.0,22.0,,9999.0,,17.0,12.0,29.89,,,,,,,,,,,,,,,,4/8 Partly Cloudy,72000.0,2800.0,SCT,2800.0,,,,,,
KRDR,07-08-2014,13:58,METAR,Normal,10,15.0,,,9999.0,,16.3,12.5,29.88,1012.2,,,,,,,,,,,,,,,,2200.0,2300.0,SCT,2300.0,BKN,2700.0,,,,
KRDR,07-08-2014,12:58,METAR,Normal,340,15.0,,,9999.0,,16.0,13.4,29.86,1011.6,,,,,,,,,,,,,,,,2100.0,2100.0,BKN,2100.0,BKN,2700.0,,,,
KRDR,07-08-2014,11:58,METAR,Normal,340,12.0,,,9999.0,,15.2,13.8,29.84,1010.8,,,,,,,,,,,,,,,,2300.0,2300.0,BKN,2300.0,,,,,,
KRDR,07-08-2014,11:43,SPECI,Normal,350,11.0,,,9999.0,,15.0,14.0,29.84,,,,,,,,,,,,,,,,,2300.0,2300.0,BKN,2300.0,,,,,,
KRDR,07-08-2014,10:58,METAR,Normal,330,10.0,,,9999.0,,14.3,14.2,29.82,1010.1,,,,,,,,,,,,,,,Clear,72000.0,,,,,,,,,
KRDR,07-08-2014,10:28,SPECI,Normal,340,10.0,,,9999.0,,15.0,14.0,29.81,,,,,,,,,,,,,,,,4/8 Partly Cloudy,72000.0,1700.0,SCT,1700.0,,,,,,
KRDR,07-08-2014,10:18,SPECI,Normal,340,11.0,,,9999.0,,15.0,14.0,29.81,,,,,,,,,,,,,,,,,1600.0,1600.0,BKN,1600.0,,,,,,
KRDR,07-08-2014,09:58,METAR,Normal,340,10.0,,,9999.0,,15.3,14.2,29.81,1009.7,,,,,,,,,,,,,,,Clear,72000.0,,,,,,,,,
KRDR,07-08-2014,08:58,METAR,Normal,330,12.0,,,9999.0,,15.7,14.9,29.78,1008.7,,,,,,,,,,,,,,,Clear,72000.0,,,,,,,,,
KRDR,07-08-2014,07:58,METAR,Normal,320,7.0,,,9999.0,,15.0,14.8,29.77,1008.4,,,,,,,,,,,,,,,Clear,72000.0,,,,,,,,,
KRDR,07-08-2014,06:58,METAR,Normal,300,5.0,,,9999.0,,15.0,14.1,29.77,1008.4,,,,,,,,,,,,,,,Clear,72000.0,,,,,,,,,
KRDR,07-08-2014,05:58,METAR,Normal,330,8.0,,,9999.0,,16.0,13.9,29.76,1008.0,,,,,,,,,,,,,TRACE,,Clear,72000.0,,,,,,,,,
KRDR,07-08-2014,04:58,METAR,Normal,330,7.0,,,9999.0,,16.2,13.9,29.76,1008.0,,,,,,,,,,,,,,,Clear,72000.0,,,,,,,,,
KRDR,07-08-2014,03:58,METAR,Normal,330,6.0,,,9999.0,,16.9,14.9,29.75,1007.6,,,,,,,,,,,,,,,Clear,72000.0,,,,,,,,,
KRDR,07-08-2014,02:58,METAR,Normal,330,8.0,,,9999.0,,18.2,14.6,29.74,1007.3,,,,,,,,,,,,TRACE,,,Clear,72000.0,,,,,,,,,
KRDR,07-08-2014,01:58,METAR,Normal,360,4.0,,,9999.0,,17.7,15.3,29.74,1007.3,,,,,,,,,,,TRACE,,,,Clear,72000.0,,,,,,,,,
KRDR,07-08-2014,01:22,SPECI,Normal,10,2.0,,,9999.0,,18.0,14.0,29.73,,,,,,,,,,,,,,,,4/8 Partly Cloudy,72000.0,3700.0,SCT,3700.0,,,,,,
KRDR,07-08-2014,01:09,SPECI,Normal,10,7.0,,,9999.0,Light Rain,19.0,14.0,29.74,,61,,,,,,,,,,,,,,4/8 Partly Cloudy,72000.0,3600.0,SCT,3600.0,,,,,,
KRDR,07-08-2014,00:58,METAR,Normal,20,13.0,19.0,300/28KTS,9999.0,,20.7,13.2,29.74,1007.3,,,,,,,,,,,,,,,4/8 Partly Cloudy,72000.0,3800.0,SCT,3800.0,,,,,,
KRDR,07-08-2014,00:54,SPECI,Normal,10,14.0,19.0,,9999.0,,21.0,13.0,29.74,,,,,,,,,,,,,,,,2/8 Mostly Clear,72000.0,3900.0,FEW,3900.0,,,,,,
KRDR,07-07-2014,23:58,METAR,Normal,320,17.0,24.0,290/30KTS,9999.0,,23.0,15.3,29.69,1005.5,,,,,,,,,,,,,TRACE,,2/8 Mostly Clear,72000.0,6000.0,FEW,6000.0,,,,,,
KRDR,07-07-2014,23:21,SPECI,Normal,300,15.0,22.0,,9999.0,Distant Lightning,24.0,16.0,29.69,,12,,,,,,,,,,,,,,Clear,72000.0,,,,,,,,,
KRDR,07-07-2014,23:06,SPECI,Normal,290,18.0,23.0,,9999.0,Dry Thunderstorm,24.0,16.0,29.69,,91,,,,,,,,,,,,,,2/8 Mostly Clear,72000.0,4500.0,FEW,4500.0,,,,,,
KRDR,07-07-2014,22:58,METAR,Normal,290,16.0,22.0,,9999.0,,24.1,15.8,29.69,1005.5,,,,,,,,,,,,,,,4/8 Partly Cloudy,72000.0,4800.0,FEW,4800.0,SCT,6000.0,,,,
KRDR,07-07-2014,21:58,METAR,Normal,320,13.0,20.0,,9999.0,,24.0,14.8,29.69,1005.5,,,,,,,,,,,,,,,Clear,72000.0,,,,,,,,,
KRDR,07-07-2014,20:58,METAR,Normal,330,7.0,,,9999.0,,22.6,15.2,29.70,1005.9,,,,,,,,,,,TRACE,TRACE,,,2/8 Mostly Clear,72000.0,4200.0,FEW,4200.0,,,,,,
KRDR,07-07-2014,20:00,SPECI,Normal,310,10.0,,,9999.0,,24.0,16.0,29.72,,,,,,,,,,,,,,,,Clear,72000.0,,,,,,,,,
KRDR,07-07-2014,19:58,METAR,Normal,320,12.0,,,9999.0,Light Rain,23.6,17.1,29.72,1006.6,61,,,,,,,,,,TRACE,,,,Clear,72000.0,,,,,,,,,
KRDR,07-07-2014,18:58,METAR,Normal,300,13.0,16.0,,9999.0,,24.4,16.4,29.72,1006.5,,,,,,,,,,,,,,,Clear,72000.0,,,,,,,,,
KRDR,07-07-2014,17:58,METAR,Normal,320,13.0,16.0,,9999.0,,24.9,15.5,29.72,1006.5,,,,,,,,,,,,,,,Clear,72000.0,,,,,,,,,
KRDR,07-07-2014,16:58,METAR,Normal,330,12.0,,,9999.0,,24.8,16.8,29.72,1006.5,,,,,,,,,,,,,,,Clear,72000.0,,,,,,,,,
KRDR,07-07-2014,15:58,METAR,Normal,290,10.0,,,9999.0,,24.3,17.3,29.74,1007.2,,,,,,,,,,,,,,,Clear,72000.0,,,,,,,,,
KRDR,07-07-2014,14:58,METAR,Normal,330,8.0,,,9999.0,,23.5,16.4,29.74,1007.2,,,,,,,,,,,,,,,Clear,72000.0,,,,,,,,,
KRDR,07-07-2014,13:58,METAR,Normal,320,10.0,,,9999.0,,22.5,16.9,29.73,1006.8,,,,,,,,,,,,,,,Clear,72000.0,,,,,,,,,
KRDR,07-07-2014,12:58,METAR,Normal,320,8.0,,,9999.0,,21.2,17.9,29.74,1007.1,,,,,,,,,,,,,,,Clear,72000.0,,,,,,,,,
KRDR,07-07-2014,11:58,METAR,Normal,310,6.0,,,9999.0,,19.8,17.8,29.74,1007.1,,,,,,,,,,,,,,,Clear,72000.0,,,,,,,,,
KRDR,07-07-2014,10:58,METAR,Normal,300,6.0,,,9999.0,,19.6,17.2,29.74,1007.1,,,,,,,,,,,,,,,,7500.0,7500.0,BKN,7500.0,,,,,,
KRDR,07-07-2014,09:58,METAR,Normal,320,7.0,,,9999.0,,19.2,16.4,29.74,1007.1,,,,,,,,,,,,,,,4/8 Partly Cloudy,72000.0,6500.0,SCT,6500.0,,,,,,
KRDR,07-07-2014,08:58,METAR,Normal,290,5.0,,,9999.0,,18.9,17.7,29.73,1006.8,,,,,,,,,,,,,,,4/8 Partly Cloudy,72000.0,6500.0,SCT,6500.0,,,,,,
KRDR,07-07-2014,07:58,METAR,Normal,310,6.0,,,9999.0,,20.2,18.6,29.75,1007.5,,,,,,,,,,,,,,,,11000.0,6500.0,SCT,6500.0,BKN,11000.0,,,,
KRDR,07-07-2014,06:58,METAR,Normal,300,6.0,,,9999.0,,20.2,18.4,29.75,1007.5,,,,,,,,,,,,,,,4/8 Partly Cloudy,72000.0,5500.0,FEW,5500.0,SCT,12000.0,,,,
KRDR,07-07-2014,05:58,METAR,Normal,300,5.0,,,9999.0,,19.7,17.8,29.75,1007.5,,,,,,,,,,,,,,,4/8 Partly Cloudy,72000.0,12000.0,SCT,12000.0,,,,,,
KRDR,07-07-2014,04:58,METAR,Normal,290,5.0,,,9999.0,,20.1,17.2,29.76,1007.9,,,,,,,,,,,,,,,Clear,72000.0,,,,,,,,,
KRDR,07-07-2014,03:58,METAR,Normal,280,6.0,,,9999.0,,20.0,16.5,29.77,1008.2,,,,,,,,,,,,,,,Clear,72000.0,,,,,,,,,
KRDR,07-07-2014,02:58,METAR,Normal,290,3.0,,,9999.0,,20.0,18.6,29.77,1008.2,,,,,,,,,,,,,,,Clear,72000.0,,,,,,,,,
KRDR,07-07-2014,01:58,METAR,Normal,310,4.0,,,9999.0,,24.2,15.9,29.77,1008.2,,,,,,,,,,,,,,,Clear,72000.0,,,,,,,,,
KRDR,07-07-2014,00:58,METAR,Normal,330,8.0,,,9999.0,,26.4,14.5,29.78,1008.5,,,,,,,,,,,,,,,Clear,72000.0,,,,,,,,,
KRDR,07-06-2014,23:58,METAR,Normal,340,11.0,,,9999.0,,27.0,14.3,29.79,1008.8,,,,,,,,,,,,,,,Clear,72000.0,,,,,,,,,
KRDR,07-06-2014,22:58,METAR,Normal,340,11.0,,,9999.0,,27.7,14.5,29.79,1008.8,,,,,,,,,,,,,,,2/8 Mostly Clear,72000.0,6000.0,FEW,6000.0,,,,,,
KRDR,07-06-2014,21:58,METAR,Normal,340,12.0,,,9999.0,,28.0,14.4,29.80,1009.1,,,,,,,,,,,,,,,2/8 Mostly Clear,72000.0,6000.0,FEW,6000.0,,,,,,
KRDR,07-06-2014,20:58,METAR,Normal,340,15.0,18.0,,9999.0,,27.7,15.0,29.80,1009.1,,,,,,,,,,,,,,,Clear,72000.0,,,,,,,,,
KRDR,07-06-2014,19:58,METAR,Variable,360,10.0,19.0,,9999.0,,27.3,14.7,29.81,1009.5,,,,,,,,,,,,,,,Clear,72000.0,,,,,,,,,
KRDR,07-06-2014,18:58,METAR,Normal,360,12.0,20.0,,9999.0,,26.9,14.5,29.81,1009.5,,,,,,,,,,,,,,,Clear,72000.0,,,,,,,,,
KRDR,07-06-2014,17:58,METAR,Normal,360,13.0,19.0,,9999.0,,26.7,16.5,29.80,1009.1,,,,,,,,,,,,,,,Clear,72000.0,,,,,,,,,
KRDR,07-06-2014,16:58,METAR,Normal,360,14.0,21.0,,9999.0,,26.2,17.2,29.78,1008.5,,,,,,,,,,,,,,,Clear,72000.0,,,,,,,,,
KRDR,07-06-2014,15:58,METAR,Normal,360,13.0,20.0,,9999.0,,25.5,18.1,29.77,1008.1,,,,,,,,,,,,,,,Clear,72000.0,,,,,,,,,
KRDR,07-06-2014,14:58,METAR,Normal,350,12.0,,,9999.0,,24.8,19.6,29.74,1007.0,,,,,,,,,,,,,,,Clear,72000.0,,,,,,,,,
KRDR,07-06-2014,13:59,METAR,Normal,350,16.0,20.0,,9999.0,,23.0,20.0,29.73,1006.8,,,,,,,,,,,,,,,4/8 Partly Cloudy,72000.0,1500.0,SCT,1500.0,,,,,,
KRDR,07-06-2014,13:47,SPECI,Normal,340,12.0,18.0,,9999.0,,23.0,20.0,29.72,,,,,,,,,,,,,,,,4/8 Partly Cloudy,72000.0,1400.0,SCT,1400.0,,,,,,
KRDR,07-06-2014,13:46,SPECI,Normal,350,15.0,18.0,,9999.0,,23.0,21.0,29.72,,,,,,,,,,,,,,,,4/8 Partly Cloudy,72000.0,1400.0,SCT,1400.0,,,,,,
KRDR,07-06-2014,13:23,SPECI,Normal,340,13.0,,,9999.0,,22.0,21.0,29.72,,,,,,,,,,,,,,,,,1400.0,1400.0,BKN,1400.0,,,,,,
KRDR,07-06-2014,12:58,METAR,Normal,340,10.0,18.0,,9999.0,,22.3,19.5,29.71,1006.0,,,,,,,,,,,,,,,Clear,72000.0,,,,,,,,,
KRDR,07-06-2014,11:58,METAR,Normal,320,13.0,20.0,,9999.0,,21.8,18.4,29.69,1005.3,,,,,,,,,,,,,,,Clear,72000.0,,,,,,,,,
KRDR,07-06-2014,10:58,METAR,Normal,300,11.0,,,9999.0,,20.7,18.8,29.66,1004.3,,,,,,,,,,,,,,,Clear,72000.0,,,,,,,,,
KRDR,07-06-2014,09:58,METAR,Normal,300,11.0,,,9999.0,,22.1,20.0,29.64,1003.6,,,,,,,,,,,,,,,Clear,72000.0,,,,,,,,,
KRDR,07-06-2014,08:58,METAR,Normal,300,10.0,,,9999.0,,22.8,19.6,29.65,1003.9,,,,,,,,,,,,,,,Clear,72000.0,,,,,,,,,
KRDR,07-06-2014,07:58,METAR,Normal,240,5.0,,,9999.0,,21.1,20.0,29.65,1003.9,,,,,,,,,,,,,,,Clear,72000.0,,,,,,,,,
KRDR,07-06-2014,06:58,METAR,Normal,260,3.0,,,9999.0,,21.0,20.2,29.65,1003.9,,,,,,,,,,,,,,,Clear,72000.0,,,,,,,,,
KRDR,07-06-2014,05:58,METAR,Normal,210,10.0,,,9999.0,,24.2,18.7,29.67,1004.5,,,,,,,,,,,,,,,Clear,72000.0,,,,,,,,,
KRDR,07-06-2014,04:58,METAR,Normal,360,2.0,,,9999.0,,22.9,22.6,29.64,1003.6,,,,,,,,,,,,,,,Clear,72000.0,,,,,,,,,
KRDR,07-06-2014,03:58,METAR,Normal,210,2.0,,,9999.0,,24.5,23.0,29.70,1005.7,,,,,,,,,,,,,,,Clear,72000.0,,,,,,,,,
KRDR,07-06-2014,02:58,METAR,Normal,10,1.0,,,9999.0,,25.6,21.6,29.72,1006.4,,,,,,,,,,,,,,,Clear,72000.0,,,,,,,,,
KRDR,07-06-2014,01:58,METAR,Normal,260,3.0,,,9999.0,,27.8,21.7,29.73,1006.7,,,,,,,,,,,,,,,Clear,72000.0,,,,,,,,,
KRDR,07-06-2014,00:58,METAR,Normal,320,1.0,,,9999.0,,30.8,19.8,29.73,1006.6,,,,,,,,,,,,,,,Clear,72000.0,,,,,,,,,
KRDR,07-05-2014,23:58,METAR,Normal,300,5.0,,,9999.0,,30.7,19.6,29.75,1007.4,,,,,,,,,,,,,,,Clear,72000.0,,,,,,,,,
KRDR,07-05-2014,22:58,METAR,Normal,290,7.0,,,9999.0,,31.6,19.9,29.75,1007.4,,,,,,,,,,,,,,,Clear,72000.0,,,,,,,,,
KRDR,07-05-2014,21:58,METAR,Normal,300,11.0,,,9999.0,,32.0,18.1,29.75,1007.3,,,,,,,,,,,,,,,Clear,72000.0,,,,,,,,,
KRDR,07-05-2014,20:58,METAR,Normal,300,10.0,,,9999.0,,30.0,19.5,29.75,1007.4,,,,,,,,,,,,,,,Clear,72000.0,,,,,,,,,
KRDR,07-05-2014,19:58,METAR,Normal,280,11.0,,,9999.0,,32.8,22.5,29.75,1007.3,,,,,,,,,,,,,,,Clear,72000.0,,,,,,,,,
KRDR,07-05-2014,18:58,METAR,Normal,290,10.0,,,9999.0,,32.1,22.9,29.76,1007.7,,,,,,,,,,,,,,,Clear,72000.0,,,,,,,,,
KRDR,07-05-2014,17:58,METAR,Normal,240,7.0,,,9999.0,,31.4,25.1,29.76,1007.7,,,,,,,,,,,,,,,Clear,72000.0,,,,,,,,,
KRDR,07-05-2014,16:58,METAR,Normal,240,8.0,,,9999.0,,29.6,24.6,29.77,1008.0,,,,,,,,,,,,,,,Clear,72000.0,,,,,,,,,
KRDR,07-05-2014,15:58,METAR,Normal,240,6.0,,,9999.0,,27.8,23.7,29.78,1008.4,,,,,,,,,,,,,,,Clear,72000.0,,,,,,,,,
KRDR,07-05-2014,14:58,METAR,Normal,230,7.0,,,9999.0,,26.3,22.8,29.79,1008.8,,,,,,,,,,,,,,,Clear,72000.0,,,,,,,,,
KRDR,07-05-2014,13:58,METAR,Normal,230,8.0,,,9999.0,,24.0,21.4,29.79,1008.8,,,,,,,,,,,,,,,Clear,72000.0,,,,,,,,,
KRDR,07-05-2014,12:58,METAR,Normal,220,9.0,,,9999.0,,21.6,20.2,29.78,1008.5,,,,,,,,,,,,,,,Clear,72000.0,,,,,,,,,
KRDR,07-05-2014,11:58,METAR,Normal,210,8.0,,,9999.0,,20.1,19.9,29.78,1008.5,,,,,,,,,,,,,,.02 IN,Clear,72000.0,,,,,,,,,
KRDR,07-05-2014,10:58,METAR,Normal,210,6.0,,,9999.0,,19.8,19.6,29.78,1008.5,,,,,,,,,,,,,,,Clear,72000.0,,,,,,,,,
KRDR,07-05-2014,09:58,METAR,Normal,210,8.0,,,9999.0,,20.9,19.5,29.79,1008.8,,,,,,,,,,,,,,,Clear,72000.0,,,,,,,,,
KRDR,07-05-2014,08:58,METAR,Normal,220,11.0,,,9999.0,,21.8,19.6,29.80,1009.2,,,,,,,,,,,,,,,4/8 Partly Cloudy,72000.0,5000.0,SCT,5000.0,,,,,,
KRDR,07-05-2014,07:58,METAR,Normal,220,12.0,,,9999.0,,21.9,19.8,29.82,1009.9,,,,,,,,,,,,,,,Clear,72000.0,,,,,,,,,
KRDR,07-05-2014,06:58,METAR,Normal,210,14.0,,,9999.0,,22.1,19.5,29.83,1010.2,,,,,,,,,,,,,,,Clear,72000.0,,,,,,,,,
KRDR,07-05-2014,05:58,METAR,Normal,200,12.0,,,9999.0,,22.6,19.4,29.84,1010.5,,,,,,,,,,,,,,,Clear,72000.0,,,,,,,,,
KRDR,07-05-2014,04:58,METAR,Normal,210,12.0,,,9999.0,,23.0,19.9,29.86,1011.2,,,,,,,,,,,,,,,Clear,72000.0,,,,,,,,,
KRDR,07-05-2014,03:58,METAR,Normal,200,9.0,,,9999.0,,22.8,20.1,29.86,1011.3,,,,,,,,,,,,,,,Clear,72000.0,,,,,,,,,
KRDR,07-05-2014,02:58,METAR,Normal,200,10.0,,,9999.0,,23.4,19.5,29.87,1011.7,,,,,,,,,,,,,,,Clear,72000.0,,,,,,,,,
KRDR,07-05-2014,01:58,METAR,Normal,190,9.0,,,9999.0,,24.5,19.6,29.87,1011.7,,,,,,,,,,,,,,,Clear,72000.0,,,,,,,,,
KRDR,07-05-2014,00:58,METAR,Normal,210,13.0,18.0,,9999.0,,26.3,20.2,29.88,1012.1,,,,,,,,,,,,,,,Clear,72000.0,,,,,,,,,
KRDR,07-04-2014,23:58,METAR,Normal,200,13.0,22.0,,9999.0,,27.6,20.8,29.87,1011.7,,,,,,,,,,,TRACE,,.02 IN,,Clear,72000.0,,,,,,,,,
KRDR,07-04-2014,22:58,METAR,Normal,190,19.0,23.0,,9999.0,,28.1,21.1,29.89,1012.4,,,,,,,,,,,,,,,Clear,72000.0,,,,,,,,,
KRDR,07-04-2014,21:58,METAR,Normal,180,16.0,,,9999.0,,26.1,20.5,29.91,1013.2,,,,,,,,,,,TRACE,,,,Clear,72000.0,,,,,,,,,
KRDR,07-04-2014,21:03,SPECI,Normal,180,17.0,23.0,,9999.0,,24.0,21.0,29.90,,,,,,,,,,,,,,,,2/8 Mostly Clear,72000.0,1400.0,FEW,1400.0,,,,,,
KRDR,07-04-2014,20:58,METAR,Normal,180,18.0,25.0,180/26KTS,9999.0,Light Rain,23.4,20.6,29.90,1012.9,61,,,,,,,,,,.02 IN,.02 IN,,,4/8 Partly Cloudy,72000.0,1300.0,FEW,1300.0,SCT,3300.0,,,,
KRDR,07-04-2014,20:52,SPECI,Normal,180,19.0,25.0,,9999.0,Light Rain,23.0,20.0,29.90,,61,,,,,,,,,,,,,,,3000.0,1300.0,FEW,1300.0,SCT,3100.0,BKN,7000.0,,
KRDR,07-04-2014,20:50,SPECI,Normal,180,18.0,25.0,,9999.0,,23.0,20.0,29.90,,,,,,,,,,,,,,,,,7000.0,1300.0,SCT,1300.0,SCT,3100.0,BKN,7000.0,,
KRDR,07-04-2014,20:49,SPECI,Normal,180,19.0,25.0,,9999.0,Light Rain,23.0,20.0,29.90,,61,,,,,,,,,,,,,,,7000.0,1300.0,SCT,1300.0,SCT,3100.0,BKN,7000.0,,
KRDR,07-04-2014,20:39,SPECI,Normal,180,19.0,26.0,,9999.0,,24.0,19.0,29.91,,,,,,,,,,,,,,,,4/8 Partly Cloudy,72000.0,800.0,FEW,800.0,SCT,5000.0,SCT,7000.0,,
KRDR,07-04-2014,20:31,SPECI,Normal,170,19.0,,,9999.0,Distant Lightning,24.0,19.0,29.91,,12,,,,,,,,,,,,,,4/8 Partly Cloudy,72000.0,2900.0,FEW,2900.0,SCT,7000.0,,,,
KRDR,07-04-2014,20:16,SPECI,Normal,170,13.0,,,9999.0,Dry Thunderstorm,23.0,19.0,29.93,,91,,,,,,,,,,,,,,Clear,72000.0,,,,,,,,,
KRDR,07-04-2014,19:59,SPECI,Normal,170,6.0,,,9999.0,Distant Lightning,23.0,20.0,29.95,,12,,,,,,,,,,,,,,Clear,72000.0,,,,,,,,,
KRDR,07-04-2014,19:58,METAR,Normal,170,6.0,,,9999.0,Thunderstorm and Rain or Snow Showers,23.0,19.5,29.95,1014.6,92,,,,,,,,,,TRACE,,,,2/8 Mostly Clear,72000.0,11000.0,FEW,11000.0,,,,,,
KRDR,07-04-2014,19:47,SPECI,Normal,170,9.0,,,9999.0,Thunderstorm and Rain or Snow Showers,23.0,19.0,29.95,,92,,,,,,,,,,,,,,4/8 Partly Cloudy,72000.0,11000.0,SCT,11000.0,,,,,,
KRDR,07-04-2014,19:37,SPECI,Normal,190,9.0,,,9999.0,Dry Thunderstorm,24.0,19.0,29.96,,91,,,,,,,,,,,,,,4/8 Partly Cloudy,72000.0,11000.0,SCT,11000.0,,,,,,
KRDR,07-04-2014,18:58,METAR,Normal,200,12.0,22.0,,9999.0,,25.0,18.7,29.94,1014.2,,,,,,,,,,,TRACE,,,,Clear,72000.0,,,,,,,,,
KRDR,07-04-2014,18:32,SPECI,Normal,190,11.0,,,9999.0,,24.0,20.0,29.94,,,,,,,,,,,,,,,,2/8 Mostly Clear,72000.0,700.0,FEW,700.0,,,,,,
KRDR,07-04-2014,18:21,SPECI,Normal,180,13.0,,,9999.0,Light Rain,24.0,20.0,29.95,,61,,,,,,,,,,,,,,,11000.0,900.0,FEW,900.0,,,,,,
KRDR,07-04-2014,17:58,METAR,Normal,190,14.0,22.0,170/27KTS,9999.0,,24.5,18.2,29.97,1015.2,,,,,,,,,,,,,,,2/8 Mostly Clear,72000.0,12000.0,FEW,12000.0,,,,,,
KRDR,07-04-2014,16:58,METAR,Normal,200,18.0,23.0,,9999.0,,24.0,17.1,29.98,1015.5,,,,,,,,,,,,,,,Clear,72000.0,,,,,,,,,
KRDR,07-04-2014,15:58,METAR,Normal,190,17.0,23.0,,9999.0,,22.2,16.0,30.00,1016.3,,,,,,,,,,,,,,,Clear,72000.0,,,,,,,,,
KRDR,07-04-2014,14:58,METAR,Normal,180,16.0,,,9999.0,,21.1,14.5,30.02,1016.8,,,,,,,,,,,,,,,Clear,72000.0,,,,,,,,,
KRDR,07-04-2014,13:58,METAR,Normal,160,12.0,16.0,,9999.0,,18.7,13.1,30.05,1017.9,,,,,,,,,,,,,,,2/8 Mostly Clear,72000.0,5500.0,FEW,5500.0,,,,,,
KRDR,07-04-2014,12:58,METAR,Normal,160,8.0,,,9999.0,,15.2,13.2,30.08,1019.0,,,,,,,,,,,,,,,,6000.0,6000.0,BKN,6000.0,,,,,,
KRDR,07-04-2014,11:58,METAR,Normal,130,6.0,,,9999.0,,13.7,12.4,30.10,1019.7,,,,,,,,,,,,,,,2/8 Mostly Clear,72000.0,6500.0,FEW,6500.0,,,,,,
KRDR,07-04-2014,10:58,METAR,Normal,160,5.0,,,9999.0,,13.4,11.6,30.11,1020.0,,,,,,,,,,,,,,,Clear,72000.0,,,,,,,,,
KRDR,07-04-2014,09:58,METAR,Normal,170,5.0,,,9999.0,,12.5,11.2,30.13,1020.8,,,,,,,,,,,,,,,Clear,72000.0,,,,,,,,,
KRDR,07-04-2014,08:58,METAR,Normal,150,5.0,,,9999.0,,13.7,11.1,30.12,1020.4,,,,,,,,,,,,,,,Clear,72000.0,,,,,,,,,
KRDR,07-04-2014,07:58,METAR,Normal,170,6.0,,,9999.0,,14.0,10.3,30.13,1020.7,,,,,,,,,,,,,,,Clear,72000.0,,,,,,,,,
KRDR,07-04-2014,06:58,METAR,Normal,190,5.0,,,9999.0,,13.6,10.9,30.15,1021.4,,,,,,,,,,,,,,,Clear,72000.0,,,,,,,,,
KRDR,07-04-2014,05:58,METAR,Normal,180,5.0,,,9999.0,,15.1,10.9,30.16,1021.7,,,,,,,,,,,,,TRACE,,Clear,72000.0,,,,,,,,,
KRDR,07-04-2014,04:58,METAR,Normal,180,5.0,,,9999.0,,15.8,12.4,30.15,1021.4,,,,,,,,,,,,,,,Clear,72000.0,,,,,,,,,
KRDR,07-04-2014,03:58,METAR,Normal,160,4.0,,,9999.0,,16.4,12.2,30.15,1021.3,,,,,,,,,,,,,,,Clear,72000.0,,,,,,,,,
KRDR,07-04-2014,02:58,METAR,Normal,130,5.0,,,9999.0,,20.0,11.2,30.14,1020.9,,,,,,,,,,,,TRACE,,,Clear,72000.0,,,,,,,,,
KRDR,07-04-2014,01:58,METAR,Normal,140,5.0,,,9999.0,,21.3,11.0,30.14,1021.0,,,,,,,,,,,TRACE,,,,Clear,72000.0,,,,,,,,,
KRDR,07-04-2014,00:58,METAR,Normal,150,3.0,,,9999.0,,23.1,10.0,30.15,1021.3,,,,,,,,,,,,,,,Clear,72000.0,,,,,,,,,
KRDR,07-03-2014,23:58,METAR,Normal,190,5.0,,,9999.0,,23.7,9.3,30.15,1021.4,,,,,,,,,,,,,,,Clear,72000.0,,,,,,,,,
KRDR,07-03-2014,22:58,METAR,Normal,210,6.0,,,9999.0,,24.3,9.5,30.16,1021.9,,,,,,,,,,,,,,,Clear,72000.0,,,,,,,,,
KRDR,07-03-2014,21:58,METAR,Normal,190,6.0,,,9999.0,Haze Smoke or Dust,23.8,9.3,30.17,1022.2,05,,,,,,,,,,,,,,4/8 Partly Cloudy,72000.0,7000.0,SCT,7000.0,,,,,,
KRDR,07-03-2014,21:43,SPECI,Normal,210,6.0,,,4800.0,Haze Smoke or Dust,23.0,10.0,30.17,,05,,,,,,,,,,,,,,2/8 Mostly Clear,72000.0,6000.0,FEW,6000.0,,,,,,
KRDR,07-03-2014,21:38,SPECI,Variable,,3.0,,,4000.0,Haze Smoke or Dust,24.0,9.0,30.17,,05,,,,,,,,,,,,,,Clear,72000.0,,,,,,,,,
KRDR,07-03-2014,20:58,METAR,Normal,220,5.0,,,9999.0,,23.9,9.0,30.18,1022.5,,,,,,,,,,,,,,,Clear,6500.0,,,,,,,,,
KRDR,07-03-2014,19:58,METAR,Normal,220,4.0,,,9999.0,,23.4,9.4,30.19,1022.9,,,,,,,,,,,,,,,Clear,72000.0,,,,,,,,,
KRDR,07-03-2014,18:58,METAR,Variable,,1.0,,,9999.0,,23.1,9.2,30.19,1022.9,,,,,,,,,,,,,,,Clear,72000.0,,,,,,,,,
KRDR,07-03-2014,17:58,METAR,Variable,,5.0,,,9999.0,,22.7,9.9,30.20,1023.1,,,,,,,,,,,,,,,Clear,72000.0,,,,,,,,,
KRDR,07-03-2014,16:58,METAR,Calm,,0.0,,,9999.0,,21.9,10.5,30.20,1023.1,,,,,,,,,,,,,,,2/8 Mostly Clear,72000.0,5000.0,FEW,5000.0,,,,,,
KRDR,07-03-2014,15:58,METAR,Variable,,3.0,,,9999.0,,22.4,10.2,30.20,1023.1,,,,,,,,,,,,,,,Clear,72000.0,,,,,,,,,
KRDR,07-03-2014,14:58,METAR,Variable,,1.0,,,9999.0,,20.6,10.8,30.19,1022.7,,,,,,,,,,,,,,,Clear,72000.0,,,,,,,,,
KRDR,07-03-2014,13:58,METAR,Normal,360,3.0,,,9999.0,,19.3,13.3,30.20,1023.1,,,,,,,,,,,,,,,Clear,72000.0,,,,,,,,,
KRDR,07-03-2014,12:58,METAR,Normal,330,1.0,,,9999.0,,16.4,14.1,30.19,1022.7,,,,,,,,,,,,,,,Clear,72000.0,,,,,,,,,
KRDR,07-03-2014,11:58,METAR,Normal,330,1.0,,,9999.0,,11.9,11.7,30.19,1022.9,,,,,,,,,,,,,,,Clear,72000.0,,,,,,,,,
KRDR,07-03-2014,10:58,METAR,Normal,300,3.0,,,9999.0,,10.2,10.0,30.17,1022.3,,,,,,,,,,,,,,,Clear,72000.0,,,,,,,,,
KRDR,07-03-2014,09:58,METAR,Normal,310,1.0,,,9999.0,,9.5,9.4,30.16,1021.9,,,,,,,,,,,,,,,Clear,72000.0,,,,,,,,,
KRDR,07-03-2014,08:58,METAR,Normal,270,2.0,,,9999.0,,10.2,10.2,30.15,1021.6,,,,,,,,,,,,,,,Clear,72000.0,,,,,,,,,
KRDR,07-03-2014,07:58,METAR,Normal,290,2.0,,,9999.0,,10.7,10.6,30.15,1021.5,,,,,,,,,,,,,,,Clear,72000.0,,,,,,,,,
KRDR,07-03-2014,06:58,METAR,Normal,310,1.0,,,9999.0,,11.2,11.1,30.14,1021.2,,,,,,,,,,,,,,,Clear,72000.0,,,,,,,,,
KRDR,07-03-2014,05:58,METAR,Normal,310,3.0,,,9999.0,,12.6,12.1,30.14,1021.2,,,,,,,,,,,,,,,Clear,72000.0,,,,,,,,,
KRDR,07-03-2014,04:58,METAR,Normal,290,3.0,,,9999.0,,13.6,12.4,30.14,1021.2,,,,,,,,,,,,,,,2/8 Mostly Clear,72000.0,7500.0,FEW,7500.0,,,,,,
KRDR,07-03-2014,03:58,METAR,Normal,250,2.0,,,9999.0,,13.7,13.6,30.13,1020.8,,,,,,,,,,,,,,,Clear,72000.0,,,,,,,,,
KRDR,07-03-2014,02:58,METAR,Calm,,0.0,,,9999.0,,15.9,13.8,30.12,1020.5,,,,,,,,,,,,,,,4/8 Partly Cloudy,72000.0,8000.0,SCT,8000.0,,,,,,
KRDR,07-03-2014,01:58,METAR,Normal,300,1.0,,,9999.0,,19.4,13.1,30.11,1020.1,,,,,,,,,,,,,,,,8000.0,8000.0,OVC,8000.0,,,,,,
KRDR,07-03-2014,00:58,METAR,Normal,360,3.0,,,9999.0,,19.6,11.6,30.11,1020.1,,,,,,,,,,,,,,,,7500.0,7500.0,OVC,7500.0,,,,,,
KRDR,07-02-2014,23:58,METAR,Variable,,2.0,,,9999.0,,20.5,11.0,30.11,1020.2,,,,,,,,,,,,,,,,7500.0,7500.0,OVC,7500.0,,,,,,
KRDR,07-02-2014,22:58,METAR,Normal,300,4.0,,,9999.0,,21.2,9.3,30.12,1020.6,,,,,,,,,,,,,,,,7500.0,7500.0,BKN,7500.0,,,,,,
KRDR,07-02-2014,21:58,METAR,Variable,350,7.0,,,9999.0,,22.1,9.6,30.12,1020.5,,,,,,,,,,,,,,,,7000.0,7000.0,BKN,7000.0,,,,,,
KRDR,07-02-2014,20:58,METAR,Normal,340,6.0,,,9999.0,,20.3,8.8,30.13,1020.9,,,,,,,,,,,,,,,4/8 Partly Cloudy,72000.0,7000.0,SCT,7000.0,,,,,,
KRDR,07-02-2014,19:58,METAR,Normal,320,8.0,,,9999.0,,21.5,9.8,30.13,1020.8,,,,,,,,,,,,,,,2/8 Mostly Clear,72000.0,7000.0,FEW,7000.0,,,,,,
KRDR,07-02-2014,18:58,METAR,Normal,10,7.0,,,9999.0,,20.3,8.1,30.13,1020.9,,,,,,,,,,,,,,,,6500.0,6500.0,BKN,6500.0,,,,,,
KRDR,07-02-2014,17:58,METAR,Normal,360,8.0,,,9999.0,,20.1,8.0,30.14,1021.2,,,,,,,,,,,,,,,,6000.0,6000.0,BKN,6000.0,,,,,,
KRDR,07-02-2014,16:58,METAR,Normal,340,10.0,,,9999.0,,20.7,10.4,30.14,1021.2,,,,,,,,,,,,,,,Clear,72000.0,,,,,,,,,
KRDR,07-02-2014,15:58,METAR,Normal,350,7.0,,,9999.0,,19.2,11.9,30.14,1021.2,,,,,,,,,,,,,,,Clear,72000.0,,,,,,,,,
KRDR,07-02-2014,14:58,METAR,Normal,10,7.0,,,9999.0,,17.7,11.4,30.13,1020.9,,,,,,,,,,,,,,,Clear,72000.0,,,,,,,,,
KRDR,07-02-2014,13:58,METAR,Normal,350,6.0,,,9999.0,,16.1,10.5,30.13,1020.9,,,,,,,,,,,,,,,Clear,72000.0,,,,,,,,,
KRDR,07-02-2014,12:58,METAR,Normal,330,7.0,,,9999.0,,14.0,10.0,30.12,1020.6,,,,,,,,,,,,,,,Clear,72000.0,,,,,,,,,
KRDR,07-02-2014,11:58,METAR,Normal,310,5.0,,,9999.0,,11.0,9.5,30.09,1019.7,,,,,,,,,,,,,,.11 IN,Clear,72000.0,,,,,,,,,
KRDR,07-02-2014,10:58,METAR,Normal,300,7.0,,,9999.0,,8.6,8.5,30.07,1019.1,,,,,,,,,,,,,,,Clear,72000.0,,,,,,,,,
KRDR,07-02-2014,09:58,METAR,Normal,310,6.0,,,9999.0,,9.3,8.7,30.06,1018.8,,,,,,,,,,,,,,,Clear,72000.0,,,,,,,,,
KRDR,07-02-2014,08:58,METAR,Normal,330,7.0,,,9999.0,,10.6,9.0,30.05,1018.4,,,,,,,,,,,,,,,Clear,72000.0,,,,,,,,,
KRDR,07-02-2014,07:58,METAR,Normal,320,7.0,,,9999.0,,10.7,9.0,30.05,1018.4,,,,,,,,,,,,,,,Clear,72000.0,,,,,,,,,
KRDR,07-02-2014,06:58,METAR,Normal,330,8.0,,,9999.0,,11.2,9.1,30.04,1018.1,,,,,,,,,,,,,,,Clear,72000.0,,,,,,,,,
KRDR,07-02-2014,05:58,METAR,Normal,330,8.0,,,9999.0,,11.7,8.9,30.03,1017.7,,,,,,,,,,,,,,,Clear,72000.0,,,,,,,,,
KRDR,07-02-2014,04:58,METAR,Normal,330,8.0,,,9999.0,,11.6,10.1,30.01,1017.0,,,,,,,,,,,,,,,Clear,72000.0,,,,,,,,,
KRDR,07-02-2014,03:58,METAR,Normal,320,6.0,,,9999.0,,12.6,9.8,30.00,1016.7,,,,,,,,,,,,,,,2/8 Mostly Clear,72000.0,6000.0,FEW,6000.0,,,,,,
KRDR,07-02-2014,02:58,METAR,Normal,340,7.0,,,9999.0,,14.4,11.0,29.98,1016.0,,,,,,,,,,,,,,,,6000.0,6000.0,OVC,6000.0,,,,,,
KRDR,07-02-2014,01:58,METAR,Normal,350,7.0,,,9999.0,,14.5,11.1,29.97,1015.6,,,,,,,,,,,,,,,,5500.0,5500.0,OVC,5500.0,,,,,,
KRDR,07-02-2014,00:58,METAR,Normal,10,9.0,16.0,,9999.0,,14.6,10.8,29.95,1014.9,,,,,,,,,,,,,,,,4700.0,4700.0,OVC,4700.0,,,,,,
KRDR,07-01-2014,23:58,METAR,Normal,10,13.0,24.0,,9999.0,,14.7,10.6,29.93,1014.2,,,,,,,,,,,,,.01 IN,,,3300.0,3300.0,OVC,3300.0,,,,,,
KRDR,07-01-2014,23:43,SPECI,Normal,10,14.0,19.0,,9999.0,,14.0,11.0,29.92,,,,,,,,,,,,,,,,,3000.0,3000.0,OVC,3000.0,,,,,,
KRDR,07-01-2014,23:38,SPECI,Normal,360,13.0,19.0,,9999.0,,14.0,11.0,29.92,,,,,,,,,,,,,,,,,2900.0,2900.0,OVC,2900.0,,,,,,
KRDR,07-01-2014,23:33,SPECI,Normal,10,14.0,20.0,,9999.0,,14.0,11.0,29.93,,,,,,,,,,,,,,,,,3000.0,3000.0,OVC,3000.0,,,,,,
KRDR,07-01-2014,23:28,SPECI,Normal,10,16.0,21.0,,9999.0,,14.0,11.0,29.92,,,,,,,,,,,,,,,,,2800.0,2800.0,BKN,2800.0,OVC,3300.0,,,,
KRDR,07-01-2014,23:03,SPECI,Normal,10,16.0,25.0,,9999.0,,14.0,11.0,29.91,,,,,,,,,,,,,,,,,3000.0,3000.0,BKN,3000.0,OVC,3500.0,,,,
KRDR,07-01-2014,22:58,METAR,Normal,10,15.0,25.0,350/30KTS,9999.0,,14.5,10.4,29.91,1013.5,,,,,,,,,,,,,,,,2900.0,2900.0,BKN,2900.0,OVC,3400.0,,,,
KRDR,07-01-2014,21:58,METAR,Normal,360,16.0,23.0,340/30KTS,9999.0,,14.1,10.8,29.88,1012.5,,,,,,,,,,,,,,,,3300.0,3300.0,OVC,3300.0,,,,,,
KRDR,07-01-2014,21:28,SPECI,Normal,10,18.0,25.0,,9999.0,,14.0,10.0,29.86,,,,,,,,,,,,,,,,,3400.0,2800.0,SCT,2800.0,OVC,3400.0,,,,
KRDR,07-01-2014,20:58,METAR,Normal,10,20.0,28.0,350/32KTS,9999.0,,13.3,10.8,29.85,1011.5,,,,,,,,,,,TRACE,.01 IN,,,,2500.0,2500.0,BKN,2500.0,OVC,3500.0,,,,
KRDR,07-01-2014,20:34,SPECI,Normal,10,18.0,27.0,,9999.0,,13.0,11.0,29.83,,,,,,,,,,,,,,,,,2400.0,2400.0,BKN,2400.0,OVC,3500.0,,,,
KRDR,07-01-2014,20:24,SPECI,Normal,10,18.0,28.0,,9999.0,Light Rain,13.0,11.0,29.83,,61,,,,,,,,,,,,,,,2100.0,2400.0,BKN,2400.0,OVC,3100.0,,,,
KRDR,07-01-2014,20:04,SPECI,Normal,10,14.0,22.0,,9999.0,,13.0,12.0,29.82,,,,,,,,,,,,,,,,,1900.0,1900.0,SCT,1900.0,OVC,2900.0,,,,
KRDR,07-01-2014,19:58,METAR,Normal,360,16.0,22.0,340/27KTS,9999.0,Light Drizzle,12.0,12.0,29.82,1010.5,51,,,,,,,,,,TRACE,,,,,2000.0,2000.0,BKN,2000.0,OVC,3000.0,,,,
KRDR,07-01-2014,19:54,SPECI,Normal,360,14.0,20.0,,9999.0,Light Rain,12.0,12.0,29.82,,61,,,,,,,,,,,,,,,2000.0,2000.0,OVC,2000.0,,,,,,
KRDR,07-01-2014,19:24,SPECI,Normal,360,16.0,25.0,,9999.0,,11.0,11.0,29.81,,,,,,,,,,,,,,,,,1400.0,1800.0,OVC,1800.0,,,,,,
KRDR,07-01-2014,19:23,SPECI,Normal,360,17.0,25.0,,9999.0,Light Rain,11.0,11.0,29.81,,61,,,,,,,,,,,,,,,1400.0,1800.0,OVC,1800.0,,,,,,
KRDR,07-01-2014,19:18,SPECI,Normal,360,18.0,25.0,,9999.0,Light Rain,11.0,11.0,29.81,,61,,,,,,,,,,,,,,,1400.0,1400.0,BKN,1400.0,OVC,2000.0,,,,
KRDR,07-01-2014,18:58,METAR,Normal,350,17.0,25.0,320/29KTS,9999.0,Light Rain,11.3,11.2,29.80,1009.8,61,,,,,,,,,,.01 IN,,,,,1200.0,1500.0,SCT,1500.0,BKN,2100.0,,,,
KRDR,07-01-2014,18:34,SPECI,Normal,350,17.0,26.0,,9999.0,Light Rain,11.0,11.0,29.79,,61,,,,,,,,,,,,,,,1100.0,1000.0,FEW,1000.0,OVC,1800.0,,,,
KRDR,07-01-2014,18:31,SPECI,Normal,350,20.0,26.0,,9999.0,Light Rain,11.0,11.0,29.79,,61,,,,,,,,,,,,,,,1100.0,1300.0,SCT,1300.0,OVC,1900.0,,,,
KRDR,07-01-2014,18:26,SPECI,Normal,360,17.0,25.0,,9999.0,Light Rain/Mist,12.0,11.0,29.79,,61,10,,,,,,,,,,,,,,1100.0,1400.0,BKN,1400.0,OVC,1900.0,,,,
KRDR,07-01-2014,18:25,SPECI,Normal,350,18.0,26.0,,9999.0,Mist,12.0,11.0,29.79,,10,,,,,,,,,,,,,,,1400.0,1400.0,BKN,1400.0,OVC,1900.0,,,,
KRDR,07-01-2014,18:20,SPECI,Variable,350,20.0,26.0,,9999.0,Light Rain,12.0,12.0,29.78,,61,,,,,,,,,,,,,,,1400.0,1400.0,BKN,1400.0,OVC,2000.0,,,,
KRDR,07-01-2014,18:15,SPECI,Normal,350,18.0,28.0,,9999.0,Light Rain,12.0,12.0,29.78,,61,,,,,,,,,,,,,,,1500.0,1500.0,BKN,1500.0,OVC,2000.0,,,,
KRDR,07-01-2014,17:58,METAR,Normal,350,21.0,25.0,360/29KTS,9999.0,,11.8,11.7,29.78,1009.0,,,,,,,,,,,TRACE,,.1 IN,,,1300.0,1500.0,OVC,1500.0,,,,,,
KRDR,07-01-2014,17:51,SPECI,Normal,350,17.0,26.0,,9999.0,,12.0,12.0,29.77,,,,,,,,,,,,,,,,,1300.0,1500.0,BKN,1500.0,OVC,2500.0,,,,
KRDR,07-01-2014,17:46,SPECI,Normal,340,18.0,26.0,,9999.0,,12.0,12.0,29.77,,,,,,,,,,,,,,,,,1300.0,1300.0,BKN,1300.0,BKN,1800.0,OVC,2400.0,,
KRDR,07-01-2014,17:28,SPECI,Normal,350,19.0,28.0,,9999.0,Light Rain,12.0,12.0,29.76,,61,,,,,,,,,,,,,,,1200.0,1200.0,BKN,1200.0,BKN,1700.0,OVC,2900.0,,
KRDR,07-01-2014,16:58,METAR,Normal,360,16.0,28.0,340/28KTS,6400.0,Light Rain/Mist,12.1,11.9,29.75,1008.0,61,10,,,,,,,,,.01 IN,,,,,1500.0,900.0,FEW,900.0,BKN,1900.0,OVC,3500.0,,
KRDR,07-01-2014,16:50,SPECI,Normal,350,15.0,24.0,,9999.0,Light Rain/Mist,12.0,12.0,29.75,,61,10,,,,,,,,,,,,,,1100.0,800.0,FEW,800.0,BKN,1500.0,OVC,3900.0,,
KRDR,07-01-2014,16:46,SPECI,Normal,350,16.0,24.0,,9999.0,Light Rain,12.0,12.0,29.74,,61,,,,,,,,,,,,,,,1700.0,1200.0,SCT,1200.0,BKN,1700.0,OVC,3900.0,,
KRDR,07-01-2014,16:42,SPECI,Normal,350,15.0,25.0,,9999.0,,12.0,12.0,29.74,,,,,,,,,,,,,,,,,1800.0,1000.0,FEW,1000.0,BKN,1800.0,OVC,3400.0,,
KRDR,07-01-2014,16:37,SPECI,Normal,360,16.0,26.0,,9999.0,,12.0,12.0,29.74,,,,,,,,,,,,,,,,,1500.0,1000.0,FEW,1000.0,SCT,1900.0,OVC,3400.0,,
KRDR,07-01-2014,16:36,SPECI,Normal,360,17.0,26.0,,9999.0,,12.0,12.0,29.74,,,,,,,,,,,,,,,,,1500.0,1200.0,SCT,1200.0,SCT,2400.0,OVC,3500.0,,
KRDR,07-01-2014,16:31,SPECI,Normal,350,18.0,26.0,,9999.0,,12.0,12.0,29.74,,,,,,,,,,,,,,,,,1600.0,900.0,FEW,900.0,BKN,2300.0,OVC,3400.0,,
KRDR,07-01-2014,15:58,METAR,Normal,10,15.0,20.0,,9999.0,Light Rain/Mist,11.0,11.0,29.72,1007.0,61,10,,,,,,,,,.04 IN,,,,,2000.0,1000.0,FEW,1000.0,OVC,2000.0,,,,
KRDR,07-01-2014,15:54,SPECI,Normal,360,13.0,20.0,,8000.0,Light Rain/Mist,11.0,11.0,29.72,,61,10,,,,,,,,,,,,,,2100.0,1100.0,FEW,1100.0,OVC,2100.0,,,,
KRDR,07-01-2014,15:46,SPECI,Normal,360,15.0,23.0,,4800.0,Light Rain/Mist,11.0,11.0,29.72,,61,10,,,,,,,,,,,,,,2100.0,2100.0,OVC,2100.0,,,,,,
KRDR,07-01-2014,15:21,SPECI,Normal,10,15.0,19.0,,4000.0,Light Rain/Mist,11.0,11.0,29.72,,61,10,,,,,,,,,,,,,,1500.0,800.0,FEW,800.0,OVC,1500.0,,,,
KRDR,07-01-2014,15:06,SPECI,Normal,10,12.0,19.0,,9999.0,Light Rain,12.0,12.0,29.71,,61,,,,,,,,,,,,,,,1500.0,900.0,FEW,900.0,BKN,1500.0,OVC,2000.0,,
KRDR,07-01-2014,15:01,SPECI,Normal,340,12.0,19.0,,9999.0,Light Rain,12.0,12.0,29.71,,61,,,,,,,,,,,,,,,1500.0,1500.0,BKN,1500.0,OVC,2000.0,,,,
KRDR,07-01-2014,15:00,SPECI,Normal,340,13.0,19.0,,9999.0,,12.0,12.0,29.71,,,,,,,,,,,,,,,,,1500.0,1500.0,BKN,1500.0,OVC,2000.0,,,,
KRDR,07-01-2014,14:58,METAR,Normal,330,14.0,19.0,,9999.0,Light Drizzle,11.7,11.6,29.70,1006.3,51,,,,,,,,,,.01 IN,.05 IN,,,,1500.0,1500.0,BKN,1500.0,,,,,,
KRDR,07-01-2014,14:38,SPECI,Normal,340,16.0,22.0,,9999.0,Light Drizzle,12.0,12.0,29.69,,51,,,,,,,,,,,,,,,2200.0,1600.0,SCT,1600.0,BKN,2200.0,BKN,4400.0,,
KRDR,07-01-2014,13:58,METAR,Normal,340,11.0,17.0,,9999.0,Light Rain,11.6,11.4,29.68,1005.6,61,,,,,,,,,,.04 IN,,,,,72000.0,1000.0,FEW,1000.0,SCT,2300.0,,,,
KRDR,07-01-2014,13:55,SPECI,Normal,340,11.0,17.0,,9999.0,Light Rain,12.0,11.0,29.68,,61,,,,,,,,,,,,,,,72000.0,1000.0,FEW,1000.0,SCT,2300.0,,,,
KRDR,07-01-2014,13:45,SPECI,Normal,340,14.0,,,9999.0,Rain,12.0,11.0,29.68,,62,,,,,,,,,,,,,,,1100.0,1100.0,SCT,1100.0,OVC,2300.0,,,,
KRDR,07-01-2014,13:44,SPECI,Normal,340,14.0,19.0,,9999.0,Rain,12.0,11.0,29.68,,62,,,,,,,,,,,,,,,1100.0,1200.0,SCT,1200.0,OVC,2400.0,,,,
KRDR,07-01-2014,13:34,SPECI,Normal,350,14.0,19.0,,9999.0,Light Rain,12.0,11.0,29.68,,61,,,,,,,,,,,,,,,1100.0,1100.0,BKN,1100.0,OVC,1900.0,,,,
KRDR,07-01-2014,13:19,SPECI,Normal,360,11.0,17.0,,9999.0,Light Rain,12.0,12.0,29.67,,61,,,,,,,,,,,,,,,1400.0,1400.0,BKN,1400.0,BKN,2000.0,OVC,2600.0,,
KRDR,07-01-2014,13:04,SPECI,Normal,360,15.0,21.0,,9999.0,Light Drizzle,12.0,12.0,29.66,,51,,,,,,,,,,,,,,,1900.0,1800.0,SCT,1800.0,BKN,2400.0,,,,
KRDR,07-01-2014,12:58,METAR,Variable,350,14.0,22.0,,9999.0,,12.6,11.8,29.66,1004.9,,,,,,,,,,,TRACE,,,,,2000.0,2000.0,BKN,2000.0,,,,,,
KRDR,07-01-2014,12:56,SPECI,Normal,350,13.0,22.0,,9999.0,,13.0,12.0,29.66,,,,,,,,,,,,,,,,,2000.0,2000.0,BKN,2000.0,,,,,,
KRDR,07-01-2014,12:46,SPECI,Normal,350,16.0,21.0,,9999.0,Light Rain,13.0,12.0,29.65,,61,,,,,,,,,,,,,,,2000.0,2000.0,OVC,2000.0,,,,,,
KRDR,07-01-2014,11:58,METAR,Normal,340,13.0,20.0,,9999.0,,12.9,11.8,29.62,1003.5,,,,,,,,,,,,,.01 IN,.06 IN,,2100.0,2100.0,OVC,2100.0,,,,,,
KRDR,07-01-2014,10:58,METAR,Normal,350,16.0,,,9999.0,,12.9,12.7,29.60,1002.8,,,,,,,,,,,,,,,,1800.0,1800.0,BKN,1800.0,BKN,6000.0,OVC,11000.0,,
KRDR,07-01-2014,10:53,SPECI,Normal,350,10.0,20.0,,9999.0,,13.0,13.0,29.60,,,,,,,,,,,,,,,,,1800.0,1800.0,BKN,1800.0,BKN,6000.0,OVC,11000.0,,
KRDR,07-01-2014,10:43,SPECI,Normal,360,15.0,22.0,,9999.0,,13.0,13.0,29.59,,,,,,,,,,,,,,,,,6000.0,1600.0,SCT,1600.0,BKN,6000.0,OVC,11000.0,,
KRDR,07-01-2014,10:08,SPECI,Normal,350,10.0,,,9999.0,,14.0,14.0,29.58,,,,,,,,,,,,,,,,,1700.0,1700.0,BKN,1700.0,BKN,2200.0,BKN,4600.0,,
KRDR,07-01-2014,09:58,METAR,Normal,340,9.0,,,9999.0,,13.7,13.5,29.58,1002.1,,,,,,,,,,,TRACE,,,,,1800.0,1600.0,SCT,1600.0,SCT,2200.0,BKN,4600.0,,
KRDR,07-01-2014,09:31,SPECI,Normal,10,10.0,,,9999.0,,14.0,14.0,29.56,,,,,,,,,,,,,,,,,4300.0,1500.0,SCT,1500.0,OVC,4300.0,,,,
KRDR,07-01-2014,09:26,SPECI,Normal,10,9.0,,,9999.0,,14.0,14.0,29.56,,,,,,,,,,,,,,,,,1500.0,1500.0,BKN,1500.0,OVC,4300.0,,,,
KRDR,07-01-2014,09:22,SPECI,Normal,10,9.0,,,9999.0,Light Drizzle,14.0,14.0,29.56,,51,,,,,,,,,,,,,,,1600.0,1600.0,BKN,1600.0,BKN,3200.0,OVC,4300.0,,
KRDR,07-01-2014,09:17,SPECI,Normal,10,10.0,,,9999.0,Light Drizzle,14.0,14.0,29.56,,51,,,,,,,,,,,,,,,3200.0,1700.0,SCT,1700.0,BKN,3200.0,OVC,4300.0,,
KRDR,07-01-2014,08:58,METAR,Normal,10,11.0,,,9999.0,,13.8,13.8,29.55,1001.1,,,,,,,,,,,.01 IN,.01 IN,,,,3200.0,800.0,FEW,800.0,SCT,1700.0,OVC,3200.0,,
KRDR,07-01-2014,08:52,SPECI,Normal,10,10.0,,,9999.0,,14.0,14.0,29.55,,,,,,,,,,,,,,,,,3000.0,800.0,SCT,800.0,SCT,1700.0,OVC,3000.0,,
KRDR,07-01-2014,08:47,SPECI,Normal,10,10.0,,,9999.0,,14.0,14.0,29.55,,,,,,,,,,,,,,,,,700.0,800.0,SCT,800.0,BKN,1700.0,OVC,2600.0,,
KRDR,07-01-2014,08:42,SPECI,Normal,10,12.0,19.0,,9999.0,Mist,14.0,14.0,29.55,,10,,,,,,,,,,,,,,,800.0,800.0,BKN,800.0,BKN,1600.0,OVC,2400.0,,
KRDR,07-01-2014,08:38,SPECI,Normal,10,11.0,19.0,,4800.0,Light Rain/Mist,14.0,14.0,29.54,,61,10,,,,,,,,,,,,,,700.0,700.0,OVC,700.0,,,,,,
KRDR,07-01-2014,08:33,SPECI,Normal,10,13.0,,,4800.0,Light Drizzle/Mist,14.0,14.0,29.54,,51,10,,,,,,,,,,,,,,700.0,700.0,OVC,700.0,,,,,,
KRDR,07-01-2014,08:18,SPECI,Normal,30,13.0,,,4800.0,Light Rain/Mist,14.0,14.0,29.53,,61,10,,,,,,,,,,,,,,500.0,700.0,BKN,700.0,BKN,1100.0,OVC,2000.0,,
KRDR,07-01-2014,08:13,SPECI,Normal,30,15.0,,,6400.0,Light Rain/Mist,15.0,15.0,29.53,,61,10,,,,,,,,,,,,,,500.0,600.0,SCT,600.0,BKN,1100.0,OVC,1800.0,,
KRDR,07-01-2014,08:08,SPECI,Normal,20,15.0,,,9999.0,Light Rain,15.0,15.0,29.53,,61,,,,,,,,,,,,,,,1100.0,700.0,SCT,700.0,BKN,1100.0,OVC,1800.0,,
KRDR,07-01-2014,08:03,SPECI,Normal,20,14.0,,,9999.0,Light Rain,15.0,15.0,29.53,,61,,,,,,,,,,,,,,,1800.0,700.0,FEW,700.0,BKN,1800.0,OVC,3900.0,,
KRDR,07-01-2014,07:58,METAR,Normal,20,16.0,22.0,,9999.0,Light Rain,15.4,15.2,29.52,1000.0,61,,,,,,,,,,TRACE,,,,,1700.0,900.0,FEW,900.0,BKN,1800.0,OVC,3800.0,,
KRDR,07-01-2014,07:54,SPECI,Normal,30,16.0,22.0,,9999.0,Light Drizzle,16.0,15.0,29.52,,51,,,,,,,,,,,,,,,1700.0,1000.0,FEW,1000.0,BKN,1700.0,OVC,3800.0,,
KRDR,07-01-2014,07:49,SPECI,Normal,30,19.0,22.0,,9999.0,Light Rain,16.0,16.0,29.52,,61,,,,,,,,,,,,,,,3600.0,1000.0,FEW,1000.0,SCT,1800.0,OVC,3600.0,,
KRDR,07-01-2014,07:22,SPECI,Normal,10,8.0,,,9999.0,Light Drizzle,17.0,17.0,29.51,,51,,,,,,,,,,,,,,,3300.0,1900.0,FEW,1900.0,SCT,2600.0,OVC,3300.0,,
KRDR,07-01-2014,07:07,SPECI,Normal,10,10.0,,,9999.0,Light Drizzle,17.0,17.0,29.50,,51,,,,,,,,,,,,,,,2800.0,2200.0,FEW,2200.0,BKN,2800.0,OVC,3400.0,,
KRDR,07-01-2014,06:58,METAR,Normal,10,8.0,,,9999.0,,17.5,16.7,29.50,999.2,,,,,,,,,,,,,,,,2600.0,1900.0,FEW,1900.0,BKN,2600.0,OVC,3200.0,,
KRDR,07-01-2014,06:53,SPECI,Normal,10,9.0,,,9999.0,,18.0,17.0,29.50,,,,,,,,,,,,,,,,,3000.0,1900.0,FEW,1900.0,SCT,2600.0,OVC,3000.0,,
KRDR,07-01-2014,06:28,SPECI,Normal,340,5.0,,,9999.0,,18.0,18.0,29.50,,,,,,,,,,,,,,,,,2500.0,1900.0,FEW,1900.0,BKN,2500.0,OVC,3300.0,,
KRDR,07-01-2014,05:58,METAR,Normal,330,8.0,,,9999.0,,17.8,17.6,29.48,998.5,,,,,,,,,,,,,TRACE,,,3700.0,3700.0,OVC,3700.0,,,,,,
KRDR,07-01-2014,04:58,METAR,Normal,310,7.0,,,9999.0,,18.0,17.8,29.47,998.2,,,,,,,,,,,,,,,,3500.0,3500.0,OVC,3500.0,,,,,,
KRDR,07-01-2014,03:58,METAR,Normal,320,11.0,,,9999.0,,18.5,18.1,29.47,998.2,,,,,,,,,,,,,,,,3500.0,3500.0,OVC,3500.0,,,,,,
KRDR,07-01-2014,02:58,METAR,Normal,290,8.0,,,9999.0,,18.2,18.0,29.45,997.5,,,,,,,,,,,,TRACE,,,,3900.0,3900.0,OVC,3900.0,,,,,,
KRDR,07-01-2014,01:58,METAR,Normal,280,9.0,,,9999.0,,18.9,18.7,29.43,996.8,,,,,,,,,,,,,,,,4300.0,3500.0,SCT,3500.0,BKN,4300.0,,,,
KRDR,07-01-2014,00:58,METAR,Normal,290,9.0,,,9999.0,,19.1,18.9,29.40,995.8,,,,,,,,,,,TRACE,,,,,72000.0,8000.0,FEW,8000.0,,,,,,
KRDR,07-01-2014,00:34,SPECI,Normal,300,9.0,,,9999.0,,19.0,19.0,29.39,,,,,,,,,,,,,,,,,8000.0,4500.0,SCT,4500.0,BKN,8000.0,,,,
KRDR,07-01-2014,00:22,SPECI,Normal,300,8.0,,,9999.0,Light Drizzle,19.0,19.0,29.39,,51,,,,,,,,,,,,,,,4400.0,4400.0,BKN,4400.0,BKN,9600.0,,,,
KRDR,06-30-2014,23:58,METAR,Normal,290,9.0,,,9999.0,,18.6,18.4,29.38,995.1,,,,,,,,,,,.03 IN,,.05 IN,,,72000.0,10000.0,SCT,10000.0,SCT,12000.0,,,,
KRDR,06-30-2014,23:41,SPECI,Normal,290,11.0,,,9999.0,,18.0,18.0,29.37,,,,,,,,,,,,,,,,,10000.0,7000.0,SCT,7000.0,BKN,10000.0,OVC,12000.0,,
KRDR,06-30-2014,23:11,SPECI,Normal,280,14.0,20.0,,9999.0,Light Rain,19.0,19.0,29.36,,61,,,,,,,,,,,,,,,6000.0,1700.0,SCT,1700.0,BKN,6000.0,OVC,7500.0,,
KRDR,06-30-2014,23:01,SPECI,Normal,280,15.0,,,9999.0,Light Drizzle,20.0,19.0,29.36,,51,,,,,,,,,,,,,,,1700.0,1700.0,BKN,1700.0,BKN,2600.0,BKN,6000.0,,
KRDR,06-30-2014,22:58,METAR,Normal,280,14.0,,,9999.0,,20.3,18.8,29.35,994.1,,,,,,,,,,,.01 IN,,,,,1800.0,1800.0,BKN,1800.0,BKN,2400.0,BKN,6000.0,,
KRDR,06-30-2014,22:53,SPECI,Normal,270,13.0,,,9999.0,,20.0,19.0,29.35,,,,,,,,,,,,,,,,,1800.0,2000.0,BKN,2000.0,BKN,6000.0,,,,
KRDR,06-30-2014,22:23,SPECI,Normal,250,13.0,18.0,,9999.0,,19.0,19.0,29.33,,,,,,,,,,,,,,,,,12000.0,1600.0,SCT,1600.0,BKN,12000.0,,,,
KRDR,06-30-2014,22:18,SPECI,Normal,250,13.0,19.0,,9999.0,,19.0,19.0,29.33,,,,,,,,,,,,,,,,,12000.0,1300.0,SCT,1300.0,SCT,1900.0,BKN,12000.0,,
KRDR,06-30-2014,22:03,SPECI,Normal,240,14.0,,,9999.0,,18.0,18.0,29.33,,,,,,,,,,,,,,,,,1200.0,1200.0,BKN,1200.0,,,,,,
KRDR,06-30-2014,21:58,METAR,Normal,240,15.0,20.0,,9999.0,Light Drizzle,17.6,17.4,29.34,993.8,51,,,,,,,,,,TRACE,,,,,1200.0,1200.0,OVC,1200.0,,,,,,
KRDR,06-30-2014,21:47,SPECI,Normal,240,17.0,22.0,,9999.0,Light Rain,17.0,17.0,29.34,,61,,,,,,,,,,,,,,,1200.0,1200.0,OVC,1200.0,,,,,,
KRDR,06-30-2014,21:35,SPECI,Normal,240,17.0,24.0,,9999.0,,17.0,17.0,29.34,,,,,,,,,,,,,,,,,1300.0,1300.0,BKN,1300.0,OVC,1800.0,,,,
KRDR,06-30-2014,21:30,SPECI,Normal,230,17.0,24.0,,9999.0,,17.0,17.0,29.34,,,,,,,,,,,,,,,,,1500.0,900.0,FEW,900.0,OVC,1500.0,,,,
KRDR,06-30-2014,21:25,SPECI,Normal,240,15.0,22.0,,9999.0,,17.0,17.0,29.35,,,,,,,,,,,,,,,,,1300.0,900.0,FEW,900.0,OVC,1300.0,,,,
KRDR,06-30-2014,21:04,SPECI,Normal,240,18.0,25.0,,9999.0,,17.0,17.0,29.35,,,,,,,,,,,,,,,,,1400.0,1400.0,BKN,1400.0,BKN,3000.0,OVC,3500.0,,
KRDR,06-30-2014,20:58,METAR,Normal,240,19.0,25.0,270/29KTS,9999.0,Light Drizzle,17.1,16.9,29.35,994.2,51,,,,,,,,,,TRACE,.01 IN,,,,1400.0,1400.0,BKN,1400.0,BKN,3000.0,OVC,3700.0,,
KRDR,06-30-2014,20:55,SPECI,Normal,240,17.0,23.0,,9999.0,Light Drizzle,17.0,17.0,29.36,,51,,,,,,,,,,,,,,,1400.0,1100.0,FEW,1100.0,BKN,1600.0,OVC,3800.0,,
KRDR,06-30-2014,20:52,SPECI,Normal,240,19.0,23.0,,9999.0,Light Drizzle,17.0,17.0,29.35,,51,,,,,,,,,,,,,,,1400.0,1400.0,BKN,1400.0,BKN,2100.0,OVC,3400.0,,
KRDR,06-30-2014,20:46,SPECI,Normal,240,18.0,25.0,,9999.0,,17.0,17.0,29.36,,,,,,,,,,,,,,,,,1700.0,1600.0,SCT,1600.0,BKN,2900.0,OVC,3600.0,,
KRDR,06-30-2014,20:18,SPECI,Normal,240,20.0,28.0,,9999.0,Light Rain,17.0,16.0,29.37,,61,,,,,,,,,,,,,,,2900.0,1900.0,FEW,1900.0,BKN,2900.0,OVC,5500.0,,
KRDR,06-30-2014,19:58,METAR,Normal,240,17.0,24.0,230/32KTS,9999.0,Light Rain,17.7,16.1,29.37,994.8,61,,,,,,,,,,.01 IN,,,,,6000.0,2900.0,FEW,2900.0,BKN,6000.0,OVC,8000.0,,
KRDR,06-30-2014,19:14,SPECI,Normal,250,19.0,28.0,,9999.0,Light Rain,19.0,15.0,29.37,,61,,,,,,,,,,,,,,,3100.0,3100.0,BKN,3100.0,BKN,7500.0,,,,
KRDR,06-30-2014,19:04,SPECI,Normal,240,15.0,25.0,,9999.0,,20.0,14.0,29.38,,,,,,,,,,,,,,,,,3100.0,3100.0,BKN,3100.0,BKN,7500.0,OVC,10000.0,,
KRDR,06-30-2014,18:58,METAR,Normal,250,15.0,32.0,260/34KTS,9999.0,Light Drizzle,20.0,14.0,29.38,995.1,51,,,,,,,,,,TRACE,,,,,6500.0,3100.0,SCT,3100.0,BKN,6500.0,OVC,10000.0,,
KRDR,06-30-2014,18:54,SPECI,Normal,250,18.0,32.0,,9999.0,Light Drizzle,20.0,14.0,29.38,,51,,,,,,,,,,,,,,,6000.0,3100.0,SCT,3100.0,BKN,6000.0,BKN,8000.0,,
KRDR,06-30-2014,17:58,METAR,Variable,250,18.0,29.0,250/32KTS,9999.0,,21.6,14.3,29.38,995.0,,,,,,,,,,,,,,,,3500.0,3500.0,OVC,3500.0,,,,,,
KRDR,06-30-2014,16:58,METAR,Normal,250,22.0,30.0,250/33KTS,9999.0,,21.2,13.8,29.38,995.0,,,,,,,,,,,,,,,,3300.0,3300.0,BKN,3300.0,,,,,,
KRDR,06-30-2014,15:58,METAR,Normal,260,22.0,28.0,,9999.0,,20.1,13.3,29.38,995.0,,,,,,,,,,,,,,,Clear,72000.0,,,,,,,,,
KRDR,06-30-2014,14:58,METAR,Normal,250,21.0,29.0,,9999.0,,19.2,12.6,29.40,995.7,,,,,,,,,,,,,,,Clear,72000.0,,,,,,,,,
KRDR,06-30-2014,13:58,METAR,Normal,260,25.0,32.0,,9999.0,,19.5,12.4,29.41,996.1,,,,,,,,,,,,,,,Clear,72000.0,,,,,,,,,
KRDR,06-30-2014,12:58,METAR,Normal,250,17.0,27.0,280/33KTS,9999.0,,19.1,12.3,29.41,996.1,,,,,,,,,,,,,,,,3400.0,3400.0,BKN,3400.0,,,,,,
KRDR,06-30-2014,11:58,METAR,Normal,260,18.0,27.0,,9999.0,,18.6,12.4,29.41,996.1,,,,,,,,,,,,,,,Clear,72000.0,,,,,,,,,
KRDR,06-30-2014,10:58,METAR,Normal,250,17.0,24.0,270/27KTS,9999.0,,18.3,12.6,29.39,995.4,,,,,,,,,,,,,,,,72000.0,3400.0,SCT,3400.0,,,,,,
KRDR,06-30-2014,09:58,METAR,Normal,270,15.0,21.0,,9999.0,,18.7,12.8,29.39,995.4,,,,,,,,,,,,,,,Clear,72000.0,,,,,,,,,
KRDR,06-30-2014,08:58,METAR,Normal,270,16.0,23.0,,9999.0,,19.2,13.0,29.38,995.0,,,,,,,,,,,,,,,Clear,72000.0,,,,,,,,,
KRDR,06-30-2014,07:58,METAR,Normal,280,18.0,28.0,,9999.0,,19.9,12.8,29.39,995.3,,,,,,,,,,,,,,,Clear,72000.0,,,,,,,,,
KRDR,06-30-2014,06:58,METAR,Normal,280,20.0,27.0,,9999.0,,20.2,12.7,29.40,995.7,,,,,,,,,,,,,,,Clear,72000.0,,,,,,,,,
KRDR,06-30-2014,05:58,METAR,Normal,270,16.0,25.0,,9999.0,,20.4,13.2,29.40,995.7,,,,,,,,,,,,,,,Clear,72000.0,,,,,,,,,
KRDR,06-30-2014,04:58,METAR,Normal,270,18.0,25.0,260/30KTS,9999.0,,21.2,13.0,29.41,995.9,,,,,,,,,,,,,,,,72000.0,12000.0,SCT,12000.0,,,,,,
KRDR,06-30-2014,03:58,METAR,Normal,270,19.0,31.0,,9999.0,,21.7,13.1,29.41,995.9,,,,,,,,,,,,,,,Clear,72000.0,,,,,,,,,
KRDR,06-30-2014,02:58,METAR,Normal,270,20.0,28.0,,9999.0,,21.7,13.8,29.40,995.7,,,,,,,,,,,,,,,Clear,72000.0,,,,,,,,,
KRDR,06-30-2014,01:58,METAR,Normal,260,17.0,25.0,,9999.0,,22.4,14.0,29.40,995.7,,,,,,,,,,,,,,,Clear,72000.0,,,,,,,,,
KRDR,06-30-2014,00:58,METAR,Normal,260,13.0,,/  KTS,9999.0,,22.0,15.4,29.41,996.1,,,,,,,,,,,,,,,Clear,72000.0,,,,,,,,,
KRDR,06-29-2014,23:58,METAR,Normal,260,15.0,20.0,280/28KTS,9999.0,,22.7,14.2,29.41,996.1,,,,,,,,,,,,,TRACE,,,72000.0,9500.0,FEW,9600.0,,,,,,
KRDR,06-29-2014,22:58,METAR,Normal,280,11.0,18.0,,9999.0,,21.4,14.6,29.43,996.8,,,,,,,,,,,TRACE,,,,,72000.0,3600.0,FEW,3600.0,SCT,8600.0,,,,
KRDR,06-29-2014,22:42,SPECI,Normal,270,14.0,22.0,,9999.0,,21.0,14.0,29.42,,,,,,,,,,,,,,,,,72000.0,3400.0,FEW,3400.0,SCT,9100.0,,,,
KRDR,06-29-2014,22:31,SPECI,Normal,270,13.0,22.0,,9999.0,Light Rain,22.0,14.0,29.43,,61,,,,,,,,,,,,,,,7500.0,3600.0,FEW,3600.0,SCT,6500.0,BKN,7500.0,,
KRDR,06-29-2014,22:15,SPECI,Normal,260,16.0,25.0,,9999.0,,22.0,14.0,29.43,,,,,,,,,,,,,,,,,72000.0,3000.0,FEW,3000.0,SCT,6000.0,SCT,8000.0,,
KRDR,06-29-2014,22:04,SPECI,Normal,280,18.0,36.0,,9999.0,Light Rain,22.0,15.0,29.43,,61,,,,,,,,,,,,,,,72000.0,2900.0,FEW,2900.0,SCT,6000.0,,,,
KRDR,06-29-2014,21:58,METAR,Normal,270,26.0,36.0,,9999.0,,23.3,14.3,29.43,996.7,,,,,,,,,,,TRACE,,,,,72000.0,3600.0,FEW,3600.0,SCT,6000.0,SCT,9600.0,,
KRDR,06-29-2014,21:44,SPECI,Normal,270,14.0,25.0,,9999.0,,23.0,14.0,29.42,,,,,,,,,,,,,,,,,72000.0,6000.0,FEW,6000.0,,,,,,
KRDR,06-29-2014,21:34,SPECI,Normal,270,14.0,23.0,,9999.0,Light Rain,23.0,14.0,29.43,,61,,,,,,,,,,,,,,,9000.0,6000.0,SCT,6000.0,BKN,9100.0,,,,
KRDR,06-29-2014,20:58,METAR,Normal,270,21.0,32.0,260/33KTS,9999.0,,23.7,13.4,29.43,996.7,,,,,,,,,,,,,,,,72000.0,9000.0,SCT,9100.0,,,,,,
KRDR,06-29-2014,19:58,METAR,Normal,260,15.0,23.0,260/31KTS,9999.0,,23.1,15.3,29.43,996.7,,,,,,,,,,,,,,,,72000.0,4600.0,FEW,4600.0,,,,,,
KRDR,06-29-2014,18:58,METAR,Normal,270,22.0,33.0,270/33KTS,9999.0,,23.2,14.6,29.44,997.1,,,,,,,,,,,,,,,,7000.0,4400.0,SCT,4400.0,BKN,7000.0,,,,
KRDR,06-29-2014,17:58,METAR,Normal,260,19.0,31.0,240/32KTS,9999.0,,23.6,15.3,29.44,997.1,,,,,,,,,,,,,,,,72000.0,4300.0,SCT,4300.0,SCT,5000.0,,,,
KRDR,06-29-2014,16:58,METAR,Normal,250,18.0,25.0,260/31KTS,9999.0,,24.1,15.3,29.42,996.3,,,,,,,,,,,,,,,,72000.0,4200.0,FEW,4200.0,,,,,,
KRDR,06-29-2014,15:58,METAR,Normal,250,20.0,26.0,,9999.0,,23.2,14.9,29.42,996.4,,,,,,,,,,,,,,,Clear,72000.0,,,,,,,,,
KRDR,06-29-2014,14:58,METAR,Normal,260,16.0,25.0,,9999.0,,22.0,14.5,29.43,996.7,,,,,,,,,,,,,,,Clear,72000.0,,,,,,,,,
KRDR,06-29-2014,13:58,METAR,Normal,250,18.0,23.0,,9999.0,,20.3,14.7,29.43,996.8,,,,,,,,,,,,,,,Clear,72000.0,,,,,,,,,
KRDR,06-29-2014,12:58,METAR,Normal,240,13.0,20.0,,9999.0,,18.8,14.2,29.42,996.4,,,,,,,,,,,,,,,Clear,72000.0,,,,,,,,,
KRDR,06-29-2014,11:58,METAR,Normal,240,16.0,20.0,,9999.0,,18.0,14.8,29.44,997.1,,,,,,,,,,,,,,,Clear,72000.0,,,,,,,,,
KRDR,06-29-2014,10:58,METAR,Normal,220,12.0,20.0,,9999.0,,18.0,16.7,29.44,997.0,,,,,,,,,,,,,,,Clear,72000.0,,,,,,,,,
KRDR,06-29-2014,09:58,METAR,Normal,220,11.0,,,9999.0,,17.8,17.0,29.46,997.7,,,,,,,,,,,,,,,Clear,72000.0,,,,,,,,,
KRDR,06-29-2014,08:58,METAR,Normal,230,14.0,,,9999.0,,18.3,17.5,29.47,998.0,,,,,,,,,,,,,,,,,7000.0,FEW,7000.0,,,,,,
KRDR,06-29-2014,07:58,METAR,Normal,230,15.0,20.0,,9999.0,,18.3,16.8,29.48,998.4,,,,,,,,,,,,,,,Clear,72000.0,,,,,,,,,
KRDR,06-29-2014,06:58,METAR,Normal,230,16.0,21.0,,9999.0,,18.0,15.2,29.47,998.0,,,,,,,,,,,,,,,Clear,72000.0,,,,,,,,,
KRDR,06-29-2014,05:58,METAR,Normal,220,17.0,,,9999.0,,18.3,15.3,29.46,997.8,,,,,,,,,,,,,,,Clear,72000.0,,,,,,,,,
KRDR,06-29-2014,04:58,METAR,Normal,240,17.0,22.0,,9999.0,,18.5,15.3,29.46,997.7,,,,,,,,,,,,,,,Clear,72000.0,,,,,,,,,
KRDR,06-29-2014,03:58,METAR,Normal,250,17.0,22.0,210/28KTS,9999.0,,18.6,16.5,29.44,997.1,,,,,,,,,,,,,,,,,2400.0,FEW,2400.0,,,,,,
KRDR,06-29-2014,02:58,METAR,Normal,230,16.0,24.0,,9999.0,,19.2,17.4,29.43,996.7,,,,,,,,,,,,,,,Clear,72000.0,,,,,,,,,
KRDR,06-29-2014,01:58,METAR,Normal,200,20.0,27.0,200/30KTS,9999.0,,20.3,17.3,29.41,996.1,,,,,,,,,,,,,,,,7000.0,4800.0,FEW,4800.0,BKN,7000.0,BKN,10000.0,,
KRDR,06-29-2014,00:58,METAR,Normal,200,26.0,32.0,,9999.0,,22.4,17.3,29.40,995.7,,,,,,,,,,,,,,,Clear,72000.0,,,,,,,,,
KRDR,06-28-2014,23:58,METAR,Normal,200,28.0,42.0,,9999.0,,23.7,16.9,29.39,995.3,,,,,,,,,,,,,TRACE,,Clear,72000.0,,,,,,,,,
KRDR,06-28-2014,22:58,METAR,Normal,170,29.0,39.0,,9999.0,,24.9,18.6,29.36,994.3,,,,,,,,,,,,,,,Clear,72000.0,,,,,,,,,
KRDR,06-28-2014,21:58,METAR,Normal,170,27.0,32.0,170/34KTS,9999.0,,25.1,19.0,29.39,995.3,,,,,,,,,,,,,,,,,3500.0,FEW,3500.0,,,,,,
KRDR,06-28-2014,20:58,METAR,Normal,170,23.0,32.0,180/41KTS,9999.0,,25.5,20.0,29.41,995.9,,,,,,,,,,,,TRACE,,,,,3300.0,SCT,3300.0,SCT,7000.0,,,,
KRDR,06-28-2014,20:02,SPECI,Normal,180,25.0,33.0,,9999.0,,25.0,20.0,29.42,,,,,,,,,,,,,,,,,4400.0,2900.0,FEW,2900.0,SCT,3500.0,BKN,4400.0,,
KRDR,06-28-2014,19:58,METAR,Normal,210,22.0,33.0,150/34KTS,9999.0,,25.2,20.4,29.41,995.9,,,,,,,,,,,TRACE,,,,,4700.0,2900.0,FEW,2900.0,SCT,3700.0,BKN,4700.0,,
KRDR,06-28-2014,19:09,SPECI,Normal,190,19.0,26.0,,9999.0,,23.0,22.0,29.43,,,,,,,,,,,,,,,,,,3000.0,FEW,3000.0,,,,,,
KRDR,06-28-2014,19:00,SPECI,Normal,190,20.0,35.0,,9999.0,Light Drizzle,25.0,23.0,29.43,,51,,,,,,,,,,,,,,,,2100.0,FEW,2100.0,SCT,3000.0,,,,
KRDR,06-28-2014,18:58,METAR,Normal,190,20.0,35.0,140/36KTS,9999.0,,25.8,23.0,29.44,997.0,,,,,,,,,,,,,,,,,2100.0,FEW,2100.0,SCT,3000.0,,,,
KRDR,06-28-2014,18:43,SPECI,Normal,170,20.0,27.0,,9999.0,,26.0,24.0,29.43,,,,,,,,,,,,,,,,,3000.0,2200.0,SCT,2200.0,BKN,3000.0,,,,
KRDR,06-28-2014,18:33,SPECI,Normal,160,18.0,24.0,,9999.0,,25.0,24.0,29.43,,,,,,,,,,,,,,,,,2100.0,2200.0,SCT,2200.0,BKN,2900.0,,,,
KRDR,06-28-2014,18:28,SPECI,Normal,170,18.0,22.0,,9999.0,,25.0,24.0,29.44,,,,,,,,,,,,,,,,,2600.0,2100.0,FEW,2100.0,BKN,2600.0,BKN,3100.0,,
KRDR,06-28-2014,17:58,METAR,Normal,170,15.0,26.0,180/26KTS,9999.0,,24.2,23.4,29.45,997.4,,,,,,,,,,,,,,,,3800.0,2200.0,FEW,2200.0,BKN,3800.0,OVC,4900.0,,
KRDR,06-28-2014,17:48,SPECI,Normal,170,18.0,24.0,,9999.0,,24.0,23.0,29.46,,,,,,,,,,,,,,,,,2900.0,2200.0,FEW,2200.0,SCT,3000.0,OVC,3900.0,,
KRDR,06-28-2014,17:33,SPECI,Normal,160,18.0,25.0,,9999.0,,25.0,24.0,29.47,,,,,,,,,,,,,,,,,2500.0,2500.0,BKN,2500.0,BKN,3000.0,BKN,3800.0,,
KRDR,06-28-2014,17:13,SPECI,Normal,170,12.0,20.0,,9999.0,,25.0,24.0,29.48,,,,,,,,,,,,,,,,,2700.0,2400.0,SCT,2400.0,BKN,3600.0,,,,
KRDR,06-28-2014,17:08,SPECI,Normal,170,13.0,22.0,,9999.0,,25.0,24.0,29.49,,,,,,,,,,,,,,,,,2400.0,2400.0,BKN,2400.0,BKN,3600.0,,,,
KRDR,06-28-2014,16:58,METAR,Normal,180,14.0,19.0,,9999.0,,25.5,24.2,29.49,998.7,,,,,,,,,,,,,,,,3600.0,1400.0,FEW,1400.0,SCT,1900.0,BKN,3600.0,,
KRDR,06-28-2014,16:38,SPECI,Normal,160,14.0,18.0,,9999.0,,25.0,25.0,29.50,,,,,,,,,,,,,,,,,2100.0,1400.0,SCT,1400.0,BKN,2100.0,BKN,3300.0,,
KRDR,06-28-2014,16:18,SPECI,Normal,160,12.0,,,9999.0,,24.0,24.0,29.51,,,,,,,,,,,,,,,,,1200.0,1300.0,SCT,1300.0,SCT,2200.0,BKN,3300.0,,
KRDR,06-28-2014,16:13,SPECI,Normal,160,10.0,,,9999.0,,23.0,23.0,29.52,,,,,,,,,,,,,,,,,1200.0,1300.0,SCT,1300.0,BKN,2300.0,BKN,3200.0,,
KRDR,06-28-2014,15:58,METAR,Normal,170,11.0,,,9999.0,,22.8,,29.53,1000.1,,,,,,,,,,,,,,,,1200.0,1200.0,OVC,1200.0,,,,,,
KRDR,06-28-2014,15:48,SPECI,Normal,170,10.0,,,9999.0,,23.0,23.0,29.53,,,,,,,,,,,,,,,,,1200.0,1200.0,OVC,1200.0,,,,,,
KRDR,06-28-2014,15:13,SPECI,Normal,140,7.0,,,9999.0,,22.0,22.0,29.54,,,,,,,,,,,,,,,,,1000.0,1000.0,OVC,1000.0,,,,,,
KRDR,06-28-2014,14:58,METAR,Normal,140,5.0,,,9999.0,,21.9,21.9,29.55,1000.8,,,,,,,,,,,,,,,,700.0,900.0,OVC,900.0,,,,,,
KRDR,06-28-2014,14:48,SPECI,Normal,120,6.0,,,9999.0,,22.0,22.0,29.54,,,,,,,,,,,,,,,,,700.0,700.0,OVC,700.0,,,,,,
KRDR,06-28-2014,14:33,SPECI,Normal,110,5.0,,,9999.0,,21.0,21.0,29.54,,,,,,,,,,,,,,,,,600.0,600.0,OVC,600.0,,,,,,
KRDR,06-28-2014,14:23,SPECI,Normal,140,5.0,,,9999.0,,21.0,21.0,29.56,,,,,,,,,,,,,,,,,500.0,500.0,OVC,500.0,,,,,,
KRDR,06-28-2014,14:13,SPECI,Normal,130,4.0,,,9999.0,Mist,21.0,21.0,29.56,,10,,,,,,,,,,,,,,,400.0,400.0,OVC,400.0,,,,,,
KRDR,06-28-2014,13:58,METAR,Normal,100,4.0,,,8000.0,Mist,21.0,21.0,29.56,1001.2,10,,,,,,,,,,,,,,,300.0,300.0,OVC,300.0,,,,,,
KRDR,06-28-2014,13:43,SPECI,Normal,110,5.0,,,4800.0,Mist,21.0,21.0,29.57,,10,,,,,,,,,,,,,,,300.0,300.0,OVC,300.0,,,,,,
KRDR,06-28-2014,13:38,SPECI,Normal,110,4.0,,,4000.0,Mist,21.0,21.0,29.57,,10,,,,,,,,,,,,,,,200.0,200.0,OVC,200.0,,,,,,
KRDR,06-28-2014,13:33,SPECI,Normal,110,5.0,,,2800.0,Mist,21.0,21.0,29.57,,10,,,,,,,,,,,,,,,200.0,200.0,OVC,200.0,,,,,,
KRDR,06-28-2014,13:28,SPECI,Normal,100,5.0,,,1600.0,Mist,21.0,21.0,29.56,,10,,,,,,,,,,,,,,Sky Obscured (Unable to Estimate),200.0,200.0,,200.0,,,,,,
KRDR,06-28-2014,13:23,SPECI,Normal,90,5.0,,,800.0,Fog,21.0,21.0,29.56,,30,,,,,,,,,,,,,,Sky Obscured (Unable to Estimate),200.0,200.0,,200.0,,,,,,
KRDR,06-28-2014,13:13,SPECI,Normal,90,4.0,,,800.0,Fog,20.0,20.0,29.57,,30,,,,,,,,,,,,,,Sky Obscured (Unable to Estimate),200.0,200.0,,200.0,,,,,,
KRDR,06-28-2014,13:03,SPECI,Normal,120,4.0,,,800.0,Fog,20.0,20.0,29.58,,30,,,,,,,,,,,,,,Sky Obscured (Unable to Estimate),200.0,200.0,,200.0,,,,,,
KRDR,06-28-2014,12:58,METAR,Normal,120,4.0,,,800.0,Fog,20.2,20.2,29.58,1001.9,30,,,,,,,,,,,,,,Sky Obscured (Unable to Estimate),200.0,200.0,,200.0,,,,,,
KRDR,06-28-2014,12:38,SPECI,Normal,140,5.0,,,800.0,Fog,20.0,20.0,29.58,,30,,,,,,,,,,,,,,Sky Obscured (Unable to Estimate),200.0,200.0,,200.0,,,,,,
KRDR,06-28-2014,12:33,SPECI,Normal,140,5.0,,,400.0,Fog,20.0,20.0,29.58,,30,,,,,,,,,,,,,,Sky Obscured (Unable to Estimate),200.0,200.0,,200.0,,,,,,
KRDR,06-28-2014,12:28,SPECI,Normal,140,4.0,,,800.0,Fog,20.0,20.0,29.58,,30,,,,,,,,,,,,,,Sky Obscured (Unable to Estimate),200.0,200.0,,200.0,,,,,,
KRDR,06-28-2014,12:23,SPECI,Normal,150,6.0,,,1200.0,Mist,20.0,20.0,29.58,,10,,,,,,,,,,,,,,Sky Obscured (Unable to Estimate),200.0,200.0,,200.0,,,,,,
KRDR,06-28-2014,12:13,SPECI,Normal,160,5.0,,,1200.0,Mist,20.0,20.0,29.58,,10,,,,,,,,,,,,,,Sky Obscured (Unable to Estimate),200.0,200.0,,200.0,,,,,,
KRDR,06-28-2014,12:08,SPECI,Normal,150,5.0,,,1600.0,Mist,20.0,20.0,29.58,,10,,,,,,,,,,,,,,Sky Obscured (Unable to Estimate),200.0,200.0,,200.0,,,,,,
KRDR,06-28-2014,11:58,METAR,Normal,130,7.0,,,1200.0,Mist,19.8,19.8,29.58,1001.9,10,,,,,,,,,,,,,.58 IN,Sky Obscured (Unable to Estimate),200.0,200.0,,200.0,,,,,,
KRDR,06-28-2014,11:53,SPECI,Normal,150,8.0,,,1200.0,Mist,20.0,20.0,29.58,,10,,,,,,,,,,,,,,Sky Obscured (Unable to Estimate),200.0,200.0,,200.0,,,,,,
KRDR,06-28-2014,11:48,SPECI,Normal,150,6.0,,,1600.0,Mist,20.0,20.0,29.58,,10,,,,,,,,,,,,,,Sky Obscured (Unable to Estimate),200.0,200.0,,200.0,,,,,,
KRDR,06-28-2014,11:43,SPECI,Normal,160,4.0,,,2800.0,Mist,20.0,20.0,29.58,,10,,,,,,,,,,,,,,,300.0,300.0,OVC,300.0,,,,,,
KRDR,06-28-2014,11:28,SPECI,Normal,130,4.0,,,4000.0,Mist,20.0,20.0,29.56,,10,,,,,,,,,,,,,,,200.0,200.0,OVC,200.0,,,,,,
KRDR,06-28-2014,11:23,SPECI,Normal,130,3.0,,,2400.0,Mist,20.0,20.0,29.56,,10,,,,,,,,,,,,,,,200.0,200.0,OVC,200.0,,,,,,
KRDR,06-28-2014,11:18,SPECI,Normal,60,3.0,,,2000.0,Mist,20.0,20.0,29.54,,10,,,,,,,,,,,,,,,200.0,200.0,OVC,200.0,,,,,,
KRDR,06-28-2014,11:08,SPECI,Variable,,4.0,,,2400.0,Mist,19.0,19.0,29.55,,10,,,,,,,,,,,,,,,200.0,200.0,OVC,200.0,,,,,,
KRDR,06-28-2014,11:03,SPECI,Variable,,3.0,,,1600.0,Mist,19.0,19.0,29.54,,10,,,,,,,,,,,,,,Sky Obscured (Unable to Estimate),200.0,200.0,,200.0,,,,,,
KRDR,06-28-2014,10:58,METAR,Normal,360,8.0,,,800.0,Fog,19.0,19.0,29.51,999.5,30,,,,,,,,,,,,,,Sky Obscured (Unable to Estimate),200.0,200.0,,200.0,,,,,,
KRDR,06-28-2014,10:53,SPECI,Normal,360,8.0,,,1200.0,Mist,20.0,20.0,29.52,,10,,,,,,,,,,,,,,Sky Obscured (Unable to Estimate),200.0,200.0,,200.0,,,,,,
KRDR,06-28-2014,10:48,SPECI,Normal,360,5.0,,,1200.0,Mist,20.0,20.0,29.53,,10,,,,,,,,,,,,,,Sky Obscured (Unable to Estimate),200.0,200.0,,200.0,,,,,,
KRDR,06-28-2014,10:43,SPECI,Normal,360,5.0,,,800.0,Fog,20.0,20.0,29.55,,30,,,,,,,,,,,,,,Sky Obscured (Unable to Estimate),200.0,200.0,,200.0,,,,,,
KRDR,06-28-2014,10:38,SPECI,Normal,340,2.0,,,1200.0,Mist,20.0,20.0,29.56,,10,,,,,,,,,,,,,,Sky Obscured (Unable to Estimate),200.0,200.0,,200.0,,,,,,
KRDR,06-28-2014,10:33,SPECI,Normal,330,2.0,,,2400.0,Mist,20.0,20.0,29.56,,10,,,,,,,,,,,,,,,200.0,200.0,OVC,200.0,,,,,,
KRDR,06-28-2014,10:28,SPECI,Variable,,3.0,,,8000.0,Mist,20.0,20.0,29.58,,10,,,,,,,,,,,,,,,200.0,200.0,OVC,200.0,,,,,,
KRDR,06-28-2014,10:18,SPECI,Normal,210,7.0,,,4800.0,Mist,20.0,20.0,29.59,,10,,,,,,,,,,,,,,,200.0,200.0,OVC,200.0,,,,,,
KRDR,06-28-2014,09:58,METAR,Normal,210,5.0,,,3200.0,Mist,19.7,19.7,29.59,1002.0,10,,,,,,,,,,,,,,,200.0,200.0,OVC,200.0,,,,,,
KRDR,06-28-2014,09:38,SPECI,Normal,220,5.0,,,2400.0,Mist,20.0,20.0,29.58,,10,,,,,,,,,,,,,,,200.0,200.0,OVC,200.0,,,,,,
KRDR,06-28-2014,09:23,SPECI,Normal,210,5.0,,,2400.0,Mist,20.0,20.0,29.58,,10,,,,,,,,,,,,,,,200.0,200.0,OVC,200.0,,,,,,
KRDR,06-28-2014,09:18,SPECI,Normal,200,6.0,,,1600.0,Mist,20.0,20.0,29.58,,10,,,,,,,,,,,,,,Sky Obscured (Unable to Estimate),200.0,200.0,,200.0,,,,,,
KRDR,06-28-2014,09:03,SPECI,Normal,230,2.0,,,1200.0,Mist,20.0,20.0,29.59,,10,,,,,,,,,,,,,,Sky Obscured (Unable to Estimate),200.0,200.0,,200.0,,,,,,
KRDR,06-28-2014,08:58,METAR,Normal,210,4.0,,,2000.0,Mist,19.8,19.8,29.60,1002.4,10,,,,,,,,,,,,,,,200.0,200.0,OVC,200.0,,,,,,
KRDR,06-28-2014,08:53,SPECI,Normal,220,4.0,,,2000.0,Mist,20.0,20.0,29.60,,10,,,,,,,,,,,,,,,200.0,200.0,OVC,200.0,,,,,,
KRDR,06-28-2014,08:48,SPECI,Normal,210,4.0,,,1200.0,Mist,20.0,20.0,29.60,,10,,,,,,,,,,,,,,Sky Obscured (Unable to Estimate),200.0,200.0,,200.0,,,,,,
KRDR,06-28-2014,08:38,SPECI,Normal,230,3.0,,,800.0,Fog,20.0,20.0,29.59,,30,,,,,,,,,,,,,,Sky Obscured (Unable to Estimate),200.0,200.0,,200.0,,,,,,
KRDR,06-28-2014,08:33,SPECI,Normal,240,2.0,,,1200.0,Mist,20.0,20.0,29.59,,10,,,,,,,,,,,,,,Sky Obscured (Unable to Estimate),200.0,200.0,,200.0,,,,,,
KRDR,06-28-2014,08:28,SPECI,Normal,210,2.0,,,2000.0,Mist,20.0,20.0,29.58,,10,,,,,,,,,,,,,,,200.0,200.0,OVC,200.0,,,,,,
KRDR,06-28-2014,08:23,SPECI,Normal,190,4.0,,,6400.0,Mist,20.0,20.0,29.58,,10,,,,,,,,,,,,,,,200.0,200.0,OVC,200.0,,,,,,
KRDR,06-28-2014,08:18,SPECI,Normal,210,2.0,,,9999.0,,20.0,20.0,29.58,,,,,,,,,,,,,,,,,200.0,200.0,OVC,200.0,,,,,,
KRDR,06-28-2014,08:03,SPECI,Normal,180,2.0,,,9999.0,,20.0,20.0,29.57,,,,,,,,,,,,,,,,,300.0,300.0,OVC,300.0,,,,,,
KRDR,06-28-2014,07:58,METAR,Normal,160,2.0,,,9999.0,,19.7,19.7,29.57,1001.3,,,,,,,,,,,,,,,,400.0,400.0,OVC,400.0,,,,,,
KRDR,06-28-2014,07:53,SPECI,Normal,190,3.0,,,9999.0,,20.0,20.0,29.58,,,,,,,,,,,,,,,,,400.0,400.0,OVC,400.0,,,,,,
KRDR,06-28-2014,07:48,SPECI,Normal,170,4.0,,,9999.0,,20.0,20.0,29.57,,,,,,,,,,,,,,,,,500.0,500.0,OVC,500.0,,,,,,
KRDR,06-28-2014,07:38,SPECI,Normal,140,4.0,,,9999.0,,19.0,19.0,29.57,,,,,,,,,,,,,,,,,600.0,600.0,OVC,600.0,,,,,,
KRDR,06-28-2014,06:58,METAR,Calm,,0.0,,,9999.0,,18.8,18.8,29.59,1002.1,,,,,,,,,,,,,,,,700.0,700.0,BKN,700.0,,,,,,
KRDR,06-28-2014,06:53,SPECI,Normal,110,2.0,,,9999.0,,19.0,19.0,29.59,,,,,,,,,,,,,,,,,700.0,700.0,BKN,700.0,,,,,,
KRDR,06-28-2014,05:58,METAR,Calm,,0.0,,,9999.0,,19.6,19.6,29.61,1002.8,,,,,,,,,,,,,.17 IN,,,,1000.0,FEW,1000.0,SCT,7000.0,,,,
KRDR,06-28-2014,05:43,SPECI,Normal,150,2.0,,,9999.0,,20.0,20.0,29.62,,,,,,,,,,,,,,,,,7000.0,1000.0,SCT,1000.0,BKN,7000.0,,,,
KRDR,06-28-2014,05:38,SPECI,Normal,160,1.0,,,9999.0,,20.0,20.0,29.62,,,,,,,,,,,,,,,,,1000.0,1000.0,BKN,1000.0,OVC,7000.0,,,,
KRDR,06-28-2014,05:23,SPECI,Normal,240,2.0,,,9999.0,,20.0,20.0,29.63,,,,,,,,,,,,,,,,,6500.0,1100.0,FEW,1100.0,BKN,6500.0,OVC,12000.0,,
KRDR,06-28-2014,04:58,METAR,Normal,270,2.0,,,9999.0,,19.7,19.7,29.63,,,,,,,,,,,,,,,,,12000.0,12000.0,BKN,12000.0,,,,,,
KRDR,06-28-2014,03:58,METAR,Normal,180,6.0,,,9999.0,,20.0,20.0,29.61,,,,,,,,,,,,,,,,,2600.0,2600.0,FEW,2600.0,SCT,12000.0,,,,
KRDR,06-28-2014,03:48,SPECI,Normal,170,7.0,,,9999.0,,20.0,20.0,29.61,,,,,,,,,,,,,,,,,2600.0,2600.0,SCT,2600.0,OVC,12000.0,,,,
KRDR,06-28-2014,03:23,SPECI,Normal,180,7.0,,,9999.0,,20.0,20.0,29.61,,,,,,,,,,,,,,,,,2600.0,2600.0,BKN,2600.0,,,,,,
KRDR,06-28-2014,02:58,METAR,Normal,160,10.0,,,9999.0,,19.8,,29.60,1002.5,,,,,,,,,,,,.17 IN,,,,,500.0,SCT,500.0,,,,,,
KRDR,06-28-2014,02:48,SPECI,Normal,150,12.0,,,9999.0,,20.0,20.0,29.60,,,,,,,,,,,,,,,,,,500.0,SCT,500.0,,,,,,
KRDR,06-28-2014,02:43,SPECI,Normal,160,12.0,,,9999.0,,20.0,20.0,29.59,,,,,,,,,,,,,,,,,500.0,500.0,BKN,500.0,,,,,,
KRDR,06-28-2014,02:08,SPECI,Normal,150,9.0,,,9999.0,,20.0,20.0,29.58,,,,,,,,,,,,,,,,,,500.0,SCT,500.0,,,,,,
KRDR,06-28-2014,02:03,SPECI,Normal,160,8.0,,,9999.0,,20.0,20.0,29.59,,,,,,,,,,,,,,,,,500.0,500.0,BKN,500.0,,,,,,
KRDR,06-28-2014,01:58,METAR,Normal,160,9.0,,,9999.0,,20.0,,29.59,1002.2,,,,,,,,,,,TRACE,,,,,400.0,400.0,BKN,400.0,,,,,,
KRDR,06-28-2014,01:45,SPECI,Normal,160,6.0,,,9999.0,,20.0,20.0,29.59,,,,,,,,,,,,,,,,,400.0,400.0,BKN,400.0,,,,,,
KRDR,06-28-2014,01:25,SPECI,Normal,140,7.0,,,9999.0,,20.0,20.0,29.59,,,,,,,,,,,,,,,,,,300.0,FEW,300.0,,,,,,
KRDR,06-28-2014,01:16,SPECI,Normal,110,7.0,,,9999.0,,20.0,20.0,29.58,,,,,,,,,,,,,,,,Clear,72000.0,,,,,,,,,
KRDR,06-28-2014,01:00,SPECI,Normal,130,5.0,,,9999.0,Light Drizzle,20.0,20.0,29.60,,51,,,,,,,,,,,,,,,,1100.0,FEW,1100.0,,,,,,
KRDR,06-28-2014,00:58,METAR,Normal,140,7.0,,,9999.0,Light Drizzle,20.1,20.1,29.60,1002.5,51,,,,,,,,,,.17 IN,,,,,,1700.0,FEW,1700.0,,,,,,
KRDR,06-27-2014,23:58,METAR,Normal,190,7.0,,,4800.0,Light Rain/Mist,20.1,20.1,29.64,1003.9,61,10,,,,,,,,,.17 IN,,.41 IN,,,4300.0,4300.0,OVC,4300.0,,,,,,
KRDR,06-27-2014,23:21,SPECI,Normal,250,8.0,,,8000.0,Light Rain/Mist,20.0,20.0,29.64,,61,10,,,,,,,,,,,,,,5500.0,5500.0,OVC,5500.0,,,,,,
KRDR,06-27-2014,23:12,SPECI,Normal,240,13.0,,,8000.0,Mist,20.0,20.0,29.65,,10,,,,,,,,,,,,,,,4200.0,4200.0,OVC,4200.0,,,,,,
KRDR,06-27-2014,23:09,SPECI,Normal,240,11.0,,,9999.0,Light Rain/Mist,20.0,20.0,29.65,,61,10,,,,,,,,,,,,,,3500.0,3500.0,BKN,3500.0,,,,,,
KRDR,06-27-2014,23:04,SPECI,Normal,220,14.0,20.0,,6400.0,Light Rain/Mist,20.0,20.0,29.65,,61,10,,,,,,,,,,,,,,2200.0,2200.0,BKN,2200.0,BKN,3000.0,,,,
KRDR,06-27-2014,22:59,SPECI,Normal,220,15.0,24.0,,2800.0,Light Rain/Mist,20.0,20.0,29.65,,61,10,,,,,,,,,,,,,,2600.0,2600.0,BKN,2600.0,,,,,,
KRDR,06-27-2014,22:58,METAR,Normal,220,16.0,24.0,140/36KTS,1600.0,Thunderstorm and Rain or Snow Showers/Mist,20.3,20.3,29.65,1004.3,92,10,,,,,,,,,.24 IN,,,,,2700.0,2700.0,BKN,2700.0,,,,,,
KRDR,06-27-2014,22:53,SPECI,Normal,210,15.0,30.0,,800.0,Thunderstorm and Rain or Snow Showers/Fog,20.0,20.0,29.65,,92,30,,,,,,,,,,,,,,2600.0,2600.0,BKN,2600.0,BKN,3300.0,OVC,4800.0,,
KRDR,06-27-2014,22:48,SPECI,Normal,220,19.0,30.0,,800.0,Heavy Thunderstorm and Rain or Snow Showers/Fog,21.0,21.0,29.65,,95,30,,,,,,,,,,,,,,2800.0,1900.0,SCT,1900.0,BKN,2800.0,BKN,5000.0,,
KRDR,06-27-2014,22:43,SPECI,Normal,220,24.0,34.0,,4000.0,Thunderstorm and Rain or Snow Showers/Mist,22.0,22.0,29.65,,92,10,,,,,,,,,,,,,,3300.0,2600.0,SCT,2600.0,BKN,3300.0,BKN,4800.0,,
KRDR,06-27-2014,22:41,SPECI,Normal,200,23.0,34.0,,8000.0,Light Rain/Mist,23.0,22.0,29.65,,61,10,,,,,,,,,,,,,,3300.0,2800.0,SCT,2800.0,BKN,3300.0,BKN,4400.0,,
KRDR,06-27-2014,22:40,SPECI,Normal,190,22.0,34.0,,9999.0,,24.0,21.0,29.64,,,,,,,,,,,,,,,,,4700.0,2600.0,SCT,2600.0,SCT,3100.0,BKN,4700.0,,
KRDR,06-27-2014,22:37,SPECI,Normal,180,24.0,34.0,,9999.0,,25.0,21.0,29.62,,,,,,,,,,,,,,,,,7000.0,2600.0,SCT,2600.0,SCT,3100.0,BKN,7000.0,,
KRDR,06-27-2014,21:58,METAR,Normal,170,14.0,,,9999.0,,27.7,22.8,29.61,1002.7,,,,,,,,,,,TRACE,,,,,,3300.0,FEW,3300.0,SCT,7000.0,,,,
KRDR,06-27-2014,21:56,SPECI,Normal,170,15.0,,,9999.0,,28.0,23.0,29.61,,,,,,,,,,,,,,,,,,3300.0,FEW,3300.0,SCT,7000.0,,,,
KRDR,06-27-2014,21:49,SPECI,Normal,170,14.0,,,9999.0,Light Drizzle,28.0,23.0,29.61,,51,,,,,,,,,,,,,,,7000.0,3100.0,SCT,3100.0,SCT,3800.0,BKN,7000.0,,
KRDR,06-27-2014,20:58,METAR,Normal,160,12.0,22.0,,9999.0,,28.0,23.3,29.63,1003.4,,,,,,,,,,,,TRACE,,,,,2800.0,SCT,2800.0,,,,,,
KRDR,06-27-2014,20:31,SPECI,Normal,170,14.0,20.0,,9999.0,,28.0,23.0,29.63,,,,,,,,,,,,,,,,,3400.0,2600.0,SCT,2600.0,BKN,3400.0,,,,
KRDR,06-27-2014,20:26,SPECI,Normal,170,13.0,20.0,,9999.0,,27.0,23.0,29.64,,,,,,,,,,,,,,,,,3100.0,2500.0,SCT,2500.0,BKN,3100.0,BKN,3900.0,,
KRDR,06-27-2014,20:11,SPECI,Normal,170,16.0,,,9999.0,,27.0,23.0,29.64,,,,,,,,,,,,,,,,,3200.0,2700.0,SCT,2700.0,BKN,3200.0,OVC,4100.0,,
KRDR,06-27-2014,20:06,SPECI,Normal,170,15.0,20.0,,9999.0,,28.0,23.0,29.64,,,,,,,,,,,,,,,,,2600.0,2600.0,BKN,2600.0,OVC,3900.0,,,,
KRDR,06-27-2014,20:01,SPECI,Normal,170,14.0,,,9999.0,,28.0,23.0,29.64,,,,,,,,,,,,,,,,,3800.0,2400.0,FEW,2400.0,SCT,3000.0,BKN,3800.0,,
KRDR,06-27-2014,19:58,METAR,Normal,200,13.0,20.0,,9999.0,,27.0,23.0,29.64,1003.8,,,,,,,,,,,,,,,,3800.0,2400.0,SCT,2400.0,SCT,3000.0,BKN,3800.0,,
KRDR,06-27-2014,19:53,SPECI,Normal,210,15.0,,,9999.0,,27.0,23.0,29.64,,,,,,,,,,,,,,,,,2500.0,2500.0,BKN,2500.0,BKN,3700.0,,,,
KRDR,06-27-2014,19:48,SPECI,Normal,180,14.0,,,9999.0,,27.0,23.0,29.64,,,,,,,,,,,,,,,,,3200.0,2500.0,SCT,2500.0,BKN,3200.0,,,,
KRDR,06-27-2014,19:33,SPECI,Normal,190,12.0,,,9999.0,,26.0,23.0,29.65,,,,,,,,,,,,,,,,,2600.0,2600.0,BKN,2600.0,BKN,3200.0,,,,
KRDR,06-27-2014,19:28,SPECI,Normal,200,12.0,,,9999.0,,26.0,23.0,29.65,,,,,,,,,,,,,,,,,2600.0,2600.0,SCT,2600.0,BKN,3200.0,,,,
KRDR,06-27-2014,19:23,SPECI,Normal,190,15.0,19.0,,9999.0,,26.0,22.0,29.65,,,,,,,,,,,,,,,,,2800.0,2800.0,BKN,2800.0,BKN,3400.0,,,,
KRDR,06-27-2014,18:58,METAR,Normal,190,13.0,,,9999.0,,26.3,22.8,29.65,1004.1,,,,,,,,,,,TRACE,,,,,3400.0,2200.0,FEW,2200.0,BKN,3400.0,,,,
KRDR,06-27-2014,18:10,SPECI,Normal,190,13.0,19.0,,9999.0,,26.0,23.0,29.66,,,,,,,,,,,,,,,,,4100.0,2500.0,SCT,2500.0,SCT,3100.0,BKN,4100.0,,
KRDR,06-27-2014,18:05,SPECI,Normal,190,13.0,,,9999.0,Light Drizzle,26.0,23.0,29.67,,51,,,,,,,,,,,,,,,2400.0,2400.0,BKN,2400.0,BKN,3300.0,BKN,4100.0,,
KRDR,06-27-2014,18:00,SPECI,Normal,200,13.0,16.0,,9999.0,Light Drizzle,26.0,23.0,29.67,,51,,,,,,,,,,,,,,,2500.0,2400.0,SCT,2400.0,BKN,3100.0,BKN,4100.0,,
KRDR,06-27-2014,17:58,METAR,Normal,190,13.0,16.0,,9999.0,,26.0,22.5,29.67,1004.8,,,,,,,,,,,,,TRACE,,,2500.0,2500.0,SCT,2500.0,BKN,3300.0,BKN,4200.0,,
KRDR,06-27-2014,17:54,SPECI,Normal,190,13.0,16.0,,9999.0,,26.0,22.0,29.67,,,,,,,,,,,,,,,,,2600.0,2900.0,BKN,2900.0,BKN,4000.0,,,,
KRDR,06-27-2014,17:49,SPECI,Normal,200,11.0,,,9999.0,,25.0,22.0,29.67,,,,,,,,,,,,,,,,,3300.0,2600.0,SCT,2600.0,OVC,3300.0,,,,
KRDR,06-27-2014,17:39,SPECI,Normal,190,13.0,20.0,,9999.0,,26.0,22.0,29.67,,,,,,,,,,,,,,,,,2500.0,2600.0,BKN,2600.0,BKN,3200.0,,,,
KRDR,06-27-2014,17:18,SPECI,Normal,200,11.0,,,9999.0,,26.0,22.0,29.67,,,,,,,,,,,,,,,,,2300.0,2300.0,SCT,2300.0,BKN,2800.0,BKN,3300.0,,
KRDR,06-27-2014,17:03,SPECI,Normal,180,10.0,,,9999.0,,26.0,22.0,29.68,,,,,,,,,,,,,,,,,,2000.0,FEW,2000.0,SCT,2600.0,,,,
KRDR,06-27-2014,16:58,METAR,Normal,200,10.0,17.0,,9999.0,,25.8,22.6,29.68,1005.1,,,,,,,,,,,TRACE,,,,,2600.0,1900.0,SCT,1900.0,BKN,2600.0,,,,
KRDR,06-27-2014,16:39,SPECI,Normal,190,14.0,,,9999.0,,25.0,23.0,29.68,,,,,,,,,,,,,,,,,1900.0,2000.0,BKN,2000.0,OVC,2600.0,,,,
KRDR,06-27-2014,16:29,SPECI,Normal,200,12.0,,,9999.0,Light Drizzle,25.0,23.0,29.68,,51,,,,,,,,,,,,,,,1900.0,1900.0,SCT,1900.0,BKN,2500.0,,,,
KRDR,06-27-2014,16:08,SPECI,Normal,180,12.0,,,9999.0,,25.0,23.0,29.68,,,,,,,,,,,,,,,,,1800.0,1800.0,BKN,1800.0,,,,,,
KRDR,06-27-2014,15:58,METAR,Normal,180,16.0,,,9999.0,,24.5,22.7,29.67,1004.8,,,,,,,,,,,,,,,,,1500.0,FEW,1500.0,,,,,,
KRDR,06-27-2014,15:42,SPECI,Normal,180,11.0,,,9999.0,,24.0,23.0,29.66,,,,,,,,,,,,,,,,,,1400.0,SCT,1400.0,,,,,,
KRDR,06-27-2014,14:58,METAR,Normal,190,14.0,20.0,,9999.0,,22.5,22.3,29.68,1005.1,,,,,,,,,,,,,,,,1200.0,1200.0,OVC,1200.0,,,,,,
KRDR,06-27-2014,14:13,SPECI,Normal,180,15.0,,,9999.0,,21.0,21.0,29.68,,,,,,,,,,,,,,,,,1000.0,1000.0,OVC,1000.0,,,,,,
KRDR,06-27-2014,13:58,METAR,Normal,180,17.0,20.0,,9999.0,,21.2,,29.68,1005.1,,,,,,,,,,,,,,,,900.0,900.0,OVC,900.0,,,,,,
KRDR,06-27-2014,12:58,METAR,Normal,180,13.0,,,9999.0,,20.6,,29.67,1004.8,,,,,,,,,,,,,,,,800.0,800.0,OVC,800.0,,,,,,
KRDR,06-27-2014,11:58,METAR,Normal,170,10.0,,,9999.0,,19.8,,29.69,1005.5,,,,,,,,,,,,,,.06 IN,,900.0,900.0,OVC,900.0,,,,,,
KRDR,06-27-2014,11:47,SPECI,Normal,170,9.0,,,9999.0,,20.0,20.0,29.69,,,,,,,,,,,,,,,,,900.0,900.0,OVC,900.0,,,,,,
KRDR,06-27-2014,11:17,SPECI,Normal,170,7.0,,,9999.0,,19.0,19.0,29.70,,,,,,,,,,,,,,,,,1100.0,1100.0,BKN,1100.0,BKN,6000.0,,,,
KRDR,06-27-2014,11:13,SPECI,Normal,170,7.0,,,9999.0,,19.0,19.0,29.70,,,,,,,,,,,,,,,,,1200.0,1200.0,BKN,1200.0,BKN,6000.0,,,,
KRDR,06-27-2014,10:58,METAR,Normal,170,8.0,,,9999.0,,19.1,,29.70,1005.9,,,,,,,,,,,,,,,,6000.0,6000.0,BKN,6000.0,,,,,,
KRDR,06-27-2014,09:58,METAR,Normal,170,5.0,,,9999.0,,18.7,18.7,29.71,1006.3,,,,,,,,,,,,,,,Clear,72000.0,,,,,,,,,
KRDR,06-27-2014,08:58,METAR,Normal,170,7.0,,,9999.0,,19.4,19.4,29.73,1007.0,,,,,,,,,,,,,,,Clear,72000.0,,,,,,,,,
KRDR,06-27-2014,07:58,METAR,Normal,180,8.0,,,9999.0,,19.4,,29.73,1007.0,,,,,,,,,,,,,,,Clear,72000.0,,,,,,,,,
KRDR,06-27-2014,06:58,METAR,Normal,170,8.0,,,9999.0,,20.1,,29.72,1006.6,,,,,,,,,,,,,,,Clear,72000.0,,,,,,,,,
KRDR,06-27-2014,05:58,METAR,Normal,170,6.0,,,9999.0,,19.7,19.7,29.74,1007.3,,,,,,,,,,,,,,,Clear,72000.0,,,,,,,,,
KRDR,06-27-2014,04:58,METAR,Normal,130,7.0,,,9999.0,,20.2,20.2,29.77,1008.4,,,,,,,,,,,,,,,Clear,72000.0,,,,,,,,,
KRDR,06-27-2014,03:58,METAR,Normal,140,9.0,,,9999.0,,21.6,21.2,29.77,1008.4,,,,,,,,,,,,,,,,,3900.0,FEW,3900.0,,,,,,
KRDR,06-27-2014,02:58,METAR,Normal,140,9.0,,,9999.0,,22.1,20.9,29.76,1008.1,,,,,,,,,,,,,,,,,3300.0,FEW,3300.0,SCT,4400.0,,,,
KRDR,06-27-2014,01:58,METAR,Normal,120,10.0,,,9999.0,,23.7,21.6,29.75,1007.7,,,,,,,,,,,,,,,,,5000.0,FEW,5000.0,,,,,,
KRDR,06-27-2014,00:58,METAR,Normal,360,3.0,,,9999.0,,24.3,21.1,29.76,1008.0,,,,,,,,,,,,,,,,3300.0,3300.0,BKN,3300.0,OVC,4700.0,,,,
KRDR,06-27-2014,00:18,SPECI,Normal,100,6.0,,,9999.0,,25.0,21.0,29.77,,,,,,,,,,,,,,,,,3000.0,3000.0,OVC,3000.0,,,,,,
KRDR,06-26-2014,23:58,METAR,Normal,100,5.0,,,9999.0,,24.4,20.8,29.77,1008.4,,,,,,,,,,,,,,,,2900.0,2900.0,OVC,2900.0,,,,,,
KRDR,06-26-2014,23:43,SPECI,Normal,130,9.0,,,9999.0,,25.0,21.0,29.77,,,,,,,,,,,,,,,,,2700.0,2700.0,BKN,2700.0,,,,,,
KRDR,06-26-2014,22:58,METAR,Normal,170,5.0,,,9999.0,,24.9,20.9,29.79,1009.1,,,,,,,,,,,,,,,,,2700.0,SCT,2700.0,SCT,11000.0,,,,
KRDR,06-26-2014,21:58,METAR,Normal,150,7.0,,,9999.0,,23.1,20.6,29.81,1009.8,,,,,,,,,,,,,,,,2400.0,2400.0,OVC,2400.0,,,,,,
KRDR,06-26-2014,20:58,METAR,Normal,150,9.0,,,9999.0,,21.9,20.2,29.83,1010.5,,,,,,,,,,,,,,,,2000.0,2000.0,OVC,2000.0,,,,,,
KRDR,06-26-2014,19:58,METAR,Normal,160,10.0,,,9999.0,,21.6,19.4,29.84,1010.8,,,,,,,,,,,,,,,,1900.0,1900.0,OVC,1900.0,,,,,,
KRDR,06-26-2014,18:58,METAR,Normal,130,10.0,,,9999.0,,21.2,18.7,29.85,1011.2,,,,,,,,,,,,,,,,1700.0,1700.0,OVC,1700.0,,,,,,
KRDR,06-26-2014,17:58,METAR,Normal,150,9.0,,,9999.0,,20.7,18.4,29.87,1011.9,,,,,,,,,,,,,.06 IN,,,1500.0,1500.0,OVC,1500.0,,,,,,
KRDR,06-26-2014,17:48,SPECI,Normal,130,10.0,,,9999.0,,20.0,18.0,29.87,,,,,,,,,,,,,,,,,1500.0,1500.0,OVC,1500.0,,,,,,
KRDR,06-26-2014,16:58,METAR,Normal,170,9.0,,,9999.0,,18.2,17.8,29.89,1012.7,,,,,,,,,,,,,,,,1200.0,1200.0,OVC,1200.0,,,,,,
KRDR,06-26-2014,16:03,SPECI,Normal,150,9.0,,,9999.0,,17.0,17.0,29.90,,,,,,,,,,,,,,,,,1000.0,1000.0,OVC,1000.0,,,,,,
KRDR,06-26-2014,15:58,METAR,Normal,160,9.0,,,9999.0,,17.1,16.9,29.90,1013.0,,,,,,,,,,,,,,,,900.0,900.0,OVC,900.0,,,,,,
KRDR,06-26-2014,14:58,METAR,Normal,160,9.0,,,9999.0,,15.7,,29.91,1013.3,,,,,,,,,,,,.06 IN,,,,900.0,900.0,OVC,900.0,,,,,,
KRDR,06-26-2014,14:33,SPECI,Normal,160,9.0,,,9999.0,,15.0,15.0,29.91,,,,,,,,,,,,,,,,,900.0,900.0,BKN,900.0,BKN,11000.0,,,,
KRDR,06-26-2014,13:58,METAR,Normal,140,12.0,,,9999.0,,15.1,,29.91,1013.3,,,,,,,,,,,.01 IN,,,,,,600.0,FEW,600.0,SCT,11000.0,,,,
KRDR,06-26-2014,13:46,SPECI,Normal,150,13.0,20.0,,9999.0,,15.0,15.0,29.90,,,,,,,,,,,,,,,,,,600.0,SCT,600.0,,,,,,
KRDR,06-26-2014,13:43,SPECI,Normal,150,14.0,20.0,,9999.0,Light Drizzle,15.0,15.0,29.90,,51,,,,,,,,,,,,,,,,600.0,SCT,600.0,,,,,,
KRDR,06-26-2014,13:03,SPECI,Normal,140,12.0,,,9999.0,Light Drizzle,15.0,15.0,29.92,,51,,,,,,,,,,,,,,,600.0,600.0,BKN,600.0,,,,,,
KRDR,06-26-2014,12:58,METAR,Normal,140,11.0,18.0,,9999.0,Light Drizzle,15.0,,29.93,1013.9,51,,,,,,,,,,.05 IN,,,,,1100.0,600.0,SCT,600.0,BKN,1100.0,,,,
KRDR,06-26-2014,12:57,SPECI,Normal,140,11.0,18.0,,9999.0,Light Drizzle,15.0,15.0,29.93,,51,,,,,,,,,,,,,,,1100.0,600.0,SCT,600.0,BKN,1100.0,,,,
KRDR,06-26-2014,12:47,SPECI,Normal,140,11.0,,,9999.0,Light Drizzle,15.0,15.0,29.93,,51,,,,,,,,,,,,,,,2500.0,600.0,FEW,600.0,BKN,2500.0,,,,
KRDR,06-26-2014,12:42,SPECI,Normal,140,9.0,,,9999.0,Light Rain,15.0,15.0,29.93,,61,,,,,,,,,,,,,,,4600.0,600.0,FEW,600.0,SCT,3100.0,BKN,4600.0,,
KRDR,06-26-2014,11:58,METAR,Normal,140,9.0,,,9999.0,Light Rain,15.1,,29.95,1014.6,61,,,,,,,,,,.02 IN,,.02 IN,.02 IN,,,1200.0,FEW,1200.0,SCT,7000.0,,,,
KRDR,06-26-2014,11:42,SPECI,Normal,150,6.0,,,9999.0,Light Rain,15.0,15.0,29.95,,61,,,,,,,,,,,,,,,,2200.0,FEW,2200.0,SCT,7000.0,SCT,9100.0,,
KRDR,06-26-2014,11:34,SPECI,Normal,160,7.0,,,9999.0,,15.0,15.0,29.95,,,,,,,,,,,,,,,,,7000.0,3400.0,FEW,3400.0,BKN,7000.0,BKN,9100.0,,
KRDR,06-26-2014,11:12,SPECI,Normal,150,10.0,,,9999.0,Light Rain,15.0,15.0,29.95,,61,,,,,,,,,,,,,,,7000.0,3100.0,SCT,3100.0,SCT,4100.0,OVC,7000.0,,
KRDR,06-26-2014,10:58,METAR,Normal,160,6.0,,,9999.0,,15.2,15.2,29.96,1015.0,,,,,,,,,,,,,,,,3100.0,3100.0,BKN,3100.0,BKN,4100.0,OVC,7500.0,,
KRDR,06-26-2014,09:58,METAR,Normal,150,6.0,,,9999.0,,14.9,14.9,29.96,1015.0,,,,,,,,,,,,,,,,12000.0,12000.0,BKN,12000.0,,,,,,
KRDR,06-26-2014,08:58,METAR,Normal,150,4.0,,,9999.0,,15.0,15.0,29.97,1015.3,,,,,,,,,,,,,,,,8500.0,8500.0,BKN,8600.0,OVC,11000.0,,,,
KRDR,06-26-2014,07:58,METAR,Normal,140,6.0,,,9999.0,,14.8,14.8,29.98,1015.7,,,,,,,,,,,,,,,Clear,72000.0,,,,,,,,,
KRDR,06-26-2014,06:58,METAR,Normal,130,6.0,,,9999.0,,14.7,14.7,29.99,1016.0,,,,,,,,,,,,,,,Clear,72000.0,,,,,,,,,
KRDR,06-26-2014,05:58,METAR,Normal,130,5.0,,,9999.0,,14.7,14.7,30.00,1016.3,,,,,,,,,,,,,,,Clear,72000.0,,,,,,,,,
KRDR,06-26-2014,04:58,METAR,Normal,140,5.0,,,9999.0,,15.3,15.2,30.00,1016.4,,,,,,,,,,,,,,,Clear,72000.0,,,,,,,,,
KRDR,06-26-2014,03:58,METAR,Normal,130,6.0,,,9999.0,,16.1,15.9,30.00,1016.4,,,,,,,,,,,,,,,Clear,72000.0,,,,,,,,,
KRDR,06-26-2014,02:58,METAR,Normal,150,6.0,,,9999.0,,17.4,16.7,30.00,1016.4,,,,,,,,,,,,,,,Clear,72000.0,,,,,,,,,
KRDR,06-26-2014,01:58,METAR,Normal,120,8.0,,,9999.0,,18.9,16.6,30.00,1016.4,,,,,,,,,,,,,,,Clear,72000.0,,,,,,,,,
KRDR,06-26-2014,00:58,METAR,Normal,120,5.0,,,9999.0,,20.3,16.3,30.00,1016.4,,,,,,,,,,,,,,,Clear,72000.0,,,,,,,,,
KRDR,06-25-2014,23:58,METAR,Normal,120,8.0,,,9999.0,,21.3,16.2,30.00,1016.3,,,,,,,,,,,,,,,,,3200.0,FEW,3200.0,SCT,6500.0,,,,
KRDR,06-25-2014,22:58,METAR,Normal,120,8.0,,,9999.0,,21.0,16.1,30.02,1017.0,,,,,,,,,,,,,,,,3300.0,2600.0,SCT,2600.0,BKN,3300.0,OVC,5000.0,,
KRDR,06-25-2014,22:53,SPECI,Normal,120,10.0,,,9999.0,,21.0,16.0,30.02,,,,,,,,,,,,,,,,,3300.0,2700.0,SCT,2700.0,BKN,3300.0,OVC,5000.0,,
KRDR,06-25-2014,22:48,SPECI,Normal,120,9.0,,,9999.0,,21.0,16.0,30.02,,,,,,,,,,,,,,,,,2900.0,2900.0,BKN,2900.0,BKN,3400.0,OVC,5000.0,,
KRDR,06-25-2014,21:58,METAR,Normal,110,8.0,,,9999.0,,20.9,16.4,30.03,1017.4,,,,,,,,,,,,,,,,5500.0,5500.0,OVC,5500.0,,,,,,
KRDR,06-25-2014,21:03,SPECI,Normal,140,10.0,,,9999.0,,22.0,17.0,30.03,,,,,,,,,,,,,,,,,3700.0,2900.0,SCT,2900.0,BKN,3700.0,BKN,5500.0,,
KRDR,06-25-2014,20:58,METAR,Normal,130,8.0,,,9999.0,,21.9,16.6,30.03,1017.4,,,,,,,,,,,,,,,,2800.0,2800.0,BKN,2800.0,BKN,3800.0,,,,
KRDR,06-25-2014,19:58,METAR,Normal,110,9.0,,,9999.0,,20.5,15.9,30.05,1018.0,,,,,,,,,,,,,,,,4000.0,2600.0,SCT,2600.0,BKN,4000.0,OVC,4900.0,,
KRDR,06-25-2014,19:33,SPECI,Normal,80,6.0,,,9999.0,,20.0,16.0,30.05,,,,,,,,,,,,,,,,,2500.0,2500.0,BKN,2500.0,BKN,3600.0,OVC,5500.0,,
KRDR,06-25-2014,19:23,SPECI,Normal,90,8.0,,,9999.0,,20.0,16.0,30.05,,,,,,,,,,,,,,,,,3700.0,2400.0,SCT,2400.0,BKN,3700.0,OVC,4800.0,,
KRDR,06-25-2014,18:58,METAR,Normal,110,8.0,,,9999.0,,19.8,16.1,30.05,1018.1,,,,,,,,,,,,,,,,2500.0,2500.0,OVC,2500.0,,,,,,
KRDR,06-25-2014,18:48,SPECI,Normal,100,5.0,,,9999.0,,20.0,16.0,30.06,,,,,,,,,,,,,,,,,2600.0,2600.0,BKN,2600.0,OVC,3300.0,,,,
KRDR,06-25-2014,17:58,METAR,Normal,110,7.0,,,9999.0,,20.5,16.9,30.05,1018.1,,,,,,,,,,,,,,,,3500.0,1700.0,FEW,1700.0,SCT,2200.0,BKN,3500.0,,
KRDR,06-25-2014,17:13,SPECI,Normal,100,5.0,,,9999.0,,20.0,18.0,30.05,,,,,,,,,,,,,,,,,1500.0,1500.0,BKN,1500.0,,,,,,
KRDR,06-25-2014,17:08,SPECI,Normal,130,8.0,,,9999.0,,19.0,18.0,30.05,,,,,,,,,,,,,,,,,1400.0,1400.0,BKN,1400.0,,,,,,
KRDR,06-25-2014,17:03,SPECI,Normal,130,5.0,,,9999.0,,19.0,18.0,30.05,,,,,,,,,,,,,,,,,1500.0,1500.0,OVC,1500.0,,,,,,
KRDR,06-25-2014,16:58,METAR,Normal,120,6.0,,,9999.0,,18.9,18.0,30.05,1018.1,,,,,,,,,,,,,,,,1300.0,1300.0,BKN,1300.0,OVC,1800.0,,,,
KRDR,06-25-2014,16:56,SPECI,Normal,110,7.0,,,9999.0,,19.0,18.0,30.05,,,,,,,,,,,,,,,,,1500.0,1500.0,OVC,1500.0,,,,,,
KRDR,06-25-2014,16:46,SPECI,Normal,110,5.0,,,9999.0,,18.0,18.0,30.05,,,,,,,,,,,,,,,,,1300.0,1300.0,OVC,1300.0,,,,,,
KRDR,06-25-2014,16:26,SPECI,Normal,110,6.0,,,9999.0,,18.0,18.0,30.06,,,,,,,,,,,,,,,,,1000.0,1000.0,OVC,1000.0,,,,,,
KRDR,06-25-2014,15:58,METAR,Variable,,3.0,,,9999.0,,16.7,16.7,30.07,1018.8,,,,,,,,,,,,,,,,700.0,700.0,OVC,700.0,,,,,,
KRDR,06-25-2014,15:33,SPECI,Normal,60,4.0,,,9999.0,,16.0,16.0,30.07,,,,,,,,,,,,,,,,,700.0,700.0,OVC,700.0,,,,,,
KRDR,06-25-2014,15:13,SPECI,Normal,60,4.0,,,9999.0,,16.0,16.0,30.08,,,,,,,,,,,,,,,,,600.0,600.0,OVC,600.0,,,,,,
KRDR,06-25-2014,15:03,SPECI,Normal,60,3.0,,,9999.0,,16.0,16.0,30.08,,,,,,,,,,,,,,,,,500.0,500.0,OVC,500.0,,,,,,
KRDR,06-25-2014,14:58,METAR,Normal,50,5.0,,,9999.0,,15.6,15.6,30.08,1019.2,,,,,,,,,,,,,,,,400.0,400.0,OVC,400.0,,,,,,
KRDR,06-25-2014,14:33,SPECI,Normal,50,4.0,,,4800.0,Mist,15.0,15.0,30.08,,10,,,,,,,,,,,,,,,400.0,400.0,OVC,400.0,,,,,,
KRDR,06-25-2014,14:23,SPECI,Normal,50,5.0,,,4800.0,Mist,15.0,15.0,30.07,,10,,,,,,,,,,,,,,,300.0,300.0,OVC,300.0,,,,,,
KRDR,06-25-2014,14:03,SPECI,Normal,70,5.0,,,3200.0,Mist,15.0,15.0,30.07,,10,,,,,,,,,,,,,,,200.0,200.0,OVC,200.0,,,,,,
KRDR,06-25-2014,13:58,METAR,Normal,80,6.0,,,2800.0,Mist,14.6,14.6,30.07,1018.8,10,,,,,,,,,,,,,,,200.0,200.0,OVC,200.0,,,,,,
KRDR,06-25-2014,13:48,SPECI,Normal,80,5.0,,,3200.0,Mist,15.0,15.0,30.07,,10,,,,,,,,,,,,,,,200.0,200.0,OVC,200.0,,,,,,
KRDR,06-25-2014,13:38,SPECI,Normal,70,5.0,,,6400.0,Mist,15.0,15.0,30.07,,10,,,,,,,,,,,,,,,200.0,200.0,OVC,200.0,,,,,,
KRDR,06-25-2014,13:33,SPECI,Normal,70,5.0,,,2400.0,Mist,15.0,15.0,30.07,,10,,,,,,,,,,,,,,,200.0,200.0,OVC,200.0,,,,,,
KRDR,06-25-2014,13:28,SPECI,Normal,50,5.0,,,1200.0,Mist,15.0,15.0,30.07,,10,,,,,,,,,,,,,,,200.0,200.0,OVC,200.0,,,,,,
KRDR,06-25-2014,13:18,SPECI,Normal,50,5.0,,,1200.0,Mist,14.0,14.0,30.07,,10,,,,,,,,,,,,,,,200.0,200.0,OVC,200.0,,,,,,
KRDR,06-25-2014,13:13,SPECI,Normal,60,5.0,,,1200.0,Mist,15.0,15.0,30.07,,10,,,,,,,,,,,,,,,200.0,200.0,OVC,200.0,,,,,,
KRDR,06-25-2014,13:08,SPECI,Normal,50,5.0,,,2000.0,Mist,14.0,14.0,30.07,,10,,,,,,,,,,,,,,,200.0,200.0,OVC,200.0,,,,,,
KRDR,06-25-2014,13:03,SPECI,Normal,70,6.0,,,4000.0,Mist,14.0,14.0,30.07,,10,,,,,,,,,,,,,,,200.0,200.0,OVC,200.0,,,,,,
KRDR,06-25-2014,12:58,METAR,Normal,70,6.0,,,6400.0,Mist,14.4,14.4,30.07,1018.9,10,,,,,,,,,,,,,,,200.0,200.0,OVC,200.0,,,,,,
KRDR,06-25-2014,11:58,METAR,Normal,30,7.0,,,9999.0,,14.1,14.1,30.06,1018.6,,,,,,,,,,,,,.01 IN,.14 IN,,300.0,300.0,OVC,300.0,,,,,,
KRDR,06-25-2014,10:58,METAR,Normal,30,7.0,,,6400.0,Mist,13.8,13.8,30.06,1018.6,10,,,,,,,,,,,,,,,200.0,200.0,OVC,200.0,,,,,,
KRDR,06-25-2014,09:58,METAR,Normal,30,7.0,,,9999.0,,13.8,13.8,30.06,1018.6,,,,,,,,,,,.01 IN,,,,,300.0,300.0,OVC,300.0,,,,,,
KRDR,06-25-2014,09:33,SPECI,Normal,30,8.0,,,9999.0,,14.0,14.0,30.06,,,,,,,,,,,,,,,,,300.0,300.0,OVC,300.0,,,,,,
KRDR,06-25-2014,09:13,SPECI,Normal,20,5.0,,,9999.0,,14.0,14.0,30.06,,,,,,,,,,,,,,,,,400.0,400.0,OVC,400.0,,,,,,
KRDR,06-25-2014,09:08,SPECI,Normal,20,5.0,,,9999.0,Mist,14.0,14.0,30.06,,10,,,,,,,,,,,,,,,500.0,500.0,OVC,500.0,,,,,,
KRDR,06-25-2014,09:03,SPECI,Normal,10,7.0,,,8000.0,Mist,14.0,14.0,30.06,,10,,,,,,,,,,,,,,,400.0,400.0,OVC,400.0,,,,,,
KRDR,06-25-2014,08:58,METAR,Normal,20,6.0,,,6400.0,Mist,13.8,13.8,30.06,1018.6,10,,,,,,,,,,TRACE,TRACE,,,,400.0,400.0,OVC,400.0,,,,,,
KRDR,06-25-2014,08:55,SPECI,Normal,20,6.0,,,8000.0,Mist,14.0,14.0,30.06,,10,,,,,,,,,,,,,,,400.0,400.0,OVC,400.0,,,,,,
KRDR,06-25-2014,08:53,SPECI,Normal,20,5.0,,,8000.0,Light Drizzle/Mist,14.0,14.0,30.06,,51,10,,,,,,,,,,,,,,400.0,400.0,OVC,400.0,,,,,,
KRDR,06-25-2014,08:48,SPECI,Normal,30,7.0,,,9999.0,Light Drizzle/Mist,14.0,14.0,30.06,,51,10,,,,,,,,,,,,,,500.0,500.0,OVC,500.0,,,,,,
KRDR,06-25-2014,08:43,SPECI,Normal,20,6.0,,,9999.0,Light Drizzle,14.0,14.0,30.06,,51,,,,,,,,,,,,,,,500.0,500.0,OVC,500.0,,,,,,
KRDR,06-25-2014,08:20,SPECI,Normal,10,5.0,,,9999.0,,14.0,14.0,30.06,,,,,,,,,,,,,,,,,500.0,500.0,OVC,500.0,,,,,,
KRDR,06-25-2014,08:15,SPECI,Normal,20,6.0,,,9999.0,,14.0,14.0,30.05,,,,,,,,,,,,,,,,,600.0,600.0,OVC,600.0,,,,,,
KRDR,06-25-2014,08:10,SPECI,Normal,20,5.0,,,9999.0,,14.0,14.0,30.05,,,,,,,,,,,,,,,,,700.0,700.0,OVC,700.0,,,,,,
KRDR,06-25-2014,08:05,SPECI,Normal,30,7.0,,,9999.0,,14.0,14.0,30.06,,,,,,,,,,,,,,,,,600.0,600.0,OVC,600.0,,,,,,
KRDR,06-25-2014,08:03,SPECI,Normal,30,7.0,,,9999.0,Light Drizzle/Mist,14.0,14.0,30.05,,51,10,,,,,,,,,,,,,,600.0,600.0,OVC,600.0,,,,,,
KRDR,06-25-2014,07:58,METAR,Normal,20,5.0,,,9999.0,Light Drizzle/Mist,14.0,14.0,30.05,1018.2,51,10,,,,,,,,,TRACE,,,,,700.0,700.0,OVC,700.0,,,,,,
KRDR,06-25-2014,07:55,SPECI,Normal,30,6.0,,,9999.0,Light Drizzle,14.0,14.0,30.05,,51,,,,,,,,,,,,,,,700.0,700.0,OVC,700.0,,,,,,
KRDR,06-25-2014,07:28,SPECI,Normal,40,6.0,,,9999.0,,14.0,14.0,30.05,,,,,,,,,,,,,,,,,800.0,800.0,OVC,800.0,,,,,,
KRDR,06-25-2014,06:58,METAR,Normal,30,5.0,,,9999.0,,14.3,14.3,30.06,1018.6,,,,,,,,,,,,,,,,900.0,900.0,OVC,900.0,,,,,,
KRDR,06-25-2014,06:13,SPECI,Normal,10,5.0,,,9999.0,,14.0,14.0,30.06,,,,,,,,,,,,,,,,,900.0,900.0,OVC,900.0,,,,,,
KRDR,06-25-2014,06:03,SPECI,Normal,360,5.0,,,9999.0,,14.0,14.0,30.06,,,,,,,,,,,,,,,,,1000.0,1000.0,OVC,1000.0,,,,,,
KRDR,06-25-2014,05:58,METAR,Normal,10,6.0,,,9999.0,,14.2,14.2,30.06,1018.6,,,,,,,,,,,.01 IN,,.02 IN,,,900.0,900.0,OVC,900.0,,,,,,
KRDR,06-25-2014,05:49,SPECI,Normal,10,7.0,,,9999.0,,14.0,14.0,30.06,,,,,,,,,,,,,,,,,600.0,900.0,OVC,900.0,,,,,,
KRDR,06-25-2014,05:43,SPECI,Normal,360,6.0,,,9999.0,Light Rain,14.0,14.0,30.06,,61,,,,,,,,,,,,,,,600.0,1100.0,OVC,1100.0,,,,,,
KRDR,06-25-2014,05:33,SPECI,Normal,340,5.0,,,9999.0,Light Drizzle,14.0,14.0,30.06,,51,,,,,,,,,,,,,,,600.0,600.0,OVC,600.0,,,,,,
KRDR,06-25-2014,05:18,SPECI,Normal,340,5.0,,,9999.0,Light Drizzle,14.0,14.0,30.05,,51,,,,,,,,,,,,,,,600.0,600.0,OVC,600.0,,,,,,
KRDR,06-25-2014,05:08,SPECI,Normal,10,5.0,,,9999.0,Light Drizzle/Mist,14.0,14.0,30.05,,51,10,,,,,,,,,,,,,,1300.0,700.0,SCT,700.0,OVC,1300.0,,,,
KRDR,06-25-2014,05:03,SPECI,Normal,20,6.0,,,8000.0,Light Drizzle/Mist,14.0,14.0,30.05,,51,10,,,,,,,,,,,,,,700.0,700.0,SCT,700.0,OVC,1300.0,,,,
KRDR,06-25-2014,04:58,METAR,Normal,20,6.0,,,8000.0,Light Drizzle/Mist,14.6,14.6,30.05,1018.2,51,10,,,,,,,,,TRACE,,,,,700.0,700.0,BKN,700.0,OVC,1400.0,,,,
KRDR,06-25-2014,04:55,SPECI,Normal,30,6.0,,,9999.0,Light Drizzle/Mist,15.0,15.0,30.05,,51,10,,,,,,,,,,,,,,700.0,700.0,BKN,700.0,OVC,1400.0,,,,
KRDR,06-25-2014,04:52,SPECI,Normal,20,6.0,,,9999.0,,15.0,15.0,30.05,,,,,,,,,,,,,,,,,700.0,700.0,BKN,700.0,OVC,1500.0,,,,
KRDR,06-25-2014,04:22,SPECI,Normal,30,6.0,,,9999.0,,15.0,15.0,30.05,,,,,,,,,,,,,,,,,900.0,900.0,BKN,900.0,OVC,1500.0,,,,
KRDR,06-25-2014,04:02,SPECI,Normal,40,7.0,,,9999.0,,15.0,15.0,30.04,,,,,,,,,,,,,,,,,1100.0,1100.0,BKN,1100.0,OVC,1800.0,,,,
KRDR,06-25-2014,03:58,METAR,Normal,30,7.0,,,9999.0,,14.7,14.7,30.04,1017.9,,,,,,,,,,,.01 IN,,,,,1200.0,1200.0,OVC,1200.0,,,,,,
KRDR,06-25-2014,03:27,SPECI,Normal,40,7.0,,,9999.0,,15.0,15.0,30.05,,,,,,,,,,,,,,,,,1100.0,800.0,FEW,800.0,BKN,1200.0,OVC,1700.0,,
KRDR,06-25-2014,03:22,SPECI,Normal,30,6.0,,,9999.0,,15.0,15.0,30.05,,,,,,,,,,,,,,,,,1100.0,800.0,FEW,800.0,OVC,1400.0,,,,
KRDR,06-25-2014,03:18,SPECI,Normal,30,7.0,,,9999.0,Light Drizzle,15.0,15.0,30.05,,51,,,,,,,,,,,,,,,1100.0,900.0,SCT,900.0,OVC,1500.0,,,,
KRDR,06-25-2014,03:08,SPECI,Normal,50,6.0,,,9999.0,Light Rain,15.0,15.0,30.05,,61,,,,,,,,,,,,,,,1200.0,700.0,SCT,700.0,OVC,1200.0,,,,
KRDR,06-25-2014,03:03,SPECI,Normal,40,9.0,,,9999.0,Light Drizzle,15.0,15.0,30.05,,51,,,,,,,,,,,,,,,900.0,900.0,OVC,900.0,,,,,,
KRDR,06-25-2014,02:58,METAR,Normal,30,7.0,,,9999.0,Light Drizzle,15.0,15.0,30.05,1018.2,51,,,,,,,,,,TRACE,TRACE,,,,700.0,1000.0,OVC,1000.0,,,,,,
KRDR,06-25-2014,02:55,SPECI,Normal,20,6.0,,,9999.0,Light Drizzle,15.0,15.0,30.05,,51,,,,,,,,,,,,,,,700.0,1000.0,OVC,1000.0,,,,,,
KRDR,06-25-2014,02:50,SPECI,Normal,20,6.0,,,9999.0,Light Drizzle,15.0,15.0,30.05,,51,,,,,,,,,,,,,,,700.0,700.0,BKN,700.0,OVC,1200.0,,,,
KRDR,06-25-2014,02:45,SPECI,Normal,20,6.0,,,9999.0,Light Drizzle,15.0,15.0,30.05,,51,,,,,,,,,,,,,,,900.0,700.0,SCT,700.0,OVC,1200.0,,,,
KRDR,06-25-2014,02:40,SPECI,Normal,20,6.0,,,9999.0,Light Drizzle/Mist,15.0,15.0,30.05,,51,10,,,,,,,,,,,,,,1000.0,1000.0,BKN,1000.0,OVC,1500.0,,,,
KRDR,06-25-2014,02:27,SPECI,Normal,20,5.0,,,9999.0,Light Drizzle,15.0,15.0,30.05,,51,,,,,,,,,,,,,,,1300.0,1300.0,OVC,1300.0,,,,,,
KRDR,06-25-2014,02:17,SPECI,Normal,10,6.0,,,9999.0,,15.0,15.0,30.04,,,,,,,,,,,,,,,,,1300.0,1300.0,OVC,1300.0,,,,,,
KRDR,06-25-2014,02:07,SPECI,Normal,10,9.0,,,9999.0,,16.0,16.0,30.04,,,,,,,,,,,,,,,,,1100.0,1100.0,OVC,1100.0,,,,,,
KRDR,06-25-2014,01:58,METAR,Normal,30,9.0,,,9999.0,,15.6,15.5,30.04,1017.8,,,,,,,,,,,,,,,,1200.0,1200.0,OVC,1200.0,,,,,,
KRDR,06-25-2014,01:38,SPECI,Normal,20,7.0,,,9999.0,,16.0,16.0,30.04,,,,,,,,,,,,,,,,,1300.0,1300.0,OVC,1300.0,,,,,,
KRDR,06-25-2014,00:58,METAR,Normal,30,7.0,,,9999.0,,16.0,15.8,30.04,1017.9,,,,,,,,,,,,,,,,1000.0,1000.0,OVC,1000.0,,,,,,
KRDR,06-25-2014,00:28,SPECI,Normal,40,8.0,,,9999.0,,16.0,16.0,30.03,,,,,,,,,,,,,,,,,1000.0,1000.0,OVC,1000.0,,,,,,
KRDR,06-25-2014,00:08,SPECI,Normal,20,7.0,,,9999.0,,16.0,16.0,30.03,,,,,,,,,,,,,,,,,900.0,900.0,OVC,900.0,,,,,,
KRDR,06-24-2014,23:58,METAR,Normal,30,8.0,,,9999.0,,16.1,15.9,30.03,1017.5,,,,,,,,,,,,,TRACE,,,1000.0,1000.0,OVC,1000.0,,,,,,
KRDR,06-24-2014,22:58,METAR,Normal,10,10.0,,,9999.0,,16.3,16.1,30.04,1017.8,,,,,,,,,,,,,,,,1000.0,1000.0,BKN,1000.0,OVC,1400.0,,,,
KRDR,06-24-2014,22:18,SPECI,Normal,20,11.0,,,9999.0,,16.0,16.0,30.03,,,,,,,,,,,,,,,,,900.0,900.0,OVC,900.0,,,,,,
KRDR,06-24-2014,21:58,METAR,Variable,10,10.0,,,9999.0,,16.1,15.9,30.03,1017.5,,,,,,,,,,,,,,,,1000.0,1000.0,OVC,1000.0,,,,,,
KRDR,06-24-2014,20:58,METAR,Normal,10,11.0,19.0,,9999.0,,16.1,15.9,30.03,1017.5,,,,,,,,,,,,TRACE,,,,1000.0,1000.0,OVC,1000.0,,,,,,
KRDR,06-24-2014,20:48,SPECI,Variable,360,12.0,,,9999.0,,16.0,16.0,30.03,,,,,,,,,,,,,,,,,1000.0,1000.0,OVC,1000.0,,,,,,
KRDR,06-24-2014,19:58,METAR,Variable,350,14.0,20.0,,9999.0,,15.5,15.3,30.02,1017.1,,,,,,,,,,,,,,,,700.0,700.0,OVC,700.0,,,,,,
KRDR,06-24-2014,18:58,METAR,Normal,10,12.0,,,9999.0,,15.6,15.5,30.02,1017.1,,,,,,,,,,,TRACE,,,,,800.0,800.0,OVC,800.0,,,,,,
KRDR,06-24-2014,18:27,SPECI,Normal,360,11.0,,,9999.0,,15.0,15.0,30.01,,,,,,,,,,,,,,,,,700.0,700.0,OVC,700.0,,,,,,
KRDR,06-24-2014,18:17,SPECI,Normal,360,11.0,,,9999.0,,15.0,15.0,30.01,,,,,,,,,,,,,,,,,600.0,600.0,OVC,600.0,,,,,,
KRDR,06-24-2014,18:12,SPECI,Normal,10,10.0,,,9999.0,,15.0,15.0,30.01,,,,,,,,,,,,,,,,,500.0,500.0,OVC,500.0,,,,,,
KRDR,06-24-2014,18:03,SPECI,Normal,10,11.0,15.0,,6400.0,Light Rain/Mist,15.0,15.0,30.01,,61,10,,,,,,,,,,,,,,500.0,500.0,OVC,500.0,,,,,,
KRDR,06-24-2014,17:58,METAR,Normal,10,10.0,,,3200.0,Light Rain/Mist,15.2,15.2,30.01,1016.8,61,10,,,,,,,,,.07 IN,,.11 IN,,,400.0,400.0,BKN,400.0,OVC,900.0,,,,
KRDR,06-24-2014,17:49,SPECI,Normal,10,10.0,,,3200.0,Rain/Mist,15.0,15.0,30.01,,62,10,,,,,,,,,,,,,,500.0,500.0,BKN,500.0,OVC,900.0,,,,
KRDR,06-24-2014,17:34,SPECI,Normal,360,13.0,,,9999.0,Light Rain,15.0,15.0,30.00,,61,,,,,,,,,,,,,,,700.0,700.0,OVC,700.0,,,,,,
KRDR,06-24-2014,17:24,SPECI,Normal,360,11.0,,,6400.0,Light Rain/Mist,15.0,15.0,30.00,,61,10,,,,,,,,,,,,,,600.0,600.0,BKN,600.0,OVC,1300.0,,,,
KRDR,06-24-2014,17:14,SPECI,Normal,360,9.0,18.0,,6400.0,Light Rain/Mist,15.0,15.0,30.00,,61,10,,,,,,,,,,,,,,600.0,800.0,OVC,800.0,,,,,,
KRDR,06-24-2014,17:09,SPECI,Variable,360,13.0,18.0,,4800.0,Light Rain/Mist,15.0,15.0,30.00,,61,10,,,,,,,,,,,,,,600.0,600.0,BKN,600.0,OVC,1200.0,,,,
KRDR,06-24-2014,17:07,SPECI,Normal,360,13.0,18.0,,6400.0,Mist,15.0,15.0,30.00,,10,,,,,,,,,,,,,,,600.0,600.0,BKN,600.0,OVC,1200.0,,,,
KRDR,06-24-2014,16:58,METAR,Normal,360,11.0,,,8000.0,Light Rain/Mist,15.0,,30.00,1016.5,61,10,,,,,,,,,TRACE,,,,,600.0,600.0,OVC,600.0,,,,,,
KRDR,06-24-2014,16:54,SPECI,Normal,350,12.0,17.0,,8000.0,Light Rain/Mist,15.0,15.0,30.00,,61,10,,,,,,,,,,,,,,600.0,600.0,OVC,600.0,,,,,,
KRDR,06-24-2014,16:44,SPECI,Normal,360,12.0,,,9999.0,Light Rain,15.0,15.0,30.00,,61,,,,,,,,,,,,,,,700.0,700.0,OVC,700.0,,,,,,
KRDR,06-24-2014,15:58,METAR,Normal,360,12.0,,,9999.0,,14.9,,29.99,1016.1,,,,,,,,,,,.02 IN,,,,,700.0,700.0,OVC,700.0,,,,,,
KRDR,06-24-2014,15:42,SPECI,Normal,360,11.0,,,9999.0,,15.0,15.0,29.98,,,,,,,,,,,,,,,,,700.0,700.0,OVC,700.0,,,,,,
KRDR,06-24-2014,15:03,SPECI,Normal,350,11.0,,,9999.0,Light Rain,14.0,14.0,29.98,,61,,,,,,,,,,,,,,,600.0,600.0,OVC,600.0,,,,,,
KRDR,06-24-2014,14:58,METAR,Normal,350,11.0,,,9999.0,Light Rain,14.3,,29.98,1015.7,61,,,,,,,,,,.02 IN,.02 IN,,,,500.0,500.0,OVC,500.0,,,,,,
KRDR,06-24-2014,14:57,SPECI,Normal,350,11.0,,,9999.0,Light Rain,14.0,14.0,29.98,,61,,,,,,,,,,,,,,,500.0,500.0,OVC,500.0,,,,,,
KRDR,06-24-2014,14:52,SPECI,Normal,350,9.0,,,9999.0,Light Rain/Mist,14.0,14.0,29.99,,61,10,,,,,,,,,,,,,,600.0,600.0,OVC,600.0,,,,,,
KRDR,06-24-2014,14:47,SPECI,Normal,350,10.0,,,8000.0,Light Rain/Mist,14.0,14.0,29.98,,61,10,,,,,,,,,,,,,,500.0,500.0,OVC,500.0,,,,,,
KRDR,06-24-2014,14:42,SPECI,Normal,350,12.0,,,6400.0,Light Rain/Mist,14.0,14.0,29.98,,61,10,,,,,,,,,,,,,,600.0,600.0,OVC,600.0,,,,,,
KRDR,06-24-2014,14:38,SPECI,Normal,350,12.0,,,8000.0,Mist,14.0,14.0,29.98,,10,,,,,,,,,,,,,,,600.0,600.0,OVC,600.0,,,,,,
KRDR,06-24-2014,14:35,SPECI,Normal,360,11.0,,,8000.0,Light Rain/Mist,14.0,14.0,29.98,,61,10,,,,,,,,,,,,,,600.0,600.0,OVC,600.0,,,,,,
KRDR,06-24-2014,14:34,SPECI,Normal,350,10.0,,,8000.0,Mist,14.0,14.0,29.98,,10,,,,,,,,,,,,,,,600.0,600.0,OVC,600.0,,,,,,
KRDR,06-24-2014,14:15,SPECI,Normal,350,12.0,,,9999.0,Light Rain,15.0,15.0,29.98,,61,,,,,,,,,,,,,,,600.0,600.0,OVC,600.0,,,,,,
KRDR,06-24-2014,14:05,SPECI,Normal,360,10.0,,,9999.0,Light Rain,15.0,15.0,29.98,,61,,,,,,,,,,,,,,,700.0,700.0,OVC,700.0,,,,,,
KRDR,06-24-2014,13:58,METAR,Normal,360,11.0,,,9999.0,,15.1,14.9,29.97,1015.4,,,,,,,,,,,,,,,,800.0,800.0,OVC,800.0,,,,,,
KRDR,06-24-2014,12:58,METAR,Variable,350,11.0,,,9999.0,,14.3,,29.96,1015.0,,,,,,,,,,,TRACE,,,,,700.0,700.0,OVC,700.0,,,,,,
KRDR,06-24-2014,12:43,SPECI,Normal,350,10.0,,,9999.0,,14.0,14.0,29.96,,,,,,,,,,,,,,,,,700.0,700.0,OVC,700.0,,,,,,
KRDR,06-24-2014,12:32,SPECI,Normal,350,9.0,,,9999.0,Light Drizzle,14.0,14.0,29.95,,51,,,,,,,,,,,,,,,700.0,700.0,OVC,700.0,,,,,,
KRDR,06-24-2014,12:18,SPECI,Normal,340,8.0,,,9999.0,,15.0,15.0,29.95,,,,,,,,,,,,,,,,,700.0,700.0,OVC,700.0,,,,,,
KRDR,06-24-2014,11:58,METAR,Normal,340,13.0,,,9999.0,,14.5,,29.95,1014.6,,,,,,,,,,,,,,.01 IN,,600.0,600.0,OVC,600.0,,,,,,
KRDR,06-24-2014,10:58,METAR,Normal,360,11.0,,,9999.0,,15.0,14.9,29.94,1014.2,,,,,,,,,,,,,,,,600.0,600.0,OVC,600.0,,,,,,
KRDR,06-24-2014,09:58,METAR,Normal,340,10.0,15.0,,9999.0,,15.5,15.3,29.93,1013.8,,,,,,,,,,,,,,,,700.0,700.0,OVC,700.0,,,,,,
KRDR,06-24-2014,08:58,METAR,Normal,340,10.0,15.0,,9999.0,,15.8,15.6,29.93,1013.8,,,,,,,,,,,,,,,,800.0,800.0,OVC,800.0,,,,,,
KRDR,06-24-2014,07:58,METAR,Normal,350,10.0,,,9999.0,,16.1,15.9,29.93,1013.8,,,,,,,,,,,,,,,,800.0,800.0,OVC,800.0,,,,,,
KRDR,06-24-2014,06:58,METAR,Normal,350,11.0,,,9999.0,,16.6,16.4,29.92,1013.4,,,,,,,,,,,,,,,,900.0,900.0,OVC,900.0,,,,,,
KRDR,06-24-2014,06:28,SPECI,Normal,360,10.0,,,9999.0,,17.0,17.0,29.92,,,,,,,,,,,,,,,,,900.0,900.0,OVC,900.0,,,,,,
KRDR,06-24-2014,06:13,SPECI,Normal,360,13.0,17.0,,9999.0,,17.0,17.0,29.92,,,,,,,,,,,,,,,,,1000.0,1000.0,OVC,1000.0,,,,,,
KRDR,06-24-2014,05:58,METAR,Normal,10,9.0,,,9999.0,,17.2,17.0,29.92,1013.4,,,,,,,,,,,,,.01 IN,,,900.0,900.0,OVC,900.0,,,,,,
KRDR,06-24-2014,04:58,METAR,Normal,360,8.0,,,9999.0,,17.2,17.1,29.91,1013.1,,,,,,,,,,,,,,,,900.0,900.0,OVC,900.0,,,,,,
KRDR,06-24-2014,04:03,SPECI,Normal,360,10.0,,,9999.0,,17.0,17.0,29.91,,,,,,,,,,,,,,,,,900.0,900.0,BKN,900.0,,,,,,
KRDR,06-24-2014,03:58,METAR,Normal,360,11.0,,,9999.0,,17.3,,29.91,1013.1,,,,,,,,,,,.01 IN,,,,,,1000.0,SCT,1000.0,,,,,,
KRDR,06-24-2014,03:39,SPECI,Normal,360,12.0,,,9999.0,,18.0,18.0,29.91,,,,,,,,,,,,,,,,,,1000.0,FEW,1000.0,,,,,,
KRDR,06-24-2014,03:23,SPECI,Normal,360,11.0,,,9999.0,,18.0,18.0,29.90,,,,,,,,,,,,,,,,,,1600.0,FEW,1600.0,,,,,,
KRDR,06-24-2014,02:58,METAR,Normal,350,7.0,,,9999.0,Light Rain,19.1,18.6,29.89,1012.4,61,,,,,,,,,,TRACE,TRACE,,,,,2100.0,SCT,2100.0,SCT,4700.0,SCT,12000.0,,
KRDR,06-24-2014,02:50,SPECI,Normal,350,6.0,,,9999.0,Light Rain,19.0,19.0,29.89,,61,,,,,,,,,,,,,,,12000.0,3800.0,FEW,3800.0,BKN,12000.0,,,,
KRDR,06-24-2014,02:41,SPECI,Normal,350,5.0,,,9999.0,,19.0,19.0,29.89,,,,,,,,,,,,,,,,,4400.0,4400.0,BKN,4400.0,BKN,6500.0,BKN,11000.0,,
KRDR,06-24-2014,02:29,SPECI,Normal,350,6.0,,,9999.0,Light Drizzle,19.0,18.0,29.88,,51,,,,,,,,,,,,,,,12000.0,4400.0,SCT,4400.0,BKN,12000.0,,,,
KRDR,06-24-2014,01:58,METAR,Normal,20,5.0,,,9999.0,,19.6,17.5,29.87,1011.7,,,,,,,,,,,,,,,,12000.0,12000.0,BKN,12000.0,,,,,,
KRDR,06-24-2014,00:58,METAR,Normal,40,8.0,,,9999.0,,21.7,17.0,29.86,1011.4,,,,,,,,,,,,,,,,11000.0,11000.0,BKN,11000.0,,,,,,
KRDR,06-23-2014,23:58,METAR,Normal,300,10.0,,,9999.0,,22.6,16.0,29.85,1011.1,,,,,,,,,,,,,,,,,11000.0,SCT,11000.0,,,,,,
KRDR,06-23-2014,22:58,METAR,Normal,290,11.0,20.0,,9999.0,,24.7,16.2,29.85,1011.1,,,,,,,,,,,,,,,,12000.0,12000.0,BKN,12000.0,,,,,,
KRDR,06-23-2014,21:58,METAR,Normal,310,9.0,,,9999.0,,25.2,15.3,29.85,1011.0,,,,,,,,,,,,,,,,,4900.0,FEW,4900.0,SCT,10000.0,,,,
KRDR,06-23-2014,20:58,METAR,Variable,,5.0,,,9999.0,,25.3,14.3,29.85,1011.1,,,,,,,,,,,,,,,,,4900.0,FEW,4900.0,,,,,,
KRDR,06-23-2014,19:58,METAR,Normal,290,8.0,,,9999.0,,25.8,15.0,29.86,1011.4,,,,,,,,,,,,,,,,,4700.0,FEW,4700.0,,,,,,
KRDR,06-23-2014,18:58,METAR,Normal,280,8.0,,,9999.0,,24.1,15.1,29.87,1011.8,,,,,,,,,,,,,,,,,4100.0,SCT,4100.0,,,,,,
KRDR,06-23-2014,17:58,METAR,Normal,320,10.0,,,9999.0,,23.8,15.2,29.86,1011.4,,,,,,,,,,,,,,,,,3900.0,SCT,3900.0,,,,,,
KRDR,06-23-2014,16:58,METAR,Normal,300,10.0,,,9999.0,,24.3,15.8,29.86,1011.4,,,,,,,,,,,,,,,,,3500.0,FEW,3500.0,,,,,,
KRDR,06-23-2014,15:58,METAR,Normal,310,7.0,,,9999.0,,23.4,16.5,29.86,1011.4,,,,,,,,,,,,,,,Clear,72000.0,,,,,,,,,
KRDR,06-23-2014,14:58,METAR,Normal,300,7.0,,,9999.0,,22.3,16.9,29.86,1011.4,,,,,,,,,,,,,,,Clear,72000.0,,,,,,,,,
KRDR,06-23-2014,13:58,METAR,Normal,290,7.0,,,9999.0,,21.0,16.3,29.86,1011.4,,,,,,,,,,,,,,,Clear,72000.0,,,,,,,,,
KRDR,06-23-2014,12:58,METAR,Normal,300,7.0,,,9999.0,,19.1,16.4,29.85,1011.0,,,,,,,,,,,,,,,Clear,72000.0,,,,,,,,,
KRDR,06-23-2014,11:58,METAR,Normal,270,6.0,,,9999.0,,17.1,16.4,29.85,1011.1,,,,,,,,,,,,,,,Clear,72000.0,,,,,,,,,
KRDR,06-23-2014,10:58,METAR,Normal,290,5.0,,,9999.0,,15.4,15.3,29.84,1010.8,,,,,,,,,,,,,,,Clear,72000.0,,,,,,,,,
KRDR,06-23-2014,09:58,METAR,Normal,290,5.0,,,9999.0,,15.7,15.5,29.84,1010.8,,,,,,,,,,,,,,,Clear,72000.0,,,,,,,,,
KRDR,06-23-2014,08:58,METAR,Normal,270,5.0,,,9999.0,,15.5,15.3,29.82,1010.1,,,,,,,,,,,,,,,Clear,72000.0,,,,,,,,,
KRDR,06-23-2014,07:58,METAR,Normal,290,4.0,,,9999.0,,15.4,15.3,29.82,1010.1,,,,,,,,,,,,,,,Clear,72000.0,,,,,,,,,
KRDR,06-23-2014,06:58,METAR,Normal,280,5.0,,,9999.0,,16.4,16.2,29.83,1010.4,,,,,,,,,,,,,,,Clear,72000.0,,,,,,,,,
KRDR,06-23-2014,05:58,METAR,Normal,290,5.0,,,9999.0,,17.1,16.2,29.84,1010.7,,,,,,,,,,,,,,,Clear,72000.0,,,,,,,,,
KRDR,06-23-2014,04:58,METAR,Normal,260,5.0,,,9999.0,,17.6,16.5,29.83,1010.4,,,,,,,,,,,,,,,Clear,72000.0,,,,,,,,,
KRDR,06-23-2014,03:58,METAR,Normal,280,4.0,,,9999.0,,18.1,16.1,29.82,1010.0,,,,,,,,,,,,,,,Clear,72000.0,,,,,,,,,
KRDR,06-23-2014,02:58,METAR,Normal,270,4.0,,,9999.0,,19.4,16.2,29.82,1010.0,,,,,,,,,,,,,,,Clear,72000.0,,,,,,,,,
KRDR,06-23-2014,01:58,METAR,Normal,280,4.0,,,9999.0,,21.4,15.5,29.82,1010.0,,,,,,,,,,,,,,,Clear,72000.0,,,,,,,,,
KRDR,06-23-2014,00:58,METAR,Normal,300,8.0,,,9999.0,,23.1,14.8,29.82,1010.0,,,,,,,,,,,,,,,Clear,72000.0,,,,,,,,,
KRDR,06-22-2014,23:58,METAR,Normal,320,8.0,,,9999.0,,23.4,14.1,29.82,1010.0,,,,,,,,,,,,,,,Clear,72000.0,,,,,,,,,
KRDR,06-22-2014,22:58,METAR,Normal,290,11.0,,,9999.0,,23.8,14.3,29.83,1010.4,,,,,,,,,,,,,,,,,4400.0,FEW,4400.0,,,,,,
KRDR,06-22-2014,21:58,METAR,Normal,330,13.0,,,9999.0,,23.6,14.0,29.83,1010.4,,,,,,,,,,,,,,,,,4600.0,FEW,4600.0,,,,,,
KRDR,06-22-2014,20:58,METAR,Normal,310,15.0,,,9999.0,,23.9,14.4,29.83,1010.4,,,,,,,,,,,,,,,,,4600.0,FEW,4600.0,,,,,,
KRDR,06-22-2014,19:58,METAR,Normal,310,13.0,19.0,,9999.0,,24.5,14.1,29.82,1010.0,,,,,,,,,,,,,,,,,4900.0,SCT,4900.0,,,,,,
KRDR,06-22-2014,18:58,METAR,Normal,310,15.0,16.0,,9999.0,,24.9,14.2,29.82,1009.9,,,,,,,,,,,,,,,,,4900.0,FEW,4900.0,,,,,,
KRDR,06-22-2014,18:41,SPECI,Normal,310,12.0,18.0,,9999.0,,25.0,13.0,29.82,,,,,,,,,,,,,,,,,,4800.0,SCT,4800.0,,,,,,
KRDR,06-22-2014,17:58,METAR,Normal,280,9.0,,,9999.0,,25.4,15.7,29.82,1009.9,,,,,,,,,,,,,,,,,4300.0,FEW,4300.0,,,,,,
KRDR,06-22-2014,16:58,METAR,Normal,300,6.0,,,9999.0,,24.4,16.5,29.82,1010.0,,,,,,,,,,,,,,,Clear,72000.0,,,,,,,,,
KRDR,06-22-2014,15:58,METAR,Normal,320,9.0,,,9999.0,,24.7,17.1,29.82,1009.9,,,,,,,,,,,,,,,Clear,72000.0,,,,,,,,,
KRDR,06-22-2014,14:58,METAR,Normal,310,8.0,,,9999.0,,23.6,16.1,29.82,1009.9,,,,,,,,,,,,,,,Clear,72000.0,,,,,,,,,
KRDR,06-22-2014,13:58,METAR,Normal,310,7.0,,,9999.0,,22.6,16.1,29.80,1009.2,,,,,,,,,,,,,,,Clear,72000.0,,,,,,,,,
KRDR,06-22-2014,12:58,METAR,Normal,260,4.0,,,9999.0,,21.4,16.4,29.80,1009.2,,,,,,,,,,,,,,,Clear,72000.0,,,,,,,,,
KRDR,06-22-2014,11:58,METAR,Normal,90,1.0,,,9999.0,,18.6,17.0,29.79,1009.0,,,,,,,,,,,,,,,,,8000.0,FEW,8000.0,,,,,,
KRDR,06-22-2014,10:58,METAR,Normal,310,3.0,,,9999.0,,17.6,16.6,29.76,1007.9,,,,,,,,,,,,,,,,,11000.0,SCT,11000.0,,,,,,
KRDR,06-22-2014,09:58,METAR,Normal,280,8.0,,,9999.0,,18.2,17.2,29.75,1007.5,,,,,,,,,,,,,,,Clear,72000.0,,,,,,,,,
KRDR,06-22-2014,08:58,METAR,Normal,220,5.0,,,9999.0,,17.7,17.5,29.75,1007.5,,,,,,,,,,,,,,,,,12000.0,SCT,12000.0,,,,,,
KRDR,06-22-2014,07:58,METAR,Normal,210,6.0,,,9999.0,,19.0,17.1,29.76,1007.8,,,,,,,,,,,,,,,Clear,72000.0,,,,,,,,,
KRDR,06-22-2014,06:58,METAR,Normal,220,8.0,,,9999.0,,20.0,16.7,29.77,1008.1,,,,,,,,,,,,,,,Clear,72000.0,,,,,,,,,
KRDR,06-22-2014,05:58,METAR,Normal,220,10.0,,,9999.0,,20.2,16.1,29.77,1008.1,,,,,,,,,,,,,,,,,12000.0,FEW,12000.0,,,,,,
KRDR,06-22-2014,04:58,METAR,Normal,210,8.0,,,9999.0,,20.3,18.0,29.77,1008.2,,,,,,,,,,,,,,,Clear,72000.0,,,,,,,,,
KRDR,06-22-2014,03:58,METAR,Normal,220,5.0,,,9999.0,,21.1,19.6,29.79,1008.8,,,,,,,,,,,,,,,,,12000.0,SCT,12000.0,,,,,,
KRDR,06-22-2014,02:58,METAR,Normal,220,7.0,,,9999.0,,22.4,18.9,29.77,1008.2,,,,,,,,,,,,,,,,12000.0,12000.0,OVC,12000.0,,,,,,
KRDR,06-22-2014,01:58,METAR,Normal,200,12.0,,,9999.0,,24.1,18.8,29.72,1006.5,,,,,,,,,,,,,,,,,12000.0,FEW,12000.0,,,,,,
KRDR,06-22-2014,00:58,METAR,Normal,170,10.0,,,9999.0,,24.3,19.0,29.72,1006.6,,,,,,,,,,,,,,,Clear,72000.0,,,,,,,,,
KRDR,06-21-2014,23:58,METAR,Normal,210,8.0,,,9999.0,,24.3,18.7,29.75,1007.6,,,,,,,,,,,TRACE,,TRACE,,Clear,72000.0,,,,,,,,,
KRDR,06-21-2014,23:49,SPECI,Normal,170,9.0,,,9999.0,,24.0,18.0,29.74,,,,,,,,,,,,,,,,,,8000.0,FEW,8000.0,,,,,,
KRDR,06-21-2014,23:26,SPECI,Normal,230,9.0,,,9999.0,Light Rain,26.0,18.0,29.75,,61,,,,,,,,,,,,,,,8500.0,8500.0,BKN,8600.0,,,,,,
KRDR,06-21-2014,22:58,METAR,Normal,190,10.0,,,9999.0,,27.6,17.9,29.75,1007.6,,,,,,,,,,,,,,,Clear,72000.0,,,,,,,,,
KRDR,06-21-2014,21:58,METAR,Normal,210,6.0,,,9999.0,,30.0,14.7,29.76,1007.9,,,,,,,,,,,,,,,Clear,72000.0,,,,,,,,,
KRDR,06-21-2014,20:58,METAR,Normal,260,2.0,,,9999.0,,30.6,14.3,29.77,1008.2,,,,,,,,,,,,,,,Clear,72000.0,,,,,,,,,
KRDR,06-21-2014,19:58,METAR,Normal,260,5.0,,,9999.0,,30.2,13.7,29.78,1008.5,,,,,,,,,,,,,,,Clear,72000.0,,,,,,,,,
KRDR,06-21-2014,18:58,METAR,Normal,270,6.0,,,9999.0,,30.4,16.9,29.79,1008.9,,,,,,,,,,,,,,,Clear,72000.0,,,,,,,,,
KRDR,06-21-2014,17:58,METAR,Normal,290,8.0,,,9999.0,,29.2,18.1,29.79,1009.0,,,,,,,,,,,,,,,Clear,72000.0,,,,,,,,,
KRDR,06-21-2014,16:58,METAR,Normal,270,9.0,,,9999.0,,27.3,18.4,29.79,1009.0,,,,,,,,,,,,,,,Clear,72000.0,,,,,,,,,
KRDR,06-21-2014,15:58,METAR,Normal,270,12.0,,,9999.0,,26.7,17.7,29.79,1009.0,,,,,,,,,,,,,,,Clear,72000.0,,,,,,,,,
KRDR,06-21-2014,14:58,METAR,Normal,260,13.0,,,9999.0,,24.9,16.7,29.80,1009.3,,,,,,,,,,,,,,,Clear,72000.0,,,,,,,,,
KRDR,06-21-2014,13:58,METAR,Normal,240,9.0,,,9999.0,,23.0,17.0,29.80,1009.3,,,,,,,,,,,,,,,Clear,72000.0,,,,,,,,,
KRDR,06-21-2014,12:58,METAR,Normal,200,8.0,,,9999.0,,19.4,16.8,29.81,1009.6,,,,,,,,,,,,,,,Clear,72000.0,,,,,,,,,
KRDR,06-21-2014,11:58,METAR,Normal,190,7.0,,,9999.0,,17.0,16.4,29.81,1009.7,,,,,,,,,,,,,.05 IN,.08 IN,Clear,72000.0,,,,,,,,,
KRDR,06-21-2014,10:58,METAR,Normal,170,6.0,,,9999.0,,15.2,15.1,29.81,1009.7,,,,,,,,,,,,,,,Clear,72000.0,,,,,,,,,
KRDR,06-21-2014,09:58,METAR,Normal,160,6.0,,,9999.0,,15.4,15.2,29.81,1009.8,,,,,,,,,,,.05 IN,,,,Clear,72000.0,,,,,,,,,
KRDR,06-21-2014,09:22,SPECI,Normal,150,6.0,,,9999.0,,17.0,16.0,29.83,,,,,,,,,,,,,,,,,4900.0,4900.0,BKN,4900.0,BKN,8000.0,,,,
KRDR,06-21-2014,09:21,SPECI,Normal,150,6.0,,,9999.0,Light Rain,16.0,16.0,29.83,,61,,,,,,,,,,,,,,,4900.0,4900.0,BKN,4900.0,BKN,8000.0,,,,
KRDR,06-21-2014,09:11,SPECI,Normal,170,5.0,,,9999.0,Light Rain,16.0,16.0,29.83,,61,,,,,,,,,,,,,,,5000.0,4400.0,FEW,4400.0,BKN,5000.0,OVC,7000.0,,
KRDR,06-21-2014,09:01,SPECI,Normal,210,4.0,,,6400.0,Light Rain/Mist,16.0,16.0,29.84,,61,10,,,,,,,,,,,,,,3400.0,200.0,FEW,200.0,BKN,6500.0,OVC,7500.0,,
KRDR,06-21-2014,08:58,METAR,Normal,220,3.0,,,9999.0,Light Rain/Mist,16.4,16.2,29.84,1010.8,61,10,,,,,,,,,TRACE,TRACE,,,,3400.0,7000.0,OVC,7000.0,,,,,,
KRDR,06-21-2014,08:40,SPECI,Normal,50,4.0,,,9999.0,Light Rain,17.0,16.0,29.83,,61,,,,,,,,,,,,,,,8000.0,8000.0,OVC,8000.0,,,,,,
KRDR,06-21-2014,08:34,SPECI,Calm,,0.0,,,9999.0,,17.0,17.0,29.83,,,,,,,,,,,,,,,,,8000.0,8000.0,BKN,8000.0,OVC,10000.0,,,,
KRDR,06-21-2014,08:25,SPECI,Normal,200,5.0,,,9999.0,Light Drizzle,17.0,16.0,29.82,,51,,,,,,,,,,,,,,,8000.0,8000.0,BKN,8000.0,OVC,10000.0,,,,
KRDR,06-21-2014,07:58,METAR,Normal,190,5.0,,,9999.0,,16.6,16.4,29.81,1009.7,,,,,,,,,,,,,,,,10000.0,8000.0,FEW,8000.0,BKN,10000.0,OVC,11000.0,,
KRDR,06-21-2014,06:58,METAR,Normal,180,6.0,,,9999.0,,14.1,14.1,29.81,1009.9,,,,,,,,,,,,,,,,10000.0,10000.0,BKN,10000.0,,,,,,
KRDR,06-21-2014,05:58,METAR,Normal,230,3.0,,,9999.0,,14.9,14.9,29.80,1009.5,,,,,,,,,,,,,,,Clear,72000.0,,,,,,,,,
KRDR,06-21-2014,04:58,METAR,Normal,210,4.0,,,9999.0,,16.5,16.4,29.81,1009.9,,,,,,,,,,,,,,,Clear,72000.0,,,,,,,,,
KRDR,06-21-2014,03:58,METAR,Normal,230,4.0,,,9999.0,,17.0,16.8,29.83,1010.5,,,,,,,,,,,,,,,Clear,72000.0,,,,,,,,,
KRDR,06-21-2014,02:58,METAR,Normal,220,4.0,,,9999.0,,17.9,16.3,29.84,1010.8,,,,,,,,,,,,,,,,,11000.0,SCT,11000.0,,,,,,
KRDR,06-21-2014,01:58,METAR,Normal,240,3.0,,,9999.0,,21.3,14.3,29.83,1010.4,,,,,,,,,,,,,,,Clear,72000.0,,,,,,,,,
KRDR,06-21-2014,00:58,METAR,Normal,260,8.0,,,9999.0,,23.6,12.8,29.81,1009.7,,,,,,,,,,,,,,,Clear,72000.0,,,,,,,,,
KRDR,06-20-2014,23:58,METAR,Normal,250,7.0,,,9999.0,,24.0,12.4,29.81,1009.8,,,,,,,,,,,,,TRACE,,Clear,72000.0,,,,,,,,,
KRDR,06-20-2014,22:58,METAR,Normal,250,7.0,,,9999.0,,24.8,13.5,29.82,1010.1,,,,,,,,,,,,,,,,,5500.0,FEW,5500.0,,,,,,
KRDR,06-20-2014,21:58,METAR,Normal,240,5.0,,,9999.0,,23.5,13.9,29.82,1010.2,,,,,,,,,,,,,,,,,4800.0,FEW,4800.0,,,,,,
KRDR,06-20-2014,20:58,METAR,Normal,210,6.0,,,9999.0,,23.5,14.3,29.83,1010.5,,,,,,,,,,,,TRACE,,,,,4300.0,FEW,4300.0,SCT,5500.0,,,,
KRDR,06-20-2014,19:58,METAR,Variable,,4.0,,,9999.0,,22.6,16.6,29.83,1010.5,,,,,,,,,,,,,,,Clear,72000.0,,,,,,,,,
KRDR,06-20-2014,18:58,METAR,Variable,,2.0,,,9999.0,,20.7,16.2,29.83,1010.7,,,,,,,,,,,TRACE,,,,,11000.0,11000.0,BKN,11000.0,,,,,,
KRDR,06-20-2014,18:32,SPECI,Normal,250,2.0,,,9999.0,,20.0,16.0,29.84,,,,,,,,,,,,,,,,,11000.0,9500.0,FEW,9600.0,BKN,11000.0,,,,
KRDR,06-20-2014,18:07,SPECI,Variable,,1.0,,,9999.0,,20.0,16.0,29.84,,,,,,,,,,,,,,,,,11000.0,11000.0,BKN,11000.0,,,,,,
KRDR,06-20-2014,17:58,METAR,Calm,,0.0,,,9999.0,,20.4,15.7,29.84,1011.0,,,,,,,,,,,TRACE,,.03 IN,,,11000.0,11000.0,BKN,11000.0,,,,,,
KRDR,06-20-2014,17:23,SPECI,Normal,110,3.0,,,9999.0,,19.0,15.0,29.83,,,,,,,,,,,,,,,,,9000.0,3700.0,FEW,3700.0,OVC,9100.0,,,,
KRDR,06-20-2014,17:06,SPECI,Normal,50,2.0,,,9999.0,Light Rain,19.0,15.0,29.83,,61,,,,,,,,,,,,,,,9000.0,2800.0,FEW,2800.0,SCT,6500.0,OVC,9100.0,,
KRDR,06-20-2014,17:01,SPECI,Calm,,0.0,,,9999.0,,19.0,15.0,29.84,,,,,,,,,,,,,,,,,9000.0,3000.0,FEW,3000.0,SCT,6500.0,OVC,9100.0,,
KRDR,06-20-2014,16:58,METAR,Normal,320,2.0,,,9999.0,,19.3,14.7,29.84,1011.0,,,,,,,,,,,TRACE,,,,,9000.0,3100.0,FEW,3100.0,SCT,6500.0,OVC,9100.0,,
KRDR,06-20-2014,16:41,SPECI,Normal,300,6.0,,,9999.0,,20.0,15.0,29.84,,,,,,,,,,,,,,,,,11000.0,2800.0,FEW,2800.0,SCT,6000.0,BKN,11000.0,,
KRDR,06-20-2014,15:58,METAR,Normal,200,8.0,,,9999.0,,21.1,16.0,29.85,1011.2,,,,,,,,,,,,,,,Clear,72000.0,,,,,,,,,
KRDR,06-20-2014,15:40,SPECI,Normal,200,8.0,,,9999.0,,21.0,16.0,29.85,,,,,,,,,,,,,,,,,12000.0,6000.0,SCT,6000.0,BKN,12000.0,,,,
KRDR,06-20-2014,15:12,SPECI,Variable,260,12.0,,,9999.0,,21.0,15.0,29.86,,,,,,,,,,,,,,,,,,11000.0,FEW,11000.0,,,,,,
KRDR,06-20-2014,15:11,SPECI,Variable,130,15.0,,,9999.0,,21.0,15.0,29.86,,,,,,,,,,,,,,,,,,11000.0,FEW,11000.0,,,,,,
KRDR,06-20-2014,15:07,SPECI,Variable,280,16.0,,,9999.0,,21.0,16.0,29.86,,,,,,,,,,,,,,,,,,11000.0,FEW,11000.0,,,,,,
KRDR,06-20-2014,14:58,METAR,Normal,200,11.0,,/  KTS,9999.0,,19.7,15.0,29.86,1011.6,,,,,,,,,,,.03 IN,.03 IN,,,Clear,72000.0,,,,,,,,,
KRDR,06-20-2014,13:58,METAR,Normal,180,9.0,,,9999.0,,19.3,14.8,29.85,1011.3,,,,,,,,,,,TRACE,,,,Clear,72000.0,,,,,,,,,
KRDR,06-20-2014,12:58,METAR,Normal,190,7.0,,,9999.0,,17.1,15.1,29.86,1011.6,,,,,,,,,,,,,,,Clear,72000.0,,,,,,,,,
KRDR,06-20-2014,11:58,METAR,Normal,180,6.0,,,9999.0,,14.5,14.4,29.85,1011.4,,,,,,,,,,,,,,1.79 IN,Clear,72000.0,,,,,,,,,
KRDR,06-20-2014,10:58,METAR,Normal,180,6.0,,,9999.0,,13.4,13.3,29.85,1011.3,,,,,,,,,,,,,,,Clear,72000.0,,,,,,,,,
KRDR,06-20-2014,09:58,METAR,Normal,160,9.0,,,9999.0,,12.6,,29.84,1011.0,,,,,,,,,,,,,,,Clear,72000.0,,,,,,,,,
KRDR,06-20-2014,08:58,METAR,Normal,180,7.0,,,9999.0,,12.1,12.1,29.85,1011.3,,,,,,,,,,,,,,,Clear,72000.0,,,,,,,,,
KRDR,06-20-2014,07:58,METAR,Normal,170,6.0,,,9999.0,,12.0,12.0,29.86,1011.7,,,,,,,,,,,,,,,Clear,72000.0,,,,,,,,,
KRDR,06-20-2014,06:58,METAR,Normal,180,5.0,,,9999.0,,11.3,11.3,29.88,1012.4,,,,,,,,,,,,,,,Clear,72000.0,,,,,,,,,
KRDR,06-20-2014,05:58,METAR,Normal,140,3.0,,,9999.0,,11.9,11.9,29.88,1012.4,,,,,,,,,,,,,TRACE,,Clear,72000.0,,,,,,,,,
KRDR,06-20-2014,04:58,METAR,Normal,230,5.0,,,9999.0,,12.7,12.7,29.89,1012.7,,,,,,,,,,,,,,,Clear,72000.0,,,,,,,,,
KRDR,06-20-2014,03:58,METAR,Normal,240,4.0,,,9999.0,,13.5,13.3,29.89,1012.7,,,,,,,,,,,,,,,Clear,72000.0,,,,,,,,,
KRDR,06-20-2014,02:58,METAR,Normal,250,4.0,,,9999.0,,14.1,13.5,29.87,1012.0,,,,,,,,,,,,TRACE,,,Clear,72000.0,,,,,,,,,
KRDR,06-20-2014,01:58,METAR,Normal,320,11.0,17.0,,9999.0,,15.4,13.5,29.82,1010.3,,,,,,,,,,,,,,,,6000.0,6000.0,BKN,6000.0,BKN,12000.0,,,,
KRDR,06-20-2014,00:58,METAR,Normal,310,18.0,25.0,290/29KTS,9999.0,,15.5,13.8,29.81,1009.9,,,,,,,,,,,TRACE,,,,,3000.0,3000.0,OVC,3000.0,,,,,,
KRDR,06-20-2014,00:44,SPECI,Normal,310,17.0,23.0,,9999.0,,15.0,15.0,29.81,,,,,,,,,,,,,,,,,3200.0,2200.0,SCT,2200.0,OVC,3200.0,,,,
KRDR,06-20-2014,00:09,SPECI,Normal,310,15.0,24.0,,9999.0,,15.0,15.0,29.81,,,,,,,,,,,,,,,,,1900.0,900.0,FEW,900.0,OVC,1900.0,,,,
KRDR,06-19-2014,23:58,METAR,Normal,300,20.0,27.0,270/36KTS,6400.0,Light Rain/Mist,14.7,,29.80,1009.6,61,10,,,,,,,,,.03 IN,,1.68 IN,,,700.0,900.0,SCT,900.0,OVC,1700.0,,,,
KRDR,06-19-2014,23:53,SPECI,Normal,300,18.0,27.0,,4000.0,Light Rain/Mist,15.0,15.0,29.80,,61,10,,,,,,,,,,,,,,700.0,700.0,OVC,700.0,,,,,,
KRDR,06-19-2014,23:52,SPECI,Normal,280,20.0,36.0,,4000.0,Light Rain/Mist,15.0,15.0,29.79,,61,10,,,,,,,,,,,,,,700.0,700.0,OVC,700.0,,,,,,
KRDR,06-19-2014,23:42,SPECI,Normal,280,26.0,34.0,,9999.0,Squalls,18.0,18.0,29.78,,,18,,,,,,,,,,,,,,700.0,700.0,OVC,700.0,,,,,,
KRDR,06-19-2014,23:33,SPECI,Normal,340,4.0,,,9999.0,Light Drizzle,19.0,19.0,29.76,,51,,,,,,,,,,,,,,,700.0,700.0,OVC,700.0,,,,,,
KRDR,06-19-2014,23:12,SPECI,Normal,30,4.0,,,9999.0,,19.0,19.0,29.76,,,,,,,,,,,,,,,,,500.0,700.0,OVC,700.0,,,,,,
KRDR,06-19-2014,23:08,SPECI,Normal,40,3.0,,,9999.0,Light Rain,19.0,19.0,29.76,,61,,,,,,,,,,,,,,,500.0,700.0,OVC,700.0,,,,,,
KRDR,06-19-2014,22:58,METAR,Normal,10,3.0,,,9999.0,Light Rain,19.0,19.0,29.77,1008.5,61,,,,,,,,,,.58 IN,,,,,300.0,600.0,OVC,600.0,,,,,,
KRDR,06-19-2014,22:53,SPECI,Variable,,4.0,,,9999.0,Light Rain,19.0,19.0,29.77,,61,,,,,,,,,,,,,,,300.0,300.0,BKN,300.0,BKN,700.0,OVC,1700.0,,
KRDR,06-19-2014,22:48,SPECI,Normal,330,4.0,,,9999.0,,19.0,19.0,29.76,,,,,,,,,,,,,,,,,300.0,300.0,SCT,300.0,BKN,700.0,OVC,3500.0,,
KRDR,06-19-2014,22:43,SPECI,Variable,,2.0,,,9999.0,Light Rain,19.0,19.0,29.76,,61,,,,,,,,,,,,,,,300.0,300.0,BKN,300.0,OVC,2200.0,,,,
KRDR,06-19-2014,22:38,SPECI,Normal,10,4.0,,,9999.0,Light Rain/Mist,19.0,19.0,29.76,,61,10,,,,,,,,,,,,,,2000.0,300.0,SCT,300.0,BKN,2000.0,OVC,3400.0,,
KRDR,06-19-2014,22:33,SPECI,Normal,30,5.0,,,2000.0,Light Rain/Mist,19.0,19.0,29.76,,61,10,,,,,,,,,,,,,,1800.0,300.0,FEW,300.0,BKN,1800.0,OVC,3400.0,,
KRDR,06-19-2014,22:28,SPECI,Normal,80,6.0,,,1200.0,Light Rain/Mist,19.0,19.0,29.76,,61,10,,,,,,,,,,,,,,1900.0,300.0,FEW,300.0,OVC,1900.0,,,,
KRDR,06-19-2014,22:18,SPECI,Normal,90,9.0,,,1200.0,Heavy Rain/Mist,19.0,19.0,29.76,,63,10,,,,,,,,,,,,,,400.0,400.0,SCT,400.0,OVC,1900.0,,,,
KRDR,06-19-2014,22:13,SPECI,Normal,80,9.0,,,800.0,Rain/Fog,19.0,19.0,29.76,,62,30,,,,,,,,,,,,,,400.0,400.0,BKN,400.0,OVC,1200.0,,,,
KRDR,06-19-2014,22:08,SPECI,Normal,80,7.0,,,1600.0,Heavy Rain/Mist,19.0,19.0,29.77,,63,10,,,,,,,,,,,,,,400.0,400.0,BKN,400.0,OVC,1300.0,,,,
KRDR,06-19-2014,22:03,SPECI,Normal,100,8.0,,,3200.0,Rain/Mist,19.0,19.0,29.77,,62,10,,,,,,,,,,,,,,400.0,400.0,OVC,400.0,,,,,,
KRDR,06-19-2014,21:58,METAR,Normal,80,4.0,,,6400.0,Rain/Mist,19.2,19.2,29.78,1008.8,62,10,,,,,,,,,.17 IN,,,,,400.0,400.0,OVC,400.0,,,,,,
KRDR,06-19-2014,21:46,SPECI,Normal,100,6.0,,,9999.0,Light Rain,19.0,19.0,29.77,,61,,,,,,,,,,,,,,,400.0,400.0,OVC,400.0,,,,,,
KRDR,06-19-2014,21:41,SPECI,Normal,90,6.0,,,8000.0,Mist,19.0,19.0,29.77,,10,,,,,,,,,,,,,,,400.0,400.0,OVC,400.0,,,,,,
KRDR,06-19-2014,21:23,SPECI,Normal,100,8.0,,,6400.0,Light Rain/Mist,19.0,19.0,29.78,,61,10,,,,,,,,,,,,,,400.0,400.0,OVC,400.0,,,,,,
KRDR,06-19-2014,21:13,SPECI,Normal,90,9.0,,,3200.0,Light Rain/Mist,19.0,19.0,29.78,,61,10,,,,,,,,,,,,,,400.0,400.0,BKN,400.0,OVC,900.0,,,,
KRDR,06-19-2014,21:08,SPECI,Normal,90,8.0,,,2800.0,Light Rain/Mist,19.0,19.0,29.78,,61,10,,,,,,,,,,,,,,400.0,400.0,BKN,400.0,OVC,900.0,,,,
KRDR,06-19-2014,21:03,SPECI,Normal,80,8.0,,,2400.0,Rain/Mist,19.0,19.0,29.78,,62,10,,,,,,,,,,,,,,500.0,500.0,BKN,500.0,OVC,900.0,,,,
KRDR,06-19-2014,20:58,METAR,Normal,90,8.0,,,1600.0,Rain/Mist,19.2,19.2,29.79,1009.2,62,10,,,,,,,,,.34 IN,.9 IN,,,,500.0,500.0,BKN,500.0,OVC,1000.0,,,,
KRDR,06-19-2014,20:50,SPECI,Normal,70,8.0,,,1600.0,Heavy Rain/Mist,19.0,19.0,29.79,,63,10,,,,,,,,,,,,,,500.0,500.0,BKN,500.0,OVC,900.0,,,,
KRDR,06-19-2014,20:45,SPECI,Normal,80,6.0,,,2400.0,Heavy Rain/Mist,19.0,19.0,29.79,,63,10,,,,,,,,,,,,,,500.0,600.0,OVC,600.0,,,,,,
KRDR,06-19-2014,20:40,SPECI,Normal,50,5.0,,,2800.0,Heavy Rain/Mist,19.0,19.0,29.80,,63,10,,,,,,,,,,,,,,500.0,500.0,OVC,500.0,,,,,,
KRDR,06-19-2014,20:30,SPECI,Normal,40,4.0,,,3200.0,Rain/Mist,19.0,19.0,29.79,,62,10,,,,,,,,,,,,,,600.0,600.0,BKN,600.0,OVC,1000.0,,,,
KRDR,06-19-2014,20:15,SPECI,Normal,30,3.0,,,9999.0,Light Drizzle,19.0,19.0,29.80,,51,,,,,,,,,,,,,,,900.0,400.0,FEW,400.0,OVC,900.0,,,,
KRDR,06-19-2014,20:13,SPECI,Normal,30,3.0,,,9999.0,,19.0,19.0,29.80,,,,,,,,,,,,,,,,,1000.0,400.0,FEW,400.0,OVC,1000.0,,,,
KRDR,06-19-2014,20:12,SPECI,Normal,30,3.0,,,9999.0,Light Drizzle,19.0,19.0,29.80,,51,,,,,,,,,,,,,,,1000.0,400.0,FEW,400.0,OVC,1000.0,,,,
KRDR,06-19-2014,20:02,SPECI,Normal,50,4.0,,,9999.0,Light Rain,19.0,19.0,29.81,,61,,,,,,,,,,,,,,,900.0,900.0,OVC,900.0,,,,,,
KRDR,06-19-2014,19:58,METAR,Normal,60,3.0,,,9999.0,,19.0,19.0,29.81,1009.9,,,,,,,,,,,.13 IN,,,,,900.0,400.0,FEW,400.0,OVC,1000.0,,,,
KRDR,06-19-2014,19:55,SPECI,Normal,70,2.0,,,9999.0,,19.0,19.0,29.82,,,,,,,,,,,,,,,,,900.0,400.0,FEW,400.0,OVC,1000.0,,,,
KRDR,06-19-2014,19:50,SPECI,Normal,80,4.0,,,9999.0,Mist,19.0,19.0,29.82,,10,,,,,,,,,,,,,,,900.0,400.0,FEW,400.0,OVC,900.0,,,,
KRDR,06-19-2014,19:42,SPECI,Normal,100,3.0,,,6400.0,Light Drizzle/Mist,19.0,19.0,29.83,,51,10,,,,,,,,,,,,,,900.0,400.0,FEW,400.0,BKN,900.0,OVC,1800.0,,
KRDR,06-19-2014,19:37,SPECI,Normal,120,5.0,,,6400.0,Light Drizzle/Mist,19.0,19.0,29.83,,51,10,,,,,,,,,,,,,,1000.0,400.0,SCT,400.0,BKN,1000.0,OVC,2500.0,,
KRDR,06-19-2014,19:27,SPECI,Normal,110,4.0,,,4800.0,Light Rain/Mist,19.0,19.0,29.83,,61,10,,,,,,,,,,,,,,2500.0,400.0,FEW,400.0,SCT,1200.0,OVC,2800.0,,
KRDR,06-19-2014,19:22,SPECI,Normal,110,4.0,,,4800.0,Light Rain/Mist,19.0,19.0,29.83,,61,10,,,,,,,,,,,,,,3200.0,400.0,FEW,400.0,SCT,1800.0,OVC,3200.0,,
KRDR,06-19-2014,19:13,SPECI,Normal,120,6.0,,,3200.0,Light Rain/Mist,19.0,19.0,29.83,,61,10,,,,,,,,,,,,,,3200.0,2700.0,FEW,2700.0,OVC,3200.0,,,,
KRDR,06-19-2014,19:08,SPECI,Normal,120,6.0,,,2800.0,Light Rain/Mist,19.0,19.0,29.83,,61,10,,,,,,,,,,,,,,3300.0,500.0,FEW,500.0,OVC,3300.0,,,,
KRDR,06-19-2014,19:03,SPECI,Normal,110,6.0,,,2000.0,Light Rain/Mist,19.0,19.0,29.83,,61,10,,,,,,,,,,,,,,3300.0,500.0,FEW,500.0,OVC,3300.0,,,,
KRDR,06-19-2014,18:58,METAR,Normal,110,6.0,,,1600.0,Rain/Mist,19.0,19.0,29.83,1010.5,62,10,,,,,,,,,.43 IN,,,,,3200.0,500.0,FEW,500.0,OVC,3200.0,,,,
KRDR,06-19-2014,18:55,SPECI,Normal,130,6.0,,,1600.0,Heavy Rain/Mist,19.0,19.0,29.83,,63,10,,,,,,,,,,,,,,3200.0,500.0,FEW,500.0,SCT,2800.0,OVC,3200.0,,
KRDR,06-19-2014,18:50,SPECI,Normal,130,9.0,,,2000.0,Heavy Rain/Mist,19.0,19.0,29.84,,63,10,,,,,,,,,,,,,,3200.0,500.0,FEW,500.0,SCT,1900.0,OVC,3200.0,,
KRDR,06-19-2014,18:45,SPECI,Normal,130,9.0,,,2800.0,Rain/Mist,19.0,19.0,29.84,,62,10,,,,,,,,,,,,,,2900.0,600.0,FEW,600.0,SCT,2000.0,OVC,2900.0,,
KRDR,06-19-2014,18:35,SPECI,Normal,130,6.0,,,4000.0,Light Rain/Mist,19.0,19.0,29.84,,61,10,,,,,,,,,,,,,,2900.0,800.0,FEW,800.0,SCT,1900.0,OVC,2900.0,,
KRDR,06-19-2014,18:30,SPECI,Normal,140,6.0,,,3200.0,Light Rain/Mist,19.0,19.0,29.84,,61,10,,,,,,,,,,,,,,2900.0,400.0,FEW,400.0,SCT,2000.0,OVC,2900.0,,
KRDR,06-19-2014,18:20,SPECI,Normal,150,7.0,,,4000.0,Light Rain/Mist,19.0,19.0,29.84,,61,10,,,,,,,,,,,,,,3000.0,600.0,SCT,600.0,OVC,3000.0,,,,
KRDR,06-19-2014,18:17,SPECI,Normal,140,8.0,,,4800.0,Mist,19.0,19.0,29.84,,10,,,,,,,,,,,,,,,3100.0,500.0,SCT,500.0,OVC,3100.0,,,,
KRDR,06-19-2014,18:13,SPECI,Normal,140,8.0,,,4000.0,Light Rain/Mist,19.0,19.0,29.84,,61,10,,,,,,,,,,,,,,3200.0,500.0,SCT,500.0,OVC,3200.0,,,,
KRDR,06-19-2014,18:08,SPECI,Normal,140,8.0,,,2400.0,Light Rain/Mist,19.0,19.0,29.84,,61,10,,,,,,,,,,,,,,3300.0,500.0,SCT,500.0,OVC,3300.0,,,,
KRDR,06-19-2014,17:58,METAR,Normal,130,9.0,,,2800.0,Light Rain/Mist,18.5,18.5,29.84,1010.8,61,10,,,,,,,,,.1 IN,,.11 IN,,,500.0,500.0,BKN,500.0,OVC,3200.0,,,,
KRDR,06-19-2014,17:46,SPECI,Normal,140,6.0,,,2800.0,Light Rain/Mist,19.0,19.0,29.85,,61,10,,,,,,,,,,,,,,500.0,500.0,BKN,500.0,OVC,3800.0,,,,
KRDR,06-19-2014,17:44,SPECI,Normal,130,10.0,,,2400.0,Mist,19.0,19.0,29.85,,10,,,,,,,,,,,,,,,500.0,500.0,BKN,500.0,OVC,4100.0,,,,
KRDR,06-19-2014,17:43,SPECI,Normal,130,10.0,,,2400.0,Light Rain/Mist,19.0,19.0,29.85,,61,10,,,,,,,,,,,,,,500.0,500.0,BKN,500.0,BKN,1000.0,OVC,4100.0,,
KRDR,06-19-2014,17:40,SPECI,Normal,130,11.0,,,2000.0,Mist,18.0,18.0,29.85,,10,,,,,,,,,,,,,,,600.0,600.0,BKN,600.0,OVC,4300.0,,,,
KRDR,06-19-2014,17:39,SPECI,Normal,130,10.0,,,2000.0,Light Rain/Mist,18.0,18.0,29.85,,61,10,,,,,,,,,,,,,,700.0,400.0,SCT,400.0,BKN,800.0,OVC,4300.0,,
KRDR,06-19-2014,17:34,SPECI,Normal,130,11.0,,,2400.0,Light Rain/Mist,19.0,19.0,29.85,,61,10,,,,,,,,,,,,,,700.0,400.0,SCT,400.0,BKN,700.0,OVC,4200.0,,
KRDR,06-19-2014,17:32,SPECI,Normal,130,9.0,,,3200.0,Mist,19.0,19.0,29.85,,10,,,,,,,,,,,,,,,700.0,700.0,BKN,700.0,BKN,1100.0,OVC,4200.0,,
KRDR,06-19-2014,17:30,SPECI,Normal,120,10.0,,,4000.0,Light Rain/Mist,19.0,19.0,29.85,,61,10,,,,,,,,,,,,,,700.0,700.0,BKN,700.0,BKN,1200.0,OVC,3900.0,,
KRDR,06-19-2014,17:28,SPECI,Normal,120,11.0,,,4800.0,Mist,19.0,19.0,29.85,,10,,,,,,,,,,,,,,,700.0,700.0,BKN,700.0,BKN,1300.0,OVC,3900.0,,
KRDR,06-19-2014,17:16,SPECI,Normal,130,11.0,,,9999.0,Light Drizzle,19.0,19.0,29.84,,51,,,,,,,,,,,,,,,800.0,800.0,BKN,800.0,BKN,1200.0,OVC,6000.0,,
KRDR,06-19-2014,17:13,SPECI,Normal,120,10.0,,,9999.0,,19.0,19.0,29.85,,,,,,,,,,,,,,,,,900.0,900.0,BKN,900.0,OVC,1300.0,,,,
KRDR,06-19-2014,16:58,METAR,Normal,120,9.0,,,9999.0,,18.7,,29.85,1011.1,,,,,,,,,,,.01 IN,,,,,900.0,1100.0,BKN,1100.0,OVC,1700.0,,,,
KRDR,06-19-2014,16:55,SPECI,Normal,110,9.0,,,9999.0,,19.0,19.0,29.85,,,,,,,,,,,,,,,,,900.0,900.0,SCT,900.0,OVC,1500.0,,,,
KRDR,06-19-2014,16:45,SPECI,Normal,150,6.0,,,9999.0,,19.0,19.0,29.85,,,,,,,,,,,,,,,,,1600.0,600.0,FEW,600.0,BKN,1600.0,OVC,5000.0,,
KRDR,06-19-2014,16:37,SPECI,Normal,110,5.0,,,9999.0,Light Rain,18.0,18.0,29.86,,61,,,,,,,,,,,,,,,600.0,500.0,FEW,500.0,BKN,1700.0,OVC,5000.0,,
KRDR,06-19-2014,16:33,SPECI,Normal,100,8.0,,,9999.0,,18.0,18.0,29.86,,,,,,,,,,,,,,,,,600.0,500.0,SCT,500.0,BKN,1700.0,OVC,5000.0,,
KRDR,06-19-2014,15:58,METAR,Normal,130,9.0,,,4800.0,Mist,17.8,,29.88,1012.1,10,,,,,,,,,,,,,,,600.0,600.0,BKN,600.0,OVC,1100.0,,,,
KRDR,06-19-2014,15:51,SPECI,Normal,130,8.0,,,8000.0,Mist,18.0,18.0,29.88,,10,,,,,,,,,,,,,,,600.0,600.0,BKN,600.0,OVC,1100.0,,,,
KRDR,06-19-2014,15:46,SPECI,Normal,120,8.0,,,6400.0,Mist,18.0,18.0,29.88,,10,,,,,,,,,,,,,,,600.0,600.0,SCT,600.0,OVC,1100.0,,,,
KRDR,06-19-2014,15:41,SPECI,Normal,130,10.0,,,4800.0,Mist,18.0,18.0,29.87,,10,,,,,,,,,,,,,,,600.0,600.0,BKN,600.0,OVC,1200.0,,,,
KRDR,06-19-2014,15:36,SPECI,Normal,130,10.0,,,4000.0,Mist,18.0,18.0,29.88,,10,,,,,,,,,,,,,,,600.0,600.0,BKN,600.0,OVC,1300.0,,,,
KRDR,06-19-2014,15:31,SPECI,Normal,120,9.0,,,4800.0,Mist,18.0,18.0,29.87,,10,,,,,,,,,,,,,,,600.0,600.0,BKN,600.0,OVC,1300.0,,,,
KRDR,06-19-2014,15:16,SPECI,Normal,110,9.0,,,9999.0,,19.0,18.0,29.88,,,,,,,,,,,,,,,,,1400.0,900.0,FEW,900.0,OVC,1400.0,,,,
KRDR,06-19-2014,14:58,METAR,Normal,100,10.0,,,9999.0,,19.2,18.7,29.86,1011.4,,,,,,,,,,,,,,,,1400.0,1400.0,BKN,1400.0,OVC,2300.0,,,,
KRDR,06-19-2014,14:38,SPECI,Normal,80,8.0,,,9999.0,,19.0,19.0,29.84,,,,,,,,,,,,,,,,,1400.0,1400.0,OVC,1400.0,,,,,,
KRDR,06-19-2014,13:58,METAR,Normal,80,9.0,,,9999.0,,18.3,18.2,29.85,1011.0,,,,,,,,,,,,,,,,1800.0,1800.0,OVC,1800.0,,,,,,
KRDR,06-19-2014,12:58,METAR,Normal,100,8.0,,,9999.0,,17.9,,29.89,1012.4,,,,,,,,,,,,,,,,2100.0,2100.0,OVC,2100.0,,,,,,
KRDR,06-19-2014,11:58,METAR,Normal,130,5.0,,,9999.0,,17.7,17.7,29.88,1012.0,,,,,,,,,,,,,.58 IN,.58 IN,,1800.0,1800.0,BKN,1800.0,,,,,,
KRDR,06-19-2014,11:48,SPECI,Normal,150,4.0,,,9999.0,,17.0,17.0,29.88,,,,,,,,,,,,,,,,,2000.0,2000.0,BKN,2000.0,,,,,,
KRDR,06-19-2014,11:38,SPECI,Normal,120,4.0,,,9999.0,,17.0,17.0,29.87,,,,,,,,,,,,,,,,,,2100.0,SCT,2100.0,,,,,,
KRDR,06-19-2014,11:23,SPECI,Normal,150,4.0,,,9999.0,,17.0,17.0,29.87,,,,,,,,,,,,,,,,,2100.0,2100.0,BKN,2100.0,,,,,,
KRDR,06-19-2014,10:58,METAR,Normal,160,6.0,,,9999.0,,16.8,16.8,29.84,1010.7,,,,,,,,,,,,,,,Clear,72000.0,,,,,,,,,
KRDR,06-19-2014,09:58,METAR,Normal,170,12.0,,,9999.0,,16.9,,29.80,1009.3,,,,,,,,,,,,,,,Clear,72000.0,,,,,,,,,
KRDR,06-19-2014,08:59,SPECI,Normal,180,17.0,22.0,,9999.0,,17.0,17.0,29.80,,,,,,,,,,,,,,,,,,700.0,FEW,700.0,,,,,,
KRDR,06-19-2014,08:58,METAR,Normal,170,16.0,19.0,090/27KTS,9999.0,,16.6,16.6,29.79,1009.0,,,,,,,,,,,.08 IN,.58 IN,,,,,700.0,FEW,700.0,,,,,,
KRDR,06-19-2014,08:50,SPECI,Normal,140,11.0,,,9999.0,,17.0,17.0,29.76,,,,,,,,,,,,,,,,,,700.0,SCT,700.0,,,,,,
KRDR,06-19-2014,08:45,SPECI,Normal,140,16.0,25.0,,9999.0,,17.0,17.0,29.76,,,,,,,,,,,,,,,,,800.0,800.0,BKN,800.0,,,,,,
KRDR,06-19-2014,08:40,SPECI,Normal,120,16.0,25.0,,9999.0,,17.0,17.0,29.75,,,,,,,,,,,,,,,,,,800.0,SCT,800.0,,,,,,
KRDR,06-19-2014,08:32,SPECI,Normal,120,15.0,24.0,,9999.0,Light Rain,16.0,16.0,29.74,,61,,,,,,,,,,,,,,,900.0,900.0,BKN,900.0,,,,,,
KRDR,06-19-2014,08:27,SPECI,Normal,120,15.0,24.0,,9999.0,Light Rain,16.0,16.0,29.74,,61,,,,,,,,,,,,,,,1100.0,700.0,FEW,700.0,BKN,1100.0,,,,
KRDR,06-19-2014,08:22,SPECI,Normal,110,17.0,24.0,,9999.0,Light Rain,16.0,16.0,29.74,,61,,,,,,,,,,,,,,,1400.0,700.0,FEW,700.0,BKN,1400.0,,,,
KRDR,06-19-2014,08:21,SPECI,Normal,110,18.0,24.0,,9999.0,Light Rain,16.0,16.0,29.74,,61,,,,,,,,,,,,,,,1400.0,1400.0,BKN,1400.0,,,,,,
KRDR,06-19-2014,08:20,SPECI,Normal,110,17.0,24.0,,9999.0,,16.0,16.0,29.75,,,,,,,,,,,,,,,,,1400.0,1400.0,BKN,1400.0,,,,,,
KRDR,06-19-2014,08:10,SPECI,Normal,100,20.0,26.0,,8000.0,Mist,16.0,16.0,29.75,,10,,,,,,,,,,,,,,,1800.0,1800.0,OVC,1800.0,,,,,,
KRDR,06-19-2014,08:09,SPECI,Normal,100,21.0,26.0,,8000.0,Dry Thunderstorm/Mist,16.0,16.0,29.76,,91,10,,,,,,,,,,,,,,1900.0,1900.0,OVC,1900.0,,,,,,
KRDR,06-19-2014,07:58,METAR,Normal,110,16.0,22.0,,6400.0,Thunderstorm and Rain or Snow Showers/Mist,16.0,16.0,29.81,1009.7,92,10,,,,,,,,,.2 IN,,,,,2000.0,2000.0,OVC,2000.0,,,,,,
KRDR,06-19-2014,07:55,SPECI,Normal,110,16.0,22.0,,6400.0,Thunderstorm and Rain or Snow Showers/Mist,16.0,16.0,29.82,,92,10,,,,,,,,,,,,,,1700.0,1700.0,OVC,1700.0,,,,,,
KRDR,06-19-2014,07:47,SPECI,Normal,110,17.0,,,6400.0,Light Rain/Mist,16.0,16.0,29.83,,61,10,,,,,,,,,,,,,,1800.0,1800.0,OVC,1800.0,,,,,,
KRDR,06-19-2014,07:42,SPECI,Normal,110,16.0,,,9999.0,Light Rain/Mist,16.0,16.0,29.83,,61,10,,,,,,,,,,,,,,1500.0,1700.0,OVC,1700.0,,,,,,
KRDR,06-19-2014,07:22,SPECI,Normal,110,13.0,,,9999.0,Dry Thunderstorm/Mist,16.0,16.0,29.87,,91,10,,,,,,,,,,,,,,2600.0,2600.0,OVC,2600.0,,,,,,
KRDR,06-19-2014,07:12,SPECI,Normal,110,12.0,,,9999.0,Dry Thunderstorm/Mist,16.0,16.0,29.88,,91,10,,,,,,,,,,,,,,3800.0,3800.0,OVC,3800.0,,,,,,
KRDR,06-19-2014,07:10,SPECI,Normal,110,11.0,,,9999.0,Light Rain/Mist,16.0,16.0,29.88,,61,10,,,,,,,,,,,,,,3900.0,3900.0,OVC,3900.0,,,,,,
KRDR,06-19-2014,06:58,METAR,Normal,120,10.0,,,9999.0,Thunderstorm and Rain or Snow Showers,16.4,16.4,29.89,1012.5,92,,,,,,,,,,.3 IN,,,,,4200.0,4200.0,OVC,4200.0,,,,,,
KRDR,06-19-2014,06:49,SPECI,Normal,140,10.0,,,9999.0,Thunderstorm and Rain or Snow Showers/Mist,16.0,16.0,29.90,,92,10,,,,,,,,,,,,,,3600.0,3600.0,OVC,3600.0,,,,,,
KRDR,06-19-2014,06:44,SPECI,Normal,150,8.0,,,6400.0,Thunderstorm and Rain or Snow Showers/Mist,16.0,16.0,29.90,,92,10,,,,,,,,,,,,,,3400.0,3400.0,OVC,3400.0,,,,,,
KRDR,06-19-2014,06:39,SPECI,Normal,140,7.0,,,4800.0,Thunderstorm and Rain or Snow Showers/Mist,17.0,16.0,29.90,,92,10,,,,,,,,,,,,,,2300.0,2900.0,OVC,2900.0,,,,,,
KRDR,06-19-2014,06:29,SPECI,Normal,160,13.0,,,4000.0,Heavy Thunderstorm and Rain or Snow Showers/Mist,17.0,17.0,29.91,,95,10,,,,,,,,,,,,,,2400.0,2400.0,BKN,2400.0,OVC,3600.0,,,,
KRDR,06-19-2014,06:24,SPECI,Normal,180,14.0,,,6400.0,Thunderstorm and Rain or Snow Showers/Mist,18.0,16.0,29.91,,92,10,,,,,,,,,,,,,,3600.0,2700.0,SCT,2700.0,BKN,3600.0,BKN,7000.0,,
KRDR,06-19-2014,06:19,SPECI,Normal,140,10.0,,,9999.0,Thunderstorm and Rain or Snow Showers,19.0,15.0,29.91,,92,,,,,,,,,,,,,,,3500.0,3500.0,BKN,3500.0,BKN,7000.0,,,,
KRDR,06-19-2014,06:05,SPECI,Normal,140,12.0,,,9999.0,Light Rain,20.0,14.0,29.89,,61,,,,,,,,,,,,,,,,4100.0,FEW,4100.0,SCT,7000.0,,,,
KRDR,06-19-2014,05:58,METAR,Normal,130,13.0,19.0,,9999.0,,20.0,13.8,29.87,1011.7,,,,,,,,,,,,,,,Clear,72000.0,,,,,,,,,
KRDR,06-19-2014,04:58,METAR,Normal,110,13.0,,,9999.0,,20.7,14.8,29.89,1012.4,,,,,,,,,,,,,,,Clear,72000.0,,,,,,,,,
KRDR,06-19-2014,03:58,METAR,Normal,120,13.0,19.0,,9999.0,,21.7,15.0,29.91,1013.0,,,,,,,,,,,,,,,Clear,72000.0,,,,,,,,,
KRDR,06-19-2014,02:58,METAR,Normal,120,15.0,20.0,,9999.0,,22.9,15.5,29.88,1012.0,,,,,,,,,,,,,,,Clear,72000.0,,,,,,,,,
KRDR,06-19-2014,01:58,METAR,Normal,110,14.0,,,9999.0,,23.8,16.9,29.89,1012.4,,,,,,,,,,,,,,,,,4400.0,SCT,4400.0,,,,,,
KRDR,06-19-2014,00:58,METAR,Normal,90,11.0,,,9999.0,,24.2,18.0,29.89,1012.5,,,,,,,,,,,,,,,,5500.0,4700.0,SCT,4700.0,OVC,5500.0,,,,
KRDR,06-18-2014,23:58,METAR,Normal,80,15.0,23.0,,9999.0,,24.8,17.9,29.88,1012.1,,,,,,,,,,,,,,,,5500.0,4700.0,SCT,4700.0,BKN,5500.0,,,,
KRDR,06-18-2014,22:58,METAR,Normal,90,13.0,,,9999.0,,24.7,17.3,29.89,1012.5,,,,,,,,,,,,,,,,,4800.0,SCT,4800.0,,,,,,
KRDR,06-18-2014,21:58,METAR,Normal,100,13.0,21.0,,9999.0,,25.9,17.4,29.90,1012.8,,,,,,,,,,,,,,,Clear,72000.0,,,,,,,,,
KRDR,06-18-2014,20:58,METAR,Normal,90,15.0,21.0,,9999.0,,24.8,17.8,29.88,1012.2,,,,,,,,,,,,,,,Clear,72000.0,,,,,,,,,
KRDR,06-18-2014,19:58,METAR,Normal,90,13.0,,,9999.0,,24.3,17.8,29.91,1013.2,,,,,,,,,,,,,,,,,11000.0,FEW,11000.0,,,,,,
KRDR,06-18-2014,18:59,METAR,Normal,90,11.0,,,9999.0,,23.6,17.4,29.93,1013.9,,,,,,,,,,,,,,,Clear,72000.0,,,,,,,,,
KRDR,06-18-2014,17:58,METAR,Normal,80,12.0,18.0,,9999.0,,24.3,17.3,29.93,1013.8,,,,,,,,,,,,,,,Clear,72000.0,,,,,,,,,
KRDR,06-18-2014,16:58,METAR,Normal,90,12.0,,,9999.0,,22.8,17.2,29.93,1013.8,,,,,,,,,,,,,,,Clear,72000.0,,,,,,,,,
KRDR,06-18-2014,15:58,METAR,Normal,90,11.0,,,9999.0,,21.5,16.3,29.93,1013.8,,,,,,,,,,,,,,,Clear,72000.0,,,,,,,,,
KRDR,06-18-2014,14:58,METAR,Normal,100,8.0,,,9999.0,,19.9,15.2,29.93,1013.8,,,,,,,,,,,,,,,Clear,72000.0,,,,,,,,,
KRDR,06-18-2014,13:58,METAR,Normal,100,9.0,,,9999.0,,18.5,14.7,29.92,1013.5,,,,,,,,,,,,,,,Clear,72000.0,,,,,,,,,
KRDR,06-18-2014,12:58,METAR,Normal,70,8.0,,,9999.0,,16.4,14.6,29.93,1013.9,,,,,,,,,,,,,,,Clear,72000.0,,,,,,,,,
KRDR,06-18-2014,11:58,METAR,Normal,30,3.0,,,9999.0,,13.6,13.6,29.94,1014.2,,,,,,,,,,,,,,,Clear,72000.0,,,,,,,,,
KRDR,06-18-2014,10:58,METAR,Normal,10,6.0,,,9999.0,,12.8,12.8,29.93,1013.9,,,,,,,,,,,,,,,Clear,72000.0,,,,,,,,,
KRDR,06-18-2014,09:58,METAR,Normal,20,7.0,,,9999.0,,12.9,12.9,29.92,1013.6,,,,,,,,,,,,,,,,,6000.0,SCT,6000.0,,,,,,
KRDR,06-18-2014,08:58,METAR,Normal,30,8.0,,,9999.0,,13.1,,29.95,1014.6,,,,,,,,,,,,,,,,,7000.0,SCT,7000.0,,,,,,
KRDR,06-18-2014,07:58,METAR,Normal,20,6.0,,,9999.0,,12.8,12.8,29.95,1014.6,,,,,,,,,,,,,,,Clear,72000.0,,,,,,,,,
KRDR,06-18-2014,06:58,METAR,Normal,10,5.0,,,9999.0,,14.1,13.9,29.94,1014.2,,,,,,,,,,,,,,,Clear,72000.0,,,,,,,,,
KRDR,06-18-2014,05:58,METAR,Normal,50,11.0,,,9999.0,,15.9,14.3,29.91,1013.2,,,,,,,,,,,,,,,Clear,72000.0,,,,,,,,,
KRDR,06-18-2014,04:58,METAR,Normal,50,7.0,,,9999.0,,16.8,14.8,29.94,1014.2,,,,,,,,,,,,,,,Clear,72000.0,,,,,,,,,
KRDR,06-18-2014,03:58,METAR,Normal,60,8.0,,,9999.0,,18.3,14.3,29.93,,,,,,,,,,,,,,,,Clear,72000.0,,,,,,,,,
KRDR,06-18-2014,02:58,METAR,Normal,70,10.0,,,9999.0,,19.5,13.9,29.93,,,,,,,,,,,,,,,,Clear,72000.0,,,,,,,,,
KRDR,06-18-2014,01:58,METAR,Normal,80,11.0,,,9999.0,,21.1,14.8,29.91,,,,,,,,,,,,,,,,Clear,72000.0,,,,,,,,,
KRDR,06-18-2014,00:58,METAR,Normal,70,9.0,,,9999.0,,22.4,14.2,29.91,,,,,,,,,,,,,,,,Clear,72000.0,,,,,,,,,
KRDR,06-17-2014,23:58,METAR,Normal,80,9.0,,,9999.0,,23.5,14.0,29.89,1012.5,,,,,,,,,,,,,,,Clear,72000.0,,,,,,,,,
KRDR,06-17-2014,22:58,METAR,Normal,60,10.0,,,9999.0,,23.9,14.2,29.88,1012.2,,,,,,,,,,,,,,,Clear,72000.0,,,,,,,,,
KRDR,06-17-2014,21:58,METAR,Normal,40,13.0,18.0,,9999.0,,23.2,14.8,29.89,1012.6,,,,,,,,,,,,,,,Clear,72000.0,,,,,,,,,
KRDR,06-17-2014,20:58,METAR,Normal,40,16.0,21.0,,9999.0,,23.0,14.4,29.89,1012.6,,,,,,,,,,,,,,,Clear,72000.0,,,,,,,,,
KRDR,06-17-2014,19:58,METAR,Normal,50,14.0,21.0,,9999.0,,23.0,14.0,29.89,1012.5,,,,,,,,,,,,,,,Clear,72000.0,,,,,,,,,
KRDR,06-17-2014,18:58,METAR,Normal,70,12.0,,,9999.0,,22.6,13.4,29.90,1012.8,,,,,,,,,,,,,,,Clear,72000.0,,,,,,,,,
KRDR,06-17-2014,17:58,METAR,Normal,50,14.0,,,9999.0,,22.0,13.2,29.89,1012.5,,,,,,,,,,,,,,,Clear,72000.0,,,,,,,,,
KRDR,06-17-2014,16:58,METAR,Normal,50,11.0,,,9999.0,,21.1,14.2,29.90,1012.9,,,,,,,,,,,,,,,Clear,72000.0,,,,,,,,,
KRDR,06-17-2014,15:58,METAR,Normal,40,11.0,,,9999.0,,20.3,15.8,29.89,1012.6,,,,,,,,,,,,,,,Clear,72000.0,,,,,,,,,
KRDR,06-17-2014,14:58,METAR,Normal,40,10.0,,,9999.0,,18.9,15.9,29.88,1012.2,,,,,,,,,,,,,,,Clear,72000.0,,,,,,,,,
KRDR,06-17-2014,13:58,METAR,Normal,40,7.0,,,9999.0,,17.9,15.7,29.88,1012.1,,,,,,,,,,,,,,,Clear,72000.0,,,,,,,,,
KRDR,06-17-2014,12:58,METAR,Normal,30,7.0,,,9999.0,,16.3,16.1,29.87,1011.8,,,,,,,,,,,,,,,Clear,72000.0,,,,,,,,,
KRDR,06-17-2014,11:58,METAR,Normal,40,6.0,,,9999.0,,14.3,14.3,29.84,1010.8,,,,,,,,,,,,,,,Clear,72000.0,,,,,,,,,
KRDR,06-17-2014,10:58,METAR,Normal,20,7.0,,,9999.0,,12.6,12.6,29.84,1010.8,,,,,,,,,,,,,,,Clear,72000.0,,,,,,,,,
KRDR,06-17-2014,09:58,METAR,Normal,40,7.0,,,9999.0,,13.0,13.0,29.82,1010.2,,,,,,,,,,,,,,,Clear,72000.0,,,,,,,,,
KRDR,06-17-2014,08:58,METAR,Normal,20,8.0,,,9999.0,,12.8,,29.81,1009.9,,,,,,,,,,,,,,,Clear,72000.0,,,,,,,,,
KRDR,06-17-2014,07:58,METAR,Normal,90,6.0,,,9999.0,,15.6,15.4,29.81,1009.7,,,,,,,,,,,,,,,Clear,72000.0,,,,,,,,,
KRDR,06-17-2014,06:58,METAR,Normal,50,8.0,,,9999.0,,16.2,16.1,29.77,1008.4,,,,,,,,,,,,,,,Clear,72000.0,,,,,,,,,
KRDR,06-17-2014,05:58,METAR,Normal,80,5.0,,,9999.0,,14.8,14.6,29.78,1008.8,,,,,,,,,,,,,,,Clear,72000.0,,,,,,,,,
KRDR,06-17-2014,04:58,METAR,Normal,60,2.0,,,9999.0,,15.0,14.8,29.76,1008.1,,,,,,,,,,,,,,,Clear,72000.0,,,,,,,,,
KRDR,06-17-2014,03:58,METAR,Normal,30,5.0,,,9999.0,,15.8,15.6,29.76,1008.2,,,,,,,,,,,,,,,Clear,72000.0,,,,,,,,,
KRDR,06-17-2014,02:58,METAR,Normal,70,4.0,,,9999.0,,16.0,15.8,29.75,1007.8,,,,,,,,,,,,,,,Clear,72000.0,,,,,,,,,
KRDR,06-17-2014,00:58,METAR,Normal,130,6.0,,,9999.0,,22.7,13.6,29.73,1007.0,,,,,,,,,,,,,,,Clear,72000.0,,,,,,,,,
KRDR,06-16-2014,23:58,METAR,Normal,90,6.0,,,9999.0,,23.4,13.9,29.72,1006.7,,,,,,,,,,,,,TRACE,,Clear,72000.0,,,,,,,,,
KRDR,06-16-2014,22:58,METAR,Normal,130,7.0,,,9999.0,,23.9,13.0,29.72,1006.7,,,,,,,,,,,,,,,Clear,72000.0,,,,,,,,,
KRDR,06-16-2014,21:58,METAR,Normal,110,6.0,,,9999.0,,22.9,15.4,29.73,1007.1,,,,,,,,,,,TRACE,,,,Clear,72000.0,,,,,,,,,
KRDR,06-16-2014,20:58,METAR,Normal,120,9.0,,,9999.0,,23.5,13.7,29.75,1007.8,,,,,,,,,,,,TRACE,,,,6500.0,6500.0,BKN,6500.0,OVC,10000.0,,,,
KRDR,06-16-2014,19:58,METAR,Normal,130,8.0,,,9999.0,,23.3,13.3,29.77,1008.4,,,,,,,,,,,,,,,,,8000.0,SCT,8000.0,,,,,,
KRDR,06-16-2014,18:58,METAR,Normal,180,6.0,,,9999.0,,24.0,13.3,29.76,1008.1,,,,,,,,,,,TRACE,,,,Clear,72000.0,,,,,,,,,
KRDR,06-16-2014,18:33,SPECI,Normal,200,3.0,,,9999.0,,23.0,13.0,29.77,,,,,,,,,,,,,,,,,,8000.0,FEW,8000.0,,,,,,
KRDR,06-16-2014,18:32,SPECI,Normal,200,4.0,,,9999.0,,23.0,13.0,29.77,,,,,,,,,,,,,,,,,,8000.0,FEW,8000.0,,,,,,
KRDR,06-16-2014,17:58,METAR,Normal,270,5.0,,,9999.0,,23.4,12.7,29.76,1008.1,,,,,,,,,,,,,,,Clear,72000.0,,,,,,,,,
KRDR,06-16-2014,16:58,METAR,Variable,,2.0,,,9999.0,,22.6,13.1,29.76,1008.1,,,,,,,,,,,,,,,Clear,72000.0,,,,,,,,,
KRDR,06-16-2014,15:58,METAR,Normal,270,7.0,,,9999.0,,21.3,13.3,29.77,1008.5,,,,,,,,,,,,,,,Clear,72000.0,,,,,,,,,
KRDR,06-16-2014,14:58,METAR,Normal,270,7.0,,,9999.0,,19.7,14.0,29.75,1007.8,,,,,,,,,,,,,,,Clear,72000.0,,,,,,,,,
KRDR,06-16-2014,13:58,METAR,Normal,260,8.0,,,9999.0,,18.4,13.8,29.76,1008.2,,,,,,,,,,,,,,,Clear,72000.0,,,,,,,,,
KRDR,06-16-2014,12:58,METAR,Normal,270,7.0,,,9999.0,,16.5,13.1,29.75,1007.9,,,,,,,,,,,,,,,Clear,72000.0,,,,,,,,,
KRDR,06-16-2014,11:58,METAR,Normal,270,7.0,,,9999.0,,14.8,12.7,29.73,1007.1,,,,,,,,,,,,,,.13 IN,Clear,72000.0,,,,,,,,,
KRDR,06-16-2014,10:58,METAR,Normal,270,8.0,,,9999.0,,13.1,12.7,29.71,1006.5,,,,,,,,,,,,,,,Clear,72000.0,,,,,,,,,
KRDR,06-16-2014,09:58,METAR,Normal,260,9.0,,,9999.0,,13.5,12.6,29.69,1005.8,,,,,,,,,,,,,,,Clear,72000.0,,,,,,,,,
KRDR,06-16-2014,08:58,METAR,Normal,280,9.0,,,9999.0,,15.2,11.9,29.67,1005.2,,,,,,,,,,,,,,,Clear,72000.0,,,,,,,,,
KRDR,06-16-2014,07:58,METAR,Normal,250,9.0,,,9999.0,,14.7,12.7,29.67,1005.2,,,,,,,,,,,,,,,Clear,72000.0,,,,,,,,,
KRDR,06-16-2014,06:58,METAR,Normal,250,9.0,,,9999.0,,14.2,13.6,29.65,1004.6,,,,,,,,,,,,,,,Clear,72000.0,,,,,,,,,
KRDR,06-16-2014,05:58,METAR,Normal,250,8.0,,,9999.0,,14.8,13.3,29.65,1004.6,,,,,,,,,,,,,TRACE,,Clear,72000.0,,,,,,,,,
KRDR,06-16-2014,04:58,METAR,Normal,250,8.0,,,9999.0,,13.9,13.7,29.64,1004.3,,,,,,,,,,,,,,,Clear,72000.0,,,,,,,,,
KRDR,06-16-2014,03:58,METAR,Normal,240,5.0,,,9999.0,,14.0,13.6,29.62,1003.6,,,,,,,,,,,,,,,Clear,72000.0,,,,,,,,,
KRDR,06-16-2014,02:58,METAR,Normal,250,6.0,,,9999.0,,15.3,13.2,29.60,1002.9,,,,,,,,,,,,TRACE,,,,,10000.0,FEW,10000.0,,,,,,
KRDR,06-16-2014,01:58,METAR,Normal,230,5.0,,,9999.0,,15.3,14.1,29.57,1001.9,,,,,,,,,,,,,,,Clear,72000.0,,,,,,,,,
KRDR,06-16-2014,00:58,METAR,Normal,280,9.0,19.0,,9999.0,Distant Lightning,17.3,12.7,29.57,1001.8,12,,,,,,,,,,TRACE,,,,,,3900.0,FEW,3900.0,SCT,10000.0,,,,
KRDR,06-16-2014,00:55,SPECI,Normal,280,12.0,19.0,,9999.0,Distant Lightning,17.0,13.0,29.57,,12,,,,,,,,,,,,,,,,3900.0,FEW,3900.0,SCT,4600.0,,,,
KRDR,06-16-2014,00:45,SPECI,Normal,290,14.0,,,9999.0,,18.0,12.0,29.56,,,,,,,,,,,,,,,,,,3800.0,FEW,3800.0,SCT,4600.0,SCT,7000.0,,
KRDR,06-16-2014,00:40,SPECI,Normal,280,14.0,,,9999.0,,18.0,13.0,29.56,,,,,,,,,,,,,,,,,,4000.0,SCT,4000.0,SCT,4700.0,,,,
KRDR,06-15-2014,23:58,METAR,Normal,290,10.0,17.0,,9999.0,,19.8,13.2,29.54,1000.7,,,,,,,,,,,,,.01 IN,,Clear,72000.0,,,,,,,,,
KRDR,06-15-2014,22:58,METAR,Normal,290,9.0,,,9999.0,,19.8,13.7,29.53,1000.3,,,,,,,,,,,,,,,Clear,72000.0,,,,,,,,,
KRDR,06-15-2014,21:58,METAR,Normal,290,11.0,,,9999.0,,19.1,15.3,29.52,1000.0,,,,,,,,,,,,,,,,,2900.0,SCT,2900.0,SCT,4000.0,,,,
KRDR,06-15-2014,21:08,SPECI,Normal,300,9.0,16.0,,9999.0,,19.0,16.0,29.52,,,,,,,,,,,,,,,,,3300.0,2600.0,SCT,2600.0,BKN,12000.0,,,,
KRDR,06-15-2014,20:58,METAR,Normal,310,10.0,18.0,,9999.0,,18.2,15.7,29.52,1000.0,,,,,,,,,,,,.01 IN,,,,2500.0,2500.0,BKN,2500.0,BKN,3100.0,,,,
KRDR,06-15-2014,19:58,METAR,Normal,310,12.0,20.0,,9999.0,,17.8,16.6,29.51,999.7,,,,,,,,,,,.01 IN,,,,,2000.0,2000.0,BKN,2000.0,BKN,2800.0,,,,
KRDR,06-15-2014,19:53,SPECI,Normal,320,11.0,20.0,,9999.0,,18.0,17.0,29.51,,,,,,,,,,,,,,,,,2800.0,2000.0,SCT,2000.0,BKN,2800.0,,,,
KRDR,06-15-2014,19:28,SPECI,Normal,300,15.0,17.0,,9999.0,,17.0,17.0,29.50,,,,,,,,,,,,,,,,,4300.0,1600.0,SCT,1600.0,BKN,4300.0,,,,
KRDR,06-15-2014,19:23,SPECI,Normal,290,14.0,18.0,,9999.0,,17.0,17.0,29.50,,,,,,,,,,,,,,,,,1600.0,1600.0,BKN,1600.0,BKN,4400.0,,,,
KRDR,06-15-2014,19:15,SPECI,Normal,300,11.0,18.0,,9999.0,,17.0,16.0,29.50,,,,,,,,,,,,,,,,,1600.0,1600.0,BKN,1600.0,OVC,2200.0,,,,
KRDR,06-15-2014,19:11,SPECI,Normal,310,11.0,,,9999.0,,16.0,16.0,29.50,,,,,,,,,,,,,,,,,1600.0,1600.0,BKN,1600.0,OVC,2200.0,,,,
KRDR,06-15-2014,18:58,METAR,Normal,300,13.0,,,9999.0,Light Drizzle,15.6,,29.49,999.0,51,,,,,,,,,,TRACE,,,,,1600.0,1600.0,BKN,1600.0,OVC,2200.0,,,,
KRDR,06-15-2014,18:08,SPECI,Normal,300,12.0,19.0,,9999.0,,15.0,15.0,29.48,,,,,,,,,,,,,,,,,1600.0,1600.0,BKN,1600.0,OVC,2100.0,,,,
KRDR,06-15-2014,17:58,METAR,Normal,300,12.0,,,9999.0,Light Drizzle,15.0,,29.48,998.7,51,,,,,,,,,,.01 IN,,.12 IN,,,1400.0,1400.0,BKN,1400.0,OVC,1900.0,,,,
KRDR,06-15-2014,17:28,SPECI,Normal,300,11.0,,,9999.0,Light Rain,15.0,15.0,29.47,,61,,,,,,,,,,,,,,,1300.0,1300.0,BKN,1300.0,BKN,6500.0,BKN,8000.0,,
KRDR,06-15-2014,16:58,METAR,Normal,310,9.0,,,9999.0,Light Rain,14.4,,29.46,998.1,61,,,,,,,,,,.02 IN,,,,,4100.0,1100.0,SCT,1100.0,OVC,4100.0,,,,
KRDR,06-15-2014,16:57,SPECI,Normal,310,9.0,,,9999.0,Light Rain,14.0,14.0,29.46,,61,,,,,,,,,,,,,,,4100.0,1100.0,SCT,1100.0,OVC,4100.0,,,,
KRDR,06-15-2014,16:47,SPECI,Normal,310,11.0,,,9999.0,Light Rain,14.0,14.0,29.47,,61,,,,,,,,,,,,,,,1100.0,1100.0,BKN,1100.0,OVC,4400.0,,,,
KRDR,06-15-2014,16:39,SPECI,Normal,310,12.0,,,9999.0,Light Rain,14.0,14.0,29.47,,61,,,,,,,,,,,,,,,1200.0,1200.0,BKN,1200.0,OVC,4700.0,,,,
KRDR,06-15-2014,16:09,SPECI,Normal,300,13.0,,,9999.0,Light Drizzle,15.0,15.0,29.47,,51,,,,,,,,,,,,,,,1200.0,1200.0,OVC,1200.0,,,,,,
KRDR,06-15-2014,15:58,METAR,Normal,320,11.0,,,9999.0,,14.5,,29.48,998.7,,,,,,,,,,,.01 IN,,,,,1300.0,1300.0,BKN,1300.0,OVC,4400.0,,,,
KRDR,06-15-2014,15:24,SPECI,Normal,310,9.0,,,9999.0,,14.0,14.0,29.48,,,,,,,,,,,,,,,,,1200.0,1200.0,OVC,1200.0,,,,,,
KRDR,06-15-2014,15:21,SPECI,Normal,320,9.0,,,9999.0,Light Drizzle,14.0,14.0,29.48,,51,,,,,,,,,,,,,,,1000.0,1000.0,BKN,1000.0,OVC,1400.0,,,,
KRDR,06-15-2014,15:18,SPECI,Normal,320,9.0,,,9999.0,Light Drizzle,14.0,14.0,29.48,,51,,,,,,,,,,,,,,,1200.0,1200.0,OVC,1200.0,,,,,,
KRDR,06-15-2014,15:03,SPECI,Normal,330,8.0,,,9999.0,Light Rain,14.0,14.0,29.48,,61,,,,,,,,,,,,,,,1000.0,1000.0,OVC,1000.0,,,,,,
KRDR,06-15-2014,14:58,METAR,Normal,330,11.0,,,9999.0,Light Rain,14.2,,29.48,998.7,61,,,,,,,,,,.08 IN,.08 IN,,,,900.0,900.0,OVC,900.0,,,,,,
KRDR,06-15-2014,14:55,SPECI,Normal,320,9.0,,,9999.0,Light Rain,14.0,14.0,29.48,,61,,,,,,,,,,,,,,,900.0,900.0,OVC,900.0,,,,,,
KRDR,06-15-2014,14:45,SPECI,Normal,330,9.0,,,9999.0,Light Rain,14.0,14.0,29.49,,61,,,,,,,,,,,,,,,1000.0,1000.0,OVC,1000.0,,,,,,
KRDR,06-15-2014,14:15,SPECI,Normal,330,6.0,,,9999.0,Light Rain,14.0,14.0,29.51,,61,,,,,,,,,,,,,,,900.0,900.0,OVC,900.0,,,,,,
KRDR,06-15-2014,14:00,SPECI,Normal,330,7.0,,,9999.0,Light Drizzle,15.0,15.0,29.51,,51,,,,,,,,,,,,,,,900.0,1000.0,BKN,1000.0,OVC,1800.0,,,,
KRDR,06-15-2014,13:58,METAR,Normal,340,7.0,,,9999.0,,14.7,14.7,29.50,999.4,,,,,,,,,,,,,,,,1800.0,900.0,SCT,900.0,OVC,1800.0,,,,
KRDR,06-15-2014,13:34,SPECI,Normal,340,8.0,,,9999.0,,15.0,15.0,29.50,,,,,,,,,,,,,,,,,800.0,1100.0,SCT,1100.0,OVC,1600.0,,,,
KRDR,06-15-2014,13:33,SPECI,Normal,340,8.0,,,9999.0,,15.0,15.0,29.50,,,,,,,,,,,,,,,,,1000.0,1400.0,OVC,1400.0,,,,,,
KRDR,06-15-2014,13:18,SPECI,Normal,340,9.0,,,9999.0,,15.0,15.0,29.50,,,,,,,,,,,,,,,,,1000.0,1000.0,OVC,1000.0,,,,,,
KRDR,06-15-2014,12:58,METAR,Normal,350,10.0,,,9999.0,,14.8,,29.50,999.4,,,,,,,,,,,,,,,,800.0,800.0,OVC,800.0,,,,,,
KRDR,06-15-2014,11:58,METAR,Normal,330,8.0,,,9999.0,,15.5,,29.52,1000.1,,,,,,,,,,,,,TRACE,.55 IN,,700.0,700.0,OVC,700.0,,,,,,
KRDR,06-15-2014,10:58,METAR,Normal,220,4.0,,,9999.0,,16.0,16.0,29.53,1000.4,,,,,,,,,,,,,,,,700.0,700.0,OVC,700.0,,,,,,
KRDR,06-15-2014,10:29,SPECI,Normal,200,4.0,,,9999.0,,16.0,16.0,29.53,,,,,,,,,,,,,,,,,700.0,700.0,BKN,700.0,OVC,1200.0,,,,
KRDR,06-15-2014,10:14,SPECI,Normal,180,4.0,,,9999.0,,16.0,16.0,29.53,,,,,,,,,,,,,,,,,1100.0,1100.0,OVC,1100.0,,,,,,
KRDR,06-15-2014,10:03,SPECI,Normal,180,3.0,,,9999.0,,16.0,16.0,29.53,,,,,,,,,,,,,,,,,1200.0,1200.0,OVC,1200.0,,,,,,
KRDR,06-15-2014,09:58,METAR,Normal,200,3.0,,,9999.0,,16.0,16.0,29.53,1000.4,,,,,,,,,,,,,,,,1100.0,1100.0,OVC,1100.0,,,,,,
KRDR,06-15-2014,09:33,SPECI,Normal,190,5.0,,,9999.0,,16.0,16.0,29.54,,,,,,,,,,,,,,,,,400.0,400.0,SCT,400.0,OVC,1000.0,,,,
KRDR,06-15-2014,08:58,METAR,Normal,180,7.0,,,9999.0,,16.0,16.0,29.54,1000.7,,,,,,,,,,,,TRACE,,,,400.0,400.0,OVC,400.0,,,,,,
KRDR,06-15-2014,08:23,SPECI,Normal,170,8.0,,,9999.0,,16.0,16.0,29.54,,,,,,,,,,,,,,,,,500.0,500.0,OVC,500.0,,,,,,
KRDR,06-15-2014,08:03,SPECI,Normal,170,9.0,,,9999.0,,16.0,16.0,29.55,,,,,,,,,,,,,,,,,600.0,600.0,BKN,600.0,OVC,1500.0,,,,
KRDR,06-15-2014,07:58,METAR,Normal,180,9.0,,,9999.0,,16.1,,29.56,1001.3,,,,,,,,,,,TRACE,,,,,700.0,700.0,BKN,700.0,OVC,1500.0,,,,
KRDR,06-15-2014,07:38,SPECI,Normal,170,10.0,,,9999.0,,16.0,16.0,29.57,,,,,,,,,,,,,,,,,700.0,700.0,OVC,700.0,,,,,,
KRDR,06-15-2014,07:33,SPECI,Normal,170,9.0,,,9999.0,Light Drizzle,16.0,16.0,29.57,,51,,,,,,,,,,,,,,,700.0,700.0,OVC,700.0,,,,,,
KRDR,06-15-2014,07:28,SPECI,Normal,170,10.0,,,9999.0,Light Drizzle,16.0,16.0,29.57,,51,,,,,,,,,,,,,,,700.0,700.0,BKN,700.0,OVC,2100.0,,,,
KRDR,06-15-2014,07:18,SPECI,Normal,170,9.0,,,9999.0,,16.0,16.0,29.58,,,,,,,,,,,,,,,,,700.0,700.0,BKN,700.0,OVC,1900.0,,,,
KRDR,06-15-2014,06:58,METAR,Normal,190,8.0,,,9999.0,,16.5,,29.58,1002.0,,,,,,,,,,,,,,,,1700.0,800.0,FEW,800.0,BKN,1700.0,OVC,2700.0,,
KRDR,06-15-2014,06:28,SPECI,Normal,180,10.0,,,9999.0,,16.0,16.0,29.57,,,,,,,,,,,,,,,,,1300.0,700.0,FEW,700.0,BKN,1700.0,OVC,2600.0,,
KRDR,06-15-2014,06:03,SPECI,Normal,170,13.0,,,9999.0,,17.0,17.0,29.59,,,,,,,,,,,,,,,,,1200.0,700.0,FEW,700.0,BKN,1200.0,BKN,2800.0,,
KRDR,06-15-2014,05:58,METAR,Normal,180,9.0,,,9999.0,,17.0,17.0,29.59,1002.4,,,,,,,,,,,.01 IN,,.01 IN,,,1300.0,1300.0,BKN,1300.0,BKN,2900.0,,,,
KRDR,06-15-2014,05:57,SPECI,Normal,180,9.0,,,9999.0,,17.0,17.0,29.59,,,,,,,,,,,,,,,,,1300.0,1300.0,BKN,1300.0,BKN,2900.0,,,,
KRDR,06-15-2014,05:52,SPECI,Normal,180,8.0,,,9999.0,,17.0,17.0,29.59,,,,,,,,,,,,,,,,,1100.0,1300.0,SCT,1300.0,BKN,2900.0,,,,
KRDR,06-15-2014,05:47,SPECI,Normal,180,8.0,,,9999.0,,17.0,17.0,29.59,,,,,,,,,,,,,,,,,1300.0,1300.0,BKN,1300.0,BKN,4500.0,,,,
KRDR,06-15-2014,05:32,SPECI,Normal,180,9.0,,,9999.0,,17.0,17.0,29.60,,,,,,,,,,,,,,,,,3800.0,1100.0,FEW,1100.0,SCT,3200.0,BKN,3800.0,,
KRDR,06-15-2014,05:31,SPECI,Normal,190,10.0,,,9999.0,Light Drizzle,17.0,17.0,29.60,,51,,,,,,,,,,,,,,,3800.0,1100.0,FEW,1100.0,SCT,2500.0,BKN,3800.0,,
KRDR,06-15-2014,05:21,SPECI,Normal,180,10.0,,,9999.0,Light Rain,17.0,17.0,29.60,,61,,,,,,,,,,,,,,,3500.0,1000.0,FEW,1000.0,SCT,2300.0,BKN,3500.0,,
KRDR,06-15-2014,05:13,SPECI,Normal,190,9.0,,,9999.0,,17.0,17.0,29.60,,,,,,,,,,,,,,,,,900.0,1000.0,SCT,1000.0,BKN,2400.0,OVC,3100.0,,
KRDR,06-15-2014,05:08,SPECI,Normal,200,9.0,,,9999.0,,17.0,17.0,29.60,,,,,,,,,,,,,,,,,800.0,900.0,BKN,900.0,BKN,2200.0,OVC,3200.0,,
KRDR,06-15-2014,05:03,SPECI,Normal,190,8.0,,,9999.0,,17.0,17.0,29.60,,,,,,,,,,,,,,,,,800.0,1000.0,OVC,1000.0,,,,,,
KRDR,06-15-2014,04:58,METAR,Normal,200,9.0,,,9999.0,,16.8,,29.60,1002.7,,,,,,,,,,,,,,,,900.0,900.0,BKN,900.0,OVC,1300.0,,,,
KRDR,06-15-2014,03:58,METAR,Normal,170,13.0,,,9999.0,,16.9,,29.59,1002.4,,,,,,,,,,,,,,,,800.0,800.0,OVC,800.0,,,,,,
KRDR,06-15-2014,02:58,METAR,Normal,160,8.0,,,9999.0,,16.8,,29.59,1002.4,,,,,,,,,,,,,,,,700.0,700.0,OVC,700.0,,,,,,
KRDR,06-15-2014,02:48,SPECI,Normal,150,8.0,,,9999.0,,17.0,17.0,29.59,,,,,,,,,,,,,,,,,800.0,800.0,BKN,800.0,OVC,1500.0,,,,
KRDR,06-15-2014,02:33,SPECI,Normal,150,10.0,,,9999.0,,17.0,17.0,29.59,,,,,,,,,,,,,,,,,1500.0,800.0,FEW,800.0,OVC,1500.0,,,,
KRDR,06-15-2014,02:23,SPECI,Normal,150,13.0,,,9999.0,,17.0,17.0,29.59,,,,,,,,,,,,,,,,,700.0,800.0,SCT,800.0,OVC,1300.0,,,,
KRDR,06-15-2014,01:58,METAR,Normal,150,12.0,,,9999.0,,16.9,,29.59,1002.4,,,,,,,,,,,,,,,,700.0,700.0,OVC,700.0,,,,,,
KRDR,06-15-2014,01:43,SPECI,Normal,140,11.0,,,9999.0,,17.0,17.0,29.59,,,,,,,,,,,,,,,,,700.0,700.0,OVC,700.0,,,,,,
KRDR,06-15-2014,01:03,SPECI,Normal,130,8.0,,,9999.0,,17.0,17.0,29.59,,,,,,,,,,,,,,,,,600.0,600.0,OVC,600.0,,,,,,
KRDR,06-15-2014,00:58,METAR,Normal,140,8.0,,,9999.0,,16.8,,29.60,1002.8,,,,,,,,,,,,,,,,700.0,700.0,OVC,700.0,,,,,,
KRDR,06-15-2014,00:33,SPECI,Normal,100,9.0,,,9999.0,,17.0,17.0,29.56,,,,,,,,,,,,,,,,,900.0,900.0,OVC,900.0,,,,,,
KRDR,06-15-2014,00:18,SPECI,Normal,100,7.0,,,9999.0,,17.0,17.0,29.57,,,,,,,,,,,,,,,,,1100.0,1100.0,OVC,1100.0,,,,,,
KRDR,06-14-2014,23:58,METAR,Normal,110,8.0,,,9999.0,,17.0,17.0,29.57,1001.8,,,,,,,,,,,.01 IN,,.54 IN,,,1300.0,700.0,FEW,700.0,OVC,1300.0,,,,
KRDR,06-14-2014,23:56,SPECI,Normal,110,8.0,,,9999.0,,17.0,17.0,29.57,,,,,,,,,,,,,,,,,1300.0,700.0,FEW,700.0,OVC,1300.0,,,,
KRDR,06-14-2014,23:48,SPECI,Normal,120,7.0,,,9999.0,Light Drizzle,17.0,17.0,29.58,,51,,,,,,,,,,,,,,,500.0,600.0,SCT,600.0,OVC,1300.0,,,,
KRDR,06-14-2014,23:43,SPECI,Normal,130,7.0,,,9999.0,Light Rain,17.0,17.0,29.59,,61,,,,,,,,,,,,,,,700.0,700.0,BKN,700.0,OVC,1300.0,,,,
KRDR,06-14-2014,23:28,SPECI,Normal,140,8.0,,,9999.0,,17.0,17.0,29.61,,,,,,,,,,,,,,,,,600.0,600.0,OVC,600.0,,,,,,
KRDR,06-14-2014,23:13,SPECI,Normal,120,9.0,,,9999.0,Light Drizzle,17.0,17.0,29.61,,51,,,,,,,,,,,,,,,600.0,600.0,OVC,600.0,,,,,,
KRDR,06-14-2014,23:10,SPECI,Normal,120,7.0,,,9999.0,,17.0,17.0,29.61,,,,,,,,,,,,,,,,,600.0,600.0,OVC,600.0,,,,,,
KRDR,06-14-2014,23:08,SPECI,Normal,110,8.0,,,9999.0,Light Drizzle/Mist,17.0,17.0,29.61,,51,10,,,,,,,,,,,,,,600.0,600.0,OVC,600.0,,,,,,
KRDR,06-14-2014,23:03,SPECI,Normal,100,8.0,,,4000.0,Light Rain/Mist,17.0,17.0,29.61,,61,10,,,,,,,,,,,,,,600.0,600.0,OVC,600.0,,,,,,
KRDR,06-14-2014,22:58,METAR,Normal,100,9.0,,,3200.0,Light Rain/Mist,16.6,16.6,29.61,1003.2,61,10,,,,,,,,,.41 IN,,,,,700.0,700.0,OVC,700.0,,,,,,
KRDR,06-14-2014,22:56,SPECI,Normal,100,8.0,,,3200.0,Light Rain/Mist,17.0,17.0,29.61,,61,10,,,,,,,,,,,,,,700.0,700.0,OVC,700.0,,,,,,
KRDR,06-14-2014,22:46,SPECI,Normal,100,8.0,,,4800.0,Light Rain/Mist,17.0,17.0,29.61,,61,10,,,,,,,,,,,,,,700.0,700.0,BKN,700.0,OVC,1200.0,,,,
KRDR,06-14-2014,22:41,SPECI,Normal,100,7.0,,,4000.0,Light Rain/Mist,17.0,17.0,29.61,,61,10,,,,,,,,,,,,,,1000.0,1000.0,OVC,1000.0,,,,,,
KRDR,06-14-2014,22:36,SPECI,Normal,90,6.0,,,1600.0,Light Rain/Distant Lightning/Mist,17.0,17.0,29.62,,61,10,12,,,,,,,,,,,,Sky Obscured (Unable to Estimate),1100.0,1100.0,,1100.0,,,,,,
KRDR,06-14-2014,22:32,SPECI,Normal,90,8.0,,,1200.0,Light Rain/Distant Lightning/Mist,17.0,17.0,29.62,,61,10,12,,,,,,,,,,,,Sky Obscured (Unable to Estimate),1200.0,1200.0,,1200.0,,,,,,
KRDR,06-14-2014,22:30,SPECI,Normal,90,8.0,,,1200.0,Heavy Thunderstorm and Rain or Snow Showers/Mist,17.0,17.0,29.62,,95,10,,,,,,,,,,,,,Sky Obscured (Unable to Estimate),1200.0,1200.0,,1200.0,,,,,,
KRDR,06-14-2014,22:25,SPECI,Normal,120,7.0,,,2000.0,Thunderstorm and Rain or Snow Showers/Mist,17.0,17.0,29.62,,92,10,,,,,,,,,,,,,,1300.0,1300.0,OVC,1300.0,,,,,,
KRDR,06-14-2014,22:20,SPECI,Normal,100,6.0,,,2400.0,Thunderstorm and Rain or Snow Showers/Mist,17.0,17.0,29.62,,92,10,,,,,,,,,,,,,,1400.0,1400.0,OVC,1400.0,,,,,,
KRDR,06-14-2014,22:15,SPECI,Normal,100,9.0,,,3200.0,Thunderstorm and Rain or Snow Showers/Mist,17.0,17.0,29.62,,92,10,,,,,,,,,,,,,,1400.0,1400.0,OVC,1400.0,,,,,,
KRDR,06-14-2014,22:10,SPECI,Normal,100,8.0,,,4800.0,Thunderstorm and Rain or Snow Showers/Mist,17.0,17.0,29.62,,92,10,,,,,,,,,,,,,,1500.0,1500.0,OVC,1500.0,,,,,,
KRDR,06-14-2014,22:04,SPECI,Normal,100,9.0,,,4800.0,Dry Thunderstorm/Mist,17.0,17.0,29.62,,91,10,,,,,,,,,,,,,,1600.0,1600.0,OVC,1600.0,,,,,,
KRDR,06-14-2014,22:02,SPECI,Normal,100,9.0,,,4800.0,Thunderstorm and Rain or Snow Showers/Mist,17.0,17.0,29.62,,92,10,,,,,,,,,,,,,,1700.0,1700.0,OVC,1700.0,,,,,,
KRDR,06-14-2014,21:58,METAR,Normal,100,10.0,,,4000.0,Light Rain/Mist,16.7,16.7,29.61,1003.2,61,10,,,,,,,,,.12 IN,,,,,1700.0,1700.0,OVC,1700.0,,,,,,
KRDR,06-14-2014,21:55,SPECI,Normal,100,9.0,,,4000.0,Light Rain/Mist,17.0,17.0,29.62,,61,10,,,,,,,,,,,,,,1700.0,1700.0,OVC,1700.0,,,,,,
KRDR,06-14-2014,21:50,SPECI,Normal,100,9.0,,,2800.0,Light Rain/Mist,17.0,17.0,29.62,,61,10,,,,,,,,,,,,,,1700.0,1700.0,OVC,1700.0,,,,,,
KRDR,06-14-2014,21:30,SPECI,Normal,130,10.0,,,4000.0,Light Rain/Mist,17.0,17.0,29.64,,61,10,,,,,,,,,,,,,,1700.0,1700.0,OVC,1700.0,,,,,,
KRDR,06-14-2014,21:20,SPECI,Normal,100,8.0,,,9999.0,Light Drizzle,18.0,18.0,29.63,,51,,,,,,,,,,,,,,,1800.0,1800.0,OVC,1800.0,,,,,,
KRDR,06-14-2014,20:58,METAR,Normal,110,9.0,,,9999.0,,18.5,17.6,29.63,1003.8,,,,,,,,,,,,,,,,1700.0,1700.0,OVC,1700.0,,,,,,
KRDR,06-14-2014,20:33,SPECI,Normal,110,8.0,,,9999.0,,19.0,17.0,29.62,,,,,,,,,,,,,,,,,1700.0,1700.0,BKN,1700.0,OVC,3700.0,,,,
KRDR,06-14-2014,20:13,SPECI,Normal,130,10.0,,,9999.0,,19.0,17.0,29.63,,,,,,,,,,,,,,,,,3800.0,1600.0,SCT,1600.0,OVC,3800.0,,,,
KRDR,06-14-2014,19:58,METAR,Normal,140,10.0,,,9999.0,,18.6,17.6,29.63,1003.8,,,,,,,,,,,,,,,,1500.0,1500.0,OVC,1500.0,,,,,,
KRDR,06-14-2014,18:58,METAR,Normal,120,10.0,,,9999.0,,18.9,17.3,29.61,1003.0,,,,,,,,,,,,,,,,2000.0,2000.0,BKN,2000.0,OVC,2500.0,,,,
KRDR,06-14-2014,17:58,METAR,Normal,130,10.0,,,9999.0,,18.8,16.4,29.63,1003.7,,,,,,,,,,,,,,,,2400.0,2100.0,SCT,2100.0,OVC,2800.0,,,,
KRDR,06-14-2014,16:58,METAR,Normal,140,9.0,,,9999.0,,19.1,16.2,29.65,1004.5,,,,,,,,,,,,,,,,2500.0,2500.0,OVC,2500.0,,,,,,
KRDR,06-14-2014,16:13,SPECI,Normal,160,13.0,,,9999.0,,20.0,16.0,29.66,,,,,,,,,,,,,,,,,2300.0,2300.0,BKN,2300.0,,,,,,
KRDR,06-14-2014,15:58,METAR,Normal,150,12.0,,,9999.0,,19.3,15.8,29.66,1004.7,,,,,,,,,,,,,,,,,2100.0,FEW,2100.0,,,,,,
KRDR,06-14-2014,14:58,METAR,Normal,140,17.0,22.0,,9999.0,,18.4,14.6,29.67,1005.1,,,,,,,,,,,,,,,Clear,72000.0,,,,,,,,,
KRDR,06-14-2014,13:58,METAR,Normal,140,14.0,21.0,,9999.0,,17.2,14.1,29.69,1005.8,,,,,,,,,,,,,,,Clear,72000.0,,,,,,,,,
KRDR,06-14-2014,12:58,METAR,Normal,130,9.0,,,9999.0,,14.9,14.6,29.69,1005.8,,,,,,,,,,,,,,,Clear,72000.0,,,,,,,,,
KRDR,06-14-2014,11:58,METAR,Normal,140,12.0,,,9999.0,,14.1,13.9,29.68,1005.5,,,,,,,,,,,,,.03 IN,.08 IN,,10000.0,10000.0,BKN,10000.0,,,,,,
KRDR,06-14-2014,10:58,METAR,Normal,150,13.0,22.0,,9999.0,,14.1,14.0,29.68,1005.5,,,,,,,,,,,,,,,,9000.0,9000.0,OVC,9100.0,,,,,,
KRDR,06-14-2014,09:58,METAR,Normal,160,16.0,20.0,130/27KTS,9999.0,,14.4,13.7,29.70,1006.1,,,,,,,,,,,.01 IN,,,,,9500.0,9500.0,OVC,9600.0,,,,,,
KRDR,06-14-2014,09:12,SPECI,Normal,160,14.0,21.0,,9999.0,,14.0,13.0,29.71,,,,,,,,,,,,,,,,,9500.0,2000.0,FEW,2000.0,SCT,6000.0,BKN,9600.0,,
KRDR,06-14-2014,08:58,METAR,Normal,150,17.0,,140/30KTS,9999.0,Light Rain,14.7,13.4,29.71,1006.4,61,,,,,,,,,,.02 IN,.02 IN,,,,6000.0,2100.0,SCT,2100.0,SCT,3200.0,BKN,6000.0,,
KRDR,06-14-2014,08:44,SPECI,Normal,150,18.0,,,9999.0,Light Rain,16.0,12.0,29.72,,61,,,,,,,,,,,,,,,9500.0,2900.0,FEW,2900.0,SCT,6000.0,BKN,9600.0,,
KRDR,06-14-2014,07:58,METAR,Normal,140,13.0,,,9999.0,,15.2,12.9,29.74,1007.4,,,,,,,,,,,TRACE,,,,,8500.0,8500.0,OVC,8600.0,,,,,,
KRDR,06-14-2014,07:42,SPECI,Normal,130,13.0,,,9999.0,,15.0,13.0,29.74,,,,,,,,,,,,,,,,,8000.0,5000.0,FEW,5000.0,BKN,8000.0,,,,
KRDR,06-14-2014,07:28,SPECI,Normal,130,14.0,,,9999.0,Light Drizzle,15.0,13.0,29.74,,51,,,,,,,,,,,,,,,8000.0,900.0,FEW,900.0,SCT,5500.0,BKN,8000.0,,
KRDR,06-14-2014,07:05,SPECI,Normal,140,14.0,,,9999.0,,15.0,13.0,29.76,,,,,,,,,,,,,,,,,8000.0,8000.0,OVC,8000.0,,,,,,
KRDR,06-14-2014,06:58,METAR,Normal,140,13.0,19.0,,9999.0,Light Rain,15.9,12.4,29.76,1008.1,61,,,,,,,,,,TRACE,,,,,8000.0,8000.0,OVC,8000.0,,,,,,
KRDR,06-14-2014,06:53,SPECI,Normal,140,14.0,,,9999.0,Light Rain,16.0,12.0,29.76,,61,,,,,,,,,,,,,,,8000.0,8000.0,OVC,8000.0,,,,,,
KRDR,06-14-2014,05:58,METAR,Normal,140,14.0,,,9999.0,,15.7,12.2,29.78,,,,,,,,,,,,TRACE,,.05 IN,,,8000.0,8000.0,BKN,8000.0,BKN,10000.0,,,,
KRDR,06-14-2014,05:07,SPECI,Normal,120,10.0,,,9999.0,,15.0,13.0,29.79,,,,,,,,,,,,,,,,,8500.0,8500.0,BKN,8600.0,,,,,,
KRDR,06-14-2014,04:59,SPECI,Normal,130,8.0,,,9999.0,Light Rain,15.0,13.0,29.80,,61,,,,,,,,,,,,,,,9000.0,9000.0,BKN,9100.0,,,,,,
KRDR,06-14-2014,04:58,METAR,Normal,130,10.0,,,9999.0,,15.0,13.1,29.80,,,,,,,,,,,,.04 IN,,,,,8500.0,8500.0,BKN,8600.0,,,,,,
KRDR,06-14-2014,04:35,SPECI,Normal,100,10.0,,,9999.0,,15.0,13.0,29.81,,,,,,,,,,,,,,,,,9000.0,2400.0,SCT,2400.0,BKN,9100.0,,,,
KRDR,06-14-2014,04:23,SPECI,Normal,110,9.0,20.0,,9999.0,Light Rain,15.0,13.0,29.81,,61,,,,,,,,,,,,,,,9500.0,2400.0,SCT,2400.0,BKN,9600.0,,,,
KRDR,06-14-2014,04:13,SPECI,Normal,140,15.0,24.0,,9999.0,Light Rain,15.0,13.0,29.77,,61,,,,,,,,,,,,,,,2900.0,900.0,FEW,900.0,BKN,2900.0,OVC,9100.0,,
KRDR,06-14-2014,04:10,SPECI,Normal,140,18.0,24.0,,9999.0,,15.0,13.0,29.77,,,,,,,,,,,,,,,,,3500.0,1000.0,FEW,1000.0,BKN,3500.0,BKN,8600.0,,
KRDR,06-14-2014,04:09,SPECI,Normal,150,19.0,24.0,,9999.0,Light Rain,15.0,13.0,29.77,,61,,,,,,,,,,,,,,,3700.0,1000.0,FEW,1000.0,BKN,3700.0,BKN,6000.0,,
KRDR,06-14-2014,04:04,SPECI,Normal,150,20.0,24.0,,9999.0,Light Rain,16.0,13.0,29.78,,61,,,,,,,,,,,,,,,8500.0,1000.0,FEW,1000.0,SCT,3700.0,OVC,8600.0,,
KRDR,06-14-2014,04:03,SPECI,Normal,140,19.0,,,9999.0,Light Rain,16.0,13.0,29.79,,61,,,,,,,,,,,,,,,8500.0,3700.0,FEW,3700.0,SCT,6000.0,OVC,8600.0,,
KRDR,06-14-2014,03:58,METAR,Normal,130,14.0,,,9999.0,Light Rain,16.2,12.5,29.81,1009.8,61,,,,,,,,,,.01 IN,,,,,8500.0,4600.0,FEW,4600.0,OVC,8600.0,,,,
KRDR,06-14-2014,03:55,SPECI,Normal,120,13.0,,,9999.0,Light Rain,16.0,13.0,29.82,,61,,,,,,,,,,,,,,,8500.0,3700.0,FEW,3700.0,OVC,8600.0,,,,
KRDR,06-14-2014,03:50,SPECI,Normal,100,9.0,,,9999.0,Light Rain,16.0,12.0,29.83,,61,,,,,,,,,,,,,,,8500.0,7000.0,FEW,7000.0,BKN,8600.0,,,,
KRDR,06-14-2014,03:46,SPECI,Normal,100,9.0,,,9999.0,,16.0,13.0,29.83,,,,,,,,,,,,,,,,,8000.0,8000.0,OVC,8000.0,,,,,,
KRDR,06-14-2014,03:17,SPECI,Normal,40,6.0,,,9999.0,,17.0,10.0,29.82,,,,,,,,,,,,,,,,,8000.0,8000.0,OVC,8000.0,,,,,,
KRDR,06-14-2014,02:58,METAR,Normal,130,9.0,,,9999.0,,17.5,10.2,29.78,1008.8,,,,,,,,,,,,TRACE,,,,8500.0,8500.0,OVC,8600.0,,,,,,
KRDR,06-14-2014,01:58,METAR,Normal,100,7.0,,,9999.0,,18.2,10.1,29.79,1009.2,,,,,,,,,,,,,,,,9500.0,9500.0,OVC,9600.0,,,,,,
KRDR,06-14-2014,00:58,METAR,Normal,100,7.0,,,9999.0,,19.0,8.9,29.80,,,,,,,,,,,,TRACE,,,,,9500.0,9500.0,OVC,9600.0,,,,,,
KRDR,06-14-2014,00:51,SPECI,Normal,100,7.0,,,9999.0,,19.0,9.0,29.80,,,,,,,,,,,,,,,,,9500.0,9500.0,OVC,9600.0,,,,,,
KRDR,06-14-2014,00:39,SPECI,Normal,80,6.0,,,9999.0,Light Rain,19.0,9.0,29.81,,61,,,,,,,,,,,,,,,9500.0,9500.0,OVC,9600.0,,,,,,
KRDR,06-13-2014,23:58,METAR,Normal,90,6.0,,,9999.0,,19.8,9.3,29.81,1010.0,,,,,,,,,,,TRACE,,TRACE,,,10000.0,10000.0,OVC,10000.0,,,,,,
KRDR,06-13-2014,23:28,SPECI,Normal,100,10.0,16.0,,9999.0,,20.0,10.0,29.80,,,,,,,,,,,,,,,,,9500.0,9500.0,OVC,9600.0,,,,,,
KRDR,06-13-2014,23:19,SPECI,Normal,110,9.0,,,9999.0,,20.0,10.0,29.80,,,,,,,,,,,,,,,,,10000.0,10000.0,BKN,10000.0,,,,,,
KRDR,06-13-2014,22:58,METAR,Normal,90,8.0,,,9999.0,,20.4,8.6,29.82,1010.4,,,,,,,,,,,,,,,,10000.0,10000.0,OVC,10000.0,,,,,,
KRDR,06-13-2014,21:58,METAR,Normal,120,9.0,,,9999.0,,21.1,7.2,29.82,1010.4,,,,,,,,,,,,,,,,11000.0,11000.0,OVC,11000.0,,,,,,
KRDR,06-13-2014,20:58,METAR,Normal,130,11.0,,,9999.0,,22.4,7.2,29.85,1011.3,,,,,,,,,,,,,,,,,12000.0,SCT,12000.0,,,,,,
KRDR,06-13-2014,19:58,METAR,Normal,130,11.0,,,9999.0,,22.3,8.1,29.86,1011.7,,,,,,,,,,,,,,,,,12000.0,SCT,12000.0,,,,,,
KRDR,06-13-2014,18:58,METAR,Normal,130,9.0,,,9999.0,,22.2,8.8,29.90,1013.0,,,,,,,,,,,,,,,Clear,72000.0,,,,,,,,,
KRDR,06-13-2014,17:58,METAR,Normal,130,10.0,,,9999.0,,23.1,10.0,29.91,1013.3,,,,,,,,,,,,,,,Clear,72000.0,,,,,,,,,
KRDR,06-13-2014,16:58,METAR,Normal,170,7.0,,,9999.0,,22.0,9.5,29.92,1013.7,,,,,,,,,,,,,,,Clear,72000.0,,,,,,,,,
KRDR,06-13-2014,15:59,METAR,Variable,,3.0,,,9999.0,,21.0,9.5,29.94,1014.8,,,,,,,,,,,,,,,Clear,72000.0,,,,,,,,,
KRDR,06-13-2014,14:59,METAR,Calm,,0.0,,,9999.0,,19.3,10.8,29.96,1015.4,,,,,,,,,,,,,,,Clear,72000.0,,,,,,,,,
KRDR,06-13-2014,13:59,METAR,Variable,,2.0,,,9999.0,,16.6,12.0,29.97,1015.3,,,,,,,,,,,,,,,Clear,72000.0,,,,,,,,,
KRDR,06-13-2014,11:58,METAR,Calm,,0.0,,,9999.0,,11.2,11.0,29.98,1015.8,,,,,,,,,,,,,,,Clear,72000.0,,,,,,,,,
KRDR,06-13-2014,10:58,METAR,Normal,230,3.0,,,9999.0,,9.1,8.1,29.97,1015.5,,,,,,,,,,,,,,,Clear,72000.0,,,,,,,,,
KRDR,06-13-2014,09:58,METAR,Normal,220,3.0,,,9999.0,,9.1,8.2,29.97,1015.4,,,,,,,,,,,,,,,Clear,72000.0,,,,,,,,,
KRDR,06-13-2014,08:58,METAR,Normal,250,4.0,,,9999.0,,9.8,8.3,29.97,1015.4,,,,,,,,,,,,,,,Clear,72000.0,,,,,,,,,
KRDR,06-13-2014,07:58,METAR,Normal,240,4.0,,,9999.0,,9.4,9.3,29.98,1015.8,,,,,,,,,,,,,,,Clear,72000.0,,,,,,,,,
KRDR,06-13-2014,06:58,METAR,Normal,230,3.0,,,9999.0,,10.4,10.2,29.97,1015.5,,,,,,,,,,,,,,,Clear,72000.0,,,,,,,,,
KRDR,06-13-2014,05:58,METAR,Normal,240,3.0,,,9999.0,,10.9,10.9,29.98,1015.8,,,,,,,,,,,,,,,Clear,72000.0,,,,,,,,,
KRDR,06-13-2014,04:58,METAR,Calm,,0.0,,,9999.0,,10.4,10.4,29.98,1015.9,,,,,,,,,,,,,,,Clear,72000.0,,,,,,,,,
KRDR,06-13-2014,03:58,METAR,Calm,,0.0,,,9999.0,,11.9,11.8,29.98,1015.9,,,,,,,,,,,,,,,Clear,72000.0,,,,,,,,,
KRDR,06-13-2014,02:58,METAR,Normal,210,2.0,,,9999.0,,14.2,13.6,29.97,1015.6,,,,,,,,,,,,,,,,,9000.0,SCT,9100.0,,,,,,
KRDR,06-13-2014,01:58,METAR,Normal,60,1.0,,,9999.0,,18.2,9.6,29.96,1015.2,,,,,,,,,,,,,,,Clear,72000.0,,,,,,,,,
KRDR,06-13-2014,00:58,METAR,Normal,40,4.0,,,9999.0,,20.8,6.9,29.96,1015.1,,,,,,,,,,,,,,,Clear,72000.0,,,,,,,,,
KRDR,06-12-2014,23:58,METAR,Normal,30,7.0,,,9999.0,,21.3,6.8,29.96,1015.1,,,,,,,,,,,,,,,Clear,72000.0,,,,,,,,,
KRDR,06-12-2014,22:58,METAR,Normal,360,11.0,,,9999.0,,20.5,5.8,29.97,1015.4,,,,,,,,,,,,,,,,,9000.0,FEW,9100.0,,,,,,
KRDR,06-12-2014,21:58,METAR,Normal,350,11.0,,,9999.0,,21.3,5.3,29.97,1015.4,,,,,,,,,,,,,,,,,7500.0,SCT,7500.0,,,,,,
KRDR,06-12-2014,20:58,METAR,Normal,10,19.0,25.0,,9999.0,,21.2,5.5,29.98,1015.8,,,,,,,,,,,,,,,Clear,72000.0,,,,,,,,,
KRDR,06-12-2014,18:58,METAR,Normal,10,17.0,25.0,,9999.0,,19.1,5.4,30.00,1016.5,,,,,,,,,,,,,,,Clear,72000.0,,,,,,,,,
KRDR,06-12-2014,17:58,METAR,Normal,360,17.0,25.0,,9999.0,,17.8,5.6,29.99,1016.2,,,,,,,,,,,,,,,Clear,72000.0,,,,,,,,,
KRDR,06-12-2014,16:58,METAR,Normal,10,18.0,27.0,,9999.0,,16.7,5.6,29.99,1016.2,,,,,,,,,,,,,,,Clear,72000.0,,,,,,,,,
KRDR,06-12-2014,15:58,METAR,Normal,360,18.0,22.0,,9999.0,,15.5,7.2,29.97,1015.6,,,,,,,,,,,,,,,Clear,72000.0,,,,,,,,,
KRDR,06-12-2014,14:33,SPECI,Normal,360,18.0,24.0,,9999.0,,12.0,8.0,29.97,,,,,,,,,,,,,,,,,,2100.0,SCT,2100.0,,,,,,
KRDR,06-12-2014,14:13,SPECI,Normal,350,18.0,23.0,,9999.0,,12.0,8.0,29.96,,,,,,,,,,,,,,,,,2300.0,2300.0,BKN,2300.0,,,,,,
KRDR,06-12-2014,13:58,METAR,Variable,360,15.0,24.0,,9999.0,,11.6,8.1,29.96,1015.3,,,,,,,,,,,,,,,,,2100.0,SCT,2100.0,,,,,,
KRDR,06-12-2014,13:43,SPECI,Normal,360,16.0,23.0,,9999.0,,10.0,7.0,29.95,,,,,,,,,,,,,,,,,,2100.0,SCT,2100.0,,,,,,
KRDR,06-12-2014,12:58,METAR,Normal,360,15.0,21.0,,9999.0,,9.8,8.1,29.95,1015.1,,,,,,,,,,,,,,,,2100.0,2100.0,OVC,2100.0,,,,,,
KRDR,06-12-2014,11:58,METAR,Normal,360,16.0,24.0,,9999.0,,9.6,7.3,29.93,1014.4,,,,,,,,,,,,,,.98 IN,,2400.0,2400.0,OVC,2400.0,,,,,,
KRDR,06-12-2014,10:58,METAR,Normal,340,12.0,,,9999.0,,9.7,7.7,29.92,1014.0,,,,,,,,,,,,,,,,2500.0,2500.0,OVC,2500.0,,,,,,
KRDR,06-12-2014,09:58,METAR,Normal,350,14.0,19.0,,9999.0,,9.7,8.0,29.90,1013.2,,,,,,,,,,,,,,,,2400.0,2400.0,OVC,2400.0,,,,,,
KRDR,06-12-2014,08:58,METAR,Normal,350,15.0,21.0,,9999.0,,9.6,8.4,29.89,1012.9,,,,,,,,,,,,,,,,2200.0,2200.0,OVC,2200.0,,,,,,
KRDR,06-12-2014,07:58,METAR,Normal,360,13.0,20.0,,9999.0,,10.3,8.8,29.89,1012.9,,,,,,,,,,,,,,,,2400.0,2400.0,OVC,2400.0,,,,,,
KRDR,06-12-2014,07:18,SPECI,Normal,360,13.0,19.0,,9999.0,,10.0,10.0,29.89,,,,,,,,,,,,,,,,,2100.0,2100.0,BKN,2100.0,OVC,3900.0,,,,
KRDR,06-12-2014,06:58,METAR,Normal,360,15.0,21.0,,9999.0,,10.8,10.6,29.88,1012.5,,,,,,,,,,,,,,,,3200.0,2200.0,SCT,2200.0,BKN,3200.0,OVC,4000.0,,
KRDR,06-12-2014,06:48,SPECI,Variable,360,17.0,24.0,,9999.0,,11.0,10.0,29.89,,,,,,,,,,,,,,,,,1900.0,2100.0,SCT,2100.0,SCT,2800.0,OVC,3200.0,,
KRDR,06-12-2014,06:13,SPECI,Normal,360,13.0,,,9999.0,,11.0,11.0,29.89,,,,,,,,,,,,,,,,,2300.0,2300.0,BKN,2300.0,OVC,3000.0,,,,
KRDR,06-12-2014,05:58,METAR,Normal,360,10.0,16.0,,9999.0,,11.2,11.1,29.89,1012.8,,,,,,,,,,,TRACE,,.23 IN,,,3000.0,3000.0,BKN,3000.0,,,,,,
KRDR,06-12-2014,04:59,SPECI,Normal,340,7.0,,,9999.0,,11.0,11.0,29.89,,,,,,,,,,,,,,,,Clear,72000.0,,,,,,,,,
KRDR,06-12-2014,04:58,METAR,Normal,340,8.0,,,9999.0,,10.8,10.7,29.89,1012.8,,,,,,,,,,,.01 IN,,,,Clear,72000.0,,,,,,,,,
KRDR,06-12-2014,03:58,METAR,Normal,340,9.0,,,9999.0,Light Rain,11.1,10.9,29.90,1013.2,61,,,,,,,,,,.05 IN,,,,,,5500.0,SCT,5500.0,,,,,,
KRDR,06-12-2014,02:58,METAR,Normal,350,12.0,,,9999.0,Light Rain,11.3,11.2,29.87,1012.2,61,,,,,,,,,,.03 IN,.17 IN,,,,,6000.0,FEW,6000.0,,,,,,
KRDR,06-12-2014,01:58,METAR,Normal,10,12.0,,,9999.0,Light Rain,11.2,11.1,29.86,1011.9,61,,,,,,,,,,.03 IN,,,,,6000.0,4600.0,FEW,4600.0,OVC,6000.0,,,,
KRDR,06-12-2014,00:58,METAR,Normal,360,12.0,18.0,,9999.0,Light Rain,11.9,,29.84,1011.1,61,,,,,,,,,,.11 IN,,,,,3800.0,1900.0,FEW,1900.0,OVC,3800.0,,,,
KRDR,06-11-2014,23:58,METAR,Normal,20,12.0,,,4800.0,Rain/Mist,12.4,,29.85,1011.5,62,10,,,,,,,,,.13 IN,,.32 IN,,,2800.0,2700.0,SCT,2700.0,OVC,3600.0,,,,
KRDR,06-11-2014,23:09,SPECI,Normal,360,6.0,,,9999.0,Light Rain,14.0,14.0,29.85,,61,,,,,,,,,,,,,,,4000.0,800.0,FEW,800.0,SCT,2700.0,BKN,4000.0,,
KRDR,06-11-2014,22:58,METAR,Normal,350,7.0,,,9999.0,Light Rain,14.2,14.1,29.84,1011.1,61,,,,,,,,,,.01 IN,,,,,6000.0,6000.0,BKN,6000.0,,,,,,
KRDR,06-11-2014,22:08,SPECI,Normal,50,5.0,,,9999.0,Light Rain,14.0,14.0,29.82,,61,,,,,,,,,,,,,,,8500.0,4700.0,FEW,4700.0,SCT,6000.0,BKN,8600.0,,
KRDR,06-11-2014,21:58,METAR,Normal,80,8.0,,,9999.0,,14.6,,29.82,1010.3,,,,,,,,,,,.02 IN,,,,,6000.0,1600.0,FEW,1600.0,BKN,6000.0,BKN,8000.0,,
KRDR,06-11-2014,21:55,SPECI,Normal,80,8.0,,,9999.0,,15.0,15.0,29.82,,,,,,,,,,,,,,,,,6000.0,1600.0,FEW,1600.0,BKN,6000.0,BKN,8000.0,,
KRDR,06-11-2014,21:38,SPECI,Normal,80,8.0,,,9999.0,Light Drizzle,15.0,15.0,29.82,,51,,,,,,,,,,,,,,,8000.0,1400.0,SCT,1400.0,BKN,8000.0,,,,
KRDR,06-11-2014,21:33,SPECI,Normal,90,8.0,,,9999.0,Light Drizzle,15.0,15.0,29.82,,51,,,,,,,,,,,,,,,1400.0,1400.0,BKN,1400.0,BKN,8000.0,,,,
KRDR,06-11-2014,21:28,SPECI,Normal,90,8.0,,,9999.0,Light Drizzle,15.0,15.0,29.82,,51,,,,,,,,,,,,,,,1400.0,1400.0,SCT,1400.0,BKN,1900.0,BKN,8000.0,,
KRDR,06-11-2014,21:23,SPECI,Normal,90,6.0,,,9999.0,Light Rain,15.0,15.0,29.82,,61,,,,,,,,,,,,,,,3100.0,1400.0,SCT,1400.0,BKN,3100.0,BKN,8000.0,,
KRDR,06-11-2014,21:08,SPECI,Normal,80,6.0,,,9999.0,Light Rain,15.0,15.0,29.82,,61,,,,,,,,,,,,,,,1400.0,1400.0,BKN,1400.0,BKN,3500.0,,,,
KRDR,06-11-2014,21:03,SPECI,Normal,80,5.0,,,9999.0,Light Rain,15.0,15.0,29.82,,61,,,,,,,,,,,,,,,1300.0,1400.0,SCT,1400.0,BKN,3400.0,,,,
KRDR,06-11-2014,20:58,METAR,Normal,90,6.0,,,9999.0,Light Rain,14.8,14.8,29.81,1010.0,61,,,,,,,,,,.08 IN,.16 IN,,,,1500.0,1500.0,BKN,1500.0,OVC,3100.0,,,,
KRDR,06-11-2014,20:38,SPECI,Normal,80,7.0,,,8000.0,Light Rain/Mist,15.0,15.0,29.82,,61,10,,,,,,,,,,,,,,1500.0,1500.0,OVC,1500.0,,,,,,
KRDR,06-11-2014,20:18,SPECI,Normal,80,7.0,,,9999.0,Light Rain,15.0,15.0,29.81,,61,,,,,,,,,,,,,,,1300.0,1300.0,BKN,1300.0,OVC,2500.0,,,,
KRDR,06-11-2014,20:03,SPECI,Normal,70,5.0,,,9999.0,Light Rain,15.0,15.0,29.81,,61,,,,,,,,,,,,,,,2700.0,1300.0,SCT,1300.0,BKN,2700.0,,,,
KRDR,06-11-2014,19:58,METAR,Normal,80,5.0,,,9999.0,Light Rain,15.6,15.6,29.81,1009.9,61,,,,,,,,,,.06 IN,,,,,3300.0,1300.0,FEW,1300.0,BKN,3300.0,BKN,4400.0,,
KRDR,06-11-2014,19:33,SPECI,Normal,60,7.0,,,9999.0,Light Rain,16.0,16.0,29.80,,61,,,,,,,,,,,,,,,3100.0,1700.0,SCT,1700.0,BKN,3100.0,OVC,5000.0,,
KRDR,06-11-2014,19:28,SPECI,Normal,70,7.0,,,9999.0,Light Rain,16.0,16.0,29.80,,61,,,,,,,,,,,,,,,1400.0,1700.0,BKN,1700.0,BKN,3100.0,OVC,5000.0,,
KRDR,06-11-2014,19:23,SPECI,Normal,60,5.0,,,9999.0,Light Rain,16.0,16.0,29.82,,61,,,,,,,,,,,,,,,1400.0,1400.0,BKN,1400.0,BKN,2000.0,OVC,3100.0,,
KRDR,06-11-2014,19:18,SPECI,Normal,30,3.0,,,9999.0,Light Rain,16.0,16.0,29.82,,61,,,,,,,,,,,,,,,2000.0,1400.0,SCT,1400.0,BKN,2000.0,BKN,3100.0,,
KRDR,06-11-2014,18:58,METAR,Normal,50,5.0,,,9999.0,Light Rain,16.3,16.3,29.81,1009.9,61,,,,,,,,,,.02 IN,,,,,,700.0,FEW,700.0,,,,,,
KRDR,06-11-2014,18:21,SPECI,Normal,60,5.0,,,9999.0,Light Rain,16.0,16.0,29.82,,61,,,,,,,,,,,,,,,,800.0,FEW,800.0,SCT,3400.0,,,,
KRDR,06-11-2014,18:17,SPECI,Normal,40,4.0,,,9999.0,Light Rain,16.0,16.0,29.82,,61,,,,,,,,,,,,,,,,3400.0,FEW,3400.0,,,,,,
KRDR,06-11-2014,17:58,METAR,Normal,80,5.0,,,9999.0,,16.5,16.3,29.82,1010.2,,,,,,,,,,,TRACE,,.43 IN,,Clear,9000.0,,,,,,,,,
KRDR,06-11-2014,17:08,SPECI,Normal,110,6.0,,,9999.0,,16.0,16.0,29.80,,,,,,,,,,,,,,,,,,6500.0,FEW,6500.0,,,,,,
KRDR,06-11-2014,16:58,METAR,Normal,120,8.0,,,9999.0,Light Rain,15.9,,29.80,1009.6,61,,,,,,,,,,.01 IN,,,,,,6500.0,FEW,6500.0,,,,,,
KRDR,06-11-2014,16:57,SPECI,Normal,120,8.0,,,9999.0,Light Rain,16.0,16.0,29.80,,61,,,,,,,,,,,,,,,,6500.0,FEW,6500.0,,,,,,
KRDR,06-11-2014,16:30,SPECI,Normal,120,8.0,,,9999.0,,16.0,16.0,29.80,,,,,,,,,,,,,,,,,,800.0,FEW,800.0,,,,,,
KRDR,06-11-2014,16:05,SPECI,Normal,120,9.0,,,9999.0,Light Rain,16.0,16.0,29.80,,61,,,,,,,,,,,,,,,,800.0,FEW,800.0,,,,,,
KRDR,06-11-2014,15:58,METAR,Normal,130,9.0,,,9999.0,,15.5,,29.80,1009.5,,,,,,,,,,,.03 IN,,,,,,9500.0,SCT,9600.0,,,,,,
KRDR,06-11-2014,15:51,SPECI,Normal,120,7.0,,,9999.0,,16.0,16.0,29.80,,,,,,,,,,,,,,,,,,900.0,FEW,900.0,SCT,9100.0,,,,
KRDR,06-11-2014,15:48,SPECI,Normal,120,9.0,,,9999.0,,16.0,16.0,29.80,,,,,,,,,,,,,,,,,,1100.0,FEW,1100.0,,,,,,
KRDR,06-11-2014,15:28,SPECI,Normal,110,8.0,,,9999.0,Light Rain,15.0,15.0,29.80,,61,,,,,,,,,,,,,,,3700.0,1700.0,SCT,1700.0,BKN,3700.0,BKN,6000.0,,
KRDR,06-11-2014,15:23,SPECI,Normal,100,8.0,,,9999.0,Light Rain,15.0,15.0,29.80,,61,,,,,,,,,,,,,,,2700.0,2200.0,SCT,2200.0,BKN,2700.0,BKN,3700.0,,
KRDR,06-11-2014,14:58,METAR,Normal,90,7.0,,,9999.0,Light Rain,15.1,15.1,29.80,1009.5,61,,,,,,,,,,.16 IN,.39 IN,,,,,2400.0,SCT,2400.0,,,,,,
KRDR,06-11-2014,14:48,SPECI,Normal,50,5.0,,,9999.0,Light Rain,15.0,15.0,29.80,,61,,,,,,,,,,,,,,,2900.0,2900.0,BKN,2900.0,,,,,,
KRDR,06-11-2014,14:18,SPECI,Normal,110,5.0,,,4800.0,Light Rain/Mist,15.0,15.0,29.81,,61,10,,,,,,,,,,,,,,4000.0,4000.0,OVC,4000.0,,,,,,
KRDR,06-11-2014,14:08,SPECI,Normal,160,4.0,,,2800.0,Rain/Mist,15.0,15.0,29.82,,62,10,,,,,,,,,,,,,,3200.0,3200.0,OVC,3200.0,,,,,,
KRDR,06-11-2014,14:03,SPECI,Normal,140,5.0,,,4800.0,Light Rain/Mist,15.0,15.0,29.82,,61,10,,,,,,,,,,,,,,3600.0,3600.0,BKN,3600.0,OVC,4400.0,,,,
KRDR,06-11-2014,13:58,METAR,Normal,120,4.0,,,4000.0,Light Rain/Mist,15.0,15.0,29.82,1010.2,61,10,,,,,,,,,.18 IN,,,,,3900.0,3900.0,OVC,3900.0,,,,,,
KRDR,06-11-2014,13:48,SPECI,Normal,130,6.0,,,4000.0,Light Rain/Mist,15.0,15.0,29.82,,61,10,,,,,,,,,,,,,,4400.0,4400.0,OVC,4400.0,,,,,,
KRDR,06-11-2014,12:58,METAR,Normal,70,5.0,,,9999.0,Light Rain/Mist,15.1,15.1,29.81,1009.8,61,10,,,,,,,,,.05 IN,,,,,4900.0,4900.0,OVC,4900.0,,,,,,
KRDR,06-11-2014,11:58,METAR,Normal,20,6.0,,,9999.0,Light Rain,15.0,15.0,29.80,1009.5,61,,,,,,,,,,.02 IN,,.05 IN,.05 IN,,5000.0,2300.0,FEW,2300.0,BKN,5000.0,OVC,8000.0,,
KRDR,06-11-2014,11:46,SPECI,Calm,,0.0,,,9999.0,Light Rain,15.0,15.0,29.82,,61,,,,,,,,,,,,,,,5000.0,4000.0,FEW,4000.0,OVC,5000.0,,,,
KRDR,06-11-2014,11:28,SPECI,Normal,320,3.0,,,9999.0,,15.0,15.0,29.81,,,,,,,,,,,,,,,,,5000.0,3400.0,FEW,3400.0,OVC,5000.0,,,,
KRDR,06-11-2014,11:00,SPECI,Normal,10,3.0,,,9999.0,Light Rain,15.0,15.0,29.81,,61,,,,,,,,,,,,,,,5500.0,3800.0,FEW,3800.0,OVC,5500.0,,,,
KRDR,06-11-2014,10:58,METAR,Normal,360,3.0,,,9999.0,,15.5,15.5,29.81,1009.8,,,,,,,,,,,,,,,,5500.0,3900.0,FEW,3900.0,OVC,5500.0,,,,
KRDR,06-11-2014,09:58,METAR,Normal,50,5.0,,,9999.0,,16.0,15.8,29.78,1008.7,,,,,,,,,,,,,,,,6000.0,6000.0,BKN,6000.0,OVC,11000.0,,,,
KRDR,06-11-2014,08:58,METAR,Normal,10,3.0,,,9999.0,,16.0,16.0,29.78,1008.7,,,,,,,,,,,.03 IN,.03 IN,,,,7000.0,4900.0,FEW,4900.0,BKN,7000.0,OVC,8000.0,,
KRDR,06-11-2014,08:53,SPECI,Normal,10,3.0,,,9999.0,Mist,16.0,16.0,29.78,,10,,,,,,,,,,,,,,,7000.0,4900.0,FEW,4900.0,BKN,7000.0,OVC,8000.0,,
KRDR,06-11-2014,08:44,SPECI,Normal,360,3.0,,,6400.0,Light Rain/Mist,16.0,16.0,29.79,,61,10,,,,,,,,,,,,,,7000.0,1100.0,FEW,1100.0,OVC,7000.0,,,,
KRDR,06-11-2014,08:37,SPECI,Calm,,0.0,,,9999.0,Light Rain,17.0,16.0,29.79,,61,,,,,,,,,,,,,,,6500.0,4900.0,FEW,4900.0,BKN,6500.0,OVC,7500.0,,
KRDR,06-11-2014,08:32,SPECI,Calm,,0.0,,,9999.0,Light Rain,17.0,17.0,29.79,,61,,,,,,,,,,,,,,,6500.0,4900.0,FEW,4900.0,BKN,6500.0,OVC,8600.0,,
KRDR,06-11-2014,08:28,SPECI,Calm,,0.0,,,9999.0,,17.0,17.0,29.80,,,,,,,,,,,,,,,,,6500.0,4700.0,FEW,4700.0,BKN,6500.0,OVC,9100.0,,
KRDR,06-11-2014,08:15,SPECI,Normal,340,4.0,,,9999.0,Light Rain,17.0,16.0,29.80,,61,,,,,,,,,,,,,,,6500.0,6500.0,BKN,6500.0,BKN,8600.0,OVC,11000.0,,
KRDR,06-11-2014,07:59,SPECI,Normal,340,5.0,,,9999.0,,17.0,16.0,29.80,,,,,,,,,,,,,,,,,7500.0,7500.0,BKN,7500.0,OVC,10000.0,,,,
KRDR,06-11-2014,07:58,METAR,Normal,340,5.0,,,9999.0,Light Rain,17.2,16.1,29.79,1009.1,61,,,,,,,,,,TRACE,,,,,7500.0,7500.0,BKN,7500.0,OVC,10000.0,,,,
KRDR,06-11-2014,07:47,SPECI,Normal,320,4.0,,,9999.0,Light Rain,17.0,16.0,29.80,,61,,,,,,,,,,,,,,,7500.0,4600.0,FEW,4600.0,BKN,7500.0,OVC,9100.0,,
KRDR,06-11-2014,07:44,SPECI,Normal,320,4.0,,,9999.0,,17.0,16.0,29.80,,,,,,,,,,,,,,,,,7500.0,4600.0,FEW,4600.0,BKN,7500.0,OVC,9100.0,,
KRDR,06-11-2014,07:32,SPECI,Normal,330,1.0,,,9999.0,Light Rain,17.0,16.0,29.79,,61,,,,,,,,,,,,,,,7500.0,4600.0,FEW,4600.0,BKN,7500.0,OVC,9100.0,,
KRDR,06-11-2014,06:58,METAR,Normal,260,6.0,,,9999.0,,17.1,15.3,29.81,1009.7,,,,,,,,,,,,,,,,8500.0,8500.0,OVC,8600.0,,,,,,
KRDR,06-11-2014,05:58,METAR,Normal,300,4.0,,,9999.0,,17.4,14.7,29.80,1009.3,,,,,,,,,,,,,,,,10000.0,10000.0,BKN,10000.0,OVC,12000.0,,,,
KRDR,06-11-2014,04:58,METAR,Normal,270,5.0,,,9999.0,,17.9,14.3,29.80,1009.3,,,,,,,,,,,,,,,,10000.0,10000.0,OVC,10000.0,,,,,,
KRDR,06-11-2014,03:58,METAR,Normal,210,4.0,,,9999.0,,18.9,13.4,29.80,1009.3,,,,,,,,,,,,,,,,11000.0,11000.0,OVC,11000.0,,,,,,
KRDR,06-11-2014,02:58,METAR,Normal,210,9.0,,,9999.0,,20.3,12.4,29.79,1009.0,,,,,,,,,,,,,,,,,11000.0,FEW,11000.0,,,,,,
KRDR,06-11-2014,01:58,METAR,Normal,210,4.0,,,9999.0,,20.5,13.1,29.79,1009.0,,,,,,,,,,,,,,,,9000.0,9000.0,OVC,9100.0,,,,,,
KRDR,06-11-2014,00:58,METAR,Normal,230,5.0,,,9999.0,,22.4,12.0,29.80,1009.4,,,,,,,,,,,,,,,,12000.0,7000.0,SCT,7000.0,OVC,12000.0,,,,
KRDR,06-10-2014,23:58,METAR,Normal,110,3.0,,,9999.0,,23.4,13.5,29.80,1009.5,,,,,,,,,,,,,TRACE,,,11000.0,11000.0,OVC,11000.0,,,,,,
KRDR,06-10-2014,22:58,METAR,Calm,,0.0,,,9999.0,,23.5,14.6,29.81,1009.9,,,,,,,,,,,,,,,,,11000.0,SCT,11000.0,,,,,,
KRDR,06-10-2014,21:58,METAR,Normal,230,5.0,,,9999.0,,23.5,12.4,29.83,1010.4,,,,,,,,,,,,,,,,10000.0,10000.0,BKN,10000.0,,,,,,
KRDR,06-10-2014,20:58,METAR,Normal,240,6.0,,,9999.0,,23.2,13.2,29.83,1010.5,,,,,,,,,,,TRACE,TRACE,,,,11000.0,5500.0,FEW,5500.0,BKN,11000.0,,,,
KRDR,06-10-2014,20:08,SPECI,Normal,220,3.0,,,9999.0,,21.0,14.0,29.83,,,,,,,,,,,,,,,,,9500.0,1700.0,FEW,1700.0,SCT,5500.0,BKN,9600.0,,
KRDR,06-10-2014,19:58,METAR,Normal,220,7.0,,,9999.0,,21.8,13.0,29.83,1010.5,,,,,,,,,,,TRACE,,,,,10000.0,4300.0,FEW,4300.0,BKN,10000.0,,,,
KRDR,06-10-2014,19:50,SPECI,Normal,230,11.0,,,9999.0,,23.0,12.0,29.83,,,,,,,,,,,,,,,,,,10000.0,FEW,10000.0,SCT,12000.0,,,,
KRDR,06-10-2014,18:58,METAR,Normal,220,13.0,,,9999.0,,24.8,11.1,29.83,1010.4,,,,,,,,,,,,,,,,,12000.0,FEW,12000.0,,,,,,
KRDR,06-10-2014,18:53,SPECI,Normal,250,12.0,,,9999.0,,25.0,10.0,29.84,,,,,,,,,,,,,,,,,,12000.0,FEW,12000.0,,,,,,
KRDR,06-10-2014,17:58,METAR,Normal,210,14.0,18.0,,9999.0,,23.2,9.1,29.84,1010.8,,,,,,,,,,,,,,,,,12000.0,FEW,12000.0,,,,,,
KRDR,06-10-2014,17:33,SPECI,Normal,190,11.0,,,9999.0,,23.0,9.0,29.84,,,,,,,,,,,,,,,,,,11000.0,FEW,11000.0,,,,,,
KRDR,06-10-2014,16:58,METAR,Normal,210,11.0,18.0,,9999.0,,22.7,8.9,29.84,1010.8,,,,,,,,,,,,,,,Clear,72000.0,,,,,,,,,
KRDR,06-10-2014,15:58,METAR,Normal,210,14.0,21.0,,9999.0,,22.9,8.2,29.85,1011.1,,,,,,,,,,,,,,,Clear,72000.0,,,,,,,,,
KRDR,06-10-2014,14:58,METAR,Normal,200,13.0,19.0,,9999.0,,22.4,10.4,29.85,1011.1,,,,,,,,,,,,,,,Clear,72000.0,,,,,,,,,
KRDR,06-10-2014,13:58,METAR,Normal,220,13.0,,,9999.0,,20.6,11.3,29.86,1011.4,,,,,,,,,,,,,,,Clear,72000.0,,,,,,,,,
KRDR,06-10-2014,12:58,METAR,Normal,200,11.0,,,9999.0,,18.2,10.6,29.86,1011.4,,,,,,,,,,,,,,,,11000.0,11000.0,OVC,11000.0,,,,,,
KRDR,06-10-2014,11:58,METAR,Normal,180,7.0,,,9999.0,,15.2,10.8,29.86,1011.4,,,,,,,,,,,,,,,Clear,72000.0,,,,,,,,,
KRDR,06-10-2014,10:58,METAR,Normal,200,7.0,,,9999.0,,12.3,10.1,29.87,1011.9,,,,,,,,,,,,,,,Clear,72000.0,,,,,,,,,
KRDR,06-10-2014,09:58,METAR,Normal,210,6.0,,,9999.0,,14.6,9.7,29.87,1011.8,,,,,,,,,,,,,,,Clear,72000.0,,,,,,,,,
KRDR,06-10-2014,08:58,METAR,Normal,250,6.0,,,9999.0,,15.1,9.3,29.87,1011.8,,,,,,,,,,,,,,,Clear,72000.0,,,,,,,,,
KRDR,06-10-2014,07:58,METAR,Normal,220,9.0,,,9999.0,,16.1,9.2,29.86,1011.4,,,,,,,,,,,,,,,Clear,72000.0,,,,,,,,,
KRDR,06-10-2014,06:58,METAR,Normal,210,6.0,,,9999.0,,14.2,9.5,29.84,1010.9,,,,,,,,,,,,,,,Clear,72000.0,,,,,,,,,
KRDR,06-10-2014,05:58,METAR,Normal,180,7.0,,,9999.0,,15.5,8.8,29.85,1011.2,,,,,,,,,,,,,,,Clear,72000.0,,,,,,,,,
KRDR,06-10-2014,04:58,METAR,Normal,170,8.0,,,9999.0,,16.8,8.9,29.86,1011.5,,,,,,,,,,,,,,,Clear,72000.0,,,,,,,,,
KRDR,06-10-2014,03:58,METAR,Normal,150,7.0,,,9999.0,,16.7,9.3,29.87,1011.8,,,,,,,,,,,,,,,Clear,72000.0,,,,,,,,,
KRDR,06-10-2014,02:58,METAR,Normal,150,6.0,,,9999.0,,18.7,9.8,29.88,1012.2,,,,,,,,,,,,,,,Clear,72000.0,,,,,,,,,
KRDR,06-10-2014,01:58,METAR,Normal,130,5.0,,,9999.0,,21.3,8.4,29.88,1012.2,,,,,,,,,,,,,,,Clear,72000.0,,,,,,,,,
KRDR,06-10-2014,00:58,METAR,Calm,,0.0,,,9999.0,,23.4,8.0,29.89,1012.5,,,,,,,,,,,,,,,Clear,72000.0,,,,,,,,,
KRDR,06-09-2014,23:58,METAR,Calm,,0.0,,,9999.0,,23.7,7.1,29.90,1012.9,,,,,,,,,,,,,,,Clear,72000.0,,,,,,,,,
KRDR,06-09-2014,22:58,METAR,Normal,300,6.0,,,9999.0,,23.9,8.1,29.91,1013.3,,,,,,,,,,,,,,,Clear,72000.0,,,,,,,,,
KRDR,06-09-2014,21:58,METAR,Normal,310,9.0,14.0,,9999.0,,23.6,6.9,29.92,1013.7,,,,,,,,,,,,,,,Clear,72000.0,,,,,,,,,
KRDR,06-09-2014,20:58,METAR,Normal,300,8.0,,,9999.0,,23.5,5.9,29.93,1014.0,,,,,,,,,,,,,,,Clear,72000.0,,,,,,,,,
KRDR,06-09-2014,19:58,METAR,Normal,260,4.0,,,9999.0,,23.0,6.9,29.94,1014.4,,,,,,,,,,,,,,,Clear,72000.0,,,,,,,,,
KRDR,06-09-2014,18:58,METAR,Normal,220,7.0,,,9999.0,,22.2,7.3,29.95,1014.7,,,,,,,,,,,,,,,Clear,72000.0,,,,,,,,,
KRDR,06-09-2014,17:58,METAR,Normal,260,9.0,,,9999.0,,22.1,7.7,29.97,1015.4,,,,,,,,,,,,,,,,,6000.0,FEW,6000.0,,,,,,
KRDR,06-09-2014,16:58,METAR,Normal,280,6.0,,,9999.0,,20.9,8.4,29.98,1015.7,,,,,,,,,,,,,,,,,5500.0,FEW,5500.0,,,,,,
KRDR,06-09-2014,15:58,METAR,Normal,250,7.0,,,9999.0,,20.4,9.3,29.99,1016.1,,,,,,,,,,,,,,,Clear,72000.0,,,,,,,,,
KRDR,06-09-2014,14:58,METAR,Variable,,6.0,,,9999.0,,18.8,9.5,30.00,1016.4,,,,,,,,,,,,,,,Clear,72000.0,,,,,,,,,
KRDR,06-09-2014,13:58,METAR,Normal,250,4.0,,,9999.0,,16.7,11.6,30.00,1016.4,,,,,,,,,,,,,,,Clear,72000.0,,,,,,,,,
KRDR,06-09-2014,12:58,METAR,Normal,270,5.0,,,9999.0,,14.1,12.7,30.00,1016.5,,,,,,,,,,,,,,,Clear,72000.0,,,,,,,,,
KRDR,06-09-2014,11:58,METAR,Normal,270,6.0,,,9999.0,,11.6,11.5,29.99,1016.2,,,,,,,,,,,,,,,Clear,72000.0,,,,,,,,,
KRDR,06-09-2014,10:58,METAR,Normal,230,6.0,,,9999.0,,10.3,10.3,29.98,1015.9,,,,,,,,,,,,,,,,9000.0,9000.0,BKN,9100.0,OVC,11000.0,,,,
KRDR,06-09-2014,09:58,METAR,Normal,230,4.0,,,9999.0,,9.2,9.2,29.99,1016.2,,,,,,,,,,,,,,,Clear,72000.0,,,,,,,,,
KRDR,06-09-2014,08:58,METAR,Normal,250,5.0,,,9999.0,,9.4,9.3,29.98,1015.9,,,,,,,,,,,,,,,Clear,72000.0,,,,,,,,,
KRDR,06-09-2014,07:58,METAR,Normal,240,5.0,,,9999.0,,10.7,10.5,29.98,1015.8,,,,,,,,,,,,,,,Clear,72000.0,,,,,,,,,
KRDR,06-09-2014,06:58,METAR,Normal,210,7.0,,,9999.0,,11.5,11.3,29.98,1015.8,,,,,,,,,,,,,,,Clear,72000.0,,,,,,,,,
KRDR,06-09-2014,05:58,METAR,Normal,250,2.0,,,9999.0,,10.7,10.6,29.99,1016.1,,,,,,,,,,,,,,,Clear,72000.0,,,,,,,,,
KRDR,06-09-2014,04:58,METAR,Normal,210,6.0,,,9999.0,,11.7,11.6,30.00,1016.3,,,,,,,,,,,,,,,Clear,72000.0,,,,,,,,,
KRDR,06-09-2014,03:58,METAR,Normal,200,6.0,,,9999.0,,12.8,12.0,30.00,1016.3,,,,,,,,,,,,,,,Clear,72000.0,,,,,,,,,
KRDR,06-09-2014,02:58,METAR,Normal,210,5.0,,,9999.0,,14.0,11.1,30.00,1016.3,,,,,,,,,,,,,,,Clear,72000.0,,,,,,,,,
KRDR,06-09-2014,01:58,METAR,Normal,230,6.0,,,9999.0,,16.0,10.6,30.00,1016.3,,,,,,,,,,,,,,,,10000.0,10000.0,BKN,10000.0,,,,,,
KRDR,06-09-2014,00:58,METAR,Normal,240,11.0,,,9999.0,,17.1,10.9,30.00,1016.5,,,,,,,,,,,,,,,,10000.0,8000.0,FEW,8000.0,BKN,10000.0,,,,
KRDR,06-08-2014,23:58,METAR,Normal,300,3.0,,,9999.0,,17.7,11.0,30.00,1016.5,,,,,,,,,,,,,TRACE,,,,12000.0,SCT,12000.0,,,,,,
KRDR,06-08-2014,22:58,METAR,Normal,340,4.0,,,9999.0,,18.3,10.2,30.01,1017.0,,,,,,,,,,,,,,,,10000.0,8500.0,FEW,8600.0,BKN,10000.0,BKN,12000.0,,
KRDR,06-08-2014,21:58,METAR,Normal,320,9.0,,,9999.0,,17.4,10.6,30.03,1017.7,,,,,,,,,,,TRACE,,,,,9000.0,9000.0,BKN,9100.0,,,,,,
KRDR,06-08-2014,21:30,SPECI,Normal,330,14.0,21.0,,9999.0,,17.0,11.0,30.03,,,,,,,,,,,,,,,,,8000.0,8000.0,BKN,8000.0,OVC,10000.0,,,,
KRDR,06-08-2014,21:09,SPECI,Normal,300,12.0,17.0,,9999.0,Light Rain,18.0,10.0,30.03,,61,,,,,,,,,,,,,,,7500.0,7500.0,BKN,7500.0,OVC,11000.0,,,,
KRDR,06-08-2014,20:58,METAR,Calm,,0.0,,,9999.0,,17.8,9.8,30.02,1017.3,,,,,,,,,,,,TRACE,,,,11000.0,8000.0,SCT,8000.0,OVC,11000.0,,,,
KRDR,06-08-2014,19:58,METAR,Normal,10,4.0,,,9999.0,,18.6,9.3,30.02,1017.3,,,,,,,,,,,,,,,,11000.0,9000.0,SCT,9100.0,OVC,11000.0,,,,
KRDR,06-08-2014,18:58,METAR,Normal,340,4.0,,,9999.0,,17.7,7.8,30.04,1018.0,,,,,,,,,,,TRACE,,,,,7000.0,3400.0,FEW,3400.0,BKN,7000.0,OVC,9100.0,,
KRDR,06-08-2014,18:54,SPECI,Variable,,4.0,,,9999.0,,18.0,8.0,30.04,,,,,,,,,,,,,,,,,7000.0,3500.0,FEW,3500.0,BKN,7000.0,OVC,9100.0,,
KRDR,06-08-2014,18:36,SPECI,Normal,310,16.0,20.0,,9999.0,,18.0,8.0,30.04,,,,,,,,,,,,,,,,,7000.0,7000.0,OVC,7000.0,,,,,,
KRDR,06-08-2014,17:58,METAR,Normal,40,3.0,,,9999.0,,19.9,6.8,30.04,1017.9,,,,,,,,,,,TRACE,,TRACE,,,11000.0,5000.0,FEW,5000.0,SCT,9100.0,BKN,11000.0,,
KRDR,06-08-2014,17:35,SPECI,Normal,320,12.0,18.0,,9999.0,,19.0,6.0,30.05,,,,,,,,,,,,,,,,,7000.0,5500.0,SCT,5500.0,BKN,7000.0,OVC,11000.0,,
KRDR,06-08-2014,17:29,SPECI,Normal,260,12.0,22.0,,9999.0,Light Rain,20.0,7.0,30.05,,61,,,,,,,,,,,,,,,7000.0,5000.0,FEW,5000.0,BKN,7000.0,OVC,11000.0,,
KRDR,06-08-2014,17:24,SPECI,Normal,260,19.0,22.0,,9999.0,Light Rain,20.0,5.0,30.05,,61,,,,,,,,,,,,,,,9000.0,6500.0,FEW,6500.0,SCT,7500.0,BKN,9100.0,,
KRDR,06-08-2014,16:58,METAR,Normal,260,9.0,,,9999.0,,22.7,4.9,30.04,1017.8,,,,,,,,,,,,,,,,11000.0,7500.0,FEW,7500.0,BKN,11000.0,,,,
KRDR,06-08-2014,15:58,METAR,Normal,230,7.0,,,9999.0,,22.4,6.6,30.06,1018.4,,,,,,,,,,,,,,,Clear,72000.0,,,,,,,,,
KRDR,06-08-2014,14:58,METAR,Normal,190,9.0,,,9999.0,,20.7,5.8,30.06,1018.4,,,,,,,,,,,,,,,,,11000.0,FEW,11000.0,,,,,,
KRDR,06-08-2014,13:58,METAR,Normal,190,9.0,,,9999.0,,18.6,5.8,30.06,1018.4,,,,,,,,,,,,,,,Clear,72000.0,,,,,,,,,
KRDR,06-08-2014,12:58,METAR,Normal,190,5.0,,,9999.0,,15.3,7.3,30.07,1018.7,,,,,,,,,,,,,,,Clear,72000.0,,,,,,,,,
KRDR,06-08-2014,11:58,METAR,Normal,230,4.0,,,9999.0,,10.6,8.5,30.07,1018.8,,,,,,,,,,,,,,,Clear,72000.0,,,,,,,,,
KRDR,06-08-2014,10:58,METAR,Normal,200,3.0,,,9999.0,,7.3,5.3,30.07,1018.9,,,,,,,,,,,,,,,Clear,72000.0,,,,,,,,,
KRDR,06-08-2014,09:58,METAR,Normal,200,2.0,,,9999.0,,8.1,4.8,30.07,1018.9,,,,,,,,,,,,,,,Clear,72000.0,,,,,,,,,
KRDR,06-08-2014,08:58,METAR,Normal,230,3.0,,,9999.0,,7.7,5.5,30.07,1018.9,,,,,,,,,,,,,,,Clear,72000.0,,,,,,,,,
KRDR,06-08-2014,07:58,METAR,Normal,230,5.0,,,9999.0,,8.0,6.0,30.07,1019.0,,,,,,,,,,,,,,,Clear,72000.0,,,,,,,,,
KRDR,06-08-2014,06:58,METAR,Normal,240,3.0,,,9999.0,,8.2,6.5,30.07,1019.0,,,,,,,,,,,,,,,Clear,72000.0,,,,,,,,,
KRDR,06-08-2014,05:58,METAR,Normal,210,2.0,,,9999.0,,8.9,7.0,30.08,1019.2,,,,,,,,,,,,,,,Clear,72000.0,,,,,,,,,
KRDR,06-08-2014,04:58,METAR,Normal,240,3.0,,,9999.0,,10.0,8.1,30.09,1019.6,,,,,,,,,,,,,,,Clear,72000.0,,,,,,,,,
KRDR,06-08-2014,03:58,METAR,Normal,290,1.0,,,9999.0,,11.0,8.0,30.09,1019.6,,,,,,,,,,,,,,,Clear,72000.0,,,,,,,,,
KRDR,06-08-2014,02:58,METAR,Normal,20,4.0,,,9999.0,,13.9,5.4,30.08,1019.1,,,,,,,,,,,,,,,Clear,72000.0,,,,,,,,,
KRDR,06-08-2014,01:58,METAR,Normal,350,4.0,,,9999.0,,17.1,5.8,30.06,1018.4,,,,,,,,,,,,,,,Clear,72000.0,,,,,,,,,
KRDR,06-08-2014,00:58,METAR,Normal,340,6.0,,,9999.0,,20.0,3.0,30.06,1018.4,,,,,,,,,,,,,,,Clear,72000.0,,,,,,,,,
KRDR,06-07-2014,23:58,METAR,Normal,320,11.0,,,9999.0,,20.8,3.6,30.05,1018.2,,,,,,,,,,,,,,,,,8000.0,FEW,8000.0,,,,,,
KRDR,06-07-2014,22:58,METAR,Normal,280,10.0,,,9999.0,,21.5,3.6,30.05,1018.1,,,,,,,,,,,,,,,,,8000.0,FEW,8000.0,,,,,,
KRDR,06-07-2014,21:58,METAR,Variable,290,8.0,15.0,,9999.0,,20.8,2.7,30.05,1018.2,,,,,,,,,,,,,,,,,8000.0,FEW,8000.0,,,,,,
KRDR,06-07-2014,21:46,SPECI,Normal,320,12.0,18.0,,9999.0,,21.0,3.0,30.06,,,,,,,,,,,,,,,,,,8000.0,FEW,8000.0,,,,,,
KRDR,06-07-2014,20:58,METAR,Variable,320,7.0,,,9999.0,,21.2,2.7,30.06,1018.5,,,,,,,,,,,,,,,,,10000.0,FEW,10000.0,,,,,,
KRDR,06-07-2014,19:58,METAR,Normal,280,9.0,,,9999.0,,20.7,2.5,30.07,1018.8,,,,,,,,,,,,,,,,9000.0,9000.0,BKN,9100.0,,,,,,
KRDR,06-07-2014,18:58,METAR,Normal,340,7.0,,,9999.0,,19.2,1.9,30.07,1018.8,,,,,,,,,,,,,,,,,9500.0,SCT,9600.0,,,,,,
KRDR,06-07-2014,17:58,METAR,Variable,,5.0,15.0,,9999.0,,20.2,2.4,30.08,1019.2,,,,,,,,,,,,,,,,,8000.0,FEW,8000.0,,,,,,
KRDR,06-07-2014,16:58,METAR,Normal,350,9.0,16.0,,9999.0,,20.3,2.7,30.09,1019.5,,,,,,,,,,,,,,,,,7500.0,FEW,7500.0,,,,,,
KRDR,06-07-2014,15:58,METAR,Normal,330,9.0,,,9999.0,,18.3,2.6,30.10,1019.9,,,,,,,,,,,,,,,,,7000.0,FEW,7000.0,,,,,,
KRDR,06-07-2014,15:42,SPECI,Normal,360,12.0,16.0,,9999.0,,19.0,3.0,30.10,,,,,,,,,,,,,,,,,,7000.0,FEW,7000.0,,,,,,
KRDR,06-07-2014,14:58,METAR,Normal,330,8.0,,,9999.0,,18.7,4.1,30.11,1020.1,,,,,,,,,,,,,,,Clear,72000.0,,,,,,,,,
KRDR,06-07-2014,13:58,METAR,Normal,300,4.0,,,9999.0,,16.0,9.8,30.11,1020.3,,,,,,,,,,,,,,,,12000.0,12000.0,BKN,12000.0,,,,,,
KRDR,06-07-2014,12:58,METAR,Normal,310,4.0,,,9999.0,,13.7,10.1,30.11,1020.3,,,,,,,,,,,,,,,,12000.0,12000.0,OVC,12000.0,,,,,,
KRDR,06-07-2014,11:58,METAR,Normal,300,1.0,,,9999.0,,11.3,10.0,30.10,1020.0,,,,,,,,,,,,,,,,,12000.0,SCT,12000.0,,,,,,
KRDR,06-07-2014,10:58,METAR,Normal,310,4.0,,,9999.0,,11.3,8.8,30.10,1020.0,,,,,,,,,,,,,,,,11000.0,11000.0,OVC,11000.0,,,,,,
KRDR,06-07-2014,09:58,METAR,Normal,310,4.0,,,9999.0,,11.4,8.2,30.10,1020.0,,,,,,,,,,,,,,,,11000.0,11000.0,OVC,11000.0,,,,,,
KRDR,06-07-2014,08:58,METAR,Normal,280,3.0,,,9999.0,,11.5,9.5,30.09,1019.7,,,,,,,,,,,,,,,,11000.0,11000.0,OVC,11000.0,,,,,,
KRDR,06-07-2014,07:58,METAR,Normal,280,1.0,,,9999.0,,12.0,9.3,30.08,1019.2,,,,,,,,,,,,,,,,11000.0,11000.0,OVC,11000.0,,,,,,
KRDR,06-07-2014,06:58,METAR,Normal,280,3.0,,,9999.0,,11.9,8.6,30.07,1018.9,,,,,,,,,,,,,,,,10000.0,10000.0,OVC,10000.0,,,,,,
KRDR,06-07-2014,05:58,METAR,Normal,290,4.0,,,9999.0,,12.5,8.0,30.08,1019.2,,,,,,,,,,,,,,,,9500.0,9500.0,BKN,9600.0,,,,,,
KRDR,06-07-2014,04:58,METAR,Normal,290,4.0,,,9999.0,,12.7,7.7,30.08,1019.2,,,,,,,,,,,,,,,,10000.0,10000.0,BKN,10000.0,,,,,,
KRDR,06-07-2014,03:58,METAR,Normal,300,5.0,,,9999.0,,13.5,7.7,30.08,1019.2,,,,,,,,,,,,,,,,9500.0,9500.0,OVC,9600.0,,,,,,
KRDR,06-07-2014,02:58,METAR,Normal,290,5.0,,,9999.0,,14.2,7.2,30.08,1019.2,,,,,,,,,,,,,,,,9000.0,9000.0,BKN,9100.0,,,,,,
KRDR,06-07-2014,01:58,METAR,Normal,290,3.0,,,9999.0,,14.5,8.0,30.06,1018.6,,,,,,,,,,,,,,,Clear,72000.0,,,,,,,,,
KRDR,06-07-2014,00:58,METAR,Normal,290,4.0,,,9999.0,,15.4,6.9,30.07,1019.0,,,,,,,,,,,,,,,,,8500.0,SCT,8600.0,,,,,,
KRDR,06-06-2014,23:58,METAR,Normal,320,7.0,,,9999.0,,16.2,5.1,30.06,1018.6,,,,,,,,,,,,,,,Clear,72000.0,,,,,,,,,
KRDR,06-06-2014,22:58,METAR,Normal,320,7.0,,,9999.0,,16.2,4.8,30.05,1018.3,,,,,,,,,,,,,,,,8000.0,8000.0,BKN,8000.0,,,,,,
KRDR,06-06-2014,21:58,METAR,Normal,340,8.0,,,9999.0,,16.9,4.2,30.04,1017.9,,,,,,,,,,,,,,,Clear,72000.0,,,,,,,,,
KRDR,06-06-2014,20:58,METAR,Normal,330,11.0,,,9999.0,,17.2,4.9,30.04,1017.8,,,,,,,,,,,,,,,,,8000.0,FEW,8000.0,SCT,10000.0,,,,
KRDR,06-06-2014,19:58,METAR,Normal,310,9.0,16.0,,9999.0,,17.9,5.5,30.04,1017.8,,,,,,,,,,,,,,,Clear,72000.0,,,,,,,,,
KRDR,06-06-2014,18:58,METAR,Normal,330,14.0,17.0,,9999.0,,17.1,5.3,30.03,1017.4,,,,,,,,,,,,,,,,,12000.0,FEW,12000.0,,,,,,
KRDR,06-06-2014,17:58,METAR,Normal,340,9.0,,,9999.0,,17.9,5.3,30.03,1017.4,,,,,,,,,,,,,,,Clear,72000.0,,,,,,,,,
KRDR,06-06-2014,16:58,METAR,Normal,340,11.0,17.0,,9999.0,,17.7,5.5,30.02,1017.0,,,,,,,,,,,,,,,Clear,72000.0,,,,,,,,,
KRDR,06-06-2014,15:58,METAR,Normal,320,12.0,,,9999.0,,16.7,5.3,30.02,1017.0,,,,,,,,,,,,,,,Clear,72000.0,,,,,,,,,
KRDR,06-06-2014,14:58,METAR,Normal,330,11.0,,,9999.0,,16.3,6.1,30.02,1017.0,,,,,,,,,,,,,,,Clear,72000.0,,,,,,,,,
KRDR,06-06-2014,13:58,METAR,Normal,330,11.0,17.0,,9999.0,,14.9,7.1,30.01,1016.7,,,,,,,,,,,,,,,Clear,72000.0,,,,,,,,,
KRDR,06-06-2014,12:58,METAR,Normal,340,8.0,,,9999.0,,13.0,7.6,29.99,1015.9,,,,,,,,,,,,,,,Clear,72000.0,,,,,,,,,
KRDR,06-06-2014,11:58,METAR,Normal,340,6.0,,,9999.0,,12.1,7.0,29.97,1015.3,,,,,,,,,,,,,,.02 IN,Clear,72000.0,,,,,,,,,
KRDR,06-06-2014,10:58,METAR,Normal,330,7.0,,,9999.0,,11.9,7.6,29.95,1014.6,,,,,,,,,,,,,,,Clear,72000.0,,,,,,,,,
KRDR,06-06-2014,09:58,METAR,Normal,340,11.0,19.0,,9999.0,,12.8,7.6,29.93,1013.8,,,,,,,,,,,,,,,Clear,72000.0,,,,,,,,,
KRDR,06-06-2014,08:58,METAR,Normal,340,12.0,17.0,,9999.0,,13.9,11.0,29.91,1013.1,,,,,,,,,,,,,,,Clear,72000.0,,,,,,,,,
KRDR,06-06-2014,07:58,METAR,Normal,340,12.0,18.0,,9999.0,,15.0,12.0,29.86,1011.4,,,,,,,,,,,,,,,Clear,72000.0,,,,,,,,,
KRDR,06-06-2014,06:58,METAR,Normal,330,10.0,,,9999.0,,16.9,13.3,29.82,1010.0,,,,,,,,,,,,,,,Clear,72000.0,,,,,,,,,
KRDR,06-06-2014,05:58,METAR,Normal,290,7.0,,,9999.0,,16.9,13.2,29.80,1009.3,,,,,,,,,,,,,,,Clear,72000.0,,,,,,,,,
KRDR,06-06-2014,04:58,METAR,Normal,300,6.0,,,9999.0,,18.4,13.1,29.79,1009.1,,,,,,,,,,,,,,,Clear,72000.0,,,,,,,,,
KRDR,06-06-2014,03:58,METAR,Normal,280,8.0,,,9999.0,,18.7,12.8,29.79,1009.1,,,,,,,,,,,,,,,Clear,72000.0,,,,,,,,,
KRDR,06-06-2014,02:58,METAR,Normal,310,14.0,20.0,,9999.0,,18.9,12.0,29.80,1009.5,,,,,,,,,,,,,,,Clear,72000.0,,,,,,,,,
KRDR,06-06-2014,01:58,METAR,Normal,270,5.0,,,9999.0,,20.9,12.2,29.77,1008.4,,,,,,,,,,,,,,,Clear,72000.0,,,,,,,,,
KRDR,06-06-2014,00:58,METAR,Normal,270,5.0,,,9999.0,,24.3,12.5,29.76,1008.0,,,,,,,,,,,,,,,Clear,72000.0,,,,,,,,,
KRDR,06-05-2014,23:58,METAR,Normal,280,10.0,,,9999.0,,25.1,12.2,29.73,1007.0,,,,,,,,,,,,,,,Clear,72000.0,,,,,,,,,
KRDR,06-05-2014,22:58,METAR,Normal,280,9.0,,,9999.0,,25.8,13.4,29.72,1006.6,,,,,,,,,,,,,,,Clear,72000.0,,,,,,,,,
KRDR,06-05-2014,21:58,METAR,Normal,290,13.0,,,9999.0,,26.1,14.0,29.72,1006.6,,,,,,,,,,,,,,,Clear,72000.0,,,,,,,,,
KRDR,06-05-2014,20:58,METAR,Normal,270,10.0,,,9999.0,,25.4,14.4,29.73,1007.0,,,,,,,,,,,,,,,,,5000.0,FEW,5000.0,,,,,,
KRDR,06-05-2014,19:58,METAR,Normal,270,7.0,,,9999.0,,25.6,14.6,29.75,1007.6,,,,,,,,,,,,,,,,,8000.0,FEW,8000.0,,,,,,
KRDR,06-05-2014,18:58,METAR,Normal,220,8.0,,,9999.0,,25.0,16.4,29.75,1007.6,,,,,,,,,,,,,,,,,4300.0,SCT,4300.0,,,,,,
KRDR,06-05-2014,17:58,METAR,Normal,240,7.0,,,9999.0,,23.8,17.3,29.74,1007.2,,,,,,,,,,,,,.02 IN,,Clear,72000.0,,,,,,,,,
KRDR,06-05-2014,16:58,METAR,Normal,220,9.0,,,9999.0,,20.8,19.4,29.75,1007.6,,,,,,,,,,,,,,,Clear,72000.0,,,,,,,,,
KRDR,06-05-2014,16:23,SPECI,Normal,220,9.0,,,9999.0,,21.0,19.0,29.75,,,,,,,,,,,,,,,,,,1600.0,FEW,1600.0,SCT,2200.0,,,,
KRDR,06-05-2014,16:18,SPECI,Normal,210,13.0,,,9999.0,,21.0,19.0,29.75,,,,,,,,,,,,,,,,,1400.0,1400.0,SCT,1400.0,BKN,2000.0,,,,
KRDR,06-05-2014,16:08,SPECI,Normal,200,14.0,,,9999.0,,20.0,19.0,29.76,,,,,,,,,,,,,,,,,1400.0,1400.0,BKN,1400.0,BKN,2000.0,,,,
KRDR,06-05-2014,16:03,SPECI,Normal,200,13.0,,,9999.0,,20.0,19.0,29.76,,,,,,,,,,,,,,,,,1600.0,1600.0,BKN,1600.0,BKN,2100.0,,,,
KRDR,06-05-2014,15:58,METAR,Normal,230,12.0,17.0,,9999.0,,20.0,19.5,29.76,1008.0,,,,,,,,,,,,,,,,1400.0,1400.0,BKN,1400.0,,,,,,
KRDR,06-05-2014,15:48,SPECI,Normal,210,12.0,,,9999.0,,20.0,20.0,29.76,,,,,,,,,,,,,,,,,1300.0,1300.0,BKN,1300.0,,,,,,
KRDR,06-05-2014,15:43,SPECI,Normal,220,11.0,,,9999.0,,20.0,20.0,29.76,,,,,,,,,,,,,,,,,,1200.0,SCT,1200.0,,,,,,
KRDR,06-05-2014,15:33,SPECI,Normal,190,11.0,17.0,,9999.0,,20.0,19.0,29.76,,,,,,,,,,,,,,,,,1200.0,1200.0,BKN,1200.0,,,,,,
KRDR,06-05-2014,14:58,METAR,Normal,190,10.0,,,9999.0,,17.1,,29.77,1008.4,,,,,,,,,,,TRACE,.02 IN,,,,8500.0,900.0,FEW,900.0,BKN,8600.0,,,,
KRDR,06-05-2014,14:01,SPECI,Normal,180,11.0,,,9999.0,,16.0,16.0,29.76,,,,,,,,,,,,,,,,,,600.0,SCT,600.0,,,,,,
KRDR,06-05-2014,13:58,METAR,Normal,170,10.0,,,9999.0,,16.0,16.0,29.76,1008.1,,,,,,,,,,,.01 IN,,,,,,600.0,SCT,600.0,,,,,,
KRDR,06-05-2014,13:57,SPECI,Normal,170,10.0,,,9999.0,,16.0,16.0,29.76,,,,,,,,,,,,,,,,,,600.0,SCT,600.0,,,,,,
KRDR,06-05-2014,13:52,SPECI,Normal,170,11.0,,,9999.0,Light Drizzle,16.0,16.0,29.76,,51,,,,,,,,,,,,,,,600.0,600.0,BKN,600.0,BKN,10000.0,,,,
KRDR,06-05-2014,13:48,SPECI,Normal,170,11.0,,,9999.0,,16.0,16.0,29.76,,,,,,,,,,,,,,,,,600.0,600.0,BKN,600.0,BKN,10000.0,,,,
KRDR,06-05-2014,13:43,SPECI,Normal,170,11.0,,,9999.0,,16.0,16.0,29.77,,,,,,,,,,,,,,,,,700.0,700.0,BKN,700.0,BKN,1500.0,OVC,9600.0,,
KRDR,06-05-2014,13:38,SPECI,Normal,160,11.0,,,9999.0,,16.0,16.0,29.77,,,,,,,,,,,,,,,,,700.0,700.0,BKN,700.0,BKN,2000.0,OVC,9600.0,,
KRDR,06-05-2014,13:33,SPECI,Normal,170,10.0,,,9999.0,,16.0,16.0,29.77,,,,,,,,,,,,,,,,,700.0,700.0,BKN,700.0,BKN,2100.0,OVC,7500.0,,
KRDR,06-05-2014,13:23,SPECI,Normal,160,12.0,,,9999.0,,16.0,16.0,29.77,,,,,,,,,,,,,,,,,2900.0,700.0,SCT,700.0,BKN,2900.0,OVC,9100.0,,
KRDR,06-05-2014,13:08,SPECI,Normal,180,9.0,,,9999.0,,16.0,16.0,29.77,,,,,,,,,,,,,,,,,8000.0,800.0,FEW,800.0,BKN,8000.0,OVC,9100.0,,
KRDR,06-05-2014,12:58,METAR,Normal,170,10.0,,,9999.0,,15.7,,29.77,1008.3,,,,,,,,,,,.01 IN,,,,,7000.0,7000.0,BKN,7000.0,BKN,9100.0,,,,
KRDR,06-05-2014,12:51,SPECI,Normal,170,9.0,,,9999.0,,16.0,16.0,29.77,,,,,,,,,,,,,,,,,7000.0,7000.0,BKN,7000.0,BKN,9100.0,,,,
KRDR,06-05-2014,12:27,SPECI,Normal,170,11.0,,,9999.0,Light Rain,16.0,16.0,29.76,,61,,,,,,,,,,,,,,,9000.0,5000.0,FEW,5000.0,SCT,7500.0,BKN,9100.0,,
KRDR,06-05-2014,11:58,METAR,Normal,170,10.0,,,9999.0,,15.6,,29.74,1007.3,,,,,,,,,,,.01 IN,,.58 IN,.58 IN,Clear,72000.0,,,,,,,,,
KRDR,06-05-2014,11:54,SPECI,Normal,170,10.0,,,9999.0,,16.0,16.0,29.74,,,,,,,,,,,,,,,,Clear,72000.0,,,,,,,,,
KRDR,06-05-2014,11:47,SPECI,Normal,180,10.0,,,9999.0,,16.0,16.0,29.74,,,,,,,,,,,,,,,,,,8500.0,FEW,8600.0,,,,,,
KRDR,06-05-2014,11:46,SPECI,Normal,180,9.0,,,9999.0,,16.0,16.0,29.74,,,,,,,,,,,,,,,,,,9000.0,FEW,9100.0,,,,,,
KRDR,06-05-2014,11:35,SPECI,Normal,180,9.0,,,9999.0,,16.0,16.0,29.75,,,,,,,,,,,,,,,,,,600.0,FEW,600.0,SCT,9100.0,,,,
KRDR,06-05-2014,11:11,SPECI,Normal,170,11.0,,,9999.0,,16.0,16.0,29.75,,,,,,,,,,,,,,,,,8000.0,700.0,FEW,700.0,BKN,8000.0,BKN,9600.0,,
KRDR,06-05-2014,11:05,SPECI,Normal,170,11.0,,,9999.0,Light Drizzle,16.0,16.0,29.75,,51,,,,,,,,,,,,,,,8000.0,900.0,FEW,900.0,BKN,8000.0,OVC,9600.0,,
KRDR,06-05-2014,11:04,SPECI,Normal,170,11.0,,,9999.0,Light Drizzle,16.0,16.0,29.75,,51,,,,,,,,,,,,,,,8000.0,8000.0,BKN,8000.0,OVC,9600.0,,,,
KRDR,06-05-2014,10:58,METAR,Normal,170,11.0,,,9999.0,,15.6,,29.75,1007.6,,,,,,,,,,,,,,,,8000.0,8000.0,OVC,8000.0,,,,,,
KRDR,06-05-2014,09:58,METAR,Normal,180,11.0,,,9999.0,,15.5,,29.77,1008.3,,,,,,,,,,,.05 IN,,,,,7500.0,7500.0,BKN,7500.0,,,,,,
KRDR,06-05-2014,09:53,SPECI,Normal,190,9.0,,,9999.0,,15.0,15.0,29.77,,,,,,,,,,,,,,,,,7500.0,7500.0,BKN,7500.0,BKN,10000.0,,,,
KRDR,06-05-2014,09:23,SPECI,Normal,140,12.0,,,9999.0,Light Rain,15.0,15.0,29.76,,61,,,,,,,,,,,,,,,6500.0,6500.0,BKN,6500.0,,,,,,
KRDR,06-05-2014,09:18,SPECI,Normal,150,9.0,,,9999.0,Light Rain,16.0,16.0,29.77,,61,,,,,,,,,,,,,,,7000.0,7000.0,BKN,7000.0,,,,,,
KRDR,06-05-2014,09:13,SPECI,Normal,140,10.0,,,9999.0,Light Rain,16.0,16.0,29.78,,61,,,,,,,,,,,,,,,7000.0,7000.0,BKN,7000.0,,,,,,
KRDR,06-05-2014,08:58,METAR,Normal,160,7.0,,,9999.0,Light Rain/Distant Lightning,15.9,15.9,29.80,1009.3,61,12,,,,,,,,,.11 IN,.52 IN,,,,7000.0,7000.0,OVC,7000.0,,,,,,
KRDR,06-05-2014,08:37,SPECI,Normal,150,4.0,,,9999.0,Light Rain/Distant Lightning,16.0,16.0,29.80,,61,12,,,,,,,,,,,,,,6000.0,6000.0,BKN,6000.0,,,,,,
KRDR,06-05-2014,08:17,SPECI,Variable,,3.0,,,9999.0,Light Rain/Mist,16.0,16.0,29.81,,61,10,,,,,,,,,,,,,,4500.0,4500.0,OVC,4500.0,,,,,,
KRDR,06-05-2014,08:02,SPECI,Calm,,0.0,,,4800.0,Light Rain/Distant Lightning/Mist,16.0,16.0,29.81,,61,10,12,,,,,,,,,,,,,3600.0,3600.0,BKN,3600.0,OVC,5500.0,,,,
KRDR,06-05-2014,07:58,METAR,Variable,,3.0,,,4000.0,Thunderstorm and Rain or Snow Showers/Mist,16.0,16.0,29.82,1010.0,92,10,,,,,,,,,.19 IN,,,,,3200.0,3200.0,BKN,3200.0,OVC,6000.0,,,,
KRDR,06-05-2014,07:55,SPECI,Normal,350,3.0,,,4000.0,Heavy Thunderstorm and Rain or Snow Showers/Mist,16.0,16.0,29.82,,95,10,,,,,,,,,,,,,,2600.0,2800.0,BKN,2800.0,OVC,6000.0,,,,
KRDR,06-05-2014,07:50,SPECI,Normal,360,5.0,,,4000.0,Heavy Thunderstorm and Rain or Snow Showers/Mist,16.0,16.0,29.82,,95,10,,,,,,,,,,,,,,6000.0,2700.0,SCT,2700.0,OVC,6000.0,,,,
KRDR,06-05-2014,07:45,SPECI,Normal,330,7.0,,,8000.0,Thunderstorm and Rain or Snow Showers/Mist,16.0,16.0,29.83,,92,10,,,,,,,,,,,,,,6000.0,3400.0,FEW,3400.0,OVC,6000.0,,,,
KRDR,06-05-2014,07:35,SPECI,Normal,30,5.0,,,9999.0,Thunderstorm and Rain or Snow Showers,16.0,16.0,29.81,,92,,,,,,,,,,,,,,,6000.0,6000.0,OVC,6000.0,,,,,,
KRDR,06-05-2014,07:28,SPECI,Normal,40,8.0,,,9999.0,Light Rain/Distant Lightning,16.0,16.0,29.80,,61,12,,,,,,,,,,,,,,6000.0,6000.0,OVC,6000.0,,,,,,
KRDR,06-05-2014,07:23,SPECI,Normal,30,7.0,,,9999.0,Distant Lightning,16.0,16.0,29.80,,12,,,,,,,,,,,,,,,5500.0,5500.0,OVC,5500.0,,,,,,
KRDR,06-05-2014,07:21,SPECI,Normal,20,8.0,,,9999.0,Light Rain/Distant Lightning,16.0,16.0,29.80,,61,12,,,,,,,,,,,,,,5500.0,1100.0,FEW,1100.0,OVC,5500.0,,,,
KRDR,06-05-2014,07:16,SPECI,Normal,360,9.0,,,9999.0,Light Rain/Distant Lightning,16.0,16.0,29.81,,61,12,,,,,,,,,,,,,,6000.0,2100.0,FEW,2100.0,OVC,6000.0,,,,
KRDR,06-05-2014,07:06,SPECI,Normal,20,11.0,,,9999.0,Thunderstorm and Rain or Snow Showers,16.0,16.0,29.80,,92,,,,,,,,,,,,,,,3400.0,2200.0,SCT,2200.0,BKN,6000.0,,,,
KRDR,06-05-2014,07:01,SPECI,Normal,20,9.0,,,9999.0,Thunderstorm and Rain or Snow Showers,17.0,17.0,29.80,,92,,,,,,,,,,,,,,,2700.0,2700.0,BKN,2700.0,OVC,6000.0,,,,
KRDR,06-05-2014,06:58,METAR,Normal,30,9.0,16.0,,9999.0,Light Rain/Distant Lightning,17.3,16.8,29.81,1009.7,61,12,,,,,,,,,.22 IN,,,,,2800.0,2800.0,BKN,2800.0,BKN,5000.0,OVC,6500.0,,
KRDR,06-05-2014,06:54,SPECI,Normal,20,8.0,16.0,,9999.0,Light Rain/Distant Lightning/Mist,17.0,17.0,29.81,,61,10,12,,,,,,,,,,,,,2900.0,2400.0,FEW,2400.0,BKN,2900.0,OVC,6500.0,,
KRDR,06-05-2014,06:52,SPECI,Variable,,5.0,16.0,,9999.0,Thunderstorm and Rain or Snow Showers/Mist,17.0,17.0,29.81,,92,10,,,,,,,,,,,,,,2900.0,2400.0,FEW,2400.0,BKN,2900.0,OVC,6500.0,,
KRDR,06-05-2014,06:47,SPECI,Variable,,6.0,,,4000.0,Thunderstorm and Rain or Snow Showers/Mist,18.0,16.0,29.81,,92,10,,,,,,,,,,,,,,2600.0,2700.0,BKN,2700.0,OVC,6500.0,,,,
KRDR,06-05-2014,06:42,SPECI,Normal,10,10.0,,,2800.0,Thunderstorm and Rain or Snow Showers,19.0,14.0,29.80,,92,,,,,,,,,,,,,,,2800.0,2800.0,BKN,2800.0,OVC,6500.0,,,,
KRDR,06-05-2014,06:37,SPECI,Variable,310,9.0,,,4800.0,Heavy Thunderstorm and Rain or Snow Showers,19.0,15.0,29.81,,95,,,,,,,,,,,,,,,6500.0,3900.0,SCT,3900.0,OVC,6500.0,,,,
KRDR,06-05-2014,06:33,SPECI,Normal,330,8.0,,,9999.0,Rain/Distant Lightning,19.0,14.0,29.81,,62,12,,,,,,,,,,,,,,6500.0,6500.0,OVC,6500.0,,,,,,
KRDR,06-05-2014,05:58,METAR,Normal,210,11.0,19.0,,9999.0,,21.6,12.2,29.77,1008.2,,,,,,,,,,,,,,,,,8500.0,FEW,8600.0,,,,,,
KRDR,06-05-2014,04:58,METAR,Normal,210,10.0,,,9999.0,,21.1,12.9,29.78,1008.6,,,,,,,,,,,,,,,Clear,72000.0,,,,,,,,,
KRDR,06-05-2014,03:58,METAR,Normal,180,10.0,,,9999.0,,21.1,13.2,29.77,1008.2,,,,,,,,,,,,,,,Clear,72000.0,,,,,,,,,
KRDR,06-05-2014,02:58,METAR,Normal,150,7.0,,,9999.0,,20.2,12.9,29.77,1008.3,,,,,,,,,,,,,,,,,9000.0,FEW,9100.0,,,,,,
KRDR,06-05-2014,01:58,METAR,Normal,140,5.0,,,9999.0,,21.7,12.4,29.77,1008.3,,,,,,,,,,,,,,,,,10000.0,FEW,10000.0,,,,,,
KRDR,06-05-2014,00:58,METAR,Normal,150,6.0,,,9999.0,,25.4,12.8,29.79,1009.0,,,,,,,,,,,,,,,,,10000.0,FEW,10000.0,,,,,,
KRDR,06-04-2014,23:58,METAR,Normal,130,5.0,,,9999.0,,25.8,12.6,29.79,1009.1,,,,,,,,,,,,,TRACE,,,10000.0,10000.0,BKN,10000.0,BKN,11000.0,,,,
KRDR,06-04-2014,22:58,METAR,Normal,190,5.0,,,9999.0,,25.1,12.3,29.81,1009.9,,,,,,,,,,,,,,,,12000.0,12000.0,BKN,12000.0,,,,,,
KRDR,06-04-2014,21:58,METAR,Normal,200,5.0,,,9999.0,,26.3,11.5,29.82,1010.1,,,,,,,,,,,,,,,Clear,72000.0,,,,,,,,,
KRDR,06-04-2014,20:58,METAR,Normal,180,10.0,,,9999.0,,26.4,10.9,29.84,1010.8,,,,,,,,,,,,TRACE,,,Clear,72000.0,,,,,,,,,
KRDR,06-04-2014,19:58,METAR,Normal,210,7.0,,,9999.0,,25.9,12.4,29.86,1011.5,,,,,,,,,,,,,,,Clear,72000.0,,,,,,,,,
KRDR,06-04-2014,18:58,METAR,Normal,150,3.0,,,9999.0,,25.4,11.9,29.87,1011.8,,,,,,,,,,,TRACE,,,,,,6500.0,SCT,6500.0,,,,,,
KRDR,06-04-2014,18:25,SPECI,Normal,160,8.0,,,9999.0,,26.0,12.0,29.88,,,,,,,,,,,,,,,,,9000.0,7000.0,SCT,7000.0,BKN,9100.0,,,,
KRDR,06-04-2014,18:20,SPECI,Variable,,6.0,,,9999.0,Light Rain,25.0,12.0,29.88,,61,,,,,,,,,,,,,,,8000.0,7000.0,SCT,7000.0,BKN,8000.0,,,,
KRDR,06-04-2014,17:58,METAR,Normal,230,4.0,,,9999.0,,24.9,10.8,29.89,1012.5,,,,,,,,,,,,,,,,,6500.0,FEW,6500.0,,,,,,
KRDR,06-04-2014,16:58,METAR,Normal,150,7.0,,,9999.0,,25.2,12.6,29.89,1012.5,,,,,,,,,,,,,,,,,6000.0,FEW,6000.0,SCT,7000.0,,,,
KRDR,06-04-2014,15:58,METAR,Normal,170,4.0,,,9999.0,,24.0,12.6,29.90,1012.8,,,,,,,,,,,,,,,Clear,72000.0,,,,,,,,,
KRDR,06-04-2014,14:58,METAR,Normal,130,3.0,,,9999.0,,22.7,13.5,29.90,1012.7,,,,,,,,,,,,,,,Clear,72000.0,,,,,,,,,
KRDR,06-04-2014,13:58,METAR,Normal,290,2.0,,,9999.0,,21.4,14.7,29.90,1012.7,,,,,,,,,,,,,,,Clear,72000.0,,,,,,,,,
KRDR,06-04-2014,12:58,METAR,Normal,290,3.0,,,9999.0,,17.4,16.9,29.89,1012.5,,,,,,,,,,,,,,,Clear,72000.0,,,,,,,,,
KRDR,06-04-2014,11:58,METAR,Normal,240,2.0,,,9999.0,,13.7,13.7,29.89,1012.5,,,,,,,,,,,,,,,Clear,72000.0,,,,,,,,,
KRDR,06-04-2014,10:58,METAR,Normal,250,2.0,,,9999.0,,10.7,10.7,29.88,1012.2,,,,,,,,,,,,,,,Clear,72000.0,,,,,,,,,
KRDR,06-04-2014,09:58,METAR,Normal,220,4.0,,,9999.0,,10.9,10.9,29.88,1012.2,,,,,,,,,,,,,,,Clear,72000.0,,,,,,,,,
KRDR,06-04-2014,08:58,METAR,Normal,190,3.0,,,9999.0,,11.2,11.2,29.89,1012.7,,,,,,,,,,,,,,,Clear,72000.0,,,,,,,,,
KRDR,06-04-2014,07:58,METAR,Normal,220,3.0,,,9999.0,,12.3,12.3,29.88,1012.2,,,,,,,,,,,,,,,Clear,72000.0,,,,,,,,,
KRDR,06-04-2014,06:58,METAR,Normal,210,5.0,,,9999.0,,13.2,13.2,29.86,1011.6,,,,,,,,,,,,,,,Clear,72000.0,,,,,,,,,
KRDR,06-04-2014,05:58,METAR,Normal,230,2.0,,,9999.0,,13.5,13.5,29.85,1011.2,,,,,,,,,,,,,,,Clear,72000.0,,,,,,,,,
KRDR,06-04-2014,04:58,METAR,Normal,220,2.0,,,9999.0,,14.6,14.6,29.85,1011.2,,,,,,,,,,,,,,,Clear,72000.0,,,,,,,,,
KRDR,06-04-2014,03:58,METAR,Normal,230,3.0,,,9999.0,,14.9,14.8,29.85,1011.2,,,,,,,,,,,,,,,Clear,72000.0,,,,,,,,,
KRDR,06-04-2014,02:58,METAR,Calm,,0.0,,,9999.0,,17.8,14.9,29.83,1010.5,,,,,,,,,,,,,,,Clear,72000.0,,,,,,,,,
KRDR,06-04-2014,01:58,METAR,Normal,300,2.0,,,9999.0,,21.1,14.3,29.82,1010.1,,,,,,,,,,,,,,,,6500.0,6500.0,BKN,6500.0,,,,,,
KRDR,06-04-2014,00:58,METAR,Normal,320,4.0,,,9999.0,,23.5,10.6,29.82,1010.1,,,,,,,,,,,,,,,Clear,72000.0,,,,,,,,,
KRDR,06-03-2014,23:58,METAR,Normal,310,4.0,,,9999.0,,23.3,12.0,29.84,1010.8,,,,,,,,,,,,,,,,8500.0,6000.0,FEW,6000.0,OVC,8600.0,,,,
KRDR,06-03-2014,22:58,METAR,Variable,,4.0,,,9999.0,,24.4,12.1,29.85,1011.2,,,,,,,,,,,,,,,,8000.0,5500.0,SCT,5500.0,BKN,8000.0,,,,
KRDR,06-03-2014,21:58,METAR,Normal,240,4.0,,,9999.0,,24.6,12.4,29.84,1010.8,,,,,,,,,,,,,,,Clear,72000.0,,,,,,,,,
KRDR,06-03-2014,20:58,METAR,Normal,270,5.0,,,9999.0,,23.6,12.6,29.86,1011.5,,,,,,,,,,,,,,,,,5000.0,FEW,5000.0,,,,,,
KRDR,06-03-2014,19:58,METAR,Variable,,4.0,,,9999.0,,22.0,12.9,29.88,1012.2,,,,,,,,,,,,,,,Clear,72000.0,,,,,,,,,
KRDR,06-03-2014,18:58,METAR,Normal,290,5.0,,,9999.0,,23.2,13.3,29.87,1011.9,,,,,,,,,,,,,,,,7500.0,4500.0,FEW,4500.0,BKN,7500.0,,,,
KRDR,06-03-2014,17:58,METAR,Normal,300,7.0,,,9999.0,,21.6,13.6,29.88,1012.3,,,,,,,,,,,,,,,,,4600.0,FEW,4600.0,SCT,7000.0,,,,
KRDR,06-03-2014,16:58,METAR,Normal,310,9.0,,,9999.0,,21.4,13.6,29.89,1012.7,,,,,,,,,,,,,,,,,3800.0,FEW,3800.0,,,,,,
KRDR,06-03-2014,15:58,METAR,Variable,310,7.0,,,9999.0,,21.0,14.5,29.90,1013.0,,,,,,,,,,,,,,,Clear,72000.0,,,,,,,,,
KRDR,06-03-2014,14:58,METAR,Normal,320,7.0,,,9999.0,,19.8,14.9,29.90,1013.0,,,,,,,,,,,,,,,Clear,72000.0,,,,,,,,,
KRDR,06-03-2014,13:58,METAR,Normal,310,10.0,,,9999.0,,18.2,15.0,29.91,1013.3,,,,,,,,,,,,,,,Clear,72000.0,,,,,,,,,
KRDR,06-03-2014,12:58,METAR,Normal,310,9.0,,,9999.0,,16.5,14.9,29.91,1013.3,,,,,,,,,,,,,,,Clear,72000.0,,,,,,,,,
KRDR,06-03-2014,11:58,METAR,Normal,310,6.0,,,9999.0,,13.9,13.9,29.90,1013.1,,,,,,,,,,,,,,.16 IN,Clear,72000.0,,,,,,,,,
KRDR,06-03-2014,10:58,METAR,Normal,280,5.0,,,9999.0,,12.3,12.2,29.90,1013.1,,,,,,,,,,,,,,,Clear,72000.0,,,,,,,,,
KRDR,06-03-2014,09:58,METAR,Normal,280,5.0,,,9999.0,,13.1,13.1,29.89,1012.8,,,,,,,,,,,,,,,,,8000.0,SCT,8000.0,,,,,,
KRDR,06-03-2014,08:58,METAR,Normal,300,7.0,,,9999.0,,14.2,14.2,29.89,1012.8,,,,,,,,,,,,,,,,8000.0,8000.0,OVC,8000.0,,,,,,
KRDR,06-03-2014,07:58,METAR,Normal,300,7.0,,,9999.0,,13.9,13.8,29.89,1012.8,,,,,,,,,,,,,,,,7500.0,7500.0,OVC,7500.0,,,,,,
KRDR,06-03-2014,06:58,METAR,Normal,290,7.0,,,9999.0,,13.0,12.8,29.89,1012.8,,,,,,,,,,,,,,,Clear,72000.0,,,,,,,,,
KRDR,06-03-2014,05:58,METAR,Normal,290,7.0,,,9999.0,,12.3,11.4,29.89,1012.8,,,,,,,,,,,,,,,Clear,72000.0,,,,,,,,,
KRDR,06-03-2014,04:58,METAR,Normal,280,5.0,,,9999.0,,11.8,11.7,29.88,1012.6,,,,,,,,,,,,,,,Clear,72000.0,,,,,,,,,
KRDR,06-03-2014,03:58,METAR,Normal,280,4.0,,,9999.0,,12.1,11.9,29.88,1012.6,,,,,,,,,,,,,,,Clear,72000.0,,,,,,,,,
KRDR,06-03-2014,02:58,METAR,Normal,300,5.0,,,9999.0,,14.0,13.8,29.88,1012.5,,,,,,,,,,,,,,,Clear,72000.0,,,,,,,,,
KRDR,06-03-2014,01:58,METAR,Normal,310,5.0,,,9999.0,,16.0,14.4,29.87,1012.1,,,,,,,,,,,,,,,,,8500.0,SCT,8600.0,,,,,,
KRDR,06-03-2014,00:58,METAR,Normal,330,10.0,,,9999.0,,17.4,14.2,29.86,1011.7,,,,,,,,,,,,,,,,12000.0,12000.0,BKN,12000.0,,,,,,
KRDR,06-02-2014,23:58,METAR,Normal,350,13.0,,,9999.0,,17.2,13.9,29.85,1011.3,,,,,,,,,,,,,.04 IN,,,10000.0,10000.0,OVC,10000.0,,,,,,
KRDR,06-02-2014,22:58,METAR,Normal,330,12.0,,,9999.0,,16.8,15.5,29.84,1011.0,,,,,,,,,,,,,,,,,1800.0,FEW,1800.0,,,,,,
KRDR,06-02-2014,22:08,SPECI,Normal,330,10.0,,,9999.0,,15.0,15.0,29.83,,,,,,,,,,,,,,,,,7000.0,1500.0,SCT,1500.0,BKN,7000.0,,,,
KRDR,06-02-2014,22:03,SPECI,Normal,320,11.0,,,9999.0,,15.0,15.0,29.83,,,,,,,,,,,,,,,,,1500.0,1500.0,BKN,1500.0,BKN,7500.0,,,,
KRDR,06-02-2014,21:58,METAR,Normal,330,13.0,18.0,,9999.0,,14.9,,29.83,1010.7,,,,,,,,,,,TRACE,,,,,1400.0,1400.0,OVC,1400.0,,,,,,
KRDR,06-02-2014,21:29,SPECI,Variable,340,9.0,,,9999.0,,15.0,15.0,29.83,,,,,,,,,,,,,,,,,1200.0,1200.0,BKN,1200.0,,,,,,
KRDR,06-02-2014,21:04,SPECI,Normal,340,11.0,,,9999.0,,14.0,14.0,29.82,,,,,,,,,,,,,,,,,,1100.0,SCT,1100.0,,,,,,
KRDR,06-02-2014,21:03,SPECI,Normal,340,12.0,,,9999.0,,14.0,14.0,29.82,,,,,,,,,,,,,,,,,,1100.0,SCT,1100.0,,,,,,
KRDR,06-02-2014,20:58,METAR,Normal,350,12.0,,,9999.0,Light Drizzle,14.1,,29.82,1010.4,51,,,,,,,,,,.02 IN,.04 IN,,,,1100.0,1100.0,BKN,1100.0,,,,,,
KRDR,06-02-2014,20:29,SPECI,Normal,20,11.0,,,9999.0,Light Rain,14.0,14.0,29.82,,61,,,,,,,,,,,,,,,1000.0,1000.0,BKN,1000.0,BKN,5500.0,OVC,7000.0,,
KRDR,06-02-2014,20:19,SPECI,Normal,10,11.0,,,9999.0,Light Rain,14.0,14.0,29.81,,61,,,,,,,,,,,,,,,5500.0,1000.0,FEW,1000.0,BKN,5500.0,OVC,7000.0,,
KRDR,06-02-2014,19:58,METAR,Normal,350,14.0,18.0,,9999.0,Light Rain,13.9,,29.80,1009.7,61,,,,,,,,,,.02 IN,,,,,6000.0,6000.0,OVC,6000.0,,,,,,
KRDR,06-02-2014,18:58,METAR,Normal,340,16.0,,,9999.0,Light Rain,15.1,14.9,29.79,1009.3,61,,,,,,,,,,TRACE,,,,,5000.0,5000.0,BKN,5000.0,BKN,11000.0,,,,
KRDR,06-02-2014,18:28,SPECI,Normal,340,17.0,22.0,,9999.0,,15.0,15.0,29.78,,,,,,,,,,,,,,,,,5500.0,4400.0,FEW,4400.0,BKN,5500.0,OVC,8600.0,,
KRDR,06-02-2014,18:26,SPECI,Normal,340,17.0,22.0,,9999.0,,15.0,15.0,29.78,,,,,,,,,,,,,,,,,5500.0,4400.0,FEW,4400.0,BKN,5500.0,OVC,8600.0,,
KRDR,06-02-2014,18:16,SPECI,Normal,340,15.0,21.0,,9999.0,,15.0,15.0,29.78,,,,,,,,,,,,,,,,,5500.0,4400.0,FEW,4400.0,BKN,5500.0,OVC,9100.0,,
KRDR,06-02-2014,17:58,METAR,Normal,340,15.0,22.0,,9999.0,,15.3,15.2,29.77,1008.6,,,,,,,,,,,,,.12 IN,,,7000.0,4200.0,FEW,4200.0,SCT,5500.0,BKN,7000.0,,
KRDR,06-02-2014,16:58,METAR,Normal,340,17.0,23.0,,9999.0,,14.0,14.0,29.76,1008.3,,,,,,,,,,,.05 IN,,,,,4400.0,4400.0,BKN,4400.0,OVC,4900.0,,,,
KRDR,06-02-2014,16:53,SPECI,Normal,340,14.0,20.0,,9999.0,,14.0,14.0,29.76,,,,,,,,,,,,,,,,,4200.0,4200.0,BKN,4200.0,BKN,5000.0,,,,
KRDR,06-02-2014,15:58,METAR,Normal,340,14.0,22.0,,9999.0,Light Rain,13.1,,29.74,1007.6,61,,,,,,,,,,.03 IN,,,,,7000.0,4200.0,FEW,4200.0,SCT,5500.0,OVC,7000.0,,
KRDR,06-02-2014,15:29,SPECI,Normal,340,16.0,23.0,,9999.0,Light Rain,13.0,13.0,29.75,,61,,,,,,,,,,,,,,,4100.0,4100.0,BKN,4100.0,BKN,5000.0,OVC,7500.0,,
KRDR,06-02-2014,15:22,SPECI,Normal,350,16.0,24.0,,9999.0,,13.0,13.0,29.75,,,,,,,,,,,,,,,,,4300.0,3300.0,FEW,3300.0,BKN,4300.0,OVC,5000.0,,
KRDR,06-02-2014,14:58,METAR,Normal,350,16.0,22.0,,9999.0,Light Rain,12.8,,29.75,1007.9,61,,,,,,,,,,TRACE,.04 IN,,,,3000.0,3000.0,BKN,3000.0,BKN,3800.0,OVC,4600.0,,
KRDR,06-02-2014,14:36,SPECI,Normal,350,17.0,23.0,,9999.0,,13.0,13.0,29.74,,,,,,,,,,,,,,,,,3000.0,3000.0,BKN,3000.0,OVC,8000.0,,,,
KRDR,06-02-2014,14:18,SPECI,Normal,350,16.0,23.0,,9999.0,,13.0,13.0,29.73,,,,,,,,,,,,,,,,,8000.0,900.0,FEW,900.0,OVC,8000.0,,,,
KRDR,06-02-2014,13:58,METAR,Normal,350,17.0,23.0,,9999.0,Light Rain,13.4,,29.72,1006.9,61,,,,,,,,,,.04 IN,,,,,3900.0,900.0,FEW,900.0,BKN,3900.0,OVC,7500.0,,
KRDR,06-02-2014,12:58,METAR,Normal,10,14.0,,,9999.0,Light Rain,13.8,,29.71,1006.4,61,,,,,,,,,,TRACE,,,,,3900.0,800.0,FEW,800.0,BKN,3900.0,OVC,4700.0,,
KRDR,06-02-2014,12:05,SPECI,Normal,10,14.0,15.0,,9999.0,,15.0,15.0,29.69,,,,,,,,,,,,,,,,,3500.0,1100.0,FEW,1100.0,BKN,3500.0,BKN,6500.0,,
KRDR,06-02-2014,11:59,SPECI,Normal,10,12.0,,,9999.0,,15.0,15.0,29.69,,,,,,,,,,,,,,,,,6500.0,1000.0,FEW,1000.0,SCT,3600.0,OVC,6500.0,,
KRDR,06-02-2014,11:58,METAR,Normal,10,13.0,,,9999.0,,15.5,,29.69,1005.7,,,,,,,,,,,TRACE,,.39 IN,.39 IN,,6500.0,3600.0,SCT,3600.0,SCT,4500.0,BKN,6500.0,,
KRDR,06-02-2014,11:19,SPECI,Normal,30,9.0,,,9999.0,,15.0,15.0,29.67,,,,,,,,,,,,,,,,,4900.0,2400.0,SCT,2400.0,BKN,4900.0,OVC,9100.0,,
KRDR,06-02-2014,11:15,SPECI,Normal,20,9.0,,,9999.0,Light Drizzle,15.0,15.0,29.67,,51,,,,,,,,,,,,,,,3500.0,1900.0,FEW,1900.0,BKN,3500.0,OVC,9100.0,,
KRDR,06-02-2014,11:00,SPECI,Normal,10,12.0,,,9999.0,Light Rain,15.0,15.0,29.67,,61,,,,,,,,,,,,,,,2200.0,1600.0,SCT,1600.0,BKN,2200.0,OVC,2800.0,,
KRDR,06-02-2014,10:58,METAR,Normal,10,13.0,,,9999.0,,14.6,,29.68,1005.3,,,,,,,,,,,,,,,,2000.0,1400.0,FEW,1400.0,BKN,2000.0,OVC,2500.0,,
KRDR,06-02-2014,10:48,SPECI,Normal,10,10.0,,,9999.0,,15.0,15.0,29.68,,,,,,,,,,,,,,,,,1200.0,1200.0,SCT,1200.0,OVC,1800.0,,,,
KRDR,06-02-2014,10:33,SPECI,Normal,360,10.0,,,9999.0,,15.0,15.0,29.67,,,,,,,,,,,,,,,,,1200.0,1200.0,BKN,1200.0,OVC,2000.0,,,,
KRDR,06-02-2014,10:18,SPECI,Variable,360,9.0,,,9999.0,,15.0,15.0,29.67,,,,,,,,,,,,,,,,,1100.0,1100.0,BKN,1100.0,BKN,1900.0,OVC,4300.0,,
KRDR,06-02-2014,10:08,SPECI,Normal,10,8.0,,,9999.0,,16.0,16.0,29.67,,,,,,,,,,,,,,,,,1700.0,1100.0,FEW,1100.0,BKN,2500.0,OVC,4100.0,,
KRDR,06-02-2014,09:58,METAR,Normal,40,12.0,,,9999.0,,15.9,,29.67,1004.9,,,,,,,,,,,.02 IN,,,,,1700.0,1200.0,SCT,1200.0,BKN,1700.0,OVC,4000.0,,
KRDR,06-02-2014,09:49,SPECI,Normal,30,12.0,,,9999.0,,16.0,16.0,29.67,,,,,,,,,,,,,,,,,1100.0,1100.0,SCT,1100.0,BKN,1700.0,OVC,2800.0,,
KRDR,06-02-2014,09:34,SPECI,Normal,360,9.0,,,9999.0,,15.0,15.0,29.68,,,,,,,,,,,,,,,,,700.0,700.0,SCT,700.0,OVC,1200.0,,,,
KRDR,06-02-2014,09:24,SPECI,Normal,340,9.0,,,9999.0,,16.0,16.0,29.67,,,,,,,,,,,,,,,,,700.0,700.0,BKN,700.0,OVC,1200.0,,,,
KRDR,06-02-2014,09:18,SPECI,Normal,350,8.0,,,9999.0,Light Rain,16.0,16.0,29.67,,61,,,,,,,,,,,,,,,700.0,700.0,BKN,700.0,OVC,3100.0,,,,
KRDR,06-02-2014,09:13,SPECI,Normal,340,8.0,,,9999.0,Light Rain,16.0,16.0,29.67,,61,,,,,,,,,,,,,,,600.0,600.0,BKN,600.0,OVC,3500.0,,,,
KRDR,06-02-2014,09:08,SPECI,Normal,340,9.0,,,9999.0,Light Rain,16.0,16.0,29.67,,61,,,,,,,,,,,,,,,600.0,600.0,BKN,600.0,BKN,3000.0,OVC,4300.0,,
KRDR,06-02-2014,08:58,METAR,Normal,360,7.0,,,9999.0,Rain,16.0,16.0,29.67,1004.9,62,,,,,,,,,,.14 IN,.37 IN,,,,3600.0,700.0,FEW,700.0,BKN,3600.0,OVC,4300.0,,
KRDR,06-02-2014,08:53,SPECI,Normal,360,9.0,,,9999.0,Light Rain,16.0,16.0,29.67,,61,,,,,,,,,,,,,,,3900.0,700.0,FEW,700.0,OVC,3900.0,,,,
KRDR,06-02-2014,08:48,SPECI,Normal,10,11.0,,,9999.0,Light Rain,16.0,16.0,29.66,,61,,,,,,,,,,,,,,,3400.0,2200.0,FEW,2200.0,BKN,3400.0,OVC,4200.0,,
KRDR,06-02-2014,08:43,SPECI,Normal,20,10.0,,,9999.0,Light Rain,16.0,16.0,29.67,,61,,,,,,,,,,,,,,,2800.0,2100.0,FEW,2100.0,BKN,2800.0,OVC,4000.0,,
KRDR,06-02-2014,08:38,SPECI,Normal,40,9.0,,,9999.0,Light Rain,16.0,16.0,29.67,,61,,,,,,,,,,,,,,,3100.0,2100.0,FEW,2100.0,BKN,3100.0,OVC,3800.0,,
KRDR,06-02-2014,08:28,SPECI,Normal,40,9.0,,,8000.0,Rain/Distant Lightning/Mist,16.0,16.0,29.68,,62,10,12,,,,,,,,,,,,,2100.0,2300.0,SCT,2300.0,OVC,3300.0,,,,
KRDR,06-02-2014,08:13,SPECI,Normal,40,5.0,,,9999.0,Light Rain/Mist,17.0,17.0,29.70,,61,10,,,,,,,,,,,,,,2600.0,2600.0,OVC,2600.0,,,,,,
KRDR,06-02-2014,07:58,METAR,Normal,40,8.0,,,6400.0,Rain/Distant Lightning/Mist,16.4,16.4,29.69,1005.7,62,10,12,,,,,,,,.22 IN,,,,,2400.0,2400.0,OVC,2400.0,,,,,,
KRDR,06-02-2014,07:15,SPECI,Normal,10,8.0,,,6400.0,Heavy Rain/Distant Lightning/Mist,17.0,17.0,29.70,,63,10,12,,,,,,,,,,,,,2400.0,2400.0,OVC,2400.0,,,,,,
KRDR,06-02-2014,07:00,SPECI,Normal,10,8.0,,,9999.0,Light Rain,17.0,17.0,29.70,,61,,,,,,,,,,,,,,,2500.0,2500.0,OVC,2500.0,,,,,,
KRDR,06-02-2014,06:58,METAR,Normal,10,8.0,,,9999.0,Thunderstorm and Rain or Snow Showers,17.1,17.1,29.71,1006.3,92,,,,,,,,,,.01 IN,,,,,2600.0,2600.0,OVC,2600.0,,,,,,
KRDR,06-02-2014,06:45,SPECI,Normal,20,9.0,,,9999.0,Thunderstorm and Rain or Snow Showers,17.0,17.0,29.70,,92,,,,,,,,,,,,,,,2600.0,2600.0,OVC,2600.0,,,,,,
KRDR,06-02-2014,05:58,METAR,Normal,10,6.0,,,9999.0,Light Drizzle,17.1,16.9,29.72,1006.7,51,,,,,,,,,,TRACE,,TRACE,,,2500.0,2500.0,BKN,2500.0,OVC,10000.0,,,,
KRDR,06-02-2014,05:50,SPECI,Normal,10,5.0,,,9999.0,Light Drizzle,17.0,17.0,29.72,,51,,,,,,,,,,,,,,,2400.0,2400.0,BKN,2400.0,BKN,10000.0,,,,
KRDR,06-02-2014,05:48,SPECI,Normal,20,5.0,,,9999.0,,17.0,17.0,29.72,,,,,,,,,,,,,,,,,2400.0,2400.0,BKN,2400.0,BKN,10000.0,,,,
KRDR,06-02-2014,05:43,SPECI,Normal,20,5.0,,,9999.0,,18.0,17.0,29.72,,,,,,,,,,,,,,,,,11000.0,2400.0,SCT,2400.0,BKN,11000.0,,,,
KRDR,06-02-2014,04:58,METAR,Normal,40,5.0,,,9999.0,,17.1,17.0,29.73,1007.1,,,,,,,,,,,,,,,,,6000.0,FEW,6000.0,SCT,11000.0,,,,
KRDR,06-02-2014,03:58,METAR,Normal,80,4.0,,,9999.0,,18.6,16.1,29.75,1007.7,,,,,,,,,,,,,,,Clear,72000.0,,,,,,,,,
KRDR,06-02-2014,02:58,METAR,Normal,120,6.0,,,9999.0,,19.8,16.2,29.74,1007.4,,,,,,,,,,,,,,,,,4400.0,SCT,4400.0,,,,,,
KRDR,06-02-2014,01:58,METAR,Normal,100,10.0,,,9999.0,,20.7,16.3,29.73,1007.1,,,,,,,,,,,,,,,Clear,72000.0,,,,,,,,,
KRDR,06-02-2014,00:58,METAR,Normal,100,13.0,20.0,,9999.0,,22.2,15.1,29.74,1007.4,,,,,,,,,,,,,,,,11000.0,9000.0,FEW,9100.0,BKN,11000.0,,,,
KRDR,06-01-2014,23:58,METAR,Normal,110,13.0,19.0,,9999.0,,23.6,17.0,29.73,1007.0,,,,,,,,,,,,,,,,11000.0,4400.0,SCT,4400.0,SCT,8600.0,BKN,11000.0,,
KRDR,06-01-2014,22:58,METAR,Normal,110,13.0,,,9999.0,,24.3,16.5,29.71,1006.3,,,,,,,,,,,,,,,,5000.0,5000.0,BKN,5000.0,BKN,6000.0,,,,
KRDR,06-01-2014,21:58,METAR,Normal,80,14.0,16.0,,9999.0,,25.4,16.6,29.70,1005.9,,,,,,,,,,,,,,,,,4600.0,SCT,4600.0,,,,,,
KRDR,06-01-2014,20:58,METAR,Normal,120,8.0,,,9999.0,,25.3,17.0,29.75,1007.7,,,,,,,,,,,,,,,,,4000.0,FEW,4000.0,,,,,,
KRDR,06-01-2014,19:58,METAR,Normal,100,11.0,,,9999.0,,23.8,18.0,29.76,1008.0,,,,,,,,,,,,,,,,,3600.0,FEW,3600.0,SCT,9600.0,,,,
KRDR,06-01-2014,18:58,METAR,Normal,70,9.0,,,9999.0,,23.0,19.1,29.78,1008.8,,,,,,,,,,,,,,,,,2900.0,FEW,2900.0,SCT,3600.0,SCT,10000.0,,
KRDR,06-01-2014,18:28,SPECI,Normal,70,9.0,,,9999.0,,22.0,20.0,29.79,,,,,,,,,,,,,,,,,3200.0,2400.0,SCT,2400.0,BKN,3200.0,BKN,11000.0,,
KRDR,06-01-2014,18:08,SPECI,Normal,50,9.0,,,9999.0,,22.0,21.0,29.79,,,,,,,,,,,,,,,,,2400.0,2300.0,SCT,2300.0,BKN,2900.0,BKN,3300.0,,
KRDR,06-01-2014,18:03,SPECI,Normal,40,9.0,,,9999.0,,22.0,21.0,29.79,,,,,,,,,,,,,,,,,3000.0,1900.0,FEW,1900.0,SCT,2400.0,BKN,3000.0,,
KRDR,06-01-2014,17:58,METAR,Normal,60,12.0,14.0,,9999.0,,23.0,22.0,29.78,1008.8,,,,,,,,,,,,,,,,2900.0,1900.0,FEW,1900.0,SCT,2400.0,BKN,2900.0,,
KRDR,06-01-2014,17:48,SPECI,Normal,50,10.0,,,9999.0,,23.0,22.0,29.78,,,,,,,,,,,,,,,,,10000.0,1700.0,FEW,1700.0,SCT,2400.0,BKN,10000.0,,
KRDR,06-01-2014,17:43,SPECI,Normal,50,9.0,,,9999.0,,23.0,22.0,29.78,,,,,,,,,,,,,,,,,2300.0,1700.0,FEW,1700.0,BKN,2400.0,BKN,11000.0,,
KRDR,06-01-2014,16:58,METAR,Normal,30,10.0,,,9999.0,,20.9,,29.79,1009.1,,,,,,,,,,,,,,,,,1200.0,FEW,1200.0,,,,,,
KRDR,06-01-2014,16:32,SPECI,Normal,360,11.0,,,9999.0,,21.0,21.0,29.80,,,,,,,,,,,,,,,,,,1000.0,SCT,1000.0,SCT,1600.0,,,,
KRDR,06-01-2014,16:17,SPECI,Normal,10,11.0,,,9999.0,,20.0,20.0,29.81,,,,,,,,,,,,,,,,,1700.0,1200.0,SCT,1200.0,BKN,1700.0,BKN,2500.0,,
KRDR,06-01-2014,16:05,SPECI,Normal,350,11.0,,,9999.0,,20.0,20.0,29.81,,,,,,,,,,,,,,,,,2300.0,1400.0,SCT,1400.0,OVC,2300.0,,,,
KRDR,06-01-2014,15:58,METAR,Normal,20,9.0,,,9999.0,,19.9,,29.81,1009.9,,,,,,,,,,,,,,,,1400.0,1400.0,BKN,1400.0,BKN,2400.0,,,,
KRDR,06-01-2014,15:23,SPECI,Normal,10,5.0,,,9999.0,,19.0,19.0,29.80,,,,,,,,,,,,,,,,,1200.0,1200.0,BKN,1200.0,,,,,,
KRDR,06-01-2014,15:18,SPECI,Normal,40,5.0,,,9999.0,,19.0,19.0,29.80,,,,,,,,,,,,,,,,,900.0,1000.0,SCT,1000.0,BKN,1600.0,,,,
KRDR,06-01-2014,15:13,SPECI,Normal,60,4.0,,,9999.0,,19.0,19.0,29.80,,,,,,,,,,,,,,,,,,1000.0,SCT,1000.0,,,,,,
KRDR,06-01-2014,15:08,SPECI,Normal,60,7.0,,,9999.0,,19.0,19.0,29.80,,,,,,,,,,,,,,,,,900.0,900.0,BKN,900.0,,,,,,
KRDR,06-01-2014,15:03,SPECI,Normal,50,6.0,,,9999.0,,19.0,19.0,29.80,,,,,,,,,,,,,,,,,800.0,1000.0,BKN,1000.0,,,,,,
KRDR,06-01-2014,14:58,METAR,Normal,60,6.0,,,9999.0,,19.0,,29.79,1009.1,,,,,,,,,,,,,,,,800.0,800.0,BKN,800.0,,,,,,
KRDR,06-01-2014,14:38,SPECI,Normal,60,7.0,,,9999.0,,18.0,,29.79,,,,,,,,,,,,,,,,,500.0,700.0,OVC,700.0,,,,,,
KRDR,06-01-2014,14:33,SPECI,Normal,70,6.0,,,9999.0,,18.0,,29.79,,,,,,,,,,,,,,,,,600.0,600.0,OVC,600.0,,,,,,
KRDR,06-01-2014,14:18,SPECI,Normal,80,8.0,,,9999.0,,18.0,17.0,29.79,,,,,,,,,,,,,,,,,300.0,500.0,OVC,500.0,,,,,,
KRDR,06-01-2014,13:58,METAR,Normal,80,5.0,,,9999.0,,17.0,17.0,29.78,1008.8,,,,,,,,,,,,,,,,200.0,200.0,OVC,200.0,,,,,,
KRDR,06-01-2014,13:48,SPECI,Normal,90,5.0,,,4800.0,Mist,17.0,17.0,29.78,,10,,,,,,,,,,,,,,,200.0,200.0,OVC,200.0,,,,,,
KRDR,06-01-2014,13:43,SPECI,Normal,90,6.0,,,4000.0,Mist,17.0,17.0,29.78,,10,,,,,,,,,,,,,,,200.0,200.0,OVC,200.0,,,,,,
KRDR,06-01-2014,13:38,SPECI,Normal,80,7.0,,,2800.0,Mist,17.0,17.0,29.78,,10,,,,,,,,,,,,,,,200.0,200.0,OVC,200.0,,,,,,
KRDR,06-01-2014,13:33,SPECI,Normal,70,6.0,,,2000.0,Mist,17.0,17.0,29.78,,10,,,,,,,,,,,,,,,200.0,200.0,OVC,200.0,,,,,,
KRDR,06-01-2014,13:28,SPECI,Normal,90,5.0,,,1600.0,Mist,17.0,17.0,29.78,,10,,,,,,,,,,,,,,,200.0,200.0,OVC,200.0,,,,,,
KRDR,06-01-2014,13:23,SPECI,Normal,80,6.0,,,1200.0,Mist,17.0,17.0,29.78,,10,,,,,,,,,,,,,,,200.0,200.0,OVC,200.0,,,,,,
KRDR,06-01-2014,13:18,SPECI,Normal,90,5.0,,,1200.0,Mist,17.0,17.0,29.79,,10,,,,,,,,,,,,,,,200.0,200.0,OVC,200.0,,,,,,
KRDR,06-01-2014,13:13,SPECI,Normal,90,6.0,,,1600.0,Mist,17.0,17.0,29.79,,10,,,,,,,,,,,,,,,200.0,200.0,OVC,200.0,,,,,,
KRDR,06-01-2014,12:58,METAR,Normal,90,5.0,,,2400.0,Mist,16.1,16.1,29.80,1009.5,10,,,,,,,,,,,,,,,200.0,200.0,OVC,200.0,,,,,,
KRDR,06-01-2014,12:53,SPECI,Normal,90,6.0,,,2800.0,Mist,16.0,16.0,29.80,,10,,,,,,,,,,,,,,,200.0,200.0,OVC,200.0,,,,,,
KRDR,06-01-2014,12:18,SPECI,Normal,60,3.0,,,4800.0,Mist,16.0,16.0,29.81,,10,,,,,,,,,,,,,,,200.0,200.0,OVC,200.0,,,,,,
KRDR,06-01-2014,12:13,SPECI,Normal,60,2.0,,,2800.0,Mist,16.0,16.0,29.81,,10,,,,,,,,,,,,,,,200.0,200.0,OVC,200.0,,,,,,
KRDR,06-01-2014,12:08,SPECI,Normal,40,3.0,,,1600.0,Mist,16.0,16.0,29.81,,10,,,,,,,,,,,,,,Sky Obscured (Unable to Estimate),100.0,100.0,,100.0,,,,,,
KRDR,06-01-2014,12:03,SPECI,Normal,30,5.0,,,1200.0,Mist,16.0,16.0,29.80,,10,,,,,,,,,,,,,,Sky Obscured (Unable to Estimate),100.0,100.0,,100.0,,,,,,
KRDR,06-01-2014,11:58,METAR,Normal,20,6.0,,,800.0,Fog,15.4,15.4,29.81,1009.9,30,,,,,,,,,,,,.01 IN,.01 IN,Sky Obscured (Unable to Estimate),100.0,100.0,,100.0,,,,,,
KRDR,06-01-2014,11:53,SPECI,Normal,10,7.0,,,800.0,Fog,15.0,15.0,29.80,,30,,,,,,,,,,,,,,Sky Obscured (Unable to Estimate),100.0,100.0,,100.0,,,,,,
KRDR,06-01-2014,11:48,SPECI,Normal,20,7.0,,,400.0,Fog,15.0,15.0,29.81,,30,,,,,,,,,,,,,,Sky Obscured (Unable to Estimate),100.0,100.0,,100.0,,,,,,
KRDR,06-01-2014,10:58,METAR,Normal,360,6.0,,,400.0,Fog,15.0,15.0,29.82,1010.2,30,,,,,,,,,,,,,,Sky Obscured (Unable to Estimate),100.0,100.0,,100.0,,,,,,
KRDR,06-01-2014,09:58,METAR,Normal,360,5.0,,,400.0,Fog,15.1,15.1,29.82,1010.1,30,,,,,,,,,,.01 IN,,,,Sky Obscured (Unable to Estimate),100.0,100.0,,100.0,,,,,,
KRDR,06-01-2014,08:58,METAR,Normal,330,3.0,,,400.0,Fog,15.0,15.0,29.82,1010.1,30,,,,,,,,,,,,,,Sky Obscured (Unable to Estimate),100.0,100.0,,100.0,,,,,,
KRDR,06-01-2014,07:58,METAR,Normal,20,4.0,,,400.0,Fog,15.6,15.6,29.82,1010.1,30,,,,,,,,,,,,,,Sky Obscured (Unable to Estimate),100.0,100.0,,100.0,,,,,,
KRDR,06-01-2014,06:58,METAR,Normal,10,5.0,,,400.0,Fog,15.0,15.0,29.86,1011.5,30,,,,,,,,,,,,,,Sky Obscured (Unable to Estimate),100.0,100.0,,100.0,,,,,,
KRDR,06-01-2014,06:45,SPECI,Normal,20,5.0,,,400.0,Fog,15.0,15.0,29.86,,30,,,,,,,,,,,,,,Sky Obscured (Unable to Estimate),100.0,100.0,,100.0,,,,,,
KRDR,06-01-2014,06:33,SPECI,Normal,20,4.0,,,400.0,Fog,15.0,15.0,29.86,,30,,,,,,,,,,,,,,,,11000.0,SCT,11000.0,,,,,,
KRDR,06-01-2014,06:28,SPECI,Normal,30,5.0,,,1200.0,Mist,15.0,15.0,29.86,,10,,,,,,,,,,,,,,,,11000.0,SCT,11000.0,,,,,,
KRDR,06-01-2014,06:18,SPECI,Normal,20,6.0,,,1200.0,Mist,15.0,15.0,29.87,,10,,,,,,,,,,,,,,,11000.0,11000.0,BKN,11000.0,,,,,,
KRDR,06-01-2014,06:08,SPECI,Normal,20,5.0,,,800.0,Fog,15.0,15.0,29.87,,30,,,,,,,,,,,,,,,11000.0,11000.0,BKN,11000.0,,,,,,
KRDR,06-01-2014,06:03,SPECI,Normal,30,4.0,,,1200.0,Mist,15.0,15.0,29.87,,10,,,,,,,,,,,,,,,,11000.0,SCT,11000.0,,,,,,
KRDR,06-01-2014,05:58,METAR,Normal,30,4.0,,,3200.0,Mist,15.2,15.2,29.88,1012.2,10,,,,,,,,,,,,,,,,11000.0,SCT,11000.0,,,,,,
KRDR,06-01-2014,05:53,SPECI,Normal,30,5.0,,,6400.0,Mist,15.0,15.0,29.88,,10,,,,,,,,,,,,,,,,11000.0,SCT,11000.0,,,,,,
KRDR,06-01-2014,05:48,SPECI,Normal,40,5.0,,,9999.0,Mist,16.0,16.0,29.88,,10,,,,,,,,,,,,,,,,11000.0,SCT,11000.0,,,,,,
KRDR,06-01-2014,05:43,SPECI,Normal,30,4.0,,,3200.0,Mist,16.0,16.0,29.88,,10,,,,,,,,,,,,,,,,11000.0,SCT,11000.0,,,,,,
KRDR,06-01-2014,05:38,SPECI,Normal,40,4.0,,,1200.0,Mist,15.0,15.0,29.88,,10,,,,,,,,,,,,,,,11000.0,11000.0,BKN,11000.0,,,,,,
KRDR,06-01-2014,05:28,SPECI,Normal,30,4.0,,,800.0,Fog,16.0,16.0,29.89,,30,,,,,,,,,,,,,,,11000.0,11000.0,BKN,11000.0,,,,,,
KRDR,06-01-2014,05:13,SPECI,Normal,10,4.0,,,400.0,Fog,16.0,16.0,29.89,,30,,,,,,,,,,,,,,,11000.0,11000.0,BKN,11000.0,,,,,,
KRDR,06-01-2014,05:03,SPECI,Normal,30,3.0,,,800.0,Fog,16.0,16.0,29.89,,30,,,,,,,,,,,,,,,11000.0,11000.0,BKN,11000.0,,,,,,
KRDR,06-01-2014,04:58,METAR,Normal,20,3.0,,,1600.0,Mist,16.0,16.0,29.89,1012.5,10,,,,,,,,,,,,,,,,11000.0,SCT,11000.0,,,,,,
KRDR,06-01-2014,04:48,SPECI,Normal,20,4.0,,,3200.0,Mist,16.0,16.0,29.89,,10,,,,,,,,,,,,,,Clear,72000.0,,,,,,,,,
KRDR,06-01-2014,04:43,SPECI,Normal,10,4.0,,,2400.0,Mist,16.0,16.0,29.89,,10,,,,,,,,,,,,,,Clear,72000.0,,,,,,,,,
KRDR,06-01-2014,04:38,SPECI,Normal,360,4.0,,,2000.0,Mist,16.0,16.0,29.89,,10,,,,,,,,,,,,,,Clear,72000.0,,,,,,,,,
KRDR,06-01-2014,04:33,SPECI,Normal,360,4.0,,,1600.0,Mist,16.0,16.0,29.89,,10,,,,,,,,,,,,,,Clear,72000.0,,,,,,,,,
KRDR,06-01-2014,04:28,SPECI,Normal,350,4.0,,,1600.0,Mist,16.0,16.0,29.89,,10,,,,,,,,,,,,,,Clear,72000.0,,,,,,,,,
KRDR,06-01-2014,04:23,SPECI,Normal,360,4.0,,,1200.0,Mist,16.0,16.0,29.88,,10,,,,,,,,,,,,,,Clear,72000.0,,,,,,,,,
KRDR,06-01-2014,04:18,SPECI,Normal,360,4.0,,,1200.0,Mist,16.0,16.0,29.88,,10,,,,,,,,,,,,,,Clear,72000.0,,,,,,,,,
KRDR,06-01-2014,04:13,SPECI,Normal,10,4.0,,,2000.0,Mist,16.0,16.0,29.88,,10,,,,,,,,,,,,,,Clear,72000.0,,,,,,,,,
KRDR,06-01-2014,04:03,SPECI,Normal,10,4.0,,,6400.0,Mist,16.0,16.0,29.88,,10,,,,,,,,,,,,,,Clear,72000.0,,,,,,,,,
KRDR,06-01-2014,03:58,METAR,Normal,10,5.0,,,9999.0,,16.5,16.5,29.88,1012.2,,,,,,,,,,,,,,,Clear,72000.0,,,,,,,,,
KRDR,06-01-2014,03:33,SPECI,Normal,60,4.0,,,9999.0,,16.0,16.0,29.88,,,,,,,,,,,,,,,,Clear,72000.0,,,,,,,,,
KRDR,06-01-2014,03:28,SPECI,Normal,50,4.0,,,9999.0,,17.0,17.0,29.88,,,,,,,,,,,,,,,,Clear,72000.0,,,,,,,,,
KRDR,06-01-2014,02:58,METAR,Normal,110,5.0,,,9999.0,,18.8,18.8,29.88,1012.2,,,,,,,,,,,,,,,,9500.0,2200.0,FEW,2200.0,BKN,9600.0,,,,
KRDR,06-01-2014,01:58,METAR,Normal,110,3.0,,,9999.0,,20.4,20.4,29.88,1012.2,,,,,,,,,,,,,,,Clear,72000.0,,,,,,,,,
KRDR,06-01-2014,00:58,METAR,Calm,,0.0,,,9999.0,,21.1,21.0,29.89,1012.5,,,,,,,,,,,,,,,Clear,72000.0,,,,,,,,,
KRDR,05-31-2014,23:58,METAR,Normal,160,3.0,,,9999.0,,20.9,20.8,29.92,1013.5,,,,,,,,,,,,,,,,,10000.0,FEW,10000.0,,,,,,
KRDR,05-31-2014,22:58,METAR,Normal,190,5.0,,,9999.0,,21.4,21.2,29.93,1013.9,,,,,,,,,,,,,,,,,2200.0,FEW,2200.0,,,,,,
KRDR,05-31-2014,22:28,SPECI,Normal,180,8.0,,,9999.0,,22.0,21.0,29.93,,,,,,,,,,,,,,,,,3800.0,2000.0,SCT,2000.0,BKN,3800.0,,,,
KRDR,05-31-2014,22:03,SPECI,Normal,190,7.0,,,9999.0,,22.0,21.0,29.93,,,,,,,,,,,,,,,,,2100.0,2100.0,BKN,2100.0,,,,,,
KRDR,05-31-2014,21:58,METAR,Normal,170,7.0,,,9999.0,,22.3,21.0,29.93,1013.8,,,,,,,,,,,,,,,,2200.0,2200.0,BKN,2200.0,,,,,,
KRDR,05-31-2014,21:53,SPECI,Normal,170,7.0,,,9999.0,,22.0,21.0,29.93,,,,,,,,,,,,,,,,,2200.0,2200.0,BKN,2200.0,,,,,,
KRDR,05-31-2014,21:48,SPECI,Normal,150,5.0,,,9999.0,,22.0,21.0,29.93,,,,,,,,,,,,,,,,,3700.0,2100.0,SCT,2100.0,BKN,3700.0,,,,
KRDR,05-31-2014,21:43,SPECI,Normal,170,5.0,,,9999.0,,22.0,21.0,29.93,,,,,,,,,,,,,,,,,2300.0,2300.0,BKN,2300.0,,,,,,
KRDR,05-31-2014,21:38,SPECI,Normal,170,6.0,,,9999.0,,23.0,21.0,29.93,,,,,,,,,,,,,,,,,,2300.0,SCT,2300.0,,,,,,
KRDR,05-31-2014,21:23,SPECI,Normal,160,5.0,,,9999.0,,23.0,21.0,29.94,,,,,,,,,,,,,,,,,2500.0,2500.0,BKN,2500.0,,,,,,
KRDR,05-31-2014,21:18,SPECI,Normal,160,6.0,,,9999.0,,23.0,21.0,29.94,,,,,,,,,,,,,,,,,,2500.0,SCT,2500.0,,,,,,
KRDR,05-31-2014,21:13,SPECI,Normal,160,6.0,,,9999.0,,23.0,20.0,29.94,,,,,,,,,,,,,,,,,2500.0,2500.0,BKN,2500.0,,,,,,
KRDR,05-31-2014,20:58,METAR,Normal,110,3.0,,,9999.0,,23.1,19.4,29.95,1014.5,,,,,,,,,,,,,,,,,2700.0,FEW,2700.0,,,,,,
KRDR,05-31-2014,19:58,METAR,Variable,,2.0,,,9999.0,,23.1,18.8,29.96,1014.8,,,,,,,,,,,,,,,,,2700.0,SCT,2700.0,,,,,,
KRDR,05-31-2014,19:53,SPECI,Normal,110,3.0,,,9999.0,,23.0,19.0,29.96,,,,,,,,,,,,,,,,,2700.0,2700.0,BKN,2700.0,,,,,,
KRDR,05-31-2014,18:58,METAR,Normal,120,5.0,,,9999.0,,23.2,19.5,29.98,1015.5,,,,,,,,,,,,,,,Clear,72000.0,,,,,,,,,
KRDR,05-31-2014,17:58,METAR,Normal,120,5.0,,,9999.0,,22.4,18.9,30.00,1016.2,,,,,,,,,,,,,,,,,10000.0,FEW,10000.0,,,,,,
KRDR,05-31-2014,16:58,METAR,Normal,60,4.0,,,9999.0,,21.2,20.2,30.00,1016.2,,,,,,,,,,,,,,,,10000.0,10000.0,BKN,10000.0,,,,,,
KRDR,05-31-2014,15:58,METAR,Normal,50,4.0,,,9999.0,,20.3,20.2,30.02,1017.0,,,,,,,,,,,,,,,,10000.0,10000.0,OVC,10000.0,,,,,,
KRDR,05-31-2014,14:58,METAR,Normal,10,6.0,,,9999.0,,19.3,19.3,30.03,1017.3,,,,,,,,,,,,,,,,,10000.0,SCT,10000.0,,,,,,
KRDR,05-31-2014,13:58,METAR,Normal,50,3.0,,,9999.0,,18.3,18.3,30.02,1017.0,,,,,,,,,,,,,,,,10000.0,10000.0,OVC,10000.0,,,,,,
KRDR,05-31-2014,12:58,METAR,Calm,,0.0,,,9999.0,,17.6,17.6,30.03,1017.3,,,,,,,,,,,,,,,,,8500.0,FEW,8600.0,,,,,,
KRDR,05-31-2014,11:58,METAR,Normal,350,5.0,,,6400.0,Mist,17.2,17.2,30.02,1017.0,10,,,,,,,,,,TRACE,,TRACE,.75 IN,,,11000.0,FEW,11000.0,,,,,,
KRDR,05-31-2014,11:22,SPECI,Normal,360,6.0,,,4800.0,Mist,17.0,17.0,30.02,,10,,,,,,,,,,,,,,,10000.0,11000.0,FEW,11000.0,,,,,,
KRDR,05-31-2014,11:18,SPECI,Normal,360,5.0,,,4800.0,Mist,17.0,17.0,30.02,,,10,,,,,,,,,,,,,Clear,72000.0,,,,,,,,,
KRDR,05-31-2014,11:08,SPECI,Normal,350,5.0,,,3200.0,Mist,17.0,17.0,30.02,,,10,,,,,,,,,,,,,,,12000.0,FEW,12000.0,,,,,,
KRDR,05-31-2014,10:58,METAR,Variable,,4.0,,,2800.0,Light Rain/Mist,17.0,17.0,30.02,1017.0,61,10,,,,,,,,,TRACE,,,,,,12000.0,SCT,12000.0,,,,,,
KRDR,05-31-2014,10:51,SPECI,Variable,,4.0,,,2800.0,Light Rain/Mist,17.0,17.0,30.02,,61,10,,,,,,,,,,,,,,12000.0,12000.0,BKN,12000.0,,,,,,
KRDR,05-31-2014,10:46,SPECI,Normal,350,5.0,,,3200.0,Light Rain/Mist,17.0,17.0,30.02,,61,10,,,,,,,,,,,,,,12000.0,12000.0,OVC,12000.0,,,,,,
KRDR,05-31-2014,10:33,SPECI,Normal,360,3.0,,,4000.0,Mist,17.0,17.0,30.02,,10,,,,,,,,,,,,,,,12000.0,12000.0,OVC,12000.0,,,,,,
KRDR,05-31-2014,10:23,SPECI,Normal,350,3.0,,,4800.0,Mist,17.0,17.0,30.02,,10,,,,,,,,,,,,,,,12000.0,12000.0,OVC,12000.0,,,,,,
KRDR,05-31-2014,10:18,SPECI,Normal,340,5.0,,,4800.0,Mist,17.0,17.0,30.02,,10,,,,,,,,,,,,,,,12000.0,12000.0,OVC,12000.0,,,,,,
KRDR,05-31-2014,10:08,SPECI,Normal,320,3.0,,,3200.0,Mist,17.0,17.0,30.02,,10,,,,,,,,,,,,,,,12000.0,12000.0,OVC,12000.0,,,,,,
KRDR,05-31-2014,10:03,SPECI,Normal,320,5.0,,,2400.0,Mist,17.0,17.0,30.02,,10,,,,,,,,,,,,,,,12000.0,12000.0,OVC,12000.0,,,,,,
KRDR,05-31-2014,09:58,METAR,Normal,330,6.0,,,2000.0,Mist,16.7,16.7,30.02,1017.0,10,,,,,,,,,,,,,,,12000.0,12000.0,OVC,12000.0,,,,,,
KRDR,05-31-2014,09:53,SPECI,Normal,340,1.0,,,2000.0,Mist,17.0,17.0,30.02,,10,,,,,,,,,,,,,,,12000.0,12000.0,OVC,12000.0,,,,,,
KRDR,05-31-2014,09:33,SPECI,Normal,310,3.0,,,1600.0,Mist,17.0,17.0,30.02,,10,,,,,,,,,,,,,,,12000.0,12000.0,BKN,12000.0,,,,,,
KRDR,05-31-2014,09:28,SPECI,Calm,,0.0,,,2000.0,Mist,17.0,17.0,30.02,,10,,,,,,,,,,,,,,,12000.0,12000.0,BKN,12000.0,,,,,,
KRDR,05-31-2014,09:23,SPECI,Calm,,0.0,,,2800.0,Mist,17.0,17.0,30.02,,10,,,,,,,,,,,,,,,,12000.0,SCT,12000.0,,,,,,
KRDR,05-31-2014,09:13,SPECI,Normal,180,3.0,,,4000.0,Mist,17.0,17.0,30.01,,10,,,,,,,,,,,,,,,,12000.0,FEW,12000.0,,,,,,
KRDR,05-31-2014,08:58,METAR,Calm,,0.0,,,4800.0,Mist,17.6,17.6,30.02,1017.0,10,,,,,,,,,,,,,,,,1800.0,FEW,1800.0,,,,,,
KRDR,05-31-2014,08:43,SPECI,Normal,150,2.0,,,6400.0,Mist,18.0,18.0,30.02,,10,,,,,,,,,,,,,,,,1700.0,SCT,1700.0,,,,,,
KRDR,05-31-2014,08:18,SPECI,Normal,310,3.0,,,4800.0,Mist,18.0,18.0,30.04,,10,,,,,,,,,,,,,,,1700.0,1700.0,BKN,1700.0,OVC,3000.0,,,,
KRDR,05-31-2014,07:58,METAR,Normal,320,4.0,,,4800.0,Mist,17.9,17.9,30.04,1017.6,10,,,,,,,,,,,,,,,1600.0,1700.0,FEW,1700.0,OVC,3100.0,,,,
KRDR,05-31-2014,07:06,SPECI,Normal,340,6.0,,,4800.0,Mist,18.0,18.0,30.03,,10,,,,,,,,,,,,,,,3100.0,400.0,FEW,400.0,BKN,3100.0,,,,
KRDR,05-31-2014,06:58,METAR,Normal,330,6.0,,,4800.0,Mist,17.7,17.7,30.02,1016.8,10,,,,,,,,,,,,,,,3000.0,3100.0,BKN,3100.0,BKN,11000.0,,,,
KRDR,05-31-2014,06:53,SPECI,Normal,320,8.0,,,4000.0,Mist,18.0,18.0,30.02,,10,,,,,,,,,,,,,,,3000.0,3100.0,SCT,3100.0,BKN,11000.0,,,,
KRDR,05-31-2014,06:48,SPECI,Normal,320,8.0,,,1600.0,Mist,17.0,17.0,30.02,,10,,,,,,,,,,,,,,,11000.0,3100.0,FEW,3100.0,BKN,11000.0,,,,
KRDR,05-31-2014,06:33,SPECI,Variable,,1.0,,,800.0,Fog,17.0,17.0,30.01,,30,,,,,,,,,,,,,,,11000.0,11000.0,BKN,11000.0,,,,,,
KRDR,05-31-2014,06:03,SPECI,Calm,,0.0,,,400.0,Fog,17.0,17.0,30.02,,30,,,,,,,,,,,,,,,,2900.0,FEW,2900.0,,,,,,
KRDR,05-31-2014,05:58,METAR,Calm,,0.0,,,800.0,Fog,17.4,17.4,30.02,1016.8,30,,,,,,,,,,,,.21 IN,,,,2900.0,SCT,2900.0,,,,,,
KRDR,05-31-2014,05:48,SPECI,Calm,,0.0,,,800.0,Fog,17.0,17.0,30.02,,30,,,,,,,,,,,,,,,,2900.0,SCT,2900.0,SCT,11000.0,,,,
KRDR,05-31-2014,05:43,SPECI,Calm,,0.0,,,1200.0,Mist,17.0,17.0,30.03,,10,,,,,,,,,,,,,,,,2900.0,SCT,2900.0,SCT,11000.0,,,,
KRDR,05-31-2014,05:38,SPECI,Normal,290,2.0,,,2400.0,Mist,18.0,18.0,30.03,,10,,,,,,,,,,,,,,,,11000.0,FEW,11000.0,,,,,,
KRDR,05-31-2014,05:23,SPECI,Calm,,0.0,,,4000.0,Mist,18.0,18.0,30.02,,10,,,,,,,,,,,,,,,11000.0,11000.0,BKN,11000.0,,,,,,
KRDR,05-31-2014,05:18,SPECI,Normal,310,2.0,,,4800.0,Mist,18.0,18.0,30.02,,10,,,,,,,,,,,,,,,11000.0,11000.0,BKN,11000.0,,,,,,
KRDR,05-31-2014,05:13,SPECI,Normal,300,3.0,,,4800.0,Mist,18.0,18.0,30.02,,10,,,,,,,,,,,,,,,11000.0,2700.0,FEW,2700.0,OVC,11000.0,,,,
KRDR,05-31-2014,05:08,SPECI,Normal,310,3.0,,,4800.0,Mist,18.0,18.0,30.02,,10,,,,,,,,,,,,,,,11000.0,2800.0,FEW,2800.0,OVC,11000.0,,,,
KRDR,05-31-2014,04:58,METAR,Normal,310,4.0,,,4000.0,Mist,17.9,17.9,30.02,1016.8,10,,,,,,,,,,,,,,,2800.0,2800.0,SCT,2800.0,OVC,10000.0,,,,
KRDR,05-31-2014,04:53,SPECI,Normal,320,4.0,,,4000.0,Mist,18.0,18.0,30.02,,10,,,,,,,,,,,,,,,2800.0,2800.0,SCT,2800.0,OVC,10000.0,,,,
KRDR,05-31-2014,04:48,SPECI,Normal,310,3.0,,,4000.0,Mist,18.0,18.0,30.03,,10,,,,,,,,,,,,,,,2800.0,2800.0,BKN,2800.0,OVC,11000.0,,,,
KRDR,05-31-2014,04:43,SPECI,Normal,280,3.0,,,3200.0,Mist,18.0,18.0,30.03,,10,,,,,,,,,,,,,,,11000.0,2800.0,SCT,2800.0,OVC,11000.0,,,,
KRDR,05-31-2014,04:38,SPECI,Normal,310,3.0,,,2800.0,Mist,18.0,18.0,30.03,,10,,,,,,,,,,,,,,,11000.0,2900.0,FEW,2900.0,BKN,11000.0,,,,
KRDR,05-31-2014,04:28,SPECI,Normal,330,2.0,,,4000.0,Mist,18.0,18.0,30.02,,10,,,,,,,,,,,,,,,,11000.0,SCT,11000.0,,,,,,
KRDR,05-31-2014,04:23,SPECI,Normal,290,2.0,,,4800.0,Mist,18.0,18.0,30.03,,10,,,,,,,,,,,,,,,,12000.0,SCT,12000.0,,,,,,
KRDR,05-31-2014,03:58,METAR,Variable,,1.0,,,8000.0,Mist,18.3,18.3,30.01,1016.4,10,,,,,,,,,,.01 IN,,,,,,400.0,FEW,400.0,SCT,12000.0,,,,
KRDR,05-31-2014,03:43,SPECI,Normal,100,2.0,,,6400.0,Mist,18.0,18.0,30.01,,10,,,,,,,,,,,,,,,,400.0,SCT,400.0,,,,,,
KRDR,05-31-2014,03:13,SPECI,Normal,130,7.0,,,6400.0,Mist,18.0,18.0,30.01,,10,,,,,,,,,,,,,,,300.0,300.0,OVC,300.0,,,,,,
KRDR,05-31-2014,03:08,SPECI,Normal,120,7.0,,,6400.0,Mist,18.0,18.0,30.01,,10,,,,,,,,,,,,,,,400.0,400.0,OVC,400.0,,,,,,
KRDR,05-31-2014,03:03,SPECI,Normal,120,6.0,,,8000.0,Light Drizzle/Mist,18.0,18.0,30.01,,51,10,,,,,,,,,,,,,,400.0,400.0,OVC,400.0,,,,,,
KRDR,05-31-2014,02:58,METAR,Normal,120,6.0,,,9999.0,Light Drizzle/Mist,18.4,18.4,30.01,1016.5,51,10,,,,,,,,,.02 IN,.2 IN,,,,500.0,500.0,OVC,500.0,,,,,,
KRDR,05-31-2014,02:56,SPECI,Normal,120,6.0,,,9999.0,Light Drizzle/Mist,18.0,18.0,30.01,,51,10,,,,,,,,,,,,,,500.0,500.0,OVC,500.0,,,,,,
KRDR,05-31-2014,02:55,SPECI,Normal,120,6.0,,,9999.0,Mist,18.0,18.0,30.01,,10,,,,,,,,,,,,,,,500.0,500.0,BKN,500.0,OVC,3000.0,,,,
KRDR,05-31-2014,02:54,SPECI,Normal,120,6.0,,,9999.0,Light Drizzle/Mist,18.0,18.0,30.01,,51,10,,,,,,,,,,,,,,500.0,500.0,BKN,500.0,OVC,3000.0,,,,
KRDR,05-31-2014,02:44,SPECI,Normal,120,5.0,,,9999.0,Light Rain/Mist,18.0,18.0,30.02,,61,10,,,,,,,,,,,,,,600.0,600.0,BKN,600.0,BKN,2900.0,,,,
KRDR,05-31-2014,02:39,SPECI,Normal,150,5.0,,,9999.0,Light Rain/Mist,18.0,18.0,30.03,,61,10,,,,,,,,,,,,,,700.0,700.0,BKN,700.0,BKN,2900.0,,,,
KRDR,05-31-2014,02:29,SPECI,Normal,120,4.0,,,8000.0,Light Drizzle/Mist,18.0,18.0,30.03,,51,10,,,,,,,,,,,,,,700.0,800.0,SCT,800.0,BKN,2900.0,,,,
KRDR,05-31-2014,02:19,SPECI,Normal,360,4.0,,,6400.0,Light Rain/Mist,18.0,18.0,30.03,,61,10,,,,,,,,,,,,,,700.0,700.0,BKN,700.0,BKN,2800.0,BKN,4900.0,,
KRDR,05-31-2014,02:04,SPECI,Normal,360,3.0,,,6400.0,Light Rain/Mist,18.0,18.0,30.04,,61,10,,,,,,,,,,,,,,800.0,800.0,BKN,800.0,,,,,,
KRDR,05-31-2014,01:59,SPECI,Normal,330,3.0,,,6400.0,Light Rain/Mist,18.0,18.0,30.04,,61,10,,,,,,,,,,,,,,1400.0,500.0,FEW,500.0,BKN,1400.0,,,,
KRDR,05-31-2014,01:58,METAR,Normal,320,2.0,,,6400.0,Light Rain/Mist,18.0,18.0,30.04,1017.6,61,10,,,,,,,,,.08 IN,,,,,1700.0,1700.0,BKN,1700.0,,,,,,
KRDR,05-31-2014,01:23,SPECI,Variable,,5.0,,,6400.0,Light Rain/Mist,18.0,18.0,30.02,,61,10,,,,,,,,,,,,,,3100.0,3100.0,OVC,3100.0,,,,,,
KRDR,05-31-2014,00:58,METAR,Normal,350,8.0,,,6400.0,Light Rain/Mist,18.6,,30.02,1016.9,61,10,,,,,,,,,.1 IN,,,,,2200.0,2200.0,OVC,2200.0,,,,,,
KRDR,05-31-2014,00:49,SPECI,Normal,340,9.0,,,8000.0,Light Rain/Mist,19.0,19.0,30.02,,61,10,,,,,,,,,,,,,,2900.0,2900.0,OVC,2900.0,,,,,,
KRDR,05-31-2014,00:14,SPECI,Normal,360,5.0,,,8000.0,Light Rain/Mist,19.0,19.0,30.02,,61,10,,,,,,,,,,,,,,4700.0,4700.0,BKN,4700.0,BKN,6000.0,,,,
KRDR,05-31-2014,00:03,SPECI,Variable,,6.0,,,9999.0,Light Rain/Mist,19.0,19.0,30.02,,61,10,,,,,,,,,,,,,,2900.0,2900.0,BKN,2900.0,BKN,7000.0,,,,
KRDR,05-30-2014,23:58,METAR,Normal,340,7.0,,,4000.0,Light Rain/Mist,18.9,18.9,30.02,1017.0,61,10,,,,,,,,,.12 IN,,.54 IN,,,3400.0,3400.0,BKN,3400.0,BKN,6000.0,OVC,7500.0,,
KRDR,05-30-2014,23:53,SPECI,Normal,10,6.0,,,4000.0,Rain/Mist,19.0,19.0,30.02,,62,10,,,,,,,,,,,,,,3800.0,3800.0,BKN,3800.0,BKN,4500.0,OVC,6000.0,,
KRDR,05-30-2014,23:33,SPECI,Normal,20,10.0,,,9999.0,Light Rain,19.0,19.0,30.00,,61,,,,,,,,,,,,,,,7000.0,3200.0,SCT,3200.0,BKN,7000.0,OVC,12000.0,,
KRDR,05-30-2014,23:07,SPECI,Normal,30,9.0,,,9999.0,,19.0,19.0,29.98,,,,,,,,,,,,,,,,,12000.0,12000.0,OVC,12000.0,,,,,,
KRDR,05-30-2014,22:59,SPECI,Normal,30,11.0,,,9999.0,,19.0,19.0,29.97,,,,,,,,,,,,,,,,,11000.0,11000.0,OVC,11000.0,,,,,,
KRDR,05-30-2014,22:58,METAR,Normal,30,11.0,,,9999.0,,19.3,,29.97,1015.3,,,,,,,,,,,.02 IN,,,,,11000.0,11000.0,OVC,11000.0,,,,,,
KRDR,05-30-2014,22:44,SPECI,Normal,30,11.0,,,9999.0,,19.0,19.0,29.98,,,,,,,,,,,,,,,,,11000.0,4500.0,FEW,4500.0,OVC,11000.0,,,,
KRDR,05-30-2014,22:43,SPECI,Normal,30,11.0,,,9999.0,Thunderstorm,19.0,19.0,29.98,,,,,17,,,,,,,,,,,,11000.0,4500.0,FEW,4500.0,OVC,11000.0,,,,
KRDR,05-30-2014,22:29,SPECI,Normal,30,7.0,,,9999.0,,20.0,20.0,30.01,,,,,,,,,,,,,,,,,11000.0,4000.0,FEW,4000.0,SCT,7000.0,OVC,11000.0,,
KRDR,05-30-2014,22:05,SPECI,Normal,20,7.0,,,9999.0,Light Rain/Distant Lightning/Mist,19.0,19.0,30.01,,61,10,12,,,,,,,,,,,,,7000.0,4900.0,SCT,4900.0,BKN,7000.0,BKN,11000.0,,
KRDR,05-30-2014,22:04,SPECI,Normal,20,8.0,,,9999.0,Thunderstorm with Rain or Snow,19.0,19.0,30.01,,,,,95,,,,,,,,,,,,7000.0,4500.0,SCT,4500.0,BKN,7000.0,BKN,11000.0,,
KRDR,05-30-2014,21:58,METAR,Normal,350,4.0,,,8000.0,Light Rain/Distant Lightning/Mist,19.4,19.4,30.01,1016.6,61,10,12,,,,,,,,.13 IN,,,,,4800.0,4800.0,BKN,4800.0,BKN,6500.0,BKN,11000.0,,
KRDR,05-30-2014,20:58,METAR,Normal,360,8.0,,,8000.0,Light Rain/Mist,20.2,20.1,30.02,1016.9,61,10,,,,,,,,,.14 IN,.27 IN,,,,7000.0,7000.0,OVC,7000.0,,,,,,
KRDR,05-30-2014,20:07,SPECI,Normal,50,5.0,,,9999.0,Light Rain,21.0,20.0,30.03,,61,,,,,,,,,,,,,,,5500.0,5500.0,BKN,5500.0,OVC,8000.0,,,,
KRDR,05-30-2014,19:58,METAR,Normal,20,7.0,,,6400.0,Thunderstorm and Rain or Snow Showers/Mist,20.7,19.9,30.02,1016.8,92,10,,,,,,,,,.13 IN,,,,,3700.0,700.0,FEW,700.0,BKN,3700.0,OVC,8600.0,,
KRDR,05-30-2014,19:38,SPECI,Normal,350,7.0,,,2800.0,Light Rain/Mist,21.0,20.0,30.02,,61,10,,,,,,,,,,,,,,3600.0,500.0,FEW,500.0,BKN,3600.0,OVC,8000.0,,
KRDR,05-30-2014,19:36,SPECI,Normal,10,7.0,,,2800.0,Thunderstorm with Rain or Snow/Mist,22.0,20.0,30.02,,,,,95,10,,,,,,,,,,,3400.0,500.0,FEW,500.0,BKN,3400.0,BKN,6500.0,,
KRDR,05-30-2014,19:31,SPECI,Normal,340,4.0,,,9999.0,Light Rain,22.0,19.0,30.02,,61,,,,,,,,,,,,,,,7000.0,800.0,FEW,800.0,SCT,5500.0,BKN,7000.0,,
KRDR,05-30-2014,19:14,SPECI,Normal,360,8.0,,,9999.0,Light Rain,24.0,19.0,30.01,,61,,,,,,,,,,,,,,,10000.0,4500.0,FEW,4500.0,SCT,5500.0,BKN,10000.0,,
KRDR,05-30-2014,19:08,SPECI,Normal,350,9.0,,,9999.0,,24.0,19.0,30.01,,,,,,,,,,,,,,,,,10000.0,6000.0,SCT,6000.0,SCT,7500.0,OVC,10000.0,,
KRDR,05-30-2014,18:59,SPECI,Normal,360,10.0,,,9999.0,Light Rain,25.0,18.0,30.00,,61,,,,,,,,,,,,,,,10000.0,7500.0,FEW,7500.0,BKN,10000.0,,,,
KRDR,05-30-2014,18:58,METAR,Normal,10,9.0,,,9999.0,,25.4,17.8,30.01,1016.4,,,,,,,,,,,,,,,,,7500.0,SCT,7500.0,SCT,11000.0,,,,
KRDR,05-30-2014,17:58,METAR,Variable,,2.0,,,9999.0,,26.6,16.8,30.02,1016.7,,,,,,,,,,,,,,,Clear,12000.0,,,,,,,,,
KRDR,05-30-2014,16:58,METAR,Variable,,4.0,,,9999.0,,25.7,16.5,30.03,1017.0,,,,,,,,,,,,,,,,,11000.0,SCT,11000.0,,,,,,
KRDR,05-30-2014,15:58,METAR,Normal,50,7.0,,,9999.0,,24.8,16.6,30.02,1016.7,,,,,,,,,,,,,,,Clear,72000.0,,,,,,,,,
KRDR,05-30-2014,14:58,METAR,Normal,360,6.0,,,9999.0,,22.5,15.2,30.03,1017.0,,,,,,,,,,,,,,,Clear,72000.0,,,,,,,,,
KRDR,05-30-2014,13:58,METAR,Normal,250,5.0,,,9999.0,,21.1,13.9,30.01,1016.4,,,,,,,,,,,,,,,,,12000.0,SCT,12000.0,,,,,,
KRDR,05-30-2014,12:58,METAR,Normal,230,6.0,,,9999.0,,20.7,12.3,30.00,1015.9,,,,,,,,,,,,,,,Clear,72000.0,,,,,,,,,
KRDR,05-30-2014,11:58,METAR,Normal,170,6.0,,,9999.0,,18.0,11.9,29.98,1015.3,,,,,,,,,,,,,,,,,9000.0,SCT,9100.0,,,,,,
KRDR,05-30-2014,10:58,METAR,Normal,190,7.0,,,9999.0,,18.2,10.4,29.98,1015.3,,,,,,,,,,,,,,,Clear,72000.0,,,,,,,,,
KRDR,05-30-2014,09:58,METAR,Normal,160,12.0,,,9999.0,,19.3,10.1,29.97,1014.9,,,,,,,,,,,,,,,Clear,72000.0,,,,,,,,,
KRDR,05-30-2014,08:58,METAR,Normal,190,8.0,,,9999.0,,20.0,9.7,30.00,1015.9,,,,,,,,,,,,,,,,8500.0,8500.0,BKN,8600.0,,,,,,
KRDR,05-30-2014,07:58,METAR,Normal,160,11.0,,,9999.0,,20.0,9.4,29.99,1015.5,,,,,,,,,,,,,,,Clear,72000.0,,,,,,,,,
KRDR,05-30-2014,06:58,METAR,Normal,170,7.0,,,9999.0,,18.8,8.9,29.99,1015.6,,,,,,,,,,,,,,,Clear,72000.0,,,,,,,,,
KRDR,05-30-2014,05:58,METAR,Normal,160,9.0,,,9999.0,,20.7,8.5,29.97,1014.9,,,,,,,,,,,,,,,Clear,72000.0,,,,,,,,,
KRDR,05-30-2014,04:58,METAR,Normal,140,11.0,,,9999.0,,22.0,6.7,29.93,1013.5,,,,,,,,,,,,,,,Clear,72000.0,,,,,,,,,
KRDR,05-30-2014,03:58,METAR,Normal,160,13.0,,,9999.0,,23.5,5.8,29.93,1013.6,,,,,,,,,,,,,,,Clear,72000.0,,,,,,,,,
KRDR,05-30-2014,02:58,METAR,Normal,150,11.0,,,9999.0,,25.0,6.6,29.90,1012.5,,,,,,,,,,,,,,,Clear,72000.0,,,,,,,,,
KRDR,05-30-2014,01:58,METAR,Normal,180,10.0,,,9999.0,,25.3,8.2,29.92,1013.3,,,,,,,,,,,,,,,Clear,72000.0,,,,,,,,,
KRDR,05-30-2014,00:58,METAR,Normal,170,16.0,,,9999.0,,29.4,6.5,29.90,1012.5,,,,,,,,,,,,,,,Clear,72000.0,,,,,,,,,
KRDR,05-29-2014,23:58,METAR,Normal,180,18.0,23.0,,9999.0,,30.2,7.7,29.91,1012.9,,,,,,,,,,,,,,,Clear,72000.0,,,,,,,,,
KRDR,05-29-2014,22:58,METAR,Normal,180,18.0,26.0,,9999.0,,31.0,8.3,29.92,1013.3,,,,,,,,,,,,,,,Clear,72000.0,,,,,,,,,
KRDR,05-29-2014,21:58,METAR,Normal,180,19.0,22.0,,9999.0,,31.0,8.1,29.93,1013.6,,,,,,,,,,,,,,,Clear,72000.0,,,,,,,,,
KRDR,05-29-2014,20:58,METAR,Normal,150,18.0,26.0,,9999.0,,31.0,10.0,29.94,1014.0,,,,,,,,,,,,,,,Clear,72000.0,,,,,,,,,
KRDR,05-29-2014,19:58,METAR,Normal,180,19.0,23.0,,9999.0,,30.7,11.0,29.95,1014.2,,,,,,,,,,,,,,,Clear,72000.0,,,,,,,,,
KRDR,05-29-2014,18:58,METAR,Normal,170,19.0,26.0,,9999.0,,29.7,13.5,29.96,1014.6,,,,,,,,,,,TRACE,,,,Clear,72000.0,,,,,,,,,
KRDR,05-29-2014,17:58,METAR,Normal,180,16.0,21.0,,9999.0,,29.1,12.6,29.98,1015.3,,,,,,,,,,,,,,,Clear,72000.0,,,,,,,,,
KRDR,05-29-2014,16:58,METAR,Normal,170,17.0,22.0,,9999.0,,28.6,13.0,30.00,1015.9,,,,,,,,,,,,,,,Clear,72000.0,,,,,,,,,
KRDR,05-29-2014,15:58,METAR,Normal,180,17.0,,,9999.0,,27.2,13.6,30.01,1016.3,,,,,,,,,,,,,,,Clear,72000.0,,,,,,,,,
KRDR,05-29-2014,14:58,METAR,Normal,170,13.0,,,9999.0,,25.2,15.1,30.01,1016.3,,,,,,,,,,,,,,,Clear,72000.0,,,,,,,,,
KRDR,05-29-2014,13:58,METAR,Normal,170,12.0,,,9999.0,,22.5,14.6,30.02,1016.6,,,,,,,,,,,,,,,Clear,72000.0,,,,,,,,,
KRDR,05-29-2014,12:58,METAR,Normal,160,10.0,,,9999.0,,20.1,14.6,30.03,1017.0,,,,,,,,,,,,,,,Clear,72000.0,,,,,,,,,
KRDR,05-29-2014,11:58,METAR,Normal,150,5.0,,,9999.0,,17.5,14.0,30.04,1017.4,,,,,,,,,,,,,,,Clear,72000.0,,,,,,,,,
KRDR,05-29-2014,10:58,METAR,Normal,180,5.0,,,9999.0,,16.0,12.6,30.03,1017.1,,,,,,,,,,,,,,,Clear,72000.0,,,,,,,,,
KRDR,05-29-2014,09:58,METAR,Normal,180,5.0,,,9999.0,,16.7,13.5,30.02,1016.7,,,,,,,,,,,,,,,Clear,72000.0,,,,,,,,,
KRDR,05-29-2014,08:58,METAR,Normal,160,7.0,,,9999.0,,17.2,15.5,30.02,1016.7,,,,,,,,,,,,,,,Clear,72000.0,,,,,,,,,
KRDR,05-29-2014,07:58,METAR,Normal,140,5.0,,,9999.0,,18.3,17.7,30.03,1017.1,,,,,,,,,,,,,,,Clear,72000.0,,,,,,,,,
KRDR,05-29-2014,06:58,METAR,Normal,110,3.0,,,9999.0,,16.5,16.1,30.03,1017.1,,,,,,,,,,,,,,,Clear,72000.0,,,,,,,,,
KRDR,05-29-2014,05:58,METAR,Calm,,0.0,,,9999.0,,17.6,16.8,30.03,1017.1,,,,,,,,,,,,,,,Clear,72000.0,,,,,,,,,
KRDR,05-29-2014,04:58,METAR,Normal,130,5.0,,,9999.0,,20.7,17.0,30.00,1016.0,,,,,,,,,,,,,,,Clear,72000.0,,,,,,,,,
KRDR,05-29-2014,03:58,METAR,Normal,100,5.0,,,9999.0,,20.6,14.3,30.02,1016.7,,,,,,,,,,,,,,,Clear,72000.0,,,,,,,,,
KRDR,05-29-2014,02:58,METAR,Normal,100,6.0,,,9999.0,,23.8,11.1,30.02,1016.7,,,,,,,,,,,,,,,Clear,72000.0,,,,,,,,,
KRDR,05-29-2014,01:58,METAR,Normal,90,8.0,,,9999.0,,25.9,10.2,30.01,1016.3,,,,,,,,,,,,,,,Clear,72000.0,,,,,,,,,
KRDR,05-29-2014,00:58,METAR,Normal,50,9.0,,,9999.0,,27.4,10.6,30.01,1016.3,,,,,,,,,,,,,,,,,12000.0,FEW,12000.0,,,,,,
KRDR,05-28-2014,23:58,METAR,Normal,40,11.0,,,9999.0,,28.6,11.8,30.00,1016.0,,,,,,,,,,,,,,,,,11000.0,FEW,11000.0,,,,,,
KRDR,05-28-2014,22:58,METAR,Normal,30,9.0,,,9999.0,,28.5,13.6,30.00,1016.0,,,,,,,,,,,,,,,,,7500.0,FEW,7500.0,,,,,,
KRDR,05-28-2014,21:58,METAR,Variable,,5.0,,,9999.0,,28.5,14.4,30.01,1016.4,,,,,,,,,,,,,,,Clear,72000.0,,,,,,,,,
KRDR,05-28-2014,20:58,METAR,Variable,,2.0,,,9999.0,,29.3,13.2,30.02,1016.7,,,,,,,,,,,,,,,Clear,72000.0,,,,,,,,,
KRDR,05-28-2014,19:58,METAR,Normal,50,4.0,,,9999.0,,28.7,12.9,30.03,1017.1,,,,,,,,,,,,,,,Clear,72000.0,,,,,,,,,
KRDR,05-28-2014,18:58,METAR,Normal,30,6.0,,,9999.0,,28.1,11.5,30.05,1017.8,,,,,,,,,,,,,,,,,8500.0,FEW,8600.0,,,,,,
KRDR,05-28-2014,17:58,METAR,Normal,80,6.0,,,9999.0,,27.5,11.8,30.04,1017.4,,,,,,,,,,,,,,,Clear,72000.0,,,,,,,,,
KRDR,05-28-2014,16:58,METAR,Normal,60,6.0,,,9999.0,,26.3,14.4,30.06,1018.1,,,,,,,,,,,,,,,Clear,72000.0,,,,,,,,,
KRDR,05-28-2014,15:58,METAR,Normal,60,7.0,,,9999.0,,24.2,14.8,30.06,1018.2,,,,,,,,,,,,,,,Clear,72000.0,,,,,,,,,
KRDR,05-28-2014,14:58,METAR,Normal,30,7.0,,,9999.0,,23.1,14.4,30.05,1017.8,,,,,,,,,,,,,,,Clear,72000.0,,,,,,,,,
KRDR,05-28-2014,13:58,METAR,Normal,20,6.0,,,9999.0,,21.8,14.1,30.05,1017.7,,,,,,,,,,,,,,,,,8500.0,FEW,8600.0,,,,,,
KRDR,05-28-2014,12:58,METAR,Normal,30,8.0,,,9999.0,,20.0,14.9,30.04,1017.4,,,,,,,,,,,,,,,Clear,72000.0,,,,,,,,,
KRDR,05-28-2014,11:58,METAR,Normal,10,3.0,,,9999.0,,17.5,16.4,30.02,1016.7,,,,,,,,,,,,,,,,,12000.0,FEW,12000.0,,,,,,
KRDR,05-28-2014,10:58,METAR,Normal,360,6.0,,,9999.0,,16.3,16.2,30.01,1016.4,,,,,,,,,,,,,,,,,10000.0,SCT,10000.0,,,,,,
KRDR,05-28-2014,09:58,METAR,Normal,40,2.0,,,9999.0,,16.9,16.7,30.00,1016.0,,,,,,,,,,,,,,,,9500.0,9500.0,BKN,9600.0,,,,,,
KRDR,05-28-2014,08:58,METAR,Normal,360,4.0,,,9999.0,,17.0,16.8,29.97,1015.0,,,,,,,,,,,,,,,,10000.0,10000.0,BKN,10000.0,,,,,,
KRDR,05-28-2014,07:58,METAR,Normal,320,4.0,,,9999.0,,16.7,16.6,29.96,1014.7,,,,,,,,,,,,,,,,12000.0,10000.0,SCT,10000.0,OVC,12000.0,,,,
KRDR,05-28-2014,06:58,METAR,Normal,310,4.0,,,9999.0,,16.2,16.0,29.95,1014.4,,,,,,,,,,,,,,,Clear,72000.0,,,,,,,,,
KRDR,05-28-2014,05:58,METAR,Normal,350,4.0,,,9999.0,,17.7,15.3,29.95,1014.3,,,,,,,,,,,,,,,Clear,72000.0,,,,,,,,,
KRDR,05-28-2014,04:58,METAR,Normal,320,5.0,,,9999.0,,20.2,15.8,29.95,1014.3,,,,,,,,,,,,,,,Clear,72000.0,,,,,,,,,
KRDR,05-28-2014,03:58,METAR,Normal,270,5.0,,,9999.0,,18.6,17.9,29.94,1014.1,,,,,,,,,,,,,,,Clear,72000.0,,,,,,,,,
KRDR,05-28-2014,02:58,METAR,Normal,230,4.0,,,9999.0,,20.8,16.8,29.93,1013.8,,,,,,,,,,,,,,,,,7500.0,FEW,7500.0,,,,,,
KRDR,05-28-2014,01:58,METAR,Normal,170,3.0,,,9999.0,,26.1,15.2,29.92,1013.3,,,,,,,,,,,,,,,Clear,72000.0,,,,,,,,,
KRDR,05-28-2014,00:58,METAR,Normal,190,4.0,,,9999.0,,25.7,16.5,29.91,1013.1,,,,,,,,,,,,,,,Clear,72000.0,,,,,,,,,
KRDR,05-27-2014,23:58,METAR,Normal,150,5.0,,,9999.0,,28.2,15.3,29.89,1012.4,,,,,,,,,,,,,,,Clear,72000.0,,,,,,,,,
KRDR,05-27-2014,22:58,METAR,Normal,120,6.0,,,9999.0,,28.6,15.1,29.90,1012.8,,,,,,,,,,,,,,,Clear,72000.0,,,,,,,,,
KRDR,05-27-2014,21:58,METAR,Normal,350,3.0,,,9999.0,,29.4,13.7,29.91,1013.1,,,,,,,,,,,,,,,,,7000.0,FEW,7000.0,,,,,,
KRDR,05-27-2014,20:58,METAR,Calm,,0.0,,,9999.0,,28.7,14.5,29.92,1013.4,,,,,,,,,,,,,,,Clear,72000.0,,,,,,,,,
KRDR,05-27-2014,19:58,METAR,Variable,,3.0,,,9999.0,,28.1,13.7,29.93,1013.8,,,,,,,,,,,,,,,Clear,72000.0,,,,,,,,,
KRDR,05-27-2014,18:58,METAR,Normal,150,3.0,,,9999.0,,27.8,14.1,29.94,1014.1,,,,,,,,,,,,,,,Clear,72000.0,,,,,,,,,
KRDR,05-27-2014,17:58,METAR,Variable,,2.0,,,9999.0,,27.4,13.8,29.95,1014.5,,,,,,,,,,,,,,,Clear,72000.0,,,,,,,,,
KRDR,05-27-2014,16:58,METAR,Normal,120,3.0,,,9999.0,,25.6,13.8,29.95,1014.5,,,,,,,,,,,,,,,,,8500.0,FEW,8600.0,,,,,,
KRDR,05-27-2014,15:58,METAR,Variable,,1.0,,,9999.0,,23.4,14.0,29.95,1014.6,,,,,,,,,,,,,,,Clear,72000.0,,,,,,,,,
KRDR,05-27-2014,14:58,METAR,Variable,,1.0,,,9999.0,,21.4,14.6,29.95,1014.6,,,,,,,,,,,,,,,Clear,72000.0,,,,,,,,,
KRDR,05-27-2014,13:58,METAR,Normal,80,3.0,,,9999.0,,18.4,13.5,29.95,1014.6,,,,,,,,,,,,,,,Clear,72000.0,,,,,,,,,
KRDR,05-27-2014,12:58,METAR,Normal,20,4.0,,,9999.0,,16.2,14.4,29.94,1014.2,,,,,,,,,,,,,,,Clear,72000.0,,,,,,,,,
KRDR,05-27-2014,11:58,METAR,Normal,300,2.0,,,9999.0,,13.0,13.0,29.93,1013.9,,,,,,,,,,,,,,,Clear,72000.0,,,,,,,,,
KRDR,05-27-2014,10:58,METAR,Normal,330,1.0,,,9999.0,,11.2,11.2,29.92,1013.7,,,,,,,,,,,,,,,Clear,72000.0,,,,,,,,,
KRDR,05-27-2014,09:58,METAR,Normal,340,3.0,,,9999.0,,12.1,12.1,29.93,1013.9,,,,,,,,,,,,,,,Clear,72000.0,,,,,,,,,
KRDR,05-27-2014,08:58,METAR,Normal,360,2.0,,,9999.0,,12.0,11.9,29.94,1014.4,,,,,,,,,,,,,,,Clear,72000.0,,,,,,,,,
KRDR,05-27-2014,07:58,METAR,Normal,300,2.0,,,9999.0,,11.7,11.5,29.94,1014.4,,,,,,,,,,,,,,,Clear,72000.0,,,,,,,,,
KRDR,05-27-2014,06:58,METAR,Normal,10,3.0,,,9999.0,,12.6,12.4,29.94,1014.4,,,,,,,,,,,,,,,Clear,72000.0,,,,,,,,,
KRDR,05-27-2014,05:58,METAR,Normal,340,3.0,,,9999.0,,13.1,13.0,29.95,1014.8,,,,,,,,,,,,,,,Clear,72000.0,,,,,,,,,
KRDR,05-27-2014,04:58,METAR,Normal,20,3.0,,,9999.0,,13.2,12.9,29.94,1014.5,,,,,,,,,,,,,,,Clear,72000.0,,,,,,,,,
KRDR,05-27-2014,03:58,METAR,Normal,50,4.0,,,9999.0,,14.6,13.3,29.94,1014.4,,,,,,,,,,,,,,,Clear,72000.0,,,,,,,,,
KRDR,05-27-2014,02:58,METAR,Normal,20,5.0,,,9999.0,,16.2,13.7,29.94,1014.4,,,,,,,,,,,,,,,Clear,72000.0,,,,,,,,,
KRDR,05-27-2014,01:58,METAR,Normal,10,5.0,,,9999.0,,19.2,12.7,29.93,1014.0,,,,,,,,,,,,,,,Clear,72000.0,,,,,,,,,
KRDR,05-27-2014,00:58,METAR,Normal,90,4.0,,,9999.0,,22.6,11.4,29.93,1013.9,,,,,,,,,,,,,,,Clear,72000.0,,,,,,,,,
KRDR,05-26-2014,23:58,METAR,Normal,40,7.0,,,9999.0,,22.9,14.4,29.92,1013.6,,,,,,,,,,,,,,,Clear,72000.0,,,,,,,,,
KRDR,05-26-2014,22:58,METAR,Normal,40,7.0,,,9999.0,,23.0,15.1,29.93,1014.0,,,,,,,,,,,,,,,Clear,72000.0,,,,,,,,,
KRDR,05-26-2014,21:58,METAR,Normal,10,7.0,,,9999.0,,22.4,14.8,29.94,1014.4,,,,,,,,,,,,,,,Clear,72000.0,,,,,,,,,
KRDR,05-26-2014,20:58,METAR,Normal,20,7.0,,,9999.0,,21.7,14.7,29.94,1014.4,,,,,,,,,,,,,,,Clear,72000.0,,,,,,,,,
KRDR,05-26-2014,19:58,METAR,Normal,40,7.0,,,9999.0,,20.5,14.1,29.96,1015.0,,,,,,,,,,,,,,,Clear,72000.0,,,,,,,,,
KRDR,05-26-2014,18:58,METAR,Variable,,4.0,,,9999.0,,18.7,14.7,29.98,1015.7,,,,,,,,,,,,,,,Clear,72000.0,,,,,,,,,
KRDR,05-26-2014,17:58,METAR,Normal,80,7.0,,,9999.0,,17.6,13.8,30.00,1016.4,,,,,,,,,,,,,,,Clear,72000.0,,,,,,,,,
KRDR,05-26-2014,16:58,METAR,Normal,60,11.0,,,9999.0,,16.9,13.7,30.01,1016.8,,,,,,,,,,,,,,,Clear,72000.0,,,,,,,,,
KRDR,05-26-2014,15:58,METAR,Normal,30,13.0,,,9999.0,,16.4,13.4,30.00,1016.5,,,,,,,,,,,,,,,Clear,72000.0,,,,,,,,,
KRDR,05-26-2014,15:28,SPECI,Normal,40,14.0,,,9999.0,,16.0,13.0,30.00,,,,,,,,,,,,,,,,,,1100.0,SCT,1100.0,,,,,,
KRDR,05-26-2014,14:58,METAR,Normal,50,10.0,,,9999.0,,14.8,13.8,30.00,1016.4,,,,,,,,,,,,,,,,1000.0,1000.0,BKN,1000.0,,,,,,
KRDR,05-26-2014,14:43,SPECI,Normal,40,9.0,,,9999.0,,15.0,13.0,30.01,,,,,,,,,,,,,,,,,1000.0,1000.0,BKN,1000.0,,,,,,
KRDR,05-26-2014,13:58,METAR,Normal,40,9.0,,,9999.0,,13.9,13.6,29.99,1016.1,,,,,,,,,,,,,,,,800.0,800.0,BKN,800.0,,,,,,
KRDR,05-26-2014,12:58,METAR,Normal,30,9.0,,,9999.0,,12.2,12.1,29.99,1016.1,,,,,,,,,,,,,,,,700.0,700.0,OVC,700.0,,,,,,
KRDR,05-26-2014,12:13,SPECI,Normal,10,7.0,,,9999.0,,12.0,12.0,29.98,,,,,,,,,,,,,,,,,700.0,700.0,BKN,700.0,,,,,,
KRDR,05-26-2014,11:58,METAR,Normal,10,6.0,,,9999.0,,11.4,11.4,29.98,1015.8,,,,,,,,,,,,,,.37 IN,,,700.0,FEW,700.0,,,,,,
KRDR,05-26-2014,11:49,SPECI,Normal,10,7.0,,,9999.0,,11.0,11.0,29.97,,,,,,,,,,,,,,,,,,600.0,FEW,600.0,,,,,,
KRDR,05-26-2014,10:58,METAR,Normal,,,,,9999.0,,10.6,10.6,29.96,1015.1,,,,,,,,,,,,,,,Clear,72000.0,,,,,,,,,
KRDR,05-26-2014,09:58,METAR,Normal,360,8.0,,,9999.0,,11.0,,29.96,1015.2,,,,,,,,,,,,,,,Clear,72000.0,,,,,,,,,
KRDR,05-26-2014,08:58,METAR,Normal,10,7.0,,,9999.0,,12.0,12.0,29.95,1014.8,,,,,,,,,,,,,,,,,1400.0,SCT,1400.0,,,,,,
KRDR,05-26-2014,08:48,SPECI,Normal,10,7.0,,,9999.0,,12.0,12.0,29.95,,,,,,,,,,,,,,,,,,1400.0,SCT,1400.0,,,,,,
KRDR,05-26-2014,08:33,SPECI,Normal,10,8.0,,,9999.0,,13.0,13.0,29.95,,,,,,,,,,,,,,,,,,1300.0,SCT,1300.0,,,,,,
KRDR,05-26-2014,08:18,SPECI,Normal,10,9.0,,,9999.0,,13.0,13.0,29.95,,,,,,,,,,,,,,,,,1300.0,1300.0,BKN,1300.0,,,,,,
KRDR,05-26-2014,07:58,METAR,Normal,10,9.0,,,9999.0,,13.9,13.8,29.95,1014.7,,,,,,,,,,,,,,,,800.0,1000.0,OVC,1000.0,,,,,,
KRDR,05-26-2014,06:58,METAR,Normal,10,8.0,,,9999.0,,14.9,14.7,29.93,1013.7,,,,,,,,,,,,,,,,800.0,800.0,OVC,800.0,,,,,,
KRDR,05-26-2014,06:48,SPECI,Normal,10,8.0,,,9999.0,,15.0,15.0,29.93,,,,,,,,,,,,,,,,,900.0,900.0,OVC,900.0,,,,,,
KRDR,05-26-2014,06:03,SPECI,Normal,10,8.0,,,9999.0,,15.0,15.0,29.93,,,,,,,,,,,,,,,,,1000.0,1000.0,OVC,1000.0,,,,,,
KRDR,05-26-2014,05:58,METAR,Normal,10,8.0,,,9999.0,,15.5,,29.93,1013.7,,,,,,,,,,,,,.01 IN,,,900.0,900.0,OVC,900.0,,,,,,
KRDR,05-26-2014,05:03,SPECI,Normal,10,8.0,,,9999.0,,15.0,15.0,29.91,,,,,,,,,,,,,,,,,900.0,900.0,BKN,900.0,,,,,,
KRDR,05-26-2014,04:58,METAR,Normal,10,9.0,,,9999.0,,15.1,,29.91,1013.0,,,,,,,,,,,,,,,,1000.0,1000.0,BKN,1000.0,,,,,,
KRDR,05-26-2014,03:58,METAR,Normal,10,13.0,,,9999.0,,16.5,16.3,29.89,1012.4,,,,,,,,,,,,,,,,,1100.0,FEW,1100.0,,,,,,
KRDR,05-26-2014,03:35,SPECI,Normal,20,15.0,,,9999.0,,18.0,18.0,29.89,,,,,,,,,,,,,,,,,3000.0,1100.0,SCT,1100.0,SCT,1900.0,OVC,3000.0,,
KRDR,05-26-2014,03:23,SPECI,Normal,30,12.0,,,9999.0,,18.0,18.0,29.89,,,,,,,,,,,,,,,,,3000.0,3000.0,BKN,3000.0,,,,,,
KRDR,05-26-2014,03:18,SPECI,Normal,20,10.0,,,9999.0,,18.0,18.0,29.89,,,,,,,,,,,,,,,,,2800.0,2800.0,BKN,2800.0,,,,,,
KRDR,05-26-2014,03:03,SPECI,Normal,10,11.0,,,9999.0,,19.0,19.0,29.88,,,,,,,,,,,,,,,,,,3500.0,FEW,3500.0,,,,,,
KRDR,05-26-2014,02:58,METAR,Normal,10,12.0,,,9999.0,Mist,18.6,,29.87,1011.8,10,,,,,,,,,,.01 IN,.01 IN,,,Clear,72000.0,,,,,,,,,
KRDR,05-26-2014,02:53,SPECI,Normal,10,11.0,,,8000.0,Mist,18.0,18.0,29.87,,10,,,,,,,,,,,,,,Clear,72000.0,,,,,,,,,
KRDR,05-26-2014,02:43,SPECI,Normal,360,7.0,,,9999.0,Mist,18.0,18.0,29.87,,10,,,,,,,,,,,,,,Clear,72000.0,,,,,,,,,
KRDR,05-26-2014,01:58,METAR,Normal,20,4.0,,,9999.0,,19.3,19.3,29.85,1011.1,,,,,,,,,,,,,,,Clear,72000.0,,,,,,,,,
KRDR,05-26-2014,00:58,METAR,Normal,360,6.0,,,9999.0,Mist,20.6,20.6,29.81,1009.7,10,,,,,,,,,,,,,,Clear,72000.0,,,,,,,,,
KRDR,05-25-2014,23:58,METAR,Calm,,0.0,,,9999.0,Mist,20.2,20.2,29.81,1009.8,10,,,,,,,,,,,,.36 IN,,,,11000.0,SCT,11000.0,,,,,,
KRDR,05-25-2014,22:58,METAR,Normal,350,1.0,,,9999.0,,20.1,20.1,29.80,1009.5,,,,,,,,,,,TRACE,,,,,,11000.0,FEW,11000.0,,,,,,
KRDR,05-25-2014,22:39,SPECI,Normal,250,2.0,,,9999.0,,20.0,20.0,29.80,,,,,,,,,,,,,,,,Clear,72000.0,,,,,,,,,
KRDR,05-25-2014,21:58,METAR,Normal,150,2.0,,,9999.0,Light Rain,19.4,19.3,29.80,1009.5,61,,,,,,,,,,.01 IN,,,,Clear,72000.0,,,,,,,,,
KRDR,05-25-2014,21:45,SPECI,Calm,,0.0,,,9999.0,,19.0,19.0,29.81,,,,,,,,,,,,,,,,,,6000.0,FEW,6000.0,,,,,,
KRDR,05-25-2014,21:43,SPECI,Calm,,0.0,,,9999.0,,19.0,19.0,29.81,,,,,,,,,,,,,,,,,,6000.0,FEW,6000.0,,,,,,
KRDR,05-25-2014,21:28,SPECI,Normal,160,4.0,,,9999.0,Light Rain,19.0,19.0,29.81,,61,,,,,,,,,,,,,,,7000.0,6000.0,SCT,6000.0,BKN,7000.0,,,,
KRDR,05-25-2014,21:02,SPECI,Normal,120,8.0,,,9999.0,,19.0,19.0,29.80,,,,,,,,,,,,,,,,,11000.0,6000.0,FEW,6000.0,SCT,8600.0,BKN,11000.0,,
KRDR,05-25-2014,20:58,METAR,Normal,130,8.0,,,9999.0,,18.9,18.9,29.81,1009.8,,,,,,,,,,,.18 IN,.35 IN,,,,11000.0,6000.0,FEW,6000.0,SCT,9100.0,BKN,11000.0,,
KRDR,05-25-2014,20:32,SPECI,Normal,60,5.0,,,9999.0,Light Rain/Distant Lightning,19.0,19.0,29.80,,61,12,,,,,,,,,,,,,,,4500.0,SCT,4500.0,SCT,11000.0,,,,
KRDR,05-25-2014,20:17,SPECI,Normal,30,5.0,,,9999.0,Thunderstorm and Rain or Snow Showers,19.0,19.0,29.80,,92,,,,,,,,,,,,,,,4300.0,4300.0,BKN,4300.0,,,,,,
KRDR,05-25-2014,20:15,SPECI,Normal,20,5.0,,,9999.0,Light Rain/Distant Lightning/Mist,19.0,19.0,29.80,,61,10,12,,,,,,,,,,,,,4300.0,4300.0,BKN,4300.0,,,,,,
KRDR,05-25-2014,20:13,SPECI,Normal,360,5.0,,,6400.0,Thunderstorm and Rain or Snow Showers/Mist,19.0,19.0,29.81,,92,10,,,,,,,,,,,,,,4200.0,4200.0,OVC,4200.0,,,,,,
KRDR,05-25-2014,20:08,SPECI,Normal,350,6.0,,,3200.0,Thunderstorm and Rain or Snow Showers/Mist,19.0,19.0,29.81,,92,10,,,,,,,,,,,,,,4000.0,4000.0,OVC,4000.0,,,,,,
KRDR,05-25-2014,20:03,SPECI,Normal,330,6.0,22.0,,1600.0,Heavy Thunderstorm and Rain or Snow Showers/Mist,19.0,19.0,29.81,,95,10,,,,,,,,,,,,,,3300.0,3300.0,BKN,3300.0,OVC,6000.0,,,,
KRDR,05-25-2014,19:58,METAR,Normal,330,13.0,22.0,,2000.0,Heavy Thunderstorm and Rain or Snow Showers/Mist,19.3,19.1,29.81,1009.8,95,10,,,,,,,,,.17 IN,,,,,2600.0,3000.0,BKN,3000.0,OVC,6000.0,,,,
KRDR,05-25-2014,19:53,SPECI,Normal,320,15.0,22.0,,3200.0,Thunderstorm and Rain or Snow Showers/Mist,19.0,19.0,29.81,,92,10,,,,,,,,,,,,,,6000.0,3100.0,SCT,3100.0,SCT,3900.0,OVC,6000.0,,
KRDR,05-25-2014,19:43,SPECI,Normal,330,12.0,,,9999.0,Thunderstorm and Rain or Snow Showers,21.0,18.0,29.81,,92,,,,,,,,,,,,,,,6000.0,2300.0,FEW,2300.0,BKN,6000.0,OVC,8600.0,,
KRDR,05-25-2014,19:39,SPECI,Normal,340,12.0,17.0,,9999.0,Dry Thunderstorm,21.0,17.0,29.80,,91,,,,,,,,,,,,,,,6000.0,6000.0,BKN,6000.0,BKN,8600.0,,,,
KRDR,05-25-2014,19:09,SPECI,Normal,230,17.0,21.0,,9999.0,,28.0,15.0,29.77,,,,,,,,,,,,,,,,,8000.0,6000.0,FEW,6000.0,BKN,8000.0,,,,
KRDR,05-25-2014,19:00,SPECI,Normal,220,16.0,23.0,,9999.0,,28.0,15.0,29.77,,,,,,,,,,,,,,,,,,6500.0,SCT,6500.0,SCT,8000.0,,,,
KRDR,05-25-2014,18:58,METAR,Normal,230,15.0,26.0,230/26KTS,9999.0,,28.3,15.1,29.77,1008.2,,,,,,,,,,,,,,,,,6000.0,FEW,6000.0,SCT,7500.0,,,,
KRDR,05-25-2014,17:58,METAR,Normal,230,20.0,24.0,210/26KTS,9999.0,,28.0,15.1,29.79,1008.8,,,,,,,,,,,,,,,,,6000.0,FEW,6000.0,SCT,9600.0,,,,
KRDR,05-25-2014,16:58,METAR,Normal,210,20.0,27.0,180/27KTS,9999.0,,27.5,14.7,29.80,1009.2,,,,,,,,,,,,,,,,,6500.0,FEW,6500.0,,,,,,
KRDR,05-25-2014,15:58,METAR,Normal,200,10.0,,,9999.0,,24.6,14.1,29.82,1009.9,,,,,,,,,,,,,,,Clear,72000.0,,,,,,,,,
KRDR,05-25-2014,14:58,METAR,Normal,120,2.0,,,9999.0,,20.7,11.4,29.85,1010.9,,,,,,,,,,,,,,,,8000.0,8000.0,BKN,8000.0,,,,,,
KRDR,05-25-2014,13:58,METAR,Normal,350,4.0,,,9999.0,,21.2,11.2,29.87,1011.6,,,,,,,,,,,,,,,,7500.0,7500.0,BKN,7500.0,,,,,,
KRDR,05-25-2014,12:58,METAR,Normal,190,11.0,,,9999.0,,18.7,9.6,29.85,1010.9,,,,,,,,,,,,,,,,,11000.0,SCT,11000.0,,,,,,
KRDR,05-25-2014,11:58,METAR,Normal,170,9.0,,,9999.0,,16.8,10.4,29.85,1010.9,,,,,,,,,,,,,,,,,11000.0,FEW,11000.0,,,,,,
KRDR,05-25-2014,10:58,METAR,Normal,170,8.0,,,9999.0,,16.3,10.7,29.86,1011.2,,,,,,,,,,,,,,,Clear,72000.0,,,,,,,,,
KRDR,05-25-2014,09:58,METAR,Normal,170,9.0,,,9999.0,,17.4,10.9,29.86,1011.2,,,,,,,,,,,,,,,Clear,72000.0,,,,,,,,,
KRDR,05-25-2014,08:58,METAR,Normal,210,10.0,,,9999.0,,18.7,10.9,29.86,1011.1,,,,,,,,,,,,,,,Clear,72000.0,,,,,,,,,
KRDR,05-25-2014,07:58,METAR,Normal,200,9.0,,,9999.0,,18.5,11.6,29.87,1011.5,,,,,,,,,,,,,,,Clear,72000.0,,,,,,,,,
KRDR,05-25-2014,06:58,METAR,Normal,200,8.0,,,9999.0,,20.5,11.8,29.89,1012.1,,,,,,,,,,,,,,,Clear,72000.0,,,,,,,,,
KRDR,05-25-2014,05:58,METAR,Normal,200,8.0,,,9999.0,,19.6,13.3,29.89,1012.1,,,,,,,,,,,,,,,Clear,72000.0,,,,,,,,,
KRDR,05-25-2014,04:58,METAR,Normal,200,7.0,,,9999.0,,20.4,13.7,29.89,1012.2,,,,,,,,,,,,,,,Clear,72000.0,,,,,,,,,
KRDR,05-25-2014,04:18,SPECI,Normal,180,7.0,,,9999.0,,20.0,14.0,29.88,,,,,,,,,,,,,,,,Clear,72000.0,,,,,,,,,
KRDR,05-25-2014,04:08,SPECI,Normal,190,6.0,,,9999.0,,20.0,14.0,29.88,,,,,,,,,,,,,,,,Clear,72000.0,,,,,,,,,
KRDR,05-25-2014,03:58,METAR,Normal,190,6.0,,,9999.0,,20.6,13.9,29.89,1012.2,,,,,,,,,,,,,,,Clear,72000.0,,,,,,,,,
KRDR,05-25-2014,02:58,METAR,Normal,220,6.0,,,9999.0,,24.2,13.5,29.88,1011.9,,,,,,,,,,,,,,,Clear,72000.0,,,,,,,,,
KRDR,05-25-2014,01:58,METAR,Normal,220,9.0,,,9999.0,,27.3,13.7,29.86,1011.2,,,,,,,,,,,,,,,Clear,72000.0,,,,,,,,,
KRDR,05-25-2014,00:58,METAR,Normal,220,13.0,,,9999.0,,29.4,13.2,29.85,1010.9,,,,,,,,,,,,,,,Clear,72000.0,,,,,,,,,
KRDR,05-24-2014,23:58,METAR,Normal,210,14.0,,,9999.0,,30.3,13.5,29.84,1010.5,,,,,,,,,,,,,,,,8500.0,8500.0,BKN,8600.0,,,,,,
KRDR,05-24-2014,23:33,SPECI,Normal,210,14.0,22.0,,9999.0,,31.0,13.0,29.84,,,,,,,,,,,,,,,,,,8000.0,SCT,8000.0,,,,,,
KRDR,05-24-2014,22:58,METAR,Normal,250,17.0,25.0,,9999.0,,31.5,12.3,29.85,1010.9,,,,,,,,,,,,,,,,,8000.0,FEW,8000.0,,,,,,
KRDR,05-24-2014,21:58,METAR,Normal,240,14.0,25.0,,9999.0,,31.6,12.5,29.87,1011.6,,,,,,,,,,,,,,,Clear,72000.0,,,,,,,,,
KRDR,05-24-2014,20:58,METAR,Normal,230,18.0,24.0,230/26KTS,9999.0,,31.5,12.2,29.89,1012.2,,,,,,,,,,,,,,,,,8000.0,FEW,8000.0,,,,,,
KRDR,05-24-2014,19:58,METAR,Normal,230,18.0,29.0,,9999.0,,31.1,13.7,29.89,1012.2,,,,,,,,,,,,,,,,,7500.0,FEW,7500.0,,,,,,
KRDR,05-24-2014,18:58,METAR,Normal,230,14.0,25.0,,9999.0,,30.6,14.9,29.91,1012.9,,,,,,,,,,,,,,,Clear,72000.0,,,,,,,,,
KRDR,05-24-2014,17:58,METAR,Normal,210,17.0,23.0,,9999.0,,30.5,15.0,29.91,1012.9,,,,,,,,,,,,,,,Clear,72000.0,,,,,,,,,
KRDR,05-24-2014,16:58,METAR,Normal,240,14.0,20.0,,9999.0,,29.5,15.8,29.92,1013.3,,,,,,,,,,,,,,,Clear,72000.0,,,,,,,,,
KRDR,05-24-2014,15:58,METAR,Normal,240,14.0,19.0,,9999.0,,28.5,15.5,29.92,1013.2,,,,,,,,,,,,,,,Clear,72000.0,,,,,,,,,
KRDR,05-24-2014,14:58,METAR,Normal,240,14.0,,,9999.0,,26.1,15.7,29.93,1013.7,,,,,,,,,,,,,,,Clear,72000.0,,,,,,,,,
KRDR,05-24-2014,13:58,METAR,Normal,220,9.0,,,9999.0,,21.4,15.5,29.94,1014.1,,,,,,,,,,,,,,,Clear,72000.0,,,,,,,,,
KRDR,05-24-2014,12:58,METAR,Normal,220,11.0,,,9999.0,,19.1,14.7,29.93,1013.7,,,,,,,,,,,,,,,Clear,72000.0,,,,,,,,,
KRDR,05-24-2014,11:58,METAR,Normal,200,9.0,,,9999.0,,17.6,14.2,29.93,1013.7,,,,,,,,,,,,,,,Clear,72000.0,,,,,,,,,
KRDR,05-24-2014,10:58,METAR,Normal,190,7.0,,,9999.0,,16.1,13.7,29.92,1013.4,,,,,,,,,,,,,,,Clear,72000.0,,,,,,,,,
KRDR,05-24-2014,09:58,METAR,Normal,190,8.0,,,9999.0,,15.4,13.1,29.92,1013.4,,,,,,,,,,,,,,,Clear,72000.0,,,,,,,,,
KRDR,05-24-2014,08:58,METAR,Normal,180,8.0,,,9999.0,,16.1,12.9,29.93,1013.7,,,,,,,,,,,,,,,Clear,72000.0,,,,,,,,,
KRDR,05-24-2014,07:58,METAR,Normal,180,8.0,,,9999.0,,15.9,12.9,29.93,1013.7,,,,,,,,,,,,,,,Clear,72000.0,,,,,,,,,
KRDR,05-24-2014,06:58,METAR,Normal,170,6.0,,,9999.0,,17.3,12.4,29.93,1013.7,,,,,,,,,,,,,,,,,9000.0,FEW,9100.0,,,,,,
KRDR,05-24-2014,05:58,METAR,Normal,190,9.0,,,9999.0,,17.9,12.3,29.95,1014.4,,,,,,,,,,,,,,,,,9500.0,FEW,9600.0,,,,,,
KRDR,05-24-2014,04:58,METAR,Normal,190,10.0,,,9999.0,,18.3,11.7,29.95,1014.5,,,,,,,,,,,,,,,,,9000.0,FEW,9100.0,,,,,,
KRDR,05-24-2014,03:58,METAR,Normal,190,13.0,,,9999.0,,19.7,11.1,29.95,1014.4,,,,,,,,,,,,,,,Clear,72000.0,,,,,,,,,
KRDR,05-24-2014,02:58,METAR,Normal,180,13.0,,,9999.0,,20.0,12.0,29.94,1014.1,,,,,,,,,,,,,,,Clear,72000.0,,,,,,,,,
KRDR,05-24-2014,01:58,METAR,Normal,180,14.0,21.0,,9999.0,,21.6,11.7,29.94,1014.2,,,,,,,,,,,,,,,Clear,72000.0,,,,,,,,,
KRDR,05-24-2014,00:58,METAR,Normal,170,15.0,27.0,,9999.0,,24.2,12.1,29.94,1014.2,,,,,,,,,,,,,,,Clear,72000.0,,,,,,,,,
KRDR,05-23-2014,23:58,METAR,Normal,170,19.0,25.0,,9999.0,,26.1,12.3,29.95,1014.6,,,,,,,,,,,,,,,Clear,72000.0,,,,,,,,,
KRDR,05-23-2014,22:58,METAR,Normal,140,17.0,23.0,,9999.0,,25.9,12.5,29.97,1015.4,,,,,,,,,,,,,,,Clear,72000.0,,,,,,,,,
KRDR,05-23-2014,21:58,METAR,Normal,150,16.0,,,9999.0,,26.2,13.6,29.99,1016.0,,,,,,,,,,,,,,,,,7000.0,FEW,7000.0,,,,,,
KRDR,05-23-2014,21:57,SPECI,Normal,150,15.0,,,9999.0,,26.0,14.0,29.99,,,,,,,,,,,,,,,,,,7000.0,FEW,7000.0,,,,,,
KRDR,05-23-2014,21:42,SPECI,Normal,170,18.0,,,9999.0,Dry Thunderstorm,25.0,14.0,30.00,,91,,,,,,,,,,,,,,,,7000.0,SCT,7000.0,,,,,,
KRDR,05-23-2014,20:58,METAR,Normal,210,17.0,24.0,180/26KTS,9999.0,,27.6,11.7,30.01,1016.6,,,,,,,,,,,,,,,,,6500.0,FEW,6500.0,,,,,,
KRDR,05-23-2014,19:58,METAR,Normal,180,18.0,23.0,,9999.0,,28.0,11.1,30.02,1017.0,,,,,,,,,,,,,,,Clear,72000.0,,,,,,,,,
KRDR,05-23-2014,18:58,METAR,Normal,180,19.0,23.0,180/26KTS,9999.0,,26.9,10.1,30.04,1017.6,,,,,,,,,,,,,,,,,12000.0,FEW,12000.0,,,,,,
KRDR,05-23-2014,17:58,METAR,Normal,180,14.0,,,9999.0,,26.5,9.2,30.07,1018.7,,,,,,,,,,,,,,,,,12000.0,FEW,12000.0,,,,,,
KRDR,05-23-2014,16:58,METAR,Normal,180,16.0,,,9999.0,,24.5,8.4,30.09,1019.4,,,,,,,,,,,,,,,,,12000.0,FEW,12000.0,,,,,,
KRDR,05-23-2014,15:58,METAR,Normal,180,13.0,20.0,,9999.0,,23.6,7.4,30.10,1019.7,,,,,,,,,,,,,,,Clear,72000.0,,,,,,,,,
KRDR,05-23-2014,14:58,METAR,Normal,190,13.0,,,9999.0,,21.3,7.2,30.12,1020.4,,,,,,,,,,,,,,,Clear,72000.0,,,,,,,,,
KRDR,05-23-2014,13:58,METAR,Normal,200,9.0,,,9999.0,,18.0,6.6,30.13,1020.7,,,,,,,,,,,,,,,Clear,72000.0,,,,,,,,,
KRDR,05-23-2014,12:58,METAR,Normal,180,9.0,,,9999.0,,12.7,6.7,30.14,1021.2,,,,,,,,,,,,,,,,,10000.0,FEW,10000.0,,,,,,
KRDR,05-23-2014,11:58,METAR,Normal,170,5.0,,,9999.0,,10.6,6.6,30.14,1021.2,,,,,,,,,,,,,,,,8000.0,8000.0,FEW,8000.0,OVC,10000.0,,,,
KRDR,05-23-2014,10:58,METAR,Normal,150,5.0,,,9999.0,,8.3,5.2,30.14,1021.3,,,,,,,,,,,,,,,Clear,72000.0,,,,,,,,,
KRDR,05-23-2014,10:53,SPECI,Normal,160,5.0,,,9999.0,,8.0,5.0,30.14,,,,,,,,,,,,,,,,Clear,72000.0,,,,,,,,,
KRDR,05-23-2014,10:48,SPECI,Normal,150,6.0,,,4000.0,Haze Smoke or Dust,9.0,5.0,30.14,,05,,,,,,,,,,,,,,Clear,72000.0,,,,,,,,,
KRDR,05-23-2014,10:43,SPECI,Normal,140,7.0,,,2800.0,Haze Smoke or Dust,9.0,5.0,30.13,,05,,,,,,,,,,,,,,Clear,72000.0,,,,,,,,,
KRDR,05-23-2014,10:38,SPECI,Normal,140,7.0,,,4000.0,Haze Smoke or Dust,8.0,5.0,30.13,,05,,,,,,,,,,,,,,,,7500.0,FEW,7500.0,,,,,,
KRDR,05-23-2014,09:58,METAR,Normal,190,4.0,,,9999.0,,10.2,4.2,30.14,1021.2,,,,,,,,,,,,,,,,,11000.0,FEW,11000.0,,,,,,
KRDR,05-23-2014,08:58,METAR,Normal,200,7.0,,,9999.0,,9.8,4.8,30.14,1021.2,,,,,,,,,,,,,,,,,11000.0,SCT,11000.0,,,,,,
KRDR,05-23-2014,07:58,METAR,Normal,190,6.0,,,9999.0,,10.2,5.5,30.14,1021.3,,,,,,,,,,,,,,,Clear,72000.0,,,,,,,,,
KRDR,05-23-2014,07:48,SPECI,Normal,140,7.0,,,9999.0,,10.0,5.0,30.14,,,,,,,,,,,,,,,,Clear,72000.0,,,,,,,,,
KRDR,05-23-2014,07:18,SPECI,Normal,150,6.0,,,9999.0,,10.0,6.0,30.14,,,,,,,,,,,,,,,,Clear,72000.0,,,,,,,,,
KRDR,05-23-2014,06:58,METAR,Normal,130,6.0,,,8000.0,Haze Smoke or Dust,11.1,5.9,30.15,1021.6,05,,,,,,,,,,,,,,Clear,72000.0,,,,,,,,,
KRDR,05-23-2014,06:48,SPECI,Normal,140,5.0,,,8000.0,Haze Smoke or Dust,11.0,6.0,30.14,,05,,,,,,,,,,,,,,Clear,72000.0,,,,,,,,,
KRDR,05-23-2014,06:43,SPECI,Normal,130,5.0,,,9999.0,,10.0,5.0,30.14,,,,,,,,,,,,,,,,Clear,72000.0,,,,,,,,,
KRDR,05-23-2014,06:18,SPECI,Normal,160,5.0,,,9999.0,,11.0,6.0,30.15,,,,,,,,,,,,,,,,Clear,72000.0,,,,,,,,,
KRDR,05-23-2014,06:13,SPECI,Normal,150,5.0,,,9999.0,,11.0,6.0,30.14,,,,,,,,,,,,,,,,Clear,72000.0,,,,,,,,,
KRDR,05-23-2014,06:08,SPECI,Normal,140,6.0,,,6400.0,Haze Smoke or Dust,12.0,6.0,30.15,,05,,,,,,,,,,,,,,Clear,72000.0,,,,,,,,,
KRDR,05-23-2014,05:58,METAR,Normal,130,5.0,,,4000.0,Haze Smoke or Dust,11.5,5.7,30.14,1021.3,05,,,,,,,,,,,,,,Clear,72000.0,,,,,,,,,
KRDR,05-23-2014,05:48,SPECI,Normal,130,6.0,,,4000.0,Haze Smoke or Dust,11.0,6.0,30.15,,05,,,,,,,,,,,,,,Clear,72000.0,,,,,,,,,
KRDR,05-23-2014,05:43,SPECI,Normal,130,5.0,,,8000.0,Haze Smoke or Dust,12.0,6.0,30.15,,05,,,,,,,,,,,,,,Clear,72000.0,,,,,,,,,
KRDR,05-23-2014,05:33,SPECI,Normal,140,4.0,,,9999.0,,12.0,5.0,30.15,,,,,,,,,,,,,,,,Clear,72000.0,,,,,,,,,
KRDR,05-23-2014,04:58,METAR,Normal,190,4.0,,,9999.0,,12.6,5.7,30.15,1021.6,,,,,,,,,,,,,,,Clear,72000.0,,,,,,,,,
KRDR,05-23-2014,03:58,METAR,Normal,170,7.0,,,9999.0,,14.0,5.8,30.15,1021.6,,,,,,,,,,,,,,,Clear,72000.0,,,,,,,,,
KRDR,05-23-2014,03:08,SPECI,Normal,150,6.0,,,9999.0,,16.0,5.0,30.14,,,,,,,,,,,,,,,,Clear,72000.0,,,,,,,,,
KRDR,05-23-2014,02:58,METAR,Normal,150,5.0,,,9999.0,Haze Smoke or Dust,16.0,5.5,30.14,1021.3,05,,,,,,,,,,,,,,Clear,72000.0,,,,,,,,,
KRDR,05-23-2014,02:54,SPECI,Normal,150,5.0,,,9999.0,,16.0,6.0,30.14,,,,,,,,,,,,,,,,Clear,72000.0,,,,,,,,,
KRDR,05-23-2014,02:49,SPECI,Normal,150,6.0,,,9999.0,,17.0,6.0,30.14,,,,,,,,,,,,,,,,Clear,72000.0,,,,,,,,,
KRDR,05-23-2014,02:44,SPECI,Normal,160,6.0,,,4800.0,Haze Smoke or Dust,17.0,6.0,30.14,,05,,,,,,,,,,,,,,Clear,72000.0,,,,,,,,,
KRDR,05-23-2014,02:26,SPECI,Normal,140,5.0,,,9999.0,,18.0,6.0,30.14,,,,,,,,,,,,,,,,Clear,72000.0,,,,,,,,,
KRDR,05-23-2014,02:03,SPECI,Normal,130,5.0,,,9999.0,,19.0,6.0,30.14,,,,,,,,,,,,,,,,Clear,72000.0,,,,,,,,,
KRDR,05-23-2014,01:58,SPECI,Normal,130,5.0,,,2000.0,Haze Smoke or Dust,19.0,6.0,30.14,,05,,,,,,,,,,,,,,Clear,72000.0,,,,,,,,,
KRDR,05-23-2014,01:55,METAR,Normal,130,5.0,,,9999.0,,19.0,6.0,30.14,1021.3,,,,,,,,,,,,,,,Clear,72000.0,,,,,,,,,
KRDR,05-23-2014,01:53,SPECI,Normal,130,5.0,,,2800.0,Haze Smoke or Dust,19.0,6.0,30.14,,05,,,,,,,,,,,,,,Clear,72000.0,,,,,,,,,
KRDR,05-23-2014,01:48,SPECI,Normal,140,6.0,,,3200.0,Haze Smoke or Dust,19.0,7.0,30.14,,05,,,,,,,,,,,,,,Clear,72000.0,,,,,,,,,
KRDR,05-23-2014,00:58,METAR,Normal,130,5.0,,,9999.0,,20.9,5.3,30.14,1021.3,,,,,,,,,,,,,,,Clear,72000.0,,,,,,,,,
KRDR,05-22-2014,23:58,METAR,Calm,,0.0,,,9999.0,,21.9,3.4,30.15,1021.7,,,,,,,,,,,,,,,Clear,72000.0,,,,,,,,,
KRDR,05-22-2014,22:58,METAR,Normal,140,4.0,,,9999.0,,22.4,2.9,30.16,1022.1,,,,,,,,,,,,,,,Clear,72000.0,,,,,,,,,
KRDR,05-22-2014,21:58,METAR,Normal,90,3.0,,,9999.0,,21.5,3.9,30.17,1022.4,,,,,,,,,,,,,,,Clear,72000.0,,,,,,,,,
KRDR,05-22-2014,20:58,METAR,Variable,,5.0,,,9999.0,,21.3,3.8,30.18,1022.8,,,,,,,,,,,,,,,Clear,72000.0,,,,,,,,,
KRDR,05-22-2014,19:58,METAR,Normal,200,8.0,,,9999.0,,20.4,5.3,30.19,1023.2,,,,,,,,,,,,,,,Clear,72000.0,,,,,,,,,
KRDR,05-22-2014,18:58,METAR,Normal,180,7.0,,,9999.0,,19.1,6.8,30.20,1023.5,,,,,,,,,,,,,,,Clear,72000.0,,,,,,,,,
KRDR,05-22-2014,17:58,METAR,Normal,160,5.0,,,9999.0,,18.2,6.7,30.22,1024.2,,,,,,,,,,,,,,,Clear,72000.0,,,,,,,,,
KRDR,05-22-2014,16:58,METAR,Normal,150,6.0,,,9999.0,,16.5,7.3,30.22,1024.3,,,,,,,,,,,,,,,Clear,72000.0,,,,,,,,,
KRDR,05-22-2014,15:58,METAR,Normal,210,4.0,,,9999.0,,15.3,7.9,30.22,1024.3,,,,,,,,,,,,,,,Clear,72000.0,,,,,,,,,
KRDR,05-22-2014,14:58,METAR,Normal,120,5.0,,,9999.0,,13.6,7.8,30.23,1024.5,,,,,,,,,,,,,,,Clear,72000.0,,,,,,,,,
KRDR,05-22-2014,13:58,METAR,Normal,180,4.0,,,9999.0,,11.4,8.5,30.23,1024.6,,,,,,,,,,,,,,,Clear,72000.0,,,,,,,,,
KRDR,05-22-2014,12:58,METAR,Normal,180,2.0,,,9999.0,,8.9,8.6,30.22,1024.3,,,,,,,,,,,,,,,Clear,72000.0,,,,,,,,,
KRDR,05-22-2014,11:58,METAR,Normal,190,2.0,,,9999.0,Mist,4.9,4.9,30.21,1024.0,10,,,,,,,,,,,,,,Clear,72000.0,,,,,,,,,
KRDR,05-22-2014,10:58,METAR,Normal,250,2.0,,,6400.0,Mist,2.9,2.9,30.20,1023.7,10,,,,,,,,,,,,,,Clear,72000.0,,,,,,,,,
KRDR,05-22-2014,10:18,SPECI,Normal,230,4.0,,,9999.0,,3.0,3.0,30.21,,,,,,,,,,,,,,,,Clear,72000.0,,,,,,,,,
KRDR,05-22-2014,09:58,METAR,Normal,230,3.0,,,9999.0,,3.6,3.6,30.20,1023.7,,,,,,,,,,,,,,,Clear,72000.0,,,,,,,,,
KRDR,05-22-2014,09:13,SPECI,Normal,230,3.0,,,9999.0,,3.0,3.0,30.20,,,,,,,,,,,,,,,,Clear,72000.0,,,,,,,,,
KRDR,05-22-2014,09:08,SPECI,Normal,240,3.0,,,9999.0,,3.0,3.0,30.19,,,,,,,,,,,,,,,,Clear,72000.0,,,,,,,,,
KRDR,05-22-2014,09:03,SPECI,Normal,230,3.0,,,9999.0,,3.0,3.0,30.19,,,,,,,,,,,,,,,,Clear,72000.0,,,,,,,,,
KRDR,05-22-2014,08:58,METAR,Normal,230,2.0,,,9999.0,,3.3,3.3,30.19,1023.3,,,,,,,,,,,,,,,Clear,72000.0,,,,,,,,,
KRDR,05-22-2014,08:33,SPECI,Normal,230,2.0,,,9999.0,,4.0,4.0,30.19,,,,,,,,,,,,,,,,Clear,72000.0,,,,,,,,,
KRDR,05-22-2014,08:23,SPECI,Normal,240,2.0,,,8000.0,Mist,4.0,4.0,30.19,,10,,,,,,,,,,,,,,Clear,72000.0,,,,,,,,,
KRDR,05-22-2014,08:13,SPECI,Normal,250,3.0,,,8000.0,Mist,4.0,4.0,30.19,,10,,,,,,,,,,,,,,Clear,72000.0,,,,,,,,,
KRDR,05-22-2014,07:58,METAR,Normal,270,3.0,,,9999.0,,4.2,4.2,30.19,1023.3,,,,,,,,,,,,,,,Clear,72000.0,,,,,,,,,
KRDR,05-22-2014,07:18,SPECI,Normal,230,3.0,,,9999.0,,4.0,4.0,30.20,,,,,,,,,,,,,,,,Clear,72000.0,,,,,,,,,
KRDR,05-22-2014,06:58,METAR,Normal,220,3.0,,,9999.0,,3.7,3.6,30.20,1023.7,,,,,,,,,,,,,,,Clear,72000.0,,,,,,,,,
KRDR,05-22-2014,06:28,SPECI,Normal,220,4.0,,,9999.0,,4.0,4.0,30.20,,,,,,,,,,,,,,,,Clear,72000.0,,,,,,,,,
KRDR,05-22-2014,06:18,SPECI,Normal,230,3.0,,,9999.0,,4.0,4.0,30.20,,,,,,,,,,,,,,,,Clear,72000.0,,,,,,,,,
KRDR,05-22-2014,05:58,METAR,Normal,190,1.0,,,9999.0,,4.5,4.4,30.20,1023.7,,,,,,,,,,,,,,,Clear,72000.0,,,,,,,,,
KRDR,05-22-2014,05:43,SPECI,Normal,200,1.0,,,9999.0,Mist,4.0,4.0,30.20,,10,,,,,,,,,,,,,,Clear,72000.0,,,,,,,,,
KRDR,05-22-2014,05:33,SPECI,Calm,,0.0,,,4800.0,Mist,4.0,4.0,30.19,,10,,,,,,,,,,,,,,Clear,72000.0,,,,,,,,,
KRDR,05-22-2014,05:13,SPECI,Calm,,0.0,,,9999.0,,4.0,4.0,30.19,,,,,,,,,,,,,,,,Clear,72000.0,,,,,,,,,
KRDR,05-22-2014,04:58,METAR,Normal,60,1.0,,,9999.0,,5.4,5.2,30.18,1023.0,,,,,,,,,,,,,,,Clear,72000.0,,,,,,,,,
KRDR,05-22-2014,03:58,METAR,Normal,150,3.0,,,9999.0,,7.0,6.0,30.18,,,,,,,,,,,,,,,,Clear,72000.0,,,,,,,,,
KRDR,05-22-2014,02:58,METAR,Normal,80,5.0,,,9999.0,,9.2,7.0,30.16,,,,,,,,,,,,,,,,Clear,72000.0,,,,,,,,,
KRDR,05-22-2014,01:58,METAR,Normal,80,7.0,,,9999.0,,10.9,7.1,30.15,,,,,,,,,,,,,,,,Clear,72000.0,,,,,,,,,
KRDR,05-22-2014,00:58,METAR,Normal,40,9.0,,,9999.0,,13.0,7.5,30.15,1021.8,,,,,,,,,,,,,,,Clear,72000.0,,,,,,,,,
KRDR,05-21-2014,23:58,METAR,Normal,50,10.0,,,9999.0,,14.2,7.8,30.13,1021.1,,,,,,,,,,,,,,,Clear,72000.0,,,,,,,,,
KRDR,05-21-2014,22:58,METAR,Normal,30,9.0,,,9999.0,,14.9,8.3,30.14,1021.5,,,,,,,,,,,,,,,Clear,72000.0,,,,,,,,,
KRDR,05-21-2014,21:58,METAR,Normal,10,9.0,,,9999.0,,15.3,8.3,30.14,1021.5,,,,,,,,,,,,,,,Clear,72000.0,,,,,,,,,
KRDR,05-21-2014,20:58,METAR,Normal,30,11.0,,,9999.0,,15.6,8.4,30.13,1021.1,,,,,,,,,,,,,,,,,3300.0,SCT,3300.0,,,,,,
KRDR,05-21-2014,19:58,METAR,Normal,340,11.0,,,9999.0,,15.4,7.2,30.12,1020.8,,,,,,,,,,,,,,,,3200.0,3200.0,BKN,3200.0,,,,,,
KRDR,05-21-2014,18:58,METAR,Normal,350,9.0,,,9999.0,,14.8,6.9,30.12,1020.8,,,,,,,,,,,,,,,,3000.0,3000.0,OVC,3000.0,,,,,,
KRDR,05-21-2014,18:53,SPECI,Variable,340,10.0,,,9999.0,,15.0,7.0,30.12,,,,,,,,,,,,,,,,,3000.0,3000.0,OVC,3000.0,,,,,,
KRDR,05-21-2014,18:03,SPECI,Normal,340,13.0,19.0,,9999.0,,14.0,7.0,30.12,,,,,,,,,,,,,,,,,2900.0,2900.0,OVC,2900.0,,,,,,
KRDR,05-21-2014,17:58,METAR,Normal,340,13.0,19.0,,9999.0,,13.6,6.6,30.12,1020.8,,,,,,,,,,,,,,,,3000.0,3000.0,BKN,3000.0,,,,,,
KRDR,05-21-2014,17:48,SPECI,Normal,350,14.0,19.0,,9999.0,,14.0,7.0,30.12,,,,,,,,,,,,,,,,,3000.0,3000.0,OVC,3000.0,,,,,,
KRDR,05-21-2014,17:43,SPECI,Normal,350,15.0,19.0,,9999.0,,14.0,7.0,30.12,,,,,,,,,,,,,,,,,2900.0,2900.0,OVC,2900.0,,,,,,
KRDR,05-21-2014,17:13,SPECI,Normal,350,13.0,18.0,,9999.0,,13.0,6.0,30.12,,,,,,,,,,,,,,,,,3000.0,3000.0,OVC,3000.0,,,,,,
KRDR,05-21-2014,16:58,METAR,Normal,330,14.0,,,9999.0,,12.4,6.7,30.12,1020.8,,,,,,,,,,,,,,,,2800.0,2800.0,OVC,2800.0,,,,,,
KRDR,05-21-2014,15:58,METAR,Normal,350,11.0,16.0,,9999.0,,11.7,6.5,30.11,1020.5,,,,,,,,,,,,,,,,2300.0,2300.0,BKN,2300.0,OVC,2900.0,,,,
KRDR,05-21-2014,14:58,METAR,Normal,360,13.0,19.0,,9999.0,,11.2,6.6,30.09,1019.8,,,,,,,,,,,,,,,,2500.0,2500.0,OVC,2500.0,,,,,,
KRDR,05-21-2014,14:38,SPECI,Normal,360,11.0,20.0,,9999.0,,11.0,7.0,30.09,,,,,,,,,,,,,,,,,2500.0,2500.0,BKN,2500.0,OVC,3100.0,,,,
KRDR,05-21-2014,13:58,METAR,Normal,350,12.0,15.0,,9999.0,,10.8,7.5,30.08,1019.4,,,,,,,,,,,,,,,,3300.0,3300.0,OVC,3300.0,,,,,,
KRDR,05-21-2014,12:58,METAR,Normal,340,10.0,,,9999.0,,9.9,8.3,30.07,1019.1,,,,,,,,,,,,,,,,3200.0,3200.0,OVC,3200.0,,,,,,
KRDR,05-21-2014,11:58,METAR,Normal,350,11.0,,,9999.0,,9.2,8.6,30.04,1018.1,,,,,,,,,,,,,,,,3400.0,3400.0,OVC,3400.0,,,,,,
KRDR,05-21-2014,11:13,SPECI,Normal,340,11.0,17.0,,9999.0,,9.0,9.0,30.03,,,,,,,,,,,,,,,,,3500.0,1100.0,SCT,1100.0,OVC,3500.0,,,,
KRDR,05-21-2014,10:58,METAR,Normal,340,10.0,,,9999.0,,8.8,8.7,30.03,1017.7,,,,,,,,,,,,,,,,1000.0,1000.0,OVC,1000.0,,,,,,
KRDR,05-21-2014,10:42,SPECI,Normal,340,9.0,,,9999.0,,9.0,9.0,30.03,,,,,,,,,,,,,,,,,1000.0,1000.0,BKN,1000.0,OVC,1500.0,,,,
KRDR,05-21-2014,10:32,SPECI,Normal,330,11.0,,,9999.0,,9.0,9.0,30.02,,,,,,,,,,,,,,,,,900.0,900.0,BKN,900.0,OVC,1600.0,,,,
KRDR,05-21-2014,10:27,SPECI,Variable,340,11.0,,,9999.0,,9.0,9.0,30.02,,,,,,,,,,,,,,,,,1100.0,1100.0,BKN,1100.0,OVC,1700.0,,,,
KRDR,05-21-2014,10:23,SPECI,Normal,340,10.0,,,9999.0,,9.0,9.0,30.02,,,,,,,,,,,,,,,,,1100.0,1300.0,BKN,1300.0,OVC,1800.0,,,,
KRDR,05-21-2014,10:18,SPECI,Normal,350,10.0,,,9999.0,,9.0,9.0,30.02,,,,,,,,,,,,,,,,,1100.0,1500.0,OVC,1500.0,,,,,,
KRDR,05-21-2014,10:03,SPECI,Normal,340,11.0,,,9999.0,,9.0,9.0,30.01,,,,,,,,,,,,,,,,,1100.0,1100.0,OVC,1100.0,,,,,,
KRDR,05-21-2014,09:58,METAR,Normal,340,9.0,,,9999.0,,8.9,8.5,30.01,1017.0,,,,,,,,,,,,,,,,1200.0,1200.0,OVC,1200.0,,,,,,
KRDR,05-21-2014,09:33,SPECI,Normal,340,10.0,,,9999.0,,9.0,9.0,30.00,,,,,,,,,,,,,,,,,1200.0,1200.0,OVC,1200.0,,,,,,
KRDR,05-21-2014,08:58,METAR,Normal,330,11.0,,,9999.0,,8.9,8.2,29.99,1016.3,,,,,,,,,,,,,,,,1100.0,1100.0,OVC,1100.0,,,,,,
KRDR,05-21-2014,08:51,SPECI,Normal,340,11.0,,,9999.0,,9.0,8.0,29.99,,,,,,,,,,,,,,,,,1100.0,1100.0,OVC,1100.0,,,,,,
KRDR,05-21-2014,07:58,METAR,Normal,330,9.0,,,9999.0,,8.9,8.0,29.98,1016.0,,,,,,,,,,,,,,,,1200.0,1200.0,OVC,1200.0,,,,,,
KRDR,05-21-2014,07:03,SPECI,Normal,330,11.0,,,9999.0,,9.0,8.0,29.97,,,,,,,,,,,,,,,,,1400.0,1400.0,BKN,1400.0,BKN,2900.0,OVC,5000.0,,
KRDR,05-21-2014,06:58,METAR,Normal,330,9.0,16.0,,9999.0,,9.0,8.1,29.96,1015.3,,,,,,,,,,,,,,,,1400.0,1300.0,SCT,1300.0,BKN,3000.0,OVC,5000.0,,
KRDR,05-21-2014,06:33,SPECI,Normal,330,9.0,,,9999.0,,9.0,8.0,29.96,,,,,,,,,,,,,,,,,1500.0,1400.0,FEW,1400.0,BKN,4300.0,OVC,5000.0,,
KRDR,05-21-2014,06:28,SPECI,Normal,330,10.0,,,9999.0,,9.0,8.0,29.96,,,,,,,,,,,,,,,,,1500.0,1400.0,SCT,1400.0,BKN,2400.0,OVC,4300.0,,
KRDR,05-21-2014,06:13,SPECI,Normal,340,10.0,,,9999.0,,9.0,8.0,29.96,,,,,,,,,,,,,,,,,1400.0,1400.0,FEW,1400.0,BKN,3200.0,OVC,4400.0,,
KRDR,05-21-2014,06:08,SPECI,Normal,330,11.0,,,9999.0,,9.0,8.0,29.95,,,,,,,,,,,,,,,,,1400.0,1300.0,FEW,1300.0,BKN,2400.0,OVC,3200.0,,
KRDR,05-21-2014,05:58,METAR,Normal,330,12.0,,,9999.0,,9.3,8.0,29.96,1015.3,,,,,,,,,,,,,,,,1400.0,1300.0,FEW,1300.0,OVC,3200.0,,,,
KRDR,05-21-2014,05:13,SPECI,Normal,340,12.0,18.0,,9999.0,,10.0,8.0,29.95,,,,,,,,,,,,,,,,,3500.0,1700.0,SCT,1700.0,OVC,3500.0,,,,
KRDR,05-21-2014,04:58,METAR,Normal,330,14.0,,,9999.0,,10.0,8.5,29.94,1014.6,,,,,,,,,,,,,,,,1700.0,1700.0,OVC,1700.0,,,,,,
KRDR,05-21-2014,03:58,METAR,Normal,340,10.0,,,9999.0,,10.4,8.5,29.93,1014.3,,,,,,,,,,,,,,,,2100.0,2100.0,BKN,2100.0,OVC,3400.0,,,,
KRDR,05-21-2014,03:43,SPECI,Normal,340,12.0,,,9999.0,,11.0,9.0,29.93,,,,,,,,,,,,,,,,,2000.0,2000.0,BKN,2000.0,BKN,3500.0,OVC,6500.0,,
KRDR,05-21-2014,02:58,METAR,Normal,330,14.0,19.0,,9999.0,,11.4,8.7,29.92,1014.0,,,,,,,,,,,,,,,,6500.0,2300.0,SCT,2300.0,SCT,5500.0,OVC,6500.0,,
KRDR,05-21-2014,02:53,SPECI,Normal,340,14.0,19.0,,9999.0,,11.0,9.0,29.91,,,,,,,,,,,,,,,,,5500.0,2300.0,SCT,2300.0,BKN,5500.0,OVC,7000.0,,
KRDR,05-21-2014,01:58,METAR,Normal,330,14.0,,,9999.0,,12.3,8.8,29.89,1012.9,,,,,,,,,,,,,,,,2500.0,2500.0,OVC,2500.0,,,,,,
KRDR,05-21-2014,01:23,SPECI,Normal,330,13.0,,,9999.0,,13.0,10.0,29.88,,,,,,,,,,,,,,,,,2300.0,2300.0,BKN,2300.0,BKN,2900.0,OVC,3400.0,,
KRDR,05-21-2014,00:58,METAR,Normal,310,11.0,18.0,,9999.0,,13.3,9.7,29.87,1012.2,,,,,,,,,,,,,,,,3100.0,3100.0,BKN,3100.0,OVC,4000.0,,,,
KRDR,05-20-2014,23:58,METAR,Normal,320,14.0,21.0,290/26KTS,9999.0,,14.3,8.4,29.85,1011.5,,,,,,,,,,,,,,,,4400.0,3400.0,FEW,3400.0,OVC,4400.0,,,,
KRDR,05-20-2014,22:58,METAR,Normal,310,16.0,,,9999.0,,14.7,8.3,29.84,1011.2,,,,,,,,,,,,,,,,3300.0,3400.0,BKN,3400.0,OVC,4500.0,,,,
KRDR,05-20-2014,21:58,METAR,Normal,290,16.0,22.0,300/27KTS,9999.0,,15.4,7.2,29.84,1011.2,,,,,,,,,,,,,,,,4100.0,4100.0,BKN,4100.0,,,,,,
KRDR,05-20-2014,20:58,METAR,Normal,310,19.0,25.0,,9999.0,,16.3,7.9,29.83,1010.9,,,,,,,,,,,,,,,,4700.0,3800.0,SCT,3800.0,BKN,4700.0,,,,
KRDR,05-20-2014,19:58,METAR,Normal,300,18.0,23.0,,9999.0,,17.0,8.9,29.82,1010.5,,,,,,,,,,,,,,,,,3800.0,SCT,3800.0,,,,,,
KRDR,05-20-2014,18:58,METAR,Normal,300,17.0,19.0,,9999.0,,17.0,9.4,29.81,1010.0,,,,,,,,,,,,,,,,,3500.0,SCT,3500.0,,,,,,
KRDR,05-20-2014,17:58,METAR,Normal,280,14.0,23.0,,9999.0,,16.3,8.8,29.81,1010.0,,,,,,,,,,,,,,,,,3100.0,FEW,3100.0,,,,,,
KRDR,05-20-2014,16:58,METAR,Normal,290,12.0,22.0,,9999.0,,15.6,8.8,29.82,1010.4,,,,,,,,,,,,,,,Clear,72000.0,,,,,,,,,
KRDR,05-20-2014,15:58,METAR,Normal,280,13.0,20.0,,9999.0,,14.5,8.8,29.79,1009.4,,,,,,,,,,,,,,,Clear,72000.0,,,,,,,,,
KRDR,05-20-2014,14:58,METAR,Normal,300,18.0,23.0,,9999.0,,13.4,8.9,29.77,1008.7,,,,,,,,,,,,,,,Clear,72000.0,,,,,,,,,
KRDR,05-20-2014,13:58,METAR,Normal,280,14.0,19.0,,9999.0,,12.8,8.5,29.78,1009.1,,,,,,,,,,,,,,,Clear,72000.0,,,,,,,,,
KRDR,05-20-2014,12:58,METAR,Normal,290,10.0,,,9999.0,,11.5,8.6,29.76,1008.4,,,,,,,,,,,,,,,Clear,72000.0,,,,,,,,,
KRDR,05-20-2014,11:58,METAR,Normal,290,8.0,,,9999.0,,10.7,7.9,29.76,1008.4,,,,,,,,,,,,,,.15 IN,Clear,72000.0,,,,,,,,,
KRDR,05-20-2014,10:58,METAR,Normal,280,5.0,,,9999.0,,10.1,9.5,29.74,1007.8,,,,,,,,,,,,,,,Clear,72000.0,,,,,,,,,
KRDR,05-20-2014,09:58,METAR,Normal,280,7.0,,,9999.0,,10.5,9.6,29.73,1007.4,,,,,,,,,,,,,,,Clear,72000.0,,,,,,,,,
KRDR,05-20-2014,08:58,METAR,Normal,310,5.0,,,9999.0,,10.2,9.9,29.70,1006.4,,,,,,,,,,,,,,,Clear,72000.0,,,,,,,,,
KRDR,05-20-2014,07:58,METAR,Normal,320,5.0,,,9999.0,,11.0,10.9,29.69,1006.1,,,,,,,,,,,,,,,Clear,72000.0,,,,,,,,,
KRDR,05-20-2014,06:58,METAR,Normal,290,7.0,,,9999.0,,12.5,11.7,29.69,1006.1,,,,,,,,,,,,,,,Clear,72000.0,,,,,,,,,
KRDR,05-20-2014,05:58,METAR,Normal,280,7.0,,,9999.0,,13.2,13.1,29.68,1005.7,,,,,,,,,,,.01 IN,,.03 IN,,Clear,72000.0,,,,,,,,,
KRDR,05-20-2014,05:33,SPECI,Normal,280,5.0,,,9999.0,,12.0,12.0,29.67,,,,,,,,,,,,,,,,Clear,72000.0,,,,,,,,,
KRDR,05-20-2014,04:58,METAR,Normal,230,5.0,,,9999.0,Mist,13.5,13.5,29.66,1005.1,10,,,,,,,,,,TRACE,,,,Clear,72000.0,,,,,,,,,
KRDR,05-20-2014,04:10,SPECI,Normal,210,12.0,,,9999.0,Mist,14.0,14.0,29.65,,10,,,,,,,,,,,,,,,5000.0,800.0,SCT,800.0,SCT,1900.0,BKN,5000.0,,
KRDR,05-20-2014,04:05,SPECI,Normal,230,9.0,,,9999.0,Mist,14.0,14.0,29.66,,10,,,,,,,,,,,,,,,1900.0,700.0,SCT,700.0,BKN,1900.0,BKN,5000.0,,
KRDR,05-20-2014,04:03,SPECI,Normal,220,10.0,,,9999.0,Thunderstorm and Rain or Snow Showers/Mist,14.0,14.0,29.66,,92,10,,,,,,,,,,,,,,2500.0,700.0,SCT,700.0,BKN,2500.0,BKN,4700.0,,
KRDR,05-20-2014,03:58,METAR,Normal,210,9.0,,,6400.0,Thunderstorm and Rain or Snow Showers/Mist,14.0,14.0,29.66,1005.0,92,10,,,,,,,,,.02 IN,,,,,5500.0,700.0,FEW,700.0,SCT,2800.0,BKN,5500.0,,
KRDR,05-20-2014,03:52,SPECI,Normal,220,8.0,,,8000.0,Thunderstorm and Rain or Snow Showers/Mist,14.0,14.0,29.66,,92,10,,,,,,,,,,,,,,7500.0,500.0,FEW,500.0,SCT,5500.0,BKN,7500.0,,
KRDR,05-20-2014,03:51,SPECI,Normal,220,8.0,,,8000.0,Dry Thunderstorm/Mist,14.0,14.0,29.66,,91,10,,,,,,,,,,,,,,10000.0,900.0,FEW,900.0,SCT,6000.0,BKN,10000.0,,
KRDR,05-20-2014,03:50,SPECI,Normal,220,9.0,,,9999.0,Dry Thunderstorm/Mist,14.0,14.0,29.66,,91,10,,,,,,,,,,,,,,10000.0,4700.0,FEW,4700.0,SCT,6000.0,BKN,10000.0,,
KRDR,05-20-2014,02:58,METAR,Normal,170,8.0,,,9999.0,,14.2,,29.64,1004.3,,,,,,,,,,,,,,,,9000.0,9000.0,BKN,9100.0,,,,,,
KRDR,05-20-2014,02:33,SPECI,Normal,170,8.0,,,9999.0,,14.0,14.0,29.64,,,,,,,,,,,,,,,,Clear,72000.0,,,,,,,,,
KRDR,05-20-2014,01:58,METAR,Normal,180,7.0,,,9999.0,,14.7,14.6,29.63,1004.0,,,,,,,,,,,,,,,Clear,72000.0,,,,,,,,,
KRDR,05-20-2014,01:29,SPECI,Normal,170,8.0,,,9999.0,,15.0,15.0,29.62,,,,,,,,,,,,,,,,,,1100.0,SCT,1100.0,,,,,,
KRDR,05-20-2014,01:14,SPECI,Normal,190,10.0,,,9999.0,,16.0,16.0,29.63,,,,,,,,,,,,,,,,,1100.0,1100.0,OVC,1100.0,,,,,,
KRDR,05-20-2014,00:58,METAR,Normal,170,8.0,,,9999.0,,15.6,15.4,29.63,1004.0,,,,,,,,,,,,,,,,1200.0,1200.0,OVC,1200.0,,,,,,
KRDR,05-20-2014,00:38,SPECI,Normal,160,10.0,,,9999.0,,16.0,15.0,29.62,,,,,,,,,,,,,,,,,1400.0,1400.0,BKN,1400.0,,,,,,
KRDR,05-19-2014,23:58,METAR,Normal,150,9.0,,,9999.0,,16.6,15.8,29.62,1003.6,,,,,,,,,,,,,,,Clear,72000.0,,,,,,,,,
KRDR,05-19-2014,23:13,SPECI,Normal,130,8.0,,,9999.0,,16.0,16.0,29.62,,,,,,,,,,,,,,,,,4400.0,1500.0,FEW,1500.0,SCT,2300.0,OVC,4400.0,,
KRDR,05-19-2014,22:58,METAR,Normal,150,6.0,,,9999.0,,15.5,15.3,29.63,1004.0,,,,,,,,,,,,,,,,1600.0,1600.0,BKN,1600.0,OVC,2300.0,,,,
KRDR,05-19-2014,21:58,METAR,Normal,150,4.0,,,9999.0,,14.8,14.7,29.64,1004.3,,,,,,,,,,,,,,,,1800.0,1800.0,OVC,1800.0,,,,,,
KRDR,05-19-2014,20:58,METAR,Normal,130,9.0,,,9999.0,,14.6,14.5,29.63,1003.9,,,,,,,,,,,,,,,,1900.0,1900.0,OVC,1900.0,,,,,,
KRDR,05-19-2014,19:58,METAR,Normal,160,9.0,,,9999.0,,14.3,14.2,29.63,1003.9,,,,,,,,,,,,,,,,2000.0,2000.0,OVC,2000.0,,,,,,
KRDR,05-19-2014,18:58,METAR,Normal,140,9.0,,,9999.0,,13.3,,29.63,1004.0,,,,,,,,,,,,,,,,2000.0,2000.0,OVC,2000.0,,,,,,
KRDR,05-19-2014,17:58,METAR,Normal,150,8.0,,,9999.0,,13.0,13.0,29.65,1004.6,,,,,,,,,,,.01 IN,,.12 IN,,,600.0,600.0,SCT,600.0,OVC,1800.0,,,,
KRDR,05-19-2014,17:38,SPECI,Normal,160,9.0,,,9999.0,,13.0,13.0,29.65,,,,,,,,,,,,,,,,,600.0,800.0,SCT,800.0,BKN,1300.0,OVC,1800.0,,
KRDR,05-19-2014,17:33,SPECI,Normal,150,11.0,,,9999.0,,13.0,13.0,29.65,,,,,,,,,,,,,,,,,600.0,900.0,SCT,900.0,BKN,1800.0,OVC,3600.0,,
KRDR,05-19-2014,17:13,SPECI,Normal,160,11.0,,,9999.0,,13.0,13.0,29.65,,,,,,,,,,,,,,,,,700.0,1000.0,FEW,1000.0,BKN,2400.0,OVC,3600.0,,
KRDR,05-19-2014,17:12,SPECI,Normal,160,10.0,,,9999.0,,13.0,13.0,29.65,,,,,,,,,,,,,,,,,700.0,1300.0,SCT,1300.0,BKN,2500.0,OVC,3600.0,,
KRDR,05-19-2014,17:08,SPECI,Normal,150,9.0,,,9999.0,Light Rain,12.0,12.0,29.65,,61,,,,,,,,,,,,,,,1400.0,1400.0,SCT,1400.0,OVC,2500.0,,,,
KRDR,05-19-2014,16:58,METAR,Normal,160,10.0,,,9999.0,Light Rain,12.5,12.4,29.65,1004.6,61,,,,,,,,,,TRACE,,,,,1400.0,1400.0,BKN,1400.0,OVC,2100.0,,,,
KRDR,05-19-2014,16:55,SPECI,Normal,160,11.0,,,9999.0,Light Rain,13.0,12.0,29.65,,61,,,,,,,,,,,,,,,1400.0,1400.0,BKN,1400.0,OVC,2100.0,,,,
KRDR,05-19-2014,16:03,SPECI,Normal,170,13.0,21.0,,9999.0,,13.0,13.0,29.66,,,,,,,,,,,,,,,,,1200.0,1200.0,OVC,1200.0,,,,,,
KRDR,05-19-2014,15:58,METAR,Normal,160,12.0,,,9999.0,,13.0,12.9,29.66,1004.9,,,,,,,,,,,,,,,,1100.0,1100.0,OVC,1100.0,,,,,,
KRDR,05-19-2014,14:59,SPECI,Normal,140,11.0,,,9999.0,,13.0,13.0,29.67,,,,,,,,,,,,,,,,,1100.0,1100.0,OVC,1100.0,,,,,,
KRDR,05-19-2014,14:58,METAR,Normal,150,10.0,,,9999.0,,12.7,,29.67,1005.3,,,,,,,,,,,,.11 IN,,,,1200.0,1200.0,OVC,1200.0,,,,,,
KRDR,05-19-2014,14:38,SPECI,Normal,140,12.0,,,9999.0,,12.0,12.0,29.67,,,,,,,,,,,,,,,,,1200.0,1200.0,OVC,1200.0,,,,,,
KRDR,05-19-2014,14:13,SPECI,Normal,140,9.0,,,9999.0,,12.0,12.0,29.69,,,,,,,,,,,,,,,,,1000.0,1000.0,OVC,1000.0,,,,,,
KRDR,05-19-2014,13:58,METAR,Normal,130,7.0,,,9999.0,,11.4,11.4,29.70,1006.3,,,,,,,,,,,.04 IN,,,,,900.0,900.0,OVC,900.0,,,,,,
KRDR,05-19-2014,13:35,SPECI,Variable,,1.0,,,9999.0,,11.0,11.0,29.71,,,,,,,,,,,,,,,,,900.0,900.0,OVC,900.0,,,,,,
KRDR,05-19-2014,13:25,SPECI,Normal,130,3.0,,,9999.0,Light Rain,11.0,11.0,29.71,,61,,,,,,,,,,,,,,,900.0,900.0,OVC,900.0,,,,,,
KRDR,05-19-2014,13:10,SPECI,Normal,140,7.0,,,9999.0,Light Rain/Mist,11.0,11.0,29.71,,61,10,,,,,,,,,,,,,,1100.0,1100.0,OVC,1100.0,,,,,,
KRDR,05-19-2014,12:58,METAR,Normal,140,7.0,,,9999.0,Light Rain,11.0,10.9,29.71,1006.6,61,,,,,,,,,,.07 IN,,,,,1300.0,1300.0,OVC,1300.0,,,,,,
KRDR,05-19-2014,12:49,SPECI,Normal,130,7.0,,,9999.0,Light Rain,11.0,11.0,29.71,,61,,,,,,,,,,,,,,,1300.0,1300.0,BKN,1300.0,OVC,1900.0,,,,
KRDR,05-19-2014,12:44,SPECI,Normal,130,8.0,,,9999.0,Light Rain,11.0,11.0,29.71,,61,,,,,,,,,,,,,,,1400.0,1400.0,BKN,1400.0,OVC,1900.0,,,,
KRDR,05-19-2014,12:34,SPECI,Normal,130,7.0,,,9999.0,Light Drizzle,11.0,11.0,29.72,,51,,,,,,,,,,,,,,,1800.0,1800.0,BKN,1800.0,OVC,5500.0,,,,
KRDR,05-19-2014,12:28,SPECI,Normal,140,9.0,,,9999.0,,11.0,11.0,29.72,,,,,,,,,,,,,,,,,1900.0,1900.0,BKN,1900.0,OVC,6000.0,,,,
KRDR,05-19-2014,12:27,SPECI,Normal,140,8.0,,,9999.0,Light Rain,11.0,11.0,29.72,,61,,,,,,,,,,,,,,,1900.0,1900.0,BKN,1900.0,OVC,6000.0,,,,
KRDR,05-19-2014,12:02,SPECI,Normal,120,9.0,,,6400.0,Light Rain/Mist,11.0,11.0,29.73,,61,10,,,,,,,,,,,,,,6000.0,6000.0,OVC,6000.0,,,,,,
KRDR,05-19-2014,12:00,SPECI,Normal,120,9.0,,,6400.0,Mist,11.0,11.0,29.73,,10,,,,,,,,,,,,,,,6000.0,6000.0,OVC,6000.0,,,,,,
KRDR,05-19-2014,11:58,METAR,Normal,120,8.0,,,4800.0,Light Rain/Mist,11.2,11.0,29.73,1007.2,61,10,,,,,,,,,.27 IN,,.41 IN,.41 IN,,6000.0,6000.0,OVC,6000.0,,,,,,
KRDR,05-19-2014,11:48,SPECI,Normal,130,8.0,,,4000.0,Light Rain/Mist,11.0,11.0,29.74,,61,10,,,,,,,,,,,,,,5500.0,5500.0,OVC,5500.0,,,,,,
KRDR,05-19-2014,11:38,SPECI,Normal,120,5.0,,,8000.0,Light Rain/Mist,11.0,11.0,29.74,,61,10,,,,,,,,,,,,,,6000.0,6000.0,OVC,6000.0,,,,,,
KRDR,05-19-2014,11:28,SPECI,Normal,150,6.0,,,8000.0,Light Rain/Mist,11.0,11.0,29.75,,61,10,,,,,,,,,,,,,,6000.0,3600.0,FEW,3600.0,OVC,6000.0,,,,
KRDR,05-19-2014,11:08,SPECI,Normal,180,3.0,,,6400.0,Light Rain/Mist,11.0,11.0,29.75,,61,10,,,,,,,,,,,,,,6000.0,5000.0,FEW,5000.0,OVC,6000.0,,,,
KRDR,05-19-2014,11:03,SPECI,Normal,210,2.0,,,2800.0,Light Rain/Mist,11.0,11.0,29.75,,61,10,,,,,,,,,,,,,,6000.0,5000.0,FEW,5000.0,OVC,6000.0,,,,
KRDR,05-19-2014,10:58,METAR,Normal,240,3.0,,,3200.0,Rain/Mist,11.0,11.0,29.76,1008.2,62,10,,,,,,,,,.12 IN,,,,,6000.0,5000.0,FEW,5000.0,OVC,6000.0,,,,
KRDR,05-19-2014,10:54,SPECI,Normal,250,3.0,,,4000.0,Light Rain/Mist,11.0,11.0,29.76,,61,10,,,,,,,,,,,,,,6000.0,5000.0,FEW,5000.0,OVC,6000.0,,,,
KRDR,05-19-2014,10:49,SPECI,Normal,260,3.0,,,4800.0,Rain/Mist,12.0,11.0,29.76,,62,10,,,,,,,,,,,,,,6000.0,6000.0,OVC,6000.0,,,,,,
KRDR,05-19-2014,10:39,SPECI,Normal,150,3.0,,,9999.0,Light Rain,12.0,10.0,29.74,,61,,,,,,,,,,,,,,,6000.0,6000.0,OVC,6000.0,,,,,,
KRDR,05-19-2014,10:24,SPECI,Normal,140,7.0,,,9999.0,Light Rain,12.0,10.0,29.73,,61,,,,,,,,,,,,,,,7000.0,7000.0,BKN,7000.0,,,,,,
KRDR,05-19-2014,10:14,SPECI,Normal,130,7.0,,,9999.0,Light Rain,13.0,10.0,29.73,,61,,,,,,,,,,,,,,,7000.0,1000.0,FEW,1000.0,BKN,7000.0,,,,
KRDR,05-19-2014,10:13,SPECI,Normal,130,7.0,,,9999.0,Light Rain,13.0,10.0,29.73,,61,,,,,,,,,,,,,,,7000.0,7000.0,BKN,7000.0,,,,,,
KRDR,05-19-2014,09:58,METAR,Normal,130,6.0,,,9999.0,Light Rain,12.6,10.0,29.73,1007.1,61,,,,,,,,,,.02 IN,,,,,7000.0,7000.0,BKN,7000.0,BKN,8600.0,,,,
KRDR,05-19-2014,09:48,SPECI,Normal,140,6.0,,,9999.0,Light Rain,13.0,10.0,29.74,,61,,,,,,,,,,,,,,,7000.0,7000.0,BKN,7000.0,OVC,8600.0,,,,
KRDR,05-19-2014,09:23,SPECI,Normal,150,10.0,,,9999.0,Light Rain,14.0,8.0,29.73,,61,,,,,,,,,,,,,,,,7000.0,FEW,7000.0,SCT,8600.0,,,,
KRDR,05-19-2014,08:58,METAR,Normal,140,9.0,,,9999.0,,14.3,8.5,29.73,1007.1,,,,,,,,,,,,,,,,7500.0,7500.0,SCT,7500.0,SCT,11000.0,,,,
KRDR,05-19-2014,07:58,METAR,Normal,130,8.0,,,9999.0,,14.7,9.1,29.76,1008.2,,,,,,,,,,,,,,,,7500.0,7500.0,OVC,7500.0,,,,,,
KRDR,05-19-2014,06:58,METAR,Normal,140,8.0,,,9999.0,,14.1,10.4,29.79,1009.2,,,,,,,,,,,,,,,,,8500.0,SCT,8600.0,,,,,,
KRDR,05-19-2014,05:58,METAR,Normal,130,9.0,,,9999.0,,15.6,10.4,29.80,1009.5,,,,,,,,,,,,,,,,9000.0,9000.0,BKN,9100.0,BKN,10000.0,,,,
KRDR,05-19-2014,04:58,METAR,Normal,130,7.0,,,9999.0,,16.2,10.6,29.81,1009.9,,,,,,,,,,,,,,,,8500.0,8500.0,OVC,8600.0,,,,,,
KRDR,05-19-2014,03:58,METAR,Normal,160,8.0,,,9999.0,,16.7,10.8,29.82,1010.3,,,,,,,,,,,,,,,,8000.0,8000.0,OVC,8000.0,,,,,,
KRDR,05-19-2014,02:58,METAR,Normal,180,7.0,,,9999.0,,17.3,8.1,29.83,1010.7,,,,,,,,,,,,,,,,6500.0,6500.0,BKN,6500.0,BKN,8600.0,OVC,10000.0,,
KRDR,05-19-2014,01:58,METAR,Normal,130,5.0,,,9999.0,,18.7,7.3,29.81,1010.0,,,,,,,,,,,,,,,,8000.0,8000.0,BKN,8000.0,,,,,,
KRDR,05-19-2014,00:58,METAR,Normal,150,6.0,,,9999.0,,20.2,5.1,29.82,1010.4,,,,,,,,,,,,,,,,,9500.0,SCT,9600.0,,,,,,
KRDR,05-18-2014,23:58,METAR,Normal,130,9.0,,,9999.0,,21.5,5.1,29.83,1010.7,,,,,,,,,,,,,,,Clear,72000.0,,,,,,,,,
KRDR,05-18-2014,22:58,METAR,Normal,170,10.0,,,9999.0,,22.2,3.8,29.83,1010.7,,,,,,,,,,,,,,,,,8500.0,FEW,8600.0,,,,,,
KRDR,05-18-2014,21:58,METAR,Normal,160,9.0,,,9999.0,,22.6,2.1,29.84,1010.9,,,,,,,,,,,,,,,,,9000.0,FEW,9100.0,,,,,,
KRDR,05-18-2014,20:58,METAR,Normal,170,11.0,15.0,,9999.0,,22.9,1.2,29.85,1011.3,,,,,,,,,,,,,,,,,9500.0,FEW,9600.0,,,,,,
KRDR,05-18-2014,19:58,METAR,Normal,140,7.0,15.0,,9999.0,,21.5,3.1,29.87,1012.0,,,,,,,,,,,,,,,,,9000.0,FEW,9100.0,,,,,,
KRDR,05-18-2014,18:58,METAR,Normal,180,10.0,,,9999.0,,22.1,2.5,29.87,1012.0,,,,,,,,,,,,,,,Clear,72000.0,,,,,,,,,
KRDR,05-18-2014,17:58,METAR,Variable,,5.0,,,9999.0,,20.3,4.9,29.90,1013.1,,,,,,,,,,,,,,,Clear,72000.0,,,,,,,,,
KRDR,05-18-2014,16:58,METAR,Variable,,3.0,,,9999.0,,17.9,5.7,29.92,1013.8,,,,,,,,,,,,,,,Clear,72000.0,,,,,,,,,
KRDR,05-18-2014,15:58,METAR,Variable,,2.0,,,9999.0,,15.6,5.3,29.93,1014.3,,,,,,,,,,,,,,,Clear,72000.0,,,,,,,,,
KRDR,05-18-2014,14:58,METAR,Variable,,3.0,,,9999.0,,13.6,4.4,29.93,1014.3,,,,,,,,,,,,,,,Clear,72000.0,,,,,,,,,
KRDR,05-18-2014,13:58,METAR,Normal,320,4.0,,,9999.0,,10.8,3.3,29.94,1014.6,,,,,,,,,,,,,,,Clear,72000.0,,,,,,,,,
KRDR,05-18-2014,12:58,METAR,Normal,310,4.0,,,9999.0,,9.1,3.9,29.94,1014.5,,,,,,,,,,,,,,,,,9000.0,SCT,9100.0,,,,,,
KRDR,05-18-2014,11:58,METAR,Normal,320,4.0,,,9999.0,,8.7,4.7,29.94,,,,,,,,,,,,,,,.01 IN,,8500.0,8500.0,BKN,8600.0,,,,,,
KRDR,05-18-2014,10:58,METAR,Normal,350,5.0,,,9999.0,,9.0,5.0,29.93,,,,,,,,,,,,,,,,,10000.0,10000.0,OVC,10000.0,,,,,,
KRDR,05-18-2014,09:58,METAR,Normal,350,5.0,,,9999.0,,9.7,5.8,29.92,,,,,,,,,,,,,,,,,8500.0,8500.0,OVC,8600.0,,,,,,
KRDR,05-18-2014,08:58,METAR,Normal,330,2.0,,,9999.0,,11.1,5.2,29.92,,,,,,,,,,,,,,,,,9000.0,9000.0,BKN,9100.0,,,,,,
KRDR,05-18-2014,07:58,METAR,Calm,,0.0,,,9999.0,,11.2,3.5,29.91,,,,,,,,,,,,,,,,,9000.0,9000.0,OVC,9100.0,,,,,,
KRDR,05-18-2014,06:58,METAR,Normal,230,4.0,,,9999.0,,11.2,3.9,29.91,,,,,,,,,,,,,,,,,,11000.0,SCT,11000.0,,,,,,
KRDR,05-18-2014,05:58,METAR,Normal,230,4.0,,,9999.0,,11.5,5.2,29.92,,,,,,,,,,,,,,,,,,11000.0,SCT,11000.0,,,,,,
KRDR,05-18-2014,04:58,METAR,Normal,230,4.0,,,9999.0,,11.3,6.1,29.92,,,,,,,,,,,,,,,,,10000.0,10000.0,OVC,10000.0,,,,,,
KRDR,05-18-2014,03:58,METAR,Normal,230,5.0,,,9999.0,,10.3,5.1,29.92,,,,,,,,,,,,,,,,,11000.0,11000.0,BKN,11000.0,,,,,,
KRDR,05-18-2014,02:58,METAR,Normal,240,5.0,,,9999.0,,11.1,5.9,29.92,1013.9,,,,,,,,,,,,,,,,,11000.0,SCT,11000.0,,,,,,
KRDR,05-18-2014,01:58,METAR,Normal,330,3.0,,,9999.0,,14.1,3.9,29.91,1013.5,,,,,,,,,,,,,,,,11000.0,11000.0,BKN,11000.0,,,,,,
KRDR,05-18-2014,00:58,METAR,Normal,310,6.0,,,9999.0,,18.1,2.6,29.92,1013.9,,,,,,,,,,,,,,,,,9500.0,SCT,9600.0,,,,,,
KRDR,05-18-2014,00:35,SPECI,Variable,,2.0,,,9999.0,,19.0,1.0,29.91,,,,,,,,,,,,,,,,,,9500.0,SCT,9600.0,,,,,,
KRDR,05-17-2014,23:55,METAR,Calm,,0.0,,,9999.0,,18.0,2.0,29.91,1013.9,,,,,,,,,,,,,.01 IN,,,11000.0,10000.0,SCT,10000.0,BKN,11000.0,,,,
KRDR,05-17-2014,22:55,METAR,Normal,30,11.0,15.0,,9999.0,,19.0,1.0,29.91,,,,,,,,,,,,,,,,,,9500.0,FEW,9600.0,,,,,,
KRDR,05-17-2014,21:55,METAR,Normal,20,6.0,,,9999.0,,19.0,1.0,29.91,,,,,,,,,,,,,,,,,,9500.0,FEW,9600.0,SCT,10000.0,,,,
KRDR,05-17-2014,20:55,METAR,Normal,10,11.0,,,9999.0,,20.0,2.0,29.90,1013.6,,,,,,,,,,,,.01 IN,,,,,8500.0,SCT,8600.0,,,,,,
KRDR,05-17-2014,19:55,METAR,Normal,320,10.0,20.0,310/27KTS,9999.0,,21.0,2.0,29.90,,,,,,,,,,,,.01 IN,,,,,14000.0,9500.0,FEW,9600.0,BKN,14000.0,,,,
KRDR,05-17-2014,19:17,SPECI,Normal,290,12.0,25.0,,9999.0,,16.0,5.0,29.91,,,,,,,,,,,,,,,,,8500.0,1200.0,FEW,1200.0,BKN,8600.0,,,,
KRDR,05-17-2014,19:10,SPECI,Normal,280,19.0,27.0,,9999.0,Thunderstorm and Rain or Snow Showers,17.0,6.0,29.81,,92,,,,,,,,,,,,,,,8500.0,1200.0,FEW,1200.0,BKN,8600.0,,,,
KRDR,05-17-2014,18:55,METAR,Normal,310,21.0,27.0,,9999.0,Dry Thunderstorm,19.0,2.0,29.91,,91,,,,,,,,,,,,,,,8500.0,8500.0,BKN,8600.0,,,,,,
KRDR,05-17-2014,16:55,METAR,Normal,330,13.0,18.0,,9999.0,,20.2,3.7,29.92,1014.3,,,,,,,,,,,,,,,Clear,72000.0,,,,,,,,,
KRDR,05-17-2014,15:55,METAR,Normal,310,12.0,,,9999.0,,17.8,4.0,29.93,1014.6,,,,,,,,,,,,,,,Clear,72000.0,,,,,,,,,
KRDR,05-17-2014,14:58,METAR,Normal,280,11.0,,,9999.0,,15.4,0.4,29.95,1015.0,,,,,,,,,,,,,,,,,10000.0,SCT,10000.0,,,,,,
KRDR,05-17-2014,12:58,METAR,Normal,250,2.0,,,9999.0,,8.4,2.5,29.97,1015.7,,,,,,,,,,,,,,,Clear,72000.0,,,,,,,,,
KRDR,05-17-2014,11:58,METAR,Normal,230,2.0,,,9999.0,,5.1,1.0,29.97,1015.8,,,,,,,,,,,,,,,,10000.0,10000.0,BKN,10000.0,,,,,,
KRDR,05-17-2014,10:58,METAR,Normal,270,4.0,,,9999.0,,3.3,0.4,29.97,1015.8,,,,,,,,,,,,,,,Clear,72000.0,,,,,,,,,
KRDR,05-17-2014,09:58,METAR,Normal,260,6.0,,,9999.0,,2.4,0.1,29.98,1016.2,,,,,,,,,,,,,,,Clear,72000.0,,,,,,,,,
KRDR,05-17-2014,08:58,METAR,Normal,240,5.0,,,9999.0,,3.2,0.3,29.98,1016.2,,,,,,,,,,,,,,,Clear,72000.0,,,,,,,,,
KRDR,05-17-2014,07:58,METAR,Normal,260,4.0,,,9999.0,,3.4,0.8,29.99,1016.6,,,,,,,,,,,,,,,Clear,72000.0,,,,,,,,,
KRDR,05-17-2014,06:58,METAR,Normal,270,6.0,,,9999.0,,3.5,1.1,30.00,1016.9,,,,,,,,,,,,,,,Clear,72000.0,,,,,,,,,
KRDR,05-17-2014,05:58,METAR,Normal,260,5.0,,,9999.0,,4.4,1.5,30.00,1016.9,,,,,,,,,,,,,,,Clear,72000.0,,,,,,,,,
KRDR,05-17-2014,04:58,METAR,Normal,260,4.0,,,9999.0,,4.6,2.3,30.01,1017.3,,,,,,,,,,,,,,,Clear,72000.0,,,,,,,,,
KRDR,05-17-2014,03:58,METAR,Normal,230,7.0,,,9999.0,,6.5,1.0,30.01,1017.2,,,,,,,,,,,,,,,Clear,72000.0,,,,,,,,,
KRDR,05-17-2014,03:38,SPECI,Normal,220,5.0,,,9999.0,,7.0,1.0,30.02,,,,,,,,,,,,,,,,Clear,72000.0,,,,,,,,,
KRDR,05-17-2014,02:58,METAR,Normal,220,4.0,,,9999.0,,7.8,2.3,30.02,1017.5,,,,,,,,,,,,,,,Clear,72000.0,,,,,,,,,
KRDR,05-17-2014,02:55,METAR,Normal,220,4.0,,,9999.0,,7.8,2.3,30.02,1017.5,,,,,,,,,,,,,,,Clear,72000.0,,,,,,,,,
KRDR,05-17-2014,02:44,SPECI,Normal,230,5.0,,,9999.0,,8.0,2.0,30.01,,,,,,,,,,,,,,,,Clear,72000.0,,,,,,,,,
KRDR,05-17-2014,01:58,METAR,Normal,240,2.0,,,9999.0,,10.8,0.5,30.02,1017.5,,,,,,,,,,,,,,,Clear,72000.0,,,,,,,,,
KRDR,05-17-2014,00:58,METAR,Normal,10,3.0,,,9999.0,,14.4,-3.5,30.03,1017.8,,,,,,,,,,,,,,,Clear,72000.0,,,,,,,,,
KRDR,05-16-2014,23:58,METAR,Normal,30,8.0,,,9999.0,,15.1,-3.2,30.02,1017.5,,,,,,,,,,,,,,,Clear,72000.0,,,,,,,,,
KRDR,05-16-2014,22:58,METAR,Normal,40,9.0,,,9999.0,,15.6,-2.7,30.03,1017.9,,,,,,,,,,,,,,,Clear,72000.0,,,,,,,,,
KRDR,05-16-2014,21:58,METAR,Normal,10,8.0,15.0,,9999.0,,15.8,-1.7,30.04,1018.3,,,,,,,,,,,,,,,Clear,72000.0,,,,,,,,,
KRDR,05-16-2014,20:58,METAR,Normal,360,8.0,,,9999.0,,15.3,-1.2,30.04,1018.3,,,,,,,,,,,,,,,,,6500.0,FEW,6500.0,,,,,,
KRDR,05-16-2014,19:58,METAR,Variable,340,10.0,,,9999.0,,15.1,-0.5,30.05,1018.7,,,,,,,,,,,,,,,,,6500.0,FEW,6500.0,,,,,,
KRDR,05-16-2014,18:58,METAR,Variable,,6.0,,,9999.0,,13.8,-1.9,30.06,1019.0,,,,,,,,,,,,,,,,,6500.0,FEW,6500.0,,,,,,
KRDR,05-16-2014,17:58,METAR,Variable,30,9.0,,,9999.0,,12.8,-1.6,30.07,1019.4,,,,,,,,,,,,,,,,6500.0,6500.0,BKN,6500.0,,,,,,
KRDR,05-16-2014,16:58,METAR,Variable,,4.0,,,9999.0,,12.6,-2.3,30.09,1020.0,,,,,,,,,,,,,,,,6000.0,6000.0,BKN,6000.0,,,,,,
KRDR,05-16-2014,15:58,METAR,Normal,270,7.0,,,9999.0,,12.7,-2.4,30.10,1020.3,,,,,,,,,,,,,,,,,6500.0,FEW,6500.0,,,,,,
KRDR,05-16-2014,14:58,METAR,Normal,280,8.0,,,9999.0,,11.6,-1.3,30.11,1020.6,,,,,,,,,,,,,,,Clear,72000.0,,,,,,,,,
KRDR,05-16-2014,13:58,METAR,Normal,280,9.0,,,9999.0,,9.9,-0.6,30.12,1020.9,,,,,,,,,,,,,,,Clear,72000.0,,,,,,,,,
KRDR,05-16-2014,12:58,METAR,Normal,280,9.0,,,9999.0,,7.1,-0.6,30.12,1021.0,,,,,,,,,,,,,,,Clear,72000.0,,,,,,,,,
KRDR,05-16-2014,11:58,METAR,Normal,280,7.0,,,9999.0,,3.4,-0.7,30.11,1020.8,,,,,,,,,,,,,,,Clear,72000.0,,,,,,,,,
KRDR,05-16-2014,10:58,METAR,Normal,280,7.0,,,9999.0,,1.4,-1.8,30.11,1020.8,,,,,,,,,,,,,,,Clear,72000.0,,,,,,,,,
KRDR,05-16-2014,09:58,METAR,Normal,270,5.0,,,9999.0,,0.2,-2.1,30.11,1020.9,,,,,,,,,,,,,,,Clear,72000.0,,,,,,,,,
KRDR,05-16-2014,08:58,METAR,Normal,260,5.0,,,9999.0,,1.0,-1.8,30.12,1021.2,,,,,,,,,,,,,,,Clear,72000.0,,,,,,,,,
KRDR,05-16-2014,07:58,METAR,Normal,240,4.0,,,9999.0,,1.2,-1.0,30.12,1021.2,,,,,,,,,,,,,,,Clear,72000.0,,,,,,,,,
KRDR,05-16-2014,06:58,METAR,Normal,230,4.0,,,9999.0,,1.4,-0.8,30.12,1021.2,,,,,,,,,,,,,,,Clear,72000.0,,,,,,,,,
KRDR,05-16-2014,05:58,METAR,Normal,210,4.0,,,9999.0,,2.1,-1.1,30.13,1021.6,,,,,,,,,,,,,,,Clear,72000.0,,,,,,,,,
KRDR,05-16-2014,04:58,METAR,Normal,180,5.0,,,9999.0,,4.4,-0.8,30.14,1021.8,,,,,,,,,,,,,,,Clear,72000.0,,,,,,,,,
KRDR,05-16-2014,03:58,METAR,Normal,180,4.0,,,9999.0,,5.5,0.3,30.14,1021.9,,,,,,,,,,,,,,,Clear,72000.0,,,,,,,,,
KRDR,05-16-2014,02:58,METAR,Normal,190,4.0,,,9999.0,,6.7,-1.9,30.14,1021.8,,,,,,,,,,,,,,,Clear,72000.0,,,,,,,,,
KRDR,05-16-2014,01:58,METAR,Normal,180,3.0,,,9999.0,,8.7,-3.3,30.14,1021.8,,,,,,,,,,,,,,,Clear,72000.0,,,,,,,,,
KRDR,05-16-2014,00:58,METAR,Normal,130,1.0,,,9999.0,,10.3,-2.5,30.15,1022.2,,,,,,,,,,,,,,,Clear,72000.0,,,,,,,,,
KRDR,05-15-2014,23:58,METAR,Variable,,2.0,,,9999.0,,10.0,-2.8,30.16,1022.6,,,,,,,,,,,,,,,,,6500.0,FEW,6500.0,,,,,,
KRDR,05-15-2014,22:58,METAR,Normal,90,8.0,,,9999.0,,10.8,-2.6,30.17,1023.0,,,,,,,,,,,,,,,,6000.0,6000.0,BKN,6000.0,,,,,,
KRDR,05-15-2014,21:58,METAR,Normal,40,9.0,,,9999.0,,11.1,-2.5,30.19,1023.7,,,,,,,,,,,,,,,,6000.0,6000.0,BKN,6000.0,,,,,,
KRDR,05-15-2014,20:58,METAR,Normal,40,10.0,,,9999.0,,10.5,-2.9,30.21,1024.4,,,,,,,,,,,,,,,,,6000.0,SCT,6000.0,,,,,,
KRDR,05-15-2014,19:58,METAR,Normal,40,9.0,,,9999.0,,10.3,-3.9,30.23,1025.1,,,,,,,,,,,,,,,,5500.0,5500.0,BKN,5500.0,,,,,,
KRDR,05-15-2014,18:58,METAR,Normal,20,9.0,,,9999.0,,9.2,-3.3,30.25,1025.8,,,,,,,,,,,,,,,,,5000.0,SCT,5000.0,,,,,,
KRDR,05-15-2014,17:58,METAR,Variable,,3.0,,,9999.0,,8.0,-4.3,30.27,1026.5,,,,,,,,,,,,,,,,,4900.0,SCT,4900.0,,,,,,
KRDR,05-15-2014,16:58,METAR,Variable,,6.0,,,9999.0,,8.3,-2.6,30.28,1026.8,,,,,,,,,,,,,,,,,4200.0,SCT,4200.0,,,,,,
KRDR,05-15-2014,15:58,METAR,Normal,20,8.0,,,9999.0,,7.4,-2.7,30.29,1027.1,,,,,,,,,,,,,,,,3900.0,3900.0,BKN,3900.0,,,,,,
KRDR,05-15-2014,14:58,METAR,Variable,,5.0,,,9999.0,,6.0,-2.2,30.30,1027.4,,,,,,,,,,,,,,,,,3700.0,SCT,3700.0,,,,,,
KRDR,05-15-2014,13:58,METAR,Normal,340,6.0,,,9999.0,,5.0,-0.8,30.31,1027.8,,,,,,,,,,,,,,,Clear,72000.0,,,,,,,,,
KRDR,05-15-2014,12:58,METAR,Normal,320,6.0,,,9999.0,,2.3,0.6,30.31,1027.8,,,,,,,,,,,,,,,Clear,72000.0,,,,,,,,,
KRDR,05-15-2014,11:58,METAR,Normal,320,5.0,,,9999.0,,-1.2,-1.4,30.31,1028.0,,,,,,,,,,,,,,,,,4200.0,SCT,4200.0,,,,,,
KRDR,05-15-2014,10:58,METAR,Normal,320,6.0,,,9999.0,,-2.2,-2.3,30.30,1027.6,,,,,,,,,,,,,,,,4000.0,4000.0,BKN,4000.0,,,,,,
KRDR,05-15-2014,09:58,METAR,Normal,320,4.0,,,9999.0,,-2.0,-2.1,30.30,1027.6,,,,,,,,,,,,,,,,3700.0,3700.0,BKN,3700.0,,,,,,
KRDR,05-15-2014,08:58,METAR,Normal,350,3.0,,,9999.0,,-2.5,-2.6,30.30,1027.6,,,,,,,,,,,,,,,Clear,72000.0,,,,,,,,,
KRDR,05-15-2014,07:58,METAR,Normal,340,2.0,,,9999.0,,-2.3,-2.4,30.30,1027.6,,,,,,,,,,,,,,,Clear,72000.0,,,,,,,,,
KRDR,05-15-2014,06:58,METAR,Normal,350,3.0,,,9999.0,,-1.1,-1.2,30.31,1027.9,,,,,,,,,,,,,,,Clear,72000.0,,,,,,,,,
KRDR,05-15-2014,05:58,METAR,Normal,310,4.0,,,9999.0,,-1.2,-1.3,30.32,1028.2,,,,,,,,,,,,,,,Clear,72000.0,,,,,,,,,
KRDR,05-15-2014,04:58,METAR,Normal,300,3.0,,,9999.0,,0.1,-0.1,30.33,1028.6,,,,,,,,,,,,,,,,,4600.0,FEW,4600.0,,,,,,
KRDR,05-15-2014,03:58,METAR,Normal,290,2.0,,,9999.0,,2.6,0.8,30.33,1028.5,,,,,,,,,,,,,,,,4900.0,4900.0,BKN,4900.0,,,,,,
KRDR,05-15-2014,02:58,METAR,Normal,350,2.0,,,9999.0,,3.8,0.1,30.33,1028.5,,,,,,,,,,,,,,,,4600.0,4600.0,OVC,4600.0,,,,,,
KRDR,05-15-2014,01:58,METAR,Normal,10,5.0,,,9999.0,,4.5,-0.2,30.32,1028.2,,,,,,,,,,,,,,,,4400.0,4400.0,OVC,4400.0,,,,,,
KRDR,05-15-2014,00:58,METAR,Normal,340,6.0,,,9999.0,,5.0,-1.1,30.32,1028.2,,,,,,,,,,,,,,,,4200.0,4200.0,OVC,4200.0,,,,,,
KRDR,05-14-2014,23:58,METAR,Normal,10,9.0,,,9999.0,,5.5,-1.5,30.32,1028.2,,,,,,,,,,,,,,,,4200.0,4200.0,OVC,4200.0,,,,,,
KRDR,05-14-2014,22:58,METAR,Normal,10,9.0,,,9999.0,,5.7,-1.6,30.33,1028.6,,,,,,,,,,,,,,,,4300.0,3300.0,FEW,3300.0,OVC,4300.0,,,,
KRDR,05-14-2014,21:58,METAR,Normal,30,10.0,,,9999.0,,6.1,-1.0,30.33,1028.5,,,,,,,,,,,,,,,,4400.0,4400.0,OVC,4400.0,,,,,,
KRDR,05-14-2014,20:58,METAR,Normal,20,9.0,,,9999.0,,5.9,-1.2,30.33,1028.5,,,,,,,,,,,,,,,,3600.0,3600.0,BKN,3600.0,OVC,4900.0,,,,
KRDR,05-14-2014,19:58,METAR,Normal,20,10.0,,,9999.0,,5.4,-1.6,30.33,1028.5,,,,,,,,,,,,,,,,3400.0,3400.0,OVC,3400.0,,,,,,
KRDR,05-14-2014,18:58,METAR,Normal,30,15.0,19.0,,9999.0,,6.1,-1.8,30.32,1028.1,,,,,,,,,,,,,,,,4700.0,3300.0,FEW,3300.0,OVC,4700.0,,,,
KRDR,05-14-2014,17:58,METAR,Normal,20,14.0,,,9999.0,,5.7,-2.4,30.31,1027.8,,,,,,,,,,,,,,,,4700.0,3600.0,SCT,3600.0,OVC,4700.0,,,,
KRDR,05-14-2014,16:58,METAR,Normal,10,12.0,,,9999.0,,5.3,-2.3,30.30,1027.4,,,,,,,,,,,,,,,,4300.0,4300.0,OVC,4300.0,,,,,,
KRDR,05-14-2014,15:58,METAR,Normal,360,12.0,,,9999.0,,4.7,-1.7,30.30,1027.4,,,,,,,,,,,,,,,,4200.0,3000.0,SCT,3000.0,OVC,4200.0,,,,
KRDR,05-14-2014,15:03,SPECI,Normal,350,11.0,,,9999.0,,4.0,0.0,30.29,,,,,,,,,,,,,,,,,2800.0,2200.0,SCT,2200.0,OVC,5500.0,,,,
KRDR,05-14-2014,14:58,METAR,Normal,350,14.0,,,9999.0,,3.9,-0.5,30.29,1027.1,,,,,,,,,,,,,,,,2200.0,2200.0,BKN,2200.0,OVC,5500.0,,,,
KRDR,05-14-2014,14:53,SPECI,Normal,350,12.0,,,9999.0,,4.0,0.0,30.29,,,,,,,,,,,,,,,,,2200.0,2200.0,BKN,2200.0,OVC,5500.0,,,,
KRDR,05-14-2014,14:43,SPECI,Normal,360,12.0,,,9999.0,,4.0,0.0,30.29,,,,,,,,,,,,,,,,,2300.0,2200.0,SCT,2200.0,OVC,5500.0,,,,
KRDR,05-14-2014,14:33,SPECI,Normal,350,11.0,,,9999.0,,4.0,0.0,30.29,,,,,,,,,,,,,,,,,2200.0,2200.0,BKN,2200.0,BKN,2700.0,OVC,6000.0,,
KRDR,05-14-2014,13:58,METAR,Normal,340,13.0,,,9999.0,,3.3,-0.1,30.28,1026.7,,,,,,,,,,,,,,,,6000.0,6000.0,OVC,6000.0,,,,,,
KRDR,05-14-2014,12:58,METAR,Normal,340,9.0,,,9999.0,,3.0,0.3,30.27,1026.3,,,,,,,,,,,,,,,,6500.0,6500.0,OVC,6500.0,,,,,,
KRDR,05-14-2014,11:58,METAR,Normal,320,7.0,,,9999.0,,2.0,0.3,30.26,1026.1,,,,,,,,,,,,,,.01 IN,,5500.0,5500.0,BKN,5500.0,,,,,,
KRDR,05-14-2014,10:58,METAR,Normal,320,6.0,,,9999.0,,0.8,-0.5,30.24,1025.4,,,,,,,,,,,,,,,,,8500.0,SCT,8600.0,,,,,,
KRDR,05-14-2014,09:58,METAR,Normal,310,6.0,,,9999.0,,1.0,-0.2,30.22,1024.6,,,,,,,,,,,,,,,,8500.0,8500.0,BKN,8600.0,,,,,,
KRDR,05-14-2014,08:58,METAR,Normal,320,7.0,,,9999.0,,1.1,-0.1,30.21,1024.3,,,,,,,,,,,,,,,Clear,72000.0,,,,,,,,,
KRDR,05-14-2014,07:58,METAR,Normal,310,5.0,,,9999.0,,1.7,-0.2,30.20,1023.9,,,,,,,,,,,,,,,Clear,72000.0,,,,,,,,,
KRDR,05-14-2014,06:58,METAR,Normal,330,8.0,,,9999.0,,2.5,0.6,30.19,1023.6,,,,,,,,,,,,,,,Clear,72000.0,,,,,,,,,
KRDR,05-14-2014,05:58,METAR,Normal,320,6.0,,,9999.0,,3.7,1.2,30.18,1023.2,,,,,,,,,,,,,TRACE,,,10000.0,10000.0,OVC,10000.0,,,,,,
KRDR,05-14-2014,04:58,METAR,Normal,330,6.0,,,9999.0,,3.7,1.1,30.17,1022.8,,,,,,,,,,,,,,,,9500.0,9500.0,OVC,9600.0,,,,,,
KRDR,05-14-2014,03:58,METAR,Normal,320,6.0,,,9999.0,,3.8,1.5,30.16,1022.6,,,,,,,,,,,,,,,,9500.0,9500.0,BKN,9600.0,,,,,,
KRDR,05-14-2014,02:58,METAR,Normal,310,7.0,,,9999.0,,2.7,1.7,30.15,1022.3,,,,,,,,,,,TRACE,TRACE,,,,,9500.0,FEW,9600.0,,,,,,
KRDR,05-14-2014,02:09,SPECI,Normal,330,4.0,,,9999.0,,4.0,3.0,30.14,,,,,,,,,,,,,,,,,7000.0,2700.0,FEW,2700.0,BKN,7000.0,OVC,8600.0,,
KRDR,05-14-2014,01:58,METAR,Normal,350,8.0,26.0,320/26KTS,6400.0,Unknown Precipitation,7.0,2.0,30.14,1021.8,40,,,,,,,,,,TRACE,,,,,3800.0,2100.0,FEW,2100.0,BKN,3800.0,OVC,9100.0,,
KRDR,05-14-2014,01:54,SPECI,Normal,350,11.0,26.0,,6400.0,Light Rain,7.0,2.0,30.15,,61,,,,,,,,,,,,,,,4200.0,2300.0,FEW,2300.0,BKN,4200.0,OVC,9100.0,,
KRDR,05-14-2014,00:58,METAR,Normal,330,9.0,,,9999.0,,7.9,1.3,30.13,1021.5,,,,,,,,,,,,,,,,9000.0,9000.0,OVC,9100.0,,,,,,
KRDR,05-14-2014,00:17,SPECI,Normal,360,11.0,,,9999.0,,9.0,3.0,30.13,,,,,,,,,,,,,,,,,9000.0,3500.0,SCT,3500.0,OVC,9100.0,,,,
KRDR,05-13-2014,23:58,METAR,Normal,320,10.0,,,9999.0,,7.9,2.7,30.12,1021.1,,,,,,,,,,,.01 IN,,.01 IN,,,9000.0,9000.0,OVC,9100.0,,,,,,
KRDR,05-13-2014,23:06,SPECI,Normal,330,8.0,16.0,,9999.0,,7.0,4.0,30.13,,,,,,,,,,,,,,,,,5000.0,3100.0,FEW,3100.0,BKN,5000.0,OVC,8000.0,,
KRDR,05-13-2014,22:58,METAR,Variable,340,11.0,,,9999.0,Rain,7.0,4.0,30.13,1021.6,62,,,,,,,,,,TRACE,,,,,5000.0,3100.0,SCT,3100.0,BKN,5000.0,OVC,7000.0,,
KRDR,05-13-2014,22:54,SPECI,Normal,10,14.0,22.0,,9999.0,Rain,8.0,3.0,30.13,,62,,,,,,,,,,,,,,,5000.0,3400.0,SCT,3400.0,BKN,5000.0,OVC,7000.0,,
KRDR,05-13-2014,22:24,SPECI,Normal,360,11.0,22.0,,9999.0,,11.0,0.0,30.12,,,,,,,,,,,,,,,,,6500.0,4800.0,SCT,4800.0,BKN,6500.0,OVC,9100.0,,
KRDR,05-13-2014,21:58,METAR,Normal,320,16.0,22.0,,9999.0,,9.6,0.5,30.12,1021.1,,,,,,,,,,,,,,,,8000.0,4600.0,FEW,4600.0,SCT,6000.0,BKN,8000.0,,
KRDR,05-13-2014,20:58,METAR,Normal,320,16.0,21.0,,9999.0,,9.8,0.4,30.11,1020.7,,,,,,,,,,,TRACE,TRACE,,,,6000.0,4700.0,SCT,4700.0,BKN,6000.0,OVC,8000.0,,
KRDR,05-13-2014,20:17,SPECI,Normal,310,12.0,,,9999.0,,8.0,2.0,30.12,,,,,,,,,,,,,,,,,5500.0,4600.0,FEW,4600.0,BKN,5500.0,OVC,7500.0,,
KRDR,05-13-2014,20:07,SPECI,Normal,330,16.0,22.0,,9999.0,Light Rain,8.0,2.0,30.12,,61,,,,,,,,,,,,,,,4700.0,1000.0,FEW,1000.0,BKN,4700.0,OVC,6000.0,,
KRDR,05-13-2014,20:01,SPECI,Normal,320,16.0,,,9999.0,,9.0,1.0,30.12,,,,,,,,,,,,,,,,,4900.0,4900.0,BKN,4900.0,BKN,6000.0,OVC,7000.0,,
KRDR,05-13-2014,19:58,METAR,Normal,320,13.0,18.0,300/28KTS,9999.0,,8.6,1.1,30.12,1021.1,,,,,,,,,,,TRACE,,,,,5500.0,4600.0,FEW,4600.0,OVC,5500.0,,,,
KRDR,05-13-2014,19:34,SPECI,Normal,320,17.0,22.0,,9999.0,,8.0,1.0,30.11,,,,,,,,,,,,,,,,,5500.0,4100.0,SCT,4100.0,BKN,5500.0,OVC,7000.0,,
KRDR,05-13-2014,19:22,SPECI,Normal,340,16.0,22.0,,9999.0,Light Rain,9.0,1.0,30.11,,61,,,,,,,,,,,,,,,4000.0,4000.0,BKN,4000.0,BKN,4900.0,OVC,7000.0,,
KRDR,05-13-2014,18:58,METAR,Normal,330,14.0,20.0,,9999.0,,8.9,0.7,30.10,1020.4,,,,,,,,,,,,,,,,6500.0,5000.0,SCT,5000.0,OVC,6500.0,,,,
KRDR,05-13-2014,17:58,METAR,Normal,330,18.0,24.0,,9999.0,,9.0,0.8,30.09,1020.0,,,,,,,,,,,TRACE,,TRACE,,,6000.0,3800.0,FEW,3800.0,OVC,6000.0,,,,
KRDR,05-13-2014,17:23,SPECI,Normal,340,15.0,20.0,,9999.0,,8.0,2.0,30.08,,,,,,,,,,,,,,,,,4800.0,3800.0,FEW,3800.0,BKN,4800.0,OVC,6000.0,,
KRDR,05-13-2014,17:12,SPECI,Normal,330,17.0,24.0,,9999.0,Light Rain,9.0,1.0,30.08,,61,,,,,,,,,,,,,,,4700.0,3800.0,FEW,3800.0,BKN,4700.0,BKN,6000.0,,
KRDR,05-13-2014,16:58,METAR,Normal,340,17.0,22.0,330/27KTS,9999.0,,9.6,2.4,30.07,1019.4,,,,,,,,,,,,,,,,4800.0,3300.0,FEW,3300.0,BKN,4800.0,BKN,6000.0,,
KRDR,05-13-2014,15:58,METAR,Normal,340,16.0,22.0,330/27KTS,9999.0,,7.3,2.4,30.07,1019.4,,,,,,,,,,,,,,,,2900.0,2900.0,SCT,2900.0,OVC,3700.0,,,,
KRDR,05-13-2014,15:28,SPECI,Normal,340,19.0,27.0,,9999.0,,7.0,2.0,30.07,,,,,,,,,,,,,,,,,2800.0,2900.0,SCT,2900.0,OVC,3500.0,,,,
KRDR,05-13-2014,15:23,SPECI,Normal,340,21.0,27.0,,9999.0,,7.0,2.0,30.07,,,,,,,,,,,,,,,,,2900.0,2900.0,BKN,2900.0,OVC,3500.0,,,,
KRDR,05-13-2014,15:13,SPECI,Normal,340,18.0,24.0,,9999.0,,7.0,2.0,30.07,,,,,,,,,,,,,,,,,3100.0,3100.0,OVC,3100.0,,,,,,
KRDR,05-13-2014,14:58,METAR,Normal,330,14.0,,,9999.0,,6.9,2.9,30.06,1019.1,,,,,,,,,,,,,,,,2900.0,2900.0,OVC,2900.0,,,,,,
KRDR,05-13-2014,13:58,METAR,Normal,340,13.0,22.0,,9999.0,,6.0,3.0,30.05,1018.8,,,,,,,,,,,,,,,,2300.0,2300.0,OVC,2300.0,,,,,,
KRDR,05-13-2014,13:23,SPECI,Normal,330,16.0,25.0,,9999.0,,6.0,3.0,30.05,,,,,,,,,,,,,,,,,2400.0,2400.0,BKN,2400.0,,,,,,
KRDR,05-13-2014,13:08,SPECI,Normal,330,14.0,22.0,,9999.0,,5.0,3.0,30.04,,,,,,,,,,,,,,,,,2200.0,2400.0,SCT,2400.0,BKN,5000.0,,,,
KRDR,05-13-2014,12:58,METAR,Normal,330,16.0,21.0,,9999.0,,5.4,2.8,30.04,1018.5,,,,,,,,,,,,,,,,2400.0,2400.0,BKN,2400.0,BKN,4800.0,OVC,6500.0,,
KRDR,05-13-2014,12:53,SPECI,Normal,330,16.0,21.0,,9999.0,,5.0,3.0,30.04,,,,,,,,,,,,,,,,,2400.0,2400.0,BKN,2400.0,BKN,4600.0,OVC,6000.0,,
KRDR,05-13-2014,11:58,METAR,Normal,330,14.0,22.0,,9999.0,,5.0,3.0,30.03,1018.1,,,,,,,,,,,,,,.46 IN,,2200.0,2400.0,SCT,2400.0,BKN,4800.0,OVC,6000.0,,
KRDR,05-13-2014,11:48,SPECI,Normal,330,15.0,19.0,,9999.0,,5.0,3.0,30.02,,,,,,,,,,,,,,,,,2300.0,2300.0,BKN,2300.0,BKN,3600.0,OVC,6000.0,,
KRDR,05-13-2014,11:43,SPECI,Normal,330,14.0,,,9999.0,,5.0,3.0,30.02,,,,,,,,,,,,,,,,,2200.0,2300.0,SCT,2300.0,BKN,3600.0,OVC,4800.0,,
KRDR,05-13-2014,10:58,METAR,Normal,330,16.0,,,9999.0,,4.5,2.8,30.01,1017.5,,,,,,,,,,,,,,,,2200.0,2200.0,OVC,2200.0,,,,,,
KRDR,05-13-2014,09:58,METAR,Normal,330,14.0,23.0,,9999.0,,5.1,3.5,30.00,1017.1,,,,,,,,,,,,,,,,2200.0,2200.0,OVC,2200.0,,,,,,
KRDR,05-13-2014,08:58,METAR,Normal,340,16.0,,,9999.0,,4.9,3.4,29.98,1016.4,,,,,,,,,,,,,,,,2200.0,2200.0,OVC,2200.0,,,,,,
KRDR,05-13-2014,07:58,METAR,Variable,340,11.0,,,9999.0,,5.4,4.1,29.97,1016.1,,,,,,,,,,,,,,,,2100.0,2100.0,OVC,2100.0,,,,,,
KRDR,05-13-2014,07:33,SPECI,Normal,350,14.0,,,9999.0,,6.0,4.0,29.97,,,,,,,,,,,,,,,,,2000.0,2000.0,BKN,2000.0,OVC,5500.0,,,,
KRDR,05-13-2014,06:58,METAR,Normal,350,16.0,21.0,,9999.0,,5.7,4.7,29.98,1016.4,,,,,,,,,,,,,,,,5500.0,2000.0,FEW,2000.0,BKN,5500.0,OVC,9100.0,,
KRDR,05-13-2014,06:13,SPECI,Normal,350,17.0,21.0,,9999.0,,6.0,5.0,29.99,,,,,,,,,,,,,,,,,3300.0,1700.0,FEW,1700.0,BKN,3300.0,OVC,4000.0,,
KRDR,05-13-2014,05:58,METAR,Normal,350,17.0,23.0,,9999.0,,5.8,5.2,29.99,1016.8,,,,,,,,,,,,,.07 IN,,,2800.0,2800.0,BKN,2800.0,OVC,4100.0,,,,
KRDR,05-13-2014,05:23,SPECI,Normal,350,17.0,22.0,,9999.0,,6.0,5.0,29.99,,,,,,,,,,,,,,,,,2600.0,2600.0,BKN,2600.0,BKN,3300.0,,,,
KRDR,05-13-2014,05:03,SPECI,Variable,350,18.0,25.0,,9999.0,,6.0,5.0,29.99,,,,,,,,,,,,,,,,,2200.0,2400.0,SCT,2400.0,BKN,3300.0,OVC,9100.0,,
KRDR,05-13-2014,04:58,METAR,Normal,350,16.0,25.0,350/26KTS,9999.0,,5.8,5.7,29.99,1016.8,,,,,,,,,,,TRACE,,,,,2200.0,2100.0,FEW,2100.0,BKN,2800.0,OVC,9100.0,,
KRDR,05-13-2014,04:57,SPECI,Normal,350,17.0,25.0,,9999.0,,6.0,6.0,29.99,,,,,,,,,,,,,,,,,2200.0,2100.0,FEW,2100.0,BKN,2800.0,OVC,9100.0,,
KRDR,05-13-2014,04:52,SPECI,Variable,350,18.0,25.0,,9999.0,,6.0,6.0,29.99,,,,,,,,,,,,,,,,,5000.0,2100.0,FEW,2100.0,BKN,5000.0,OVC,9100.0,,
KRDR,05-13-2014,04:43,SPECI,Normal,350,18.0,25.0,,9999.0,,6.0,6.0,29.99,,,,,,,,,,,,,,,,,2400.0,2600.0,SCT,2600.0,BKN,5000.0,OVC,9100.0,,
KRDR,05-13-2014,04:38,SPECI,Normal,350,20.0,23.0,,9999.0,,6.0,6.0,29.99,,,,,,,,,,,,,,,,,2600.0,1700.0,FEW,1700.0,BKN,2700.0,OVC,7000.0,,
KRDR,05-13-2014,03:58,METAR,Normal,360,16.0,21.0,,9999.0,Light Rain,6.0,5.9,30.00,1017.1,61,,,,,,,,,,.02 IN,,,,,1900.0,1900.0,OVC,1900.0,,,,,,
KRDR,05-13-2014,02:58,METAR,Variable,360,13.0,22.0,340/26KTS,9999.0,Light Rain,6.1,6.0,30.01,1017.5,61,,,,,,,,,,.02 IN,.05 IN,,,,1800.0,1800.0,OVC,1800.0,,,,,,
KRDR,05-13-2014,01:58,METAR,Normal,350,19.0,24.0,340/27KTS,9999.0,Light Rain,6.2,6.1,29.99,1016.8,61,,,,,,,,,,.02 IN,,,,,1700.0,1700.0,OVC,1700.0,,,,,,
KRDR,05-13-2014,01:08,SPECI,Normal,360,19.0,26.0,,9999.0,Light Rain,7.0,6.0,29.99,,61,,,,,,,,,,,,,,,1500.0,1500.0,OVC,1500.0,,,,,,
KRDR,05-13-2014,00:58,METAR,Normal,360,17.0,27.0,330/30KTS,9999.0,Light Rain,6.5,6.4,29.99,1016.8,61,,,,,,,,,,.01 IN,,,,,1400.0,1400.0,OVC,1400.0,,,,,,
KRDR,05-13-2014,00:38,SPECI,Normal,350,16.0,26.0,,9999.0,Light Rain,7.0,6.0,29.98,,61,,,,,,,,,,,,,,,1400.0,1400.0,OVC,1400.0,,,,,,
KRDR,05-13-2014,00:28,SPECI,Normal,350,16.0,25.0,,9999.0,Light Rain,7.0,6.0,29.99,,61,,,,,,,,,,,,,,,1500.0,1500.0,OVC,1500.0,,,,,,
KRDR,05-13-2014,00:23,SPECI,Normal,350,17.0,21.0,,9999.0,Light Rain,7.0,6.0,29.99,,61,,,,,,,,,,,,,,,1400.0,1400.0,OVC,1400.0,,,,,,
KRDR,05-12-2014,23:58,METAR,Normal,360,17.0,28.0,350/30KTS,9999.0,Light Rain,6.8,6.7,29.98,1016.4,61,,,,,,,,,,.04 IN,,.25 IN,,,1700.0,1700.0,OVC,1700.0,,,,,,
KRDR,05-12-2014,23:17,SPECI,Normal,360,21.0,27.0,,9999.0,Unknown Precipitation,7.0,6.0,29.98,,40,,,,,,,,,,,,,,,1600.0,1000.0,FEW,1000.0,OVC,1600.0,,,,
KRDR,05-12-2014,23:16,SPECI,Normal,360,22.0,27.0,,9999.0,Unknown Precipitation,7.0,6.0,29.98,,40,,,,,,,,,,,,,,,1300.0,1300.0,BKN,1300.0,OVC,1800.0,,,,
KRDR,05-12-2014,23:11,SPECI,Variable,350,20.0,27.0,,9999.0,Unknown Precipitation,7.0,6.0,29.98,,40,,,,,,,,,,,,,,,1500.0,1000.0,FEW,1000.0,OVC,1500.0,,,,
KRDR,05-12-2014,22:58,METAR,Normal,360,21.0,28.0,360/29KTS,9999.0,Unknown Precipitation,6.7,6.6,29.97,1016.1,40,,,,,,,,,,.05 IN,,,,,1500.0,1500.0,OVC,1500.0,,,,,,
KRDR,05-12-2014,22:48,SPECI,Normal,360,20.0,27.0,,9999.0,Unknown Precipitation,7.0,7.0,29.97,,40,,,,,,,,,,,,,,,1500.0,1500.0,OVC,1500.0,,,,,,
KRDR,05-12-2014,21:58,METAR,Normal,360,21.0,29.0,340/32KTS,9999.0,Unknown Precipitation,6.7,6.6,29.97,1016.1,40,,,,,,,,,,.05 IN,,,,,1300.0,1300.0,OVC,1300.0,,,,,,
KRDR,05-12-2014,20:58,METAR,Normal,10,23.0,29.0,350/30KTS,9999.0,Unknown Precipitation,6.5,6.4,29.97,1016.2,40,,,,,,,,,,.05 IN,.11 IN,,,,1200.0,1200.0,OVC,1200.0,,,,,,
KRDR,05-12-2014,20:36,SPECI,Normal,10,23.0,28.0,,9999.0,Unknown Precipitation,6.0,6.0,29.96,,40,,,,,,,,,,,,,,,1200.0,1200.0,OVC,1200.0,,,,,,
KRDR,05-12-2014,20:26,SPECI,Normal,10,16.0,25.0,,9999.0,Unknown Precipitation,7.0,6.0,29.96,,40,,,,,,,,,,,,,,,1100.0,1100.0,OVC,1100.0,,,,,,
KRDR,05-12-2014,19:58,METAR,Normal,360,17.0,28.0,350/32KTS,9999.0,Unknown Precipitation,6.6,6.4,29.96,1015.8,40,,,,,,,,,,.04 IN,,,,,1200.0,1200.0,OVC,1200.0,,,,,,
KRDR,05-12-2014,19:39,SPECI,Normal,360,23.0,28.0,,9999.0,Unknown Precipitation,7.0,6.0,29.96,,40,,,,,,,,,,,,,,,1200.0,1200.0,OVC,1200.0,,,,,,
KRDR,05-12-2014,19:29,SPECI,Normal,360,20.0,25.0,,9999.0,Unknown Precipitation,7.0,7.0,29.96,,40,,,,,,,,,,,,,,,1100.0,1100.0,OVC,1100.0,,,,,,
KRDR,05-12-2014,19:23,SPECI,Normal,360,16.0,27.0,,9999.0,Light Rain,7.0,7.0,29.96,,61,,,,,,,,,,,,,,,1200.0,1200.0,OVC,1200.0,,,,,,
KRDR,05-12-2014,18:58,METAR,Normal,360,21.0,29.0,350/30KTS,9999.0,Unknown Precipitation,6.5,6.3,29.96,1015.8,40,,,,,,,,,,.02 IN,,,,,1000.0,1000.0,OVC,1000.0,,,,,,
KRDR,05-12-2014,17:58,METAR,Normal,360,20.0,26.0,350/28KTS,9999.0,Light Rain,6.1,6.0,29.96,1015.8,61,,,,,,,,,,.03 IN,,.14 IN,,,1000.0,1000.0,OVC,1000.0,,,,,,
KRDR,05-12-2014,17:53,SPECI,Normal,360,20.0,28.0,,9999.0,Light Rain,6.0,6.0,29.96,,61,,,,,,,,,,,,,,,1000.0,1000.0,OVC,1000.0,,,,,,
KRDR,05-12-2014,16:58,METAR,Variable,350,19.0,24.0,360/26KTS,9999.0,Light Rain,5.7,5.5,29.97,1016.1,61,,,,,,,,,,.03 IN,,,,,800.0,800.0,OVC,800.0,,,,,,
KRDR,05-12-2014,15:56,METAR,Normal,360,19.0,,340/26KTS,9999.0,Light Rain,5.0,5.0,29.98,1016.4,61,,,,,,,,,,.03 IN,,,,,900.0,900.0,OVC,900.0,,,,,,
KRDR,05-12-2014,14:58,METAR,Normal,360,16.0,21.0,,9999.0,Light Rain,5.2,5.0,29.96,1015.8,61,,,,,,,,,,.03 IN,.05 IN,,,,800.0,800.0,OVC,800.0,,,,,,
KRDR,05-12-2014,13:58,METAR,Normal,10,16.0,,,9999.0,Light Rain,4.8,4.7,29.97,1016.0,61,,,,,,,,,,TRACE,,,,,800.0,800.0,OVC,800.0,,,,,,
KRDR,05-12-2014,12:58,METAR,Normal,360,15.0,,,9999.0,Light Rain,4.6,4.5,29.97,1015.9,61,,,,,,,,,,.02 IN,,,,,900.0,900.0,OVC,900.0,,,,,,
KRDR,05-12-2014,11:58,METAR,Normal,360,16.0,19.0,,9999.0,Light Rain,4.4,4.2,29.95,1015.3,61,,,,,,,,,,.02 IN,,.11 IN,.11 IN,,900.0,900.0,OVC,900.0,,,,,,
KRDR,05-12-2014,10:58,METAR,Normal,360,15.0,23.0,,9999.0,Light Rain,4.3,4.2,29.95,1015.2,61,,,,,,,,,,.01 IN,,,,,900.0,900.0,OVC,900.0,,,,,,
KRDR,05-12-2014,09:58,METAR,Normal,360,15.0,,,9999.0,Light Rain,4.3,4.2,29.95,1015.1,61,,,,,,,,,,.03 IN,,,,,800.0,800.0,OVC,800.0,,,,,,
KRDR,05-12-2014,08:58,METAR,Normal,360,14.0,,,9999.0,Light Rain,4.4,4.3,29.96,1015.5,61,,,,,,,,,,.02 IN,.05 IN,,,,900.0,900.0,OVC,900.0,,,,,,
KRDR,05-12-2014,07:58,METAR,Normal,360,13.0,21.0,,9999.0,Light Rain,4.4,4.3,29.95,1015.2,61,,,,,,,,,,.02 IN,,,,,900.0,900.0,OVC,900.0,,,,,,
KRDR,05-12-2014,06:58,METAR,Normal,360,14.0,19.0,,9999.0,Light Rain,4.6,4.4,29.98,1016.2,61,,,,,,,,,,.01 IN,,,,,800.0,800.0,OVC,800.0,,,,,,
KRDR,05-12-2014,06:16,SPECI,Normal,360,13.0,19.0,,9999.0,,5.0,5.0,29.98,,,,,,,,,,,,,,,,,900.0,900.0,OVC,900.0,,,,,,
KRDR,05-12-2014,06:13,SPECI,Normal,360,12.0,19.0,,9999.0,,5.0,5.0,29.98,,,,,,,,,,,,,,,,,900.0,900.0,OVC,900.0,,,,,,
KRDR,05-12-2014,05:58,METAR,Normal,350,12.0,,,9999.0,Light Drizzle,4.9,4.8,29.98,1016.2,51,,,,,,,,,,TRACE,,TRACE,,,800.0,800.0,OVC,800.0,,,,,,
KRDR,05-12-2014,05:37,SPECI,Normal,350,10.0,,,9999.0,Light Drizzle,5.0,5.0,29.98,,51,,,,,,,,,,,,,,,900.0,900.0,BKN,900.0,OVC,1300.0,,,,
KRDR,05-12-2014,05:22,SPECI,Normal,350,12.0,19.0,,9999.0,,5.0,5.0,29.98,,,,,,,,,,,,,,,,,1100.0,1100.0,OVC,1100.0,,,,,,
KRDR,05-12-2014,05:06,SPECI,Normal,360,13.0,,,9999.0,Unknown Precipitation,6.0,5.0,29.98,,40,,,,,,,,,,,,,,,1200.0,1200.0,OVC,1200.0,,,,,,
KRDR,05-12-2014,04:58,METAR,Normal,360,12.0,,,9999.0,,5.9,4.7,29.98,1016.2,,,,,,,,,,,,,,,,1300.0,1300.0,OVC,1300.0,,,,,,
KRDR,05-12-2014,03:58,METAR,Normal,360,15.0,24.0,350/27KTS,9999.0,,6.6,5.1,29.98,1016.2,,,,,,,,,,,,,,,,1400.0,1400.0,BKN,1400.0,OVC,3700.0,,,,
KRDR,05-12-2014,03:33,SPECI,Normal,360,16.0,23.0,,9999.0,,7.0,5.0,29.97,,,,,,,,,,,,,,,,,1400.0,1400.0,BKN,1400.0,BKN,3600.0,OVC,6000.0,,
KRDR,05-12-2014,03:28,SPECI,Normal,350,19.0,23.0,,9999.0,,7.0,5.0,29.97,,,,,,,,,,,,,,,,,1500.0,1500.0,BKN,1500.0,BKN,3600.0,OVC,6000.0,,
KRDR,05-12-2014,03:13,SPECI,Variable,350,16.0,26.0,,9999.0,,7.0,5.0,29.97,,,,,,,,,,,,,,,,,3700.0,1500.0,SCT,1500.0,BKN,3700.0,OVC,7000.0,,
KRDR,05-12-2014,03:08,SPECI,Variable,360,18.0,27.0,,9999.0,,7.0,5.0,29.97,,,,,,,,,,,,,,,,,1500.0,1500.0,BKN,1500.0,BKN,3700.0,OVC,7000.0,,
KRDR,05-12-2014,02:58,METAR,Normal,350,18.0,23.0,360/26KTS,9999.0,,7.5,5.5,29.97,1015.8,,,,,,,,,,,,,,,,3600.0,1600.0,SCT,1600.0,BKN,3600.0,OVC,7000.0,,
KRDR,05-12-2014,02:13,SPECI,Normal,350,21.0,26.0,,9999.0,,8.0,6.0,29.96,,,,,,,,,,,,,,,,,3000.0,3000.0,OVC,3000.0,,,,,,
KRDR,05-12-2014,01:58,METAR,Variable,350,18.0,26.0,340/27KTS,9999.0,,8.5,5.6,29.95,1015.2,,,,,,,,,,,,,,,,2800.0,2900.0,BKN,2900.0,BKN,5500.0,,,,
KRDR,05-12-2014,01:53,SPECI,Normal,360,18.0,23.0,,9999.0,,9.0,6.0,29.95,,,,,,,,,,,,,,,,,2800.0,2800.0,BKN,2800.0,BKN,5500.0,,,,
KRDR,05-12-2014,00:58,METAR,Variable,360,20.0,23.0,,9999.0,,10.1,6.7,29.93,1014.4,,,,,,,,,,,,,,,,3700.0,3700.0,BKN,3700.0,,,,,,
KRDR,05-12-2014,00:23,SPECI,Normal,360,13.0,,,9999.0,,11.0,8.0,29.92,,,,,,,,,,,,,,,,,3100.0,3100.0,OVC,3100.0,,,,,,
KRDR,05-12-2014,00:03,SPECI,Normal,360,14.0,19.0,,9999.0,,11.0,8.0,29.92,,,,,,,,,,,,,,,,,2600.0,2800.0,BKN,2800.0,OVC,3600.0,,,,
KRDR,05-11-2014,23:58,METAR,Variable,360,15.0,19.0,,9999.0,,11.2,7.9,29.92,1014.1,,,,,,,,,,,,,,,,2600.0,2600.0,BKN,2600.0,OVC,3600.0,,,,
KRDR,05-11-2014,23:38,SPECI,Normal,360,14.0,,,9999.0,,12.0,8.0,29.91,,,,,,,,,,,,,,,,,2600.0,2600.0,BKN,2600.0,BKN,7000.0,,,,
KRDR,05-11-2014,22:58,METAR,Normal,360,14.0,,,9999.0,,13.1,7.8,29.91,1013.7,,,,,,,,,,,,,,,,3500.0,3300.0,SCT,3300.0,BKN,8000.0,,,,
KRDR,05-11-2014,22:13,SPECI,Normal,350,14.0,,,9999.0,,14.0,9.0,29.91,,,,,,,,,,,,,,,,,8000.0,2700.0,SCT,2700.0,OVC,8000.0,,,,
KRDR,05-11-2014,21:58,METAR,Normal,350,12.0,,,9999.0,,14.7,8.9,29.91,1013.6,,,,,,,,,,,,,,,,2700.0,2700.0,OVC,2700.0,,,,,,
KRDR,05-11-2014,21:23,SPECI,Normal,350,11.0,,,9999.0,,15.0,9.0,29.90,,,,,,,,,,,,,,,,,2600.0,2600.0,BKN,2600.0,BKN,4900.0,,,,
KRDR,05-11-2014,21:18,SPECI,Normal,350,12.0,,,9999.0,,14.0,9.0,29.89,,,,,,,,,,,,,,,,,3100.0,2400.0,SCT,2400.0,BKN,3100.0,BKN,4900.0,,
KRDR,05-11-2014,21:08,SPECI,Normal,350,13.0,,,9999.0,,14.0,9.0,29.89,,,,,,,,,,,,,,,,,2300.0,2300.0,SCT,2300.0,BKN,2900.0,BKN,4900.0,,
KRDR,05-11-2014,20:58,METAR,Normal,350,11.0,,,9999.0,,13.8,9.2,29.89,1012.9,,,,,,,,,,,,,,,,2200.0,2300.0,BKN,2300.0,,,,,,
KRDR,05-11-2014,20:53,SPECI,Normal,330,12.0,,,9999.0,,14.0,9.0,29.89,,,,,,,,,,,,,,,,,2200.0,2200.0,BKN,2200.0,,,,,,
KRDR,05-11-2014,20:03,SPECI,Normal,330,13.0,,,9999.0,,14.0,11.0,29.89,,,,,,,,,,,,,,,,,4600.0,2100.0,FEW,2100.0,SCT,2600.0,BKN,4600.0,,
KRDR,05-11-2014,19:58,METAR,Normal,330,11.0,,,9999.0,,13.9,10.9,29.89,1012.9,,,,,,,,,,,,,,,,2200.0,2100.0,SCT,2100.0,BKN,2700.0,BKN,4600.0,,
KRDR,05-11-2014,18:58,METAR,Variable,350,8.0,,,9999.0,,12.8,10.4,29.90,1013.2,,,,,,,,,,,,,,,,2200.0,2200.0,OVC,2200.0,,,,,,
KRDR,05-11-2014,17:58,METAR,Normal,350,9.0,,,9999.0,,12.6,10.1,29.88,1012.6,,,,,,,,,,,,,,,,2400.0,2400.0,OVC,2400.0,,,,,,
KRDR,05-11-2014,16:58,METAR,Normal,350,7.0,,,9999.0,,13.3,9.9,29.89,1012.9,,,,,,,,,,,,,,,,2600.0,1800.0,FEW,1800.0,OVC,2600.0,,,,
KRDR,05-11-2014,15:58,METAR,Normal,20,6.0,,,9999.0,,13.0,9.3,29.87,1012.2,,,,,,,,,,,,,,,,2700.0,2700.0,BKN,2700.0,,,,,,
KRDR,05-11-2014,15:43,SPECI,Normal,10,10.0,,,9999.0,,13.0,9.0,29.85,,,,,,,,,,,,,,,,,2700.0,2700.0,BKN,2700.0,,,,,,
KRDR,05-11-2014,14:58,METAR,Normal,360,11.0,,,9999.0,,11.6,8.7,29.84,1011.2,,,,,,,,,,,,,,,,,1600.0,FEW,1600.0,SCT,3100.0,,,,
KRDR,05-11-2014,14:43,SPECI,Normal,360,12.0,,,9999.0,,11.0,8.0,29.84,,,,,,,,,,,,,,,,,,1600.0,SCT,1600.0,,,,,,
KRDR,05-11-2014,14:28,SPECI,Normal,360,13.0,,,9999.0,,11.0,8.0,29.83,,,,,,,,,,,,,,,,,1600.0,1600.0,BKN,1600.0,,,,,,
KRDR,05-11-2014,13:58,METAR,Normal,360,14.0,,,9999.0,,10.3,8.8,29.82,1010.6,,,,,,,,,,,,,,,Clear,72000.0,,,,,,,,,
KRDR,05-11-2014,12:58,METAR,Normal,350,11.0,,,9999.0,,8.9,8.8,29.82,1010.6,,,,,,,,,,,,,,,,,1900.0,FEW,1900.0,,,,,,
KRDR,05-11-2014,11:58,METAR,Normal,20,9.0,,,9999.0,,8.5,8.3,29.80,1009.8,,,,,,,,,,,,,.02 IN,.04 IN,,,7000.0,SCT,7000.0,,,,,,
KRDR,05-11-2014,10:58,METAR,Normal,40,9.0,,,9999.0,,8.9,,29.78,1009.1,,,,,,,,,,,,,,,,,6500.0,FEW,6500.0,,,,,,
KRDR,05-11-2014,09:58,METAR,Normal,10,7.0,,,9999.0,,10.0,9.9,29.76,1008.3,,,,,,,,,,,,,,,,3900.0,3900.0,OVC,3900.0,,,,,,
KRDR,05-11-2014,08:58,METAR,Normal,60,5.0,,,9999.0,,11.4,11.3,29.74,1007.7,,,,,,,,,,,.02 IN,.02 IN,,,,7500.0,5500.0,SCT,5500.0,BKN,7500.0,,,,
KRDR,05-11-2014,08:50,SPECI,Normal,70,6.0,,,9999.0,,11.0,11.0,29.74,,,,,,,,,,,,,,,,,7500.0,5500.0,SCT,5500.0,BKN,7500.0,,,,
KRDR,05-11-2014,08:49,SPECI,Normal,70,6.0,,,9999.0,Light Rain,12.0,11.0,29.74,,61,,,,,,,,,,,,,,,7500.0,5500.0,SCT,5500.0,BKN,7500.0,,,,
KRDR,05-11-2014,08:34,SPECI,Normal,60,6.0,,,9999.0,Light Rain,12.0,12.0,29.74,,61,,,,,,,,,,,,,,,5500.0,3500.0,SCT,3500.0,OVC,5500.0,,,,
KRDR,05-11-2014,08:19,SPECI,Normal,80,6.0,,,9999.0,Light Rain,12.0,11.0,29.74,,61,,,,,,,,,,,,,,,3500.0,3500.0,BKN,3500.0,OVC,5500.0,,,,
KRDR,05-11-2014,07:58,METAR,Normal,80,7.0,,,9999.0,,12.0,11.3,29.74,1007.6,,,,,,,,,,,,,,,,3500.0,3500.0,OVC,3500.0,,,,,,
KRDR,05-11-2014,06:58,METAR,Normal,80,8.0,,,9999.0,,12.2,11.3,29.74,1007.6,,,,,,,,,,,,,,,,7000.0,7000.0,OVC,7000.0,,,,,,
KRDR,05-11-2014,05:58,METAR,Normal,90,8.0,,,9999.0,,12.1,11.5,29.74,1007.7,,,,,,,,,,,TRACE,,.02 IN,,,7000.0,7000.0,BKN,7000.0,,,,,,
KRDR,05-11-2014,05:14,SPECI,Normal,80,7.0,,,9999.0,,12.0,11.0,29.74,,,,,,,,,,,,,,,,,9000.0,4700.0,FEW,4700.0,SCT,7500.0,BKN,9100.0,,
KRDR,05-11-2014,04:58,METAR,Normal,100,8.0,,,9999.0,Light Drizzle,12.3,11.2,29.74,1007.7,51,,,,,,,,,,.02 IN,,,,,7000.0,4900.0,SCT,4900.0,OVC,7000.0,,,,
KRDR,05-11-2014,04:35,SPECI,Normal,110,6.0,,,9999.0,Light Drizzle,13.0,10.0,29.74,,51,,,,,,,,,,,,,,,7000.0,7000.0,BKN,7000.0,OVC,9100.0,,,,
KRDR,05-11-2014,04:19,SPECI,Normal,100,8.0,,,9999.0,,13.0,10.0,29.74,,,,,,,,,,,,,,,,,7000.0,5500.0,SCT,5500.0,BKN,7000.0,OVC,8600.0,,
KRDR,05-11-2014,04:13,SPECI,Normal,100,8.0,,,9999.0,Light Drizzle,13.0,10.0,29.74,,51,,,,,,,,,,,,,,,5500.0,5500.0,BKN,5500.0,OVC,7000.0,,,,
KRDR,05-11-2014,04:03,SPECI,Normal,100,11.0,,,9999.0,Light Rain,13.0,10.0,29.74,,61,,,,,,,,,,,,,,,7000.0,5000.0,SCT,5000.0,OVC,7000.0,,,,
KRDR,05-11-2014,03:58,METAR,Normal,100,9.0,,,9999.0,Light Rain,14.2,8.3,29.74,1007.7,61,,,,,,,,,,TRACE,,,,,7000.0,5500.0,FEW,5500.0,OVC,7000.0,,,,
KRDR,05-11-2014,03:55,SPECI,Normal,100,10.0,,,9999.0,Light Rain,14.0,8.0,29.74,,61,,,,,,,,,,,,,,,7000.0,5500.0,FEW,5500.0,OVC,7000.0,,,,
KRDR,05-11-2014,03:25,SPECI,Normal,70,8.0,,,9999.0,,14.0,9.0,29.74,,,,,,,,,,,,,,,,,6500.0,3300.0,FEW,3300.0,OVC,6500.0,,,,
KRDR,05-11-2014,03:08,SPECI,Normal,60,8.0,,,9999.0,,14.0,9.0,29.74,,,,,,,,,,,,,,,,,6500.0,3000.0,FEW,3000.0,OVC,6500.0,,,,
KRDR,05-11-2014,02:58,METAR,Normal,60,7.0,,,9999.0,,14.3,7.8,29.73,1007.3,,,,,,,,,,,,TRACE,,,,6500.0,6500.0,OVC,6500.0,,,,,,
KRDR,05-11-2014,01:58,METAR,Normal,80,4.0,,,9999.0,,14.2,8.6,29.71,1006.7,,,,,,,,,,,,,,,,7500.0,7500.0,OVC,7500.0,,,,,,
KRDR,05-11-2014,00:58,METAR,Normal,130,7.0,,,9999.0,,14.2,9.7,29.71,1006.8,,,,,,,,,,,TRACE,,,,,6500.0,6500.0,BKN,6500.0,OVC,9600.0,,,,
KRDR,05-11-2014,00:46,SPECI,Normal,160,7.0,,,9999.0,,14.0,9.0,29.71,,,,,,,,,,,,,,,,,6500.0,1100.0,FEW,1100.0,OVC,6500.0,,,,
KRDR,05-11-2014,00:35,SPECI,Normal,170,7.0,,,9999.0,,14.0,10.0,29.71,,,,,,,,,,,,,,,,,7000.0,2800.0,FEW,2800.0,BKN,7000.0,,,,
KRDR,05-11-2014,00:16,SPECI,Normal,180,10.0,,,9999.0,Light Rain,17.0,7.0,29.71,,61,,,,,,,,,,,,,,,8000.0,6000.0,FEW,6000.0,OVC,8000.0,,,,
KRDR,05-10-2014,23:58,METAR,Normal,200,6.0,,,9999.0,,17.0,6.3,29.71,1006.9,,,,,,,,,,,TRACE,,TRACE,,,8000.0,8000.0,OVC,8000.0,,,,,,
KRDR,05-10-2014,23:14,SPECI,Normal,150,4.0,,,9999.0,,18.0,6.0,29.71,,,,,,,,,,,,,,,,,7000.0,5000.0,FEW,5000.0,BKN,7000.0,OVC,9100.0,,
KRDR,05-10-2014,23:04,SPECI,Normal,130,6.0,,,9999.0,Light Rain,19.0,2.0,29.70,,61,,,,,,,,,,,,,,,9000.0,7000.0,FEW,7000.0,OVC,9100.0,,,,
KRDR,05-10-2014,22:58,METAR,Normal,140,7.0,,,9999.0,,19.2,0.4,29.70,1006.5,,,,,,,,,,,,,,,,9000.0,9000.0,BKN,9100.0,OVC,12000.0,,,,
KRDR,05-10-2014,21:58,METAR,Normal,130,11.0,,,9999.0,,20.4,0.7,29.71,1006.8,,,,,,,,,,,,,,,,,11000.0,FEW,11000.0,,,,,,
KRDR,05-10-2014,20:58,METAR,Normal,140,8.0,,,9999.0,,19.1,-0.2,29.72,1007.2,,,,,,,,,,,,,,,Clear,72000.0,,,,,,,,,
KRDR,05-10-2014,19:58,METAR,Normal,130,14.0,19.0,,9999.0,,19.3,2.5,29.72,1007.2,,,,,,,,,,,,,,,Clear,72000.0,,,,,,,,,
KRDR,05-10-2014,19:07,SPECI,Normal,170,12.0,17.0,,9999.0,,19.0,0.0,29.73,,,,,,,,,,,,,,,,Clear,72000.0,,,,,,,,,
KRDR,05-10-2014,18:58,METAR,Normal,150,12.0,17.0,,9999.0,,18.9,1.1,29.73,1007.5,,,,,,,,,,,,,,,Clear,72000.0,,,,,,,,,
KRDR,05-10-2014,17:58,METAR,Normal,150,13.0,20.0,,9999.0,,17.9,1.8,29.74,1007.8,,,,,,,,,,,,,,,Clear,72000.0,,,,,,,,,
KRDR,05-10-2014,16:58,METAR,Normal,150,11.0,,,9999.0,,17.4,-0.2,29.76,1008.5,,,,,,,,,,,,,,,Clear,72000.0,,,,,,,,,
KRDR,05-10-2014,15:58,METAR,Normal,220,9.0,,,9999.0,,16.4,0.6,29.77,1008.9,,,,,,,,,,,,,,,Clear,72000.0,,,,,,,,,
KRDR,05-10-2014,14:58,METAR,Normal,220,9.0,,,9999.0,,15.1,0.6,29.78,1009.2,,,,,,,,,,,,,,,Clear,72000.0,,,,,,,,,
KRDR,05-10-2014,13:58,METAR,Normal,220,8.0,,,9999.0,,12.5,0.0,29.78,1009.2,,,,,,,,,,,,,,,Clear,72000.0,,,,,,,,,
KRDR,05-10-2014,12:58,METAR,Normal,230,5.0,,,9999.0,,8.5,0.8,29.77,1008.9,,,,,,,,,,,,,,,Clear,72000.0,,,,,,,,,
KRDR,05-10-2014,11:58,METAR,Normal,240,6.0,,,9999.0,,5.0,-0.2,29.76,1008.6,,,,,,,,,,,,,,,Clear,72000.0,,,,,,,,,
KRDR,05-10-2014,10:58,METAR,Normal,220,6.0,,,9999.0,,4.0,-1.2,29.75,1008.3,,,,,,,,,,,,,,,Clear,72000.0,,,,,,,,,
KRDR,05-10-2014,09:58,METAR,Normal,230,6.0,,,9999.0,,3.8,-0.7,29.74,1008.0,,,,,,,,,,,,,,,Clear,72000.0,,,,,,,,,
KRDR,05-10-2014,08:58,METAR,Normal,230,5.0,,,9999.0,,4.3,-0.5,29.74,1008.0,,,,,,,,,,,,,,,Clear,72000.0,,,,,,,,,
KRDR,05-10-2014,07:58,METAR,Normal,240,5.0,,,9999.0,,4.0,0.2,29.74,1008.0,,,,,,,,,,,,,,,Clear,72000.0,,,,,,,,,
KRDR,05-10-2014,06:58,METAR,Normal,250,5.0,,,9999.0,,4.7,0.8,29.75,1008.3,,,,,,,,,,,,,,,Clear,72000.0,,,,,,,,,
KRDR,05-10-2014,05:58,METAR,Normal,230,2.0,,,9999.0,,6.3,1.1,29.74,1008.0,,,,,,,,,,,,,,,Clear,72000.0,,,,,,,,,
KRDR,05-10-2014,04:58,METAR,Calm,,0.0,,,9999.0,,7.9,0.8,29.74,1008.0,,,,,,,,,,,,,,,Clear,72000.0,,,,,,,,,
KRDR,05-10-2014,03:58,METAR,Normal,280,5.0,,,9999.0,,8.1,0.7,29.74,1008.0,,,,,,,,,,,,,,,Clear,72000.0,,,,,,,,,
KRDR,05-10-2014,02:58,METAR,Normal,280,8.0,,,9999.0,,7.6,2.5,29.72,1007.4,,,,,,,,,,,,,,,Clear,72000.0,,,,,,,,,
KRDR,05-10-2014,01:58,METAR,Normal,290,5.0,,,9999.0,,11.3,-0.3,29.70,1006.6,,,,,,,,,,,,,,,Clear,72000.0,,,,,,,,,
KRDR,05-10-2014,00:58,METAR,Normal,310,5.0,,,9999.0,,15.3,-1.3,29.69,1006.2,,,,,,,,,,,,,,,Clear,72000.0,,,,,,,,,
KRDR,05-09-2014,23:58,METAR,Normal,330,8.0,,,9999.0,,16.3,-3.0,29.68,1005.9,,,,,,,,,,,,,,,Clear,72000.0,,,,,,,,,
KRDR,05-09-2014,22:58,METAR,Normal,340,11.0,,,9999.0,,16.7,-2.3,29.68,1005.9,,,,,,,,,,,,,,,Clear,72000.0,,,,,,,,,
KRDR,05-09-2014,21:58,METAR,Normal,340,11.0,17.0,,9999.0,,16.2,-2.7,29.67,1005.5,,,,,,,,,,,,,,,Clear,72000.0,,,,,,,,,
KRDR,05-09-2014,20:58,METAR,Normal,360,11.0,,,9999.0,,15.2,-1.6,29.68,1005.9,,,,,,,,,,,,,,,Clear,72000.0,,,,,,,,,
KRDR,05-09-2014,19:58,METAR,Normal,360,11.0,21.0,,9999.0,,14.9,0.0,29.68,1005.9,,,,,,,,,,,,,,,Clear,72000.0,,,,,,,,,
KRDR,05-09-2014,18:58,METAR,Variable,10,13.0,17.0,,9999.0,,14.0,1.2,29.68,1005.9,,,,,,,,,,,,,,,Clear,72000.0,,,,,,,,,
KRDR,05-09-2014,17:58,METAR,Normal,10,15.0,21.0,,9999.0,,13.1,1.2,29.68,1005.9,,,,,,,,,,,,,,,Clear,72000.0,,,,,,,,,
KRDR,05-09-2014,16:58,METAR,Normal,10,15.0,23.0,,9999.0,,12.1,2.1,29.70,1006.6,,,,,,,,,,,,,,,Clear,72000.0,,,,,,,,,
KRDR,05-09-2014,15:58,METAR,Normal,340,16.0,,,9999.0,,10.9,3.6,29.70,1006.7,,,,,,,,,,,,,,,Clear,72000.0,,,,,,,,,
KRDR,05-09-2014,14:58,METAR,Normal,360,16.0,20.0,,9999.0,,9.8,3.9,29.70,1006.7,,,,,,,,,,,,,,,Clear,72000.0,,,,,,,,,
KRDR,05-09-2014,13:58,METAR,Normal,340,11.0,,,9999.0,,7.4,2.9,29.70,1006.7,,,,,,,,,,,,,,,Clear,72000.0,,,,,,,,,
KRDR,05-09-2014,12:58,METAR,Normal,340,10.0,,,9999.0,,6.0,3.5,29.69,1006.5,,,,,,,,,,,,,,,Clear,72000.0,,,,,,,,,
KRDR,05-09-2014,11:58,METAR,Normal,340,10.0,,,9999.0,,4.6,4.0,29.69,1006.5,,,,,,,,,,,,,,.22 IN,Clear,72000.0,,,,,,,,,
KRDR,05-09-2014,10:58,METAR,Normal,350,11.0,,,9999.0,,5.5,5.4,29.68,1006.1,,,,,,,,,,,,,,,,9500.0,9500.0,OVC,9600.0,,,,,,
KRDR,05-09-2014,10:33,SPECI,Normal,350,10.0,,,9999.0,,6.0,6.0,29.68,,,,,,,,,,,,,,,,,9000.0,2300.0,SCT,2300.0,OVC,9100.0,,,,
KRDR,05-09-2014,10:18,SPECI,Normal,360,12.0,,,9999.0,,6.0,6.0,29.68,,,,,,,,,,,,,,,,,2500.0,2500.0,BKN,2500.0,OVC,8000.0,,,,
KRDR,05-09-2014,09:58,METAR,Normal,360,11.0,,,9999.0,,5.9,5.8,29.68,,,,,,,,,,,,,,,,,7500.0,2500.0,FEW,2500.0,OVC,7500.0,,,,
KRDR,05-09-2014,08:58,METAR,Normal,350,12.0,,,9999.0,,6.2,6.1,29.69,1006.4,,,,,,,,,,,,,,,,3400.0,1100.0,FEW,1100.0,BKN,3400.0,OVC,7500.0,,
KRDR,05-09-2014,08:47,SPECI,Normal,360,13.0,,,9999.0,,6.0,6.0,29.69,,,,,,,,,,,,,,,,,3500.0,1100.0,FEW,1100.0,SCT,2900.0,OVC,3500.0,,
KRDR,05-09-2014,08:43,SPECI,Variable,350,11.0,,,9999.0,,6.0,6.0,29.69,,,,,,,,,,,,,,,,,3500.0,2900.0,SCT,2900.0,OVC,3500.0,,,,
KRDR,05-09-2014,08:18,SPECI,Normal,360,13.0,19.0,,9999.0,,6.0,6.0,29.69,,,,,,,,,,,,,,,,,900.0,1000.0,SCT,1000.0,OVC,2900.0,,,,
KRDR,05-09-2014,08:13,SPECI,Normal,360,14.0,19.0,,9999.0,,6.0,6.0,29.69,,,,,,,,,,,,,,,,,1000.0,1000.0,BKN,1000.0,OVC,2900.0,,,,
KRDR,05-09-2014,08:03,SPECI,Normal,360,12.0,17.0,,9999.0,,6.0,6.0,29.69,,,,,,,,,,,,,,,,,900.0,900.0,OVC,900.0,,,,,,
KRDR,05-09-2014,07:58,METAR,Normal,360,12.0,18.0,,9999.0,,6.4,6.3,29.69,1006.5,,,,,,,,,,,,,,,,1000.0,1000.0,OVC,1000.0,,,,,,
KRDR,05-09-2014,07:53,SPECI,Normal,360,14.0,18.0,,9999.0,,6.0,6.0,29.69,,,,,,,,,,,,,,,,,1000.0,1000.0,OVC,1000.0,,,,,,
KRDR,05-09-2014,06:58,METAR,Normal,10,13.0,,,9999.0,,6.6,6.5,29.70,1006.8,,,,,,,,,,,,,,,,800.0,800.0,OVC,800.0,,,,,,
KRDR,05-09-2014,05:58,METAR,Normal,10,15.0,19.0,,9999.0,,6.7,,29.71,1007.1,,,,,,,,,,,TRACE,,.15 IN,,,800.0,800.0,OVC,800.0,,,,,,
KRDR,05-09-2014,05:01,SPECI,Normal,10,14.0,19.0,,9999.0,,7.0,7.0,29.72,,,,,,,,,,,,,,,,,700.0,700.0,OVC,700.0,,,,,,
KRDR,05-09-2014,04:58,METAR,Normal,10,16.0,,,9999.0,Light Rain,6.9,,29.72,1007.5,61,,,,,,,,,,.01 IN,,,,,700.0,700.0,OVC,700.0,,,,,,
KRDR,05-09-2014,04:18,SPECI,Normal,10,15.0,,,9999.0,Light Rain,7.0,7.0,29.73,,61,,,,,,,,,,,,,,,700.0,700.0,OVC,700.0,,,,,,
KRDR,05-09-2014,04:08,SPECI,Normal,20,14.0,,,9999.0,Light Rain,7.0,7.0,29.74,,61,,,,,,,,,,,,,,,600.0,600.0,OVC,600.0,,,,,,
KRDR,05-09-2014,04:03,SPECI,Normal,10,15.0,21.0,,9999.0,Light Rain,7.0,7.0,29.74,,61,,,,,,,,,,,,,,,600.0,600.0,OVC,600.0,,,,,,
KRDR,05-09-2014,03:58,METAR,Normal,360,15.0,21.0,,9999.0,Light Rain,7.0,7.0,29.74,1008.2,61,,,,,,,,,,.01 IN,,,,,600.0,600.0,OVC,600.0,,,,,,
KRDR,05-09-2014,03:53,SPECI,Normal,10,13.0,,,9999.0,Light Rain,7.0,7.0,29.74,,61,,,,,,,,,,,,,,,600.0,600.0,OVC,600.0,,,,,,
KRDR,05-09-2014,03:03,SPECI,Normal,20,14.0,,,9999.0,Light Rain,7.0,7.0,29.76,,61,,,,,,,,,,,,,,,600.0,600.0,OVC,600.0,,,,,,
KRDR,05-09-2014,02:58,METAR,Normal,20,13.0,,,9999.0,Light Rain,7.4,,29.76,1008.9,61,,,,,,,,,,.02 IN,.13 IN,,,,600.0,600.0,OVC,600.0,,,,,,
KRDR,05-09-2014,01:58,METAR,Normal,10,14.0,20.0,,9999.0,Light Rain,7.6,,29.75,1008.4,61,,,,,,,,,,.06 IN,,,,,600.0,600.0,BKN,600.0,BKN,1400.0,OVC,2100.0,,
KRDR,05-09-2014,01:53,SPECI,Normal,10,11.0,20.0,,9999.0,Light Rain,8.0,8.0,29.75,,61,,,,,,,,,,,,,,,600.0,600.0,BKN,600.0,OVC,1400.0,,,,
KRDR,05-09-2014,01:23,SPECI,Normal,20,11.0,,,9999.0,Light Rain/Mist,8.0,8.0,29.77,,61,10,,,,,,,,,,,,,,600.0,600.0,OVC,600.0,,,,,,
KRDR,05-09-2014,01:03,SPECI,Normal,10,13.0,,,9999.0,Light Rain,8.0,8.0,29.77,,61,,,,,,,,,,,,,,,700.0,700.0,BKN,700.0,BKN,1600.0,OVC,2700.0,,
KRDR,05-09-2014,00:58,METAR,Normal,20,10.0,,,9999.0,Light Rain,7.8,,29.77,1009.2,61,,,,,,,,,,.05 IN,,,,,700.0,700.0,SCT,700.0,BKN,1600.0,OVC,2800.0,,
KRDR,05-09-2014,00:29,SPECI,Normal,20,12.0,,,9999.0,Light Rain,8.0,8.0,29.76,,61,,,,,,,,,,,,,,,1600.0,900.0,FEW,900.0,OVC,1600.0,,,,
KRDR,05-08-2014,23:58,METAR,Normal,20,11.0,,,9999.0,Light Rain,8.2,8.1,29.76,1008.9,61,,,,,,,,,,.01 IN,,.07 IN,,,1800.0,1800.0,OVC,1800.0,,,,,,
KRDR,05-08-2014,23:44,SPECI,Normal,20,11.0,17.0,,9999.0,Light Rain,8.0,8.0,29.76,,61,,,,,,,,,,,,,,,1800.0,1800.0,OVC,1800.0,,,,,,
KRDR,05-08-2014,22:58,METAR,Normal,30,11.0,,,9999.0,,8.5,8.4,29.77,1009.1,,,,,,,,,,,,,,,,1900.0,1900.0,OVC,1900.0,,,,,,
KRDR,05-08-2014,21:58,METAR,Normal,20,11.0,,,9999.0,,8.5,8.3,29.77,1009.1,,,,,,,,,,,TRACE,,,,,1500.0,1500.0,BKN,1500.0,OVC,5000.0,,,,
KRDR,05-08-2014,21:34,SPECI,Normal,20,14.0,22.0,,9999.0,,8.0,8.0,29.78,,,,,,,,,,,,,,,,,1200.0,1200.0,BKN,1200.0,BKN,5000.0,OVC,6500.0,,
KRDR,05-08-2014,21:19,SPECI,Normal,10,15.0,,,9999.0,,8.0,8.0,29.77,,,,,,,,,,,,,,,,,1000.0,1000.0,OVC,1000.0,,,,,,
KRDR,05-08-2014,21:08,SPECI,Normal,20,15.0,,,9999.0,Light Rain,9.0,8.0,29.77,,61,,,,,,,,,,,,,,,900.0,900.0,BKN,900.0,BKN,1300.0,OVC,6500.0,,
KRDR,05-08-2014,20:58,METAR,Normal,10,15.0,,,9999.0,Light Rain,8.7,8.6,29.78,1009.5,61,,,,,,,,,,.01 IN,.06 IN,,,,900.0,900.0,BKN,900.0,BKN,1300.0,BKN,6500.0,,
KRDR,05-08-2014,20:53,SPECI,Normal,10,15.0,,,9999.0,Light Rain,9.0,9.0,29.78,,61,,,,,,,,,,,,,,,900.0,1100.0,BKN,1100.0,BKN,6500.0,,,,
KRDR,05-08-2014,20:48,SPECI,Normal,10,13.0,,,9999.0,Light Rain,8.0,8.0,29.77,,61,,,,,,,,,,,,,,,800.0,900.0,SCT,900.0,BKN,1300.0,BKN,6500.0,,
KRDR,05-08-2014,19:58,METAR,Normal,360,11.0,,,9999.0,Light Drizzle,7.3,7.2,29.83,1011.2,51,,,,,,,,,,.03 IN,,,,,800.0,800.0,OVC,800.0,,,,,,
KRDR,05-08-2014,18:58,METAR,Normal,20,13.0,,,9999.0,Light Rain,7.0,6.8,29.85,1011.9,61,,,,,,,,,,.02 IN,,,,,700.0,700.0,OVC,700.0,,,,,,
KRDR,05-08-2014,18:13,SPECI,Normal,10,16.0,,,9999.0,Light Drizzle,7.0,7.0,29.83,,51,,,,,,,,,,,,,,,700.0,700.0,OVC,700.0,,,,,,
KRDR,05-08-2014,17:58,METAR,Normal,10,18.0,,,9999.0,Light Rain,6.8,6.6,29.83,1011.2,61,,,,,,,,,,TRACE,,TRACE,,,600.0,600.0,OVC,600.0,,,,,,
KRDR,05-08-2014,17:24,SPECI,Normal,20,15.0,,,9999.0,Light Drizzle,7.0,7.0,29.85,,51,,,,,,,,,,,,,,,600.0,600.0,OVC,600.0,,,,,,
KRDR,05-08-2014,16:58,METAR,Normal,10,14.0,21.0,,9999.0,,6.7,6.6,29.86,1012.2,,,,,,,,,,,,,,,,600.0,600.0,OVC,600.0,,,,,,
KRDR,05-08-2014,16:33,SPECI,Normal,10,17.0,23.0,,9999.0,,7.0,6.0,29.86,,,,,,,,,,,,,,,,,600.0,600.0,OVC,600.0,,,,,,
KRDR,05-08-2014,15:58,METAR,Normal,30,17.0,21.0,,9999.0,,7.0,6.0,29.85,1011.9,,,,,,,,,,,,,,,,500.0,500.0,OVC,500.0,,,,,,
KRDR,05-08-2014,15:03,SPECI,Normal,20,12.0,,,9999.0,,7.0,7.0,29.86,,,,,,,,,,,,,,,,,600.0,600.0,OVC,600.0,,,,,,
KRDR,05-08-2014,14:58,METAR,Normal,20,16.0,,,9999.0,,6.9,6.8,29.86,1012.2,,,,,,,,,,,,,,,,500.0,500.0,OVC,500.0,,,,,,
KRDR,05-08-2014,14:18,SPECI,Normal,20,14.0,,,9999.0,,7.0,7.0,29.86,,,,,,,,,,,,,,,,,500.0,500.0,OVC,500.0,,,,,,
KRDR,05-08-2014,13:58,METAR,Normal,30,15.0,,,9999.0,,6.6,,29.86,1012.2,,,,,,,,,,,,,,,,400.0,400.0,OVC,400.0,,,,,,
KRDR,05-08-2014,13:28,SPECI,Normal,30,15.0,21.0,,9999.0,,6.0,6.0,29.85,,,,,,,,,,,,,,,,,400.0,400.0,OVC,400.0,,,,,,
KRDR,05-08-2014,12:58,METAR,Normal,20,12.0,,,9999.0,,6.3,,29.87,1012.5,,,,,,,,,,,,,,,,500.0,500.0,OVC,500.0,,,,,,
KRDR,05-08-2014,12:08,SPECI,Normal,10,12.0,,,9999.0,,6.0,6.0,29.85,,,,,,,,,,,,,,,,,500.0,500.0,OVC,500.0,,,,,,
KRDR,05-08-2014,11:58,METAR,Normal,10,12.0,,,9999.0,,6.1,,29.85,1011.9,,,,,,,,,,,,,,.25 IN,,600.0,600.0,OVC,600.0,,,,,,
KRDR,05-08-2014,11:08,SPECI,Normal,360,13.0,18.0,,9999.0,,6.0,6.0,29.83,,,,,,,,,,,,,,,,,600.0,600.0,OVC,600.0,,,,,,
KRDR,05-08-2014,11:03,SPECI,Normal,360,14.0,,,9999.0,,6.0,6.0,29.83,,,,,,,,,,,,,,,,,500.0,500.0,OVC,500.0,,,,,,
KRDR,05-08-2014,10:58,METAR,Normal,360,14.0,,,9999.0,,6.0,,29.83,1011.2,,,,,,,,,,,,,,,,400.0,400.0,OVC,400.0,,,,,,
KRDR,05-08-2014,10:53,SPECI,Normal,360,13.0,,,9999.0,,6.0,6.0,29.83,,,,,,,,,,,,,,,,,400.0,400.0,OVC,400.0,,,,,,
KRDR,05-08-2014,10:33,SPECI,Normal,360,15.0,,,9999.0,,6.0,6.0,29.84,,,,,,,,,,,,,,,,,300.0,300.0,OVC,300.0,,,,,,
KRDR,05-08-2014,10:03,SPECI,Normal,360,10.0,,,9999.0,,6.0,6.0,29.86,,,,,,,,,,,,,,,,,300.0,300.0,OVC,300.0,,,,,,
KRDR,05-08-2014,09:58,METAR,Normal,360,13.0,,,9999.0,,6.3,,29.86,1012.2,,,,,,,,,,,,,,,,300.0,300.0,OVC,300.0,,,,,,
KRDR,05-08-2014,09:48,SPECI,Variable,350,10.0,17.0,,9999.0,,6.0,6.0,29.86,,,,,,,,,,,,,,,,,300.0,300.0,OVC,300.0,,,,,,
KRDR,05-08-2014,09:23,SPECI,Normal,360,10.0,,,9999.0,,6.0,6.0,29.86,,,,,,,,,,,,,,,,,400.0,400.0,OVC,400.0,,,,,,
KRDR,05-08-2014,09:03,SPECI,Normal,360,13.0,,,9999.0,,6.0,6.0,29.87,,,,,,,,,,,,,,,,,200.0,200.0,OVC,200.0,,,,,,
KRDR,05-08-2014,08:58,METAR,Normal,360,12.0,,,9999.0,Mist,6.0,6.0,29.87,1012.5,10,,,,,,,,,,,,,,,200.0,200.0,OVC,200.0,,,,,,
KRDR,05-08-2014,08:53,SPECI,Normal,10,11.0,,,4800.0,Mist,6.0,6.0,29.87,,10,,,,,,,,,,,,,,,200.0,200.0,OVC,200.0,,,,,,
KRDR,05-08-2014,08:43,SPECI,Normal,360,11.0,,,2800.0,Mist,6.0,6.0,29.86,,10,,,,,,,,,,,,,,,200.0,200.0,OVC,200.0,,,,,,
KRDR,05-08-2014,08:18,SPECI,Normal,10,12.0,,,3200.0,Mist,7.0,7.0,29.86,,10,,,,,,,,,,,,,,,200.0,200.0,OVC,200.0,,,,,,
KRDR,05-08-2014,08:13,SPECI,Normal,10,10.0,,,4000.0,Mist,7.0,7.0,29.87,,10,,,,,,,,,,,,,,,200.0,200.0,OVC,200.0,,,,,,
KRDR,05-08-2014,08:03,SPECI,Variable,10,10.0,,,6400.0,Mist,7.0,7.0,29.87,,10,,,,,,,,,,,,,,,300.0,300.0,OVC,300.0,,,,,,
KRDR,05-08-2014,07:58,METAR,Normal,10,9.0,,,9999.0,,6.8,,29.87,1012.5,,,,,,,,,,,,,,,,300.0,300.0,OVC,300.0,,,,,,
KRDR,05-08-2014,07:38,SPECI,Normal,20,11.0,,,9999.0,,7.0,7.0,29.87,,,,,,,,,,,,,,,,,400.0,400.0,OVC,400.0,,,,,,
KRDR,05-08-2014,07:03,SPECI,Normal,20,12.0,,,9999.0,,7.0,7.0,29.84,,,,,,,,,,,,,,,,,300.0,300.0,OVC,300.0,,,,,,
KRDR,05-08-2014,06:58,METAR,Normal,10,13.0,,,9999.0,,7.0,,29.84,1011.4,,,,,,,,,,,,,,,,400.0,400.0,OVC,400.0,,,,,,
KRDR,05-08-2014,06:53,SPECI,Normal,10,12.0,17.0,,9999.0,,7.0,7.0,29.83,,,,,,,,,,,,,,,,,400.0,400.0,OVC,400.0,,,,,,
KRDR,05-08-2014,06:18,SPECI,Normal,20,13.0,,,9999.0,,8.0,8.0,29.84,,,,,,,,,,,,,,,,,400.0,400.0,OVC,400.0,,,,,,
KRDR,05-08-2014,06:03,SPECI,Normal,20,14.0,19.0,,9999.0,,8.0,8.0,29.83,,,,,,,,,,,,,,,,,400.0,400.0,OVC,400.0,,,,,,
KRDR,05-08-2014,05:58,METAR,Normal,10,15.0,19.0,,9999.0,,8.0,,29.83,1011.0,,,,,,,,,,,,,,,,500.0,500.0,OVC,500.0,,,,,,
KRDR,05-08-2014,05:48,SPECI,Normal,10,12.0,,,9999.0,,8.0,8.0,29.83,,,,,,,,,,,,,,,,,500.0,500.0,BKN,500.0,OVC,1500.0,,,,
KRDR,05-08-2014,05:38,SPECI,Normal,10,11.0,17.0,,9999.0,,8.0,8.0,29.84,,,,,,,,,,,,,,,,,600.0,600.0,BKN,600.0,OVC,1300.0,,,,
KRDR,05-08-2014,05:33,SPECI,Normal,10,13.0,17.0,,9999.0,,8.0,8.0,29.83,,,,,,,,,,,,,,,,,600.0,700.0,BKN,700.0,OVC,1400.0,,,,
KRDR,05-08-2014,05:18,SPECI,Normal,360,10.0,,,9999.0,,8.0,8.0,29.84,,,,,,,,,,,,,,,,,1300.0,700.0,SCT,700.0,BKN,1300.0,OVC,5500.0,,
KRDR,05-08-2014,05:08,SPECI,Normal,360,6.0,,,9999.0,,8.0,8.0,29.84,,,,,,,,,,,,,,,,,700.0,700.0,SCT,700.0,BKN,1600.0,OVC,5500.0,,
KRDR,05-08-2014,05:03,SPECI,Normal,360,8.0,,,9999.0,,8.0,8.0,29.84,,,,,,,,,,,,,,,,,700.0,700.0,BKN,700.0,OVC,5500.0,,,,
KRDR,05-08-2014,04:58,METAR,Normal,10,8.0,,,9999.0,,8.0,,29.84,1011.4,,,,,,,,,,,,,,,,5500.0,700.0,SCT,700.0,OVC,5500.0,,,,
KRDR,05-08-2014,04:48,SPECI,Normal,10,7.0,,,9999.0,,8.0,8.0,29.84,,,,,,,,,,,,,,,,,5500.0,600.0,SCT,600.0,OVC,5500.0,,,,
KRDR,05-08-2014,04:23,SPECI,Normal,10,7.0,,,9999.0,,8.0,8.0,29.84,,,,,,,,,,,,,,,,,600.0,600.0,BKN,600.0,OVC,6000.0,,,,
KRDR,05-08-2014,03:58,METAR,Normal,10,9.0,,,9999.0,,8.2,,29.84,1011.4,,,,,,,,,,,,,,,,6000.0,600.0,SCT,600.0,OVC,6000.0,,,,
KRDR,05-08-2014,03:53,SPECI,Normal,10,7.0,,,9999.0,,8.0,8.0,29.84,,,,,,,,,,,,,,,,,6000.0,600.0,SCT,600.0,OVC,6000.0,,,,
KRDR,05-08-2014,03:28,SPECI,Normal,10,7.0,,,9999.0,,8.0,8.0,29.84,,,,,,,,,,,,,,,,,600.0,600.0,BKN,600.0,OVC,6000.0,,,,
KRDR,05-08-2014,03:13,SPECI,Normal,10,8.0,,,9999.0,,8.0,8.0,29.84,,,,,,,,,,,,,,,,,6000.0,700.0,SCT,700.0,OVC,6000.0,,,,
KRDR,05-08-2014,02:58,METAR,Normal,20,8.0,,,9999.0,,8.5,,29.83,1011.0,,,,,,,,,,,,,,,,700.0,700.0,OVC,700.0,,,,,,
KRDR,05-08-2014,02:53,SPECI,Normal,20,8.0,,,9999.0,,9.0,9.0,29.83,,,,,,,,,,,,,,,,,700.0,700.0,OVC,700.0,,,,,,
KRDR,05-08-2014,02:18,SPECI,Normal,10,6.0,,,9999.0,,9.0,9.0,29.83,,,,,,,,,,,,,,,,,600.0,600.0,BKN,600.0,OVC,7000.0,,,,
KRDR,05-08-2014,01:58,METAR,Normal,30,8.0,,,9999.0,,9.0,9.0,29.83,1011.0,,,,,,,,,,,,,,,,6500.0,600.0,FEW,600.0,OVC,6500.0,,,,
KRDR,05-08-2014,01:28,SPECI,Normal,350,8.0,,,9999.0,,9.0,9.0,29.83,,,,,,,,,,,,,,,,,7500.0,600.0,SCT,600.0,OVC,7500.0,,,,
KRDR,05-08-2014,00:58,METAR,Normal,360,9.0,,,9999.0,,9.0,8.9,29.82,1010.8,,,,,,,,,,,,,,,,8000.0,700.0,FEW,700.0,OVC,8000.0,,,,
KRDR,05-08-2014,00:48,SPECI,Normal,10,7.0,,,9999.0,,9.0,9.0,29.82,,,,,,,,,,,,,,,,,8500.0,700.0,SCT,700.0,OVC,8600.0,,,,
KRDR,05-07-2014,23:58,METAR,Normal,30,9.0,,,9999.0,,9.3,9.1,29.80,1010.1,,,,,,,,,,,TRACE,,.25 IN,,,700.0,700.0,BKN,700.0,OVC,1600.0,,,,
KRDR,05-07-2014,23:37,SPECI,Normal,40,9.0,,,9999.0,,9.0,9.0,29.81,,,,,,,,,,,,,,,,,700.0,700.0,BKN,700.0,OVC,1500.0,,,,
KRDR,05-07-2014,23:12,SPECI,Normal,50,7.0,,,9999.0,,9.0,9.0,29.81,,,,,,,,,,,,,,,,,1500.0,600.0,FEW,600.0,OVC,1500.0,,,,
KRDR,05-07-2014,23:02,SPECI,Normal,50,10.0,,,9999.0,,10.0,10.0,29.81,,,,,,,,,,,,,,,,,600.0,700.0,SCT,700.0,OVC,1300.0,,,,
KRDR,05-07-2014,22:58,METAR,Normal,50,10.0,,,9999.0,Light Rain,9.8,,29.80,1010.1,61,,,,,,,,,,.07 IN,,,,,600.0,600.0,BKN,600.0,BKN,1400.0,OVC,5000.0,,
KRDR,05-07-2014,22:53,SPECI,Normal,40,10.0,,,9999.0,Light Rain,10.0,10.0,29.81,,61,,,,,,,,,,,,,,,600.0,600.0,BKN,600.0,BKN,1400.0,OVC,5000.0,,
KRDR,05-07-2014,22:48,SPECI,Normal,30,10.0,,,9999.0,Light Rain,10.0,10.0,29.80,,61,,,,,,,,,,,,,,,600.0,700.0,BKN,700.0,OVC,5500.0,,,,
KRDR,05-07-2014,22:45,SPECI,Normal,20,10.0,,,9999.0,,10.0,10.0,29.80,,,,,,,,,,,,,,,,,600.0,700.0,BKN,700.0,OVC,5500.0,,,,
KRDR,05-07-2014,22:40,SPECI,Normal,10,8.0,,,9999.0,,10.0,10.0,29.80,,,,,,,,,,,,,,,,,600.0,600.0,BKN,600.0,BKN,4200.0,OVC,5000.0,,
KRDR,05-07-2014,22:35,SPECI,Normal,10,8.0,,,9999.0,,10.0,10.0,29.80,,,,,,,,,,,,,,,,,5000.0,600.0,SCT,600.0,BKN,5000.0,OVC,8000.0,,
KRDR,05-07-2014,22:33,SPECI,Normal,10,10.0,,,9999.0,Light Rain,10.0,10.0,29.80,,61,,,,,,,,,,,,,,,5000.0,600.0,SCT,600.0,OVC,5000.0,,,,
KRDR,05-07-2014,21:58,METAR,Normal,20,7.0,,,8000.0,Rain/Mist,9.7,9.7,29.78,1009.4,62,10,,,,,,,,,.11 IN,,,,,500.0,500.0,BKN,500.0,OVC,6000.0,,,,
KRDR,05-07-2014,21:44,SPECI,Normal,20,8.0,,,4800.0,Rain/Mist,10.0,10.0,29.78,,62,10,,,,,,,,,,,,,,500.0,500.0,BKN,500.0,OVC,6000.0,,,,
KRDR,05-07-2014,21:24,SPECI,Normal,360,6.0,,,9999.0,Light Rain/Mist,10.0,10.0,29.80,,61,10,,,,,,,,,,,,,,600.0,600.0,BKN,600.0,OVC,4900.0,,,,
KRDR,05-07-2014,21:04,SPECI,Normal,350,9.0,,,9999.0,Light Rain,10.0,10.0,29.79,,61,,,,,,,,,,,,,,,4900.0,1000.0,FEW,1000.0,OVC,4900.0,,,,
KRDR,05-07-2014,20:58,METAR,Normal,340,10.0,,,9999.0,Light Rain,10.3,10.1,29.79,1009.7,61,,,,,,,,,,.01 IN,.07 IN,,,,5000.0,1600.0,FEW,1600.0,OVC,5000.0,,,,
KRDR,05-07-2014,19:58,METAR,Normal,350,8.0,,,9999.0,Light Rain,10.8,10.3,29.79,1009.7,61,,,,,,,,,,.05 IN,,,,,6500.0,6500.0,OVC,6500.0,,,,,,
KRDR,05-07-2014,19:29,SPECI,Normal,340,7.0,,,9999.0,Light Rain,11.0,10.0,29.79,,61,,,,,,,,,,,,,,,6500.0,4400.0,FEW,4400.0,OVC,6500.0,,,,
KRDR,05-07-2014,19:28,SPECI,Normal,340,7.0,,,,,,,,,,,,,,,,,,,,,,,,,,,,,,,,,
KRDR,05-07-2014,18:58,METAR,Normal,30,4.0,,,9999.0,Light Rain,11.5,8.9,29.79,1009.7,61,,,,,,,,,,.01 IN,,,,,6000.0,6000.0,OVC,6000.0,,,,,,
KRDR,05-07-2014,18:12,SPECI,Normal,70,6.0,,,9999.0,,12.0,7.0,29.78,,,,,,,,,,,,,,,,,9000.0,3900.0,FEW,3900.0,,,,,,
KRDR,05-07-2014,17:58,METAR,Normal,80,9.0,,,9999.0,,12.4,6.7,29.78,1009.3,,,,,,,,,,,,,,,,,9500.0,FEW,9600.0,,,,,,
KRDR,05-07-2014,16:58,METAR,Normal,80,7.0,,,9999.0,,11.3,5.9,29.80,1010.0,,,,,,,,,,,,,,,,6500.0,6500.0,OVC,6500.0,,,,,,
KRDR,05-07-2014,15:58,METAR,Normal,100,5.0,,,9999.0,,11.2,5.4,29.82,1010.6,,,,,,,,,,,,,,,,6000.0,6000.0,OVC,6000.0,,,,,,
KRDR,05-07-2014,14:58,METAR,Normal,70,7.0,,,9999.0,,11.2,5.0,29.81,1010.3,,,,,,,,,,,,,,,,,6500.0,SCT,6500.0,,,,,,
KRDR,05-07-2014,13:58,METAR,Normal,80,6.0,,,9999.0,,9.6,5.1,29.82,1010.7,,,,,,,,,,,,,,,,6000.0,6000.0,BKN,6000.0,BKN,9100.0,,,,
KRDR,05-07-2014,12:58,METAR,Normal,90,6.0,,,9999.0,,8.5,5.5,29.83,1011.0,,,,,,,,,,,,,,,,6000.0,6000.0,OVC,6000.0,,,,,,
KRDR,05-07-2014,11:58,METAR,Normal,90,6.0,,,9999.0,,8.2,5.7,29.83,1011.0,,,,,,,,,,,,,,.18 IN,,6500.0,6500.0,OVC,6500.0,,,,,,
KRDR,05-07-2014,10:58,METAR,Normal,80,6.0,,,9999.0,,8.0,6.2,29.81,1010.3,,,,,,,,,,,,,,,,6000.0,6000.0,OVC,6000.0,,,,,,
KRDR,05-07-2014,09:58,METAR,Normal,90,4.0,,,9999.0,,8.4,6.4,29.82,1010.6,,,,,,,,,,,,,,,,6500.0,6500.0,OVC,6500.0,,,,,,
KRDR,05-07-2014,08:58,METAR,Normal,90,5.0,,,9999.0,,8.8,6.9,29.81,1010.2,,,,,,,,,,,,,,,,6500.0,6500.0,OVC,6500.0,,,,,,
KRDR,05-07-2014,07:58,METAR,Normal,80,3.0,,,9999.0,,8.9,7.4,29.82,1010.6,,,,,,,,,,,,,,,,6000.0,6000.0,OVC,6000.0,,,,,,
KRDR,05-07-2014,06:58,METAR,Normal,100,6.0,,,9999.0,,9.0,7.5,29.82,1010.6,,,,,,,,,,,,,,,,6000.0,6000.0,OVC,6000.0,,,,,,
KRDR,05-07-2014,05:58,METAR,Normal,70,4.0,,,9999.0,,9.2,7.7,29.84,1011.4,,,,,,,,,,,,,,,,6000.0,6000.0,OVC,6000.0,,,,,,
KRDR,05-07-2014,04:58,METAR,Normal,100,6.0,,,9999.0,,9.3,7.8,29.83,1011.1,,,,,,,,,,,,,,,,6000.0,6000.0,OVC,6000.0,,,,,,
KRDR,05-07-2014,03:58,METAR,Normal,90,9.0,,,9999.0,,9.6,7.9,29.84,1011.4,,,,,,,,,,,,,,,,8500.0,6500.0,SCT,6500.0,BKN,8600.0,,,,
KRDR,05-07-2014,02:58,METAR,Normal,100,8.0,,,9999.0,,10.1,7.7,29.84,1011.4,,,,,,,,,,,,,,,,9000.0,9000.0,BKN,9100.0,,,,,,
KRDR,05-07-2014,01:58,METAR,Normal,100,10.0,,,9999.0,,10.4,7.7,29.83,1011.1,,,,,,,,,,,,,,,,9000.0,9000.0,OVC,9100.0,,,,,,
KRDR,05-07-2014,00:58,METAR,Normal,110,10.0,,,9999.0,,11.7,7.9,29.82,1010.8,,,,,,,,,,,,,,,,11000.0,11000.0,BKN,11000.0,,,,,,
KRDR,05-06-2014,23:58,METAR,Normal,120,13.0,,,9999.0,,13.3,7.9,29.81,1010.4,,,,,,,,,,,,,,,,,11000.0,SCT,11000.0,,,,,,
KRDR,05-06-2014,22:58,METAR,Normal,120,13.0,,,9999.0,,14.3,7.2,29.81,1010.4,,,,,,,,,,,,,,,Clear,72000.0,,,,,,,,,
KRDR,05-06-2014,21:58,METAR,Normal,120,11.0,,,9999.0,,13.8,7.3,29.83,1011.0,,,,,,,,,,,,,,,Clear,72000.0,,,,,,,,,
KRDR,05-06-2014,20:58,METAR,Normal,140,10.0,,,9999.0,,13.8,6.8,29.83,1011.0,,,,,,,,,,,,,,,,,11000.0,FEW,11000.0,,,,,,
KRDR,05-06-2014,19:58,METAR,Normal,110,9.0,,,9999.0,,12.7,7.0,29.84,1011.4,,,,,,,,,,,,,,,,,10000.0,SCT,10000.0,,,,,,
KRDR,05-06-2014,18:58,METAR,Normal,130,10.0,,,9999.0,,11.9,7.9,29.86,1012.1,,,,,,,,,,,,,,,,,12000.0,FEW,12000.0,,,,,,
KRDR,05-06-2014,17:58,METAR,Normal,120,9.0,,,9999.0,,9.6,9.4,29.88,1012.8,,,,,,,,,,,,,.18 IN,,,8000.0,6500.0,SCT,6500.0,BKN,8000.0,BKN,9600.0,,
KRDR,05-06-2014,16:58,METAR,Normal,120,7.0,,,9999.0,,8.3,8.2,29.90,1013.6,,,,,,,,,,,TRACE,,,,,7000.0,7000.0,OVC,7000.0,,,,,,
KRDR,05-06-2014,16:22,SPECI,Normal,130,7.0,,,9999.0,,8.0,8.0,29.90,,,,,,,,,,,,,,,,,8000.0,4500.0,FEW,4500.0,SCT,6000.0,OVC,8000.0,,
KRDR,05-06-2014,15:58,METAR,Normal,140,9.0,,,9999.0,Light Rain,7.7,7.5,29.91,1013.9,61,,,,,,,,,,.04 IN,,,,,4900.0,500.0,SCT,500.0,OVC,4900.0,,,,
KRDR,05-06-2014,15:29,SPECI,Normal,150,6.0,,,9999.0,Light Rain,7.0,7.0,29.92,,61,,,,,,,,,,,,,,,5500.0,700.0,FEW,700.0,OVC,5500.0,,,,
KRDR,05-06-2014,13:58,METAR,Normal,110,6.0,,,9999.0,Light Rain,6.7,6.6,29.90,1013.6,61,,,,,,,,,,.06 IN,,,,,5500.0,5500.0,OVC,5500.0,,,,,,
KRDR,05-06-2014,12:58,METAR,Normal,140,7.0,,,9999.0,Light Rain,6.2,6.1,29.92,1014.2,61,,,,,,,,,,.08 IN,,,,,6000.0,6000.0,OVC,6000.0,,,,,,
KRDR,05-06-2014,11:58,METAR,Normal,180,5.0,,,9999.0,Light Rain,6.1,5.9,29.92,1014.2,61,,,,,,,,,,.02 IN,,.02 IN,.02 IN,,6000.0,3500.0,FEW,3500.0,OVC,6000.0,,,,
KRDR,05-06-2014,11:25,SPECI,Normal,140,3.0,,,9999.0,Unknown Precipitation,6.0,5.0,29.91,,40,,,,,,,,,,,,,,,,6500.0,SCT,6500.0,,,,,,
KRDR,05-06-2014,10:58,METAR,Normal,130,4.0,,,9999.0,,6.5,5.2,29.91,1013.8,,,,,,,,,,,,,,,,6500.0,6500.0,BKN,6500.0,,,,,,
KRDR,05-06-2014,09:58,METAR,Normal,130,8.0,,,9999.0,,6.7,5.1,29.90,1013.5,,,,,,,,,,,,,,,,7500.0,7500.0,OVC,7500.0,,,,,,
KRDR,05-06-2014,08:58,METAR,Normal,140,6.0,,,9999.0,,6.7,5.2,29.92,1014.2,,,,,,,,,,,,TRACE,,,,7500.0,7500.0,BKN,7500.0,OVC,12000.0,,,,
KRDR,05-06-2014,07:58,METAR,Normal,130,7.0,,,9999.0,,7.1,5.0,29.93,1014.5,,,,,,,,,,,TRACE,,,,,8000.0,6000.0,SCT,6000.0,BKN,8000.0,,,,
KRDR,05-06-2014,06:58,METAR,Normal,130,9.0,,,9999.0,,7.4,4.5,29.95,1015.3,,,,,,,,,,,,,,,,,9500.0,FEW,9600.0,,,,,,
KRDR,05-06-2014,05:58,METAR,Normal,120,9.0,,,9999.0,,7.7,4.5,29.96,1015.5,,,,,,,,,,,,,,,,,9500.0,FEW,9600.0,,,,,,
KRDR,05-06-2014,04:58,METAR,Normal,100,8.0,,,9999.0,,8.1,5.1,29.97,1015.9,,,,,,,,,,,,,,,,10000.0,10000.0,BKN,10000.0,BKN,12000.0,,,,
KRDR,05-06-2014,03:58,METAR,Normal,80,5.0,,,9999.0,,8.3,4.2,29.98,1016.4,,,,,,,,,,,,,,,,,11000.0,FEW,11000.0,,,,,,
KRDR,05-06-2014,02:58,METAR,Normal,50,1.0,,,9999.0,,7.1,3.7,29.98,1016.4,,,,,,,,,,,,,,,,,12000.0,SCT,12000.0,,,,,,
KRDR,05-06-2014,01:58,METAR,Normal,70,4.0,,,9999.0,,8.9,3.2,29.96,1015.8,,,,,,,,,,,,,,,Clear,72000.0,,,,,,,,,
KRDR,05-06-2014,00:58,METAR,Normal,80,6.0,,,9999.0,,10.4,3.0,29.95,1015.3,,,,,,,,,,,,,,,Clear,72000.0,,,,,,,,,
KRDR,05-05-2014,23:58,METAR,Normal,120,6.0,,,9999.0,,11.4,2.7,29.96,1015.7,,,,,,,,,,,,,,,Clear,72000.0,,,,,,,,,
KRDR,05-05-2014,22:58,METAR,Normal,100,5.0,,,9999.0,,11.5,2.9,29.97,1015.9,,,,,,,,,,,,,,,,3600.0,3600.0,BKN,3600.0,,,,,,
KRDR,05-05-2014,21:58,METAR,Calm,,0.0,,,9999.0,,10.9,2.8,29.98,1016.4,,,,,,,,,,,,,,,,3500.0,3500.0,OVC,3500.0,,,,,,
KRDR,05-05-2014,20:58,METAR,Variable,,2.0,,,9999.0,,10.6,2.8,29.99,1016.7,,,,,,,,,,,,,,,,3400.0,3400.0,OVC,3400.0,,,,,,
KRDR,05-05-2014,20:03,SPECI,Variable,,4.0,,,9999.0,,10.0,3.0,30.01,,,,,,,,,,,,,,,,,3000.0,3000.0,BKN,3000.0,OVC,4000.0,,,,
KRDR,05-05-2014,19:58,METAR,Variable,,1.0,,,9999.0,,10.0,3.0,30.01,1017.4,,,,,,,,,,,,,,,,2900.0,2900.0,BKN,2900.0,OVC,3900.0,,,,
KRDR,05-05-2014,19:43,SPECI,Variable,,2.0,,,9999.0,,10.0,3.0,30.02,,,,,,,,,,,,,,,,,3800.0,2900.0,SCT,2900.0,OVC,3800.0,,,,
KRDR,05-05-2014,19:38,SPECI,Normal,100,4.0,,,9999.0,,11.0,3.0,30.02,,,,,,,,,,,,,,,,,2900.0,2900.0,BKN,2900.0,OVC,3800.0,,,,
KRDR,05-05-2014,19:33,SPECI,Variable,,3.0,,,9999.0,,10.0,3.0,30.02,,,,,,,,,,,,,,,,,3000.0,3000.0,BKN,3000.0,OVC,3600.0,,,,
KRDR,05-05-2014,19:28,SPECI,Normal,50,3.0,,,9999.0,,10.0,3.0,30.02,,,,,,,,,,,,,,,,,2800.0,2800.0,BKN,2800.0,OVC,3600.0,,,,
KRDR,05-05-2014,19:18,SPECI,Variable,,1.0,,,9999.0,,10.0,3.0,30.02,,,,,,,,,,,,,,,,,3500.0,2800.0,SCT,2800.0,OVC,3500.0,,,,
KRDR,05-05-2014,19:08,SPECI,Variable,,2.0,,,9999.0,,9.0,3.0,30.02,,,,,,,,,,,,,,,,,2700.0,2700.0,BKN,2700.0,OVC,3700.0,,,,
KRDR,05-05-2014,18:58,METAR,Variable,,2.0,,,9999.0,,9.0,3.0,30.03,1018.1,,,,,,,,,,,,,,,,2600.0,2400.0,FEW,2400.0,OVC,3400.0,,,,
KRDR,05-05-2014,18:53,SPECI,Variable,,1.0,,,9999.0,,9.0,3.0,30.03,,,,,,,,,,,,,,,,,2400.0,2400.0,SCT,2400.0,BKN,2900.0,OVC,3500.0,,
KRDR,05-05-2014,18:48,SPECI,Normal,160,5.0,,,9999.0,,9.0,4.0,30.03,,,,,,,,,,,,,,,,,2500.0,2400.0,SCT,2400.0,BKN,3000.0,OVC,3500.0,,
KRDR,05-05-2014,18:43,SPECI,Normal,130,4.0,,,9999.0,,9.0,3.0,30.03,,,,,,,,,,,,,,,,,2300.0,2400.0,BKN,2400.0,BKN,3400.0,,,,
KRDR,05-05-2014,17:58,METAR,Variable,,5.0,,,9999.0,,8.8,3.7,30.04,1018.5,,,,,,,,,,,,,,,,1800.0,1800.0,BKN,1800.0,BKN,2300.0,,,,
KRDR,05-05-2014,17:38,SPECI,Normal,150,5.0,,,9999.0,,9.0,5.0,30.05,,,,,,,,,,,,,,,,,1500.0,1500.0,OVC,1500.0,,,,,,
KRDR,05-05-2014,17:03,SPECI,Normal,90,4.0,,,9999.0,,7.0,4.0,30.06,,,,,,,,,,,,,,,,,1100.0,1200.0,BKN,1200.0,OVC,7000.0,,,,
KRDR,05-05-2014,16:58,METAR,Normal,80,6.0,,,9999.0,,7.0,5.0,30.06,1019.2,,,,,,,,,,,,,,,,1200.0,1100.0,SCT,1100.0,OVC,7000.0,,,,
KRDR,05-05-2014,16:53,SPECI,Normal,110,7.0,,,9999.0,,7.0,5.0,30.06,,,,,,,,,,,,,,,,,1000.0,1000.0,BKN,1000.0,OVC,7000.0,,,,
KRDR,05-05-2014,16:43,SPECI,Variable,90,7.0,,,9999.0,,7.0,5.0,30.06,,,,,,,,,,,,,,,,,7000.0,900.0,SCT,900.0,OVC,7000.0,,,,
KRDR,05-05-2014,16:38,SPECI,Normal,80,8.0,,,9999.0,,7.0,5.0,30.06,,,,,,,,,,,,,,,,,900.0,900.0,BKN,900.0,OVC,6500.0,,,,
KRDR,05-05-2014,15:58,METAR,Normal,80,8.0,,,9999.0,,5.2,4.4,30.08,1020.0,,,,,,,,,,,,,,,,800.0,800.0,OVC,800.0,,,,,,
KRDR,05-05-2014,14:58,METAR,Normal,80,6.0,,,9999.0,,4.0,3.9,30.07,1019.6,,,,,,,,,,,,,,,,700.0,700.0,OVC,700.0,,,,,,
KRDR,05-05-2014,13:58,METAR,Normal,70,6.0,,,9999.0,,3.3,3.2,30.07,1019.6,,,,,,,,,,,,,,,,700.0,700.0,OVC,700.0,,,,,,
KRDR,05-05-2014,13:28,SPECI,Normal,80,4.0,,,9999.0,,3.0,3.0,30.08,,,,,,,,,,,,,,,,,700.0,700.0,OVC,700.0,,,,,,
KRDR,05-05-2014,12:58,METAR,Normal,60,5.0,,,9999.0,,2.8,2.7,30.08,1019.9,,,,,,,,,,,,,,,,600.0,600.0,OVC,600.0,,,,,,
KRDR,05-05-2014,11:58,METAR,Normal,70,5.0,,,9999.0,,2.6,2.4,30.07,1019.5,,,,,,,,,,,,,.01 IN,.12 IN,,600.0,600.0,OVC,600.0,,,,,,
KRDR,05-05-2014,11:08,SPECI,Normal,90,7.0,,,9999.0,,3.0,2.0,30.07,,,,,,,,,,,,,,,,,600.0,600.0,OVC,600.0,,,,,,
KRDR,05-05-2014,10:58,METAR,Normal,80,6.0,,,9999.0,,2.6,2.5,30.06,1019.2,,,,,,,,,,,,,,,,500.0,500.0,OVC,500.0,,,,,,
KRDR,05-05-2014,10:23,SPECI,Normal,70,7.0,,,9999.0,,3.0,3.0,30.06,,,,,,,,,,,,,,,,,600.0,600.0,OVC,600.0,,,,,,
KRDR,05-05-2014,10:13,SPECI,Normal,70,7.0,,,9999.0,,3.0,3.0,30.06,,,,,,,,,,,,,,,,,700.0,700.0,OVC,700.0,,,,,,
KRDR,05-05-2014,09:58,METAR,Normal,70,6.0,,,9999.0,,2.8,2.7,30.07,1019.5,,,,,,,,,,,,,,,,600.0,600.0,OVC,600.0,,,,,,
KRDR,05-05-2014,09:48,SPECI,Normal,70,5.0,,,9999.0,,3.0,3.0,30.07,,,,,,,,,,,,,,,,,600.0,600.0,OVC,600.0,,,,,,
KRDR,05-05-2014,09:13,SPECI,Normal,60,5.0,,,9999.0,,3.0,3.0,30.07,,,,,,,,,,,,,,,,,700.0,700.0,OVC,700.0,,,,,,
KRDR,05-05-2014,09:03,SPECI,Normal,50,5.0,,,9999.0,,3.0,3.0,30.06,,,,,,,,,,,,,,,,,600.0,600.0,BKN,600.0,OVC,1900.0,,,,
KRDR,05-05-2014,08:58,METAR,Normal,60,6.0,,,9999.0,,2.7,2.6,30.06,1019.2,,,,,,,,,,,,.01 IN,,,,700.0,700.0,BKN,700.0,OVC,1900.0,,,,
KRDR,05-05-2014,08:53,SPECI,Normal,70,5.0,,,9999.0,,3.0,3.0,30.06,,,,,,,,,,,,,,,,,700.0,700.0,BKN,700.0,OVC,1800.0,,,,
KRDR,05-05-2014,08:08,SPECI,Normal,80,6.0,,,9999.0,,3.0,3.0,30.06,,,,,,,,,,,,,,,,,600.0,600.0,SCT,600.0,BKN,1700.0,OVC,5500.0,,
KRDR,05-05-2014,07:58,METAR,Normal,80,7.0,,,9999.0,,3.0,2.8,30.05,1018.8,,,,,,,,,,,TRACE,,,,,600.0,600.0,BKN,600.0,OVC,5500.0,,,,
KRDR,05-05-2014,07:50,SPECI,Normal,90,6.0,,,9999.0,,3.0,3.0,30.06,,,,,,,,,,,,,,,,,600.0,600.0,OVC,600.0,,,,,,
KRDR,05-05-2014,07:40,SPECI,Normal,80,6.0,,,9999.0,,3.0,3.0,30.06,,,,,,,,,,,,,,,,,500.0,500.0,BKN,500.0,OVC,6000.0,,,,
KRDR,05-05-2014,07:30,SPECI,Normal,100,6.0,,,9999.0,,3.0,3.0,30.06,,,,,,,,,,,,,,,,,600.0,600.0,BKN,600.0,OVC,6000.0,,,,
KRDR,05-05-2014,07:10,SPECI,Normal,90,6.0,,,9999.0,,3.0,3.0,30.07,,,,,,,,,,,,,,,,,900.0,900.0,BKN,900.0,OVC,6000.0,,,,
KRDR,05-05-2014,06:58,METAR,Normal,80,5.0,,,9999.0,Light Drizzle,2.9,2.8,30.07,1019.5,51,,,,,,,,,,.01 IN,,,,,1000.0,1000.0,OVC,1000.0,,,,,,
KRDR,05-05-2014,06:48,SPECI,Normal,80,5.0,,,9999.0,Light Drizzle,3.0,3.0,30.07,,51,,,,,,,,,,,,,,,800.0,1000.0,OVC,1000.0,,,,,,
KRDR,05-05-2014,06:03,SPECI,Normal,60,4.0,,,9999.0,Light Rain,3.0,3.0,30.09,,61,,,,,,,,,,,,,,,900.0,900.0,BKN,900.0,OVC,1300.0,,,,
KRDR,05-05-2014,05:58,METAR,Normal,60,4.0,,,9999.0,Light Rain,2.7,2.6,30.09,1020.3,61,,,,,,,,,,.02 IN,,.11 IN,,,1000.0,1000.0,OVC,1000.0,,,,,,
KRDR,05-05-2014,05:57,SPECI,Normal,60,4.0,,,9999.0,Light Rain,3.0,3.0,30.09,,61,,,,,,,,,,,,,,,1000.0,1000.0,OVC,1000.0,,,,,,
KRDR,05-05-2014,05:52,SPECI,Normal,60,4.0,,,9999.0,Light Rain,3.0,3.0,30.09,,61,,,,,,,,,,,,,,,900.0,900.0,OVC,900.0,,,,,,
KRDR,05-05-2014,05:37,SPECI,Normal,70,4.0,,,9999.0,Light Rain,3.0,3.0,30.09,,61,,,,,,,,,,,,,,,1000.0,1000.0,BKN,1000.0,OVC,3200.0,,,,
KRDR,05-05-2014,05:12,SPECI,Normal,80,4.0,,,9999.0,Light Rain,3.0,2.0,30.08,,61,,,,,,,,,,,,,,,3000.0,1000.0,FEW,1000.0,OVC,3000.0,,,,
KRDR,05-05-2014,05:08,SPECI,Normal,80,4.0,,,9999.0,Light Rain,3.0,2.0,30.08,,61,,,,,,,,,,,,,,,3000.0,2400.0,FEW,2400.0,OVC,3000.0,,,,
KRDR,05-05-2014,04:58,METAR,Normal,80,4.0,,,9999.0,Light Drizzle,2.6,2.5,30.08,1019.9,51,,,,,,,,,,.01 IN,,,,,2200.0,900.0,FEW,900.0,BKN,2200.0,BKN,2700.0,,
KRDR,05-05-2014,04:46,SPECI,Normal,80,5.0,,,9999.0,Light Rain,3.0,3.0,30.09,,61,,,,,,,,,,,,,,,2200.0,900.0,FEW,900.0,BKN,2200.0,,,,
KRDR,05-05-2014,04:36,SPECI,Normal,80,4.0,,,9999.0,,3.0,3.0,30.09,,,,,,,,,,,,,,,,,,900.0,FEW,900.0,SCT,3300.0,,,,
KRDR,05-05-2014,04:13,SPECI,Normal,80,5.0,,,9999.0,Light Rain,3.0,3.0,30.09,,61,,,,,,,,,,,,,,,3500.0,3500.0,OVC,3500.0,,,,,,
KRDR,05-05-2014,04:03,SPECI,Normal,70,6.0,,,9999.0,Light Drizzle,3.0,3.0,30.09,,51,,,,,,,,,,,,,,,2900.0,2900.0,OVC,2900.0,,,,,,
KRDR,05-05-2014,03:58,METAR,Normal,70,5.0,,,9999.0,Light Rain,2.8,2.6,30.10,1020.6,61,,,,,,,,,,.04 IN,,,,,2800.0,900.0,FEW,900.0,OVC,2800.0,,,,
KRDR,05-05-2014,03:40,SPECI,Normal,90,5.0,,,9999.0,Light Rain,3.0,2.0,30.11,,61,,,,,,,,,,,,,,,1000.0,1000.0,SCT,1000.0,OVC,2400.0,,,,
KRDR,05-05-2014,03:30,SPECI,Normal,90,6.0,,,9999.0,Light Rain,3.0,2.0,30.10,,61,,,,,,,,,,,,,,,1000.0,1000.0,BKN,1000.0,OVC,1800.0,,,,
KRDR,05-05-2014,03:25,SPECI,Normal,100,4.0,,,9999.0,Light Rain,3.0,2.0,30.11,,61,,,,,,,,,,,,,,,1100.0,1100.0,BKN,1100.0,OVC,1900.0,,,,
KRDR,05-05-2014,03:20,SPECI,Normal,90,4.0,,,9999.0,Light Rain,3.0,2.0,30.11,,61,,,,,,,,,,,,,,,1900.0,1100.0,SCT,1100.0,OVC,1900.0,,,,
KRDR,05-05-2014,03:08,SPECI,Normal,80,4.0,,,9999.0,Light Rain,3.0,2.0,30.12,,61,,,,,,,,,,,,,,,1900.0,1400.0,FEW,1400.0,OVC,1900.0,,,,
KRDR,05-05-2014,02:58,METAR,Normal,100,3.0,,,9999.0,Light Rain,3.6,2.0,30.11,1021.0,61,,,,,,,,,,.04 IN,.04 IN,,,,1800.0,1800.0,OVC,1800.0,,,,,,
KRDR,05-05-2014,02:38,SPECI,Normal,80,5.0,,,8000.0,Light Rain/Mist,4.0,2.0,30.11,,61,10,,,,,,,,,,,,,,1700.0,1700.0,OVC,1700.0,,,,,,
KRDR,05-05-2014,02:33,SPECI,Normal,20,2.0,,,8000.0,Light Rain,4.0,2.0,30.11,,61,,,,,,,,,,,,,,,1700.0,1700.0,BKN,1700.0,,,,,,
KRDR,05-05-2014,02:18,SPECI,Normal,20,5.0,,,9999.0,Light Rain,5.0,0.0,30.10,,61,,,,,,,,,,,,,,,1600.0,1600.0,BKN,1600.0,BKN,3300.0,,,,
KRDR,05-05-2014,02:13,SPECI,Normal,300,5.0,,,9999.0,Light Rain,5.0,0.0,30.10,,61,,,,,,,,,,,,,,,3300.0,1600.0,SCT,1600.0,BKN,3300.0,,,,
KRDR,05-05-2014,02:08,SPECI,Normal,320,6.0,,,9999.0,Light Rain,5.0,0.0,30.09,,61,,,,,,,,,,,,,,,3300.0,1200.0,SCT,1200.0,BKN,3300.0,,,,
KRDR,05-05-2014,02:03,SPECI,Variable,,3.0,,,9999.0,Light Rain,5.0,0.0,30.09,,61,,,,,,,,,,,,,,,2300.0,1500.0,FEW,1500.0,BKN,2300.0,OVC,3900.0,,
KRDR,05-05-2014,01:58,METAR,Normal,20,7.0,,,9999.0,,5.7,-0.5,30.08,1020.0,,,,,,,,,,,TRACE,,,,,,1600.0,FEW,1600.0,SCT,3400.0,,,,
KRDR,05-05-2014,01:54,SPECI,Normal,30,8.0,,,9999.0,,6.0,0.0,30.08,,,,,,,,,,,,,,,,,,1700.0,FEW,1700.0,,,,,,
KRDR,05-05-2014,01:51,SPECI,Normal,30,8.0,,,9999.0,,6.0,0.0,30.08,,,,,,,,,,,,,,,,,,1500.0,FEW,1500.0,SCT,4500.0,,,,
KRDR,05-05-2014,01:37,SPECI,Normal,30,6.0,,,9999.0,Light Rain,6.0,-1.0,30.07,,61,,,,,,,,,,,,,,,4000.0,3100.0,FEW,3100.0,BKN,4000.0,OVC,5500.0,,
KRDR,05-05-2014,00:58,METAR,Normal,30,4.0,,,9999.0,,7.4,-2.4,30.06,1019.2,,,,,,,,,,,,,,,,6500.0,4700.0,SCT,4700.0,BKN,6500.0,OVC,8000.0,,
KRDR,05-04-2014,23:58,METAR,Normal,50,6.0,,,9999.0,,7.8,-3.0,30.04,1018.7,,,,,,,,,,,,,,,,6500.0,4700.0,SCT,4700.0,BKN,6500.0,OVC,8000.0,,
KRDR,05-04-2014,22:58,METAR,Normal,110,6.0,,,9999.0,,8.1,-3.8,30.04,1018.7,,,,,,,,,,,,,,,,10000.0,10000.0,OVC,10000.0,,,,,,
KRDR,05-04-2014,21:58,METAR,Variable,,2.0,,,9999.0,,8.1,-4.3,30.05,1019.0,,,,,,,,,,,,,,,,,5000.0,FEW,5000.0,SCT,10000.0,,,,
KRDR,05-04-2014,20:58,METAR,Variable,,1.0,,,9999.0,,8.5,-3.1,30.07,1019.7,,,,,,,,,,,,,,,,12000.0,4600.0,FEW,4600.0,BKN,12000.0,,,,
KRDR,05-04-2014,19:58,METAR,Calm,,0.0,,,9999.0,,7.6,-2.3,30.09,1020.4,,,,,,,,,,,,,,,,4200.0,4200.0,BKN,4200.0,BKN,10000.0,,,,
KRDR,05-04-2014,18:58,METAR,Normal,140,6.0,,,9999.0,,7.6,-2.0,30.10,1020.7,,,,,,,,,,,,,,,,4000.0,4000.0,BKN,4000.0,,,,,,
KRDR,05-04-2014,17:58,METAR,Variable,,3.0,,,9999.0,,7.7,-2.2,30.12,1021.4,,,,,,,,,,,,,,,,3800.0,11000.0,BKN,11000.0,,,,,,
KRDR,05-04-2014,16:58,METAR,Variable,,1.0,,,9999.0,,6.4,-2.8,30.14,1022.1,,,,,,,,,,,,,,,,11000.0,11000.0,OVC,11000.0,,,,,,
KRDR,05-04-2014,15:58,METAR,Normal,100,5.0,,,9999.0,,5.7,-1.9,30.15,1022.4,,,,,,,,,,,,,,,,12000.0,12000.0,BKN,12000.0,,,,,,
KRDR,05-04-2014,14:58,METAR,Normal,140,5.0,,,9999.0,,4.1,-1.5,30.16,1022.8,,,,,,,,,,,,,,,,12000.0,12000.0,BKN,12000.0,,,,,,
KRDR,05-04-2014,13:58,METAR,Calm,,0.0,,,9999.0,,2.3,-1.7,30.16,1022.8,,,,,,,,,,,,,,,,10000.0,10000.0,OVC,10000.0,,,,,,
KRDR,05-04-2014,12:58,METAR,Normal,30,5.0,,,9999.0,,1.6,-1.4,30.15,1022.4,,,,,,,,,,,,,,,,11000.0,11000.0,OVC,11000.0,,,,,,
KRDR,05-04-2014,11:58,METAR,Normal,360,4.0,,,9999.0,,-2.0,-2.7,30.12,1021.5,,,,,,,,,,,,,,,Clear,72000.0,,,,,,,,,
KRDR,05-04-2014,10:58,METAR,Normal,350,2.0,,,9999.0,,-2.0,-3.1,30.10,1020.7,,,,,,,,,,,,,,,Clear,72000.0,,,,,,,,,
KRDR,05-04-2014,09:58,METAR,Normal,330,4.0,,,9999.0,,-2.7,-3.4,30.11,1021.2,,,,,,,,,,,,,,,Clear,72000.0,,,,,,,,,
KRDR,05-04-2014,08:58,METAR,Normal,300,4.0,,,9999.0,,-3.2,-3.8,30.11,1021.2,,,,,,,,,,,,,,,Clear,72000.0,,,,,,,,,
KRDR,05-04-2014,07:58,METAR,Normal,340,4.0,,,9999.0,,-1.9,-2.9,30.09,1020.4,,,,,,,,,,,,,,,Clear,72000.0,,,,,,,,,
KRDR,05-04-2014,06:58,METAR,Normal,310,5.0,,,9999.0,,-1.8,-2.8,30.10,1020.7,,,,,,,,,,,,,,,Clear,72000.0,,,,,,,,,
KRDR,05-04-2014,05:58,METAR,Normal,300,5.0,,,9999.0,,-1.6,-2.6,30.08,1020.1,,,,,,,,,,,,,,,Clear,72000.0,,,,,,,,,
KRDR,05-04-2014,04:58,METAR,Normal,310,6.0,,,9999.0,,-1.1,-2.5,30.07,1019.7,,,,,,,,,,,,,,,Clear,72000.0,,,,,,,,,
KRDR,05-04-2014,03:58,METAR,Normal,320,5.0,,,9999.0,,0.2,-1.9,30.06,1019.3,,,,,,,,,,,,,,,Clear,72000.0,,,,,,,,,
KRDR,05-04-2014,02:58,METAR,Normal,330,5.0,,,9999.0,,1.5,-1.8,30.04,1018.6,,,,,,,,,,,,,,,Clear,72000.0,,,,,,,,,
KRDR,05-04-2014,01:58,METAR,Normal,350,7.0,,,9999.0,,3.6,-1.5,30.02,1017.9,,,,,,,,,,,,,,,,7500.0,7500.0,BKN,7500.0,,,,,,
KRDR,05-04-2014,00:58,METAR,Normal,20,9.0,,,9999.0,,5.0,-1.2,30.00,1017.2,,,,,,,,,,,,,,,,7000.0,5500.0,FEW,5500.0,OVC,7000.0,,,,
KRDR,05-03-2014,23:58,METAR,Normal,360,9.0,,,9999.0,,6.3,-4.0,29.98,1016.5,,,,,,,,,,,,,,,,7000.0,5500.0,SCT,5500.0,OVC,7000.0,,,,
KRDR,05-03-2014,22:58,METAR,Normal,360,14.0,19.0,,9999.0,,6.9,-3.7,29.96,1015.8,,,,,,,,,,,,,,,,5500.0,5500.0,OVC,5500.0,,,,,,
KRDR,05-03-2014,21:58,METAR,Normal,340,12.0,21.0,,9999.0,,6.2,-4.0,29.95,1015.6,,,,,,,,,,,,,,,,4700.0,4700.0,OVC,4700.0,,,,,,
KRDR,05-03-2014,20:58,METAR,Normal,340,16.0,19.0,,9999.0,,6.5,-3.4,29.94,1015.1,,,,,,,,,,,,,,,,4500.0,4500.0,OVC,4500.0,,,,,,
KRDR,05-03-2014,19:58,METAR,Normal,320,13.0,,,9999.0,,6.8,-2.8,29.92,1014.4,,,,,,,,,,,,,,,,4500.0,4500.0,OVC,4500.0,,,,,,
KRDR,05-03-2014,18:58,METAR,Normal,340,15.0,22.0,,9999.0,,7.8,-2.6,29.90,1013.6,,,,,,,,,,,,,,,,4700.0,4700.0,OVC,4700.0,,,,,,
KRDR,05-03-2014,18:22,SPECI,Normal,320,16.0,20.0,,9999.0,,8.0,-2.0,29.89,,,,,,,,,,,,,,,,,4200.0,4200.0,BKN,4200.0,OVC,5000.0,,,,
KRDR,05-03-2014,17:58,METAR,Normal,360,11.0,,,9999.0,,8.1,-1.4,29.89,1013.3,,,,,,,,,,,,,,,,4700.0,3400.0,FEW,3400.0,OVC,4700.0,,,,
KRDR,05-03-2014,16:58,METAR,Normal,20,10.0,,,9999.0,,7.1,-1.4,29.89,1013.4,,,,,,,,,,,,,,,,3800.0,3800.0,BKN,3800.0,OVC,4900.0,,,,
KRDR,05-03-2014,15:58,METAR,Normal,360,11.0,,,9999.0,,7.0,-2.4,29.89,1013.3,,,,,,,,,,,,,,,,,4000.0,SCT,4000.0,,,,,,
KRDR,05-03-2014,14:58,METAR,Normal,350,12.0,,,9999.0,,6.6,-2.1,29.89,1013.3,,,,,,,,,,,,,,,,3900.0,3900.0,BKN,3900.0,,,,,,
KRDR,05-03-2014,14:03,SPECI,Normal,350,12.0,,,9999.0,,6.0,1.0,29.88,,,,,,,,,,,,,,,,,3000.0,3000.0,BKN,3000.0,,,,,,
KRDR,05-03-2014,13:58,METAR,Normal,350,11.0,,,9999.0,,5.2,1.4,29.88,1012.9,,,,,,,,,,,,,,,,2900.0,2900.0,BKN,2900.0,OVC,4400.0,,,,
KRDR,05-03-2014,13:53,SPECI,Normal,350,10.0,19.0,,9999.0,,5.0,1.0,29.88,,,,,,,,,,,,,,,,,3000.0,3000.0,BKN,3000.0,OVC,4400.0,,,,
KRDR,05-03-2014,13:43,SPECI,Normal,340,13.0,19.0,,9999.0,,5.0,0.0,29.88,,,,,,,,,,,,,,,,,2800.0,2800.0,BKN,2800.0,OVC,4100.0,,,,
KRDR,05-03-2014,13:33,SPECI,Normal,340,14.0,,,9999.0,,5.0,1.0,29.88,,,,,,,,,,,,,,,,,3100.0,2500.0,SCT,2500.0,BKN,3100.0,OVC,4100.0,,
KRDR,05-03-2014,12:58,METAR,Normal,320,9.0,,,9999.0,,4.3,2.8,29.86,,,,,,,,,,,,,,,,,1900.0,1900.0,OVC,1900.0,,,,,,
KRDR,05-03-2014,12:33,SPECI,Normal,320,10.0,,,9999.0,,4.0,2.0,29.85,,,,,,,,,,,,,,,,,1600.0,1600.0,BKN,1600.0,BKN,4700.0,,,,
KRDR,05-03-2014,11:58,METAR,Normal,320,8.0,,,9999.0,,3.7,2.6,29.83,1011.1,,,,,,,,,,,,,,.01 IN,,4000.0,4000.0,OVC,4000.0,,,,,,
KRDR,05-03-2014,10:58,METAR,Normal,320,5.0,,,9999.0,,2.7,2.4,29.82,1010.8,,,,,,,,,,,,,,,,,3700.0,FEW,3700.0,SCT,7000.0,,,,
KRDR,05-03-2014,09:58,METAR,Normal,300,6.0,,,9999.0,,1.7,1.6,29.81,1010.5,,,,,,,,,,,,,,,Clear,72000.0,,,,,,,,,
KRDR,05-03-2014,08:58,METAR,Normal,310,5.0,,,9999.0,,3.2,3.1,29.80,1010.0,,,,,,,,,,,,,,,Clear,72000.0,,,,,,,,,
KRDR,05-03-2014,07:58,METAR,Normal,320,6.0,,,9999.0,,3.6,3.4,29.79,1009.7,,,,,,,,,,,,,,,Clear,72000.0,,,,,,,,,
KRDR,05-03-2014,06:58,METAR,Normal,360,11.0,,,9999.0,,5.9,4.6,29.78,1009.3,,,,,,,,,,,,,,,,,7500.0,SCT,7500.0,,,,,,
KRDR,05-03-2014,05:58,METAR,Normal,310,6.0,,,9999.0,,5.0,4.1,29.77,1009.0,,,,,,,,,,,,,.01 IN,,,6500.0,6500.0,BKN,6500.0,,,,,,
KRDR,05-03-2014,04:58,METAR,Normal,290,4.0,,,9999.0,,4.6,3.6,29.76,1008.6,,,,,,,,,,,TRACE,,,,Clear,72000.0,,,,,,,,,
KRDR,05-03-2014,04:01,SPECI,Normal,240,6.0,,,9999.0,,6.0,6.0,29.76,,,,,,,,,,,,,,,,,4500.0,3400.0,SCT,3400.0,OVC,4500.0,,,,
KRDR,05-03-2014,03:58,METAR,Normal,250,6.0,,,9999.0,Light Rain,6.5,5.2,29.76,1008.6,61,,,,,,,,,,.01 IN,,,,,4100.0,3000.0,SCT,3000.0,BKN,4100.0,OVC,4800.0,,
KRDR,05-03-2014,03:50,SPECI,Normal,250,5.0,,,9999.0,Light Rain,7.0,5.0,29.77,,61,,,,,,,,,,,,,,,3900.0,3000.0,FEW,3000.0,OVC,3900.0,,,,
KRDR,05-03-2014,03:10,SPECI,Normal,320,6.0,,,9999.0,Light Rain,7.0,3.0,29.78,,61,,,,,,,,,,,,,,,,3300.0,FEW,3300.0,SCT,10000.0,,,,
KRDR,05-03-2014,02:58,METAR,Normal,340,6.0,,,9999.0,,7.2,3.0,29.78,1009.4,,,,,,,,,,,TRACE,TRACE,,,,,6000.0,FEW,6000.0,SCT,10000.0,,,,
KRDR,05-03-2014,01:59,SPECI,Normal,340,14.0,24.0,,9999.0,,8.0,3.0,29.77,,,,,,,,,,,,,,,,,6500.0,3800.0,FEW,3800.0,SCT,4700.0,BKN,6500.0,,
KRDR,05-03-2014,01:58,METAR,Normal,340,13.0,24.0,340/30KTS,9999.0,,8.8,2.7,29.77,1009.1,,,,,,,,,,,TRACE,,,,,6500.0,3800.0,FEW,3800.0,SCT,4700.0,BKN,6500.0,,
KRDR,05-03-2014,01:49,SPECI,Normal,340,18.0,30.0,,9999.0,,10.0,2.0,29.77,,,,,,,,,,,,,,,,,6500.0,3800.0,FEW,3800.0,SCT,4600.0,BKN,6500.0,,
KRDR,05-03-2014,01:48,SPECI,Normal,350,17.0,30.0,,9999.0,,10.0,1.0,29.76,,,,,,,,,,,,,,,,,6500.0,3800.0,FEW,3800.0,SCT,4600.0,OVC,6500.0,,
KRDR,05-03-2014,00:58,METAR,Normal,10,9.0,,,9999.0,,11.1,0.8,29.74,1008.0,,,,,,,,,,,,,,,,,6500.0,FEW,6500.0,,,,,,
KRDR,05-02-2014,23:58,METAR,Normal,30,16.0,21.0,,9999.0,,13.3,0.7,29.72,1007.3,,,,,,,,,,,,,,,Clear,72000.0,,,,,,,,,
KRDR,05-02-2014,22:58,METAR,Normal,20,17.0,23.0,,9999.0,,14.6,1.3,29.71,1006.9,,,,,,,,,,,,,,,Clear,72000.0,,,,,,,,,
KRDR,05-02-2014,21:58,METAR,Normal,360,19.0,31.0,,9999.0,,14.6,-0.8,29.70,1006.6,,,,,,,,,,,,,,,Clear,72000.0,,,,,,,,,
KRDR,05-02-2014,20:58,METAR,Normal,10,19.0,29.0,340/30KTS,9999.0,,15.7,2.2,29.69,1006.1,,,,,,,,,,,,,,,,,6500.0,FEW,6500.0,SCT,8600.0,,,,
KRDR,05-02-2014,20:53,SPECI,Normal,20,20.0,29.0,,9999.0,,16.0,2.0,29.69,,,,,,,,,,,,,,,,,,6000.0,FEW,6000.0,SCT,8600.0,,,,
KRDR,05-02-2014,19:58,METAR,Normal,360,19.0,23.0,340/29KTS,9999.0,,15.3,1.3,29.68,1005.7,,,,,,,,,,,,,,,,8000.0,7000.0,SCT,7000.0,BKN,8000.0,,,,
KRDR,05-02-2014,18:58,METAR,Normal,340,22.0,28.0,320/28KTS,9999.0,,16.0,1.4,29.67,1005.4,,,,,,,,,,,,,,,,6500.0,6500.0,BKN,6500.0,,,,,,
KRDR,05-02-2014,17:58,METAR,Normal,350,23.0,29.0,360/31KTS,9999.0,,15.0,2.4,29.67,1005.5,,,,,,,,,,,,,TRACE,,,,4900.0,SCT,4900.0,,,,,,
KRDR,05-02-2014,16:58,METAR,Normal,340,16.0,28.0,340/31KTS,9999.0,,14.5,2.8,29.67,1005.5,,,,,,,,,,,,,,,,,4800.0,SCT,4800.0,,,,,,
KRDR,05-02-2014,15:58,METAR,Normal,340,18.0,27.0,,9999.0,,12.8,4.2,29.67,1005.6,,,,,,,,,,,,,,,Clear,72000.0,,,,,,,,,
KRDR,05-02-2014,14:58,METAR,Normal,350,17.0,24.0,350/27KTS,9999.0,,10.8,5.1,29.67,1005.6,,,,,,,,,,,TRACE,TRACE,,,,,2500.0,FEW,2500.0,,,,,,
KRDR,05-02-2014,14:19,SPECI,Normal,350,17.0,25.0,,9999.0,,9.0,5.0,29.68,,,,,,,,,,,,,,,,,2400.0,2500.0,SCT,2500.0,BKN,3100.0,,,,
KRDR,05-02-2014,13:58,METAR,Normal,360,18.0,25.0,350/28KTS,9999.0,,9.0,5.0,29.67,1005.6,,,,,,,,,,,,,,,,,2400.0,SCT,2400.0,,,,,,
KRDR,05-02-2014,13:55,SPECI,Normal,360,20.0,25.0,,9999.0,,9.0,5.0,29.67,,,,,,,,,,,,,,,,,,2500.0,SCT,2500.0,,,,,,
KRDR,05-02-2014,12:58,METAR,Normal,360,18.0,29.0,350/29KTS,9999.0,,7.8,4.8,29.65,1004.9,,,,,,,,,,,,,,,,4000.0,4000.0,BKN,4000.0,,,,,,
KRDR,05-02-2014,12:33,SPECI,Normal,350,15.0,21.0,,9999.0,,8.0,6.0,29.64,,,,,,,,,,,,,,,,,3500.0,2600.0,SCT,2600.0,OVC,3500.0,,,,
KRDR,05-02-2014,11:58,METAR,Normal,360,14.0,25.0,,9999.0,,6.7,5.6,29.63,1004.2,,,,,,,,,,,,,.01 IN,.01 IN,,1500.0,1500.0,BKN,1500.0,OVC,7000.0,,,,
KRDR,05-02-2014,10:58,METAR,Normal,340,11.0,,,9999.0,,6.6,4.2,29.58,1002.5,,,,,,,,,,,,,,,,7000.0,7000.0,OVC,7000.0,,,,,,
KRDR,05-02-2014,09:58,METAR,Normal,210,6.0,,,9999.0,,5.9,3.0,29.59,1002.9,,,,,,,,,,,.01 IN,,,,,7000.0,7000.0,BKN,7000.0,,,,,,
KRDR,05-02-2014,09:34,SPECI,Normal,190,7.0,,,9999.0,,7.0,4.0,29.59,,,,,,,,,,,,,,,,,7000.0,4400.0,FEW,4400.0,OVC,7000.0,,,,
KRDR,05-02-2014,09:33,SPECI,Normal,190,8.0,,,9999.0,Light Rain,7.0,4.0,29.59,,61,,,,,,,,,,,,,,,6500.0,4200.0,FEW,4200.0,BKN,6500.0,OVC,8000.0,,
KRDR,05-02-2014,09:23,SPECI,Normal,190,9.0,,,9999.0,Light Rain,8.0,4.0,29.59,,61,,,,,,,,,,,,,,,6000.0,4600.0,SCT,4600.0,BKN,6000.0,OVC,8000.0,,
KRDR,05-02-2014,09:18,SPECI,Normal,220,5.0,,,9999.0,Light Rain,8.0,3.0,29.60,,61,,,,,,,,,,,,,,,8000.0,4700.0,FEW,4700.0,SCT,6500.0,OVC,8000.0,,
KRDR,05-02-2014,09:17,SPECI,Normal,210,6.0,,,9999.0,,8.0,3.0,29.59,,,,,,,,,,,,,,,,,8000.0,4900.0,FEW,4900.0,SCT,6500.0,OVC,8000.0,,
KRDR,05-02-2014,08:58,METAR,Normal,190,9.0,,,9999.0,,8.3,2.2,29.59,1002.8,,,,,,,,,,,TRACE,TRACE,,,,8000.0,8000.0,OVC,8000.0,,,,,,
KRDR,05-02-2014,08:17,SPECI,Normal,190,8.0,,,9999.0,,8.0,4.0,29.63,,,,,,,,,,,,,,,,,7000.0,3100.0,SCT,3100.0,SCT,4500.0,OVC,7000.0,,
KRDR,05-02-2014,07:59,SPECI,Normal,210,7.0,,,9999.0,Light Rain,9.0,1.0,29.64,,61,,,,,,,,,,,,,,,7000.0,4900.0,FEW,4900.0,BKN,7000.0,,,,
KRDR,05-02-2014,07:58,METAR,Normal,210,7.0,,,9999.0,,8.9,1.7,29.65,1004.8,,,,,,,,,,,,,,,,6500.0,5000.0,FEW,5000.0,BKN,6500.0,BKN,7500.0,,
KRDR,05-02-2014,06:58,METAR,Normal,220,6.0,,,9999.0,,8.5,2.7,29.68,1005.9,,,,,,,,,,,,,,,,9000.0,9000.0,BKN,9100.0,,,,,,
KRDR,05-02-2014,05:58,METAR,Normal,200,7.0,,,9999.0,,8.5,2.9,29.70,1006.6,,,,,,,,,,,,,,,Clear,6500.0,,,,,,,,,
KRDR,05-02-2014,04:58,METAR,Normal,220,6.0,,,9999.0,,8.5,3.9,29.75,1008.4,,,,,,,,,,,,,,,,9500.0,9500.0,BKN,9600.0,,,,,,
KRDR,05-02-2014,03:58,METAR,Normal,220,5.0,,,9999.0,,7.0,5.2,29.79,1009.8,,,,,,,,,,,,,,,,,12000.0,SCT,12000.0,,,,,,
KRDR,05-02-2014,02:58,METAR,Normal,210,4.0,,,9999.0,,7.2,4.4,29.81,1010.5,,,,,,,,,,,,,,,,,12000.0,FEW,12000.0,,,,,,
KRDR,05-02-2014,01:58,METAR,Calm,,0.0,,,9999.0,,8.1,4.4,29.84,1011.6,,,,,,,,,,,,,,,Clear,72000.0,,,,,,,,,
KRDR,05-02-2014,00:58,METAR,Normal,20,6.0,,,9999.0,,12.2,2.1,29.86,1012.1,,,,,,,,,,,,,,,Clear,72000.0,,,,,,,,,
