Platform Id,Date,Time (UTC),Report Type,Wind Condition,Wind Direction,Wind Speed (Knots),Wind Gust Speed,Peak Wind (Knots),Visibility (M),Weather,Air Temp (C),Dew Point (C),Altimeter (inHg),SLP (Millibars),Present Automated 1,Present Automated 2,Present Automated 3,Present Manual 1,Present Manual 2,Present Manual 3,Present Manual 4,Present Manual 5,Present Manual 6,Present Manual 7,Precip Hr1,Precip Hr3,Precip Hr6,Precip Hr24,Cloud Cover,Cloud Ceiling (Feet),Lowest Cloud Base Height (Feet),Cloud Cover1,Cloudbase 1,Cloud Cover2,Cloudbase 2,Cloud Cover3,Cloudbase 3,Cloud Cover4,Cloudbase 4
KRDR,06-07-2005,21:30,METAR,,340,10,,,9999,,18.0,16.0,29.77,,,,,,,,,,,,,,,,8/8 Overcast,1500.0,,BKN,1500,OVC,9900.0,,,,
KRDR,06-07-2005,21:00,METAR,,340,9,,,9999,,18.0,16.0,29.76,,,,,,,,,,,,,,,,8/8 Overcast,1500.0,,BKN,1500,OVC,9900.0,,,,
KRDR,06-07-2005,20:00,METAR,,10,6,,,9999,,18.0,15.0,29.75,,,,,,,,,,,,,,,,8/8 Overcast,1600.0,,BKN,1600,OVC,9900.0,,,,
KRDR,06-07-2005,19:00,METAR,,20,5,,,9999,,17.0,14.0,29.74,,,,,,,,,,,,,,,,8/8 Overcast,1500.0,,BKN,1500,OVC,9900.0,,,,
KRDR,06-07-2005,18:00,METAR,,50,5,,,9999,,16.0,14.0,29.72,,,,,,,,,,,,,,,,8/8 Overcast,1500.0,,BKN,1500,OVC,2000.0,,,,
KRDR,06-07-2005,17:00,METAR,,90,8,,,9999,,16.0,14.0,29.72,,,,,,,,,,,,,,,,8/8 Overcast,1400.0,,BKN,1400,OVC,2000.0,,,,
KRDR,06-07-2005,16:00,METAR,,60,13,,,9999,,14.0,13.0,29.72,,,,,,,,,,,,,,,,8/8 Overcast,1200.0,,BKN,1200,OVC,1800.0,,,,
KRDR,06-07-2005,15:00,METAR,,50,11,,,9999,,13.0,12.0,29.72,,,,,,,,,,,,,,,,8/8 Overcast,1200.0,,BKN,1200,OVC,1800.0,,,,
KRDR,06-07-2005,14:00,METAR,,60,10,,,9999,,13.0,12.0,29.71,,,,,,,,,,,,,,,,8/8 Overcast,1000.0,,BKN,1000,OVC,1800.0,,,,
KRDR,06-07-2005,13:00,METAR,,50,11,,,9999,,12.0,12.0,29.73,,,,,,,,,,,,,,,,8/8 Overcast,1800.0,,SCT,1000,OVC,1800.0,,,,
KRDR,06-07-2005,12:30,METAR,,50,11,,,9999,,12.0,12.0,29.74,,,,,,,,,,,,,,,,8/8 Overcast,2000.0,,SCT,1000,OVC,2000.0,,,,
KRDR,06-06-2005,21:30,METAR,,,3,,,9999,,21.0,12.0,29.77,,,,,,,,,,,,,,,,4/8 Partly Cloudy,72000.0,,SCT,4000,,,,,,
KRDR,06-06-2005,21:00,METAR,,10,4,,,9999,,22.0,13.0,29.78,,,,,,,,,,,,,,,,4/8 Partly Cloudy,72000.0,,SCT,3500,,,,,,
KRDR,06-06-2005,20:00,METAR,,30,5,,,9999,,22.0,14.0,29.78,,,,,,,,,,,,,,,,7/8 Mostly Cloudy,25000.0,,SCT,4000,BKN,25000.0,,,,
KRDR,06-06-2005,19:00,METAR,,320,5,,,9999,,21.0,13.0,29.79,,,,,,,,,,,,,,,,7/8 Mostly Cloudy,3900.0,,BKN,4000,,,,,,
KRDR,06-06-2005,18:00,METAR,,,0,,,9999,,19.0,13.0,29.80,,,,,,,,,,,,,,,,7/8 Mostly Cloudy,3900.0,,FEW,4000,BKN,4000.0,,,,
KRDR,06-06-2005,17:00,METAR,,340,4,,,9999,,19.0,13.0,29.80,,,,,,,,,,,,,,,,4/8 Partly Cloudy,72000.0,,FEW,2500,SCT,3500.0,,,,
KRDR,06-06-2005,16:27,SPECI,,320,8,,,9999,,18.0,13.0,29.80,,,,,,,,,,,,,,,,4/8 Partly Cloudy,72000.0,,SCT,2600,,,,,,
KRDR,06-06-2005,16:00,METAR,,300,7,,,9999,,18.0,12.0,29.80,,,,,,,,,,,,,,,,7/8 Mostly Cloudy,2600.0,,BKN,2600,,,,,,
KRDR,06-06-2005,15:00,METAR,,290,7,,,9999,,18.0,13.0,29.80,,,,,,,,,,,,,,,,7/8 Mostly Cloudy,2600.0,,BKN,2600,,,,,,
KRDR,06-06-2005,14:30,METAR,,300,8,,,9999,,16.0,12.0,29.80,,,,,,,,,,,,,,,,7/8 Mostly Cloudy,2400.0,,BKN,2400,,,,,,
KRDR,06-06-2005,14:00,METAR,,280,7,,,9999,,16.0,12.0,29.79,,,,,,,,,,,,,,,,4/8 Partly Cloudy,72000.0,,SCT,2000,,,,,,
KRDR,06-06-2005,13:00,METAR,,280,5,,,9999,,14.0,12.0,29.79,,,,,,,,,,,,,,,.49 IN,2/8 Mostly Clear,72000.0,,FEW,3000,FEW,12000.0,FEW,20000.0,,
KRDR,06-06-2005,12:30,METAR,,260,6,,,9999,,14.0,12.0,29.78,,,,,,,,,,,,,,,,2/8 Mostly Clear,72000.0,,FEW,3000,FEW,12000.0,FEW,20000.0,,
KRDR,06-03-2005,21:30,METAR,,120,6,,,9999,Mist,20.0,20.0,29.68,,,,,10,,,,,,,,,,,7/8 Mostly Cloudy,3400.0,,FEW,1500,SCT,3500.0,BKN,6900.0,,
KRDR,06-03-2005,21:00,METAR,,110,7,,,9999,Mist,22.0,21.0,29.67,,,,,10,,,,,,,,.01 IN,,,7/8 Mostly Cloudy,9000.0,,SCT,1500,BKN,8900.0,,,,
KRDR,06-03-2005,20:00,METAR,,,2,,,8000,Mist,20.0,20.0,29.68,,,,,10,,,,,,,,,,,7/8 Mostly Cloudy,9000.0,,SCT,1500,BKN,8900.0,,,,
KRDR,06-03-2005,19:00,METAR,,,2,,,6400,Mist,19.0,19.0,29.69,,,,,10,,,,,,,,,,,7/8 Mostly Cloudy,2500.0,,FEW,500,SCT,2500.0,BKN,4500.0,,
KRDR,06-03-2005,18:43,SPECI,,250,3,,,6400,Mist,18.0,18.0,29.69,,,,,10,,,,,,,,,,,8/8 Overcast,72000.0,,FEW,500,FEW,2500.0,SCT,2500.0,,
KRDR,06-03-2005,18:30,METAR,,250,3,,,6400,Light Rain Showers/Mist,18.0,18.0,29.69,,,,,80,10,,,,,,,,,,8/8 Overcast,2700.0,,SCT,500,BKN,2700.0,OVC,3500.0,,
KRDR,06-03-2005,18:05,SPECI,,230,5,,,4800,Light Rain Showers/Mist,18.0,18.0,29.69,,,,,80,10,,,,,,,,,,8/8 Overcast,2500.0,,FEW,500,SCT,2500.0,BKN,3500.0,OVC,4500.0
KRDR,06-03-2005,18:00,METAR,,220,6,,,4800,Light Rain Showers/Mist,18.0,18.0,29.68,,,,,80,10,,,,,,,,.14 IN,,8/8 Overcast,2500.0,,FEW,500,BKN,2500.0,OVC,3500.0,,
KRDR,06-03-2005,17:45,METAR,,210,6,,,3200,Light Rain Showers/Mist,18.0,18.0,29.68,,,,,80,10,,,,,,,,,,8/8 Overcast,2500.0,,SCT,500,BKN,2500.0,OVC,3500.0,,
KRDR,06-03-2005,17:00,METAR,,170,5,,,4800,Rain/Mist,18.0,18.0,29.69,,,,,61,10,,,,,,,,,,7/8 Mostly Cloudy,2500.0,,FEW,500,SCT,2500.0,BKN,4500.0,,
KRDR,06-03-2005,16:04,SPECI,,220,3,,,4800,Rain/Mist,18.0,18.0,29.68,,,,,61,10,,,,,,,,,,8/8 Overcast,2500.0,,SCT,500,SCT,2500.0,OVC,4500.0,,
KRDR,06-03-2005,16:00,METAR,,200,2,,,4800,Mist,18.0,18.0,29.68,,,,,10,,,,,,,,,,,7/8 Mostly Cloudy,2500.0,,FEW,500,SCT,2500.0,BKN,4500.0,,
KRDR,06-03-2005,15:45,METAR,,190,3,,,3200,Light Rain Showers/Mist,18.0,18.0,29.68,,,,,80,10,,,,,,,,,,8/8 Overcast,2500.0,,SCT,500,BKN,2500.0,OVC,4500.0,,
KRDR,06-03-2005,15:33,SPECI,,210,4,,,4800,Mist,18.0,18.0,29.67,,,,,10,,,,,,,,,,,7/8 Mostly Cloudy,2500.0,,FEW,500,SCT,2500.0,BKN,4500.0,,
KRDR,06-03-2005,15:13,SPECI,,170,4,,,4000,Mist,18.0,18.0,29.68,,,,,10,,,,,,,,,,,8/8 Overcast,1500.0,,SCT,500,BKN,1500.0,OVC,4500.0,,
KRDR,06-03-2005,15:00,METAR,,150,4,,,4000,Rain/Mist,17.0,17.0,29.67,,,,,61,10,,,,,,,,,,8/8 Overcast,1500.0,,SCT,500,SCT,1500.0,OVC,4500.0,,
KRDR,06-03-2005,14:23,SPECI,,90,6,,,3200,Rain/Mist,17.0,17.0,29.66,,,,,61,10,,,,,,,,,,8/8 Overcast,1500.0,,FEW,500,SCT,1500.0,BKN,4000.0,OVC,5900.0
KRDR,06-03-2005,14:15,SPECI,,100,4,,,4800,Rain/Mist,17.0,17.0,29.66,,,,,61,10,,,,,,,,,,7/8 Mostly Cloudy,1500.0,,FEW,500,SCT,1500.0,BKN,4000.0,BKN,5900.0
KRDR,06-03-2005,14:00,METAR,,90,4,,,2400,Rain/Mist,17.0,17.0,29.67,,,,,61,10,,,,,,,,,,8/8 Overcast,1500.0,,FEW,500,BKN,1500.0,OVC,3000.0,,
KRDR,06-03-2005,13:00,METAR,,80,3,,,2400,Rain/Mist,17.0,17.0,29.67,,,,,61,10,,,,,,,,,,8/8 Overcast,1500.0,,SCT,500,OVC,1500.0,,,,
KRDR,06-03-2005,12:30,METAR,,80,5,,,2400,Rain/Mist,16.0,16.0,29.68,,,,,61,10,,,,,,,,,,8/8 Overcast,1500.0,,SCT,500,OVC,1500.0,,,,
KRDR,06-02-2005,21:30,METAR,,180,11,,,9999,,21.0,14.0,29.70,,,,,,,,,,,,,,,,7/8 Mostly Cloudy,6000.0,,FEW,3500,SCT,5900.0,BKN,9900.0,BKN,20000.0
KRDR,06-02-2005,21:00,METAR,,170,11,,,9999,,21.0,13.0,29.70,,,,,,,,,,,,,,,,7/8 Mostly Cloudy,10000.0,,FEW,3500,BKN,9900.0,BKN,20000.0,,
KRDR,06-02-2005,20:00,METAR,,180,8,,,9999,,20.0,13.0,29.70,,,,,,,,,,,,,,,,7/8 Mostly Cloudy,4900.0,,FEW,3500,SCT,5000.0,BKN,9900.0,BKN,22000.0
KRDR,06-02-2005,19:00,METAR,,170,14,,,9999,,21.0,12.0,29.68,,,,,,,,,,,,,,,,7/8 Mostly Cloudy,6000.0,,FEW,3500,SCT,5900.0,BKN,11000.0,BKN,22000.0
KRDR,06-02-2005,18:00,METAR,,160,12,19.0,,9999,,22.0,11.0,29.67,,,,,,,,,,,,,,,,7/8 Mostly Cloudy,12000.0,,FEW,3500,BKN,12000.0,BKN,22000.0,,
KRDR,06-02-2005,17:00,METAR,,170,15,23.0,,9999,,22.0,13.0,29.67,,,,,,,,,,,,,,,,7/8 Mostly Cloudy,12000.0,,FEW,3500,SCT,12000.0,BKN,22000.0,,
KRDR,06-02-2005,16:05,SPECI,,170,13,17.0,,9999,,21.0,15.0,29.66,,,,,,,,,,,,,,,,7/8 Mostly Cloudy,3400.0,,SCT,2500,SCT,3500.0,BKN,12000.0,BKN,22000.0
KRDR,06-02-2005,16:00,METAR,,190,11,17.0,,9999,,20.0,15.0,29.66,,,,,,,,,,,,,,,,7/8 Mostly Cloudy,2200.0,,BKN,2200,BKN,3500.0,BKN,12000.0,BKN,22000.0
KRDR,06-02-2005,15:00,METAR,,160,13,17.0,,9999,,20.0,17.0,29.67,,,,,,,,,,,,,,,,7/8 Mostly Cloudy,2200.0,,BKN,2200,BKN,3500.0,BKN,12000.0,,
KRDR,06-02-2005,14:00,METAR,,150,11,16.0,,9999,,19.0,17.0,29.66,,,,,,,,,,,,,,,,7/8 Mostly Cloudy,2200.0,,BKN,2200,BKN,3500.0,BKN,12000.0,,
KRDR,06-02-2005,13:30,METAR,,150,9,15.0,,9999,,19.0,17.0,29.65,,,,,,,,,,,,,,,,8/8 Overcast,2300.0,,BKN,2300,OVC,12000.0,,,,
KRDR,06-02-2005,13:00,METAR,,140,16,21.0,,9999,,18.0,16.0,29.64,,,,,,,,,,,,,,,,7/8 Mostly Cloudy,12000.0,,FEW,2500,BKN,12000.0,BKN,25000.0,,
KRDR,06-02-2005,12:30,METAR,,150,15,23.0,,9999,,18.0,16.0,29.64,,,,,,,,,,,,,,,,7/8 Mostly Cloudy,12000.0,,FEW,2500,BKN,12000.0,,,,
KRDR,06-01-2005,21:30,METAR,,140,18,29.0,,9999,,23.0,14.0,29.79,,,,,,,,,,,,,,,,7/8 Mostly Cloudy,12000.0,,SCT,4500,BKN,12000.0,,,,
KRDR,06-01-2005,21:00,METAR,,140,21,31.0,160/31KTS,9999,,23.0,14.0,29.80,,,,,,,,,,,,,,,,7/8 Mostly Cloudy,4400.0,,FEW,3500,SCT,4500.0,BKN,12000.0,,
KRDR,06-01-2005,20:00,METAR,,150,22,27.0,160/28KTS,9999,,22.0,15.0,29.82,,,,,,,,,,,,,,,,7/8 Mostly Cloudy,4400.0,,SCT,3000,BKN,4500.0,BKN,6900.0,,
KRDR,06-01-2005,19:00,METAR,,140,18,29.0,,9999,,23.0,16.0,29.83,,,,,,,,,,,,,,,,7/8 Mostly Cloudy,4400.0,,SCT,3000,BKN,4500.0,BKN,6900.0,,
KRDR,06-01-2005,18:00,METAR,,170,17,,,9999,,21.0,16.0,29.85,,,,,,,,,,,,,,,,7/8 Mostly Cloudy,3700.0,,SCT,2200,BKN,3800.0,,,,
KRDR,06-01-2005,17:00,METAR,,160,15,21.0,,9999,,20.0,16.0,29.86,,,,,,,,,,,,,,,,8/8 Overcast,2200.0,,BKN,2200,OVC,3800.0,,,,
KRDR,06-01-2005,16:00,METAR,,140,13,20.0,,9999,,18.0,16.0,29.86,,,,,,,,,,,,,,,,7/8 Mostly Cloudy,1900.0,,BKN,1900,,,,,,
KRDR,06-01-2005,15:00,METAR,,130,12,,,9999,,17.0,17.0,29.86,,,,,,,,,,,,,,,,7/8 Mostly Cloudy,1200.0,,BKN,1200,,,,,,
KRDR,06-01-2005,14:00,METAR,,140,11,,,9999,,16.0,16.0,29.87,,,,,,,,,,,,,,,,7/8 Mostly Cloudy,1200.0,,BKN,1200,BKN,5000.0,,,,
KRDR,06-01-2005,13:30,METAR,,140,10,,,9999,,15.0,15.0,29.89,,,,,,,,,,,,,,,,8/8 Overcast,1200.0,,BKN,1200,OVC,5000.0,,,,
KRDR,06-01-2005,13:00,METAR,,130,10,,,9999,,15.0,15.0,29.88,,,,,,,,,,,,,,,,7/8 Mostly Cloudy,6000.0,,FEW,2500,BKN,5900.0,BKN,7900.0,,
KRDR,06-01-2005,12:30,METAR,,140,11,,,9999,,15.0,15.0,29.88,,,,,,,,,,,,,,,,7/8 Mostly Cloudy,4900.0,,FEW,2500,BKN,5000.0,BKN,6900.0,,
KRDR,05-31-2005,21:30,METAR,,110,12,20.0,,9999,,25.0,7.0,29.97,,,,,,,,,,,,,,,,7/8 Mostly Cloudy,15000.0,,FEW,5400,SCT,15000.0,BKN,25000.0,,
KRDR,05-31-2005,21:00,METAR,,130,14,19.0,,9999,,24.0,7.0,29.98,,,,,,,,,,,,,,,,7/8 Mostly Cloudy,25000.0,,SCT,5400,BKN,25000.0,,,,
KRDR,05-31-2005,20:00,METAR,,140,10,17.0,,9999,,24.0,9.0,29.99,,,,,,,,,,,,,,,,7/8 Mostly Cloudy,25000.0,,SCT,5400,BKN,25000.0,,,,
KRDR,05-31-2005,19:00,METAR,,110,9,,,9999,,24.0,9.0,30.01,,,,,,,,,,,,,,,,7/8 Mostly Cloudy,25000.0,,SCT,5900,BKN,25000.0,,,,
KRDR,05-31-2005,18:00,METAR,,130,10,,,9999,,23.0,10.0,30.03,,,,,,,,,,,,,,,,7/8 Mostly Cloudy,25000.0,,SCT,4000,BKN,25000.0,,,,
KRDR,05-31-2005,17:00,METAR,,130,10,,,9999,,23.0,11.0,30.05,,,,,,,,,,,,,,,,7/8 Mostly Cloudy,25000.0,,FEW,5900,BKN,25000.0,,,,
KRDR,05-31-2005,16:00,METAR,,,6,,,9999,,22.0,12.0,30.06,,,,,,,,,,,,,,,,7/8 Mostly Cloudy,25000.0,,FEW,5900,BKN,25000.0,,,,
KRDR,05-31-2005,15:00,METAR,,80,5,,,9999,,20.0,13.0,30.08,,,,,,,,,,,,,,,,7/8 Mostly Cloudy,25000.0,,FEW,5900,BKN,25000.0,,,,
KRDR,05-31-2005,14:00,METAR,,100,5,,,9999,,19.0,13.0,30.09,,,,,,,,,,,,,,,,7/8 Mostly Cloudy,25000.0,,FEW,5900,BKN,25000.0,,,,
KRDR,05-31-2005,13:00,METAR,,60,2,,,9999,,17.0,13.0,30.10,,,,,,,,,,,,,,,.29 IN,7/8 Mostly Cloudy,25000.0,,FEW,5900,BKN,25000.0,,,,
KRDR,05-31-2005,12:30,METAR,,20,2,,,9999,,16.0,14.0,30.10,,,,,,,,,,,,,,,,4/8 Partly Cloudy,72000.0,,FEW,5900,SCT,25000.0,,,,
KRDR,05-26-2005,21:30,METAR,,270,15,19.0,,9999,,13.0,5.0,29.84,,,,,,,,,,,,,,,,7/8 Mostly Cloudy,4900.0,,SCT,4000,BKN,5000.0,,,,
KRDR,05-26-2005,21:00,METAR,,280,19,25.0,,9999,,13.0,5.0,29.84,,,,,,,,,,,,,,,,7/8 Mostly Cloudy,6000.0,,SCT,4000,BKN,5900.0,BKN,7900.0,,
KRDR,05-26-2005,20:00,METAR,,280,18,27.0,270/27KTS,9999,,14.0,5.0,29.84,,,,,,,,,,,,,,,,7/8 Mostly Cloudy,6000.0,,FEW,2000,BKN,5900.0,BKN,7900.0,,
KRDR,05-26-2005,19:00,METAR,,290,13,18.0,,9999,,13.0,5.0,29.84,,,,,,,,,,,,,,,,7/8 Mostly Cloudy,6000.0,,FEW,2000,BKN,5900.0,,,,
KRDR,05-26-2005,18:00,METAR,,300,14,22.0,,9999,,12.0,4.0,29.84,,,,,,,,,,,,,,.03 IN,,7/8 Mostly Cloudy,6000.0,,FEW,2000,BKN,5900.0,,,,
KRDR,05-26-2005,17:00,METAR,,300,11,18.0,,9999,,13.0,5.0,29.84,,,,,,,,,,,,,,,,7/8 Mostly Cloudy,6000.0,,SCT,2000,BKN,5900.0,,,,
KRDR,05-26-2005,16:00,METAR,,300,14,19.0,,9999,,13.0,8.0,29.85,,,,,,,,,,,,,,,,7/8 Mostly Cloudy,4900.0,,SCT,2000,BKN,5000.0,,,,
KRDR,05-26-2005,15:00,METAR,,280,10,,,9999,,11.0,10.0,29.85,,,,,,,,,,,,,.03 IN,,,7/8 Mostly Cloudy,2000.0,,FEW,1000,SCT,2000.0,BKN,5000.0,,
KRDR,05-26-2005,14:20,METAR,,300,13,,,9999,,10.0,10.0,29.85,,,,,,,,,,,,,,,,7/8 Mostly Cloudy,3900.0,,FEW,2500,SCT,4000.0,BKN,5900.0,BKN,12000.0
KRDR,05-26-2005,14:00,METAR,,280,14,20.0,,9999,Light Rain Showers,10.0,8.0,29.86,,,,,80,,,,,,,,,,,8/8 Overcast,4400.0,,SCT,2500,BKN,4500.0,OVC,12000.0,,
KRDR,05-26-2005,13:55,METAR,,300,13,20.0,,9999,,10.0,8.0,29.85,,,,,,,,,,,,,,,,8/8 Overcast,4900.0,,SCT,2500,BKN,5000.0,OVC,12000.0,,
KRDR,05-26-2005,13:45,METAR,,290,10,,,9999,,10.0,8.0,29.85,,,,,,,,,,,,,,,,8/8 Overcast,4900.0,,SCT,2500,BKN,5000.0,OVC,12000.0,,
KRDR,05-26-2005,13:30,METAR,,260,8,,,9999,Light Rain Showers,11.0,7.0,29.86,,,,,80,,,,,,,,,,,8/8 Overcast,4900.0,,SCT,2800,BKN,5000.0,OVC,12000.0,,
KRDR,05-26-2005,13:00,METAR,,270,8,,,9999,,11.0,7.0,29.86,,,,,,,,,,,,,,,,8/8 Overcast,4900.0,,BKN,5000,OVC,12000.0,,,,
KRDR,05-26-2005,12:30,METAR,,270,7,,,9999,,11.0,7.0,29.86,,,,,,,,,,,,,,,,8/8 Overcast,6000.0,,BKN,5900,OVC,12000.0,,,,
KRDR,05-25-2005,21:30,METAR,,40,2,,,9999,,16.0,9.0,29.91,,,,,,,,,,,,,,,,8/8 Overcast,6000.0,,BKN,5900,OVC,15000.0,,,,
KRDR,05-25-2005,21:00,METAR,,340,5,,,9999,,17.0,9.0,29.92,,,,,,,,,,,,,TRACE,,,8/8 Overcast,5500.0,,BKN,5400,OVC,15000.0,,,,
KRDR,05-25-2005,20:00,METAR,,340,7,,,9999,,18.0,9.0,29.93,,,,,,,,,,,,,,,,7/8 Mostly Cloudy,15000.0,,SCT,4000,BKN,15000.0,BKN,20000.0,,
KRDR,05-25-2005,19:00,METAR,,340,8,,,9999,,15.0,10.0,29.95,,,,,,,,,,,,,,,,7/8 Mostly Cloudy,6000.0,,SCT,4000,BKN,5900.0,BKN,15000.0,BKN,20000.0
KRDR,05-25-2005,18:20,METAR,,340,6,,,9999,,16.0,10.0,29.96,,,,,,,,,,,,,,,,7/8 Mostly Cloudy,6000.0,,FEW,4000,SCT,5900.0,BKN,15000.0,BKN,20000.0
KRDR,05-25-2005,18:00,METAR,,340,6,,,9999,Rain,15.0,10.0,29.97,,,,,61,,,,,,,,,IN,,7/8 Mostly Cloudy,6000.0,,SCT,4000,BKN,5900.0,BKN,15000.0,BKN,20000.0
KRDR,05-25-2005,17:04,SPECI,,340,6,,,9999,Rain,14.0,11.0,30.00,,,,,61,,,,,,,,,,,7/8 Mostly Cloudy,6000.0,,SCT,4000,BKN,5900.0,BKN,15000.0,BKN,20000.0
KRDR,05-25-2005,17:00,METAR,,340,6,,,9999,,14.0,10.0,30.00,,,,,,,,,,,,,,,,7/8 Mostly Cloudy,6000.0,,SCT,4000,BKN,5900.0,BKN,15000.0,BKN,20000.0
KRDR,05-25-2005,16:00,METAR,,360,8,,,9999,,14.0,10.0,30.00,,,,,,,,,,,,,,,,7/8 Mostly Cloudy,6500.0,,BKN,6400,BKN,15000.0,BKN,20000.0,,
KRDR,05-25-2005,15:00,METAR,,340,9,,,9999,,14.0,10.0,29.99,,,,,,,,,,,,,,,,7/8 Mostly Cloudy,15000.0,,FEW,6900,SCT,15000.0,BKN,20000.0,,
KRDR,05-25-2005,14:00,METAR,,330,7,,,9999,,13.0,11.0,30.00,,,,,,,,,,,,,,,,8/8 Overcast,15000.0,,SCT,6900,BKN,15000.0,OVC,20000.0,,
KRDR,05-25-2005,13:00,METAR,,340,6,,,9999,,12.0,11.0,30.00,,,,,,,,,,,,,,,,7/8 Mostly Cloudy,12000.0,,SCT,6900,BKN,12000.0,BKN,20000.0,,
KRDR,05-25-2005,12:30,METAR,,320,8,,,9999,,12.0,11.0,30.00,,,,,,,,,,,,,,,,7/8 Mostly Cloudy,10000.0,,SCT,6900,BKN,9900.0,BKN,20000.0,,
KRDR,05-24-2005,21:30,METAR,,140,8,,,9999,,16.0,16.0,29.98,,,,,,,,,,,,,,,,7/8 Mostly Cloudy,6000.0,,SCT,1000,SCT,5900.0,BKN,8900.0,,
KRDR,05-24-2005,21:00,METAR,,130,7,,,9999,,16.0,16.0,29.98,,,,,,,,,,,,,.08 IN,,,7/8 Mostly Cloudy,4900.0,,SCT,1000,BKN,5000.0,BKN,8900.0,,
KRDR,05-24-2005,20:30,METAR,,130,8,,,9999,,15.0,15.0,29.98,,,,,,,,,,,,,,,,7/8 Mostly Cloudy,4900.0,,FEW,1000,FEW,3000.0,SCT,5000.0,BKN,8900.0
KRDR,05-24-2005,20:00,METAR,,110,5,,,9999,Rain,15.0,15.0,29.98,,,,,61,,,,,,,,,,,7/8 Mostly Cloudy,6000.0,,FEW,1500,FEW,3000.0,SCT,5900.0,BKN,8900.0
KRDR,05-24-2005,19:00,METAR,,150,3,,,9999,Rain,15.0,15.0,29.98,,,,,61,,,,,,,,,,,7/8 Mostly Cloudy,6000.0,,FEW,1500,FEW,3000.0,BKN,5900.0,BKN,8900.0
KRDR,05-24-2005,18:00,METAR,,200,5,,,8000,Rain/Mist,15.0,15.0,29.98,,,,,61,10,,,,,,,,.16 IN,,8/8 Overcast,4900.0,,SCT,3000,BKN,5000.0,OVC,7900.0,,
KRDR,05-24-2005,17:00,METAR,,170,7,,,9999,Rain/Mist,15.0,15.0,29.98,,,,,61,10,,,,,,,,,,8/8 Overcast,4900.0,,FEW,3000,BKN,5000.0,OVC,7900.0,,
KRDR,05-24-2005,16:00,METAR,,140,6,,,9999,Rain/Mist,15.0,15.0,29.98,,,,,61,10,,,,,,,,,,8/8 Overcast,3900.0,,FEW,3000,BKN,4000.0,OVC,7900.0,,
KRDR,05-24-2005,15:00,METAR,,210,7,,,9999,Rain,14.0,14.0,29.96,,,,,61,,,,,,,,.1 IN,,,8/8 Overcast,3900.0,,BKN,4000,OVC,7900.0,,,,
KRDR,05-24-2005,14:00,METAR,,210,10,,,9999,Rain,14.0,14.0,29.96,,,,,61,,,,,,,,,,,8/8 Overcast,3900.0,,BKN,4000,OVC,6900.0,,,,
KRDR,05-24-2005,13:00,METAR,,200,5,,,8000,Rain/Mist,14.0,14.0,29.95,,,,,61,10,,,,,,,,,,8/8 Overcast,3900.0,,FEW,2000,BKN,4000.0,OVC,6900.0,,
KRDR,05-24-2005,12:30,METAR,,200,5,,,9999,Rain/Mist,15.0,14.0,29.95,,,,,61,10,,,,,,,,,,8/8 Overcast,3900.0,,FEW,2000,BKN,4000.0,OVC,5900.0,,
KRDR,05-23-2005,21:30,METAR,,180,4,,,9999,Cloud Development Not Observable,22.0,10.0,29.90,,,,,0,0,0,,,,,,,,,7/8 Mostly Cloudy,12000.0,,SCT,7900,BKN,12000.0,,,,
KRDR,05-23-2005,21:00,METAR,,150,5,,,9999,Cloud Development Not Observable,22.0,10.0,29.89,,,,,0,0,0,,,,,,,,,7/8 Mostly Cloudy,12000.0,,FEW,6900,BKN,12000.0,BKN,20000.0,,
KRDR,05-23-2005,20:00,METAR,,170,7,,,9999,Cloud Development Not Observable,21.0,13.0,29.89,,,,,0,0,0,,,,,,,,,7/8 Mostly Cloudy,12000.0,,FEW,6900,BKN,12000.0,BKN,20000.0,,
KRDR,05-23-2005,19:00,METAR,,140,5,,,9999,Cloud Development Not Observable,19.0,13.0,29.90,,,,,0,0,0,,,,,,,,,7/8 Mostly Cloudy,12000.0,,FEW,5000,BKN,12000.0,BKN,20000.0,,
KRDR,05-23-2005,18:00,METAR,,160,5,,,9999,Cloud Development Not Observable,18.0,12.0,29.91,,,,,0,0,0,,,,,,,,,7/8 Mostly Cloudy,12000.0,,SCT,5000,BKN,12000.0,BKN,20000.0,,
KRDR,05-23-2005,17:00,METAR,,,6,,,9999,Cloud Development Not Observable,17.0,11.0,29.90,,,,,0,0,0,,,,,,,,,7/8 Mostly Cloudy,12000.0,,SCT,5000,BKN,12000.0,BKN,20000.0,,
KRDR,05-23-2005,16:00,METAR,,110,3,,,9999,Cloud Development Not Observable,16.0,11.0,29.90,,,,,0,0,0,,,,,,,,,7/8 Mostly Cloudy,12000.0,,FEW,5000,BKN,12000.0,BKN,20000.0,,
KRDR,05-23-2005,15:00,METAR,,,3,,,9999,Cloud Development Not Observable,15.0,11.0,29.90,,,,,0,0,0,,,,,,,,,7/8 Mostly Cloudy,12000.0,,BKN,12000,BKN,20000.0,,,,
KRDR,05-23-2005,14:00,METAR,,,1,,,9999,Cloud Development Not Observable,13.0,11.0,29.91,,,,,0,0,0,,,,,,,,,7/8 Mostly Cloudy,12000.0,,BKN,12000,BKN,20000.0,,,,
KRDR,05-23-2005,13:00,METAR,,,0,,,9999,Cloud Development Not Observable,11.0,11.0,29.89,,,,,0,0,0,,,,,,,,.48 IN,7/8 Mostly Cloudy,20000.0,,SCT,12000,BKN,20000.0,,,,
KRDR,05-23-2005,12:30,METAR,,,0,,,9999,Cloud Development Not Observable,10.0,10.0,29.89,,,,,0,0,0,,,,,,,,,7/8 Mostly Cloudy,20000.0,,SCT,12000,BKN,20000.0,,,,
KRDR,05-20-2005,21:30,METAR,,,6,,,9999,Cloud Development Not Observable,28.0,15.0,29.88,,,,,0,0,0,,,,,,,,,7/8 Mostly Cloudy,3900.0,,FEW,3000,SCT,4000.0,SCT,9900.0,BKN,20000.0
KRDR,05-20-2005,21:00,METAR,,,5,,,9999,Cloud Development Not Observable,28.0,15.0,29.90,,,,,0,0,0,,,,,,,,,7/8 Mostly Cloudy,3900.0,,FEW,3000,SCT,4000.0,SCT,9900.0,BKN,20000.0
KRDR,05-20-2005,20:00,METAR,,180,5,,,9999,Cloud Development Not Observable,28.0,16.0,29.91,,,,,0,0,0,,,,,,,,,4/8 Partly Cloudy,72000.0,,FEW,4000,SCT,12000.0,SCT,20000.0,,
KRDR,05-20-2005,19:00,METAR,,190,3,,,9999,Cloud Development Not Observable,27.0,18.0,29.92,,,,,0,0,0,,,,,,,,,4/8 Partly Cloudy,72000.0,,FEW,4000,FEW,12000.0,SCT,20000.0,,
KRDR,05-20-2005,18:00,METAR,,190,6,,,9999,Cloud Development Not Observable,25.0,17.0,29.92,,,,,0,0,0,,,,,,,,,4/8 Partly Cloudy,72000.0,,FEW,4000,SCT,12000.0,SCT,20000.0,,
KRDR,05-20-2005,17:00,METAR,,200,9,,,9999,Haze/Cloud Development Not Observable,23.0,19.0,29.93,,,,,5,0,0,,,,,,,,,4/8 Partly Cloudy,72000.0,,FEW,4000,SCT,12000.0,SCT,20000.0,,
KRDR,05-20-2005,16:00,METAR,,160,12,,,9999,Haze/Cloud Development Not Observable,22.0,17.0,29.94,,,,,5,0,0,,,,,,,,,4/8 Partly Cloudy,72000.0,,FEW,4000,SCT,12000.0,SCT,20000.0,,
KRDR,05-20-2005,15:00,METAR,,160,12,,,9999,Mist/Cloud Development Not Observable,19.0,16.0,29.93,,,,,10,0,0,,,,,,,,,4/8 Partly Cloudy,72000.0,,FEW,4000,SCT,12000.0,SCT,20000.0,,
KRDR,05-20-2005,14:00,METAR,,170,10,,,9999,Mist/Cloud Development Not Observable,16.0,15.0,29.94,,,,,10,0,0,,,,,,,,,4/8 Partly Cloudy,72000.0,,FEW,500,SCT,12000.0,SCT,20000.0,,
KRDR,05-20-2005,13:00,METAR,,160,10,,,8000,Mist/Cloud Development Not Observable,15.0,15.0,29.94,,,,,10,0,0,,,,,,,,,4/8 Partly Cloudy,72000.0,,SCT,12000,,,,,,
KRDR,05-20-2005,12:30,METAR,,150,9,,,6400,Mist/Cloud Development Not Observable,15.0,15.0,29.93,,,,,10,0,0,,,,,,,,,4/8 Partly Cloudy,72000.0,,SCT,12000,,,,,,
KRDR,05-19-2005,21:30,METAR,,60,3,,,9999,Cloud Development Not Observable,19.0,15.0,29.82,,,,,0,0,0,,,,,,,,,7/8 Mostly Cloudy,2500.0,,BKN,2500,BKN,5000.0,,,,
KRDR,05-19-2005,21:00,METAR,,20,3,,,9999,Cloud Development Not Observable,19.0,15.0,29.81,,,,,0,0,0,,,,,,,,,7/8 Mostly Cloudy,2500.0,,BKN,2500,BKN,3500.0,,,,
KRDR,05-19-2005,20:00,METAR,,,2,,,9999,Cloud Development Not Observable,19.0,15.0,29.80,,,,,0,0,0,,,,,,,,,7/8 Mostly Cloudy,2500.0,,BKN,2500,BKN,3500.0,,,,
KRDR,05-19-2005,19:00,METAR,,,1,,,9999,Haze/Cloud Development Not Observable,18.0,15.0,29.81,,,,,5,0,0,,,,,,,,,7/8 Mostly Cloudy,2000.0,,BKN,2000,BKN,3000.0,,,,
KRDR,05-19-2005,18:00,METAR,,,1,,,9999,Haze/Cloud Development Not Observable,18.0,15.0,29.79,,,,,5,0,0,,,,,,,,,8/8 Overcast,1800.0,,FEW,1100,OVC,1800.0,,,,
KRDR,05-19-2005,17:00,METAR,,,1,,,8000,Mist/Cloud Development Not Observable,17.0,15.0,29.78,,,,,10,0,0,,,,,,,,,8/8 Overcast,1900.0,,SCT,1100,OVC,1900.0,,,,
KRDR,05-19-2005,16:00,METAR,,,2,,,6400,Mist/Cloud Development Not Observable,16.0,15.0,29.76,,,,,10,0,0,,,,,,,,,7/8 Mostly Cloudy,1800.0,,SCT,1800,BKN,1800.0,,,,
KRDR,05-19-2005,15:00,METAR,,260,4,,,4800,Mist/Cloud Development Not Observable,15.0,15.0,29.76,,,,,10,0,0,,,,,,,,,8/8 Overcast,1000.0,,SCT,500,OVC,1000.0,,,,
KRDR,05-19-2005,14:00,METAR,,,1,,,3200,Mist/Cloud Development Not Observable,15.0,15.0,29.74,,,,,10,0,0,,,,,,,,,8/8 Overcast,1000.0,,SCT,500,OVC,1000.0,,,,
KRDR,05-19-2005,13:00,METAR,,70,4,,,2400,Mist/Cloud Development Not Observable,14.0,14.0,29.71,,,,,10,0,0,,,,,,,,,8/8 Overcast,1000.0,,OVC,1000,,,,,,
KRDR,05-19-2005,12:30,METAR,,70,4,,,1600,Mist/Cloud Development Not Observable,13.0,13.0,29.71,,,,,10,0,0,,,,,,,,,8/8 Overcast,1000.0,,OVC,1000,,,,,,
KRDR,05-18-2005,21:30,METAR,,100,14,21.0,,9999,Cloud Development Not Observable,23.0,17.0,29.54,,,,,0,0,0,,,,,,,,,2/8 Mostly Clear,72000.0,,FEW,3000,,,,,,
KRDR,05-18-2005,21:00,METAR,,100,16,22.0,,9999,Cloud Development Not Observable,22.0,16.0,29.55,,,,,0,0,0,,,,,,,,,4/8 Partly Cloudy,72000.0,,SCT,3000,,,,,,
KRDR,05-18-2005,20:00,METAR,,110,16,20.0,,9999,Cloud Development Not Observable,21.0,16.0,29.55,,,,,0,0,0,,,,,,,,,7/8 Mostly Cloudy,3400.0,,SCT,2500,BKN,3500.0,BKN,7900.0,,
KRDR,05-18-2005,19:00,METAR,,120,11,19.0,,9999,Cloud Development Not Observable,21.0,16.0,29.56,,,,,0,0,0,,,,,,,,,7/8 Mostly Cloudy,8000.0,,SCT,2500,BKN,7900.0,,,,
KRDR,05-18-2005,18:00,METAR,,110,16,21.0,,9999,Cloud Development Not Observable,19.0,16.0,29.55,,,,,0,0,0,,,,,,,,,8/8 Overcast,8000.0,,SCT,4000,OVC,7900.0,,,,
KRDR,05-18-2005,17:00,METAR,,140,15,,,9999,Cloud Development Not Observable,19.0,15.0,29.55,,,,,0,0,0,,,,,,,,,7/8 Mostly Cloudy,8000.0,,SCT,4000,BKN,7900.0,,,,
KRDR,05-18-2005,16:00,METAR,,120,12,20.0,,9999,Cloud Development Not Observable,18.0,15.0,29.56,,,,,0,0,0,,,,,,,,,7/8 Mostly Cloudy,12000.0,,SCT,6900,BKN,12000.0,,,,
KRDR,05-18-2005,15:00,METAR,,140,16,23.0,,9999,Cloud Development Not Observable,18.0,15.0,29.56,,,,,0,0,0,,,,,,,,,7/8 Mostly Cloudy,12000.0,,FEW,5000,BKN,12000.0,BKN,25000.0,,
KRDR,05-18-2005,14:00,METAR,,130,14,,,9999,Cloud Development Not Observable,16.0,15.0,29.56,,,,,0,0,0,,,,,,,,,7/8 Mostly Cloudy,12000.0,,FEW,5000,BKN,12000.0,BKN,25000.0,,
KRDR,05-18-2005,13:00,METAR,,140,15,23.0,,9999,Cloud Development Not Observable,16.0,15.0,29.57,,,,,0,0,0,,,,,,,,.7 IN,7/8 Mostly Cloudy,12000.0,,FEW,5000,BKN,12000.0,BKN,25000.0,,
KRDR,05-18-2005,12:30,METAR,,130,14,23.0,,9999,Cloud Development Not Observable,16.0,15.0,29.57,,,,,0,0,0,,,,,,,,,7/8 Mostly Cloudy,12000.0,,FEW,5000,SCT,12000.0,BKN,25000.0,,
KRDR,05-17-2005,21:30,METAR,,110,19,25.0,,9999,Cloud Development Not Observable,22.0,13.0,29.62,,,,,0,0,0,,,,,,,,,7/8 Mostly Cloudy,10000.0,,SCT,5000,BKN,9900.0,BKN,25000.0,,
KRDR,05-17-2005,21:00,METAR,,120,16,26.0,120/31KTS,9999,Cloud Development Not Observable,21.0,13.0,29.62,,,,,0,0,0,,,,,,,,,7/8 Mostly Cloudy,10000.0,,SCT,5000,BKN,9900.0,BKN,25000.0,,
KRDR,05-17-2005,20:00,METAR,,130,20,27.0,120/28KTS,9999,Cloud Development Not Observable,23.0,12.0,29.63,,,,,0,0,0,,,,,,,,,7/8 Mostly Cloudy,10000.0,,FEW,5000,SCT,9900.0,BKN,25000.0,,
KRDR,05-17-2005,19:00,METAR,,110,16,26.0,120/26KTS,9999,Cloud Development Not Observable,23.0,12.0,29.63,,,,,0,0,0,,,,,,,,,7/8 Mostly Cloudy,25000.0,,FEW,5000,BKN,25000.0,,,,
KRDR,05-17-2005,18:00,METAR,,100,13,23.0,,9999,Cloud Development Not Observable,22.0,12.0,29.64,,,,,0,0,0,,,,,,,,,7/8 Mostly Cloudy,10000.0,,FEW,5000,SCT,9900.0,BKN,25000.0,,
KRDR,05-17-2005,16:00,METAR,,100,15,20.0,,9999,Cloud Development Not Observable,19.0,12.0,29.68,,,,,0,0,0,,,,,,,,,4/8 Partly Cloudy,72000.0,,SCT,25000,,,,,,
KRDR,05-17-2005,15:00,METAR,,100,13,19.0,,9999,Cloud Development Not Observable,16.0,11.0,29.70,,,,,0,0,0,,,,,,,,,4/8 Partly Cloudy,72000.0,,SCT,25000,,,,,,
KRDR,05-17-2005,14:00,METAR,,100,12,,,9999,Cloud Development Not Observable,14.0,10.0,29.70,,,,,0,0,0,,,,,,,,,2/8 Mostly Clear,72000.0,,FEW,5900,FEW,11000.0,,,,
KRDR,05-17-2005,13:00,METAR,,90,12,,,9999,Cloud Development Not Observable,12.0,9.0,29.72,,,,,0,0,0,,,,,,,,,2/8 Mostly Clear,72000.0,,FEW,5900,FEW,11000.0,,,,
KRDR,05-17-2005,12:30,METAR,,100,11,,,9999,Cloud Development Not Observable,11.0,9.0,29.72,,,,,0,0,0,,,,,,,,,2/8 Mostly Clear,72000.0,,FEW,11000,FEW,25000.0,,,,
KRDR,05-16-2005,21:30,METAR,,100,11,,,9999,Cloud Development Not Observable,20.0,5.0,29.78,,,,,0,0,0,,,,,,,,,2/8 Mostly Clear,72000.0,,FEW,11000,FEW,20000.0,,,,
KRDR,05-16-2005,21:00,METAR,,90,9,,,9999,Cloud Development Not Observable,20.0,6.0,29.79,,,,,0,0,0,,,,,,,,,4/8 Partly Cloudy,72000.0,,FEW,11000,SCT,20000.0,,,,
KRDR,05-16-2005,20:00,METAR,,90,8,,,9999,Cloud Development Not Observable,19.0,6.0,29.81,,,,,0,0,0,,,,,,,,,4/8 Partly Cloudy,72000.0,,FEW,11000,SCT,20000.0,,,,
KRDR,05-16-2005,19:00,METAR,,80,11,,,9999,Cloud Development Not Observable,17.0,6.0,29.83,,,,,0,0,0,,,,,,,,,4/8 Partly Cloudy,72000.0,,FEW,11000,SCT,20000.0,,,,
KRDR,05-16-2005,18:00,METAR,,70,9,,,9999,Cloud Development Not Observable,15.0,5.0,29.85,,,,,0,0,0,,,,,,,,,7/8 Mostly Cloudy,11000.0,,FEW,8900,SCT,11000.0,BKN,20000.0,,
KRDR,05-16-2005,17:00,METAR,,90,8,,,9999,Cloud Development Not Observable,13.0,6.0,29.88,,,,,0,0,0,,,,,,,,,7/8 Mostly Cloudy,9000.0,,FEW,5900,SCT,8900.0,BKN,11000.0,,
KRDR,05-16-2005,16:00,METAR,,90,8,,,9999,Cloud Development Not Observable,10.0,5.0,29.90,,,,,0,0,0,,,,,,,,,7/8 Mostly Cloudy,9000.0,,SCT,5900,BKN,8900.0,BKN,11000.0,,
KRDR,05-16-2005,15:00,METAR,,100,6,,,9999,Cloud Development Not Observable,9.0,5.0,29.91,,,,,0,0,0,,,,,,,,,7/8 Mostly Cloudy,7000.0,,BKN,6900,BKN,9900.0,,,,
KRDR,05-16-2005,14:00,METAR,,110,8,,,9999,Cloud Development Not Observable,6.0,4.0,29.93,,,,,0,0,0,,,,,,,,,7/8 Mostly Cloudy,9000.0,,BKN,8900,BKN,11000.0,,,,
KRDR,05-16-2005,13:00,METAR,,90,5,,,9999,Cloud Development Not Observable,5.0,3.0,29.93,,,,,0,0,0,,,,,,,,.18 IN,7/8 Mostly Cloudy,7000.0,,BKN,6900,BKN,11000.0,BKN,15000.0,,
KRDR,05-16-2005,12:30,METAR,,100,5,,,9999,Cloud Development Not Observable,4.0,3.0,29.94,,,,,0,0,0,,,,,,,,,7/8 Mostly Cloudy,8000.0,,BKN,7900,BKN,11000.0,,,,
KRDR,05-13-2005,21:30,METAR,,330,5,,,9999,Cloud Development Not Observable,8.0,8.0,29.80,,,,,0,0,0,,,,,,,,,8/8 Overcast,2500.0,,BKN,2500,OVC,3500.0,,,,
KRDR,05-13-2005,21:00,METAR,,,1,,,9999,Cloud Development Not Observable,8.0,8.0,29.79,,,,,0,0,0,,,,,,.05 IN,,,8/8 Overcast,2000.0,,FEW,1000,BKN,2000.0,BKN,3500.0,OVC,3500.0
KRDR,05-13-2005,20:45,METAR,,,0,,,9999,Cloud Development Not Observable,8.0,8.0,29.79,,,,,0,0,0,,,,,,,,,8/8 Overcast,2500.0,,FEW,1000,BKN,2500.0,BKN,3500.0,OVC,4500.0
KRDR,05-13-2005,20:00,METAR,,310,10,,,4800,Rain/Mist/Cloud Development Not Observable,8.0,8.0,29.82,,,,,61,10,0,,,,,,,,,8/8 Overcast,2500.0,,SCT,1000,BKN,2500.0,OVC,3400.0,,
KRDR,05-13-2005,19:00,METAR,,320,6,,,9999,Rain/Mist/Cloud Development Not Observable,7.0,7.0,29.82,,,,,61,10,0,,,,,,,,,8/8 Overcast,2600.0,,SCT,900,BKN,2600.0,OVC,3400.0,,
KRDR,05-13-2005,18:00,METAR,,,3,,,9999,Rain/Cloud Development Not Observable,9.0,8.0,29.83,,,,,61,0,0,,,,,,,.02 IN,,7/8 Mostly Cloudy,2600.0,,SCT,900,BKN,2600.0,,,,
KRDR,05-13-2005,17:00,METAR,,240,4,,,8000,Rain/Mist/Cloud Development Not Observable,7.0,7.0,29.84,,,,,61,10,0,,,,,,,,,8/8 Overcast,1200.0,,SCT,500,BKN,1200.0,OVC,2600.0,,
KRDR,05-13-2005,16:00,METAR,,180,3,,,6400,Drizzle/Mist/Cloud Development Not Observable,6.0,6.0,29.85,,,,,51,10,0,,,,,,,,,8/8 Overcast,1000.0,,SCT,500,OVC,1000.0,,,,
KRDR,05-13-2005,15:15,SPECI,,190,4,,,6400,Drizzle/Mist/Cloud Development Not Observable,6.0,6.0,29.86,,,,,51,10,0,,,,,,,,,8/8 Overcast,1000.0,,SCT,500,BKN,1000.0,OVC,1500.0,,
KRDR,05-13-2005,15:00,METAR,,160,4,,,9999,Cloud Development Not Observable,6.0,6.0,29.87,,,,,0,0,0,,,,,,,,,7/8 Mostly Cloudy,1000.0,,FEW,500,BKN,1000.0,,,,
KRDR,05-13-2005,14:00,METAR,,150,3,,,9999,Mist/Cloud Development Not Observable,6.0,6.0,29.87,,,,,10,0,0,,,,,,,,,7/8 Mostly Cloudy,1100.0,,SCT,500,BKN,1100.0,,,,
KRDR,05-13-2005,13:30,METAR,,120,4,,,9999,Mist/Cloud Development Not Observable,5.0,5.0,29.88,,,,,10,0,0,,,,,,,,,7/8 Mostly Cloudy,1500.0,,SCT,500,BKN,1500.0,,,,
KRDR,05-13-2005,13:00,METAR,,140,4,,,6400,Mist/Cloud Development Not Observable,5.0,5.0,29.89,,,,,10,0,0,,,,,,,,.07 IN,7/8 Mostly Cloudy,500.0,,BKN,500,BKN,1300.0,,,,
KRDR,05-13-2005,12:30,METAR,,140,5,,,6400,Mist/Cloud Development Not Observable,5.0,5.0,29.91,,,,,10,0,0,,,,,,,,,8/8 Overcast,500.0,,BKN,500,OVC,1000.0,,,,
KRDR,05-12-2005,21:30,METAR,,110,13,17.0,,8000,Rain/Mist/Cloud Development Not Observable,5.0,3.0,30.16,,,,,61,10,0,,,,,,,,,8/8 Overcast,3100.0,,BKN,3200,OVC,9900.0,,,,
KRDR,05-12-2005,21:00,METAR,,100,10,15.0,,9999,Rain/Mist/Cloud Development Not Observable,6.0,4.0,30.16,,,,,61,10,0,,,,,,.03 IN,,,8/8 Overcast,3300.0,,BKN,3400,OVC,9900.0,,,,
KRDR,05-12-2005,20:00,METAR,,110,14,19.0,,9999,Rain/Cloud Development Not Observable,9.0,-2.0,30.17,,,,,61,0,0,,,,,,,,,8/8 Overcast,3400.0,,BKN,3500,BKN,9900.0,OVC,20000.0,,
KRDR,05-12-2005,19:45,METAR,,100,14,19.0,,9999,Rain/Cloud Development Not Observable,9.0,-3.0,30.17,,,,,61,0,0,,,,,,,,,8/8 Overcast,3400.0,,BKN,3500,BKN,9900.0,OVC,20000.0,,
KRDR,05-12-2005,19:00,METAR,,80,14,20.0,,9999,Cloud Development Not Observable,10.0,-5.0,30.18,,,,,0,0,0,,,,,,,,,8/8 Overcast,10000.0,,SCT,3500,BKN,9900.0,OVC,20000.0,,
KRDR,05-12-2005,18:00,METAR,,90,13,20.0,,9999,Cloud Development Not Observable,9.0,-5.0,30.23,,,,,0,0,0,,,,,,,,,8/8 Overcast,10000.0,,FEW,4000,BKN,9900.0,OVC,20000.0,,
KRDR,05-12-2005,17:00,METAR,,90,13,19.0,,9999,Cloud Development Not Observable,8.0,-6.0,30.26,,,,,0,0,0,,,,,,,,,8/8 Overcast,10000.0,,FEW,4000,BKN,9900.0,OVC,20000.0,,
KRDR,05-12-2005,16:00,METAR,,90,11,17.0,,9999,Cloud Development Not Observable,7.0,-5.0,30.29,,,,,0,0,0,,,,,,,,,8/8 Overcast,10000.0,,BKN,9900,OVC,20000.0,,,,
KRDR,05-12-2005,15:00,METAR,,80,8,,,9999,Cloud Development Not Observable,5.0,-4.0,30.31,,,,,0,0,0,,,,,,,,,8/8 Overcast,10000.0,,BKN,9900,OVC,20000.0,,,,
KRDR,05-12-2005,14:00,METAR,,90,11,14.0,,9999,Cloud Development Not Observable,4.0,-4.0,30.31,,,,,0,0,0,,,,,,,,,8/8 Overcast,20000.0,,SCT,9900,OVC,20000.0,,,,
KRDR,05-12-2005,13:00,METAR,,80,9,,,9999,Cloud Development Not Observable,4.0,-4.0,30.32,,,,,0,0,0,,,,,,,,,8/8 Overcast,20000.0,,SCT,9900,OVC,20000.0,,,,
KRDR,05-12-2005,12:30,METAR,,90,11,15.0,,9999,Cloud Development Not Observable,3.0,-2.0,30.34,,,,,0,0,0,,,,,,,,,8/8 Overcast,20000.0,,SCT,9900,OVC,20000.0,,,,
KRDR,05-11-2005,21:25,METAR,,50,14,20.0,,9999,Cloud Development Not Observable,10.0,-4.0,30.42,,,,,0,0,0,,,,,,,,,7/8 Mostly Cloudy,25000.0,,BKN,25000,,,,,,
KRDR,05-11-2005,21:00,METAR,,70,14,20.0,,9999,Cloud Development Not Observable,10.0,-4.0,30.43,,,,,0,0,0,,,,,,,,,7/8 Mostly Cloudy,25000.0,,BKN,25000,,,,,,
KRDR,05-11-2005,20:00,METAR,,20,14,20.0,,9999,Cloud Development Not Observable,9.0,-3.0,30.44,,,,,0,0,0,,,,,,,,,7/8 Mostly Cloudy,25000.0,,FEW,3000,BKN,25000.0,,,,
KRDR,05-11-2005,19:00,METAR,,40,14,22.0,,9999,Cloud Development Not Observable,8.0,-3.0,30.46,,,,,0,0,0,,,,,,,,,7/8 Mostly Cloudy,25000.0,,FEW,3000,BKN,25000.0,,,,
KRDR,05-11-2005,18:00,METAR,,20,16,21.0,,9999,Cloud Development Not Observable,7.0,-3.0,30.46,,,,,0,0,0,,,,,,,,,7/8 Mostly Cloudy,25000.0,,FEW,3000,BKN,25000.0,,,,
KRDR,05-11-2005,17:00,METAR,,20,14,22.0,,9999,Cloud Development Not Observable,5.0,-3.0,30.48,,,,,0,0,0,,,,,,,,,7/8 Mostly Cloudy,25000.0,,FEW,3000,BKN,25000.0,,,,
KRDR,05-11-2005,16:00,METAR,,20,13,21.0,,9999,Cloud Development Not Observable,4.0,-3.0,30.48,,,,,0,0,0,,,,,,,,,7/8 Mostly Cloudy,25000.0,,FEW,3000,BKN,25000.0,,,,
KRDR,05-11-2005,15:00,METAR,,10,17,23.0,,9999,Cloud Development Not Observable,3.0,-3.0,30.47,,,,,0,0,0,,,,,,,,,7/8 Mostly Cloudy,25000.0,,FEW,3000,BKN,25000.0,,,,
KRDR,05-11-2005,14:00,METAR,,10,16,23.0,,9999,Cloud Development Not Observable,2.0,-3.0,30.45,,,,,0,0,0,,,,,,,,,7/8 Mostly Cloudy,25000.0,,FEW,3000,BKN,25000.0,,,,
KRDR,05-11-2005,13:00,METAR,,10,16,19.0,,9999,Cloud Development Not Observable,1.0,-2.0,30.45,,,,,0,0,0,,,,,,,,,2/8 Mostly Clear,72000.0,,FEW,25000,,,,,,
KRDR,05-11-2005,12:30,METAR,,10,12,16.0,,9999,Cloud Development Not Observable,0.0,-2.0,30.45,,,,,0,0,0,,,,,,,,,2/8 Mostly Clear,72000.0,,FEW,25000,,,,,,
KRDR,05-10-2005,21:30,METAR,,340,20,25.0,,9999,Cloud Development Not Observable,7.0,6.0,30.05,,,,,0,0,0,,,,,,,,,7/8 Mostly Cloudy,1200.0,,BKN,1200,BKN,2000.0,,,,
KRDR,05-10-2005,21:00,METAR,,340,19,25.0,350/26KTS,9999,Cloud Development Not Observable,8.0,6.0,30.06,,,,,0,0,0,,,,,,,,,8/8 Overcast,1100.0,,BKN,1100,OVC,2500.0,,,,
KRDR,05-10-2005,20:00,METAR,,340,18,24.0,350/28KTS,9999,Cloud Development Not Observable,8.0,7.0,30.03,,,,,0,0,0,,,,,,,,,8/8 Overcast,1000.0,,BKN,1000,OVC,2500.0,,,,
KRDR,05-10-2005,19:00,METAR,,330,20,25.0,340/28KTS,9999,Cloud Development Not Observable,8.0,7.0,30.00,,,,,0,0,0,,,,,,,,,8/8 Overcast,1000.0,,BKN,1000,OVC,2500.0,,,,
KRDR,05-10-2005,18:00,METAR,,350,21,25.0,360/27KTS,9999,Cloud Development Not Observable,9.0,8.0,29.96,,,,,0,0,0,,,,,,,IN,,7/8 Mostly Cloudy,1100.0,,BKN,1100,BKN,2500.0,,,,
KRDR,05-10-2005,17:42,SPECI,,350,19,25.0,,9999,Cloud Development Not Observable,10.0,8.0,29.95,,,,,0,0,0,,,,,,,,,8/8 Overcast,1200.0,,BKN,1200,OVC,2500.0,,,,
KRDR,05-10-2005,17:00,METAR,,340,22,27.0,340/29KTS,9999,Cloud Development Not Observable,12.0,9.0,29.93,,,,,0,0,0,,,,,,,,,7/8 Mostly Cloudy,3000.0,,SCT,1500,BKN,3000.0,,,,
KRDR,05-10-2005,16:00,METAR,,340,19,25.0,,9999,Cloud Development Not Observable,14.0,9.0,29.89,,,,,0,0,0,,,,,,,,,7/8 Mostly Cloudy,20000.0,,SCT,4000,BKN,20000.0,,,,
KRDR,05-10-2005,15:00,METAR,,330,14,,,9999,Cloud Development Not Observable,12.0,9.0,29.87,,,,,0,0,0,,,,,,TRACE,,,7/8 Mostly Cloudy,7000.0,,FEW,4000,SCT,6900.0,BKN,20000.0,,
KRDR,05-10-2005,14:30,METAR,,330,14,,,9999,Cloud Development Not Observable,12.0,9.0,29.86,,,,,0,0,0,,,,,,,,,4/8 Partly Cloudy,72000.0,,FEW,6900,SCT,20000.0,,,,
KRDR,05-10-2005,14:00,METAR,,320,12,,,9999,Light Rain Showers/Cloud Development Not Observable,11.0,9.0,29.86,,,,,80,0,0,,,,,,,,,7/8 Mostly Cloudy,7000.0,,FEW,5000,BKN,6900.0,BKN,20000.0,,
KRDR,05-10-2005,13:00,METAR,,320,10,,,9999,Light Rain Showers/Cloud Development Not Observable,10.0,10.0,29.84,,,,,80,0,0,,,,,,,,.04 IN,7/8 Mostly Cloudy,7000.0,,SCT,5400,BKN,6900.0,BKN,20000.0,,
KRDR,05-10-2005,12:30,METAR,,330,12,,,9999,Cloud Development Not Observable,10.0,10.0,29.83,,,,,0,0,0,,,,,,,,,7/8 Mostly Cloudy,6500.0,,BKN,6400,BKN,20000.0,,,,
KRDR,05-09-2005,21:30,METAR,,320,13,19.0,,9999,Rain/Cloud Development Not Observable,12.0,12.0,29.64,,,,,61,0,0,,,,,,,,,8/8 Overcast,1100.0,,BKN,1100,OVC,1500.0,,,,
KRDR,05-09-2005,21:00,METAR,,330,14,20.0,,9999,Rain/Cloud Development Not Observable,12.0,12.0,29.64,,,,,61,0,0,,,,,,.01 IN,,,8/8 Overcast,1100.0,,BKN,1100,OVC,3500.0,,,,
KRDR,05-09-2005,20:15,SPECI,,330,14,20.0,,9999,Rain/Cloud Development Not Observable,12.0,12.0,29.64,,,,,61,0,0,,,,,,,,,8/8 Overcast,1200.0,,BKN,1200,OVC,1500.0,,,,
KRDR,05-09-2005,20:00,METAR,,330,13,19.0,,9999,Rain/Cloud Development Not Observable,12.0,12.0,29.64,,,,,61,0,0,,,,,,,,,8/8 Overcast,900.0,,BKN,900,OVC,1500.0,,,,
KRDR,05-09-2005,19:00,METAR,,330,14,,,9999,Rain/Cloud Development Not Observable,12.0,12.0,29.64,,,,,61,0,0,,,,,,,,,8/8 Overcast,800.0,,BKN,800,OVC,3000.0,,,,
KRDR,05-09-2005,18:00,METAR,,360,14,,,9999,Rain/Cloud Development Not Observable,12.0,12.0,29.63,,,,,61,0,0,,,,,,,.03 IN,,8/8 Overcast,800.0,,BKN,800,OVC,3000.0,,,,
KRDR,05-09-2005,17:00,METAR,,330,13,17.0,,9999,Rain/Cloud Development Not Observable,13.0,13.0,29.63,,,,,61,0,0,,,,,,,,,8/8 Overcast,600.0,,BKN,600,OVC,3000.0,,,,
KRDR,05-09-2005,16:00,METAR,,340,12,,,9999,Rain/Mist/Cloud Development Not Observable,14.0,14.0,29.63,,,,,61,10,0,,,,,,,,,8/8 Overcast,700.0,,BKN,700,OVC,3000.0,,,,
KRDR,05-09-2005,15:00,METAR,,330,9,,,8000,Rain/Mist/Cloud Development Not Observable,14.0,14.0,29.62,,,,,61,10,0,,,,,,.02 IN,,,7/8 Mostly Cloudy,600.0,,BKN,600,BKN,3000.0,,,,
KRDR,05-09-2005,14:00,METAR,,10,7,,,4800,Rain/Mist/Cloud Development Not Observable,14.0,14.0,29.64,,,,,61,10,0,,,,,,,,,8/8 Overcast,600.0,,BKN,600,OVC,1000.0,,,,
KRDR,05-09-2005,13:00,METAR,,340,7,,,3200,Rain/Mist/Cloud Development Not Observable,13.0,13.0,29.64,,,,,61,10,0,,,,,,,,1.04 IN,8/8 Overcast,500.0,,BKN,500,OVC,1000.0,,,,
KRDR,05-09-2005,12:30,METAR,,340,7,,,2400,Rain/Mist/Cloud Development Not Observable,12.0,12.0,29.65,,,,,61,10,0,,,,,,,,,8/8 Overcast,500.0,,BKN,500,OVC,1000.0,,,,
KRDR,05-06-2005,21:30,METAR,,90,6,,,9999,Cloud Development Not Observable,23.0,-6.0,29.95,,,,,0,0,0,,,,,,,,,7/8 Mostly Cloudy,25000.0,,BKN,25000,,,,,,
KRDR,05-06-2005,21:00,METAR,,110,9,15.0,,9999,Cloud Development Not Observable,22.0,-6.0,29.96,,,,,0,0,0,,,,,,,,,4/8 Partly Cloudy,72000.0,,SCT,25000,,,,,,
KRDR,05-06-2005,20:00,METAR,,90,11,,,9999,Cloud Development Not Observable,22.0,-7.0,29.98,,,,,0,0,0,,,,,,,,,4/8 Partly Cloudy,72000.0,,SCT,25000,,,,,,
KRDR,05-06-2005,19:00,METAR,,130,10,,,9999,Cloud Development Not Observable,21.0,-7.0,30.00,,,,,0,0,0,,,,,,,,,2/8 Mostly Clear,72000.0,,FEW,25000,,,,,,
KRDR,05-06-2005,18:00,METAR,,120,8,,,9999,Cloud Development Not Observable,20.0,-5.0,30.03,,,,,0,0,0,,,,,,,,,2/8 Mostly Clear,72000.0,,FEW,25000,,,,,,
KRDR,05-06-2005,17:00,METAR,,100,7,,,9999,Cloud Development Not Observable,19.0,-6.0,30.05,,,,,0,0,0,,,,,,,,,2/8 Mostly Clear,72000.0,,FEW,25000,,,,,,
KRDR,05-06-2005,16:00,METAR,,80,5,,,9999,Cloud Development Not Observable,17.0,-3.0,30.07,,,,,0,0,0,,,,,,,,,2/8 Mostly Clear,72000.0,,FEW,25000,,,,,,
KRDR,05-06-2005,15:00,METAR,,30,4,,,9999,Cloud Development Not Observable,14.0,-3.0,30.09,,,,,0,0,0,,,,,,,,,2/8 Mostly Clear,72000.0,,FEW,25000,,,,,,
KRDR,05-06-2005,14:00,METAR,,340,4,,,9999,Cloud Development Not Observable,11.0,-1.0,30.08,,,,,0,0,0,,,,,,,,,2/8 Mostly Clear,72000.0,,FEW,25000,,,,,,
KRDR,05-06-2005,13:00,METAR,,340,7,,,9999,Cloud Development Not Observable,10.0,-1.0,30.07,,,,,0,0,0,,,,,,,,,2/8 Mostly Clear,72000.0,,FEW,25000,,,,,,
KRDR,05-06-2005,12:30,METAR,,320,5,,,9999,Cloud Development Not Observable,7.0,-1.0,30.07,,,,,0,0,0,,,,,,,,,2/8 Mostly Clear,72000.0,,FEW,25000,,,,,,
KRDR,05-05-2005,21:30,METAR,,340,14,20.0,,9999,Cloud Development Not Observable,24.0,-2.0,29.88,,,,,0,0,0,,,,,,,,,4/8 Partly Cloudy,72000.0,,SCT,5000,,,,,,
KRDR,05-05-2005,21:00,METAR,,330,16,21.0,,9999,Cloud Development Not Observable,23.0,-2.0,29.88,,,,,0,0,0,,,,,,,,,2/8 Mostly Clear,72000.0,,FEW,5000,,,,,,
KRDR,05-05-2005,20:00,METAR,,300,15,20.0,,9999,Cloud Development Not Observable,24.0,-7.0,29.87,,,,,0,0,0,,,,,,,,,2/8 Mostly Clear,72000.0,,FEW,5000,,,,,,
KRDR,05-05-2005,19:00,METAR,,270,16,21.0,,9999,Cloud Development Not Observable,23.0,-5.0,29.87,,,,,0,0,0,,,,,,,,,2/8 Mostly Clear,72000.0,,FEW,9900,,,,,,
KRDR,05-05-2005,18:00,METAR,,270,16,20.0,,9999,Cloud Development Not Observable,23.0,-5.0,29.87,,,,,0,0,0,,,,,,,,,2/8 Mostly Clear,72000.0,,FEW,9900,,,,,,
KRDR,05-05-2005,17:00,METAR,,260,11,21.0,,9999,Cloud Development Not Observable,23.0,-5.0,29.88,,,,,0,0,0,,,,,,,,,4/8 Partly Cloudy,72000.0,,FEW,5900,FEW,9900.0,SCT,20000.0,,
KRDR,05-05-2005,16:00,METAR,,270,8,,,9999,Cloud Development Not Observable,22.0,-4.0,29.87,,,,,0,0,0,,,,,,,,,7/8 Mostly Cloudy,10000.0,,FEW,5900,SCT,9900.0,BKN,20000.0,,
KRDR,05-05-2005,15:00,METAR,,,5,,,9999,Cloud Development Not Observable,21.0,-1.0,29.87,,,,,0,0,0,,,,,,,,,7/8 Mostly Cloudy,10000.0,,SCT,5900,BKN,9900.0,BKN,20000.0,,
KRDR,05-05-2005,14:00,METAR,,220,4,,,9999,Cloud Development Not Observable,16.0,2.0,29.87,,,,,0,0,0,,,,,,,,,7/8 Mostly Cloudy,10000.0,,FEW,5000,SCT,9900.0,BKN,20000.0,,
KRDR,05-05-2005,13:00,METAR,,200,5,,,9999,Cloud Development Not Observable,13.0,3.0,29.86,,,,,0,0,0,,,,,,,,,7/8 Mostly Cloudy,10000.0,,SCT,5000,BKN,9900.0,BKN,20000.0,,
KRDR,05-05-2005,12:25,METAR,,220,6,,,9999,Cloud Development Not Observable,13.0,2.0,29.85,,,,,0,0,0,,,,,,,,,7/8 Mostly Cloudy,12000.0,,SCT,5000,BKN,12000.0,BKN,20000.0,,
KRDR,05-04-2005,21:25,METAR,,140,12,,,9999,Cloud Development Not Observable,20.0,-11.0,29.98,,,,,0,0,0,,,,,,,,,2/8 Mostly Clear,72000.0,,FEW,9900,FEW,20000.0,,,,
KRDR,05-04-2005,21:00,METAR,,150,12,,,9999,Cloud Development Not Observable,20.0,-10.0,29.98,,,,,0,0,0,,,,,,,,,2/8 Mostly Clear,72000.0,,FEW,9900,FEW,20000.0,,,,
KRDR,05-04-2005,20:00,METAR,,170,9,14.0,,9999,Cloud Development Not Observable,20.0,-11.0,30.00,,,,,0,0,0,,,,,,,,,4/8 Partly Cloudy,72000.0,,FEW,9900,SCT,20000.0,,,,
KRDR,05-04-2005,19:00,METAR,,180,8,17.0,,9999,Cloud Development Not Observable,19.0,-10.0,30.01,,,,,0,0,0,,,,,,,,,4/8 Partly Cloudy,72000.0,,FEW,9900,SCT,20000.0,,,,
KRDR,05-04-2005,18:00,METAR,,200,12,17.0,,9999,Cloud Development Not Observable,18.0,-10.0,30.03,,,,,0,0,0,,,,,,,,,7/8 Mostly Cloudy,20000.0,,SCT,9900,BKN,20000.0,,,,
KRDR,05-04-2005,17:00,METAR,,180,11,14.0,,9999,Cloud Development Not Observable,18.0,-9.0,30.04,,,,,0,0,0,,,,,,,,,4/8 Partly Cloudy,72000.0,,FEW,6900,SCT,25000.0,,,,
KRDR,05-04-2005,16:00,METAR,,210,9,15.0,,9999,Cloud Development Not Observable,17.0,-7.0,30.05,,,,,0,0,0,,,,,,,,,4/8 Partly Cloudy,72000.0,,FEW,6900,SCT,25000.0,,,,
KRDR,05-04-2005,15:00,METAR,,220,13,18.0,,9999,Cloud Development Not Observable,15.0,-5.0,30.05,,,,,0,0,0,,,,,,,,,4/8 Partly Cloudy,72000.0,,SCT,25000,,,,,,
KRDR,05-04-2005,14:00,METAR,,230,10,,,9999,Cloud Development Not Observable,11.0,-6.0,30.06,,,,,0,0,0,,,,,,,,,2/8 Mostly Clear,72000.0,,FEW,25000,,,,,,
KRDR,05-04-2005,13:00,METAR,,210,7,,,9999,Cloud Development Not Observable,7.0,-6.0,30.05,,,,,0,0,0,,,,,,,,,2/8 Mostly Clear,72000.0,,FEW,25000,,,,,,
KRDR,05-04-2005,12:30,METAR,,200,6,,,9999,Cloud Development Not Observable,4.0,-6.0,30.05,,,,,0,0,0,,,,,,,,,2/8 Mostly Clear,72000.0,,FEW,25000,,,,,,
KRDR,05-03-2005,21:30,METAR,,270,7,,,9999,Cloud Development Not Observable,14.0,-10.0,30.09,,,,,0,0,0,,,,,,,,,4/8 Partly Cloudy,72000.0,,SCT,25000,,,,,,
KRDR,05-03-2005,21:00,METAR,,250,9,,,9999,Cloud Development Not Observable,14.0,-10.0,30.09,,,,,0,0,0,,,,,,,,,4/8 Partly Cloudy,72000.0,,SCT,25000,,,,,,
KRDR,05-03-2005,20:00,METAR,,260,7,,,9999,Cloud Development Not Observable,13.0,-11.0,30.10,,,,,0,0,0,,,,,,,,,4/8 Partly Cloudy,72000.0,,SCT,25000,,,,,,
KRDR,05-03-2005,19:00,METAR,,280,9,16.0,,9999,Cloud Development Not Observable,13.0,-10.0,30.12,,,,,0,0,0,,,,,,,,,4/8 Partly Cloudy,72000.0,,SCT,25000,,,,,,
KRDR,05-03-2005,18:00,METAR,,310,8,,,9999,Cloud Development Not Observable,12.0,-11.0,30.13,,,,,0,0,0,,,,,,,,,4/8 Partly Cloudy,72000.0,,FEW,8900,SCT,25000.0,,,,
KRDR,05-03-2005,17:00,METAR,,260,7,,,9999,Cloud Development Not Observable,11.0,-10.0,30.15,,,,,0,0,0,,,,,,,,,2/8 Mostly Clear,72000.0,,FEW,25000,,,,,,
KRDR,05-03-2005,16:00,METAR,,,3,,,9999,Cloud Development Not Observable,10.0,-8.0,30.16,,,,,0,0,0,,,,,,,,,2/8 Mostly Clear,72000.0,,FEW,25000,,,,,,
KRDR,05-03-2005,15:00,METAR,,290,5,,,9999,Cloud Development Not Observable,8.0,-8.0,30.17,,,,,0,0,0,,,,,,,,,2/8 Mostly Clear,72000.0,,FEW,25000,,,,,,
KRDR,05-03-2005,14:00,METAR,,270,8,,,9999,Cloud Development Not Observable,5.0,-8.0,30.17,,,,,0,0,0,,,,,,,,,2/8 Mostly Clear,72000.0,,FEW,25000,,,,,,
KRDR,05-03-2005,13:00,METAR,,250,5,,,9999,Cloud Development Not Observable,1.0,-6.0,30.17,,,,,0,0,0,,,,,,,,,2/8 Mostly Clear,72000.0,,FEW,25000,,,,,,
KRDR,05-03-2005,12:30,METAR,,240,4,,,9999,Cloud Development Not Observable,-1.0,-5.0,30.17,,,,,0,0,0,,,,,,,,,2/8 Mostly Clear,72000.0,,FEW,25000,,,,,,
KRDR,05-02-2005,21:30,METAR,,330,9,18.0,,9999,Cloud Development Not Observable,8.0,-9.0,30.16,,,,,0,0,0,,,,,,,,,Clear,72000.0,,,73000,,,,,,
KRDR,05-02-2005,21:00,METAR,,290,12,18.0,,9999,Cloud Development Not Observable,8.0,-9.0,30.17,,,,,0,0,0,,,,,,,,,Clear,72000.0,,,73000,,,,,,
KRDR,05-02-2005,20:00,METAR,,330,6,18.0,,9999,Cloud Development Not Observable,6.0,-11.0,30.19,,,,,0,0,0,,,,,,,,,Clear,72000.0,,,73000,,,,,,
KRDR,05-02-2005,19:00,METAR,,310,16,25.0,,9999,Cloud Development Not Observable,7.0,-10.0,30.20,,,,,0,0,0,,,,,,,,,Clear,72000.0,,,73000,,,,,,
KRDR,05-02-2005,18:00,METAR,,320,14,22.0,,9999,Cloud Development Not Observable,6.0,-11.0,30.21,,,,,0,0,0,,,,,,,,,Clear,72000.0,,,73000,,,,,,
KRDR,05-02-2005,17:00,METAR,,340,17,24.0,,9999,Cloud Development Not Observable,5.0,-10.0,30.21,,,,,0,0,0,,,,,,,,,2/8 Mostly Clear,72000.0,,FEW,4000,FEW,25000.0,,,,
KRDR,05-02-2005,16:00,METAR,,320,14,25.0,,9999,Cloud Development Not Observable,3.0,-10.0,30.23,,,,,0,0,0,,,,,,,,,2/8 Mostly Clear,72000.0,,FEW,4000,FEW,25000.0,,,,
KRDR,05-02-2005,15:00,METAR,,300,14,28.0,300/28KTS,9999,Cloud Development Not Observable,2.0,-9.0,30.23,,,,,0,0,0,,,,,,,,,2/8 Mostly Clear,72000.0,,FEW,25000,,,,,,
KRDR,05-02-2005,14:00,METAR,,310,14,18.0,,9999,Cloud Development Not Observable,1.0,-8.0,30.23,,,,,0,0,0,,,,,,,,,2/8 Mostly Clear,72000.0,,FEW,25000,,,,,,
KRDR,05-02-2005,13:00,METAR,,290,12,,,9999,Cloud Development Not Observable,-2.0,-7.0,30.23,,,,,0,0,0,,,,,,,,,2/8 Mostly Clear,72000.0,,FEW,25000,,,,,,
KRDR,05-02-2005,12:40,SPECI,,290,10,,,9999,Cloud Development Not Observable,-2.0,-7.0,30.22,,,,,0,0,0,,,,,,,,,2/8 Mostly Clear,72000.0,,FEW,25000,,,,,,
KRDR,04-29-2005,21:30,METAR,,300,11,16.0,,9999,Cloud Development Not Observable,6.0,-3.0,29.92,,,,,0,0,0,,,,,,,,,8/8 Overcast,3400.0,,FEW,2500,SCT,3500.0,BKN,5000.0,OVC,6900.0
KRDR,04-29-2005,21:00,METAR,,300,11,17.0,,9999,Cloud Development Not Observable,6.0,-3.0,29.92,,,,,0,0,0,,,,,,TRACE,,,7/8 Mostly Cloudy,5500.0,,FEW,3500,BKN,5400.0,BKN,6900.0,,
KRDR,04-29-2005,20:00,METAR,,240,8,,,9999,Cloud Development Not Observable,5.0,-3.0,29.91,,,,,0,0,0,,,,,,,,,7/8 Mostly Cloudy,3400.0,,FEW,2500,BKN,3500.0,BKN,5400.0,,
KRDR,04-29-2005,19:50,METAR,,250,7,,,9999,Cloud Development Not Observable,5.0,-3.0,29.91,,,,,0,0,0,,,,,,,,,7/8 Mostly Cloudy,3400.0,,FEW,2500,BKN,3500.0,BKN,5000.0,,
KRDR,04-29-2005,19:40,SPECI,,300,5,,,9999,Light Snow Showers/Cloud Development Not Observable,4.0,-2.0,29.92,,,,,85,0,0,,,,,,,,,7/8 Mostly Cloudy,3400.0,,FEW,2500,BKN,3500.0,BKN,5000.0,,
KRDR,04-29-2005,19:00,METAR,,310,4,,,9999,Cloud Development Not Observable,6.0,-3.0,29.91,,,,,0,0,0,,,,,,,,,7/8 Mostly Cloudy,3900.0,,FEW,2500,SCT,4000.0,BKN,5000.0,,
KRDR,04-29-2005,18:43,SPECI,,310,9,,,9999,Cloud Development Not Observable,5.0,-3.0,29.92,,,,,0,0,0,,,,,,,,,7/8 Mostly Cloudy,3400.0,,FEW,2500,SCT,3500.0,BKN,5000.0,,
KRDR,04-29-2005,18:20,METAR,,270,12,17.0,,9999,Light Snow Showers/Cloud Development Not Observable,4.0,-3.0,29.91,,,,,85,0,0,,,,,,,,,8/8 Overcast,3400.0,,SCT,2500,BKN,3500.0,OVC,5000.0,,
KRDR,04-29-2005,18:00,METAR,,270,10,,,9999,Cloud Development Not Observable,6.0,-5.0,29.91,,,,,0,0,0,,,,,,,IN,,8/8 Overcast,3400.0,,FEW,2500,BKN,3500.0,OVC,5000.0,,
KRDR,04-29-2005,17:45,METAR,,240,6,,,9999,Cloud Development Not Observable,6.0,-5.0,29.91,,,,,0,0,0,,,,,,,,,8/8 Overcast,3400.0,,FEW,2500,BKN,3500.0,OVC,5000.0,,
KRDR,04-29-2005,17:00,METAR,,300,9,,,9999,Light Snow Showers/Cloud Development Not Observable,4.0,-5.0,29.92,,,,,85,0,0,,,,,,,,,8/8 Overcast,4300.0,,FEW,2500,OVC,4400.0,,,,
KRDR,04-29-2005,16:45,METAR,,290,5,,,9999,Light Snow Showers/Cloud Development Not Observable,4.0,-5.0,29.92,,,,,85,0,0,,,,,,,,,7/8 Mostly Cloudy,4300.0,,FEW,2500,BKN,4400.0,BKN,25000.0,,
KRDR,04-29-2005,16:00,METAR,,290,9,,,9999,Cloud Development Not Observable,4.0,-6.0,29.91,,,,,0,0,0,,,,,,,,,7/8 Mostly Cloudy,4100.0,,BKN,4200,,,,,,
KRDR,04-29-2005,15:00,METAR,,320,12,,,9999,Cloud Development Not Observable,5.0,-5.0,29.91,,,,,0,0,0,,,,,,,,,7/8 Mostly Cloudy,6000.0,,BKN,5900,,,,,,
KRDR,04-29-2005,14:00,METAR,,290,8,,,9999,Cloud Development Not Observable,3.0,-5.0,29.91,,,,,0,0,0,,,,,,,,,7/8 Mostly Cloudy,7000.0,,SCT,4500,BKN,6900.0,,,,
KRDR,04-29-2005,13:00,METAR,,270,9,,,9999,Cloud Development Not Observable,2.0,-4.0,29.91,,,,,0,0,0,,,,,,,,,8/8 Overcast,4400.0,,BKN,4500,OVC,9900.0,,,,
KRDR,04-29-2005,12:00,METAR,,240,4,,,9999,Cloud Development Not Observable,0.0,-4.0,29.91,,,,,0,0,0,,,,,,,,,8/8 Overcast,4800.0,,BKN,4900,OVC,6900.0,,,,
KRDR,04-28-2005,21:30,METAR,,300,12,16.0,,9999,Cloud Development Not Observable,5.0,-2.0,29.91,,,,,0,0,0,,,,,,,,,7/8 Mostly Cloudy,3900.0,,SCT,2500,BKN,4000.0,BKN,6400.0,,
KRDR,04-28-2005,21:00,METAR,,280,12,17.0,,9999,Cloud Development Not Observable,4.0,-3.0,29.91,1014.4,,,,0,0,0,,,,,,,,,8/8 Overcast,3900.0,,FEW,2500,BKN,4000.0,OVC,6400.0,,
KRDR,04-28-2005,20:00,METAR,,320,10,,,9999,Cloud Development Not Observable,5.0,-6.0,29.91,1014.3,,,,0,0,0,,,,,,,,,8/8 Overcast,4900.0,,BKN,5000,OVC,6400.0,,,,
KRDR,04-28-2005,19:00,METAR,,270,12,17.0,,9999,Cloud Development Not Observable,6.0,-6.0,29.91,1014.2,,,,0,0,0,,,,,,,,,7/8 Mostly Cloudy,6500.0,,SCT,5000,BKN,6400.0,,,,
KRDR,04-28-2005,18:00,METAR,,290,12,21.0,,9999,Cloud Development Not Observable,4.0,-5.0,29.91,1014.3,,,,0,0,0,,,,,,,IN,,8/8 Overcast,4400.0,,BKN,4500,OVC,8900.0,,,,
KRDR,04-28-2005,17:17,SPECI,,340,7,,,9999,Cloud Development Not Observable,3.0,-2.0,29.92,,,,,0,0,0,,,,,,,,,8/8 Overcast,4400.0,,BKN,4500,OVC,8900.0,,,,
KRDR,04-28-2005,17:00,METAR,,350,10,,,9999,Light Snow Showers/Cloud Development Not Observable,3.0,-2.0,29.92,1014.7,,,,85,0,0,,,,,,,,,8/8 Overcast,3900.0,,BKN,4000,OVC,8900.0,,,,
KRDR,04-28-2005,16:44,SPECI,,340,9,,,9999,Light Snow Showers/Cloud Development Not Observable,3.0,-3.0,29.92,,,,,85,0,0,,,,,,,,,8/8 Overcast,4300.0,,BKN,4400,OVC,8900.0,,,,
KRDR,04-28-2005,16:00,METAR,,320,8,,,9999,Cloud Development Not Observable,3.0,-5.0,29.91,1014.1,,,,0,0,0,,,,,,,,,8/8 Overcast,3700.0,,FEW,2600,BKN,3800.0,OVC,8900.0,,
KRDR,04-28-2005,15:00,METAR,,310,11,,,9999,Cloud Development Not Observable,3.0,-4.0,29.91,1014.2,,,,0,0,0,,,,,,TRACE,,,7/8 Mostly Cloudy,3200.0,,FEW,2600,BKN,3300.0,BKN,8900.0,,
KRDR,04-28-2005,14:09,SPECI,,310,5,,,9999,Cloud Development Not Observable,1.0,-3.0,29.91,,,,,0,0,0,,,,,,,,,7/8 Mostly Cloudy,6000.0,,FEW,2800,BKN,5900.0,BKN,8900.0,BKN,20000.0
KRDR,04-28-2005,14:00,METAR,,330,7,,,9999,Light Snow/Cloud Development Not Observable,1.0,-2.0,29.91,1014.3,,,,71,0,0,,,,,,,,,7/8 Mostly Cloudy,6000.0,,SCT,3500,BKN,5900.0,BKN,20000.0,,
KRDR,04-28-2005,13:47,SPECI,,330,8,,,9999,Light Snow/Cloud Development Not Observable,1.0,-2.0,29.91,,,,,71,0,0,,,,,,,,,7/8 Mostly Cloudy,6000.0,,SCT,3300,BKN,5900.0,BKN,8900.0,BKN,20000.0
KRDR,04-28-2005,13:00,METAR,,300,5,,,9999,Cloud Development Not Observable,0.0,-2.0,29.91,1014.1,,,,0,0,0,,,,,,,,,7/8 Mostly Cloudy,3200.0,,BKN,3300,BKN,5900.0,BKN,20000.0,,
KRDR,04-28-2005,12:00,METAR,,270,4,,,9999,Cloud Development Not Observable,-2.0,-2.0,29.89,1013.7,,,,0,0,0,,,,,,,IN,,7/8 Mostly Cloudy,4900.0,,FEW,2400,SCT,5400.0,BKN,8900.0,BKN,20000.0
KRDR,04-28-2005,11:00,METAR,,240,2,,,9999,Cloud Development Not Observable,-1.0,-1.0,29.89,1013.5,,,,0,0,0,,,,,,,,,8/8 Overcast,4900.0,,SCT,2000,BKN,5000.0,OVC,7900.0,,
KRDR,04-28-2005,10:00,METAR,,270,3,,,9999,Cloud Development Not Observable,-2.0,-2.0,29.89,1013.5,,,,0,0,0,,,,,,,,,8/8 Overcast,8000.0,,SCT,2000,OVC,7900.0,,,,
KRDR,04-28-2005,09:00,METAR,,280,2,,,9999,Cloud Development Not Observable,-1.0,-1.0,29.88,1013.3,,,,0,0,0,,,,,,TRACE,,,8/8 Overcast,8000.0,,SCT,2000,OVC,7900.0,,,,
KRDR,04-28-2005,08:28,SPECI,,320,3,,,9999,Cloud Development Not Observable,-1.0,-1.0,29.88,,,,,0,0,0,,,,,,,,,8/8 Overcast,6000.0,,FEW,2000,OVC,5900.0,,,,
KRDR,04-28-2005,08:00,METAR,,330,3,,,9999,Light Snow/Cloud Development Not Observable,-1.0,-1.0,29.89,1013.4,,,,71,0,0,,,,,,,,,8/8 Overcast,6000.0,,FEW,2000,OVC,5900.0,,,,
KRDR,04-28-2005,07:00,METAR,,350,4,,,9999,Light Snow/Cloud Development Not Observable,0.0,-1.0,29.89,1013.4,,,,71,0,0,,,,,,,,,7/8 Mostly Cloudy,3000.0,,SCT,2000,BKN,3000.0,,,,
KRDR,04-28-2005,06:00,METAR,,10,6,,,9999,Light Snow/Cloud Development Not Observable,1.0,-1.0,29.89,1013.4,,,,71,0,0,,,,,,,,,8/8 Overcast,3900.0,,SCT,2600,OVC,4000.0,,,,
KRDR,04-28-2005,05:00,METAR,,320,4,,,9999,Cloud Development Not Observable,2.0,-4.0,29.87,1013.0,,,,0,0,0,,,,,,,,,8/8 Overcast,7000.0,,OVC,6900,,,,,,
KRDR,04-28-2005,04:00,METAR,,270,6,,,9999,Cloud Development Not Observable,2.0,-5.0,29.86,1012.7,,,,0,0,0,,,,,,,,,7/8 Mostly Cloudy,25000.0,,SCT,6900,BKN,25000.0,,,,
KRDR,04-28-2005,03:00,METAR,,250,6,,,9999,Cloud Development Not Observable,0.0,-6.0,29.86,1012.6,,,,0,0,0,,,,,,,,,4/8 Partly Cloudy,72000.0,,FEW,6900,SCT,25000.0,,,,
KRDR,04-28-2005,02:00,METAR,,290,9,,,9999,Cloud Development Not Observable,3.0,-6.0,29.85,1012.2,,,,0,0,0,,,,,,,,,7/8 Mostly Cloudy,7000.0,,FEW,5000,SCT,6900.0,BKN,25000.0,,
KRDR,04-28-2005,01:00,METAR,,290,10,17.0,,9999,Cloud Development Not Observable,5.0,-6.0,29.84,1011.8,,,,0,0,0,,,,,,,,,7/8 Mostly Cloudy,7000.0,,FEW,5000,BKN,6900.0,,,,
KRDR,04-28-2005,00:00,METAR,,270,15,,,9999,Cloud Development Not Observable,5.0,-6.0,29.82,1011.2,,,,0,0,0,,,,,,,IN,,7/8 Mostly Cloudy,6000.0,,SCT,4000,BKN,5900.0,,,,
KRDR,04-27-2005,23:00,METAR,,280,15,21.0,,9999,Cloud Development Not Observable,5.0,-6.0,29.82,1011.2,,,,0,0,0,,,,,,,,,7/8 Mostly Cloudy,6000.0,,SCT,4000,BKN,5900.0,,,,
KRDR,04-27-2005,22:00,METAR,,300,13,22.0,,9999,Cloud Development Not Observable,5.0,-6.0,29.82,1011.2,,,,0,0,0,,,,,,,,,7/8 Mostly Cloudy,3900.0,,BKN,4000,BKN,6400.0,,,,
KRDR,04-27-2005,21:00,METAR,,300,16,23.0,,9999,Cloud Development Not Observable,6.0,-5.0,29.82,1011.2,,,,0,0,0,,,,,,,,,7/8 Mostly Cloudy,3900.0,,BKN,4000,BKN,8900.0,,,,
KRDR,04-27-2005,20:00,METAR,,300,15,21.0,,9999,Precipitation in the Vicinity/Cloud Development Not Observable,5.0,-5.0,29.82,1011.2,,,,16,0,0,,,,,,,,,8/8 Overcast,4300.0,,FEW,2500,BKN,4400.0,OVC,8900.0,,
KRDR,04-27-2005,19:00,METAR,,320,16,,,9999,Cloud Development Not Observable,4.0,-5.0,29.82,1011.2,,,,0,0,0,,,,,,,,,8/8 Overcast,4100.0,,BKN,4200,OVC,7900.0,,,,
KRDR,04-27-2005,18:28,METAR,,320,16,,,9999,Cloud Development Not Observable,4.0,-5.0,29.82,,,,,0,0,0,,,,,,,,,8/8 Overcast,4400.0,,FEW,2400,BKN,4500.0,OVC,7900.0,,
KRDR,04-27-2005,18:00,METAR,,320,17,22.0,,9999,Snow Grains/Cloud Development Not Observable,4.0,-4.0,29.82,1011.1,,,,77,0,0,,,,,,,IN,,8/8 Overcast,3400.0,,SCT,2400,OVC,3500.0,,,,
KRDR,04-27-2005,17:46,METAR,,320,17,22.0,,9999,Snow Grains/Cloud Development Not Observable,4.0,-3.0,29.82,,,,,77,0,0,,,,,,,,,8/8 Overcast,4400.0,,SCT,2200,BKN,4500.0,OVC,7900.0,,
KRDR,04-27-2005,17:00,METAR,,300,10,,,9999,Cloud Development Not Observable,4.0,-4.0,29.82,1011.2,,,,0,0,0,,,,,,,,,8/8 Overcast,4400.0,,FEW,2200,BKN,4500.0,OVC,7900.0,,
KRDR,04-27-2005,16:00,METAR,,330,15,,,9999,Light Snow/Cloud Development Not Observable,3.0,-4.0,29.82,1011.2,,,,71,0,0,,,,,,,,,8/8 Overcast,4000.0,,SCT,2200,BKN,4100.0,OVC,7900.0,,
KRDR,04-27-2005,15:37,METAR,,330,16,,,9999,Light Snow/Cloud Development Not Observable,2.0,-4.0,29.82,,,,,71,0,0,,,,,,,,,8/8 Overcast,4000.0,,BKN,4100,OVC,7900.0,,,,
KRDR,04-27-2005,15:00,METAR,,340,17,,,9999,Cloud Development Not Observable,3.0,-5.0,29.81,1010.8,,,,0,0,0,,,,,,,,,8/8 Overcast,6500.0,,SCT,5000,BKN,6400.0,OVC,7900.0,,
KRDR,04-27-2005,14:00,METAR,,330,14,,,9999,Cloud Development Not Observable,2.0,-5.0,29.81,1010.9,,,,0,0,0,,,,,,,,,7/8 Mostly Cloudy,6000.0,,FEW,3000,BKN,5900.0,BKN,25000.0,,
KRDR,04-27-2005,13:00,METAR,,320,10,,,9999,Cloud Development Not Observable,1.0,-4.0,29.81,1010.8,,,,0,0,0,,,,,,,,,8/8 Overcast,7000.0,,SCT,5400,OVC,6900.0,,,,
KRDR,04-27-2005,12:35,SPECI,,320,11,,,9999,Cloud Development Not Observable,1.0,-4.0,29.81,,,,,0,0,0,,,,,,,,,8/8 Overcast,5500.0,,BKN,5400,OVC,6900.0,,,,
KRDR,04-27-2005,12:00,METAR,,310,9,,,9999,Light Snow/Cloud Development Not Observable,0.0,-3.0,29.81,1010.8,,,,71,0,0,,,,,,,IN,,8/8 Overcast,5500.0,,FEW,2500,OVC,5400.0,,,,
KRDR,04-27-2005,11:00,METAR,,290,7,,,9999,Light Snow/Cloud Development Not Observable,0.0,-3.0,29.80,1010.4,,,,71,0,0,,,,,,,,,8/8 Overcast,5500.0,,FEW,2500,OVC,5400.0,,,,
KRDR,04-27-2005,10:00,METAR,,310,7,,,9999,Light Snow/Cloud Development Not Observable,-1.0,-3.0,29.80,1010.4,,,,71,0,0,,,,,,,,,8/8 Overcast,5500.0,,SCT,2500,OVC,5400.0,,,,
KRDR,04-27-2005,09:28,SPECI,,300,8,,,9999,Light Snow/Cloud Development Not Observable,-1.0,-4.0,29.80,,,,,71,0,0,,,,,,,,,8/8 Overcast,5500.0,,SCT,2900,OVC,5400.0,,,,
KRDR,04-27-2005,09:00,METAR,,300,7,,,9999,Cloud Development Not Observable,-2.0,-4.0,29.79,1010.2,,,,0,0,0,,,,,,,,,8/8 Overcast,5500.0,,FEW,3200,OVC,5400.0,,,,
KRDR,04-27-2005,08:00,METAR,,310,6,,,9999,Cloud Development Not Observable,-2.0,-4.0,29.79,1010.2,,,,0,0,0,,,,,,,,,4/8 Partly Cloudy,72000.0,,SCT,3200,,,,,,
KRDR,04-27-2005,07:00,METAR,,310,6,,,9999,Cloud Development Not Observable,-2.0,-5.0,29.79,1010.1,,,,0,0,0,,,,,,,,,4/8 Partly Cloudy,72000.0,,SCT,3200,,,,,,
KRDR,04-27-2005,06:00,METAR,,320,7,,,9999,Cloud Development Not Observable,-1.0,-4.0,29.80,1010.4,,,,0,0,0,,,,,,,,,4/8 Partly Cloudy,72000.0,,SCT,2900,,,,,,
KRDR,04-27-2005,05:00,METAR,,350,12,,,9999,Cloud Development Not Observable,1.0,-3.0,29.80,1010.3,,,,0,0,0,,,,,,,,,7/8 Mostly Cloudy,2900.0,,BKN,2900,,,,,,
KRDR,04-27-2005,04:00,METAR,,360,15,,,9999,Cloud Development Not Observable,1.0,-3.0,29.80,1010.4,,,,0,0,0,,,,,,,,,7/8 Mostly Cloudy,3000.0,,BKN,3000,,,,,,
KRDR,04-27-2005,03:00,METAR,,340,18,23.0,350/27KTS,9999,Cloud Development Not Observable,1.0,-4.0,29.79,1010.0,,,,0,0,0,,,,,,,,,7/8 Mostly Cloudy,3000.0,,BKN,3000,,,,,,
KRDR,04-27-2005,02:00,METAR,,340,15,27.0,350/28KTS,9999,Cloud Development Not Observable,1.0,-3.0,29.78,1009.7,,,,0,0,0,,,,,,,,,7/8 Mostly Cloudy,3000.0,,BKN,3000,BKN,25000.0,,,,
KRDR,04-27-2005,01:00,METAR,,350,21,26.0,360/27KTS,9999,Cloud Development Not Observable,3.0,-3.0,29.76,1009.0,,,,0,0,0,,,,,,,,,2/8 Mostly Clear,72000.0,,FEW,12000,FEW,25000.0,,,,
KRDR,04-27-2005,00:00,METAR,,350,21,27.0,360/31KTS,9999,Cloud Development Not Observable,5.0,-3.0,29.75,1008.6,,,,0,0,0,,,,,,,,,4/8 Partly Cloudy,72000.0,,FEW,4500,FEW,12000.0,SCT,25000.0,,
KRDR,04-26-2005,23:00,METAR,,340,22,29.0,360/31KTS,9999,Cloud Development Not Observable,6.0,-3.0,29.73,1007.9,,,,0,0,0,,,,,,,,,4/8 Partly Cloudy,72000.0,,FEW,4500,FEW,12000.0,SCT,25000.0,,
KRDR,04-26-2005,22:00,METAR,,350,21,30.0,350/30KTS,9999,Cloud Development Not Observable,8.0,-2.0,29.71,1007.2,,,,0,0,0,,,,,,,,,7/8 Mostly Cloudy,12000.0,,FEW,4500,SCT,12000.0,BKN,25000.0,,
KRDR,04-26-2005,21:00,METAR,,340,23,31.0,350/31KTS,9999,Cloud Development Not Observable,8.0,-2.0,29.70,1006.7,,,,0,0,0,,,,,,,,,7/8 Mostly Cloudy,12000.0,,FEW,4500,SCT,12000.0,BKN,25000.0,,
KRDR,04-26-2005,20:00,METAR,,330,19,26.0,350/30KTS,9999,Cloud Development Not Observable,9.0,-2.0,29.69,1006.6,,,,0,0,0,,,,,,,,,7/8 Mostly Cloudy,4400.0,,BKN,4500,BKN,12000.0,BKN,25000.0,,
KRDR,04-26-2005,19:00,METAR,,350,23,31.0,360/31KTS,9999,Cloud Development Not Observable,10.0,-2.0,29.68,1006.1,,,,0,0,0,,,,,,,,,7/8 Mostly Cloudy,4700.0,,BKN,4800,BKN,12000.0,,,,
KRDR,04-26-2005,18:00,METAR,,350,23,30.0,340/30KTS,9999,Cloud Development Not Observable,8.0,-3.0,29.70,1006.9,,,,0,0,0,,,,,,,,,7/8 Mostly Cloudy,12000.0,,SCT,3000,BKN,12000.0,,,,
KRDR,04-26-2005,17:00,METAR,,340,20,,350/30KTS,9999,Cloud Development Not Observable,8.0,-3.0,29.71,1007.1,,,,0,0,0,,,,,,,,,7/8 Mostly Cloudy,12000.0,,SCT,3000,BKN,12000.0,,,,
KRDR,04-26-2005,16:28,SPECI,,350,21,26.0,,9999,Cloud Development Not Observable,7.0,-2.0,29.71,,,,,0,0,0,,,,,,,,,4/8 Partly Cloudy,72000.0,,SCT,9900,,,,,,
KRDR,04-26-2005,16:00,METAR,,350,23,27.0,350/31KTS,9999,Cloud Development Not Observable,6.0,-4.0,29.71,1007.3,,,,0,0,0,,,,,,,,,4/8 Partly Cloudy,72000.0,,FEW,2000,SCT,9900.0,,,,
KRDR,04-26-2005,15:00,METAR,,350,22,30.0,350/30KTS,9999,Cloud Development Not Observable,5.0,-1.0,29.71,1007.3,,,,0,0,0,,,,,,,,,4/8 Partly Cloudy,72000.0,,FEW,2000,SCT,9900.0,,,,
KRDR,04-26-2005,14:00,METAR,,340,20,26.0,360/26KTS,9999,Cloud Development Not Observable,3.0,0.0,29.71,1007.2,,,,0,0,0,,,,,,,,,7/8 Mostly Cloudy,10000.0,,SCT,2000,BKN,9900.0,,,,
KRDR,04-26-2005,13:11,SPECI,,340,17,,,9999,Cloud Development Not Observable,1.0,0.0,29.71,,,,,0,0,0,,,,,,,,,4/8 Partly Cloudy,72000.0,,SCT,1700,,,,,,
KRDR,04-26-2005,13:00,METAR,,340,18,23.0,350/26KTS,9999,Cloud Development Not Observable,1.0,-1.0,29.70,1007.1,,,,0,0,0,,,,,,,,,7/8 Mostly Cloudy,1800.0,,BKN,1800,,,,,,
KRDR,04-26-2005,12:00,METAR,,340,19,,350/28KTS,9999,Cloud Development Not Observable,1.0,0.0,29.69,1006.7,,,,0,0,0,,,,,,,,.04 IN,7/8 Mostly Cloudy,1700.0,,BKN,1700,,,,,,
KRDR,04-26-2005,11:00,METAR,,340,20,26.0,350/26KTS,9999,Cloud Development Not Observable,2.0,1.0,29.68,1006.4,,,,0,0,0,,,,,,,,,8/8 Overcast,1400.0,,OVC,1400,,,,,,
KRDR,04-26-2005,10:34,SPECI,,330,15,,,9999,Cloud Development Not Observable,1.0,1.0,29.67,,,,,0,0,0,,,,,,,,,8/8 Overcast,1400.0,,BKN,1400,OVC,7400.0,,,,
KRDR,04-26-2005,10:00,METAR,,340,15,,,9999,Cloud Development Not Observable,1.0,0.0,29.67,1006.2,,,,0,0,0,,,,,,,,,7/8 Mostly Cloudy,7500.0,,BKN,7400,BKN,20000.0,,,,
KRDR,04-26-2005,09:00,METAR,,340,14,,,9999,Cloud Development Not Observable,2.0,1.0,29.67,1006.2,,,,0,0,0,,,,,,,,,7/8 Mostly Cloudy,7500.0,,BKN,7400,BKN,20000.0,,,,
KRDR,04-26-2005,08:00,METAR,,330,12,,,9999,Cloud Development Not Observable,2.0,1.0,29.67,1006.2,,,,0,0,0,,,,,,,,,7/8 Mostly Cloudy,20000.0,,SCT,7900,BKN,20000.0,,,,
KRDR,04-26-2005,07:00,METAR,,340,15,,,9999,Cloud Development Not Observable,2.0,1.0,29.68,1006.3,,,,0,0,0,,,,,,,,,7/8 Mostly Cloudy,8000.0,,FEW,2000,SCT,7900.0,BKN,20000.0,,
KRDR,04-26-2005,06:00,METAR,,340,17,,,9999,Cloud Development Not Observable,2.0,2.0,29.68,1006.4,,,,0,0,0,,,,,,,,,7/8 Mostly Cloudy,7500.0,,FEW,2000,BKN,7400.0,,,,
KRDR,04-26-2005,05:00,METAR,,340,14,23.0,,9999,Cloud Development Not Observable,2.0,2.0,29.69,1006.6,,,,0,0,0,,,,,,,,,4/8 Partly Cloudy,72000.0,,SCT,20000,,,,,,
KRDR,04-26-2005,04:00,METAR,,330,13,,,9999,Cloud Development Not Observable,3.0,2.0,29.69,1006.5,,,,0,0,0,,,,,,,,,4/8 Partly Cloudy,72000.0,,FEW,2000,SCT,8900.0,,,,
KRDR,04-26-2005,03:31,SPECI,,320,15,,,9999,Cloud Development Not Observable,3.0,2.0,29.69,,,,,0,0,0,,,,,,,,,4/8 Partly Cloudy,72000.0,,FEW,2000,SCT,3000.0,,,,
KRDR,04-26-2005,03:00,METAR,,320,16,22.0,340/26KTS,9999,Cloud Development Not Observable,4.0,2.0,29.69,1006.5,,,,0,0,0,,,,,,,,,7/8 Mostly Cloudy,2000.0,,BKN,2000,BKN,3000.0,,,,
KRDR,04-26-2005,02:00,METAR,,330,17,21.0,,9999,Cloud Development Not Observable,4.0,4.0,29.70,1006.7,,,,0,0,0,,,,,,,,,8/8 Overcast,2000.0,,BKN,2000,OVC,3000.0,,,,
KRDR,04-26-2005,01:00,METAR,,330,15,22.0,,9999,Cloud Development Not Observable,4.0,4.0,29.68,1006.5,,,,0,0,0,,,,,,,,,8/8 Overcast,1500.0,,BKN,1500,OVC,3000.0,,,,
KRDR,04-26-2005,00:00,METAR,,340,16,23.0,,9999,Cloud Development Not Observable,5.0,5.0,29.68,1006.5,,,,0,0,0,,,,,,,.04 IN,,7/8 Mostly Cloudy,2500.0,,SCT,1500,BKN,2500.0,BKN,5000.0,,
KRDR,04-25-2005,23:45,METAR,,340,18,,,9999,Cloud Development Not Observable,5.0,5.0,29.67,,,,,0,0,0,,,,,,,,,7/8 Mostly Cloudy,2500.0,,SCT,1500,BKN,2500.0,BKN,5000.0,,
KRDR,04-25-2005,23:00,METAR,,330,16,25.0,,9999,Light Rain Showers/Cloud Development Not Observable,4.0,4.0,29.67,1006.2,,,,80,0,0,,,,,,,,,8/8 Overcast,1500.0,,FEW,1000,SCT,1500.0,BKN,2500.0,OVC,5000.0
KRDR,04-25-2005,22:00,METAR,,330,18,27.0,340/27KTS,9999,Light Rain Showers/Cloud Development Not Observable,5.0,4.0,29.66,1005.7,,,,80,0,0,,,,,,,,,8/8 Overcast,2500.0,,FEW,1500,BKN,2500.0,OVC,5000.0,,
KRDR,04-25-2005,21:00,METAR,,330,17,26.0,340/27KTS,9999,Light Rain Showers/Cloud Development Not Observable,5.0,4.0,29.65,1005.5,,,,80,0,0,,,,,,.02 IN,,,8/8 Overcast,2500.0,,FEW,1500,BKN,2500.0,OVC,5000.0,,
KRDR,04-25-2005,20:08,SPECI,,340,16,25.0,,9999,Light Rain Showers/Cloud Development Not Observable,5.0,5.0,29.65,,,,,80,0,0,,,,,,,,,8/8 Overcast,2000.0,,FEW,1500,BKN,2000.0,OVC,5000.0,,
KRDR,04-25-2005,20:00,METAR,,340,17,24.0,350/27KTS,9999,Light Rain Showers/Cloud Development Not Observable,5.0,4.0,29.65,1005.3,,,,80,0,0,,,,,,,,,8/8 Overcast,2000.0,,FEW,1500,BKN,2000.0,OVC,5000.0,,
KRDR,04-25-2005,19:09,SPECI,,360,22,26.0,,9999,Light Rain Showers/Cloud Development Not Observable,6.0,3.0,29.65,,,,,80,0,0,,,,,,,,,8/8 Overcast,2000.0,,SCT,1600,BKN,2000.0,BKN,5000.0,OVC,9900.0
KRDR,04-25-2005,19:00,METAR,,360,20,28.0,340/31KTS,9999,Light Rain Showers/Cloud Development Not Observable,7.0,4.0,29.64,1005.0,,,,80,0,0,,,,,,,,,8/8 Overcast,4900.0,,SCT,2600,BKN,5000.0,OVC,9900.0,,
KRDR,04-25-2005,18:28,SPECI,,10,21,27.0,,9999,Light Rain Showers/Cloud Development Not Observable,8.0,2.0,29.64,,,,,80,0,0,,,,,,,,,8/8 Overcast,4900.0,,SCT,2700,BKN,5000.0,OVC,9900.0,,
KRDR,04-25-2005,18:00,METAR,,360,26,34.0,340/34KTS,9999,Cloud Development Not Observable,9.0,-2.0,29.64,1004.7,,,,0,0,0,,,,,,,,,8/8 Overcast,3400.0,,SCT,2600,SCT,3500.0,BKN,5000.0,OVC,9900.0
KRDR,04-25-2005,17:00,METAR,,340,25,33.0,330/33KTS,9999,Cloud Development Not Observable,9.0,-3.0,29.64,1004.8,,,,0,0,0,,,,,,,,,7/8 Mostly Cloudy,8000.0,,SCT,5000,BKN,7900.0,,,,
KRDR,04-25-2005,16:00,METAR,,350,25,31.0,,9999,Cloud Development Not Observable,9.0,-2.0,29.65,1005.0,,,,0,0,0,,,,,,,,,7/8 Mostly Cloudy,10000.0,,SCT,6900,BKN,9900.0,BKN,25000.0,,
KRDR,04-25-2005,15:00,METAR,,340,24,30.0,330/30KTS,9999,Cloud Development Not Observable,9.0,-1.0,29.66,1005.3,,,,0,0,0,,,,,,,,,4/8 Partly Cloudy,72000.0,,FEW,6900,FEW,9900.0,SCT,25000.0,,
KRDR,04-25-2005,14:00,METAR,,340,18,,,9999,Cloud Development Not Observable,7.0,-1.0,29.68,1006.0,,,,0,0,0,,,,,,,,,7/8 Mostly Cloudy,10000.0,,SCT,6900,SCT,9900.0,BKN,25000.0,,
KRDR,04-25-2005,13:00,METAR,,340,18,,,9999,Cloud Development Not Observable,5.0,-1.0,29.68,1006.0,,,,0,0,0,,,,,,,,,4/8 Partly Cloudy,72000.0,,FEW,5000,FEW,9900.0,SCT,25000.0,,
KRDR,04-25-2005,12:00,METAR,,310,13,,,9999,Cloud Development Not Observable,2.0,-2.0,29.68,1006.0,,,,0,0,0,,,,,,,,,4/8 Partly Cloudy,72000.0,,FEW,5000,FEW,9900.0,SCT,25000.0,,
KRDR,04-25-2005,11:00,METAR,,320,9,,,9999,Cloud Development Not Observable,1.0,-2.0,29.69,,,,,0,0,0,,,,,,,,,2/8 Mostly Clear,72000.0,,FEW,8900,,,,,,
KRDR,04-25-2005,10:00,METAR,,310,10,,,9999,Cloud Development Not Observable,2.0,-1.0,29.70,,,,,0,0,0,,,,,,,,,2/8 Mostly Clear,72000.0,,FEW,9900,,,,,,
KRDR,04-25-2005,09:00,METAR,,330,10,,,9999,Cloud Development Not Observable,1.0,-1.0,29.71,,,,,0,0,0,,,,,,,,,2/8 Mostly Clear,72000.0,,FEW,9900,,,,,,
KRDR,04-25-2005,08:00,METAR,,310,8,,,9999,Cloud Development Not Observable,2.0,0.0,29.73,,,,,0,0,0,,,,,,,,,Clear,72000.0,,,73000,,,,,,
KRDR,04-25-2005,07:00,METAR,,340,13,,,9999,Cloud Development Not Observable,3.0,1.0,29.74,,,,,0,0,0,,,,,,,,,Clear,72000.0,,,73000,,,,,,
KRDR,04-25-2005,06:00,METAR,,340,10,,,9999,Cloud Development Not Observable,4.0,1.0,29.75,,,,,0,0,0,,,,,,,,,4/8 Partly Cloudy,72000.0,,FEW,2500,SCT,11000.0,,,,
KRDR,04-25-2005,05:00,METAR,,350,18,,,9999,Cloud Development Not Observable,6.0,2.0,29.76,,,,,0,0,0,,,,,,,,,8/8 Overcast,3700.0,,SCT,2500,OVC,3800.0,,,,
KRDR,04-25-2005,04:00,METAR,,360,17,21.0,360/27KTS,9999,Cloud Development Not Observable,7.0,2.0,29.76,,,,,0,0,0,,,,,,,,,8/8 Overcast,3200.0,,SCT,2500,OVC,3300.0,,,,
KRDR,04-25-2005,03:00,METAR,,360,23,31.0,010/31KTS,9999,Cloud Development Not Observable,8.0,3.0,29.75,,,,,0,0,0,,,,,,,,,8/8 Overcast,9000.0,,SCT,2400,BKN,8900.0,OVC,20000.0,,
KRDR,04-25-2005,02:00,METAR,,360,19,24.0,,9999,Cloud Development Not Observable,9.0,3.0,29.74,,,,,0,0,0,,,,,,,,,8/8 Overcast,9000.0,,SCT,5900,BKN,8900.0,OVC,20000.0,,
KRDR,04-25-2005,01:00,METAR,,360,19,,350/26KTS,9999,Cloud Development Not Observable,11.0,2.0,29.72,1007.5,,,,0,0,0,,,,,,,,,8/8 Overcast,10000.0,,SCT,5900,BKN,9900.0,OVC,20000.0,,
KRDR,04-25-2005,00:08,SPECI,,320,12,,,9999,Cloud Development Not Observable,14.0,0.0,29.71,,,,,0,0,0,,,,,,,,,8/8 Overcast,6000.0,,FEW,4000,SCT,6400.0,BKN,11000.0,OVC,20000.0
KRDR,04-25-2005,00:00,METAR,,200,4,,,9999,Cloud Development Not Observable,15.0,-2.0,29.70,1006.7,,,,0,0,0,,,,,,,IN,,8/8 Overcast,6500.0,,FEW,5000,BKN,6400.0,BKN,8900.0,OVC,20000.0
KRDR,04-24-2005,23:43,SPECI,,210,8,,,9999,Rain/Cloud Development Not Observable,16.0,-2.0,29.71,,,,,61,0,0,,,,,,,,,8/8 Overcast,6500.0,,FEW,4000,BKN,6400.0,OVC,8900.0,,
KRDR,04-24-2005,23:00,METAR,,240,9,,,9999,Cloud Development Not Observable,16.0,-3.0,29.74,1008.0,,,,0,0,0,,,,,,,,,8/8 Overcast,8000.0,,FEW,5000,BKN,7900.0,OVC,25000.0,,
KRDR,04-24-2005,22:00,METAR,,240,9,,,9999,Cloud Development Not Observable,16.0,-3.0,29.77,1009.1,,,,0,0,0,,,,,,,,,8/8 Overcast,8000.0,,FEW,5000,BKN,7900.0,OVC,25000.0,,
KRDR,04-24-2005,21:00,METAR,,260,8,,,9999,Cloud Development Not Observable,17.0,-6.0,29.82,1010.8,,,,0,0,0,,,,,,,,,8/8 Overcast,8000.0,,BKN,7900,OVC,25000.0,,,,
KRDR,04-24-2005,19:00,METAR,,250,11,,,9999,Cloud Development Not Observable,16.0,-6.0,29.89,1013.3,,,,0,0,0,,,,,,,,,8/8 Overcast,25000.0,,FEW,8900,FEW,12000.0,OVC,25000.0,,
KRDR,04-24-2005,17:00,METAR,,240,10,,,9999,Cloud Development Not Observable,14.0,-6.0,29.98,1016.3,,,,0,0,0,,,,,,,,,7/8 Mostly Cloudy,25000.0,,FEW,12000,BKN,25000.0,,,,
KRDR,04-24-2005,16:00,METAR,,250,11,,,9999,Cloud Development Not Observable,14.0,-5.0,30.02,1017.6,,,,0,0,0,,,,,,,,,7/8 Mostly Cloudy,25000.0,,FEW,12000,BKN,25000.0,,,,
KRDR,04-24-2005,14:00,METAR,,240,8,,,9999,Cloud Development Not Observable,7.0,-3.0,30.07,1019.5,,,,0,0,0,,,,,,,,,4/8 Partly Cloudy,72000.0,,SCT,12000,SCT,25000.0,,,,
KRDR,04-24-2005,13:00,METAR,,230,7,,,9999,Cloud Development Not Observable,3.0,-1.0,30.09,1020.1,,,,0,0,0,,,,,,,,,7/8 Mostly Cloudy,12000.0,,BKN,12000,BKN,25000.0,,,,
KRDR,04-24-2005,12:00,METAR,,220,4,,,9999,Cloud Development Not Observable,1.0,-3.0,30.10,1020.5,,,,0,0,0,,,,,,,,,7/8 Mostly Cloudy,12000.0,,BKN,12000,BKN,25000.0,,,,
KRDR,04-24-2005,11:00,METAR,,210,5,,,9999,Cloud Development Not Observable,-2.0,-4.0,30.11,1020.9,,,,0,0,0,,,,,,,,,2/8 Mostly Clear,72000.0,,FEW,25000,,,,,,
KRDR,04-24-2005,10:00,METAR,,230,2,,,9999,Cloud Development Not Observable,-3.0,-5.0,30.14,1022.1,,,,0,0,0,,,,,,,,,2/8 Mostly Clear,72000.0,,FEW,25000,,,,,,
KRDR,04-24-2005,09:00,METAR,,230,4,,,9999,Cloud Development Not Observable,-3.0,-4.0,30.16,1022.8,,,,0,0,0,,,,,,,,,Clear,72000.0,,,73000,,,,,,
KRDR,04-24-2005,08:00,METAR,,210,2,,,9999,Cloud Development Not Observable,-2.0,-4.0,30.17,1023.1,,,,0,0,0,,,,,,,,,Clear,72000.0,,,73000,,,,,,
KRDR,04-24-2005,07:00,METAR,,220,3,,,9999,Cloud Development Not Observable,-3.0,-4.0,30.20,1024.0,,,,0,0,0,,,,,,,,,Clear,72000.0,,,73000,,,,,,
KRDR,04-24-2005,06:00,METAR,,210,2,,,9999,Cloud Development Not Observable,-3.0,-5.0,30.20,1024.2,,,,0,0,0,,,,,,,,,Clear,72000.0,,,73000,,,,,,
KRDR,04-24-2005,05:00,METAR,,,2,,,9999,Cloud Development Not Observable,-1.0,-4.0,30.20,1024.2,,,,0,0,0,,,,,,,,,Clear,72000.0,,,73000,,,,,,
KRDR,04-24-2005,04:00,METAR,,,0,,,9999,Cloud Development Not Observable,1.0,-5.0,30.20,1024.2,,,,0,0,0,,,,,,,,,Clear,72000.0,,,73000,,,,,,
KRDR,04-24-2005,03:00,METAR,,330,1,,,9999,Cloud Development Not Observable,3.0,-6.0,30.21,1024.3,,,,0,0,0,,,,,,,,,2/8 Mostly Clear,72000.0,,FEW,25000,,,,,,
KRDR,04-24-2005,02:00,METAR,,360,5,,,9999,Cloud Development Not Observable,5.0,-6.0,30.21,1024.5,,,,0,0,0,,,,,,,,,2/8 Mostly Clear,72000.0,,FEW,25000,,,,,,
KRDR,04-24-2005,01:00,METAR,,360,7,,,9999,Cloud Development Not Observable,9.0,-6.0,30.22,1024.9,,,,0,0,0,,,,,,,,,4/8 Partly Cloudy,72000.0,,SCT,25000,,,,,,
KRDR,04-24-2005,00:00,METAR,,350,8,,,9999,Cloud Development Not Observable,11.0,-7.0,30.23,1025.2,,,,0,0,0,,,,,,,,,4/8 Partly Cloudy,72000.0,,SCT,25000,,,,,,
KRDR,04-23-2005,23:00,METAR,,30,8,,,9999,Cloud Development Not Observable,12.0,-7.0,30.25,1025.7,,,,0,0,0,,,,,,,,,2/8 Mostly Clear,72000.0,,FEW,25000,,,,,,
KRDR,04-23-2005,22:00,METAR,,360,5,,,9999,Cloud Development Not Observable,12.0,-7.0,30.26,1026.1,,,,0,0,0,,,,,,,,,2/8 Mostly Clear,72000.0,,FEW,25000,,,,,,
KRDR,04-23-2005,21:00,METAR,,30,11,,,9999,Cloud Development Not Observable,12.0,-7.0,30.29,1027.0,,,,0,0,0,,,,,,,,,2/8 Mostly Clear,72000.0,,FEW,3000,FEW,25000.0,,,,
KRDR,04-23-2005,20:00,METAR,,20,11,16.0,,9999,Cloud Development Not Observable,11.0,-6.0,30.30,1027.7,,,,0,0,0,,,,,,,,,2/8 Mostly Clear,72000.0,,FEW,3000,,,,,,
KRDR,04-23-2005,19:00,METAR,,20,12,22.0,,9999,Cloud Development Not Observable,11.0,-5.0,30.32,1028.2,,,,0,0,0,,,,,,,,,2/8 Mostly Clear,72000.0,,FEW,3000,,,,,,
KRDR,04-23-2005,18:00,METAR,,10,14,,,9999,Cloud Development Not Observable,10.0,-4.0,30.34,1028.9,,,,0,0,0,,,,,,,,,Clear,72000.0,,,73000,,,,,,
KRDR,04-23-2005,17:00,METAR,,20,10,,,9999,Cloud Development Not Observable,10.0,-5.0,30.36,1029.5,,,,0,0,0,,,,,,,,,Clear,72000.0,,,73000,,,,,,
KRDR,04-23-2005,16:00,METAR,,350,11,,,9999,Cloud Development Not Observable,8.0,-6.0,30.38,1030.1,,,,0,0,0,,,,,,,,,Clear,72000.0,,,73000,,,,,,
KRDR,04-23-2005,15:00,METAR,,330,7,,,9999,Cloud Development Not Observable,6.0,-5.0,30.39,1030.5,,,,0,0,0,,,,,,,,,Clear,72000.0,,,73000,,,,,,
KRDR,04-23-2005,14:00,METAR,,350,7,,,9999,Cloud Development Not Observable,3.0,-5.0,30.41,1031.2,,,,0,0,0,,,,,,,,,Clear,72000.0,,,73000,,,,,,
KRDR,04-23-2005,13:00,METAR,,330,7,,,9999,Cloud Development Not Observable,0.0,-4.0,30.41,1031.2,,,,0,0,0,,,,,,,,,Clear,72000.0,,,73000,,,,,,
KRDR,04-23-2005,12:00,METAR,,320,5,,,9999,Cloud Development Not Observable,-3.0,-5.0,30.40,1030.9,,,,0,0,0,,,,,,,,,Clear,72000.0,,,73000,,,,,,
KRDR,04-23-2005,11:00,METAR,,310,4,,,9999,Cloud Development Not Observable,-4.0,-5.0,30.40,1030.9,,,,0,0,0,,,,,,,,,Clear,72000.0,,,73000,,,,,,
KRDR,04-23-2005,10:00,METAR,,320,7,,,9999,Cloud Development Not Observable,-3.0,-5.0,30.39,1030.5,,,,0,0,0,,,,,,,,,Clear,72000.0,,,73000,,,,,,
KRDR,04-23-2005,09:00,METAR,,320,5,,,9999,Cloud Development Not Observable,-3.0,-6.0,30.39,1030.5,,,,0,0,0,,,,,,,,,Clear,72000.0,,,73000,,,,,,
KRDR,04-23-2005,08:00,METAR,,350,6,,,9999,Cloud Development Not Observable,-3.0,-6.0,30.39,1030.5,,,,0,0,0,,,,,,,,,Clear,72000.0,,,73000,,,,,,
KRDR,04-23-2005,07:00,METAR,,10,5,,,9999,Cloud Development Not Observable,-1.0,-6.0,30.39,1030.5,,,,0,0,0,,,,,,,,,Clear,72000.0,,,73000,,,,,,
KRDR,04-23-2005,06:00,METAR,,340,6,,,9999,Cloud Development Not Observable,-1.0,-6.0,30.39,1030.5,,,,0,0,0,,,,,,,,,Clear,72000.0,,,73000,,,,,,
KRDR,04-23-2005,05:00,METAR,,340,6,,,9999,Cloud Development Not Observable,0.0,-6.0,30.37,1029.8,,,,0,0,0,,,,,,,,,Clear,72000.0,,,73000,,,,,,
KRDR,04-23-2005,04:00,METAR,,340,6,,,9999,Cloud Development Not Observable,0.0,-7.0,30.37,1029.9,,,,0,0,0,,,,,,,,,Clear,72000.0,,,73000,,,,,,
KRDR,04-23-2005,03:00,METAR,,360,9,,,9999,Cloud Development Not Observable,3.0,-7.0,30.36,1029.5,,,,0,0,0,,,,,,,,,Clear,72000.0,,,73000,,,,,,
KRDR,04-23-2005,02:00,METAR,,360,11,,,9999,Cloud Development Not Observable,5.0,-8.0,30.34,1028.9,,,,0,0,0,,,,,,,,,Clear,72000.0,,,73000,,,,,,
KRDR,04-23-2005,01:00,METAR,,360,16,,,9999,Cloud Development Not Observable,7.0,-8.0,30.33,1028.5,,,,0,0,0,,,,,,,,,Clear,72000.0,,,73000,,,,,,
KRDR,04-23-2005,00:00,METAR,,360,16,24.0,,9999,Cloud Development Not Observable,9.0,-7.0,30.33,1028.2,,,,0,0,0,,,,,,,,,Clear,72000.0,,,73000,,,,,,
KRDR,04-22-2005,23:00,METAR,,20,17,24.0,,9999,Cloud Development Not Observable,10.0,-6.0,30.33,1028.2,,,,0,0,0,,,,,,,,,Clear,72000.0,,,73000,,,,,,
KRDR,04-22-2005,22:00,METAR,,360,17,26.0,010/26KTS,9999,Cloud Development Not Observable,10.0,-5.0,30.33,1028.2,,,,0,0,0,,,,,,,,,Clear,72000.0,,,73000,,,,,,
KRDR,04-22-2005,21:00,METAR,,360,19,26.0,010/28KTS,9999,Cloud Development Not Observable,10.0,-5.0,30.33,1028.4,,,,0,0,0,,,,,,,,,Clear,72000.0,,,73000,,,,,,
KRDR,04-22-2005,20:00,METAR,,360,17,26.0,360/26KTS,9999,Cloud Development Not Observable,9.0,-5.0,30.34,1028.7,,,,0,0,0,,,,,,,,,Clear,72000.0,,,73000,,,,,,
KRDR,04-22-2005,19:00,METAR,,340,20,26.0,360/28KTS,9999,Cloud Development Not Observable,9.0,-4.0,30.35,1029.0,,,,0,0,0,,,,,,,,,2/8 Mostly Clear,72000.0,,FEW,3600,,,,,,
KRDR,04-22-2005,18:00,METAR,,360,21,29.0,360/29KTS,9999,Cloud Development Not Observable,7.0,-4.0,30.36,1029.4,,,,0,0,0,,,,,,,,,4/8 Partly Cloudy,72000.0,,FEW,2200,SCT,3600.0,,,,
KRDR,04-22-2005,17:00,METAR,,340,21,27.0,340/28KTS,9999,Cloud Development Not Observable,6.0,-4.0,30.36,1029.4,,,,0,0,0,,,,,,,,,7/8 Mostly Cloudy,3500.0,,FEW,2200,BKN,3600.0,,,,
KRDR,04-22-2005,16:00,METAR,,360,20,29.0,010/29KTS,9999,Cloud Development Not Observable,5.0,-3.0,30.35,1029.1,,,,0,0,0,,,,,,,,,7/8 Mostly Cloudy,3100.0,,SCT,2200,BKN,3200.0,,,,
KRDR,04-22-2005,15:00,METAR,,340,20,26.0,340/27KTS,9999,Cloud Development Not Observable,3.0,-2.0,30.34,1028.7,,,,0,0,0,,,,,,,,,7/8 Mostly Cloudy,3000.0,,SCT,2500,BKN,3000.0,,,,
KRDR,04-22-2005,14:00,METAR,,340,20,25.0,340/31KTS,9999,Cloud Development Not Observable,3.0,-2.0,30.32,1027.9,,,,0,0,0,,,,,,,,,7/8 Mostly Cloudy,3000.0,,SCT,2500,BKN,3000.0,,,,
KRDR,04-22-2005,13:00,METAR,,340,18,28.0,340/30KTS,9999,Cloud Development Not Observable,3.0,-1.0,30.30,1027.0,,,,0,0,0,,,,,,,,,7/8 Mostly Cloudy,300.0,,BKN,300,SCT,2500.0,,,,
KRDR,04-22-2005,12:44,SPECI,,340,21,27.0,,9999,Cloud Development Not Observable,3.0,-1.0,30.30,,,,,0,0,0,,,,,,,,,8/8 Overcast,3000.0,,SCT,2500,OVC,3000.0,,,,
KRDR,04-22-2005,12:00,METAR,,340,20,25.0,350/31KTS,9999,Cloud Development Not Observable,3.0,0.0,30.28,1026.3,,,,0,0,0,,,,,,,,,7/8 Mostly Cloudy,2600.0,,BKN,2600,,,,,,
KRDR,04-22-2005,11:00,METAR,,340,18,,350/29KTS,9999,Cloud Development Not Observable,3.0,0.0,30.25,1025.2,,,,0,0,0,,,,,,,,,8/8 Overcast,2700.0,,OVC,2700,,,,,,
KRDR,04-22-2005,10:00,METAR,,360,19,29.0,350/29KTS,9999,Cloud Development Not Observable,3.0,0.0,30.21,1023.9,,,,0,0,0,,,,,,,,,7/8 Mostly Cloudy,3000.0,,BKN,3000,,,,,,
KRDR,04-22-2005,09:00,METAR,,350,20,24.0,350/28KTS,9999,Cloud Development Not Observable,3.0,0.0,30.18,1023.0,,,,0,0,0,,,,,,,,,2/8 Mostly Clear,72000.0,,FEW,2000,FEW,3800.0,,,,
KRDR,04-22-2005,08:00,METAR,,360,21,27.0,350/28KTS,9999,Cloud Development Not Observable,4.0,1.0,30.17,1021.7,,,,0,0,0,,,,,,,,,Clear,72000.0,,,73000,,,,,,
KRDR,04-22-2005,07:00,METAR,,360,20,27.0,350/29KTS,9999,Cloud Development Not Observable,5.0,1.0,30.15,1021.7,,,,0,0,0,,,,,,,,,Clear,72000.0,,,73000,,,,,,
KRDR,04-22-2005,06:00,METAR,,360,15,25.0,350/26KTS,9999,Cloud Development Not Observable,6.0,2.0,30.15,1021.7,,,,0,0,0,,,,,,,,,Clear,72000.0,,,73000,,,,,,
KRDR,04-22-2005,05:00,METAR,,360,16,22.0,,9999,Cloud Development Not Observable,7.0,1.0,30.14,1021.4,,,,0,0,0,,,,,,,,,2/8 Mostly Clear,72000.0,,FEW,25000,,,,,,
KRDR,04-22-2005,04:00,METAR,,360,17,,350/26KTS,9999,Cloud Development Not Observable,8.0,1.0,30.12,1020.7,,,,0,0,0,,,,,,,,,2/8 Mostly Clear,72000.0,,FEW,25000,,,,,,
KRDR,04-22-2005,03:00,METAR,,360,19,24.0,010/27KTS,9999,Cloud Development Not Observable,10.0,1.0,30.09,1019.8,,,,0,0,0,,,,,,,,,7/8 Mostly Cloudy,25000.0,,FEW,9900,BKN,25000.0,,,,
KRDR,04-22-2005,02:00,METAR,,10,20,27.0,010/30KTS,9999,Cloud Development Not Observable,13.0,-1.0,30.05,1018.6,,,,0,0,0,,,,,,,,,7/8 Mostly Cloudy,9000.0,,FEW,5000,SCT,9400.0,BKN,25000.0,,
KRDR,04-22-2005,01:00,METAR,,20,18,,,9999,Cloud Development Not Observable,17.0,4.0,30.01,1017.1,,,,0,0,0,,,,,,,,,7/8 Mostly Cloudy,10000.0,,FEW,5000,SCT,9900.0,BKN,25000.0,,
KRDR,04-22-2005,00:00,METAR,,360,19,24.0,,9999,Cloud Development Not Observable,19.0,3.0,29.98,1016.1,,,,0,0,0,,,,,,,,,7/8 Mostly Cloudy,25000.0,,SCT,6900,BKN,25000.0,,,,
KRDR,04-21-2005,23:00,METAR,,360,10,,,9999,Cloud Development Not Observable,21.0,2.0,29.97,1015.7,,,,0,0,0,,,,,,,,,7/8 Mostly Cloudy,25000.0,,FEW,6900,BKN,25000.0,,,,
KRDR,04-21-2005,22:00,METAR,,350,8,,,9999,Cloud Development Not Observable,21.0,-1.0,29.98,1016.0,,,,0,0,0,,,,,,,,,7/8 Mostly Cloudy,25000.0,,BKN,25000,,,,,,
KRDR,04-21-2005,21:00,METAR,,360,11,,,9999,Cloud Development Not Observable,20.0,-1.0,30.00,1016.8,,,,0,0,0,,,,,,,,,7/8 Mostly Cloudy,25000.0,,BKN,25000,,,,,,
KRDR,04-21-2005,20:00,METAR,,20,10,,,9999,Cloud Development Not Observable,20.0,-1.0,30.01,1017.2,,,,0,0,0,,,,,,,,,7/8 Mostly Cloudy,25000.0,,BKN,25000,,,,,,
KRDR,04-21-2005,19:00,METAR,,320,5,,,9999,Cloud Development Not Observable,18.0,-4.0,30.04,1018.2,,,,0,0,0,,,,,,,,,7/8 Mostly Cloudy,25000.0,,BKN,25000,,,,,,
KRDR,04-21-2005,18:00,METAR,,280,3,,,9999,Cloud Development Not Observable,17.0,-2.0,30.07,1019.2,,,,0,0,0,,,,,,,,,7/8 Mostly Cloudy,25000.0,,BKN,25000,,,,,,
KRDR,04-21-2005,17:00,METAR,,270,4,,,9999,Cloud Development Not Observable,16.0,-2.0,30.08,1019.4,,,,0,0,0,,,,,,,,,4/8 Partly Cloudy,72000.0,,FEW,15000,SCT,25000.0,,,,
KRDR,04-21-2005,16:00,METAR,,310,4,,,9999,Cloud Development Not Observable,14.0,-3.0,30.09,1019.8,,,,0,0,0,,,,,,,,,4/8 Partly Cloudy,72000.0,,FEW,15000,SCT,25000.0,,,,
KRDR,04-21-2005,15:00,METAR,,290,6,,,9999,Cloud Development Not Observable,13.0,0.0,30.11,1020.4,,,,0,0,0,,,,,,,,,4/8 Partly Cloudy,72000.0,,FEW,15000,SCT,25000.0,,,,
KRDR,04-21-2005,14:00,METAR,,290,5,,,9999,Cloud Development Not Observable,9.0,1.0,30.13,1021.2,,,,0,0,0,,,,,,,,,4/8 Partly Cloudy,72000.0,,FEW,15000,SCT,25000.0,,,,
KRDR,04-21-2005,13:00,METAR,,270,3,,,9999,Cloud Development Not Observable,4.0,2.0,30.15,1021.9,,,,0,0,0,,,,,,,,,2/8 Mostly Clear,72000.0,,FEW,15000,FEW,25000.0,,,,
KRDR,04-21-2005,12:00,METAR,,270,2,,,9999,Cloud Development Not Observable,-1.0,-1.0,30.15,1021.9,,,,0,0,0,,,,,,,,,4/8 Partly Cloudy,72000.0,,FEW,15000,SCT,25000.0,,,,
KRDR,04-21-2005,11:00,METAR,,220,3,,,9999,Cloud Development Not Observable,-1.0,-1.0,30.14,1021.7,,,,0,0,0,,,,,,,,,2/8 Mostly Clear,72000.0,,FEW,25000,,,,,,
KRDR,04-21-2005,10:00,METAR,,220,3,,,9999,Cloud Development Not Observable,0.0,0.0,30.14,1021.6,,,,0,0,0,,,,,,,,,2/8 Mostly Clear,72000.0,,FEW,25000,,,,,,
KRDR,04-21-2005,09:00,METAR,,290,2,,,9999,Cloud Development Not Observable,0.0,-1.0,30.14,1021.7,,,,0,0,0,,,,,,,,,2/8 Mostly Clear,72000.0,,FEW,12000,FEW,25000.0,,,,
KRDR,04-21-2005,08:00,METAR,,300,1,,,9999,Cloud Development Not Observable,1.0,0.0,30.15,1021.9,,,,0,0,0,,,,,,,,,2/8 Mostly Clear,72000.0,,FEW,25000,,,,,,
KRDR,04-21-2005,07:00,METAR,,320,1,,,9999,Cloud Development Not Observable,1.0,0.0,30.17,1022.7,,,,0,0,0,,,,,,,,,4/8 Partly Cloudy,72000.0,,FEW,12000,SCT,25000.0,,,,
KRDR,04-21-2005,06:00,METAR,,330,4,,,9999,Cloud Development Not Observable,3.0,1.0,30.17,1022.6,,,,0,0,0,,,,,,,,,2/8 Mostly Clear,72000.0,,FEW,12000,FEW,25000.0,,,,
KRDR,04-21-2005,05:00,METAR,,290,4,,,9999,Cloud Development Not Observable,3.0,1.0,30.18,1023.1,,,,0,0,0,,,,,,,,,2/8 Mostly Clear,72000.0,,FEW,25000,,,,,,
KRDR,04-21-2005,04:00,METAR,,340,3,,,9999,Cloud Development Not Observable,4.0,0.0,30.17,1022.7,,,,0,0,0,,,,,,,,,4/8 Partly Cloudy,72000.0,,FEW,12000,SCT,25000.0,,,,
KRDR,04-21-2005,03:00,METAR,,360,5,,,9999,Cloud Development Not Observable,8.0,1.0,30.16,1022.5,,,,0,0,0,,,,,,,,,4/8 Partly Cloudy,72000.0,,SCT,12000,SCT,25000.0,,,,
KRDR,04-21-2005,02:00,METAR,,10,4,,,9999,Cloud Development Not Observable,9.0,0.0,30.15,1022.2,,,,0,0,0,,,,,,,,,4/8 Partly Cloudy,72000.0,,SCT,12000,SCT,25000.0,,,,
KRDR,04-21-2005,01:00,METAR,,20,6,,,9999,Cloud Development Not Observable,12.0,0.0,30.14,1021.7,,,,0,0,0,,,,,,,,,7/8 Mostly Cloudy,25000.0,,FEW,12000,BKN,25000.0,,,,
KRDR,04-21-2005,00:00,METAR,,40,6,,,9999,Cloud Development Not Observable,14.0,-2.0,30.14,1021.7,,,,0,0,0,,,,,,,,,4/8 Partly Cloudy,72000.0,,SCT,25000,,,,,,
KRDR,04-20-2005,23:00,METAR,,30,9,,,9999,Cloud Development Not Observable,15.0,-2.0,30.14,1021.7,,,,0,0,0,,,,,,,,,4/8 Partly Cloudy,72000.0,,SCT,25000,,,,,,
KRDR,04-20-2005,22:00,METAR,,50,7,,,9999,Cloud Development Not Observable,16.0,-2.0,30.15,1021.9,,,,0,0,0,,,,,,,,,4/8 Partly Cloudy,72000.0,,SCT,25000,,,,,,
KRDR,04-20-2005,21:00,METAR,,40,9,,,9999,Cloud Development Not Observable,15.0,-1.0,30.15,1021.9,,,,0,0,0,,,,,,,,,4/8 Partly Cloudy,72000.0,,SCT,25000,,,,,,
KRDR,04-20-2005,20:00,METAR,,10,7,,,9999,Cloud Development Not Observable,15.0,-2.0,30.17,1022.7,,,,0,0,0,,,,,,,,,4/8 Partly Cloudy,72000.0,,FEW,12000,SCT,25000.0,,,,
KRDR,04-20-2005,19:00,METAR,,360,7,15.0,,9999,Cloud Development Not Observable,14.0,-1.0,30.18,1022.9,,,,0,0,0,,,,,,,,,4/8 Partly Cloudy,72000.0,,FEW,12000,SCT,25000.0,,,,
KRDR,04-20-2005,18:00,METAR,,360,10,17.0,,9999,Cloud Development Not Observable,13.0,0.0,30.19,1023.3,,,,0,0,0,,,,,,,,,4/8 Partly Cloudy,72000.0,,FEW,12000,SCT,25000.0,,,,
KRDR,04-20-2005,17:00,METAR,,10,10,17.0,,9999,Cloud Development Not Observable,11.0,0.0,30.20,1023.7,,,,0,0,0,,,,,,,,,4/8 Partly Cloudy,72000.0,,FEW,12000,SCT,25000.0,,,,
KRDR,04-20-2005,16:00,METAR,,360,9,,,9999,Cloud Development Not Observable,10.0,1.0,30.20,1023.7,,,,0,0,0,,,,,,,,,4/8 Partly Cloudy,72000.0,,FEW,12000,SCT,25000.0,,,,
KRDR,04-20-2005,15:00,METAR,,360,8,,,9999,Cloud Development Not Observable,7.0,2.0,30.20,1023.7,,,,0,0,0,,,,,,,,,4/8 Partly Cloudy,72000.0,,FEW,12000,SCT,25000.0,,,,
KRDR,04-20-2005,14:00,METAR,,10,10,,,9999,Cloud Development Not Observable,5.0,1.0,30.21,1024.1,,,,0,0,0,,,,,,,,,4/8 Partly Cloudy,72000.0,,FEW,12000,SCT,25000.0,,,,
KRDR,04-20-2005,13:00,METAR,,350,10,,,9999,Cloud Development Not Observable,2.0,0.0,30.21,1024.1,,,,0,0,0,,,,,,,,,4/8 Partly Cloudy,72000.0,,FEW,12000,SCT,25000.0,,,,
KRDR,04-20-2005,12:00,METAR,,330,9,,,9999,Cloud Development Not Observable,0.0,0.0,30.20,1023.8,,,,0,0,0,,,,,,,,,4/8 Partly Cloudy,72000.0,,FEW,12000,SCT,25000.0,,,,
KRDR,04-20-2005,11:00,METAR,,350,9,,,9999,Cloud Development Not Observable,0.0,0.0,30.19,1023.4,,,,0,0,0,,,,,,,,,Clear,72000.0,,,73000,,,,,,
KRDR,04-20-2005,10:00,METAR,,350,8,,,9999,Cloud Development Not Observable,1.0,0.0,30.17,1022.8,,,,0,0,0,,,,,,,,,Clear,72000.0,,,73000,,,,,,
KRDR,04-20-2005,09:00,METAR,,360,10,,,9999,Cloud Development Not Observable,2.0,1.0,30.15,1021.9,,,,0,0,0,,,,,,,,,Clear,72000.0,,,73000,,,,,,
KRDR,04-20-2005,08:00,METAR,,360,13,,,9999,Cloud Development Not Observable,3.0,1.0,30.13,1021.3,,,,0,0,0,,,,,,,,,Clear,72000.0,,,73000,,,,,,
KRDR,04-20-2005,07:00,METAR,,360,13,,,9999,Cloud Development Not Observable,4.0,1.0,30.15,1021.9,,,,0,0,0,,,,,,,,,2/8 Mostly Clear,72000.0,,FEW,25000,,,,,,
KRDR,04-20-2005,06:00,METAR,,360,15,21.0,,9999,Cloud Development Not Observable,5.0,0.0,30.14,1021.5,,,,0,0,0,,,,,,,,,2/8 Mostly Clear,72000.0,,FEW,25000,,,,,,
KRDR,04-20-2005,05:00,METAR,,360,14,,,9999,Cloud Development Not Observable,6.0,0.0,30.12,1020.8,,,,0,0,0,,,,,,,,,2/8 Mostly Clear,72000.0,,FEW,9900,FEW,25000.0,,,,
KRDR,04-20-2005,04:00,METAR,,10,15,,,9999,Cloud Development Not Observable,7.0,0.0,30.11,1020.5,,,,0,0,0,,,,,,,,,4/8 Partly Cloudy,72000.0,,FEW,9900,SCT,25000.0,,,,
KRDR,04-20-2005,03:00,METAR,,360,13,,,9999,Cloud Development Not Observable,9.0,0.0,30.10,1020.3,,,,0,0,0,,,,,,,,,7/8 Mostly Cloudy,25000.0,,SCT,9900,BKN,25000.0,,,,
KRDR,04-20-2005,02:00,METAR,,360,14,,360/27KTS,9999,Cloud Development Not Observable,10.0,0.0,30.07,1019.2,,,,0,0,0,,,,,,,,,7/8 Mostly Cloudy,25000.0,,SCT,9900,BKN,25000.0,,,,
KRDR,04-20-2005,01:00,METAR,,360,19,25.0,360/27KTS,9999,Cloud Development Not Observable,12.0,-1.0,30.04,1018.1,,,,0,0,0,,,,,,,,,7/8 Mostly Cloudy,25000.0,,FEW,5900,FEW,9900.0,BKN,25000.0,,
KRDR,04-20-2005,00:00,METAR,,10,19,,360/27KTS,9999,Cloud Development Not Observable,13.0,1.0,30.02,1017.4,,,,0,0,0,,,,,,,,,7/8 Mostly Cloudy,25000.0,,BKN,25000,,,,,,
KRDR,04-19-2005,23:00,METAR,,10,19,27.0,360/28KTS,9999,Cloud Development Not Observable,14.0,1.0,30.01,1016.9,,,,0,0,0,,,,,,,,,7/8 Mostly Cloudy,25000.0,,BKN,25000,,,,,,
KRDR,04-19-2005,22:00,METAR,,10,24,28.0,,9999,Cloud Development Not Observable,16.0,1.0,29.99,1016.2,,,,0,0,0,,,,,,,,,7/8 Mostly Cloudy,25000.0,,BKN,25000,,,,,,
KRDR,04-19-2005,21:00,METAR,,360,23,31.0,,9999,Cloud Development Not Observable,16.0,1.0,29.98,1015.8,,,,0,0,0,,,,,,,,,7/8 Mostly Cloudy,25000.0,,BKN,25000,,,,,,
KRDR,04-19-2005,20:00,METAR,,360,23,31.0,360/33KTS,9999,Cloud Development Not Observable,16.0,2.0,29.96,1015.2,,,,0,0,0,,,,,,,,,7/8 Mostly Cloudy,25000.0,,BKN,25000,,,,,,
KRDR,04-19-2005,19:00,METAR,,350,22,28.0,360/30KTS,9999,Cloud Development Not Observable,15.0,4.0,29.96,1015.3,,,,0,0,0,,,,,,,,,4/8 Partly Cloudy,72000.0,,FEW,4500,SCT,25000.0,,,,
KRDR,04-19-2005,18:00,METAR,,340,23,30.0,350/30KTS,9999,Cloud Development Not Observable,14.0,4.0,29.97,1015.7,,,,0,0,0,,,,,,,,,4/8 Partly Cloudy,72000.0,,FEW,4500,FEW,5900.0,SCT,25000.0,,
KRDR,04-19-2005,17:00,METAR,,340,23,31.0,340/31KTS,9999,Cloud Development Not Observable,13.0,4.0,29.98,1016.0,,,,0,0,0,,,,,,,,,4/8 Partly Cloudy,72000.0,,FEW,4500,SCT,5900.0,,,,
KRDR,04-19-2005,16:00,METAR,,350,21,27.0,350/28KTS,9999,Cloud Development Not Observable,11.0,3.0,29.97,1015.5,,,,0,0,0,,,,,,,,,7/8 Mostly Cloudy,4400.0,,BKN,4500,BKN,5900.0,,,,
KRDR,04-19-2005,15:00,METAR,,340,23,28.0,340/28KTS,9999,Cloud Development Not Observable,9.0,3.0,29.96,1015.3,,,,0,0,0,,,,,,,,,7/8 Mostly Cloudy,4900.0,,BKN,5000,BKN,6900.0,,,,
KRDR,04-19-2005,14:00,METAR,,340,21,27.0,360/28KTS,9999,Cloud Development Not Observable,8.0,3.0,29.93,1014.2,,,,0,0,0,,,,,,,,,7/8 Mostly Cloudy,3900.0,,BKN,4000,BKN,6900.0,,,,
KRDR,04-19-2005,13:00,METAR,,350,19,27.0,350/30KTS,9999,Cloud Development Not Observable,8.0,2.0,29.91,1013.5,,,,0,0,0,,,,,,,,,7/8 Mostly Cloudy,3900.0,,BKN,4000,BKN,6900.0,,,,
KRDR,04-19-2005,12:00,METAR,,350,22,29.0,360/29KTS,9999,Cloud Development Not Observable,9.0,2.0,29.89,1012.7,,,,0,0,0,,,,,,,,,8/8 Overcast,3500.0,,BKN,3600,OVC,5900.0,,,,
KRDR,04-19-2005,11:00,METAR,,360,18,26.0,360/26KTS,9999,Cloud Development Not Observable,10.0,3.0,29.87,1011.8,,,,0,0,0,,,,,,,,,7/8 Mostly Cloudy,3000.0,,BKN,3000,BKN,5400.0,,,,
KRDR,04-19-2005,10:00,METAR,,360,17,26.0,010/27KTS,9999,Cloud Development Not Observable,10.0,3.0,29.85,1011.0,,,,0,0,0,,,,,,,,,7/8 Mostly Cloudy,4900.0,,SCT,3700,BKN,5000.0,,,,
KRDR,04-19-2005,09:00,METAR,,360,20,25.0,360/28KTS,9999,Cloud Development Not Observable,11.0,2.0,29.83,1010.3,,,,0,0,0,,,,,,,,,7/8 Mostly Cloudy,5500.0,,BKN,5400,,,,,,
KRDR,04-19-2005,08:00,METAR,,360,17,24.0,010/27KTS,9999,Cloud Development Not Observable,12.0,2.0,29.83,1010.3,,,,0,0,0,,,,,,,,,4/8 Partly Cloudy,72000.0,,SCT,5000,SCT,12000.0,,,,
KRDR,04-19-2005,07:00,METAR,,360,15,,,9999,Cloud Development Not Observable,11.0,3.0,29.81,1009.6,,,,0,0,0,,,,,,,,,4/8 Partly Cloudy,72000.0,,SCT,12000,,,,,,
KRDR,04-19-2005,06:00,METAR,,350,16,,,9999,Cloud Development Not Observable,12.0,4.0,29.80,1009.3,,,,0,0,0,,,,,,,,,2/8 Mostly Clear,72000.0,,FEW,12000,,,,,,
KRDR,04-19-2005,05:00,METAR,,360,14,,,9999,Cloud Development Not Observable,13.0,8.0,29.78,1008.6,,,,0,0,0,,,,,,,,,2/8 Mostly Clear,72000.0,,FEW,12000,,,,,,
KRDR,04-19-2005,04:00,METAR,,350,16,,,9999,Cloud Development Not Observable,14.0,8.0,29.74,1007.5,,,,0,0,0,,,,,,,,,7/8 Mostly Cloudy,12000.0,,BKN,12000,BKN,25000.0,,,,
KRDR,04-19-2005,03:00,METAR,,360,20,27.0,360/27KTS,9999,Cloud Development Not Observable,17.0,12.0,29.72,1006.8,,,,0,0,0,,,,,,,,,7/8 Mostly Cloudy,12000.0,,BKN,12000,BKN,25000.0,,,,
KRDR,04-19-2005,02:00,METAR,,10,7,,,9999,Cloud Development Not Observable,20.0,16.0,29.65,1004.5,,,,0,0,0,,,,,,,,,7/8 Mostly Cloudy,10000.0,,FEW,2000,FEW,4000.0,SCT,9900.0,BKN,25000.0
KRDR,04-19-2005,01:29,SPECI,,350,10,,,9999,Cloud Development Not Observable,19.0,16.0,29.64,,,,,0,0,0,,,,,,,,,7/8 Mostly Cloudy,3900.0,,FEW,2000,SCT,4000.0,BKN,8900.0,BKN,25000.0
KRDR,04-19-2005,01:00,METAR,,10,15,22.0,,9999,Thunderstorm/Cloud Development Not Observable,20.0,16.0,29.64,1004.0,,,,17,0,0,,,,,,,,,7/8 Mostly Cloudy,3900.0,,FEW,2000,SCT,4000.0,BKN,9400.0,BKN,25000.0
KRDR,04-19-2005,00:01,SPECI,,10,14,22.0,,9999,Thunderstorm/Cloud Development Not Observable,21.0,16.0,29.62,,,,,17,0,0,,,,,,,,,7/8 Mostly Cloudy,3900.0,,BKN,4000,BKN,8900.0,BKN,25000.0,,
KRDR,04-19-2005,00:00,METAR,,10,15,22.0,010/26KTS,9999,Cloud Development Not Observable,,16.0,29.62,1003.4,,,,0,0,0,,,,,,,,,7/8 Mostly Cloudy,3900.0,,BKN,4000,BKN,8900.0,BKN,25000.0,,
KRDR,04-18-2005,23:00,METAR,,190,11,20.0,190/28KTS,9999,Cloud Development Not Observable,29.0,10.0,29.58,1001.9,,,,0,0,0,,,,,,,,,7/8 Mostly Cloudy,9000.0,,SCT,4000,BKN,8900.0,BKN,25000.0,,
KRDR,04-18-2005,22:00,METAR,,190,20,26.0,190/26KTS,9999,Cloud Development Not Observable,31.0,9.0,29.58,1001.8,,,,0,0,0,,,,,,,,,7/8 Mostly Cloudy,9000.0,,SCT,4000,BKN,8900.0,BKN,25000.0,,
KRDR,04-18-2005,21:00,METAR,,210,17,25.0,210/27KTS,9999,Cloud Development Not Observable,31.0,9.0,29.59,1002.0,,,,0,0,0,,,,,,,,,4/8 Partly Cloudy,72000.0,,SCT,4000,SCT,25000.0,,,,
KRDR,04-18-2005,20:00,METAR,,190,20,26.0,210/26KTS,9999,Cloud Development Not Observable,31.0,9.0,29.59,1002.2,,,,0,0,0,,,,,,,,,4/8 Partly Cloudy,72000.0,,FEW,3000,FEW,12000.0,SCT,25000.0,,
KRDR,04-18-2005,19:00,METAR,,180,13,21.0,,9999,Cloud Development Not Observable,30.0,12.0,29.60,1002.6,,,,0,0,0,,,,,,,,,4/8 Partly Cloudy,72000.0,,FEW,3000,FEW,12000.0,SCT,25000.0,,
KRDR,04-18-2005,18:00,METAR,,190,12,18.0,,9999,Cloud Development Not Observable,27.0,12.0,29.61,1003.0,,,,0,0,0,,,,,,,,,4/8 Partly Cloudy,72000.0,,FEW,3000,SCT,25000.0,,,,
KRDR,04-18-2005,17:00,METAR,,160,13,,,9999,Cloud Development Not Observable,26.0,12.0,29.62,1003.3,,,,0,0,0,,,,,,,,,4/8 Partly Cloudy,72000.0,,FEW,3000,SCT,25000.0,,,,
KRDR,04-18-2005,16:00,METAR,,190,14,19.0,,9999,Cloud Development Not Observable,23.0,13.0,29.62,1003.4,,,,0,0,0,,,,,,,,,2/8 Mostly Clear,72000.0,,FEW,3000,FEW,25000.0,,,,
KRDR,04-18-2005,15:00,METAR,,190,12,,,9999,Cloud Development Not Observable,20.0,13.0,29.63,1003.9,,,,0,0,0,,,,,,,,,4/8 Partly Cloudy,72000.0,,FEW,3000,SCT,25000.0,,,,
KRDR,04-18-2005,14:00,METAR,,150,7,,,9999,Mist/Cloud Development Not Observable,16.0,13.0,29.63,1003.9,,,,10,0,0,,,,,,,,,7/8 Mostly Cloudy,25000.0,,FEW,3000,FEW,12000.0,BKN,25000.0,,
KRDR,04-18-2005,13:00,METAR,,150,7,,,9999,Mist/Cloud Development Not Observable,14.0,13.0,29.64,1004.3,,,,10,0,0,,,,,,,,,4/8 Partly Cloudy,72000.0,,FEW,3000,SCT,25000.0,,,,
KRDR,04-18-2005,12:00,METAR,,60,5,,,6400,Mist/Cloud Development Not Observable,12.0,12.0,29.63,1003.9,,,,10,0,0,,,,,,,,,4/8 Partly Cloudy,72000.0,,FEW,3000,SCT,25000.0,,,,
KRDR,04-18-2005,11:00,METAR,,10,8,,,9999,Mist/Cloud Development Not Observable,13.0,13.0,29.63,1003.7,,,,10,0,0,,,,,,,,,4/8 Partly Cloudy,72000.0,,FEW,2000,SCT,25000.0,,,,
KRDR,04-18-2005,10:00,METAR,,170,11,,,9999,Mist/Cloud Development Not Observable,14.0,14.0,29.61,1003.0,,,,10,0,0,,,,,,,,,4/8 Partly Cloudy,72000.0,,SCT,15000,SCT,25000.0,,,,
KRDR,04-18-2005,09:00,METAR,,160,12,,,9999,Mist/Cloud Development Not Observable,14.0,13.0,29.63,1003.7,,,,10,0,0,,,,,,,,,4/8 Partly Cloudy,72000.0,,SCT,15000,SCT,25000.0,,,,
KRDR,04-18-2005,08:00,METAR,,150,10,,,9999,Cloud Development Not Observable,13.0,13.0,29.65,1004.5,,,,0,0,0,,,,,,,,,4/8 Partly Cloudy,72000.0,,SCT,15000,,,,,,
KRDR,04-18-2005,07:00,METAR,,150,9,,,9999,Cloud Development Not Observable,13.0,12.0,29.70,1006.3,,,,0,0,0,,,,,,,,,Clear,72000.0,,,73000,,,,,,
KRDR,04-18-2005,06:00,METAR,,160,10,,,9999,Cloud Development Not Observable,14.0,11.0,29.73,1007.2,,,,0,0,0,,,,,,,,,Clear,72000.0,,,73000,,,,,,
KRDR,04-18-2005,05:00,METAR,,160,11,,,9999,Cloud Development Not Observable,15.0,11.0,29.77,1008.5,,,,0,0,0,,,,,,,,,Clear,72000.0,,,73000,,,,,,
KRDR,04-18-2005,04:00,METAR,,150,10,,,9999,Cloud Development Not Observable,15.0,11.0,29.80,1009.5,,,,0,0,0,,,,,,,,,Clear,72000.0,,,73000,,,,,,
KRDR,04-18-2005,03:00,METAR,,140,10,,,9999,Cloud Development Not Observable,15.0,11.0,29.82,1010.4,,,,0,0,0,,,,,,,,,Clear,72000.0,,,73000,,,,,,
KRDR,04-18-2005,02:00,METAR,,150,10,,,9999,Cloud Development Not Observable,16.0,10.0,29.82,1010.4,,,,0,0,0,,,,,,,,,Clear,72000.0,,,73000,,,,,,
KRDR,04-18-2005,01:00,METAR,,150,9,,,9999,Cloud Development Not Observable,18.0,11.0,29.85,1011.6,,,,0,0,0,,,,,,,,,Clear,72000.0,,,73000,,,,,,
KRDR,04-18-2005,00:00,METAR,,160,16,22.0,,9999,Cloud Development Not Observable,20.0,10.0,29.87,1012.2,,,,0,0,0,,,,,,,,,Clear,72000.0,,,73000,,,,,,
KRDR,04-17-2005,23:00,METAR,,160,17,25.0,,9999,Cloud Development Not Observable,20.0,9.0,29.89,1012.9,,,,0,0,0,,,,,,,,,Clear,72000.0,,,73000,,,,,,
KRDR,04-17-2005,22:00,METAR,,170,20,26.0,150/28KTS,9999,Cloud Development Not Observable,20.0,10.0,29.92,1013.7,,,,0,0,0,,,,,,,,,4/8 Partly Cloudy,72000.0,,FEW,3000,SCT,25000.0,,,,
KRDR,04-17-2005,21:00,METAR,,150,20,27.0,150/29KTS,9999,Cloud Development Not Observable,20.0,11.0,29.95,1015.0,,,,0,0,0,,,,,,,,,2/8 Mostly Clear,72000.0,,FEW,3000,,,,,,
KRDR,04-17-2005,20:31,SPECI,,170,20,26.0,,9999,Cloud Development Not Observable,19.0,10.0,29.97,,,,,0,0,0,,,,,,,,,4/8 Partly Cloudy,72000.0,,SCT,3000,,,,,,
KRDR,04-17-2005,20:00,METAR,,170,21,28.0,170/28KTS,9999,Cloud Development Not Observable,18.0,10.0,29.99,1016.2,,,,0,0,0,,,,,,,,,7/8 Mostly Cloudy,2700.0,,BKN,2700,,,,,,
KRDR,04-17-2005,19:00,METAR,,160,18,,170/29KTS,9999,Cloud Development Not Observable,17.0,11.0,30.03,1017.6,,,,0,0,0,,,,,,,,,7/8 Mostly Cloudy,2200.0,,BKN,2200,,,,,,
KRDR,04-17-2005,18:25,METAR,,170,24,29.0,,9999,Cloud Development Not Observable,16.0,10.0,30.05,,,,,0,0,0,,,,,,,,,7/8 Mostly Cloudy,2200.0,,BKN,2200,BKN,25000.0,,,,
KRDR,04-17-2005,18:00,METAR,,170,23,27.0,,9999,Cloud Development Not Observable,18.0,11.0,30.05,1018.2,,,,0,0,0,,,,,,,,,7/8 Mostly Cloudy,25000.0,,SCT,2000,BKN,25000.0,,,,
KRDR,04-17-2005,17:00,METAR,,160,17,25.0,,9999,Cloud Development Not Observable,17.0,10.0,30.08,1019.3,,,,0,0,0,,,,,,,,,7/8 Mostly Cloudy,25000.0,,FEW,2000,BKN,25000.0,,,,
KRDR,04-17-2005,16:00,METAR,,160,13,,,9999,Cloud Development Not Observable,17.0,10.0,30.09,1019.6,,,,0,0,0,,,,,,,,,7/8 Mostly Cloudy,25000.0,,BKN,25000,,,,,,
KRDR,04-17-2005,15:00,METAR,,170,10,,,9999,Cloud Development Not Observable,14.0,9.0,30.11,1020.4,,,,0,0,0,,,,,,,,,7/8 Mostly Cloudy,25000.0,,BKN,25000,,,,,,
KRDR,04-17-2005,14:00,METAR,,170,9,,,9999,Cloud Development Not Observable,10.0,8.0,30.12,1020.9,,,,0,0,0,,,,,,,,,7/8 Mostly Cloudy,25000.0,,BKN,25000,,,,,,
KRDR,04-17-2005,13:00,METAR,,150,6,,,9999,Cloud Development Not Observable,6.0,5.0,30.13,1021.3,,,,0,0,0,,,,,,,,,7/8 Mostly Cloudy,25000.0,,BKN,25000,,,,,,
KRDR,04-17-2005,12:00,METAR,,160,4,,,9999,Cloud Development Not Observable,5.0,5.0,30.13,1021.1,,,,0,0,0,,,,,,,,,7/8 Mostly Cloudy,25000.0,,BKN,25000,,,,,,
KRDR,04-17-2005,11:00,METAR,,180,7,,,9999,Cloud Development Not Observable,6.0,4.0,30.13,1021.0,,,,0,0,0,,,,,,,,,4/8 Partly Cloudy,72000.0,,SCT,25000,,,,,,
KRDR,04-17-2005,10:00,METAR,,180,6,,,9999,Cloud Development Not Observable,6.0,4.0,30.13,1021.0,,,,0,0,0,,,,,,,,,4/8 Partly Cloudy,72000.0,,SCT,25000,,,,,,
KRDR,04-17-2005,09:00,METAR,,190,7,,,9999,Cloud Development Not Observable,7.0,3.0,30.14,1021.2,,,,0,0,0,,,,,,,,,4/8 Partly Cloudy,72000.0,,SCT,25000,,,,,,
KRDR,04-17-2005,08:00,METAR,,200,6,,,9999,Cloud Development Not Observable,7.0,3.0,30.14,1021.2,,,,0,0,0,,,,,,,,,7/8 Mostly Cloudy,25000.0,,BKN,25000,,,,,,
KRDR,04-17-2005,07:00,METAR,,200,8,,,9999,Cloud Development Not Observable,10.0,3.0,30.14,1021.1,,,,0,0,0,,,,,,,,,7/8 Mostly Cloudy,25000.0,,BKN,25000,,,,,,
KRDR,04-17-2005,06:00,METAR,,200,8,,,9999,Cloud Development Not Observable,10.0,3.0,30.14,1021.1,,,,0,0,0,,,,,,,,,7/8 Mostly Cloudy,25000.0,,BKN,25000,,,,,,
KRDR,04-17-2005,05:00,METAR,,190,7,,,9999,Cloud Development Not Observable,9.0,2.0,30.14,1021.4,,,,0,0,0,,,,,,,,,7/8 Mostly Cloudy,25000.0,,BKN,25000,,,,,,
KRDR,04-17-2005,04:00,METAR,,180,9,,,9999,Cloud Development Not Observable,12.0,1.0,30.14,1021.1,,,,0,0,0,,,,,,,,,7/8 Mostly Cloudy,25000.0,,BKN,25000,,,,,,
KRDR,04-17-2005,03:00,METAR,,180,5,,,9999,Cloud Development Not Observable,11.0,2.0,30.14,1021.2,,,,0,0,0,,,,,,,,,7/8 Mostly Cloudy,25000.0,,BKN,25000,,,,,,
KRDR,04-17-2005,02:00,METAR,,180,6,,,9999,Cloud Development Not Observable,12.0,1.0,30.13,1021.0,,,,0,0,0,,,,,,,,,7/8 Mostly Cloudy,25000.0,,BKN,25000,,,,,,
KRDR,04-17-2005,01:00,METAR,,200,5,,,9999,Cloud Development Not Observable,15.0,0.0,30.13,1021.1,,,,0,0,0,,,,,,,,,7/8 Mostly Cloudy,25000.0,,FEW,18000,BKN,25000.0,,,,
KRDR,04-17-2005,00:00,METAR,,220,10,,,9999,Cloud Development Not Observable,21.0,-2.0,30.13,1021.2,,,,0,0,0,,,,,,,,,7/8 Mostly Cloudy,25000.0,,BKN,25000,,,,,,
KRDR,04-16-2005,23:00,METAR,,250,3,,,9999,Cloud Development Not Observable,21.0,-4.0,30.14,1021.4,,,,0,0,0,,,,,,,,,4/8 Partly Cloudy,72000.0,,FEW,3500,SCT,25000.0,,,,
KRDR,04-16-2005,22:00,METAR,,290,10,16.0,,9999,Cloud Development Not Observable,22.0,-7.0,30.15,1021.7,,,,0,0,0,,,,,,,,,4/8 Partly Cloudy,72000.0,,FEW,3500,SCT,25000.0,,,,
KRDR,04-16-2005,21:00,METAR,,290,8,,,9999,Cloud Development Not Observable,21.0,-8.0,30.16,1022.0,,,,0,0,0,,,,,,,,,2/8 Mostly Clear,72000.0,,FEW,25000,,,,,,
KRDR,04-16-2005,20:00,METAR,,240,10,,,9999,Cloud Development Not Observable,21.0,-7.0,30.17,1022.4,,,,0,0,0,,,,,,,,,2/8 Mostly Clear,72000.0,,FEW,25000,,,,,,
KRDR,04-16-2005,19:00,METAR,,260,9,,,9999,Cloud Development Not Observable,20.0,-5.0,30.18,1022.9,,,,0,0,0,,,,,,,,,2/8 Mostly Clear,72000.0,,FEW,25000,,,,,,
KRDR,04-16-2005,18:00,METAR,,270,9,,,9999,Cloud Development Not Observable,20.0,-5.0,30.20,1023.6,,,,0,0,0,,,,,,,,,2/8 Mostly Clear,72000.0,,FEW,25000,,,,,,
KRDR,04-16-2005,17:00,METAR,,240,9,16.0,,9999,Cloud Development Not Observable,19.0,-7.0,30.21,1023.9,,,,0,0,0,,,,,,,,,2/8 Mostly Clear,72000.0,,FEW,25000,,,,,,
KRDR,04-16-2005,16:00,METAR,,250,9,,,9999,Cloud Development Not Observable,18.0,-5.0,30.22,1024.3,,,,0,0,0,,,,,,,,,7/8 Mostly Cloudy,25000.0,,BKN,25000,,,,,,
KRDR,04-16-2005,15:00,METAR,,270,6,,,9999,Cloud Development Not Observable,16.0,-4.0,30.22,1024.4,,,,0,0,0,,,,,,,,,7/8 Mostly Cloudy,25000.0,,BKN,25000,,,,,,
KRDR,04-16-2005,14:00,METAR,,280,6,,,9999,Cloud Development Not Observable,12.0,-3.0,30.22,1024.4,,,,0,0,0,,,,,,,,,4/8 Partly Cloudy,72000.0,,SCT,25000,,,,,,
KRDR,04-16-2005,13:00,METAR,,250,5,,,9999,Cloud Development Not Observable,6.0,-1.0,30.21,1024.1,,,,0,0,0,,,,,,,,,2/8 Mostly Clear,72000.0,,FEW,25000,,,,,,
KRDR,04-16-2005,12:00,METAR,,240,5,,,9999,Cloud Development Not Observable,2.0,-1.0,30.20,1023.8,,,,0,0,0,,,,,,,,,2/8 Mostly Clear,72000.0,,FEW,12000,,,,,,
KRDR,04-16-2005,11:00,METAR,,230,3,,,9999,Cloud Development Not Observable,1.0,-3.0,30.19,1023.3,,,,0,0,0,,,,,,,,,Clear,72000.0,,,73000,,,,,,
KRDR,04-16-2005,10:00,METAR,,230,8,,,9999,Cloud Development Not Observable,2.0,-2.0,30.18,1022.8,,,,0,0,0,,,,,,,,,Clear,72000.0,,,73000,,,,,,
KRDR,04-16-2005,09:00,METAR,,230,5,,,9999,Cloud Development Not Observable,3.0,-1.0,30.16,1022.3,,,,0,0,0,,,,,,,,,2/8 Mostly Clear,72000.0,,FEW,25000,,,,,,
KRDR,04-16-2005,08:00,METAR,,220,7,,,9999,Cloud Development Not Observable,3.0,-1.0,30.16,1022.3,,,,0,0,0,,,,,,,,,2/8 Mostly Clear,72000.0,,FEW,25000,,,,,,
KRDR,04-16-2005,07:00,METAR,,230,7,,,9999,Cloud Development Not Observable,4.0,-1.0,30.17,1022.6,,,,0,0,0,,,,,,,,,2/8 Mostly Clear,72000.0,,FEW,25000,,,,,,
KRDR,04-16-2005,06:00,METAR,,240,6,,,9999,Cloud Development Not Observable,4.0,-1.0,30.17,1022.5,,,,0,0,0,,,,,,,,,2/8 Mostly Clear,72000.0,,FEW,25000,,,,,,
KRDR,04-16-2005,05:00,METAR,,230,6,,,9999,Cloud Development Not Observable,5.0,0.0,30.16,1022.1,,,,0,0,0,,,,,,,,,2/8 Mostly Clear,72000.0,,FEW,25000,,,,,,
KRDR,04-16-2005,04:00,METAR,,220,6,,,9999,Cloud Development Not Observable,6.0,0.0,30.15,1022.0,,,,0,0,0,,,,,,,,,4/8 Partly Cloudy,72000.0,,SCT,25000,,,,,,
KRDR,04-16-2005,03:00,METAR,,200,6,,,9999,Cloud Development Not Observable,7.0,0.0,30.15,1021.9,,,,0,0,0,,,,,,,,,4/8 Partly Cloudy,72000.0,,SCT,25000,,,,,,
KRDR,04-16-2005,02:00,METAR,,180,5,,,9999,Cloud Development Not Observable,10.0,-2.0,30.14,1021.4,,,,0,0,0,,,,,,,,,4/8 Partly Cloudy,72000.0,,FEW,12000,SCT,25000.0,,,,
KRDR,04-16-2005,01:00,METAR,,230,4,,,9999,Cloud Development Not Observable,14.0,-4.0,30.12,1020.7,,,,0,0,0,,,,,,,,,4/8 Partly Cloudy,72000.0,,FEW,3000,FEW,12000.0,SCT,25000.0,,
KRDR,04-16-2005,00:00,METAR,,230,11,,,9999,Cloud Development Not Observable,17.0,-7.0,30.12,1020.6,,,,0,0,0,,,,,,,,,2/8 Mostly Clear,72000.0,,FEW,3000,FEW,25000.0,,,,
KRDR,04-15-2005,23:00,METAR,,210,13,18.0,,9999,Cloud Development Not Observable,18.0,-8.0,30.12,1020.6,,,,0,0,0,,,,,,,,,2/8 Mostly Clear,72000.0,,FEW,3000,FEW,25000.0,,,,
KRDR,04-15-2005,22:00,METAR,,250,12,19.0,,9999,Cloud Development Not Observable,18.0,-8.0,30.13,1020.8,,,,0,0,0,,,,,,,,,4/8 Partly Cloudy,72000.0,,FEW,3000,SCT,25000.0,,,,
KRDR,04-15-2005,21:00,METAR,,240,11,18.0,,9999,Cloud Development Not Observable,18.0,-5.0,30.14,1021.2,,,,0,0,0,,,,,,,,,4/8 Partly Cloudy,72000.0,,FEW,3000,SCT,25000.0,,,,
KRDR,04-15-2005,20:00,METAR,,240,16,21.0,,9999,Cloud Development Not Observable,18.0,-4.0,30.16,1021.9,,,,0,0,0,,,,,,,,,4/8 Partly Cloudy,72000.0,,FEW,3000,SCT,25000.0,,,,
KRDR,04-15-2005,19:00,METAR,,270,11,,,9999,Cloud Development Not Observable,18.0,-2.0,30.17,1022.4,,,,0,0,0,,,,,,,,,2/8 Mostly Clear,72000.0,,FEW,3000,FEW,25000.0,,,,
KRDR,04-15-2005,18:00,METAR,,280,9,,,9999,Cloud Development Not Observable,17.0,-3.0,30.18,1022.6,,,,0,0,0,,,,,,,,,2/8 Mostly Clear,72000.0,,FEW,5900,FEW,25000.0,,,,
KRDR,04-15-2005,17:00,METAR,,270,8,,,9999,Cloud Development Not Observable,16.0,-1.0,30.19,1022.9,,,,0,0,0,,,,,,,,,4/8 Partly Cloudy,72000.0,,FEW,5900,SCT,25000.0,,,,
KRDR,04-15-2005,16:00,METAR,,260,8,,,9999,Cloud Development Not Observable,13.0,0.0,30.20,1023.6,,,,0,0,0,,,,,,,,,4/8 Partly Cloudy,72000.0,,FEW,5900,SCT,25000.0,,,,
KRDR,04-15-2005,15:00,METAR,,250,9,,,9999,Cloud Development Not Observable,11.0,1.0,30.21,1023.8,,,,0,0,0,,,,,,,,,4/8 Partly Cloudy,72000.0,,SCT,8900,SCT,25000.0,,,,
KRDR,04-15-2005,14:00,METAR,,270,5,,,9999,Cloud Development Not Observable,10.0,1.0,30.19,1023.1,,,,0,0,0,,,,,,,,,7/8 Mostly Cloudy,25000.0,,SCT,8900,BKN,25000.0,,,,
KRDR,04-15-2005,13:00,METAR,,270,4,,,9999,Cloud Development Not Observable,8.0,2.0,30.18,1022.8,,,,0,0,0,,,,,,,,,4/8 Partly Cloudy,72000.0,,SCT,8900,SCT,25000.0,,,,
KRDR,04-15-2005,12:00,METAR,,290,7,,,9999,Cloud Development Not Observable,7.0,1.0,30.15,1021.9,,,,0,0,0,,,,,,,,,7/8 Mostly Cloudy,9000.0,,BKN,8900,BKN,25000.0,,,,
KRDR,04-15-2005,11:00,METAR,,300,10,,,9999,Cloud Development Not Observable,9.0,1.0,30.12,1020.7,,,,0,0,0,,,,,,,,,4/8 Partly Cloudy,72000.0,,SCT,8900,SCT,25000.0,,,,
KRDR,04-15-2005,10:00,METAR,,300,10,,,9999,Cloud Development Not Observable,10.0,1.0,30.09,1019.6,,,,0,0,0,,,,,,,,,4/8 Partly Cloudy,72000.0,,SCT,8900,SCT,25000.0,,,,
KRDR,04-15-2005,09:00,METAR,,300,9,,,9999,Cloud Development Not Observable,11.0,3.0,30.07,1018.9,,,,0,0,0,,,,,,,,,7/8 Mostly Cloudy,8000.0,,BKN,7900,BKN,25000.0,,,,
KRDR,04-15-2005,08:00,METAR,,200,8,,,9999,Cloud Development Not Observable,10.0,5.0,30.05,1018.2,,,,0,0,0,,,,,,,,,7/8 Mostly Cloudy,25000.0,,SCT,7900,BKN,25000.0,,,,
KRDR,04-15-2005,07:00,METAR,,170,12,,,9999,Cloud Development Not Observable,11.0,5.0,30.02,1017.2,,,,0,0,0,,,,,,,,,7/8 Mostly Cloudy,25000.0,,SCT,6900,BKN,25000.0,,,,
KRDR,04-15-2005,06:00,METAR,,170,14,,,9999,Cloud Development Not Observable,11.0,4.0,30.02,1017.2,,,,0,0,0,,,,,,,,,2/8 Mostly Clear,72000.0,,FEW,25000,,,,,,
KRDR,04-15-2005,05:00,METAR,,170,17,,,9999,Cloud Development Not Observable,12.0,3.0,30.02,1017.2,,,,0,0,0,,,,,,,,,2/8 Mostly Clear,72000.0,,FEW,25000,,,,,,
KRDR,04-15-2005,04:00,METAR,,170,15,,,9999,Cloud Development Not Observable,12.0,3.0,30.02,1017.2,,,,0,0,0,,,,,,,,,2/8 Mostly Clear,72000.0,,FEW,25000,,,,,,
KRDR,04-15-2005,03:00,METAR,,140,15,20.0,,9999,Cloud Development Not Observable,13.0,3.0,30.01,1017.1,,,,0,0,0,,,,,,,,,7/8 Mostly Cloudy,25000.0,,SCT,15000,BKN,25000.0,,,,
KRDR,04-15-2005,02:00,METAR,,140,14,21.0,,9999,Cloud Development Not Observable,14.0,4.0,30.00,1016.8,,,,0,0,0,,,,,,,,,7/8 Mostly Cloudy,25000.0,,SCT,15000,BKN,25000.0,,,,
KRDR,04-15-2005,01:00,METAR,,140,17,26.0,150/26KTS,9999,Cloud Development Not Observable,15.0,3.0,29.99,1016.6,,,,0,0,0,,,,,,,,,4/8 Partly Cloudy,72000.0,,FEW,15000,SCT,25000.0,,,,
KRDR,04-15-2005,00:00,METAR,,140,22,29.0,140/33KTS,9999,Cloud Development Not Observable,16.0,3.0,29.99,1016.6,,,,0,0,0,,,,,,,,,4/8 Partly Cloudy,72000.0,,FEW,15000,SCT,25000.0,,,,
KRDR,04-14-2005,23:00,METAR,,140,22,31.0,170/33KTS,9999,Cloud Development Not Observable,18.0,3.0,30.02,1017.6,,,,0,0,0,,,,,,,,,2/8 Mostly Clear,72000.0,,FEW,25000,,,,,,
KRDR,04-14-2005,22:00,METAR,,140,23,35.0,160/37KTS,9999,Cloud Development Not Observable,18.0,3.0,30.03,1017.9,,,,0,0,0,,,,,,,,,2/8 Mostly Clear,72000.0,,FEW,25000,,,,,,
KRDR,04-14-2005,21:00,METAR,,150,27,36.0,150/36KTS,9999,Cloud Development Not Observable,18.0,3.0,30.05,1018.6,,,,0,0,0,,,,,,,,,2/8 Mostly Clear,72000.0,,FEW,25000,,,,,,
KRDR,04-14-2005,20:00,METAR,,140,22,34.0,160/34KTS,9999,Cloud Development Not Observable,18.0,3.0,30.07,1019.0,,,,0,0,0,,,,,,,,,2/8 Mostly Clear,72000.0,,FEW,25000,,,,,,
KRDR,04-14-2005,19:00,METAR,,170,19,28.0,160/31KTS,9999,Cloud Development Not Observable,17.0,2.0,30.09,1019.6,,,,0,0,0,,,,,,,,,2/8 Mostly Clear,72000.0,,FEW,25000,,,,,,
KRDR,04-14-2005,18:00,METAR,,160,21,30.0,,9999,Cloud Development Not Observable,16.0,2.0,30.10,1019.9,,,,0,0,0,,,,,,,,,2/8 Mostly Clear,72000.0,,FEW,25000,,,,,,
KRDR,04-14-2005,17:00,METAR,,160,19,25.0,,9999,Cloud Development Not Observable,15.0,3.0,30.12,1020.7,,,,0,0,0,,,,,,,,,2/8 Mostly Clear,72000.0,,FEW,25000,,,,,,
KRDR,04-14-2005,16:00,METAR,,170,18,,,9999,Cloud Development Not Observable,14.0,3.0,30.14,1021.4,,,,0,0,0,,,,,,,,,2/8 Mostly Clear,72000.0,,FEW,25000,,,,,,
KRDR,04-14-2005,15:00,METAR,,160,11,20.0,,9999,Cloud Development Not Observable,11.0,2.0,30.16,1022.2,,,,0,0,0,,,,,,,,,2/8 Mostly Clear,72000.0,,FEW,25000,,,,,,
KRDR,04-14-2005,14:00,METAR,,150,10,,,9999,Cloud Development Not Observable,8.0,1.0,30.17,1022.6,,,,0,0,0,,,,,,,,,2/8 Mostly Clear,72000.0,,FEW,25000,,,,,,
KRDR,04-14-2005,13:00,METAR,,150,7,,,9999,Cloud Development Not Observable,4.0,0.0,30.19,1023.3,,,,0,0,0,,,,,,,,,2/8 Mostly Clear,72000.0,,FEW,25000,,,,,,
KRDR,04-14-2005,12:00,METAR,,150,7,,,9999,Cloud Development Not Observable,2.0,0.0,30.21,1024.1,,,,0,0,0,,,,,,,,,Clear,72000.0,,,73000,,,,,,
KRDR,04-14-2005,11:00,METAR,,140,6,,,9999,Cloud Development Not Observable,3.0,1.0,30.21,1024.1,,,,0,0,0,,,,,,,,,Clear,72000.0,,,73000,,,,,,
KRDR,04-14-2005,10:00,METAR,,150,5,,,9999,Cloud Development Not Observable,4.0,2.0,30.22,1024.2,,,,0,0,0,,,,,,,,,Clear,72000.0,,,73000,,,,,,
KRDR,04-14-2005,09:00,METAR,,150,6,,,9999,Cloud Development Not Observable,5.0,3.0,30.22,1024.2,,,,0,0,0,,,,,,,,,Clear,72000.0,,,73000,,,,,,
KRDR,04-14-2005,08:00,METAR,,140,5,,,9999,Cloud Development Not Observable,6.0,4.0,30.21,1023.8,,,,0,0,0,,,,,,,,,Clear,72000.0,,,73000,,,,,,
KRDR,04-14-2005,07:00,METAR,,170,5,,,9999,Cloud Development Not Observable,7.0,5.0,30.21,1023.8,,,,0,0,0,,,,,,,,,Clear,72000.0,,,73000,,,,,,
KRDR,04-14-2005,06:00,METAR,,160,10,,,9999,Cloud Development Not Observable,10.0,6.0,30.22,1024.0,,,,0,0,0,,,,,,,,,Clear,72000.0,,,73000,,,,,,
KRDR,04-14-2005,05:00,METAR,,140,4,,,9999,Cloud Development Not Observable,8.0,7.0,30.22,1024.2,,,,0,0,0,,,,,,,,,Clear,72000.0,,,73000,,,,,,
KRDR,04-14-2005,04:00,METAR,,140,2,,,9999,Cloud Development Not Observable,7.0,6.0,30.21,1024.0,,,,0,0,0,,,,,,,,,Clear,72000.0,,,73000,,,,,,
KRDR,04-14-2005,03:00,METAR,,,0,,,9999,Cloud Development Not Observable,8.0,7.0,30.20,1023.8,,,,0,0,0,,,,,,,,,2/8 Mostly Clear,72000.0,,FEW,5000,FEW,25000.0,,,,
KRDR,04-14-2005,02:00,METAR,,150,2,,,9999,Cloud Development Not Observable,10.0,6.0,30.21,1024.2,,,,0,0,0,,,,,,,,,2/8 Mostly Clear,72000.0,,FEW,5000,FEW,25000.0,,,,
KRDR,04-14-2005,01:00,METAR,,130,4,,,9999,Cloud Development Not Observable,15.0,6.0,30.21,1024.0,,,,0,0,0,,,,,,,,,2/8 Mostly Clear,72000.0,,FEW,25000,,,,,,
KRDR,04-14-2005,00:00,METAR,,120,8,,,9999,Cloud Development Not Observable,18.0,7.0,30.22,1024.2,,,,0,0,0,,,,,,,,,2/8 Mostly Clear,72000.0,,FEW,25000,,,,,,
KRDR,04-13-2005,23:00,METAR,,100,8,,,9999,Cloud Development Not Observable,18.0,7.0,30.23,1024.6,,,,0,0,0,,,,,,,,,2/8 Mostly Clear,72000.0,,FEW,25000,,,,,,
KRDR,04-13-2005,22:00,METAR,,140,9,,,9999,Cloud Development Not Observable,18.0,7.0,30.23,1024.6,,,,0,0,0,,,,,,,,,2/8 Mostly Clear,72000.0,,FEW,25000,,,,,,
KRDR,04-13-2005,21:00,METAR,,130,7,,,9999,Cloud Development Not Observable,18.0,8.0,30.24,1024.9,,,,0,0,0,,,,,,,,,2/8 Mostly Clear,72000.0,,FEW,25000,,,,,,
KRDR,04-13-2005,20:00,METAR,,140,9,,,9999,Cloud Development Not Observable,17.0,7.0,30.25,1025.2,,,,0,0,0,,,,,,,,,2/8 Mostly Clear,72000.0,,FEW,25000,,,,,,
KRDR,04-13-2005,19:00,METAR,,130,8,,,9999,Cloud Development Not Observable,16.0,6.0,30.27,1025.8,,,,0,0,0,,,,,,,,,2/8 Mostly Clear,72000.0,,FEW,25000,,,,,,
KRDR,04-13-2005,18:00,METAR,,160,6,,,9999,Cloud Development Not Observable,15.0,5.0,30.28,1026.2,,,,0,0,0,,,,,,,,,2/8 Mostly Clear,72000.0,,FEW,25000,,,,,,
KRDR,04-13-2005,17:00,METAR,,140,7,,,9999,Cloud Development Not Observable,13.0,10.0,30.28,1026.2,,,,0,0,0,,,,,,,,,2/8 Mostly Clear,72000.0,,FEW,25000,,,,,,
KRDR,04-13-2005,16:00,METAR,,,4,,,9999,Cloud Development Not Observable,9.0,9.0,30.29,1026.7,,,,0,0,0,,,,,,,,,2/8 Mostly Clear,72000.0,,FEW,200,FEW,25000.0,,,,
KRDR,04-13-2005,15:10,SPECI,,,3,,,9999,Cloud Development Not Observable,7.0,7.0,30.28,,,,,0,0,0,,,,,,,,,4/8 Partly Cloudy,72000.0,,SCT,200,,,,,,
KRDR,04-13-2005,15:00,METAR,,,4,,,3200,Mist/Cloud Development Not Observable,7.0,7.0,30.28,1026.4,,,,10,0,0,,,,,,,,,7/8 Mostly Cloudy,200.0,,BKN,200,,,,,,
KRDR,04-13-2005,14:45,METAR,,,1,,,1600,Mist/Cloud Development Not Observable,5.0,5.0,30.28,,,,,10,0,0,,,,,,,,,4/8 Partly Cloudy,72000.0,,SCT,200,,,,,,
KRDR,04-13-2005,14:34,SPECI,,,0,,,800,Fog or Ice Fog/Cloud Development Not Observable,5.0,5.0,30.27,,,,,44,0,0,,,,,,,,,4/8 Partly Cloudy,72000.0,,SCT,200,SCT,25000.0,,,,
KRDR,04-13-2005,14:00,METAR,,10,1,,,400,Fog or Ice Fog/Cloud Development Not Observable,4.0,4.0,30.27,1026.2,,,,44,0,0,,,,,,,,,2/8 Mostly Clear,72000.0,,FEW,100,FEW,25000.0,,,,
KRDR,04-13-2005,13:00,METAR,,340,3,,,400,Fog or Ice Fog/Cloud Development Not Observable,2.0,2.0,30.25,1025.7,,,,44,0,0,,,,,,,,,4/8 Partly Cloudy,72000.0,,FEW,100,SCT,9900.0,SCT,25000.0,,
KRDR,04-13-2005,12:31,SPECI,,350,2,,,800,Fog or Ice Fog/Cloud Development Not Observable,1.0,1.0,30.24,,,,,44,0,0,,,,,,,,,4/8 Partly Cloudy,72000.0,,FEW,100,SCT,9900.0,SCT,25000.0,,
KRDR,04-13-2005,12:09,SPECI,,330,5,,,1200,Mist/Cloud Development Not Observable,1.0,1.0,30.24,,,,,10,0,0,,,,,,,,,4/8 Partly Cloudy,72000.0,,FEW,100,FEW,9900.0,SCT,25000.0,,
KRDR,04-13-2005,12:00,METAR,,330,3,,,1600,Mist/Cloud Development Not Observable,2.0,2.0,30.21,1024.2,,,,10,0,0,,,,,,,,.22 IN,7/8 Mostly Cloudy,20000.0,,SCT,200,BKN,20000.0,,,,
KRDR,04-13-2005,11:00,METAR,,330,5,,,1600,Mist/Cloud Development Not Observable,2.0,2.0,30.21,1024.2,,,,10,0,0,,,,,,,,,Clear,72000.0,,,73000,,,,,,
KRDR,04-13-2005,10:25,METAR,,330,5,,,1600,Mist/Cloud Development Not Observable,3.0,3.0,30.20,,,,,10,0,0,,,,,,,,,Clear,72000.0,,,73000,,,,,,
KRDR,04-13-2005,10:00,METAR,,340,5,,,4800,Mist/Cloud Development Not Observable,3.0,3.0,30.19,1023.7,,,,10,0,0,,,,,,,,,4/8 Partly Cloudy,72000.0,,SCT,20000,,,,,,
KRDR,04-13-2005,09:00,METAR,,350,5,,,4800,Mist/Cloud Development Not Observable,3.0,3.0,30.17,1022.8,,,,10,0,0,,,,,,,,,7/8 Mostly Cloudy,20000.0,,BKN,20000,,,,,,
KRDR,04-13-2005,08:00,METAR,,350,2,,,4800,Mist/Cloud Development Not Observable,6.0,6.0,30.15,1022.2,,,,10,0,0,,,,,,,,,8/8 Overcast,5500.0,,OVC,5400,,,,,,
KRDR,04-13-2005,07:00,METAR,,360,3,,,6400,Mist/Cloud Development Not Observable,6.0,6.0,30.15,1022.2,,,,10,0,0,,,,,,,,,8/8 Overcast,5500.0,,OVC,5400,,,,,,
KRDR,04-13-2005,06:00,METAR,,320,5,,,6400,Mist/Cloud Development Not Observable,5.0,5.0,30.13,1021.6,,,,10,0,0,,,,,,,,,8/8 Overcast,5500.0,,BKN,5400,OVC,9900.0,,,,
KRDR,04-13-2005,05:00,METAR,,350,5,,,9999,Cloud Development Not Observable,6.0,6.0,30.11,1020.8,,,,0,0,0,,,,,,,,,8/8 Overcast,9500.0,,SCT,5000,OVC,9400.0,,,,
KRDR,04-13-2005,04:00,METAR,,340,3,,,9999,Cloud Development Not Observable,6.0,6.0,30.09,1019.9,,,,0,0,0,,,,,,,,,8/8 Overcast,4900.0,,BKN,5000,OVC,11000.0,,,,
KRDR,04-13-2005,03:00,METAR,,330,3,,,9999,Mist/Cloud Development Not Observable,7.0,7.0,30.08,1019.6,,,,10,0,0,,,,,,.01 IN,,,8/8 Overcast,3900.0,,BKN,4000,OVC,7900.0,,,,
KRDR,04-13-2005,02:00,METAR,,30,4,,,8000,Mist/Cloud Development Not Observable,7.0,7.0,30.07,1019.4,,,,10,0,0,,,,,,,,,8/8 Overcast,3300.0,,SCT,2500,BKN,3400.0,OVC,7900.0,,
KRDR,04-13-2005,01:45,METAR,,30,4,,,8000,Mist/Cloud Development Not Observable,7.0,7.0,30.06,,,,,10,0,0,,,,,,,,,8/8 Overcast,3300.0,,SCT,2500,BKN,3400.0,OVC,7900.0,,
KRDR,04-13-2005,01:00,METAR,,20,4,,,8000,Rain/Mist/Cloud Development Not Observable,8.0,8.0,30.04,1018.4,,,,61,10,0,,,,,,,,,8/8 Overcast,3000.0,,FEW,500,SCT,3000.0,BKN,4000.0,OVC,7900.0
KRDR,04-13-2005,00:39,SPECI,,20,6,,,8000,Rain/Mist/Cloud Development Not Observable,8.0,8.0,30.03,,,,,61,10,0,,,,,,,,,8/8 Overcast,2500.0,,FEW,600,SCT,2500.0,BKN,4000.0,OVC,7900.0
KRDR,04-13-2005,00:00,METAR,,50,6,,,6400,Rain/Mist/Cloud Development Not Observable,8.0,8.0,30.02,1017.7,,,,61,10,0,,,,,,,.04 IN,,8/8 Overcast,1200.0,,FEW,500,SCT,1200.0,OVC,2500.0,,
KRDR,04-12-2005,23:00,METAR,,50,6,,,6400,Rain/Mist/Cloud Development Not Observable,8.0,8.0,30.01,1017.4,,,,61,10,0,,,,,,,,,8/8 Overcast,1500.0,,SCT,500,OVC,1500.0,,,,
KRDR,04-12-2005,22:35,SPECI,,60,4,,,6400,Rain/Mist/Cloud Development Not Observable,8.0,8.0,29.99,,,,,61,10,0,,,,,,,,,8/8 Overcast,2000.0,,SCT,600,OVC,2000.0,,,,
KRDR,04-12-2005,22:00,METAR,,70,4,,,3200,Rain/Mist/Cloud Development Not Observable,9.0,9.0,29.98,1016.3,,,,61,10,0,,,,,,,,,8/8 Overcast,600.0,,BKN,600,OVC,1000.0,,,,
KRDR,04-12-2005,21:39,SPECI,,80,7,,,2400,Rain/Mist/Cloud Development Not Observable,8.0,8.0,29.98,,,,,61,10,0,,,,,,,,,8/8 Overcast,500.0,,BKN,500,OVC,1000.0,,,,
KRDR,04-12-2005,21:00,METAR,,60,6,,,8000,Rain/Mist/Cloud Development Not Observable,9.0,9.0,29.96,1015.6,,,,61,10,0,,,,,,TRACE,,,8/8 Overcast,1500.0,,FEW,1000,BKN,1500.0,OVC,2500.0,,
KRDR,04-12-2005,20:00,METAR,,80,5,,,8000,Mist/Cloud Development Not Observable,9.0,9.0,29.95,1015.2,,,,10,0,0,,,,,,,,,8/8 Overcast,1200.0,,BKN,1200,OVC,2500.0,,,,
KRDR,04-12-2005,19:00,METAR,,120,5,,,6400,Mist/Cloud Development Not Observable,9.0,9.0,29.93,1014.3,,,,10,0,0,,,,,,,,,8/8 Overcast,1000.0,,BKN,1000,OVC,2500.0,,,,
KRDR,04-12-2005,18:21,SPECI,,140,6,,,6400,Mist/Cloud Development Not Observable,8.0,8.0,29.92,,,,,10,0,0,,,,,,,,,8/8 Overcast,1200.0,,OVC,1200,,,,,,
KRDR,04-12-2005,18:00,METAR,,130,9,,,4800,Rain/Mist/Cloud Development Not Observable,8.0,8.0,29.92,1014.0,,,,61,10,0,,,,,,,,,8/8 Overcast,1000.0,,OVC,1000,,,,,,
KRDR,04-12-2005,17:00,METAR,,110,8,,,4800,Rain/Mist/Cloud Development Not Observable,9.0,9.0,29.89,1012.9,,,,61,10,0,,,,,,,,,8/8 Overcast,1000.0,,OVC,1000,,,,,,
KRDR,04-12-2005,16:00,METAR,,130,5,,,4800,Rain/Mist/Cloud Development Not Observable,8.0,8.0,29.87,1012.5,,,,61,10,0,,,,,,,,,8/8 Overcast,1000.0,,BKN,1000,OVC,2800.0,,,,
KRDR,04-12-2005,15:00,METAR,,80,6,,,4000,Rain/Mist/Cloud Development Not Observable,8.0,8.0,29.85,1011.8,,,,61,10,0,,,,,,.04 IN,,,8/8 Overcast,1000.0,,BKN,1000,OVC,2000.0,,,,
KRDR,04-12-2005,14:00,METAR,,70,5,,,4800,Rain/Mist/Cloud Development Not Observable,8.0,8.0,29.83,1011.2,,,,61,10,0,,,,,,,,,8/8 Overcast,1700.0,,OVC,1700,,,,,,
KRDR,04-12-2005,13:23,SPECI,,70,4,,,4800,Rain/Mist/Cloud Development Not Observable,8.0,8.0,29.83,,,,,61,10,0,,,,,,,,,8/8 Overcast,1800.0,,OVC,1800,,,,,,
KRDR,04-12-2005,13:00,METAR,,170,7,,,4000,Rain/Mist/Cloud Development Not Observable,8.0,8.0,29.83,1011.2,,,,61,10,0,,,,,,,,,8/8 Overcast,1300.0,,BKN,1300,OVC,2000.0,,,,
KRDR,04-12-2005,12:00,METAR,,60,3,,,4000,Rain/Mist/Cloud Development Not Observable,8.0,8.0,29.80,1010.1,,,,61,10,0,,,,,,,.07 IN,.42 IN,8/8 Overcast,1000.0,,SCT,800,BKN,1000.0,OVC,1400.0,,
KRDR,04-12-2005,11:42,SPECI,,90,3,,,4000,Rain/Mist/Cloud Development Not Observable,8.0,8.0,29.80,,,,,61,10,0,,,,,,,,,8/8 Overcast,1000.0,,SCT,800,OVC,1000.0,,,,
KRDR,04-12-2005,11:00,METAR,,90,5,,,4800,Drizzle/Mist/Cloud Development Not Observable,8.0,8.0,29.79,1009.8,,,,51,10,0,,,,,,,,,8/8 Overcast,1000.0,,SCT,800,BKN,1000.0,OVC,1400.0,,
KRDR,04-12-2005,10:00,METAR,,80,4,,,4800,Drizzle/Mist/Cloud Development Not Observable,9.0,9.0,29.78,1009.3,,,,51,10,0,,,,,,,,,8/8 Overcast,1200.0,,OVC,1200,,,,,,
KRDR,04-12-2005,09:00,METAR,,140,5,,,6400,Rain/Mist/Cloud Development Not Observable,10.0,10.0,29.76,1008.7,,,,61,10,0,,,,,,TRACE,,,8/8 Overcast,1400.0,,BKN,1400,OVC,3000.0,,,,
KRDR,04-12-2005,08:00,METAR,,130,9,,,6400,Mist/Cloud Development Not Observable,10.0,10.0,29.74,1007.9,,,,10,0,0,,,,,,,,,8/8 Overcast,3400.0,,FEW,2000,SCT,3500.0,OVC,6900.0,,
KRDR,04-12-2005,07:26,SPECI,,120,12,,,6400,Mist/Cloud Development Not Observable,10.0,10.0,29.73,,,,,10,0,0,,,,,,,,,8/8 Overcast,4900.0,,SCT,2000,BKN,5000.0,OVC,6900.0,,
KRDR,04-12-2005,07:00,METAR,,120,11,,,9999,Rain/Cloud Development Not Observable,11.0,11.0,29.73,1007.6,,,,61,0,0,,,,,,,,,8/8 Overcast,3400.0,,SCT,2000,BKN,3500.0,OVC,5900.0,,
KRDR,04-12-2005,06:23,SPECI,,110,13,,,9999,Rain/Cloud Development Not Observable,11.0,11.0,29.74,,,,,61,0,0,,,,,,,,,8/8 Overcast,4900.0,,SCT,2000,BKN,5000.0,OVC,6900.0,,
KRDR,04-12-2005,06:00,METAR,,130,11,,,9999,Cloud Development Not Observable,11.0,11.0,29.74,1008.0,,,,0,0,0,,,,,,,,,8/8 Overcast,6000.0,,SCT,2000,OVC,5900.0,,,,
KRDR,04-12-2005,05:00,METAR,,150,10,,,9999,Cloud Development Not Observable,12.0,12.0,29.75,1008.1,,,,0,0,0,,,,,,,,,8/8 Overcast,6500.0,,SCT,2000,OVC,6400.0,,,,
KRDR,04-12-2005,04:00,METAR,,150,6,,,4800,Mist/Cloud Development Not Observable,12.0,12.0,29.74,1007.8,,,,10,0,0,,,,,,,,,8/8 Overcast,9000.0,,SCT,1800,OVC,8900.0,,,,
KRDR,04-12-2005,03:00,METAR,,120,8,,,1600,Mist/Cloud Development Not Observable,13.0,13.0,29.74,1007.8,,,,10,0,0,,,,,,,,,8/8 Overcast,2400.0,,BKN,2400,OVC,9900.0,,,,
KRDR,04-12-2005,02:00,METAR,,50,5,,,1600,Mist/Cloud Development Not Observable,11.0,11.0,29.72,1007.3,,,,10,0,0,,,,,,,,,8/8 Overcast,2500.0,,BKN,2500,OVC,4000.0,,,,
KRDR,04-12-2005,01:27,SPECI,,350,3,,,2400,Mist/Cloud Development Not Observable,11.0,11.0,29.73,,,,,10,0,0,,,,,,,,,8/8 Overcast,2500.0,,BKN,2500,OVC,4000.0,,,,
KRDR,04-12-2005,01:09,SPECI,,340,3,,,2800,Mist/Cloud Development Not Observable,11.0,11.0,29.73,,,,,10,0,0,,,,,,,,,8/8 Overcast,2400.0,,FEW,100,FEW,1000.0,OVC,2400.0,,
KRDR,04-12-2005,01:00,METAR,,350,3,,,3200,Mist/Cloud Development Not Observable,11.0,11.0,29.72,1007.2,,,,10,0,0,,,,,,,,,8/8 Overcast,1000.0,,FEW,300,SCT,1000.0,OVC,2200.0,,
KRDR,04-12-2005,00:30,METAR,,360,4,,,3200,Mist/Cloud Development Not Observable,11.0,11.0,29.71,,,,,10,0,0,,,,,,,,,8/8 Overcast,1000.0,,FEW,300,SCT,1000.0,OVC,2000.0,,
KRDR,04-12-2005,00:00,METAR,,10,5,,,2400,Mist/Cloud Development Not Observable,12.0,12.0,29.71,1006.7,,,,10,0,0,,,,,,,.14 IN,,8/8 Overcast,1000.0,,SCT,500,BKN,1000.0,OVC,2600.0,,
KRDR,04-11-2005,23:00,METAR,,,2,,,2400,Mist/Cloud Development Not Observable,11.0,11.0,29.72,1007.2,,,,10,0,0,,,,,,,,,8/8 Overcast,1000.0,,FEW,500,BKN,1000.0,OVC,3000.0,,
KRDR,04-11-2005,22:11,SPECI,,30,5,,,1600,Mist/Cloud Development Not Observable,10.0,10.0,29.73,,,,,10,0,0,,,,,,,,,8/8 Overcast,1000.0,,SCT,400,BKN,1000.0,OVC,3000.0,,
KRDR,04-11-2005,22:00,METAR,,20,5,,,1600,Rain/Mist/Cloud Development Not Observable,10.0,10.0,29.73,1007.5,,,,61,10,0,,,,,,,,,8/8 Overcast,1000.0,,SCT,600,BKN,1000.0,OVC,3000.0,,
KRDR,04-11-2005,21:00,METAR,,50,3,,,1600,Rain/Mist/Cloud Development Not Observable,10.0,10.0,29.74,1007.9,,,,61,10,0,,,,,,.11 IN,,,8/8 Overcast,900.0,,SCT,500,BKN,900.0,OVC,3000.0,,
KRDR,04-11-2005,20:00,METAR,,10,3,,,2400,Rain/Mist/Cloud Development Not Observable,9.0,9.0,29.74,1007.9,,,,61,10,0,,,,,,,,,8/8 Overcast,1000.0,,SCT,500,BKN,1000.0,OVC,3000.0,,
KRDR,04-11-2005,19:00,METAR,,40,6,,,3200,Rain/Mist/Cloud Development Not Observable,9.0,9.0,29.73,1007.5,,,,61,10,0,,,,,,,,,8/8 Overcast,1000.0,,SCT,500,BKN,1000.0,OVC,3000.0,,
KRDR,04-11-2005,18:40,SPECI,,20,5,,,4000,Rain/Mist/Cloud Development Not Observable,9.0,9.0,29.73,,,,,61,10,0,,,,,,,,,8/8 Overcast,2000.0,,SCT,500,BKN,2000.0,OVC,4000.0,,
KRDR,04-11-2005,18:00,METAR,,40,8,,,4800,Rain/Mist/Cloud Development Not Observable,9.0,9.0,29.74,1007.9,,,,61,10,0,,,,,,,.21 IN,,8/8 Overcast,2500.0,,SCT,1000,BKN,2500.0,OVC,4000.0,,
KRDR,04-11-2005,17:00,METAR,,20,6,,,3200,Rain/Mist/Cloud Development Not Observable,9.0,9.0,29.77,1008.9,,,,61,10,0,,,,,,,,,8/8 Overcast,1200.0,,FEW,500,SCT,1200.0,BKN,2200.0,OVC,4000.0
KRDR,04-11-2005,16:30,METAR,,20,5,,,2400,Rain/Mist/Cloud Development Not Observable,9.0,9.0,29.78,,,,,61,10,0,,,,,,,,,8/8 Overcast,2500.0,,SCT,500,BKN,2500.0,OVC,4000.0,,
KRDR,04-11-2005,16:00,METAR,,10,5,,,2400,Rain/Mist/Cloud Development Not Observable,9.0,9.0,29.79,1009.5,,,,61,10,0,,,,,,,,,8/8 Overcast,500.0,,OVC,500,,,,,,
KRDR,04-11-2005,15:00,METAR,,360,7,,,1600,Rain/Mist/Cloud Development Not Observable,8.0,8.0,29.79,1019.5,,,,61,10,0,,,,,,.06 IN,,,8/8 Overcast,500.0,,OVC,500,,,,,,
KRDR,04-11-2005,14:40,SPECI,,360,7,,,1600,Rain/Mist/Cloud Development Not Observable,8.0,8.0,29.79,,,,,61,10,0,,,,,,,,,8/8 Overcast,500.0,,OVC,500,,,,,,
KRDR,04-11-2005,14:11,SPECI,,340,8,,,2400,Rain/Mist/Cloud Development Not Observable,8.0,8.0,29.79,,,,,61,10,0,,,,,,,,,8/8 Overcast,500.0,,BKN,500,OVC,1200.0,,,,
KRDR,04-11-2005,14:00,METAR,,340,8,,,3200,Rain/Mist/Cloud Development Not Observable,8.0,8.0,29.80,1010.1,,,,61,10,0,,,,,,,,,8/8 Overcast,500.0,,BKN,500,OVC,1500.0,,,,
KRDR,04-11-2005,13:29,SPECI,,360,8,,,8000,Rain/Mist/Cloud Development Not Observable,8.0,8.0,29.81,,,,,61,10,0,,,,,,,,,8/8 Overcast,600.0,,OVC,600,,,,,,
KRDR,04-11-2005,13:23,SPECI,,360,10,,,2400,Rain/Mist/Cloud Development Not Observable,8.0,8.0,29.81,,,,,61,10,0,,,,,,,,,8/8 Overcast,600.0,,OVC,600,,,,,,
KRDR,04-11-2005,13:00,METAR,,340,11,,,6400,Rain/Mist/Cloud Development Not Observable,8.0,8.0,29.81,1010.3,,,,61,10,0,,,,,,,,,8/8 Overcast,2000.0,,SCT,500,BKN,2000.0,OVC,3000.0,,
KRDR,04-11-2005,12:00,METAR,,360,11,,,8000,Rain/Mist/Cloud Development Not Observable,8.0,8.0,29.82,1010.6,,,,61,10,0,,,,,,,.03 IN,.03 IN,8/8 Overcast,2000.0,,FEW,800,BKN,2000.0,OVC,3000.0,,
KRDR,04-11-2005,11:22,SPECI,,10,11,,,6400,Rain/Cloud Development Not Observable,8.0,8.0,29.81,,,,,61,0,0,,,,,,,,,8/8 Overcast,2000.0,,BKN,2000,OVC,3000.0,,,,
KRDR,04-11-2005,11:00,METAR,,350,10,,,6400,Rain/Cloud Development Not Observable,8.0,8.0,29.81,1010.1,,,,61,0,0,,,,,,,,,8/8 Overcast,3000.0,,SCT,2000,OVC,3000.0,,,,
KRDR,04-11-2005,10:02,SPECI,,340,10,,,6400,Rain/Cloud Development Not Observable,8.0,8.0,29.82,,,,,61,0,0,,,,,,,,,8/8 Overcast,3000.0,,SCT,2000,OVC,3000.0,,,,
KRDR,04-11-2005,10:00,METAR,,340,8,,,6400,Rain/Cloud Development Not Observable,8.0,8.0,29.82,1010.6,,,,61,0,0,,,,,,,,,8/8 Overcast,3000.0,,SCT,2000,OVC,3000.0,,,,
KRDR,04-11-2005,09:24,SPECI,,350,6,,,8000,Rain/Cloud Development Not Observable,8.0,7.0,29.84,,,,,61,0,0,,,,,,,,,8/8 Overcast,3100.0,,FEW,1600,OVC,3200.0,,,,
KRDR,04-11-2005,09:00,METAR,,360,6,,,9999,Cloud Development Not Observable,9.0,6.0,29.85,1011.5,,,,0,0,0,,,,,,,,,8/8 Overcast,3700.0,,BKN,3800,OVC,6400.0,,,,
KRDR,04-11-2005,08:00,METAR,,360,4,,,9999,Cloud Development Not Observable,9.0,6.0,29.85,1011.6,,,,0,0,0,,,,,,,,,8/8 Overcast,4400.0,,BKN,4500,OVC,7400.0,,,,
KRDR,04-11-2005,07:00,METAR,,330,7,,,9999,Cloud Development Not Observable,9.0,6.0,29.86,1011.9,,,,0,0,0,,,,,,,,,8/8 Overcast,3900.0,,BKN,4000,OVC,8400.0,,,,
KRDR,04-11-2005,06:00,METAR,,320,8,,,9999,Cloud Development Not Observable,10.0,5.0,29.86,1012.0,,,,0,0,0,,,,,,,,,8/8 Overcast,8500.0,,FEW,4500,OVC,8400.0,,,,
KRDR,04-11-2005,05:00,METAR,,290,3,,,9999,Cloud Development Not Observable,10.0,7.0,29.86,1011.9,,,,0,0,0,,,,,,,,,8/8 Overcast,4400.0,,BKN,4500,OVC,8900.0,,,,
KRDR,04-11-2005,04:00,METAR,,150,3,,,9999,Cloud Development Not Observable,12.0,7.0,29.87,1012.2,,,,0,0,0,,,,,,,,,8/8 Overcast,4400.0,,BKN,4500,OVC,8900.0,,,,
KRDR,04-11-2005,03:00,METAR,,170,3,,,9999,Cloud Development Not Observable,12.0,7.0,29.86,1011.9,,,,0,0,0,,,,,,,,,4/8 Partly Cloudy,72000.0,,SCT,8900,,,,,,
KRDR,04-11-2005,02:00,METAR,,150,3,,,9999,Cloud Development Not Observable,11.0,6.0,29.84,1011.3,,,,0,0,0,,,,,,,,,4/8 Partly Cloudy,72000.0,,FEW,7900,SCT,25000.0,,,,
KRDR,04-11-2005,01:00,METAR,,130,4,,,9999,Cloud Development Not Observable,14.0,6.0,29.82,1010.7,,,,0,0,0,,,,,,,,,7/8 Mostly Cloudy,25000.0,,SCT,7900,BKN,25000.0,,,,
KRDR,04-11-2005,00:00,METAR,,140,7,,,9999,Cloud Development Not Observable,17.0,5.0,29.82,1010.6,,,,0,0,0,,,,,,,,,7/8 Mostly Cloudy,25000.0,,FEW,7900,BKN,25000.0,,,,
KRDR,04-10-2005,23:00,METAR,,150,9,,,9999,Cloud Development Not Observable,17.0,4.0,29.82,1010.6,,,,0,0,0,,,,,,,,,4/8 Partly Cloudy,72000.0,,FEW,5900,SCT,25000.0,,,,
KRDR,04-10-2005,22:00,METAR,,160,7,,,9999,Cloud Development Not Observable,18.0,4.0,29.80,1009.8,,,,0,0,0,,,,,,,,,4/8 Partly Cloudy,72000.0,,FEW,7900,SCT,25000.0,,,,
KRDR,04-10-2005,21:00,METAR,,150,7,,,9999,Cloud Development Not Observable,18.0,4.0,29.81,1010.1,,,,0,0,0,,,,,,,,,4/8 Partly Cloudy,72000.0,,FEW,5900,SCT,25000.0,,,,
KRDR,04-10-2005,20:00,METAR,,150,9,,,9999,Cloud Development Not Observable,18.0,4.0,29.81,1010.3,,,,0,0,0,,,,,,,,,7/8 Mostly Cloudy,6000.0,,BKN,5900,BKN,25000.0,,,,
KRDR,04-10-2005,19:00,METAR,,190,5,,,9999,Cloud Development Not Observable,16.0,3.0,29.81,1010.3,,,,0,0,0,,,,,,,,,7/8 Mostly Cloudy,6000.0,,BKN,5900,BKN,25000.0,,,,
KRDR,04-10-2005,18:00,METAR,,,4,,,9999,Cloud Development Not Observable,14.0,3.0,29.81,1010.3,,,,0,0,0,,,,,,,,,7/8 Mostly Cloudy,4900.0,,BKN,5000,BKN,25000.0,,,,
KRDR,04-10-2005,17:00,METAR,,,3,,,9999,Cloud Development Not Observable,15.0,4.0,29.80,1009.9,,,,0,0,0,,,,,,,,,4/8 Partly Cloudy,72000.0,,FEW,5000,SCT,25000.0,,,,
KRDR,04-10-2005,16:00,METAR,,240,8,,,9999,Cloud Development Not Observable,12.0,3.0,29.78,1009.1,,,,0,0,0,,,,,,,,,4/8 Partly Cloudy,72000.0,,SCT,25000,,,,,,
KRDR,04-10-2005,14:54,METAR,,210,9,,,9999,Cloud Development Not Observable,10.0,3.0,29.77,1008.7,,,,0,0,0,,,,,,,,,4/8 Partly Cloudy,72000.0,,FEW,12000,SCT,25000.0,,,,
KRDR,04-10-2005,14:00,METAR,,210,6,,,9999,Cloud Development Not Observable,9.0,4.0,29.77,1008.8,,,,0,0,0,,,,,,,,,7/8 Mostly Cloudy,25000.0,,FEW,12000,BKN,25000.0,,,,
KRDR,04-10-2005,13:00,METAR,,200,6,,,9999,Cloud Development Not Observable,5.0,3.0,29.77,1008.9,,,,0,0,0,,,,,,,,,7/8 Mostly Cloudy,25000.0,,SCT,12000,BKN,25000.0,,,,
KRDR,04-10-2005,12:00,METAR,,190,4,,,9999,Cloud Development Not Observable,4.0,3.0,29.78,1009.0,,,,0,0,0,,,,,,,,,7/8 Mostly Cloudy,25000.0,,SCT,12000,BKN,25000.0,,,,
KRDR,04-10-2005,11:00,METAR,,210,7,,,9999,Cloud Development Not Observable,4.0,2.0,29.75,1008.1,,,,0,0,0,,,,,,,,,Clear,72000.0,,,73000,,,,,,
KRDR,04-10-2005,10:00,METAR,,200,6,,,9999,Cloud Development Not Observable,4.0,2.0,29.75,1008.1,,,,0,0,0,,,,,,,,,Clear,72000.0,,,73000,,,,,,
KRDR,04-10-2005,09:00,METAR,,170,6,,,9999,Cloud Development Not Observable,8.0,4.0,29.74,1007.7,,,,0,0,0,,,,,,,,,Clear,72000.0,,,73000,,,,,,
KRDR,04-10-2005,08:00,METAR,,150,5,,,9999,Cloud Development Not Observable,7.0,3.0,29.71,1006.7,,,,0,0,0,,,,,,,,,Clear,72000.0,,,73000,,,,,,
KRDR,04-10-2005,07:00,METAR,,120,5,,,9999,Cloud Development Not Observable,7.0,4.0,29.69,1006.0,,,,0,0,0,,,,,,,,,Clear,72000.0,,,73000,,,,,,
KRDR,04-10-2005,06:00,METAR,,180,3,,,9999,Cloud Development Not Observable,9.0,4.0,29.66,1004.9,,,,0,0,0,,,,,,,,,2/8 Mostly Clear,72000.0,,FEW,25000,,,,,,
KRDR,04-10-2005,05:00,METAR,,230,6,,,9999,Cloud Development Not Observable,9.0,4.0,29.65,1004.6,,,,0,0,0,,,,,,,,,2/8 Mostly Clear,72000.0,,FEW,25000,,,,,,
KRDR,04-10-2005,04:00,METAR,,230,7,,,9999,Cloud Development Not Observable,11.0,5.0,29.64,1004.4,,,,0,0,0,,,,,,,,,2/8 Mostly Clear,72000.0,,FEW,25000,,,,,,
KRDR,04-10-2005,03:00,METAR,,230,8,,,9999,Cloud Development Not Observable,14.0,6.0,29.59,1001.6,,,,0,0,0,,,,,,,,,4/8 Partly Cloudy,72000.0,,SCT,6900,SCT,25000.0,,,,
KRDR,04-10-2005,02:00,METAR,,160,6,,,9999,Cloud Development Not Observable,17.0,10.0,29.55,1001.2,,,,0,0,0,,,,,,,,,4/8 Partly Cloudy,72000.0,,SCT,6900,SCT,25000.0,,,,
KRDR,04-10-2005,01:00,METAR,,140,9,,,9999,Cloud Development Not Observable,19.0,10.0,29.51,999.8,,,,0,0,0,,,,,,,,,4/8 Partly Cloudy,72000.0,,SCT,5900,SCT,25000.0,,,,
KRDR,04-10-2005,00:00,METAR,,160,14,,160/25KTS,9999,Cloud Development Not Observable,22.0,9.0,29.49,999.0,,,,0,0,0,,,,,,,,,4/8 Partly Cloudy,72000.0,,FEW,2000,SCT,25000.0,,,,
KRDR,04-09-2005,23:00,METAR,,170,19,,160/30KTS,9999,Cloud Development Not Observable,23.0,10.0,29.48,998.7,,,,0,0,0,,,,,,,,,4/8 Partly Cloudy,72000.0,,FEW,2000,SCT,25000.0,,,,
KRDR,04-09-2005,22:00,METAR,,150,14,,,9999,Cloud Development Not Observable,22.0,11.0,29.47,998.3,,,,0,0,0,,,,,,,,,7/8 Mostly Cloudy,4900.0,,FEW,2000,BKN,5000.0,BKN,25000.0,,
KRDR,04-09-2005,21:00,METAR,,130,17,23.0,,9999,Cloud Development Not Observable,22.0,10.0,29.48,998.7,,,,0,0,0,,,,,,,,,7/8 Mostly Cloudy,25000.0,,SCT,2000,BKN,25000.0,,,,
KRDR,04-09-2005,20:00,METAR,,140,20,24.0,150/28KTS,9999,Cloud Development Not Observable,22.0,9.0,29.49,999.0,,,,0,0,0,,,,,,,,,2/8 Mostly Clear,72000.0,,FEW,3000,FEW,25000.0,,,,
KRDR,04-09-2005,19:00,METAR,,150,18,24.0,150/25KTS,9999,Cloud Development Not Observable,21.0,9.0,29.50,999.4,,,,0,0,0,,,,,,,,,4/8 Partly Cloudy,72000.0,,SCT,25000,,,,,,
KRDR,04-09-2005,18:00,METAR,,150,20,,150/28KTS,9999,Cloud Development Not Observable,20.0,9.0,29.50,999.4,,,,0,0,0,,,,,,,,,7/8 Mostly Cloudy,25000.0,,BKN,25000,,,,,,
KRDR,04-09-2005,17:00,METAR,,170,22,27.0,160/31KTS,9999,Cloud Development Not Observable,18.0,8.0,29.51,999.6,,,,0,0,0,,,,,,,,,7/8 Mostly Cloudy,25000.0,,BKN,25000,,,,,,
KRDR,04-09-2005,16:00,METAR,,160,21,27.0,160/31KTS,9999,Cloud Development Not Observable,17.0,8.0,29.51,999.7,,,,0,0,0,,,,,,,,,7/8 Mostly Cloudy,25000.0,,BKN,25000,,,,,,
KRDR,04-09-2005,15:00,METAR,,170,18,25.0,160/28KTS,9999,Cloud Development Not Observable,14.0,7.0,29.50,999.6,,,,0,0,0,,,,,,,,,7/8 Mostly Cloudy,25000.0,,SCT,9900,BKN,25000.0,,,,
KRDR,04-09-2005,14:00,METAR,,160,16,,,9999,Cloud Development Not Observable,12.0,6.0,29.50,999.6,,,,0,0,0,,,,,,,,,7/8 Mostly Cloudy,15000.0,,BKN,15000,BKN,25000.0,,,,
KRDR,04-09-2005,13:00,METAR,,150,12,,,9999,Cloud Development Not Observable,11.0,5.0,29.50,999.5,,,,0,0,0,,,,,,,,,7/8 Mostly Cloudy,15000.0,,BKN,15000,BKN,25000.0,,,,
KRDR,04-09-2005,12:00,METAR,,150,14,,,9999,Cloud Development Not Observable,10.0,5.0,29.51,999.7,,,,0,0,0,,,,,,,,,7/8 Mostly Cloudy,25000.0,,SCT,15000,BKN,25000.0,,,,
KRDR,04-09-2005,11:00,METAR,,150,13,,,9999,Cloud Development Not Observable,10.0,5.0,29.51,999.6,,,,0,0,0,,,,,,,,,2/8 Mostly Clear,72000.0,,FEW,20000,,,,,,
KRDR,04-09-2005,10:00,METAR,,150,11,,,9999,Cloud Development Not Observable,10.0,4.0,29.52,1000.0,,,,0,0,0,,,,,,,,,2/8 Mostly Clear,72000.0,,FEW,20000,,,,,,
KRDR,04-09-2005,09:00,METAR,,150,14,,,9999,Cloud Development Not Observable,11.0,4.0,29.52,999.9,,,,0,0,0,,,,,,,,,2/8 Mostly Clear,72000.0,,FEW,20000,,,,,,
KRDR,04-09-2005,08:00,METAR,,160,16,,,9999,Cloud Development Not Observable,11.0,3.0,29.55,1000.9,,,,0,0,0,,,,,,,,,2/8 Mostly Clear,72000.0,,FEW,20000,,,,,,
KRDR,04-09-2005,07:00,METAR,,160,16,23.0,,9999,Cloud Development Not Observable,12.0,3.0,29.56,1001.4,,,,0,0,0,,,,,,,,,2/8 Mostly Clear,72000.0,,FEW,20000,,,,,,
KRDR,04-09-2005,06:00,METAR,,150,12,,,9999,Cloud Development Not Observable,11.0,4.0,29.57,1001.8,,,,0,0,0,,,,,,,,,2/8 Mostly Clear,72000.0,,FEW,20000,,,,,,
KRDR,04-09-2005,05:00,METAR,,150,13,,,9999,Cloud Development Not Observable,12.0,5.0,29.57,1001.7,,,,0,0,0,,,,,,,,,2/8 Mostly Clear,72000.0,,FEW,20000,,,,,,
KRDR,04-09-2005,04:00,METAR,,150,11,,,9999,Cloud Development Not Observable,12.0,6.0,29.58,1002.1,,,,0,0,0,,,,,,,,,4/8 Partly Cloudy,72000.0,,SCT,20000,,,,,,
KRDR,04-09-2005,03:00,METAR,,150,14,,,9999,Cloud Development Not Observable,13.0,6.0,29.57,1001.8,,,,0,0,0,,,,,,,,,4/8 Partly Cloudy,72000.0,,SCT,20000,,,,,,
KRDR,04-09-2005,02:00,METAR,,150,13,,150/27KTS,9999,Cloud Development Not Observable,15.0,5.0,29.56,1001.5,,,,0,0,0,,,,,,,,,7/8 Mostly Cloudy,20000.0,,BKN,20000,,,,,,
KRDR,04-09-2005,01:00,METAR,,150,19,24.0,150/27KTS,9999,Cloud Development Not Observable,18.0,5.0,29.56,1001.7,,,,0,0,0,,,,,,,,,7/8 Mostly Cloudy,20000.0,,BKN,20000,,,,,,
KRDR,04-09-2005,00:00,METAR,,150,19,25.0,150/26KTS,9999,Cloud Development Not Observable,19.0,5.0,29.57,1001.9,,,,0,0,0,,,,,,,,,7/8 Mostly Cloudy,20000.0,,BKN,20000,,,,,,
KRDR,04-08-2005,23:00,METAR,,150,20,26.0,150/31KTS,9999,Cloud Development Not Observable,21.0,5.0,29.59,1002.5,,,,0,0,0,,,,,,,,,7/8 Mostly Cloudy,20000.0,,BKN,20000,,,,,,
KRDR,04-08-2005,22:00,METAR,,160,24,31.0,,9999,Cloud Development Not Observable,21.0,6.0,29.60,1002.8,,,,0,0,0,,,,,,,,,7/8 Mostly Cloudy,20000.0,,BKN,20000,,,,,,
KRDR,04-08-2005,21:00,METAR,,160,18,28.0,,9999,Cloud Development Not Observable,22.0,5.0,29.61,1003.2,,,,0,0,0,,,,,,,,,7/8 Mostly Cloudy,20000.0,,BKN,20000,,,,,,
KRDR,04-08-2005,20:00,METAR,,160,24,31.0,160/33KTS,9999,Dust/Cloud Development Not Observable,22.0,4.0,29.64,1004.2,,,,7,0,0,,,,,,,,,7/8 Mostly Cloudy,20000.0,,BKN,20000,,,,,,
KRDR,04-08-2005,19:00,METAR,,140,24,30.0,150/30KTS,9999,Cloud Development Not Observable,18.0,4.0,29.67,1005.5,,,,0,0,0,,,,,,,,,7/8 Mostly Cloudy,20000.0,,BKN,20000,,,,,,
KRDR,04-08-2005,18:00,METAR,,140,24,30.0,150/31KTS,9999,Cloud Development Not Observable,18.0,4.0,29.68,1005.9,,,,0,0,0,,,,,,,,,7/8 Mostly Cloudy,25000.0,,FEW,15000,BKN,25000.0,,,,
KRDR,04-08-2005,17:00,METAR,,150,22,29.0,150/29KTS,9999,Cloud Development Not Observable,18.0,4.0,29.71,1006.5,,,,0,0,0,,,,,,,,,7/8 Mostly Cloudy,25000.0,,FEW,15000,BKN,25000.0,,,,
KRDR,04-08-2005,16:00,METAR,,140,21,25.0,,9999,Cloud Development Not Observable,16.0,5.0,29.73,1007.3,,,,0,0,0,,,,,,,,,7/8 Mostly Cloudy,25000.0,,FEW,15000,BKN,25000.0,,,,
KRDR,04-08-2005,15:00,METAR,,150,20,25.0,,9999,Cloud Development Not Observable,13.0,4.0,29.75,1008.0,,,,0,0,0,,,,,,,,,7/8 Mostly Cloudy,25000.0,,FEW,15000,BKN,25000.0,,,,
KRDR,04-08-2005,14:00,METAR,,140,14,20.0,,9999,Cloud Development Not Observable,9.0,4.0,29.76,1008.7,,,,0,0,0,,,,,,,,,7/8 Mostly Cloudy,25000.0,,FEW,15000,BKN,25000.0,,,,
KRDR,04-08-2005,13:00,METAR,,130,10,,,9999,Cloud Development Not Observable,7.0,3.0,29.79,1009.5,,,,0,0,0,,,,,,,,,7/8 Mostly Cloudy,25000.0,,FEW,15000,BKN,25000.0,,,,
KRDR,04-08-2005,12:00,METAR,,140,10,,,9999,Cloud Development Not Observable,6.0,3.0,29.80,1009.8,,,,0,0,0,,,,,,,,,7/8 Mostly Cloudy,25000.0,,SCT,15000,BKN,25000.0,,,,
KRDR,04-08-2005,11:00,METAR,,150,9,,,9999,Cloud Development Not Observable,6.0,2.0,29.82,1010.4,,,,0,0,0,,,,,,,,,2/8 Mostly Clear,72000.0,,FEW,25000,,,,,,
KRDR,04-08-2005,10:00,METAR,,160,9,,,9999,Cloud Development Not Observable,7.0,2.0,29.82,1010.4,,,,0,0,0,,,,,,,,,Clear,72000.0,,,73000,,,,,,
KRDR,04-08-2005,09:00,METAR,,160,8,,,9999,Cloud Development Not Observable,7.0,3.0,29.85,1011.4,,,,0,0,0,,,,,,,,,Clear,72000.0,,,73000,,,,,,
KRDR,04-08-2005,08:00,METAR,,150,8,,,9999,Cloud Development Not Observable,7.0,3.0,29.87,1012.2,,,,0,0,0,,,,,,,,,Clear,72000.0,,,73000,,,,,,
KRDR,04-08-2005,07:00,METAR,,150,6,,,9999,Cloud Development Not Observable,8.0,3.0,29.89,1012.6,,,,0,0,0,,,,,,,,,Clear,72000.0,,,73000,,,,,,
KRDR,04-08-2005,06:00,METAR,,150,6,,,9999,Cloud Development Not Observable,9.0,4.0,29.90,1013.0,,,,0,0,0,,,,,,,,,Clear,72000.0,,,73000,,,,,,
KRDR,04-08-2005,05:00,METAR,,150,7,,,9999,Cloud Development Not Observable,10.0,4.0,29.91,1013.4,,,,0,0,0,,,,,,,,,Clear,72000.0,,,73000,,,,,,
KRDR,04-08-2005,04:00,METAR,,160,10,,,9999,Cloud Development Not Observable,10.0,5.0,29.91,1013.4,,,,0,0,0,,,,,,,,,Clear,72000.0,,,73000,,,,,,
KRDR,04-08-2005,03:00,METAR,,150,10,,,9999,Cloud Development Not Observable,11.0,5.0,29.92,1013.8,,,,0,0,0,,,,,,,,,Clear,72000.0,,,73000,,,,,,
KRDR,04-08-2005,02:00,METAR,,150,10,,,9999,Cloud Development Not Observable,12.0,6.0,29.92,1013.9,,,,0,0,0,,,,,,,,,Clear,72000.0,,,73000,,,,,,
KRDR,04-08-2005,01:00,METAR,,140,10,,,9999,Cloud Development Not Observable,15.0,7.0,29.93,1014.3,,,,0,0,0,,,,,,,,,Clear,72000.0,,,73000,,,,,,
KRDR,04-08-2005,00:00,METAR,,150,11,,,9999,Cloud Development Not Observable,18.0,4.0,29.95,1015.0,,,,0,0,0,,,,,,,,,Clear,72000.0,,,73000,,,,,,
KRDR,04-07-2005,23:00,METAR,,150,13,,,9999,Cloud Development Not Observable,20.0,3.0,29.96,1015.3,,,,0,0,0,,,,,,,,,Clear,72000.0,,,73000,,,,,,
KRDR,04-07-2005,22:00,METAR,,140,10,,,9999,Cloud Development Not Observable,20.0,2.0,29.98,1016.0,,,,0,0,0,,,,,,,,,Clear,72000.0,,,73000,,,,,,
KRDR,04-07-2005,21:00,METAR,,160,9,,,9999,Cloud Development Not Observable,21.0,2.0,30.01,1017.0,,,,0,0,0,,,,,,,,,2/8 Mostly Clear,72000.0,,FEW,25000,,,,,,
KRDR,04-07-2005,20:00,METAR,,170,11,16.0,,9999,Cloud Development Not Observable,20.0,2.0,30.03,1017.7,,,,0,0,0,,,,,,,,,2/8 Mostly Clear,72000.0,,FEW,25000,,,,,,
KRDR,04-07-2005,19:00,METAR,,160,9,14.0,,9999,Cloud Development Not Observable,20.0,1.0,30.06,1018.7,,,,0,0,0,,,,,,,,,4/8 Partly Cloudy,72000.0,,SCT,25000,,,,,,
KRDR,04-07-2005,18:00,METAR,,180,8,,,9999,Cloud Development Not Observable,18.0,1.0,30.08,1019.3,,,,0,0,0,,,,,,,,,2/8 Mostly Clear,72000.0,,FEW,25000,,,,,,
KRDR,04-07-2005,17:00,METAR,,190,9,,,9999,Cloud Development Not Observable,17.0,2.0,30.11,1020.4,,,,0,0,0,,,,,,,,,2/8 Mostly Clear,72000.0,,FEW,25000,,,,,,
KRDR,04-07-2005,16:00,METAR,,180,10,,,9999,Cloud Development Not Observable,16.0,1.0,30.12,1020.7,,,,0,0,0,,,,,,,,,4/8 Partly Cloudy,72000.0,,SCT,25000,,,,,,
KRDR,04-07-2005,15:00,METAR,,210,6,,,9999,Cloud Development Not Observable,14.0,2.0,30.13,1021.2,,,,0,0,0,,,,,,,,,4/8 Partly Cloudy,72000.0,,SCT,25000,,,,,,
KRDR,04-07-2005,14:00,METAR,,220,4,,,9999,Cloud Development Not Observable,9.0,3.0,30.14,1021.6,,,,0,0,0,,,,,,,,,4/8 Partly Cloudy,72000.0,,SCT,25000,,,,,,
KRDR,04-07-2005,13:00,METAR,,200,3,,,9999,Cloud Development Not Observable,3.0,0.0,30.15,1021.9,,,,0,0,0,,,,,,,,,4/8 Partly Cloudy,72000.0,,SCT,25000,,,,,,
KRDR,04-07-2005,12:00,METAR,,210,3,,,9999,Cloud Development Not Observable,3.0,1.0,30.15,1021.9,,,,0,0,0,,,,,,,,,2/8 Mostly Clear,72000.0,,FEW,25000,,,,,,
KRDR,04-07-2005,11:00,METAR,,240,4,,,9999,Cloud Development Not Observable,3.0,2.0,30.14,1021.6,,,,0,0,0,,,,,,,,,2/8 Mostly Clear,72000.0,,FEW,25000,,,,,,
KRDR,04-07-2005,10:00,METAR,,240,4,,,9999,Cloud Development Not Observable,3.0,2.0,30.14,1021.6,,,,0,0,0,,,,,,,,,2/8 Mostly Clear,72000.0,,FEW,25000,,,,,,
KRDR,04-07-2005,09:00,METAR,,220,7,,,9999,Cloud Development Not Observable,2.0,1.0,30.15,1022.0,,,,0,0,0,,,,,,,,,2/8 Mostly Clear,72000.0,,FEW,25000,,,,,,
KRDR,04-07-2005,08:00,METAR,,230,5,,,9999,Cloud Development Not Observable,2.0,2.0,30.16,1022.4,,,,0,0,0,,,,,,,,,2/8 Mostly Clear,72000.0,,FEW,25000,,,,,,
KRDR,04-07-2005,07:00,METAR,,220,5,,,9999,Cloud Development Not Observable,4.0,2.0,30.17,1022.7,,,,0,0,0,,,,,,,,,2/8 Mostly Clear,72000.0,,FEW,25000,,,,,,
KRDR,04-07-2005,06:00,METAR,,230,5,,,9999,Cloud Development Not Observable,2.0,2.0,30.18,1023.0,,,,0,0,0,,,,,,,,,4/8 Partly Cloudy,72000.0,,FEW,9900,SCT,20000.0,,,,
KRDR,04-07-2005,05:00,METAR,,240,6,,,9999,Cloud Development Not Observable,4.0,3.0,30.18,1022.9,,,,0,0,0,,,,,,,,,4/8 Partly Cloudy,72000.0,,FEW,9900,SCT,20000.0,,,,
KRDR,04-07-2005,04:00,METAR,,230,4,,,9999,Cloud Development Not Observable,6.0,4.0,30.18,1023.0,,,,0,0,0,,,,,,,,,2/8 Mostly Clear,72000.0,,FEW,9900,,,,,,
KRDR,04-07-2005,03:00,METAR,,230,4,,,9999,Cloud Development Not Observable,6.0,4.0,30.19,1023.4,,,,0,0,0,,,,,,,,,Clear,72000.0,,,73000,,,,,,
KRDR,04-07-2005,02:00,METAR,,150,1,,,9999,Cloud Development Not Observable,8.0,4.0,30.19,1023.4,,,,0,0,0,,,,,,,,,2/8 Mostly Clear,72000.0,,FEW,6900,,,,,,
KRDR,04-07-2005,01:00,METAR,,60,4,,,9999,Cloud Development Not Observable,13.0,3.0,30.18,1023.1,,,,0,0,0,,,,,,,,,4/8 Partly Cloudy,72000.0,,SCT,6900,,,,,,
KRDR,04-07-2005,00:00,METAR,,20,7,,,9999,Cloud Development Not Observable,15.0,2.0,30.18,1023.0,,,,0,0,0,,,,,,,,,2/8 Mostly Clear,72000.0,,FEW,3000,,,,,,
KRDR,04-06-2005,23:00,METAR,,20,9,,,9999,Cloud Development Not Observable,17.0,1.0,30.18,1022.9,,,,0,0,0,,,,,,,,,2/8 Mostly Clear,72000.0,,FEW,3000,FEW,25000.0,,,,
KRDR,04-06-2005,22:00,METAR,,20,11,,,9999,Cloud Development Not Observable,17.0,0.0,30.19,1023.2,,,,0,0,0,,,,,,,,,Clear,72000.0,,,73000,,,,,,
KRDR,04-06-2005,21:00,METAR,,10,11,,,9999,Cloud Development Not Observable,17.0,-2.0,30.19,1023.2,,,,0,0,0,,,,,,,,,Clear,72000.0,,,73000,,,,,,
KRDR,04-06-2005,20:00,METAR,,360,13,,,9999,Cloud Development Not Observable,16.0,-4.0,30.19,1023.4,,,,0,0,0,,,,,,,,,2/8 Mostly Clear,72000.0,,FEW,25000,,,,,,
KRDR,04-06-2005,19:00,METAR,,340,13,18.0,,9999,Cloud Development Not Observable,16.0,-3.0,30.21,1023.8,,,,0,0,0,,,,,,,,,2/8 Mostly Clear,72000.0,,FEW,25000,,,,,,
KRDR,04-06-2005,18:00,METAR,,340,14,19.0,,9999,Cloud Development Not Observable,15.0,-3.0,30.23,1024.5,,,,0,0,0,,,,,,,,,2/8 Mostly Clear,72000.0,,FEW,25000,,,,,,
KRDR,04-06-2005,17:00,METAR,,340,14,19.0,,9999,Cloud Development Not Observable,14.0,-3.0,30.23,1024.6,,,,0,0,0,,,,,,,,,4/8 Partly Cloudy,72000.0,,SCT,25000,,,,,,
KRDR,04-06-2005,16:00,METAR,,330,11,,,9999,Cloud Development Not Observable,11.0,-1.0,30.23,1024.7,,,,0,0,0,,,,,,,,,2/8 Mostly Clear,72000.0,,FEW,25000,,,,,,
KRDR,04-06-2005,15:00,METAR,,320,11,,,9999,Cloud Development Not Observable,8.0,-1.0,30.21,1024.0,,,,0,0,0,,,,,,,,,2/8 Mostly Clear,72000.0,,FEW,25000,,,,,,
KRDR,04-06-2005,14:00,METAR,,320,11,,,9999,Cloud Development Not Observable,6.0,-1.0,30.21,1024.0,,,,0,0,0,,,,,,,,,Clear,72000.0,,,73000,,,,,,
KRDR,04-06-2005,13:00,METAR,,310,6,,,9999,Cloud Development Not Observable,2.0,-1.0,30.20,1023.8,,,,0,0,0,,,,,,,,,2/8 Mostly Clear,72000.0,,FEW,8900,FEW,25000.0,,,,
KRDR,04-06-2005,12:00,METAR,,300,6,,,9999,Cloud Development Not Observable,1.0,-1.0,30.17,1022.7,,,,0,0,0,,,,,,,,,2/8 Mostly Clear,72000.0,,FEW,8900,FEW,25000.0,,,,
KRDR,04-06-2005,11:00,METAR,,340,7,,,9999,Cloud Development Not Observable,2.0,1.0,30.15,1022.1,,,,0,0,0,,,,,,,,,Clear,72000.0,,,73000,,,,,,
KRDR,04-06-2005,10:00,METAR,,330,6,,,9999,Cloud Development Not Observable,3.0,1.0,30.13,1021.3,,,,0,0,0,,,,,,,,,2/8 Mostly Clear,72000.0,,FEW,6900,FEW,8900.0,,,,
KRDR,04-06-2005,09:00,METAR,,340,6,,,9999,Cloud Development Not Observable,4.0,2.0,30.10,1020.3,,,,0,0,0,,,,,,,,,4/8 Partly Cloudy,72000.0,,FEW,6900,SCT,8900.0,,,,
KRDR,04-06-2005,08:00,METAR,,330,6,,,9999,Cloud Development Not Observable,4.0,3.0,30.09,1019.9,,,,0,0,0,,,,,,,,,4/8 Partly Cloudy,72000.0,,SCT,6900,SCT,8900.0,,,,
KRDR,04-06-2005,07:00,METAR,,350,6,,,9999,Cloud Development Not Observable,6.0,4.0,30.09,1019.9,,,,0,0,0,,,,,,,,,8/8 Overcast,7000.0,,BKN,6900,OVC,8900.0,,,,
KRDR,04-06-2005,06:00,METAR,,350,10,,,9999,Cloud Development Not Observable,7.0,5.0,30.07,1019.3,,,,0,0,0,,,,,,,,,8/8 Overcast,9000.0,,OVC,8900,,,,,,
KRDR,04-06-2005,05:00,METAR,,340,9,,,9999,Cloud Development Not Observable,7.0,5.0,30.06,1019.0,,,,0,0,0,,,,,,,,,8/8 Overcast,7500.0,,OVC,7400,,,,,,
KRDR,04-06-2005,04:00,METAR,,350,7,,,9999,Cloud Development Not Observable,8.0,2.0,30.05,1018.6,,,,0,0,0,,,,,,,,,7/8 Mostly Cloudy,11000.0,,FEW,6900,BKN,11000.0,,,,
KRDR,04-06-2005,03:00,METAR,,10,8,,,9999,Cloud Development Not Observable,10.0,2.0,30.03,1017.9,,,,0,0,0,,,,,,,,,7/8 Mostly Cloudy,11000.0,,SCT,6900,BKN,11000.0,BKN,20000.0,,
KRDR,04-06-2005,02:00,METAR,,20,8,,,9999,Cloud Development Not Observable,11.0,1.0,30.02,1017.6,,,,0,0,0,,,,,,,,,7/8 Mostly Cloudy,11000.0,,SCT,6900,BKN,11000.0,BKN,20000.0,,
KRDR,04-06-2005,01:00,METAR,,40,8,,,9999,Cloud Development Not Observable,12.0,1.0,29.99,1016.6,,,,0,0,0,,,,,,,,,7/8 Mostly Cloudy,9000.0,,FEW,6400,SCT,8900.0,BKN,20000.0,,
KRDR,04-06-2005,00:00,METAR,,20,10,,,9999,Cloud Development Not Observable,13.0,3.0,29.97,1015.9,,,,0,0,0,,,,,,,,,7/8 Mostly Cloudy,6000.0,,FEW,4500,SCT,6400.0,BKN,8900.0,BKN,20000.0
KRDR,04-05-2005,23:00,METAR,,30,13,,,9999,Cloud Development Not Observable,14.0,2.0,29.94,1014.9,,,,0,0,0,,,,,,,,,7/8 Mostly Cloudy,6000.0,,FEW,4500,SCT,6400.0,BKN,8900.0,BKN,20000.0
KRDR,04-05-2005,22:00,METAR,,40,14,,,9999,Cloud Development Not Observable,16.0,3.0,29.92,1014.2,,,,0,0,0,,,,,,,,,7/8 Mostly Cloudy,6000.0,,FEW,4500,SCT,6400.0,BKN,9900.0,BKN,20000.0
KRDR,04-05-2005,21:00,METAR,,20,16,,,9999,Cloud Development Not Observable,15.0,3.0,29.91,1013.6,,,,0,0,0,,,,,,,,,7/8 Mostly Cloudy,6000.0,,FEW,4000,SCT,6400.0,BKN,9900.0,BKN,20000.0
KRDR,04-05-2005,20:00,METAR,,10,15,,,9999,Cloud Development Not Observable,14.0,4.0,29.90,1013.3,,,,0,0,0,,,,,,,,,7/8 Mostly Cloudy,20000.0,,SCT,12000,BKN,20000.0,,,,
KRDR,04-05-2005,19:00,METAR,,350,17,23.0,,9999,Cloud Development Not Observable,13.0,4.0,29.89,1013.1,,,,0,0,0,,,,,,,,,7/8 Mostly Cloudy,20000.0,,FEW,9900,BKN,20000.0,,,,
KRDR,04-05-2005,18:00,METAR,,350,19,23.0,,9999,Cloud Development Not Observable,10.0,3.0,29.89,1013.3,,,,0,0,0,,,,,,,,,7/8 Mostly Cloudy,20000.0,,FEW,9900,BKN,20000.0,,,,
KRDR,04-05-2005,17:00,METAR,,10,16,22.0,,9999,Cloud Development Not Observable,10.0,2.0,29.88,1012.9,,,,0,0,0,,,,,,,,,7/8 Mostly Cloudy,20000.0,,FEW,9900,BKN,20000.0,,,,
KRDR,04-05-2005,16:00,METAR,,350,16,23.0,,9999,Cloud Development Not Observable,8.0,1.0,29.85,1011.8,,,,0,0,0,,,,,,,,,7/8 Mostly Cloudy,20000.0,,FEW,9900,BKN,20000.0,,,,
KRDR,04-05-2005,15:00,METAR,,340,16,,,9999,Cloud Development Not Observable,7.0,1.0,29.84,1011.4,,,,0,0,0,,,,,,,,,7/8 Mostly Cloudy,20000.0,,FEW,9900,BKN,20000.0,,,,
KRDR,04-05-2005,14:00,METAR,,350,16,,,9999,Cloud Development Not Observable,6.0,0.0,29.82,1010.7,,,,0,0,0,,,,,,,,,7/8 Mostly Cloudy,20000.0,,FEW,20000,BKN,20000.0,,,,
KRDR,04-05-2005,13:00,METAR,,350,11,,,9999,Cloud Development Not Observable,3.0,0.0,29.79,1009.7,,,,0,0,0,,,,,,,,,7/8 Mostly Cloudy,20000.0,,FEW,9900,BKN,20000.0,,,,
KRDR,04-05-2005,12:00,METAR,,340,13,,,9999,Cloud Development Not Observable,2.0,0.0,29.75,1008.2,,,,0,0,0,,,,,,,,,4/8 Partly Cloudy,72000.0,,FEW,9900,SCT,20000.0,,,,
KRDR,04-05-2005,11:00,METAR,,360,15,,,9999,Cloud Development Not Observable,3.0,-1.0,29.71,1006.8,,,,0,0,0,,,,,,,,,7/8 Mostly Cloudy,20000.0,,BKN,20000,,,,,,
KRDR,04-05-2005,10:00,METAR,,360,13,,,9999,Cloud Development Not Observable,3.0,0.0,29.68,1005.8,,,,0,0,0,,,,,,,,,4/8 Partly Cloudy,72000.0,,SCT,20000,,,,,,
KRDR,04-05-2005,09:00,METAR,,360,13,,,9999,Cloud Development Not Observable,3.0,1.0,29.66,1005.1,,,,0,0,0,,,,,,,,,4/8 Partly Cloudy,72000.0,,SCT,20000,,,,,,
KRDR,04-05-2005,08:00,METAR,,360,9,,,9999,Cloud Development Not Observable,4.0,1.0,29.65,1004.7,,,,0,0,0,,,,,,,,,4/8 Partly Cloudy,72000.0,,SCT,20000,,,,,,
KRDR,04-05-2005,07:00,METAR,,360,10,,,9999,Cloud Development Not Observable,5.0,1.0,29.63,1004.0,,,,0,0,0,,,,,,,,,7/8 Mostly Cloudy,20000.0,,BKN,20000,,,,,,
KRDR,04-05-2005,06:00,METAR,,350,10,,,9999,Cloud Development Not Observable,5.0,1.0,29.61,1003.4,,,,0,0,0,,,,,,,,,7/8 Mostly Cloudy,20000.0,,BKN,20000,,,,,,
KRDR,04-05-2005,05:00,METAR,,340,8,,,9999,Cloud Development Not Observable,5.0,2.0,29.61,1003.4,,,,0,0,0,,,,,,,,,4/8 Partly Cloudy,72000.0,,SCT,20000,,,,,,
KRDR,04-05-2005,04:00,METAR,,30,8,,,9999,Cloud Development Not Observable,8.0,2.0,29.59,1002.7,,,,0,0,0,,,,,,,,,7/8 Mostly Cloudy,20000.0,,BKN,20000,,,,,,
KRDR,04-05-2005,03:00,METAR,,30,9,,,9999,Cloud Development Not Observable,9.0,3.0,29.57,1002.3,,,,0,0,0,,,,,,,,,7/8 Mostly Cloudy,20000.0,,FEW,12000,BKN,20000.0,,,,
KRDR,04-05-2005,02:00,METAR,,30,11,,,9999,Cloud Development Not Observable,10.0,6.0,29.56,1001.7,,,,0,0,0,,,,,,,,,7/8 Mostly Cloudy,20000.0,,BKN,20000,,,,,,
KRDR,04-05-2005,01:00,METAR,,20,12,,,9999,Cloud Development Not Observable,11.0,6.0,29.55,1001.4,,,,0,0,0,,,,,,,,,7/8 Mostly Cloudy,20000.0,,BKN,20000,,,,,,
KRDR,04-05-2005,00:00,METAR,,20,12,,,9999,Cloud Development Not Observable,16.0,7.0,29.55,1001.2,,,,0,0,0,,,,,,,,,8/8 Overcast,20000.0,,OVC,20000,,,,,,
KRDR,04-04-2005,23:46,SPECI,,10,15,,,9999,Cloud Development Not Observable,18.0,6.0,29.55,,,,,0,0,0,,,,,,,,,8/8 Overcast,20000.0,,OVC,20000,,,,,,
KRDR,04-04-2005,23:00,METAR,,90,5,,,9999,Cloud Development Not Observable,19.0,6.0,29.54,1001.0,,,,0,0,0,,,,,,,,,7/8 Mostly Cloudy,20000.0,,BKN,20000,,,,,,
KRDR,04-04-2005,22:00,METAR,,100,8,,,9999,Cloud Development Not Observable,19.0,6.0,29.54,1000.8,,,,0,0,0,,,,,,,,,7/8 Mostly Cloudy,20000.0,,BKN,20000,,,,,,
KRDR,04-04-2005,21:00,METAR,,130,14,,,9999,Cloud Development Not Observable,19.0,6.0,29.53,1000.5,,,,0,0,0,,,,,,,,,7/8 Mostly Cloudy,20000.0,,FEW,9900,BKN,20000.0,,,,
KRDR,04-04-2005,20:00,METAR,,130,13,21.0,,9999,Cloud Development Not Observable,18.0,5.0,29.54,1000.9,,,,0,0,0,,,,,,,,,7/8 Mostly Cloudy,20000.0,,FEW,9900,BKN,20000.0,,,,
KRDR,04-04-2005,19:00,METAR,,130,11,,,9999,Cloud Development Not Observable,17.0,5.0,29.56,1001.8,,,,0,0,0,,,,,,,,,7/8 Mostly Cloudy,20000.0,,FEW,9900,BKN,20000.0,,,,
KRDR,04-04-2005,18:00,METAR,,130,10,,,9999,Cloud Development Not Observable,16.0,4.0,29.58,1002.5,,,,0,0,0,,,,,,,,,7/8 Mostly Cloudy,20000.0,,FEW,9900,BKN,20000.0,,,,
KRDR,04-04-2005,17:00,METAR,,90,10,,,9999,Cloud Development Not Observable,15.0,4.0,29.60,1003.2,,,,0,0,0,,,,,,,,,7/8 Mostly Cloudy,10000.0,,FEW,5900,SCT,9900.0,BKN,20000.0,,
KRDR,04-04-2005,16:00,METAR,,90,8,,,9999,Cloud Development Not Observable,12.0,3.0,29.62,1004.0,,,,0,0,0,,,,,,,,,8/8 Overcast,10000.0,,FEW,5900,SCT,9900.0,OVC,20000.0,,
KRDR,04-04-2005,15:00,METAR,,90,10,,,9999,Cloud Development Not Observable,9.0,3.0,29.62,1004.1,,,,0,0,0,,,,,,,,,8/8 Overcast,10000.0,,FEW,5900,BKN,9900.0,OVC,20000.0,,
KRDR,04-04-2005,14:00,METAR,,110,5,,,9999,Cloud Development Not Observable,9.0,2.0,29.65,1005.1,,,,0,0,0,,,,,,,,,8/8 Overcast,20000.0,,SCT,9900,OVC,20000.0,,,,
KRDR,04-04-2005,13:00,METAR,,130,8,,,9999,Cloud Development Not Observable,8.0,2.0,29.63,1004.4,,,,0,0,0,,,,,,,,,8/8 Overcast,10000.0,,BKN,9900,OVC,20000.0,,,,
KRDR,04-04-2005,12:00,METAR,,130,9,,,9999,Cloud Development Not Observable,7.0,2.0,29.63,1004.2,,,,0,0,0,,,,,,,,,8/8 Overcast,12000.0,,SCT,6900,BKN,12000.0,OVC,20000.0,,
KRDR,04-04-2005,11:00,METAR,,120,6,,,9999,Cloud Development Not Observable,5.0,1.0,29.65,1004.8,,,,0,0,0,,,,,,,,,7/8 Mostly Cloudy,20000.0,,BKN,20000,,,,,,
KRDR,04-04-2005,10:00,METAR,,130,4,,,9999,Cloud Development Not Observable,5.0,0.0,29.65,1004.8,,,,0,0,0,,,,,,,,,7/8 Mostly Cloudy,20000.0,,BKN,20000,,,,,,
KRDR,04-04-2005,09:00,METAR,,,0,,,9999,Cloud Development Not Observable,5.0,0.0,29.69,1006.2,,,,0,0,0,,,,,,,,,7/8 Mostly Cloudy,20000.0,,BKN,20000,,,,,,
KRDR,04-04-2005,08:00,METAR,,,0,,,9999,Cloud Development Not Observable,5.0,-1.0,29.71,1006.8,,,,0,0,0,,,,,,,,,7/8 Mostly Cloudy,20000.0,,BKN,20000,,,,,,
KRDR,04-04-2005,07:00,METAR,,110,2,,,9999,Cloud Development Not Observable,5.0,-1.0,29.74,1007.9,,,,0,0,0,,,,,,,,,7/8 Mostly Cloudy,20000.0,,BKN,20000,,,,,,
KRDR,04-04-2005,06:00,METAR,,,0,,,9999,Cloud Development Not Observable,5.0,-1.0,29.75,1008.3,,,,0,0,0,,,,,,,,,7/8 Mostly Cloudy,20000.0,,BKN,20000,,,,,,
KRDR,04-04-2005,05:00,METAR,,90,3,,,9999,Cloud Development Not Observable,6.0,0.0,29.77,1009.0,,,,0,0,0,,,,,,,,,7/8 Mostly Cloudy,20000.0,,BKN,20000,,,,,,
KRDR,04-04-2005,04:00,METAR,,90,5,,,9999,Cloud Development Not Observable,7.0,1.0,29.79,1009.7,,,,0,0,0,,,,,,,,,7/8 Mostly Cloudy,20000.0,,BKN,20000,,,,,,
KRDR,04-04-2005,03:00,METAR,,90,6,,,9999,Cloud Development Not Observable,8.0,3.0,29.81,1010.4,,,,0,0,0,,,,,,,,,4/8 Partly Cloudy,72000.0,,FEW,9900,SCT,20000.0,,,,
KRDR,04-04-2005,02:00,METAR,,70,4,,,9999,Cloud Development Not Observable,10.0,4.0,29.83,1011.2,,,,0,0,0,,,,,,,,,4/8 Partly Cloudy,72000.0,,FEW,9900,SCT,20000.0,,,,
KRDR,04-04-2005,01:00,METAR,,100,3,,,9999,Cloud Development Not Observable,11.0,3.0,29.83,1011.3,,,,0,0,0,,,,,,,,,4/8 Partly Cloudy,72000.0,,SCT,9900,SCT,20000.0,,,,
KRDR,04-04-2005,00:00,METAR,,120,6,,,9999,Cloud Development Not Observable,15.0,1.0,29.83,1011.3,,,,0,0,0,,,,,,,,,4/8 Partly Cloudy,72000.0,,SCT,9900,SCT,20000.0,,,,
KRDR,04-03-2005,23:00,METAR,,120,9,,,9999,Cloud Development Not Observable,16.0,-1.0,29.84,1011.6,,,,0,0,0,,,,,,,,,4/8 Partly Cloudy,72000.0,,SCT,9900,,,,,,
KRDR,04-03-2005,22:00,METAR,,130,11,,,9999,Cloud Development Not Observable,16.0,-2.0,29.87,1012.6,,,,0,0,0,,,,,,,,,4/8 Partly Cloudy,72000.0,,SCT,9900,,,,,,
KRDR,04-03-2005,21:00,METAR,,140,11,,,9999,Cloud Development Not Observable,15.0,2.0,29.89,1013.3,,,,0,0,0,,,,,,,,,2/8 Mostly Clear,72000.0,,FEW,9900,,,,,,
KRDR,04-03-2005,20:00,METAR,,140,8,,,9999,Cloud Development Not Observable,13.0,3.0,29.92,1014.4,,,,0,0,0,,,,,,,,,2/8 Mostly Clear,72000.0,,FEW,9900,,,,,,
KRDR,04-03-2005,19:00,METAR,,170,11,,,9999,Cloud Development Not Observable,12.0,4.0,29.95,1015.4,,,,0,0,0,,,,,,,,,4/8 Partly Cloudy,72000.0,,SCT,9900,,,,,,
KRDR,04-03-2005,18:00,METAR,,140,9,,,9999,Cloud Development Not Observable,11.0,4.0,29.98,1016.3,,,,0,0,0,,,,,,,,,7/8 Mostly Cloudy,10000.0,,BKN,9900,,,,,,
KRDR,04-03-2005,17:00,METAR,,150,8,,,9999,Cloud Development Not Observable,9.0,2.0,30.01,1017.3,,,,0,0,0,,,,,,,,,4/8 Partly Cloudy,72000.0,,SCT,9900,,,,,,
KRDR,04-03-2005,16:00,METAR,,150,7,,,9999,Cloud Development Not Observable,9.0,1.0,30.01,1017.3,,,,0,0,0,,,,,,,,,4/8 Partly Cloudy,72000.0,,SCT,9900,,,,,,
KRDR,04-03-2005,15:00,METAR,,120,6,,,9999,Cloud Development Not Observable,6.0,0.0,30.01,1017.3,,,,0,0,0,,,,,,,,,2/8 Mostly Clear,72000.0,,FEW,9900,,,,,,
KRDR,04-03-2005,14:00,METAR,,220,1,,,9999,Cloud Development Not Observable,3.0,2.0,30.02,1017.8,,,,0,0,0,,,,,,,,,2/8 Mostly Clear,72000.0,,FEW,9900,,,,,,
KRDR,04-03-2005,13:00,METAR,,,0,,,9999,Cloud Development Not Observable,-1.0,-1.0,30.02,1017.8,,,,0,0,0,,,,,,,,,2/8 Mostly Clear,72000.0,,FEW,9900,,,,,,
KRDR,04-03-2005,12:00,METAR,,230,2,,,9999,Cloud Development Not Observable,-5.0,-5.0,30.02,1017.8,,,,0,0,0,,,,,,,,,2/8 Mostly Clear,72000.0,,FEW,9900,,,,,,
KRDR,04-03-2005,11:00,METAR,,,2,,,9999,Cloud Development Not Observable,-3.0,-3.0,30.01,1017.3,,,,0,0,0,,,,,,,,,Clear,72000.0,,,73000,,,,,,
KRDR,04-03-2005,10:00,METAR,,210,3,,,9999,Cloud Development Not Observable,-3.0,-3.0,30.00,1016.0,,,,0,0,0,,,,,,,,,Clear,72000.0,,,73000,,,,,,
KRDR,04-03-2005,09:00,METAR,,250,2,,,9999,Cloud Development Not Observable,-2.0,-2.0,29.99,1016.6,,,,0,0,0,,,,,,,,,Clear,72000.0,,,73000,,,,,,
KRDR,04-03-2005,08:00,METAR,,,3,,,9999,Cloud Development Not Observable,-3.0,-3.0,30.01,1017.4,,,,0,0,0,,,,,,,,,Clear,72000.0,,,73000,,,,,,
KRDR,04-03-2005,07:00,METAR,,,0,,,9999,Cloud Development Not Observable,0.0,-2.0,29.99,1016.6,,,,0,0,0,,,,,,,,,Clear,72000.0,,,73000,,,,,,
KRDR,04-03-2005,06:00,METAR,,,0,,,9999,Cloud Development Not Observable,1.0,-1.0,29.98,1016.3,,,,0,0,0,,,,,,,,,Clear,72000.0,,,73000,,,,,,
KRDR,04-03-2005,05:00,METAR,,310,6,,,9999,Cloud Development Not Observable,3.0,0.0,29.97,1015.9,,,,0,0,0,,,,,,,,,Clear,72000.0,,,73000,,,,,,
KRDR,04-03-2005,04:00,METAR,,320,4,,,9999,Cloud Development Not Observable,3.0,1.0,29.96,1015.7,,,,0,0,0,,,,,,,,,Clear,72000.0,,,73000,,,,,,
KRDR,04-03-2005,03:00,METAR,,340,9,,,9999,Cloud Development Not Observable,6.0,3.0,29.95,1015.3,,,,0,0,0,,,,,,,,,Clear,72000.0,,,73000,,,,,,
KRDR,04-03-2005,02:00,METAR,,340,7,,,9999,Cloud Development Not Observable,6.0,3.0,29.93,1014.6,,,,0,0,0,,,,,,,,,Clear,72000.0,,,73000,,,,,,
KRDR,04-03-2005,01:00,METAR,,360,7,,,9999,Cloud Development Not Observable,9.0,4.0,29.90,1013.7,,,,0,0,0,,,,,,,,,2/8 Mostly Clear,72000.0,,FEW,20000,,,,,,
KRDR,04-03-2005,00:00,METAR,,360,11,,,9999,Cloud Development Not Observable,15.0,4.0,29.87,1012.4,,,,0,0,0,,,,,,,,,2/8 Mostly Clear,72000.0,,FEW,6900,,,,,,
KRDR,04-02-2005,23:00,METAR,,180,12,,,9999,Cloud Development Not Observable,16.0,1.0,29.84,1011.4,,,,0,0,0,,,,,,,,,2/8 Mostly Clear,72000.0,,FEW,6900,,,,,,
KRDR,04-02-2005,22:00,METAR,,170,15,,,9999,Cloud Development Not Observable,16.0,0.0,29.83,1010.9,,,,0,0,0,,,,,,,,,2/8 Mostly Clear,72000.0,,FEW,6900,,,,,,
KRDR,04-02-2005,21:00,METAR,,180,16,,,9999,Cloud Development Not Observable,16.0,-1.0,29.85,1011.6,,,,0,0,0,,,,,,,,,2/8 Mostly Clear,72000.0,,FEW,6900,,,,,,
KRDR,04-02-2005,20:00,METAR,,180,17,,,9999,Cloud Development Not Observable,14.0,-2.0,29.86,1012.1,,,,0,0,0,,,,,,,,,7/8 Mostly Cloudy,7000.0,,BKN,6900,BKN,9900.0,,,,
KRDR,04-02-2005,19:00,METAR,,190,19,24.0,190/26KTS,9999,Cloud Development Not Observable,14.0,-3.0,29.88,1012.8,,,,0,0,0,,,,,,,,,4/8 Partly Cloudy,72000.0,,SCT,9900,,,,,,
KRDR,04-02-2005,18:00,METAR,,180,18,23.0,,9999,Cloud Development Not Observable,12.0,-1.0,29.89,1013.3,,,,0,0,0,,,,,,,,,7/8 Mostly Cloudy,10000.0,,BKN,9900,,,,,,
KRDR,04-02-2005,17:00,METAR,,180,19,,,9999,Cloud Development Not Observable,9.0,-2.0,29.91,1014.0,,,,0,0,0,,,,,,,,,4/8 Partly Cloudy,72000.0,,SCT,6900,SCT,9900.0,,,,
KRDR,04-02-2005,16:00,METAR,,210,20,25.0,,9999,Cloud Development Not Observable,8.0,-3.0,29.92,1014.4,,,,0,0,0,,,,,,,,,4/8 Partly Cloudy,72000.0,,FEW,6900,SCT,9900.0,,,,
KRDR,04-02-2005,15:00,METAR,,170,13,,,9999,Cloud Development Not Observable,5.0,-2.0,29.94,1015.0,,,,0,0,0,,,,,,,,,4/8 Partly Cloudy,72000.0,,SCT,9900,,,,,,
KRDR,04-02-2005,14:00,METAR,,170,14,,,9999,Cloud Development Not Observable,4.0,-2.0,29.94,1015.0,,,,0,0,0,,,,,,,,,4/8 Partly Cloudy,72000.0,,SCT,9900,,,,,,
KRDR,04-02-2005,13:00,METAR,,160,12,,,9999,Cloud Development Not Observable,3.0,-2.0,29.94,1015.1,,,,0,0,0,,,,,,,,,7/8 Mostly Cloudy,10000.0,,BKN,9900,,,,,,
KRDR,04-02-2005,12:00,METAR,,180,10,,,9999,Cloud Development Not Observable,3.0,-2.0,29.95,1015.2,,,,0,0,0,,,,,,,,,7/8 Mostly Cloudy,10000.0,,BKN,9900,,,,,,
KRDR,04-02-2005,11:00,METAR,,170,13,,,9999,Cloud Development Not Observable,3.0,-2.0,29.96,1016.6,,,,0,0,0,,,,,,,,,8/8 Overcast,10000.0,,OVC,9900,,,,,,
KRDR,04-02-2005,10:00,METAR,,180,11,,,9999,Cloud Development Not Observable,4.0,-2.0,29.99,1016.6,,,,0,0,0,,,,,,,,,8/8 Overcast,9000.0,,FEW,6900,OVC,8900.0,,,,
KRDR,04-02-2005,09:00,METAR,,180,13,,,9999,Cloud Development Not Observable,4.0,-2.0,30.00,1016.9,,,,0,0,0,,,,,,,,,8/8 Overcast,9000.0,,OVC,8900,,,,,,
KRDR,04-02-2005,08:00,METAR,,170,10,,,9999,Cloud Development Not Observable,3.0,-2.0,30.03,1018.0,,,,0,0,0,,,,,,,,,8/8 Overcast,12000.0,,OVC,12000,,,,,,
KRDR,04-02-2005,07:00,METAR,,170,9,,,9999,Cloud Development Not Observable,3.0,-2.0,30.04,1018.4,,,,0,0,0,,,,,,,,,7/8 Mostly Cloudy,12000.0,,BKN,12000,,,,,,
KRDR,04-02-2005,06:00,METAR,,160,8,,,9999,Cloud Development Not Observable,2.0,-2.0,30.05,1018.8,,,,0,0,0,,,,,,,,,2/8 Mostly Clear,72000.0,,FEW,11000,,,,,,
KRDR,04-02-2005,05:00,METAR,,170,7,,,9999,Cloud Development Not Observable,3.0,-2.0,30.06,1019.2,,,,0,0,0,,,,,,,,,2/8 Mostly Clear,72000.0,,FEW,25000,,,,,,
KRDR,04-02-2005,04:00,METAR,,130,6,,,9999,Cloud Development Not Observable,3.0,-1.0,30.08,1019.8,,,,0,0,0,,,,,,,,,2/8 Mostly Clear,72000.0,,FEW,25000,,,,,,
KRDR,04-02-2005,03:00,METAR,,130,6,,,9999,Cloud Development Not Observable,4.0,-2.0,30.10,1020.5,,,,0,0,0,,,,,,,,,2/8 Mostly Clear,72000.0,,FEW,25000,,,,,,
KRDR,04-02-2005,02:00,METAR,,120,5,,,9999,Cloud Development Not Observable,5.0,-2.0,30.10,1020.5,,,,0,0,0,,,,,,,,,4/8 Partly Cloudy,72000.0,,SCT,25000,,,,,,
KRDR,04-02-2005,01:00,METAR,,,4,,,9999,Cloud Development Not Observable,7.0,-5.0,30.11,1020.9,,,,0,0,0,,,,,,,,,4/8 Partly Cloudy,72000.0,,SCT,25000,,,,,,
KRDR,04-02-2005,00:00,METAR,,,2,,,9999,Cloud Development Not Observable,10.0,-5.0,30.12,1021.2,,,,0,0,0,,,,,,,,,4/8 Partly Cloudy,72000.0,,SCT,25000,,,,,,
KRDR,04-01-2005,23:00,METAR,,,2,,,9999,Cloud Development Not Observable,11.0,-6.0,30.13,1021.4,,,,0,0,0,,,,,,,,,2/8 Mostly Clear,72000.0,,FEW,5000,FEW,25000.0,,,,
KRDR,04-01-2005,22:00,METAR,,10,3,,,9999,Cloud Development Not Observable,11.0,-5.0,30.13,1021.4,,,,0,0,0,,,,,,,,,2/8 Mostly Clear,72000.0,,FEW,5000,FEW,25000.0,,,,
KRDR,04-01-2005,21:00,METAR,,300,4,,,9999,Cloud Development Not Observable,11.0,-6.0,30.15,1022.1,,,,0,0,0,,,,,,,,,4/8 Partly Cloudy,72000.0,,FEW,4000,SCT,25000.0,,,,
KRDR,04-01-2005,20:00,METAR,,330,4,,,9999,Cloud Development Not Observable,11.0,-3.0,30.17,1023.0,,,,0,0,0,,,,,,,,,4/8 Partly Cloudy,72000.0,,FEW,4000,SCT,25000.0,,,,
KRDR,04-01-2005,19:00,METAR,,310,6,,,9999,Cloud Development Not Observable,10.0,-4.0,30.19,1023.7,,,,0,0,0,,,,,,,,,4/8 Partly Cloudy,72000.0,,FEW,4000,SCT,25000.0,,,,
KRDR,04-01-2005,18:00,METAR,,350,5,,,9999,Cloud Development Not Observable,9.0,-2.0,30.21,1024.2,,,,0,0,0,,,,,,,,,2/8 Mostly Clear,72000.0,,FEW,4000,FEW,25000.0,,,,
KRDR,04-01-2005,17:00,METAR,,330,5,,,9999,Cloud Development Not Observable,7.0,-3.0,30.22,1024.7,,,,0,0,0,,,,,,,,,2/8 Mostly Clear,72000.0,,FEW,25000,,,,,,
KRDR,04-01-2005,16:00,METAR,,320,5,,,9999,Cloud Development Not Observable,6.0,-3.0,30.22,1024.7,,,,0,0,0,,,,,,,,,Clear,72000.0,,,73000,,,,,,
KRDR,04-01-2005,15:00,METAR,,310,7,,,9999,Cloud Development Not Observable,4.0,-2.0,30.22,1024.7,,,,0,0,0,,,,,,,,,Clear,72000.0,,,73000,,,,,,
KRDR,04-01-2005,14:00,METAR,,300,8,,,9999,Cloud Development Not Observable,2.0,-2.0,30.21,1024.5,,,,0,0,0,,,,,,,,,2/8 Mostly Clear,72000.0,,FEW,4500,,,,,,
KRDR,04-01-2005,13:00,METAR,,290,3,,,9999,Cloud Development Not Observable,-1.0,-2.0,30.20,1024.1,,,,0,0,0,,,,,,,,,2/8 Mostly Clear,72000.0,,FEW,4000,,,,,,
KRDR,04-01-2005,12:00,METAR,,290,5,,,9999,Cloud Development Not Observable,-1.0,-3.0,30.19,1024.5,,,,0,0,0,,,,,,,,,2/8 Mostly Clear,72000.0,,FEW,4000,,,,,,
KRDR,04-01-2005,11:00,METAR,,300,8,,,9999,Cloud Development Not Observable,0.0,-2.0,30.17,1023.0,,,,0,0,0,,,,,,,,,Clear,72000.0,,,73000,,,,,,
KRDR,04-01-2005,10:00,METAR,,300,8,,,9999,Cloud Development Not Observable,0.0,-2.0,30.15,1022.3,,,,0,0,0,,,,,,,,,Clear,72000.0,,,73000,,,,,,
KRDR,04-01-2005,09:00,METAR,,300,9,,,9999,Cloud Development Not Observable,0.0,-2.0,30.14,1022.0,,,,0,0,0,,,,,,,,,Clear,72000.0,,,73000,,,,,,
KRDR,04-01-2005,08:00,METAR,,310,11,,,9999,Cloud Development Not Observable,1.0,-1.0,30.14,1021.9,,,,0,0,0,,,,,,,,,Clear,72000.0,,,73000,,,,,,
KRDR,04-01-2005,07:00,METAR,,300,10,,,9999,Cloud Development Not Observable,1.0,-1.0,30.13,1021.6,,,,0,0,0,,,,,,,,,2/8 Mostly Clear,72000.0,,FEW,8900,,,,,,
KRDR,04-01-2005,06:00,METAR,,300,10,,,9999,Cloud Development Not Observable,2.0,-1.0,30.13,1021.6,,,,0,0,0,,,,,,,,,2/8 Mostly Clear,72000.0,,FEW,8900,,,,,,
KRDR,04-01-2005,05:00,METAR,,310,11,,,9999,Cloud Development Not Observable,2.0,-1.0,30.12,1021.3,,,,0,0,0,,,,,,,,,2/8 Mostly Clear,72000.0,,FEW,8900,,,,,,
KRDR,04-01-2005,04:00,METAR,,280,12,18.0,,9999,Cloud Development Not Observable,3.0,-1.0,30.12,1021.3,,,,0,0,0,,,,,,,,,2/8 Mostly Clear,72000.0,,FEW,8900,,,,,,
KRDR,04-01-2005,03:00,METAR,,280,13,18.0,,9999,Cloud Development Not Observable,3.0,-1.0,30.12,1021.3,,,,0,0,0,,,,,,,,,2/8 Mostly Clear,72000.0,,FEW,8900,FEW,20000.0,,,,
KRDR,04-01-2005,02:00,METAR,,300,8,,,9999,Cloud Development Not Observable,3.0,0.0,30.11,1021.1,,,,0,0,0,,,,,,,,,2/8 Mostly Clear,72000.0,,FEW,20000,,,,,,
KRDR,04-01-2005,01:00,METAR,,280,10,,,9999,Cloud Development Not Observable,6.0,0.0,30.09,1020.4,,,,0,0,0,,,,,,,,,2/8 Mostly Clear,72000.0,,FEW,5900,FEW,20000.0,,,,
KRDR,04-01-2005,00:00,METAR,,300,12,20.0,,9999,Cloud Development Not Observable,8.0,0.0,30.07,1019.6,,,,0,0,0,,,,,,,,,4/8 Partly Cloudy,72000.0,,SCT,5900,SCT,20000.0,,,,
KRDR,03-31-2005,23:00,METAR,,300,13,17.0,,9999,Cloud Development Not Observable,10.0,-1.0,30.06,1019.3,,,,0,0,0,,,,,,,,,4/8 Partly Cloudy,72000.0,,SCT,5900,SCT,20000.0,,,,
KRDR,03-31-2005,22:00,METAR,,290,15,19.0,,9999,Cloud Development Not Observable,10.0,-1.0,30.05,1019.0,,,,0,0,0,,,,,,,,,7/8 Mostly Cloudy,12000.0,,SCT,5900,SCT,12000.0,BKN,25000.0,,
KRDR,03-31-2005,21:00,METAR,,310,17,23.0,,9999,Cloud Development Not Observable,11.0,0.0,30.04,1018.6,,,,0,0,0,,,,,,,,,4/8 Partly Cloudy,72000.0,,FEW,4000,SCT,25000.0,,,,
KRDR,03-31-2005,20:00,METAR,,310,15,20.0,,9999,Cloud Development Not Observable,12.0,1.0,30.04,1018.4,,,,0,0,0,,,,,,,,,2/8 Mostly Clear,72000.0,,FEW,4000,FEW,15000.0,,,,
KRDR,03-31-2005,19:00,METAR,,300,13,,,9999,Cloud Development Not Observable,12.0,3.0,30.04,1018.4,,,,0,0,0,,,,,,,,,2/8 Mostly Clear,72000.0,,FEW,15000,,,,,,
KRDR,03-31-2005,18:00,METAR,,300,12,,,9999,Cloud Development Not Observable,11.0,1.0,30.03,1018.0,,,,0,0,0,,,,,,,,,2/8 Mostly Clear,72000.0,,FEW,15000,,,,,,
KRDR,03-31-2005,17:00,METAR,,320,11,,,9999,Cloud Development Not Observable,9.0,1.0,30.03,1018.1,,,,0,0,0,,,,,,,,,2/8 Mostly Clear,72000.0,,FEW,15000,,,,,,
KRDR,03-31-2005,16:00,METAR,,290,8,,,9999,Cloud Development Not Observable,7.0,0.0,30.02,1017.8,,,,0,0,0,,,,,,,,,Clear,72000.0,,,73000,,,,,,
KRDR,03-31-2005,15:00,METAR,,300,10,,,9999,Cloud Development Not Observable,5.0,0.0,30.01,1017.6,,,,0,0,0,,,,,,,,,Clear,72000.0,,,73000,,,,,,
KRDR,03-31-2005,14:00,METAR,,310,10,,,9999,Cloud Development Not Observable,3.0,-1.0,29.99,1016.9,,,,0,0,0,,,,,,,,,Clear,72000.0,,,73000,,,,,,
KRDR,03-31-2005,13:00,METAR,,270,3,,,9999,Cloud Development Not Observable,0.0,0.0,29.98,1016.6,,,,0,0,0,,,,,,,,,Clear,72000.0,,,73000,,,,,,
KRDR,03-31-2005,12:00,METAR,,300,5,,,9999,Cloud Development Not Observable,0.0,-1.0,29.95,1015.5,,,,0,0,0,,,,,,,,,Clear,72000.0,,,73000,,,,,,
KRDR,03-31-2005,11:00,METAR,,310,7,,,9999,Cloud Development Not Observable,0.0,0.0,29.91,1014.2,,,,0,0,0,,,,,,,,,Clear,72000.0,,,73000,,,,,,
KRDR,03-31-2005,10:00,METAR,,310,9,,,9999,Cloud Development Not Observable,1.0,0.0,29.89,1013.5,,,,0,0,0,,,,,,,,,Clear,72000.0,,,73000,,,,,,
KRDR,03-31-2005,09:00,METAR,,310,9,,,9999,Cloud Development Not Observable,1.0,0.0,29.87,1012.8,,,,0,0,0,,,,,,,,,Clear,72000.0,,,73000,,,,,,
KRDR,03-31-2005,08:00,METAR,,300,9,,,9999,Cloud Development Not Observable,1.0,0.0,29.85,1012.1,,,,0,0,0,,,,,,,,,Clear,72000.0,,,73000,,,,,,
KRDR,03-31-2005,07:00,METAR,,310,10,,,9999,Cloud Development Not Observable,1.0,0.0,29.84,1011.8,,,,0,0,0,,,,,,,,,2/8 Mostly Clear,72000.0,,FEW,25000,,,,,,
KRDR,03-31-2005,06:00,METAR,,310,9,,,9999,Cloud Development Not Observable,1.0,0.0,29.83,1011.4,,,,0,0,0,,,,,,,,,2/8 Mostly Clear,72000.0,,FEW,25000,,,,,,
KRDR,03-31-2005,05:00,METAR,,310,8,,,9999,Cloud Development Not Observable,1.0,0.0,29.82,1011.2,,,,0,0,0,,,,,,,,,2/8 Mostly Clear,72000.0,,FEW,25000,,,,,,
KRDR,03-31-2005,04:00,METAR,,280,9,,,9999,Cloud Development Not Observable,2.0,0.0,29.81,1010.8,,,,0,0,0,,,,,,,,,2/8 Mostly Clear,72000.0,,FEW,25000,,,,,,
KRDR,03-31-2005,03:00,METAR,,290,8,,,9999,Cloud Development Not Observable,2.0,0.0,29.80,1010.4,,,,0,0,0,,,,,,,,,2/8 Mostly Clear,72000.0,,FEW,25000,,,,,,
KRDR,03-31-2005,02:00,METAR,,290,8,,,9999,Cloud Development Not Observable,3.0,1.0,29.77,1009.4,,,,0,0,0,,,,,,,,,2/8 Mostly Clear,72000.0,,FEW,25000,,,,,,
KRDR,03-31-2005,01:00,METAR,,300,8,,,9999,Cloud Development Not Observable,4.0,,29.73,1008.2,,,,0,0,0,,,,,,,,,4/8 Partly Cloudy,72000.0,,SCT,25000,,,,,,
KRDR,03-31-2005,00:00,METAR,,310,14,,,9999,Cloud Development Not Observable,6.0,2.0,29.70,1007.1,,,,0,0,0,,,,,,,,,4/8 Partly Cloudy,72000.0,,FEW,2000,SCT,25000.0,,,,
KRDR,03-30-2005,23:00,METAR,,320,12,,,9999,Cloud Development Not Observable,7.0,2.0,29.68,1006.5,,,,0,0,0,,,,,,,,,7/8 Mostly Cloudy,3000.0,,BKN,3000,BKN,25000.0,,,,
KRDR,03-30-2005,22:00,METAR,,300,12,,,9999,Cloud Development Not Observable,6.0,3.0,29.67,1006.2,,,,0,0,0,,,,,,,,,7/8 Mostly Cloudy,3000.0,,SCT,1700,BKN,3000.0,BKN,9900.0,BKN,25000.0
KRDR,03-30-2005,21:00,METAR,,300,15,,,9999,Cloud Development Not Observable,6.0,3.0,29.65,1005.5,,,,0,0,0,,,,,,,,,8/8 Overcast,1700.0,,BKN,1700,OVC,3000.0,,,,
KRDR,03-30-2005,20:22,SPECI,,330,13,,,9999,Cloud Development Not Observable,6.0,3.0,29.63,,,,,0,0,0,,,,,,,,,8/8 Overcast,1500.0,,BKN,1500,OVC,2200.0,,,,
KRDR,03-30-2005,20:00,METAR,,330,10,,,9999,Cloud Development Not Observable,6.0,4.0,29.62,1004.4,,,,0,0,0,,,,,,,,,8/8 Overcast,1400.0,,BKN,1400,OVC,2000.0,,,,
KRDR,03-30-2005,19:00,METAR,,340,12,,,9999,Cloud Development Not Observable,6.0,4.0,29.61,1003.8,,,,0,0,0,,,,,,,,,8/8 Overcast,1100.0,,OVC,1100,,,,,,
KRDR,03-30-2005,18:00,METAR,,350,14,,,9999,Cloud Development Not Observable,5.0,3.0,29.61,1003.8,,,,0,0,0,,,,,,,,,8/8 Overcast,1100.0,,OVC,1100,,,,,,
KRDR,03-30-2005,17:00,METAR,,330,8,,,9999,Cloud Development Not Observable,4.0,3.0,29.61,1003.9,,,,0,0,0,,,,,,,,,7/8 Mostly Cloudy,1400.0,,BKN,1400,BKN,20000.0,,,,
KRDR,03-30-2005,16:00,METAR,,340,10,,,9999,Cloud Development Not Observable,3.0,2.0,29.59,1003.4,,,,0,0,0,,,,,,,,,7/8 Mostly Cloudy,1200.0,,BKN,1200,BKN,20000.0,,,,
KRDR,03-30-2005,15:00,METAR,,360,8,,,9999,Cloud Development Not Observable,2.0,2.0,29.59,1003.4,,,,0,0,0,,,,,,,,,7/8 Mostly Cloudy,1200.0,,BKN,1200,BKN,20000.0,,,,
KRDR,03-30-2005,14:35,SPECI,,350,9,,,9999,Cloud Development Not Observable,2.0,2.0,29.59,,,,,0,0,0,,,,,,,,,7/8 Mostly Cloudy,1300.0,,BKN,1300,BKN,20000.0,,,,
KRDR,03-30-2005,14:00,METAR,,340,10,,,9999,Cloud Development Not Observable,2.0,2.0,29.57,1002.5,,,,0,0,0,,,,,,,,,7/8 Mostly Cloudy,20000.0,,SCT,1200,BKN,20000.0,,,,
KRDR,03-30-2005,13:44,SPECI,,360,10,,,9999,Cloud Development Not Observable,1.0,1.0,29.57,,,,,0,0,0,,,,,,,,,7/8 Mostly Cloudy,20000.0,,SCT,1200,BKN,20000.0,,,,
KRDR,03-30-2005,13:33,SPECI,,360,10,,,9999,Cloud Development Not Observable,2.0,2.0,29.57,,,,,0,0,0,,,,,,,,,8/8 Overcast,1400.0,,BKN,1400,OVC,20000.0,,,,
KRDR,03-30-2005,13:00,METAR,,340,6,,,9999,Cloud Development Not Observable,-1.0,-1.0,29.56,1002.1,,,,0,0,0,,,,,,,,,7/8 Mostly Cloudy,20000.0,,FEW,1200,BKN,20000.0,,,,
KRDR,03-30-2005,12:00,METAR,,320,7,,,9999,Cloud Development Not Observable,-1.0,-1.0,29.54,1001.5,,,,0,0,0,,,,,,,,,4/8 Partly Cloudy,72000.0,,FEW,800,SCT,1200.0,,,,
KRDR,03-30-2005,11:00,METAR,,310,6,,,9999,Cloud Development Not Observable,-1.0,-1.0,29.51,1000.2,,,,0,0,0,,,,,,,,,Clear,72000.0,,,73000,,,,,,
KRDR,03-30-2005,10:00,METAR,,270,3,,,9999,Cloud Development Not Observable,-1.0,-1.0,29.49,999.7,,,,0,0,0,,,,,,,,,Clear,72000.0,,,73000,,,,,,
KRDR,03-30-2005,09:00,METAR,,250,5,,,9999,Cloud Development Not Observable,0.0,0.0,29.48,999.2,,,,0,0,0,,,,,,,,,Clear,72000.0,,,73000,,,,,,
KRDR,03-30-2005,08:00,METAR,,280,5,,,9999,Cloud Development Not Observable,2.0,2.0,29.46,998.4,,,,0,0,0,,,,,,,,,Clear,72000.0,,,73000,,,,,,
KRDR,03-30-2005,07:00,METAR,,250,7,,,9999,Cloud Development Not Observable,3.0,2.0,29.45,998.1,,,,0,0,0,,,,,,,,,Clear,72000.0,,,73000,,,,,,
KRDR,03-30-2005,06:00,METAR,,250,6,,,9999,Cloud Development Not Observable,3.0,3.0,29.45,998.1,,,,0,0,0,,,,,,,,,Clear,72000.0,,,73000,,,,,,
KRDR,03-30-2005,05:00,METAR,,250,7,,,9999,Cloud Development Not Observable,3.0,3.0,29.44,997.8,,,,0,0,0,,,,,,,,,Clear,72000.0,,,73000,,,,,,
KRDR,03-30-2005,04:00,METAR,,180,4,,,9999,Cloud Development Not Observable,3.0,3.0,29.44,998.0,,,,0,0,0,,,,,,,,,Clear,72000.0,,,73000,,,,,,
KRDR,03-30-2005,03:00,METAR,,210,6,,,9999,Cloud Development Not Observable,4.0,4.0,29.43,997.6,,,,0,0,0,,,,,,,,,Clear,72000.0,,,73000,,,,,,
KRDR,03-30-2005,02:00,METAR,,190,5,,,9999,Cloud Development Not Observable,4.0,4.0,29.41,997.1,,,,0,0,0,,,,,,,,,2/8 Mostly Clear,72000.0,,FEW,6900,,,,,,
KRDR,03-30-2005,01:00,METAR,,270,5,,,9999,Cloud Development Not Observable,7.0,5.0,29.38,995.9,,,,0,0,0,,,,,,,,,2/8 Mostly Clear,72000.0,,FEW,3000,FEW,6900.0,,,,
KRDR,03-30-2005,00:00,METAR,,290,15,,,9999,Cloud Development Not Observable,11.0,6.0,29.34,994.4,,,,0,0,0,,,,,,,,,2/8 Mostly Clear,72000.0,,FEW,3000,,,,,,
KRDR,03-29-2005,23:00,METAR,,270,12,19.0,,9999,Cloud Development Not Observable,12.0,6.0,29.30,993.3,,,,0,0,0,,,,,,,,,2/8 Mostly Clear,72000.0,,FEW,6900,,,,,,
KRDR,03-29-2005,22:00,METAR,,260,12,19.0,,9999,Cloud Development Not Observable,13.0,6.0,29.25,991.3,,,,0,0,0,,,,,,,,,4/8 Partly Cloudy,72000.0,,FEW,12000,SCT,20000.0,,,,
KRDR,03-29-2005,21:00,METAR,,250,14,20.0,,9999,Cloud Development Not Observable,14.0,6.0,29.22,990.4,,,,0,0,0,,,,,,,,,4/8 Partly Cloudy,72000.0,,FEW,12000,SCT,20000.0,,,,
KRDR,03-29-2005,20:24,SPECI,,270,15,20.0,,9999,Cloud Development Not Observable,16.0,7.0,29.20,,,,,0,0,0,,,,,,,,,7/8 Mostly Cloudy,20000.0,,FEW,12000,BKN,20000.0,,,,
KRDR,03-29-2005,20:00,METAR,,200,11,,,9999,Cloud Development Not Observable,17.0,10.0,29.19,989.1,,,,0,0,0,,,,,,,,,7/8 Mostly Cloudy,20000.0,,FEW,12000,BKN,20000.0,,,,
KRDR,03-29-2005,19:00,METAR,,170,15,,,9999,Cloud Development Not Observable,16.0,10.0,29.19,989.3,,,,0,0,0,,,,,,,,,7/8 Mostly Cloudy,20000.0,,SCT,12000,BKN,20000.0,,,,
KRDR,03-29-2005,18:00,METAR,,160,12,,,9999,Cloud Development Not Observable,13.0,9.0,29.21,989.9,,,,0,0,0,,,,,,,,,7/8 Mostly Cloudy,20000.0,,SCT,12000,BKN,20000.0,,,,
KRDR,03-29-2005,17:00,METAR,,160,12,,,9999,Cloud Development Not Observable,12.0,7.0,29.22,990.4,,,,0,0,0,,,,,,,,,7/8 Mostly Cloudy,20000.0,,FEW,7900,FEW,11000.0,BKN,20000.0,,
KRDR,03-29-2005,16:00,METAR,,130,9,,,9999,Cloud Development Not Observable,8.0,5.0,29.22,990.4,,,,0,0,0,,,,,,,,,7/8 Mostly Cloudy,11000.0,,FEW,7900,SCT,11000.0,BKN,15000.0,,
KRDR,03-29-2005,15:00,METAR,,100,7,,,9999,Cloud Development Not Observable,6.0,4.0,29.25,991.5,,,,0,0,0,,,,,,,,,8/8 Overcast,11000.0,,FEW,7900,SCT,11000.0,OVC,15000.0,,
KRDR,03-29-2005,14:00,METAR,,,1,,,9999,Cloud Development Not Observable,3.0,2.0,29.29,993.0,,,,0,0,0,,,,,,,,,8/8 Overcast,11000.0,,FEW,7900,SCT,11000.0,OVC,15000.0,,
KRDR,03-29-2005,13:00,METAR,,70,4,,,9999,Cloud Development Not Observable,3.0,1.0,29.26,991.8,,,,0,0,0,,,,,,,,,8/8 Overcast,15000.0,,SCT,11000,OVC,15000.0,,,,
KRDR,03-29-2005,12:00,METAR,,40,5,,,9999,Cloud Development Not Observable,2.0,1.0,29.28,992.5,,,,0,0,0,,,,,,,,,8/8 Overcast,15000.0,,SCT,12000,OVC,15000.0,,,,
KRDR,03-29-2005,11:00,METAR,,60,3,,,9999,Cloud Development Not Observable,3.0,1.0,29.30,993.2,,,,0,0,0,,,,,,,,,8/8 Overcast,15000.0,,OVC,15000,,,,,,
KRDR,03-29-2005,10:00,METAR,,90,2,,,9999,Cloud Development Not Observable,3.0,2.0,29.31,993.6,,,,0,0,0,,,,,,,,,7/8 Mostly Cloudy,15000.0,,BKN,15000,,,,,,
KRDR,03-29-2005,09:00,METAR,,120,4,,,9999,Cloud Development Not Observable,2.0,1.0,29.32,994.0,,,,0,0,0,,,,,,,,,7/8 Mostly Cloudy,15000.0,,BKN,15000,,,,,,
KRDR,03-29-2005,08:00,METAR,,130,4,,,9999,Cloud Development Not Observable,2.0,0.0,29.36,995.2,,,,0,0,0,,,,,,,,,4/8 Partly Cloudy,72000.0,,SCT,15000,,,,,,
KRDR,03-29-2005,07:00,METAR,,140,3,,,9999,Cloud Development Not Observable,3.0,1.0,29.39,996.4,,,,0,0,0,,,,,,,,,Clear,72000.0,,,73000,,,,,,
KRDR,03-29-2005,06:00,METAR,,110,3,,,9999,Cloud Development Not Observable,3.0,1.0,29.39,996.4,,,,0,0,0,,,,,,,,,2/8 Mostly Clear,72000.0,,FEW,15000,,,,,,
KRDR,03-29-2005,05:00,METAR,,120,5,,,9999,Cloud Development Not Observable,4.0,1.0,29.41,997.1,,,,0,0,0,,,,,,,,,2/8 Mostly Clear,72000.0,,FEW,15000,,,,,,
KRDR,03-29-2005,04:00,METAR,,130,7,,,9999,Cloud Development Not Observable,4.0,2.0,29.43,997.8,,,,0,0,0,,,,,,,,,4/8 Partly Cloudy,72000.0,,SCT,15000,,,,,,
KRDR,03-29-2005,03:00,METAR,,130,4,,,9999,Cloud Development Not Observable,5.0,2.0,29.44,998.3,,,,0,0,0,,,,,,,,,7/8 Mostly Cloudy,15000.0,,FEW,9900,BKN,15000.0,,,,
KRDR,03-29-2005,02:00,METAR,,110,3,,,9999,Cloud Development Not Observable,6.0,3.0,29.44,998.3,,,,0,0,0,,,,,,,,,7/8 Mostly Cloudy,10000.0,,FEW,7900,SCT,9900.0,BKN,15000.0,,
KRDR,03-29-2005,01:00,METAR,,90,3,,,9999,Cloud Development Not Observable,7.0,4.0,29.44,998.3,,,,0,0,0,,,,,,,,,7/8 Mostly Cloudy,10000.0,,FEW,7900,SCT,9900.0,BKN,15000.0,,
KRDR,03-29-2005,00:00,METAR,,100,6,,,9999,Cloud Development Not Observable,9.0,5.0,29.46,998.8,,,,0,0,0,,,,,,,,,7/8 Mostly Cloudy,10000.0,,SCT,7900,BKN,9900.0,BKN,15000.0,,
KRDR,03-28-2005,23:00,METAR,,110,7,,,9999,Cloud Development Not Observable,9.0,5.0,29.47,999.1,,,,0,0,0,,,,,,,,,7/8 Mostly Cloudy,10000.0,,SCT,7900,BKN,9900.0,BKN,15000.0,,
KRDR,03-28-2005,22:00,METAR,,100,6,,,9999,Cloud Development Not Observable,9.0,5.0,29.48,999.5,,,,0,0,0,,,,,,,,,7/8 Mostly Cloudy,10000.0,,BKN,9900,BKN,15000.0,,,,
KRDR,03-28-2005,21:00,METAR,,100,9,,,9999,Cloud Development Not Observable,9.0,4.0,29.49,999.7,,,,0,0,0,,,,,,,,,7/8 Mostly Cloudy,7000.0,,BKN,6900,BKN,12000.0,,,,
KRDR,03-28-2005,20:00,METAR,,100,9,,,9999,Cloud Development Not Observable,6.0,4.0,29.52,1000.8,,,,0,0,0,,,,,,,,,7/8 Mostly Cloudy,7000.0,,BKN,6900,BKN,12000.0,,,,
KRDR,03-28-2005,19:00,METAR,,90,7,,,9999,Cloud Development Not Observable,4.0,2.0,29.56,1002.2,,,,0,0,0,,,,,,,,,8/8 Overcast,7000.0,,BKN,6900,OVC,12000.0,,,,
KRDR,03-28-2005,18:00,METAR,,60,3,,,9999,Cloud Development Not Observable,3.0,1.0,29.60,1003.9,,,,0,0,0,,,,,,,,,8/8 Overcast,7000.0,,BKN,6900,OVC,8900.0,,,,
KRDR,03-28-2005,17:00,METAR,,30,2,,,9999,Cloud Development Not Observable,3.0,0.0,29.61,1004.0,,,,0,0,0,,,,,,,,,8/8 Overcast,5500.0,,BKN,5400,OVC,7900.0,,,,
KRDR,03-28-2005,16:00,METAR,,40,4,,,9999,Cloud Development Not Observable,2.0,0.0,29.60,1003.7,,,,0,0,0,,,,,,,,,8/8 Overcast,9000.0,,BKN,8900,OVC,11000.0,,,,
KRDR,03-28-2005,15:00,METAR,,80,1,,,9999,Mist/Cloud Development Not Observable,1.0,0.0,29.61,1004.0,,,,10,0,0,,,,,,,,,8/8 Overcast,9000.0,,BKN,8900,OVC,11000.0,,,,
KRDR,03-28-2005,14:00,METAR,,30,3,,,9999,Mist/Cloud Development Not Observable,0.0,0.0,29.63,1004.7,,,,10,0,0,,,,,,,,,8/8 Overcast,8500.0,,BKN,8400,OVC,9900.0,,,,
KRDR,03-28-2005,13:00,METAR,,340,5,,,9999,Mist/Cloud Development Not Observable,0.0,0.0,29.65,1005.3,,,,10,0,0,,,,,,,,,8/8 Overcast,9000.0,,BKN,8900,OVC,11000.0,,,,
KRDR,03-28-2005,12:00,METAR,,,0,,,9999,Cloud Development Not Observable,-1.0,-1.0,29.64,1004.8,,,,0,0,0,,,,,,,,,7/8 Mostly Cloudy,9000.0,,BKN,8900,BKN,20000.0,,,,
KRDR,03-28-2005,11:00,METAR,,20,5,,,9999,Cloud Development Not Observable,0.0,0.0,29.62,1004.0,,,,0,0,0,,,,,,,,,7/8 Mostly Cloudy,11000.0,,BKN,11000,BKN,20000.0,,,,
KRDR,03-28-2005,10:00,METAR,,10,6,,,9999,Cloud Development Not Observable,0.0,0.0,29.63,1004.3,,,,0,0,0,,,,,,,,,7/8 Mostly Cloudy,20000.0,,BKN,20000,,,,,,
KRDR,03-28-2005,09:00,METAR,,10,6,,,9999,Cloud Development Not Observable,1.0,0.0,29.63,1004.3,,,,0,0,0,,,,,,,,,7/8 Mostly Cloudy,20000.0,,BKN,20000,,,,,,
KRDR,03-28-2005,08:00,METAR,,350,4,,,9999,Cloud Development Not Observable,-1.0,-1.0,29.63,1004.4,,,,0,0,0,,,,,,,,,7/8 Mostly Cloudy,20000.0,,BKN,20000,,,,,,
KRDR,03-28-2005,07:00,METAR,,310,5,,,9999,Cloud Development Not Observable,0.0,0.0,29.63,1004.4,,,,0,0,0,,,,,,,,,7/8 Mostly Cloudy,20000.0,,BKN,20000,,,,,,
KRDR,03-28-2005,06:00,METAR,,290,1,,,9999,Cloud Development Not Observable,0.0,0.0,29.63,1004.5,,,,0,0,0,,,,,,,,,7/8 Mostly Cloudy,20000.0,,BKN,20000,,,,,,
KRDR,03-28-2005,05:00,METAR,,330,4,,,9999,Cloud Development Not Observable,1.0,0.0,29.97,1016.2,,,,0,0,0,,,,,,,,,7/8 Mostly Cloudy,20000.0,,BKN,20000,,,,,,
KRDR,03-28-2005,04:00,METAR,,,5,,,9999,Cloud Development Not Observable,4.0,2.0,29.62,1004.2,,,,0,0,0,,,,,,,,,7/8 Mostly Cloudy,20000.0,,BKN,20000,,,,,,
KRDR,03-28-2005,03:00,METAR,,290,6,,,9999,Cloud Development Not Observable,4.0,2.0,29.60,1003.7,,,,0,0,0,,,,,,,,,7/8 Mostly Cloudy,20000.0,,BKN,20000,,,,,,
KRDR,03-28-2005,02:00,METAR,,300,6,,,9999,Cloud Development Not Observable,4.0,2.0,29.59,1003.4,,,,0,0,0,,,,,,,,,7/8 Mostly Cloudy,20000.0,,FEW,12000,BKN,20000.0,,,,
KRDR,03-28-2005,01:00,METAR,,280,6,,,9999,Cloud Development Not Observable,7.0,3.0,29.58,1002.8,,,,0,0,0,,,,,,,,,7/8 Mostly Cloudy,20000.0,,FEW,12000,BKN,20000.0,,,,
KRDR,03-28-2005,00:00,METAR,,280,11,,,9999,Cloud Development Not Observable,11.0,3.0,29.55,1001.6,,,,0,0,0,,,,,,,,,7/8 Mostly Cloudy,20000.0,,FEW,12000,BKN,20000.0,,,,
KRDR,03-27-2005,23:00,METAR,,270,12,,,9999,Cloud Development Not Observable,13.0,4.0,29.54,1001.2,,,,0,0,0,,,,,,,,,7/8 Mostly Cloudy,20000.0,,FEW,9900,BKN,20000.0,,,,
KRDR,03-27-2005,22:00,METAR,,270,11,,,9999,Cloud Development Not Observable,14.0,3.0,29.55,1001.6,,,,0,0,0,,,,,,,,,7/8 Mostly Cloudy,20000.0,,SCT,9900,BKN,20000.0,,,,
KRDR,03-27-2005,21:00,METAR,,270,8,,,9999,Cloud Development Not Observable,14.0,3.0,29.55,1001.6,,,,0,0,0,,,,,,,,,7/8 Mostly Cloudy,20000.0,,SCT,9900,BKN,20000.0,,,,
KRDR,03-27-2005,20:00,METAR,,240,11,,,9999,Cloud Development Not Observable,14.0,2.0,29.56,1002.2,,,,0,0,0,,,,,,,,,4/8 Partly Cloudy,72000.0,,SCT,5900,SCT,9900.0,,,,
KRDR,03-27-2005,19:00,METAR,,240,10,,,9999,Cloud Development Not Observable,12.0,2.0,29.58,1002.8,,,,0,0,0,,,,,,,,,4/8 Partly Cloudy,72000.0,,SCT,5900,,,,,,
KRDR,03-27-2005,18:00,METAR,,230,12,,,9999,Cloud Development Not Observable,9.0,2.0,29.56,1002.1,,,,0,0,0,,,,,,,,,4/8 Partly Cloudy,72000.0,,SCT,5900,SCT,8900.0,,,,
KRDR,03-27-2005,17:00,METAR,,200,11,,,9999,Cloud Development Not Observable,6.0,1.0,29.57,1002.6,,,,0,0,0,,,,,,,,,7/8 Mostly Cloudy,9000.0,,SCT,5900,SCT,8900.0,BKN,20000.0,,
KRDR,03-27-2005,16:00,METAR,,190,15,,,9999,Cloud Development Not Observable,4.0,0.0,29.60,1003.7,,,,0,0,0,,,,,,,,,7/8 Mostly Cloudy,10000.0,,SCT,5900,SCT,9900.0,BKN,20000.0,,
KRDR,03-27-2005,15:00,METAR,,190,13,,,9999,Cloud Development Not Observable,3.0,0.0,29.63,1004.8,,,,0,0,0,,,,,,,,,7/8 Mostly Cloudy,20000.0,,SCT,9900,BKN,20000.0,,,,
KRDR,03-27-2005,14:00,METAR,,170,11,,,9999,Cloud Development Not Observable,3.0,-1.0,29.65,1005.4,,,,0,0,0,,,,,,,,,7/8 Mostly Cloudy,20000.0,,BKN,20000,,,,,,
KRDR,03-27-2005,13:00,METAR,,180,8,,,9999,Cloud Development Not Observable,2.0,-1.0,29.70,1006.9,,,,0,0,0,,,,,,,,,7/8 Mostly Cloudy,20000.0,,BKN,20000,,,,,,
KRDR,03-27-2005,12:00,METAR,,180,8,,,9999,Cloud Development Not Observable,2.0,-1.0,29.73,1008.1,,,,0,0,0,,,,,,,,,7/8 Mostly Cloudy,20000.0,,BKN,20000,,,,,,
KRDR,03-27-2005,11:00,METAR,,170,5,,,9999,Cloud Development Not Observable,0.0,-1.0,29.77,1009.5,,,,0,0,0,,,,,,,,,4/8 Partly Cloudy,72000.0,,SCT,20000,,,,,,
KRDR,03-27-2005,10:00,METAR,,170,4,,,9999,Cloud Development Not Observable,-1.0,-1.0,29.79,1010.2,,,,0,0,0,,,,,,,,,4/8 Partly Cloudy,72000.0,,SCT,20000,,,,,,
KRDR,03-27-2005,09:00,METAR,,190,3,,,9999,Cloud Development Not Observable,-2.0,-2.0,29.84,1012.0,,,,0,0,0,,,,,,,,,4/8 Partly Cloudy,72000.0,,SCT,20000,,,,,,
KRDR,03-27-2005,08:00,METAR,,190,2,,,9999,Cloud Development Not Observable,-2.0,-2.0,29.87,1013.1,,,,0,0,0,,,,,,,,,4/8 Partly Cloudy,72000.0,,SCT,20000,,,,,,
KRDR,03-27-2005,07:00,METAR,,210,4,,,9999,Cloud Development Not Observable,-3.0,-3.0,29.88,1013.3,,,,0,0,0,,,,,,,,,4/8 Partly Cloudy,72000.0,,SCT,20000,,,,,,
KRDR,03-27-2005,06:00,METAR,,200,4,,,9999,Cloud Development Not Observable,-2.0,-2.0,29.91,1014.1,,,,0,0,0,,,,,,,,,4/8 Partly Cloudy,72000.0,,SCT,20000,,,,,,
KRDR,03-27-2005,05:00,METAR,,230,3,,,9999,Cloud Development Not Observable,-3.0,-3.0,29.94,1015.3,,,,0,0,0,,,,,,,,,2/8 Mostly Clear,72000.0,,FEW,25000,,,,,,
KRDR,03-27-2005,04:00,METAR,,230,1,,,9999,Cloud Development Not Observable,-1.0,-1.0,29.94,1015.3,,,,0,0,0,,,,,,,,,4/8 Partly Cloudy,72000.0,,SCT,25000,,,,,,
KRDR,03-27-2005,03:00,METAR,,220,4,,,9999,Cloud Development Not Observable,-2.0,-2.0,29.94,1015.4,,,,0,0,0,,,,,,,,,2/8 Mostly Clear,72000.0,,FEW,25000,,,,,,
KRDR,03-27-2005,02:00,METAR,,210,2,,,9999,Cloud Development Not Observable,-1.0,-2.0,29.94,1015.6,,,,0,0,0,,,,,,,,,2/8 Mostly Clear,72000.0,,FEW,25000,,,,,,
KRDR,03-27-2005,01:00,METAR,,290,4,,,9999,Cloud Development Not Observable,3.0,-2.0,29.95,1015.8,,,,0,0,0,,,,,,,,,2/8 Mostly Clear,72000.0,,FEW,12000,FEW,25000.0,,,,
KRDR,03-27-2005,00:00,METAR,,290,7,,,9999,Cloud Development Not Observable,5.0,-2.0,29.96,1015.9,,,,0,0,0,,,,,,,,,2/8 Mostly Clear,72000.0,,FEW,12000,FEW,25000.0,,,,
KRDR,03-26-2005,23:00,METAR,,300,10,,,9999,Cloud Development Not Observable,7.0,-2.0,29.96,1015.9,,,,0,0,0,,,,,,,,,4/8 Partly Cloudy,72000.0,,FEW,3500,FEW,12000.0,SCT,25000.0,,
KRDR,03-26-2005,22:00,METAR,,310,11,,,9999,Cloud Development Not Observable,7.0,-1.0,29.94,1015.4,,,,0,0,0,,,,,,,,,4/8 Partly Cloudy,72000.0,,FEW,3500,FEW,12000.0,SCT,25000.0,,
KRDR,03-26-2005,21:00,METAR,,310,11,,,9999,Cloud Development Not Observable,8.0,0.0,29.95,1015.6,,,,0,0,0,,,,,,,,,7/8 Mostly Cloudy,12000.0,,FEW,3500,SCT,12000.0,BKN,25000.0,,
KRDR,03-26-2005,20:00,METAR,,260,9,,,9999,Cloud Development Not Observable,7.0,-1.0,29.96,1015.9,,,,0,0,0,,,,,,,,,2/8 Mostly Clear,72000.0,,FEW,3000,,,,,,
KRDR,03-26-2005,19:00,METAR,,250,11,,,9999,Cloud Development Not Observable,7.0,-1.0,29.97,1016.2,,,,0,0,0,,,,,,,,,2/8 Mostly Clear,72000.0,,FEW,3000,,,,,,
KRDR,03-26-2005,18:00,METAR,,220,8,,,9999,Cloud Development Not Observable,6.0,-1.0,29.98,1016.6,,,,0,0,0,,,,,,,,,2/8 Mostly Clear,72000.0,,FEW,15000,,,,,,
KRDR,03-26-2005,17:00,METAR,,210,8,,,9999,Cloud Development Not Observable,3.0,-1.0,29.98,1016.7,,,,0,0,0,,,,,,,,,2/8 Mostly Clear,72000.0,,FEW,15000,,,,,,
KRDR,03-26-2005,16:00,METAR,,210,8,,,9999,Cloud Development Not Observable,2.0,-2.0,29.98,1016.7,,,,0,0,0,,,,,,,,,2/8 Mostly Clear,72000.0,,FEW,15000,,,,,,
KRDR,03-26-2005,15:00,METAR,,220,10,,,9999,Cloud Development Not Observable,0.0,-2.0,29.98,1017.0,,,,0,0,0,,,,,,,,,2/8 Mostly Clear,72000.0,,FEW,4200,,,,,,
KRDR,03-26-2005,14:00,METAR,,220,8,,,9999,Cloud Development Not Observable,-1.0,-2.0,29.99,1017.1,,,,0,0,0,,,,,,,,,7/8 Mostly Cloudy,4000.0,,BKN,4100,,,,,,
KRDR,03-26-2005,13:00,METAR,,210,8,,,9999,Cloud Development Not Observable,-2.0,-3.0,30.00,1017.4,,,,0,0,0,,,,,,,,,7/8 Mostly Cloudy,3800.0,,BKN,3900,,,,,,
KRDR,03-26-2005,12:00,METAR,,220,9,,,9999,Cloud Development Not Observable,-3.0,-4.0,30.00,1017.4,,,,0,0,0,,,,,,,,,7/8 Mostly Cloudy,3700.0,,BKN,3800,,,,,,
KRDR,03-26-2005,11:00,METAR,,200,7,,,9999,Cloud Development Not Observable,-5.0,-5.0,30.01,1017.8,,,,0,0,0,,,,,,,,,2/8 Mostly Clear,72000.0,,FEW,3000,,,,,,
KRDR,03-26-2005,10:00,METAR,,190,5,,,9999,Cloud Development Not Observable,-5.0,-5.0,30.02,1018.2,,,,0,0,0,,,,,,,,,2/8 Mostly Clear,72000.0,,FEW,3000,,,,,,
KRDR,03-26-2005,09:00,METAR,,200,4,,,9999,Cloud Development Not Observable,-5.0,-5.0,30.05,1019.3,,,,0,0,0,,,,,,,,,2/8 Mostly Clear,72000.0,,FEW,3000,,,,,,
KRDR,03-26-2005,08:00,METAR,,200,7,,,9999,Cloud Development Not Observable,-4.0,-4.0,30.07,1020.0,,,,0,0,0,,,,,,,,,Clear,72000.0,,,73000,,,,,,
KRDR,03-26-2005,07:00,METAR,,210,5,,,9999,Cloud Development Not Observable,-3.0,-4.0,30.08,1020.1,,,,0,0,0,,,,,,,,,2/8 Mostly Clear,72000.0,,FEW,25000,,,,,,
KRDR,03-26-2005,06:00,METAR,,180,7,,,9999,Cloud Development Not Observable,-2.0,-3.0,30.09,1020.5,,,,0,0,0,,,,,,,,,Clear,72000.0,,,73000,,,,,,
KRDR,03-26-2005,05:00,METAR,,,0,,,9999,Cloud Development Not Observable,-4.0,-4.0,30.10,1021.0,,,,0,0,0,,,,,,,,,Clear,72000.0,,,73000,,,,,,
KRDR,03-26-2005,04:00,METAR,,180,5,,,9999,Cloud Development Not Observable,-3.0,-4.0,30.10,1021.2,,,,0,0,0,,,,,,,,,Clear,72000.0,,,73000,,,,,,
KRDR,03-26-2005,03:00,METAR,,180,6,,,9999,Cloud Development Not Observable,-3.0,-4.0,30.12,1021.9,,,,0,0,0,,,,,,,,,2/8 Mostly Clear,72000.0,,FEW,20000,,,,,,
KRDR,03-26-2005,02:00,METAR,,180,4,,,9999,Cloud Development Not Observable,-2.0,-4.0,30.13,1022.3,,,,0,0,0,,,,,,,,,2/8 Mostly Clear,72000.0,,FEW,20000,,,,,,
KRDR,03-26-2005,01:00,METAR,,170,1,,,9999,Cloud Development Not Observable,1.0,-7.0,30.13,1022.3,,,,0,0,0,,,,,,,,,2/8 Mostly Clear,72000.0,,FEW,6900,FEW,20000.0,,,,
KRDR,03-26-2005,00:00,METAR,,,3,,,9999,Cloud Development Not Observable,3.0,-6.0,30.14,1022.6,,,,0,0,0,,,,,,,,,Clear,72000.0,,,73000,,,,,,
KRDR,03-25-2005,23:00,METAR,,,0,,,9999,Cloud Development Not Observable,3.0,-6.0,30.16,1023.3,,,,0,0,0,,,,,,,,,Clear,72000.0,,,73000,,,,,,
KRDR,03-25-2005,22:00,METAR,,,6,,,9999,Cloud Development Not Observable,3.0,-6.0,30.17,1023.6,,,,0,0,0,,,,,,,,,2/8 Mostly Clear,72000.0,,FEW,20000,,,,,,
KRDR,03-25-2005,21:00,METAR,,,3,,,9999,Cloud Development Not Observable,2.0,-8.0,30.19,1024.1,,,,0,0,0,,,,,,,,,Clear,72000.0,,,73000,,,,,,
KRDR,03-25-2005,20:00,METAR,,,5,,,9999,Cloud Development Not Observable,2.0,-7.0,30.21,1024.8,,,,0,0,0,,,,,,,,,Clear,72000.0,,,73000,,,,,,
KRDR,03-25-2005,19:00,METAR,,,6,,,9999,Cloud Development Not Observable,0.0,-8.0,30.24,1026.0,,,,0,0,0,,,,,,,,,2/8 Mostly Clear,72000.0,,FEW,25000,,,,,,
KRDR,03-25-2005,18:00,METAR,,240,7,,,9999,Cloud Development Not Observable,-1.0,-8.0,30.26,1026.7,,,,0,0,0,,,,,,,,,2/8 Mostly Clear,72000.0,,FEW,25000,,,,,,
KRDR,03-25-2005,17:00,METAR,,,5,,,9999,Cloud Development Not Observable,-2.0,-9.0,30.27,1027.1,,,,0,0,0,,,,,,,,,2/8 Mostly Clear,72000.0,,FEW,25000,,,,,,
KRDR,03-25-2005,16:00,METAR,,,6,,,9999,Cloud Development Not Observable,-3.0,-9.0,30.29,1027.8,,,,0,0,0,,,,,,,,,2/8 Mostly Clear,72000.0,,FEW,25000,,,,,,
KRDR,03-25-2005,15:00,METAR,,,6,,,9999,Cloud Development Not Observable,-5.0,-9.0,30.29,1027.9,,,,0,0,0,,,,,,,,,2/8 Mostly Clear,72000.0,,FEW,25000,,,,,,
KRDR,03-25-2005,14:00,METAR,,,3,,,9999,Cloud Development Not Observable,-7.0,-10.0,30.30,1028.1,,,,0,0,0,,,,,,,,,2/8 Mostly Clear,72000.0,,FEW,25000,,,,,,
KRDR,03-25-2005,13:00,METAR,,,2,,,9999,Cloud Development Not Observable,-10.0,-10.0,30.31,1028.6,,,,0,0,0,,,,,,,,,2/8 Mostly Clear,72000.0,,FEW,25000,,,,,,
KRDR,03-25-2005,12:00,METAR,,,2,,,9999,Cloud Development Not Observable,-10.0,-10.0,30.30,1028.1,,,,0,0,0,,,,,,,,.01 IN,Clear,72000.0,,,73000,,,,,,
KRDR,03-25-2005,11:00,METAR,,340,3,,,9999,Cloud Development Not Observable,-10.0,-10.0,30.29,1028.0,,,,0,0,0,,,,,,,,,Clear,72000.0,,,73000,,,,,,
KRDR,03-25-2005,10:00,METAR,,360,3,,,9999,Cloud Development Not Observable,-10.0,-10.0,30.30,1028.2,,,,0,0,0,,,,,,,,,Clear,72000.0,,,73000,,,,,,
KRDR,03-25-2005,09:00,METAR,,,3,,,9999,Cloud Development Not Observable,-9.0,-10.0,30.31,1028.6,,,,0,0,0,,,,,,,,,Clear,72000.0,,,73000,,,,,,
KRDR,03-25-2005,08:00,METAR,,350,4,,,9999,Cloud Development Not Observable,-9.0,-10.0,30.32,1028.8,,,,0,0,0,,,,,,,,,Clear,72000.0,,,73000,,,,,,
KRDR,03-25-2005,07:00,METAR,,360,5,,,9999,Cloud Development Not Observable,-8.0,-9.0,30.31,1028.3,,,,0,0,0,,,,,,,,,Clear,72000.0,,,73000,,,,,,
KRDR,03-25-2005,06:00,METAR,,350,4,,,9999,Cloud Development Not Observable,-8.0,-9.0,30.31,1028.3,,,,0,0,0,,,,,,,,,2/8 Mostly Clear,72000.0,,FEW,25000,,,,,,
KRDR,03-25-2005,05:00,METAR,,350,5,,,9999,Cloud Development Not Observable,-8.0,-9.0,30.31,1028.5,,,,0,0,0,,,,,,,,,2/8 Mostly Clear,72000.0,,FEW,25000,,,,,,
KRDR,03-25-2005,04:00,METAR,,360,6,,,9999,Cloud Development Not Observable,-8.0,-10.0,30.30,1028.2,,,,0,0,0,,,,,,,,,2/8 Mostly Clear,72000.0,,FEW,25000,,,,,,
KRDR,03-25-2005,03:00,METAR,,360,8,,,9999,Cloud Development Not Observable,-7.0,-10.0,30.29,1027.8,,,,0,0,0,,,,,,,,,2/8 Mostly Clear,72000.0,,FEW,25000,,,,,,
KRDR,03-25-2005,02:00,METAR,,10,9,14.0,,9999,Cloud Development Not Observable,-6.0,-10.0,30.27,1027.1,,,,0,0,0,,,,,,,,,2/8 Mostly Clear,72000.0,,FEW,25000,,,,,,
KRDR,03-25-2005,01:00,METAR,,360,14,18.0,,9999,Cloud Development Not Observable,-6.0,-10.0,30.26,1026.8,,,,0,0,0,,,,,,,,,2/8 Mostly Clear,72000.0,,FEW,25000,,,,,,
KRDR,03-25-2005,00:00,METAR,,360,17,22.0,,9999,Cloud Development Not Observable,-5.0,-10.0,30.25,1026.3,,,,0,0,0,,,,,,,,,2/8 Mostly Clear,72000.0,,FEW,25000,,,,,,
KRDR,03-24-2005,23:00,METAR,,360,17,24.0,,9999,Cloud Development Not Observable,-4.0,-10.0,30.23,1025.6,,,,0,0,0,,,,,,,,,2/8 Mostly Clear,72000.0,,FEW,25000,,,,,,
KRDR,03-24-2005,22:00,METAR,,350,19,24.0,,9999,Cloud Development Not Observable,-3.0,-9.0,30.24,1025.9,,,,0,0,0,,,,,,,,,2/8 Mostly Clear,72000.0,,FEW,25000,,,,,,
KRDR,03-24-2005,21:00,METAR,,360,17,23.0,,9999,Cloud Development Not Observable,-3.0,-9.0,30.22,1025.1,,,,0,0,0,,,,,,,,,2/8 Mostly Clear,72000.0,,FEW,25000,,,,,,
KRDR,03-24-2005,20:00,METAR,,350,16,24.0,,9999,Cloud Development Not Observable,-3.0,-9.0,30.22,1025.1,,,,0,0,0,,,,,,,,,2/8 Mostly Clear,72000.0,,FEW,25000,,,,,,
KRDR,03-24-2005,19:00,METAR,,360,18,,,9999,Cloud Development Not Observable,-3.0,-9.0,30.22,1025.1,,,,0,0,0,,,,,,,,,2/8 Mostly Clear,72000.0,,FEW,25000,,,,,,
KRDR,03-24-2005,18:00,METAR,,360,17,24.0,,9999,Cloud Development Not Observable,-3.0,-7.0,30.21,1024.8,,,,0,0,0,,,,,,,,,4/8 Partly Cloudy,72000.0,,FEW,2400,FEW,11000.0,SCT,25000.0,,
KRDR,03-24-2005,17:00,METAR,,360,17,,,9999,Cloud Development Not Observable,-3.0,-7.0,30.20,1024.3,,,,0,0,0,,,,,,,,,4/8 Partly Cloudy,72000.0,,FEW,2400,SCT,11000.0,,,,
KRDR,03-24-2005,16:00,METAR,,10,18,,,9999,Cloud Development Not Observable,-4.0,-7.0,30.18,1023.7,,,,0,0,0,,,,,,,,,4/8 Partly Cloudy,72000.0,,FEW,1700,SCT,11000.0,,,,
KRDR,03-24-2005,15:32,SPECI,,360,14,,,9999,Cloud Development Not Observable,-3.0,-6.0,30.17,,,,,0,0,0,,,,,,,,,7/8 Mostly Cloudy,11000.0,,FEW,1700,BKN,11000.0,,,,
KRDR,03-24-2005,15:00,METAR,,360,17,,,9999,Cloud Development Not Observable,-4.0,-6.0,30.16,1023.0,,,,0,0,0,,,,,,.01 IN,,,7/8 Mostly Cloudy,4900.0,,SCT,1700,SCT,5400.0,BKN,11000.0,,
KRDR,03-24-2005,14:30,METAR,,360,14,,,9999,Cloud Development Not Observable,-4.0,-5.0,30.14,,,,,0,0,0,,,,,,,,,7/8 Mostly Cloudy,1700.0,,BKN,1700,BKN,5400.0,BKN,9900.0,,
KRDR,03-24-2005,14:10,SPECI,,10,14,,,9999,Drifting Snow/Cloud Development Not Observable,-4.0,-5.0,30.14,,,,,36,0,0,,,,,,,,,7/8 Mostly Cloudy,1400.0,,BKN,1400,BKN,3000.0,,,,
KRDR,03-24-2005,14:00,METAR,,20,16,,,4000,Light Snow/Drifting Snow/Cloud Development Not Observable,-5.0,-5.0,30.14,1022.3,,,,71,36,0,,,,,,,,,8/8 Overcast,1600.0,,FEW,900,BKN,1600.0,OVC,2600.0,,
KRDR,03-24-2005,13:26,SPECI,,10,14,,,4800,Light Snow/Drifting Snow/Cloud Development Not Observable,-4.0,-4.0,30.13,,,,,71,36,0,,,,,,,,,8/8 Overcast,1700.0,,FEW,900,BKN,1700.0,OVC,4500.0,,
KRDR,03-24-2005,13:11,SPECI,,10,15,,,8000,Light Snow/Drifting Snow/Cloud Development Not Observable,-5.0,-5.0,30.12,,,,,71,36,0,,,,,,,,,8/8 Overcast,1700.0,,FEW,900,BKN,1700.0,OVC,4500.0,,
KRDR,03-24-2005,13:00,METAR,,360,15,,,3200,Light Snow/Cloud Development Not Observable,-5.0,-5.0,30.12,1021.5,,,,71,0,0,,,,,,,,,8/8 Overcast,1400.0,,SCT,900,BKN,1400.0,OVC,2600.0,,
KRDR,03-24-2005,12:15,SPECI,,360,13,,,3200,Light Snow/Cloud Development Not Observable,-4.0,-4.0,30.10,,,,,71,0,0,,,,,,,,,8/8 Overcast,1500.0,,SCT,900,BKN,1500.0,OVC,3100.0,,
KRDR,03-24-2005,12:00,METAR,,10,12,,,6400,Light Snow/Cloud Development Not Observable,-4.0,-4.0,30.09,1020.6,,,,71,0,0,,,,,,,.01 IN,.01 IN,8/8 Overcast,1400.0,,SCT,900,BKN,1400.0,OVC,2600.0,,
KRDR,03-24-2005,11:00,METAR,,360,18,,,4800,Light Snow/Cloud Development Not Observable,-4.0,-4.0,30.06,1019.5,,,,71,0,0,,,,,,,,,8/8 Overcast,1200.0,,FEW,700,BKN,1200.0,OVC,2500.0,,
KRDR,03-24-2005,10:00,METAR,,360,12,,,6400,Light Snow/Cloud Development Not Observable,-3.0,-3.0,30.05,1019.1,,,,71,0,0,,,,,,,,,8/8 Overcast,1200.0,,FEW,700,BKN,1200.0,OVC,2500.0,,
KRDR,03-24-2005,09:19,SPECI,,10,17,,,8000,Light Snow/Cloud Development Not Observable,-2.0,-2.0,30.04,,,,,71,0,0,,,,,,,,,8/8 Overcast,800.0,,BKN,800,OVC,1500.0,,,,
KRDR,03-24-2005,09:00,METAR,,360,16,,,9999,Cloud Development Not Observable,-2.0,-2.0,30.03,1018.3,,,,0,0,0,,,,,,,,,8/8 Overcast,700.0,,BKN,700,OVC,1600.0,,,,
KRDR,03-24-2005,08:00,METAR,,360,14,,,9999,Cloud Development Not Observable,-2.0,-2.0,30.01,1017.6,,,,0,0,0,,,,,,,,,8/8 Overcast,700.0,,BKN,700,OVC,1600.0,,,,
KRDR,03-24-2005,07:00,METAR,,10,12,,,9999,Cloud Development Not Observable,-1.0,-1.0,30.01,1017.6,,,,0,0,0,,,,,,,,,8/8 Overcast,700.0,,BKN,700,OVC,1600.0,,,,
KRDR,03-24-2005,06:00,METAR,,10,11,,,9999,Cloud Development Not Observable,-1.0,-1.0,30.00,1017.4,,,,0,0,0,,,,,,,,,8/8 Overcast,700.0,,BKN,700,OVC,1600.0,,,,
KRDR,03-24-2005,05:11,SPECI,,10,13,,,9999,Cloud Development Not Observable,-1.0,-1.0,29.99,,,,,0,0,0,,,,,,,,,8/8 Overcast,700.0,,BKN,700,OVC,6900.0,,,,
KRDR,03-24-2005,05:00,METAR,,10,12,,,9999,Cloud Development Not Observable,0.0,0.0,29.99,1016.9,,,,0,0,0,,,,,,,,,8/8 Overcast,7000.0,,SCT,600,OVC,6900.0,,,,
KRDR,03-24-2005,04:00,METAR,,360,9,,,9999,Cloud Development Not Observable,0.0,0.0,29.98,1016.7,,,,0,0,0,,,,,,,,,8/8 Overcast,8000.0,,FEW,600,OVC,7900.0,,,,
KRDR,03-24-2005,03:00,METAR,,360,10,,,9999,Cloud Development Not Observable,0.0,0.0,29.97,1016.3,,,,0,0,0,,,,,,,,,8/8 Overcast,4900.0,,SCT,700,BKN,5000.0,OVC,13000.0,,
KRDR,03-24-2005,02:00,METAR,,10,9,,,4800,Mist/Cloud Development Not Observable,1.0,1.0,29.96,1015.9,,,,10,0,0,,,,,,,,,8/8 Overcast,7000.0,,SCT,500,BKN,6900.0,OVC,13000.0,,
KRDR,03-24-2005,01:45,METAR,,10,8,,,4800,Mist/Cloud Development Not Observable,1.0,1.0,29.96,,,,,10,0,0,,,,,,,,,8/8 Overcast,7000.0,,FEW,500,BKN,6900.0,OVC,13000.0,,
KRDR,03-24-2005,01:00,METAR,,,2,,,6400,Mist/Cloud Development Not Observable,2.0,2.0,29.95,1015.6,,,,10,0,0,,,,,,,,,7/8 Mostly Cloudy,7000.0,,BKN,6900,BKN,13000.0,,,,
KRDR,03-24-2005,00:00,METAR,,,2,,,9999,Cloud Development Not Observable,5.0,1.0,29.94,1015.1,,,,0,0,0,,,,,,,,,7/8 Mostly Cloudy,13000.0,,SCT,6900,BKN,13000.0,,,,
KRDR,03-23-2005,23:00,METAR,,100,3,,,9999,Cloud Development Not Observable,5.0,0.0,29.95,1015.5,,,,0,0,0,,,,,,,,,8/8 Overcast,7000.0,,BKN,6900,OVC,13000.0,,,,
KRDR,03-23-2005,22:00,METAR,,160,2,,,9999,Cloud Development Not Observable,5.0,-2.0,29.95,1015.5,,,,0,0,0,,,,,,,,,8/8 Overcast,7000.0,,BKN,6900,OVC,13000.0,,,,
KRDR,03-23-2005,21:00,METAR,,200,4,,,9999,Cloud Development Not Observable,6.0,-1.0,29.95,1015.5,,,,0,0,0,,,,,,,,,8/8 Overcast,7000.0,,BKN,6900,OVC,13000.0,,,,
KRDR,03-23-2005,20:00,METAR,,220,5,,,9999,Cloud Development Not Observable,6.0,-1.0,29.96,1015.8,,,,0,0,0,,,,,,,,,8/8 Overcast,7000.0,,OVC,6900,,,,,,
KRDR,03-23-2005,19:00,METAR,,190,8,,,9999,Cloud Development Not Observable,5.0,0.0,29.97,1016.2,,,,0,0,0,,,,,,,,,7/8 Mostly Cloudy,6500.0,,BKN,6400,,,,,,
KRDR,03-23-2005,18:00,METAR,,210,9,,,9999,Cloud Development Not Observable,4.0,-1.0,29.98,1016.6,,,,0,0,0,,,,,,,,,7/8 Mostly Cloudy,6500.0,,BKN,6400,,,,,,
KRDR,03-23-2005,17:00,METAR,,210,8,,,9999,Cloud Development Not Observable,4.0,0.0,29.98,1016.6,,,,0,0,0,,,,,,,,,7/8 Mostly Cloudy,6000.0,,BKN,5900,,,,,,
KRDR,03-23-2005,16:00,METAR,,190,9,,,9999,Cloud Development Not Observable,3.0,1.0,29.97,1016.2,,,,0,0,0,,,,,,,,,8/8 Overcast,6000.0,,OVC,5900,,,,,,
KRDR,03-23-2005,15:00,METAR,,190,8,,,9999,Cloud Development Not Observable,2.0,2.0,29.98,1016.7,,,,0,0,0,,,,,,,,,8/8 Overcast,6500.0,,OVC,6400,,,,,,
KRDR,03-23-2005,14:00,METAR,,180,5,,,9999,Cloud Development Not Observable,1.0,1.0,29.99,1017.0,,,,0,0,0,,,,,,,,,8/8 Overcast,4900.0,,OVC,5000,,,,,,
KRDR,03-23-2005,13:00,METAR,,180,5,,,9999,Cloud Development Not Observable,1.0,1.0,29.99,1016.9,,,,0,0,0,,,,,,,,,8/8 Overcast,4900.0,,OVC,5000,,,,,,
KRDR,03-23-2005,12:00,METAR,,180,7,,,9999,Cloud Development Not Observable,1.0,1.0,30.00,1017.3,,,,0,0,0,,,,,,,,TRACE,8/8 Overcast,5500.0,,BKN,5400,OVC,7900.0,,,,
KRDR,03-23-2005,11:00,METAR,,200,7,,,9999,Cloud Development Not Observable,1.0,1.0,30.01,1017.6,,,,0,0,0,,,,,,,,,8/8 Overcast,5500.0,,BKN,5400,OVC,7900.0,,,,
KRDR,03-23-2005,10:00,METAR,,190,7,,,9999,Cloud Development Not Observable,2.0,1.0,30.00,1017.2,,,,0,0,0,,,,,,,,,8/8 Overcast,5500.0,,BKN,5400,OVC,7900.0,,,,
KRDR,03-23-2005,09:00,METAR,,170,9,,,9999,Cloud Development Not Observable,1.0,0.0,30.01,1017.6,,,,0,0,0,,,,,,,,,8/8 Overcast,5500.0,,BKN,5400,OVC,7900.0,,,,
KRDR,03-23-2005,08:00,METAR,,120,3,,,9999,Cloud Development Not Observable,1.0,1.0,30.02,1018.0,,,,0,0,0,,,,,,,,,8/8 Overcast,5500.0,,OVC,5400,,,,,,
KRDR,03-23-2005,07:00,METAR,,130,5,,,9999,Cloud Development Not Observable,1.0,1.0,30.04,1018.7,,,,0,0,0,,,,,,,,,8/8 Overcast,5500.0,,OVC,5400,,,,,,
KRDR,03-23-2005,06:00,METAR,,,1,,,9999,Cloud Development Not Observable,1.0,1.0,30.06,1019.3,,,,0,0,0,,,,,,,IN,,8/8 Overcast,4900.0,,OVC,5000,,,,,,
KRDR,03-23-2005,05:34,SPECI,,,1,,,9999,Mist/Cloud Development Not Observable,1.0,1.0,30.06,,,,,10,0,0,,,,,,,,,8/8 Overcast,4900.0,,OVC,5000,,,,,,
KRDR,03-23-2005,05:00,METAR,,,0,,,8000,Light Snow/Mist/Cloud Development Not Observable,1.0,1.0,30.08,1019.9,,,,71,10,0,,,,,,,,,8/8 Overcast,4900.0,,OVC,5000,,,,,,
KRDR,03-23-2005,04:00,METAR,,150,3,,,6400,Light Snow/Mist/Cloud Development Not Observable,1.0,1.0,30.09,1020.3,,,,71,10,0,,,,,,,,,8/8 Overcast,3400.0,,FEW,2000,BKN,3500.0,OVC,5000.0,,
KRDR,03-23-2005,03:00,METAR,,120,2,,,4800,Light Snow/Mist/Cloud Development Not Observable,1.0,1.0,30.10,1020.7,,,,71,10,0,,,,,,,,,8/8 Overcast,3000.0,,SCT,2000,BKN,3000.0,OVC,5000.0,,
KRDR,03-23-2005,02:00,METAR,,200,1,,,4800,Light Snow/Rain/Mist,1.0,1.0,30.12,1021.5,,,,61,71,10,,,,,,,,,8/8 Overcast,3400.0,,SCT,2000,BKN,3500.0,OVC,5000.0,,
KRDR,03-23-2005,01:10,SPECI,,180,5,,,4800,Light Snow/Rain/Mist,2.0,0.0,30.12,,,,,61,71,10,,,,,,,,,8/8 Overcast,3400.0,,SCT,2000,OVC,3500.0,,,,
KRDR,03-23-2005,01:00,METAR,,170,5,,,4800,Light Snow/Rain/Cloud Development Not Observable,3.0,-1.0,30.12,1021.5,,,,61,71,0,,,,,,,,,8/8 Overcast,3400.0,,SCT,2000,BKN,3500.0,OVC,5900.0,,
KRDR,03-23-2005,00:00,METAR,,180,2,,,9999,Cloud Development Not Observable,3.0,-1.0,30.13,1021.8,,,,0,0,0,,,,,,,,,8/8 Overcast,3400.0,,BKN,3500,OVC,5900.0,,,,
KRDR,03-22-2005,23:00,METAR,,180,5,,,9999,Cloud Development Not Observable,4.0,-1.0,30.13,1021.7,,,,0,0,0,,,,,,,,,8/8 Overcast,3400.0,,BKN,3500,OVC,5900.0,,,,
KRDR,03-22-2005,22:00,METAR,,160,8,,,9999,Cloud Development Not Observable,4.0,-1.0,30.13,1021.7,,,,0,0,0,,,,,,,,,8/8 Overcast,3900.0,,BKN,4000,OVC,5900.0,,,,
KRDR,03-22-2005,21:00,METAR,,160,7,,,9999,Cloud Development Not Observable,4.0,-2.0,30.15,1022.4,,,,0,0,0,,,,,,,,,8/8 Overcast,3900.0,,BKN,4000,OVC,5900.0,,,,
KRDR,03-22-2005,20:00,METAR,,180,7,,,9999,Cloud Development Not Observable,4.0,-2.0,30.16,1022.7,,,,0,0,0,,,,,,,,,8/8 Overcast,3900.0,,BKN,4000,OVC,5900.0,,,,
KRDR,03-22-2005,19:00,METAR,,180,9,,,9999,Cloud Development Not Observable,4.0,-2.0,30.18,1023.6,,,,0,0,0,,,,,,,,,8/8 Overcast,3900.0,,BKN,4000,OVC,5900.0,,,,
KRDR,03-22-2005,18:00,METAR,,170,5,,,9999,Cloud Development Not Observable,5.0,-2.0,30.21,1024.5,,,,0,0,0,,,,,,,,,8/8 Overcast,3900.0,,BKN,4000,OVC,5900.0,,,,
KRDR,03-22-2005,15:00,METAR,,20,2,,,9999,Cloud Development Not Observable,0.0,-1.0,30.23,1025.3,,,,0,0,0,,,,,,,,,8/8 Overcast,3900.0,,BKN,4000,OVC,7900.0,,,,
KRDR,03-22-2005,14:00,METAR,,360,4,,,9999,Cloud Development Not Observable,-1.0,-1.0,30.23,1025.5,,,,0,0,0,,,,,,,,,7/8 Mostly Cloudy,9000.0,,SCT,5000,BKN,8900.0,,,,
KRDR,03-22-2005,13:00,METAR,,340,4,,,9999,Cloud Development Not Observable,-2.0,-2.0,30.24,1025.7,,,,0,0,0,,,,,,,,,7/8 Mostly Cloudy,10000.0,,SCT,5000,BKN,9900.0,,,,
KRDR,03-22-2005,12:00,METAR,,350,3,,,9999,Cloud Development Not Observable,-2.0,-2.0,30.24,1025.7,,,,0,0,0,,,,,,,,,7/8 Mostly Cloudy,10000.0,,SCT,5000,BKN,9900.0,,,,
KRDR,03-22-2005,11:00,METAR,,360,4,,,9999,Cloud Development Not Observable,-2.0,-2.0,30.24,1025.7,,,,0,0,0,,,,,,,,,7/8 Mostly Cloudy,10000.0,,SCT,5000,BKN,9900.0,,,,
KRDR,03-22-2005,10:00,METAR,,330,2,,,9999,Cloud Development Not Observable,-2.0,-2.0,30.25,1025.9,,,,0,0,0,,,,,,,,,7/8 Mostly Cloudy,10000.0,,SCT,5000,BKN,9900.0,,,,
KRDR,03-22-2005,09:00,METAR,,10,2,,,9999,Cloud Development Not Observable,-1.0,-2.0,30.25,1025.9,,,,0,0,0,,,,,,,,,4/8 Partly Cloudy,72000.0,,SCT,5000,SCT,9900.0,,,,
KRDR,03-22-2005,08:00,METAR,,,1,,,9999,Cloud Development Not Observable,0.0,-3.0,30.25,1025.9,,,,0,0,0,,,,,,,,,4/8 Partly Cloudy,72000.0,,SCT,5000,,,,,,
KRDR,03-22-2005,07:00,METAR,,50,1,,,9999,Cloud Development Not Observable,0.0,-3.0,30.25,1026.0,,,,0,0,0,,,,,,,,,4/8 Partly Cloudy,72000.0,,SCT,5900,,,,,,
KRDR,03-22-2005,06:00,METAR,,30,3,,,9999,Cloud Development Not Observable,0.0,-3.0,30.25,1026.1,,,,0,0,0,,,,,,,,,7/8 Mostly Cloudy,12000.0,,SCT,5900,BKN,12000.0,,,,
KRDR,03-22-2005,05:00,METAR,,40,3,,,9999,Cloud Development Not Observable,1.0,-3.0,30.25,1026.1,,,,0,0,0,,,,,,,,,7/8 Mostly Cloudy,10000.0,,SCT,5000,BKN,9900.0,,,,
KRDR,03-22-2005,04:00,METAR,,30,4,,,9999,Cloud Development Not Observable,1.0,-3.0,30.25,1025.9,,,,0,0,0,,,,,,,,,7/8 Mostly Cloudy,10000.0,,SCT,5000,BKN,9900.0,,,,
KRDR,03-22-2005,03:00,METAR,,30,2,,,9999,Cloud Development Not Observable,1.0,-3.0,30.25,1026.0,,,,0,0,0,,,,,,,,,8/8 Overcast,4900.0,,BKN,5000,OVC,7900.0,,,,
KRDR,03-22-2005,02:00,METAR,,30,3,,,9999,Cloud Development Not Observable,1.0,-3.0,30.25,1026.0,,,,0,0,0,,,,,,,,,8/8 Overcast,4900.0,,BKN,5000,OVC,7900.0,,,,
KRDR,03-22-2005,01:00,METAR,,40,3,,,9999,Cloud Development Not Observable,2.0,-3.0,30.25,1026.0,,,,0,0,0,,,,,,,,,8/8 Overcast,4900.0,,BKN,5000,OVC,11000.0,,,,
KRDR,03-22-2005,00:00,METAR,,60,4,,,9999,Cloud Development Not Observable,2.0,-4.0,30.24,1025.7,,,,0,0,0,,,,,,,,,8/8 Overcast,4900.0,,BKN,5000,OVC,11000.0,,,,
KRDR,03-21-2005,23:00,METAR,,110,7,,,9999,Cloud Development Not Observable,3.0,-5.0,30.23,1025.3,,,,0,0,0,,,,,,,,,8/8 Overcast,6000.0,,BKN,5900,OVC,11000.0,,,,
KRDR,03-21-2005,22:00,METAR,,120,7,,,9999,Cloud Development Not Observable,4.0,-4.0,30.23,1025.2,,,,0,0,0,,,,,,,,,7/8 Mostly Cloudy,11000.0,,SCT,6900,BKN,11000.0,,,,
KRDR,03-21-2005,21:00,METAR,,160,9,,,9999,Cloud Development Not Observable,4.0,-4.0,30.23,1025.2,,,,0,0,0,,,,,,,,,7/8 Mostly Cloudy,11000.0,,FEW,7900,BKN,11000.0,,,,
KRDR,03-21-2005,20:00,METAR,,150,7,,,9999,Cloud Development Not Observable,4.0,-4.0,30.23,1025.2,,,,0,0,0,,,,,,,,,8/8 Overcast,11000.0,,SCT,7900,OVC,11000.0,,,,
KRDR,03-21-2005,19:00,METAR,,150,11,,,9999,Cloud Development Not Observable,4.0,-4.0,30.24,1025.6,,,,0,0,0,,,,,,,,,7/8 Mostly Cloudy,8000.0,,BKN,7900,,,,,,
KRDR,03-21-2005,18:00,METAR,,150,9,,,9999,Cloud Development Not Observable,3.0,-4.0,30.24,1025.8,,,,0,0,0,,,,,,,,,7/8 Mostly Cloudy,8000.0,,BKN,7900,,,,,,
KRDR,03-21-2005,17:00,METAR,,140,8,,,9999,Cloud Development Not Observable,2.0,-4.0,30.25,1026.0,,,,0,0,0,,,,,,,,,7/8 Mostly Cloudy,8000.0,,BKN,7900,,,,,,
KRDR,03-21-2005,16:00,METAR,,140,10,,,9999,Cloud Development Not Observable,1.0,-4.0,30.25,1026.2,,,,0,0,0,,,,,,,,,7/8 Mostly Cloudy,8000.0,,BKN,7900,,,,,,
KRDR,03-21-2005,15:00,METAR,,120,5,,,9999,Cloud Development Not Observable,0.0,-4.0,30.25,1026.3,,,,0,0,0,,,,,,,,,8/8 Overcast,8000.0,,BKN,7900,OVC,20000.0,,,,
KRDR,03-21-2005,14:00,METAR,,150,5,,,9999,Cloud Development Not Observable,-1.0,-4.0,30.25,1026.2,,,,0,0,0,,,,,,,,,8/8 Overcast,8000.0,,OVC,7900,,,,,,
KRDR,03-21-2005,13:00,METAR,,20,4,,,9999,Cloud Development Not Observable,-2.0,-4.0,30.23,1025.6,,,,0,0,0,,,,,,,,,7/8 Mostly Cloudy,8000.0,,BKN,7900,BKN,20000.0,,,,
KRDR,03-21-2005,12:00,METAR,,,5,,,9999,Cloud Development Not Observable,-2.0,-4.0,30.23,1025.4,,,,0,0,0,,,,,,,,,7/8 Mostly Cloudy,8000.0,,BKN,7900,,,,,,
KRDR,03-21-2005,11:00,METAR,,,3,,,9999,Cloud Development Not Observable,-2.0,-4.0,30.23,1025.3,,,,0,0,0,,,,,,,,,4/8 Partly Cloudy,72000.0,,SCT,7900,,,,,,
KRDR,03-21-2005,10:00,METAR,,100,4,,,9999,Cloud Development Not Observable,-2.0,-4.0,30.22,1025.0,,,,0,0,0,,,,,,,,,4/8 Partly Cloudy,72000.0,,SCT,7900,,,,,,
KRDR,03-21-2005,09:00,METAR,,50,1,,,9999,Cloud Development Not Observable,-2.0,-4.0,30.22,1025.0,,,,0,0,0,,,,,,,,,4/8 Partly Cloudy,72000.0,,SCT,7900,,,,,,
KRDR,03-21-2005,08:00,METAR,,80,4,,,9999,Cloud Development Not Observable,-2.0,-5.0,30.22,1025.0,,,,0,0,0,,,,,,,,,4/8 Partly Cloudy,72000.0,,SCT,7900,,,,,,
KRDR,03-21-2005,07:00,METAR,,80,5,,,9999,Cloud Development Not Observable,-2.0,-5.0,30.21,1024.7,,,,0,0,0,,,,,,,,,4/8 Partly Cloudy,72000.0,,SCT,7900,SCT,20000.0,,,,
KRDR,03-21-2005,06:00,METAR,,60,5,,,9999,Cloud Development Not Observable,-2.0,-4.0,30.21,1024.8,,,,0,0,0,,,,,,,,,4/8 Partly Cloudy,72000.0,,FEW,7900,SCT,20000.0,,,,
KRDR,03-21-2005,05:00,METAR,,80,4,,,9999,Cloud Development Not Observable,-3.0,-4.0,30.20,1024.6,,,,0,0,0,,,,,,,,,4/8 Partly Cloudy,72000.0,,SCT,7900,SCT,20000.0,,,,
KRDR,03-21-2005,04:00,METAR,,80,5,,,9999,Cloud Development Not Observable,-2.0,-5.0,30.21,1024.9,,,,0,0,0,,,,,,,,,4/8 Partly Cloudy,72000.0,,SCT,9900,SCT,20000.0,,,,
KRDR,03-21-2005,02:00,METAR,,60,5,,,9999,Cloud Development Not Observable,-3.0,-5.0,30.20,1024.7,,,,0,0,0,,,,,,,,,4/8 Partly Cloudy,72000.0,,SCT,9900,SCT,20000.0,,,,
KRDR,03-21-2005,01:00,METAR,,60,5,,,9999,Cloud Development Not Observable,-2.0,-4.0,30.18,1024.2,,,,0,0,0,,,,,,,,,4/8 Partly Cloudy,72000.0,,SCT,9900,SCT,20000.0,,,,
KRDR,03-21-2005,00:00,METAR,,70,6,,,9999,Cloud Development Not Observable,0.0,-3.0,30.18,1024.1,,,,0,0,0,,,,,,,,,4/8 Partly Cloudy,72000.0,,SCT,9900,SCT,20000.0,,,,
KRDR,03-20-2005,23:00,METAR,,100,7,,,9999,Cloud Development Not Observable,2.0,-3.0,30.17,1023.7,,,,0,0,0,,,,,,,,,4/8 Partly Cloudy,72000.0,,SCT,9900,SCT,20000.0,,,,
KRDR,03-20-2005,22:00,METAR,,90,7,,,9999,Cloud Development Not Observable,2.0,-5.0,30.18,1023.9,,,,0,0,0,,,,,,,,,4/8 Partly Cloudy,72000.0,,FEW,9900,SCT,20000.0,,,,
KRDR,03-20-2005,21:00,METAR,,70,7,,,9999,Cloud Development Not Observable,2.0,-6.0,30.18,1023.9,,,,0,0,0,,,,,,,,,7/8 Mostly Cloudy,20000.0,,SCT,9900,BKN,20000.0,,,,
KRDR,03-20-2005,20:00,METAR,,50,4,,,9999,Cloud Development Not Observable,1.0,-6.0,30.20,1024.7,,,,0,0,0,,,,,,,,,7/8 Mostly Cloudy,11000.0,,FEW,6900,BKN,11000.0,,,,
KRDR,03-20-2005,19:00,METAR,,10,4,,,9999,Cloud Development Not Observable,0.0,-6.0,30.21,1025.0,,,,0,0,0,,,,,,,,,4/8 Partly Cloudy,72000.0,,SCT,6900,SCT,12000.0,,,,
KRDR,03-20-2005,18:00,METAR,,20,4,,,9999,Cloud Development Not Observable,-2.0,-6.0,30.22,1025.4,,,,0,0,0,,,,,,,,,2/8 Mostly Clear,72000.0,,FEW,6900,,,,,,
KRDR,03-20-2005,17:00,METAR,,10,2,,,9999,Cloud Development Not Observable,-5.0,-7.0,30.23,1025.8,,,,0,0,0,,,,,,,,,7/8 Mostly Cloudy,7000.0,,BKN,6900,,,,,,
KRDR,03-20-2005,16:00,METAR,,10,4,,,9999,Cloud Development Not Observable,-6.0,-7.0,30.22,1025.5,,,,0,0,0,,,,,,,,,7/8 Mostly Cloudy,15000.0,,SCT,7900,BKN,15000.0,,,,
KRDR,03-20-2005,15:00,METAR,,10,3,,,9999,Cloud Development Not Observable,-8.0,-9.0,30.22,1025.6,,,,0,0,0,,,,,,,,,7/8 Mostly Cloudy,12000.0,,BKN,12000,BKN,15000.0,,,,
KRDR,03-20-2005,14:00,METAR,,10,4,,,9999,Cloud Development Not Observable,-10.0,-10.0,30.22,1025.6,,,,0,0,0,,,,,,,,,7/8 Mostly Cloudy,12000.0,,BKN,12000,,,,,,
KRDR,03-20-2005,13:00,METAR,,360,3,,,9999,Cloud Development Not Observable,-11.0,-11.0,30.23,1025.9,,,,0,0,0,,,,,,,,,7/8 Mostly Cloudy,12000.0,,BKN,12000,,,,,,
KRDR,03-20-2005,12:00,METAR,,10,5,,,9999,Cloud Development Not Observable,-10.0,-10.0,30.22,1025.4,,,,0,0,0,,,,,,,,,4/8 Partly Cloudy,72000.0,,SCT,12000,,,,,,
KRDR,03-20-2005,11:00,METAR,,350,2,,,9999,Cloud Development Not Observable,-11.0,-11.0,30.21,1025.1,,,,0,0,0,,,,,,,,,4/8 Partly Cloudy,72000.0,,SCT,12000,,,,,,
KRDR,03-20-2005,10:00,METAR,,350,3,,,9999,Cloud Development Not Observable,-11.0,-11.0,30.21,1025.3,,,,0,0,0,,,,,,,,,2/8 Mostly Clear,72000.0,,FEW,12000,,,,,,
KRDR,03-20-2005,09:00,METAR,,360,4,,,9999,Cloud Development Not Observable,-10.0,-10.0,30.21,1025.2,,,,0,0,0,,,,,,,,,2/8 Mostly Clear,72000.0,,FEW,7400,,,,,,
KRDR,03-20-2005,08:00,METAR,,350,3,,,9999,Cloud Development Not Observable,-11.0,-11.0,30.21,1025.3,,,,0,0,0,,,,,,,,,2/8 Mostly Clear,72000.0,,FEW,7400,,,,,,
KRDR,03-20-2005,07:00,METAR,,350,4,,,9999,Cloud Development Not Observable,-10.0,-10.0,30.21,1025.2,,,,0,0,0,,,,,,,,,2/8 Mostly Clear,72000.0,,FEW,7400,,,,,,
KRDR,03-20-2005,06:00,METAR,,350,4,,,9999,Cloud Development Not Observable,-9.0,-9.0,30.22,1025.4,,,,0,0,0,,,,,,,,,4/8 Partly Cloudy,72000.0,,SCT,7400,,,,,,
KRDR,03-20-2005,05:00,METAR,,360,6,,,9999,Cloud Development Not Observable,-8.0,-8.0,30.22,1025.4,,,,0,0,0,,,,,,,,,2/8 Mostly Clear,72000.0,,FEW,7400,,,,,,
KRDR,03-20-2005,04:00,METAR,,350,5,,,9999,Cloud Development Not Observable,-8.0,-8.0,30.22,1025.5,,,,0,0,0,,,,,,,,,4/8 Partly Cloudy,72000.0,,FEW,6900,SCT,7900.0,,,,
KRDR,03-20-2005,03:00,METAR,,350,5,,,9999,Cloud Development Not Observable,-8.0,-8.0,30.21,1025.2,,,,0,0,0,,,,,,,,,4/8 Partly Cloudy,72000.0,,FEW,6900,SCT,7900.0,,,,
KRDR,03-20-2005,02:00,METAR,,10,7,,,9999,Cloud Development Not Observable,-6.0,-7.0,30.20,1024.8,,,,0,0,0,,,,,,,,,4/8 Partly Cloudy,72000.0,,FEW,6900,SCT,7900.0,,,,
KRDR,03-20-2005,01:00,METAR,,10,7,,,9999,Cloud Development Not Observable,-4.0,-6.0,30.19,1024.5,,,,0,0,0,,,,,,,,,7/8 Mostly Cloudy,20000.0,,SCT,7900,BKN,20000.0,,,,
KRDR,03-20-2005,00:00,METAR,,30,6,,,9999,Cloud Development Not Observable,-2.0,-7.0,30.19,1024.4,,,,0,0,0,,,,,,,,,7/8 Mostly Cloudy,20000.0,,SCT,7900,BKN,20000.0,,,,
KRDR,03-19-2005,23:00,METAR,,30,8,,,9999,Cloud Development Not Observable,-2.0,-8.0,30.19,1024.4,,,,0,0,0,,,,,,,,,7/8 Mostly Cloudy,20000.0,,SCT,7900,BKN,20000.0,,,,
KRDR,03-19-2005,22:00,METAR,,40,7,,,9999,Cloud Development Not Observable,-1.0,-7.0,30.19,1024.3,,,,0,0,0,,,,,,,,,7/8 Mostly Cloudy,20000.0,,SCT,9900,BKN,20000.0,,,,
KRDR,03-19-2005,21:00,METAR,,30,7,,,9999,Cloud Development Not Observable,-1.0,-7.0,30.19,1024.3,,,,0,0,0,,,,,,,,,7/8 Mostly Cloudy,20000.0,,FEW,9900,BKN,20000.0,,,,
KRDR,03-19-2005,20:00,METAR,,20,8,,,9999,Cloud Development Not Observable,-1.0,-8.0,30.19,1024.3,,,,0,0,0,,,,,,,,,7/8 Mostly Cloudy,20000.0,,FEW,7900,BKN,20000.0,,,,
KRDR,03-19-2005,19:00,METAR,,30,8,,,9999,Cloud Development Not Observable,-1.0,-8.0,30.19,1024.4,,,,0,0,0,,,,,,,,,7/8 Mostly Cloudy,20000.0,,BKN,20000,,,,,,
KRDR,03-19-2005,18:00,METAR,,30,7,,,9999,Cloud Development Not Observable,-2.0,-8.0,30.20,1024.7,,,,0,0,0,,,,,,,,,8/8 Overcast,20000.0,,FEW,7900,OVC,20000.0,,,,
KRDR,03-19-2005,17:00,METAR,,40,6,,,9999,Cloud Development Not Observable,-4.0,-9.0,30.21,1025.0,,,,0,0,0,,,,,,,,,8/8 Overcast,20000.0,,FEW,7900,OVC,20000.0,,,,
KRDR,03-19-2005,16:00,METAR,,10,7,,,9999,Cloud Development Not Observable,-6.0,-10.0,30.21,1025.3,,,,0,0,0,,,,,,,,,7/8 Mostly Cloudy,20000.0,,FEW,7900,BKN,20000.0,,,,
KRDR,03-19-2005,15:00,METAR,,10,8,,,9999,Cloud Development Not Observable,-8.0,-10.0,30.21,1025.3,,,,0,0,0,,,,,,,,,7/8 Mostly Cloudy,11000.0,,SCT,7900,BKN,11000.0,BKN,20000.0,,
KRDR,03-19-2005,14:00,METAR,,360,8,,,9999,Cloud Development Not Observable,-9.0,-10.0,30.21,1025.2,,,,0,0,0,,,,,,,,,7/8 Mostly Cloudy,11000.0,,SCT,7900,BKN,11000.0,,,,
KRDR,03-19-2005,13:00,METAR,,360,8,,,9999,Cloud Development Not Observable,-10.0,-11.0,30.19,1024.6,,,,0,0,0,,,,,,,,,7/8 Mostly Cloudy,7500.0,,BKN,7400,BKN,8900.0,,,,
KRDR,03-19-2005,12:00,METAR,,340,6,,,9999,Cloud Development Not Observable,-11.0,-11.0,30.19,1024.4,,,,0,0,0,,,,,,,,,7/8 Mostly Cloudy,7500.0,,BKN,7400,BKN,8900.0,,,,
KRDR,03-19-2005,11:00,METAR,,340,6,,,9999,Cloud Development Not Observable,-10.0,-10.0,30.18,1024.0,,,,0,0,0,,,,,,,,,7/8 Mostly Cloudy,7500.0,,BKN,7400,BKN,8900.0,,,,
KRDR,03-19-2005,10:00,METAR,,350,6,,,9999,Cloud Development Not Observable,-10.0,-10.0,30.16,1023.4,,,,0,0,0,,,,,,,,,7/8 Mostly Cloudy,8500.0,,BKN,8400,,,,,,
KRDR,03-19-2005,09:00,METAR,,350,6,,,9999,Cloud Development Not Observable,-9.0,-9.0,30.17,1023.6,,,,0,0,0,,,,,,,,,4/8 Partly Cloudy,72000.0,,SCT,8400,,,,,,
KRDR,03-19-2005,08:00,METAR,,350,8,,,9999,Cloud Development Not Observable,-9.0,-9.0,30.17,1023.6,,,,0,0,0,,,,,,,,,4/8 Partly Cloudy,72000.0,,SCT,9900,,,,,,
KRDR,03-19-2005,07:00,METAR,,350,8,,,9999,Cloud Development Not Observable,-8.0,-9.0,30.17,1023.6,,,,0,0,0,,,,,,,,,7/8 Mostly Cloudy,9000.0,,BKN,8900,,,,,,
KRDR,03-19-2005,06:00,METAR,,360,8,,,9999,Cloud Development Not Observable,-7.0,-8.0,30.17,1023.5,,,,0,0,0,,,,,,,,,4/8 Partly Cloudy,72000.0,,SCT,9900,,,,,,
KRDR,03-19-2005,05:00,METAR,,360,10,,,9999,Cloud Development Not Observable,-6.0,-7.0,30.17,1023.8,,,,0,0,0,,,,,,,,,2/8 Mostly Clear,72000.0,,FEW,25000,,,,,,
KRDR,03-19-2005,04:00,METAR,,360,11,,,9999,Cloud Development Not Observable,-6.0,-7.0,30.18,1024.2,,,,0,0,0,,,,,,,,,2/8 Mostly Clear,72000.0,,FEW,25000,,,,,,
KRDR,03-19-2005,03:00,METAR,,360,10,,,9999,Cloud Development Not Observable,-6.0,-8.0,30.17,1023.9,,,,0,0,0,,,,,,,,,4/8 Partly Cloudy,72000.0,,FEW,9900,SCT,25000.0,,,,
KRDR,03-19-2005,02:00,METAR,,360,14,,,9999,Cloud Development Not Observable,-5.0,-8.0,30.16,1023.5,,,,0,0,0,,,,,,,,,7/8 Mostly Cloudy,25000.0,,SCT,9900,BKN,25000.0,,,,
KRDR,03-19-2005,01:00,METAR,,360,10,,,9999,Cloud Development Not Observable,-5.0,-7.0,30.15,1023.2,,,,0,0,0,,,,,,,,,7/8 Mostly Cloudy,25000.0,,SCT,9900,BKN,25000.0,,,,
KRDR,03-19-2005,00:00,METAR,,350,10,,,9999,Cloud Development Not Observable,-4.0,-6.0,30.15,1023.2,,,,0,0,0,,,,,,,,,4/8 Partly Cloudy,72000.0,,FEW,9900,SCT,25000.0,,,,
KRDR,03-18-2005,23:00,METAR,,10,11,,,9999,Cloud Development Not Observable,-3.0,-6.0,30.13,1022.5,,,,0,0,0,,,,,,,,,4/8 Partly Cloudy,72000.0,,SCT,25000,,,,,,
KRDR,03-18-2005,22:00,METAR,,30,12,,,9999,Cloud Development Not Observable,-1.0,-7.0,30.13,1022.4,,,,0,0,0,,,,,,,,,4/8 Partly Cloudy,72000.0,,SCT,25000,,,,,,
KRDR,03-18-2005,21:00,METAR,,20,13,,,9999,Cloud Development Not Observable,-1.0,-8.0,30.12,1021.9,,,,0,0,0,,,,,,,,,7/8 Mostly Cloudy,25000.0,,BKN,25000,,,,,,
KRDR,03-18-2005,20:00,METAR,,30,10,,,9999,Cloud Development Not Observable,-1.0,-7.0,30.11,1021.7,,,,0,0,0,,,,,,,,,7/8 Mostly Cloudy,25000.0,,BKN,25000,,,,,,
KRDR,03-18-2005,19:00,METAR,,10,11,,,9999,Cloud Development Not Observable,-2.0,-7.0,30.12,1022.0,,,,0,0,0,,,,,,,,,7/8 Mostly Cloudy,25000.0,,FEW,9900,BKN,25000.0,,,,
KRDR,03-18-2005,18:00,METAR,,20,9,,,9999,Cloud Development Not Observable,-2.0,-7.0,30.12,1021.9,,,,0,0,0,,,,,,,,,7/8 Mostly Cloudy,25000.0,,FEW,9900,BKN,25000.0,,,,
KRDR,03-18-2005,17:00,METAR,,10,7,,,9999,Cloud Development Not Observable,-4.0,-9.0,30.12,1022.0,,,,0,0,0,,,,,,,,,7/8 Mostly Cloudy,25000.0,,FEW,9900,BKN,25000.0,,,,
KRDR,03-18-2005,16:00,METAR,,10,9,,,9999,Cloud Development Not Observable,-6.0,-10.0,30.13,1022.2,,,,0,0,0,,,,,,,,,4/8 Partly Cloudy,72000.0,,FEW,9900,SCT,25000.0,,,,
KRDR,03-18-2005,15:00,METAR,,360,8,,,9999,Cloud Development Not Observable,-7.0,-11.0,30.13,1022.2,,,,0,0,0,,,,,,,,,7/8 Mostly Cloudy,25000.0,,SCT,9900,BKN,25000.0,,,,
KRDR,03-18-2005,14:00,METAR,,350,8,,,9999,Cloud Development Not Observable,-8.0,-10.0,30.12,1022.1,,,,0,0,0,,,,,,,,,7/8 Mostly Cloudy,25000.0,,SCT,9900,BKN,25000.0,,,,
KRDR,03-18-2005,13:00,METAR,,350,5,,,9999,Cloud Development Not Observable,-9.0,-10.0,30.10,1021.2,,,,0,0,0,,,,,,,,,7/8 Mostly Cloudy,25000.0,,SCT,9900,BKN,25000.0,,,,
KRDR,03-18-2005,12:00,METAR,,350,5,,,9999,Cloud Development Not Observable,-10.0,-10.0,30.09,1021.0,,,,0,0,0,,,,,,,,,2/8 Mostly Clear,72000.0,,FEW,25000,,,,,,
KRDR,03-18-2005,11:00,METAR,,350,4,,,9999,Cloud Development Not Observable,-10.0,-11.0,30.07,1020.3,,,,0,0,0,,,,,,,,,2/8 Mostly Clear,72000.0,,FEW,25000,,,,,,
KRDR,03-18-2005,10:00,METAR,,330,3,,,9999,Cloud Development Not Observable,-9.0,-10.0,30.06,1019.8,,,,0,0,0,,,,,,,,,2/8 Mostly Clear,72000.0,,FEW,25000,,,,,,
KRDR,03-18-2005,09:00,METAR,,350,7,,,9999,Cloud Development Not Observable,-8.0,-10.0,30.06,1019.8,,,,0,0,0,,,,,,,,,2/8 Mostly Clear,72000.0,,FEW,25000,,,,,,
KRDR,03-18-2005,08:00,METAR,,350,5,,,9999,Cloud Development Not Observable,-9.0,-10.0,30.06,1019.8,,,,0,0,0,,,,,,,,,2/8 Mostly Clear,72000.0,,FEW,25000,,,,,,
KRDR,03-18-2005,07:00,METAR,,360,5,,,9999,Cloud Development Not Observable,-9.0,-10.0,30.06,1019.9,,,,0,0,0,,,,,,,,,2/8 Mostly Clear,72000.0,,FEW,25000,,,,,,
KRDR,03-18-2005,06:00,METAR,,30,4,,,9999,Cloud Development Not Observable,-6.0,-9.0,30.06,1019.8,,,,0,0,0,,,,,,,,,2/8 Mostly Clear,72000.0,,FEW,25000,,,,,,
KRDR,03-18-2005,05:00,METAR,,40,6,,,9999,Cloud Development Not Observable,-6.0,-9.0,30.06,1019.9,,,,0,0,0,,,,,,,,,2/8 Mostly Clear,72000.0,,FEW,25000,,,,,,
KRDR,03-18-2005,04:00,METAR,,40,6,,,9999,Cloud Development Not Observable,-5.0,-9.0,30.05,1019.6,,,,0,0,0,,,,,,,,,2/8 Mostly Clear,72000.0,,FEW,25000,,,,,,
KRDR,03-18-2005,03:00,METAR,,50,7,,,9999,Cloud Development Not Observable,-4.0,-9.0,30.05,1019.7,,,,0,0,0,,,,,,,,,4/8 Partly Cloudy,72000.0,,FEW,12000,SCT,25000.0,,,,
KRDR,03-18-2005,02:00,METAR,,50,8,,,9999,Cloud Development Not Observable,-4.0,-8.0,30.05,1019.8,,,,0,0,0,,,,,,,,,4/8 Partly Cloudy,72000.0,,FEW,12000,SCT,25000.0,,,,
KRDR,03-18-2005,01:00,METAR,,30,9,,,9999,Cloud Development Not Observable,-3.0,-7.0,30.03,1019.1,,,,0,0,0,,,,,,,,,4/8 Partly Cloudy,72000.0,,FEW,12000,SCT,25000.0,,,,
KRDR,03-18-2005,00:00,METAR,,70,8,,,9999,Cloud Development Not Observable,-1.0,-8.0,30.01,1018.4,,,,0,0,0,,,,,,,,,4/8 Partly Cloudy,72000.0,,FEW,12000,SCT,25000.0,,,,
KRDR,03-17-2005,23:00,METAR,,60,11,,,9999,Cloud Development Not Observable,0.0,-7.0,29.99,1017.5,,,,0,0,0,,,,,,,,,2/8 Mostly Clear,72000.0,,FEW,25000,,,,,,
KRDR,03-17-2005,22:00,METAR,,80,10,,,9999,Cloud Development Not Observable,1.0,-6.0,29.99,1017.5,,,,0,0,0,,,,,,,,,4/8 Partly Cloudy,72000.0,,FEW,2000,SCT,25000.0,,,,
KRDR,03-17-2005,21:00,METAR,,70,10,,,9999,Cloud Development Not Observable,1.0,-5.0,29.98,1017.2,,,,0,0,0,,,,,,,,,4/8 Partly Cloudy,72000.0,,FEW,2000,SCT,25000.0,,,,
KRDR,03-17-2005,20:00,METAR,,80,9,,,9999,Cloud Development Not Observable,0.0,-5.0,29.99,1017.5,,,,0,0,0,,,,,,,,,2/8 Mostly Clear,72000.0,,FEW,6900,FEW,25000.0,,,,
KRDR,03-17-2005,19:00,METAR,,70,8,,,9999,Cloud Development Not Observable,-1.0,-5.0,30.00,1017.9,,,,0,0,0,,,,,,,,,2/8 Mostly Clear,72000.0,,FEW,6900,FEW,25000.0,,,,
KRDR,03-17-2005,18:00,METAR,,40,4,,,9999,Cloud Development Not Observable,-2.0,-5.0,30.02,1018.6,,,,0,0,0,,,,,,,,,4/8 Partly Cloudy,72000.0,,FEW,5000,SCT,25000.0,,,,
KRDR,03-17-2005,17:00,METAR,,40,3,,,9999,Cloud Development Not Observable,-5.0,-8.0,30.05,1019.7,,,,0,0,0,,,,,,,,,7/8 Mostly Cloudy,25000.0,,FEW,5000,BKN,25000.0,,,,
KRDR,03-17-2005,16:00,METAR,,50,3,,,9999,Cloud Development Not Observable,-8.0,-9.0,30.05,1019.7,,,,0,0,0,,,,,,,,,2/8 Mostly Clear,72000.0,,FEW,7900,FEW,12000.0,,,,
KRDR,03-17-2005,15:00,METAR,,10,2,,,9999,Mist/Cloud Development Not Observable,-10.0,-11.0,30.05,1019.8,,,,10,0,0,,,,,,,,,4/8 Partly Cloudy,72000.0,,FEW,7900,SCT,12000.0,,,,
KRDR,03-17-2005,14:00,METAR,,360,3,,,9999,Mist/Cloud Development Not Observable,-13.0,-13.0,30.05,1020.0,,,,10,0,0,,,,,,,,,4/8 Partly Cloudy,72000.0,,FEW,7900,SCT,12000.0,,,,
KRDR,03-17-2005,13:00,METAR,,360,5,,,9999,Cloud Development Not Observable,-14.0,-14.0,30.05,1020.0,,,,0,0,0,,,,,,,,,7/8 Mostly Cloudy,12000.0,,FEW,5000,BKN,12000.0,,,,
KRDR,03-17-2005,12:00,METAR,,330,3,,,9999,Cloud Development Not Observable,-15.0,-15.0,30.05,1020.0,,,,0,0,0,,,,,,,,,2/8 Mostly Clear,72000.0,,FEW,12000,,,,,,
KRDR,03-17-2005,11:00,METAR,,330,4,,,9999,Cloud Development Not Observable,-13.0,-13.0,30.04,1019.5,,,,0,0,0,,,,,,,,,4/8 Partly Cloudy,72000.0,,SCT,12000,,,,,,
KRDR,03-17-2005,10:00,METAR,,360,4,,,9999,Cloud Development Not Observable,-13.0,-13.0,30.05,1019.8,,,,0,0,0,,,,,,,,,4/8 Partly Cloudy,72000.0,,FEW,3000,SCT,12000.0,,,,
KRDR,03-17-2005,09:00,METAR,,330,3,,,6400,Cloud Development Not Observable,-13.0,-13.0,30.06,1020.2,,,,0,0,0,,,,,,,,,4/8 Partly Cloudy,72000.0,,SCT,3000,,,,,,
KRDR,03-17-2005,08:00,METAR,,340,4,,,9999,Cloud Development Not Observable,-13.0,-13.0,30.07,1020.6,,,,0,0,0,,,,,,,,,4/8 Partly Cloudy,72000.0,,SCT,3000,SCT,12000.0,,,,
KRDR,03-17-2005,07:00,METAR,,10,5,,,9999,Cloud Development Not Observable,-11.0,-11.0,30.07,1020.7,,,,0,0,0,,,,,,,,,4/8 Partly Cloudy,72000.0,,SCT,3000,SCT,15000.0,,,,
KRDR,03-17-2005,06:00,METAR,,350,4,,,9999,Cloud Development Not Observable,-10.0,-10.0,30.09,1021.0,,,,0,0,0,,,,,,,,,7/8 Mostly Cloudy,12000.0,,SCT,3000,BKN,12000.0,,,,
KRDR,03-17-2005,05:00,METAR,,340,4,,,9999,Cloud Development Not Observable,-9.0,-9.0,30.10,1021.4,,,,0,0,0,,,,,,,,,7/8 Mostly Cloudy,11000.0,,SCT,3000,BKN,11000.0,,,,
KRDR,03-17-2005,04:00,METAR,,350,3,,,9999,Cloud Development Not Observable,-7.0,-7.0,30.11,1021.7,,,,0,0,0,,,,,,,,,7/8 Mostly Cloudy,3000.0,,FEW,2200,BKN,3000.0,BKN,9900.0,,
KRDR,03-17-2005,03:00,METAR,,360,3,,,9999,Cloud Development Not Observable,-7.0,-7.0,30.11,1021.7,,,,0,0,0,,,,,,,,,7/8 Mostly Cloudy,3200.0,,FEW,2200,BKN,3300.0,BKN,9900.0,,
KRDR,03-17-2005,02:00,METAR,,350,5,,,9999,Cloud Development Not Observable,-7.0,-8.0,30.12,1022.1,,,,0,0,0,,,,,,,,,7/8 Mostly Cloudy,3000.0,,BKN,3000,BKN,25000.0,,,,
KRDR,03-17-2005,01:00,METAR,,360,3,,,9999,Cloud Development Not Observable,-7.0,-8.0,30.12,1022.0,,,,0,0,0,,,,,,,,,7/8 Mostly Cloudy,25000.0,,SCT,2000,BKN,25000.0,,,,
KRDR,03-17-2005,00:00,METAR,,20,8,,,9999,Cloud Development Not Observable,-6.0,-7.0,30.10,1021.2,,,,0,0,0,,,,,,,,,4/8 Partly Cloudy,72000.0,,FEW,2200,FEW,9900.0,SCT,25000.0,,
KRDR,03-16-2005,23:00,METAR,,360,7,,,9999,Cloud Development Not Observable,-5.0,-6.0,30.11,1021.6,,,,0,0,0,,,,,,,,,7/8 Mostly Cloudy,10000.0,,SCT,2200,BKN,9900.0,,,,
KRDR,03-16-2005,22:00,METAR,,360,5,,,9999,Cloud Development Not Observable,-4.0,-6.0,30.11,1021.5,,,,0,0,0,,,,,,,,,7/8 Mostly Cloudy,2200.0,,BKN,2200,,,,,,
KRDR,03-16-2005,21:00,METAR,,360,8,,,9999,Cloud Development Not Observable,-4.0,-6.0,30.11,1021.5,,,,0,0,0,,,,,,,,,8/8 Overcast,2000.0,,BKN,2000,OVC,7900.0,,,,
KRDR,03-16-2005,20:00,METAR,,10,6,,,9999,Cloud Development Not Observable,-5.0,-7.0,30.12,1022.0,,,,0,0,0,,,,,,,,,8/8 Overcast,2000.0,,OVC,2000,,,,,,
KRDR,03-16-2005,19:00,METAR,,350,8,,,9999,Cloud Development Not Observable,-6.0,-8.0,30.12,1022.0,,,,0,0,0,,,,,,,,,8/8 Overcast,2100.0,,OVC,2100,,,,,,
KRDR,03-16-2005,18:00,METAR,,340,7,,,9999,Cloud Development Not Observable,-7.0,-8.0,30.13,1022.2,,,,0,0,0,,,,,,,IN,,8/8 Overcast,1100.0,,BKN,1100,OVC,2300.0,,,,
KRDR,03-16-2005,17:00,METAR,,340,8,,,9999,Cloud Development Not Observable,-7.0,-8.0,30.13,1022.2,,,,0,0,0,,,,,,,,,8/8 Overcast,1300.0,,SCT,1000,OVC,1300.0,,,,
KRDR,03-16-2005,16:38,SPECI,,350,9,,,9999,Cloud Development Not Observable,-7.0,-8.0,30.13,,,,,0,0,0,,,,,,,,,8/8 Overcast,2500.0,,FEW,1000,BKN,2500.0,OVC,4000.0,,
KRDR,03-16-2005,16:00,METAR,,340,9,,,9999,Light Snow/Cloud Development Not Observable,-8.0,-9.0,30.13,1022.2,,,,71,0,0,,,,,,,,,8/8 Overcast,2500.0,,SCT,1000,BKN,2500.0,OVC,4000.0,,
KRDR,03-16-2005,15:42,SPECI,,350,10,,,9999,Light Snow/Cloud Development Not Observable,-8.0,-9.0,30.13,,,,,71,0,0,,,,,,,,,8/8 Overcast,2500.0,,FEW,1000,BKN,2500.0,OVC,4000.0,,
KRDR,03-16-2005,15:00,METAR,,340,11,,,9999,Cloud Development Not Observable,-8.0,-8.0,30.12,1021.8,,,,0,0,0,,,,,,TRACE,,,8/8 Overcast,2500.0,,FEW,1000,BKN,2500.0,OVC,4000.0,,
KRDR,03-16-2005,14:23,SPECI,,350,10,,,9999,Cloud Development Not Observable,-8.0,-8.0,30.11,,,,,0,0,0,,,,,,,,,7/8 Mostly Cloudy,2500.0,,SCT,1100,BKN,2500.0,BKN,4000.0,,
KRDR,03-16-2005,14:00,METAR,,350,10,,,9999,Cloud Development Not Observable,-9.0,-9.0,30.09,1021.0,,,,0,0,0,,,,,,,,,7/8 Mostly Cloudy,1100.0,,FEW,700,BKN,1100.0,BKN,4000.0,,
KRDR,03-16-2005,13:38,SPECI,,350,10,,,9999,Cloud Development Not Observable,-9.0,-9.0,30.09,,,,,0,0,0,,,,,,,,,7/8 Mostly Cloudy,1100.0,,FEW,700,BKN,1100.0,BKN,4000.0,,
KRDR,03-16-2005,13:00,METAR,,350,11,,,6400,Light Snow/Mist/Cloud Development Not Observable,-8.0,-8.0,30.08,1020.6,,,,71,10,0,,,,,,,,,8/8 Overcast,1200.0,,FEW,800,BKN,1200.0,OVC,1500.0,,
KRDR,03-16-2005,12:23,SPECI,,360,10,,,8000,Light Snow/Mist/Cloud Development Not Observable,-7.0,-7.0,30.08,,,,,71,10,0,,,,,,,,,8/8 Overcast,1000.0,,OVC,1000,,,,,,
KRDR,03-16-2005,12:00,METAR,,350,10,,,9999,Cloud Development Not Observable,-7.0,-7.0,30.07,1020.3,,,,0,0,0,,,,,,,IN,.05 IN,8/8 Overcast,1000.0,,SCT,700,OVC,1000.0,,,,
KRDR,03-16-2005,11:00,METAR,,350,10,,,9999,Light Snow/Cloud Development Not Observable,-7.0,-7.0,30.05,1019.6,,,,71,0,0,,,,,,,,,8/8 Overcast,1000.0,,SCT,600,OVC,1000.0,,,,
KRDR,03-16-2005,10:40,SPECI,,360,11,,,9999,Light Snow/Cloud Development Not Observable,-6.0,-6.0,30.05,,,,,71,0,0,,,,,,,,,8/8 Overcast,1000.0,,SCT,800,BKN,1000.0,OVC,5000.0,,
KRDR,03-16-2005,10:00,METAR,,40,4,,,9999,Cloud Development Not Observable,-6.0,-6.0,30.03,1018.8,,,,0,0,0,,,,,,,,,8/8 Overcast,1300.0,,SCT,800,OVC,1300.0,,,,
KRDR,03-16-2005,09:00,METAR,,20,4,,,9999,Cloud Development Not Observable,-6.0,-6.0,30.02,1018.4,,,,0,0,0,,,,,,,,,8/8 Overcast,1000.0,,SCT,700,BKN,1000.0,OVC,2000.0,,
KRDR,03-16-2005,08:00,METAR,,10,6,,,9999,Cloud Development Not Observable,-5.0,-5.0,30.00,1017.7,,,,0,0,0,,,,,,,,,8/8 Overcast,1000.0,,SCT,700,BKN,1000.0,OVC,2000.0,,
KRDR,03-16-2005,07:00,METAR,,360,5,,,9999,Cloud Development Not Observable,-4.0,-4.0,30.00,1017.7,,,,0,0,0,,,,,,,,,8/8 Overcast,1000.0,,SCT,700,BKN,1000.0,OVC,2000.0,,
KRDR,03-16-2005,06:00,METAR,,,3,,,9999,Cloud Development Not Observable,-3.0,-4.0,30.00,1017.7,,,,0,0,0,,,,,,,.02 IN,,8/8 Overcast,1000.0,,SCT,700,BKN,1000.0,OVC,2000.0,,
KRDR,03-16-2005,05:00,METAR,,,2,,,8000,Mist/Cloud Development Not Observable,-4.0,-4.0,30.00,1017.7,,,,10,0,0,,,,,,,,,8/8 Overcast,1000.0,,SCT,700,BKN,1000.0,OVC,2000.0,,
KRDR,03-16-2005,04:00,METAR,,90,6,,,4800,Mist/Cloud Development Not Observable,-3.0,-3.0,29.99,1017.5,,,,10,0,0,,,,,,,,,8/8 Overcast,1000.0,,BKN,1000,OVC,2000.0,,,,
KRDR,03-16-2005,03:25,METAR,,110,7,,,4800,Mist/Cloud Development Not Observable,-3.0,-3.0,29.99,,,,,10,0,0,,,,,,,,,8/8 Overcast,1000.0,,BKN,1000,OVC,2000.0,,,,
KRDR,03-16-2005,03:00,METAR,,110,8,,,4800,Light Snow/Mist/Cloud Development Not Observable,-3.0,-3.0,29.99,1017.5,,,,71,10,0,,,,,,.02 IN,,,8/8 Overcast,1000.0,,BKN,1000,OVC,2000.0,,,,
KRDR,03-16-2005,02:00,METAR,,100,8,,,3200,Light Snow/Mist/Cloud Development Not Observable,-3.0,-3.0,29.99,1017.7,,,,71,10,0,,,,,,,,,8/8 Overcast,1000.0,,BKN,1000,OVC,2000.0,,,,
KRDR,03-16-2005,01:00,METAR,,100,10,,,3200,Light Snow/Mist/Cloud Development Not Observable,-3.0,-3.0,29.99,1017.7,,,,71,10,0,,,,,,,,,8/8 Overcast,1200.0,,BKN,1200,OVC,2000.0,,,,
KRDR,03-16-2005,00:27,SPECI,,100,9,,,3200,Mist/Cloud Development Not Observable,-3.0,-3.0,29.99,,,,,10,0,0,,,,,,,,,8/8 Overcast,1300.0,,OVC,1300,,,,,,
KRDR,03-16-2005,00:06,SPECI,,110,9,,,2400,Light Snow/Mist/Cloud Development Not Observable,-3.0,-3.0,29.99,,,,,71,10,0,,,,,,,,,8/8 Overcast,1200.0,,OVC,1200,,,,,,
KRDR,03-16-2005,00:00,METAR,,110,9,,,1600,Light Snow/Mist/Cloud Development Not Observable,-3.0,-3.0,29.99,1017.7,,,,71,10,0,,,,,,,.03 IN,,8/8 Overcast,1200.0,,OVC,1200,,,,,,
KRDR,03-15-2005,23:33,SPECI,,110,10,,,1600,Light Snow/Mist/Cloud Development Not Observable,-3.0,-3.0,29.99,,,,,71,10,0,,,,,,,,,8/8 Overcast,2000.0,,BKN,2000,OVC,3000.0,,,,
KRDR,03-15-2005,23:00,METAR,,110,12,,,800,Snow/Mist/Cloud Development Not Observable,-3.0,-3.0,29.99,1017.7,,,,73,10,0,,,,,,,,,8/8 Overcast,1200.0,,OVC,1200,,,,,,
KRDR,03-15-2005,22:10,SPECI,,130,11,,,1200,Light Snow/Mist/Cloud Development Not Observable,-3.0,-4.0,29.99,,,,,71,10,0,,,,,,,,,8/8 Overcast,1500.0,,BKN,1500,OVC,3000.0,,,,
KRDR,03-15-2005,22:00,METAR,,130,12,,,3200,Mist/Cloud Development Not Observable,-3.0,-4.0,29.99,1017.7,,,,10,0,0,,,,,,,,,8/8 Overcast,1500.0,,BKN,1500,OVC,3500.0,,,,
KRDR,03-15-2005,21:44,SPECI,,130,12,,,3200,Light Snow/Mist/Cloud Development Not Observable,-3.0,-5.0,30.00,,,,,71,10,0,,,,,,,,,8/8 Overcast,2000.0,,BKN,2000,OVC,3500.0,,,,
KRDR,03-15-2005,21:30,METAR,,130,13,,,1600,Light Snow/Mist/Cloud Development Not Observable,-3.0,-5.0,30.00,,,,,71,10,0,,,,,,,,,8/8 Overcast,2000.0,,BKN,2000,OVC,3500.0,,,,
KRDR,03-15-2005,21:10,SPECI,,130,11,18.0,,3200,Light Snow/Mist/Cloud Development Not Observable,-3.0,-5.0,30.00,,,,,71,10,0,,,,,,,,,8/8 Overcast,2000.0,,BKN,2000,OVC,4000.0,,,,
KRDR,03-15-2005,21:00,METAR,,140,12,,,1600,Light Snow/Mist/Cloud Development Not Observable,-3.0,-5.0,30.00,,,,,71,10,0,,,,,,,,,8/8 Overcast,2000.0,,BKN,2000,OVC,5900.0,,,,
KRDR,03-15-2005,20:42,SPECI,,140,13,,,3200,Light Snow/Cloud Development Not Observable,-3.0,-6.0,30.00,,,,,71,0,0,,,,,,,,,8/8 Overcast,2000.0,,BKN,2000,OVC,5900.0,,,,
KRDR,03-15-2005,20:00,METAR,,40,6,18.0,,9999,Cloud Development Not Observable,-2.0,-7.0,30.00,1018.0,,,,0,0,0,,,,,,,,,7/8 Mostly Cloudy,11000.0,,FEW,3000,SCT,11000.0,BKN,20000.0,,
KRDR,03-15-2005,19:00,METAR,,80,4,18.0,,9999,Cloud Development Not Observable,-2.0,-7.0,30.02,1018.8,,,,0,0,0,,,,,,,,,4/8 Partly Cloudy,72000.0,,FEW,11000,SCT,20000.0,,,,
KRDR,03-15-2005,18:00,METAR,,90,7,18.0,,9999,Cloud Development Not Observable,-3.0,-7.0,30.03,1019.1,,,,0,0,0,,,,,,,,,2/8 Mostly Clear,72000.0,,FEW,11000,FEW,20000.0,,,,
KRDR,03-15-2005,17:00,METAR,,,5,,,9999,Cloud Development Not Observable,-5.0,-8.0,30.05,1020.0,,,,0,0,0,,,,,,,,,2/8 Mostly Clear,72000.0,,FEW,15000,FEW,20000.0,,,,
KRDR,03-15-2005,16:00,METAR,,150,11,,,9999,Cloud Development Not Observable,-7.0,-9.0,30.06,1020.2,,,,0,0,0,,,,,,,,,2/8 Mostly Clear,72000.0,,FEW,15000,FEW,20000.0,,,,
KRDR,03-15-2005,15:00,METAR,,140,3,,,9999,Cloud Development Not Observable,-10.0,-11.0,30.07,1020.7,,,,0,0,0,,,,,,,,,2/8 Mostly Clear,72000.0,,FEW,15000,FEW,20000.0,,,,
KRDR,03-15-2005,14:00,METAR,,140,4,,,9999,Cloud Development Not Observable,-13.0,-13.0,30.07,1020.8,,,,0,0,0,,,,,,,,,2/8 Mostly Clear,72000.0,,FEW,20000,,,,,,
KRDR,03-15-2005,13:00,METAR,,,2,,,9999,Cloud Development Not Observable,-14.0,-14.0,30.07,1020.8,,,,0,0,0,,,,,,,,,4/8 Partly Cloudy,72000.0,,FEW,12000,SCT,20000.0,,,,
KRDR,03-15-2005,12:00,METAR,,140,2,,,9999,Cloud Development Not Observable,-14.0,-14.0,30.08,1020.8,,,,0,0,0,,,,,,,,,4/8 Partly Cloudy,72000.0,,FEW,12000,SCT,20000.0,,,,
KRDR,03-15-2005,11:00,METAR,,140,3,,,9999,Cloud Development Not Observable,-14.0,-14.0,30.09,1021.2,,,,0,0,0,,,,,,,,,4/8 Partly Cloudy,72000.0,,FEW,12000,SCT,20000.0,,,,
KRDR,03-15-2005,10:00,METAR,,,2,,,9999,Cloud Development Not Observable,-13.0,-13.0,30.09,1021.4,,,,0,0,0,,,,,,,,,4/8 Partly Cloudy,72000.0,,FEW,12000,SCT,20000.0,,,,
KRDR,03-15-2005,09:00,METAR,,190,3,,,9999,Cloud Development Not Observable,-13.0,-13.0,30.10,1021.5,,,,0,0,0,,,,,,,,,7/8 Mostly Cloudy,20000.0,,SCT,12000,BKN,20000.0,,,,
KRDR,03-15-2005,08:00,METAR,,190,3,,,9999,Cloud Development Not Observable,-13.0,-13.0,30.11,1021.8,,,,0,0,0,,,,,,,,,4/8 Partly Cloudy,72000.0,,FEW,9900,SCT,20000.0,,,,
KRDR,03-15-2005,07:00,METAR,,190,2,,,9999,Cloud Development Not Observable,-13.0,-13.0,30.11,1022.1,,,,0,0,0,,,,,,,,,4/8 Partly Cloudy,72000.0,,FEW,9900,SCT,20000.0,,,,
KRDR,03-15-2005,06:00,METAR,,230,3,,,9999,Cloud Development Not Observable,-12.0,-12.0,30.12,1022.2,,,,0,0,0,,,,,,,,,2/8 Mostly Clear,72000.0,,FEW,20000,,,,,,
KRDR,03-15-2005,04:00,METAR,,220,2,,,9999,Cloud Development Not Observable,-11.0,-11.0,30.12,1022.2,,,,0,0,0,,,,,,,,,4/8 Partly Cloudy,72000.0,,FEW,4000,SCT,7900.0,SCT,20000.0,,
KRDR,03-15-2005,03:00,METAR,,190,4,,,9999,Cloud Development Not Observable,-11.0,-11.0,30.12,1022.2,,,,0,0,0,,,,,,,,,7/8 Mostly Cloudy,8000.0,,SCT,4000,SCT,7900.0,BKN,20000.0,,
KRDR,03-15-2005,02:00,METAR,,,0,,,9999,Cloud Development Not Observable,-10.0,-10.0,30.13,1022.7,,,,0,0,0,,,,,,,,,7/8 Mostly Cloudy,8000.0,,SCT,3500,SCT,7900.0,BKN,20000.0,,
KRDR,03-15-2005,01:00,METAR,,210,5,,,9999,Cloud Development Not Observable,-8.0,-10.0,30.12,1022.2,,,,0,0,0,,,,,,,,,7/8 Mostly Cloudy,8000.0,,SCT,3500,BKN,7900.0,BKN,20000.0,,
KRDR,03-15-2005,00:00,METAR,,200,3,,,9999,Cloud Development Not Observable,-7.0,-10.0,30.12,1022.2,,,,0,0,0,,,,,,,IN,,7/8 Mostly Cloudy,3000.0,,FEW,2000,SCT,3000.0,BKN,7900.0,BKN,20000.0
KRDR,03-14-2005,23:00,METAR,,210,3,,,9999,Cloud Development Not Observable,-7.0,-10.0,30.12,1022.2,,,,0,0,0,,,,,,,,,7/8 Mostly Cloudy,8000.0,,SCT,3000,BKN,7900.0,BKN,20000.0,,
KRDR,03-14-2005,22:00,METAR,,200,5,,,9999,Cloud Development Not Observable,-7.0,-11.0,30.13,1022.6,,,,0,0,0,,,,,,,,,7/8 Mostly Cloudy,4900.0,,FEW,2000,BKN,5000.0,BKN,20000.0,,
KRDR,03-14-2005,21:40,SPECI,,230,5,,,9999,Cloud Development Not Observable,-7.0,-11.0,30.13,,,,,0,0,0,,,,,,,,,7/8 Mostly Cloudy,4900.0,,FEW,2000,BKN,5000.0,BKN,20000.0,,
KRDR,03-14-2005,21:00,METAR,,,1,,,9999,Light Snow Showers/Cloud Development Not Observable,-7.0,-10.0,30.12,1022.2,,,,85,0,0,,,,,,TRACE,,,8/8 Overcast,4900.0,,FEW,2500,OVC,5000.0,,,,
KRDR,03-14-2005,20:40,SPECI,,,4,,,8000,Light Snow Showers/Mist/Cloud Development Not Observable,-6.0,-10.0,30.12,,,,,85,10,0,,,,,,,,,8/8 Overcast,4900.0,,SCT,2500,OVC,5000.0,,,,
KRDR,03-14-2005,20:28,SPECI,,,4,,,9999,Mist/Cloud Development Not Observable,-6.0,-10.0,30.13,,,,,10,0,0,,,,,,,,,8/8 Overcast,4700.0,,SCT,2000,OVC,4800.0,,,,
KRDR,03-14-2005,20:00,METAR,,,3,,,8000,Light Snow/Mist/Cloud Development Not Observable,-6.0,-10.0,30.13,1022.7,,,,71,10,0,,,,,,,,,8/8 Overcast,2000.0,,BKN,2000,OVC,3400.0,,,,
KRDR,03-14-2005,19:09,SPECI,,,2,,,4800,Light Snow/Mist/Cloud Development Not Observable,-7.0,-10.0,30.14,,,,,71,10,0,,,,,,,,,8/8 Overcast,1800.0,,BKN,1800,OVC,2500.0,,,,
KRDR,03-14-2005,19:00,METAR,,,4,,,6400,Light Snow/Mist/Cloud Development Not Observable,-7.0,-9.0,30.14,1023.0,,,,71,10,0,,,,,,,,,8/8 Overcast,1800.0,,BKN,1800,OVC,2500.0,,,,
KRDR,03-14-2005,18:00,METAR,,,4,,,4800,Light Snow/Mist/Cloud Development Not Observable,-8.0,-10.0,30.16,1023.6,,,,71,10,0,,,,,,,IN,,8/8 Overcast,2000.0,,BKN,2000,OVC,3200.0,,,,
KRDR,03-14-2005,17:19,SPECI,,,2,,,4800,Light Snow/Mist/Cloud Development Not Observable,-9.0,-10.0,30.16,,,,,71,10,0,,,,,,,,,8/8 Overcast,1700.0,,BKN,1700,OVC,2500.0,,,,
KRDR,03-14-2005,17:00,METAR,,,1,,,8000,Light Snow/Cloud Development Not Observable,-9.0,-10.0,30.17,1024.1,,,,71,0,0,,,,,,,,,8/8 Overcast,4400.0,,SCT,1700,OVC,4500.0,,,,
KRDR,03-14-2005,16:00,METAR,,,3,,,8000,Light Snow/Cloud Development Not Observable,-9.0,-11.0,30.17,1023.9,,,,71,0,0,,,,,,,,,8/8 Overcast,3100.0,,BKN,3200,OVC,4000.0,,,,
KRDR,03-14-2005,15:00,METAR,,,1,,,9999,Cloud Development Not Observable,-10.0,-11.0,30.16,1023.6,,,,0,0,0,,,,,,,,,8/8 Overcast,3900.0,,FEW,2900,BKN,4000.0,OVC,9400.0,,
KRDR,03-14-2005,14:00,METAR,,,3,,,9999,Cloud Development Not Observable,-12.0,-12.0,30.16,1023.7,,,,0,0,0,,,,,,,,,8/8 Overcast,3900.0,,SCT,2500,BKN,4000.0,OVC,7900.0,,
KRDR,03-14-2005,13:00,METAR,,,1,,,9999,Cloud Development Not Observable,-13.0,-13.0,30.15,1023.6,,,,0,0,0,,,,,,,,,8/8 Overcast,3900.0,,SCT,3100,OVC,4000.0,,,,
KRDR,03-14-2005,12:00,METAR,,,0,,,9999,Cloud Development Not Observable,-13.0,-13.0,30.13,1022.6,,,,0,0,0,,,,,,,,.02 IN,8/8 Overcast,3900.0,,SCT,2000,BKN,4000.0,OVC,7900.0,,
KRDR,03-14-2005,11:00,METAR,,260,1,,,9999,Cloud Development Not Observable,-14.0,-14.0,30.13,1022.6,,,,0,0,0,,,,,,,,,8/8 Overcast,3900.0,,SCT,2000,BKN,4000.0,OVC,6400.0,,
KRDR,03-14-2005,10:00,METAR,,260,2,,,9999,Cloud Development Not Observable,-14.0,-14.0,30.13,1022.6,,,,0,0,0,,,,,,,,,8/8 Overcast,3000.0,,SCT,2600,BKN,3000.0,OVC,6400.0,,
KRDR,03-14-2005,09:00,METAR,,300,1,,,9999,Cloud Development Not Observable,-13.0,-13.0,30.13,1022.5,,,,0,0,0,,,,,,TRACE,,,8/8 Overcast,3100.0,,SCT,2800,BKN,3100.0,OVC,6400.0,,
KRDR,03-14-2005,08:00,METAR,,360,4,,,9999,Cloud Development Not Observable,-12.0,-13.0,30.13,1022.5,,,,0,0,0,,,,,,,,,8/8 Overcast,3100.0,,SCT,2800,BKN,3100.0,OVC,6400.0,,
KRDR,03-14-2005,07:00,METAR,,10,5,,,9999,Cloud Development Not Observable,-11.0,-12.0,30.12,1022.3,,,,0,0,0,,,,,,,,,8/8 Overcast,3900.0,,FEW,2000,SCT,4000.0,OVC,6400.0,,
KRDR,03-14-2005,06:18,SPECI,,350,5,,,9999,Cloud Development Not Observable,-11.0,-11.0,30.11,,,,,0,0,0,,,,,,,,,8/8 Overcast,3400.0,,FEW,2000,SCT,3500.0,OVC,6900.0,,
KRDR,03-14-2005,06:00,METAR,,10,5,,,9999,Light Snow/Cloud Development Not Observable,-10.0,-11.0,30.11,1021.9,,,,71,0,0,,,,,,,.02 IN,,8/8 Overcast,3900.0,,BKN,4000,OVC,6400.0,,,,
KRDR,03-14-2005,05:00,METAR,,20,6,,,9999,Light Snow/Cloud Development Not Observable,-10.0,-11.0,30.11,1022.0,,,,71,0,0,,,,,,,,,8/8 Overcast,3900.0,,BKN,4000,OVC,5900.0,,,,
KRDR,03-14-2005,04:00,METAR,,360,7,,,9999,Light Snow/Cloud Development Not Observable,-9.0,-11.0,30.10,1021.6,,,,71,0,0,,,,,,,,,8/8 Overcast,3900.0,,BKN,4000,OVC,5900.0,,,,
KRDR,03-14-2005,03:00,METAR,,360,6,,,9999,Light Snow/Cloud Development Not Observable,-10.0,-10.0,30.08,1021.1,,,,71,0,0,,,,,,.02 IN,,,8/8 Overcast,3900.0,,BKN,4000,OVC,5900.0,,,,
KRDR,03-14-2005,02:00,METAR,,360,7,,,9999,Light Snow/Mist/Cloud Development Not Observable,-10.0,-10.0,30.07,1020.8,,,,71,10,0,,,,,,,,,8/8 Overcast,3400.0,,OVC,3500,,,,,,
KRDR,03-14-2005,01:10,SPECI,,360,7,,,8000,Light Snow/Mist/Cloud Development Not Observable,-9.0,-10.0,30.06,,,,,71,10,0,,,,,,,,,8/8 Overcast,3400.0,,FEW,2000,OVC,3500.0,,,,
KRDR,03-14-2005,01:00,METAR,,10,8,,,4800,Light Snow/Mist/Cloud Development Not Observable,-9.0,-9.0,30.05,1020.0,,,,71,10,0,,,,,,,,,8/8 Overcast,2000.0,,BKN,2000,OVC,3500.0,,,,
KRDR,03-14-2005,00:40,SPECI,,10,7,,,3200,Light Snow/Mist/Cloud Development Not Observable,-9.0,-9.0,30.05,,,,,71,10,0,,,,,,,,,8/8 Overcast,2000.0,,BKN,2000,OVC,3500.0,,,,
KRDR,03-14-2005,00:09,SPECI,,10,7,,,1200,Snow/Cloud Development Not Observable,-8.0,-9.0,30.04,,,,,73,0,0,,,,,,,,,8/8 Overcast,2000.0,,OVC,2000,,,,,,
KRDR,03-14-2005,00:00,METAR,,10,9,,,2800,Snow/Cloud Development Not Observable,-8.0,-9.0,30.03,1019.3,,,,73,0,0,,,,,,,IN,,8/8 Overcast,2000.0,,OVC,2000,,,,,,
KRDR,03-13-2005,23:35,SPECI,,330,8,,,9999,Light Snow/Cloud Development Not Observable,-7.0,-10.0,30.02,,,,,71,0,0,,,,,,,,,8/8 Overcast,3900.0,,SCT,2000,OVC,4000.0,,,,
KRDR,03-13-2005,23:00,METAR,,340,12,,,9999,Cloud Development Not Observable,-7.0,-11.0,30.01,1018.6,,,,0,0,0,,,,,,,,,8/8 Overcast,3900.0,,SCT,2000,OVC,4000.0,,,,
KRDR,03-13-2005,22:00,METAR,,340,9,,,9999,Cloud Development Not Observable,-6.0,-11.0,30.00,1018.1,,,,0,0,0,,,,,,,,,8/8 Overcast,6000.0,,SCT,2000,OVC,5900.0,,,,
KRDR,03-13-2005,21:00,METAR,,340,9,,,9999,Cloud Development Not Observable,-6.0,-11.0,29.99,1017.8,,,,0,0,0,,,,,,TRACE,,,7/8 Mostly Cloudy,6000.0,,SCT,2200,BKN,5900.0,BKN,20000.0,,
KRDR,03-13-2005,20:44,SPECI,,300,9,,,9999,Cloud Development Not Observable,-6.0,-11.0,29.98,,,,,0,0,0,,,,,,,,,7/8 Mostly Cloudy,6000.0,,SCT,2000,BKN,5900.0,BKN,20000.0,,
KRDR,03-13-2005,20:00,METAR,,320,10,,,9999,Light Snow/Cloud Development Not Observable,-6.0,-11.0,29.98,1017.3,,,,71,0,0,,,,,,,,,7/8 Mostly Cloudy,6000.0,,SCT,2600,BKN,5900.0,BKN,20000.0,,
KRDR,03-13-2005,19:00,METAR,,340,7,,,9999,Cloud Development Not Observable,-7.0,-12.0,29.97,1017.1,,,,0,0,0,,,,,,,,,7/8 Mostly Cloudy,20000.0,,SCT,2600,BKN,20000.0,,,,
KRDR,03-13-2005,18:00,METAR,,290,9,,,9999,Cloud Development Not Observable,-7.0,-11.0,29.97,1017.1,,,,0,0,0,,,,,,,,,7/8 Mostly Cloudy,6000.0,,FEW,1600,SCT,5900.0,BKN,20000.0,,
KRDR,03-13-2005,17:00,METAR,,290,9,,,9999,Cloud Development Not Observable,-8.0,-12.0,29.95,1016.6,,,,0,0,0,,,,,,,,,4/8 Partly Cloudy,72000.0,,FEW,5900,SCT,20000.0,,,,
KRDR,03-13-2005,16:00,METAR,,290,12,,,9999,Cloud Development Not Observable,-9.0,-13.0,29.95,1016.6,,,,0,0,0,,,,,,,,,4/8 Partly Cloudy,72000.0,,FEW,6900,SCT,20000.0,,,,
KRDR,03-13-2005,15:00,METAR,,290,14,,,9999,Cloud Development Not Observable,-12.0,-14.0,29.95,1016.5,,,,0,0,0,,,,,,,,,4/8 Partly Cloudy,72000.0,,SCT,6900,,,,,,
KRDR,03-13-2005,14:00,METAR,,280,10,,,9999,Cloud Development Not Observable,-13.0,-15.0,29.93,1015.8,,,,0,0,0,,,,,,,,,4/8 Partly Cloudy,72000.0,,SCT,5000,,,,,,
KRDR,03-13-2005,13:00,METAR,,290,11,,,9999,Cloud Development Not Observable,-14.0,-16.0,29.92,1015.4,,,,0,0,0,,,,,,,,,2/8 Mostly Clear,72000.0,,FEW,5000,,,,,,
KRDR,03-13-2005,12:00,METAR,,290,11,,,9999,Cloud Development Not Observable,-14.0,-16.0,29.91,1015.1,,,,0,0,0,,,,,,,,,Clear,72000.0,,,73000,,,,,,
KRDR,03-13-2005,11:00,METAR,,290,8,,,9999,Cloud Development Not Observable,-14.0,-16.0,29.89,1014.4,,,,0,0,0,,,,,,,,,Clear,72000.0,,,73000,,,,,,
KRDR,03-13-2005,10:00,METAR,,290,6,,,9999,Cloud Development Not Observable,-13.0,-15.0,29.87,1013.9,,,,0,0,0,,,,,,,,,Clear,72000.0,,,73000,,,,,,
KRDR,03-13-2005,09:00,METAR,,300,8,,,9999,Cloud Development Not Observable,-12.0,-14.0,29.87,1013.9,,,,0,0,0,,,,,,,,,Clear,72000.0,,,73000,,,,,,
KRDR,03-13-2005,08:00,METAR,,300,8,,,9999,Cloud Development Not Observable,-11.0,-14.0,29.87,1013.7,,,,0,0,0,,,,,,,,,Clear,72000.0,,,73000,,,,,,
KRDR,03-13-2005,07:00,METAR,,300,8,,,9999,Cloud Development Not Observable,-11.0,-13.0,29.86,1013.4,,,,0,0,0,,,,,,,,,Clear,72000.0,,,73000,,,,,,
KRDR,03-13-2005,06:00,METAR,,290,7,,,9999,Cloud Development Not Observable,-11.0,-13.0,29.85,1013.3,,,,0,0,0,,,,,,,,,Clear,72000.0,,,73000,,,,,,
KRDR,03-13-2005,05:00,METAR,,310,7,,,9999,Cloud Development Not Observable,-10.0,-11.0,29.85,1013.3,,,,0,0,0,,,,,,,,,Clear,72000.0,,,73000,,,,,,
KRDR,03-13-2005,04:00,METAR,,290,6,,,9999,Cloud Development Not Observable,-10.0,-11.0,29.86,1013.6,,,,0,0,0,,,,,,,,,Clear,72000.0,,,73000,,,,,,
KRDR,03-13-2005,03:00,METAR,,300,6,,,9999,Cloud Development Not Observable,-9.0,-10.0,29.86,1013.6,,,,0,0,0,,,,,,,,,Clear,72000.0,,,73000,,,,,,
KRDR,03-13-2005,02:00,METAR,,300,4,,,9999,Cloud Development Not Observable,-9.0,-10.0,29.85,1013.3,,,,0,0,0,,,,,,,,,2/8 Mostly Clear,72000.0,,FEW,20000,,,,,,
KRDR,03-13-2005,01:00,METAR,,290,6,,,9999,Cloud Development Not Observable,-7.0,-10.0,29.85,1013.2,,,,0,0,0,,,,,,,,,2/8 Mostly Clear,72000.0,,FEW,1900,FEW,20000.0,,,,
KRDR,03-13-2005,00:00,METAR,,300,14,,,9999,Cloud Development Not Observable,-6.0,-11.0,29.84,1012.9,,,,0,0,0,,,,,,,,,2/8 Mostly Clear,72000.0,,FEW,1900,FEW,20000.0,,,,
KRDR,03-12-2005,23:00,METAR,,310,15,,,9999,Cloud Development Not Observable,-5.0,-11.0,29.83,1012.4,,,,0,0,0,,,,,,,,,2/8 Mostly Clear,72000.0,,FEW,1900,FEW,20000.0,,,,
KRDR,03-12-2005,22:00,METAR,,300,11,,,9999,Cloud Development Not Observable,-6.0,-12.0,29.82,1012.1,,,,0,0,0,,,,,,,,,2/8 Mostly Clear,72000.0,,FEW,20000,,,,,,
KRDR,03-12-2005,21:00,METAR,,310,13,,,9999,Cloud Development Not Observable,-6.0,-12.0,29.82,1012.2,,,,0,0,0,,,,,,,,,2/8 Mostly Clear,72000.0,,FEW,20000,,,,,,
KRDR,03-12-2005,20:00,METAR,,280,11,,,9999,Cloud Development Not Observable,-7.0,-12.0,29.82,1012.2,,,,0,0,0,,,,,,,,,2/8 Mostly Clear,72000.0,,FEW,12000,,,,,,
KRDR,03-12-2005,19:00,METAR,,280,9,,,9999,Cloud Development Not Observable,-8.0,-14.0,29.82,1012.2,,,,0,0,0,,,,,,,,,2/8 Mostly Clear,72000.0,,FEW,9900,,,,,,
KRDR,03-12-2005,18:00,METAR,,290,8,,,9999,Cloud Development Not Observable,-9.0,-14.0,29.81,1011.9,,,,0,0,0,,,,,,,IN,,2/8 Mostly Clear,72000.0,,FEW,11000,,,,,,
KRDR,03-12-2005,17:00,METAR,,300,7,,,9999,Cloud Development Not Observable,-10.0,-14.0,29.80,1011.6,,,,0,0,0,,,,,,,,,2/8 Mostly Clear,72000.0,,FEW,12000,,,,,,
KRDR,03-12-2005,16:12,SPECI,,,6,,,9999,Cloud Development Not Observable,-11.0,-14.0,29.78,,,,,0,0,0,,,,,,,,,4/8 Partly Cloudy,72000.0,,FEW,5900,SCT,12000.0,,,,
KRDR,03-12-2005,16:00,METAR,,,6,,,9999,Light Snow/Cloud Development Not Observable,-12.0,-15.0,29.78,1011.0,,,,71,0,0,,,,,,,,,7/8 Mostly Cloudy,12000.0,,SCT,5900,BKN,12000.0,,,,
KRDR,03-12-2005,15:39,SPECI,,,5,,,9999,Light Snow/Cloud Development Not Observable,-13.0,-15.0,29.77,,,,,71,0,0,,,,,,,,,8/8 Overcast,6000.0,,OVC,5900,,,,,,
KRDR,03-12-2005,15:00,METAR,,310,3,,,9999,Light Snow/Cloud Development Not Observable,-14.0,-16.0,29.76,1010.4,,,,71,0,0,,,,,,TRACE,,,8/8 Overcast,6000.0,,SCT,2200,OVC,5900.0,,,,
KRDR,03-12-2005,14:00,METAR,,,3,,,9999,Light Snow/Cloud Development Not Observable,-15.0,-18.0,29.74,1009.7,,,,71,0,0,,,,,,,,,8/8 Overcast,6000.0,,SCT,2700,BKN,5900.0,OVC,8900.0,,
KRDR,03-12-2005,13:39,SPECI,,330,3,,,9999,Light Snow/Cloud Development Not Observable,-15.0,-18.0,29.74,,,,,71,0,0,,,,,,,,,7/8 Mostly Cloudy,6000.0,,SCT,2300,BKN,5900.0,BKN,8900.0,,
KRDR,03-12-2005,13:00,METAR,,,3,,,9999,Cloud Development Not Observable,-15.0,-18.0,29.73,1009.4,,,,0,0,0,,,,,,,,,7/8 Mostly Cloudy,9000.0,,SCT,5900,BKN,8900.0,,,,
KRDR,03-12-2005,12:00,METAR,,350,3,,,9999,Cloud Development Not Observable,-16.0,-18.0,29.71,1008.6,,,,0,0,0,,,,,,,,.04 IN,8/8 Overcast,6000.0,,OVC,5900,,,,,,
KRDR,03-12-2005,11:00,METAR,,10,5,,,9999,Cloud Development Not Observable,-16.0,-18.0,29.70,1008.3,,,,0,0,0,,,,,,,,,8/8 Overcast,6000.0,,OVC,5900,,,,,,
KRDR,03-12-2005,10:00,METAR,,360,7,,,9999,Cloud Development Not Observable,-15.0,-18.0,29.69,1008.0,,,,0,0,0,,,,,,,,,8/8 Overcast,6000.0,,OVC,5900,,,,,,
KRDR,03-12-2005,09:00,METAR,,10,5,,,9999,Cloud Development Not Observable,-16.0,-18.0,29.68,1007.7,,,,0,0,0,,,,,,,,,8/8 Overcast,9000.0,,OVC,8900,,,,,,
KRDR,03-12-2005,08:00,METAR,,360,9,,,9999,Cloud Development Not Observable,-16.0,-18.0,29.69,1007.9,,,,0,0,0,,,,,,,,,8/8 Overcast,9000.0,,OVC,8900,,,,,,
KRDR,03-12-2005,07:00,METAR,,20,8,,,9999,Cloud Development Not Observable,-16.0,-18.0,29.67,1007.2,,,,0,0,0,,,,,,,,,8/8 Overcast,9000.0,,OVC,8900,,,,,,
KRDR,03-12-2005,06:00,METAR,,20,9,,,9999,Cloud Development Not Observable,-16.0,-18.0,29.68,1007.5,,,,0,0,0,,,,,,,,,8/8 Overcast,9000.0,,OVC,8900,,,,,,
KRDR,03-12-2005,05:00,METAR,,350,8,,,9999,Cloud Development Not Observable,-16.0,-18.0,29.72,1008.8,,,,0,0,0,,,,,,,,,8/8 Overcast,10000.0,,OVC,9900,,,,,,
KRDR,03-12-2005,04:00,METAR,,360,8,,,9999,Cloud Development Not Observable,-16.0,-17.0,29.72,1008.6,,,,0,0,0,,,,,,,,,7/8 Mostly Cloudy,10000.0,,BKN,9900,,,,,,
KRDR,03-12-2005,03:00,METAR,,10,10,,,9999,Cloud Development Not Observable,-16.0,-17.0,29.73,1008.9,,,,0,0,0,,,,,,,,,7/8 Mostly Cloudy,8000.0,,BKN,7900,BKN,9900.0,,,,
KRDR,03-12-2005,02:00,METAR,,360,10,,,9999,Cloud Development Not Observable,-16.0,-17.0,29.75,1009.5,,,,0,0,0,,,,,,,,,7/8 Mostly Cloudy,8500.0,,BKN,8400,,,,,,
KRDR,03-12-2005,01:00,METAR,,360,12,,,9999,Cloud Development Not Observable,-16.0,-17.0,29.75,1009.6,,,,0,0,0,,,,,,,,,7/8 Mostly Cloudy,11000.0,,FEW,2000,FEW,3000.0,BKN,11000.0,,
KRDR,03-12-2005,00:00,METAR,,360,15,,330/26KTS,9999,Drifting Snow/Cloud Development Not Observable,-15.0,-17.0,29.75,1009.6,,,,36,0,0,,,,,,,,,7/8 Mostly Cloudy,3000.0,,FEW,1500,SCT,3000.0,BKN,7900.0,,
KRDR,03-11-2005,23:00,METAR,,360,20,25.0,360/27KTS,9999,Drifting Snow/Cloud Development Not Observable,-14.0,-17.0,29.74,1009.3,,,,36,0,0,,,,,,,,,7/8 Mostly Cloudy,8000.0,,FEW,1500,FEW,3000.0,BKN,7900.0,,
KRDR,03-11-2005,22:41,SPECI,,350,21,25.0,,9999,Drifting Snow/Cloud Development Not Observable,-14.0,-17.0,29.73,,,,,36,0,0,,,,,,,,,7/8 Mostly Cloudy,8000.0,,FEW,1500,FEW,3000.0,BKN,7900.0,,
KRDR,03-11-2005,22:00,METAR,,360,21,,350/29KTS,9999,Blowing Snow/Cloud Development Not Observable,-13.0,-16.0,29.72,1008.4,,,,38,0,0,,,,,,,,,7/8 Mostly Cloudy,3000.0,,FEW,1500,SCT,3000.0,BKN,7900.0,,
KRDR,03-11-2005,21:28,SPECI,,10,19,28.0,,9999,Blowing Snow/Cloud Development Not Observable,-13.0,-15.0,29.71,,,,,38,0,0,,,,,,,,,7/8 Mostly Cloudy,3000.0,,FEW,1500,SCT,3000.0,BKN,7900.0,,
KRDR,03-11-2005,21:00,METAR,,360,26,31.0,360/31KTS,1600,Blowing Snow/Cloud Development Not Observable,-12.0,-15.0,29.71,1008.2,,,,38,0,0,,,,,,,,,7/8 Mostly Cloudy,3000.0,,FEW,1500,SCT,3000.0,BKN,7900.0,,
KRDR,03-11-2005,20:46,SPECI,,360,24,28.0,,1200,Blowing Snow/Cloud Development Not Observable,-12.0,-15.0,29.71,,,,,38,0,0,,,,,,,,,7/8 Mostly Cloudy,3000.0,,FEW,1500,SCT,3000.0,BKN,7900.0,,
KRDR,03-11-2005,20:18,SPECI,,10,20,26.0,,3200,Blowing Snow/Cloud Development Not Observable,-11.0,-13.0,29.69,,,,,38,0,0,,,,,,,,,7/8 Mostly Cloudy,3000.0,,FEW,1500,SCT,3000.0,BKN,7900.0,,
KRDR,03-11-2005,20:00,METAR,,360,23,29.0,360/29KTS,2400,Blowing Snow/Cloud Development Not Observable,-11.0,-13.0,29.68,1007.2,,,,38,0,0,,,,,,,,,7/8 Mostly Cloudy,3000.0,,SCT,1500,BKN,3000.0,BKN,6900.0,,
KRDR,03-11-2005,19:30,METAR,,10,21,27.0,,3200,Blowing Snow/Cloud Development Not Observable,-10.0,-12.0,29.69,,,,,38,0,0,,,,,,,,,7/8 Mostly Cloudy,3000.0,,SCT,1500,BKN,3000.0,BKN,5900.0,,
KRDR,03-11-2005,19:10,SPECI,,10,20,,,3200,Blowing Snow/Cloud Development Not Observable,-10.0,-11.0,29.68,,,,,38,0,0,,,,,,,,,7/8 Mostly Cloudy,1500.0,,BKN,1500,BKN,3000.0,BKN,5900.0,,
KRDR,03-11-2005,19:00,METAR,,10,20,25.0,360/27KTS,3200,Light Snow/Blowing Snow/Cloud Development Not Observable,-10.0,-11.0,29.68,1007.2,,,,71,38,0,,,,,,,,,7/8 Mostly Cloudy,1500.0,,BKN,1500,BKN,3000.0,,,,
KRDR,03-11-2005,18:40,SPECI,,10,21,27.0,,3200,Light Snow/Blowing Snow/Cloud Development Not Observable,-10.0,-11.0,29.67,,,,,71,38,0,,,,,,,,,7/8 Mostly Cloudy,1200.0,,BKN,1200,BKN,3000.0,,,,
KRDR,03-11-2005,18:29,SPECI,,10,18,24.0,,1600,Light Snow/Blowing Snow/Cloud Development Not Observable,-9.0,-10.0,29.65,,,,,71,38,0,,,,,,,,,8/8 Overcast,1200.0,,BKN,1200,OVC,3000.0,,,,
KRDR,03-11-2005,18:18,SPECI,,20,20,25.0,,1200,Light Snow/Blowing Snow/Cloud Development Not Observable,-9.0,-9.0,29.65,,,,,71,38,0,,,,,,,,,8/8 Overcast,1500.0,,OVC,1500,,,,,,
KRDR,03-11-2005,18:00,METAR,,20,17,25.0,010/27KTS,800,Light Snow/Blowing Snow/Cloud Development Not Observable,-8.0,-9.0,29.65,1006.1,,,,71,38,0,,,,,,,.01 IN,,8/8 Overcast,1500.0,,OVC,1500,,,,,,
KRDR,03-11-2005,17:44,SPECI,,10,20,25.0,,1200,Light Snow/Blowing Snow/Cloud Development Not Observable,-8.0,-8.0,29.65,,,,,71,38,0,,,,,,,,,8/8 Overcast,1500.0,,BKN,1500,OVC,2000.0,,,,
KRDR,03-11-2005,17:27,SPECI,,10,17,27.0,,800,Light Snow/Blowing Snow/Cloud Development Not Observable,-7.0,-8.0,29.65,,,,,71,38,0,,,,,,,,,8/8 Overcast,1500.0,,FEW,500,BKN,1500.0,OVC,2000.0,,
KRDR,03-11-2005,17:15,SPECI,,360,21,27.0,,400,Light Snow/Blowing Snow/Cloud Development Not Observable,-8.0,-8.0,29.64,,,,,71,38,0,,,,,,,,,8/8 Overcast,1000.0,,FEW,500,BKN,1000.0,OVC,2000.0,,
KRDR,03-11-2005,17:00,METAR,,10,20,28.0,020/34KTS,800,Light Snow/Blowing Snow/Cloud Development Not Observable,-7.0,-7.0,29.63,1005.4,,,,71,38,0,,,,,,,,,8/8 Overcast,1000.0,,FEW,500,BKN,1000.0,OVC,2000.0,,
KRDR,03-11-2005,16:45,METAR,,20,21,28.0,,400,Light Snow/Blowing Snow/Cloud Development Not Observable,-7.0,-7.0,29.63,,,,,71,38,0,,,,,,,,,8/8 Overcast,1000.0,,FEW,500,BKN,1000.0,OVC,2000.0,,
KRDR,03-11-2005,16:20,METAR,,20,27,34.0,,400,Light Snow/Blowing Snow/Cloud Development Not Observable,-5.0,-7.0,29.61,,,,,71,38,0,,,,,,,,,8/8 Overcast,1000.0,,BKN,1000,OVC,2000.0,,,,
KRDR,03-11-2005,16:00,METAR,,310,12,,,1600,Light Snow/Mist/Cloud Development Not Observable,-1.0,-2.0,29.59,1003.7,,,,71,10,0,,,,,,,,,8/8 Overcast,2000.0,,BKN,2000,OVC,3000.0,,,,
KRDR,03-11-2005,15:39,SPECI,,310,12,,,1600,Light Snow/Mist/Cloud Development Not Observable,-1.0,-3.0,29.60,,,,,71,10,0,,,,,,,,,8/8 Overcast,2000.0,,BKN,2000,OVC,3000.0,,,,
KRDR,03-11-2005,15:00,METAR,,290,13,,,9999,Light Snow/Mist/Cloud Development Not Observable,-1.0,-3.0,29.61,1004.3,,,,71,10,0,,,,,,TRACE,,,8/8 Overcast,3000.0,,SCT,2000,BKN,3000.0,OVC,4500.0,,
KRDR,03-11-2005,14:35,SPECI,,280,11,,,3200,Light Snow/Mist/Cloud Development Not Observable,-2.0,-3.0,29.62,,,,,71,10,0,,,,,,,,,8/8 Overcast,3000.0,,SCT,2000,BKN,3000.0,OVC,4000.0,,
KRDR,03-11-2005,14:00,METAR,,280,9,,,4800,Light Snow/Mist/Cloud Development Not Observable,-2.0,-3.0,29.64,1005.3,,,,71,10,0,,,,,,,,,8/8 Overcast,3000.0,,BKN,3000,OVC,4500.0,,,,
KRDR,03-11-2005,13:42,SPECI,,330,5,,,2400,Light Snow/Mist/Cloud Development Not Observable,-3.0,-4.0,29.66,,,,,71,10,0,,,,,,,,,8/8 Overcast,3000.0,,BKN,3000,OVC,5000.0,,,,
KRDR,03-11-2005,13:22,SPECI,,330,8,,,1600,Light Snow/Mist/Cloud Development Not Observable,-3.0,-4.0,29.68,,,,,71,10,0,,,,,,,,,8/8 Overcast,3400.0,,BKN,3500,OVC,5000.0,,,,
KRDR,03-11-2005,13:15,SPECI,,320,6,,,8000,Light Snow/Mist/Cloud Development Not Observable,-3.0,-5.0,29.69,,,,,71,10,0,,,,,,,,,8/8 Overcast,4900.0,,SCT,3500,BKN,5000.0,OVC,8900.0,,
KRDR,03-11-2005,13:00,METAR,,360,6,,,9999,Cloud Development Not Observable,-4.0,-5.0,29.71,1007.7,,,,0,0,0,,,,,,,,,8/8 Overcast,9000.0,,FEW,5000,OVC,8900.0,,,,
KRDR,03-11-2005,12:00,METAR,,,3,,,9999,Cloud Development Not Observable,-5.0,-5.0,29.74,1008.7,,,,0,0,0,,,,,,,IN,,8/8 Overcast,9000.0,,OVC,8900,,,,,,
KRDR,03-11-2005,11:00,METAR,,,4,,,9999,Cloud Development Not Observable,-6.0,-6.0,29.77,1010.0,,,,0,0,0,,,,,,,,,7/8 Mostly Cloudy,4900.0,,SCT,3400,BKN,5000.0,BKN,8900.0,,
KRDR,03-11-2005,10:00,METAR,,340,9,,,9999,Cloud Development Not Observable,-4.0,-5.0,29.80,1010.8,,,,0,0,0,,,,,,,,,7/8 Mostly Cloudy,3300.0,,BKN,3400,BKN,5000.0,,,,
KRDR,03-11-2005,09:00,METAR,,330,13,,,9999,Cloud Development Not Observable,-2.0,-4.0,29.82,1011.6,,,,0,0,0,,,,,,TRACE,,,7/8 Mostly Cloudy,5500.0,,BKN,5400,,,,,,
KRDR,03-11-2005,08:00,METAR,,310,6,,,9999,Light Snow/Cloud Development Not Observable,-2.0,-4.0,29.83,1012.0,,,,71,0,0,,,,,,,,,8/8 Overcast,4900.0,,OVC,5000,,,,,,
KRDR,03-11-2005,07:22,SPECI,,290,3,,,9999,Cloud Development Not Observable,-3.0,-5.0,29.86,,,,,0,0,0,,,,,,,,,7/8 Mostly Cloudy,4900.0,,FEW,3500,BKN,5000.0,,,,
KRDR,03-11-2005,07:00,METAR,,290,5,,,9999,Light Snow/Cloud Development Not Observable,-3.0,-5.0,29.86,,,,,71,0,0,,,,,,,,,7/8 Mostly Cloudy,4900.0,,FEW,3500,BKN,5000.0,,,,
KRDR,03-11-2005,06:00,METAR,,290,6,,,9999,Cloud Development Not Observable,-4.0,-6.0,29.88,1013.8,,,,0,0,0,,,,,,,,,7/8 Mostly Cloudy,5500.0,,BKN,5400,,,,,,
KRDR,03-11-2005,05:00,METAR,,290,6,,,9999,Cloud Development Not Observable,-4.0,-6.0,29.91,1014.5,,,,0,0,0,,,,,,,,,7/8 Mostly Cloudy,4900.0,,BKN,5000,,,,,,
KRDR,03-11-2005,04:00,METAR,,330,9,,,9999,Cloud Development Not Observable,-3.0,-5.0,29.91,1014.7,,,,0,0,0,,,,,,,,,7/8 Mostly Cloudy,5500.0,,SCT,4000,BKN,5400.0,,,,
KRDR,03-11-2005,03:00,METAR,,330,6,,,9999,Cloud Development Not Observable,-3.0,-4.0,29.92,1014.8,,,,0,0,0,,,,,,,,,4/8 Partly Cloudy,72000.0,,FEW,4000,SCT,5900.0,,,,
KRDR,03-11-2005,02:00,METAR,,340,8,,,9999,Cloud Development Not Observable,-2.0,-4.0,29.92,1014.8,,,,0,0,0,,,,,,,,,8/8 Overcast,3000.0,,SCT,2200,BKN,3000.0,OVC,5900.0,,
KRDR,03-11-2005,01:00,METAR,,340,8,,,9999,Cloud Development Not Observable,-2.0,-4.0,29.92,1014.7,,,,0,0,0,,,,,,,,,8/8 Overcast,3100.0,,SCT,2200,BKN,3100.0,OVC,5000.0,,
KRDR,03-11-2005,00:00,METAR,,340,13,,,9999,Cloud Development Not Observable,-2.0,-4.0,29.91,1014.3,,,,0,0,0,,,,,,,IN,,7/8 Mostly Cloudy,3900.0,,SCT,2800,BKN,4000.0,BKN,13000.0,,
KRDR,03-10-2005,23:00,METAR,,340,14,,,9999,Cloud Development Not Observable,-2.0,-4.0,29.90,1013.9,,,,0,0,0,,,,,,,,,7/8 Mostly Cloudy,2400.0,,BKN,2400,BKN,4000.0,BKN,12000.0,,
KRDR,03-10-2005,22:00,METAR,,340,18,,340/25KTS,9999,Light Snow/Cloud Development Not Observable,-2.0,-4.0,29.89,1013.6,,,,71,0,0,,,,,,,,,8/8 Overcast,1800.0,,BKN,1800,OVC,3000.0,,,,
KRDR,03-10-2005,21:00,METAR,,340,20,,340/31KTS,9999,Light Snow/Cloud Development Not Observable,-2.0,-4.0,29.86,1012.6,,,,71,0,0,,,,,,,,,8/8 Overcast,1700.0,,BKN,1700,OVC,3000.0,,,,
KRDR,03-10-2005,20:00,METAR,,350,22,26.0,340/31KTS,9999,Light Snow/Cloud Development Not Observable,-2.0,-4.0,29.84,1011.9,,,,71,0,0,,,,,,,,,8/8 Overcast,1400.0,,BKN,1400,OVC,3000.0,,,,
KRDR,03-10-2005,19:40,SPECI,,340,21,28.0,,9999,Light Snow/Blowing Snow/Cloud Development Not Observable,-2.0,-4.0,29.84,,,,,71,38,0,,,,,,,,,8/8 Overcast,1500.0,,BKN,1500,OVC,3000.0,,,,
KRDR,03-10-2005,19:00,METAR,,340,24,33.0,340/36KTS,9999,Cloud Development Not Observable,-3.0,-6.0,29.81,1010.4,,,,0,0,0,,,,,,,,,8/8 Overcast,1500.0,,BKN,1500,OVC,3000.0,,,,
KRDR,03-10-2005,18:00,METAR,,330,25,35.0,330/35KTS,9999,Cloud Development Not Observable,-3.0,-6.0,29.75,1008.8,,,,0,0,0,,,,,,,IN,,8/8 Overcast,1500.0,,BKN,1500,OVC,3000.0,,,,
KRDR,03-10-2005,17:00,METAR,,350,28,38.0,330/38KTS,9999,Cloud Development Not Observable,-3.0,-4.0,29.72,1007.8,,,,0,0,0,,,,,,,,,8/8 Overcast,1500.0,,BKN,1500,OVC,3500.0,,,,
KRDR,03-10-2005,16:00,METAR,,340,33,38.0,330/38KTS,8000,Blowing Snow/Cloud Development Not Observable,-3.0,-4.0,29.65,1005.8,,,,38,0,0,,,,,,,,,7/8 Mostly Cloudy,3400.0,,BKN,3500,,,,,,
KRDR,03-10-2005,15:36,SPECI,,340,28,37.0,,8000,Blowing Snow/Cloud Development Not Observable,-2.0,-3.0,29.62,,,,,38,0,0,,,,,,,,,8/8 Overcast,1500.0,,BKN,1500,OVC,3500.0,,,,
KRDR,03-10-2005,15:16,SPECI,,340,27,36.0,,1200,Blowing Snow/Cloud Development Not Observable,-2.0,-3.0,29.60,,,,,38,0,0,,,,,,,,,8/8 Overcast,2000.0,,BKN,2000,OVC,3500.0,,,,
KRDR,03-10-2005,15:00,METAR,,340,29,36.0,330/36KTS,2400,Blowing Snow/Cloud Development Not Observable,-2.0,-3.0,29.58,1003.2,,,,38,0,0,,,,,,TRACE,,,8/8 Overcast,2000.0,,BKN,2000,OVC,3500.0,,,,
KRDR,03-10-2005,14:41,SPECI,,340,27,35.0,,1600,Blowing Snow/Cloud Development Not Observable,-2.0,-3.0,29.57,,,,,38,0,0,,,,,,,,,8/8 Overcast,2000.0,,BKN,2000,OVC,3500.0,,,,
KRDR,03-10-2005,14:21,SPECI,,330,28,36.0,,3200,Blowing Snow/Cloud Development Not Observable,-2.0,-3.0,29.55,,,,,38,0,0,,,,,,,,,8/8 Overcast,2000.0,,FEW,500,BKN,2000.0,OVC,3500.0,,
KRDR,03-10-2005,14:01,SPECI,,320,23,29.0,,9999,Cloud Development Not Observable,-2.0,-3.0,29.54,,,,,0,0,0,,,,,,,,,8/8 Overcast,2000.0,,FEW,500,BKN,2000.0,OVC,3500.0,,
KRDR,03-10-2005,14:00,METAR,,320,24,33.0,,9999,Cloud Development Not Observable,-2.0,-3.0,29.53,1001.5,,,,0,0,0,,,,,,,,,8/8 Overcast,2000.0,,FEW,500,BKN,2000.0,OVC,3500.0,,
KRDR,03-10-2005,13:45,METAR,,330,20,30.0,,8000,Blowing Snow/Cloud Development Not Observable,-2.0,-3.0,29.53,,,,,38,0,0,,,,,,,,,8/8 Overcast,2000.0,,FEW,500,BKN,2000.0,OVC,3500.0,,
KRDR,03-10-2005,13:29,SPECI,,330,22,32.0,,3200,Light Snow/Blowing Snow/Cloud Development Not Observable,0.0,0.0,29.52,,,,,71,38,0,,,,,,,,,8/8 Overcast,2000.0,,SCT,500,BKN,2000.0,OVC,3500.0,,
KRDR,03-10-2005,13:15,SPECI,,330,25,35.0,,800,Light Snow/Blowing Snow/Cloud Development Not Observable,0.0,0.0,29.51,,,,,71,38,0,,,,,,,,,8/8 Overcast,2000.0,,SCT,500,OVC,2000.0,,,,
KRDR,03-10-2005,13:00,METAR,,330,28,36.0,320/36KTS,8000,Light Snow/Cloud Development Not Observable,0.0,0.0,29.48,998.8,,,,71,0,0,,,,,,,,,8/8 Overcast,2000.0,,FEW,500,BKN,2000.0,OVC,5000.0,,
KRDR,03-10-2005,12:30,METAR,,330,23,31.0,,8000,Light Snow/Mist/Cloud Development Not Observable,0.0,0.0,29.47,,,,,71,10,0,,,,,,,,,8/8 Overcast,2000.0,,BKN,2000,OVC,5900.0,,,,
KRDR,03-10-2005,12:00,METAR,,320,26,36.0,,8000,Light Snow/Cloud Development Not Observable,1.0,1.0,29.45,998.8,,,,71,0,0,,,,,,,.02 IN,.02 IN,8/8 Overcast,2000.0,,FEW,500,OVC,2000.0,,,,
KRDR,03-10-2005,11:00,METAR,,310,25,32.0,,8000,Light Snow/Rain/Cloud Development Not Observable,1.0,1.0,29.40,1026.3,,,,61,71,0,,,,,,,,,8/8 Overcast,2000.0,,FEW,500,OVC,2000.0,,,,
KRDR,03-10-2005,10:17,SPECI,,310,21,,,8000,Rain/Cloud Development Not Observable,3.0,1.0,29.38,,,,,61,0,0,,,,,,,,,8/8 Overcast,2000.0,,FEW,500,OVC,2000.0,,,,
KRDR,03-10-2005,10:00,METAR,,310,19,27.0,300/31KTS,9999,Rain/Cloud Development Not Observable,2.0,1.0,29.38,1026.3,,,,61,0,0,,,,,,,,,8/8 Overcast,2600.0,,BKN,2600,OVC,4000.0,,,,
KRDR,03-10-2005,09:32,SPECI,,300,21,30.0,,9999,Rain/Cloud Development Not Observable,3.0,1.0,29.37,,,,,61,0,0,,,,,,,,,8/8 Overcast,2800.0,,BKN,2800,OVC,4000.0,,,,
KRDR,03-10-2005,09:00,METAR,,300,17,30.0,290/31KTS,9999,Cloud Development Not Observable,4.0,0.0,29.38,996.2,,,,0,0,0,,,,,,,,,8/8 Overcast,3900.0,,BKN,4000,OVC,9900.0,,,,
KRDR,03-10-2005,08:00,METAR,,300,20,,,9999,Cloud Development Not Observable,4.0,0.0,29.39,996.6,,,,0,0,0,,,,,,,,,8/8 Overcast,4900.0,,BKN,5000,OVC,9900.0,,,,
KRDR,03-10-2005,07:00,METAR,,290,16,22.0,,9999,Cloud Development Not Observable,4.0,1.0,29.40,997.0,,,,0,0,0,,,,,,,,,7/8 Mostly Cloudy,10000.0,,SCT,5900,BKN,9900.0,BKN,20000.0,,
KRDR,03-10-2005,06:00,METAR,,280,13,,,9999,Cloud Development Not Observable,3.0,1.0,29.42,997.8,,,,0,0,0,,,,,,,,,7/8 Mostly Cloudy,6000.0,,BKN,5900,BKN,20000.0,,,,
KRDR,03-10-2005,05:00,METAR,,250,12,21.0,,9999,Cloud Development Not Observable,3.0,1.0,29.46,999.0,,,,0,0,0,,,,,,,,,7/8 Mostly Cloudy,12000.0,,SCT,7900,SCT,12000.0,BKN,20000.0,,
KRDR,03-10-2005,04:00,METAR,,190,10,,,9999,Cloud Development Not Observable,1.0,0.0,29.51,1000.9,,,,0,0,0,,,,,,,,,8/8 Overcast,8000.0,,FEW,5900,SCT,7900.0,BKN,12000.0,OVC,20000.0
KRDR,03-10-2005,03:00,METAR,,190,12,,,9999,Cloud Development Not Observable,1.0,-1.0,29.57,1003.0,,,,0,0,0,,,,,,,,,8/8 Overcast,8000.0,,FEW,5900,SCT,7900.0,BKN,12000.0,OVC,20000.0
KRDR,03-10-2005,02:00,METAR,,200,15,,,9999,Cloud Development Not Observable,1.0,-1.0,29.62,1004.9,,,,0,0,0,,,,,,,,,8/8 Overcast,10000.0,,SCT,5900,OVC,9900.0,,,,
KRDR,03-10-2005,01:00,METAR,,180,10,,,9999,Cloud Development Not Observable,1.0,-1.0,29.68,1006.9,,,,0,0,0,,,,,,,,,7/8 Mostly Cloudy,6000.0,,FEW,2000,SCT,5900.0,SCT,8900.0,BKN,20000.0
KRDR,03-10-2005,00:00,METAR,,180,12,,,9999,Cloud Development Not Observable,1.0,-2.0,29.73,1008.4,,,,0,0,0,,,,,,,,,7/8 Mostly Cloudy,6000.0,,FEW,2000,SCT,5900.0,BKN,8900.0,BKN,20000.0
KRDR,03-09-2005,23:00,METAR,,180,8,,,9999,Haze/Cloud Development Not Observable,1.0,-2.0,29.81,1011.2,,,,5,0,0,,,,,,,,,8/8 Overcast,3400.0,,FEW,2000,BKN,3500.0,OVC,5900.0,,
KRDR,03-09-2005,22:00,METAR,,190,10,,,9999,Cloud Development Not Observable,2.0,-2.0,29.84,1012.3,,,,0,0,0,,,,,,,,,8/8 Overcast,3900.0,,FEW,2000,SCT,4000.0,OVC,7900.0,,
KRDR,03-09-2005,21:00,METAR,,210,10,,,9999,Cloud Development Not Observable,2.0,-2.0,29.89,1013.7,,,,0,0,0,,,,,,,,,8/8 Overcast,5500.0,,FEW,2000,BKN,5400.0,OVC,9900.0,,
KRDR,03-09-2005,20:00,METAR,,190,10,,,9999,Cloud Development Not Observable,1.0,-3.0,29.92,1014.9,,,,0,0,0,,,,,,,,,7/8 Mostly Cloudy,5500.0,,FEW,2000,BKN,5400.0,BKN,12000.0,,
KRDR,03-09-2005,19:00,METAR,,180,9,,,9999,Cloud Development Not Observable,-1.0,-4.0,29.98,1017.0,,,,0,0,0,,,,,,,,,8/8 Overcast,5500.0,,FEW,2000,BKN,5400.0,OVC,12000.0,,
KRDR,03-09-2005,18:00,METAR,,170,9,,,9999,Cloud Development Not Observable,-2.0,-5.0,30.03,1018.9,,,,0,0,0,,,,,,,,,8/8 Overcast,4900.0,,SCT,2000,OVC,5000.0,,,,
KRDR,03-09-2005,17:00,METAR,,170,4,,,9999,Cloud Development Not Observable,-3.0,-7.0,30.07,1020.3,,,,0,0,0,,,,,,,,,8/8 Overcast,2000.0,,BKN,2000,OVC,4000.0,,,,
KRDR,03-09-2005,16:00,METAR,,,2,,,9999,Cloud Development Not Observable,-4.0,-8.0,30.09,1020.9,,,,0,0,0,,,,,,,,,8/8 Overcast,2000.0,,BKN,2000,OVC,4000.0,,,,
KRDR,03-09-2005,15:00,METAR,,,1,,,9999,Cloud Development Not Observable,-5.0,-8.0,30.10,1021.2,,,,0,0,0,,,,,,,,,8/8 Overcast,2400.0,,BKN,2400,OVC,4000.0,,,,
KRDR,03-09-2005,14:14,SPECI,,,1,,,9999,Cloud Development Not Observable,-7.0,-7.0,30.09,,,,,0,0,0,,,,,,,,,7/8 Mostly Cloudy,2000.0,,BKN,2000,BKN,4000.0,BKN,20000.0,,
KRDR,03-09-2005,14:00,METAR,,,1,,,9999,Cloud Development Not Observable,-8.0,-8.0,30.09,1021.0,,,,0,0,0,,,,,,,,,7/8 Mostly Cloudy,3900.0,,FEW,2000,SCT,4000.0,BKN,20000.0,,
KRDR,03-09-2005,13:00,METAR,,,1,,,9999,Cloud Development Not Observable,-9.0,-9.0,30.10,1021.4,,,,0,0,0,,,,,,,,,4/8 Partly Cloudy,72000.0,,FEW,4000,SCT,12000.0,SCT,20000.0,,
KRDR,03-09-2005,12:00,METAR,,,5,,,9999,Cloud Development Not Observable,-9.0,-9.0,30.11,1021.7,,,,0,0,0,,,,,,,IN,,4/8 Partly Cloudy,72000.0,,SCT,4000,,,,,,
KRDR,03-09-2005,11:00,METAR,,250,3,,,9999,Cloud Development Not Observable,-7.0,-7.0,30.10,1021.2,,,,0,0,0,,,,,,,,,8/8 Overcast,3900.0,,OVC,4000,,,,,,
KRDR,03-09-2005,10:00,METAR,,250,2,,,9999,Cloud Development Not Observable,-6.0,-6.0,30.09,1021.0,,,,0,0,0,,,,,,,,,8/8 Overcast,3900.0,,OVC,4000,,,,,,
KRDR,03-09-2005,09:25,METAR,,250,2,,,9999,Light Snow/Cloud Development Not Observable,-5.0,-6.0,30.09,,,,,71,0,0,,,,,,,,,8/8 Overcast,3900.0,,OVC,4000,,,,,,
KRDR,03-09-2005,09:00,METAR,,230,4,,,9999,Cloud Development Not Observable,-6.0,-7.0,30.10,1021.2,,,,0,0,0,,,,,,,,,8/8 Overcast,3900.0,,OVC,4000,,,,,,
KRDR,03-09-2005,08:00,METAR,,220,5,,,9999,Cloud Development Not Observable,-6.0,-7.0,30.10,1021.3,,,,0,0,0,,,,,,,,,8/8 Overcast,3900.0,,OVC,4000,,,,,,
KRDR,03-09-2005,07:00,METAR,,200,5,,,9999,Cloud Development Not Observable,-7.0,-8.0,30.09,1021.0,,,,0,0,0,,,,,,,,,7/8 Mostly Cloudy,3900.0,,BKN,4000,,,,,,
KRDR,03-09-2005,06:00,METAR,,180,4,,,9999,Cloud Development Not Observable,-8.0,-9.0,30.10,1021.5,,,,0,0,0,,,,,,,,,7/8 Mostly Cloudy,4900.0,,BKN,5000,,,,,,
KRDR,03-09-2005,05:00,METAR,,170,4,,,9999,Cloud Development Not Observable,-8.0,-9.0,30.11,1021.8,,,,0,0,0,,,,,,,,,7/8 Mostly Cloudy,5500.0,,BKN,5400,,,,,,
KRDR,03-09-2005,04:00,METAR,,170,4,,,9999,Cloud Development Not Observable,-8.0,-10.0,30.10,1021.5,,,,0,0,0,,,,,,,,,2/8 Mostly Clear,72000.0,,FEW,5400,,,,,,
KRDR,03-09-2005,03:00,METAR,,110,2,,,9999,Cloud Development Not Observable,-8.0,-10.0,30.10,1021.6,,,,0,0,0,,,,,,,,,2/8 Mostly Clear,72000.0,,FEW,5900,,,,,,
KRDR,03-09-2005,02:00,METAR,,160,4,,,9999,Cloud Development Not Observable,-9.0,-11.0,30.08,1021.2,,,,0,0,0,,,,,,,,,2/8 Mostly Clear,72000.0,,FEW,12000,,,,,,
KRDR,03-09-2005,01:00,METAR,,130,4,,,9999,Cloud Development Not Observable,-8.0,-11.0,30.08,1021.2,,,,0,0,0,,,,,,,,,4/8 Partly Cloudy,72000.0,,FEW,12000,SCT,25000.0,,,,
KRDR,03-09-2005,00:00,METAR,,150,3,,,9999,Cloud Development Not Observable,-7.0,-13.0,30.08,1021.2,,,,0,0,0,,,,,,,,,7/8 Mostly Cloudy,25000.0,,BKN,25000,,,,,,
KRDR,03-08-2005,23:00,METAR,,,2,,,9999,Cloud Development Not Observable,-6.0,-11.0,30.06,1020.4,,,,0,0,0,,,,,,,,,7/8 Mostly Cloudy,25000.0,,FEW,12000,BKN,25000.0,,,,
KRDR,03-08-2005,22:00,METAR,,,1,,,9999,Cloud Development Not Observable,-7.0,-11.0,30.06,1020.4,,,,0,0,0,,,,,,,,,7/8 Mostly Cloudy,12000.0,,BKN,12000,BKN,25000.0,,,,
KRDR,03-08-2005,21:00,METAR,,,6,,,9999,Cloud Development Not Observable,-7.0,-12.0,30.05,1020.1,,,,0,0,0,,,,,,,,,7/8 Mostly Cloudy,25000.0,,SCT,12000,BKN,25000.0,,,,
KRDR,03-08-2005,20:00,METAR,,,2,,,9999,Cloud Development Not Observable,-8.0,-13.0,30.07,1020.8,,,,0,0,0,,,,,,,,,7/8 Mostly Cloudy,25000.0,,SCT,12000,BKN,25000.0,,,,
KRDR,03-08-2005,19:00,METAR,,,3,,,9999,Cloud Development Not Observable,-9.0,-14.0,30.09,1021.5,,,,0,0,0,,,,,,,,,7/8 Mostly Cloudy,25000.0,,SCT,12000,BKN,25000.0,,,,
KRDR,03-08-2005,18:00,METAR,,240,3,,,9999,Cloud Development Not Observable,-10.0,-15.0,30.12,1022.7,,,,0,0,0,,,,,,,,,7/8 Mostly Cloudy,25000.0,,FEW,12000,BKN,25000.0,,,,
KRDR,03-08-2005,17:00,METAR,,310,2,,,9999,Cloud Development Not Observable,-11.0,-15.0,30.12,1022.7,,,,0,0,0,,,,,,,,,4/8 Partly Cloudy,72000.0,,SCT,25000,,,,,,
KRDR,03-08-2005,16:00,METAR,,310,4,,,9999,Cloud Development Not Observable,-12.0,-16.0,30.13,1023.0,,,,0,0,0,,,,,,,,,2/8 Mostly Clear,72000.0,,FEW,25000,,,,,,
KRDR,03-08-2005,15:00,METAR,,350,2,,,9999,Cloud Development Not Observable,-14.0,-16.0,30.11,1022.4,,,,0,0,0,,,,,,,,,2/8 Mostly Clear,72000.0,,FEW,25000,,,,,,
KRDR,03-08-2005,14:00,METAR,,310,2,,,9999,Cloud Development Not Observable,-15.0,-16.0,30.08,1021.4,,,,0,0,0,,,,,,,,,Clear,72000.0,,,73000,,,,,,
KRDR,03-08-2005,13:00,METAR,,320,1,,,9999,Cloud Development Not Observable,-17.0,-17.0,30.08,1021.4,,,,0,0,0,,,,,,,,,Clear,72000.0,,,73000,,,,,,
KRDR,03-08-2005,12:00,METAR,,330,4,,,9999,Cloud Development Not Observable,-17.0,-17.0,30.08,1021.4,,,,0,0,0,,,,,,,,,Clear,72000.0,,,73000,,,,,,
KRDR,03-08-2005,11:00,METAR,,330,2,,,9999,Cloud Development Not Observable,-17.0,-17.0,30.07,1020.9,,,,0,0,0,,,,,,,,,Clear,72000.0,,,73000,,,,,,
KRDR,03-08-2005,10:00,METAR,,330,4,,,9999,Cloud Development Not Observable,-16.0,-17.0,30.05,1020.1,,,,0,0,0,,,,,,,,,Clear,72000.0,,,73000,,,,,,
KRDR,03-08-2005,09:00,METAR,,340,3,,,9999,Cloud Development Not Observable,-17.0,-18.0,30.04,1019.9,,,,0,0,0,,,,,,,,,Clear,72000.0,,,73000,,,,,,
KRDR,03-08-2005,08:00,METAR,,320,4,,,9999,Cloud Development Not Observable,-16.0,-17.0,30.05,1020.1,,,,0,0,0,,,,,,,,,Clear,72000.0,,,73000,,,,,,
KRDR,03-08-2005,07:00,METAR,,350,4,,,9999,Cloud Development Not Observable,-16.0,-17.0,30.03,1019.4,,,,0,0,0,,,,,,,,,Clear,72000.0,,,73000,,,,,,
KRDR,03-08-2005,06:00,METAR,,340,6,,,9999,Cloud Development Not Observable,-16.0,-17.0,30.02,1019.1,,,,0,0,0,,,,,,,,,Clear,72000.0,,,73000,,,,,,
KRDR,03-08-2005,05:00,METAR,,350,7,,,9999,Cloud Development Not Observable,-15.0,-16.0,30.02,1019.1,,,,0,0,0,,,,,,,,,Clear,72000.0,,,73000,,,,,,
KRDR,03-08-2005,04:00,METAR,,320,6,,,9999,Cloud Development Not Observable,-15.0,-16.0,30.02,1019.1,,,,0,0,0,,,,,,,,,Clear,72000.0,,,73000,,,,,,
KRDR,03-08-2005,03:00,METAR,,10,8,,,9999,Cloud Development Not Observable,-14.0,-15.0,30.01,1018.7,,,,0,0,0,,,,,,,,,Clear,72000.0,,,73000,,,,,,
KRDR,03-08-2005,02:00,METAR,,30,7,,,9999,Cloud Development Not Observable,-13.0,-14.0,30.01,1018.7,,,,0,0,0,,,,,,,,,Clear,72000.0,,,73000,,,,,,
KRDR,03-08-2005,01:00,METAR,,10,9,,,9999,Cloud Development Not Observable,-12.0,-14.0,30.01,1018.6,,,,0,0,0,,,,,,,,,2/8 Mostly Clear,72000.0,,FEW,4500,,,,,,
KRDR,03-08-2005,00:00,METAR,,10,11,,,9999,Cloud Development Not Observable,-11.0,-13.0,30.00,1018.5,,,,0,0,0,,,,,,,,,2/8 Mostly Clear,72000.0,,FEW,4500,,,,,,
KRDR,03-07-2005,23:00,METAR,,360,11,,,9999,Cloud Development Not Observable,-9.0,-12.0,30.00,1018.4,,,,0,0,0,,,,,,,,,2/8 Mostly Clear,72000.0,,FEW,4500,FEW,25000.0,,,,
KRDR,03-07-2005,22:00,METAR,,10,12,,,9999,Cloud Development Not Observable,-9.0,-12.0,30.01,1018.6,,,,0,0,0,,,,,,,,,4/8 Partly Cloudy,72000.0,,FEW,2200,FEW,4500.0,SCT,25000.0,,
KRDR,03-07-2005,21:00,METAR,,350,13,,,9999,Cloud Development Not Observable,-9.0,-12.0,30.01,1018.5,,,,0,0,0,,,,,,,,,4/8 Partly Cloudy,72000.0,,FEW,2300,SCT,4500.0,SCT,8900.0,,
KRDR,03-07-2005,20:00,METAR,,350,13,19.0,,9999,Cloud Development Not Observable,-8.0,-12.0,30.01,1018.5,,,,0,0,0,,,,,,,,,4/8 Partly Cloudy,72000.0,,FEW,4500,SCT,5900.0,,,,
KRDR,03-07-2005,19:00,METAR,,350,15,20.0,,9999,Cloud Development Not Observable,-9.0,-13.0,30.03,1019.2,,,,0,0,0,,,,,,,,,7/8 Mostly Cloudy,4400.0,,FEW,3000,SCT,4500.0,BKN,5900.0,,
KRDR,03-07-2005,18:00,METAR,,330,14,21.0,,9999,Cloud Development Not Observable,-9.0,-12.0,30.03,1019.1,,,,0,0,0,,,,,,,,,7/8 Mostly Cloudy,4400.0,,FEW,3000,BKN,4500.0,BKN,6900.0,,
KRDR,03-07-2005,17:00,METAR,,330,17,21.0,,9999,Cloud Development Not Observable,-10.0,-13.0,30.03,1019.2,,,,0,0,0,,,,,,,,,8/8 Overcast,4400.0,,FEW,3000,BKN,4500.0,OVC,6900.0,,
KRDR,03-07-2005,16:00,METAR,,350,16,21.0,,9999,Cloud Development Not Observable,-10.0,-13.0,30.03,1019.1,,,,0,0,0,,,,,,,,,8/8 Overcast,4400.0,,FEW,3000,BKN,4500.0,OVC,6900.0,,
KRDR,03-07-2005,15:00,METAR,,350,16,21.0,,9999,Cloud Development Not Observable,-11.0,-14.0,30.00,1018.0,,,,0,0,0,,,,,,,,,8/8 Overcast,4600.0,,BKN,4700,OVC,6900.0,,,,
KRDR,03-07-2005,14:00,METAR,,350,16,23.0,,9999,Cloud Development Not Observable,-11.0,-14.0,29.98,1017.3,,,,0,0,0,,,,,,,,,8/8 Overcast,4900.0,,BKN,5000,OVC,9900.0,,,,
KRDR,03-07-2005,13:00,METAR,,340,16,21.0,,9999,Cloud Development Not Observable,-11.0,-14.0,29.96,1016.6,,,,0,0,0,,,,,,,,,7/8 Mostly Cloudy,6500.0,,BKN,6400,,,,,,
KRDR,03-07-2005,12:00,METAR,,340,19,,,9999,Blowing Snow/Cloud Development Not Observable,-12.0,-14.0,29.95,1016.2,,,,38,0,0,,,,,,,,,2/8 Mostly Clear,72000.0,,FEW,7400,,,,,,
KRDR,03-07-2005,11:00,METAR,,330,19,,350/26KTS,9999,Blowing Snow/Cloud Development Not Observable,-12.0,-14.0,29.92,1015.0,,,,38,0,0,,,,,,,,,2/8 Mostly Clear,72000.0,,FEW,6900,,,,,,
KRDR,03-07-2005,10:00,METAR,,340,20,26.0,340/26KTS,9999,Blowing Snow/Cloud Development Not Observable,-11.0,-13.0,29.88,1013.7,,,,38,0,0,,,,,,,,,4/8 Partly Cloudy,72000.0,,SCT,6900,,,,,,
KRDR,03-07-2005,09:00,METAR,,340,20,26.0,350/30KTS,9999,Blowing Snow/Cloud Development Not Observable,-10.0,-12.0,29.85,1012.5,,,,38,0,0,,,,,,,,,4/8 Partly Cloudy,72000.0,,SCT,6900,,,,,,
KRDR,03-07-2005,08:00,METAR,,330,23,30.0,350/30KTS,9999,Blowing Snow/Cloud Development Not Observable,-10.0,-11.0,29.84,1012.0,,,,38,0,0,,,,,,,,,7/8 Mostly Cloudy,4400.0,,FEW,2000,SCT,4500.0,BKN,5900.0,,
KRDR,03-07-2005,07:00,METAR,,340,22,26.0,350/29KTS,9999,Blowing Snow/Cloud Development Not Observable,-10.0,-11.0,29.78,1010.1,,,,38,0,0,,,,,,,,,8/8 Overcast,2100.0,,BKN,2100,OVC,4600.0,,,,
KRDR,03-07-2005,06:00,METAR,,340,21,29.0,350/32KTS,9999,Blowing Snow/Cloud Development Not Observable,-8.0,-9.0,29.76,1009.4,,,,38,0,0,,,,,,,IN,,8/8 Overcast,2200.0,,BKN,2200,OVC,2900.0,,,,
KRDR,03-07-2005,05:00,METAR,,340,20,31.0,350/33KTS,9999,Blowing Snow/Cloud Development Not Observable,-8.0,-8.0,29.74,1008.5,,,,38,0,0,,,,,,,,,8/8 Overcast,2000.0,,BKN,2000,OVC,4000.0,,,,
KRDR,03-07-2005,04:00,METAR,,340,23,32.0,340/33KTS,9999,Blowing Snow/Cloud Development Not Observable,-7.0,-7.0,29.69,1006.9,,,,38,0,0,,,,,,,,,8/8 Overcast,2000.0,,BKN,2000,OVC,3300.0,,,,
KRDR,03-07-2005,03:35,SPECI,,340,24,33.0,,9999,Blowing Snow/Cloud Development Not Observable,-7.0,-7.0,29.68,,,,,38,0,0,,,,,,,,,8/8 Overcast,2000.0,,BKN,2000,OVC,3300.0,,,,
KRDR,03-07-2005,03:00,METAR,,350,23,30.0,350/36KTS,9999,Blowing Snow/Cloud Development Not Observable,-6.0,-6.0,29.65,1005.5,,,,38,0,0,,,,,,TRACE,,,8/8 Overcast,2000.0,,BKN,2000,OVC,2500.0,,,,
KRDR,03-07-2005,02:32,SPECI,,350,24,36.0,,4800,Blowing Snow/Cloud Development Not Observable,-6.0,-6.0,29.63,,,,,38,0,0,,,,,,,,,8/8 Overcast,2000.0,,BKN,2000,OVC,2500.0,,,,
KRDR,03-07-2005,02:04,SPECI,,350,27,33.0,,3200,Blowing Snow/Cloud Development Not Observable,-6.0,-6.0,29.61,,,,,38,0,0,,,,,,,,,8/8 Overcast,2100.0,,BKN,2100,OVC,2700.0,,,,
KRDR,03-07-2005,02:00,METAR,,340,27,33.0,340/38KTS,1600,Light Snow/Blowing Snow/Cloud Development Not Observable,-5.0,-5.0,29.60,1003.8,,,,71,38,0,,,,,,,,,8/8 Overcast,2100.0,,BKN,2100,OVC,2700.0,,,,
KRDR,03-07-2005,01:35,SPECI,,340,26,32.0,,1200,Light Snow/Blowing Snow/Cloud Development Not Observable,-5.0,-5.0,29.58,,,,,71,38,0,,,,,,,,,8/8 Overcast,2100.0,,BKN,2100,OVC,2700.0,,,,
KRDR,03-07-2005,01:24,SPECI,,340,29,35.0,,800,Light Snow/Blowing Snow/Cloud Development Not Observable,-5.0,-5.0,29.57,,,,,71,38,0,,,,,,,,,8/8 Overcast,1000.0,,BKN,1000,OVC,2500.0,,,,
KRDR,03-07-2005,01:00,METAR,,340,25,36.0,350/37KTS,1200,Light Snow/Blowing Snow/Cloud Development Not Observable,-4.0,-4.0,29.54,1001.6,,,,71,38,0,,,,,,,,,8/8 Overcast,800.0,,BKN,800,OVC,1100.0,,,,
KRDR,03-07-2005,00:35,SPECI,,340,27,34.0,,1200,Light Snow/Blowing Snow/Cloud Development Not Observable,-4.0,-4.0,29.51,,,,,71,38,0,,,,,,,,,8/8 Overcast,800.0,,BKN,800,OVC,1100.0,,,,
KRDR,03-07-2005,00:24,SPECI,,340,26,37.0,,1600,Light Snow/Blowing Snow/Cloud Development Not Observable,-3.0,-3.0,29.50,,,,,71,38,0,,,,,,,,,8/8 Overcast,800.0,,BKN,800,OVC,1100.0,,,,
KRDR,03-07-2005,00:16,SPECI,,350,21,37.0,,3200,Light Snow/Drifting Snow/Cloud Development Not Observable,-3.0,-3.0,29.48,,,,,71,36,0,,,,,,,,,8/8 Overcast,800.0,,BKN,800,OVC,1100.0,,,,
KRDR,03-07-2005,00:09,SPECI,,350,30,37.0,,9999,Light Snow/Cloud Development Not Observable,-3.0,-3.0,29.48,,,,,71,0,0,,,,,,,,,8/8 Overcast,900.0,,BKN,900,OVC,1100.0,,,,
KRDR,03-07-2005,00:00,METAR,,340,26,31.0,350/32KTS,9999,Cloud Development Not Observable,-2.0,-3.0,29.46,999.0,,,,0,0,0,,,,,,,,,8/8 Overcast,900.0,,BKN,900,OVC,1100.0,,,,
KRDR,03-06-2005,23:00,METAR,,340,17,23.0,350/26KTS,9999,Cloud Development Not Observable,1.0,0.0,29.41,997.1,,,,0,0,0,,,,,,,,,8/8 Overcast,700.0,,OVC,700,,,,,,
KRDR,03-06-2005,22:00,METAR,,350,17,,,9999,Cloud Development Not Observable,4.0,1.0,29.38,996.0,,,,0,0,0,,,,,,,,,7/8 Mostly Cloudy,4400.0,,FEW,1500,SCT,4500.0,BKN,9900.0,BKN,20000.0
KRDR,03-06-2005,21:00,METAR,,330,10,,,9999,Cloud Development Not Observable,9.0,3.0,29.35,995.0,,,,0,0,0,,,,,,,,,7/8 Mostly Cloudy,10000.0,,FEW,5000,SCT,9900.0,BKN,20000.0,,
KRDR,03-06-2005,20:00,METAR,,270,10,,,9999,Cloud Development Not Observable,10.0,2.0,29.35,994.9,,,,0,0,0,,,,,,,,,7/8 Mostly Cloudy,20000.0,,FEW,9900,BKN,20000.0,,,,
KRDR,03-06-2005,19:00,METAR,,280,9,,,9999,Cloud Development Not Observable,9.0,1.0,29.36,995.1,,,,0,0,0,,,,,,,,,7/8 Mostly Cloudy,20000.0,,BKN,20000,,,,,,
KRDR,03-06-2005,18:00,METAR,,250,12,,,9999,Cloud Development Not Observable,9.0,0.0,29.39,996.2,,,,0,0,0,,,,,,,,,7/8 Mostly Cloudy,20000.0,,BKN,20000,,,,,,
KRDR,03-06-2005,17:00,METAR,,240,11,,,9999,Cloud Development Not Observable,7.0,0.0,29.40,996.7,,,,0,0,0,,,,,,,,,2/8 Mostly Clear,72000.0,,FEW,20000,,,,,,
KRDR,03-06-2005,16:00,METAR,,250,10,,,9999,Cloud Development Not Observable,7.0,-1.0,29.44,998.0,,,,0,0,0,,,,,,,,,4/8 Partly Cloudy,72000.0,,SCT,20000,,,,,,
KRDR,03-06-2005,15:00,METAR,,240,10,,,9999,Cloud Development Not Observable,5.0,-1.0,29.48,999.5,,,,0,0,0,,,,,,,,,4/8 Partly Cloudy,72000.0,,FEW,12000,SCT,20000.0,,,,
KRDR,03-06-2005,14:00,METAR,,240,10,,,9999,Cloud Development Not Observable,3.0,0.0,29.52,1000.7,,,,0,0,0,,,,,,,,,7/8 Mostly Cloudy,20000.0,,FEW,12000,BKN,20000.0,,,,
KRDR,03-06-2005,13:00,METAR,,230,10,,,9999,Cloud Development Not Observable,3.0,0.0,29.55,1001.7,,,,0,0,0,,,,,,,,,7/8 Mostly Cloudy,12000.0,,FEW,7900,BKN,12000.0,,,,
KRDR,03-06-2005,12:00,METAR,,230,12,,,9999,Cloud Development Not Observable,4.0,1.0,29.59,1003.1,,,,0,0,0,,,,,,,,,Clear,72000.0,,,73000,,,,,,
KRDR,03-06-2005,11:00,METAR,,230,12,,,9999,Cloud Development Not Observable,3.0,1.0,29.62,1004.3,,,,0,0,0,,,,,,,,,2/8 Mostly Clear,72000.0,,FEW,12000,,,,,,
KRDR,03-06-2005,10:00,METAR,,220,7,,,9999,Cloud Development Not Observable,3.0,1.0,29.66,1005.7,,,,0,0,0,,,,,,,,,2/8 Mostly Clear,72000.0,,FEW,12000,,,,,,
KRDR,03-06-2005,09:00,METAR,,240,8,,,9999,Cloud Development Not Observable,2.0,0.0,29.70,1006.9,,,,0,0,0,,,,,,,,,2/8 Mostly Clear,72000.0,,FEW,12000,,,,,,
KRDR,03-06-2005,08:00,METAR,,280,6,,,9999,Cloud Development Not Observable,2.0,0.0,29.74,1008.4,,,,0,0,0,,,,,,,,,2/8 Mostly Clear,72000.0,,FEW,12000,,,,,,
KRDR,03-06-2005,07:00,METAR,,270,11,,,9999,Cloud Development Not Observable,3.0,0.0,29.76,1009.1,,,,0,0,0,,,,,,,,,2/8 Mostly Clear,72000.0,,FEW,12000,,,,,,
KRDR,03-06-2005,06:00,METAR,,280,9,,,9999,Cloud Development Not Observable,3.0,0.0,29.79,1010.0,,,,0,0,0,,,,,,,,,4/8 Partly Cloudy,72000.0,,FEW,11000,SCT,22000.0,,,,
KRDR,03-06-2005,05:00,METAR,,270,9,,,9999,Cloud Development Not Observable,3.0,1.0,29.80,1010.6,,,,0,0,0,,,,,,,,,4/8 Partly Cloudy,72000.0,,FEW,1100,SCT,22000.0,,,,
KRDR,03-06-2005,04:00,METAR,,280,9,,,9999,Cloud Development Not Observable,4.0,0.0,29.82,1011.1,,,,0,0,0,,,,,,,,,2/8 Mostly Clear,72000.0,,FEW,11000,,,,,,
KRDR,03-06-2005,03:00,METAR,,290,11,,,9999,Cloud Development Not Observable,4.0,0.0,29.82,1011.2,,,,0,0,0,,,,,,,,,4/8 Partly Cloudy,72000.0,,SCT,11000,,,,,,
KRDR,03-06-2005,02:00,METAR,,280,13,,,9999,Cloud Development Not Observable,4.0,0.0,29.82,1011.3,,,,0,0,0,,,,,,,,,4/8 Partly Cloudy,72000.0,,SCT,11000,,,,,,
KRDR,03-06-2005,01:00,METAR,,280,13,,,9999,Cloud Development Not Observable,5.0,0.0,29.82,1011.2,,,,0,0,0,,,,,,,,,4/8 Partly Cloudy,72000.0,,SCT,11000,,,,,,
KRDR,03-06-2005,00:00,METAR,,280,13,,,9999,Cloud Development Not Observable,6.0,1.0,29.82,1011.2,,,,0,0,0,,,,,,,,,4/8 Partly Cloudy,72000.0,,SCT,11000,,,,,,
KRDR,03-05-2005,23:00,METAR,,280,12,,,9999,Cloud Development Not Observable,7.0,1.0,29.82,1011.2,,,,0,0,0,,,,,,,,,4/8 Partly Cloudy,72000.0,,FEW,5000,SCT,11000.0,,,,
KRDR,03-05-2005,22:00,METAR,,280,10,,,9999,Cloud Development Not Observable,8.0,1.0,29.83,1011.5,,,,0,0,0,,,,,,,,,4/8 Partly Cloudy,72000.0,,FEW,5000,SCT,11000.0,,,,
KRDR,03-05-2005,21:00,METAR,,280,8,,,9999,Cloud Development Not Observable,8.0,2.0,29.83,1011.5,,,,0,0,0,,,,,,,,,2/8 Mostly Clear,72000.0,,FEW,12000,,,,,,
KRDR,03-05-2005,20:00,METAR,,230,13,,,9999,Cloud Development Not Observable,7.0,2.0,29.82,1011.2,,,,0,0,0,,,,,,,,,4/8 Partly Cloudy,72000.0,,SCT,12000,,,,,,
KRDR,03-05-2005,19:00,METAR,,230,13,,,9999,Cloud Development Not Observable,6.0,1.0,29.87,1013.0,,,,0,0,0,,,,,,,,,2/8 Mostly Clear,72000.0,,FEW,12000,,,,,,
KRDR,03-05-2005,18:00,METAR,,190,14,,,9999,Cloud Development Not Observable,4.0,1.0,29.91,1014.3,,,,0,0,0,,,,,,,,,2/8 Mostly Clear,72000.0,,FEW,12000,,,,,,
KRDR,03-05-2005,17:00,METAR,,200,10,,,9999,Cloud Development Not Observable,4.0,0.0,29.96,1015.9,,,,0,0,0,,,,,,,,,2/8 Mostly Clear,72000.0,,FEW,12000,,,,,,
KRDR,03-05-2005,16:00,METAR,,200,10,,,9999,Cloud Development Not Observable,2.0,0.0,30.04,1018.8,,,,0,0,0,,,,,,,,,2/8 Mostly Clear,72000.0,,FEW,12000,,,,,,
KRDR,03-05-2005,15:00,METAR,,,1,,,9999,Cloud Development Not Observable,-1.0,-2.0,30.04,1018.8,,,,0,0,0,,,,,,,,,Clear,72000.0,,,73000,,,,,,
KRDR,03-05-2005,14:00,METAR,,190,3,,,9999,Cloud Development Not Observable,-3.0,-3.0,30.07,1020.0,,,,0,0,0,,,,,,,,,Clear,72000.0,,,73000,,,,,,
KRDR,03-05-2005,13:00,METAR,,210,6,,,9999,Cloud Development Not Observable,-3.0,-3.0,30.08,1020.3,,,,0,0,0,,,,,,,,,2/8 Mostly Clear,72000.0,,FEW,2800,,,,,,
KRDR,03-05-2005,12:00,METAR,,220,6,,,9999,Cloud Development Not Observable,-3.0,-3.0,30.08,1020.3,,,,0,0,0,,,,,,,,,Clear,72000.0,,,73000,,,,,,
KRDR,03-05-2005,11:00,METAR,,230,7,,,9999,Cloud Development Not Observable,-4.0,-4.0,30.09,1020.5,,,,0,0,0,,,,,,,,,Clear,72000.0,,,73000,,,,,,
KRDR,03-05-2005,10:00,METAR,,240,5,,,9999,Cloud Development Not Observable,-3.0,-3.0,30.09,1020.7,,,,0,0,0,,,,,,,,,Clear,72000.0,,,73000,,,,,,
KRDR,03-05-2005,09:00,METAR,,220,3,,,9999,Cloud Development Not Observable,-3.0,-3.0,30.10,1020.7,,,,0,0,0,,,,,,,,,Clear,72000.0,,,73000,,,,,,
KRDR,03-05-2005,08:00,METAR,,230,2,,,9999,Cloud Development Not Observable,-2.0,-2.0,30.11,1021.1,,,,0,0,0,,,,,,,,,2/8 Mostly Clear,72000.0,,FEW,2800,,,,,,
KRDR,03-05-2005,07:31,SPECI,,220,3,,,9999,Cloud Development Not Observable,-1.0,-1.0,30.10,,,,,0,0,0,,,,,,,,,4/8 Partly Cloudy,72000.0,,SCT,2700,,,,,,
KRDR,03-05-2005,07:00,METAR,,,2,,,9999,Cloud Development Not Observable,1.0,0.0,30.10,1020.7,,,,0,0,0,,,,,,,,,7/8 Mostly Cloudy,2700.0,,BKN,2700,,,,,,
KRDR,03-05-2005,06:00,METAR,,310,3,,,9999,Cloud Development Not Observable,1.0,1.0,30.11,1021.0,,,,0,0,0,,,,,,,,,8/8 Overcast,2800.0,,OVC,2800,,,,,,
KRDR,03-05-2005,05:00,METAR,,350,12,,,9999,Cloud Development Not Observable,1.0,1.0,30.10,1020.7,,,,0,0,0,,,,,,,,,8/8 Overcast,2800.0,,OVC,2800,,,,,,
KRDR,03-05-2005,04:00,METAR,,310,4,,,9999,Cloud Development Not Observable,1.0,1.0,30.10,1020.9,,,,0,0,0,,,,,,,,,8/8 Overcast,2700.0,,OVC,2700,,,,,,
KRDR,03-05-2005,03:00,METAR,,310,2,,,9999,Cloud Development Not Observable,1.0,1.0,30.09,1020.5,,,,0,0,0,,,,,,,,,8/8 Overcast,2500.0,,BKN,2500,OVC,9900.0,,,,
KRDR,03-05-2005,02:00,METAR,,290,3,,,9999,Cloud Development Not Observable,1.0,0.0,30.09,1020.6,,,,0,0,0,,,,,,,,,7/8 Mostly Cloudy,2500.0,,BKN,2500,,,,,,
KRDR,03-05-2005,01:00,METAR,,270,3,,,9999,Cloud Development Not Observable,1.0,0.0,30.07,1020.3,,,,0,0,0,,,,,,,,,7/8 Mostly Cloudy,2500.0,,BKN,2500,,,,,,
KRDR,03-05-2005,00:00,METAR,,330,4,,,9999,Cloud Development Not Observable,1.0,-1.0,30.06,1019.5,,,,0,0,0,,,,,,,,,8/8 Overcast,2000.0,,OVC,2000,,,,,,
KRDR,03-04-2005,23:00,METAR,,350,8,,,9999,Cloud Development Not Observable,1.0,-1.0,30.05,1019.2,,,,0,0,0,,,,,,,,,8/8 Overcast,2500.0,,OVC,2500,,,,,,
KRDR,03-04-2005,22:14,SPECI,,350,12,,,9999,Cloud Development Not Observable,1.0,-1.0,30.03,,,,,0,0,0,,,,,,,,,7/8 Mostly Cloudy,2600.0,,BKN,2600,BKN,5000.0,,,,
KRDR,03-04-2005,22:02,SPECI,,350,11,,,9999,Cloud Development Not Observable,2.0,-1.0,30.02,,,,,0,0,0,,,,,,,,,7/8 Mostly Cloudy,4900.0,,SCT,2500,BKN,5000.0,,,,
KRDR,03-04-2005,22:00,METAR,,350,13,,,9999,Cloud Development Not Observable,1.0,-1.0,30.02,1018.1,,,,0,0,0,,,,,,,,,7/8 Mostly Cloudy,2500.0,,BKN,2500,BKN,5000.0,,,,
KRDR,03-04-2005,21:43,SPECI,,350,16,,,9999,Cloud Development Not Observable,1.0,-1.0,30.02,,,,,0,0,0,,,,,,,,,7/8 Mostly Cloudy,2500.0,,BKN,2500,BKN,5000.0,,,,
KRDR,03-04-2005,21:00,METAR,,350,13,,,9999,Cloud Development Not Observable,2.0,-1.0,30.00,1017.4,,,,0,0,0,,,,,,,,,7/8 Mostly Cloudy,4900.0,,FEW,2100,BKN,5000.0,,,,
KRDR,03-04-2005,20:00,METAR,,340,12,,,9999,Cloud Development Not Observable,2.0,0.0,29.98,1016.7,,,,0,0,0,,,,,,,,,7/8 Mostly Cloudy,5500.0,,FEW,2900,BKN,5400.0,,,,
KRDR,03-04-2005,19:00,METAR,,350,14,,,9999,Cloud Development Not Observable,2.0,-1.0,29.96,1015.9,,,,0,0,0,,,,,,,,,7/8 Mostly Cloudy,5500.0,,SCT,2900,BKN,5400.0,,,,
KRDR,03-04-2005,18:00,METAR,,350,12,,,9999,Cloud Development Not Observable,2.0,-1.0,29.94,1015.2,,,,0,0,0,,,,,,,,,7/8 Mostly Cloudy,15000.0,,SCT,2000,BKN,15000.0,,,,
KRDR,03-04-2005,17:00,METAR,,350,16,,,9999,Cloud Development Not Observable,2.0,-1.0,29.91,1014.3,,,,0,0,0,,,,,,,,,7/8 Mostly Cloudy,4900.0,,FEW,1500,SCT,5000.0,BKN,15000.0,,
KRDR,03-04-2005,16:00,METAR,,340,11,,,9999,Cloud Development Not Observable,1.0,0.0,29.89,1013.7,,,,0,0,0,,,,,,,,,8/8 Overcast,1500.0,,BKN,1500,OVC,2500.0,,,,
KRDR,03-04-2005,15:00,METAR,,320,13,,,9999,Cloud Development Not Observable,1.0,0.0,29.86,1012.7,,,,0,0,0,,,,,,,,,8/8 Overcast,1500.0,,BKN,1500,OVC,2500.0,,,,
KRDR,03-04-2005,14:00,METAR,,320,11,,,9999,Cloud Development Not Observable,0.0,-1.0,29.83,1011.6,,,,0,0,0,,,,,,,,,8/8 Overcast,2500.0,,BKN,2500,OVC,5400.0,,,,
KRDR,03-04-2005,13:00,METAR,,310,10,,,9999,Cloud Development Not Observable,0.0,-2.0,29.81,1010.9,,,,0,0,0,,,,,,,,,8/8 Overcast,4900.0,,BKN,5000,OVC,11000.0,,,,
KRDR,03-04-2005,12:00,METAR,,310,11,,,9999,Cloud Development Not Observable,-1.0,-2.0,29.79,1010.2,,,,0,0,0,,,,,,,,,8/8 Overcast,4900.0,,BKN,5000,OVC,11000.0,,,,
KRDR,03-04-2005,11:00,METAR,,310,10,,,9999,Cloud Development Not Observable,-2.0,-3.0,29.77,1009.5,,,,0,0,0,,,,,,,,,7/8 Mostly Cloudy,25000.0,,SCT,11000,BKN,25000.0,,,,
KRDR,03-04-2005,10:00,METAR,,310,12,,,9999,Cloud Development Not Observable,0.0,-2.0,29.74,1008.6,,,,0,0,0,,,,,,,,,7/8 Mostly Cloudy,25000.0,,FEW,12000,BKN,25000.0,,,,
KRDR,03-04-2005,09:00,METAR,,310,12,,,9999,Cloud Development Not Observable,1.0,-1.0,29.73,1008.1,,,,0,0,0,,,,,,,,,7/8 Mostly Cloudy,25000.0,,SCT,9900,BKN,25000.0,,,,
KRDR,03-04-2005,08:00,METAR,,300,9,,,9999,Cloud Development Not Observable,1.0,-2.0,29.73,1008.1,,,,0,0,0,,,,,,,,,7/8 Mostly Cloudy,25000.0,,SCT,8900,BKN,25000.0,,,,
KRDR,03-04-2005,07:00,METAR,,300,8,,,9999,Cloud Development Not Observable,1.0,-1.0,29.73,1008.1,,,,0,0,0,,,,,,,,,4/8 Partly Cloudy,72000.0,,SCT,25000,,,,,,
KRDR,03-04-2005,06:00,METAR,,300,8,,,9999,Cloud Development Not Observable,2.0,-1.0,29.72,1008.0,,,,0,0,0,,,,,,,,,4/8 Partly Cloudy,72000.0,,FEW,12000,SCT,25000.0,,,,
KRDR,03-04-2005,05:00,METAR,,290,10,,,9999,Cloud Development Not Observable,3.0,-1.0,29.72,1008.1,,,,0,0,0,,,,,,,,,8/8 Overcast,10000.0,,BKN,9900,OVC,25000.0,,,,
KRDR,03-04-2005,04:00,METAR,,210,7,,,9999,Cloud Development Not Observable,-2.0,-2.0,29.75,1009.2,,,,0,0,0,,,,,,,,,8/8 Overcast,10000.0,,BKN,9900,OVC,25000.0,,,,
KRDR,03-04-2005,03:00,METAR,,200,8,,,9999,Cloud Development Not Observable,-1.0,-2.0,29.76,1009.7,,,,0,0,0,,,,,,,,,8/8 Overcast,10000.0,,BKN,9900,OVC,25000.0,,,,
KRDR,03-04-2005,02:00,METAR,,220,6,,,9999,Cloud Development Not Observable,-2.0,-2.0,29.79,1010.8,,,,0,0,0,,,,,,,,,7/8 Mostly Cloudy,10000.0,,BKN,9900,BKN,25000.0,,,,
KRDR,03-04-2005,01:00,METAR,,190,4,,,9999,Cloud Development Not Observable,-1.0,-2.0,29.81,1011.7,,,,0,0,0,,,,,,,,,7/8 Mostly Cloudy,12000.0,,SCT,9900,BKN,12000.0,BKN,25000.0,,
KRDR,03-04-2005,00:00,METAR,,180,6,,,9999,Cloud Development Not Observable,0.0,-2.0,29.82,1011.8,,,,0,0,0,,,,,,,,,7/8 Mostly Cloudy,12000.0,,SCT,9900,BKN,12000.0,BKN,25000.0,,
KRDR,03-03-2005,23:00,METAR,,190,5,,,9999,Cloud Development Not Observable,2.0,-1.0,29.85,1012.7,,,,0,0,0,,,,,,,,,7/8 Mostly Cloudy,25000.0,,SCT,12000,BKN,25000.0,,,,
KRDR,03-03-2005,22:00,METAR,,200,6,,,9999,Cloud Development Not Observable,2.0,-2.0,29.85,1012.8,,,,0,0,0,,,,,,,,,7/8 Mostly Cloudy,25000.0,,SCT,15000,BKN,25000.0,,,,
KRDR,03-03-2005,21:00,METAR,,220,7,,,9999,Cloud Development Not Observable,2.0,-2.0,29.87,1013.7,,,,0,0,0,,,,,,,,,7/8 Mostly Cloudy,25000.0,,SCT,18000,BKN,25000.0,,,,
KRDR,03-03-2005,20:00,METAR,,210,7,,,9999,Cloud Development Not Observable,1.0,-3.0,29.89,1014.1,,,,0,0,0,,,,,,,,,7/8 Mostly Cloudy,25000.0,,SCT,20000,BKN,25000.0,,,,
KRDR,03-03-2005,18:00,METAR,,190,9,,,9999,Cloud Development Not Observable,-4.0,-8.0,29.93,1015.7,,,,0,0,0,,,,,,,,,7/8 Mostly Cloudy,25000.0,,BKN,25000,,,,,,
KRDR,03-03-2005,17:00,METAR,,190,10,,,9999,Cloud Development Not Observable,-7.0,-9.0,29.95,1016.5,,,,0,0,0,,,,,,,,,4/8 Partly Cloudy,72000.0,,SCT,25000,,,,,,
KRDR,03-03-2005,16:00,METAR,,180,10,,,9999,Cloud Development Not Observable,-9.0,-10.0,29.97,1017.4,,,,0,0,0,,,,,,,,,2/8 Mostly Clear,72000.0,,FEW,25000,,,,,,
KRDR,03-03-2005,15:00,METAR,,180,9,,,9999,Cloud Development Not Observable,-10.0,-11.0,29.99,1018.0,,,,0,0,0,,,,,,,,,2/8 Mostly Clear,72000.0,,FEW,25000,,,,,,
KRDR,03-03-2005,14:00,METAR,,150,7,,,9999,Cloud Development Not Observable,-12.0,-12.0,30.00,1018.5,,,,0,0,0,,,,,,,,,2/8 Mostly Clear,72000.0,,FEW,25000,,,,,,
KRDR,03-03-2005,13:00,METAR,,170,7,,,9999,Cloud Development Not Observable,-14.0,-14.0,30.02,1019.0,,,,0,0,0,,,,,,,,,Clear,72000.0,,,73000,,,,,,
KRDR,03-03-2005,12:00,METAR,,170,8,,,9999,Cloud Development Not Observable,-14.0,-14.0,30.04,1019.7,,,,0,0,0,,,,,,,,,Clear,72000.0,,,73000,,,,,,
KRDR,03-03-2005,11:00,METAR,,,5,,,9999,Cloud Development Not Observable,-13.0,-13.0,30.06,1020.3,,,,0,0,0,,,,,,,,,Clear,72000.0,,,73000,,,,,,
KRDR,03-03-2005,09:00,METAR,,,1,,,9999,Cloud Development Not Observable,-17.0,-17.0,30.09,1021.4,,,,0,0,0,,,,,,,,,Clear,72000.0,,,73000,,,,,,
KRDR,03-03-2005,08:00,METAR,,,3,,,9999,Cloud Development Not Observable,-16.0,-16.0,30.10,1021.7,,,,0,0,0,,,,,,,,,Clear,72000.0,,,73000,,,,,,
KRDR,03-03-2005,07:00,METAR,,,2,,,9999,Cloud Development Not Observable,-15.0,-15.0,30.11,1022.1,,,,0,0,0,,,,,,,,,Clear,72000.0,,,73000,,,,,,
KRDR,03-03-2005,06:00,METAR,,140,2,,,9999,Cloud Development Not Observable,-15.0,-15.0,30.12,1022.5,,,,0,0,0,,,,,,,,,Clear,72000.0,,,73000,,,,,,
KRDR,03-03-2005,05:00,METAR,,170,3,,,9999,Cloud Development Not Observable,-15.0,-15.0,30.13,1023.1,,,,0,0,0,,,,,,,,,Clear,72000.0,,,73000,,,,,,
KRDR,03-03-2005,04:00,METAR,,220,2,,,9999,Cloud Development Not Observable,-17.0,-17.0,30.14,1023.6,,,,0,0,0,,,,,,,,,Clear,72000.0,,,73000,,,,,,
KRDR,03-03-2005,03:00,METAR,,120,1,,,9999,Cloud Development Not Observable,-14.0,-14.0,30.15,1024.0,,,,0,0,0,,,,,,,,,2/8 Mostly Clear,72000.0,,FEW,25000,,,,,,
KRDR,03-03-2005,02:00,METAR,,200,1,,,9999,Cloud Development Not Observable,-14.0,-14.0,30.15,1024.2,,,,0,0,0,,,,,,,,,2/8 Mostly Clear,72000.0,,FEW,25000,,,,,,
KRDR,03-03-2005,01:00,METAR,,140,3,,,9999,Cloud Development Not Observable,-9.0,-11.0,30.15,1023.9,,,,0,0,0,,,,,,,,,2/8 Mostly Clear,72000.0,,FEW,25000,,,,,,
KRDR,03-03-2005,00:00,METAR,,190,2,,,9999,Cloud Development Not Observable,-8.0,-10.0,30.16,1024.3,,,,0,0,0,,,,,,,,,2/8 Mostly Clear,72000.0,,FEW,25000,,,,,,
KRDR,03-02-2005,23:00,METAR,,,3,,,9999,Cloud Development Not Observable,-8.0,-11.0,30.16,1024.3,,,,0,0,0,,,,,,,,,2/8 Mostly Clear,72000.0,,FEW,25000,,,,,,
KRDR,03-02-2005,22:00,METAR,,,2,,,9999,Cloud Development Not Observable,-7.0,-12.0,30.17,1024.5,,,,0,0,0,,,,,,,,,2/8 Mostly Clear,72000.0,,FEW,25000,,,,,,
KRDR,03-02-2005,21:00,METAR,,,1,,,9999,Cloud Development Not Observable,-8.0,-12.0,30.18,1024.7,,,,0,0,0,,,,,,,,,2/8 Mostly Clear,72000.0,,FEW,25000,,,,,,
KRDR,03-02-2005,20:00,METAR,,,1,,,9999,Cloud Development Not Observable,-8.0,-12.0,30.15,1023.6,,,,0,0,0,,,,,,,,,2/8 Mostly Clear,72000.0,,FEW,25000,,,,,,
KRDR,03-02-2005,19:00,METAR,,,3,,,9999,Cloud Development Not Observable,-9.0,-14.0,30.16,1024.0,,,,0,0,0,,,,,,,,,2/8 Mostly Clear,72000.0,,FEW,25000,,,,,,
KRDR,03-02-2005,18:00,METAR,,,1,,,9999,Cloud Development Not Observable,-12.0,-14.0,30.18,1024.8,,,,0,0,0,,,,,,,,,2/8 Mostly Clear,72000.0,,FEW,25000,,,,,,
KRDR,03-02-2005,17:00,METAR,,,0,,,9999,Cloud Development Not Observable,-14.0,-15.0,30.19,1025.2,,,,0,0,0,,,,,,,,,Clear,72000.0,,,73000,,,,,,
KRDR,03-02-2005,16:00,METAR,,,1,,,9999,Cloud Development Not Observable,-17.0,-17.0,30.18,1024.8,,,,0,0,0,,,,,,,,,Clear,72000.0,,,73000,,,,,,
KRDR,03-02-2005,15:00,METAR,,,0,,,9999,Cloud Development Not Observable,-19.0,-19.0,30.18,1024.8,,,,0,0,0,,,,,,,,,Clear,72000.0,,,73000,,,,,,
KRDR,03-02-2005,14:00,METAR,,,0,,,9999,Cloud Development Not Observable,-22.0,-22.0,30.16,1024.3,,,,0,0,0,,,,,,,,,Clear,72000.0,,,73000,,,,,,
KRDR,03-02-2005,13:00,METAR,,,0,,,9999,Cloud Development Not Observable,-22.0,-22.0,30.15,1024.0,,,,0,0,0,,,,,,,,,Clear,72000.0,,,73000,,,,,,
KRDR,03-02-2005,12:00,METAR,,,0,,,9999,Cloud Development Not Observable,-22.0,-22.0,30.14,1023.7,,,,0,0,0,,,,,,,,,Clear,72000.0,,,73000,,,,,,
KRDR,03-02-2005,11:00,METAR,,,0,,,9999,Cloud Development Not Observable,-22.0,-22.0,30.13,1023.0,,,,0,0,0,,,,,,,,,Clear,72000.0,,,73000,,,,,,
KRDR,03-02-2005,10:00,METAR,,310,1,,,9999,Cloud Development Not Observable,-22.0,-22.0,30.12,1022.8,,,,0,0,0,,,,,,,,,Clear,72000.0,,,73000,,,,,,
KRDR,03-02-2005,09:00,METAR,,290,2,,,9999,Cloud Development Not Observable,-21.0,-21.0,30.12,1022.6,,,,0,0,0,,,,,,,,,Clear,72000.0,,,73000,,,,,,
KRDR,03-02-2005,08:00,METAR,,270,3,,,9999,Cloud Development Not Observable,-20.0,-20.0,30.12,1022.6,,,,0,0,0,,,,,,,,,Clear,72000.0,,,73000,,,,,,
KRDR,03-02-2005,07:00,METAR,,320,1,,,9999,Cloud Development Not Observable,-20.0,-20.0,30.11,1022.2,,,,0,0,0,,,,,,,,,Clear,72000.0,,,73000,,,,,,
KRDR,03-02-2005,06:00,METAR,,330,1,,,9999,Cloud Development Not Observable,-19.0,-19.0,30.10,1022.1,,,,0,0,0,,,,,,,,,Clear,72000.0,,,73000,,,,,,
KRDR,03-02-2005,05:00,METAR,,290,2,,,9999,Cloud Development Not Observable,-18.0,-18.0,30.09,1021.5,,,,0,0,0,,,,,,,,,Clear,72000.0,,,73000,,,,,,
KRDR,03-02-2005,04:00,METAR,,,0,,,9999,Cloud Development Not Observable,-14.0,-15.0,30.08,1021.3,,,,0,0,0,,,,,,,,,Clear,72000.0,,,73000,,,,,,
KRDR,03-02-2005,03:00,METAR,,,0,,,9999,Cloud Development Not Observable,-12.0,-13.0,30.08,1021.4,,,,0,0,0,,,,,,,,,2/8 Mostly Clear,72000.0,,FEW,5900,,,,,,
KRDR,03-02-2005,02:00,METAR,,140,2,,,9999,Cloud Development Not Observable,-12.0,-13.0,30.07,1021.2,,,,0,0,0,,,,,,,,,2/8 Mostly Clear,72000.0,,FEW,5900,FEW,20000.0,,,,
KRDR,03-02-2005,01:00,METAR,,120,4,,,9999,Cloud Development Not Observable,-11.0,-12.0,30.07,1021.2,,,,0,0,0,,,,,,,,,2/8 Mostly Clear,72000.0,,FEW,5900,FEW,20000.0,,,,
KRDR,03-02-2005,00:00,METAR,,130,5,,,9999,Cloud Development Not Observable,-10.0,-12.0,30.06,1020.8,,,,0,0,0,,,,,,,,,2/8 Mostly Clear,72000.0,,FEW,5900,FEW,20000.0,,,,
KRDR,03-01-2005,23:00,METAR,,130,6,,,9999,Cloud Development Not Observable,-8.0,-10.0,30.05,1020.4,,,,0,0,0,,,,,,,,,2/8 Mostly Clear,72000.0,,FEW,5900,FEW,20000.0,,,,
KRDR,03-01-2005,22:00,METAR,,130,6,,,9999,Cloud Development Not Observable,-7.0,-11.0,30.04,1020.1,,,,0,0,0,,,,,,,,,2/8 Mostly Clear,72000.0,,FEW,5900,FEW,20000.0,,,,
KRDR,03-01-2005,21:00,METAR,,150,6,,,9999,Cloud Development Not Observable,-7.0,-12.0,30.05,1020.2,,,,0,0,0,,,,,,,,,4/8 Partly Cloudy,72000.0,,SCT,5900,,,,,,
KRDR,03-01-2005,20:00,METAR,,150,8,,,9999,Cloud Development Not Observable,-8.0,-12.0,30.05,1020.2,,,,0,0,0,,,,,,,,,7/8 Mostly Cloudy,6000.0,,BKN,5900,,,,,,
KRDR,03-01-2005,19:00,METAR,,140,7,,,9999,Cloud Development Not Observable,-8.0,-11.0,30.07,1020.9,,,,0,0,0,,,,,,,,,7/8 Mostly Cloudy,6000.0,,BKN,5900,,,,,,
KRDR,03-01-2005,18:00,METAR,,150,6,,,9999,Cloud Development Not Observable,-9.0,-12.0,30.08,1021.2,,,,0,0,0,,,,,,,,,7/8 Mostly Cloudy,6000.0,,BKN,5900,,,,,,
KRDR,03-01-2005,17:00,METAR,,150,3,,,9999,Cloud Development Not Observable,-10.0,-12.0,30.09,1021.5,,,,0,0,0,,,,,,,,,7/8 Mostly Cloudy,6000.0,,BKN,5900,,,,,,
KRDR,03-01-2005,16:00,METAR,,210,3,,,9999,Cloud Development Not Observable,-13.0,-14.0,30.10,1021.9,,,,0,0,0,,,,,,,,,7/8 Mostly Cloudy,6500.0,,BKN,6400,,,,,,
KRDR,03-01-2005,15:00,METAR,,200,2,,,9999,Cloud Development Not Observable,-16.0,-16.0,30.10,1022.2,,,,0,0,0,,,,,,,,,7/8 Mostly Cloudy,6500.0,,BKN,6400,,,,,,
KRDR,03-01-2005,14:00,METAR,,230,2,,,9999,Cloud Development Not Observable,-20.0,-20.0,30.10,1022.2,,,,0,0,0,,,,,,,,,4/8 Partly Cloudy,72000.0,,SCT,6400,,,,,,
KRDR,03-01-2005,13:00,METAR,,230,3,,,9999,Cloud Development Not Observable,-22.0,-22.0,30.10,1022.4,,,,0,0,0,,,,,,,,,2/8 Mostly Clear,72000.0,,FEW,20000,,,,,,
KRDR,03-01-2005,12:00,METAR,,230,2,,,9999,Cloud Development Not Observable,-22.0,-22.0,30.10,1022.2,,,,0,0,0,,,,,,,,TRACE,Clear,72000.0,,,73000,,,,,,
KRDR,03-01-2005,11:00,METAR,,250,1,,,9999,Cloud Development Not Observable,-22.0,-22.0,30.10,1022.2,,,,0,0,0,,,,,,,,,Clear,72000.0,,,73000,,,,,,
KRDR,03-01-2005,10:00,METAR,,190,2,,,9999,Cloud Development Not Observable,-22.0,-22.0,30.08,1021.4,,,,0,0,0,,,,,,,,,Clear,72000.0,,,73000,,,,,,
KRDR,03-01-2005,09:00,METAR,,260,2,,,9999,Cloud Development Not Observable,-20.0,-20.0,30.10,1022.0,,,,0,0,0,,,,,,,,,Clear,72000.0,,,73000,,,,,,
KRDR,03-01-2005,08:00,METAR,,230,2,,,9999,Cloud Development Not Observable,-19.0,-19.0,30.10,1022.0,,,,0,0,0,,,,,,,,,Clear,72000.0,,,73000,,,,,,
KRDR,03-01-2005,07:00,METAR,,260,2,,,9999,Cloud Development Not Observable,-19.0,-19.0,30.11,1022.3,,,,0,0,0,,,,,,,,,Clear,72000.0,,,73000,,,,,,
KRDR,03-01-2005,06:00,METAR,,260,4,,,9999,Cloud Development Not Observable,-19.0,-19.0,30.11,1022.4,,,,0,0,0,,,,,,,,,Clear,72000.0,,,73000,,,,,,
KRDR,03-01-2005,05:00,METAR,,270,2,,,9999,Cloud Development Not Observable,-18.0,-18.0,30.12,1022.8,,,,0,0,0,,,,,,,,,Clear,72000.0,,,73000,,,,,,
KRDR,03-01-2005,04:00,METAR,,300,5,,,9999,Cloud Development Not Observable,-16.0,-16.0,30.11,1022.3,,,,0,0,0,,,,,,,,,2/8 Mostly Clear,72000.0,,FEW,20000,,,,,,
KRDR,03-01-2005,03:00,METAR,,310,6,,,9999,Cloud Development Not Observable,-15.0,-16.0,30.11,1022.3,,,,0,0,0,,,,,,,,,2/8 Mostly Clear,72000.0,,FEW,20000,,,,,,
KRDR,03-01-2005,02:00,METAR,,310,6,,,9999,Cloud Development Not Observable,-14.0,-16.0,30.12,1022.7,,,,0,0,0,,,,,,,,,2/8 Mostly Clear,72000.0,,FEW,20000,,,,,,
KRDR,03-01-2005,01:00,METAR,,290,4,,,9999,Cloud Development Not Observable,-14.0,-16.0,30.13,1022.8,,,,0,0,0,,,,,,,,,2/8 Mostly Clear,72000.0,,FEW,20000,,,,,,
KRDR,03-01-2005,00:00,METAR,,350,8,,,9999,Cloud Development Not Observable,-10.0,-13.0,30.12,1022.2,,,,0,0,0,,,,,,,,,2/8 Mostly Clear,72000.0,,FEW,20000,,,,,,
KRDR,02-28-2005,23:00,METAR,,350,9,,,9999,Cloud Development Not Observable,-8.0,-12.0,30.12,1022.2,,,,0,0,0,,,,,,,,,2/8 Mostly Clear,72000.0,,FEW,20000,,,,,,
KRDR,02-28-2005,22:00,METAR,,340,13,,,9999,Cloud Development Not Observable,-7.0,-12.0,30.12,1022.1,,,,0,0,0,,,,,,,,,2/8 Mostly Clear,72000.0,,FEW,20000,,,,,,
KRDR,02-28-2005,21:00,METAR,,350,14,,,9999,Cloud Development Not Observable,-7.0,-10.0,30.12,1022.3,,,,0,0,0,,,,,,,,,2/8 Mostly Clear,72000.0,,FEW,20000,,,,,,
KRDR,02-28-2005,20:00,METAR,,350,15,,,9999,Cloud Development Not Observable,-8.0,-10.0,30.12,1022.3,,,,0,0,0,,,,,,,,,Clear,72000.0,,,73000,,,,,,
KRDR,02-28-2005,19:00,METAR,,340,14,,,9999,Cloud Development Not Observable,-8.0,-11.0,30.14,1023.0,,,,0,0,0,,,,,,,,,2/8 Mostly Clear,72000.0,,FEW,2500,,,,,,
KRDR,02-28-2005,18:00,METAR,,340,14,,,9999,Cloud Development Not Observable,-9.0,-11.0,30.15,1023.3,,,,0,0,0,,,,,,,,,Clear,72000.0,,,73000,,,,,,
KRDR,02-28-2005,17:00,METAR,,340,13,,,9999,Cloud Development Not Observable,-10.0,-11.0,30.15,1023.2,,,,0,0,0,,,,,,,,,Clear,72000.0,,,73000,,,,,,
KRDR,02-28-2005,16:00,METAR,,340,16,,,9999,Cloud Development Not Observable,-11.0,-12.0,30.14,1023.0,,,,0,0,0,,,,,,,,,Clear,72000.0,,,73000,,,,,,
KRDR,02-28-2005,15:00,METAR,,340,16,,,9999,Cloud Development Not Observable,-11.0,-12.0,30.14,1022.8,,,,0,0,0,,,,,,,,,2/8 Mostly Clear,72000.0,,FEW,3000,,,,,,
KRDR,02-28-2005,14:00,METAR,,340,12,,,9999,Cloud Development Not Observable,-12.0,-12.0,30.14,1023.0,,,,0,0,0,,,,,,,,,2/8 Mostly Clear,72000.0,,FEW,3000,,,,,,
KRDR,02-28-2005,13:00,METAR,,350,13,,,9999,Cloud Development Not Observable,-11.0,-11.0,30.12,1022.3,,,,0,0,0,,,,,,,,,4/8 Partly Cloudy,72000.0,,SCT,3000,,,,,,
KRDR,02-28-2005,12:00,METAR,,330,14,,,9999,Cloud Development Not Observable,-11.0,-11.0,30.11,1021.8,,,,0,0,0,,,,,,,IN,,7/8 Mostly Cloudy,3900.0,,BKN,4000,,,,,,
KRDR,02-28-2005,11:00,METAR,,330,14,,,9999,Cloud Development Not Observable,-10.0,-10.0,30.10,1021.3,,,,0,0,0,,,,,,,,,7/8 Mostly Cloudy,3900.0,,FEW,1600,BKN,4000.0,,,,
KRDR,02-28-2005,10:00,METAR,,340,14,,,9999,Cloud Development Not Observable,-9.0,-9.0,30.09,1021.0,,,,0,0,0,,,,,,,,,7/8 Mostly Cloudy,4200.0,,FEW,1600,BKN,4300.0,,,,
KRDR,02-28-2005,09:00,METAR,,340,13,,,9999,Light Snow/Drifting Snow/Cloud Development Not Observable,-9.0,-9.0,30.09,1021.0,,,,71,36,0,,,,,,TRACE,,,7/8 Mostly Cloudy,4200.0,,FEW,1600,BKN,4300.0,,,,
KRDR,02-28-2005,08:00,METAR,,340,15,,,9999,Light Snow/Drifting Snow/Cloud Development Not Observable,-9.0,-9.0,30.09,1021.0,,,,71,36,0,,,,,,,,,7/8 Mostly Cloudy,4200.0,,FEW,1600,BKN,4300.0,,,,
KRDR,02-28-2005,07:00,METAR,,350,16,,,9999,Light Snow/Drifting Snow/Cloud Development Not Observable,-8.0,-8.0,30.09,1020.9,,,,71,36,0,,,,,,,,,8/8 Overcast,3900.0,,FEW,1500,OVC,4000.0,,,,
KRDR,02-28-2005,06:00,METAR,,350,20,,,9999,Light Snow/Drifting Snow/Cloud Development Not Observable,-8.0,-8.0,30.09,1021.0,,,,71,36,0,,,,,,,IN,,8/8 Overcast,3900.0,,FEW,2000,OVC,4000.0,,,,
KRDR,02-28-2005,05:00,METAR,,340,16,,,9999,Light Snow/Cloud Development Not Observable,-8.0,-8.0,30.08,1020.8,,,,71,0,0,,,,,,,,,8/8 Overcast,3900.0,,SCT,1900,OVC,4000.0,,,,
KRDR,02-28-2005,04:27,SPECI,,350,14,,,9999,Light Snow/Cloud Development Not Observable,-8.0,-8.0,30.09,,,,,71,0,0,,,,,,,,,8/8 Overcast,3900.0,,SCT,1900,OVC,4000.0,,,,
KRDR,02-28-2005,04:00,METAR,,350,16,,,9999,Drifting Snow/Cloud Development Not Observable,-7.0,-7.0,30.08,1020.5,,,,36,0,0,,,,,,,,,8/8 Overcast,3900.0,,SCT,1900,OVC,4000.0,,,,
KRDR,02-28-2005,03:34,SPECI,,360,18,,,8000,Blowing Snow/Cloud Development Not Observable,-7.0,-7.0,30.08,,,,,38,0,0,,,,,,,,,8/8 Overcast,3000.0,,SCT,1900,OVC,3000.0,,,,
KRDR,02-28-2005,03:00,METAR,,340,15,,,9999,Cloud Development Not Observable,-6.0,-6.0,30.07,1020.3,,,,0,0,0,,,,,,TRACE,,,8/8 Overcast,1900.0,,BKN,1900,OVC,3000.0,,,,
KRDR,02-28-2005,02:46,SPECI,,340,13,,,9999,Cloud Development Not Observable,-6.0,-6.0,30.07,,,,,0,0,0,,,,,,,,,8/8 Overcast,1900.0,,BKN,1900,OVC,3000.0,,,,
KRDR,02-28-2005,02:00,METAR,,350,13,,,9999,Light Snow/Cloud Development Not Observable,-7.0,-7.0,30.07,1020.4,,,,71,0,0,,,,,,,,,8/8 Overcast,1900.0,,BKN,1900,OVC,3000.0,,,,
KRDR,02-28-2005,01:00,METAR,,350,15,,,8000,Light Snow/Blowing Snow/Cloud Development Not Observable,-7.0,-7.0,30.07,1020.3,,,,71,38,0,,,,,,,,,8/8 Overcast,1900.0,,OVC,1900,,,,,,
KRDR,02-28-2005,00:42,SPECI,,350,14,,,8000,Light Snow/Drifting Snow/Cloud Development Not Observable,-7.0,-7.0,30.07,,,,,71,36,0,,,,,,,,,8/8 Overcast,2000.0,,OVC,2000,,,,,,
KRDR,02-28-2005,00:00,METAR,,350,16,,,8000,Drifting Snow/Mist/Cloud Development Not Observable,-7.0,-7.0,30.05,1019.6,,,,10,36,0,,,,,,,IN,,8/8 Overcast,1400.0,,OVC,1400,,,,,,
KRDR,02-27-2005,23:00,METAR,,340,11,,,8000,Light Snow/Mist/Cloud Development Not Observable,-6.0,-7.0,30.03,1018.9,,,,71,10,0,,,,,,,,,8/8 Overcast,2000.0,,BKN,2000,BKN,4000.0,OVC,5900.0,,
KRDR,02-27-2005,22:00,METAR,,350,12,,,6400,Light Snow/Mist/Cloud Development Not Observable,-5.0,-6.0,30.02,1018.5,,,,71,10,0,,,,,,,,,8/8 Overcast,1900.0,,OVC,1900,,,,,,
KRDR,02-27-2005,21:00,METAR,,340,13,,,6400,Light Snow/Drifting Snow/Mist,-5.0,-6.0,30.01,1018.2,,,,71,10,36,,,,,,TRACE,,,8/8 Overcast,1600.0,,OVC,1600,,,,,,
KRDR,02-27-2005,20:00,METAR,,330,14,,,6400,Light Snow/Drifting Snow/Mist,-5.0,-6.0,30.01,1018.2,,,,71,10,36,,,,,,,,,8/8 Overcast,1700.0,,OVC,1700,,,,,,
KRDR,02-27-2005,19:00,METAR,,330,13,,,3200,Light Snow/Drifting Snow/Mist,-5.0,-6.0,30.01,1018.2,,,,71,10,36,,,,,,,,,8/8 Overcast,2500.0,,OVC,2500,,,,,,
KRDR,02-27-2005,18:21,SPECI,,330,13,,,4000,Light Snow/Mist/Cloud Development Not Observable,-5.0,-6.0,30.01,,,,,71,10,0,,,,,,,,,8/8 Overcast,2800.0,,OVC,2800,,,,,,
KRDR,02-27-2005,18:00,METAR,,320,12,,,4800,Light Snow/Mist/Cloud Development Not Observable,-6.0,-7.0,30.02,1018.6,,,,71,10,0,,,,,,,.01 IN,,8/8 Overcast,1500.0,,OVC,1500,,,,,,
KRDR,02-27-2005,17:00,METAR,,330,13,,,3200,Light Snow/Mist/Cloud Development Not Observable,-6.0,-7.0,30.01,1018.2,,,,71,10,0,,,,,,,,,8/8 Overcast,2500.0,,BKN,2500,OVC,3500.0,,,,
KRDR,02-27-2005,16:22,SPECI,,330,14,,,3200,Light Snow/Mist/Cloud Development Not Observable,-6.0,-6.0,30.00,,,,,71,10,0,,,,,,,,,8/8 Overcast,2500.0,,BKN,2500,OVC,3300.0,,,,
KRDR,02-27-2005,16:04,SPECI,,320,11,,,4800,Light Snow/Mist/Cloud Development Not Observable,-6.0,-6.0,30.00,,,,,71,10,0,,,,,,,,,8/8 Overcast,2000.0,,OVC,2000,,,,,,
KRDR,02-27-2005,16:00,METAR,,320,11,,,3200,Light Snow/Mist/Cloud Development Not Observable,-6.0,-7.0,30.00,1017.8,,,,71,10,0,,,,,,,,,8/8 Overcast,2000.0,,OVC,2000,,,,,,
KRDR,02-27-2005,15:32,SPECI,,320,11,,,3200,Light Snow/Mist/Cloud Development Not Observable,-6.0,-7.0,30.00,,,,,71,10,0,,,,,,,,,8/8 Overcast,1400.0,,OVC,1400,,,,,,
KRDR,02-27-2005,15:00,METAR,,330,9,,,6400,Light Snow/Mist/Cloud Development Not Observable,-6.0,-7.0,29.99,1017.2,,,,71,10,0,,,,,,TRACE,,,8/8 Overcast,1400.0,,OVC,1400,,,,,,
KRDR,02-27-2005,14:00,METAR,,320,11,,,8000,Light Snow/Mist/Cloud Development Not Observable,-7.0,-8.0,29.98,1017.2,,,,71,10,0,,,,,,,,,8/8 Overcast,1400.0,,OVC,1400,,,,,,
KRDR,02-27-2005,13:00,METAR,,310,10,,,9999,Light Snow/Cloud Development Not Observable,-6.0,-7.0,29.97,1016.8,,,,71,0,0,,,,,,,,,8/8 Overcast,1200.0,,OVC,1200,,,,,,
KRDR,02-27-2005,12:00,METAR,,320,10,,,9999,Mist/Cloud Development Not Observable,-6.0,-6.0,29.97,1016.7,,,,10,0,0,,,,,,,,TRACE,8/8 Overcast,1100.0,,OVC,1100,,,,,,
KRDR,02-27-2005,11:00,METAR,,320,10,,,9999,Mist/Cloud Development Not Observable,-6.0,-6.0,29.96,1016.4,,,,10,0,0,,,,,,,,,8/8 Overcast,900.0,,OVC,900,,,,,,
KRDR,02-27-2005,10:00,METAR,,330,12,,,9999,Mist/Cloud Development Not Observable,-6.0,-6.0,29.94,1015.7,,,,10,0,0,,,,,,,,,8/8 Overcast,800.0,,OVC,800,,,,,,
KRDR,02-27-2005,09:00,METAR,,320,12,,,9999,Mist/Cloud Development Not Observable,-6.0,-6.0,29.93,1015.4,,,,10,0,0,,,,,,,,,8/8 Overcast,1000.0,,OVC,1000,,,,,,
KRDR,02-27-2005,08:00,METAR,,330,10,,,9999,Mist/Cloud Development Not Observable,-6.0,-6.0,29.93,1015.4,,,,10,0,0,,,,,,,,,8/8 Overcast,1000.0,,OVC,1000,,,,,,
KRDR,02-27-2005,07:00,METAR,,330,8,,,8000,Light Snow/Mist/Cloud Development Not Observable,-6.0,-6.0,29.93,1015.4,,,,71,10,0,,,,,,,,,8/8 Overcast,1000.0,,OVC,1000,,,,,,
KRDR,02-27-2005,06:00,METAR,,340,7,,,8000,Light Snow/Mist/Cloud Development Not Observable,-6.0,-6.0,29.93,1015.5,,,,71,10,0,,,,,,,IN,,8/8 Overcast,1000.0,,OVC,1000,,,,,,
KRDR,02-27-2005,05:05,SPECI,,360,6,,,8000,Mist/Cloud Development Not Observable,-6.0,-6.0,29.93,,,,,10,0,0,,,,,,,,,8/8 Overcast,1200.0,,OVC,1200,,,,,,
KRDR,02-27-2005,05:00,METAR,,360,6,,,6400,Freezing Drizzle/Mist/Cloud Development Not Observable,-5.0,-5.0,29.93,1015.6,,,,56,10,0,,,,,,,,,8/8 Overcast,1500.0,,OVC,1500,,,,,,
KRDR,02-27-2005,04:00,METAR,,250,5,,,6400,Freezing Drizzle/Mist/Cloud Development Not Observable,-5.0,-5.0,29.93,1015.8,,,,56,10,0,,,,,,,,,8/8 Overcast,1500.0,,OVC,1500,,,,,,
KRDR,02-27-2005,03:00,METAR,,320,4,,,6400,Freezing Drizzle/Mist/Cloud Development Not Observable,-5.0,-5.0,29.93,1015.8,,,,56,10,0,,,,,,TRACE,,,8/8 Overcast,1500.0,,OVC,1500,,,,,,
KRDR,02-27-2005,02:19,SPECI,,320,2,,,6400,Freezing Drizzle/Mist/Cloud Development Not Observable,-5.0,-5.0,29.94,,,,,56,10,0,,,,,,,,,8/8 Overcast,1500.0,,OVC,1500,,,,,,
KRDR,02-27-2005,02:00,METAR,,290,2,,,6400,Mist/Cloud Development Not Observable,-5.0,-5.0,29.94,1016.3,,,,10,0,0,,,,,,,,,8/8 Overcast,1500.0,,OVC,1500,,,,,,
KRDR,02-27-2005,01:00,METAR,,250,3,,,6400,Light Snow/Mist/Cloud Development Not Observable,-4.0,-5.0,29.95,1016.5,,,,71,10,0,,,,,,,,,8/8 Overcast,1100.0,,BKN,1100,OVC,1400.0,,,,
KRDR,02-27-2005,00:00,METAR,,180,6,,,6400,Light Snow/Mist/Cloud Development Not Observable,-3.0,-4.0,29.95,1016.5,,,,71,10,0,,,,,,,IN,,8/8 Overcast,1300.0,,BKN,1300,OVC,1500.0,,,,
KRDR,02-26-2005,23:00,METAR,,160,6,,,4800,Light Snow/Mist/Cloud Development Not Observable,-4.0,-4.0,29.95,1016.6,,,,71,10,0,,,,,,,,,8/8 Overcast,1200.0,,BKN,1200,OVC,1800.0,,,,
KRDR,02-26-2005,22:35,SPECI,,170,7,,,4800,Light Snow/Mist/Cloud Development Not Observable,-4.0,-5.0,29.95,,,,,71,10,0,,,,,,,,,8/8 Overcast,1200.0,,BKN,1200,OVC,1600.0,,,,
KRDR,02-26-2005,22:00,METAR,,190,7,,,6400,Mist/Cloud Development Not Observable,-4.0,-5.0,29.96,1017.1,,,,10,0,0,,,,,,,,,8/8 Overcast,20000.0,,SCT,1700,OVC,20000.0,,,,
KRDR,02-26-2005,21:00,METAR,,180,5,,,4800,Mist/Cloud Development Not Observable,-5.0,-6.0,29.98,1017.7,,,,10,0,0,,,,,,,,,8/8 Overcast,1800.0,,SCT,1200,SCT,1800.0,OVC,20000.0,,
KRDR,02-26-2005,20:00,METAR,,160,8,,,6400,Mist/Cloud Development Not Observable,-5.0,-7.0,29.99,1017.9,,,,10,0,0,,,,,,,,,8/8 Overcast,20000.0,,SCT,1300,OVC,20000.0,,,,
KRDR,02-26-2005,19:00,METAR,,160,9,,,6400,Mist/Cloud Development Not Observable,-7.0,-8.0,30.03,1019.4,,,,10,0,0,,,,,,,,,8/8 Overcast,20000.0,,SCT,1200,OVC,20000.0,,,,
KRDR,02-26-2005,18:00,METAR,,140,8,,,8000,Mist/Cloud Development Not Observable,-9.0,-10.0,30.07,1020.9,,,,10,0,0,,,,,,,,,8/8 Overcast,1200.0,,FEW,900,SCT,1200.0,OVC,20000.0,,
KRDR,02-26-2005,17:00,METAR,,120,4,,,8000,Mist/Cloud Development Not Observable,-11.0,-12.0,30.09,1021.7,,,,10,0,0,,,,,,,,,7/8 Mostly Cloudy,20000.0,,FEW,600,FEW,900.0,BKN,20000.0,,
KRDR,02-26-2005,16:09,SPECI,,110,5,,,8000,Mist/Cloud Development Not Observable,-13.0,-13.0,30.11,,,,,10,0,0,,,,,,,,,7/8 Mostly Cloudy,20000.0,,FEW,600,BKN,20000.0,,,,
KRDR,02-26-2005,16:00,METAR,,,3,,,8000,Mist/Cloud Development Not Observable,-14.0,-15.0,30.12,1022.7,,,,10,0,0,,,,,,,,,7/8 Mostly Cloudy,20000.0,,FEW,900,BKN,20000.0,,,,
KRDR,02-26-2005,15:00,METAR,,140,1,,,9999,Cloud Development Not Observable,-17.0,-17.0,30.13,1023.1,,,,0,0,0,,,,,,,,,4/8 Partly Cloudy,72000.0,,SCT,20000,,,,,,
KRDR,02-26-2005,14:00,METAR,,130,2,,,9999,Cloud Development Not Observable,-19.0,-19.0,30.13,1023.2,,,,0,0,0,,,,,,,,,2/8 Mostly Clear,72000.0,,FEW,20000,,,,,,
KRDR,02-26-2005,13:00,METAR,,,0,,,9999,Cloud Development Not Observable,-19.0,-19.0,30.15,1024.0,,,,0,0,0,,,,,,,,,4/8 Partly Cloudy,72000.0,,SCT,20000,,,,,,
KRDR,02-26-2005,12:00,METAR,,,0,,,9999,Cloud Development Not Observable,-20.0,-20.0,30.16,1024.1,,,,0,0,0,,,,,,,,,4/8 Partly Cloudy,72000.0,,SCT,20000,,,,,,
KRDR,02-26-2005,11:00,METAR,,220,1,,,9999,Cloud Development Not Observable,-20.0,-20.0,30.17,1024.5,,,,0,0,0,,,,,,,,,4/8 Partly Cloudy,72000.0,,SCT,20000,,,,,,
KRDR,02-26-2005,10:00,METAR,,,0,,,9999,Cloud Development Not Observable,-19.0,-19.0,30.19,1025.0,,,,0,0,0,,,,,,,,,2/8 Mostly Clear,72000.0,,FEW,20000,,,,,,
KRDR,02-26-2005,09:00,METAR,,,1,,,9999,Cloud Development Not Observable,-19.0,-19.0,30.21,1025.7,,,,0,0,0,,,,,,,,,2/8 Mostly Clear,72000.0,,FEW,20000,,,,,,
KRDR,02-26-2005,08:00,METAR,,,0,,,9999,Cloud Development Not Observable,-18.0,-18.0,30.22,1026.0,,,,0,0,0,,,,,,,,,4/8 Partly Cloudy,72000.0,,SCT,20000,,,,,,
KRDR,02-26-2005,07:00,METAR,,290,1,,,9999,Cloud Development Not Observable,-18.0,-18.0,30.23,1026.5,,,,0,0,0,,,,,,,,,4/8 Partly Cloudy,72000.0,,SCT,20000,,,,,,
KRDR,02-26-2005,06:00,METAR,,300,1,,,9999,Cloud Development Not Observable,-17.0,-17.0,30.25,1027.0,,,,0,0,0,,,,,,,,,2/8 Mostly Clear,72000.0,,FEW,20000,,,,,,
KRDR,02-26-2005,05:00,METAR,,300,2,,,9999,Cloud Development Not Observable,-17.0,-17.0,30.25,1027.0,,,,0,0,0,,,,,,,,,2/8 Mostly Clear,72000.0,,FEW,20000,,,,,,
KRDR,02-26-2005,04:00,METAR,,330,3,,,9999,Cloud Development Not Observable,-16.0,-16.0,30.26,1027.3,,,,0,0,0,,,,,,,,,4/8 Partly Cloudy,72000.0,,SCT,20000,,,,,,
KRDR,02-26-2005,03:00,METAR,,330,2,,,9999,Cloud Development Not Observable,-16.0,-17.0,30.25,1027.2,,,,0,0,0,,,,,,,,,4/8 Partly Cloudy,72000.0,,SCT,20000,,,,,,
KRDR,02-26-2005,02:00,METAR,,350,3,,,9999,Cloud Development Not Observable,-15.0,-15.0,30.25,1027.2,,,,0,0,0,,,,,,,,,2/8 Mostly Clear,72000.0,,FEW,20000,,,,,,
KRDR,02-26-2005,01:00,METAR,,350,2,,,9999,Cloud Development Not Observable,-13.0,-13.0,30.25,1027.0,,,,0,0,0,,,,,,,,,2/8 Mostly Clear,72000.0,,FEW,20000,,,,,,
KRDR,02-26-2005,00:00,METAR,,360,6,,,9999,Cloud Development Not Observable,-10.0,-11.0,30.24,1026.4,,,,0,0,0,,,,,,,,,2/8 Mostly Clear,72000.0,,FEW,20000,,,,,,
KRDR,02-25-2005,23:00,METAR,,350,5,,,9999,Cloud Development Not Observable,-9.0,-10.0,30.24,1026.5,,,,0,0,0,,,,,,,,,2/8 Mostly Clear,72000.0,,FEW,20000,,,,,,
KRDR,02-25-2005,22:00,METAR,,10,8,,,9999,Cloud Development Not Observable,-7.0,-9.0,30.23,1026.0,,,,0,0,0,,,,,,,,,2/8 Mostly Clear,72000.0,,FEW,20000,,,,,,
KRDR,02-25-2005,21:00,METAR,,360,6,,,9999,Cloud Development Not Observable,-7.0,-9.0,30.23,1026.0,,,,0,0,0,,,,,,,,,2/8 Mostly Clear,72000.0,,FEW,20000,,,,,,
KRDR,02-25-2005,20:00,METAR,,350,7,,,9999,Cloud Development Not Observable,-8.0,-10.0,30.23,1026.1,,,,0,0,0,,,,,,,,,2/8 Mostly Clear,72000.0,,FEW,20000,,,,,,
KRDR,02-25-2005,19:00,METAR,,360,10,,,9999,Cloud Development Not Observable,-8.0,-9.0,30.24,1026.4,,,,0,0,0,,,,,,,,,2/8 Mostly Clear,72000.0,,FEW,2000,FEW,20000.0,,,,
KRDR,02-25-2005,18:00,METAR,,360,10,,,9999,Cloud Development Not Observable,-8.0,-9.0,30.23,1026.0,,,,0,0,0,,,,,,,,,2/8 Mostly Clear,72000.0,,FEW,20000,,,,,,
KRDR,02-25-2005,17:00,METAR,,360,12,,,9999,Cloud Development Not Observable,-8.0,-10.0,30.22,1025.6,,,,0,0,0,,,,,,,,,2/8 Mostly Clear,72000.0,,FEW,25000,,,,,,
KRDR,02-25-2005,16:00,METAR,,360,10,,,9999,Cloud Development Not Observable,-9.0,-10.0,30.20,1024.9,,,,0,0,0,,,,,,,,,2/8 Mostly Clear,72000.0,,FEW,25000,,,,,,
KRDR,02-25-2005,15:00,METAR,,330,5,,,9999,Cloud Development Not Observable,-12.0,-12.0,30.18,1024.4,,,,0,0,0,,,,,,,,,2/8 Mostly Clear,72000.0,,FEW,25000,,,,,,
KRDR,02-25-2005,14:00,METAR,,360,6,,,9999,Cloud Development Not Observable,-13.0,-13.0,30.17,1023.9,,,,0,0,0,,,,,,,,,2/8 Mostly Clear,72000.0,,FEW,25000,,,,,,
KRDR,02-25-2005,13:00,METAR,,340,9,,,9999,Cloud Development Not Observable,-12.0,-12.0,30.14,1023.0,,,,0,0,0,,,,,,,,,2/8 Mostly Clear,72000.0,,FEW,1100,,,,,,
KRDR,02-25-2005,12:00,METAR,,340,13,,,9999,Cloud Development Not Observable,-10.0,-10.0,30.12,1022.0,,,,0,0,0,,,,,,,,,8/8 Overcast,1100.0,,SCT,800,OVC,1100.0,,,,
KRDR,02-25-2005,11:24,SPECI,,340,14,,,9999,Cloud Development Not Observable,-10.0,-10.0,30.10,,,,,0,0,0,,,,,,,,,7/8 Mostly Cloudy,1200.0,,SCT,800,BKN,1200.0,,,,
KRDR,02-25-2005,11:00,METAR,,340,14,,,9999,Cloud Development Not Observable,-9.0,-9.0,30.09,1021.0,,,,0,0,0,,,,,,,,,4/8 Partly Cloudy,72000.0,,SCT,1200,,,,,,
KRDR,02-25-2005,10:00,METAR,,350,13,,,9999,Cloud Development Not Observable,-8.0,-8.0,30.06,1020.0,,,,0,0,0,,,,,,,,,4/8 Partly Cloudy,72000.0,,SCT,1300,,,,,,
KRDR,02-25-2005,09:00,METAR,,350,14,,,9999,Cloud Development Not Observable,-8.0,-8.0,30.04,1019.3,,,,0,0,0,,,,,,,,,4/8 Partly Cloudy,72000.0,,SCT,1200,,,,,,
KRDR,02-25-2005,08:00,METAR,,330,13,,,9999,Cloud Development Not Observable,-9.0,-9.0,30.02,1018.7,,,,0,0,0,,,,,,,,,2/8 Mostly Clear,72000.0,,FEW,900,,,,,,
KRDR,02-25-2005,07:10,SPECI,,330,13,,,9999,Cloud Development Not Observable,-11.0,-11.0,30.00,,,,,0,0,0,,,,,,,,,2/8 Mostly Clear,72000.0,,FEW,600,,,,,,
KRDR,02-25-2005,07:00,METAR,,330,13,,,9999,Cloud Development Not Observable,-10.0,-10.0,29.99,1017.9,,,,0,0,0,,,,,,,,,Clear,72000.0,,,73000,,,,,,
KRDR,02-25-2005,06:00,METAR,,340,16,,,9999,Cloud Development Not Observable,-8.0,-8.0,29.96,1016.6,,,,0,0,0,,,,,,,,,Clear,72000.0,,,73000,,,,,,
KRDR,02-25-2005,05:00,METAR,,330,6,,,9999,Cloud Development Not Observable,-11.0,-11.0,29.95,1016.5,,,,0,0,0,,,,,,,,,4/8 Partly Cloudy,72000.0,,SCT,8400,,,,,,
KRDR,02-25-2005,04:00,METAR,,,2,,,9999,Cloud Development Not Observable,-8.0,-8.0,29.91,1015.1,,,,0,0,0,,,,,,,,,4/8 Partly Cloudy,72000.0,,SCT,8400,,,,,,
KRDR,02-25-2005,03:00,METAR,,180,6,,,9999,Cloud Development Not Observable,-5.0,-6.0,29.91,1015.1,,,,0,0,0,,,,,,,,,7/8 Mostly Cloudy,8500.0,,BKN,8400,,,,,,
KRDR,02-25-2005,02:00,METAR,,180,7,,,9999,Cloud Development Not Observable,-5.0,-6.0,29.92,1015.8,,,,0,0,0,,,,,,,,,7/8 Mostly Cloudy,10000.0,,BKN,9900,BKN,20000.0,,,,
KRDR,02-25-2005,01:00,METAR,,180,11,,,9999,Cloud Development Not Observable,-4.0,-6.0,29.91,1015.3,,,,0,0,0,,,,,,,,,7/8 Mostly Cloudy,10000.0,,BKN,9900,BKN,20000.0,,,,
KRDR,02-25-2005,00:00,METAR,,170,10,,,9999,Cloud Development Not Observable,-4.0,-6.0,29.93,1015.8,,,,0,0,0,,,,,,,,,7/8 Mostly Cloudy,9000.0,,BKN,8900,BKN,20000.0,,,,
KRDR,02-24-2005,23:00,METAR,,170,12,17.0,,9999,Cloud Development Not Observable,-4.0,-6.0,29.94,1016.2,,,,0,0,0,,,,,,,,,8/8 Overcast,9000.0,,BKN,8900,OVC,20000.0,,,,
KRDR,02-24-2005,22:00,METAR,,190,14,19.0,,9999,Cloud Development Not Observable,-4.0,-6.0,29.95,1016.5,,,,0,0,0,,,,,,,,,8/8 Overcast,9000.0,,BKN,8900,OVC,20000.0,,,,
KRDR,02-24-2005,21:00,METAR,,180,13,,,9999,Cloud Development Not Observable,-5.0,-7.0,29.97,1017.3,,,,0,0,0,,,,,,,,,8/8 Overcast,10000.0,,BKN,9900,OVC,20000.0,,,,
KRDR,02-24-2005,20:00,METAR,,190,14,,,9999,Cloud Development Not Observable,-5.0,-7.0,30.01,1018.6,,,,0,0,0,,,,,,,,,8/8 Overcast,10000.0,,OVC,9900,,,,,,
KRDR,02-24-2005,19:00,METAR,,190,12,,,9999,Cloud Development Not Observable,-6.0,-8.0,30.05,1021.2,,,,0,0,0,,,,,,,,,7/8 Mostly Cloudy,9000.0,,BKN,8900,BKN,11000.0,,,,
KRDR,02-24-2005,18:00,METAR,,180,11,,,9999,Cloud Development Not Observable,-8.0,-9.0,30.09,1021.2,,,,0,0,0,,,,,,,,,8/8 Overcast,9000.0,,BKN,8900,OVC,11000.0,,,,
KRDR,02-24-2005,17:00,METAR,,180,7,,,9999,Cloud Development Not Observable,-10.0,-11.0,30.12,1022.5,,,,0,0,0,,,,,,,,,8/8 Overcast,7000.0,,OVC,6900,,,,,,
KRDR,02-24-2005,16:00,METAR,,210,4,,,9999,Cloud Development Not Observable,-11.0,-11.0,30.15,1023.4,,,,0,0,0,,,,,,,,,8/8 Overcast,6500.0,,OVC,6400,,,,,,
KRDR,02-24-2005,15:00,METAR,,220,5,,,9999,Cloud Development Not Observable,-12.0,-12.0,30.15,1023.6,,,,0,0,0,,,,,,,,,7/8 Mostly Cloudy,6000.0,,SCT,300,BKN,5900.0,,,,
KRDR,02-24-2005,14:35,SPECI,,220,5,,,9999,Mist/Cloud Development Not Observable,-16.0,-16.0,30.16,,,,,10,0,0,,,,,,,,,7/8 Mostly Cloudy,300.0,,BKN,300,,,,,,
KRDR,02-24-2005,14:00,METAR,,200,5,,,9999,Cloud Development Not Observable,-19.0,-19.0,30.17,1024.4,,,,0,0,0,,,,,,,,,7/8 Mostly Cloudy,6000.0,,FEW,1000,BKN,5900.0,,,,
KRDR,02-24-2005,13:00,METAR,,210,2,,,9999,Mist/Cloud Development Not Observable,-19.0,-19.0,30.20,1025.5,,,,10,0,0,,,,,,,,,Clear,72000.0,,,73000,,,,,,
KRDR,02-24-2005,12:00,METAR,,190,2,,,9999,Mist/Cloud Development Not Observable,-19.0,-19.0,30.20,1025.4,,,,10,0,0,,,,,,,,,Clear,72000.0,,,73000,,,,,,
KRDR,02-24-2005,11:00,METAR,,220,1,,,9999,Cloud Development Not Observable,-19.0,-19.0,30.21,1025.8,,,,0,0,0,,,,,,,,,Clear,72000.0,,,73000,,,,,,
KRDR,02-24-2005,10:00,METAR,,,1,,,9999,Cloud Development Not Observable,-19.0,-19.0,30.22,1026.0,,,,0,0,0,,,,,,,,,2/8 Mostly Clear,72000.0,,FEW,9900,,,,,,
KRDR,02-24-2005,09:00,METAR,,250,1,,,9999,Cloud Development Not Observable,-20.0,-20.0,30.23,1026.4,,,,0,0,0,,,,,,,,,2/8 Mostly Clear,72000.0,,FEW,9900,,,,,,
KRDR,02-24-2005,08:00,METAR,,,0,,,9999,Cloud Development Not Observable,-18.0,-18.0,30.25,1027.1,,,,0,0,0,,,,,,,,,4/8 Partly Cloudy,72000.0,,SCT,5900,SCT,9900.0,,,,
KRDR,02-24-2005,07:00,METAR,,320,2,,,9999,Cloud Development Not Observable,-16.0,-16.0,30.24,1026.6,,,,0,0,0,,,,,,,,,7/8 Mostly Cloudy,10000.0,,SCT,5900,BKN,9900.0,,,,
KRDR,02-24-2005,06:00,METAR,,340,6,,,9999,Cloud Development Not Observable,-13.0,-13.0,30.25,1026.9,,,,0,0,0,,,,,,,,,8/8 Overcast,6000.0,,SCT,4700,BKN,5900.0,OVC,9900.0,,
KRDR,02-24-2005,05:00,METAR,,340,7,,,9999,Cloud Development Not Observable,-12.0,-12.0,30.25,1026.9,,,,0,0,0,,,,,,,,,8/8 Overcast,6500.0,,FEW,4500,BKN,6400.0,OVC,9900.0,,
KRDR,02-24-2005,04:00,METAR,,340,8,,,9999,Cloud Development Not Observable,-12.0,-12.0,30.26,1027.4,,,,0,0,0,,,,,,,,,8/8 Overcast,7000.0,,FEW,4500,BKN,6900.0,OVC,9900.0,,
KRDR,02-24-2005,03:00,METAR,,340,9,,,9999,Cloud Development Not Observable,-12.0,-12.0,30.25,1027.2,,,,0,0,0,,,,,,,,,8/8 Overcast,7000.0,,FEW,4500,SCT,6900.0,OVC,9900.0,,
KRDR,02-24-2005,02:00,METAR,,340,7,,,9999,Cloud Development Not Observable,-12.0,-12.0,30.25,1027.2,,,,0,0,0,,,,,,,,,8/8 Overcast,7000.0,,FEW,4500,SCT,6900.0,OVC,9900.0,,
KRDR,02-24-2005,01:00,METAR,,340,7,,,9999,Cloud Development Not Observable,-11.0,-12.0,30.25,1027.2,,,,0,0,0,,,,,,,,,8/8 Overcast,7000.0,,SCT,4500,BKN,6900.0,OVC,9900.0,,
KRDR,02-24-2005,00:00,METAR,,360,10,,,9999,Cloud Development Not Observable,-10.0,-11.0,30.24,1026.7,,,,0,0,0,,,,,,,,,8/8 Overcast,7000.0,,BKN,6900,OVC,9900.0,,,,
KRDR,02-23-2005,23:00,METAR,,360,11,,,9999,Cloud Development Not Observable,-9.0,-10.0,30.24,1026.6,,,,0,0,0,,,,,,,,,7/8 Mostly Cloudy,6000.0,,FEW,4000,SCT,5900.0,BKN,7900.0,BKN,25000.0
KRDR,02-23-2005,22:00,METAR,,10,8,,,9999,Cloud Development Not Observable,-7.0,-9.0,30.24,1026.5,,,,0,0,0,,,,,,,,,8/8 Overcast,6000.0,,SCT,4000,BKN,5900.0,OVC,8900.0,,
KRDR,02-23-2005,21:00,METAR,,360,8,,,9999,Cloud Development Not Observable,-7.0,-9.0,30.22,1025.9,,,,0,0,0,,,,,,,,,8/8 Overcast,7000.0,,FEW,3000,BKN,6900.0,OVC,9900.0,,
KRDR,02-23-2005,20:00,METAR,,,6,,,9999,Mist/Cloud Development Not Observable,-8.0,-10.0,30.25,1027.0,,,,10,0,0,,,,,,,,,8/8 Overcast,6000.0,,FEW,3000,OVC,5900.0,,,,
KRDR,02-23-2005,19:00,METAR,,,5,,,9999,Mist/Cloud Development Not Observable,-8.0,-10.0,30.26,1027.0,,,,10,0,0,,,,,,,,,8/8 Overcast,7000.0,,OVC,6900,,,,,,
KRDR,02-23-2005,18:00,METAR,,,2,,,9999,Mist/Cloud Development Not Observable,-9.0,-12.0,30.27,1028.2,,,,10,0,0,,,,,,,,,7/8 Mostly Cloudy,7000.0,,FEW,3100,BKN,6900.0,BKN,11000.0,,
KRDR,02-23-2005,17:00,METAR,,,2,,,9999,Mist/Cloud Development Not Observable,-10.0,-12.0,30.27,1027.5,,,,10,0,0,,,,,,,,,7/8 Mostly Cloudy,6500.0,,SCT,3100,BKN,6400.0,BKN,9900.0,,
KRDR,02-23-2005,16:00,METAR,,,2,,,9999,Mist/Cloud Development Not Observable,-14.0,-14.0,30.29,1028.6,,,,10,0,0,,,,,,,,,7/8 Mostly Cloudy,3100.0,,BKN,3100,BKN,9900.0,,,,
KRDR,02-23-2005,15:00,METAR,,,1,,,9999,Mist/Cloud Development Not Observable,-17.0,-17.0,30.30,1028.8,,,,10,0,0,,,,,,,,,7/8 Mostly Cloudy,3100.0,,BKN,3100,,,,,,
KRDR,02-23-2005,14:00,METAR,,,0,,,9999,Cloud Development Not Observable,-18.0,-18.0,30.29,1028.6,,,,0,0,0,,,,,,,,,7/8 Mostly Cloudy,3100.0,,BKN,3100,,,,,,
KRDR,02-23-2005,13:00,METAR,,,0,,,9999,Cloud Development Not Observable,-18.0,-18.0,30.30,1028.8,,,,0,0,0,,,,,,,,,4/8 Partly Cloudy,72000.0,,SCT,3500,,,,,,
KRDR,02-23-2005,12:00,METAR,,200,1,,,9999,Cloud Development Not Observable,-17.0,-17.0,30.29,1028.4,,,,0,0,0,,,,,,,,.02 IN,4/8 Partly Cloudy,72000.0,,SCT,3500,,,,,,
KRDR,02-23-2005,11:00,METAR,,200,4,,,9999,Cloud Development Not Observable,-16.0,-16.0,30.29,1028.2,,,,0,0,0,,,,,,,,,7/8 Mostly Cloudy,3400.0,,BKN,3500,,,,,,
KRDR,02-23-2005,10:00,METAR,,,3,,,9999,Cloud Development Not Observable,-15.0,-15.0,30.29,1028.1,,,,0,0,0,,,,,,,,,7/8 Mostly Cloudy,3400.0,,BKN,3500,,,,,,
KRDR,02-23-2005,09:00,METAR,,,0,,,9999,Cloud Development Not Observable,-13.0,-13.0,30.29,1028.0,,,,0,0,0,,,,,,,,,7/8 Mostly Cloudy,3000.0,,BKN,3000,,,,,,
KRDR,02-23-2005,08:00,METAR,,,3,,,9999,Cloud Development Not Observable,-12.0,-12.0,30.30,1028.4,,,,0,0,0,,,,,,,,,7/8 Mostly Cloudy,4400.0,,FEW,3100,BKN,4500.0,,,,
KRDR,02-23-2005,07:00,METAR,,,1,,,9999,Cloud Development Not Observable,-9.0,-10.0,30.30,1028.2,,,,0,0,0,,,,,,,,,7/8 Mostly Cloudy,3900.0,,FEW,2600,BKN,4000.0,,,,
KRDR,02-23-2005,06:00,METAR,,,1,,,9999,Cloud Development Not Observable,-10.0,-10.0,30.31,,,,,0,0,0,,,,,,,,,7/8 Mostly Cloudy,3400.0,,FEW,2500,BKN,3500.0,,,,
KRDR,02-23-2005,05:00,METAR,,190,6,,,9999,Cloud Development Not Observable,-12.0,-12.0,30.31,1029.0,,,,0,0,0,,,,,,,,,4/8 Partly Cloudy,72000.0,,SCT,3500,,,,,,
KRDR,02-23-2005,04:00,METAR,,170,7,,,9999,Cloud Development Not Observable,-14.0,-15.0,30.31,1029.2,,,,0,0,0,,,,,,,,,2/8 Mostly Clear,72000.0,,FEW,20000,,,,,,
KRDR,02-23-2005,03:00,METAR,,170,5,,,9999,Cloud Development Not Observable,-13.0,-13.0,30.30,1028.8,,,,0,0,0,,,,,,,,,4/8 Partly Cloudy,72000.0,,SCT,20000,,,,,,
KRDR,02-23-2005,02:00,METAR,,170,4,,,9999,Cloud Development Not Observable,-14.0,-15.0,30.30,1028.9,,,,0,0,0,,,,,,,,,4/8 Partly Cloudy,72000.0,,SCT,20000,,,,,,
KRDR,02-23-2005,01:00,METAR,,170,5,,,9999,Cloud Development Not Observable,-13.0,-13.0,30.32,1029.6,,,,0,0,0,,,,,,,,,4/8 Partly Cloudy,72000.0,,SCT,20000,,,,,,
KRDR,02-23-2005,00:00,METAR,,190,6,,,9999,Cloud Development Not Observable,-12.0,-13.0,30.31,1029.2,,,,0,0,0,,,,,,,,,4/8 Partly Cloudy,72000.0,,SCT,20000,,,,,,
KRDR,02-22-2005,23:00,METAR,,210,3,,,9999,Cloud Development Not Observable,-8.0,-10.0,30.31,1029.0,,,,0,0,0,,,,,,,,,2/8 Mostly Clear,72000.0,,FEW,25000,,,,,,
KRDR,02-22-2005,22:00,METAR,,200,5,,,9999,Cloud Development Not Observable,-7.0,-10.0,30.31,1028.9,,,,0,0,0,,,,,,,,,2/8 Mostly Clear,72000.0,,FEW,25000,,,,,,
KRDR,02-22-2005,21:00,METAR,,,5,,,9999,Cloud Development Not Observable,-7.0,-11.0,30.30,1028.5,,,,0,0,0,,,,,,,,,2/8 Mostly Clear,72000.0,,FEW,25000,,,,,,
KRDR,02-22-2005,20:00,METAR,,,5,,,9999,Cloud Development Not Observable,-7.0,-12.0,30.31,1028.6,,,,0,0,0,,,,,,,,,Clear,72000.0,,,73000,,,,,,
KRDR,02-22-2005,19:00,METAR,,,3,,,9999,Cloud Development Not Observable,-8.0,-11.0,30.33,1029.5,,,,0,0,0,,,,,,,,,Clear,72000.0,,,73000,,,,,,
KRDR,02-22-2005,18:00,METAR,,260,4,,,9999,Cloud Development Not Observable,-9.0,-12.0,30.33,1029.6,,,,0,0,0,,,,,,,IN,,Clear,72000.0,,,73000,,,,,,
KRDR,02-22-2005,17:00,METAR,,290,5,,,9999,Cloud Development Not Observable,-10.0,-13.0,30.33,1029.6,,,,0,0,0,,,,,,,,,Clear,72000.0,,,73000,,,,,,
KRDR,02-22-2005,16:00,METAR,,300,6,,,9999,Cloud Development Not Observable,-13.0,-13.0,30.32,1029.3,,,,0,0,0,,,,,,,,,Clear,72000.0,,,73000,,,,,,
KRDR,02-22-2005,15:00,METAR,,290,4,,,9999,Cloud Development Not Observable,-14.0,-14.0,30.30,1028.7,,,,0,0,0,,,,,,TRACE,,,Clear,72000.0,,,73000,,,,,,
KRDR,02-22-2005,14:00,METAR,,300,3,,,9999,Cloud Development Not Observable,-15.0,-15.0,30.29,1028.2,,,,0,0,0,,,,,,,,,2/8 Mostly Clear,72000.0,,FEW,3000,,,,,,
KRDR,02-22-2005,13:25,METAR,,310,5,,,9999,Cloud Development Not Observable,-15.0,-15.0,30.28,,,,,0,0,0,,,,,,,,,4/8 Partly Cloudy,72000.0,,SCT,3000,,,,,,
KRDR,02-22-2005,13:00,METAR,,300,5,,,9999,Light Snow/Cloud Development Not Observable,-15.0,-15.0,30.27,1027.4,,,,71,0,0,,,,,,,,,8/8 Overcast,3000.0,,OVC,3000,,,,,,
KRDR,02-22-2005,12:04,SPECI,,300,4,,,9999,Light Snow/Cloud Development Not Observable,-14.0,-14.0,30.25,,,,,71,0,0,,,,,,,,,4/8 Partly Cloudy,72000.0,,SCT,4000,,,,,,
KRDR,02-22-2005,12:00,METAR,,300,3,,,9999,Cloud Development Not Observable,-15.0,-15.0,30.25,1026.9,,,,0,0,0,,,,,,,.02 IN,,2/8 Mostly Clear,72000.0,,FEW,4000,,,,,,
KRDR,02-22-2005,11:00,METAR,,290,4,,,9999,Cloud Development Not Observable,-15.0,-15.0,30.22,1025.7,,,,0,0,0,,,,,,,,,2/8 Mostly Clear,72000.0,,FEW,4000,,,,,,
KRDR,02-22-2005,10:00,METAR,,320,4,,,9999,Cloud Development Not Observable,-13.0,-13.0,30.20,1024.9,,,,0,0,0,,,,,,,,,4/8 Partly Cloudy,72000.0,,SCT,4500,,,,,,
KRDR,02-22-2005,09:00,METAR,,310,6,,,8000,Light Snow/Cloud Development Not Observable,-11.0,-11.0,30.20,1024.9,,,,71,0,0,,,,,,.01 IN,,,8/8 Overcast,4400.0,,OVC,4500,,,,,,
KRDR,02-22-2005,08:00,METAR,,310,4,,,6400,Light Snow/Cloud Development Not Observable,-11.0,-11.0,30.18,1024.2,,,,71,0,0,,,,,,,,,8/8 Overcast,4900.0,,OVC,5000,,,,,,
KRDR,02-22-2005,07:00,METAR,,340,3,,,8000,Light Snow/Cloud Development Not Observable,-11.0,-11.0,30.17,1023.9,,,,71,0,0,,,,,,,,,8/8 Overcast,4900.0,,OVC,5000,,,,,,
KRDR,02-22-2005,06:00,METAR,,360,4,,,8000,Light Snow/Cloud Development Not Observable,-11.0,-11.0,30.15,1023.3,,,,71,0,0,,,,,,,.01 IN,,8/8 Overcast,3900.0,,OVC,4000,,,,,,
KRDR,02-22-2005,05:00,METAR,,10,4,,,8000,Light Snow/Cloud Development Not Observable,-10.0,-10.0,30.13,1022.6,,,,71,0,0,,,,,,,,,8/8 Overcast,4400.0,,OVC,4500,,,,,,
KRDR,02-22-2005,04:00,METAR,,30,4,,,8000,Light Snow/Cloud Development Not Observable,-10.0,-10.0,30.12,1022.4,,,,71,0,0,,,,,,,,,8/8 Overcast,4400.0,,OVC,4500,,,,,,
KRDR,02-22-2005,03:34,SPECI,,20,4,,,8000,Light Snow/Cloud Development Not Observable,-10.0,-10.0,30.12,,,,,71,0,0,,,,,,,,,8/8 Overcast,4400.0,,OVC,4500,,,,,,
KRDR,02-22-2005,03:00,METAR,,330,1,,,8000,Light Snow/Cloud Development Not Observable,-10.0,-10.0,30.11,1022.2,,,,71,0,0,,,,,,TRACE,,,8/8 Overcast,4400.0,,OVC,4500,,,,,,
KRDR,02-22-2005,02:16,SPECI,,310,1,,,8000,Light Snow/Cloud Development Not Observable,-10.0,-10.0,30.11,,,,,71,0,0,,,,,,,,,8/8 Overcast,4400.0,,OVC,4500,,,,,,
KRDR,02-22-2005,02:00,METAR,,330,1,,,6400,Light Snow/Cloud Development Not Observable,-10.0,-10.0,30.11,1022.2,,,,71,0,0,,,,,,,,,8/8 Overcast,3900.0,,BKN,4000,OVC,20000.0,,,,
KRDR,02-22-2005,01:00,METAR,,330,1,,,9999,Light Snow/Cloud Development Not Observable,-8.0,-9.0,30.10,1021.9,,,,71,0,0,,,,,,,,,8/8 Overcast,20000.0,,SCT,4000,OVC,20000.0,,,,
KRDR,02-22-2005,00:03,SPECI,,30,3,,,8000,Light Snow/Cloud Development Not Observable,-7.0,-10.0,30.09,,,,,71,0,0,,,,,,,,,8/8 Overcast,20000.0,,SCT,3500,OVC,20000.0,,,,
KRDR,02-22-2005,00:00,METAR,,30,3,,,9999,Cloud Development Not Observable,-7.0,-10.0,30.08,1021.3,,,,0,0,0,,,,,,,,,8/8 Overcast,20000.0,,SCT,4000,OVC,20000.0,,,,
KRDR,02-21-2005,23:00,METAR,,340,4,,,9999,Cloud Development Not Observable,-6.0,-10.0,30.07,1020.8,,,,0,0,0,,,,,,,,,8/8 Overcast,20000.0,,FEW,6900,OVC,20000.0,,,,
KRDR,02-21-2005,21:00,METAR,,,1,,,9999,Cloud Development Not Observable,-6.0,-10.0,30.06,1020.6,,,,0,0,0,,,,,,,,,8/8 Overcast,20000.0,,FEW,4000,OVC,20000.0,,,,
KRDR,02-21-2005,20:00,METAR,,,4,,,9999,Cloud Development Not Observable,-6.0,-11.0,30.05,1020.1,,,,0,0,0,,,,,,,,,8/8 Overcast,20000.0,,OVC,20000,,,,,,
KRDR,02-21-2005,19:00,METAR,,240,3,,,9999,Cloud Development Not Observable,-7.0,-11.0,30.05,1020.1,,,,0,0,0,,,,,,,,,7/8 Mostly Cloudy,20000.0,,BKN,20000,,,,,,
KRDR,02-21-2005,18:00,METAR,,210,4,,,9999,Cloud Development Not Observable,-9.0,-12.0,30.05,1020.3,,,,0,0,0,,,,,,,,,8/8 Overcast,20000.0,,OVC,20000,,,,,,
KRDR,02-21-2005,17:00,METAR,,280,6,,,9999,Cloud Development Not Observable,-11.0,-14.0,30.05,1020.4,,,,0,0,0,,,,,,,,,8/8 Overcast,20000.0,,OVC,20000,,,,,,
KRDR,02-21-2005,16:00,METAR,,220,5,,,9999,Cloud Development Not Observable,-14.0,-14.0,30.05,1020.5,,,,0,0,0,,,,,,,,,8/8 Overcast,20000.0,,OVC,20000,,,,,,
KRDR,02-21-2005,15:00,METAR,,230,7,,,9999,Cloud Development Not Observable,-16.0,-16.0,30.06,1020.8,,,,0,0,0,,,,,,,,,8/8 Overcast,20000.0,,OVC,20000,,,,,,
KRDR,02-21-2005,14:00,METAR,,240,4,,,9999,Cloud Development Not Observable,-19.0,-19.0,30.04,1020.2,,,,0,0,0,,,,,,,,,7/8 Mostly Cloudy,20000.0,,BKN,20000,,,,,,
KRDR,02-21-2005,13:00,METAR,,190,6,,,9999,Cloud Development Not Observable,-21.0,-21.0,30.03,1019.9,,,,0,0,0,,,,,,,,,2/8 Mostly Clear,72000.0,,FEW,20000,,,,,,
KRDR,02-21-2005,12:00,METAR,,240,1,,,9999,Cloud Development Not Observable,-20.0,-20.0,30.03,1019.8,,,,0,0,0,,,,,,,,,Clear,72000.0,,,73000,,,,,,
KRDR,02-21-2005,11:00,METAR,,230,4,,,9999,Cloud Development Not Observable,-19.0,-19.0,30.02,1019.4,,,,0,0,0,,,,,,,,,Clear,72000.0,,,73000,,,,,,
KRDR,02-21-2005,10:00,METAR,,210,3,,,9999,Cloud Development Not Observable,-20.0,-20.0,30.01,1019.0,,,,0,0,0,,,,,,,,,Clear,72000.0,,,73000,,,,,,
KRDR,02-21-2005,09:00,METAR,,230,3,,,9999,Cloud Development Not Observable,-20.0,-20.0,30.02,1019.4,,,,0,0,0,,,,,,,,,Clear,72000.0,,,73000,,,,,,
KRDR,02-21-2005,08:00,METAR,,280,5,,,9999,Cloud Development Not Observable,-18.0,-18.0,30.02,1019.4,,,,0,0,0,,,,,,,,,Clear,72000.0,,,73000,,,,,,
KRDR,02-21-2005,07:00,METAR,,260,6,,,9999,Cloud Development Not Observable,-18.0,-18.0,30.01,1019.1,,,,0,0,0,,,,,,,,,Clear,72000.0,,,73000,,,,,,
KRDR,02-21-2005,06:00,METAR,,250,6,,,9999,Cloud Development Not Observable,-19.0,-19.0,30.00,1018.7,,,,0,0,0,,,,,,,,,Clear,72000.0,,,73000,,,,,,
KRDR,02-21-2005,05:00,METAR,,260,4,,,9999,Cloud Development Not Observable,-19.0,-19.0,30.00,1018.7,,,,0,0,0,,,,,,,,,2/8 Mostly Clear,72000.0,,FEW,20000,,,,,,
KRDR,02-21-2005,04:00,METAR,,340,2,,,9999,Cloud Development Not Observable,-18.0,-18.0,29.99,1018.3,,,,0,0,0,,,,,,,,,2/8 Mostly Clear,72000.0,,FEW,20000,,,,,,
KRDR,02-21-2005,03:00,METAR,,320,4,,,9999,Cloud Development Not Observable,-16.0,-16.0,29.99,1018.3,,,,0,0,0,,,,,,,,,4/8 Partly Cloudy,72000.0,,SCT,20000,,,,,,
KRDR,02-21-2005,02:00,METAR,,320,8,,,9999,Cloud Development Not Observable,-15.0,-15.0,29.97,1017.6,,,,0,0,0,,,,,,,,,4/8 Partly Cloudy,72000.0,,FEW,4700,SCT,20000.0,,,,
KRDR,02-21-2005,01:00,METAR,,320,8,,,9999,Cloud Development Not Observable,-13.0,-13.0,29.96,1017.3,,,,0,0,0,,,,,,,,,4/8 Partly Cloudy,72000.0,,FEW,4700,SCT,20000.0,,,,
KRDR,02-21-2005,00:00,METAR,,320,7,,,9999,Cloud Development Not Observable,-12.0,-13.0,29.94,1016.4,,,,0,0,0,,,,,,,IN,,7/8 Mostly Cloudy,20000.0,,SCT,4700,BKN,20000.0,,,,
KRDR,02-20-2005,23:00,METAR,,330,7,,,9999,Cloud Development Not Observable,-11.0,-12.0,29.93,1015.9,,,,0,0,0,,,,,,,,,7/8 Mostly Cloudy,4600.0,,BKN,4700,BKN,20000.0,,,,
KRDR,02-20-2005,22:00,METAR,,310,11,,,9999,Cloud Development Not Observable,-10.0,-12.0,29.91,1015.4,,,,0,0,0,,,,,,,,,8/8 Overcast,3200.0,,BKN,3300,OVC,4200.0,,,,
KRDR,02-20-2005,21:00,METAR,,330,6,,,9999,Cloud Development Not Observable,-11.0,-13.0,29.90,1014.9,,,,0,0,0,,,,,,TRACE,,,8/8 Overcast,3100.0,,OVC,3100,,,,,,
KRDR,02-20-2005,20:36,SPECI,,320,5,,,9999,Cloud Development Not Observable,-12.0,-13.0,29.91,,,,,0,0,0,,,,,,,,,8/8 Overcast,3100.0,,OVC,3100,,,,,,
KRDR,02-20-2005,20:00,METAR,,330,6,,,9999,Cloud Development Not Observable,-12.0,-14.0,29.91,1015.3,,,,0,0,0,,,,,,,,,8/8 Overcast,2900.0,,OVC,2900,,,,,,
KRDR,02-20-2005,19:00,METAR,,330,7,,,9999,Cloud Development Not Observable,-13.0,-14.0,29.92,1015.7,,,,0,0,0,,,,,,,,,8/8 Overcast,2900.0,,OVC,2900,,,,,,
KRDR,02-20-2005,18:28,SPECI,,350,6,,,9999,Cloud Development Not Observable,-12.0,-13.0,29.92,,,,,0,0,0,,,,,,,,,8/8 Overcast,2900.0,,OVC,2900,,,,,,
KRDR,02-20-2005,18:00,METAR,,340,11,,,9999,Light Snow/Cloud Development Not Observable,-13.0,-14.0,29.94,1016.5,,,,71,0,0,,,,,,,.01 IN,,8/8 Overcast,2900.0,,OVC,2900,,,,,,
KRDR,02-20-2005,17:28,SPECI,,330,13,,,9999,Light Snow/Cloud Development Not Observable,-13.0,-14.0,29.95,,,,,71,0,0,,,,,,,,,8/8 Overcast,3600.0,,FEW,2900,OVC,3700.0,,,,
KRDR,02-20-2005,17:00,METAR,,330,10,,,9999,Cloud Development Not Observable,-14.0,-14.0,29.94,1016.5,,,,0,0,0,,,,,,,,,8/8 Overcast,3600.0,,FEW,2900,OVC,3700.0,,,,
KRDR,02-20-2005,16:40,SPECI,,330,10,,,9999,Cloud Development Not Observable,-14.0,-14.0,29.94,,,,,0,0,0,,,,,,,,,8/8 Overcast,3100.0,,SCT,2900,OVC,3200.0,,,,
KRDR,02-20-2005,16:00,METAR,,330,8,,,9999,Light Snow/Cloud Development Not Observable,-14.0,-15.0,29.94,1016.5,,,,71,0,0,,,,,,,,,8/8 Overcast,3100.0,,SCT,2500,OVC,3200.0,,,,
KRDR,02-20-2005,15:12,SPECI,,340,7,,,9999,Light Snow/Cloud Development Not Observable,-15.0,-15.0,29.94,,,,,71,0,0,,,,,,,,,8/8 Overcast,4100.0,,FEW,2900,OVC,4200.0,,,,
KRDR,02-20-2005,15:00,METAR,,340,10,,,8000,Light Snow/Cloud Development Not Observable,-15.0,-15.0,29.95,1016.9,,,,71,0,0,,,,,,.01 IN,,,8/8 Overcast,4100.0,,FEW,2900,OVC,4200.0,,,,
KRDR,02-20-2005,14:09,SPECI,,350,8,,,8000,Light Snow/Cloud Development Not Observable,-15.0,-15.0,29.93,,,,,71,0,0,,,,,,,,,8/8 Overcast,4100.0,,FEW,2900,OVC,4200.0,,,,
KRDR,02-20-2005,14:00,METAR,,360,9,,,8000,Light Snow/Cloud Development Not Observable,-15.0,-15.0,29.93,1016.2,,,,71,0,0,,,,,,,,,8/8 Overcast,2900.0,,BKN,2900,OVC,5200.0,,,,
KRDR,02-20-2005,13:00,METAR,,350,9,,,8000,Light Snow/Cloud Development Not Observable,-15.0,-15.0,29.95,1016.9,,,,71,0,0,,,,,,,,,8/8 Overcast,2900.0,,BKN,2900,OVC,3900.0,,,,
KRDR,02-20-2005,12:00,METAR,,350,11,,,8000,Light Snow/Cloud Development Not Observable,-14.0,-14.0,29.96,1017.2,,,,71,0,0,,,,,,,.01 IN,,8/8 Overcast,2500.0,,BKN,2500,OVC,3100.0,,,,
KRDR,02-20-2005,11:00,METAR,,350,8,,,8000,Light Snow/Cloud Development Not Observable,-14.0,-14.0,29.97,1017.5,,,,71,0,0,,,,,,,,,8/8 Overcast,2500.0,,BKN,2500,OVC,5000.0,,,,
KRDR,02-20-2005,10:30,METAR,,360,9,,,8000,Light Snow/Cloud Development Not Observable,-13.0,-13.0,29.97,,,,,71,0,0,,,,,,,,,8/8 Overcast,2500.0,,BKN,2500,BKN,3100.0,OVC,5000.0,,
KRDR,02-20-2005,10:00,METAR,,360,8,,,4800,Light Snow/Cloud Development Not Observable,-14.0,-14.0,29.98,1017.9,,,,71,0,0,,,,,,,,,8/8 Overcast,2500.0,,SCT,1200,BKN,2500.0,OVC,3100.0,,
KRDR,02-20-2005,09:49,SPECI,,360,9,,,4800,Light Snow/Cloud Development Not Observable,-14.0,-14.0,29.98,,,,,71,0,0,,,,,,,,,8/8 Overcast,1200.0,,BKN,1200,OVC,2600.0,,,,
KRDR,02-20-2005,09:00,METAR,,340,5,,,4000,Light Snow/Cloud Development Not Observable,-14.0,-14.0,30.00,1018.5,,,,71,0,0,,,,,,.03 IN,,,8/8 Overcast,1200.0,,BKN,1200,OVC,2600.0,,,,
KRDR,02-20-2005,08:45,METAR,,350,6,,,4000,Light Snow/Cloud Development Not Observable,-14.0,-14.0,30.00,,,,,71,0,0,,,,,,,,,8/8 Overcast,1200.0,,BKN,1200,OVC,2600.0,,,,
KRDR,02-20-2005,08:13,SPECI,,360,6,,,3200,Light Snow/Cloud Development Not Observable,-14.0,-14.0,30.01,,,,,71,0,0,,,,,,,,,8/8 Overcast,1200.0,,BKN,1200,OVC,2600.0,,,,
KRDR,02-20-2005,08:00,METAR,,340,6,,,3200,Light Snow/Cloud Development Not Observable,-14.0,-14.0,30.02,1019.2,,,,71,0,0,,,,,,,,,8/8 Overcast,1200.0,,BKN,1200,OVC,2600.0,,,,
KRDR,02-20-2005,07:00,METAR,,10,5,,,1600,Light Snow/Cloud Development Not Observable,-13.0,-13.0,30.05,1020.3,,,,71,0,0,,,,,,,,,8/8 Overcast,2000.0,,SCT,1200,BKN,2000.0,OVC,3100.0,,
KRDR,02-20-2005,06:26,SPECI,,10,5,,,1600,Light Snow/Cloud Development Not Observable,-13.0,-14.0,30.06,,,,,71,0,0,,,,,,,,,8/8 Overcast,2000.0,,SCT,1200,BKN,2000.0,OVC,2900.0,,
KRDR,02-20-2005,06:00,METAR,,40,4,,,8000,Light Snow/Cloud Development Not Observable,-13.0,-15.0,30.07,1021.0,,,,71,0,0,,,,,,,IN,,8/8 Overcast,3000.0,,BKN,3000,OVC,7400.0,,,,
KRDR,02-20-2005,05:00,METAR,,20,6,,,9999,Light Snow/Cloud Development Not Observable,-14.0,-16.0,30.09,1021.7,,,,71,0,0,,,,,,,,,8/8 Overcast,3000.0,,BKN,3000,OVC,7900.0,,,,
KRDR,02-20-2005,04:00,METAR,,10,6,,,9999,Cloud Development Not Observable,-14.0,-17.0,30.11,1022.7,,,,0,0,0,,,,,,,,,8/8 Overcast,8000.0,,SCT,3000,OVC,7900.0,,,,
KRDR,02-20-2005,03:00,METAR,,20,6,,,9999,Cloud Development Not Observable,-15.0,-17.0,30.13,1023.5,,,,0,0,0,,,,,,,,,8/8 Overcast,8500.0,,OVC,8400,,,,,,
KRDR,02-20-2005,02:00,METAR,,10,9,,,9999,Cloud Development Not Observable,-15.0,-16.0,30.14,1023.9,,,,0,0,0,,,,,,,,,8/8 Overcast,8000.0,,BKN,7900,OVC,20000.0,,,,
KRDR,02-20-2005,01:00,METAR,,10,7,,,9999,Cloud Development Not Observable,-15.0,-16.0,30.17,1024.8,,,,0,0,0,,,,,,,,,7/8 Mostly Cloudy,20000.0,,SCT,6900,BKN,20000.0,,,,
KRDR,02-20-2005,00:00,METAR,,360,5,,,9999,Cloud Development Not Observable,-16.0,-17.0,30.17,1024.8,,,,0,0,0,,,,,,,,,7/8 Mostly Cloudy,20000.0,,SCT,7400,BKN,20000.0,,,,
KRDR,02-19-2005,23:00,METAR,,50,7,,,9999,Cloud Development Not Observable,-14.0,-17.0,30.18,1025.2,,,,0,0,0,,,,,,,,,7/8 Mostly Cloudy,20000.0,,FEW,8400,BKN,20000.0,,,,
KRDR,02-19-2005,22:00,METAR,,50,8,,,9999,Cloud Development Not Observable,-14.0,-17.0,30.19,1025.6,,,,0,0,0,,,,,,,,,2/8 Mostly Clear,72000.0,,FEW,8400,FEW,20000.0,,,,
KRDR,02-19-2005,21:00,METAR,,40,7,,,9999,Cloud Development Not Observable,-13.0,-17.0,30.23,1026.7,,,,0,0,0,,,,,,,,,2/8 Mostly Clear,72000.0,,FEW,20000,,,,,,
KRDR,02-19-2005,20:00,METAR,,,4,,,9999,Cloud Development Not Observable,-13.0,-18.0,30.24,1027.4,,,,0,0,0,,,,,,,,,2/8 Mostly Clear,72000.0,,FEW,20000,,,,,,
KRDR,02-19-2005,19:00,METAR,,,4,,,9999,Cloud Development Not Observable,-15.0,-18.0,30.26,1027.9,,,,0,0,0,,,,,,,,,2/8 Mostly Clear,72000.0,,FEW,20000,,,,,,
KRDR,02-19-2005,18:00,METAR,,60,3,,,9999,Cloud Development Not Observable,-16.0,-19.0,30.29,1028.7,,,,0,0,0,,,,,,,,,2/8 Mostly Clear,72000.0,,FEW,20000,,,,,,
KRDR,02-19-2005,17:00,METAR,,,4,,,9999,Cloud Development Not Observable,-18.0,-19.0,30.31,1029.4,,,,0,0,0,,,,,,,,,4/8 Partly Cloudy,72000.0,,SCT,20000,,,,,,
KRDR,02-19-2005,16:00,METAR,,360,4,,,9999,Cloud Development Not Observable,-21.0,-21.0,30.33,1030.2,,,,0,0,0,,,,,,,,,4/8 Partly Cloudy,72000.0,,SCT,20000,,,,,,
KRDR,02-19-2005,15:00,METAR,,360,6,,,9999,Cloud Development Not Observable,-22.0,-22.0,30.34,1030.7,,,,0,0,0,,,,,,,,,4/8 Partly Cloudy,72000.0,,SCT,20000,,,,,,
KRDR,02-19-2005,14:00,METAR,,350,4,,,9999,Cloud Development Not Observable,-24.0,-24.0,30.32,1029.9,,,,0,0,0,,,,,,,,,2/8 Mostly Clear,72000.0,,FEW,20000,,,,,,
KRDR,02-19-2005,13:00,METAR,,360,5,,,9999,Cloud Development Not Observable,-23.0,-23.0,30.31,1029.4,,,,0,0,0,,,,,,,,,Clear,72000.0,,,73000,,,,,,
KRDR,02-19-2005,12:00,METAR,,360,3,,,9999,Cloud Development Not Observable,-22.0,-22.0,30.30,1029.0,,,,0,0,0,,,,,,,,.01 IN,Clear,72000.0,,,73000,,,,,,
KRDR,02-19-2005,11:00,METAR,,340,2,,,9999,Cloud Development Not Observable,-22.0,-22.0,30.30,1028.9,,,,0,0,0,,,,,,,,,Clear,72000.0,,,73000,,,,,,
KRDR,02-19-2005,10:00,METAR,,290,1,,,9999,Cloud Development Not Observable,-22.0,-22.0,30.29,1028.5,,,,0,0,0,,,,,,,,,Clear,72000.0,,,73000,,,,,,
KRDR,02-19-2005,09:00,METAR,,,0,,,9999,Cloud Development Not Observable,-22.0,-22.0,30.28,1028.1,,,,0,0,0,,,,,,,,,Clear,72000.0,,,73000,,,,,,
KRDR,02-19-2005,07:00,METAR,,290,1,,,9999,Cloud Development Not Observable,-21.0,-21.0,30.28,1028.0,,,,0,0,0,,,,,,,,,Clear,72000.0,,,73000,,,,,,
KRDR,02-19-2005,06:00,METAR,,220,1,,,9999,Cloud Development Not Observable,-21.0,-21.0,30.27,1027.7,,,,0,0,0,,,,,,,,,Clear,72000.0,,,73000,,,,,,
KRDR,02-19-2005,05:00,METAR,,320,2,,,9999,Cloud Development Not Observable,-19.0,-19.0,30.27,1027.8,,,,0,0,0,,,,,,,,,Clear,72000.0,,,73000,,,,,,
KRDR,02-19-2005,04:00,METAR,,230,3,,,9999,Cloud Development Not Observable,-18.0,-18.0,30.27,1027.8,,,,0,0,0,,,,,,,,,Clear,72000.0,,,73000,,,,,,
KRDR,02-19-2005,03:00,METAR,,,1,,,9999,Cloud Development Not Observable,-18.0,-18.0,30.25,1027.2,,,,0,0,0,,,,,,,,,2/8 Mostly Clear,72000.0,,FEW,1500,,,,,,
KRDR,02-19-2005,02:00,METAR,,,1,,,9999,Cloud Development Not Observable,-14.0,-14.0,30.24,1026.8,,,,0,0,0,,,,,,,,,Clear,72000.0,,,73000,,,,,,
KRDR,02-19-2005,01:00,METAR,,,1,,,9999,Cloud Development Not Observable,-14.0,-15.0,30.24,1026.9,,,,0,0,0,,,,,,,,,2/8 Mostly Clear,72000.0,,FEW,1500,,,,,,
KRDR,02-19-2005,00:00,METAR,,330,5,,,9999,Cloud Development Not Observable,-12.0,-13.0,30.23,1026.5,,,,0,0,0,,,,,,,,,2/8 Mostly Clear,72000.0,,FEW,1500,,,,,,
KRDR,02-18-2005,23:00,METAR,,330,9,,,9999,Cloud Development Not Observable,-10.0,-12.0,30.23,1026.5,,,,0,0,0,,,,,,,,,2/8 Mostly Clear,72000.0,,FEW,1500,,,,,,
KRDR,02-18-2005,22:00,METAR,,340,11,,,9999,Cloud Development Not Observable,-9.0,-12.0,30.22,1026.2,,,,0,0,0,,,,,,,,,2/8 Mostly Clear,72000.0,,FEW,2000,,,,,,
KRDR,02-18-2005,21:00,METAR,,340,13,,,9999,Cloud Development Not Observable,-9.0,-12.0,30.19,1025.1,,,,0,0,0,,,,,,,,,2/8 Mostly Clear,72000.0,,FEW,2000,,,,,,
KRDR,02-18-2005,20:00,METAR,,340,14,,,9999,Cloud Development Not Observable,-9.0,-12.0,30.19,1025.1,,,,0,0,0,,,,,,,,,4/8 Partly Cloudy,72000.0,,SCT,2000,,,,,,
KRDR,02-18-2005,19:00,METAR,,330,20,,,9999,Cloud Development Not Observable,-8.0,-11.0,30.19,1025.1,,,,0,0,0,,,,,,,,,4/8 Partly Cloudy,72000.0,,SCT,2000,,,,,,
KRDR,02-18-2005,18:00,METAR,,330,18,,310/26KTS,9999,Drifting Snow/Cloud Development Not Observable,-8.0,-11.0,30.17,1024.5,,,,36,0,0,,,,,,,.01 IN,,7/8 Mostly Cloudy,4400.0,,SCT,3000,BKN,4500.0,,,,
KRDR,02-18-2005,17:00,METAR,,310,16,,,9999,Drifting Snow/Cloud Development Not Observable,-7.0,-9.0,30.15,1023.4,,,,36,0,0,,,,,,,,,7/8 Mostly Cloudy,4400.0,,SCT,3000,BKN,4500.0,,,,
KRDR,02-18-2005,16:00,METAR,,300,6,,,9999,Light Snow/Cloud Development Not Observable,-8.0,-9.0,30.13,1023.2,,,,71,0,0,,,,,,,,,8/8 Overcast,3000.0,,BKN,3000,OVC,4300.0,,,,
KRDR,02-18-2005,15:15,SPECI,,220,8,,,9999,Light Snow/Cloud Development Not Observable,-12.0,-12.0,30.13,,,,,71,0,0,,,,,,,,,8/8 Overcast,3400.0,,BKN,3500,OVC,5900.0,,,,
KRDR,02-18-2005,15:03,SPECI,,230,7,,,9999,Cloud Development Not Observable,-12.0,-12.0,30.14,,,,,0,0,0,,,,,,,,,7/8 Mostly Cloudy,3400.0,,BKN,3500,BKN,5900.0,,,,
KRDR,02-18-2005,15:00,METAR,,220,7,,,9999,Cloud Development Not Observable,-13.0,-13.0,30.14,1023.5,,,,0,0,0,,,,,,.01 IN,,,7/8 Mostly Cloudy,3400.0,,BKN,3500,BKN,5900.0,,,,
KRDR,02-18-2005,14:29,SPECI,,200,10,,,9999,Cloud Development Not Observable,-14.0,-14.0,30.13,,,,,0,0,0,,,,,,,,,7/8 Mostly Cloudy,3400.0,,BKN,3500,BKN,5900.0,,,,
KRDR,02-18-2005,14:19,SPECI,,190,10,,,9999,Cloud Development Not Observable,-14.0,-14.0,30.13,,,,,0,0,0,,,,,,,,,8/8 Overcast,3400.0,,BKN,3500,OVC,5900.0,,,,
KRDR,02-18-2005,14:04,SPECI,,190,10,,,3200,Light Snow/Cloud Development Not Observable,-15.0,-15.0,30.13,,,,,71,0,0,,,,,,,,,8/8 Overcast,3400.0,,BKN,3500,OVC,5900.0,,,,
KRDR,02-18-2005,14:00,METAR,,190,11,,,2400,Light Snow/Cloud Development Not Observable,-15.0,-15.0,30.14,1023.7,,,,71,0,0,,,,,,,,,8/8 Overcast,3400.0,,BKN,3500,OVC,5000.0,,,,
KRDR,02-18-2005,13:37,SPECI,,190,12,,,800,Light Snow/Cloud Development Not Observable,-15.0,-15.0,30.14,,,,,71,0,0,,,,,,,,,8/8 Overcast,3000.0,,OVC,3000,,,,,,
KRDR,02-18-2005,13:25,METAR,,190,12,,,1600,Light Snow/Cloud Development Not Observable,-15.0,-15.0,30.15,,,,,71,0,0,,,,,,,,,8/8 Overcast,3000.0,,OVC,3000,,,,,,
KRDR,02-18-2005,13:00,METAR,,180,13,,,9999,Light Snow/Cloud Development Not Observable,-16.0,-17.0,30.14,1023.8,,,,71,0,0,,,,,,,,,8/8 Overcast,3400.0,,BKN,3500,OVC,5900.0,,,,
KRDR,02-18-2005,12:00,METAR,,180,12,,,9999,Light Snow/Cloud Development Not Observable,-17.0,-17.0,30.19,1025.6,,,,71,0,0,,,,,,,IN,TRACE,7/8 Mostly Cloudy,4900.0,,BKN,5000,BKN,8900.0,,,,
KRDR,02-18-2005,11:35,SPECI,,180,10,,,9999,Light Snow/Cloud Development Not Observable,-17.0,-17.0,30.20,,,,,71,0,0,,,,,,,,,7/8 Mostly Cloudy,4900.0,,BKN,5000,BKN,8900.0,,,,
KRDR,02-18-2005,11:00,METAR,,170,8,,,9999,Cloud Development Not Observable,-20.0,-20.0,30.23,1027.0,,,,0,0,0,,,,,,,,,4/8 Partly Cloudy,72000.0,,SCT,5000,SCT,8900.0,,,,
KRDR,02-18-2005,10:00,METAR,,190,6,,,9999,Cloud Development Not Observable,-21.0,-21.0,30.27,1028.0,,,,0,0,0,,,,,,,,,2/8 Mostly Clear,72000.0,,FEW,4000,,,,,,
KRDR,02-18-2005,09:00,METAR,,180,7,,,9999,Cloud Development Not Observable,-22.0,-22.0,30.31,1029.5,,,,0,0,0,,,,,,,,,Clear,72000.0,,,73000,,,,,,
KRDR,02-18-2005,08:00,METAR,,180,5,,,9999,Cloud Development Not Observable,-23.0,-23.0,30.35,1030.9,,,,0,0,0,,,,,,,,,Clear,72000.0,,,73000,,,,,,
KRDR,02-18-2005,07:00,METAR,,200,4,,,9999,Cloud Development Not Observable,-23.0,-23.0,30.37,1031.6,,,,0,0,0,,,,,,,,,Clear,72000.0,,,73000,,,,,,
KRDR,02-18-2005,06:00,METAR,,190,4,,,9999,Cloud Development Not Observable,-25.0,-25.0,30.37,1031.7,,,,0,0,0,,,,,,,,,2/8 Mostly Clear,72000.0,,FEW,20000,,,,,,
KRDR,02-18-2005,05:00,METAR,,240,5,,,9999,Cloud Development Not Observable,-23.0,-23.0,30.39,1032.6,,,,0,0,0,,,,,,,,,2/8 Mostly Clear,72000.0,,FEW,20000,,,,,,
KRDR,02-18-2005,04:00,METAR,,,0,,,9999,Cloud Development Not Observable,-22.0,-22.0,30.40,1032.9,,,,0,0,0,,,,,,,,,2/8 Mostly Clear,72000.0,,FEW,20000,,,,,,
KRDR,02-18-2005,03:00,METAR,,280,2,,,9999,Cloud Development Not Observable,-20.0,-21.0,30.42,1033.6,,,,0,0,0,,,,,,,,,2/8 Mostly Clear,72000.0,,FEW,20000,,,,,,
KRDR,02-18-2005,02:00,METAR,,260,2,,,9999,Cloud Development Not Observable,-21.0,-22.0,30.42,1033.7,,,,0,0,0,,,,,,,,,4/8 Partly Cloudy,72000.0,,FEW,12000,SCT,20000.0,,,,
KRDR,02-18-2005,01:00,METAR,,320,2,,,9999,Cloud Development Not Observable,-20.0,-21.0,30.42,1033.6,,,,0,0,0,,,,,,,,,4/8 Partly Cloudy,72000.0,,FEW,12000,SCT,20000.0,,,,
KRDR,02-18-2005,00:00,METAR,,360,7,,,9999,Cloud Development Not Observable,-19.0,-20.0,30.42,1033.4,,,,0,0,0,,,,,,,,,4/8 Partly Cloudy,72000.0,,FEW,12000,SCT,20000.0,,,,
KRDR,02-17-2005,23:00,METAR,,350,9,,,9999,Cloud Development Not Observable,-17.0,-20.0,30.40,1032.6,,,,0,0,0,,,,,,,,,4/8 Partly Cloudy,72000.0,,SCT,20000,,,,,,
KRDR,02-17-2005,22:00,METAR,,350,9,,,9999,Cloud Development Not Observable,-16.0,-19.0,30.39,1032.2,,,,0,0,0,,,,,,,,,4/8 Partly Cloudy,72000.0,,FEW,2000,SCT,20000.0,,,,
KRDR,02-17-2005,21:00,METAR,,360,11,,,9999,Cloud Development Not Observable,-16.0,-18.0,30.38,1031.6,,,,0,0,0,,,,,,,,,2/8 Mostly Clear,72000.0,,FEW,2000,FEW,20000.0,,,,
KRDR,02-17-2005,20:00,METAR,,350,9,,,9999,Cloud Development Not Observable,-15.0,-18.0,30.37,1031.2,,,,0,0,0,,,,,,,,,2/8 Mostly Clear,72000.0,,FEW,2000,FEW,15000.0,,,,
KRDR,02-17-2005,19:00,METAR,,350,9,,,9999,Cloud Development Not Observable,-16.0,-18.0,30.36,1031.0,,,,0,0,0,,,,,,,,,2/8 Mostly Clear,72000.0,,FEW,9900,,,,,,
KRDR,02-17-2005,18:00,METAR,,10,5,,,9999,Cloud Development Not Observable,-15.0,-18.0,30.36,1031.0,,,,0,0,0,,,,,,,,,2/8 Mostly Clear,72000.0,,FEW,9900,,,,,,
KRDR,02-17-2005,17:00,METAR,,350,5,,,9999,Cloud Development Not Observable,-17.0,-19.0,30.35,1030.7,,,,0,0,0,,,,,,,,,2/8 Mostly Clear,72000.0,,FEW,4000,,,,,,
KRDR,02-17-2005,16:00,METAR,,10,6,,,9999,Cloud Development Not Observable,-17.0,-19.0,30.33,1029.8,,,,0,0,0,,,,,,,,,4/8 Partly Cloudy,72000.0,,SCT,4000,,,,,,
KRDR,02-17-2005,15:00,METAR,,360,4,,,9999,Cloud Development Not Observable,-19.0,-19.0,30.31,1029.2,,,,0,0,0,,,,,,,,,7/8 Mostly Cloudy,3900.0,,FEW,2900,BKN,4000.0,,,,
KRDR,02-17-2005,14:00,METAR,,20,3,,,9999,Cloud Development Not Observable,-19.0,-19.0,30.29,1028.5,,,,0,0,0,,,,,,,,,7/8 Mostly Cloudy,4000.0,,BKN,4100,,,,,,
KRDR,02-17-2005,13:00,METAR,,10,6,,,9999,Cloud Development Not Observable,-18.0,-18.0,30.26,1027.5,,,,0,0,0,,,,,,,,,7/8 Mostly Cloudy,3900.0,,FEW,2000,BKN,4000.0,,,,
KRDR,02-17-2005,12:00,METAR,,30,4,,,9999,Cloud Development Not Observable,-16.0,-17.0,30.24,1026.7,,,,0,0,0,,,,,,,,TRACE,7/8 Mostly Cloudy,3900.0,,SCT,2000,BKN,4000.0,,,,
KRDR,02-17-2005,11:00,METAR,,20,5,,,9999,Cloud Development Not Observable,-16.0,-17.0,30.22,1026.0,,,,0,0,0,,,,,,,,,7/8 Mostly Cloudy,3400.0,,FEW,2000,BKN,3500.0,,,,
KRDR,02-17-2005,10:00,METAR,,360,7,,,9999,Cloud Development Not Observable,-15.0,-16.0,30.20,1025.2,,,,0,0,0,,,,,,,,,4/8 Partly Cloudy,72000.0,,SCT,2200,,,,,,
KRDR,02-17-2005,09:00,METAR,,360,5,,,9999,Cloud Development Not Observable,-14.0,-15.0,30.19,1024.8,,,,0,0,0,,,,,,,,,4/8 Partly Cloudy,72000.0,,FEW,2200,SCT,4500.0,,,,
KRDR,02-17-2005,08:00,METAR,,280,3,,,9999,Cloud Development Not Observable,-14.0,-15.0,30.18,1024.5,,,,0,0,0,,,,,,,,,4/8 Partly Cloudy,72000.0,,SCT,4500,,,,,,
KRDR,02-17-2005,07:00,METAR,,280,2,,,9999,Cloud Development Not Observable,-14.0,-15.0,30.18,1024.5,,,,0,0,0,,,,,,,,,4/8 Partly Cloudy,72000.0,,SCT,4500,,,,,,
KRDR,02-17-2005,06:00,METAR,,240,2,,,9999,Cloud Development Not Observable,-14.0,-15.0,30.17,1024.3,,,,0,0,0,,,,,,,,,4/8 Partly Cloudy,72000.0,,SCT,4500,,,,,,
KRDR,02-17-2005,05:00,METAR,,350,2,,,9999,Cloud Development Not Observable,-15.0,-17.0,30.17,1024.4,,,,0,0,0,,,,,,,,,4/8 Partly Cloudy,72000.0,,SCT,5000,,,,,,
KRDR,02-17-2005,04:00,METAR,,,1,,,9999,Cloud Development Not Observable,-13.0,-16.0,30.17,1024.3,,,,0,0,0,,,,,,,,,4/8 Partly Cloudy,72000.0,,FEW,3500,SCT,5000.0,,,,
KRDR,02-17-2005,03:00,METAR,,320,2,,,9999,Cloud Development Not Observable,-12.0,-15.0,30.17,1024.3,,,,0,0,0,,,,,,,,,7/8 Mostly Cloudy,4900.0,,SCT,3500,BKN,5000.0,,,,
KRDR,02-17-2005,02:00,METAR,,320,3,,,9999,Cloud Development Not Observable,-12.0,-15.0,30.17,1024.3,,,,0,0,0,,,,,,,,,8/8 Overcast,4900.0,,FEW,3300,OVC,5000.0,,,,
KRDR,02-17-2005,01:00,METAR,,330,8,,,9999,Cloud Development Not Observable,-11.0,-15.0,30.17,1024.2,,,,0,0,0,,,,,,,,,7/8 Mostly Cloudy,4900.0,,BKN,5000,,,,,,
KRDR,02-17-2005,00:00,METAR,,320,10,,,9999,Cloud Development Not Observable,-11.0,-15.0,30.17,1024.3,,,,0,0,0,,,,,,,,,7/8 Mostly Cloudy,4900.0,,BKN,5000,,,,,,
KRDR,02-16-2005,23:00,METAR,,310,13,,,9999,Cloud Development Not Observable,-10.0,-15.0,30.17,1024.2,,,,0,0,0,,,,,,,,,7/8 Mostly Cloudy,4900.0,,BKN,5000,BKN,9900.0,,,,
KRDR,02-16-2005,22:00,METAR,,320,14,,,9999,Cloud Development Not Observable,-9.0,-14.0,30.16,1023.7,,,,0,0,0,,,,,,,,,4/8 Partly Cloudy,72000.0,,SCT,3000,SCT,9900.0,,,,
KRDR,02-16-2005,21:00,METAR,,310,12,,,9999,Cloud Development Not Observable,-9.0,-14.0,30.15,1023.4,,,,0,0,0,,,,,,,,,4/8 Partly Cloudy,72000.0,,SCT,3000,SCT,15000.0,,,,
KRDR,02-16-2005,20:00,METAR,,310,13,,,9999,Cloud Development Not Observable,-10.0,-14.0,30.16,1023.7,,,,0,0,0,,,,,,,,,2/8 Mostly Clear,72000.0,,FEW,2000,FEW,15000.0,,,,
KRDR,02-16-2005,19:00,METAR,,310,12,,,9999,Cloud Development Not Observable,-11.0,-15.0,30.19,1024.8,,,,0,0,0,,,,,,,,,4/8 Partly Cloudy,72000.0,,FEW,2000,SCT,15000.0,,,,
KRDR,02-16-2005,18:00,METAR,,300,10,,,9999,Cloud Development Not Observable,-12.0,-15.0,30.20,1025.2,,,,0,0,0,,,,,,,IN,,4/8 Partly Cloudy,72000.0,,SCT,3000,,,,,,
KRDR,02-16-2005,17:00,METAR,,320,12,,,9999,Cloud Development Not Observable,-13.0,-15.0,30.20,1025.3,,,,0,0,0,,,,,,,,,2/8 Mostly Clear,72000.0,,FEW,2000,,,,,,
KRDR,02-16-2005,16:00,METAR,,310,11,,,9999,Cloud Development Not Observable,-14.0,-16.0,30.19,1024.8,,,,0,0,0,,,,,,,,,2/8 Mostly Clear,72000.0,,FEW,2000,FEW,3000.0,,,,
KRDR,02-16-2005,15:46,SPECI,,310,12,,,9999,Cloud Development Not Observable,-14.0,-16.0,30.19,,,,,0,0,0,,,,,,,,,4/8 Partly Cloudy,72000.0,,FEW,2000,SCT,3000.0,,,,
KRDR,02-16-2005,15:00,METAR,,310,11,,,8000,Light Snow/Cloud Development Not Observable,-14.0,-15.0,30.18,1024.4,,,,71,0,0,,,,,,TRACE,,,7/8 Mostly Cloudy,3000.0,,SCT,2000,BKN,3000.0,,,,
KRDR,02-16-2005,14:00,METAR,,320,12,,,9999,Light Snow/Cloud Development Not Observable,-14.0,-15.0,30.16,1023.6,,,,71,0,0,,,,,,,,,8/8 Overcast,3400.0,,SCT,2000,OVC,3500.0,,,,
KRDR,02-16-2005,13:10,SPECI,,310,12,,,9999,Light Snow/Cloud Development Not Observable,-14.0,-15.0,30.14,,,,,71,0,0,,,,,,,,,7/8 Mostly Cloudy,2000.0,,FEW,1600,SCT,2000.0,BKN,3500.0,,
KRDR,02-16-2005,13:00,METAR,,300,13,,,9999,Cloud Development Not Observable,-14.0,-15.0,30.13,1022.8,,,,0,0,0,,,,,,,,,4/8 Partly Cloudy,72000.0,,SCT,3500,,,,,,
KRDR,02-16-2005,12:00,METAR,,300,11,,,9999,Cloud Development Not Observable,-15.0,-16.0,30.12,1022.4,,,,0,0,0,,,,,,,,,4/8 Partly Cloudy,72000.0,,SCT,3500,,,,,,
KRDR,02-16-2005,11:00,METAR,,290,11,,,9999,Cloud Development Not Observable,-14.0,-16.0,30.12,1022.3,,,,0,0,0,,,,,,,,,4/8 Partly Cloudy,72000.0,,SCT,2900,,,,,,
KRDR,02-16-2005,10:00,METAR,,290,10,,,9999,Cloud Development Not Observable,-14.0,-16.0,30.11,1022.0,,,,0,0,0,,,,,,,,,4/8 Partly Cloudy,72000.0,,SCT,2900,,,,,,
KRDR,02-16-2005,09:00,METAR,,310,11,,,9999,Cloud Development Not Observable,-14.0,-15.0,30.10,1021.6,,,,0,0,0,,,,,,,,,2/8 Mostly Clear,72000.0,,FEW,2400,,,,,,
KRDR,02-16-2005,08:00,METAR,,300,13,,,9999,Cloud Development Not Observable,-13.0,-15.0,30.10,1021.6,,,,0,0,0,,,,,,,,,4/8 Partly Cloudy,72000.0,,SCT,3000,,,,,,
KRDR,02-16-2005,07:00,METAR,,310,14,,,9999,Cloud Development Not Observable,-12.0,-15.0,30.10,1021.6,,,,0,0,0,,,,,,,,,7/8 Mostly Cloudy,3000.0,,BKN,3000,BKN,5000.0,,,,
KRDR,02-16-2005,06:00,METAR,,310,14,23.0,,9999,Cloud Development Not Observable,-12.0,-13.0,30.10,1021.6,,,,0,0,0,,,,,,,,,7/8 Mostly Cloudy,4900.0,,FEW,1200,BKN,5000.0,BKN,6900.0,,
KRDR,02-16-2005,05:00,METAR,,300,17,,,9999,Cloud Development Not Observable,-10.0,-12.0,30.08,1020.8,,,,0,0,0,,,,,,,,,7/8 Mostly Cloudy,4900.0,,BKN,5000,BKN,6900.0,,,,
KRDR,02-16-2005,04:00,METAR,,300,14,21.0,,9999,Cloud Development Not Observable,-9.0,-12.0,30.08,1020.8,,,,0,0,0,,,,,,,,,8/8 Overcast,4900.0,,BKN,5000,OVC,6900.0,,,,
KRDR,02-16-2005,03:25,METAR,,300,15,20.0,,9999,Cloud Development Not Observable,-8.0,-11.0,30.07,,,,,0,0,0,,,,,,,,,7/8 Mostly Cloudy,4400.0,,FEW,3000,SCT,4500.0,BKN,6900.0,,
KRDR,02-16-2005,03:00,METAR,,300,17,24.0,,9999,Light Snow Showers/Cloud Development Not Observable,-8.0,-11.0,30.07,1020.7,,,,85,0,0,,,,,,TRACE,,,8/8 Overcast,3900.0,,FEW,3000,BKN,4000.0,OVC,5900.0,,
KRDR,02-16-2005,02:35,SPECI,,300,19,24.0,,9999,Light Snow Showers/Cloud Development Not Observable,-7.0,-10.0,30.06,,,,,85,0,0,,,,,,,,,8/8 Overcast,3000.0,,SCT,2000,BKN,3000.0,OVC,4500.0,,
KRDR,02-16-2005,02:00,METAR,,300,15,20.0,,9999,Cloud Development Not Observable,-7.0,-9.0,30.06,1020.5,,,,0,0,0,,,,,,,,,8/8 Overcast,3900.0,,SCT,3000,OVC,4000.0,,,,
KRDR,02-16-2005,01:41,SPECI,,290,14,18.0,,9999,Cloud Development Not Observable,-7.0,-9.0,30.06,,,,,0,0,0,,,,,,,,,8/8 Overcast,3000.0,,FEW,2000,SCT,3000.0,OVC,4500.0,,
KRDR,02-16-2005,01:05,SPECI,,300,16,21.0,,9999,Light Snow Showers/Cloud Development Not Observable,-5.0,-7.0,30.05,,,,,85,0,0,,,,,,,,,8/8 Overcast,3000.0,,FEW,2000,BKN,3000.0,OVC,6900.0,,
KRDR,02-16-2005,01:00,METAR,,160,8,,,9999,Cloud Development Not Observable,-6.0,-7.0,30.02,1019.1,,,,0,0,0,,,,,,,,,8/8 Overcast,7000.0,,SCT,3000,BKN,6900.0,OVC,12000.0,,
KRDR,02-16-2005,00:00,METAR,,140,7,,,9999,Cloud Development Not Observable,-5.0,-7.0,30.03,1019.3,,,,0,0,0,,,,,,,,,7/8 Mostly Cloudy,10000.0,,FEW,5000,BKN,9900.0,BKN,25000.0,,
KRDR,02-15-2005,23:00,METAR,,160,6,,,9999,Cloud Development Not Observable,-4.0,-7.0,30.03,1019.2,,,,0,0,0,,,,,,,,,7/8 Mostly Cloudy,12000.0,,FEW,5000,SCT,12000.0,BKN,25000.0,,
KRDR,02-15-2005,22:00,METAR,,190,7,,,9999,Cloud Development Not Observable,-4.0,-8.0,30.05,1019.8,,,,0,0,0,,,,,,,,,4/8 Partly Cloudy,72000.0,,FEW,5000,SCT,12000.0,SCT,25000.0,,
KRDR,02-15-2005,21:00,METAR,,210,7,,,9999,Cloud Development Not Observable,-3.0,-7.0,30.06,1020.0,,,,0,0,0,,,,,,,,,2/8 Mostly Clear,72000.0,,FEW,5000,,,,,,
KRDR,02-15-2005,20:00,METAR,,210,6,,,9999,Cloud Development Not Observable,-5.0,-8.0,30.08,1020.5,,,,0,0,0,,,,,,,,,2/8 Mostly Clear,72000.0,,FEW,5000,,,,,,
KRDR,02-15-2005,19:00,METAR,,210,7,,,9999,Cloud Development Not Observable,-7.0,-10.0,30.09,1021.2,,,,0,0,0,,,,,,,,,2/8 Mostly Clear,72000.0,,FEW,12000,,,,,,
KRDR,02-15-2005,18:00,METAR,,210,7,,,9999,Cloud Development Not Observable,-7.0,-10.0,30.12,1022.0,,,,0,0,0,,,,,,,,,2/8 Mostly Clear,72000.0,,FEW,12000,,,,,,
KRDR,02-15-2005,17:00,METAR,,240,6,,,9999,Cloud Development Not Observable,-9.0,-10.0,30.12,1022.2,,,,0,0,0,,,,,,,,,4/8 Partly Cloudy,72000.0,,SCT,12000,,,,,,
KRDR,02-15-2005,16:00,METAR,,270,7,,,9999,Cloud Development Not Observable,-11.0,-12.0,30.12,1022.3,,,,0,0,0,,,,,,,,,4/8 Partly Cloudy,72000.0,,SCT,12000,,,,,,
KRDR,02-15-2005,15:00,METAR,,270,4,,,9999,Cloud Development Not Observable,-13.0,-13.0,30.11,1022.0,,,,0,0,0,,,,,,,,,4/8 Partly Cloudy,72000.0,,SCT,12000,,,,,,
KRDR,02-15-2005,14:00,METAR,,260,3,,,9999,Cloud Development Not Observable,-14.0,-14.0,30.10,1021.5,,,,0,0,0,,,,,,,,,7/8 Mostly Cloudy,12000.0,,BKN,12000,,,,,,
KRDR,02-15-2005,13:00,METAR,,270,4,,,9999,Cloud Development Not Observable,-14.0,-14.0,30.08,1020.8,,,,0,0,0,,,,,,,,,4/8 Partly Cloudy,72000.0,,FEW,1800,SCT,9900.0,,,,
KRDR,02-15-2005,12:00,METAR,,310,5,,,9999,Cloud Development Not Observable,-12.0,-12.0,30.06,1020.1,,,,0,0,0,,,,,,,IN,,4/8 Partly Cloudy,72000.0,,FEW,1800,SCT,9900.0,,,,
KRDR,02-15-2005,11:40,SPECI,,340,6,,,9999,Cloud Development Not Observable,-11.0,-11.0,30.06,,,,,0,0,0,,,,,,,,,4/8 Partly Cloudy,72000.0,,SCT,1800,SCT,9900.0,,,,
KRDR,02-15-2005,11:21,SPECI,,330,7,,,9999,Cloud Development Not Observable,-10.0,-10.0,30.05,,,,,0,0,0,,,,,,,,,7/8 Mostly Cloudy,1800.0,,BKN,1800,,,,,,
KRDR,02-15-2005,11:00,METAR,,320,9,,,9999,Cloud Development Not Observable,-10.0,-10.0,30.05,1019.6,,,,0,0,0,,,,,,,,,7/8 Mostly Cloudy,2000.0,,BKN,2000,,,,,,
KRDR,02-15-2005,10:00,METAR,,310,7,,,9999,Cloud Development Not Observable,-9.0,-9.0,30.05,1019.6,,,,0,0,0,,,,,,,,,8/8 Overcast,1200.0,,OVC,1200,,,,,,
KRDR,02-15-2005,09:33,SPECI,,310,7,,,9999,Cloud Development Not Observable,-9.0,-9.0,30.04,,,,,0,0,0,,,,,,,,,8/8 Overcast,1400.0,,OVC,1400,,,,,,
KRDR,02-15-2005,09:00,METAR,,310,6,,,9999,Cloud Development Not Observable,-9.0,-9.0,30.02,1018.5,,,,0,0,0,,,,,,TRACE,,,8/8 Overcast,3000.0,,SCT,2500,BKN,3000.0,OVC,3500.0,,
KRDR,02-15-2005,08:00,METAR,,290,4,,,9999,Light Snow/Cloud Development Not Observable,-8.0,-8.0,30.00,1017.7,,,,71,0,0,,,,,,,,,8/8 Overcast,3500.0,,FEW,1500,BKN,3600.0,OVC,4200.0,,
KRDR,02-15-2005,07:00,METAR,,350,3,,,9999,Light Snow/Cloud Development Not Observable,-9.0,-9.0,29.98,1017.1,,,,71,0,0,,,,,,,,,7/8 Mostly Cloudy,4100.0,,SCT,1500,BKN,4200.0,,,,
KRDR,02-15-2005,06:32,SPECI,,360,5,,,9999,Light Snow/Cloud Development Not Observable,-9.0,-9.0,29.97,,,,,71,0,0,,,,,,,,,7/8 Mostly Cloudy,4100.0,,SCT,1900,BKN,4200.0,,,,
KRDR,02-15-2005,06:00,METAR,,360,4,,,8000,Light Snow/Cloud Development Not Observable,-7.0,-7.0,29.97,1016.7,,,,71,0,0,,,,,,,IN,,8/8 Overcast,1900.0,,BKN,1900,OVC,4300.0,,,,
KRDR,02-15-2005,05:00,METAR,,350,8,,,6400,Light Snow/Cloud Development Not Observable,-6.0,-6.0,29.95,1015.9,,,,71,0,0,,,,,,,,,8/8 Overcast,1500.0,,BKN,1500,OVC,2600.0,,,,
KRDR,02-15-2005,04:00,METAR,,360,6,,,9999,Light Snow/Cloud Development Not Observable,-6.0,-6.0,29.93,1015.4,,,,71,0,0,,,,,,,,,8/8 Overcast,1600.0,,BKN,1600,OVC,2400.0,,,,
KRDR,02-15-2005,03:00,METAR,,10,8,,,8000,Light Snow/Cloud Development Not Observable,-5.0,-5.0,29.90,1014.2,,,,71,0,0,,,,,,TRACE,,,8/8 Overcast,1200.0,,BKN,1200,OVC,2400.0,,,,
KRDR,02-15-2005,02:35,SPECI,,20,10,,,8000,Light Snow/Cloud Development Not Observable,-5.0,-5.0,29.89,,,,,71,0,0,,,,,,,,,8/8 Overcast,1500.0,,BKN,1500,OVC,2400.0,,,,
KRDR,02-15-2005,02:00,METAR,,20,7,,,9999,Light Snow/Cloud Development Not Observable,-5.0,-5.0,29.87,1013.4,,,,71,0,0,,,,,,,,,,1500.0,,BKN,1500,OVC,2200.0,,,,
KRDR,02-15-2005,01:31,SPECI,,30,7,,,9999,Light Snow/Cloud Development Not Observable,-5.0,-5.0,29.87,,,,,71,0,0,,,,,,,,,8/8 Overcast,1600.0,,SCT,700,BKN,1600.0,OVC,2400.0,,
KRDR,02-15-2005,01:00,METAR,,40,8,,,9999,Light Snow/Cloud Development Not Observable,-4.0,-5.0,29.85,1012.6,,,,71,0,0,,,,,,,,,8/8 Overcast,1500.0,,BKN,1500,OVC,4000.0,,,,
KRDR,02-15-2005,00:12,SPECI,,330,6,,,9999,Light Snow/Cloud Development Not Observable,-3.0,-4.0,29.83,,,,,71,0,0,,,,,,,,,8/8 Overcast,1500.0,,BKN,1500,OVC,2200.0,,,,
KRDR,02-15-2005,00:00,METAR,,320,6,,,9999,Cloud Development Not Observable,-3.0,-4.0,29.82,1011.5,,,,0,0,0,,,,,,,IN,,8/8 Overcast,2200.0,,BKN,2200,OVC,4100.0,,,,
KRDR,02-14-2005,23:28,SPECI,,330,7,,,9999,Cloud Development Not Observable,-3.0,-4.0,29.81,,,,,0,0,0,,,,,,,,,8/8 Overcast,2500.0,,BKN,2500,OVC,4200.0,,,,
KRDR,02-14-2005,23:00,METAR,,320,10,,,9999,Light Snow/Cloud Development Not Observable,-2.0,-4.0,29.80,1010.7,,,,71,0,0,,,,,,,,,8/8 Overcast,2500.0,,BKN,2500,OVC,3400.0,,,,
KRDR,02-14-2005,22:29,SPECI,,330,13,,,9999,Light Snow/Cloud Development Not Observable,-2.0,-4.0,29.79,,,,,71,0,0,,,,,,,,,8/8 Overcast,1500.0,,BKN,1500,OVC,2400.0,,,,
KRDR,02-14-2005,22:00,METAR,,320,15,,,9999,Cloud Development Not Observable,-2.0,-4.0,29.78,1010.0,,,,0,0,0,,,,,,,,,8/8 Overcast,2000.0,,BKN,2000,OVC,2200.0,,,,
KRDR,02-14-2005,21:00,METAR,,320,13,,,9999,Cloud Development Not Observable,-2.0,-4.0,29.74,1008.8,,,,0,0,0,,,,,,,,,8/8 Overcast,2000.0,,BKN,2000,OVC,2400.0,,,,
KRDR,02-14-2005,20:00,METAR,,310,11,,,9999,Cloud Development Not Observable,-1.0,-4.0,29.71,1007.5,,,,0,0,0,,,,,,,,,8/8 Overcast,1500.0,,BKN,1500,OVC,2000.0,,,,
KRDR,02-14-2005,19:00,METAR,,330,15,,,9999,Cloud Development Not Observable,-2.0,-3.0,29.71,1007.5,,,,0,0,0,,,,,,,,,8/8 Overcast,1500.0,,OVC,1500,,,,,,
KRDR,02-14-2005,18:00,METAR,,320,19,,,9999,Cloud Development Not Observable,-1.0,-2.0,29.69,1006.9,,,,0,0,0,,,,,,,,,7/8 Mostly Cloudy,1500.0,,BKN,1500,BKN,20000.0,,,,
KRDR,02-14-2005,17:18,SPECI,,320,14,,,9999,Cloud Development Not Observable,0.0,-2.0,29.68,,,,,0,0,0,,,,,,,,,7/8 Mostly Cloudy,1500.0,,BKN,1500,BKN,20000.0,,,,
KRDR,02-14-2005,17:14,SPECI,,320,14,,,9999,Cloud Development Not Observable,0.0,-2.0,29.68,,,,,0,0,0,,,,,,,,,7/8 Mostly Cloudy,1500.0,,BKN,1500,BKN,20000.0,,,,
KRDR,02-14-2005,17:00,METAR,,320,14,,,9999,Cloud Development Not Observable,-1.0,-2.0,29.67,1006.2,,,,0,0,0,,,,,,,,,7/8 Mostly Cloudy,20000.0,,SCT,1500,BKN,20000.0,,,,
KRDR,02-14-2005,16:00,METAR,,300,13,,,9999,Cloud Development Not Observable,-4.0,-4.0,29.66,1005.9,,,,0,0,0,,,,,,,,,4/8 Partly Cloudy,72000.0,,FEW,1500,FEW,9900.0,SCT,20000.0,,
KRDR,02-14-2005,15:22,SPECI,,310,15,,,9999,Cloud Development Not Observable,-3.0,-5.0,29.65,,,,,0,0,0,,,,,,,,,4/8 Partly Cloudy,72000.0,,FEW,9900,SCT,20000.0,,,,
KRDR,02-14-2005,15:00,METAR,,320,15,,,9999,Cloud Development Not Observable,-3.0,-5.0,29.64,1005.2,,,,0,0,0,,,,,,,,,4/8 Partly Cloudy,72000.0,,FEW,8900,SCT,11000.0,SCT,20000.0,,
KRDR,02-14-2005,14:00,METAR,,310,13,,,9999,Cloud Development Not Observable,-3.0,-4.0,29.62,1004.5,,,,0,0,0,,,,,,,,,4/8 Partly Cloudy,72000.0,,FEW,8900,SCT,11000.0,,,,
KRDR,02-14-2005,13:34,SPECI,,310,11,,,9999,Cloud Development Not Observable,-3.0,-4.0,29.61,,,,,0,0,0,,,,,,,,,2/8 Mostly Clear,72000.0,,FEW,8900,FEW,25000.0,,,,
KRDR,02-14-2005,13:00,METAR,,310,12,,,9999,Cloud Development Not Observable,-3.0,-4.0,29.60,1003.8,,,,0,0,0,,,,,,,,,2/8 Mostly Clear,72000.0,,FEW,8900,,,,,,
KRDR,02-14-2005,12:00,METAR,,310,9,,,9999,Cloud Development Not Observable,-3.0,-4.0,29.59,1003.4,,,,0,0,0,,,,,,,,,2/8 Mostly Clear,72000.0,,FEW,8900,,,,,,
KRDR,02-14-2005,11:00,METAR,,300,9,,,9999,Cloud Development Not Observable,-2.0,-4.0,29.58,1003.1,,,,0,0,0,,,,,,,,,4/8 Partly Cloudy,72000.0,,SCT,8900,,,,,,
KRDR,02-14-2005,10:00,METAR,,280,7,,,9999,Cloud Development Not Observable,-3.0,-3.0,29.58,1003.1,,,,0,0,0,,,,,,,,,2/8 Mostly Clear,72000.0,,FEW,8900,,,,,,
KRDR,02-14-2005,09:00,METAR,,280,5,,,9999,Cloud Development Not Observable,-2.0,-2.0,29.58,1003.1,,,,0,0,0,,,,,,,,,2/8 Mostly Clear,72000.0,,FEW,8900,,,,,,
KRDR,02-14-2005,08:00,METAR,,,1,,,9999,Cloud Development Not Observable,-2.0,-2.0,29.58,1003.1,,,,0,0,0,,,,,,,,,4/8 Partly Cloudy,72000.0,,SCT,8900,,,,,,
KRDR,02-14-2005,07:00,METAR,,200,3,,,9999,Cloud Development Not Observable,0.0,0.0,29.59,1003.3,,,,0,0,0,,,,,,,,,4/8 Partly Cloudy,72000.0,,SCT,8900,,,,,,
KRDR,02-14-2005,06:00,METAR,,210,4,,,9999,Cloud Development Not Observable,1.0,1.0,29.58,1003.2,,,,0,0,0,,,,,,,.01 IN,,7/8 Mostly Cloudy,9000.0,,BKN,8900,,,,,,
KRDR,02-14-2005,05:00,METAR,,210,6,,,9999,Mist/Cloud Development Not Observable,1.0,1.0,29.60,1003.7,,,,10,0,0,,,,,,,,,8/8 Overcast,4900.0,,FEW,2500,BKN,5000.0,OVC,8900.0,,
KRDR,02-14-2005,04:00,METAR,,200,5,,,6400,Mist/Cloud Development Not Observable,2.0,2.0,29.61,1004.2,,,,10,0,0,,,,,,,,,8/8 Overcast,4900.0,,SCT,2500,BKN,5000.0,OVC,8900.0,,
KRDR,02-14-2005,03:00,METAR,,190,7,,,4800,Mist/Cloud Development Not Observable,2.0,2.0,29.63,1005.0,,,,10,0,0,,,,,,.01 IN,,,8/8 Overcast,2500.0,,SCT,500,BKN,2500.0,OVC,5000.0,,
KRDR,02-14-2005,02:00,METAR,,200,7,,,4800,Mist/Cloud Development Not Observable,2.0,2.0,29.63,1005.0,,,,10,0,0,,,,,,,,,8/8 Overcast,1500.0,,SCT,500,OVC,1500.0,,,,
KRDR,02-14-2005,01:30,METAR,,180,8,,,4800,Mist/Cloud Development Not Observable,1.0,1.0,29.62,,,,,10,0,0,,,,,,,,,8/8 Overcast,2000.0,,SCT,500,BKN,2000.0,OVC,4000.0,,
KRDR,02-14-2005,01:00,METAR,,180,7,,,4800,Rain/Mist/Cloud Development Not Observable,1.0,1.0,29.63,1005.1,,,,61,10,0,,,,,,,,,8/8 Overcast,2000.0,,BKN,2000,OVC,4000.0,,,,
KRDR,02-14-2005,00:40,SPECI,,180,9,,,4800,Rain/Mist/Cloud Development Not Observable,1.0,1.0,29.63,,,,,61,10,0,,,,,,,,,8/8 Overcast,2000.0,,BKN,2000,OVC,4000.0,,,,
KRDR,02-14-2005,00:00,METAR,,190,10,,,4800,Mist/Cloud Development Not Observable,2.0,2.0,29.63,1005.1,,,,10,0,0,,,,,,,,,8/8 Overcast,2500.0,,SCT,600,BKN,2500.0,OVC,5900.0,,
KRDR,02-13-2005,23:00,METAR,,180,9,,,6400,Mist/Cloud Development Not Observable,2.0,2.0,29.62,1004.8,,,,10,0,0,,,,,,,,,8/8 Overcast,2500.0,,SCT,600,OVC,2500.0,,,,
KRDR,02-13-2005,22:00,METAR,,190,9,,,6400,Mist/Cloud Development Not Observable,2.0,2.0,29.63,1005.0,,,,10,0,0,,,,,,,,,8/8 Overcast,2500.0,,SCT,700,OVC,2500.0,,,,
KRDR,02-13-2005,21:00,METAR,,170,12,,,6400,Mist/Cloud Development Not Observable,2.0,1.0,29.62,1004.6,,,,10,0,0,,,,,,,,,8/8 Overcast,2500.0,,SCT,1000,BKN,2500.0,OVC,8900.0,,
KRDR,02-13-2005,20:38,SPECI,,190,11,,,6400,Mist/Cloud Development Not Observable,2.0,1.0,29.62,,,,,10,0,0,,,,,,,,,8/8 Overcast,2700.0,,SCT,800,BKN,2700.0,OVC,8900.0,,
KRDR,02-13-2005,20:00,METAR,,180,11,,,6400,Mist/Cloud Development Not Observable,2.0,1.0,29.63,1005.0,,,,10,0,0,,,,,,,,,8/8 Overcast,1000.0,,OVC,1000,,,,,,
KRDR,02-13-2005,19:00,METAR,,170,11,,,8000,Mist/Cloud Development Not Observable,2.0,1.0,29.63,1005.1,,,,10,0,0,,,,,,,,,8/8 Overcast,1100.0,,OVC,1100,,,,,,
KRDR,02-13-2005,18:00,METAR,,180,14,,,9999,Mist/Cloud Development Not Observable,2.0,0.0,29.64,1005.5,,,,10,0,0,,,,,,,,,8/8 Overcast,1200.0,,BKN,1200,OVC,9900.0,,,,
KRDR,02-13-2005,17:00,METAR,,170,10,,,9999,Cloud Development Not Observable,1.0,-1.0,29.64,1005.5,,,,0,0,0,,,,,,,,,8/8 Overcast,20000.0,,SCT,12000,OVC,20000.0,,,,
KRDR,02-13-2005,16:00,METAR,,180,8,,,9999,Cloud Development Not Observable,0.0,-2.0,29.64,1005.3,,,,0,0,0,,,,,,,,,8/8 Overcast,20000.0,,SCT,12000,OVC,20000.0,,,,
KRDR,02-13-2005,15:00,METAR,,160,11,,,9999,Cloud Development Not Observable,-1.0,-2.0,29.64,1005.4,,,,0,0,0,,,,,,,,,8/8 Overcast,20000.0,,SCT,12000,OVC,20000.0,,,,
KRDR,02-13-2005,14:00,METAR,,150,10,,,9999,Cloud Development Not Observable,-2.0,-2.0,29.64,1005.2,,,,0,0,0,,,,,,,,,7/8 Mostly Cloudy,20000.0,,SCT,12000,BKN,20000.0,,,,
KRDR,02-13-2005,13:00,METAR,,150,8,,,9999,Cloud Development Not Observable,-4.0,-4.0,29.64,1005.6,,,,0,0,0,,,,,,,,,7/8 Mostly Cloudy,20000.0,,FEW,12000,BKN,20000.0,,,,
KRDR,02-13-2005,12:00,METAR,,,0,,,9999,Cloud Development Not Observable,-6.0,-6.0,29.67,1006.4,,,,0,0,0,,,,,,,,,8/8 Overcast,20000.0,,OVC,20000,,,,,,
KRDR,02-13-2005,11:00,METAR,,,0,,,9999,Cloud Development Not Observable,-6.0,-6.0,29.67,1006.6,,,,0,0,0,,,,,,,,,8/8 Overcast,20000.0,,OVC,20000,,,,,,
KRDR,02-13-2005,10:00,METAR,,,0,,,9999,Cloud Development Not Observable,-6.0,-6.0,29.67,1006.5,,,,0,0,0,,,,,,,,,8/8 Overcast,20000.0,,OVC,20000,,,,,,
KRDR,02-13-2005,09:00,METAR,,,1,,,9999,Mist/Cloud Development Not Observable,-6.0,-6.0,29.67,1006.5,,,,10,0,0,,,,,,,,,8/8 Overcast,20000.0,,OVC,20000,,,,,,
KRDR,02-13-2005,08:00,METAR,,,0,,,2400,Mist/Cloud Development Not Observable,-6.0,-6.0,29.68,1006.9,,,,10,0,0,,,,,,,,,8/8 Overcast,20000.0,,OVC,20000,,,,,,
KRDR,02-13-2005,07:00,METAR,,,0,,,1600,Mist/Cloud Development Not Observable,-6.0,-6.0,29.69,1007.1,,,,10,0,0,,,,,,,,,7/8 Mostly Cloudy,20000.0,,BKN,20000,,,,,,
KRDR,02-13-2005,06:32,SPECI,,,0,,,1200,Mist/Cloud Development Not Observable,-6.0,-6.0,29.70,,,,,10,0,0,,,,,,,,,7/8 Mostly Cloudy,20000.0,,FEW,100,BKN,20000.0,,,,
KRDR,02-13-2005,06:19,SPECI,,,0,,,1200,Mist/Cloud Development Not Observable,-6.0,-6.0,29.70,,,,,10,0,0,,,,,,,,,7/8 Mostly Cloudy,100.0,,BKN,100,,,,,,
KRDR,02-13-2005,06:00,METAR,,,1,,,1000,Fog with Rime/Cloud Development Not Observable,-6.0,-6.0,29.70,1007.3,,,,49,0,0,,,,,,,,,Sky Obscured (Unable to Estimate),100.0,100.0,,100,,,,,,
KRDR,02-13-2005,05:36,SPECI,,,0,,,1200,Mist/Cloud Development Not Observable,-7.0,-7.0,29.70,,,,,10,0,0,,,,,,,,,Sky Obscured (Unable to Estimate),100.0,100.0,,100,,,,,,
KRDR,02-13-2005,05:30,METAR,,,0,,,800,Fog with Rime/Cloud Development Not Observable,-7.0,-7.0,29.70,,,,,49,0,0,,,,,,,,,Sky Obscured (Unable to Estimate),100.0,100.0,,100,,,,,,
KRDR,02-13-2005,05:18,SPECI,,,2,,,3600,Mist/Cloud Development Not Observable,-7.0,-7.0,29.71,,,,,10,0,0,,,,,,,,,7/8 Mostly Cloudy,20000.0,,SCT,100,BKN,20000.0,,,,
KRDR,02-13-2005,05:00,METAR,,,2,,,4800,Mist/Cloud Development Not Observable,-6.0,-6.0,29.72,1008.3,,,,10,0,0,,,,,,,,,7/8 Mostly Cloudy,20000.0,,FEW,100,BKN,20000.0,,,,
KRDR,02-13-2005,04:00,METAR,,,0,,,9999,Cloud Development Not Observable,-5.0,-5.0,29.72,1008.3,,,,0,0,0,,,,,,,,,7/8 Mostly Cloudy,20000.0,,BKN,20000,,,,,,
KRDR,02-13-2005,03:00,METAR,,240,4,,,9999,Cloud Development Not Observable,-6.0,-6.0,29.73,1008.6,,,,0,0,0,,,,,,,,,7/8 Mostly Cloudy,20000.0,,BKN,20000,,,,,,
KRDR,02-13-2005,02:00,METAR,,140,1,,,9999,Cloud Development Not Observable,-4.0,-4.0,29.75,1009.5,,,,0,0,0,,,,,,,,,7/8 Mostly Cloudy,20000.0,,BKN,20000,,,,,,
KRDR,02-13-2005,01:00,METAR,,110,3,,,9999,Cloud Development Not Observable,-2.0,-2.0,29.75,1009.4,,,,0,0,0,,,,,,,,,4/8 Partly Cloudy,72000.0,,SCT,20000,,,,,,
KRDR,02-13-2005,00:00,METAR,,90,3,,,9999,Cloud Development Not Observable,-1.0,-2.0,29.76,1009.5,,,,0,0,0,,,,,,,,,4/8 Partly Cloudy,72000.0,,SCT,20000,,,,,,
KRDR,02-12-2005,23:00,METAR,,140,3,,,9999,Cloud Development Not Observable,0.0,-2.0,29.78,1010.3,,,,0,0,0,,,,,,,,,7/8 Mostly Cloudy,20000.0,,BKN,20000,,,,,,
KRDR,02-12-2005,22:00,METAR,,130,4,,,9999,Cloud Development Not Observable,1.0,-2.0,29.78,1010.3,,,,0,0,0,,,,,,,,,7/8 Mostly Cloudy,20000.0,,BKN,20000,,,,,,
KRDR,02-12-2005,21:00,METAR,,140,5,,,9999,Cloud Development Not Observable,1.0,-3.0,29.79,1010.4,,,,0,0,0,,,,,,,,,7/8 Mostly Cloudy,20000.0,,BKN,20000,,,,,,
KRDR,02-12-2005,20:00,METAR,,100,4,,,9999,Cloud Development Not Observable,1.0,-3.0,29.79,1010.6,,,,0,0,0,,,,,,,,,7/8 Mostly Cloudy,20000.0,,BKN,20000,,,,,,
KRDR,02-12-2005,19:00,METAR,,140,4,,,9999,Cloud Development Not Observable,1.0,-4.0,29.80,1010.9,,,,0,0,0,,,,,,,,,4/8 Partly Cloudy,72000.0,,FEW,12000,SCT,20000.0,,,,
KRDR,02-12-2005,18:00,METAR,,140,4,,,9999,Cloud Development Not Observable,0.0,-4.0,29.83,1012.0,,,,0,0,0,,,,,,,,,4/8 Partly Cloudy,72000.0,,FEW,12000,SCT,20000.0,,,,
KRDR,02-12-2005,17:00,METAR,,300,2,,,9999,Cloud Development Not Observable,-1.0,-5.0,29.84,1012.3,,,,0,0,0,,,,,,,,,4/8 Partly Cloudy,72000.0,,FEW,12000,SCT,20000.0,,,,
KRDR,02-12-2005,16:00,METAR,,,0,,,9999,Cloud Development Not Observable,-4.0,-6.0,29.84,1012.2,,,,0,0,0,,,,,,,,,2/8 Mostly Clear,72000.0,,FEW,12000,FEW,20000.0,,,,
KRDR,02-12-2005,15:00,METAR,,230,1,,,9999,Cloud Development Not Observable,-7.0,-8.0,29.84,1012.4,,,,0,0,0,,,,,,,,,2/8 Mostly Clear,72000.0,,FEW,20000,,,,,,
KRDR,02-12-2005,14:00,METAR,,260,2,,,9999,Cloud Development Not Observable,-9.0,-9.0,29.85,1012.9,,,,0,0,0,,,,,,,,,2/8 Mostly Clear,72000.0,,FEW,20000,,,,,,
KRDR,02-12-2005,13:00,METAR,,230,4,,,9999,Cloud Development Not Observable,-9.0,-9.0,29.86,1013.2,,,,0,0,0,,,,,,,,,Clear,72000.0,,,73000,,,,,,
KRDR,02-12-2005,12:00,METAR,,300,2,,,9999,Cloud Development Not Observable,-7.0,-7.0,29.86,1013.0,,,,0,0,0,,,,,,,,,Clear,72000.0,,,73000,,,,,,
KRDR,02-12-2005,11:00,METAR,,280,3,,,9999,Cloud Development Not Observable,-6.0,-6.0,29.85,1012.6,,,,0,0,0,,,,,,,,,Clear,72000.0,,,73000,,,,,,
KRDR,02-12-2005,10:00,METAR,,250,3,,,9999,Cloud Development Not Observable,-7.0,-7.0,29.84,1012.2,,,,0,0,0,,,,,,,,,Clear,72000.0,,,73000,,,,,,
KRDR,02-12-2005,09:00,METAR,,,5,,,9999,Cloud Development Not Observable,-6.0,-6.0,29.84,1012.2,,,,0,0,0,,,,,,,,,Clear,72000.0,,,73000,,,,,,
KRDR,02-12-2005,08:00,METAR,,,2,,,9999,Cloud Development Not Observable,-7.0,-7.0,29.84,1012.2,,,,0,0,0,,,,,,,,,Clear,72000.0,,,73000,,,,,,
KRDR,02-12-2005,07:00,METAR,,230,2,,,9999,Cloud Development Not Observable,-6.0,-6.0,29.85,1012.6,,,,0,0,0,,,,,,,,,2/8 Mostly Clear,72000.0,,FEW,20000,,,,,,
KRDR,02-12-2005,06:00,METAR,,220,2,,,9999,Cloud Development Not Observable,-4.0,-4.0,29.84,1012.2,,,,0,0,0,,,,,,,,,2/8 Mostly Clear,72000.0,,FEW,20000,,,,,,
KRDR,02-12-2005,05:00,METAR,,180,5,,,9999,Cloud Development Not Observable,-4.0,-5.0,29.85,1012.5,,,,0,0,0,,,,,,,,,2/8 Mostly Clear,72000.0,,FEW,20000,,,,,,
KRDR,02-12-2005,04:00,METAR,,,2,,,9999,Cloud Development Not Observable,-3.0,-4.0,29.87,1013.0,,,,0,0,0,,,,,,,,,2/8 Mostly Clear,72000.0,,FEW,22000,,,,,,
KRDR,02-12-2005,03:00,METAR,,200,7,,,9999,Cloud Development Not Observable,-3.0,-4.0,29.85,1012.4,,,,0,0,0,,,,,,,,,2/8 Mostly Clear,72000.0,,FEW,22000,,,,,,
KRDR,02-12-2005,02:00,METAR,,210,4,,,9999,Cloud Development Not Observable,-2.0,-2.0,29.86,1012.9,,,,0,0,0,,,,,,,,,2/8 Mostly Clear,72000.0,,FEW,22000,,,,,,
KRDR,02-12-2005,01:00,METAR,,290,3,,,9999,Cloud Development Not Observable,1.0,-2.0,29.85,1012.3,,,,0,0,0,,,,,,,,,7/8 Mostly Cloudy,22000.0,,FEW,15000,BKN,22000.0,,,,
KRDR,02-12-2005,00:00,METAR,,,2,,,9999,Cloud Development Not Observable,3.0,-1.0,29.85,1012.3,,,,0,0,0,,,,,,,,,7/8 Mostly Cloudy,22000.0,,FEW,15000,BKN,22000.0,,,,
KRDR,02-11-2005,23:00,METAR,,290,8,,,9999,Cloud Development Not Observable,3.0,-2.0,29.84,1012.0,,,,0,0,0,,,,,,,,,7/8 Mostly Cloudy,22000.0,,FEW,15000,BKN,22000.0,,,,
KRDR,02-11-2005,22:00,METAR,,290,4,,,9999,Cloud Development Not Observable,5.0,-1.0,29.84,1012.0,,,,0,0,0,,,,,,,,,7/8 Mostly Cloudy,22000.0,,BKN,22000,,,,,,
KRDR,02-11-2005,21:00,METAR,,250,7,,,9999,Cloud Development Not Observable,5.0,-2.0,29.83,1011.7,,,,0,0,0,,,,,,,,,7/8 Mostly Cloudy,22000.0,,FEW,12000,BKN,22000.0,,,,
KRDR,02-11-2005,20:00,METAR,,260,11,,,9999,Cloud Development Not Observable,5.0,-2.0,29.84,1011.9,,,,0,0,0,,,,,,,,,7/8 Mostly Cloudy,22000.0,,FEW,12000,BKN,22000.0,,,,
KRDR,02-11-2005,19:00,METAR,,260,13,,,9999,Cloud Development Not Observable,4.0,-3.0,29.85,1012.3,,,,0,0,0,,,,,,,,,7/8 Mostly Cloudy,22000.0,,FEW,12000,BKN,22000.0,,,,
KRDR,02-11-2005,18:00,METAR,,240,9,,,9999,Cloud Development Not Observable,4.0,-4.0,29.88,1013.3,,,,0,0,0,,,,,,,,,7/8 Mostly Cloudy,22000.0,,FEW,12000,BKN,22000.0,,,,
KRDR,02-11-2005,17:00,METAR,,260,12,,,9999,Cloud Development Not Observable,3.0,-4.0,29.87,1013.0,,,,0,0,0,,,,,,,,,7/8 Mostly Cloudy,22000.0,,FEW,12000,BKN,22000.0,,,,
KRDR,02-11-2005,16:49,SPECI,,270,12,,,9999,Cloud Development Not Observable,3.0,-4.0,29.87,,,,,0,0,0,,,,,,,,,7/8 Mostly Cloudy,22000.0,,FEW,12000,BKN,22000.0,,,,
KRDR,02-11-2005,16:00,METAR,,260,12,,,9999,Cloud Development Not Observable,2.0,-4.0,29.88,1013.4,,,,0,0,0,,,,,,,,,7/8 Mostly Cloudy,20000.0,,BKN,20000,,,,,,
KRDR,02-11-2005,15:00,METAR,,270,12,,,9999,Cloud Development Not Observable,0.0,-5.0,29.90,1014.1,,,,0,0,0,,,,,,,,,7/8 Mostly Cloudy,20000.0,,BKN,20000,,,,,,
KRDR,02-11-2005,14:00,METAR,,260,12,,,9999,Cloud Development Not Observable,-1.0,-5.0,29.90,1014.2,,,,0,0,0,,,,,,,,,4/8 Partly Cloudy,72000.0,,SCT,20000,,,,,,
KRDR,02-11-2005,13:00,METAR,,270,9,,,9999,Cloud Development Not Observable,-1.0,-5.0,29.92,1014.6,,,,0,0,0,,,,,,,,,2/8 Mostly Clear,72000.0,,FEW,20000,,,,,,
KRDR,02-11-2005,12:00,METAR,,260,10,,,9999,Cloud Development Not Observable,-2.0,-5.0,29.94,1015.3,,,,0,0,0,,,,,,,,TRACE,2/8 Mostly Clear,72000.0,,FEW,20000,,,,,,
KRDR,02-11-2005,11:00,METAR,,230,11,,,9999,Cloud Development Not Observable,-4.0,-6.0,29.94,1015.4,,,,0,0,0,,,,,,,,,2/8 Mostly Clear,72000.0,,FEW,20000,,,,,,
KRDR,02-11-2005,10:00,METAR,,240,11,,,9999,Cloud Development Not Observable,-4.0,-6.0,29.97,1016.4,,,,0,0,0,,,,,,,,,2/8 Mostly Clear,72000.0,,FEW,20000,,,,,,
KRDR,02-11-2005,09:00,METAR,,250,9,,,9999,Cloud Development Not Observable,-3.0,-5.0,29.98,1016.7,,,,0,0,0,,,,,,,,,2/8 Mostly Clear,72000.0,,FEW,20000,,,,,,
KRDR,02-11-2005,08:00,METAR,,270,10,,,9999,Cloud Development Not Observable,-3.0,-5.0,30.00,1017.4,,,,0,0,0,,,,,,,,,2/8 Mostly Clear,72000.0,,FEW,20000,,,,,,
KRDR,02-11-2005,07:00,METAR,,270,10,,,9999,Cloud Development Not Observable,-2.0,-4.0,30.01,1017.8,,,,0,0,0,,,,,,,,,2/8 Mostly Clear,72000.0,,FEW,20000,,,,,,
KRDR,02-11-2005,06:00,METAR,,280,12,,,9999,Cloud Development Not Observable,-2.0,-5.0,30.00,1017.5,,,,0,0,0,,,,,,,,,2/8 Mostly Clear,72000.0,,FEW,20000,,,,,,
KRDR,02-11-2005,05:00,METAR,,280,13,,,9999,Cloud Development Not Observable,-2.0,-5.0,29.99,1017.3,,,,0,0,0,,,,,,,,,Clear,72000.0,,,73000,,,,,,
KRDR,02-11-2005,04:00,METAR,,290,13,,,9999,Cloud Development Not Observable,-2.0,-4.0,30.00,1017.7,,,,0,0,0,,,,,,,,,Clear,72000.0,,,73000,,,,,,
KRDR,02-11-2005,03:00,METAR,,180,14,,,9999,Cloud Development Not Observable,-1.0,-4.0,29.99,1017.5,,,,0,0,0,,,,,,,,,Clear,72000.0,,,73000,,,,,,
KRDR,02-11-2005,02:00,METAR,,270,9,,,9999,Cloud Development Not Observable,-1.0,-4.0,29.99,1017.5,,,,0,0,0,,,,,,,,,Clear,72000.0,,,73000,,,,,,
KRDR,02-11-2005,01:00,METAR,,290,10,,,9999,Cloud Development Not Observable,0.0,-3.0,29.97,1017.1,,,,0,0,0,,,,,,,,,Clear,72000.0,,,73000,,,,,,
KRDR,02-11-2005,00:00,METAR,,290,13,,,9999,Cloud Development Not Observable,1.0,-2.0,29.95,1016.1,,,,0,0,0,,,,,,,,,2/8 Mostly Clear,72000.0,,FEW,7400,,,,,,
KRDR,02-10-2005,23:00,METAR,,290,13,,,9999,Cloud Development Not Observable,2.0,-2.0,29.92,1015.1,,,,0,0,0,,,,,,,,,4/8 Partly Cloudy,72000.0,,SCT,7400,,,,,,
KRDR,02-10-2005,22:00,METAR,,290,15,24.0,,9999,Cloud Development Not Observable,3.0,-2.0,29.89,1014.0,,,,0,0,0,,,,,,,,,7/8 Mostly Cloudy,7500.0,,BKN,7400,,,,,,
KRDR,02-10-2005,21:00,METAR,,280,16,,,9999,Cloud Development Not Observable,3.0,-2.0,29.86,1013.3,,,,0,0,0,,,,,,TRACE,,,4/8 Partly Cloudy,72000.0,,SCT,7400,,,,,,
KRDR,02-10-2005,20:00,METAR,,260,15,21.0,,9999,Cloud Development Not Observable,2.0,-3.0,29.86,1013.2,,,,0,0,0,,,,,,,,,4/8 Partly Cloudy,72000.0,,SCT,8900,SCT,20000.0,,,,
KRDR,02-10-2005,19:00,METAR,,240,15,20.0,,9999,Cloud Development Not Observable,0.0,-3.0,29.88,1014.0,,,,0,0,0,,,,,,,,,7/8 Mostly Cloudy,9000.0,,SCT,5000,BKN,8900.0,BKN,20000.0,,
KRDR,02-10-2005,18:25,METAR,,240,12,17.0,,9999,Cloud Development Not Observable,-1.0,-2.0,29.89,,,,,0,0,0,,,,,,,,,7/8 Mostly Cloudy,3900.0,,FEW,2500,SCT,4000.0,BKN,8900.0,BKN,20000.0
KRDR,02-10-2005,18:02,SPECI,,240,19,,,4800,Light Snow/Mist/Cloud Development Not Observable,-1.0,-4.0,29.90,,,,,71,10,0,,,,,,,,,8/8 Overcast,3900.0,,SCT,2500,OVC,4000.0,,,,
KRDR,02-10-2005,18:00,METAR,,230,14,20.0,,9999,Cloud Development Not Observable,-1.0,-4.0,29.90,1014.8,,,,0,0,0,,,,,,,,,8/8 Overcast,9000.0,,SCT,4500,OVC,8900.0,,,,
KRDR,02-10-2005,17:00,METAR,,210,11,,,9999,Cloud Development Not Observable,-4.0,-6.0,29.92,1015.6,,,,0,0,0,,,,,,,,,8/8 Overcast,9000.0,,BKN,8900,OVC,20000.0,,,,
KRDR,02-10-2005,16:00,METAR,,180,12,,,9999,Cloud Development Not Observable,-7.0,-8.0,29.94,1016.5,,,,0,0,0,,,,,,,,,8/8 Overcast,20000.0,,SCT,9900,OVC,20000.0,,,,
KRDR,02-10-2005,15:00,METAR,,200,11,,,9999,Cloud Development Not Observable,-9.0,-10.0,29.98,1017.9,,,,0,0,0,,,,,,,,,7/8 Mostly Cloudy,20000.0,,FEW,9900,BKN,20000.0,,,,
KRDR,02-10-2005,14:00,METAR,,180,11,,,9999,Cloud Development Not Observable,-11.0,-11.0,29.99,1018.3,,,,0,0,0,,,,,,,,,4/8 Partly Cloudy,72000.0,,SCT,20000,,,,,,
KRDR,02-10-2005,13:00,METAR,,180,9,,,9999,Cloud Development Not Observable,-14.0,-14.0,30.03,1019.5,,,,0,0,0,,,,,,,,,7/8 Mostly Cloudy,20000.0,,BKN,20000,,,,,,
KRDR,02-10-2005,12:00,METAR,,180,10,,,9999,Cloud Development Not Observable,-13.0,-13.0,30.06,1020.5,,,,0,0,0,,,,,,,,,7/8 Mostly Cloudy,20000.0,,BKN,20000,,,,,,
KRDR,02-10-2005,11:00,METAR,,190,8,,,9999,Cloud Development Not Observable,-14.0,-14.0,30.08,1021.0,,,,0,0,0,,,,,,,,,4/8 Partly Cloudy,72000.0,,SCT,20000,,,,,,
KRDR,02-10-2005,10:00,METAR,,190,7,,,9999,Cloud Development Not Observable,-16.0,-16.0,30.10,1021.9,,,,0,0,0,,,,,,,,,2/8 Mostly Clear,72000.0,,FEW,20000,,,,,,
KRDR,02-10-2005,09:00,METAR,,190,7,,,9999,Cloud Development Not Observable,-18.0,-18.0,30.13,1023.0,,,,0,0,0,,,,,,,,,Clear,72000.0,,,73000,,,,,,
KRDR,02-10-2005,08:00,METAR,,190,6,,,9999,Cloud Development Not Observable,-17.0,-17.0,30.14,1023.4,,,,0,0,0,,,,,,,,,Clear,72000.0,,,73000,,,,,,
KRDR,02-10-2005,07:00,METAR,,200,5,,,9999,Cloud Development Not Observable,-16.0,-16.0,30.14,1023.4,,,,0,0,0,,,,,,,,,Clear,72000.0,,,73000,,,,,,
KRDR,02-10-2005,06:00,METAR,,190,6,,,9999,Cloud Development Not Observable,-17.0,-17.0,30.15,1023.8,,,,0,0,0,,,,,,,,,Clear,72000.0,,,73000,,,,,,
KRDR,02-10-2005,05:00,METAR,,210,7,,,9999,Cloud Development Not Observable,-17.0,-17.0,30.16,1024.1,,,,0,0,0,,,,,,,,,Clear,72000.0,,,73000,,,,,,
KRDR,02-10-2005,04:00,METAR,,200,6,,,9999,Cloud Development Not Observable,-18.0,-18.0,30.16,1024.3,,,,0,0,0,,,,,,,,,Clear,72000.0,,,73000,,,,,,
KRDR,02-10-2005,03:00,METAR,,210,7,,,9999,Cloud Development Not Observable,-16.0,-16.0,30.16,1024.4,,,,0,0,0,,,,,,,,,Clear,72000.0,,,73000,,,,,,
KRDR,02-10-2005,02:00,METAR,,190,5,,,9999,Cloud Development Not Observable,-15.0,-15.0,30.15,1024.0,,,,0,0,0,,,,,,,,,Clear,72000.0,,,73000,,,,,,
KRDR,02-10-2005,01:00,METAR,,150,4,,,9999,Cloud Development Not Observable,-12.0,-13.0,30.16,1024.3,,,,0,0,0,,,,,,,,,Clear,72000.0,,,73000,,,,,,
KRDR,02-10-2005,00:00,METAR,,150,4,,,9999,Cloud Development Not Observable,-11.0,-12.0,30.15,1023.9,,,,0,0,0,,,,,,,,,Clear,72000.0,,,73000,,,,,,
KRDR,02-09-2005,23:00,METAR,,180,6,,,9999,Cloud Development Not Observable,-10.0,-11.0,30.13,1023.4,,,,0,0,0,,,,,,,,,Clear,72000.0,,,73000,,,,,,
KRDR,02-09-2005,22:00,METAR,,170,6,,,9999,Cloud Development Not Observable,-9.0,-12.0,30.12,1022.8,,,,0,0,0,,,,,,,,,Clear,72000.0,,,73000,,,,,,
KRDR,02-09-2005,21:00,METAR,,180,7,,,9999,Cloud Development Not Observable,-8.0,-11.0,30.11,1022.3,,,,0,0,0,,,,,,,,,Clear,72000.0,,,73000,,,,,,
KRDR,02-09-2005,20:00,METAR,,200,8,,,9999,Cloud Development Not Observable,-9.0,-12.0,30.11,1022.3,,,,0,0,0,,,,,,,,,Clear,72000.0,,,73000,,,,,,
KRDR,02-09-2005,19:00,METAR,,170,6,,,9999,Cloud Development Not Observable,-10.0,-13.0,30.12,1022.9,,,,0,0,0,,,,,,,,,Clear,72000.0,,,73000,,,,,,
KRDR,02-09-2005,18:00,METAR,,170,5,,,9999,Cloud Development Not Observable,-11.0,-14.0,30.13,1023.0,,,,0,0,0,,,,,,,,,2/8 Mostly Clear,72000.0,,FEW,20000,,,,,,
KRDR,02-09-2005,17:00,METAR,,180,6,,,9999,Cloud Development Not Observable,-14.0,-15.0,30.14,1023.6,,,,0,0,0,,,,,,,,,2/8 Mostly Clear,72000.0,,FEW,20000,,,,,,
KRDR,02-09-2005,16:00,METAR,,200,5,,,9999,Cloud Development Not Observable,-17.0,-17.0,30.15,1024.0,,,,0,0,0,,,,,,,,,2/8 Mostly Clear,72000.0,,FEW,20000,,,,,,
KRDR,02-09-2005,15:00,METAR,,,2,,,9999,Cloud Development Not Observable,-20.0,-20.0,30.16,1024.4,,,,0,0,0,,,,,,,,,2/8 Mostly Clear,72000.0,,FEW,20000,,,,,,
KRDR,02-09-2005,14:00,METAR,,,1,,,9999,Cloud Development Not Observable,-22.0,-22.0,30.15,1024.1,,,,0,0,0,,,,,,,,,2/8 Mostly Clear,72000.0,,FEW,6900,,,,,,
KRDR,02-09-2005,13:00,METAR,,180,3,,,9999,Cloud Development Not Observable,-23.0,-23.0,30.15,1024.2,,,,0,0,0,,,,,,,,,2/8 Mostly Clear,72000.0,,FEW,6900,,,,,,
KRDR,02-09-2005,12:00,METAR,,170,3,,,9999,Cloud Development Not Observable,-23.0,-23.0,30.16,1024.5,,,,0,0,0,,,,,,,,,2/8 Mostly Clear,72000.0,,FEW,6900,,,,,,
KRDR,02-09-2005,11:00,METAR,,140,4,,,9999,Cloud Development Not Observable,-24.0,-24.0,30.16,1024.5,,,,0,0,0,,,,,,,,,2/8 Mostly Clear,72000.0,,FEW,6900,,,,,,
KRDR,02-09-2005,10:00,METAR,,160,3,,,9999,Cloud Development Not Observable,-23.0,-23.0,30.17,1025.0,,,,0,0,0,,,,,,,,,2/8 Mostly Clear,72000.0,,FEW,6900,,,,,,
KRDR,02-09-2005,09:00,METAR,,,3,,,9999,Cloud Development Not Observable,-21.0,-21.0,30.19,1025.4,,,,0,0,0,,,,,,,,,2/8 Mostly Clear,72000.0,,FEW,6900,,,,,,
KRDR,02-09-2005,08:00,METAR,,,1,,,9999,Cloud Development Not Observable,-22.0,-22.0,30.20,1026.0,,,,0,0,0,,,,,,,,,2/8 Mostly Clear,72000.0,,FEW,6900,,,,,,
KRDR,02-09-2005,07:00,METAR,,220,1,,,9999,Cloud Development Not Observable,-21.0,-21.0,30.23,1026.9,,,,0,0,0,,,,,,,,,4/8 Partly Cloudy,72000.0,,SCT,6900,,,,,,
KRDR,02-09-2005,06:00,METAR,,210,2,,,9999,Cloud Development Not Observable,-20.0,-20.0,30.23,1026.9,,,,0,0,0,,,,,,,,,2/8 Mostly Clear,72000.0,,FEW,7900,,,,,,
KRDR,02-09-2005,05:00,METAR,,210,1,,,9999,Cloud Development Not Observable,-21.0,-21.0,30.24,1027.6,,,,0,0,0,,,,,,,,,4/8 Partly Cloudy,72000.0,,SCT,7900,,,,,,
KRDR,02-09-2005,04:00,METAR,,,0,,,9999,Cloud Development Not Observable,-19.0,-19.0,30.24,1027.5,,,,0,0,0,,,,,,,,,4/8 Partly Cloudy,72000.0,,SCT,8900,,,,,,
KRDR,02-09-2005,03:00,METAR,,310,1,,,9999,Cloud Development Not Observable,-19.0,-19.0,30.27,1028.2,,,,0,0,0,,,,,,,,,7/8 Mostly Cloudy,9000.0,,BKN,8900,,,,,,
KRDR,02-09-2005,02:00,METAR,,,2,,,9999,Cloud Development Not Observable,-17.0,-18.0,30.27,1028.2,,,,0,0,0,,,,,,,,,7/8 Mostly Cloudy,9000.0,,FEW,2900,BKN,8900.0,,,,
KRDR,02-09-2005,01:00,METAR,,,0,,,9999,Cloud Development Not Observable,-17.0,-18.0,30.28,1028.6,,,,0,0,0,,,,,,,,,7/8 Mostly Cloudy,10000.0,,BKN,9900,,,,,,
KRDR,02-09-2005,00:00,METAR,,360,1,,,9999,Cloud Development Not Observable,-17.0,-18.0,30.28,1028.6,,,,0,0,0,,,,,,,,,7/8 Mostly Cloudy,10000.0,,BKN,9900,,,,,,
KRDR,02-08-2005,23:00,METAR,,60,2,,,9999,Cloud Development Not Observable,-16.0,-18.0,30.29,1028.8,,,,0,0,0,,,,,,,,,7/8 Mostly Cloudy,10000.0,,BKN,9900,,,,,,
KRDR,02-08-2005,22:00,METAR,,50,4,,,9999,Cloud Development Not Observable,-15.0,-18.0,30.30,1029.2,,,,0,0,0,,,,,,,,,7/8 Mostly Cloudy,20000.0,,SCT,12000,BKN,20000.0,,,,
KRDR,02-08-2005,21:00,METAR,,350,5,,,9999,Cloud Development Not Observable,-16.0,-18.0,30.31,1029.7,,,,0,0,0,,,,,,,,,7/8 Mostly Cloudy,20000.0,,SCT,12000,BKN,20000.0,,,,
KRDR,02-08-2005,20:00,METAR,,10,3,,,9999,Cloud Development Not Observable,-16.0,-19.0,30.33,1030.4,,,,0,0,0,,,,,,,,,7/8 Mostly Cloudy,20000.0,,SCT,12000,BKN,20000.0,,,,
KRDR,02-08-2005,19:00,METAR,,360,3,,,9999,Cloud Development Not Observable,-17.0,-19.0,30.36,1031.6,,,,0,0,0,,,,,,,,,7/8 Mostly Cloudy,20000.0,,SCT,12000,BKN,20000.0,,,,
KRDR,02-08-2005,18:00,METAR,,340,2,,,9999,Cloud Development Not Observable,-19.0,-21.0,30.39,1032.7,,,,0,0,0,,,,,,,,,7/8 Mostly Cloudy,20000.0,,FEW,12000,BKN,20000.0,,,,
KRDR,02-08-2005,17:00,METAR,,320,6,,,9999,Cloud Development Not Observable,-21.0,-22.0,30.42,1033.9,,,,0,0,0,,,,,,,,,7/8 Mostly Cloudy,20000.0,,FEW,12000,BKN,20000.0,,,,
KRDR,02-08-2005,16:00,METAR,,300,3,,,9999,Cloud Development Not Observable,-22.0,-23.0,30.42,1033.9,,,,0,0,0,,,,,,,,,7/8 Mostly Cloudy,20000.0,,FEW,12000,BKN,20000.0,,,,
KRDR,02-08-2005,15:00,METAR,,330,2,,,9999,Cloud Development Not Observable,-23.0,-23.0,30.42,1033.9,,,,0,0,0,,,,,,,,,7/8 Mostly Cloudy,20000.0,,BKN,20000,,,,,,
KRDR,02-08-2005,14:00,METAR,,,1,,,9999,Cloud Development Not Observable,-24.0,-24.0,30.42,1033.9,,,,0,0,0,,,,,,,,,4/8 Partly Cloudy,72000.0,,SCT,20000,,,,,,
KRDR,02-08-2005,13:00,METAR,,350,3,,,9999,Cloud Development Not Observable,-24.0,-24.0,30.42,1033.9,,,,0,0,0,,,,,,,,,7/8 Mostly Cloudy,20000.0,,BKN,20000,,,,,,
KRDR,02-08-2005,12:00,METAR,,350,3,,,9999,Cloud Development Not Observable,-24.0,-24.0,30.43,1034.0,,,,0,0,0,,,,,,,,,7/8 Mostly Cloudy,20000.0,,BKN,20000,,,,,,
KRDR,02-08-2005,11:00,METAR,,340,3,,,9999,Cloud Development Not Observable,-23.0,-23.0,30.44,1034.2,,,,0,0,0,,,,,,,,,7/8 Mostly Cloudy,20000.0,,BKN,20000,,,,,,
KRDR,02-08-2005,10:00,METAR,,340,3,,,9999,Cloud Development Not Observable,-23.0,-23.0,30.44,1034.2,,,,0,0,0,,,,,,,,,4/8 Partly Cloudy,72000.0,,SCT,20000,,,,,,
KRDR,02-08-2005,09:00,METAR,,320,5,,,9999,Cloud Development Not Observable,-23.0,-23.0,30.46,1034.7,,,,0,0,0,,,,,,,,,2/8 Mostly Clear,72000.0,,FEW,20000,,,,,,
KRDR,02-08-2005,08:00,METAR,,320,5,,,9999,Cloud Development Not Observable,-23.0,-23.0,30.46,1034.7,,,,0,0,0,,,,,,,,,4/8 Partly Cloudy,72000.0,,SCT,20000,,,,,,
KRDR,02-08-2005,07:00,METAR,,320,5,,,9999,Cloud Development Not Observable,-23.0,-23.0,30.47,1035.3,,,,0,0,0,,,,,,,,,4/8 Partly Cloudy,72000.0,,SCT,20000,,,,,,
KRDR,02-08-2005,06:00,METAR,,290,5,,,9999,Cloud Development Not Observable,-24.0,-24.0,30.48,1035.7,,,,0,0,0,,,,,,,,,4/8 Partly Cloudy,72000.0,,SCT,20000,,,,,,
KRDR,02-08-2005,05:00,METAR,,310,5,,,9999,Cloud Development Not Observable,-23.0,-23.0,30.48,1035.5,,,,0,0,0,,,,,,,,,2/8 Mostly Clear,72000.0,,FEW,20000,,,,,,
KRDR,02-08-2005,04:00,METAR,,310,2,,,9999,Cloud Development Not Observable,-23.0,-23.0,30.47,1035.3,,,,0,0,0,,,,,,,,,4/8 Partly Cloudy,72000.0,,SCT,20000,,,,,,
KRDR,02-08-2005,03:00,METAR,,340,4,,,9999,Cloud Development Not Observable,-22.0,-22.0,30.47,1035.3,,,,0,0,0,,,,,,,,,4/8 Partly Cloudy,72000.0,,SCT,20000,,,,,,
KRDR,02-08-2005,02:00,METAR,,350,9,,,9999,Cloud Development Not Observable,-21.0,-21.0,30.47,1035.2,,,,0,0,0,,,,,,,,,4/8 Partly Cloudy,72000.0,,SCT,20000,,,,,,
KRDR,02-08-2005,01:00,METAR,,360,10,,,9999,Cloud Development Not Observable,-21.0,-21.0,30.46,1034.7,,,,0,0,0,,,,,,,,,4/8 Partly Cloudy,72000.0,,SCT,20000,,,,,,
KRDR,02-08-2005,00:00,METAR,,360,11,,,9999,Cloud Development Not Observable,-20.0,-20.0,30.47,1035.0,,,,0,0,0,,,,,,,IN,,4/8 Partly Cloudy,72000.0,,SCT,15000,,,,,,
KRDR,02-07-2005,23:00,METAR,,350,11,,,9999,Cloud Development Not Observable,-18.0,-18.0,30.46,1034.7,,,,0,0,0,,,,,,,,,2/8 Mostly Clear,72000.0,,FEW,15000,,,,,,
KRDR,02-07-2005,22:00,METAR,,340,11,,,9999,Cloud Development Not Observable,-18.0,-18.0,30.46,1033.8,,,,0,0,0,,,,,,,,,2/8 Mostly Clear,72000.0,,FEW,15000,,,,,,
KRDR,02-07-2005,21:00,METAR,,330,11,,,9999,Cloud Development Not Observable,-18.0,-19.0,30.46,1034.8,,,,0,0,0,,,,,,TRACE,,,2/8 Mostly Clear,72000.0,,FEW,15000,,,,,,
KRDR,02-07-2005,20:00,METAR,,340,12,,,9999,Cloud Development Not Observable,-18.0,-19.0,30.47,1035.0,,,,0,0,0,,,,,,,,,2/8 Mostly Clear,72000.0,,FEW,15000,,,,,,
KRDR,02-07-2005,19:00,METAR,,340,9,,,9999,Cloud Development Not Observable,-19.0,-20.0,30.48,1035.3,,,,0,0,0,,,,,,,,,4/8 Partly Cloudy,72000.0,,FEW,5000,SCT,15000.0,,,,
KRDR,02-07-2005,18:45,METAR,,350,10,,,9999,Cloud Development Not Observable,-19.0,-20.0,30.49,,,,,0,0,0,,,,,,,,,4/8 Partly Cloudy,72000.0,,FEW,3500,SCT,5000.0,,,,
KRDR,02-07-2005,18:00,METAR,,340,10,,,9999,Light Snow/Cloud Development Not Observable,-19.0,-20.0,30.50,1036.1,,,,71,0,0,,,,,,,IN,,7/8 Mostly Cloudy,4900.0,,SCT,3500,BKN,5000.0,,,,
KRDR,02-07-2005,17:15,SPECI,,350,10,,,9999,Light Snow/Mist/Cloud Development Not Observable,-20.0,-20.0,30.50,,,,,71,10,0,,,,,,,,,8/8 Overcast,3400.0,,BKN,3500,OVC,5000.0,,,,
KRDR,02-07-2005,17:00,METAR,,340,13,,,9999,Light Snow/Cloud Development Not Observable,-20.0,-20.0,30.51,1036.5,,,,71,0,0,,,,,,,,,8/8 Overcast,3400.0,,BKN,3500,OVC,5000.0,,,,
KRDR,02-07-2005,16:00,METAR,,350,12,,,9999,Light Snow/Cloud Development Not Observable,-20.0,-20.0,30.50,1036.1,,,,71,0,0,,,,,,,,,8/8 Overcast,3900.0,,OVC,4000,,,,,,
KRDR,02-07-2005,15:25,METAR,,350,12,,,9999,Light Snow/Cloud Development Not Observable,-20.0,-20.0,30.49,,,,,71,0,0,,,,,,,,,8/8 Overcast,3900.0,,FEW,1500,OVC,4000.0,,,,
KRDR,02-07-2005,15:00,METAR,,350,13,,,9999,Light Snow/Cloud Development Not Observable,-20.0,-20.0,30.49,1035.7,,,,71,0,0,,,,,,,,,8/8 Overcast,3400.0,,SCT,1500,OVC,3500.0,,,,
KRDR,02-07-2005,14:00,METAR,,340,12,,,9999,Light Snow/Cloud Development Not Observable,-20.0,-20.0,30.48,1035.5,,,,71,0,0,,,,,,,,,8/8 Overcast,3900.0,,FEW,1500,OVC,4000.0,,,,
KRDR,02-07-2005,13:14,SPECI,,350,11,,,9999,Light Snow/Cloud Development Not Observable,-19.0,-20.0,30.49,,,,,71,0,0,,,,,,,,,8/8 Overcast,4500.0,,FEW,1500,OVC,4600.0,,,,
KRDR,02-07-2005,13:00,METAR,,340,11,,,9999,Light Snow/Cloud Development Not Observable,-19.0,-19.0,30.48,1035.4,,,,71,0,0,,,,,,,,,8/8 Overcast,4500.0,,FEW,1500,OVC,4600.0,,,,
KRDR,02-07-2005,12:27,SPECI,,350,8,,,9999,Light Snow/Cloud Development Not Observable,-19.0,-19.0,30.48,,,,,71,0,0,,,,,,,,,8/8 Overcast,4500.0,,OVC,4600,,,,,,
KRDR,02-07-2005,12:00,METAR,,340,8,,,9999,Light Snow/Cloud Development Not Observable,-19.0,-19.0,30.48,1035.3,,,,71,0,0,,,,,,,IN,,8/8 Overcast,4400.0,,OVC,4500,,,,,,
KRDR,02-07-2005,11:00,METAR,,340,9,,,9999,Light Snow/Cloud Development Not Observable,-19.0,-19.0,30.46,1034.4,,,,71,0,0,,,,,,,,,8/8 Overcast,4500.0,,OVC,4600,,,,,,
KRDR,02-07-2005,10:00,METAR,,330,9,,,9999,Light Snow/Cloud Development Not Observable,-19.0,-19.0,30.46,1034.4,,,,71,0,0,,,,,,,,,8/8 Overcast,4500.0,,OVC,4600,,,,,,
KRDR,02-07-2005,09:09,SPECI,,330,8,,,9999,Light Snow/Cloud Development Not Observable,-19.0,-20.0,30.45,,,,,71,0,0,,,,,,,,,8/8 Overcast,4700.0,,OVC,4800,,,,,,
KRDR,02-07-2005,09:00,METAR,,330,8,,,9999,Cloud Development Not Observable,-20.0,-20.0,30.44,1034.0,,,,0,0,0,,,,,,,,,8/8 Overcast,4900.0,,OVC,5000,,,,,,
KRDR,02-07-2005,08:00,METAR,,310,5,,,9999,Cloud Development Not Observable,-20.0,-20.0,30.44,1034.0,,,,0,0,0,,,,,,,,,8/8 Overcast,4900.0,,SCT,1300,OVC,5000.0,,,,
KRDR,02-07-2005,07:00,METAR,,310,6,,,9999,Cloud Development Not Observable,-20.0,-21.0,30.45,1034.2,,,,0,0,0,,,,,,,,,7/8 Mostly Cloudy,4900.0,,BKN,5000,,,,,,
KRDR,02-07-2005,06:00,METAR,,310,4,,,9999,Cloud Development Not Observable,-22.0,-22.0,30.44,1034.0,,,,0,0,0,,,,,,,,,Clear,72000.0,,,73000,,,,,,
KRDR,02-07-2005,05:00,METAR,,340,5,,,9999,Cloud Development Not Observable,-21.0,-21.0,30.43,1033.8,,,,0,0,0,,,,,,,,,4/8 Partly Cloudy,72000.0,,SCT,20000,,,,,,
KRDR,02-07-2005,04:00,METAR,,350,7,,,9999,Cloud Development Not Observable,-20.0,-20.0,30.44,1033.9,,,,0,0,0,,,,,,,,,4/8 Partly Cloudy,72000.0,,FEW,2000,SCT,20000.0,,,,
KRDR,02-07-2005,03:00,METAR,,360,7,,,9999,Cloud Development Not Observable,-19.0,-19.0,30.42,1033.4,,,,0,0,0,,,,,,,,,7/8 Mostly Cloudy,20000.0,,SCT,2300,BKN,20000.0,,,,
KRDR,02-07-2005,02:00,METAR,,360,7,,,9999,Cloud Development Not Observable,-18.0,-18.0,30.42,1033.1,,,,0,0,0,,,,,,,,,7/8 Mostly Cloudy,20000.0,,SCT,2200,BKN,20000.0,,,,
KRDR,02-07-2005,01:00,METAR,,10,7,,,9999,Cloud Development Not Observable,-17.0,-17.0,30.39,1032.2,,,,0,0,0,,,,,,,,,7/8 Mostly Cloudy,1800.0,,FEW,1000,SCT,1800.0,SCT,12000.0,BKN,20000.0
KRDR,02-07-2005,00:00,METAR,,330,9,,,9999,Cloud Development Not Observable,-16.0,-18.0,30.38,1031.7,,,,0,0,0,,,,,,,,,4/8 Partly Cloudy,72000.0,,FEW,3000,SCT,9900.0,,,,
KRDR,02-06-2005,23:00,METAR,,320,11,,,9999,Cloud Development Not Observable,-14.0,-17.0,30.35,1030.6,,,,0,0,0,,,,,,,,,4/8 Partly Cloudy,72000.0,,SCT,3000,,,,,,
KRDR,02-06-2005,22:00,METAR,,320,11,,,9999,Cloud Development Not Observable,-13.0,-16.0,30.32,1029.4,,,,0,0,0,,,,,,,,,4/8 Partly Cloudy,72000.0,,SCT,3000,,,,,,
KRDR,02-06-2005,21:00,METAR,,320,13,,,9999,Cloud Development Not Observable,-13.0,-17.0,30.30,1028.7,,,,0,0,0,,,,,,,,,2/8 Mostly Clear,72000.0,,FEW,2800,,,,,,
KRDR,02-06-2005,20:00,METAR,,310,9,,,9999,Cloud Development Not Observable,-13.0,-17.0,30.29,1028.4,,,,0,0,0,,,,,,,,,2/8 Mostly Clear,72000.0,,FEW,2800,,,,,,
KRDR,02-06-2005,19:00,METAR,,300,12,,,9999,Cloud Development Not Observable,-13.0,-17.0,30.27,1027.7,,,,0,0,0,,,,,,,,,2/8 Mostly Clear,72000.0,,FEW,2800,,,,,,
KRDR,02-06-2005,18:00,METAR,,300,11,,,9999,Cloud Development Not Observable,-14.0,-17.0,30.26,1027.3,,,,0,0,0,,,,,,,,,Clear,72000.0,,,73000,,,,,,
KRDR,02-06-2005,17:00,METAR,,290,13,,,9999,Cloud Development Not Observable,-15.0,-18.0,30.25,1026.7,,,,0,0,0,,,,,,,,,2/8 Mostly Clear,72000.0,,FEW,2700,,,,,,
KRDR,02-06-2005,16:00,METAR,,290,11,,,9999,Cloud Development Not Observable,-15.0,-18.0,30.24,1026.6,,,,0,0,0,,,,,,,,,4/8 Partly Cloudy,72000.0,,SCT,2700,,,,,,
KRDR,02-06-2005,15:00,METAR,,290,11,,,9999,Cloud Development Not Observable,-15.0,-17.0,30.22,1025.9,,,,0,0,0,,,,,,,,,4/8 Partly Cloudy,72000.0,,SCT,2700,,,,,,
KRDR,02-06-2005,14:00,METAR,,280,11,,,9999,Cloud Development Not Observable,-14.0,-15.0,30.18,1024.4,,,,0,0,0,,,,,,,,,7/8 Mostly Cloudy,2300.0,,BKN,2300,,,,,,
KRDR,02-06-2005,13:00,METAR,,320,9,,,9999,Cloud Development Not Observable,-13.0,-14.0,30.14,1022.9,,,,0,0,0,,,,,,,,,7/8 Mostly Cloudy,2200.0,,FEW,1400,BKN,2200.0,,,,
KRDR,02-06-2005,12:00,METAR,,320,6,,,9999,Cloud Development Not Observable,-12.0,-13.0,30.11,1021.8,,,,0,0,0,,,,,,,IN,,8/8 Overcast,2200.0,,OVC,2200,,,,,,
KRDR,02-06-2005,11:00,METAR,,320,11,,,9999,Cloud Development Not Observable,-12.0,-13.0,30.08,1021.0,,,,0,0,0,,,,,,,,,8/8 Overcast,2000.0,,OVC,2000,,,,,,
KRDR,02-06-2005,10:00,METAR,,320,11,,,9999,Cloud Development Not Observable,-12.0,-13.0,30.06,1020.3,,,,0,0,0,,,,,,,,,8/8 Overcast,2000.0,,SCT,1100,OVC,2000.0,,,,
KRDR,02-06-2005,09:00,METAR,,320,11,,,9999,Cloud Development Not Observable,-12.0,-13.0,30.02,1019.1,,,,0,0,0,,,,,,TRACE,,,8/8 Overcast,2600.0,,OVC,2600,,,,,,
KRDR,02-06-2005,08:00,METAR,,310,15,,,9999,Light Snow/Cloud Development Not Observable,-11.0,-13.0,30.00,1018.2,,,,71,0,0,,,,,,,,,8/8 Overcast,2600.0,,SCT,1800,BKN,2600.0,OVC,9900.0,,
KRDR,02-06-2005,07:00,METAR,,310,13,,,9999,Light Snow/Cloud Development Not Observable,-11.0,-12.0,29.96,1016.8,,,,71,0,0,,,,,,,,,8/8 Overcast,2700.0,,BKN,2700,OVC,11000.0,,,,
KRDR,02-06-2005,06:00,METAR,,310,13,,,9999,Light Snow/Cloud Development Not Observable,-10.0,-11.0,29.94,1016.2,,,,71,0,0,,,,,,,IN,,8/8 Overcast,2000.0,,BKN,2000,OVC,3300.0,,,,
KRDR,02-06-2005,05:00,METAR,,330,14,,,9999,Light Snow/Cloud Development Not Observable,-10.0,-11.0,29.91,1015.1,,,,71,0,0,,,,,,,,,8/8 Overcast,2000.0,,OVC,2000,,,,,,
KRDR,02-06-2005,04:00,METAR,,330,12,,,9999,Light Snow/Cloud Development Not Observable,-10.0,-11.0,29.88,1014.1,,,,71,0,0,,,,,,,,,8/8 Overcast,1800.0,,OVC,1800,,,,,,
KRDR,02-06-2005,03:00,METAR,,320,17,,,9999,Light Snow/Cloud Development Not Observable,-10.0,-10.0,29.84,1012.9,,,,71,0,0,,,,,,TRACE,,,8/8 Overcast,1600.0,,SCT,1000,OVC,1600.0,,,,
KRDR,02-06-2005,02:10,SPECI,,320,18,,,6400,Light Snow/Mist/Cloud Development Not Observable,-10.0,-10.0,29.81,,,,,71,10,0,,,,,,,,,8/8 Overcast,1400.0,,SCT,600,OVC,1400.0,,,,
KRDR,02-06-2005,02:00,METAR,,320,17,,,8000,Mist/Cloud Development Not Observable,-9.0,-11.0,29.80,1011.3,,,,10,0,0,,,,,,,,,8/8 Overcast,800.0,,BKN,800,OVC,1200.0,,,,
KRDR,02-06-2005,01:00,METAR,,320,15,,,8000,Mist/Cloud Development Not Observable,-7.0,-7.0,29.77,1010.3,,,,10,0,0,,,,,,,,,8/8 Overcast,700.0,,BKN,700,OVC,1200.0,,,,
KRDR,02-06-2005,00:00,METAR,,340,12,,,8000,Mist/Cloud Development Not Observable,-6.0,-6.0,29.75,1009.6,,,,10,0,0,,,,,,,,,8/8 Overcast,400.0,,OVC,400,,,,,,
KRDR,02-05-2005,23:00,METAR,,350,14,,,8000,Mist/Cloud Development Not Observable,-9.0,-9.0,29.72,1008.7,,,,10,0,0,,,,,,,,,8/8 Overcast,400.0,,OVC,400,,,,,,
KRDR,02-05-2005,22:00,METAR,,350,13,,,6400,Mist/Cloud Development Not Observable,-9.0,-9.0,29.68,1007.4,,,,10,0,0,,,,,,,,,8/8 Overcast,400.0,,OVC,400,,,,,,
KRDR,02-05-2005,21:00,METAR,,350,12,,,6400,Mist/Cloud Development Not Observable,-9.0,-9.0,29.64,1006.0,,,,10,0,0,,,,,,,,,8/8 Overcast,400.0,,OVC,400,,,,,,
KRDR,02-05-2005,20:00,METAR,,350,8,,,8000,Mist/Cloud Development Not Observable,-9.0,-9.0,29.63,1005.6,,,,10,0,0,,,,,,,,,7/8 Mostly Cloudy,400.0,,BKN,400,,,,,,
KRDR,02-05-2005,19:00,METAR,,340,9,,,8000,Mist/Cloud Development Not Observable,-9.0,-9.0,29.63,1005.6,,,,10,0,0,,,,,,,,,7/8 Mostly Cloudy,400.0,,BKN,400,,,,,,
KRDR,02-05-2005,18:00,METAR,,330,6,,,9999,Mist/Cloud Development Not Observable,-9.0,-9.0,29.63,1005.6,,,,10,0,0,,,,,,,,,7/8 Mostly Cloudy,400.0,,BKN,400,,,,,,
KRDR,02-05-2005,17:24,SPECI,,330,6,,,8000,Mist/Cloud Development Not Observable,-9.0,-9.0,29.64,,,,,10,0,0,,,,,,,,,7/8 Mostly Cloudy,300.0,,BKN,300,,,,,,
KRDR,02-05-2005,17:00,METAR,,,3,,,800,Fog with Rime/Cloud Development Not Observable,-9.0,-9.0,29.65,1006.3,,,,49,0,0,,,,,,,,,Sky Obscured (Unable to Estimate),200.0,100.0,,200,,,,,,
KRDR,02-05-2005,16:00,METAR,,190,2,,,800,Fog with Rime/Cloud Development Not Observable,-9.0,-9.0,29.65,1006.3,,,,48,0,0,,,,,,,,,8/8 Overcast,300.0,,OVC,300,,,,,,
KRDR,02-05-2005,15:00,METAR,,,0,,,800,Fog with Rime/Cloud Development Not Observable,-9.0,-9.0,29.67,1007.0,,,,48,0,0,,,,,,,,,8/8 Overcast,300.0,,OVC,300,,,,,,
KRDR,02-05-2005,14:00,METAR,,360,1,,,400,Fog with Rime/Cloud Development Not Observable,-9.0,-9.0,29.68,1007.3,,,,48,0,0,,,,,,,,,8/8 Overcast,300.0,,OVC,300,,,,,,
KRDR,02-05-2005,13:30,METAR,,320,3,,,800,Fog with Rime/Cloud Development Not Observable,-9.0,-9.0,29.68,,,,,48,0,0,,,,,,,,,8/8 Overcast,300.0,,OVC,300,,,,,,
KRDR,02-05-2005,13:00,METAR,,320,2,,,1600,Mist/Cloud Development Not Observable,-10.0,-10.0,29.69,1007.7,,,,10,0,0,,,,,,,,,7/8 Mostly Cloudy,300.0,,BKN,300,,,,,,
KRDR,02-05-2005,12:08,SPECI,,320,2,,,9999,Cloud Development Not Observable,-10.0,-10.0,29.71,,,,,0,0,0,,,,,,,,,8/8 Overcast,400.0,,BKN,400,OVC,800.0,,,,
KRDR,02-05-2005,12:00,METAR,,310,3,,,9999,Cloud Development Not Observable,-10.0,-10.0,29.71,1008.2,,,,0,0,0,,,,,,,,,8/8 Overcast,1000.0,,SCT,300,OVC,1000.0,,,,
KRDR,02-05-2005,11:00,METAR,,320,1,,,9999,Cloud Development Not Observable,-11.0,-11.0,29.72,1008.7,,,,0,0,0,,,,,,,,,8/8 Overcast,1000.0,,SCT,600,OVC,1000.0,,,,
KRDR,02-05-2005,10:35,SPECI,,290,2,,,9999,Cloud Development Not Observable,-12.0,-12.0,29.74,,,,,0,0,0,,,,,,,,,7/8 Mostly Cloudy,1000.0,,BKN,1000,BKN,20000.0,,,,
KRDR,02-05-2005,10:00,METAR,,290,2,,,9999,Cloud Development Not Observable,-13.0,-13.0,29.74,1009.5,,,,0,0,0,,,,,,,,,4/8 Partly Cloudy,72000.0,,SCT,20000,,,,,,
KRDR,02-05-2005,09:00,METAR,,310,1,,,9999,Cloud Development Not Observable,-13.0,-13.0,29.77,1010.5,,,,0,0,0,,,,,,,,,4/8 Partly Cloudy,72000.0,,SCT,20000,,,,,,
KRDR,02-05-2005,08:00,METAR,,330,4,,,9999,Cloud Development Not Observable,-12.0,-12.0,29.83,1012.5,,,,0,0,0,,,,,,,,,4/8 Partly Cloudy,72000.0,,SCT,20000,,,,,,
KRDR,02-05-2005,07:00,METAR,,360,8,,,9999,Cloud Development Not Observable,-12.0,-12.0,29.86,1013.4,,,,0,0,0,,,,,,,,,7/8 Mostly Cloudy,20000.0,,BKN,20000,,,,,,
KRDR,02-05-2005,06:00,METAR,,360,8,,,9999,Cloud Development Not Observable,-12.0,-12.0,29.92,1015.3,,,,0,0,0,,,,,,,,,7/8 Mostly Cloudy,20000.0,,FEW,12000,BKN,20000.0,,,,
KRDR,02-05-2005,05:00,METAR,,350,7,,,9999,Cloud Development Not Observable,-12.0,-12.0,29.95,1016.6,,,,0,0,0,,,,,,,,,7/8 Mostly Cloudy,20000.0,,FEW,12000,BKN,20000.0,,,,
KRDR,02-05-2005,04:00,METAR,,350,10,,,9999,Cloud Development Not Observable,-12.0,-12.0,29.98,1017.5,,,,0,0,0,,,,,,,,,7/8 Mostly Cloudy,20000.0,,FEW,12000,BKN,20000.0,,,,
KRDR,02-05-2005,03:00,METAR,,350,9,,,9999,Cloud Development Not Observable,-11.0,-11.0,30.02,1018.8,,,,0,0,0,,,,,,,,,8/8 Overcast,20000.0,,SCT,12000,OVC,20000.0,,,,
KRDR,02-05-2005,02:00,METAR,,350,10,,,9999,Cloud Development Not Observable,-12.0,-12.0,30.05,1019.9,,,,0,0,0,,,,,,,,,8/8 Overcast,20000.0,,SCT,12000,OVC,20000.0,,,,
KRDR,02-05-2005,01:00,METAR,,350,9,,,9999,Cloud Development Not Observable,-11.0,-11.0,30.09,1020.8,,,,0,0,0,,,,,,,,,7/8 Mostly Cloudy,25000.0,,SCT,12000,BKN,25000.0,,,,
KRDR,02-05-2005,00:00,METAR,,10,12,,,9999,Cloud Development Not Observable,-10.0,-11.0,30.08,1020.4,,,,0,0,0,,,,,,,,,7/8 Mostly Cloudy,12000.0,,BKN,12000,BKN,25000.0,,,,
KRDR,02-04-2005,23:00,METAR,,10,13,,,9999,Cloud Development Not Observable,-10.0,-10.0,30.10,1021.2,,,,0,0,0,,,,,,,,,8/8 Overcast,12000.0,,FEW,1500,BKN,12000.0,OVC,25000.0,,
KRDR,02-04-2005,22:00,METAR,,10,18,,,9999,Cloud Development Not Observable,-9.0,-10.0,30.10,1021.2,,,,0,0,0,,,,,,,,,8/8 Overcast,12000.0,,BKN,12000,OVC,25000.0,,,,
KRDR,02-04-2005,21:00,METAR,,360,18,,,9999,Cloud Development Not Observable,-8.0,-9.0,30.11,1021.5,,,,0,0,0,,,,,,,,,7/8 Mostly Cloudy,10000.0,,FEW,4000,SCT,9900.0,BKN,20000.0,,
KRDR,02-04-2005,20:00,METAR,,360,15,,,9999,Cloud Development Not Observable,-7.0,-8.0,30.12,1021.7,,,,0,0,0,,,,,,,,,7/8 Mostly Cloudy,20000.0,,BKN,20000,,,,,,
KRDR,02-04-2005,19:00,METAR,,360,13,,,9999,Cloud Development Not Observable,-6.0,-8.0,30.12,1021.8,,,,0,0,0,,,,,,,,,7/8 Mostly Cloudy,20000.0,,FEW,9900,BKN,20000.0,,,,
KRDR,02-04-2005,18:00,METAR,,360,15,21.0,,9999,Cloud Development Not Observable,-6.0,-8.0,30.15,1022.8,,,,0,0,0,,,,,,,,,7/8 Mostly Cloudy,20000.0,,FEW,5900,BKN,20000.0,,,,
KRDR,02-04-2005,17:00,METAR,,360,18,,,9999,Cloud Development Not Observable,-6.0,-7.0,30.13,1022.1,,,,0,0,0,,,,,,,,,8/8 Overcast,20000.0,,OVC,20000,,,,,,
KRDR,02-04-2005,16:00,METAR,,360,15,,,9999,Cloud Development Not Observable,-5.0,-6.0,30.10,1020.8,,,,0,0,0,,,,,,,,,8/8 Overcast,20000.0,,FEW,8900,OVC,20000.0,,,,
KRDR,02-04-2005,15:00,METAR,,360,16,,,9999,Cloud Development Not Observable,-4.0,-5.0,30.08,1020.1,,,,0,0,0,,,,,,,,,7/8 Mostly Cloudy,20000.0,,FEW,8900,BKN,20000.0,,,,
KRDR,02-04-2005,14:00,METAR,,360,17,,,9999,Cloud Development Not Observable,-3.0,-3.0,30.05,1019.3,,,,0,0,0,,,,,,,,,8/8 Overcast,20000.0,,OVC,20000,,,,,,
KRDR,02-04-2005,13:00,METAR,,360,12,,,9999,Cloud Development Not Observable,0.0,-1.0,30.02,1018.1,,,,0,0,0,,,,,,,,,7/8 Mostly Cloudy,20000.0,,BKN,20000,,,,,,
KRDR,02-04-2005,12:00,METAR,,320,11,,,9999,Cloud Development Not Observable,0.0,-1.0,29.98,1016.7,,,,0,0,0,,,,,,,,,8/8 Overcast,20000.0,,OVC,20000,,,,,,
KRDR,02-04-2005,11:00,METAR,,310,5,,,9999,Cloud Development Not Observable,0.0,-1.0,29.95,1015.7,,,,0,0,0,,,,,,,,,8/8 Overcast,20000.0,,OVC,20000,,,,,,
KRDR,02-04-2005,10:00,METAR,,290,6,,,9999,Cloud Development Not Observable,2.0,-1.0,29.91,1014.2,,,,0,0,0,,,,,,,,,8/8 Overcast,20000.0,,OVC,20000,,,,,,
KRDR,02-04-2005,09:00,METAR,,300,4,,,9999,Cloud Development Not Observable,2.0,-1.0,29.90,1014.0,,,,0,0,0,,,,,,,,,8/8 Overcast,20000.0,,OVC,20000,,,,,,
KRDR,02-04-2005,08:00,METAR,,230,6,,,9999,Cloud Development Not Observable,1.0,0.0,29.88,1013.3,,,,0,0,0,,,,,,,,,7/8 Mostly Cloudy,20000.0,,BKN,20000,,,,,,
KRDR,02-04-2005,07:00,METAR,,210,8,,,9999,Cloud Development Not Observable,2.0,0.0,29.87,1012.9,,,,0,0,0,,,,,,,,,4/8 Partly Cloudy,72000.0,,SCT,20000,,,,,,
KRDR,02-04-2005,06:00,METAR,,190,10,,,9999,Cloud Development Not Observable,2.0,0.0,29.90,1013.8,,,,0,0,0,,,,,,,,,4/8 Partly Cloudy,72000.0,,SCT,20000,,,,,,
KRDR,02-04-2005,05:00,METAR,,190,13,,,9999,Cloud Development Not Observable,2.0,1.0,29.90,1014.0,,,,0,0,0,,,,,,,,,7/8 Mostly Cloudy,20000.0,,BKN,20000,,,,,,
KRDR,02-04-2005,04:00,METAR,,190,10,,,9999,Cloud Development Not Observable,2.0,1.0,29.93,1015.1,,,,0,0,0,,,,,,,,,7/8 Mostly Cloudy,20000.0,,BKN,20000,,,,,,
KRDR,02-04-2005,03:00,METAR,,190,12,,,9999,Cloud Development Not Observable,1.0,0.0,29.96,1016.2,,,,0,0,0,,,,,,,,,7/8 Mostly Cloudy,20000.0,,FEW,14000,BKN,20000.0,,,,
KRDR,02-04-2005,02:00,METAR,,180,12,,,9999,Cloud Development Not Observable,0.0,-1.0,30.00,1017.7,,,,0,0,0,,,,,,,,,7/8 Mostly Cloudy,20000.0,,SCT,14000,BKN,20000.0,,,,
KRDR,02-04-2005,01:00,METAR,,170,11,,,9999,Cloud Development Not Observable,0.0,-1.0,30.02,1018.3,,,,0,0,0,,,,,,,,,7/8 Mostly Cloudy,20000.0,,SCT,14000,BKN,20000.0,,,,
KRDR,02-04-2005,00:00,METAR,,150,8,,,9999,Cloud Development Not Observable,0.0,-1.0,30.06,1019.7,,,,0,0,0,,,,,,,,,7/8 Mostly Cloudy,20000.0,,SCT,14000,BKN,20000.0,,,,
KRDR,02-03-2005,23:00,METAR,,150,7,,,9999,Cloud Development Not Observable,1.0,-2.0,30.09,1020.3,,,,0,0,0,,,,,,,,,7/8 Mostly Cloudy,20000.0,,SCT,14000,BKN,20000.0,,,,
KRDR,02-03-2005,22:00,METAR,,150,8,,,9999,Cloud Development Not Observable,1.0,-2.0,30.12,1021.4,,,,0,0,0,,,,,,,,,7/8 Mostly Cloudy,20000.0,,BKN,20000,,,,,,
KRDR,02-03-2005,21:00,METAR,,160,7,,,9999,Cloud Development Not Observable,1.0,-2.0,30.15,1022.4,,,,0,0,0,,,,,,,,,7/8 Mostly Cloudy,20000.0,,BKN,20000,,,,,,
KRDR,02-03-2005,20:00,METAR,,130,5,,,9999,Cloud Development Not Observable,1.0,-5.0,30.18,1023.4,,,,0,0,0,,,,,,,,,7/8 Mostly Cloudy,20000.0,,BKN,20000,,,,,,
KRDR,02-03-2005,19:00,METAR,,,3,,,9999,Cloud Development Not Observable,2.0,-4.0,30.21,1024.5,,,,0,0,0,,,,,,,,,7/8 Mostly Cloudy,20000.0,,BKN,20000,,,,,,
KRDR,02-03-2005,18:00,METAR,,10,6,,,9999,Cloud Development Not Observable,1.0,-4.0,30.25,1025.9,,,,0,0,0,,,,,,,,,7/8 Mostly Cloudy,20000.0,,BKN,20000,,,,,,
KRDR,02-03-2005,17:00,METAR,,350,6,,,9999,Cloud Development Not Observable,1.0,-3.0,30.25,1026.0,,,,0,0,0,,,,,,,,,7/8 Mostly Cloudy,20000.0,,BKN,20000,,,,,,
KRDR,02-03-2005,16:00,METAR,,300,6,,,9999,Cloud Development Not Observable,0.0,-3.0,30.23,1025.3,,,,0,0,0,,,,,,,,,7/8 Mostly Cloudy,20000.0,,BKN,20000,,,,,,
KRDR,02-03-2005,15:00,METAR,,330,6,,,9999,Cloud Development Not Observable,-2.0,-3.0,30.21,1024.5,,,,0,0,0,,,,,,,,,7/8 Mostly Cloudy,20000.0,,FEW,15000,BKN,20000.0,,,,
KRDR,02-03-2005,14:00,METAR,,300,7,,,9999,Cloud Development Not Observable,-2.0,-3.0,30.19,1023.9,,,,0,0,0,,,,,,,,,4/8 Partly Cloudy,72000.0,,SCT,20000,,,,,,
KRDR,02-03-2005,13:00,METAR,,290,9,,,9999,Cloud Development Not Observable,-1.0,-2.0,30.16,1022.8,,,,0,0,0,,,,,,,,,2/8 Mostly Clear,72000.0,,FEW,20000,,,,,,
KRDR,02-03-2005,12:00,METAR,,290,7,,,9999,Cloud Development Not Observable,0.0,-2.0,30.13,1021.7,,,,0,0,0,,,,,,,,,2/8 Mostly Clear,72000.0,,FEW,20000,,,,,,
KRDR,02-03-2005,11:00,METAR,,290,9,,,9999,Cloud Development Not Observable,1.0,-2.0,30.12,1021.3,,,,0,0,0,,,,,,,,,Clear,72000.0,,,73000,,,,,,
KRDR,02-03-2005,10:00,METAR,,300,9,,,9999,Cloud Development Not Observable,2.0,-1.0,30.07,1019.7,,,,0,0,0,,,,,,,,,2/8 Mostly Clear,72000.0,,FEW,20000,,,,,,
KRDR,02-03-2005,09:00,METAR,,300,11,,,9999,Cloud Development Not Observable,2.0,0.0,30.05,1019.0,,,,0,0,0,,,,,,,,,2/8 Mostly Clear,72000.0,,FEW,20000,,,,,,
KRDR,02-03-2005,08:00,METAR,,310,12,,,9999,Cloud Development Not Observable,3.0,0.0,30.03,1018.3,,,,0,0,0,,,,,,,,,2/8 Mostly Clear,72000.0,,FEW,20000,,,,,,
KRDR,02-03-2005,07:00,METAR,,300,11,,,9999,Cloud Development Not Observable,3.0,0.0,30.00,1017.3,,,,0,0,0,,,,,,,,,2/8 Mostly Clear,72000.0,,FEW,20000,,,,,,
KRDR,02-03-2005,06:00,METAR,,310,15,,,9999,Cloud Development Not Observable,4.0,0.0,29.98,1016.7,,,,0,0,0,,,,,,,,,2/8 Mostly Clear,72000.0,,FEW,15000,,,,,,
KRDR,02-03-2005,05:00,METAR,,290,14,,,9999,Cloud Development Not Observable,4.0,0.0,29.95,1015.5,,,,0,0,0,,,,,,,,,2/8 Mostly Clear,72000.0,,FEW,15000,,,,,,
KRDR,02-03-2005,04:00,METAR,,270,11,,,9999,Cloud Development Not Observable,4.0,0.0,29.93,1014.9,,,,0,0,0,,,,,,,,,2/8 Mostly Clear,72000.0,,FEW,15000,,,,,,
KRDR,02-03-2005,03:00,METAR,,250,11,,,9999,Cloud Development Not Observable,4.0,1.0,29.92,1014.6,,,,0,0,0,,,,,,,,,4/8 Partly Cloudy,72000.0,,FEW,15000,SCT,25000.0,,,,
KRDR,02-03-2005,02:00,METAR,,230,9,,,9999,Cloud Development Not Observable,3.0,1.0,29.95,1015.7,,,,0,0,0,,,,,,,,,4/8 Partly Cloudy,72000.0,,FEW,15000,SCT,25000.0,,,,
KRDR,02-03-2005,01:00,METAR,,220,8,,,9999,Cloud Development Not Observable,3.0,1.0,29.95,1015.7,,,,0,0,0,,,,,,,,,4/8 Partly Cloudy,72000.0,,FEW,15000,SCT,25000.0,,,,
KRDR,02-03-2005,00:00,METAR,,230,12,,,9999,Cloud Development Not Observable,4.0,1.0,29.94,1015.3,,,,0,0,0,,,,,,,,,7/8 Mostly Cloudy,25000.0,,SCT,15000,BKN,25000.0,,,,
KRDR,02-02-2005,23:00,METAR,,220,12,,,9999,Cloud Development Not Observable,3.0,1.0,29.93,1015.0,,,,0,0,0,,,,,,,,,8/8 Overcast,15000.0,,BKN,15000,OVC,25000.0,,,,
KRDR,02-02-2005,22:00,METAR,,200,13,,,9999,Cloud Development Not Observable,4.0,0.0,29.93,1015.1,,,,0,0,0,,,,,,,,,8/8 Overcast,15000.0,,BKN,15000,OVC,25000.0,,,,
KRDR,02-02-2005,21:00,METAR,,200,11,,,9999,Cloud Development Not Observable,4.0,0.0,29.92,1014.6,,,,0,0,0,,,,,,,,,8/8 Overcast,15000.0,,BKN,15000,OVC,25000.0,,,,
KRDR,02-02-2005,20:00,METAR,,200,12,,,9999,Cloud Development Not Observable,3.0,0.0,29.97,1016.6,,,,0,0,0,,,,,,,,,7/8 Mostly Cloudy,25000.0,,SCT,15000,BKN,25000.0,,,,
KRDR,02-02-2005,19:00,METAR,,200,9,,,9999,Cloud Development Not Observable,2.0,-1.0,30.00,1017.8,,,,0,0,0,,,,,,,,,7/8 Mostly Cloudy,25000.0,,FEW,15000,BKN,25000.0,,,,
KRDR,02-02-2005,18:00,METAR,,190,7,,,9999,Cloud Development Not Observable,2.0,-1.0,30.02,1018.4,,,,0,0,0,,,,,,,,,7/8 Mostly Cloudy,25000.0,,FEW,15000,BKN,25000.0,,,,
KRDR,02-02-2005,17:00,METAR,,190,6,,,9999,Cloud Development Not Observable,0.0,-3.0,30.05,1019.3,,,,0,0,0,,,,,,,,,7/8 Mostly Cloudy,25000.0,,FEW,15000,BKN,25000.0,,,,
KRDR,02-02-2005,16:00,METAR,,180,9,,,9999,Cloud Development Not Observable,-2.0,-4.0,30.05,1019.3,,,,0,0,0,,,,,,,,,7/8 Mostly Cloudy,25000.0,,SCT,15000,BKN,25000.0,,,,
KRDR,02-02-2005,15:00,METAR,,180,6,,,9999,Cloud Development Not Observable,-5.0,-5.0,30.07,1020.1,,,,0,0,0,,,,,,,,,7/8 Mostly Cloudy,25000.0,,FEW,15000,BKN,25000.0,,,,
KRDR,02-02-2005,14:00,METAR,,200,4,,,9999,Cloud Development Not Observable,-5.0,-5.0,30.07,1020.1,,,,0,0,0,,,,,,,,,2/8 Mostly Clear,72000.0,,FEW,25000,,,,,,
KRDR,02-02-2005,13:00,METAR,,190,5,,,9999,Cloud Development Not Observable,-6.0,-6.0,30.09,1020.6,,,,0,0,0,,,,,,,,,Clear,72000.0,,,73000,,,,,,
KRDR,02-02-2005,12:00,METAR,,220,7,,,9999,Cloud Development Not Observable,-5.0,-5.0,30.09,1020.6,,,,0,0,0,,,,,,,,,Clear,72000.0,,,73000,,,,,,
KRDR,02-02-2005,11:00,METAR,,240,9,,,9999,Cloud Development Not Observable,-3.0,-4.0,30.10,1020.7,,,,0,0,0,,,,,,,,,Clear,72000.0,,,73000,,,,,,
KRDR,02-02-2005,10:00,METAR,,220,8,,,9999,Cloud Development Not Observable,-5.0,-5.0,30.11,1021.2,,,,0,0,0,,,,,,,,,Clear,72000.0,,,73000,,,,,,
KRDR,02-02-2005,09:00,METAR,,230,3,,,9999,Cloud Development Not Observable,-5.0,-5.0,30.13,1021.9,,,,0,0,0,,,,,,,,,Clear,72000.0,,,73000,,,,,,
KRDR,02-02-2005,08:00,METAR,,210,5,,,9999,Cloud Development Not Observable,-5.0,-5.0,30.14,1022.2,,,,0,0,0,,,,,,,,,Clear,72000.0,,,73000,,,,,,
KRDR,02-02-2005,07:00,METAR,,200,6,,,9999,Cloud Development Not Observable,-6.0,-6.0,30.14,1022.3,,,,0,0,0,,,,,,,,,Clear,72000.0,,,73000,,,,,,
KRDR,02-02-2005,06:00,METAR,,230,9,,,9999,Cloud Development Not Observable,-5.0,-5.0,30.15,1022.7,,,,0,0,0,,,,,,,,,Clear,72000.0,,,73000,,,,,,
KRDR,02-02-2005,05:00,METAR,,210,7,,,9999,Cloud Development Not Observable,-3.0,-3.0,30.15,1022.7,,,,0,0,0,,,,,,,,,Clear,72000.0,,,73000,,,,,,
KRDR,02-02-2005,04:00,METAR,,220,7,,,9999,Cloud Development Not Observable,-3.0,-3.0,30.16,1023.0,,,,0,0,0,,,,,,,,,Clear,72000.0,,,73000,,,,,,
KRDR,02-02-2005,03:00,METAR,,230,6,,,9999,Cloud Development Not Observable,-2.0,-2.0,30.17,1023.5,,,,0,0,0,,,,,,,,,Clear,72000.0,,,73000,,,,,,
KRDR,02-02-2005,02:00,METAR,,210,7,,,9999,Cloud Development Not Observable,-1.0,-1.0,30.16,1022.9,,,,0,0,0,,,,,,,,,2/8 Mostly Clear,72000.0,,FEW,7900,FEW,20000.0,,,,
KRDR,02-02-2005,01:00,METAR,,220,6,,,9999,Cloud Development Not Observable,0.0,0.0,30.17,1023.4,,,,0,0,0,,,,,,,,,4/8 Partly Cloudy,72000.0,,FEW,7900,SCT,20000.0,,,,
KRDR,02-02-2005,00:00,METAR,,200,7,,,9999,Cloud Development Not Observable,1.0,0.0,30.16,1022.8,,,,0,0,0,,,,,,,,,4/8 Partly Cloudy,72000.0,,FEW,1400,SCT,20000.0,,,,
KRDR,02-01-2005,23:00,METAR,,200,7,,,9999,Cloud Development Not Observable,2.0,1.0,30.15,1022.6,,,,0,0,0,,,,,,,,,7/8 Mostly Cloudy,20000.0,,FEW,1400,BKN,20000.0,,,,
KRDR,02-01-2005,22:00,METAR,,200,11,,,9999,Cloud Development Not Observable,2.0,1.0,30.14,1022.3,,,,0,0,0,,,,,,,,,7/8 Mostly Cloudy,20000.0,,FEW,1400,BKN,20000.0,,,,
KRDR,02-01-2005,21:21,SPECI,,210,12,,,9999,Cloud Development Not Observable,2.0,0.0,30.14,,,,,0,0,0,,,,,,,,,7/8 Mostly Cloudy,20000.0,,SCT,1400,BKN,20000.0,,,,
KRDR,02-01-2005,21:00,METAR,,220,14,,,9999,Cloud Development Not Observable,2.0,0.0,30.13,1021.7,,,,0,0,0,,,,,,,,,7/8 Mostly Cloudy,1400.0,,BKN,1400,BKN,20000.0,,,,
KRDR,02-01-2005,20:00,METAR,,210,13,,,9999,Cloud Development Not Observable,2.0,0.0,30.11,1021.2,,,,0,0,0,,,,,,,,,7/8 Mostly Cloudy,1300.0,,BKN,1300,,,,,,
KRDR,02-01-2005,19:00,METAR,,200,13,18.0,,9999,Cloud Development Not Observable,1.0,-1.0,30.13,1022.0,,,,0,0,0,,,,,,,,,7/8 Mostly Cloudy,1000.0,,BKN,1000,,,,,,
KRDR,02-01-2005,18:00,METAR,,200,15,21.0,,9999,Cloud Development Not Observable,0.0,-1.0,30.14,1022.3,,,,0,0,0,,,,,,,,,7/8 Mostly Cloudy,1000.0,,SCT,700,BKN,1000.0,,,,
KRDR,02-01-2005,17:35,SPECI,,210,17,,,9999,Cloud Development Not Observable,-1.0,-1.0,30.15,,,,,0,0,0,,,,,,,,,7/8 Mostly Cloudy,1000.0,,SCT,700,BKN,1000.0,,,,
KRDR,02-01-2005,17:00,METAR,,200,18,27.0,190/27KTS,9999,Cloud Development Not Observable,-1.0,-2.0,30.13,1022.1,,,,0,0,0,,,,,,,,,8/8 Overcast,700.0,,BKN,700,OVC,1100.0,,,,
KRDR,02-01-2005,16:00,METAR,,200,25,29.0,,9999,Cloud Development Not Observable,-1.0,-1.0,30.12,1021.7,,,,0,0,0,,,,,,,,,8/8 Overcast,600.0,,BKN,600,OVC,1000.0,,,,
KRDR,02-01-2005,15:00,METAR,,200,20,25.0,190/27KTS,9999,Cloud Development Not Observable,-1.0,-1.0,30.13,1022.1,,,,0,0,0,,,,,,,,,8/8 Overcast,500.0,,BKN,500,OVC,1000.0,,,,
KRDR,02-01-2005,14:00,METAR,,200,21,25.0,,9999,Cloud Development Not Observable,-1.0,-1.0,30.14,1022.4,,,,0,0,0,,,,,,,,,8/8 Overcast,500.0,,BKN,500,OVC,1000.0,,,,
KRDR,02-01-2005,13:27,SPECI,,200,19,24.0,,9999,Cloud Development Not Observable,0.0,-1.0,30.14,,,,,0,0,0,,,,,,,,,8/8 Overcast,700.0,,OVC,700,,,,,,
KRDR,02-01-2005,13:00,METAR,,190,19,,,9999,Cloud Development Not Observable,0.0,0.0,30.14,1022.4,,,,0,0,0,,,,,,,,,8/8 Overcast,1000.0,,OVC,1000,,,,,,
KRDR,02-01-2005,12:00,METAR,,200,14,,,9999,Cloud Development Not Observable,1.0,0.0,30.14,1022.6,,,,0,0,0,,,,,,,,,8/8 Overcast,1000.0,,OVC,1000,,,,,,
KRDR,02-01-2005,11:00,METAR,,210,18,,,9999,Cloud Development Not Observable,1.0,0.0,30.16,1023.0,,,,0,0,0,,,,,,,,,8/8 Overcast,1000.0,,OVC,1000,,,,,,
KRDR,02-01-2005,10:00,METAR,,210,14,,,9999,Cloud Development Not Observable,1.0,1.0,30.16,1023.0,,,,0,0,0,,,,,,,,,8/8 Overcast,1100.0,,OVC,1100,,,,,,
KRDR,02-01-2005,09:00,METAR,,220,12,,,9999,Cloud Development Not Observable,1.0,1.0,30.17,1023.4,,,,0,0,0,,,,,,TRACE,,,8/8 Overcast,900.0,,OVC,900,,,,,,
KRDR,02-01-2005,08:00,METAR,,200,15,,,9999,Cloud Development Not Observable,0.0,0.0,30.17,1023.5,,,,0,0,0,,,,,,,,,8/8 Overcast,700.0,,OVC,700,,,,,,
KRDR,02-01-2005,07:00,METAR,,190,16,,,9999,Cloud Development Not Observable,0.0,0.0,30.18,1023.6,,,,0,0,0,,,,,,,,,8/8 Overcast,700.0,,OVC,700,,,,,,
KRDR,02-01-2005,06:00,METAR,,190,15,,,9999,Cloud Development Not Observable,-1.0,-1.0,30.20,1024.5,,,,0,0,0,,,,,,,IN,,8/8 Overcast,700.0,,OVC,700,,,,,,
KRDR,02-01-2005,05:44,SPECI,,190,11,,,9999,Cloud Development Not Observable,-1.0,-1.0,30.21,,,,,0,0,0,,,,,,,,,8/8 Overcast,600.0,,OVC,600,,,,,,
KRDR,02-01-2005,05:00,METAR,,190,13,,,8000,Freezing Drizzle/Mist/Cloud Development Not Observable,-1.0,-1.0,30.22,1025.0,,,,56,10,0,,,,,,,,,8/8 Overcast,400.0,,SCT,200,OVC,400.0,,,,
KRDR,02-01-2005,04:40,SPECI,,190,15,,,8000,Freezing Drizzle/Mist/Cloud Development Not Observable,-2.0,-2.0,30.23,,,,,56,10,0,,,,,,,,,8/8 Overcast,200.0,,BKN,200,OVC,400.0,,,,
KRDR,02-01-2005,04:08,SPECI,,190,11,,,8000,Mist/Cloud Development Not Observable,-2.0,-2.0,30.23,,,,,10,0,0,,,,,,,,,8/8 Overcast,200.0,,BKN,200,OVC,400.0,,,,
KRDR,02-01-2005,04:00,METAR,,190,11,,,8000,Mist/Cloud Development Not Observable,-2.0,-2.0,30.24,1025.8,,,,10,0,0,,,,,,,,,8/8 Overcast,300.0,,BKN,300,OVC,500.0,,,,
KRDR,02-01-2005,03:00,METAR,,190,9,,,9999,Cloud Development Not Observable,-2.0,-2.0,30.25,1026.2,,,,0,0,0,,,,,,,,,8/8 Overcast,300.0,,BKN,300,OVC,500.0,,,,
KRDR,02-01-2005,02:45,METAR,,200,9,,,9999,Cloud Development Not Observable,-2.0,-2.0,30.26,,,,,0,0,0,,,,,,,,,8/8 Overcast,300.0,,OVC,300,,,,,,
KRDR,02-01-2005,02:00,METAR,,210,9,,,9999,Cloud Development Not Observable,-2.0,-2.0,30.26,1026.4,,,,0,0,0,,,,,,,,,8/8 Overcast,500.0,,SCT,300,OVC,500.0,,,,
KRDR,02-01-2005,01:18,SPECI,,190,8,,,9999,Cloud Development Not Observable,-2.0,-2.0,30.27,,,,,0,0,0,,,,,,,,,8/8 Overcast,600.0,,SCT,300,OVC,600.0,,,,
KRDR,02-01-2005,01:00,METAR,,210,8,,,9999,Cloud Development Not Observable,-2.0,-2.0,30.28,1027.0,,,,0,0,0,,,,,,,,,8/8 Overcast,300.0,,BKN,300,OVC,600.0,,,,
KRDR,01-31-2005,23:00,METAR,,200,5,,,9999,Mist/Cloud Development Not Observable,-1.0,-1.0,30.27,1026.8,,,,10,0,0,,,,,,,,,8/8 Overcast,400.0,,SCT,300,OVC,400.0,,,,
KRDR,01-31-2005,22:00,METAR,,,2,,,8000,Mist/Cloud Development Not Observable,-2.0,-2.0,30.28,1027.1,,,,10,0,0,,,,,,,,,8/8 Overcast,500.0,,SCT,300,OVC,500.0,,,,
KRDR,01-31-2005,21:00,METAR,,180,2,,,9999,Mist/Cloud Development Not Observable,-2.0,-2.0,30.28,1027.1,,,,10,0,0,,,,,,,,,8/8 Overcast,500.0,,OVC,500,,,,,,
KRDR,01-31-2005,20:00,METAR,,,1,,,9999,Mist/Cloud Development Not Observable,-2.0,-2.0,30.28,1026.9,,,,10,0,0,,,,,,,,,8/8 Overcast,500.0,,OVC,500,,,,,,
KRDR,01-31-2005,19:00,METAR,,,0,,,9999,Mist/Cloud Development Not Observable,-2.0,-2.0,30.30,1027.6,,,,10,0,0,,,,,,,,,8/8 Overcast,600.0,,OVC,600,,,,,,
KRDR,01-31-2005,18:00,METAR,,320,4,,,9999,Mist/Cloud Development Not Observable,-2.0,-2.0,30.31,1028.0,,,,10,0,0,,,,,,,IN,,8/8 Overcast,500.0,,OVC,500,,,,,,
KRDR,01-31-2005,17:00,METAR,,10,4,,,9999,Mist/Cloud Development Not Observable,-2.0,-2.0,30.31,1028.0,,,,10,0,0,,,,,,,,,8/8 Overcast,500.0,,OVC,500,,,,,,
KRDR,01-31-2005,16:00,METAR,,10,5,,,9999,Mist/Cloud Development Not Observable,-2.0,-2.0,30.30,1027.6,,,,10,0,0,,,,,,,,,8/8 Overcast,500.0,,OVC,500,,,,,,
KRDR,01-31-2005,15:00,METAR,,30,5,,,9999,Mist/Cloud Development Not Observable,-2.0,-2.0,30.29,1027.2,,,,10,0,0,,,,,,TRACE,,,8/8 Overcast,500.0,,OVC,500,,,,,,
KRDR,01-31-2005,14:00,METAR,,10,5,,,9999,Mist/Cloud Development Not Observable,-1.0,-1.0,30.28,1026.9,,,,10,0,0,,,,,,,,,8/8 Overcast,600.0,,OVC,600,,,,,,
KRDR,01-31-2005,13:00,METAR,,360,5,,,4800,Mist/Cloud Development Not Observable,-1.0,-1.0,30.26,1026.4,,,,10,0,0,,,,,,,,,8/8 Overcast,700.0,,OVC,700,,,,,,
KRDR,01-31-2005,12:38,SPECI,,360,5,,,6400,Mist/Cloud Development Not Observable,-1.0,-1.0,30.25,,,,,10,0,0,,,,,,,,,8/8 Overcast,700.0,,OVC,700,,,,,,
KRDR,01-31-2005,12:15,SPECI,,360,5,,,4800,Freezing Drizzle/Mist/Cloud Development Not Observable,-1.0,-1.0,30.24,,,,,56,10,0,,,,,,,,,8/8 Overcast,700.0,,OVC,700,,,,,,
KRDR,01-31-2005,12:00,METAR,,320,6,,,4800,Mist/Cloud Development Not Observable,-1.0,-1.0,30.24,1025.7,,,,10,0,0,,,,,,,,,8/8 Overcast,600.0,,OVC,600,,,,,,
KRDR,01-31-2005,11:00,METAR,,330,4,,,6400,Mist/Cloud Development Not Observable,-1.0,-1.0,30.23,1025.3,,,,10,0,0,,,,,,,,,8/8 Overcast,600.0,,OVC,600,,,,,,
KRDR,01-31-2005,10:22,SPECI,,320,8,,,6400,Mist/Cloud Development Not Observable,-1.0,-1.0,30.20,,,,,10,0,0,,,,,,,,,8/8 Overcast,600.0,,OVC,600,,,,,,
KRDR,01-31-2005,10:00,METAR,,310,7,,,9999,Cloud Development Not Observable,0.0,0.0,30.19,1024.1,,,,0,0,0,,,,,,,,,8/8 Overcast,800.0,,OVC,800,,,,,,
KRDR,01-31-2005,09:15,SPECI,,310,6,,,9999,Cloud Development Not Observable,0.0,0.0,30.18,,,,,0,0,0,,,,,,,,,8/8 Overcast,900.0,,OVC,900,,,,,,
KRDR,01-31-2005,09:00,METAR,,310,7,,,9999,Cloud Development Not Observable,0.0,0.0,30.17,1023.4,,,,0,0,0,,,,,,,,,8/8 Overcast,1000.0,,OVC,1000,,,,,,
KRDR,01-31-2005,08:00,METAR,,260,2,,,9999,Cloud Development Not Observable,1.0,1.0,30.15,1022.5,,,,0,0,0,,,,,,,,,8/8 Overcast,1000.0,,OVC,1000,,,,,,
KRDR,01-31-2005,07:00,METAR,,220,4,,,9999,Cloud Development Not Observable,1.0,1.0,30.14,1022.3,,,,0,0,0,,,,,,,,,8/8 Overcast,1300.0,,OVC,1300,,,,,,
KRDR,01-31-2005,06:00,METAR,,210,3,,,9999,Cloud Development Not Observable,0.0,0.0,30.14,1022.3,,,,0,0,0,,,,,,,,,8/8 Overcast,1500.0,,OVC,1500,,,,,,
KRDR,01-31-2005,05:00,METAR,,200,2,,,9999,Cloud Development Not Observable,0.0,0.0,30.13,1021.9,,,,0,0,0,,,,,,,,,8/8 Overcast,1500.0,,OVC,1500,,,,,,
KRDR,01-31-2005,04:00,METAR,,190,7,,,8000,Mist/Cloud Development Not Observable,1.0,1.0,30.12,1021.5,,,,10,0,0,,,,,,,,,8/8 Overcast,1500.0,,OVC,1500,,,,,,
KRDR,01-31-2005,03:00,METAR,,190,5,,,8000,Mist/Cloud Development Not Observable,1.0,1.0,30.12,1021.5,,,,10,0,0,,,,,,,,,8/8 Overcast,1500.0,,OVC,1500,,,,,,
KRDR,01-31-2005,02:00,METAR,,190,5,,,8000,Mist/Cloud Development Not Observable,0.0,0.0,30.12,1021.6,,,,10,0,0,,,,,,,,,8/8 Overcast,1500.0,,OVC,1500,,,,,,
KRDR,01-31-2005,01:00,METAR,,190,2,,,9999,Cloud Development Not Observable,1.0,0.0,30.12,1021.6,,,,0,0,0,,,,,,,,,8/8 Overcast,1600.0,,OVC,1600,,,,,,
KRDR,01-31-2005,00:00,METAR,,200,7,,,9999,Cloud Development Not Observable,1.0,0.0,30.09,1020.6,,,,0,0,0,,,,,,,,,8/8 Overcast,1600.0,,OVC,1600,,,,,,
KRDR,01-30-2005,23:00,METAR,,200,7,,,9999,Cloud Development Not Observable,1.0,0.0,30.08,1020.3,,,,0,0,0,,,,,,,,,8/8 Overcast,1600.0,,OVC,1600,,,,,,
KRDR,01-30-2005,22:00,METAR,,210,9,,,9999,Cloud Development Not Observable,1.0,0.0,30.08,1020.3,,,,0,0,0,,,,,,,,,8/8 Overcast,1600.0,,OVC,1600,,,,,,
KRDR,01-30-2005,21:00,METAR,,210,10,,,9999,Cloud Development Not Observable,1.0,-1.0,30.08,1020.3,,,,0,0,0,,,,,,,,,8/8 Overcast,1600.0,,OVC,1600,,,,,,
KRDR,01-30-2005,20:00,METAR,,200,10,,,9999,Cloud Development Not Observable,0.0,-1.0,30.10,1021.1,,,,0,0,0,,,,,,,,,8/8 Overcast,1500.0,,OVC,1500,,,,,,
KRDR,01-30-2005,19:00,METAR,,200,12,,,9999,Cloud Development Not Observable,0.0,-2.0,30.11,1021.4,,,,0,0,0,,,,,,,,,8/8 Overcast,1900.0,,OVC,1900,,,,,,
KRDR,01-30-2005,18:00,METAR,,180,11,,,9999,Cloud Development Not Observable,-1.0,-2.0,30.12,1021.8,,,,0,0,0,,,,,,,,,8/8 Overcast,1900.0,,OVC,1900,,,,,,
KRDR,01-30-2005,17:00,METAR,,180,12,,,9999,Cloud Development Not Observable,-2.0,-3.0,30.14,1022.6,,,,0,0,0,,,,,,,,,8/8 Overcast,2000.0,,OVC,2000,,,,,,
KRDR,01-30-2005,16:00,METAR,,180,11,,,9999,Cloud Development Not Observable,-3.0,-4.0,30.13,1022.4,,,,0,0,0,,,,,,,,,8/8 Overcast,2100.0,,OVC,2100,,,,,,
KRDR,01-30-2005,15:00,METAR,,190,12,,,9999,Cloud Development Not Observable,-4.0,-4.0,30.14,1022.9,,,,0,0,0,,,,,,,,,8/8 Overcast,2100.0,,OVC,2100,,,,,,
KRDR,01-30-2005,14:00,METAR,,190,8,,,9999,Cloud Development Not Observable,-5.0,-5.0,30.16,1023.6,,,,0,0,0,,,,,,,,,8/8 Overcast,2100.0,,OVC,2100,,,,,,
KRDR,01-30-2005,13:00,METAR,,180,8,,,9999,Cloud Development Not Observable,-5.0,-5.0,30.16,1023.8,,,,0,0,0,,,,,,,,,8/8 Overcast,2100.0,,OVC,2100,,,,,,
KRDR,01-30-2005,12:00,METAR,,180,8,,,9999,Cloud Development Not Observable,-6.0,-6.0,30.18,1024.3,,,,0,0,0,,,,,,,IN,,8/8 Overcast,2100.0,,OVC,2100,,,,,,
KRDR,01-30-2005,11:00,METAR,,180,9,,,9999,Cloud Development Not Observable,-7.0,-7.0,30.19,1024.8,,,,0,0,0,,,,,,,,,8/8 Overcast,2200.0,,OVC,2200,,,,,,
KRDR,01-30-2005,10:45,METAR,,180,9,,,9999,Cloud Development Not Observable,-7.0,-7.0,30.20,,,,,0,0,0,,,,,,,,,8/8 Overcast,2000.0,,OVC,2000,,,,,,
KRDR,01-30-2005,10:04,SPECI,,170,7,,,9999,Light Snow/Cloud Development Not Observable,-7.0,-7.0,30.21,,,,,71,0,0,,,,,,,,,8/8 Overcast,2000.0,,OVC,2000,,,,,,
KRDR,01-30-2005,10:00,METAR,,170,7,,,9999,Cloud Development Not Observable,-7.0,-7.0,30.21,1025.2,,,,0,0,0,,,,,,,,,8/8 Overcast,1800.0,,OVC,1800,,,,,,
KRDR,01-30-2005,09:00,METAR,,180,5,,,9999,Cloud Development Not Observable,-7.0,-7.0,30.24,1026.5,,,,0,0,0,,,,,,,,,8/8 Overcast,1800.0,,OVC,1800,,,,,,
KRDR,01-30-2005,08:00,METAR,,180,4,,,9999,Cloud Development Not Observable,-8.0,-8.0,30.26,1027.1,,,,0,0,0,,,,,,,,,8/8 Overcast,1600.0,,OVC,1600,,,,,,
KRDR,01-30-2005,07:00,METAR,,190,5,,,9999,Cloud Development Not Observable,-9.0,-9.0,30.28,1027.6,,,,0,0,0,,,,,,,,,8/8 Overcast,1700.0,,OVC,1700,,,,,,
KRDR,01-30-2005,06:00,METAR,,180,5,,,9999,Cloud Development Not Observable,-10.0,-10.0,30.30,1028.4,,,,0,0,0,,,,,,,,,8/8 Overcast,1800.0,,OVC,1800,,,,,,
KRDR,01-30-2005,05:00,METAR,,160,2,,,9999,Cloud Development Not Observable,-11.0,-11.0,30.32,1029.2,,,,0,0,0,,,,,,,,,8/8 Overcast,1700.0,,OVC,1700,,,,,,
KRDR,01-30-2005,04:00,METAR,,180,1,,,9999,Cloud Development Not Observable,-12.0,-12.0,30.33,1029.5,,,,0,0,0,,,,,,,,,8/8 Overcast,1700.0,,OVC,1700,,,,,,
KRDR,01-30-2005,03:30,METAR,,170,1,,,9999,Cloud Development Not Observable,-13.0,-13.0,30.34,,,,,0,0,0,,,,,,,,,8/8 Overcast,1700.0,,OVC,1700,,,,,,
KRDR,01-30-2005,03:00,METAR,,210,5,,,9999,Cloud Development Not Observable,-15.0,-15.0,30.35,1030.4,,,,0,0,0,,,,,,,,,4/8 Partly Cloudy,72000.0,,SCT,1700,,,,,,
KRDR,01-30-2005,02:00,METAR,,260,2,,,9999,Cloud Development Not Observable,-16.0,-16.0,30.35,1030.4,,,,0,0,0,,,,,,,,,Clear,72000.0,,,73000,,,,,,
KRDR,01-30-2005,01:00,METAR,,300,1,,,9999,Cloud Development Not Observable,-15.0,-15.0,30.36,1030.7,,,,0,0,0,,,,,,,,,2/8 Mostly Clear,72000.0,,FEW,1000,,,,,,
KRDR,01-30-2005,00:00,METAR,,360,2,,,9999,Cloud Development Not Observable,-13.0,-13.0,30.37,1030.8,,,,0,0,0,,,,,,,,,2/8 Mostly Clear,72000.0,,FEW,1000,,,,,,
KRDR,01-29-2005,23:00,METAR,,360,5,,,9999,Cloud Development Not Observable,-12.0,-12.0,30.36,1030.4,,,,0,0,0,,,,,,,,,2/8 Mostly Clear,72000.0,,FEW,800,FEW,20000.0,,,,
KRDR,01-29-2005,22:00,METAR,,10,6,,,9999,Cloud Development Not Observable,-10.0,-11.0,30.36,1030.3,,,,0,0,0,,,,,,,,,2/8 Mostly Clear,72000.0,,FEW,800,FEW,20000.0,,,,
KRDR,01-29-2005,21:00,METAR,,350,9,,,9999,Cloud Development Not Observable,-10.0,-10.0,30.34,1029.6,,,,0,0,0,,,,,,,,,4/8 Partly Cloudy,72000.0,,SCT,800,SCT,20000.0,,,,
KRDR,01-29-2005,20:00,METAR,,10,11,,,9999,Cloud Development Not Observable,-10.0,-10.0,30.36,1030.2,,,,0,0,0,,,,,,,,,2/8 Mostly Clear,72000.0,,FEW,9900,FEW,20000.0,,,,
KRDR,01-29-2005,19:21,SPECI,,360,11,,,9999,Cloud Development Not Observable,-10.0,-10.0,30.36,,,,,0,0,0,,,,,,,,,4/8 Partly Cloudy,72000.0,,FEW,1000,SCT,9900.0,SCT,20000.0,,
KRDR,01-29-2005,19:00,METAR,,350,13,,,9999,Cloud Development Not Observable,-10.0,-11.0,30.37,1030.5,,,,0,0,0,,,,,,,,,4/8 Partly Cloudy,72000.0,,FEW,500,FEW,1000.0,SCT,9900.0,SCT,20000.0
KRDR,01-29-2005,18:00,METAR,,360,12,,,9999,Cloud Development Not Observable,-10.0,-11.0,30.38,1030.9,,,,0,0,0,,,,,,,IN,,2/8 Mostly Clear,72000.0,,FEW,500,FEW,1000.0,,,,
KRDR,01-29-2005,17:44,SPECI,,350,12,,,9999,Cloud Development Not Observable,-11.0,-11.0,30.38,,,,,0,0,0,,,,,,,,,2/8 Mostly Clear,72000.0,,FEW,500,FEW,1000.0,,,,
KRDR,01-29-2005,17:00,METAR,,360,11,,,9999,Cloud Development Not Observable,-11.0,-11.0,30.38,1030.9,,,,0,0,0,,,,,,,,,Clear,72000.0,,,73000,,,,,,
KRDR,01-29-2005,16:26,SPECI,,360,11,,,9999,Cloud Development Not Observable,-11.0,-11.0,30.37,,,,,0,0,0,,,,,,,,,Clear,72000.0,,,73000,,,,,,
KRDR,01-29-2005,16:00,METAR,,350,12,,,9999,Cloud Development Not Observable,-11.0,-12.0,30.36,1030.2,,,,0,0,0,,,,,,,,,2/8 Mostly Clear,72000.0,,FEW,2700,,,,,,
KRDR,01-29-2005,15:00,METAR,,340,10,,,9999,Cloud Development Not Observable,-12.0,-12.0,30.36,1030.2,,,,0,0,0,,,,,,TRACE,,,2/8 Mostly Clear,72000.0,,FEW,2700,,,,,,
KRDR,01-29-2005,14:37,SPECI,,350,12,,,9999,Cloud Development Not Observable,-12.0,-12.0,30.35,,,,,0,0,0,,,,,,,,,4/8 Partly Cloudy,72000.0,,FEW,1100,SCT,2700.0,,,,
KRDR,01-29-2005,14:00,METAR,,350,14,,,9999,Cloud Development Not Observable,-11.0,-11.0,30.34,1029.5,,,,0,0,0,,,,,,,,,8/8 Overcast,2500.0,,SCT,1100,OVC,2500.0,,,,
KRDR,01-29-2005,13:00,METAR,,350,15,,,9999,Cloud Development Not Observable,-10.0,-10.0,30.32,1028.7,,,,0,0,0,,,,,,,,,8/8 Overcast,2500.0,,BKN,2500,OVC,3000.0,,,,
KRDR,01-29-2005,12:12,SPECI,,360,15,,,9999,Cloud Development Not Observable,-9.0,-9.0,30.30,,,,,0,0,0,,,,,,,,,8/8 Overcast,2200.0,,BKN,2200,OVC,3100.0,,,,
KRDR,01-29-2005,11:52,METAR,,360,16,,,9999,Light Snow/Cloud Development Not Observable,-8.0,-8.0,30.29,1027.7,,,,71,0,0,,,,,,,IN,,8/8 Overcast,2300.0,,BKN,2300,OVC,3300.0,,,,
KRDR,01-29-2005,11:36,SPECI,,350,17,,,9999,Ice Pellets/Light Snow/Cloud Development Not Observable,-8.0,-8.0,30.29,,,,,71,79,0,,,,,,,,,8/8 Overcast,2200.0,,OVC,2200,,,,,,
KRDR,01-29-2005,11:00,METAR,,350,12,,,9999,Cloud Development Not Observable,-7.0,-8.0,30.28,1027.2,,,,0,0,0,,,,,,,,,8/8 Overcast,2500.0,,OVC,2500,,,,,,
KRDR,01-29-2005,10:00,METAR,,350,15,,,9999,Cloud Development Not Observable,-7.0,-7.0,30.25,1026.5,,,,0,0,0,,,,,,,,,8/8 Overcast,2300.0,,OVC,2300,,,,,,
KRDR,01-29-2005,09:33,SPECI,,360,15,,,9999,Cloud Development Not Observable,-6.0,-7.0,30.24,,,,,0,0,0,,,,,,,,,8/8 Overcast,2200.0,,OVC,2200,,,,,,
KRDR,01-29-2005,09:00,METAR,,360,13,,,9999,Cloud Development Not Observable,-6.0,-6.0,30.23,1025.5,,,,0,0,0,,,,,,TRACE,,,8/8 Overcast,900.0,,BKN,900,BKN,1200.0,OVC,2100.0,,
KRDR,01-29-2005,08:00,METAR,,350,15,,,9999,Mist/Cloud Development Not Observable,-5.0,-5.0,30.20,1024.5,,,,10,0,0,,,,,,,,,8/8 Overcast,700.0,,OVC,700,,,,,,
KRDR,01-29-2005,07:17,SPECI,,360,13,,,8000,Mist/Cloud Development Not Observable,-4.0,-4.0,30.18,,,,,10,0,0,,,,,,,,,8/8 Overcast,400.0,,OVC,400,,,,,,
KRDR,01-29-2005,07:00,METAR,,360,17,,,2400,Freezing Drizzle/Mist/Cloud Development Not Observable,-3.0,-3.0,30.17,1023.5,,,,56,10,0,,,,,,,,,8/8 Overcast,500.0,,OVC,500,,,,,,
KRDR,01-29-2005,06:00,METAR,,350,18,,,1600,Freezing Drizzle/Mist/Cloud Development Not Observable,-3.0,-3.0,30.15,1022.8,,,,56,10,0,,,,,,,IN,,8/8 Overcast,500.0,,OVC,500,,,,,,
KRDR,01-29-2005,05:21,SPECI,,360,16,,,1600,Freezing Drizzle/Mist/Cloud Development Not Observable,-2.0,-2.0,30.13,,,,,56,10,0,,,,,,,,,8/8 Overcast,300.0,,OVC,300,,,,,,
KRDR,01-29-2005,05:00,METAR,,360,18,,,1600,Freezing Drizzle/Mist/Cloud Development Not Observable,-1.0,-1.0,30.12,1021.5,,,,56,10,0,,,,,,,,,8/8 Overcast,500.0,,OVC,500,,,,,,
KRDR,01-29-2005,04:44,SPECI,,360,16,21.0,,2400,Freezing Drizzle/Mist/Cloud Development Not Observable,0.0,0.0,30.11,,,,,56,10,0,,,,,,,,,8/8 Overcast,500.0,,OVC,500,,,,,,
KRDR,01-29-2005,04:26,SPECI,,310,3,,,1200,Freezing Drizzle/Mist/Cloud Development Not Observable,-1.0,-1.0,30.10,,,,,56,10,0,,,,,,,,,8/8 Overcast,500.0,,OVC,500,,,,,,
KRDR,01-29-2005,04:00,METAR,,260,2,,,1600,Freezing Drizzle/Mist/Cloud Development Not Observable,-1.0,-1.0,30.09,1020.5,,,,56,10,0,,,,,,,,,8/8 Overcast,500.0,,BKN,500,OVC,1200.0,,,,
KRDR,01-29-2005,03:00,METAR,,200,2,,,2400,Freezing Drizzle/Mist/Cloud Development Not Observable,-1.0,-1.0,30.07,1019.4,,,,56,10,0,,,,,,TRACE,,,8/8 Overcast,500.0,,BKN,500,OVC,1200.0,,,,
KRDR,01-29-2005,02:45,METAR,,220,2,,,2400,Freezing Drizzle/Mist/Cloud Development Not Observable,-1.0,-1.0,30.07,,,,,56,10,0,,,,,,,,,8/8 Overcast,500.0,,BKN,500,OVC,1200.0,,,,
KRDR,01-29-2005,02:11,SPECI,,180,2,,,3200,Freezing Drizzle/Mist/Cloud Development Not Observable,-1.0,-1.0,30.06,,,,,56,10,0,,,,,,,,,8/8 Overcast,1200.0,,SCT,500,OVC,1200.0,,,,
KRDR,01-29-2005,02:00,METAR,,190,3,,,3200,Freezing Drizzle/Mist/Cloud Development Not Observable,-1.0,-1.0,30.05,1019.4,,,,56,10,0,,,,,,,,,8/8 Overcast,1500.0,,SCT,500,OVC,1500.0,,,,
KRDR,01-29-2005,01:00,METAR,,180,6,,,3200,Freezing Drizzle/Mist/Cloud Development Not Observable,-1.0,-1.0,30.03,1018.7,,,,56,10,0,,,,,,,,,4/8 Partly Cloudy,72000.0,,SCT,500,,,,,,
KRDR,01-29-2005,00:35,SPECI,,180,7,,,3200,Freezing Drizzle/Mist/Cloud Development Not Observable,-1.0,-1.0,30.03,,,,,56,10,0,,,,,,,,,8/8 Overcast,1900.0,,SCT,500,OVC,1900.0,,,,
KRDR,01-29-2005,00:00,METAR,,180,9,,,4800,Mist/Cloud Development Not Observable,-1.0,-1.0,30.01,1018.1,,,,10,0,0,,,,,,,IN,,7/8 Mostly Cloudy,500.0,,BKN,500,,,,,,
KRDR,01-28-2005,23:00,METAR,,180,10,,,4800,Mist/Cloud Development Not Observable,-1.0,-1.0,29.99,1017.3,,,,10,0,0,,,,,,,,,8/8 Overcast,500.0,,OVC,500,,,,,,
KRDR,01-28-2005,22:14,SPECI,,180,12,,,4800,Mist/Cloud Development Not Observable,-1.0,-1.0,29.98,,,,,10,0,0,,,,,,,,,8/8 Overcast,500.0,,OVC,500,,,,,,
KRDR,01-28-2005,22:00,METAR,,180,13,,,4800,Freezing Drizzle/Mist/Cloud Development Not Observable,-1.0,-1.0,29.98,1017.0,,,,56,10,0,,,,,,,,,8/8 Overcast,500.0,,OVC,500,,,,,,
KRDR,01-28-2005,21:00,METAR,,180,12,,,3200,Freezing Drizzle/Mist/Cloud Development Not Observable,-1.0,-1.0,29.96,1016.1,,,,56,10,0,,,,,,TRACE,,,8/8 Overcast,500.0,,OVC,500,,,,,,
KRDR,01-28-2005,20:25,METAR,,180,11,,,3200,Freezing Drizzle/Mist/Cloud Development Not Observable,-1.0,-1.0,29.96,,,,,56,10,0,,,,,,,,,8/8 Overcast,500.0,,OVC,500,,,,,,
KRDR,01-28-2005,20:00,METAR,,180,13,,,3200,Mist/Cloud Development Not Observable,-1.0,-1.0,29.95,1015.9,,,,10,0,0,,,,,,,,,8/8 Overcast,600.0,,OVC,600,,,,,,
KRDR,01-28-2005,19:37,SPECI,,180,13,,,3200,Mist/Cloud Development Not Observable,-1.0,-1.0,29.96,,,,,10,0,0,,,,,,,,,8/8 Overcast,600.0,,OVC,600,,,,,,
KRDR,01-28-2005,19:18,SPECI,,180,14,,,3200,Light Freezing Rain/Mist/Cloud Development Not Observable,-1.0,-1.0,29.97,,,,,66,10,0,,,,,,,,,8/8 Overcast,600.0,,BKN,600,OVC,1000.0,,,,
KRDR,01-28-2005,19:00,METAR,,180,13,,,3200,Mist/Cloud Development Not Observable,-1.0,-1.0,29.98,1017.0,,,,10,0,0,,,,,,,,,8/8 Overcast,600.0,,OVC,600,,,,,,
KRDR,01-28-2005,18:44,SPECI,,180,14,,,2400,Mist/Cloud Development Not Observable,-1.0,-1.0,29.98,,,,,10,0,0,,,,,,,,,8/8 Overcast,600.0,,OVC,600,,,,,,
KRDR,01-28-2005,18:00,METAR,,180,15,,,3200,Light Freezing Rain/Mist/Cloud Development Not Observable,-1.0,-1.0,29.99,1017.4,,,,66,10,0,,,,,,,IN,,8/8 Overcast,600.0,,OVC,600,,,,,,
KRDR,01-28-2005,17:39,SPECI,,180,16,,,3200,Light Freezing Rain/Mist/Cloud Development Not Observable,-1.0,-1.0,30.00,,,,,66,10,0,,,,,,,,,8/8 Overcast,600.0,,OVC,600,,,,,,
KRDR,01-28-2005,17:00,METAR,,180,15,,,2400,Light Freezing Rain/Mist/Cloud Development Not Observable,-1.0,-1.0,30.01,1017.9,,,,66,10,0,,,,,,,,,8/8 Overcast,600.0,,OVC,600,,,,,,
KRDR,01-28-2005,16:29,SPECI,,180,16,,,3200,Light Freezing Rain/Mist/Cloud Development Not Observable,-1.0,-1.0,30.01,,,,,66,10,0,,,,,,,,,8/8 Overcast,800.0,,OVC,800,,,,,,
KRDR,01-28-2005,16:00,METAR,,170,16,,,3200,Mist/Cloud Development Not Observable,-1.0,-1.0,30.01,1017.9,,,,10,0,0,,,,,,,,,8/8 Overcast,800.0,,OVC,800,,,,,,
KRDR,01-28-2005,15:11,SPECI,,180,15,,,4800,Mist/Cloud Development Not Observable,-1.0,-1.0,30.01,,,,,10,0,0,,,,,,,,,8/8 Overcast,800.0,,OVC,800,,,,,,
KRDR,01-28-2005,15:02,SPECI,,170,15,,,4800,Mist/Cloud Development Not Observable,-1.0,-1.0,30.01,,,,,10,0,0,,,,,,,,,8/8 Overcast,800.0,,BKN,800,OVC,1000.0,,,,
KRDR,01-28-2005,15:00,METAR,,170,14,,,3200,Snow/Light Freezing Rain/Mist,-1.0,-1.0,30.01,1017.9,,,,66,73,10,,,,,,TRACE,,,8/8 Overcast,600.0,,BKN,600,OVC,1000.0,,,,
KRDR,01-28-2005,14:13,SPECI,,170,16,,,3200,Snow/Light Freezing Rain/Cloud Development Not Observable,-2.0,-2.0,30.02,,,,,66,73,0,,,,,,,,,8/8 Overcast,600.0,,BKN,600,OVC,1000.0,,,,
KRDR,01-28-2005,14:00,METAR,,170,16,,,4800,Snow/Light Freezing Rain/Cloud Development Not Observable,-2.0,-2.0,30.02,1018.4,,,,66,73,0,,,,,,,,,8/8 Overcast,1000.0,,SCT,600,OVC,1000.0,,,,
KRDR,01-28-2005,13:46,SPECI,,170,16,,,4800,Snow/Light Freezing Rain/Cloud Development Not Observable,-2.0,-2.0,30.02,,,,,66,73,0,,,,,,,,,8/8 Overcast,1000.0,,SCT,600,OVC,1000.0,,,,
KRDR,01-28-2005,13:34,SPECI,,170,13,,,9999,Cloud Development Not Observable,-2.0,-2.0,30.02,,,,,0,0,0,,,,,,,,,8/8 Overcast,1000.0,,SCT,600,BKN,1000.0,OVC,1700.0,,
KRDR,01-28-2005,13:23,SPECI,,170,14,,,9999,Cloud Development Not Observable,-2.0,-2.0,30.02,,,,,0,0,0,,,,,,,,,8/8 Overcast,1700.0,,SCT,800,OVC,1700.0,,,,
KRDR,01-28-2005,13:00,METAR,,170,17,,,9999,Cloud Development Not Observable,-2.0,-2.0,30.03,1018.7,,,,0,0,0,,,,,,,,,8/8 Overcast,1700.0,,SCT,1000,OVC,1700.0,,,,
KRDR,01-28-2005,12:08,SPECI,,160,14,,,9999,Cloud Development Not Observable,-3.0,-3.0,30.04,,,,,0,0,0,,,,,,,,,8/8 Overcast,2000.0,,OVC,2000,,,,,,
KRDR,01-28-2005,12:00,METAR,,170,14,,,9999,Cloud Development Not Observable,-3.0,-3.0,30.04,1019.1,,,,0,0,0,,,,,,,,,8/8 Overcast,1200.0,,OVC,1200,,,,,,
KRDR,01-28-2005,11:00,METAR,,170,14,,,9999,Cloud Development Not Observable,-2.0,-2.0,30.05,1019.5,,,,0,0,0,,,,,,,,,8/8 Overcast,1500.0,,OVC,1500,,,,,,
KRDR,01-28-2005,10:00,METAR,,170,13,,,9999,Cloud Development Not Observable,-2.0,-3.0,30.07,1020.2,,,,0,0,0,,,,,,,,,8/8 Overcast,1400.0,,OVC,1400,,,,,,
KRDR,01-28-2005,09:00,METAR,,180,18,,,9999,Cloud Development Not Observable,-2.0,-3.0,30.09,1020.7,,,,0,0,0,,,,,,,,,8/8 Overcast,1700.0,,OVC,1700,,,,,,
KRDR,01-28-2005,08:19,SPECI,,180,18,,,9999,Cloud Development Not Observable,-2.0,-3.0,30.09,,,,,0,0,0,,,,,,,,,8/8 Overcast,1700.0,,OVC,1700,,,,,,
KRDR,01-28-2005,08:00,METAR,,170,16,,,9999,Cloud Development Not Observable,-2.0,-3.0,30.08,1020.6,,,,0,0,0,,,,,,,,,8/8 Overcast,10000.0,,OVC,9900,,,,,,
KRDR,01-28-2005,07:00,METAR,,170,15,,,9999,Cloud Development Not Observable,-2.0,-3.0,30.09,1021.0,,,,0,0,0,,,,,,,,,8/8 Overcast,9000.0,,OVC,8900,,,,,,
KRDR,01-28-2005,06:00,METAR,,170,13,,,9999,Cloud Development Not Observable,-4.0,-5.0,30.11,1021.7,,,,0,0,0,,,,,,,,,4/8 Partly Cloudy,72000.0,,FEW,6900,SCT,20000.0,,,,
KRDR,01-28-2005,05:00,METAR,,170,15,,,9999,Cloud Development Not Observable,-4.0,-5.0,30.12,1022.2,,,,0,0,0,,,,,,,,,7/8 Mostly Cloudy,7000.0,,BKN,6900,BKN,20000.0,,,,
KRDR,01-28-2005,04:00,METAR,,170,17,22.0,,9999,Cloud Development Not Observable,-4.0,-5.0,30.13,1022.6,,,,0,0,0,,,,,,,,,4/8 Partly Cloudy,72000.0,,SCT,20000,,,,,,
KRDR,01-28-2005,03:00,METAR,,180,19,,,9999,Cloud Development Not Observable,-4.0,-5.0,30.15,1023.4,,,,0,0,0,,,,,,,,,4/8 Partly Cloudy,72000.0,,SCT,20000,,,,,,
KRDR,01-28-2005,02:00,METAR,,170,18,,,9999,Cloud Development Not Observable,-4.0,-5.0,30.16,1023.8,,,,0,0,0,,,,,,,,,4/8 Partly Cloudy,72000.0,,SCT,20000,,,,,,
KRDR,01-28-2005,01:00,METAR,,160,13,18.0,,9999,Cloud Development Not Observable,-5.0,-6.0,30.18,1024.5,,,,0,0,0,,,,,,,,,4/8 Partly Cloudy,72000.0,,SCT,20000,,,,,,
KRDR,01-28-2005,00:00,METAR,,170,13,,,9999,Cloud Development Not Observable,-6.0,-6.0,30.19,1025.0,,,,0,0,0,,,,,,,,,4/8 Partly Cloudy,72000.0,,SCT,20000,,,,,,
KRDR,01-27-2005,23:00,METAR,,170,13,,,9999,Cloud Development Not Observable,-6.0,-7.0,30.20,1025.3,,,,0,0,0,,,,,,,,,2/8 Mostly Clear,72000.0,,FEW,15000,FEW,20000.0,,,,
KRDR,01-27-2005,22:00,METAR,,170,15,,,9999,Cloud Development Not Observable,-6.0,-7.0,30.21,1025.7,,,,0,0,0,,,,,,,,,2/8 Mostly Clear,72000.0,,FEW,20000,,,,,,
KRDR,01-27-2005,21:00,METAR,,180,17,,,9999,Cloud Development Not Observable,,,30.23,1026.2,,,,0,0,0,,,,,,,,,2/8 Mostly Clear,72000.0,,FEW,20000,,,,,,
KRDR,01-27-2005,20:00,METAR,,180,16,,,9999,Cloud Development Not Observable,-9.0,-10.0,30.24,1027.1,,,,0,0,0,,,,,,,,,2/8 Mostly Clear,72000.0,,FEW,15000,,,,,,
KRDR,01-27-2005,19:00,METAR,,180,13,,,9999,Cloud Development Not Observable,-10.0,-11.0,30.26,1027.8,,,,0,0,0,,,,,,,,,2/8 Mostly Clear,72000.0,,FEW,9900,FEW,20000.0,,,,
KRDR,01-27-2005,18:00,METAR,,180,12,,,9999,Cloud Development Not Observable,-12.0,-13.0,30.29,1028.8,,,,0,0,0,,,,,,,,,2/8 Mostly Clear,72000.0,,FEW,15000,FEW,20000.0,,,,
KRDR,01-27-2005,17:00,METAR,,180,11,,,9999,Cloud Development Not Observable,-15.0,-15.0,30.32,1030.1,,,,0,0,0,,,,,,,,,4/8 Partly Cloudy,72000.0,,FEW,15000,SCT,20000.0,,,,
KRDR,01-27-2005,16:00,METAR,,180,10,,,9999,Cloud Development Not Observable,-16.0,-16.0,30.34,1030.6,,,,0,0,0,,,,,,,,,4/8 Partly Cloudy,72000.0,,SCT,20000,,,,,,
KRDR,01-27-2005,15:00,METAR,,180,9,,,9999,Cloud Development Not Observable,-19.0,-19.0,30.34,1030.9,,,,0,0,0,,,,,,,,,4/8 Partly Cloudy,72000.0,,SCT,20000,,,,,,
KRDR,01-27-2005,14:00,METAR,,160,5,,,9999,Cloud Development Not Observable,-20.0,-20.0,30.35,1031.0,,,,0,0,0,,,,,,,,,7/8 Mostly Cloudy,20000.0,,FEW,1000,BKN,20000.0,,,,
KRDR,01-27-2005,13:00,METAR,,140,5,,,9999,Diamond Dust/Cloud Development Not Observable,-20.0,-20.0,30.36,1031.3,,,,76,0,0,,,,,,,,,4/8 Partly Cloudy,72000.0,,FEW,800,SCT,20000.0,,,,
KRDR,01-27-2005,12:00,METAR,,160,4,,,9999,Diamond Dust/Cloud Development Not Observable,-21.0,-21.0,30.36,1031.3,,,,76,0,0,,,,,,,,,4/8 Partly Cloudy,72000.0,,FEW,800,SCT,20000.0,,,,
KRDR,01-27-2005,11:15,SPECI,,190,6,,,9999,Diamond Dust/Cloud Development Not Observable,-21.0,-21.0,30.37,,,,,76,0,0,,,,,,,,,7/8 Mostly Cloudy,20000.0,,SCT,800,BKN,20000.0,,,,
KRDR,01-27-2005,11:08,SPECI,,190,4,,,9999,Cloud Development Not Observable,-21.0,-21.0,30.37,,,,,0,0,0,,,,,,,,,7/8 Mostly Cloudy,20000.0,,SCT,800,BKN,20000.0,,,,
KRDR,01-27-2005,11:00,METAR,,160,4,,,9999,Cloud Development Not Observable,-20.0,-20.0,30.37,1031.6,,,,0,0,0,,,,,,,,,7/8 Mostly Cloudy,800.0,,BKN,800,,,,,,
KRDR,01-27-2005,10:00,METAR,,160,5,,,9999,Cloud Development Not Observable,-20.0,-20.0,30.39,1032.3,,,,0,0,0,,,,,,,,,8/8 Overcast,800.0,,OVC,800,,,,,,
KRDR,01-27-2005,09:22,SPECI,,180,5,,,9999,Cloud Development Not Observable,-22.0,-22.0,30.40,,,,,0,0,0,,,,,,,,,7/8 Mostly Cloudy,700.0,,BKN,700,,,,,,
KRDR,01-27-2005,09:00,METAR,,200,5,,,9999,Cloud Development Not Observable,-23.0,-23.0,30.41,1033.0,,,,0,0,0,,,,,,,,,Clear,72000.0,,,73000,,,,,,
KRDR,01-27-2005,08:00,METAR,,170,3,,,9999,Cloud Development Not Observable,-26.0,-26.0,30.40,1032.8,,,,0,0,0,,,,,,,,,Clear,72000.0,,,73000,,,,,,
KRDR,01-27-2005,07:00,METAR,,170,3,,,9999,Cloud Development Not Observable,-24.0,-24.0,30.41,1033.2,,,,0,0,0,,,,,,,,,Clear,72000.0,,,73000,,,,,,
KRDR,01-27-2005,06:00,METAR,,,0,,,9999,Cloud Development Not Observable,-23.0,-23.0,30.42,1033.4,,,,0,0,0,,,,,,,,,Clear,72000.0,,,73000,,,,,,
KRDR,01-27-2005,05:00,METAR,,210,1,,,9999,Cloud Development Not Observable,-24.0,-24.0,30.42,1033.5,,,,0,0,0,,,,,,,,,Clear,72000.0,,,73000,,,,,,
KRDR,01-27-2005,04:00,METAR,,230,2,,,9999,Cloud Development Not Observable,-23.0,-23.0,30.44,1034.3,,,,0,0,0,,,,,,,,,Clear,72000.0,,,73000,,,,,,
KRDR,01-27-2005,03:00,METAR,,,1,,,9999,Cloud Development Not Observable,-22.0,-22.0,30.44,1034.3,,,,0,0,0,,,,,,,,,Clear,72000.0,,,73000,,,,,,
KRDR,01-27-2005,02:00,METAR,,,1,,,9999,Cloud Development Not Observable,-20.0,-20.0,30.44,1034.1,,,,0,0,0,,,,,,,,,Clear,72000.0,,,73000,,,,,,
KRDR,01-27-2005,01:00,METAR,,70,1,,,9999,Cloud Development Not Observable,-18.0,-18.0,30.43,1033.7,,,,0,0,0,,,,,,,,,Clear,72000.0,,,73000,,,,,,
KRDR,01-27-2005,00:00,METAR,,40,3,,,9999,Cloud Development Not Observable,-18.0,-18.0,30.44,1034.0,,,,0,0,0,,,,,,,,,2/8 Mostly Clear,72000.0,,FEW,20000,,,,,,
KRDR,01-26-2005,23:00,METAR,,360,5,,,9999,Cloud Development Not Observable,-17.0,-18.0,30.44,1034.0,,,,0,0,0,,,,,,,,,2/8 Mostly Clear,72000.0,,FEW,20000,,,,,,
KRDR,01-26-2005,22:00,METAR,,360,6,,,9999,Cloud Development Not Observable,-16.0,-17.0,30.43,1033.6,,,,0,0,0,,,,,,,,,2/8 Mostly Clear,72000.0,,FEW,20000,,,,,,
KRDR,01-26-2005,21:00,METAR,,350,7,,,9999,Cloud Development Not Observable,-16.0,-17.0,30.43,1033.4,,,,0,0,0,,,,,,,,,2/8 Mostly Clear,72000.0,,FEW,2000,FEW,20000.0,,,,
KRDR,01-26-2005,20:00,METAR,,350,6,,,9999,Cloud Development Not Observable,-15.0,-16.0,30.43,1033.3,,,,0,0,0,,,,,,,,,2/8 Mostly Clear,72000.0,,FEW,2000,,,,,,
KRDR,01-26-2005,19:00,METAR,,340,7,,,9999,Cloud Development Not Observable,-15.0,-16.0,30.44,1033.6,,,,0,0,0,,,,,,,,,4/8 Partly Cloudy,72000.0,,SCT,1500,,,,,,
KRDR,01-26-2005,18:45,METAR,,340,7,,,9999,Cloud Development Not Observable,-15.0,-16.0,30.44,,,,,0,0,0,,,,,,,,,4/8 Partly Cloudy,72000.0,,SCT,2000,,,,,,
KRDR,01-26-2005,18:00,METAR,,360,9,,,9999,Cloud Development Not Observable,-15.0,-15.0,30.44,1033.6,,,,0,0,0,,,,,,,.02 IN,,7/8 Mostly Cloudy,1600.0,,BKN,1600,,,,,,
KRDR,01-26-2005,17:00,METAR,,10,10,,,9999,Light Snow/Cloud Development Not Observable,-16.0,-16.0,30.44,1033.6,,,,71,0,0,,,,,,,,,7/8 Mostly Cloudy,1600.0,,BKN,1600,,,,,,
KRDR,01-26-2005,16:09,SPECI,,360,11,,,8000,Mist/Cloud Development Not Observable,-16.0,-16.0,30.42,,,,,10,0,0,,,,,,,,,7/8 Mostly Cloudy,2000.0,,BKN,2000,,,,,,
KRDR,01-26-2005,16:00,METAR,,360,12,,,6400,Light Snow/Mist/Cloud Development Not Observable,-16.0,-16.0,30.42,1032.9,,,,71,10,0,,,,,,,,,7/8 Mostly Cloudy,1600.0,,BKN,1600,,,,,,
KRDR,01-26-2005,15:30,METAR,,360,14,,,2400,Light Snow/Mist/Cloud Development Not Observable,-16.0,-16.0,30.41,,,,,71,10,0,,,,,,,,,8/8 Overcast,2000.0,,OVC,2000,,,,,,
KRDR,01-26-2005,15:04,SPECI,,360,12,,,6400,Light Snow/Mist/Cloud Development Not Observable,-16.0,-16.0,30.40,,,,,71,10,0,,,,,,,,,8/8 Overcast,1900.0,,OVC,1900,,,,,,
KRDR,01-26-2005,15:00,METAR,,350,12,,,6400,Light Snow/Mist/Cloud Development Not Observable,-16.0,-16.0,30.39,1031.8,,,,71,10,0,,,,,,,,,8/8 Overcast,1600.0,,OVC,1600,,,,,,
KRDR,01-26-2005,14:00,METAR,,350,12,,,8000,Light Snow/Mist/Cloud Development Not Observable,-15.0,-15.0,30.36,1030.7,,,,71,10,0,,,,,,,,,8/8 Overcast,1600.0,,OVC,1600,,,,,,
KRDR,01-26-2005,13:00,METAR,,350,13,,,9999,Light Snow/Cloud Development Not Observable,-15.0,-15.0,30.33,1029.5,,,,71,0,0,,,,,,,,,8/8 Overcast,2100.0,,OVC,2100,,,,,,
KRDR,01-26-2005,12:00,METAR,,340,12,,,9999,Light Snow/Cloud Development Not Observable,-15.0,-15.0,30.31,1028.7,,,,71,0,0,,,,,,,IN,,7/8 Mostly Cloudy,1900.0,,BKN,1900,,,,,,
KRDR,01-26-2005,11:00,METAR,,340,11,,,9999,Light Snow/Cloud Development Not Observable,-15.0,-15.0,30.28,1027.9,,,,71,0,0,,,,,,,,,8/8 Overcast,2200.0,,OVC,2200,,,,,,
KRDR,01-26-2005,10:00,METAR,,350,15,,,9999,Light Snow/Cloud Development Not Observable,-15.0,-15.0,30.24,1026.4,,,,71,0,0,,,,,,,,,8/8 Overcast,2800.0,,OVC,2800,,,,,,
KRDR,01-26-2005,09:00,METAR,,360,16,,,9999,Light Snow/Cloud Development Not Observable,-14.0,-14.0,30.21,1025.2,,,,71,0,0,,,,,,TRACE,,,8/8 Overcast,2800.0,,OVC,2800,,,,,,
KRDR,01-26-2005,08:00,METAR,,340,16,,,9999,Light Snow/Cloud Development Not Observable,-13.0,-13.0,30.18,1024.0,,,,71,0,0,,,,,,,,,8/8 Overcast,2800.0,,SCT,1000,OVC,2800.0,,,,
KRDR,01-26-2005,07:00,METAR,,340,18,,,9999,Light Snow/Cloud Development Not Observable,-13.0,-13.0,30.15,1023.1,,,,71,0,0,,,,,,,,,8/8 Overcast,2400.0,,OVC,2400,,,,,,
KRDR,01-26-2005,06:48,SPECI,,350,17,,,9999,Light Snow/Cloud Development Not Observable,-13.0,-13.0,30.15,,,,,71,0,0,,,,,,,,,8/8 Overcast,2600.0,,OVC,2600,,,,,,
KRDR,01-26-2005,06:00,METAR,,350,17,,,9999,Light Snow/Cloud Development Not Observable,-13.0,-13.0,30.12,1022.0,,,,71,0,0,,,,,,,IN,,8/8 Overcast,3900.0,,SCT,2000,OVC,4000.0,,,,
KRDR,01-26-2005,05:47,SPECI,,350,18,,,9999,Light Snow/Cloud Development Not Observable,-13.0,-13.0,30.12,,,,,71,0,0,,,,,,,,,8/8 Overcast,3900.0,,SCT,2000,OVC,4000.0,,,,
KRDR,01-26-2005,05:00,METAR,,340,16,20.0,,9999,Cloud Development Not Observable,-12.0,-13.0,30.12,1021.8,,,,0,0,0,,,,,,,,,8/8 Overcast,4900.0,,FEW,1000,OVC,5000.0,,,,
KRDR,01-26-2005,04:00,METAR,,340,17,24.0,340/28KTS,9999,Cloud Development Not Observable,-12.0,-12.0,30.09,1020.9,,,,0,0,0,,,,,,,,,8/8 Overcast,3900.0,,FEW,1200,OVC,4000.0,,,,
KRDR,01-26-2005,03:41,SPECI,,340,20,,,9999,Cloud Development Not Observable,-12.0,-12.0,30.07,,,,,0,0,0,,,,,,,,,8/8 Overcast,3900.0,,SCT,2000,OVC,4000.0,,,,
KRDR,01-26-2005,03:25,METAR,,350,20,25.0,,9999,Cloud Development Not Observable,-11.0,-12.0,30.07,,,,,0,0,0,,,,,,,,,8/8 Overcast,2000.0,,FEW,1000,BKN,2000.0,OVC,4000.0,,
KRDR,01-26-2005,03:00,METAR,,350,18,24.0,340/26KTS,9999,Light Snow/Cloud Development Not Observable,-11.0,-12.0,30.05,1019.8,,,,71,0,0,,,,,,TRACE,,,8/8 Overcast,2000.0,,FEW,1000,BKN,2000.0,OVC,4000.0,,
KRDR,01-26-2005,02:00,METAR,,350,17,24.0,340/25KTS,9999,Cloud Development Not Observable,-9.0,-10.0,30.02,1018.7,,,,0,0,0,,,,,,,,,8/8 Overcast,2000.0,,SCT,1000,OVC,2000.0,,,,
KRDR,01-26-2005,01:19,SPECI,,350,22,,,9999,Light Snow/Cloud Development Not Observable,-8.0,-9.0,29.99,,,,,71,0,0,,,,,,,,,8/8 Overcast,2000.0,,SCT,1000,OVC,2000.0,,,,
KRDR,01-26-2005,01:00,METAR,,350,21,27.0,340/30KTS,9999,Cloud Development Not Observable,-8.0,-9.0,29.98,1017.4,,,,0,0,0,,,,,,,,,8/8 Overcast,2000.0,,FEW,1000,OVC,2000.0,,,,
KRDR,01-26-2005,00:00,METAR,,360,21,28.0,350/28KTS,9999,Cloud Development Not Observable,-6.0,-7.0,29.92,1015.3,,,,0,0,0,,,,,,,IN,,8/8 Overcast,1500.0,,BKN,1500,OVC,3000.0,,,,
KRDR,01-25-2005,23:00,METAR,,350,19,24.0,,9999,Cloud Development Not Observable,-5.0,-6.0,29.89,1014.1,,,,0,0,0,,,,,,,,,8/8 Overcast,1200.0,,BKN,1200,OVC,1500.0,,,,
KRDR,01-25-2005,22:11,SPECI,,360,18,,,9999,Cloud Development Not Observable,-4.0,-4.0,29.84,,,,,0,0,0,,,,,,,,,8/8 Overcast,1000.0,,BKN,1000,OVC,1500.0,,,,
KRDR,01-25-2005,22:00,METAR,,360,20,,,8000,Mist/Cloud Development Not Observable,-3.0,-4.0,29.83,1012.0,,,,10,0,0,,,,,,,,,8/8 Overcast,1000.0,,BKN,1000,OVC,1500.0,,,,
KRDR,01-25-2005,21:45,METAR,,360,20,,,3200,Light Snow/Mist/Cloud Development Not Observable,-3.0,-3.0,29.82,,,,,71,10,0,,,,,,,,,8/8 Overcast,1000.0,,BKN,1000,OVC,1500.0,,,,
KRDR,01-25-2005,21:00,METAR,,360,18,23.0,,9999,Cloud Development Not Observable,-1.0,-1.0,29.78,1010.0,,,,0,0,0,,,,,,,,,8/8 Overcast,1200.0,,SCT,700,OVC,1200.0,,,,
KRDR,01-25-2005,20:00,METAR,,360,14,,,9999,Cloud Development Not Observable,2.0,0.0,29.74,1008.7,,,,0,0,0,,,,,,,,,8/8 Overcast,1500.0,,OVC,1500,,,,,,
KRDR,01-25-2005,19:00,METAR,,330,15,,,9999,Cloud Development Not Observable,2.0,0.0,29.70,1007.3,,,,0,0,0,,,,,,,,,8/8 Overcast,1900.0,,OVC,1900,,,,,,
KRDR,01-25-2005,18:34,SPECI,,320,14,,,9999,Cloud Development Not Observable,2.0,0.0,29.69,,,,,0,0,0,,,,,,,,,7/8 Mostly Cloudy,1900.0,,BKN,1900,,,,,,
KRDR,01-25-2005,18:00,METAR,,320,14,,,9999,Cloud Development Not Observable,3.0,0.0,29.68,1006.6,,,,0,0,0,,,,,,,,,2/8 Mostly Clear,72000.0,,FEW,7900,FEW,20000.0,,,,
KRDR,01-25-2005,17:48,SPECI,,320,14,,,9999,Cloud Development Not Observable,2.0,0.0,29.68,,,,,0,0,0,,,,,,,,,2/8 Mostly Clear,72000.0,,FEW,20000,,,,,,
KRDR,01-25-2005,17:00,METAR,,320,12,,,9999,Cloud Development Not Observable,1.0,-2.0,29.66,1006.0,,,,0,0,0,,,,,,,,,2/8 Mostly Clear,72000.0,,FEW,5000,FEW,20000.0,,,,
KRDR,01-25-2005,16:29,SPECI,,320,11,,,9999,Cloud Development Not Observable,0.0,-2.0,29.66,,,,,0,0,0,,,,,,,,,2/8 Mostly Clear,72000.0,,FEW,3000,FEW,20000.0,,,,
KRDR,01-25-2005,16:00,METAR,,320,12,,,9999,Cloud Development Not Observable,-1.0,-2.0,29.64,1005.4,,,,0,0,0,,,,,,,,,2/8 Mostly Clear,72000.0,,FEW,20000,,,,,,
KRDR,01-25-2005,15:00,METAR,,320,13,,,9999,Cloud Development Not Observable,-1.0,-2.0,29.62,1004.7,,,,0,0,0,,,,,,,,,2/8 Mostly Clear,72000.0,,FEW,20000,,,,,,
KRDR,01-25-2005,14:00,METAR,,310,11,,,9999,Cloud Development Not Observable,-1.0,-1.0,29.59,1003.6,,,,0,0,0,,,,,,,,,2/8 Mostly Clear,72000.0,,FEW,7900,FEW,20000.0,,,,
KRDR,01-25-2005,13:00,METAR,,300,6,,,9999,Cloud Development Not Observable,-5.0,-5.0,29.56,1002.7,,,,0,0,0,,,,,,,,,4/8 Partly Cloudy,72000.0,,FEW,7900,SCT,20000.0,,,,
KRDR,01-25-2005,12:00,METAR,,220,5,,,9999,Cloud Development Not Observable,-6.0,-6.0,29.56,1002.8,,,,0,0,0,,,,,,,IN,.01 IN,4/8 Partly Cloudy,72000.0,,FEW,7900,SCT,20000.0,,,,
KRDR,01-25-2005,11:11,SPECI,,220,7,,,9999,Cloud Development Not Observable,-5.0,-5.0,29.55,,,,,0,0,0,,,,,,,,,7/8 Mostly Cloudy,20000.0,,FEW,7900,BKN,20000.0,,,,
KRDR,01-25-2005,11:00,METAR,,210,7,,,9999,Cloud Development Not Observable,-5.0,-5.0,29.55,1002.4,,,,0,0,0,,,,,,,,,7/8 Mostly Cloudy,8000.0,,FEW,400,SCT,7900.0,BKN,20000.0,,
KRDR,01-25-2005,10:10,SPECI,,180,6,,,6400,Mist/Cloud Development Not Observable,-5.0,-5.0,29.57,,,,,10,0,0,,,,,,,,,7/8 Mostly Cloudy,8000.0,,SCT,300,BKN,7900.0,,,,
KRDR,01-25-2005,10:00,METAR,,190,8,,,3200,Light Snow/Mist/Cloud Development Not Observable,-5.0,-5.0,29.57,1003.1,,,,71,10,0,,,,,,,,,8/8 Overcast,300.0,,OVC,300,,,,,,
KRDR,01-25-2005,09:27,SPECI,,180,8,,,3200,Light Snow/Mist/Cloud Development Not Observable,-4.0,-4.0,29.58,,,,,71,10,0,,,,,,,,,8/8 Overcast,300.0,,OVC,300,,,,,,
KRDR,01-25-2005,09:00,METAR,,190,10,,,4800,Light Snow/Mist/Cloud Development Not Observable,-4.0,-4.0,29.60,1004.3,,,,71,10,0,,,,,,TRACE,,,8/8 Overcast,300.0,,OVC,300,,,,,,
KRDR,01-25-2005,08:07,SPECI,,190,11,,,6400,Light Snow/Mist/Cloud Development Not Observable,-4.0,-4.0,29.63,,,,,71,10,0,,,,,,,,,8/8 Overcast,400.0,,OVC,400,,,,,,
KRDR,01-25-2005,08:00,METAR,,190,12,,,6400,Mist/Cloud Development Not Observable,-4.0,-4.0,29.63,1005.4,,,,10,0,0,,,,,,,,,8/8 Overcast,400.0,,OVC,400,,,,,,
KRDR,01-25-2005,07:43,SPECI,,180,11,,,6400,Mist/Cloud Development Not Observable,-4.0,-4.0,29.64,,,,,10,0,0,,,,,,,,,8/8 Overcast,400.0,,OVC,400,,,,,,
KRDR,01-25-2005,07:00,METAR,,180,13,,,6400,Mist/Cloud Development Not Observable,-5.0,-5.0,29.67,1006.7,,,,10,0,0,,,,,,,,,8/8 Overcast,500.0,,OVC,500,,,,,,
KRDR,01-25-2005,06:00,METAR,,170,11,,,8000,Mist/Cloud Development Not Observable,-5.0,-5.0,29.72,1008.3,,,,10,0,0,,,,,,,.01 IN,,8/8 Overcast,500.0,,OVC,500,,,,,,
KRDR,01-25-2005,05:24,SPECI,,170,13,,,9999,Cloud Development Not Observable,-5.0,-5.0,29.74,,,,,0,0,0,,,,,,,,,8/8 Overcast,600.0,,BKN,600,OVC,8400.0,,,,
KRDR,01-25-2005,05:00,METAR,,170,13,,,9999,Cloud Development Not Observable,-5.0,-5.0,29.77,1009.9,,,,0,0,0,,,,,,,,,8/8 Overcast,8500.0,,SCT,800,OVC,8400.0,,,,
KRDR,01-25-2005,04:30,METAR,,170,15,,,9999,Cloud Development Not Observable,-5.0,-5.0,29.78,,,,,0,0,0,,,,,,,,,8/8 Overcast,8500.0,,FEW,800,OVC,8400.0,,,,
KRDR,01-25-2005,04:10,SPECI,,160,17,,,9999,Cloud Development Not Observable,-5.0,-5.0,29.76,,,,,0,0,0,,,,,,,,,8/8 Overcast,8500.0,,SCT,600,OVC,8400.0,,,,
KRDR,01-25-2005,04:00,METAR,,160,12,,,9999,Light Freezing Rain/Cloud Development Not Observable,-5.0,-5.0,29.81,1011.3,,,,66,0,0,,,,,,,,,8/8 Overcast,8000.0,,SCT,600,OVC,7900.0,,,,
KRDR,01-25-2005,03:50,METAR,,160,9,,,9999,Light Freezing Rain/Cloud Development Not Observable,-5.0,-5.0,29.83,,,,,66,0,0,,,,,,,,,8/8 Overcast,9000.0,,SCT,600,OVC,8900.0,,,,
KRDR,01-25-2005,03:00,METAR,,170,8,,,9999,Cloud Development Not Observable,-6.0,-6.0,29.86,1013.1,,,,0,0,0,,,,,,,,,7/8 Mostly Cloudy,9000.0,,FEW,600,BKN,8900.0,,,,
KRDR,01-25-2005,02:00,METAR,,140,7,,,9999,Cloud Development Not Observable,-6.0,-6.0,29.89,1014.0,,,,0,0,0,,,,,,,,,7/8 Mostly Cloudy,12000.0,,BKN,12000,,,,,,
KRDR,01-25-2005,01:00,METAR,,130,6,,,9999,Cloud Development Not Observable,-6.0,-7.0,29.91,1014.6,,,,0,0,0,,,,,,,,,7/8 Mostly Cloudy,10000.0,,FEW,1000,BKN,9900.0,,,,
KRDR,01-25-2005,00:00,METAR,,140,5,,,9999,Cloud Development Not Observable,-6.0,-7.0,29.95,1016.0,,,,0,0,0,,,,,,,,,7/8 Mostly Cloudy,10000.0,,FEW,900,BKN,9900.0,,,,
KRDR,01-24-2005,23:30,METAR,,110,5,,,9999,Cloud Development Not Observable,-6.0,-7.0,29.95,,,,,0,0,0,,,,,,,,,7/8 Mostly Cloudy,10000.0,,SCT,1000,BKN,9900.0,,,,
KRDR,01-24-2005,23:10,SPECI,,110,5,,,9999,Cloud Development Not Observable,-6.0,-7.0,29.95,,,,,0,0,0,,,,,,,,,7/8 Mostly Cloudy,1000.0,,BKN,1000,BKN,9900.0,,,,
KRDR,01-24-2005,23:00,METAR,,90,4,,,9999,Cloud Development Not Observable,-6.0,-7.0,29.95,1016.1,,,,0,0,0,,,,,,,,,7/8 Mostly Cloudy,900.0,,FEW,500,BKN,900.0,,,,
KRDR,01-24-2005,22:00,METAR,,,1,,,9999,Cloud Development Not Observable,-6.0,-7.0,29.98,1017.1,,,,0,0,0,,,,,,,,,8/8 Overcast,900.0,,FEW,500,OVC,900.0,,,,
KRDR,01-24-2005,21:00,METAR,,,0,,,9999,Cloud Development Not Observable,-6.0,-7.0,30.01,1018.0,,,,0,0,0,,,,,,,,,8/8 Overcast,900.0,,FEW,500,OVC,900.0,,,,
KRDR,01-24-2005,20:00,METAR,,340,5,,,9999,Cloud Development Not Observable,-6.0,-7.0,30.03,1018.6,,,,0,0,0,,,,,,,,,8/8 Overcast,900.0,,OVC,900,,,,,,
KRDR,01-24-2005,19:00,METAR,,350,4,,,9999,Cloud Development Not Observable,-7.0,-7.0,30.03,1018.7,,,,0,0,0,,,,,,,,,8/8 Overcast,900.0,,BKN,900,OVC,1500.0,,,,
KRDR,01-24-2005,18:00,METAR,,360,10,,,9999,Mist/Cloud Development Not Observable,-6.0,-7.0,30.03,1019.0,,,,10,0,0,,,,,,,,,8/8 Overcast,700.0,,BKN,700,OVC,1300.0,,,,
KRDR,01-24-2005,17:00,METAR,,360,11,,,9999,Mist/Cloud Development Not Observable,-6.0,-6.0,30.04,1019.1,,,,10,0,0,,,,,,,,,8/8 Overcast,700.0,,BKN,700,OVC,1000.0,,,,
KRDR,01-24-2005,16:41,SPECI,,360,10,,,9999,Mist/Cloud Development Not Observable,-6.0,-6.0,30.04,,,,,10,0,0,,,,,,,,,8/8 Overcast,700.0,,BKN,700,OVC,1000.0,,,,
KRDR,01-24-2005,16:00,METAR,,360,13,,,9999,Mist/Cloud Development Not Observable,-5.0,-5.0,30.02,1018.4,,,,10,0,0,,,,,,,,,8/8 Overcast,700.0,,BKN,700,OVC,1000.0,,,,
KRDR,01-24-2005,15:24,SPECI,,10,13,,,8000,Cloud Development Not Observable,-5.0,-5.0,30.01,,,,,0,0,0,,,,,,,,,8/8 Overcast,700.0,,OVC,700,,,,,,
KRDR,01-24-2005,15:06,SPECI,,10,13,,,8000,Cloud Development Not Observable,-3.0,-3.0,30.00,,,,,0,0,0,,,,,,,,,8/8 Overcast,700.0,,OVC,700,,,,,,
KRDR,01-24-2005,15:00,METAR,,10,14,,,9999,Cloud Development Not Observable,-5.0,-5.0,29.99,1017.5,,,,0,0,0,,,,,,,,,8/8 Overcast,1700.0,,SCT,700,OVC,1700.0,,,,
KRDR,01-24-2005,14:00,METAR,,360,16,,,9999,Cloud Development Not Observable,-4.0,-4.0,29.99,1017.5,,,,0,0,0,,,,,,,,,8/8 Overcast,1700.0,,OVC,1700,,,,,,
KRDR,01-24-2005,13:33,SPECI,,350,15,,,9999,Cloud Development Not Observable,-3.0,-3.0,29.98,,,,,0,0,0,,,,,,,,,8/8 Overcast,1800.0,,OVC,1800,,,,,,
KRDR,01-24-2005,13:00,METAR,,10,11,,,9999,Cloud Development Not Observable,-2.0,-3.0,29.96,1016.3,,,,0,0,0,,,,,,,,,7/8 Mostly Cloudy,1200.0,,BKN,1200,,,,,,
KRDR,01-24-2005,12:00,METAR,,350,7,,,9999,Cloud Development Not Observable,-3.0,-3.0,29.92,1014.3,,,,0,0,0,,,,,,,,,7/8 Mostly Cloudy,1600.0,,BKN,1600,,,,,,
KRDR,01-24-2005,11:40,SPECI,,340,6,,,9999,Cloud Development Not Observable,-3.0,-3.0,29.91,,,,,0,0,0,,,,,,,,,7/8 Mostly Cloudy,1600.0,,BKN,1600,,,,,,
KRDR,01-24-2005,11:00,METAR,,340,8,,,9999,Cloud Development Not Observable,-4.0,-4.0,29.90,1014.3,,,,0,0,0,,,,,,,,,7/8 Mostly Cloudy,1600.0,,BKN,1600,,,,,,
KRDR,01-24-2005,10:00,METAR,,340,8,,,9999,Cloud Development Not Observable,-3.0,-4.0,29.86,1013.2,,,,0,0,0,,,,,,,,,4/8 Partly Cloudy,72000.0,,FEW,11000,SCT,25000.0,,,,
KRDR,01-24-2005,09:00,METAR,,310,10,,,9999,Cloud Development Not Observable,-1.0,-2.0,,,,,,0,0,0,,,,,,,,,4/8 Partly Cloudy,72000.0,,FEW,11000,SCT,25000.0,,,,
KRDR,01-24-2005,08:00,METAR,,310,10,,,9999,Cloud Development Not Observable,1.0,-1.0,30.79,1044.6,,,,0,0,0,,,,,,,,,7/8 Mostly Cloudy,11000.0,,BKN,11000,,,,,,
KRDR,01-24-2005,07:00,METAR,,,6,,,9999,Cloud Development Not Observable,0.0,-1.0,30.77,1044.0,,,,0,0,0,,,,,,,,,7/8 Mostly Cloudy,11000.0,,BKN,11000,,,,,,
KRDR,01-24-2005,06:00,METAR,,210,5,,,9999,Cloud Development Not Observable,-2.0,-2.0,,,,,,0,0,0,,,,,,,,,7/8 Mostly Cloudy,11000.0,,BKN,11000,,,,,,
KRDR,01-24-2005,05:00,METAR,,190,4,,,9999,Cloud Development Not Observable,-3.0,-4.0,29.74,1009.0,,,,0,0,0,,,,,,,,,7/8 Mostly Cloudy,15000.0,,BKN,15000,,,,,,
KRDR,01-24-2005,04:00,METAR,,200,5,,,9999,Cloud Development Not Observable,-4.0,-4.0,29.76,1009.7,,,,0,0,0,,,,,,,,,4/8 Partly Cloudy,72000.0,,SCT,15000,,,,,,
KRDR,01-24-2005,03:00,METAR,,180,8,,,9999,Cloud Development Not Observable,-6.0,-6.0,29.77,1010.2,,,,0,0,0,,,,,,,,,Clear,72000.0,,,73000,,,,,,
KRDR,01-24-2005,02:00,METAR,,180,8,,,9999,Cloud Development Not Observable,-6.0,-6.0,29.79,1010.9,,,,0,0,0,,,,,,,,,Clear,72000.0,,,73000,,,,,,
KRDR,01-24-2005,01:00,METAR,,200,10,,,9999,Cloud Development Not Observable,-6.0,-7.0,29.79,1010.9,,,,0,0,0,,,,,,,,,2/8 Mostly Clear,72000.0,,FEW,20000,,,,,,
KRDR,01-24-2005,00:00,METAR,,190,10,,,9999,Cloud Development Not Observable,-6.0,-7.0,29.81,1011.6,,,,0,0,0,,,,,,,,,2/8 Mostly Clear,72000.0,,FEW,20000,,,,,,
KRDR,01-23-2005,23:00,METAR,,180,9,,,9999,Cloud Development Not Observable,-6.0,-7.0,29.84,1012.7,,,,0,0,0,,,,,,,,,7/8 Mostly Cloudy,20000.0,,BKN,20000,,,,,,
KRDR,01-23-2005,22:00,METAR,,190,9,,,9999,Cloud Development Not Observable,-5.0,-7.0,29.84,1012.7,,,,0,0,0,,,,,,,,,8/8 Overcast,20000.0,,OVC,20000,,,,,,
KRDR,01-23-2005,21:00,METAR,,190,13,,,9999,Cloud Development Not Observable,-6.0,-7.0,29.84,1012.8,,,,0,0,0,,,,,,,,,8/8 Overcast,20000.0,,OVC,20000,,,,,,
KRDR,01-23-2005,20:00,METAR,,190,15,,,9999,Cloud Development Not Observable,-7.0,-8.0,29.86,1013.8,,,,0,0,0,,,,,,,,,8/8 Overcast,20000.0,,OVC,20000,,,,,,
KRDR,01-23-2005,19:00,METAR,,190,11,,,9999,Cloud Development Not Observable,-8.0,-9.0,29.90,1015.0,,,,0,0,0,,,,,,,,,7/8 Mostly Cloudy,20000.0,,FEW,9900,BKN,20000.0,,,,
KRDR,01-23-2005,18:00,METAR,,190,16,,,9999,Cloud Development Not Observable,-9.0,-10.0,29.92,1015.7,,,,0,0,0,,,,,,,,,7/8 Mostly Cloudy,10000.0,,BKN,9900,BKN,20000.0,,,,
KRDR,01-23-2005,17:00,METAR,,170,14,,,9999,Cloud Development Not Observable,-10.0,-11.0,29.97,1017.5,,,,0,0,0,,,,,,,,,7/8 Mostly Cloudy,10000.0,,FEW,4000,SCT,9900.0,BKN,20000.0,,
KRDR,01-23-2005,16:00,METAR,,170,12,,,9999,Cloud Development Not Observable,-11.0,-13.0,29.98,1018.1,,,,0,0,0,,,,,,,,,8/8 Overcast,10000.0,,FEW,5900,OVC,9900.0,,,,
KRDR,01-23-2005,15:00,METAR,,160,8,,,9999,Cloud Development Not Observable,-13.0,-13.0,30.03,1019.8,,,,0,0,0,,,,,,,,,7/8 Mostly Cloudy,10000.0,,BKN,9900,,,,,,
KRDR,01-23-2005,14:00,METAR,,170,10,,,9999,Cloud Development Not Observable,-13.0,-13.0,30.03,1019.9,,,,0,0,0,,,,,,,,,8/8 Overcast,10000.0,,OVC,9900,,,,,,
KRDR,01-23-2005,13:00,METAR,,180,10,,,9999,Cloud Development Not Observable,-12.0,-12.0,30.05,1020.5,,,,0,0,0,,,,,,,,,7/8 Mostly Cloudy,9000.0,,BKN,8900,,,,,,
KRDR,01-23-2005,12:00,METAR,,190,19,,,9999,Cloud Development Not Observable,-12.0,-12.0,30.05,1020.5,,,,0,0,0,,,,,,,,,8/8 Overcast,9000.0,,OVC,8900,,,,,,
KRDR,01-23-2005,11:00,METAR,,190,20,,,9999,Cloud Development Not Observable,-13.0,-13.0,30.09,1021.9,,,,0,0,0,,,,,,,,,8/8 Overcast,9000.0,,OVC,8900,,,,,,
KRDR,01-23-2005,10:00,METAR,,180,16,,,9999,Cloud Development Not Observable,-14.0,-14.0,30.14,1023.7,,,,0,0,0,,,,,,,,,7/8 Mostly Cloudy,8000.0,,BKN,7900,,,,,,
KRDR,01-23-2005,09:00,METAR,,170,15,,,9999,Cloud Development Not Observable,-15.0,-15.0,30.21,1026.3,,,,0,0,0,,,,,,,,,7/8 Mostly Cloudy,9000.0,,BKN,8900,,,,,,
KRDR,01-23-2005,08:00,METAR,,180,18,,,9999,Cloud Development Not Observable,-17.0,-17.0,30.24,1027.3,,,,0,0,0,,,,,,,,,7/8 Mostly Cloudy,10000.0,,BKN,9900,,,,,,
KRDR,01-23-2005,07:00,METAR,,170,12,,,9999,Cloud Development Not Observable,-18.0,-18.0,30.32,1029.3,,,,0,0,0,,,,,,,,,7/8 Mostly Cloudy,11000.0,,BKN,11000,,,,,,
KRDR,01-23-2005,06:00,METAR,,180,13,,,9999,Cloud Development Not Observable,-18.0,-18.0,30.32,1029.3,,,,0,0,0,,,,,,,,,7/8 Mostly Cloudy,11000.0,,BKN,11000,,,,,,
KRDR,01-23-2005,05:00,METAR,,170,9,,,9999,Cloud Development Not Observable,-18.0,-18.0,30.42,1033.4,,,,0,0,0,,,,,,,,,7/8 Mostly Cloudy,11000.0,,BKN,11000,,,,,,
KRDR,01-23-2005,04:00,METAR,,160,10,,,9999,Cloud Development Not Observable,-19.0,-19.0,30.45,1034.5,,,,0,0,0,,,,,,,,,7/8 Mostly Cloudy,10000.0,,BKN,9900,,,,,,
KRDR,01-23-2005,03:00,METAR,,170,9,,,9999,Cloud Development Not Observable,-20.0,-20.0,30.50,1036.2,,,,0,0,0,,,,,,,,,2/8 Mostly Clear,72000.0,,FEW,9900,,,,,,
KRDR,01-23-2005,02:00,METAR,,160,9,,,9999,Cloud Development Not Observable,-21.0,-21.0,30.53,1037.3,,,,0,0,0,,,,,,,,,2/8 Mostly Clear,72000.0,,FEW,9900,,,,,,
KRDR,01-23-2005,01:00,METAR,,150,6,,,9999,Cloud Development Not Observable,-21.0,-21.0,30.56,1038.3,,,,0,0,0,,,,,,,,,2/8 Mostly Clear,72000.0,,FEW,9900,,,,,,
KRDR,01-23-2005,00:00,METAR,,130,6,,,9999,Cloud Development Not Observable,-21.0,-21.0,30.59,1039.5,,,,0,0,0,,,,,,,,,2/8 Mostly Clear,72000.0,,FEW,9900,,,,,,
KRDR,01-22-2005,23:00,METAR,,200,2,,,9999,Cloud Development Not Observable,-20.0,-21.0,30.65,1041.1,,,,0,0,0,,,,,,,,,4/8 Partly Cloudy,72000.0,,SCT,9900,,,,,,
KRDR,01-22-2005,22:00,METAR,,350,2,,,9999,Cloud Development Not Observable,-20.0,-21.0,30.64,1040.9,,,,0,0,0,,,,,,,,,4/8 Partly Cloudy,72000.0,,SCT,9900,,,,,,
KRDR,01-22-2005,21:00,METAR,,320,4,,,9999,Cloud Development Not Observable,-21.0,-21.0,30.66,1041.6,,,,0,0,0,,,,,,,,,4/8 Partly Cloudy,72000.0,,SCT,9900,,,,,,
KRDR,01-22-2005,20:00,METAR,,320,7,,,9999,Cloud Development Not Observable,-20.0,-21.0,30.66,1041.6,,,,0,0,0,,,,,,,,,4/8 Partly Cloudy,72000.0,,SCT,9900,,,,,,
KRDR,01-22-2005,19:00,METAR,,340,10,,,9999,Cloud Development Not Observable,-21.0,-21.0,30.68,1042.2,,,,0,0,0,,,,,,,,,2/8 Mostly Clear,72000.0,,FEW,9900,FEW,25000.0,,,,
KRDR,01-22-2005,18:00,METAR,,350,10,,,9999,Drifting Snow/Cloud Development Not Observable,-21.0,-21.0,30.69,1042.3,,,,36,0,0,,,,,,,,,2/8 Mostly Clear,72000.0,,FEW,9900,FEW,25000.0,,,,
KRDR,01-22-2005,17:00,METAR,,350,13,,,9999,Drifting Snow/Cloud Development Not Observable,-21.0,-21.0,30.69,1042.6,,,,36,0,0,,,,,,,,,2/8 Mostly Clear,72000.0,,FEW,9900,FEW,25000.0,,,,
KRDR,01-22-2005,16:00,METAR,,340,16,,,9999,Drifting Snow/Cloud Development Not Observable,-22.0,-22.0,30.69,1042.6,,,,36,0,0,,,,,,,,,2/8 Mostly Clear,72000.0,,FEW,25000,,,,,,
KRDR,01-22-2005,15:01,SPECI,,340,17,,,9999,Drifting Snow/Cloud Development Not Observable,-22.0,-22.0,30.67,,,,,36,0,0,,,,,,,,,2/8 Mostly Clear,72000.0,,FEW,800,FEW,25000.0,,,,
KRDR,01-22-2005,15:00,METAR,,340,17,,,9999,Blowing Snow/Cloud Development Not Observable,-22.0,-22.0,30.67,1041.9,,,,38,0,0,,,,,,,,,7/8 Mostly Cloudy,1800.0,,BKN,1800,,,,,,
KRDR,01-22-2005,14:00,METAR,,350,19,,350/28KTS,4800,Blowing Snow/Cloud Development Not Observable,-22.0,-22.0,30.61,1040.1,,,,38,0,0,,,,,,,,,7/8 Mostly Cloudy,1800.0,,BKN,1800,,,,,,
KRDR,01-22-2005,13:00,METAR,,350,21,,340/30KTS,3200,Blowing Snow/Cloud Development Not Observable,-21.0,-21.0,30.58,1038.9,,,,38,0,0,,,,,,,,,7/8 Mostly Cloudy,1800.0,,BKN,1800,,,,,,
KRDR,01-22-2005,12:00,METAR,,350,23,28.0,,1600,Blowing Snow/Cloud Development Not Observable,-20.0,-20.0,30.56,1038.0,,,,38,0,0,,,,,,,,.24 IN,7/8 Mostly Cloudy,1800.0,,BKN,1800,,,,,,
KRDR,01-22-2005,11:17,SPECI,,350,25,,,1600,Blowing Snow/Cloud Development Not Observable,-19.0,-19.0,30.53,,,,,38,0,0,,,,,,,,,7/8 Mostly Cloudy,1800.0,,BKN,1800,,,,,,
KRDR,01-22-2005,10:00,METAR,,340,24,29.0,,800,Blowing Snow/Cloud Development Not Observable,-19.0,-19.0,30.44,1033.6,,,,38,0,0,,,,,,,,,4/8 Partly Cloudy,72000.0,,SCT,2500,,,,,,
KRDR,01-22-2005,08:00,METAR,,340,25,33.0,,800,Blowing Snow/Cloud Development Not Observable,-18.0,-18.0,30.34,1030.0,,,,38,0,0,,,,,,,,,2/8 Mostly Clear,72000.0,,FEW,2500,,,,,,
KRDR,01-22-2005,07:00,METAR,,330,26,33.0,,800,Blowing Snow/Cloud Development Not Observable,-18.0,-18.0,30.31,1028.9,,,,38,0,0,,,,,,,,,4/8 Partly Cloudy,72000.0,,SCT,2200,,,,,,
KRDR,01-22-2005,06:00,METAR,,330,27,33.0,,800,Blowing Snow/Cloud Development Not Observable,-18.0,-18.0,30.25,1027.2,,,,38,0,0,,,,,,,,,4/8 Partly Cloudy,72000.0,,SCT,2000,,,,,,
KRDR,01-22-2005,05:00,METAR,,330,24,28.0,330/31KTS,1600,Blowing Snow/Cloud Development Not Observable,-19.0,-19.0,30.22,1026.2,,,,38,0,0,,,,,,,,,4/8 Partly Cloudy,72000.0,,SCT,2500,,,,,,
KRDR,01-22-2005,04:40,SPECI,,330,21,27.0,,1600,Blowing Snow/Cloud Development Not Observable,-18.0,-19.0,30.22,,,,,38,0,0,,,,,,,,,4/8 Partly Cloudy,72000.0,,SCT,2500,,,,,,
KRDR,01-22-2005,04:00,METAR,,340,25,31.0,,800,Blowing Snow/Cloud Development Not Observable,-18.0,-18.0,30.19,1025.1,,,,38,0,0,,,,,,,,,4/8 Partly Cloudy,72000.0,,SCT,2500,,,,,,
KRDR,01-22-2005,03:44,SPECI,,330,25,30.0,,1000,Blowing Snow/Cloud Development Not Observable,-18.0,-18.0,30.19,,,,,38,0,0,,,,,,,,,4/8 Partly Cloudy,72000.0,,SCT,2500,,,,,,
KRDR,01-22-2005,03:00,METAR,,330,23,27.0,330/34KTS,1200,Blowing Snow/Cloud Development Not Observable,-18.0,-18.0,30.16,1024.0,,,,38,0,0,,,,,,,,,7/8 Mostly Cloudy,3400.0,,SCT,2500,BKN,3500.0,,,,
KRDR,01-22-2005,02:07,SPECI,,340,20,30.0,,1600,Blowing Snow/Cloud Development Not Observable,-17.0,-17.0,30.15,,,,,38,0,0,,,,,,,,,7/8 Mostly Cloudy,2500.0,,BKN,2500,,,,,,
KRDR,01-22-2005,02:00,METAR,,340,25,34.0,330/37KTS,600,Blowing Snow/Cloud Development Not Observable,-17.0,-17.0,30.15,1023.6,,,,38,0,0,,,,,,,,,8/8 Overcast,3900.0,,FEW,1500,OVC,4000.0,,,,
KRDR,01-22-2005,01:25,METAR,,350,30,37.0,,400,Blowing Snow/Cloud Development Not Observable,-16.0,-16.0,30.12,,,,,38,0,0,,,,,,,,,8/8 Overcast,3900.0,,FEW,2000,OVC,4000.0,,,,
KRDR,01-22-2005,01:00,METAR,,340,26,35.0,340/35KTS,800,Blowing Snow/Cloud Development Not Observable,-15.0,-15.0,30.10,1021.9,,,,38,0,0,,,,,,,,,8/8 Overcast,4400.0,,FEW,2000,OVC,4500.0,,,,
KRDR,01-22-2005,00:45,METAR,,340,31,35.0,,800,Blowing Snow/Cloud Development Not Observable,-14.0,-14.0,30.09,,,,,38,0,0,,,,,,,,,8/8 Overcast,4400.0,,FEW,2000,OVC,4500.0,,,,
KRDR,01-22-2005,00:25,METAR,,340,26,34.0,,400,Blowing Snow/Cloud Development Not Observable,-14.0,-14.0,30.07,,,,,38,0,0,,,,,,,,,8/8 Overcast,4400.0,,FEW,2000,OVC,4500.0,,,,
KRDR,01-22-2005,00:00,METAR,,340,24,30.0,340/33KTS,1200,Blowing Snow/Cloud Development Not Observable,-13.0,-13.0,30.04,1020.1,,,,38,0,0,,,,,,,.15 IN,,8/8 Overcast,4400.0,,SCT,2000,BKN,4500.0,OVC,9900.0,,
KRDR,01-21-2005,23:28,SPECI,,340,21,28.0,,1200,Blowing Snow/Cloud Development Not Observable,-13.0,-13.0,30.02,,,,,38,0,0,,,,,,,,,8/8 Overcast,3900.0,,SCT,2000,BKN,4000.0,OVC,9900.0,,
KRDR,01-21-2005,23:00,METAR,,350,25,33.0,340/33KTS,1200,Light Snow/Blowing Snow/Cloud Development Not Observable,-12.0,-12.0,29.98,1017.9,,,,71,38,0,,,,,,,,,8/8 Overcast,2500.0,,FEW,1500,BKN,2500.0,OVC,5000.0,,
KRDR,01-21-2005,22:30,METAR,,340,23,28.0,,1200,Light Snow/Blowing Snow/Cloud Development Not Observable,-12.0,-12.0,29.97,,,,,71,38,0,,,,,,,,,8/8 Overcast,1500.0,,BKN,1500,BKN,2500.0,OVC,5000.0,,
KRDR,01-21-2005,22:00,METAR,,340,17,21.0,,1200,Light Snow/Mist/Cloud Development Not Observable,-10.0,-10.0,29.92,1015.6,,,,71,10,0,,,,,,,,,7/8 Mostly Cloudy,2500.0,,SCT,1000,BKN,2500.0,,,,
KRDR,01-21-2005,21:40,SPECI,,340,17,,,1600,Light Snow/Mist/Cloud Development Not Observable,-10.0,-10.0,29.91,,,,,71,10,0,,,,,,,,,8/8 Overcast,2500.0,,SCT,700,OVC,2500.0,,,,
KRDR,01-21-2005,21:15,SPECI,,350,13,,,800,Light Snow/Mist/Cloud Development Not Observable,-10.0,-10.0,29.89,,,,,71,10,0,,,,,,,,,Sky Obscured (Unable to Estimate),700.0,100.0,,700,,,,,,
KRDR,01-21-2005,21:00,METAR,,340,13,,,1200,Light Snow/Mist/Cloud Development Not Observable,-10.0,-10.0,29.88,1014.3,,,,71,10,0,,,,,,.13 IN,,,8/8 Overcast,1200.0,,OVC,1200,,,,,,
KRDR,01-21-2005,20:00,METAR,,350,7,,,800,Snow/Mist/Cloud Development Not Observable,-7.0,-7.0,29.85,1013.1,,,,73,10,0,,,,,,,,,Sky Obscured (Unable to Estimate),600.0,100.0,,600,,,,,,
KRDR,01-21-2005,19:33,SPECI,,,1,,,800,Snow/Mist/Cloud Development Not Observable,-7.0,-7.0,29.84,,,,,73,10,0,,,,,,,,,Sky Obscured (Unable to Estimate),300.0,100.0,,300,,,,,,
KRDR,01-21-2005,19:00,METAR,,160,3,,,400,Heavy Snow/Mist/Cloud Development Not Observable,-7.0,-7.0,29.85,1013.3,,,,75,10,0,,,,,,,,,Sky Obscured (Unable to Estimate),300.0,100.0,,300,,,,,,
KRDR,01-21-2005,18:38,SPECI,,170,4,,,400,Heavy Snow/Mist/Cloud Development Not Observable,-7.0,-7.0,29.85,,,,,75,10,0,,,,,,,,,Sky Obscured (Unable to Estimate),300.0,100.0,,300,,,,,,
KRDR,01-21-2005,18:22,SPECI,,160,4,,,800,Snow/Mist/Cloud Development Not Observable,-7.0,-7.0,29.85,,,,,73,10,0,,,,,,,,,Sky Obscured (Unable to Estimate),500.0,100.0,,500,,,,,,
KRDR,01-21-2005,18:00,METAR,,160,7,,,1200,Light Snow/Mist/Cloud Development Not Observable,-7.0,-7.0,29.85,1013.3,,,,71,10,0,,,,,,,.09 IN,,Sky Obscured (Unable to Estimate),800.0,100.0,,800,,,,,,
KRDR,01-21-2005,17:16,SPECI,,150,8,,,800,Snow/Mist/Cloud Development Not Observable,-8.0,-8.0,29.87,,,,,73,10,0,,,,,,,,,Sky Obscured (Unable to Estimate),500.0,100.0,,500,,,,,,
KRDR,01-21-2005,17:05,SPECI,,150,8,,,400,Heavy Snow/Mist/Cloud Development Not Observable,-8.0,-8.0,29.88,,,,,75,10,0,,,,,,,,,Sky Obscured (Unable to Estimate),500.0,100.0,,500,,,,,,
KRDR,01-21-2005,17:00,METAR,,160,8,,,800,Light Snow/Mist/Cloud Development Not Observable,-8.0,-8.0,29.88,1014.3,,,,71,10,0,,,,,,,,,Sky Obscured (Unable to Estimate),500.0,100.0,,500,,,,,,
KRDR,01-21-2005,16:12,SPECI,,110,4,,,800,Snow/Mist/Cloud Development Not Observable,-9.0,-9.0,29.89,,,,,73,10,0,,,,,,,,,Sky Obscured (Unable to Estimate),1000.0,100.0,,1000,,,,,,
KRDR,01-21-2005,16:00,METAR,,,1,,,1200,Light Snow/Mist/Cloud Development Not Observable,-10.0,-10.0,29.90,1015.1,,,,71,10,0,,,,,,,,,8/8 Overcast,1500.0,,OVC,1500,,,,,,
KRDR,01-21-2005,15:40,SPECI,,90,1,,,1600,Light Snow/Mist/Cloud Development Not Observable,-10.0,-10.0,29.91,,,,,71,10,0,,,,,,,,,8/8 Overcast,1500.0,,OVC,1500,,,,,,
KRDR,01-21-2005,15:32,SPECI,,80,2,,,2400,Light Snow/Mist/Cloud Development Not Observable,-10.0,-10.0,29.91,,,,,71,10,0,,,,,,,,,8/8 Overcast,2000.0,,OVC,2000,,,,,,
KRDR,01-21-2005,15:19,SPECI,,100,2,,,4000,Light Snow/Mist/Cloud Development Not Observable,-11.0,-11.0,29.92,,,,,71,10,0,,,,,,,,,8/8 Overcast,2400.0,,OVC,2400,,,,,,
KRDR,01-21-2005,15:00,METAR,,130,2,,,1600,Light Snow/Mist/Cloud Development Not Observable,-11.0,-11.0,29.93,1015.9,,,,71,10,0,,,,,,.02 IN,,,8/8 Overcast,1600.0,,OVC,1600,,,,,,
KRDR,01-21-2005,14:32,SPECI,,130,3,,,1600,Light Snow/Mist/Cloud Development Not Observable,-11.0,-11.0,29.94,,,,,71,10,0,,,,,,,,,8/8 Overcast,1800.0,,OVC,1800,,,,,,
KRDR,01-21-2005,14:23,SPECI,,120,3,,,1600,Light Snow/Mist/Cloud Development Not Observable,-11.0,-11.0,29.95,,,,,71,10,0,,,,,,,,,8/8 Overcast,1800.0,,OVC,1800,,,,,,
KRDR,01-21-2005,14:13,SPECI,,130,3,,,3200,Light Snow/Mist/Cloud Development Not Observable,-11.0,-11.0,29.95,,,,,71,10,0,,,,,,,,,8/8 Overcast,1600.0,,BKN,1600,OVC,4800.0,,,,
KRDR,01-21-2005,14:00,METAR,,110,3,,,4800,Light Snow/Mist/Cloud Development Not Observable,-12.0,-12.0,29.96,1017.0,,,,71,10,0,,,,,,,,,8/8 Overcast,1500.0,,FEW,800,BKN,1500.0,OVC,4800.0,,
KRDR,01-21-2005,13:00,METAR,,170,3,,,8000,Light Snow/Cloud Development Not Observable,-13.0,-13.0,29.99,1018.3,,,,71,0,0,,,,,,,,,8/8 Overcast,2000.0,,SCT,800,BKN,2000.0,OVC,5000.0,,
KRDR,01-21-2005,12:05,SPECI,,120,2,,,6400,Light Snow/Cloud Development Not Observable,-13.0,-13.0,30.00,,,,,71,0,0,,,,,,,,,8/8 Overcast,2500.0,,SCT,800,BKN,2500.0,OVC,5000.0,,
KRDR,01-21-2005,12:00,METAR,,160,1,,,9999,Light Snow/Cloud Development Not Observable,-13.0,-13.0,30.01,1019.0,,,,71,0,0,,,,,,,IN,.01 IN,8/8 Overcast,2500.0,,SCT,800,BKN,2500.0,OVC,5000.0,,
KRDR,01-21-2005,11:38,SPECI,,120,2,,,6400,Light Snow/Cloud Development Not Observable,-13.0,-13.0,30.02,,,,,71,0,0,,,,,,,,,8/8 Overcast,1300.0,,SCT,1000,BKN,1300.0,OVC,2000.0,,
KRDR,01-21-2005,11:00,METAR,,120,1,,,9999,Cloud Development Not Observable,-14.0,-14.0,30.04,1019.9,,,,0,0,0,,,,,,,,,8/8 Overcast,1500.0,,BKN,1500,OVC,2200.0,,,,
KRDR,01-21-2005,10:00,METAR,,50,1,,,9999,Cloud Development Not Observable,-14.0,-14.0,30.07,1020.9,,,,0,0,0,,,,,,,,,8/8 Overcast,2300.0,,OVC,2300,,,,,,
KRDR,01-21-2005,09:00,METAR,,10,2,,,9999,Cloud Development Not Observable,-14.0,-14.0,30.11,1022.2,,,,0,0,0,,,,,,,,,8/8 Overcast,2500.0,,OVC,2500,,,,,,
KRDR,01-21-2005,08:00,METAR,,340,3,,,9999,Cloud Development Not Observable,-14.0,-14.0,30.12,1022.5,,,,0,0,0,,,,,,,,,8/8 Overcast,2600.0,,OVC,2600,,,,,,
KRDR,01-21-2005,07:00,METAR,,340,4,,,9999,Cloud Development Not Observable,-14.0,-14.0,30.14,1023.4,,,,0,0,0,,,,,,,,,8/8 Overcast,2300.0,,OVC,2300,,,,,,
KRDR,01-21-2005,06:00,METAR,,340,4,,,9999,Cloud Development Not Observable,-14.0,-14.0,30.16,1014.1,,,,0,0,0,,,,,,,IN,,8/8 Overcast,2200.0,,BKN,2200,OVC,3100.0,,,,
KRDR,01-21-2005,05:00,METAR,,320,4,,,9999,Cloud Development Not Observable,-14.0,-14.0,30.18,1024.6,,,,0,0,0,,,,,,,,,8/8 Overcast,2000.0,,BKN,2000,OVC,3000.0,,,,
KRDR,01-21-2005,04:28,SPECI,,330,5,,,9999,Cloud Development Not Observable,-14.0,-14.0,30.19,,,,,0,0,0,,,,,,,,,8/8 Overcast,2000.0,,BKN,2000,OVC,3000.0,,,,
KRDR,01-21-2005,04:00,METAR,,340,6,,,9999,Light Snow/Cloud Development Not Observable,-14.0,-14.0,30.19,1025.0,,,,71,0,0,,,,,,,,,8/8 Overcast,3100.0,,SCT,2300,BKN,3100.0,OVC,9900.0,,
KRDR,01-21-2005,03:00,METAR,,340,6,,,9999,Light Snow/Cloud Development Not Observable,-14.0,-14.0,30.20,1025.3,,,,71,0,0,,,,,,TRACE,,,8/8 Overcast,3200.0,,SCT,2300,BKN,3300.0,OVC,9900.0,,
KRDR,01-21-2005,02:00,METAR,,360,9,,,9999,Light Snow/Cloud Development Not Observable,-13.0,-13.0,30.21,1025.8,,,,71,0,0,,,,,,,,,8/8 Overcast,3400.0,,SCT,2300,BKN,3500.0,OVC,9900.0,,
KRDR,01-21-2005,01:00,METAR,,360,8,,,9999,Light Snow/Cloud Development Not Observable,-13.0,-13.0,30.22,1025.9,,,,71,0,0,,,,,,,,,8/8 Overcast,3400.0,,FEW,1500,BKN,3500.0,OVC,9900.0,,
KRDR,01-21-2005,00:00,METAR,,360,7,,,9999,Light Snow/Cloud Development Not Observable,-13.0,-13.0,30.22,1026.2,,,,71,0,0,,,,,,,.01 IN,,8/8 Overcast,3400.0,,BKN,3500,OVC,9900.0,,,,
KRDR,01-20-2005,23:00,METAR,,10,10,,,9999,Light Snow/Cloud Development Not Observable,-12.0,-13.0,30.20,1025.2,,,,71,0,0,,,,,,,,,8/8 Overcast,3200.0,,FEW,1200,BKN,3300.0,OVC,9900.0,,
KRDR,01-20-2005,22:00,METAR,,10,10,,,9999,Light Snow/Cloud Development Not Observable,-12.0,-12.0,30.19,1024.9,,,,71,0,0,,,,,,,,,8/8 Overcast,3200.0,,FEW,1500,OVC,3300.0,,,,
KRDR,01-20-2005,21:35,SPECI,,360,10,,,9999,Light Snow/Cloud Development Not Observable,-12.0,-12.0,30.18,,,,,71,0,0,,,,,,,,,8/8 Overcast,3200.0,,FEW,1200,BKN,3300.0,OVC,9900.0,,
KRDR,01-20-2005,21:00,METAR,,10,12,,,9999,Light Snow/Cloud Development Not Observable,-12.0,-12.0,30.17,1024.2,,,,71,0,0,,,,,,,,,8/8 Overcast,2000.0,,BKN,2000,OVC,4000.0,,,,
KRDR,01-20-2005,20:00,METAR,,10,10,,,9999,Light Snow/Cloud Development Not Observable,-12.0,-12.0,30.16,1023.8,,,,71,0,0,,,,,,,,,7/8 Mostly Cloudy,2000.0,,FEW,700,SCT,2000.0,BKN,4000.0,BKN,9900.0
KRDR,01-20-2005,19:00,METAR,,20,10,,,9999,Light Snow/Cloud Development Not Observable,-12.0,-12.0,30.15,1023.5,,,,71,0,0,,,,,,,,,7/8 Mostly Cloudy,3900.0,,SCT,700,BKN,4000.0,BKN,9900.0,,
KRDR,01-20-2005,18:00,METAR,,10,8,,,9999,Cloud Development Not Observable,-12.0,-12.0,30.16,1023.9,,,,0,0,0,,,,,,,IN,,7/8 Mostly Cloudy,3900.0,,SCT,700,BKN,4000.0,BKN,9900.0,,
KRDR,01-20-2005,17:22,SPECI,,30,7,,,9999,Cloud Development Not Observable,-12.0,-12.0,30.15,,,,,0,0,0,,,,,,,,,7/8 Mostly Cloudy,3900.0,,SCT,700,BKN,4000.0,BKN,25000.0,,
KRDR,01-20-2005,17:00,METAR,,20,8,,,9999,Cloud Development Not Observable,-12.0,-12.0,30.14,1023.4,,,,0,0,0,,,,,,,,,8/8 Overcast,3900.0,,SCT,700,OVC,4000.0,,,,
KRDR,01-20-2005,16:31,SPECI,,30,6,,,9999,Cloud Development Not Observable,-12.0,-12.0,30.13,,,,,0,0,0,,,,,,,,,8/8 Overcast,700.0,,BKN,700,OVC,4000.0,,,,
KRDR,01-20-2005,16:00,METAR,,30,7,,,6400,Light Snow/Mist/Cloud Development Not Observable,-12.0,-12.0,30.12,1022.5,,,,71,10,0,,,,,,,,,8/8 Overcast,700.0,,BKN,700,OVC,4000.0,,,,
KRDR,01-20-2005,15:05,SPECI,,10,8,,,3200,Light Snow/Mist/Cloud Development Not Observable,-12.0,-12.0,30.10,,,,,71,10,0,,,,,,,,,8/8 Overcast,600.0,,BKN,600,BKN,1500.0,OVC,4000.0,,
KRDR,01-20-2005,15:00,METAR,,10,8,,,1600,Light Snow/Mist/Cloud Development Not Observable,-12.0,-12.0,30.09,1021.6,,,,71,10,0,,,,,,.06 IN,,,8/8 Overcast,400.0,,BKN,400,OVC,1500.0,,,,
KRDR,01-20-2005,14:24,SPECI,,10,7,,,3200,Light Snow/Cloud Development Not Observable,-12.0,-12.0,30.08,,,,,71,0,0,,,,,,,,,8/8 Overcast,600.0,,BKN,600,OVC,3000.0,,,,
KRDR,01-20-2005,14:00,METAR,,10,5,,,1600,Light Snow/Mist/Cloud Development Not Observable,-12.0,-12.0,30.06,1020.6,,,,71,10,0,,,,,,,,,8/8 Overcast,400.0,,BKN,400,OVC,2500.0,,,,
KRDR,01-20-2005,13:14,SPECI,,10,5,,,3200,Light Snow/Cloud Development Not Observable,-12.0,-12.0,30.06,,,,,71,0,0,,,,,,,,,8/8 Overcast,600.0,,BKN,600,OVC,3000.0,,,,
KRDR,01-20-2005,13:00,METAR,,310,4,,,1600,Snow/Cloud Development Not Observable,-11.0,-11.0,30.04,1019.9,,,,73,0,0,,,,,,,,,8/8 Overcast,600.0,,BKN,600,OVC,3000.0,,,,
KRDR,01-20-2005,12:32,SPECI,,20,4,,,1600,Snow/Cloud Development Not Observable,-12.0,-12.0,30.04,,,,,73,0,0,,,,,,,,,8/8 Overcast,600.0,,BKN,600,OVC,1800.0,,,,
KRDR,01-20-2005,12:16,SPECI,,20,4,,,1000,Heavy Snow/Cloud Development Not Observable,-13.0,-13.0,30.03,,,,,75,0,0,,,,,,,,,8/8 Overcast,600.0,,BKN,600,OVC,1800.0,,,,
KRDR,01-20-2005,11:38,SPECI,,40,3,,,6400,Light Snow/Cloud Development Not Observable,-13.0,-13.0,30.02,,,,,71,0,0,,,,,,,,,8/8 Overcast,600.0,,OVC,600,,,,,,
KRDR,01-20-2005,11:00,METAR,,30,4,,,8000,Light Snow/Cloud Development Not Observable,-13.0,-13.0,30.01,1019.1,,,,71,0,0,,,,,,,,,8/8 Overcast,600.0,,OVC,600,,,,,,
KRDR,01-20-2005,10:00,METAR,,20,2,,,9999,Light Snow/Cloud Development Not Observable,-13.0,-13.0,30.03,1019.6,,,,71,0,0,,,,,,,,,8/8 Overcast,600.0,,OVC,600,,,,,,
KRDR,01-20-2005,09:00,METAR,,70,4,,,6400,Light Snow/Cloud Development Not Observable,-12.0,-13.0,30.03,1019.6,,,,71,0,0,,,,,,TRACE,,,8/8 Overcast,600.0,,OVC,600,,,,,,
KRDR,01-20-2005,08:31,SPECI,,80,3,,,6400,Light Snow/Cloud Development Not Observable,-13.0,-13.0,30.03,,,,,71,0,0,,,,,,,,,8/8 Overcast,600.0,,BKN,600,OVC,1500.0,,,,
KRDR,01-20-2005,08:00,METAR,,80,3,,,3200,Light Snow/Cloud Development Not Observable,-13.0,-13.0,30.02,1019.4,,,,71,0,0,,,,,,,,,8/8 Overcast,1000.0,,SCT,500,OVC,1000.0,,,,
KRDR,01-20-2005,07:00,METAR,,80,2,,,3200,Light Snow/Cloud Development Not Observable,-13.0,-13.0,30.04,1020.1,,,,71,0,0,,,,,,,,,8/8 Overcast,1000.0,,SCT,500,OVC,1000.0,,,,
KRDR,01-20-2005,06:00,METAR,,90,4,,,3200,Light Snow/Cloud Development Not Observable,-14.0,-14.0,30.04,1020.1,,,,71,0,0,,,,,,,.02 IN,,8/8 Overcast,1400.0,,SCT,500,OVC,1400.0,,,,
KRDR,01-20-2005,05:00,METAR,,70,5,,,3200,Light Snow/Mist/Cloud Development Not Observable,-14.0,-14.0,30.06,1020.7,,,,71,10,0,,,,,,,,,8/8 Overcast,1000.0,,SCT,500,OVC,1000.0,,,,
KRDR,01-20-2005,04:00,METAR,,90,5,,,3200,Light Snow/Mist/Cloud Development Not Observable,-14.0,-14.0,30.07,1021.0,,,,71,10,0,,,,,,,,,8/8 Overcast,1000.0,,SCT,500,BKN,1000.0,OVC,1500.0,,
KRDR,01-20-2005,03:00,METAR,,100,5,,,4800,Light Snow/Mist/Cloud Development Not Observable,-14.0,-14.0,30.09,1021.8,,,,71,10,0,,,,,,.01 IN,,,8/8 Overcast,1500.0,,FEW,500,BKN,1500.0,OVC,2500.0,,
KRDR,01-20-2005,02:00,METAR,,110,5,,,4800,Light Snow/Mist/Cloud Development Not Observable,-15.0,-15.0,30.10,1022.2,,,,71,10,0,,,,,,,,,8/8 Overcast,2500.0,,SCT,1500,OVC,2500.0,,,,
KRDR,01-20-2005,01:00,METAR,,100,5,,,4800,Light Snow/Mist/Cloud Development Not Observable,-15.0,-15.0,30.12,1022.9,,,,71,10,0,,,,,,,,,8/8 Overcast,2500.0,,SCT,1500,BKN,2500.0,OVC,3200.0,,
KRDR,01-20-2005,00:00,METAR,,140,6,,,6400,Light Snow/Mist/Cloud Development Not Observable,-15.0,-15.0,30.15,1023.8,,,,71,10,0,,,,,,,.02 IN,,8/8 Overcast,2000.0,,FEW,1300,SCT,2000.0,OVC,3200.0,,
KRDR,01-19-2005,23:45,METAR,,120,6,,,6400,Light Snow/Mist/Cloud Development Not Observable,-15.0,-15.0,30.15,,,,,71,10,0,,,,,,,,,8/8 Overcast,3100.0,,SCT,2600,OVC,3200.0,,,,
KRDR,01-19-2005,23:21,SPECI,,130,7,,,4400,Light Snow/Mist/Cloud Development Not Observable,-15.0,-15.0,30.15,,,,,71,10,0,,,,,,,,,8/8 Overcast,3100.0,,SCT,2500,OVC,3100.0,,,,
KRDR,01-19-2005,23:00,METAR,,150,5,,,4000,Light Snow/Mist/Cloud Development Not Observable,-15.0,-15.0,30.16,1024.2,,,,71,10,0,,,,,,,,,8/8 Overcast,2500.0,,FEW,1500,BKN,2500.0,OVC,4000.0,,
KRDR,01-19-2005,22:00,METAR,,140,5,,,3200,Light Snow/Mist/Cloud Development Not Observable,-15.0,-16.0,30.19,1025.2,,,,71,10,0,,,,,,,,,8/8 Overcast,1300.0,,OVC,1300,,,,,,
KRDR,01-19-2005,21:33,SPECI,,110,7,,,3200,Light Snow/Mist/Cloud Development Not Observable,-15.0,-16.0,30.19,,,,,71,10,0,,,,,,,,,8/8 Overcast,1300.0,,OVC,1300,,,,,,
KRDR,01-19-2005,21:14,SPECI,,120,5,,,1600,Light Snow/Mist/Cloud Development Not Observable,-16.0,-17.0,30.20,,,,,71,10,0,,,,,,,,,8/8 Overcast,1500.0,,OVC,1500,,,,,,
KRDR,01-19-2005,21:00,METAR,,120,4,,,8000,Light Snow/Mist/Cloud Development Not Observable,-16.0,-17.0,30.21,1025.9,,,,71,10,0,,,,,,.01 IN,,,8/8 Overcast,2500.0,,FEW,1500,BKN,2500.0,OVC,3100.0,,
KRDR,01-19-2005,20:21,SPECI,,100,5,,,8000,Light Snow/Cloud Development Not Observable,-15.0,-17.0,30.20,,,,,71,0,0,,,,,,,,,8/8 Overcast,2300.0,,SCT,1200,BKN,2300.0,OVC,3500.0,,
KRDR,01-19-2005,20:00,METAR,,110,5,,,8000,Light Snow/Cloud Development Not Observable,-15.0,-17.0,30.22,1026.0,,,,71,0,0,,,,,,,,,8/8 Overcast,2300.0,,FEW,1400,BKN,2300.0,OVC,5400.0,,
KRDR,01-19-2005,19:40,SPECI,,90,5,,,8000,Light Snow/Cloud Development Not Observable,-15.0,-17.0,30.23,,,,,71,0,0,,,,,,,,,8/8 Overcast,2500.0,,FEW,1400,SCT,2500.0,OVC,5900.0,,
KRDR,01-19-2005,19:06,SPECI,,120,4,,,9999,Light Snow/Cloud Development Not Observable,-15.0,-18.0,30.24,,,,,71,0,0,,,,,,,,,7/8 Mostly Cloudy,4100.0,,BKN,4200,BKN,12000.0,,,,
KRDR,01-19-2005,19:00,METAR,,90,6,,,9999,Cloud Development Not Observable,-15.0,-18.0,30.25,1027.1,,,,0,0,0,,,,,,,,,7/8 Mostly Cloudy,12000.0,,SCT,5000,BKN,12000.0,,,,
KRDR,01-19-2005,18:00,METAR,,80,6,,,9999,Cloud Development Not Observable,-15.0,-18.0,30.28,1027.9,,,,0,0,0,,,,,,,IN,,7/8 Mostly Cloudy,7000.0,,FEW,2500,SCT,6900.0,BKN,12000.0,,
KRDR,01-19-2005,17:00,METAR,,30,7,,,9999,Cloud Development Not Observable,-15.0,-17.0,30.30,1028.6,,,,0,0,0,,,,,,,,,8/8 Overcast,2500.0,,BKN,2500,BKN,6900.0,OVC,12000.0,,
KRDR,01-19-2005,16:00,METAR,,20,7,,,9999,Cloud Development Not Observable,-15.0,-17.0,30.30,1028.6,,,,0,0,0,,,,,,,,,8/8 Overcast,2500.0,,BKN,2500,OVC,12000.0,,,,
KRDR,01-19-2005,15:00,METAR,,360,10,,,9999,Cloud Development Not Observable,-16.0,-17.0,30.29,1028.1,,,,0,0,0,,,,,,TRACE,,,8/8 Overcast,2500.0,,SCT,1900,OVC,2500.0,,,,
KRDR,01-19-2005,14:00,METAR,,20,9,,,9999,Cloud Development Not Observable,-15.0,-16.0,30.29,1028.0,,,,0,0,0,,,,,,,,,8/8 Overcast,2400.0,,BKN,2400,OVC,2900.0,,,,
KRDR,01-19-2005,13:00,METAR,,10,15,,,9999,Light Snow/Cloud Development Not Observable,-15.0,-16.0,30.28,1027.7,,,,71,0,0,,,,,,,,,8/8 Overcast,2800.0,,FEW,1500,OVC,2800.0,,,,
KRDR,01-19-2005,12:04,SPECI,,360,13,,,9999,Light Snow/Cloud Development Not Observable,-14.0,-15.0,30.26,,,,,71,0,0,,,,,,,,,8/8 Overcast,2900.0,,SCT,1500,OVC,2900.0,,,,
KRDR,01-19-2005,12:00,METAR,,360,13,,,9999,Cloud Development Not Observable,-14.0,-15.0,30.25,1026.9,,,,0,0,0,,,,,,,IN,,8/8 Overcast,2800.0,,FEW,1500,OVC,2800.0,,,,
KRDR,01-19-2005,11:00,METAR,,350,12,,,9999,Cloud Development Not Observable,-14.0,-14.0,30.23,1025.9,,,,0,0,0,,,,,,,,,8/8 Overcast,2600.0,,FEW,2000,BKN,2600.0,OVC,9900.0,,
KRDR,01-19-2005,10:00,METAR,,10,12,,,9999,Cloud Development Not Observable,-13.0,-14.0,30.21,1025.3,,,,0,0,0,,,,,,,,,7/8 Mostly Cloudy,2900.0,,FEW,2000,BKN,2900.0,,,,
KRDR,01-19-2005,09:00,METAR,,350,16,,,9999,Cloud Development Not Observable,-12.0,-13.0,30.19,1024.5,,,,0,0,0,,,,,,TRACE,,,8/8 Overcast,2500.0,,SCT,1400,OVC,2500.0,,,,
KRDR,01-19-2005,08:00,METAR,,360,12,,,9999,Light Snow/Cloud Development Not Observable,-11.0,-12.0,30.16,1023.2,,,,71,0,0,,,,,,,,,8/8 Overcast,2700.0,,SCT,1400,OVC,2700.0,,,,
KRDR,01-19-2005,07:00,METAR,,350,14,,,9999,Light Snow/Cloud Development Not Observable,-11.0,-12.0,30.12,,,,,71,0,0,,,,,,,,,8/8 Overcast,2900.0,,SCT,2000,OVC,2900.0,,,,
KRDR,01-19-2005,06:00,METAR,,360,10,,,9999,Light Snow/Cloud Development Not Observable,-11.0,-11.0,30.10,,,,,71,0,0,,,,,,,IN,,8/8 Overcast,2900.0,,SCT,2000,OVC,2900.0,,,,
KRDR,01-19-2005,05:09,SPECI,,360,14,,,9999,Light Snow/Cloud Development Not Observable,-10.0,-10.0,30.07,,,,,71,0,0,,,,,,,,,8/8 Overcast,2600.0,,SCT,1600,OVC,2600.0,,,,
KRDR,01-19-2005,05:00,METAR,,350,16,23.0,,9999,Cloud Development Not Observable,-9.0,-11.0,30.05,1019.6,,,,0,0,0,,,,,,,,,8/8 Overcast,2800.0,,OVC,2800,,,,,,
KRDR,01-19-2005,04:00,METAR,,340,19,25.0,330/26KTS,9999,Cloud Development Not Observable,-8.0,-10.0,30.01,,,,,0,0,0,,,,,,,,,8/8 Overcast,2600.0,,OVC,2600,,,,,,
KRDR,01-19-2005,03:00,METAR,,350,15,26.0,330/28KTS,9999,Cloud Development Not Observable,-7.0,-8.0,29.97,1016.9,,,,0,0,0,,,,,,,,,8/8 Overcast,2500.0,,SCT,1500,OVC,2500.0,,,,
KRDR,01-19-2005,02:23,SPECI,,350,22,27.0,,9999,Cloud Development Not Observable,-7.0,-8.0,29.94,,,,,0,0,0,,,,,,,,,8/8 Overcast,2300.0,,SCT,1500,OVC,2300.0,,,,
KRDR,01-19-2005,02:00,METAR,,340,22,26.0,,9999,Cloud Development Not Observable,-6.0,-6.0,29.91,1014.9,,,,0,0,0,,,,,,,,,8/8 Overcast,1500.0,,BKN,1500,OVC,2400.0,,,,
KRDR,01-19-2005,01:00,METAR,,350,17,21.0,,9999,Cloud Development Not Observable,-6.0,-6.0,29.86,1013.5,,,,0,0,0,,,,,,,,,8/8 Overcast,1500.0,,FEW,1000,OVC,1500.0,,,,
KRDR,01-19-2005,00:00,METAR,,360,18,25.0,350/26KTS,9999,Cloud Development Not Observable,-5.0,-5.0,29.80,1011.4,,,,0,0,0,,,,,,,.03 IN,,8/8 Overcast,1600.0,,SCT,1000,OVC,1600.0,,,,
KRDR,01-18-2005,23:00,METAR,,340,21,25.0,310/30KTS,9999,Cloud Development Not Observable,-2.0,-3.0,29.72,1008.5,,,,0,0,0,,,,,,,,,8/8 Overcast,1500.0,,FEW,1000,BKN,1500.0,OVC,12000.0,,
KRDR,01-18-2005,22:45,METAR,,350,19,30.0,,9999,Cloud Development Not Observable,-1.0,-2.0,29.71,,,,,0,0,0,,,,,,,,,8/8 Overcast,1500.0,,BKN,1500,OVC,12000.0,,,,
KRDR,01-18-2005,22:00,METAR,,340,22,29.0,330/32KTS,9999,Cloud Development Not Observable,1.0,-1.0,29.64,1005.6,,,,0,0,0,,,,,,,,,8/8 Overcast,2200.0,,BKN,2200,OVC,12000.0,,,,
KRDR,01-18-2005,21:00,METAR,,320,21,26.0,310/27KTS,9999,Cloud Development Not Observable,2.0,1.0,29.58,1003.5,,,,0,0,0,,,,,,.03 IN,,,8/8 Overcast,1800.0,,BKN,1800,OVC,4000.0,,,,
KRDR,01-18-2005,20:45,METAR,,310,22,27.0,,9999,Cloud Development Not Observable,3.0,1.0,29.57,,,,,0,0,0,,,,,,,,,8/8 Overcast,1800.0,,BKN,1800,OVC,4000.0,,,,
KRDR,01-18-2005,20:30,METAR,,320,20,25.0,,9999,Rain/Cloud Development Not Observable,2.0,1.0,29.56,,,,,61,0,0,,,,,,,,,8/8 Overcast,2000.0,,BKN,2000,OVC,4000.0,,,,
KRDR,01-18-2005,20:00,METAR,,310,20,25.0,,9999,Rain/Cloud Development Not Observable,3.0,1.0,29.53,1001.8,,,,61,0,0,,,,,,,,,8/8 Overcast,3900.0,,SCT,2000,BKN,4000.0,OVC,9900.0,,
KRDR,01-18-2005,19:27,SPECI,,310,15,,,9999,Rain/Cloud Development Not Observable,3.0,0.0,29.53,,,,,61,0,0,,,,,,,,,8/8 Overcast,2000.0,,BKN,2000,OVC,4000.0,,,,
KRDR,01-18-2005,19:00,METAR,,240,8,,,9999,Cloud Development Not Observable,1.0,-1.0,29.53,1002.0,,,,0,0,0,,,,,,,,,8/8 Overcast,6000.0,,SCT,2200,BKN,5900.0,OVC,9900.0,,
KRDR,01-18-2005,18:18,SPECI,,200,14,,,9999,Cloud Development Not Observable,-1.0,-3.0,29.54,,,,,0,0,0,,,,,,,,,7/8 Mostly Cloudy,4900.0,,SCT,2200,BKN,5000.0,BKN,6900.0,,
KRDR,01-18-2005,18:00,METAR,,200,16,,,9999,Blowing Snow/Cloud Development Not Observable,-2.0,-3.0,29.55,1002.9,,,,38,0,0,,,,,,,IN,,8/8 Overcast,5500.0,,SCT,1400,BKN,5400.0,OVC,6900.0,,
KRDR,01-18-2005,17:40,SPECI,,200,15,,,9999,Blowing Snow/Cloud Development Not Observable,-3.0,-4.0,29.56,,,,,38,0,0,,,,,,,,,8/8 Overcast,5500.0,,SCT,1400,BKN,5400.0,OVC,6900.0,,
KRDR,01-18-2005,17:17,SPECI,,170,20,25.0,,8000,Light Snow/Blowing Snow/Cloud Development Not Observable,-4.0,-4.0,29.57,,,,,71,38,0,,,,,,,,,8/8 Overcast,5500.0,,SCT,1400,BKN,5400.0,OVC,6900.0,,
KRDR,01-18-2005,17:02,SPECI,,190,26,,,9999,Mist/Cloud Development Not Observable,-4.0,-4.0,29.58,,,,,10,0,0,,,,,,,,,8/8 Overcast,5500.0,,SCT,1300,BKN,5400.0,OVC,6900.0,,
KRDR,01-18-2005,17:00,METAR,,190,21,,,8000,Ice Pellets/Light Freezing Rain/Mist,-4.0,-4.0,29.59,1004.4,,,,66,79,10,,,,,,,,,8/8 Overcast,1300.0,,BKN,1300,OVC,5400.0,,,,
KRDR,01-18-2005,16:15,SPECI,,190,19,,,6400,Ice Pellets/Light Freezing Rain/Mist,-4.0,-4.0,29.62,,,,,66,79,10,,,,,,,,,8/8 Overcast,1300.0,,BKN,1300,OVC,4000.0,,,,
KRDR,01-18-2005,16:06,SPECI,,190,18,,,4800,Ice Pellets/Light Snow/Mist,-5.0,-5.0,29.63,,,,,71,79,10,,,,,,,,,8/8 Overcast,1300.0,,BKN,1300,OVC,4000.0,,,,
KRDR,01-18-2005,16:00,METAR,,180,18,,,8000,Ice Pellets/Light Freezing Rain/Mist,-5.0,-5.0,29.63,1005.8,,,,66,79,10,,,,,,,,,8/8 Overcast,1300.0,,BKN,1300,OVC,4000.0,,,,
KRDR,01-18-2005,15:18,SPECI,,170,17,,,8000,Ice Pellets/Light Freezing Rain/Mist,-7.0,-7.0,29.65,,,,,66,79,10,,,,,,,,,8/8 Overcast,1500.0,,BKN,1500,OVC,4000.0,,,,
KRDR,01-18-2005,15:00,METAR,,180,17,,170/26KTS,4800,Light Freezing Rain/Mist/Cloud Development Not Observable,-9.0,-9.0,29.70,1008.4,,,,66,10,0,,,,,,TRACE,,,8/8 Overcast,1400.0,,BKN,1400,OVC,5000.0,,,,
KRDR,01-18-2005,14:28,SPECI,,180,18,,,6400,Light Freezing Rain/Mist/Cloud Development Not Observable,-9.0,-9.0,29.72,,,,,66,10,0,,,,,,,,,8/8 Overcast,1400.0,,OVC,1400,,,,,,
KRDR,01-18-2005,14:00,METAR,,180,22,27.0,170/30KTS,6400,Blowing Snow/Cloud Development Not Observable,-10.0,-10.0,29.72,1009.4,,,,38,0,0,,,,,,,,,8/8 Overcast,1200.0,,OVC,1200,,,,,,
KRDR,01-18-2005,13:00,METAR,,160,21,28.0,170/31KTS,6400,Blowing Snow/Cloud Development Not Observable,-10.0,-10.0,29.77,1010.9,,,,38,0,0,,,,,,,,,8/8 Overcast,1200.0,,OVC,1200,,,,,,
KRDR,01-18-2005,12:00,METAR,,180,24,,180/27KTS,6400,Blowing Snow/Cloud Development Not Observable,-11.0,-11.0,29.84,1013.6,,,,38,0,0,,,,,,,IN,,8/8 Overcast,1500.0,,OVC,1500,,,,,,
KRDR,01-18-2005,11:00,METAR,,180,22,27.0,180/29KTS,6400,Blowing Snow/Cloud Development Not Observable,-12.0,-12.0,29.94,1016.8,,,,38,0,0,,,,,,,,,8/8 Overcast,1500.0,,OVC,1500,,,,,,
KRDR,01-18-2005,10:00,METAR,,180,22,29.0,180/29KTS,8000,Blowing Snow/Cloud Development Not Observable,-13.0,-13.0,29.99,1018.6,,,,38,0,0,,,,,,,,,8/8 Overcast,1500.0,,OVC,1500,,,,,,
KRDR,01-18-2005,09:22,SPECI,,180,23,,,6400,Blowing Snow/Cloud Development Not Observable,-13.0,-13.0,30.03,,,,,38,0,0,,,,,,,,,8/8 Overcast,1600.0,,OVC,1600,,,,,,
KRDR,01-18-2005,09:00,METAR,,180,19,,180/29KTS,6400,Light Snow/Blowing Snow/Cloud Development Not Observable,-14.0,-14.0,30.06,1021.0,,,,71,38,0,,,,,,TRACE,,,8/8 Overcast,1800.0,,OVC,1800,,,,,,
KRDR,01-18-2005,08:00,METAR,,180,22,,180/25KTS,9999,Blowing Snow/Cloud Development Not Observable,-15.0,-15.0,30.09,1022.2,,,,38,0,0,,,,,,,,,8/8 Overcast,1600.0,,BKN,1600,OVC,4000.0,,,,
KRDR,01-18-2005,07:24,SPECI,,170,19,,,9999,Cloud Development Not Observable,-16.0,-16.0,30.16,,,,,0,0,0,,,,,,,,,8/8 Overcast,1800.0,,BKN,1800,OVC,4000.0,,,,
KRDR,01-18-2005,07:00,METAR,,170,20,,180/28KTS,9999,Blowing Snow/Cloud Development Not Observable,-16.0,-16.0,30.19,1025.7,,,,38,0,0,,,,,,,,,8/8 Overcast,3000.0,,SCT,1400,OVC,3000.0,,,,
KRDR,01-18-2005,06:00,METAR,,170,20,,170/29KTS,8000,Blowing Snow/Cloud Development Not Observable,-16.0,-17.0,30.25,1027.9,,,,38,0,0,,,,,,,,,8/8 Overcast,3900.0,,SCT,1400,BKN,4000.0,OVC,7900.0,,
KRDR,01-18-2005,05:00,METAR,,170,23,,,8000,Blowing Snow/Cloud Development Not Observable,-17.0,-18.0,30.32,1030.3,,,,38,0,0,,,,,,,,,8/8 Overcast,8000.0,,SCT,2000,OVC,7900.0,,,,
KRDR,01-18-2005,04:00,METAR,,180,19,,,8000,Blowing Snow/Cloud Development Not Observable,-18.0,-20.0,30.38,1032.6,,,,38,0,0,,,,,,,,,8/8 Overcast,8000.0,,SCT,2000,OVC,7900.0,,,,
KRDR,01-18-2005,03:00,METAR,,170,18,,,9999,Cloud Development Not Observable,-20.0,-21.0,30.42,1037.5,,,,0,0,0,,,,,,,,,7/8 Mostly Cloudy,8000.0,,BKN,7900,,,,,,
KRDR,01-18-2005,02:00,METAR,,170,11,,,9999,Cloud Development Not Observable,-24.0,-25.0,30.51,1037.5,,,,0,0,0,,,,,,,,,2/8 Mostly Clear,72000.0,,FEW,20000,,,,,,
KRDR,01-18-2005,01:00,METAR,,160,9,,,9999,Cloud Development Not Observable,-24.0,-25.0,30.55,1039.0,,,,0,0,0,,,,,,,,,2/8 Mostly Clear,72000.0,,FEW,20000,,,,,,
KRDR,01-18-2005,00:00,METAR,,150,9,,,9999,Cloud Development Not Observable,-25.0,-25.0,30.59,1040.5,,,,0,0,0,,,,,,,,,2/8 Mostly Clear,72000.0,,FEW,20000,,,,,,
KRDR,01-17-2005,23:00,METAR,,160,9,,,9999,Cloud Development Not Observable,-24.0,-25.0,30.61,1041.1,,,,0,0,0,,,,,,,,,2/8 Mostly Clear,72000.0,,FEW,20000,,,,,,
KRDR,01-17-2005,22:00,METAR,,160,11,,,9999,Cloud Development Not Observable,-23.0,-25.0,30.65,1042.1,,,,0,0,0,,,,,,,,,2/8 Mostly Clear,72000.0,,FEW,20000,,,,,,
KRDR,01-17-2005,21:00,METAR,,160,6,,,9999,Cloud Development Not Observable,-23.0,-25.0,30.69,1043.5,,,,0,0,0,,,,,,,,,2/8 Mostly Clear,72000.0,,FEW,25000,,,,,,
KRDR,01-17-2005,20:00,METAR,,180,13,,,9999,Cloud Development Not Observable,-23.0,-25.0,30.70,1044.0,,,,0,0,0,,,,,,,,,2/8 Mostly Clear,72000.0,,FEW,25000,,,,,,
KRDR,01-17-2005,19:00,METAR,,170,8,,,9999,Cloud Development Not Observable,-23.0,-26.0,30.75,1045.6,,,,0,0,0,,,,,,,,,2/8 Mostly Clear,72000.0,,FEW,25000,,,,,,
KRDR,01-17-2005,18:00,METAR,,160,9,,,9999,Cloud Development Not Observable,-24.0,-26.0,30.78,1046.7,,,,0,0,0,,,,,,,,,Clear,72000.0,,,73000,,,,,,
KRDR,01-17-2005,17:00,METAR,,180,7,,,9999,Cloud Development Not Observable,-28.0,-28.0,30.82,1048.3,,,,0,0,0,,,,,,,,,Clear,72000.0,,,73000,,,,,,
KRDR,01-17-2005,16:00,METAR,,190,2,,,9999,Cloud Development Not Observable,-32.0,-32.0,30.81,1048.2,,,,0,0,0,,,,,,,,,2/8 Mostly Clear,72000.0,,FEW,20000,,,,,,
KRDR,01-17-2005,15:00,METAR,,200,1,,,9999,Cloud Development Not Observable,-35.0,-35.0,30.81,1048.2,,,,0,0,0,,,,,,,,,Clear,72000.0,,,73000,,,,,,
KRDR,01-17-2005,14:00,METAR,,190,2,,,9999,Cloud Development Not Observable,-35.0,-35.0,30.80,1047.8,,,,0,0,0,,,,,,,,,4/8 Partly Cloudy,72000.0,,SCT,20000,,,,,,
KRDR,01-17-2005,13:00,METAR,,,0,,,9999,Cloud Development Not Observable,-36.0,-36.0,30.80,1047.8,,,,0,0,0,,,,,,,,,2/8 Mostly Clear,72000.0,,FEW,20000,,,,,,
KRDR,01-17-2005,12:00,METAR,,210,2,,,9999,Cloud Development Not Observable,-35.0,-35.0,30.79,1047.2,,,,0,0,0,,,,,,,,,2/8 Mostly Clear,72000.0,,FEW,20000,,,,,,
KRDR,01-17-2005,11:00,METAR,,,0,,,9999,Cloud Development Not Observable,-35.0,-35.0,30.78,1046.8,,,,0,0,0,,,,,,,,,2/8 Mostly Clear,72000.0,,FEW,20000,,,,,,
KRDR,01-17-2005,10:00,METAR,,220,1,,,9999,Cloud Development Not Observable,-35.0,-35.0,30.77,1046.5,,,,0,0,0,,,,,,,,,2/8 Mostly Clear,72000.0,,FEW,20000,,,,,,
KRDR,01-17-2005,09:00,METAR,,210,4,,,9999,Cloud Development Not Observable,-35.0,-35.0,30.78,1046.7,,,,0,0,0,,,,,,,,,Clear,72000.0,,,73000,,,,,,
KRDR,01-17-2005,08:00,METAR,,,0,,,9999,Cloud Development Not Observable,-35.0,-35.0,30.76,1046.0,,,,0,0,0,,,,,,,,,Clear,72000.0,,,73000,,,,,,
KRDR,01-17-2005,07:00,METAR,,,0,,,9999,Cloud Development Not Observable,-35.0,-35.0,30.76,1046.1,,,,0,0,0,,,,,,,,,Clear,72000.0,,,73000,,,,,,
KRDR,01-17-2005,06:00,METAR,,,2,,,9999,Cloud Development Not Observable,-34.0,-34.0,30.77,1046.4,,,,0,0,0,,,,,,,,,Clear,72000.0,,,73000,,,,,,
KRDR,01-17-2005,05:00,METAR,,240,4,,,9999,Cloud Development Not Observable,-34.0,-34.0,30.75,1045.7,,,,0,0,0,,,,,,,,,Clear,72000.0,,,73000,,,,,,
KRDR,01-17-2005,04:00,METAR,,210,3,,,9999,Cloud Development Not Observable,-34.0,-34.0,30.74,1045.5,,,,0,0,0,,,,,,,,,Clear,72000.0,,,73000,,,,,,
KRDR,01-17-2005,03:00,METAR,,230,3,,,9999,Cloud Development Not Observable,-31.0,-31.0,30.73,1045.0,,,,0,0,0,,,,,,,,,Clear,72000.0,,,73000,,,,,,
KRDR,01-17-2005,02:00,METAR,,210,3,,,9999,Cloud Development Not Observable,-31.0,-31.0,30.73,1045.1,,,,0,0,0,,,,,,,,,Clear,72000.0,,,73000,,,,,,
KRDR,01-17-2005,01:00,METAR,,190,4,,,9999,Cloud Development Not Observable,-30.0,-30.0,30.72,1044.7,,,,0,0,0,,,,,,,,,Clear,72000.0,,,73000,,,,,,
KRDR,01-17-2005,00:00,METAR,,160,4,,,9999,Cloud Development Not Observable,-27.0,-28.0,30.72,1044.5,,,,0,0,0,,,,,,,,,Clear,72000.0,,,73000,,,,,,
KRDR,01-16-2005,23:00,METAR,,130,3,,,9999,Cloud Development Not Observable,-25.0,-27.0,30.72,1044.3,,,,0,0,0,,,,,,,,,Clear,72000.0,,,73000,,,,,,
KRDR,01-16-2005,22:00,METAR,,120,1,,,9999,Cloud Development Not Observable,-24.0,-27.0,30.71,1043.9,,,,0,0,0,,,,,,,,,Clear,72000.0,,,73000,,,,,,
KRDR,01-16-2005,21:00,METAR,,,0,,,9999,Cloud Development Not Observable,-23.0,-26.0,30.70,1043.5,,,,0,0,0,,,,,,,,,Clear,72000.0,,,73000,,,,,,
KRDR,01-16-2005,20:00,METAR,,50,1,,,9999,Cloud Development Not Observable,-24.0,-28.0,30.71,1044.1,,,,0,0,0,,,,,,,,,Clear,72000.0,,,73000,,,,,,
KRDR,01-16-2005,19:00,METAR,,340,2,,,9999,Cloud Development Not Observable,-25.0,-28.0,30.73,1044.5,,,,0,0,0,,,,,,,,,Clear,72000.0,,,73000,,,,,,
KRDR,01-16-2005,18:00,METAR,,310,4,,,9999,Cloud Development Not Observable,-26.0,-29.0,30.74,1045.0,,,,0,0,0,,,,,,,,,2/8 Mostly Clear,72000.0,,FEW,20000,,,,,,
KRDR,01-16-2005,17:00,METAR,,310,5,,,9999,Cloud Development Not Observable,-27.0,-29.0,30.75,1045.4,,,,0,0,0,,,,,,,,,2/8 Mostly Clear,72000.0,,FEW,20000,,,,,,
KRDR,01-16-2005,15:00,METAR,,290,5,,,9999,Cloud Development Not Observable,-30.0,-31.0,30.72,1044.6,,,,0,0,0,,,,,,,,,Clear,72000.0,,,73000,,,,,,
KRDR,01-16-2005,14:00,METAR,,290,5,,,9999,Cloud Development Not Observable,-31.0,-31.0,30.72,1044.7,,,,0,0,0,,,,,,,,,Clear,72000.0,,,73000,,,,,,
KRDR,01-16-2005,13:00,METAR,,280,6,,,9999,Cloud Development Not Observable,-30.0,-31.0,30.71,1044.2,,,,0,0,0,,,,,,,,,Clear,72000.0,,,73000,,,,,,
KRDR,01-16-2005,12:00,METAR,,300,7,,,9999,Cloud Development Not Observable,-29.0,-30.0,30.71,1044.0,,,,0,0,0,,,,,,,,,Clear,72000.0,,,73000,,,,,,
KRDR,01-16-2005,11:00,METAR,,290,6,,,9999,Cloud Development Not Observable,-28.0,-29.0,30.70,1043.4,,,,0,0,0,,,,,,,,,Clear,72000.0,,,73000,,,,,,
KRDR,01-16-2005,10:00,METAR,,300,6,,,9999,Cloud Development Not Observable,-28.0,-28.0,30.70,1043.4,,,,0,0,0,,,,,,,,,Clear,72000.0,,,73000,,,,,,
KRDR,01-16-2005,09:00,METAR,,300,8,,,9999,Cloud Development Not Observable,-28.0,-28.0,30.70,1043.4,,,,0,0,0,,,,,,,,,Clear,72000.0,,,73000,,,,,,
KRDR,01-16-2005,08:00,METAR,,280,6,,,9999,Cloud Development Not Observable,-29.0,-29.0,30.69,1043.0,,,,0,0,0,,,,,,,,,Clear,72000.0,,,73000,,,,,,
KRDR,01-16-2005,07:00,METAR,,310,7,,,9999,Cloud Development Not Observable,-26.0,-27.0,30.68,1042.6,,,,0,0,0,,,,,,,,,Clear,72000.0,,,73000,,,,,,
KRDR,01-16-2005,06:00,METAR,,270,4,,,9999,Cloud Development Not Observable,-27.0,-27.0,30.68,1042.7,,,,0,0,0,,,,,,,,,Clear,72000.0,,,73000,,,,,,
KRDR,01-16-2005,05:00,METAR,,260,5,,,9999,Cloud Development Not Observable,-28.0,-28.0,30.67,1042.6,,,,0,0,0,,,,,,,,,Clear,72000.0,,,73000,,,,,,
KRDR,01-16-2005,04:00,METAR,,260,6,,,9999,Cloud Development Not Observable,-29.0,-29.0,30.67,1042.6,,,,0,0,0,,,,,,,,,Clear,72000.0,,,73000,,,,,,
KRDR,01-16-2005,03:00,METAR,,180,4,,,9999,Cloud Development Not Observable,-28.0,-28.0,30.66,1042.3,,,,0,0,0,,,,,,,,,Clear,72000.0,,,73000,,,,,,
KRDR,01-16-2005,02:00,METAR,,230,6,,,9999,Cloud Development Not Observable,-30.0,-30.0,30.67,1042.9,,,,0,0,0,,,,,,,,,Clear,72000.0,,,73000,,,,,,
KRDR,01-16-2005,01:00,METAR,,230,4,,,9999,Cloud Development Not Observable,-29.0,-29.0,30.67,1042.8,,,,0,0,0,,,,,,,,,Clear,72000.0,,,73000,,,,,,
KRDR,01-16-2005,00:00,METAR,,210,3,,,9999,Cloud Development Not Observable,-26.0,-27.0,30.66,1042.3,,,,0,0,0,,,,,,,,,Clear,72000.0,,,73000,,,,,,
KRDR,01-15-2005,23:00,METAR,,240,2,,,9999,Cloud Development Not Observable,-22.0,-25.0,30.66,1042.1,,,,0,0,0,,,,,,,,,Clear,72000.0,,,73000,,,,,,
KRDR,01-15-2005,22:00,METAR,,290,3,,,9999,Cloud Development Not Observable,-21.0,-24.0,30.65,1041.6,,,,0,0,0,,,,,,,,,Clear,72000.0,,,73000,,,,,,
KRDR,01-15-2005,21:00,METAR,,280,5,,,9999,Cloud Development Not Observable,-20.0,-25.0,30.62,1040.8,,,,0,0,0,,,,,,,,,Clear,72000.0,,,73000,,,,,,
KRDR,01-15-2005,20:00,METAR,,290,7,,,9999,Cloud Development Not Observable,-20.0,-24.0,30.63,1041.0,,,,0,0,0,,,,,,,,,Clear,72000.0,,,73000,,,,,,
KRDR,01-15-2005,19:00,METAR,,280,5,,,9999,Cloud Development Not Observable,-21.0,-25.0,30.65,1041.7,,,,0,0,0,,,,,,,,,Clear,72000.0,,,73000,,,,,,
KRDR,01-15-2005,18:00,METAR,,290,4,,,9999,Cloud Development Not Observable,-22.0,-26.0,30.66,1042.0,,,,0,0,0,,,,,,,,,Clear,72000.0,,,73000,,,,,,
KRDR,01-15-2005,17:00,METAR,,310,6,,,9999,Cloud Development Not Observable,-23.0,-26.0,30.67,1042.3,,,,0,0,0,,,,,,,,,Clear,72000.0,,,73000,,,,,,
KRDR,01-15-2005,16:00,METAR,,270,9,,,9999,Cloud Development Not Observable,-25.0,-27.0,30.63,1041.2,,,,0,0,0,,,,,,,,,Clear,72000.0,,,73000,,,,,,
KRDR,01-15-2005,15:00,METAR,,270,8,,,9999,Cloud Development Not Observable,-27.0,-28.0,30.62,1041.0,,,,0,0,0,,,,,,,,,Clear,72000.0,,,73000,,,,,,
KRDR,01-15-2005,14:00,METAR,,230,4,,,9999,Cloud Development Not Observable,-30.0,-30.0,30.62,1041.1,,,,0,0,0,,,,,,,,,Clear,72000.0,,,73000,,,,,,
KRDR,01-15-2005,13:00,METAR,,240,9,,,9999,Cloud Development Not Observable,-29.0,-29.0,30.62,1041.0,,,,0,0,0,,,,,,,,,Clear,72000.0,,,73000,,,,,,
KRDR,01-15-2005,12:00,METAR,,260,8,,,9999,Cloud Development Not Observable,-27.0,-28.0,30.62,1041.1,,,,0,0,0,,,,,,,,,Clear,72000.0,,,73000,,,,,,
KRDR,01-15-2005,11:00,METAR,,250,7,,,9999,Cloud Development Not Observable,-27.0,-28.0,30.61,1040.8,,,,0,0,0,,,,,,,,,Clear,72000.0,,,73000,,,,,,
KRDR,01-15-2005,10:00,METAR,,250,6,,,9999,Cloud Development Not Observable,-28.0,-29.0,30.61,1040.8,,,,0,0,0,,,,,,,,,Clear,72000.0,,,73000,,,,,,
KRDR,01-15-2005,09:00,METAR,,280,7,,,9999,Cloud Development Not Observable,-26.0,-28.0,30.61,1040.6,,,,0,0,0,,,,,,,,,Clear,72000.0,,,73000,,,,,,
KRDR,01-15-2005,08:00,METAR,,290,8,,,9999,Cloud Development Not Observable,-26.0,-28.0,30.59,1039.9,,,,0,0,0,,,,,,,,,Clear,72000.0,,,73000,,,,,,
KRDR,01-15-2005,07:00,METAR,,260,12,,,9999,Cloud Development Not Observable,-26.0,-28.0,30.59,1039.8,,,,0,0,0,,,,,,,,,Clear,72000.0,,,73000,,,,,,
KRDR,01-15-2005,06:00,METAR,,280,12,,,9999,Drifting Snow/Cloud Development Not Observable,-26.0,-27.0,30.59,1039.8,,,,36,0,0,,,,,,,,,Clear,72000.0,,,73000,,,,,,
KRDR,01-15-2005,05:00,METAR,,280,17,,,9999,Drifting Snow/Cloud Development Not Observable,-25.0,-27.0,30.58,1039.6,,,,36,0,0,,,,,,,,,Clear,72000.0,,,73000,,,,,,
KRDR,01-15-2005,04:00,METAR,,290,14,,,9999,Cloud Development Not Observable,-25.0,-27.0,30.56,1038.9,,,,0,0,0,,,,,,,,,Clear,72000.0,,,73000,,,,,,
KRDR,01-15-2005,03:00,METAR,,280,11,,,9999,Cloud Development Not Observable,-26.0,-27.0,30.56,1039.1,,,,0,0,0,,,,,,,,,Clear,72000.0,,,73000,,,,,,
KRDR,01-15-2005,02:00,METAR,,280,14,,,9999,Cloud Development Not Observable,-26.0,-27.0,30.56,1038.9,,,,0,0,0,,,,,,,,,Clear,72000.0,,,73000,,,,,,
KRDR,01-15-2005,01:00,METAR,,280,14,,,9999,Cloud Development Not Observable,-25.0,-26.0,30.54,1038.3,,,,0,0,0,,,,,,,,,Clear,72000.0,,,73000,,,,,,
KRDR,01-15-2005,00:00,METAR,,270,15,,,9999,Cloud Development Not Observable,-25.0,-26.0,30.53,1037.9,,,,0,0,0,,,,,,,,,Clear,72000.0,,,73000,,,,,,
KRDR,01-14-2005,23:00,METAR,,270,18,,,9999,Cloud Development Not Observable,-25.0,-26.0,30.51,1037.1,,,,0,0,0,,,,,,,,,Clear,72000.0,,,73000,,,,,,
KRDR,01-14-2005,22:00,METAR,,270,15,20.0,,9999,Cloud Development Not Observable,-24.0,-26.0,30.50,1036.8,,,,0,0,0,,,,,,,,,Clear,72000.0,,,73000,,,,,,
KRDR,01-14-2005,21:00,METAR,,280,11,18.0,,9999,Cloud Development Not Observable,-23.0,-26.0,30.50,1036.6,,,,0,0,0,,,,,,,,,Clear,72000.0,,,73000,,,,,,
KRDR,01-14-2005,20:00,METAR,,270,13,18.0,,9999,Cloud Development Not Observable,-23.0,-26.0,30.50,1036.6,,,,0,0,0,,,,,,,,,Clear,72000.0,,,73000,,,,,,
KRDR,01-14-2005,19:00,METAR,,270,12,21.0,,9999,Cloud Development Not Observable,-24.0,-26.0,30.51,1037.0,,,,0,0,0,,,,,,,,,Clear,72000.0,,,73000,,,,,,
KRDR,01-14-2005,18:00,METAR,,260,15,21.0,,9999,Cloud Development Not Observable,-25.0,-27.0,30.51,1037.0,,,,0,0,0,,,,,,,,,2/8 Mostly Clear,72000.0,,FEW,22000,,,,,,
KRDR,01-14-2005,17:00,METAR,,260,15,,,9999,Cloud Development Not Observable,-25.0,-28.0,30.52,1037.3,,,,0,0,0,,,,,,,,,2/8 Mostly Clear,72000.0,,FEW,22000,,,,,,
KRDR,01-14-2005,16:00,METAR,,260,12,,,9999,Cloud Development Not Observable,-26.0,-29.0,30.53,1037.9,,,,0,0,0,,,,,,,,,4/8 Partly Cloudy,72000.0,,FEW,12000,SCT,22000.0,,,,
KRDR,01-14-2005,15:00,METAR,,240,8,,,9999,Cloud Development Not Observable,-29.0,-30.0,30.51,1037.2,,,,0,0,0,,,,,,,,,2/8 Mostly Clear,72000.0,,FEW,12000,,,,,,
KRDR,01-14-2005,14:00,METAR,,240,11,,,9999,Cloud Development Not Observable,-29.0,-30.0,30.52,1037.5,,,,0,0,0,,,,,,,,,Clear,72000.0,,,73000,,,,,,
KRDR,01-14-2005,13:00,METAR,,260,11,,,9999,Cloud Development Not Observable,-28.0,-30.0,30.53,1037.9,,,,0,0,0,,,,,,,,,Clear,72000.0,,,73000,,,,,,
KRDR,01-14-2005,12:00,METAR,,270,10,,,9999,Cloud Development Not Observable,-29.0,-29.0,30.54,1038.4,,,,0,0,0,,,,,,,,,Clear,72000.0,,,73000,,,,,,
KRDR,01-14-2005,11:00,METAR,,280,14,,,9999,Cloud Development Not Observable,-28.0,-29.0,30.53,1037.8,,,,0,0,0,,,,,,,,,Clear,72000.0,,,73000,,,,,,
KRDR,01-14-2005,10:00,METAR,,280,10,,,9999,Cloud Development Not Observable,-27.0,-29.0,30.52,1037.5,,,,0,0,0,,,,,,,,,Clear,72000.0,,,73000,,,,,,
KRDR,01-14-2005,09:00,METAR,,280,8,,,9999,Cloud Development Not Observable,-28.0,-29.0,30.53,1037.6,,,,0,0,0,,,,,,,,,Clear,72000.0,,,73000,,,,,,
KRDR,01-14-2005,08:00,METAR,,270,13,,,9999,Cloud Development Not Observable,-27.0,-29.0,30.51,1036.9,,,,0,0,0,,,,,,,,,Clear,72000.0,,,73000,,,,,,
KRDR,01-14-2005,07:00,METAR,,280,14,,,9999,Cloud Development Not Observable,-27.0,-28.0,30.49,1036.3,,,,0,0,0,,,,,,,,,Clear,72000.0,,,73000,,,,,,
KRDR,01-14-2005,06:00,METAR,,280,11,,,9999,Cloud Development Not Observable,-26.0,-28.0,30.50,1036.5,,,,0,0,0,,,,,,,,,Clear,72000.0,,,73000,,,,,,
KRDR,01-14-2005,05:00,METAR,,290,15,,,9999,Cloud Development Not Observable,-26.0,-28.0,30.47,1035.7,,,,0,0,0,,,,,,,,,Clear,72000.0,,,73000,,,,,,
KRDR,01-14-2005,03:00,METAR,,300,9,,,9999,Cloud Development Not Observable,-26.0,-27.0,30.44,1034.7,,,,0,0,0,,,,,,,,,Clear,72000.0,,,73000,,,,,,
KRDR,01-14-2005,02:00,METAR,,310,12,,,9999,Drifting Snow/Cloud Development Not Observable,-26.0,-27.0,30.42,1034.0,,,,36,0,0,,,,,,,,,Clear,72000.0,,,73000,,,,,,
KRDR,01-14-2005,01:00,METAR,,300,12,,,9999,Drifting Snow/Cloud Development Not Observable,-25.0,-25.0,30.40,1033.3,,,,36,0,0,,,,,,,,,2/8 Mostly Clear,72000.0,,FEW,1200,,,,,,
KRDR,01-14-2005,00:00,METAR,,300,14,,,9999,Drifting Snow/Cloud Development Not Observable,-25.0,-25.0,30.37,1032.2,,,,36,0,0,,,,,,,,,2/8 Mostly Clear,72000.0,,FEW,1200,,,,,,
KRDR,01-13-2005,23:00,METAR,,310,16,,,9999,Drifting Snow/Cloud Development Not Observable,-24.0,-25.0,30.34,1031.1,,,,36,0,0,,,,,,,,,2/8 Mostly Clear,72000.0,,FEW,1200,,,,,,
KRDR,01-13-2005,22:00,METAR,,310,19,,,8000,Blowing Snow/Cloud Development Not Observable,-23.0,-24.0,30.31,1029.9,,,,38,0,0,,,,,,,,,4/8 Partly Cloudy,72000.0,,SCT,1200,SCT,20000.0,,,,
KRDR,01-13-2005,21:00,METAR,,310,13,20.0,,9999,Drifting Snow/Cloud Development Not Observable,-21.0,-23.0,30.27,1028.5,,,,36,0,0,,,,,,,,,4/8 Partly Cloudy,72000.0,,SCT,1500,,,,,,
KRDR,01-13-2005,20:00,METAR,,310,11,16.0,,9999,Drifting Snow/Cloud Development Not Observable,-21.0,-23.0,30.27,1028.5,,,,36,0,0,,,,,,,,,2/8 Mostly Clear,72000.0,,FEW,1000,,,,,,
KRDR,01-13-2005,19:00,METAR,,310,16,22.0,,9999,Drifting Snow/Cloud Development Not Observable,-22.0,-23.0,30.25,1027.8,,,,36,0,0,,,,,,,,,2/8 Mostly Clear,72000.0,,FEW,1000,,,,,,
KRDR,01-13-2005,18:00,METAR,,310,15,21.0,,9999,Drifting Snow/Cloud Development Not Observable,-23.0,-24.0,30.24,1027.3,,,,36,0,0,,,,,,,,,2/8 Mostly Clear,72000.0,,FEW,1500,,,,,,
KRDR,01-13-2005,17:00,METAR,,300,14,20.0,,9999,Drifting Snow/Cloud Development Not Observable,-24.0,-25.0,30.24,1027.4,,,,36,0,0,,,,,,,,,Clear,72000.0,,,73000,,,,,,
KRDR,01-13-2005,16:00,METAR,,300,18,22.0,,9999,Drifting Snow/Cloud Development Not Observable,-24.0,-26.0,30.20,1025.9,,,,36,0,0,,,,,,,,,Clear,72000.0,,,73000,,,,,,
KRDR,01-13-2005,15:00,METAR,,290,14,18.0,,9999,Drifting Snow/Cloud Development Not Observable,-25.0,-26.0,30.16,1024.4,,,,36,0,0,,,,,,,,,Clear,72000.0,,,73000,,,,,,
KRDR,01-13-2005,14:00,METAR,,300,15,20.0,290/26KTS,9999,Drifting Snow/Cloud Development Not Observable,-25.0,-26.0,30.13,1023.3,,,,36,0,0,,,,,,,,,Clear,72000.0,,,73000,,,,,,
KRDR,01-13-2005,13:00,METAR,,300,18,23.0,,9999,Drifting Snow/Cloud Development Not Observable,-25.0,-25.0,30.07,1021.3,,,,36,0,0,,,,,,,,,Clear,72000.0,,,73000,,,,,,
KRDR,01-13-2005,12:35,SPECI,,300,14,26.0,,9999,Drifting Snow/Cloud Development Not Observable,-25.0,-25.0,30.05,,,,,36,0,0,,,,,,,,,Clear,72000.0,,,73000,,,,,,
KRDR,01-13-2005,12:24,SPECI,,300,22,,,1600,Blowing Snow/Cloud Development Not Observable,-25.0,-25.0,30.05,,,,,38,0,0,,,,,,,,,Clear,72000.0,,,73000,,,,,,
KRDR,01-13-2005,12:08,SPECI,,300,21,,,3200,Blowing Snow/Cloud Development Not Observable,-24.0,-25.0,30.03,,,,,38,0,0,,,,,,,,,Clear,72000.0,,,73000,,,,,,
KRDR,01-13-2005,12:00,METAR,,300,19,,,4800,Blowing Snow/Cloud Development Not Observable,-25.0,-25.0,30.03,1019.7,,,,38,0,0,,,,,,,,.02 IN,Clear,72000.0,,,73000,,,,,,
KRDR,01-13-2005,11:07,SPECI,,300,21,,,3200,Blowing Snow/Cloud Development Not Observable,-24.0,-24.0,30.01,,,,,38,0,0,,,,,,,,,2/8 Mostly Clear,72000.0,,FEW,2000,,,,,,
KRDR,01-13-2005,11:00,METAR,,300,19,,,6400,Blowing Snow/Cloud Development Not Observable,-24.0,-24.0,30.00,1018.7,,,,38,0,0,,,,,,,,,2/8 Mostly Clear,72000.0,,FEW,2000,,,,,,
KRDR,01-13-2005,10:33,SPECI,,300,17,25.0,,4800,Blowing Snow/Cloud Development Not Observable,-24.0,-24.0,29.99,,,,,38,0,0,,,,,,,,,2/8 Mostly Clear,72000.0,,FEW,2000,,,,,,
KRDR,01-13-2005,10:21,SPECI,,300,19,,,3200,Blowing Snow/Cloud Development Not Observable,-24.0,-24.0,29.98,,,,,38,0,0,,,,,,,,,2/8 Mostly Clear,72000.0,,FEW,2000,,,,,,
KRDR,01-13-2005,10:00,METAR,,300,17,,,8000,Blowing Snow/Cloud Development Not Observable,-23.0,-23.0,29.98,1017.8,,,,38,0,0,,,,,,,,,4/8 Partly Cloudy,72000.0,,SCT,2000,,,,,,
KRDR,01-13-2005,09:00,METAR,,310,15,,,9999,Drifting Snow/Cloud Development Not Observable,-22.0,-23.0,29.96,1017.1,,,,36,0,0,,,,,,,,,2/8 Mostly Clear,72000.0,,FEW,2000,,,,,,
KRDR,01-13-2005,08:00,METAR,,300,12,,,9999,Drifting Snow/Cloud Development Not Observable,-21.0,-22.0,29.94,1016.4,,,,36,0,0,,,,,,,,,2/8 Mostly Clear,72000.0,,FEW,2000,,,,,,
KRDR,01-13-2005,07:30,METAR,,310,14,,,9999,Drifting Snow/Cloud Development Not Observable,-21.0,-21.0,29.93,,,,,36,0,0,,,,,,,,,2/8 Mostly Clear,72000.0,,FEW,2000,,,,,,
KRDR,01-13-2005,07:00,METAR,,310,21,,310/30KTS,4000,Blowing Snow/Cloud Development Not Observable,-20.0,-21.0,29.89,1014.6,,,,38,0,0,,,,,,,,,4/8 Partly Cloudy,72000.0,,SCT,2000,,,,,,
KRDR,01-13-2005,06:31,SPECI,,310,17,,,9999,Blowing Snow/Cloud Development Not Observable,-20.0,-20.0,29.87,,,,,38,0,0,,,,,,,,,4/8 Partly Cloudy,72000.0,,SCT,2000,,,,,,
KRDR,01-13-2005,06:25,METAR,,310,21,,,1600,Blowing Snow/Cloud Development Not Observable,-19.0,-20.0,29.86,,,,,38,0,0,,,,,,,,,4/8 Partly Cloudy,72000.0,,SCT,2000,,,,,,
KRDR,01-13-2005,06:13,SPECI,,310,25,30.0,,1000,Blowing Snow/Cloud Development Not Observable,-19.0,-20.0,29.86,,,,,38,0,0,,,,,,,,,4/8 Partly Cloudy,72000.0,,SCT,1500,,,,,,
KRDR,01-13-2005,06:07,SPECI,,310,20,30.0,,1600,Blowing Snow/Cloud Development Not Observable,-19.0,-20.0,29.86,,,,,38,0,0,,,,,,,,,4/8 Partly Cloudy,72000.0,,SCT,2000,,,,,,
KRDR,01-13-2005,06:00,METAR,,310,19,28.0,310/28KTS,8000,Blowing Snow/Cloud Development Not Observable,-18.0,-18.0,29.86,1013.6,,,,38,0,0,,,,,,,,,4/8 Partly Cloudy,72000.0,,SCT,2000,,,,,,
KRDR,01-13-2005,05:00,METAR,,310,15,,,9999,Drifting Snow/Cloud Development Not Observable,-18.0,-18.0,29.83,1012.7,,,,36,0,0,,,,,,,,,4/8 Partly Cloudy,72000.0,,SCT,1800,,,,,,
KRDR,01-13-2005,04:00,METAR,,320,18,,320/27KTS,6400,Blowing Snow/Cloud Development Not Observable,-16.0,-16.0,29.80,1011.6,,,,38,0,0,,,,,,,,,8/8 Overcast,1700.0,,OVC,1700,,,,,,
KRDR,01-13-2005,03:49,SPECI,,320,22,,,3200,Blowing Snow/Cloud Development Not Observable,-16.0,-16.0,29.79,,,,,38,0,0,,,,,,,,,8/8 Overcast,1800.0,,OVC,1800,,,,,,
KRDR,01-13-2005,03:00,METAR,,310,18,,310/25KTS,9999,Blowing Snow/Cloud Development Not Observable,-13.0,-14.0,29.72,1008.8,,,,38,0,0,,,,,,,,,8/8 Overcast,2000.0,,OVC,2000,,,,,,
KRDR,01-13-2005,02:00,METAR,,320,22,,320/27KTS,4800,Blowing Snow/Cloud Development Not Observable,-11.0,-12.0,29.66,1006.6,,,,38,0,0,,,,,,,,,8/8 Overcast,2600.0,,OVC,2600,,,,,,
KRDR,01-13-2005,01:06,SPECI,,300,18,,,9999,Cloud Development Not Observable,-9.0,-10.0,29.64,,,,,0,0,0,,,,,,,,,8/8 Overcast,2500.0,,FEW,1000,BKN,2500.0,OVC,7900.0,,
KRDR,01-13-2005,01:00,METAR,,300,19,,300/25KTS,9999,Cloud Development Not Observable,-9.0,-10.0,29.62,1005.3,,,,0,0,0,,,,,,,,,7/8 Mostly Cloudy,3000.0,,SCT,1800,BKN,3000.0,BKN,12000.0,,
KRDR,01-13-2005,00:03,SPECI,,290,14,,,9999,Cloud Development Not Observable,-7.0,-9.0,29.59,,,,,0,0,0,,,,,,,,,7/8 Mostly Cloudy,3900.0,,SCT,1700,BKN,4000.0,BKN,12000.0,,
KRDR,01-13-2005,00:00,METAR,,290,14,,,9999,Cloud Development Not Observable,-7.0,-8.0,29.58,1003.7,,,,0,0,0,,,,,,,,,7/8 Mostly Cloudy,3400.0,,SCT,1800,BKN,3500.0,BKN,12000.0,,
KRDR,01-12-2005,23:00,METAR,,290,18,,,9999,Cloud Development Not Observable,-5.0,-6.0,29.54,1002.2,,,,0,0,0,,,,,,,,,7/8 Mostly Cloudy,3400.0,,SCT,1800,BKN,3500.0,BKN,12000.0,,
KRDR,01-12-2005,22:00,METAR,,300,7,,,9999,Cloud Development Not Observable,-4.0,-6.0,29.51,1001.1,,,,0,0,0,,,,,,,,,8/8 Overcast,1700.0,,BKN,1700,OVC,3500.0,,,,
KRDR,01-12-2005,21:06,SPECI,,290,10,,,9999,Cloud Development Not Observable,-5.0,-6.0,29.48,,,,,0,0,0,,,,,,,,,8/8 Overcast,1700.0,,BKN,1700,OVC,3500.0,,,,
KRDR,01-12-2005,21:00,METAR,,280,12,,,9999,Cloud Development Not Observable,-5.0,-6.0,29.48,1000.5,,,,0,0,0,,,,,,,,,8/8 Overcast,3000.0,,SCT,1500,OVC,3000.0,,,,
KRDR,01-12-2005,20:00,METAR,,280,11,,,9999,Cloud Development Not Observable,-5.0,-6.0,29.48,1000.6,,,,0,0,0,,,,,,,,,8/8 Overcast,3000.0,,SCT,1500,OVC,3000.0,,,,
KRDR,01-12-2005,19:00,METAR,,200,4,,,9999,Cloud Development Not Observable,-6.0,-7.0,29.47,1000.3,,,,0,0,0,,,,,,,,,8/8 Overcast,3000.0,,BKN,3000,OVC,7900.0,,,,
KRDR,01-12-2005,18:00,METAR,,200,3,,,9999,Cloud Development Not Observable,-7.0,-8.0,29.50,1001.3,,,,0,0,0,,,,,,,.02 IN,,8/8 Overcast,3400.0,,FEW,2000,OVC,3500.0,,,,
KRDR,01-12-2005,17:40,SPECI,,230,2,,,9999,Cloud Development Not Observable,-8.0,-8.0,29.51,,,,,0,0,0,,,,,,,,,8/8 Overcast,3400.0,,FEW,2000,OVC,3500.0,,,,
KRDR,01-12-2005,17:00,METAR,,270,3,,,9999,Cloud Development Not Observable,-9.0,-9.0,29.53,1002.3,,,,0,0,0,,,,,,,,,8/8 Overcast,3400.0,,BKN,3500,OVC,6900.0,,,,
KRDR,01-12-2005,16:00,METAR,,310,3,,,9999,Cloud Development Not Observable,-10.0,-10.0,29.54,1002.8,,,,0,0,0,,,,,,,.02 IN,,8/8 Overcast,3900.0,,FEW,1700,BKN,4000.0,OVC,6900.0,,
KRDR,01-12-2005,15:37,SPECI,,300,3,,,9999,Cloud Development Not Observable,-10.0,-10.0,29.54,,,,,0,0,0,,,,,,,,,8/8 Overcast,3400.0,,FEW,1500,BKN,3500.0,OVC,5900.0,,
KRDR,01-12-2005,15:00,METAR,,330,3,,,9999,Light Snow/Mist/Cloud Development Not Observable,-10.0,-10.0,29.54,1002.8,,,,71,10,0,,,,,,.02 IN,,,8/8 Overcast,3900.0,,BKN,4000,OVC,6900.0,,,,
KRDR,01-12-2005,14:10,SPECI,,,1,,,8000,Light Snow/Mist/Cloud Development Not Observable,-10.0,-10.0,29.54,,,,,71,10,0,,,,,,,,,8/8 Overcast,3900.0,,FEW,2000,BKN,4000.0,OVC,5900.0,,
KRDR,01-12-2005,14:00,METAR,,360,2,,,6400,Light Snow/Mist/Cloud Development Not Observable,-10.0,-10.0,29.55,1003.2,,,,71,10,0,,,,,,,,,8/8 Overcast,6000.0,,FEW,2500,BKN,5900.0,OVC,7900.0,,
KRDR,01-12-2005,13:45,METAR,,340,3,,,6400,Light Snow/Mist/Cloud Development Not Observable,-10.0,-10.0,29.55,,,,,71,10,0,,,,,,,,,8/8 Overcast,6000.0,,SCT,2000,OVC,5900.0,,,,
KRDR,01-12-2005,13:30,METAR,,350,4,,,4800,Light Snow/Mist/Cloud Development Not Observable,-9.0,-9.0,29.56,,,,,71,10,0,,,,,,,,,8/8 Overcast,6000.0,,SCT,2500,OVC,5900.0,,,,
KRDR,01-12-2005,13:00,METAR,,330,4,,,4000,Light Snow/Fog or Ice Fog/Cloud Development Not Observable,-9.0,-9.0,29.56,1003.5,,,,71,44,0,,,,,,,,,8/8 Overcast,2500.0,,BKN,2500,OVC,6400.0,,,,
KRDR,01-12-2005,12:00,METAR,,,0,,,4000,Light Snow/Cloud Development Not Observable,-9.0,-9.0,29.58,1004.2,,,,71,0,0,,,,,,,.03 IN,,8/8 Overcast,2000.0,,BKN,2000,OVC,8400.0,,,,
KRDR,01-12-2005,11:00,METAR,,150,4,,,3200,Light Snow/Cloud Development Not Observable,-9.0,-9.0,29.59,1004.6,,,,71,0,0,,,,,,,,,8/8 Overcast,2500.0,,BKN,2500,OVC,8400.0,,,,
KRDR,01-12-2005,10:05,SPECI,,130,7,,,3200,Light Snow/Cloud Development Not Observable,-10.0,-10.0,29.61,,,,,71,0,0,,,,,,,,,8/8 Overcast,2500.0,,BKN,2500,OVC,8400.0,,,,
KRDR,01-12-2005,10:00,METAR,,130,5,,,4800,Light Snow/Cloud Development Not Observable,-10.0,-10.0,29.63,1006.0,,,,71,0,0,,,,,,,,,8/8 Overcast,2500.0,,BKN,2500,OVC,8400.0,,,,
KRDR,01-12-2005,09:00,METAR,,140,4,,,3200,Light Snow/Cloud Development Not Observable,-11.0,-11.0,29.67,1007.6,,,,71,0,0,,,,,,TRACE,,,8/8 Overcast,2300.0,,BKN,2300,OVC,8400.0,,,,
KRDR,01-12-2005,08:39,SPECI,,140,4,,,4000,Light Snow/Cloud Development Not Observable,-12.0,-12.0,29.68,,,,,71,0,0,,,,,,,,,8/8 Overcast,2300.0,,BKN,2300,OVC,8400.0,,,,
KRDR,01-12-2005,08:16,SPECI,,160,5,,,3200,Light Snow/Cloud Development Not Observable,-12.0,-12.0,29.68,,,,,71,0,0,,,,,,,,,8/8 Overcast,1100.0,,BKN,1100,OVC,8400.0,,,,
KRDR,01-12-2005,08:00,METAR,,160,4,,,8000,Light Snow/Cloud Development Not Observable,-13.0,-13.0,29.70,1008.6,,,,71,0,0,,,,,,,,,8/8 Overcast,2100.0,,BKN,2100,OVC,8400.0,,,,
KRDR,01-12-2005,07:00,METAR,,150,4,,,8000,Light Snow/Cloud Development Not Observable,-15.0,-15.0,29.74,1009.9,,,,71,0,0,,,,,,,,,8/8 Overcast,2100.0,,OVC,2100,,,,,,
KRDR,01-12-2005,06:21,SPECI,,150,4,,,8000,Light Snow/Cloud Development Not Observable,-15.0,-15.0,29.78,,,,,71,0,0,,,,,,,,,8/8 Overcast,2100.0,,OVC,2100,,,,,,
KRDR,01-12-2005,06:00,METAR,,150,4,,,4800,Light Snow/Cloud Development Not Observable,-16.0,-16.0,29.78,1011.4,,,,71,0,0,,,,,,,IN,,8/8 Overcast,2000.0,,BKN,2000,OVC,3500.0,,,,
KRDR,01-12-2005,05:21,SPECI,,150,3,,,8000,Light Snow/Cloud Development Not Observable,-16.0,-16.0,29.79,,,,,71,0,0,,,,,,,,,8/8 Overcast,3900.0,,BKN,4000,OVC,6900.0,,,,
KRDR,01-12-2005,05:00,METAR,,180,5,,,9999,Cloud Development Not Observable,-17.0,-17.0,29.79,1011.9,,,,0,0,0,,,,,,,,,8/8 Overcast,8000.0,,SCT,5000,OVC,7900.0,,,,
KRDR,01-12-2005,04:00,METAR,,160,3,,,9999,Cloud Development Not Observable,-18.0,-18.0,29.82,1012.9,,,,0,0,0,,,,,,,,,8/8 Overcast,10000.0,,OVC,9900,,,,,,
KRDR,01-12-2005,03:00,METAR,,,0,,,9999,Cloud Development Not Observable,-19.0,-19.0,29.83,1013.5,,,,0,0,0,,,,,,,,,8/8 Overcast,11000.0,,BKN,11000,OVC,20000.0,,,,
KRDR,01-12-2005,02:00,METAR,,170,2,,,9999,Cloud Development Not Observable,-20.0,-20.0,29.86,1014.5,,,,0,0,0,,,,,,,,,7/8 Mostly Cloudy,18000.0,,SCT,12000,BKN,18000.0,,,,
KRDR,01-12-2005,01:00,METAR,,140,2,,,9999,Cloud Development Not Observable,-20.0,-20.0,29.86,1014.5,,,,0,0,0,,,,,,,,,8/8 Overcast,12000.0,,BKN,12000,OVC,20000.0,,,,
KRDR,01-12-2005,00:00,METAR,,130,4,,,9999,Cloud Development Not Observable,-20.0,-21.0,29.89,1015.7,,,,0,0,0,,,,,,,,,7/8 Mostly Cloudy,20000.0,,SCT,12000,BKN,20000.0,,,,
KRDR,01-11-2005,23:00,METAR,,120,1,,,9999,Cloud Development Not Observable,-21.0,-21.0,29.91,1016.7,,,,0,0,0,,,,,,,,,7/8 Mostly Cloudy,18000.0,,SCT,11000,BKN,18000.0,,,,
KRDR,01-11-2005,22:00,METAR,,110,4,,,9999,Cloud Development Not Observable,-20.0,-21.0,29.92,1016.7,,,,0,0,0,,,,,,,,,7/8 Mostly Cloudy,18000.0,,SCT,11000,BKN,18000.0,,,,
KRDR,01-11-2005,21:00,METAR,,130,6,,,9999,Cloud Development Not Observable,-20.0,-21.0,29.95,1017.7,,,,0,0,0,,,,,,,,,4/8 Partly Cloudy,72000.0,,SCT,15000,SCT,22000.0,,,,
KRDR,01-11-2005,20:00,METAR,,160,5,,,9999,Cloud Development Not Observable,-19.0,-21.0,29.98,1018.6,,,,0,0,0,,,,,,,,,7/8 Mostly Cloudy,22000.0,,FEW,15000,BKN,22000.0,,,,
KRDR,01-11-2005,19:00,METAR,,,3,,,9999,Cloud Development Not Observable,-19.0,-21.0,30.00,1019.2,,,,0,0,0,,,,,,,,,7/8 Mostly Cloudy,22000.0,,FEW,15000,BKN,22000.0,,,,
KRDR,01-11-2005,18:00,METAR,,350,4,,,9999,Cloud Development Not Observable,-20.0,-21.0,30.05,1020.9,,,,0,0,0,,,,,,,,,4/8 Partly Cloudy,72000.0,,FEW,15000,SCT,22000.0,,,,
KRDR,01-11-2005,17:00,METAR,,,1,,,9999,Cloud Development Not Observable,-20.0,-21.0,30.07,1021.5,,,,0,0,0,,,,,,,,,4/8 Partly Cloudy,72000.0,,FEW,15000,SCT,22000.0,,,,
KRDR,01-11-2005,16:00,METAR,,320,3,,,9999,Cloud Development Not Observable,-23.0,-23.0,30.06,1021.6,,,,0,0,0,,,,,,,,,7/8 Mostly Cloudy,15000.0,,BKN,15000,,,,,,
KRDR,01-11-2005,15:00,METAR,,310,9,,,9999,Cloud Development Not Observable,-22.0,-22.0,30.05,1021.1,,,,0,0,0,,,,,,,,,4/8 Partly Cloudy,72000.0,,SCT,12000,,,,,,
KRDR,01-11-2005,14:00,METAR,,300,5,,,9999,Cloud Development Not Observable,-25.0,-25.0,30.04,1021.0,,,,0,0,0,,,,,,,,,Clear,72000.0,,,73000,,,,,,
KRDR,01-11-2005,13:00,METAR,,290,6,,,9999,Cloud Development Not Observable,-25.0,-25.0,30.05,1021.3,,,,0,0,0,,,,,,,,,Clear,72000.0,,,73000,,,,,,
KRDR,01-11-2005,12:00,METAR,,230,4,,,9999,Cloud Development Not Observable,-27.0,-27.0,30.05,1021.2,,,,0,0,0,,,,,,,,,Clear,72000.0,,,73000,,,,,,
KRDR,01-11-2005,11:00,METAR,,270,3,,,9999,Cloud Development Not Observable,-27.0,-27.0,30.05,1021.1,,,,0,0,0,,,,,,,,,Clear,72000.0,,,73000,,,,,,
KRDR,01-11-2005,10:00,METAR,,280,1,,,9999,Cloud Development Not Observable,-25.0,-25.0,30.08,1021.8,,,,0,0,0,,,,,,,,,Clear,72000.0,,,73000,,,,,,
KRDR,01-11-2005,09:00,METAR,,210,6,,,9999,Cloud Development Not Observable,-24.0,-24.0,30.08,1021.7,,,,0,0,0,,,,,,,,,Clear,72000.0,,,73000,,,,,,
KRDR,01-11-2005,08:00,METAR,,190,5,,,9999,Cloud Development Not Observable,-22.0,-22.0,30.07,1021.5,,,,0,0,0,,,,,,,,,Clear,72000.0,,,73000,,,,,,
KRDR,01-11-2005,07:00,METAR,,,4,,,9999,Cloud Development Not Observable,-20.0,-20.0,30.07,1021.4,,,,0,0,0,,,,,,,,,Clear,72000.0,,,73000,,,,,,
KRDR,01-11-2005,06:00,METAR,,200,8,,,9999,Cloud Development Not Observable,-19.0,-19.0,30.07,1021.5,,,,0,0,0,,,,,,,,,Clear,72000.0,,,73000,,,,,,
KRDR,01-11-2005,05:00,METAR,,200,9,,,9999,Cloud Development Not Observable,-20.0,-20.0,30.07,1021.5,,,,0,0,0,,,,,,,,,Clear,72000.0,,,73000,,,,,,
KRDR,01-11-2005,04:00,METAR,,190,10,,,9999,Cloud Development Not Observable,-21.0,-21.0,30.08,1022.1,,,,0,0,0,,,,,,,,,Clear,72000.0,,,73000,,,,,,
KRDR,01-11-2005,03:00,METAR,,220,6,,,9999,Cloud Development Not Observable,-20.0,-20.0,30.10,1022.7,,,,0,0,0,,,,,,,,,Clear,72000.0,,,73000,,,,,,
KRDR,01-11-2005,02:00,METAR,,180,11,,,9999,Cloud Development Not Observable,-21.0,-21.0,30.09,1022.4,,,,0,0,0,,,,,,,,,Clear,72000.0,,,73000,,,,,,
KRDR,01-11-2005,01:00,METAR,,170,10,,,9999,Cloud Development Not Observable,-21.0,-21.0,30.11,1023.2,,,,0,0,0,,,,,,,,,Clear,72000.0,,,73000,,,,,,
KRDR,01-11-2005,00:00,METAR,,180,7,,,9999,Cloud Development Not Observable,-21.0,-21.0,30.14,1024.2,,,,0,0,0,,,,,,,,,Clear,72000.0,,,73000,,,,,,
KRDR,01-10-2005,23:00,METAR,,170,7,,,9999,Cloud Development Not Observable,-19.0,-20.0,30.16,1024.8,,,,0,0,0,,,,,,,,,2/8 Mostly Clear,72000.0,,FEW,20000,,,,,,
KRDR,01-10-2005,22:00,METAR,,180,8,,,9999,Cloud Development Not Observable,-18.0,-20.0,30.17,1024.9,,,,0,0,0,,,,,,,,,2/8 Mostly Clear,72000.0,,FEW,20000,,,,,,
KRDR,01-10-2005,21:00,METAR,,170,9,,,9999,Cloud Development Not Observable,-18.0,-20.0,30.18,1025.2,,,,0,0,0,,,,,,,,,2/8 Mostly Clear,72000.0,,FEW,20000,,,,,,
KRDR,01-10-2005,20:00,METAR,,170,6,,,9999,Cloud Development Not Observable,-18.0,-20.0,30.19,1025.5,,,,0,0,0,,,,,,,,,2/8 Mostly Clear,72000.0,,FEW,5900,FEW,20000.0,,,,
KRDR,01-10-2005,19:00,METAR,,180,7,,,9999,Cloud Development Not Observable,-16.0,-19.0,30.21,1026.1,,,,0,0,0,,,,,,,,,4/8 Partly Cloudy,72000.0,,FEW,5900,SCT,20000.0,,,,
KRDR,01-10-2005,18:00,METAR,,190,5,,,9999,Cloud Development Not Observable,-19.0,-21.0,30.25,1027.5,,,,0,0,0,,,,,,,,,4/8 Partly Cloudy,72000.0,,FEW,9900,SCT,20000.0,,,,
KRDR,01-10-2005,17:00,METAR,,190,5,,,9999,Cloud Development Not Observable,-21.0,-22.0,30.26,1027.9,,,,0,0,0,,,,,,,,,2/8 Mostly Clear,72000.0,,FEW,9900,FEW,20000.0,,,,
KRDR,01-10-2005,16:00,METAR,,170,3,,,9999,Cloud Development Not Observable,-24.0,-24.0,30.28,1028.7,,,,0,0,0,,,,,,,,,2/8 Mostly Clear,72000.0,,FEW,9900,FEW,20000.0,,,,
KRDR,01-10-2005,15:00,METAR,,,2,,,9999,Cloud Development Not Observable,-23.0,-23.0,30.27,1028.3,,,,0,0,0,,,,,,,,,2/8 Mostly Clear,72000.0,,FEW,9900,FEW,20000.0,,,,
KRDR,01-10-2005,14:20,METAR,,150,2,,,9999,Cloud Development Not Observable,-25.0,-25.0,30.26,,,,,0,0,0,,,,,,,,,2/8 Mostly Clear,72000.0,,FEW,9900,,,,,,
KRDR,01-10-2005,14:00,METAR,,220,1,,,9999,Cloud Development Not Observable,-23.0,-23.0,30.25,1027.6,,,,0,0,0,,,,,,,,,2/8 Mostly Clear,72000.0,,FEW,5400,,,,,,
KRDR,01-10-2005,13:00,METAR,,280,4,,,9999,Cloud Development Not Observable,-23.0,-23.0,30.27,1028.1,,,,0,0,0,,,,,,,,,2/8 Mostly Clear,72000.0,,FEW,5400,,,,,,
KRDR,01-10-2005,12:00,METAR,,280,2,,,9999,Cloud Development Not Observable,-23.0,-23.0,30.28,1028.5,,,,0,0,0,,,,,,,,,Clear,72000.0,,,73000,,,,,,
KRDR,01-10-2005,11:00,METAR,,260,2,,,9999,Cloud Development Not Observable,-23.0,-23.0,30.27,1028.1,,,,0,0,0,,,,,,,,,2/8 Mostly Clear,72000.0,,FEW,6900,,,,,,
KRDR,01-10-2005,10:00,METAR,,280,5,,,9999,Cloud Development Not Observable,-22.0,-22.0,30.27,1028.0,,,,0,0,0,,,,,,,,,Clear,72000.0,,,73000,,,,,,
KRDR,01-10-2005,09:00,METAR,,280,7,,,9999,Cloud Development Not Observable,-21.0,-22.0,30.28,1028.3,,,,0,0,0,,,,,,,,,Clear,72000.0,,,73000,,,,,,
KRDR,01-10-2005,08:00,METAR,,280,6,,,9999,Cloud Development Not Observable,-21.0,-21.0,30.26,1027.7,,,,0,0,0,,,,,,,,,2/8 Mostly Clear,72000.0,,FEW,6900,,,,,,
KRDR,01-10-2005,07:00,METAR,,290,5,,,9999,Cloud Development Not Observable,-20.0,-20.0,30.25,1027.3,,,,0,0,0,,,,,,,,,4/8 Partly Cloudy,72000.0,,SCT,6900,,,,,,
KRDR,01-10-2005,06:00,METAR,,300,7,,,9999,Cloud Development Not Observable,-18.0,-19.0,30.24,1026.9,,,,0,0,0,,,,,,,,,7/8 Mostly Cloudy,10000.0,,BKN,9900,,,,,,
KRDR,01-10-2005,05:00,METAR,,310,11,,,9999,Cloud Development Not Observable,-16.0,-17.0,30.23,1026.5,,,,0,0,0,,,,,,,,,8/8 Overcast,10000.0,,OVC,9900,,,,,,
KRDR,01-10-2005,04:00,METAR,,310,12,,,9999,Cloud Development Not Observable,-16.0,-17.0,30.24,1027.0,,,,0,0,0,,,,,,,,,7/8 Mostly Cloudy,8000.0,,BKN,7900,,,,,,
KRDR,01-10-2005,03:00,METAR,,290,9,,,9999,Cloud Development Not Observable,-15.0,-17.0,30.23,1026.6,,,,0,0,0,,,,,,,,,7/8 Mostly Cloudy,9000.0,,BKN,8900,,,,,,
KRDR,01-10-2005,02:00,METAR,,310,11,,,9999,Cloud Development Not Observable,-15.0,-16.0,30.21,1025.9,,,,0,0,0,,,,,,,,,7/8 Mostly Cloudy,7000.0,,BKN,6900,,,,,,
KRDR,01-10-2005,01:00,METAR,,310,11,,,9999,Cloud Development Not Observable,-15.0,-16.0,30.18,1024.9,,,,0,0,0,,,,,,,,,7/8 Mostly Cloudy,10000.0,,BKN,9900,,,,,,
KRDR,01-10-2005,00:00,METAR,,290,12,,,9999,Cloud Development Not Observable,-15.0,-16.0,30.16,1024.2,,,,0,0,0,,,,,,,,,7/8 Mostly Cloudy,9000.0,,BKN,8900,,,,,,
KRDR,01-09-2005,23:00,METAR,,310,8,,,9999,Cloud Development Not Observable,-15.0,-16.0,30.14,1023.5,,,,0,0,0,,,,,,,,,7/8 Mostly Cloudy,9000.0,,BKN,8900,,,,,,
KRDR,01-09-2005,22:00,METAR,,310,7,,,9999,Cloud Development Not Observable,-14.0,-15.0,30.12,1022.5,,,,0,0,0,,,,,,,,,4/8 Partly Cloudy,72000.0,,SCT,8900,,,,,,
KRDR,01-09-2005,21:00,METAR,,310,14,,,9999,Drifting Snow/Cloud Development Not Observable,-13.0,-15.0,30.09,1021.5,,,,36,0,0,,,,,,,,,2/8 Mostly Clear,72000.0,,FEW,8900,,,,,,
KRDR,01-09-2005,20:22,SPECI,,310,13,,,9999,Drifting Snow/Cloud Development Not Observable,-12.0,-14.0,30.07,,,,,36,0,0,,,,,,,,,4/8 Partly Cloudy,72000.0,,SCT,8400,,,,,,
KRDR,01-09-2005,20:00,METAR,,310,13,,,9999,Drifting Snow/Cloud Development Not Observable,-12.0,-14.0,30.06,1020.6,,,,36,0,0,,,,,,,,,7/8 Mostly Cloudy,8500.0,,BKN,8400,,,,,,
KRDR,01-09-2005,19:00,METAR,,310,10,,,9999,Cloud Development Not Observable,-12.0,-13.0,30.06,1020.5,,,,0,0,0,,,,,,,,,7/8 Mostly Cloudy,8500.0,,BKN,8400,,,,,,
KRDR,01-09-2005,18:00,METAR,,310,11,,,9999,Cloud Development Not Observable,-12.0,-13.0,30.05,1020.1,,,,0,0,0,,,,,,,.07 IN,,8/8 Overcast,8500.0,,FEW,3200,OVC,8400.0,,,,
KRDR,01-09-2005,17:11,SPECI,,330,11,,,9999,Cloud Development Not Observable,-12.0,-12.0,30.05,,,,,0,0,0,,,,,,,,,8/8 Overcast,3100.0,,FEW,1500,OVC,3200.0,,,,
KRDR,01-09-2005,17:00,METAR,,320,9,,,9999,Cloud Development Not Observable,-12.0,-12.0,30.05,1020.1,,,,0,0,0,,,,,,,,,8/8 Overcast,1500.0,,OVC,1500,,,,,,
KRDR,01-09-2005,16:40,SPECI,,330,8,,,3200,Light Snow/Cloud Development Not Observable,-12.0,-12.0,30.04,,,,,71,0,0,,,,,,,,,8/8 Overcast,1400.0,,OVC,1400,,,,,,
KRDR,01-09-2005,16:17,SPECI,,330,8,,,1600,Light Snow/Cloud Development Not Observable,-12.0,-12.0,30.06,,,,,71,0,0,,,,,,,,,Sky Obscured (Unable to Estimate),1200.0,100.0,,1200,,,,,,
KRDR,01-09-2005,16:00,METAR,,310,5,,,1200,Light Snow/Cloud Development Not Observable,-12.0,-12.0,30.07,1020.8,,,,71,0,0,,,,,,,,,Sky Obscured (Unable to Estimate),1000.0,100.0,,1000,,,,,,
KRDR,01-09-2005,15:00,METAR,,320,7,,,1200,Light Snow/Cloud Development Not Observable,-13.0,-13.0,30.02,1019.1,,,,71,0,0,,,,,,.03 IN,,,8/8 Overcast,1600.0,,OVC,1600,,,,,,
KRDR,01-09-2005,14:43,SPECI,,320,6,,,1200,Light Snow/Cloud Development Not Observable,-13.0,-13.0,30.01,,,,,71,0,0,,,,,,,,,8/8 Overcast,1500.0,,OVC,1500,,,,,,
KRDR,01-09-2005,14:32,SPECI,,320,7,,,1600,Light Snow/Cloud Development Not Observable,-13.0,-13.0,30.01,,,,,71,0,0,,,,,,,,,8/8 Overcast,2500.0,,OVC,2500,,,,,,
KRDR,01-09-2005,14:23,SPECI,,330,8,,,3200,Light Snow/Cloud Development Not Observable,-13.0,-13.0,30.00,,,,,71,0,0,,,,,,,,,8/8 Overcast,2900.0,,OVC,2900,,,,,,
KRDR,01-09-2005,14:17,SPECI,,320,7,,,4800,Light Snow/Cloud Development Not Observable,-13.0,-13.0,30.00,,,,,71,0,0,,,,,,,,,8/8 Overcast,2900.0,,OVC,2900,,,,,,
KRDR,01-09-2005,14:00,METAR,,330,8,,,9999,Light Snow/Cloud Development Not Observable,-13.0,-13.0,30.00,1018.5,,,,71,0,0,,,,,,,,,8/8 Overcast,2700.0,,OVC,2700,,,,,,
KRDR,01-09-2005,13:00,METAR,,340,5,,,9999,Light Snow/Cloud Development Not Observable,-13.0,-13.0,29.98,1017.8,,,,71,0,0,,,,,,,,,8/8 Overcast,2900.0,,OVC,2900,,,,,,
KRDR,01-09-2005,12:24,SPECI,,340,6,,,9999,Cloud Development Not Observable,-13.0,-13.0,29.98,,,,,0,0,0,,,,,,,,,8/8 Overcast,2800.0,,OVC,2800,,,,,,
KRDR,01-09-2005,12:00,METAR,,310,4,,,9999,Light Snow/Cloud Development Not Observable,-13.0,-13.0,30.00,1018.5,,,,71,0,0,,,,,,,IN,,8/8 Overcast,2800.0,,OVC,2800,,,,,,
KRDR,01-09-2005,11:00,METAR,,30,4,,,9999,Light Snow/Cloud Development Not Observable,-13.0,-13.0,29.98,1017.8,,,,71,0,0,,,,,,,,,8/8 Overcast,2800.0,,OVC,2800,,,,,,
KRDR,01-09-2005,10:00,METAR,,240,2,,,9999,Light Snow/Cloud Development Not Observable,-13.0,-13.0,29.98,1017.8,,,,71,0,0,,,,,,,,,8/8 Overcast,2800.0,,OVC,2800,,,,,,
KRDR,01-09-2005,09:00,METAR,,,1,,,9999,Light Snow/Cloud Development Not Observable,-14.0,-14.0,29.99,1018.2,,,,71,0,0,,,,,,TRACE,,,8/8 Overcast,3000.0,,OVC,3000,,,,,,
KRDR,01-09-2005,08:00,METAR,,40,3,,,9999,Light Snow/Cloud Development Not Observable,-14.0,-14.0,29.98,1018.0,,,,71,0,0,,,,,,,,,8/8 Overcast,3000.0,,SCT,2000,OVC,3000.0,,,,
KRDR,01-09-2005,07:00,METAR,,100,3,,,9999,Cloud Development Not Observable,-12.0,-13.0,30.00,1018.6,,,,0,0,0,,,,,,,,,8/8 Overcast,3100.0,,FEW,800,OVC,3200.0,,,,
KRDR,01-09-2005,06:00,METAR,,60,3,,,9999,Cloud Development Not Observable,-12.0,-12.0,30.04,1020.0,,,,0,0,0,,,,,,,IN,,8/8 Overcast,3100.0,,SCT,2200,OVC,3200.0,,,,
KRDR,01-09-2005,05:00,METAR,,110,1,,,9999,Cloud Development Not Observable,-12.0,-13.0,30.06,1020.7,,,,0,0,0,,,,,,,,,8/8 Overcast,3100.0,,SCT,2200,OVC,3200.0,,,,
KRDR,01-09-2005,04:00,METAR,,140,4,,,9999,Cloud Development Not Observable,-12.0,-13.0,30.04,1019.9,,,,0,0,0,,,,,,,,,8/8 Overcast,3400.0,,SCT,2000,OVC,3500.0,,,,
KRDR,01-09-2005,03:00,METAR,,120,7,,,9999,Cloud Development Not Observable,-12.0,-13.0,30.04,1019.9,,,,0,0,0,,,,,,TRACE,,,8/8 Overcast,3400.0,,SCT,2500,OVC,3500.0,,,,
KRDR,01-09-2005,02:00,METAR,,70,4,,,9999,Cloud Development Not Observable,-13.0,-13.0,30.08,1021.4,,,,0,0,0,,,,,,,,,8/8 Overcast,3400.0,,OVC,3500,,,,,,
KRDR,01-09-2005,01:17,SPECI,,80,6,,,9999,Cloud Development Not Observable,-13.0,-13.0,30.09,,,,,0,0,0,,,,,,,,,8/8 Overcast,3400.0,,OVC,3500,,,,,,
KRDR,01-09-2005,01:00,METAR,,80,5,,,9999,Light Snow/Cloud Development Not Observable,-13.0,-13.0,30.10,1022.4,,,,71,0,0,,,,,,,,,8/8 Overcast,3400.0,,OVC,3500,,,,,,
KRDR,01-09-2005,00:20,METAR,,80,3,,,9999,Cloud Development Not Observable,-13.0,-13.0,30.11,,,,,0,0,0,,,,,,,,,8/8 Overcast,3900.0,,OVC,4000,,,,,,
KRDR,01-09-2005,00:00,METAR,,90,3,,,9999,Cloud Development Not Observable,-13.0,-13.0,30.10,1022.4,,,,0,0,0,,,,,,,IN,,8/8 Overcast,3900.0,,OVC,4000,,,,,,
KRDR,01-08-2005,23:00,METAR,,100,4,,,9999,Cloud Development Not Observable,-14.0,-14.0,30.10,1022.4,,,,0,0,0,,,,,,,,,8/8 Overcast,3900.0,,BKN,4000,OVC,4500.0,,,,
KRDR,01-08-2005,22:00,METAR,,150,4,,,9999,Cloud Development Not Observable,-14.0,-15.0,30.12,1023.0,,,,0,0,0,,,,,,,,,8/8 Overcast,3400.0,,BKN,3500,OVC,4500.0,,,,
KRDR,01-08-2005,21:00,METAR,,130,5,,,9999,Cloud Development Not Observable,-15.0,-15.0,30.11,1022.5,,,,0,0,0,,,,,,TRACE,,,8/8 Overcast,7000.0,,FEW,2300,OVC,6900.0,,,,
KRDR,01-08-2005,20:03,SPECI,,120,6,,,9999,Cloud Development Not Observable,-15.0,-15.0,30.10,,,,,0,0,0,,,,,,,,,8/8 Overcast,4900.0,,SCT,2300,OVC,5000.0,,,,
KRDR,01-08-2005,20:00,METAR,,130,6,,,9999,Cloud Development Not Observable,-15.0,-15.0,30.11,1022.5,,,,0,0,0,,,,,,,,,8/8 Overcast,2300.0,,BKN,2300,OVC,5000.0,,,,
KRDR,01-08-2005,19:26,SPECI,,120,6,,,9999,Light Snow/Cloud Development Not Observable,-15.0,-16.0,30.12,,,,,71,0,0,,,,,,,,,8/8 Overcast,2300.0,,BKN,2300,OVC,5000.0,,,,
KRDR,01-08-2005,19:13,SPECI,,130,5,,,4800,Light Snow/Mist/Cloud Development Not Observable,-15.0,-16.0,30.12,,,,,71,10,0,,,,,,,,,8/8 Overcast,2300.0,,OVC,2300,,,,,,
KRDR,01-08-2005,19:00,METAR,,140,5,,,3200,Light Snow/Mist/Cloud Development Not Observable,-16.0,-16.0,30.13,1023.2,,,,71,10,0,,,,,,,,,8/8 Overcast,2100.0,,BKN,2100,OVC,5000.0,,,,
KRDR,01-08-2005,18:27,SPECI,,150,8,,,1600,Light Snow/Mist/Cloud Development Not Observable,-16.0,-16.0,30.16,,,,,71,10,0,,,,,,,,,8/8 Overcast,2200.0,,BKN,2200,OVC,5000.0,,,,
KRDR,01-08-2005,18:13,SPECI,,110,7,,,4800,Light Snow/Mist/Cloud Development Not Observable,-16.0,-16.0,30.16,,,,,71,10,0,,,,,,,,,8/8 Overcast,2300.0,,BKN,2300,OVC,5000.0,,,,
KRDR,01-08-2005,18:00,METAR,,120,8,,,6400,Light Snow/Mist/Cloud Development Not Observable,-16.0,-16.0,30.18,1025.0,,,,71,10,0,,,,,,,IN,,8/8 Overcast,2500.0,,BKN,2500,OVC,5000.0,,,,
KRDR,01-08-2005,17:17,SPECI,,100,5,,,8000,Light Snow/Mist/Cloud Development Not Observable,-16.0,-16.0,30.19,,,,,71,10,0,,,,,,,,,8/8 Overcast,2300.0,,BKN,2300,OVC,3500.0,,,,
KRDR,01-08-2005,17:02,SPECI,,90,4,,,4800,Light Snow/Mist/Cloud Development Not Observable,-16.0,-16.0,30.20,,,,,71,10,0,,,,,,,,,8/8 Overcast,2000.0,,BKN,2000,OVC,8400.0,,,,
KRDR,01-08-2005,17:00,METAR,,90,4,,,3200,Light Snow/Mist/Cloud Development Not Observable,-17.0,-17.0,30.20,1025.8,,,,71,10,0,,,,,,,,,8/8 Overcast,2000.0,,BKN,2000,OVC,8400.0,,,,
KRDR,01-08-2005,16:35,SPECI,,160,2,,,4800,Light Snow/Mist/Cloud Development Not Observable,-17.0,-17.0,30.22,,,,,71,10,0,,,,,,,,,8/8 Overcast,2000.0,,BKN,2000,OVC,8900.0,,,,
KRDR,01-08-2005,16:00,METAR,,120,4,,,9999,Cloud Development Not Observable,-17.0,-17.0,30.19,1025.4,,,,0,0,0,,,,,,,,,8/8 Overcast,9000.0,,OVC,8900,,,,,,
KRDR,01-08-2005,15:00,METAR,,120,3,,,9999,Cloud Development Not Observable,-15.0,-19.0,30.20,1025.6,,,,0,0,0,,,,,,,,,8/8 Overcast,11000.0,,OVC,11000,,,,,,
KRDR,01-08-2005,14:08,SPECI,,60,5,,,9999,Cloud Development Not Observable,-16.0,-20.0,30.16,,,,,0,0,0,,,,,,,,,8/8 Overcast,11000.0,,FEW,1800,OVC,11000.0,,,,
KRDR,01-08-2005,14:00,METAR,,70,1,,,9999,Cloud Development Not Observable,-16.0,-20.0,30.19,1025.3,,,,0,0,0,,,,,,,,,8/8 Overcast,1800.0,,BKN,1800,OVC,11000.0,,,,
KRDR,01-08-2005,13:17,SPECI,,,1,,,9999,Diamond Dust/Cloud Development Not Observable,-17.0,-21.0,30.19,,,,,76,0,0,,,,,,,,,8/8 Overcast,1800.0,,OVC,1800,,,,,,
KRDR,01-08-2005,13:00,METAR,,,0,,,6400,Mist/Cloud Development Not Observable,-23.0,-23.0,30.21,1026.3,,,,10,0,0,,,,,,,,,8/8 Overcast,1800.0,,FEW,300,OVC,1800.0,,,,
KRDR,01-08-2005,12:24,SPECI,,,0,,,4800,Mist/Cloud Development Not Observable,-23.0,-23.0,30.21,,,,,10,0,0,,,,,,,,,7/8 Mostly Cloudy,2000.0,,SCT,300,BKN,2000.0,,,,
KRDR,01-08-2005,12:00,METAR,,,0,,,3200,Diamond Dust/Mist/Cloud Development Not Observable,-23.0,-23.0,30.21,1026.3,,,,76,10,0,,,,,,,IN,,8/8 Overcast,1600.0,,SCT,300,OVC,1600.0,,,,
KRDR,01-08-2005,11:28,SPECI,,,0,,,2400,Diamond Dust/Mist/Cloud Development Not Observable,-23.0,-23.0,30.19,,,,,76,10,0,,,,,,,,,8/8 Overcast,1800.0,,FEW,200,OVC,1800.0,,,,
KRDR,01-08-2005,11:17,SPECI,,220,1,,,3200,Mist/Cloud Development Not Observable,-23.0,-23.0,30.20,,,,,10,0,0,,,,,,,,,8/8 Overcast,2000.0,,FEW,200,OVC,2000.0,,,,
KRDR,01-08-2005,11:00,METAR,,240,1,,,6400,Mist/Cloud Development Not Observable,-23.0,-23.0,30.19,1025.7,,,,10,0,0,,,,,,,,,7/8 Mostly Cloudy,2000.0,,FEW,500,SCT,2000.0,BKN,11000.0,,
KRDR,01-08-2005,10:34,SPECI,,220,1,,,6400,Mist/Cloud Development Not Observable,-22.0,-22.0,30.19,,,,,10,0,0,,,,,,,,,4/8 Partly Cloudy,72000.0,,FEW,0,FEW,300.0,SCT,2000.0,SCT,11000.0
KRDR,01-08-2005,10:13,SPECI,,220,1,,,9999,Cloud Development Not Observable,-22.0,-22.0,30.19,,,,,0,0,0,,,,,,,,,2/8 Mostly Clear,72000.0,,FEW,0,FEW,300.0,FEW,11000.0,,
KRDR,01-08-2005,10:00,METAR,,210,1,,,9999,Cloud Development Not Observable,-22.0,-22.0,30.20,1025.9,,,,0,0,0,,,,,,,,,4/8 Partly Cloudy,72000.0,,FEW,2500,SCT,11000.0,,,,
KRDR,01-08-2005,09:35,SPECI,,210,1,,,9999,Cloud Development Not Observable,-22.0,-22.0,30.20,,,,,0,0,0,,,,,,,,,4/8 Partly Cloudy,72000.0,,SCT,2500,SCT,11000.0,,,,
KRDR,01-08-2005,09:00,METAR,,,0,,,9999,Cloud Development Not Observable,-19.0,-19.0,30.20,1025.8,,,,0,0,0,,,,,,,,,7/8 Mostly Cloudy,2500.0,,BKN,2500,BKN,11000.0,,,,
KRDR,01-08-2005,08:00,METAR,,80,2,,,9999,Cloud Development Not Observable,-16.0,-16.0,30.20,1025.4,,,,0,0,0,,,,,,,,,8/8 Overcast,2500.0,,BKN,2500,OVC,11000.0,,,,
KRDR,01-08-2005,07:00,METAR,,60,4,,,9999,Cloud Development Not Observable,-15.0,-15.0,30.19,1025.1,,,,0,0,0,,,,,,,,,8/8 Overcast,2700.0,,BKN,2700,OVC,11000.0,,,,
KRDR,01-08-2005,06:00,METAR,,360,4,,,9999,Light Snow/Cloud Development Not Observable,-15.0,-15.0,30.21,1025.9,,,,71,0,0,,,,,,,IN,,8/8 Overcast,2300.0,,BKN,2300,OVC,11000.0,,,,
KRDR,01-08-2005,05:00,METAR,,350,2,,,9999,Light Snow/Cloud Development Not Observable,-15.0,-15.0,30.19,1025.0,,,,71,0,0,,,,,,,,,8/8 Overcast,2000.0,,OVC,2000,,,,,,
KRDR,01-08-2005,04:04,SPECI,,350,3,,,9999,Cloud Development Not Observable,-16.0,-16.0,30.18,,,,,0,0,0,,,,,,,,,8/8 Overcast,2000.0,,BKN,2000,OVC,20000.0,,,,
KRDR,01-08-2005,04:00,METAR,,350,3,,,9999,Cloud Development Not Observable,-16.0,-16.0,30.18,1024.9,,,,0,0,0,,,,,,,,,8/8 Overcast,2000.0,,BKN,2000,OVC,20000.0,,,,
KRDR,01-08-2005,03:40,SPECI,,330,3,,,9999,Cloud Development Not Observable,-16.0,-16.0,30.19,,,,,0,0,0,,,,,,,,,8/8 Overcast,2000.0,,BKN,2000,OVC,20000.0,,,,
KRDR,01-08-2005,03:00,METAR,,330,2,,,9999,Cloud Development Not Observable,-18.0,-18.0,30.18,1024.9,,,,0,0,0,,,,,,,,,7/8 Mostly Cloudy,20000.0,,SCT,2000,BKN,20000.0,,,,
KRDR,01-08-2005,02:00,METAR,,310,5,,,9999,Cloud Development Not Observable,-19.0,-19.0,30.16,1024.4,,,,0,0,0,,,,,,,,,7/8 Mostly Cloudy,20000.0,,BKN,20000,,,,,,
KRDR,01-08-2005,01:00,METAR,,310,7,,,9999,Cloud Development Not Observable,-18.0,-18.0,30.15,1024.4,,,,0,0,0,,,,,,,,,7/8 Mostly Cloudy,20000.0,,BKN,20000,,,,,,
KRDR,01-08-2005,00:00,METAR,,280,3,,,9999,Cloud Development Not Observable,-18.0,-18.0,30.12,1023.2,,,,0,0,0,,,,,,,,,7/8 Mostly Cloudy,20000.0,,FEW,12000,BKN,20000.0,,,,
KRDR,01-07-2005,23:00,METAR,,360,12,,,9999,Cloud Development Not Observable,-15.0,-15.0,30.12,1023.1,,,,0,0,0,,,,,,,,,7/8 Mostly Cloudy,12000.0,,SCT,1600,SCT,12000.0,BKN,20000.0,,
KRDR,01-07-2005,22:00,METAR,,350,11,,,9999,Cloud Development Not Observable,-15.0,-15.0,30.09,1022.1,,,,0,0,0,,,,,,,,,7/8 Mostly Cloudy,12000.0,,SCT,1600,BKN,12000.0,BKN,20000.0,,
KRDR,01-07-2005,21:00,METAR,,350,12,,,9999,Cloud Development Not Observable,-14.0,-15.0,30.08,1021.5,,,,0,0,0,,,,,,TRACE,,,7/8 Mostly Cloudy,12000.0,,FEW,2000,FEW,4300.0,BKN,12000.0,BKN,20000.0
KRDR,01-07-2005,20:35,SPECI,,350,13,21.0,,9999,Cloud Development Not Observable,-13.0,-14.0,30.07,,,,,0,0,0,,,,,,,,,7/8 Mostly Cloudy,4200.0,,FEW,2000,SCT,4300.0,BKN,12000.0,BKN,20000.0
KRDR,01-07-2005,20:00,METAR,,350,12,21.0,,9999,Cloud Development Not Observable,-13.0,-14.0,30.05,1020.7,,,,0,0,0,,,,,,,,,7/8 Mostly Cloudy,4200.0,,FEW,2000,SCT,4300.0,BKN,12000.0,BKN,20000.0
KRDR,01-07-2005,19:35,SPECI,,340,17,,,9999,Cloud Development Not Observable,-13.0,-14.0,30.03,,,,,0,0,0,,,,,,,,,7/8 Mostly Cloudy,4200.0,,SCT,2000,BKN,4300.0,BKN,12000.0,BKN,20000.0
KRDR,01-07-2005,19:00,METAR,,350,13,,,9999,Light Snow/Cloud Development Not Observable,-12.0,-13.0,30.01,1019.2,,,,71,0,0,,,,,,,,,7/8 Mostly Cloudy,4200.0,,SCT,2000,BKN,4300.0,BKN,12000.0,BKN,20000.0
KRDR,01-07-2005,18:00,METAR,,350,14,22.0,,9999,Light Snow/Cloud Development Not Observable,-12.0,-13.0,30.00,1018.8,,,,71,0,0,,,,,,,IN,,7/8 Mostly Cloudy,4200.0,,SCT,2000,BKN,4300.0,BKN,12000.0,BKN,20000.0
KRDR,01-07-2005,17:35,SPECI,,350,15,,,9999,Light Snow/Cloud Development Not Observable,-12.0,-13.0,30.00,,,,,71,0,0,,,,,,,,,7/8 Mostly Cloudy,4200.0,,SCT,2000,BKN,4300.0,BKN,12000.0,BKN,20000.0
KRDR,01-07-2005,17:00,METAR,,340,15,,,4800,Light Snow/Mist/Cloud Development Not Observable,-12.0,-13.0,29.98,1018.0,,,,71,10,0,,,,,,,,,8/8 Overcast,2000.0,,BKN,2000,BKN,4300.0,OVC,12000.0,,
KRDR,01-07-2005,16:42,SPECI,,340,13,,,6400,Light Snow/Cloud Development Not Observable,-12.0,-13.0,29.98,,,,,71,0,0,,,,,,,,,8/8 Overcast,2000.0,,BKN,2000,BKN,4300.0,OVC,12000.0,,
KRDR,01-07-2005,16:00,METAR,,360,15,,,9999,Light Snow/Cloud Development Not Observable,-13.0,-13.0,29.94,1016.6,,,,71,0,0,,,,,,,,,7/8 Mostly Cloudy,4200.0,,BKN,4300,BKN,12000.0,BKN,20000.0,,
KRDR,01-07-2005,15:45,METAR,,360,16,,,9999,Light Snow/Cloud Development Not Observable,-12.0,-13.0,29.93,,,,,71,0,0,,,,,,,,,7/8 Mostly Cloudy,4200.0,,BKN,4300,BKN,20000.0,,,,
KRDR,01-07-2005,15:00,METAR,,330,10,,,9999,Light Snow/Cloud Development Not Observable,-13.0,-13.0,29.90,1015.3,,,,71,0,0,,,,,,,,,8/8 Overcast,3400.0,,FEW,1100,BKN,3500.0,OVC,20000.0,,
KRDR,01-07-2005,14:00,METAR,,340,13,,,9999,Cloud Development Not Observable,-13.0,-13.0,29.87,1014.3,,,,0,0,0,,,,,,,,,8/8 Overcast,3000.0,,SCT,1600,BKN,3000.0,OVC,20000.0,,
KRDR,01-07-2005,13:32,SPECI,,330,8,,,9999,Cloud Development Not Observable,-14.0,-14.0,29.85,,,,,0,0,0,,,,,,,,,8/8 Overcast,3000.0,,SCT,1500,BKN,3000.0,OVC,20000.0,,
KRDR,01-07-2005,13:00,METAR,,320,6,,,9999,Cloud Development Not Observable,-15.0,-15.0,29.83,1012.9,,,,0,0,0,,,,,,,,,7/8 Mostly Cloudy,3200.0,,BKN,3300,BKN,20000.0,,,,
KRDR,01-07-2005,12:00,METAR,,290,5,,,9999,Cloud Development Not Observable,-21.0,-21.0,29.79,1011.9,,,,0,0,0,,,,,,,,,7/8 Mostly Cloudy,3000.0,,BKN,3000,BKN,20000.0,,,,
KRDR,01-07-2005,11:00,METAR,,280,4,,,9999,Cloud Development Not Observable,-21.0,-21.0,29.77,1011.0,,,,0,0,0,,,,,,,,,4/8 Partly Cloudy,72000.0,,SCT,25000,,,,,,
KRDR,01-07-2005,10:00,METAR,,290,5,,,9999,Cloud Development Not Observable,-21.0,-21.0,29.73,1009.5,,,,0,0,0,,,,,,,,,4/8 Partly Cloudy,72000.0,,SCT,25000,,,,,,
KRDR,01-07-2005,09:00,METAR,,280,6,,,9999,Cloud Development Not Observable,-21.0,-21.0,29.71,1008.8,,,,0,0,0,,,,,,,,,4/8 Partly Cloudy,72000.0,,SCT,25000,,,,,,
KRDR,01-07-2005,08:00,METAR,,220,6,,,9999,Cloud Development Not Observable,-20.0,-20.0,29.67,1007.8,,,,0,0,0,,,,,,,,,4/8 Partly Cloudy,72000.0,,SCT,25000,,,,,,
KRDR,01-07-2005,07:00,METAR,,200,6,,,9999,Cloud Development Not Observable,-19.0,-19.0,29.67,1007.6,,,,0,0,0,,,,,,,,,Clear,72000.0,,,73000,,,,,,
KRDR,01-07-2005,06:00,METAR,,200,7,,,9999,Cloud Development Not Observable,-18.0,-18.0,29.65,1007.1,,,,0,0,0,,,,,,,,,Clear,72000.0,,,73000,,,,,,
KRDR,01-07-2005,05:00,METAR,,200,9,,,9999,Cloud Development Not Observable,-17.0,-17.0,29.63,1006.5,,,,0,0,0,,,,,,,,,Clear,72000.0,,,73000,,,,,,
KRDR,01-07-2005,04:00,METAR,,200,7,,,9999,Cloud Development Not Observable,-16.0,-16.0,29.64,1006.7,,,,0,0,0,,,,,,,,,Clear,72000.0,,,73000,,,,,,
KRDR,01-07-2005,03:00,METAR,,180,9,,,9999,Cloud Development Not Observable,-17.0,-17.0,29.63,1006.6,,,,0,0,0,,,,,,,,,Clear,72000.0,,,73000,,,,,,
KRDR,01-07-2005,02:00,METAR,,170,11,,,9999,Cloud Development Not Observable,-17.0,-17.0,29.63,1006.6,,,,0,0,0,,,,,,,,,Clear,72000.0,,,73000,,,,,,
KRDR,01-07-2005,01:00,METAR,,170,12,,,9999,Cloud Development Not Observable,-17.0,-17.0,29.63,1006.6,,,,0,0,0,,,,,,,,,Clear,72000.0,,,73000,,,,,,
KRDR,01-07-2005,00:00,METAR,,170,12,,,9999,Cloud Development Not Observable,-16.0,-16.0,29.64,1007.0,,,,0,0,0,,,,,,,,,Clear,72000.0,,,73000,,,,,,
KRDR,01-06-2005,23:00,METAR,,180,15,,,9999,Cloud Development Not Observable,-15.0,-15.0,29.64,1006.9,,,,0,0,0,,,,,,,,,Clear,72000.0,,,73000,,,,,,
KRDR,01-06-2005,22:00,METAR,,180,17,,,9999,Cloud Development Not Observable,-13.0,-15.0,29.65,1007.2,,,,0,0,0,,,,,,,,,Clear,72000.0,,,73000,,,,,,
KRDR,01-06-2005,21:00,METAR,,180,13,,,9999,Cloud Development Not Observable,-14.0,-15.0,29.66,1007.9,,,,0,0,0,,,,,,,,,Clear,72000.0,,,73000,,,,,,
KRDR,01-06-2005,20:00,METAR,,180,13,,,9999,Cloud Development Not Observable,-15.0,-17.0,29.69,1008.8,,,,0,0,0,,,,,,,,,Clear,72000.0,,,73000,,,,,,
KRDR,01-06-2005,19:00,METAR,,180,14,,,9999,Cloud Development Not Observable,-16.0,-18.0,29.72,1009.6,,,,0,0,0,,,,,,,,,Clear,72000.0,,,73000,,,,,,
KRDR,01-06-2005,18:00,METAR,,190,13,,,9999,Cloud Development Not Observable,-17.0,-19.0,29.75,1010.8,,,,0,0,0,,,,,,,,,Clear,72000.0,,,73000,,,,,,
KRDR,01-06-2005,17:00,METAR,,180,9,,,9999,Cloud Development Not Observable,-20.0,-21.0,29.79,1012.3,,,,0,0,0,,,,,,,,,Clear,72000.0,,,73000,,,,,,
KRDR,01-06-2005,16:00,METAR,,180,9,,,9999,Cloud Development Not Observable,-22.0,-23.0,29.81,1013.1,,,,0,0,0,,,,,,,,,Clear,72000.0,,,73000,,,,,,
KRDR,01-06-2005,15:00,METAR,,180,10,,,9999,Cloud Development Not Observable,-26.0,-26.0,29.85,1014.7,,,,0,0,0,,,,,,,,,Clear,72000.0,,,73000,,,,,,
KRDR,01-06-2005,14:00,METAR,,170,8,,,9999,Cloud Development Not Observable,-27.0,-27.0,29.87,1015.5,,,,0,0,0,,,,,,,,,Clear,72000.0,,,73000,,,,,,
KRDR,01-06-2005,13:00,METAR,,170,7,,,9999,Cloud Development Not Observable,-27.0,-27.0,29.90,1016.4,,,,0,0,0,,,,,,,,,Clear,72000.0,,,73000,,,,,,
KRDR,01-06-2005,12:00,METAR,,150,6,,,9999,Cloud Development Not Observable,-29.0,-29.0,29.93,1017.4,,,,0,0,0,,,,,,,,,Clear,72000.0,,,73000,,,,,,
KRDR,01-06-2005,11:00,METAR,,160,5,,,9999,Cloud Development Not Observable,-27.0,-27.0,29.96,1018.3,,,,0,0,0,,,,,,,,,Clear,72000.0,,,73000,,,,,,
KRDR,01-06-2005,10:00,METAR,,190,7,,,9999,Cloud Development Not Observable,-27.0,-27.0,30.02,1020.5,,,,0,0,0,,,,,,,,,Clear,72000.0,,,73000,,,,,,
KRDR,01-06-2005,09:00,METAR,,190,8,,,9999,Cloud Development Not Observable,-31.0,-31.0,30.06,1022.1,,,,0,0,0,,,,,,,,,Clear,72000.0,,,73000,,,,,,
KRDR,01-06-2005,08:00,METAR,,180,9,,,9999,Cloud Development Not Observable,-29.0,-29.0,30.10,1023.2,,,,0,0,0,,,,,,,,,Clear,72000.0,,,73000,,,,,,
KRDR,01-06-2005,07:00,METAR,,180,7,,,9999,Cloud Development Not Observable,-28.0,-28.0,30.14,1024.6,,,,0,0,0,,,,,,,,,Clear,72000.0,,,73000,,,,,,
KRDR,01-06-2005,06:00,METAR,,180,8,,,9999,Cloud Development Not Observable,-30.0,-30.0,30.17,1025.9,,,,0,0,0,,,,,,,,,Clear,72000.0,,,73000,,,,,,
KRDR,01-06-2005,05:00,METAR,,180,6,,,9999,Cloud Development Not Observable,-28.0,-28.0,30.22,1027.4,,,,0,0,0,,,,,,,,,Clear,72000.0,,,73000,,,,,,
KRDR,01-06-2005,04:00,METAR,,200,3,,,9999,Cloud Development Not Observable,-28.0,-28.0,30.24,1028.4,,,,0,0,0,,,,,,,,,Clear,72000.0,,,73000,,,,,,
KRDR,01-06-2005,03:00,METAR,,200,5,,,9999,Cloud Development Not Observable,-28.0,-28.0,30.28,1029.7,,,,0,0,0,,,,,,,,,Clear,72000.0,,,73000,,,,,,
KRDR,01-06-2005,02:00,METAR,,200,7,,,9999,Cloud Development Not Observable,-29.0,-29.0,30.32,1031.1,,,,0,0,0,,,,,,,,,Clear,72000.0,,,73000,,,,,,
KRDR,01-06-2005,01:00,METAR,,210,6,,,9999,Cloud Development Not Observable,-30.0,-30.0,30.37,1033.1,,,,0,0,0,,,,,,,,,Clear,72000.0,,,73000,,,,,,
KRDR,01-06-2005,00:00,METAR,,190,6,,,9999,Cloud Development Not Observable,-27.0,-27.0,30.39,1033.5,,,,0,0,0,,,,,,,,,Clear,72000.0,,,73000,,,,,,
KRDR,01-05-2005,23:00,METAR,,200,5,,,9999,Cloud Development Not Observable,-25.0,-25.0,30.42,1034.5,,,,0,0,0,,,,,,,,,Clear,72000.0,,,73000,,,,,,
KRDR,01-05-2005,22:00,METAR,,190,6,,,9999,Cloud Development Not Observable,-24.0,-25.0,30.45,1035.4,,,,0,0,0,,,,,,,,,2/8 Mostly Clear,72000.0,,FEW,7900,,,,,,
KRDR,01-05-2005,21:00,METAR,,190,7,,,9999,Cloud Development Not Observable,-24.0,-25.0,30.48,1036.5,,,,0,0,0,,,,,,,,,2/8 Mostly Clear,72000.0,,FEW,7900,,,,,,
KRDR,01-05-2005,20:00,METAR,,190,2,,,9999,Cloud Development Not Observable,-23.0,-24.0,30.51,1037.3,,,,0,0,0,,,,,,,,,Clear,72000.0,,,73000,,,,,,
KRDR,01-05-2005,19:00,METAR,,220,2,,,9999,Cloud Development Not Observable,-25.0,-25.0,30.54,1038.4,,,,0,0,0,,,,,,,,,Clear,72000.0,,,73000,,,,,,
KRDR,01-05-2005,18:00,METAR,,190,6,,,9999,Cloud Development Not Observable,-26.0,-26.0,30.61,1040.9,,,,0,0,0,,,,,,,,,Clear,72000.0,,,73000,,,,,,
KRDR,01-05-2005,17:00,METAR,,180,5,,,9999,Cloud Development Not Observable,-29.0,-29.0,30.63,1041.7,,,,0,0,0,,,,,,,,,Clear,72000.0,,,73000,,,,,,
KRDR,01-05-2005,16:00,METAR,,,0,,,9999,Cloud Development Not Observable,-30.0,-30.0,30.63,1041.7,,,,0,0,0,,,,,,,,,Clear,72000.0,,,73000,,,,,,
KRDR,01-05-2005,15:00,METAR,,210,4,,,9999,Cloud Development Not Observable,-34.0,-34.0,30.63,1041.9,,,,0,0,0,,,,,,,,,Clear,72000.0,,,73000,,,,,,
KRDR,01-05-2005,14:00,METAR,,220,3,,,9999,Cloud Development Not Observable,-34.0,-34.0,30.67,1043.4,,,,0,0,0,,,,,,,,,Clear,72000.0,,,73000,,,,,,
KRDR,01-05-2005,13:00,METAR,,190,5,,,9999,Cloud Development Not Observable,-36.0,-36.0,30.67,1043.5,,,,0,0,0,,,,,,,,,Clear,72000.0,,,73000,,,,,,
KRDR,01-05-2005,12:00,METAR,,230,2,,,9999,Cloud Development Not Observable,-36.0,-36.0,30.69,1043.7,,,,0,0,0,,,,,,,,,Clear,72000.0,,,73000,,,,,,
KRDR,01-05-2005,11:00,METAR,,230,2,,,9999,Cloud Development Not Observable,-36.0,-36.0,30.69,1043.6,,,,0,0,0,,,,,,,,,Clear,72000.0,,,73000,,,,,,
KRDR,01-05-2005,10:00,METAR,,220,3,,,9999,Cloud Development Not Observable,-34.0,-34.0,30.71,1044.1,,,,0,0,0,,,,,,,,,Clear,72000.0,,,73000,,,,,,
KRDR,01-05-2005,09:00,METAR,,190,3,,,9999,Cloud Development Not Observable,-35.0,-35.0,30.71,1044.1,,,,0,0,0,,,,,,,,,Clear,72000.0,,,73000,,,,,,
KRDR,01-05-2005,08:00,METAR,,260,2,,,9999,Cloud Development Not Observable,-34.0,-34.0,30.69,1043.6,,,,0,0,0,,,,,,,,,Clear,72000.0,,,73000,,,,,,
KRDR,01-05-2005,07:00,METAR,,250,2,,,9999,Cloud Development Not Observable,-33.0,-33.0,30.73,1044.8,,,,0,0,0,,,,,,,,,Clear,72000.0,,,73000,,,,,,
KRDR,01-05-2005,06:00,METAR,,310,3,,,9999,Cloud Development Not Observable,-32.0,-32.0,30.74,1045.1,,,,0,0,0,,,,,,,,,Clear,72000.0,,,73000,,,,,,
KRDR,01-05-2005,05:00,METAR,,310,1,,,9999,Cloud Development Not Observable,-32.0,-32.0,30.74,1045.1,,,,0,0,0,,,,,,,,,Clear,72000.0,,,73000,,,,,,
KRDR,01-05-2005,04:00,METAR,,340,3,,,9999,Cloud Development Not Observable,-31.0,-31.0,30.75,1045.5,,,,0,0,0,,,,,,,,,Clear,72000.0,,,73000,,,,,,
KRDR,01-05-2005,03:00,METAR,,340,4,,,9999,Cloud Development Not Observable,-30.0,-30.0,30.77,1046.2,,,,0,0,0,,,,,,,,,Clear,72000.0,,,73000,,,,,,
KRDR,01-05-2005,02:00,METAR,,,2,,,9999,Cloud Development Not Observable,-32.0,-32.0,30.78,1046.7,,,,0,0,0,,,,,,,,,Clear,72000.0,,,73000,,,,,,
KRDR,01-05-2005,01:00,METAR,,,2,,,9999,Cloud Development Not Observable,-30.0,-30.0,30.76,1045.9,,,,0,0,0,,,,,,,,,Clear,72000.0,,,73000,,,,,,
KRDR,01-05-2005,00:00,METAR,,350,4,,,9999,Cloud Development Not Observable,-27.0,-27.0,30.73,1044.6,,,,0,0,0,,,,,,,,,2/8 Mostly Clear,72000.0,,FEW,5000,,,,,,
KRDR,01-04-2005,23:00,METAR,,330,2,,,9999,Cloud Development Not Observable,-26.0,-26.0,30.72,1044.2,,,,0,0,0,,,,,,,,,2/8 Mostly Clear,72000.0,,FEW,5000,,,,,,
KRDR,01-04-2005,22:00,METAR,,350,1,,,9999,Cloud Development Not Observable,-23.0,-23.0,30.72,1044.0,,,,0,0,0,,,,,,,,,2/8 Mostly Clear,72000.0,,FEW,25000,,,,,,
KRDR,01-04-2005,21:00,METAR,,280,1,,,9999,Cloud Development Not Observable,-21.0,-22.0,30.71,1043.4,,,,0,0,0,,,,,,,,,2/8 Mostly Clear,72000.0,,FEW,2100,FEW,25000.0,,,,
KRDR,01-04-2005,20:00,METAR,,310,2,,,9999,Cloud Development Not Observable,-22.0,-23.0,30.70,1043.2,,,,0,0,0,,,,,,,,,2/8 Mostly Clear,72000.0,,FEW,2100,,,,,,
KRDR,01-04-2005,19:00,METAR,,320,5,,,9999,Cloud Development Not Observable,-23.0,-24.0,30.69,1042.9,,,,0,0,0,,,,,,,,,2/8 Mostly Clear,72000.0,,FEW,2100,,,,,,
KRDR,01-04-2005,18:00,METAR,,320,7,,,9999,Cloud Development Not Observable,-23.0,-24.0,30.68,1042.4,,,,0,0,0,,,,,,,,,4/8 Partly Cloudy,72000.0,,SCT,2100,,,,,,
KRDR,01-04-2005,17:34,SPECI,,310,5,,,9999,Cloud Development Not Observable,-24.0,-25.0,30.68,,,,,0,0,0,,,,,,,,,4/8 Partly Cloudy,72000.0,,SCT,2100,,,,,,
KRDR,01-04-2005,17:00,METAR,,300,5,,,9999,Cloud Development Not Observable,-24.0,-26.0,30.70,1043.1,,,,0,0,0,,,,,,,,,7/8 Mostly Cloudy,2100.0,,BKN,2100,,,,,,
KRDR,01-04-2005,16:17,SPECI,,290,7,,,9999,Cloud Development Not Observable,-25.0,-27.0,30.69,,,,,0,0,0,,,,,,,,,7/8 Mostly Cloudy,1800.0,,BKN,1800,,,,,,
KRDR,01-04-2005,16:00,METAR,,290,5,,,9999,Cloud Development Not Observable,-26.0,-27.0,30.68,1042.5,,,,0,0,0,,,,,,,,,4/8 Partly Cloudy,72000.0,,FEW,500,SCT,1500.0,,,,
KRDR,01-04-2005,15:00,METAR,,230,3,,,9999,Cloud Development Not Observable,-27.0,-27.0,30.65,1041.5,,,,0,0,0,,,,,,,,,4/8 Partly Cloudy,72000.0,,FEW,700,SCT,1400.0,,,,
KRDR,01-04-2005,14:00,METAR,,300,8,,,9999,Cloud Development Not Observable,-26.0,-27.0,30.61,1040.1,,,,0,0,0,,,,,,,,,4/8 Partly Cloudy,72000.0,,FEW,700,SCT,1400.0,,,,
KRDR,01-04-2005,13:00,METAR,,290,4,,,9999,Cloud Development Not Observable,-26.0,-27.0,30.61,1040.2,,,,0,0,0,,,,,,,,,2/8 Mostly Clear,72000.0,,FEW,700,FEW,1200.0,,,,
KRDR,01-04-2005,12:29,SPECI,,300,7,,,9999,Cloud Development Not Observable,-26.0,-26.0,30.60,,,,,0,0,0,,,,,,,,,2/8 Mostly Clear,72000.0,,FEW,700,FEW,1200.0,,,,
KRDR,01-04-2005,12:00,METAR,,300,7,,,9999,Cloud Development Not Observable,-25.0,-26.0,30.59,1039.8,,,,0,0,0,,,,,,,,,Clear,72000.0,,,73000,,,,,,
KRDR,01-04-2005,11:00,METAR,,290,5,,,9999,Cloud Development Not Observable,-25.0,-25.0,30.57,1039.0,,,,0,0,0,,,,,,,,,Clear,72000.0,,,73000,,,,,,
KRDR,01-04-2005,10:00,METAR,,300,7,,,9999,Cloud Development Not Observable,-24.0,-25.0,30.55,1038.1,,,,0,0,0,,,,,,,,,Clear,72000.0,,,73000,,,,,,
KRDR,01-04-2005,09:00,METAR,,310,9,,,9999,Cloud Development Not Observable,-22.0,-23.0,30.53,1037.3,,,,0,0,0,,,,,,,,,Clear,72000.0,,,73000,,,,,,
KRDR,01-04-2005,08:00,METAR,,310,8,,,9999,Cloud Development Not Observable,-20.0,-21.0,30.51,1036.6,,,,0,0,0,,,,,,,,,4/8 Partly Cloudy,72000.0,,SCT,9900,,,,,,
KRDR,01-04-2005,07:00,METAR,,320,8,,,9999,Cloud Development Not Observable,-19.0,-20.0,30.48,1035.5,,,,0,0,0,,,,,,,,,8/8 Overcast,9000.0,,OVC,8900,,,,,,
KRDR,01-04-2005,06:00,METAR,,330,11,,,9999,Cloud Development Not Observable,-17.0,-18.0,30.47,1035.1,,,,0,0,0,,,,,,,,,8/8 Overcast,8000.0,,BKN,7900,OVC,12000.0,,,,
KRDR,01-04-2005,05:00,METAR,,310,8,,,9999,Cloud Development Not Observable,-16.0,-17.0,30.45,1034.4,,,,0,0,0,,,,,,,,,8/8 Overcast,6000.0,,BKN,5900,OVC,8900.0,,,,
KRDR,01-04-2005,04:00,METAR,,290,10,,,9999,Cloud Development Not Observable,-16.0,-17.0,30.42,1033.4,,,,0,0,0,,,,,,,,,8/8 Overcast,8000.0,,BKN,7900,OVC,20000.0,,,,
KRDR,01-04-2005,03:00,METAR,,290,14,,,9999,Cloud Development Not Observable,-16.0,-17.0,30.41,1033.2,,,,0,0,0,,,,,,,,,7/8 Mostly Cloudy,8000.0,,BKN,7900,BKN,20000.0,,,,
KRDR,01-04-2005,02:00,METAR,,270,7,,,9999,Cloud Development Not Observable,-17.0,-18.0,30.41,1033.3,,,,0,0,0,,,,,,,,,7/8 Mostly Cloudy,7000.0,,BKN,6900,BKN,20000.0,,,,
KRDR,01-04-2005,01:00,METAR,,230,3,,,9999,Cloud Development Not Observable,-18.0,-18.0,30.41,1033.3,,,,0,0,0,,,,,,,,,7/8 Mostly Cloudy,11000.0,,BKN,11000,BKN,20000.0,,,,
KRDR,01-04-2005,00:00,METAR,,190,5,,,9999,Cloud Development Not Observable,-21.0,-21.0,30.40,1033.4,,,,0,0,0,,,,,,,,,7/8 Mostly Cloudy,11000.0,,BKN,11000,BKN,20000.0,,,,
KRDR,01-03-2005,23:00,METAR,,190,3,,,9999,Cloud Development Not Observable,-19.0,-20.0,30.40,1033.3,,,,0,0,0,,,,,,,,,7/8 Mostly Cloudy,20000.0,,FEW,8900,BKN,20000.0,,,,
KRDR,01-03-2005,22:00,METAR,,210,3,,,9999,Cloud Development Not Observable,-18.0,-19.0,30.40,1033.0,,,,0,0,0,,,,,,,,,7/8 Mostly Cloudy,20000.0,,FEW,9900,BKN,20000.0,,,,
KRDR,01-03-2005,21:00,METAR,,200,6,,,9999,Cloud Development Not Observable,-18.0,-19.0,30.41,1033.4,,,,0,0,0,,,,,,,,,7/8 Mostly Cloudy,20000.0,,BKN,20000,,,,,,
KRDR,01-03-2005,20:00,METAR,,200,6,,,9999,Cloud Development Not Observable,-20.0,-21.0,30.41,,,,,0,0,0,,,,,,,,,7/8 Mostly Cloudy,20000.0,,BKN,20000,,,,,,
KRDR,01-03-2005,19:00,METAR,,180,7,,,9999,Cloud Development Not Observable,-20.0,-22.0,30.43,,,,,0,0,0,,,,,,,,,7/8 Mostly Cloudy,20000.0,,BKN,20000,,,,,,
KRDR,01-03-2005,18:00,METAR,,180,4,,,9999,Cloud Development Not Observable,-20.0,-22.0,30.44,,,,,0,0,0,,,,,,,,,4/8 Partly Cloudy,72000.0,,SCT,20000,,,,,,
KRDR,01-03-2005,17:00,METAR,,,2,,,9999,Cloud Development Not Observable,-22.0,-23.0,30.47,,,,,0,0,0,,,,,,,,,4/8 Partly Cloudy,72000.0,,SCT,20000,,,,,,
KRDR,01-03-2005,16:00,METAR,,260,3,,,9999,Cloud Development Not Observable,-23.0,-24.0,30.46,,,,,0,0,0,,,,,,,,,2/8 Mostly Clear,72000.0,,FEW,20000,,,,,,
KRDR,01-03-2005,15:00,METAR,,260,4,,,9999,Cloud Development Not Observable,-27.0,-27.0,30.45,,,,,0,0,0,,,,,,,,,2/8 Mostly Clear,72000.0,,FEW,12000,FEW,20000.0,,,,
KRDR,01-03-2005,14:00,METAR,,210,3,,,9999,Cloud Development Not Observable,-28.0,-28.0,30.46,,,,,0,0,0,,,,,,,,,2/8 Mostly Clear,72000.0,,FEW,12000,,,,,,
KRDR,01-03-2005,13:00,METAR,,290,7,,,9999,Cloud Development Not Observable,-27.0,-27.0,30.46,,,,,0,0,0,,,,,,,,,Clear,72000.0,,,73000,,,,,,
KRDR,01-03-2005,12:00,METAR,,230,6,,,9999,Cloud Development Not Observable,-27.0,-27.0,30.47,,,,,0,0,0,,,,,,,,,Clear,72000.0,,,73000,,,,,,
KRDR,01-03-2005,11:00,METAR,,250,3,,,9999,Cloud Development Not Observable,-27.0,-27.0,30.46,,,,,0,0,0,,,,,,,,,Clear,72000.0,,,73000,,,,,,
KRDR,01-03-2005,10:00,METAR,,240,5,,,9999,Cloud Development Not Observable,-27.0,-27.0,30.47,,,,,0,0,0,,,,,,,,,Clear,72000.0,,,73000,,,,,,
KRDR,01-02-2005,21:00,METAR,,290,11,,,9999,Cloud Development Not Observable,-19.0,-21.0,30.37,,,,,0,0,0,,,,,,,,,2/8 Mostly Clear,72000.0,,FEW,15000,,,,,,
KRDR,01-02-2005,20:00,METAR,,270,10,,,9999,Cloud Development Not Observable,-19.0,-20.0,30.36,,,,,0,0,0,,,,,,,,,2/8 Mostly Clear,72000.0,,FEW,15000,,,,,,
KRDR,01-02-2005,19:00,METAR,,240,10,,,9999,Cloud Development Not Observable,-19.0,-20.0,30.34,,,,,0,0,0,,,,,,,,,2/8 Mostly Clear,72000.0,,FEW,15000,,,,,,
KRDR,01-02-2005,18:42,SPECI,,260,10,,,9999,Cloud Development Not Observable,-19.0,-20.0,30.34,,,,,0,0,0,,,,,,,,,2/8 Mostly Clear,72000.0,,FEW,15000,,,,,,
KRDR,01-02-2005,03:00,METAR,,340,6,,,1000,Snow/Blowing Snow/Cloud Development Not Observable,-14.0,-14.0,30.16,1024.2,,,,73,38,0,,,,,,.12 IN,,,Sky Obscured (Unable to Estimate),700.0,100.0,,700,,,,,,
KRDR,01-02-2005,02:00,METAR,,340,6,,,1000,Snow/Blowing Snow/Cloud Development Not Observable,-14.0,-14.0,30.18,1024.8,,,,73,38,0,,,,,,,,,Sky Obscured (Unable to Estimate),700.0,100.0,,700,,,,,,
KRDR,01-02-2005,01:00,METAR,,50,5,,,1000,Snow/Blowing Snow/Cloud Development Not Observable,-12.0,-12.0,30.19,,,,,73,38,0,,,,,,,,,Sky Obscured (Unable to Estimate),500.0,100.0,,500,,,,,,
KRDR,01-02-2005,00:00,METAR,,60,7,,,1000,Snow/Blowing Snow/Cloud Development Not Observable,-12.0,-12.0,30.21,,,,,73,38,0,,,,,,,.13 IN,,Sky Obscured (Unable to Estimate),500.0,100.0,,500,,,,,,
KRDR,01-01-2005,23:21,SPECI,,50,7,,,1000,Snow/Blowing Snow/Cloud Development Not Observable,-12.0,-12.0,30.23,,,,,73,38,0,,,,,,,,,Sky Obscured (Unable to Estimate),500.0,100.0,,500,,,,,,
KRDR,01-01-2005,23:00,METAR,,50,10,,,1200,Snow/Blowing Snow/Cloud Development Not Observable,-12.0,-12.0,30.24,,,,,73,38,0,,,,,,,,,Sky Obscured (Unable to Estimate),500.0,100.0,,500,,,,,,
KRDR,01-01-2005,22:00,METAR,,40,10,,,1200,Snow/Blowing Snow/Cloud Development Not Observable,-12.0,-12.0,30.26,,,,,73,38,0,,,,,,,,,Sky Obscured (Unable to Estimate),500.0,100.0,,500,,,,,,
KRDR,01-01-2005,21:35,SPECI,,50,10,,,1200,Snow/Blowing Snow/Cloud Development Not Observable,-13.0,-13.0,30.27,,,,,73,38,0,,,,,,,,,Sky Obscured (Unable to Estimate),200.0,100.0,,200,,,,,,
KRDR,01-01-2005,21:03,SPECI,,30,9,,,100,Heavy Snow/Blowing Snow/Cloud Development Not Observable,-13.0,-13.0,30.28,,,,,75,38,0,,,,,,,,,Sky Obscured (Unable to Estimate),200.0,100.0,,200,,,,,,
KRDR,01-01-2005,21:00,METAR,,30,9,,,1200,Snow/Blowing Snow/Cloud Development Not Observable,-13.0,-13.0,30.29,,,,,73,38,0,,,,,,,,,Sky Obscured (Unable to Estimate),200.0,100.0,,200,,,,,,
KRDR,01-01-2005,20:29,SPECI,,30,10,,,1200,Light Snow/Blowing Snow/Cloud Development Not Observable,-13.0,-13.0,30.29,,,,,71,38,0,,,,,,,,,8/8 Overcast,1800.0,,OVC,1800,,,,,,
KRDR,01-01-2005,20:00,METAR,,30,10,,,1600,Snow/Cloud Development Not Observable,-13.0,-13.0,30.30,,,,,73,0,0,,,,,,,,,8/8 Overcast,1800.0,,OVC,1800,,,,,,
KRDR,01-01-2005,19:47,SPECI,,30,10,,,1600,Snow/Cloud Development Not Observable,-13.0,-13.0,30.31,,,,,73,0,0,,,,,,,,,8/8 Overcast,1800.0,,OVC,1800,,,,,,
KRDR,01-01-2005,19:00,METAR,,40,9,,,2400,Light Snow/Cloud Development Not Observable,-13.0,-13.0,30.36,,,,,71,0,0,,,,,,,,,8/8 Overcast,1600.0,,OVC,1600,,,,,,
KRDR,01-01-2005,18:00,METAR,,60,8,,,2400,Light Snow/Cloud Development Not Observable,-14.0,-14.0,30.41,,,,,71,0,0,,,,,,,.09 IN,,8/8 Overcast,2200.0,,BKN,2200,OVC,3000.0,,,,
KRDR,01-01-2005,17:42,SPECI,,50,8,,,2400,Light Snow/Cloud Development Not Observable,-14.0,-14.0,30.41,,,,,71,0,0,,,,,,,,,8/8 Overcast,2500.0,,SCT,1000,BKN,2500.0,OVC,3500.0,,
KRDR,01-01-2005,17:00,METAR,,50,9,,,1600,Snow/Cloud Development Not Observable,-14.0,-14.0,30.42,1033.2,,,,73,0,0,,,,,,,,,8/8 Overcast,2000.0,,OVC,2000,,,,,,
KRDR,01-01-2005,16:42,SPECI,,50,7,,,1200,Snow/Cloud Development Not Observable,-14.0,-14.0,30.43,,,,,73,0,0,,,,,,,,,8/8 Overcast,1600.0,,OVC,1600,,,,,,
KRDR,01-01-2005,16:00,METAR,,30,10,,,1600,Snow/Cloud Development Not Observable,-14.0,-14.0,30.42,1033.3,,,,73,0,0,,,,,,,,,8/8 Overcast,1200.0,,OVC,1200,,,,,,
KRDR,01-01-2005,15:34,SPECI,,40,9,,,1200,Heavy Snow/Cloud Development Not Observable,-15.0,-15.0,30.43,,,,,75,0,0,,,,,,,,,7/8 Mostly Cloudy,2000.0,,SCT,1000,BKN,2000.0,,,,
KRDR,01-01-2005,15:00,METAR,,40,8,,,1600,Snow/Cloud Development Not Observable,-15.0,-15.0,30.45,1034.2,,,,73,0,0,,,,,,.02 IN,,,8/8 Overcast,1500.0,,OVC,1500,,,,,,
KRDR,01-01-2005,14:35,SPECI,,30,7,,,1600,Snow/Cloud Development Not Observable,-16.0,-16.0,30.46,,,,,73,0,0,,,,,,,,,8/8 Overcast,2000.0,,BKN,2000,OVC,4000.0,,,,
KRDR,01-01-2005,14:07,SPECI,,30,7,,,2400,Snow/Cloud Development Not Observable,-16.0,-16.0,30.47,,,,,73,0,0,,,,,,,,,8/8 Overcast,4400.0,,SCT,2000,OVC,4500.0,,,,
KRDR,01-01-2005,14:00,METAR,,20,9,,,4800,Light Snow/Cloud Development Not Observable,-16.0,-16.0,30.47,1034.7,,,,71,0,0,,,,,,,,,8/8 Overcast,3400.0,,BKN,3500,OVC,5900.0,,,,
KRDR,01-01-2005,13:44,SPECI,,30,8,,,4800,Light Snow/Cloud Development Not Observable,-16.0,-16.0,30.47,,,,,71,0,0,,,,,,,,,8/8 Overcast,3900.0,,OVC,4000,,,,,,
KRDR,01-01-2005,13:10,SPECI,,20,11,,,9999,Cloud Development Not Observable,-16.0,-16.0,30.46,,,,,0,0,0,,,,,,,,,8/8 Overcast,8500.0,,OVC,8400,,,,,,
KRDR,01-01-2005,05:00,METAR,,10,11,,,9999,Cloud Development Not Observable,-17.0,-17.0,30.47,1034.8,,,,0,0,0,,,,,,,,,7/8 Mostly Cloudy,9000.0,,BKN,8900,,,,,,
KRDR,01-01-2005,04:00,METAR,,360,10,,,9999,Cloud Development Not Observable,-18.0,-18.0,30.46,1034.5,,,,0,0,0,,,,,,,,,7/8 Mostly Cloudy,10000.0,,BKN,9900,,,,,,
KRDR,01-01-2005,03:00,METAR,,360,12,,,9999,Cloud Development Not Observable,-17.0,-17.0,30.44,1033.7,,,,0,0,0,,,,,,,,,8/8 Overcast,10000.0,,SCT,6900,OVC,9900.0,,,,
KRDR,01-01-2005,02:00,METAR,,360,11,,,9999,Cloud Development Not Observable,-17.0,-17.0,30.42,1033.0,,,,0,0,0,,,,,,,,,8/8 Overcast,10000.0,,SCT,5900,OVC,9900.0,,,,
KRDR,01-01-2005,01:00,METAR,,360,16,,,9999,Cloud Development Not Observable,-17.0,-17.0,30.39,1032.2,,,,0,0,0,,,,,,,,,8/8 Overcast,10000.0,,SCT,1200,OVC,9900.0,,,,
KRDR,01-01-2005,00:38,SPECI,,360,18,,,8000,Blowing Snow/Cloud Development Not Observable,-17.0,-17.0,30.38,,,,,38,0,0,,,,,,,,,8/8 Overcast,10000.0,,SCT,1200,OVC,9900.0,,,,
KRDR,01-01-2005,00:00,METAR,,350,14,,,8000,Blowing Snow/Cloud Development Not Observable,-16.0,-17.0,30.38,1031.5,,,,38,0,0,,,,,,,IN,,7/8 Mostly Cloudy,10000.0,,FEW,1200,BKN,9900.0,,,,
KRDR,12-31-2004,23:00,METAR,,350,15,,,8000,Blowing Snow/Cloud Development Not Observable,-16.0,-16.0,30.31,1029.3,,,,38,0,0,,,,,,,,,7/8 Mostly Cloudy,1200.0,,FEW,700,SCT,1200.0,BKN,9900.0,,
KRDR,12-31-2004,22:00,METAR,,350,20,,,6400,Blowing Snow/Cloud Development Not Observable,-16.0,-16.0,30.27,1027.7,,,,38,0,0,,,,,,,,,7/8 Mostly Cloudy,20000.0,,FEW,1000,FEW,1500.0,BKN,20000.0,,
KRDR,12-31-2004,21:15,SPECI,,350,19,,,4800,Blowing Snow/Cloud Development Not Observable,-16.0,-16.0,30.25,,,,,38,0,0,,,,,,,,,8/8 Overcast,2500.0,,SCT,1000,SCT,2500.0,OVC,20000.0,,
KRDR,12-31-2004,21:00,METAR,,350,18,,,4800,Blowing Snow/Cloud Development Not Observable,-16.0,-16.0,30.21,1025.7,,,,38,0,0,,,,,,TRACE,,,8/8 Overcast,2500.0,,FEW,1000,SCT,2500.0,OVC,20000.0,,
KRDR,12-31-2004,20:10,SPECI,,340,19,,,4800,Blowing Snow/Cloud Development Not Observable,-15.0,-16.0,30.16,,,,,38,0,0,,,,,,,,,8/8 Overcast,1400.0,,FEW,1000,SCT,1400.0,OVC,20000.0,,
KRDR,12-31-2004,20:04,SPECI,,350,22,,,4000,Blowing Snow/Cloud Development Not Observable,-15.0,-16.0,30.15,,,,,38,0,0,,,,,,,,,7/8 Mostly Cloudy,2500.0,,FEW,1000,SCT,2500.0,BKN,20000.0,,
KRDR,12-31-2004,19:00,METAR,,340,18,,,6400,Blowing Snow/Cloud Development Not Observable,-15.0,-15.0,30.10,1021.8,,,,38,0,0,,,,,,,,,7/8 Mostly Cloudy,2600.0,,FEW,1000,BKN,2600.0,BKN,7900.0,BKN,20000.0
KRDR,12-31-2004,18:32,SPECI,,340,18,,,6400,Blowing Snow/Cloud Development Not Observable,-14.0,-14.0,30.09,,,,,38,0,0,,,,,,,,,7/8 Mostly Cloudy,2900.0,,FEW,1000,BKN,2900.0,BKN,7900.0,BKN,20000.0
KRDR,12-31-2004,18:00,METAR,,330,18,,,6400,Light Snow/Blowing Snow/Cloud Development Not Observable,-14.0,-14.0,30.07,1020.7,,,,71,38,0,,,,,,,.04 IN,,8/8 Overcast,2500.0,,FEW,1000,BKN,2500.0,BKN,5900.0,OVC,12000.0
KRDR,12-31-2004,17:00,METAR,,330,18,,,4800,Light Snow/Blowing Snow/Cloud Development Not Observable,-14.0,-14.0,30.01,1018.6,,,,71,38,0,,,,,,,,,8/8 Overcast,2800.0,,BKN,2800,OVC,5000.0,,,,
KRDR,12-31-2004,16:17,SPECI,,330,19,23.0,,4800,Light Snow/Blowing Snow/Cloud Development Not Observable,-14.0,-14.0,29.98,,,,,71,38,0,,,,,,,,,8/8 Overcast,2800.0,,BKN,2800,OVC,5000.0,,,,
KRDR,12-31-2004,16:00,METAR,,330,19,,,4000,Light Snow/Blowing Snow/Cloud Development Not Observable,-14.0,-14.0,29.95,1016.2,,,,71,38,0,,,,,,,,,8/8 Overcast,2800.0,,BKN,2800,OVC,5000.0,,,,
KRDR,12-31-2004,15:46,SPECI,,340,19,,,3200,Light Snow/Blowing Snow/Cloud Development Not Observable,-14.0,-14.0,29.94,,,,,71,38,0,,,,,,,,,8/8 Overcast,2800.0,,BKN,2800,OVC,5000.0,,,,
KRDR,12-31-2004,15:32,SPECI,,330,16,,,3200,Light Snow/Blowing Snow/Cloud Development Not Observable,-14.0,-14.0,29.91,,,,,71,38,0,,,,,,,,,8/8 Overcast,2500.0,,BKN,2500,OVC,5000.0,,,,
KRDR,12-31-2004,15:00,METAR,,320,16,,,2400,Light Snow/Blowing Snow/Mist,-14.0,-14.0,29.88,1014.2,,,,71,38,10,,,,,,.01 IN,,,8/8 Overcast,2400.0,,BKN,2400,OVC,5400.0,,,,
KRDR,12-31-2004,14:26,SPECI,,320,17,,,1600,Light Snow/Blowing Snow/Mist,-14.0,-14.0,29.85,,,,,71,38,10,,,,,,,,,8/8 Overcast,2000.0,,BKN,2000,OVC,4500.0,,,,
KRDR,12-31-2004,14:00,METAR,,320,17,,,1600,Light Snow/Blowing Snow/Cloud Development Not Observable,-14.0,-14.0,29.82,1012.0,,,,71,38,0,,,,,,,,,8/8 Overcast,2000.0,,BKN,2000,OVC,5400.0,,,,
KRDR,12-31-2004,13:00,METAR,,310,13,,,1600,Light Snow/Blowing Snow/Mist,-14.0,-14.0,29.73,1009.0,,,,71,38,10,,,,,,,,,8/8 Overcast,2000.0,,SCT,1500,BKN,2000.0,OVC,5000.0,,
KRDR,12-31-2004,12:33,SPECI,,310,12,19.0,,1600,Light Snow/Blowing Snow/Mist,-14.0,-14.0,29.73,,,,,71,38,10,,,,,,,,,8/8 Overcast,2000.0,,SCT,1500,BKN,2000.0,OVC,5000.0,,
KRDR,12-31-2004,12:00,METAR,,310,12,,,2400,Light Snow/Blowing Snow/Mist,-13.0,-13.0,29.70,1007.8,,,,71,38,10,,,,,,,.21 IN,.81 IN,8/8 Overcast,2000.0,,SCT,1500,BKN,2000.0,OVC,5400.0,,
KRDR,12-31-2004,11:38,SPECI,,300,14,,,2400,Light Snow/Blowing Snow/Mist,-13.0,-13.0,29.68,,,,,71,38,10,,,,,,,,,8/8 Overcast,2000.0,,SCT,1500,BKN,2000.0,OVC,5400.0,,
KRDR,12-31-2004,11:11,SPECI,,310,12,,,4800,Blowing Snow/Mist/Cloud Development Not Observable,-12.0,-12.0,29.65,,,,,38,10,0,,,,,,,,,8/8 Overcast,2000.0,,SCT,1500,BKN,2000.0,OVC,5400.0,,
KRDR,12-31-2004,11:00,METAR,,300,12,,,4000,Blowing Snow/Mist/Cloud Development Not Observable,-12.0,-12.0,29.65,1006.0,,,,38,10,0,,,,,,,,,8/8 Overcast,1500.0,,BKN,1500,BKN,2000.0,OVC,5000.0,,
KRDR,12-31-2004,10:00,METAR,,300,13,,,4800,Light Snow/Mist/Cloud Development Not Observable,-12.0,-12.0,29.61,1004.6,,,,71,10,0,,,,,,,,,8/8 Overcast,1500.0,,BKN,1500,OVC,2000.0,,,,
KRDR,12-31-2004,09:00,METAR,,300,13,,,2400,Light Snow/Blowing Snow/Mist,-11.0,-11.0,29.55,1002.5,,,,71,38,10,,,,,,.01 IN,,,8/8 Overcast,1500.0,,SCT,500,BKN,1500.0,OVC,2000.0,,
KRDR,12-31-2004,08:00,METAR,,300,12,,,1600,Light Snow/Blowing Snow/Mist,-10.0,-10.0,29.50,1000.9,,,,71,38,10,,,,,,,,,8/8 Overcast,1500.0,,SCT,500,OVC,1500.0,,,,
KRDR,12-31-2004,07:35,SPECI,,300,12,,,1600,Light Snow/Blowing Snow/Mist,-10.0,-10.0,29.49,,,,,71,38,10,,,,,,,,,8/8 Overcast,1500.0,,SCT,500,OVC,1500.0,,,,
KRDR,12-31-2004,07:21,SPECI,,300,10,,,4800,Light Snow/Mist/Cloud Development Not Observable,-10.0,-10.0,29.48,,,,,71,10,0,,,,,,,,,8/8 Overcast,1500.0,,SCT,500,OVC,1500.0,,,,
KRDR,12-31-2004,07:00,METAR,,300,13,,,1600,Light Snow/Blowing Snow/Cloud Development Not Observable,-8.0,-8.0,29.46,999.4,,,,71,38,0,,,,,,,,,8/8 Overcast,500.0,,BKN,500,OVC,1500.0,,,,
KRDR,12-31-2004,06:00,METAR,,310,11,,,4800,Light Snow/Mist/Cloud Development Not Observable,-7.0,-7.0,29.43,998.4,,,,71,10,0,,,,,,,.09 IN,,8/8 Overcast,500.0,,SCT,200,OVC,500.0,,,,
KRDR,12-31-2004,05:22,SPECI,,310,10,,,4800,Light Snow/Mist/Cloud Development Not Observable,-7.0,-7.0,29.39,,,,,71,10,0,,,,,,,,,8/8 Overcast,500.0,,SCT,200,BKN,500.0,OVC,1000.0,,
KRDR,12-31-2004,05:00,METAR,,310,13,,,1600,Light Snow/Blowing Snow/Cloud Development Not Observable,-7.0,-7.0,29.37,996.3,,,,71,38,0,,,,,,,,,8/8 Overcast,500.0,,SCT,200,OVC,500.0,,,,
KRDR,12-31-2004,04:00,METAR,,330,10,,,4800,Light Snow/Mist/Cloud Development Not Observable,-7.0,-7.0,29.34,995.4,,,,71,10,0,,,,,,,,,8/8 Overcast,500.0,,SCT,200,OVC,500.0,,,,
KRDR,12-31-2004,03:31,SPECI,,330,10,,,4800,Light Snow/Mist/Cloud Development Not Observable,-7.0,-7.0,29.33,,,,,71,10,0,,,,,,,,,8/8 Overcast,600.0,,BKN,600,OVC,900.0,,,,
KRDR,12-31-2004,03:00,METAR,,330,10,,,3200,Freezing Drizzle/Mist/Cloud Development Not Observable,-6.0,-6.0,29.32,994.7,,,,56,10,0,,,,,,TRACE,,,8/8 Overcast,500.0,,SCT,200,OVC,500.0,,,,
KRDR,12-31-2004,02:00,METAR,,340,11,,,1200,Freezing Drizzle/Mist/Cloud Development Not Observable,-5.0,-5.0,29.31,994.3,,,,56,10,0,,,,,,,,,8/8 Overcast,200.0,,BKN,200,OVC,400.0,,,,
KRDR,12-31-2004,01:00,METAR,,350,12,,,1200,Freezing Drizzle/Mist/Cloud Development Not Observable,-4.0,-4.0,29.29,993.5,,,,56,10,0,,,,,,,,,8/8 Overcast,200.0,,OVC,200,,,,,,
KRDR,12-31-2004,00:00,METAR,,340,8,,,1200,Freezing Drizzle/Mist/Cloud Development Not Observable,-2.0,-2.0,29.29,993.5,,,,56,10,0,,,,,,,.05 IN,,8/8 Overcast,200.0,,BKN,200,OVC,500.0,,,,
KRDR,12-30-2004,23:43,SPECI,,340,7,,,1200,Freezing Drizzle/Cloud Development Not Observable,-3.0,-3.0,29.29,,,,,56,0,0,,,,,,,,,8/8 Overcast,200.0,,BKN,200,OVC,500.0,,,,
KRDR,12-30-2004,23:18,SPECI,,330,6,,,2400,Freezing Drizzle/Mist/Cloud Development Not Observable,-3.0,-3.0,29.30,,,,,56,10,0,,,,,,,,,8/8 Overcast,200.0,,BKN,200,OVC,500.0,,,,
KRDR,12-30-2004,23:00,METAR,,360,7,,,3200,Mist/Cloud Development Not Observable,-3.0,-3.0,29.30,,,,,10,0,0,,,,,,,,,8/8 Overcast,300.0,,BKN,300,OVC,700.0,,,,
KRDR,12-30-2004,22:37,SPECI,,10,7,,,3200,Mist/Cloud Development Not Observable,-2.0,-2.0,29.30,,,,,10,0,0,,,,,,,,,8/8 Overcast,500.0,,OVC,500,,,,,,
KRDR,12-30-2004,22:20,METAR,,20,8,,,2400,Light Snow/Cloud Development Not Observable,-2.0,-2.0,29.30,,,,,71,0,0,,,,,,,,,Sky Obscured (Unable to Estimate),500.0,100.0,,500,,,,,,
KRDR,12-30-2004,22:00,METAR,,30,7,,,1000,Snow/Cloud Development Not Observable,-2.0,-2.0,29.31,994.2,,,,73,0,0,,,,,,,,,Sky Obscured (Unable to Estimate),400.0,100.0,,400,,,,,,
KRDR,12-30-2004,21:00,METAR,,20,5,,,1000,Snow/Cloud Development Not Observable,-3.0,-3.0,29.35,995.5,,,,73,0,0,,,,,,.45 IN,,,Sky Obscured (Unable to Estimate),500.0,100.0,,500,,,,,,
KRDR,12-30-2004,20:42,SPECI,,30,5,,,1000,Snow/Cloud Development Not Observable,-3.0,-3.0,29.35,,,,,73,0,0,,,,,,,,,Sky Obscured (Unable to Estimate),500.0,100.0,,500,,,,,,
KRDR,12-30-2004,20:17,SPECI,,40,7,,,1600,Snow/Cloud Development Not Observable,-3.0,-3.0,29.34,,,,,73,0,0,,,,,,,,,Sky Obscured (Unable to Estimate),500.0,100.0,,500,,,,,,
KRDR,12-30-2004,20:00,METAR,,40,6,,,1200,Snow/Cloud Development Not Observable,-3.0,-3.0,29.36,995.8,,,,73,0,0,,,,,,,,,8/8 Overcast,200.0,,OVC,200,,,,,,
KRDR,12-30-2004,19:21,SPECI,,70,8,,,400,Heavy Snow/Cloud Development Not Observable,-3.0,-3.0,29.39,,,,,75,0,0,,,,,,,,,8/8 Overcast,100.0,,OVC,100,,,,,,
KRDR,12-30-2004,19:00,METAR,,80,8,,,200,Heavy Snow/Cloud Development Not Observable,-3.0,-3.0,29.40,997.4,,,,75,0,0,,,,,,,,,8/8 Overcast,100.0,,OVC,100,,,,,,
KRDR,12-30-2004,18:28,SPECI,,60,9,,,800,Snow/Mist/Cloud Development Not Observable,-4.0,-4.0,29.42,,,,,73,10,0,,,,,,,,,8/8 Overcast,400.0,,OVC,400,,,,,,
KRDR,12-30-2004,18:13,SPECI,,80,7,,,1200,Snow/Mist/Cloud Development Not Observable,-4.0,-4.0,29.45,,,,,73,10,0,,,,,,,,,8/8 Overcast,500.0,,OVC,500,,,,,,
KRDR,12-30-2004,18:00,METAR,,80,7,,,1600,Snow/Mist/Cloud Development Not Observable,-4.0,-4.0,29.47,999.9,,,,73,10,0,,,,,,,.01 IN,,8/8 Overcast,600.0,,OVC,600,,,,,,
KRDR,12-30-2004,17:16,SPECI,,80,9,,,2000,Snow Pellets or Hail/Mist/Cloud Development Not Observable,-4.0,-4.0,29.51,,,,,88,10,0,,,,,,,,,8/8 Overcast,400.0,,OVC,400,,,,,,
KRDR,12-30-2004,17:00,METAR,,80,10,,,2400,Ice Pellets/Light Freezing Rain/Mist,-4.0,-4.0,29.52,1001.4,,,,66,79,10,,,,,,,,,8/8 Overcast,500.0,,OVC,500,,,,,,
KRDR,12-30-2004,16:45,METAR,,80,11,,,2400,Ice Pellets/Light Freezing Rain/Mist,-3.0,-3.0,29.54,,,,,66,79,10,,,,,,,,,8/8 Overcast,500.0,,OVC,500,,,,,,
KRDR,12-30-2004,16:36,SPECI,,80,9,,,3200,Light Freezing Rain/Mist/Cloud Development Not Observable,-4.0,-4.0,29.56,,,,,66,10,0,,,,,,,,,8/8 Overcast,600.0,,OVC,600,,,,,,
KRDR,12-30-2004,16:00,METAR,,90,11,,,2400,Mist/Cloud Development Not Observable,-4.0,-4.0,29.59,1003.8,,,,10,0,0,,,,,,,,,8/8 Overcast,400.0,,OVC,400,,,,,,
KRDR,12-30-2004,15:00,METAR,,90,11,,,4800,Light Freezing Rain/Mist/Cloud Development Not Observable,-5.0,-5.0,29.62,1004.9,,,,66,10,0,,,,,,TRACE,,,8/8 Overcast,900.0,,OVC,900,,,,,,
KRDR,12-30-2004,14:42,SPECI,,90,8,,,4000,Light Freezing Rain/Mist/Cloud Development Not Observable,-5.0,-5.0,29.64,,,,,66,10,0,,,,,,,,,8/8 Overcast,900.0,,OVC,900,,,,,,
KRDR,12-30-2004,14:00,METAR,,90,8,,,4800,Mist/Cloud Development Not Observable,-5.0,-5.0,29.67,1006.7,,,,10,0,0,,,,,,,,,8/8 Overcast,700.0,,OVC,700,,,,,,
KRDR,12-30-2004,13:45,METAR,,80,11,,,4800,Mist/Cloud Development Not Observable,-5.0,-5.0,29.68,,,,,10,0,0,,,,,,,,,8/8 Overcast,600.0,,OVC,600,,,,,,
KRDR,12-30-2004,13:00,METAR,,80,8,,,2400,Mist/Cloud Development Not Observable,-5.0,-5.0,29.72,1008.1,,,,10,0,0,,,,,,,,,8/8 Overcast,400.0,,OVC,400,,,,,,
KRDR,12-30-2004,12:29,SPECI,,80,9,,,2400,Mist/Cloud Development Not Observable,-5.0,-5.0,29.75,,,,,10,0,0,,,,,,,,,8/8 Overcast,400.0,,OVC,400,,,,,,
KRDR,12-30-2004,12:03,SPECI,,80,9,,,1200,Light Freezing Rain/Cloud Development Not Observable,-5.0,-5.0,29.73,,,,,66,0,0,,,,,,,,,8/8 Overcast,300.0,,OVC,300,,,,,,
KRDR,12-30-2004,12:00,METAR,,80,10,,,2400,Mist/Cloud Development Not Observable,-5.0,-5.0,29.73,1008.6,,,,10,0,0,,,,,,,,,8/8 Overcast,200.0,,OVC,200,,,,,,
KRDR,12-30-2004,10:23,SPECI,,90,7,,,1600,Mist/Cloud Development Not Observable,-5.0,-5.0,29.81,,,,,10,0,0,,,,,,,,,8/8 Overcast,300.0,,OVC,300,,,,,,
KRDR,12-30-2004,10:00,METAR,,80,10,,,1200,Mist/Cloud Development Not Observable,-5.0,-5.0,29.82,1011.6,,,,10,0,0,,,,,,,,,8/8 Overcast,200.0,,OVC,200,,,,,,
KRDR,12-30-2004,09:00,METAR,,80,7,,,800,Fog with Rime/Cloud Development Not Observable,-5.0,-5.0,29.85,1012.8,,,,48,0,0,,,,,,,,,8/8 Overcast,200.0,,OVC,200,,,,,,
KRDR,12-30-2004,08:04,SPECI,,70,7,,,800,Fog with Rime/Cloud Development Not Observable,-6.0,-6.0,29.87,,,,,48,0,0,,,,,,,,,8/8 Overcast,100.0,,OVC,100,,,,,,
KRDR,12-30-2004,08:00,METAR,,70,8,,,1200,Mist/Cloud Development Not Observable,-6.0,-6.0,29.87,1013.4,,,,10,0,0,,,,,,,,,8/8 Overcast,200.0,,OVC,200,,,,,,
KRDR,12-30-2004,07:14,SPECI,,90,8,,,3200,Mist/Cloud Development Not Observable,-7.0,-7.0,29.90,,,,,10,0,0,,,,,,,,,8/8 Overcast,400.0,,BKN,400,OVC,1000.0,,,,
KRDR,12-30-2004,07:00,METAR,,70,9,,,8000,Mist/Cloud Development Not Observable,-6.0,-6.0,29.91,1014.6,,,,10,0,0,,,,,,,,,8/8 Overcast,1000.0,,SCT,700,OVC,1000.0,,,,
KRDR,12-30-2004,06:00,METAR,,70,6,,,6400,Mist/Cloud Development Not Observable,-4.0,-4.0,29.93,1015.2,,,,10,0,0,,,,,,,,,8/8 Overcast,700.0,,BKN,700,OVC,1000.0,,,,
KRDR,12-30-2004,05:00,METAR,,110,6,,,4800,Mist/Cloud Development Not Observable,-3.0,-3.0,29.95,1015.9,,,,10,0,0,,,,,,,,,8/8 Overcast,300.0,,SCT,200,BKN,300.0,OVC,800.0,,
KRDR,12-30-2004,04:35,SPECI,,100,7,,,3200,Mist/Cloud Development Not Observable,-4.0,-4.0,29.94,,,,,10,0,0,,,,,,,,,8/8 Overcast,300.0,,SCT,200,BKN,300.0,OVC,800.0,,
KRDR,12-30-2004,04:15,SPECI,,90,6,,,1600,Mist/Cloud Development Not Observable,-4.0,-4.0,29.94,,,,,10,0,0,,,,,,,,,8/8 Overcast,200.0,,BKN,200,OVC,300.0,,,,
KRDR,12-30-2004,04:00,METAR,,70,4,,,1600,Mist/Cloud Development Not Observable,-4.0,-4.0,29.95,1016.0,,,,10,0,0,,,,,,,,,8/8 Overcast,300.0,,SCT,200,OVC,300.0,,,,
KRDR,12-30-2004,03:35,SPECI,,80,4,,,1600,Mist/Cloud Development Not Observable,-4.0,-4.0,29.95,,,,,10,0,0,,,,,,,,,8/8 Overcast,300.0,,SCT,200,OVC,300.0,,,,
KRDR,12-30-2004,03:00,METAR,,100,6,,,4800,Light Snow/Mist/Cloud Development Not Observable,-4.0,-4.0,29.96,1016.3,,,,71,10,0,,,,,,TRACE,,,8/8 Overcast,300.0,,OVC,300,,,,,,
KRDR,12-30-2004,02:00,METAR,,100,6,,,6400,Light Snow/Mist/Cloud Development Not Observable,-4.0,-4.0,29.97,1016.7,,,,71,10,0,,,,,,,,,8/8 Overcast,300.0,,BKN,300,OVC,500.0,,,,
KRDR,12-30-2004,01:06,SPECI,,,4,,,6400,Light Snow/Mist/Cloud Development Not Observable,-4.0,-4.0,29.97,,,,,71,10,0,,,,,,,,,8/8 Overcast,300.0,,BKN,300,OVC,500.0,,,,
KRDR,12-30-2004,01:00,METAR,,,4,,,6400,Mist/Cloud Development Not Observable,-4.0,-4.0,29.97,1016.7,,,,10,0,0,,,,,,,,,8/8 Overcast,600.0,,SCT,300,OVC,600.0,,,,
KRDR,12-30-2004,00:00,METAR,,140,5,,,6400,Mist/Cloud Development Not Observable,-4.0,-4.0,29.96,1016.3,,,,10,0,0,,,,,,,IN,,8/8 Overcast,600.0,,SCT,300,OVC,600.0,,,,
KRDR,12-29-2004,23:00,METAR,,50,1,,,8000,Mist/Cloud Development Not Observable,-3.0,-3.0,29.94,1015.6,,,,10,0,0,,,,,,,,,8/8 Overcast,600.0,,OVC,600,,,,,,
KRDR,12-29-2004,22:00,METAR,,,4,,,8000,Light Snow/Mist/Cloud Development Not Observable,-3.0,-3.0,29.95,1016.0,,,,71,10,0,,,,,,,,,8/8 Overcast,600.0,,OVC,600,,,,,,
KRDR,12-29-2004,21:00,METAR,,,2,,,6400,Light Snow/Mist/Cloud Development Not Observable,-3.0,-3.0,29.93,1015.3,,,,71,10,0,,,,,,TRACE,,,8/8 Overcast,600.0,,OVC,600,,,,,,
KRDR,12-29-2004,20:00,METAR,,170,6,,,6400,Mist/Cloud Development Not Observable,-3.0,-3.0,29.91,1014.8,,,,10,0,0,,,,,,,,,8/8 Overcast,600.0,,OVC,600,,,,,,
KRDR,12-29-2004,19:00,METAR,,220,6,,,6400,Mist/Cloud Development Not Observable,-3.0,-3.0,29.92,1015.1,,,,10,0,0,,,,,,,,,8/8 Overcast,600.0,,OVC,600,,,,,,
KRDR,12-29-2004,18:23,SPECI,,200,9,,,6400,Light Snow/Mist/Cloud Development Not Observable,-3.0,-3.0,29.93,,,,,71,10,0,,,,,,,,,8/8 Overcast,600.0,,OVC,600,,,,,,
KRDR,12-29-2004,18:00,METAR,,190,8,,,6400,Mist/Cloud Development Not Observable,-3.0,-3.0,29.93,1015.5,,,,10,0,0,,,,,,,IN,,8/8 Overcast,500.0,,OVC,500,,,,,,
KRDR,12-29-2004,17:00,METAR,,190,9,,,6400,Mist/Cloud Development Not Observable,-4.0,-4.0,29.96,1016.3,,,,10,0,0,,,,,,,,,8/8 Overcast,500.0,,OVC,500,,,,,,
KRDR,12-29-2004,16:22,SPECI,,190,9,,,4800,Mist/Cloud Development Not Observable,-4.0,-4.0,29.96,,,,,10,0,0,,,,,,,,,8/8 Overcast,500.0,,OVC,500,,,,,,
KRDR,12-29-2004,16:00,METAR,,200,13,,,4800,Mist/Cloud Development Not Observable,-4.0,-4.0,29.95,1016.2,,,,10,0,0,,,,,,,,,8/8 Overcast,500.0,,OVC,500,,,,,,
KRDR,12-29-2004,15:06,SPECI,,190,8,,,4000,Light Snow/Mist/Cloud Development Not Observable,-3.0,-3.0,29.95,,,,,71,10,0,,,,,,,,,8/8 Overcast,300.0,,OVC,300,,,,,,
KRDR,12-29-2004,15:00,METAR,,170,11,,,4000,Mist/Cloud Development Not Observable,-4.0,-4.0,29.95,1016.2,,,,10,0,0,,,,,,,,,8/8 Overcast,300.0,,OVC,300,,,,,,
KRDR,12-29-2004,14:44,SPECI,,170,12,,,4000,Mist/Cloud Development Not Observable,-3.0,-3.0,29.95,,,,,10,0,0,,,,,,,,,8/8 Overcast,200.0,,OVC,200,,,,,,
KRDR,12-29-2004,14:14,SPECI,,180,6,,,1600,Mist/Cloud Development Not Observable,-3.0,-3.0,29.95,,,,,10,0,0,,,,,,,,,8/8 Overcast,300.0,,OVC,300,,,,,,
KRDR,12-29-2004,14:00,METAR,,180,6,,,2400,Mist/Cloud Development Not Observable,-4.0,-4.0,29.95,1016.2,,,,10,0,0,,,,,,,,,8/8 Overcast,300.0,,OVC,300,,,,,,
KRDR,12-29-2004,13:45,METAR,,180,6,,,2400,Mist/Cloud Development Not Observable,-4.0,-4.0,29.96,,,,,10,0,0,,,,,,,,,8/8 Overcast,300.0,,OVC,300,,,,,,
KRDR,12-29-2004,13:34,SPECI,,180,5,,,2400,Mist/Cloud Development Not Observable,-4.0,-4.0,29.96,,,,,10,0,0,,,,,,,,,8/8 Overcast,300.0,,OVC,300,,,,,,
KRDR,12-29-2004,13:00,METAR,,180,6,,,1600,Mist/Cloud Development Not Observable,-5.0,-5.0,29.97,1016.9,,,,10,0,0,,,,,,,,,8/8 Overcast,200.0,,OVC,200,,,,,,
KRDR,12-29-2004,12:36,SPECI,,190,5,,,1600,Mist/Cloud Development Not Observable,-5.0,-5.0,29.97,,,,,10,0,0,,,,,,,,,8/8 Overcast,2000.0,,OVC,2000,,,,,,
KRDR,12-29-2004,12:00,METAR,,190,6,,,1600,Mist/Cloud Development Not Observable,-5.0,-5.0,29.97,1016.8,,,,10,0,0,,,,,,,,,8/8 Overcast,200.0,,OVC,200,,,,,,
KRDR,12-29-2004,09:00,METAR,,190,9,,,1600,Mist/Cloud Development Not Observable,-6.0,-6.0,29.99,1017.4,,,,10,0,0,,,,,,,,,8/8 Overcast,200.0,,OVC,200,,,,,,
KRDR,12-29-2004,08:34,SPECI,,190,6,,,1600,Mist/Cloud Development Not Observable,-6.0,-6.0,29.99,,,,,10,0,0,,,,,,,,,8/8 Overcast,200.0,,OVC,200,,,,,,
KRDR,12-29-2004,08:00,METAR,,190,8,,,1200,Mist/Cloud Development Not Observable,-6.0,-6.0,29.98,1017.2,,,,10,0,0,,,,,,,,,8/8 Overcast,200.0,,OVC,200,,,,,,
KRDR,12-29-2004,07:33,SPECI,,190,8,,,3200,Mist/Cloud Development Not Observable,-6.0,-6.0,29.99,,,,,10,0,0,,,,,,,,,8/8 Overcast,200.0,,OVC,200,,,,,,
KRDR,12-29-2004,07:00,METAR,,190,6,,,6400,Mist/Cloud Development Not Observable,-5.0,-5.0,30.00,1017.7,,,,10,0,0,,,,,,,,,8/8 Overcast,300.0,,OVC,300,,,,,,
KRDR,12-29-2004,06:00,METAR,,190,6,,,9999,Mist/Cloud Development Not Observable,-5.0,-5.0,30.01,1018.1,,,,10,0,0,,,,,,,,,8/8 Overcast,500.0,,OVC,500,,,,,,
KRDR,12-29-2004,05:00,METAR,,240,6,,,9999,Cloud Development Not Observable,-5.0,-5.0,30.01,1018.1,,,,0,0,0,,,,,,,,,8/8 Overcast,500.0,,OVC,500,,,,,,
KRDR,12-29-2004,04:00,METAR,,220,8,,,9999,Cloud Development Not Observable,-5.0,-5.0,30.00,1017.7,,,,0,0,0,,,,,,,,,7/8 Mostly Cloudy,25000.0,,SCT,600,BKN,25000.0,,,,
KRDR,12-29-2004,03:00,METAR,,220,5,,,9999,Cloud Development Not Observable,-6.0,-6.0,29.99,1017.5,,,,0,0,0,,,,,,,,,7/8 Mostly Cloudy,25000.0,,SCT,700,BKN,25000.0,,,,
KRDR,12-29-2004,02:35,SPECI,,230,6,,,9999,Cloud Development Not Observable,-6.0,-6.0,29.99,,,,,0,0,0,,,,,,,,,7/8 Mostly Cloudy,25000.0,,SCT,700,BKN,25000.0,,,,
KRDR,12-29-2004,02:00,METAR,,220,6,,,9999,Cloud Development Not Observable,-7.0,-7.0,30.00,1017.9,,,,0,0,0,,,,,,,,,2/8 Mostly Clear,72000.0,,FEW,1000,FEW,25000.0,,,,
KRDR,12-29-2004,01:00,METAR,,220,5,,,9999,Cloud Development Not Observable,-10.0,-10.0,29.99,1017.6,,,,0,0,0,,,,,,,,,2/8 Mostly Clear,72000.0,,FEW,25000,,,,,,
KRDR,12-29-2004,00:00,METAR,,220,4,,,9999,Cloud Development Not Observable,-8.0,-8.0,29.98,1017.2,,,,0,0,0,,,,,,,,,2/8 Mostly Clear,72000.0,,FEW,25000,,,,,,
KRDR,12-28-2004,23:00,METAR,,280,3,,,9999,Cloud Development Not Observable,-4.0,-5.0,29.96,1016.3,,,,0,0,0,,,,,,,,,2/8 Mostly Clear,72000.0,,FEW,25000,,,,,,
KRDR,12-28-2004,22:00,METAR,,270,5,,,9999,Cloud Development Not Observable,-2.0,-5.0,29.95,1016.1,,,,0,0,0,,,,,,,,,2/8 Mostly Clear,72000.0,,FEW,25000,,,,,,
KRDR,12-28-2004,21:00,METAR,,280,8,,,9999,Cloud Development Not Observable,-2.0,-5.0,29.94,1015.7,,,,0,0,0,,,,,,,,,2/8 Mostly Clear,72000.0,,FEW,1500,FEW,20000.0,,,,
KRDR,12-28-2004,20:03,SPECI,,270,7,,,9999,Cloud Development Not Observable,-2.0,-5.0,29.95,,,,,0,0,0,,,,,,,,,4/8 Partly Cloudy,72000.0,,SCT,1600,SCT,25000.0,,,,
KRDR,12-28-2004,20:00,METAR,,280,9,,,9999,Cloud Development Not Observable,-2.0,-5.0,29.95,1015.9,,,,0,0,0,,,,,,,,,7/8 Mostly Cloudy,1600.0,,BKN,1600,BKN,25000.0,,,,
KRDR,12-28-2004,19:00,METAR,,280,9,,,9999,Cloud Development Not Observable,-2.0,-4.0,29.96,1016.3,,,,0,0,0,,,,,,,,,7/8 Mostly Cloudy,1600.0,,BKN,1600,,,,,,
KRDR,12-28-2004,18:00,METAR,,280,10,,,9999,Cloud Development Not Observable,-3.0,-5.0,29.97,1016.7,,,,0,0,0,,,,,,,,,8/8 Overcast,1200.0,,OVC,1200,,,,,,
KRDR,12-28-2004,17:00,METAR,,270,6,,,9999,Cloud Development Not Observable,-3.0,-4.0,29.98,1017.1,,,,0,0,0,,,,,,,,,8/8 Overcast,1200.0,,OVC,1200,,,,,,
KRDR,12-28-2004,16:00,METAR,,260,8,,,9999,Cloud Development Not Observable,-4.0,-5.0,29.98,1017.4,,,,0,0,0,,,,,,,,,8/8 Overcast,1200.0,,OVC,1200,,,,,,
KRDR,12-28-2004,15:00,METAR,,250,7,,,9999,Cloud Development Not Observable,-5.0,-5.0,29.99,1017.6,,,,0,0,0,,,,,,,,,8/8 Overcast,1200.0,,OVC,1200,,,,,,
KRDR,12-28-2004,14:03,SPECI,,270,6,,,9999,Cloud Development Not Observable,-5.0,-5.0,29.98,,,,,0,0,0,,,,,,,,,8/8 Overcast,1300.0,,OVC,1300,,,,,,
KRDR,12-28-2004,14:00,METAR,,270,5,,,9999,Cloud Development Not Observable,-5.0,-5.0,29.99,1017.6,,,,0,0,0,,,,,,,,,8/8 Overcast,1400.0,,OVC,1400,,,,,,
KRDR,12-28-2004,13:00,METAR,,260,7,,,9999,Cloud Development Not Observable,-5.0,-6.0,29.99,1017.6,,,,0,0,0,,,,,,,,,8/8 Overcast,1300.0,,OVC,1300,,,,,,
KRDR,12-28-2004,12:00,METAR,,290,8,,,9999,Cloud Development Not Observable,-5.0,-6.0,29.99,1018.0,,,,0,0,0,,,,,,,IN,.02 IN,8/8 Overcast,1200.0,,OVC,1200,,,,,,
KRDR,12-28-2004,11:00,METAR,,270,6,,,9999,Light Snow/Cloud Development Not Observable,-5.0,-6.0,30.00,1018.0,,,,71,0,0,,,,,,,,,8/8 Overcast,1200.0,,OVC,1200,,,,,,
KRDR,12-28-2004,10:00,METAR,,270,6,,,6400,Light Snow/Mist/Cloud Development Not Observable,-5.0,-5.0,30.01,1018.4,,,,71,10,0,,,,,,,,,8/8 Overcast,1200.0,,OVC,1200,,,,,,
KRDR,12-28-2004,09:46,SPECI,,280,6,,,6400,Light Snow/Mist/Cloud Development Not Observable,-5.0,-5.0,30.02,,,,,71,10,0,,,,,,,,,8/8 Overcast,1200.0,,OVC,1200,,,,,,
KRDR,12-28-2004,09:00,METAR,,250,4,,,6400,Light Snow/Mist/Cloud Development Not Observable,-5.0,-5.0,30.03,1019.0,,,,71,10,0,,,,,,TRACE,,,8/8 Overcast,1200.0,,OVC,1200,,,,,,
KRDR,12-28-2004,08:16,SPECI,,210,6,,,6400,Light Snow/Mist/Cloud Development Not Observable,-5.0,-5.0,30.03,,,,,71,10,0,,,,,,,,,8/8 Overcast,1200.0,,OVC,1200,,,,,,
KRDR,12-28-2004,08:00,METAR,,210,6,,,6400,Light Snow/Mist/Cloud Development Not Observable,-5.0,-5.0,30.04,1019.4,,,,71,10,0,,,,,,,,,8/8 Overcast,1200.0,,OVC,1200,,,,,,
KRDR,12-28-2004,07:00,METAR,,220,8,,,9999,Light Snow/Mist/Cloud Development Not Observable,-5.0,-5.0,30.06,1020.1,,,,71,10,0,,,,,,,,,8/8 Overcast,1600.0,,OVC,1600,,,,,,
KRDR,12-28-2004,06:00,METAR,,210,7,,,9999,Light Snow/Mist/Cloud Development Not Observable,-6.0,-6.0,30.09,1020.9,,,,71,10,0,,,,,,,IN,,8/8 Overcast,1600.0,,OVC,1600,,,,,,
KRDR,12-28-2004,05:00,METAR,,180,5,,,9999,Light Snow/Mist/Cloud Development Not Observable,-8.0,-8.0,30.11,1021.8,,,,71,10,0,,,,,,,,,8/8 Overcast,1800.0,,OVC,1800,,,,,,
KRDR,12-28-2004,04:00,METAR,,190,1,,,4800,Light Snow/Mist/Cloud Development Not Observable,-8.0,-8.0,30.14,1022.9,,,,71,10,0,,,,,,,,,8/8 Overcast,1800.0,,OVC,1800,,,,,,
KRDR,12-28-2004,03:00,METAR,,190,2,,,4800,Light Snow/Mist/Cloud Development Not Observable,-9.0,-9.0,30.16,1023.7,,,,71,10,0,,,,,,TRACE,,,8/8 Overcast,1900.0,,OVC,1900,,,,,,
KRDR,12-28-2004,02:00,METAR,,,0,,,4800,Light Snow/Mist/Cloud Development Not Observable,-9.0,-9.0,30.19,1024.7,,,,71,10,0,,,,,,,,,8/8 Overcast,2000.0,,SCT,1200,OVC,2000.0,,,,
KRDR,12-28-2004,01:00,METAR,,,0,,,4800,Light Snow/Mist/Cloud Development Not Observable,-10.0,-10.0,30.20,1025.1,,,,71,10,0,,,,,,,,,8/8 Overcast,2200.0,,OVC,2200,,,,,,
KRDR,12-28-2004,00:00,METAR,,,0,,,6400,Light Snow/Mist/Cloud Development Not Observable,-10.0,-10.0,30.22,,,,,71,10,0,,,,,,,IN,,8/8 Overcast,2300.0,,OVC,2300,,,,,,
KRDR,12-27-2004,23:00,METAR,,20,2,,,6400,Light Snow/Mist/Cloud Development Not Observable,-11.0,-11.0,30.24,,,,,71,10,0,,,,,,,,,8/8 Overcast,1400.0,,BKN,1400,OVC,2500.0,,,,
KRDR,12-27-2004,22:00,METAR,,350,2,,,6400,Light Snow/Mist/Cloud Development Not Observable,-11.0,-11.0,30.26,,,,,71,10,0,,,,,,,,,8/8 Overcast,1200.0,,BKN,1200,OVC,2500.0,,,,
KRDR,12-27-2004,21:00,METAR,,10,3,,,6400,Light Snow/Mist/Cloud Development Not Observable,-10.0,-10.0,30.27,,,,,71,10,0,,,,,,,,,8/8 Overcast,1200.0,,BKN,1200,OVC,2400.0,,,,
KRDR,12-27-2004,20:00,METAR,,10,5,,,6400,Light Snow/Mist/Cloud Development Not Observable,-10.0,-10.0,30.30,,,,,71,10,0,,,,,,,,,8/8 Overcast,1000.0,,OVC,1000,,,,,,
KRDR,12-27-2004,19:00,METAR,,10,6,,,4800,Light Snow/Mist/Cloud Development Not Observable,-9.0,-9.0,30.32,,,,,71,10,0,,,,,,,,,8/8 Overcast,1100.0,,OVC,1100,,,,,,
KRDR,12-27-2004,18:37,SPECI,,20,7,,,6400,Light Snow/Mist/Cloud Development Not Observable,-9.0,-9.0,30.32,,,,,71,10,0,,,,,,,,,8/8 Overcast,1100.0,,OVC,1100,,,,,,
KRDR,12-27-2004,18:00,METAR,,,1,,,9999,Mist/Cloud Development Not Observable,-7.0,-7.0,30.35,,,,,10,0,0,,,,,,,,,8/8 Overcast,1100.0,,OVC,1100,,,,,,
KRDR,12-27-2004,17:00,METAR,,180,3,,,9999,Mist/Cloud Development Not Observable,-6.0,-7.0,30.37,,,,,10,0,0,,,,,,,,,8/8 Overcast,1100.0,,OVC,1100,,,,,,
KRDR,12-27-2004,16:00,METAR,,160,2,,,9999,Cloud Development Not Observable,-7.0,-8.0,30.36,,,,,0,0,0,,,,,,,,,8/8 Overcast,1200.0,,OVC,1200,,,,,,
KRDR,12-27-2004,15:43,SPECI,,150,3,,,9999,Cloud Development Not Observable,-7.0,-8.0,30.36,,,,,0,0,0,,,,,,,,,8/8 Overcast,1200.0,,OVC,1200,,,,,,
KRDR,12-27-2004,15:00,METAR,,170,4,,,9999,Cloud Development Not Observable,-7.0,-8.0,30.36,,,,,0,0,0,,,,,,,,,8/8 Overcast,1500.0,,OVC,1500,,,,,,
KRDR,12-27-2004,14:00,METAR,,160,5,,,9999,Cloud Development Not Observable,-8.0,-9.0,30.35,,,,,0,0,0,,,,,,,,,8/8 Overcast,1500.0,,OVC,1500,,,,,,
KRDR,12-27-2004,13:00,METAR,,160,5,,,9999,Cloud Development Not Observable,-8.0,-9.0,30.36,,,,,0,0,0,,,,,,,,,8/8 Overcast,1600.0,,OVC,1600,,,,,,
KRDR,12-25-2004,04:00,METAR,,120,10,,,9999,Cloud Development Not Observable,-15.0,-17.0,29.83,1013.2,,,,0,0,0,,,,,,,,,8/8 Overcast,7000.0,,SCT,3500,BKN,6900.0,OVC,9400.0,,
KRDR,12-25-2004,03:00,METAR,,130,8,,,9999,Cloud Development Not Observable,-16.0,-18.0,29.85,1014.1,,,,0,0,0,,,,,,,,,8/8 Overcast,7000.0,,SCT,4500,BKN,6900.0,OVC,9400.0,,
KRDR,12-25-2004,02:00,METAR,,120,8,,,9999,Cloud Development Not Observable,-15.0,-18.0,29.86,1014.4,,,,0,0,0,,,,,,,,,7/8 Mostly Cloudy,9500.0,,SCT,4500,BKN,9400.0,BKN,20000.0,,
KRDR,12-25-2004,01:00,METAR,,120,8,,,9999,Cloud Development Not Observable,-15.0,-17.0,29.88,1015.0,,,,0,0,0,,,,,,,,,7/8 Mostly Cloudy,10000.0,,SCT,4500,BKN,9900.0,BKN,20000.0,,
KRDR,12-25-2004,00:00,METAR,,140,7,,,9999,Cloud Development Not Observable,-16.0,-17.0,29.89,1015.3,,,,0,0,0,,,,,,,,,7/8 Mostly Cloudy,10000.0,,FEW,6900,BKN,9900.0,BKN,20000.0,,
KRDR,12-24-2004,23:00,METAR,,130,7,,,9999,Cloud Development Not Observable,-16.0,-17.0,29.88,1015.1,,,,0,0,0,,,,,,,,,7/8 Mostly Cloudy,7000.0,,FEW,5000,SCT,7400.0,BKN,12000.0,BKN,25000.0
KRDR,12-24-2004,22:00,METAR,,140,9,,,9999,Cloud Development Not Observable,-15.0,-17.0,29.88,1015.0,,,,0,0,0,,,,,,,,,7/8 Mostly Cloudy,12000.0,,FEW,5000,SCT,12000.0,BKN,25000.0,,
KRDR,12-24-2004,21:00,METAR,,150,10,,,9999,Cloud Development Not Observable,-15.0,-18.0,29.88,1015.0,,,,0,0,0,,,,,,,,,7/8 Mostly Cloudy,12000.0,,FEW,7400,BKN,12000.0,BKN,25000.0,,
KRDR,12-24-2004,20:00,METAR,,150,8,,,9999,Cloud Development Not Observable,-15.0,-18.0,29.89,1015.1,,,,0,0,0,,,,,,,,,7/8 Mostly Cloudy,15000.0,,SCT,5000,BKN,15000.0,BKN,25000.0,,
KRDR,12-24-2004,19:00,METAR,,150,10,,,9999,Cloud Development Not Observable,-15.0,-18.0,29.89,1015.3,,,,0,0,0,,,,,,,,,7/8 Mostly Cloudy,15000.0,,FEW,4000,SCT,15000.0,BKN,25000.0,,
KRDR,12-24-2004,18:00,METAR,,150,13,,,9999,Cloud Development Not Observable,-16.0,-19.0,29.94,1017.3,,,,0,0,0,,,,,,,,,7/8 Mostly Cloudy,25000.0,,SCT,15000,BKN,25000.0,,,,
KRDR,12-24-2004,17:00,METAR,,160,10,,,9999,Cloud Development Not Observable,-18.0,-20.0,29.98,1018.6,,,,0,0,0,,,,,,,,,7/8 Mostly Cloudy,15000.0,,FEW,5900,SCT,15000.0,BKN,25000.0,,
KRDR,12-24-2004,16:00,METAR,,150,8,,,9999,Cloud Development Not Observable,-20.0,-21.0,29.97,1018.2,,,,0,0,0,,,,,,,,,7/8 Mostly Cloudy,15000.0,,FEW,5900,BKN,15000.0,BKN,25000.0,,
KRDR,12-24-2004,15:00,METAR,,150,6,,,9999,Cloud Development Not Observable,-23.0,-23.0,30.00,1019.4,,,,0,0,0,,,,,,,,,4/8 Partly Cloudy,72000.0,,FEW,5900,SCT,25000.0,,,,
KRDR,12-24-2004,14:00,METAR,,150,6,,,9999,Cloud Development Not Observable,-24.0,-24.0,30.00,1019.4,,,,0,0,0,,,,,,,,,4/8 Partly Cloudy,72000.0,,SCT,25000,,,,,,
KRDR,12-24-2004,13:00,METAR,,140,6,,,9999,Cloud Development Not Observable,-24.0,-24.0,30.03,1020.4,,,,0,0,0,,,,,,,,,4/8 Partly Cloudy,72000.0,,SCT,25000,,,,,,
KRDR,12-24-2004,12:00,METAR,,140,4,,,9999,Cloud Development Not Observable,-23.0,-24.0,30.05,1021.0,,,,0,0,0,,,,,,,,,4/8 Partly Cloudy,72000.0,,SCT,25000,,,,,,
KRDR,12-24-2004,11:00,METAR,,170,5,,,9999,Cloud Development Not Observable,-24.0,-24.0,30.08,1022.2,,,,0,0,0,,,,,,,,,Clear,72000.0,,,73000,,,,,,
KRDR,12-24-2004,10:00,METAR,,170,5,,,9999,Cloud Development Not Observable,-23.0,-23.0,30.12,1023.4,,,,0,0,0,,,,,,,,,Clear,72000.0,,,73000,,,,,,
KRDR,12-24-2004,09:00,METAR,,170,4,,,9999,Cloud Development Not Observable,-24.0,-24.0,30.15,1024.5,,,,0,0,0,,,,,,,,,Clear,72000.0,,,73000,,,,,,
KRDR,12-24-2004,08:00,METAR,,170,3,,,9999,Cloud Development Not Observable,-24.0,-24.0,30.17,1025.3,,,,0,0,0,,,,,,,,,Clear,72000.0,,,73000,,,,,,
KRDR,12-24-2004,07:00,METAR,,190,4,,,9999,Cloud Development Not Observable,-24.0,-24.0,30.21,1026.5,,,,0,0,0,,,,,,,,,Clear,72000.0,,,73000,,,,,,
KRDR,12-24-2004,06:00,METAR,,180,6,,,9999,Cloud Development Not Observable,-26.0,-26.0,30.26,1028.3,,,,0,0,0,,,,,,,,,Clear,72000.0,,,73000,,,,,,
KRDR,12-24-2004,05:00,METAR,,210,3,,,9999,Cloud Development Not Observable,-25.0,-25.0,30.28,1029.0,,,,0,0,0,,,,,,,,,Clear,72000.0,,,73000,,,,,,
KRDR,12-24-2004,04:00,METAR,,190,6,,,9999,Cloud Development Not Observable,-25.0,-25.0,30.31,1030.0,,,,0,0,0,,,,,,,,,Clear,72000.0,,,73000,,,,,,
KRDR,12-24-2004,03:00,METAR,,190,3,,,9999,Cloud Development Not Observable,-24.0,-24.0,30.34,1031.1,,,,0,0,0,,,,,,,,,Clear,72000.0,,,73000,,,,,,
KRDR,12-24-2004,02:00,METAR,,200,4,,,9999,Cloud Development Not Observable,-23.0,-23.0,30.37,1032.1,,,,0,0,0,,,,,,,,,Clear,72000.0,,,73000,,,,,,
KRDR,12-24-2004,01:00,METAR,,220,4,,,9999,Cloud Development Not Observable,-23.0,-23.0,30.40,1033.2,,,,0,0,0,,,,,,,,,Clear,72000.0,,,73000,,,,,,
KRDR,12-24-2004,00:00,METAR,,250,6,,,9999,Cloud Development Not Observable,-23.0,-23.0,30.43,1034.2,,,,0,0,0,,,,,,,,,Clear,72000.0,,,73000,,,,,,
KRDR,12-23-2004,23:00,METAR,,260,6,,,9999,Cloud Development Not Observable,-22.0,-23.0,30.46,1035.2,,,,0,0,0,,,,,,,,,Clear,72000.0,,,73000,,,,,,
KRDR,12-23-2004,22:00,METAR,,260,7,,,9999,Cloud Development Not Observable,-20.0,-23.0,30.47,1035.4,,,,0,0,0,,,,,,,,,Clear,72000.0,,,73000,,,,,,
KRDR,12-23-2004,21:00,METAR,,270,8,,,9999,Cloud Development Not Observable,-19.0,-22.0,30.49,1036.1,,,,0,0,0,,,,,,,,,2/8 Mostly Clear,72000.0,,FEW,2000,,,,,,
KRDR,12-23-2004,20:00,METAR,,,6,,,9999,Diamond Dust/Cloud Development Not Observable,-20.0,-23.0,30.51,1036.8,,,,76,0,0,,,,,,,,,2/8 Mostly Clear,72000.0,,FEW,2000,,,,,,
KRDR,12-23-2004,19:00,METAR,,300,8,,,9999,Diamond Dust/Cloud Development Not Observable,-20.0,-22.0,30.55,1038.0,,,,76,0,0,,,,,,,,,4/8 Partly Cloudy,72000.0,,SCT,1600,,,,,,
KRDR,12-23-2004,18:00,METAR,,300,9,,,9999,Cloud Development Not Observable,-21.0,-23.0,30.58,1039.1,,,,0,0,0,,,,,,,,,Clear,72000.0,,,73000,,,,,,
KRDR,12-23-2004,17:00,METAR,,300,9,,,9999,Cloud Development Not Observable,-23.0,-25.0,30.61,1040.3,,,,0,0,0,,,,,,,,,Clear,72000.0,,,73000,,,,,,
KRDR,12-23-2004,16:00,METAR,,300,7,,,9999,Cloud Development Not Observable,-24.0,-26.0,30.62,1040.7,,,,0,0,0,,,,,,,,,Clear,72000.0,,,73000,,,,,,
KRDR,12-23-2004,15:00,METAR,,330,9,,,9999,Cloud Development Not Observable,-25.0,-26.0,30.64,1041.3,,,,0,0,0,,,,,,,,,Clear,72000.0,,,73000,,,,,,
KRDR,12-23-2004,14:00,METAR,,320,5,,,9999,Cloud Development Not Observable,-26.0,-26.0,30.64,1041.4,,,,0,0,0,,,,,,,,,Clear,72000.0,,,73000,,,,,,
KRDR,12-23-2004,13:00,METAR,,340,6,,,9999,Cloud Development Not Observable,-26.0,-26.0,30.64,1041.3,,,,0,0,0,,,,,,,,,Clear,72000.0,,,73000,,,,,,
KRDR,12-23-2004,12:00,METAR,,330,7,,,9999,Cloud Development Not Observable,-25.0,-25.0,30.63,1040.9,,,,0,0,0,,,,,,,,,Clear,72000.0,,,73000,,,,,,
KRDR,12-23-2004,11:00,METAR,,340,5,,,9999,Cloud Development Not Observable,-25.0,-25.0,30.62,1040.5,,,,0,0,0,,,,,,,,,Clear,72000.0,,,73000,,,,,,
KRDR,12-23-2004,09:00,METAR,,360,4,,,9999,Cloud Development Not Observable,-25.0,-25.0,30.61,1040.1,,,,0,0,0,,,,,,,,,7/8 Mostly Cloudy,20000.0,,BKN,20000,,,,,,
KRDR,12-23-2004,08:00,METAR,,360,5,,,9999,Cloud Development Not Observable,-24.0,-24.0,30.60,1039.7,,,,0,0,0,,,,,,,,,7/8 Mostly Cloudy,20000.0,,SCT,6900,BKN,20000.0,,,,
KRDR,12-23-2004,07:00,METAR,,360,9,,,9999,Cloud Development Not Observable,-22.0,-23.0,30.59,1039.5,,,,0,0,0,,,,,,,,,7/8 Mostly Cloudy,20000.0,,SCT,6900,BKN,20000.0,,,,
KRDR,12-23-2004,06:00,METAR,,10,5,,,9999,Cloud Development Not Observable,-23.0,-23.0,30.60,1039.7,,,,0,0,0,,,,,,,,,7/8 Mostly Cloudy,20000.0,,SCT,6900,BKN,20000.0,,,,
KRDR,12-23-2004,05:00,METAR,,10,7,,,9999,Cloud Development Not Observable,-23.0,-23.0,30.58,1039.3,,,,0,0,0,,,,,,,,,7/8 Mostly Cloudy,20000.0,,SCT,6400,BKN,20000.0,,,,
KRDR,12-23-2004,04:00,METAR,,360,5,,,9999,Cloud Development Not Observable,-24.0,-24.0,30.57,1039.1,,,,0,0,0,,,,,,,,,7/8 Mostly Cloudy,20000.0,,FEW,5900,BKN,20000.0,,,,
KRDR,12-23-2004,03:00,METAR,,10,7,,,9999,Cloud Development Not Observable,-22.0,-22.0,30.55,1038.2,,,,0,0,0,,,,,,,,,7/8 Mostly Cloudy,20000.0,,SCT,5400,BKN,20000.0,,,,
KRDR,12-23-2004,02:00,METAR,,360,4,,,9999,Cloud Development Not Observable,-23.0,-23.0,30.54,1038.0,,,,0,0,0,,,,,,,,,7/8 Mostly Cloudy,20000.0,,BKN,20000,,,,,,
KRDR,12-23-2004,01:00,METAR,,30,6,,,9999,Cloud Development Not Observable,-21.0,-22.0,30.52,1037.2,,,,0,0,0,,,,,,,,,7/8 Mostly Cloudy,20000.0,,SCT,12000,BKN,20000.0,,,,
KRDR,12-23-2004,00:00,METAR,,30,6,,,9999,Cloud Development Not Observable,-20.0,-22.0,30.50,1036.5,,,,0,0,0,,,,,,,,,7/8 Mostly Cloudy,20000.0,,SCT,12000,BKN,20000.0,,,,
KRDR,12-22-2004,23:00,METAR,,30,5,,,9999,Cloud Development Not Observable,-20.0,-22.0,30.48,1035.6,,,,0,0,0,,,,,,,,,7/8 Mostly Cloudy,20000.0,,FEW,12000,BKN,20000.0,,,,
KRDR,12-22-2004,22:00,METAR,,360,5,,,9999,Cloud Development Not Observable,-19.0,-22.0,30.46,1035.0,,,,0,0,0,,,,,,,,,4/8 Partly Cloudy,72000.0,,FEW,12000,SCT,20000.0,,,,
KRDR,12-22-2004,21:00,METAR,,330,5,,,9999,Cloud Development Not Observable,-18.0,-22.0,30.45,1034.5,,,,0,0,0,,,,,,,,,4/8 Partly Cloudy,72000.0,,FEW,12000,SCT,20000.0,,,,
KRDR,12-22-2004,20:00,METAR,,,5,,,9999,Cloud Development Not Observable,-19.0,-23.0,30.45,1034.6,,,,0,0,0,,,,,,,,,4/8 Partly Cloudy,72000.0,,FEW,12000,SCT,20000.0,,,,
KRDR,12-22-2004,19:00,METAR,,,5,,,9999,Cloud Development Not Observable,-19.0,-22.0,30.46,1035.0,,,,0,0,0,,,,,,,,,4/8 Partly Cloudy,72000.0,,FEW,12000,SCT,20000.0,,,,
KRDR,12-22-2004,18:00,METAR,,340,7,,,9999,Cloud Development Not Observable,-20.0,-22.0,30.46,1035.0,,,,0,0,0,,,,,,,,,4/8 Partly Cloudy,72000.0,,FEW,12000,SCT,20000.0,,,,
KRDR,12-22-2004,17:00,METAR,,330,4,,,9999,Cloud Development Not Observable,-21.0,-23.0,30.47,1035.3,,,,0,0,0,,,,,,,,,2/8 Mostly Clear,72000.0,,FEW,12000,,,,,,
KRDR,12-22-2004,16:00,METAR,,360,8,,,9999,Cloud Development Not Observable,-22.0,-23.0,30.45,1034.7,,,,0,0,0,,,,,,,,,7/8 Mostly Cloudy,9500.0,,FEW,6900,BKN,9400.0,BKN,12000.0,,
KRDR,12-22-2004,14:00,METAR,,340,6,,,9999,Cloud Development Not Observable,-23.0,-24.0,30.42,1033.6,,,,0,0,0,,,,,,,,,7/8 Mostly Cloudy,9500.0,,FEW,6900,BKN,9400.0,,,,
KRDR,12-22-2004,13:00,METAR,,340,8,,,9999,Cloud Development Not Observable,-24.0,-24.0,30.42,1033.6,,,,0,0,0,,,,,,,,,2/8 Mostly Clear,72000.0,,FEW,12000,,,,,,
KRDR,12-22-2004,12:00,METAR,,340,7,,,9999,Cloud Development Not Observable,-24.0,-24.0,30.41,1033.1,,,,0,0,0,,,,,,,IN,,4/8 Partly Cloudy,72000.0,,SCT,8900,,,,,,
KRDR,12-22-2004,11:00,METAR,,340,7,,,9999,Cloud Development Not Observable,-24.0,-24.0,30.40,1032.8,,,,0,0,0,,,,,,,,,2/8 Mostly Clear,72000.0,,FEW,12000,,,,,,
KRDR,12-22-2004,10:00,METAR,,340,10,,,9999,Cloud Development Not Observable,-23.0,-24.0,30.40,1032.8,,,,0,0,0,,,,,,,,,2/8 Mostly Clear,72000.0,,FEW,12000,,,,,,
KRDR,12-22-2004,09:00,METAR,,340,10,,,9999,Cloud Development Not Observable,-23.0,-24.0,30.39,1032.6,,,,0,0,0,,,,,,,,,Clear,72000.0,,,73000,,,,,,
KRDR,12-22-2004,08:00,METAR,,330,9,,,9999,Cloud Development Not Observable,-23.0,-24.0,30.37,1031.7,,,,0,0,0,,,,,,,,,Clear,72000.0,,,73000,,,,,,
KRDR,12-22-2004,07:00,METAR,,330,9,,,9999,Cloud Development Not Observable,-23.0,-24.0,30.37,1031.7,,,,0,0,0,,,,,,,,,Clear,72000.0,,,73000,,,,,,
KRDR,12-22-2004,06:00,METAR,,340,9,,,9999,Cloud Development Not Observable,-23.0,-24.0,30.36,1031.5,,,,0,0,0,,,,,,,,,Clear,72000.0,,,73000,,,,,,
KRDR,12-22-2004,05:00,METAR,,340,12,,,9999,Cloud Development Not Observable,-22.0,-24.0,30.35,1031.0,,,,0,0,0,,,,,,,,,Clear,72000.0,,,73000,,,,,,
KRDR,12-22-2004,04:00,METAR,,340,10,,,9999,Cloud Development Not Observable,-22.0,-23.0,30.33,1030.4,,,,0,0,0,,,,,,,,,Clear,72000.0,,,73000,,,,,,
KRDR,12-22-2004,03:00,METAR,,350,14,,,9999,Cloud Development Not Observable,-21.0,-23.0,30.31,1029.7,,,,0,0,0,,,,,,,,,4/8 Partly Cloudy,72000.0,,SCT,20000,,,,,,
KRDR,12-22-2004,02:00,METAR,,350,18,22.0,,9999,Cloud Development Not Observable,-20.0,-23.0,30.29,1028.9,,,,0,0,0,,,,,,,,,7/8 Mostly Cloudy,20000.0,,FEW,4000,BKN,20000.0,,,,
KRDR,12-22-2004,01:00,METAR,,350,18,,,9999,Cloud Development Not Observable,-19.0,-21.0,30.25,1027.9,,,,0,0,0,,,,,,,,,8/8 Overcast,20000.0,,SCT,4000,OVC,20000.0,,,,
KRDR,12-22-2004,00:00,METAR,,340,12,,,9999,Cloud Development Not Observable,-17.0,-18.0,30.20,1025.9,,,,0,0,0,,,,,,,IN,,8/8 Overcast,3400.0,,FEW,2000,OVC,3500.0,,,,
KRDR,12-21-2004,23:00,METAR,,340,14,,,9999,Cloud Development Not Observable,-17.0,-18.0,30.18,1025.2,,,,0,0,0,,,,,,,,,8/8 Overcast,3900.0,,OVC,4000,,,,,,
KRDR,12-21-2004,22:00,METAR,,340,14,,,9999,Cloud Development Not Observable,-17.0,-19.0,30.15,1024.2,,,,0,0,0,,,,,,,,,8/8 Overcast,4900.0,,OVC,5000,,,,,,
KRDR,12-21-2004,21:00,METAR,,350,14,,,9999,Cloud Development Not Observable,-17.0,-19.0,30.12,1023.1,,,,0,0,0,,,,,,TRACE,,,8/8 Overcast,4900.0,,OVC,5000,,,,,,
KRDR,12-21-2004,20:00,METAR,,340,16,,,9999,Light Snow/Cloud Development Not Observable,-18.0,-20.0,30.11,1022.8,,,,71,0,0,,,,,,,,,8/8 Overcast,4400.0,,OVC,4500,,,,,,
KRDR,12-21-2004,19:00,METAR,,330,14,,,8000,Light Snow/Cloud Development Not Observable,-18.0,-20.0,30.10,1022.4,,,,71,0,0,,,,,,,,,8/8 Overcast,4400.0,,OVC,4500,,,,,,
KRDR,12-21-2004,18:27,SPECI,,330,14,,,9999,Light Snow/Cloud Development Not Observable,-18.0,-20.0,30.10,,,,,71,0,0,,,,,,,,,8/8 Overcast,4400.0,,OVC,4500,,,,,,
KRDR,12-21-2004,18:00,METAR,,340,17,23.0,,9999,Cloud Development Not Observable,-19.0,-21.0,30.10,1022.4,,,,0,0,0,,,,,,,,,7/8 Mostly Cloudy,4400.0,,BKN,4500,BKN,20000.0,,,,
KRDR,12-21-2004,16:00,METAR,,340,14,23.0,,9999,Cloud Development Not Observable,-20.0,-22.0,30.07,1021.3,,,,0,0,0,,,,,,,,,7/8 Mostly Cloudy,20000.0,,SCT,2500,BKN,20000.0,,,,
KRDR,12-21-2004,15:15,SPECI,,340,17,24.0,,9999,Cloud Development Not Observable,-21.0,-22.0,30.04,,,,,0,0,0,,,,,,,,,4/8 Partly Cloudy,20000.0,,SCT,2500,,,,,,
KRDR,12-21-2004,14:00,METAR,,340,19,24.0,,9999,Cloud Development Not Observable,-21.0,-23.0,29.99,1018.4,,,,0,0,0,,,,,,,,,7/8 Mostly Cloudy,8000.0,,FEW,3000,SCT,7900.0,BKN,20000.0,,
KRDR,12-21-2004,13:35,SPECI,,340,16,,,9999,Cloud Development Not Observable,-21.0,-23.0,29.99,,,,,0,0,0,,,,,,,,,7/8 Mostly Cloudy,8000.0,,SCT,3000,BKN,7900.0,BKN,20000.0,,
KRDR,12-21-2004,13:00,METAR,,330,15,21.0,,9999,Light Snow/Cloud Development Not Observable,-21.0,-21.0,29.95,1016.8,,,,71,0,0,,,,,,,,,8/8 Overcast,3000.0,,BKN,3000,OVC,7900.0,,,,
KRDR,12-21-2004,12:00,METAR,,350,19,,,9999,Cloud Development Not Observable,-20.0,-23.0,29.93,1015.9,,,,0,0,0,,,,,,,,.02 IN,8/8 Overcast,8500.0,,SCT,3000,OVC,8400.0,,,,
KRDR,12-21-2004,11:00,METAR,,350,18,,,9999,Cloud Development Not Observable,-19.0,-21.0,29.88,1013.9,,,,0,0,0,,,,,,,,,8/8 Overcast,8500.0,,SCT,3000,OVC,8400.0,,,,
KRDR,12-21-2004,10:00,METAR,,330,14,26.0,330/26KTS,9999,Cloud Development Not Observable,-19.0,-21.0,29.85,1012.9,,,,0,0,0,,,,,,,,,8/8 Overcast,7500.0,,SCT,2000,OVC,7400.0,,,,
KRDR,12-21-2004,09:00,METAR,,340,21,,340/29KTS,9999,Cloud Development Not Observable,-19.0,-21.0,29.81,1011.5,,,,0,0,0,,,,,,,,,7/8 Mostly Cloudy,8000.0,,SCT,2000,BKN,7900.0,,,,
KRDR,12-21-2004,08:00,METAR,,340,21,27.0,340/28KTS,9999,Cloud Development Not Observable,-19.0,-20.0,29.78,1010.4,,,,0,0,0,,,,,,,,,7/8 Mostly Cloudy,8000.0,,SCT,2000,BKN,7900.0,,,,
KRDR,12-21-2004,07:00,METAR,,340,22,27.0,340/31KTS,9999,Cloud Development Not Observable,-18.0,-20.0,29.74,1008.6,,,,0,0,0,,,,,,,,,8/8 Overcast,7000.0,,SCT,2000,OVC,6900.0,,,,
KRDR,12-21-2004,06:00,METAR,,330,24,31.0,340/33KTS,9999,Cloud Development Not Observable,-17.0,-19.0,29.68,1007.0,,,,0,0,0,,,,,,,.02 IN,,8/8 Overcast,7000.0,,SCT,2000,OVC,6900.0,,,,
KRDR,12-21-2004,05:00,METAR,,350,26,33.0,340/35KTS,4800,Blowing Snow/Cloud Development Not Observable,-17.0,-18.0,29.63,1005.3,,,,38,0,0,,,,,,,,,8/8 Overcast,1500.0,,OVC,1500,,,,,,
KRDR,12-21-2004,04:22,SPECI,,340,21,29.0,,4800,Light Snow/Blowing Snow/Cloud Development Not Observable,-16.0,-17.0,29.59,,,,,71,38,0,,,,,,,,,8/8 Overcast,1000.0,,OVC,1000,,,,,,
KRDR,12-21-2004,04:00,METAR,,350,25,35.0,,1600,Light Snow/Blowing Snow/Cloud Development Not Observable,-15.0,-16.0,29.56,1002.8,,,,71,38,0,,,,,,,,,8/8 Overcast,500.0,,OVC,500,,,,,,
KRDR,12-21-2004,03:37,SPECI,,350,29,34.0,,1600,Light Snow/Blowing Snow/Cloud Development Not Observable,-15.0,-15.0,29.55,,,,,71,38,0,,,,,,,,,8/8 Overcast,700.0,,OVC,700,,,,,,
KRDR,12-21-2004,03:00,METAR,,350,25,35.0,,800,Light Snow/Blowing Snow/Cloud Development Not Observable,-14.0,-14.0,29.51,1001.2,,,,71,38,0,,,,,,.02 IN,,,8/8 Overcast,1000.0,,OVC,1000,,,,,,
KRDR,12-21-2004,02:11,SPECI,,350,22,30.0,,1600,Light Snow/Blowing Snow/Cloud Development Not Observable,-11.0,-12.0,29.45,,,,,71,38,0,,,,,,,,,8/8 Overcast,1100.0,,OVC,1100,,,,,,
KRDR,12-21-2004,02:00,METAR,,350,20,29.0,,2400,Light Snow/Blowing Snow/Cloud Development Not Observable,-11.0,-11.0,29.44,998.7,,,,71,38,0,,,,,,,,,8/8 Overcast,1300.0,,OVC,1300,,,,,,
KRDR,12-21-2004,01:25,METAR,,350,23,,,3200,Light Snow/Cloud Development Not Observable,-9.0,-10.0,29.40,,,,,71,0,0,,,,,,,,,8/8 Overcast,1300.0,,OVC,1300,,,,,,
KRDR,12-21-2004,01:00,METAR,,360,16,23.0,,6400,Light Snow/Cloud Development Not Observable,-8.0,-8.0,29.36,995.9,,,,71,0,0,,,,,,,,,8/8 Overcast,1400.0,,BKN,1400,OVC,2500.0,,,,
KRDR,12-21-2004,00:13,SPECI,,10,18,23.0,,6400,Light Snow/Cloud Development Not Observable,-7.0,-8.0,29.34,,,,,71,0,0,,,,,,,,,7/8 Mostly Cloudy,1000.0,,BKN,1000,BKN,4500.0,,,,
KRDR,12-21-2004,00:00,METAR,,360,13,,,4800,Light Snow/Cloud Development Not Observable,-5.0,-6.0,29.33,994.9,,,,71,0,0,,,,,,,IN,,8/8 Overcast,1000.0,,FEW,500,BKN,1000.0,OVC,2400.0,,
KRDR,12-20-2004,23:29,SPECI,,10,15,,,6400,Light Snow/Cloud Development Not Observable,-4.0,-5.0,29.32,,,,,71,0,0,,,,,,,,,8/8 Overcast,1000.0,,FEW,700,BKN,1000.0,OVC,3000.0,,
KRDR,12-20-2004,23:15,SPECI,,10,16,24.0,,9999,Cloud Development Not Observable,-2.0,-4.0,29.31,,,,,0,0,0,,,,,,,,,8/8 Overcast,1000.0,,FEW,700,BKN,1000.0,OVC,3000.0,,
KRDR,12-20-2004,23:00,METAR,,280,4,,,9999,Cloud Development Not Observable,3.0,-2.0,29.27,992.5,,,,0,0,0,,,,,,,,,7/8 Mostly Cloudy,3000.0,,FEW,500,BKN,3000.0,BKN,4500.0,,
KRDR,12-20-2004,22:00,METAR,,280,7,,,9999,Cloud Development Not Observable,4.0,-2.0,29.27,992.5,,,,0,0,0,,,,,,,,,4/8 Partly Cloudy,72000.0,,FEW,4000,SCT,9900.0,,,,
KRDR,12-20-2004,21:00,METAR,,300,12,19.0,,9999,Cloud Development Not Observable,5.0,-2.0,29.25,991.8,,,,0,0,0,,,,,,,,,4/8 Partly Cloudy,72000.0,,SCT,4000,SCT,9900.0,,,,
KRDR,12-20-2004,20:00,METAR,,280,11,22.0,,9999,Cloud Development Not Observable,5.0,-2.0,29.25,991.5,,,,0,0,0,,,,,,,,,4/8 Partly Cloudy,72000.0,,SCT,4000,SCT,9900.0,,,,
KRDR,12-20-2004,19:00,METAR,,280,13,24.0,,9999,Cloud Development Not Observable,5.0,-3.0,29.26,992.3,,,,0,0,0,,,,,,,,,4/8 Partly Cloudy,72000.0,,FEW,9900,SCT,20000.0,,,,
KRDR,12-20-2004,18:00,METAR,,280,13,21.0,,9999,Cloud Development Not Observable,4.0,-3.0,29.26,992.3,,,,0,0,0,,,,,,,,,4/8 Partly Cloudy,72000.0,,FEW,9900,SCT,20000.0,,,,
KRDR,12-20-2004,17:00,METAR,,280,13,20.0,,9999,Cloud Development Not Observable,2.0,-4.0,29.28,993.1,,,,0,0,0,,,,,,,,,2/8 Mostly Clear,72000.0,,FEW,9900,,,,,,
KRDR,12-20-2004,16:45,METAR,,270,14,,,9999,Cloud Development Not Observable,3.0,-4.0,29.28,,,,,0,0,0,,,,,,,,,2/8 Mostly Clear,72000.0,,FEW,9900,,,,,,
KRDR,12-20-2004,16:00,METAR,,270,12,16.0,,9999,Cloud Development Not Observable,2.0,-4.0,29.27,992.8,,,,0,0,0,,,,,,,,,2/8 Mostly Clear,72000.0,,FEW,9900,,,,,,
KRDR,12-20-2004,15:00,METAR,,270,12,17.0,,9999,Cloud Development Not Observable,1.0,-3.0,29.25,992.1,,,,0,0,0,,,,,,,,,2/8 Mostly Clear,72000.0,,FEW,9900,,,,,,
KRDR,12-20-2004,14:00,METAR,,280,12,,,9999,Cloud Development Not Observable,1.0,-2.0,29.24,991.9,,,,0,0,0,,,,,,,,,2/8 Mostly Clear,72000.0,,FEW,9900,,,,,,
KRDR,12-20-2004,13:00,METAR,,270,7,,,9999,Cloud Development Not Observable,1.0,-1.0,29.23,991.5,,,,0,0,0,,,,,,,,,4/8 Partly Cloudy,72000.0,,FEW,3000,SCT,9900.0,,,,
KRDR,12-20-2004,12:00,METAR,,220,7,,,9999,Cloud Development Not Observable,-1.0,-3.0,29.21,991.0,,,,0,0,0,,,,,,,,,8/8 Overcast,10000.0,,SCT,3000,OVC,9900.0,,,,
KRDR,12-20-2004,11:00,METAR,,200,8,,,9999,Cloud Development Not Observable,-3.0,-4.0,29.21,991.0,,,,0,0,0,,,,,,,,,8/8 Overcast,10000.0,,SCT,3000,OVC,9900.0,,,,
KRDR,12-20-2004,10:00,METAR,,200,13,,,9999,Cloud Development Not Observable,-4.0,-6.0,29.21,991.1,,,,0,0,0,,,,,,,,,7/8 Mostly Cloudy,10000.0,,BKN,9900,,,,,,
KRDR,12-20-2004,09:00,METAR,,190,15,,,9999,Cloud Development Not Observable,-4.0,-7.0,29.21,991.2,,,,0,0,0,,,,,,,,,4/8 Partly Cloudy,72000.0,,SCT,9900,,,,,,
KRDR,12-20-2004,08:00,METAR,,190,19,,190/28KTS,9999,Cloud Development Not Observable,-6.0,-8.0,29.23,992.0,,,,0,0,0,,,,,,,,,4/8 Partly Cloudy,72000.0,,SCT,11000,,,,,,
KRDR,12-20-2004,07:00,METAR,,190,22,28.0,190/30KTS,9999,Cloud Development Not Observable,-6.0,-9.0,29.27,993.4,,,,0,0,0,,,,,,,,,7/8 Mostly Cloudy,11000.0,,BKN,11000,,,,,,
KRDR,12-20-2004,06:00,METAR,,190,24,32.0,190/32KTS,9999,Cloud Development Not Observable,-7.0,-10.0,29.32,995.1,,,,0,0,0,,,,,,,,,8/8 Overcast,11000.0,,SCT,7900,OVC,11000.0,,,,
KRDR,12-20-2004,05:00,METAR,,190,23,32.0,190/34KTS,9999,Cloud Development Not Observable,-8.0,-11.0,29.39,997.6,,,,0,0,0,,,,,,,,,7/8 Mostly Cloudy,8000.0,,BKN,7900,BKN,11000.0,,,,
KRDR,12-20-2004,04:00,METAR,,180,24,31.0,,9999,Cloud Development Not Observable,-8.0,-12.0,29.44,999.4,,,,0,0,0,,,,,,,,,7/8 Mostly Cloudy,8000.0,,BKN,7900,BKN,11000.0,,,,
KRDR,12-20-2004,03:00,METAR,,180,23,33.0,,9999,Cloud Development Not Observable,-9.0,-13.0,29.51,1001.8,,,,0,0,0,,,,,,,,,7/8 Mostly Cloudy,8000.0,,BKN,7900,BKN,9900.0,,,,
KRDR,12-20-2004,02:00,METAR,,170,18,25.0,170/29KTS,9999,Cloud Development Not Observable,-11.0,-14.0,29.57,1007.2,,,,0,0,0,,,,,,,,,4/8 Partly Cloudy,72000.0,,SCT,9900,,,,,,
KRDR,12-20-2004,01:00,METAR,,180,19,,170/26KTS,9999,Cloud Development Not Observable,-12.0,-14.0,29.66,1007.2,,,,0,0,0,,,,,,,,,8/8 Overcast,10000.0,,FEW,5000,OVC,9900.0,,,,
KRDR,12-20-2004,00:00,METAR,,170,20,25.0,170/28KTS,9999,Cloud Development Not Observable,-13.0,-15.0,29.72,1009.4,,,,0,0,0,,,,,,,.02 IN,,8/8 Overcast,10000.0,,FEW,5000,OVC,9900.0,,,,
KRDR,12-19-2004,23:39,SPECI,,180,20,28.0,,9999,Cloud Development Not Observable,-13.0,-14.0,29.75,,,,,0,0,0,,,,,,,,,8/8 Overcast,4900.0,,FEW,2800,SCT,5000.0,OVC,9900.0,,
KRDR,12-19-2004,23:00,METAR,,170,19,24.0,170/26KTS,9999,Cloud Development Not Observable,-14.0,-14.0,29.79,1011.9,,,,0,0,0,,,,,,,,,8/8 Overcast,2500.0,,FEW,1200,OVC,2500.0,,,,
KRDR,12-19-2004,22:00,METAR,,180,21,25.0,170/31KTS,3200,Light Snow/Blowing Snow/Cloud Development Not Observable,-15.0,-15.0,29.85,1013.9,,,,71,38,0,,,,,,,,,8/8 Overcast,2500.0,,FEW,1000,OVC,2500.0,,,,
KRDR,12-19-2004,21:26,SPECI,,170,18,27.0,,3200,Light Snow/Blowing Snow/Cloud Development Not Observable,-15.0,-15.0,29.87,,,,,71,38,0,,,,,,,,,8/8 Overcast,2200.0,,FEW,800,OVC,2200.0,,,,
KRDR,12-19-2004,21:00,METAR,,170,22,27.0,170/31KTS,2400,Light Snow/Blowing Snow/Cloud Development Not Observable,-16.0,-16.0,29.91,1015.9,,,,71,38,0,,,,,,.01 IN,,,8/8 Overcast,1400.0,,FEW,800,BKN,1400.0,OVC,3300.0,,
KRDR,12-19-2004,20:12,SPECI,,170,17,27.0,,2400,Light Snow/Blowing Snow/Cloud Development Not Observable,-16.0,-16.0,29.96,,,,,71,38,0,,,,,,,,,8/8 Overcast,1400.0,,FEW,800,OVC,1400.0,,,,
KRDR,12-19-2004,20:00,METAR,,170,19,27.0,170/28KTS,1600,Light Snow/Blowing Snow/Cloud Development Not Observable,-16.0,-16.0,29.98,1018.4,,,,71,38,0,,,,,,,,,8/8 Overcast,1400.0,,OVC,1400,,,,,,
KRDR,12-19-2004,19:13,SPECI,,170,19,25.0,,1600,Light Snow/Blowing Snow/Cloud Development Not Observable,-17.0,-17.0,30.03,,,,,71,38,0,,,,,,,,,8/8 Overcast,1400.0,,FEW,1000,OVC,1400.0,,,,
KRDR,12-19-2004,19:00,METAR,,170,17,23.0,,2000,Light Snow/Blowing Snow/Cloud Development Not Observable,-17.0,-18.0,30.08,1021.9,,,,71,38,0,,,,,,,,,8/8 Overcast,1700.0,,FEW,1000,OVC,1700.0,,,,
KRDR,12-19-2004,18:40,SPECI,,170,17,22.0,,2000,Light Snow/Blowing Snow/Cloud Development Not Observable,-17.0,-18.0,30.11,,,,,71,38,0,,,,,,,,,8/8 Overcast,1500.0,,FEW,800,OVC,1500.0,,,,
KRDR,12-19-2004,18:00,METAR,,180,17,22.0,,2400,Light Snow/Blowing Snow/Cloud Development Not Observable,-18.0,-19.0,30.16,1024.8,,,,71,38,0,,,,,,,IN,,8/8 Overcast,1500.0,,FEW,800,SCT,1500.0,BKN,2200.0,OVC,2800.0
KRDR,12-19-2004,17:36,SPECI,,170,18,22.0,,2400,Light Snow/Cloud Development Not Observable,-18.0,-19.0,30.19,,,,,71,0,0,,,,,,,,,8/8 Overcast,2200.0,,SCT,1000,BKN,2200.0,OVC,3000.0,,
KRDR,12-19-2004,17:30,METAR,,180,18,22.0,,3200,Light Snow/Cloud Development Not Observable,-18.0,-19.0,30.20,,,,,71,0,0,,,,,,,,,8/8 Overcast,2400.0,,FEW,1000,BKN,2400.0,OVC,3400.0,,
KRDR,12-19-2004,17:10,SPECI,,180,18,,,4000,Light Snow/Cloud Development Not Observable,-18.0,-21.0,30.23,,,,,71,0,0,,,,,,,,,8/8 Overcast,2600.0,,FEW,1000,BKN,2600.0,OVC,4100.0,,
KRDR,12-19-2004,17:00,METAR,,180,18,,,9999,Light Snow/Cloud Development Not Observable,-19.0,-21.0,30.25,1028.0,,,,71,0,0,,,,,,,,,8/8 Overcast,2600.0,,FEW,1600,SCT,2600.0,OVC,3500.0,,
KRDR,12-19-2004,16:42,SPECI,,180,18,23.0,,9999,Light Snow/Cloud Development Not Observable,-19.0,-21.0,30.25,,,,,71,0,0,,,,,,,,,8/8 Overcast,2700.0,,FEW,1800,SCT,2700.0,OVC,3700.0,,
KRDR,12-19-2004,16:00,METAR,,180,17,22.0,,9999,Cloud Development Not Observable,-20.0,-22.0,30.30,1029.4,,,,0,0,0,,,,,,,,,8/8 Overcast,6000.0,,SCT,5000,OVC,5900.0,,,,
KRDR,12-19-2004,15:00,METAR,,180,15,,,9999,Cloud Development Not Observable,-21.0,-22.0,30.36,1031.5,,,,0,0,0,,,,,,,,,8/8 Overcast,8000.0,,FEW,5900,OVC,7900.0,,,,
KRDR,12-19-2004,14:00,METAR,,170,15,,,9999,Cloud Development Not Observable,-22.0,-24.0,30.40,1033.0,,,,0,0,0,,,,,,,,,7/8 Mostly Cloudy,10000.0,,FEW,6900,SCT,9900.0,BKN,20000.0,,
KRDR,12-19-2004,13:00,METAR,,180,10,,,9999,Cloud Development Not Observable,-23.0,-24.0,30.47,1035.4,,,,0,0,0,,,,,,,,,7/8 Mostly Cloudy,20000.0,,FEW,12000,BKN,20000.0,,,,
KRDR,12-19-2004,12:00,METAR,,160,9,,,9999,Cloud Development Not Observable,-23.0,-24.0,30.51,1036.7,,,,0,0,0,,,,,,,,,7/8 Mostly Cloudy,20000.0,,SCT,12000,BKN,20000.0,,,,
KRDR,12-19-2004,11:00,METAR,,150,9,,,9999,Cloud Development Not Observable,-23.0,-24.0,30.54,1037.8,,,,0,0,0,,,,,,,,,Clear,72000.0,,,73000,,,,,,
KRDR,12-19-2004,10:00,METAR,,170,5,,,9999,Cloud Development Not Observable,-24.0,-25.0,30.57,1038.9,,,,0,0,0,,,,,,,,,Clear,72000.0,,,73000,,,,,,
KRDR,12-19-2004,09:00,METAR,,160,4,,,9999,Cloud Development Not Observable,-25.0,-25.0,30.60,1039.7,,,,0,0,0,,,,,,,,,Clear,72000.0,,,73000,,,,,,
KRDR,12-19-2004,08:00,METAR,,110,4,,,9999,Cloud Development Not Observable,-24.0,-25.0,30.64,1040.9,,,,0,0,0,,,,,,,,,Clear,72000.0,,,73000,,,,,,
KRDR,12-19-2004,07:00,METAR,,80,4,,,9999,Cloud Development Not Observable,-24.0,-25.0,30.66,1041.6,,,,0,0,0,,,,,,,,,Clear,72000.0,,,73000,,,,,,
KRDR,12-19-2004,06:00,METAR,,10,5,,,9999,Cloud Development Not Observable,-24.0,-25.0,30.68,1042.3,,,,0,0,0,,,,,,,,,Clear,72000.0,,,73000,,,,,,
KRDR,12-19-2004,05:00,METAR,,30,5,,,9999,Cloud Development Not Observable,-24.0,-24.0,30.68,1042.3,,,,0,0,0,,,,,,,,,Clear,72000.0,,,73000,,,,,,
KRDR,12-19-2004,04:00,METAR,,10,8,,,9999,Cloud Development Not Observable,-23.0,-24.0,30.69,1042.6,,,,0,0,0,,,,,,,,,Clear,72000.0,,,73000,,,,,,
KRDR,12-19-2004,03:00,METAR,,10,9,,,9999,Cloud Development Not Observable,-22.0,-24.0,30.67,1041.9,,,,0,0,0,,,,,,,,,2/8 Mostly Clear,72000.0,,FEW,2200,,,,,,
KRDR,12-19-2004,02:00,METAR,,360,12,,,9999,Cloud Development Not Observable,-22.0,-23.0,30.67,1041.9,,,,0,0,0,,,,,,,,,2/8 Mostly Clear,72000.0,,FEW,2200,,,,,,
KRDR,12-19-2004,01:00,METAR,,10,13,,,9999,Cloud Development Not Observable,-22.0,-23.0,30.65,1041.2,,,,0,0,0,,,,,,,,,4/8 Partly Cloudy,72000.0,,SCT,2200,,,,,,
KRDR,12-19-2004,00:00,METAR,,10,13,,,9999,Cloud Development Not Observable,-21.0,-23.0,30.62,1040.1,,,,0,0,0,,,,,,,,,4/8 Partly Cloudy,72000.0,,SCT,2200,,,,,,
KRDR,12-18-2004,23:00,METAR,,10,15,,,9999,Cloud Development Not Observable,-20.0,-22.0,30.60,1039.4,,,,0,0,0,,,,,,,,,2/8 Mostly Clear,72000.0,,FEW,2200,,,,,,
KRDR,12-18-2004,22:00,METAR,,10,20,,360/25KTS,9999,Cloud Development Not Observable,-18.0,-21.0,30.56,1037.9,,,,0,0,0,,,,,,,,,2/8 Mostly Clear,72000.0,,FEW,2200,,,,,,
KRDR,12-18-2004,21:00,METAR,,350,21,28.0,360/28KTS,9999,Cloud Development Not Observable,-15.0,-20.0,30.53,1036.7,,,,0,0,0,,,,,,,,,4/8 Partly Cloudy,72000.0,,SCT,2200,,,,,,
KRDR,12-18-2004,20:00,METAR,,350,21,28.0,360/28KTS,9999,Cloud Development Not Observable,-15.0,-20.0,30.48,1034.9,,,,0,0,0,,,,,,,,,4/8 Partly Cloudy,72000.0,,SCT,2200,,,,,,
KRDR,12-18-2004,19:00,METAR,,350,22,28.0,360/29KTS,9999,Cloud Development Not Observable,-15.0,-20.0,30.45,1033.6,,,,0,0,0,,,,,,,,,2/8 Mostly Clear,72000.0,,FEW,2300,,,,,,
KRDR,12-18-2004,18:00,METAR,,350,19,24.0,010/26KTS,9999,Cloud Development Not Observable,-14.0,-17.0,30.42,1032.5,,,,0,0,0,,,,,,,,,4/8 Partly Cloudy,72000.0,,SCT,2300,SCT,5400.0,,,,
KRDR,12-18-2004,17:00,METAR,,10,23,29.0,010/29KTS,9999,Cloud Development Not Observable,-14.0,-17.0,30.39,1031.5,,,,0,0,0,,,,,,,,,7/8 Mostly Cloudy,5500.0,,FEW,1300,BKN,5400.0,,,,
KRDR,12-18-2004,16:00,METAR,,350,17,25.0,350/27KTS,9999,Cloud Development Not Observable,-14.0,-15.0,30.34,1029.6,,,,0,0,0,,,,,,,,,8/8 Overcast,6000.0,,SCT,1300,OVC,5900.0,,,,
KRDR,12-18-2004,15:00,METAR,,350,20,26.0,350/30KTS,9999,Cloud Development Not Observable,-14.0,-15.0,30.30,1028.0,,,,0,0,0,,,,,,,,,8/8 Overcast,6500.0,,FEW,1700,OVC,6400.0,,,,
KRDR,12-18-2004,14:00,METAR,,360,19,25.0,350/28KTS,9999,Cloud Development Not Observable,-14.0,-15.0,30.25,1026.5,,,,0,0,0,,,,,,,,,8/8 Overcast,6500.0,,FEW,1200,OVC,6400.0,,,,
KRDR,12-18-2004,13:00,METAR,,350,22,27.0,350/27KTS,9999,Cloud Development Not Observable,-14.0,-15.0,30.20,1024.7,,,,0,0,0,,,,,,,,,8/8 Overcast,6500.0,,FEW,1500,OVC,6400.0,,,,
KRDR,12-18-2004,12:00,METAR,,350,18,,,9999,Cloud Development Not Observable,-13.0,-14.0,30.15,1022.8,,,,0,0,0,,,,,,,,,7/8 Mostly Cloudy,10000.0,,SCT,1600,BKN,9900.0,,,,
KRDR,12-18-2004,11:00,METAR,,350,19,,,9999,Cloud Development Not Observable,-14.0,-15.0,30.12,1021.8,,,,0,0,0,,,,,,,,,7/8 Mostly Cloudy,10000.0,,BKN,9900,,,,,,
KRDR,12-18-2004,10:00,METAR,,350,18,,360/29KTS,9999,Cloud Development Not Observable,-13.0,-13.0,30.08,1020.3,,,,0,0,0,,,,,,,,,8/8 Overcast,10000.0,,SCT,2000,OVC,9900.0,,,,
KRDR,12-18-2004,09:00,METAR,,360,19,22.0,,9999,Cloud Development Not Observable,-11.0,-12.0,30.04,1019.0,,,,0,0,0,,,,,,,,,8/8 Overcast,2000.0,,BKN,2000,OVC,7900.0,,,,
KRDR,12-18-2004,08:00,METAR,,360,20,25.0,,9999,Cloud Development Not Observable,-9.0,-10.0,29.99,1017.2,,,,0,0,0,,,,,,,,,8/8 Overcast,2200.0,,BKN,2200,OVC,7900.0,,,,
KRDR,12-18-2004,07:00,METAR,,340,20,27.0,340/27KTS,9999,Cloud Development Not Observable,-5.0,-7.0,29.95,1015.7,,,,0,0,0,,,,,,,,,8/8 Overcast,2200.0,,OVC,2200,,,,,,
KRDR,12-18-2004,06:00,METAR,,10,14,,,9999,Cloud Development Not Observable,-5.0,-6.0,29.93,1015.1,,,,0,0,0,,,,,,,,,8/8 Overcast,2700.0,,FEW,1900,OVC,2700.0,,,,
KRDR,12-18-2004,05:00,METAR,,20,15,,,9999,Cloud Development Not Observable,-4.0,-5.0,29.89,1013.8,,,,0,0,0,,,,,,,,,8/8 Overcast,2300.0,,OVC,2300,,,,,,
KRDR,12-18-2004,04:38,SPECI,,10,18,,,9999,Cloud Development Not Observable,-4.0,-4.0,29.89,,,,,0,0,0,,,,,,,,,8/8 Overcast,2200.0,,FEW,1200,OVC,2200.0,,,,
KRDR,12-18-2004,04:24,SPECI,,10,15,,,6400,Light Freezing Rain/Cloud Development Not Observable,-3.0,-3.0,29.88,,,,,66,0,0,,,,,,,,,8/8 Overcast,1300.0,,OVC,1300,,,,,,
KRDR,12-18-2004,04:13,SPECI,,10,15,,,8000,Light Snow/Cloud Development Not Observable,-3.0,-3.0,29.87,,,,,71,0,0,,,,,,,,,8/8 Overcast,1400.0,,OVC,1400,,,,,,
KRDR,12-18-2004,04:00,METAR,,20,15,21.0,300/27KTS,9999,Cloud Development Not Observable,-2.0,-2.0,29.85,1012.6,,,,0,0,0,,,,,,,,,8/8 Overcast,1400.0,,BKN,1400,OVC,4000.0,,,,
KRDR,12-18-2004,03:41,SPECI,,20,18,,,9999,Cloud Development Not Observable,-1.0,-2.0,29.83,,,,,0,0,0,,,,,,,,,8/8 Overcast,1200.0,,BKN,1200,OVC,4000.0,,,,
KRDR,12-18-2004,03:00,METAR,,310,18,,310/35KTS,9999,Cloud Development Not Observable,4.0,-1.0,29.76,1009.3,,,,0,0,0,,,,,,,,,8/8 Overcast,4400.0,,OVC,4500,,,,,,
KRDR,12-18-2004,02:00,METAR,,320,25,36.0,,9999,Cloud Development Not Observable,5.0,-2.0,29.75,1008.9,,,,0,0,0,,,,,,,,,8/8 Overcast,4400.0,,OVC,4500,,,,,,
KRDR,12-18-2004,01:00,METAR,,310,24,29.0,,9999,Cloud Development Not Observable,5.0,-1.0,29.75,1008.9,,,,0,0,0,,,,,,,,,8/8 Overcast,4900.0,,OVC,5000,,,,,,
KRDR,12-18-2004,00:00,METAR,,310,17,,,9999,Cloud Development Not Observable,5.0,0.0,29.74,1008.6,,,,0,0,0,,,,,,,,,7/8 Mostly Cloudy,4400.0,,BKN,4500,,,,,,
KRDR,12-17-2004,23:00,METAR,,300,13,,,9999,Cloud Development Not Observable,5.0,0.0,29.73,1008.3,,,,0,0,0,,,,,,,,,7/8 Mostly Cloudy,4400.0,,BKN,4500,,,,,,
KRDR,12-17-2004,21:53,METAR,,290,14,,,9999,Cloud Development Not Observable,6.0,0.0,29.72,1007.9,,,,0,0,0,,,,,,,,,4/8 Partly Cloudy,72000.0,,SCT,5000,SCT,7900.0,,,,
KRDR,12-17-2004,21:00,METAR,,270,13,,,9999,Cloud Development Not Observable,6.0,0.0,29.70,1007.4,,,,0,0,0,,,,,,,,,2/8 Mostly Clear,72000.0,,FEW,7900,,,,,,
KRDR,12-17-2004,20:00,METAR,,250,16,23.0,,9999,Cloud Development Not Observable,5.0,0.0,29.69,1007.1,,,,0,0,0,,,,,,,,,2/8 Mostly Clear,72000.0,,FEW,7900,,,,,,
KRDR,12-17-2004,19:00,METAR,,230,16,,,9999,Cloud Development Not Observable,4.0,-1.0,29.73,1008.4,,,,0,0,0,,,,,,,,,2/8 Mostly Clear,72000.0,,FEW,7900,,,,,,
KRDR,12-17-2004,18:00,METAR,,220,18,28.0,,9999,Cloud Development Not Observable,1.0,-2.0,29.77,1010.2,,,,0,0,0,,,,,,,,,7/8 Mostly Cloudy,8000.0,,FEW,5000,BKN,7900.0,,,,
KRDR,12-17-2004,17:00,METAR,,200,19,27.0,,9999,Cloud Development Not Observable,-3.0,-4.0,29.85,1013.0,,,,0,0,0,,,,,,,,,7/8 Mostly Cloudy,9000.0,,SCT,5000,BKN,8900.0,,,,
KRDR,12-17-2004,16:00,METAR,,200,17,23.0,,9999,Cloud Development Not Observable,-5.0,-6.0,29.91,1015.1,,,,0,0,0,,,,,,,,,7/8 Mostly Cloudy,12000.0,,FEW,5000,BKN,12000.0,,,,
KRDR,12-17-2004,15:00,METAR,,180,18,23.0,,9999,Cloud Development Not Observable,-6.0,-7.0,29.95,1016.4,,,,0,0,0,,,,,,,,,8/8 Overcast,12000.0,,OVC,12000,,,,,,
KRDR,12-17-2004,14:00,METAR,,190,17,24.0,,9999,Cloud Development Not Observable,-7.0,-7.0,30.02,1018.8,,,,0,0,0,,,,,,,,,7/8 Mostly Cloudy,11000.0,,SCT,1000,BKN,11000.0,,,,
KRDR,12-17-2004,13:40,SPECI,,190,17,,,9999,Cloud Development Not Observable,-6.0,-7.0,30.05,,,,,0,0,0,,,,,,,,,7/8 Mostly Cloudy,1000.0,,FEW,700,SCT,1000.0,BKN,11000.0,,
KRDR,12-17-2004,13:00,METAR,,190,16,,,9999,Cloud Development Not Observable,-7.0,-7.0,30.08,1020.9,,,,0,0,0,,,,,,,,,8/8 Overcast,1000.0,,SCT,700,OVC,1000.0,,,,
KRDR,12-17-2004,12:00,METAR,,200,15,,,9999,Cloud Development Not Observable,-8.0,-8.0,30.13,1022.6,,,,0,0,0,,,,,,,IN,,8/8 Overcast,1000.0,,SCT,800,OVC,1000.0,,,,
KRDR,12-17-2004,11:00,METAR,,180,14,,,9999,Cloud Development Not Observable,-9.0,-9.0,30.17,1024.0,,,,0,0,0,,,,,,,,,8/8 Overcast,1000.0,,SCT,800,OVC,1000.0,,,,
KRDR,12-17-2004,10:00,METAR,,190,13,,,9999,Cloud Development Not Observable,-10.0,-10.0,30.24,1026.4,,,,0,0,0,,,,,,,,,8/8 Overcast,1000.0,,SCT,800,OVC,1000.0,,,,
KRDR,12-17-2004,09:00,METAR,,180,11,,,9999,Cloud Development Not Observable,-11.0,-11.0,30.28,1027.9,,,,0,0,0,,,,,,TRACE,,,8/8 Overcast,1000.0,,OVC,1000,,,,,,
KRDR,12-17-2004,08:15,SPECI,,180,10,,,9999,Cloud Development Not Observable,-11.0,-11.0,30.30,,,,,0,0,0,,,,,,,,,8/8 Overcast,1000.0,,OVC,1000,,,,,,
KRDR,12-17-2004,08:00,METAR,,180,8,,,9999,Light Snow/Cloud Development Not Observable,-11.0,-12.0,30.31,1028.9,,,,71,0,0,,,,,,,,,7/8 Mostly Cloudy,1600.0,,SCT,1000,BKN,1600.0,,,,
KRDR,12-17-2004,07:00,METAR,,180,9,,,9999,Light Snow/Cloud Development Not Observable,-12.0,-12.0,30.35,1030.3,,,,71,0,0,,,,,,,,,7/8 Mostly Cloudy,2000.0,,BKN,2000,,,,,,
KRDR,12-17-2004,06:00,METAR,,150,5,,,9999,Light Snow/Cloud Development Not Observable,-13.0,-14.0,30.39,1031.6,,,,71,0,0,,,,,,,IN,,7/8 Mostly Cloudy,2400.0,,SCT,1000,BKN,2400.0,,,,
KRDR,12-17-2004,05:05,SPECI,,160,2,,,9999,Light Snow/Cloud Development Not Observable,-13.0,-14.0,30.41,,,,,71,0,0,,,,,,,,,8/8 Overcast,1900.0,,OVC,1900,,,,,,
KRDR,12-17-2004,05:00,METAR,,160,2,,,9999,Light Snow/Cloud Development Not Observable,-13.0,-14.0,30.41,1032.3,,,,71,0,0,,,,,,,,,8/8 Overcast,3000.0,,SCT,2000,OVC,3000.0,,,,
KRDR,12-17-2004,04:00,METAR,,120,3,,,9999,Cloud Development Not Observable,-13.0,-14.0,30.42,1032.7,,,,0,0,0,,,,,,,,,4/8 Partly Cloudy,72000.0,,SCT,20000,,,,,,
KRDR,12-17-2004,03:00,METAR,,90,2,,,9999,Cloud Development Not Observable,-13.0,-14.0,30.43,1033.0,,,,0,0,0,,,,,,,,,7/8 Mostly Cloudy,20000.0,,FEW,12000,BKN,20000.0,,,,
KRDR,12-17-2004,02:00,METAR,,70,4,,,9999,Cloud Development Not Observable,-12.0,-14.0,30.42,1032.5,,,,0,0,0,,,,,,,,,7/8 Mostly Cloudy,20000.0,,SCT,12000,BKN,20000.0,,,,
KRDR,12-17-2004,01:00,METAR,,,5,,,9999,Cloud Development Not Observable,-12.0,-13.0,30.43,1032.9,,,,0,0,0,,,,,,,,,7/8 Mostly Cloudy,20000.0,,BKN,20000,,,,,,
KRDR,12-17-2004,00:00,METAR,,20,6,,,9999,Cloud Development Not Observable,-12.0,-13.0,30.44,1033.1,,,,0,0,0,,,,,,,,,4/8 Partly Cloudy,72000.0,,SCT,20000,,,,,,
KRDR,12-16-2004,23:00,METAR,,20,6,,,9999,Cloud Development Not Observable,-11.0,-13.0,30.42,1032.3,,,,0,0,0,,,,,,,,,7/8 Mostly Cloudy,20000.0,,SCT,15000,BKN,20000.0,,,,
KRDR,12-16-2004,22:00,METAR,,20,9,,,9999,Cloud Development Not Observable,-10.0,-12.0,30.42,1032.4,,,,0,0,0,,,,,,,,,7/8 Mostly Cloudy,20000.0,,FEW,1300,BKN,20000.0,,,,
KRDR,12-16-2004,21:00,METAR,,360,12,,,9999,Cloud Development Not Observable,-9.0,-11.0,30.42,1032.3,,,,0,0,0,,,,,,,,,7/8 Mostly Cloudy,20000.0,,SCT,2000,BKN,20000.0,,,,
KRDR,12-16-2004,20:00,METAR,,350,12,,,9999,Cloud Development Not Observable,-9.0,-12.0,30.42,1032.3,,,,0,0,0,,,,,,,,,7/8 Mostly Cloudy,20000.0,,SCT,2500,BKN,20000.0,,,,
KRDR,12-16-2004,19:00,METAR,,360,12,17.0,,9999,Cloud Development Not Observable,-9.0,-12.0,30.41,1032.2,,,,0,0,0,,,,,,,,,7/8 Mostly Cloudy,20000.0,,SCT,2000,BKN,20000.0,,,,
KRDR,12-16-2004,18:38,SPECI,,350,14,,,9999,Cloud Development Not Observable,-9.0,-12.0,30.42,,,,,0,0,0,,,,,,,,,7/8 Mostly Cloudy,2500.0,,BKN,2500,BKN,20000.0,,,,
KRDR,12-16-2004,18:00,METAR,,360,14,,,9999,Cloud Development Not Observable,-9.0,-12.0,30.41,1031.8,,,,0,0,0,,,,,,,IN,,4/8 Partly Cloudy,72000.0,,SCT,2000,SCT,20000.0,,,,
KRDR,12-16-2004,17:00,METAR,,360,16,,,9999,Cloud Development Not Observable,-9.0,-12.0,30.41,1031.9,,,,0,0,0,,,,,,,,,2/8 Mostly Clear,72000.0,,FEW,2000,FEW,20000.0,,,,
KRDR,12-16-2004,16:00,METAR,,10,16,,,9999,Cloud Development Not Observable,-9.0,-11.0,30.39,1031.2,,,,0,0,0,,,,,,,,,7/8 Mostly Cloudy,12000.0,,SCT,3800,BKN,12000.0,,,,
KRDR,12-16-2004,15:00,METAR,,10,15,,,4800,Light Snow/Mist/Cloud Development Not Observable,-9.0,-10.0,30.34,1029.6,,,,71,10,0,,,,,,TRACE,,,8/8 Overcast,3700.0,,SCT,2500,OVC,3800.0,,,,
KRDR,12-16-2004,14:40,SPECI,,20,18,,,6400,Light Snow/Mist/Cloud Development Not Observable,-9.0,-10.0,30.34,,,,,71,10,0,,,,,,,,,8/8 Overcast,3700.0,,SCT,2500,OVC,3800.0,,,,
KRDR,12-16-2004,14:27,SPECI,,20,16,,,3200,Light Snow/Mist/Cloud Development Not Observable,-8.0,-9.0,30.33,,,,,71,10,0,,,,,,,,,8/8 Overcast,3700.0,,SCT,2500,OVC,3800.0,,,,
KRDR,12-16-2004,14:00,METAR,,360,15,,,9999,Light Snow/Cloud Development Not Observable,-7.0,-8.0,30.31,1028.3,,,,71,0,0,,,,,,,,,8/8 Overcast,3900.0,,SCT,2500,OVC,4000.0,,,,
KRDR,12-16-2004,13:45,METAR,,350,18,,,9999,Light Snow/Cloud Development Not Observable,-7.0,-8.0,30.30,,,,,71,0,0,,,,,,,,,8/8 Overcast,3900.0,,SCT,2500,OVC,4000.0,,,,
KRDR,12-16-2004,13:00,METAR,,360,20,25.0,350/28KTS,9999,Light Snow/Cloud Development Not Observable,-6.0,-8.0,30.27,1026.9,,,,71,0,0,,,,,,,,,8/8 Overcast,2800.0,,OVC,2800,,,,,,
KRDR,12-16-2004,12:00,METAR,,360,16,,,9999,Light Snow/Cloud Development Not Observable,-4.0,-5.0,30.22,1025.3,,,,71,0,0,,,,,,,IN,,8/8 Overcast,1900.0,,BKN,1900,OVC,3000.0,,,,
KRDR,12-16-2004,11:00,METAR,,10,11,,,9999,Light Snow/Cloud Development Not Observable,-4.0,-4.0,30.18,1023.7,,,,71,0,0,,,,,,,,,8/8 Overcast,2200.0,,BKN,2200,OVC,3500.0,,,,
KRDR,12-16-2004,10:24,SPECI,,280,2,,,9999,Light Snow/Cloud Development Not Observable,-6.0,-6.0,30.16,,,,,71,0,0,,,,,,,,,8/8 Overcast,2300.0,,BKN,2300,OVC,4500.0,,,,
KRDR,12-16-2004,10:00,METAR,,,0,,,9999,Cloud Development Not Observable,-7.0,-7.0,30.14,1022.6,,,,0,0,0,,,,,,,,,7/8 Mostly Cloudy,4400.0,,BKN,4500,,,,,,
KRDR,12-16-2004,09:00,METAR,,260,3,,,9999,Cloud Development Not Observable,-5.0,-5.0,30.14,1022.2,,,,0,0,0,,,,,,,,,8/8 Overcast,2600.0,,BKN,2600,OVC,3500.0,,,,
KRDR,12-16-2004,08:07,SPECI,,20,3,,,9999,Cloud Development Not Observable,-5.0,-5.0,30.11,,,,,0,0,0,,,,,,,,,8/8 Overcast,2700.0,,SCT,1900,OVC,2700.0,,,,
KRDR,12-16-2004,08:00,METAR,,360,3,,,9999,Cloud Development Not Observable,-5.0,-5.0,30.10,1021.0,,,,0,0,0,,,,,,,,,7/8 Mostly Cloudy,3100.0,,SCT,2600,BKN,3200.0,,,,
KRDR,12-16-2004,07:00,METAR,,320,9,,,9999,Cloud Development Not Observable,-3.0,-3.0,30.08,1020.0,,,,0,0,0,,,,,,,,,4/8 Partly Cloudy,72000.0,,SCT,1500,,,,,,
KRDR,12-16-2004,06:00,METAR,,310,8,,,9999,Cloud Development Not Observable,-2.0,-3.0,30.05,1019.3,,,,0,0,0,,,,,,,,,Clear,72000.0,,,73000,,,,,,
KRDR,12-16-2004,05:00,METAR,,310,5,,,9999,Cloud Development Not Observable,-3.0,-3.0,30.03,1018.5,,,,0,0,0,,,,,,,,,2/8 Mostly Clear,72000.0,,FEW,9900,,,,,,
KRDR,12-16-2004,04:00,METAR,,310,6,,,9999,Cloud Development Not Observable,-3.0,-3.0,30.03,1018.5,,,,0,0,0,,,,,,,,,2/8 Mostly Clear,72000.0,,FEW,9900,,,,,,
KRDR,12-16-2004,03:00,METAR,,300,5,,,9999,Cloud Development Not Observable,-2.0,-3.0,30.01,1017.8,,,,0,0,0,,,,,,,,,2/8 Mostly Clear,72000.0,,FEW,9900,,,,,,
KRDR,12-16-2004,02:00,METAR,,320,7,,,9999,Cloud Development Not Observable,0.0,-2.0,30.01,1017.8,,,,0,0,0,,,,,,,,,2/8 Mostly Clear,72000.0,,FEW,9900,,,,,,
KRDR,12-16-2004,01:00,METAR,,310,7,,,9999,Cloud Development Not Observable,0.0,-2.0,30.01,1017.8,,,,0,0,0,,,,,,,,,4/8 Partly Cloudy,72000.0,,FEW,5900,SCT,9900.0,,,,
KRDR,12-16-2004,00:00,METAR,,290,5,,,9999,Cloud Development Not Observable,-1.0,-2.0,29.98,1016.9,,,,0,0,0,,,,,,,,,7/8 Mostly Cloudy,10000.0,,SCT,5900,BKN,9900.0,,,,
KRDR,12-15-2004,23:00,METAR,,250,4,,,9999,Cloud Development Not Observable,0.0,-1.0,29.95,1015.8,,,,0,0,0,,,,,,,,,7/8 Mostly Cloudy,10000.0,,SCT,5900,BKN,9900.0,,,,
KRDR,12-15-2004,22:00,METAR,,,0,,,9999,Cloud Development Not Observable,1.0,-1.0,29.93,1015.0,,,,0,0,0,,,,,,,,,7/8 Mostly Cloudy,10000.0,,SCT,5900,BKN,9900.0,,,,
KRDR,12-15-2004,21:00,METAR,,330,3,,,9999,Cloud Development Not Observable,2.0,-1.0,29.91,1014.4,,,,0,0,0,,,,,,,,,7/8 Mostly Cloudy,10000.0,,SCT,5900,BKN,9900.0,,,,
KRDR,12-15-2004,20:00,METAR,,350,5,,,9999,Cloud Development Not Observable,2.0,-1.0,29.90,1014.1,,,,0,0,0,,,,,,,,,7/8 Mostly Cloudy,10000.0,,SCT,5900,BKN,9900.0,,,,
KRDR,12-15-2004,18:00,METAR,,330,10,,,9999,Cloud Development Not Observable,2.0,-1.0,29.89,1013.7,,,,0,0,0,,,,,,,,,7/8 Mostly Cloudy,11000.0,,FEW,5900,BKN,11000.0,,,,
KRDR,12-15-2004,17:00,METAR,,330,7,,,9999,Cloud Development Not Observable,2.0,-1.0,29.88,1013.3,,,,0,0,0,,,,,,,,,7/8 Mostly Cloudy,10000.0,,FEW,5900,BKN,9900.0,,,,
KRDR,12-15-2004,16:00,METAR,,320,7,,,9999,Cloud Development Not Observable,2.0,-1.0,29.84,1011.9,,,,0,0,0,,,,,,,,,7/8 Mostly Cloudy,11000.0,,FEW,5900,BKN,11000.0,,,,
KRDR,12-15-2004,15:00,METAR,,330,8,,,9999,Cloud Development Not Observable,1.0,-1.0,29.82,1011.3,,,,0,0,0,,,,,,TRACE,,,7/8 Mostly Cloudy,11000.0,,SCT,5900,BKN,11000.0,,,,
KRDR,12-15-2004,14:43,SPECI,,310,8,,,9999,Cloud Development Not Observable,1.0,-1.0,29.82,,,,,0,0,0,,,,,,,,,7/8 Mostly Cloudy,11000.0,,SCT,5900,BKN,11000.0,,,,
KRDR,12-15-2004,14:10,SPECI,,300,7,,,9999,Rain/Cloud Development Not Observable,0.0,-2.0,29.81,,,,,61,0,0,,,,,,,,,7/8 Mostly Cloudy,7000.0,,SCT,4000,BKN,6900.0,BKN,9900.0,,
KRDR,12-15-2004,14:00,METAR,,300,7,,,9999,Cloud Development Not Observable,0.0,-2.0,29.80,1010.6,,,,0,0,0,,,,,,,,,4/8 Partly Cloudy,72000.0,,FEW,5900,SCT,9900.0,,,,
KRDR,12-15-2004,13:10,SPECI,,280,7,,,9999,Cloud Development Not Observable,-1.0,-2.0,29.80,,,,,0,0,0,,,,,,,,,2/8 Mostly Clear,72000.0,,FEW,9900,,,,,,
KRDR,12-15-2004,13:00,METAR,,270,4,,,9999,Cloud Development Not Observable,-3.0,-4.0,29.79,1010.3,,,,0,0,0,,,,,,,,,Clear,72000.0,,,73000,,,,,,
KRDR,12-15-2004,12:00,METAR,,240,4,,,9999,Cloud Development Not Observable,-4.0,-4.0,29.79,1010.4,,,,0,0,0,,,,,,,,,Clear,72000.0,,,73000,,,,,,
KRDR,12-15-2004,11:00,METAR,,200,5,,,9999,Cloud Development Not Observable,-5.0,-5.0,29.79,1010.5,,,,0,0,0,,,,,,,,,Clear,72000.0,,,73000,,,,,,
KRDR,12-15-2004,10:00,METAR,,200,5,,,9999,Cloud Development Not Observable,-3.0,-4.0,29.78,1010.0,,,,0,0,0,,,,,,,,,Clear,72000.0,,,73000,,,,,,
KRDR,12-15-2004,09:00,METAR,,190,9,,,9999,Cloud Development Not Observable,-3.0,-4.0,29.79,1010.6,,,,0,0,0,,,,,,,,,Clear,72000.0,,,73000,,,,,,
KRDR,12-15-2004,08:00,METAR,,170,5,,,9999,Cloud Development Not Observable,-1.0,-4.0,29.80,1010.7,,,,0,0,0,,,,,,,,,2/8 Mostly Clear,72000.0,,FEW,25000,,,,,,
KRDR,12-15-2004,07:00,METAR,,220,8,,,9999,Cloud Development Not Observable,0.0,-4.0,29.81,1011.0,,,,0,0,0,,,,,,,,,2/8 Mostly Clear,72000.0,,FEW,25000,,,,,,
KRDR,12-15-2004,06:00,METAR,,200,11,,,9999,Cloud Development Not Observable,0.0,-3.0,29.81,1011.1,,,,0,0,0,,,,,,,,,4/8 Partly Cloudy,72000.0,,SCT,25000,,,,,,
KRDR,12-15-2004,05:00,METAR,,210,14,,,9999,Cloud Development Not Observable,0.0,-4.0,29.83,1011.9,,,,0,0,0,,,,,,,,,4/8 Partly Cloudy,72000.0,,SCT,25000,,,,,,
KRDR,12-15-2004,04:00,METAR,,210,13,,,9999,Cloud Development Not Observable,0.0,-3.0,29.87,1013.4,,,,0,0,0,,,,,,,,,7/8 Mostly Cloudy,25000.0,,BKN,25000,,,,,,
KRDR,12-15-2004,03:00,METAR,,200,14,,,9999,Cloud Development Not Observable,-1.0,-4.0,29.91,1014.9,,,,0,0,0,,,,,,,,,7/8 Mostly Cloudy,25000.0,,BKN,25000,,,,,,
KRDR,12-15-2004,02:00,METAR,,200,15,,,9999,Cloud Development Not Observable,-1.0,-4.0,29.93,1015.7,,,,0,0,0,,,,,,,,,7/8 Mostly Cloudy,25000.0,,BKN,25000,,,,,,
KRDR,12-15-2004,01:00,METAR,,200,16,,,9999,Cloud Development Not Observable,0.0,-4.0,29.95,1016.3,,,,0,0,0,,,,,,,,,7/8 Mostly Cloudy,25000.0,,BKN,25000,,,,,,
KRDR,12-15-2004,00:00,METAR,,180,15,,,9999,Cloud Development Not Observable,-1.0,-4.0,29.98,1017.2,,,,0,0,0,,,,,,,,,4/8 Partly Cloudy,72000.0,,SCT,25000,,,,,,
KRDR,12-14-2004,23:00,METAR,,180,15,,,9999,Cloud Development Not Observable,-1.0,-4.0,30.01,1018.3,,,,0,0,0,,,,,,,,,4/8 Partly Cloudy,72000.0,,SCT,25000,,,,,,
KRDR,12-14-2004,22:00,METAR,,180,16,,,9999,Cloud Development Not Observable,-1.0,-5.0,30.05,1019.6,,,,0,0,0,,,,,,,,,4/8 Partly Cloudy,72000.0,,SCT,25000,,,,,,
KRDR,12-14-2004,21:00,METAR,,180,14,,,9999,Cloud Development Not Observable,-1.0,-5.0,30.09,1021.0,,,,0,0,0,,,,,,,,,2/8 Mostly Clear,72000.0,,FEW,25000,,,,,,
KRDR,12-14-2004,20:00,METAR,,180,17,,,9999,Cloud Development Not Observable,-1.0,-5.0,30.15,1023.2,,,,0,0,0,,,,,,,,,2/8 Mostly Clear,72000.0,,FEW,12000,FEW,25000.0,,,,
KRDR,12-14-2004,19:00,METAR,,190,12,,,9999,Cloud Development Not Observable,-3.0,-7.0,30.21,1025.2,,,,0,0,0,,,,,,,,,2/8 Mostly Clear,72000.0,,FEW,12000,FEW,25000.0,,,,
KRDR,12-14-2004,18:00,METAR,,190,11,,,9999,Cloud Development Not Observable,-5.0,-8.0,30.25,1026.7,,,,0,0,0,,,,,,,,,2/8 Mostly Clear,72000.0,,FEW,25000,,,,,,
KRDR,12-14-2004,17:00,METAR,,180,12,,,9999,Cloud Development Not Observable,-7.0,-9.0,30.29,1028.2,,,,0,0,0,,,,,,,,,2/8 Mostly Clear,72000.0,,FEW,25000,,,,,,
KRDR,12-14-2004,16:00,METAR,,180,9,,,9999,Cloud Development Not Observable,-10.0,-11.0,30.33,1029.6,,,,0,0,0,,,,,,,,,2/8 Mostly Clear,72000.0,,FEW,25000,,,,,,
KRDR,12-14-2004,15:00,METAR,,200,8,,,9999,Cloud Development Not Observable,-11.0,-11.0,30.35,1030.4,,,,0,0,0,,,,,,,,,2/8 Mostly Clear,72000.0,,FEW,25000,,,,,,
KRDR,12-14-2004,14:00,METAR,,180,8,,,9999,Cloud Development Not Observable,-14.0,-14.0,30.37,1031.2,,,,0,0,0,,,,,,,,,Clear,72000.0,,,73000,,,,,,
KRDR,12-14-2004,13:00,METAR,,190,6,,,9999,Cloud Development Not Observable,-13.0,-13.0,30.40,1032.2,,,,0,0,0,,,,,,,,,Clear,72000.0,,,73000,,,,,,
KRDR,12-14-2004,12:00,METAR,,220,7,,,9999,Cloud Development Not Observable,-12.0,-12.0,30.42,1032.8,,,,0,0,0,,,,,,,,,Clear,72000.0,,,73000,,,,,,
KRDR,12-14-2004,11:00,METAR,,210,6,,,9999,Cloud Development Not Observable,-13.0,-13.0,30.44,1033.6,,,,0,0,0,,,,,,,,,Clear,72000.0,,,73000,,,,,,
KRDR,12-14-2004,10:00,METAR,,210,7,,,9999,Cloud Development Not Observable,-12.0,-12.0,30.48,1034.6,,,,0,0,0,,,,,,,,,Clear,72000.0,,,73000,,,,,,
KRDR,12-14-2004,09:00,METAR,,200,8,,,9999,Cloud Development Not Observable,-12.0,-12.0,30.51,1035.8,,,,0,0,0,,,,,,,,,Clear,72000.0,,,73000,,,,,,
KRDR,12-14-2004,08:00,METAR,,210,6,,,9999,Cloud Development Not Observable,-12.0,-12.0,30.53,1036.5,,,,0,0,0,,,,,,,,,Clear,72000.0,,,73000,,,,,,
KRDR,12-14-2004,07:00,METAR,,,4,,,9999,Cloud Development Not Observable,-13.0,-13.0,30.54,1036.8,,,,0,0,0,,,,,,,,,Clear,72000.0,,,73000,,,,,,
KRDR,12-14-2004,06:00,METAR,,,1,,,9999,Cloud Development Not Observable,-14.0,-14.0,30.56,1037.7,,,,0,0,0,,,,,,,,,Clear,72000.0,,,73000,,,,,,
KRDR,12-14-2004,05:00,METAR,,,4,,,9999,Cloud Development Not Observable,-13.0,-13.0,30.57,1038.1,,,,0,0,0,,,,,,,,,2/8 Mostly Clear,72000.0,,FEW,2300,,,,,,
KRDR,12-14-2004,04:20,METAR,,,1,,,9999,Cloud Development Not Observable,-12.0,-12.0,30.58,,,,,0,0,0,,,,,,,,,4/8 Partly Cloudy,72000.0,,SCT,2300,,,,,,
KRDR,12-14-2004,04:00,METAR,,,4,,,9999,Cloud Development Not Observable,-11.0,-12.0,30.58,1038.3,,,,0,0,0,,,,,,,,,7/8 Mostly Cloudy,2300.0,,BKN,2300,,,,,,
KRDR,12-14-2004,03:00,METAR,,,1,,,9999,Cloud Development Not Observable,-10.0,-11.0,30.60,1039.0,,,,0,0,0,,,,,,TRACE,,,7/8 Mostly Cloudy,2300.0,,BKN,2300,,,,,,
KRDR,12-14-2004,02:00,METAR,,200,1,,,9999,Cloud Development Not Observable,-10.0,-11.0,30.60,1039.2,,,,0,0,0,,,,,,,,,7/8 Mostly Cloudy,2300.0,,BKN,2300,,,,,,
KRDR,12-14-2004,01:45,METAR,,70,2,,,9999,Cloud Development Not Observable,-10.0,-12.0,30.62,,,,,0,0,0,,,,,,,,,7/8 Mostly Cloudy,2200.0,,BKN,2200,,,,,,
KRDR,12-14-2004,01:00,METAR,,,2,,,9999,Light Snow/Cloud Development Not Observable,-11.0,-13.0,30.63,1040.0,,,,71,0,0,,,,,,,,,8/8 Overcast,2100.0,,SCT,1200,BKN,2100.0,OVC,3200.0,,
KRDR,12-14-2004,00:44,SPECI,,160,3,,,9999,Light Snow/Cloud Development Not Observable,-11.0,-13.0,30.64,,,,,71,0,0,,,,,,,,,8/8 Overcast,2100.0,,SCT,1200,BKN,2100.0,OVC,3200.0,,
KRDR,12-14-2004,00:00,METAR,,140,5,,,9999,Light Snow/Cloud Development Not Observable,-12.0,-14.0,30.66,1041.0,,,,71,0,0,,,,,,,IN,,8/8 Overcast,3100.0,,SCT,1700,OVC,3200.0,,,,
KRDR,12-13-2004,23:00,METAR,,150,3,,,9999,Cloud Development Not Observable,-12.0,-14.0,30.65,1040.7,,,,0,0,0,,,,,,,,,8/8 Overcast,3100.0,,SCT,1700,OVC,3200.0,,,,
KRDR,12-13-2004,22:00,METAR,,,0,,,9999,Cloud Development Not Observable,-11.0,-14.0,30.64,1040.4,,,,0,0,0,,,,,,,,,2/8 Mostly Clear,72000.0,,FEW,1700,,,,,,
KRDR,12-13-2004,21:00,METAR,,340,4,,,9999,Cloud Development Not Observable,-10.0,-14.0,30.64,1040.3,,,,0,0,0,,,,,,,,,2/8 Mostly Clear,72000.0,,FEW,1700,,,,,,
KRDR,12-13-2004,20:00,METAR,,320,5,,,9999,Cloud Development Not Observable,-11.0,-14.0,30.63,1040.0,,,,0,0,0,,,,,,,,,2/8 Mostly Clear,72000.0,,FEW,1700,,,,,,
KRDR,12-13-2004,19:00,METAR,,350,5,,,9999,Cloud Development Not Observable,-12.0,-14.0,30.62,1039.7,,,,0,0,0,,,,,,,,,Clear,72000.0,,,73000,,,,,,
KRDR,12-13-2004,18:00,METAR,,340,5,,,9999,Cloud Development Not Observable,-13.0,-15.0,30.63,1040.0,,,,0,0,0,,,,,,,,,Clear,72000.0,,,73000,,,,,,
KRDR,12-13-2004,17:00,METAR,,340,9,,,9999,Cloud Development Not Observable,-13.0,-15.0,30.64,1040.4,,,,0,0,0,,,,,,,,,Clear,72000.0,,,73000,,,,,,
KRDR,12-13-2004,16:00,METAR,,350,8,,,9999,Cloud Development Not Observable,-15.0,-16.0,30.62,1039.7,,,,0,0,0,,,,,,,,,Clear,72000.0,,,73000,,,,,,
KRDR,12-13-2004,15:00,METAR,,340,6,,,9999,Cloud Development Not Observable,-16.0,-17.0,30.58,1038.3,,,,0,0,0,,,,,,,,,Clear,72000.0,,,73000,,,,,,
KRDR,12-13-2004,14:00,METAR,,330,7,,,9999,Cloud Development Not Observable,-17.0,-17.0,30.55,1037.2,,,,0,0,0,,,,,,,,,Clear,72000.0,,,73000,,,,,,
KRDR,12-13-2004,13:00,METAR,,320,7,,,9999,Cloud Development Not Observable,-16.0,-17.0,30.52,1036.1,,,,0,0,0,,,,,,,,,Clear,72000.0,,,73000,,,,,,
KRDR,12-13-2004,12:00,METAR,,330,11,,,9999,Cloud Development Not Observable,-16.0,-16.0,30.50,1035.6,,,,0,0,0,,,,,,,,,Clear,72000.0,,,73000,,,,,,
KRDR,12-13-2004,11:00,METAR,,330,10,,,9999,Cloud Development Not Observable,-16.0,-16.0,30.47,1034.3,,,,0,0,0,,,,,,,,,2/8 Mostly Clear,72000.0,,FEW,2000,,,,,,
KRDR,12-13-2004,10:00,METAR,,330,8,,,9999,Cloud Development Not Observable,-16.0,-16.0,30.45,1033.7,,,,0,0,0,,,,,,,,,4/8 Partly Cloudy,72000.0,,SCT,2000,,,,,,
KRDR,12-13-2004,09:00,METAR,,340,13,,,9999,Cloud Development Not Observable,-15.0,-15.0,30.44,1033.3,,,,0,0,0,,,,,,,,,4/8 Partly Cloudy,72000.0,,SCT,2000,,,,,,
KRDR,12-13-2004,08:00,METAR,,340,14,,,9999,Cloud Development Not Observable,-14.0,-15.0,30.41,1032.2,,,,0,0,0,,,,,,,,,4/8 Partly Cloudy,72000.0,,SCT,2000,,,,,,
KRDR,12-13-2004,07:00,METAR,,340,16,,,9999,Cloud Development Not Observable,-14.0,-14.0,30.39,1031.5,,,,0,0,0,,,,,,,,,4/8 Partly Cloudy,72000.0,,FEW,1500,SCT,2000.0,,,,
KRDR,12-13-2004,06:00,METAR,,340,18,,,9999,Cloud Development Not Observable,-13.0,-14.0,30.36,1030.4,,,,0,0,0,,,,,,,,,4/8 Partly Cloudy,72000.0,,SCT,1500,,,,,,
KRDR,12-13-2004,05:00,METAR,,350,19,25.0,,9999,Cloud Development Not Observable,-13.0,-14.0,30.33,1029.3,,,,0,0,0,,,,,,,,,4/8 Partly Cloudy,72000.0,,SCT,1500,,,,,,
KRDR,12-13-2004,03:54,METAR,,350,17,,340/26KTS,9999,Cloud Development Not Observable,-12.0,-13.0,30.29,1028.0,,,,0,0,0,,,,,,,,,4/8 Partly Cloudy,72000.0,,SCT,1500,SCT,2300.0,,,,
KRDR,12-13-2004,03:00,METAR,,350,17,,340/29KTS,9999,Cloud Development Not Observable,-11.0,-13.0,30.27,1027.2,,,,0,0,0,,,,,,,,,4/8 Partly Cloudy,72000.0,,SCT,1500,SCT,2300.0,,,,
KRDR,12-13-2004,02:00,METAR,,350,22,,340/34KTS,9999,Cloud Development Not Observable,-10.0,-13.0,30.24,1026.1,,,,0,0,0,,,,,,,,,4/8 Partly Cloudy,72000.0,,SCT,1600,SCT,2300.0,,,,
KRDR,12-13-2004,01:35,SPECI,,350,22,34.0,,9999,Cloud Development Not Observable,-10.0,-13.0,30.23,,,,,0,0,0,,,,,,,,,4/8 Partly Cloudy,72000.0,,SCT,1500,SCT,2700.0,,,,
KRDR,12-13-2004,01:00,METAR,,340,20,27.0,340/32KTS,9999,Cloud Development Not Observable,-9.0,-11.0,30.21,1025.0,,,,0,0,0,,,,,,,,,8/8 Overcast,1300.0,,SCT,500,BKN,1300.0,OVC,3000.0,,
KRDR,12-13-2004,00:00,METAR,,340,19,,340/28KTS,9999,Cloud Development Not Observable,-8.0,-10.0,30.17,1023.5,,,,0,0,0,,,,,,,IN,,8/8 Overcast,1600.0,,SCT,700,BKN,1600.0,OVC,2600.0,,
KRDR,12-12-2004,23:00,METAR,,340,18,,340/30KTS,4800,Light Snow/Blowing Snow/Cloud Development Not Observable,-8.0,-9.0,30.12,1021.9,,,,71,38,0,,,,,,,,,8/8 Overcast,2600.0,,SCT,900,BKN,2600.0,OVC,5400.0,,
KRDR,12-12-2004,22:28,SPECI,,340,24,30.0,,9999,Cloud Development Not Observable,-7.0,-9.0,30.10,,,,,0,0,0,,,,,,,,,8/8 Overcast,2700.0,,SCT,900,BKN,2700.0,OVC,6900.0,,
KRDR,12-12-2004,22:02,SPECI,,350,21,27.0,,3200,Light Snow/Blowing Snow/Cloud Development Not Observable,-7.0,-9.0,30.09,,,,,71,38,0,,,,,,,,,8/8 Overcast,2600.0,,BKN,2600,OVC,3200.0,,,,
KRDR,12-12-2004,22:00,METAR,,340,20,28.0,340/33KTS,9999,Cloud Development Not Observable,-7.0,-9.0,30.08,1020.4,,,,0,0,0,,,,,,,,,8/8 Overcast,2200.0,,SCT,1300,BKN,2200.0,OVC,6900.0,,
KRDR,12-12-2004,21:00,METAR,,340,20,,330/34KTS,9999,Blowing Snow/Cloud Development Not Observable,-6.0,-8.0,30.03,1018.6,,,,38,0,0,,,,,,TRACE,,,8/8 Overcast,2100.0,,SCT,1300,BKN,2100.0,OVC,6900.0,,
KRDR,12-12-2004,20:34,SPECI,,340,20,31.0,,4800,Blowing Snow/Cloud Development Not Observable,-6.0,-8.0,30.02,,,,,38,0,0,,,,,,,,,8/8 Overcast,2100.0,,SCT,1300,BKN,2100.0,OVC,2600.0,,
KRDR,12-12-2004,20:00,METAR,,330,22,33.0,340/38KTS,3200,Light Snow/Blowing Snow/Cloud Development Not Observable,-6.0,-8.0,29.98,1016.9,,,,71,38,0,,,,,,,,,8/8 Overcast,2100.0,,FEW,1300,BKN,2100.0,OVC,2600.0,,
KRDR,12-12-2004,19:18,SPECI,,330,27,35.0,,4800,Light Snow/Blowing Snow/Cloud Development Not Observable,-6.0,-8.0,29.96,,,,,71,38,0,,,,,,,,,8/8 Overcast,2300.0,,FEW,1500,BKN,2300.0,OVC,5400.0,,
KRDR,12-12-2004,19:14,SPECI,,330,25,34.0,,1600,Light Snow/Blowing Snow/Cloud Development Not Observable,-6.0,-8.0,29.96,,,,,71,38,0,,,,,,,,,8/8 Overcast,2300.0,,FEW,1500,BKN,2300.0,OVC,5400.0,,
KRDR,12-12-2004,19:00,METAR,,330,27,32.0,330/36KTS,800,Light Snow/Blowing Snow/Cloud Development Not Observable,-5.0,-7.0,29.95,1015.7,,,,71,38,0,,,,,,,,,8/8 Overcast,2300.0,,FEW,1500,BKN,2300.0,OVC,5400.0,,
KRDR,12-12-2004,18:10,SPECI,,340,20,31.0,,800,Light Snow/Blowing Snow/Cloud Development Not Observable,-5.0,-6.0,29.92,,,,,71,38,0,,,,,,,,,8/8 Overcast,2300.0,,OVC,2300,,,,,,
KRDR,12-12-2004,18:00,METAR,,330,26,35.0,330/36KTS,800,Light Snow/Blowing Snow/Cloud Development Not Observable,-5.0,-6.0,29.91,1014.5,,,,71,38,0,,,,,,,IN,,8/8 Overcast,2300.0,,OVC,2300,,,,,,
KRDR,12-12-2004,17:00,METAR,,340,26,32.0,,800,Light Snow/Blowing Snow/Cloud Development Not Observable,-4.0,-5.0,29.87,1013.2,,,,71,38,0,,,,,,,,,8/8 Overcast,2600.0,,OVC,2600,,,,,,
KRDR,12-12-2004,16:10,SPECI,,340,22,28.0,,800,Light Snow/Blowing Snow/Cloud Development Not Observable,-4.0,-5.0,29.85,,,,,71,38,0,,,,,,,,,8/8 Overcast,2600.0,,OVC,2600,,,,,,
KRDR,12-12-2004,16:00,METAR,,340,24,31.0,340/32KTS,1200,Light Snow/Blowing Snow/Cloud Development Not Observable,-3.0,-5.0,29.83,1011.7,,,,71,38,0,,,,,,,,,8/8 Overcast,2600.0,,OVC,2600,,,,,,
KRDR,12-12-2004,15:31,SPECI,,340,25,30.0,,800,Light Snow/Blowing Snow/Cloud Development Not Observable,-3.0,-4.0,29.80,,,,,71,38,0,,,,,,,,,8/8 Overcast,2400.0,,OVC,2400,,,,,,
KRDR,12-12-2004,15:21,SPECI,,340,23,27.0,,3200,Light Snow/Blowing Snow/Cloud Development Not Observable,-3.0,-3.0,29.79,,,,,71,38,0,,,,,,,,,8/8 Overcast,2000.0,,OVC,2000,,,,,,
KRDR,12-12-2004,15:00,METAR,,330,27,33.0,320/35KTS,6400,Light Snow/Blowing Snow/Cloud Development Not Observable,-2.0,-3.0,29.77,1009.6,,,,71,38,0,,,,,,,,,8/8 Overcast,2000.0,,OVC,2000,,,,,,
KRDR,12-12-2004,14:00,METAR,,320,24,35.0,,9999,Cloud Development Not Observable,-1.0,-3.0,29.73,1008.1,,,,0,0,0,,,,,,,,,8/8 Overcast,2100.0,,OVC,2100,,,,,,
KRDR,12-12-2004,13:00,METAR,,320,24,32.0,320/33KTS,9999,Cloud Development Not Observable,-1.0,-3.0,29.70,1007.1,,,,0,0,0,,,,,,,,,8/8 Overcast,2700.0,,OVC,2700,,,,,,
KRDR,12-12-2004,12:00,METAR,,330,21,27.0,,9999,Cloud Development Not Observable,-1.0,-2.0,29.65,1005.5,,,,0,0,0,,,,,,,IN,,8/8 Overcast,2200.0,,OVC,2200,,,,,,
KRDR,12-12-2004,11:28,SPECI,,330,16,26.0,,9999,Cloud Development Not Observable,-1.0,-3.0,29.64,,,,,0,0,0,,,,,,,,,8/8 Overcast,2200.0,,OVC,2200,,,,,,
KRDR,12-12-2004,11:00,METAR,,330,20,28.0,310/30KTS,9999,Snow Grains/Cloud Development Not Observable,-1.0,-3.0,29.61,1004.2,,,,77,0,0,,,,,,,,,8/8 Overcast,2400.0,,OVC,2400,,,,,,
KRDR,12-12-2004,10:00,METAR,,340,23,30.0,310/33KTS,9999,Snow Grains/Cloud Development Not Observable,-2.0,-2.0,29.58,1003.1,,,,77,0,0,,,,,,,,,8/8 Overcast,1800.0,,OVC,1800,,,,,,
KRDR,12-12-2004,09:00,METAR,,320,22,33.0,310/36KTS,9999,Snow Grains/Cloud Development Not Observable,1.0,0.0,29.50,1000.4,,,,77,0,0,,,,,,TRACE,,,8/8 Overcast,2000.0,,OVC,2000,,,,,,
KRDR,12-12-2004,08:00,METAR,,320,23,32.0,,9999,Cloud Development Not Observable,2.0,0.0,29.45,998.7,,,,0,0,0,,,,,,,,,8/8 Overcast,2000.0,,BKN,2000,OVC,5000.0,,,,
KRDR,12-12-2004,07:00,METAR,,310,26,35.0,,9999,Cloud Development Not Observable,2.0,1.0,29.41,997.3,,,,0,0,0,,,,,,,,,8/8 Overcast,2000.0,,BKN,2000,OVC,5000.0,,,,
KRDR,12-12-2004,06:38,SPECI,,300,23,32.0,,9999,Cloud Development Not Observable,3.0,1.0,29.39,,,,,0,0,0,,,,,,,,,8/8 Overcast,2000.0,,BKN,2000,OVC,9900.0,,,,
KRDR,12-12-2004,06:00,METAR,,310,21,24.0,300/32KTS,9999,Rain/Cloud Development Not Observable,3.0,2.0,29.36,995.5,,,,61,0,0,,,,,,,IN,,8/8 Overcast,2000.0,,BKN,2000,OVC,5000.0,,,,
KRDR,12-12-2004,05:40,SPECI,,300,20,26.0,,9999,Cloud Development Not Observable,3.0,2.0,29.36,,,,,0,0,0,,,,,,,,,8/8 Overcast,2000.0,,BKN,2000,OVC,9900.0,,,,
KRDR,12-12-2004,05:00,METAR,,300,16,26.0,290/29KTS,9999,Cloud Development Not Observable,4.0,3.0,29.32,994.3,,,,0,0,0,,,,,,,,,8/8 Overcast,3900.0,,FEW,1800,BKN,4000.0,OVC,20000.0,,
KRDR,12-12-2004,04:00,METAR,,300,17,23.0,290/28KTS,9999,Cloud Development Not Observable,5.0,3.0,29.29,993.2,,,,0,0,0,,,,,,,,,8/8 Overcast,10000.0,,FEW,5000,SCT,9900.0,OVC,20000.0,,
KRDR,12-12-2004,03:00,METAR,,270,11,,,9999,Cloud Development Not Observable,6.0,4.0,29.26,992.4,,,,0,0,0,,,,,,,,,8/8 Overcast,10000.0,,FEW,5000,SCT,9900.0,OVC,20000.0,,
KRDR,12-12-2004,02:00,METAR,,200,11,,,9999,Cloud Development Not Observable,4.0,3.0,29.27,992.5,,,,0,0,0,,,,,,,,,8/8 Overcast,10000.0,,SCT,5900,BKN,9900.0,OVC,20000.0,,
KRDR,12-12-2004,01:00,METAR,,200,14,,,9999,Cloud Development Not Observable,2.0,2.0,29.30,993.8,,,,0,0,0,,,,,,,,,8/8 Overcast,10000.0,,SCT,5900,OVC,9900.0,,,,
KRDR,12-12-2004,00:00,METAR,,190,13,,,9999,Cloud Development Not Observable,1.0,1.0,29.34,995.1,,,,0,0,0,,,,,,,IN,,8/8 Overcast,6000.0,,FEW,2000,SCT,5900.0,OVC,9900.0,,
KRDR,12-11-2004,23:12,SPECI,,180,16,,,9999,Cloud Development Not Observable,0.0,-1.0,29.35,,,,,0,0,0,,,,,,,,,7/8 Mostly Cloudy,6000.0,,SCT,2000,BKN,5900.0,BKN,8900.0,,
KRDR,12-11-2004,23:00,METAR,,180,17,,,9999,Cloud Development Not Observable,-1.0,-2.0,29.37,996.3,,,,0,0,0,,,,,,,,,7/8 Mostly Cloudy,6000.0,,FEW,2000,SCT,5900.0,BKN,8900.0,,
KRDR,12-11-2004,22:00,METAR,,180,19,,,9999,Mist/Cloud Development Not Observable,-1.0,-2.0,29.42,998.0,,,,10,0,0,,,,,,,,,8/8 Overcast,6000.0,,FEW,1000,SCT,5900.0,OVC,9900.0,,
KRDR,12-11-2004,21:00,METAR,,180,18,,,9999,Mist/Cloud Development Not Observable,-1.0,-2.0,29.45,999.1,,,,10,0,0,,,,,,TRACE,,,7/8 Mostly Cloudy,6000.0,,FEW,1000,SCT,5900.0,BKN,9900.0,,
KRDR,12-11-2004,20:15,SPECI,,180,16,,,9999,Cloud Development Not Observable,-3.0,-3.0,29.49,,,,,0,0,0,,,,,,,,,7/8 Mostly Cloudy,8000.0,,SCT,1100,BKN,7900.0,BKN,11000.0,,
KRDR,12-11-2004,20:00,METAR,,180,18,,180/27KTS,9999,Mist/Cloud Development Not Observable,-3.0,-4.0,29.51,1000.9,,,,10,0,0,,,,,,,,,8/8 Overcast,900.0,,BKN,900,BKN,7900.0,OVC,11000.0,,
KRDR,12-11-2004,19:00,METAR,,180,20,,170/26KTS,9999,Mist/Cloud Development Not Observable,-4.0,-4.0,29.54,1004.8,,,,10,0,0,,,,,,,,,8/8 Overcast,800.0,,BKN,800,OVC,7400.0,,,,
KRDR,12-11-2004,18:08,SPECI,,170,19,,,9999,Mist/Cloud Development Not Observable,-4.0,-4.0,29.59,,,,,10,0,0,,,,,,,,,7/8 Mostly Cloudy,900.0,,BKN,900,BKN,7400.0,,,,
KRDR,12-11-2004,18:00,METAR,,170,16,,,9999,Mist/Cloud Development Not Observable,-4.0,-4.0,29.62,1004.8,,,,10,0,0,,,,,,,,,8/8 Overcast,800.0,,BKN,800,OVC,7400.0,,,,
KRDR,12-11-2004,17:00,METAR,,170,15,,,8000,Mist/Cloud Development Not Observable,-5.0,-5.0,29.69,1007.3,,,,10,0,0,,,,,,,,,8/8 Overcast,700.0,,OVC,700,,,,,,
KRDR,12-11-2004,16:00,METAR,,160,13,,,8000,Mist/Cloud Development Not Observable,-5.0,-5.0,29.74,1008.9,,,,10,0,0,,,,,,,,,8/8 Overcast,600.0,,OVC,600,,,,,,
KRDR,12-11-2004,15:00,METAR,,170,10,,,8000,Mist/Cloud Development Not Observable,-5.0,-5.0,29.78,1010.5,,,,10,0,0,,,,,,,,,8/8 Overcast,600.0,,OVC,600,,,,,,
KRDR,12-11-2004,14:00,METAR,,170,11,,,6400,Mist/Cloud Development Not Observable,-5.0,-5.0,29.81,1011.3,,,,10,0,0,,,,,,,,,8/8 Overcast,700.0,,OVC,700,,,,,,
KRDR,12-11-2004,12:00,METAR,,180,9,,,9999,Cloud Development Not Observable,-6.0,-6.0,29.89,1014.0,,,,0,0,0,,,,,,,,,8/8 Overcast,400.0,,OVC,400,,,,,,
KRDR,12-11-2004,11:00,METAR,,170,7,,,9999,Cloud Development Not Observable,-6.0,-6.0,29.92,1015.1,,,,0,0,0,,,,,,,,,8/8 Overcast,400.0,,OVC,400,,,,,,
KRDR,12-11-2004,10:00,METAR,,180,6,,,9999,Cloud Development Not Observable,-6.0,-6.0,29.98,1017.2,,,,0,0,0,,,,,,,,,8/8 Overcast,700.0,,OVC,700,,,,,,
KRDR,12-11-2004,09:00,METAR,,190,7,,,9999,Cloud Development Not Observable,-6.0,-6.0,30.01,1018.2,,,,0,0,0,,,,,,,,,8/8 Overcast,700.0,,OVC,700,,,,,,
KRDR,12-11-2004,08:00,METAR,,180,4,,,9999,Cloud Development Not Observable,-6.0,-6.0,30.03,1019.0,,,,0,0,0,,,,,,,,,8/8 Overcast,700.0,,OVC,700,,,,,,
KRDR,12-11-2004,07:00,METAR,,200,5,,,9999,Cloud Development Not Observable,-5.0,-5.0,30.05,1019.6,,,,0,0,0,,,,,,,,,8/8 Overcast,700.0,,OVC,700,,,,,,
KRDR,12-11-2004,06:00,METAR,,210,3,,,9999,Cloud Development Not Observable,-5.0,-5.0,30.05,1019.6,,,,0,0,0,,,,,,,IN,,8/8 Overcast,800.0,,OVC,800,,,,,,
KRDR,12-11-2004,05:00,METAR,,220,3,,,9999,Cloud Development Not Observable,-6.0,-6.0,30.07,1020.4,,,,0,0,0,,,,,,,,,8/8 Overcast,700.0,,BKN,700,OVC,1000.0,,,,
KRDR,12-11-2004,04:21,SPECI,,220,3,,,9999,Snow Grains/Cloud Development Not Observable,-6.0,-6.0,30.08,,,,,77,0,0,,,,,,,,,8/8 Overcast,700.0,,BKN,700,OVC,1000.0,,,,
KRDR,12-11-2004,04:00,METAR,,260,4,,,9999,Snow Grains/Cloud Development Not Observable,-6.0,-6.0,30.09,1021.1,,,,77,0,0,,,,,,,,,8/8 Overcast,1000.0,,SCT,700,OVC,1000.0,,,,
KRDR,12-11-2004,03:00,METAR,,230,2,,,9999,Snow Grains/Cloud Development Not Observable,-6.0,-6.0,30.11,1021.7,,,,77,0,0,,,,,,,,,8/8 Overcast,1000.0,,OVC,1000,,,,,,
KRDR,12-11-2004,02:40,SPECI,,230,3,,,9999,Snow Grains/Cloud Development Not Observable,-6.0,-6.0,30.11,,,,,77,0,0,,,,,,,,,8/8 Overcast,1000.0,,OVC,1000,,,,,,
KRDR,12-11-2004,02:00,METAR,,,0,,,9999,Cloud Development Not Observable,-6.0,-6.0,30.13,1022.5,,,,0,0,0,,,,,,,,,8/8 Overcast,1000.0,,OVC,1000,,,,,,
KRDR,12-11-2004,01:00,METAR,,290,2,,,9999,Cloud Development Not Observable,-6.0,-6.0,30.13,1022.5,,,,0,0,0,,,,,,,,,8/8 Overcast,1000.0,,OVC,1000,,,,,,
KRDR,12-11-2004,00:00,METAR,,260,3,,,9999,Cloud Development Not Observable,-6.0,-6.0,30.15,1023.2,,,,0,0,0,,,,,,,IN,,8/8 Overcast,1000.0,,OVC,1000,,,,,,
KRDR,12-10-2004,23:00,METAR,,280,3,,,9999,Cloud Development Not Observable,-6.0,-6.0,30.15,1023.2,,,,0,0,0,,,,,,,,,8/8 Overcast,1100.0,,OVC,1100,,,,,,
KRDR,12-10-2004,22:18,SPECI,,300,3,,,9999,Cloud Development Not Observable,-6.0,-6.0,30.15,,,,,0,0,0,,,,,,,,,8/8 Overcast,1100.0,,OVC,1100,,,,,,
KRDR,12-10-2004,22:00,METAR,,270,4,,,8000,Light Snow/Mist/Cloud Development Not Observable,-6.0,-6.0,30.15,1023.1,,,,71,10,0,,,,,,,,,8/8 Overcast,1100.0,,OVC,1100,,,,,,
KRDR,12-10-2004,21:00,METAR,,,0,,,9999,Light Snow/Mist/Cloud Development Not Observable,-7.0,-7.0,30.13,1022.4,,,,71,10,0,,,,,,TRACE,,,8/8 Overcast,1100.0,,FEW,500,OVC,1100.0,,,,
KRDR,12-10-2004,20:34,SPECI,,290,2,,,6400,Light Snow/Mist/Cloud Development Not Observable,-7.0,-7.0,30.12,,,,,71,10,0,,,,,,,,,8/8 Overcast,1200.0,,SCT,500,OVC,1200.0,,,,
KRDR,12-10-2004,20:20,METAR,,,0,,,6400,Light Snow/Mist/Cloud Development Not Observable,-7.0,-7.0,30.13,,,,,71,10,0,,,,,,,,,8/8 Overcast,900.0,,SCT,500,OVC,900.0,,,,
KRDR,12-10-2004,20:00,METAR,,,0,,,4000,Light Snow/Mist/Cloud Development Not Observable,-8.0,-8.0,30.14,1022.8,,,,71,10,0,,,,,,,,,8/8 Overcast,900.0,,SCT,500,OVC,900.0,,,,
KRDR,12-10-2004,19:35,SPECI,,,1,,,4000,Light Snow/Mist/Cloud Development Not Observable,-8.0,-8.0,30.15,,,,,71,10,0,,,,,,,,,8/8 Overcast,400.0,,BKN,400,OVC,1000.0,,,,
KRDR,12-10-2004,19:04,SPECI,,320,1,,,3200,Light Snow/Mist/Cloud Development Not Observable,-8.0,-8.0,30.15,,,,,71,10,0,,,,,,,,,8/8 Overcast,400.0,,OVC,400,,,,,,
KRDR,12-10-2004,19:00,METAR,,,1,,,4000,Light Snow/Mist/Cloud Development Not Observable,-8.0,-8.0,30.15,1023.1,,,,71,10,0,,,,,,,,,8/8 Overcast,500.0,,OVC,500,,,,,,
KRDR,12-10-2004,18:12,SPECI,,,1,,,4000,Light Snow/Mist/Cloud Development Not Observable,-8.0,-8.0,30.15,,,,,71,10,0,,,,,,,,,8/8 Overcast,500.0,,OVC,500,,,,,,
KRDR,12-10-2004,18:00,METAR,,360,2,,,4800,Mist/Cloud Development Not Observable,-8.0,-8.0,30.16,1023.4,,,,10,0,0,,,,,,,,,8/8 Overcast,500.0,,BKN,500,OVC,1000.0,,,,
KRDR,12-10-2004,17:00,METAR,,20,4,,,6400,Mist/Cloud Development Not Observable,-8.0,-8.0,30.16,1023.4,,,,10,0,0,,,,,,,,,8/8 Overcast,500.0,,BKN,500,OVC,1000.0,,,,
KRDR,12-10-2004,16:31,SPECI,,350,4,,,4800,Mist/Cloud Development Not Observable,-8.0,-8.0,30.17,,,,,10,0,0,,,,,,,,,8/8 Overcast,500.0,,BKN,500,OVC,1000.0,,,,
KRDR,12-10-2004,16:00,METAR,,360,6,,,4800,Mist/Cloud Development Not Observable,-9.0,-9.0,30.16,1023.4,,,,10,0,0,,,,,,,,,8/8 Overcast,500.0,,BKN,500,OVC,1000.0,,,,
KRDR,12-10-2004,15:00,METAR,,350,7,,,6400,Fog with Rime/Cloud Development Not Observable,-9.0,-9.0,30.16,1023.3,,,,48,0,0,,,,,,,,,8/8 Overcast,300.0,,BKN,300,OVC,800.0,,,,
KRDR,12-10-2004,14:00,METAR,,350,6,,,4800,Fog with Rime/Cloud Development Not Observable,-9.0,-9.0,30.14,1022.6,,,,48,0,0,,,,,,,,,8/8 Overcast,300.0,,BKN,300,OVC,900.0,,,,
KRDR,12-10-2004,13:26,SPECI,,350,7,,,6400,Fog with Rime/Cloud Development Not Observable,-9.0,-9.0,30.14,,,,,48,0,0,,,,,,,,,8/8 Overcast,300.0,,BKN,300,OVC,900.0,,,,
KRDR,12-10-2004,13:00,METAR,,350,8,,,8000,Mist/Cloud Development Not Observable,-9.0,-9.0,30.13,1022.2,,,,10,0,0,,,,,,,,,8/8 Overcast,400.0,,OVC,400,,,,,,
KRDR,12-10-2004,12:00,METAR,,340,7,,,8000,Mist/Cloud Development Not Observable,-9.0,-9.0,30.12,1022.0,,,,10,0,0,,,,,,,,,8/8 Overcast,200.0,,OVC,200,,,,,,
KRDR,12-10-2004,09:00,METAR,,340,11,,,9999,Cloud Development Not Observable,-8.0,-8.0,30.09,1021.0,,,,0,0,0,,,,,,,,,8/8 Overcast,500.0,,OVC,500,,,,,,
KRDR,12-10-2004,08:00,METAR,,340,10,,,9999,Cloud Development Not Observable,-8.0,-8.0,30.07,1020.3,,,,0,0,0,,,,,,,,,8/8 Overcast,500.0,,OVC,500,,,,,,
KRDR,12-10-2004,07:00,METAR,,350,11,,,9999,Cloud Development Not Observable,-8.0,-8.0,30.05,1019.6,,,,0,0,0,,,,,,,,,8/8 Overcast,500.0,,OVC,500,,,,,,
KRDR,12-10-2004,06:00,METAR,,350,11,,,9999,Mist/Cloud Development Not Observable,-7.0,-7.0,30.03,1018.9,,,,10,0,0,,,,,,,.02 IN,,8/8 Overcast,900.0,,OVC,900,,,,,,
KRDR,12-10-2004,05:05,SPECI,,360,11,,,4800,Freezing Drizzle/Mist/Cloud Development Not Observable,-6.0,-6.0,30.01,,,,,56,10,0,,,,,,,,,8/8 Overcast,500.0,,OVC,500,,,,,,
KRDR,12-10-2004,05:00,METAR,,360,10,,,4800,Freezing Drizzle/Mist/Cloud Development Not Observable,-6.0,-6.0,30.01,1018.1,,,,56,10,0,,,,,,,,,8/8 Overcast,500.0,,OVC,500,,,,,,
KRDR,12-10-2004,04:00,METAR,,350,10,,,4800,Freezing Drizzle/Mist/Cloud Development Not Observable,-5.0,-5.0,29.98,1017.2,,,,56,10,0,,,,,,,,,8/8 Overcast,600.0,,OVC,600,,,,,,
KRDR,12-10-2004,03:47,SPECI,,360,10,,,4800,Freezing Drizzle/Mist/Cloud Development Not Observable,-5.0,-5.0,29.98,,,,,56,10,0,,,,,,,,,8/8 Overcast,800.0,,SCT,300,OVC,800.0,,,,
KRDR,12-10-2004,03:24,SPECI,,350,9,,,3200,Light Snow/Freezing Drizzle/Mist,-4.0,-4.0,29.97,,,,,71,56,10,,,,,,,,,8/8 Overcast,800.0,,SCT,300,OVC,800.0,,,,
KRDR,12-10-2004,03:00,METAR,,340,9,,,2400,Light Snow/Mist/Cloud Development Not Observable,-4.0,-4.0,29.96,1016.4,,,,71,10,0,,,,,,.02 IN,,,8/8 Overcast,400.0,,OVC,400,,,,,,
KRDR,12-10-2004,02:30,METAR,,340,10,,,2400,Light Snow/Mist/Cloud Development Not Observable,-4.0,-4.0,29.95,,,,,71,10,0,,,,,,,,,8/8 Overcast,400.0,,OVC,400,,,,,,
KRDR,12-10-2004,02:00,METAR,,340,10,,,1200,Light Snow/Mist/Cloud Development Not Observable,-4.0,-4.0,29.93,1015.2,,,,71,10,0,,,,,,,,,8/8 Overcast,500.0,,OVC,500,,,,,,
KRDR,12-10-2004,01:48,SPECI,,330,11,,,1600,Light Snow/Mist/Cloud Development Not Observable,-4.0,-4.0,29.93,,,,,71,10,0,,,,,,,,,8/8 Overcast,500.0,,OVC,500,,,,,,
KRDR,12-10-2004,01:00,METAR,,360,10,,,1200,Light Snow/Cloud Development Not Observable,-2.0,-2.0,29.91,1014.4,,,,71,0,0,,,,,,,,,8/8 Overcast,500.0,,BKN,500,OVC,1000.0,,,,
KRDR,12-10-2004,00:00,METAR,,360,9,,,1600,Light Snow/Mist/Cloud Development Not Observable,-2.0,-2.0,29.88,1013.5,,,,71,10,0,,,,,,,.07 IN,,8/8 Overcast,800.0,,BKN,800,OVC,2000.0,,,,
