Platform Id,Date,Time (UTC),Report Type,Wind Condition,Wind Direction,Wind Speed (Knots),Wind Gust Speed,Peak Wind (Knots),Visibility (M),Weather,Air Temp (C),Dew Point (C),Altimeter (inHg),SLP (Millibars),Present Automated 1,Present Automated 2,Present Automated 3,Present Manual 1,Present Manual 2,Present Manual 3,Present Manual 4,Present Manual 5,Present Manual 6,Present Manual 7,Precip Hr1,Precip Hr3,Precip Hr6,Precip Hr24,Cloud Cover,Cloud Ceiling (Feet),Lowest Cloud Base Height (Feet),Cloud Cover1,Cloudbase 1,Cloud Cover2,Cloudbase 2,Cloud Cover3,Cloudbase 3,Cloud Cover4,Cloudbase 4
KRDR,10-26-2015,23:58,METAR,Normal,80,5.0,,,9999.0,,6.9,1.7,30.23,1025.3,,,,,,,,,,,,,,,Clear,72000.0,,,,,,,,,
KRDR,10-26-2015,22:58,METAR,Normal,70,5.0,,,9999.0,,8.7,2.5,30.23,1025.2,,,,,,,,,,,,,,,Clear,72000.0,,,,,,,,,
KRDR,10-26-2015,21:58,METAR,Normal,70,6.0,,,9999.0,,10.2,2.6,30.24,1025.4,,,,,,,,,,,,,,,Clear,72000.0,,,,,,,,,
KRDR,10-26-2015,20:58,METAR,Normal,100,9.0,,,9999.0,,11.4,2.8,30.24,1025.4,,,,,,,,,,,,,,,Clear,72000.0,,,,,,,,,
KRDR,10-26-2015,19:58,METAR,Normal,90,8.0,,,9999.0,,11.2,2.8,30.26,1026.1,,,,,,,,,,,,,,,Clear,72000.0,,,,,,,,,
KRDR,10-26-2015,18:58,METAR,Normal,80,8.0,,,9999.0,,11.2,2.6,30.28,1026.7,,,,,,,,,,,,,,,Clear,72000.0,,,,,,,,,
KRDR,10-26-2015,17:58,METAR,Normal,100,8.0,,,9999.0,,9.9,2.0,30.31,1027.7,,,,,,,,,,,,,,,Clear,72000.0,,,,,,,,,
KRDR,10-26-2015,16:58,METAR,Normal,90,4.0,,,9999.0,,7.5,1.0,30.32,1028.1,,,,,,,,,,,,,,,Clear,72000.0,,,,,,,,,
KRDR,10-26-2015,15:58,METAR,Normal,50,3.0,,,9999.0,,4.3,1.0,30.33,1028.6,,,,,,,,,,,,,,,Clear,72000.0,,,,,,,,,
KRDR,10-26-2015,14:58,METAR,Normal,10,4.0,,,9999.0,,0.9,-0.1,30.34,1029.1,,,,,,,,,,,,,,,Clear,72000.0,,,,,,,,,
KRDR,10-26-2015,13:58,METAR,Normal,340,2.0,,,9999.0,,-2.7,-3.4,30.33,1028.9,,,,,,,,,,,,,,,Clear,72000.0,,,,,,,,,
KRDR,10-26-2015,12:58,METAR,Calm,,0.0,,,9999.0,,-3.8,-4.5,30.31,1028.2,,,,,,,,,,,,,,,Clear,72000.0,,,,,,,,,
KRDR,10-26-2015,11:58,METAR,Normal,350,4.0,,,9999.0,,-3.1,-3.9,30.31,1028.0,,,,,,,,,,,,,,,Clear,72000.0,,,,,,,,,
KRDR,10-26-2015,10:58,METAR,Normal,20,5.0,,,9999.0,,-3.1,-3.8,30.31,1028.0,,,,,,,,,,,,,,,Clear,72000.0,,,,,,,,,
KRDR,10-26-2015,09:58,METAR,Normal,340,4.0,,,9999.0,,-2.2,-2.6,30.31,1027.8,,,,,,,,,,,,,,,Clear,72000.0,,,,,,,,,
KRDR,10-26-2015,09:18,SPECI,Normal,360,3.0,,,9999.0,,-2.0,-3.0,30.30,,,,,,,,,,,,,,,,Clear,72000.0,,,,,,,,,
KRDR,10-26-2015,09:13,SPECI,Normal,360,3.0,,,4800.0,Mist,-2.0,-2.0,30.31,,10,,,,,,,,,,,,,,Clear,72000.0,,,,,,,,,
KRDR,10-26-2015,09:08,SPECI,Normal,360,2.0,,,9999.0,,-2.0,-2.0,30.31,,,,,,,,,,,,,,,,Clear,72000.0,,,,,,,,,
KRDR,10-26-2015,08:58,METAR,Normal,350,2.0,,,9999.0,,-1.8,-2.3,30.31,1027.8,,,,,,,,,,,,,,,Clear,72000.0,,,,,,,,,
KRDR,10-26-2015,07:58,METAR,Normal,340,4.0,,,9999.0,,-0.9,-1.4,30.31,1027.8,,,,,,,,,,,,,,,Clear,72000.0,,,,,,,,,
KRDR,10-26-2015,07:33,SPECI,Normal,20,3.0,,,9999.0,,-1.0,-1.0,30.32,,,,,,,,,,,,,,,,2/8 Mostly Clear,72000.0,10000.0,FEW,10000.0,,,,,,
KRDR,10-26-2015,07:28,SPECI,Normal,20,4.0,,,9999.0,,0.0,-1.0,30.32,,,,,,,,,,,,,,,,2/8 Mostly Clear,72000.0,8500.0,FEW,8600.0,,,,,,
KRDR,10-26-2015,06:58,METAR,Normal,350,4.0,,,9999.0,,-0.4,-0.9,30.32,1028.1,,,,,,,,,,,,,,,2/8 Mostly Clear,72000.0,10000.0,FEW,10000.0,,,,,,
KRDR,10-26-2015,05:58,METAR,Normal,360,4.0,,,9999.0,,0.8,0.3,30.32,1028.2,,,,,,,,,,,,,,,2/8 Mostly Clear,72000.0,11000.0,FEW,11000.0,,,,,,
KRDR,10-26-2015,04:58,METAR,Normal,340,2.0,,,9999.0,,1.6,0.7,30.32,1028.1,,,,,,,,,,,,,,,,9500.0,9500.0,BKN,9600.0,,,,,,
KRDR,10-26-2015,03:58,METAR,Normal,360,3.0,,,9999.0,,1.7,0.8,30.32,1028.2,,,,,,,,,,,,,,,,10000.0,10000.0,BKN,10000.0,,,,,,
KRDR,10-26-2015,02:58,METAR,Normal,290,2.0,,,9999.0,,0.1,-0.9,30.31,1028.1,,,,,,,,,,,,,,,,8000.0,8000.0,BKN,8000.0,BKN,10000.0,,,,
KRDR,10-26-2015,01:58,METAR,Calm,,0.0,,,9999.0,,0.0,0.0,30.30,1027.8,,,,,,,,,,,,,,,2/8 Mostly Clear,72000.0,9000.0,FEW,9100.0,,,,,,
KRDR,10-26-2015,00:58,METAR,Normal,100,2.0,,,9999.0,,1.8,0.2,30.30,1027.8,,,,,,,,,,,,,,,Clear,72000.0,,,,,,,,,
KRDR,10-25-2015,23:58,METAR,Normal,90,4.0,,,9999.0,,5.4,1.4,30.30,1027.6,,,,,,,,,,,,,,,Clear,72000.0,,,,,,,,,
KRDR,10-25-2015,22:58,METAR,Normal,80,5.0,,,9999.0,,7.2,2.2,30.30,1027.6,,,,,,,,,,,,,,,Clear,72000.0,,,,,,,,,
KRDR,10-25-2015,21:58,METAR,Normal,90,6.0,,,9999.0,,9.5,2.0,30.29,1027.1,,,,,,,,,,,,,,,Clear,72000.0,,,,,,,,,
KRDR,10-25-2015,20:58,METAR,Normal,110,5.0,,,9999.0,,9.8,1.9,30.30,1027.4,,,,,,,,,,,,,,,Clear,72000.0,,,,,,,,,
KRDR,10-25-2015,19:58,METAR,Normal,150,5.0,,,9999.0,,9.8,0.9,30.31,1027.8,,,,,,,,,,,,,,,Clear,72000.0,,,,,,,,,
KRDR,10-25-2015,18:58,METAR,Normal,120,3.0,,,9999.0,,9.0,1.8,30.32,1028.1,,,,,,,,,,,,,,,Clear,72000.0,,,,,,,,,
KRDR,10-25-2015,17:58,METAR,Normal,130,4.0,,,9999.0,,7.7,2.2,30.34,1028.8,,,,,,,,,,,,,TRACE,,Clear,72000.0,,,,,,,,,
KRDR,10-25-2015,16:58,METAR,Normal,100,5.0,,,9999.0,,6.8,3.0,30.35,1029.1,,,,,,,,,,,,,,,Clear,72000.0,,,,,,,,,
KRDR,10-25-2015,15:58,METAR,Normal,100,4.0,,,9999.0,,3.8,3.5,30.36,1029.5,,,,,,,,,,,,,,,Clear,72000.0,,,,,,,,,
KRDR,10-25-2015,15:03,SPECI,Normal,70,2.0,,,9999.0,,1.0,0.0,30.35,,,,,,,,,,,,,,,,2/8 Mostly Clear,72000.0,100.0,FEW,100.0,,,,,,
KRDR,10-25-2015,14:58,METAR,Normal,40,3.0,,,3200.0,Mist,0.6,0.4,30.35,1029.3,10,,,,,,,,,,TRACE,TRACE,,,4/8 Partly Cloudy,72000.0,100.0,SCT,100.0,,,,,,
KRDR,10-25-2015,14:39,SPECI,Normal,20,3.0,,,1200.0,Mist,0.0,0.0,30.34,,10,,,,,,,,,,,,,,Sky Obscured (Unable to Estimate),100.0,100.0,,100.0,,,,,,
KRDR,10-25-2015,14:29,SPECI,Normal,10,3.0,,,800.0,Fog with Rime,0.0,0.0,30.34,,35,,,,,,,,,,,,,,Sky Obscured (Unable to Estimate),100.0,100.0,,100.0,,,,,,
KRDR,10-25-2015,13:58,METAR,Normal,20,3.0,,,400.0,Fog with Rime,-1.1,-1.6,30.33,1028.5,35,,,,,,,,,,,,,,Sky Obscured (Unable to Estimate),100.0,100.0,,100.0,,,,,,
KRDR,10-25-2015,13:03,SPECI,Normal,10,3.0,,,400.0,Fog with Rime,-2.0,-3.0,30.31,,35,,,,,,,,,,,,,,Sky Obscured (Unable to Estimate),100.0,100.0,,100.0,,,,,,
KRDR,10-25-2015,12:58,METAR,Normal,360,3.0,,,400.0,Fog with Rime,-2.0,-3.0,30.31,1027.8,35,,,,,,,,,,TRACE,,,,Sky Obscured (Unable to Estimate),100.0,100.0,,100.0,,,,,,
KRDR,10-25-2015,12:50,SPECI,Normal,340,2.0,,,800.0,Fog with Rime,-2.0,-3.0,30.31,,35,,,,,,,,,,,,,,Sky Obscured (Unable to Estimate),100.0,100.0,,100.0,,,,,,
KRDR,10-25-2015,12:35,SPECI,Normal,10,2.0,,,400.0,Fog with Rime,-2.0,-3.0,30.31,,35,,,,,,,,,,,,,,Sky Obscured (Unable to Estimate),100.0,100.0,,100.0,,,,,,
KRDR,10-25-2015,12:25,SPECI,Normal,360,3.0,,,800.0,Fog with Rime,-2.0,-3.0,30.30,,35,,,,,,,,,,,,,,Sky Obscured (Unable to Estimate),100.0,100.0,,100.0,,,,,,
KRDR,10-25-2015,11:58,METAR,Normal,340,2.0,,,1200.0,Mist,-1.0,-2.0,30.29,1027.1,10,,,,,,,,,,TRACE,,TRACE,,Sky Obscured (Unable to Estimate),100.0,100.0,,100.0,,,,,,
KRDR,10-25-2015,11:44,SPECI,Normal,360,4.0,,,800.0,Fog with Rime,-1.0,-2.0,30.29,,35,,,,,,,,,,,,,,Sky Obscured (Unable to Estimate),100.0,100.0,,100.0,,,,,,
KRDR,10-25-2015,11:39,SPECI,Normal,360,4.0,,,400.0,Light Freezing Drizzle/Fog with Rime,-1.0,-2.0,30.29,,54,35,,,,,,,,,,,,,Sky Obscured (Unable to Estimate),100.0,100.0,,100.0,,,,,,
KRDR,10-25-2015,10:58,METAR,Normal,30,1.0,,,400.0,Fog with Rime,-1.5,-2.0,30.28,1026.7,35,,,,,,,,,,,,,,Sky Obscured (Unable to Estimate),100.0,100.0,,100.0,,,,,,
KRDR,10-25-2015,10:45,SPECI,Calm,,0.0,,,400.0,Fog with Rime,-2.0,-2.0,30.27,,35,,,,,,,,,,,,,,Sky Obscured (Unable to Estimate),100.0,100.0,,100.0,,,,,,
KRDR,10-25-2015,10:34,SPECI,Calm,,0.0,,,800.0,Fog with Rime,-1.0,-2.0,30.27,,35,,,,,,,,,,,,,,Sky Obscured (Unable to Estimate),100.0,100.0,,100.0,,,,,,
KRDR,10-25-2015,10:30,SPECI,Normal,10,2.0,,,1600.0,Mist,-2.0,-2.0,30.27,,,,,10,,,,,,,,,,,Clear,72000.0,,,,,,,,,
KRDR,10-25-2015,09:58,METAR,Normal,20,4.0,,,6400.0,Mist,-2.0,-2.0,30.27,,,,,10,,,,,,,,,,,Clear,72000.0,,,,,,,,,
KRDR,10-25-2015,08:58,METAR,Normal,320,2.0,,,9999.0,Mist,-1.1,-1.6,30.26,1025.9,10,,,,,,,,,,,,,,Clear,72000.0,,,,,,,,,
KRDR,10-25-2015,08:53,SPECI,Normal,350,3.0,,,9999.0,Mist,0.0,-1.0,30.26,,10,,,,,,,,,,,,,,Clear,72000.0,,,,,,,,,
KRDR,10-25-2015,08:38,SPECI,Normal,350,3.0,,,9999.0,Mist,-1.0,-2.0,30.25,,10,,,,,,,,,,,,,,Clear,72000.0,,,,,,,,,
KRDR,10-25-2015,08:33,SPECI,Normal,340,3.0,,,1600.0,Mist,-1.0,-2.0,30.25,,10,,,,,,,,,,,,,,Clear,72000.0,,,,,,,,,
KRDR,10-25-2015,08:28,SPECI,Normal,340,3.0,,,1600.0,Mist,-1.0,-2.0,30.25,,10,,,,,,,,,,,,,,Clear,72000.0,,,,,,,,,
KRDR,10-25-2015,08:23,SPECI,Normal,340,3.0,,,2400.0,Mist,0.0,-1.0,30.25,,10,,,,,,,,,,,,,,Clear,72000.0,,,,,,,,,
KRDR,10-25-2015,08:18,SPECI,Normal,350,4.0,,,6400.0,Mist,0.0,-1.0,30.25,,10,,,,,,,,,,,,,,Clear,72000.0,,,,,,,,,
KRDR,10-25-2015,08:13,SPECI,Normal,350,3.0,,,9999.0,Mist,0.0,-1.0,30.25,,10,,,,,,,,,,,,,,Clear,72000.0,,,,,,,,,
KRDR,10-25-2015,08:08,SPECI,Normal,350,4.0,,,9999.0,,0.0,-1.0,30.25,,,,,,,,,,,,,,,,Clear,72000.0,,,,,,,,,
KRDR,10-25-2015,07:58,METAR,Normal,350,4.0,,,9999.0,,-0.5,-0.9,30.25,1025.5,,,,,,,,,,,,,,,Clear,72000.0,,,,,,,,,
KRDR,10-25-2015,07:43,SPECI,Normal,350,5.0,,,9999.0,,0.0,-1.0,30.24,,,,,,,,,,,,,,,,Clear,72000.0,,,,,,,,,
KRDR,10-25-2015,07:38,SPECI,Normal,350,4.0,,,9999.0,,0.0,-1.0,30.24,,,,,,,,,,,,,,,,Clear,72000.0,,,,,,,,,
KRDR,10-25-2015,07:28,SPECI,Normal,340,3.0,,,6400.0,Mist,0.0,0.0,30.24,,10,,,,,,,,,,,,,,Clear,72000.0,,,,,,,,,
KRDR,10-25-2015,07:23,SPECI,Normal,350,3.0,,,9999.0,,0.0,0.0,30.23,,,,,,,,,,,,,,,,Clear,72000.0,,,,,,,,,
KRDR,10-25-2015,07:18,SPECI,Normal,340,4.0,,,4800.0,Mist,0.0,0.0,30.23,,10,,,,,,,,,,,,,,Clear,72000.0,,,,,,,,,
KRDR,10-25-2015,07:13,SPECI,Normal,350,4.0,,,2000.0,Mist,0.0,0.0,30.23,,10,,,,,,,,,,,,,,Clear,72000.0,,,,,,,,,
KRDR,10-25-2015,07:08,SPECI,Normal,350,4.0,,,1600.0,Mist,0.0,0.0,30.23,,10,,,,,,,,,,,,,,Clear,72000.0,,,,,,,,,
KRDR,10-25-2015,07:03,SPECI,Normal,350,3.0,,,1600.0,Mist,0.0,0.0,30.23,,10,,,,,,,,,,,,,,Clear,72000.0,,,,,,,,,
KRDR,10-25-2015,06:58,METAR,Normal,330,3.0,,,3200.0,Mist,-0.2,-0.7,30.23,1024.9,10,,,,,,,,,,,,,,Clear,72000.0,,,,,,,,,
KRDR,10-25-2015,06:38,SPECI,Normal,300,2.0,,,9999.0,,0.0,0.0,30.22,,,,,,,,,,,,,,,,Clear,72000.0,,,,,,,,,
KRDR,10-25-2015,06:18,SPECI,Calm,,0.0,,,9999.0,,0.0,0.0,30.22,,,,,,,,,,,,,,,,Clear,72000.0,,,,,,,,,
KRDR,10-25-2015,05:58,METAR,Normal,320,2.0,,,9999.0,,1.2,0.6,30.21,1024.2,,,,,,,,,,,,,,,Clear,72000.0,,,,,,,,,
KRDR,10-25-2015,04:58,METAR,Normal,20,5.0,,,9999.0,,2.6,1.6,30.20,1023.9,,,,,,,,,,,,,,,Clear,72000.0,,,,,,,,,
KRDR,10-25-2015,03:58,METAR,Variable,360,7.0,,,9999.0,,3.3,1.8,30.18,1023.3,,,,,,,,,,,,,,,Clear,72000.0,,,,,,,,,
KRDR,10-25-2015,02:58,METAR,Normal,350,6.0,,,9999.0,,5.4,2.8,30.16,1022.6,,,,,,,,,,,,,,,Clear,72000.0,,,,,,,,,
KRDR,10-25-2015,01:58,METAR,Normal,340,7.0,,,9999.0,,8.7,2.8,30.13,1021.6,,,,,,,,,,,,,,,4/8 Partly Cloudy,72000.0,7000.0,FEW,7000.0,SCT,10000.0,,,,
KRDR,10-25-2015,00:58,METAR,Normal,320,6.0,,,9999.0,,11.0,2.9,30.11,1020.9,,,,,,,,,,,,,,,Clear,10000.0,,,,,,,,,
KRDR,10-24-2015,23:58,METAR,Normal,280,5.0,,,9999.0,,8.8,3.4,30.08,1019.8,,,,,,,,,,,,,,,2/8 Mostly Clear,72000.0,11000.0,FEW,11000.0,,,,,,
KRDR,10-24-2015,23:18,SPECI,Normal,10,11.0,19.0,,9999.0,,11.0,4.0,30.07,,,,,,,,,,,,,,,,,5500.0,5500.0,BKN,5500.0,OVC,10000.0,,,,
KRDR,10-24-2015,22:58,METAR,Normal,280,6.0,,,9999.0,,11.7,3.7,30.06,1019.1,,,,,,,,,,,,,,,,11000.0,5500.0,FEW,5500.0,BKN,11000.0,,,,
KRDR,10-24-2015,21:58,METAR,Normal,300,8.0,,,9999.0,,13.9,2.1,30.04,1018.3,,,,,,,,,,,,,,,Clear,72000.0,,,,,,,,,
KRDR,10-24-2015,20:58,METAR,Normal,320,9.0,,,9999.0,,14.3,1.3,30.03,1017.9,,,,,,,,,,,,,,,Clear,72000.0,,,,,,,,,
KRDR,10-24-2015,19:58,METAR,Normal,310,11.0,,,9999.0,,14.5,1.0,30.02,1017.5,,,,,,,,,,,,,,,Clear,72000.0,,,,,,,,,
KRDR,10-24-2015,18:58,METAR,Normal,320,13.0,18.0,,9999.0,,13.6,3.4,30.03,1017.9,,,,,,,,,,,,,,,Clear,72000.0,,,,,,,,,
KRDR,10-24-2015,17:58,METAR,Normal,320,11.0,,,9999.0,,12.9,4.0,30.04,1018.2,,,,,,,,,,,,,,,Clear,72000.0,,,,,,,,,
KRDR,10-24-2015,16:58,METAR,Normal,310,9.0,,,9999.0,,10.8,4.2,30.03,1017.9,,,,,,,,,,,,,,,Clear,72000.0,,,,,,,,,
KRDR,10-24-2015,15:58,METAR,Normal,300,8.0,,,9999.0,,8.1,3.2,30.02,1017.7,,,,,,,,,,,,,,,Clear,72000.0,,,,,,,,,
KRDR,10-24-2015,14:58,METAR,Normal,290,9.0,,,9999.0,,5.4,2.1,30.01,1017.3,,,,,,,,,,,,,,,Clear,72000.0,,,,,,,,,
KRDR,10-24-2015,13:58,METAR,Normal,300,7.0,,,9999.0,,2.4,0.3,29.99,1016.8,,,,,,,,,,,,,,,Clear,72000.0,,,,,,,,,
KRDR,10-24-2015,12:58,METAR,Normal,300,6.0,,,9999.0,,1.5,-0.3,29.97,1016.2,,,,,,,,,,,,,,,Clear,72000.0,,,,,,,,,
KRDR,10-24-2015,11:58,METAR,Normal,310,7.0,,,9999.0,,1.8,0.0,29.95,1015.4,,,,,,,,,,,,,,.14 IN,Clear,72000.0,,,,,,,,,
KRDR,10-24-2015,10:58,METAR,Normal,310,5.0,,,9999.0,,1.9,0.1,29.92,1014.4,,,,,,,,,,,,,,,Clear,72000.0,,,,,,,,,
KRDR,10-24-2015,09:58,METAR,Normal,310,7.0,,,9999.0,,3.4,1.1,29.91,1014.0,,,,,,,,,,,,,,,Clear,72000.0,,,,,,,,,
KRDR,10-24-2015,08:58,METAR,Normal,320,6.0,,,9999.0,,4.1,1.6,29.91,1014.0,,,,,,,,,,,,,,,Clear,72000.0,,,,,,,,,
KRDR,10-24-2015,07:58,METAR,Normal,320,8.0,,,9999.0,,4.9,2.6,29.89,1013.2,,,,,,,,,,,,,,,Clear,72000.0,,,,,,,,,
KRDR,10-24-2015,06:58,METAR,Normal,320,9.0,,,9999.0,,5.9,3.6,29.89,1013.2,,,,,,,,,,,,,,,Clear,72000.0,,,,,,,,,
KRDR,10-24-2015,05:58,METAR,Normal,330,9.0,,,9999.0,,6.6,4.5,29.88,1012.8,,,,,,,,,,,,,,,Clear,72000.0,,,,,,,,,
KRDR,10-24-2015,04:58,METAR,Normal,330,7.0,,,9999.0,,6.7,5.2,29.88,1012.9,,,,,,,,,,,,,,,Clear,72000.0,,,,,,,,,
KRDR,10-24-2015,03:58,METAR,Normal,330,7.0,,,9999.0,,7.3,6.1,29.87,1012.5,,,,,,,,,,,,,,,Clear,72000.0,,,,,,,,,
KRDR,10-24-2015,03:28,SPECI,Normal,350,8.0,,,9999.0,,8.0,7.0,29.86,,,,,,,,,,,,,,,,4/8 Partly Cloudy,72000.0,1600.0,SCT,1600.0,,,,,,
KRDR,10-24-2015,02:58,METAR,Normal,360,11.0,,,9999.0,,8.8,7.0,29.86,1012.1,,,,,,,,,,,,,,,,1700.0,1700.0,OVC,1700.0,,,,,,
KRDR,10-24-2015,02:08,SPECI,Normal,340,7.0,,,9999.0,,9.0,7.0,29.84,,,,,,,,,,,,,,,,,1900.0,1900.0,BKN,1900.0,OVC,2900.0,,,,
KRDR,10-24-2015,01:58,METAR,Normal,340,8.0,,,9999.0,,8.5,7.2,29.84,1011.4,,,,,,,,,,,,,,,,2900.0,2000.0,SCT,2000.0,OVC,2900.0,,,,
KRDR,10-24-2015,00:58,METAR,Normal,350,11.0,,,9999.0,,8.6,7.1,29.83,1011.1,,,,,,,,,,,,,,,,7500.0,4500.0,FEW,4500.0,OVC,7500.0,,,,
KRDR,10-23-2015,23:58,METAR,Normal,340,12.0,,,9999.0,,8.9,7.4,29.80,1010.1,,,,,,,,,,,TRACE,,.09 IN,,,6500.0,1900.0,FEW,1900.0,OVC,6500.0,,,,
KRDR,10-23-2015,23:23,SPECI,Normal,360,9.0,,,9999.0,,9.0,8.0,29.79,,,,,,,,,,,,,,,,,2300.0,1500.0,FEW,1500.0,OVC,2300.0,,,,
KRDR,10-23-2015,23:08,SPECI,Normal,360,9.0,,,9999.0,Light Drizzle,9.0,8.0,29.79,,51,,,,,,,,,,,,,,,1700.0,2200.0,BKN,2200.0,OVC,3800.0,,,,
KRDR,10-23-2015,23:07,SPECI,Normal,360,8.0,,,9999.0,,9.0,8.0,29.79,,,,,,,,,,,,,,,,,2200.0,2200.0,BKN,2200.0,OVC,3800.0,,,,
KRDR,10-23-2015,22:58,METAR,Normal,360,7.0,,,9999.0,Light Drizzle,9.2,8.3,29.79,1009.7,51,,,,,,,,,,.02 IN,,,,,2100.0,2100.0,BKN,2100.0,OVC,3900.0,,,,
KRDR,10-23-2015,22:45,SPECI,Normal,360,8.0,,,9999.0,Light Drizzle,9.0,8.0,29.78,,51,,,,,,,,,,,,,,,2400.0,1000.0,FEW,1000.0,SCT,2100.0,OVC,3800.0,,
KRDR,10-23-2015,22:43,SPECI,Normal,350,7.0,,,9999.0,,9.0,8.0,29.79,,,,,,,,,,,,,,,,,2000.0,1000.0,FEW,1000.0,BKN,2900.0,OVC,3900.0,,
KRDR,10-23-2015,22:28,SPECI,Normal,360,5.0,,,9999.0,Light Rain,9.0,8.0,29.78,,61,,,,,,,,,,,,,,,700.0,700.0,FEW,700.0,BKN,2100.0,OVC,3100.0,,
KRDR,10-23-2015,22:23,SPECI,Normal,360,5.0,,,9999.0,Light Rain,9.0,8.0,29.78,,61,,,,,,,,,,,,,,,700.0,700.0,SCT,700.0,BKN,1300.0,OVC,3100.0,,
KRDR,10-23-2015,22:18,SPECI,Normal,360,6.0,,,9999.0,Light Rain,9.0,8.0,29.78,,61,,,,,,,,,,,,,,,700.0,700.0,BKN,700.0,BKN,2800.0,OVC,3300.0,,
KRDR,10-23-2015,22:13,SPECI,Normal,360,5.0,,,9999.0,Light Rain,9.0,8.0,29.78,,61,,,,,,,,,,,,,,,1000.0,700.0,SCT,700.0,BKN,1200.0,OVC,2800.0,,
KRDR,10-23-2015,22:08,SPECI,Normal,350,6.0,,,9999.0,Light Rain,9.0,8.0,29.78,,61,,,,,,,,,,,,,,,3100.0,600.0,SCT,600.0,SCT,1200.0,OVC,3100.0,,
KRDR,10-23-2015,21:58,METAR,Normal,360,5.0,,,9999.0,Light Rain,9.1,8.5,29.78,1009.4,61,,,,,,,,,,.07 IN,,,,,600.0,600.0,BKN,600.0,OVC,3600.0,,,,
KRDR,10-23-2015,21:48,SPECI,Normal,350,7.0,,,9999.0,Light Rain/Mist,9.0,9.0,29.77,,61,10,,,,,,,,,,,,,,700.0,700.0,BKN,700.0,BKN,1200.0,OVC,3900.0,,
KRDR,10-23-2015,21:13,SPECI,Normal,350,7.0,,,9999.0,Light Rain,9.0,8.0,29.76,,61,,,,,,,,,,,,,,,600.0,600.0,SCT,600.0,BKN,2000.0,OVC,3500.0,,
KRDR,10-23-2015,20:58,METAR,Normal,330,8.0,,,9999.0,Light Rain,9.4,8.7,29.75,1008.4,61,,,,,,,,,,TRACE,TRACE,,,,600.0,600.0,BKN,600.0,BKN,1700.0,OVC,3400.0,,
KRDR,10-23-2015,20:52,SPECI,Normal,340,10.0,,,9999.0,Light Rain,9.0,9.0,29.75,,61,,,,,,,,,,,,,,,600.0,600.0,BKN,600.0,BKN,1700.0,OVC,3400.0,,
KRDR,10-23-2015,20:47,SPECI,Normal,350,9.0,,,9999.0,,10.0,9.0,29.75,,,,,,,,,,,,,,,,,600.0,600.0,BKN,600.0,OVC,1700.0,,,,
KRDR,10-23-2015,20:42,SPECI,Normal,340,7.0,,,9999.0,,10.0,9.0,29.75,,,,,,,,,,,,,,,,,700.0,700.0,BKN,700.0,OVC,1700.0,,,,
KRDR,10-23-2015,20:32,SPECI,Normal,320,8.0,,,9999.0,,10.0,9.0,29.76,,,,,,,,,,,,,,,,,600.0,600.0,BKN,600.0,BKN,1000.0,OVC,1600.0,,
KRDR,10-23-2015,20:22,SPECI,Normal,330,7.0,,,9999.0,Light Rain,10.0,9.0,29.76,,61,,,,,,,,,,,,,,,600.0,600.0,BKN,600.0,OVC,1600.0,,,,
KRDR,10-23-2015,19:58,METAR,Normal,320,7.0,,,9999.0,,10.1,9.2,29.75,1008.3,,,,,,,,,,,,,,,,600.0,600.0,BKN,600.0,OVC,1100.0,,,,
KRDR,10-23-2015,19:53,SPECI,Normal,320,8.0,,,9999.0,,10.0,9.0,29.75,,,,,,,,,,,,,,,,,600.0,600.0,BKN,600.0,OVC,1200.0,,,,
KRDR,10-23-2015,19:48,SPECI,Normal,300,7.0,,,9999.0,,10.0,9.0,29.75,,,,,,,,,,,,,,,,,700.0,700.0,BKN,700.0,OVC,1200.0,,,,
KRDR,10-23-2015,19:23,SPECI,Normal,270,4.0,,,9999.0,,10.0,9.0,29.77,,,,,,,,,,,,,,,,,800.0,800.0,OVC,800.0,,,,,,
KRDR,10-23-2015,19:03,SPECI,Normal,260,5.0,,,9999.0,,10.0,9.0,29.78,,,,,,,,,,,,,,,,,700.0,700.0,OVC,700.0,,,,,,
KRDR,10-23-2015,18:58,METAR,Normal,250,4.0,,,9999.0,,9.9,9.3,29.78,1009.3,,,,,,,,,,,,,,,,600.0,600.0,OVC,600.0,,,,,,
KRDR,10-23-2015,18:48,SPECI,Normal,250,5.0,,,9999.0,,10.0,9.0,29.78,,,,,,,,,,,,,,,,,600.0,600.0,OVC,600.0,,,,,,
KRDR,10-23-2015,18:08,SPECI,Normal,200,5.0,,,9999.0,,10.0,9.0,29.80,,,,,,,,,,,,,,,,,700.0,700.0,OVC,700.0,,,,,,
KRDR,10-23-2015,17:58,METAR,Normal,200,5.0,,,9999.0,,9.8,8.9,29.80,1010.1,,,,,,,,,,,.01 IN,,.05 IN,,,800.0,800.0,OVC,800.0,,,,,,
KRDR,10-23-2015,17:33,SPECI,Normal,200,6.0,,,9999.0,,10.0,9.0,29.80,,,,,,,,,,,,,,,,,800.0,800.0,OVC,800.0,,,,,,
KRDR,10-23-2015,17:18,SPECI,Normal,190,5.0,,,9999.0,,10.0,9.0,29.80,,,,,,,,,,,,,,,,,500.0,700.0,OVC,700.0,,,,,,
KRDR,10-23-2015,16:58,METAR,Normal,150,4.0,,,9999.0,,9.2,8.8,29.81,1010.4,,,,,,,,,,,,,,,,500.0,500.0,OVC,500.0,,,,,,
KRDR,10-23-2015,16:13,SPECI,Normal,160,4.0,,,6400.0,Mist,8.0,8.0,29.82,,10,,,,,,,,,,,,,,,400.0,400.0,OVC,400.0,,,,,,
KRDR,10-23-2015,16:08,SPECI,Normal,150,5.0,,,4800.0,Mist,8.0,8.0,29.82,,10,,,,,,,,,,,,,,,300.0,300.0,OVC,300.0,,,,,,
KRDR,10-23-2015,15:58,METAR,Normal,150,5.0,,,6400.0,Mist,8.4,8.1,29.82,1010.8,10,,,,,,,,,,,,,,,400.0,400.0,OVC,400.0,,,,,,
KRDR,10-23-2015,14:58,METAR,Normal,140,7.0,,,9999.0,Mist,8.0,8.0,29.85,1011.8,10,,,,,,,,,,.01 IN,.04 IN,,,,400.0,400.0,OVC,400.0,,,,,,
KRDR,10-23-2015,14:54,SPECI,Normal,140,8.0,,,9999.0,,8.0,8.0,29.84,,,,,,,,,,,,,,,,,500.0,500.0,OVC,500.0,,,,,,
KRDR,10-23-2015,14:49,SPECI,Normal,150,8.0,,,9999.0,,8.0,8.0,29.85,,,,,,,,,,,,,,,,,400.0,400.0,OVC,400.0,,,,,,
KRDR,10-23-2015,14:18,SPECI,Normal,130,8.0,,,6400.0,Light Rain/Mist,8.0,8.0,29.85,,61,10,,,,,,,,,,,,,,400.0,400.0,OVC,400.0,,,,,,
KRDR,10-23-2015,14:13,SPECI,Normal,120,7.0,,,4800.0,Mist,8.0,8.0,29.84,,10,,,,,,,,,,,,,,,400.0,400.0,OVC,400.0,,,,,,
KRDR,10-23-2015,13:58,METAR,Normal,130,7.0,,,4000.0,Mist,7.8,7.4,29.85,1011.8,10,,,,,,,,,,.01 IN,,,,,400.0,400.0,OVC,400.0,,,,,,
KRDR,10-23-2015,13:46,SPECI,Normal,130,7.0,,,4000.0,Mist,8.0,7.0,29.86,,10,,,,,,,,,,,,,,,400.0,400.0,OVC,400.0,,,,,,
KRDR,10-23-2015,13:16,SPECI,Normal,140,8.0,,,9999.0,,8.0,7.0,29.87,,,,,,,,,,,,,,,,,500.0,500.0,OVC,500.0,,,,,,
KRDR,10-23-2015,13:11,SPECI,Normal,130,7.0,,,9999.0,,8.0,7.0,29.87,,,,,,,,,,,,,,,,,400.0,400.0,OVC,400.0,,,,,,
KRDR,10-23-2015,13:08,SPECI,Normal,130,8.0,,,9999.0,Light Drizzle,8.0,7.0,29.88,,51,,,,,,,,,,,,,,,400.0,400.0,OVC,400.0,,,,,,
KRDR,10-23-2015,12:58,METAR,Normal,120,8.0,,,9999.0,Light Rain,8.0,7.0,29.88,1012.8,61,,,,,,,,,,.02 IN,,,,,400.0,400.0,OVC,400.0,,,,,,
KRDR,10-23-2015,12:47,SPECI,Normal,120,7.0,,,9999.0,Light Rain,8.0,7.0,29.88,,61,,,,,,,,,,,,,,,400.0,400.0,OVC,400.0,,,,,,
KRDR,10-23-2015,12:42,SPECI,Normal,110,7.0,,,9999.0,Light Drizzle,8.0,7.0,29.88,,51,,,,,,,,,,,,,,,400.0,400.0,OVC,400.0,,,,,,
KRDR,10-23-2015,12:38,SPECI,Normal,110,8.0,,,9999.0,,8.0,7.0,29.88,,,,,,,,,,,,,,,,,400.0,400.0,OVC,400.0,,,,,,
KRDR,10-23-2015,12:33,SPECI,Normal,110,6.0,,,9999.0,Light Rain,8.0,7.0,29.89,,61,,,,,,,,,,,,,,,400.0,400.0,OVC,400.0,,,,,,
KRDR,10-23-2015,12:28,SPECI,Normal,110,7.0,,,9999.0,Light Rain,8.0,7.0,29.89,,61,,,,,,,,,,,,,,,500.0,500.0,OVC,500.0,,,,,,
KRDR,10-23-2015,12:13,SPECI,Normal,130,8.0,,,9999.0,Light Rain,8.0,7.0,29.90,,61,,,,,,,,,,,,,,,500.0,500.0,OVC,500.0,,,,,,
KRDR,10-23-2015,12:08,SPECI,Normal,120,7.0,,,9999.0,Light Rain,8.0,7.0,29.90,,61,,,,,,,,,,,,,,,500.0,500.0,OVC,500.0,,,,,,
KRDR,10-23-2015,11:58,METAR,Normal,130,8.0,,,9999.0,Light Rain,7.9,7.4,29.91,1013.8,61,,,,,,,,,,.13 IN,,.39 IN,.39 IN,,500.0,500.0,OVC,500.0,,,,,,
KRDR,10-23-2015,11:43,SPECI,Normal,130,8.0,,,9999.0,Light Rain/Mist,8.0,7.0,29.92,,61,10,,,,,,,,,,,,,,500.0,500.0,OVC,500.0,,,,,,
KRDR,10-23-2015,11:38,SPECI,Normal,140,9.0,,,9999.0,Light Rain,8.0,7.0,29.92,,61,,,,,,,,,,,,,,,500.0,500.0,OVC,500.0,,,,,,
KRDR,10-23-2015,11:28,SPECI,Normal,140,9.0,,,9999.0,Light Rain,8.0,7.0,29.92,,61,,,,,,,,,,,,,,,500.0,500.0,OVC,500.0,,,,,,
KRDR,10-23-2015,11:13,SPECI,Normal,140,10.0,,,8000.0,Light Rain/Mist,8.0,8.0,29.93,,61,10,,,,,,,,,,,,,,500.0,500.0,OVC,500.0,,,,,,
KRDR,10-23-2015,11:03,SPECI,Normal,140,9.0,,,8000.0,Light Rain/Mist,8.0,8.0,29.94,,61,10,,,,,,,,,,,,,,500.0,500.0,OVC,500.0,,,,,,
KRDR,10-23-2015,10:58,METAR,Normal,140,10.0,,,9999.0,Light Rain/Mist,8.1,7.5,29.94,1014.7,61,10,,,,,,,,,.13 IN,,,,,500.0,500.0,OVC,500.0,,,,,,
KRDR,10-23-2015,10:44,SPECI,Normal,140,10.0,,,9999.0,Light Rain,8.0,8.0,29.94,,61,,,,,,,,,,,,,,,500.0,500.0,OVC,500.0,,,,,,
KRDR,10-23-2015,10:24,SPECI,Normal,140,8.0,,,9999.0,Light Rain,8.0,7.0,29.94,,61,,,,,,,,,,,,,,,500.0,500.0,OVC,500.0,,,,,,
KRDR,10-23-2015,10:14,SPECI,Normal,140,7.0,,,9999.0,Light Rain/Mist,8.0,7.0,29.95,,61,10,,,,,,,,,,,,,,600.0,600.0,BKN,600.0,BKN,1200.0,OVC,3300.0,,
KRDR,10-23-2015,10:09,SPECI,Normal,140,7.0,,,9999.0,Light Rain/Mist,8.0,7.0,29.95,,61,10,,,,,,,,,,,,,,700.0,700.0,BKN,700.0,BKN,1100.0,OVC,3300.0,,
KRDR,10-23-2015,09:59,SPECI,Normal,150,7.0,,,9999.0,Light Rain/Mist,8.0,7.0,29.96,,61,10,,,,,,,,,,,,,,3300.0,1000.0,FEW,1000.0,OVC,3300.0,,,,
KRDR,10-23-2015,09:58,METAR,Normal,150,8.0,,,9999.0,Unknown Precipitation,7.7,6.9,29.96,1015.3,40,,,,,,,,,,.08 IN,,,,,3300.0,1300.0,FEW,1300.0,OVC,3300.0,,,,
KRDR,10-23-2015,09:23,SPECI,Normal,160,10.0,,,9999.0,Light Rain,8.0,6.0,29.98,,61,,,,,,,,,,,,,,,3700.0,3700.0,BKN,3700.0,OVC,8000.0,,,,
KRDR,10-23-2015,09:08,SPECI,Normal,180,9.0,,,9999.0,Light Rain,7.0,6.0,29.99,,61,,,,,,,,,,,,,,,8000.0,4200.0,SCT,4200.0,OVC,8000.0,,,,
KRDR,10-23-2015,08:58,METAR,Normal,180,9.0,,,9999.0,Light Rain,7.0,6.0,30.00,1016.6,61,,,,,,,,,,.05 IN,.05 IN,,,,4200.0,4200.0,BKN,4200.0,BKN,6000.0,OVC,7500.0,,
KRDR,10-23-2015,08:53,SPECI,Normal,180,9.0,,,9999.0,Light Rain,7.0,6.0,30.00,,61,,,,,,,,,,,,,,,4200.0,600.0,FEW,600.0,BKN,4200.0,OVC,7500.0,,
KRDR,10-23-2015,08:51,SPECI,Normal,180,10.0,,,9999.0,Light Rain,7.0,6.0,30.00,,61,,,,,,,,,,,,,,,4200.0,4200.0,BKN,4200.0,BKN,6000.0,OVC,7500.0,,
KRDR,10-23-2015,08:06,SPECI,Normal,180,9.0,,,9999.0,Light Rain,9.0,1.0,30.00,,61,,,,,,,,,,,,,,,10000.0,5000.0,FEW,5000.0,OVC,10000.0,,,,
KRDR,10-23-2015,07:58,METAR,Normal,170,10.0,,,9999.0,,9.2,0.2,30.00,1016.6,,,,,,,,,,,,,,,,10000.0,10000.0,OVC,10000.0,,,,,,
KRDR,10-23-2015,06:58,METAR,Normal,140,7.0,,,9999.0,,8.8,-0.2,30.01,1017.0,,,,,,,,,,,,,,,,11000.0,11000.0,BKN,11000.0,,,,,,
KRDR,10-23-2015,05:58,METAR,Normal,150,7.0,,,9999.0,,8.1,-0.4,30.03,1017.7,,,,,,,,,,,,,,,Clear,72000.0,,,,,,,,,
KRDR,10-23-2015,04:58,METAR,Normal,150,7.0,,,9999.0,,8.6,-0.8,30.06,1018.8,,,,,,,,,,,,,,,Clear,72000.0,,,,,,,,,
KRDR,10-23-2015,03:58,METAR,Normal,160,9.0,,,9999.0,,7.9,-1.1,30.08,1019.6,,,,,,,,,,,,,,,Clear,72000.0,,,,,,,,,
KRDR,10-23-2015,02:58,METAR,Normal,170,8.0,,,9999.0,,9.0,-1.7,30.09,1020.0,,,,,,,,,,,,,,,Clear,72000.0,,,,,,,,,
KRDR,10-23-2015,01:58,METAR,Normal,170,7.0,,,9999.0,,8.7,-1.2,30.10,1020.6,,,,,,,,,,,,,,,Clear,72000.0,,,,,,,,,
KRDR,10-23-2015,00:58,METAR,Normal,150,8.0,,,9999.0,,9.5,-0.9,30.10,1020.7,,,,,,,,,,,,,,,Clear,72000.0,,,,,,,,,
KRDR,10-22-2015,23:58,METAR,Normal,150,7.0,,,9999.0,,11.1,-1.2,30.10,1020.5,,,,,,,,,,,,,,,Clear,72000.0,,,,,,,,,
KRDR,10-22-2015,22:58,METAR,Normal,150,7.0,,,9999.0,,15.2,-0.1,30.11,1020.7,,,,,,,,,,,,,,,Clear,72000.0,,,,,,,,,
KRDR,10-22-2015,21:58,METAR,Normal,170,10.0,,,9999.0,,17.7,0.1,30.13,1021.3,,,,,,,,,,,,,,,Clear,72000.0,,,,,,,,,
KRDR,10-22-2015,20:58,METAR,Normal,170,11.0,,,9999.0,,18.7,0.3,30.14,1021.6,,,,,,,,,,,,,,,Clear,72000.0,,,,,,,,,
KRDR,10-22-2015,19:58,METAR,Normal,170,8.0,,,9999.0,,17.9,1.6,30.15,1021.9,,,,,,,,,,,,,,,Clear,72000.0,,,,,,,,,
KRDR,10-22-2015,18:58,METAR,Normal,170,7.0,,,9999.0,,17.1,1.0,30.18,1023.0,,,,,,,,,,,,,,,Clear,72000.0,,,,,,,,,
KRDR,10-22-2015,17:58,METAR,Normal,170,7.0,,,9999.0,,15.3,1.5,30.21,1024.1,,,,,,,,,,,,,,,Clear,72000.0,,,,,,,,,
KRDR,10-22-2015,16:58,METAR,Normal,160,7.0,,,9999.0,,13.0,2.0,30.23,1024.8,,,,,,,,,,,,,,,Clear,72000.0,,,,,,,,,
KRDR,10-22-2015,15:58,METAR,Normal,170,6.0,,,9999.0,,9.2,1.8,30.25,1025.6,,,,,,,,,,,,,,,Clear,72000.0,,,,,,,,,
KRDR,10-22-2015,14:58,METAR,Normal,170,2.0,,,9999.0,,6.2,1.4,30.24,1025.3,,,,,,,,,,,,,,,Clear,72000.0,,,,,,,,,
KRDR,10-22-2015,13:58,METAR,Normal,230,2.0,,,9999.0,,0.7,-1.7,30.22,1024.8,,,,,,,,,,,,,,,Clear,72000.0,,,,,,,,,
KRDR,10-22-2015,12:58,METAR,Normal,260,3.0,,,9999.0,,-1.5,-3.1,30.21,1024.4,,,,,,,,,,,,,,,Clear,72000.0,,,,,,,,,
KRDR,10-22-2015,11:58,METAR,Normal,240,2.0,,,9999.0,,-0.7,-2.6,30.19,1023.6,,,,,,,,,,,,,,,Clear,72000.0,,,,,,,,,
KRDR,10-22-2015,10:58,METAR,Normal,310,2.0,,,9999.0,,-0.7,-2.8,30.18,1023.2,,,,,,,,,,,,,,,Clear,72000.0,,,,,,,,,
KRDR,10-22-2015,09:58,METAR,Normal,20,4.0,,,9999.0,,0.3,-2.6,30.17,1022.8,,,,,,,,,,,,,,,Clear,72000.0,,,,,,,,,
KRDR,10-22-2015,08:58,METAR,Normal,240,2.0,,,9999.0,,1.0,-2.1,30.17,1022.8,,,,,,,,,,,,,,,Clear,72000.0,,,,,,,,,
KRDR,10-22-2015,07:58,METAR,Normal,310,4.0,,,9999.0,,2.6,-1.6,30.17,1022.6,,,,,,,,,,,,,,,Clear,72000.0,,,,,,,,,
KRDR,10-22-2015,06:58,METAR,Normal,280,5.0,,,9999.0,,2.6,-1.2,30.15,1022.0,,,,,,,,,,,,,,,Clear,72000.0,,,,,,,,,
KRDR,10-22-2015,05:58,METAR,Normal,250,5.0,,,9999.0,,2.9,-1.3,30.15,1022.0,,,,,,,,,,,,,,,Clear,72000.0,,,,,,,,,
KRDR,10-22-2015,04:58,METAR,Normal,250,5.0,,,9999.0,,2.2,-1.0,30.15,1022.2,,,,,,,,,,,,,,,Clear,72000.0,,,,,,,,,
KRDR,10-22-2015,03:58,METAR,Normal,270,7.0,,,9999.0,,2.8,-0.9,30.13,1021.5,,,,,,,,,,,,,,,Clear,72000.0,,,,,,,,,
KRDR,10-22-2015,02:58,METAR,Normal,290,6.0,,,9999.0,,6.7,0.0,30.12,1021.1,,,,,,,,,,,,,,,Clear,72000.0,,,,,,,,,
KRDR,10-22-2015,01:58,METAR,Normal,270,7.0,,,9999.0,,7.7,-0.1,30.13,1021.4,,,,,,,,,,,,,,,Clear,72000.0,,,,,,,,,
KRDR,10-22-2015,00:58,METAR,Normal,280,7.0,,,9999.0,,9.0,-0.6,30.12,1021.1,,,,,,,,,,,,,,,Clear,72000.0,,,,,,,,,
KRDR,10-21-2015,23:58,METAR,Normal,270,7.0,,,9999.0,,11.0,-0.5,30.11,1020.6,,,,,,,,,,,,,,,Clear,72000.0,,,,,,,,,
KRDR,10-21-2015,22:58,METAR,Normal,300,7.0,,,9999.0,,13.9,-2.6,30.10,1020.2,,,,,,,,,,,,,,,Clear,72000.0,,,,,,,,,
KRDR,10-21-2015,21:58,METAR,Normal,310,13.0,,,9999.0,,15.5,-2.7,30.10,1020.1,,,,,,,,,,,,,,,Clear,72000.0,,,,,,,,,
KRDR,10-21-2015,20:58,METAR,Normal,330,17.0,22.0,,9999.0,,16.2,-2.1,30.09,1019.7,,,,,,,,,,,,,,,Clear,72000.0,,,,,,,,,
KRDR,10-21-2015,19:58,METAR,Normal,320,16.0,23.0,,9999.0,,15.7,-1.7,30.08,1019.3,,,,,,,,,,,,,,,Clear,72000.0,,,,,,,,,
KRDR,10-21-2015,18:58,METAR,Normal,340,15.0,20.0,,9999.0,,14.6,0.2,30.08,1019.4,,,,,,,,,,,,,,,Clear,72000.0,,,,,,,,,
KRDR,10-21-2015,17:58,METAR,Normal,340,16.0,22.0,320/27KTS,9999.0,,14.1,0.4,30.09,1019.7,,,,,,,,,,,,,,,2/8 Mostly Clear,72000.0,5000.0,FEW,5000.0,,,,,,
KRDR,10-21-2015,16:58,METAR,Normal,340,14.0,24.0,,9999.0,,11.9,2.4,30.09,1019.8,,,,,,,,,,,,,,,Clear,72000.0,,,,,,,,,
KRDR,10-21-2015,15:58,METAR,Normal,340,19.0,24.0,,9999.0,,11.0,3.0,30.09,1019.8,,,,,,,,,,,,,,,2/8 Mostly Clear,72000.0,2900.0,FEW,2900.0,,,,,,
KRDR,10-21-2015,14:58,METAR,Normal,340,14.0,19.0,,9999.0,,9.0,4.5,30.06,1018.9,,,,,,,,,,,,,,,4/8 Partly Cloudy,72000.0,1900.0,SCT,1900.0,,,,,,
KRDR,10-21-2015,13:58,METAR,Normal,330,12.0,19.0,,9999.0,,7.5,4.1,30.04,1018.2,,,,,,,,,,,,,,,,2300.0,2300.0,OVC,2300.0,,,,,,
KRDR,10-21-2015,12:58,METAR,Normal,330,14.0,19.0,,9999.0,,7.6,4.3,29.99,1016.6,,,,,,,,,,,,,,,,5500.0,4900.0,SCT,4900.0,BKN,5500.0,OVC,7000.0,,
KRDR,10-21-2015,12:28,SPECI,Normal,330,13.0,22.0,,9999.0,,8.0,4.0,29.98,,,,,,,,,,,,,,,,,1700.0,1800.0,SCT,1800.0,BKN,2700.0,OVC,4500.0,,
KRDR,10-21-2015,12:18,SPECI,Normal,330,16.0,21.0,,9999.0,,8.0,4.0,29.98,,,,,,,,,,,,,,,,,1800.0,1800.0,BKN,1800.0,OVC,4000.0,,,,
KRDR,10-21-2015,11:58,METAR,Normal,330,12.0,,,9999.0,,7.8,4.0,29.97,1015.8,,,,,,,,,,,,,,,,3700.0,3700.0,BKN,3700.0,OVC,6000.0,,,,
KRDR,10-21-2015,10:58,METAR,Normal,320,15.0,23.0,,9999.0,,7.8,3.5,29.93,1014.3,,,,,,,,,,,,,,,,2700.0,2700.0,OVC,2700.0,,,,,,
KRDR,10-21-2015,09:58,METAR,Normal,310,16.0,,,9999.0,,7.7,3.9,29.90,1013.3,,,,,,,,,,,,,,,,4200.0,3300.0,FEW,3300.0,BKN,4200.0,OVC,5000.0,,
KRDR,10-21-2015,08:58,METAR,Normal,310,11.0,,,9999.0,,8.8,5.1,29.86,1011.9,,,,,,,,,,,,,,,,5000.0,2600.0,FEW,2600.0,OVC,5000.0,,,,
KRDR,10-21-2015,07:58,METAR,Normal,260,6.0,,,9999.0,,10.8,7.3,29.82,1010.5,,,,,,,,,,,,,,,,10000.0,10000.0,OVC,10000.0,,,,,,
KRDR,10-21-2015,06:58,METAR,Normal,180,7.0,,,9999.0,,11.0,6.1,29.82,1010.5,,,,,,,,,,,,,,,,10000.0,9000.0,FEW,9100.0,BKN,10000.0,,,,
KRDR,10-21-2015,05:58,METAR,Normal,160,7.0,,,9999.0,,10.9,5.4,29.83,1010.9,,,,,,,,,,,,,,,,8000.0,8000.0,OVC,8000.0,,,,,,
KRDR,10-21-2015,04:58,METAR,Normal,150,7.0,,,9999.0,,10.3,4.8,29.84,1011.3,,,,,,,,,,,,,,,,7500.0,7500.0,OVC,7500.0,,,,,,
KRDR,10-21-2015,03:58,METAR,Normal,140,6.0,,,9999.0,,9.3,4.4,29.85,1011.7,,,,,,,,,,,,,,,,9000.0,9000.0,BKN,9100.0,,,,,,
KRDR,10-21-2015,02:58,METAR,Normal,150,9.0,,,9999.0,,10.0,4.4,29.85,1011.9,,,,,,,,,,,,,,,Clear,72000.0,,,,,,,,,
KRDR,10-21-2015,01:58,METAR,Normal,130,9.0,,,9999.0,,10.8,4.1,29.87,1012.5,,,,,,,,,,,,,,,Clear,72000.0,,,,,,,,,
KRDR,10-21-2015,00:58,METAR,Normal,110,9.0,,,9999.0,,11.0,4.0,29.89,1013.2,,,,,,,,,,,,,,,Clear,72000.0,,,,,,,,,
KRDR,10-20-2015,23:58,METAR,Normal,80,6.0,,,9999.0,,12.3,4.6,29.90,1013.6,,,,,,,,,,,,,,,Clear,72000.0,,,,,,,,,
KRDR,10-20-2015,22:58,METAR,Normal,80,10.0,,,9999.0,,15.2,5.3,29.88,1012.7,,,,,,,,,,,,,,,Clear,72000.0,,,,,,,,,
KRDR,10-20-2015,21:58,METAR,Normal,80,12.0,,,9999.0,,16.1,5.1,29.88,1012.7,,,,,,,,,,,,,,,Clear,72000.0,,,,,,,,,
KRDR,10-20-2015,20:58,METAR,Normal,90,14.0,,,9999.0,,17.4,4.9,29.90,1013.4,,,,,,,,,,,,,,,2/8 Mostly Clear,72000.0,12000.0,FEW,12000.0,,,,,,
KRDR,10-20-2015,19:58,METAR,Normal,90,11.0,,,9999.0,,16.8,4.7,29.93,1014.4,,,,,,,,,,,,,,,Clear,72000.0,,,,,,,,,
KRDR,10-20-2015,18:58,METAR,Normal,110,8.0,,,9999.0,,16.2,4.7,29.96,1015.5,,,,,,,,,,,,,,,4/8 Partly Cloudy,72000.0,10000.0,SCT,10000.0,,,,,,
KRDR,10-20-2015,17:58,METAR,Normal,90,6.0,,,9999.0,,14.7,4.6,29.99,1016.6,,,,,,,,,,,,,,,Clear,72000.0,,,,,,,,,
KRDR,10-20-2015,16:58,METAR,Normal,70,6.0,,,9999.0,,13.1,4.8,30.00,1016.9,,,,,,,,,,,,,,,2/8 Mostly Clear,72000.0,12000.0,FEW,12000.0,,,,,,
KRDR,10-20-2015,15:58,METAR,Normal,100,7.0,,,9999.0,,9.5,4.4,30.00,1017.0,,,,,,,,,,,,,,,2/8 Mostly Clear,72000.0,12000.0,FEW,12000.0,,,,,,
KRDR,10-20-2015,14:58,METAR,Normal,30,3.0,,,9999.0,,6.4,3.5,30.02,1017.8,,,,,,,,,,,,,,,,12000.0,12000.0,BKN,12000.0,,,,,,
KRDR,10-20-2015,13:58,METAR,Normal,10,3.0,,,9999.0,,4.8,2.8,30.02,1017.8,,,,,,,,,,,,,,,4/8 Partly Cloudy,72000.0,12000.0,SCT,12000.0,,,,,,
KRDR,10-20-2015,12:58,METAR,Normal,40,7.0,,,9999.0,,4.6,2.7,29.99,1016.7,,,,,,,,,,,,,,,,12000.0,12000.0,BKN,12000.0,,,,,,
KRDR,10-20-2015,11:58,METAR,Normal,350,6.0,,,9999.0,,4.0,2.0,30.02,1017.7,,,,,,,,,,,,,,,Clear,72000.0,,,,,,,,,
KRDR,10-20-2015,10:58,METAR,Normal,40,6.0,,,9999.0,,4.3,2.2,30.00,1016.8,,,,,,,,,,,,,,,Clear,72000.0,,,,,,,,,
KRDR,10-20-2015,09:58,METAR,Normal,360,4.0,,,9999.0,,5.2,2.7,30.01,1017.0,,,,,,,,,,,,,,,Clear,72000.0,,,,,,,,,
KRDR,10-20-2015,08:58,METAR,Normal,350,5.0,,,9999.0,,4.7,2.2,29.99,1016.4,,,,,,,,,,,,,,,Clear,72000.0,,,,,,,,,
KRDR,10-20-2015,07:58,METAR,Normal,360,4.0,,,9999.0,,3.4,1.0,29.99,1016.4,,,,,,,,,,,,,,,Clear,72000.0,,,,,,,,,
KRDR,10-20-2015,06:58,METAR,Normal,10,3.0,,,9999.0,,3.9,1.4,29.97,1015.7,,,,,,,,,,,,,,,Clear,72000.0,,,,,,,,,
KRDR,10-20-2015,05:58,METAR,Normal,360,4.0,,,9999.0,,2.8,0.4,29.96,1015.4,,,,,,,,,,,,,,,Clear,72000.0,,,,,,,,,
KRDR,10-20-2015,04:58,METAR,Normal,20,6.0,,,9999.0,,3.9,1.3,29.95,1015.1,,,,,,,,,,,,,,,Clear,72000.0,,,,,,,,,
KRDR,10-20-2015,03:58,METAR,Normal,20,6.0,,,9999.0,,5.6,1.3,29.95,1015.1,,,,,,,,,,,,,,,Clear,72000.0,,,,,,,,,
KRDR,10-20-2015,02:58,METAR,Normal,30,7.0,,,9999.0,,5.1,1.3,29.92,1014.2,,,,,,,,,,,,,,,Clear,72000.0,,,,,,,,,
KRDR,10-20-2015,01:58,METAR,Normal,40,7.0,,,9999.0,,7.0,1.9,29.91,1013.9,,,,,,,,,,,,,,,Clear,72000.0,,,,,,,,,
KRDR,10-20-2015,00:58,METAR,Normal,20,7.0,,,9999.0,,8.2,2.4,29.89,1013.2,,,,,,,,,,,,,,,Clear,72000.0,,,,,,,,,
KRDR,10-19-2015,23:58,METAR,Normal,10,8.0,,,9999.0,,9.7,3.1,29.87,1012.4,,,,,,,,,,,,,,,Clear,72000.0,,,,,,,,,
KRDR,10-19-2015,22:58,METAR,Normal,20,7.0,,,9999.0,,15.5,4.7,29.87,1012.3,,,,,,,,,,,,,,,Clear,72000.0,,,,,,,,,
KRDR,10-19-2015,21:58,METAR,Normal,20,13.0,,,9999.0,,18.2,5.0,29.85,1011.6,,,,,,,,,,,,,,,Clear,72000.0,,,,,,,,,
KRDR,10-19-2015,20:58,METAR,Normal,30,13.0,,,9999.0,,19.3,5.1,29.85,1011.5,,,,,,,,,,,,,,,Clear,72000.0,,,,,,,,,
KRDR,10-19-2015,19:58,METAR,Normal,30,12.0,,,9999.0,,19.6,5.5,29.84,1011.1,,,,,,,,,,,,,,,Clear,72000.0,,,,,,,,,
KRDR,10-19-2015,18:58,METAR,Normal,20,11.0,15.0,,9999.0,,19.0,6.1,29.84,1011.1,,,,,,,,,,,,,,,Clear,72000.0,,,,,,,,,
KRDR,10-19-2015,17:58,METAR,Normal,20,9.0,,,9999.0,,18.0,5.6,29.84,1011.1,,,,,,,,,,,,,,,Clear,72000.0,,,,,,,,,
KRDR,10-19-2015,16:58,METAR,Normal,20,9.0,,,9999.0,,16.5,5.3,29.82,1010.4,,,,,,,,,,,,,,,Clear,72000.0,,,,,,,,,
KRDR,10-19-2015,15:58,METAR,Normal,20,12.0,,,9999.0,,14.2,5.0,29.81,1010.1,,,,,,,,,,,,,,,Clear,72000.0,,,,,,,,,
KRDR,10-19-2015,14:58,METAR,Normal,10,12.0,17.0,,9999.0,,12.0,4.6,29.79,1009.5,,,,,,,,,,,,,,,Clear,72000.0,,,,,,,,,
KRDR,10-19-2015,13:58,METAR,Normal,350,7.0,,,9999.0,,8.5,4.0,29.76,1008.5,,,,,,,,,,,,,,,Clear,72000.0,,,,,,,,,
KRDR,10-19-2015,12:58,METAR,Normal,360,9.0,,,9999.0,,9.1,4.2,29.74,1007.8,,,,,,,,,,,,,,,Clear,72000.0,,,,,,,,,
KRDR,10-19-2015,11:58,METAR,Normal,360,6.0,,,9999.0,,8.6,4.4,29.72,1007.1,,,,,,,,,,,,,,,Clear,72000.0,,,,,,,,,
KRDR,10-19-2015,10:58,METAR,Normal,350,7.0,,,9999.0,,8.6,4.5,29.70,1006.4,,,,,,,,,,,,,,,Clear,72000.0,,,,,,,,,
KRDR,10-19-2015,09:58,METAR,Normal,290,5.0,,,9999.0,,4.6,2.6,29.69,1006.1,,,,,,,,,,,,,,,Clear,72000.0,,,,,,,,,
KRDR,10-19-2015,08:58,METAR,Normal,240,4.0,,,9999.0,,6.8,3.8,29.68,1005.7,,,,,,,,,,,,,,,Clear,72000.0,,,,,,,,,
KRDR,10-19-2015,07:58,METAR,Normal,240,4.0,,,9999.0,,7.3,3.8,29.67,1005.4,,,,,,,,,,,,,,,Clear,72000.0,,,,,,,,,
KRDR,10-19-2015,06:58,METAR,Normal,250,3.0,,,9999.0,,9.5,4.4,29.67,1005.4,,,,,,,,,,,,,,,Clear,72000.0,,,,,,,,,
KRDR,10-19-2015,05:58,METAR,Normal,210,7.0,,,9999.0,,11.1,4.7,29.68,1005.7,,,,,,,,,,,,,,,Clear,72000.0,,,,,,,,,
KRDR,10-19-2015,04:58,METAR,Normal,210,8.0,,,9999.0,,12.0,4.7,29.68,1005.7,,,,,,,,,,,,,,,Clear,72000.0,,,,,,,,,
KRDR,10-19-2015,03:58,METAR,Normal,200,10.0,,,9999.0,,13.2,4.8,29.69,1006.1,,,,,,,,,,,,,,,Clear,72000.0,,,,,,,,,
KRDR,10-19-2015,02:58,METAR,Normal,200,9.0,,,9999.0,,14.0,4.9,29.71,1006.9,,,,,,,,,,,,,,,Clear,72000.0,,,,,,,,,
KRDR,10-19-2015,01:58,METAR,Normal,210,12.0,,,9999.0,,15.2,4.8,29.73,1007.6,,,,,,,,,,,,,,,Clear,72000.0,,,,,,,,,
KRDR,10-19-2015,00:58,METAR,Normal,210,13.0,,,9999.0,,16.8,4.8,29.75,1008.4,,,,,,,,,,,,,,,Clear,72000.0,,,,,,,,,
KRDR,10-18-2015,23:58,METAR,Normal,190,8.0,,,9999.0,,16.0,4.6,29.75,1008.4,,,,,,,,,,,,,,,Clear,72000.0,,,,,,,,,
KRDR,10-18-2015,22:58,METAR,Normal,200,14.0,23.0,,9999.0,,19.2,4.4,29.76,1008.6,,,,,,,,,,,,,,,Clear,72000.0,,,,,,,,,
KRDR,10-18-2015,21:58,METAR,Normal,200,19.0,23.0,,9999.0,,19.9,4.4,29.78,1009.3,,,,,,,,,,,,,,,Clear,72000.0,,,,,,,,,
KRDR,10-18-2015,20:58,METAR,Normal,190,20.0,26.0,,9999.0,,19.8,4.1,29.82,1010.7,,,,,,,,,,,,,,,Clear,72000.0,,,,,,,,,
KRDR,10-18-2015,19:58,METAR,Normal,190,16.0,25.0,,9999.0,,18.4,2.9,29.85,1011.7,,,,,,,,,,,,,,,Clear,72000.0,,,,,,,,,
KRDR,10-18-2015,18:58,METAR,Normal,190,15.0,21.0,,9999.0,,16.7,1.9,29.90,1013.5,,,,,,,,,,,,,,,Clear,72000.0,,,,,,,,,
KRDR,10-18-2015,17:58,METAR,Normal,190,15.0,22.0,,9999.0,,15.1,1.1,29.94,1014.9,,,,,,,,,,,,,,,Clear,72000.0,,,,,,,,,
KRDR,10-18-2015,16:58,METAR,Normal,200,16.0,,,9999.0,,12.9,0.4,29.98,1016.3,,,,,,,,,,,,,,,Clear,72000.0,,,,,,,,,
KRDR,10-18-2015,15:58,METAR,Normal,200,17.0,23.0,,9999.0,,10.3,-0.4,30.02,1017.7,,,,,,,,,,,,,,,Clear,72000.0,,,,,,,,,
KRDR,10-18-2015,14:58,METAR,Normal,190,13.0,18.0,,9999.0,,7.6,-1.2,30.05,1018.8,,,,,,,,,,,,,,,Clear,72000.0,,,,,,,,,
KRDR,10-18-2015,13:58,METAR,Normal,180,11.0,,,9999.0,,4.5,-2.2,30.07,1019.6,,,,,,,,,,,,,,,Clear,72000.0,,,,,,,,,
KRDR,10-18-2015,12:58,METAR,Normal,180,10.0,,,9999.0,,1.2,-3.8,30.09,1020.3,,,,,,,,,,,,,,,Clear,72000.0,,,,,,,,,
KRDR,10-18-2015,11:58,METAR,Normal,170,6.0,,,9999.0,,-0.2,-4.7,30.11,1021.0,,,,,,,,,,,,,,,Clear,72000.0,,,,,,,,,
KRDR,10-18-2015,10:58,METAR,Normal,180,6.0,,,9999.0,,-0.4,-5.4,30.14,1021.9,,,,,,,,,,,,,,,Clear,72000.0,,,,,,,,,
KRDR,10-18-2015,09:58,METAR,Normal,170,6.0,,,9999.0,,0.2,-5.8,30.16,1022.6,,,,,,,,,,,,,,,Clear,72000.0,,,,,,,,,
KRDR,10-18-2015,08:58,METAR,Normal,180,8.0,,,9999.0,,0.7,-6.0,30.19,1023.5,,,,,,,,,,,,,,,Clear,72000.0,,,,,,,,,
KRDR,10-18-2015,07:58,METAR,Normal,170,7.0,,,9999.0,,2.2,-5.9,30.22,1024.5,,,,,,,,,,,,,,,Clear,72000.0,,,,,,,,,
KRDR,10-18-2015,06:58,METAR,Normal,170,7.0,,,9999.0,,1.3,-5.2,30.24,1025.3,,,,,,,,,,,,,,,Clear,72000.0,,,,,,,,,
KRDR,10-18-2015,05:58,METAR,Normal,180,6.0,,,9999.0,,1.5,-4.9,30.26,1026.1,,,,,,,,,,,,,,,Clear,72000.0,,,,,,,,,
KRDR,10-18-2015,04:58,METAR,Normal,170,7.0,,,9999.0,,2.2,-4.5,30.27,1026.4,,,,,,,,,,,,,,,Clear,72000.0,,,,,,,,,
KRDR,10-18-2015,03:58,METAR,Normal,150,7.0,,,9999.0,,3.6,-3.9,30.29,1027.1,,,,,,,,,,,,,,,Clear,72000.0,,,,,,,,,
KRDR,10-18-2015,02:58,METAR,Normal,160,8.0,,,9999.0,,3.8,-3.2,30.29,1027.2,,,,,,,,,,,,,,,Clear,72000.0,,,,,,,,,
KRDR,10-18-2015,01:58,METAR,Normal,150,6.0,,,9999.0,,4.4,-2.6,30.30,1027.7,,,,,,,,,,,,,,,Clear,72000.0,,,,,,,,,
KRDR,10-18-2015,00:58,METAR,Normal,130,6.0,,,9999.0,,6.7,-2.4,30.30,1027.7,,,,,,,,,,,,,,,Clear,72000.0,,,,,,,,,
KRDR,10-17-2015,23:58,METAR,Normal,130,6.0,,,9999.0,,8.2,-2.4,30.30,1027.7,,,,,,,,,,,,,,,Clear,72000.0,,,,,,,,,
KRDR,10-17-2015,22:58,METAR,Normal,110,6.0,,,9999.0,,11.2,-2.3,30.31,1027.9,,,,,,,,,,,,,,,Clear,72000.0,,,,,,,,,
KRDR,10-17-2015,21:58,METAR,Normal,110,4.0,,,9999.0,,12.1,-2.9,30.33,1028.5,,,,,,,,,,,,,,,Clear,72000.0,,,,,,,,,
KRDR,10-17-2015,20:58,METAR,Normal,180,3.0,,,9999.0,,12.5,-2.2,30.35,1029.1,,,,,,,,,,,,,,,Clear,72000.0,,,,,,,,,
KRDR,10-17-2015,19:58,METAR,Normal,210,4.0,,,9999.0,,11.8,-2.0,30.37,1029.8,,,,,,,,,,,,,,,Clear,72000.0,,,,,,,,,
KRDR,10-17-2015,18:58,METAR,Normal,190,6.0,,,9999.0,,10.7,-1.9,30.39,1030.6,,,,,,,,,,,,,,,Clear,72000.0,,,,,,,,,
KRDR,10-17-2015,17:58,METAR,Variable,,3.0,,,9999.0,,9.0,-1.4,30.42,1031.6,,,,,,,,,,,,,,,Clear,72000.0,,,,,,,,,
KRDR,10-17-2015,16:58,METAR,Variable,,5.0,,,9999.0,,7.0,-1.1,30.44,1032.3,,,,,,,,,,,,,,,Clear,72000.0,,,,,,,,,
KRDR,10-17-2015,15:58,METAR,Calm,,0.0,,,9999.0,,3.8,-0.8,30.45,1032.6,,,,,,,,,,,,,,,Clear,72000.0,,,,,,,,,
KRDR,10-17-2015,14:58,METAR,Normal,30,3.0,,,9999.0,,1.2,-1.4,30.46,1033.1,,,,,,,,,,,,,,,Clear,72000.0,,,,,,,,,
KRDR,10-17-2015,13:58,METAR,Normal,320,1.0,,,9999.0,,-2.3,-4.0,30.45,1032.9,,,,,,,,,,,,,,,Clear,72000.0,,,,,,,,,
KRDR,10-17-2015,12:58,METAR,Normal,300,2.0,,,9999.0,,-5.9,-7.1,30.44,1032.6,,,,,,,,,,,,,,,Clear,72000.0,,,,,,,,,
KRDR,10-17-2015,11:58,METAR,Normal,330,2.0,,,9999.0,,-5.4,-6.8,30.44,1032.5,,,,,,,,,,,,,,,Clear,72000.0,,,,,,,,,
KRDR,10-17-2015,10:58,METAR,Normal,320,3.0,,,9999.0,,-4.9,-6.3,30.43,1032.0,,,,,,,,,,,,,,,Clear,72000.0,,,,,,,,,
KRDR,10-17-2015,09:58,METAR,Normal,320,2.0,,,9999.0,,-4.0,-5.6,30.42,1031.6,,,,,,,,,,,,,,,Clear,72000.0,,,,,,,,,
KRDR,10-17-2015,08:58,METAR,Normal,300,3.0,,,9999.0,,-4.0,-5.6,30.42,1031.6,,,,,,,,,,,,,,,Clear,72000.0,,,,,,,,,
KRDR,10-17-2015,07:58,METAR,Normal,320,2.0,,,9999.0,,-3.3,-5.2,30.41,1031.2,,,,,,,,,,,,,,,2/8 Mostly Clear,72000.0,7000.0,FEW,7000.0,,,,,,
KRDR,10-17-2015,06:58,METAR,Normal,350,3.0,,,9999.0,,-2.8,-5.1,30.40,1030.8,,,,,,,,,,,,,,,Clear,72000.0,,,,,,,,,
KRDR,10-17-2015,05:58,METAR,Normal,340,3.0,,,9999.0,,-1.1,-4.5,30.40,1030.8,,,,,,,,,,,,,,,Clear,72000.0,,,,,,,,,
KRDR,10-17-2015,04:58,METAR,Normal,350,2.0,,,9999.0,,0.5,-3.5,30.39,1030.5,,,,,,,,,,,,,,,,8000.0,8000.0,BKN,8000.0,,,,,,
KRDR,10-17-2015,03:58,METAR,Normal,320,5.0,,,9999.0,,3.0,-3.0,30.38,1030.1,,,,,,,,,,,,,,,Clear,72000.0,,,,,,,,,
KRDR,10-17-2015,02:58,METAR,Normal,290,5.0,,,9999.0,,1.7,-3.5,30.37,1029.9,,,,,,,,,,,,,,,,8000.0,8000.0,OVC,8000.0,,,,,,
KRDR,10-17-2015,01:58,METAR,Normal,290,5.0,,,9999.0,,2.4,-4.0,30.37,1030.1,,,,,,,,,,,,,,,2/8 Mostly Clear,72000.0,8000.0,FEW,8000.0,,,,,,
KRDR,10-17-2015,00:58,METAR,Normal,290,2.0,,,9999.0,,6.0,-3.8,30.36,1029.6,,,,,,,,,,,,,,,4/8 Partly Cloudy,72000.0,8000.0,FEW,8000.0,SCT,9100.0,,,,
KRDR,10-16-2015,23:58,METAR,Normal,10,4.0,,,9999.0,,8.4,-2.5,30.36,1029.5,,,,,,,,,,,,,,,,7000.0,7000.0,OVC,7000.0,,,,,,
KRDR,10-16-2015,22:58,METAR,Normal,10,5.0,,,9999.0,,10.1,-4.2,30.36,1029.5,,,,,,,,,,,,,,,,8000.0,8000.0,BKN,8000.0,OVC,9600.0,,,,
KRDR,10-16-2015,21:58,METAR,Normal,360,8.0,,,9999.0,,11.1,-4.2,30.36,1029.5,,,,,,,,,,,,,,,,7000.0,7000.0,BKN,7000.0,BKN,8600.0,,,,
KRDR,10-16-2015,20:58,METAR,Normal,340,7.0,,,9999.0,,10.9,-4.4,30.37,1029.8,,,,,,,,,,,,,,,,8000.0,8000.0,BKN,8000.0,,,,,,
KRDR,10-16-2015,19:58,METAR,Normal,350,7.0,,,9999.0,,11.5,-4.9,30.38,1030.1,,,,,,,,,,,,,,,,7500.0,7500.0,BKN,7500.0,,,,,,
KRDR,10-16-2015,18:58,METAR,Normal,320,7.0,,,9999.0,,11.9,-3.7,30.39,1030.5,,,,,,,,,,,,,,,2/8 Mostly Clear,72000.0,8000.0,FEW,8000.0,,,,,,
KRDR,10-16-2015,17:58,METAR,Variable,,1.0,,,9999.0,,10.7,-1.7,30.42,1031.5,,,,,,,,,,,,,,,4/8 Partly Cloudy,72000.0,5000.0,FEW,5000.0,SCT,8000.0,,,,
KRDR,10-16-2015,16:58,METAR,Normal,220,7.0,,,9999.0,,9.0,-1.6,30.43,1032.0,,,,,,,,,,,,,,,Clear,72000.0,,,,,,,,,
KRDR,10-16-2015,15:58,METAR,Normal,210,4.0,,,9999.0,,6.0,-1.8,30.45,1032.7,,,,,,,,,,,,,,,Clear,72000.0,,,,,,,,,
KRDR,10-16-2015,14:58,METAR,Normal,220,4.0,,,9999.0,,2.4,-2.7,30.46,1033.2,,,,,,,,,,,,,,,,7000.0,7000.0,OVC,7000.0,,,,,,
KRDR,10-16-2015,13:58,METAR,Normal,220,3.0,,,9999.0,,0.8,-2.1,30.46,1033.2,,,,,,,,,,,,,,,,7000.0,7000.0,OVC,7000.0,,,,,,
KRDR,10-16-2015,12:58,METAR,Normal,210,3.0,,,9999.0,,-0.5,-2.9,30.45,1032.8,,,,,,,,,,,,,,,,6500.0,6500.0,OVC,6500.0,,,,,,
KRDR,10-16-2015,11:58,METAR,Normal,210,1.0,,,9999.0,,-1.4,-3.5,30.45,1032.8,,,,,,,,,,,,,,IN,,6500.0,6500.0,OVC,6500.0,,,,,,
KRDR,10-16-2015,10:58,METAR,Normal,60,2.0,,,9999.0,,-1.7,-4.9,30.44,,,,,,,,,,,,,,,,,7000.0,7000.0,OVC,7000.0,,,,,,
KRDR,10-16-2015,09:58,METAR,Normal,270,4.0,,,9999.0,,-1.2,-4.0,30.43,,,,,,,,,,,,,,,,,6500.0,6500.0,BKN,6500.0,,,,,,
KRDR,10-16-2015,08:58,METAR,Normal,300,4.0,,,9999.0,,-1.4,-3.9,30.44,,,,,,,,,,,,,,,,,6000.0,6000.0,OVC,6000.0,,,,,,
KRDR,10-16-2015,07:58,METAR,Normal,280,6.0,,,9999.0,,-1.9,-5.0,30.44,,,,,,,,,,,,,,,,,6000.0,6000.0,OVC,6000.0,,,,,,
KRDR,10-16-2015,06:58,METAR,Normal,300,6.0,,,9999.0,,-3.4,-6.3,30.43,,,,,,,,,,,,,,,,4/8 Partly Cloudy,72000.0,5500.0,SCT,5500.0,,,,,,
KRDR,10-16-2015,05:58,METAR,Normal,300,8.0,,,9999.0,,-2.4,-5.6,30.42,,,,,,,,,,,,,,,,Clear,72000.0,,,,,,,,,
KRDR,10-16-2015,04:58,METAR,Normal,310,6.0,,,9999.0,,-3.0,-6.0,30.42,,,,,,,,,,,,,,,,Clear,72000.0,,,,,,,,,
KRDR,10-16-2015,03:58,METAR,Normal,320,6.0,,,9999.0,,-0.7,-5.1,30.41,,,,,,,,,,,,,,,,Clear,72000.0,,,,,,,,,
KRDR,10-16-2015,02:58,METAR,Normal,330,6.0,,,9999.0,,-0.6,-4.8,30.40,,,,,,,,,,,,,,,,Clear,72000.0,,,,,,,,,
KRDR,10-16-2015,01:58,METAR,Normal,10,7.0,,,9999.0,,0.3,-4.3,30.38,1029.7,,,,,,,,,,,,,,,Clear,72000.0,,,,,,,,,
KRDR,10-16-2015,00:58,METAR,Normal,30,10.0,,,9999.0,,2.8,-4.3,30.36,1028.9,,,,,,,,,,,,,,,Clear,72000.0,,,,,,,,,
KRDR,10-15-2015,23:58,METAR,Normal,30,8.0,,,9999.0,,4.5,-4.4,30.33,1028.4,,,,,,,,,,,,,,,Clear,72000.0,,,,,,,,,
KRDR,10-15-2015,22:59,METAR,Normal,360,12.0,18.0,,9999.0,,9.0,-4.0,30.30,,,,,,,,,,,,,,,,4/8 Partly Cloudy,72000.0,8000.0,SCT,8000.0,,,,,,
KRDR,10-15-2015,21:55,METAR,Normal,350,15.0,20.0,,9999.0,,10.0,-2.0,30.24,,,,,,,,,,,,,,,,,5000.0,3000.0,SCT,3000.0,BKN,5000.0,,,,
KRDR,10-15-2015,20:55,METAR,Normal,350,12.0,16.0,,9999.0,,10.0,-3.0,30.26,,,,,,,,,,,,,,,,,3000.0,3000.0,BKN,3000.0,,,,,,
KRDR,10-15-2015,19:55,METAR,Normal,350,15.0,20.0,,9999.0,,10.0,-1.0,30.24,,,,,,,,,,,,,,,,,3000.0,3000.0,BKN,3000.0,,,,,,
KRDR,10-15-2015,18:55,METAR,Normal,350,15.0,21.0,,9999.0,,15.0,3.0,30.22,,,,,,,,,,,,,,,,,3000.0,3000.0,BKN,3000.0,,,,,,
KRDR,10-15-2015,17:55,METAR,Normal,350,15.0,20.0,,9999.0,,12.0,1.0,30.21,,,,,,,,,,,,,,,,,3000.0,3000.0,BKN,3000.0,,,,,,
KRDR,10-15-2015,16:55,METAR,Normal,360,13.0,17.0,,9999.0,,10.0,1.0,30.19,,,,,,,,,,,,,,,,2/8 Mostly Clear,72000.0,8000.0,FEW,8000.0,,,,,,
KRDR,10-15-2015,15:55,METAR,Normal,320,12.0,18.0,,9999.0,,10.0,1.0,30.18,,,,,,,,,,,,,,,,2/8 Mostly Clear,72000.0,6000.0,FEW,6000.0,,,,,,
KRDR,10-15-2015,14:55,METAR,Normal,320,11.0,16.0,,9999.0,,8.0,0.0,30.15,,,,,,,,,,,,,,,,2/8 Mostly Clear,72000.0,6000.0,FEW,6000.0,,,,,,
KRDR,10-15-2015,13:55,METAR,Normal,300,8.0,,,9999.0,,6.0,-1.0,30.11,,,,,,,,,,,,,,,,2/8 Mostly Clear,72000.0,9000.0,FEW,9100.0,,,,,,
KRDR,10-15-2015,12:55,METAR,Normal,310,7.0,,,9999.0,,4.0,-1.0,30.09,,,,,,,,,,,,,,,,2/8 Mostly Clear,72000.0,10000.0,FEW,10000.0,,,,,,
KRDR,10-15-2015,12:40,SPECI,Normal,300,7.0,,,9999.0,,4.0,-1.0,30.09,,,,,,,,,,,,,,,,2/8 Mostly Clear,72000.0,10000.0,FEW,10000.0,,,,,,
KRDR,10-15-2015,11:58,METAR,Normal,320,11.0,,,9999.0,,5.3,-0.6,30.05,1018.7,,,,,,,,,,,,,,,Clear,72000.0,,,,,,,,,
KRDR,10-15-2015,10:58,METAR,Normal,330,12.0,,,9999.0,,5.9,-0.6,30.02,1017.5,,,,,,,,,,,,,,,2/8 Mostly Clear,72000.0,8000.0,FEW,8000.0,,,,,,
KRDR,10-15-2015,09:58,METAR,Normal,320,11.0,,,9999.0,,6.3,-0.7,29.99,1016.4,,,,,,,,,,,,,,,Clear,72000.0,,,,,,,,,
KRDR,10-15-2015,08:58,METAR,Normal,310,9.0,,,9999.0,,7.0,-0.8,29.97,1015.6,,,,,,,,,,,,,,,Clear,72000.0,,,,,,,,,
KRDR,10-15-2015,07:58,METAR,Normal,300,9.0,,,9999.0,,6.3,-0.7,29.95,1015.0,,,,,,,,,,,,,,,Clear,72000.0,,,,,,,,,
KRDR,10-15-2015,06:58,METAR,Normal,310,10.0,,,9999.0,,7.5,-0.5,29.94,1014.6,,,,,,,,,,,,,,,Clear,72000.0,,,,,,,,,
KRDR,10-15-2015,05:58,METAR,Normal,320,10.0,,,9999.0,,8.7,-0.9,29.92,1013.9,,,,,,,,,,,,,,,Clear,72000.0,,,,,,,,,
KRDR,10-15-2015,04:58,METAR,Normal,300,7.0,,,9999.0,,6.4,-0.8,29.92,1014.0,,,,,,,,,,,,,,,Clear,72000.0,,,,,,,,,
KRDR,10-15-2015,03:58,METAR,Normal,280,8.0,,,9999.0,,6.5,0.0,29.92,1014.0,,,,,,,,,,,,,,,Clear,72000.0,,,,,,,,,
KRDR,10-15-2015,02:58,METAR,Normal,280,8.0,,,9999.0,,8.7,-0.2,29.91,1013.7,,,,,,,,,,,,,,,Clear,72000.0,,,,,,,,,
KRDR,10-15-2015,01:58,METAR,Normal,270,7.0,,,9999.0,,8.6,-0.7,29.89,1013.2,,,,,,,,,,,,,,,Clear,72000.0,,,,,,,,,
KRDR,10-15-2015,00:58,METAR,Normal,260,7.0,,,9999.0,,6.7,-0.6,29.89,1013.3,,,,,,,,,,,,,,,Clear,72000.0,,,,,,,,,
KRDR,10-14-2015,23:58,METAR,Normal,280,5.0,,,9999.0,,10.4,-0.8,29.89,1013.2,,,,,,,,,,,,,,,Clear,72000.0,,,,,,,,,
KRDR,10-14-2015,22:58,METAR,Normal,330,8.0,,,9999.0,,15.9,-2.0,29.89,1013.0,,,,,,,,,,,,,,,Clear,72000.0,,,,,,,,,
KRDR,10-14-2015,21:59,METAR,Normal,330,18.0,24.0,,9999.0,,17.2,-3.4,29.91,1013.6,,,,,,,,,,,,,,,Clear,72000.0,,,,,,,,,
KRDR,10-14-2015,20:58,METAR,Normal,330,20.0,24.0,,9999.0,,18.2,-3.1,29.90,1013.2,,,,,,,,,,,,,,,Clear,72000.0,,,,,,,,,
KRDR,10-14-2015,19:58,METAR,Normal,320,16.0,21.0,,9999.0,,18.3,-0.8,29.91,1013.6,,,,,,,,,,,,,,,Clear,72000.0,,,,,,,,,
KRDR,10-14-2015,18:58,METAR,Normal,330,13.0,20.0,,9999.0,,18.6,-0.4,29.92,1013.9,,,,,,,,,,,,,,,Clear,72000.0,,,,,,,,,
KRDR,10-14-2015,17:58,METAR,Normal,330,15.0,21.0,,9999.0,,18.3,0.4,29.92,1013.9,,,,,,,,,,,,,,,Clear,72000.0,,,,,,,,,
KRDR,10-14-2015,16:58,METAR,Normal,290,11.0,,,9999.0,,17.7,1.1,29.93,1014.2,,,,,,,,,,,,,,,Clear,72000.0,,,,,,,,,
KRDR,10-14-2015,15:58,METAR,Normal,300,12.0,,,9999.0,,15.5,2.0,29.93,1014.3,,,,,,,,,,,,,,,Clear,72000.0,,,,,,,,,
KRDR,10-14-2015,14:58,METAR,Normal,300,12.0,17.0,,9999.0,,12.3,2.0,29.93,1014.4,,,,,,,,,,,,,,,Clear,72000.0,,,,,,,,,
KRDR,10-14-2015,13:58,METAR,Normal,280,9.0,,,9999.0,,9.3,2.3,29.93,1014.6,,,,,,,,,,,,,,,4/8 Partly Cloudy,72000.0,10000.0,SCT,10000.0,,,,,,
KRDR,10-14-2015,12:58,METAR,Normal,280,9.0,,,9999.0,,6.8,1.3,29.93,1014.5,,,,,,,,,,,,,,,Clear,72000.0,,,,,,,,,
KRDR,10-14-2015,11:58,METAR,Normal,290,9.0,,,9999.0,,7.1,1.8,29.92,1014.1,,,,,,,,,,,,,,,Clear,72000.0,,,,,,,,,
KRDR,10-14-2015,10:58,METAR,Normal,290,8.0,,,9999.0,,7.4,0.7,29.90,1013.4,,,,,,,,,,,,,,,Clear,72000.0,,,,,,,,,
KRDR,10-14-2015,09:58,METAR,Normal,300,9.0,,,9999.0,,8.2,1.1,29.90,,,,,,,,,,,,,,,,Clear,72000.0,,,,,,,,,
KRDR,10-14-2015,08:58,METAR,Normal,290,7.0,,,9999.0,,8.2,1.3,29.89,,,,,,,,,,,,,,,,Clear,72000.0,,,,,,,,,
KRDR,10-14-2015,07:58,METAR,Normal,300,7.0,,,9999.0,,8.4,1.6,29.89,,,,,,,,,,,,,,,,Clear,72000.0,,,,,,,,,
KRDR,10-14-2015,06:58,METAR,Normal,290,7.0,,,9999.0,,7.3,1.9,29.88,,,,,,,,,,,,,,,,Clear,72000.0,,,,,,,,,
KRDR,10-14-2015,05:58,METAR,Normal,280,7.0,,,9999.0,,7.9,2.8,29.89,1013.0,,,,,,,,,,,,,,,Clear,72000.0,,,,,,,,,
KRDR,10-14-2015,04:58,METAR,Normal,290,7.0,,,9999.0,,9.4,3.2,29.89,,,,,,,,,,,,,,,,Clear,72000.0,,,,,,,,,
KRDR,10-14-2015,03:58,METAR,Normal,290,8.0,,,9999.0,,8.3,3.0,29.88,1012.8,,,,,,,,,,,,,,,Clear,72000.0,,,,,,,,,
KRDR,10-14-2015,02:58,METAR,Normal,270,7.0,,,9999.0,,7.1,3.0,29.88,1012.9,,,,,,,,,,,,,,,Clear,72000.0,,,,,,,,,
KRDR,10-14-2015,01:58,METAR,Normal,240,7.0,,,9999.0,,7.5,3.9,29.87,1012.7,,,,,,,,,,,,,,,Clear,72000.0,,,,,,,,,
KRDR,10-14-2015,00:58,METAR,Normal,280,6.0,,,9999.0,,10.4,3.4,29.88,1013.1,,,,,,,,,,,,,,,Clear,72000.0,,,,,,,,,
KRDR,10-13-2015,23:58,METAR,Normal,300,6.0,,,9999.0,,11.8,3.3,29.86,1012.3,,,,,,,,,,,,,,,Clear,72000.0,,,,,,,,,
KRDR,10-13-2015,22:58,METAR,Normal,320,7.0,,,9999.0,,15.5,2.3,29.85,1011.8,,,,,,,,,,,,,,,Clear,72000.0,,,,,,,,,
KRDR,10-13-2015,21:58,METAR,Normal,330,9.0,,,9999.0,,16.2,4.9,29.86,1012.1,,,,,,,,,,,,,,,Clear,72000.0,,,,,,,,,
KRDR,10-13-2015,20:58,METAR,Normal,310,11.0,,,9999.0,,17.0,3.2,29.86,1012.1,,,,,,,,,,,,,,,Clear,72000.0,,,,,,,,,
KRDR,10-13-2015,19:58,METAR,Variable,310,7.0,,,9999.0,,16.0,3.9,29.86,1012.1,,,,,,,,,,,,,,,Clear,72000.0,,,,,,,,,
KRDR,10-13-2015,18:58,METAR,Normal,340,9.0,,,9999.0,,14.6,4.1,29.88,1012.8,,,,,,,,,,,,,,,Clear,72000.0,,,,,,,,,
KRDR,10-13-2015,17:59,METAR,Normal,360,7.0,,,9999.0,,12.8,4.1,29.88,1012.9,,,,,,,,,,,,,,,Clear,72000.0,,,,,,,,,
KRDR,10-13-2015,16:58,METAR,Normal,340,1.0,,,9999.0,,10.9,3.6,29.88,1013.0,,,,,,,,,,,,,,,Clear,72000.0,,,,,,,,,
KRDR,10-13-2015,15:58,METAR,Normal,330,4.0,,,9999.0,,11.0,3.0,29.89,1013.4,,,,,,,,,,,,,,,Clear,72000.0,,,,,,,,,
KRDR,10-13-2015,14:58,METAR,Calm,,0.0,,,9999.0,,8.0,3.0,29.87,1012.7,,,,,,,,,,,,,,,Clear,72000.0,,,,,,,,,
KRDR,10-13-2015,13:58,METAR,Normal,270,1.0,,,9999.0,,3.0,1.0,29.87,1012.8,,,,,,,,,,,,,,,Clear,72000.0,,,,,,,,,
KRDR,10-13-2015,12:58,METAR,Normal,270,4.0,,,9999.0,,-0.3,-1.0,29.85,1012.3,,,,,,,,,,,,,,,Clear,72000.0,,,,,,,,,
KRDR,10-13-2015,11:58,METAR,Normal,260,3.0,,,9999.0,,0.4,-0.4,29.84,1011.9,,,,,,,,,,,,,,.23 IN,Clear,72000.0,,,,,,,,,
KRDR,10-13-2015,10:58,METAR,Normal,290,1.0,,,9999.0,,2.5,1.1,29.83,1011.4,,,,,,,,,,,,,,,4/8 Partly Cloudy,72000.0,11000.0,SCT,11000.0,,,,,,
KRDR,10-13-2015,09:58,METAR,Normal,300,4.0,,,9999.0,,2.7,1.4,29.82,1010.9,,,,,,,,,,,,,,,,12000.0,12000.0,BKN,12000.0,,,,,,
KRDR,10-13-2015,08:58,METAR,Normal,300,5.0,,,9999.0,,2.2,0.7,29.82,1010.9,,,,,,,,,,,,,,,,12000.0,10000.0,FEW,10000.0,BKN,12000.0,,,,
KRDR,10-13-2015,07:58,METAR,Normal,290,5.0,,,9999.0,,1.3,0.1,29.82,1011.0,,,,,,,,,,,,,,,Clear,72000.0,,,,,,,,,
KRDR,10-13-2015,06:58,METAR,Normal,300,5.0,,,9999.0,,1.8,0.2,29.83,1011.4,,,,,,,,,,,,,,,Clear,72000.0,,,,,,,,,
KRDR,10-13-2015,05:58,METAR,Normal,320,5.0,,,9999.0,,0.4,-0.9,29.84,1011.8,,,,,,,,,,,,,,,Clear,72000.0,,,,,,,,,
KRDR,10-13-2015,04:58,METAR,Normal,320,5.0,,,9999.0,,0.5,-0.8,29.85,1012.1,,,,,,,,,,,,,,,Clear,72000.0,,,,,,,,,
KRDR,10-13-2015,03:58,METAR,Normal,320,4.0,,,9999.0,,0.8,-0.3,29.84,1011.8,,,,,,,,,,,,,,,Clear,72000.0,,,,,,,,,
KRDR,10-13-2015,02:58,METAR,Normal,340,5.0,,,9999.0,,2.4,1.0,29.84,1011.7,,,,,,,,,,,,,,,Clear,72000.0,,,,,,,,,
KRDR,10-13-2015,01:58,METAR,Normal,10,8.0,,,9999.0,,3.4,1.3,29.83,1011.3,,,,,,,,,,,,,,,Clear,72000.0,,,,,,,,,
KRDR,10-13-2015,00:58,METAR,Normal,10,5.0,,,9999.0,,3.9,1.7,29.82,1010.9,,,,,,,,,,,,,,,Clear,72000.0,,,,,,,,,
KRDR,10-12-2015,23:58,METAR,Normal,20,7.0,,,9999.0,,5.9,2.5,29.79,1009.8,,,,,,,,,,,,,,,Clear,72000.0,,,,,,,,,
KRDR,10-12-2015,22:58,METAR,Normal,20,12.0,,,9999.0,,8.5,2.7,29.75,1008.3,,,,,,,,,,,,,,,Clear,72000.0,,,,,,,,,
KRDR,10-12-2015,21:58,METAR,Normal,360,16.0,24.0,360/26KTS,9999.0,,10.7,3.1,29.73,1007.5,,,,,,,,,,,,,,,2/8 Mostly Clear,72000.0,3300.0,FEW,3300.0,,,,,,
KRDR,10-12-2015,20:58,METAR,Normal,350,19.0,28.0,330/35KTS,9999.0,,10.7,3.3,29.70,1006.5,,,,,,,,,,,,,,,,8000.0,3200.0,SCT,3200.0,BKN,8000.0,,,,
KRDR,10-12-2015,19:58,METAR,Normal,340,18.0,29.0,330/34KTS,9999.0,,8.8,3.0,29.68,1005.9,,,,,,,,,,,,,,,,2900.0,2900.0,BKN,2900.0,OVC,6000.0,,,,
KRDR,10-12-2015,18:58,METAR,Normal,340,22.0,26.0,330/39KTS,9999.0,,8.2,3.1,29.64,1004.5,,,,,,,,,,,,,,,,3900.0,2900.0,SCT,2900.0,OVC,3900.0,,,,
KRDR,10-12-2015,17:58,METAR,Normal,340,23.0,34.0,320/43KTS,9999.0,,7.3,2.5,29.60,1003.1,,,,,,,,,,,,,.23 IN,,,3200.0,3200.0,OVC,3200.0,,,,,,
KRDR,10-12-2015,17:06,SPECI,Variable,340,25.0,40.0,,9999.0,Squalls,7.0,2.0,29.56,,18,,,,,,,,,,,,,,,2900.0,2900.0,BKN,2900.0,OVC,3500.0,,,,
KRDR,10-12-2015,16:58,METAR,Normal,340,30.0,42.0,340/44KTS,9999.0,,6.7,2.9,29.56,1001.8,,,,,,,,,,,TRACE,,,,,2600.0,2600.0,BKN,2600.0,OVC,3400.0,,,,
KRDR,10-12-2015,16:55,SPECI,Normal,340,28.0,42.0,,9999.0,Squalls,7.0,3.0,29.56,,18,,,,,,,,,,,,,,,2600.0,2600.0,BKN,2600.0,OVC,3400.0,,,,
KRDR,10-12-2015,16:42,SPECI,Normal,340,31.0,44.0,,9999.0,,7.0,3.0,29.55,,,,,,,,,,,,,,,,,2400.0,2400.0,BKN,2400.0,OVC,3100.0,,,,
KRDR,10-12-2015,16:16,SPECI,Normal,330,28.0,41.0,,9999.0,Light Drizzle,7.0,4.0,29.52,,51,,,,,,,,,,,,,,,2200.0,1500.0,FEW,1500.0,OVC,2200.0,,,,
KRDR,10-12-2015,16:07,SPECI,Normal,340,29.0,38.0,,9999.0,,7.0,4.0,29.51,,,,,,,,,,,,,,,,,2000.0,1000.0,FEW,1000.0,OVC,2000.0,,,,
KRDR,10-12-2015,16:05,SPECI,Normal,330,27.0,38.0,,9999.0,,7.0,4.0,29.51,,,,,,,,,,,,,,,,,1900.0,1300.0,FEW,1300.0,OVC,1900.0,,,,
KRDR,10-12-2015,16:01,SPECI,Normal,330,26.0,38.0,,9999.0,Light Rain,7.0,5.0,29.51,,61,,,,,,,,,,,,,,,1900.0,1000.0,FEW,1000.0,OVC,1900.0,,,,
KRDR,10-12-2015,15:58,METAR,Normal,330,23.0,45.0,330/45KTS,9999.0,Light Rain,6.8,4.8,29.51,1000.1,61,,,,,,,,,,.03 IN,,,,,1900.0,1300.0,FEW,1300.0,OVC,1900.0,,,,
KRDR,10-12-2015,14:58,METAR,Normal,330,27.0,40.0,330/44KTS,9999.0,Light Rain,7.1,5.1,29.45,998.0,61,,,,,,,,,,.06 IN,.2 IN,,,,1800.0,1800.0,BKN,1800.0,OVC,2600.0,,,,
KRDR,10-12-2015,13:58,METAR,Normal,320,26.0,39.0,310/41KTS,9999.0,Light Rain,7.8,5.9,29.40,996.2,61,,,,,,,,,,.06 IN,,,,,1900.0,1900.0,OVC,1900.0,,,,,,
KRDR,10-12-2015,13:25,SPECI,Normal,320,28.0,39.0,,8000.0,Light Rain/Mist,8.0,7.0,29.37,,61,10,,,,,,,,,,,,,,1800.0,1800.0,BKN,1800.0,BKN,2400.0,OVC,2900.0,,
KRDR,10-12-2015,12:58,METAR,Normal,330,24.0,37.0,320/42KTS,9999.0,Light Rain,9.0,6.6,29.36,994.8,61,,,,,,,,,,.08 IN,,,,,2700.0,2200.0,SCT,2200.0,OVC,4000.0,,,,
KRDR,10-12-2015,12:48,SPECI,Normal,330,27.0,38.0,,9999.0,Light Rain,9.0,7.0,29.34,,61,,,,,,,,,,,,,,,2300.0,2300.0,BKN,2300.0,BKN,3300.0,OVC,4200.0,,
KRDR,10-12-2015,12:28,SPECI,Normal,330,28.0,39.0,,9999.0,Light Rain/Squalls,9.0,6.0,29.33,,61,18,,,,,,,,,,,,,,3700.0,2500.0,SCT,2500.0,OVC,3700.0,,,,
KRDR,10-12-2015,12:23,SPECI,Normal,330,26.0,38.0,,9999.0,Light Rain,9.0,7.0,29.33,,61,,,,,,,,,,,,,,,2600.0,2600.0,BKN,2600.0,BKN,3200.0,OVC,4100.0,,
KRDR,10-12-2015,12:18,SPECI,Normal,330,22.0,39.0,,9999.0,Light Rain,9.0,7.0,29.33,,61,,,,,,,,,,,,,,,2300.0,2600.0,BKN,2600.0,BKN,3300.0,OVC,4100.0,,
KRDR,10-12-2015,11:58,METAR,Normal,330,23.0,39.0,320/44KTS,9999.0,Light Rain,10.1,7.2,29.31,993.0,61,,,,,,,,,,.01 IN,,.06 IN,.07 IN,,2100.0,900.0,FEW,900.0,BKN,2100.0,OVC,3300.0,,
KRDR,10-12-2015,11:56,SPECI,Normal,330,24.0,39.0,,9999.0,Light Rain,10.0,7.0,29.31,,61,,,,,,,,,,,,,,,2100.0,900.0,FEW,900.0,BKN,2100.0,OVC,3300.0,,
KRDR,10-12-2015,11:46,SPECI,Normal,330,23.0,41.0,,9999.0,Light Rain,11.0,8.0,29.30,,61,,,,,,,,,,,,,,,2000.0,700.0,FEW,700.0,OVC,2000.0,,,,
KRDR,10-12-2015,11:41,SPECI,Normal,340,26.0,44.0,,9999.0,Light Rain,11.0,8.0,29.29,,61,,,,,,,,,,,,,,,1800.0,700.0,FEW,700.0,SCT,1200.0,OVC,1800.0,,
KRDR,10-12-2015,11:36,SPECI,Normal,330,28.0,44.0,,9999.0,Light Drizzle,11.0,8.0,29.28,,51,,,,,,,,,,,,,,,1800.0,700.0,SCT,700.0,OVC,1800.0,,,,
KRDR,10-12-2015,11:31,SPECI,Normal,320,30.0,44.0,,9999.0,Light Drizzle,11.0,8.0,29.27,,51,,,,,,,,,,,,,,,1800.0,700.0,FEW,700.0,OVC,1800.0,,,,
KRDR,10-12-2015,11:09,SPECI,Normal,310,23.0,33.0,,9999.0,,11.0,9.0,29.25,,,,,,,,,,,,,,,,,1400.0,1300.0,FEW,1300.0,BKN,1800.0,OVC,3500.0,,
KRDR,10-12-2015,11:04,SPECI,Normal,310,23.0,33.0,,9999.0,,11.0,9.0,29.24,,,,,,,,,,,,,,,,,1400.0,1400.0,SCT,1400.0,BKN,1900.0,OVC,3500.0,,
KRDR,10-12-2015,11:03,SPECI,Normal,310,24.0,33.0,,9999.0,Light Drizzle,11.0,9.0,29.24,,51,,,,,,,,,,,,,,,1400.0,1400.0,BKN,1400.0,BKN,2000.0,OVC,3500.0,,
KRDR,10-12-2015,10:58,METAR,Normal,310,19.0,29.0,300/39KTS,9999.0,Light Drizzle,11.5,9.6,29.24,990.6,51,,,,,,,,,,.01 IN,,,,,1500.0,800.0,FEW,800.0,BKN,1500.0,OVC,2800.0,,
KRDR,10-12-2015,10:53,SPECI,Normal,310,21.0,31.0,,9999.0,Light Drizzle,11.0,10.0,29.23,,51,,,,,,,,,,,,,,,1500.0,800.0,FEW,800.0,OVC,1500.0,,,,
KRDR,10-12-2015,10:43,SPECI,Normal,310,23.0,34.0,,9999.0,Light Rain,12.0,10.0,29.22,,61,,,,,,,,,,,,,,,1300.0,700.0,FEW,700.0,OVC,1300.0,,,,
KRDR,10-12-2015,10:38,SPECI,Normal,320,25.0,34.0,,9999.0,Light Drizzle,12.0,10.0,29.22,,51,,,,,,,,,,,,,,,1200.0,700.0,FEW,700.0,OVC,1200.0,,,,
KRDR,10-12-2015,10:28,SPECI,Normal,320,16.0,22.0,,9999.0,Light Rain,12.0,11.0,29.22,,61,,,,,,,,,,,,,,,1100.0,800.0,FEW,800.0,OVC,1400.0,,,,
KRDR,10-12-2015,10:23,SPECI,Normal,310,14.0,21.0,,9999.0,Light Rain,12.0,11.0,29.21,,61,,,,,,,,,,,,,,,1600.0,1000.0,SCT,1000.0,BKN,1600.0,OVC,2600.0,,
KRDR,10-12-2015,10:18,SPECI,Normal,320,14.0,24.0,,9999.0,Light Rain/Mist,12.0,11.0,29.21,,61,10,,,,,,,,,,,,,,1500.0,600.0,FEW,600.0,BKN,1500.0,OVC,2400.0,,
KRDR,10-12-2015,10:13,SPECI,Normal,310,18.0,26.0,,9999.0,Light Drizzle,12.0,11.0,29.21,,51,,,,,,,,,,,,,,,1600.0,1000.0,FEW,1000.0,BKN,1600.0,OVC,2500.0,,
KRDR,10-12-2015,10:10,SPECI,Normal,310,18.0,29.0,,9999.0,Light Drizzle,12.0,11.0,29.21,,51,,,,,,,,,,,,,,,2200.0,1600.0,SCT,1600.0,BKN,2200.0,OVC,2700.0,,
KRDR,10-12-2015,10:01,SPECI,Normal,310,23.0,29.0,,9999.0,,12.0,10.0,29.20,,,,,,,,,,,,,,,,,1800.0,1100.0,FEW,1100.0,BKN,2400.0,OVC,4000.0,,
KRDR,10-12-2015,09:58,METAR,Normal,310,19.0,26.0,300/29KTS,9999.0,,12.2,10.4,29.20,989.0,,,,,,,,,,,.03 IN,,,,,1800.0,1200.0,FEW,1200.0,BKN,2200.0,OVC,2800.0,,
KRDR,10-12-2015,09:52,SPECI,Normal,310,14.0,27.0,,9999.0,,12.0,10.0,29.20,,,,,,,,,,,,,,,,,1700.0,1200.0,FEW,1200.0,SCT,1800.0,OVC,2400.0,,
KRDR,10-12-2015,09:42,SPECI,Normal,310,15.0,24.0,,9999.0,,12.0,10.0,29.20,,,,,,,,,,,,,,,,,1300.0,700.0,FEW,700.0,BKN,1700.0,OVC,2600.0,,
KRDR,10-12-2015,09:37,SPECI,Normal,310,15.0,23.0,,9999.0,Light Drizzle,12.0,10.0,29.20,,51,,,,,,,,,,,,,,,1300.0,600.0,FEW,600.0,BKN,1500.0,OVC,2600.0,,
KRDR,10-12-2015,09:32,SPECI,Normal,310,15.0,22.0,,9999.0,Light Rain,12.0,10.0,29.20,,61,,,,,,,,,,,,,,,1400.0,600.0,FEW,600.0,BKN,1400.0,OVC,2600.0,,
KRDR,10-12-2015,09:27,SPECI,Normal,320,16.0,26.0,,9999.0,Light Rain,12.0,10.0,29.20,,61,,,,,,,,,,,,,,,1300.0,700.0,FEW,700.0,BKN,1300.0,OVC,2600.0,,
KRDR,10-12-2015,09:22,SPECI,Normal,320,15.0,26.0,,8000.0,Light Rain/Mist,12.0,10.0,29.20,,61,10,,,,,,,,,,,,,,1600.0,700.0,FEW,700.0,BKN,1600.0,OVC,2900.0,,
KRDR,10-12-2015,09:18,SPECI,Normal,310,21.0,26.0,,9999.0,Light Rain/Mist,12.0,10.0,29.20,,61,10,,,,,,,,,,,,,,1600.0,1600.0,BKN,1600.0,BKN,2800.0,OVC,3600.0,,
KRDR,10-12-2015,09:03,SPECI,Normal,300,17.0,25.0,,9999.0,Light Rain,12.0,10.0,29.20,,61,,,,,,,,,,,,,,,1800.0,1800.0,BKN,1800.0,BKN,2600.0,OVC,6000.0,,
KRDR,10-12-2015,08:58,METAR,Normal,300,16.0,25.0,300/31KTS,9999.0,Light Rain,12.0,10.0,29.20,988.8,61,,,,,,,,,,.01 IN,.01 IN,,,,1800.0,800.0,FEW,800.0,BKN,2600.0,OVC,4300.0,,
KRDR,10-12-2015,08:54,SPECI,Normal,300,17.0,25.0,,9999.0,Light Rain,12.0,10.0,29.20,,61,,,,,,,,,,,,,,,1500.0,800.0,FEW,800.0,BKN,1800.0,OVC,4300.0,,
KRDR,10-12-2015,08:49,SPECI,Normal,300,16.0,31.0,,9999.0,Light Rain,12.0,10.0,29.20,,61,,,,,,,,,,,,,,,1500.0,800.0,FEW,800.0,BKN,1800.0,OVC,6000.0,,
KRDR,10-12-2015,08:34,SPECI,Normal,290,19.0,27.0,,9999.0,Light Drizzle,12.0,10.0,29.20,,51,,,,,,,,,,,,,,,1700.0,800.0,FEW,800.0,OVC,1700.0,,,,
KRDR,10-12-2015,08:33,SPECI,Normal,290,19.0,27.0,,9999.0,,12.0,10.0,29.20,,,,,,,,,,,,,,,,,1500.0,800.0,FEW,800.0,OVC,1500.0,,,,
KRDR,10-12-2015,08:24,SPECI,Normal,290,17.0,24.0,,9999.0,,11.0,10.0,29.20,,,,,,,,,,,,,,,,,1500.0,1500.0,OVC,1500.0,,,,,,
KRDR,10-12-2015,08:23,SPECI,Normal,290,16.0,24.0,,9999.0,Light Rain,11.0,10.0,29.20,,61,,,,,,,,,,,,,,,1600.0,1600.0,OVC,1600.0,,,,,,
KRDR,10-12-2015,08:18,SPECI,Normal,280,18.0,25.0,,9999.0,Light Rain,11.0,10.0,29.21,,61,,,,,,,,,,,,,,,1400.0,1400.0,BKN,1400.0,OVC,1900.0,,,,
KRDR,10-12-2015,07:58,METAR,Normal,270,16.0,30.0,290/31KTS,9999.0,Light Rain,11.3,9.4,29.21,989.2,61,,,,,,,,,,TRACE,,,,,1600.0,1400.0,SCT,1400.0,BKN,1900.0,OVC,3300.0,,
KRDR,10-12-2015,07:53,SPECI,Normal,280,19.0,30.0,,9999.0,Light Rain,11.0,9.0,29.22,,61,,,,,,,,,,,,,,,1600.0,1600.0,BKN,1600.0,BKN,2500.0,OVC,3300.0,,
KRDR,10-12-2015,07:43,SPECI,Normal,270,20.0,29.0,,9999.0,Light Rain,12.0,9.0,29.22,,61,,,,,,,,,,,,,,,3300.0,1700.0,SCT,1700.0,BKN,3300.0,OVC,4300.0,,
KRDR,10-12-2015,07:36,SPECI,Normal,280,19.0,26.0,,9999.0,,12.0,9.0,29.22,,,,,,,,,,,,,,,,,3500.0,1800.0,SCT,1800.0,BKN,3500.0,OVC,4300.0,,
KRDR,10-12-2015,07:23,SPECI,Normal,290,19.0,31.0,,9999.0,Light Rain,13.0,8.0,29.23,,61,,,,,,,,,,,,,,,4300.0,4300.0,BKN,4300.0,OVC,5500.0,,,,
KRDR,10-12-2015,06:58,METAR,Normal,290,23.0,34.0,270/40KTS,9999.0,,14.0,6.7,29.24,990.2,,,,,,,,,,,,,,,,8000.0,6000.0,SCT,6000.0,BKN,8000.0,,,,
KRDR,10-12-2015,05:58,METAR,Normal,270,16.0,26.0,270/26KTS,9999.0,,16.3,4.1,29.26,990.9,,,,,,,,,,,,,TRACE,,,7000.0,7000.0,OVC,7000.0,,,,,,
KRDR,10-12-2015,04:58,METAR,Normal,260,11.0,,,9999.0,,14.7,3.9,29.31,992.7,,,,,,,,,,,,,,,Clear,72000.0,,,,,,,,,
KRDR,10-12-2015,03:58,METAR,Normal,260,10.0,,,9999.0,,15.0,5.1,29.35,994.1,,,,,,,,,,,,,,,Clear,72000.0,,,,,,,,,
KRDR,10-12-2015,02:58,METAR,Normal,280,9.0,,,9999.0,,16.1,6.4,29.37,994.9,,,,,,,,,,,,TRACE,,,Clear,72000.0,,,,,,,,,
KRDR,10-12-2015,01:58,METAR,Normal,310,13.0,21.0,,9999.0,,16.7,6.9,29.37,994.9,,,,,,,,,,,TRACE,,,,Clear,72000.0,,,,,,,,,
KRDR,10-12-2015,01:43,SPECI,Normal,310,14.0,21.0,,9999.0,,16.0,7.0,29.36,,,,,,,,,,,,,,,,2/8 Mostly Clear,72000.0,12000.0,FEW,12000.0,,,,,,
KRDR,10-12-2015,01:25,SPECI,Normal,320,17.0,23.0,,9999.0,Light Rain,17.0,7.0,29.35,,61,,,,,,,,,,,,,,2/8 Mostly Clear,72000.0,12000.0,FEW,12000.0,,,,,,
KRDR,10-12-2015,00:58,METAR,Normal,330,22.0,33.0,290/40KTS,9999.0,,18.4,5.7,29.32,993.3,,,,,,,,,,,,,,,2/8 Mostly Clear,72000.0,12000.0,FEW,12000.0,,,,,,
KRDR,10-11-2015,23:58,METAR,Normal,310,29.0,39.0,290/41KTS,9999.0,,20.2,7.5,29.31,992.8,,,,,,,,,,,,,.01 IN,,2/8 Mostly Clear,72000.0,12000.0,FEW,12000.0,,,,,,
KRDR,10-11-2015,22:58,METAR,Normal,300,29.0,39.0,,9999.0,,20.8,8.6,29.26,991.1,,,,,,,,,,,.01 IN,,,,Clear,72000.0,,,,,,,,,
KRDR,10-11-2015,22:34,SPECI,Normal,300,32.0,40.0,,9999.0,,22.0,9.0,29.26,,,,,,,,,,,,,,,,Clear,72000.0,,,,,,,,,
KRDR,10-11-2015,22:32,SPECI,Normal,300,29.0,40.0,,9999.0,Light Rain,23.0,10.0,29.26,,61,,,,,,,,,,,,,,Clear,72000.0,,,,,,,,,
KRDR,10-11-2015,22:21,SPECI,Normal,300,29.0,40.0,,9999.0,Squalls,25.0,8.0,29.23,,18,,,,,,,,,,,,,,Clear,72000.0,,,,,,,,,
KRDR,10-11-2015,21:58,METAR,Normal,290,24.0,32.0,,9999.0,,27.3,6.5,29.21,989.3,,,,,,,,,,,,,,,Clear,72000.0,,,,,,,,,
KRDR,10-11-2015,20:58,METAR,Normal,240,11.0,17.0,,9999.0,,31.5,6.0,29.17,987.8,,,,,,,,,,,,,,,Clear,72000.0,,,,,,,,,
KRDR,10-11-2015,19:58,METAR,Normal,210,15.0,22.0,,9999.0,,31.7,5.7,29.18,988.1,,,,,,,,,,,,,,,Clear,72000.0,,,,,,,,,
KRDR,10-11-2015,18:58,METAR,Normal,190,13.0,,,9999.0,,29.8,6.9,29.23,989.9,,,,,,,,,,,,,,,Clear,72000.0,,,,,,,,,
KRDR,10-11-2015,17:58,METAR,Normal,200,9.0,,,9999.0,,27.7,7.8,29.29,992.0,,,,,,,,,,,,,,,Clear,72000.0,,,,,,,,,
KRDR,10-11-2015,16:58,METAR,Normal,180,8.0,,,9999.0,,24.9,8.5,29.32,993.0,,,,,,,,,,,,,,,Clear,72000.0,,,,,,,,,
KRDR,10-11-2015,15:58,METAR,Normal,200,6.0,,,9999.0,,22.5,8.2,29.36,994.5,,,,,,,,,,,,,,,Clear,72000.0,,,,,,,,,
KRDR,10-11-2015,14:58,METAR,Normal,210,4.0,,,9999.0,,19.8,7.4,29.38,995.2,,,,,,,,,,,,,,,Clear,72000.0,,,,,,,,,
KRDR,10-11-2015,13:58,METAR,Normal,180,5.0,,,9999.0,,15.3,7.4,29.38,995.3,,,,,,,,,,,,,,,Clear,72000.0,,,,,,,,,
KRDR,10-11-2015,12:58,METAR,Normal,270,5.0,,,9999.0,,13.6,6.3,29.40,995.9,,,,,,,,,,,,,,,Clear,72000.0,,,,,,,,,
KRDR,10-11-2015,11:58,METAR,Normal,260,9.0,,,9999.0,,15.8,6.4,29.41,996.1,,,,,,,,,,,,,,,Clear,72000.0,,,,,,,,,
KRDR,10-11-2015,10:58,METAR,Normal,270,9.0,,,9999.0,,15.2,6.4,29.42,996.4,,,,,,,,,,,,,,,Clear,72000.0,,,,,,,,,
KRDR,10-11-2015,09:58,METAR,Normal,250,7.0,,,9999.0,,13.2,7.2,29.43,996.7,,,,,,,,,,,,,,,Clear,72000.0,,,,,,,,,
KRDR,10-11-2015,08:58,METAR,Normal,230,7.0,,,9999.0,,14.2,7.6,29.44,,,,,,,,,,,,,,,,Clear,72000.0,,,,,,,,,
KRDR,10-11-2015,07:58,METAR,Normal,240,5.0,,,9999.0,,13.8,7.7,29.46,997.8,,,,,,,,,,,,,,,Clear,72000.0,,,,,,,,,
KRDR,10-11-2015,06:58,METAR,Normal,240,7.0,,,9999.0,,13.6,8.2,29.48,998.4,,,,,,,,,,,,,,,Clear,72000.0,,,,,,,,,
KRDR,10-11-2015,05:58,METAR,Normal,210,5.0,,,9999.0,,11.9,7.3,29.49,999.0,,,,,,,,,,,,,,,Clear,72000.0,,,,,,,,,
KRDR,10-11-2015,04:58,METAR,Normal,230,5.0,,,9999.0,,14.8,8.1,29.51,999.6,,,,,,,,,,,,,,,Clear,72000.0,,,,,,,,,
KRDR,10-11-2015,03:58,METAR,Normal,250,2.0,,,9999.0,,14.0,8.5,29.51,999.7,,,,,,,,,,,,,,,Clear,72000.0,,,,,,,,,
KRDR,10-11-2015,02:58,METAR,Normal,240,5.0,,,9999.0,,15.4,8.8,29.52,1000.2,,,,,,,,,,,,,,,Clear,72000.0,,,,,,,,,
KRDR,10-11-2015,01:58,METAR,Normal,220,5.0,,,9999.0,,18.1,9.5,29.52,1000.2,,,,,,,,,,,,,,,Clear,72000.0,,,,,,,,,
KRDR,10-11-2015,00:58,METAR,Normal,280,7.0,,,9999.0,,21.0,9.5,29.53,1000.4,,,,,,,,,,,,,,,Clear,72000.0,,,,,,,,,
KRDR,10-10-2015,23:58,METAR,Normal,290,6.0,,,9999.0,,24.3,9.3,29.53,1000.4,,,,,,,,,,,,,,,Clear,72000.0,,,,,,,,,
KRDR,10-10-2015,22:58,METAR,Normal,290,8.0,,,9999.0,,27.2,8.9,29.53,1000.3,,,,,,,,,,,,,,,Clear,72000.0,,,,,,,,,
KRDR,10-10-2015,21:58,METAR,Normal,290,14.0,20.0,,9999.0,,29.0,8.3,29.53,1000.2,,,,,,,,,,,,,,,Clear,72000.0,,,,,,,,,
KRDR,10-10-2015,20:58,METAR,Normal,290,11.0,19.0,,9999.0,,29.5,8.4,29.54,1000.5,,,,,,,,,,,,,,,Clear,72000.0,,,,,,,,,
KRDR,10-10-2015,19:58,METAR,Normal,290,14.0,24.0,,9999.0,,27.8,8.5,29.56,1001.2,,,,,,,,,,,,,,,Clear,72000.0,,,,,,,,,
KRDR,10-10-2015,18:58,METAR,Normal,280,12.0,17.0,,9999.0,,26.5,8.9,29.59,1002.2,,,,,,,,,,,,,,,Clear,72000.0,,,,,,,,,
KRDR,10-10-2015,17:58,METAR,Normal,280,9.0,,,9999.0,,24.4,9.2,29.61,1003.0,,,,,,,,,,,,,,,Clear,72000.0,,,,,,,,,
KRDR,10-10-2015,16:58,METAR,Normal,280,6.0,,,9999.0,,21.7,9.6,29.61,1003.1,,,,,,,,,,,,,,,Clear,72000.0,,,,,,,,,
KRDR,10-10-2015,15:58,METAR,Normal,240,5.0,,,9999.0,,18.3,9.3,29.62,1003.6,,,,,,,,,,,,,,,Clear,72000.0,,,,,,,,,
KRDR,10-10-2015,14:58,METAR,Normal,200,5.0,,,9999.0,,14.5,8.9,29.63,1004.0,,,,,,,,,,,,,,,Clear,72000.0,,,,,,,,,
KRDR,10-10-2015,13:58,METAR,Normal,220,11.0,,,9999.0,,12.6,7.9,29.64,1004.4,,,,,,,,,,,,,,,Clear,72000.0,,,,,,,,,
KRDR,10-10-2015,12:58,METAR,Normal,220,11.0,,,9999.0,,11.0,7.3,29.66,1005.1,,,,,,,,,,,,,,,Clear,72000.0,,,,,,,,,
KRDR,10-10-2015,11:58,METAR,Normal,210,9.0,,,9999.0,,10.1,6.8,29.69,1006.1,,,,,,,,,,,,,,,Clear,72000.0,,,,,,,,,
KRDR,10-10-2015,10:58,METAR,Normal,210,8.0,,,9999.0,,10.5,6.9,29.71,1006.8,,,,,,,,,,,,,,,Clear,72000.0,,,,,,,,,
KRDR,10-10-2015,09:58,METAR,Normal,210,12.0,,,9999.0,,10.7,6.6,29.74,1007.7,,,,,,,,,,,,,,,Clear,72000.0,,,,,,,,,
KRDR,10-10-2015,08:58,METAR,Normal,200,12.0,,,9999.0,,11.0,6.6,29.76,1008.4,,,,,,,,,,,,,,,Clear,72000.0,,,,,,,,,
KRDR,10-10-2015,07:58,METAR,Normal,200,14.0,,,9999.0,,11.1,6.7,29.80,1009.8,,,,,,,,,,,,,,,Clear,72000.0,,,,,,,,,
KRDR,10-10-2015,06:58,METAR,Normal,210,14.0,19.0,,9999.0,,11.8,6.6,29.83,1010.8,,,,,,,,,,,,,,,Clear,72000.0,,,,,,,,,
KRDR,10-10-2015,05:58,METAR,Normal,210,14.0,20.0,,9999.0,,12.1,6.8,29.86,1011.9,,,,,,,,,,,,,,,Clear,72000.0,,,,,,,,,
KRDR,10-10-2015,04:58,METAR,Normal,200,15.0,,,9999.0,,12.0,7.0,29.89,1012.9,,,,,,,,,,,,,,,Clear,72000.0,,,,,,,,,
KRDR,10-10-2015,03:58,METAR,Normal,200,12.0,19.0,,9999.0,,11.6,6.3,29.92,1014.0,,,,,,,,,,,,,,,Clear,72000.0,,,,,,,,,
KRDR,10-10-2015,01:58,METAR,Normal,200,13.0,,,9999.0,,12.3,6.3,29.98,1016.2,,,,,,,,,,,,,,,Clear,72000.0,,,,,,,,,
KRDR,10-10-2015,00:58,METAR,Normal,190,9.0,,,9999.0,,11.7,6.1,30.00,1017.1,,,,,,,,,,,,,,,Clear,72000.0,,,,,,,,,
KRDR,10-09-2015,23:58,METAR,Normal,180,11.0,,,9999.0,,14.0,6.1,30.02,1017.7,,,,,,,,,,,,,,,Clear,72000.0,,,,,,,,,
KRDR,10-09-2015,22:58,METAR,Normal,190,13.0,19.0,,9999.0,,15.4,6.0,30.04,1018.2,,,,,,,,,,,,,,,Clear,72000.0,,,,,,,,,
KRDR,10-09-2015,21:58,METAR,Normal,200,13.0,,,9999.0,,16.2,5.5,30.07,1019.2,,,,,,,,,,,,,,,Clear,72000.0,,,,,,,,,
KRDR,10-09-2015,20:58,METAR,Normal,170,15.0,,,9999.0,,15.7,5.4,30.10,1020.2,,,,,,,,,,,,,,,Clear,72000.0,,,,,,,,,
KRDR,10-09-2015,19:58,METAR,Normal,190,14.0,,,9999.0,,14.9,4.8,30.15,1022.0,,,,,,,,,,,,,,,Clear,72000.0,,,,,,,,,
KRDR,10-09-2015,18:58,METAR,Normal,170,12.0,,,9999.0,,14.5,4.5,30.18,1023.0,,,,,,,,,,,,,,,Clear,72000.0,,,,,,,,,
KRDR,10-09-2015,17:58,METAR,Normal,180,10.0,,,9999.0,,13.9,5.4,30.21,1023.9,,,,,,,,,,,,,,,Clear,72000.0,,,,,,,,,
KRDR,10-09-2015,16:58,METAR,Normal,170,9.0,,,9999.0,,11.5,6.5,30.24,1025.6,,,,,,,,,,,,,,,Clear,72000.0,,,,,,,,,
KRDR,10-09-2015,15:58,METAR,Normal,170,6.0,,,9999.0,,11.5,6.5,30.26,1025.6,,,,,,,,,,,,,,,Clear,72000.0,,,,,,,,,
KRDR,10-09-2015,14:58,METAR,Normal,200,2.0,,,9999.0,,9.4,5.9,30.27,1026.0,,,,,,,,,,,,,,,Clear,72000.0,,,,,,,,,
KRDR,10-09-2015,13:58,METAR,Normal,200,3.0,,,9999.0,,5.6,4.0,30.26,1025.8,,,,,,,,,,,,,,,Clear,72000.0,,,,,,,,,
KRDR,10-09-2015,12:58,METAR,Normal,250,3.0,,,9999.0,,0.1,-0.3,30.26,1026.1,,,,,,,,,,,,,,,Clear,72000.0,,,,,,,,,
KRDR,10-09-2015,12:29,SPECI,Normal,260,4.0,,,9999.0,,0.0,0.0,30.25,,,,,,,,,,,,,,,,Clear,72000.0,,,,,,,,,
KRDR,10-09-2015,12:14,SPECI,Normal,230,3.0,,,9999.0,,1.0,0.0,30.24,,,,,,,,,,,,,,,,Clear,72000.0,,,,,,,,,
KRDR,10-09-2015,11:55,METAR,Normal,190,3.0,,,9999.0,,2.0,1.0,30.23,1024.9,,,,,,,,,,,,,,,Clear,72000.0,,,,,,,,,
KRDR,10-09-2015,10:58,METAR,Normal,300,6.0,,,9999.0,,3.8,2.9,30.26,1025.8,,,,,,,,,,,,,,,Clear,72000.0,,,,,,,,,
KRDR,10-09-2015,09:58,METAR,Normal,290,6.0,,,9999.0,,3.3,2.6,30.25,1025.6,,,,,,,,,,,,,,,Clear,72000.0,,,,,,,,,
KRDR,10-09-2015,08:58,METAR,Normal,280,5.0,,,9999.0,,2.6,2.1,30.24,1025.2,,,,,,,,,,,,,,,Clear,72000.0,,,,,,,,,
KRDR,10-09-2015,07:58,METAR,Normal,240,3.0,,,9999.0,,3.0,3.0,30.24,,,,,,,,,,,,,,,,Clear,72000.0,,,,,,,,,
KRDR,10-09-2015,07:20,METAR,Normal,270,3.0,,,9999.0,,4.0,3.0,30.23,1024.8,,,,,,,,,,,,,,,Clear,72000.0,,,,,,,,,
KRDR,10-09-2015,05:58,METAR,Normal,320,2.0,,,9999.0,,8.6,5.4,30.24,1025.0,,,,,,,,,,,,,,,,2400.0,2400.0,OVC,2400.0,,,,,,
KRDR,10-09-2015,04:58,METAR,Normal,320,4.0,,,9999.0,,8.3,5.8,30.24,1025.1,,,,,,,,,,,,,,,,2800.0,2800.0,OVC,2800.0,,,,,,
KRDR,10-09-2015,03:58,METAR,Normal,320,4.0,,,9999.0,,8.6,5.9,30.23,1024.7,,,,,,,,,,,,,,,,2800.0,2800.0,OVC,2800.0,,,,,,
KRDR,10-09-2015,02:58,METAR,Normal,320,2.0,,,9999.0,,9.1,6.1,30.21,1024.1,,,,,,,,,,,,,,,,2800.0,2800.0,OVC,2800.0,,,,,,
KRDR,10-09-2015,01:58,METAR,Normal,340,5.0,,,9999.0,,9.7,6.2,30.20,1023.7,,,,,,,,,,,,,,,,2700.0,2700.0,OVC,2700.0,,,,,,
KRDR,10-09-2015,00:58,METAR,Normal,340,7.0,,,9999.0,,10.3,6.6,30.18,1023.0,,,,,,,,,,,,,,,,2600.0,2600.0,OVC,2600.0,,,,,,
KRDR,10-08-2015,23:58,METAR,Normal,340,2.0,,,9999.0,,10.5,7.0,30.16,1022.4,,,,,,,,,,,,,,,,2800.0,2800.0,OVC,2800.0,,,,,,
KRDR,10-08-2015,22:58,METAR,Normal,350,5.0,,,9999.0,,11.1,6.9,30.14,1021.6,,,,,,,,,,,,,,,,2800.0,2800.0,OVC,2800.0,,,,,,
KRDR,10-08-2015,21:58,METAR,Normal,330,8.0,,,9999.0,,11.3,6.9,30.13,1021.3,,,,,,,,,,,,,,,,2200.0,2200.0,OVC,2200.0,,,,,,
KRDR,10-08-2015,20:58,METAR,Normal,360,11.0,,,9999.0,,11.4,6.9,30.11,1020.7,,,,,,,,,,,,,,,,2400.0,2400.0,OVC,2400.0,,,,,,
KRDR,10-08-2015,19:58,METAR,Normal,10,10.0,,,9999.0,,12.0,5.9,30.10,1020.2,,,,,,,,,,,,,,,,2800.0,2800.0,OVC,2800.0,,,,,,
KRDR,10-08-2015,18:58,METAR,Normal,10,14.0,,,9999.0,,12.0,7.6,30.09,1020.0,,,,,,,,,,,,,,,,3200.0,1600.0,SCT,1600.0,OVC,3200.0,,,,
KRDR,10-08-2015,18:53,SPECI,Normal,10,14.0,20.0,,9999.0,,12.0,8.0,30.09,,,,,,,,,,,,,,,,,3200.0,1700.0,SCT,1700.0,OVC,3200.0,,,,
KRDR,10-08-2015,18:43,SPECI,Normal,10,13.0,20.0,,9999.0,,12.0,8.0,30.09,,,,,,,,,,,,,,,,,1500.0,1500.0,BKN,1500.0,OVC,3300.0,,,,
KRDR,10-08-2015,18:38,SPECI,Normal,10,15.0,20.0,,9999.0,,12.0,8.0,30.09,,,,,,,,,,,,,,,,,1500.0,1500.0,SCT,1500.0,SCT,2000.0,OVC,3300.0,,
KRDR,10-08-2015,17:53,SPECI,Normal,10,14.0,,,9999.0,,13.0,8.0,30.09,,,,,,,,,,,,,,,,,1500.0,1500.0,BKN,1500.0,BKN,3100.0,,,,
KRDR,10-08-2015,17:18,SPECI,Normal,360,13.0,18.0,,9999.0,,11.0,8.0,30.07,,,,,,,,,,,,,,,,,1200.0,1200.0,BKN,1200.0,OVC,4000.0,,,,
KRDR,10-08-2015,17:03,SPECI,Normal,10,15.0,20.0,,9999.0,,11.0,7.0,30.07,,,,,,,,,,,,,,,,,1200.0,1200.0,OVC,1200.0,,,,,,
KRDR,10-08-2015,16:58,METAR,Normal,10,14.0,20.0,,9999.0,,10.3,7.4,30.07,1019.3,,,,,,,,,,,,,,,,1000.0,1000.0,OVC,1000.0,,,,,,
KRDR,10-08-2015,16:48,SPECI,Normal,360,13.0,,,9999.0,,10.0,8.0,30.06,,,,,,,,,,,,,,,,,1100.0,1100.0,OVC,1100.0,,,,,,
KRDR,10-08-2015,15:58,METAR,Normal,10,14.0,20.0,,9999.0,,8.9,7.2,30.04,1018.3,,,,,,,,,,,,,,,,800.0,800.0,OVC,800.0,,,,,,
KRDR,10-08-2015,14:58,METAR,Normal,360,12.0,,,9999.0,,8.6,7.1,30.00,1016.8,,,,,,,,,,,,,,,,700.0,700.0,OVC,700.0,,,,,,
KRDR,10-08-2015,13:58,METAR,Normal,350,13.0,18.0,,9999.0,,8.1,6.9,29.97,1015.8,,,,,,,,,,,,,,,,700.0,700.0,OVC,700.0,,,,,,
KRDR,10-08-2015,13:43,SPECI,Variable,360,13.0,22.0,,9999.0,,8.0,7.0,29.96,,,,,,,,,,,,,,,,,700.0,700.0,OVC,700.0,,,,,,
KRDR,10-08-2015,13:38,SPECI,Normal,360,14.0,22.0,,9999.0,,8.0,7.0,29.96,,,,,,,,,,,,,,,,,800.0,800.0,OVC,800.0,,,,,,
KRDR,10-08-2015,13:03,SPECI,Normal,360,12.0,20.0,,9999.0,,8.0,7.0,29.94,,,,,,,,,,,,,,,,,700.0,700.0,OVC,700.0,,,,,,
KRDR,10-08-2015,12:58,METAR,Normal,360,11.0,18.0,,9999.0,,7.9,6.7,29.94,1014.9,,,,,,,,,,,,,,,,800.0,800.0,OVC,800.0,,,,,,
KRDR,10-08-2015,11:58,METAR,Normal,350,14.0,,,9999.0,,8.0,6.8,29.91,1013.8,,,,,,,,,,,,,,.21 IN,,800.0,800.0,OVC,800.0,,,,,,
KRDR,10-08-2015,11:13,SPECI,Normal,340,13.0,,,9999.0,,8.0,7.0,29.89,,,,,,,,,,,,,,,,,900.0,900.0,BKN,900.0,OVC,1300.0,,,,
KRDR,10-08-2015,11:08,SPECI,Normal,340,12.0,,,9999.0,,8.0,7.0,29.88,,,,,,,,,,,,,,,,,1100.0,1100.0,OVC,1100.0,,,,,,
KRDR,10-08-2015,10:58,METAR,Normal,340,12.0,18.0,,9999.0,,7.6,6.6,29.88,1012.8,,,,,,,,,,,,,,,,700.0,800.0,SCT,800.0,OVC,1300.0,,,,
KRDR,10-08-2015,10:20,SPECI,Normal,340,11.0,,,9999.0,,7.0,6.0,29.85,,,,,,,,,,,,,,,,,700.0,700.0,BKN,700.0,OVC,4300.0,,,,
KRDR,10-08-2015,10:15,SPECI,Normal,340,12.0,,,9999.0,,7.0,6.0,29.85,,,,,,,,,,,,,,,,,800.0,800.0,BKN,800.0,OVC,4300.0,,,,
KRDR,10-08-2015,09:58,METAR,Normal,340,11.0,,,9999.0,,6.9,6.2,29.84,1011.4,,,,,,,,,,,,,,,,4200.0,4200.0,OVC,4200.0,,,,,,
KRDR,10-08-2015,08:58,METAR,Normal,340,10.0,,,9999.0,,6.4,6.0,29.82,1010.7,,,,,,,,,,,,,,,Clear,72000.0,,,,,,,,,
KRDR,10-08-2015,07:58,METAR,Normal,320,8.0,,,9999.0,,6.6,6.3,29.80,1010.0,,,,,,,,,,,,,,,Clear,72000.0,,,,,,,,,
KRDR,10-08-2015,06:58,METAR,Normal,290,4.0,,,9999.0,,4.3,3.9,29.77,1009.1,,,,,,,,,,,,,,,Clear,72000.0,,,,,,,,,
KRDR,10-08-2015,05:58,METAR,Normal,170,4.0,,,9999.0,,5.8,5.1,29.77,1009.0,,,,,,,,,,,,,,,Clear,72000.0,,,,,,,,,
KRDR,10-08-2015,04:58,METAR,Normal,160,3.0,,,9999.0,,7.7,6.3,29.79,1009.7,,,,,,,,,,,,,,,Clear,72000.0,,,,,,,,,
KRDR,10-08-2015,03:58,METAR,Normal,140,5.0,,,9999.0,,9.6,7.5,29.81,1010.4,,,,,,,,,,,,,,,2/8 Mostly Clear,72000.0,4900.0,FEW,4900.0,,,,,,
KRDR,10-08-2015,02:58,METAR,Normal,150,6.0,,,9999.0,,9.9,7.8,29.82,1010.8,,,,,,,,,,,,,,,,4800.0,4800.0,BKN,4800.0,,,,,,
KRDR,10-08-2015,01:58,METAR,Normal,150,11.0,,,9999.0,,10.6,8.0,29.83,1011.2,,,,,,,,,,,,,,,2/8 Mostly Clear,72000.0,6000.0,FEW,6000.0,,,,,,
KRDR,10-08-2015,00:58,METAR,Normal,130,10.0,,,9999.0,,10.0,7.9,29.87,1012.8,,,,,,,,,,,,,,,,4900.0,4900.0,BKN,4900.0,OVC,6500.0,,,,
KRDR,10-07-2015,23:58,METAR,Normal,120,13.0,18.0,,9999.0,,10.1,7.5,29.88,1013.2,,,,,,,,,,,,,.21 IN,,,4700.0,4700.0,OVC,4700.0,,,,,,
KRDR,10-07-2015,22:58,METAR,Normal,120,11.0,,,9999.0,,9.7,7.3,29.92,1014.6,,,,,,,,,,,.01 IN,,,,,5500.0,4700.0,SCT,4700.0,OVC,5500.0,,,,
KRDR,10-07-2015,22:12,SPECI,Normal,100,12.0,,,9999.0,,9.0,7.0,29.95,,,,,,,,,,,,,,,,,10000.0,6000.0,SCT,6000.0,BKN,10000.0,,,,
KRDR,10-07-2015,21:58,METAR,Normal,100,9.0,20.0,,9999.0,Light Rain/Distant Lightning,10.0,7.0,29.93,1014.9,61,12,,,,,,,,,.2 IN,,,,,7000.0,300.0,FEW,300.0,OVC,7000.0,,,,
KRDR,10-07-2015,21:57,SPECI,Normal,100,10.0,20.0,,9999.0,Light Rain/Distant Lightning,10.0,7.0,29.93,,61,12,,,,,,,,,,,,,,7000.0,300.0,FEW,300.0,OVC,7000.0,,,,
KRDR,10-07-2015,21:52,SPECI,Normal,110,14.0,,,2000.0,Light Rain/Distant Lightning,10.0,7.0,29.94,,61,12,,,,,,,,,,,,,,6500.0,400.0,FEW,400.0,SCT,5500.0,OVC,6500.0,,
KRDR,10-07-2015,21:50,SPECI,Normal,110,14.0,,,2000.0,Thunderstorm and Rain or Snow Showers,10.0,7.0,29.96,,92,,,,,,,,,,,,,,,6000.0,400.0,FEW,400.0,OVC,6000.0,,,,
KRDR,10-07-2015,21:45,SPECI,Normal,90,13.0,,,9999.0,Thunderstorm and Rain or Snow Showers,10.0,7.0,29.98,,92,,,,,,,,,,,,,,,5500.0,400.0,FEW,400.0,SCT,4600.0,OVC,5500.0,,
KRDR,10-07-2015,21:35,SPECI,Normal,10,13.0,,,9999.0,Thunderstorm and Rain or Snow Showers,11.0,6.0,30.02,,92,,,,,,,,,,,,,,,5500.0,400.0,FEW,400.0,SCT,4700.0,OVC,5500.0,,
KRDR,10-07-2015,21:34,SPECI,Normal,10,11.0,,,9999.0,Thunderstorm and Rain or Snow Showers,11.0,6.0,30.02,,92,,,,,,,,,,,,,,,5500.0,1500.0,FEW,1500.0,OVC,5500.0,,,,
KRDR,10-07-2015,21:33,SPECI,Normal,360,11.0,,,9999.0,Light Rain/Distant Lightning,11.0,6.0,30.03,,61,12,,,,,,,,,,,,,,5500.0,1000.0,FEW,1000.0,OVC,5500.0,,,,
KRDR,10-07-2015,21:15,SPECI,Normal,140,6.0,18.0,,9999.0,Light Rain,14.0,3.0,29.95,,61,,,,,,,,,,,,,,,5500.0,5500.0,OVC,5500.0,,,,,,
KRDR,10-07-2015,20:58,METAR,Normal,130,9.0,,,9999.0,,14.2,1.6,29.95,1015.4,,,,,,,,,,,,,,,,5500.0,5500.0,OVC,5500.0,,,,,,
KRDR,10-07-2015,19:58,METAR,Normal,150,12.0,,,9999.0,,14.5,0.9,30.01,1017.4,,,,,,,,,,,,,,,,6000.0,6000.0,OVC,6000.0,,,,,,
KRDR,10-07-2015,18:58,METAR,Normal,150,15.0,20.0,,9999.0,,13.7,0.1,30.07,1019.4,,,,,,,,,,,,,,,,11000.0,9000.0,SCT,9100.0,OVC,11000.0,,,,
KRDR,10-07-2015,18:41,SPECI,Normal,140,11.0,,,9999.0,Lightning,14.0,0.0,30.09,,,,,13,,,,,,,,,,,,9000.0,9000.0,OVC,9100.0,,,,,,
KRDR,10-07-2015,17:58,METAR,Normal,160,13.0,20.0,,9999.0,,14.0,-0.1,30.11,1020.8,,,,,,,,,,,,,,,,11000.0,11000.0,BKN,11000.0,,,,,,
KRDR,10-07-2015,16:58,METAR,Normal,160,13.0,,,9999.0,,12.1,-0.4,30.15,1022.2,,,,,,,,,,,,,,,Clear,72000.0,,,,,,,,,
KRDR,10-07-2015,15:58,METAR,Normal,160,10.0,,,9999.0,,10.3,1.0,30.18,1023.3,,,,,,,,,,,,,,,Clear,72000.0,,,,,,,,,
KRDR,10-07-2015,14:58,METAR,Normal,120,5.0,,,9999.0,,6.6,0.7,30.19,1023.7,,,,,,,,,,,,,,,Clear,72000.0,,,,,,,,,
KRDR,10-07-2015,13:58,METAR,Normal,130,2.0,,,9999.0,,1.3,-1.0,30.21,1024.6,,,,,,,,,,,,,,,Clear,72000.0,,,,,,,,,
KRDR,10-07-2015,12:58,METAR,Calm,,0.0,,,9999.0,,-2.1,-4.0,30.22,1025.0,,,,,,,,,,,,,,,Clear,72000.0,,,,,,,,,
KRDR,10-07-2015,11:58,METAR,Calm,,0.0,,,9999.0,,-3.6,-5.1,30.22,1024.8,,,,,,,,,,,,,,,Clear,72000.0,,,,,,,,,
KRDR,10-07-2015,10:58,METAR,Calm,,0.0,,,9999.0,,-3.5,-5.1,30.20,1024.0,,,,,,,,,,,,,,,Clear,72000.0,,,,,,,,,
KRDR,10-07-2015,09:58,METAR,Normal,260,1.0,,,9999.0,,-2.6,-4.3,30.19,1023.6,,,,,,,,,,,,,,,Clear,72000.0,,,,,,,,,
KRDR,10-07-2015,08:58,METAR,Normal,220,2.0,,,9999.0,,-1.7,-3.8,30.20,1023.9,,,,,,,,,,,,,,,Clear,72000.0,,,,,,,,,
KRDR,10-07-2015,07:58,METAR,Normal,240,5.0,,,9999.0,,-2.2,-4.2,30.20,1023.9,,,,,,,,,,,,,,,Clear,72000.0,,,,,,,,,
KRDR,10-07-2015,06:58,METAR,Normal,230,2.0,,,9999.0,,-1.3,-3.2,30.20,1023.9,,,,,,,,,,,,,,,Clear,72000.0,,,,,,,,,
KRDR,10-07-2015,05:58,METAR,Normal,230,4.0,,,9999.0,,-0.8,-3.1,30.20,1023.9,,,,,,,,,,,,,,,Clear,72000.0,,,,,,,,,
KRDR,10-07-2015,05:23,SPECI,Normal,250,3.0,,,9999.0,,0.0,-3.0,30.20,,,,,,,,,,,,,,,,Clear,72000.0,,,,,,,,,
KRDR,10-07-2015,05:08,SPECI,Normal,250,1.0,,,9999.0,,0.0,-3.0,30.20,,,,,,,,,,,,,,,,Clear,72000.0,,,,,,,,,
KRDR,10-07-2015,04:58,METAR,Normal,270,2.0,,,9999.0,,-0.1,-2.8,30.20,1023.9,,,,,,,,,,,,,,,Clear,72000.0,,,,,,,,,
KRDR,10-07-2015,03:58,METAR,Normal,280,2.0,,,9999.0,,0.1,-2.8,30.20,1023.9,,,,,,,,,,,,,,,Clear,72000.0,,,,,,,,,
KRDR,10-07-2015,03:33,SPECI,Calm,,0.0,,,9999.0,,0.0,-2.0,30.20,,,,,,,,,,,,,,,,Clear,72000.0,,,,,,,,,
KRDR,10-07-2015,03:08,SPECI,Normal,250,3.0,,,9999.0,,1.0,-2.0,30.20,,,,,,,,,,,,,,,,Clear,72000.0,,,,,,,,,
KRDR,10-07-2015,02:58,METAR,Normal,250,4.0,,,9999.0,,1.2,-2.4,30.20,1024.0,,,,,,,,,,,,,,,Clear,72000.0,,,,,,,,,
KRDR,10-07-2015,02:28,SPECI,Normal,250,3.0,,,9999.0,,2.0,-2.0,30.20,,,,,,,,,,,,,,,,Clear,72000.0,,,,,,,,,
KRDR,10-07-2015,02:08,SPECI,Normal,270,2.0,,,9999.0,,2.0,-2.0,30.19,,,,,,,,,,,,,,,,Clear,72000.0,,,,,,,,,
KRDR,10-07-2015,01:58,METAR,Normal,270,3.0,,,9999.0,,2.5,-1.7,30.19,1023.7,,,,,,,,,,,,,,,Clear,72000.0,,,,,,,,,
KRDR,10-07-2015,01:43,SPECI,Normal,260,3.0,,,9999.0,,3.0,-1.0,30.19,,,,,,,,,,,,,,,,Clear,72000.0,,,,,,,,,
KRDR,10-07-2015,00:58,METAR,Calm,,0.0,,,9999.0,,4.1,-0.6,30.18,1023.4,,,,,,,,,,,,,,,Clear,72000.0,,,,,,,,,
KRDR,10-06-2015,23:58,METAR,Normal,40,5.0,,,9999.0,,9.3,0.2,30.18,1023.2,,,,,,,,,,,,,,,Clear,72000.0,,,,,,,,,
KRDR,10-06-2015,22:58,METAR,Normal,20,7.0,,,9999.0,,12.7,-1.0,30.18,1023.1,,,,,,,,,,,,,,,Clear,72000.0,,,,,,,,,
KRDR,10-06-2015,21:58,METAR,Normal,20,8.0,,,9999.0,,13.8,-1.0,30.18,1023.1,,,,,,,,,,,,,,,Clear,72000.0,,,,,,,,,
KRDR,10-06-2015,20:58,METAR,Normal,360,12.0,15.0,,9999.0,,14.4,-0.7,30.17,1022.8,,,,,,,,,,,,,,,Clear,72000.0,,,,,,,,,
KRDR,10-06-2015,19:58,METAR,Normal,330,11.0,17.0,,9999.0,,14.8,-1.2,30.17,1022.7,,,,,,,,,,,,,,,Clear,72000.0,,,,,,,,,
KRDR,10-06-2015,18:58,METAR,Normal,330,13.0,18.0,,9999.0,,13.9,-0.8,30.18,1023.1,,,,,,,,,,,,,,,Clear,72000.0,,,,,,,,,
KRDR,10-06-2015,17:58,METAR,Normal,330,9.0,18.0,,9999.0,,13.4,0.7,30.19,1023.5,,,,,,,,,,,,,,,Clear,72000.0,,,,,,,,,
KRDR,10-06-2015,16:58,METAR,Normal,330,9.0,17.0,,9999.0,,12.3,1.2,30.19,1023.5,,,,,,,,,,,,,,,Clear,72000.0,,,,,,,,,
KRDR,10-06-2015,15:58,METAR,Normal,340,10.0,,,9999.0,,10.9,2.0,30.19,1023.5,,,,,,,,,,,,,,,Clear,72000.0,,,,,,,,,
KRDR,10-06-2015,14:58,METAR,Normal,330,9.0,,,9999.0,,8.6,3.8,30.18,1023.2,,,,,,,,,,,,,,,Clear,72000.0,,,,,,,,,
KRDR,10-06-2015,13:58,METAR,Normal,310,7.0,,,9999.0,,6.2,4.1,30.17,1022.8,,,,,,,,,,,,,,,Clear,72000.0,,,,,,,,,
KRDR,10-06-2015,12:58,METAR,Normal,280,5.0,,,9999.0,,2.6,1.9,30.15,1022.2,,,,,,,,,,,,,,,Clear,72000.0,,,,,,,,,
KRDR,10-06-2015,12:13,SPECI,Normal,290,5.0,,,9999.0,,5.0,4.0,30.15,,,,,,,,,,,,,,,,,2500.0,2500.0,OVC,2500.0,,,,,,
KRDR,10-06-2015,11:58,METAR,Normal,290,6.0,,,9999.0,,3.6,3.0,30.15,1022.1,,,,,,,,,,,,,,,,2800.0,2800.0,OVC,2800.0,,,,,,
KRDR,10-06-2015,11:29,SPECI,Normal,280,5.0,,,9999.0,,3.0,2.0,30.15,,,,,,,,,,,,,,,,,3100.0,3100.0,BKN,3100.0,,,,,,
KRDR,10-06-2015,11:24,SPECI,Normal,310,6.0,,,9999.0,,2.0,2.0,30.15,,,,,,,,,,,,,,,,2/8 Mostly Clear,72000.0,3200.0,FEW,3200.0,,,,,,
KRDR,10-06-2015,11:14,SPECI,Normal,300,5.0,,,9999.0,Mist,2.0,2.0,30.14,,10,,,,,,,,,,,,,,Clear,72000.0,,,,,,,,,
KRDR,10-06-2015,11:09,SPECI,Normal,290,5.0,,,9999.0,,3.0,2.0,30.14,,,,,,,,,,,,,,,,Clear,72000.0,,,,,,,,,
KRDR,10-06-2015,10:58,METAR,Normal,280,6.0,,,9999.0,,2.2,1.7,30.14,1021.7,,,,,,,,,,,,,,,Clear,72000.0,,,,,,,,,
KRDR,10-06-2015,09:58,METAR,Normal,280,4.0,,,9999.0,,2.5,1.8,30.13,1021.3,,,,,,,,,,,,,,,Clear,72000.0,,,,,,,,,
KRDR,10-06-2015,08:58,METAR,Normal,270,6.0,,,9999.0,,2.3,1.6,30.13,1021.3,,,,,,,,,,,,,,,Clear,72000.0,,,,,,,,,
KRDR,10-06-2015,07:58,METAR,Normal,280,4.0,,,9999.0,,2.1,1.3,30.12,1021.0,,,,,,,,,,,,,,,Clear,72000.0,,,,,,,,,
KRDR,10-06-2015,06:58,METAR,Normal,260,3.0,,,9999.0,,2.1,1.2,30.12,1021.1,,,,,,,,,,,,,,,Clear,72000.0,,,,,,,,,
KRDR,10-06-2015,05:58,METAR,Normal,250,4.0,,,9999.0,,2.8,1.9,30.12,1021.1,,,,,,,,,,,,,,,Clear,72000.0,,,,,,,,,
KRDR,10-06-2015,04:58,METAR,Normal,240,5.0,,,9999.0,,3.7,2.4,30.12,1021.0,,,,,,,,,,,,,,,2/8 Mostly Clear,72000.0,8000.0,FEW,8000.0,,,,,,
KRDR,10-06-2015,03:58,METAR,Normal,270,5.0,,,9999.0,,3.2,1.9,30.10,1020.4,,,,,,,,,,,,,,,Clear,72000.0,,,,,,,,,
KRDR,10-06-2015,02:58,METAR,Normal,240,4.0,,,9999.0,,4.4,2.7,30.10,1020.4,,,,,,,,,,,,,,,Clear,72000.0,,,,,,,,,
KRDR,10-06-2015,01:58,METAR,Normal,310,4.0,,,9999.0,,7.1,4.2,30.09,1019.9,,,,,,,,,,,,,,,Clear,72000.0,,,,,,,,,
KRDR,10-06-2015,00:58,METAR,Normal,340,7.0,,,9999.0,,9.8,5.0,30.09,1019.8,,,,,,,,,,,,,,,Clear,72000.0,,,,,,,,,
KRDR,10-05-2015,23:58,METAR,Normal,340,6.0,,,9999.0,,12.6,5.8,30.07,1019.1,,,,,,,,,,,,,TRACE,,Clear,72000.0,,,,,,,,,
KRDR,10-05-2015,22:58,METAR,Normal,310,7.0,,,9999.0,,15.6,6.0,30.06,1018.6,,,,,,,,,,,,,,,2/8 Mostly Clear,72000.0,4400.0,FEW,4400.0,,,,,,
KRDR,10-05-2015,21:58,METAR,Normal,270,9.0,,,9999.0,,16.5,5.6,30.05,1018.3,,,,,,,,,,,,,,,Clear,72000.0,,,,,,,,,
KRDR,10-05-2015,20:58,METAR,Normal,260,7.0,,,9999.0,,16.8,6.2,30.05,1018.2,,,,,,,,,,,,TRACE,,,Clear,72000.0,,,,,,,,,
KRDR,10-05-2015,19:58,METAR,Normal,270,9.0,,,9999.0,,14.5,7.3,30.07,1019.0,,,,,,,,,,,,,,,,8500.0,2900.0,FEW,2900.0,BKN,8600.0,,,,
KRDR,10-05-2015,18:58,METAR,Normal,280,9.0,,,9999.0,,13.0,8.0,30.08,1019.4,,,,,,,,,,,TRACE,,,,,6000.0,6000.0,OVC,6000.0,,,,,,
KRDR,10-05-2015,18:32,SPECI,Normal,280,7.0,,,9999.0,,13.0,8.0,30.09,,,,,,,,,,,,,,,,,6000.0,6000.0,OVC,6000.0,,,,,,
KRDR,10-05-2015,18:20,SPECI,Normal,280,8.0,,,9999.0,Light Rain,13.0,8.0,30.09,,61,,,,,,,,,,,,,,,5500.0,5500.0,OVC,5500.0,,,,,,
KRDR,10-05-2015,18:16,SPECI,Normal,290,8.0,,,9999.0,,13.0,8.0,30.09,,,,,,,,,,,,,,,,,5500.0,5500.0,OVC,5500.0,,,,,,
KRDR,10-05-2015,18:05,SPECI,Normal,280,8.0,,,9999.0,Light Rain,13.0,8.0,30.09,,61,,,,,,,,,,,,,,,5500.0,5500.0,OVC,5500.0,,,,,,
KRDR,10-05-2015,17:58,METAR,Normal,280,9.0,,,9999.0,,12.9,7.9,30.08,1019.4,,,,,,,,,,,,,TRACE,,,5500.0,5500.0,OVC,5500.0,,,,,,
KRDR,10-05-2015,16:58,METAR,Normal,270,7.0,,,9999.0,,12.6,8.7,30.08,1019.4,,,,,,,,,,,TRACE,,,,,5500.0,5500.0,OVC,5500.0,,,,,,
KRDR,10-05-2015,16:42,SPECI,Normal,290,8.0,,,9999.0,,13.0,9.0,30.09,,,,,,,,,,,,,,,,,5500.0,5500.0,OVC,5500.0,,,,,,
KRDR,10-05-2015,16:27,SPECI,Normal,290,8.0,,,9999.0,Light Rain,13.0,8.0,30.09,,61,,,,,,,,,,,,,,,5500.0,5500.0,BKN,5500.0,OVC,8000.0,,,,
KRDR,10-05-2015,15:58,METAR,Normal,260,7.0,,,9999.0,,12.9,9.0,30.08,1019.4,,,,,,,,,,,TRACE,,,,,7000.0,4100.0,FEW,4100.0,OVC,7000.0,,,,
KRDR,10-05-2015,15:26,SPECI,Normal,220,6.0,,,9999.0,,12.0,9.0,30.08,,,,,,,,,,,,,,,,,5500.0,5500.0,BKN,5500.0,OVC,6500.0,,,,
KRDR,10-05-2015,15:20,SPECI,Normal,220,5.0,,,9999.0,Light Rain,12.0,9.0,30.08,,61,,,,,,,,,,,,,,,5500.0,5500.0,OVC,5500.0,,,,,,
KRDR,10-05-2015,15:19,SPECI,Normal,230,5.0,,,9999.0,,12.0,9.0,30.08,,,,,,,,,,,,,,,,,5500.0,5500.0,OVC,5500.0,,,,,,
KRDR,10-05-2015,15:09,SPECI,Normal,230,6.0,,,9999.0,Light Rain,12.0,9.0,30.08,,61,,,,,,,,,,,,,,,6000.0,4800.0,FEW,4800.0,OVC,6000.0,,,,
KRDR,10-05-2015,14:58,METAR,Normal,240,5.0,,,9999.0,,12.3,8.7,30.08,1019.4,,,,,,,,,,,,,,,,6500.0,6500.0,OVC,6500.0,,,,,,
KRDR,10-05-2015,13:58,METAR,Normal,220,6.0,,,9999.0,,12.3,7.9,30.07,1019.0,,,,,,,,,,,,,,,,5500.0,5500.0,BKN,5500.0,OVC,6500.0,,,,
KRDR,10-05-2015,12:58,METAR,Normal,210,7.0,,,9999.0,,12.1,7.6,30.07,1019.0,,,,,,,,,,,,,,,,5000.0,5000.0,OVC,5000.0,,,,,,
KRDR,10-05-2015,11:58,METAR,Normal,220,6.0,,,9999.0,,12.3,7.5,30.07,1019.0,,,,,,,,,,,,,,,,3500.0,3500.0,BKN,3500.0,OVC,4700.0,,,,
KRDR,10-05-2015,10:58,METAR,Normal,210,8.0,,,9999.0,,12.2,7.2,30.07,1019.0,,,,,,,,,,,,,,,,4200.0,2900.0,SCT,2900.0,OVC,4200.0,,,,
KRDR,10-05-2015,09:58,METAR,Normal,210,9.0,,,9999.0,,12.4,6.9,30.07,1019.0,,,,,,,,,,,,,,,,3000.0,3000.0,OVC,3000.0,,,,,,
KRDR,10-05-2015,08:58,METAR,Normal,210,9.0,,,9999.0,,12.4,6.5,30.07,1019.0,,,,,,,,,,,,,,,,3100.0,3100.0,OVC,3100.0,,,,,,
KRDR,10-05-2015,07:58,METAR,Normal,180,10.0,,,9999.0,,12.3,6.0,30.08,1019.3,,,,,,,,,,,,,,,,3600.0,3600.0,OVC,3600.0,,,,,,
KRDR,10-05-2015,06:58,METAR,Normal,190,9.0,,,9999.0,,12.6,5.6,30.09,1019.7,,,,,,,,,,,,,,,,4100.0,4100.0,OVC,4100.0,,,,,,
KRDR,10-05-2015,05:58,METAR,Normal,180,12.0,,,9999.0,,12.9,5.9,30.10,1020.1,,,,,,,,,,,,,,,,4600.0,4600.0,OVC,4600.0,,,,,,
KRDR,10-05-2015,04:58,METAR,Normal,180,12.0,,,9999.0,,13.2,5.4,30.11,1020.4,,,,,,,,,,,,,,,,5000.0,5000.0,OVC,5000.0,,,,,,
KRDR,10-05-2015,03:58,METAR,Normal,190,11.0,17.0,,9999.0,,13.5,4.7,30.11,1020.4,,,,,,,,,,,,,,,,5500.0,5500.0,OVC,5500.0,,,,,,
KRDR,10-05-2015,02:58,METAR,Normal,190,13.0,,,9999.0,,13.7,4.2,30.10,1020.1,,,,,,,,,,,,,,,,5500.0,5500.0,OVC,5500.0,,,,,,
KRDR,10-05-2015,01:58,METAR,Normal,180,10.0,,,9999.0,,13.7,4.5,30.11,1020.5,,,,,,,,,,,,,,,,6000.0,6000.0,OVC,6000.0,,,,,,
KRDR,10-05-2015,00:58,METAR,Normal,170,9.0,,,9999.0,,14.1,4.2,30.11,1020.5,,,,,,,,,,,,,,,,6000.0,6000.0,OVC,6000.0,,,,,,
KRDR,10-04-2015,23:58,METAR,Normal,160,12.0,,,9999.0,,14.5,3.5,30.11,1020.5,,,,,,,,,,,,,,,,7000.0,7000.0,OVC,7000.0,,,,,,
KRDR,10-04-2015,22:58,METAR,Normal,160,12.0,,,9999.0,,14.8,2.9,30.11,1020.5,,,,,,,,,,,,,,,,9000.0,9000.0,OVC,9100.0,,,,,,
KRDR,10-04-2015,21:58,METAR,Normal,170,16.0,,,9999.0,,15.8,2.6,30.12,1020.7,,,,,,,,,,,,,,,,8000.0,8000.0,OVC,8000.0,,,,,,
KRDR,10-04-2015,20:58,METAR,Normal,170,12.0,,,9999.0,,15.7,2.3,30.13,1021.1,,,,,,,,,,,,,,,,8500.0,8500.0,OVC,8600.0,,,,,,
KRDR,10-04-2015,19:58,METAR,Normal,190,12.0,,,9999.0,,15.6,2.9,30.14,1021.4,,,,,,,,,,,,,,,,9000.0,9000.0,BKN,9100.0,,,,,,
KRDR,10-04-2015,18:58,METAR,Normal,200,8.0,,,9999.0,,14.7,3.6,30.17,1022.4,,,,,,,,,,,,,,,4/8 Partly Cloudy,72000.0,6000.0,FEW,6000.0,SCT,12000.0,,,,
KRDR,10-04-2015,17:58,METAR,Normal,180,11.0,,,9999.0,,13.8,4.5,30.19,1023.2,,,,,,,,,,,,,TRACE,,4/8 Partly Cloudy,72000.0,12000.0,SCT,12000.0,,,,,,
KRDR,10-04-2015,16:58,METAR,Normal,180,9.0,,,9999.0,,12.0,5.0,30.21,1023.9,,,,,,,,,,,TRACE,,,,2/8 Mostly Clear,72000.0,10000.0,FEW,10000.0,,,,,,
KRDR,10-04-2015,16:54,SPECI,Normal,180,10.0,,,9999.0,,12.0,6.0,30.21,,,,,,,,,,,,,,,,2/8 Mostly Clear,72000.0,10000.0,FEW,10000.0,,,,,,
KRDR,10-04-2015,16:52,SPECI,Normal,180,11.0,,,9999.0,Light Rain,12.0,6.0,30.21,,61,,,,,,,,,,,,,,2/8 Mostly Clear,72000.0,9500.0,FEW,9600.0,,,,,,
KRDR,10-04-2015,16:47,SPECI,Normal,170,10.0,,,9999.0,,11.0,6.0,30.21,,,,,,,,,,,,,,,,Clear,72000.0,,,,,,,,,
KRDR,10-04-2015,16:40,SPECI,Normal,170,10.0,,,9999.0,Light Rain,12.0,4.0,30.21,,61,,,,,,,,,,,,,,2/8 Mostly Clear,72000.0,9000.0,FEW,9100.0,,,,,,
KRDR,10-04-2015,15:58,METAR,Normal,190,11.0,,,9999.0,,12.0,4.5,30.22,1024.2,,,,,,,,,,,,,,,,10000.0,10000.0,OVC,10000.0,,,,,,
KRDR,10-04-2015,14:58,METAR,Normal,170,12.0,,,9999.0,,10.5,4.5,30.23,1024.6,,,,,,,,,,,,,,,,9500.0,9500.0,OVC,9600.0,,,,,,
KRDR,10-04-2015,13:58,METAR,Normal,140,9.0,,,9999.0,,8.5,4.3,30.22,1024.3,,,,,,,,,,,,,,,Clear,72000.0,,,,,,,,,
KRDR,10-04-2015,12:58,METAR,Normal,140,9.0,,,9999.0,,8.1,4.0,30.22,1024.3,,,,,,,,,,,,,,,2/8 Mostly Clear,72000.0,10000.0,FEW,10000.0,,,,,,
KRDR,10-04-2015,11:58,METAR,Normal,150,7.0,,,9999.0,,8.3,3.8,30.22,1024.3,,,,,,,,,,,,,,,,11000.0,11000.0,BKN,11000.0,,,,,,
KRDR,10-04-2015,10:58,METAR,Normal,150,8.0,,,9999.0,,8.8,3.5,30.23,1024.5,,,,,,,,,,,,,,,2/8 Mostly Clear,72000.0,11000.0,FEW,11000.0,,,,,,
KRDR,10-04-2015,09:58,METAR,Normal,150,9.0,,,9999.0,,9.2,3.3,30.23,1024.5,,,,,,,,,,,,,,,,12000.0,12000.0,OVC,12000.0,,,,,,
KRDR,10-04-2015,08:58,METAR,Normal,150,8.0,,,9999.0,,9.2,3.3,30.24,1024.8,,,,,,,,,,,,,,,2/8 Mostly Clear,72000.0,12000.0,FEW,12000.0,,,,,,
KRDR,10-04-2015,07:58,METAR,Normal,150,8.0,,,9999.0,,10.0,3.3,30.25,1025.2,,,,,,,,,,,,,,,Clear,72000.0,,,,,,,,,
KRDR,10-04-2015,06:58,METAR,Normal,160,8.0,,,9999.0,,10.5,2.8,30.25,1025.2,,,,,,,,,,,,,,,,12000.0,12000.0,BKN,12000.0,,,,,,
KRDR,10-04-2015,05:58,METAR,Normal,150,6.0,,,9999.0,,9.9,2.0,30.26,1025.6,,,,,,,,,,,,,,,2/8 Mostly Clear,72000.0,12000.0,FEW,12000.0,,,,,,
KRDR,10-04-2015,04:58,METAR,Normal,140,7.0,,,9999.0,,10.6,1.2,30.25,1025.2,,,,,,,,,,,,,,,4/8 Partly Cloudy,72000.0,12000.0,SCT,12000.0,,,,,,
KRDR,10-04-2015,03:58,METAR,Normal,140,8.0,,,9999.0,,10.5,0.8,30.25,1025.4,,,,,,,,,,,,,,,Clear,72000.0,,,,,,,,,
KRDR,10-04-2015,02:58,METAR,Normal,140,5.0,,,9999.0,,10.7,0.5,30.25,1025.4,,,,,,,,,,,,,,,Clear,72000.0,,,,,,,,,
KRDR,10-04-2015,01:58,METAR,Normal,140,6.0,,,9999.0,,10.6,0.3,30.25,1025.4,,,,,,,,,,,,,,,Clear,72000.0,,,,,,,,,
KRDR,10-04-2015,00:58,METAR,Normal,140,5.0,,,9999.0,,11.6,0.7,30.24,1025.2,,,,,,,,,,,,,,,Clear,72000.0,,,,,,,,,
KRDR,10-03-2015,23:58,METAR,Normal,160,6.0,,,9999.0,,12.8,0.9,30.24,1025.2,,,,,,,,,,,,,,,Clear,72000.0,,,,,,,,,
KRDR,10-03-2015,22:58,METAR,Normal,150,8.0,,,9999.0,,14.6,0.6,30.23,1024.7,,,,,,,,,,,,,,,Clear,72000.0,,,,,,,,,
KRDR,10-03-2015,21:58,METAR,Normal,150,13.0,,,9999.0,,16.1,1.9,30.24,1025.1,,,,,,,,,,,,,,,Clear,72000.0,,,,,,,,,
KRDR,10-03-2015,20:58,METAR,Normal,130,9.0,19.0,,9999.0,,16.5,2.0,30.25,1025.4,,,,,,,,,,,,,,,Clear,72000.0,,,,,,,,,
KRDR,10-03-2015,19:58,METAR,Normal,160,12.0,20.0,,9999.0,,15.7,3.0,30.26,1025.7,,,,,,,,,,,,,,,Clear,72000.0,,,,,,,,,
KRDR,10-03-2015,19:50,SPECI,Normal,170,14.0,18.0,,9999.0,,15.0,3.0,30.26,,,,,,,,,,,,,,,,Clear,72000.0,,,,,,,,,
KRDR,10-03-2015,19:24,SPECI,Normal,170,15.0,23.0,,9999.0,,15.0,3.0,30.27,,,,,,,,,,,,,,,,Clear,72000.0,,,,,,,,,
KRDR,10-03-2015,18:58,METAR,Normal,160,13.0,,,9999.0,,13.6,3.9,30.28,1026.5,,,,,,,,,,,,,,,Clear,72000.0,,,,,,,,,
KRDR,10-03-2015,17:58,METAR,Normal,170,10.0,,,9999.0,,12.5,4.4,30.30,1027.1,,,,,,,,,,,,,,,2/8 Mostly Clear,72000.0,3200.0,FEW,3200.0,,,,,,
KRDR,10-03-2015,16:58,METAR,Normal,160,11.0,,,9999.0,,11.2,4.2,30.31,1027.5,,,,,,,,,,,,,,,Clear,72000.0,,,,,,,,,
KRDR,10-03-2015,15:58,METAR,Normal,170,15.0,,,9999.0,,9.3,3.7,30.33,1028.2,,,,,,,,,,,,,,,Clear,72000.0,,,,,,,,,
KRDR,10-03-2015,14:58,METAR,Normal,150,12.0,,,9999.0,,8.4,3.5,30.33,1028.2,,,,,,,,,,,,,,,Clear,72000.0,,,,,,,,,
KRDR,10-03-2015,13:58,METAR,Normal,150,9.0,,,9999.0,,5.2,2.6,30.33,1028.2,,,,,,,,,,,,,,,Clear,72000.0,,,,,,,,,
KRDR,10-03-2015,12:58,METAR,Normal,140,7.0,,,9999.0,,2.8,1.5,30.32,1028.0,,,,,,,,,,,,,,,Clear,72000.0,,,,,,,,,
KRDR,10-03-2015,11:58,METAR,Normal,140,7.0,,,9999.0,,2.5,1.0,30.32,1027.8,,,,,,,,,,,,,,,Clear,72000.0,,,,,,,,,
KRDR,10-03-2015,10:58,METAR,Normal,140,6.0,,,9999.0,,2.0,0.1,30.33,1028.2,,,,,,,,,,,,,,,Clear,72000.0,,,,,,,,,
KRDR,10-03-2015,09:58,METAR,Normal,140,5.0,,,9999.0,,1.8,-0.6,30.33,1028.1,,,,,,,,,,,,,,,Clear,72000.0,,,,,,,,,
KRDR,10-03-2015,08:58,METAR,Normal,140,4.0,,,9999.0,,2.4,-0.7,30.33,1028.1,,,,,,,,,,,,,,,Clear,72000.0,,,,,,,,,
KRDR,10-03-2015,07:58,METAR,Normal,140,5.0,,,9999.0,,2.7,-0.7,30.32,1027.7,,,,,,,,,,,,,,,Clear,72000.0,,,,,,,,,
KRDR,10-03-2015,06:58,METAR,Normal,150,5.0,,,9999.0,,3.6,-0.7,30.33,1028.1,,,,,,,,,,,,,,,Clear,72000.0,,,,,,,,,
KRDR,10-03-2015,05:58,METAR,Normal,150,5.0,,,9999.0,,4.0,-1.3,30.33,1028.1,,,,,,,,,,,,,,,Clear,72000.0,,,,,,,,,
KRDR,10-03-2015,04:58,METAR,Normal,150,5.0,,,9999.0,,5.4,-0.9,30.33,1028.1,,,,,,,,,,,,,,,Clear,72000.0,,,,,,,,,
KRDR,10-03-2015,03:58,METAR,Normal,140,7.0,,,9999.0,,6.7,-1.0,30.31,1027.4,,,,,,,,,,,,,,,Clear,72000.0,,,,,,,,,
KRDR,10-03-2015,02:58,METAR,Normal,140,6.0,,,9999.0,,7.5,-1.5,30.32,1027.9,,,,,,,,,,,,,,,Clear,72000.0,,,,,,,,,
KRDR,10-03-2015,01:58,METAR,Normal,150,6.0,,,9999.0,,9.6,-1.3,30.33,1028.2,,,,,,,,,,,,,,,Clear,72000.0,,,,,,,,,
KRDR,10-03-2015,00:58,METAR,Normal,140,4.0,,,9999.0,,10.8,-1.4,30.32,1027.9,,,,,,,,,,,,,,,Clear,72000.0,,,,,,,,,
KRDR,10-02-2015,23:58,METAR,Normal,140,9.0,,,9999.0,,13.9,-1.9,30.32,1027.8,,,,,,,,,,,,,,,Clear,72000.0,,,,,,,,,
KRDR,10-02-2015,22:58,METAR,Normal,150,12.0,,,9999.0,,16.6,-3.5,30.33,1028.1,,,,,,,,,,,,,,,Clear,72000.0,,,,,,,,,
KRDR,10-02-2015,21:58,METAR,Normal,140,12.0,,,9999.0,,17.2,-3.7,30.33,1028.0,,,,,,,,,,,,,,,Clear,72000.0,,,,,,,,,
KRDR,10-02-2015,20:58,METAR,Normal,150,17.0,21.0,,9999.0,,17.7,-2.7,30.35,1028.6,,,,,,,,,,,,,,,Clear,72000.0,,,,,,,,,
KRDR,10-02-2015,20:25,SPECI,Normal,160,14.0,21.0,,9999.0,,18.0,-1.0,30.37,,,,,,,,,,,,,,,,Clear,72000.0,,,,,,,,,
KRDR,10-02-2015,20:11,SPECI,Normal,120,14.0,,,9999.0,,18.0,0.0,30.37,,,,,,,,,,,,,,,,Clear,72000.0,,,,,,,,,
KRDR,10-02-2015,19:58,METAR,Normal,160,14.0,21.0,,9999.0,,18.1,-0.8,30.37,1029.3,,,,,,,,,,,,,,,Clear,72000.0,,,,,,,,,
KRDR,10-02-2015,18:58,METAR,Normal,140,13.0,21.0,,9999.0,,16.7,0.4,30.41,1030.6,,,,,,,,,,,,,,,Clear,72000.0,,,,,,,,,
KRDR,10-02-2015,17:58,METAR,Normal,140,16.0,20.0,,9999.0,,15.5,1.8,30.44,1031.6,,,,,,,,,,,,,,,Clear,72000.0,,,,,,,,,
KRDR,10-02-2015,16:58,METAR,Normal,140,16.0,20.0,,9999.0,,15.1,3.1,30.44,1031.6,,,,,,,,,,,,,,,Clear,72000.0,,,,,,,,,
KRDR,10-02-2015,15:58,METAR,Normal,140,14.0,,,9999.0,,12.2,3.3,30.46,1032.3,,,,,,,,,,,,,,,Clear,72000.0,,,,,,,,,
KRDR,10-02-2015,14:58,METAR,Normal,150,10.0,,,9999.0,,9.1,3.3,30.47,1032.7,,,,,,,,,,,,,,,Clear,72000.0,,,,,,,,,
KRDR,10-02-2015,13:58,METAR,Normal,140,7.0,,,9999.0,,6.0,2.6,30.48,1033.1,,,,,,,,,,,,,,,Clear,72000.0,,,,,,,,,
KRDR,10-02-2015,12:58,METAR,Normal,130,6.0,,,9999.0,,4.0,1.9,30.47,1032.9,,,,,,,,,,,,,,,Clear,72000.0,,,,,,,,,
KRDR,10-02-2015,11:58,METAR,Normal,130,6.0,,,9999.0,,4.4,2.1,30.47,1032.9,,,,,,,,,,,,,,,Clear,72000.0,,,,,,,,,
KRDR,10-02-2015,10:58,METAR,Normal,140,6.0,,,9999.0,,4.2,1.8,30.47,1032.8,,,,,,,,,,,,,,,Clear,72000.0,,,,,,,,,
KRDR,10-02-2015,09:58,METAR,Normal,130,9.0,,,9999.0,,5.1,2.0,30.47,1032.7,,,,,,,,,,,,,,,Clear,72000.0,,,,,,,,,
KRDR,10-02-2015,08:58,METAR,Normal,130,8.0,,,9999.0,,7.1,2.5,30.46,1032.3,,,,,,,,,,,,,,,Clear,72000.0,,,,,,,,,
KRDR,10-02-2015,07:58,METAR,Normal,130,10.0,,,9999.0,,7.3,2.4,30.46,1032.3,,,,,,,,,,,,,,,Clear,72000.0,,,,,,,,,
KRDR,10-02-2015,06:58,METAR,Normal,130,10.0,,,9999.0,,8.0,2.6,30.46,1032.3,,,,,,,,,,,,,,,Clear,72000.0,,,,,,,,,
KRDR,10-02-2015,05:58,METAR,Normal,130,10.0,,,9999.0,,10.2,2.9,30.46,1032.3,,,,,,,,,,,,,,,,12000.0,12000.0,BKN,12000.0,,,,,,
KRDR,10-02-2015,04:58,METAR,Normal,130,7.0,,,9999.0,,11.2,3.7,30.45,1031.9,,,,,,,,,,,,,,,,12000.0,12000.0,BKN,12000.0,,,,,,
KRDR,10-02-2015,03:58,METAR,Normal,140,7.0,,,9999.0,,12.6,2.8,30.44,1031.5,,,,,,,,,,,,,,,,11000.0,11000.0,OVC,11000.0,,,,,,
KRDR,10-02-2015,02:58,METAR,Normal,140,7.0,,,9999.0,,13.7,3.6,30.42,1030.9,,,,,,,,,,,,,,,2/8 Mostly Clear,72000.0,12000.0,FEW,12000.0,,,,,,
KRDR,10-02-2015,01:58,METAR,Normal,120,6.0,,,9999.0,,14.6,3.5,30.40,1030.3,,,,,,,,,,,,,,,,12000.0,12000.0,OVC,12000.0,,,,,,
KRDR,10-02-2015,00:58,METAR,Normal,160,6.0,,,9999.0,,15.8,2.9,30.40,1030.3,,,,,,,,,,,,,,,Clear,12000.0,,,,,,,,,
KRDR,10-01-2015,23:58,METAR,Normal,180,8.0,,,9999.0,,16.3,2.8,30.38,1029.7,,,,,,,,,,,,,,,Clear,72000.0,,,,,,,,,
KRDR,10-01-2015,22:58,METAR,Normal,150,9.0,,,9999.0,,17.4,3.2,30.38,1029.5,,,,,,,,,,,,,,,,11000.0,11000.0,BKN,11000.0,,,,,,
KRDR,10-01-2015,21:58,METAR,Normal,190,14.0,18.0,,9999.0,,18.0,3.0,30.37,1029.1,,,,,,,,,,,,,,,Clear,72000.0,,,,,,,,,
KRDR,10-01-2015,20:58,METAR,Normal,140,17.0,24.0,160/26KTS,9999.0,,20.3,2.9,30.37,1029.1,,,,,,,,,,,,,,,,10000.0,10000.0,BKN,10000.0,,,,,,
KRDR,10-01-2015,19:58,METAR,Normal,150,17.0,28.0,160/30KTS,9999.0,,19.5,2.2,30.37,1029.1,,,,,,,,,,,,,,,,10000.0,10000.0,BKN,10000.0,,,,,,
KRDR,10-01-2015,18:58,METAR,Normal,150,18.0,24.0,160/27KTS,9999.0,,20.0,2.0,30.37,1029.0,,,,,,,,,,,,,,,4/8 Partly Cloudy,72000.0,10000.0,SCT,10000.0,,,,,,
KRDR,10-01-2015,17:58,METAR,Normal,150,18.0,24.0,160/28KTS,9999.0,,17.3,0.1,30.37,1029.1,,,,,,,,,,,,,,,,10000.0,10000.0,BKN,10000.0,,,,,,
KRDR,10-01-2015,16:58,METAR,Normal,140,14.0,27.0,,9999.0,,17.7,1.3,30.35,1028.3,,,,,,,,,,,,,,,Clear,72000.0,,,,,,,,,
KRDR,10-01-2015,15:58,METAR,Normal,150,15.0,23.0,,9999.0,,16.3,2.0,30.34,1028.0,,,,,,,,,,,,,,,,10000.0,10000.0,BKN,10000.0,,,,,,
KRDR,10-01-2015,14:58,METAR,Normal,150,16.0,23.0,,9999.0,,13.3,2.4,30.33,1027.8,,,,,,,,,,,,,,,2/8 Mostly Clear,72000.0,9000.0,FEW,9100.0,,,,,,
KRDR,10-01-2015,13:58,METAR,Normal,140,14.0,,,9999.0,,10.6,2.5,30.32,1027.5,,,,,,,,,,,,,,,2/8 Mostly Clear,72000.0,8500.0,FEW,8600.0,,,,,,
KRDR,10-01-2015,12:58,METAR,Normal,150,14.0,,,9999.0,,9.8,1.9,30.31,1027.2,,,,,,,,,,,,,,,,8500.0,8500.0,OVC,8600.0,,,,,,
KRDR,10-01-2015,11:58,METAR,Normal,150,9.0,,,9999.0,,7.9,1.4,30.30,1026.8,,,,,,,,,,,,,,,Clear,72000.0,,,,,,,,,
KRDR,10-01-2015,10:58,METAR,Normal,90,5.0,,,9999.0,,10.0,1.4,30.30,1026.7,,,,,,,,,,,,,,,,9000.0,8000.0,SCT,8000.0,OVC,9100.0,,,,
KRDR,10-01-2015,09:58,METAR,Normal,140,8.0,,,9999.0,,11.4,1.2,30.29,1026.3,,,,,,,,,,,,,,,,7500.0,7500.0,OVC,7500.0,,,,,,
KRDR,10-01-2015,08:58,METAR,Normal,160,14.0,,,9999.0,,11.9,1.0,30.26,1025.3,,,,,,,,,,,,,,,,12000.0,12000.0,BKN,12000.0,,,,,,
KRDR,10-01-2015,07:58,METAR,Normal,150,14.0,20.0,,9999.0,,12.3,1.2,30.23,1024.3,,,,,,,,,,,,,,,,12000.0,12000.0,OVC,12000.0,,,,,,
KRDR,10-01-2015,06:58,METAR,Normal,150,17.0,23.0,,9999.0,,12.9,1.4,30.21,1023.6,,,,,,,,,,,,,,,,12000.0,12000.0,OVC,12000.0,,,,,,
KRDR,10-01-2015,05:58,METAR,Normal,160,13.0,,,9999.0,,13.3,1.7,30.21,1023.6,,,,,,,,,,,,,,,,12000.0,12000.0,BKN,12000.0,,,,,,
KRDR,10-01-2015,04:58,METAR,Normal,160,17.0,23.0,,9999.0,,14.8,1.6,30.20,1023.2,,,,,,,,,,,,,,,Clear,72000.0,,,,,,,,,
KRDR,10-01-2015,03:58,METAR,Normal,150,12.0,,,9999.0,,14.9,1.8,30.18,1022.6,,,,,,,,,,,,,,,4/8 Partly Cloudy,72000.0,7500.0,SCT,7500.0,,,,,,
KRDR,10-01-2015,02:58,METAR,Normal,150,13.0,,,9999.0,,16.0,1.9,30.17,1022.3,,,,,,,,,,,,,,,,12000.0,12000.0,BKN,12000.0,,,,,,
KRDR,10-01-2015,01:58,METAR,Normal,150,12.0,,,9999.0,,16.3,1.7,30.15,1021.7,,,,,,,,,,,,,,,Clear,72000.0,,,,,,,,,
KRDR,10-01-2015,00:58,METAR,Normal,170,13.0,,,9999.0,,17.4,0.1,30.14,1021.4,,,,,,,,,,,,,,,2/8 Mostly Clear,72000.0,8000.0,FEW,8000.0,,,,,,
KRDR,09-30-2015,23:58,METAR,Normal,160,16.0,22.0,180/27KTS,9999.0,,19.0,-0.3,30.13,1020.9,,,,,,,,,,,,,,,,7000.0,7000.0,BKN,7000.0,BKN,10000.0,,,,
KRDR,09-30-2015,22:58,METAR,Normal,170,20.0,30.0,180/31KTS,9999.0,,20.9,-0.6,30.12,1020.5,,,,,,,,,,,,,,,,7500.0,7500.0,BKN,7500.0,BKN,11000.0,,,,
KRDR,09-30-2015,21:58,METAR,Normal,170,22.0,29.0,170/29KTS,9999.0,,21.2,-1.1,30.12,1020.6,,,,,,,,,,,,,,,4/8 Partly Cloudy,72000.0,7500.0,SCT,7500.0,,,,,,
KRDR,09-30-2015,20:58,METAR,Normal,180,17.0,,190/28KTS,9999.0,,21.0,0.0,30.13,1020.9,,,,,,,,,,,,,,,,11000.0,8000.0,SCT,8000.0,BKN,11000.0,,,,
KRDR,09-30-2015,19:58,METAR,Normal,160,17.0,24.0,170/28KTS,9999.0,,20.6,-0.5,30.15,1021.7,,,,,,,,,,,,,,,,8500.0,8500.0,BKN,8600.0,OVC,11000.0,,,,
KRDR,09-30-2015,18:58,METAR,Normal,170,21.0,24.0,160/28KTS,9999.0,,20.1,-1.2,30.16,1022.0,,,,,,,,,,,,,,,,11000.0,11000.0,BKN,11000.0,,,,,,
KRDR,09-30-2015,17:58,METAR,Normal,170,13.0,21.0,,9999.0,,18.6,0.1,30.17,1022.3,,,,,,,,,,,,,,,,11000.0,11000.0,OVC,11000.0,,,,,,
KRDR,09-30-2015,16:58,METAR,Normal,160,17.0,,,9999.0,,17.4,0.9,30.18,1022.7,,,,,,,,,,,,,,,,9500.0,9500.0,BKN,9600.0,,,,,,
KRDR,09-30-2015,15:58,METAR,Normal,190,16.0,23.0,,9999.0,,16.0,2.0,30.18,1022.8,,,,,,,,,,,,,,,,11000.0,11000.0,BKN,11000.0,,,,,,
KRDR,09-30-2015,14:58,METAR,Normal,170,14.0,,,9999.0,,13.8,1.5,30.18,1022.8,,,,,,,,,,,,,,,,11000.0,11000.0,OVC,11000.0,,,,,,
KRDR,09-30-2015,13:58,METAR,Normal,170,10.0,,,9999.0,,11.4,1.7,30.17,1022.5,,,,,,,,,,,,,,,,11000.0,11000.0,OVC,11000.0,,,,,,
KRDR,09-30-2015,12:58,METAR,Normal,140,8.0,,,9999.0,,9.4,2.3,30.17,1022.5,,,,,,,,,,,,,,,,10000.0,10000.0,OVC,10000.0,,,,,,
KRDR,09-30-2015,12:23,SPECI,Normal,190,7.0,,,9999.0,,10.0,1.0,30.17,,,,,,,,,,,,,,,,,10000.0,10000.0,OVC,10000.0,,,,,,
KRDR,09-30-2015,11:58,METAR,Normal,170,7.0,,,9999.0,,9.9,1.6,30.16,1022.1,,,,,,,,,,,,,,,,10000.0,10000.0,OVC,10000.0,,,,,,
KRDR,09-30-2015,10:58,METAR,Normal,190,7.0,,,9999.0,,10.2,1.4,30.16,1022.0,,,,,,,,,,,,,,,,10000.0,10000.0,OVC,10000.0,,,,,,
KRDR,09-30-2015,09:58,METAR,Normal,190,9.0,,,9999.0,,9.1,1.3,30.15,1021.6,,,,,,,,,,,,,,,,10000.0,10000.0,BKN,10000.0,,,,,,
KRDR,09-30-2015,08:58,METAR,Normal,170,6.0,,,9999.0,,7.7,1.2,30.16,1022.0,,,,,,,,,,,,,,,Clear,72000.0,,,,,,,,,
KRDR,09-30-2015,07:58,METAR,Normal,170,7.0,,,9999.0,,6.7,1.2,30.16,1022.1,,,,,,,,,,,,,,,Clear,72000.0,,,,,,,,,
KRDR,09-30-2015,06:58,METAR,Normal,160,7.0,,,9999.0,,8.4,1.2,30.16,1022.1,,,,,,,,,,,,,,,Clear,72000.0,,,,,,,,,
KRDR,09-30-2015,05:58,METAR,Normal,190,8.0,,,9999.0,,9.8,0.7,30.16,1022.0,,,,,,,,,,,,,,,4/8 Partly Cloudy,72000.0,8500.0,SCT,8600.0,,,,,,
KRDR,09-30-2015,04:58,METAR,Normal,180,7.0,,,9999.0,,9.6,0.4,30.16,1022.1,,,,,,,,,,,,,,,2/8 Mostly Clear,72000.0,8500.0,FEW,8600.0,,,,,,
KRDR,09-30-2015,04:28,SPECI,Normal,180,7.0,,,9999.0,,10.0,0.0,30.15,,,,,,,,,,,,,,,,Clear,72000.0,,,,,,,,,
KRDR,09-30-2015,03:58,METAR,Normal,160,6.0,,,9999.0,,10.4,0.6,30.15,1021.8,,,,,,,,,,,,,,,Clear,72000.0,,,,,,,,,
KRDR,09-30-2015,02:58,METAR,Normal,150,8.0,,,9999.0,,10.3,0.7,30.15,1021.9,,,,,,,,,,,,,,,Clear,72000.0,,,,,,,,,
KRDR,09-30-2015,01:58,METAR,Normal,130,7.0,,,9999.0,,12.0,0.7,30.14,1021.7,,,,,,,,,,,,,,,Clear,72000.0,,,,,,,,,
KRDR,09-30-2015,01:57,SPECI,Normal,130,7.0,,,9999.0,,12.0,0.0,30.15,,,,,,,,,,,,,,,,Clear,72000.0,,,,,,,,,
KRDR,09-30-2015,01:51,SPECI,Normal,150,8.0,,,9999.0,,12.0,0.0,30.14,,,,,,,,,,,,,,,,Clear,72000.0,,,,,,,,,
KRDR,09-30-2015,01:41,SPECI,Normal,130,7.0,,,9999.0,,12.0,0.0,30.14,,,,,,,,,,,,,,,,Clear,72000.0,,,,,,,,,
KRDR,09-30-2015,01:08,SPECI,Normal,140,7.0,,,9999.0,,13.0,1.0,30.14,,,,,,,,,,,,,,,,Clear,72000.0,,,,,,,,,
KRDR,09-30-2015,00:58,METAR,Normal,120,8.0,,,9999.0,,14.0,0.7,30.14,1021.8,,,,,,,,,,,,,,,Clear,72000.0,,,,,,,,,
KRDR,09-29-2015,23:58,METAR,Normal,100,7.0,,,9999.0,,16.4,0.8,30.14,,,,,,,,,,,,,,,,Clear,72000.0,,,,,,,,,
KRDR,09-29-2015,22:58,METAR,Normal,110,6.0,,,9999.0,,19.3,-0.7,30.14,1021.6,,,,,,,,,,,,,,,Clear,72000.0,,,,,,,,,
KRDR,09-29-2015,21:58,METAR,Normal,170,4.0,,,9999.0,,19.8,-0.9,30.15,1021.9,,,,,,,,,,,,,,,Clear,72000.0,,,,,,,,,
KRDR,09-29-2015,20:58,METAR,Variable,,2.0,,,9999.0,,19.5,-1.4,30.16,1022.3,,,,,,,,,,,,,,,Clear,72000.0,,,,,,,,,
KRDR,09-29-2015,19:58,METAR,Normal,200,7.0,,,9999.0,,19.3,-2.2,30.18,1023.0,,,,,,,,,,,,,,,Clear,72000.0,,,,,,,,,
KRDR,09-29-2015,18:58,METAR,Normal,210,6.0,,,9999.0,,17.3,-3.0,30.21,1024.0,,,,,,,,,,,,,,,Clear,72000.0,,,,,,,,,
KRDR,09-29-2015,17:58,METAR,Variable,,3.0,,,9999.0,,16.6,-3.0,30.22,1024.3,,,,,,,,,,,,,,,Clear,72000.0,,,,,,,,,
KRDR,09-29-2015,16:58,METAR,Normal,230,9.0,,,9999.0,,15.5,-3.3,30.24,1025.0,,,,,,,,,,,,,,,Clear,72000.0,,,,,,,,,
KRDR,09-29-2015,15:58,METAR,Normal,200,5.0,,,9999.0,,13.9,-2.4,30.25,1025.4,,,,,,,,,,,,,,,Clear,72000.0,,,,,,,,,
KRDR,09-29-2015,14:58,METAR,Variable,,3.0,,,9999.0,,9.8,-0.2,30.25,1025.5,,,,,,,,,,,,,,,Clear,72000.0,,,,,,,,,
KRDR,09-29-2015,13:58,METAR,Normal,210,1.0,,,9999.0,,4.7,1.2,30.24,1025.2,,,,,,,,,,,,,,,Clear,72000.0,,,,,,,,,
KRDR,09-29-2015,12:58,METAR,Normal,220,4.0,,,9999.0,,-1.1,-3.3,30.24,1025.4,,,,,,,,,,,,,,,Clear,72000.0,,,,,,,,,
KRDR,09-29-2015,11:58,METAR,Normal,270,3.0,,,9999.0,,-1.8,-4.0,30.23,1025.0,,,,,,,,,,,,,,,Clear,72000.0,,,,,,,,,
KRDR,09-29-2015,10:58,METAR,Normal,250,3.0,,,9999.0,,-0.8,-3.2,30.21,1024.1,,,,,,,,,,,,,,,Clear,72000.0,,,,,,,,,
KRDR,09-29-2015,09:58,METAR,Normal,250,3.0,,,9999.0,,-1.1,-2.9,30.21,1024.1,,,,,,,,,,,,,,,Clear,72000.0,,,,,,,,,
KRDR,09-29-2015,08:58,METAR,Normal,240,3.0,,,9999.0,,-0.3,-2.4,30.19,1023.4,,,,,,,,,,,,,,,Clear,72000.0,,,,,,,,,
KRDR,09-29-2015,07:58,METAR,Normal,260,2.0,,,9999.0,,1.1,-1.7,30.19,1023.3,,,,,,,,,,,,,,,Clear,72000.0,,,,,,,,,
KRDR,09-29-2015,06:58,METAR,Calm,,0.0,,,9999.0,,1.6,-1.2,30.18,1023.0,,,,,,,,,,,,,,,Clear,72000.0,,,,,,,,,
KRDR,09-29-2015,05:58,METAR,Normal,270,2.0,,,9999.0,,2.4,-0.2,30.18,1023.0,,,,,,,,,,,,,,,4/8 Partly Cloudy,72000.0,10000.0,SCT,10000.0,,,,,,
KRDR,09-29-2015,04:58,METAR,Normal,250,4.0,,,9999.0,,2.8,-0.2,30.17,1022.6,,,,,,,,,,,,,,,4/8 Partly Cloudy,72000.0,11000.0,SCT,11000.0,,,,,,
KRDR,09-29-2015,03:58,METAR,Calm,,0.0,,,9999.0,,3.4,-1.1,30.15,1021.9,,,,,,,,,,,,,,,Clear,72000.0,,,,,,,,,
KRDR,09-29-2015,02:58,METAR,Normal,320,3.0,,,9999.0,,4.9,-0.9,30.14,1021.6,,,,,,,,,,,,,,,Clear,72000.0,,,,,,,,,
KRDR,09-29-2015,01:58,METAR,Normal,350,6.0,,,9999.0,,7.9,-1.0,30.12,1020.9,,,,,,,,,,,,,,,Clear,72000.0,,,,,,,,,
KRDR,09-29-2015,00:58,METAR,Normal,330,7.0,,,9999.0,,10.0,-1.6,30.10,1020.2,,,,,,,,,,,,,,,Clear,72000.0,,,,,,,,,
KRDR,09-28-2015,23:58,METAR,Normal,350,7.0,,,9999.0,,14.0,-2.0,30.08,1019.4,,,,,,,,,,,,,,,Clear,72000.0,,,,,,,,,
KRDR,09-28-2015,22:58,METAR,Normal,350,10.0,,,9999.0,,16.2,-1.4,30.07,1019.0,,,,,,,,,,,,,,,Clear,72000.0,,,,,,,,,
KRDR,09-28-2015,21:58,METAR,Normal,320,13.0,19.0,,9999.0,,17.1,-0.4,30.06,1018.7,,,,,,,,,,,,,,,Clear,72000.0,,,,,,,,,
KRDR,09-28-2015,20:58,METAR,Normal,310,10.0,,,9999.0,,17.8,0.3,30.06,1018.7,,,,,,,,,,,,,,,Clear,72000.0,,,,,,,,,
KRDR,09-28-2015,19:58,METAR,Normal,340,11.0,,,9999.0,,17.8,0.0,30.06,1018.8,,,,,,,,,,,,,,,Clear,72000.0,,,,,,,,,
KRDR,09-28-2015,19:31,SPECI,Normal,340,13.0,17.0,,9999.0,,18.0,0.0,30.07,,,,,,,,,,,,,,,,Clear,72000.0,,,,,,,,,
KRDR,09-28-2015,18:58,METAR,Normal,340,11.0,17.0,,9999.0,,17.7,0.1,30.07,1019.0,,,,,,,,,,,,,,,Clear,72000.0,,,,,,,,,
KRDR,09-28-2015,17:58,METAR,Variable,330,8.0,,,9999.0,,17.2,1.3,30.07,1019.0,,,,,,,,,,,,,,,Clear,72000.0,,,,,,,,,
KRDR,09-28-2015,16:58,METAR,Normal,350,7.0,,,9999.0,,16.3,2.3,30.07,1019.0,,,,,,,,,,,,,,,Clear,72000.0,,,,,,,,,
KRDR,09-28-2015,15:58,METAR,Variable,10,14.0,,,9999.0,,15.6,1.1,30.06,1018.6,,,,,,,,,,,,,,,Clear,72000.0,,,,,,,,,
KRDR,09-28-2015,14:58,METAR,Normal,10,12.0,,,9999.0,,13.8,1.8,30.05,1018.4,,,,,,,,,,,,,,,Clear,72000.0,,,,,,,,,
KRDR,09-28-2015,13:58,METAR,Normal,330,5.0,,,9999.0,,11.1,4.3,30.03,1017.7,,,,,,,,,,,,,,,4/8 Partly Cloudy,72000.0,8000.0,SCT,8000.0,,,,,,
KRDR,09-28-2015,12:58,METAR,Normal,270,2.0,,,9999.0,,9.6,5.0,30.01,1017.0,,,,,,,,,,,,,,,,7500.0,7500.0,BKN,7500.0,,,,,,
KRDR,09-28-2015,11:58,METAR,Normal,330,8.0,,,9999.0,,9.7,5.3,29.98,1015.8,,,,,,,,,,,,,,,Clear,72000.0,,,,,,,,,
KRDR,09-28-2015,10:58,METAR,Normal,180,4.0,,,9999.0,,8.5,5.1,29.95,1014.8,,,,,,,,,,,,,,,Clear,72000.0,,,,,,,,,
KRDR,09-28-2015,09:58,METAR,Normal,300,3.0,,,9999.0,,8.5,5.1,29.92,1013.8,,,,,,,,,,,,,,,4/8 Partly Cloudy,72000.0,12000.0,SCT,12000.0,,,,,,
KRDR,09-28-2015,08:58,METAR,Normal,290,2.0,,,9999.0,,6.8,3.9,29.90,1013.1,,,,,,,,,,,,,,,Clear,72000.0,,,,,,,,,
KRDR,09-28-2015,07:58,METAR,Normal,290,5.0,,,9999.0,,6.0,4.2,29.90,1013.1,,,,,,,,,,,,,,,Clear,72000.0,,,,,,,,,
KRDR,09-28-2015,06:58,METAR,Normal,270,1.0,,,9999.0,,7.5,5.0,29.89,1012.7,,,,,,,,,,,,,,,Clear,72000.0,,,,,,,,,
KRDR,09-28-2015,05:58,METAR,Normal,280,5.0,,,9999.0,,9.7,5.8,29.90,1013.1,,,,,,,,,,,,,,,Clear,72000.0,,,,,,,,,
KRDR,09-28-2015,04:58,METAR,Normal,300,7.0,,,9999.0,,11.5,7.0,29.91,1013.3,,,,,,,,,,,,,,,Clear,72000.0,,,,,,,,,
KRDR,09-28-2015,03:58,METAR,Normal,300,6.0,,,9999.0,,12.7,9.6,29.89,1012.6,,,,,,,,,,,,,,,2/8 Mostly Clear,72000.0,11000.0,FEW,11000.0,,,,,,
KRDR,09-28-2015,02:58,METAR,Normal,290,6.0,,,9999.0,,12.3,10.6,29.87,1012.0,,,,,,,,,,,,,,,Clear,72000.0,,,,,,,,,
KRDR,09-28-2015,01:58,METAR,Normal,300,2.0,,,9999.0,,12.2,10.6,29.85,1011.3,,,,,,,,,,,,,,,Clear,72000.0,,,,,,,,,
KRDR,09-28-2015,00:58,METAR,Normal,10,3.0,,,9999.0,,15.8,12.5,29.83,1010.7,,,,,,,,,,,,,,,Clear,72000.0,,,,,,,,,
KRDR,09-27-2015,23:58,METAR,Normal,30,5.0,,,9999.0,,19.1,13.3,29.81,1009.9,,,,,,,,,,,,,,,Clear,72000.0,,,,,,,,,
KRDR,09-27-2015,22:58,METAR,Normal,20,8.0,,,9999.0,,21.9,13.6,29.80,1009.4,,,,,,,,,,,,,,,Clear,72000.0,,,,,,,,,
KRDR,09-27-2015,21:58,METAR,Normal,20,9.0,,,9999.0,,22.3,13.5,29.80,1009.4,,,,,,,,,,,,,,,Clear,72000.0,,,,,,,,,
KRDR,09-27-2015,20:58,METAR,Normal,350,10.0,,,9999.0,,23.3,13.5,29.80,1009.3,,,,,,,,,,,,,,,Clear,72000.0,,,,,,,,,
KRDR,09-27-2015,19:58,METAR,Normal,350,14.0,,,9999.0,,23.3,14.2,29.80,1009.3,,,,,,,,,,,,,,,4/8 Partly Cloudy,72000.0,12000.0,SCT,12000.0,,,,,,
KRDR,09-27-2015,18:58,METAR,Normal,340,15.0,,,9999.0,,25.1,13.0,29.80,1009.2,,,,,,,,,,,,,,,4/8 Partly Cloudy,72000.0,12000.0,SCT,12000.0,,,,,,
KRDR,09-27-2015,17:58,METAR,Normal,320,1.0,,,9999.0,,22.4,13.3,29.79,1009.0,,,,,,,,,,,,,,,,11000.0,11000.0,BKN,11000.0,,,,,,
KRDR,09-27-2015,16:58,METAR,Normal,120,9.0,,,9999.0,,22.5,13.4,29.75,1007.6,,,,,,,,,,,,,,,,9500.0,9500.0,OVC,9600.0,,,,,,
KRDR,09-27-2015,15:58,METAR,Normal,70,5.0,,,9999.0,,21.6,13.1,29.77,1008.2,,,,,,,,,,,,,,,2/8 Mostly Clear,72000.0,10000.0,FEW,10000.0,,,,,,
KRDR,09-27-2015,14:58,METAR,Normal,10,6.0,,,9999.0,,20.9,14.5,29.75,1007.6,,,,,,,,,,,,,,,Clear,72000.0,,,,,,,,,
KRDR,09-27-2015,13:58,METAR,Normal,280,2.0,,,9999.0,,18.6,13.9,29.75,1007.6,,,,,,,,,,,,,,,Clear,72000.0,,,,,,,,,
KRDR,09-27-2015,12:58,METAR,Variable,,2.0,,,9999.0,,15.5,12.3,29.72,1006.7,,,,,,,,,,,,,,,Clear,72000.0,,,,,,,,,
KRDR,09-27-2015,11:58,METAR,Normal,170,10.0,,,9999.0,,15.5,11.9,29.70,1005.9,,,,,,,,,,,,,,,Clear,72000.0,,,,,,,,,
KRDR,09-27-2015,10:58,METAR,Normal,190,7.0,,,9999.0,,16.7,11.7,29.70,1005.8,,,,,,,,,,,,,,,Clear,72000.0,,,,,,,,,
KRDR,09-27-2015,09:58,METAR,Normal,180,9.0,,,9999.0,,18.0,11.3,29.69,1005.5,,,,,,,,,,,,,,,Clear,72000.0,,,,,,,,,
KRDR,09-27-2015,08:58,METAR,Normal,180,13.0,,,9999.0,,19.1,10.8,29.69,1005.4,,,,,,,,,,,,,,,Clear,72000.0,,,,,,,,,
KRDR,09-27-2015,07:58,METAR,Normal,180,14.0,,/  KTS,9999.0,,19.9,10.9,29.70,1005.7,,,,,,,,,,,,,,,Clear,72000.0,,,,,,,,,
KRDR,09-27-2015,06:58,METAR,Normal,180,17.0,,,9999.0,,20.5,10.9,29.71,1006.1,,,,,,,,,,,,,,,Clear,72000.0,,,,,,,,,
KRDR,09-27-2015,05:58,METAR,Normal,180,18.0,23.0,,9999.0,,21.2,10.9,29.73,1006.8,,,,,,,,,,,,,,,Clear,72000.0,,,,,,,,,
KRDR,09-27-2015,04:58,METAR,Normal,180,16.0,,210/26KTS,9999.0,,22.4,10.8,29.74,1007.1,,,,,,,,,,,,,,,Clear,72000.0,,,,,,,,,
KRDR,09-27-2015,03:58,METAR,Normal,180,19.0,27.0,,9999.0,,22.5,11.2,29.74,1007.2,,,,,,,,,,,,,,,Clear,72000.0,,,,,,,,,
KRDR,09-27-2015,02:58,METAR,Normal,180,20.0,25.0,,9999.0,,23.1,11.1,29.76,1007.9,,,,,,,,,,,,,,,Clear,72000.0,,,,,,,,,
KRDR,09-27-2015,01:58,METAR,Normal,180,20.0,27.0,,9999.0,,23.7,10.7,29.77,1008.3,,,,,,,,,,,,,,,Clear,72000.0,,,,,,,,,
KRDR,09-27-2015,00:58,METAR,Normal,180,19.0,22.0,,9999.0,,24.3,11.2,29.79,1009.1,,,,,,,,,,,,,,,Clear,72000.0,,,,,,,,,
KRDR,09-26-2015,23:58,METAR,Normal,180,18.0,,/  KTS,9999.0,,25.8,11.0,29.80,1009.3,,,,,,,,,,,,,,,Clear,72000.0,,,,,,,,,
KRDR,09-26-2015,22:58,METAR,Normal,180,21.0,30.0,,9999.0,,27.6,11.4,29.81,1009.6,,,,,,,,,,,,,,,Clear,72000.0,,,,,,,,,
KRDR,09-26-2015,21:58,METAR,Normal,180,25.0,30.0,,9999.0,,28.5,11.5,29.83,1010.3,,,,,,,,,,,,,,,Clear,72000.0,,,,,,,,,
KRDR,09-26-2015,20:58,METAR,Normal,170,22.0,28.0,,9999.0,,28.6,11.9,29.86,1011.3,,,,,,,,,,,,,,,Clear,72000.0,,,,,,,,,
KRDR,09-26-2015,19:58,METAR,Normal,200,24.0,31.0,,9999.0,,28.5,12.3,29.89,1012.2,,,,,,,,,,,,,,,Clear,72000.0,,,,,,,,,
KRDR,09-26-2015,18:58,METAR,Normal,210,25.0,33.0,,9999.0,,27.7,12.8,29.93,1013.6,,,,,,,,,,,,,,,Clear,72000.0,,,,,,,,,
KRDR,09-26-2015,17:58,METAR,Normal,210,18.0,29.0,,9999.0,,26.6,13.9,29.97,1015.0,,,,,,,,,,,,,,,Clear,72000.0,,,,,,,,,
KRDR,09-26-2015,16:58,METAR,Normal,190,20.0,26.0,,9999.0,,24.8,14.2,30.00,1016.0,,,,,,,,,,,,,,,Clear,72000.0,,,,,,,,,
KRDR,09-26-2015,15:58,METAR,Normal,180,13.0,,,9999.0,,22.3,14.7,30.03,1017.1,,,,,,,,,,,,,,,Clear,72000.0,,,,,,,,,
KRDR,09-26-2015,14:58,METAR,Normal,180,14.0,,,9999.0,,19.3,14.1,30.05,1017.9,,,,,,,,,,,,,,,Clear,72000.0,,,,,,,,,
KRDR,09-26-2015,13:58,METAR,Normal,180,14.0,,,9999.0,,16.9,13.9,30.06,1018.3,,,,,,,,,,,,,,,Clear,72000.0,,,,,,,,,
KRDR,09-26-2015,12:58,METAR,Normal,170,10.0,,,9999.0,,15.4,13.9,30.08,1019.0,,,,,,,,,,,,,,,Clear,72000.0,,,,,,,,,
KRDR,09-26-2015,11:58,METAR,Normal,160,10.0,,,9999.0,,15.5,14.0,30.08,1018.9,,,,,,,,,,,,,,,Clear,72000.0,,,,,,,,,
KRDR,09-26-2015,10:58,METAR,Normal,170,11.0,,,9999.0,,15.8,14.3,30.09,1019.2,,,,,,,,,,,,,,,Clear,72000.0,,,,,,,,,
KRDR,09-26-2015,09:58,METAR,Normal,170,9.0,,,9999.0,,16.0,14.5,30.10,1019.6,,,,,,,,,,,,,,,Clear,72000.0,,,,,,,,,
KRDR,09-26-2015,08:58,METAR,Normal,170,11.0,,,9999.0,,17.1,14.7,30.11,1019.9,,,,,,,,,,,,,,,Clear,72000.0,,,,,,,,,
KRDR,09-26-2015,07:58,METAR,Normal,180,11.0,,,9999.0,,17.9,14.8,30.12,1020.2,,,,,,,,,,,,,,,Clear,72000.0,,,,,,,,,
KRDR,09-26-2015,06:58,METAR,Normal,180,14.0,,,9999.0,,18.5,14.7,30.12,1020.2,,,,,,,,,,,,,,,Clear,72000.0,,,,,,,,,
KRDR,09-26-2015,05:58,METAR,Normal,180,13.0,,,9999.0,,19.1,14.7,30.13,1020.5,,,,,,,,,,,,,,,Clear,72000.0,,,,,,,,,
KRDR,09-26-2015,04:58,METAR,Normal,180,11.0,,,9999.0,,19.4,14.4,30.14,1020.9,,,,,,,,,,,,,,,Clear,72000.0,,,,,,,,,
KRDR,09-26-2015,03:58,METAR,Normal,160,12.0,,,9999.0,,19.6,14.6,30.13,1020.7,,,,,,,,,,,,,,,Clear,72000.0,,,,,,,,,
KRDR,09-26-2015,02:58,METAR,Normal,160,11.0,,,9999.0,,20.0,14.7,30.15,1021.4,,,,,,,,,,,,,,,Clear,72000.0,,,,,,,,,
KRDR,09-26-2015,01:58,METAR,Normal,160,9.0,,,9999.0,,20.5,14.8,30.15,1021.4,,,,,,,,,,,,,,,Clear,72000.0,,,,,,,,,
KRDR,09-26-2015,00:58,METAR,Normal,160,9.0,,,9999.0,,21.5,14.8,30.15,1021.4,,,,,,,,,,,,,,,Clear,72000.0,,,,,,,,,
KRDR,09-25-2015,23:58,METAR,Normal,160,8.0,,,9999.0,,23.0,16.0,30.17,1022.1,,,,,,,,,,,,,,,Clear,72000.0,,,,,,,,,
KRDR,09-25-2015,22:58,METAR,Normal,170,13.0,,,9999.0,,25.4,15.8,30.17,1022.1,,,,,,,,,,,,,,,Clear,72000.0,,,,,,,,,
KRDR,09-25-2015,21:58,METAR,Normal,180,14.0,19.0,,9999.0,,26.0,15.4,30.18,1022.4,,,,,,,,,,,,,,,Clear,72000.0,,,,,,,,,
KRDR,09-25-2015,20:58,METAR,Normal,180,15.0,,,9999.0,,25.6,15.2,30.20,1023.1,,,,,,,,,,,,,,,Clear,72000.0,,,,,,,,,
KRDR,09-25-2015,19:58,METAR,Normal,170,14.0,18.0,,9999.0,,25.5,15.4,30.22,1023.8,,,,,,,,,,,,,,,Clear,72000.0,,,,,,,,,
KRDR,09-25-2015,18:58,METAR,Normal,180,13.0,,,9999.0,,24.2,14.8,30.25,1024.9,,,,,,,,,,,,,,,Clear,72000.0,,,,,,,,,
KRDR,09-25-2015,17:58,METAR,Normal,170,12.0,,,9999.0,,23.8,15.5,30.26,1025.2,,,,,,,,,,,,,,,Clear,72000.0,,,,,,,,,
KRDR,09-25-2015,16:58,METAR,Normal,150,9.0,,,9999.0,,21.7,15.8,30.28,1025.9,,,,,,,,,,,,,,,Clear,72000.0,,,,,,,,,
KRDR,09-25-2015,15:58,METAR,Normal,170,6.0,,,9999.0,,17.0,17.0,30.30,1026.6,,,,,,,,,,,,,,,4/8 Partly Cloudy,72000.0,300.0,SCT,300.0,,,,,,
KRDR,09-25-2015,15:53,SPECI,Normal,170,7.0,,,9999.0,,17.0,17.0,30.30,,,,,,,,,,,,,,,,,400.0,400.0,BKN,400.0,,,,,,
KRDR,09-25-2015,15:43,SPECI,Normal,160,6.0,,,9999.0,,17.0,17.0,30.30,,,,,,,,,,,,,,,,,300.0,300.0,OVC,300.0,,,,,,
KRDR,09-25-2015,15:28,SPECI,Normal,160,6.0,,,9999.0,,16.0,16.0,30.30,,,,,,,,,,,,,,,,,200.0,200.0,OVC,200.0,,,,,,
KRDR,09-25-2015,15:18,SPECI,Normal,150,6.0,,,4000.0,Mist,16.0,16.0,30.30,,10,,,,,,,,,,,,,,,200.0,200.0,OVC,200.0,,,,,,
KRDR,09-25-2015,15:13,SPECI,Normal,160,6.0,,,2000.0,Mist,16.0,16.0,30.30,,10,,,,,,,,,,,,,,,100.0,100.0,OVC,100.0,,,,,,
KRDR,09-25-2015,14:58,METAR,Normal,160,6.0,,,400.0,Fog,16.0,16.0,30.30,1026.7,30,,,,,,,,,,,,,,Sky Obscured (Unable to Estimate),100.0,100.0,,100.0,,,,,,
KRDR,09-25-2015,13:58,METAR,Normal,160,5.0,,,200.0,Fog,15.0,15.0,30.29,1026.3,30,,,,,,,,,,,,,,Sky Obscured (Unable to Estimate),200.0,200.0,,200.0,,,,,,
KRDR,09-25-2015,13:53,SPECI,Normal,170,5.0,,,800.0,Fog,15.0,15.0,30.29,,30,,,,,,,,,,,,,,Sky Obscured (Unable to Estimate),200.0,200.0,,200.0,,,,,,
KRDR,09-25-2015,13:44,SPECI,Normal,150,7.0,,,800.0,Fog or Ice Fog,15.0,15.0,30.29,,,,,44,,,,,,,,,,,Sky Obscured (Unable to Estimate),200.0,200.0,,200.0,,,,,,
KRDR,09-25-2015,13:43,SPECI,Normal,160,6.0,,,3200.0,Mist,15.0,15.0,30.29,,10,,,,,,,,,,,,,,,200.0,200.0,OVC,200.0,,,,,,
KRDR,09-25-2015,13:38,SPECI,Normal,170,6.0,,,4800.0,Mist,15.0,15.0,30.29,,10,,,,,,,,,,,,,,,300.0,300.0,BKN,300.0,OVC,3400.0,,,,
KRDR,09-25-2015,13:33,SPECI,Normal,170,5.0,,,800.0,Fog,15.0,15.0,30.29,,30,,,,,,,,,,,,,,Sky Obscured (Unable to Estimate),200.0,200.0,,200.0,,,,,,
KRDR,09-25-2015,13:31,SPECI,Normal,180,5.0,,,800.0,Fog or Ice Fog,15.0,15.0,30.29,,,,,44,,,,,,,,,,,Sky Obscured (Unable to Estimate),200.0,200.0,,200.0,,,,,,
KRDR,09-25-2015,13:28,SPECI,Normal,180,5.0,,,1200.0,Mist,15.0,15.0,30.29,,10,,,,,,,,,,,,,,,200.0,200.0,OVC,200.0,,,,,,
KRDR,09-25-2015,13:23,SPECI,Normal,180,5.0,,,2800.0,Mist,15.0,14.0,30.29,,10,,,,,,,,,,,,,,,200.0,200.0,OVC,200.0,,,,,,
KRDR,09-25-2015,13:03,SPECI,Normal,170,4.0,,,8000.0,Mist,14.0,14.0,30.29,,10,,,,,,,,,,,,,,,300.0,300.0,BKN,300.0,OVC,3300.0,,,,
KRDR,09-25-2015,12:58,METAR,Normal,180,4.0,,,8000.0,Mist,14.3,14.1,30.29,1026.3,10,,,,,,,,,,,,,,,3300.0,300.0,SCT,300.0,OVC,3300.0,,,,
KRDR,09-25-2015,12:23,SPECI,Normal,160,3.0,,,8000.0,Mist,14.0,14.0,30.28,,10,,,,,,,,,,,,,,,200.0,200.0,SCT,200.0,OVC,3200.0,,,,
KRDR,09-25-2015,11:58,METAR,Normal,180,3.0,,,4800.0,Mist,13.8,13.6,30.28,1025.9,10,,,,,,,,,,,,,.1 IN,,200.0,200.0,OVC,200.0,,,,,,
KRDR,09-25-2015,11:48,SPECI,Normal,180,3.0,,,800.0,Fog,14.0,14.0,30.28,,30,,,,,,,,,,,,,,Sky Obscured (Unable to Estimate),200.0,200.0,,200.0,,,,,,
KRDR,09-25-2015,11:33,SPECI,Normal,170,2.0,,,400.0,Fog,14.0,13.0,30.28,,30,,,,,,,,,,,,,,Sky Obscured (Unable to Estimate),200.0,200.0,,200.0,,,,,,
KRDR,09-25-2015,11:18,SPECI,Normal,190,3.0,,,800.0,Fog,13.0,13.0,30.28,,30,,,,,,,,,,,,,,Sky Obscured (Unable to Estimate),200.0,200.0,,200.0,,,,,,
KRDR,09-25-2015,11:13,SPECI,Normal,190,3.0,,,1200.0,Mist,13.0,13.0,30.28,,10,,,,,,,,,,,,,,Sky Obscured (Unable to Estimate),200.0,200.0,,200.0,,,,,,
KRDR,09-25-2015,11:08,SPECI,Normal,190,1.0,,,1200.0,Mist,13.0,13.0,30.28,,10,,,,,,,,,,,,,,Sky Obscured (Unable to Estimate),200.0,200.0,,200.0,,,,,,
KRDR,09-25-2015,11:03,SPECI,Normal,200,2.0,,,2000.0,Mist,13.0,13.0,30.28,,10,,,,,,,,,,,,,,,200.0,200.0,OVC,200.0,,,,,,
KRDR,09-25-2015,10:58,METAR,Normal,200,1.0,,,4000.0,Mist,12.8,12.6,30.28,1025.9,10,,,,,,,,,,,,,,,200.0,200.0,OVC,200.0,,,,,,
KRDR,09-25-2015,10:54,SPECI,Calm,,0.0,,,9999.0,,13.0,13.0,30.28,,,,,,,,,,,,,,,,,200.0,200.0,OVC,200.0,,,,,,
KRDR,09-25-2015,10:49,SPECI,Calm,,0.0,,,9999.0,,13.0,13.0,30.28,,,,,,,,,,,,,,,,,200.0,200.0,OVC,200.0,,,,,,
KRDR,09-25-2015,10:31,SPECI,Normal,160,1.0,,,8000.0,,13.0,12.0,30.28,,,,,,,,,,,,,,,,,300.0,300.0,OVC,300.0,,,,,,
KRDR,09-25-2015,09:58,METAR,Calm,,0.0,,,3200.0,,11.0,11.0,30.28,1026.1,,,,,,,,,,,,,,,,200.0,200.0,BKN,200.0,OVC,2000.0,,,,
KRDR,09-25-2015,09:34,SPECI,Calm,,0.0,,,3200.0,Mist,11.0,10.0,30.27,,,,,10,,,,,,,,,,,,1800.0,100.0,FEW,100.0,BKN,1800.0,,,,
KRDR,09-25-2015,08:58,METAR,Calm,,0.0,,,4800.0,Mist,10.0,10.0,30.27,,,,,10,,,,,,,,,,,Clear,72000.0,,,,,,,,,
KRDR,09-25-2015,07:58,METAR,Calm,,0.0,,,4800.0,Mist,10.0,9.0,30.28,,,,,10,,,,,,,,,,,Clear,72000.0,,,,,,,,,
KRDR,09-25-2015,06:58,METAR,Calm,,0.0,,,4800.0,Mist,10.7,10.6,30.27,1025.7,10,,,,,,,,,,,,,,Clear,72000.0,,,,,,,,,
KRDR,09-25-2015,06:03,SPECI,Calm,,0.0,,,4800.0,Mist,11.0,11.0,30.27,,10,,,,,,,,,,,,,,Clear,72000.0,,,,,,,,,
KRDR,09-25-2015,05:58,METAR,Calm,,0.0,,,6400.0,Mist,11.0,11.0,30.27,1025.7,,,,10,,,,,,,,,,,Clear,72000.0,,,,,,,,,
KRDR,09-25-2015,04:58,METAR,Calm,,0.0,,,9999.0,Mist,12.0,12.0,30.27,,,,,10,,,,,,,,,,,Clear,72000.0,,,,,,,,,
KRDR,09-25-2015,04:38,SPECI,Calm,,0.0,,,9999.0,Mist,13.0,13.0,30.27,,10,,,,,,,,,,,,,,Clear,72000.0,,,,,,,,,
KRDR,09-25-2015,04:33,SPECI,Calm,,0.0,,,4000.0,Mist,14.0,13.0,30.27,,10,,,,,,,,,,,,,,Clear,72000.0,,,,,,,,,
KRDR,09-25-2015,04:13,SPECI,Calm,,0.0,,,9999.0,,14.0,14.0,30.27,,,,,,,,,,,,,,,,Clear,72000.0,,,,,,,,,
KRDR,09-25-2015,03:58,METAR,Normal,130,3.0,,,9999.0,,15.8,14.7,30.26,1025.3,,,,,,,,,,,,,,,Clear,72000.0,,,,,,,,,
KRDR,09-25-2015,02:58,METAR,Normal,110,7.0,,,9999.0,,16.4,15.1,30.26,1025.3,,,,,,,,,,,,,,,Clear,72000.0,,,,,,,,,
KRDR,09-25-2015,01:58,METAR,Normal,80,5.0,,,9999.0,,17.4,15.8,30.25,1025.0,,,,,,,,,,,,,,,,2800.0,2800.0,BKN,2800.0,,,,,,
KRDR,09-25-2015,00:58,METAR,Normal,70,5.0,,,9999.0,,18.8,16.3,30.23,1024.3,,,,,,,,,,,,,,,,2900.0,2900.0,BKN,2900.0,,,,,,
KRDR,09-24-2015,23:58,METAR,Normal,60,4.0,,,9999.0,,19.8,16.4,30.23,1024.2,,,,,,,,,,,,,,,,2800.0,2800.0,OVC,2800.0,,,,,,
KRDR,09-24-2015,22:58,METAR,Normal,50,7.0,,,9999.0,,21.8,16.4,30.22,1023.8,,,,,,,,,,,,,,,,2600.0,2600.0,OVC,2600.0,,,,,,
KRDR,09-24-2015,21:58,METAR,Normal,70,6.0,,,9999.0,,22.1,16.1,30.22,1023.8,,,,,,,,,,,,,,,,2800.0,2800.0,OVC,2800.0,,,,,,
KRDR,09-24-2015,20:58,METAR,Normal,120,4.0,,,9999.0,,22.0,15.9,30.22,1023.8,,,,,,,,,,,,,,,,2700.0,2700.0,OVC,2700.0,,,,,,
KRDR,09-24-2015,19:58,METAR,Normal,70,6.0,,,9999.0,,22.1,15.5,30.22,1023.8,,,,,,,,,,,,,,,2/8 Mostly Clear,72000.0,2300.0,FEW,2300.0,,,,,,
KRDR,09-24-2015,19:23,SPECI,Normal,80,7.0,,,9999.0,,21.0,15.0,30.23,,,,,,,,,,,,,,,,,2000.0,2000.0,OVC,2000.0,,,,,,
KRDR,09-24-2015,19:13,SPECI,Normal,40,6.0,,,9999.0,,22.0,15.0,30.23,,,,,,,,,,,,,,,,,1900.0,1900.0,OVC,1900.0,,,,,,
KRDR,09-24-2015,18:58,METAR,Normal,60,7.0,,,9999.0,,21.2,15.4,30.23,1024.2,,,,,,,,,,,,,,,,2100.0,2100.0,BKN,2100.0,,,,,,
KRDR,09-24-2015,17:58,METAR,Normal,120,4.0,,,9999.0,,20.0,15.0,30.23,1024.2,,,,,,,,,,,TRACE,,.1 IN,,,1500.0,1500.0,BKN,1500.0,,,,,,
KRDR,09-24-2015,17:55,SPECI,Normal,140,3.0,,,9999.0,,20.0,15.0,30.23,,,,,,,,,,,,,,,,,1500.0,1500.0,BKN,1500.0,,,,,,
KRDR,09-24-2015,17:50,SPECI,Normal,100,4.0,,,9999.0,,19.0,15.0,30.23,,,,,,,,,,,,,,,,,1400.0,1400.0,BKN,1400.0,,,,,,
KRDR,09-24-2015,17:45,SPECI,Variable,,3.0,,,9999.0,,19.0,15.0,30.23,,,,,,,,,,,,,,,,4/8 Partly Cloudy,72000.0,1500.0,SCT,1500.0,,,,,,
KRDR,09-24-2015,17:37,SPECI,Variable,,3.0,,,9999.0,Light Drizzle,19.0,15.0,30.23,,51,,,,,,,,,,,,,,4/8 Partly Cloudy,72000.0,1200.0,FEW,1200.0,SCT,1700.0,,,,
KRDR,09-24-2015,16:58,METAR,Normal,60,3.0,,,9999.0,,17.0,14.7,30.23,1024.3,,,,,,,,,,,TRACE,,,,4/8 Partly Cloudy,72000.0,800.0,FEW,800.0,SCT,12000.0,,,,
KRDR,09-24-2015,16:50,SPECI,Normal,70,3.0,,,9999.0,,17.0,15.0,30.23,,,,,,,,,,,,,,,,,12000.0,800.0,SCT,800.0,SCT,7500.0,BKN,12000.0,,
KRDR,09-24-2015,16:41,SPECI,Normal,30,2.0,,,9999.0,Light Drizzle,17.0,15.0,30.22,,51,,,,,,,,,,,,,,,12000.0,700.0,FEW,700.0,SCT,7500.0,BKN,12000.0,,
KRDR,09-24-2015,15:58,METAR,Normal,90,2.0,,,9999.0,,16.0,14.0,30.22,1024.0,,,,,,,,,,,,,,,,8000.0,800.0,SCT,800.0,BKN,8000.0,OVC,10000.0,,
KRDR,09-24-2015,15:43,SPECI,Normal,150,2.0,,,9999.0,,15.0,14.0,30.22,,,,,,,,,,,,,,,,,700.0,700.0,BKN,700.0,OVC,11000.0,,,,
KRDR,09-24-2015,15:38,SPECI,Normal,160,2.0,,,9999.0,,15.0,14.0,30.22,,,,,,,,,,,,,,,,,700.0,700.0,BKN,700.0,BKN,6500.0,BKN,11000.0,,
KRDR,09-24-2015,14:58,METAR,Normal,180,5.0,,,9999.0,,14.4,13.4,30.21,1023.7,,,,,,,,,,,TRACE,.1 IN,,,,3300.0,500.0,FEW,500.0,BKN,3300.0,OVC,6500.0,,
KRDR,09-24-2015,14:18,SPECI,Normal,150,3.0,,,9999.0,,14.0,13.0,30.21,,,,,,,,,,,,,,,,,1300.0,300.0,FEW,300.0,SCT,800.0,OVC,2600.0,,
KRDR,09-24-2015,14:08,SPECI,Calm,,0.0,,,9999.0,,14.0,13.0,30.22,,,,,,,,,,,,,,,,,1200.0,400.0,FEW,400.0,BKN,1400.0,OVC,2600.0,,
KRDR,09-24-2015,14:03,SPECI,Calm,,0.0,,,9999.0,Mist,14.0,13.0,30.22,,10,,,,,,,,,,,,,,,1200.0,500.0,SCT,500.0,SCT,1300.0,OVC,2600.0,,
KRDR,09-24-2015,13:58,METAR,Normal,210,1.0,,,9999.0,Mist,13.6,13.1,30.22,1024.0,10,,,,,,,,,,.06 IN,,,,,500.0,600.0,SCT,600.0,BKN,1200.0,OVC,2300.0,,
KRDR,09-24-2015,13:56,SPECI,Normal,220,1.0,,,9999.0,Mist,14.0,13.0,30.22,,10,,,,,,,,,,,,,,,500.0,600.0,SCT,600.0,BKN,1200.0,OVC,2400.0,,
KRDR,09-24-2015,13:53,SPECI,Calm,,0.0,,,6400.0,Light Drizzle/Mist,14.0,13.0,30.22,,51,10,,,,,,,,,,,,,,500.0,600.0,SCT,600.0,OVC,1200.0,,,,
KRDR,09-24-2015,13:43,SPECI,Calm,,0.0,,,4800.0,Light Drizzle/Mist,14.0,13.0,30.22,,51,10,,,,,,,,,,,,,,600.0,600.0,BKN,600.0,OVC,1500.0,,,,
KRDR,09-24-2015,13:33,SPECI,Normal,210,2.0,,,4000.0,Light Rain/Mist,13.0,13.0,30.22,,61,10,,,,,,,,,,,,,,600.0,600.0,BKN,600.0,OVC,1200.0,,,,
KRDR,09-24-2015,13:23,SPECI,Normal,190,4.0,,,6400.0,Light Rain/Mist,13.0,13.0,30.22,,61,10,,,,,,,,,,,,,,600.0,600.0,OVC,600.0,,,,,,
KRDR,09-24-2015,13:18,SPECI,Variable,,1.0,,,6400.0,Light Rain/Mist,13.0,13.0,30.22,,61,10,,,,,,,,,,,,,,600.0,600.0,OVC,600.0,,,,,,
KRDR,09-24-2015,13:08,SPECI,Normal,30,2.0,,,4800.0,Light Rain/Mist,13.0,13.0,30.23,,61,10,,,,,,,,,,,,,,700.0,700.0,BKN,700.0,OVC,1600.0,,,,
KRDR,09-24-2015,13:03,SPECI,Normal,50,2.0,,,4000.0,Light Rain/Mist,13.0,13.0,30.22,,61,10,,,,,,,,,,,,,,700.0,700.0,BKN,700.0,OVC,1500.0,,,,
KRDR,09-24-2015,12:58,METAR,Normal,60,4.0,,,3200.0,Rain/Mist,13.0,13.0,30.22,1024.1,62,10,,,,,,,,,.04 IN,,,,,600.0,600.0,BKN,600.0,OVC,1500.0,,,,
KRDR,09-24-2015,12:53,SPECI,Normal,60,4.0,,,2400.0,Rain/Mist,13.0,13.0,30.22,,62,10,,,,,,,,,,,,,,700.0,700.0,BKN,700.0,OVC,1600.0,,,,
KRDR,09-24-2015,12:48,SPECI,Normal,100,5.0,,,4000.0,Rain/Mist,14.0,12.0,30.21,,62,10,,,,,,,,,,,,,,700.0,700.0,BKN,700.0,OVC,1800.0,,,,
KRDR,09-24-2015,12:43,SPECI,Normal,80,4.0,,,9999.0,Light Rain,14.0,12.0,30.21,,61,,,,,,,,,,,,,,,700.0,700.0,OVC,700.0,,,,,,
KRDR,09-24-2015,11:58,METAR,Normal,60,4.0,,,9999.0,,13.7,12.3,30.21,1023.7,,,,,,,,,,,,,,,,700.0,700.0,OVC,700.0,,,,,,
KRDR,09-24-2015,11:28,SPECI,Normal,140,4.0,,,9999.0,,14.0,12.0,30.20,,,,,,,,,,,,,,,,,700.0,700.0,BKN,700.0,BKN,2300.0,OVC,4100.0,,
KRDR,09-24-2015,11:03,SPECI,Normal,160,5.0,,,9999.0,,14.0,12.0,30.20,,,,,,,,,,,,,,,,,2000.0,600.0,FEW,600.0,BKN,2000.0,OVC,4100.0,,
KRDR,09-24-2015,10:58,METAR,Normal,150,5.0,,,9999.0,,13.8,12.4,30.20,1023.3,,,,,,,,,,,,,,,,700.0,600.0,SCT,600.0,BKN,1900.0,OVC,4100.0,,
KRDR,09-24-2015,10:38,SPECI,Normal,150,6.0,,,9999.0,,14.0,12.0,30.19,,,,,,,,,,,,,,,,,600.0,600.0,FEW,600.0,OVC,1900.0,,,,
KRDR,09-24-2015,10:33,SPECI,Normal,150,6.0,,,9999.0,,14.0,12.0,30.19,,,,,,,,,,,,,,,,,2000.0,600.0,FEW,600.0,OVC,2000.0,,,,
KRDR,09-24-2015,10:23,SPECI,Normal,150,7.0,,,9999.0,,14.0,12.0,30.19,,,,,,,,,,,,,,,,,600.0,600.0,SCT,600.0,OVC,1900.0,,,,
KRDR,09-24-2015,10:18,SPECI,Normal,150,6.0,,,9999.0,,14.0,12.0,30.19,,,,,,,,,,,,,,,,,600.0,600.0,SCT,600.0,OVC,2000.0,,,,
KRDR,09-24-2015,09:58,METAR,Normal,130,6.0,,,9999.0,,13.6,12.3,30.18,1022.6,,,,,,,,,,,,,,,,600.0,600.0,OVC,600.0,,,,,,
KRDR,09-24-2015,09:38,SPECI,Normal,130,7.0,,,9999.0,,14.0,12.0,30.17,,,,,,,,,,,,,,,,,600.0,600.0,OVC,600.0,,,,,,
KRDR,09-24-2015,08:58,METAR,Normal,100,2.0,,,9999.0,,13.5,12.1,30.18,1022.6,,,,,,,,,,,,,,,,700.0,700.0,OVC,700.0,,,,,,
KRDR,09-24-2015,07:58,METAR,Normal,140,5.0,,,9999.0,,13.3,11.9,30.18,1022.6,,,,,,,,,,,,,,,,700.0,700.0,OVC,700.0,,,,,,
KRDR,09-24-2015,07:48,SPECI,Normal,140,4.0,,,9999.0,,13.0,12.0,30.17,,,,,,,,,,,,,,,,,700.0,700.0,OVC,700.0,,,,,,
KRDR,09-24-2015,07:08,SPECI,Normal,130,8.0,,,9999.0,,13.0,12.0,30.18,,,,,,,,,,,,,,,,,600.0,600.0,OVC,600.0,,,,,,
KRDR,09-24-2015,06:58,METAR,Normal,110,7.0,,,9999.0,,13.0,11.9,30.18,1022.7,,,,,,,,,,,,,,,,700.0,700.0,OVC,700.0,,,,,,
KRDR,09-24-2015,06:48,SPECI,Normal,100,8.0,,,9999.0,,13.0,12.0,30.19,,,,,,,,,,,,,,,,,700.0,700.0,OVC,700.0,,,,,,
KRDR,09-24-2015,06:43,SPECI,Normal,100,9.0,,,9999.0,,13.0,12.0,30.19,,,,,,,,,,,,,,,,,700.0,700.0,OVC,700.0,,,,,,
KRDR,09-24-2015,05:58,METAR,Normal,50,9.0,,,9999.0,,13.4,11.5,30.20,1023.3,,,,,,,,,,,,,,,,700.0,700.0,OVC,700.0,,,,,,
KRDR,09-24-2015,05:48,SPECI,Normal,40,9.0,,,9999.0,,14.0,11.0,30.19,,,,,,,,,,,,,,,,,700.0,700.0,OVC,700.0,,,,,,
KRDR,09-24-2015,05:08,SPECI,Normal,60,4.0,,,9999.0,,14.0,11.0,30.19,,,,,,,,,,,,,,,,,900.0,900.0,OVC,900.0,,,,,,
KRDR,09-24-2015,04:58,METAR,Normal,50,4.0,,,9999.0,,13.7,11.3,30.19,1022.9,,,,,,,,,,,,,,,,1000.0,1000.0,OVC,1000.0,,,,,,
KRDR,09-24-2015,03:58,METAR,Normal,120,5.0,,,9999.0,,13.7,11.1,30.17,,,,,,,,,,,,,,,,,1100.0,1100.0,OVC,1100.0,,,,,,
KRDR,09-24-2015,03:07,SPECI,Normal,110,7.0,,,9999.0,,14.0,11.0,30.18,,,,,,,,,,,,,,,,,1100.0,1100.0,OVC,1100.0,,,,,,
KRDR,09-24-2015,02:58,METAR,Normal,120,8.0,,,9999.0,,13.8,11.1,30.18,,,,,,,,,,,,,,,,,1200.0,1200.0,OVC,1200.0,,,,,,
KRDR,09-24-2015,02:33,SPECI,Normal,130,10.0,,,9999.0,,14.0,11.0,30.18,,,,,,,,,,,,,,,,,1400.0,1400.0,OVC,1400.0,,,,,,
KRDR,09-24-2015,01:58,METAR,Normal,100,6.0,,,9999.0,,14.6,10.4,30.18,,,,,,,,,,,,,,,,,1800.0,1800.0,OVC,1800.0,,,,,,
KRDR,09-24-2015,00:58,METAR,Normal,90,11.0,,,9999.0,,15.0,10.4,30.17,1022.4,,,,,,,,,,,,,,,,1900.0,1900.0,OVC,1900.0,,,,,,
KRDR,09-24-2015,00:33,SPECI,Normal,100,7.0,,,9999.0,,15.0,10.0,30.17,,,,,,,,,,,,,,,,,1900.0,1900.0,OVC,1900.0,,,,,,
KRDR,09-23-2015,23:58,METAR,Normal,90,11.0,,,9999.0,,15.6,10.3,30.17,1022.4,,,,,,,,,,,,,,,,2300.0,2300.0,OVC,2300.0,,,,,,
KRDR,09-23-2015,22:58,METAR,Normal,90,9.0,,,9999.0,,16.7,10.1,30.16,1022.0,,,,,,,,,,,,,,,,2500.0,2500.0,OVC,2500.0,,,,,,
KRDR,09-23-2015,21:58,METAR,Normal,100,9.0,,,9999.0,,16.9,10.5,30.18,1022.7,,,,,,,,,,,,,,,,4700.0,2600.0,SCT,2600.0,BKN,4700.0,BKN,6000.0,,
KRDR,09-23-2015,20:58,METAR,Normal,100,8.0,,,9999.0,,18.0,10.3,30.19,1023.0,,,,,,,,,,,,,,,,6000.0,3000.0,SCT,3000.0,BKN,6000.0,,,,
KRDR,09-23-2015,19:58,METAR,Normal,80,11.0,,,9999.0,,18.0,9.3,30.19,1023.0,,,,,,,,,,,,,,,,3700.0,3700.0,OVC,3700.0,,,,,,
KRDR,09-23-2015,18:58,METAR,Normal,80,9.0,,,9999.0,,17.1,8.2,30.21,1023.7,,,,,,,,,,,,,,,,4100.0,4100.0,OVC,4100.0,,,,,,
KRDR,09-23-2015,17:58,METAR,Normal,110,9.0,,,9999.0,,16.6,7.3,30.22,1024.1,,,,,,,,,,,,,,,,4500.0,4500.0,OVC,4500.0,,,,,,
KRDR,09-23-2015,16:58,METAR,Normal,100,9.0,,,9999.0,,16.5,7.3,30.22,1024.1,,,,,,,,,,,,,,,Clear,72000.0,,,,,,,,,
KRDR,09-23-2015,15:58,METAR,Normal,90,11.0,,,9999.0,,13.7,6.5,30.23,1024.5,,,,,,,,,,,,,,,Clear,72000.0,,,,,,,,,
KRDR,09-23-2015,14:58,METAR,Normal,80,7.0,,,9999.0,,13.4,6.7,30.24,1024.8,,,,,,,,,,,,,,,,8500.0,7000.0,FEW,7000.0,BKN,8600.0,,,,
KRDR,09-23-2015,13:58,METAR,Normal,100,11.0,,,9999.0,,11.5,6.5,30.23,1024.5,,,,,,,,,,,,,,,,6500.0,6500.0,BKN,6500.0,BKN,10000.0,,,,
KRDR,09-23-2015,12:58,METAR,Normal,80,7.0,,,9999.0,,10.7,6.0,30.25,1025.2,,,,,,,,,,,,,,,,6500.0,6500.0,OVC,6500.0,,,,,,
KRDR,09-23-2015,11:58,METAR,Normal,50,6.0,,,9999.0,,10.9,5.7,30.23,1024.5,,,,,,,,,,,,,TRACE,,,7000.0,7000.0,OVC,7000.0,,,,,,
KRDR,09-23-2015,10:58,METAR,Normal,90,6.0,,,9999.0,,11.3,5.5,30.24,1024.8,,,,,,,,,,,TRACE,,,,,8000.0,8000.0,OVC,8000.0,,,,,,
KRDR,09-23-2015,10:32,SPECI,Normal,100,6.0,,,9999.0,,11.0,6.0,30.24,,,,,,,,,,,,,,,,,8500.0,8500.0,OVC,8600.0,,,,,,
KRDR,09-23-2015,10:23,SPECI,Normal,90,5.0,,,9999.0,Light Rain,11.0,6.0,30.25,,61,,,,,,,,,,,,,,,8500.0,8500.0,OVC,8600.0,,,,,,
KRDR,09-23-2015,09:58,METAR,Normal,80,3.0,,,9999.0,,11.2,5.6,30.25,1025.1,,,,,,,,,,,,,,,,9000.0,9000.0,OVC,9100.0,,,,,,
KRDR,09-23-2015,08:58,METAR,Normal,110,5.0,,,9999.0,,11.5,5.2,30.25,1025.1,,,,,,,,,,,,,,,,9500.0,9500.0,OVC,9600.0,,,,,,
KRDR,09-23-2015,07:58,METAR,Normal,80,6.0,,,9999.0,,11.8,4.5,30.22,1024.1,,,,,,,,,,,,,,,,9500.0,9500.0,OVC,9600.0,,,,,,
KRDR,09-23-2015,06:58,METAR,Normal,60,6.0,,,9999.0,,11.8,3.8,30.22,1024.1,,,,,,,,,,,,,,,,10000.0,10000.0,OVC,10000.0,,,,,,
KRDR,09-23-2015,05:58,METAR,Normal,80,6.0,,,9999.0,,11.0,3.7,30.22,1024.1,,,,,,,,,,,,,,,,10000.0,10000.0,BKN,10000.0,,,,,,
KRDR,09-23-2015,04:58,METAR,Normal,80,4.0,,,9999.0,,10.0,6.6,30.24,1024.9,,,,,,,,,,,,,,,,11000.0,11000.0,BKN,11000.0,,,,,,
KRDR,09-23-2015,03:58,METAR,Normal,100,2.0,,,9999.0,,12.3,5.7,30.25,1025.2,,,,,,,,,,,,,,,,10000.0,10000.0,OVC,10000.0,,,,,,
KRDR,09-23-2015,02:58,METAR,Normal,130,1.0,,,9999.0,,12.9,4.6,30.25,1025.2,,,,,,,,,,,,,,,,10000.0,10000.0,OVC,10000.0,,,,,,
KRDR,09-23-2015,01:58,METAR,Normal,150,2.0,,,9999.0,,12.2,5.8,30.25,1025.2,,,,,,,,,,,,,,,2/8 Mostly Clear,72000.0,11000.0,FEW,11000.0,,,,,,
KRDR,09-23-2015,00:58,METAR,Normal,110,3.0,,,9999.0,,13.5,4.2,30.23,1024.6,,,,,,,,,,,,,,,2/8 Mostly Clear,72000.0,11000.0,FEW,11000.0,,,,,,
KRDR,09-22-2015,23:58,METAR,Normal,120,3.0,,,9999.0,,14.3,3.7,30.23,1024.7,,,,,,,,,,,,,TRACE,,Clear,72000.0,,,,,,,,,
KRDR,09-22-2015,22:58,METAR,Normal,140,3.0,,,9999.0,,15.4,3.7,30.22,1024.3,,,,,,,,,,,,,,,Clear,72000.0,,,,,,,,,
KRDR,09-22-2015,21:58,METAR,Normal,80,4.0,,,9999.0,,15.9,2.0,30.23,1024.7,,,,,,,,,,,,,,,Clear,72000.0,,,,,,,,,
KRDR,09-22-2015,20:58,METAR,Normal,30,4.0,,,9999.0,,16.0,0.5,30.22,1024.2,,,,,,,,,,,,TRACE,,,Clear,72000.0,,,,,,,,,
KRDR,09-22-2015,19:58,METAR,Normal,70,4.0,,,9999.0,,15.9,4.0,30.23,1024.5,,,,,,,,,,,TRACE,,,,Clear,12000.0,,,,,,,,,
KRDR,09-22-2015,19:21,SPECI,Normal,50,2.0,,,9999.0,,15.0,3.0,30.23,,,,,,,,,,,,,,,,Clear,72000.0,,,,,,,,,
KRDR,09-22-2015,19:20,SPECI,Normal,30,2.0,,,9999.0,Light Rain,15.0,3.0,30.23,,61,,,,,,,,,,,,,,2/8 Mostly Clear,72000.0,11000.0,FEW,11000.0,,,,,,
KRDR,09-22-2015,18:58,METAR,Normal,70,2.0,,,9999.0,,15.3,4.2,30.23,1024.5,,,,,,,,,,,,,,,4/8 Partly Cloudy,72000.0,12000.0,SCT,12000.0,,,,,,
KRDR,09-22-2015,17:58,METAR,Normal,20,2.0,,,9999.0,,14.5,4.7,30.24,1024.8,,,,,,,,,,,,,,,2/8 Mostly Clear,72000.0,12000.0,FEW,12000.0,,,,,,
KRDR,09-22-2015,16:58,METAR,Normal,130,1.0,,,9999.0,,13.8,5.4,30.21,1023.7,,,,,,,,,,,,,,,2/8 Mostly Clear,72000.0,11000.0,FEW,11000.0,,,,,,
KRDR,09-22-2015,15:58,METAR,Normal,320,2.0,,,9999.0,,12.6,5.5,30.22,1024.0,,,,,,,,,,,,,,,Clear,72000.0,,,,,,,,,
KRDR,09-22-2015,14:58,METAR,Normal,310,8.0,,,9999.0,,12.3,5.5,30.21,1023.6,,,,,,,,,,,,,,,Clear,72000.0,,,,,,,,,
KRDR,09-22-2015,13:58,METAR,Normal,320,6.0,,,9999.0,,10.7,5.1,30.20,1023.3,,,,,,,,,,,,,,,Clear,72000.0,,,,,,,,,
KRDR,09-22-2015,12:58,METAR,Normal,290,7.0,,,9999.0,,7.1,4.2,30.17,1022.3,,,,,,,,,,,,,,,Clear,72000.0,,,,,,,,,
KRDR,09-22-2015,11:58,METAR,Normal,300,6.0,,,9999.0,,5.3,3.1,30.15,1021.6,,,,,,,,,,,,,,,Clear,72000.0,,,,,,,,,
KRDR,09-22-2015,10:58,METAR,Normal,270,3.0,,,9999.0,,5.9,3.3,30.13,1020.8,,,,,,,,,,,,,,,Clear,72000.0,,,,,,,,,
KRDR,09-22-2015,09:58,METAR,Normal,310,4.0,,,9999.0,,4.6,2.8,30.10,1019.8,,,,,,,,,,,,,,,Clear,72000.0,,,,,,,,,
KRDR,09-22-2015,08:58,METAR,Normal,260,2.0,,,9999.0,,7.3,4.3,30.07,1018.6,,,,,,,,,,,,,,,Clear,72000.0,,,,,,,,,
KRDR,09-22-2015,07:58,METAR,Normal,340,5.0,,,9999.0,,10.4,5.2,30.06,1018.2,,,,,,,,,,,,,,,Clear,72000.0,,,,,,,,,
KRDR,09-22-2015,06:58,METAR,Normal,340,6.0,,,9999.0,,10.9,5.9,30.03,1017.1,,,,,,,,,,,,,,,Clear,72000.0,,,,,,,,,
KRDR,09-22-2015,05:58,METAR,Normal,350,8.0,,,9999.0,,12.3,6.4,30.01,1016.5,,,,,,,,,,,,,,,Clear,72000.0,,,,,,,,,
KRDR,09-22-2015,04:58,METAR,Normal,360,10.0,,,9999.0,,13.9,7.6,29.97,1015.1,,,,,,,,,,,,,,,Clear,72000.0,,,,,,,,,
KRDR,09-22-2015,03:58,METAR,Normal,350,8.0,,,9999.0,,16.3,8.6,29.94,1014.2,,,,,,,,,,,,,,,Clear,72000.0,,,,,,,,,
KRDR,09-22-2015,02:58,METAR,Normal,350,13.0,,,9999.0,,18.7,8.8,29.88,1012.1,,,,,,,,,,,,,,,Clear,72000.0,,,,,,,,,
KRDR,09-22-2015,01:58,METAR,Normal,340,11.0,,,9999.0,,20.9,9.7,29.83,1010.5,,,,,,,,,,,,,,,Clear,72000.0,,,,,,,,,
KRDR,09-22-2015,00:58,METAR,Normal,340,11.0,,,9999.0,,23.0,10.2,29.77,1008.5,,,,,,,,,,,,,,,Clear,72000.0,,,,,,,,,
KRDR,09-21-2015,23:58,METAR,Normal,340,13.0,20.0,,9999.0,,26.4,10.6,29.72,1006.7,,,,,,,,,,,,,,,Clear,72000.0,,,,,,,,,
KRDR,09-21-2015,22:58,METAR,Normal,280,13.0,17.0,,9999.0,,28.3,9.9,29.68,1005.3,,,,,,,,,,,,,,,Clear,72000.0,,,,,,,,,
KRDR,09-21-2015,21:58,METAR,Normal,280,10.0,,,9999.0,,29.4,9.5,29.65,1004.2,,,,,,,,,,,,,,,Clear,72000.0,,,,,,,,,
KRDR,09-21-2015,20:58,METAR,Normal,290,17.0,22.0,,9999.0,,30.9,8.6,29.62,1003.1,,,,,,,,,,,,,,,Clear,72000.0,,,,,,,,,
KRDR,09-21-2015,19:58,METAR,Normal,270,19.0,28.0,,9999.0,,33.0,8.0,29.59,1002.0,,,,,,,,,,,,,,,Clear,72000.0,,,,,,,,,
KRDR,09-21-2015,19:46,SPECI,Normal,270,13.0,23.0,,9999.0,,33.0,8.0,29.58,,,,,,,,,,,,,,,,Clear,72000.0,,,,,,,,,
KRDR,09-21-2015,19:31,SPECI,Normal,230,19.0,25.0,,9999.0,,33.0,9.0,29.58,,,,,,,,,,,,,,,,Clear,72000.0,,,,,,,,,
KRDR,09-21-2015,18:58,METAR,Normal,190,16.0,20.0,,9999.0,,31.4,9.4,29.58,1001.7,,,,,,,,,,,,,,,Clear,72000.0,,,,,,,,,
KRDR,09-21-2015,17:58,METAR,Normal,210,14.0,,,9999.0,,29.3,10.4,29.60,1002.5,,,,,,,,,,,,,,,Clear,72000.0,,,,,,,,,
KRDR,09-21-2015,16:58,METAR,Normal,200,10.0,,,9999.0,,26.5,10.0,29.62,1003.2,,,,,,,,,,,,,,,Clear,72000.0,,,,,,,,,
KRDR,09-21-2015,15:58,METAR,Normal,180,12.0,,,9999.0,,23.0,9.8,29.64,1003.9,,,,,,,,,,,,,,,Clear,72000.0,,,,,,,,,
KRDR,09-21-2015,14:58,METAR,Normal,180,12.0,,,9999.0,,19.4,9.4,29.64,1003.9,,,,,,,,,,,,,,,Clear,72000.0,,,,,,,,,
KRDR,09-21-2015,13:58,METAR,Normal,190,11.0,,,9999.0,,16.3,8.9,29.65,1004.5,,,,,,,,,,,,,,,Clear,72000.0,,,,,,,,,
KRDR,09-21-2015,12:58,METAR,Normal,180,9.0,,,9999.0,,12.3,8.5,29.66,1004.8,,,,,,,,,,,,,,,Clear,72000.0,,,,,,,,,
KRDR,09-21-2015,11:58,METAR,Normal,190,6.0,,,9999.0,,11.2,7.9,29.67,1005.2,,,,,,,,,,,,,,,Clear,72000.0,,,,,,,,,
KRDR,09-21-2015,10:58,METAR,Normal,210,6.0,,,9999.0,,12.0,8.1,29.67,1005.0,,,,,,,,,,,,,,,Clear,72000.0,,,,,,,,,
KRDR,09-21-2015,09:58,METAR,Normal,210,7.0,,,9999.0,,13.1,8.3,29.67,1005.0,,,,,,,,,,,,,,,Clear,72000.0,,,,,,,,,
KRDR,09-21-2015,08:58,METAR,Normal,230,8.0,,,9999.0,,14.0,9.0,29.68,1005.3,,,,,,,,,,,,,,,Clear,72000.0,,,,,,,,,
KRDR,09-21-2015,07:58,METAR,Normal,220,5.0,,,9999.0,,14.0,9.1,29.69,1005.7,,,,,,,,,,,,,,,Clear,72000.0,,,,,,,,,
KRDR,09-21-2015,06:58,METAR,Normal,220,10.0,,,9999.0,,15.7,9.2,29.70,1006.0,,,,,,,,,,,,,,,Clear,72000.0,,,,,,,,,
KRDR,09-21-2015,05:58,METAR,Normal,220,7.0,,,9999.0,,15.2,8.8,29.71,1006.4,,,,,,,,,,,,,,,Clear,72000.0,,,,,,,,,
KRDR,09-21-2015,04:58,METAR,Normal,220,6.0,,,9999.0,,16.2,9.1,29.72,1006.8,,,,,,,,,,,,,,,Clear,72000.0,,,,,,,,,
KRDR,09-21-2015,03:58,METAR,Normal,210,8.0,,,9999.0,,18.6,9.3,29.73,1007.1,,,,,,,,,,,,,,,Clear,72000.0,,,,,,,,,
KRDR,09-21-2015,02:58,METAR,Normal,210,9.0,,,9999.0,,18.7,8.9,29.74,1007.5,,,,,,,,,,,,,,,Clear,72000.0,,,,,,,,,
KRDR,09-21-2015,01:58,METAR,Normal,190,5.0,,,9999.0,,17.8,9.2,29.74,1007.7,,,,,,,,,,,,,,,Clear,72000.0,,,,,,,,,
KRDR,09-21-2015,00:58,METAR,Normal,180,7.0,,,9999.0,,20.7,9.2,29.73,1007.3,,,,,,,,,,,,,,,Clear,72000.0,,,,,,,,,
KRDR,09-20-2015,23:58,METAR,Normal,160,10.0,,,9999.0,,23.3,9.7,29.74,1007.6,,,,,,,,,,,,,,,Clear,72000.0,,,,,,,,,
KRDR,09-20-2015,22:58,METAR,Normal,160,15.0,,,9999.0,,24.7,9.4,29.75,1007.9,,,,,,,,,,,,,,,Clear,72000.0,,,,,,,,,
KRDR,09-20-2015,21:58,METAR,Normal,170,14.0,,,9999.0,,25.3,9.5,29.76,1008.2,,,,,,,,,,,,,,,Clear,72000.0,,,,,,,,,
KRDR,09-20-2015,20:58,METAR,Normal,170,13.0,,,9999.0,,25.4,9.4,29.77,1008.5,,,,,,,,,,,,,,,Clear,72000.0,,,,,,,,,
KRDR,09-20-2015,19:58,METAR,Normal,180,11.0,,,9999.0,,24.7,9.7,29.78,1008.8,,,,,,,,,,,,,,,Clear,72000.0,,,,,,,,,
KRDR,09-20-2015,18:58,METAR,Normal,170,14.0,,,9999.0,,23.5,10.0,29.80,1009.5,,,,,,,,,,,,,,,Clear,72000.0,,,,,,,,,
KRDR,09-20-2015,17:58,METAR,Normal,180,12.0,,,9999.0,,22.0,10.4,29.81,1009.8,,,,,,,,,,,,,,,Clear,72000.0,,,,,,,,,
KRDR,09-20-2015,17:35,SPECI,Normal,170,8.0,,,9999.0,,22.0,10.0,29.81,,,,,,,,,,,,,,,,Clear,72000.0,,,,,,,,,
KRDR,09-20-2015,16:58,METAR,Normal,190,10.0,,,9999.0,,19.7,10.0,29.83,1010.5,,,,,,,,,,,,,,,Clear,72000.0,,,,,,,,,
KRDR,09-20-2015,15:58,METAR,Normal,180,13.0,,,9999.0,,16.9,9.5,29.83,1010.6,,,,,,,,,,,,,,,Clear,72000.0,,,,,,,,,
KRDR,09-20-2015,14:58,METAR,Normal,200,12.0,,,9999.0,,14.2,8.7,29.85,1011.3,,,,,,,,,,,,,,,Clear,72000.0,,,,,,,,,
KRDR,09-20-2015,13:58,METAR,Normal,180,11.0,,,9999.0,,11.3,7.6,29.85,1011.4,,,,,,,,,,,,,,,Clear,72000.0,,,,,,,,,
KRDR,09-20-2015,12:58,METAR,Normal,170,7.0,,,9999.0,,9.0,6.7,29.86,1011.8,,,,,,,,,,,,,,,,11000.0,11000.0,BKN,11000.0,,,,,,
KRDR,09-20-2015,11:58,METAR,Normal,190,8.0,,,9999.0,,8.1,6.1,29.86,1011.7,,,,,,,,,,,,,,,Clear,72000.0,,,,,,,,,
KRDR,09-20-2015,10:58,METAR,Normal,180,8.0,,,9999.0,,8.7,6.2,29.86,1011.6,,,,,,,,,,,,,,,4/8 Partly Cloudy,72000.0,11000.0,SCT,11000.0,,,,,,
KRDR,09-20-2015,09:58,METAR,Normal,180,10.0,,,9999.0,,9.5,6.1,29.86,1011.6,,,,,,,,,,,,,,,Clear,72000.0,,,,,,,,,
KRDR,09-20-2015,08:58,METAR,Normal,180,9.0,,,9999.0,,10.8,6.4,29.87,1011.8,,,,,,,,,,,,,,,2/8 Mostly Clear,72000.0,11000.0,FEW,11000.0,,,,,,
KRDR,09-20-2015,07:58,METAR,Normal,200,8.0,,,9999.0,,12.9,6.3,29.88,1012.1,,,,,,,,,,,,,,,Clear,72000.0,,,,,,,,,
KRDR,09-20-2015,06:58,METAR,Normal,220,11.0,17.0,,9999.0,,14.1,6.2,29.87,1011.8,,,,,,,,,,,,,,,Clear,72000.0,,,,,,,,,
KRDR,09-20-2015,05:58,METAR,Normal,230,12.0,19.0,,9999.0,,14.9,6.6,29.87,1011.8,,,,,,,,,,,,,,,Clear,72000.0,,,,,,,,,
KRDR,09-20-2015,04:58,METAR,Normal,230,11.0,,,9999.0,,15.7,6.4,29.88,1012.2,,,,,,,,,,,,,,,Clear,72000.0,,,,,,,,,
KRDR,09-20-2015,03:58,METAR,Normal,230,10.0,,,9999.0,,16.3,6.7,29.88,1012.2,,,,,,,,,,,,,,,Clear,72000.0,,,,,,,,,
KRDR,09-20-2015,02:58,METAR,Normal,220,10.0,,,9999.0,,17.6,6.2,29.87,1012.0,,,,,,,,,,,,,,,Clear,72000.0,,,,,,,,,
KRDR,09-20-2015,01:58,METAR,Normal,230,9.0,,,9999.0,,17.6,5.3,29.86,1011.7,,,,,,,,,,,,,,,Clear,72000.0,,,,,,,,,
KRDR,09-20-2015,00:58,METAR,Normal,220,6.0,,,9999.0,,18.0,5.0,29.85,1011.4,,,,,,,,,,,,,,,Clear,72000.0,,,,,,,,,
KRDR,09-19-2015,23:58,METAR,Normal,230,5.0,,,9999.0,,22.6,5.9,29.85,1011.3,,,,,,,,,,,,,,,Clear,72000.0,,,,,,,,,
KRDR,09-19-2015,22:58,METAR,Normal,240,7.0,,,9999.0,,24.0,6.8,29.85,1011.2,,,,,,,,,,,,,,,Clear,72000.0,,,,,,,,,
KRDR,09-19-2015,21:58,METAR,Normal,230,18.0,19.0,,9999.0,,25.4,5.6,29.86,1011.6,,,,,,,,,,,,,,,4/8 Partly Cloudy,72000.0,9000.0,SCT,9100.0,,,,,,
KRDR,09-19-2015,20:58,METAR,Normal,260,8.0,19.0,,9999.0,,25.7,5.9,29.87,1011.8,,,,,,,,,,,,,,,4/8 Partly Cloudy,72000.0,9500.0,SCT,9600.0,,,,,,
KRDR,09-19-2015,19:58,METAR,Normal,250,12.0,16.0,,9999.0,,25.5,5.5,29.89,1012.7,,,,,,,,,,,,,,,2/8 Mostly Clear,72000.0,9000.0,FEW,9100.0,,,,,,
KRDR,09-19-2015,19:22,SPECI,Normal,230,11.0,,,9999.0,,26.0,6.0,29.90,,,,,,,,,,,,,,,,Clear,72000.0,,,,,,,,,
KRDR,09-19-2015,18:58,METAR,Normal,280,11.0,,,9999.0,,24.9,6.3,29.90,1013.0,,,,,,,,,,,,,,,Clear,72000.0,,,,,,,,,
KRDR,09-19-2015,17:58,METAR,Normal,260,8.0,,,9999.0,,24.0,7.4,29.91,1013.3,,,,,,,,,,,,,,,Clear,72000.0,,,,,,,,,
KRDR,09-19-2015,16:58,METAR,Normal,290,9.0,,,9999.0,,21.9,8.4,29.93,1014.1,,,,,,,,,,,,,,,Clear,72000.0,,,,,,,,,
KRDR,09-19-2015,15:58,METAR,Normal,270,7.0,,,9999.0,,18.9,8.4,29.93,1014.2,,,,,,,,,,,,,,,Clear,72000.0,,,,,,,,,
KRDR,09-19-2015,14:58,METAR,Normal,260,9.0,,,9999.0,,16.2,8.2,29.92,1013.9,,,,,,,,,,,,,,,Clear,72000.0,,,,,,,,,
KRDR,09-19-2015,13:58,METAR,Normal,270,12.0,,,9999.0,,13.3,7.6,29.92,1014.0,,,,,,,,,,,,,,,Clear,72000.0,,,,,,,,,
KRDR,09-19-2015,12:58,METAR,Normal,270,11.0,,,9999.0,,10.9,6.9,29.92,1014.0,,,,,,,,,,,,,,,Clear,72000.0,,,,,,,,,
KRDR,09-19-2015,11:58,METAR,Normal,260,10.0,,,9999.0,,10.8,6.8,29.92,1013.9,,,,,,,,,,,,,,,Clear,72000.0,,,,,,,,,
KRDR,09-19-2015,10:58,METAR,Normal,260,10.0,,,9999.0,,11.3,6.7,29.92,1013.9,,,,,,,,,,,,,,,2/8 Mostly Clear,72000.0,9500.0,FEW,9600.0,,,,,,
KRDR,09-19-2015,09:58,METAR,Normal,260,8.0,,,9999.0,,10.0,6.6,29.93,1014.2,,,,,,,,,,,,,,,Clear,72000.0,,,,,,,,,
KRDR,09-19-2015,08:58,METAR,Normal,260,9.0,,,9999.0,,10.4,6.9,29.94,1014.5,,,,,,,,,,,,,,,Clear,72000.0,,,,,,,,,
KRDR,09-19-2015,07:58,METAR,Normal,220,6.0,,,9999.0,,8.0,6.1,29.96,1015.3,,,,,,,,,,,,,,,2/8 Mostly Clear,72000.0,9000.0,FEW,9100.0,,,,,,
KRDR,09-19-2015,06:58,METAR,Normal,230,5.0,,,9999.0,,8.2,6.5,29.96,1015.3,,,,,,,,,,,,,,,4/8 Partly Cloudy,72000.0,9000.0,SCT,9100.0,,,,,,
KRDR,09-19-2015,05:58,METAR,Normal,220,3.0,,,9999.0,,10.0,7.2,29.96,1015.3,,,,,,,,,,,,,,,Clear,72000.0,,,,,,,,,
KRDR,09-19-2015,04:58,METAR,Normal,230,7.0,,,9999.0,,9.7,7.2,29.99,1016.3,,,,,,,,,,,,,,,,11000.0,11000.0,OVC,11000.0,,,,,,
KRDR,09-19-2015,03:58,METAR,Normal,250,5.0,,,9999.0,,9.2,6.5,29.98,1016.0,,,,,,,,,,,,,,,Clear,72000.0,,,,,,,,,
KRDR,09-19-2015,02:58,METAR,Normal,240,5.0,,,9999.0,,9.1,5.8,29.98,1016.1,,,,,,,,,,,,,,,Clear,72000.0,,,,,,,,,
KRDR,09-19-2015,01:58,METAR,Normal,190,4.0,,,9999.0,,8.7,5.8,29.97,1015.8,,,,,,,,,,,,,,,Clear,72000.0,,,,,,,,,
KRDR,09-19-2015,00:58,METAR,Normal,150,4.0,,,9999.0,,12.3,7.1,29.97,1015.9,,,,,,,,,,,,,,,Clear,72000.0,,,,,,,,,
KRDR,09-18-2015,23:58,METAR,Calm,,0.0,,,9999.0,,16.9,6.6,29.98,1016.1,,,,,,,,,,,,,,,Clear,72000.0,,,,,,,,,
KRDR,09-18-2015,22:58,METAR,Normal,280,3.0,,,9999.0,,17.4,7.1,29.98,1016.1,,,,,,,,,,,,,,,2/8 Mostly Clear,72000.0,6000.0,FEW,6000.0,,,,,,
KRDR,09-18-2015,21:58,METAR,Normal,300,7.0,,,9999.0,,17.0,7.0,29.98,1016.1,,,,,,,,,,,,,,,4/8 Partly Cloudy,72000.0,5000.0,SCT,5000.0,,,,,,
KRDR,09-18-2015,20:58,METAR,Normal,330,5.0,,,9999.0,,17.3,7.7,29.98,1016.1,,,,,,,,,,,,,,,Clear,72000.0,,,,,,,,,
KRDR,09-18-2015,19:58,METAR,Normal,270,3.0,,,9999.0,,16.5,8.1,29.98,1016.0,,,,,,,,,,,,,,,Clear,72000.0,,,,,,,,,
KRDR,09-18-2015,18:58,METAR,Normal,280,5.0,,,9999.0,,16.1,7.9,30.00,1016.7,,,,,,,,,,,,,,,Clear,72000.0,,,,,,,,,
KRDR,09-18-2015,17:58,METAR,Normal,330,2.0,,,9999.0,,15.8,7.6,29.99,1016.4,,,,,,,,,,,,,,,Clear,72000.0,,,,,,,,,
KRDR,09-18-2015,16:58,METAR,Normal,260,3.0,,,9999.0,,15.8,8.1,30.01,1017.0,,,,,,,,,,,,,,,Clear,72000.0,,,,,,,,,
KRDR,09-18-2015,15:58,METAR,Normal,310,5.0,,,9999.0,,14.7,8.0,30.01,1017.0,,,,,,,,,,,,,,,Clear,72000.0,,,,,,,,,
KRDR,09-18-2015,14:58,METAR,Normal,310,4.0,,,9999.0,,12.4,8.9,29.99,1016.4,,,,,,,,,,,,,,,Clear,72000.0,,,,,,,,,
KRDR,09-18-2015,13:58,METAR,Normal,260,5.0,,,9999.0,,9.5,7.9,29.99,1016.4,,,,,,,,,,,,,,,Clear,72000.0,,,,,,,,,
KRDR,09-18-2015,12:58,METAR,Calm,,0.0,,,9999.0,,4.6,3.9,29.95,1015.2,,,,,,,,,,,,,,,Clear,72000.0,,,,,,,,,
KRDR,09-18-2015,11:58,METAR,Normal,260,4.0,,,9999.0,,4.1,3.5,29.95,1015.1,,,,,,,,,,,,,,,Clear,72000.0,,,,,,,,,
KRDR,09-18-2015,10:58,METAR,Normal,230,4.0,,,9999.0,,4.8,4.3,29.95,1015.1,,,,,,,,,,,,,,,Clear,72000.0,,,,,,,,,
KRDR,09-18-2015,09:58,METAR,Normal,230,2.0,,,9999.0,,4.6,3.9,29.94,1014.7,,,,,,,,,,,,,,,Clear,72000.0,,,,,,,,,
KRDR,09-18-2015,08:58,METAR,Normal,280,3.0,,,9999.0,,5.7,4.7,29.92,1014.0,,,,,,,,,,,,,,,Clear,72000.0,,,,,,,,,
KRDR,09-18-2015,07:58,METAR,Normal,280,5.0,,,9999.0,,6.6,5.4,29.91,1013.6,,,,,,,,,,,,,,,Clear,72000.0,,,,,,,,,
KRDR,09-18-2015,06:58,METAR,Normal,230,4.0,,,9999.0,,6.4,5.3,29.92,1013.9,,,,,,,,,,,,,,,Clear,72000.0,,,,,,,,,
KRDR,09-18-2015,05:58,METAR,Normal,290,5.0,,,9999.0,,7.9,6.4,29.92,1013.9,,,,,,,,,,,,,,,Clear,72000.0,,,,,,,,,
KRDR,09-18-2015,04:58,METAR,Normal,280,6.0,,,9999.0,,9.4,7.3,29.92,1013.9,,,,,,,,,,,,,,,Clear,72000.0,,,,,,,,,
KRDR,09-18-2015,03:58,METAR,Normal,300,6.0,,,9999.0,,10.3,7.6,29.91,1013.6,,,,,,,,,,,,,,,Clear,72000.0,,,,,,,,,
KRDR,09-18-2015,02:58,METAR,Normal,290,6.0,,,9999.0,,9.7,7.3,29.90,1013.2,,,,,,,,,,,,,,,Clear,72000.0,,,,,,,,,
KRDR,09-18-2015,01:58,METAR,Normal,310,6.0,,,9999.0,,12.8,8.3,29.88,1012.6,,,,,,,,,,,,,,,4/8 Partly Cloudy,72000.0,6500.0,SCT,6500.0,,,,,,
KRDR,09-18-2015,00:58,METAR,Normal,310,10.0,,,9999.0,,13.4,9.0,29.86,1011.9,,,,,,,,,,,,,,,2/8 Mostly Clear,72000.0,6500.0,FEW,6500.0,,,,,,
KRDR,09-17-2015,23:58,METAR,Normal,320,11.0,,,9999.0,,15.5,9.4,29.85,1011.4,,,,,,,,,,,,,TRACE,,,5000.0,5000.0,OVC,5000.0,,,,,,
KRDR,09-17-2015,22:58,METAR,Normal,310,16.0,23.0,320/27KTS,9999.0,,15.0,11.0,29.84,1011.1,,,,,,,,,,,TRACE,,,,,3000.0,2500.0,FEW,2500.0,OVC,3000.0,,,,
KRDR,09-17-2015,22:54,SPECI,Normal,320,14.0,23.0,,9999.0,,14.0,11.0,29.84,,,,,,,,,,,,,,,,,3200.0,2500.0,SCT,2500.0,OVC,3200.0,,,,
KRDR,09-17-2015,22:38,SPECI,Normal,320,17.0,27.0,,9999.0,Light Drizzle,15.0,12.0,29.84,,51,,,,,,,,,,,,,,,2600.0,2600.0,OVC,2600.0,,,,,,
KRDR,09-17-2015,21:58,METAR,Normal,300,10.0,17.0,,9999.0,,15.9,11.7,29.82,1010.4,,,,,,,,,,,TRACE,,,,,2900.0,3000.0,BKN,3000.0,BKN,3800.0,OVC,6000.0,,
KRDR,09-17-2015,21:49,SPECI,Normal,300,9.0,18.0,,9999.0,,16.0,12.0,29.82,,,,,,,,,,,,,,,,,3700.0,3000.0,SCT,3000.0,BKN,3700.0,BKN,6000.0,,
KRDR,09-17-2015,21:39,SPECI,Normal,270,13.0,21.0,,9999.0,Light Drizzle,16.0,12.0,29.82,,51,,,,,,,,,,,,,,,4200.0,4200.0,BKN,4200.0,BKN,5500.0,OVC,8000.0,,
KRDR,09-17-2015,20:58,METAR,Normal,290,11.0,,,9999.0,,17.9,11.4,29.80,1009.6,,,,,,,,,,,,,,,,5500.0,3200.0,FEW,3200.0,BKN,5500.0,BKN,8000.0,,
KRDR,09-17-2015,19:58,METAR,Normal,310,11.0,17.0,,9999.0,,19.5,11.1,29.79,1009.2,,,,,,,,,,,,,,,,5500.0,3200.0,FEW,3200.0,BKN,5500.0,,,,
KRDR,09-17-2015,18:58,METAR,Normal,320,11.0,,,9999.0,,18.4,11.0,29.79,1009.2,,,,,,,,,,,,,,,,4600.0,3300.0,FEW,3300.0,OVC,4600.0,,,,
KRDR,09-17-2015,17:58,METAR,Variable,320,9.0,,,9999.0,,18.3,11.1,29.79,1009.2,,,,,,,,,,,,,,,,3000.0,3000.0,BKN,3000.0,OVC,7000.0,,,,
KRDR,09-17-2015,16:58,METAR,Variable,340,9.0,,,9999.0,,17.6,11.5,29.79,1009.3,,,,,,,,,,,,,,,,5000.0,2200.0,SCT,2200.0,BKN,5000.0,,,,
KRDR,09-17-2015,15:58,METAR,Normal,350,13.0,,,9999.0,,15.7,11.8,29.74,1007.6,,,,,,,,,,,,,,,4/8 Partly Cloudy,72000.0,1600.0,SCT,1600.0,,,,,,
KRDR,09-17-2015,14:58,METAR,Normal,360,10.0,,,9999.0,,15.3,12.2,29.70,1006.3,,,,,,,,,,,,,,,4/8 Partly Cloudy,72000.0,1300.0,SCT,1300.0,,,,,,
KRDR,09-17-2015,13:58,METAR,Normal,360,11.0,,,9999.0,,14.1,12.2,29.69,1005.9,,,,,,,,,,,,,,,4/8 Partly Cloudy,72000.0,900.0,FEW,900.0,SCT,5000.0,,,,
KRDR,09-17-2015,13:45,SPECI,Normal,350,8.0,,,9999.0,,14.0,12.0,29.70,,,,,,,,,,,,,,,,4/8 Partly Cloudy,72000.0,800.0,SCT,800.0,,,,,,
KRDR,09-17-2015,12:58,METAR,Normal,360,11.0,,,9999.0,,13.3,12.0,29.69,1006.0,,,,,,,,,,,,,,,,800.0,800.0,OVC,800.0,,,,,,
KRDR,09-17-2015,11:58,METAR,Normal,340,7.0,,,9999.0,,13.2,11.9,29.68,1005.5,,,,,,,,,,,,,.03 IN,.03 IN,,900.0,900.0,OVC,900.0,,,,,,
KRDR,09-17-2015,11:23,SPECI,Normal,360,7.0,,,9999.0,,13.0,12.0,29.67,,,,,,,,,,,,,,,,,900.0,900.0,OVC,900.0,,,,,,
KRDR,09-17-2015,11:03,SPECI,Normal,10,6.0,,,9999.0,,13.0,11.0,29.66,,,,,,,,,,,,,,,,,1000.0,1000.0,BKN,1000.0,,,,,,
KRDR,09-17-2015,10:58,METAR,Normal,10,7.0,,,9999.0,,13.0,11.0,29.66,1004.7,,,,,,,,,,,,,,,4/8 Partly Cloudy,72000.0,1000.0,SCT,1000.0,,,,,,
KRDR,09-17-2015,10:52,SPECI,Normal,360,9.0,,,9999.0,,13.0,11.0,29.66,,,,,,,,,,,,,,,,2/8 Mostly Clear,72000.0,1100.0,FEW,1100.0,,,,,,
KRDR,09-17-2015,09:58,METAR,Normal,10,15.0,21.0,350/28KTS,9999.0,,13.6,12.1,29.62,1003.3,,,,,,,,,,,.02 IN,,,,4/8 Partly Cloudy,72000.0,9500.0,SCT,9600.0,,,,,,
KRDR,09-17-2015,09:32,SPECI,Normal,360,15.0,22.0,,9999.0,,14.0,12.0,29.64,,,,,,,,,,,,,,,,,12000.0,4200.0,FEW,4200.0,SCT,10000.0,BKN,12000.0,,
KRDR,09-17-2015,08:58,METAR,Normal,340,10.0,,,9999.0,Light Rain,14.3,12.9,29.66,1004.7,61,,,,,,,,,,.01 IN,.01 IN,,,,2700.0,2900.0,BKN,2900.0,BKN,9100.0,,,,
KRDR,09-17-2015,08:15,SPECI,Normal,340,5.0,,,9999.0,Light Drizzle,15.0,13.0,29.64,,51,,,,,,,,,,,,,,2/8 Mostly Clear,72000.0,11000.0,FEW,11000.0,,,,,,
KRDR,09-17-2015,07:58,METAR,Normal,360,4.0,,,9999.0,,15.1,12.4,29.63,1003.7,,,,,,,,,,,TRACE,,,,Clear,72000.0,,,,,,,,,
KRDR,09-17-2015,07:50,SPECI,Normal,350,1.0,,,9999.0,,15.0,12.0,29.63,,,,,,,,,,,,,,,,2/8 Mostly Clear,72000.0,12000.0,FEW,12000.0,,,,,,
KRDR,09-17-2015,07:45,SPECI,Normal,320,1.0,,,9999.0,Light Drizzle,15.0,12.0,29.64,,51,,,,,,,,,,,,,,2/8 Mostly Clear,72000.0,12000.0,FEW,12000.0,,,,,,
KRDR,09-17-2015,07:19,SPECI,Normal,340,7.0,,,9999.0,,15.0,12.0,29.63,,,,,,,,,,,,,,,,2/8 Mostly Clear,72000.0,12000.0,FEW,12000.0,,,,,,
KRDR,09-17-2015,07:10,SPECI,Normal,350,3.0,,,9999.0,Light Drizzle,15.0,12.0,29.62,,51,,,,,,,,,,,,,,2/8 Mostly Clear,72000.0,12000.0,FEW,12000.0,,,,,,
KRDR,09-17-2015,06:58,METAR,Normal,300,6.0,,,9999.0,,14.8,12.0,29.65,1004.3,,,,,,,,,,,,,,,2/8 Mostly Clear,72000.0,12000.0,FEW,12000.0,,,,,,
KRDR,09-17-2015,05:58,METAR,Normal,320,5.0,,,9999.0,,15.8,12.0,29.67,1005.0,,,,,,,,,,,,,,,Clear,72000.0,,,,,,,,,
KRDR,09-17-2015,04:58,METAR,Normal,20,6.0,,,9999.0,,14.3,11.6,29.66,1004.8,,,,,,,,,,,,,,,Clear,72000.0,,,,,,,,,
KRDR,09-17-2015,03:58,METAR,Normal,50,6.0,,,9999.0,,14.8,11.6,29.67,1005.2,,,,,,,,,,,,,,,2/8 Mostly Clear,72000.0,6000.0,FEW,6000.0,,,,,,
KRDR,09-17-2015,02:58,METAR,Normal,20,5.0,,,9999.0,,15.1,10.9,29.70,1006.2,,,,,,,,,,,,,,,4/8 Partly Cloudy,72000.0,6000.0,SCT,6000.0,,,,,,
KRDR,09-17-2015,01:58,METAR,Normal,40,5.0,,,9999.0,,17.7,10.8,29.72,1006.9,,,,,,,,,,,,,,,4/8 Partly Cloudy,72000.0,6000.0,SCT,6000.0,,,,,,
KRDR,09-17-2015,00:58,METAR,Normal,10,7.0,,,9999.0,,16.1,11.4,29.73,1007.3,,,,,,,,,,,,,,,Clear,72000.0,,,,,,,,,
KRDR,09-16-2015,23:58,METAR,Normal,70,5.0,,,9999.0,,21.2,10.9,29.75,1007.8,,,,,,,,,,,,,,,Clear,72000.0,,,,,,,,,
KRDR,09-16-2015,22:58,METAR,Normal,80,8.0,,,9999.0,,22.7,10.5,29.75,1007.8,,,,,,,,,,,,,,,Clear,72000.0,,,,,,,,,
KRDR,09-16-2015,21:58,METAR,Normal,30,9.0,,,9999.0,,23.5,10.6,29.75,1007.6,,,,,,,,,,,,,,,Clear,72000.0,,,,,,,,,
KRDR,09-16-2015,20:58,METAR,Normal,10,7.0,,,9999.0,,23.6,10.4,29.76,1007.9,,,,,,,,,,,,,,,Clear,72000.0,,,,,,,,,
KRDR,09-16-2015,19:58,METAR,Normal,330,6.0,,,9999.0,,23.5,10.8,29.78,1008.7,,,,,,,,,,,,,,,Clear,72000.0,,,,,,,,,
KRDR,09-16-2015,18:58,METAR,Normal,30,5.0,,,9999.0,,22.5,10.2,29.79,1009.0,,,,,,,,,,,,,,,Clear,72000.0,,,,,,,,,
KRDR,09-16-2015,17:58,METAR,Normal,20,5.0,,,9999.0,,21.7,10.6,29.80,1009.3,,,,,,,,,,,,,,,Clear,72000.0,,,,,,,,,
KRDR,09-16-2015,16:58,METAR,Normal,350,8.0,,,9999.0,,20.2,11.4,29.81,1009.6,,,,,,,,,,,,,,,Clear,72000.0,,,,,,,,,
KRDR,09-16-2015,15:58,METAR,Normal,330,7.0,,,9999.0,,17.4,11.8,29.81,1009.7,,,,,,,,,,,,,,,Clear,72000.0,,,,,,,,,
KRDR,09-16-2015,14:58,METAR,Normal,330,8.0,,,9999.0,,16.6,12.3,29.81,1009.7,,,,,,,,,,,,,,,Clear,72000.0,,,,,,,,,
KRDR,09-16-2015,13:58,METAR,Normal,340,4.0,,,9999.0,,15.6,12.1,29.81,1009.7,,,,,,,,,,,,,,,Clear,72000.0,,,,,,,,,
KRDR,09-16-2015,12:58,METAR,Normal,10,5.0,,,9999.0,,15.5,12.6,29.78,1008.7,,,,,,,,,,,,,,,Clear,72000.0,,,,,,,,,
KRDR,09-16-2015,11:58,METAR,Normal,330,7.0,,,9999.0,,16.1,14.0,29.74,1007.2,,,,,,,,,,,,,,,Clear,72000.0,,,,,,,,,
KRDR,09-16-2015,10:58,METAR,Normal,310,8.0,,,9999.0,,16.2,14.5,29.70,1005.9,,,,,,,,,,,,,,,Clear,72000.0,,,,,,,,,
KRDR,09-16-2015,09:58,METAR,Normal,330,5.0,,,9999.0,,17.4,15.0,29.68,1005.1,,,,,,,,,,,,,,,Clear,72000.0,,,,,,,,,
KRDR,09-16-2015,08:58,METAR,Normal,340,8.0,,,9999.0,,19.4,15.3,29.66,1004.4,,,,,,,,,,,,,,,Clear,72000.0,,,,,,,,,
KRDR,09-16-2015,07:58,METAR,Normal,220,4.0,,,9999.0,,18.0,15.7,29.62,1003.1,,,,,,,,,,,,,,,2/8 Mostly Clear,72000.0,12000.0,FEW,12000.0,,,,,,
KRDR,09-16-2015,06:58,METAR,Normal,210,6.0,,,9999.0,,20.3,16.1,29.59,1002.1,,,,,,,,,,,,,,,2/8 Mostly Clear,72000.0,12000.0,FEW,12000.0,,,,,,
KRDR,09-16-2015,05:58,METAR,Normal,180,10.0,,,9999.0,,22.0,16.2,29.56,1001.0,,,,,,,,,,,,,,,Clear,72000.0,,,,,,,,,
KRDR,09-16-2015,04:58,METAR,Normal,180,11.0,,,9999.0,,22.9,16.5,29.56,1001.0,,,,,,,,,,,,,,,Clear,72000.0,,,,,,,,,
KRDR,09-16-2015,03:58,METAR,Normal,170,9.0,,,9999.0,,22.3,16.7,29.55,1000.7,,,,,,,,,,,,,,,Clear,72000.0,,,,,,,,,
KRDR,09-16-2015,02:58,METAR,Normal,160,8.0,,,9999.0,,22.5,16.8,29.55,1000.8,,,,,,,,,,,,,,,Clear,72000.0,,,,,,,,,
KRDR,09-16-2015,01:58,METAR,Normal,160,10.0,,,9999.0,,25.1,16.7,29.54,1000.5,,,,,,,,,,,,,,,Clear,72000.0,,,,,,,,,
KRDR,09-16-2015,00:58,METAR,Normal,170,11.0,,,9999.0,,25.8,17.0,29.53,1000.2,,,,,,,,,,,,,,,Clear,72000.0,,,,,,,,,
KRDR,09-15-2015,23:58,METAR,Normal,170,19.0,25.0,,9999.0,,26.9,16.8,29.52,999.9,,,,,,,,,,,,,,,Clear,72000.0,,,,,,,,,
KRDR,09-15-2015,22:58,METAR,Normal,180,19.0,24.0,,9999.0,,27.3,16.8,29.52,999.9,,,,,,,,,,,,,,,Clear,72000.0,,,,,,,,,
KRDR,09-15-2015,21:58,METAR,Normal,160,21.0,31.0,,9999.0,,27.5,16.7,29.51,999.5,,,,,,,,,,,,,,,Clear,72000.0,,,,,,,,,
KRDR,09-15-2015,20:58,METAR,Normal,160,20.0,26.0,,9999.0,,28.0,17.5,29.52,999.8,,,,,,,,,,,,,,,Clear,72000.0,,,,,,,,,
KRDR,09-15-2015,19:58,METAR,Normal,150,18.0,23.0,,9999.0,,27.6,18.0,29.55,1000.8,,,,,,,,,,,,,,,Clear,72000.0,,,,,,,,,
KRDR,09-15-2015,18:58,METAR,Normal,140,13.0,18.0,,9999.0,,26.1,18.0,29.57,1001.6,,,,,,,,,,,,,,,Clear,72000.0,,,,,,,,,
KRDR,09-15-2015,17:58,METAR,Normal,150,11.0,18.0,,9999.0,,25.9,18.4,29.59,1002.2,,,,,,,,,,,,,,,Clear,72000.0,,,,,,,,,
KRDR,09-15-2015,16:58,METAR,Normal,160,10.0,,,9999.0,,24.7,18.2,29.62,1003.3,,,,,,,,,,,,,,,Clear,72000.0,,,,,,,,,
KRDR,09-15-2015,15:58,METAR,Normal,160,10.0,,,9999.0,,23.0,18.1,29.63,1003.6,,,,,,,,,,,,,,,Clear,72000.0,,,,,,,,,
KRDR,09-15-2015,14:58,METAR,Normal,180,7.0,,,9999.0,,18.0,16.0,29.65,1004.4,,,,,,,,,,,,,,,4/8 Partly Cloudy,72000.0,700.0,SCT,700.0,,,,,,
KRDR,09-15-2015,14:43,SPECI,Calm,,0.0,,,9999.0,,17.0,16.0,29.65,,,,,,,,,,,,,,,,4/8 Partly Cloudy,72000.0,400.0,SCT,400.0,,,,,,
KRDR,09-15-2015,14:38,SPECI,Normal,190,1.0,,,9999.0,,17.0,16.0,29.65,,,,,,,,,,,,,,,,,400.0,400.0,BKN,400.0,,,,,,
KRDR,09-15-2015,13:58,METAR,Calm,,0.0,,,9999.0,,15.1,14.8,29.66,1004.8,,,,,,,,,,,,,,,,300.0,300.0,OVC,300.0,,,,,,
KRDR,09-15-2015,12:58,METAR,Normal,350,2.0,,,9999.0,,13.8,13.5,29.66,1004.8,,,,,,,,,,,,,,,,300.0,300.0,OVC,300.0,,,,,,
KRDR,09-15-2015,12:43,SPECI,Normal,350,2.0,,,9999.0,,13.0,13.0,29.66,,,,,,,,,,,,,,,,,300.0,300.0,OVC,300.0,,,,,,
KRDR,09-15-2015,11:58,METAR,Normal,340,4.0,,,9999.0,,12.8,12.5,29.67,1005.2,,,,,,,,,,,,,,,,400.0,400.0,OVC,400.0,,,,,,
KRDR,09-15-2015,11:53,SPECI,Normal,330,4.0,,,9999.0,,13.0,12.0,29.67,,,,,,,,,,,,,,,,,400.0,400.0,OVC,400.0,,,,,,
KRDR,09-15-2015,11:43,SPECI,Normal,330,3.0,,,9999.0,,13.0,12.0,29.67,,,,,,,,,,,,,,,,,400.0,400.0,BKN,400.0,,,,,,
KRDR,09-15-2015,11:38,SPECI,Normal,330,4.0,,,9999.0,,13.0,12.0,29.67,,,,,,,,,,,,,,,,,400.0,400.0,BKN,400.0,,,,,,
KRDR,09-15-2015,11:33,SPECI,Normal,350,4.0,,,9999.0,,12.0,12.0,29.67,,,,,,,,,,,,,,,,,500.0,500.0,BKN,500.0,,,,,,
KRDR,09-15-2015,11:23,SPECI,Normal,350,4.0,,,9999.0,,12.0,12.0,29.66,,,,,,,,,,,,,,,,2/8 Mostly Clear,72000.0,400.0,FEW,400.0,,,,,,
KRDR,09-15-2015,10:58,METAR,Normal,360,3.0,,,9999.0,,12.4,12.1,29.66,1004.8,,,,,,,,,,,,,,,Clear,72000.0,,,,,,,,,
KRDR,09-15-2015,10:43,SPECI,Normal,360,5.0,,,9999.0,,12.0,12.0,29.67,,,,,,,,,,,,,,,,Clear,72000.0,,,,,,,,,
KRDR,09-15-2015,10:33,SPECI,Normal,360,4.0,,,9999.0,,12.0,12.0,29.67,,,,,,,,,,,,,,,,Clear,72000.0,,,,,,,,,
KRDR,09-15-2015,09:58,METAR,Normal,20,5.0,,,9999.0,,12.8,12.3,29.66,1004.8,,,,,,,,,,,,,,,Clear,72000.0,,,,,,,,,
KRDR,09-15-2015,08:58,METAR,Normal,10,6.0,,,9999.0,,12.5,12.0,29.67,1005.2,,,,,,,,,,,,,,,Clear,72000.0,,,,,,,,,
KRDR,09-15-2015,07:58,METAR,Normal,20,5.0,,,9999.0,,12.9,12.3,29.68,1005.4,,,,,,,,,,,,,,,Clear,72000.0,,,,,,,,,
KRDR,09-15-2015,06:58,METAR,Normal,20,6.0,,,9999.0,,12.9,12.2,29.70,1006.2,,,,,,,,,,,,,,,Clear,72000.0,,,,,,,,,
KRDR,09-15-2015,05:58,METAR,Normal,20,7.0,,,9999.0,,13.5,12.7,29.70,1006.2,,,,,,,,,,,,,,,Clear,72000.0,,,,,,,,,
KRDR,09-15-2015,04:58,METAR,Normal,40,3.0,,,9999.0,,15.7,13.6,29.71,1006.5,,,,,,,,,,,,,,,Clear,72000.0,,,,,,,,,
KRDR,09-15-2015,03:58,METAR,Normal,70,5.0,,,9999.0,,15.4,13.0,29.72,1006.9,,,,,,,,,,,,,,,Clear,72000.0,,,,,,,,,
KRDR,09-15-2015,02:58,METAR,Normal,40,4.0,,,9999.0,,16.3,13.2,29.75,1008.0,,,,,,,,,,,,,,,Clear,72000.0,,,,,,,,,
KRDR,09-15-2015,01:58,METAR,Normal,70,7.0,,,9999.0,,18.3,12.8,29.73,1007.3,,,,,,,,,,,,,,,Clear,72000.0,,,,,,,,,
KRDR,09-15-2015,00:58,METAR,Normal,60,9.0,,,9999.0,,19.7,13.1,29.71,1006.6,,,,,,,,,,,,,,,Clear,72000.0,,,,,,,,,
KRDR,09-14-2015,23:58,METAR,Normal,70,6.0,,,9999.0,,21.5,12.5,29.73,1007.3,,,,,,,,,,,,,,,Clear,72000.0,,,,,,,,,
KRDR,09-14-2015,22:58,METAR,Normal,70,7.0,,,9999.0,,21.7,11.8,29.72,1006.9,,,,,,,,,,,,,,,Clear,72000.0,,,,,,,,,
KRDR,09-14-2015,21:58,METAR,Normal,120,14.0,,,9999.0,,21.4,11.3,29.70,1006.2,,,,,,,,,,,,,,,Clear,72000.0,,,,,,,,,
KRDR,09-14-2015,20:59,METAR,Normal,50,7.0,,,9999.0,,21.3,10.7,29.74,1007.6,,,,,,,,,,,,,,,Clear,72000.0,,,,,,,,,
KRDR,09-14-2015,19:58,METAR,Normal,50,10.0,,,9999.0,,22.0,10.7,29.75,1007.8,,,,,,,,,,,,,,,Clear,72000.0,,,,,,,,,
KRDR,09-14-2015,18:58,METAR,Normal,60,9.0,,,9999.0,,20.3,10.4,29.76,1008.2,,,,,,,,,,,,,,,Clear,72000.0,,,,,,,,,
KRDR,09-14-2015,17:58,METAR,Normal,30,7.0,,,9999.0,,19.1,10.3,29.78,1008.8,,,,,,,,,,,,,,,Clear,72000.0,,,,,,,,,
KRDR,09-14-2015,16:58,METAR,Normal,40,9.0,15.0,,9999.0,,17.6,10.1,29.78,1008.8,,,,,,,,,,,,,,,Clear,72000.0,,,,,,,,,
KRDR,09-14-2015,15:58,METAR,Normal,40,8.0,,,9999.0,,15.5,10.2,29.77,1008.4,,,,,,,,,,,,,,,Clear,72000.0,,,,,,,,,
KRDR,09-14-2015,14:58,METAR,Normal,40,9.0,,,9999.0,,12.7,9.4,29.76,1008.2,,,,,,,,,,,,,,,Clear,72000.0,,,,,,,,,
KRDR,09-14-2015,13:58,METAR,Normal,40,11.0,,,9999.0,,11.8,9.3,29.76,1008.2,,,,,,,,,,,,,,,2/8 Mostly Clear,72000.0,900.0,FEW,900.0,,,,,,
KRDR,09-14-2015,13:13,SPECI,Normal,10,8.0,,,9999.0,,11.0,9.0,29.75,,,,,,,,,,,,,,,,4/8 Partly Cloudy,72000.0,900.0,SCT,900.0,,,,,,
KRDR,09-14-2015,12:58,METAR,Normal,20,8.0,,,9999.0,,10.1,9.0,29.74,1007.5,,,,,,,,,,,,,,,,1000.0,1000.0,OVC,1000.0,,,,,,
KRDR,09-14-2015,12:35,SPECI,Normal,360,6.0,,,9999.0,,10.0,9.0,29.74,,,,,,,,,,,,,,,,,1000.0,1000.0,BKN,1000.0,,,,,,
KRDR,09-14-2015,12:20,SPECI,Normal,360,5.0,,,9999.0,,9.0,8.0,29.73,,,,,,,,,,,,,,,,2/8 Mostly Clear,72000.0,1100.0,FEW,1100.0,,,,,,
KRDR,09-14-2015,11:58,METAR,Normal,40,6.0,,,9999.0,,9.9,8.7,29.70,1006.0,,,,,,,,,,,,,,,Clear,72000.0,,,,,,,,,
KRDR,09-14-2015,10:58,METAR,Normal,20,7.0,,,9999.0,,10.6,9.0,29.69,1005.7,,,,,,,,,,,,,,,Clear,72000.0,,,,,,,,,
KRDR,09-14-2015,09:58,METAR,Normal,10,10.0,,,9999.0,,11.4,8.8,29.68,1005.3,,,,,,,,,,,,,,,Clear,72000.0,,,,,,,,,
KRDR,09-14-2015,08:58,METAR,Normal,10,9.0,,,9999.0,,11.6,8.5,29.65,1004.3,,,,,,,,,,,,,,,Clear,72000.0,,,,,,,,,
KRDR,09-14-2015,07:58,METAR,Normal,10,10.0,,,9999.0,,12.7,8.8,29.64,1003.9,,,,,,,,,,,,,,,Clear,72000.0,,,,,,,,,
KRDR,09-14-2015,06:58,METAR,Normal,10,12.0,,,9999.0,,14.1,10.2,29.62,1003.2,,,,,,,,,,,,,,,Clear,72000.0,,,,,,,,,
KRDR,09-14-2015,05:58,METAR,Normal,10,10.0,17.0,,9999.0,,15.6,11.6,29.58,1001.8,,,,,,,,,,,,,,,Clear,72000.0,,,,,,,,,
KRDR,09-14-2015,04:58,METAR,Normal,10,11.0,,,9999.0,,17.1,12.9,29.56,1001.1,,,,,,,,,,,,,,,Clear,72000.0,,,,,,,,,
KRDR,09-14-2015,03:58,METAR,Normal,330,6.0,,,9999.0,,21.1,14.8,29.52,999.8,,,,,,,,,,,,,,,Clear,72000.0,,,,,,,,,
KRDR,09-14-2015,02:58,METAR,Normal,210,11.0,,,9999.0,,23.5,14.4,29.47,998.0,,,,,,,,,,,,,,,Clear,72000.0,,,,,,,,,
KRDR,09-14-2015,01:58,METAR,Normal,210,13.0,,,9999.0,,24.4,14.0,29.46,997.8,,,,,,,,,,,,,,,Clear,72000.0,,,,,,,,,
KRDR,09-14-2015,00:58,METAR,Normal,210,14.0,19.0,,9999.0,,25.9,13.6,29.46,997.8,,,,,,,,,,,,,,,Clear,72000.0,,,,,,,,,
KRDR,09-13-2015,23:58,METAR,Normal,200,11.0,22.0,,9999.0,,28.0,13.0,29.46,997.8,,,,,,,,,,,,,,,Clear,72000.0,,,,,,,,,
KRDR,09-13-2015,22:58,METAR,Normal,220,16.0,,/  KTS,9999.0,,29.2,12.9,29.47,998.0,,,,,,,,,,,,,,,Clear,72000.0,,,,,,,,,
KRDR,09-13-2015,21:58,METAR,Normal,200,19.0,27.0,,9999.0,,29.6,12.9,29.47,998.0,,,,,,,,,,,,,,,Clear,72000.0,,,,,,,,,
KRDR,09-13-2015,20:58,METAR,Normal,210,20.0,26.0,,9999.0,,29.4,12.7,29.49,998.7,,,,,,,,,,,,,,,Clear,72000.0,,,,,,,,,
KRDR,09-13-2015,19:58,METAR,Normal,210,18.0,25.0,,9999.0,,29.2,13.2,29.51,999.5,,,,,,,,,,,,,,,Clear,72000.0,,,,,,,,,
KRDR,09-13-2015,18:58,METAR,Normal,210,20.0,26.0,,9999.0,,28.1,12.8,29.54,1000.4,,,,,,,,,,,,,,,Clear,72000.0,,,,,,,,,
KRDR,09-13-2015,17:58,METAR,Normal,200,17.0,24.0,,9999.0,,27.1,12.8,29.57,1001.5,,,,,,,,,,,,,,,Clear,72000.0,,,,,,,,,
KRDR,09-13-2015,16:58,METAR,Normal,210,19.0,23.0,,9999.0,,25.7,12.2,29.60,1002.5,,,,,,,,,,,,,,,Clear,72000.0,,,,,,,,,
KRDR,09-13-2015,15:58,METAR,Normal,200,11.0,16.0,,9999.0,,23.0,12.8,29.62,1003.3,,,,,,,,,,,,,,,Clear,72000.0,,,,,,,,,
KRDR,09-13-2015,14:58,METAR,Normal,220,10.0,,,9999.0,,20.1,12.3,29.64,1004.0,,,,,,,,,,,,,,,Clear,72000.0,,,,,,,,,
KRDR,09-13-2015,13:58,METAR,Normal,210,10.0,,,9999.0,,16.8,11.2,29.66,1004.7,,,,,,,,,,,,,,,Clear,72000.0,,,,,,,,,
KRDR,09-13-2015,12:58,METAR,Normal,210,9.0,,,9999.0,,14.6,10.3,29.67,1005.1,,,,,,,,,,,,,,,Clear,72000.0,,,,,,,,,
KRDR,09-13-2015,11:58,METAR,Normal,220,7.0,,,9999.0,,14.1,10.0,29.68,1005.4,,,,,,,,,,,,,,,Clear,72000.0,,,,,,,,,
KRDR,09-13-2015,10:58,METAR,Normal,230,9.0,,,9999.0,,14.5,9.8,29.69,1005.7,,,,,,,,,,,,,,,Clear,72000.0,,,,,,,,,
KRDR,09-13-2015,09:58,METAR,Normal,230,9.0,,,9999.0,,14.0,9.5,29.71,1006.3,,,,,,,,,,,,,,,Clear,72000.0,,,,,,,,,
KRDR,09-13-2015,08:58,METAR,Normal,220,6.0,,,9999.0,,14.2,9.0,29.73,1007.1,,,,,,,,,,,,,,,Clear,72000.0,,,,,,,,,
KRDR,09-13-2015,07:58,METAR,Normal,210,7.0,,,9999.0,,13.3,8.7,29.75,1007.7,,,,,,,,,,,,,,,Clear,72000.0,,,,,,,,,
KRDR,09-13-2015,06:58,METAR,Normal,210,8.0,,,9999.0,,14.9,9.0,29.76,1008.0,,,,,,,,,,,,,,,Clear,72000.0,,,,,,,,,
KRDR,09-13-2015,05:58,METAR,Normal,220,8.0,,,9999.0,,15.2,9.4,29.78,1008.8,,,,,,,,,,,,,TRACE,,Clear,72000.0,,,,,,,,,
KRDR,09-13-2015,04:58,METAR,Normal,210,7.0,,,9999.0,,15.0,9.9,29.79,1009.1,,,,,,,,,,,,,,,Clear,72000.0,,,,,,,,,
KRDR,09-13-2015,03:58,METAR,Normal,220,6.0,,,9999.0,,14.6,10.0,29.81,1009.9,,,,,,,,,,,,,,,Clear,72000.0,,,,,,,,,
KRDR,09-13-2015,02:58,METAR,Normal,230,7.0,,,9999.0,,18.2,10.5,29.81,1009.9,,,,,,,,,,,,TRACE,,,Clear,72000.0,,,,,,,,,
KRDR,09-13-2015,01:58,METAR,Normal,210,8.0,,,9999.0,,18.0,11.0,29.81,1010.0,,,,,,,,,,,,,,,Clear,72000.0,,,,,,,,,
KRDR,09-13-2015,00:58,METAR,Normal,170,7.0,,,9999.0,,19.8,11.2,29.80,1009.7,,,,,,,,,,,TRACE,,,,Clear,72000.0,,,,,,,,,
KRDR,09-12-2015,23:58,METAR,Normal,170,6.0,,,9999.0,,23.5,11.8,29.82,1010.3,,,,,,,,,,,,,,,Clear,72000.0,,,,,,,,,
KRDR,09-12-2015,22:58,METAR,Normal,190,10.0,,,9999.0,,23.9,11.2,29.84,1010.9,,,,,,,,,,,,,,,Clear,72000.0,,,,,,,,,
KRDR,09-12-2015,21:58,METAR,Normal,240,8.0,,,9999.0,,25.2,10.5,29.86,1011.6,,,,,,,,,,,,,,,Clear,72000.0,,,,,,,,,
KRDR,09-12-2015,20:58,METAR,Normal,210,11.0,,,9999.0,,24.7,10.5,29.88,1012.4,,,,,,,,,,,,,,,2/8 Mostly Clear,72000.0,7500.0,FEW,7500.0,,,,,,
KRDR,09-12-2015,20:15,SPECI,Normal,230,14.0,,,9999.0,,26.0,10.0,29.91,,,,,,,,,,,,,,,,Clear,72000.0,,,,,,,,,
KRDR,09-12-2015,19:58,METAR,Normal,210,11.0,20.0,,9999.0,,25.8,9.8,29.91,1013.3,,,,,,,,,,,,,,,Clear,72000.0,,,,,,,,,
KRDR,09-12-2015,18:58,METAR,Normal,190,14.0,20.0,,9999.0,,23.9,9.3,29.94,1014.4,,,,,,,,,,,,,,,Clear,72000.0,,,,,,,,,
KRDR,09-12-2015,17:58,METAR,Normal,190,16.0,,,9999.0,,22.9,8.6,29.97,1015.4,,,,,,,,,,,,,,,Clear,72000.0,,,,,,,,,
KRDR,09-12-2015,16:58,METAR,Normal,220,11.0,,,9999.0,,22.2,9.1,29.99,1016.2,,,,,,,,,,,,,,,Clear,72000.0,,,,,,,,,
KRDR,09-12-2015,15:58,METAR,Normal,200,9.0,,,9999.0,,19.1,9.0,30.02,1017.3,,,,,,,,,,,,,,,Clear,72000.0,,,,,,,,,
KRDR,09-12-2015,14:58,METAR,Normal,190,10.0,,,9999.0,,15.6,8.2,30.03,1017.7,,,,,,,,,,,,,,,Clear,72000.0,,,,,,,,,
KRDR,09-12-2015,13:58,METAR,Normal,180,7.0,,,9999.0,,11.9,7.4,30.05,1018.4,,,,,,,,,,,,,,,Clear,72000.0,,,,,,,,,
KRDR,09-12-2015,12:58,METAR,Normal,190,7.0,,,9999.0,,9.2,6.2,30.06,1018.8,,,,,,,,,,,,,,,Clear,72000.0,,,,,,,,,
KRDR,09-12-2015,11:58,METAR,Normal,190,9.0,,,9999.0,,8.6,5.6,30.07,1019.0,,,,,,,,,,,,,,,Clear,72000.0,,,,,,,,,
KRDR,09-12-2015,10:58,METAR,Normal,190,6.0,,,9999.0,,9.0,5.6,30.09,1019.7,,,,,,,,,,,,,,,4/8 Partly Cloudy,72000.0,7500.0,SCT,7500.0,,,,,,
KRDR,09-12-2015,09:58,METAR,Normal,200,5.0,,,9999.0,,8.2,5.0,30.10,1020.0,,,,,,,,,,,,,,,Clear,72000.0,,,,,,,,,
KRDR,09-12-2015,08:58,METAR,Normal,230,6.0,,,9999.0,,7.6,4.6,30.10,1020.0,,,,,,,,,,,,,,,Clear,72000.0,,,,,,,,,
KRDR,09-12-2015,07:58,METAR,Normal,200,6.0,,,9999.0,,7.6,4.5,30.11,1020.3,,,,,,,,,,,,,,,Clear,72000.0,,,,,,,,,
KRDR,09-12-2015,06:58,METAR,Normal,200,4.0,,,9999.0,,7.1,4.7,30.12,1020.7,,,,,,,,,,,,,,,Clear,72000.0,,,,,,,,,
KRDR,09-12-2015,05:58,METAR,Normal,210,6.0,,,9999.0,,7.4,5.0,30.13,1021.1,,,,,,,,,,,,,,,Clear,72000.0,,,,,,,,,
KRDR,09-12-2015,04:58,METAR,Normal,210,5.0,,,9999.0,,8.0,5.4,30.13,1021.1,,,,,,,,,,,,,,,Clear,72000.0,,,,,,,,,
KRDR,09-12-2015,03:58,METAR,Normal,210,5.0,,,9999.0,,8.8,5.7,30.14,1021.5,,,,,,,,,,,,,,,Clear,72000.0,,,,,,,,,
KRDR,09-12-2015,02:58,METAR,Normal,210,4.0,,,9999.0,,8.5,6.4,30.15,1021.9,,,,,,,,,,,,,,,Clear,72000.0,,,,,,,,,
KRDR,09-12-2015,01:58,METAR,Normal,190,5.0,,,9999.0,,10.5,7.2,30.15,1021.9,,,,,,,,,,,,,,,Clear,72000.0,,,,,,,,,
KRDR,09-12-2015,00:58,METAR,Normal,190,3.0,,,9999.0,,14.6,7.6,30.15,1021.9,,,,,,,,,,,,,,,Clear,72000.0,,,,,,,,,
KRDR,09-11-2015,23:58,METAR,Calm,,0.0,,,9999.0,,18.9,5.2,30.16,1022.2,,,,,,,,,,,,,,,Clear,72000.0,,,,,,,,,
KRDR,09-11-2015,22:58,METAR,Normal,10,1.0,,,9999.0,,18.4,5.8,30.16,1022.2,,,,,,,,,,,,,,,Clear,72000.0,,,,,,,,,
KRDR,09-11-2015,21:58,METAR,Normal,300,5.0,,,9999.0,,19.5,6.1,30.17,1022.4,,,,,,,,,,,,,,,,6000.0,6000.0,BKN,6000.0,,,,,,
KRDR,09-11-2015,20:58,METAR,Normal,300,7.0,,,9999.0,,19.1,5.9,30.19,1023.1,,,,,,,,,,,,,,,4/8 Partly Cloudy,72000.0,5500.0,SCT,5500.0,,,,,,
KRDR,09-11-2015,19:58,METAR,Normal,310,7.0,,,9999.0,,19.1,5.7,30.20,1023.4,,,,,,,,,,,,,,,,5500.0,5500.0,BKN,5500.0,,,,,,
KRDR,09-11-2015,18:58,METAR,Normal,320,8.0,16.0,,9999.0,,18.2,5.7,30.22,1024.1,,,,,,,,,,,,,,,Clear,72000.0,,,,,,,,,
KRDR,09-11-2015,17:58,METAR,Normal,340,7.0,,,9999.0,,17.5,5.0,30.24,1024.8,,,,,,,,,,,,,,,Clear,72000.0,,,,,,,,,
KRDR,09-11-2015,16:58,METAR,Variable,,5.0,,,9999.0,,17.0,5.0,30.26,1025.5,,,,,,,,,,,,,,,Clear,72000.0,,,,,,,,,
KRDR,09-11-2015,15:58,METAR,Normal,330,7.0,,,9999.0,,15.7,4.6,30.27,1025.9,,,,,,,,,,,,,,,Clear,72000.0,,,,,,,,,
KRDR,09-11-2015,14:58,METAR,Normal,330,5.0,,,9999.0,,13.2,5.3,30.27,1025.9,,,,,,,,,,,,,,,Clear,72000.0,,,,,,,,,
KRDR,09-11-2015,13:58,METAR,Normal,310,5.0,,,9999.0,,10.2,6.2,30.28,1026.3,,,,,,,,,,,,,,,Clear,72000.0,,,,,,,,,
KRDR,09-11-2015,12:58,METAR,Normal,300,4.0,,,9999.0,,5.9,4.3,30.28,1026.5,,,,,,,,,,,,,,,Clear,72000.0,,,,,,,,,
KRDR,09-11-2015,11:58,METAR,Normal,300,4.0,,,9999.0,,3.7,3.0,30.27,1026.1,,,,,,,,,,,,,,,Clear,72000.0,,,,,,,,,
KRDR,09-11-2015,10:58,METAR,Normal,300,4.0,,,9999.0,,3.7,3.0,30.25,1025.4,,,,,,,,,,,,,,,Clear,72000.0,,,,,,,,,
KRDR,09-11-2015,09:58,METAR,Normal,310,2.0,,,9999.0,,5.1,3.9,30.24,1025.0,,,,,,,,,,,,,,,Clear,72000.0,,,,,,,,,
KRDR,09-11-2015,08:58,METAR,Normal,320,5.0,,,9999.0,,6.6,4.9,30.24,1025.0,,,,,,,,,,,,,,,Clear,72000.0,,,,,,,,,
KRDR,09-11-2015,07:58,METAR,Normal,320,6.0,,,9999.0,,7.7,5.8,30.23,1024.5,,,,,,,,,,,,,,,,5000.0,5000.0,BKN,5000.0,,,,,,
KRDR,09-11-2015,06:58,METAR,Normal,330,5.0,,,9999.0,,9.7,7.0,30.22,1024.2,,,,,,,,,,,,,,,,5500.0,5500.0,OVC,5500.0,,,,,,
KRDR,09-11-2015,05:58,METAR,Normal,330,5.0,,,9999.0,,9.5,6.9,30.22,1024.1,,,,,,,,,,,,,,,,5500.0,5500.0,OVC,5500.0,,,,,,
KRDR,09-11-2015,04:58,METAR,Normal,320,5.0,,,9999.0,,9.3,7.0,30.21,1023.9,,,,,,,,,,,,,,,,5500.0,5500.0,OVC,5500.0,,,,,,
KRDR,09-11-2015,03:58,METAR,Normal,340,5.0,,,9999.0,,10.0,7.2,30.20,1023.5,,,,,,,,,,,,,,,,5500.0,5500.0,OVC,5500.0,,,,,,
KRDR,09-11-2015,02:58,METAR,Normal,330,4.0,,,9999.0,,11.0,8.2,30.20,1023.5,,,,,,,,,,,,,,,,5000.0,5000.0,OVC,5000.0,,,,,,
KRDR,09-11-2015,01:58,METAR,Normal,350,5.0,,,9999.0,,11.1,7.8,30.19,1023.3,,,,,,,,,,,,,,,,4900.0,4900.0,OVC,4900.0,,,,,,
KRDR,09-11-2015,00:58,METAR,Normal,360,6.0,,,9999.0,,12.5,6.9,30.17,1022.7,,,,,,,,,,,,,,,,5000.0,5000.0,OVC,5000.0,,,,,,
KRDR,09-10-2015,23:58,METAR,Normal,10,8.0,,,9999.0,,13.7,6.7,30.15,1021.9,,,,,,,,,,,,,,,,5000.0,5000.0,OVC,5000.0,,,,,,
KRDR,09-10-2015,22:58,METAR,Normal,10,7.0,,,9999.0,,14.3,6.0,30.14,1021.6,,,,,,,,,,,,,,,,5000.0,5000.0,OVC,5000.0,,,,,,
KRDR,09-10-2015,21:58,METAR,Normal,20,11.0,,,9999.0,,14.4,6.1,30.14,1021.7,,,,,,,,,,,,,,,,5000.0,4000.0,FEW,4000.0,OVC,5000.0,,,,
KRDR,09-10-2015,20:58,METAR,Normal,360,11.0,,,9999.0,,14.8,6.6,30.13,1021.2,,,,,,,,,,,,,,,,5000.0,3900.0,FEW,3900.0,OVC,5000.0,,,,
KRDR,09-10-2015,19:58,METAR,Normal,10,7.0,,,9999.0,,14.7,6.3,30.13,1021.3,,,,,,,,,,,,,,,,5500.0,3600.0,SCT,3600.0,OVC,5500.0,,,,
KRDR,09-10-2015,18:58,METAR,Normal,20,11.0,,,9999.0,,13.8,6.0,30.13,1021.3,,,,,,,,,,,,,,,,4300.0,4300.0,OVC,4300.0,,,,,,
KRDR,09-10-2015,17:58,METAR,Normal,350,8.0,,,9999.0,,14.6,7.2,30.13,1021.2,,,,,,,,,,,,,,,,2700.0,2900.0,SCT,2900.0,OVC,6000.0,,,,
KRDR,09-10-2015,16:58,METAR,Normal,30,9.0,,,9999.0,,14.6,8.2,30.13,,,,,,,,,,,,,,,,,6000.0,2600.0,FEW,2600.0,OVC,6000.0,,,,
KRDR,09-10-2015,15:58,METAR,Normal,10,8.0,,,9999.0,,13.0,8.5,30.13,,,,,,,,,,,,,,,,,6000.0,6000.0,OVC,6000.0,,,,,,
KRDR,09-10-2015,14:58,METAR,Normal,350,8.0,,,9999.0,,11.8,8.5,30.12,,,,,,,,,,,,,,,,,6000.0,6000.0,BKN,6000.0,,,,,,
KRDR,09-10-2015,13:58,METAR,Normal,360,5.0,,,9999.0,,9.2,7.4,30.11,,,,,,,,,,,,,,,,,5500.0,5500.0,OVC,5500.0,,,,,,
KRDR,09-10-2015,12:58,METAR,Normal,310,4.0,,,9999.0,,5.9,5.1,30.10,,,,,,,,,,,,,,,,Clear,72000.0,,,,,,,,,
KRDR,09-10-2015,11:58,METAR,Normal,320,4.0,,,9999.0,,4.6,3.9,30.07,1019.2,,,,,,,,,,,,,,,Clear,72000.0,,,,,,,,,
KRDR,09-10-2015,10:58,METAR,Normal,330,5.0,,,9999.0,,4.3,3.6,30.05,1018.4,,,,,,,,,,,,,,,Clear,72000.0,,,,,,,,,
KRDR,09-10-2015,09:58,METAR,Normal,320,2.0,,,9999.0,,4.6,3.9,30.04,1018.1,,,,,,,,,,,,,,,Clear,72000.0,,,,,,,,,
KRDR,09-10-2015,08:58,METAR,Normal,320,2.0,,,9999.0,,5.4,4.6,30.03,1017.8,,,,,,,,,,,,,,,4/8 Partly Cloudy,72000.0,6500.0,SCT,6500.0,,,,,,
KRDR,09-10-2015,07:58,METAR,Normal,330,2.0,,,9999.0,,4.9,4.2,30.01,1017.1,,,,,,,,,,,,,,,Clear,72000.0,,,,,,,,,
KRDR,09-10-2015,06:58,METAR,Normal,330,5.0,,,9999.0,,5.4,4.7,30.02,1017.5,,,,,,,,,,,,,,,Clear,72000.0,,,,,,,,,
KRDR,09-10-2015,05:58,METAR,Normal,330,4.0,,,9999.0,,6.5,5.2,30.01,1017.1,,,,,,,,,,,,,TRACE,,Clear,72000.0,,,,,,,,,
KRDR,09-10-2015,04:58,METAR,Normal,340,3.0,,,9999.0,,6.7,5.4,29.99,1016.4,,,,,,,,,,,,,,,Clear,72000.0,,,,,,,,,
KRDR,09-10-2015,03:58,METAR,Normal,10,4.0,,,9999.0,,8.4,6.4,29.98,1016.0,,,,,,,,,,,,,,,Clear,72000.0,,,,,,,,,
KRDR,09-10-2015,02:58,METAR,Normal,40,5.0,,,9999.0,,10.0,7.3,29.96,1015.3,,,,,,,,,,,,TRACE,,,Clear,72000.0,,,,,,,,,
KRDR,09-10-2015,01:58,METAR,Calm,,0.0,,,9999.0,,10.3,8.2,29.93,1014.4,,,,,,,,,,,,,,,Clear,72000.0,,,,,,,,,
KRDR,09-10-2015,00:58,METAR,Calm,,0.0,,,9999.0,,16.0,8.0,29.91,1013.6,,,,,,,,,,,TRACE,,,,Clear,72000.0,,,,,,,,,
KRDR,09-09-2015,23:58,METAR,Normal,50,4.0,,,9999.0,,17.5,8.7,29.90,1013.2,,,,,,,,,,,,,,,Clear,72000.0,,,,,,,,,
KRDR,09-09-2015,22:58,METAR,Normal,20,5.0,,,9999.0,,18.2,8.2,29.91,1013.6,,,,,,,,,,,,,,,Clear,72000.0,,,,,,,,,
KRDR,09-09-2015,21:58,METAR,Variable,,4.0,,,9999.0,,18.0,8.0,29.90,1013.2,,,,,,,,,,,,,,,Clear,72000.0,,,,,,,,,
KRDR,09-09-2015,20:58,METAR,Normal,40,4.0,,,9999.0,,16.7,7.5,29.91,1013.6,,,,,,,,,,,,,,,Clear,72000.0,,,,,,,,,
KRDR,09-09-2015,19:58,METAR,Normal,50,4.0,,,9999.0,,17.3,7.4,29.91,1013.6,,,,,,,,,,,,,,,,10000.0,10000.0,BKN,10000.0,,,,,,
KRDR,09-09-2015,17:58,METAR,Normal,60,5.0,,,9999.0,,16.0,7.0,29.91,,,,,,,,,,,,,,,,,10000.0,10000.0,BKN,10000.0,,,,,,
KRDR,09-09-2015,16:58,METAR,Normal,40,7.0,,,9999.0,,15.7,6.5,29.93,1014.3,,,,,,,,,,,,,,,2/8 Mostly Clear,72000.0,12000.0,FEW,12000.0,,,,,,
KRDR,09-09-2015,15:58,METAR,Normal,30,8.0,,,9999.0,,15.0,6.1,29.94,1014.6,,,,,,,,,,,,,,,Clear,72000.0,,,,,,,,,
KRDR,09-09-2015,14:58,METAR,Normal,10,6.0,,,9999.0,,12.7,8.2,29.94,1014.6,,,,,,,,,,,,,,,2/8 Mostly Clear,72000.0,11000.0,FEW,11000.0,,,,,,
KRDR,09-09-2015,13:58,METAR,Normal,20,6.0,,,9999.0,,11.2,7.9,29.94,1014.6,,,,,,,,,,,,,,,Clear,72000.0,,,,,,,,,
KRDR,09-09-2015,12:58,METAR,Normal,350,4.0,,,9999.0,,9.2,7.9,29.93,1014.3,,,,,,,,,,,,,,,Clear,72000.0,,,,,,,,,
KRDR,09-09-2015,11:58,METAR,Normal,310,6.0,,,9999.0,,7.8,6.4,29.92,1013.9,,,,,,,,,,,,,,,Clear,72000.0,,,,,,,,,
KRDR,09-09-2015,10:58,METAR,Normal,250,3.0,,,9999.0,,7.3,6.2,29.91,1013.5,,,,,,,,,,,,,,,Clear,72000.0,,,,,,,,,
KRDR,09-09-2015,09:58,METAR,Normal,310,2.0,,,9999.0,,7.0,5.0,,,,,,,,,,,,,,,,,Clear,72000.0,,,,,,,,,
KRDR,09-09-2015,08:58,METAR,Normal,340,5.0,,,9999.0,,7.8,5.9,29.90,1013.1,,,,,,,,,,,,,,,Clear,72000.0,,,,,,,,,
KRDR,09-09-2015,07:58,METAR,Normal,240,3.0,,,9999.0,,8.4,6.5,29.88,1012.4,,,,,,,,,,,,,,,Clear,72000.0,,,,,,,,,
KRDR,09-09-2015,06:58,METAR,Normal,270,6.0,,,9999.0,,9.4,6.5,29.89,1012.8,,,,,,,,,,,,,,,2/8 Mostly Clear,72000.0,11000.0,FEW,11000.0,,,,,,
KRDR,09-09-2015,05:58,METAR,Normal,260,3.0,,,9999.0,,10.9,8.1,29.89,1012.7,,,,,,,,,,,,,,,,9000.0,9000.0,BKN,9100.0,,,,,,
KRDR,09-09-2015,04:58,METAR,Normal,230,3.0,,,9999.0,,10.5,7.9,29.89,1012.8,,,,,,,,,,,,,,,Clear,72000.0,,,,,,,,,
KRDR,09-09-2015,03:58,METAR,Normal,220,3.0,,,9999.0,,11.0,8.0,29.89,1012.8,,,,,,,,,,,,,,,Clear,72000.0,,,,,,,,,
KRDR,09-09-2015,02:58,METAR,Normal,270,3.0,,,9999.0,,11.8,7.9,29.90,1013.2,,,,,,,,,,,,,,,2/8 Mostly Clear,72000.0,10000.0,FEW,10000.0,,,,,,
KRDR,09-09-2015,01:58,METAR,Normal,290,3.0,,,9999.0,,14.3,7.4,29.89,1012.8,,,,,,,,,,,,,,,,10000.0,10000.0,OVC,10000.0,,,,,,
KRDR,09-09-2015,00:58,METAR,Normal,310,6.0,,,9999.0,,15.7,5.6,29.88,1012.5,,,,,,,,,,,,,,,4/8 Partly Cloudy,72000.0,10000.0,SCT,10000.0,,,,,,
KRDR,09-08-2015,23:58,METAR,Normal,310,9.0,16.0,,9999.0,,19.9,3.5,29.88,1012.4,,,,,,,,,,,,,,,Clear,72000.0,,,,,,,,,
KRDR,09-08-2015,22:58,METAR,Normal,300,14.0,22.0,,9999.0,,21.0,5.1,29.88,1012.4,,,,,,,,,,,,,,,Clear,72000.0,,,,,,,,,
KRDR,09-08-2015,21:58,METAR,Normal,300,15.0,27.0,,9999.0,,21.4,4.7,29.87,1012.1,,,,,,,,,,,,,,,Clear,72000.0,,,,,,,,,
KRDR,09-08-2015,20:58,METAR,Normal,280,15.0,22.0,,9999.0,,21.4,6.1,29.88,1012.4,,,,,,,,,,,,,,,Clear,72000.0,,,,,,,,,
KRDR,09-08-2015,19:58,METAR,Normal,290,17.0,25.0,,9999.0,,20.9,5.4,29.91,1013.5,,,,,,,,,,,,,,,Clear,72000.0,,,,,,,,,
KRDR,09-08-2015,18:58,METAR,Normal,280,15.0,23.0,,9999.0,,20.2,5.5,29.93,1014.1,,,,,,,,,,,,,,,Clear,72000.0,,,,,,,,,
KRDR,09-08-2015,17:58,METAR,Normal,270,12.0,19.0,,9999.0,,19.5,6.6,29.95,1014.8,,,,,,,,,,,,,,,Clear,72000.0,,,,,,,,,
KRDR,09-08-2015,16:58,METAR,Normal,290,12.0,,,9999.0,,17.6,5.5,29.98,1015.8,,,,,,,,,,,,,,,Clear,72000.0,,,,,,,,,
KRDR,09-08-2015,15:58,METAR,Normal,300,9.0,,,9999.0,,17.4,7.2,29.98,1015.8,,,,,,,,,,,,,,,Clear,72000.0,,,,,,,,,
KRDR,09-08-2015,14:58,METAR,Normal,310,8.0,,,9999.0,,15.4,7.4,29.98,1015.8,,,,,,,,,,,,,,,Clear,72000.0,,,,,,,,,
KRDR,09-08-2015,13:58,METAR,Normal,320,11.0,17.0,,9999.0,,13.2,8.3,29.96,1015.2,,,,,,,,,,,,,,,Clear,72000.0,,,,,,,,,
KRDR,09-08-2015,12:58,METAR,Normal,310,6.0,,,9999.0,,10.2,8.3,29.95,1014.9,,,,,,,,,,,,,,,Clear,72000.0,,,,,,,,,
KRDR,09-08-2015,11:58,METAR,Normal,310,7.0,,,9999.0,,9.7,8.3,29.94,1014.6,,,,,,,,,,,,,,.06 IN,Clear,72000.0,,,,,,,,,
KRDR,09-08-2015,10:58,METAR,Normal,300,5.0,,,9999.0,,10.3,8.5,29.93,1014.3,,,,,,,,,,,,,,,Clear,72000.0,,,,,,,,,
KRDR,09-08-2015,09:58,METAR,Normal,260,5.0,,,9999.0,,9.3,7.8,29.92,1013.9,,,,,,,,,,,,,,,Clear,72000.0,,,,,,,,,
KRDR,09-08-2015,08:58,METAR,Normal,240,5.0,,,9999.0,,8.7,7.5,29.93,1014.2,,,,,,,,,,,,,,,Clear,72000.0,,,,,,,,,
KRDR,09-08-2015,07:58,METAR,Normal,250,4.0,,,9999.0,,9.1,8.2,29.94,1014.5,,,,,,,,,,,,,,,Clear,72000.0,,,,,,,,,
KRDR,09-08-2015,06:58,METAR,Normal,220,5.0,,,9999.0,,10.1,9.1,29.95,1014.8,,,,,,,,,,,,,,,Clear,72000.0,,,,,,,,,
KRDR,09-08-2015,05:58,METAR,Normal,230,4.0,,,9999.0,,10.3,9.6,29.96,1015.1,,,,,,,,,,,,,,,Clear,72000.0,,,,,,,,,
KRDR,09-08-2015,04:58,METAR,Normal,190,6.0,,,9999.0,,10.8,10.0,29.97,1015.4,,,,,,,,,,,,,,,Clear,72000.0,,,,,,,,,
KRDR,09-08-2015,03:58,METAR,Normal,200,6.0,,,9999.0,,12.0,11.1,29.97,1015.4,,,,,,,,,,,,,,,Clear,72000.0,,,,,,,,,
KRDR,09-08-2015,02:58,METAR,Normal,220,3.0,,,9999.0,,13.3,12.6,29.97,1015.4,,,,,,,,,,,,,,,,7500.0,7500.0,BKN,7500.0,,,,,,
KRDR,09-08-2015,01:58,METAR,Normal,210,2.0,,,9999.0,,14.8,12.5,29.96,1015.1,,,,,,,,,,,,,,,,8000.0,8000.0,OVC,8000.0,,,,,,
KRDR,09-08-2015,00:58,METAR,Calm,,0.0,,,9999.0,,15.3,13.3,29.95,1014.9,,,,,,,,,,,,,,,,7500.0,7500.0,OVC,7500.0,,,,,,
KRDR,09-07-2015,23:58,METAR,Normal,340,3.0,,,9999.0,,15.5,13.0,29.95,1015.0,,,,,,,,,,,.01 IN,,.06 IN,,,6500.0,6500.0,BKN,6500.0,,,,,,
KRDR,09-07-2015,23:38,SPECI,Normal,330,7.0,,,9999.0,,15.0,13.0,29.96,,,,,,,,,,,,,,,,,7000.0,4700.0,SCT,4700.0,OVC,7000.0,,,,
KRDR,09-07-2015,22:58,METAR,Normal,320,5.0,,,9999.0,Light Rain,15.9,13.7,29.96,1015.3,61,,,,,,,,,,.05 IN,,,,4/8 Partly Cloudy,72000.0,3200.0,SCT,3200.0,SCT,5000.0,,,,
KRDR,09-07-2015,21:58,METAR,Normal,200,7.0,,,9999.0,Light Drizzle,19.5,7.9,29.96,1015.2,51,,,,,,,,,,TRACE,,,,4/8 Partly Cloudy,72000.0,3200.0,FEW,3200.0,SCT,10000.0,,,,
KRDR,09-07-2015,21:56,SPECI,Normal,200,7.0,,,9999.0,Light Drizzle,19.0,8.0,29.96,,51,,,,,,,,,,,,,,4/8 Partly Cloudy,72000.0,3200.0,FEW,3200.0,SCT,10000.0,,,,
KRDR,09-07-2015,21:50,SPECI,Normal,220,8.0,,,9999.0,,20.0,8.0,29.96,,,,,,,,,,,,,,,,4/8 Partly Cloudy,72000.0,3200.0,FEW,3200.0,SCT,9600.0,,,,
KRDR,09-07-2015,21:36,SPECI,Normal,230,7.0,,,9999.0,Light Rain,19.0,12.0,29.96,,61,,,,,,,,,,,,,,4/8 Partly Cloudy,72000.0,4500.0,FEW,4500.0,SCT,9100.0,,,,
KRDR,09-07-2015,20:58,METAR,Normal,230,2.0,,,9999.0,,19.2,12.3,29.97,1015.5,,,,,,,,,,,,TRACE,,,Clear,72000.0,,,,,,,,,
KRDR,09-07-2015,19:58,METAR,Normal,230,4.0,,,9999.0,,19.1,10.7,29.98,1015.8,,,,,,,,,,,TRACE,,,,,11000.0,11000.0,BKN,11000.0,,,,,,
KRDR,09-07-2015,19:14,SPECI,Normal,250,8.0,,,9999.0,,19.0,10.0,30.00,,,,,,,,,,,,,,,,2/8 Mostly Clear,72000.0,11000.0,FEW,11000.0,,,,,,
KRDR,09-07-2015,19:08,SPECI,Normal,250,8.0,,,9999.0,Light Rain,19.0,11.0,30.00,,61,,,,,,,,,,,,,,,10000.0,11000.0,FEW,11000.0,,,,,,
KRDR,09-07-2015,18:58,METAR,Normal,230,9.0,,,9999.0,,19.8,10.9,30.01,1016.9,,,,,,,,,,,,,,,Clear,12000.0,,,,,,,,,
KRDR,09-07-2015,17:58,METAR,Normal,220,9.0,,,9999.0,,20.7,10.6,30.01,1016.8,,,,,,,,,,,,,,,2/8 Mostly Clear,72000.0,11000.0,FEW,11000.0,,,,,,
KRDR,09-07-2015,16:58,METAR,Normal,220,8.0,,,9999.0,,20.6,9.2,29.99,1016.1,,,,,,,,,,,,,,,Clear,72000.0,,,,,,,,,
KRDR,09-07-2015,15:58,METAR,Normal,210,11.0,17.0,,9999.0,,20.5,8.7,29.99,1016.1,,,,,,,,,,,,,,,Clear,72000.0,,,,,,,,,
KRDR,09-07-2015,14:58,METAR,Normal,210,12.0,,,9999.0,,18.4,10.1,30.00,1016.4,,,,,,,,,,,,,,,Clear,72000.0,,,,,,,,,
KRDR,09-07-2015,13:58,METAR,Normal,230,3.0,,,9999.0,,15.4,10.6,29.99,1016.1,,,,,,,,,,,,,,,Clear,72000.0,,,,,,,,,
KRDR,09-07-2015,12:58,METAR,Normal,240,4.0,,,9999.0,,10.8,8.4,29.99,1016.2,,,,,,,,,,,,,,,Clear,72000.0,,,,,,,,,
KRDR,09-07-2015,11:58,METAR,Normal,230,5.0,,,9999.0,,9.1,7.0,29.99,1016.2,,,,,,,,,,,,,,.04 IN,Clear,72000.0,,,,,,,,,
KRDR,09-07-2015,10:58,METAR,Normal,230,5.0,,,9999.0,,8.8,7.1,29.99,1016.1,,,,,,,,,,,,,,,Clear,72000.0,,,,,,,,,
KRDR,09-07-2015,09:58,METAR,Normal,230,5.0,,,9999.0,,10.0,8.0,29.99,1016.1,,,,,,,,,,,,,,,Clear,72000.0,,,,,,,,,
KRDR,09-07-2015,08:58,METAR,Normal,240,5.0,,,9999.0,,9.9,8.2,29.99,1016.1,,,,,,,,,,,,,,,Clear,72000.0,,,,,,,,,
KRDR,09-07-2015,07:58,METAR,Normal,230,6.0,,,9999.0,,9.7,8.3,29.97,1015.4,,,,,,,,,,,,,,,Clear,72000.0,,,,,,,,,
KRDR,09-07-2015,06:58,METAR,Normal,220,4.0,,,9999.0,,9.7,8.5,29.97,1015.4,,,,,,,,,,,,,,,Clear,72000.0,,,,,,,,,
KRDR,09-07-2015,05:58,METAR,Normal,210,4.0,,,9999.0,,10.5,8.7,29.97,1015.4,,,,,,,,,,,,,,,Clear,72000.0,,,,,,,,,
KRDR,09-07-2015,04:58,METAR,Normal,220,2.0,,,9999.0,,10.5,8.8,29.97,1015.4,,,,,,,,,,,,,,,Clear,72000.0,,,,,,,,,
KRDR,09-07-2015,03:58,METAR,Normal,270,4.0,,,9999.0,,12.5,9.7,29.96,1015.0,,,,,,,,,,,,,,,Clear,72000.0,,,,,,,,,
KRDR,09-07-2015,02:58,METAR,Normal,300,4.0,,,9999.0,,15.0,9.3,29.95,1014.7,,,,,,,,,,,,,,,Clear,72000.0,,,,,,,,,
KRDR,09-07-2015,01:58,METAR,Normal,310,6.0,,,9999.0,,15.9,10.8,29.93,1014.0,,,,,,,,,,,,,,,Clear,72000.0,,,,,,,,,
KRDR,09-07-2015,00:58,METAR,Normal,290,4.0,,,9999.0,,18.7,11.3,29.89,1012.5,,,,,,,,,,,,,,,4/8 Partly Cloudy,72000.0,11000.0,SCT,11000.0,,,,,,
KRDR,09-06-2015,23:58,METAR,Normal,300,6.0,,,9999.0,,21.4,10.8,29.88,1012.1,,,,,,,,,,,,,,,Clear,72000.0,,,,,,,,,
KRDR,09-06-2015,22:58,METAR,Normal,310,11.0,17.0,,9999.0,,23.5,9.8,29.87,1011.7,,,,,,,,,,,,,,,Clear,72000.0,,,,,,,,,
KRDR,09-06-2015,21:58,METAR,Normal,310,13.0,18.0,,9999.0,,24.5,13.7,29.85,1011.0,,,,,,,,,,,,,,,4/8 Partly Cloudy,72000.0,6000.0,SCT,6000.0,,,,,,
KRDR,09-06-2015,20:58,METAR,Normal,320,12.0,,,9999.0,,24.4,16.5,29.83,1010.4,,,,,,,,,,,,,,,,5500.0,5500.0,BKN,5500.0,,,,,,
KRDR,09-06-2015,19:58,METAR,Normal,310,8.0,,,9999.0,,23.0,17.2,29.83,1010.4,,,,,,,,,,,,,,,,3600.0,3600.0,OVC,3600.0,,,,,,
KRDR,09-06-2015,18:58,METAR,Normal,320,13.0,,,9999.0,,23.2,18.8,29.82,1010.0,,,,,,,,,,,,,,,,2400.0,2400.0,BKN,2400.0,,,,,,
KRDR,09-06-2015,17:58,METAR,Normal,280,7.0,,,9999.0,,23.0,19.7,29.82,1010.0,,,,,,,,,,,,,.04 IN,,Clear,72000.0,,,,,,,,,
KRDR,09-06-2015,16:58,METAR,Normal,290,6.0,,,9999.0,,20.2,19.4,29.81,1009.7,,,,,,,,,,,.01 IN,,,,2/8 Mostly Clear,72000.0,600.0,FEW,600.0,,,,,,
KRDR,09-06-2015,16:30,SPECI,Normal,270,4.0,,,9999.0,Distant Lightning,20.0,19.0,29.80,,12,,,,,,,,,,,,,,,7000.0,800.0,SCT,800.0,BKN,7000.0,,,,
KRDR,09-06-2015,16:14,SPECI,Normal,290,7.0,,,9999.0,Light Rain,20.0,19.0,29.80,,61,,,,,,,,,,,,,,4/8 Partly Cloudy,72000.0,600.0,SCT,600.0,SCT,7000.0,,,,
KRDR,09-06-2015,16:03,SPECI,Normal,220,4.0,,,9999.0,,20.0,19.0,29.78,,,,,,,,,,,,,,,,,600.0,600.0,SCT,600.0,BKN,7000.0,,,,
KRDR,09-06-2015,15:58,METAR,Normal,230,3.0,,,9999.0,,20.1,19.1,29.78,1008.7,,,,,,,,,,,TRACE,,,,,600.0,600.0,BKN,600.0,BKN,7000.0,,,,
KRDR,09-06-2015,15:39,SPECI,Normal,250,6.0,,,9999.0,,20.0,19.0,29.79,,,,,,,,,,,,,,,,,600.0,600.0,OVC,600.0,,,,,,
KRDR,09-06-2015,15:29,SPECI,Variable,,3.0,,,9999.0,Light Drizzle,19.0,19.0,29.77,,51,,,,,,,,,,,,,,,500.0,500.0,BKN,500.0,,,,,,
KRDR,09-06-2015,15:18,SPECI,Normal,270,5.0,,,9999.0,,19.0,19.0,29.80,,,,,,,,,,,,,,,,,500.0,500.0,BKN,500.0,BKN,8000.0,,,,
KRDR,09-06-2015,14:58,METAR,Normal,190,10.0,,,9999.0,,18.8,18.8,29.79,1009.1,,,,,,,,,,,.03 IN,.03 IN,,,4/8 Partly Cloudy,72000.0,400.0,SCT,400.0,SCT,8000.0,,,,
KRDR,09-06-2015,14:46,SPECI,Calm,,0.0,,,9999.0,,19.0,19.0,29.79,,,,,,,,,,,,,,,,,400.0,300.0,SCT,300.0,SCT,9100.0,,,,
KRDR,09-06-2015,14:31,SPECI,Normal,40,3.0,,,9999.0,,18.0,18.0,29.78,,,,,,,,,,,,,,,,,400.0,400.0,BKN,400.0,,,,,,
KRDR,09-06-2015,14:21,SPECI,Normal,20,5.0,,,9999.0,Light Rain,18.0,18.0,29.77,,61,,,,,,,,,,,,,,,300.0,400.0,BKN,400.0,,,,,,
KRDR,09-06-2015,14:16,SPECI,Normal,80,8.0,,,6400.0,Light Rain/Mist,18.0,18.0,29.77,,61,10,,,,,,,,,,,,,,300.0,500.0,OVC,500.0,,,,,,
KRDR,09-06-2015,14:06,SPECI,Normal,50,5.0,,,8000.0,Light Rain/Mist,18.0,18.0,29.79,,61,10,,,,,,,,,,,,,,300.0,300.0,OVC,300.0,,,,,,
KRDR,09-06-2015,14:01,SPECI,Normal,320,7.0,,,9999.0,Light Drizzle/Mist,18.0,18.0,29.82,,51,10,,,,,,,,,,,,,,200.0,200.0,OVC,200.0,,,,,,
KRDR,09-06-2015,13:58,METAR,Normal,270,4.0,,,8000.0,Mist,18.3,18.3,29.82,1010.1,10,,,,,,,,,,,,,,,200.0,200.0,OVC,200.0,,,,,,
KRDR,09-06-2015,13:43,SPECI,Normal,300,4.0,,,8000.0,Mist,18.0,18.0,29.81,,10,,,,,,,,,,,,,,,200.0,200.0,OVC,200.0,,,,,,
KRDR,09-06-2015,13:38,SPECI,Normal,300,5.0,,,2800.0,Mist,18.0,18.0,29.81,,10,,,,,,,,,,,,,,,200.0,200.0,OVC,200.0,,,,,,
KRDR,09-06-2015,13:33,SPECI,Variable,,2.0,,,1600.0,Mist,18.0,18.0,29.79,,10,,,,,,,,,,,,,,Sky Obscured (Unable to Estimate),200.0,200.0,,200.0,,,,,,
KRDR,09-06-2015,13:23,SPECI,Normal,30,2.0,,,2000.0,Mist,18.0,18.0,29.78,,10,,,,,,,,,,,,,,,200.0,200.0,OVC,200.0,,,,,,
KRDR,09-06-2015,13:18,SPECI,Variable,,1.0,,,2400.0,Mist,18.0,18.0,29.77,,10,,,,,,,,,,,,,,,200.0,200.0,OVC,200.0,,,,,,
KRDR,09-06-2015,13:13,SPECI,Normal,90,2.0,,,4000.0,Mist,18.0,18.0,29.76,,10,,,,,,,,,,,,,,,200.0,200.0,OVC,200.0,,,,,,
KRDR,09-06-2015,12:58,METAR,Normal,40,7.0,,,4800.0,Mist,17.9,17.9,29.74,1007.4,10,,,,,,,,,,,,,,,200.0,200.0,OVC,200.0,,,,,,
KRDR,09-06-2015,12:53,SPECI,Normal,40,10.0,,,2800.0,Mist,18.0,18.0,29.74,,10,,,,,,,,,,,,,,,200.0,200.0,OVC,200.0,,,,,,
KRDR,09-06-2015,12:48,SPECI,Normal,20,11.0,,,3200.0,Mist,18.0,18.0,29.74,,10,,,,,,,,,,,,,,,200.0,200.0,OVC,200.0,,,,,,
KRDR,09-06-2015,11:58,METAR,Normal,10,7.0,,,9999.0,,17.8,17.8,29.76,1008.0,,,,,,,,,,,,,,.5 IN,,300.0,300.0,OVC,300.0,,,,,,
KRDR,09-06-2015,11:28,SPECI,Normal,20,8.0,,,9999.0,,18.0,18.0,29.74,,,,,,,,,,,,,,,,,400.0,400.0,OVC,400.0,,,,,,
KRDR,09-06-2015,11:18,SPECI,Normal,360,6.0,,,9999.0,,18.0,18.0,29.76,,,,,,,,,,,,,,,,,300.0,300.0,OVC,300.0,,,,,,
KRDR,09-06-2015,11:13,SPECI,Normal,350,8.0,,,9999.0,,18.0,18.0,29.77,,,,,,,,,,,,,,,,,200.0,200.0,OVC,200.0,,,,,,
KRDR,09-06-2015,11:08,SPECI,Normal,350,7.0,,,8000.0,Mist,18.0,18.0,29.77,,10,,,,,,,,,,,,,,,200.0,200.0,OVC,200.0,,,,,,
KRDR,09-06-2015,10:58,METAR,Normal,340,7.0,,,6400.0,Mist,18.0,18.0,29.78,1008.7,10,,,,,,,,,,,,,,,200.0,200.0,OVC,200.0,,,,,,
KRDR,09-06-2015,10:53,SPECI,Normal,340,9.0,,,4000.0,Mist,18.0,18.0,29.78,,10,,,,,,,,,,,,,,,200.0,200.0,OVC,200.0,,,,,,
KRDR,09-06-2015,10:48,SPECI,Normal,340,10.0,,,2400.0,Mist,18.0,18.0,29.78,,10,,,,,,,,,,,,,,,200.0,200.0,OVC,200.0,,,,,,
KRDR,09-06-2015,10:38,SPECI,Normal,340,8.0,,,2000.0,Mist,18.0,18.0,29.77,,10,,,,,,,,,,,,,,,200.0,200.0,OVC,200.0,,,,,,
KRDR,09-06-2015,10:33,SPECI,Normal,360,7.0,,,2400.0,Mist,18.0,18.0,29.75,,10,,,,,,,,,,,,,,,200.0,200.0,OVC,200.0,,,,,,
KRDR,09-06-2015,10:28,SPECI,Normal,350,8.0,,,3200.0,Mist,18.0,18.0,29.76,,10,,,,,,,,,,,,,,,200.0,200.0,OVC,200.0,,,,,,
KRDR,09-06-2015,10:23,SPECI,Normal,330,11.0,,,2800.0,Mist,18.0,18.0,29.77,,10,,,,,,,,,,,,,,,200.0,200.0,OVC,200.0,,,,,,
KRDR,09-06-2015,10:18,SPECI,Normal,340,10.0,,,2000.0,Mist,18.0,18.0,29.75,,10,,,,,,,,,,,,,,,200.0,200.0,OVC,200.0,,,,,,
KRDR,09-06-2015,10:03,SPECI,Normal,40,4.0,,,1600.0,Mist,18.0,18.0,29.72,,10,,,,,,,,,,,,,,Sky Obscured (Unable to Estimate),200.0,200.0,,200.0,,,,,,
KRDR,09-06-2015,09:58,METAR,Normal,10,4.0,,,2000.0,Mist,18.0,18.0,29.74,1007.4,10,,,,,,,,,,,,,,,200.0,200.0,OVC,200.0,,,,,,
KRDR,09-06-2015,09:53,SPECI,Normal,10,3.0,,,2400.0,Mist,18.0,18.0,29.74,,10,,,,,,,,,,,,,,,200.0,200.0,OVC,200.0,,,,,,
KRDR,09-06-2015,09:48,SPECI,Normal,30,2.0,,,2800.0,Mist,18.0,18.0,29.74,,10,,,,,,,,,,,,,,,200.0,200.0,OVC,200.0,,,,,,
KRDR,09-06-2015,09:28,SPECI,Normal,30,5.0,,,3200.0,Mist,18.0,18.0,29.74,,10,,,,,,,,,,,,,,,200.0,200.0,OVC,200.0,,,,,,
KRDR,09-06-2015,09:23,SPECI,Normal,30,4.0,,,2800.0,Mist,18.0,18.0,29.74,,10,,,,,,,,,,,,,,,200.0,200.0,OVC,200.0,,,,,,
KRDR,09-06-2015,09:08,SPECI,Normal,30,4.0,,,3200.0,Mist,18.0,18.0,29.75,,10,,,,,,,,,,,,,,,200.0,200.0,OVC,200.0,,,,,,
KRDR,09-06-2015,09:03,SPECI,Normal,30,4.0,,,2800.0,Mist,18.0,18.0,29.74,,10,,,,,,,,,,,,,,,200.0,200.0,OVC,200.0,,,,,,
KRDR,09-06-2015,08:58,METAR,Normal,10,3.0,,,2000.0,Mist,18.0,18.0,29.75,1007.7,10,,,,,,,,,,,,,,,200.0,200.0,OVC,200.0,,,,,,
KRDR,09-06-2015,08:53,SPECI,Normal,30,3.0,,,2000.0,Mist,18.0,18.0,29.75,,10,,,,,,,,,,,,,,,200.0,200.0,OVC,200.0,,,,,,
KRDR,09-06-2015,08:43,SPECI,Normal,20,5.0,,,4000.0,Mist,19.0,19.0,29.75,,10,,,,,,,,,,,,,,,200.0,200.0,OVC,200.0,,,,,,
KRDR,09-06-2015,08:38,SPECI,Normal,20,4.0,,,2400.0,Mist,19.0,19.0,29.74,,10,,,,,,,,,,,,,,,200.0,200.0,OVC,200.0,,,,,,
KRDR,09-06-2015,08:33,SPECI,Normal,10,4.0,,,1600.0,Mist,19.0,19.0,29.74,,10,,,,,,,,,,,,,,Sky Obscured (Unable to Estimate),200.0,200.0,,200.0,,,,,,
KRDR,09-06-2015,08:28,SPECI,Normal,360,3.0,,,2800.0,Mist,19.0,19.0,29.74,,10,,,,,,,,,,,,,,,200.0,200.0,OVC,200.0,,,,,,
KRDR,09-06-2015,08:23,SPECI,Normal,10,4.0,,,3200.0,Mist,19.0,19.0,29.74,,10,,,,,,,,,,,,,,,200.0,200.0,OVC,200.0,,,,,,
KRDR,09-06-2015,08:18,SPECI,Normal,40,4.0,,,2000.0,Mist,19.0,19.0,29.73,,10,,,,,,,,,,,,,,,200.0,200.0,OVC,200.0,,,,,,
KRDR,09-06-2015,08:13,SPECI,Normal,20,4.0,,,2000.0,Mist,19.0,19.0,29.73,,10,,,,,,,,,,,,,,,200.0,200.0,OVC,200.0,,,,,,
KRDR,09-06-2015,08:08,SPECI,Normal,20,4.0,,,4000.0,Mist,19.0,19.0,29.73,,10,,,,,,,,,,,,,,,200.0,200.0,OVC,200.0,,,,,,
KRDR,09-06-2015,08:03,SPECI,Normal,20,4.0,,,2000.0,Mist,19.0,19.0,29.73,,10,,,,,,,,,,,,,,,200.0,200.0,OVC,200.0,,,,,,
KRDR,09-06-2015,07:58,METAR,Normal,30,4.0,,,1200.0,Mist,18.7,18.7,29.73,1007.0,10,,,,,,,,,,,,,,Sky Obscured (Unable to Estimate),200.0,200.0,,200.0,,,,,,
KRDR,09-06-2015,07:48,SPECI,Normal,40,2.0,,,800.0,Fog,19.0,19.0,29.73,,30,,,,,,,,,,,,,,Sky Obscured (Unable to Estimate),200.0,200.0,,200.0,,,,,,
KRDR,09-06-2015,07:28,SPECI,Normal,350,4.0,,,1200.0,Mist,19.0,19.0,29.72,,10,,,,,,,,,,,,,,Sky Obscured (Unable to Estimate),200.0,200.0,,200.0,,,,,,
KRDR,09-06-2015,07:23,SPECI,Normal,360,6.0,,,1200.0,Mist,19.0,19.0,29.71,,10,,,,,,,,,,,,,,Sky Obscured (Unable to Estimate),200.0,200.0,,200.0,,,,,,
KRDR,09-06-2015,07:18,SPECI,Normal,350,5.0,,,1600.0,Mist,19.0,19.0,29.71,,10,,,,,,,,,,,,,,Sky Obscured (Unable to Estimate),200.0,200.0,,200.0,,,,,,
KRDR,09-06-2015,07:13,SPECI,Normal,350,7.0,,,2400.0,Mist,19.0,19.0,29.71,,10,,,,,,,,,,,,,,,200.0,200.0,OVC,200.0,,,,,,
KRDR,09-06-2015,07:08,SPECI,Normal,360,6.0,,,3200.0,Mist,19.0,19.0,29.71,,10,,,,,,,,,,,,,,,200.0,200.0,OVC,200.0,,,,,,
KRDR,09-06-2015,06:58,METAR,Normal,350,7.0,,,6400.0,Mist,19.0,19.0,29.71,1006.3,10,,,,,,,,,,,,,,,200.0,200.0,OVC,200.0,,,,,,
KRDR,09-06-2015,06:53,SPECI,Normal,350,7.0,,,4000.0,Mist,19.0,19.0,29.71,,10,,,,,,,,,,,,,,,200.0,200.0,OVC,200.0,,,,,,
KRDR,09-06-2015,06:43,SPECI,Normal,360,8.0,,,2000.0,Mist,19.0,19.0,29.71,,10,,,,,,,,,,,,,,,200.0,200.0,OVC,200.0,,,,,,
KRDR,09-06-2015,06:38,SPECI,Normal,350,7.0,,,2800.0,Mist,19.0,19.0,29.71,,10,,,,,,,,,,,,,,,200.0,200.0,OVC,200.0,,,,,,
KRDR,09-06-2015,06:33,SPECI,Normal,360,6.0,,,4800.0,Mist,19.0,19.0,29.71,,10,,,,,,,,,,,,,,,200.0,200.0,OVC,200.0,,,,,,
KRDR,09-06-2015,06:28,SPECI,Normal,350,7.0,,,4800.0,Mist,19.0,19.0,29.71,,10,,,,,,,,,,,,,,,200.0,200.0,OVC,200.0,,,,,,
KRDR,09-06-2015,06:18,SPECI,Normal,10,9.0,,,2800.0,Mist,19.0,19.0,29.71,,10,,,,,,,,,,,,,,,200.0,200.0,OVC,200.0,,,,,,
KRDR,09-06-2015,05:58,METAR,Normal,10,7.0,,,4800.0,Mist,19.0,19.0,29.72,1006.7,10,,,,,,,,,,,,.43 IN,,,200.0,200.0,OVC,200.0,,,,,,
KRDR,09-06-2015,05:52,SPECI,Normal,10,5.0,,,8000.0,Mist,19.0,19.0,29.73,,10,,,,,,,,,,,,,,,200.0,200.0,OVC,200.0,,,,,,
KRDR,09-06-2015,05:47,SPECI,Normal,10,5.0,,,9999.0,Mist,19.0,19.0,29.73,,10,,,,,,,,,,,,,,,200.0,200.0,OVC,200.0,,,,,,
KRDR,09-06-2015,05:42,SPECI,Normal,20,6.0,,,9999.0,,19.0,19.0,29.74,,,,,,,,,,,,,,,,,200.0,200.0,BKN,200.0,OVC,600.0,,,,
KRDR,09-06-2015,05:37,SPECI,Normal,20,6.0,,,9999.0,,19.0,19.0,29.74,,,,,,,,,,,,,,,,,300.0,500.0,OVC,500.0,,,,,,
KRDR,09-06-2015,05:32,SPECI,Normal,20,8.0,,,9999.0,,19.0,19.0,29.74,,,,,,,,,,,,,,,,,300.0,300.0,BKN,300.0,OVC,700.0,,,,
KRDR,09-06-2015,05:22,SPECI,Normal,20,5.0,,,9999.0,,19.0,18.0,29.74,,,,,,,,,,,,,,,,,600.0,600.0,BKN,600.0,,,,,,
KRDR,09-06-2015,05:12,SPECI,Normal,20,4.0,,,9999.0,,19.0,18.0,29.74,,,,,,,,,,,,,,,,,700.0,700.0,BKN,700.0,,,,,,
KRDR,09-06-2015,05:02,SPECI,Normal,20,4.0,,,9999.0,,19.0,19.0,29.73,,,,,,,,,,,,,,,,2/8 Mostly Clear,72000.0,600.0,FEW,600.0,,,,,,
KRDR,09-06-2015,04:58,METAR,Normal,30,4.0,,,9999.0,,18.9,18.7,29.73,1007.1,,,,,,,,,,,,,,,Clear,72000.0,,,,,,,,,
KRDR,09-06-2015,03:58,METAR,Normal,360,4.0,,,9999.0,,18.8,18.6,29.74,1007.4,,,,,,,,,,,,,,,Clear,72000.0,,,,,,,,,
KRDR,09-06-2015,02:58,METAR,Normal,30,3.0,,,9999.0,,20.1,19.7,29.76,1008.1,,,,,,,,,,,.05 IN,.43 IN,,,2/8 Mostly Clear,72000.0,10000.0,FEW,10000.0,,,,,,
KRDR,09-06-2015,02:18,SPECI,Normal,40,6.0,,,9999.0,,21.0,20.0,29.78,,,,,,,,,,,,,,,,,6000.0,800.0,FEW,800.0,BKN,6000.0,,,,
KRDR,09-06-2015,02:13,SPECI,Normal,40,6.0,,,9999.0,Light Drizzle,21.0,20.0,29.78,,51,,,,,,,,,,,,,,,3300.0,800.0,SCT,800.0,BKN,6000.0,,,,
KRDR,09-06-2015,02:08,SPECI,Normal,40,8.0,,,9999.0,Light Rain,21.0,20.0,29.79,,61,,,,,,,,,,,,,,,800.0,800.0,BKN,800.0,BKN,5500.0,,,,
KRDR,09-06-2015,02:03,SPECI,Normal,40,8.0,,,4800.0,Light Rain/Mist,21.0,20.0,29.79,,61,10,,,,,,,,,,,,,,800.0,800.0,BKN,800.0,OVC,5500.0,,,,
KRDR,09-06-2015,01:58,METAR,Normal,50,6.0,,,2800.0,Heavy Rain/Mist,20.9,20.4,29.79,1009.1,63,10,,,,,,,,,.37 IN,,,,,800.0,800.0,OVC,800.0,,,,,,
KRDR,09-06-2015,01:54,SPECI,Normal,30,5.0,,,2400.0,Heavy Rain/Mist,21.0,20.0,29.80,,63,10,,,,,,,,,,,,,,900.0,900.0,OVC,900.0,,,,,,
KRDR,09-06-2015,01:44,SPECI,Variable,,2.0,,,2000.0,Heavy Rain/Mist,21.0,20.0,29.80,,63,10,,,,,,,,,,,,,,800.0,800.0,BKN,800.0,OVC,1700.0,,,,
KRDR,09-06-2015,01:39,SPECI,Normal,150,3.0,,,3200.0,Rain/Mist,21.0,20.0,29.80,,62,10,,,,,,,,,,,,,,700.0,700.0,BKN,700.0,OVC,1700.0,,,,
KRDR,09-06-2015,01:34,SPECI,Normal,150,7.0,,,6400.0,Rain/Mist,21.0,21.0,29.80,,62,10,,,,,,,,,,,,,,700.0,700.0,BKN,700.0,OVC,1700.0,,,,
KRDR,09-06-2015,01:29,SPECI,Normal,180,9.0,,,9999.0,Light Rain,21.0,21.0,29.81,,61,,,,,,,,,,,,,,,1700.0,800.0,SCT,800.0,OVC,1700.0,,,,
KRDR,09-06-2015,01:23,SPECI,Normal,160,6.0,,,9999.0,,21.0,20.0,29.80,,,,,,,,,,,,,,,,,1700.0,800.0,FEW,800.0,BKN,1700.0,,,,
KRDR,09-06-2015,01:14,SPECI,Normal,360,5.0,,,9999.0,,21.0,21.0,29.78,,,,,,,,,,,,,,,,,1500.0,1600.0,BKN,1600.0,BKN,8000.0,,,,
KRDR,09-06-2015,01:09,SPECI,Normal,350,4.0,,,9999.0,,21.0,21.0,29.77,,,,,,,,,,,,,,,,,8000.0,1500.0,SCT,1500.0,BKN,8000.0,,,,
KRDR,09-06-2015,01:00,SPECI,Normal,340,6.0,,,9999.0,Light Drizzle,21.0,21.0,29.77,,51,,,,,,,,,,,,,,4/8 Partly Cloudy,72000.0,3600.0,FEW,3600.0,SCT,8000.0,,,,
KRDR,09-06-2015,00:58,METAR,Normal,340,5.0,,,9999.0,,20.9,20.6,29.77,1008.4,,,,,,,,,,,.01 IN,,,,,8000.0,3600.0,FEW,3600.0,BKN,8000.0,,,,
KRDR,09-05-2015,23:58,METAR,Normal,330,3.0,,,9999.0,,21.7,20.9,29.78,1008.7,,,,,,,,,,,TRACE,,.07 IN,,4/8 Partly Cloudy,72000.0,3000.0,SCT,3000.0,,,,,,
KRDR,09-05-2015,23:34,SPECI,Normal,340,6.0,,,9999.0,,22.0,21.0,29.78,,,,,,,,,,,,,,,,2/8 Mostly Clear,72000.0,1100.0,FEW,1100.0,,,,,,
KRDR,09-05-2015,23:21,SPECI,Normal,330,7.0,,,9999.0,Light Drizzle,22.0,21.0,29.79,,51,,,,,,,,,,,,,,2/8 Mostly Clear,72000.0,1100.0,FEW,1100.0,,,,,,
KRDR,09-05-2015,23:19,SPECI,Normal,320,9.0,,,9999.0,,22.0,21.0,29.79,,,,,,,,,,,,,,,,2/8 Mostly Clear,72000.0,1100.0,FEW,1100.0,,,,,,
KRDR,09-05-2015,23:04,SPECI,Normal,330,8.0,,,9999.0,,22.0,21.0,29.79,,,,,,,,,,,,,,,,2/8 Mostly Clear,72000.0,2300.0,FEW,2300.0,,,,,,
KRDR,09-05-2015,22:58,METAR,Normal,320,8.0,,,9999.0,Light Rain,22.1,21.5,29.79,1009.1,61,,,,,,,,,,.07 IN,,,,2/8 Mostly Clear,72000.0,2300.0,FEW,2300.0,,,,,,
KRDR,09-05-2015,22:20,SPECI,Normal,50,1.0,,,9999.0,Light Drizzle,22.0,21.0,29.78,,51,,,,,,,,,,,,,,4/8 Partly Cloudy,72000.0,500.0,FEW,500.0,SCT,2800.0,,,,
KRDR,09-05-2015,22:10,SPECI,Normal,40,5.0,,,4000.0,Light Rain/Mist,22.0,21.0,29.78,,61,10,,,,,,,,,,,,,,2600.0,600.0,FEW,600.0,SCT,1000.0,BKN,2600.0,,
KRDR,09-05-2015,22:05,SPECI,Normal,40,3.0,,,9999.0,Light Rain/Mist,22.0,20.0,29.79,,61,10,,,,,,,,,,,,,4/8 Partly Cloudy,72000.0,1100.0,FEW,1100.0,SCT,2600.0,,,,
KRDR,09-05-2015,21:58,METAR,Normal,40,6.0,,,9999.0,,22.0,20.0,29.79,1009.1,,,,,,,,,,,,,,,4/8 Partly Cloudy,72000.0,1100.0,SCT,1100.0,SCT,2500.0,,,,
KRDR,09-05-2015,21:48,SPECI,Normal,360,5.0,,,9999.0,,22.0,21.0,29.80,,,,,,,,,,,,,,,,,1100.0,1100.0,BKN,1100.0,BKN,2500.0,,,,
KRDR,09-05-2015,21:43,SPECI,Normal,20,4.0,,,9999.0,,23.0,21.0,29.80,,,,,,,,,,,,,,,,,1100.0,1100.0,SCT,1100.0,BKN,2500.0,,,,
KRDR,09-05-2015,20:58,METAR,Normal,30,7.0,,,9999.0,,22.4,20.4,29.80,1009.4,,,,,,,,,,,,,,,,1000.0,1000.0,OVC,1000.0,,,,,,
KRDR,09-05-2015,20:43,SPECI,Normal,30,7.0,,,9999.0,,22.0,20.0,29.81,,,,,,,,,,,,,,,,,1000.0,1000.0,OVC,1000.0,,,,,,
KRDR,09-05-2015,19:58,METAR,Normal,30,7.0,,,9999.0,,21.8,19.8,29.82,1010.1,,,,,,,,,,,,,,,,900.0,900.0,OVC,900.0,,,,,,
KRDR,09-05-2015,19:28,SPECI,Normal,30,8.0,,,9999.0,,21.0,20.0,29.82,,,,,,,,,,,,,,,,,800.0,800.0,OVC,800.0,,,,,,
KRDR,09-05-2015,19:08,SPECI,Normal,20,9.0,,,9999.0,,21.0,19.0,29.83,,,,,,,,,,,,,,,,,700.0,700.0,OVC,700.0,,,,,,
KRDR,09-05-2015,18:58,METAR,Normal,20,9.0,,,9999.0,,20.7,19.2,29.83,1010.4,,,,,,,,,,,,,,,,600.0,600.0,OVC,600.0,,,,,,
KRDR,09-05-2015,18:43,SPECI,Normal,20,9.0,,,9999.0,,20.0,19.0,29.83,,,,,,,,,,,,,,,,,600.0,600.0,OVC,600.0,,,,,,
KRDR,09-05-2015,18:23,SPECI,Normal,20,11.0,,,9999.0,,20.0,19.0,29.84,,,,,,,,,,,,,,,,,500.0,500.0,OVC,500.0,,,,,,
KRDR,09-05-2015,17:58,METAR,Normal,30,12.0,,,9999.0,,19.4,18.6,29.85,1011.2,,,,,,,,,,,,,,,,400.0,400.0,OVC,400.0,,,,,,
KRDR,09-05-2015,17:48,SPECI,Normal,30,12.0,,,9999.0,,19.0,18.0,29.85,,,,,,,,,,,,,,,,,500.0,500.0,OVC,500.0,,,,,,
KRDR,09-05-2015,16:58,METAR,Normal,30,10.0,,,9999.0,,19.0,18.0,29.88,1012.2,,,,,,,,,,,,,,,,400.0,400.0,OVC,400.0,,,,,,
KRDR,09-05-2015,16:03,SPECI,Normal,30,9.0,,,9999.0,,18.0,18.0,29.89,,,,,,,,,,,,,,,,,300.0,300.0,OVC,300.0,,,,,,
KRDR,09-05-2015,15:58,METAR,Normal,10,8.0,,,9999.0,,18.2,18.2,29.89,1012.5,,,,,,,,,,,,,,,,200.0,200.0,OVC,200.0,,,,,,
KRDR,09-05-2015,15:28,SPECI,Normal,10,9.0,,,4800.0,Mist,18.0,18.0,29.90,,10,,,,,,,,,,,,,,,200.0,200.0,OVC,200.0,,,,,,
KRDR,09-05-2015,15:23,SPECI,Normal,360,9.0,,,3200.0,Mist,18.0,18.0,29.90,,10,,,,,,,,,,,,,,,200.0,200.0,OVC,200.0,,,,,,
KRDR,09-05-2015,15:13,SPECI,Normal,360,9.0,,,2400.0,Mist,18.0,18.0,29.90,,10,,,,,,,,,,,,,,,200.0,200.0,OVC,200.0,,,,,,
KRDR,09-05-2015,15:08,SPECI,Normal,360,10.0,,,2000.0,Mist,18.0,18.0,29.90,,10,,,,,,,,,,,,,,,200.0,200.0,OVC,200.0,,,,,,
KRDR,09-05-2015,14:58,METAR,Normal,10,9.0,,,2400.0,Mist,17.7,17.6,29.90,1012.9,10,,,,,,,,,,,,,,,200.0,200.0,OVC,200.0,,,,,,
KRDR,09-05-2015,14:53,SPECI,Normal,20,9.0,,,2400.0,Mist,18.0,18.0,29.90,,10,,,,,,,,,,,,,,,200.0,200.0,OVC,200.0,,,,,,
KRDR,09-05-2015,14:48,SPECI,Normal,10,10.0,,,1600.0,Mist,17.0,17.0,29.89,,10,,,,,,,,,,,,,,Sky Obscured (Unable to Estimate),200.0,200.0,,200.0,,,,,,
KRDR,09-05-2015,14:43,SPECI,Normal,20,10.0,,,1200.0,Mist,17.0,17.0,29.89,,10,,,,,,,,,,,,,,Sky Obscured (Unable to Estimate),200.0,200.0,,200.0,,,,,,
KRDR,09-05-2015,14:33,SPECI,Normal,20,10.0,,,1200.0,Mist,17.0,17.0,29.88,,10,,,,,,,,,,,,,,Sky Obscured (Unable to Estimate),200.0,200.0,,200.0,,,,,,
KRDR,09-05-2015,14:28,SPECI,Normal,20,8.0,,,1200.0,Mist,17.0,17.0,29.89,,10,,,,,,,,,,,,,,Sky Obscured (Unable to Estimate),200.0,200.0,,200.0,,,,,,
KRDR,09-05-2015,14:23,SPECI,Normal,30,8.0,,,1200.0,Mist,17.0,17.0,29.88,,10,,,,,,,,,,,,,,Sky Obscured (Unable to Estimate),100.0,100.0,,100.0,,,,,,
KRDR,09-05-2015,14:18,SPECI,Normal,20,8.0,,,1200.0,Mist,17.0,17.0,29.89,,10,,,,,,,,,,,,,,Sky Obscured (Unable to Estimate),100.0,100.0,,100.0,,,,,,
KRDR,09-05-2015,14:13,SPECI,Normal,20,9.0,,,800.0,Fog,17.0,17.0,29.88,,30,,,,,,,,,,,,,,Sky Obscured (Unable to Estimate),100.0,100.0,,100.0,,,,,,
KRDR,09-05-2015,14:08,SPECI,Normal,20,9.0,,,800.0,Fog,17.0,17.0,29.88,,30,,,,,,,,,,,,,,Sky Obscured (Unable to Estimate),100.0,100.0,,100.0,,,,,,
KRDR,09-05-2015,13:58,METAR,Normal,20,8.0,,,800.0,Fog,17.0,17.0,29.89,1012.6,30,,,,,,,,,,,,,,Sky Obscured (Unable to Estimate),100.0,100.0,,100.0,,,,,,
KRDR,09-05-2015,13:53,SPECI,Normal,10,6.0,,,800.0,Fog,17.0,17.0,29.89,,30,,,,,,,,,,,,,,Sky Obscured (Unable to Estimate),100.0,100.0,,100.0,,,,,,
KRDR,09-05-2015,13:48,SPECI,Normal,10,11.0,,,800.0,Fog,17.0,17.0,29.88,,30,,,,,,,,,,,,,,Sky Obscured (Unable to Estimate),100.0,100.0,,100.0,,,,,,
KRDR,09-05-2015,13:43,SPECI,Normal,10,7.0,,,800.0,Fog,17.0,17.0,29.88,,30,,,,,,,,,,,,,,Sky Obscured (Unable to Estimate),100.0,100.0,,100.0,,,,,,
KRDR,09-05-2015,13:38,SPECI,Normal,20,9.0,,,800.0,Fog,17.0,17.0,29.88,,30,,,,,,,,,,,,,,Sky Obscured (Unable to Estimate),200.0,200.0,,200.0,,,,,,
KRDR,09-05-2015,13:33,SPECI,Normal,10,8.0,,,1200.0,Mist,17.0,17.0,29.88,,10,,,,,,,,,,,,,,Sky Obscured (Unable to Estimate),200.0,200.0,,200.0,,,,,,
KRDR,09-05-2015,13:23,SPECI,Normal,20,9.0,,,1200.0,Mist,17.0,17.0,29.89,,10,,,,,,,,,,,,,,Sky Obscured (Unable to Estimate),200.0,200.0,,200.0,,,,,,
KRDR,09-05-2015,13:18,SPECI,Normal,30,9.0,,,1600.0,Mist,17.0,17.0,29.89,,10,,,,,,,,,,,,,,Sky Obscured (Unable to Estimate),200.0,200.0,,200.0,,,,,,
KRDR,09-05-2015,13:13,SPECI,Normal,30,8.0,,,1200.0,Mist,17.0,17.0,29.89,,10,,,,,,,,,,,,,,Sky Obscured (Unable to Estimate),200.0,200.0,,200.0,,,,,,
KRDR,09-05-2015,13:08,SPECI,Normal,30,9.0,,,1600.0,Mist,17.0,17.0,29.89,,10,,,,,,,,,,,,,,Sky Obscured (Unable to Estimate),200.0,200.0,,200.0,,,,,,
KRDR,09-05-2015,12:58,METAR,Normal,40,11.0,,,1600.0,Mist,17.0,17.0,29.89,1012.5,10,,,,,,,,,,,,,,Sky Obscured (Unable to Estimate),200.0,200.0,,200.0,,,,,,
KRDR,09-05-2015,12:53,SPECI,Normal,30,9.0,,,1600.0,Mist,17.0,17.0,29.89,,10,,,,,,,,,,,,,,Sky Obscured (Unable to Estimate),200.0,200.0,,200.0,,,,,,
KRDR,09-05-2015,12:48,SPECI,Normal,20,9.0,,,2400.0,Mist,17.0,17.0,29.89,,10,,,,,,,,,,,,,,,200.0,200.0,OVC,200.0,,,,,,
KRDR,09-05-2015,12:43,SPECI,Normal,30,8.0,,,3200.0,Mist,17.0,17.0,29.89,,10,,,,,,,,,,,,,,,200.0,200.0,OVC,200.0,,,,,,
KRDR,09-05-2015,12:38,SPECI,Normal,30,10.0,,,2800.0,Mist,17.0,17.0,29.89,,10,,,,,,,,,,,,,,,200.0,200.0,OVC,200.0,,,,,,
KRDR,09-05-2015,12:33,SPECI,Normal,20,8.0,,,2000.0,Mist,17.0,17.0,29.89,,10,,,,,,,,,,,,,,,100.0,100.0,OVC,100.0,,,,,,
KRDR,09-05-2015,12:28,SPECI,Normal,20,11.0,,,1200.0,Mist,17.0,17.0,29.89,,10,,,,,,,,,,,,,,Sky Obscured (Unable to Estimate),100.0,100.0,,100.0,,,,,,
KRDR,09-05-2015,12:23,SPECI,Normal,20,11.0,,,1200.0,Mist,17.0,17.0,29.89,,10,,,,,,,,,,,,,,Sky Obscured (Unable to Estimate),100.0,100.0,,100.0,,,,,,
KRDR,09-05-2015,12:18,SPECI,Normal,20,9.0,,,800.0,Fog,17.0,17.0,29.89,,30,,,,,,,,,,,,,,Sky Obscured (Unable to Estimate),100.0,100.0,,100.0,,,,,,
KRDR,09-05-2015,12:13,SPECI,Normal,20,12.0,,,800.0,Fog,17.0,17.0,29.89,,30,,,,,,,,,,,,,,Sky Obscured (Unable to Estimate),100.0,100.0,,100.0,,,,,,
KRDR,09-05-2015,12:03,SPECI,Normal,20,11.0,,,800.0,Fog,17.0,17.0,29.89,,30,,,,,,,,,,,,,,Sky Obscured (Unable to Estimate),100.0,100.0,,100.0,,,,,,
KRDR,09-05-2015,11:58,METAR,Normal,30,10.0,,,1200.0,Mist,17.0,17.0,29.89,1012.5,10,,,,,,,,,,,,,,Sky Obscured (Unable to Estimate),100.0,100.0,,100.0,,,,,,
KRDR,09-05-2015,11:38,SPECI,Normal,20,11.0,,,1600.0,Mist,17.0,17.0,29.90,,10,,,,,,,,,,,,,,Sky Obscured (Unable to Estimate),100.0,100.0,,100.0,,,,,,
KRDR,09-05-2015,11:28,SPECI,Normal,20,9.0,,,2000.0,Mist,17.0,17.0,29.90,,10,,,,,,,,,,,,,,,100.0,100.0,OVC,100.0,,,,,,
KRDR,09-05-2015,11:03,SPECI,Normal,10,10.0,,,1600.0,Mist,17.0,17.0,29.90,,10,,,,,,,,,,,,,,Sky Obscured (Unable to Estimate),100.0,100.0,,100.0,,,,,,
KRDR,09-05-2015,10:58,METAR,Normal,20,10.0,,,1600.0,Mist,17.0,17.0,29.90,1012.9,10,,,,,,,,,,,,,,Sky Obscured (Unable to Estimate),200.0,200.0,,200.0,,,,,,
KRDR,09-05-2015,10:53,SPECI,Normal,10,9.0,,,1600.0,Mist,17.0,17.0,29.90,,10,,,,,,,,,,,,,,Sky Obscured (Unable to Estimate),200.0,200.0,,200.0,,,,,,
KRDR,09-05-2015,10:48,SPECI,Normal,20,9.0,,,2400.0,Mist,17.0,17.0,29.89,,10,,,,,,,,,,,,,,,200.0,200.0,OVC,200.0,,,,,,
KRDR,09-05-2015,10:43,SPECI,Normal,20,8.0,,,2800.0,Mist,17.0,17.0,29.89,,10,,,,,,,,,,,,,,,200.0,200.0,OVC,200.0,,,,,,
KRDR,09-05-2015,10:23,SPECI,Normal,20,8.0,,,2000.0,Mist,17.0,17.0,29.89,,10,,,,,,,,,,,,,,,100.0,100.0,OVC,100.0,,,,,,
KRDR,09-05-2015,10:03,SPECI,Normal,10,10.0,,,1200.0,Mist,17.0,17.0,29.89,,10,,,,,,,,,,,,,,Sky Obscured (Unable to Estimate),100.0,100.0,,100.0,,,,,,
KRDR,09-05-2015,09:58,METAR,Normal,20,9.0,,,800.0,Fog,17.3,17.1,29.88,1012.1,30,,,,,,,,,,,,,,Sky Obscured (Unable to Estimate),100.0,100.0,,100.0,,,,,,
KRDR,09-05-2015,08:58,METAR,Normal,20,7.0,,,800.0,Fog,17.4,17.2,29.89,1012.4,30,,,,,,,,,,,,,,Sky Obscured (Unable to Estimate),100.0,100.0,,100.0,,,,,,
KRDR,09-05-2015,08:53,SPECI,Normal,10,9.0,,,800.0,Fog,17.0,17.0,29.89,,30,,,,,,,,,,,,,,Sky Obscured (Unable to Estimate),100.0,100.0,,100.0,,,,,,
KRDR,09-05-2015,08:18,SPECI,Normal,20,7.0,,,800.0,Fog,18.0,17.0,29.90,,30,,,,,,,,,,,,,,Sky Obscured (Unable to Estimate),100.0,100.0,,100.0,,,,,,
KRDR,09-05-2015,07:58,METAR,Normal,30,9.0,,,1200.0,Mist,18.1,17.9,29.89,1012.3,10,,,,,,,,,,,,,,Sky Obscured (Unable to Estimate),100.0,100.0,,100.0,,,,,,
KRDR,09-05-2015,07:38,SPECI,Normal,40,8.0,,,1200.0,Mist,18.0,18.0,29.88,,10,,,,,,,,,,,,,,Sky Obscured (Unable to Estimate),100.0,100.0,,100.0,,,,,,
KRDR,09-05-2015,07:28,SPECI,Normal,40,8.0,,,1600.0,Mist,18.0,18.0,29.88,,10,,,,,,,,,,,,,,Sky Obscured (Unable to Estimate),200.0,200.0,,200.0,,,,,,
KRDR,09-05-2015,07:23,SPECI,Normal,40,9.0,,,2400.0,Mist,18.0,18.0,29.88,,10,,,,,,,,,,,,,,,200.0,200.0,OVC,200.0,,,,,,
KRDR,09-05-2015,07:13,SPECI,Normal,20,7.0,,,6400.0,Mist,18.0,18.0,29.88,,10,,,,,,,,,,,,,,,300.0,300.0,BKN,300.0,OVC,4700.0,,,,
KRDR,09-05-2015,07:08,SPECI,Normal,20,8.0,,,9999.0,,18.0,18.0,29.88,,,,,,,,,,,,,,,,,300.0,300.0,BKN,300.0,OVC,4700.0,,,,
KRDR,09-05-2015,06:58,METAR,Normal,20,7.0,,,9999.0,,18.0,17.0,29.88,1012.0,,,,,,,,,,,,,,,,2900.0,600.0,FEW,600.0,BKN,4700.0,,,,
KRDR,09-05-2015,06:53,SPECI,Normal,10,5.0,,,9999.0,,18.0,17.0,29.88,,,,,,,,,,,,,,,,,4700.0,700.0,FEW,700.0,BKN,4700.0,,,,
KRDR,09-05-2015,05:58,METAR,Normal,30,6.0,,,9999.0,,18.0,17.8,29.87,1011.7,,,,,,,,,,,,,,,2/8 Mostly Clear,72000.0,2900.0,FEW,2900.0,,,,,,
KRDR,09-05-2015,04:58,METAR,Normal,10,7.0,,,9999.0,,18.2,18.0,29.85,1011.0,,,,,,,,,,,,,,,Clear,72000.0,,,,,,,,,
KRDR,09-05-2015,04:24,SPECI,Normal,10,6.0,,,9999.0,,18.0,18.0,29.85,,,,,,,,,,,,,,,,Clear,72000.0,,,,,,,,,
KRDR,09-05-2015,04:19,SPECI,Normal,10,5.0,,,4800.0,Mist,18.0,18.0,29.85,,10,,,,,,,,,,,,,,Clear,72000.0,,,,,,,,,
KRDR,09-05-2015,04:14,SPECI,Normal,10,4.0,,,3200.0,Mist,18.0,18.0,29.85,,10,,,,,,,,,,,,,,2/8 Mostly Clear,72000.0,100.0,FEW,100.0,,,,,,
KRDR,09-05-2015,04:09,SPECI,Normal,10,4.0,,,3200.0,Mist,19.0,18.0,29.85,,10,,,,,,,,,,,,,,2/8 Mostly Clear,72000.0,100.0,FEW,100.0,,,,,,
KRDR,09-05-2015,03:58,METAR,Normal,20,5.0,,,2000.0,Mist,18.6,18.6,29.85,1011.0,10,,,,,,,,,,,,,,,100.0,100.0,BKN,100.0,,,,,,
KRDR,09-05-2015,03:57,SPECI,Normal,20,5.0,,,2000.0,Mist,19.0,19.0,29.85,,10,,,,,,,,,,,,,,,100.0,100.0,BKN,100.0,,,,,,
KRDR,09-05-2015,03:52,SPECI,Normal,20,5.0,,,3200.0,Mist,19.0,19.0,29.85,,10,,,,,,,,,,,,,,,100.0,100.0,BKN,100.0,,,,,,
KRDR,09-05-2015,03:47,SPECI,Normal,20,5.0,,,4000.0,Mist,19.0,18.0,29.85,,10,,,,,,,,,,,,,,,100.0,100.0,BKN,100.0,,,,,,
KRDR,09-05-2015,03:42,SPECI,Normal,20,5.0,,,9999.0,,19.0,18.0,29.85,,,,,,,,,,,,,,,,,100.0,100.0,BKN,100.0,,,,,,
KRDR,09-05-2015,03:37,SPECI,Normal,10,5.0,,,9999.0,,19.0,18.0,29.85,,,,,,,,,,,,,,,,4/8 Partly Cloudy,72000.0,100.0,SCT,100.0,,,,,,
KRDR,09-05-2015,03:32,SPECI,Normal,10,4.0,,,9999.0,,19.0,18.0,29.84,,,,,,,,,,,,,,,,2/8 Mostly Clear,72000.0,200.0,FEW,200.0,,,,,,
KRDR,09-05-2015,02:58,METAR,Normal,360,4.0,,,9999.0,,18.6,18.3,29.84,1010.7,,,,,,,,,,,,,,,,5500.0,5500.0,BKN,5500.0,,,,,,
KRDR,09-05-2015,01:58,METAR,Normal,350,3.0,,,9999.0,,18.9,18.5,29.84,1010.7,,,,,,,,,,,,,,,Clear,72000.0,,,,,,,,,
KRDR,09-05-2015,00:58,METAR,Normal,160,1.0,,,9999.0,,21.2,19.4,29.84,1010.7,,,,,,,,,,,,,,,Clear,72000.0,,,,,,,,,
KRDR,09-04-2015,23:58,METAR,Normal,80,6.0,,,9999.0,,21.6,19.0,29.82,1009.9,,,,,,,,,,,,,TRACE,,Clear,72000.0,,,,,,,,,
KRDR,09-04-2015,22:58,METAR,Normal,10,9.0,,,9999.0,,20.9,18.7,29.83,1010.3,,,,,,,,,,,,,,,,3200.0,3200.0,BKN,3200.0,,,,,,
KRDR,09-04-2015,21:58,METAR,Normal,40,9.0,,,9999.0,,23.1,20.9,29.80,1009.2,,,,,,,,,,,TRACE,,,,2/8 Mostly Clear,72000.0,8500.0,FEW,8600.0,,,,,,
KRDR,09-04-2015,21:20,SPECI,Normal,200,6.0,,,9999.0,,24.0,20.0,29.80,,,,,,,,,,,,,,,,2/8 Mostly Clear,72000.0,8500.0,FEW,8600.0,,,,,,
KRDR,09-04-2015,21:10,SPECI,Normal,190,6.0,,,9999.0,Light Rain,24.0,21.0,29.79,,61,,,,,,,,,,,,,,2/8 Mostly Clear,72000.0,9000.0,FEW,9100.0,,,,,,
KRDR,09-04-2015,20:59,SPECI,Normal,190,6.0,,,9999.0,,24.0,21.0,29.80,,,,,,,,,,,,,,,,4/8 Partly Cloudy,72000.0,9500.0,SCT,9600.0,,,,,,
KRDR,09-04-2015,20:58,METAR,Normal,190,6.0,,,9999.0,Light Drizzle,24.5,21.1,29.80,1009.2,51,,,,,,,,,,TRACE,TRACE,,,4/8 Partly Cloudy,72000.0,9500.0,SCT,9600.0,,,,,,
KRDR,09-04-2015,20:34,SPECI,Normal,220,5.0,,,9999.0,Light Rain,25.0,22.0,29.80,,61,,,,,,,,,,,,,,2/8 Mostly Clear,72000.0,10000.0,FEW,10000.0,,,,,,
KRDR,09-04-2015,19:58,METAR,Normal,260,9.0,,,9999.0,,27.1,21.6,29.78,1008.4,,,,,,,,,,,,,,,Clear,72000.0,,,,,,,,,
KRDR,09-04-2015,18:58,METAR,Normal,200,11.0,,,9999.0,,27.2,22.5,29.77,1008.1,,,,,,,,,,,,,,,2/8 Mostly Clear,72000.0,2200.0,FEW,2200.0,,,,,,
KRDR,09-04-2015,17:58,METAR,Normal,150,6.0,,,9999.0,Distant Lightning,25.2,22.8,29.77,1008.1,12,,,,,,,,,,TRACE,,TRACE,,4/8 Partly Cloudy,72000.0,1900.0,SCT,1900.0,,,,,,
KRDR,09-04-2015,17:37,SPECI,Normal,160,5.0,,,9999.0,,25.0,23.0,29.78,,,,,,,,,,,,,,,,4/8 Partly Cloudy,72000.0,1600.0,SCT,1600.0,,,,,,
KRDR,09-04-2015,17:32,SPECI,Normal,160,5.0,,,9999.0,,25.0,23.0,29.78,,,,,,,,,,,,,,,,,1400.0,1400.0,BKN,1400.0,,,,,,
KRDR,09-04-2015,17:23,SPECI,Normal,150,6.0,,,9999.0,Light Rain,25.0,23.0,29.78,,61,,,,,,,,,,,,,,,1400.0,1400.0,BKN,1400.0,,,,,,
KRDR,09-04-2015,16:58,METAR,Normal,150,5.0,,,9999.0,Distant Lightning,24.7,22.3,29.78,1008.4,12,,,,,,,,,,,,,,,1400.0,1400.0,BKN,1400.0,,,,,,
KRDR,09-04-2015,16:30,SPECI,Normal,150,10.0,,,6400.0,Distant Lightning/Haze Smoke or Dust,25.0,22.0,29.78,,05,12,,,,,,,,,,,,,,1300.0,400.0,FEW,400.0,OVC,1300.0,,,,
KRDR,09-04-2015,16:26,SPECI,Normal,160,9.0,,,9999.0,Dry Thunderstorm/Haze Smoke or Dust,25.0,22.0,29.78,,91,05,,,,,,,,,,,,,,1300.0,400.0,FEW,400.0,OVC,1300.0,,,,
KRDR,09-04-2015,16:15,SPECI,Normal,160,9.0,,,9999.0,Dry Thunderstorm,25.0,22.0,29.77,,91,,,,,,,,,,,,,,,1200.0,1200.0,OVC,1200.0,,,,,,
KRDR,09-04-2015,16:03,SPECI,Normal,150,9.0,,,9999.0,,25.0,22.0,29.77,,,,,,,,,,,,,,,,,1200.0,1200.0,OVC,1200.0,,,,,,
KRDR,09-04-2015,15:58,METAR,Normal,150,7.0,,,9999.0,,24.5,22.0,29.77,1008.1,,,,,,,,,,,,,,,,1100.0,1100.0,OVC,1100.0,,,,,,
KRDR,09-04-2015,15:39,SPECI,Normal,160,10.0,,,9999.0,,24.0,22.0,29.77,,,,,,,,,,,,,,,,,1000.0,1000.0,OVC,1000.0,,,,,,
KRDR,09-04-2015,15:04,SPECI,Normal,150,6.0,,,9999.0,,24.0,22.0,29.77,,,,,,,,,,,,,,,,,900.0,900.0,OVC,900.0,,,,,,
KRDR,09-04-2015,14:59,METAR,Normal,160,8.0,,,9999.0,,23.8,21.7,29.77,1008.1,,,,,,,,,,,,,,,,1000.0,1000.0,OVC,1000.0,,,,,,
KRDR,09-04-2015,14:38,SPECI,Normal,170,9.0,,,9999.0,,24.0,22.0,29.77,,,,,,,,,,,,,,,,,1000.0,1000.0,OVC,1000.0,,,,,,
KRDR,09-04-2015,13:58,METAR,Normal,160,9.0,,,9999.0,,23.1,21.4,29.77,1008.1,,,,,,,,,,,,,,,,900.0,900.0,OVC,900.0,,,,,,
KRDR,09-04-2015,13:08,SPECI,Normal,160,10.0,,,9999.0,,23.0,21.0,29.78,,,,,,,,,,,,,,,,,900.0,900.0,BKN,900.0,,,,,,
KRDR,09-04-2015,13:03,SPECI,Normal,160,10.0,,,9999.0,,23.0,21.0,29.78,,,,,,,,,,,,,,,,,1000.0,1000.0,BKN,1000.0,,,,,,
KRDR,09-04-2015,12:58,METAR,Normal,160,9.0,,,9999.0,,23.0,21.5,29.78,1008.3,,,,,,,,,,,,,,,,900.0,900.0,BKN,900.0,,,,,,
KRDR,09-04-2015,12:53,SPECI,Normal,160,9.0,,,9999.0,,23.0,22.0,29.78,,,,,,,,,,,,,,,,,900.0,900.0,BKN,900.0,,,,,,
KRDR,09-04-2015,12:08,SPECI,Normal,150,11.0,,,9999.0,,23.0,22.0,29.77,,,,,,,,,,,,,,,,,1000.0,1000.0,OVC,1000.0,,,,,,
KRDR,09-04-2015,11:58,METAR,Normal,160,11.0,,,9999.0,,22.8,21.6,29.77,1007.9,,,,,,,,,,,,,,,,900.0,900.0,OVC,900.0,,,,,,
KRDR,09-04-2015,11:33,SPECI,Normal,160,11.0,,,9999.0,,23.0,22.0,29.77,,,,,,,,,,,,,,,,,900.0,900.0,OVC,900.0,,,,,,
KRDR,09-04-2015,10:58,METAR,Normal,150,9.0,,,9999.0,,23.0,22.0,29.77,1007.9,,,,,,,,,,,,,,,,1100.0,1100.0,OVC,1100.0,,,,,,
KRDR,09-04-2015,10:23,SPECI,Normal,160,8.0,,,9999.0,,23.0,22.0,29.78,,,,,,,,,,,,,,,,,1000.0,1000.0,OVC,1000.0,,,,,,
KRDR,09-04-2015,10:18,SPECI,Normal,150,7.0,,,9999.0,,23.0,22.0,29.78,,,,,,,,,,,,,,,,,900.0,900.0,OVC,900.0,,,,,,
KRDR,09-04-2015,10:03,SPECI,Normal,160,8.0,,,9999.0,,23.0,22.0,29.78,,,,,,,,,,,,,,,,,1000.0,1000.0,OVC,1000.0,,,,,,
KRDR,09-04-2015,09:58,METAR,Normal,150,8.0,,,9999.0,,23.3,22.3,29.78,1008.3,,,,,,,,,,,,,,,,900.0,900.0,OVC,900.0,,,,,,
KRDR,09-04-2015,09:18,SPECI,Normal,160,9.0,,,9999.0,,24.0,23.0,29.78,,,,,,,,,,,,,,,,,900.0,900.0,OVC,900.0,,,,,,
KRDR,09-04-2015,08:58,METAR,Normal,170,8.0,,,9999.0,,24.4,22.9,29.77,1007.9,,,,,,,,,,,,,,,,1100.0,1100.0,OVC,1100.0,,,,,,
KRDR,09-04-2015,08:35,SPECI,Normal,170,9.0,,,9999.0,,24.0,23.0,29.77,,,,,,,,,,,,,,,,,1100.0,1100.0,OVC,1100.0,,,,,,
KRDR,09-04-2015,07:58,METAR,Normal,180,10.0,,,9999.0,,24.4,23.0,29.77,1007.9,,,,,,,,,,,,,,,,1300.0,1300.0,OVC,1300.0,,,,,,
KRDR,09-04-2015,07:48,SPECI,Normal,180,9.0,,,9999.0,,24.0,23.0,29.77,,,,,,,,,,,,,,,,,1400.0,1400.0,BKN,1400.0,,,,,,
KRDR,09-04-2015,06:58,METAR,Normal,170,8.0,,,9999.0,,24.5,23.0,29.78,1008.3,,,,,,,,,,,,,,,2/8 Mostly Clear,72000.0,1500.0,FEW,1500.0,,,,,,
KRDR,09-04-2015,05:58,METAR,Normal,200,10.0,,,9999.0,,25.3,23.2,29.77,1008.0,,,,,,,,,,,,,,,Clear,72000.0,,,,,,,,,
KRDR,09-04-2015,04:58,METAR,Normal,180,13.0,,,9999.0,,26.1,23.1,29.76,1007.7,,,,,,,,,,,,,,,Clear,72000.0,,,,,,,,,
KRDR,09-04-2015,03:58,METAR,Normal,180,13.0,,,9999.0,,26.5,22.8,29.76,1007.8,,,,,,,,,,,,,,,Clear,72000.0,,,,,,,,,
KRDR,09-04-2015,02:58,METAR,Normal,190,12.0,,,9999.0,,27.6,22.7,29.75,1007.4,,,,,,,,,,,,,,,Clear,72000.0,,,,,,,,,
KRDR,09-04-2015,01:58,METAR,Normal,150,14.0,21.0,,9999.0,,28.7,22.7,29.73,1006.7,,,,,,,,,,,,,,,Clear,72000.0,,,,,,,,,
KRDR,09-04-2015,00:58,METAR,Normal,150,14.0,,,9999.0,,29.8,22.9,29.71,1006.0,,,,,,,,,,,,,,,Clear,72000.0,,,,,,,,,
KRDR,09-03-2015,23:58,METAR,Normal,150,12.0,,,9999.0,,31.8,22.5,29.69,1005.3,,,,,,,,,,,,,,,Clear,72000.0,,,,,,,,,
KRDR,09-03-2015,22:58,METAR,Normal,170,14.0,,,9999.0,,31.6,20.9,29.69,1005.3,,,,,,,,,,,,,,,Clear,72000.0,,,,,,,,,
KRDR,09-03-2015,21:58,METAR,Normal,170,20.0,,/  KTS,9999.0,,32.9,21.8,29.69,1005.3,,,,,,,,,,,,,,,Clear,72000.0,,,,,,,,,
KRDR,09-03-2015,20:58,METAR,Normal,160,18.0,26.0,,9999.0,,33.1,21.6,29.70,1005.6,,,,,,,,,,,,,,,Clear,72000.0,,,,,,,,,
KRDR,09-03-2015,19:58,METAR,Normal,160,20.0,27.0,,9999.0,,32.9,22.2,29.70,1005.6,,,,,,,,,,,,,,,Clear,72000.0,,,,,,,,,
KRDR,09-03-2015,18:58,METAR,Normal,170,24.0,30.0,,9999.0,,31.4,22.3,29.72,1006.4,,,,,,,,,,,,,,,Clear,72000.0,,,,,,,,,
KRDR,09-03-2015,17:58,METAR,Normal,180,17.0,23.0,,9999.0,,28.8,22.1,29.74,1007.0,,,,,,,,,,,,,,,Clear,72000.0,,,,,,,,,
KRDR,09-03-2015,16:58,METAR,Normal,160,19.0,24.0,190/26KTS,9999.0,,25.2,21.3,29.76,1007.8,,,,,,,,,,,,,,,,1500.0,1500.0,OVC,1500.0,,,,,,
KRDR,09-03-2015,15:58,METAR,Normal,160,14.0,,,9999.0,,23.3,21.0,29.76,1007.9,,,,,,,,,,,,,,,,1000.0,1000.0,OVC,1000.0,,,,,,
KRDR,09-03-2015,14:58,METAR,Normal,160,17.0,23.0,,9999.0,,22.0,21.0,29.77,1008.2,,,,,,,,,,,,,,,,800.0,800.0,OVC,800.0,,,,,,
KRDR,09-03-2015,14:43,SPECI,Normal,150,14.0,,,9999.0,,22.0,21.0,29.77,,,,,,,,,,,,,,,,,500.0,700.0,OVC,700.0,,,,,,
KRDR,09-03-2015,14:38,SPECI,Normal,160,17.0,,,9999.0,,22.0,21.0,29.77,,,,,,,,,,,,,,,,,600.0,600.0,OVC,600.0,,,,,,
KRDR,09-03-2015,14:23,SPECI,Normal,150,15.0,,,9999.0,,22.0,21.0,29.77,,,,,,,,,,,,,,,,,500.0,500.0,OVC,500.0,,,,,,
KRDR,09-03-2015,13:58,METAR,Normal,140,12.0,,,6400.0,Mist,21.7,21.5,29.78,1008.5,10,,,,,,,,,,,,,,,400.0,400.0,OVC,400.0,,,,,,
KRDR,09-03-2015,13:48,SPECI,Normal,150,11.0,,,4800.0,Mist,22.0,22.0,29.78,,10,,,,,,,,,,,,,,,400.0,400.0,OVC,400.0,,,,,,
KRDR,09-03-2015,13:38,SPECI,Normal,140,13.0,18.0,,4800.0,Mist,22.0,22.0,29.78,,10,,,,,,,,,,,,,,,300.0,300.0,OVC,300.0,,,,,,
KRDR,09-03-2015,12:58,METAR,Normal,150,12.0,,,3200.0,Mist,21.6,21.4,29.78,1008.5,10,,,,,,,,,,,,,,,300.0,300.0,OVC,300.0,,,,,,
KRDR,09-03-2015,12:53,SPECI,Normal,150,12.0,,,3200.0,Mist,22.0,21.0,29.78,,10,,,,,,,,,,,,,,,300.0,300.0,OVC,300.0,,,,,,
KRDR,09-03-2015,12:08,SPECI,Normal,150,10.0,,,2400.0,Mist,21.0,21.0,29.77,,10,,,,,,,,,,,,,,,300.0,300.0,OVC,300.0,,,,,,
KRDR,09-03-2015,12:03,SPECI,Normal,150,12.0,,,2400.0,Mist,21.0,21.0,29.77,,10,,,,,,,,,,,,,,,300.0,300.0,OVC,300.0,,,,,,
KRDR,09-03-2015,11:58,METAR,Normal,150,10.0,,,3200.0,Mist,21.2,21.0,29.77,1008.1,10,,,,,,,,,,,,,,,300.0,300.0,OVC,300.0,,,,,,
KRDR,09-03-2015,11:08,SPECI,Normal,150,9.0,,,4000.0,Mist,21.0,21.0,29.78,,10,,,,,,,,,,,,,,,300.0,300.0,OVC,300.0,,,,,,
KRDR,09-03-2015,10:58,METAR,Normal,140,9.0,,,6400.0,Mist,21.0,20.0,29.78,1008.4,10,,,,,,,,,,,,,,,300.0,300.0,OVC,300.0,,,,,,
KRDR,09-03-2015,10:53,SPECI,Normal,150,8.0,,,6400.0,Mist,21.0,20.0,29.77,,10,,,,,,,,,,,,,,,400.0,400.0,OVC,400.0,,,,,,
KRDR,09-03-2015,10:43,SPECI,Normal,140,9.0,,,9999.0,Mist,21.0,20.0,29.77,,10,,,,,,,,,,,,,,,400.0,400.0,OVC,400.0,,,,,,
KRDR,09-03-2015,10:33,SPECI,Normal,140,9.0,,,9999.0,,21.0,20.0,29.77,,,,,,,,,,,,,,,,,500.0,500.0,OVC,500.0,,,,,,
KRDR,09-03-2015,10:23,SPECI,Normal,140,9.0,,,9999.0,,21.0,20.0,29.77,,,,,,,,,,,,,,,,,600.0,600.0,OVC,600.0,,,,,,
KRDR,09-03-2015,09:58,METAR,Normal,140,8.0,,,9999.0,,20.9,19.8,29.78,1008.4,,,,,,,,,,,,,,,,700.0,700.0,OVC,700.0,,,,,,
KRDR,09-03-2015,09:51,SPECI,Normal,150,7.0,,,9999.0,,21.0,20.0,29.79,,,,,,,,,,,,,,,,,700.0,700.0,OVC,700.0,,,,,,
KRDR,09-03-2015,09:11,SPECI,Normal,170,7.0,,,9999.0,,21.0,20.0,29.79,,,,,,,,,,,,,,,,,900.0,900.0,BKN,900.0,OVC,1300.0,,,,
KRDR,09-03-2015,09:06,SPECI,Normal,160,7.0,,,9999.0,,21.0,20.0,29.79,,,,,,,,,,,,,,,,,1000.0,1000.0,BKN,1000.0,OVC,1400.0,,,,
KRDR,09-03-2015,08:58,METAR,Normal,160,7.0,,,9999.0,,20.8,19.7,29.79,1008.7,,,,,,,,,,,,,,,,1300.0,1300.0,BKN,1300.0,,,,,,
KRDR,09-03-2015,08:48,SPECI,Normal,170,8.0,,,9999.0,,21.0,20.0,29.79,,,,,,,,,,,,,,,,,1400.0,1400.0,OVC,1400.0,,,,,,
KRDR,09-03-2015,08:28,SPECI,Normal,160,7.0,,,9999.0,,21.0,20.0,29.78,,,,,,,,,,,,,,,,,1500.0,1500.0,BKN,1500.0,,,,,,
KRDR,09-03-2015,07:58,METAR,Normal,170,7.0,,,9999.0,,20.8,19.6,29.79,1008.7,,,,,,,,,,,,,,,Clear,72000.0,,,,,,,,,
KRDR,09-03-2015,06:58,METAR,Normal,180,8.0,,,9999.0,,21.4,19.6,29.79,1008.8,,,,,,,,,,,,,,,Clear,72000.0,,,,,,,,,
KRDR,09-03-2015,05:58,METAR,Normal,170,10.0,,,9999.0,,22.4,19.7,29.80,1009.1,,,,,,,,,,,,,,,Clear,72000.0,,,,,,,,,
KRDR,09-03-2015,04:58,METAR,Normal,170,9.0,,,9999.0,,22.9,19.6,29.81,1009.5,,,,,,,,,,,,,,,Clear,72000.0,,,,,,,,,
KRDR,09-03-2015,03:58,METAR,Normal,170,8.0,,,9999.0,,23.4,19.2,29.81,1009.5,,,,,,,,,,,,,,,Clear,72000.0,,,,,,,,,
KRDR,09-03-2015,02:58,METAR,Normal,150,8.0,,,9999.0,,23.8,18.8,29.81,1009.5,,,,,,,,,,,,,,,Clear,72000.0,,,,,,,,,
KRDR,09-03-2015,01:58,METAR,Normal,160,8.0,,,9999.0,,25.3,18.4,29.80,1009.2,,,,,,,,,,,,,,,Clear,72000.0,,,,,,,,,
KRDR,09-03-2015,00:58,METAR,Normal,150,9.0,,,9999.0,,27.7,17.9,29.78,1008.5,,,,,,,,,,,,,,,Clear,72000.0,,,,,,,,,
KRDR,09-02-2015,23:58,METAR,Normal,160,9.0,,,9999.0,,29.7,18.2,29.77,1008.2,,,,,,,,,,,,,,,Clear,72000.0,,,,,,,,,
KRDR,09-02-2015,22:58,METAR,Normal,160,13.0,17.0,,9999.0,,30.9,18.6,29.77,1008.1,,,,,,,,,,,,,,,Clear,72000.0,,,,,,,,,
KRDR,09-02-2015,21:58,METAR,Normal,140,14.0,,,9999.0,,31.1,19.1,29.77,1008.2,,,,,,,,,,,,,,,Clear,72000.0,,,,,,,,,
KRDR,09-02-2015,20:58,METAR,Normal,160,14.0,,,9999.0,,31.1,19.8,29.78,1008.5,,,,,,,,,,,,,,,Clear,72000.0,,,,,,,,,
KRDR,09-02-2015,19:58,METAR,Normal,190,13.0,,,9999.0,,30.6,19.5,29.80,1009.2,,,,,,,,,,,,,,,Clear,72000.0,,,,,,,,,
KRDR,09-02-2015,18:58,METAR,Normal,200,8.0,,,9999.0,,29.4,20.2,29.81,1009.5,,,,,,,,,,,,,,,Clear,72000.0,,,,,,,,,
KRDR,09-02-2015,17:58,METAR,Normal,190,10.0,,,9999.0,,28.5,20.2,29.82,1009.9,,,,,,,,,,,,,,,Clear,72000.0,,,,,,,,,
KRDR,09-02-2015,16:58,METAR,Normal,190,11.0,,,9999.0,,26.8,20.5,29.82,1009.9,,,,,,,,,,,,,,,Clear,72000.0,,,,,,,,,
KRDR,09-02-2015,15:58,METAR,Normal,190,8.0,,,9999.0,,25.2,20.1,29.82,1010.0,,,,,,,,,,,,,,,Clear,72000.0,,,,,,,,,
KRDR,09-02-2015,14:58,METAR,Normal,190,9.0,,,9999.0,,22.7,19.9,29.83,1010.3,,,,,,,,,,,,,,,4/8 Partly Cloudy,72000.0,700.0,SCT,700.0,,,,,,
KRDR,09-02-2015,14:53,SPECI,Normal,180,7.0,,,9999.0,,23.0,20.0,29.83,,,,,,,,,,,,,,,,4/8 Partly Cloudy,72000.0,700.0,SCT,700.0,,,,,,
KRDR,09-02-2015,14:38,SPECI,Normal,180,5.0,,,9999.0,,21.0,20.0,29.83,,,,,,,,,,,,,,,,,700.0,700.0,OVC,700.0,,,,,,
KRDR,09-02-2015,14:13,SPECI,Normal,200,5.0,,,9999.0,,21.0,20.0,29.83,,,,,,,,,,,,,,,,,600.0,600.0,OVC,600.0,,,,,,
KRDR,09-02-2015,13:58,METAR,Normal,180,8.0,,,9999.0,,20.4,20.3,29.83,1010.3,,,,,,,,,,,,,,,,500.0,500.0,OVC,500.0,,,,,,
KRDR,09-02-2015,13:43,SPECI,Normal,190,7.0,,,9999.0,Mist,20.0,20.0,29.83,,10,,,,,,,,,,,,,,,400.0,400.0,OVC,400.0,,,,,,
KRDR,09-02-2015,13:23,SPECI,Normal,180,7.0,,,4800.0,Mist,20.0,20.0,29.83,,10,,,,,,,,,,,,,,,300.0,300.0,OVC,300.0,,,,,,
KRDR,09-02-2015,13:08,SPECI,Normal,190,7.0,,,4000.0,Mist,19.0,19.0,29.83,,10,,,,,,,,,,,,,,,300.0,300.0,OVC,300.0,,,,,,
KRDR,09-02-2015,13:03,SPECI,Normal,190,8.0,,,4800.0,Mist,19.0,19.0,29.83,,10,,,,,,,,,,,,,,,200.0,200.0,OVC,200.0,,,,,,
KRDR,09-02-2015,12:58,METAR,Normal,190,8.0,,,4000.0,Mist,19.5,19.5,29.83,1010.3,10,,,,,,,,,,,,,,,200.0,200.0,OVC,200.0,,,,,,
KRDR,09-02-2015,12:54,SPECI,Normal,190,6.0,,,3200.0,Mist,20.0,20.0,29.84,,10,,,,,,,,,,,,,,,200.0,200.0,OVC,200.0,,,,,,
KRDR,09-02-2015,12:49,SPECI,Normal,180,6.0,,,2800.0,Mist,20.0,20.0,29.83,,10,,,,,,,,,,,,,,,200.0,200.0,OVC,200.0,,,,,,
KRDR,09-02-2015,12:34,SPECI,Normal,190,5.0,,,2000.0,Mist,20.0,19.0,29.83,,10,,,,,,,,,,,,,,,200.0,200.0,OVC,200.0,,,,,,
KRDR,09-02-2015,12:29,SPECI,Normal,200,6.0,,,1600.0,Mist,20.0,19.0,29.82,,10,,,,,,,,,,,,,,Sky Obscured (Unable to Estimate),100.0,100.0,,100.0,,,,,,
KRDR,09-02-2015,12:24,SPECI,Normal,200,5.0,,,1200.0,Mist,20.0,19.0,29.82,,10,,,,,,,,,,,,,,Sky Obscured (Unable to Estimate),100.0,100.0,,100.0,,,,,,
KRDR,09-02-2015,12:19,SPECI,Normal,200,5.0,,,800.0,Fog,20.0,19.0,29.82,,30,,,,,,,,,,,,,,Sky Obscured (Unable to Estimate),100.0,100.0,,100.0,,,,,,
KRDR,09-02-2015,12:03,SPECI,Normal,190,6.0,,,400.0,Fog,19.0,19.0,29.82,,30,,,,,,,,,,,,,,Sky Obscured (Unable to Estimate),100.0,100.0,,100.0,,,,,,
KRDR,09-02-2015,11:58,METAR,Normal,180,7.0,,,0.0,Fog,19.1,19.0,29.82,1009.9,30,,,,,,,,,,,,,,Sky Obscured (Unable to Estimate),100.0,100.0,,100.0,,,,,,
KRDR,09-02-2015,11:53,SPECI,Normal,190,6.0,,,0.0,Fog,19.0,19.0,29.82,,30,,,,,,,,,,,,,,Sky Obscured (Unable to Estimate),100.0,100.0,,100.0,,,,,,
KRDR,09-02-2015,11:38,SPECI,Normal,180,5.0,,,400.0,Fog,19.0,19.0,29.81,,30,,,,,,,,,,,,,,Sky Obscured (Unable to Estimate),100.0,100.0,,100.0,,,,,,
KRDR,09-02-2015,11:23,SPECI,Normal,180,7.0,,,800.0,Fog,19.0,18.0,29.82,,30,,,,,,,,,,,,,,Sky Obscured (Unable to Estimate),100.0,100.0,,100.0,,,,,,
KRDR,09-02-2015,11:18,SPECI,Normal,190,6.0,,,400.0,Fog,19.0,18.0,29.82,,30,,,,,,,,,,,,,,Sky Obscured (Unable to Estimate),100.0,100.0,,100.0,,,,,,
KRDR,09-02-2015,11:03,SPECI,Normal,190,6.0,,,800.0,Fog,18.0,18.0,29.82,,30,,,,,,,,,,,,,,Sky Obscured (Unable to Estimate),100.0,100.0,,100.0,,,,,,
KRDR,09-02-2015,10:58,METAR,Normal,190,6.0,,,400.0,Fog,18.1,17.9,29.82,1009.9,30,,,,,,,,,,,,,,Sky Obscured (Unable to Estimate),100.0,100.0,,100.0,,,,,,
KRDR,09-02-2015,10:48,SPECI,Normal,190,6.0,,,400.0,Fog,18.0,18.0,29.82,,30,,,,,,,,,,,,,,Sky Obscured (Unable to Estimate),100.0,100.0,,100.0,,,,,,
KRDR,09-02-2015,10:38,SPECI,Normal,170,5.0,,,800.0,Fog,17.0,17.0,29.82,,30,,,,,,,,,,,,,,Sky Obscured (Unable to Estimate),100.0,100.0,,100.0,,,,,,
KRDR,09-02-2015,10:33,SPECI,Normal,170,5.0,,,1200.0,Mist,17.0,17.0,29.82,,10,,,,,,,,,,,,,,Sky Obscured (Unable to Estimate),200.0,200.0,,200.0,,,,,,
KRDR,09-02-2015,10:28,SPECI,Normal,160,5.0,,,2400.0,Mist,17.0,17.0,29.82,,10,,,,,,,,,,,,,,,200.0,200.0,OVC,200.0,,,,,,
KRDR,09-02-2015,10:23,SPECI,Normal,170,5.0,,,8000.0,Mist,17.0,17.0,29.82,,10,,,,,,,,,,,,,,,200.0,200.0,BKN,200.0,,,,,,
KRDR,09-02-2015,10:18,SPECI,Normal,170,4.0,,,9999.0,,17.0,16.0,29.82,,,,,,,,,,,,,,,,,200.0,200.0,BKN,200.0,,,,,,
KRDR,09-02-2015,10:13,SPECI,Normal,160,2.0,,,9999.0,,16.0,16.0,29.82,,,,,,,,,,,,,,,,,300.0,300.0,BKN,300.0,,,,,,
KRDR,09-02-2015,10:08,SPECI,Normal,170,1.0,,,9999.0,,16.0,16.0,29.82,,,,,,,,,,,,,,,,4/8 Partly Cloudy,72000.0,400.0,SCT,400.0,,,,,,
KRDR,09-02-2015,10:03,SPECI,Normal,150,1.0,,,9999.0,,16.0,16.0,29.82,,,,,,,,,,,,,,,,2/8 Mostly Clear,72000.0,400.0,FEW,400.0,,,,,,
KRDR,09-02-2015,09:58,METAR,Calm,,0.0,,,9999.0,,17.0,16.0,29.82,1009.9,,,,,,,,,,,,,,,Clear,72000.0,,,,,,,,,
KRDR,09-02-2015,08:58,METAR,Normal,150,4.0,,,9999.0,,17.4,15.8,29.81,1009.5,,,,,,,,,,,,,,,Clear,72000.0,,,,,,,,,
KRDR,09-02-2015,07:58,METAR,Normal,160,3.0,,,9999.0,,17.3,15.1,29.81,1009.5,,,,,,,,,,,,,,,Clear,72000.0,,,,,,,,,
KRDR,09-02-2015,06:58,METAR,Normal,150,3.0,,,9999.0,,18.8,14.8,29.81,1009.5,,,,,,,,,,,,,,,Clear,72000.0,,,,,,,,,
KRDR,09-02-2015,05:58,METAR,Normal,150,5.0,,,9999.0,,18.2,13.9,29.82,1009.9,,,,,,,,,,,,,,,4/8 Partly Cloudy,72000.0,8000.0,SCT,8000.0,,,,,,
KRDR,09-02-2015,04:58,METAR,Normal,130,3.0,,,9999.0,,18.5,14.0,29.82,1009.9,,,,,,,,,,,,,,,Clear,72000.0,,,,,,,,,
KRDR,09-02-2015,03:58,METAR,Normal,150,4.0,,,9999.0,,19.2,13.1,29.83,1010.3,,,,,,,,,,,,,,,Clear,72000.0,,,,,,,,,
KRDR,09-02-2015,02:58,METAR,Normal,150,7.0,,,9999.0,,20.8,13.3,29.83,1010.3,,,,,,,,,,,,,,,Clear,72000.0,,,,,,,,,
KRDR,09-02-2015,01:58,METAR,Normal,180,6.0,,,9999.0,,22.0,13.3,29.83,1010.4,,,,,,,,,,,,,,,Clear,72000.0,,,,,,,,,
KRDR,09-02-2015,00:58,METAR,Normal,170,6.0,,,9999.0,,25.2,13.9,29.82,1010.1,,,,,,,,,,,,,,,Clear,72000.0,,,,,,,,,
KRDR,09-01-2015,23:58,METAR,Normal,170,6.0,,,9999.0,,28.1,13.2,29.81,1009.7,,,,,,,,,,,,,,,Clear,72000.0,,,,,,,,,
KRDR,09-01-2015,22:58,METAR,Normal,190,7.0,,,9999.0,,29.8,11.4,29.82,1010.0,,,,,,,,,,,,,,,Clear,72000.0,,,,,,,,,
KRDR,09-01-2015,21:58,METAR,Normal,170,9.0,,,9999.0,,30.3,10.1,29.82,1010.0,,,,,,,,,,,,,,,Clear,72000.0,,,,,,,,,
KRDR,09-01-2015,20:58,METAR,Normal,170,11.0,,,9999.0,,30.4,13.0,29.83,1010.4,,,,,,,,,,,,,,,Clear,72000.0,,,,,,,,,
KRDR,09-01-2015,19:58,METAR,Normal,230,8.0,,,9999.0,,30.2,12.0,29.84,1010.7,,,,,,,,,,,,,,,Clear,72000.0,,,,,,,,,
KRDR,09-01-2015,18:58,METAR,Normal,230,9.0,,,9999.0,,29.7,11.6,29.85,1011.0,,,,,,,,,,,,,,,Clear,72000.0,,,,,,,,,
KRDR,09-01-2015,17:58,METAR,Normal,250,7.0,,,9999.0,,29.3,13.8,29.85,1011.0,,,,,,,,,,,,,TRACE,,Clear,72000.0,,,,,,,,,
KRDR,09-01-2015,16:58,METAR,Normal,230,8.0,,,9999.0,,27.5,12.6,29.86,1011.3,,,,,,,,,,,,,,,Clear,72000.0,,,,,,,,,
KRDR,09-01-2015,15:58,METAR,Normal,200,6.0,,,9999.0,,25.6,12.6,29.86,1011.4,,,,,,,,,,,,,,,Clear,72000.0,,,,,,,,,
KRDR,09-01-2015,14:58,METAR,Normal,200,6.0,,,9999.0,,22.8,11.6,29.87,1011.8,,,,,,,,,,,,TRACE,,,Clear,72000.0,,,,,,,,,
KRDR,09-01-2015,13:58,METAR,Normal,210,4.0,,,9999.0,,19.0,12.7,29.86,1011.5,,,,,,,,,,,TRACE,,,,Clear,72000.0,,,,,,,,,
KRDR,09-01-2015,12:58,METAR,Normal,230,4.0,,,9999.0,,14.3,10.7,29.87,1011.9,,,,,,,,,,,,,,,Clear,72000.0,,,,,,,,,
KRDR,09-01-2015,11:58,METAR,Normal,230,4.0,,,9999.0,,11.3,9.3,29.86,1011.6,,,,,,,,,,,,,,,Clear,72000.0,,,,,,,,,
KRDR,09-01-2015,10:58,METAR,Normal,240,5.0,,,9999.0,,12.0,9.5,29.87,1011.9,,,,,,,,,,,,,,,Clear,72000.0,,,,,,,,,
KRDR,09-01-2015,09:58,METAR,Normal,240,5.0,,,9999.0,,11.3,9.4,29.86,1011.5,,,,,,,,,,,,,,,Clear,72000.0,,,,,,,,,
KRDR,09-01-2015,08:58,METAR,Normal,240,3.0,,,9999.0,,11.5,9.6,29.85,1011.2,,,,,,,,,,,,,,,Clear,72000.0,,,,,,,,,
KRDR,09-01-2015,07:58,METAR,Normal,240,5.0,,,9999.0,,11.5,9.9,29.86,1011.4,,,,,,,,,,,,,,,Clear,72000.0,,,,,,,,,
KRDR,09-01-2015,06:58,METAR,Normal,230,5.0,,,9999.0,,13.6,11.8,29.86,1011.4,,,,,,,,,,,,,,,Clear,72000.0,,,,,,,,,
KRDR,09-01-2015,05:58,METAR,Normal,230,4.0,,,9999.0,,14.2,12.5,29.86,1011.4,,,,,,,,,,,,,,,Clear,72000.0,,,,,,,,,
KRDR,09-01-2015,04:58,METAR,Normal,220,4.0,,,9999.0,,15.2,13.0,29.85,1011.0,,,,,,,,,,,,,,,Clear,72000.0,,,,,,,,,
KRDR,09-01-2015,03:58,METAR,Normal,250,4.0,,,9999.0,,15.3,13.3,29.85,1011.1,,,,,,,,,,,,,,,Clear,72000.0,,,,,,,,,
KRDR,09-01-2015,02:58,METAR,Normal,270,5.0,,,9999.0,,16.4,14.1,29.84,1010.8,,,,,,,,,,,,,,,Clear,72000.0,,,,,,,,,
KRDR,09-01-2015,01:58,METAR,Normal,250,5.0,,,9999.0,,18.3,15.0,29.83,1010.5,,,,,,,,,,,,,,,Clear,72000.0,,,,,,,,,
KRDR,09-01-2015,00:58,METAR,Normal,220,4.0,,,9999.0,,22.1,15.3,29.81,1009.7,,,,,,,,,,,,,,,Clear,72000.0,,,,,,,,,
KRDR,08-31-2015,23:58,METAR,Normal,220,4.0,,,9999.0,,22.8,15.9,29.82,1010.0,,,,,,,,,,,,,,,Clear,72000.0,,,,,,,,,
KRDR,08-31-2015,22:58,METAR,Normal,250,7.0,,,9999.0,,24.5,13.7,29.81,1009.7,,,,,,,,,,,,,,,Clear,72000.0,,,,,,,,,
KRDR,08-31-2015,21:58,METAR,Normal,280,9.0,,,9999.0,,25.8,15.0,29.79,1009.0,,,,,,,,,,,,,,,Clear,72000.0,,,,,,,,,
KRDR,08-31-2015,20:58,METAR,Normal,300,8.0,,,9999.0,,26.7,15.7,29.79,1008.8,,,,,,,,,,,,,,,Clear,72000.0,,,,,,,,,
KRDR,08-31-2015,19:58,METAR,Normal,280,7.0,,,9999.0,,27.1,17.3,29.78,1008.5,,,,,,,,,,,,,,,Clear,72000.0,,,,,,,,,
KRDR,08-31-2015,18:58,METAR,Variable,,2.0,,,9999.0,,26.2,15.4,29.77,1008.2,,,,,,,,,,,,,,,Clear,72000.0,,,,,,,,,
KRDR,08-31-2015,17:58,METAR,Normal,340,15.0,18.0,,9999.0,,25.5,17.0,29.77,1008.2,,,,,,,,,,,,,,,Clear,72000.0,,,,,,,,,
KRDR,08-31-2015,16:58,METAR,Normal,350,13.0,18.0,,9999.0,,25.6,18.1,29.75,1007.4,,,,,,,,,,,,,,,Clear,72000.0,,,,,,,,,
KRDR,08-31-2015,15:58,METAR,Normal,340,8.0,,,9999.0,,24.2,20.0,29.72,1006.5,,,,,,,,,,,,,,,2/8 Mostly Clear,72000.0,2100.0,FEW,2100.0,,,,,,
KRDR,08-31-2015,15:33,SPECI,Variable,,2.0,,,9999.0,,23.0,19.0,29.71,,,,,,,,,,,,,,,,4/8 Partly Cloudy,72000.0,1200.0,SCT,1200.0,,,,,,
KRDR,08-31-2015,14:58,METAR,Normal,220,2.0,,,9999.0,,20.9,18.3,29.69,1005.5,,,,,,,,,,,,,,,,1300.0,1300.0,OVC,1300.0,,,,,,
KRDR,08-31-2015,14:03,SPECI,Normal,190,8.0,,,9999.0,,20.0,17.0,29.66,,,,,,,,,,,,,,,,,1400.0,1400.0,OVC,1400.0,,,,,,
KRDR,08-31-2015,13:58,METAR,Normal,170,9.0,,,9999.0,,19.4,17.2,29.66,1004.5,,,,,,,,,,,,,,,,1500.0,1500.0,OVC,1500.0,,,,,,
KRDR,08-31-2015,13:23,SPECI,Normal,160,8.0,,,9999.0,,19.0,17.0,29.65,,,,,,,,,,,,,,,,,1500.0,1500.0,BKN,1500.0,,,,,,
KRDR,08-31-2015,12:58,METAR,Normal,180,3.0,,,9999.0,,18.5,16.9,29.66,1004.5,,,,,,,,,,,,,,,Clear,72000.0,,,,,,,,,
KRDR,08-31-2015,11:58,METAR,Normal,180,8.0,,,9999.0,,17.8,16.7,29.65,1004.1,,,,,,,,,,,,,,,Clear,72000.0,,,,,,,,,
KRDR,08-31-2015,10:58,METAR,Normal,170,8.0,,,9999.0,,17.8,17.0,29.63,1003.4,,,,,,,,,,,,,,,Clear,72000.0,,,,,,,,,
KRDR,08-31-2015,10:44,SPECI,Normal,170,9.0,,,9999.0,,18.0,17.0,29.63,,,,,,,,,,,,,,,,Clear,72000.0,,,,,,,,,
KRDR,08-31-2015,09:58,METAR,Normal,160,6.0,,,9999.0,,18.6,17.7,29.64,1003.7,,,,,,,,,,,,,,,Clear,72000.0,,,,,,,,,
KRDR,08-31-2015,08:58,METAR,Normal,190,8.0,,,9999.0,,19.8,18.3,29.64,1003.7,,,,,,,,,,,,,,,Clear,72000.0,,,,,,,,,
KRDR,08-31-2015,07:58,METAR,Normal,190,9.0,,,9999.0,,20.5,18.8,29.64,1003.7,,,,,,,,,,,,,,,Clear,72000.0,,,,,,,,,
KRDR,08-31-2015,06:58,METAR,Normal,190,9.0,,,9999.0,,21.3,19.4,29.65,1004.0,,,,,,,,,,,,,,,Clear,72000.0,,,,,,,,,
KRDR,08-31-2015,05:58,METAR,Normal,200,8.0,,,9999.0,,22.4,20.0,29.66,1004.4,,,,,,,,,,,,,,,Clear,72000.0,,,,,,,,,
KRDR,08-31-2015,04:58,METAR,Normal,190,11.0,,,9999.0,,23.1,20.5,29.66,1004.4,,,,,,,,,,,,,,,Clear,72000.0,,,,,,,,,
KRDR,08-31-2015,03:58,METAR,Normal,190,11.0,,,9999.0,,24.2,20.7,29.67,1004.8,,,,,,,,,,,,,,,Clear,72000.0,,,,,,,,,
KRDR,08-31-2015,02:58,METAR,Normal,190,13.0,,,9999.0,,24.9,20.7,29.66,1004.5,,,,,,,,,,,,,,,Clear,72000.0,,,,,,,,,
KRDR,08-31-2015,01:58,METAR,Normal,170,13.0,,,9999.0,,25.8,21.1,29.66,1004.5,,,,,,,,,,,,,,,Clear,72000.0,,,,,,,,,
KRDR,08-31-2015,00:58,METAR,Normal,170,12.0,,,9999.0,,27.2,21.3,29.66,1004.5,,,,,,,,,,,,,,,Clear,72000.0,,,,,,,,,
KRDR,08-30-2015,23:58,METAR,Normal,160,12.0,,,9999.0,,28.5,21.6,29.66,1004.5,,,,,,,,,,,,,,,Clear,72000.0,,,,,,,,,
KRDR,08-30-2015,22:58,METAR,Normal,170,16.0,22.0,,9999.0,,28.7,21.4,29.67,1004.8,,,,,,,,,,,,,,,Clear,72000.0,,,,,,,,,
KRDR,08-30-2015,21:58,METAR,Normal,170,18.0,24.0,,9999.0,,30.2,21.2,29.67,1004.7,,,,,,,,,,,,,,,Clear,72000.0,,,,,,,,,
KRDR,08-30-2015,20:58,METAR,Normal,170,15.0,,,9999.0,,30.5,20.8,29.68,1005.0,,,,,,,,,,,,,,,Clear,72000.0,,,,,,,,,
KRDR,08-30-2015,19:58,METAR,Normal,170,16.0,,,9999.0,,30.1,20.6,29.70,1005.7,,,,,,,,,,,,,,,Clear,72000.0,,,,,,,,,
KRDR,08-30-2015,18:58,METAR,Normal,170,16.0,,,9999.0,,28.8,20.7,29.71,1006.1,,,,,,,,,,,,,,,Clear,72000.0,,,,,,,,,
KRDR,08-30-2015,17:58,METAR,Normal,150,12.0,,,9999.0,,27.2,20.0,29.73,1006.8,,,,,,,,,,,,,,,Clear,72000.0,,,,,,,,,
KRDR,08-30-2015,16:58,METAR,Normal,160,11.0,,,9999.0,,25.2,19.3,29.75,1007.5,,,,,,,,,,,,,,,Clear,72000.0,,,,,,,,,
KRDR,08-30-2015,15:58,METAR,Normal,160,12.0,,,9999.0,,22.4,19.1,29.76,1007.9,,,,,,,,,,,,,,,Clear,72000.0,,,,,,,,,
KRDR,08-30-2015,15:28,SPECI,Normal,190,12.0,,,9999.0,,21.0,19.0,29.76,,,,,,,,,,,,,,,,4/8 Partly Cloudy,72000.0,700.0,SCT,700.0,,,,,,
KRDR,08-30-2015,15:18,SPECI,Normal,170,14.0,,,9999.0,,21.0,19.0,29.77,,,,,,,,,,,,,,,,,700.0,700.0,BKN,700.0,,,,,,
KRDR,08-30-2015,14:58,METAR,Normal,170,12.0,,,9999.0,,19.9,18.7,29.76,1008.0,,,,,,,,,,,,,,,,600.0,600.0,OVC,600.0,,,,,,
KRDR,08-30-2015,14:53,SPECI,Normal,180,14.0,,,9999.0,,20.0,19.0,29.76,,,,,,,,,,,,,,,,,600.0,600.0,OVC,600.0,,,,,,
KRDR,08-30-2015,14:28,SPECI,Normal,180,14.0,,,9999.0,,19.0,19.0,29.77,,,,,,,,,,,,,,,,,500.0,500.0,OVC,500.0,,,,,,
KRDR,08-30-2015,13:58,METAR,Normal,180,14.0,,,9999.0,,18.9,18.4,29.77,1008.3,,,,,,,,,,,,,,,,400.0,400.0,OVC,400.0,,,,,,
KRDR,08-30-2015,13:42,SPECI,Normal,170,13.0,,,9999.0,,19.0,18.0,29.77,,,,,,,,,,,,,,,,,400.0,400.0,OVC,400.0,,,,,,
KRDR,08-30-2015,13:27,SPECI,Normal,170,15.0,,,9999.0,,19.0,18.0,29.77,,,,,,,,,,,,,,,,,500.0,500.0,BKN,500.0,,,,,,
KRDR,08-30-2015,13:22,SPECI,Normal,180,13.0,,,9999.0,,19.0,18.0,29.77,,,,,,,,,,,,,,,,,600.0,600.0,BKN,600.0,,,,,,
KRDR,08-30-2015,13:02,SPECI,Normal,170,11.0,,,9999.0,,19.0,18.0,29.77,,,,,,,,,,,,,,,,2/8 Mostly Clear,72000.0,600.0,FEW,600.0,,,,,,
KRDR,08-30-2015,12:58,METAR,Normal,170,9.0,,,9999.0,,18.5,18.2,29.77,1008.3,,,,,,,,,,,,,,,Clear,72000.0,,,,,,,,,
KRDR,08-30-2015,11:58,METAR,Normal,160,9.0,,,9999.0,,17.9,17.7,29.78,1008.6,,,,,,,,,,,,,,,Clear,72000.0,,,,,,,,,
KRDR,08-30-2015,11:10,SPECI,Normal,160,8.0,,,9999.0,,18.0,18.0,29.77,,,,,,,,,,,,,,,,2/8 Mostly Clear,72000.0,300.0,FEW,300.0,,,,,,
KRDR,08-30-2015,10:58,METAR,Normal,160,7.0,,,9999.0,,18.0,17.8,29.77,1008.3,,,,,,,,,,,,,,,Clear,72000.0,,,,,,,,,
KRDR,08-30-2015,09:58,METAR,Normal,160,8.0,,,9999.0,,19.0,18.8,29.77,1008.2,,,,,,,,,,,,,,,Clear,72000.0,,,,,,,,,
KRDR,08-30-2015,08:58,METAR,Normal,150,6.0,,,9999.0,,19.6,19.2,29.77,1008.2,,,,,,,,,,,,,,,Clear,72000.0,,,,,,,,,
KRDR,08-30-2015,07:58,METAR,Normal,170,8.0,,,9999.0,,19.5,19.2,29.78,1008.5,,,,,,,,,,,,,,,Clear,72000.0,,,,,,,,,
KRDR,08-30-2015,06:58,METAR,Normal,170,8.0,,,9999.0,,20.3,19.8,29.78,1008.6,,,,,,,,,,,,,,,Clear,72000.0,,,,,,,,,
KRDR,08-30-2015,05:58,METAR,Normal,170,7.0,,,9999.0,,20.7,19.9,29.79,1008.9,,,,,,,,,,,,,,,Clear,72000.0,,,,,,,,,
KRDR,08-30-2015,04:58,METAR,Normal,170,10.0,,,9999.0,,21.4,20.2,29.80,1009.2,,,,,,,,,,,,,,,Clear,72000.0,,,,,,,,,
KRDR,08-30-2015,03:58,METAR,Normal,190,9.0,,,9999.0,,22.0,20.3,29.81,1009.6,,,,,,,,,,,,,,,Clear,72000.0,,,,,,,,,
KRDR,08-30-2015,02:58,METAR,Normal,180,10.0,,,9999.0,,21.8,20.1,29.81,1009.7,,,,,,,,,,,,,,,Clear,72000.0,,,,,,,,,
KRDR,08-30-2015,01:58,METAR,Normal,190,8.0,,,9999.0,,21.8,19.8,29.82,1010.1,,,,,,,,,,,,,,,Clear,72000.0,,,,,,,,,
KRDR,08-30-2015,00:58,METAR,Normal,180,6.0,,,9999.0,,22.5,19.9,29.83,1010.4,,,,,,,,,,,,,,,Clear,72000.0,,,,,,,,,
KRDR,08-29-2015,23:58,METAR,Normal,210,7.0,,,9999.0,,25.7,20.3,29.83,1010.4,,,,,,,,,,,,,,,Clear,72000.0,,,,,,,,,
KRDR,08-29-2015,22:58,METAR,Normal,200,9.0,,,9999.0,,26.0,20.6,29.83,1010.4,,,,,,,,,,,,,,,Clear,72000.0,,,,,,,,,
KRDR,08-29-2015,21:58,METAR,Normal,200,7.0,,,9999.0,,26.2,20.8,29.86,1011.4,,,,,,,,,,,,,,,Clear,72000.0,,,,,,,,,
KRDR,08-29-2015,20:58,METAR,Normal,180,11.0,,,9999.0,,27.3,20.8,29.86,1011.3,,,,,,,,,,,,,,,Clear,72000.0,,,,,,,,,
KRDR,08-29-2015,19:58,METAR,Normal,200,8.0,,,9999.0,,26.9,20.8,29.88,1012.0,,,,,,,,,,,,,,,Clear,72000.0,,,,,,,,,
KRDR,08-29-2015,18:58,METAR,Normal,190,8.0,,,9999.0,,25.5,20.5,29.89,1012.4,,,,,,,,,,,,,,,Clear,72000.0,,,,,,,,,
KRDR,08-29-2015,17:58,METAR,Normal,170,7.0,,,9999.0,,24.6,20.3,29.91,1013.0,,,,,,,,,,,,,,,Clear,72000.0,,,,,,,,,
KRDR,08-29-2015,16:58,METAR,Normal,200,2.0,,,9999.0,,24.3,20.1,29.91,1013.0,,,,,,,,,,,,,,,Clear,72000.0,,,,,,,,,
KRDR,08-29-2015,15:58,METAR,Normal,220,5.0,,,9999.0,,21.5,21.4,29.91,1013.0,,,,,,,,,,,,,,,Clear,72000.0,,,,,,,,,
KRDR,08-29-2015,14:58,METAR,Normal,200,7.0,,,9999.0,,19.8,19.8,29.91,1013.1,,,,,,,,,,,,,,,2/8 Mostly Clear,72000.0,500.0,FEW,500.0,,,,,,
KRDR,08-29-2015,14:53,SPECI,Normal,210,6.0,,,9999.0,,20.0,20.0,29.91,,,,,,,,,,,,,,,,4/8 Partly Cloudy,72000.0,500.0,SCT,500.0,,,,,,
KRDR,08-29-2015,14:28,SPECI,Normal,210,4.0,,,9999.0,,19.0,19.0,29.92,,,,,,,,,,,,,,,,,300.0,500.0,OVC,500.0,,,,,,
KRDR,08-29-2015,14:13,SPECI,Normal,200,5.0,,,9999.0,,19.0,19.0,29.92,,,,,,,,,,,,,,,,,300.0,300.0,OVC,300.0,,,,,,
KRDR,08-29-2015,13:58,METAR,Normal,200,5.0,,,9999.0,,18.2,18.2,29.92,1013.4,,,,,,,,,,,,,,,,200.0,200.0,OVC,200.0,,,,,,
KRDR,08-29-2015,13:48,SPECI,Normal,190,5.0,,,4800.0,Mist,18.0,18.0,29.91,,10,,,,,,,,,,,,,,,200.0,200.0,OVC,200.0,,,,,,
KRDR,08-29-2015,13:43,SPECI,Normal,190,5.0,,,2800.0,Mist,18.0,18.0,29.91,,10,,,,,,,,,,,,,,,200.0,200.0,OVC,200.0,,,,,,
KRDR,08-29-2015,13:33,SPECI,Normal,180,5.0,,,2000.0,Mist,18.0,18.0,29.91,,10,,,,,,,,,,,,,,,200.0,200.0,OVC,200.0,,,,,,
KRDR,08-29-2015,13:28,SPECI,Normal,180,6.0,,,1600.0,Mist,18.0,18.0,29.91,,10,,,,,,,,,,,,,,Sky Obscured (Unable to Estimate),100.0,100.0,,100.0,,,,,,
KRDR,08-29-2015,13:23,SPECI,Normal,190,5.0,,,1200.0,Mist,18.0,18.0,29.91,,10,,,,,,,,,,,,,,Sky Obscured (Unable to Estimate),100.0,100.0,,100.0,,,,,,
KRDR,08-29-2015,13:18,SPECI,Normal,190,4.0,,,800.0,Fog,17.0,17.0,29.91,,30,,,,,,,,,,,,,,Sky Obscured (Unable to Estimate),100.0,100.0,,100.0,,,,,,
KRDR,08-29-2015,13:13,SPECI,Normal,190,4.0,,,800.0,Fog,17.0,17.0,29.91,,30,,,,,,,,,,,,,,Sky Obscured (Unable to Estimate),100.0,100.0,,100.0,,,,,,
KRDR,08-29-2015,13:08,SPECI,Normal,200,4.0,,,800.0,Fog,17.0,17.0,29.91,,30,,,,,,,,,,,,,,Sky Obscured (Unable to Estimate),100.0,100.0,,100.0,,,,,,
KRDR,08-29-2015,13:03,SPECI,Normal,200,4.0,,,800.0,Fog,17.0,17.0,29.91,,30,,,,,,,,,,,,,,Sky Obscured (Unable to Estimate),100.0,100.0,,100.0,,,,,,
KRDR,08-29-2015,12:58,METAR,Normal,210,4.0,,,800.0,Fog,17.0,17.0,29.91,1013.1,30,,,,,,,,,,,,,,Sky Obscured (Unable to Estimate),100.0,100.0,,100.0,,,,,,
KRDR,08-29-2015,12:56,SPECI,Normal,200,4.0,,,800.0,Fog,17.0,17.0,29.91,,30,,,,,,,,,,,,,,Sky Obscured (Unable to Estimate),100.0,100.0,,100.0,,,,,,
KRDR,08-29-2015,12:51,SPECI,Normal,200,4.0,,,400.0,Fog,17.0,17.0,29.91,,30,,,,,,,,,,,,,,Sky Obscured (Unable to Estimate),100.0,100.0,,100.0,,,,,,
KRDR,08-29-2015,12:21,SPECI,Normal,190,5.0,,,0.0,Fog,16.0,16.0,29.91,,30,,,,,,,,,,,,,,Sky Obscured (Unable to Estimate),100.0,100.0,,100.0,,,,,,
KRDR,08-29-2015,12:06,SPECI,Normal,190,3.0,,,0.0,Fog,15.0,15.0,29.90,,30,,,,,,,,,,,,,,Sky Obscured (Unable to Estimate),100.0,100.0,,100.0,,,,,,
KRDR,08-29-2015,11:58,METAR,Normal,190,4.0,,,0.0,Fog,14.7,14.6,29.90,1012.7,30,,,,,,,,,,,,,,Clear,72000.0,,,,,,,,,
KRDR,08-29-2015,11:43,SPECI,Normal,210,3.0,,,0.0,Fog,14.0,14.0,29.90,,30,,,,,,,,,,,,,,Clear,72000.0,,,,,,,,,
KRDR,08-29-2015,11:38,SPECI,Normal,200,3.0,,,400.0,Fog,14.0,14.0,29.90,,30,,,,,,,,,,,,,,Clear,72000.0,,,,,,,,,
KRDR,08-29-2015,10:58,METAR,Normal,180,3.0,,,400.0,Fog,15.0,15.0,29.90,1012.7,30,,,,,,,,,,,,,,Sky Obscured (Unable to Estimate),100.0,100.0,,100.0,,,,,,
KRDR,08-29-2015,10:57,SPECI,Normal,190,3.0,,,400.0,Fog,15.0,15.0,29.90,,30,,,,,,,,,,,,,,Clear,72000.0,,,,,,,,,
KRDR,08-29-2015,10:42,SPECI,Calm,,0.0,,,800.0,Fog,15.0,15.0,29.89,,30,,,,,,,,,,,,,,Clear,72000.0,,,,,,,,,
KRDR,08-29-2015,10:17,SPECI,Normal,180,3.0,,,400.0,Fog,15.0,15.0,29.89,,30,,,,,,,,,,,,,,Clear,72000.0,,,,,,,,,
KRDR,08-29-2015,10:12,SPECI,Normal,180,2.0,,,800.0,Fog,15.0,15.0,29.89,,30,,,,,,,,,,,,,,Clear,72000.0,,,,,,,,,
KRDR,08-29-2015,10:07,SPECI,Normal,180,3.0,,,800.0,Fog or Ice Fog,15.0,15.0,29.89,,,,,44,,,,,,,,,,,Clear,72000.0,,,,,,,,,
KRDR,08-29-2015,09:58,METAR,Normal,180,2.0,,,1600.0,Mist,15.6,15.5,29.89,1012.3,10,,,,,,,,,,,,,,Clear,72000.0,,,,,,,,,
KRDR,08-29-2015,09:36,SPECI,Normal,180,2.0,,,1600.0,Mist,16.0,16.0,29.89,,10,,,,,,,,,,,,,,Clear,72000.0,,,,,,,,,
KRDR,08-29-2015,09:19,SPECI,Normal,170,3.0,,,3200.0,Mist,16.0,16.0,29.89,,10,,,,,,,,,,,,,,Clear,72000.0,,,,,,,,,
KRDR,08-29-2015,09:02,SPECI,Normal,160,4.0,,,6400.0,Mist,16.0,16.0,29.89,,10,,,,,,,,,,,,,,Clear,72000.0,,,,,,,,,
KRDR,08-29-2015,08:58,METAR,Normal,180,4.0,,,1600.0,Mist,15.8,15.5,29.88,1012.0,10,,,,,,,,,,,,,,Clear,72000.0,,,,,,,,,
KRDR,08-29-2015,08:16,SPECI,Normal,210,3.0,,,8000.0,Mist,17.0,17.0,29.88,,10,,,,,,,,,,,,,,Clear,72000.0,,,,,,,,,
KRDR,08-29-2015,08:09,SPECI,Normal,220,4.0,,,4800.0,Mist,17.0,16.0,29.88,,10,,,,,,,,,,,,,,Clear,72000.0,,,,,,,,,
KRDR,08-29-2015,07:58,METAR,Normal,240,3.0,,,9999.0,Mist,17.4,17.1,29.88,1012.0,10,,,,,,,,,,,,,,Clear,72000.0,,,,,,,,,
KRDR,08-29-2015,07:38,SPECI,Normal,230,3.0,,,8000.0,Mist,17.0,17.0,29.88,,10,,,,,,,,,,,,,,Clear,72000.0,,,,,,,,,
KRDR,08-29-2015,07:33,SPECI,Normal,230,3.0,,,8000.0,Mist,17.0,17.0,29.88,,10,,,,,,,,,,,,,,Clear,72000.0,,,,,,,,,
KRDR,08-29-2015,07:28,SPECI,Normal,220,3.0,,,6400.0,Mist,17.0,17.0,29.88,,10,,,,,,,,,,,,,,Clear,72000.0,,,,,,,,,
KRDR,08-29-2015,07:23,SPECI,Normal,220,3.0,,,8000.0,Mist,17.0,17.0,29.88,,10,,,,,,,,,,,,,,Clear,72000.0,,,,,,,,,
KRDR,08-29-2015,07:18,SPECI,Normal,210,3.0,,,8000.0,Mist,17.0,17.0,29.88,,10,,,,,,,,,,,,,,Clear,72000.0,,,,,,,,,
KRDR,08-29-2015,07:13,SPECI,Normal,230,3.0,,,8000.0,Mist,18.0,17.0,29.88,,10,,,,,,,,,,,,,,Clear,72000.0,,,,,,,,,
KRDR,08-29-2015,06:58,METAR,Normal,220,4.0,,,4800.0,Mist,17.3,17.0,29.88,1012.0,10,,,,,,,,,,,,,,Clear,72000.0,,,,,,,,,
KRDR,08-29-2015,06:53,SPECI,Normal,220,4.0,,,8000.0,Mist,17.0,17.0,29.88,,10,,,,,,,,,,,,,,Clear,72000.0,,,,,,,,,
KRDR,08-29-2015,06:48,SPECI,Normal,200,4.0,,,4800.0,Mist,17.0,17.0,29.88,,10,,,,,,,,,,,,,,Clear,72000.0,,,,,,,,,
KRDR,08-29-2015,06:43,SPECI,Normal,190,4.0,,,4000.0,Mist,18.0,17.0,29.88,,10,,,,,,,,,,,,,,Clear,72000.0,,,,,,,,,
KRDR,08-29-2015,06:38,SPECI,Normal,190,4.0,,,4800.0,Mist,18.0,17.0,29.88,,10,,,,,,,,,,,,,,Clear,72000.0,,,,,,,,,
KRDR,08-29-2015,06:33,SPECI,Normal,190,2.0,,,8000.0,Mist,18.0,17.0,29.88,,10,,,,,,,,,,,,,,Clear,72000.0,,,,,,,,,
KRDR,08-29-2015,06:28,SPECI,Normal,180,4.0,,,9999.0,,18.0,18.0,29.88,,,,,,,,,,,,,,,,Clear,72000.0,,,,,,,,,
KRDR,08-29-2015,06:23,SPECI,Normal,190,4.0,,,9999.0,,19.0,18.0,29.88,,,,,,,,,,,,,,,,Clear,72000.0,,,,,,,,,
KRDR,08-29-2015,06:08,SPECI,Normal,190,4.0,,,9999.0,,18.0,18.0,29.88,,,,,,,,,,,,,,,,Clear,72000.0,,,,,,,,,
KRDR,08-29-2015,05:58,METAR,Normal,210,4.0,,,9999.0,,18.7,18.1,29.88,1012.0,,,,,,,,,,,,,,,Clear,72000.0,,,,,,,,,
KRDR,08-29-2015,05:38,SPECI,Normal,190,1.0,,,9999.0,,19.0,19.0,29.88,,,,,,,,,,,,,,,,Clear,72000.0,,,,,,,,,
KRDR,08-29-2015,05:28,SPECI,Calm,,0.0,,,9999.0,Mist,19.0,18.0,29.88,,10,,,,,,,,,,,,,,Clear,72000.0,,,,,,,,,
KRDR,08-29-2015,04:58,METAR,Normal,240,1.0,,,9999.0,,20.2,19.4,29.87,1011.7,,,,,,,,,,,,,,,Clear,72000.0,,,,,,,,,
KRDR,08-29-2015,03:58,METAR,Normal,230,6.0,,,9999.0,,21.1,19.9,29.87,1011.7,,,,,,,,,,,,,,,Clear,72000.0,,,,,,,,,
KRDR,08-29-2015,02:58,METAR,Normal,200,7.0,,,9999.0,,21.9,20.2,29.87,1011.7,,,,,,,,,,,,,,,Clear,72000.0,,,,,,,,,
KRDR,08-29-2015,01:58,METAR,Normal,190,8.0,,,9999.0,,23.0,20.7,29.86,1011.3,,,,,,,,,,,,,,,Clear,72000.0,,,,,,,,,
KRDR,08-29-2015,00:58,METAR,Normal,190,7.0,,,9999.0,,24.9,20.9,29.84,1010.7,,,,,,,,,,,,,,,Clear,72000.0,,,,,,,,,
KRDR,08-28-2015,23:58,METAR,Normal,210,9.0,,,9999.0,,26.9,21.1,29.83,1010.3,,,,,,,,,,,,,,,Clear,72000.0,,,,,,,,,
KRDR,08-28-2015,22:58,METAR,Normal,,,,,,,28.6,20.6,29.81,1009.6,,,,,,,,,,,,,,,Clear,72000.0,,,,,,,,,
KRDR,08-28-2015,21:58,METAR,Normal,240,14.0,,,9999.0,,29.7,20.2,29.81,1009.5,,,,,,,,,,,,,,,Clear,72000.0,,,,,,,,,
KRDR,08-28-2015,20:58,METAR,Normal,230,16.0,21.0,,9999.0,,29.5,19.3,29.82,1009.9,,,,,,,,,,,,,,,Clear,72000.0,,,,,,,,,
KRDR,08-28-2015,19:58,METAR,Normal,200,18.0,,/  KTS,9999.0,,29.2,20.0,29.81,1009.5,,,,,,,,,,,,,,,Clear,72000.0,,,,,,,,,
KRDR,08-28-2015,18:58,METAR,Normal,210,16.0,24.0,,9999.0,,28.6,19.2,29.81,1009.5,,,,,,,,,,,,,,,Clear,72000.0,,,,,,,,,
KRDR,08-28-2015,17:58,METAR,Normal,180,17.0,,,9999.0,,26.4,20.1,29.84,1010.6,,,,,,,,,,,,,,,Clear,72000.0,,,,,,,,,
KRDR,08-28-2015,16:58,METAR,Normal,150,9.0,,,9999.0,,23.3,19.0,29.89,1012.4,,,,,,,,,,,,,,,2/8 Mostly Clear,72000.0,11000.0,FEW,11000.0,,,,,,
KRDR,08-28-2015,15:58,METAR,Normal,100,5.0,,,9999.0,,21.2,18.3,29.89,1012.5,,,,,,,,,,,,,,,Clear,72000.0,,,,,,,,,
KRDR,08-28-2015,14:58,METAR,Normal,190,7.0,,,9999.0,,20.7,18.1,29.87,1011.8,,,,,,,,,,,,,,,Clear,72000.0,,,,,,,,,
KRDR,08-28-2015,13:58,METAR,Normal,340,3.0,,,9999.0,,20.7,18.1,29.85,1011.1,,,,,,,,,,,,,,,Clear,72000.0,,,,,,,,,
KRDR,08-28-2015,12:58,METAR,Normal,200,7.0,,,9999.0,,17.9,16.6,29.84,1010.8,,,,,,,,,,,,,,,Clear,72000.0,,,,,,,,,
KRDR,08-28-2015,11:58,METAR,Normal,230,4.0,,,9999.0,,16.8,16.1,29.86,1011.4,,,,,,,,,,,,,,,Clear,72000.0,,,,,,,,,
KRDR,08-28-2015,10:58,METAR,Normal,170,2.0,,,9999.0,,17.0,16.5,29.88,1012.1,,,,,,,,,,,,,,,Clear,72000.0,,,,,,,,,
KRDR,08-28-2015,09:58,METAR,Normal,220,4.0,,,9999.0,,17.1,16.7,29.85,1011.0,,,,,,,,,,,,,,,Clear,72000.0,,,,,,,,,
KRDR,08-28-2015,08:58,METAR,Normal,220,5.0,,,9999.0,,18.4,17.8,29.84,1010.7,,,,,,,,,,,,,,,Clear,72000.0,,,,,,,,,
KRDR,08-28-2015,07:58,METAR,Normal,210,7.0,,,9999.0,,18.3,17.8,29.85,1011.0,,,,,,,,,,,,,,,Clear,72000.0,,,,,,,,,
KRDR,08-28-2015,06:58,METAR,Normal,190,7.0,,,9999.0,,17.6,17.1,29.86,1011.4,,,,,,,,,,,,,,,Clear,72000.0,,,,,,,,,
KRDR,08-28-2015,05:58,METAR,Normal,210,4.0,,,9999.0,,18.5,17.9,29.87,1011.7,,,,,,,,,,,,,,,Clear,72000.0,,,,,,,,,
KRDR,08-28-2015,04:58,METAR,Normal,200,6.0,,,9999.0,,18.5,17.7,29.87,1011.8,,,,,,,,,,,,,,,Clear,72000.0,,,,,,,,,
KRDR,08-28-2015,03:58,METAR,Normal,190,5.0,,,9999.0,,18.7,17.7,29.87,1011.8,,,,,,,,,,,,,,,Clear,72000.0,,,,,,,,,
KRDR,08-28-2015,02:58,METAR,Normal,170,6.0,,,9999.0,,18.5,17.4,29.89,1012.6,,,,,,,,,,,,,,,Clear,72000.0,,,,,,,,,
KRDR,08-28-2015,01:58,METAR,Normal,150,5.0,,,9999.0,,19.3,17.4,29.90,1013.0,,,,,,,,,,,,,,,Clear,72000.0,,,,,,,,,
KRDR,08-28-2015,00:58,METAR,Normal,110,3.0,,,9999.0,,22.6,18.5,29.89,1012.6,,,,,,,,,,,,,,,Clear,72000.0,,,,,,,,,
KRDR,08-27-2015,23:58,METAR,Normal,200,4.0,,,9999.0,,23.8,18.6,29.91,1013.3,,,,,,,,,,,,,,,Clear,72000.0,,,,,,,,,
KRDR,08-27-2015,22:58,METAR,Normal,200,5.0,,,9999.0,,24.8,18.2,29.91,1013.3,,,,,,,,,,,,,,,Clear,72000.0,,,,,,,,,
KRDR,08-27-2015,21:58,METAR,Normal,230,7.0,,,9999.0,,25.8,17.8,29.92,1013.5,,,,,,,,,,,,,,,Clear,72000.0,,,,,,,,,
KRDR,08-27-2015,20:58,METAR,Normal,190,6.0,,,9999.0,,26.1,17.0,29.93,1013.9,,,,,,,,,,,,,,,Clear,72000.0,,,,,,,,,
KRDR,08-27-2015,19:58,METAR,Normal,190,7.0,,,9999.0,,25.2,16.0,29.94,1014.2,,,,,,,,,,,,,,,Clear,72000.0,,,,,,,,,
KRDR,08-27-2015,18:58,METAR,Normal,130,8.0,,,9999.0,,24.4,15.2,29.95,1014.6,,,,,,,,,,,,,,,Clear,72000.0,,,,,,,,,
KRDR,08-27-2015,17:58,METAR,Normal,160,8.0,,,9999.0,,22.6,15.3,29.96,1015.0,,,,,,,,,,,,,,,Clear,72000.0,,,,,,,,,
KRDR,08-27-2015,16:58,METAR,Normal,110,5.0,,,9999.0,,20.9,14.8,29.96,1015.0,,,,,,,,,,,,,,,Clear,72000.0,,,,,,,,,
KRDR,08-27-2015,15:58,METAR,Normal,160,5.0,,,9999.0,,18.9,13.9,29.98,1015.7,,,,,,,,,,,,,,,Clear,72000.0,,,,,,,,,
KRDR,08-27-2015,14:58,METAR,Normal,160,3.0,,,9999.0,,16.5,13.0,29.97,1015.4,,,,,,,,,,,,,,,Clear,72000.0,,,,,,,,,
KRDR,08-27-2015,13:58,METAR,Normal,150,5.0,,,9999.0,,14.3,12.4,29.99,1016.1,,,,,,,,,,,,,,,Clear,72000.0,,,,,,,,,
KRDR,08-27-2015,12:58,METAR,Calm,,0.0,,,9999.0,,12.6,11.2,29.99,1016.1,,,,,,,,,,,,,,,Clear,72000.0,,,,,,,,,
KRDR,08-27-2015,11:58,METAR,Normal,130,2.0,,,9999.0,,10.8,9.9,30.00,1016.4,,,,,,,,,,,,,,,Clear,72000.0,,,,,,,,,
KRDR,08-27-2015,10:58,METAR,Normal,110,3.0,,,9999.0,,11.5,10.3,30.00,1016.3,,,,,,,,,,,,,,,Clear,72000.0,,,,,,,,,
KRDR,08-27-2015,09:58,METAR,Normal,140,3.0,,,9999.0,,11.5,10.1,30.01,1016.7,,,,,,,,,,,,,,,Clear,72000.0,,,,,,,,,
KRDR,08-27-2015,08:58,METAR,Normal,180,5.0,,,9999.0,,11.6,10.2,30.01,1016.7,,,,,,,,,,,,,,,Clear,72000.0,,,,,,,,,
KRDR,08-27-2015,07:58,METAR,Normal,170,3.0,,,9999.0,,11.9,10.2,30.00,1016.3,,,,,,,,,,,,,,,Clear,72000.0,,,,,,,,,
KRDR,08-27-2015,06:58,METAR,Normal,150,3.0,,,9999.0,,12.4,10.4,30.01,1016.7,,,,,,,,,,,,,,,Clear,72000.0,,,,,,,,,
KRDR,08-27-2015,05:58,METAR,Normal,160,4.0,,,9999.0,,13.3,10.3,30.02,,,,,,,,,,,,,,,,Clear,72000.0,,,,,,,,,
KRDR,08-27-2015,04:58,METAR,Normal,180,6.0,,,9999.0,,13.2,10.6,30.04,,,,,,,,,,,,,,,,Clear,72000.0,,,,,,,,,
KRDR,08-27-2015,03:58,METAR,Normal,160,4.0,,,9999.0,,14.0,10.3,30.05,,,,,,,,,,,,,,,,Clear,72000.0,,,,,,,,,
KRDR,08-27-2015,02:58,METAR,Normal,180,3.0,,,9999.0,,14.1,10.6,30.05,,,,,,,,,,,,,,,,Clear,72000.0,,,,,,,,,
KRDR,08-27-2015,01:58,METAR,Normal,160,4.0,,,9999.0,,16.7,11.2,30.04,,,,,,,,,,,,,,,,Clear,72000.0,,,,,,,,,
KRDR,08-27-2015,00:58,METAR,Normal,160,6.0,,,9999.0,,19.6,11.6,30.03,1017.5,,,,,,,,,,,,,,,Clear,72000.0,,,,,,,,,
KRDR,08-26-2015,23:58,METAR,Normal,160,9.0,,,9999.0,,22.2,10.6,30.04,1017.8,,,,,,,,,,,,,,,Clear,72000.0,,,,,,,,,
KRDR,08-26-2015,22:58,METAR,Normal,160,11.0,,,9999.0,,23.7,9.9,30.05,1018.2,,,,,,,,,,,,,,,Clear,72000.0,,,,,,,,,
KRDR,08-26-2015,21:58,METAR,Normal,140,11.0,,,9999.0,,23.6,9.0,30.05,1018.2,,,,,,,,,,,,,,,Clear,72000.0,,,,,,,,,
KRDR,08-26-2015,20:58,METAR,Normal,160,10.0,,,9999.0,,23.5,9.0,30.08,1019.2,,,,,,,,,,,,,,,Clear,72000.0,,,,,,,,,
KRDR,08-26-2015,19:58,METAR,Normal,170,13.0,,,9999.0,,23.9,8.6,30.10,1019.9,,,,,,,,,,,,,,,Clear,72000.0,,,,,,,,,
KRDR,08-26-2015,18:58,METAR,Normal,180,12.0,,,9999.0,,23.4,9.8,30.11,1020.3,,,,,,,,,,,,,,,Clear,72000.0,,,,,,,,,
KRDR,08-26-2015,17:58,METAR,Normal,190,9.0,,,9999.0,,22.4,8.6,30.13,1020.9,,,,,,,,,,,,,,,Clear,72000.0,,,,,,,,,
KRDR,08-26-2015,16:58,METAR,Normal,170,12.0,,,9999.0,,21.3,9.2,30.14,1021.3,,,,,,,,,,,,,,,Clear,72000.0,,,,,,,,,
KRDR,08-26-2015,15:58,METAR,Normal,170,5.0,,,9999.0,,19.2,10.5,30.16,1022.0,,,,,,,,,,,,,,,Clear,72000.0,,,,,,,,,
KRDR,08-26-2015,14:58,METAR,Normal,190,7.0,,,9999.0,,15.8,10.2,30.16,1022.1,,,,,,,,,,,,,,,Clear,72000.0,,,,,,,,,
KRDR,08-26-2015,13:58,METAR,Normal,160,3.0,,,9999.0,,12.6,9.2,30.15,1021.8,,,,,,,,,,,,,,,Clear,72000.0,,,,,,,,,
KRDR,08-26-2015,12:58,METAR,Normal,140,4.0,,,9999.0,,10.1,7.6,30.15,1021.7,,,,,,,,,,,,,,,Clear,72000.0,,,,,,,,,
KRDR,08-26-2015,11:58,METAR,Normal,140,2.0,,,9999.0,,9.0,7.4,30.15,1021.7,,,,,,,,,,,,,,,Clear,72000.0,,,,,,,,,
KRDR,08-26-2015,10:58,METAR,Calm,,0.0,,,9999.0,,7.0,6.3,30.15,1021.7,,,,,,,,,,,,,,,Clear,72000.0,,,,,,,,,
KRDR,08-26-2015,09:58,METAR,Calm,,0.0,,,9999.0,,6.1,5.4,30.15,1021.7,,,,,,,,,,,,,,,Clear,72000.0,,,,,,,,,
KRDR,08-26-2015,08:58,METAR,Calm,,0.0,,,9999.0,,6.7,5.9,30.14,1021.3,,,,,,,,,,,,,,,Clear,72000.0,,,,,,,,,
KRDR,08-26-2015,07:58,METAR,Calm,,0.0,,,9999.0,,7.0,6.2,30.14,1021.3,,,,,,,,,,,,,,,Clear,72000.0,,,,,,,,,
KRDR,08-26-2015,06:58,METAR,Normal,240,1.0,,,9999.0,,7.2,6.3,30.14,1021.4,,,,,,,,,,,,,,,Clear,72000.0,,,,,,,,,
KRDR,08-26-2015,05:58,METAR,Normal,240,3.0,,,9999.0,,8.4,7.4,30.14,1021.4,,,,,,,,,,,,,,,Clear,72000.0,,,,,,,,,
KRDR,08-26-2015,04:58,METAR,Normal,250,2.0,,,9999.0,,8.8,8.0,30.14,1021.4,,,,,,,,,,,,,,,Clear,72000.0,,,,,,,,,
KRDR,08-26-2015,03:58,METAR,Calm,,0.0,,,9999.0,,9.1,8.2,30.14,1021.4,,,,,,,,,,,,,,,Clear,72000.0,,,,,,,,,
KRDR,08-26-2015,02:58,METAR,Normal,210,1.0,,,9999.0,,10.8,8.7,30.14,1021.4,,,,,,,,,,,,,,,Clear,72000.0,,,,,,,,,
KRDR,08-26-2015,02:38,SPECI,Normal,240,2.0,,,9999.0,,11.0,9.0,30.14,,,,,,,,,,,,,,,,Clear,72000.0,,,,,,,,,
KRDR,08-26-2015,02:28,SPECI,Normal,250,3.0,,,9999.0,,11.0,9.0,30.14,,,,,,,,,,,,,,,,Clear,72000.0,,,,,,,,,
KRDR,08-26-2015,02:23,SPECI,Variable,,1.0,,,9999.0,Haze Smoke or Dust,12.0,8.0,30.14,,05,,,,,,,,,,,,,,Clear,72000.0,,,,,,,,,
KRDR,08-26-2015,02:13,SPECI,Calm,,0.0,,,6400.0,Haze Smoke or Dust,12.0,9.0,30.14,,05,,,,,,,,,,,,,,Clear,72000.0,,,,,,,,,
KRDR,08-26-2015,02:08,SPECI,Normal,180,2.0,,,8000.0,Haze Smoke or Dust,12.0,9.0,30.14,,05,,,,,,,,,,,,,,Clear,72000.0,,,,,,,,,
KRDR,08-26-2015,01:58,METAR,Variable,,1.0,,,9999.0,,12.4,9.7,30.14,1021.4,,,,,,,,,,,,,,,Clear,72000.0,,,,,,,,,
KRDR,08-26-2015,00:58,METAR,Calm,,0.0,,,9999.0,,17.2,11.0,30.13,1021.0,,,,,,,,,,,,,,,Clear,72000.0,,,,,,,,,
KRDR,08-25-2015,23:58,METAR,Normal,40,3.0,,,9999.0,,18.9,8.9,30.14,1021.4,,,,,,,,,,,,,,,Clear,72000.0,,,,,,,,,
KRDR,08-25-2015,22:58,METAR,Normal,100,3.0,,,9999.0,,21.5,6.2,30.14,1021.4,,,,,,,,,,,,,,,Clear,72000.0,,,,,,,,,
KRDR,08-25-2015,21:58,METAR,Normal,50,4.0,,,9999.0,,21.8,6.9,30.15,1021.6,,,,,,,,,,,,,,,Clear,72000.0,,,,,,,,,
KRDR,08-25-2015,20:58,METAR,Variable,,2.0,,,9999.0,,21.6,6.3,30.15,1021.6,,,,,,,,,,,,,,,Clear,72000.0,,,,,,,,,
KRDR,08-25-2015,19:58,METAR,Normal,50,6.0,,,9999.0,,21.4,8.0,30.16,1022.0,,,,,,,,,,,,,,,Clear,72000.0,,,,,,,,,
KRDR,08-25-2015,18:58,METAR,Variable,,4.0,,,9999.0,,20.6,7.9,30.18,1022.7,,,,,,,,,,,,,,,Clear,72000.0,,,,,,,,,
KRDR,08-25-2015,17:58,METAR,Variable,,2.0,,,9999.0,,20.0,7.8,30.19,1023.1,,,,,,,,,,,,,,,Clear,72000.0,,,,,,,,,
KRDR,08-25-2015,16:58,METAR,Normal,350,6.0,,,9999.0,,18.9,7.9,30.20,1023.4,,,,,,,,,,,,,,,Clear,72000.0,,,,,,,,,
KRDR,08-25-2015,15:58,METAR,Variable,,5.0,,,9999.0,Haze Smoke or Dust,17.4,7.6,30.20,1023.4,05,,,,,,,,,,,,,,Clear,72000.0,,,,,,,,,
KRDR,08-25-2015,14:58,METAR,Normal,340,5.0,,,9999.0,,15.1,7.2,30.21,1023.8,,,,,,,,,,,,,,,Clear,72000.0,,,,,,,,,
KRDR,08-25-2015,13:58,METAR,Normal,350,5.0,,,9999.0,,12.6,8.5,30.20,1023.5,,,,,,,,,,,,,,,Clear,72000.0,,,,,,,,,
KRDR,08-25-2015,12:58,METAR,Normal,310,5.0,,,9999.0,,9.5,7.9,30.19,1023.1,,,,,,,,,,,,,,,Clear,72000.0,,,,,,,,,
KRDR,08-25-2015,11:58,METAR,Normal,290,4.0,,,9999.0,,6.1,5.4,30.18,1022.8,,,,,,,,,,,,,,IN,Clear,72000.0,,,,,,,,,
KRDR,08-25-2015,10:58,METAR,Normal,330,4.0,,,9999.0,,6.7,5.8,30.16,1022.0,,,,,,,,,,,,,,,Clear,72000.0,,,,,,,,,
KRDR,08-25-2015,09:58,METAR,Normal,300,4.0,,,9999.0,,6.9,6.0,30.16,1022.0,,,,,,,,,,,,,,,Clear,72000.0,,,,,,,,,
KRDR,08-25-2015,08:58,METAR,Normal,310,5.0,,,9999.0,,8.0,6.7,30.15,,,,,,,,,,,,,,,,Clear,72000.0,,,,,,,,,
KRDR,08-25-2015,07:58,METAR,Normal,310,6.0,,,9999.0,,7.0,6.0,30.14,,,,,,,,,,,,,,,,Clear,72000.0,,,,,,,,,
KRDR,08-25-2015,06:58,METAR,Normal,320,3.0,,,9999.0,,7.3,6.0,30.14,,,,,,,,,,,,,,,,Clear,72000.0,,,,,,,,,
KRDR,08-25-2015,05:58,METAR,Normal,300,3.0,,,9999.0,,8.0,6.9,30.14,,,,,,,,,,,,,,,,Clear,72000.0,,,,,,,,,
KRDR,08-25-2015,04:58,METAR,Normal,330,4.0,,,9999.0,,9.0,6.9,30.13,,,,,,,,,,,,,,,,Clear,72000.0,,,,,,,,,
KRDR,08-25-2015,03:58,METAR,Normal,300,5.0,,,9999.0,,9.4,7.5,30.13,,,,,,,,,,,,,,,,Clear,72000.0,,,,,,,,,
KRDR,08-25-2015,02:58,METAR,Normal,320,2.0,,,9999.0,,9.8,7.9,30.13,,,,,,,,,,,,,,,,Clear,72000.0,,,,,,,,,
KRDR,08-25-2015,01:58,METAR,Normal,20,3.0,,,9999.0,,13.1,8.4,30.11,1020.3,,,,,,,,,,,,,,,Clear,72000.0,,,,,,,,,
KRDR,08-25-2015,00:58,METAR,Normal,20,6.0,,,9999.0,,16.7,8.9,30.09,1019.7,,,,,,,,,,,,,,,Clear,72000.0,,,,,,,,,
KRDR,08-24-2015,23:58,METAR,Normal,20,10.0,,,9999.0,,19.5,7.6,30.09,1019.7,,,,,,,,,,,,,,,Clear,72000.0,,,,,,,,,
KRDR,08-24-2015,22:58,METAR,Normal,20,13.0,,,9999.0,,20.6,7.8,30.09,1019.5,,,,,,,,,,,,,,,Clear,72000.0,,,,,,,,,
KRDR,08-24-2015,21:58,METAR,Normal,10,13.0,17.0,,9999.0,,21.0,9.0,30.09,1019.6,,,,,,,,,,,,,,,2/8 Mostly Clear,72000.0,4000.0,FEW,4000.0,,,,,,
KRDR,08-24-2015,20:58,METAR,Normal,20,11.0,,,9999.0,,22.0,10.0,30.10,,,,,,,,,,,,,,,,Clear,72000.0,,,,,,,,,
KRDR,08-24-2015,20:13,SPECI,Normal,10,12.0,18.0,,9999.0,,22.0,8.0,30.10,,,,,,,,,,,,,,,,2/8 Mostly Clear,72000.0,5000.0,FEW,5000.0,,,,,,
KRDR,08-24-2015,19:58,METAR,Normal,340,13.0,19.0,,9999.0,,22.0,8.0,30.10,,,,,,,,,,,,,,,,2/8 Mostly Clear,72000.0,5000.0,FEW,5000.0,,,,,,
KRDR,08-24-2015,18:58,METAR,Normal,310,12.0,17.0,,9999.0,,20.0,7.0,30.09,,,,,,,,,,,,,,,,2/8 Mostly Clear,72000.0,4000.0,FEW,4000.0,,,,,,
KRDR,08-24-2015,17:58,METAR,Normal,280,10.0,13.0,,9999.0,,19.0,6.0,30.10,,,,,,,,,,,,,,,,2/8 Mostly Clear,72000.0,4000.0,FEW,4000.0,,,,,,
KRDR,08-24-2015,16:58,METAR,Normal,290,15.0,,,9999.0,,18.0,6.0,30.10,,,,,,,,,,,,,,,,2/8 Mostly Clear,72000.0,4000.0,FEW,4000.0,,,,,,
KRDR,08-24-2015,15:58,METAR,Normal,280,13.0,,,9999.0,,17.0,7.0,30.10,,,,,,,,,,,,,,,,2/8 Mostly Clear,72000.0,4000.0,FEW,4000.0,,,,,,
KRDR,08-24-2015,14:58,METAR,Normal,290,10.0,15.0,,9999.0,,14.0,4.0,30.11,,,,,,,,,,,,,,,,2/8 Mostly Clear,72000.0,4000.0,FEW,4000.0,,,,,,
KRDR,08-24-2015,13:58,METAR,Normal,340,11.0,,,9999.0,Haze Smoke or Dust,13.7,7.4,30.09,1019.6,05,,,,,,,,,,,,,,Clear,72000.0,,,,,,,,,
KRDR,08-24-2015,12:58,METAR,Normal,330,10.0,,,9999.0,,10.9,6.8,30.08,1019.3,,,,,,,,,,,,,,,Clear,72000.0,,,,,,,,,
KRDR,08-24-2015,11:58,METAR,Normal,320,9.0,,,9999.0,,9.4,6.5,30.07,1019.0,,,,,,,,,,,,,,.01 IN,Clear,72000.0,,,,,,,,,
KRDR,08-24-2015,10:58,METAR,Normal,320,9.0,,,9999.0,,9.8,7.0,30.05,1018.3,,,,,,,,,,,,,,,Clear,72000.0,,,,,,,,,
KRDR,08-24-2015,09:58,METAR,Normal,310,8.0,,,9999.0,,9.2,6.5,30.04,1018.0,,,,,,,,,,,,,,,Clear,72000.0,,,,,,,,,
KRDR,08-24-2015,08:58,METAR,Normal,310,7.0,,,9999.0,,9.3,6.3,30.03,1017.7,,,,,,,,,,,,,,,2/8 Mostly Clear,72000.0,4500.0,FEW,4500.0,,,,,,
KRDR,08-24-2015,07:58,METAR,Normal,320,8.0,,,9999.0,,9.3,6.4,30.03,1017.7,,,,,,,,,,,,,,,Clear,72000.0,,,,,,,,,
KRDR,08-24-2015,06:58,METAR,Normal,340,10.0,,,9999.0,,10.5,6.9,30.02,1017.3,,,,,,,,,,,,,,,4/8 Partly Cloudy,72000.0,3900.0,FEW,3900.0,SCT,4900.0,,,,
KRDR,08-24-2015,05:58,METAR,Normal,330,8.0,,,9999.0,,11.0,7.5,30.01,1016.9,,,,,,,,,,,,,,,Clear,72000.0,,,,,,,,,
KRDR,08-24-2015,04:58,METAR,Normal,340,8.0,,,9999.0,,11.7,8.9,30.00,1016.5,,,,,,,,,,,,,,,Clear,72000.0,,,,,,,,,
KRDR,08-24-2015,03:58,METAR,Normal,350,11.0,,,9999.0,,13.5,9.2,29.99,1016.2,,,,,,,,,,,,,,,,2700.0,4600.0,FEW,4600.0,BKN,6500.0,BKN,8000.0,,
KRDR,08-24-2015,02:58,METAR,Normal,330,12.0,,,9999.0,,14.2,9.9,29.98,1015.9,,,,,,,,,,,,,,,,6000.0,6000.0,OVC,6000.0,,,,,,
KRDR,08-24-2015,01:58,METAR,Normal,330,11.0,,,9999.0,,14.9,10.1,29.95,1014.9,,,,,,,,,,,,,,,,3700.0,3700.0,BKN,3700.0,OVC,4600.0,,,,
KRDR,08-24-2015,00:58,METAR,Normal,320,16.0,22.0,310/27KTS,9999.0,,16.6,9.7,29.92,1013.8,,,,,,,,,,,,,,,,4300.0,4300.0,BKN,4300.0,OVC,6000.0,,,,
KRDR,08-23-2015,23:58,METAR,Normal,310,18.0,24.0,330/26KTS,9999.0,,17.4,9.0,29.90,1013.1,,,,,,,,,,,,,,,,6500.0,6500.0,OVC,6500.0,,,,,,
KRDR,08-23-2015,22:58,METAR,Normal,310,18.0,29.0,320/33KTS,9999.0,,17.6,9.0,29.89,1012.8,,,,,,,,,,,,,,,,5500.0,5500.0,BKN,5500.0,OVC,10000.0,,,,
KRDR,08-23-2015,21:58,METAR,Normal,320,20.0,29.0,330/31KTS,9999.0,,17.8,9.2,29.88,1012.4,,,,,,,,,,,,,,,,4500.0,4500.0,OVC,4500.0,,,,,,
KRDR,08-23-2015,20:58,METAR,Normal,310,20.0,28.0,320/33KTS,9999.0,,17.1,8.6,29.87,1012.1,,,,,,,,,,,,,,,,4300.0,4300.0,BKN,4300.0,OVC,8600.0,,,,
KRDR,08-23-2015,19:58,METAR,Normal,310,20.0,32.0,320/33KTS,9999.0,,17.1,8.4,29.84,1011.1,,,,,,,,,,,,,,,,4200.0,4200.0,OVC,4200.0,,,,,,
KRDR,08-23-2015,18:58,METAR,Normal,310,22.0,35.0,320/37KTS,9999.0,,18.4,8.9,29.80,1009.6,,,,,,,,,,,,,,,,4300.0,4300.0,OVC,4300.0,,,,,,
KRDR,08-23-2015,17:58,METAR,Normal,310,22.0,37.0,300/39KTS,9999.0,,18.3,8.9,29.79,,,,,,,,,,,,,,.01 IN,,,4100.0,4100.0,BKN,4100.0,,,,,,
KRDR,08-23-2015,16:58,METAR,Normal,310,27.0,34.0,290/37KTS,9999.0,,17.2,9.1,29.77,1008.6,,,,,,,,,,,,,,,,9000.0,7500.0,SCT,7500.0,BKN,9100.0,,,,
KRDR,08-23-2015,15:58,METAR,Normal,310,25.0,35.0,320/36KTS,9999.0,,15.6,8.4,29.75,1008.0,,,,,,,,,,,,,,,4/8 Partly Cloudy,72000.0,8000.0,SCT,8000.0,,,,,,
KRDR,08-23-2015,14:58,METAR,Normal,300,22.0,32.0,310/35KTS,9999.0,,14.2,8.2,29.74,1007.7,,,,,,,,,,,.01 IN,.01 IN,,,4/8 Partly Cloudy,72000.0,8500.0,SCT,8600.0,,,,,,
KRDR,08-23-2015,13:58,METAR,Normal,300,20.0,33.0,300/33KTS,9999.0,,12.0,7.8,29.73,1007.4,,,,,,,,,,,,,,,,7500.0,3400.0,FEW,3400.0,OVC,7500.0,,,,
KRDR,08-23-2015,12:58,METAR,Normal,300,18.0,34.0,300/34KTS,9999.0,,12.0,8.7,29.71,1006.7,,,,,,,,,,,,,,,,8000.0,8000.0,OVC,8000.0,,,,,,
KRDR,08-23-2015,11:58,METAR,Normal,300,20.0,26.0,290/30KTS,9999.0,,12.0,10.0,29.69,1006.0,,,,,,,,,,,.01 IN,,1.25 IN,3.01 IN,,3500.0,2300.0,SCT,2300.0,OVC,3500.0,,,,
KRDR,08-23-2015,11:55,SPECI,Normal,310,21.0,26.0,,9999.0,,12.0,10.0,29.69,,,,,,,,,,,,,,,,,3500.0,2300.0,SCT,2300.0,OVC,3500.0,,,,
KRDR,08-23-2015,10:58,METAR,Normal,300,14.0,25.0,310/27KTS,9999.0,Light Rain,12.5,10.9,29.67,1005.3,61,,,,,,,,,,.11 IN,,,,,2200.0,2200.0,OVC,2200.0,,,,,,
KRDR,08-23-2015,10:28,SPECI,Normal,300,16.0,23.0,,9999.0,Light Rain,13.0,11.0,29.66,,61,,,,,,,,,,,,,,,2400.0,2400.0,BKN,2400.0,BKN,2900.0,OVC,3600.0,,
KRDR,08-23-2015,10:23,SPECI,Normal,300,16.0,23.0,,9999.0,Light Rain,12.0,11.0,29.66,,61,,,,,,,,,,,,,,,2900.0,1700.0,FEW,1700.0,BKN,2900.0,OVC,4000.0,,
KRDR,08-23-2015,10:03,SPECI,Normal,310,17.0,22.0,,8000.0,Rain/Mist,13.0,11.0,29.66,,62,10,,,,,,,,,,,,,,4700.0,1700.0,FEW,1700.0,SCT,2200.0,OVC,4700.0,,
KRDR,08-23-2015,09:58,METAR,Normal,310,18.0,26.0,310/27KTS,6400.0,Rain/Mist,13.0,11.0,29.66,,62,10,,,,,,,,,.37 IN,,,,,4700.0,700.0,FEW,700.0,SCT,2200.0,OVC,4700.0,,
KRDR,08-23-2015,09:38,SPECI,Normal,300,17.0,27.0,,6400.0,Rain/Mist,13.0,11.0,29.65,,62,10,,,,,,,,,,,,,,1000.0,500.0,SCT,500.0,BKN,1900.0,OVC,2900.0,,
KRDR,08-23-2015,09:33,SPECI,Normal,300,20.0,25.0,,6400.0,Heavy Rain/Mist,13.0,11.0,29.65,,63,10,,,,,,,,,,,,,,500.0,500.0,SCT,500.0,BKN,1000.0,OVC,1900.0,,
KRDR,08-23-2015,09:23,SPECI,Normal,300,18.0,22.0,,4800.0,Heavy Rain/Mist,13.0,12.0,29.64,,63,10,,,,,,,,,,,,,,500.0,500.0,BKN,500.0,OVC,1200.0,,,,
KRDR,08-23-2015,09:18,SPECI,Normal,300,15.0,21.0,,4800.0,Heavy Rain/Mist,13.0,12.0,29.64,,63,10,,,,,,,,,,,,,,400.0,400.0,OVC,400.0,,,,,,
KRDR,08-23-2015,09:13,SPECI,Normal,300,15.0,21.0,,4800.0,Heavy Rain/Mist,13.0,12.0,29.64,,63,10,,,,,,,,,,,,,,500.0,500.0,BKN,500.0,OVC,1400.0,,,,
KRDR,08-23-2015,08:58,METAR,Normal,300,14.0,,,4000.0,Heavy Rain/Mist,13.0,12.0,29.64,,63,10,,,,,,,,,.34 IN,.76 IN,,,,500.0,500.0,BKN,500.0,OVC,1400.0,,,,
KRDR,08-23-2015,08:56,SPECI,Normal,300,14.0,20.0,,4000.0,Heavy Rain/Mist,13.0,12.0,29.64,,63,10,,,,,,,,,,,,,,500.0,500.0,BKN,500.0,OVC,1400.0,,,,
KRDR,08-23-2015,08:36,SPECI,Normal,300,13.0,20.0,,4800.0,Heavy Rain/Mist,13.0,12.0,29.63,,63,10,,,,,,,,,,,,,,500.0,500.0,BKN,500.0,BKN,1100.0,OVC,3500.0,,
KRDR,08-23-2015,08:31,SPECI,Normal,300,15.0,24.0,,6400.0,Heavy Rain/Mist,13.0,12.0,29.63,,63,10,,,,,,,,,,,,,,1200.0,500.0,SCT,500.0,BKN,1200.0,OVC,3800.0,,
KRDR,08-23-2015,08:11,SPECI,Normal,270,9.0,,,8000.0,Rain/Mist,13.0,12.0,29.62,,62,10,,,,,,,,,,,,,,4800.0,500.0,FEW,500.0,OVC,4800.0,,,,
KRDR,08-23-2015,08:08,SPECI,Normal,280,11.0,,,8000.0,Rain/Mist,13.0,12.0,29.62,,62,10,,,,,,,,,,,,,,5000.0,5000.0,OVC,5000.0,,,,,,
KRDR,08-23-2015,07:58,METAR,Normal,290,15.0,,310/30KTS,9999.0,Rain/Mist,13.4,12.1,29.62,,62,10,,,,,,,,,.29 IN,,,,,5500.0,5500.0,OVC,5500.0,,,,,,
KRDR,08-23-2015,07:45,SPECI,Normal,300,16.0,21.0,,9999.0,Rain/Mist,14.0,12.0,29.61,,62,10,,,,,,,,,,,,,,5500.0,4400.0,FEW,4400.0,OVC,5500.0,,,,
KRDR,08-23-2015,07:35,SPECI,Normal,290,15.0,20.0,,6400.0,Heavy Rain/Mist,14.0,13.0,29.61,,63,10,,,,,,,,,,,,,,6000.0,6000.0,OVC,6000.0,,,,,,
KRDR,08-23-2015,07:30,SPECI,Normal,290,14.0,,,9999.0,Rain/Mist,14.0,13.0,29.61,,62,10,,,,,,,,,,,,,,5500.0,5500.0,OVC,5500.0,,,,,,
KRDR,08-23-2015,07:25,SPECI,Normal,290,15.0,,,9999.0,Rain,14.0,13.0,29.60,,62,,,,,,,,,,,,,,,6000.0,6000.0,OVC,6000.0,,,,,,
KRDR,08-23-2015,07:15,SPECI,Normal,290,15.0,,,9999.0,Rain/Mist,14.0,13.0,29.59,,62,10,,,,,,,,,,,,,,6000.0,6000.0,OVC,6000.0,,,,,,
KRDR,08-23-2015,07:10,SPECI,Normal,290,16.0,,,8000.0,Rain/Mist,14.0,13.0,29.58,,62,10,,,,,,,,,,,,,,6000.0,6000.0,OVC,6000.0,,,,,,
KRDR,08-23-2015,06:58,METAR,Normal,300,20.0,26.0,310/31KTS,6400.0,Heavy Thunderstorm and Rain or Snow Showers/Mist,15.0,13.0,29.57,,95,10,,,,,,,,,.13 IN,,,,,6000.0,6000.0,OVC,6000.0,,,,,,
KRDR,08-23-2015,06:55,SPECI,Normal,310,19.0,26.0,,8000.0,Heavy Thunderstorm and Rain or Snow Showers/Mist,15.0,13.0,29.56,,95,10,,,,,,,,,,,,,,6000.0,6000.0,OVC,6000.0,,,,,,
KRDR,08-23-2015,06:54,SPECI,Normal,310,17.0,26.0,,8000.0,Heavy Rain/Mist,15.0,13.0,29.56,,63,10,,,,,,,,,,,,,,6000.0,6000.0,OVC,6000.0,,,,,,
KRDR,08-23-2015,06:44,SPECI,Normal,310,22.0,30.0,,8000.0,Light Rain/Mist,15.0,14.0,29.55,,61,10,,,,,,,,,,,,,,7000.0,7000.0,OVC,7000.0,,,,,,
KRDR,08-23-2015,06:24,SPECI,Normal,310,25.0,31.0,,6400.0,Rain/Mist,15.0,14.0,29.52,,62,10,,,,,,,,,,,,,,7000.0,600.0,SCT,600.0,OVC,7000.0,,,,
KRDR,08-23-2015,06:19,SPECI,Normal,320,25.0,30.0,,8000.0,Light Rain/Mist,15.0,14.0,29.52,,61,10,,,,,,,,,,,,,,6500.0,600.0,SCT,600.0,OVC,6500.0,,,,
KRDR,08-23-2015,06:18,SPECI,Normal,320,25.0,30.0,,9999.0,Thunderstorm and Rain or Snow Showers/Mist,15.0,14.0,29.53,,92,10,,,,,,,,,,,,,,6500.0,600.0,SCT,600.0,OVC,6500.0,,,,
KRDR,08-23-2015,06:13,SPECI,Normal,310,19.0,24.0,,9999.0,Thunderstorm and Rain or Snow Showers,15.0,14.0,29.54,,92,,,,,,,,,,,,,,,700.0,700.0,BKN,700.0,OVC,6000.0,,,,
KRDR,08-23-2015,06:03,SPECI,Variable,,2.0,,,8000.0,Thunderstorm and Rain or Snow Showers/Mist,14.0,13.0,29.55,,92,10,,,,,,,,,,,,,,700.0,700.0,OVC,700.0,,,,,,
KRDR,08-23-2015,05:58,METAR,Normal,190,8.0,,,8000.0,Thunderstorm and Rain or Snow Showers/Mist,14.0,13.0,29.54,1000.6,92,10,,,,,,,,,.45 IN,,.87 IN,,,700.0,700.0,BKN,700.0,OVC,1100.0,,,,
KRDR,08-23-2015,05:56,SPECI,Normal,180,6.0,,,8000.0,Thunderstorm and Rain or Snow Showers/Mist,14.0,13.0,29.54,,92,10,,,,,,,,,,,,,,700.0,700.0,BKN,700.0,OVC,1100.0,,,,
KRDR,08-23-2015,05:51,SPECI,Normal,190,5.0,,,8000.0,Thunderstorm and Rain or Snow Showers/Mist,14.0,13.0,29.54,,92,10,,,,,,,,,,,,,,900.0,900.0,OVC,900.0,,,,,,
KRDR,08-23-2015,05:41,SPECI,Normal,240,7.0,,,4800.0,Thunderstorm and Rain or Snow Showers/Mist,14.0,13.0,29.53,,92,10,,,,,,,,,,,,,,1100.0,500.0,FEW,500.0,BKN,1100.0,OVC,3000.0,,
KRDR,08-23-2015,05:36,SPECI,Normal,240,6.0,,,4000.0,Thunderstorm and Rain or Snow Showers/Mist,14.0,13.0,29.53,,92,10,,,,,,,,,,,,,,1100.0,500.0,FEW,500.0,BKN,1100.0,OVC,4100.0,,
KRDR,08-23-2015,05:20,SPECI,Normal,230,11.0,,,4000.0,Thunderstorm and Rain or Snow Showers/Mist,14.0,13.0,29.53,,92,10,,,,,,,,,,,,,,2000.0,2000.0,SCT,2000.0,BKN,2600.0,OVC,3900.0,,
KRDR,08-23-2015,05:15,SPECI,Normal,240,13.0,,,9999.0,Thunderstorm and Rain or Snow Showers,14.0,13.0,29.54,,92,,,,,,,,,,,,,,,2000.0,2000.0,BKN,2000.0,BKN,2600.0,OVC,4100.0,,
KRDR,08-23-2015,05:13,SPECI,Normal,240,12.0,,,9999.0,Rain,14.0,13.0,29.54,,62,,,,,,,,,,,,,,,2000.0,2000.0,BKN,2000.0,OVC,4100.0,,,,
KRDR,08-23-2015,04:58,METAR,Normal,240,16.0,,,9999.0,Heavy Rain/Distant Lightning,13.6,12.8,29.54,,63,12,,,,,,,,,.24 IN,,,,,1900.0,1900.0,OVC,1900.0,,,,,,
KRDR,08-23-2015,04:14,SPECI,Normal,230,11.0,,,9999.0,Light Rain,14.0,13.0,29.53,,61,,,,,,,,,,,,,,,1900.0,1900.0,OVC,1900.0,,,,,,
KRDR,08-23-2015,04:04,SPECI,Normal,240,13.0,,,9999.0,,14.0,13.0,29.53,,,,,,,,,,,,,,,,,1900.0,1900.0,OVC,1900.0,,,,,,
KRDR,08-23-2015,03:58,METAR,Normal,240,14.0,,,9999.0,Light Rain,14.0,13.0,29.53,,61,,,,,,,,,,.08 IN,,,,,1900.0,400.0,FEW,400.0,OVC,1900.0,,,,
KRDR,08-23-2015,03:53,SPECI,Normal,240,14.0,,,9999.0,Light Rain,14.0,13.0,29.54,,61,,,,,,,,,,,,,,,1900.0,400.0,FEW,400.0,OVC,1900.0,,,,
KRDR,08-23-2015,03:45,SPECI,Normal,230,13.0,,,8000.0,Mist,14.0,13.0,29.54,,10,,,,,,,,,,,,,,,1100.0,500.0,SCT,500.0,SCT,1200.0,OVC,1800.0,,
KRDR,08-23-2015,03:43,SPECI,Normal,230,12.0,,,8000.0,Light Rain/Mist,14.0,13.0,29.54,,61,10,,,,,,,,,,,,,,1100.0,500.0,SCT,500.0,SCT,900.0,OVC,1800.0,,
KRDR,08-23-2015,03:38,SPECI,Normal,230,13.0,,,6400.0,Rain/Mist,14.0,13.0,29.54,,62,10,,,,,,,,,,,,,,1000.0,500.0,SCT,500.0,BKN,1300.0,OVC,1800.0,,
KRDR,08-23-2015,03:33,SPECI,Normal,230,13.0,,,6400.0,Rain/Mist,14.0,13.0,29.54,,62,10,,,,,,,,,,,,,,1000.0,600.0,SCT,600.0,BKN,1200.0,OVC,1700.0,,
KRDR,08-23-2015,03:32,SPECI,Normal,230,11.0,,,6400.0,Mist,14.0,13.0,29.54,,10,,,,,,,,,,,,,,,1000.0,400.0,SCT,400.0,BKN,1000.0,OVC,1700.0,,
KRDR,08-23-2015,03:27,SPECI,Normal,240,11.0,,,8000.0,Mist,15.0,13.0,29.54,,10,,,,,,,,,,,,,,,1300.0,500.0,SCT,500.0,OVC,1300.0,,,,
KRDR,08-23-2015,03:23,SPECI,Normal,250,11.0,,,9999.0,Light Rain,15.0,13.0,29.54,,61,,,,,,,,,,,,,,,1300.0,600.0,SCT,600.0,OVC,1300.0,,,,
KRDR,08-23-2015,03:18,SPECI,Normal,250,11.0,,,9999.0,Light Rain,15.0,13.0,29.54,,61,,,,,,,,,,,,,,,1300.0,700.0,FEW,700.0,OVC,1300.0,,,,
KRDR,08-23-2015,03:16,SPECI,Normal,250,11.0,,,9999.0,Light Drizzle,15.0,13.0,29.54,,51,,,,,,,,,,,,,,,1400.0,1400.0,OVC,1400.0,,,,,,
KRDR,08-23-2015,03:08,SPECI,Normal,240,11.0,,,9999.0,,15.0,13.0,29.53,,,,,,,,,,,,,,,,,1400.0,1400.0,OVC,1400.0,,,,,,
KRDR,08-23-2015,03:03,SPECI,Normal,240,14.0,,,9999.0,,15.0,13.0,29.53,,,,,,,,,,,,,,,,,1500.0,1500.0,OVC,1500.0,,,,,,
KRDR,08-23-2015,02:58,METAR,Normal,240,14.0,,,9999.0,,15.0,12.6,29.53,,,,,,,,,,,,,.1 IN,,,,1400.0,1400.0,OVC,1400.0,,,,,,
KRDR,08-23-2015,01:58,METAR,Normal,260,13.0,20.0,,9999.0,,14.9,13.2,29.53,1001.5,,,,,,,,,,,.1 IN,,,,,1200.0,1300.0,OVC,1300.0,,,,,,
KRDR,08-23-2015,01:36,SPECI,Normal,280,13.0,19.0,,9999.0,,15.0,13.0,29.53,,,,,,,,,,,,,,,,,1400.0,1400.0,BKN,1400.0,OVC,3300.0,,,,
KRDR,08-23-2015,01:11,SPECI,Normal,280,11.0,,,9999.0,,15.0,14.0,29.51,,,,,,,,,,,,,,,,,8000.0,5500.0,FEW,5500.0,BKN,8000.0,OVC,10000.0,,
KRDR,08-23-2015,00:58,METAR,Normal,300,13.0,19.0,,9999.0,Light Rain,15.4,13.4,29.50,,61,,,,,,,,,,TRACE,,,,,8500.0,8500.0,OVC,8600.0,,,,,,
KRDR,08-23-2015,00:40,SPECI,Normal,280,13.0,20.0,,9999.0,Light Drizzle,16.0,13.0,29.50,,51,,,,,,,,,,,,,,,8500.0,8500.0,OVC,8600.0,,,,,,
KRDR,08-22-2015,23:58,METAR,Normal,280,16.0,23.0,280/28KTS,9999.0,,16.0,13.6,29.50,1000.3,,,,,,,,,,,.04 IN,,.17 IN,,,9000.0,9000.0,OVC,9100.0,,,,,,
KRDR,08-22-2015,23:19,SPECI,Normal,300,14.0,22.0,,9999.0,Distant Lightning,16.0,14.0,29.49,,12,,,,,,,,,,,,,,,8000.0,7000.0,SCT,7000.0,OVC,8000.0,,,,
KRDR,08-22-2015,22:58,METAR,Normal,290,18.0,25.0,270/33KTS,6400.0,Light Rain/Distant Lightning/Mist,16.7,14.7,29.48,,61,10,12,,,,,,,,.02 IN,,,,,2100.0,2200.0,SCT,2200.0,BKN,7000.0,OVC,8600.0,,
KRDR,08-22-2015,22:51,SPECI,Normal,300,18.0,28.0,,9999.0,Light Rain/Distant Lightning,17.0,15.0,29.47,,61,12,,,,,,,,,,,,,,6000.0,1900.0,FEW,1900.0,BKN,6000.0,OVC,8600.0,,
KRDR,08-22-2015,22:35,SPECI,Normal,280,18.0,27.0,,9999.0,,18.0,16.0,29.47,,,,,,,,,,,,,,,,,8500.0,3700.0,FEW,3700.0,SCT,4500.0,BKN,8600.0,,
KRDR,08-22-2015,22:19,SPECI,Normal,310,15.0,26.0,,9999.0,Light Rain,18.0,16.0,29.46,,61,,,,,,,,,,,,,,,3400.0,2600.0,FEW,2600.0,BKN,3400.0,OVC,4300.0,,
KRDR,08-22-2015,21:58,METAR,Normal,310,22.0,31.0,300/35KTS,9999.0,Distant Lightning,18.6,16.5,29.45,997.4,12,,,,,,,,,,.08 IN,,,,,2000.0,500.0,FEW,500.0,BKN,2800.0,OVC,3600.0,,
KRDR,08-22-2015,21:50,SPECI,Normal,300,17.0,35.0,,9999.0,,19.0,17.0,29.45,,,,,,,,,,,,,,,,,2000.0,500.0,FEW,500.0,BKN,2800.0,OVC,3800.0,,
KRDR,08-22-2015,21:30,SPECI,Normal,310,12.0,,,6400.0,Light Rain/Distant Lightning/Mist,20.0,19.0,29.43,,61,10,12,,,,,,,,,,,,,3700.0,400.0,FEW,400.0,SCT,2100.0,OVC,3700.0,,
KRDR,08-22-2015,21:18,SPECI,Normal,310,14.0,20.0,,9999.0,Light Rain,20.0,19.0,29.43,,61,,,,,,,,,,,,,,,1600.0,1600.0,SCT,1600.0,BKN,2400.0,OVC,3800.0,,
KRDR,08-22-2015,21:03,SPECI,Normal,310,11.0,18.0,,9999.0,Light Drizzle,21.0,19.0,29.44,,51,,,,,,,,,,,,,,,1400.0,1600.0,BKN,1600.0,BKN,2400.0,OVC,3400.0,,
KRDR,08-22-2015,21:00,SPECI,Normal,310,10.0,18.0,,9999.0,Thunderstorm and Rain or Snow Showers/Precipitation,,,29.44,,92,41,,,,,,,,,,,,,,1400.0,,,,,,,,,
KRDR,08-22-2015,20:59,SPECI,Normal,310,10.0,18.0,,9999.0,Dry Thunderstorm,21.0,19.0,29.45,,91,,,,,,,,,,,,,,,1400.0,1600.0,BKN,1600.0,BKN,2400.0,OVC,3800.0,,
KRDR,08-22-2015,20:58,METAR,Normal,300,10.0,18.0,,9999.0,Thunderstorm and Rain or Snow Showers/Precipitation,21.1,19.9,29.44,997.0,92,41,,,,,,,,,.02 IN,.03 IN,,,,1400.0,,,,,,,,,
KRDR,08-22-2015,20:48,SPECI,Normal,300,6.0,,,8000.0,Thunderstorm with Rain or Snow/Mist,21.0,20.0,29.44,,,,,95,10,,,,,,,,,,,3100.0,1400.0,FEW,1400.0,BKN,3100.0,OVC,3800.0,,
KRDR,08-22-2015,20:28,SPECI,Normal,330,3.0,,,9999.0,Light Rain,22.0,20.0,29.45,,61,,,,,,,,,,,,,,,3000.0,1200.0,FEW,1200.0,SCT,2400.0,OVC,3000.0,,
KRDR,08-22-2015,20:23,SPECI,Normal,310,3.0,,,9999.0,,22.0,20.0,29.45,,,,,,,,,,,,,,,,,3000.0,1200.0,FEW,1200.0,BKN,3000.0,OVC,4100.0,,
KRDR,08-22-2015,19:58,METAR,Variable,,3.0,,,9999.0,,22.9,20.8,29.46,997.6,,,,,,,,,,,.01 IN,,,,,1800.0,1300.0,FEW,1300.0,BKN,1800.0,OVC,2600.0,,
KRDR,08-22-2015,19:48,SPECI,Variable,,3.0,,,9999.0,,23.0,21.0,29.45,,,,,,,,,,,,,,,,,1800.0,600.0,FEW,600.0,BKN,1800.0,BKN,2600.0,,
KRDR,08-22-2015,19:18,SPECI,Variable,,3.0,,,9999.0,,22.0,21.0,29.47,,,,,,,,,,,,,,,,,1100.0,500.0,FEW,500.0,SCT,1100.0,BKN,2700.0,,
KRDR,08-22-2015,19:13,SPECI,Normal,180,2.0,,,9999.0,,21.0,21.0,29.47,,,,,,,,,,,,,,,,,1100.0,600.0,SCT,600.0,BKN,1100.0,OVC,6500.0,,
KRDR,08-22-2015,19:02,SPECI,Normal,240,2.0,,,9999.0,Light Drizzle/Mist,21.0,20.0,29.49,,51,10,,,,,,,,,,,,,,1300.0,700.0,SCT,700.0,OVC,1300.0,,,,
KRDR,08-22-2015,18:58,METAR,Normal,240,4.0,,,9999.0,Mist,21.1,20.5,29.49,998.7,10,,,,,,,,,,TRACE,,,,,500.0,600.0,SCT,600.0,OVC,1400.0,,,,
KRDR,08-22-2015,18:44,SPECI,Normal,240,5.0,,,9999.0,,21.0,20.0,29.49,,,,,,,,,,,,,,,,,1400.0,600.0,SCT,600.0,OVC,1400.0,,,,
KRDR,08-22-2015,18:37,SPECI,Normal,230,7.0,,,8000.0,Mist,21.0,20.0,29.49,,10,,,,,,,,,,,,,,,1500.0,1500.0,OVC,1500.0,,,,,,
KRDR,08-22-2015,18:22,SPECI,Normal,230,4.0,,,4000.0,Light Drizzle/Mist,21.0,20.0,29.49,,51,10,,,,,,,,,,,,,,1500.0,1500.0,OVC,1500.0,,,,,,
KRDR,08-22-2015,17:58,METAR,Normal,220,12.0,,,6400.0,Mist,22.0,19.0,29.48,,10,,,,,,,,,,,,,,,1500.0,1500.0,OVC,1500.0,,,,,,
KRDR,08-22-2015,17:48,SPECI,Normal,200,10.0,,,9999.0,,22.0,20.0,29.48,,,,,,,,,,,,,,,,Clear,72000.0,,,,,,,,,
KRDR,08-22-2015,16:58,METAR,Normal,200,10.0,,,8000.0,Mist,22.0,18.0,29.47,,10,,,,,,,,,,,,,,,1500.0,1500.0,OVC,1500.0,,,,,,
KRDR,08-22-2015,15:58,METAR,Normal,170,12.0,,,4800.0,Mist,22.0,18.0,29.49,,10,,,,,,,,,,,,,,,2000.0,2000.0,OVC,2000.0,,,,,,
KRDR,08-22-2015,14:58,METAR,Normal,170,9.0,,,9999.0,,23.0,20.0,29.62,1003.1,,,,,,,,,,,,,,,,2000.0,2000.0,OVC,2000.0,,,,,,
KRDR,08-22-2015,13:58,METAR,Normal,170,10.0,,,9999.0,,23.0,20.0,29.62,1003.1,,,,,,,,,,,,,,,,3000.0,3000.0,BKN,3000.0,,,,,,
KRDR,08-22-2015,12:58,METAR,Normal,170,9.0,,,9999.0,,23.0,20.0,29.62,1003.1,,,,,,,,,,,,,,,Clear,72000.0,,,,,,,,,
KRDR,08-22-2015,11:58,METAR,Normal,170,9.0,,,9999.0,,23.0,20.0,29.62,1003.0,,,,,,,,,,,,,,,Clear,72000.0,,,,,,,,,
KRDR,08-22-2015,10:58,METAR,Normal,170,9.0,,,9999.0,,23.0,20.0,29.62,1003.0,,,,,,,,,,,,,,,Clear,72000.0,,,,,,,,,
KRDR,08-22-2015,09:58,METAR,Normal,170,9.0,,,9999.0,,23.0,20.0,29.62,1003.0,,,,,,,,,,,,,,,Clear,72000.0,,,,,,,,,
KRDR,08-22-2015,08:58,METAR,Normal,170,9.0,,,9999.0,,23.0,20.0,29.62,1003.0,,,,,,,,,,,,,,,Clear,72000.0,,,,,,,,,
KRDR,08-22-2015,07:58,METAR,Normal,170,9.0,,,9999.0,,23.0,20.0,29.62,1003.0,,,,,,,,,,,,,,,Clear,72000.0,,,,,,,,,
KRDR,08-22-2015,06:58,METAR,Normal,170,9.0,,,9999.0,,23.0,20.0,29.62,1003.1,,,,,,,,,,,,,,,Clear,72000.0,,,,,,,,,
KRDR,08-22-2015,05:58,METAR,Normal,170,9.0,,,9999.0,,23.0,20.0,29.62,1003.1,,,,,,,,,,,,,,,Clear,72000.0,,,,,,,,,
KRDR,08-22-2015,04:58,METAR,Normal,170,9.0,,,9999.0,,23.0,20.0,29.62,1003.1,,,,,,,,,,,,,,,Clear,72000.0,,,,,,,,,
KRDR,08-22-2015,03:58,METAR,Normal,170,9.0,,,9999.0,,23.0,20.0,29.62,1003.2,,,,,,,,,,,,,,,Clear,72000.0,,,,,,,,,
KRDR,08-22-2015,02:58,METAR,Normal,170,9.0,,,9999.0,,23.0,20.0,29.62,1003.2,,,,,,,,,,,,,,,Clear,72000.0,,,,,,,,,
KRDR,08-22-2015,01:58,METAR,Normal,140,8.0,,,9999.0,,23.6,19.6,29.62,1003.3,,,,,,,,,,,,,,,Clear,72000.0,,,,,,,,,
KRDR,08-22-2015,00:58,METAR,Normal,170,5.0,,,9999.0,,24.8,20.2,29.61,1002.9,,,,,,,,,,,,,,,Clear,72000.0,,,,,,,,,
KRDR,08-21-2015,23:58,METAR,Normal,160,5.0,,,9999.0,,26.2,19.0,29.62,1003.2,,,,,,,,,,,,,,,Clear,72000.0,,,,,,,,,
KRDR,08-21-2015,22:58,METAR,Normal,150,5.0,,,9999.0,,26.2,17.4,29.63,1003.5,,,,,,,,,,,,,,,Clear,72000.0,,,,,,,,,
KRDR,08-21-2015,21:58,METAR,Normal,160,5.0,,,9999.0,,26.5,15.7,29.64,1003.8,,,,,,,,,,,,,,,Clear,72000.0,,,,,,,,,
KRDR,08-21-2015,20:58,METAR,Normal,150,7.0,,,9999.0,,26.6,15.8,29.64,1003.9,,,,,,,,,,,,,,,,25000.0,25000.0,OVC,25000.0,,,,,,
KRDR,08-21-2015,19:58,METAR,Normal,220,2.0,,,9999.0,,25.8,14.9,29.65,1004.2,,,,,,,,,,,,,,,,25000.0,25000.0,OVC,25000.0,,,,,,
KRDR,08-21-2015,18:58,METAR,Normal,240,4.0,,,9999.0,,25.1,15.1,29.65,1004.2,,,,,,,,,,,,,,,,25000.0,25000.0,OVC,25000.0,,,,,,
KRDR,08-21-2015,17:58,METAR,Normal,210,3.0,,,9999.0,,24.4,15.2,29.65,1004.2,,,,,,,,,,,,,,,Clear,72000.0,,,,,,,,,
KRDR,08-21-2015,16:58,METAR,Normal,230,4.0,,,9999.0,,22.6,15.3,29.65,1004.2,,,,,,,,,,,,,,,Clear,72000.0,,,,,,,,,
KRDR,08-21-2015,15:58,METAR,Normal,200,8.0,,,9999.0,,21.0,15.0,29.65,1004.3,,,,,,,,,,,,,,,Clear,72000.0,,,,,,,,,
KRDR,08-21-2015,14:58,METAR,Normal,180,11.0,,,9999.0,,18.1,14.1,29.64,1004.0,,,,,,,,,,,,,,,Clear,72000.0,,,,,,,,,
KRDR,08-21-2015,13:58,METAR,Normal,180,11.0,,,9999.0,,15.9,13.1,29.64,1004.1,,,,,,,,,,,,,,,Clear,72000.0,,,,,,,,,
KRDR,08-21-2015,12:58,METAR,Normal,170,11.0,,,9999.0,,15.1,12.5,29.65,1004.3,,,,,,,,,,,,,,,Clear,72000.0,,,,,,,,,
KRDR,08-21-2015,11:58,METAR,Normal,160,12.0,,,9999.0,,14.8,11.8,29.65,1004.3,,,,,,,,,,,,,TRACE,,Clear,72000.0,,,,,,,,,
KRDR,08-21-2015,10:58,METAR,Normal,140,8.0,,,9999.0,,15.6,12.4,29.67,1005.0,,,,,,,,,,,,,,,Clear,72000.0,,,,,,,,,
KRDR,08-21-2015,09:58,METAR,Normal,140,9.0,,,9999.0,,15.7,12.6,29.69,1005.6,,,,,,,,,,,TRACE,,,,,10000.0,10000.0,BKN,10000.0,,,,,,
KRDR,08-21-2015,09:15,SPECI,Normal,50,8.0,,,9999.0,,16.0,13.0,29.71,,,,,,,,,,,,,,,,2/8 Mostly Clear,72000.0,10000.0,FEW,10000.0,,,,,,
KRDR,08-21-2015,09:12,SPECI,Normal,30,7.0,,,9999.0,Light Drizzle,16.0,13.0,29.71,,51,,,,,,,,,,,,,,2/8 Mostly Clear,72000.0,10000.0,FEW,10000.0,,,,,,
KRDR,08-21-2015,08:58,METAR,Normal,40,8.0,,,9999.0,,15.8,13.2,29.71,1006.3,,,,,,,,,,,TRACE,TRACE,,,Clear,72000.0,,,,,,,,,
KRDR,08-21-2015,08:47,SPECI,Variable,,1.0,,,9999.0,Light Rain,16.0,12.0,29.71,,61,,,,,,,,,,,,,,2/8 Mostly Clear,72000.0,10000.0,FEW,10000.0,,,,,,
KRDR,08-21-2015,07:58,METAR,Normal,210,8.0,,,9999.0,,16.7,12.0,29.69,1005.6,,,,,,,,,,,,,,,,11000.0,11000.0,BKN,11000.0,,,,,,
KRDR,08-21-2015,06:58,METAR,Normal,200,11.0,18.0,,9999.0,,16.9,11.7,29.69,1005.6,,,,,,,,,,,,,,,Clear,72000.0,,,,,,,,,
KRDR,08-21-2015,05:58,METAR,Normal,190,12.0,18.0,,9999.0,,17.5,11.7,29.71,1006.3,,,,,,,,,,,,,,,Clear,72000.0,,,,,,,,,
KRDR,08-21-2015,04:58,METAR,Normal,190,12.0,,,9999.0,,18.2,11.4,29.73,1007.0,,,,,,,,,,,,,,,Clear,72000.0,,,,,,,,,
KRDR,08-21-2015,03:58,METAR,Normal,180,11.0,,,9999.0,,18.4,11.0,29.73,1007.1,,,,,,,,,,,,,,,Clear,72000.0,,,,,,,,,
KRDR,08-21-2015,02:58,METAR,Normal,180,10.0,,,9999.0,,18.9,10.8,29.75,1007.8,,,,,,,,,,,,,,,Clear,72000.0,,,,,,,,,
KRDR,08-21-2015,01:58,METAR,Normal,180,9.0,,,9999.0,,19.6,10.8,29.74,1007.5,,,,,,,,,,,,,,,Clear,72000.0,,,,,,,,,
KRDR,08-21-2015,00:58,METAR,Normal,180,4.0,,,9999.0,,22.2,10.3,29.74,1007.6,,,,,,,,,,,,,,,Clear,72000.0,,,,,,,,,
KRDR,08-20-2015,23:58,METAR,Normal,190,2.0,,,9999.0,,24.0,9.9,29.75,1008.0,,,,,,,,,,,,,,,Clear,72000.0,,,,,,,,,
KRDR,08-20-2015,22:58,METAR,Normal,190,5.0,,,9999.0,,24.4,10.2,29.75,1008.0,,,,,,,,,,,,,,,Clear,72000.0,,,,,,,,,
KRDR,08-20-2015,21:58,METAR,Normal,190,5.0,,,9999.0,,25.9,9.0,29.76,1008.3,,,,,,,,,,,,,,,Clear,72000.0,,,,,,,,,
KRDR,08-20-2015,20:58,METAR,Normal,220,5.0,,,9999.0,,25.5,7.6,29.77,1008.7,,,,,,,,,,,,,,,Clear,72000.0,,,,,,,,,
KRDR,08-20-2015,19:58,METAR,Normal,230,2.0,,,9999.0,,25.0,7.1,29.78,1009.0,,,,,,,,,,,,,,,Clear,72000.0,,,,,,,,,
KRDR,08-20-2015,18:58,METAR,Normal,200,4.0,,,9999.0,,24.3,6.8,29.80,1009.6,,,,,,,,,,,,,,,Clear,72000.0,,,,,,,,,
KRDR,08-20-2015,17:58,METAR,Variable,,6.0,,,9999.0,,23.4,7.4,29.81,1010.0,,,,,,,,,,,,,,,Clear,72000.0,,,,,,,,,
KRDR,08-20-2015,16:58,METAR,Normal,180,5.0,,,9999.0,,22.3,8.2,29.82,1010.4,,,,,,,,,,,,,,,Clear,72000.0,,,,,,,,,
KRDR,08-20-2015,15:58,METAR,Normal,200,6.0,,,9999.0,,20.2,8.1,29.83,1010.8,,,,,,,,,,,,,,,Clear,72000.0,,,,,,,,,
KRDR,08-20-2015,14:58,METAR,Normal,180,7.0,,,9999.0,,18.4,8.5,29.83,1010.7,,,,,,,,,,,,,,,Clear,72000.0,,,,,,,,,
KRDR,08-20-2015,13:58,METAR,Normal,200,4.0,,,9999.0,,15.2,9.0,29.83,1010.7,,,,,,,,,,,,,,,Clear,72000.0,,,,,,,,,
KRDR,08-20-2015,12:58,METAR,Calm,,0.0,,,9999.0,,9.7,7.1,29.84,1011.1,,,,,,,,,,,,,,,Clear,72000.0,,,,,,,,,
KRDR,08-20-2015,11:58,METAR,Normal,250,3.0,,,9999.0,,4.7,3.4,29.83,1010.8,,,,,,,,,,,,,,,Clear,72000.0,,,,,,,,,
KRDR,08-20-2015,10:58,METAR,Normal,240,2.0,,,9999.0,,4.9,3.8,29.82,1010.5,,,,,,,,,,,,,,,Clear,72000.0,,,,,,,,,
KRDR,08-20-2015,09:58,METAR,Normal,260,1.0,,,9999.0,,4.5,3.4,29.82,1010.5,,,,,,,,,,,,,,,Clear,72000.0,,,,,,,,,
KRDR,08-20-2015,08:58,METAR,Normal,260,2.0,,,9999.0,,4.8,3.8,29.82,1010.5,,,,,,,,,,,,,,,Clear,72000.0,,,,,,,,,
KRDR,08-20-2015,07:58,METAR,Normal,250,2.0,,,9999.0,,5.8,4.7,29.81,1010.1,,,,,,,,,,,,,,,Clear,72000.0,,,,,,,,,
KRDR,08-20-2015,06:58,METAR,Normal,220,2.0,,,9999.0,,7.1,5.0,29.82,1010.4,,,,,,,,,,,,,,,Clear,72000.0,,,,,,,,,
KRDR,08-20-2015,05:58,METAR,Calm,,0.0,,,9999.0,,7.7,5.7,29.82,1010.5,,,,,,,,,,,,,,,Clear,72000.0,,,,,,,,,
KRDR,08-20-2015,04:58,METAR,Normal,250,2.0,,,9999.0,,7.8,5.8,29.81,1010.1,,,,,,,,,,,,,,,Clear,72000.0,,,,,,,,,
KRDR,08-20-2015,03:58,METAR,Normal,310,3.0,,,9999.0,,8.5,6.6,29.81,1010.1,,,,,,,,,,,,,,,Clear,72000.0,,,,,,,,,
KRDR,08-20-2015,02:58,METAR,Normal,270,4.0,,,9999.0,,10.4,7.3,29.81,1010.2,,,,,,,,,,,,,,,Clear,72000.0,,,,,,,,,
KRDR,08-20-2015,01:58,METAR,Normal,90,5.0,,,9999.0,,16.3,7.7,29.80,1009.7,,,,,,,,,,,,,,,Clear,72000.0,,,,,,,,,
KRDR,08-20-2015,00:58,METAR,Normal,50,7.0,,,9999.0,,19.4,6.3,29.79,1009.3,,,,,,,,,,,,,,,Clear,72000.0,,,,,,,,,
KRDR,08-19-2015,23:58,METAR,Normal,40,12.0,,,9999.0,,21.7,5.0,29.78,1008.8,,,,,,,,,,,,,,,Clear,72000.0,,,,,,,,,
KRDR,08-19-2015,22:58,METAR,Normal,50,16.0,,,9999.0,,22.9,4.6,29.78,1008.8,,,,,,,,,,,,,,,Clear,72000.0,,,,,,,,,
KRDR,08-19-2015,21:58,METAR,Normal,30,13.0,20.0,,9999.0,,23.3,4.6,29.78,1008.8,,,,,,,,,,,,,,,Clear,72000.0,,,,,,,,,
KRDR,08-19-2015,21:45,SPECI,Normal,10,13.0,23.0,,9999.0,,23.0,5.0,29.78,,,,,,,,,,,,,,,,Clear,72000.0,,,,,,,,,
KRDR,08-19-2015,20:58,METAR,Normal,30,17.0,23.0,,9999.0,,22.2,3.1,29.78,1008.8,,,,,,,,,,,,,,,Clear,72000.0,,,,,,,,,
KRDR,08-19-2015,19:58,METAR,Normal,20,16.0,24.0,/  KTS,9999.0,,22.4,3.8,29.79,1009.1,,,,,,,,,,,,,,,Clear,72000.0,,,,,,,,,
KRDR,08-19-2015,18:58,METAR,Normal,30,16.0,24.0,,9999.0,,21.3,6.5,29.79,1009.2,,,,,,,,,,,,,,,Clear,72000.0,,,,,,,,,
KRDR,08-19-2015,17:58,METAR,Normal,20,12.0,,,9999.0,,19.0,9.0,29.80,1009.6,,,,,,,,,,,,,,,Clear,72000.0,,,,,,,,,
KRDR,08-19-2015,16:58,METAR,Normal,20,14.0,22.0,,9999.0,,19.1,9.1,29.80,1009.5,,,,,,,,,,,,,,,Clear,72000.0,,,,,,,,,
KRDR,08-19-2015,15:58,METAR,Normal,360,14.0,18.0,,9999.0,,18.8,9.6,29.81,1009.9,,,,,,,,,,,,,,,Clear,72000.0,,,,,,,,,
KRDR,08-19-2015,14:58,METAR,Normal,360,8.0,,,9999.0,,14.5,8.5,29.81,1010.0,,,,,,,,,,,,,,,2/8 Mostly Clear,72000.0,7500.0,FEW,7500.0,,,,,,
KRDR,08-19-2015,13:58,METAR,Normal,360,9.0,,,9999.0,,13.6,8.0,29.81,1010.0,,,,,,,,,,,,,,,Clear,72000.0,,,,,,,,,
KRDR,08-19-2015,12:58,METAR,Variable,360,11.0,,,9999.0,,13.2,7.8,29.81,1010.0,,,,,,,,,,,,,,,2/8 Mostly Clear,72000.0,7000.0,FEW,7000.0,,,,,,
KRDR,08-19-2015,11:58,METAR,Variable,360,10.0,,,9999.0,,13.1,8.2,29.81,1010.0,,,,,,,,,,,,,,,Clear,72000.0,,,,,,,,,
KRDR,08-19-2015,10:58,METAR,Normal,360,9.0,,,9999.0,,13.2,8.6,29.80,1009.6,,,,,,,,,,,,,,,Clear,72000.0,,,,,,,,,
KRDR,08-19-2015,09:58,METAR,Normal,350,11.0,,,9999.0,,13.4,9.1,29.80,1009.6,,,,,,,,,,,,,,,Clear,72000.0,,,,,,,,,
KRDR,08-19-2015,08:58,METAR,Normal,360,9.0,,,9999.0,,14.1,9.2,29.81,1009.9,,,,,,,,,,,,,,,Clear,72000.0,,,,,,,,,
KRDR,08-19-2015,07:58,METAR,Normal,360,9.0,,,9999.0,,14.6,9.3,29.82,1010.2,,,,,,,,,,,,,,,2/8 Mostly Clear,72000.0,8000.0,FEW,8000.0,,,,,,
KRDR,08-19-2015,06:58,METAR,Normal,10,9.0,,,9999.0,,15.0,9.1,29.83,1010.5,,,,,,,,,,,,,,,Clear,72000.0,,,,,,,,,
KRDR,08-19-2015,05:58,METAR,Normal,10,11.0,,,9999.0,,15.4,8.9,29.85,1011.2,,,,,,,,,,,,,,,Clear,72000.0,,,,,,,,,
KRDR,08-19-2015,04:58,METAR,Normal,10,11.0,,,9999.0,,15.7,8.4,29.86,1011.6,,,,,,,,,,,,,,,Clear,72000.0,,,,,,,,,
KRDR,08-19-2015,03:58,METAR,Normal,10,9.0,,,9999.0,,16.1,8.4,29.88,1012.2,,,,,,,,,,,,,,,,7000.0,5500.0,SCT,5500.0,BKN,7000.0,,,,
KRDR,08-19-2015,02:58,METAR,Normal,10,7.0,,,9999.0,,15.9,8.6,29.88,1012.3,,,,,,,,,,,,,,,Clear,72000.0,,,,,,,,,
KRDR,08-19-2015,01:58,METAR,Normal,10,7.0,,,9999.0,,14.9,9.2,29.87,1012.2,,,,,,,,,,,,,,,Clear,72000.0,,,,,,,,,
KRDR,08-19-2015,00:58,METAR,Normal,10,7.0,,,9999.0,,16.0,9.3,29.86,1011.8,,,,,,,,,,,,,,,Clear,72000.0,,,,,,,,,
KRDR,08-18-2015,23:58,METAR,Normal,20,8.0,,,9999.0,,17.5,8.8,29.87,1012.2,,,,,,,,,,,,,,,Clear,72000.0,,,,,,,,,
KRDR,08-18-2015,22:58,METAR,Normal,30,10.0,,,9999.0,,18.6,7.4,29.89,1012.8,,,,,,,,,,,,,,,Clear,72000.0,,,,,,,,,
KRDR,08-18-2015,21:58,METAR,Normal,30,11.0,,,9999.0,,19.1,7.6,29.89,1012.8,,,,,,,,,,,,,,,Clear,72000.0,,,,,,,,,
KRDR,08-18-2015,20:58,METAR,Normal,50,10.0,,,9999.0,,19.7,6.5,29.92,1013.8,,,,,,,,,,,,,,,Clear,72000.0,,,,,,,,,
KRDR,08-18-2015,19:58,METAR,Normal,60,9.0,,,9999.0,,19.9,7.3,29.94,1014.5,,,,,,,,,,,,,,,Clear,72000.0,,,,,,,,,
KRDR,08-18-2015,18:58,METAR,Normal,70,11.0,,,9999.0,,19.8,6.6,29.95,1014.8,,,,,,,,,,,,,,,Clear,72000.0,,,,,,,,,
KRDR,08-18-2015,17:58,METAR,Normal,50,12.0,,,9999.0,,20.0,7.5,29.96,1015.1,,,,,,,,,,,,,,,Clear,72000.0,,,,,,,,,
KRDR,08-18-2015,16:58,METAR,Normal,60,10.0,,,9999.0,,19.8,8.5,29.96,1015.1,,,,,,,,,,,,,,,Clear,72000.0,,,,,,,,,
KRDR,08-18-2015,15:58,METAR,Normal,100,9.0,,,9999.0,,19.0,8.0,29.98,1015.8,,,,,,,,,,,,,,,Clear,72000.0,,,,,,,,,
KRDR,08-18-2015,14:58,METAR,Normal,80,7.0,,,9999.0,,16.2,10.1,29.99,1016.2,,,,,,,,,,,,,,,Clear,72000.0,,,,,,,,,
KRDR,08-18-2015,13:58,METAR,Normal,30,5.0,,,9999.0,,12.7,10.4,30.00,1016.5,,,,,,,,,,,,,,,Clear,72000.0,,,,,,,,,
KRDR,08-18-2015,12:58,METAR,Normal,20,4.0,,,9999.0,,11.2,9.7,30.00,,,,,,,,,,,,,,,,Clear,72000.0,,,,,,,,,
KRDR,08-18-2015,11:58,METAR,Normal,360,4.0,,,9999.0,,9.7,8.8,29.99,1016.1,,,,,,,,,,,,,,,Clear,72000.0,,,,,,,,,
KRDR,08-18-2015,10:58,METAR,Normal,360,2.0,,,9999.0,,9.2,8.6,29.99,1016.2,,,,,,,,,,,,,,,Clear,72000.0,,,,,,,,,
KRDR,08-18-2015,09:58,METAR,Normal,10,5.0,,,9999.0,,10.1,9.3,29.99,1016.1,,,,,,,,,,,,,,,Clear,72000.0,,,,,,,,,
KRDR,08-18-2015,08:58,METAR,Normal,360,2.0,,,9999.0,,10.1,9.5,30.00,1016.5,,,,,,,,,,,,,,,Clear,72000.0,,,,,,,,,
KRDR,08-18-2015,07:58,METAR,Normal,360,3.0,,,9999.0,,10.1,9.4,30.02,,,,,,,,,,,,,,,,Clear,72000.0,,,,,,,,,
KRDR,08-18-2015,06:58,METAR,Normal,20,3.0,,,9999.0,,12.1,10.9,30.04,,,,,,,,,,,,,,,,,10000.0,7000.0,FEW,7000.0,BKN,10000.0,,,,
KRDR,08-18-2015,05:58,METAR,Normal,320,1.0,,,9999.0,,11.0,9.8,30.04,,,,,,,,,,,,,,,,,7000.0,7500.0,SCT,7500.0,BKN,10000.0,,,,
KRDR,08-18-2015,04:58,METAR,Variable,,2.0,,,9999.0,,11.3,10.4,30.04,,,,,,,,,,,,,,,,Clear,72000.0,,,,,,,,,
KRDR,08-18-2015,04:33,SPECI,Normal,360,4.0,,,9999.0,,12.0,11.0,30.03,,,,,,,,,,,,,,,,Clear,72000.0,,,,,,,,,
KRDR,08-18-2015,04:23,SPECI,Normal,350,3.0,,,9999.0,,12.0,10.0,30.03,,,,,,,,,,,,,,,,Clear,72000.0,,,,,,,,,
KRDR,08-18-2015,03:58,METAR,Normal,330,2.0,,,9999.0,,12.7,10.6,30.03,,,,,,,,,,,,,,,,4/8 Partly Cloudy,72000.0,10000.0,SCT,10000.0,,,,,,
KRDR,08-18-2015,02:58,METAR,Normal,50,3.0,,,9999.0,,13.9,10.7,30.03,,,,,,,,,,,,,,,,4/8 Partly Cloudy,72000.0,7000.0,SCT,7000.0,,,,,,
KRDR,08-18-2015,01:58,METAR,Normal,50,2.0,,,9999.0,,16.0,11.4,30.02,,,,,,,,,,,,,,,,Clear,72000.0,,,,,,,,,
KRDR,08-18-2015,00:58,METAR,Normal,30,5.0,,,9999.0,,19.4,11.8,30.01,1016.8,,,,,,,,,,,,,,,Clear,72000.0,,,,,,,,,
KRDR,08-17-2015,20:58,METAR,Normal,30,13.0,,,9999.0,,20.0,12.7,30.05,1018.2,,,,,,,,,,,,,,,2/8 Mostly Clear,72000.0,6000.0,FEW,6000.0,,,,,,
KRDR,08-17-2015,19:58,METAR,Normal,60,6.0,,,9999.0,,20.9,11.3,30.07,1018.8,,,,,,,,,,,,,,,2/8 Mostly Clear,72000.0,4300.0,FEW,4300.0,,,,,,
KRDR,08-17-2015,18:58,METAR,Calm,,0.0,,,9999.0,,20.8,11.3,30.08,1019.2,,,,,,,,,,,,,,,2/8 Mostly Clear,72000.0,4800.0,FEW,4800.0,,,,,,
KRDR,08-17-2015,17:58,METAR,Calm,,0.0,,,9999.0,,20.0,11.4,30.08,1019.2,,,,,,,,,,,,,,,4/8 Partly Cloudy,72000.0,4500.0,FEW,4500.0,SCT,8000.0,,,,
KRDR,08-17-2015,16:58,METAR,Variable,,2.0,,,9999.0,,20.9,11.5,30.09,1019.5,,,,,,,,,,,,,,,,8000.0,4000.0,FEW,4000.0,,,,,,
KRDR,08-17-2015,16:18,SPECI,Variable,,2.0,,,9999.0,,20.0,12.0,30.09,,,,,,,,,,,,,,,,Clear,72000.0,,,,,,,,,
KRDR,08-17-2015,15:58,METAR,Variable,,2.0,,,9999.0,,19.9,11.7,30.09,1019.5,,,,,,,,,,,,,,,Clear,72000.0,,,,,,,,,
KRDR,08-17-2015,14:58,METAR,Variable,,3.0,,,9999.0,,17.8,11.3,30.10,1019.7,,,,,,,,,,,,,,,Clear,72000.0,,,,,,,,,
KRDR,08-17-2015,13:58,METAR,Calm,,0.0,,,9999.0,,15.6,11.4,30.10,1019.8,,,,,,,,,,,,,,,Clear,72000.0,,,,,,,,,
KRDR,08-17-2015,12:58,METAR,Normal,330,2.0,,,9999.0,,11.9,10.5,30.09,1019.5,,,,,,,,,,,,,,,Clear,72000.0,,,,,,,,,
KRDR,08-17-2015,11:58,METAR,Normal,250,1.0,,,9999.0,,9.0,7.9,30.10,1019.9,,,,,,,,,,,,,,,Clear,72000.0,,,,,,,,,
KRDR,08-17-2015,10:58,METAR,Normal,240,2.0,,,9999.0,,8.9,7.7,30.09,1019.5,,,,,,,,,,,,,,,Clear,72000.0,,,,,,,,,
KRDR,08-17-2015,09:58,METAR,Normal,270,3.0,,,9999.0,,8.3,7.3,30.09,1019.5,,,,,,,,,,,,,,,Clear,72000.0,,,,,,,,,
KRDR,08-17-2015,08:58,METAR,Normal,270,3.0,,,9999.0,,8.7,7.4,30.08,1019.1,,,,,,,,,,,,,,,Clear,72000.0,,,,,,,,,
KRDR,08-17-2015,07:58,METAR,Calm,,0.0,,,9999.0,,11.6,8.4,30.07,1018.7,,,,,,,,,,,,,,,Clear,72000.0,,,,,,,,,
KRDR,08-17-2015,06:58,METAR,Normal,300,2.0,,,9999.0,,11.6,8.7,30.08,1019.1,,,,,,,,,,,,,,,Clear,72000.0,,,,,,,,,
KRDR,08-17-2015,05:58,METAR,Normal,300,5.0,,,9999.0,,11.5,8.6,30.08,1019.2,,,,,,,,,,,,,,,Clear,72000.0,,,,,,,,,
KRDR,08-17-2015,04:58,METAR,Normal,320,3.0,,,9999.0,,12.2,9.3,30.07,1018.9,,,,,,,,,,,,,,,Clear,72000.0,,,,,,,,,
KRDR,08-17-2015,03:58,METAR,Normal,330,5.0,,,9999.0,,14.5,9.8,30.07,1018.8,,,,,,,,,,,,,,,Clear,72000.0,,,,,,,,,
KRDR,08-17-2015,02:58,METAR,Normal,350,6.0,,,9999.0,,17.0,10.5,30.06,1018.4,,,,,,,,,,,,,,,Clear,72000.0,,,,,,,,,
KRDR,08-17-2015,01:58,METAR,Normal,320,4.0,,,9999.0,,18.2,11.5,30.05,1018.1,,,,,,,,,,,,,,,Clear,72000.0,,,,,,,,,
KRDR,08-17-2015,00:58,METAR,Normal,340,7.0,,,9999.0,,19.9,10.8,30.03,1017.4,,,,,,,,,,,,,,,Clear,72000.0,,,,,,,,,
KRDR,08-16-2015,23:58,METAR,Normal,340,11.0,,,9999.0,,22.2,10.8,30.02,1016.9,,,,,,,,,,,,,,,Clear,72000.0,,,,,,,,,
KRDR,08-16-2015,22:58,METAR,Normal,330,11.0,,,9999.0,,22.9,10.6,30.00,1016.2,,,,,,,,,,,,,,,Clear,72000.0,,,,,,,,,
KRDR,08-16-2015,21:58,METAR,Normal,340,12.0,21.0,,9999.0,,23.4,10.5,29.99,1015.8,,,,,,,,,,,,,,,Clear,72000.0,,,,,,,,,
KRDR,08-16-2015,20:58,METAR,Normal,350,11.0,19.0,,9999.0,,24.0,11.2,29.99,1015.8,,,,,,,,,,,,,,,Clear,72000.0,,,,,,,,,
KRDR,08-16-2015,19:58,METAR,Normal,340,13.0,20.0,,9999.0,,23.2,11.5,30.00,1016.0,,,,,,,,,,,,,,,Clear,72000.0,,,,,,,,,
KRDR,08-16-2015,19:20,SPECI,Normal,350,11.0,17.0,,9999.0,,23.0,12.0,30.00,,,,,,,,,,,,,,,,Clear,72000.0,,,,,,,,,
KRDR,08-16-2015,18:58,METAR,Normal,340,12.0,18.0,,9999.0,,22.3,11.7,29.98,1015.4,,,,,,,,,,,,,,,Clear,72000.0,,,,,,,,,
KRDR,08-16-2015,17:58,METAR,Normal,330,12.0,19.0,,9999.0,,19.9,10.9,29.99,1015.7,,,,,,,,,,,,,,,Clear,72000.0,,,,,,,,,
KRDR,08-16-2015,16:58,METAR,Normal,340,13.0,17.0,,9999.0,,18.0,10.1,29.98,1015.4,,,,,,,,,,,,,,,Clear,72000.0,,,,,,,,,
KRDR,08-16-2015,15:58,METAR,Normal,320,12.0,18.0,,9999.0,,17.3,9.9,29.98,1015.4,,,,,,,,,,,,,,,Clear,72000.0,,,,,,,,,
KRDR,08-16-2015,14:58,METAR,Normal,300,12.0,19.0,,9999.0,,16.8,10.3,29.98,1015.3,,,,,,,,,,,,,,,Clear,72000.0,,,,,,,,,
KRDR,08-16-2015,13:58,METAR,Normal,300,11.0,,,9999.0,,16.4,10.5,29.98,1015.3,,,,,,,,,,,,,,,Clear,72000.0,,,,,,,,,
KRDR,08-16-2015,12:58,METAR,Normal,280,11.0,,,9999.0,,16.3,11.0,29.98,1015.3,,,,,,,,,,,,,,,Clear,72000.0,,,,,,,,,
KRDR,08-16-2015,11:58,METAR,Normal,310,8.0,,,9999.0,,16.8,11.2,29.96,1014.6,,,,,,,,,,,,,,,Clear,72000.0,,,,,,,,,
KRDR,08-16-2015,10:58,METAR,Normal,300,7.0,,,9999.0,,16.8,11.8,29.94,1013.8,,,,,,,,,,,,,,,Clear,72000.0,,,,,,,,,
KRDR,08-16-2015,09:58,METAR,Normal,310,10.0,17.0,,9999.0,,18.8,12.0,29.89,1012.1,,,,,,,,,,,,,,,Clear,72000.0,,,,,,,,,
KRDR,08-16-2015,08:58,METAR,Normal,320,13.0,20.0,,9999.0,,20.4,12.4,29.83,1010.0,,,,,,,,,,,,,,,Clear,72000.0,,,,,,,,,
KRDR,08-16-2015,07:58,METAR,Normal,300,9.0,,,9999.0,,21.8,14.5,29.81,1009.3,,,,,,,,,,,,,,,Clear,72000.0,,,,,,,,,
KRDR,08-16-2015,06:58,METAR,Normal,330,10.0,,,9999.0,,23.8,14.2,29.82,1009.6,,,,,,,,,,,,,,,Clear,72000.0,,,,,,,,,
KRDR,08-16-2015,05:58,METAR,Normal,330,6.0,,,9999.0,,25.2,17.6,29.80,1008.9,,,,,,,,,,,,,,,Clear,72000.0,,,,,,,,,
KRDR,08-16-2015,04:58,METAR,Normal,310,8.0,,,9999.0,,25.3,19.0,29.77,1007.9,,,,,,,,,,,,,,,Clear,72000.0,,,,,,,,,
KRDR,08-16-2015,03:58,METAR,Normal,250,13.0,18.0,,9999.0,,28.3,21.3,29.73,1006.5,,,,,,,,,,,,,,,Clear,72000.0,,,,,,,,,
KRDR,08-16-2015,02:58,METAR,Normal,220,11.0,,,9999.0,,29.9,22.5,29.70,1005.5,,,,,,,,,,,,,,,Clear,72000.0,,,,,,,,,
KRDR,08-16-2015,01:58,METAR,Normal,190,17.0,23.0,,9999.0,,31.0,22.3,29.68,1004.9,,,,,,,,,,,,,,,Clear,72000.0,,,,,,,,,
KRDR,08-16-2015,00:58,METAR,Normal,210,12.0,20.0,,9999.0,,31.9,22.1,29.68,1004.9,,,,,,,,,,,,,,,Clear,72000.0,,,,,,,,,
KRDR,08-15-2015,23:58,METAR,Normal,210,20.0,27.0,/  KTS,9999.0,,33.0,22.0,29.69,1005.2,,,,,,,,,,,,,,,Clear,72000.0,,,,,,,,,
KRDR,08-15-2015,22:58,METAR,Normal,210,20.0,29.0,/  KTS,9999.0,,34.4,21.5,29.69,1005.2,,,,,,,,,,,,,,,Clear,72000.0,,,,,,,,,
KRDR,08-15-2015,21:58,METAR,Normal,200,18.0,24.0,,9999.0,,34.9,21.8,29.70,1005.5,,,,,,,,,,,,,,,Clear,72000.0,,,,,,,,,
KRDR,08-15-2015,20:58,METAR,Normal,200,19.0,25.0,/  KTS,9999.0,,33.6,22.0,29.72,1006.2,,,,,,,,,,,,,,,Clear,72000.0,,,,,,,,,
KRDR,08-15-2015,19:58,METAR,Normal,210,23.0,32.0,/  KTS,9999.0,,33.7,21.6,29.74,1006.9,,,,,,,,,,,,,,,Clear,72000.0,,,,,,,,,
KRDR,08-15-2015,18:58,METAR,Normal,200,20.0,28.0,/  KTS,9999.0,,33.4,21.5,29.76,1007.6,,,,,,,,,,,,,,,Clear,72000.0,,,,,,,,,
KRDR,08-15-2015,17:58,METAR,Normal,200,22.0,28.0,/  KTS,9999.0,,32.3,22.4,29.78,1008.2,,,,,,,,,,,,,,,Clear,72000.0,,,,,,,,,
KRDR,08-15-2015,16:58,METAR,Normal,200,21.0,25.0,/  KTS,9999.0,,30.6,22.6,29.81,1009.3,,,,,,,,,,,,,,,Clear,72000.0,,,,,,,,,
KRDR,08-15-2015,15:58,METAR,Normal,200,14.0,,,9999.0,,29.2,22.8,29.83,1010.0,,,,,,,,,,,,,,,Clear,72000.0,,,,,,,,,
KRDR,08-15-2015,14:58,METAR,Normal,200,16.0,22.0,,9999.0,,27.1,22.3,29.84,1010.4,,,,,,,,,,,,,,,Clear,72000.0,,,,,,,,,
KRDR,08-15-2015,13:58,METAR,Normal,200,11.0,19.0,,9999.0,,25.1,22.0,29.87,1011.4,,,,,,,,,,,,,,,Clear,72000.0,,,,,,,,,
KRDR,08-15-2015,12:58,METAR,Normal,200,11.0,,,9999.0,,23.0,21.4,29.88,1011.8,,,,,,,,,,,,,,,Clear,72000.0,,,,,,,,,
KRDR,08-15-2015,11:58,METAR,Normal,190,9.0,,,9999.0,,22.3,21.1,29.89,1012.0,,,,,,,,,,,,,,,Clear,72000.0,,,,,,,,,
KRDR,08-15-2015,10:58,METAR,Normal,170,7.0,,,9999.0,,22.3,21.2,29.90,1012.4,,,,,,,,,,,,,,,Clear,72000.0,,,,,,,,,
KRDR,08-15-2015,09:58,METAR,Normal,190,7.0,,,9999.0,,22.7,21.5,29.91,1012.7,,,,,,,,,,,,,,,Clear,72000.0,,,,,,,,,
KRDR,08-15-2015,08:58,METAR,Normal,200,8.0,,,9999.0,,23.4,22.2,29.93,1013.3,,,,,,,,,,,,,,,Clear,72000.0,,,,,,,,,
KRDR,08-15-2015,07:58,METAR,Normal,190,7.0,,,9999.0,,23.6,22.4,29.94,1013.6,,,,,,,,,,,,,,,Clear,72000.0,,,,,,,,,
KRDR,08-15-2015,06:58,METAR,Normal,200,9.0,,,9999.0,,24.4,22.3,29.95,1014.0,,,,,,,,,,,,,,,Clear,72000.0,,,,,,,,,
KRDR,08-15-2015,05:58,METAR,Normal,200,9.0,,,9999.0,,24.8,21.8,29.97,1014.7,,,,,,,,,,,,,,,Clear,72000.0,,,,,,,,,
KRDR,08-15-2015,04:58,METAR,Normal,210,7.0,,,9999.0,,24.4,21.6,29.97,1014.8,,,,,,,,,,,,,,,Clear,72000.0,,,,,,,,,
KRDR,08-15-2015,03:58,METAR,Normal,210,7.0,,,9999.0,,25.1,22.1,29.97,1014.8,,,,,,,,,,,,,,,Clear,72000.0,,,,,,,,,
KRDR,08-15-2015,02:58,METAR,Normal,200,8.0,,,9999.0,,26.0,22.4,29.97,1014.9,,,,,,,,,,,,,,,Clear,72000.0,,,,,,,,,
KRDR,08-15-2015,01:58,METAR,Normal,180,8.0,,,9999.0,,27.9,23.1,29.97,1014.9,,,,,,,,,,,,,,,Clear,72000.0,,,,,,,,,
KRDR,08-15-2015,00:58,METAR,Normal,170,9.0,,,9999.0,,30.4,23.0,29.96,1014.6,,,,,,,,,,,,,,,Clear,72000.0,,,,,,,,,
KRDR,08-14-2015,23:58,METAR,Normal,170,10.0,,,9999.0,,33.0,22.4,29.96,1014.6,,,,,,,,,,,,,,,Clear,72000.0,,,,,,,,,
KRDR,08-14-2015,22:58,METAR,Normal,180,14.0,,,9999.0,,34.5,21.2,29.97,1014.9,,,,,,,,,,,,,,,Clear,72000.0,,,,,,,,,
KRDR,08-14-2015,21:58,METAR,Normal,170,12.0,,,9999.0,,34.7,21.9,29.98,1015.2,,,,,,,,,,,,,,,Clear,72000.0,,,,,,,,,
KRDR,08-14-2015,20:58,METAR,Normal,,,,,,,35.1,20.9,29.99,1015.4,,,,,,,,,,,,,,,Clear,72000.0,,,,,,,,,
KRDR,08-14-2015,19:58,METAR,Normal,170,6.0,,,9999.0,,34.5,22.1,30.01,1016.1,,,,,,,,,,,,,,,Clear,72000.0,,,,,,,,,
KRDR,08-14-2015,18:58,METAR,Normal,190,7.0,,,,,33.8,21.6,30.01,1016.2,,,,,,,,,,,,,,,Clear,72000.0,,,,,,,,,
KRDR,08-14-2015,17:58,METAR,Normal,170,9.0,,,9999.0,,32.6,21.4,30.02,1016.5,,,,,,,,,,,,,,,Clear,72000.0,,,,,,,,,
KRDR,08-14-2015,16:58,METAR,Normal,160,9.0,,,9999.0,,30.7,21.7,30.03,1016.9,,,,,,,,,,,,,,,Clear,72000.0,,,,,,,,,
KRDR,08-14-2015,15:58,METAR,Normal,150,6.0,,,9999.0,,28.6,21.0,30.03,1016.9,,,,,,,,,,,,,,,Clear,72000.0,,,,,,,,,
KRDR,08-14-2015,14:58,METAR,Variable,,4.0,,,9999.0,,25.8,20.9,30.02,1016.6,,,,,,,,,,,,,,,Clear,72000.0,,,,,,,,,
KRDR,08-14-2015,13:58,METAR,Calm,,0.0,,,9999.0,,22.1,20.0,30.02,1016.7,,,,,,,,,,,,,,,Clear,72000.0,,,,,,,,,
KRDR,08-14-2015,12:58,METAR,Calm,,0.0,,,9999.0,,18.6,17.7,30.01,1016.3,,,,,,,,,,,,,,,Clear,72000.0,,,,,,,,,
KRDR,08-14-2015,11:58,METAR,Normal,350,2.0,,,9999.0,Mist,15.9,15.6,30.01,1016.3,10,,,,,,,,,,,,,,Clear,72000.0,,,,,,,,,
KRDR,08-14-2015,11:28,SPECI,Normal,340,3.0,,,9999.0,Mist,16.0,15.0,30.01,,10,,,,,,,,,,,,,,Clear,72000.0,,,,,,,,,
KRDR,08-14-2015,11:23,SPECI,Normal,340,2.0,,,1200.0,Mist,16.0,15.0,30.00,,10,,,,,,,,,,,,,,Clear,72000.0,,,,,,,,,
KRDR,08-14-2015,11:18,SPECI,Normal,340,2.0,,,800.0,Fog,16.0,16.0,30.00,,30,,,,,,,,,,,,,,Clear,72000.0,,,,,,,,,
KRDR,08-14-2015,10:58,METAR,Normal,340,2.0,,,9999.0,,17.7,17.2,30.00,1015.9,,,,,,,,,,,,,,,Clear,72000.0,,,,,,,,,
KRDR,08-14-2015,09:58,METAR,Normal,340,4.0,,,9999.0,,18.7,17.8,29.99,1015.5,,,,,,,,,,,,,,,Clear,72000.0,,,,,,,,,
KRDR,08-14-2015,08:58,METAR,Normal,360,4.0,,,9999.0,,19.7,18.5,29.98,1015.2,,,,,,,,,,,,,,,Clear,72000.0,,,,,,,,,
KRDR,08-14-2015,07:58,METAR,Normal,360,6.0,,,9999.0,,20.1,18.6,29.98,1015.2,,,,,,,,,,,,,,,Clear,72000.0,,,,,,,,,
KRDR,08-14-2015,06:58,METAR,Normal,330,4.0,,,9999.0,,19.9,18.4,29.96,1014.5,,,,,,,,,,,,,,,Clear,72000.0,,,,,,,,,
KRDR,08-14-2015,04:58,METAR,Normal,270,4.0,,,9999.0,,20.8,18.6,29.95,1014.1,,,,,,,,,,,,,,,Clear,72000.0,,,,,,,,,
KRDR,08-14-2015,03:58,METAR,Normal,280,3.0,,,9999.0,,21.3,18.8,29.94,1013.8,,,,,,,,,,,,,,,Clear,72000.0,,,,,,,,,
KRDR,08-14-2015,03:08,SPECI,Normal,260,3.0,,,9999.0,,22.0,19.0,29.92,,,,,,,,,,,,,,,,Clear,72000.0,,,,,,,,,
KRDR,08-14-2015,02:58,METAR,Calm,,0.0,,,9999.0,,22.9,19.6,29.92,1013.2,,,,,,,,,,,,,,,Clear,72000.0,,,,,,,,,
KRDR,08-14-2015,01:58,METAR,Normal,240,4.0,,,9999.0,,25.8,20.9,29.90,1012.5,,,,,,,,,,,,,,,Clear,72000.0,,,,,,,,,
KRDR,08-14-2015,00:58,METAR,Normal,230,5.0,,,9999.0,,29.9,21.3,29.89,1012.1,,,,,,,,,,,,,,,Clear,72000.0,,,,,,,,,
KRDR,08-13-2015,23:58,METAR,Normal,250,4.0,,,9999.0,,33.2,19.6,29.90,1012.4,,,,,,,,,,,,,,,Clear,72000.0,,,,,,,,,
KRDR,08-13-2015,22:58,METAR,Normal,280,3.0,,,9999.0,,33.7,19.6,29.90,1012.5,,,,,,,,,,,,,,,Clear,72000.0,,,,,,,,,
KRDR,08-13-2015,21:58,METAR,Normal,280,7.0,,,9999.0,,34.1,17.6,29.91,1012.8,,,,,,,,,,,,,,,Clear,72000.0,,,,,,,,,
KRDR,08-13-2015,20:58,METAR,Variable,,6.0,,,9999.0,,33.5,17.9,29.91,1012.8,,,,,,,,,,,,,,,Clear,72000.0,,,,,,,,,
KRDR,08-13-2015,19:58,METAR,Normal,260,5.0,,,9999.0,,32.2,19.1,29.92,1013.2,,,,,,,,,,,,,,,Clear,72000.0,,,,,,,,,
KRDR,08-13-2015,18:58,METAR,Normal,260,7.0,,,9999.0,,31.7,18.3,29.91,1012.9,,,,,,,,,,,,,,,Clear,72000.0,,,,,,,,,
KRDR,08-13-2015,17:58,METAR,Normal,230,6.0,,,9999.0,,31.6,19.4,29.92,1013.2,,,,,,,,,,,,,,,Clear,72000.0,,,,,,,,,
KRDR,08-13-2015,16:58,METAR,Normal,230,6.0,,,9999.0,,33.3,19.0,29.93,1013.5,,,,,,,,,,,,,,,Clear,72000.0,,,,,,,,,
KRDR,08-13-2015,15:59,METAR,Normal,290,1.0,,,9999.0,,30.3,20.7,29.92,1013.1,,,,,,,,,,,,,,,Clear,72000.0,,,,,,,,,
KRDR,08-13-2015,14:58,METAR,Normal,250,5.0,,,9999.0,,28.0,21.0,29.93,1013.5,,,,,,,,,,,,,,,Clear,72000.0,,,,,,,,,
KRDR,08-13-2015,13:58,METAR,Normal,280,6.0,,,9999.0,,25.0,20.0,29.92,1013.1,,,,,,,,,,,,,,,Clear,72000.0,,,,,,,,,
KRDR,08-13-2015,12:58,METAR,Normal,300,4.0,,,9999.0,,20.5,18.4,29.90,1012.5,,,,,,,,,,,,,,,Clear,72000.0,,,,,,,,,
KRDR,08-13-2015,11:58,METAR,Normal,290,3.0,,,9999.0,,19.7,17.3,29.90,1012.5,,,,,,,,,,,,,,,Clear,72000.0,,,,,,,,,
KRDR,08-13-2015,10:58,METAR,Normal,290,3.0,,,9999.0,,17.8,16.7,29.88,1011.8,,,,,,,,,,,,,,,Clear,72000.0,,,,,,,,,
KRDR,08-13-2015,09:58,METAR,Normal,300,2.0,,,9999.0,,17.7,16.3,29.86,1011.1,,,,,,,,,,,,,,,Clear,72000.0,,,,,,,,,
KRDR,08-13-2015,08:58,METAR,Normal,10,2.0,,,9999.0,,20.4,16.7,29.86,1011.1,,,,,,,,,,,,,,,Clear,72000.0,,,,,,,,,
KRDR,08-13-2015,07:58,METAR,Normal,290,7.0,,,9999.0,,19.7,17.0,29.86,1011.1,,,,,,,,,,,,,,,Clear,72000.0,,,,,,,,,
KRDR,08-13-2015,06:58,METAR,Normal,290,6.0,,,9999.0,,17.4,16.3,29.85,1010.8,,,,,,,,,,,,,,,Clear,72000.0,,,,,,,,,
KRDR,08-13-2015,05:58,METAR,Normal,320,3.0,,,9999.0,,18.2,17.0,29.86,1011.2,,,,,,,,,,,,,,,Clear,72000.0,,,,,,,,,
KRDR,08-13-2015,04:58,METAR,Normal,220,4.0,,,9999.0,,19.8,18.2,29.87,1011.5,,,,,,,,,,,,,,,Clear,72000.0,,,,,,,,,
KRDR,08-13-2015,03:58,METAR,Normal,50,6.0,,,9999.0,,22.8,19.0,29.85,,,,,,,,,,,,,,,,Clear,72000.0,,,,,,,,,
KRDR,08-13-2015,02:58,METAR,Normal,300,4.0,,,9999.0,,25.7,21.0,29.83,,,,,,,,,,,,,,,,Clear,72000.0,,,,,,,,,
KRDR,08-13-2015,01:58,METAR,Normal,240,6.0,,,9999.0,,28.0,23.3,29.81,,,,,,,,,,,,,,,,Clear,72000.0,,,,,,,,,
KRDR,08-13-2015,00:58,METAR,Normal,200,9.0,,,9999.0,,30.5,23.1,29.80,1009.1,,,,,,,,,,,,,,,Clear,72000.0,,,,,,,,,
KRDR,08-12-2015,23:58,METAR,Normal,200,12.0,,,9999.0,,32.2,22.9,29.81,1009.5,,,,,,,,,,,,,,,Clear,72000.0,,,,,,,,,
KRDR,08-12-2015,22:58,METAR,Normal,220,14.0,,,9999.0,,33.0,22.8,29.83,1010.2,,,,,,,,,,,,,,,Clear,72000.0,,,,,,,,,
KRDR,08-12-2015,21:58,METAR,Normal,220,15.0,24.0,/  KTS,9999.0,,33.7,22.1,29.84,1010.4,,,,,,,,,,,,,,,Clear,72000.0,,,,,,,,,
KRDR,08-12-2015,20:58,METAR,Normal,230,20.0,26.0,220/26KTS,9999.0,,33.4,21.5,29.86,1011.2,,,,,,,,,,,,,,,Clear,72000.0,,,,,,,,,
KRDR,08-12-2015,19:58,METAR,Normal,220,16.0,24.0,230/26KTS,,,33.2,20.5,29.89,1012.1,,,,,,,,,,,,,,,Clear,72000.0,,,,,,,,,
KRDR,08-12-2015,18:58,METAR,Normal,220,12.0,21.0,,9999.0,,33.4,21.0,29.90,1012.4,,,,,,,,,,,,,,,Clear,72000.0,,,,,,,,,
KRDR,08-12-2015,17:58,METAR,Normal,210,16.0,,,9999.0,,32.3,20.6,29.93,1013.5,,,,,,,,,,,,,,,Clear,72000.0,,,,,,,,,
KRDR,08-12-2015,16:58,METAR,Normal,220,14.0,18.0,,9999.0,,30.9,19.7,29.94,1013.8,,,,,,,,,,,,,,,Clear,72000.0,,,,,,,,,
KRDR,08-12-2015,15:58,METAR,Normal,200,13.0,,,9999.0,,29.1,18.8,29.96,1014.6,,,,,,,,,,,,,,,Clear,72000.0,,,,,,,,,
KRDR,08-12-2015,14:58,METAR,Normal,200,13.0,,,9999.0,,27.0,18.0,29.98,1015.3,,,,,,,,,,,,,,,Clear,72000.0,,,,,,,,,
KRDR,08-12-2015,13:58,METAR,Normal,200,11.0,,,9999.0,,22.7,16.6,29.99,1015.7,,,,,,,,,,,,,,,Clear,72000.0,,,,,,,,,
KRDR,08-12-2015,12:58,METAR,Normal,190,9.0,,,9999.0,,19.7,15.4,30.02,1016.7,,,,,,,,,,,,,,,Clear,72000.0,,,,,,,,,
KRDR,08-12-2015,11:58,METAR,Normal,200,8.0,,,9999.0,,16.3,14.4,30.03,1017.1,,,,,,,,,,,,,,,Clear,72000.0,,,,,,,,,
KRDR,08-12-2015,10:58,METAR,Normal,200,6.0,,,9999.0,,15.7,14.0,30.04,1017.4,,,,,,,,,,,,,,,Clear,72000.0,,,,,,,,,
KRDR,08-12-2015,09:58,METAR,Normal,190,8.0,,,9999.0,,16.9,14.4,30.05,1017.7,,,,,,,,,,,,,,,Clear,72000.0,,,,,,,,,
KRDR,08-12-2015,08:58,METAR,Normal,170,7.0,,,9999.0,,15.6,13.6,30.05,1017.7,,,,,,,,,,,,,,,Clear,72000.0,,,,,,,,,
KRDR,08-12-2015,07:58,METAR,Normal,170,7.0,,,9999.0,,17.0,14.2,30.07,1018.4,,,,,,,,,,,,,,,Clear,72000.0,,,,,,,,,
KRDR,08-12-2015,06:58,METAR,Normal,200,8.0,,,9999.0,,19.8,14.4,30.08,1018.7,,,,,,,,,,,,,,,Clear,72000.0,,,,,,,,,
KRDR,08-12-2015,05:58,METAR,Normal,190,8.0,,,9999.0,,20.4,14.8,30.08,1018.7,,,,,,,,,,,,,,,Clear,72000.0,,,,,,,,,
KRDR,08-12-2015,04:58,METAR,Normal,190,7.0,,,9999.0,,20.4,15.6,30.08,1018.7,,,,,,,,,,,,,,,Clear,72000.0,,,,,,,,,
KRDR,08-12-2015,03:58,METAR,Normal,200,7.0,,,9999.0,,21.0,15.1,30.09,1019.1,,,,,,,,,,,,,,,Clear,72000.0,,,,,,,,,
KRDR,08-12-2015,02:58,METAR,Normal,210,7.0,,,9999.0,,20.6,16.2,30.09,1019.1,,,,,,,,,,,,,,,Clear,72000.0,,,,,,,,,
KRDR,08-12-2015,01:58,METAR,Normal,190,7.0,,,9999.0,,23.1,16.9,30.08,1018.8,,,,,,,,,,,,,,,Clear,72000.0,,,,,,,,,
KRDR,08-12-2015,00:58,METAR,Normal,200,6.0,,,9999.0,,27.3,14.8,30.07,1018.5,,,,,,,,,,,,,,,Clear,72000.0,,,,,,,,,
KRDR,08-11-2015,23:58,METAR,Normal,210,10.0,,,9999.0,,29.4,15.1,30.08,1018.9,,,,,,,,,,,,,,,Clear,72000.0,,,,,,,,,
KRDR,08-11-2015,22:58,METAR,Normal,190,10.0,,,9999.0,,30.3,14.3,30.09,1019.2,,,,,,,,,,,,,,,Clear,72000.0,,,,,,,,,
KRDR,08-11-2015,21:58,METAR,Normal,240,8.0,,,9999.0,,30.7,15.0,30.10,1019.5,,,,,,,,,,,,,,,Clear,72000.0,,,,,,,,,
KRDR,08-11-2015,20:58,METAR,Normal,240,7.0,,,9999.0,,31.2,15.4,30.11,1019.9,,,,,,,,,,,,,,,Clear,72000.0,,,,,,,,,
KRDR,08-11-2015,19:58,METAR,Normal,260,5.0,,,9999.0,,30.8,14.2,30.12,1020.2,,,,,,,,,,,,,,,Clear,72000.0,,,,,,,,,
KRDR,08-11-2015,18:58,METAR,Normal,230,2.0,,,9999.0,,30.3,14.3,30.14,1020.9,,,,,,,,,,,,,,,Clear,72000.0,,,,,,,,,
KRDR,08-11-2015,17:58,METAR,Normal,200,7.0,,,9999.0,,29.3,15.5,30.15,1021.3,,,,,,,,,,,,,,,Clear,72000.0,,,,,,,,,
KRDR,08-11-2015,17:05,SPECI,Normal,220,5.0,,,9999.0,,28.0,16.0,30.17,,,,,,,,,,,,,,,,Clear,72000.0,,,,,,,,,
KRDR,08-11-2015,16:58,METAR,Normal,230,6.0,,,9999.0,,28.1,16.1,30.17,1021.9,,,,,,,,,,,,,,,Clear,72000.0,,,,,,,,,
KRDR,08-11-2015,15:58,METAR,Normal,230,7.0,,,9999.0,,26.3,15.3,30.17,1021.9,,,,,,,,,,,,,,,Clear,72000.0,,,,,,,,,
KRDR,08-11-2015,14:58,METAR,Normal,230,7.0,,,9999.0,,24.3,13.8,30.17,1021.9,,,,,,,,,,,,,,,Clear,72000.0,,,,,,,,,
KRDR,08-11-2015,13:58,METAR,Normal,230,5.0,,,9999.0,,21.4,14.2,30.18,1022.3,,,,,,,,,,,,,,,Clear,72000.0,,,,,,,,,
KRDR,08-11-2015,12:58,METAR,Normal,230,4.0,,,9999.0,,17.3,13.7,30.17,1021.9,,,,,,,,,,,,,,,Clear,72000.0,,,,,,,,,
KRDR,08-11-2015,11:58,METAR,Normal,230,3.0,,,9999.0,,12.6,11.3,30.16,1021.7,,,,,,,,,,,,,,,Clear,72000.0,,,,,,,,,
KRDR,08-11-2015,10:58,METAR,Normal,230,3.0,,,9999.0,,11.9,10.8,30.15,1021.3,,,,,,,,,,,,,,,Clear,72000.0,,,,,,,,,
KRDR,08-11-2015,09:58,METAR,Normal,240,3.0,,,9999.0,,11.8,10.8,30.14,1021.0,,,,,,,,,,,,,,,Clear,72000.0,,,,,,,,,
KRDR,08-11-2015,08:58,METAR,Normal,210,1.0,,,9999.0,,11.8,10.7,30.14,1021.0,,,,,,,,,,,,,,,Clear,72000.0,,,,,,,,,
KRDR,08-11-2015,07:58,METAR,Normal,210,3.0,,,9999.0,,12.3,11.1,30.14,1021.0,,,,,,,,,,,,,,,Clear,72000.0,,,,,,,,,
KRDR,08-11-2015,06:58,METAR,Normal,250,2.0,,,9999.0,,12.4,11.1,30.13,1020.6,,,,,,,,,,,,,,,Clear,72000.0,,,,,,,,,
KRDR,08-11-2015,05:58,METAR,Normal,250,3.0,,,9999.0,,13.2,11.8,30.12,1020.3,,,,,,,,,,,,,,,Clear,72000.0,,,,,,,,,
KRDR,08-11-2015,04:58,METAR,Normal,270,3.0,,,9999.0,,13.2,11.9,30.11,1020.0,,,,,,,,,,,,,,,Clear,72000.0,,,,,,,,,
KRDR,08-11-2015,03:58,METAR,Normal,340,2.0,,,9999.0,,14.6,12.6,30.10,1019.6,,,,,,,,,,,,,,,Clear,72000.0,,,,,,,,,
KRDR,08-11-2015,03:53,SPECI,Normal,340,2.0,,,9999.0,,15.0,13.0,30.10,,,,,,,,,,,,,,,,Clear,72000.0,,,,,,,,,
KRDR,08-11-2015,03:48,SPECI,Normal,340,2.0,,,9999.0,Mist,15.0,13.0,30.10,,10,,,,,,,,,,,,,,Clear,72000.0,,,,,,,,,
KRDR,08-11-2015,03:43,SPECI,Normal,330,2.0,,,9999.0,,15.0,13.0,30.10,,,,,,,,,,,,,,,,Clear,72000.0,,,,,,,,,
KRDR,08-11-2015,03:33,SPECI,Normal,310,2.0,,,9999.0,,15.0,13.0,30.09,,,,,,,,,,,,,,,,Clear,72000.0,,,,,,,,,
KRDR,08-11-2015,03:23,SPECI,Normal,320,2.0,,,9999.0,,16.0,13.0,30.09,,,,,,,,,,,,,,,,Clear,72000.0,,,,,,,,,
KRDR,08-11-2015,03:18,SPECI,Normal,330,2.0,,,9999.0,,16.0,13.0,30.09,,,,,,,,,,,,,,,,Clear,72000.0,,,,,,,,,
KRDR,08-11-2015,03:13,SPECI,Normal,350,3.0,,,9999.0,Haze Smoke or Dust,16.0,13.0,30.09,,05,,,,,,,,,,,,,,Clear,72000.0,,,,,,,,,
KRDR,08-11-2015,03:08,SPECI,Normal,10,2.0,,,6400.0,Haze Smoke or Dust,16.0,13.0,30.09,,05,,,,,,,,,,,,,,Clear,72000.0,,,,,,,,,
KRDR,08-11-2015,03:03,SPECI,Normal,360,2.0,,,8000.0,Haze Smoke or Dust,16.0,13.0,30.09,,05,,,,,,,,,,,,,,Clear,72000.0,,,,,,,,,
KRDR,08-11-2015,02:58,METAR,Normal,350,2.0,,,9999.0,,16.5,13.2,30.09,1019.3,,,,,,,,,,,,,,,Clear,72000.0,,,,,,,,,
KRDR,08-11-2015,02:51,SPECI,Normal,350,2.0,,,9999.0,,17.0,14.0,30.09,,,,,,,,,,,,,,,,Clear,72000.0,,,,,,,,,
KRDR,08-11-2015,02:43,SPECI,Normal,,,,,9999.0,,17.0,13.0,30.09,,,,,,,,,,,,,,,,Clear,72000.0,,,,,,,,,
KRDR,08-11-2015,02:33,SPECI,Normal,20,3.0,,,9999.0,,18.0,14.0,30.08,,,,,,,,,,,,,,,,Clear,72000.0,,,,,,,,,
KRDR,08-11-2015,01:58,METAR,Normal,20,3.0,,,9999.0,,20.3,13.6,30.07,1018.5,,,,,,,,,,,,,,,Clear,72000.0,,,,,,,,,
KRDR,08-11-2015,00:58,METAR,Normal,40,6.0,,,9999.0,,24.5,14.1,30.06,,,,,,,,,,,,,,,,Clear,72000.0,,,,,,,,,
KRDR,08-10-2015,23:58,METAR,Normal,30,10.0,,,9999.0,,26.7,12.9,30.07,,,,,,,,,,,,,,,,Clear,72000.0,,,,,,,,,
KRDR,08-10-2015,22:58,METAR,Normal,40,11.0,,,9999.0,,27.3,13.3,30.06,,,,,,,,,,,,,,,,Clear,72000.0,,,,,,,,,
KRDR,08-10-2015,21:58,METAR,Normal,10,8.0,,,9999.0,,28.1,14.3,30.06,,,,,,,,,,,,,,,,2/8 Mostly Clear,72000.0,6000.0,FEW,6000.0,,,,,,
KRDR,08-10-2015,20:58,METAR,Normal,360,11.0,,,9999.0,,26.9,13.9,30.07,,,,,,,,,,,,,,,,Clear,72000.0,,,,,,,,,
KRDR,08-10-2015,19:58,METAR,Normal,340,4.0,,,9999.0,,27.5,14.8,30.08,,,,,,,,,,,,,,,,2/8 Mostly Clear,72000.0,8000.0,FEW,8000.0,,,,,,
KRDR,08-10-2015,18:58,METAR,Normal,350,9.0,,,9999.0,,26.0,14.7,30.08,,,,,,,,,,,,,,,,Clear,72000.0,,,,,,,,,
KRDR,08-10-2015,17:58,METAR,Normal,320,6.0,,,9999.0,,27.1,15.4,30.09,,,,,,,,,,,,,,,,Clear,72000.0,,,,,,,,,
KRDR,08-10-2015,16:58,METAR,Normal,340,6.0,,,9999.0,,25.5,15.1,30.09,,,,,,,,,,,,,,,,Clear,72000.0,,,,,,,,,
KRDR,08-10-2015,15:58,METAR,Normal,330,5.0,,,9999.0,,24.5,15.3,30.09,,,,,,,,,,,,,,,,Clear,72000.0,,,,,,,,,
KRDR,08-10-2015,14:58,METAR,Variable,,4.0,,,9999.0,,22.9,15.2,30.09,,,,,,,,,,,,,,,,Clear,72000.0,,,,,,,,,
KRDR,08-10-2015,13:58,METAR,Variable,,1.0,,,9999.0,,20.2,14.8,30.08,1018.9,,,,,,,,,,,,,,,Clear,72000.0,,,,,,,,,
KRDR,08-10-2015,12:58,METAR,Calm,,0.0,,,9999.0,,16.8,13.6,30.08,1018.9,,,,,,,,,,,,,,,Clear,72000.0,,,,,,,,,
KRDR,08-10-2015,11:58,METAR,Calm,,0.0,,,9999.0,,12.5,11.3,30.06,1018.3,,,,,,,,,,,,,,,Clear,72000.0,,,,,,,,,
KRDR,08-10-2015,10:58,METAR,Calm,,0.0,,,9999.0,,12.5,11.5,30.05,1018.0,,,,,,,,,,,,,,,Clear,72000.0,,,,,,,,,
KRDR,08-10-2015,09:58,METAR,Normal,310,4.0,,,9999.0,,13.5,11.9,30.04,1017.6,,,,,,,,,,,,,,,Clear,72000.0,,,,,,,,,
KRDR,08-10-2015,08:58,METAR,Normal,280,3.0,,,9999.0,,14.0,12.4,30.04,1017.6,,,,,,,,,,,,,,,,10000.0,10000.0,BKN,10000.0,,,,,,
KRDR,08-10-2015,07:58,METAR,Normal,300,5.0,,,9999.0,,13.5,11.8,30.04,1017.6,,,,,,,,,,,,,,,Clear,72000.0,,,,,,,,,
KRDR,08-10-2015,06:58,METAR,Normal,310,4.0,,,9999.0,,14.2,12.4,30.03,1017.2,,,,,,,,,,,,,,,Clear,72000.0,,,,,,,,,
KRDR,08-10-2015,05:58,METAR,Normal,310,4.0,,,9999.0,,14.7,13.1,30.03,1017.2,,,,,,,,,,,,,,,Clear,72000.0,,,,,,,,,
KRDR,08-10-2015,04:58,METAR,Normal,320,4.0,,,9999.0,,16.2,14.0,30.02,1016.9,,,,,,,,,,,,,,,,10000.0,10000.0,OVC,10000.0,,,,,,
KRDR,08-10-2015,04:13,SPECI,Normal,320,3.0,,,9999.0,,16.0,14.0,30.01,,,,,,,,,,,,,,,,,10000.0,10000.0,BKN,10000.0,,,,,,
KRDR,08-10-2015,03:58,METAR,Normal,340,3.0,,,9999.0,,16.1,13.7,30.01,1016.6,,,,,,,,,,,,,,,,10000.0,10000.0,BKN,10000.0,,,,,,
KRDR,08-10-2015,03:53,SPECI,Normal,330,2.0,,,9999.0,,16.0,14.0,30.01,,,,,,,,,,,,,,,,,10000.0,10000.0,BKN,10000.0,,,,,,
KRDR,08-10-2015,02:58,METAR,Normal,360,4.0,,,9999.0,,17.1,14.1,30.00,1016.3,,,,,,,,,,,,,,,Clear,72000.0,,,,,,,,,
KRDR,08-10-2015,01:58,METAR,Normal,20,3.0,,,9999.0,,19.9,14.7,29.99,1015.9,,,,,,,,,,,,,,,Clear,72000.0,,,,,,,,,
KRDR,08-10-2015,00:58,METAR,Normal,40,7.0,,,9999.0,,24.1,14.4,29.98,1015.5,,,,,,,,,,,,,,,Clear,72000.0,,,,,,,,,
KRDR,08-09-2015,23:58,METAR,Normal,30,7.0,,,9999.0,,25.5,13.1,29.97,1015.2,,,,,,,,,,,,,,,Clear,72000.0,,,,,,,,,
KRDR,08-09-2015,22:58,METAR,Normal,10,5.0,,,9999.0,,26.2,13.6,29.97,1015.3,,,,,,,,,,,,,,,Clear,72000.0,,,,,,,,,
KRDR,08-09-2015,21:58,METAR,Variable,,6.0,,,9999.0,,26.4,13.1,29.97,1015.2,,,,,,,,,,,,,,,Clear,72000.0,,,,,,,,,
KRDR,08-09-2015,20:58,METAR,Normal,30,8.0,,,9999.0,,25.4,14.2,29.98,1015.6,,,,,,,,,,,,,,,2/8 Mostly Clear,72000.0,5500.0,FEW,5500.0,,,,,,
KRDR,08-09-2015,19:58,METAR,Variable,,4.0,,,9999.0,,26.1,13.6,29.98,1015.5,,,,,,,,,,,,,,,2/8 Mostly Clear,72000.0,5000.0,FEW,5000.0,,,,,,
KRDR,08-09-2015,18:58,METAR,Normal,30,5.0,,,9999.0,,25.9,14.0,29.99,1015.9,,,,,,,,,,,,,,,2/8 Mostly Clear,72000.0,4600.0,FEW,4600.0,,,,,,
KRDR,08-09-2015,17:58,METAR,Normal,350,7.0,,,9999.0,,25.0,14.8,29.99,1015.9,,,,,,,,,,,,,,,2/8 Mostly Clear,72000.0,4400.0,FEW,4400.0,,,,,,
KRDR,08-09-2015,16:58,METAR,Variable,,5.0,,,9999.0,,23.9,13.9,30.00,1016.2,,,,,,,,,,,,,,,Clear,72000.0,,,,,,,,,
KRDR,08-09-2015,15:58,METAR,Variable,,3.0,,,9999.0,,22.7,14.5,29.99,1015.9,,,,,,,,,,,,,,,Clear,72000.0,,,,,,,,,
KRDR,08-09-2015,14:58,METAR,Normal,20,5.0,,,9999.0,,21.5,14.6,29.98,1015.5,,,,,,,,,,,,,,,Clear,72000.0,,,,,,,,,
KRDR,08-09-2015,13:58,METAR,Normal,330,3.0,,,9999.0,,18.2,13.9,29.99,1015.9,,,,,,,,,,,,,,,Clear,72000.0,,,,,,,,,
KRDR,08-09-2015,12:58,METAR,Normal,300,3.0,,,9999.0,,17.0,14.2,29.97,1015.1,,,,,,,,,,,,,,,Clear,72000.0,,,,,,,,,
KRDR,08-09-2015,11:58,METAR,Normal,340,4.0,,,9999.0,,12.9,11.9,29.94,1014.2,,,,,,,,,,,,,,,Clear,72000.0,,,,,,,,,
KRDR,08-09-2015,10:58,METAR,Normal,290,1.0,,,9999.0,,12.3,11.2,29.94,1014.2,,,,,,,,,,,,,,,Clear,72000.0,,,,,,,,,
KRDR,08-09-2015,09:58,METAR,Normal,330,4.0,,,9999.0,,12.2,11.1,29.93,1013.8,,,,,,,,,,,,,,,Clear,72000.0,,,,,,,,,
KRDR,08-09-2015,08:58,METAR,Normal,290,2.0,,,9999.0,,12.4,11.3,29.93,1013.8,,,,,,,,,,,,,,,Clear,72000.0,,,,,,,,,
KRDR,08-09-2015,07:58,METAR,Normal,310,1.0,,,9999.0,,13.3,12.1,29.92,1013.5,,,,,,,,,,,,,,,Clear,72000.0,,,,,,,,,
KRDR,08-09-2015,06:58,METAR,Normal,320,3.0,,,9999.0,,12.9,11.7,29.92,1013.5,,,,,,,,,,,,,,,Clear,72000.0,,,,,,,,,
KRDR,08-09-2015,05:58,METAR,Normal,330,2.0,,,9999.0,,14.4,12.5,29.92,1013.4,,,,,,,,,,,,,,,Clear,72000.0,,,,,,,,,
KRDR,08-09-2015,04:58,METAR,Normal,310,4.0,,,9999.0,,15.0,12.8,29.91,1013.1,,,,,,,,,,,,,,,Clear,72000.0,,,,,,,,,
KRDR,08-09-2015,03:58,METAR,Normal,330,3.0,,,9999.0,,16.9,13.6,29.90,1012.7,,,,,,,,,,,,,,,Clear,72000.0,,,,,,,,,
KRDR,08-09-2015,02:58,METAR,Normal,330,6.0,,,9999.0,,18.4,13.6,29.88,1012.1,,,,,,,,,,,,,,,Clear,72000.0,,,,,,,,,
KRDR,08-09-2015,01:58,METAR,Normal,320,6.0,,,9999.0,,21.3,13.4,29.86,1011.4,,,,,,,,,,,,,,,Clear,72000.0,,,,,,,,,
KRDR,08-09-2015,00:58,METAR,Normal,310,5.0,,,9999.0,,24.2,14.7,29.85,1011.0,,,,,,,,,,,,,,,Clear,72000.0,,,,,,,,,
KRDR,08-08-2015,23:58,METAR,Normal,310,6.0,,,9999.0,,26.1,13.3,29.84,1010.8,,,,,,,,,,,,,,,Clear,72000.0,,,,,,,,,
KRDR,08-08-2015,22:58,METAR,Normal,290,9.0,,,9999.0,,27.0,13.2,29.84,1010.8,,,,,,,,,,,,,,,Clear,72000.0,,,,,,,,,
KRDR,08-08-2015,21:58,METAR,Normal,310,10.0,15.0,,9999.0,,27.3,13.0,29.84,1010.8,,,,,,,,,,,,,,,Clear,72000.0,,,,,,,,,
KRDR,08-08-2015,20:58,METAR,Normal,330,7.0,,,9999.0,,27.5,13.6,29.83,1010.4,,,,,,,,,,,,,,,Clear,72000.0,,,,,,,,,
KRDR,08-08-2015,19:58,METAR,Normal,300,8.0,16.0,,9999.0,,27.5,13.0,29.83,1010.4,,,,,,,,,,,,,,,Clear,72000.0,,,,,,,,,
KRDR,08-08-2015,18:58,METAR,Normal,320,7.0,,,9999.0,,27.4,14.2,29.84,1010.7,,,,,,,,,,,,,,,Clear,72000.0,,,,,,,,,
KRDR,08-08-2015,17:58,METAR,Normal,310,10.0,16.0,,9999.0,,26.7,13.0,29.84,1010.7,,,,,,,,,,,,,,,Clear,72000.0,,,,,,,,,
KRDR,08-08-2015,16:58,METAR,Variable,,4.0,,,9999.0,,26.2,14.6,29.85,1011.0,,,,,,,,,,,,,,,Clear,72000.0,,,,,,,,,
KRDR,08-08-2015,15:58,METAR,Normal,320,6.0,,,9999.0,,25.3,15.3,29.85,1011.0,,,,,,,,,,,,,,,Clear,72000.0,,,,,,,,,
KRDR,08-08-2015,14:58,METAR,Variable,,1.0,,,9999.0,,23.8,13.6,29.85,1011.0,,,,,,,,,,,,,,,Clear,72000.0,,,,,,,,,
KRDR,08-08-2015,13:58,METAR,Normal,320,5.0,,,9999.0,,21.0,15.1,29.85,1011.0,,,,,,,,,,,,,,,Clear,72000.0,,,,,,,,,
KRDR,08-08-2015,12:58,METAR,Calm,,0.0,,,9999.0,,17.1,13.7,29.84,1010.7,,,,,,,,,,,,,,,Clear,72000.0,,,,,,,,,
KRDR,08-08-2015,11:58,METAR,Calm,,0.0,,,9999.0,,12.3,10.5,29.83,1010.4,,,,,,,,,,,,,,,Clear,72000.0,,,,,,,,,
KRDR,08-08-2015,10:58,METAR,Normal,270,3.0,,,9999.0,,12.4,10.6,29.81,1009.7,,,,,,,,,,,,,,,Clear,72000.0,,,,,,,,,
KRDR,08-08-2015,09:58,METAR,Normal,230,5.0,,,9999.0,,12.4,10.9,29.81,1009.7,,,,,,,,,,,,,,,Clear,72000.0,,,,,,,,,
KRDR,08-08-2015,08:58,METAR,Calm,,0.0,,,9999.0,,13.8,11.1,29.81,1009.6,,,,,,,,,,,,,,,Clear,72000.0,,,,,,,,,
KRDR,08-08-2015,07:58,METAR,Normal,300,5.0,,,9999.0,,14.6,11.6,29.80,1009.3,,,,,,,,,,,,,,,Clear,72000.0,,,,,,,,,
KRDR,08-08-2015,06:58,METAR,Normal,310,3.0,,,9999.0,,14.6,12.4,29.80,1009.3,,,,,,,,,,,,,,,Clear,72000.0,,,,,,,,,
KRDR,08-08-2015,05:58,METAR,Normal,240,5.0,,,9999.0,,14.4,13.3,29.79,1009.0,,,,,,,,,,,,,,,Clear,72000.0,,,,,,,,,
KRDR,08-08-2015,04:58,METAR,Normal,230,4.0,,,9999.0,,16.2,15.0,29.78,1008.7,,,,,,,,,,,,,,,Clear,72000.0,,,,,,,,,
KRDR,08-08-2015,03:58,METAR,Normal,210,3.0,,,9999.0,,17.7,15.9,29.78,1008.7,,,,,,,,,,,,,,,Clear,72000.0,,,,,,,,,
KRDR,08-08-2015,03:53,SPECI,Normal,220,2.0,,,9999.0,,18.0,16.0,29.78,,,,,,,,,,,,,,,,Clear,72000.0,,,,,,,,,
KRDR,08-08-2015,03:43,SPECI,Normal,210,4.0,,,9999.0,,18.0,16.0,29.78,,,,,,,,,,,,,,,,Clear,72000.0,,,,,,,,,
KRDR,08-08-2015,02:58,METAR,Normal,200,7.0,,,9999.0,,19.8,17.2,29.78,1008.6,,,,,,,,,,,,,,,Clear,72000.0,,,,,,,,,
KRDR,08-08-2015,01:58,METAR,Normal,270,6.0,,,9999.0,,21.9,16.0,29.76,1007.9,,,,,,,,,,,,,,,Clear,72000.0,,,,,,,,,
KRDR,08-08-2015,00:58,METAR,Normal,290,4.0,,,9999.0,,26.8,16.3,29.75,1007.5,,,,,,,,,,,,,,,Clear,72000.0,,,,,,,,,
KRDR,08-07-2015,23:58,METAR,Normal,260,7.0,,,9999.0,,28.1,19.4,29.73,1007.0,,,,,,,,,,,,,TRACE,,4/8 Partly Cloudy,72000.0,5000.0,SCT,5000.0,,,,,,
KRDR,08-07-2015,22:58,METAR,Normal,250,4.0,,,9999.0,,26.9,19.4,29.74,1007.4,,,,,,,,,,,TRACE,,,,2/8 Mostly Clear,72000.0,5500.0,FEW,5500.0,,,,,,
KRDR,08-07-2015,22:47,SPECI,Normal,240,6.0,21.0,,9999.0,,27.0,19.0,29.75,,,,,,,,,,,,,,,,2/8 Mostly Clear,72000.0,6000.0,FEW,6000.0,,,,,,
KRDR,08-07-2015,22:38,SPECI,Normal,220,15.0,21.0,,9999.0,Light Rain,28.0,19.0,29.75,,61,,,,,,,,,,,,,,2/8 Mostly Clear,72000.0,6000.0,FEW,6000.0,,,,,,
KRDR,08-07-2015,21:58,METAR,Normal,220,11.0,,,9999.0,,29.7,17.6,29.75,1007.6,,,,,,,,,,,,,,,Clear,72000.0,,,,,,,,,
KRDR,08-07-2015,20:58,METAR,Normal,240,9.0,,,9999.0,,29.2,18.1,29.76,1007.9,,,,,,,,,,,,,,,Clear,72000.0,,,,,,,,,
KRDR,08-07-2015,19:58,METAR,Normal,220,6.0,,,9999.0,,28.9,17.6,29.78,1008.6,,,,,,,,,,,,,,,Clear,72000.0,,,,,,,,,
KRDR,08-07-2015,18:58,METAR,Normal,270,5.0,,,9999.0,,27.8,18.0,29.79,1009.0,,,,,,,,,,,,,,,Clear,72000.0,,,,,,,,,
KRDR,08-07-2015,17:58,METAR,Normal,240,6.0,,,9999.0,,26.9,17.8,29.80,1009.3,,,,,,,,,,,,,,,Clear,72000.0,,,,,,,,,
KRDR,08-07-2015,16:58,METAR,Variable,,5.0,,,9999.0,,25.0,17.8,29.80,1009.3,,,,,,,,,,,,,,,Clear,72000.0,,,,,,,,,
KRDR,08-07-2015,15:58,METAR,Normal,270,5.0,,,9999.0,,23.8,17.6,29.81,1009.7,,,,,,,,,,,,,,,Clear,72000.0,,,,,,,,,
KRDR,08-07-2015,14:58,METAR,Variable,,3.0,,,9999.0,,22.4,17.5,29.82,1010.0,,,,,,,,,,,,,,,Clear,72000.0,,,,,,,,,
KRDR,08-07-2015,13:58,METAR,Normal,290,2.0,,,9999.0,,20.5,17.4,29.81,1009.6,,,,,,,,,,,,,,,Clear,72000.0,,,,,,,,,
KRDR,08-07-2015,12:58,METAR,Normal,310,4.0,,,9999.0,,17.3,16.2,29.81,1009.7,,,,,,,,,,,,,,,Clear,72000.0,,,,,,,,,
KRDR,08-07-2015,11:58,METAR,Normal,290,3.0,,,9999.0,,13.6,13.2,29.80,1009.5,,,,,,,,,,,,,,,Clear,72000.0,,,,,,,,,
KRDR,08-07-2015,11:53,SPECI,Normal,290,4.0,,,4800.0,Mist,13.0,13.0,29.80,,10,,,,,,,,,,,,,,Clear,72000.0,,,,,,,,,
KRDR,08-07-2015,11:28,SPECI,Normal,270,3.0,,,4800.0,Mist,13.0,13.0,29.79,,10,,,,,,,,,,,,,,Clear,72000.0,,,,,,,,,
KRDR,08-07-2015,11:18,SPECI,Normal,260,3.0,,,2800.0,Mist,13.0,12.0,29.79,,10,,,,,,,,,,,,,,Clear,72000.0,,,,,,,,,
KRDR,08-07-2015,11:03,SPECI,Normal,250,3.0,,,9999.0,,13.0,13.0,29.78,,,,,,,,,,,,,,,,Clear,72000.0,,,,,,,,,
KRDR,08-07-2015,10:58,METAR,Normal,210,2.0,,,9999.0,,13.3,13.0,29.77,1008.5,,,,,,,,,,,,,,,Clear,72000.0,,,,,,,,,
KRDR,08-07-2015,10:53,SPECI,Normal,230,1.0,,,9999.0,,13.0,13.0,29.77,,,,,,,,,,,,,,,,Clear,72000.0,,,,,,,,,
KRDR,08-07-2015,10:33,SPECI,Normal,270,2.0,,,9999.0,,14.0,13.0,29.78,,,,,,,,,,,,,,,,Clear,72000.0,,,,,,,,,
KRDR,08-07-2015,10:28,SPECI,Normal,280,3.0,,,8000.0,Mist,13.0,13.0,29.77,,10,,,,,,,,,,,,,,Clear,72000.0,,,,,,,,,
KRDR,08-07-2015,10:23,SPECI,Normal,280,3.0,,,4800.0,Mist,13.0,13.0,29.77,,10,,,,,,,,,,,,,,Clear,72000.0,,,,,,,,,
KRDR,08-07-2015,10:18,SPECI,Normal,280,4.0,,,4800.0,Mist,13.0,13.0,29.77,,10,,,,,,,,,,,,,,Clear,72000.0,,,,,,,,,
KRDR,08-07-2015,09:58,METAR,Normal,270,4.0,,,9999.0,,14.1,13.8,29.77,1008.4,,,,,,,,,,,,,,,Clear,72000.0,,,,,,,,,
KRDR,08-07-2015,09:53,SPECI,Normal,260,4.0,,,9999.0,,14.0,14.0,29.76,,,,,,,,,,,,,,,,Clear,72000.0,,,,,,,,,
KRDR,08-07-2015,09:48,SPECI,Normal,250,2.0,,,8000.0,Mist,14.0,14.0,29.76,,10,,,,,,,,,,,,,,Clear,72000.0,,,,,,,,,
KRDR,08-07-2015,09:43,SPECI,Normal,260,2.0,,,6400.0,Mist,14.0,14.0,29.76,,10,,,,,,,,,,,,,,Clear,72000.0,,,,,,,,,
KRDR,08-07-2015,09:38,SPECI,Normal,260,2.0,,,8000.0,Mist,14.0,14.0,29.76,,10,,,,,,,,,,,,,,Clear,72000.0,,,,,,,,,
KRDR,08-07-2015,08:58,METAR,Normal,320,4.0,,,9999.0,,14.8,14.5,29.76,1008.0,,,,,,,,,,,,,,,Clear,72000.0,,,,,,,,,
KRDR,08-07-2015,08:08,SPECI,Normal,320,5.0,,,9999.0,,15.0,14.0,29.75,,,,,,,,,,,,,,,,Clear,72000.0,,,,,,,,,
KRDR,08-07-2015,08:03,SPECI,Normal,320,5.0,,,9999.0,,14.0,14.0,29.75,,,,,,,,,,,,,,,,Clear,72000.0,,,,,,,,,
KRDR,08-07-2015,07:58,METAR,Normal,330,5.0,,,9999.0,Mist,14.3,13.9,29.75,1007.8,10,,,,,,,,,,,,,,Clear,72000.0,,,,,,,,,
KRDR,08-07-2015,07:53,SPECI,Normal,330,4.0,,,6400.0,Mist,14.0,14.0,29.75,,10,,,,,,,,,,,,,,Clear,72000.0,,,,,,,,,
KRDR,08-07-2015,07:48,SPECI,Normal,330,4.0,,,6400.0,Mist,15.0,14.0,29.75,,10,,,,,,,,,,,,,,Clear,72000.0,,,,,,,,,
KRDR,08-07-2015,07:43,SPECI,Normal,330,3.0,,,9999.0,,15.0,14.0,29.75,,,,,,,,,,,,,,,,Clear,72000.0,,,,,,,,,
KRDR,08-07-2015,07:33,SPECI,Normal,350,2.0,,,9999.0,,15.0,15.0,29.75,,,,,,,,,,,,,,,,Clear,72000.0,,,,,,,,,
KRDR,08-07-2015,07:18,SPECI,Normal,350,3.0,,,9999.0,,15.0,15.0,29.75,,,,,,,,,,,,,,,,Clear,72000.0,,,,,,,,,
KRDR,08-07-2015,06:58,METAR,Normal,350,3.0,,,9999.0,,15.9,15.4,29.76,1008.0,,,,,,,,,,,,,,,Clear,72000.0,,,,,,,,,
KRDR,08-07-2015,06:03,SPECI,Normal,330,4.0,,,9999.0,,15.0,15.0,29.76,,,,,,,,,,,,,,,,Clear,72000.0,,,,,,,,,
KRDR,08-07-2015,05:58,METAR,Normal,320,5.0,,,9999.0,,15.6,15.1,29.76,1008.1,,,,,,,,,,,,,,,Clear,72000.0,,,,,,,,,
KRDR,08-07-2015,05:53,SPECI,Normal,320,3.0,,,9999.0,,16.0,15.0,29.76,,,,,,,,,,,,,,,,Clear,72000.0,,,,,,,,,
KRDR,08-07-2015,04:58,METAR,Normal,340,2.0,,,9999.0,,17.2,16.4,29.75,1007.8,,,,,,,,,,,,,,,Clear,72000.0,,,,,,,,,
KRDR,08-07-2015,03:58,METAR,Calm,,0.0,,,9999.0,,18.7,17.2,29.75,1007.7,,,,,,,,,,,,,,,Clear,72000.0,,,,,,,,,
KRDR,08-07-2015,03:18,SPECI,Normal,260,2.0,,,9999.0,,18.0,17.0,29.75,,,,,,,,,,,,,,,,Clear,72000.0,,,,,,,,,
KRDR,08-07-2015,03:08,SPECI,Normal,270,3.0,,,9999.0,,18.0,17.0,29.75,,,,,,,,,,,,,,,,Clear,72000.0,,,,,,,,,
KRDR,08-07-2015,02:58,METAR,Normal,300,2.0,,,9999.0,,19.2,17.4,29.75,1007.7,,,,,,,,,,,,,,,Clear,72000.0,,,,,,,,,
KRDR,08-07-2015,01:58,METAR,Normal,60,3.0,,,9999.0,,21.6,17.6,29.73,1007.0,,,,,,,,,,,,,,,Clear,72000.0,,,,,,,,,
KRDR,08-07-2015,00:58,METAR,Normal,30,3.0,,,9999.0,,21.8,18.1,29.72,1006.7,,,,,,,,,,,,,,,Clear,72000.0,,,,,,,,,
KRDR,08-06-2015,23:58,METAR,Normal,10,4.0,,,9999.0,,23.1,18.0,29.72,1006.7,,,,,,,,,,,,,,,Clear,72000.0,,,,,,,,,
KRDR,08-06-2015,22:58,METAR,Normal,10,3.0,,,9999.0,,23.5,17.8,29.72,1006.7,,,,,,,,,,,,,,,Clear,72000.0,,,,,,,,,
KRDR,08-06-2015,21:58,METAR,Normal,320,4.0,,,9999.0,,24.4,17.7,29.72,1006.6,,,,,,,,,,,,,,,Clear,72000.0,,,,,,,,,
KRDR,08-06-2015,20:58,METAR,Normal,60,3.0,,,9999.0,,24.3,17.0,29.73,1007.0,,,,,,,,,,,,,,,Clear,72000.0,,,,,,,,,
KRDR,08-06-2015,19:58,METAR,Variable,,2.0,,,9999.0,,23.8,17.6,29.74,1007.2,,,,,,,,,,,,,,,2/8 Mostly Clear,72000.0,2300.0,FEW,2300.0,,,,,,
KRDR,08-06-2015,18:58,METAR,Normal,10,6.0,,,9999.0,,22.6,17.2,29.73,1006.9,,,,,,,,,,,,,,,Clear,72000.0,,,,,,,,,
KRDR,08-06-2015,17:58,METAR,Normal,340,1.0,,,9999.0,,22.5,17.1,29.74,1007.3,,,,,,,,,,,,,,,Clear,72000.0,,,,,,,,,
KRDR,08-06-2015,17:33,SPECI,Normal,340,4.0,,,9999.0,,23.0,17.0,29.74,,,,,,,,,,,,,,,,4/8 Partly Cloudy,72000.0,1700.0,SCT,1700.0,,,,,,
KRDR,08-06-2015,17:13,SPECI,Normal,10,5.0,,,9999.0,,22.0,17.0,29.75,,,,,,,,,,,,,,,,,1500.0,1500.0,BKN,1500.0,,,,,,
KRDR,08-06-2015,16:58,METAR,Normal,320,5.0,,,9999.0,,21.1,17.3,29.75,1007.6,,,,,,,,,,,,,,,,1400.0,1400.0,OVC,1400.0,,,,,,
KRDR,08-06-2015,15:58,METAR,Normal,290,4.0,,,9999.0,,20.4,17.1,29.76,1008.0,,,,,,,,,,,,,,,,1300.0,1300.0,OVC,1300.0,,,,,,
KRDR,08-06-2015,14:58,METAR,Normal,310,3.0,,,9999.0,,20.5,17.0,29.77,1008.3,,,,,,,,,,,,,,,,1200.0,1200.0,OVC,1200.0,,,,,,
KRDR,08-06-2015,14:46,SPECI,Variable,,2.0,,,9999.0,,20.0,17.0,29.76,,,,,,,,,,,,,,,,,1200.0,1200.0,OVC,1200.0,,,,,,
KRDR,08-06-2015,14:16,SPECI,Normal,350,4.0,,,9999.0,,20.0,17.0,29.75,,,,,,,,,,,,,,,,,1100.0,1100.0,BKN,1100.0,,,,,,
KRDR,08-06-2015,14:06,SPECI,Normal,340,5.0,,,9999.0,,20.0,16.0,29.75,,,,,,,,,,,,,,,,2/8 Mostly Clear,72000.0,1100.0,FEW,1100.0,,,,,,
KRDR,08-06-2015,13:58,METAR,Normal,350,5.0,,,9999.0,,19.6,16.4,29.75,1007.6,,,,,,,,,,,,,,,Clear,72000.0,,,,,,,,,
KRDR,08-06-2015,12:58,METAR,Normal,310,4.0,,,9999.0,,18.2,15.9,29.76,1008.0,,,,,,,,,,,,,,,Clear,72000.0,,,,,,,,,
KRDR,08-06-2015,11:58,METAR,Normal,190,2.0,,,9999.0,,15.1,14.3,29.77,1008.3,,,,,,,,,,,,,,,Clear,72000.0,,,,,,,,,
KRDR,08-06-2015,10:58,METAR,Normal,210,4.0,,,9999.0,,15.7,14.4,29.76,1008.0,,,,,,,,,,,,,,,Clear,72000.0,,,,,,,,,
KRDR,08-06-2015,09:58,METAR,Normal,180,6.0,,,9999.0,,16.8,14.8,29.74,1007.3,,,,,,,,,,,,,,,Clear,72000.0,,,,,,,,,
KRDR,08-06-2015,08:58,METAR,Normal,190,7.0,,,9999.0,,17.7,14.7,29.77,1008.3,,,,,,,,,,,,,,,Clear,72000.0,,,,,,,,,
KRDR,08-06-2015,07:58,METAR,Normal,190,7.0,,,9999.0,,18.8,14.6,29.79,1009.0,,,,,,,,,,,,,,,2/8 Mostly Clear,72000.0,5000.0,FEW,5000.0,,,,,,
KRDR,08-06-2015,06:58,METAR,Normal,190,10.0,,,9999.0,,19.9,14.1,29.81,1009.6,,,,,,,,,,,,,,,4/8 Partly Cloudy,72000.0,5500.0,SCT,5500.0,,,,,,
KRDR,08-06-2015,05:58,METAR,Normal,180,10.0,,,9999.0,,20.1,14.2,29.82,1009.9,,,,,,,,,,,,,,,4/8 Partly Cloudy,72000.0,5500.0,FEW,5500.0,SCT,11000.0,,,,
KRDR,08-06-2015,04:58,METAR,Normal,180,8.0,,,9999.0,,20.3,14.6,29.84,1010.7,,,,,,,,,,,,,,,,5500.0,5500.0,BKN,5500.0,,,,,,
KRDR,08-06-2015,03:58,METAR,Normal,180,6.0,,,9999.0,,21.0,15.0,29.85,1011.0,,,,,,,,,,,,,,,,6000.0,6000.0,BKN,6000.0,,,,,,
KRDR,08-06-2015,02:58,METAR,Normal,170,7.0,,,9999.0,,21.8,15.2,29.86,1011.3,,,,,,,,,,,,,,,,7000.0,7000.0,BKN,7000.0,OVC,9600.0,,,,
KRDR,08-06-2015,01:58,METAR,Normal,150,8.0,,,9999.0,,22.9,14.5,29.86,1011.4,,,,,,,,,,,,,,,,9000.0,9000.0,BKN,9100.0,OVC,11000.0,,,,
KRDR,08-06-2015,00:58,METAR,Normal,170,8.0,,,9999.0,,24.2,14.9,29.86,1011.4,,,,,,,,,,,,,,,2/8 Mostly Clear,72000.0,11000.0,FEW,11000.0,,,,,,
KRDR,08-05-2015,23:58,METAR,Normal,160,10.0,,,9999.0,,25.8,15.2,29.87,1011.8,,,,,,,,,,,,,,,,5500.0,5500.0,BKN,5500.0,,,,,,
KRDR,08-05-2015,22:58,METAR,Normal,160,11.0,,,9999.0,,25.4,16.6,29.90,1012.9,,,,,,,,,,,,,,,,5500.0,5500.0,BKN,5500.0,,,,,,
KRDR,08-05-2015,21:58,METAR,Normal,160,9.0,,,9999.0,,24.6,17.0,29.92,1013.6,,,,,,,,,,,,,,,,12000.0,12000.0,BKN,12000.0,,,,,,
KRDR,08-05-2015,20:58,METAR,Normal,180,12.0,,,9999.0,,25.1,17.2,29.94,1014.3,,,,,,,,,,,,,,,2/8 Mostly Clear,72000.0,12000.0,FEW,12000.0,,,,,,
KRDR,08-05-2015,19:58,METAR,Normal,170,12.0,,,9999.0,,24.3,16.7,29.94,1014.3,,,,,,,,,,,,,,,Clear,72000.0,,,,,,,,,
KRDR,08-05-2015,18:58,METAR,Normal,150,12.0,,,9999.0,,24.7,16.2,29.95,1014.6,,,,,,,,,,,,,,,2/8 Mostly Clear,72000.0,10000.0,FEW,10000.0,,,,,,
KRDR,08-05-2015,17:58,METAR,Normal,170,11.0,,,9999.0,,25.2,15.1,29.97,1015.1,,,,,,,,,,,,,,,Clear,72000.0,,,,,,,,,
KRDR,08-05-2015,16:58,METAR,Normal,150,9.0,,,9999.0,,23.6,14.2,30.00,1016.2,,,,,,,,,,,,,,,Clear,72000.0,,,,,,,,,
KRDR,08-05-2015,15:58,METAR,Normal,160,8.0,,,9999.0,,21.3,14.2,30.00,1016.2,,,,,,,,,,,,,,,Clear,72000.0,,,,,,,,,
KRDR,08-05-2015,14:58,METAR,Normal,160,7.0,,,9999.0,,20.4,13.7,30.00,1016.3,,,,,,,,,,,,,,,Clear,72000.0,,,,,,,,,
KRDR,08-05-2015,13:58,METAR,Normal,160,6.0,,,9999.0,,17.9,13.3,30.01,1016.6,,,,,,,,,,,,,,,Clear,72000.0,,,,,,,,,
KRDR,08-05-2015,12:58,METAR,Normal,160,6.0,,,9999.0,,15.1,12.7,30.02,1017.0,,,,,,,,,,,,,,,,7000.0,7000.0,BKN,7000.0,,,,,,
KRDR,08-05-2015,11:58,METAR,Normal,140,3.0,,,9999.0,,11.6,10.2,30.03,1017.4,,,,,,,,,,,,,,,Clear,72000.0,,,,,,,,,
KRDR,08-05-2015,10:58,METAR,Normal,170,3.0,,,9999.0,,11.9,10.5,30.02,1017.0,,,,,,,,,,,,,,,Clear,72000.0,,,,,,,,,
KRDR,08-05-2015,09:58,METAR,Normal,210,4.0,,,9999.0,,10.1,9.3,30.03,1017.4,,,,,,,,,,,,,,,Clear,72000.0,,,,,,,,,
KRDR,08-05-2015,08:58,METAR,Calm,,0.0,,,9999.0,,10.6,9.9,30.03,1017.4,,,,,,,,,,,,,,,Clear,72000.0,,,,,,,,,
KRDR,08-05-2015,07:58,METAR,Calm,,0.0,,,9999.0,,10.8,10.0,30.04,1017.7,,,,,,,,,,,,,,,Clear,72000.0,,,,,,,,,
KRDR,08-05-2015,06:58,METAR,Variable,,1.0,,,9999.0,,13.5,11.4,30.04,1017.7,,,,,,,,,,,,,,,Clear,72000.0,,,,,,,,,
KRDR,08-05-2015,05:58,METAR,Normal,70,4.0,,,9999.0,,16.1,12.2,30.05,1017.9,,,,,,,,,,,,,,,Clear,72000.0,,,,,,,,,
KRDR,08-05-2015,04:58,METAR,Normal,80,6.0,,,9999.0,,17.0,12.6,30.04,1017.6,,,,,,,,,,,,,,,Clear,72000.0,,,,,,,,,
KRDR,08-05-2015,03:58,METAR,Normal,60,6.0,,,9999.0,,17.8,12.2,30.04,1017.6,,,,,,,,,,,,,,,Clear,72000.0,,,,,,,,,
KRDR,08-05-2015,02:58,METAR,Normal,70,6.0,,,9999.0,,16.7,10.7,30.02,1017.0,,,,,,,,,,,,,,,Clear,72000.0,,,,,,,,,
KRDR,08-05-2015,01:58,METAR,Normal,70,5.0,,,9999.0,,20.3,11.9,30.01,1016.7,,,,,,,,,,,,,,,Clear,72000.0,,,,,,,,,
KRDR,08-05-2015,00:58,METAR,Normal,20,5.0,,,9999.0,,22.2,12.3,30.00,1016.3,,,,,,,,,,,,,,,Clear,72000.0,,,,,,,,,
KRDR,08-04-2015,23:58,METAR,Normal,20,6.0,,,9999.0,,23.5,11.3,30.00,1016.4,,,,,,,,,,,,,,,Clear,72000.0,,,,,,,,,
KRDR,08-04-2015,22:58,METAR,Normal,20,4.0,,,9999.0,,24.2,12.1,30.01,1016.7,,,,,,,,,,,,,,,Clear,72000.0,,,,,,,,,
KRDR,08-04-2015,21:58,METAR,Variable,30,7.0,,,9999.0,,24.2,12.1,30.00,1016.4,,,,,,,,,,,,,,,Clear,72000.0,,,,,,,,,
KRDR,08-04-2015,20:58,METAR,Normal,20,6.0,,,9999.0,,24.4,12.8,30.01,1016.7,,,,,,,,,,,,,,,Clear,72000.0,,,,,,,,,
KRDR,08-04-2015,19:58,METAR,Variable,,1.0,,,9999.0,,23.8,11.4,30.01,1016.7,,,,,,,,,,,,,,,Clear,72000.0,,,,,,,,,
KRDR,08-04-2015,18:58,METAR,Variable,,5.0,,,9999.0,,23.6,12.6,30.02,1017.0,,,,,,,,,,,,,,,Clear,72000.0,,,,,,,,,
KRDR,08-04-2015,17:58,METAR,Variable,,4.0,,,9999.0,,22.6,12.1,30.02,1017.0,,,,,,,,,,,,,,,Clear,72000.0,,,,,,,,,
KRDR,08-04-2015,16:58,METAR,Normal,350,5.0,,,9999.0,,21.1,12.3,30.03,1017.4,,,,,,,,,,,,,,,Clear,72000.0,,,,,,,,,
KRDR,08-04-2015,15:58,METAR,Variable,,2.0,,,9999.0,,20.0,12.3,30.04,1017.8,,,,,,,,,,,,,,,Clear,72000.0,,,,,,,,,
KRDR,08-04-2015,14:58,METAR,Normal,20,5.0,,,9999.0,,18.3,12.4,30.04,1017.8,,,,,,,,,,,,,,,Clear,72000.0,,,,,,,,,
KRDR,08-04-2015,13:58,METAR,Normal,20,6.0,,,9999.0,,16.0,12.1,30.03,1017.4,,,,,,,,,,,,,,,Clear,72000.0,,,,,,,,,
KRDR,08-04-2015,12:58,METAR,Normal,10,4.0,,,9999.0,,13.2,10.9,30.02,1017.0,,,,,,,,,,,,,,,Clear,72000.0,,,,,,,,,
KRDR,08-04-2015,11:58,METAR,Normal,360,2.0,,,9999.0,,10.0,8.7,29.99,1016.1,,,,,,,,,,,,,,,Clear,72000.0,,,,,,,,,
KRDR,08-04-2015,10:58,METAR,Normal,330,4.0,,,9999.0,,9.9,8.3,29.97,1015.3,,,,,,,,,,,,,,,Clear,72000.0,,,,,,,,,
KRDR,08-04-2015,09:58,METAR,Normal,360,6.0,,,9999.0,,9.1,8.0,29.96,1015.0,,,,,,,,,,,,,,,Clear,72000.0,,,,,,,,,
KRDR,08-04-2015,08:58,METAR,Normal,320,5.0,,,9999.0,,10.3,8.7,29.96,1015.0,,,,,,,,,,,,,,,Clear,72000.0,,,,,,,,,
KRDR,08-04-2015,07:58,METAR,Normal,350,4.0,,,9999.0,,10.9,9.1,29.95,1014.6,,,,,,,,,,,,,,,Clear,72000.0,,,,,,,,,
KRDR,08-04-2015,06:58,METAR,Normal,330,3.0,,,9999.0,,11.9,9.6,29.95,1014.6,,,,,,,,,,,,,,,Clear,72000.0,,,,,,,,,
KRDR,08-04-2015,05:58,METAR,Normal,330,5.0,,,9999.0,,11.8,9.3,29.94,1014.3,,,,,,,,,,,,,,,Clear,72000.0,,,,,,,,,
KRDR,08-04-2015,04:58,METAR,Normal,320,3.0,,,9999.0,,14.1,9.3,29.93,1013.9,,,,,,,,,,,,,,,Clear,72000.0,,,,,,,,,
KRDR,08-04-2015,03:58,METAR,Normal,260,4.0,,,9999.0,,12.8,10.1,29.92,1013.7,,,,,,,,,,,,,,,Clear,72000.0,,,,,,,,,
KRDR,08-04-2015,02:58,METAR,Normal,250,4.0,,,9999.0,,14.6,11.2,29.91,1013.3,,,,,,,,,,,,,,,Clear,72000.0,,,,,,,,,
KRDR,08-04-2015,01:58,METAR,Normal,270,3.0,,,9999.0,,18.7,14.3,29.91,1013.3,,,,,,,,,,,,,,,Clear,72000.0,,,,,,,,,
KRDR,08-04-2015,00:58,METAR,Normal,10,2.0,,,9999.0,,22.2,11.7,29.91,1013.3,,,,,,,,,,,,,,,Clear,72000.0,,,,,,,,,
KRDR,08-03-2015,23:58,METAR,Normal,340,8.0,,,9999.0,,24.0,9.5,29.91,1013.3,,,,,,,,,,,,,,,Clear,72000.0,,,,,,,,,
KRDR,08-03-2015,22:58,METAR,Normal,10,10.0,,,9999.0,,24.9,9.3,29.92,1013.6,,,,,,,,,,,,,,,Clear,72000.0,,,,,,,,,
KRDR,08-03-2015,21:58,METAR,Normal,360,12.0,,,9999.0,,24.9,8.5,29.93,1013.9,,,,,,,,,,,,,,,Clear,72000.0,,,,,,,,,
KRDR,08-03-2015,20:58,METAR,Normal,330,9.0,17.0,,9999.0,,24.8,8.7,29.93,1013.9,,,,,,,,,,,,,,,Clear,72000.0,,,,,,,,,
KRDR,08-03-2015,19:58,METAR,Variable,360,10.0,18.0,,9999.0,,24.7,10.0,29.93,1013.9,,,,,,,,,,,,,,,Clear,72000.0,,,,,,,,,
KRDR,08-03-2015,18:58,METAR,Normal,340,12.0,20.0,,9999.0,,23.8,10.0,29.94,1014.3,,,,,,,,,,,,,,,Clear,72000.0,,,,,,,,,
KRDR,08-03-2015,17:58,METAR,Normal,340,13.0,17.0,,9999.0,,23.3,10.5,29.94,1014.3,,,,,,,,,,,,,,,Clear,72000.0,,,,,,,,,
KRDR,08-03-2015,16:58,METAR,Normal,340,14.0,17.0,,9999.0,,22.3,11.0,29.95,1014.6,,,,,,,,,,,,,,,Clear,72000.0,,,,,,,,,
KRDR,08-03-2015,15:58,METAR,Normal,10,10.0,,,9999.0,,20.9,10.6,29.95,1014.6,,,,,,,,,,,,,,,Clear,72000.0,,,,,,,,,
KRDR,08-03-2015,14:58,METAR,Normal,350,7.0,,,9999.0,,19.7,10.6,29.94,1014.3,,,,,,,,,,,,,,,Clear,72000.0,,,,,,,,,
KRDR,08-03-2015,13:58,METAR,Normal,350,7.0,,,9999.0,,17.3,11.0,29.94,1014.3,,,,,,,,,,,,,,,Clear,72000.0,,,,,,,,,
KRDR,08-03-2015,12:58,METAR,Normal,290,8.0,,,9999.0,,14.1,10.7,29.93,1013.9,,,,,,,,,,,,,,,Clear,72000.0,,,,,,,,,
KRDR,08-03-2015,11:58,METAR,Normal,290,6.0,,,9999.0,,10.7,9.1,29.92,1013.6,,,,,,,,,,,,,,,Clear,72000.0,,,,,,,,,
KRDR,08-03-2015,10:58,METAR,Normal,280,7.0,,,9999.0,,10.7,8.9,29.91,1013.3,,,,,,,,,,,,,,,Clear,72000.0,,,,,,,,,
KRDR,08-03-2015,09:58,METAR,Normal,280,7.0,,,9999.0,,10.0,8.3,29.90,1013.0,,,,,,,,,,,,,,,Clear,72000.0,,,,,,,,,
KRDR,08-03-2015,08:58,METAR,Normal,270,7.0,,,9999.0,,11.3,9.0,29.89,1012.6,,,,,,,,,,,,,,,Clear,72000.0,,,,,,,,,
KRDR,08-03-2015,07:58,METAR,Normal,280,6.0,,,9999.0,,11.3,9.1,29.89,1012.6,,,,,,,,,,,,,,,Clear,72000.0,,,,,,,,,
KRDR,08-03-2015,06:58,METAR,Normal,290,5.0,,,9999.0,,11.6,9.1,29.88,1012.2,,,,,,,,,,,,,,,Clear,72000.0,,,,,,,,,
KRDR,08-03-2015,05:58,METAR,Normal,310,6.0,,,9999.0,,13.1,9.8,29.88,1012.2,,,,,,,,,,,,,,,Clear,72000.0,,,,,,,,,
KRDR,08-03-2015,04:58,METAR,Variable,350,9.0,,,9999.0,,16.3,9.7,29.87,1011.8,,,,,,,,,,,,,,,Clear,72000.0,,,,,,,,,
KRDR,08-03-2015,03:58,METAR,Normal,290,7.0,,,9999.0,,14.8,9.8,29.86,1011.5,,,,,,,,,,,,,,,Clear,72000.0,,,,,,,,,
KRDR,08-03-2015,02:58,METAR,Normal,290,7.0,,,9999.0,,15.5,9.7,29.85,1011.2,,,,,,,,,,,,,,,Clear,72000.0,,,,,,,,,
KRDR,08-03-2015,01:58,METAR,Normal,320,7.0,,,9999.0,,19.5,9.7,29.84,1010.8,,,,,,,,,,,,,,,Clear,72000.0,,,,,,,,,
KRDR,08-03-2015,00:58,METAR,Normal,310,11.0,,,9999.0,,22.4,8.6,29.83,1010.4,,,,,,,,,,,,,,,Clear,72000.0,,,,,,,,,
KRDR,08-02-2015,23:58,METAR,Normal,320,11.0,,,9999.0,,23.8,9.0,29.82,1010.1,,,,,,,,,,,,,,,2/8 Mostly Clear,72000.0,7500.0,FEW,7500.0,,,,,,
KRDR,08-02-2015,22:58,METAR,Normal,330,14.0,21.0,,9999.0,,24.5,9.0,29.83,1010.4,,,,,,,,,,,,,,,2/8 Mostly Clear,72000.0,7000.0,FEW,7000.0,,,,,,
KRDR,08-02-2015,21:58,METAR,Normal,330,12.0,20.0,,9999.0,,24.5,9.1,29.83,1010.4,,,,,,,,,,,,,,,Clear,72000.0,,,,,,,,,
KRDR,08-02-2015,21:47,SPECI,Normal,290,12.0,18.0,,9999.0,,24.0,8.0,29.83,,,,,,,,,,,,,,,,Clear,72000.0,,,,,,,,,
KRDR,08-02-2015,20:58,METAR,Normal,310,11.0,20.0,,9999.0,,24.1,9.3,29.83,1010.4,,,,,,,,,,,,,,,Clear,72000.0,,,,,,,,,
KRDR,08-02-2015,19:58,METAR,Normal,320,15.0,19.0,,9999.0,,24.0,9.0,29.84,1010.7,,,,,,,,,,,,,,,Clear,72000.0,,,,,,,,,
KRDR,08-02-2015,18:58,METAR,Normal,330,18.0,21.0,,9999.0,,24.0,10.0,29.84,1010.7,,,,,,,,,,,,,,,2/8 Mostly Clear,72000.0,6000.0,FEW,6000.0,,,,,,
KRDR,08-02-2015,17:58,METAR,Normal,320,15.0,,,9999.0,,23.6,11.2,29.82,1010.0,,,,,,,,,,,,,,,2/8 Mostly Clear,72000.0,6000.0,FEW,6000.0,,,,,,
KRDR,08-02-2015,16:58,METAR,Normal,330,10.0,,,9999.0,,22.4,12.7,29.83,1010.4,,,,,,,,,,,,,,,4/8 Partly Cloudy,72000.0,4600.0,FEW,4600.0,SCT,6000.0,,,,
KRDR,08-02-2015,15:58,METAR,Normal,330,14.0,,,9999.0,,22.1,13.4,29.82,1010.0,,,,,,,,,,,,,,,2/8 Mostly Clear,72000.0,3700.0,FEW,3700.0,,,,,,
KRDR,08-02-2015,14:58,METAR,Normal,340,13.0,,,9999.0,,21.1,14.9,29.80,1009.3,,,,,,,,,,,,,,,Clear,72000.0,,,,,,,,,
KRDR,08-02-2015,13:58,METAR,Normal,340,11.0,,,9999.0,,19.0,14.6,29.78,1008.7,,,,,,,,,,,,,,,2/8 Mostly Clear,72000.0,5500.0,FEW,5500.0,,,,,,
KRDR,08-02-2015,12:58,METAR,Normal,330,8.0,,,9999.0,,17.7,14.7,29.77,1008.2,,,,,,,,,,,,,,,,4800.0,4800.0,BKN,4800.0,,,,,,
KRDR,08-02-2015,11:58,METAR,Normal,340,11.0,,,9999.0,,16.4,14.9,29.73,1006.8,,,,,,,,,,,,,.02 IN,.02 IN,Clear,72000.0,,,,,,,,,
KRDR,08-02-2015,10:58,METAR,Normal,330,10.0,,,9999.0,,16.9,15.2,29.70,1005.8,,,,,,,,,,,TRACE,,,,,7500.0,7500.0,BKN,7500.0,,,,,,
KRDR,08-02-2015,10:01,SPECI,Normal,340,4.0,,,9999.0,Light Rain,17.0,16.0,29.68,,61,,,,,,,,,,,,,,,6000.0,6000.0,BKN,6000.0,,,,,,
KRDR,08-02-2015,09:58,METAR,Normal,360,3.0,,,9999.0,,16.8,15.6,29.67,1004.8,,,,,,,,,,,.02 IN,,,,,5500.0,5500.0,BKN,5500.0,,,,,,
KRDR,08-02-2015,09:41,SPECI,Normal,340,1.0,,,9999.0,Distant Lightning,17.0,15.0,29.67,,12,,,,,,,,,,,,,,,5500.0,5500.0,BKN,5500.0,,,,,,
KRDR,08-02-2015,08:58,METAR,Normal,270,2.0,,,9999.0,,17.5,14.6,29.66,1004.5,,,,,,,,,,,,,,,Clear,72000.0,,,,,,,,,
KRDR,08-02-2015,07:58,METAR,Normal,60,4.0,,,9999.0,,19.2,15.5,29.68,1005.1,,,,,,,,,,,,,,,Clear,72000.0,,,,,,,,,
KRDR,08-02-2015,06:58,METAR,Normal,20,8.0,,,9999.0,,19.9,16.3,29.70,1005.8,,,,,,,,,,,,,,,Clear,72000.0,,,,,,,,,
KRDR,08-02-2015,06:19,SPECI,Normal,360,13.0,18.0,,9999.0,,21.0,17.0,29.70,,,,,,,,,,,,,,,,4/8 Partly Cloudy,72000.0,9000.0,SCT,9100.0,,,,,,
KRDR,08-02-2015,05:58,METAR,Normal,320,4.0,,,9999.0,,19.0,16.7,29.67,1004.8,,,,,,,,,,,,,,,2/8 Mostly Clear,72000.0,8500.0,FEW,8600.0,,,,,,
KRDR,08-02-2015,04:58,METAR,Normal,240,6.0,,,9999.0,,19.3,17.0,29.65,1004.1,,,,,,,,,,,,,,,Clear,72000.0,,,,,,,,,
KRDR,08-02-2015,03:58,METAR,Normal,220,2.0,,,9999.0,,18.9,16.2,29.67,1004.8,,,,,,,,,,,,,,,Clear,72000.0,,,,,,,,,
KRDR,08-02-2015,01:58,METAR,Normal,230,5.0,,,9999.0,,23.2,17.7,29.69,1005.5,,,,,,,,,,,,,,,Clear,72000.0,,,,,,,,,
KRDR,08-02-2015,00:58,METAR,Normal,230,5.0,,,9999.0,,27.1,18.1,29.71,1006.2,,,,,,,,,,,,,,,Clear,72000.0,,,,,,,,,
KRDR,08-01-2015,23:58,METAR,Normal,230,8.0,,,9999.0,,28.7,17.3,29.72,1006.6,,,,,,,,,,,,,,,Clear,72000.0,,,,,,,,,
KRDR,08-01-2015,22:58,METAR,Normal,210,8.0,,,9999.0,,29.3,17.5,29.75,1007.6,,,,,,,,,,,,,,,Clear,72000.0,,,,,,,,,
KRDR,08-01-2015,21:58,METAR,Normal,230,4.0,,,9999.0,,29.5,16.2,29.77,1008.3,,,,,,,,,,,,,,,Clear,72000.0,,,,,,,,,
KRDR,08-01-2015,20:58,METAR,Normal,200,7.0,,,9999.0,,29.2,15.2,29.80,1009.3,,,,,,,,,,,,,,,Clear,72000.0,,,,,,,,,
KRDR,08-01-2015,19:58,METAR,Normal,230,5.0,,,9999.0,,28.8,14.2,29.81,1009.7,,,,,,,,,,,,,,,Clear,72000.0,,,,,,,,,
KRDR,08-01-2015,18:58,METAR,Variable,,4.0,,,9999.0,,28.1,13.9,29.83,1010.4,,,,,,,,,,,,,,,Clear,72000.0,,,,,,,,,
KRDR,08-01-2015,17:58,METAR,Normal,200,8.0,,,9999.0,,27.5,13.6,29.85,1011.1,,,,,,,,,,,,,,,Clear,72000.0,,,,,,,,,
KRDR,08-01-2015,16:58,METAR,Normal,200,8.0,,,9999.0,,26.8,13.2,29.87,1011.7,,,,,,,,,,,,,,,Clear,72000.0,,,,,,,,,
KRDR,08-01-2015,15:58,METAR,Normal,200,8.0,,,9999.0,,25.8,12.0,29.89,1012.4,,,,,,,,,,,,,,,Clear,72000.0,,,,,,,,,
KRDR,08-01-2015,14:58,METAR,Variable,,2.0,,,9999.0,,24.2,13.5,29.91,1013.1,,,,,,,,,,,,,,,Clear,72000.0,,,,,,,,,
KRDR,08-01-2015,13:58,METAR,Normal,260,2.0,,,9999.0,,21.8,14.3,29.93,1013.8,,,,,,,,,,,,,,,Clear,72000.0,,,,,,,,,
KRDR,08-01-2015,12:58,METAR,Normal,280,3.0,,,9999.0,,18.4,13.8,29.94,1014.1,,,,,,,,,,,,,,,Clear,72000.0,,,,,,,,,
KRDR,08-01-2015,11:58,METAR,Normal,270,3.0,,,9999.0,,14.4,11.8,29.95,1014.5,,,,,,,,,,,,,,,Clear,72000.0,,,,,,,,,
KRDR,08-01-2015,10:58,METAR,Normal,280,4.0,,,9999.0,,12.7,10.8,29.95,1014.5,,,,,,,,,,,,,,,Clear,72000.0,,,,,,,,,
KRDR,08-01-2015,09:58,METAR,Normal,280,4.0,,,9999.0,,13.0,10.8,29.97,1015.2,,,,,,,,,,,,,,,Clear,72000.0,,,,,,,,,
KRDR,08-01-2015,08:58,METAR,Normal,280,6.0,,,9999.0,,13.5,11.1,29.96,1014.8,,,,,,,,,,,,,,,Clear,72000.0,,,,,,,,,
KRDR,08-01-2015,07:58,METAR,Normal,280,3.0,,,9999.0,,12.9,10.5,29.96,1014.9,,,,,,,,,,,,,,,Clear,72000.0,,,,,,,,,
KRDR,08-01-2015,06:58,METAR,Normal,250,4.0,,,9999.0,,13.0,10.8,29.97,1015.2,,,,,,,,,,,,,,,Clear,72000.0,,,,,,,,,
KRDR,08-01-2015,05:58,METAR,Normal,280,4.0,,,9999.0,,13.6,11.1,29.98,1015.5,,,,,,,,,,,,,,,Clear,72000.0,,,,,,,,,
KRDR,08-01-2015,04:58,METAR,Normal,290,5.0,,,9999.0,,14.9,10.8,29.98,1015.5,,,,,,,,,,,,,,,Clear,72000.0,,,,,,,,,
KRDR,08-01-2015,03:58,METAR,Normal,300,5.0,,,9999.0,,15.3,11.3,29.98,1015.5,,,,,,,,,,,,,,,Clear,72000.0,,,,,,,,,
KRDR,08-01-2015,03:08,SPECI,Normal,290,5.0,,,9999.0,,16.0,12.0,29.98,,,,,,,,,,,,,,,,Clear,72000.0,,,,,,,,,
KRDR,08-01-2015,02:58,METAR,Normal,290,4.0,,,9999.0,,16.6,11.7,29.98,1015.5,,,,,,,,,,,,,,,Clear,72000.0,,,,,,,,,
KRDR,08-01-2015,01:58,METAR,Normal,320,4.0,,,9999.0,,20.2,12.6,29.97,1015.1,,,,,,,,,,,,,,,Clear,72000.0,,,,,,,,,
KRDR,08-01-2015,00:58,METAR,Normal,330,6.0,,,9999.0,,23.7,11.7,29.97,1015.1,,,,,,,,,,,,,,,Clear,72000.0,,,,,,,,,
KRDR,07-31-2015,23:58,METAR,Normal,320,10.0,,,9999.0,,25.4,10.1,29.98,1015.5,,,,,,,,,,,,,,,Clear,72000.0,,,,,,,,,
KRDR,07-31-2015,22:58,METAR,Normal,320,12.0,,,9999.0,,26.3,10.0,30.00,1016.2,,,,,,,,,,,,,,,Clear,72000.0,,,,,,,,,
KRDR,07-31-2015,21:58,METAR,Normal,300,10.0,,,9999.0,,26.5,9.4,30.01,1016.5,,,,,,,,,,,,,,,Clear,72000.0,,,,,,,,,
KRDR,07-31-2015,20:58,METAR,Normal,340,14.0,20.0,,9999.0,,26.8,9.6,30.02,1016.8,,,,,,,,,,,,,,,Clear,72000.0,,,,,,,,,
KRDR,07-31-2015,19:58,METAR,Normal,320,14.0,17.0,,9999.0,,26.8,9.3,30.03,1017.1,,,,,,,,,,,,,,,Clear,72000.0,,,,,,,,,
KRDR,07-31-2015,18:58,METAR,Normal,320,14.0,19.0,,9999.0,,26.4,10.2,30.04,1017.5,,,,,,,,,,,,,,,Clear,72000.0,,,,,,,,,
KRDR,07-31-2015,17:58,METAR,Normal,330,14.0,18.0,,9999.0,,25.9,10.6,30.06,1018.2,,,,,,,,,,,,,,,Clear,72000.0,,,,,,,,,
KRDR,07-31-2015,16:58,METAR,Normal,320,12.0,17.0,,9999.0,,25.2,11.4,30.07,1018.6,,,,,,,,,,,,,,,Clear,72000.0,,,,,,,,,
KRDR,07-31-2015,15:58,METAR,Normal,310,15.0,,,9999.0,,23.9,12.2,30.07,1018.5,,,,,,,,,,,,,,,Clear,72000.0,,,,,,,,,
KRDR,07-31-2015,14:58,METAR,Normal,320,11.0,16.0,,9999.0,,22.7,13.0,30.08,1018.9,,,,,,,,,,,,,,,Clear,72000.0,,,,,,,,,
KRDR,07-31-2015,13:58,METAR,Normal,310,10.0,,,9999.0,,20.5,12.7,30.07,1018.5,,,,,,,,,,,,,,,Clear,72000.0,,,,,,,,,
KRDR,07-31-2015,12:58,METAR,Normal,300,8.0,,,9999.0,,18.0,12.3,30.07,1018.5,,,,,,,,,,,,,,,Clear,72000.0,,,,,,,,,
KRDR,07-31-2015,11:58,METAR,Normal,290,8.0,,,9999.0,,15.6,11.4,30.06,1018.2,,,,,,,,,,,,,,,Clear,72000.0,,,,,,,,,
KRDR,07-31-2015,10:58,METAR,Normal,290,7.0,,,9999.0,,14.7,11.1,30.04,1017.5,,,,,,,,,,,,,,,Clear,72000.0,,,,,,,,,
KRDR,07-31-2015,09:58,METAR,Normal,290,7.0,,,9999.0,,15.4,11.1,30.04,1017.5,,,,,,,,,,,,,,,Clear,72000.0,,,,,,,,,
KRDR,07-31-2015,08:58,METAR,Normal,280,7.0,,,9999.0,,15.3,11.2,30.04,1017.5,,,,,,,,,,,,,,,Clear,72000.0,,,,,,,,,
KRDR,07-31-2015,07:58,METAR,Normal,300,7.0,,,9999.0,,15.5,10.7,30.03,1017.1,,,,,,,,,,,,,,,Clear,72000.0,,,,,,,,,
KRDR,07-31-2015,06:58,METAR,Normal,300,6.0,,,9999.0,,14.8,10.7,30.03,1017.2,,,,,,,,,,,,,,,Clear,72000.0,,,,,,,,,
KRDR,07-31-2015,05:58,METAR,Normal,300,7.0,,,9999.0,,15.3,11.0,30.03,1017.2,,,,,,,,,,,,,,,Clear,72000.0,,,,,,,,,
KRDR,07-31-2015,04:58,METAR,Normal,290,5.0,,,9999.0,,15.6,10.9,30.03,1017.2,,,,,,,,,,,,,,,Clear,72000.0,,,,,,,,,
KRDR,07-31-2015,03:58,METAR,Normal,290,7.0,,,9999.0,,17.3,10.6,30.03,1017.2,,,,,,,,,,,,,,,Clear,72000.0,,,,,,,,,
KRDR,07-31-2015,02:58,METAR,Normal,320,7.0,,,9999.0,,19.6,10.4,30.03,1017.2,,,,,,,,,,,,,,,Clear,72000.0,,,,,,,,,
KRDR,07-31-2015,01:58,METAR,Normal,320,8.0,,,9999.0,,21.7,9.7,30.01,1016.5,,,,,,,,,,,,,,,Clear,72000.0,,,,,,,,,
KRDR,07-31-2015,00:58,METAR,Normal,330,11.0,19.0,,9999.0,,24.1,11.5,30.00,1016.1,,,,,,,,,,,,,,,Clear,72000.0,,,,,,,,,
KRDR,07-30-2015,23:58,METAR,Normal,300,14.0,25.0,,9999.0,,25.7,11.8,29.98,1015.4,,,,,,,,,,,,,,,4/8 Partly Cloudy,72000.0,7000.0,FEW,7000.0,SCT,10000.0,,,,
KRDR,07-30-2015,22:58,METAR,Normal,310,11.0,,,9999.0,,25.6,12.2,29.99,1015.8,,,,,,,,,,,,,,,2/8 Mostly Clear,72000.0,7500.0,FEW,7500.0,,,,,,
KRDR,07-30-2015,21:58,METAR,Normal,330,14.0,20.0,,9999.0,,26.9,12.0,29.99,1015.8,,,,,,,,,,,,,,,2/8 Mostly Clear,72000.0,7000.0,FEW,7000.0,,,,,,
KRDR,07-30-2015,20:58,METAR,Normal,310,12.0,,,9999.0,,26.6,14.1,30.00,1016.1,,,,,,,,,,,,,,,2/8 Mostly Clear,72000.0,6000.0,FEW,6000.0,,,,,,
KRDR,07-30-2015,19:58,METAR,Normal,330,13.0,21.0,,9999.0,,26.8,13.2,30.00,1016.1,,,,,,,,,,,,,,,2/8 Mostly Clear,72000.0,6000.0,FEW,6000.0,,,,,,
KRDR,07-30-2015,18:58,METAR,Normal,300,15.0,20.0,,9999.0,,26.3,12.7,30.01,1016.4,,,,,,,,,,,,,,,Clear,72000.0,,,,,,,,,
KRDR,07-30-2015,17:58,METAR,Normal,320,11.0,,,9999.0,,26.1,13.9,30.02,1016.8,,,,,,,,,,,,,,,Clear,72000.0,,,,,,,,,
KRDR,07-30-2015,16:58,METAR,Normal,310,14.0,18.0,,9999.0,,25.7,13.9,30.02,1016.7,,,,,,,,,,,,,,,Clear,72000.0,,,,,,,,,
KRDR,07-30-2015,15:58,METAR,Normal,310,13.0,,,9999.0,,24.2,14.0,30.02,1016.8,,,,,,,,,,,,,,,Clear,72000.0,,,,,,,,,
KRDR,07-30-2015,14:58,METAR,Normal,310,14.0,19.0,,9999.0,,23.1,13.7,30.01,1016.5,,,,,,,,,,,,,,,Clear,72000.0,,,,,,,,,
KRDR,07-30-2015,13:58,METAR,Normal,300,8.0,,,9999.0,,19.9,13.4,30.01,1016.5,,,,,,,,,,,,,,,,9500.0,9500.0,BKN,9600.0,,,,,,
KRDR,07-30-2015,12:58,METAR,Normal,300,10.0,,,9999.0,,19.3,13.9,30.01,1016.4,,,,,,,,,,,,,,,Clear,72000.0,,,,,,,,,
KRDR,07-30-2015,11:58,METAR,Normal,300,6.0,,,9999.0,,17.1,13.2,29.99,1015.8,,,,,,,,,,,,,,,Clear,72000.0,,,,,,,,,
KRDR,07-30-2015,10:58,METAR,Normal,290,7.0,,,9999.0,,17.3,13.4,29.98,1015.4,,,,,,,,,,,,,,,Clear,72000.0,,,,,,,,,
KRDR,07-30-2015,09:58,METAR,Normal,290,7.0,,,9999.0,,17.1,13.4,29.96,1014.7,,,,,,,,,,,,,,,Clear,72000.0,,,,,,,,,
KRDR,07-30-2015,08:58,METAR,Normal,280,8.0,,,9999.0,,17.3,13.7,29.95,1014.4,,,,,,,,,,,,,,,Clear,72000.0,,,,,,,,,
KRDR,07-30-2015,07:58,METAR,Normal,290,6.0,,,9999.0,,17.3,14.0,29.95,1014.4,,,,,,,,,,,,,,,Clear,72000.0,,,,,,,,,
KRDR,07-30-2015,06:58,METAR,Normal,290,6.0,,,9999.0,,18.2,14.1,29.94,1014.1,,,,,,,,,,,,,,,Clear,72000.0,,,,,,,,,
KRDR,07-30-2015,05:58,METAR,Normal,290,7.0,,,9999.0,,18.2,13.9,29.94,1014.1,,,,,,,,,,,,,,,Clear,72000.0,,,,,,,,,
KRDR,07-30-2015,04:58,METAR,Normal,260,8.0,,,9999.0,,18.5,14.2,29.93,1013.7,,,,,,,,,,,,,,,Clear,72000.0,,,,,,,,,
KRDR,07-30-2015,03:58,METAR,Normal,280,7.0,,,9999.0,,18.6,14.6,29.92,1013.4,,,,,,,,,,,,,,,Clear,72000.0,,,,,,,,,
KRDR,07-30-2015,02:58,METAR,Normal,270,6.0,,,9999.0,,19.0,15.0,29.91,1013.1,,,,,,,,,,,,,,,Clear,72000.0,,,,,,,,,
KRDR,07-30-2015,01:58,METAR,Normal,290,6.0,,,9999.0,,21.8,14.5,29.90,1012.7,,,,,,,,,,,,,,,Clear,72000.0,,,,,,,,,
KRDR,07-30-2015,00:58,METAR,Normal,310,9.0,,,9999.0,,25.1,13.6,29.88,1012.0,,,,,,,,,,,,,,,Clear,72000.0,,,,,,,,,
KRDR,07-29-2015,23:58,METAR,Normal,330,13.0,22.0,,9999.0,,25.7,12.4,29.87,1011.7,,,,,,,,,,,,,,,Clear,72000.0,,,,,,,,,
KRDR,07-29-2015,22:58,METAR,Normal,320,18.0,33.0,,9999.0,,26.5,11.6,29.86,1011.3,,,,,,,,,,,,,,,Clear,72000.0,,,,,,,,,
KRDR,07-29-2015,21:58,METAR,Normal,320,20.0,25.0,,9999.0,,26.6,12.7,29.85,1010.9,,,,,,,,,,,,,,,Clear,72000.0,,,,,,,,,
KRDR,07-29-2015,20:58,METAR,Normal,320,14.0,29.0,,9999.0,,26.7,13.2,29.84,1010.6,,,,,,,,,,,,,,,Clear,72000.0,,,,,,,,,
KRDR,07-29-2015,19:58,METAR,Normal,300,21.0,35.0,,9999.0,,26.3,12.4,29.83,1010.3,,,,,,,,,,,,,,,Clear,72000.0,,,,,,,,,
KRDR,07-29-2015,18:58,METAR,Normal,310,23.0,33.0,,9999.0,,25.6,12.8,29.82,1010.0,,,,,,,,,,,,,,,Clear,72000.0,,,,,,,,,
KRDR,07-29-2015,17:58,METAR,Normal,300,18.0,29.0,270/37KTS,9999.0,,24.8,12.8,29.80,1009.3,,,,,,,,,,,,,,,2/8 Mostly Clear,72000.0,5500.0,FEW,5500.0,,,,,,
KRDR,07-29-2015,16:58,METAR,Normal,300,19.0,34.0,,9999.0,,24.2,12.6,29.79,1009.0,,,,,,,,,,,,,,,Clear,72000.0,,,,,,,,,
KRDR,07-29-2015,15:58,METAR,Normal,310,22.0,36.0,,9999.0,,23.1,12.5,29.75,1007.6,,,,,,,,,,,,,,,Clear,72000.0,,,,,,,,,
KRDR,07-29-2015,15:11,SPECI,Normal,300,25.0,37.0,,9999.0,Squalls,22.0,13.0,29.74,,18,,,,,,,,,,,,,,Clear,72000.0,,,,,,,,,
KRDR,07-29-2015,14:58,METAR,Normal,300,24.0,34.0,,9999.0,,22.1,13.1,29.74,1007.3,,,,,,,,,,,,,,,Clear,72000.0,,,,,,,,,
KRDR,07-29-2015,13:58,METAR,Normal,300,23.0,30.0,300/33KTS,9999.0,,20.5,11.6,29.72,1006.6,,,,,,,,,,,,,,,,4500.0,4500.0,BKN,4500.0,BKN,8000.0,,,,
KRDR,07-29-2015,12:58,METAR,Normal,300,19.0,37.0,,9999.0,,18.7,12.6,29.69,1005.6,,,,,,,,,,,,,,,,4400.0,4400.0,BKN,4400.0,BKN,10000.0,,,,
KRDR,07-29-2015,11:58,METAR,Normal,300,19.0,34.0,300/36KTS,9999.0,,18.4,12.9,29.66,1004.6,,,,,,,,,,,,,,,,2800.0,2800.0,OVC,2800.0,,,,,,
KRDR,07-29-2015,10:58,METAR,Normal,290,23.0,29.0,280/34KTS,9999.0,,18.5,12.4,29.63,1003.5,,,,,,,,,,,,,,,,3500.0,3500.0,OVC,3500.0,,,,,,
KRDR,07-29-2015,09:58,METAR,Normal,290,20.0,33.0,300/34KTS,9999.0,,18.2,12.5,29.61,1002.9,,,,,,,,,,,,,,,,3300.0,3300.0,OVC,3300.0,,,,,,
KRDR,07-29-2015,08:58,METAR,Normal,300,20.0,31.0,270/37KTS,9999.0,,18.2,12.1,29.59,1002.1,,,,,,,,,,,,,,,,3100.0,3100.0,OVC,3100.0,,,,,,
KRDR,07-29-2015,07:58,METAR,Normal,290,26.0,35.0,270/39KTS,9999.0,,18.0,12.1,29.58,1001.8,,,,,,,,,,,,,,,,2900.0,2900.0,OVC,2900.0,,,,,,
KRDR,07-29-2015,06:58,METAR,Normal,280,18.0,29.0,250/33KTS,9999.0,,17.9,12.4,29.56,1001.2,,,,,,,,,,,,,,,,3100.0,3100.0,OVC,3100.0,,,,,,
KRDR,07-29-2015,05:58,METAR,Normal,280,24.0,33.0,280/35KTS,9999.0,,17.9,12.4,29.55,1000.8,,,,,,,,,,,,,,,,2700.0,2700.0,OVC,2700.0,,,,,,
KRDR,07-29-2015,04:58,METAR,Normal,270,22.0,32.0,270/39KTS,9999.0,,17.5,11.9,29.55,1000.8,,,,,,,,,,,,,,,,2600.0,2600.0,OVC,2600.0,,,,,,
KRDR,07-29-2015,03:58,METAR,Normal,260,27.0,34.0,,9999.0,,18.7,10.7,29.55,1000.8,,,,,,,,,,,,,,,,3900.0,3900.0,OVC,3900.0,,,,,,
KRDR,07-29-2015,02:58,METAR,Normal,230,19.0,39.0,230/39KTS,9999.0,,20.0,10.1,29.58,1001.8,,,,,,,,,,,,,,,,5500.0,5500.0,OVC,5500.0,,,,,,
KRDR,07-29-2015,01:58,METAR,Normal,220,18.0,27.0,260/37KTS,9999.0,,19.9,10.6,29.60,1002.5,,,,,,,,,,,,,,,4/8 Partly Cloudy,72000.0,6000.0,SCT,6000.0,,,,,,
KRDR,07-29-2015,00:58,METAR,Normal,240,23.0,31.0,230/38KTS,9999.0,,21.7,11.0,29.61,1002.8,,,,,,,,,,,,,,,,7500.0,5500.0,FEW,5500.0,OVC,7500.0,,,,
KRDR,07-28-2015,23:58,METAR,Normal,230,18.0,30.0,250/35KTS,9999.0,,23.0,11.5,29.62,1003.1,,,,,,,,,,,,,,,,8000.0,6000.0,FEW,6000.0,OVC,8000.0,,,,
KRDR,07-28-2015,22:58,METAR,Normal,220,19.0,31.0,220/31KTS,9999.0,,23.7,12.5,29.63,1003.4,,,,,,,,,,,,,,,,8000.0,8000.0,OVC,8000.0,,,,,,
KRDR,07-28-2015,21:58,METAR,Normal,230,16.0,26.0,230/32KTS,9999.0,,23.4,12.5,29.64,1003.7,,,,,,,,,,,,,,,,7000.0,7000.0,OVC,7000.0,,,,,,
KRDR,07-28-2015,20:58,METAR,Normal,230,24.0,31.0,,9999.0,,25.1,12.5,29.63,1003.4,,,,,,,,,,,,,,,4/8 Partly Cloudy,72000.0,6500.0,SCT,6500.0,,,,,,
KRDR,07-28-2015,19:58,METAR,Normal,230,24.0,32.0,220/32KTS,9999.0,,24.4,12.9,29.63,1003.4,,,,,,,,,,,,,,,,6000.0,6000.0,BKN,6000.0,,,,,,
KRDR,07-28-2015,18:58,METAR,Normal,230,20.0,30.0,220/30KTS,9999.0,,24.3,13.7,29.62,1003.1,,,,,,,,,,,,,,,2/8 Mostly Clear,72000.0,4400.0,FEW,4400.0,,,,,,
KRDR,07-28-2015,17:58,METAR,Normal,230,19.0,24.0,,9999.0,,24.7,14.9,29.62,1003.0,,,,,,,,,,,,,,,2/8 Mostly Clear,72000.0,3900.0,FEW,3900.0,,,,,,
KRDR,07-28-2015,16:58,METAR,Normal,250,15.0,21.0,,9999.0,,23.9,16.1,29.62,1003.1,,,,,,,,,,,,,,,2/8 Mostly Clear,72000.0,3000.0,FEW,3000.0,,,,,,
KRDR,07-28-2015,15:58,METAR,Normal,250,13.0,20.0,,9999.0,,23.6,16.7,29.62,1003.0,,,,,,,,,,,,,,,Clear,72000.0,,,,,,,,,
KRDR,07-28-2015,14:58,METAR,Normal,230,17.0,23.0,,9999.0,,24.0,18.7,29.61,1002.7,,,,,,,,,,,,,,,,2700.0,2700.0,BKN,2700.0,,,,,,
KRDR,07-28-2015,13:58,METAR,Normal,190,14.0,,,9999.0,,24.0,19.8,29.58,1001.6,,,,,,,,,,,,,,,,5500.0,5500.0,OVC,5500.0,,,,,,
KRDR,07-28-2015,12:58,METAR,Normal,220,11.0,,,9999.0,,22.8,20.2,29.58,1001.6,,,,,,,,,,,,,,,,6500.0,6500.0,BKN,6500.0,,,,,,
KRDR,07-28-2015,11:58,METAR,Normal,230,12.0,,160/30KTS,9999.0,,22.4,20.3,29.63,1003.3,,,,,,,,,,,TRACE,,TRACE,,,5000.0,1600.0,SCT,1600.0,SCT,3800.0,BKN,8000.0,,
KRDR,07-28-2015,11:51,SPECI,Normal,230,14.0,21.0,,9999.0,,22.0,20.0,29.63,,,,,,,,,,,,,,,,,8000.0,1500.0,SCT,1500.0,BKN,8000.0,,,,
KRDR,07-28-2015,11:41,SPECI,Normal,210,13.0,22.0,,9999.0,Light Rain,23.0,20.0,29.61,,61,,,,,,,,,,,,,,,8500.0,1500.0,SCT,1500.0,OVC,8600.0,,,,
KRDR,07-28-2015,11:30,SPECI,Variable,200,17.0,28.0,,9999.0,,23.0,20.0,29.59,,,,,,,,,,,,,,,,,8500.0,8500.0,BKN,8600.0,,,,,,
KRDR,07-28-2015,10:58,METAR,Normal,170,18.0,31.0,170/31KTS,9999.0,,23.7,21.4,29.57,1001.2,,,,,,,,,,,,,,,2/8 Mostly Clear,72000.0,1400.0,FEW,1400.0,,,,,,
KRDR,07-28-2015,10:53,SPECI,Normal,170,20.0,31.0,,9999.0,,24.0,21.0,29.56,,,,,,,,,,,,,,,,4/8 Partly Cloudy,72000.0,1300.0,SCT,1300.0,,,,,,
KRDR,07-28-2015,09:58,METAR,Normal,180,13.0,,,9999.0,,23.7,22.0,29.57,1001.2,,,,,,,,,,,,,,,,1200.0,1200.0,OVC,1200.0,,,,,,
KRDR,07-28-2015,09:43,SPECI,Normal,190,11.0,,,9999.0,,24.0,22.0,29.59,,,,,,,,,,,,,,,,,1300.0,1300.0,BKN,1300.0,BKN,4800.0,,,,
KRDR,07-28-2015,09:23,SPECI,Normal,180,11.0,,,9999.0,,24.0,22.0,29.59,,,,,,,,,,,,,,,,,1300.0,1300.0,SCT,1300.0,BKN,4700.0,,,,
KRDR,07-28-2015,09:08,SPECI,Normal,180,10.0,,,9999.0,,23.0,22.0,29.60,,,,,,,,,,,,,,,,,1300.0,1300.0,BKN,1300.0,,,,,,
KRDR,07-28-2015,08:58,METAR,Normal,170,9.0,,,9999.0,,23.2,22.0,29.60,1002.2,,,,,,,,,,,,,,,2/8 Mostly Clear,72000.0,1400.0,FEW,1400.0,,,,,,
KRDR,07-28-2015,07:58,METAR,Normal,160,10.0,,,9999.0,,23.2,22.0,29.64,1003.6,,,,,,,,,,,,,,,Clear,72000.0,,,,,,,,,
KRDR,07-28-2015,06:58,METAR,Normal,160,12.0,,,9999.0,,23.3,21.6,29.68,1004.9,,,,,,,,,,,,,,,Clear,72000.0,,,,,,,,,
KRDR,07-28-2015,05:58,METAR,Normal,160,10.0,,,9999.0,,23.9,21.8,29.71,1006.0,,,,,,,,,,,,,,,Clear,72000.0,,,,,,,,,
KRDR,07-28-2015,04:58,METAR,Normal,160,9.0,,,9999.0,,24.4,22.0,29.74,1007.0,,,,,,,,,,,,,,,Clear,72000.0,,,,,,,,,
KRDR,07-28-2015,03:58,METAR,Normal,160,9.0,,,9999.0,,24.8,22.3,29.75,1007.4,,,,,,,,,,,,,,,Clear,72000.0,,,,,,,,,
KRDR,07-28-2015,02:58,METAR,Normal,160,7.0,,,9999.0,,25.4,22.7,29.75,1007.4,,,,,,,,,,,,,,,Clear,72000.0,,,,,,,,,
KRDR,07-28-2015,01:58,METAR,Normal,150,7.0,,,9999.0,,27.2,23.3,29.73,1006.8,,,,,,,,,,,,,,,Clear,72000.0,,,,,,,,,
KRDR,07-28-2015,00:58,METAR,Normal,120,10.0,,,9999.0,,28.6,23.1,29.74,1007.1,,,,,,,,,,,,,,,Clear,72000.0,,,,,,,,,
KRDR,07-27-2015,23:58,METAR,Normal,130,15.0,,,9999.0,,29.3,22.5,29.74,1007.1,,,,,,,,,,,,,,,Clear,72000.0,,,,,,,,,
KRDR,07-27-2015,22:58,METAR,Normal,150,15.0,21.0,,9999.0,,29.9,22.3,29.76,1007.8,,,,,,,,,,,,,,,2/8 Mostly Clear,72000.0,3700.0,FEW,3700.0,,,,,,
KRDR,07-27-2015,21:58,METAR,Normal,140,13.0,,,9999.0,,29.2,22.3,29.79,1008.8,,,,,,,,,,,,,,,4/8 Partly Cloudy,72000.0,3000.0,SCT,3000.0,,,,,,
KRDR,07-27-2015,20:58,METAR,Normal,180,13.0,20.0,,9999.0,,29.9,22.0,29.81,1009.5,,,,,,,,,,,,,,,Clear,72000.0,,,,,,,,,
KRDR,07-27-2015,19:58,METAR,Normal,170,9.0,17.0,,9999.0,,28.6,21.5,29.82,1009.9,,,,,,,,,,,,,,,Clear,72000.0,,,,,,,,,
KRDR,07-27-2015,18:58,METAR,Normal,160,14.0,,,9999.0,,30.0,21.5,29.83,1010.2,,,,,,,,,,,,,,,2/8 Mostly Clear,72000.0,3700.0,FEW,3700.0,,,,,,
KRDR,07-27-2015,17:58,METAR,Normal,180,7.0,,,9999.0,,28.8,22.1,29.85,1010.8,,,,,,,,,,,,,,,4/8 Partly Cloudy,72000.0,3100.0,SCT,3100.0,,,,,,
KRDR,07-27-2015,16:58,METAR,Normal,160,9.0,,,9999.0,,28.3,21.6,29.86,1011.2,,,,,,,,,,,,,,,4/8 Partly Cloudy,72000.0,2700.0,SCT,2700.0,SCT,3400.0,,,,
KRDR,07-27-2015,15:58,METAR,Normal,140,9.0,,,9999.0,,27.3,21.8,29.87,1011.5,,,,,,,,,,,,,,,Clear,72000.0,,,,,,,,,
KRDR,07-27-2015,14:58,METAR,Normal,130,8.0,,,9999.0,,24.9,21.2,29.87,1011.6,,,,,,,,,,,,,,,Clear,72000.0,,,,,,,,,
KRDR,07-27-2015,13:58,METAR,Normal,160,7.0,,,9999.0,,22.3,20.0,29.87,1011.6,,,,,,,,,,,,,,,Clear,72000.0,,,,,,,,,
KRDR,07-27-2015,12:58,METAR,Normal,150,6.0,,,9999.0,,21.1,19.1,29.88,1011.9,,,,,,,,,,,,,,,Clear,72000.0,,,,,,,,,
KRDR,07-27-2015,11:58,METAR,Normal,150,5.0,,,9999.0,,18.6,17.7,29.88,1011.9,,,,,,,,,,,,,,,Clear,72000.0,,,,,,,,,
KRDR,07-27-2015,10:58,METAR,Normal,150,4.0,,,9999.0,,18.3,17.3,29.87,1011.6,,,,,,,,,,,,,,,Clear,72000.0,,,,,,,,,
KRDR,07-27-2015,09:58,METAR,Normal,110,5.0,,,9999.0,,19.0,17.7,29.87,1011.5,,,,,,,,,,,,,,,Clear,72000.0,,,,,,,,,
KRDR,07-27-2015,08:58,METAR,Normal,180,3.0,,,9999.0,,19.4,17.7,29.88,1011.9,,,,,,,,,,,,,,,Clear,72000.0,,,,,,,,,
KRDR,07-27-2015,07:58,METAR,Normal,240,4.0,,,9999.0,,18.7,17.7,29.87,1011.5,,,,,,,,,,,,,,,Clear,72000.0,,,,,,,,,
KRDR,07-27-2015,06:58,METAR,Normal,190,4.0,,,9999.0,,20.7,18.7,29.86,1011.2,,,,,,,,,,,,,,,Clear,72000.0,,,,,,,,,
KRDR,07-27-2015,05:58,METAR,Normal,200,5.0,,,9999.0,,21.5,19.7,29.88,1011.9,,,,,,,,,,,,,,,Clear,72000.0,,,,,,,,,
KRDR,07-27-2015,04:58,METAR,Normal,200,3.0,,,9999.0,,21.6,19.6,29.91,1012.9,,,,,,,,,,,TRACE,,,,Clear,72000.0,,,,,,,,,
KRDR,07-27-2015,03:58,METAR,Normal,200,5.0,,,9999.0,,22.1,19.6,29.89,1012.2,,,,,,,,,,,,,,,Clear,72000.0,,,,,,,,,
KRDR,07-27-2015,02:58,METAR,Normal,210,5.0,,,9999.0,,23.0,20.0,29.89,1012.2,,,,,,,,,,,,,,,Clear,72000.0,,,,,,,,,
KRDR,07-27-2015,01:58,METAR,Normal,160,4.0,,,9999.0,,25.3,20.5,29.88,1011.9,,,,,,,,,,,,,,,Clear,72000.0,,,,,,,,,
KRDR,07-27-2015,00:58,METAR,Normal,200,6.0,,,9999.0,,27.1,21.1,29.86,1011.2,,,,,,,,,,,,,,,Clear,72000.0,,,,,,,,,
KRDR,07-26-2015,23:58,METAR,Normal,180,12.0,,,9999.0,,29.0,20.2,29.83,1010.2,,,,,,,,,,,,,,,Clear,72000.0,,,,,,,,,
KRDR,07-26-2015,22:58,METAR,Normal,180,11.0,,,9999.0,,29.7,20.5,29.85,1010.9,,,,,,,,,,,,,,,Clear,72000.0,,,,,,,,,
KRDR,07-26-2015,21:58,METAR,Normal,170,12.0,,,9999.0,,30.1,20.0,29.86,1011.2,,,,,,,,,,,,,,,Clear,72000.0,,,,,,,,,
KRDR,07-26-2015,20:58,METAR,Normal,200,11.0,,,9999.0,,30.0,20.0,29.88,1011.9,,,,,,,,,,,,,,,Clear,72000.0,,,,,,,,,
KRDR,07-26-2015,19:58,METAR,Normal,180,10.0,,,9999.0,,29.8,19.5,29.88,1011.9,,,,,,,,,,,,,,,Clear,72000.0,,,,,,,,,
KRDR,07-26-2015,18:58,METAR,Normal,190,12.0,,,9999.0,,29.5,20.0,29.88,1011.9,,,,,,,,,,,,,,,Clear,72000.0,,,,,,,,,
KRDR,07-26-2015,17:58,METAR,Normal,210,10.0,,,9999.0,,29.0,19.9,29.88,1011.9,,,,,,,,,,,,,,,Clear,72000.0,,,,,,,,,
KRDR,07-26-2015,16:58,METAR,Normal,210,11.0,,,9999.0,,28.1,19.4,29.88,1011.9,,,,,,,,,,,,,,,Clear,72000.0,,,,,,,,,
KRDR,07-26-2015,15:58,METAR,Normal,200,9.0,,,9999.0,,27.4,19.1,29.88,1011.9,,,,,,,,,,,,,,,Clear,72000.0,,,,,,,,,
KRDR,07-26-2015,14:58,METAR,Normal,230,7.0,,,9999.0,,26.0,19.7,29.88,1011.9,,,,,,,,,,,,,,,Clear,72000.0,,,,,,,,,
KRDR,07-26-2015,13:58,METAR,Normal,220,4.0,,,9999.0,,23.3,20.5,29.88,1011.9,,,,,,,,,,,,,,,Clear,72000.0,,,,,,,,,
KRDR,07-26-2015,13:23,SPECI,Normal,210,5.0,,,9999.0,,21.0,20.0,29.87,,,,,,,,,,,,,,,,4/8 Partly Cloudy,72000.0,300.0,SCT,300.0,,,,,,
KRDR,07-26-2015,13:03,SPECI,Normal,200,7.0,,,9999.0,,20.0,20.0,29.87,,,,,,,,,,,,,,,,,300.0,300.0,OVC,300.0,,,,,,
KRDR,07-26-2015,12:58,METAR,Normal,210,9.0,,,9999.0,,20.1,19.7,29.87,1011.6,,,,,,,,,,,,,,,,200.0,200.0,OVC,200.0,,,,,,
KRDR,07-26-2015,12:48,SPECI,Normal,200,9.0,,,9999.0,,20.0,19.0,29.87,,,,,,,,,,,,,,,,,200.0,200.0,OVC,200.0,,,,,,
KRDR,07-26-2015,12:43,SPECI,Normal,200,8.0,,,4000.0,Mist,20.0,19.0,29.87,,10,,,,,,,,,,,,,,,200.0,200.0,OVC,200.0,,,,,,
KRDR,07-26-2015,12:33,SPECI,Normal,210,7.0,,,2400.0,Mist,19.0,19.0,29.87,,10,,,,,,,,,,,,,,,200.0,200.0,OVC,200.0,,,,,,
KRDR,07-26-2015,12:28,SPECI,Normal,190,8.0,,,1600.0,Mist,19.0,19.0,29.86,,10,,,,,,,,,,,,,,Sky Obscured (Unable to Estimate),200.0,200.0,,200.0,,,,,,
KRDR,07-26-2015,12:18,SPECI,Normal,180,10.0,,,1200.0,Mist,19.0,19.0,29.86,,10,,,,,,,,,,,,,,Sky Obscured (Unable to Estimate),200.0,200.0,,200.0,,,,,,
KRDR,07-26-2015,12:13,SPECI,Normal,180,10.0,,,1600.0,Mist,19.0,19.0,29.86,,10,,,,,,,,,,,,,,Sky Obscured (Unable to Estimate),200.0,200.0,,200.0,,,,,,
KRDR,07-26-2015,12:08,SPECI,Normal,190,9.0,,,2400.0,Mist,19.0,19.0,29.86,,10,,,,,,,,,,,,,,,200.0,200.0,BKN,200.0,,,,,,
KRDR,07-26-2015,11:58,METAR,Normal,180,9.0,,,9999.0,,18.8,18.5,29.86,1011.2,,,,,,,,,,,,,,.02 IN,2/8 Mostly Clear,72000.0,300.0,FEW,300.0,,,,,,
KRDR,07-26-2015,11:54,SPECI,Normal,180,7.0,,,9999.0,,19.0,19.0,29.86,,,,,,,,,,,,,,,,2/8 Mostly Clear,72000.0,300.0,FEW,300.0,,,,,,
KRDR,07-26-2015,10:58,METAR,Normal,180,7.0,,,9999.0,,18.1,17.8,29.85,1010.8,,,,,,,,,,,,,,,Clear,72000.0,,,,,,,,,
KRDR,07-26-2015,10:28,SPECI,Normal,170,7.0,,,9999.0,,18.0,17.0,29.84,,,,,,,,,,,,,,,,Clear,72000.0,,,,,,,,,
KRDR,07-26-2015,10:23,SPECI,Normal,180,7.0,,,9999.0,,18.0,17.0,29.84,,,,,,,,,,,,,,,,Clear,72000.0,,,,,,,,,
KRDR,07-26-2015,10:13,SPECI,Normal,180,5.0,,,9999.0,,18.0,17.0,29.84,,,,,,,,,,,,,,,,Clear,72000.0,,,,,,,,,
KRDR,07-26-2015,09:58,METAR,Normal,170,5.0,,,9999.0,,17.5,17.0,29.84,1010.5,,,,,,,,,,,,,,,Clear,72000.0,,,,,,,,,
KRDR,07-26-2015,09:28,SPECI,Normal,150,5.0,,,9999.0,,18.0,17.0,29.83,,,,,,,,,,,,,,,,Clear,72000.0,,,,,,,,,
KRDR,07-26-2015,09:23,SPECI,Normal,160,4.0,,,9999.0,Mist,18.0,17.0,29.83,,10,,,,,,,,,,,,,,Clear,72000.0,,,,,,,,,
KRDR,07-26-2015,09:18,SPECI,Normal,150,2.0,,,9999.0,Mist,18.0,17.0,29.83,,10,,,,,,,,,,,,,,Clear,72000.0,,,,,,,,,
KRDR,07-26-2015,08:58,METAR,Normal,160,5.0,,,9999.0,,18.2,17.7,29.83,1010.2,,,,,,,,,,,,,,,Clear,72000.0,,,,,,,,,
KRDR,07-26-2015,07:58,METAR,Normal,150,4.0,,,9999.0,,19.5,18.5,29.84,1010.5,,,,,,,,,,,,,,,Clear,72000.0,,,,,,,,,
KRDR,07-26-2015,06:58,METAR,Normal,180,5.0,,,9999.0,,18.4,17.8,29.85,1010.9,,,,,,,,,,,,,,,Clear,72000.0,,,,,,,,,
KRDR,07-26-2015,06:48,SPECI,Normal,240,4.0,,,9999.0,,19.0,18.0,29.86,,,,,,,,,,,,,,,,Clear,72000.0,,,,,,,,,
KRDR,07-26-2015,06:38,SPECI,Normal,230,3.0,,,9999.0,,20.0,19.0,29.86,,,,,,,,,,,,,,,,Clear,72000.0,,,,,,,,,
KRDR,07-26-2015,05:58,METAR,Normal,190,6.0,,,9999.0,,19.5,18.5,29.85,1010.9,,,,,,,,,,,,,TRACE,,Clear,72000.0,,,,,,,,,
KRDR,07-26-2015,04:58,METAR,Normal,220,4.0,,,9999.0,,20.2,18.6,29.84,1010.5,,,,,,,,,,,,,,,Clear,72000.0,,,,,,,,,
KRDR,07-26-2015,04:03,SPECI,Normal,220,4.0,,,9999.0,,20.0,18.0,29.84,,,,,,,,,,,,,,,,Clear,72000.0,,,,,,,,,
KRDR,07-26-2015,03:58,METAR,Normal,220,4.0,,,9999.0,,20.2,18.5,29.84,1010.7,,,,,,,,,,,TRACE,,,,Clear,72000.0,,,,,,,,,
KRDR,07-26-2015,03:43,SPECI,Normal,230,3.0,,,9999.0,,21.0,19.0,29.84,,,,,,,,,,,,,,,,Clear,72000.0,,,,,,,,,
KRDR,07-26-2015,03:38,SPECI,Normal,220,3.0,,,9999.0,,22.0,19.0,29.84,,,,,,,,,,,,,,,,Clear,72000.0,,,,,,,,,
KRDR,07-26-2015,02:58,METAR,Normal,210,5.0,,,9999.0,,21.9,19.0,29.83,1010.3,,,,,,,,,,,,,,,Clear,72000.0,,,,,,,,,
KRDR,07-26-2015,01:58,METAR,Normal,200,7.0,,,9999.0,,25.3,20.7,29.83,1010.3,,,,,,,,,,,,,,,Clear,72000.0,,,,,,,,,
KRDR,07-26-2015,00:58,METAR,Normal,200,6.0,,,9999.0,,28.5,22.0,29.83,1010.2,,,,,,,,,,,,,,,2/8 Mostly Clear,72000.0,4000.0,FEW,4000.0,,,,,,
KRDR,07-25-2015,23:58,METAR,Normal,190,3.0,,,9999.0,,30.2,21.0,29.82,1009.9,,,,,,,,,,,,,,,Clear,72000.0,,,,,,,,,
KRDR,07-25-2015,22:58,METAR,Normal,250,6.0,,,9999.0,,30.7,21.5,29.83,1010.2,,,,,,,,,,,,,,,Clear,72000.0,,,,,,,,,
KRDR,07-25-2015,21:58,METAR,Normal,240,7.0,,,9999.0,,30.5,21.8,29.84,1010.5,,,,,,,,,,,,,,,Clear,72000.0,,,,,,,,,
KRDR,07-25-2015,20:58,METAR,Normal,210,11.0,,,9999.0,,29.5,22.4,29.85,1010.9,,,,,,,,,,,,,,,2/8 Mostly Clear,72000.0,3200.0,FEW,3200.0,,,,,,
KRDR,07-25-2015,19:58,METAR,Normal,190,13.0,,,9999.0,,29.2,22.8,29.85,1010.9,,,,,,,,,,,,,,,Clear,72000.0,,,,,,,,,
KRDR,07-25-2015,19:39,SPECI,Normal,210,12.0,,,9999.0,,29.0,23.0,29.85,,,,,,,,,,,,,,,,Clear,72000.0,,,,,,,,,
KRDR,07-25-2015,18:58,METAR,Normal,190,10.0,,,9999.0,,28.5,22.1,29.85,1010.9,,,,,,,,,,,,,,,2/8 Mostly Clear,72000.0,3000.0,FEW,3000.0,,,,,,
KRDR,07-25-2015,17:58,METAR,Normal,200,11.0,,,9999.0,,28.2,21.4,29.86,1011.3,,,,,,,,,,,,,.02 IN,,Clear,72000.0,,,,,,,,,
KRDR,07-25-2015,16:58,METAR,Normal,180,10.0,,,9999.0,,26.4,20.8,29.88,1012.0,,,,,,,,,,,,,,,Clear,72000.0,,,,,,,,,
KRDR,07-25-2015,15:58,METAR,Normal,170,7.0,,,9999.0,,23.8,19.4,29.88,1012.0,,,,,,,,,,,,,,,Clear,72000.0,,,,,,,,,
KRDR,07-25-2015,14:58,METAR,Normal,180,8.0,,,9999.0,,22.0,18.8,29.89,1012.4,,,,,,,,,,,.02 IN,.02 IN,,,4/8 Partly Cloudy,72000.0,8000.0,SCT,8000.0,,,,,,
KRDR,07-25-2015,14:16,SPECI,Normal,200,7.0,,,9999.0,,20.0,19.0,29.90,,,,,,,,,,,,,,,,,9000.0,3300.0,FEW,3300.0,BKN,9100.0,BKN,11000.0,,
KRDR,07-25-2015,13:59,SPECI,Normal,210,10.0,,,9999.0,Light Rain,21.0,18.0,29.91,,61,,,,,,,,,,,,,,,10000.0,4300.0,FEW,4300.0,SCT,9600.0,BKN,12000.0,,
KRDR,07-25-2015,13:58,METAR,Normal,210,9.0,,,9999.0,,20.8,18.3,29.91,1013.0,,,,,,,,,,,,,,,,10000.0,10000.0,FEW,10000.0,BKN,12000.0,,,,
KRDR,07-25-2015,12:58,METAR,Normal,220,5.0,,,9999.0,,20.0,17.5,29.90,1012.6,,,,,,,,,,,,,,,Clear,72000.0,,,,,,,,,
KRDR,07-25-2015,11:58,METAR,Normal,170,4.0,,,9999.0,,17.8,16.4,29.91,1013.0,,,,,,,,,,,,,,,,10000.0,10000.0,BKN,10000.0,,,,,,
KRDR,07-25-2015,10:58,METAR,Normal,180,5.0,,,9999.0,,17.0,15.0,29.89,1012.3,,,,,,,,,,,,,,,Clear,72000.0,,,,,,,,,
KRDR,07-25-2015,09:58,METAR,Normal,240,5.0,,,9999.0,,17.3,16.0,29.89,1012.3,,,,,,,,,,,,,,,4/8 Partly Cloudy,72000.0,11000.0,SCT,11000.0,,,,,,
KRDR,07-25-2015,08:58,METAR,Normal,220,7.0,,,9999.0,,18.3,16.6,29.90,1012.6,,,,,,,,,,,,,,,,11000.0,11000.0,BKN,11000.0,,,,,,
KRDR,07-25-2015,07:58,METAR,Normal,220,5.0,,,9999.0,,17.7,16.3,29.90,1012.6,,,,,,,,,,,,,,,,12000.0,12000.0,BKN,12000.0,,,,,,
KRDR,07-25-2015,06:58,METAR,Normal,220,6.0,,,9999.0,,17.1,15.9,29.89,1012.4,,,,,,,,,,,,,,,Clear,72000.0,,,,,,,,,
KRDR,07-25-2015,05:58,METAR,Normal,200,4.0,,,9999.0,,17.0,16.0,29.89,1012.4,,,,,,,,,,,,,,,Clear,72000.0,,,,,,,,,
KRDR,07-25-2015,04:58,METAR,Normal,210,3.0,,,9999.0,,18.3,17.0,29.89,1012.4,,,,,,,,,,,,,,,Clear,72000.0,,,,,,,,,
KRDR,07-25-2015,03:58,METAR,Normal,220,3.0,,,9999.0,,19.1,17.1,29.89,1012.4,,,,,,,,,,,,,,,Clear,72000.0,,,,,,,,,
KRDR,07-25-2015,03:48,SPECI,Normal,220,2.0,,,9999.0,,19.0,17.0,29.89,,,,,,,,,,,,,,,,Clear,72000.0,,,,,,,,,
KRDR,07-25-2015,03:38,SPECI,Normal,220,4.0,,,9999.0,,18.0,18.0,29.90,,,,,,,,,,,,,,,,Clear,72000.0,,,,,,,,,
KRDR,07-25-2015,03:13,SPECI,Normal,250,3.0,,,9999.0,Mist,20.0,18.0,29.90,,10,,,,,,,,,,,,,,Clear,72000.0,,,,,,,,,
KRDR,07-25-2015,02:58,METAR,Normal,240,4.0,,,9999.0,,21.0,18.0,29.90,1012.7,,,,,,,,,,,,,,,Clear,72000.0,,,,,,,,,
KRDR,07-25-2015,01:58,METAR,Normal,240,4.0,,,9999.0,,23.0,19.2,29.89,1012.3,,,,,,,,,,,,,,,Clear,72000.0,,,,,,,,,
KRDR,07-25-2015,00:58,METAR,Normal,300,4.0,,,9999.0,,26.3,18.3,29.88,1012.0,,,,,,,,,,,,,,,Clear,72000.0,,,,,,,,,
KRDR,07-24-2015,23:58,METAR,Normal,300,6.0,,,9999.0,,27.2,17.1,29.88,1012.0,,,,,,,,,,,,,TRACE,,Clear,72000.0,,,,,,,,,
KRDR,07-24-2015,22:58,METAR,Normal,330,8.0,,,9999.0,,28.0,15.2,29.87,1011.6,,,,,,,,,,,,,,,Clear,72000.0,,,,,,,,,
KRDR,07-24-2015,21:58,METAR,Normal,330,10.0,,,9999.0,,28.1,15.5,29.87,1011.6,,,,,,,,,,,,,,,Clear,72000.0,,,,,,,,,
KRDR,07-24-2015,20:58,METAR,Normal,310,10.0,,,9999.0,,27.7,16.8,29.87,1011.6,,,,,,,,,,,TRACE,TRACE,,,Clear,72000.0,,,,,,,,,
KRDR,07-24-2015,20:11,SPECI,Normal,340,9.0,15.0,,9999.0,,28.0,17.0,29.86,,,,,,,,,,,,,,,,2/8 Mostly Clear,72000.0,4300.0,FEW,4300.0,,,,,,
KRDR,07-24-2015,20:04,SPECI,Normal,340,11.0,15.0,,9999.0,Light Drizzle,27.0,17.0,29.86,,51,,,,,,,,,,,,,,4/8 Partly Cloudy,72000.0,4300.0,FEW,4300.0,SCT,7000.0,,,,
KRDR,07-24-2015,19:58,METAR,Normal,340,11.0,,,9999.0,,28.0,18.2,29.86,1011.3,,,,,,,,,,,,,,,2/8 Mostly Clear,72000.0,4200.0,FEW,4200.0,,,,,,
KRDR,07-24-2015,18:58,METAR,Normal,320,9.0,,,9999.0,,27.1,19.1,29.86,1011.3,,,,,,,,,,,TRACE,,,,2/8 Mostly Clear,72000.0,3600.0,FEW,3600.0,,,,,,
KRDR,07-24-2015,18:28,SPECI,Normal,320,10.0,,,9999.0,,27.0,19.0,29.85,,,,,,,,,,,,,,,,2/8 Mostly Clear,72000.0,3600.0,FEW,3600.0,,,,,,
KRDR,07-24-2015,18:20,SPECI,Normal,330,7.0,,,9999.0,Light Drizzle,27.0,19.0,29.85,,51,,,,,,,,,,,,,,2/8 Mostly Clear,72000.0,3400.0,FEW,3400.0,,,,,,
KRDR,07-24-2015,17:58,METAR,Normal,320,9.0,,,9999.0,,25.9,19.1,29.85,1010.9,,,,,,,,,,,,,,,4/8 Partly Cloudy,72000.0,2900.0,SCT,2900.0,,,,,,
KRDR,07-24-2015,16:58,METAR,Normal,350,5.0,,,9999.0,,25.1,20.1,29.85,1011.0,,,,,,,,,,,,,,,4/8 Partly Cloudy,72000.0,2300.0,SCT,2300.0,SCT,2900.0,,,,
KRDR,07-24-2015,15:58,METAR,Normal,350,5.0,,,9999.0,,23.3,18.9,29.83,1010.2,,,,,,,,,,,,,,,,2500.0,1800.0,FEW,1800.0,BKN,2500.0,,,,
KRDR,07-24-2015,14:58,METAR,Normal,310,3.0,,,9999.0,,22.7,18.7,29.82,1009.8,,,,,,,,,,,,,,,4/8 Partly Cloudy,72000.0,1500.0,SCT,1500.0,,,,,,
KRDR,07-24-2015,13:58,METAR,Normal,270,3.0,,,9999.0,,21.5,18.3,29.82,1009.8,,,,,,,,,,,,,,,Clear,72000.0,,,,,,,,,
KRDR,07-24-2015,12:58,METAR,Normal,290,4.0,,,9999.0,,20.2,18.2,29.81,1009.5,,,,,,,,,,,,,,,Clear,72000.0,,,,,,,,,
KRDR,07-24-2015,11:58,METAR,Calm,,0.0,,,9999.0,,18.6,17.6,29.80,1009.2,,,,,,,,,,,,,.05 IN,.8 IN,,5500.0,5500.0,BKN,5500.0,,,,,,
KRDR,07-24-2015,10:58,METAR,Normal,310,5.0,,,9999.0,,17.6,17.0,29.78,1008.5,,,,,,,,,,,,,,,Clear,72000.0,,,,,,,,,
KRDR,07-24-2015,10:38,SPECI,Normal,300,5.0,,,9999.0,,18.0,17.0,29.77,,,,,,,,,,,,,,,,4/8 Partly Cloudy,72000.0,700.0,SCT,700.0,,,,,,
KRDR,07-24-2015,09:58,METAR,Normal,280,6.0,,,9999.0,,18.0,17.5,29.76,1007.8,,,,,,,,,,,,,,,,600.0,600.0,OVC,600.0,,,,,,
KRDR,07-24-2015,09:35,SPECI,Normal,290,5.0,,,9999.0,,18.0,17.0,29.74,,,,,,,,,,,,,,,,,600.0,600.0,BKN,600.0,,,,,,
KRDR,07-24-2015,09:30,SPECI,Normal,300,5.0,,,9999.0,,18.0,17.0,29.74,,,,,,,,,,,,,,,,,700.0,700.0,BKN,700.0,,,,,,
KRDR,07-24-2015,09:20,SPECI,Normal,280,4.0,,,9999.0,,18.0,17.0,29.72,,,,,,,,,,,,,,,,2/8 Mostly Clear,72000.0,700.0,FEW,700.0,,,,,,
KRDR,07-24-2015,08:58,METAR,Normal,230,7.0,,,9999.0,,18.0,17.5,29.72,1006.5,,,,,,,,,,,,.05 IN,,,Clear,72000.0,,,,,,,,,
KRDR,07-24-2015,08:28,SPECI,Normal,230,5.0,,,9999.0,,18.0,18.0,29.72,,,,,,,,,,,,,,,,4/8 Partly Cloudy,72000.0,600.0,SCT,600.0,,,,,,
KRDR,07-24-2015,07:58,METAR,Normal,220,4.0,,,9999.0,,18.4,17.9,29.71,1006.1,,,,,,,,,,,TRACE,,,,,600.0,600.0,OVC,600.0,,,,,,
KRDR,07-24-2015,07:45,SPECI,Normal,170,5.0,,,9999.0,,19.0,18.0,29.71,,,,,,,,,,,,,,,,,600.0,600.0,OVC,600.0,,,,,,
KRDR,07-24-2015,07:10,SPECI,Normal,170,9.0,,,9999.0,,19.0,18.0,29.72,,,,,,,,,,,,,,,,,500.0,500.0,OVC,500.0,,,,,,
KRDR,07-24-2015,07:09,SPECI,Normal,160,10.0,,,9999.0,Light Rain,19.0,18.0,29.72,,61,,,,,,,,,,,,,,,500.0,500.0,OVC,500.0,,,,,,
KRDR,07-24-2015,07:04,SPECI,Normal,170,7.0,,,9999.0,Light Rain,19.0,18.0,29.72,,61,,,,,,,,,,,,,,,600.0,600.0,BKN,600.0,,,,,,
KRDR,07-24-2015,06:59,SPECI,Normal,170,11.0,,,9999.0,Light Drizzle/Distant Lightning,19.0,18.0,29.73,,51,12,,,,,,,,,,,,,,1500.0,500.0,SCT,500.0,BKN,1500.0,,,,
KRDR,07-24-2015,06:58,METAR,Normal,170,11.0,19.0,,9999.0,Thunderstorm and Rain or Snow Showers,19.0,18.0,29.73,1006.8,92,,,,,,,,,,.05 IN,,,,,1500.0,500.0,SCT,500.0,BKN,1500.0,,,,
KRDR,07-24-2015,06:49,SPECI,Normal,160,14.0,,,9999.0,Thunderstorm and Rain or Snow Showers,19.0,18.0,29.73,,92,,,,,,,,,,,,,,,1300.0,500.0,FEW,500.0,BKN,1300.0,,,,
KRDR,07-24-2015,06:47,SPECI,Normal,140,14.0,,,9999.0,Thunderstorm and Rain or Snow Showers,19.0,18.0,29.71,,92,,,,,,,,,,,,,,,1300.0,1300.0,BKN,1300.0,,,,,,
KRDR,07-24-2015,06:46,SPECI,Normal,130,14.0,,,9999.0,Thunderstorm and Rain or Snow Showers,19.0,18.0,29.71,,92,,,,,,,,,,,,,,,1300.0,1300.0,BKN,1300.0,,,,,,
KRDR,07-24-2015,06:41,SPECI,Normal,100,14.0,,,9999.0,Thunderstorm and Rain or Snow Showers,19.0,18.0,29.70,,92,,,,,,,,,,,,,,,1400.0,1400.0,BKN,1400.0,,,,,,
KRDR,07-24-2015,06:37,SPECI,Normal,100,14.0,,,9999.0,Light Rain,19.0,18.0,29.71,,61,,,,,,,,,,,,,,,1700.0,1700.0,BKN,1700.0,,,,,,
KRDR,07-24-2015,06:12,SPECI,Normal,100,7.0,,,9999.0,Light Rain,19.0,18.0,29.75,,61,,,,,,,,,,,,,,,4000.0,4000.0,OVC,4000.0,,,,,,
KRDR,07-24-2015,06:07,SPECI,Normal,100,9.0,,,9999.0,Light Rain,19.0,18.0,29.73,,61,,,,,,,,,,,,,,,5000.0,5000.0,OVC,5000.0,,,,,,
KRDR,07-24-2015,06:02,SPECI,Normal,90,12.0,,,8000.0,Light Rain/Mist,19.0,18.0,29.73,,61,10,,,,,,,,,,,,,,5500.0,5500.0,OVC,5500.0,,,,,,
KRDR,07-24-2015,05:58,METAR,Normal,100,10.0,,,9999.0,Thunderstorm and Rain or Snow Showers/Mist,18.7,18.2,29.74,1007.1,92,10,,,,,,,,,.33 IN,,.75 IN,,,5500.0,5500.0,OVC,5500.0,,,,,,
KRDR,07-24-2015,05:44,SPECI,Normal,110,9.0,,,9999.0,Thunderstorm and Rain or Snow Showers,19.0,18.0,29.76,,92,,,,,,,,,,,,,,,6000.0,6000.0,OVC,6000.0,,,,,,
KRDR,07-24-2015,05:34,SPECI,Normal,130,10.0,,,8000.0,Thunderstorm and Rain or Snow Showers/Mist,19.0,18.0,29.79,,92,10,,,,,,,,,,,,,,5000.0,5000.0,OVC,5000.0,,,,,,
KRDR,07-24-2015,05:14,SPECI,Normal,360,3.0,,,6400.0,Thunderstorm and Rain or Snow Showers/Mist,18.0,18.0,29.80,,92,10,,,,,,,,,,,,,,3100.0,500.0,FEW,500.0,OVC,3100.0,,,,
KRDR,07-24-2015,05:09,SPECI,Normal,360,4.0,,,4000.0,Thunderstorm and Rain or Snow Showers/Mist,19.0,18.0,29.81,,92,10,,,,,,,,,,,,,,300.0,500.0,FEW,500.0,OVC,2500.0,,,,
KRDR,07-24-2015,05:08,SPECI,Normal,10,5.0,,,4000.0,Heavy Thunderstorm and Rain or Snow Showers/Mist,19.0,18.0,29.81,,95,10,,,,,,,,,,,,,,300.0,2600.0,OVC,2600.0,,,,,,
KRDR,07-24-2015,05:03,SPECI,Normal,10,7.0,,,2400.0,Heavy Thunderstorm and Rain or Snow Showers/Mist,19.0,18.0,29.80,,95,10,,,,,,,,,,,,,,1600.0,2000.0,OVC,2000.0,,,,,,
KRDR,07-24-2015,04:58,METAR,Normal,340,8.0,,010/36KTS,2400.0,Heavy Thunderstorm and Rain or Snow Showers/Mist,18.9,18.1,29.82,1009.9,95,10,,,,,,,,,.42 IN,,,,,1400.0,1800.0,OVC,1800.0,,,,,,
KRDR,07-24-2015,04:52,SPECI,Normal,320,9.0,,,2400.0,Heavy Thunderstorm and Rain or Snow Showers/Mist,19.0,18.0,29.82,,95,10,,,,,,,,,,,,,,1400.0,1400.0,BKN,1400.0,OVC,2000.0,,,,
KRDR,07-24-2015,04:47,SPECI,Normal,330,12.0,23.0,,2400.0,Heavy Thunderstorm and Rain or Snow Showers/Mist,20.0,18.0,29.84,,95,10,,,,,,,,,,,,,,1400.0,1400.0,BKN,1400.0,BKN,1900.0,OVC,2500.0,,
KRDR,07-24-2015,04:46,SPECI,Normal,340,11.0,23.0,,2800.0,Heavy Thunderstorm and Rain or Snow Showers/Mist,20.0,18.0,29.84,,95,10,,,,,,,,,,,,,,1900.0,1200.0,SCT,1200.0,BKN,1900.0,OVC,2500.0,,
KRDR,07-24-2015,04:41,SPECI,Normal,360,16.0,29.0,,6400.0,Thunderstorm and Rain or Snow Showers,21.0,18.0,29.83,,92,,,,,,,,,,,,,,,1900.0,1900.0,BKN,1900.0,OVC,2500.0,,,,
KRDR,07-24-2015,04:40,SPECI,Normal,360,18.0,29.0,,6400.0,Dry Thunderstorm,21.0,18.0,29.83,,91,,,,,,,,,,,,,,,1900.0,1900.0,BKN,1900.0,OVC,2500.0,,,,
KRDR,07-24-2015,04:35,SPECI,Normal,10,19.0,29.0,,9999.0,Light Rain,21.0,18.0,29.80,,61,,,,,,,,,,,,,,,1900.0,1900.0,BKN,1900.0,OVC,2500.0,,,,
KRDR,07-24-2015,04:33,SPECI,Normal,20,16.0,29.0,,9999.0,,21.0,18.0,29.80,,,,,,,,,,,,,,,,,1900.0,1900.0,SCT,1900.0,OVC,2500.0,,,,
KRDR,07-24-2015,03:58,METAR,Normal,140,5.0,,,9999.0,,24.8,20.9,29.71,1006.0,,,,,,,,,,,,,,,Clear,72000.0,,,,,,,,,
KRDR,07-24-2015,02:58,METAR,Normal,170,11.0,,,9999.0,,25.7,21.6,29.70,1005.7,,,,,,,,,,,,,,,Clear,72000.0,,,,,,,,,
KRDR,07-24-2015,01:58,METAR,Normal,160,7.0,,,9999.0,,26.9,21.8,29.73,1006.8,,,,,,,,,,,,,,,2/8 Mostly Clear,72000.0,4300.0,FEW,4300.0,,,,,,
KRDR,07-24-2015,00:58,METAR,Normal,160,11.0,,,9999.0,,27.7,22.2,29.70,1005.7,,,,,,,,,,,,,,,4/8 Partly Cloudy,72000.0,3900.0,SCT,3900.0,,,,,,
KRDR,07-23-2015,23:58,METAR,Normal,160,19.0,25.0,,9999.0,,29.3,22.8,29.69,1005.4,,,,,,,,,,,,,,,2/8 Mostly Clear,72000.0,3300.0,FEW,3300.0,,,,,,
KRDR,07-23-2015,22:58,METAR,Normal,160,18.0,22.0,,9999.0,,30.1,23.0,29.71,1006.1,,,,,,,,,,,,,,,4/8 Partly Cloudy,72000.0,3300.0,SCT,3300.0,,,,,,
KRDR,07-23-2015,21:58,METAR,Normal,170,18.0,,,9999.0,,29.9,22.6,29.72,1006.4,,,,,,,,,,,,,,,2/8 Mostly Clear,72000.0,3500.0,FEW,3500.0,,,,,,
KRDR,07-23-2015,20:58,METAR,Normal,170,17.0,,,9999.0,,29.5,22.3,29.75,1007.4,,,,,,,,,,,,,,,,3200.0,3200.0,BKN,3200.0,,,,,,
KRDR,07-23-2015,19:58,METAR,Normal,160,14.0,21.0,,9999.0,,29.6,22.1,29.76,1007.7,,,,,,,,,,,,,,,2/8 Mostly Clear,72000.0,3100.0,FEW,3100.0,,,,,,
KRDR,07-23-2015,18:58,METAR,Normal,170,13.0,,,9999.0,,28.7,21.6,29.78,1008.4,,,,,,,,,,,,,,,Clear,72000.0,,,,,,,,,
KRDR,07-23-2015,17:58,METAR,Normal,150,12.0,,,9999.0,,28.1,21.4,29.79,1008.8,,,,,,,,,,,,,,,Clear,72000.0,,,,,,,,,
KRDR,07-23-2015,16:58,METAR,Normal,160,12.0,,,9999.0,,27.2,20.7,29.80,1009.1,,,,,,,,,,,,,,,Clear,72000.0,,,,,,,,,
KRDR,07-23-2015,15:58,METAR,Normal,180,12.0,,,9999.0,,26.1,19.6,29.80,1009.2,,,,,,,,,,,,,,,Clear,72000.0,,,,,,,,,
KRDR,07-23-2015,14:58,METAR,Normal,170,14.0,,,9999.0,,24.3,18.9,29.80,1009.2,,,,,,,,,,,,,,,Clear,72000.0,,,,,,,,,
KRDR,07-23-2015,13:58,METAR,Normal,180,14.0,,,9999.0,,22.7,18.5,29.82,1009.9,,,,,,,,,,,,,,,Clear,72000.0,,,,,,,,,
KRDR,07-23-2015,12:58,METAR,Normal,170,10.0,,,9999.0,,20.8,18.2,29.83,1010.2,,,,,,,,,,,,,,,Clear,72000.0,,,,,,,,,
KRDR,07-23-2015,11:58,METAR,Normal,150,7.0,,,9999.0,,18.9,17.6,29.83,1010.2,,,,,,,,,,,,,,,Clear,72000.0,,,,,,,,,
KRDR,07-23-2015,10:58,METAR,Normal,170,5.0,,,9999.0,,18.4,17.3,29.82,1009.9,,,,,,,,,,,,,,,Clear,72000.0,,,,,,,,,
KRDR,07-23-2015,09:58,METAR,Normal,190,6.0,,,9999.0,,19.1,18.0,29.81,1009.5,,,,,,,,,,,,,,,Clear,72000.0,,,,,,,,,
KRDR,07-23-2015,08:58,METAR,Normal,190,6.0,,,9999.0,,20.1,18.7,29.80,1009.1,,,,,,,,,,,,,,,Clear,72000.0,,,,,,,,,
KRDR,07-23-2015,07:58,METAR,Normal,210,10.0,,,9999.0,,21.2,19.3,29.80,1009.1,,,,,,,,,,,,,,,Clear,72000.0,,,,,,,,,
KRDR,07-23-2015,06:58,METAR,Normal,210,12.0,,,9999.0,,21.8,19.7,29.80,1009.1,,,,,,,,,,,,,,,Clear,72000.0,,,,,,,,,
KRDR,07-23-2015,05:58,METAR,Normal,210,10.0,,,9999.0,,22.1,20.4,29.81,1009.5,,,,,,,,,,,,,,,Clear,72000.0,,,,,,,,,
KRDR,07-23-2015,04:58,METAR,Normal,200,7.0,,,9999.0,,21.6,19.5,29.81,,,,,,,,,,,,,,,,Clear,72000.0,,,,,,,,,
KRDR,07-23-2015,03:58,METAR,Normal,180,7.0,,,9999.0,,22.2,19.2,29.80,,,,,,,,,,,,,,,,Clear,72000.0,,,,,,,,,
KRDR,07-23-2015,02:58,METAR,Normal,170,6.0,,,9999.0,,23.3,19.4,29.79,,,,,,,,,,,,,,,,Clear,72000.0,,,,,,,,,
KRDR,07-23-2015,01:58,METAR,Normal,180,7.0,,,9999.0,,25.3,20.0,29.77,1008.2,,,,,,,,,,,,,,,Clear,72000.0,,,,,,,,,
KRDR,07-23-2015,00:58,METAR,Normal,200,8.0,,,9999.0,,27.9,20.7,29.77,1008.2,,,,,,,,,,,,,,,Clear,72000.0,,,,,,,,,
KRDR,07-22-2015,23:58,METAR,Normal,190,8.0,,,9999.0,,29.1,20.3,29.77,1008.2,,,,,,,,,,,,,,,Clear,72000.0,,,,,,,,,
KRDR,07-22-2015,22:58,METAR,Normal,180,13.0,,,9999.0,,29.6,20.5,29.77,1008.2,,,,,,,,,,,,,,,Clear,72000.0,,,,,,,,,
KRDR,07-22-2015,21:58,METAR,Normal,170,10.0,,,9999.0,,29.8,20.9,29.79,1008.8,,,,,,,,,,,,,,,,3800.0,3800.0,BKN,3800.0,,,,,,
KRDR,07-22-2015,20:58,METAR,Normal,180,11.0,,,9999.0,,29.2,21.1,29.80,1009.2,,,,,,,,,,,,,,,4/8 Partly Cloudy,72000.0,3200.0,SCT,3200.0,,,,,,
KRDR,07-22-2015,20:07,SPECI,Normal,190,13.0,,,9999.0,,29.0,21.0,29.80,,,,,,,,,,,,,,,,2/8 Mostly Clear,72000.0,3300.0,FEW,3300.0,,,,,,
KRDR,07-22-2015,19:58,METAR,Normal,150,9.0,,,9999.0,,28.6,20.5,29.80,1009.2,,,,,,,,,,,,,,,Clear,72000.0,,,,,,,,,
KRDR,07-22-2015,18:58,METAR,Normal,170,11.0,,,9999.0,,28.0,20.6,29.81,1009.5,,,,,,,,,,,,,,,Clear,72000.0,,,,,,,,,
KRDR,07-22-2015,17:58,METAR,Normal,150,11.0,,,9999.0,,27.0,19.5,29.82,1009.9,,,,,,,,,,,,,,,Clear,72000.0,,,,,,,,,
KRDR,07-22-2015,16:58,METAR,Normal,140,10.0,,,9999.0,,25.8,18.6,29.83,1010.3,,,,,,,,,,,,,,,Clear,72000.0,,,,,,,,,
KRDR,07-22-2015,15:58,METAR,Normal,150,11.0,,,9999.0,,24.9,18.4,29.84,1010.6,,,,,,,,,,,,,,,Clear,72000.0,,,,,,,,,
KRDR,07-22-2015,14:58,METAR,Normal,170,12.0,,,9999.0,,22.5,17.9,29.85,1011.0,,,,,,,,,,,,,,,2/8 Mostly Clear,72000.0,8000.0,FEW,8000.0,,,,,,
KRDR,07-22-2015,13:58,METAR,Normal,150,9.0,,,9999.0,,20.0,17.3,29.86,1011.4,,,,,,,,,,,,,,,,8000.0,8000.0,BKN,8000.0,,,,,,
KRDR,07-22-2015,12:58,METAR,Normal,150,9.0,,,9999.0,,19.0,16.3,29.86,1011.3,,,,,,,,,,,,,,,,8500.0,6500.0,SCT,6500.0,BKN,8600.0,,,,
KRDR,07-22-2015,11:58,METAR,Normal,150,8.0,,,9999.0,,17.6,15.1,29.87,1011.7,,,,,,,,,,,,,,,,6000.0,6000.0,OVC,6000.0,,,,,,
KRDR,07-22-2015,10:58,METAR,Normal,150,5.0,,,9999.0,,17.2,14.6,29.87,1011.7,,,,,,,,,,,,,,,4/8 Partly Cloudy,72000.0,12000.0,SCT,12000.0,,,,,,
KRDR,07-22-2015,09:58,METAR,Normal,160,8.0,,,9999.0,,17.8,14.4,29.86,1011.3,,,,,,,,,,,,,,,4/8 Partly Cloudy,72000.0,12000.0,SCT,12000.0,,,,,,
KRDR,07-22-2015,08:58,METAR,Normal,150,4.0,,,9999.0,,18.0,14.4,29.86,1011.3,,,,,,,,,,,,,,,,12000.0,12000.0,BKN,12000.0,,,,,,
KRDR,07-22-2015,07:58,METAR,Normal,160,4.0,,,9999.0,,18.6,14.6,29.87,,,,,,,,,,,,,,,,,11000.0,11000.0,BKN,11000.0,,,,,,
KRDR,07-22-2015,06:58,METAR,Normal,140,4.0,,,9999.0,,18.8,15.2,29.88,,,,,,,,,,,,,,,,,10000.0,10000.0,BKN,10000.0,,,,,,
KRDR,07-22-2015,05:58,METAR,Normal,140,5.0,,,9999.0,,19.5,15.4,29.88,,,,,,,,,,,,,,,,,12000.0,12000.0,BKN,12000.0,,,,,,
KRDR,07-22-2015,04:58,METAR,Normal,160,4.0,,,9999.0,,19.3,16.0,29.90,,,,,,,,,,,,,,,,,12000.0,12000.0,BKN,12000.0,,,,,,
KRDR,07-22-2015,03:58,METAR,Normal,140,4.0,,,9999.0,,20.3,16.3,29.90,,,,,,,,,,,,,,,,Clear,72000.0,,,,,,,,,
KRDR,07-22-2015,02:58,METAR,Normal,150,5.0,,,9999.0,,21.4,15.7,29.89,,,,,,,,,,,,,,,,Clear,72000.0,,,,,,,,,
KRDR,07-22-2015,01:58,METAR,Normal,160,4.0,,,9999.0,,22.1,16.2,29.89,1012.5,,,,,,,,,,,,,,,Clear,72000.0,,,,,,,,,
KRDR,07-22-2015,00:58,METAR,Normal,150,3.0,,,9999.0,,24.2,15.2,29.89,1012.4,,,,,,,,,,,,,,,Clear,72000.0,,,,,,,,,
KRDR,07-21-2015,23:58,METAR,Normal,170,2.0,,,9999.0,,25.0,14.0,29.89,1012.5,,,,,,,,,,,,,,,Clear,72000.0,,,,,,,,,
KRDR,07-21-2015,22:58,METAR,Normal,190,3.0,,,9999.0,,25.0,13.4,29.90,1012.9,,,,,,,,,,,,,,,2/8 Mostly Clear,72000.0,6000.0,FEW,6000.0,,,,,,
KRDR,07-21-2015,21:58,METAR,Normal,100,4.0,,,9999.0,,25.2,13.2,29.91,1013.2,,,,,,,,,,,,,,,2/8 Mostly Clear,72000.0,5500.0,FEW,5500.0,,,,,,
KRDR,07-21-2015,20:58,METAR,Calm,,0.0,,,9999.0,,25.8,13.0,29.92,1013.5,,,,,,,,,,,,,,,Clear,72000.0,,,,,,,,,
KRDR,07-21-2015,19:58,METAR,Normal,40,4.0,,,9999.0,,25.5,13.4,29.93,1013.8,,,,,,,,,,,,,,,Clear,72000.0,,,,,,,,,
KRDR,07-21-2015,18:58,METAR,Normal,330,4.0,,,9999.0,,24.4,14.4,29.95,1014.6,,,,,,,,,,,,,,,Clear,72000.0,,,,,,,,,
KRDR,07-21-2015,17:58,METAR,Calm,,0.0,,,9999.0,,23.1,14.4,29.96,1014.9,,,,,,,,,,,,,,,Clear,72000.0,,,,,,,,,
KRDR,07-21-2015,16:58,METAR,Variable,,4.0,,,9999.0,,22.9,14.6,29.97,1015.3,,,,,,,,,,,,,,,Clear,72000.0,,,,,,,,,
KRDR,07-21-2015,15:58,METAR,Normal,40,4.0,,,9999.0,,22.1,15.8,29.97,1015.3,,,,,,,,,,,,,,,Clear,72000.0,,,,,,,,,
KRDR,07-21-2015,14:58,METAR,Variable,,2.0,,,9999.0,,20.4,16.1,29.97,1015.3,,,,,,,,,,,,,,,Clear,72000.0,,,,,,,,,
KRDR,07-21-2015,13:58,METAR,Variable,,3.0,,,9999.0,,18.2,15.0,29.98,1015.5,,,,,,,,,,,,,,,Clear,72000.0,,,,,,,,,
KRDR,07-21-2015,12:58,METAR,Normal,350,3.0,,,9999.0,,16.7,14.2,29.98,1015.5,,,,,,,,,,,,,,,Clear,72000.0,,,,,,,,,
KRDR,07-21-2015,11:58,METAR,Normal,320,4.0,,,9999.0,,13.8,12.9,29.97,1015.3,,,,,,,,,,,,,,,Clear,72000.0,,,,,,,,,
KRDR,07-21-2015,10:58,METAR,Normal,300,2.0,,,9999.0,Mist,12.0,11.4,29.95,1014.6,10,,,,,,,,,,,,,,Clear,72000.0,,,,,,,,,
KRDR,07-21-2015,09:58,METAR,Normal,300,2.0,,,9999.0,,12.9,12.1,29.94,1014.2,,,,,,,,,,,,,,,Clear,72000.0,,,,,,,,,
KRDR,07-21-2015,08:58,METAR,Normal,310,4.0,,,9999.0,,13.8,12.7,29.94,1014.2,,,,,,,,,,,,,,,Clear,72000.0,,,,,,,,,
KRDR,07-21-2015,08:53,SPECI,Normal,300,5.0,,,9999.0,,14.0,13.0,29.94,,,,,,,,,,,,,,,,Clear,72000.0,,,,,,,,,
KRDR,07-21-2015,08:43,SPECI,Normal,300,5.0,,,9999.0,,14.0,13.0,29.93,,,,,,,,,,,,,,,,Clear,72000.0,,,,,,,,,
KRDR,07-21-2015,07:58,METAR,Normal,290,3.0,,,9999.0,,13.7,12.7,29.93,1013.9,,,,,,,,,,,,,,,Clear,72000.0,,,,,,,,,
KRDR,07-21-2015,06:58,METAR,Normal,260,4.0,,,9999.0,,13.3,12.3,29.93,1013.9,,,,,,,,,,,,,,,Clear,72000.0,,,,,,,,,
KRDR,07-21-2015,05:58,METAR,Normal,290,4.0,,,9999.0,,15.4,12.9,29.92,1013.5,,,,,,,,,,,,,,,Clear,72000.0,,,,,,,,,
KRDR,07-21-2015,04:58,METAR,Normal,260,5.0,,,9999.0,,14.6,13.5,29.93,1013.9,,,,,,,,,,,,,,,Clear,72000.0,,,,,,,,,
KRDR,07-21-2015,03:58,METAR,Normal,270,4.0,,,9999.0,,16.3,14.7,29.93,1013.9,,,,,,,,,,,,,,,Clear,72000.0,,,,,,,,,
KRDR,07-21-2015,02:58,METAR,Normal,230,2.0,,,9999.0,,17.6,15.1,29.92,1013.6,,,,,,,,,,,,,,,,9000.0,9000.0,BKN,9100.0,,,,,,
KRDR,07-21-2015,01:58,METAR,Calm,,0.0,,,9999.0,,21.5,14.5,29.92,1013.5,,,,,,,,,,,,,,,Clear,72000.0,,,,,,,,,
KRDR,07-21-2015,00:58,METAR,Normal,360,3.0,,,9999.0,,22.9,12.7,29.92,1013.5,,,,,,,,,,,,,,,Clear,72000.0,,,,,,,,,
KRDR,07-20-2015,23:58,METAR,Normal,360,7.0,,,9999.0,,23.7,11.4,29.93,1013.8,,,,,,,,,,,,,,,Clear,72000.0,,,,,,,,,
KRDR,07-20-2015,22:58,METAR,Normal,330,5.0,,,9999.0,,24.2,12.1,29.93,1013.8,,,,,,,,,,,,,,,Clear,72000.0,,,,,,,,,
KRDR,07-20-2015,21:58,METAR,Normal,340,7.0,,,9999.0,,23.8,12.0,29.94,1014.2,,,,,,,,,,,,,,,Clear,72000.0,,,,,,,,,
KRDR,07-20-2015,20:58,METAR,Normal,340,9.0,,,9999.0,,23.2,11.7,29.95,1014.5,,,,,,,,,,,,,,,Clear,72000.0,,,,,,,,,
KRDR,07-20-2015,19:58,METAR,Normal,360,7.0,,,9999.0,,23.1,11.7,29.95,1014.5,,,,,,,,,,,,,,,4/8 Partly Cloudy,72000.0,4900.0,SCT,4900.0,,,,,,
KRDR,07-20-2015,18:58,METAR,Variable,,5.0,,,9999.0,,22.5,12.2,29.96,1014.9,,,,,,,,,,,,,,,4/8 Partly Cloudy,72000.0,4400.0,SCT,4400.0,SCT,5500.0,,,,
KRDR,07-20-2015,17:58,METAR,Normal,350,9.0,,,9999.0,,21.8,12.0,29.96,1014.8,,,,,,,,,,,,,,,2/8 Mostly Clear,72000.0,4100.0,FEW,4100.0,,,,,,
KRDR,07-20-2015,16:58,METAR,Normal,360,7.0,,,9999.0,,20.4,12.6,29.95,1014.5,,,,,,,,,,,,,,,4/8 Partly Cloudy,72000.0,3400.0,SCT,3400.0,,,,,,
KRDR,07-20-2015,15:58,METAR,Normal,350,8.0,,,9999.0,,19.5,12.4,29.94,1014.2,,,,,,,,,,,,,,,4/8 Partly Cloudy,72000.0,2600.0,SCT,2600.0,,,,,,
KRDR,07-20-2015,14:58,METAR,Normal,350,9.0,,,9999.0,,18.7,13.1,29.93,1013.8,,,,,,,,,,,,,,,4/8 Partly Cloudy,72000.0,2300.0,SCT,2300.0,,,,,,
KRDR,07-20-2015,13:58,METAR,Variable,360,10.0,14.0,,9999.0,,17.7,12.8,29.91,1013.1,,,,,,,,,,,,,,,2/8 Mostly Clear,72000.0,1900.0,FEW,1900.0,,,,,,
KRDR,07-20-2015,12:58,METAR,Normal,350,10.0,,,9999.0,,16.3,12.6,29.89,1012.4,,,,,,,,,,,,,,,Clear,72000.0,,,,,,,,,
KRDR,07-20-2015,11:58,METAR,Normal,330,7.0,,,9999.0,,14.9,12.3,29.87,1011.7,,,,,,,,,,,,,,,Clear,72000.0,,,,,,,,,
KRDR,07-20-2015,10:58,METAR,Normal,330,8.0,,,9999.0,,14.7,12.4,29.85,1010.9,,,,,,,,,,,,,,,Clear,72000.0,,,,,,,,,
KRDR,07-20-2015,09:58,METAR,Normal,340,8.0,,,9999.0,,15.3,12.7,29.83,1010.3,,,,,,,,,,,,,,,Clear,72000.0,,,,,,,,,
KRDR,07-20-2015,08:58,METAR,Normal,320,5.0,,,9999.0,,15.8,12.7,29.81,1009.6,,,,,,,,,,,,,,,Clear,72000.0,,,,,,,,,
KRDR,07-20-2015,07:58,METAR,Normal,320,9.0,,,9999.0,,17.3,13.1,29.79,1008.8,,,,,,,,,,,,,,,Clear,72000.0,,,,,,,,,
KRDR,07-20-2015,06:58,METAR,Normal,310,7.0,,,9999.0,,16.9,13.9,29.77,1008.2,,,,,,,,,,,,,,,Clear,72000.0,,,,,,,,,
KRDR,07-20-2015,05:58,METAR,Normal,310,7.0,,,9999.0,,18.6,13.7,29.77,1008.2,,,,,,,,,,,,,,,Clear,72000.0,,,,,,,,,
KRDR,07-20-2015,04:58,METAR,Normal,320,10.0,,,9999.0,,20.1,14.0,29.76,1007.8,,,,,,,,,,,,,,,Clear,72000.0,,,,,,,,,
KRDR,07-20-2015,03:58,METAR,Normal,320,7.0,,,9999.0,,20.6,14.6,29.75,1007.5,,,,,,,,,,,,,,,Clear,72000.0,,,,,,,,,
KRDR,07-20-2015,02:58,METAR,Normal,330,9.0,,,9999.0,,21.9,13.9,29.72,1006.5,,,,,,,,,,,,,,,Clear,72000.0,,,,,,,,,
KRDR,07-20-2015,01:58,METAR,Normal,320,8.0,,,9999.0,,24.3,17.1,29.70,1005.8,,,,,,,,,,,,,,,Clear,72000.0,,,,,,,,,
KRDR,07-20-2015,00:58,METAR,Normal,310,11.0,,,9999.0,,27.1,16.0,29.67,1004.8,,,,,,,,,,,,,,,4/8 Partly Cloudy,72000.0,10000.0,SCT,10000.0,,,,,,
KRDR,07-19-2015,23:58,METAR,Normal,310,13.0,21.0,,9999.0,,29.0,16.4,29.66,1004.5,,,,,,,,,,,,,,,Clear,72000.0,,,,,,,,,
KRDR,07-19-2015,22:58,METAR,Normal,280,14.0,20.0,,9999.0,,30.0,15.4,29.66,1004.5,,,,,,,,,,,,,,,2/8 Mostly Clear,72000.0,12000.0,FEW,12000.0,,,,,,
KRDR,07-19-2015,21:58,METAR,Normal,280,14.0,21.0,260/26KTS,9999.0,,28.9,13.9,29.67,1004.9,,,,,,,,,,,,,,,2/8 Mostly Clear,72000.0,12000.0,FEW,12000.0,,,,,,
KRDR,07-19-2015,20:58,METAR,Normal,260,19.0,23.0,,9999.0,,30.2,14.3,29.68,1005.1,,,,,,,,,,,,,,,Clear,72000.0,,,,,,,,,
KRDR,07-19-2015,19:58,METAR,Normal,260,13.0,24.0,,9999.0,,29.5,15.1,29.69,1005.4,,,,,,,,,,,,,,,Clear,72000.0,,,,,,,,,
KRDR,07-19-2015,18:58,METAR,Normal,250,18.0,22.0,,9999.0,,29.1,15.1,29.70,1005.8,,,,,,,,,,,,,,,Clear,72000.0,,,,,,,,,
KRDR,07-19-2015,17:58,METAR,Normal,260,17.0,21.0,,9999.0,,28.1,15.2,29.72,1006.5,,,,,,,,,,,,,,,Clear,72000.0,,,,,,,,,
KRDR,07-19-2015,16:58,METAR,Normal,270,14.0,20.0,,9999.0,,26.6,15.6,29.74,1007.2,,,,,,,,,,,,,,,Clear,72000.0,,,,,,,,,
KRDR,07-19-2015,15:58,METAR,Normal,270,14.0,17.0,,9999.0,,25.4,15.3,29.76,1008.0,,,,,,,,,,,,,,,Clear,72000.0,,,,,,,,,
KRDR,07-19-2015,14:58,METAR,Normal,280,11.0,,,9999.0,,23.2,15.0,29.77,1008.3,,,,,,,,,,,,,,,Clear,72000.0,,,,,,,,,
KRDR,07-19-2015,13:58,METAR,Normal,270,12.0,,,9999.0,,20.7,13.8,29.77,1008.4,,,,,,,,,,,,,,,Clear,72000.0,,,,,,,,,
KRDR,07-19-2015,12:58,METAR,Normal,270,10.0,,,9999.0,,18.4,13.1,29.79,1009.1,,,,,,,,,,,,,,,Clear,72000.0,,,,,,,,,
KRDR,07-19-2015,11:58,METAR,Normal,260,7.0,,,9999.0,,15.8,12.5,29.79,1009.1,,,,,,,,,,,,,,.01 IN,Clear,72000.0,,,,,,,,,
KRDR,07-19-2015,10:58,METAR,Normal,260,4.0,,,9999.0,,14.3,12.5,29.79,1009.2,,,,,,,,,,,,,,,Clear,72000.0,,,,,,,,,
KRDR,07-19-2015,09:58,METAR,Normal,270,6.0,,,9999.0,,14.5,12.7,29.80,1009.5,,,,,,,,,,,,,,,Clear,72000.0,,,,,,,,,
KRDR,07-19-2015,08:58,METAR,Normal,290,5.0,,,9999.0,,16.9,13.2,29.80,1009.4,,,,,,,,,,,,,,,Clear,72000.0,,,,,,,,,
KRDR,07-19-2015,07:58,METAR,Normal,290,11.0,,,9999.0,,17.9,13.1,29.80,1009.4,,,,,,,,,,,,,,,Clear,72000.0,,,,,,,,,
KRDR,07-19-2015,06:58,METAR,Normal,270,10.0,,,9999.0,,17.5,13.4,29.79,1009.1,,,,,,,,,,,,,,,Clear,72000.0,,,,,,,,,
KRDR,07-19-2015,05:58,METAR,Normal,270,8.0,,,9999.0,,17.5,13.6,29.80,1009.5,,,,,,,,,,,,,,,Clear,72000.0,,,,,,,,,
KRDR,07-19-2015,04:58,METAR,Normal,270,9.0,,,9999.0,,17.5,13.6,29.80,1009.4,,,,,,,,,,,,,,,Clear,72000.0,,,,,,,,,
KRDR,07-19-2015,03:58,METAR,Normal,250,7.0,,,9999.0,,16.3,14.1,29.80,1009.5,,,,,,,,,,,,,,,Clear,72000.0,,,,,,,,,
KRDR,07-19-2015,02:58,METAR,Normal,280,7.0,,,9999.0,,17.8,13.6,29.79,1009.1,,,,,,,,,,,,,,,Clear,72000.0,,,,,,,,,
KRDR,07-19-2015,01:58,METAR,Normal,280,6.0,,,9999.0,,19.4,13.7,29.79,1009.1,,,,,,,,,,,,,,,Clear,72000.0,,,,,,,,,
KRDR,07-19-2015,00:58,METAR,Normal,290,7.0,,,9999.0,,21.2,12.8,29.78,1008.8,,,,,,,,,,,,,,,Clear,72000.0,,,,,,,,,
KRDR,07-18-2015,23:58,METAR,Normal,310,10.0,,,9999.0,,22.0,13.4,29.78,1008.8,,,,,,,,,,,,,,,2/8 Mostly Clear,72000.0,5500.0,FEW,5500.0,,,,,,
KRDR,07-18-2015,22:58,METAR,Normal,310,19.0,29.0,,9999.0,,22.0,12.3,29.76,1008.2,,,,,,,,,,,,,,,Clear,72000.0,,,,,,,,,
KRDR,07-18-2015,21:58,METAR,Normal,300,23.0,31.0,,9999.0,,21.4,13.5,29.74,1007.5,,,,,,,,,,,,,,,2/8 Mostly Clear,72000.0,3600.0,FEW,3600.0,,,,,,
KRDR,07-18-2015,20:58,METAR,Normal,280,21.0,28.0,300/30KTS,9999.0,,22.2,14.0,29.72,1006.7,,,,,,,,,,,,,,,4/8 Partly Cloudy,72000.0,3800.0,FEW,3800.0,SCT,6500.0,,,,
KRDR,07-18-2015,19:58,METAR,Normal,280,18.0,23.0,250/28KTS,9999.0,,22.4,13.8,29.70,1006.0,,,,,,,,,,,,,,,2/8 Mostly Clear,72000.0,4100.0,FEW,4100.0,,,,,,
KRDR,07-18-2015,18:58,METAR,Normal,300,12.0,20.0,250/26KTS,9999.0,,20.1,13.2,29.69,1005.8,,,,,,,,,,,,,,,,3900.0,3900.0,BKN,3900.0,BKN,4700.0,OVC,6000.0,,
KRDR,07-18-2015,17:58,METAR,Normal,270,18.0,25.0,260/30KTS,9999.0,,20.5,12.3,29.69,1005.7,,,,,,,,,,,,,.01 IN,,,6000.0,4200.0,FEW,4200.0,BKN,6000.0,,,,
KRDR,07-18-2015,16:58,METAR,Normal,280,21.0,28.0,270/29KTS,9999.0,,21.0,12.8,29.66,1004.6,,,,,,,,,,,,,,,4/8 Partly Cloudy,72000.0,4100.0,SCT,4100.0,,,,,,
KRDR,07-18-2015,15:58,METAR,Normal,260,18.0,25.0,280/28KTS,9999.0,,21.5,13.9,29.65,1004.3,,,,,,,,,,,,,,,2/8 Mostly Clear,72000.0,3900.0,FEW,3900.0,,,,,,
KRDR,07-18-2015,14:58,METAR,Normal,280,14.0,20.0,,9999.0,,21.1,14.5,29.65,1004.3,,,,,,,,,,,,.01 IN,,,Clear,72000.0,,,,,,,,,
KRDR,07-18-2015,13:58,METAR,Normal,250,11.0,,,9999.0,,19.8,15.3,29.65,1004.3,,,,,,,,,,,,,,,4/8 Partly Cloudy,72000.0,9500.0,SCT,9600.0,,,,,,
KRDR,07-18-2015,12:58,METAR,Normal,230,7.0,,,9999.0,,16.9,15.3,29.65,1004.4,,,,,,,,,,,.01 IN,,,,Clear,72000.0,,,,,,,,,
KRDR,07-18-2015,11:58,METAR,Normal,220,5.0,,,9999.0,,14.9,14.7,29.64,1004.1,,,,,,,,,,,,,,.93 IN,Clear,72000.0,,,,,,,,,
KRDR,07-18-2015,10:58,METAR,Normal,200,4.0,,,9999.0,,13.8,13.5,29.65,1004.5,,,,,,,,,,,,,,,Clear,72000.0,,,,,,,,,
KRDR,07-18-2015,09:58,METAR,Normal,230,4.0,,,9999.0,,13.0,13.0,29.66,1004.8,,,,,,,,,,,,,,,Clear,72000.0,,,,,,,,,
KRDR,07-18-2015,09:43,SPECI,Normal,200,3.0,,,9999.0,,14.0,13.0,29.66,,,,,,,,,,,,,,,,Clear,72000.0,,,,,,,,,
KRDR,07-18-2015,09:33,SPECI,Normal,220,3.0,,,800.0,Fog,14.0,14.0,29.66,,30,,,,,,,,,,,,,,Clear,72000.0,,,,,,,,,
KRDR,07-18-2015,09:28,SPECI,Normal,210,4.0,,,1200.0,Mist,14.0,14.0,29.66,,10,,,,,,,,,,,,,,Clear,72000.0,,,,,,,,,
KRDR,07-18-2015,09:23,SPECI,Normal,210,3.0,,,2000.0,Mist,14.0,14.0,29.66,,10,,,,,,,,,,,,,,Clear,72000.0,,,,,,,,,
KRDR,07-18-2015,09:18,SPECI,Normal,210,3.0,,,1600.0,Mist,14.0,14.0,29.66,,10,,,,,,,,,,,,,,Clear,72000.0,,,,,,,,,
KRDR,07-18-2015,09:13,SPECI,Normal,200,4.0,,,1600.0,Mist,14.0,14.0,29.66,,10,,,,,,,,,,,,,,Clear,72000.0,,,,,,,,,
KRDR,07-18-2015,09:08,SPECI,Normal,200,2.0,,,4000.0,Mist,14.0,14.0,29.66,,10,,,,,,,,,,,,,,Clear,72000.0,,,,,,,,,
KRDR,07-18-2015,08:58,METAR,Calm,,0.0,,,9999.0,,14.7,14.4,29.66,1004.7,,,,,,,,,,,,,,,Clear,72000.0,,,,,,,,,
KRDR,07-18-2015,08:23,SPECI,Normal,300,5.0,,,9999.0,,15.0,15.0,29.66,,,,,,,,,,,,,,,,Clear,72000.0,,,,,,,,,
KRDR,07-18-2015,08:13,SPECI,Normal,290,4.0,,,9999.0,,16.0,16.0,29.66,,,,,,,,,,,,,,,,Clear,72000.0,,,,,,,,,
KRDR,07-18-2015,07:58,METAR,Normal,300,2.0,,,9999.0,,15.9,15.6,29.67,1005.0,,,,,,,,,,,,,,,Clear,72000.0,,,,,,,,,
KRDR,07-18-2015,07:28,SPECI,Normal,310,5.0,,,9999.0,,16.0,16.0,29.68,,,,,,,,,,,,,,,,Clear,72000.0,,,,,,,,,
KRDR,07-18-2015,07:23,SPECI,Normal,310,5.0,,,9999.0,,16.0,16.0,29.68,,,,,,,,,,,,,,,,Clear,72000.0,,,,,,,,,
KRDR,07-18-2015,06:58,METAR,Normal,250,4.0,,,8000.0,Mist,16.3,16.0,29.69,1005.7,10,,,,,,,,,,,,,,Clear,72000.0,,,,,,,,,
KRDR,07-18-2015,05:55,METAR,Normal,310,4.0,,,8000.0,Mist,17.5,17.2,29.69,1006.6,10,,,,,,,,,,.01 IN,,.51 IN,,,4100.0,4100.0,BKN,4100.0,BKN,8000.0,,,,
KRDR,07-18-2015,05:49,SPECI,Calm,,0.0,,,8000.0,Mist,18.0,18.0,29.68,,10,,,,,,,,,,,,,,4/8 Partly Cloudy,72000.0,4100.0,FEW,4100.0,SCT,8000.0,,,,
KRDR,07-18-2015,05:44,SPECI,Calm,,0.0,,,800.0,Fog,18.0,18.0,29.68,,30,,,,,,,,,,,,,,4/8 Partly Cloudy,72000.0,8000.0,FEW,8000.0,SCT,9600.0,,,,
KRDR,07-18-2015,05:39,SPECI,Calm,,0.0,,,1200.0,Mist,18.0,18.0,29.68,,10,,,,,,,,,,,,,,4/8 Partly Cloudy,72000.0,8000.0,FEW,8000.0,SCT,9600.0,,,,
KRDR,07-18-2015,05:34,SPECI,Calm,,0.0,,,3200.0,Mist,18.0,18.0,29.69,,10,,,,,,,,,,,,,,2/8 Mostly Clear,72000.0,7500.0,FEW,7500.0,,,,,,
KRDR,07-18-2015,05:14,SPECI,Normal,330,4.0,,,9999.0,,18.0,18.0,29.70,,,,,,,,,,,,,,,,4/8 Partly Cloudy,72000.0,4900.0,FEW,4900.0,SCT,5500.0,SCT,7500.0,,
KRDR,07-18-2015,05:09,SPECI,Normal,320,3.0,,,9999.0,,19.0,18.0,29.69,,,,,,,,,,,,,,,,,7500.0,4900.0,FEW,4900.0,SCT,5500.0,BKN,7500.0,,
KRDR,07-18-2015,05:08,SPECI,Normal,320,1.0,,,9999.0,Light Rain,19.0,18.0,29.69,,61,,,,,,,,,,,,,,,7500.0,5500.0,SCT,5500.0,BKN,7500.0,,,,
KRDR,07-18-2015,04:58,METAR,Calm,,0.0,,,9999.0,Light Rain,18.7,18.2,29.70,1005.9,61,,,,,,,,,,.13 IN,,,,,6000.0,5000.0,SCT,5000.0,BKN,6000.0,OVC,7500.0,,
KRDR,07-18-2015,04:54,SPECI,Calm,,0.0,,,9999.0,Light Rain,19.0,18.0,29.70,,61,,,,,,,,,,,,,,,5500.0,4700.0,FEW,4700.0,OVC,5500.0,,,,
KRDR,07-18-2015,04:34,SPECI,Normal,140,6.0,,,9999.0,Light Rain,19.0,19.0,29.70,,61,,,,,,,,,,,,,,,4500.0,4500.0,BKN,4500.0,OVC,6000.0,,,,
KRDR,07-18-2015,04:29,SPECI,Normal,40,3.0,,,9999.0,Light Rain,19.0,19.0,29.71,,61,,,,,,,,,,,,,,,3300.0,3900.0,FEW,3900.0,BKN,4700.0,BKN,6000.0,,
KRDR,07-18-2015,04:24,SPECI,Variable,,5.0,,,4800.0,Light Rain/Mist,19.0,19.0,29.71,,61,10,,,,,,,,,,,,,,3300.0,4100.0,BKN,4100.0,OVC,5500.0,,,,
KRDR,07-18-2015,04:19,SPECI,Normal,130,9.0,,,3200.0,Light Rain/Mist,19.0,19.0,29.70,,61,10,,,,,,,,,,,,,,3300.0,3900.0,BKN,3900.0,OVC,5500.0,,,,
KRDR,07-18-2015,04:14,SPECI,Normal,150,3.0,,,6400.0,Light Rain/Mist,19.0,18.0,29.72,,61,10,,,,,,,,,,,,,,3800.0,3800.0,BKN,3800.0,OVC,5500.0,,,,
KRDR,07-18-2015,04:10,SPECI,Normal,200,2.0,,,9999.0,,19.0,19.0,29.72,,,,,,,,,,,,,,,,,3800.0,3800.0,BKN,3800.0,BKN,5500.0,,,,
KRDR,07-18-2015,04:08,SPECI,Normal,230,2.0,,,9999.0,Light Rain,19.0,19.0,29.72,,61,,,,,,,,,,,,,,,3800.0,3800.0,BKN,3800.0,BKN,5500.0,,,,
KRDR,07-18-2015,04:03,SPECI,Calm,,0.0,,,8000.0,Light Rain/Mist,19.0,19.0,29.71,,61,10,,,,,,,,,,,,,,4000.0,4000.0,OVC,4000.0,,,,,,
KRDR,07-18-2015,03:58,METAR,Calm,,0.0,,,4800.0,Light Rain/Mist,18.9,18.6,29.71,1006.2,61,10,,,,,,,,,.31 IN,,,,,4300.0,4300.0,OVC,4300.0,,,,,,
KRDR,07-18-2015,03:54,SPECI,Normal,330,3.0,,,2800.0,Rain/Mist,19.0,19.0,29.72,,62,10,,,,,,,,,,,,,,4100.0,4100.0,OVC,4100.0,,,,,,
KRDR,07-18-2015,03:49,SPECI,Normal,300,4.0,,,2400.0,Heavy Rain/Mist,19.0,18.0,29.72,,63,10,,,,,,,,,,,,,,3900.0,3900.0,OVC,3900.0,,,,,,
KRDR,07-18-2015,03:44,SPECI,Normal,290,3.0,,,2400.0,Rain/Mist,19.0,18.0,29.72,,62,10,,,,,,,,,,,,,,3800.0,3800.0,OVC,3800.0,,,,,,
KRDR,07-18-2015,03:39,SPECI,Normal,280,2.0,,,2000.0,Heavy Rain/Mist,19.0,18.0,29.71,,63,10,,,,,,,,,,,,,,3600.0,3600.0,BKN,3600.0,OVC,6500.0,,,,
KRDR,07-18-2015,03:34,SPECI,Normal,290,3.0,,,3200.0,Heavy Rain/Distant Lightning/Mist,19.0,18.0,29.72,,63,10,12,,,,,,,,,,,,,3400.0,3400.0,BKN,3400.0,BKN,6000.0,OVC,7000.0,,
KRDR,07-18-2015,03:29,SPECI,Normal,230,3.0,,,4800.0,Light Rain/Distant Lightning/Mist,19.0,18.0,29.71,,61,10,12,,,,,,,,,,,,,2100.0,2200.0,BKN,2200.0,BKN,6000.0,OVC,7000.0,,
KRDR,07-18-2015,03:24,SPECI,Normal,170,1.0,,,4000.0,Light Rain/Distant Lightning/Mist,19.0,18.0,29.70,,61,10,12,,,,,,,,,,,,,2100.0,2100.0,BKN,2100.0,BKN,7000.0,OVC,10000.0,,
KRDR,07-18-2015,03:19,SPECI,Normal,150,2.0,,,4800.0,Light Rain/Mist,19.0,18.0,29.70,,61,10,,,,,,,,,,,,,,7500.0,2100.0,SCT,2100.0,BKN,7500.0,OVC,10000.0,,
KRDR,07-18-2015,03:14,SPECI,Calm,,0.0,,,9999.0,Light Rain/Mist,19.0,19.0,29.71,,61,10,,,,,,,,,,,,,,7500.0,1100.0,FEW,1100.0,BKN,7500.0,OVC,10000.0,,
KRDR,07-18-2015,03:13,SPECI,Calm,,0.0,,,9999.0,,19.0,19.0,29.70,,,,,,,,,,,,,,,,,7500.0,7500.0,BKN,7500.0,BKN,10000.0,,,,
KRDR,07-18-2015,02:58,METAR,Normal,170,3.0,,,9999.0,,19.0,18.4,29.71,1006.2,,,,,,,,,,,.03 IN,.06 IN,,,,8000.0,4900.0,FEW,4900.0,BKN,8000.0,,,,
KRDR,07-18-2015,02:53,SPECI,Normal,190,2.0,,,9999.0,,19.0,18.0,29.71,,,,,,,,,,,,,,,,,8000.0,4900.0,SCT,4900.0,BKN,8000.0,,,,
KRDR,07-18-2015,02:36,SPECI,Normal,170,7.0,,,9999.0,Light Rain,19.0,19.0,29.72,,61,,,,,,,,,,,,,,,4900.0,3500.0,SCT,3500.0,OVC,4900.0,,,,
KRDR,07-18-2015,02:33,SPECI,Normal,180,7.0,,,9999.0,,19.0,19.0,29.72,,,,,,,,,,,,,,,,,4900.0,3800.0,SCT,3800.0,OVC,4900.0,,,,
KRDR,07-18-2015,02:02,SPECI,Normal,220,5.0,,,9999.0,Light Drizzle,19.0,19.0,29.73,,51,,,,,,,,,,,,,,,8000.0,800.0,FEW,800.0,BKN,8000.0,OVC,11000.0,,
KRDR,07-18-2015,01:58,METAR,Normal,200,4.0,,,9999.0,Light Rain,19.2,18.5,29.72,1006.6,61,,,,,,,,,,.03 IN,,,,,8000.0,5000.0,SCT,5000.0,BKN,8000.0,OVC,11000.0,,
KRDR,07-18-2015,01:48,SPECI,Normal,200,4.0,,,9999.0,Light Drizzle,19.0,18.0,29.72,,51,,,,,,,,,,,,,,,11000.0,8000.0,SCT,8000.0,SCT,9100.0,BKN,11000.0,,
KRDR,07-18-2015,01:29,SPECI,Normal,180,1.0,,,9999.0,,19.0,18.0,29.72,,,,,,,,,,,,,,,,,12000.0,5000.0,SCT,5000.0,SCT,9100.0,BKN,12000.0,,
KRDR,07-18-2015,00:58,METAR,Normal,240,5.0,,,9999.0,Light Rain,19.0,18.0,29.74,1007.3,61,,,,,,,,,,,,,,,6000.0,6000.0,OVC,6000.0,,,,,,
KRDR,07-18-2015,00:56,SPECI,Normal,240,5.0,,,9999.0,Light Rain,19.0,18.0,29.74,,61,,,,,,,,,,,,,,,6000.0,6000.0,OVC,6000.0,,,,,,
KRDR,07-17-2015,23:58,METAR,Normal,300,5.0,,,9999.0,,20.0,18.2,29.70,1006.0,,,,,,,,,,,.01 IN,,.41 IN,,,9000.0,7500.0,FEW,7500.0,OVC,9100.0,,,,
KRDR,07-17-2015,23:16,SPECI,Normal,160,1.0,,,9999.0,,20.0,18.0,29.70,,,,,,,,,,,,,,,,,9000.0,3200.0,FEW,3200.0,SCT,5000.0,OVC,9100.0,,
KRDR,07-17-2015,23:01,SPECI,Normal,180,2.0,,,9999.0,Light Rain,19.0,18.0,29.72,,61,,,,,,,,,,,,,,,9000.0,800.0,FEW,800.0,SCT,4700.0,OVC,9100.0,,
KRDR,07-17-2015,22:58,METAR,Normal,220,1.0,,,9999.0,,19.1,17.8,29.72,1006.8,,,,,,,,,,,.27 IN,,,,,9000.0,800.0,FEW,800.0,SCT,5000.0,OVC,9100.0,,
KRDR,07-17-2015,22:57,SPECI,Normal,220,1.0,,,9999.0,,19.0,18.0,29.72,,,,,,,,,,,,,,,,,9000.0,800.0,FEW,800.0,SCT,5000.0,OVC,9100.0,,
KRDR,07-17-2015,22:44,SPECI,Normal,180,6.0,,,9999.0,Light Rain/Distant Lightning,19.0,17.0,29.73,,61,12,,,,,,,,,,,,,,6000.0,600.0,FEW,600.0,BKN,6000.0,OVC,9100.0,,
KRDR,07-17-2015,22:34,SPECI,Normal,190,8.0,,,8000.0,Thunderstorm and Rain or Snow Showers/Mist,19.0,18.0,29.74,,92,10,,,,,,,,,,,,,,6000.0,600.0,FEW,600.0,SCT,3400.0,OVC,6000.0,,
KRDR,07-17-2015,22:29,SPECI,Normal,190,8.0,,,3200.0,Heavy Thunderstorm and Rain or Snow Showers/Mist,19.0,18.0,29.74,,95,10,,,,,,,,,,,,,,7000.0,500.0,FEW,500.0,OVC,7000.0,,,,
KRDR,07-17-2015,22:23,SPECI,Normal,190,7.0,,,3200.0,Light Rain/Mist,19.0,18.0,29.75,,61,10,,,,,,,,,,,,,,7000.0,600.0,FEW,600.0,OVC,7000.0,,,,
KRDR,07-17-2015,22:13,SPECI,Normal,250,6.0,,,8000.0,Rain/Mist,20.0,19.0,29.75,,62,10,,,,,,,,,,,,,,8000.0,600.0,FEW,600.0,OVC,8000.0,,,,
KRDR,07-17-2015,21:58,METAR,Normal,190,6.0,,,9999.0,Light Rain,20.6,19.5,29.73,1007.1,61,,,,,,,,,,.02 IN,,,,,8000.0,8000.0,BKN,8000.0,OVC,11000.0,,,,
KRDR,07-17-2015,21:33,SPECI,Normal,200,2.0,,,9999.0,Light Rain,21.0,19.0,29.73,,61,,,,,,,,,,,,,,,10000.0,6000.0,FEW,6000.0,BKN,10000.0,OVC,12000.0,,
KRDR,07-17-2015,20:58,METAR,Normal,180,7.0,,,9999.0,,20.1,19.0,29.73,1007.1,,,,,,,,,,,.05 IN,.11 IN,,,,12000.0,6000.0,FEW,6000.0,BKN,12000.0,,,,
KRDR,07-17-2015,20:51,SPECI,Normal,170,6.0,,,9999.0,,20.0,19.0,29.73,,,,,,,,,,,,,,,,,12000.0,7000.0,SCT,7000.0,SCT,10000.0,BKN,12000.0,,
KRDR,07-17-2015,20:08,SPECI,Normal,210,8.0,,,9999.0,Light Rain,21.0,19.0,29.77,,61,,,,,,,,,,,,,,4/8 Partly Cloudy,72000.0,5500.0,FEW,5500.0,SCT,7000.0,,,,
KRDR,07-17-2015,19:58,METAR,Normal,180,6.0,,,9999.0,,21.0,19.0,29.76,1008.1,,,,,,,,,,,.05 IN,,,,,7000.0,7000.0,BKN,7000.0,BKN,9600.0,,,,
KRDR,07-17-2015,19:56,SPECI,Normal,180,5.0,,,9999.0,,21.0,19.0,29.76,,,,,,,,,,,,,,,,,6500.0,6500.0,BKN,6500.0,BKN,9600.0,,,,
KRDR,07-17-2015,19:00,SPECI,Variable,,2.0,,,9999.0,Light Rain,21.0,19.0,29.76,,61,,,,,,,,,,,,,,,10000.0,8000.0,FEW,8000.0,BKN,10000.0,,,,
KRDR,07-17-2015,18:58,METAR,Normal,280,3.0,,,9999.0,,21.4,19.2,29.76,1008.1,,,,,,,,,,,.01 IN,,,,,10000.0,10000.0,BKN,10000.0,,,,,,
KRDR,07-17-2015,18:30,SPECI,Normal,330,4.0,,,9999.0,,21.0,19.0,29.73,,,,,,,,,,,,,,,,2/8 Mostly Clear,72000.0,1100.0,FEW,1100.0,,,,,,
KRDR,07-17-2015,18:18,SPECI,Normal,300,5.0,,,9999.0,,21.0,19.0,29.73,,,,,,,,,,,,,,,,4/8 Partly Cloudy,72000.0,3700.0,SCT,3700.0,,,,,,
KRDR,07-17-2015,17:58,METAR,Normal,330,7.0,,,9999.0,Light Rain,20.3,18.6,29.74,1007.4,61,,,,,,,,,,.01 IN,,.01 IN,,4/8 Partly Cloudy,72000.0,4700.0,SCT,4700.0,,,,,,
KRDR,07-17-2015,17:34,SPECI,Normal,330,11.0,,,9999.0,Light Rain,22.0,18.0,29.76,,61,,,,,,,,,,,,,,2/8 Mostly Clear,72000.0,1600.0,FEW,1600.0,,,,,,
KRDR,07-17-2015,16:58,METAR,Normal,330,11.0,,,9999.0,,24.1,20.5,29.75,1007.6,,,,,,,,,,,,,,,Clear,72000.0,,,,,,,,,
KRDR,07-17-2015,15:58,METAR,Normal,310,8.0,,,9999.0,,26.5,20.1,29.72,1006.5,,,,,,,,,,,,,,,Clear,72000.0,,,,,,,,,
KRDR,07-17-2015,14:58,METAR,Normal,310,7.0,,,9999.0,,26.3,20.4,29.71,1006.2,,,,,,,,,,,,,,,Clear,72000.0,,,,,,,,,
KRDR,07-17-2015,13:58,METAR,Normal,300,4.0,,,9999.0,,24.2,20.5,29.70,1005.8,,,,,,,,,,,,,,,Clear,72000.0,,,,,,,,,
KRDR,07-17-2015,12:58,METAR,Normal,290,3.0,,,9999.0,,21.6,19.4,29.69,1005.5,,,,,,,,,,,,,,,Clear,72000.0,,,,,,,,,
KRDR,07-17-2015,11:58,METAR,Normal,260,4.0,,,9999.0,,18.1,17.4,29.68,1005.3,,,,,,,,,,,,,,.18 IN,Clear,72000.0,,,,,,,,,
KRDR,07-17-2015,10:58,METAR,Normal,260,5.0,,,9999.0,,16.1,15.8,29.67,1005.0,,,,,,,,,,,,,,,Clear,72000.0,,,,,,,,,
KRDR,07-17-2015,09:58,METAR,Normal,270,4.0,,,9999.0,,16.0,15.7,29.66,1004.6,,,,,,,,,,,,,,,Clear,72000.0,,,,,,,,,
KRDR,07-17-2015,09:23,SPECI,Normal,270,4.0,,,9999.0,,16.0,16.0,29.66,,,,,,,,,,,,,,,,Clear,72000.0,,,,,,,,,
KRDR,07-17-2015,09:18,SPECI,Normal,270,5.0,,,4000.0,Mist,16.0,16.0,29.66,,10,,,,,,,,,,,,,,Clear,72000.0,,,,,,,,,
KRDR,07-17-2015,09:13,SPECI,Normal,270,5.0,,,1600.0,Mist,16.0,16.0,29.66,,10,,,,,,,,,,,,,,Clear,72000.0,,,,,,,,,
KRDR,07-17-2015,09:08,SPECI,Normal,270,4.0,,,1200.0,Mist,16.0,16.0,29.65,,10,,,,,,,,,,,,,,Clear,72000.0,,,,,,,,,
KRDR,07-17-2015,09:03,SPECI,Normal,270,3.0,,,2000.0,Mist,17.0,16.0,29.65,,10,,,,,,,,,,,,,,Clear,72000.0,,,,,,,,,
KRDR,07-17-2015,08:58,METAR,Normal,260,3.0,,,4800.0,Mist,17.0,16.0,29.65,1004.2,10,,,,,,,,,,,,,,Clear,72000.0,,,,,,,,,
KRDR,07-17-2015,08:43,SPECI,Normal,250,3.0,,,9999.0,,17.0,16.0,29.65,,,,,,,,,,,,,,,,Clear,72000.0,,,,,,,,,
KRDR,07-17-2015,07:58,METAR,Normal,280,2.0,,,9999.0,,16.8,16.5,29.66,1004.5,,,,,,,,,,,,,,,Clear,72000.0,,,,,,,,,
KRDR,07-17-2015,07:53,SPECI,Normal,270,4.0,,,9999.0,,17.0,16.0,29.66,,,,,,,,,,,,,,,,Clear,72000.0,,,,,,,,,
KRDR,07-17-2015,07:38,SPECI,Normal,260,4.0,,,9999.0,,17.0,17.0,29.65,,,,,,,,,,,,,,,,Clear,72000.0,,,,,,,,,
KRDR,07-17-2015,06:58,METAR,Normal,270,3.0,,,9999.0,,17.5,17.2,29.66,1004.5,,,,,,,,,,,,,,,Clear,72000.0,,,,,,,,,
KRDR,07-17-2015,05:58,METAR,Normal,270,5.0,,,9999.0,,17.4,17.1,29.65,1004.3,,,,,,,,,,,,,,,Clear,72000.0,,,,,,,,,
KRDR,07-17-2015,04:58,METAR,Normal,240,3.0,,,9999.0,,18.5,17.9,29.65,1004.3,,,,,,,,,,,,,,,2/8 Mostly Clear,72000.0,3900.0,FEW,3900.0,,,,,,
KRDR,07-17-2015,04:08,SPECI,Normal,250,3.0,,,9999.0,,19.0,18.0,29.66,,,,,,,,,,,,,,,,2/8 Mostly Clear,72000.0,3800.0,FEW,3800.0,,,,,,
KRDR,07-17-2015,04:03,SPECI,Normal,230,2.0,,,9999.0,,19.0,18.0,29.66,,,,,,,,,,,,,,,,2/8 Mostly Clear,72000.0,3900.0,FEW,3900.0,,,,,,
KRDR,07-17-2015,03:58,METAR,Normal,210,4.0,,,9999.0,,18.5,17.9,29.66,1004.6,,,,,,,,,,,,,,,Clear,72000.0,,,,,,,,,
KRDR,07-17-2015,02:58,METAR,Calm,,0.0,,,9999.0,,19.5,18.8,29.63,1003.6,,,,,,,,,,,,,,,Clear,72000.0,,,,,,,,,
KRDR,07-17-2015,01:58,METAR,Normal,220,4.0,,,9999.0,,21.8,20.5,29.64,1003.9,,,,,,,,,,,,,,,Clear,72000.0,,,,,,,,,
KRDR,07-17-2015,00:58,METAR,Calm,,0.0,,,9999.0,,21.6,20.3,29.65,1004.2,,,,,,,,,,,,,,,Clear,72000.0,,,,,,,,,
KRDR,07-17-2015,00:03,SPECI,Normal,10,5.0,,,9999.0,,22.0,21.0,29.64,,,,,,,,,,,,,,,,,4500.0,1000.0,FEW,1000.0,SCT,1700.0,BKN,4500.0,,
KRDR,07-16-2015,23:58,METAR,Normal,10,5.0,,,9999.0,,22.1,20.6,29.64,1003.9,,,,,,,,,,,.01 IN,,.01 IN,,,1600.0,1000.0,FEW,1000.0,BKN,1600.0,OVC,4600.0,,
KRDR,07-16-2015,23:37,SPECI,Normal,300,6.0,,,9999.0,Distant Lightning,22.0,21.0,29.63,,12,,,,,,,,,,,,,,,1700.0,1000.0,FEW,1000.0,BKN,1800.0,BKN,2300.0,,
KRDR,07-16-2015,23:31,SPECI,Normal,280,2.0,,,9999.0,Thunderstorm and Rain or Snow Showers,22.0,21.0,29.64,,92,,,,,,,,,,,,,,,1700.0,1100.0,FEW,1100.0,BKN,1700.0,BKN,2300.0,,
KRDR,07-16-2015,23:13,SPECI,Normal,100,2.0,,,9999.0,Thunderstorm and Rain or Snow Showers,23.0,21.0,29.64,,92,,,,,,,,,,,,,,2/8 Mostly Clear,72000.0,6500.0,FEW,6500.0,,,,,,
KRDR,07-16-2015,23:07,SPECI,Normal,110,2.0,,,9999.0,Dry Thunderstorm,23.0,21.0,29.65,,91,,,,,,,,,,,,,,2/8 Mostly Clear,72000.0,4700.0,FEW,4700.0,,,,,,
KRDR,07-16-2015,23:06,SPECI,Normal,120,2.0,,,9999.0,Distant Lightning,23.0,21.0,29.65,,12,,,,,,,,,,,,,,4/8 Partly Cloudy,72000.0,3800.0,FEW,3800.0,SCT,6500.0,,,,
KRDR,07-16-2015,23:05,SPECI,Normal,120,2.0,,,9999.0,Light Drizzle/Distant Lightning,23.0,21.0,29.65,,51,12,,,,,,,,,,,,,4/8 Partly Cloudy,72000.0,3500.0,FEW,3500.0,SCT,6500.0,,,,
KRDR,07-16-2015,23:01,SPECI,Normal,120,2.0,,,9999.0,Distant Lightning,23.0,21.0,29.65,,12,,,,,,,,,,,,,,4/8 Partly Cloudy,72000.0,3200.0,FEW,3200.0,SCT,4700.0,,,,
KRDR,07-16-2015,22:58,METAR,Normal,110,3.0,,,9999.0,Light Drizzle/Distant Lightning,22.7,20.9,29.65,1004.2,51,12,,,,,,,,,TRACE,,,,4/8 Partly Cloudy,72000.0,3200.0,FEW,3200.0,SCT,3900.0,SCT,4700.0,,
KRDR,07-16-2015,22:45,SPECI,Normal,110,4.0,,,9999.0,Light Rain,23.0,20.0,29.65,,61,,,,,,,,,,,,,,,3600.0,3600.0,BKN,3600.0,OVC,4600.0,,,,
KRDR,07-16-2015,21:58,METAR,Normal,80,9.0,,,9999.0,,23.5,20.9,29.66,1004.5,,,,,,,,,,,,,,,4/8 Partly Cloudy,72000.0,2000.0,SCT,2000.0,SCT,12000.0,,,,
KRDR,07-16-2015,20:58,METAR,Normal,330,5.0,,,9999.0,,25.5,20.2,29.66,1004.5,,,,,,,,,,,,,,,,2300.0,2300.0,OVC,2300.0,,,,,,
KRDR,07-16-2015,19:58,METAR,Normal,250,5.0,,,9999.0,,26.3,20.4,29.68,1005.1,,,,,,,,,,,,,,,,4500.0,2300.0,SCT,2300.0,BKN,4500.0,,,,
KRDR,07-16-2015,19:18,SPECI,Variable,,3.0,,,9999.0,,25.0,20.0,29.68,,,,,,,,,,,,,,,,,1700.0,1900.0,SCT,1900.0,BKN,2400.0,BKN,11000.0,,
KRDR,07-16-2015,19:08,SPECI,Normal,250,4.0,,,9999.0,,26.0,20.0,29.68,,,,,,,,,,,,,,,,,1600.0,1700.0,BKN,1700.0,BKN,2300.0,BKN,12000.0,,
KRDR,07-16-2015,18:58,METAR,Normal,230,4.0,,,9999.0,,25.4,19.6,29.68,1005.1,,,,,,,,,,,,,,,,1600.0,1600.0,SCT,1600.0,BKN,2200.0,BKN,12000.0,,
KRDR,07-16-2015,18:44,SPECI,Variable,,1.0,,,9999.0,,24.0,20.0,29.69,,,,,,,,,,,,,,,,,1600.0,1600.0,BKN,1600.0,BKN,2200.0,BKN,12000.0,,
KRDR,07-16-2015,18:09,SPECI,Calm,,0.0,,,9999.0,,24.0,20.0,29.70,,,,,,,,,,,,,,,,,7500.0,1000.0,FEW,1000.0,SCT,1400.0,BKN,7500.0,,
KRDR,07-16-2015,18:08,SPECI,Variable,,1.0,,,9999.0,,23.0,20.0,29.70,,,,,,,,,,,,,,,,,1900.0,1200.0,SCT,1200.0,BKN,1900.0,BKN,7500.0,,
KRDR,07-16-2015,17:58,METAR,Variable,,1.0,,,9999.0,,23.3,20.0,29.70,1005.9,,,,,,,,,,,TRACE,,.17 IN,,,7500.0,1000.0,SCT,1000.0,SCT,1900.0,BKN,7500.0,,
KRDR,07-16-2015,17:53,SPECI,Normal,210,2.0,,,9999.0,,23.0,20.0,29.70,,,,,,,,,,,,,,,,,800.0,1000.0,SCT,1000.0,BKN,1900.0,BKN,7500.0,,
KRDR,07-16-2015,17:48,SPECI,Variable,,2.0,,,9999.0,,23.0,20.0,29.71,,,,,,,,,,,,,,,,,800.0,800.0,BKN,800.0,BKN,7500.0,,,,
KRDR,07-16-2015,17:43,SPECI,Variable,,1.0,,,9999.0,,23.0,20.0,29.71,,,,,,,,,,,,,,,,,700.0,800.0,SCT,800.0,BKN,1200.0,BKN,7500.0,,
KRDR,07-16-2015,17:38,SPECI,Normal,290,3.0,,,9999.0,,23.0,20.0,29.71,,,,,,,,,,,,,,,,,800.0,800.0,BKN,800.0,,,,,,
KRDR,07-16-2015,17:23,SPECI,Normal,310,7.0,,,9999.0,,22.0,20.0,29.70,,,,,,,,,,,,,,,,,700.0,700.0,BKN,700.0,,,,,,
KRDR,07-16-2015,17:03,SPECI,Normal,310,8.0,,,9999.0,,22.0,20.0,29.69,,,,,,,,,,,,,,,,4/8 Partly Cloudy,72000.0,700.0,FEW,700.0,SCT,9600.0,SCT,11000.0,,
KRDR,07-16-2015,17:02,SPECI,Normal,320,7.0,,,9999.0,Light Drizzle,22.0,20.0,29.69,,51,,,,,,,,,,,,,,4/8 Partly Cloudy,72000.0,700.0,FEW,700.0,SCT,9600.0,SCT,11000.0,,
KRDR,07-16-2015,16:58,METAR,Variable,,5.0,,,9999.0,Light Drizzle,21.0,20.0,29.68,1005.3,51,,,,,,,,,,.07 IN,,,,2/8 Mostly Clear,72000.0,1800.0,FEW,1800.0,,,,,,
KRDR,07-16-2015,15:58,METAR,Normal,180,5.0,,,9999.0,Light Rain,20.2,19.5,29.73,1007.0,61,,,,,,,,,,.08 IN,,,,,8000.0,8000.0,OVC,8000.0,,,,,,
KRDR,07-16-2015,14:58,METAR,Normal,210,3.0,,,9999.0,Light Rain,20.1,19.5,29.73,1007.0,61,,,,,,,,,,TRACE,.02 IN,,,,9000.0,4000.0,FEW,4000.0,SCT,7000.0,OVC,9100.0,,
KRDR,07-16-2015,14:50,SPECI,Normal,230,5.0,,,9999.0,Light Drizzle,20.0,19.0,29.74,,51,,,,,,,,,,,,,,,8000.0,3400.0,FEW,3400.0,BKN,8000.0,OVC,10000.0,,
KRDR,07-16-2015,14:36,SPECI,Normal,200,5.0,,,9999.0,,20.0,19.0,29.73,,,,,,,,,,,,,,,,,7000.0,3200.0,SCT,3200.0,BKN,7000.0,OVC,10000.0,,
KRDR,07-16-2015,14:20,SPECI,Normal,160,6.0,,,9999.0,Light Drizzle,20.0,19.0,29.72,,51,,,,,,,,,,,,,,,8500.0,3200.0,FEW,3200.0,BKN,8600.0,OVC,11000.0,,
KRDR,07-16-2015,14:16,SPECI,Normal,180,6.0,,,9999.0,,20.0,19.0,29.73,,,,,,,,,,,,,,,,,8500.0,5500.0,FEW,5500.0,BKN,8600.0,OVC,11000.0,,
KRDR,07-16-2015,14:07,SPECI,Normal,160,6.0,,,9999.0,Light Drizzle,20.0,19.0,29.73,,51,,,,,,,,,,,,,,,11000.0,5000.0,FEW,5000.0,OVC,11000.0,,,,
KRDR,07-16-2015,13:58,METAR,Normal,180,5.0,,,9999.0,,19.7,19.1,29.73,1007.0,,,,,,,,,,,.01 IN,,,,,12000.0,12000.0,BKN,12000.0,,,,,,
KRDR,07-16-2015,13:43,SPECI,Normal,160,5.0,,,9999.0,,20.0,19.0,29.74,,,,,,,,,,,,,,,,,12000.0,9500.0,SCT,9600.0,OVC,12000.0,,,,
KRDR,07-16-2015,13:34,SPECI,Normal,150,5.0,,,9999.0,Light Drizzle,20.0,19.0,29.74,,51,,,,,,,,,,,,,,,9000.0,9000.0,BKN,9100.0,OVC,12000.0,,,,
KRDR,07-16-2015,13:27,SPECI,Normal,150,5.0,,,9999.0,,20.0,19.0,29.74,,,,,,,,,,,,,,,,,9000.0,9000.0,BKN,9100.0,OVC,12000.0,,,,
KRDR,07-16-2015,13:14,SPECI,Normal,160,2.0,,,9999.0,Light Rain,20.0,19.0,29.74,,61,,,,,,,,,,,,,,,9000.0,4900.0,FEW,4900.0,SCT,7000.0,OVC,9100.0,,
KRDR,07-16-2015,13:05,SPECI,Normal,140,2.0,,,9999.0,,20.0,19.0,29.74,,,,,,,,,,,,,,,,,7500.0,4300.0,SCT,4300.0,BKN,7500.0,OVC,9100.0,,
KRDR,07-16-2015,12:58,METAR,Normal,170,2.0,,,8000.0,Light Rain/Mist,19.5,19.0,29.75,1007.6,61,10,,,,,,,,,.01 IN,,,,,7500.0,5000.0,SCT,5000.0,BKN,7500.0,,,,
KRDR,07-16-2015,12:45,SPECI,Normal,230,3.0,,,9999.0,Light Rain,19.0,19.0,29.75,,61,,,,,,,,,,,,,,,7500.0,3800.0,FEW,3800.0,BKN,7500.0,BKN,12000.0,,
KRDR,07-16-2015,11:58,METAR,Normal,90,4.0,,,9999.0,,19.3,18.8,29.75,1007.6,,,,,,,,,,,.01 IN,,.01 IN,.01 IN,2/8 Mostly Clear,72000.0,4900.0,FEW,4900.0,,,,,,
KRDR,07-16-2015,11:54,SPECI,Normal,90,4.0,,,9999.0,,19.0,19.0,29.75,,,,,,,,,,,,,,,,2/8 Mostly Clear,72000.0,4900.0,FEW,4900.0,,,,,,
KRDR,07-16-2015,11:32,SPECI,Calm,,0.0,,,9999.0,Light Rain,19.0,18.0,29.76,,61,,,,,,,,,,,,,,2/8 Mostly Clear,72000.0,4900.0,FEW,4900.0,,,,,,
KRDR,07-16-2015,11:01,SPECI,Normal,250,3.0,,,9999.0,,19.0,19.0,29.76,,,,,,,,,,,,,,,,Clear,72000.0,,,,,,,,,
KRDR,07-16-2015,10:58,METAR,Normal,220,3.0,,,9999.0,Light Drizzle,19.0,18.5,29.76,1007.9,51,,,,,,,,,,,,,,2/8 Mostly Clear,72000.0,11000.0,FEW,11000.0,,,,,,
KRDR,07-16-2015,10:57,SPECI,Normal,220,3.0,,,9999.0,Light Drizzle,19.0,19.0,29.76,,51,,,,,,,,,,,,,,2/8 Mostly Clear,72000.0,11000.0,FEW,11000.0,,,,,,
KRDR,07-16-2015,09:58,METAR,Normal,170,3.0,,,9999.0,,19.7,18.7,29.76,1007.8,,,,,,,,,,,,,,,Clear,72000.0,,,,,,,,,
KRDR,07-16-2015,08:58,METAR,Normal,100,3.0,,,9999.0,,20.1,18.8,29.78,1008.5,,,,,,,,,,,,,,,,3400.0,3100.0,FEW,3100.0,SCT,12000.0,,,,
KRDR,07-16-2015,07:58,METAR,Normal,360,5.0,,,9999.0,,19.7,18.8,29.80,1009.2,,,,,,,,,,,,,,,,10000.0,10000.0,OVC,10000.0,,,,,,
KRDR,07-16-2015,06:58,METAR,Normal,150,6.0,,,9999.0,,20.3,18.9,29.79,1008.9,,,,,,,,,,,,,,,Clear,72000.0,,,,,,,,,
KRDR,07-16-2015,05:58,METAR,Normal,140,4.0,,,9999.0,,20.4,19.2,29.81,1009.6,,,,,,,,,,,,,,,Clear,72000.0,,,,,,,,,
KRDR,07-16-2015,04:58,METAR,Normal,140,4.0,,,9999.0,,21.0,19.4,29.81,,,,,,,,,,,,,,,,,8500.0,8500.0,BKN,8600.0,,,,,,
KRDR,07-16-2015,03:58,METAR,Normal,180,3.0,,,9999.0,,21.0,20.0,29.82,,,,,,,,,,,,,,,,,8500.0,8500.0,BKN,8600.0,,,,,,
KRDR,07-16-2015,02:58,METAR,Normal,120,4.0,,,9999.0,,22.0,19.5,29.83,1010.3,,,,,,,,,,,,,,,2/8 Mostly Clear,72000.0,11000.0,FEW,11000.0,,,,,,
KRDR,07-16-2015,01:58,METAR,Normal,170,5.0,,,9999.0,,22.4,20.8,29.80,1009.2,,,,,,,,,,,,,,,2/8 Mostly Clear,72000.0,10000.0,FEW,10000.0,,,,,,
KRDR,07-16-2015,00:58,METAR,Normal,200,5.0,,,9999.0,,23.7,20.9,29.77,1008.2,,,,,,,,,,,,,,,Clear,72000.0,,,,,,,,,
KRDR,07-15-2015,23:58,METAR,Normal,200,8.0,,,9999.0,,24.9,20.6,29.80,1009.3,,,,,,,,,,,,,TRACE,,Clear,72000.0,,,,,,,,,
KRDR,07-15-2015,22:58,METAR,Normal,220,8.0,,,9999.0,,25.5,19.0,29.84,1010.7,,,,,,,,,,,,,,,Clear,72000.0,,,,,,,,,
KRDR,07-15-2015,21:58,METAR,Normal,220,6.0,,,9999.0,,27.2,21.2,29.85,1010.9,,,,,,,,,,,,,,,Clear,72000.0,,,,,,,,,
KRDR,07-15-2015,20:58,METAR,Normal,190,3.0,,,9999.0,,28.2,20.9,29.84,1010.6,,,,,,,,,,,,TRACE,,,2/8 Mostly Clear,72000.0,12000.0,FEW,12000.0,,,,,,
KRDR,07-15-2015,19:58,METAR,Normal,160,3.0,,,9999.0,,27.5,21.2,29.84,1010.6,,,,,,,,,,,,,,,Clear,72000.0,,,,,,,,,
KRDR,07-15-2015,18:58,METAR,Normal,230,5.0,,,9999.0,,25.4,22.0,29.86,1011.3,,,,,,,,,,,TRACE,,,,2/8 Mostly Clear,72000.0,11000.0,FEW,11000.0,,,,,,
KRDR,07-15-2015,18:37,SPECI,Normal,230,5.0,,,9999.0,,25.0,23.0,29.88,,,,,,,,,,,,,,,,2/8 Mostly Clear,72000.0,12000.0,FEW,12000.0,,,,,,
KRDR,07-15-2015,18:06,SPECI,Normal,200,6.0,,,9999.0,Light Drizzle,25.0,23.0,29.89,,51,,,,,,,,,,,,,,4/8 Partly Cloudy,72000.0,12000.0,SCT,12000.0,,,,,,
KRDR,07-15-2015,17:58,METAR,Normal,190,7.0,,,9999.0,,25.1,22.8,29.89,1012.4,,,,,,,,,,,,,,,Clear,72000.0,,,,,,,,,
KRDR,07-15-2015,16:58,METAR,Calm,,0.0,,,9999.0,,25.0,22.2,29.88,1012.0,,,,,,,,,,,,,,,Clear,72000.0,,,,,,,,,
KRDR,07-15-2015,15:58,METAR,Normal,140,3.0,,,9999.0,,24.5,22.0,29.88,1012.0,,,,,,,,,,,,,,,Clear,72000.0,,,,,,,,,
KRDR,07-15-2015,14:58,METAR,Normal,170,5.0,,,9999.0,,23.6,21.5,29.88,1012.0,,,,,,,,,,,,,,,Clear,72000.0,,,,,,,,,
KRDR,07-15-2015,13:58,METAR,Normal,170,4.0,,,9999.0,,22.7,21.0,29.87,1011.6,,,,,,,,,,,,,,,Clear,72000.0,,,,,,,,,
KRDR,07-15-2015,12:58,METAR,Normal,150,4.0,,,9999.0,,21.3,20.3,29.87,1011.7,,,,,,,,,,,,,,,Clear,72000.0,,,,,,,,,
KRDR,07-15-2015,11:58,METAR,Normal,150,5.0,,,9999.0,,19.4,18.8,29.86,1011.4,,,,,,,,,,,,,,,Clear,72000.0,,,,,,,,,
KRDR,07-15-2015,10:58,METAR,Normal,130,3.0,,,9999.0,,18.5,17.9,29.85,1010.9,,,,,,,,,,,,,,,2/8 Mostly Clear,72000.0,5000.0,FEW,5000.0,,,,,,
KRDR,07-15-2015,09:58,METAR,Normal,160,3.0,,,9999.0,,19.0,18.0,29.85,1010.9,,,,,,,,,,,,,,,Clear,72000.0,,,,,,,,,
KRDR,07-15-2015,08:58,METAR,Normal,160,4.0,,,9999.0,,18.9,18.3,29.85,1010.6,,,,,,,,,,,,,,,Clear,72000.0,,,,,,,,,
KRDR,07-15-2015,08:15,SPECI,Normal,180,2.0,,,9999.0,,18.0,18.0,29.86,,,,,,,,,,,,,,,,4/8 Partly Cloudy,72000.0,4900.0,SCT,4900.0,,,,,,
KRDR,07-15-2015,07:58,METAR,Normal,170,2.0,,,9999.0,,18.2,17.7,29.86,1011.3,,,,,,,,,,,,,,,4/8 Partly Cloudy,72000.0,4900.0,SCT,4900.0,,,,,,
KRDR,07-15-2015,07:08,SPECI,Normal,190,3.0,,,9999.0,,19.0,18.0,29.85,,,,,,,,,,,,,,,,Clear,72000.0,,,,,,,,,
KRDR,07-15-2015,06:58,METAR,Normal,190,3.0,,,9999.0,,18.9,18.2,29.85,1010.9,,,,,,,,,,,,,,,Clear,72000.0,,,,,,,,,
KRDR,07-15-2015,05:58,METAR,Normal,190,5.0,,,9999.0,,19.4,18.8,29.86,1011.3,,,,,,,,,,,,,TRACE,,Clear,72000.0,,,,,,,,,
KRDR,07-15-2015,04:58,METAR,Normal,240,2.0,,,9999.0,,19.8,18.9,29.85,1010.9,,,,,,,,,,,,,,,Clear,72000.0,,,,,,,,,
KRDR,07-15-2015,03:58,METAR,Normal,210,4.0,,,9999.0,,20.0,19.3,29.85,1010.9,,,,,,,,,,,,,,,Clear,72000.0,,,,,,,,,
KRDR,07-15-2015,02:58,METAR,Normal,210,4.0,,,9999.0,,20.1,19.1,29.85,1010.9,,,,,,,,,,,,TRACE,,,Clear,72000.0,,,,,,,,,
KRDR,07-15-2015,01:58,METAR,Normal,150,4.0,,,9999.0,,22.0,19.0,29.85,1011.0,,,,,,,,,,,TRACE,,,,Clear,72000.0,,,,,,,,,
KRDR,07-15-2015,01:54,SPECI,Normal,150,5.0,,,9999.0,,22.0,19.0,29.85,,,,,,,,,,,,,,,,Clear,72000.0,,,,,,,,,
KRDR,07-15-2015,01:43,SPECI,Normal,60,3.0,,,9999.0,Light Rain,22.0,19.0,29.85,,61,,,,,,,,,,,,,,2/8 Mostly Clear,72000.0,10000.0,FEW,10000.0,,,,,,
KRDR,07-15-2015,01:35,SPECI,Normal,110,4.0,,,9999.0,Distant Lightning,22.0,19.0,29.84,,12,,,,,,,,,,,,,,4/8 Partly Cloudy,72000.0,10000.0,FEW,10000.0,SCT,12000.0,,,,
KRDR,07-15-2015,01:21,SPECI,Normal,60,4.0,,,9999.0,Light Rain,22.0,19.0,29.84,,61,,,,,,,,,,,,,,4/8 Partly Cloudy,72000.0,10000.0,FEW,10000.0,SCT,12000.0,,,,
KRDR,07-15-2015,00:58,METAR,Normal,80,5.0,,,9999.0,,22.5,18.7,29.85,1011.0,,,,,,,,,,,,,,,4/8 Partly Cloudy,72000.0,12000.0,SCT,12000.0,,,,,,
KRDR,07-15-2015,00:04,SPECI,Variable,,4.0,,,9999.0,Distant Lightning,23.0,18.0,29.86,,12,,,,,,,,,,,,,,,4200.0,3000.0,SCT,3000.0,OVC,4200.0,,,,
KRDR,07-14-2015,23:58,METAR,Variable,,6.0,,,9999.0,Dry Thunderstorm,23.2,18.5,29.87,1011.7,91,,,,,,,,,,,,TRACE,,,4200.0,2600.0,SCT,2600.0,BKN,4200.0,OVC,4900.0,,
KRDR,07-14-2015,23:49,SPECI,Variable,60,7.0,,,9999.0,Dry Thunderstorm,24.0,20.0,29.86,,91,,,,,,,,,,,,,,,4300.0,4300.0,BKN,4300.0,OVC,5000.0,,,,
KRDR,07-14-2015,23:47,SPECI,Variable,,5.0,,,9999.0,Distant Lightning,24.0,20.0,29.85,,12,,,,,,,,,,,,,,,4500.0,4500.0,BKN,4500.0,OVC,5000.0,,,,
KRDR,07-14-2015,23:14,SPECI,Normal,210,11.0,18.0,,9999.0,Dry Thunderstorm,27.0,21.0,29.83,,91,,,,,,,,,,,,,,,5500.0,4500.0,SCT,4500.0,BKN,5500.0,,,,
KRDR,07-14-2015,22:58,METAR,Normal,160,6.0,,,9999.0,,28.5,20.0,29.82,1009.9,,,,,,,,,,,TRACE,,,,,8000.0,5500.0,SCT,5500.0,BKN,8000.0,,,,
KRDR,07-14-2015,22:31,SPECI,Normal,220,4.0,,,9999.0,,28.0,20.0,29.84,,,,,,,,,,,,,,,,2/8 Mostly Clear,72000.0,8500.0,FEW,8600.0,,,,,,
KRDR,07-14-2015,22:29,SPECI,Normal,210,4.0,,,9999.0,Light Drizzle,28.0,20.0,29.83,,51,,,,,,,,,,,,,,2/8 Mostly Clear,72000.0,8500.0,FEW,8600.0,,,,,,
KRDR,07-14-2015,21:58,METAR,Normal,170,3.0,,,9999.0,,28.8,20.1,29.82,1009.9,,,,,,,,,,,,,,,2/8 Mostly Clear,72000.0,11000.0,FEW,11000.0,,,,,,
KRDR,07-14-2015,20:58,METAR,Variable,,2.0,,,9999.0,,28.0,19.7,29.84,1010.5,,,,,,,,,,,,,,,4/8 Partly Cloudy,72000.0,3600.0,SCT,3600.0,,,,,,
KRDR,07-14-2015,19:58,METAR,Variable,,3.0,,,9999.0,,27.7,20.1,29.85,1010.9,,,,,,,,,,,,,,,4/8 Partly Cloudy,72000.0,3400.0,SCT,3400.0,,,,,,
KRDR,07-14-2015,18:58,METAR,Variable,,3.0,,,9999.0,,26.9,19.9,29.85,1010.9,,,,,,,,,,,,,,,Clear,72000.0,,,,,,,,,
KRDR,07-14-2015,17:58,METAR,Normal,340,3.0,,,9999.0,,26.4,19.6,29.86,1011.3,,,,,,,,,,,,,,,Clear,72000.0,,,,,,,,,
KRDR,07-14-2015,16:58,METAR,Variable,,3.0,,,9999.0,,26.7,20.4,29.87,1011.6,,,,,,,,,,,,,,,Clear,72000.0,,,,,,,,,
KRDR,07-14-2015,15:58,METAR,Normal,280,2.0,,,9999.0,,26.0,20.5,29.86,1011.2,,,,,,,,,,,,,,,2/8 Mostly Clear,72000.0,11000.0,FEW,11000.0,,,,,,
KRDR,07-14-2015,14:58,METAR,Variable,,1.0,,,9999.0,,24.3,20.2,29.85,1010.9,,,,,,,,,,,,,,,Clear,72000.0,,,,,,,,,
KRDR,07-14-2015,13:58,METAR,Normal,50,4.0,,,9999.0,,22.0,20.0,29.84,1010.6,,,,,,,,,,,,,,,2/8 Mostly Clear,72000.0,800.0,FEW,800.0,,,,,,
KRDR,07-14-2015,12:58,METAR,Normal,360,4.0,,,9999.0,,20.5,19.7,29.83,1010.3,,,,,,,,,,,,,,,4/8 Partly Cloudy,72000.0,400.0,SCT,400.0,,,,,,
KRDR,07-14-2015,12:22,SPECI,Variable,,6.0,,,9999.0,,20.0,19.0,29.82,,,,,,,,,,,,,,,,2/8 Mostly Clear,72000.0,300.0,FEW,300.0,,,,,,
KRDR,07-14-2015,11:58,METAR,Normal,330,4.0,,,9999.0,,19.0,19.0,29.82,1009.9,,,,,,,,,,,,,,,Clear,72000.0,,,,,,,,,
KRDR,07-14-2015,11:03,SPECI,Normal,360,4.0,,,6400.0,Mist,18.0,18.0,29.79,,10,,,,,,,,,,,,,,Clear,72000.0,,,,,,,,,
KRDR,07-14-2015,10:58,METAR,Normal,340,5.0,,,2800.0,Mist,18.1,17.8,29.79,1009.0,10,,,,,,,,,,,,,,Clear,72000.0,,,,,,,,,
KRDR,07-14-2015,10:54,SPECI,Normal,330,5.0,,,2400.0,Mist,18.0,18.0,29.79,,10,,,,,,,,,,,,,,Clear,72000.0,,,,,,,,,
KRDR,07-14-2015,10:49,SPECI,Normal,320,3.0,,,4000.0,Mist,18.0,18.0,29.79,,10,,,,,,,,,,,,,,Clear,72000.0,,,,,,,,,
KRDR,07-14-2015,10:19,SPECI,Normal,10,5.0,,,9999.0,,19.0,19.0,29.78,,,,,,,,,,,,,,,,Clear,72000.0,,,,,,,,,
KRDR,07-14-2015,10:09,SPECI,Normal,360,5.0,,,9999.0,,19.0,18.0,29.78,,,,,,,,,,,,,,,,Clear,72000.0,,,,,,,,,
KRDR,07-14-2015,09:59,SPECI,Normal,20,5.0,,,9999.0,,19.0,19.0,29.77,,,,,,,,,,,,,,,,Clear,72000.0,,,,,,,,,
KRDR,07-14-2015,09:58,METAR,Normal,20,5.0,,,9999.0,,19.0,18.6,29.77,1008.3,,,,,,,,,,,,,,,Clear,72000.0,,,,,,,,,
KRDR,07-14-2015,09:33,SPECI,Normal,360,5.0,,,9999.0,,19.0,19.0,29.77,,,,,,,,,,,,,,,,2/8 Mostly Clear,72000.0,3500.0,FEW,3500.0,,,,,,
KRDR,07-14-2015,08:58,METAR,Normal,20,6.0,,,9999.0,,20.2,19.9,29.77,1008.3,,,,,,,,,,,,,,,4/8 Partly Cloudy,72000.0,3500.0,SCT,3500.0,,,,,,
KRDR,07-14-2015,08:48,SPECI,Normal,10,5.0,,,9999.0,,20.0,20.0,29.77,,,,,,,,,,,,,,,,,3500.0,3500.0,BKN,3500.0,,,,,,
KRDR,07-14-2015,08:08,SPECI,Normal,330,4.0,,,9999.0,,19.0,19.0,29.75,,,,,,,,,,,,,,,,Clear,72000.0,,,,,,,,,
KRDR,07-14-2015,07:58,METAR,Normal,350,3.0,,,9999.0,Mist,19.3,18.8,29.75,1007.6,10,,,,,,,,,,,,,,Clear,72000.0,,,,,,,,,
KRDR,07-14-2015,07:53,SPECI,Normal,360,3.0,,,9999.0,,19.0,19.0,29.75,,,,,,,,,,,,,,,,Clear,72000.0,,,,,,,,,
KRDR,07-14-2015,07:43,SPECI,Normal,340,4.0,,,9999.0,,19.0,19.0,29.75,,,,,,,,,,,,,,,,Clear,72000.0,,,,,,,,,
KRDR,07-14-2015,07:33,SPECI,Normal,330,4.0,,,9999.0,,19.0,19.0,29.75,,,,,,,,,,,,,,,,Clear,72000.0,,,,,,,,,
KRDR,07-14-2015,07:08,SPECI,Normal,320,4.0,,,9999.0,,19.0,19.0,29.74,,,,,,,,,,,,,,,,Clear,72000.0,,,,,,,,,
KRDR,07-14-2015,06:58,METAR,Normal,320,3.0,,,9999.0,,19.0,19.0,29.73,1006.8,,,,,,,,,,,,,,,Clear,72000.0,,,,,,,,,
KRDR,07-14-2015,05:58,METAR,Normal,10,5.0,,,9999.0,,19.8,19.2,29.72,1006.5,,,,,,,,,,,,,,,Clear,72000.0,,,,,,,,,
KRDR,07-14-2015,04:58,METAR,Normal,310,6.0,,,9999.0,,20.4,19.4,29.71,1006.2,,,,,,,,,,,,,,,Clear,72000.0,,,,,,,,,
KRDR,07-14-2015,03:58,METAR,Normal,330,4.0,,,9999.0,,20.7,19.9,29.71,1006.2,,,,,,,,,,,,,,,Clear,72000.0,,,,,,,,,
KRDR,07-14-2015,02:58,METAR,Normal,30,4.0,,,9999.0,,20.8,19.7,29.69,1005.5,,,,,,,,,,,,,,,Clear,72000.0,,,,,,,,,
KRDR,07-14-2015,01:58,METAR,Normal,20,4.0,,,9999.0,,23.3,21.2,29.68,1005.1,,,,,,,,,,,,,,,Clear,72000.0,,,,,,,,,
KRDR,07-14-2015,00:58,METAR,Normal,20,4.0,,,9999.0,,25.5,21.3,29.66,1004.5,,,,,,,,,,,,,,,Clear,72000.0,,,,,,,,,
KRDR,07-13-2015,23:58,METAR,Normal,320,5.0,,,9999.0,,26.1,20.6,29.65,1004.1,,,,,,,,,,,,,.33 IN,,Clear,72000.0,,,,,,,,,
KRDR,07-13-2015,22:58,METAR,Normal,300,5.0,,,9999.0,,26.0,21.0,29.65,1004.1,,,,,,,,,,,,,,,Clear,72000.0,,,,,,,,,
KRDR,07-13-2015,21:58,METAR,Normal,250,2.0,,,9999.0,,23.7,20.5,29.66,1004.6,,,,,,,,,,,TRACE,,,,Clear,72000.0,,,,,,,,,
KRDR,07-13-2015,20:58,METAR,Normal,320,3.0,,,9999.0,,20.4,19.8,29.66,1004.6,,,,,,,,,,,.33 IN,.33 IN,,,,5500.0,5500.0,BKN,5500.0,,,,,,
KRDR,07-13-2015,20:57,SPECI,Normal,320,3.0,,,9999.0,,21.0,20.0,29.66,,,,,,,,,,,,,,,,,5500.0,5500.0,BKN,5500.0,,,,,,
KRDR,07-13-2015,20:28,SPECI,Normal,20,4.0,,,4800.0,Rain/Distant Lightning/Mist,20.0,19.0,29.67,,62,10,12,,,,,,,,,,,,,5500.0,200.0,FEW,200.0,OVC,5500.0,,,,
KRDR,07-13-2015,20:19,SPECI,Normal,360,7.0,,,3200.0,Thunderstorm and Rain or Snow Showers/Mist,21.0,20.0,29.67,,92,10,,,,,,,,,,,,,,5000.0,200.0,FEW,200.0,OVC,5000.0,,,,
KRDR,07-13-2015,20:14,SPECI,Normal,350,6.0,,,2400.0,Heavy Thunderstorm and Rain or Snow Showers/Mist,21.0,20.0,29.67,,95,10,,,,,,,,,,,,,,200.0,200.0,SCT,200.0,OVC,4800.0,,,,
KRDR,07-13-2015,20:04,SPECI,Normal,10,7.0,,,2000.0,Heavy Thunderstorm and Rain or Snow Showers/Mist,22.0,20.0,29.69,,95,10,,,,,,,,,,,,,,300.0,200.0,SCT,200.0,BKN,4600.0,OVC,7000.0,,
KRDR,07-13-2015,19:59,SPECI,Normal,360,8.0,,,4000.0,Thunderstorm and Rain or Snow Showers,23.0,20.0,29.70,,92,,,,,,,,,,,,,,,3600.0,200.0,FEW,200.0,BKN,4500.0,OVC,7000.0,,
KRDR,07-13-2015,19:58,METAR,Normal,360,10.0,,,6400.0,Thunderstorm and Rain or Snow Showers,23.0,19.8,29.70,1005.9,92,,,,,,,,,,TRACE,,,,,3600.0,3800.0,FEW,3800.0,SCT,4700.0,BKN,6000.0,,
KRDR,07-13-2015,19:53,SPECI,Normal,310,8.0,,,9999.0,Thunderstorm and Rain or Snow Showers,23.0,20.0,29.69,,92,,,,,,,,,,,,,,,7000.0,3800.0,FEW,3800.0,SCT,4800.0,BKN,7000.0,,
KRDR,07-13-2015,19:28,SPECI,Normal,250,12.0,,,9999.0,Dry Thunderstorm,26.0,21.0,29.64,,91,,,,,,,,,,,,,,2/8 Mostly Clear,72000.0,4500.0,FEW,4500.0,,,,,,
KRDR,07-13-2015,18:58,METAR,Normal,260,8.0,,,9999.0,,27.3,19.7,29.65,1004.1,,,,,,,,,,,,,,,4/8 Partly Cloudy,72000.0,3300.0,SCT,3300.0,,,,,,
KRDR,07-13-2015,17:58,METAR,Normal,250,5.0,,,9999.0,,26.9,19.6,29.66,1004.4,,,,,,,,,,,,,,,,6000.0,3200.0,SCT,3200.0,BKN,6000.0,BKN,8000.0,,
KRDR,07-13-2015,16:58,METAR,Variable,,2.0,,,9999.0,,26.2,19.8,29.66,1004.4,,,,,,,,,,,,,,,4/8 Partly Cloudy,72000.0,2700.0,FEW,2700.0,SCT,6000.0,,,,
KRDR,07-13-2015,15:58,METAR,Normal,300,5.0,,,9999.0,,25.4,19.6,29.66,1004.5,,,,,,,,,,,,,,,Clear,72000.0,,,,,,,,,
KRDR,07-13-2015,14:58,METAR,Normal,290,4.0,,,9999.0,,24.6,19.3,29.66,1004.5,,,,,,,,,,,,,,,Clear,72000.0,,,,,,,,,
KRDR,07-13-2015,13:58,METAR,Normal,290,5.0,,,9999.0,,22.4,18.8,29.66,1004.5,,,,,,,,,,,,,,,Clear,72000.0,,,,,,,,,
KRDR,07-13-2015,12:58,METAR,Normal,280,4.0,,,9999.0,,20.1,18.1,29.66,1004.5,,,,,,,,,,,,,,,2/8 Mostly Clear,72000.0,7500.0,FEW,7500.0,,,,,,
KRDR,07-13-2015,11:58,METAR,Normal,220,3.0,,,9999.0,,18.9,17.4,29.65,1004.2,,,,,,,,,,,.01 IN,,.01 IN,.03 IN,,7500.0,300.0,FEW,300.0,OVC,7500.0,,,,
KRDR,07-13-2015,11:53,SPECI,Normal,220,2.0,,,9999.0,Mist,19.0,17.0,29.65,,10,,,,,,,,,,,,,,,7000.0,300.0,FEW,300.0,OVC,7000.0,,,,
KRDR,07-13-2015,11:48,SPECI,Normal,240,2.0,,,3200.0,Mist,19.0,17.0,29.65,,10,,,,,,,,,,,,,,,7000.0,400.0,SCT,400.0,SCT,2100.0,OVC,7000.0,,
KRDR,07-13-2015,11:45,SPECI,Normal,260,3.0,,,3200.0,Light Rain/Mist,19.0,18.0,29.65,,61,10,,,,,,,,,,,,,,7000.0,400.0,SCT,400.0,SCT,2100.0,OVC,7000.0,,
KRDR,07-13-2015,11:40,SPECI,Normal,240,5.0,,,8000.0,Light Rain/Mist,19.0,17.0,29.65,,61,10,,,,,,,,,,,,,,7000.0,400.0,FEW,400.0,OVC,7000.0,,,,
KRDR,07-13-2015,11:18,SPECI,Normal,200,2.0,,,9999.0,Light Rain,19.0,17.0,29.65,,61,,,,,,,,,,,,,,,7500.0,7500.0,BKN,7500.0,OVC,9100.0,,,,
KRDR,07-13-2015,10:58,METAR,Normal,200,5.0,,,9999.0,,18.9,17.1,29.64,1003.9,,,,,,,,,,,,,,,,9000.0,9000.0,OVC,9100.0,,,,,,
KRDR,07-13-2015,09:58,METAR,Normal,230,2.0,,,9999.0,,17.9,16.9,29.64,1003.9,,,,,,,,,,,,,,,,12000.0,12000.0,OVC,12000.0,,,,,,
KRDR,07-13-2015,08:58,METAR,Normal,290,7.0,,,9999.0,,19.1,16.7,29.64,1003.7,,,,,,,,,,,,,,,2/8 Mostly Clear,72000.0,11000.0,FEW,11000.0,,,,,,
KRDR,07-13-2015,07:58,METAR,Normal,280,6.0,,,9999.0,,20.0,17.3,29.64,1003.6,,,,,,,,,,,,,,,,11000.0,11000.0,OVC,11000.0,,,,,,
KRDR,07-13-2015,06:58,METAR,Normal,170,3.0,,,9999.0,,19.9,18.1,29.64,1003.7,,,,,,,,,,,,,,,,11000.0,11000.0,BKN,11000.0,,,,,,
KRDR,07-13-2015,05:58,METAR,Normal,160,7.0,,,9999.0,,21.3,17.4,29.64,1003.7,,,,,,,,,,,,,,,4/8 Partly Cloudy,72000.0,12000.0,SCT,12000.0,,,,,,
KRDR,07-13-2015,04:58,METAR,Normal,230,6.0,,,9999.0,,21.4,17.2,29.66,1004.4,,,,,,,,,,,,,,,Clear,72000.0,,,,,,,,,
KRDR,07-13-2015,03:58,METAR,Normal,260,11.0,19.0,,9999.0,,19.3,17.8,29.71,1006.2,,,,,,,,,,,,,,,2/8 Mostly Clear,72000.0,4500.0,FEW,4500.0,,,,,,
KRDR,07-13-2015,02:58,METAR,Normal,170,2.0,,,9999.0,,20.3,18.1,29.66,1004.5,,,,,,,,,,,,,,,Clear,72000.0,,,,,,,,,
KRDR,07-13-2015,01:58,METAR,Normal,120,10.0,,,9999.0,,22.6,17.3,29.68,1005.2,,,,,,,,,,,,,,,,4600.0,4600.0,BKN,4600.0,,,,,,
KRDR,07-13-2015,00:58,METAR,Normal,100,9.0,,,9999.0,,22.7,18.0,29.67,1004.9,,,,,,,,,,,,,,,Clear,72000.0,,,,,,,,,
KRDR,07-12-2015,23:58,METAR,Normal,110,6.0,,,9999.0,,21.6,18.8,29.66,1004.6,,,,,,,,,,,,,.02 IN,,Clear,72000.0,,,,,,,,,
KRDR,07-12-2015,23:10,SPECI,Normal,30,15.0,25.0,,9999.0,,22.0,18.0,29.65,,,,,,,,,,,,,,,,Clear,72000.0,,,,,,,,,
KRDR,07-12-2015,22:58,METAR,Normal,350,12.0,,,9999.0,,23.0,18.3,29.64,1003.9,,,,,,,,,,,,,,,2/8 Mostly Clear,72000.0,3300.0,FEW,3300.0,,,,,,
KRDR,07-12-2015,21:58,METAR,Normal,160,8.0,,,9999.0,Distant Lightning,22.5,17.5,29.66,1004.6,12,,,,,,,,,,.02 IN,,,,Clear,72000.0,,,,,,,,,
KRDR,07-12-2015,21:49,SPECI,Normal,160,8.0,,,9999.0,Distant Lightning,23.0,18.0,29.67,,12,,,,,,,,,,,,,,2/8 Mostly Clear,72000.0,12000.0,FEW,12000.0,,,,,,
KRDR,07-12-2015,21:29,SPECI,Variable,,1.0,,,9999.0,Dry Thunderstorm,22.0,18.0,29.65,,91,,,,,,,,,,,,,,,12000.0,3300.0,FEW,3300.0,SCT,8600.0,BKN,12000.0,,
KRDR,07-12-2015,21:21,SPECI,Normal,150,11.0,22.0,,9999.0,Thunderstorm and Rain or Snow Showers,23.0,18.0,29.66,,92,,,,,,,,,,,,,,,11000.0,3200.0,SCT,3200.0,SCT,8600.0,BKN,11000.0,,
KRDR,07-12-2015,21:09,SPECI,Normal,190,18.0,23.0,,9999.0,Thunderstorm and Rain or Snow Showers,28.0,19.0,29.68,,92,,,,,,,,,,,,,,4/8 Partly Cloudy,72000.0,3100.0,FEW,3100.0,SCT,7000.0,SCT,8600.0,,
KRDR,07-12-2015,20:58,METAR,Normal,210,6.0,,,9999.0,Dry Thunderstorm,29.6,24.5,29.68,1005.0,91,,,,,,,,,,,,,,4/8 Partly Cloudy,72000.0,3600.0,SCT,3600.0,,,,,,
KRDR,07-12-2015,20:39,SPECI,Normal,200,9.0,,,9999.0,Dry Thunderstorm,31.0,25.0,29.68,,91,,,,,,,,,,,,,,,3400.0,3400.0,BKN,3400.0,,,,,,
KRDR,07-12-2015,19:58,METAR,Normal,150,12.0,,,9999.0,,31.1,24.4,29.67,1004.6,,,,,,,,,,,,,,,,2700.0,2700.0,BKN,2700.0,,,,,,
KRDR,07-12-2015,18:58,METAR,Normal,140,14.0,,,9999.0,,29.8,24.3,29.68,1005.0,,,,,,,,,,,,,,,Clear,72000.0,,,,,,,,,
KRDR,07-12-2015,18:13,SPECI,Normal,150,10.0,,,9999.0,,29.0,24.0,29.70,,,,,,,,,,,,,,,,4/8 Partly Cloudy,72000.0,1900.0,SCT,1900.0,,,,,,
KRDR,07-12-2015,17:58,METAR,Normal,140,8.0,,,9999.0,,28.3,23.6,29.70,1005.7,,,,,,,,,,,,,,,,1700.0,1700.0,BKN,1700.0,,,,,,
KRDR,07-12-2015,17:08,SPECI,Normal,130,10.0,,,9999.0,,27.0,23.0,29.72,,,,,,,,,,,,,,,,,1500.0,1500.0,OVC,1500.0,,,,,,
KRDR,07-12-2015,16:58,METAR,Normal,110,10.0,,,9999.0,,27.0,22.8,29.72,1006.4,,,,,,,,,,,,,,,,1400.0,1400.0,OVC,1400.0,,,,,,
KRDR,07-12-2015,15:58,METAR,Normal,120,9.0,,,9999.0,,25.8,22.3,29.74,1007.1,,,,,,,,,,,,,,,,1400.0,1400.0,OVC,1400.0,,,,,,
KRDR,07-12-2015,14:58,METAR,Normal,130,6.0,,,9999.0,,23.6,20.4,29.76,1007.8,,,,,,,,,,,,,,,,1200.0,1200.0,OVC,1200.0,,,,,,
KRDR,07-12-2015,13:58,METAR,Variable,,4.0,,,9999.0,,21.4,19.0,29.77,1008.2,,,,,,,,,,,,,,,,1200.0,1200.0,OVC,1200.0,,,,,,
KRDR,07-12-2015,13:50,SPECI,Normal,90,4.0,,,9999.0,,21.0,19.0,29.76,,,,,,,,,,,,,,,,,1200.0,1200.0,OVC,1200.0,,,,,,
KRDR,07-12-2015,13:35,SPECI,Normal,100,3.0,,,9999.0,,20.0,18.0,29.76,,,,,,,,,,,,,,,,,1100.0,1100.0,BKN,1100.0,,,,,,
KRDR,07-12-2015,13:30,SPECI,Normal,100,4.0,,,9999.0,,20.0,18.0,29.76,,,,,,,,,,,,,,,,4/8 Partly Cloudy,72000.0,1100.0,SCT,1100.0,,,,,,
KRDR,07-12-2015,12:58,METAR,Normal,150,6.0,,,9999.0,,18.9,17.1,29.75,1007.5,,,,,,,,,,,,,,,Clear,72000.0,,,,,,,,,
KRDR,07-12-2015,11:58,METAR,Normal,150,6.0,,,9999.0,,19.0,18.1,29.75,1007.5,,,,,,,,,,,,,.98 IN,.98 IN,Clear,72000.0,,,,,,,,,
KRDR,07-12-2015,10:58,METAR,Normal,160,4.0,,,9999.0,,18.7,17.6,29.77,1008.2,,,,,,,,,,,TRACE,,,,2/8 Mostly Clear,72000.0,5500.0,FEW,5500.0,,,,,,
KRDR,07-12-2015,10:11,SPECI,Normal,320,9.0,,,9999.0,,19.0,17.0,29.77,,,,,,,,,,,,,,,,2/8 Mostly Clear,72000.0,700.0,FEW,700.0,,,,,,
KRDR,07-12-2015,10:01,SPECI,Normal,70,6.0,,,9999.0,,19.0,17.0,29.75,,,,,,,,,,,,,,,,4/8 Partly Cloudy,72000.0,2400.0,SCT,2400.0,,,,,,
KRDR,07-12-2015,09:58,METAR,Normal,80,9.0,,280/45KTS,9999.0,Thunderstorm and Rain or Snow Showers,18.0,17.0,29.76,1007.9,92,,,,,,,,,,.98 IN,,,,4/8 Partly Cloudy,72000.0,2000.0,SCT,2000.0,,,,,,
KRDR,07-12-2015,09:55,SPECI,Normal,90,13.0,,,9999.0,Thunderstorm and Rain or Snow Showers,18.0,17.0,29.76,,92,,,,,,,,,,,,,,,1600.0,1800.0,BKN,1800.0,,,,,,
KRDR,07-12-2015,09:50,SPECI,Normal,100,16.0,,,9999.0,Thunderstorm and Rain or Snow Showers,18.0,17.0,29.76,,92,,,,,,,,,,,,,,,1900.0,1900.0,BKN,1900.0,,,,,,
KRDR,07-12-2015,09:45,SPECI,Normal,100,15.0,,,8000.0,Thunderstorm and Rain or Snow Showers/Mist,18.0,16.0,29.76,,92,10,,,,,,,,,,,,,,1100.0,2100.0,OVC,2100.0,,,,,,
KRDR,07-12-2015,09:40,SPECI,Normal,60,12.0,,,2400.0,Heavy Thunderstorm and Rain or Snow Showers/Mist,18.0,16.0,29.77,,95,10,,,,,,,,,,,,,,900.0,1500.0,OVC,1500.0,,,,,,
KRDR,07-12-2015,09:35,SPECI,Normal,60,15.0,38.0,,1200.0,Heavy Thunderstorm and Rain or Snow Showers/Mist,18.0,16.0,29.80,,95,10,,,,,,,,,,,,,,900.0,1100.0,BKN,1100.0,BKN,1900.0,OVC,2700.0,,
KRDR,07-12-2015,09:33,SPECI,Normal,50,19.0,43.0,,800.0,Heavy Thunderstorm and Rain or Snow Showers/Fog,18.0,16.0,29.79,,95,30,,,,,,,,,,,,,,900.0,900.0,BKN,900.0,BKN,1900.0,OVC,2700.0,,
KRDR,07-12-2015,09:28,SPECI,Normal,10,24.0,43.0,,800.0,Heavy Thunderstorm and Rain or Snow Showers/Fog,19.0,18.0,29.83,,95,30,,,,,,,,,,,,,,1000.0,1000.0,BKN,1000.0,BKN,1900.0,OVC,2700.0,,
KRDR,07-12-2015,09:25,SPECI,Normal,340,34.0,43.0,,800.0,Heavy Thunderstorm and Rain or Snow Showers/Fog,20.0,18.0,29.85,,95,30,,,,,,,,,,,,,,1500.0,1100.0,SCT,1100.0,SCT,1900.0,OVC,2700.0,,
KRDR,07-12-2015,09:24,SPECI,Normal,330,31.0,43.0,,800.0,Heavy Thunderstorm and Rain or Snow Showers/Fog,20.0,18.0,29.85,,95,30,,,,,,,,,,,,,,2700.0,1200.0,SCT,1200.0,SCT,1900.0,OVC,2700.0,,
KRDR,07-12-2015,09:20,SPECI,Normal,290,24.0,33.0,,1600.0,Heavy Thunderstorm and Rain or Snow Showers/Mist,20.0,18.0,29.85,,95,10,,,,,,,,,,,,,,2700.0,1400.0,FEW,1400.0,SCT,1900.0,OVC,2700.0,,
KRDR,07-12-2015,09:15,SPECI,Normal,290,20.0,27.0,,9999.0,Thunderstorm and Rain or Snow Showers,21.0,19.0,29.83,,92,,,,,,,,,,,,,,,2900.0,1900.0,FEW,1900.0,OVC,2900.0,,,,
KRDR,07-12-2015,09:12,SPECI,Variable,300,15.0,22.0,,9999.0,Light Rain,22.0,19.0,29.81,,61,,,,,,,,,,,,,,,2700.0,2700.0,BKN,2700.0,BKN,3300.0,,,,
KRDR,07-12-2015,09:04,SPECI,Normal,60,10.0,,,9999.0,Thunderstorm and Rain or Snow Showers,22.0,18.0,29.76,,92,,,,,,,,,,,,,,,2700.0,2700.0,BKN,2700.0,,,,,,
KRDR,07-12-2015,08:58,METAR,Normal,50,8.0,,,9999.0,Dry Thunderstorm,22.2,18.1,29.78,1008.5,91,,,,,,,,,,,,,,,2700.0,2700.0,BKN,2700.0,,,,,,
KRDR,07-12-2015,08:57,SPECI,Normal,40,7.0,,,9999.0,Dry Thunderstorm,22.0,18.0,29.78,,91,,,,,,,,,,,,,,,2700.0,2700.0,BKN,2700.0,,,,,,
KRDR,07-12-2015,08:28,SPECI,Variable,,6.0,,,9999.0,,22.0,18.0,29.80,,,,,,,,,,,,,,,,,1400.0,1400.0,SCT,1400.0,BKN,2300.0,OVC,2900.0,,
KRDR,07-12-2015,08:23,SPECI,Normal,10,6.0,,,9999.0,,22.0,17.0,29.80,,,,,,,,,,,,,,,,,1400.0,1400.0,BKN,1400.0,BKN,2100.0,OVC,2800.0,,
KRDR,07-12-2015,08:18,SPECI,Normal,340,8.0,20.0,,9999.0,,22.0,18.0,29.80,,,,,,,,,,,,,,,,,1500.0,1500.0,BKN,1500.0,OVC,2100.0,,,,
KRDR,07-12-2015,08:03,SPECI,Normal,350,11.0,,,9999.0,,22.0,20.0,29.80,,,,,,,,,,,,,,,,,1200.0,1200.0,BKN,1200.0,,,,,,
KRDR,07-12-2015,07:58,METAR,Normal,10,12.0,,,9999.0,,21.2,20.2,29.80,1009.1,,,,,,,,,,,,,,,4/8 Partly Cloudy,72000.0,700.0,FEW,700.0,SCT,1200.0,,,,
KRDR,07-12-2015,07:56,SPECI,Normal,10,15.0,,,9999.0,,21.0,20.0,29.80,,,,,,,,,,,,,,,,4/8 Partly Cloudy,72000.0,700.0,FEW,700.0,SCT,1200.0,,,,
KRDR,07-12-2015,07:51,SPECI,Normal,340,12.0,,,9999.0,,21.0,20.0,29.80,,,,,,,,,,,,,,,,2/8 Mostly Clear,72000.0,700.0,FEW,700.0,,,,,,
KRDR,07-12-2015,06:58,METAR,Normal,140,5.0,,,9999.0,,21.7,20.2,29.79,1008.8,,,,,,,,,,,,,,,Clear,72000.0,,,,,,,,,
KRDR,07-12-2015,05:58,METAR,Normal,140,5.0,,,9999.0,,22.2,20.4,29.81,1009.5,,,,,,,,,,,,,,,Clear,72000.0,,,,,,,,,
KRDR,07-12-2015,04:58,METAR,Normal,170,8.0,,,9999.0,,23.1,20.6,29.82,1009.8,,,,,,,,,,,,,,,Clear,72000.0,,,,,,,,,
KRDR,07-12-2015,03:58,METAR,Normal,160,9.0,,,9999.0,,24.0,20.6,29.81,1009.5,,,,,,,,,,,,,,,Clear,72000.0,,,,,,,,,
KRDR,07-12-2015,02:58,METAR,Normal,160,7.0,,,9999.0,,24.2,21.0,29.83,1010.2,,,,,,,,,,,,,,,Clear,72000.0,,,,,,,,,
KRDR,07-12-2015,01:58,METAR,Normal,140,8.0,,,9999.0,,25.8,21.9,29.83,1010.2,,,,,,,,,,,,,,,Clear,72000.0,,,,,,,,,
KRDR,07-12-2015,00:58,METAR,Normal,130,11.0,18.0,,9999.0,,27.2,21.7,29.83,1010.2,,,,,,,,,,,,,,,Clear,72000.0,,,,,,,,,
KRDR,07-11-2015,23:58,METAR,Normal,140,14.0,19.0,,9999.0,,27.8,21.2,29.83,1010.2,,,,,,,,,,,,,,,2/8 Mostly Clear,72000.0,3100.0,FEW,3100.0,,,,,,
KRDR,07-11-2015,22:58,METAR,Normal,160,13.0,17.0,,9999.0,,28.7,21.0,29.85,1010.8,,,,,,,,,,,,,,,Clear,72000.0,,,,,,,,,
KRDR,07-11-2015,21:58,METAR,Normal,170,11.0,,,9999.0,,27.4,21.3,29.88,1011.9,,,,,,,,,,,,,,,4/8 Partly Cloudy,72000.0,3000.0,SCT,3000.0,SCT,3700.0,,,,
KRDR,07-11-2015,20:58,METAR,Normal,190,11.0,,,9999.0,,27.9,21.0,29.88,1011.9,,,,,,,,,,,,,,,2/8 Mostly Clear,72000.0,2900.0,FEW,2900.0,,,,,,
KRDR,07-11-2015,19:58,METAR,Normal,180,13.0,,,9999.0,,28.2,21.9,29.87,1011.6,,,,,,,,,,,,,,,Clear,72000.0,,,,,,,,,
KRDR,07-11-2015,18:58,METAR,Normal,190,14.0,,,9999.0,,27.5,21.7,29.88,1011.9,,,,,,,,,,,,,,,2/8 Mostly Clear,72000.0,2400.0,FEW,2400.0,,,,,,
KRDR,07-11-2015,17:58,METAR,Normal,170,10.0,,,9999.0,,27.7,21.6,29.88,1011.9,,,,,,,,,,,,,,,4/8 Partly Cloudy,72000.0,2400.0,SCT,2400.0,,,,,,
KRDR,07-11-2015,16:58,METAR,Normal,170,14.0,,,9999.0,,27.2,21.1,29.89,1012.2,,,,,,,,,,,,,,,4/8 Partly Cloudy,72000.0,2200.0,SCT,2200.0,,,,,,
KRDR,07-11-2015,15:58,METAR,Normal,180,12.0,,,9999.0,,26.0,20.5,29.89,1012.2,,,,,,,,,,,,,,,Clear,72000.0,,,,,,,,,
KRDR,07-11-2015,14:58,METAR,Normal,180,11.0,,,9999.0,,24.0,19.5,29.91,1012.9,,,,,,,,,,,,,,,Clear,72000.0,,,,,,,,,
KRDR,07-11-2015,13:58,METAR,Normal,190,7.0,,,9999.0,,22.0,18.7,29.91,1012.9,,,,,,,,,,,,,,,Clear,72000.0,,,,,,,,,
KRDR,07-11-2015,12:58,METAR,Normal,180,10.0,,,9999.0,,21.1,18.2,29.89,1012.2,,,,,,,,,,,,,,,Clear,72000.0,,,,,,,,,
KRDR,07-11-2015,11:58,METAR,Normal,170,8.0,,,9999.0,,19.5,17.5,29.90,1012.6,,,,,,,,,,,,,TRACE,,Clear,72000.0,,,,,,,,,
KRDR,07-11-2015,10:58,METAR,Normal,170,6.0,,,9999.0,,19.6,17.7,29.89,1012.2,,,,,,,,,,,,,,,,11000.0,11000.0,BKN,11000.0,,,,,,
KRDR,07-11-2015,09:58,METAR,Normal,160,5.0,,,9999.0,,19.6,17.8,29.89,1012.2,,,,,,,,,,,TRACE,,,,Clear,72000.0,,,,,,,,,
KRDR,07-11-2015,09:00,SPECI,Normal,180,6.0,,,9999.0,,20.0,18.0,29.89,,,,,,,,,,,,,,,,,12000.0,12000.0,BKN,12000.0,,,,,,
KRDR,07-11-2015,08:58,METAR,Normal,180,6.0,,,9999.0,Light Rain,20.0,18.2,29.89,1012.2,61,,,,,,,,,,TRACE,TRACE,,,,11000.0,11000.0,BKN,11000.0,,,,,,
KRDR,07-11-2015,08:51,SPECI,Normal,170,6.0,,,9999.0,Light Rain,20.0,18.0,29.89,,61,,,,,,,,,,,,,,,11000.0,11000.0,BKN,11000.0,,,,,,
KRDR,07-11-2015,07:58,METAR,Normal,180,6.0,,,9999.0,,20.1,18.4,29.89,1012.2,,,,,,,,,,,,,,,2/8 Mostly Clear,72000.0,8500.0,FEW,8600.0,,,,,,
KRDR,07-11-2015,06:58,METAR,Normal,170,6.0,,,9999.0,,20.9,18.5,29.89,1012.2,,,,,,,,,,,,,,,4/8 Partly Cloudy,72000.0,11000.0,SCT,11000.0,,,,,,
KRDR,07-11-2015,05:58,METAR,Normal,170,6.0,,,9999.0,,21.4,18.7,29.90,1012.5,,,,,,,,,,,,,,,Clear,72000.0,,,,,,,,,
KRDR,07-11-2015,04:58,METAR,Normal,170,7.0,,,9999.0,,22.5,19.0,29.90,1012.5,,,,,,,,,,,,,,,Clear,72000.0,,,,,,,,,
KRDR,07-11-2015,03:58,METAR,Normal,160,8.0,,,9999.0,,23.1,19.1,29.90,1012.5,,,,,,,,,,,,,,,Clear,72000.0,,,,,,,,,
KRDR,07-11-2015,02:58,METAR,Normal,150,7.0,,,9999.0,,23.7,18.9,29.89,1012.2,,,,,,,,,,,,,,,Clear,72000.0,,,,,,,,,
KRDR,07-11-2015,01:58,METAR,Normal,120,6.0,,,9999.0,,25.3,18.6,29.88,1011.9,,,,,,,,,,,,,,,Clear,72000.0,,,,,,,,,
KRDR,07-11-2015,00:58,METAR,Normal,140,6.0,,,9999.0,,27.2,18.2,29.88,1011.9,,,,,,,,,,,,,,,Clear,72000.0,,,,,,,,,
KRDR,07-10-2015,23:58,METAR,Normal,150,9.0,,,9999.0,,28.5,17.3,29.88,1012.0,,,,,,,,,,,,,,,Clear,72000.0,,,,,,,,,
KRDR,07-10-2015,22:58,METAR,Normal,150,12.0,,,9999.0,,29.3,17.2,29.89,1012.3,,,,,,,,,,,,,,,Clear,72000.0,,,,,,,,,
KRDR,07-10-2015,21:58,METAR,Normal,160,11.0,,,9999.0,,29.4,17.5,29.90,1012.6,,,,,,,,,,,,,,,Clear,72000.0,,,,,,,,,
KRDR,07-10-2015,20:58,METAR,Normal,160,10.0,,,9999.0,,29.7,17.8,29.90,1012.6,,,,,,,,,,,,,,,Clear,72000.0,,,,,,,,,
KRDR,07-10-2015,19:58,METAR,Normal,170,11.0,,,9999.0,,29.5,17.8,29.90,1012.6,,,,,,,,,,,,,,,Clear,72000.0,,,,,,,,,
KRDR,07-10-2015,18:58,METAR,Normal,160,10.0,,,9999.0,,29.0,17.9,29.90,1012.6,,,,,,,,,,,,,,,Clear,72000.0,,,,,,,,,
KRDR,07-10-2015,17:58,METAR,Variable,160,7.0,,,9999.0,,28.4,18.8,29.91,1012.9,,,,,,,,,,,,,,,Clear,72000.0,,,,,,,,,
KRDR,07-10-2015,16:58,METAR,Normal,210,8.0,,,9999.0,,27.5,18.1,29.91,1012.9,,,,,,,,,,,,,,,Clear,72000.0,,,,,,,,,
KRDR,07-10-2015,15:58,METAR,Normal,210,10.0,,,9999.0,,26.4,17.0,29.91,1013.0,,,,,,,,,,,,,,,Clear,72000.0,,,,,,,,,
KRDR,07-10-2015,14:58,METAR,Normal,210,9.0,,,9999.0,,24.8,16.0,29.91,,,,,,,,,,,,,,,,Clear,72000.0,,,,,,,,,
KRDR,07-10-2015,13:58,METAR,Normal,220,9.0,,,9999.0,,23.3,14.8,29.92,,,,,,,,,,,,,,,,Clear,72000.0,,,,,,,,,
KRDR,07-10-2015,12:58,METAR,Normal,220,8.0,,,9999.0,,21.0,14.0,29.91,1012.9,,,,,,,,,,,,,,,Clear,72000.0,,,,,,,,,
KRDR,07-10-2015,11:58,METAR,Normal,230,5.0,,,9999.0,,18.3,13.5,29.90,1012.6,,,,,,,,,,,,,,,Clear,72000.0,,,,,,,,,
KRDR,07-10-2015,10:58,METAR,Normal,240,6.0,,,9999.0,,16.8,13.0,29.90,1012.6,,,,,,,,,,,,,,,Clear,72000.0,,,,,,,,,
KRDR,07-10-2015,09:58,METAR,Normal,250,8.0,,,9999.0,,17.9,13.4,29.89,1012.3,,,,,,,,,,,,,,,Clear,72000.0,,,,,,,,,
KRDR,07-10-2015,08:58,METAR,Normal,240,6.0,,,9999.0,,18.2,13.7,29.88,1012.0,,,,,,,,,,,,,,,Clear,72000.0,,,,,,,,,
KRDR,07-10-2015,07:58,METAR,Normal,220,9.0,,,9999.0,,18.0,13.8,29.88,1012.0,,,,,,,,,,,,,,,Clear,72000.0,,,,,,,,,
KRDR,07-10-2015,06:58,METAR,Normal,240,7.0,,,9999.0,,18.8,14.6,29.87,1011.7,,,,,,,,,,,,,,,Clear,72000.0,,,,,,,,,
KRDR,07-10-2015,05:58,METAR,Normal,230,8.0,,,9999.0,,19.7,15.0,29.86,1011.3,,,,,,,,,,,,,,,Clear,72000.0,,,,,,,,,
KRDR,07-10-2015,04:58,METAR,Normal,220,8.0,,,9999.0,,20.9,14.5,29.86,1011.3,,,,,,,,,,,,,,,Clear,72000.0,,,,,,,,,
KRDR,07-10-2015,03:58,METAR,Normal,210,7.0,,,9999.0,,20.0,15.6,29.86,1011.3,,,,,,,,,,,,,,,Clear,72000.0,,,,,,,,,
KRDR,07-10-2015,02:58,METAR,Normal,190,8.0,,,9999.0,,20.1,16.0,29.85,1011.0,,,,,,,,,,,,,,,Clear,72000.0,,,,,,,,,
KRDR,07-10-2015,01:58,METAR,Normal,180,9.0,,,9999.0,,22.8,17.2,29.84,1010.7,,,,,,,,,,,,,,,Clear,72000.0,,,,,,,,,
KRDR,07-10-2015,00:58,METAR,Normal,190,7.0,,,9999.0,,25.9,15.8,29.84,1010.7,,,,,,,,,,,,,,,Clear,72000.0,,,,,,,,,
KRDR,07-09-2015,23:58,METAR,Normal,200,9.0,,,9999.0,,27.2,15.3,29.85,1011.1,,,,,,,,,,,,,,,Clear,72000.0,,,,,,,,,
KRDR,07-09-2015,22:58,METAR,Normal,200,11.0,,,9999.0,,27.6,15.9,29.86,1011.4,,,,,,,,,,,,,,,Clear,72000.0,,,,,,,,,
KRDR,07-09-2015,21:58,METAR,Normal,200,12.0,,,9999.0,,27.4,16.4,29.87,1011.8,,,,,,,,,,,,,,,Clear,72000.0,,,,,,,,,
KRDR,07-09-2015,20:58,METAR,Normal,220,10.0,,,9999.0,,27.0,16.0,29.88,1012.1,,,,,,,,,,,,,,,Clear,72000.0,,,,,,,,,
KRDR,07-09-2015,19:58,METAR,Normal,200,11.0,,,9999.0,,26.0,15.0,29.89,1012.5,,,,,,,,,,,,,,,Clear,72000.0,,,,,,,,,
KRDR,07-09-2015,18:58,METAR,Normal,210,9.0,,,9999.0,,25.2,14.5,29.91,1013.2,,,,,,,,,,,,,,,Clear,72000.0,,,,,,,,,
KRDR,07-09-2015,17:58,METAR,Normal,210,10.0,,,9999.0,,24.4,14.2,29.92,1013.6,,,,,,,,,,,,,,,Clear,72000.0,,,,,,,,,
KRDR,07-09-2015,16:58,METAR,Normal,210,10.0,,,9999.0,,23.8,13.7,29.93,1013.9,,,,,,,,,,,,,,,Clear,72000.0,,,,,,,,,
KRDR,07-09-2015,15:58,METAR,Normal,200,9.0,,,9999.0,,23.1,14.2,29.94,1014.2,,,,,,,,,,,,,,,Clear,72000.0,,,,,,,,,
KRDR,07-09-2015,14:58,METAR,Normal,240,5.0,,,9999.0,,20.8,17.0,29.94,1014.2,,,,,,,,,,,,,,,Clear,72000.0,,,,,,,,,
KRDR,07-09-2015,13:55,METAR,Normal,230,4.0,,,9999.0,,17.8,16.6,29.94,1014.9,,,,,,,,,,,,,,,Clear,72000.0,,,,,,,,,
KRDR,07-09-2015,12:58,METAR,Normal,260,2.0,,,9999.0,,14.8,14.5,29.94,1014.3,,,,,,,,,,,,,,,Clear,72000.0,,,,,,,,,
KRDR,07-09-2015,11:28,SPECI,Normal,280,2.0,,,6400.0,Mist,11.0,11.0,29.92,,10,,,,,,,,,,,,,,Clear,72000.0,,,,,,,,,
KRDR,07-09-2015,10:58,METAR,Normal,270,2.0,,,9999.0,Mist,11.0,10.7,29.92,1013.7,10,,,,,,,,,,,,,,Clear,72000.0,,,,,,,,,
KRDR,07-09-2015,09:58,METAR,Normal,300,3.0,,,9999.0,Mist,12.0,11.0,29.91,1013.3,10,,,,,,,,,,,,,,Clear,72000.0,,,,,,,,,
KRDR,07-09-2015,08:58,METAR,Normal,290,2.0,,,9999.0,,11.7,11.4,29.90,1012.9,,,,,,,,,,,,,,,Clear,72000.0,,,,,,,,,
KRDR,07-09-2015,07:58,METAR,Normal,310,1.0,,,9999.0,,12.1,11.8,29.90,1013.0,,,,,,,,,,,,,,,Clear,72000.0,,,,,,,,,
KRDR,07-09-2015,06:58,METAR,Normal,330,3.0,,,9999.0,,12.0,12.0,29.90,1013.0,,,,,,,,,,,,,,,Clear,72000.0,,,,,,,,,
KRDR,07-09-2015,06:03,SPECI,Calm,,0.0,,,9999.0,,12.0,11.0,29.91,,,,,,,,,,,,,,,,Clear,72000.0,,,,,,,,,
KRDR,07-09-2015,05:58,METAR,Calm,,0.0,,,9999.0,,11.9,11.5,29.90,1013.0,,,,,,,,,,,,,,,Clear,72000.0,,,,,,,,,
KRDR,07-09-2015,05:53,SPECI,Calm,,0.0,,,9999.0,,12.0,11.0,29.91,,,,,,,,,,,,,,,,Clear,72000.0,,,,,,,,,
KRDR,07-09-2015,05:38,SPECI,Calm,,0.0,,,800.0,Fog,13.0,12.0,29.90,,30,,,,,,,,,,,,,,Clear,72000.0,,,,,,,,,
KRDR,07-09-2015,05:33,SPECI,Calm,,0.0,,,1200.0,Mist,12.0,12.0,29.90,,10,,,,,,,,,,,,,,Clear,72000.0,,,,,,,,,
KRDR,07-09-2015,05:28,SPECI,Calm,,0.0,,,1600.0,Mist,12.0,12.0,29.90,,10,,,,,,,,,,,,,,Clear,72000.0,,,,,,,,,
KRDR,07-09-2015,05:23,SPECI,Calm,,0.0,,,1600.0,Mist,13.0,12.0,29.90,,10,,,,,,,,,,,,,,Clear,72000.0,,,,,,,,,
KRDR,07-09-2015,05:18,SPECI,Normal,180,1.0,,,3200.0,Mist,13.0,12.0,29.90,,10,,,,,,,,,,,,,,Clear,72000.0,,,,,,,,,
KRDR,07-09-2015,05:13,SPECI,Calm,,0.0,,,9999.0,,13.0,12.0,29.90,,,,,,,,,,,,,,,,Clear,72000.0,,,,,,,,,
KRDR,07-09-2015,05:03,SPECI,Calm,,0.0,,,9999.0,,13.0,13.0,29.90,,,,,,,,,,,,,,,,Clear,72000.0,,,,,,,,,
KRDR,07-09-2015,04:58,METAR,Calm,,0.0,,,9999.0,,13.8,13.0,29.90,1013.0,,,,,,,,,,,,,,,Clear,72000.0,,,,,,,,,
KRDR,07-09-2015,03:58,METAR,Normal,120,4.0,,,9999.0,,17.0,14.9,29.90,1012.9,,,,,,,,,,,,,,,Clear,72000.0,,,,,,,,,
KRDR,07-09-2015,02:58,METAR,Normal,240,4.0,,,9999.0,,16.7,15.2,29.88,1012.2,,,,,,,,,,,,,,,Clear,72000.0,,,,,,,,,
KRDR,07-09-2015,01:58,METAR,Normal,220,8.0,,,9999.0,,19.1,15.8,29.87,1012.0,,,,,,,,,,,,,,,Clear,72000.0,,,,,,,,,
KRDR,07-09-2015,00:58,METAR,Variable,,4.0,15.0,,9999.0,,20.3,16.0,29.89,1012.6,,,,,,,,,,,,,,,,2900.0,2900.0,BKN,2900.0,BKN,5500.0,,,,
KRDR,07-08-2015,23:58,METAR,Normal,150,11.0,,,9999.0,Distant Lightning,20.9,15.5,29.87,1011.9,12,,,,,,,,,,,,,,Clear,72000.0,,,,,,,,,
KRDR,07-08-2015,22:58,METAR,Normal,170,10.0,,,9999.0,,23.1,15.7,29.87,1011.8,,,,,,,,,,,,,,,Clear,72000.0,,,,,,,,,
KRDR,07-08-2015,21:58,METAR,Normal,180,9.0,,,9999.0,,23.2,15.6,29.88,1012.2,,,,,,,,,,,,,,,Clear,72000.0,,,,,,,,,
KRDR,07-08-2015,20:58,METAR,Normal,180,8.0,,,9999.0,,22.6,15.7,29.89,1012.5,,,,,,,,,,,,,,,Clear,72000.0,,,,,,,,,
KRDR,07-08-2015,19:58,METAR,Variable,,6.0,,,9999.0,,22.7,15.4,29.91,1013.2,,,,,,,,,,,,,,,2/8 Mostly Clear,72000.0,3100.0,FEW,3100.0,,,,,,
KRDR,07-08-2015,18:58,METAR,Normal,200,5.0,,,9999.0,,21.3,15.2,29.92,1013.6,,,,,,,,,,,,,,,,3300.0,2400.0,SCT,2400.0,BKN,3300.0,,,,
KRDR,07-08-2015,17:58,METAR,Normal,200,9.0,,,9999.0,,20.5,15.0,29.93,1013.9,,,,,,,,,,,,,.01 IN,,,2300.0,2300.0,OVC,2300.0,,,,,,
KRDR,07-08-2015,16:58,METAR,Normal,200,9.0,,,9999.0,,19.9,14.6,29.94,1014.4,,,,,,,,,,,,,,,,2000.0,2000.0,BKN,2000.0,,,,,,
KRDR,07-08-2015,16:53,SPECI,Normal,190,12.0,,,9999.0,,20.0,14.0,29.94,,,,,,,,,,,,,,,,,2000.0,2000.0,OVC,2000.0,,,,,,
KRDR,07-08-2015,16:33,SPECI,Normal,190,10.0,,,9999.0,,20.0,14.0,29.94,,,,,,,,,,,,,,,,,1800.0,1800.0,BKN,1800.0,,,,,,
KRDR,07-08-2015,16:28,SPECI,Normal,200,10.0,,,9999.0,,20.0,14.0,29.94,,,,,,,,,,,,,,,,4/8 Partly Cloudy,72000.0,1800.0,SCT,1800.0,,,,,,
KRDR,07-08-2015,16:08,SPECI,Normal,200,11.0,,,9999.0,,19.0,14.0,29.94,,,,,,,,,,,,,,,,,1700.0,1700.0,BKN,1700.0,BKN,12000.0,,,,
KRDR,07-08-2015,15:58,METAR,Normal,210,10.0,,,9999.0,,18.6,14.1,29.95,1014.7,,,,,,,,,,,,,,,4/8 Partly Cloudy,72000.0,1800.0,FEW,1800.0,SCT,12000.0,,,,
KRDR,07-08-2015,14:58,METAR,Normal,200,12.0,,,9999.0,,17.6,13.9,29.95,1014.7,,,,,,,,,,,,.01 IN,,,Clear,72000.0,,,,,,,,,
KRDR,07-08-2015,13:58,METAR,Normal,210,5.0,,,9999.0,,14.9,13.1,29.97,1015.4,,,,,,,,,,,TRACE,,,,,3900.0,3900.0,OVC,3900.0,,,,,,
KRDR,07-08-2015,13:30,SPECI,Normal,220,6.0,,,9999.0,,15.0,13.0,29.97,,,,,,,,,,,,,,,,,4000.0,4000.0,OVC,4000.0,,,,,,
KRDR,07-08-2015,13:21,SPECI,Normal,210,7.0,,,9999.0,Light Rain,15.0,13.0,29.97,,61,,,,,,,,,,,,,,,4000.0,4000.0,OVC,4000.0,,,,,,
KRDR,07-08-2015,13:09,SPECI,Normal,220,7.0,,,9999.0,,14.0,13.0,29.97,,,,,,,,,,,,,,,,,4000.0,4000.0,BKN,4000.0,,,,,,
KRDR,07-08-2015,12:58,METAR,Normal,210,7.0,,,9999.0,Light Rain,14.5,12.5,29.96,1015.0,61,,,,,,,,,,.01 IN,,,,,4200.0,4200.0,OVC,4200.0,,,,,,
KRDR,07-08-2015,12:51,SPECI,Normal,200,7.0,,,9999.0,Light Drizzle,15.0,13.0,29.96,,51,,,,,,,,,,,,,,,4300.0,4300.0,BKN,4300.0,,,,,,
KRDR,07-08-2015,12:36,SPECI,Normal,200,7.0,,,9999.0,,15.0,13.0,29.96,,,,,,,,,,,,,,,,,4700.0,4700.0,OVC,4700.0,,,,,,
KRDR,07-08-2015,12:23,SPECI,Normal,220,5.0,,,9999.0,Light Rain,15.0,13.0,29.96,,61,,,,,,,,,,,,,,,4800.0,4800.0,OVC,4800.0,,,,,,
KRDR,07-08-2015,12:18,SPECI,Normal,210,7.0,,,9999.0,,15.0,13.0,29.96,,,,,,,,,,,,,,,,,4800.0,4800.0,OVC,4800.0,,,,,,
KRDR,07-08-2015,11:58,METAR,Normal,210,7.0,,,9999.0,Light Rain,14.7,13.4,29.95,1014.6,61,,,,,,,,,,.01 IN,,.08 IN,.08 IN,,4500.0,4600.0,BKN,4600.0,OVC,6000.0,,,,
KRDR,07-08-2015,11:41,SPECI,Normal,200,7.0,,,9999.0,Light Drizzle,15.0,14.0,29.94,,51,,,,,,,,,,,,,,,7000.0,4700.0,SCT,4700.0,OVC,7000.0,,,,
KRDR,07-08-2015,11:23,SPECI,Normal,200,7.0,,,9999.0,,14.0,14.0,29.94,,,,,,,,,,,,,,,,,5500.0,5500.0,BKN,5500.0,BKN,7000.0,BKN,8000.0,,
KRDR,07-08-2015,11:03,SPECI,Normal,190,7.0,,,9999.0,Light Rain,14.0,13.0,29.95,,61,,,,,,,,,,,,,,,7000.0,5500.0,SCT,5500.0,BKN,7000.0,,,,
KRDR,07-08-2015,10:58,METAR,Normal,180,7.0,,,9999.0,Light Rain,14.0,13.1,29.95,1014.6,61,,,,,,,,,,.06 IN,,,,,7000.0,5500.0,FEW,5500.0,BKN,7000.0,,,,
KRDR,07-08-2015,10:38,SPECI,Normal,170,8.0,,,9999.0,Light Rain,14.0,13.0,29.94,,61,,,,,,,,,,,,,,,6000.0,6000.0,OVC,6000.0,,,,,,
KRDR,07-08-2015,10:23,SPECI,Normal,210,6.0,,,9999.0,Light Rain,14.0,13.0,29.95,,61,,,,,,,,,,,,,,,4200.0,4200.0,BKN,4200.0,,,,,,
KRDR,07-08-2015,09:58,METAR,Normal,220,4.0,,,9999.0,Light Rain,14.5,11.8,29.96,1014.9,61,,,,,,,,,,.01 IN,,,,,4100.0,4100.0,BKN,4100.0,,,,,,
KRDR,07-08-2015,09:50,SPECI,Normal,220,6.0,,,9999.0,Light Rain,15.0,12.0,29.96,,61,,,,,,,,,,,,,,4/8 Partly Cloudy,72000.0,4500.0,SCT,4500.0,,,,,,
KRDR,07-08-2015,09:45,SPECI,Normal,210,5.0,,,9999.0,Light Rain,15.0,11.0,29.96,,61,,,,,,,,,,,,,,2/8 Mostly Clear,72000.0,4000.0,FEW,4000.0,,,,,,
KRDR,07-08-2015,08:58,METAR,Normal,210,7.0,,,9999.0,,14.9,10.1,29.97,1015.3,,,,,,,,,,,,,,,2/8 Mostly Clear,72000.0,9500.0,FEW,9600.0,,,,,,
KRDR,07-08-2015,07:58,METAR,Normal,190,7.0,,,9999.0,,15.0,9.7,29.96,1014.9,,,,,,,,,,,,,,,Clear,72000.0,,,,,,,,,
KRDR,07-08-2015,06:58,METAR,Normal,200,7.0,,,9999.0,,14.7,9.3,29.96,1014.9,,,,,,,,,,,,,,,Clear,72000.0,,,,,,,,,
KRDR,07-08-2015,05:58,METAR,Normal,190,7.0,,,9999.0,,13.8,9.4,29.98,1015.7,,,,,,,,,,,,,,,Clear,72000.0,,,,,,,,,
KRDR,07-08-2015,04:58,METAR,Normal,200,6.0,,,9999.0,,13.3,8.6,30.00,1016.4,,,,,,,,,,,,,,,Clear,72000.0,,,,,,,,,
KRDR,07-08-2015,03:58,METAR,Normal,200,5.0,,,9999.0,,14.0,8.5,30.01,1016.7,,,,,,,,,,,,,,,Clear,72000.0,,,,,,,,,
KRDR,07-08-2015,02:58,METAR,Normal,170,6.0,,,9999.0,,14.8,8.3,30.00,1016.4,,,,,,,,,,,,,,,Clear,72000.0,,,,,,,,,
KRDR,07-08-2015,01:58,METAR,Normal,200,7.0,,,9999.0,,18.0,9.3,30.00,1016.4,,,,,,,,,,,,,,,Clear,72000.0,,,,,,,,,
KRDR,07-08-2015,00:58,METAR,Normal,210,7.0,,,9999.0,,21.2,9.3,30.02,1017.1,,,,,,,,,,,,,,,Clear,72000.0,,,,,,,,,
KRDR,07-07-2015,23:58,METAR,Normal,210,10.0,,,9999.0,,22.3,7.9,30.03,1017.5,,,,,,,,,,,,,,,Clear,72000.0,,,,,,,,,
KRDR,07-07-2015,22:58,METAR,Normal,200,9.0,,,9999.0,,22.8,7.4,30.05,1018.2,,,,,,,,,,,,,,,Clear,72000.0,,,,,,,,,
KRDR,07-07-2015,21:58,METAR,Normal,200,9.0,,,9999.0,,22.8,7.5,30.08,1019.2,,,,,,,,,,,,,,,Clear,72000.0,,,,,,,,,
KRDR,07-07-2015,20:58,METAR,Normal,200,9.0,,,9999.0,,22.4,7.9,30.09,1019.6,,,,,,,,,,,,,,,Clear,72000.0,,,,,,,,,
KRDR,07-07-2015,19:58,METAR,Normal,220,8.0,,,9999.0,,22.1,7.6,30.10,1019.9,,,,,,,,,,,,,,,Clear,72000.0,,,,,,,,,
KRDR,07-07-2015,18:58,METAR,Normal,240,5.0,,,9999.0,,21.5,7.8,30.13,1020.9,,,,,,,,,,,,,,,Clear,72000.0,,,,,,,,,
KRDR,07-07-2015,17:58,METAR,Normal,260,5.0,,,9999.0,,20.4,8.4,30.14,1021.4,,,,,,,,,,,,,,,Clear,72000.0,,,,,,,,,
KRDR,07-07-2015,16:58,METAR,Variable,,3.0,,,9999.0,,20.0,7.5,30.16,1022.0,,,,,,,,,,,,,,,Clear,72000.0,,,,,,,,,
KRDR,07-07-2015,15:58,METAR,Normal,260,3.0,,,9999.0,,19.3,8.4,30.17,1022.4,,,,,,,,,,,,,,,Clear,72000.0,,,,,,,,,
KRDR,07-07-2015,14:58,METAR,Normal,260,6.0,,,9999.0,,18.1,9.8,30.18,1022.7,,,,,,,,,,,,,,,Clear,72000.0,,,,,,,,,
KRDR,07-07-2015,13:58,METAR,Normal,270,7.0,,,9999.0,,16.1,9.8,30.19,1023.0,,,,,,,,,,,,,,,Clear,72000.0,,,,,,,,,
KRDR,07-07-2015,12:58,METAR,Normal,260,6.0,,,9999.0,,13.3,10.0,30.19,1023.0,,,,,,,,,,,,,,,Clear,72000.0,,,,,,,,,
KRDR,07-07-2015,11:58,METAR,Normal,260,4.0,,,9999.0,,9.7,8.0,30.18,1022.7,,,,,,,,,,,,,,,Clear,72000.0,,,,,,,,,
KRDR,07-07-2015,10:58,METAR,Normal,280,3.0,,,9999.0,,6.1,5.2,30.17,1022.5,,,,,,,,,,,,,,,Clear,72000.0,,,,,,,,,
KRDR,07-07-2015,09:58,METAR,Normal,250,4.0,,,9999.0,,6.8,5.7,30.17,1022.4,,,,,,,,,,,,,,,Clear,72000.0,,,,,,,,,
KRDR,07-07-2015,08:58,METAR,Normal,270,3.0,,,9999.0,,6.9,6.0,30.17,1022.5,,,,,,,,,,,,,,,Clear,72000.0,,,,,,,,,
KRDR,07-07-2015,07:58,METAR,Normal,270,3.0,,,9999.0,,6.9,6.0,30.17,1022.4,,,,,,,,,,,,,,,Clear,72000.0,,,,,,,,,
KRDR,07-07-2015,06:58,METAR,Normal,270,3.0,,,9999.0,,7.9,6.8,30.17,1022.5,,,,,,,,,,,,,,,Clear,72000.0,,,,,,,,,
KRDR,07-07-2015,05:58,METAR,Normal,280,3.0,,,9999.0,,7.8,6.8,30.17,1022.4,,,,,,,,,,,,,,,Clear,72000.0,,,,,,,,,
KRDR,07-07-2015,04:58,METAR,Normal,270,4.0,,,9999.0,,8.4,7.6,30.16,1022.1,,,,,,,,,,,,,,,Clear,72000.0,,,,,,,,,
KRDR,07-07-2015,03:58,METAR,Normal,330,2.0,,,9999.0,,9.5,8.1,30.14,1021.4,,,,,,,,,,,,,,,Clear,72000.0,,,,,,,,,
KRDR,07-07-2015,02:58,METAR,Normal,10,4.0,,,9999.0,,11.6,8.1,30.14,1021.4,,,,,,,,,,,,,,,Clear,72000.0,,,,,,,,,
KRDR,07-07-2015,01:58,METAR,Normal,20,5.0,,,9999.0,,14.4,9.1,30.13,1021.0,,,,,,,,,,,,,,,Clear,72000.0,,,,,,,,,
KRDR,07-07-2015,00:58,METAR,Normal,30,11.0,,,9999.0,,16.7,8.3,30.13,1020.9,,,,,,,,,,,,,,,2/8 Mostly Clear,72000.0,4200.0,FEW,4200.0,,,,,,
KRDR,07-06-2015,23:58,METAR,Normal,30,12.0,,,9999.0,,17.6,8.2,30.13,1020.9,,,,,,,,,,,,,,,Clear,72000.0,,,,,,,,,
KRDR,07-06-2015,22:58,METAR,Normal,20,13.0,19.0,,9999.0,,17.8,8.4,30.12,1020.5,,,,,,,,,,,,,,,4/8 Partly Cloudy,72000.0,4600.0,FEW,4600.0,SCT,6500.0,,,,
KRDR,07-06-2015,21:58,METAR,Normal,10,12.0,18.0,,9999.0,,18.3,8.8,30.11,1020.2,,,,,,,,,,,,,,,4/8 Partly Cloudy,72000.0,6500.0,SCT,6500.0,,,,,,
KRDR,07-06-2015,20:58,METAR,Normal,30,11.0,,,9999.0,,17.6,10.4,30.11,1020.2,,,,,,,,,,,,,,,,4500.0,3600.0,SCT,3600.0,BKN,4500.0,BKN,6000.0,,
KRDR,07-06-2015,19:58,METAR,Normal,20,11.0,,,9999.0,,17.4,9.9,30.11,1020.1,,,,,,,,,,,,,,,,5000.0,3000.0,SCT,3000.0,SCT,3900.0,BKN,6000.0,,
KRDR,07-06-2015,18:58,METAR,Normal,10,10.0,,,9999.0,,16.4,9.3,30.12,1020.5,,,,,,,,,,,,,,,,3500.0,3400.0,SCT,3400.0,BKN,6000.0,,,,
KRDR,07-06-2015,17:58,METAR,Normal,360,10.0,17.0,,9999.0,,16.8,9.3,30.11,1020.1,,,,,,,,,,,,,,,,6000.0,4700.0,SCT,4700.0,BKN,6000.0,,,,
KRDR,07-06-2015,16:58,METAR,Normal,20,15.0,,,9999.0,,16.8,8.9,30.11,1020.1,,,,,,,,,,,,,,,Clear,72000.0,,,,,,,,,
KRDR,07-06-2015,15:58,METAR,Normal,360,12.0,,,9999.0,,16.3,8.6,30.10,1019.8,,,,,,,,,,,,,,,2/8 Mostly Clear,72000.0,5500.0,FEW,5500.0,,,,,,
KRDR,07-06-2015,14:58,METAR,Normal,30,14.0,,,9999.0,,15.2,8.0,30.10,1019.8,,,,,,,,,,,,,,,Clear,72000.0,,,,,,,,,
KRDR,07-06-2015,13:58,METAR,Normal,20,8.0,,,9999.0,,13.3,9.1,30.09,1019.5,,,,,,,,,,,,,,,Clear,72000.0,,,,,,,,,
KRDR,07-06-2015,12:58,METAR,Normal,20,14.0,,,9999.0,,13.4,8.6,30.06,1018.4,,,,,,,,,,,,,,,Clear,72000.0,,,,,,,,,
KRDR,07-06-2015,11:58,METAR,Normal,10,10.0,,,9999.0,,12.6,9.3,30.05,1018.0,,,,,,,,,,,,,,.54 IN,2/8 Mostly Clear,72000.0,6000.0,FEW,6000.0,,,,,,
KRDR,07-06-2015,10:58,METAR,Normal,10,10.0,,,9999.0,,13.0,9.5,30.02,1017.0,,,,,,,,,,,,,,,Clear,72000.0,,,,,,,,,
KRDR,07-06-2015,09:58,METAR,Normal,20,10.0,,,9999.0,,14.5,11.0,30.00,1016.3,,,,,,,,,,,,,,,,5000.0,5000.0,BKN,5000.0,,,,,,
KRDR,07-06-2015,09:43,SPECI,Normal,20,12.0,18.0,,9999.0,,15.0,11.0,30.00,,,,,,,,,,,,,,,,,5000.0,5000.0,BKN,5000.0,,,,,,
KRDR,07-06-2015,09:28,SPECI,Normal,20,9.0,,,9999.0,,15.0,13.0,30.00,,,,,,,,,,,,,,,,4/8 Partly Cloudy,72000.0,4900.0,SCT,4900.0,,,,,,
KRDR,07-06-2015,08:58,METAR,Normal,20,11.0,,,8000.0,Mist,15.2,13.4,29.99,1015.9,10,,,,,,,,,,,,,,Clear,4900.0,,,,,,,,,
KRDR,07-06-2015,08:33,SPECI,Normal,30,10.0,,,8000.0,Mist,15.0,13.0,29.99,,10,,,,,,,,,,,,,,4/8 Partly Cloudy,72000.0,5000.0,SCT,5000.0,,,,,,
KRDR,07-06-2015,07:58,METAR,Normal,20,11.0,19.0,,8000.0,Haze Smoke or Dust,15.7,13.4,29.96,1014.9,05,,,,,,,,,,,,,,Clear,72000.0,,,,,,,,,
KRDR,07-06-2015,06:58,METAR,Normal,20,14.0,18.0,,8000.0,Haze Smoke or Dust,17.3,14.3,29.91,1013.2,05,,,,,,,,,,,,,,Clear,72000.0,,,,,,,,,
KRDR,07-06-2015,05:58,METAR,Normal,340,6.0,,,8000.0,Mist,16.8,14.9,29.91,1013.3,10,,,,,,,,,,,,,,Clear,72000.0,,,,,,,,,
KRDR,07-06-2015,04:58,METAR,Normal,320,4.0,,,8000.0,Mist,17.4,15.8,29.91,1013.3,10,,,,,,,,,,,,,,Clear,72000.0,,,,,,,,,
KRDR,07-06-2015,04:23,SPECI,Normal,320,4.0,,,8000.0,Mist,18.0,16.0,29.89,,10,,,,,,,,,,,,,,Clear,72000.0,,,,,,,,,
KRDR,07-06-2015,03:58,METAR,Normal,320,3.0,,,8000.0,Haze Smoke or Dust,18.3,16.0,29.89,1012.4,05,,,,,,,,,,,,,,Clear,72000.0,,,,,,,,,
KRDR,07-06-2015,02:58,METAR,Normal,340,6.0,,,9999.0,Haze Smoke or Dust,18.5,15.7,29.87,1011.7,05,,,,,,,,,,,,,,Clear,72000.0,,,,,,,,,
KRDR,07-06-2015,02:48,SPECI,Normal,350,6.0,,,9999.0,Haze Smoke or Dust,19.0,16.0,29.86,,05,,,,,,,,,,,,,,Clear,72000.0,,,,,,,,,
KRDR,07-06-2015,01:58,METAR,Normal,360,6.0,,,8000.0,Haze Smoke or Dust,19.7,15.6,29.86,1011.3,05,,,,,,,,,,,,,,Clear,72000.0,,,,,,,,,
KRDR,07-06-2015,00:58,METAR,Normal,10,6.0,,,9999.0,,21.9,18.7,29.85,1011.0,,,,,,,,,,,,,,,Clear,72000.0,,,,,,,,,
KRDR,07-05-2015,23:58,METAR,Normal,360,8.0,,,9999.0,,22.7,18.5,29.83,1010.3,,,,,,,,,,,,,.09 IN,,Clear,72000.0,,,,,,,,,
KRDR,07-05-2015,22:58,METAR,Normal,360,11.0,,,9999.0,,24.0,18.9,29.81,1009.6,,,,,,,,,,,,,,,4/8 Partly Cloudy,72000.0,2200.0,SCT,2200.0,,,,,,
KRDR,07-05-2015,21:58,METAR,Normal,350,8.0,,,9999.0,,23.0,19.0,29.81,1009.7,,,,,,,,,,,,,,,,2200.0,1400.0,FEW,1400.0,BKN,2200.0,OVC,4100.0,,
KRDR,07-05-2015,21:48,SPECI,Normal,350,10.0,,,9999.0,,23.0,19.0,29.81,,,,,,,,,,,,,,,,,1400.0,1400.0,SCT,1400.0,BKN,2100.0,OVC,4100.0,,
KRDR,07-05-2015,21:38,SPECI,Normal,350,12.0,,,9999.0,,23.0,20.0,29.80,,,,,,,,,,,,,,,,,1400.0,1400.0,BKN,1400.0,BKN,4000.0,,,,
KRDR,07-05-2015,20:58,METAR,Normal,360,7.0,,,9999.0,,22.5,19.6,29.79,1009.0,,,,,,,,,,,,.09 IN,,,,1200.0,1300.0,SCT,1300.0,BKN,2200.0,OVC,2800.0,,
KRDR,07-05-2015,20:38,SPECI,Normal,340,8.0,,,9999.0,,22.0,20.0,29.79,,,,,,,,,,,,,,,,,1200.0,1200.0,OVC,1200.0,,,,,,
KRDR,07-05-2015,20:28,SPECI,Normal,360,7.0,,,9999.0,,22.0,19.0,29.78,,,,,,,,,,,,,,,,,800.0,1000.0,OVC,1000.0,,,,,,
KRDR,07-05-2015,20:18,SPECI,Normal,300,4.0,,,9999.0,,22.0,19.0,29.78,,,,,,,,,,,,,,,,,800.0,800.0,OVC,800.0,,,,,,
KRDR,07-05-2015,19:58,METAR,Normal,330,6.0,,,9999.0,,20.4,19.0,29.77,1008.4,,,,,,,,,,,TRACE,,,,,700.0,700.0,OVC,700.0,,,,,,
KRDR,07-05-2015,19:11,SPECI,Normal,340,6.0,,,9999.0,,20.0,19.0,29.76,,,,,,,,,,,,,,,,,700.0,700.0,BKN,700.0,BKN,8000.0,,,,
KRDR,07-05-2015,19:08,SPECI,Normal,350,7.0,,,9999.0,Light Drizzle,20.0,19.0,29.76,,51,,,,,,,,,,,,,,,700.0,700.0,BKN,700.0,BKN,1100.0,,,,
KRDR,07-05-2015,18:58,METAR,Normal,320,5.0,,,9999.0,Light Rain/Distant Lightning,19.7,18.9,29.76,1008.0,61,12,,,,,,,,,.09 IN,,,,,600.0,700.0,FEW,700.0,BKN,1600.0,BKN,7000.0,,
KRDR,07-05-2015,18:54,SPECI,Normal,300,3.0,,,9999.0,Light Drizzle/Distant Lightning,20.0,19.0,29.76,,51,12,,,,,,,,,,,,,,2200.0,700.0,FEW,700.0,SCT,1600.0,BKN,7000.0,,
KRDR,07-05-2015,18:44,SPECI,Normal,340,2.0,,,2800.0,Light Rain/Mist,20.0,19.0,29.75,,61,10,,,,,,,,,,,,,,7000.0,700.0,FEW,700.0,SCT,2300.0,BKN,7000.0,,
KRDR,07-05-2015,18:39,SPECI,Normal,290,4.0,,,9999.0,Light Rain,19.0,19.0,29.76,,61,,,,,,,,,,,,,,,7000.0,700.0,FEW,700.0,SCT,5000.0,BKN,7000.0,,
KRDR,07-05-2015,18:27,SPECI,Variable,,1.0,,,9999.0,Light Drizzle,19.0,19.0,29.73,,51,,,,,,,,,,,,,,4/8 Partly Cloudy,72000.0,4800.0,FEW,4800.0,SCT,7000.0,,,,
KRDR,07-05-2015,18:25,SPECI,Normal,140,2.0,,,9999.0,,19.0,19.0,29.73,,,,,,,,,,,,,,,,2/8 Mostly Clear,72000.0,4800.0,FEW,4800.0,,,,,,
KRDR,07-05-2015,17:58,METAR,Normal,90,7.0,,,9999.0,Light Rain,19.0,18.3,29.72,1006.6,61,,,,,,,,,,.09 IN,,.45 IN,,,4900.0,4900.0,BKN,4900.0,,,,,,
KRDR,07-05-2015,17:20,SPECI,Normal,70,7.0,,,8000.0,Rain/Mist,19.0,19.0,29.77,,62,10,,,,,,,,,,,,,,7000.0,7000.0,OVC,7000.0,,,,,,
KRDR,07-05-2015,17:03,SPECI,Calm,,0.0,,,8000.0,Thunderstorm and Rain or Snow Showers/Mist,19.0,18.0,29.81,,92,10,,,,,,,,,,,,,,4900.0,4900.0,OVC,4900.0,,,,,,
KRDR,07-05-2015,16:58,METAR,Normal,20,1.0,,240/28KTS,4000.0,Thunderstorm and Rain or Snow Showers/Mist,19.3,18.5,29.81,1009.6,92,10,,,,,,,,,.36 IN,,,,,4200.0,4200.0,OVC,4200.0,,,,,,
KRDR,07-05-2015,16:56,SPECI,Normal,10,2.0,,,4000.0,Thunderstorm and Rain or Snow Showers/Mist,19.0,18.0,29.81,,92,10,,,,,,,,,,,,,,4000.0,4000.0,OVC,4000.0,,,,,,
KRDR,07-05-2015,16:51,SPECI,Normal,20,3.0,,,2800.0,Heavy Thunderstorm and Rain or Snow Showers/Mist,19.0,19.0,29.82,,95,10,,,,,,,,,,,,,,2900.0,2900.0,OVC,2900.0,,,,,,
KRDR,07-05-2015,16:41,SPECI,Normal,330,10.0,22.0,,4000.0,Heavy Thunderstorm and Rain or Snow Showers/Mist,20.0,19.0,29.82,,95,10,,,,,,,,,,,,,,2100.0,2800.0,OVC,2800.0,,,,,,
KRDR,07-05-2015,16:36,SPECI,Normal,310,9.0,22.0,,2800.0,Thunderstorm and Rain or Snow Showers/Mist,21.0,19.0,29.83,,92,10,,,,,,,,,,,,,,3100.0,2600.0,SCT,2600.0,OVC,3100.0,,,,
KRDR,07-05-2015,16:31,SPECI,Normal,280,16.0,22.0,,1200.0,Thunderstorm and Rain or Snow Showers/Mist,22.0,20.0,29.81,,92,10,,,,,,,,,,,,,,2000.0,2400.0,OVC,2400.0,,,,,,
KRDR,07-05-2015,16:30,SPECI,Normal,270,15.0,20.0,,1200.0,Heavy Rain/Distant Lightning/Mist,22.0,20.0,29.81,,63,10,12,,,,,,,,,,,,,2000.0,2100.0,BKN,2100.0,OVC,2700.0,,,,
KRDR,07-05-2015,16:25,SPECI,Normal,280,11.0,19.0,,2000.0,Rain/Mist,22.0,21.0,29.81,,62,10,,,,,,,,,,,,,,2700.0,2100.0,SCT,2100.0,OVC,2700.0,,,,
KRDR,07-05-2015,16:24,SPECI,Normal,280,12.0,19.0,,2000.0,Rain/Mist,22.0,21.0,29.81,,62,10,,,,,,,,,,,,,,2700.0,2100.0,SCT,2100.0,OVC,2700.0,,,,
KRDR,07-05-2015,16:19,SPECI,Normal,240,10.0,,,9999.0,Light Rain,23.0,20.0,29.76,,61,,,,,,,,,,,,,,,2500.0,2500.0,OVC,2500.0,,,,,,
KRDR,07-05-2015,15:58,METAR,Normal,200,5.0,,,9999.0,,22.7,20.1,29.73,1006.8,,,,,,,,,,,,,,,,2100.0,2100.0,BKN,2100.0,BKN,2600.0,OVC,4100.0,,
KRDR,07-05-2015,14:58,METAR,Normal,190,8.0,,,9999.0,,22.7,20.1,29.74,1007.1,,,,,,,,,,,,,,,,4800.0,4800.0,BKN,4800.0,,,,,,
KRDR,07-05-2015,13:58,METAR,Normal,180,11.0,,,9999.0,,22.8,20.1,29.70,1005.7,,,,,,,,,,,,,,,Clear,72000.0,,,,,,,,,
KRDR,07-05-2015,12:58,METAR,Normal,170,9.0,,,9999.0,,20.4,19.2,29.75,1007.5,,,,,,,,,,,,,,,2/8 Mostly Clear,72000.0,700.0,FEW,700.0,,,,,,
KRDR,07-05-2015,12:16,SPECI,Normal,170,12.0,21.0,,9999.0,,20.0,19.0,29.75,,,,,,,,,,,,,,,,2/8 Mostly Clear,72000.0,700.0,FEW,700.0,,,,,,
KRDR,07-05-2015,11:58,METAR,Normal,170,14.0,,,9999.0,,20.5,19.0,29.75,1007.4,,,,,,,,,,,,,.38 IN,.38 IN,Clear,72000.0,,,,,,,,,
KRDR,07-05-2015,10:58,METAR,Normal,150,13.0,,,9999.0,,19.5,18.6,29.75,1007.4,,,,,,,,,,,,,,,,12000.0,12000.0,BKN,12000.0,,,,,,
KRDR,07-05-2015,09:58,METAR,Normal,150,7.0,,,9999.0,,19.5,18.6,29.75,1007.4,,,,,,,,,,,,,,,2/8 Mostly Clear,72000.0,3400.0,FEW,3400.0,,,,,,
KRDR,07-05-2015,08:58,METAR,Normal,160,9.0,,,9999.0,,19.5,18.3,29.76,1007.8,,,,,,,,,,,,.38 IN,,,,3400.0,3400.0,OVC,3400.0,,,,,,
KRDR,07-05-2015,07:58,METAR,Normal,100,11.0,,,9999.0,,19.8,18.8,29.76,1007.8,,,,,,,,,,,TRACE,,,,,4900.0,4900.0,BKN,4900.0,BKN,6000.0,,,,
KRDR,07-05-2015,07:01,SPECI,Normal,220,3.0,,,9999.0,Distant Lightning,19.0,18.0,29.75,,12,,,,,,,,,,,,,,2/8 Mostly Clear,72000.0,6000.0,FEW,6000.0,,,,,,
KRDR,07-05-2015,06:58,METAR,Variable,,1.0,,290/34KTS,9999.0,Light Drizzle/Distant Lightning,18.7,17.7,29.75,1007.5,51,12,,,,,,,,,.38 IN,,,,4/8 Partly Cloudy,72000.0,5500.0,SCT,5500.0,,,,,,
KRDR,07-05-2015,06:47,SPECI,Normal,220,9.0,,,9999.0,Light Rain/Distant Lightning,19.0,18.0,29.76,,61,12,,,,,,,,,,,,,,5000.0,5000.0,BKN,5000.0,,,,,,
KRDR,07-05-2015,06:42,SPECI,Variable,,3.0,,,9999.0,Thunderstorm and Rain or Snow Showers,19.0,18.0,29.76,,92,,,,,,,,,,,,,,,5000.0,5000.0,BKN,5000.0,,,,,,
KRDR,07-05-2015,06:37,SPECI,Variable,,2.0,,,9999.0,Thunderstorm and Rain or Snow Showers/Mist,19.0,18.0,29.76,,92,10,,,,,,,,,,,,,,5000.0,5000.0,OVC,5000.0,,,,,,
KRDR,07-05-2015,06:32,SPECI,Normal,300,4.0,,,6400.0,Thunderstorm and Rain or Snow Showers/Mist,19.0,18.0,29.77,,92,10,,,,,,,,,,,,,,4300.0,4300.0,OVC,4300.0,,,,,,
KRDR,07-05-2015,06:27,SPECI,Normal,320,9.0,,,4800.0,Thunderstorm and Rain or Snow Showers/Mist,19.0,18.0,29.78,,92,10,,,,,,,,,,,,,,4100.0,4100.0,OVC,4100.0,,,,,,
KRDR,07-05-2015,06:22,SPECI,Normal,270,7.0,20.0,,3200.0,Heavy Thunderstorm and Rain or Snow Showers/Mist,19.0,18.0,29.78,,95,10,,,,,,,,,,,,,,3600.0,3600.0,OVC,3600.0,,,,,,
KRDR,07-05-2015,06:17,SPECI,Normal,270,15.0,20.0,,2000.0,Heavy Thunderstorm and Rain or Snow Showers/Mist,20.0,19.0,29.78,,95,10,,,,,,,,,,,,,,3100.0,3100.0,BKN,3100.0,OVC,3800.0,,,,
KRDR,07-05-2015,06:14,SPECI,Normal,260,16.0,21.0,,2400.0,Heavy Rain/Distant Lightning/Mist,20.0,19.0,29.79,,63,10,12,,,,,,,,,,,,,2700.0,2900.0,BKN,2900.0,OVC,3800.0,,,,
KRDR,07-05-2015,06:13,SPECI,Normal,260,15.0,21.0,,2400.0,Heavy Thunderstorm and Rain or Snow Showers/Mist,20.0,19.0,29.79,,95,10,,,,,,,,,,,,,,2700.0,2900.0,BKN,2900.0,BKN,3800.0,OVC,6000.0,,
KRDR,07-05-2015,06:09,SPECI,Normal,270,15.0,34.0,,2800.0,Heavy Thunderstorm and Rain or Snow Showers/Mist,21.0,19.0,29.80,,95,10,,,,,,,,,,,,,,2700.0,2700.0,BKN,2700.0,BKN,3800.0,OVC,6000.0,,
KRDR,07-05-2015,06:04,SPECI,Normal,300,13.0,36.0,,6400.0,Thunderstorm and Rain or Snow Showers,21.0,18.0,29.79,,92,,,,,,,,,,,,,,,3100.0,2500.0,SCT,2500.0,BKN,3700.0,BKN,6000.0,,
KRDR,07-05-2015,05:59,SPECI,Normal,290,27.0,36.0,,9999.0,Thunderstorm and Rain or Snow Showers,21.0,19.0,29.77,,92,,,,,,,,,,,,,,,3700.0,2300.0,FEW,2300.0,SCT,3800.0,BKN,6000.0,,
KRDR,07-05-2015,05:58,METAR,Normal,290,27.0,34.0,250/36KTS,9999.0,Light Rain,22.4,19.6,29.76,1007.8,61,,,,,,,,,,TRACE,,TRACE,,,3700.0,1700.0,FEW,1700.0,SCT,3800.0,BKN,6000.0,,
KRDR,07-05-2015,05:52,SPECI,Normal,280,25.0,31.0,,9999.0,Light Rain/Distant Lightning,24.0,20.0,29.77,,61,12,,,,,,,,,,,,,4/8 Partly Cloudy,72000.0,1100.0,FEW,1100.0,SCT,3800.0,SCT,6000.0,,
KRDR,07-05-2015,05:47,SPECI,Normal,270,22.0,31.0,,9999.0,Light Rain/Distant Lightning,25.0,21.0,29.77,,61,12,,,,,,,,,,,,,2/8 Mostly Clear,72000.0,6000.0,FEW,6000.0,,,,,,
KRDR,07-05-2015,05:39,SPECI,Normal,230,9.0,,,9999.0,Light Rain/Distant Lightning,25.0,20.0,29.73,,61,12,,,,,,,,,,,,,Clear,72000.0,,,,,,,,,
KRDR,07-05-2015,04:58,METAR,Normal,200,8.0,,,9999.0,,24.6,20.0,29.71,1006.0,,,,,,,,,,,,,,,Clear,72000.0,,,,,,,,,
KRDR,07-05-2015,03:58,METAR,Normal,190,10.0,,,9999.0,,24.5,19.5,29.71,1006.1,,,,,,,,,,,,,,,Clear,72000.0,,,,,,,,,
KRDR,07-05-2015,02:58,METAR,Normal,170,9.0,,,9999.0,,24.8,19.9,29.73,1006.8,,,,,,,,,,,,,,,Clear,72000.0,,,,,,,,,
KRDR,07-05-2015,01:58,METAR,Normal,170,8.0,,,9999.0,,26.0,20.3,29.73,1006.8,,,,,,,,,,,,,,,Clear,72000.0,,,,,,,,,
KRDR,07-05-2015,00:58,METAR,Normal,200,8.0,,,9999.0,,26.9,20.1,29.72,1006.5,,,,,,,,,,,,,,,Clear,72000.0,,,,,,,,,
KRDR,07-04-2015,23:58,METAR,Normal,200,12.0,,,9999.0,,28.3,20.0,29.70,1005.8,,,,,,,,,,,,,,,Clear,72000.0,,,,,,,,,
KRDR,07-04-2015,22:58,METAR,Normal,190,12.0,19.0,,9999.0,,29.3,20.0,29.71,1006.2,,,,,,,,,,,,,,,Clear,72000.0,,,,,,,,,
KRDR,07-04-2015,21:58,METAR,Normal,190,14.0,,,9999.0,,29.4,19.7,29.75,1007.6,,,,,,,,,,,,,,,Clear,72000.0,,,,,,,,,
KRDR,07-04-2015,20:58,METAR,Normal,190,14.0,,,9999.0,,29.5,20.3,29.77,1008.2,,,,,,,,,,,,,,,Clear,72000.0,,,,,,,,,
KRDR,07-04-2015,19:58,METAR,Normal,190,11.0,21.0,,9999.0,,29.0,20.2,29.78,1008.6,,,,,,,,,,,,,,,Clear,72000.0,,,,,,,,,
KRDR,07-04-2015,18:58,METAR,Normal,170,13.0,,,9999.0,Haze Smoke or Dust,28.6,19.9,29.79,1009.0,05,,,,,,,,,,,,,,Clear,72000.0,,,,,,,,,
KRDR,07-04-2015,17:58,METAR,Normal,190,9.0,,,9999.0,Haze Smoke or Dust,27.8,20.0,29.81,1009.6,05,,,,,,,,,,,,,,Clear,72000.0,,,,,,,,,
KRDR,07-04-2015,16:58,METAR,Normal,200,9.0,,,8000.0,Haze Smoke or Dust,26.7,20.0,29.83,1010.3,05,,,,,,,,,,,,,,Clear,72000.0,,,,,,,,,
KRDR,07-04-2015,15:58,METAR,Normal,200,9.0,,,8000.0,Haze Smoke or Dust,25.1,19.4,29.84,1010.7,05,,,,,,,,,,,,,,Clear,72000.0,,,,,,,,,
KRDR,07-04-2015,14:58,METAR,Normal,200,8.0,,,8000.0,Haze Smoke or Dust,23.4,19.1,29.84,1010.7,05,,,,,,,,,,,,,,Clear,72000.0,,,,,,,,,
KRDR,07-04-2015,13:58,METAR,Normal,190,6.0,,,6400.0,Haze Smoke or Dust,21.4,18.0,29.86,1011.3,05,,,,,,,,,,,,,,Clear,72000.0,,,,,,,,,
KRDR,07-04-2015,12:58,METAR,Normal,180,5.0,,,6400.0,Mist,19.6,17.8,29.87,1011.7,10,,,,,,,,,,,,,,Clear,72000.0,,,,,,,,,
KRDR,07-04-2015,11:58,METAR,Normal,190,4.0,,,6400.0,Mist,17.3,15.7,29.87,1011.7,10,,,,,,,,,,,,,,Clear,72000.0,,,,,,,,,
KRDR,07-04-2015,10:58,METAR,Normal,190,5.0,,,6400.0,Mist,15.5,14.2,29.87,1011.7,10,,,,,,,,,,,,,,Clear,72000.0,,,,,,,,,
KRDR,07-04-2015,10:38,SPECI,Normal,190,5.0,,,8000.0,Mist,15.0,14.0,29.87,,10,,,,,,,,,,,,,,Clear,72000.0,,,,,,,,,
KRDR,07-04-2015,10:33,SPECI,Normal,190,5.0,,,8000.0,Mist,15.0,14.0,29.87,,10,,,,,,,,,,,,,,Clear,72000.0,,,,,,,,,
KRDR,07-04-2015,09:58,METAR,Normal,190,4.0,,,8000.0,Mist,15.2,14.3,29.88,1012.1,10,,,,,,,,,,,,,,Clear,72000.0,,,,,,,,,
KRDR,07-04-2015,09:23,SPECI,Normal,190,4.0,,,8000.0,Mist,15.0,14.0,29.88,,10,,,,,,,,,,,,,,Clear,72000.0,,,,,,,,,
KRDR,07-04-2015,08:58,METAR,Normal,180,5.0,,,9999.0,Mist,15.9,14.5,29.88,1012.0,10,,,,,,,,,,,,,,Clear,72000.0,,,,,,,,,
KRDR,07-04-2015,07:58,METAR,Normal,200,3.0,,,9999.0,Mist,15.7,15.1,29.89,1012.4,10,,,,,,,,,,,,,,Clear,72000.0,,,,,,,,,
KRDR,07-04-2015,07:48,SPECI,Normal,210,4.0,,,8000.0,Mist,15.0,15.0,29.89,,10,,,,,,,,,,,,,,Clear,72000.0,,,,,,,,,
KRDR,07-04-2015,07:28,SPECI,Normal,230,3.0,,,6400.0,Mist,16.0,15.0,29.89,,10,,,,,,,,,,,,,,Clear,72000.0,,,,,,,,,
KRDR,07-04-2015,06:58,METAR,Normal,200,2.0,,,3200.0,Mist,15.4,14.9,29.89,1012.4,10,,,,,,,,,,,,,,Clear,72000.0,,,,,,,,,
KRDR,07-04-2015,06:38,SPECI,Calm,,0.0,,,3200.0,Mist,15.0,15.0,29.90,,10,,,,,,,,,,,,,,Clear,72000.0,,,,,,,,,
KRDR,07-04-2015,06:33,SPECI,Calm,,0.0,,,4800.0,Mist,15.0,15.0,29.90,,10,,,,,,,,,,,,,,Clear,72000.0,,,,,,,,,
KRDR,07-04-2015,06:28,SPECI,Calm,,0.0,,,3200.0,Mist,15.0,15.0,29.90,,10,,,,,,,,,,,,,,Clear,72000.0,,,,,,,,,
KRDR,07-04-2015,06:03,SPECI,Calm,,0.0,,,2800.0,Mist,16.0,15.0,29.91,,10,,,,,,,,,,,,,,Clear,72000.0,,,,,,,,,
KRDR,07-04-2015,05:58,METAR,Calm,,0.0,,,4800.0,Mist,15.7,15.0,29.91,1013.1,10,,,,,,,,,,,,,,Clear,72000.0,,,,,,,,,
KRDR,07-04-2015,05:33,SPECI,Calm,,0.0,,,8000.0,Mist,16.0,16.0,29.90,,10,,,,,,,,,,,,,,Clear,72000.0,,,,,,,,,
KRDR,07-04-2015,04:58,METAR,Normal,190,3.0,,,9999.0,Mist,16.7,15.9,29.90,1012.7,10,,,,,,,,,,,,,,Clear,72000.0,,,,,,,,,
KRDR,07-04-2015,04:53,SPECI,Normal,200,2.0,,,8000.0,Mist,16.0,16.0,29.90,,10,,,,,,,,,,,,,,Clear,72000.0,,,,,,,,,
KRDR,07-04-2015,04:33,SPECI,Calm,,0.0,,,8000.0,Mist,17.0,16.0,29.90,,10,,,,,,,,,,,,,,Clear,72000.0,,,,,,,,,
KRDR,07-04-2015,03:58,METAR,Normal,220,1.0,,,9999.0,Mist,16.7,15.6,29.90,1012.7,10,,,,,,,,,,,,,,Clear,72000.0,,,,,,,,,
KRDR,07-04-2015,02:58,METAR,Calm,,0.0,,,9999.0,,18.4,16.4,29.90,1012.7,,,,,,,,,,,,,,,Clear,72000.0,,,,,,,,,
KRDR,07-04-2015,02:48,SPECI,Normal,130,2.0,,,9999.0,,19.0,16.0,29.90,,,,,,,,,,,,,,,,Clear,72000.0,,,,,,,,,
KRDR,07-04-2015,01:58,METAR,Normal,120,1.0,,,9999.0,Haze Smoke or Dust,21.8,16.9,29.89,1012.4,05,,,,,,,,,,,,,,Clear,72000.0,,,,,,,,,
KRDR,07-04-2015,00:58,METAR,Normal,90,4.0,,,9999.0,Haze Smoke or Dust,24.1,17.4,29.90,1012.7,05,,,,,,,,,,,,,,Clear,72000.0,,,,,,,,,
KRDR,07-03-2015,23:58,METAR,Normal,80,5.0,,,9999.0,Haze Smoke or Dust,25.2,17.0,29.91,1013.1,05,,,,,,,,,,,,,,Clear,72000.0,,,,,,,,,
KRDR,07-03-2015,22:58,METAR,Normal,50,6.0,,,9999.0,,26.2,15.1,29.91,1013.1,,,,,,,,,,,,,,,Clear,72000.0,,,,,,,,,
KRDR,07-03-2015,21:58,METAR,Normal,50,5.0,,,9999.0,,26.9,15.1,29.92,1013.4,,,,,,,,,,,,,,,Clear,72000.0,,,,,,,,,
KRDR,07-03-2015,20:58,METAR,Normal,30,4.0,,,9999.0,Haze Smoke or Dust,26.7,16.4,29.92,1013.4,05,,,,,,,,,,,,,,Clear,72000.0,,,,,,,,,
KRDR,07-03-2015,19:58,METAR,Normal,20,5.0,,,8000.0,Haze Smoke or Dust,26.5,17.2,29.92,1013.3,05,,,,,,,,,,,,,,Clear,72000.0,,,,,,,,,
KRDR,07-03-2015,18:58,METAR,Normal,10,6.0,,,6400.0,Haze Smoke or Dust,26.3,17.9,29.93,1013.7,05,,,,,,,,,,,,,,Clear,72000.0,,,,,,,,,
KRDR,07-03-2015,17:58,METAR,Normal,360,5.0,,,6400.0,Haze Smoke or Dust,26.0,18.3,29.94,1014.0,05,,,,,,,,,,,,,,Clear,72000.0,,,,,,,,,
KRDR,07-03-2015,16:58,METAR,Normal,350,5.0,,,6400.0,Haze Smoke or Dust,25.3,17.5,29.94,1014.1,05,,,,,,,,,,,,,,Clear,72000.0,,,,,,,,,
KRDR,07-03-2015,15:58,METAR,Normal,360,5.0,,,6400.0,Haze Smoke or Dust,24.5,17.6,29.94,1014.1,05,,,,,,,,,,,,,,Clear,72000.0,,,,,,,,,
KRDR,07-03-2015,15:33,SPECI,Normal,360,4.0,,,4800.0,Haze Smoke or Dust,24.0,18.0,29.94,,05,,,,,,,,,,,,,,Clear,72000.0,,,,,,,,,
KRDR,07-03-2015,14:58,METAR,Normal,320,3.0,,,4000.0,Haze Smoke or Dust,22.6,18.8,29.94,1014.1,05,,,,,,,,,,,,,,Clear,72000.0,,,,,,,,,
KRDR,07-03-2015,13:58,METAR,Variable,,4.0,,,3200.0,Haze Smoke or Dust,21.1,18.4,29.94,1014.1,05,,,,,,,,,,,,,,Clear,72000.0,,,,,,,,,
KRDR,07-03-2015,13:33,SPECI,Normal,310,4.0,,,3200.0,Mist,20.0,18.0,29.94,,10,,,,,,,,,,,,,,Clear,72000.0,,,,,,,,,
KRDR,07-03-2015,12:58,METAR,Normal,280,3.0,,,2400.0,Mist,19.4,18.0,29.94,1014.1,10,,,,,,,,,,,,,,Clear,72000.0,,,,,,,,,
KRDR,07-03-2015,12:18,SPECI,Normal,290,3.0,,,2400.0,Mist,18.0,17.0,29.94,,10,,,,,,,,,,,,,,Clear,72000.0,,,,,,,,,
KRDR,07-03-2015,12:03,SPECI,Normal,300,4.0,,,2400.0,Mist,17.0,17.0,29.93,,10,,,,,,,,,,,,,,Clear,72000.0,,,,,,,,,
KRDR,07-03-2015,11:58,METAR,Normal,300,4.0,,,2000.0,Mist,17.1,16.6,29.93,1013.8,10,,,,,,,,,,,,,,Clear,72000.0,,,,,,,,,
KRDR,07-03-2015,11:48,SPECI,Normal,300,5.0,,,2400.0,Mist,17.0,17.0,29.93,,10,,,,,,,,,,,,,,Clear,72000.0,,,,,,,,,
KRDR,07-03-2015,11:38,SPECI,Normal,310,4.0,,,2000.0,Mist,16.0,16.0,29.93,,10,,,,,,,,,,,,,,Clear,72000.0,,,,,,,,,
KRDR,07-03-2015,11:28,SPECI,Normal,300,4.0,,,1600.0,Mist,16.0,16.0,29.93,,10,,,,,,,,,,,,,,Clear,72000.0,,,,,,,,,
KRDR,07-03-2015,11:18,SPECI,Normal,300,4.0,,,2000.0,Mist,16.0,16.0,29.92,,10,,,,,,,,,,,,,,Clear,72000.0,,,,,,,,,
KRDR,07-03-2015,11:13,SPECI,Normal,290,5.0,,,2000.0,Mist,16.0,16.0,29.92,,10,,,,,,,,,,,,,,Clear,72000.0,,,,,,,,,
KRDR,07-03-2015,10:58,METAR,Normal,300,5.0,,,2000.0,Mist,16.1,15.7,29.92,1013.4,10,,,,,,,,,,,,,,Clear,72000.0,,,,,,,,,
KRDR,07-03-2015,10:43,SPECI,Normal,300,4.0,,,2000.0,Mist,17.0,16.0,29.91,,10,,,,,,,,,,,,,,Clear,72000.0,,,,,,,,,
KRDR,07-03-2015,10:38,SPECI,Normal,290,4.0,,,2400.0,Mist,17.0,16.0,29.91,,10,,,,,,,,,,,,,,Clear,72000.0,,,,,,,,,
KRDR,07-03-2015,10:33,SPECI,Normal,290,5.0,,,3200.0,Mist,17.0,16.0,29.91,,10,,,,,,,,,,,,,,Clear,72000.0,,,,,,,,,
KRDR,07-03-2015,09:58,METAR,Normal,300,5.0,,,4000.0,Mist,16.8,16.2,29.91,1013.1,10,,,,,,,,,,,,,,Clear,72000.0,,,,,,,,,
KRDR,07-03-2015,09:53,SPECI,Normal,310,5.0,,,4800.0,Mist,17.0,16.0,29.91,,10,,,,,,,,,,,,,,Clear,72000.0,,,,,,,,,
KRDR,07-03-2015,08:58,METAR,Normal,310,5.0,,,6400.0,Mist,17.4,16.6,29.91,1013.0,10,,,,,,,,,,,,,,Clear,72000.0,,,,,,,,,
KRDR,07-03-2015,07:58,METAR,Normal,310,5.0,,,8000.0,Mist,18.4,17.3,29.90,1012.7,10,,,,,,,,,,,,,,Clear,72000.0,,,,,,,,,
KRDR,07-03-2015,07:48,SPECI,Normal,310,5.0,,,8000.0,Mist,19.0,17.0,29.90,,10,,,,,,,,,,,,,,Clear,72000.0,,,,,,,,,
KRDR,07-03-2015,06:58,METAR,Normal,310,5.0,,,9999.0,Mist,18.8,17.4,29.90,1012.6,10,,,,,,,,,,,,,,Clear,72000.0,,,,,,,,,
KRDR,07-03-2015,06:23,SPECI,Normal,300,7.0,,,9999.0,,19.0,18.0,29.90,,,,,,,,,,,,,,,,Clear,72000.0,,,,,,,,,
KRDR,07-03-2015,05:58,METAR,Normal,280,5.0,,,9999.0,,19.4,17.9,29.90,1012.7,,,,,,,,,,,,,,,Clear,72000.0,,,,,,,,,
KRDR,07-03-2015,04:58,METAR,Normal,270,7.0,,,9999.0,,18.7,17.8,29.90,1012.7,,,,,,,,,,,,,,,2/8 Mostly Clear,72000.0,3900.0,FEW,3900.0,,,,,,
KRDR,07-03-2015,04:53,SPECI,Normal,270,6.0,,,9999.0,,18.0,18.0,29.90,,,,,,,,,,,,,,,,2/8 Mostly Clear,72000.0,3900.0,FEW,3900.0,,,,,,
KRDR,07-03-2015,04:33,SPECI,Normal,260,5.0,,,9999.0,,18.0,17.0,29.90,,,,,,,,,,,,,,,,Clear,72000.0,,,,,,,,,
KRDR,07-03-2015,03:58,METAR,Normal,240,4.0,,,9999.0,,18.1,16.6,29.90,1012.8,,,,,,,,,,,,,,,Clear,72000.0,,,,,,,,,
KRDR,07-03-2015,03:53,SPECI,Normal,240,4.0,,,9999.0,,18.0,17.0,29.90,,,,,,,,,,,,,,,,Clear,72000.0,,,,,,,,,
KRDR,07-03-2015,03:43,SPECI,Normal,240,4.0,,,9999.0,,18.0,17.0,29.90,,,,,,,,,,,,,,,,Clear,72000.0,,,,,,,,,
KRDR,07-03-2015,03:38,SPECI,Normal,240,4.0,,,9999.0,,19.0,17.0,29.90,,,,,,,,,,,,,,,,Clear,72000.0,,,,,,,,,
KRDR,07-03-2015,03:28,SPECI,Normal,230,5.0,,,9999.0,,18.0,17.0,29.90,,,,,,,,,,,,,,,,Clear,72000.0,,,,,,,,,
KRDR,07-03-2015,03:13,SPECI,Normal,240,4.0,,,9999.0,,19.0,17.0,29.90,,,,,,,,,,,,,,,,Clear,72000.0,,,,,,,,,
KRDR,07-03-2015,02:58,METAR,Normal,240,4.0,,,9999.0,,19.2,17.3,29.90,1012.8,,,,,,,,,,,,,,,Clear,72000.0,,,,,,,,,
KRDR,07-03-2015,01:58,METAR,Normal,270,5.0,,,9999.0,,21.2,18.2,29.89,1012.5,,,,,,,,,,,,,,,Clear,72000.0,,,,,,,,,
KRDR,07-03-2015,00:58,METAR,Normal,260,5.0,,,9999.0,,24.4,19.5,29.89,1012.4,,,,,,,,,,,,,,,,4100.0,4100.0,BKN,4100.0,,,,,,
KRDR,07-02-2015,23:58,METAR,Normal,250,5.0,,,9999.0,,24.6,19.1,29.89,1012.5,,,,,,,,,,,,,,,2/8 Mostly Clear,72000.0,4000.0,FEW,4000.0,,,,,,
KRDR,07-02-2015,22:58,METAR,Normal,250,7.0,,,9999.0,,25.5,19.3,29.90,1012.8,,,,,,,,,,,,,,,2/8 Mostly Clear,72000.0,5500.0,FEW,5500.0,,,,,,
KRDR,07-02-2015,21:58,METAR,Normal,260,8.0,,,9999.0,Distant Lightning,24.4,18.4,29.90,1012.8,12,,,,,,,,,,,,,,,4400.0,3700.0,SCT,3700.0,BKN,5500.0,,,,
KRDR,07-02-2015,20:58,METAR,Normal,210,7.0,,,9999.0,,25.4,18.7,29.90,1012.7,,,,,,,,,,,,,,,Clear,72000.0,,,,,,,,,
KRDR,07-02-2015,19:58,METAR,Normal,210,10.0,,,9999.0,,26.7,18.5,29.92,1013.4,,,,,,,,,,,,,,,2/8 Mostly Clear,72000.0,3600.0,FEW,3600.0,,,,,,
KRDR,07-02-2015,18:58,METAR,Normal,210,8.0,,,9999.0,,25.8,18.2,29.93,1013.8,,,,,,,,,,,,,,,Clear,72000.0,,,,,,,,,
KRDR,07-02-2015,17:58,METAR,Normal,210,9.0,,,9999.0,,25.1,17.4,29.94,1014.1,,,,,,,,,,,,,,,Clear,72000.0,,,,,,,,,
KRDR,07-02-2015,16:58,METAR,Normal,210,11.0,,,9999.0,,23.7,16.8,29.95,1014.5,,,,,,,,,,,,,,,Clear,72000.0,,,,,,,,,
KRDR,07-02-2015,15:58,METAR,Normal,230,6.0,,,9999.0,,21.7,16.1,29.96,1014.9,,,,,,,,,,,,,,,Clear,72000.0,,,,,,,,,
KRDR,07-02-2015,14:58,METAR,Normal,170,9.0,,,9999.0,,20.6,15.8,29.96,1014.9,,,,,,,,,,,,,,,Clear,72000.0,,,,,,,,,
KRDR,07-02-2015,13:58,METAR,Normal,190,4.0,,,9999.0,,18.4,15.1,29.95,1014.5,,,,,,,,,,,,,,,Clear,72000.0,,,,,,,,,
KRDR,07-02-2015,12:58,METAR,Normal,190,7.0,,,9999.0,,16.5,14.6,29.96,1014.9,,,,,,,,,,,,,,,Clear,72000.0,,,,,,,,,
KRDR,07-02-2015,11:58,METAR,Normal,180,5.0,,,9999.0,,15.2,13.7,29.96,1014.9,,,,,,,,,,,,,,,Clear,72000.0,,,,,,,,,
KRDR,07-02-2015,10:58,METAR,Normal,170,6.0,,,9999.0,,14.3,13.0,29.95,1014.5,,,,,,,,,,,,,,,Clear,72000.0,,,,,,,,,
KRDR,07-02-2015,09:58,METAR,Normal,190,6.0,,,9999.0,,14.9,13.3,29.95,,,,,,,,,,,,,,,,Clear,72000.0,,,,,,,,,
KRDR,07-02-2015,08:58,METAR,Normal,210,5.0,,,9999.0,,15.5,13.6,29.94,,,,,,,,,,,,,,,,Clear,72000.0,,,,,,,,,
KRDR,07-02-2015,07:58,METAR,Normal,190,5.0,,,9999.0,,15.8,13.7,29.94,1014.1,,,,,,,,,,,,,,,Clear,72000.0,,,,,,,,,
KRDR,07-02-2015,06:58,METAR,Normal,200,4.0,,,9999.0,,16.6,14.5,29.96,1014.8,,,,,,,,,,,,,,,Clear,72000.0,,,,,,,,,
KRDR,07-02-2015,05:58,METAR,Normal,220,6.0,,,9999.0,,17.7,15.2,29.95,1014.5,,,,,,,,,,,,,,,Clear,72000.0,,,,,,,,,
KRDR,07-02-2015,04:58,METAR,Normal,180,6.0,,,9999.0,,17.8,16.0,29.95,1014.5,,,,,,,,,,,,,,,Clear,72000.0,,,,,,,,,
KRDR,07-02-2015,03:58,METAR,Normal,200,5.0,,,9999.0,,18.3,16.4,29.95,1014.5,,,,,,,,,,,,,,,Clear,72000.0,,,,,,,,,
KRDR,07-02-2015,02:58,METAR,Normal,190,5.0,,,9999.0,,19.7,16.9,29.95,1014.5,,,,,,,,,,,,,,,Clear,72000.0,,,,,,,,,
KRDR,07-02-2015,01:58,METAR,Normal,170,5.0,,,9999.0,,21.1,16.8,29.94,1014.2,,,,,,,,,,,,,,,Clear,72000.0,,,,,,,,,
KRDR,07-02-2015,00:58,METAR,Normal,180,7.0,,,9999.0,,23.0,17.3,29.93,1013.8,,,,,,,,,,,,,,,Clear,72000.0,,,,,,,,,
KRDR,07-01-2015,23:58,METAR,Normal,170,5.0,,,9999.0,,24.8,16.3,29.93,1013.9,,,,,,,,,,,,,,,Clear,72000.0,,,,,,,,,
KRDR,07-01-2015,22:58,METAR,Normal,190,5.0,,,9999.0,,25.6,15.5,29.94,1014.2,,,,,,,,,,,,,,,Clear,72000.0,,,,,,,,,
KRDR,07-01-2015,21:58,METAR,Normal,200,8.0,,,9999.0,,25.7,14.9,29.95,1014.5,,,,,,,,,,,,,,,,6000.0,4900.0,FEW,4900.0,BKN,6000.0,,,,
KRDR,07-01-2015,20:58,METAR,Normal,180,7.0,,,9999.0,,25.3,15.4,29.94,1014.2,,,,,,,,,,,,,,,2/8 Mostly Clear,72000.0,4600.0,FEW,4600.0,,,,,,
KRDR,07-01-2015,19:58,METAR,Variable,,4.0,,,9999.0,,25.3,15.4,29.94,1014.2,,,,,,,,,,,,,,,Clear,72000.0,,,,,,,,,
KRDR,07-01-2015,18:58,METAR,Variable,,5.0,,,9999.0,,24.9,15.7,29.95,1014.5,,,,,,,,,,,,,,,4/8 Partly Cloudy,72000.0,4300.0,SCT,4300.0,,,,,,
KRDR,07-01-2015,17:58,METAR,Variable,,2.0,,,9999.0,,24.3,15.7,29.95,1014.5,,,,,,,,,,,,,,,2/8 Mostly Clear,72000.0,3600.0,FEW,3600.0,,,,,,
KRDR,07-01-2015,16:58,METAR,Variable,,4.0,,,9999.0,,23.5,15.8,29.95,1014.5,,,,,,,,,,,,,,,Clear,72000.0,,,,,,,,,
KRDR,07-01-2015,15:58,METAR,Normal,280,2.0,,,9999.0,,22.9,16.2,29.95,1014.5,,,,,,,,,,,,,,,Clear,72000.0,,,,,,,,,
KRDR,07-01-2015,14:58,METAR,Calm,,0.0,,,9999.0,,20.6,15.2,29.95,1014.5,,,,,,,,,,,,,,,Clear,72000.0,,,,,,,,,
KRDR,07-01-2015,13:58,METAR,Calm,,0.0,,,9999.0,,18.1,14.8,29.95,1014.6,,,,,,,,,,,,,,,Clear,72000.0,,,,,,,,,
KRDR,07-01-2015,12:58,METAR,Normal,20,2.0,,,9999.0,,15.6,15.2,29.95,1014.6,,,,,,,,,,,,,,,Clear,72000.0,,,,,,,,,
KRDR,07-01-2015,11:58,METAR,Normal,330,2.0,,,9999.0,,13.1,12.8,29.94,1014.3,,,,,,,,,,,,,,,Clear,72000.0,,,,,,,,,
KRDR,07-01-2015,11:53,SPECI,Normal,330,2.0,,,8000.0,Mist,13.0,13.0,29.94,,10,,,,,,,,,,,,,,Clear,72000.0,,,,,,,,,
KRDR,07-01-2015,10:58,METAR,Normal,20,3.0,,,6400.0,Mist,12.2,11.9,29.93,1013.9,,,,10,,,,,,,,,,,Clear,72000.0,,,,,,,,,
KRDR,07-01-2015,10:18,SPECI,Normal,10,3.0,,,6400.0,Mist,13.0,12.0,29.93,,10,,,,,,,,,,,,,,Clear,72000.0,,,,,,,,,
KRDR,07-01-2015,09:58,METAR,Normal,340,2.0,,,6400.0,Mist,12.5,12.2,29.93,1013.9,10,,,,,,,,,,,,,,Clear,72000.0,,,,,,,,,
KRDR,07-01-2015,09:38,SPECI,Normal,340,2.0,,,800.0,Fog,13.0,12.0,29.92,,30,,,,,,,,,,,,,,Clear,72000.0,,,,,,,,,
KRDR,07-01-2015,09:33,SPECI,Normal,350,1.0,,,400.0,Fog,13.0,12.0,29.92,,30,,,,,,,,,,,,,,Clear,9000.0,,,,,,,,,
KRDR,07-01-2015,09:03,SPECI,Normal,360,2.0,,,800.0,Fog,13.0,12.0,29.93,,30,,,,,,,,,,,,,,Clear,9000.0,,,,,,,,,
KRDR,07-01-2015,08:58,METAR,Calm,,0.0,,,400.0,Fog,13.9,13.6,29.93,1013.9,30,,,,,,,,,,,,,,Clear,72000.0,,,,,,,,,
KRDR,07-01-2015,08:53,SPECI,Calm,,0.0,,,400.0,Fog,14.0,14.0,29.93,,30,,,,,,,,,,,,,,Clear,72000.0,,,,,,,,,
KRDR,07-01-2015,08:23,SPECI,Normal,300,1.0,,,800.0,Fog,14.0,13.0,29.93,,30,,,,,,,,,,,,,,4/8 Partly Cloudy,72000.0,9000.0,SCT,9100.0,,,,,,
KRDR,07-01-2015,08:18,SPECI,Normal,280,2.0,,,1200.0,Mist,14.0,13.0,29.93,,10,,,,,,,,,,,,,,4/8 Partly Cloudy,72000.0,9000.0,SCT,9100.0,,,,,,
KRDR,07-01-2015,08:13,SPECI,Calm,,0.0,,,4000.0,Mist,14.0,13.0,29.93,,10,,,,,,,,,,,,,,,9000.0,9000.0,BKN,9100.0,,,,,,
KRDR,07-01-2015,08:03,SPECI,Calm,,0.0,,,4000.0,Mist,14.0,13.0,29.93,,10,,,,,,,,,,,,,,4/8 Partly Cloudy,72000.0,9000.0,SCT,9100.0,,,,,,
KRDR,07-01-2015,07:58,METAR,Calm,,0.0,,,8000.0,Mist,13.7,13.3,29.92,1013.5,10,,,,,,,,,,,,,,4/8 Partly Cloudy,72000.0,9000.0,SCT,9100.0,,,,,,
KRDR,07-01-2015,07:53,SPECI,Calm,,0.0,,,8000.0,Mist,14.0,13.0,29.93,,10,,,,,,,,,,,,,,2/8 Mostly Clear,72000.0,9000.0,FEW,9100.0,,,,,,
KRDR,07-01-2015,07:48,SPECI,Calm,,0.0,,,9999.0,Mist,14.0,14.0,29.93,,10,,,,,,,,,,,,,,2/8 Mostly Clear,72000.0,9000.0,FEW,9100.0,,,,,,
KRDR,07-01-2015,07:38,SPECI,Normal,80,2.0,,,9999.0,,15.0,14.0,29.93,,,,,,,,,,,,,,,,Clear,72000.0,,,,,,,,,
KRDR,07-01-2015,07:33,SPECI,Normal,70,2.0,,,2400.0,Mist,15.0,14.0,29.93,,10,,,,,,,,,,,,,,Clear,72000.0,,,,,,,,,
KRDR,07-01-2015,07:28,SPECI,Normal,60,3.0,,,800.0,Fog,14.0,14.0,29.93,,30,,,,,,,,,,,,,,Clear,72000.0,,,,,,,,,
KRDR,07-01-2015,07:23,SPECI,Normal,50,2.0,,,1200.0,Mist,14.0,14.0,29.93,,10,,,,,,,,,,,,,,Clear,72000.0,,,,,,,,,
KRDR,07-01-2015,07:18,SPECI,Normal,20,1.0,,,3200.0,Mist,14.0,13.0,29.93,,10,,,,,,,,,,,,,,Clear,72000.0,,,,,,,,,
KRDR,07-01-2015,07:08,SPECI,Calm,,0.0,,,9999.0,,15.0,14.0,29.92,,,,,,,,,,,,,,,,Clear,72000.0,,,,,,,,,
KRDR,07-01-2015,07:03,SPECI,Normal,40,1.0,,,9999.0,,15.0,15.0,29.92,,,,,,,,,,,,,,,,Clear,72000.0,,,,,,,,,
KRDR,07-01-2015,06:58,METAR,Normal,50,2.0,,,9999.0,,14.9,14.3,29.92,1013.5,,,,,,,,,,,,,,,Clear,72000.0,,,,,,,,,
KRDR,07-01-2015,06:54,SPECI,Normal,20,2.0,,,9999.0,,15.0,14.0,29.93,,,,,,,,,,,,,,,,Clear,72000.0,,,,,,,,,
KRDR,07-01-2015,06:39,SPECI,Calm,,0.0,,,9999.0,,15.0,14.0,29.92,,,,,,,,,,,,,,,,Clear,72000.0,,,,,,,,,
KRDR,07-01-2015,06:29,SPECI,Normal,260,2.0,,,9999.0,,15.0,14.0,29.92,,,,,,,,,,,,,,,,Clear,9000.0,,,,,,,,,
KRDR,07-01-2015,06:13,SPECI,Calm,,0.0,,,9999.0,,15.0,14.0,29.92,,,,,,,,,,,,,,,,Clear,72000.0,,,,,,,,,
KRDR,07-01-2015,05:58,METAR,Calm,,0.0,,,9999.0,,16.1,15.2,29.92,1013.5,,,,,,,,,,,,,,,2/8 Mostly Clear,72000.0,9000.0,FEW,9100.0,,,,,,
KRDR,07-01-2015,04:58,METAR,Calm,,0.0,,,9999.0,,16.5,15.6,29.92,1013.5,,,,,,,,,,,,,,,2/8 Mostly Clear,72000.0,9000.0,FEW,9100.0,,,,,,
KRDR,07-01-2015,03:58,METAR,Normal,250,1.0,,,9999.0,,17.2,16.2,29.92,1013.5,,,,,,,,,,,,,,,Clear,72000.0,,,,,,,,,
KRDR,07-01-2015,02:58,METAR,Normal,210,2.0,,,9999.0,,18.3,16.0,29.92,1013.6,,,,,,,,,,,,,,,Clear,72000.0,,,,,,,,,
KRDR,07-01-2015,01:58,METAR,Calm,,0.0,,,9999.0,,20.2,16.8,29.91,1013.2,,,,,,,,,,,,,,,Clear,72000.0,,,,,,,,,
KRDR,07-01-2015,00:58,METAR,Normal,200,4.0,,,9999.0,,21.2,16.1,29.91,1013.3,,,,,,,,,,,,,,,Clear,72000.0,,,,,,,,,
KRDR,06-30-2015,23:58,METAR,Normal,210,5.0,,,9999.0,,22.4,15.4,29.92,1013.6,,,,,,,,,,,,,,,Clear,72000.0,,,,,,,,,
KRDR,06-30-2015,22:58,METAR,Normal,190,4.0,,,9999.0,,22.7,15.2,29.93,1013.9,,,,,,,,,,,,,,,2/8 Mostly Clear,72000.0,3900.0,FEW,3900.0,,,,,,
KRDR,06-30-2015,21:59,METAR,Normal,120,3.0,,,9999.0,,23.0,15.0,29.92,1013.6,,,,,,,,,,,,,,,Clear,72000.0,,,,,,,,,
KRDR,06-30-2015,20:58,METAR,Normal,130,5.0,,,9999.0,,23.6,15.1,29.92,1013.5,,,,,,,,,,,,,,,Clear,72000.0,,,,,,,,,
KRDR,06-30-2015,19:58,METAR,Normal,110,8.0,,,9999.0,,23.0,15.5,29.91,1013.2,,,,,,,,,,,,,,,Clear,72000.0,,,,,,,,,
KRDR,06-30-2015,18:58,METAR,Normal,160,6.0,,,9999.0,,23.1,14.9,29.94,1014.2,,,,,,,,,,,,,,,Clear,72000.0,,,,,,,,,
KRDR,06-30-2015,17:58,METAR,Normal,150,4.0,,,9999.0,,22.4,15.5,29.95,1014.5,,,,,,,,,,,,,,,Clear,72000.0,,,,,,,,,
KRDR,06-30-2015,16:58,METAR,Normal,140,2.0,,,9999.0,,21.0,15.9,29.95,1014.6,,,,,,,,,,,,,,,Clear,72000.0,,,,,,,,,
KRDR,06-30-2015,15:58,METAR,Normal,130,3.0,,,9999.0,,19.6,16.0,29.96,1015.0,,,,,,,,,,,,,,,Clear,72000.0,,,,,,,,,
KRDR,06-30-2015,14:58,METAR,Normal,130,2.0,,,9999.0,,17.9,16.0,29.96,1015.0,,,,,,,,,,,,,,,Clear,72000.0,,,,,,,,,
KRDR,06-30-2015,14:33,SPECI,Variable,,1.0,,,9999.0,,17.0,16.0,29.97,,,,,,,,,,,,,,,,4/8 Partly Cloudy,72000.0,400.0,SCT,400.0,,,,,,
KRDR,06-30-2015,14:13,SPECI,Calm,,0.0,,,9999.0,,17.0,16.0,29.97,,,,,,,,,,,,,,,,,400.0,400.0,BKN,400.0,,,,,,
KRDR,06-30-2015,13:58,METAR,Normal,300,2.0,,,9999.0,,16.4,15.4,29.97,1015.3,,,,,,,,,,,,,,,,300.0,300.0,BKN,300.0,,,,,,
KRDR,06-30-2015,13:53,SPECI,Normal,280,1.0,,,9999.0,,16.0,15.0,29.97,,,,,,,,,,,,,,,,,300.0,300.0,BKN,300.0,,,,,,
KRDR,06-30-2015,13:38,SPECI,Normal,270,2.0,,,6400.0,Mist,16.0,15.0,29.97,,10,,,,,,,,,,,,,,,200.0,200.0,OVC,200.0,,,,,,
KRDR,06-30-2015,13:28,SPECI,Normal,270,2.0,,,2400.0,Mist,16.0,15.0,29.97,,10,,,,,,,,,,,,,,,200.0,200.0,OVC,200.0,,,,,,
KRDR,06-30-2015,13:18,SPECI,Normal,250,2.0,,,8000.0,Mist,16.0,15.0,29.97,,10,,,,,,,,,,,,,,,300.0,300.0,OVC,300.0,,,,,,
KRDR,06-30-2015,12:58,METAR,Normal,280,4.0,,,9999.0,,15.3,14.5,29.98,1015.7,,,,,,,,,,,,,,,,400.0,400.0,OVC,400.0,,,,,,
KRDR,06-30-2015,12:50,SPECI,Normal,290,3.0,,,9999.0,,15.0,14.0,29.98,,,,,,,,,,,,,,,,,400.0,400.0,BKN,400.0,,,,,,
KRDR,06-30-2015,12:40,SPECI,Normal,310,1.0,,,9999.0,,15.0,14.0,29.97,,,,,,,,,,,,,,,,,500.0,500.0,BKN,500.0,,,,,,
KRDR,06-30-2015,12:30,SPECI,Normal,10,1.0,,,9999.0,,14.0,13.0,29.96,,,,,,,,,,,,,,,,2/8 Mostly Clear,72000.0,500.0,FEW,500.0,,,,,,
KRDR,06-30-2015,11:58,METAR,Normal,330,2.0,,,9999.0,,13.6,13.2,29.96,1014.9,,,,,,,,,,,,,,,Clear,72000.0,,,,,,,,,
KRDR,06-30-2015,10:58,METAR,Normal,360,2.0,,,6400.0,Mist,12.8,12.3,29.95,1014.6,10,,,,,,,,,,,,,,Clear,72000.0,,,,,,,,,
KRDR,06-30-2015,10:33,SPECI,Normal,30,4.0,,,8000.0,Mist,13.0,12.0,29.94,,10,,,,,,,,,,,,,,Clear,72000.0,,,,,,,,,
KRDR,06-30-2015,10:28,SPECI,Normal,30,4.0,,,6400.0,Mist,13.0,12.0,29.94,,10,,,,,,,,,,,,,,Clear,72000.0,,,,,,,,,
KRDR,06-30-2015,10:18,SPECI,Normal,10,4.0,,,9999.0,,13.0,13.0,29.95,,,,,,,,,,,,,,,,Clear,72000.0,,,,,,,,,
KRDR,06-30-2015,10:13,SPECI,Normal,10,4.0,,,9999.0,,13.0,13.0,29.95,,,,,,,,,,,,,,,,Clear,72000.0,,,,,,,,,
KRDR,06-30-2015,10:03,SPECI,Normal,350,3.0,,,6400.0,Mist,13.0,12.0,29.95,,10,,,,,,,,,,,,,,Clear,72000.0,,,,,,,,,
KRDR,06-30-2015,09:58,METAR,Normal,340,4.0,,,8000.0,Mist,13.2,12.7,29.95,1014.6,10,,,,,,,,,,,,,,Clear,72000.0,,,,,,,,,
KRDR,06-30-2015,09:48,SPECI,Normal,340,4.0,,,9999.0,Mist,13.0,13.0,29.94,,10,,,,,,,,,,,,,,Clear,72000.0,,,,,,,,,
KRDR,06-30-2015,08:58,METAR,Normal,320,4.0,,,9999.0,,13.8,13.2,29.94,1014.2,,,,,,,,,,,,,,,Clear,72000.0,,,,,,,,,
KRDR,06-30-2015,08:33,SPECI,Normal,330,3.0,,,9999.0,,14.0,13.0,29.95,,,,,,,,,,,,,,,,Clear,72000.0,,,,,,,,,
KRDR,06-30-2015,07:58,METAR,Normal,350,4.0,,,9999.0,,14.5,13.7,29.95,1014.6,,,,,,,,,,,,,,,Clear,72000.0,,,,,,,,,
KRDR,06-30-2015,07:48,SPECI,Normal,350,3.0,,,9999.0,,15.0,14.0,29.95,,,,,,,,,,,,,,,,Clear,72000.0,,,,,,,,,
KRDR,06-30-2015,07:43,SPECI,Normal,360,4.0,,,9999.0,,14.0,14.0,29.95,,,,,,,,,,,,,,,,Clear,72000.0,,,,,,,,,
KRDR,06-30-2015,06:58,METAR,Normal,360,5.0,,,9999.0,,14.8,13.8,29.95,1014.5,,,,,,,,,,,,,,,Clear,72000.0,,,,,,,,,
KRDR,06-30-2015,05:58,METAR,Normal,360,5.0,,,9999.0,,15.8,14.6,29.94,1014.2,,,,,,,,,,,,,,,Clear,72000.0,,,,,,,,,
KRDR,06-30-2015,04:58,METAR,Normal,360,5.0,,,9999.0,,16.2,14.9,29.93,1013.8,,,,,,,,,,,,,,,Clear,72000.0,,,,,,,,,
KRDR,06-30-2015,03:58,METAR,Normal,10,5.0,,,9999.0,,16.1,14.8,29.93,1013.8,,,,,,,,,,,,,,,Clear,72000.0,,,,,,,,,
KRDR,06-30-2015,02:58,METAR,Normal,350,3.0,,,9999.0,,17.5,15.5,29.92,1013.5,,,,,,,,,,,,,,,Clear,72000.0,,,,,,,,,
KRDR,06-30-2015,01:58,METAR,Normal,330,5.0,,,9999.0,,19.0,15.8,29.91,1013.1,,,,,,,,,,,,,,,Clear,72000.0,,,,,,,,,
KRDR,06-30-2015,00:58,METAR,Normal,350,8.0,,,9999.0,,21.5,16.8,29.90,1012.7,,,,,,,,,,,,,,,Clear,72000.0,,,,,,,,,
KRDR,06-29-2015,23:58,METAR,Normal,340,9.0,,,9999.0,,22.7,17.3,29.89,1012.4,,,,,,,,,,,,,,,Clear,72000.0,,,,,,,,,
KRDR,06-29-2015,22:58,METAR,Normal,350,9.0,,,9999.0,,23.4,18.5,29.89,1012.4,,,,,,,,,,,,,,,Clear,72000.0,,,,,,,,,
KRDR,06-29-2015,21:58,METAR,Normal,350,8.0,,,9999.0,,23.7,18.0,29.88,1012.0,,,,,,,,,,,,,,,Clear,72000.0,,,,,,,,,
KRDR,06-29-2015,20:58,METAR,Normal,360,9.0,,,9999.0,,24.4,18.1,29.88,1012.1,,,,,,,,,,,,,,,Clear,72000.0,,,,,,,,,
KRDR,06-29-2015,19:58,METAR,Normal,360,9.0,,,9999.0,,24.4,17.6,29.89,1012.4,,,,,,,,,,,,,,,Clear,72000.0,,,,,,,,,
KRDR,06-29-2015,18:58,METAR,Normal,360,7.0,,,9999.0,,24.1,17.5,29.88,1012.1,,,,,,,,,,,,,,,Clear,72000.0,,,,,,,,,
KRDR,06-29-2015,17:58,METAR,Normal,350,7.0,,,9999.0,,23.5,17.3,29.87,1011.7,,,,,,,,,,,,,,,Clear,72000.0,,,,,,,,,
KRDR,06-29-2015,16:58,METAR,Normal,360,7.0,,,9999.0,,22.7,16.9,29.87,1011.7,,,,,,,,,,,,,,,Clear,72000.0,,,,,,,,,
KRDR,06-29-2015,15:58,METAR,Variable,360,10.0,,,9999.0,,22.7,16.3,29.86,1011.4,,,,,,,,,,,,,,,Clear,72000.0,,,,,,,,,
KRDR,06-29-2015,14:58,METAR,Normal,350,8.0,,,9999.0,,22.1,16.4,29.85,1011.0,,,,,,,,,,,,,,,Clear,72000.0,,,,,,,,,
KRDR,06-29-2015,13:58,METAR,Normal,310,8.0,,,9999.0,,20.7,16.8,29.84,1010.7,,,,,,,,,,,,,,,Clear,72000.0,,,,,,,,,
KRDR,06-29-2015,12:58,METAR,Normal,290,7.0,,,9999.0,,20.1,16.2,29.83,1010.3,,,,,,,,,,,,,,,Clear,72000.0,,,,,,,,,
KRDR,06-29-2015,11:58,METAR,Normal,300,8.0,,,9999.0,,19.2,16.1,29.84,1010.6,,,,,,,,,,,,,,,Clear,72000.0,,,,,,,,,
KRDR,06-29-2015,10:58,METAR,Normal,300,6.0,,,9999.0,,18.7,15.6,29.82,1009.9,,,,,,,,,,,,,,,Clear,72000.0,,,,,,,,,
KRDR,06-29-2015,09:58,METAR,Normal,300,7.0,,,9999.0,,18.6,15.5,29.82,1009.9,,,,,,,,,,,,,,,Clear,72000.0,,,,,,,,,
KRDR,06-29-2015,08:58,METAR,Normal,300,6.0,,,9999.0,,18.0,15.3,29.83,1010.3,,,,,,,,,,,,,,,Clear,72000.0,,,,,,,,,
KRDR,06-29-2015,07:58,METAR,Normal,300,6.0,,,9999.0,,18.3,15.9,29.84,1010.6,,,,,,,,,,,,,,,Clear,72000.0,,,,,,,,,
KRDR,06-29-2015,06:58,METAR,Normal,300,6.0,,,9999.0,,18.3,16.0,29.85,1010.9,,,,,,,,,,,,,,,Clear,72000.0,,,,,,,,,
KRDR,06-29-2015,05:58,METAR,Normal,310,6.0,,,9999.0,,18.5,16.1,29.85,1010.9,,,,,,,,,,,,,,,Clear,72000.0,,,,,,,,,
KRDR,06-29-2015,04:58,METAR,Normal,290,5.0,,,9999.0,,19.0,16.1,29.85,1010.9,,,,,,,,,,,,,,,Clear,72000.0,,,,,,,,,
KRDR,06-29-2015,03:58,METAR,Normal,280,3.0,,,9999.0,,18.4,15.9,29.85,1011.0,,,,,,,,,,,,,,,Clear,72000.0,,,,,,,,,
KRDR,06-29-2015,02:58,METAR,Normal,300,4.0,,,9999.0,,19.3,16.9,29.85,1011.0,,,,,,,,,,,,,,,Clear,72000.0,,,,,,,,,
KRDR,06-29-2015,01:58,METAR,Normal,320,4.0,,,9999.0,,23.2,18.5,29.84,1010.6,,,,,,,,,,,,,,,Clear,72000.0,,,,,,,,,
KRDR,06-29-2015,00:58,METAR,Normal,350,4.0,,,9999.0,,25.4,18.4,29.85,1011.0,,,,,,,,,,,,,,,Clear,72000.0,,,,,,,,,
KRDR,06-28-2015,23:58,METAR,Normal,360,7.0,,,9999.0,,26.6,16.9,29.85,1011.0,,,,,,,,,,,,,,,Clear,72000.0,,,,,,,,,
KRDR,06-28-2015,22:58,METAR,Normal,350,10.0,,,9999.0,,27.5,16.8,29.86,1011.4,,,,,,,,,,,,,,,Clear,72000.0,,,,,,,,,
KRDR,06-28-2015,21:58,METAR,Normal,360,10.0,,,9999.0,,27.5,16.4,29.86,1011.4,,,,,,,,,,,,,,,Clear,72000.0,,,,,,,,,
KRDR,06-28-2015,20:58,METAR,Normal,350,11.0,,,9999.0,,27.3,16.9,29.87,1011.7,,,,,,,,,,,,,,,Clear,72000.0,,,,,,,,,
KRDR,06-28-2015,19:58,METAR,Normal,340,13.0,,,9999.0,,26.8,17.1,29.88,1012.1,,,,,,,,,,,,,,,2/8 Mostly Clear,72000.0,4700.0,FEW,4700.0,,,,,,
KRDR,06-28-2015,18:58,METAR,Normal,10,11.0,,,9999.0,,26.8,16.8,29.88,1012.1,,,,,,,,,,,,,,,2/8 Mostly Clear,72000.0,4500.0,FEW,4500.0,,,,,,
KRDR,06-28-2015,17:58,METAR,Normal,360,11.0,,,9999.0,,26.4,17.1,29.88,1012.1,,,,,,,,,,,,,,,Clear,72000.0,,,,,,,,,
KRDR,06-28-2015,16:58,METAR,Normal,350,10.0,,,9999.0,,25.4,16.9,29.88,1012.1,,,,,,,,,,,,,,,Clear,72000.0,,,,,,,,,
KRDR,06-28-2015,15:58,METAR,Normal,360,11.0,,,9999.0,,24.9,16.7,29.88,1012.0,,,,,,,,,,,,,,,Clear,72000.0,,,,,,,,,
KRDR,06-28-2015,14:58,METAR,Normal,340,9.0,,,9999.0,,24.0,17.1,29.88,1012.1,,,,,,,,,,,,,,,Clear,72000.0,,,,,,,,,
KRDR,06-28-2015,13:58,METAR,Normal,330,5.0,,,9999.0,,22.1,16.9,29.88,1012.1,,,,,,,,,,,,,,,Clear,72000.0,,,,,,,,,
KRDR,06-28-2015,12:58,METAR,Normal,310,6.0,,,9999.0,,19.0,16.0,29.88,1012.1,,,,,,,,,,,,,,,Clear,72000.0,,,,,,,,,
KRDR,06-28-2015,11:58,METAR,Normal,320,4.0,,,9999.0,,15.9,14.1,29.87,1011.8,,,,,,,,,,,,,,1.2 IN,Clear,72000.0,,,,,,,,,
KRDR,06-28-2015,10:58,METAR,Normal,310,5.0,,,9999.0,,14.3,12.9,29.86,1011.7,,,,,,,,,,,,,,,Clear,72000.0,,,,,,,,,
KRDR,06-28-2015,09:58,METAR,Normal,320,4.0,,,9999.0,,15.0,13.9,29.85,1011.0,,,,,,,,,,,,,,,Clear,72000.0,,,,,,,,,
KRDR,06-28-2015,08:58,METAR,Normal,340,6.0,,,9999.0,,15.6,14.5,29.84,1010.7,,,,,,,,,,,,,,,Clear,72000.0,,,,,,,,,
KRDR,06-28-2015,07:58,METAR,Normal,310,5.0,,,9999.0,,14.7,14.0,29.84,1010.7,,,,,,,,,,,,,,,Clear,72000.0,,,,,,,,,
KRDR,06-28-2015,07:03,SPECI,Normal,310,4.0,,,9999.0,,15.0,15.0,29.83,,,,,,,,,,,,,,,,Clear,72000.0,,,,,,,,,
KRDR,06-28-2015,06:58,METAR,Normal,320,3.0,,,8000.0,Mist,15.1,14.6,29.84,1010.7,10,,,,,,,,,,,,,,Clear,72000.0,,,,,,,,,
KRDR,06-28-2015,06:53,SPECI,Normal,330,3.0,,,8000.0,Mist,15.0,14.0,29.84,,10,,,,,,,,,,,,,,Clear,72000.0,,,,,,,,,
KRDR,06-28-2015,06:48,SPECI,Normal,300,3.0,,,9999.0,,15.0,14.0,29.84,,,,,,,,,,,,,,,,Clear,72000.0,,,,,,,,,
KRDR,06-28-2015,06:43,SPECI,Variable,,1.0,,,9999.0,,15.0,14.0,29.84,,,,,,,,,,,,,,,,Clear,72000.0,,,,,,,,,
KRDR,06-28-2015,06:38,SPECI,Calm,,0.0,,,9999.0,,15.0,14.0,29.84,,,,,,,,,,,,,,,,Clear,72000.0,,,,,,,,,
KRDR,06-28-2015,06:33,SPECI,Calm,,0.0,,,4800.0,Mist,15.0,14.0,29.84,,10,,,,,,,,,,,,,,Clear,72000.0,,,,,,,,,
KRDR,06-28-2015,06:28,SPECI,Calm,,0.0,,,4800.0,Mist,15.0,14.0,29.84,,10,,,,,,,,,,,,,,Clear,72000.0,,,,,,,,,
KRDR,06-28-2015,06:23,SPECI,Normal,320,2.0,,,9999.0,Mist,15.0,14.0,29.84,,10,,,,,,,,,,,,,,Clear,72000.0,,,,,,,,,
KRDR,06-28-2015,06:18,SPECI,Calm,,0.0,,,9999.0,,15.0,15.0,29.83,,,,,,,,,,,,,,,,Clear,72000.0,,,,,,,,,
KRDR,06-28-2015,06:08,SPECI,Normal,50,1.0,,,9999.0,,16.0,16.0,29.83,,,,,,,,,,,,,,,,Clear,72000.0,,,,,,,,,
KRDR,06-28-2015,05:58,METAR,Normal,80,1.0,,,9999.0,,15.2,14.6,29.83,1010.4,,,,,,,,,,,,,,,Clear,72000.0,,,,,,,,,
KRDR,06-28-2015,04:58,METAR,Normal,60,5.0,,,9999.0,,17.1,16.1,29.82,1010.0,,,,,,,,,,,,,,,Clear,72000.0,,,,,,,,,
KRDR,06-28-2015,03:58,METAR,Normal,20,6.0,,,9999.0,,18.7,16.9,29.83,1010.3,,,,,,,,,,,,,,,2/8 Mostly Clear,72000.0,12000.0,FEW,12000.0,,,,,,
KRDR,06-28-2015,02:58,METAR,Normal,360,5.0,,,9999.0,,17.6,16.7,29.82,1009.9,,,,,,,,,,,,,,,Clear,72000.0,,,,,,,,,
KRDR,06-28-2015,01:58,METAR,Normal,300,7.0,,,9999.0,,19.6,18.1,29.78,1008.6,,,,,,,,,,,,,,,Clear,72000.0,,,,,,,,,
KRDR,06-28-2015,00:58,METAR,Normal,210,6.0,,,9999.0,,22.8,17.6,29.79,1008.9,,,,,,,,,,,,,,,Clear,72000.0,,,,,,,,,
KRDR,06-27-2015,23:58,METAR,Normal,160,14.0,,/  KTS,9999.0,,22.3,17.5,29.78,1008.7,,,,,,,,,,,.01 IN,,1.2 IN,,Clear,72000.0,,,,,,,,,
KRDR,06-27-2015,23:12,SPECI,Normal,160,17.0,34.0,,9999.0,,20.0,16.0,29.77,,,,,,,,,,,,,,,,4/8 Partly Cloudy,72000.0,1500.0,SCT,1500.0,,,,,,
KRDR,06-27-2015,23:02,SPECI,Normal,140,17.0,27.0,,9999.0,Distant Lightning,19.0,17.0,29.76,,12,,,,,,,,,,,,,,,1600.0,1600.0,BKN,1600.0,,,,,,
KRDR,06-27-2015,23:01,SPECI,Normal,150,21.0,27.0,,9999.0,Dry Thunderstorm,19.0,17.0,29.77,,91,,,,,,,,,,,,,,,1600.0,1600.0,BKN,1600.0,,,,,,
KRDR,06-27-2015,22:58,METAR,Normal,150,22.0,26.0,360/41KTS,4800.0,Thunderstorm and Rain or Snow Showers/Mist,18.0,17.0,29.78,1008.8,92,10,,,,,,,,,1.19 IN,,,,,1700.0,1700.0,OVC,1700.0,,,,,,
KRDR,06-27-2015,22:55,SPECI,Normal,140,16.0,,,2000.0,Thunderstorm and Rain or Snow Showers/Mist,18.0,17.0,29.79,,92,10,,,,,,,,,,,,,,1800.0,1800.0,OVC,1800.0,,,,,,
KRDR,06-27-2015,22:50,SPECI,Normal,140,17.0,,,400.0,Heavy Thunderstorm and Rain or Snow Showers/Fog,19.0,17.0,29.80,,95,30,,,,,,,,,,,,,,2400.0,2400.0,OVC,2400.0,,,,,,
KRDR,06-27-2015,22:43,SPECI,Variable,80,15.0,41.0,,400.0,Heavy Thunderstorm and Hail/Heavy Rain/Fog or Ice Fog,20.0,19.0,29.82,,,,,99,65,45,,,,,,,,,,2700.0,,,,,,,,,
KRDR,06-27-2015,22:40,SPECI,Normal,20,19.0,41.0,,400.0,Heavy Thunderstorm and Hail/Heavy Rain/Fog or Ice Fog,,,29.87,,,,,99,65,45,,,,,,,,,,2900.0,,,,,,,,,
KRDR,06-27-2015,22:35,SPECI,Normal,360,19.0,26.0,,800.0,Heavy Thunderstorm and Hail/Heavy Rain,,,29.85,,,,,99,65,,,,,,,,,,,,,,,,,,,,
KRDR,06-27-2015,22:30,SPECI,Normal,180,10.0,,,1200.0,Heavy Thunderstorm and Hail/Heavy Rain,23.0,19.0,29.80,,,,,99,65,,,,,,,,,,,,,,,,,,,,
KRDR,06-27-2015,22:23,SPECI,Normal,180,14.0,24.0,,9999.0,Thunderstorm and Hail/Rain,23.0,19.0,29.76,,,,,96,63,,,,,,,,,,,,,,,,,,,,
KRDR,06-27-2015,22:20,SPECI,Normal,170,17.0,24.0,,9999.0,Thunderstorm and Hail/Rain,23.0,19.0,29.75,,,,,96,63,,,,,,,,,,,,,,,,,,,,
KRDR,06-27-2015,22:18,SPECI,Normal,170,19.0,24.0,,9999.0,Thunderstorm and Hail/Rain,23.0,19.0,29.75,,,,,96,63,,,,,,,,,,,,,,,,,,,,
KRDR,06-27-2015,22:08,SPECI,Normal,180,9.0,,,6400.0,Thunderstorm and Hail/Rain,26.0,19.0,29.76,,,,,96,63,,,,,,,,,,,,,,,,,,,,
KRDR,06-27-2015,22:06,SPECI,Normal,180,8.0,,,8000.0,Light Rain/Distant Lightning,26.0,18.0,29.76,,61,12,,,,,,,,,,,,,2/8 Mostly Clear,72000.0,7000.0,FEW,7000.0,,,,,,
KRDR,06-27-2015,21:58,METAR,Normal,160,13.0,,,9999.0,Distant Lightning,26.4,17.4,29.73,1006.9,12,,,,,,,,,,,,,,Clear,72000.0,,,,,,,,,
KRDR,06-27-2015,21:54,SPECI,Normal,160,11.0,19.0,,9999.0,Distant Lightning,26.0,17.0,29.74,,12,,,,,,,,,,,,,,Clear,72000.0,,,,,,,,,
KRDR,06-27-2015,21:39,SPECI,Normal,180,13.0,21.0,,9999.0,Dry Thunderstorm,27.0,17.0,29.76,,91,,,,,,,,,,,,,,Clear,72000.0,,,,,,,,,
KRDR,06-27-2015,20:58,METAR,Normal,210,17.0,23.0,,9999.0,,28.5,16.0,29.78,1008.6,,,,,,,,,,,,TRACE,,,Clear,72000.0,,,,,,,,,
KRDR,06-27-2015,19:58,METAR,Normal,220,17.0,23.0,,9999.0,,28.3,16.8,29.81,1009.6,,,,,,,,,,,TRACE,,,,4/8 Partly Cloudy,72000.0,10000.0,SCT,10000.0,,,,,,
KRDR,06-27-2015,19:04,SPECI,Normal,190,11.0,,,9999.0,,27.0,18.0,29.87,,,,,,,,,,,,,,,,,11000.0,3100.0,SCT,3100.0,SCT,8600.0,BKN,11000.0,,
KRDR,06-27-2015,18:58,METAR,Normal,200,10.0,,,9999.0,Light Rain,26.2,18.9,29.87,1011.7,61,,,,,,,,,,TRACE,,,,,8500.0,3200.0,SCT,3200.0,BKN,8600.0,BKN,11000.0,,
KRDR,06-27-2015,18:47,SPECI,Normal,210,12.0,,,9999.0,Light Rain,26.0,17.0,29.88,,61,,,,,,,,,,,,,,,11000.0,7000.0,FEW,7000.0,SCT,8600.0,BKN,11000.0,,
KRDR,06-27-2015,17:58,METAR,Normal,190,8.0,,,9999.0,,26.0,17.0,29.91,1013.1,,,,,,,,,,,TRACE,,TRACE,,2/8 Mostly Clear,72000.0,12000.0,FEW,12000.0,,,,,,
KRDR,06-27-2015,17:08,SPECI,Normal,200,7.0,,,9999.0,,24.0,17.0,29.93,,,,,,,,,,,,,,,,2/8 Mostly Clear,72000.0,6500.0,FEW,6500.0,,,,,,
KRDR,06-27-2015,17:00,SPECI,Normal,220,6.0,,,9999.0,Light Drizzle,24.0,18.0,29.94,,51,,,,,,,,,,,,,,2/8 Mostly Clear,72000.0,7500.0,FEW,7500.0,,,,,,
KRDR,06-27-2015,16:58,METAR,Normal,220,7.0,,,9999.0,,24.7,17.0,29.94,1014.1,,,,,,,,,,,,,,,2/8 Mostly Clear,72000.0,7000.0,FEW,7000.0,,,,,,
KRDR,06-27-2015,15:58,METAR,Normal,230,7.0,,,9999.0,,26.7,16.9,29.95,1014.3,,,,,,,,,,,,,,,Clear,72000.0,,,,,,,,,
KRDR,06-27-2015,14:58,METAR,Normal,230,8.0,,,9999.0,,27.2,17.3,29.96,1014.6,,,,,,,,,,,,,,,Clear,72000.0,,,,,,,,,
KRDR,06-27-2015,13:58,METAR,Normal,240,6.0,,,9999.0,,24.7,16.8,29.98,1015.3,,,,,,,,,,,,,,,Clear,72000.0,,,,,,,,,
KRDR,06-27-2015,12:58,METAR,Normal,240,6.0,,,9999.0,,22.0,16.3,29.98,1015.3,,,,,,,,,,,,,,,Clear,72000.0,,,,,,,,,
KRDR,06-27-2015,11:58,METAR,Normal,240,6.0,,,9999.0,,18.9,15.0,29.99,1015.7,,,,,,,,,,,,,,.12 IN,Clear,72000.0,,,,,,,,,
KRDR,06-27-2015,10:58,METAR,Normal,240,6.0,,,9999.0,,17.2,14.5,29.99,1015.8,,,,,,,,,,,,,,,Clear,72000.0,,,,,,,,,
KRDR,06-27-2015,09:58,METAR,Normal,250,7.0,,,9999.0,,17.6,14.7,30.00,1016.0,,,,,,,,,,,,,,,Clear,72000.0,,,,,,,,,
KRDR,06-27-2015,08:58,METAR,Normal,230,5.0,,,9999.0,,16.8,14.3,30.00,1016.0,,,,,,,,,,,,,,,Clear,72000.0,,,,,,,,,
KRDR,06-27-2015,07:58,METAR,Normal,230,7.0,,,9999.0,,16.6,14.4,30.02,1016.7,,,,,,,,,,,,,,,Clear,72000.0,,,,,,,,,
KRDR,06-27-2015,06:58,METAR,Normal,230,6.0,,,9999.0,,17.6,14.7,30.03,1017.1,,,,,,,,,,,,,,,Clear,72000.0,,,,,,,,,
KRDR,06-27-2015,05:58,METAR,Normal,250,4.0,,,9999.0,,15.5,14.3,30.04,1017.6,,,,,,,,,,,,,.12 IN,,Clear,72000.0,,,,,,,,,
KRDR,06-27-2015,04:58,METAR,Normal,50,3.0,,,9999.0,,17.5,15.3,30.04,1017.5,,,,,,,,,,,,,,,Clear,72000.0,,,,,,,,,
KRDR,06-27-2015,03:58,METAR,Normal,220,2.0,,,9999.0,,18.7,16.4,30.04,1017.5,,,,,,,,,,,,,,,Clear,72000.0,,,,,,,,,
KRDR,06-27-2015,02:58,METAR,Normal,210,5.0,,,9999.0,,21.3,15.6,30.05,1017.8,,,,,,,,,,,.09 IN,.12 IN,,,4/8 Partly Cloudy,72000.0,8500.0,FEW,8600.0,SCT,10000.0,,,,
KRDR,06-27-2015,02:30,SPECI,Calm,,0.0,,,9999.0,,25.0,14.0,30.04,,,,,,,,,,,,,,,,,10000.0,5500.0,SCT,5500.0,OVC,10000.0,,,,
KRDR,06-27-2015,02:08,SPECI,Normal,80,4.0,,,4800.0,Light Rain,23.0,13.0,30.04,,61,,,,,,,,,,,,,,,5500.0,5500.0,OVC,5500.0,,,,,,
KRDR,06-27-2015,02:03,SPECI,Normal,20,7.0,24.0,,2800.0,Rain,23.0,10.0,30.04,,62,,,,,,,,,,,,,,,5000.0,5000.0,OVC,5000.0,,,,,,
KRDR,06-27-2015,01:58,METAR,Variable,,3.0,24.0,,4000.0,Heavy Rain,22.0,14.0,30.05,1017.8,63,,,,,,,,,,,,,,,6000.0,6000.0,OVC,6000.0,,,,,,
KRDR,06-27-2015,01:57,SPECI,Variable,,4.0,24.0,,4000.0,Heavy Rain,22.0,13.0,30.05,,63,,,,,,,,,,,,,,,6000.0,6000.0,OVC,6000.0,,,,,,
KRDR,06-27-2015,01:42,SPECI,Normal,10,9.0,,,9999.0,Thunderstorm with Rain or Snow,23.0,16.0,30.04,,,,,95,,,,,,,,,,,,5500.0,5500.0,BKN,5500.0,,,,,,
KRDR,06-27-2015,01:25,SPECI,Normal,360,7.0,,,9999.0,Light Rain,25.0,15.0,30.04,,61,,,,,,,,,,,,,,2/8 Mostly Clear,72000.0,700.0,FEW,700.0,,,,,,
KRDR,06-27-2015,00:58,METAR,Normal,290,6.0,,,9999.0,,25.8,15.8,30.04,1017.4,,,,,,,,,,,,,,,,12000.0,9000.0,SCT,9100.0,BKN,12000.0,,,,
KRDR,06-26-2015,23:58,METAR,Variable,,2.0,,,9999.0,,28.0,12.6,30.04,1017.5,,,,,,,,,,,,,,,2/8 Mostly Clear,72000.0,9000.0,FEW,9100.0,,,,,,
KRDR,06-26-2015,22:58,METAR,Normal,20,4.0,,,9999.0,,27.8,14.6,30.04,1017.6,,,,,,,,,,,,,,,2/8 Mostly Clear,72000.0,8500.0,FEW,8600.0,,,,,,
KRDR,06-26-2015,21:58,METAR,Variable,,2.0,,,9999.0,,28.6,12.8,30.05,1017.9,,,,,,,,,,,,,,,Clear,72000.0,,,,,,,,,
KRDR,06-26-2015,20:58,METAR,Variable,,1.0,,,9999.0,,28.4,12.7,30.06,1018.2,,,,,,,,,,,,,,,2/8 Mostly Clear,72000.0,7000.0,FEW,7000.0,,,,,,
KRDR,06-26-2015,19:58,METAR,Normal,260,7.0,,,9999.0,,28.4,12.7,30.07,1018.5,,,,,,,,,,,,,,,Clear,7000.0,,,,,,,,,
KRDR,06-26-2015,18:58,METAR,Variable,,3.0,,,9999.0,,27.8,13.5,30.09,1019.2,,,,,,,,,,,,,,,Clear,72000.0,,,,,,,,,
KRDR,06-26-2015,17:58,METAR,Normal,360,3.0,,,9999.0,,25.5,15.3,30.10,1019.6,,,,,,,,,,,,,,,,5000.0,5000.0,BKN,5000.0,,,,,,
KRDR,06-26-2015,16:58,METAR,Normal,130,3.0,,,9999.0,,25.9,15.1,30.11,1019.9,,,,,,,,,,,,,,,Clear,72000.0,,,,,,,,,
KRDR,06-26-2015,15:58,METAR,Calm,,0.0,,,9999.0,,24.6,14.7,30.12,1020.2,,,,,,,,,,,,,,,Clear,72000.0,,,,,,,,,
KRDR,06-26-2015,14:58,METAR,Variable,,2.0,,,9999.0,,23.1,14.9,30.12,1020.2,,,,,,,,,,,,,,,Clear,72000.0,,,,,,,,,
KRDR,06-26-2015,13:58,METAR,Normal,360,3.0,,,9999.0,,20.9,14.6,30.12,1020.2,,,,,,,,,,,,,,,Clear,72000.0,,,,,,,,,
KRDR,06-26-2015,12:58,METAR,Normal,330,2.0,,,9999.0,,18.7,15.2,30.11,1019.9,,,,,,,,,,,,,,,Clear,72000.0,,,,,,,,,
KRDR,06-26-2015,11:58,METAR,Normal,300,3.0,,,9999.0,,14.9,13.1,30.10,1019.6,,,,,,,,,,,,,,,Clear,72000.0,,,,,,,,,
KRDR,06-26-2015,10:58,METAR,Calm,,0.0,,,9999.0,,13.2,11.8,30.09,1019.3,,,,,,,,,,,,,,,Clear,72000.0,,,,,,,,,
KRDR,06-26-2015,09:58,METAR,Normal,310,2.0,,,9999.0,,12.8,11.7,30.06,1018.3,,,,,,,,,,,,,,,Clear,72000.0,,,,,,,,,
KRDR,06-26-2015,08:58,METAR,Normal,290,2.0,,,9999.0,,13.0,12.0,30.06,1018.3,,,,,,,,,,,,,,,Clear,72000.0,,,,,,,,,
KRDR,06-26-2015,07:58,METAR,Normal,290,2.0,,,9999.0,,14.2,12.6,30.05,1017.9,,,,,,,,,,,,,,,Clear,72000.0,,,,,,,,,
KRDR,06-26-2015,06:58,METAR,Normal,320,5.0,,,9999.0,,15.0,12.6,30.06,1018.2,,,,,,,,,,,,,,,Clear,72000.0,,,,,,,,,
KRDR,06-26-2015,05:58,METAR,Normal,360,3.0,,,9999.0,,16.1,14.0,30.06,1018.2,,,,,,,,,,,,,,,Clear,72000.0,,,,,,,,,
KRDR,06-26-2015,04:58,METAR,Normal,350,2.0,,,9999.0,,16.8,13.6,30.07,1018.5,,,,,,,,,,,,,,,Clear,72000.0,,,,,,,,,
KRDR,06-26-2015,03:58,METAR,Normal,310,2.0,,,9999.0,,16.5,14.3,30.06,1018.2,,,,,,,,,,,,,,,4/8 Partly Cloudy,72000.0,10000.0,SCT,10000.0,,,,,,
KRDR,06-26-2015,02:58,METAR,Calm,,0.0,,,9999.0,,18.3,14.2,30.04,1017.5,,,,,,,,,,,,,,,Clear,72000.0,,,,,,,,,
KRDR,06-26-2015,01:58,METAR,Normal,20,4.0,,,9999.0,,22.0,13.9,30.04,1017.5,,,,,,,,,,,,,,,Clear,72000.0,,,,,,,,,
KRDR,06-26-2015,00:58,METAR,Normal,60,4.0,,,9999.0,,24.9,11.9,30.03,1017.1,,,,,,,,,,,,,,,Clear,72000.0,,,,,,,,,
KRDR,06-25-2015,23:58,METAR,Normal,70,5.0,,,9999.0,,25.9,11.7,30.02,1016.8,,,,,,,,,,,,,,,Clear,72000.0,,,,,,,,,
KRDR,06-25-2015,22:58,METAR,Normal,20,8.0,,,9999.0,,26.7,11.4,30.03,1017.2,,,,,,,,,,,,,,,Clear,72000.0,,,,,,,,,
KRDR,06-25-2015,21:58,METAR,Normal,80,4.0,,,9999.0,,27.2,11.7,30.04,1017.5,,,,,,,,,,,,,,,2/8 Mostly Clear,72000.0,7000.0,FEW,7000.0,,,,,,
KRDR,06-25-2015,20:58,METAR,Variable,,3.0,,,9999.0,,27.3,12.3,30.04,1017.5,,,,,,,,,,,,,,,Clear,72000.0,,,,,,,,,
KRDR,06-25-2015,19:58,METAR,Normal,360,7.0,,,9999.0,,27.1,13.0,30.05,1017.9,,,,,,,,,,,,,,,Clear,72000.0,,,,,,,,,
KRDR,06-25-2015,18:58,METAR,Normal,350,7.0,,,9999.0,,26.6,13.6,30.05,1017.9,,,,,,,,,,,,,,,Clear,72000.0,,,,,,,,,
KRDR,06-25-2015,17:58,METAR,Normal,350,4.0,,,9999.0,,25.8,14.1,30.06,1018.2,,,,,,,,,,,,,,,Clear,72000.0,,,,,,,,,
KRDR,06-25-2015,16:58,METAR,Normal,320,3.0,,,9999.0,,24.9,14.6,30.06,1018.2,,,,,,,,,,,,,,,Clear,72000.0,,,,,,,,,
KRDR,06-25-2015,15:58,METAR,Normal,310,5.0,,,9999.0,,24.0,15.9,30.07,1018.5,,,,,,,,,,,,,,,Clear,72000.0,,,,,,,,,
KRDR,06-25-2015,14:58,METAR,Variable,,3.0,,,9999.0,,22.7,16.6,30.08,1018.9,,,,,,,,,,,,,,,Clear,72000.0,,,,,,,,,
KRDR,06-25-2015,13:58,METAR,Normal,340,4.0,,,9999.0,,20.8,17.0,30.07,1018.5,,,,,,,,,,,,,,,Clear,72000.0,,,,,,,,,
KRDR,06-25-2015,12:58,METAR,Normal,340,5.0,,,9999.0,,18.6,16.4,30.06,1018.2,,,,,,,,,,,,,,,Clear,72000.0,,,,,,,,,
KRDR,06-25-2015,11:58,METAR,Normal,300,3.0,,,9999.0,,16.4,15.0,30.04,1017.6,,,,,,,,,,,,,,,Clear,72000.0,,,,,,,,,
KRDR,06-25-2015,10:58,METAR,Normal,300,4.0,,,9999.0,,13.0,12.0,30.02,1017.0,,,,,,,,,,,,,,,Clear,72000.0,,,,,,,,,
KRDR,06-25-2015,10:48,SPECI,Normal,290,2.0,,,9999.0,,13.0,12.0,30.02,,,,,,,,,,,,,,,,Clear,72000.0,,,,,,,,,
KRDR,06-25-2015,09:58,METAR,Normal,320,4.0,,,9999.0,,14.1,13.3,30.02,1017.0,,,,,,,,,,,,,,,Clear,72000.0,,,,,,,,,
KRDR,06-25-2015,08:58,METAR,Normal,310,5.0,,,9999.0,,13.5,12.9,30.01,1016.6,,,,,,,,,,,,,,,Clear,72000.0,,,,,,,,,
KRDR,06-25-2015,07:58,METAR,Normal,290,5.0,,,9999.0,,13.3,12.7,30.01,1016.6,,,,,,,,,,,,,,,Clear,72000.0,,,,,,,,,
KRDR,06-25-2015,06:58,METAR,Normal,230,3.0,,,9999.0,,14.9,14.3,30.01,1016.6,,,,,,,,,,,,,,,Clear,72000.0,,,,,,,,,
KRDR,06-25-2015,05:58,METAR,Normal,300,6.0,,,9999.0,,15.5,15.2,30.01,1016.5,,,,,,,,,,,,,,,Clear,72000.0,,,,,,,,,
KRDR,06-25-2015,05:53,SPECI,Normal,300,5.0,,,9999.0,,15.0,15.0,30.01,,,,,,,,,,,,,,,,Clear,72000.0,,,,,,,,,
KRDR,06-25-2015,05:48,SPECI,Normal,300,5.0,,,4000.0,Mist,15.0,15.0,30.01,,10,,,,,,,,,,,,,,Clear,72000.0,,,,,,,,,
KRDR,06-25-2015,05:38,SPECI,Normal,270,3.0,,,2400.0,Mist,15.0,15.0,30.01,,10,,,,,,,,,,,,,,Clear,72000.0,,,,,,,,,
KRDR,06-25-2015,05:33,SPECI,Normal,260,2.0,,,4000.0,Mist,15.0,14.0,30.01,,10,,,,,,,,,,,,,,Clear,72000.0,,,,,,,,,
KRDR,06-25-2015,05:28,SPECI,Normal,270,3.0,,,9999.0,,15.0,15.0,30.01,,,,,,,,,,,,,,,,Clear,72000.0,,,,,,,,,
KRDR,06-25-2015,04:58,METAR,Normal,240,2.0,,,9999.0,,15.7,15.2,30.01,1016.5,,,,,,,,,,,,,,,Clear,72000.0,,,,,,,,,
KRDR,06-25-2015,04:48,SPECI,Normal,270,4.0,,,9999.0,,16.0,15.0,30.00,,,,,,,,,,,,,,,,Clear,72000.0,,,,,,,,,
KRDR,06-25-2015,03:58,METAR,Normal,260,4.0,,,9999.0,,16.7,16.0,30.00,1016.2,,,,,,,,,,,,,,,Clear,72000.0,,,,,,,,,
KRDR,06-25-2015,02:58,METAR,Normal,260,5.0,,,9999.0,,18.2,16.8,30.00,1016.2,,,,,,,,,,,,,,,Clear,72000.0,,,,,,,,,
KRDR,06-25-2015,01:58,METAR,Normal,240,4.0,,,9999.0,,20.7,18.1,29.98,1015.5,,,,,,,,,,,,,,,Clear,72000.0,,,,,,,,,
KRDR,06-25-2015,00:58,METAR,Normal,210,6.0,,,9999.0,,22.3,17.5,29.99,1015.8,,,,,,,,,,,,,,,2/8 Mostly Clear,72000.0,10000.0,FEW,10000.0,,,,,,
KRDR,06-24-2015,23:58,METAR,Normal,230,2.0,,,9999.0,,21.9,17.5,30.00,1016.2,,,,,,,,,,,,,TRACE,,,10000.0,10000.0,BKN,10000.0,,,,,,
KRDR,06-24-2015,22:58,METAR,Normal,310,6.0,,,9999.0,,21.5,17.0,29.98,1015.6,,,,,,,,,,,TRACE,,,,,10000.0,10000.0,BKN,10000.0,,,,,,
KRDR,06-24-2015,22:48,SPECI,Normal,310,8.0,,,9999.0,,22.0,17.0,29.98,,,,,,,,,,,,,,,,4/8 Partly Cloudy,72000.0,10000.0,SCT,10000.0,,,,,,
KRDR,06-24-2015,22:39,SPECI,Normal,310,10.0,,,9999.0,Light Drizzle,22.0,17.0,29.98,,51,,,,,,,,,,,,,,,9000.0,10000.0,FEW,10000.0,,,,,,
KRDR,06-24-2015,21:58,METAR,Normal,310,9.0,,,9999.0,,23.0,16.8,30.00,1016.2,,,,,,,,,,,TRACE,,,,Clear,72000.0,,,,,,,,,
KRDR,06-24-2015,21:33,SPECI,Normal,320,6.0,,,9999.0,,23.0,17.0,30.00,,,,,,,,,,,,,,,,Clear,72000.0,,,,,,,,,
KRDR,06-24-2015,21:25,SPECI,Normal,310,7.0,,,9999.0,Light Drizzle,24.0,17.0,30.00,,51,,,,,,,,,,,,,,2/8 Mostly Clear,72000.0,8000.0,FEW,8000.0,,,,,,
KRDR,06-24-2015,21:16,SPECI,Normal,300,5.0,,,9999.0,,24.0,17.0,29.99,,,,,,,,,,,,,,,,,11000.0,6000.0,FEW,6000.0,SCT,9100.0,BKN,11000.0,,
KRDR,06-24-2015,21:00,SPECI,Normal,290,6.0,,,9999.0,Light Drizzle,24.0,17.0,29.99,,51,,,,,,,,,,,,,,,11000.0,6500.0,FEW,6500.0,BKN,11000.0,,,,
KRDR,06-24-2015,20:58,METAR,Normal,290,5.0,,,9999.0,,24.2,16.8,29.99,1015.9,,,,,,,,,,,,,,,,11000.0,6500.0,FEW,6500.0,BKN,11000.0,,,,
KRDR,06-24-2015,19:58,METAR,Normal,270,5.0,,,9999.0,,25.1,15.5,29.98,1015.4,,,,,,,,,,,,,,,2/8 Mostly Clear,72000.0,12000.0,FEW,12000.0,,,,,,
KRDR,06-24-2015,18:58,METAR,Normal,250,5.0,,,9999.0,,25.4,14.7,29.98,1015.5,,,,,,,,,,,,,,,Clear,72000.0,,,,,,,,,
KRDR,06-24-2015,17:58,METAR,Normal,200,5.0,,,9999.0,,25.2,15.2,29.99,1015.8,,,,,,,,,,,,,,,Clear,72000.0,,,,,,,,,
KRDR,06-24-2015,16:58,METAR,Normal,190,2.0,,,9999.0,,25.0,15.9,29.99,1015.8,,,,,,,,,,,,,,,Clear,72000.0,,,,,,,,,
KRDR,06-24-2015,15:58,METAR,Normal,200,8.0,,,9999.0,,24.4,16.0,30.01,1016.4,,,,,,,,,,,,,,,Clear,72000.0,,,,,,,,,
KRDR,06-24-2015,14:58,METAR,Variable,,3.0,,,9999.0,,22.3,15.4,30.00,1016.2,,,,,,,,,,,,,,,Clear,72000.0,,,,,,,,,
KRDR,06-24-2015,13:58,METAR,Normal,250,3.0,,,9999.0,,21.4,14.7,30.00,1016.1,,,,,,,,,,,,,,,Clear,72000.0,,,,,,,,,
KRDR,06-24-2015,12:58,METAR,Normal,230,2.0,,,9999.0,,19.0,14.3,30.01,1016.4,,,,,,,,,,,,,,,Clear,72000.0,,,,,,,,,
KRDR,06-24-2015,11:58,METAR,Normal,220,3.0,,,9999.0,,17.2,14.1,29.99,1015.8,,,,,,,,,,,,,.08 IN,.09 IN,4/8 Partly Cloudy,72000.0,11000.0,SCT,11000.0,,,,,,
KRDR,06-24-2015,10:58,METAR,Normal,220,7.0,,,9999.0,,16.3,13.8,29.97,1015.1,,,,,,,,,,,,,,,,12000.0,12000.0,BKN,12000.0,,,,,,
KRDR,06-24-2015,09:58,METAR,Normal,290,3.0,,,9999.0,,16.6,13.9,29.96,1014.7,,,,,,,,,,,.02 IN,,,,,11000.0,11000.0,BKN,11000.0,,,,,,
KRDR,06-24-2015,09:43,SPECI,Normal,340,5.0,,,9999.0,,17.0,13.0,29.97,,,,,,,,,,,,,,,,,12000.0,7000.0,SCT,7000.0,OVC,12000.0,,,,
KRDR,06-24-2015,09:06,SPECI,Normal,300,6.0,,,9999.0,Light Rain,16.0,14.0,30.00,,61,,,,,,,,,,,,,,4/8 Partly Cloudy,72000.0,10000.0,SCT,10000.0,,,,,,
KRDR,06-24-2015,08:58,METAR,Normal,290,5.0,,,9999.0,,15.9,14.3,30.00,1016.1,,,,,,,,,,,,.06 IN,,,2/8 Mostly Clear,72000.0,10000.0,FEW,10000.0,,,,,,
KRDR,06-24-2015,07:58,METAR,Variable,,4.0,,,9999.0,,18.4,13.2,29.99,,,,,,,,,,,,TRACE,,,,,10000.0,10000.0,BKN,10000.0,,,,,,
KRDR,06-24-2015,07:21,SPECI,Normal,90,6.0,,,9999.0,Distant Lightning,17.0,14.0,29.98,,12,,,,,,,,,,,,,,,10000.0,8000.0,FEW,8000.0,BKN,10000.0,,,,
KRDR,06-24-2015,07:12,SPECI,Normal,100,4.0,,,9999.0,Light Drizzle,17.0,14.0,29.99,,51,,,,,,,,,,,,,,,9500.0,9500.0,BKN,9600.0,,,,,,
KRDR,06-24-2015,07:07,SPECI,Normal,100,5.0,,,9999.0,,17.0,14.0,29.98,,,,,,,,,,,,,,,,,10000.0,2000.0,FEW,2000.0,SCT,8000.0,BKN,10000.0,,
KRDR,06-24-2015,06:58,METAR,Normal,90,9.0,,,9999.0,Light Rain,16.7,14.2,29.98,,61,,,,,,,,,,.06 IN,,,,,8500.0,4200.0,FEW,4200.0,SCT,6000.0,BKN,8600.0,,
KRDR,06-24-2015,06:56,SPECI,Normal,90,8.0,,,9999.0,Light Rain,17.0,14.0,29.98,,61,,,,,,,,,,,,,,,8500.0,7000.0,FEW,7000.0,BKN,8600.0,,,,
KRDR,06-24-2015,06:47,SPECI,Normal,70,9.0,,,9999.0,,17.0,14.0,29.99,,,,,,,,,,,,,,,,,8500.0,5500.0,SCT,5500.0,BKN,8600.0,,,,
KRDR,06-24-2015,06:32,SPECI,Normal,60,9.0,,,9999.0,Light Rain,16.0,15.0,30.00,,61,,,,,,,,,,,,,,,5500.0,4400.0,FEW,4400.0,BKN,5500.0,OVC,8000.0,,
KRDR,06-24-2015,06:22,SPECI,Normal,30,10.0,,,9999.0,Light Rain,16.0,15.0,30.01,,61,,,,,,,,,,,,,,,3800.0,3800.0,BKN,3800.0,OVC,8000.0,,,,
KRDR,06-24-2015,06:12,SPECI,Normal,30,10.0,,,9999.0,Light Rain/Distant Lightning,16.0,14.0,30.01,,61,12,,,,,,,,,,,,,,8000.0,3900.0,SCT,3900.0,SCT,6500.0,OVC,8000.0,,
KRDR,06-24-2015,06:10,SPECI,Normal,40,14.0,21.0,,9999.0,Thunderstorm and Rain or Snow Showers,17.0,14.0,30.00,,92,,,,,,,,,,,,,,,6500.0,4200.0,SCT,4200.0,BKN,6500.0,OVC,8000.0,,
KRDR,06-24-2015,06:00,SPECI,Normal,30,14.0,,,6400.0,Heavy Thunderstorm and Rain or Snow Showers,17.0,14.0,30.01,,95,,,,,,,,,,,,,,,3800.0,3800.0,BKN,3800.0,BKN,6500.0,BKN,8000.0,,
KRDR,06-24-2015,05:58,METAR,Normal,10,11.0,,270/30KTS,8000.0,Heavy Thunderstorm and Rain or Snow Showers,18.1,13.9,30.02,,95,,,,,,,,,,.01 IN,,.01 IN,,,6500.0,4100.0,SCT,4100.0,BKN,6500.0,BKN,8000.0,,
KRDR,06-24-2015,05:52,SPECI,Normal,360,15.0,26.0,,9999.0,Thunderstorm and Rain or Snow Showers,18.0,13.0,30.03,,92,,,,,,,,,,,,,,,8000.0,4000.0,FEW,4000.0,SCT,6500.0,BKN,8000.0,,
KRDR,06-24-2015,05:47,SPECI,Normal,350,15.0,26.0,,9999.0,Thunderstorm and Rain or Snow Showers,18.0,12.0,30.03,,92,,,,,,,,,,,,,,4/8 Partly Cloudy,72000.0,3600.0,FEW,3600.0,SCT,7500.0,,,,
KRDR,06-24-2015,05:43,SPECI,Variable,360,20.0,26.0,,9999.0,Light Rain,18.0,13.0,30.02,,61,,,,,,,,,,,,,,4/8 Partly Cloudy,72000.0,3600.0,FEW,3600.0,SCT,8000.0,,,,
KRDR,06-24-2015,05:38,SPECI,Normal,310,18.0,21.0,,9999.0,Light Rain,19.0,13.0,30.03,,61,,,,,,,,,,,,,,4/8 Partly Cloudy,72000.0,8500.0,SCT,8600.0,,,,,,
KRDR,06-24-2015,05:33,SPECI,Normal,40,10.0,,,9999.0,Light Rain,19.0,12.0,29.99,,61,,,,,,,,,,,,,,4/8 Partly Cloudy,72000.0,8500.0,SCT,8600.0,,,,,,
KRDR,06-24-2015,04:58,METAR,Calm,,0.0,,,9999.0,,17.5,14.0,29.98,,,,,,,,,,,,,,,,4/8 Partly Cloudy,72000.0,11000.0,SCT,11000.0,,,,,,
KRDR,06-24-2015,03:58,METAR,Normal,210,1.0,,,9999.0,,18.9,13.9,29.98,,,,,,,,,,,,,,,,Clear,72000.0,,,,,,,,,
KRDR,06-24-2015,02:58,METAR,Normal,190,2.0,,,9999.0,,18.4,13.7,29.98,1015.5,,,,,,,,,,,,,,,Clear,72000.0,,,,,,,,,
KRDR,06-24-2015,01:58,METAR,Calm,,0.0,,,9999.0,,23.2,10.7,29.97,1015.1,,,,,,,,,,,,,,,Clear,72000.0,,,,,,,,,
KRDR,06-24-2015,00:58,METAR,Normal,310,5.0,,,9999.0,,26.0,12.3,29.97,1015.1,,,,,,,,,,,,,,,Clear,72000.0,,,,,,,,,
KRDR,06-23-2015,23:58,METAR,Normal,290,4.0,,,9999.0,,27.1,9.4,29.97,1015.1,,,,,,,,,,,,,,,Clear,72000.0,,,,,,,,,
KRDR,06-23-2015,22:58,METAR,Normal,290,8.0,,,9999.0,,27.4,9.6,29.97,1015.2,,,,,,,,,,,,,,,Clear,72000.0,,,,,,,,,
KRDR,06-23-2015,21:58,METAR,Normal,280,9.0,16.0,,9999.0,,27.8,9.2,29.99,1015.9,,,,,,,,,,,,,,,Clear,72000.0,,,,,,,,,
KRDR,06-23-2015,20:58,METAR,Normal,310,5.0,,,9999.0,,27.7,10.8,30.00,1016.2,,,,,,,,,,,,,,,Clear,72000.0,,,,,,,,,
KRDR,06-23-2015,19:58,METAR,Normal,330,10.0,,,9999.0,,26.7,10.8,30.01,1016.6,,,,,,,,,,,,,,,2/8 Mostly Clear,72000.0,7000.0,FEW,7000.0,,,,,,
KRDR,06-23-2015,18:58,METAR,Normal,310,9.0,,,9999.0,,26.2,11.8,30.03,1017.2,,,,,,,,,,,,,,,2/8 Mostly Clear,72000.0,7000.0,FEW,7000.0,,,,,,
KRDR,06-23-2015,17:58,METAR,Normal,300,11.0,18.0,,9999.0,,26.5,11.2,30.03,1017.2,,,,,,,,,,,,,,,Clear,72000.0,,,,,,,,,
KRDR,06-23-2015,17:50,SPECI,Normal,300,12.0,18.0,,9999.0,,26.0,11.0,30.03,,,,,,,,,,,,,,,,Clear,72000.0,,,,,,,,,
KRDR,06-23-2015,16:58,METAR,Normal,250,11.0,,,9999.0,,25.9,13.2,30.03,1017.2,,,,,,,,,,,,,,,Clear,72000.0,,,,,,,,,
KRDR,06-23-2015,15:58,METAR,Normal,260,9.0,,,9999.0,,25.2,13.1,30.04,1017.6,,,,,,,,,,,,,,,Clear,72000.0,,,,,,,,,
KRDR,06-23-2015,14:59,METAR,Normal,250,8.0,,,9999.0,,23.1,13.5,30.03,1017.2,,,,,,,,,,,,,,,Clear,72000.0,,,,,,,,,
KRDR,06-23-2015,13:58,METAR,Normal,260,7.0,,,9999.0,,21.0,14.0,30.03,1017.2,,,,,,,,,,,,,,,Clear,72000.0,,,,,,,,,
KRDR,06-23-2015,12:58,METAR,Normal,240,5.0,,,9999.0,,17.7,13.8,30.02,1016.9,,,,,,,,,,,,,,,Clear,72000.0,,,,,,,,,
KRDR,06-23-2015,11:58,METAR,Normal,240,7.0,,,9999.0,,15.4,12.7,30.01,1016.6,,,,,,,,,,,,,,.03 IN,2/8 Mostly Clear,72000.0,7000.0,FEW,7000.0,,,,,,
KRDR,06-23-2015,10:58,METAR,Normal,230,6.0,,,9999.0,,12.3,10.9,30.00,1016.3,,,,,,,,,,,,,,,2/8 Mostly Clear,72000.0,7000.0,FEW,7000.0,,,,,,
KRDR,06-23-2015,09:58,METAR,Normal,230,7.0,,,9999.0,,11.6,10.7,30.00,1016.4,,,,,,,,,,,,,,,Clear,72000.0,,,,,,,,,
KRDR,06-23-2015,08:58,METAR,Normal,250,5.0,,,9999.0,,12.0,10.8,29.99,1016.1,,,,,,,,,,,,,,,Clear,72000.0,,,,,,,,,
KRDR,06-23-2015,07:58,METAR,Normal,270,5.0,,,9999.0,,11.8,10.6,30.00,1016.5,,,,,,,,,,,,,,,Clear,72000.0,,,,,,,,,
KRDR,06-23-2015,06:58,METAR,Normal,280,5.0,,,9999.0,,12.8,11.1,29.99,1016.1,,,,,,,,,,,,,,,Clear,72000.0,,,,,,,,,
KRDR,06-23-2015,05:58,METAR,Normal,280,4.0,,,9999.0,,11.9,10.7,29.98,1015.8,,,,,,,,,,,,,,,Clear,72000.0,,,,,,,,,
KRDR,06-23-2015,04:58,METAR,Normal,260,4.0,,,9999.0,,13.0,12.1,29.98,1015.8,,,,,,,,,,,,,,,Clear,72000.0,,,,,,,,,
KRDR,06-23-2015,03:58,METAR,Normal,250,4.0,,,9999.0,,13.7,13.0,29.96,1015.0,,,,,,,,,,,,,,,Clear,72000.0,,,,,,,,,
KRDR,06-23-2015,02:58,METAR,Normal,230,2.0,,,9999.0,,16.0,13.4,29.94,,,,,,,,,,,,,,,,Clear,72000.0,,,,,,,,,
KRDR,06-23-2015,01:58,METAR,Calm,,0.0,,,9999.0,,19.7,14.5,29.93,,,,,,,,,,,,,,,,Clear,72000.0,,,,,,,,,
KRDR,06-23-2015,00:58,METAR,Normal,10,6.0,,,9999.0,,21.2,13.0,29.92,,,,,,,,,,,,,,,,Clear,72000.0,,,,,,,,,
KRDR,06-22-2015,23:58,METAR,Normal,10,7.0,,,9999.0,,22.0,13.1,29.90,1012.9,,,,,,,,,,,,,.01 IN,,4/8 Partly Cloudy,72000.0,5000.0,SCT,5000.0,SCT,6000.0,,,,
KRDR,06-22-2015,23:32,SPECI,Normal,20,12.0,,,9999.0,,23.0,12.0,29.89,,,,,,,,,,,,,,,,2/8 Mostly Clear,72000.0,4900.0,FEW,4900.0,,,,,,
KRDR,06-22-2015,22:58,METAR,Normal,350,12.0,,,9999.0,,22.8,12.1,29.89,1012.5,,,,,,,,,,,,,,,2/8 Mostly Clear,72000.0,4900.0,FEW,4900.0,,,,,,
KRDR,06-22-2015,21:58,METAR,Variable,350,11.0,,,9999.0,,21.2,13.5,29.88,1012.2,,,,,,,,,,,,,,,4/8 Partly Cloudy,72000.0,8000.0,SCT,8000.0,,,,,,
KRDR,06-22-2015,20:58,METAR,Normal,10,9.0,,,9999.0,,20.2,14.2,29.86,1011.6,,,,,,,,,,,,,,,4/8 Partly Cloudy,72000.0,3400.0,FEW,3400.0,SCT,7000.0,,,,
KRDR,06-22-2015,20:08,SPECI,Normal,340,7.0,,,9999.0,,19.0,15.0,29.85,,,,,,,,,,,,,,,,4/8 Partly Cloudy,72000.0,3400.0,SCT,3400.0,SCT,8000.0,,,,
KRDR,06-22-2015,19:58,METAR,Normal,350,6.0,,,9999.0,Light Rain,18.5,15.1,29.85,1011.3,61,,,,,,,,,,.01 IN,,,,,3700.0,3700.0,BKN,3700.0,,,,,,
KRDR,06-22-2015,19:44,SPECI,Normal,20,8.0,,,9999.0,Light Rain,20.0,14.0,29.85,,61,,,,,,,,,,,,,,4/8 Partly Cloudy,72000.0,1100.0,FEW,1100.0,SCT,4100.0,,,,
KRDR,06-22-2015,19:43,SPECI,Normal,10,8.0,,,9999.0,Light Rain,20.0,14.0,29.85,,61,,,,,,,,,,,,,,4/8 Partly Cloudy,72000.0,3000.0,FEW,3000.0,SCT,4100.0,,,,
KRDR,06-22-2015,18:58,METAR,Normal,20,15.0,21.0,,9999.0,,20.2,12.9,29.84,1010.9,,,,,,,,,,,,,,,Clear,72000.0,,,,,,,,,
KRDR,06-22-2015,18:18,SPECI,Normal,350,18.0,22.0,,9999.0,,19.0,14.0,29.83,,,,,,,,,,,,,,,,,1700.0,1700.0,SCT,1700.0,BKN,2200.0,BKN,3100.0,,
KRDR,06-22-2015,17:58,METAR,Normal,340,15.0,21.0,010/28KTS,9999.0,,19.0,15.2,29.81,1009.9,,,,,,,,,,,TRACE,,.02 IN,,,1700.0,1700.0,BKN,1700.0,,,,,,
KRDR,06-22-2015,17:55,SPECI,Normal,340,15.0,18.0,,9999.0,,19.0,15.0,29.81,,,,,,,,,,,,,,,,,1700.0,1700.0,BKN,1700.0,,,,,,
KRDR,06-22-2015,17:30,SPECI,Normal,360,16.0,,,9999.0,,18.0,15.0,29.79,,,,,,,,,,,,,,,,2/8 Mostly Clear,72000.0,5000.0,FEW,5000.0,,,,,,
KRDR,06-22-2015,17:03,SPECI,Normal,10,17.0,28.0,,9999.0,Light Rain,18.0,14.0,29.78,,61,,,,,,,,,,,,,,,8000.0,5500.0,FEW,5500.0,SCT,6500.0,BKN,8000.0,,
KRDR,06-22-2015,16:58,METAR,Normal,10,17.0,24.0,340/27KTS,9999.0,,18.5,14.3,29.78,1008.8,,,,,,,,,,,.02 IN,,,,,6500.0,1900.0,FEW,1900.0,BKN,6500.0,,,,
KRDR,06-22-2015,16:45,SPECI,Normal,10,14.0,21.0,,9999.0,,18.0,15.0,29.75,,,,,,,,,,,,,,,,,5000.0,2000.0,SCT,2000.0,SCT,3600.0,BKN,5000.0,,
KRDR,06-22-2015,16:20,SPECI,Variable,360,18.0,22.0,,9999.0,Light Drizzle,19.0,15.0,29.73,,51,,,,,,,,,,,,,,,1700.0,1700.0,SCT,1700.0,BKN,2400.0,OVC,4500.0,,
KRDR,06-22-2015,16:17,SPECI,Normal,360,16.0,22.0,,9999.0,,19.0,15.0,29.73,,,,,,,,,,,,,,,,,1700.0,1700.0,SCT,1700.0,BKN,2400.0,OVC,3700.0,,
KRDR,06-22-2015,16:12,SPECI,Normal,10,14.0,21.0,,9999.0,,19.0,16.0,29.72,,,,,,,,,,,,,,,,,1700.0,1700.0,BKN,1700.0,OVC,2700.0,,,,
KRDR,06-22-2015,16:07,SPECI,Normal,360,13.0,17.0,,9999.0,Light Rain,19.0,16.0,29.72,,61,,,,,,,,,,,,,,,1800.0,1800.0,BKN,1800.0,BKN,2300.0,BKN,4300.0,,
KRDR,06-22-2015,16:02,SPECI,Normal,360,12.0,,,9999.0,Light Rain,19.0,16.0,29.71,,61,,,,,,,,,,,,,,,1900.0,2000.0,SCT,2000.0,BKN,2800.0,BKN,4300.0,,
KRDR,06-22-2015,15:58,METAR,Normal,360,9.0,,,9999.0,,19.0,16.0,29.71,1006.4,,,,,,,,,,,,,,,,1900.0,2000.0,BKN,2000.0,OVC,2800.0,,,,
KRDR,06-22-2015,15:56,SPECI,Normal,360,10.0,,,9999.0,,19.0,16.0,29.71,,,,,,,,,,,,,,,,,1900.0,2000.0,BKN,2000.0,OVC,2800.0,,,,
KRDR,06-22-2015,15:51,SPECI,Normal,350,9.0,,,9999.0,,19.0,16.0,29.71,,,,,,,,,,,,,,,,,1900.0,1900.0,BKN,1900.0,BKN,2800.0,,,,
KRDR,06-22-2015,15:23,SPECI,Normal,330,11.0,,,9999.0,,20.0,16.0,29.69,,,,,,,,,,,,,,,,4/8 Partly Cloudy,72000.0,1600.0,SCT,1600.0,,,,,,
KRDR,06-22-2015,15:08,SPECI,Normal,340,14.0,,,9999.0,,18.0,15.0,29.69,,,,,,,,,,,,,,,,,1500.0,1500.0,OVC,1500.0,,,,,,
KRDR,06-22-2015,14:58,METAR,Normal,350,10.0,20.0,,9999.0,,17.9,15.3,29.69,1005.6,,,,,,,,,,,,TRACE,,,,1400.0,1400.0,OVC,1400.0,,,,,,
KRDR,06-22-2015,14:48,SPECI,Normal,350,15.0,,,9999.0,,18.0,16.0,29.69,,,,,,,,,,,,,,,,,1200.0,1200.0,OVC,1200.0,,,,,,
KRDR,06-22-2015,14:13,SPECI,Normal,330,9.0,,,9999.0,,17.0,15.0,29.67,,,,,,,,,,,,,,,,,1100.0,1100.0,BKN,1100.0,OVC,1600.0,,,,
KRDR,06-22-2015,14:03,SPECI,Normal,330,8.0,,,9999.0,,17.0,15.0,29.67,,,,,,,,,,,,,,,,,700.0,900.0,BKN,900.0,OVC,1600.0,,,,
KRDR,06-22-2015,13:58,METAR,Normal,340,9.0,,,9999.0,,17.0,15.0,29.67,1004.9,,,,,,,,,,,TRACE,,,,,700.0,900.0,BKN,900.0,OVC,1500.0,,,,
KRDR,06-22-2015,13:48,SPECI,Normal,330,7.0,,,9999.0,,16.0,15.0,29.67,,,,,,,,,,,,,,,,,700.0,700.0,BKN,700.0,OVC,1400.0,,,,
KRDR,06-22-2015,13:38,SPECI,Normal,330,8.0,,,9999.0,,16.0,15.0,29.67,,,,,,,,,,,,,,,,,800.0,800.0,BKN,800.0,OVC,1200.0,,,,
KRDR,06-22-2015,13:33,SPECI,Normal,330,7.0,,,9999.0,,16.0,15.0,29.67,,,,,,,,,,,,,,,,,700.0,700.0,BKN,700.0,BKN,1200.0,OVC,10000.0,,
KRDR,06-22-2015,13:23,SPECI,Normal,330,6.0,,,9999.0,,16.0,15.0,29.67,,,,,,,,,,,,,,,,,800.0,800.0,BKN,800.0,BKN,1400.0,BKN,10000.0,,
KRDR,06-22-2015,13:18,SPECI,Normal,320,7.0,,,9999.0,,16.0,15.0,29.67,,,,,,,,,,,,,,,,,1300.0,800.0,SCT,800.0,BKN,1300.0,BKN,11000.0,,
KRDR,06-22-2015,13:13,SPECI,Normal,330,5.0,,,9999.0,,16.0,15.0,29.66,,,,,,,,,,,,,,,,,10000.0,800.0,FEW,800.0,SCT,1300.0,BKN,10000.0,,
KRDR,06-22-2015,13:08,SPECI,Normal,340,3.0,,,9999.0,,16.0,15.0,29.66,,,,,,,,,,,,,,,,,1300.0,1300.0,BKN,1300.0,BKN,10000.0,,,,
KRDR,06-22-2015,13:03,SPECI,Normal,320,4.0,,,9999.0,Light Drizzle,16.0,15.0,29.66,,51,,,,,,,,,,,,,,,900.0,1000.0,SCT,1000.0,BKN,1400.0,,,,
KRDR,06-22-2015,12:58,METAR,Normal,320,5.0,,,9999.0,Light Drizzle,16.0,14.0,29.67,1004.9,51,,,,,,,,,,TRACE,,,,,900.0,1100.0,BKN,1100.0,,,,,,
KRDR,06-22-2015,12:55,SPECI,Normal,330,5.0,,,9999.0,Light Drizzle,16.0,14.0,29.66,,51,,,,,,,,,,,,,,,900.0,900.0,SCT,900.0,BKN,1300.0,,,,
KRDR,06-22-2015,12:50,SPECI,Normal,340,5.0,,,9999.0,Light Drizzle,16.0,14.0,29.66,,51,,,,,,,,,,,,,,,800.0,1000.0,OVC,1000.0,,,,,,
KRDR,06-22-2015,12:45,SPECI,Normal,330,7.0,,,9999.0,,16.0,14.0,29.67,,,,,,,,,,,,,,,,,800.0,1000.0,OVC,1000.0,,,,,,
KRDR,06-22-2015,11:58,METAR,Normal,310,6.0,,,9999.0,,14.8,14.2,29.68,1005.3,,,,,,,,,,,,,.01 IN,.3 IN,,800.0,800.0,OVC,800.0,,,,,,
KRDR,06-22-2015,11:34,SPECI,Normal,300,5.0,,,9999.0,,14.0,13.0,29.66,,,,,,,,,,,,,,,,,1000.0,1000.0,BKN,1000.0,BKN,12000.0,,,,
KRDR,06-22-2015,11:24,SPECI,Normal,310,5.0,,,9999.0,,14.0,13.0,29.66,,,,,,,,,,,,,,,,4/8 Partly Cloudy,72000.0,1000.0,FEW,1000.0,SCT,12000.0,,,,
KRDR,06-22-2015,10:58,METAR,Calm,,0.0,,,9999.0,,13.6,12.9,29.62,1003.2,,,,,,,,,,,,,,,Clear,72000.0,,,,,,,,,
KRDR,06-22-2015,09:58,METAR,Normal,160,5.0,,,9999.0,,15.1,13.5,29.65,1004.2,,,,,,,,,,,,,,,Clear,72000.0,,,,,,,,,
KRDR,06-22-2015,08:58,METAR,Normal,180,9.0,,,9999.0,,15.5,13.9,29.68,1005.2,,,,,,,,,,,,.01 IN,,,Clear,72000.0,,,,,,,,,
KRDR,06-22-2015,07:58,METAR,Normal,170,6.0,,,9999.0,,15.3,13.9,29.72,1006.6,,,,,,,,,,,,,,,Clear,72000.0,,,,,,,,,
KRDR,06-22-2015,06:58,METAR,Normal,150,12.0,,,9999.0,,15.6,14.0,29.69,1005.6,,,,,,,,,,,.01 IN,,,,Clear,72000.0,,,,,,,,,
KRDR,06-22-2015,06:25,SPECI,Normal,120,17.0,,,9999.0,,16.0,15.0,29.69,,,,,,,,,,,,,,,,2/8 Mostly Clear,72000.0,1100.0,FEW,1100.0,,,,,,
KRDR,06-22-2015,06:25,METAR,Normal,120,17.0,,,9999.0,,16.0,15.0,29.69,,,,,,,,,,,,,,,,2/8 Mostly Clear,72000.0,1100.0,FEW,1100.0,,,,,,
KRDR,06-22-2015,06:13,METAR,Normal,110,12.0,,,9999.0,,16.0,14.0,29.73,,,,,,,,,,,,,,,,4/8 Partly Cloudy,72000.0,3400.0,SCT,3400.0,,,,,,
KRDR,06-22-2015,06:13,SPECI,Normal,110,12.0,,,9999.0,,16.0,14.0,29.73,,,,,,,,,,,,,,,,4/8 Partly Cloudy,72000.0,3400.0,SCT,3400.0,,,,,,
KRDR,06-22-2015,06:08,METAR,Normal,110,11.0,,,9999.0,Light Rain,16.0,15.0,29.74,,61,,,,,,,,,,,,,,,3500.0,3500.0,BKN,3500.0,,,,,,
KRDR,06-22-2015,05:58,METAR,Normal,70,8.0,,,9999.0,Light Rain,15.7,14.6,29.77,1008.3,61,,,,,,,,,,.16 IN,,.29 IN,,,3700.0,3700.0,OVC,3700.0,,,,,,
KRDR,06-22-2015,05:50,SPECI,Normal,40,5.0,,,8000.0,Rain/Mist,16.0,15.0,29.78,,62,10,,,,,,,,,,,,,,4300.0,4300.0,OVC,4300.0,,,,,,
KRDR,06-22-2015,05:40,SPECI,Normal,40,8.0,,,8000.0,Rain/Mist,16.0,15.0,29.79,,62,10,,,,,,,,,,,,,,4400.0,4400.0,OVC,4400.0,,,,,,
KRDR,06-22-2015,05:40,METAR,Normal,40,8.0,,,8000.0,Rain/Mist,16.0,15.0,29.79,,62,10,,,,,,,,,,,,,,4400.0,4400.0,OVC,4400.0,,,,,,
KRDR,06-22-2015,05:25,METAR,Normal,20,7.0,,,9999.0,Light Rain/Mist,16.0,15.0,29.81,,61,10,,,,,,,,,,,,,,5000.0,5000.0,OVC,5000.0,,,,,,
KRDR,06-22-2015,05:25,SPECI,Normal,20,7.0,,,9999.0,Light Rain/Mist,16.0,15.0,29.81,,61,10,,,,,,,,,,,,,,5000.0,5000.0,OVC,5000.0,,,,,,
KRDR,06-22-2015,05:05,SPECI,Normal,330,10.0,,,9999.0,Light Rain,17.0,15.0,29.83,,61,,,,,,,,,,,,,,,6000.0,6000.0,OVC,6000.0,,,,,,
KRDR,06-22-2015,05:03,SPECI,Normal,,,,,,Thunderstorm with Rain or Snow/Rain,,,29.83,,,,,95,63,,,,,,,,,,,,,,,,,,,,
KRDR,06-22-2015,04:58,METAR,Normal,330,10.0,,,9999.0,Thunderstorm and Rain or Snow Showers,16.6,14.8,29.83,1010.4,92,,,,,,,,,,.13 IN,,,,,6000.0,6000.0,OVC,6000.0,,,,,,
KRDR,06-22-2015,04:50,SPECI,Normal,360,11.0,,,9999.0,Thunderstorm and Rain or Snow Showers/Mist,17.0,15.0,29.80,,92,10,,,,,,,,,,,,,,6000.0,6000.0,OVC,6000.0,,,,,,
KRDR,06-22-2015,04:23,SPECI,Normal,360,13.0,,,9999.0,Light Rain,17.0,14.0,29.78,,61,,,,,,,,,,,,,,,4300.0,4300.0,BKN,4300.0,BKN,9100.0,,,,
KRDR,06-22-2015,04:09,SPECI,Normal,360,12.0,20.0,,9999.0,Light Rain,18.0,14.0,29.76,,61,,,,,,,,,,,,,,4/8 Partly Cloudy,72000.0,3900.0,FEW,3900.0,SCT,9100.0,,,,
KRDR,06-22-2015,03:58,METAR,Normal,10,15.0,19.0,,9999.0,Light Rain,18.5,13.7,29.76,1007.9,61,,,,,,,,,,TRACE,,,,,9000.0,4800.0,FEW,4800.0,BKN,9100.0,,,,
KRDR,06-22-2015,03:32,SPECI,Normal,310,4.0,,,9999.0,Light Rain,23.0,11.0,29.76,,61,,,,,,,,,,,,,,,10000.0,7000.0,FEW,7000.0,BKN,10000.0,,,,
KRDR,06-22-2015,02:59,METAR,Normal,100,9.0,,,9999.0,Light Rain,23.3,10.5,29.75,1007.5,61,,,,,,,,,,TRACE,TRACE,,,2/8 Mostly Clear,72000.0,5000.0,FEW,5000.0,,,,,,
KRDR,06-22-2015,02:37,SPECI,Normal,120,7.0,,,3200.0,Light Drizzle,24.0,10.0,29.76,,51,,,,,,,,,,,,,,2/8 Mostly Clear,72000.0,10000.0,FEW,10000.0,,,,,,
KRDR,06-22-2015,01:58,METAR,Normal,120,6.0,,,9999.0,,23.8,11.0,29.75,1007.6,,,,,,,,,,,,,,,,20000.0,10000.0,SCT,10000.0,BKN,20000.0,,,,
KRDR,06-22-2015,01:53,SPECI,Normal,120,6.0,,,9999.0,,24.0,11.0,29.75,,,,,,,,,,,,,,,,,20000.0,10000.0,SCT,10000.0,BKN,20000.0,,,,
KRDR,06-22-2015,01:48,SPECI,Normal,120,5.0,,,9999.0,Haze Smoke or Dust,24.0,11.0,29.75,,05,,,,,,,,,,,,,,,20000.0,10000.0,SCT,10000.0,BKN,20000.0,,,,
KRDR,06-22-2015,01:43,SPECI,Normal,120,5.0,,,9999.0,,24.0,11.0,29.75,,,,,,,,,,,,,,,,,20000.0,10000.0,SCT,10000.0,BKN,20000.0,,,,
KRDR,06-22-2015,01:03,SPECI,Normal,130,4.0,,,9999.0,,25.0,11.0,29.76,,,,,,,,,,,,,,,,,10000.0,10000.0,BKN,10000.0,,,,,,
KRDR,06-22-2015,00:58,METAR,Normal,120,5.0,,,4000.0,Haze Smoke or Dust,24.9,11.9,29.77,1008.3,05,,,,,,,,,,,,,,Clear,72000.0,,,,,,,,,
KRDR,06-21-2015,23:58,METAR,Normal,120,5.0,,,9999.0,,25.8,10.6,29.77,1008.4,,,,,,,,,,,,,,,Clear,72000.0,,,,,,,,,
KRDR,06-21-2015,22:58,METAR,Variable,,2.0,,,9999.0,,26.7,9.4,29.81,1009.7,,,,,,,,,,,,,,,Clear,72000.0,,,,,,,,,
KRDR,06-21-2015,21:58,METAR,Normal,340,1.0,,,9999.0,,26.7,9.0,29.82,1010.1,,,,,,,,,,,,,,,Clear,72000.0,,,,,,,,,
KRDR,06-21-2015,20:58,METAR,Variable,,5.0,,,9999.0,,27.1,10.1,29.83,1010.4,,,,,,,,,,,,,,,Clear,72000.0,,,,,,,,,
KRDR,06-21-2015,19:58,METAR,Normal,310,8.0,,,9999.0,,26.5,9.7,29.85,1011.1,,,,,,,,,,,,,,,Clear,72000.0,,,,,,,,,
KRDR,06-21-2015,18:58,METAR,Normal,310,10.0,,,9999.0,,26.4,9.4,29.86,1011.4,,,,,,,,,,,,,,,Clear,72000.0,,,,,,,,,
KRDR,06-21-2015,17:58,METAR,Normal,310,14.0,19.0,,9999.0,,25.7,10.3,29.87,1011.8,,,,,,,,,,,,,,,Clear,72000.0,,,,,,,,,
KRDR,06-21-2015,16:58,METAR,Normal,310,12.0,17.0,,9999.0,,25.4,11.9,29.87,1011.8,,,,,,,,,,,,,,,Clear,72000.0,,,,,,,,,
KRDR,06-21-2015,15:58,METAR,Normal,280,8.0,,,9999.0,,24.3,12.9,29.87,1011.8,,,,,,,,,,,,,,,Clear,72000.0,,,,,,,,,
KRDR,06-21-2015,14:58,METAR,Normal,290,7.0,,,9999.0,,23.1,15.4,29.87,1011.8,,,,,,,,,,,,,,,Clear,72000.0,,,,,,,,,
KRDR,06-21-2015,13:58,METAR,Normal,310,5.0,,,9999.0,,20.4,14.7,29.88,1012.1,,,,,,,,,,,,,,,Clear,72000.0,,,,,,,,,
KRDR,06-21-2015,12:58,METAR,Normal,300,5.0,,,9999.0,,17.8,15.0,29.87,1011.8,,,,,,,,,,,,,,,Clear,72000.0,,,,,,,,,
KRDR,06-21-2015,11:58,METAR,Normal,270,3.0,,,9999.0,,13.2,12.7,29.86,1011.6,,,,,,,,,,,,,,,Clear,72000.0,,,,,,,,,
KRDR,06-21-2015,10:58,METAR,Normal,220,1.0,,,9999.0,,12.0,11.5,29.85,1011.3,,,,,,,,,,,,,,,Clear,72000.0,,,,,,,,,
KRDR,06-21-2015,10:33,SPECI,Normal,240,3.0,,,9999.0,,12.0,11.0,29.85,,,,,,,,,,,,,,,,Clear,72000.0,,,,,,,,,
KRDR,06-21-2015,10:23,SPECI,Normal,230,3.0,,,3200.0,Mist,12.0,11.0,29.85,,10,,,,,,,,,,,,,,Clear,72000.0,,,,,,,,,
KRDR,06-21-2015,10:03,SPECI,Normal,220,2.0,,,9999.0,,12.0,12.0,29.85,,,,,,,,,,,,,,,,Clear,72000.0,,,,,,,,,
KRDR,06-21-2015,09:58,METAR,Normal,220,2.0,,,3200.0,Mist,12.0,11.0,29.85,1011.3,10,,,,,,,,,,,,,,Clear,72000.0,,,,,,,,,
KRDR,06-21-2015,09:53,SPECI,Normal,230,3.0,,,1200.0,Mist,12.0,11.0,29.85,,10,,,,,,,,,,,,,,Clear,72000.0,,,,,,,,,
KRDR,06-21-2015,09:48,SPECI,Normal,240,3.0,,,800.0,Fog,12.0,11.0,29.84,,30,,,,,,,,,,,,,,Clear,72000.0,,,,,,,,,
KRDR,06-21-2015,09:38,SPECI,Calm,,0.0,,,800.0,Fog,12.0,11.0,29.84,,30,,,,,,,,,,,,,,Clear,72000.0,,,,,,,,,
KRDR,06-21-2015,09:33,SPECI,Calm,,0.0,,,800.0,Fog,11.0,11.0,29.84,,30,,,,,,,,,,,,,,Clear,72000.0,,,,,,,,,
KRDR,06-21-2015,09:28,SPECI,Calm,,0.0,,,1200.0,Mist,12.0,11.0,29.84,,10,,,,,,,,,,,,,,Clear,72000.0,,,,,,,,,
KRDR,06-21-2015,09:23,SPECI,Calm,,0.0,,,4000.0,Mist,12.0,12.0,29.84,,10,,,,,,,,,,,,,,Clear,72000.0,,,,,,,,,
KRDR,06-21-2015,09:18,SPECI,Calm,,0.0,,,9999.0,,12.0,12.0,29.84,,,,,,,,,,,,,,,,Clear,72000.0,,,,,,,,,
KRDR,06-21-2015,09:13,SPECI,Calm,,0.0,,,4800.0,Mist,13.0,12.0,29.84,,10,,,,,,,,,,,,,,Clear,72000.0,,,,,,,,,
KRDR,06-21-2015,09:08,SPECI,Calm,,0.0,,,4800.0,Mist,13.0,13.0,29.84,,10,,,,,,,,,,,,,,Clear,72000.0,,,,,,,,,
KRDR,06-21-2015,09:03,SPECI,Calm,,0.0,,,9999.0,,13.0,12.0,29.84,,,,,,,,,,,,,,,,Clear,72000.0,,,,,,,,,
KRDR,06-21-2015,08:58,METAR,Calm,,0.0,,,9999.0,,12.7,12.2,29.84,1010.9,,,,,,,,,,,,,,,Clear,72000.0,,,,,,,,,
KRDR,06-21-2015,08:48,SPECI,Normal,260,2.0,,,9999.0,,12.0,12.0,29.84,,,,,,,,,,,,,,,,Clear,72000.0,,,,,,,,,
KRDR,06-21-2015,08:38,SPECI,Normal,260,4.0,,,9999.0,,12.0,11.0,29.84,,,,,,,,,,,,,,,,Clear,72000.0,,,,,,,,,
KRDR,06-21-2015,07:58,METAR,Normal,230,3.0,,,9999.0,,12.3,11.7,29.84,1011.0,,,,,,,,,,,,,,,Clear,72000.0,,,,,,,,,
KRDR,06-21-2015,04:58,METAR,Normal,230,4.0,,,9999.0,,14.4,13.6,29.85,1011.3,,,,,,,,,,,,,,,Clear,72000.0,,,,,,,,,
KRDR,06-21-2015,03:58,METAR,Normal,180,2.0,,,9999.0,,14.5,13.6,29.84,1011.1,,,,,,,,,,,,,,,2/8 Mostly Clear,72000.0,4100.0,FEW,4100.0,,,,,,
KRDR,06-21-2015,02:58,METAR,Calm,,0.0,,,9999.0,,16.7,14.3,29.84,1011.0,,,,,,,,,,,,,,,2/8 Mostly Clear,72000.0,5500.0,FEW,5500.0,,,,,,
KRDR,06-21-2015,01:58,METAR,Normal,120,4.0,,,9999.0,,18.7,14.7,29.81,1009.9,,,,,,,,,,,,,,,Clear,72000.0,,,,,,,,,
KRDR,06-21-2015,00:58,METAR,Normal,100,4.0,,,9999.0,,20.4,14.7,29.81,1009.9,,,,,,,,,,,,,,,4/8 Partly Cloudy,72000.0,3600.0,FEW,3600.0,SCT,4700.0,,,,
KRDR,06-20-2015,23:58,METAR,Normal,60,9.0,,,9999.0,,20.0,15.0,29.79,1009.2,,,,,,,,,,,,,,,Clear,72000.0,,,,,,,,,
KRDR,06-20-2015,22:58,METAR,Normal,20,5.0,,,9999.0,,21.4,15.6,29.80,1009.5,,,,,,,,,,,,,,,4/8 Partly Cloudy,72000.0,2700.0,FEW,2700.0,SCT,3500.0,,,,
KRDR,06-20-2015,21:58,METAR,Normal,20,9.0,,,9999.0,,21.0,15.0,29.80,1009.5,,,,,,,,,,,,,,,Clear,72000.0,,,,,,,,,
KRDR,06-20-2015,20:58,METAR,Normal,330,6.0,,,9999.0,,21.4,15.5,29.81,1009.8,,,,,,,,,,,,,,,2/8 Mostly Clear,72000.0,3200.0,FEW,3200.0,,,,,,
KRDR,06-20-2015,20:18,SPECI,Normal,20,8.0,,,9999.0,,21.0,16.0,29.80,,,,,,,,,,,,,,,,4/8 Partly Cloudy,72000.0,1900.0,SCT,1900.0,SCT,2500.0,,,,
KRDR,06-20-2015,20:13,SPECI,Normal,350,7.0,,,9999.0,,21.0,16.0,29.81,,,,,,,,,,,,,,,,,1900.0,1900.0,BKN,1900.0,BKN,2500.0,,,,
KRDR,06-20-2015,19:58,METAR,Normal,10,7.0,,,9999.0,,20.2,15.4,29.80,1009.5,,,,,,,,,,,,,,,,1700.0,1800.0,SCT,1800.0,BKN,2700.0,,,,
KRDR,06-20-2015,19:53,SPECI,Variable,10,7.0,,,9999.0,,20.0,15.0,29.80,,,,,,,,,,,,,,,,,1700.0,1800.0,SCT,1800.0,BKN,2700.0,,,,
KRDR,06-20-2015,18:58,METAR,Normal,10,6.0,,,9999.0,,18.4,14.9,29.81,1009.9,,,,,,,,,,,,,,,,1600.0,1600.0,OVC,1600.0,,,,,,
KRDR,06-20-2015,18:38,SPECI,Normal,310,7.0,,,9999.0,,18.0,14.0,29.80,,,,,,,,,,,,,,,,,1500.0,1500.0,OVC,1500.0,,,,,,
KRDR,06-20-2015,18:28,SPECI,Normal,340,8.0,,,9999.0,,18.0,14.0,29.80,,,,,,,,,,,,,,,,,1400.0,1400.0,OVC,1400.0,,,,,,
KRDR,06-20-2015,18:18,SPECI,Normal,310,7.0,,,9999.0,,18.0,14.0,29.80,,,,,,,,,,,,,,,,,1500.0,1500.0,OVC,1500.0,,,,,,
KRDR,06-20-2015,17:58,METAR,Normal,330,7.0,,,9999.0,,17.4,13.9,29.80,1009.6,,,,,,,,,,,,,,,,1200.0,1200.0,OVC,1200.0,,,,,,
KRDR,06-20-2015,17:47,SPECI,Normal,330,3.0,,,9999.0,,17.0,14.0,29.80,,,,,,,,,,,,,,,,,1200.0,1200.0,OVC,1200.0,,,,,,
KRDR,06-20-2015,17:37,SPECI,Normal,330,6.0,,,9999.0,,17.0,14.0,29.80,,,,,,,,,,,,,,,,,1100.0,1100.0,OVC,1100.0,,,,,,
KRDR,06-20-2015,17:36,SPECI,Normal,330,6.0,,,9999.0,,17.0,14.0,29.80,,,,,,,,,,,,,,,,,1200.0,1200.0,OVC,1200.0,,,,,,
KRDR,06-20-2015,17:01,SPECI,Normal,330,8.0,,,9999.0,,17.0,14.0,29.80,,,,,,,,,,,,,,,,,1100.0,1100.0,OVC,1100.0,,,,,,
KRDR,06-20-2015,16:58,METAR,Normal,340,5.0,,,9999.0,,16.7,13.8,29.80,1009.6,,,,,,,,,,,,,,,,1200.0,1200.0,OVC,1200.0,,,,,,
KRDR,06-20-2015,16:08,SPECI,Normal,330,6.0,,,9999.0,,16.0,14.0,29.80,,,,,,,,,,,,,,,,,700.0,1000.0,OVC,1000.0,,,,,,
KRDR,06-20-2015,16:03,SPECI,Normal,350,6.0,,,9999.0,,16.0,14.0,29.80,,,,,,,,,,,,,,,,,700.0,900.0,OVC,900.0,,,,,,
KRDR,06-20-2015,14:28,SPECI,Normal,350,8.0,,,9999.0,,15.0,14.0,29.79,,,,,,,,,,,,,,,,,600.0,600.0,OVC,600.0,,,,,,
KRDR,06-20-2015,14:08,SPECI,Normal,10,6.0,,,9999.0,,15.0,14.0,29.78,,,,,,,,,,,,,,,,,500.0,500.0,OVC,500.0,,,,,,
KRDR,06-20-2015,13:58,METAR,Normal,360,8.0,,,9999.0,,14.5,13.9,29.78,1008.9,,,,,,,,,,,,,,,,400.0,400.0,OVC,400.0,,,,,,
KRDR,06-20-2015,13:48,SPECI,Normal,360,8.0,,,9999.0,,15.0,14.0,29.78,,,,,,,,,,,,,,,,,400.0,400.0,OVC,400.0,,,,,,
KRDR,06-20-2015,13:18,SPECI,Normal,10,11.0,,,9999.0,,14.0,14.0,29.76,,,,,,,,,,,,,,,,,300.0,300.0,BKN,300.0,OVC,700.0,,,,
KRDR,06-20-2015,12:58,METAR,Normal,10,10.0,,,9999.0,,14.0,13.6,29.75,1007.9,,,,,,,,,,,,,,,,600.0,600.0,OVC,600.0,,,,,,
KRDR,06-20-2015,12:53,SPECI,Normal,10,11.0,,,9999.0,,14.0,14.0,29.75,,,,,,,,,,,,,,,,,600.0,600.0,OVC,600.0,,,,,,
KRDR,06-20-2015,12:43,SPECI,Normal,10,10.0,,,9999.0,,14.0,14.0,29.75,,,,,,,,,,,,,,,,,300.0,500.0,OVC,500.0,,,,,,
KRDR,06-20-2015,12:28,SPECI,Normal,360,11.0,,,8000.0,Mist,14.0,13.0,29.75,,10,,,,,,,,,,,,,,,300.0,300.0,OVC,300.0,,,,,,
KRDR,06-20-2015,12:18,SPECI,Normal,360,10.0,,,4800.0,Mist,14.0,13.0,29.74,,10,,,,,,,,,,,,,,,200.0,200.0,OVC,200.0,,,,,,
KRDR,06-20-2015,12:08,SPECI,Normal,10,11.0,,,6400.0,Mist,14.0,14.0,29.74,,10,,,,,,,,,,,,,,,300.0,300.0,OVC,300.0,,,,,,
KRDR,06-20-2015,11:58,METAR,Normal,10,11.0,,,4800.0,Mist,14.1,13.6,29.74,1007.4,10,,,,,,,,,,,,,.06 IN,,200.0,200.0,OVC,200.0,,,,,,
KRDR,06-20-2015,11:28,SPECI,Normal,360,9.0,,,4800.0,Mist,14.0,14.0,29.73,,10,,,,,,,,,,,,,,,200.0,200.0,OVC,200.0,,,,,,
KRDR,06-20-2015,11:18,SPECI,Normal,360,10.0,,,2800.0,Mist,14.0,14.0,29.73,,10,,,,,,,,,,,,,,,200.0,200.0,OVC,200.0,,,,,,
KRDR,06-20-2015,11:13,SPECI,Normal,10,9.0,,,3200.0,Mist,14.0,14.0,29.73,,10,,,,,,,,,,,,,,,200.0,200.0,OVC,200.0,,,,,,
KRDR,06-20-2015,11:03,SPECI,Normal,10,8.0,,,2800.0,Mist,14.0,14.0,29.73,,10,,,,,,,,,,,,,,,200.0,200.0,OVC,200.0,,,,,,
KRDR,06-20-2015,10:58,METAR,Normal,10,10.0,,,8000.0,Mist,14.2,13.7,29.73,1007.0,10,,,,,,,,,,,,,,,200.0,200.0,OVC,200.0,,,,,,
KRDR,06-20-2015,10:53,SPECI,Normal,360,9.0,,,4800.0,Mist,14.0,14.0,29.73,,10,,,,,,,,,,,,,,,200.0,200.0,OVC,200.0,,,,,,
KRDR,06-20-2015,10:48,SPECI,Normal,360,8.0,,,2800.0,Mist,14.0,14.0,29.72,,10,,,,,,,,,,,,,,,200.0,200.0,OVC,200.0,,,,,,
KRDR,06-20-2015,10:43,SPECI,Normal,10,9.0,,,2400.0,Mist,14.0,14.0,29.72,,10,,,,,,,,,,,,,,,200.0,200.0,OVC,200.0,,,,,,
KRDR,06-20-2015,10:38,SPECI,Normal,10,9.0,,,3200.0,Mist,14.0,14.0,29.72,,10,,,,,,,,,,,,,,,200.0,200.0,OVC,200.0,,,,,,
KRDR,06-20-2015,10:33,SPECI,Normal,10,8.0,,,4800.0,Mist,14.0,14.0,29.72,,10,,,,,,,,,,,,,,,200.0,200.0,OVC,200.0,,,,,,
KRDR,06-20-2015,10:28,SPECI,Normal,10,8.0,,,8000.0,Mist,14.0,14.0,29.72,,10,,,,,,,,,,,,,,,200.0,200.0,OVC,200.0,,,,,,
KRDR,06-20-2015,10:23,SPECI,Normal,10,7.0,,,9999.0,,14.0,14.0,29.72,,,,,,,,,,,,,,,,,200.0,200.0,OVC,200.0,,,,,,
KRDR,06-20-2015,10:18,SPECI,Normal,10,7.0,,,9999.0,,15.0,14.0,29.72,,,,,,,,,,,,,,,,,300.0,300.0,OVC,300.0,,,,,,
KRDR,06-20-2015,09:58,METAR,Normal,10,5.0,,,9999.0,,14.5,14.1,29.72,1006.6,,,,,,,,,,,,,,,,300.0,300.0,OVC,300.0,,,,,,
KRDR,06-20-2015,08:58,METAR,Normal,90,3.0,,,9999.0,,14.6,14.0,29.72,1006.6,,,,,,,,,,,,,,,,300.0,300.0,OVC,300.0,,,,,,
KRDR,06-20-2015,08:33,SPECI,Normal,30,6.0,,,9999.0,,15.0,14.0,29.74,,,,,,,,,,,,,,,,,400.0,400.0,OVC,400.0,,,,,,
KRDR,06-20-2015,07:58,METAR,Normal,40,8.0,,,9999.0,,14.8,14.0,29.74,1007.4,,,,,,,,,,,,,,,,500.0,500.0,OVC,500.0,,,,,,
KRDR,06-20-2015,07:18,SPECI,Normal,30,13.0,,,9999.0,,15.0,15.0,29.70,,,,,,,,,,,,,,,,,500.0,500.0,OVC,500.0,,,,,,
KRDR,06-20-2015,06:58,METAR,Normal,10,11.0,,,9999.0,,15.0,14.5,29.71,1006.3,,,,,,,,,,,,,,,,600.0,600.0,BKN,600.0,,,,,,
KRDR,06-20-2015,06:56,SPECI,Normal,10,12.0,,,9999.0,,15.0,15.0,29.71,,,,,,,,,,,,,,,,,600.0,600.0,BKN,600.0,,,,,,
KRDR,06-20-2015,06:46,SPECI,Normal,10,9.0,,,9999.0,,15.0,14.0,29.70,,,,,,,,,,,,,,,,,700.0,700.0,BKN,700.0,,,,,,
KRDR,06-20-2015,06:36,SPECI,Normal,10,7.0,,,9999.0,,14.0,14.0,29.70,,,,,,,,,,,,,,,,2/8 Mostly Clear,72000.0,700.0,FEW,700.0,,,,,,
KRDR,06-20-2015,06:33,SPECI,Normal,10,7.0,,,9999.0,,14.0,14.0,29.70,,,,,,,,,,,,,,,,Clear,72000.0,,,,,,,,,
KRDR,06-20-2015,06:18,SPECI,Normal,360,4.0,,,9999.0,,14.0,14.0,29.70,,,,,,,,,,,,,,,,Clear,72000.0,,,,,,,,,
KRDR,06-20-2015,05:40,SPECI,Normal,20,4.0,,,9999.0,,15.0,15.0,29.73,,,,,,,,,,,,,,,,2/8 Mostly Clear,72000.0,1100.0,FEW,1100.0,,,,,,
KRDR,06-20-2015,05:34,SPECI,Normal,10,2.0,,,9999.0,,16.0,15.0,29.73,,,,,,,,,,,,,,,,4/8 Partly Cloudy,72000.0,3700.0,SCT,3700.0,,,,,,
KRDR,06-20-2015,05:23,SPECI,Normal,70,3.0,,,9999.0,Light Rain,16.0,15.0,29.72,,61,,,,,,,,,,,,,,,3800.0,3800.0,BKN,3800.0,,,,,,
KRDR,06-20-2015,05:08,SPECI,Normal,340,7.0,,,9999.0,Light Rain,16.0,15.0,29.76,,61,,,,,,,,,,,,,,,5000.0,5000.0,BKN,5000.0,,,,,,
KRDR,06-20-2015,04:58,METAR,Normal,330,7.0,,,9999.0,Light Rain,15.4,14.6,29.77,1008.6,61,,,,,,,,,,.02 IN,,,,4/8 Partly Cloudy,72000.0,3900.0,SCT,3900.0,,,,,,
KRDR,06-20-2015,04:55,SPECI,Normal,320,5.0,,,9999.0,Light Rain,15.0,15.0,29.77,,61,,,,,,,,,,,,,,4/8 Partly Cloudy,72000.0,2700.0,SCT,2700.0,,,,,,
KRDR,06-20-2015,04:25,SPECI,Calm,,0.0,,,9999.0,Light Rain,16.0,15.0,29.77,,61,,,,,,,,,,,,,,2/8 Mostly Clear,72000.0,600.0,FEW,600.0,,,,,,
KRDR,06-20-2015,04:20,SPECI,Normal,350,3.0,,,9999.0,,16.0,15.0,29.78,,,,,,,,,,,,,,,,Clear,72000.0,,,,,,,,,
KRDR,06-20-2015,04:13,SPECI,Normal,350,4.0,,,9999.0,Light Rain,16.0,15.0,29.78,,61,,,,,,,,,,,,,,2/8 Mostly Clear,72000.0,4300.0,FEW,4300.0,,,,,,
KRDR,06-20-2015,04:09,SPECI,Normal,360,5.0,,,9999.0,Rain,16.0,15.0,29.78,,,,,61,,,,,,,,,,,,900.0,900.0,BKN,900.0,OVC,4000.0,,,,
KRDR,06-20-2015,04:03,SPECI,Normal,360,6.0,,,9999.0,Light Drizzle,16.0,15.0,29.78,,51,,,,,,,,,,,,,,4/8 Partly Cloudy,72000.0,900.0,FEW,900.0,SCT,4300.0,,,,
KRDR,06-20-2015,03:53,SPECI,Normal,10,5.0,,,9999.0,,16.0,15.0,29.79,,,,,,,,,,,,,,,,,4300.0,900.0,SCT,900.0,BKN,4300.0,,,,
KRDR,06-20-2015,03:08,SPECI,Normal,360,10.0,,,9999.0,,17.0,15.0,29.78,,,,,,,,,,,,,,,,,900.0,900.0,BKN,900.0,,,,,,
KRDR,06-20-2015,02:58,METAR,Normal,360,9.0,,,9999.0,,16.9,15.1,29.78,1008.9,,,,,,,,,,,,,,,2/8 Mostly Clear,72000.0,1000.0,FEW,1000.0,,,,,,
KRDR,06-20-2015,02:55,SPECI,Normal,360,9.0,,,9999.0,,17.0,15.0,29.77,,,,,,,,,,,,,,,,2/8 Mostly Clear,72000.0,1100.0,FEW,1100.0,,,,,,
KRDR,06-20-2015,01:58,METAR,Normal,10,13.0,,,9999.0,,18.5,16.2,29.75,1007.9,,,,,,,,,,,,,,,2/8 Mostly Clear,72000.0,4900.0,FEW,4900.0,,,,,,
KRDR,06-20-2015,00:58,METAR,Normal,10,10.0,,,9999.0,,19.4,16.3,29.73,1007.3,,,,,,,,,,,,,,,Clear,72000.0,,,,,,,,,
KRDR,06-19-2015,23:58,METAR,Normal,360,14.0,,,9999.0,,23.7,18.8,29.70,1006.2,,,,,,,,,,,,,,,,4900.0,4900.0,BKN,4900.0,BKN,8000.0,,,,
KRDR,06-19-2015,22:58,METAR,Normal,220,9.0,,,9999.0,,28.2,18.2,29.71,1006.3,,,,,,,,,,,,,,,4/8 Partly Cloudy,72000.0,4900.0,FEW,4900.0,SCT,6500.0,,,,
KRDR,06-19-2015,21:58,METAR,Normal,230,13.0,,,9999.0,,27.3,17.2,29.73,1007.0,,,,,,,,,,,,,,,2/8 Mostly Clear,72000.0,4600.0,FEW,4600.0,,,,,,
KRDR,06-19-2015,20:58,METAR,Normal,210,13.0,,,9999.0,,26.5,16.9,29.75,1007.7,,,,,,,,,,,,,,,2/8 Mostly Clear,72000.0,4800.0,FEW,4800.0,,,,,,
KRDR,06-19-2015,19:58,METAR,Normal,230,14.0,23.0,180/29KTS,9999.0,,25.2,15.4,29.77,1008.4,,,,,,,,,,,,,,,,5500.0,4500.0,FEW,4500.0,OVC,5500.0,,,,
KRDR,06-19-2015,18:58,METAR,Normal,180,20.0,26.0,180/26KTS,9999.0,,25.5,16.4,29.77,1008.4,,,,,,,,,,,,,,,2/8 Mostly Clear,72000.0,10000.0,FEW,10000.0,,,,,,
KRDR,06-19-2015,17:58,METAR,Normal,160,9.0,15.0,,9999.0,,20.8,15.7,29.82,1010.3,,,,,,,,,,,.01 IN,,.02 IN,,4/8 Partly Cloudy,72000.0,7500.0,SCT,7500.0,SCT,11000.0,,,,
KRDR,06-19-2015,17:06,SPECI,Normal,160,9.0,,,9999.0,,19.0,15.0,29.84,,,,,,,,,,,,,,,,,7500.0,3200.0,SCT,3200.0,SCT,4800.0,BKN,7500.0,,
KRDR,06-19-2015,16:58,METAR,Normal,150,13.0,19.0,,9999.0,Light Rain,18.9,15.3,29.82,1010.3,61,,,,,,,,,,TRACE,,,,,6000.0,3900.0,SCT,3900.0,BKN,6000.0,OVC,9100.0,,
KRDR,06-19-2015,16:50,SPECI,Normal,160,16.0,,,9999.0,Light Rain,19.0,15.0,29.83,,61,,,,,,,,,,,,,,,7000.0,800.0,FEW,800.0,BKN,7000.0,,,,
KRDR,06-19-2015,15:58,METAR,Normal,190,10.0,,,9999.0,,19.0,12.9,29.91,1013.3,,,,,,,,,,,,,,,2/8 Mostly Clear,72000.0,11000.0,FEW,11000.0,,,,,,
KRDR,06-19-2015,14:58,METAR,Normal,140,10.0,,,9999.0,,15.8,11.4,29.93,1014.1,,,,,,,,,,,,.01 IN,,,Clear,72000.0,,,,,,,,,
KRDR,06-19-2015,13:58,METAR,Normal,150,9.0,,,9999.0,,13.9,10.6,29.98,1015.8,,,,,,,,,,,,,,,4/8 Partly Cloudy,72000.0,5500.0,FEW,5500.0,SCT,7000.0,,,,
KRDR,06-19-2015,12:58,METAR,Normal,140,7.0,,,9999.0,,12.6,11.3,30.00,1016.5,,,,,,,,,,,.01 IN,,,,,3900.0,3900.0,SCT,3900.0,BKN,6500.0,BKN,10000.0,,
KRDR,06-19-2015,12:17,SPECI,Normal,130,6.0,,,9999.0,,11.0,10.0,30.01,,,,,,,,,,,,,,,,,4400.0,4400.0,BKN,4400.0,OVC,6000.0,,,,
KRDR,06-19-2015,11:58,METAR,Normal,110,5.0,,,9999.0,Light Rain,11.0,10.0,30.02,1017.2,61,,,,,,,,,,.14 IN,,.16 IN,.17 IN,,6000.0,5000.0,SCT,5000.0,OVC,6000.0,,,,
KRDR,06-19-2015,11:54,SPECI,Normal,130,7.0,,,9999.0,Light Rain,11.0,10.0,30.03,,61,,,,,,,,,,,,,,,6000.0,4700.0,SCT,4700.0,OVC,6000.0,,,,
KRDR,06-19-2015,11:47,SPECI,Normal,130,5.0,,,9999.0,,11.0,10.0,30.03,,,,,,,,,,,,,,,,,6500.0,4600.0,SCT,4600.0,OVC,6500.0,,,,
KRDR,06-19-2015,11:28,SPECI,Normal,150,5.0,,,4800.0,Light Rain/Mist,11.0,9.0,30.04,,61,10,,,,,,,,,,,,,,4400.0,4400.0,OVC,4400.0,,,,,,
KRDR,06-19-2015,11:18,SPECI,Normal,100,3.0,,,2800.0,Light Rain/Mist,11.0,10.0,30.05,,61,10,,,,,,,,,,,,,,4700.0,4700.0,OVC,4700.0,,,,,,
KRDR,06-19-2015,11:13,SPECI,Normal,50,2.0,,,4000.0,Light Rain/Mist,11.0,10.0,30.06,,61,10,,,,,,,,,,,,,,5500.0,5500.0,OVC,5500.0,,,,,,
KRDR,06-19-2015,10:58,METAR,Normal,170,4.0,,,9999.0,Light Rain,12.1,9.0,30.05,1018.2,61,,,,,,,,,,.02 IN,,,,,7000.0,7000.0,OVC,7000.0,,,,,,
KRDR,06-19-2015,10:42,SPECI,Variable,,1.0,,,9999.0,Light Rain,12.0,9.0,30.05,,61,,,,,,,,,,,,,,,7000.0,3900.0,FEW,3900.0,SCT,5000.0,OVC,7000.0,,
KRDR,06-19-2015,10:27,SPECI,Normal,200,2.0,,,9999.0,Light Rain,13.0,9.0,30.05,,61,,,,,,,,,,,,,,,5500.0,3900.0,FEW,3900.0,BKN,5500.0,OVC,7000.0,,
KRDR,06-19-2015,10:12,SPECI,Normal,110,3.0,,,9999.0,Light Drizzle,13.0,7.0,30.04,,51,,,,,,,,,,,,,,,5500.0,5500.0,BKN,5500.0,OVC,6500.0,,,,
KRDR,06-19-2015,09:58,METAR,Normal,150,4.0,,,9999.0,,13.2,6.5,30.05,1018.2,,,,,,,,,,,,,,,,5000.0,5000.0,OVC,5000.0,,,,,,
KRDR,06-19-2015,08:58,METAR,Normal,130,4.0,,,9999.0,,13.3,6.5,30.06,1018.5,,,,,,,,,,,,,,,,6000.0,6000.0,BKN,6000.0,,,,,,
KRDR,06-19-2015,07:58,METAR,Normal,110,4.0,,,9999.0,,13.6,6.7,30.08,1019.2,,,,,,,,,,,,,,,2/8 Mostly Clear,72000.0,12000.0,FEW,12000.0,,,,,,
KRDR,06-19-2015,06:58,METAR,Normal,150,4.0,,,9999.0,,11.2,7.1,30.08,1019.2,,,,,,,,,,,,,,,Clear,72000.0,,,,,,,,,
KRDR,06-19-2015,05:58,METAR,Normal,120,1.0,,,9999.0,,10.7,7.7,30.10,1020.0,,,,,,,,,,,,,,,Clear,72000.0,,,,,,,,,
KRDR,06-19-2015,04:58,METAR,Calm,,0.0,,,9999.0,,11.9,8.1,30.10,1020.0,,,,,,,,,,,,,,,Clear,72000.0,,,,,,,,,
KRDR,06-19-2015,03:58,METAR,Normal,90,4.0,,,9999.0,,13.8,7.3,30.10,1019.9,,,,,,,,,,,,,,,Clear,72000.0,,,,,,,,,
KRDR,06-19-2015,02:58,METAR,Normal,50,1.0,,,9999.0,,14.6,8.6,30.11,1020.3,,,,,,,,,,,,,,,Clear,72000.0,,,,,,,,,
KRDR,06-19-2015,01:58,METAR,Calm,,0.0,,,9999.0,,16.3,7.5,30.11,1020.3,,,,,,,,,,,,,,,Clear,72000.0,,,,,,,,,
KRDR,06-19-2015,00:58,METAR,Normal,20,4.0,,,9999.0,,17.6,6.1,30.11,1020.3,,,,,,,,,,,,,,,Clear,72000.0,,,,,,,,,
KRDR,06-18-2015,23:58,METAR,Normal,20,3.0,,,9999.0,,19.0,5.1,30.13,1020.9,,,,,,,,,,,,,,,Clear,72000.0,,,,,,,,,
KRDR,06-18-2015,22:58,METAR,Variable,,4.0,,,9999.0,,19.7,6.3,30.14,1021.3,,,,,,,,,,,,,,,,5500.0,5500.0,BKN,5500.0,,,,,,
KRDR,06-18-2015,21:58,METAR,Variable,,4.0,,,9999.0,,19.5,6.5,30.16,1022.0,,,,,,,,,,,,,,,Clear,72000.0,,,,,,,,,
KRDR,06-18-2015,20:58,METAR,Normal,50,7.0,,,9999.0,,19.0,6.9,30.16,1022.0,,,,,,,,,,,,,,,2/8 Mostly Clear,72000.0,4900.0,FEW,4900.0,,,,,,
KRDR,06-18-2015,19:58,METAR,Normal,30,8.0,17.0,,9999.0,,18.5,7.1,30.17,1022.3,,,,,,,,,,,,,,,,4500.0,4500.0,BKN,4500.0,,,,,,
KRDR,06-18-2015,18:58,METAR,Normal,30,7.0,,,9999.0,,18.0,6.1,30.19,1023.0,,,,,,,,,,,,,,,Clear,72000.0,,,,,,,,,
KRDR,06-18-2015,17:58,METAR,Normal,50,9.0,,,9999.0,,16.9,6.0,30.19,1023.0,,,,,,,,,,,,,.01 IN,,Clear,72000.0,,,,,,,,,
KRDR,06-18-2015,16:58,METAR,Normal,40,8.0,,,9999.0,,16.3,6.6,30.19,1022.9,,,,,,,,,,,,,,,Clear,72000.0,,,,,,,,,
KRDR,06-18-2015,15:58,METAR,Normal,50,11.0,16.0,,9999.0,,15.3,6.6,30.19,1022.9,,,,,,,,,,,.01 IN,,,,2/8 Mostly Clear,72000.0,2400.0,FEW,2400.0,,,,,,
KRDR,06-18-2015,14:58,METAR,Normal,50,9.0,,,9999.0,,12.6,8.1,30.20,1023.3,,,,,,,,,,,,,,,,11000.0,7500.0,FEW,7500.0,BKN,11000.0,,,,
KRDR,06-18-2015,13:58,METAR,Normal,30,9.0,,,9999.0,,11.0,7.6,30.18,1022.6,,,,,,,,,,,,,,,,8000.0,8000.0,BKN,8000.0,BKN,11000.0,,,,
KRDR,06-18-2015,12:58,METAR,Normal,360,7.0,,,9999.0,,10.2,8.3,30.16,1021.9,,,,,,,,,,,,,,,,8000.0,8000.0,OVC,8000.0,,,,,,
KRDR,06-18-2015,11:58,METAR,Normal,40,8.0,,,9999.0,,9.9,8.4,30.13,1020.8,,,,,,,,,,,.01 IN,,.01 IN,.01 IN,,8000.0,8000.0,OVC,8000.0,,,,,,
KRDR,06-18-2015,11:38,SPECI,Normal,30,7.0,,,9999.0,,10.0,8.0,30.12,,,,,,,,,,,,,,,,,8000.0,4900.0,FEW,4900.0,OVC,8000.0,,,,
KRDR,06-18-2015,11:19,SPECI,Normal,40,8.0,,,9999.0,Light Drizzle,10.0,9.0,30.12,,51,,,,,,,,,,,,,,,8000.0,4800.0,FEW,4800.0,BKN,8000.0,,,,
KRDR,06-18-2015,11:18,SPECI,Normal,30,8.0,,,9999.0,,10.0,9.0,30.12,,,,,,,,,,,,,,,,,8000.0,5500.0,FEW,5500.0,BKN,8000.0,,,,
KRDR,06-18-2015,10:58,METAR,Normal,30,9.0,,,9999.0,Light Rain,9.9,8.5,30.11,1020.1,61,,,,,,,,,,TRACE,,,,,8000.0,8000.0,BKN,8000.0,OVC,10000.0,,,,
KRDR,06-18-2015,10:48,SPECI,Normal,20,8.0,,,9999.0,Light Rain,10.0,9.0,30.11,,61,,,,,,,,,,,,,,,8000.0,8000.0,BKN,8000.0,OVC,10000.0,,,,
KRDR,06-18-2015,10:41,SPECI,Normal,10,7.0,,,9999.0,,10.0,9.0,30.10,,,,,,,,,,,,,,,,,7500.0,7500.0,BKN,7500.0,OVC,9600.0,,,,
KRDR,06-18-2015,10:26,SPECI,Normal,20,8.0,,,9999.0,Light Rain,10.0,9.0,30.10,,61,,,,,,,,,,,,,,,7500.0,7500.0,OVC,7500.0,,,,,,
KRDR,06-18-2015,10:17,SPECI,Normal,20,11.0,,,9999.0,,10.0,9.0,30.08,,,,,,,,,,,,,,,,,7500.0,7500.0,BKN,7500.0,OVC,9100.0,,,,
KRDR,06-18-2015,09:58,METAR,Normal,20,10.0,,,9999.0,Light Rain,10.3,8.7,30.08,1019.1,61,,,,,,,,,,TRACE,,,,,7000.0,5000.0,SCT,5000.0,OVC,7000.0,,,,
KRDR,06-18-2015,09:42,SPECI,Normal,10,13.0,,,9999.0,Light Rain,11.0,8.0,30.08,,61,,,,,,,,,,,,,,,5000.0,5000.0,OVC,5000.0,,,,,,
KRDR,06-18-2015,08:58,METAR,Normal,20,10.0,,,9999.0,,10.8,8.7,30.06,1018.4,,,,,,,,,,,,,,,,5000.0,4100.0,FEW,4100.0,OVC,5000.0,,,,
KRDR,06-18-2015,07:58,METAR,Normal,10,8.0,,,9999.0,,10.9,8.9,30.05,1018.1,,,,,,,,,,,,,,,Clear,72000.0,,,,,,,,,
KRDR,06-18-2015,06:58,METAR,Normal,20,14.0,,,9999.0,,12.2,9.1,30.04,1017.8,,,,,,,,,,,,,,,,3100.0,3100.0,OVC,3100.0,,,,,,
KRDR,06-18-2015,05:58,METAR,Normal,20,11.0,,,9999.0,,12.1,9.7,30.03,1017.5,,,,,,,,,,,,,,,,2100.0,2100.0,OVC,2100.0,,,,,,
KRDR,06-18-2015,05:53,SPECI,Normal,20,12.0,,,9999.0,,12.0,10.0,30.02,,,,,,,,,,,,,,,,,2100.0,2100.0,OVC,2100.0,,,,,,
KRDR,06-18-2015,05:18,SPECI,Normal,20,13.0,21.0,,9999.0,,14.0,11.0,30.00,,,,,,,,,,,,,,,,,1500.0,800.0,SCT,800.0,BKN,1500.0,OVC,11000.0,,
KRDR,06-18-2015,05:13,SPECI,Normal,30,15.0,25.0,,9999.0,,14.0,12.0,30.00,,,,,,,,,,,,,,,,,700.0,800.0,SCT,800.0,BKN,1300.0,OVC,11000.0,,
KRDR,06-18-2015,05:08,SPECI,Normal,30,18.0,25.0,,9999.0,,15.0,12.0,30.00,,,,,,,,,,,,,,,,,700.0,800.0,BKN,800.0,BKN,9100.0,OVC,11000.0,,
KRDR,06-18-2015,04:58,METAR,Normal,20,10.0,,,9999.0,,16.2,14.3,29.99,1016.0,,,,,,,,,,,,,,,,7000.0,800.0,FEW,800.0,SCT,6000.0,BKN,9100.0,,
KRDR,06-18-2015,04:56,SPECI,Normal,20,9.0,18.0,,9999.0,,16.0,14.0,29.99,,,,,,,,,,,,,,,,,7000.0,900.0,FEW,900.0,BKN,9100.0,OVC,11000.0,,
KRDR,06-18-2015,03:58,METAR,Normal,40,8.0,,,9999.0,,18.0,12.6,29.95,1014.6,,,,,,,,,,,,,,,,8000.0,6000.0,SCT,6000.0,BKN,8000.0,,,,
KRDR,06-18-2015,02:58,METAR,Normal,240,5.0,,,9999.0,,17.3,13.3,29.91,1013.4,,,,,,,,,,,,,,,Clear,72000.0,,,,,,,,,
KRDR,06-18-2015,01:58,METAR,Normal,270,6.0,,,9999.0,,20.6,13.1,29.91,1013.3,,,,,,,,,,,,,,,Clear,72000.0,,,,,,,,,
KRDR,06-18-2015,00:58,METAR,Normal,250,7.0,,,9999.0,,21.8,12.5,29.91,1013.3,,,,,,,,,,,,,,,Clear,72000.0,,,,,,,,,
KRDR,06-17-2015,23:58,METAR,Normal,250,7.0,,,9999.0,,22.8,11.7,29.90,1013.0,,,,,,,,,,,,,,,Clear,72000.0,,,,,,,,,
KRDR,06-17-2015,22:58,METAR,Normal,230,9.0,,,9999.0,,23.7,11.9,29.91,1013.3,,,,,,,,,,,,,,,Clear,72000.0,,,,,,,,,
KRDR,06-17-2015,21:58,METAR,Normal,240,6.0,,,9999.0,,23.5,11.2,29.92,1013.7,,,,,,,,,,,,,,,Clear,72000.0,,,,,,,,,
KRDR,06-17-2015,21:06,SPECI,Normal,240,9.0,,,9999.0,,24.0,12.0,29.93,,,,,,,,,,,,,,,,4/8 Partly Cloudy,72000.0,4800.0,SCT,4800.0,,,,,,
KRDR,06-17-2015,20:58,METAR,Variable,,5.0,,,9999.0,,23.6,12.1,29.93,1014.0,,,,,,,,,,,,,,,4/8 Partly Cloudy,72000.0,4600.0,SCT,4600.0,,,,,,
KRDR,06-17-2015,19:58,METAR,Normal,260,7.0,,,9999.0,,23.1,12.1,29.96,1015.1,,,,,,,,,,,,,,,2/8 Mostly Clear,72000.0,4200.0,FEW,4200.0,,,,,,
KRDR,06-17-2015,18:58,METAR,Normal,260,6.0,,,9999.0,,22.1,12.2,29.98,1015.8,,,,,,,,,,,,,,,,3800.0,3800.0,BKN,3800.0,,,,,,
KRDR,06-17-2015,17:58,METAR,Variable,,4.0,,,9999.0,,19.7,12.2,29.99,1016.2,,,,,,,,,,,,,,,,3500.0,2900.0,SCT,2900.0,BKN,3500.0,,,,
KRDR,06-17-2015,16:58,METAR,Variable,,4.0,,,9999.0,,18.7,12.2,30.01,1016.9,,,,,,,,,,,,,,,,2400.0,2400.0,BKN,2400.0,,,,,,
KRDR,06-17-2015,16:18,SPECI,Normal,250,5.0,,,9999.0,,18.0,12.0,30.01,,,,,,,,,,,,,,,,,2200.0,2200.0,BKN,2200.0,,,,,,
KRDR,06-17-2015,15:58,METAR,Variable,,5.0,,,9999.0,,17.1,12.1,30.01,1016.9,,,,,,,,,,,,,,,,1800.0,1800.0,BKN,1800.0,,,,,,
KRDR,06-17-2015,15:33,SPECI,Variable,,3.0,,,9999.0,,17.0,12.0,30.02,,,,,,,,,,,,,,,,,1500.0,1500.0,BKN,1500.0,,,,,,
KRDR,06-17-2015,14:58,METAR,Normal,300,4.0,,,9999.0,,15.4,11.7,30.02,1017.3,,,,,,,,,,,,,,,,1200.0,1200.0,OVC,1200.0,,,,,,
KRDR,06-17-2015,14:23,SPECI,Normal,300,3.0,,,9999.0,,14.0,11.0,30.03,,,,,,,,,,,,,,,,,1000.0,1000.0,OVC,1000.0,,,,,,
KRDR,06-17-2015,13:58,METAR,Normal,320,4.0,,,9999.0,,13.6,11.1,30.03,1017.7,,,,,,,,,,,,,,,,800.0,800.0,OVC,800.0,,,,,,
KRDR,06-17-2015,13:53,SPECI,Variable,,5.0,,,9999.0,,14.0,11.0,30.03,,,,,,,,,,,,,,,,,800.0,800.0,OVC,800.0,,,,,,
KRDR,06-17-2015,13:23,SPECI,Normal,290,6.0,,,9999.0,,13.0,11.0,30.03,,,,,,,,,,,,,,,,,700.0,700.0,OVC,700.0,,,,,,
KRDR,06-17-2015,12:58,METAR,Normal,270,4.0,,,9999.0,,12.0,10.6,30.04,1018.1,,,,,,,,,,,,,,,,600.0,600.0,OVC,600.0,,,,,,
KRDR,06-17-2015,11:58,METAR,Normal,250,5.0,,,9999.0,,11.0,10.0,30.05,1018.4,,,,,,,,,,,,,,,,500.0,500.0,OVC,500.0,,,,,,
KRDR,06-17-2015,11:13,SPECI,Normal,270,3.0,,,9999.0,,11.0,10.0,30.04,,,,,,,,,,,,,,,,,400.0,400.0,OVC,400.0,,,,,,
KRDR,06-17-2015,10:58,METAR,Normal,260,4.0,,,9999.0,,10.6,9.7,30.05,1018.4,,,,,,,,,,,,,,,,500.0,500.0,OVC,500.0,,,,,,
KRDR,06-17-2015,10:53,SPECI,Normal,270,4.0,,,9999.0,,11.0,10.0,30.05,,,,,,,,,,,,,,,,,500.0,500.0,OVC,500.0,,,,,,
KRDR,06-17-2015,10:48,SPECI,Normal,260,4.0,,,9999.0,,11.0,10.0,30.05,,,,,,,,,,,,,,,,,600.0,600.0,OVC,600.0,,,,,,
KRDR,06-17-2015,10:18,SPECI,Normal,250,3.0,,,9999.0,,10.0,10.0,30.05,,,,,,,,,,,,,,,,,500.0,500.0,OVC,500.0,,,,,,
KRDR,06-17-2015,09:58,METAR,Normal,240,4.0,,,9999.0,,10.3,9.7,30.05,1018.4,,,,,,,,,,,,,,,,400.0,400.0,OVC,400.0,,,,,,
KRDR,06-17-2015,08:58,METAR,Normal,230,3.0,,,9999.0,,10.0,9.4,30.05,1018.4,,,,,,,,,,,,,,,,400.0,400.0,OVC,400.0,,,,,,
KRDR,06-17-2015,08:53,SPECI,Normal,230,3.0,,,9999.0,,10.0,9.0,30.05,,,,,,,,,,,,,,,,,400.0,400.0,OVC,400.0,,,,,,
KRDR,06-17-2015,08:43,SPECI,Normal,220,5.0,,,9999.0,,10.0,9.0,30.05,,,,,,,,,,,,,,,,,500.0,500.0,OVC,500.0,,,,,,
KRDR,06-17-2015,08:33,SPECI,Normal,190,5.0,,,9999.0,,10.0,9.0,30.05,,,,,,,,,,,,,,,,,600.0,600.0,OVC,600.0,,,,,,
KRDR,06-17-2015,08:13,SPECI,Normal,190,5.0,,,9999.0,,10.0,9.0,30.06,,,,,,,,,,,,,,,,,700.0,700.0,OVC,700.0,,,,,,
KRDR,06-17-2015,07:58,METAR,Normal,190,5.0,,,9999.0,,8.4,7.7,30.06,1018.8,,,,,,,,,,,,,,,,900.0,900.0,BKN,900.0,,,,,,
KRDR,06-17-2015,07:54,SPECI,Normal,190,5.0,,,9999.0,,8.0,8.0,30.06,,,,,,,,,,,,,,,,,900.0,900.0,BKN,900.0,,,,,,
KRDR,06-17-2015,07:44,SPECI,Normal,190,5.0,,,9999.0,,8.0,7.0,30.06,,,,,,,,,,,,,,,,2/8 Mostly Clear,72000.0,1100.0,FEW,1100.0,,,,,,
KRDR,06-17-2015,07:18,SPECI,Normal,190,3.0,,,9999.0,,9.0,8.0,30.07,,,,,,,,,,,,,,,,4/8 Partly Cloudy,72000.0,1300.0,SCT,1300.0,,,,,,
KRDR,06-17-2015,06:58,METAR,Normal,220,2.0,,,9999.0,,10.4,8.9,30.07,1019.0,,,,,,,,,,,,,,,,1300.0,1300.0,OVC,1300.0,,,,,,
KRDR,06-17-2015,06:03,SPECI,Normal,170,2.0,,,9999.0,,10.0,9.0,30.10,,,,,,,,,,,,,,,,,1400.0,1400.0,BKN,1400.0,,,,,,
KRDR,06-17-2015,05:58,METAR,Normal,160,4.0,,,9999.0,,10.2,8.6,30.10,1020.1,,,,,,,,,,,,,,,4/8 Partly Cloudy,72000.0,1500.0,SCT,1500.0,,,,,,
KRDR,06-17-2015,04:58,METAR,Normal,130,4.0,,,9999.0,,11.4,9.5,30.10,1020.1,,,,,,,,,,,,,,,,1800.0,1800.0,OVC,1800.0,,,,,,
KRDR,06-17-2015,04:31,SPECI,Normal,120,1.0,,,9999.0,,11.0,9.0,30.11,,,,,,,,,,,,,,,,,1900.0,1100.0,FEW,1100.0,OVC,1900.0,,,,
KRDR,06-17-2015,04:26,SPECI,Normal,130,1.0,,,9999.0,,11.0,10.0,30.11,,,,,,,,,,,,,,,,,2000.0,1100.0,FEW,1100.0,OVC,2000.0,,,,
KRDR,06-17-2015,03:58,METAR,Normal,140,2.0,,,9999.0,,11.4,9.4,30.11,1020.3,,,,,,,,,,,,,,,,2100.0,2100.0,OVC,2100.0,,,,,,
KRDR,06-17-2015,03:03,SPECI,Normal,170,2.0,,,9999.0,,11.0,9.0,30.11,,,,,,,,,,,,,,,,,1300.0,1300.0,SCT,1300.0,SCT,1900.0,OVC,2600.0,,
KRDR,06-17-2015,02:58,METAR,Normal,180,3.0,,,9999.0,,11.1,9.1,30.11,1020.4,,,,,,,,,,,,,,,,1300.0,1300.0,SCT,1300.0,BKN,1900.0,OVC,2600.0,,
KRDR,06-17-2015,02:13,SPECI,Normal,180,6.0,,,9999.0,,12.0,9.0,30.10,,,,,,,,,,,,,,,,,1400.0,1400.0,OVC,1400.0,,,,,,
KRDR,06-17-2015,01:58,METAR,Normal,170,7.0,,,9999.0,,11.9,8.8,30.10,1020.0,,,,,,,,,,,,,,,,1500.0,1500.0,OVC,1500.0,,,,,,
KRDR,06-17-2015,01:28,SPECI,Normal,190,7.0,,,9999.0,,12.0,9.0,30.11,,,,,,,,,,,,,,,,,1800.0,1800.0,BKN,1800.0,BKN,10000.0,,,,
KRDR,06-17-2015,00:58,METAR,Normal,180,10.0,,,9999.0,,12.2,8.3,30.11,1020.4,,,,,,,,,,,,,,,,10000.0,1900.0,SCT,1900.0,BKN,10000.0,,,,
KRDR,06-17-2015,00:53,SPECI,Normal,180,9.0,,,9999.0,,12.0,8.0,30.11,,,,,,,,,,,,,,,,,10000.0,2000.0,FEW,2000.0,BKN,10000.0,,,,
KRDR,06-17-2015,00:13,SPECI,Normal,190,7.0,,,9999.0,,12.0,8.0,30.13,,,,,,,,,,,,,,,,,1400.0,1400.0,BKN,1400.0,OVC,11000.0,,,,
KRDR,06-16-2015,23:58,METAR,Normal,190,8.0,,,9999.0,,12.1,8.9,30.13,1021.1,,,,,,,,,,,,,TRACE,,,1400.0,1400.0,OVC,1400.0,,,,,,
KRDR,06-16-2015,23:33,SPECI,Normal,210,7.0,,,9999.0,,12.0,10.0,30.14,,,,,,,,,,,,,,,,,1400.0,1400.0,BKN,1400.0,BKN,2000.0,OVC,5500.0,,
KRDR,06-16-2015,22:58,METAR,Normal,190,8.0,,,9999.0,,11.9,9.0,30.15,1021.9,,,,,,,,,,,TRACE,,,,,6000.0,6000.0,BKN,6000.0,OVC,7500.0,,,,
KRDR,06-16-2015,22:55,SPECI,Normal,190,7.0,,,9999.0,,12.0,9.0,30.15,,,,,,,,,,,,,,,,,6000.0,6000.0,BKN,6000.0,OVC,8000.0,,,,
KRDR,06-16-2015,22:19,SPECI,Normal,200,9.0,,,9999.0,Light Drizzle,13.0,7.0,30.16,,51,,,,,,,,,,,,,,,6500.0,3900.0,FEW,3900.0,BKN,6500.0,,,,
KRDR,06-16-2015,21:58,METAR,Normal,200,12.0,,,9999.0,,12.7,6.9,30.16,1022.3,,,,,,,,,,,,,,,4/8 Partly Cloudy,72000.0,6000.0,FEW,6000.0,SCT,10000.0,,,,
KRDR,06-16-2015,20:58,METAR,Normal,190,11.0,,,9999.0,,14.3,8.2,30.17,1022.6,,,,,,,,,,,,,,,2/8 Mostly Clear,72000.0,12000.0,FEW,12000.0,,,,,,
KRDR,06-16-2015,20:46,SPECI,Normal,180,14.0,,,9999.0,,15.0,8.0,30.16,,,,,,,,,,,,,,,,2/8 Mostly Clear,72000.0,12000.0,FEW,12000.0,,,,,,
KRDR,06-16-2015,19:58,METAR,Normal,200,9.0,,,9999.0,,15.3,7.0,30.16,1022.2,,,,,,,,,,,,,,,4/8 Partly Cloudy,72000.0,12000.0,SCT,12000.0,,,,,,
KRDR,06-16-2015,18:58,METAR,Normal,170,10.0,,,9999.0,,16.2,6.5,30.17,1022.6,,,,,,,,,,,,,,,2/8 Mostly Clear,72000.0,12000.0,FEW,12000.0,,,,,,
KRDR,06-16-2015,17:58,METAR,Normal,200,8.0,,,9999.0,,15.7,6.0,30.18,1022.9,,,,,,,,,,,,,,,Clear,72000.0,,,,,,,,,
KRDR,06-16-2015,16:58,METAR,Normal,180,10.0,,,9999.0,,15.4,6.5,30.20,1023.5,,,,,,,,,,,,,,,2/8 Mostly Clear,72000.0,12000.0,FEW,12000.0,,,,,,
KRDR,06-16-2015,15:58,METAR,Normal,180,7.0,,,9999.0,,15.6,6.2,30.21,1023.9,,,,,,,,,,,,,,,Clear,72000.0,,,,,,,,,
KRDR,06-16-2015,14:58,METAR,Normal,200,5.0,,,9999.0,,15.4,6.4,30.20,1023.5,,,,,,,,,,,,,,,Clear,72000.0,,,,,,,,,
KRDR,06-16-2015,13:58,METAR,Normal,200,7.0,,,9999.0,,15.1,6.6,30.21,1023.7,,,,,,,,,,,,,,,Clear,72000.0,,,,,,,,,
KRDR,06-16-2015,12:58,METAR,Normal,200,8.0,,,9999.0,,13.1,8.1,30.22,1024.0,,,,,,,,,,,,,,,Clear,72000.0,,,,,,,,,
KRDR,06-16-2015,11:58,METAR,Normal,240,4.0,,,9999.0,,10.0,6.8,30.22,1024.1,,,,,,,,,,,,,,,Clear,72000.0,,,,,,,,,
KRDR,06-16-2015,10:58,METAR,Normal,200,4.0,,,9999.0,,6.9,4.6,30.21,1023.8,,,,,,,,,,,,,,,Clear,72000.0,,,,,,,,,
KRDR,06-16-2015,09:58,METAR,Normal,220,2.0,,,9999.0,,6.8,4.4,30.20,1023.5,,,,,,,,,,,,,,,Clear,72000.0,,,,,,,,,
KRDR,06-16-2015,08:58,METAR,Normal,230,4.0,,,9999.0,,5.5,4.2,30.21,1023.9,,,,,,,,,,,,,,,Clear,72000.0,,,,,,,,,
KRDR,06-16-2015,07:58,METAR,Normal,240,3.0,,,9999.0,,7.2,5.1,30.22,1024.1,,,,,,,,,,,,,,,Clear,72000.0,,,,,,,,,
KRDR,06-16-2015,06:58,METAR,Normal,250,3.0,,,9999.0,,6.0,4.7,30.21,1023.9,,,,,,,,,,,,,,,Clear,72000.0,,,,,,,,,
KRDR,06-16-2015,05:58,METAR,Normal,230,3.0,,,9999.0,,6.0,4.7,30.22,1024.2,,,,,,,,,,,,,,,Clear,72000.0,,,,,,,,,
KRDR,06-16-2015,04:58,METAR,Normal,230,2.0,,,9999.0,,7.4,5.4,30.22,1024.1,,,,,,,,,,,,,,,Clear,72000.0,,,,,,,,,
KRDR,06-16-2015,03:58,METAR,Normal,20,2.0,,,9999.0,,8.3,5.6,30.20,1023.5,,,,,,,,,,,,,,,Clear,72000.0,,,,,,,,,
KRDR,06-16-2015,02:58,METAR,Normal,40,5.0,,,9999.0,,10.4,5.5,30.19,1023.1,,,,,,,,,,,,,,,Clear,72000.0,,,,,,,,,
KRDR,06-16-2015,01:58,METAR,Normal,40,7.0,,,9999.0,,14.9,5.4,30.18,1022.6,,,,,,,,,,,,,,,Clear,72000.0,,,,,,,,,
KRDR,06-16-2015,00:58,METAR,Normal,30,12.0,,,9999.0,,17.1,4.9,30.17,1022.3,,,,,,,,,,,,,,,Clear,72000.0,,,,,,,,,
KRDR,06-15-2015,23:58,METAR,Normal,20,10.0,,,9999.0,,17.1,5.6,30.15,1021.6,,,,,,,,,,,,,,,,6500.0,6500.0,BKN,6500.0,,,,,,
KRDR,06-15-2015,22:58,METAR,Normal,350,9.0,,,9999.0,,17.8,5.9,30.15,1021.7,,,,,,,,,,,,,,,4/8 Partly Cloudy,72000.0,6500.0,SCT,6500.0,,,,,,
KRDR,06-15-2015,21:58,METAR,Normal,320,10.0,,,9999.0,,18.0,6.3,30.15,1021.7,,,,,,,,,,,,,,,,6000.0,6000.0,BKN,6000.0,,,,,,
KRDR,06-15-2015,20:58,METAR,Normal,360,9.0,,,9999.0,,17.9,7.0,30.15,1021.7,,,,,,,,,,,,,,,4/8 Partly Cloudy,72000.0,6500.0,SCT,6500.0,,,,,,
KRDR,06-15-2015,19:58,METAR,Normal,350,12.0,,,9999.0,,17.8,7.8,30.15,1021.6,,,,,,,,,,,,,,,,6000.0,4600.0,FEW,4600.0,BKN,6000.0,,,,
KRDR,06-15-2015,18:58,METAR,Variable,10,11.0,,,9999.0,,17.8,7.8,30.15,1021.6,,,,,,,,,,,,,,,,5500.0,4300.0,SCT,4300.0,BKN,5500.0,,,,
KRDR,06-15-2015,17:58,METAR,Normal,350,13.0,19.0,,9999.0,,18.0,7.9,30.13,1020.9,,,,,,,,,,,,,,,,4000.0,4300.0,SCT,4300.0,BKN,5500.0,,,,
KRDR,06-15-2015,17:19,SPECI,Normal,10,14.0,,,9999.0,,18.0,9.0,30.13,,,,,,,,,,,,,,,,4/8 Partly Cloudy,72000.0,3600.0,SCT,3600.0,SCT,4700.0,,,,
KRDR,06-15-2015,16:58,METAR,Normal,10,12.0,,,9999.0,,17.5,8.7,30.13,1020.8,,,,,,,,,,,,,,,,3600.0,3600.0,FEW,3600.0,SCT,4500.0,BKN,5000.0,,
KRDR,06-15-2015,15:58,METAR,Normal,360,10.0,,,9999.0,,17.6,8.1,30.13,1020.8,,,,,,,,,,,,,,,,4400.0,4400.0,BKN,4400.0,BKN,5500.0,,,,
KRDR,06-15-2015,14:58,METAR,Normal,340,8.0,,,9999.0,,17.2,8.2,30.12,1020.4,,,,,,,,,,,,,,,2/8 Mostly Clear,72000.0,5000.0,FEW,5000.0,,,,,,
KRDR,06-15-2015,13:58,METAR,Normal,350,9.0,,,9999.0,,16.4,8.3,30.10,1019.7,,,,,,,,,,,,,,,Clear,72000.0,,,,,,,,,
KRDR,06-15-2015,12:58,METAR,Normal,350,6.0,,,9999.0,,14.7,9.0,30.08,1019.0,,,,,,,,,,,,,,,Clear,72000.0,,,,,,,,,
KRDR,06-15-2015,11:58,METAR,Normal,300,4.0,,,9999.0,,12.3,8.9,30.07,1018.7,,,,,,,,,,,,,,.06 IN,Clear,72000.0,,,,,,,,,
KRDR,06-15-2015,10:58,METAR,Normal,300,6.0,,,9999.0,,9.3,6.8,30.05,1018.1,,,,,,,,,,,,,,,Clear,72000.0,,,,,,,,,
KRDR,06-15-2015,09:58,METAR,Normal,300,5.0,,,9999.0,,9.6,7.1,30.04,1017.8,,,,,,,,,,,,,,,Clear,72000.0,,,,,,,,,
KRDR,06-15-2015,08:58,METAR,Normal,310,5.0,,,9999.0,,10.0,8.1,30.03,1017.4,,,,,,,,,,,,,,,Clear,72000.0,,,,,,,,,
KRDR,06-15-2015,07:58,METAR,Normal,290,3.0,,,9999.0,,12.6,9.2,30.03,1017.4,,,,,,,,,,,,,,,Clear,72000.0,,,,,,,,,
KRDR,06-15-2015,06:58,METAR,Normal,340,6.0,,,9999.0,,14.2,10.0,30.01,1016.7,,,,,,,,,,,,,,,Clear,72000.0,,,,,,,,,
KRDR,06-15-2015,05:58,METAR,Normal,290,4.0,,,9999.0,,14.0,12.0,29.99,1016.1,,,,,,,,,,,,,,,Clear,72000.0,,,,,,,,,
KRDR,06-15-2015,04:58,METAR,Normal,240,4.0,,,9999.0,,15.6,13.3,29.98,1015.8,,,,,,,,,,,,,,,Clear,72000.0,,,,,,,,,
KRDR,06-15-2015,03:58,METAR,Normal,240,9.0,,,9999.0,,15.8,13.1,29.96,1015.1,,,,,,,,,,,,,,,Clear,72000.0,,,,,,,,,
KRDR,06-15-2015,02:58,METAR,Normal,210,7.0,,,9999.0,,17.6,13.0,29.94,1014.3,,,,,,,,,,,,,,,Clear,72000.0,,,,,,,,,
KRDR,06-15-2015,01:58,METAR,Normal,200,6.0,,,9999.0,,20.0,13.6,29.93,1013.9,,,,,,,,,,,,,,,Clear,72000.0,,,,,,,,,
KRDR,06-15-2015,00:58,METAR,Normal,200,6.0,,,9999.0,,22.4,11.8,29.92,1013.5,,,,,,,,,,,,,,,Clear,72000.0,,,,,,,,,
KRDR,06-14-2015,23:58,METAR,Normal,150,4.0,,,9999.0,,23.2,10.9,29.91,1013.1,,,,,,,,,,,,,,,Clear,72000.0,,,,,,,,,
KRDR,06-14-2015,22:58,METAR,Normal,200,4.0,,,9999.0,,23.6,10.3,29.92,1013.5,,,,,,,,,,,,,,,Clear,72000.0,,,,,,,,,
KRDR,06-14-2015,21:58,METAR,Normal,280,3.0,,,9999.0,,22.9,11.2,29.93,1013.8,,,,,,,,,,,,,,,Clear,72000.0,,,,,,,,,
KRDR,06-14-2015,20:58,METAR,Variable,,2.0,,,9999.0,,22.5,11.9,29.94,1014.1,,,,,,,,,,,,,,,Clear,72000.0,,,,,,,,,
KRDR,06-14-2015,19:58,METAR,Variable,,1.0,,,9999.0,,20.8,11.3,29.93,1013.8,,,,,,,,,,,,,,,Clear,72000.0,,,,,,,,,
KRDR,06-14-2015,18:58,METAR,Normal,270,3.0,,,9999.0,,18.9,12.0,29.93,1013.9,,,,,,,,,,,,,,,,7000.0,7000.0,OVC,7000.0,,,,,,
KRDR,06-14-2015,17:58,METAR,Normal,320,5.0,,,9999.0,,16.6,12.8,29.93,1013.9,,,,,,,,,,,TRACE,,.06 IN,,,7500.0,7500.0,OVC,7500.0,,,,,,
KRDR,06-14-2015,16:59,SPECI,Normal,20,2.0,,,9999.0,,16.0,13.0,29.93,,,,,,,,,,,,,,,,,9000.0,6000.0,FEW,6000.0,OVC,9100.0,,,,
KRDR,06-14-2015,16:58,METAR,Normal,10,2.0,,,9999.0,Light Drizzle,16.2,12.4,29.93,1013.9,51,,,,,,,,,,.05 IN,,,,,9000.0,6000.0,SCT,6000.0,OVC,9100.0,,,,
KRDR,06-14-2015,15:58,METAR,Normal,210,5.0,,,9999.0,Light Rain,16.1,12.5,29.97,1015.3,61,,,,,,,,,,.01 IN,,,,,7500.0,7500.0,OVC,7500.0,,,,,,
KRDR,06-14-2015,15:09,SPECI,Normal,310,4.0,,,9999.0,Light Drizzle,17.0,11.0,29.94,,51,,,,,,,,,,,,,,4/8 Partly Cloudy,72000.0,6000.0,FEW,6000.0,SCT,8600.0,,,,
KRDR,06-14-2015,14:58,METAR,Normal,300,1.0,,,9999.0,,16.7,11.7,29.94,1014.3,,,,,,,,,,,,,,,4/8 Partly Cloudy,72000.0,6000.0,FEW,6000.0,SCT,9100.0,,,,
KRDR,06-14-2015,13:58,METAR,Normal,310,3.0,,,9999.0,,16.7,11.7,29.90,1012.8,,,,,,,,,,,,,,,4/8 Partly Cloudy,72000.0,12000.0,SCT,12000.0,,,,,,
KRDR,06-14-2015,12:58,METAR,Normal,260,4.0,,,9999.0,,16.9,11.3,29.91,1013.1,,,,,,,,,,,,,,,,6000.0,6000.0,OVC,6000.0,,,,,,
KRDR,06-14-2015,11:58,METAR,Normal,320,5.0,,,9999.0,,16.9,10.6,29.88,1012.0,,,,,,,,,,,,,TRACE,,,6000.0,6000.0,OVC,6000.0,,,,,,
KRDR,06-14-2015,10:58,METAR,Normal,320,5.0,,,9999.0,,15.9,11.3,29.87,1011.7,,,,,,,,,,,,,,,Clear,72000.0,,,,,,,,,
KRDR,06-14-2015,09:58,METAR,Normal,350,6.0,,,9999.0,,16.9,12.0,29.86,1011.3,,,,,,,,,,,,,,,,5500.0,5500.0,OVC,5500.0,,,,,,
KRDR,06-14-2015,08:58,METAR,Normal,20,2.0,,,9999.0,,17.8,11.7,29.86,1011.3,,,,,,,,,,,,TRACE,,,,4800.0,4800.0,OVC,4800.0,,,,,,
KRDR,06-14-2015,07:58,METAR,Normal,350,7.0,,,9999.0,,17.8,12.2,29.85,1010.9,,,,,,,,,,,,,,,,5500.0,5500.0,BKN,5500.0,,,,,,
KRDR,06-14-2015,06:58,METAR,Normal,340,4.0,,,9999.0,,19.0,13.0,29.84,1010.6,,,,,,,,,,,TRACE,,,,,6000.0,5000.0,SCT,5000.0,BKN,6000.0,BKN,7500.0,,
KRDR,06-14-2015,06:01,SPECI,Variable,,6.0,,,9999.0,,20.0,14.0,29.82,,,,,,,,,,,,,,,,,4900.0,3400.0,FEW,3400.0,BKN,4900.0,OVC,8600.0,,
KRDR,06-14-2015,05:58,METAR,Normal,350,7.0,,,9999.0,Light Rain,19.8,16.2,29.83,1010.2,61,,,,,,,,,,TRACE,,TRACE,,,4800.0,2900.0,FEW,2900.0,BKN,4800.0,,,,
KRDR,06-14-2015,05:41,SPECI,Normal,320,5.0,,,9999.0,Light Rain,20.0,17.0,29.82,,61,,,,,,,,,,,,,,,4800.0,4800.0,OVC,4800.0,,,,,,
KRDR,06-14-2015,04:58,METAR,Normal,270,4.0,,,9999.0,,19.4,16.7,29.81,1009.6,,,,,,,,,,,,,,,4/8 Partly Cloudy,72000.0,4900.0,FEW,4900.0,SCT,9600.0,,,,
KRDR,06-14-2015,03:58,METAR,Normal,230,4.0,,,9999.0,,19.5,16.9,29.80,1009.3,,,,,,,,,,,,,,,4/8 Partly Cloudy,72000.0,5500.0,SCT,5500.0,SCT,12000.0,,,,
KRDR,06-14-2015,02:58,METAR,Normal,210,6.0,,,9999.0,,19.7,17.1,29.79,1009.0,,,,,,,,,,,,,,,Clear,72000.0,,,,,,,,,
KRDR,06-14-2015,01:58,METAR,Normal,250,5.0,,,9999.0,,23.4,19.0,29.78,1008.6,,,,,,,,,,,,,,,4/8 Partly Cloudy,72000.0,6000.0,SCT,6000.0,,,,,,
KRDR,06-14-2015,00:58,METAR,Normal,280,5.0,,,9999.0,,23.5,18.7,29.77,1008.3,,,,,,,,,,,,,,,,10000.0,10000.0,BKN,10000.0,,,,,,
KRDR,06-13-2015,23:58,METAR,Normal,230,3.0,,,9999.0,,25.6,16.1,29.75,1007.6,,,,,,,,,,,TRACE,,TRACE,,,12000.0,6000.0,FEW,6000.0,BKN,12000.0,,,,
KRDR,06-13-2015,23:52,SPECI,Normal,250,3.0,,,9999.0,,25.0,16.0,29.75,,,,,,,,,,,,,,,,,12000.0,6000.0,SCT,6000.0,BKN,12000.0,,,,
KRDR,06-13-2015,23:50,SPECI,Normal,250,3.0,,,9999.0,Light Rain,25.0,17.0,29.75,,61,,,,,,,,,,,,,,,12000.0,6000.0,SCT,6000.0,BKN,12000.0,,,,
KRDR,06-13-2015,23:29,SPECI,Normal,210,4.0,,,9999.0,,26.0,17.0,29.75,,,,,,,,,,,,,,,,4/8 Partly Cloudy,72000.0,3700.0,FEW,3700.0,SCT,7500.0,,,,
KRDR,06-13-2015,23:09,SPECI,Normal,190,6.0,,,9999.0,Light Rain,26.0,16.0,29.75,,61,,,,,,,,,,,,,,,8500.0,3700.0,FEW,3700.0,SCT,6500.0,BKN,8600.0,,
KRDR,06-13-2015,23:00,SPECI,Normal,200,6.0,,,9999.0,,26.0,16.0,29.75,,,,,,,,,,,,,,,,,9500.0,5500.0,FEW,5500.0,SCT,7500.0,BKN,9600.0,,
KRDR,06-13-2015,22:58,METAR,Normal,200,7.0,,,9999.0,Light Drizzle,25.8,16.2,29.75,1007.6,51,,,,,,,,,,TRACE,,,,4/8 Partly Cloudy,72000.0,4900.0,FEW,4900.0,SCT,9600.0,,,,
KRDR,06-13-2015,22:53,SPECI,Normal,200,7.0,,,9999.0,Light Drizzle,26.0,16.0,29.75,,51,,,,,,,,,,,,,,4/8 Partly Cloudy,72000.0,9000.0,FEW,9100.0,SCT,11000.0,,,,
KRDR,06-13-2015,22:03,SPECI,Normal,180,8.0,,,9999.0,,26.0,15.0,29.76,,,,,,,,,,,,,,,,2/8 Mostly Clear,72000.0,8000.0,FEW,8000.0,,,,,,
KRDR,06-13-2015,21:58,METAR,Normal,180,9.0,,,9999.0,Light Drizzle,26.2,15.2,29.75,1007.6,51,,,,,,,,,,TRACE,,,,2/8 Mostly Clear,72000.0,8000.0,FEW,8000.0,,,,,,
KRDR,06-13-2015,21:52,SPECI,Normal,190,10.0,,,9999.0,Light Drizzle,26.0,15.0,29.75,,51,,,,,,,,,,,,,,2/8 Mostly Clear,72000.0,8000.0,FEW,8000.0,,,,,,
KRDR,06-13-2015,21:49,SPECI,Normal,200,12.0,,,9999.0,,26.0,15.0,29.75,,,,,,,,,,,,,,,,2/8 Mostly Clear,72000.0,8000.0,FEW,8000.0,,,,,,
KRDR,06-13-2015,21:48,SPECI,Normal,200,11.0,,,9999.0,Light Drizzle,26.0,15.0,29.75,,51,,,,,,,,,,,,,,2/8 Mostly Clear,72000.0,8000.0,FEW,8000.0,,,,,,
KRDR,06-13-2015,21:41,SPECI,Normal,180,10.0,,,9999.0,,27.0,15.0,29.75,,,,,,,,,,,,,,,,2/8 Mostly Clear,72000.0,6000.0,FEW,6000.0,,,,,,
KRDR,06-13-2015,21:39,SPECI,Normal,180,11.0,,,9999.0,Light Drizzle,27.0,16.0,29.74,,51,,,,,,,,,,,,,,4/8 Partly Cloudy,72000.0,6000.0,FEW,6000.0,SCT,8000.0,,,,
KRDR,06-13-2015,21:35,SPECI,Normal,180,12.0,,,9999.0,,27.0,15.0,29.75,,,,,,,,,,,,,,,,4/8 Partly Cloudy,72000.0,6000.0,FEW,6000.0,SCT,8000.0,,,,
KRDR,06-13-2015,21:31,SPECI,Normal,180,10.0,,,9999.0,Light Drizzle,27.0,15.0,29.75,,51,,,,,,,,,,,,,,4/8 Partly Cloudy,72000.0,6000.0,FEW,6000.0,SCT,8000.0,,,,
KRDR,06-13-2015,20:58,METAR,Normal,170,12.0,18.0,,9999.0,,28.5,15.2,29.75,1007.5,,,,,,,,,,,,TRACE,,,4/8 Partly Cloudy,72000.0,6000.0,SCT,6000.0,SCT,7500.0,,,,
KRDR,06-13-2015,19:58,METAR,Normal,180,14.0,19.0,,9999.0,,27.8,15.6,29.77,1008.2,,,,,,,,,,,TRACE,,,,4/8 Partly Cloudy,72000.0,6000.0,SCT,6000.0,,,,,,
KRDR,06-13-2015,19:38,SPECI,Normal,210,13.0,,,9999.0,,28.0,15.0,29.77,,,,,,,,,,,,,,,,,5500.0,5500.0,BKN,5500.0,,,,,,
KRDR,06-13-2015,19:30,SPECI,Normal,200,12.0,,,9999.0,Light Rain,27.0,16.0,29.76,,61,,,,,,,,,,,,,,,5500.0,5500.0,BKN,5500.0,,,,,,
KRDR,06-13-2015,18:58,METAR,Normal,150,13.0,18.0,,9999.0,,27.0,15.5,29.76,1007.9,,,,,,,,,,,,,,,Clear,72000.0,,,,,,,,,
KRDR,06-13-2015,17:58,METAR,Normal,190,14.0,20.0,,9999.0,,26.6,15.7,29.76,1007.9,,,,,,,,,,,,,,,Clear,72000.0,,,,,,,,,
KRDR,06-13-2015,16:58,METAR,Normal,180,14.0,18.0,,9999.0,,25.9,16.0,29.77,1008.2,,,,,,,,,,,,,,,Clear,72000.0,,,,,,,,,
KRDR,06-13-2015,15:58,METAR,Normal,180,14.0,,,9999.0,,24.8,16.4,29.78,1008.6,,,,,,,,,,,,,,,Clear,72000.0,,,,,,,,,
KRDR,06-13-2015,14:58,METAR,Normal,180,10.0,,,9999.0,,22.5,16.6,29.79,1009.0,,,,,,,,,,,,,,,Clear,72000.0,,,,,,,,,
KRDR,06-13-2015,13:58,METAR,Normal,190,10.0,,,9999.0,,19.7,15.2,29.78,1008.6,,,,,,,,,,,,,,,2/8 Mostly Clear,72000.0,10000.0,FEW,10000.0,,,,,,
KRDR,06-13-2015,12:58,METAR,Normal,200,8.0,,,9999.0,,18.5,13.5,29.80,1009.3,,,,,,,,,,,,,,,Clear,72000.0,,,,,,,,,
KRDR,06-13-2015,11:58,METAR,Normal,210,6.0,,,9999.0,,16.8,11.4,29.81,1009.6,,,,,,,,,,,,,,,Clear,72000.0,,,,,,,,,
KRDR,06-13-2015,10:58,METAR,Normal,190,7.0,,,9999.0,,16.1,11.1,29.81,1009.6,,,,,,,,,,,,,,,2/8 Mostly Clear,72000.0,9500.0,FEW,9600.0,,,,,,
KRDR,06-13-2015,09:58,METAR,Normal,210,7.0,,,9999.0,,17.3,9.8,29.80,1009.2,,,,,,,,,,,,,,,Clear,72000.0,,,,,,,,,
KRDR,06-13-2015,08:58,METAR,Normal,190,12.0,19.0,,9999.0,,18.1,9.4,29.77,1008.2,,,,,,,,,,,,,,,Clear,72000.0,,,,,,,,,
KRDR,06-13-2015,07:58,METAR,Normal,190,10.0,,,9999.0,,18.4,9.3,29.78,1008.6,,,,,,,,,,,,,,,4/8 Partly Cloudy,72000.0,6000.0,SCT,6000.0,,,,,,
KRDR,06-13-2015,06:58,METAR,Normal,190,8.0,,,9999.0,,17.2,9.2,29.79,1009.0,,,,,,,,,,,,,,,Clear,72000.0,,,,,,,,,
KRDR,06-13-2015,05:58,METAR,Normal,180,11.0,,,9999.0,,18.6,8.5,29.78,1008.6,,,,,,,,,,,,,TRACE,,Clear,72000.0,,,,,,,,,
KRDR,06-13-2015,04:58,METAR,Normal,180,10.0,,,9999.0,,18.4,8.8,29.79,1008.9,,,,,,,,,,,,,,,Clear,72000.0,,,,,,,,,
KRDR,06-13-2015,03:58,METAR,Normal,170,8.0,,,9999.0,,18.6,9.5,29.79,1008.9,,,,,,,,,,,,,,,Clear,72000.0,,,,,,,,,
KRDR,06-13-2015,02:58,METAR,Normal,190,7.0,,,9999.0,,20.1,8.8,29.79,1008.9,,,,,,,,,,,,TRACE,,,Clear,72000.0,,,,,,,,,
KRDR,06-13-2015,01:58,METAR,Normal,170,12.0,,,9999.0,,23.8,8.7,29.79,1008.9,,,,,,,,,,,TRACE,,,,Clear,72000.0,,,,,,,,,
KRDR,06-13-2015,00:58,METAR,Normal,180,11.0,,,9999.0,,25.8,9.0,29.79,1008.9,,,,,,,,,,,,,,,Clear,72000.0,,,,,,,,,
KRDR,06-12-2015,23:58,METAR,Normal,180,14.0,,,9999.0,,26.8,8.6,29.80,1009.3,,,,,,,,,,,,,,,Clear,72000.0,,,,,,,,,
KRDR,06-12-2015,22:58,METAR,Normal,180,14.0,20.0,,9999.0,,27.6,8.7,29.81,1009.7,,,,,,,,,,,,,,,Clear,72000.0,,,,,,,,,
KRDR,06-12-2015,21:58,METAR,Normal,180,14.0,21.0,,9999.0,,27.7,8.1,29.82,1010.0,,,,,,,,,,,,,,,Clear,72000.0,,,,,,,,,
KRDR,06-12-2015,20:58,METAR,Normal,180,16.0,21.0,,9999.0,,27.9,9.4,29.83,1010.4,,,,,,,,,,,,,,,Clear,72000.0,,,,,,,,,
KRDR,06-12-2015,19:58,METAR,Normal,170,15.0,21.0,,9999.0,,27.9,9.7,29.84,1010.7,,,,,,,,,,,,,,,Clear,72000.0,,,,,,,,,
KRDR,06-12-2015,18:58,METAR,Normal,190,15.0,21.0,,9999.0,,27.4,9.2,29.86,1011.3,,,,,,,,,,,,,,,Clear,72000.0,,,,,,,,,
KRDR,06-12-2015,17:58,METAR,Normal,180,13.0,21.0,,9999.0,,27.0,9.8,29.87,1011.7,,,,,,,,,,,,,TRACE,,Clear,72000.0,,,,,,,,,
KRDR,06-12-2015,16:58,METAR,Normal,210,11.0,,,9999.0,,26.6,10.4,29.89,1012.3,,,,,,,,,,,,,,,Clear,72000.0,,,,,,,,,
KRDR,06-12-2015,15:58,METAR,Normal,210,11.0,,,9999.0,,25.8,11.2,29.90,1012.6,,,,,,,,,,,,,,,Clear,72000.0,,,,,,,,,
KRDR,06-12-2015,14:58,METAR,Normal,220,13.0,,,9999.0,,24.6,11.7,29.90,1012.7,,,,,,,,,,,,,,,Clear,72000.0,,,,,,,,,
KRDR,06-12-2015,13:58,METAR,Normal,220,7.0,,,9999.0,,22.2,11.8,29.90,1012.6,,,,,,,,,,,,,,,Clear,72000.0,,,,,,,,,
KRDR,06-12-2015,12:58,METAR,Normal,210,7.0,,,9999.0,,19.6,12.6,29.89,1012.3,,,,,,,,,,,,,,,Clear,72000.0,,,,,,,,,
KRDR,06-12-2015,11:58,METAR,Normal,200,6.0,,,9999.0,,16.1,12.1,29.88,1012.1,,,,,,,,,,,,,,,Clear,72000.0,,,,,,,,,
KRDR,06-12-2015,10:58,METAR,Normal,230,5.0,,,9999.0,,13.5,10.7,29.89,1012.5,,,,,,,,,,,,,,,Clear,72000.0,,,,,,,,,
KRDR,06-12-2015,09:58,METAR,Normal,210,3.0,,,9999.0,,12.4,10.5,29.89,1012.5,,,,,,,,,,,,,,,Clear,72000.0,,,,,,,,,
KRDR,06-12-2015,08:58,METAR,Normal,250,3.0,,,9999.0,,13.1,11.4,29.89,1012.5,,,,,,,,,,,,,,,Clear,72000.0,,,,,,,,,
KRDR,06-12-2015,07:58,METAR,Normal,210,3.0,,,9999.0,,14.6,11.4,29.89,1012.4,,,,,,,,,,,,,,,Clear,72000.0,,,,,,,,,
KRDR,06-12-2015,06:58,METAR,Normal,150,4.0,,,9999.0,,15.1,11.4,29.89,1012.5,,,,,,,,,,,,,,,Clear,72000.0,,,,,,,,,
KRDR,06-12-2015,05:58,METAR,Calm,,0.0,,,9999.0,,15.1,11.9,29.90,1012.7,,,,,,,,,,,,,,,Clear,72000.0,,,,,,,,,
KRDR,06-12-2015,04:58,METAR,Normal,100,3.0,,,9999.0,,17.3,10.8,29.91,1013.0,,,,,,,,,,,,,,,,8000.0,8000.0,BKN,8000.0,,,,,,
KRDR,06-12-2015,03:58,METAR,Calm,,0.0,,,9999.0,,18.7,11.6,29.89,1012.4,,,,,,,,,,,,,,,Clear,72000.0,,,,,,,,,
KRDR,06-12-2015,03:33,SPECI,Calm,,0.0,,,9999.0,,18.0,13.0,29.89,,,,,,,,,,,,,,,,Clear,72000.0,,,,,,,,,
KRDR,06-12-2015,03:28,SPECI,Normal,40,3.0,,,9999.0,,18.0,13.0,29.89,,,,,,,,,,,,,,,,Clear,72000.0,,,,,,,,,
KRDR,06-12-2015,02:58,METAR,Normal,180,2.0,,,9999.0,,19.4,12.6,29.89,,,,,,,,,,,,,,,,Clear,72000.0,,,,,,,,,
KRDR,06-12-2015,01:58,METAR,Normal,150,3.0,,,9999.0,,22.7,12.8,29.88,1012.0,,,,,,,,,,,,,,,Clear,72000.0,,,,,,,,,
KRDR,06-12-2015,00:58,METAR,Normal,160,3.0,,,9999.0,,24.8,12.9,29.88,1012.0,,,,,,,,,,,,,,,4/8 Partly Cloudy,72000.0,12000.0,SCT,12000.0,,,,,,
KRDR,06-11-2015,23:58,METAR,Normal,170,4.0,,,9999.0,,25.7,12.2,29.88,1012.1,,,,,,,,,,,,,,,Clear,72000.0,,,,,,,,,
KRDR,06-11-2015,22:58,METAR,Normal,130,6.0,,,9999.0,,25.6,11.8,29.88,1012.1,,,,,,,,,,,,,,,Clear,72000.0,,,,,,,,,
KRDR,06-11-2015,21:58,METAR,Normal,170,5.0,,,9999.0,,26.3,10.8,29.87,1011.7,,,,,,,,,,,,,,,2/8 Mostly Clear,72000.0,7000.0,FEW,7000.0,,,,,,
KRDR,06-11-2015,20:58,METAR,Normal,130,3.0,,,9999.0,,26.0,11.9,29.88,1012.0,,,,,,,,,,,,,,,2/8 Mostly Clear,72000.0,10000.0,FEW,10000.0,,,,,,
KRDR,06-11-2015,19:58,METAR,Variable,,2.0,,,9999.0,,26.5,12.3,29.88,1012.0,,,,,,,,,,,,,,,4/8 Partly Cloudy,72000.0,6500.0,FEW,6500.0,SCT,10000.0,,,,
KRDR,06-11-2015,18:58,METAR,Normal,350,3.0,,,9999.0,,25.0,12.0,29.89,1012.4,,,,,,,,,,,,,,,Clear,72000.0,,,,,,,,,
KRDR,06-11-2015,17:58,METAR,Variable,,5.0,,,9999.0,,25.7,12.7,29.90,1012.7,,,,,,,,,,,,,,,2/8 Mostly Clear,72000.0,5500.0,FEW,5500.0,,,,,,
KRDR,06-11-2015,16:58,METAR,Normal,210,5.0,,,9999.0,,25.2,13.4,29.90,1012.7,,,,,,,,,,,,,,,2/8 Mostly Clear,72000.0,4700.0,FEW,4700.0,,,,,,
KRDR,06-11-2015,15:58,METAR,Normal,290,6.0,,,9999.0,,24.3,13.8,29.91,1013.1,,,,,,,,,,,,,,,Clear,72000.0,,,,,,,,,
KRDR,06-11-2015,14:58,METAR,Variable,,5.0,,,9999.0,,22.5,14.7,29.92,1013.4,,,,,,,,,,,,,,,Clear,72000.0,,,,,,,,,
KRDR,06-11-2015,13:58,METAR,Normal,240,4.0,,,9999.0,,21.3,15.3,29.92,1013.4,,,,,,,,,,,,,,,Clear,72000.0,,,,,,,,,
KRDR,06-11-2015,12:58,METAR,Normal,250,3.0,,,9999.0,,18.9,14.7,29.92,1013.5,,,,,,,,,,,,,,,Clear,72000.0,,,,,,,,,
KRDR,06-11-2015,11:58,METAR,Normal,200,4.0,,,9999.0,,16.2,13.6,29.91,1013.2,,,,,,,,,,,,,,,4/8 Partly Cloudy,72000.0,6500.0,SCT,6500.0,,,,,,
KRDR,06-11-2015,10:58,METAR,Normal,210,4.0,,,9999.0,,14.5,12.5,29.89,1012.5,,,,,,,,,,,,,,,Clear,72000.0,,,,,,,,,
KRDR,06-11-2015,09:58,METAR,Normal,210,3.0,,,9999.0,,15.1,12.5,29.88,1012.2,,,,,,,,,,,,,,,Clear,72000.0,,,,,,,,,
KRDR,06-11-2015,08:58,METAR,Normal,180,5.0,,,9999.0,,17.0,12.4,29.88,1012.1,,,,,,,,,,,,,,,,12000.0,12000.0,OVC,12000.0,,,,,,
KRDR,06-11-2015,07:58,METAR,Normal,200,5.0,,,9999.0,,17.3,11.9,29.88,1012.1,,,,,,,,,,,,,,,2/8 Mostly Clear,72000.0,12000.0,FEW,12000.0,,,,,,
KRDR,06-11-2015,06:58,METAR,Normal,220,5.0,,,9999.0,,17.0,11.8,29.88,1012.2,,,,,,,,,,,,,,,Clear,72000.0,,,,,,,,,
KRDR,06-11-2015,05:58,METAR,Normal,210,4.0,,,9999.0,,17.5,12.1,29.87,1011.8,,,,,,,,,,,,,,,,12000.0,12000.0,BKN,12000.0,,,,,,
KRDR,06-11-2015,04:58,METAR,Normal,230,3.0,,,9999.0,,18.0,12.1,29.87,1011.8,,,,,,,,,,,,,,,2/8 Mostly Clear,72000.0,8000.0,FEW,8000.0,,,,,,
KRDR,06-11-2015,03:58,METAR,Normal,200,5.0,,,9999.0,,18.4,12.7,29.87,1011.8,,,,,,,,,,,,,,,,8000.0,8000.0,OVC,8000.0,,,,,,
KRDR,06-11-2015,02:58,METAR,Normal,180,6.0,,,9999.0,,18.6,12.7,29.87,1011.8,,,,,,,,,,,,,,,,8000.0,8000.0,BKN,8000.0,,,,,,
KRDR,06-11-2015,01:58,METAR,Normal,170,5.0,,,9999.0,,19.9,12.4,29.86,1011.5,,,,,,,,,,,,,,,Clear,72000.0,,,,,,,,,
KRDR,06-11-2015,00:58,METAR,Normal,150,6.0,,,9999.0,,21.4,12.9,29.86,1011.5,,,,,,,,,,,,,,,Clear,72000.0,,,,,,,,,
KRDR,06-10-2015,23:58,METAR,Normal,180,2.0,,,9999.0,,22.4,12.3,29.85,1011.2,,,,,,,,,,,,,,,Clear,72000.0,,,,,,,,,
KRDR,06-10-2015,22:58,METAR,Variable,,4.0,,,9999.0,,23.4,12.3,29.85,1011.3,,,,,,,,,,,,,,,4/8 Partly Cloudy,72000.0,5500.0,SCT,5500.0,,,,,,
KRDR,06-10-2015,21:58,METAR,Variable,,3.0,,,9999.0,,23.1,11.8,29.87,1012.0,,,,,,,,,,,,,,,Clear,72000.0,,,,,,,,,
KRDR,06-10-2015,20:58,METAR,Calm,,0.0,,,9999.0,,22.0,11.2,29.89,1012.6,,,,,,,,,,,,,,,Clear,72000.0,,,,,,,,,
KRDR,06-10-2015,19:58,METAR,Variable,,2.0,,,9999.0,,21.7,11.0,29.89,1012.6,,,,,,,,,,,,,,,Clear,72000.0,,,,,,,,,
KRDR,06-10-2015,18:58,METAR,Normal,10,7.0,,,9999.0,,21.2,10.0,29.90,1012.9,,,,,,,,,,,,,,,Clear,72000.0,,,,,,,,,
KRDR,06-10-2015,17:58,METAR,Normal,50,2.0,,,9999.0,,20.5,9.3,29.91,1013.3,,,,,,,,,,,,,,,Clear,72000.0,,,,,,,,,
KRDR,06-10-2015,16:58,METAR,Variable,,3.0,,,9999.0,,19.9,9.2,29.91,1013.3,,,,,,,,,,,,,,,Clear,72000.0,,,,,,,,,
KRDR,06-10-2015,15:58,METAR,Calm,,0.0,,,9999.0,,19.6,11.5,29.91,1013.3,,,,,,,,,,,,,,,Clear,72000.0,,,,,,,,,
KRDR,06-10-2015,14:58,METAR,Normal,360,5.0,,,9999.0,,18.7,12.3,29.91,1013.3,,,,,,,,,,,,,,,Clear,72000.0,,,,,,,,,
KRDR,06-10-2015,13:58,METAR,Variable,,5.0,,,9999.0,,17.2,12.4,29.89,1012.6,,,,,,,,,,,,,,,Clear,72000.0,,,,,,,,,
KRDR,06-10-2015,12:58,METAR,Normal,330,5.0,,,9999.0,,15.4,12.5,29.88,1012.2,,,,,,,,,,,,,,,Clear,72000.0,,,,,,,,,
KRDR,06-10-2015,11:58,METAR,Normal,300,5.0,,,9999.0,,13.6,11.9,29.88,1012.1,,,,,,,,,,,,,,,Clear,72000.0,,,,,,,,,
KRDR,06-10-2015,10:58,METAR,Normal,300,7.0,,,9999.0,,10.9,9.9,29.85,1011.2,,,,,,,,,,,,,,,Clear,72000.0,,,,,,,,,
KRDR,06-10-2015,09:58,METAR,Normal,310,5.0,,,9999.0,,11.4,10.1,29.84,1010.8,,,,,,,,,,,,,,,Clear,72000.0,,,,,,,,,
KRDR,06-10-2015,08:58,METAR,Normal,340,5.0,,,9999.0,,12.7,11.1,29.83,1010.4,,,,,,,,,,,,,,,Clear,72000.0,,,,,,,,,
KRDR,06-10-2015,07:58,METAR,Normal,360,6.0,,,9999.0,,13.8,11.5,29.83,1010.4,,,,,,,,,,,,,,,Clear,72000.0,,,,,,,,,
KRDR,06-10-2015,06:58,METAR,Normal,350,5.0,,,9999.0,,14.5,11.6,29.82,,,,,,,,,,,,,,,,Clear,72000.0,,,,,,,,,
KRDR,06-10-2015,05:58,METAR,Normal,330,5.0,,,9999.0,,14.6,11.4,29.81,,,,,,,,,,,,,,,,Clear,72000.0,,,,,,,,,
KRDR,06-10-2015,04:58,METAR,Normal,340,5.0,,,9999.0,,13.9,11.3,29.80,,,,,,,,,,,,,,,,Clear,72000.0,,,,,,,,,
KRDR,06-10-2015,03:58,METAR,Normal,360,5.0,,,9999.0,,16.0,12.0,29.77,,,,,,,,,,,,,,,,Clear,72000.0,,,,,,,,,
KRDR,06-10-2015,02:58,METAR,Normal,20,6.0,,,9999.0,,17.1,12.5,29.76,,,,,,,,,,,,,,,,Clear,72000.0,,,,,,,,,
KRDR,06-10-2015,01:58,METAR,Normal,20,6.0,,,9999.0,,19.8,13.2,29.73,,,,,,,,,,,,,,,,Clear,72000.0,,,,,,,,,
KRDR,06-10-2015,00:58,METAR,Normal,30,11.0,,,9999.0,,22.8,12.9,29.71,1006.2,,,,,,,,,,,,,,,Clear,72000.0,,,,,,,,,
KRDR,06-09-2015,23:58,METAR,Normal,30,11.0,,,9999.0,,24.8,14.2,29.69,1005.6,,,,,,,,,,,,,,,Clear,72000.0,,,,,,,,,
KRDR,06-09-2015,22:58,METAR,Normal,30,11.0,18.0,,9999.0,,25.8,12.8,29.68,1005.3,,,,,,,,,,,,,,,Clear,72000.0,,,,,,,,,
KRDR,06-09-2015,21:58,METAR,Normal,10,14.0,20.0,,9999.0,,26.3,13.6,29.67,1004.9,,,,,,,,,,,,,,,Clear,72000.0,,,,,,,,,
KRDR,06-09-2015,20:58,METAR,Normal,360,16.0,25.0,,9999.0,,27.0,13.3,29.66,1004.5,,,,,,,,,,,,,,,Clear,72000.0,,,,,,,,,
KRDR,06-09-2015,19:58,METAR,Normal,10,21.0,25.0,,9999.0,,27.8,17.8,29.64,1003.8,,,,,,,,,,,,,,,Clear,72000.0,,,,,,,,,
KRDR,06-09-2015,18:58,METAR,Normal,320,17.0,28.0,320/27KTS,9999.0,,28.8,17.6,29.60,1002.4,,,,,,,,,,,,,,,2/8 Mostly Clear,72000.0,4500.0,FEW,4500.0,,,,,,
KRDR,06-09-2015,17:58,METAR,Normal,300,16.0,,,9999.0,,29.3,16.5,29.58,1001.7,,,,,,,,,,,,,,,Clear,72000.0,,,,,,,,,
KRDR,06-09-2015,16:58,METAR,Normal,240,10.0,,,9999.0,,29.0,15.9,29.58,1001.7,,,,,,,,,,,,,,,Clear,72000.0,,,,,,,,,
KRDR,06-09-2015,15:58,METAR,Normal,200,12.0,,,9999.0,,26.5,16.2,29.58,1001.8,,,,,,,,,,,TRACE,,,,Clear,72000.0,,,,,,,,,
KRDR,06-09-2015,15:14,SPECI,Normal,190,8.0,,,9999.0,,24.0,17.0,29.62,,,,,,,,,,,,,,,,2/8 Mostly Clear,72000.0,12000.0,FEW,12000.0,,,,,,
KRDR,06-09-2015,14:58,METAR,Normal,170,8.0,,,9999.0,,23.0,15.9,29.61,1002.9,,,,,,,,,,,,,,,Clear,72000.0,,,,,,,,,
KRDR,06-09-2015,13:58,METAR,Normal,90,8.0,,,9999.0,,20.1,16.0,29.65,1004.2,,,,,,,,,,,,,,,,10000.0,10000.0,BKN,10000.0,,,,,,
KRDR,06-09-2015,12:58,METAR,Normal,180,3.0,,,9999.0,,19.5,14.7,29.66,1004.5,,,,,,,,,,,,,,,4/8 Partly Cloudy,72000.0,11000.0,SCT,11000.0,,,,,,
KRDR,06-09-2015,11:58,METAR,Normal,210,5.0,,,9999.0,,17.3,14.0,29.68,1005.2,,,,,,,,,,,.02 IN,,.02 IN,.02 IN,2/8 Mostly Clear,72000.0,12000.0,FEW,12000.0,,,,,,
KRDR,06-09-2015,11:37,SPECI,Normal,340,4.0,,,9999.0,,17.0,15.0,29.69,,,,,,,,,,,,,,,,,12000.0,7000.0,SCT,7000.0,BKN,12000.0,,,,
KRDR,06-09-2015,10:59,SPECI,Normal,10,12.0,,,9999.0,Light Rain,16.0,13.0,29.71,,61,,,,,,,,,,,,,,2/8 Mostly Clear,72000.0,11000.0,FEW,11000.0,,,,,,
KRDR,06-09-2015,10:58,METAR,Normal,10,11.0,,,9999.0,,16.5,13.6,29.71,1006.2,,,,,,,,,,,,,,,2/8 Mostly Clear,72000.0,11000.0,FEW,11000.0,,,,,,
KRDR,06-09-2015,09:58,METAR,Normal,240,5.0,,,9999.0,,17.2,12.6,29.67,1004.8,,,,,,,,,,,,,,,Clear,72000.0,,,,,,,,,
KRDR,06-09-2015,08:58,METAR,Normal,220,8.0,,,9999.0,,16.6,12.6,29.67,1004.8,,,,,,,,,,,,,,,Clear,72000.0,,,,,,,,,
KRDR,06-09-2015,07:58,METAR,Normal,240,6.0,,,9999.0,,16.7,13.1,29.69,1005.5,,,,,,,,,,,,,,,Clear,72000.0,,,,,,,,,
KRDR,06-09-2015,06:58,METAR,Normal,230,6.0,,,9999.0,,16.6,13.7,29.70,1005.8,,,,,,,,,,,,,,,Clear,72000.0,,,,,,,,,
KRDR,06-09-2015,05:58,METAR,Normal,230,6.0,,,9999.0,,17.5,14.2,29.72,1006.5,,,,,,,,,,,,,,,Clear,72000.0,,,,,,,,,
KRDR,06-09-2015,04:58,METAR,Normal,230,5.0,,,9999.0,,16.9,14.8,29.73,1006.9,,,,,,,,,,,,,,,Clear,72000.0,,,,,,,,,
KRDR,06-09-2015,03:58,METAR,Normal,240,3.0,,,9999.0,,17.6,16.1,29.74,1007.3,,,,,,,,,,,,,,,Clear,72000.0,,,,,,,,,
KRDR,06-09-2015,02:58,METAR,Normal,240,3.0,,,9999.0,,18.7,16.5,29.74,1007.3,,,,,,,,,,,,,,,Clear,72000.0,,,,,,,,,
KRDR,06-09-2015,01:58,METAR,Calm,,0.0,,,9999.0,,24.0,15.5,29.73,1006.9,,,,,,,,,,,,,,,Clear,72000.0,,,,,,,,,
KRDR,06-09-2015,00:58,METAR,Normal,350,4.0,,,9999.0,,25.7,16.1,29.73,1006.9,,,,,,,,,,,,,,,Clear,72000.0,,,,,,,,,
KRDR,06-08-2015,23:58,METAR,Normal,350,8.0,,,9999.0,,27.5,13.7,29.72,1006.6,,,,,,,,,,,,,,,Clear,72000.0,,,,,,,,,
KRDR,06-08-2015,22:58,METAR,Normal,340,12.0,,,9999.0,,28.8,12.3,29.72,1006.6,,,,,,,,,,,,,,,Clear,72000.0,,,,,,,,,
KRDR,06-08-2015,21:58,METAR,Variable,340,11.0,,,9999.0,,28.8,12.2,29.72,1006.6,,,,,,,,,,,,,,,2/8 Mostly Clear,72000.0,7500.0,FEW,7500.0,,,,,,
KRDR,06-08-2015,20:58,METAR,Normal,310,10.0,,,9999.0,,29.0,11.2,29.73,1007.0,,,,,,,,,,,,,,,2/8 Mostly Clear,72000.0,11000.0,FEW,11000.0,,,,,,
KRDR,06-08-2015,20:23,SPECI,Normal,290,12.0,,,9999.0,,29.0,12.0,29.74,,,,,,,,,,,,,,,,Clear,72000.0,,,,,,,,,
KRDR,06-08-2015,19:58,METAR,Normal,290,11.0,,,9999.0,,28.6,11.7,29.74,1007.2,,,,,,,,,,,,,,,Clear,72000.0,,,,,,,,,
KRDR,06-08-2015,18:58,METAR,Normal,320,9.0,,,9999.0,,27.9,14.5,29.75,1007.6,,,,,,,,,,,,,,,Clear,72000.0,,,,,,,,,
KRDR,06-08-2015,17:58,METAR,Normal,250,5.0,,,9999.0,,26.7,13.7,29.77,1008.3,,,,,,,,,,,,,,,Clear,72000.0,,,,,,,,,
KRDR,06-08-2015,16:58,METAR,Normal,290,5.0,,,9999.0,,26.0,11.2,29.78,1008.7,,,,,,,,,,,,,,,Clear,72000.0,,,,,,,,,
KRDR,06-08-2015,15:58,METAR,Normal,300,5.0,,,9999.0,,24.4,15.3,29.78,1008.7,,,,,,,,,,,,,,,Clear,72000.0,,,,,,,,,
KRDR,06-08-2015,14:58,METAR,Normal,330,5.0,,,9999.0,,22.6,15.0,29.78,1008.8,,,,,,,,,,,,,,,Clear,72000.0,,,,,,,,,
KRDR,06-08-2015,13:58,METAR,Normal,310,6.0,,,9999.0,,20.0,15.0,29.78,1008.8,,,,,,,,,,,,,,,Clear,72000.0,,,,,,,,,
KRDR,06-08-2015,12:58,METAR,Normal,290,4.0,,,9999.0,,17.3,13.7,29.78,1008.8,,,,,,,,,,,,,,,Clear,72000.0,,,,,,,,,
KRDR,06-08-2015,11:58,METAR,Normal,280,6.0,,,9999.0,,15.2,12.5,29.77,1008.5,,,,,,,,,,,,,.2 IN,.29 IN,Clear,72000.0,,,,,,,,,
KRDR,06-08-2015,10:58,METAR,Normal,290,5.0,,,9999.0,,13.9,11.4,29.76,1008.1,,,,,,,,,,,,,,,Clear,72000.0,,,,,,,,,
KRDR,06-08-2015,09:58,METAR,Normal,280,5.0,,,9999.0,,13.2,11.8,29.74,1007.5,,,,,,,,,,,,,,,Clear,72000.0,,,,,,,,,
KRDR,06-08-2015,08:58,METAR,Normal,290,6.0,,,9999.0,,13.3,12.0,29.73,1007.0,,,,,,,,,,,,.2 IN,,,Clear,72000.0,,,,,,,,,
KRDR,06-08-2015,07:58,METAR,Normal,230,4.0,,,9999.0,,13.9,12.7,29.72,1006.6,,,,,,,,,,,.08 IN,,,,Clear,72000.0,,,,,,,,,
KRDR,06-08-2015,07:29,SPECI,Normal,260,6.0,,,9999.0,,15.0,13.0,29.73,,,,,,,,,,,,,,,,4/8 Partly Cloudy,72000.0,5500.0,SCT,5500.0,,,,,,
KRDR,06-08-2015,07:28,SPECI,Normal,270,6.0,,,9999.0,Light Rain,15.0,13.0,29.73,,61,,,,,,,,,,,,,,,4900.0,4900.0,BKN,4900.0,,,,,,
KRDR,06-08-2015,07:23,SPECI,Variable,,1.0,,,9999.0,Light Rain/Distant Lightning,15.0,13.0,29.73,,61,12,,,,,,,,,,,,,,4900.0,4900.0,BKN,4900.0,,,,,,
KRDR,06-08-2015,07:18,SPECI,Normal,350,4.0,,,9999.0,Rain/Distant Lightning,15.0,13.0,29.75,,62,12,,,,,,,,,,,,,,5000.0,5000.0,OVC,5000.0,,,,,,
KRDR,06-08-2015,07:08,SPECI,Normal,10,13.0,25.0,,9999.0,Rain,16.0,13.0,29.76,,62,,,,,,,,,,,,,,,4500.0,4500.0,OVC,4500.0,,,,,,
KRDR,06-08-2015,07:03,SPECI,Normal,10,17.0,25.0,,8000.0,Light Rain/Distant Lightning,16.0,13.0,29.76,,61,12,,,,,,,,,,,,,,4200.0,4200.0,OVC,4200.0,,,,,,
KRDR,06-08-2015,06:58,METAR,Normal,20,19.0,25.0,320/37KTS,6400.0,Rain/Distant Lightning,15.7,12.9,29.77,1008.3,62,12,,,,,,,,,.12 IN,,,,,4700.0,4700.0,OVC,4700.0,,,,,,
KRDR,06-08-2015,06:48,SPECI,Normal,10,19.0,25.0,,8000.0,Heavy Rain/Distant Lightning/Mist,16.0,13.0,29.78,,63,10,12,,,,,,,,,,,,,4700.0,2700.0,FEW,2700.0,BKN,4700.0,OVC,6000.0,,
KRDR,06-08-2015,06:34,SPECI,Normal,340,18.0,34.0,,8000.0,Heavy Thunderstorm with Rain or Snow/Mist,16.0,14.0,29.79,,,,,97,10,,,,,,,,,,,6000.0,2300.0,FEW,2300.0,BKN,6000.0,OVC,8000.0,,
KRDR,06-08-2015,06:31,SPECI,Normal,350,25.0,34.0,,8000.0,Heavy Thunderstorm and Rain or Snow Showers/Mist,16.0,14.0,29.79,,95,10,,,,,,,,,,,,,,6000.0,1600.0,FEW,1600.0,BKN,6000.0,OVC,8000.0,,
KRDR,06-08-2015,06:26,SPECI,Normal,340,11.0,,,9999.0,Thunderstorm with Rain or Snow,16.0,14.0,29.77,,,,,95,,,,,,,,,,,,8000.0,4000.0,FEW,4000.0,BKN,8000.0,BKN,10000.0,,
KRDR,06-08-2015,06:24,SPECI,Normal,330,10.0,,,9999.0,Light Rain,16.0,14.0,29.76,,61,,,,,,,,,,,,,,,8000.0,4000.0,FEW,4000.0,BKN,8000.0,BKN,9600.0,,
KRDR,06-08-2015,05:58,METAR,Normal,270,5.0,,,9999.0,,14.5,13.7,29.72,1006.6,,,,,,,,,,,TRACE,,.09 IN,,4/8 Partly Cloudy,72000.0,9000.0,FEW,9100.0,SCT,11000.0,,,,
KRDR,06-08-2015,05:45,SPECI,Normal,270,3.0,,,9999.0,,14.0,14.0,29.72,,,,,,,,,,,,,,,,4/8 Partly Cloudy,72000.0,11000.0,SCT,11000.0,,,,,,
KRDR,06-08-2015,05:44,SPECI,Normal,270,3.0,,,9999.0,Light Rain,14.0,14.0,29.72,,61,,,,,,,,,,,,,,4/8 Partly Cloudy,72000.0,11000.0,SCT,11000.0,,,,,,
KRDR,06-08-2015,04:58,METAR,Normal,270,3.0,,,9999.0,,14.3,13.4,29.71,1006.3,,,,,,,,,,,,,,,Clear,72000.0,,,,,,,,,
KRDR,06-08-2015,03:58,METAR,Normal,250,4.0,,,9999.0,,15.4,14.3,29.71,1006.3,,,,,,,,,,,,,,,Clear,72000.0,,,,,,,,,
KRDR,06-08-2015,02:58,METAR,Normal,250,7.0,,,9999.0,,15.3,14.4,29.71,1006.4,,,,,,,,,,,.02 IN,.09 IN,,,Clear,72000.0,,,,,,,,,
KRDR,06-08-2015,02:27,SPECI,Normal,110,2.0,,,9999.0,,16.0,14.0,29.70,,,,,,,,,,,,,,,,4/8 Partly Cloudy,72000.0,7000.0,SCT,7000.0,,,,,,
KRDR,06-08-2015,01:58,METAR,Normal,290,9.0,,,9999.0,Light Rain/Distant Lightning,17.1,14.9,29.72,1006.7,61,12,,,,,,,,,.06 IN,,,,,6000.0,6000.0,BKN,6000.0,BKN,9100.0,,,,
KRDR,06-08-2015,01:58,SPECI,Normal,290,8.0,,,9999.0,Thunderstorm with Rain or Snow,17.0,14.0,29.72,,,,,95,,,,,,,,,,,,6000.0,6000.0,BKN,6000.0,BKN,9100.0,,,,
KRDR,06-08-2015,01:56,SPECI,Normal,290,9.0,,,9999.0,Light Rain/Distant Lightning,17.0,14.0,29.72,,61,12,,,,,,,,,,,,,,6000.0,6000.0,BKN,6000.0,BKN,9100.0,,,,
KRDR,06-08-2015,01:51,SPECI,Normal,300,9.0,,,9999.0,Light Rain/Distant Lightning,17.0,15.0,29.71,,61,12,,,,,,,,,,,,,,6000.0,6000.0,BKN,6000.0,BKN,9100.0,,,,
KRDR,06-08-2015,01:49,SPECI,Normal,300,10.0,,,9999.0,Thunderstorm and Rain or Snow Showers,17.0,15.0,29.71,,92,,,,,,,,,,,,,,,6000.0,6000.0,BKN,6000.0,BKN,8600.0,,,,
KRDR,06-08-2015,01:34,SPECI,Normal,300,7.0,20.0,,9999.0,Thunderstorm and Rain or Snow Showers,18.0,15.0,29.71,,92,,,,,,,,,,,,,,,5500.0,5500.0,BKN,5500.0,BKN,7500.0,OVC,9100.0,,
KRDR,06-08-2015,01:29,SPECI,Normal,360,15.0,20.0,,9999.0,Thunderstorm and Rain or Snow Showers,19.0,15.0,29.71,,92,,,,,,,,,,,,,,,7500.0,4400.0,SCT,4400.0,BKN,7500.0,BKN,9100.0,,
KRDR,06-08-2015,01:14,SPECI,Normal,320,7.0,,,9999.0,Thunderstorm and Rain or Snow Showers,20.0,14.0,29.70,,92,,,,,,,,,,,,,,,9000.0,7500.0,SCT,7500.0,BKN,9100.0,,,,
KRDR,06-08-2015,01:06,SPECI,Normal,350,4.0,,,9999.0,Dry Thunderstorm,19.0,14.0,29.69,,91,,,,,,,,,,,,,,4/8 Partly Cloudy,72000.0,7000.0,FEW,7000.0,SCT,9100.0,,,,
KRDR,06-08-2015,00:58,METAR,Normal,340,4.0,,,9999.0,,19.3,14.9,29.68,1005.4,,,,,,,,,,,.01 IN,,,,Clear,72000.0,,,,,,,,,
KRDR,06-07-2015,23:58,METAR,Normal,50,8.0,,,9999.0,,21.7,14.1,29.68,1005.4,,,,,,,,,,,TRACE,,TRACE,,2/8 Mostly Clear,72000.0,7000.0,FEW,7000.0,,,,,,
KRDR,06-07-2015,23:42,SPECI,Normal,50,9.0,14.0,,9999.0,,22.0,14.0,29.68,,,,,,,,,,,,,,,,2/8 Mostly Clear,72000.0,7000.0,FEW,7000.0,,,,,,
KRDR,06-07-2015,23:34,SPECI,Normal,60,11.0,,,9999.0,Dry Thunderstorm,23.0,15.0,29.67,,91,,,,,,,,,,,,,,Clear,72000.0,,,,,,,,,
KRDR,06-07-2015,23:27,SPECI,Normal,330,5.0,,,9999.0,Dry Thunderstorm,23.0,14.0,29.66,,91,,,,,,,,,,,,,,2/8 Mostly Clear,72000.0,11000.0,FEW,11000.0,,,,,,
KRDR,06-07-2015,23:04,SPECI,Normal,360,8.0,18.0,,9999.0,,24.0,15.0,29.65,,,,,,,,,,,,,,,,Clear,72000.0,,,,,,,,,
KRDR,06-07-2015,23:02,SPECI,Normal,340,11.0,18.0,,9999.0,Light Drizzle,24.0,14.0,29.65,,51,,,,,,,,,,,,,,2/8 Mostly Clear,72000.0,3600.0,FEW,3600.0,,,,,,
KRDR,06-07-2015,22:58,METAR,Normal,340,13.0,18.0,,9999.0,,24.0,14.0,29.65,1004.3,,,,,,,,,,,TRACE,,,,2/8 Mostly Clear,72000.0,3600.0,FEW,3600.0,,,,,,
KRDR,06-07-2015,22:54,SPECI,Normal,320,8.0,,,9999.0,,24.0,14.0,29.65,,,,,,,,,,,,,,,,2/8 Mostly Clear,72000.0,3600.0,FEW,3600.0,,,,,,
KRDR,06-07-2015,22:32,SPECI,Normal,330,11.0,,,9999.0,Light Rain/Distant Lightning,25.0,15.0,29.64,,61,12,,,,,,,,,,,,,Clear,72000.0,,,,,,,,,
KRDR,06-07-2015,21:58,METAR,Normal,320,7.0,,,9999.0,,22.1,14.7,29.64,1004.0,,,,,,,,,,,TRACE,,,,2/8 Mostly Clear,72000.0,4600.0,FEW,4600.0,,,,,,
KRDR,06-07-2015,21:49,SPECI,Normal,340,8.0,,,9999.0,Distant Lightning,22.0,14.0,29.64,,12,,,,,,,,,,,,,,2/8 Mostly Clear,72000.0,4600.0,FEW,4600.0,,,,,,
KRDR,06-07-2015,21:28,SPECI,Normal,330,17.0,26.0,,9999.0,Light Rain/Distant Lightning,25.0,15.0,29.64,,61,12,,,,,,,,,,,,,,5500.0,5500.0,BKN,5500.0,,,,,,
KRDR,06-07-2015,21:22,SPECI,Normal,340,19.0,26.0,,9999.0,Distant Lightning,27.0,13.0,29.64,,12,,,,,,,,,,,,,,,6000.0,2000.0,FEW,2000.0,BKN,6000.0,,,,
KRDR,06-07-2015,21:10,SPECI,Normal,320,16.0,24.0,,9999.0,Thunderstorm,28.0,12.0,29.64,,,,,17,,,,,,,,,,,,6000.0,6000.0,BKN,6000.0,,,,,,
KRDR,06-07-2015,21:07,SPECI,Normal,310,17.0,23.0,,9999.0,Dry Thunderstorm,28.0,11.0,29.64,,91,,,,,,,,,,,,,,Clear,72000.0,,,,,,,,,
KRDR,06-07-2015,20:58,METAR,Normal,320,15.0,20.0,,9999.0,,28.2,12.5,29.63,1003.5,,,,,,,,,,,,,,,Clear,72000.0,,,,,,,,,
KRDR,06-07-2015,19:58,METAR,Normal,290,17.0,22.0,,9999.0,,27.7,13.9,29.64,1003.9,,,,,,,,,,,,,,,Clear,72000.0,,,,,,,,,
KRDR,06-07-2015,18:58,METAR,Normal,320,13.0,,,9999.0,,27.2,14.4,29.65,1004.3,,,,,,,,,,,,,,,2/8 Mostly Clear,72000.0,5500.0,FEW,5500.0,,,,,,
KRDR,06-07-2015,17:58,METAR,Normal,330,11.0,16.0,,9999.0,,26.8,14.4,29.67,1005.0,,,,,,,,,,,,,,,Clear,72000.0,,,,,,,,,
KRDR,06-07-2015,16:58,METAR,Normal,320,9.0,,,9999.0,,25.8,16.3,29.67,1005.0,,,,,,,,,,,,,,,Clear,72000.0,,,,,,,,,
KRDR,06-07-2015,15:58,METAR,Normal,330,9.0,,,9999.0,,24.3,15.9,29.66,1004.7,,,,,,,,,,,,,,,Clear,72000.0,,,,,,,,,
KRDR,06-07-2015,14:58,METAR,Normal,320,9.0,,,9999.0,,22.6,15.7,29.66,1004.7,,,,,,,,,,,,,,,Clear,72000.0,,,,,,,,,
KRDR,06-07-2015,13:58,METAR,Normal,330,10.0,,,9999.0,,21.0,15.0,29.66,1004.6,,,,,,,,,,,,,,,Clear,72000.0,,,,,,,,,
KRDR,06-07-2015,12:58,METAR,Normal,300,9.0,,,9999.0,,18.7,14.4,29.66,1004.7,,,,,,,,,,,,,,,Clear,72000.0,,,,,,,,,
KRDR,06-07-2015,11:58,METAR,Normal,300,8.0,,,9999.0,,16.6,16.1,29.65,1004.4,,,,,,,,,,,,,,.15 IN,Clear,72000.0,,,,,,,,,
KRDR,06-07-2015,10:58,METAR,Normal,300,9.0,,,9999.0,,15.6,15.1,29.64,1004.1,,,,,,,,,,,,,,,Clear,72000.0,,,,,,,,,
KRDR,06-07-2015,09:58,METAR,Normal,290,7.0,,,9999.0,,16.0,15.7,29.64,1004.1,,,,,,,,,,,,,,,Clear,72000.0,,,,,,,,,
KRDR,06-07-2015,08:58,METAR,Normal,290,6.0,,,9999.0,,14.2,13.9,29.65,1004.5,,,,,,,,,,,,,,,Clear,72000.0,,,,,,,,,
KRDR,06-07-2015,08:18,SPECI,Normal,260,4.0,,,9999.0,,13.0,13.0,29.66,,,,,,,,,,,,,,,,Clear,72000.0,,,,,,,,,
KRDR,06-07-2015,08:13,SPECI,Normal,260,4.0,,,8000.0,Mist,13.0,13.0,29.66,,10,,,,,,,,,,,,,,Clear,72000.0,,,,,,,,,
KRDR,06-07-2015,07:58,METAR,Normal,240,3.0,,,6400.0,Mist,12.5,12.2,29.66,1004.9,10,,,,,,,,,,,,,,Clear,72000.0,,,,,,,,,
KRDR,06-07-2015,07:53,SPECI,Normal,240,3.0,,,6400.0,Mist,12.0,12.0,29.65,,10,,,,,,,,,,,,,,Clear,72000.0,,,,,,,,,
KRDR,06-07-2015,07:48,SPECI,Normal,240,3.0,,,8000.0,Mist,13.0,12.0,29.65,,10,,,,,,,,,,,,,,Clear,72000.0,,,,,,,,,
KRDR,06-07-2015,07:43,SPECI,Normal,240,3.0,,,9999.0,,14.0,13.0,29.65,,,,,,,,,,,,,,,,Clear,72000.0,,,,,,,,,
KRDR,06-07-2015,07:38,SPECI,Normal,230,4.0,,,9999.0,,13.0,13.0,29.66,,,,,,,,,,,,,,,,Clear,72000.0,,,,,,,,,
KRDR,06-07-2015,07:33,SPECI,Normal,230,4.0,,,9999.0,,13.0,12.0,29.66,,,,,,,,,,,,,,,,Clear,72000.0,,,,,,,,,
KRDR,06-07-2015,07:28,SPECI,Normal,230,4.0,,,4800.0,Mist,12.0,12.0,29.66,,10,,,,,,,,,,,,,,Clear,72000.0,,,,,,,,,
KRDR,06-07-2015,07:23,SPECI,Normal,240,3.0,,,3200.0,Mist,13.0,12.0,29.66,,10,,,,,,,,,,,,,,Clear,72000.0,,,,,,,,,
KRDR,06-07-2015,07:18,SPECI,Normal,230,4.0,,,2400.0,Mist,13.0,12.0,29.66,,10,,,,,,,,,,,,,,Clear,72000.0,,,,,,,,,
KRDR,06-07-2015,07:13,SPECI,Normal,230,5.0,,,1600.0,Mist,13.0,12.0,29.66,,10,,,,,,,,,,,,,,Clear,72000.0,,,,,,,,,
KRDR,06-07-2015,07:08,SPECI,Normal,230,5.0,,,1600.0,Mist,13.0,13.0,29.66,,10,,,,,,,,,,,,,,Clear,72000.0,,,,,,,,,
KRDR,06-07-2015,07:03,SPECI,Normal,240,4.0,,,2000.0,Mist,13.0,13.0,29.66,,10,,,,,,,,,,,,,,Clear,72000.0,,,,,,,,,
KRDR,06-07-2015,06:58,METAR,Normal,220,4.0,,,2000.0,Mist,13.2,12.9,29.66,1004.9,10,,,,,,,,,,,,,,Clear,72000.0,,,,,,,,,
KRDR,06-07-2015,06:53,SPECI,Normal,210,4.0,,,2000.0,Mist,13.0,13.0,29.67,,10,,,,,,,,,,,,,,Clear,72000.0,,,,,,,,,
KRDR,06-07-2015,06:43,SPECI,Normal,210,2.0,,,4000.0,Mist,13.0,13.0,29.67,,10,,,,,,,,,,,,,,Clear,72000.0,,,,,,,,,
KRDR,06-07-2015,06:38,SPECI,Normal,220,3.0,,,8000.0,Mist,13.0,13.0,29.67,,10,,,,,,,,,,,,,,Clear,72000.0,,,,,,,,,
KRDR,06-07-2015,06:13,SPECI,Normal,220,5.0,,,9999.0,,13.0,13.0,29.68,,,,,,,,,,,,,,,,Clear,72000.0,,,,,,,,,
KRDR,06-07-2015,06:08,SPECI,Normal,220,5.0,,,9999.0,Mist,13.0,13.0,29.68,,10,,,,,,,,,,,,,,Clear,72000.0,,,,,,,,,
KRDR,06-07-2015,06:03,SPECI,Normal,220,5.0,,,6400.0,Mist,13.0,13.0,29.68,,10,,,,,,,,,,,,,,Clear,72000.0,,,,,,,,,
KRDR,06-07-2015,05:58,METAR,Normal,220,4.0,,,3200.0,Mist,13.0,13.0,29.68,1005.6,10,,,,,,,,,,,,,,Clear,72000.0,,,,,,,,,
KRDR,06-07-2015,05:53,SPECI,Normal,220,4.0,,,2800.0,Mist,13.0,13.0,29.68,,10,,,,,,,,,,,,,,Clear,72000.0,,,,,,,,,
KRDR,06-07-2015,05:48,SPECI,Normal,220,3.0,,,4000.0,Mist,13.0,13.0,29.69,,10,,,,,,,,,,,,,,Clear,72000.0,,,,,,,,,
KRDR,06-07-2015,05:43,SPECI,Normal,220,3.0,,,2800.0,Mist,13.0,13.0,29.69,,10,,,,,,,,,,,,,,Clear,72000.0,,,,,,,,,
KRDR,06-07-2015,05:38,SPECI,Normal,220,3.0,,,1600.0,Mist,13.0,13.0,29.69,,10,,,,,,,,,,,,,,Clear,72000.0,,,,,,,,,
KRDR,06-07-2015,05:28,SPECI,Normal,230,4.0,,,800.0,Fog,13.0,12.0,29.69,,30,,,,,,,,,,,,,,Clear,72000.0,,,,,,,,,
KRDR,06-07-2015,05:23,SPECI,Normal,220,4.0,,,400.0,Fog,13.0,12.0,29.69,,30,,,,,,,,,,,,,,Clear,72000.0,,,,,,,,,
KRDR,06-07-2015,05:18,SPECI,Normal,240,3.0,,,800.0,Fog,13.0,12.0,29.69,,30,,,,,,,,,,,,,,Clear,72000.0,,,,,,,,,
KRDR,06-07-2015,05:13,SPECI,Normal,240,3.0,,,1600.0,Mist,13.0,12.0,29.69,,10,,,,,,,,,,,,,,Clear,72000.0,,,,,,,,,
KRDR,06-07-2015,05:08,SPECI,Normal,230,3.0,,,800.0,Fog,13.0,13.0,29.69,,30,,,,,,,,,,,,,,Clear,72000.0,,,,,,,,,
KRDR,06-07-2015,04:58,METAR,Normal,240,2.0,,,800.0,Fog,11.9,11.6,29.69,1005.9,30,,,,,,,,,,,,,,Clear,72000.0,,,,,,,,,
KRDR,06-07-2015,04:03,SPECI,Normal,290,1.0,,,800.0,Fog,13.0,12.0,29.70,,30,,,,,,,,,,,,,,Clear,72000.0,,,,,,,,,
KRDR,06-07-2015,03:58,METAR,Normal,270,2.0,,,400.0,Fog,13.0,12.7,29.69,1005.8,30,,,,,,,,,,,,,,Clear,72000.0,,,,,,,,,
KRDR,06-07-2015,03:43,SPECI,Normal,270,3.0,,,400.0,Fog,13.0,13.0,29.70,,30,,,,,,,,,,,,,,Clear,72000.0,,,,,,,,,
KRDR,06-07-2015,03:38,SPECI,Normal,270,3.0,,,800.0,Fog,13.0,13.0,29.70,,30,,,,,,,,,,,,,,Clear,72000.0,,,,,,,,,
KRDR,06-07-2015,03:33,SPECI,Normal,270,3.0,,,1200.0,Mist,13.0,13.0,29.70,,10,,,,,,,,,,,,,,Clear,72000.0,,,,,,,,,
KRDR,06-07-2015,03:28,SPECI,Normal,270,2.0,,,800.0,Fog,13.0,13.0,29.71,,30,,,,,,,,,,,,,,Clear,72000.0,,,,,,,,,
KRDR,06-07-2015,03:18,SPECI,Normal,280,2.0,,,400.0,Fog,13.0,13.0,29.71,,30,,,,,,,,,,,,,,Clear,72000.0,,,,,,,,,
KRDR,06-07-2015,03:03,SPECI,Calm,,0.0,,,800.0,Fog,14.0,14.0,29.71,,30,,,,,,,,,,,,,,Clear,72000.0,,,,,,,,,
KRDR,06-07-2015,02:58,METAR,Calm,,0.0,,,400.0,Fog,14.0,14.0,29.71,1006.5,30,,,,,,,,,,,,,,Clear,72000.0,,,,,,,,,
KRDR,06-07-2015,02:53,SPECI,Calm,,0.0,,,800.0,Fog,15.0,14.0,29.70,,30,,,,,,,,,,,,,,Clear,72000.0,,,,,,,,,
KRDR,06-07-2015,02:48,SPECI,Normal,360,1.0,,,4000.0,Mist,15.0,14.0,29.70,,10,,,,,,,,,,,,,,Clear,72000.0,,,,,,,,,
KRDR,06-07-2015,01:58,METAR,Normal,60,4.0,,,9999.0,,18.1,15.9,29.69,1005.8,,,,,,,,,,,,,,,Clear,72000.0,,,,,,,,,
KRDR,06-07-2015,00:58,METAR,Normal,30,6.0,,,9999.0,,19.4,16.8,29.68,1005.4,,,,,,,,,,,,,,,Clear,72000.0,,,,,,,,,
KRDR,06-06-2015,23:58,METAR,Normal,10,9.0,,,9999.0,,19.4,16.9,29.69,1005.8,,,,,,,,,,,,,.14 IN,,4/8 Partly Cloudy,72000.0,1100.0,SCT,1100.0,,,,,,
KRDR,06-06-2015,23:18,SPECI,Normal,360,10.0,,,9999.0,,19.0,17.0,29.69,,,,,,,,,,,,,,,,,900.0,1000.0,SCT,1000.0,SCT,1500.0,BKN,2100.0,,
KRDR,06-06-2015,23:13,SPECI,Normal,350,7.0,,,9999.0,,19.0,17.0,29.70,,,,,,,,,,,,,,,,,1000.0,1000.0,SCT,1000.0,BKN,1500.0,OVC,2100.0,,
KRDR,06-06-2015,23:03,SPECI,Normal,360,11.0,,,9999.0,,19.0,17.0,29.70,,,,,,,,,,,,,,,,,1000.0,1000.0,BKN,1000.0,OVC,1500.0,,,,
KRDR,06-06-2015,22:58,METAR,Normal,350,11.0,,,9999.0,,18.7,17.0,29.70,1006.2,,,,,,,,,,,,,,,,900.0,900.0,BKN,900.0,OVC,1500.0,,,,
KRDR,06-06-2015,22:48,SPECI,Normal,330,9.0,,,9999.0,,19.0,17.0,29.71,,,,,,,,,,,,,,,,,700.0,800.0,BKN,800.0,OVC,1300.0,,,,
KRDR,06-06-2015,22:13,SPECI,Variable,350,7.0,,,9999.0,,19.0,18.0,29.71,,,,,,,,,,,,,,,,,700.0,700.0,OVC,700.0,,,,,,
KRDR,06-06-2015,21:58,METAR,Normal,350,4.0,,,9999.0,,19.0,18.0,29.72,1006.9,,,,,,,,,,,.01 IN,,,,,600.0,600.0,OVC,600.0,,,,,,
KRDR,06-06-2015,21:42,SPECI,Normal,10,5.0,,,9999.0,,18.0,18.0,29.72,,,,,,,,,,,,,,,,,500.0,500.0,BKN,500.0,BKN,4500.0,OVC,6000.0,,
KRDR,06-06-2015,21:31,SPECI,Normal,40,5.0,,,9999.0,,18.0,17.0,29.72,,,,,,,,,,,,,,,,,300.0,300.0,BKN,300.0,BKN,1700.0,BKN,4500.0,,
KRDR,06-06-2015,21:25,SPECI,Normal,50,5.0,,,9999.0,,18.0,17.0,29.72,,,,,,,,,,,,,,,,,2300.0,300.0,FEW,300.0,SCT,1700.0,BKN,4500.0,,
KRDR,06-06-2015,21:20,SPECI,Normal,60,6.0,,,9999.0,,17.0,17.0,29.72,,,,,,,,,,,,,,,,,300.0,300.0,SCT,300.0,BKN,1600.0,BKN,4400.0,,
KRDR,06-06-2015,21:18,SPECI,Normal,60,6.0,,,9999.0,Light Rain,17.0,17.0,29.72,,61,,,,,,,,,,,,,,,300.0,300.0,SCT,300.0,BKN,1800.0,BKN,4400.0,,
KRDR,06-06-2015,20:58,METAR,Variable,10,9.0,,,6400.0,Light Rain/Mist,16.5,16.1,29.74,1007.6,61,10,,,,,,,,,.03 IN,.13 IN,,,,300.0,300.0,OVC,300.0,,,,,,
KRDR,06-06-2015,20:26,SPECI,Normal,10,5.0,,,6400.0,Light Rain/Mist,17.0,16.0,29.75,,61,10,,,,,,,,,,,,,,300.0,300.0,BKN,300.0,OVC,800.0,,,,
KRDR,06-06-2015,20:16,SPECI,Variable,,4.0,,,9999.0,Light Drizzle,17.0,16.0,29.75,,51,,,,,,,,,,,,,,,800.0,300.0,SCT,300.0,OVC,800.0,,,,
KRDR,06-06-2015,20:03,SPECI,Normal,340,7.0,,,9999.0,,16.0,16.0,29.76,,,,,,,,,,,,,,,,,800.0,300.0,FEW,300.0,OVC,800.0,,,,
KRDR,06-06-2015,19:58,METAR,Normal,40,6.0,,,9999.0,,16.0,16.0,29.75,1007.9,,,,,,,,,,,.02 IN,,,,,700.0,300.0,FEW,300.0,OVC,700.0,,,,
KRDR,06-06-2015,19:52,SPECI,Normal,40,5.0,,,9999.0,,16.0,16.0,29.75,,,,,,,,,,,,,,,,,700.0,300.0,SCT,300.0,OVC,700.0,,,,
KRDR,06-06-2015,19:42,SPECI,Normal,30,7.0,,,9999.0,,16.0,16.0,29.75,,,,,,,,,,,,,,,,,300.0,600.0,OVC,600.0,,,,,,
KRDR,06-06-2015,19:38,SPECI,Normal,30,6.0,,,9999.0,Light Rain,16.0,16.0,29.76,,61,,,,,,,,,,,,,,,300.0,300.0,SCT,300.0,OVC,700.0,,,,
KRDR,06-06-2015,19:33,SPECI,Normal,20,7.0,,,9999.0,Light Rain,17.0,16.0,29.76,,61,,,,,,,,,,,,,,,300.0,300.0,BKN,300.0,BKN,800.0,OVC,1200.0,,
KRDR,06-06-2015,19:28,SPECI,Normal,40,6.0,,,9999.0,Light Rain,17.0,16.0,29.76,,61,,,,,,,,,,,,,,,300.0,300.0,SCT,300.0,OVC,700.0,,,,
KRDR,06-06-2015,19:13,SPECI,Calm,,0.0,,,9999.0,Light Drizzle,19.0,18.0,29.76,,51,,,,,,,,,,,,,,,800.0,900.0,BKN,900.0,OVC,1400.0,,,,
KRDR,06-06-2015,19:08,SPECI,Normal,170,2.0,,,9999.0,Light Rain/Mist,19.0,18.0,29.76,,61,10,,,,,,,,,,,,,,800.0,1000.0,BKN,1000.0,BKN,1400.0,OVC,2100.0,,
KRDR,06-06-2015,18:58,METAR,Normal,190,5.0,,,8000.0,Light Rain/Mist,18.9,17.9,29.76,1008.2,61,10,,,,,,,,,.08 IN,,,,,900.0,900.0,BKN,900.0,BKN,1500.0,OVC,2600.0,,
KRDR,06-06-2015,18:51,SPECI,Normal,190,4.0,,,9999.0,Light Rain/Mist,19.0,18.0,29.77,,61,10,,,,,,,,,,,,,,900.0,900.0,BKN,900.0,BKN,1500.0,OVC,2600.0,,
KRDR,06-06-2015,18:46,SPECI,Normal,200,5.0,,,9999.0,Light Rain/Mist,19.0,18.0,29.77,,61,10,,,,,,,,,,,,,,900.0,1000.0,BKN,1000.0,BKN,1500.0,OVC,2600.0,,
KRDR,06-06-2015,18:26,SPECI,Normal,210,6.0,,,8000.0,Light Rain/Mist,19.0,18.0,29.78,,61,10,,,,,,,,,,,,,,3000.0,1000.0,FEW,1000.0,SCT,1600.0,OVC,3000.0,,
KRDR,06-06-2015,18:13,SPECI,Normal,220,7.0,,,6400.0,Light Rain/Mist,19.0,18.0,29.78,,61,10,,,,,,,,,,,,,,3300.0,2600.0,FEW,2600.0,BKN,3300.0,,,,
KRDR,06-06-2015,18:06,SPECI,Normal,230,6.0,,,8000.0,Mist,19.0,18.0,29.78,,10,,,,,,,,,,,,,,,3300.0,2800.0,SCT,2800.0,BKN,3300.0,,,,
KRDR,06-06-2015,18:01,SPECI,Normal,230,6.0,,,9999.0,Light Drizzle,19.0,18.0,29.79,,51,,,,,,,,,,,,,,,3400.0,2700.0,SCT,2700.0,BKN,3400.0,,,,
KRDR,06-06-2015,17:59,SPECI,Normal,230,7.0,,,9999.0,,19.0,18.0,29.79,,,,,,,,,,,,,,,,,2600.0,2700.0,SCT,2700.0,BKN,3400.0,,,,
KRDR,06-06-2015,17:58,METAR,Normal,230,7.0,,,9999.0,Light Drizzle,19.0,17.5,29.79,1009.1,51,,,,,,,,,,.01 IN,,.01 IN,,,2600.0,2700.0,SCT,2700.0,BKN,3400.0,,,,
KRDR,06-06-2015,17:35,SPECI,Normal,200,14.0,21.0,,9999.0,Light Rain,20.0,17.0,29.79,,61,,,,,,,,,,,,,,,2600.0,2600.0,BKN,2600.0,BKN,6000.0,,,,
KRDR,06-06-2015,17:30,SPECI,Normal,200,12.0,18.0,,9999.0,,21.0,16.0,29.79,,,,,,,,,,,,,,,,,2600.0,2600.0,BKN,2600.0,BKN,6000.0,,,,
KRDR,06-06-2015,17:29,SPECI,Normal,200,13.0,18.0,,9999.0,Light Drizzle,21.0,16.0,29.79,,51,,,,,,,,,,,,,,,2700.0,2700.0,BKN,2700.0,BKN,6000.0,,,,
KRDR,06-06-2015,16:58,METAR,Normal,180,9.0,,,9999.0,,20.2,15.4,29.79,1009.1,,,,,,,,,,,,,,,2/8 Mostly Clear,72000.0,6000.0,FEW,6000.0,,,,,,
KRDR,06-06-2015,15:58,METAR,Normal,180,16.0,,,9999.0,,19.8,14.7,29.83,1010.5,,,,,,,,,,,,,,,Clear,72000.0,,,,,,,,,
KRDR,06-06-2015,14:58,METAR,Normal,180,12.0,,,9999.0,,18.7,13.6,29.88,1012.2,,,,,,,,,,,,,,,2/8 Mostly Clear,72000.0,6000.0,FEW,6000.0,,,,,,
KRDR,06-06-2015,13:58,METAR,Normal,180,12.0,,,9999.0,,17.3,12.5,29.92,1013.5,,,,,,,,,,,,,,,4/8 Partly Cloudy,72000.0,6500.0,SCT,6500.0,,,,,,
KRDR,06-06-2015,12:58,METAR,Normal,180,10.0,,,9999.0,,16.2,11.7,29.94,1014.2,,,,,,,,,,,,,,,,8000.0,8000.0,BKN,8000.0,,,,,,
KRDR,06-06-2015,11:58,METAR,Normal,170,10.0,,,9999.0,,15.1,11.2,29.95,1014.6,,,,,,,,,,,,,,,Clear,72000.0,,,,,,,,,
KRDR,06-06-2015,10:58,METAR,Normal,170,10.0,,,9999.0,,14.8,11.6,29.98,1015.5,,,,,,,,,,,,,,,2/8 Mostly Clear,72000.0,3400.0,FEW,3400.0,,,,,,
KRDR,06-06-2015,09:58,METAR,Normal,170,10.0,,,9999.0,,15.2,12.0,30.00,1016.3,,,,,,,,,,,,,,,Clear,72000.0,,,,,,,,,
KRDR,06-06-2015,08:58,METAR,Normal,160,7.0,,,9999.0,,15.5,12.1,30.03,1017.2,,,,,,,,,,,,,,,Clear,72000.0,,,,,,,,,
KRDR,06-06-2015,07:58,METAR,Normal,170,7.0,,,9999.0,,16.3,11.9,30.05,1017.9,,,,,,,,,,,,,,,,3800.0,3800.0,BKN,3800.0,,,,,,
KRDR,06-06-2015,06:58,METAR,Normal,150,7.0,,,9999.0,,17.1,12.0,30.06,1018.3,,,,,,,,,,,,,,,,4700.0,4700.0,BKN,4700.0,,,,,,
KRDR,06-06-2015,05:58,METAR,Normal,160,8.0,,,9999.0,,17.6,11.9,30.06,1018.3,,,,,,,,,,,,,,,4/8 Partly Cloudy,72000.0,4900.0,FEW,4900.0,SCT,6000.0,,,,
KRDR,06-06-2015,04:58,METAR,Normal,150,6.0,,,9999.0,,17.3,12.2,30.06,1018.3,,,,,,,,,,,,,,,,5000.0,5000.0,OVC,5000.0,,,,,,
KRDR,06-06-2015,03:58,METAR,Normal,150,6.0,,,9999.0,,17.4,11.9,30.08,1018.9,,,,,,,,,,,,,,,Clear,72000.0,,,,,,,,,
KRDR,06-06-2015,02:58,METAR,Normal,130,5.0,,,9999.0,,18.4,12.1,30.09,1019.3,,,,,,,,,,,,,,,Clear,72000.0,,,,,,,,,
KRDR,06-06-2015,01:58,METAR,Normal,150,6.0,,,9999.0,,20.8,12.4,30.10,1019.6,,,,,,,,,,,,,,,,6000.0,6000.0,OVC,6000.0,,,,,,
KRDR,06-06-2015,00:58,METAR,Normal,170,7.0,,,9999.0,,22.1,11.8,30.12,1020.3,,,,,,,,,,,,,,,,6000.0,6000.0,BKN,6000.0,,,,,,
KRDR,06-05-2015,23:58,METAR,Normal,150,9.0,,,9999.0,,23.3,10.1,30.12,1020.4,,,,,,,,,,,,,TRACE,,Clear,72000.0,,,,,,,,,
KRDR,06-05-2015,22:58,METAR,Normal,170,11.0,,,9999.0,,23.8,9.5,30.14,1021.1,,,,,,,,,,,,,,,4/8 Partly Cloudy,72000.0,12000.0,SCT,12000.0,,,,,,
KRDR,06-05-2015,21:58,METAR,Normal,150,9.0,,,9999.0,,23.7,10.9,30.15,1021.4,,,,,,,,,,,,,,,,6000.0,6000.0,BKN,6000.0,,,,,,
KRDR,06-05-2015,20:58,METAR,Normal,110,9.0,,,9999.0,,24.0,10.4,30.16,1021.8,,,,,,,,,,,,TRACE,,,4/8 Partly Cloudy,72000.0,6000.0,SCT,6000.0,,,,,,
KRDR,06-05-2015,19:58,METAR,Normal,140,10.0,16.0,,9999.0,,23.6,10.7,30.18,1022.5,,,,,,,,,,,,,,,,6000.0,6000.0,BKN,6000.0,,,,,,
KRDR,06-05-2015,18:58,METAR,Normal,110,9.0,,,9999.0,,23.1,11.4,30.20,1023.1,,,,,,,,,,,TRACE,,,,,5500.0,5500.0,BKN,5500.0,,,,,,
KRDR,06-05-2015,17:54,SPECI,Normal,140,10.0,16.0,,9999.0,,23.0,10.0,30.21,,,,,,,,,,,,,,,,2/8 Mostly Clear,72000.0,5000.0,FEW,5000.0,,,,,,
KRDR,06-05-2015,17:50,SPECI,Normal,140,12.0,16.0,,9999.0,,23.0,11.0,30.21,,,,,,,,,,,,,,,,2/8 Mostly Clear,72000.0,5500.0,FEW,5500.0,,,,,,
KRDR,06-05-2015,16:58,METAR,Normal,130,11.0,,,9999.0,,22.3,10.3,30.22,1023.8,,,,,,,,,,,,,,,4/8 Partly Cloudy,72000.0,5500.0,SCT,5500.0,,,,,,
KRDR,06-05-2015,16:48,SPECI,Normal,100,12.0,21.0,,9999.0,,23.0,11.0,30.22,,,,,,,,,,,,,,,,4/8 Partly Cloudy,72000.0,5000.0,SCT,5000.0,,,,,,
KRDR,06-05-2015,15:58,METAR,Normal,120,12.0,,,9999.0,,21.8,10.4,30.23,1024.1,,,,,,,,,,,,,,,Clear,72000.0,,,,,,,,,
KRDR,06-05-2015,14:58,METAR,Normal,110,12.0,,,9999.0,,20.6,11.7,30.22,1023.8,,,,,,,,,,,,,,,Clear,72000.0,,,,,,,,,
KRDR,06-05-2015,13:58,METAR,Normal,110,9.0,,,9999.0,,19.5,12.1,30.22,1023.7,,,,,,,,,,,,,,,Clear,72000.0,,,,,,,,,
KRDR,06-05-2015,12:58,METAR,Normal,110,7.0,,,9999.0,,17.3,13.5,30.21,1023.4,,,,,,,,,,,,,,,2/8 Mostly Clear,72000.0,8000.0,FEW,8000.0,,,,,,
KRDR,06-05-2015,11:58,METAR,Normal,30,2.0,,,9999.0,,12.8,12.1,30.22,1023.9,,,,,,,,,,,,,,,,8000.0,8000.0,OVC,8000.0,,,,,,
KRDR,06-05-2015,10:58,METAR,Normal,20,2.0,,,9999.0,,11.9,11.1,30.19,1022.9,,,,,,,,,,,,,,,,7500.0,7500.0,OVC,7500.0,,,,,,
KRDR,06-05-2015,09:58,METAR,Calm,,0.0,,,9999.0,,11.7,10.7,30.18,1022.5,,,,,,,,,,,,,,,,7000.0,7000.0,BKN,7000.0,,,,,,
KRDR,06-05-2015,08:58,METAR,Normal,100,2.0,,,9999.0,,11.4,10.3,30.16,1021.8,,,,,,,,,,,,,,,4/8 Partly Cloudy,72000.0,6000.0,SCT,6000.0,,,,,,
KRDR,06-05-2015,08:48,SPECI,Normal,50,3.0,,,9999.0,,11.0,10.0,30.16,,,,,,,,,,,,,,,,2/8 Mostly Clear,72000.0,6000.0,FEW,6000.0,,,,,,
KRDR,06-05-2015,08:38,SPECI,Normal,20,4.0,,,9999.0,,12.0,11.0,30.16,,,,,,,,,,,,,,,,2/8 Mostly Clear,72000.0,6000.0,FEW,6000.0,,,,,,
KRDR,06-05-2015,07:58,METAR,Normal,10,2.0,,,9999.0,,12.3,11.3,30.15,1021.4,,,,,,,,,,,,,,,4/8 Partly Cloudy,72000.0,6000.0,SCT,6000.0,,,,,,
KRDR,06-05-2015,06:58,METAR,Normal,360,3.0,,,9999.0,,13.4,11.7,30.15,1021.4,,,,,,,,,,,,,,,2/8 Mostly Clear,72000.0,6500.0,FEW,6500.0,,,,,,
KRDR,06-05-2015,05:58,METAR,Normal,360,3.0,,,9999.0,,14.6,11.2,30.13,1020.8,,,,,,,,,,,,,,,2/8 Mostly Clear,72000.0,6500.0,FEW,6500.0,,,,,,
KRDR,06-05-2015,04:58,METAR,Normal,20,5.0,,,9999.0,,15.4,12.2,30.13,1020.8,,,,,,,,,,,,,,,Clear,72000.0,,,,,,,,,
KRDR,06-05-2015,03:58,METAR,Normal,40,4.0,,,9999.0,,15.3,12.6,30.12,1020.5,,,,,,,,,,,,,,,Clear,72000.0,,,,,,,,,
KRDR,06-05-2015,02:58,METAR,Normal,30,5.0,,,9999.0,,17.1,13.8,30.11,1020.1,,,,,,,,,,,,,,,Clear,72000.0,,,,,,,,,
KRDR,06-05-2015,01:58,METAR,Normal,350,4.0,,,9999.0,,18.9,14.2,30.10,1019.8,,,,,,,,,,,,,,,2/8 Mostly Clear,72000.0,6500.0,FEW,6500.0,,,,,,
KRDR,06-05-2015,00:58,METAR,Normal,340,4.0,,,9999.0,,20.5,14.0,30.10,1019.9,,,,,,,,,,,,,,,Clear,72000.0,,,,,,,,,
KRDR,06-04-2015,23:58,METAR,Normal,350,5.0,,,9999.0,,21.4,12.6,30.09,1019.5,,,,,,,,,,,,,,,Clear,72000.0,,,,,,,,,
KRDR,06-04-2015,22:58,METAR,Normal,10,6.0,,,9999.0,,22.2,11.8,30.09,1019.5,,,,,,,,,,,,,,,2/8 Mostly Clear,72000.0,6000.0,FEW,6000.0,,,,,,
KRDR,06-04-2015,21:58,METAR,Normal,60,9.0,,,9999.0,,22.6,11.1,30.09,1019.5,,,,,,,,,,,,,,,,5000.0,5500.0,FEW,5500.0,,,,,,
KRDR,06-04-2015,20:58,METAR,Normal,50,10.0,15.0,,9999.0,,23.0,10.8,30.09,1019.5,,,,,,,,,,,,,,,2/8 Mostly Clear,72000.0,5000.0,FEW,5000.0,,,,,,
KRDR,06-04-2015,19:58,METAR,Normal,40,11.0,,,9999.0,,22.9,9.5,30.07,1018.8,,,,,,,,,,,,,,,Clear,72000.0,,,,,,,,,
KRDR,06-04-2015,18:58,METAR,Normal,60,7.0,,,9999.0,,21.9,10.0,30.07,1018.8,,,,,,,,,,,,,,,Clear,72000.0,,,,,,,,,
KRDR,06-04-2015,17:58,METAR,Normal,30,11.0,,,9999.0,,20.9,10.0,30.07,1018.8,,,,,,,,,,,,,,,Clear,72000.0,,,,,,,,,
KRDR,06-04-2015,16:58,METAR,Normal,30,11.0,,,9999.0,,19.6,10.5,30.08,1019.1,,,,,,,,,,,,,,,Clear,72000.0,,,,,,,,,
KRDR,06-04-2015,15:58,METAR,Normal,360,8.0,,,9999.0,,17.3,10.3,30.08,1019.2,,,,,,,,,,,,,,,Clear,72000.0,,,,,,,,,
KRDR,06-04-2015,14:58,METAR,Normal,350,7.0,,,9999.0,,15.5,9.4,30.09,1019.6,,,,,,,,,,,,,,,Clear,72000.0,,,,,,,,,
KRDR,06-04-2015,13:58,METAR,Normal,10,9.0,,,9999.0,,13.7,8.2,30.06,1018.7,,,,,,,,,,,,,,,Clear,72000.0,,,,,,,,,
KRDR,06-04-2015,12:58,METAR,Normal,360,8.0,,,9999.0,,11.9,7.1,30.06,1018.8,,,,,,,,,,,,,,,Clear,72000.0,,,,,,,,,
KRDR,06-04-2015,11:58,METAR,Normal,350,6.0,,,9999.0,,10.6,6.6,30.04,1018.1,,,,,,,,,,,,,,.38 IN,Clear,72000.0,,,,,,,,,
KRDR,06-04-2015,10:58,METAR,Normal,360,7.0,,,9999.0,,9.0,6.1,30.03,1017.8,,,,,,,,,,,,,,,Clear,72000.0,,,,,,,,,
KRDR,06-04-2015,09:58,METAR,Normal,340,7.0,,,9999.0,,9.2,6.0,30.03,1017.8,,,,,,,,,,,,,,,Clear,72000.0,,,,,,,,,
KRDR,06-04-2015,08:58,METAR,Normal,350,7.0,,,9999.0,,9.8,6.5,30.02,1017.5,,,,,,,,,,,,,,,Clear,72000.0,,,,,,,,,
KRDR,06-04-2015,07:58,METAR,Normal,350,6.0,,,9999.0,,10.1,6.8,30.01,,,,,,,,,,,,,,,,Clear,72000.0,,,,,,,,,
KRDR,06-04-2015,06:58,METAR,Normal,340,7.0,,,9999.0,,10.6,7.3,29.99,,,,,,,,,,,,,,,,Clear,72000.0,,,,,,,,,
KRDR,06-04-2015,05:58,METAR,Normal,330,7.0,,,9999.0,,11.6,9.0,30.00,,,,,,,,,,,,,,TRACE,,2/8 Mostly Clear,72000.0,6000.0,FEW,6000.0,,,,,,
KRDR,06-04-2015,04:58,METAR,Normal,350,5.0,,,9999.0,,12.7,10.1,29.99,,,,,,,,,,,,,,,,,4900.0,4900.0,OVC,4900.0,,,,,,
KRDR,06-04-2015,03:58,METAR,Normal,350,7.0,,,9999.0,,12.8,9.9,29.99,,,,,,,,,,,,,,,,,2900.0,2900.0,SCT,2900.0,OVC,4000.0,,,,
KRDR,06-04-2015,02:58,METAR,Normal,30,8.0,,,9999.0,,12.8,9.8,29.97,,,,,,,,,,,,,TRACE,,,,3500.0,2800.0,SCT,2800.0,OVC,3500.0,,,,
KRDR,06-04-2015,01:58,METAR,Normal,20,9.0,,,9999.0,,12.5,10.2,29.96,,,,,,,,,,,,,,,,,2800.0,2800.0,OVC,2800.0,,,,,,
KRDR,06-04-2015,00:58,METAR,Normal,360,13.0,20.0,,9999.0,,12.1,10.7,29.95,,,,,,,,,,,,TRACE,,,,,2100.0,2300.0,BKN,2300.0,OVC,2700.0,,,,
KRDR,06-04-2015,00:12,SPECI,Normal,20,13.0,20.0,,9999.0,,12.0,11.0,29.93,,,,,,,,,,,,,,,,,3400.0,1900.0,SCT,1900.0,OVC,3400.0,,,,
KRDR,06-04-2015,00:08,SPECI,Normal,20,15.0,20.0,,9999.0,Light Drizzle,12.0,11.0,29.93,,51,,,,,,,,,,,,,,,1900.0,1900.0,BKN,1900.0,OVC,3300.0,,,,
KRDR,06-04-2015,00:03,SPECI,Normal,20,14.0,,,9999.0,Light Rain,12.0,11.0,29.93,,61,,,,,,,,,,,,,,,2000.0,2000.0,BKN,2000.0,OVC,3300.0,,,,
KRDR,06-03-2015,23:58,METAR,Normal,10,14.0,,,9999.0,Light Rain,12.4,10.8,29.93,1014.3,61,,,,,,,,,,.08 IN,,.38 IN,,,1900.0,1900.0,OVC,1900.0,,,,,,
KRDR,06-03-2015,22:58,METAR,Normal,350,13.0,18.0,,9999.0,Heavy Rain/Mist,12.1,11.1,29.93,1014.3,63,10,,,,,,,,,.28 IN,,,,,900.0,400.0,FEW,400.0,OVC,1600.0,,,,
KRDR,06-03-2015,22:53,SPECI,Normal,350,13.0,,,6400.0,Rain/Mist,12.0,11.0,29.93,,62,10,,,,,,,,,,,,,,900.0,500.0,SCT,500.0,SCT,900.0,OVC,1500.0,,
KRDR,06-03-2015,22:48,SPECI,Normal,340,12.0,,,4800.0,Rain/Mist,12.0,11.0,29.93,,62,10,,,,,,,,,,,,,,400.0,400.0,SCT,400.0,BKN,900.0,OVC,1500.0,,
KRDR,06-03-2015,22:43,SPECI,Normal,340,13.0,,,2800.0,Rain/Mist,12.0,11.0,29.93,,62,10,,,,,,,,,,,,,,400.0,400.0,SCT,400.0,BKN,900.0,OVC,2200.0,,
KRDR,06-03-2015,22:38,SPECI,Normal,340,13.0,,,2400.0,Rain/Mist,12.0,11.0,29.93,,62,10,,,,,,,,,,,,,,400.0,400.0,BKN,400.0,BKN,1500.0,OVC,2300.0,,
KRDR,06-03-2015,22:33,SPECI,Normal,350,10.0,,,4800.0,Heavy Rain/Mist,12.0,11.0,29.93,,63,10,,,,,,,,,,,,,,1300.0,600.0,FEW,600.0,OVC,1300.0,,,,
KRDR,06-03-2015,22:23,SPECI,Normal,360,11.0,,,3200.0,Heavy Rain/Mist,12.0,11.0,29.93,,63,10,,,,,,,,,,,,,,1300.0,200.0,FEW,200.0,BKN,1300.0,OVC,1800.0,,
KRDR,06-03-2015,22:13,SPECI,Normal,10,10.0,,,6400.0,Rain/Mist,12.0,11.0,29.92,,62,10,,,,,,,,,,,,,,1300.0,800.0,SCT,800.0,BKN,1300.0,OVC,1900.0,,
KRDR,06-03-2015,22:03,SPECI,Normal,360,9.0,,,3200.0,Heavy Rain/Mist,12.0,11.0,29.92,,63,10,,,,,,,,,,,,,,1200.0,700.0,SCT,700.0,BKN,1200.0,OVC,1800.0,,
KRDR,06-03-2015,21:58,METAR,Normal,360,12.0,,,4800.0,Heavy Rain/Mist,12.0,11.0,29.92,,63,10,,,,,,,,,.02 IN,,,,,900.0,900.0,BKN,900.0,OVC,1300.0,,,,
KRDR,06-03-2015,21:57,SPECI,Normal,350,11.0,,,4800.0,Heavy Rain/Mist,12.0,11.0,29.92,,63,10,,,,,,,,,,,,,,900.0,900.0,BKN,900.0,OVC,1300.0,,,,
KRDR,06-03-2015,21:32,SPECI,Normal,10,12.0,,,9999.0,Light Drizzle,12.0,11.0,29.92,,51,,,,,,,,,,,,,,,1100.0,1100.0,OVC,1100.0,,,,,,
KRDR,06-03-2015,21:29,SPECI,Normal,360,10.0,,,9999.0,,12.0,11.0,29.92,,,,,,,,,,,,,,,,,1100.0,1100.0,OVC,1100.0,,,,,,
KRDR,06-03-2015,21:08,SPECI,Normal,360,12.0,,,9999.0,Light Rain,12.0,11.0,29.92,,61,,,,,,,,,,,,,,,1100.0,700.0,SCT,700.0,OVC,1100.0,,,,
KRDR,06-03-2015,21:03,SPECI,Normal,360,12.0,,,9999.0,Light Rain,12.0,11.0,29.91,,61,,,,,,,,,,,,,,,800.0,800.0,OVC,800.0,,,,,,
KRDR,06-03-2015,20:58,METAR,Normal,360,13.0,,,9999.0,Light Drizzle,12.4,11.1,29.91,1013.6,51,,,,,,,,,,TRACE,TRACE,,,,700.0,700.0,BKN,700.0,OVC,1300.0,,,,
KRDR,06-03-2015,20:40,SPECI,Normal,360,11.0,,,9999.0,Light Drizzle,13.0,11.0,29.91,,51,,,,,,,,,,,,,,,700.0,700.0,BKN,700.0,OVC,1300.0,,,,
KRDR,06-03-2015,20:35,SPECI,Normal,360,10.0,15.0,,9999.0,Light Rain,13.0,11.0,29.91,,61,,,,,,,,,,,,,,,800.0,800.0,BKN,800.0,OVC,1300.0,,,,
KRDR,06-03-2015,20:32,SPECI,Normal,10,13.0,15.0,,9999.0,,13.0,11.0,29.91,,,,,,,,,,,,,,,,,900.0,900.0,BKN,900.0,OVC,1400.0,,,,
KRDR,06-03-2015,20:27,SPECI,Normal,10,12.0,,,9999.0,,13.0,11.0,29.91,,,,,,,,,,,,,,,,,900.0,900.0,SCT,900.0,OVC,1400.0,,,,
KRDR,06-03-2015,20:22,SPECI,Normal,360,10.0,,,9999.0,,13.0,11.0,29.91,,,,,,,,,,,,,,,,,1400.0,900.0,FEW,900.0,OVC,1400.0,,,,
KRDR,06-03-2015,20:03,SPECI,Normal,360,15.0,19.0,,9999.0,,13.0,10.0,29.90,,,,,,,,,,,,,,,,,1500.0,1500.0,OVC,1500.0,,,,,,
KRDR,06-03-2015,19:58,METAR,Normal,360,13.0,18.0,,9999.0,,13.3,10.1,29.90,1013.1,,,,,,,,,,,,,,,,1400.0,1400.0,OVC,1400.0,,,,,,
KRDR,06-03-2015,18:58,METAR,Normal,360,12.0,,,9999.0,,13.6,9.8,29.88,1012.4,,,,,,,,,,,,,,,,1200.0,1200.0,OVC,1200.0,,,,,,
KRDR,06-03-2015,17:58,METAR,Normal,10,13.0,17.0,,9999.0,,13.3,9.0,29.88,1012.4,,,,,,,,,,,,,TRACE,,,1200.0,1200.0,OVC,1200.0,,,,,,
KRDR,06-03-2015,16:58,METAR,Variable,10,14.0,,,9999.0,,12.8,8.1,29.87,1012.1,,,,,,,,,,,TRACE,,,,,1300.0,1300.0,OVC,1300.0,,,,,,
KRDR,06-03-2015,16:36,SPECI,Normal,10,12.0,,,9999.0,,12.0,8.0,29.87,,,,,,,,,,,,,,,,,1300.0,1300.0,OVC,1300.0,,,,,,
KRDR,06-03-2015,16:17,SPECI,Normal,360,11.0,,,9999.0,Light Rain,12.0,8.0,29.86,,61,,,,,,,,,,,,,,,1200.0,1200.0,OVC,1200.0,,,,,,
KRDR,06-03-2015,15:58,METAR,Normal,360,12.0,,,9999.0,,11.6,8.3,29.86,1011.8,,,,,,,,,,,,,,,,1100.0,1100.0,OVC,1100.0,,,,,,
KRDR,06-03-2015,14:58,METAR,Normal,360,12.0,,,9999.0,,11.6,7.7,29.84,1011.1,,,,,,,,,,,,TRACE,,,,1100.0,1100.0,OVC,1100.0,,,,,,
KRDR,06-03-2015,13:58,METAR,Normal,10,14.0,19.0,,9999.0,,11.3,7.8,29.83,1010.8,,,,,,,,,,,TRACE,,,,,1100.0,1100.0,OVC,1100.0,,,,,,
KRDR,06-03-2015,13:15,SPECI,Normal,10,16.0,20.0,,9999.0,,11.0,8.0,29.81,,,,,,,,,,,,,,,,,1000.0,1000.0,OVC,1000.0,,,,,,
KRDR,06-03-2015,13:05,SPECI,Normal,10,15.0,,,9999.0,,11.0,8.0,29.82,,,,,,,,,,,,,,,,,900.0,900.0,OVC,900.0,,,,,,
KRDR,06-03-2015,12:58,METAR,Variable,10,12.0,,,9999.0,Light Drizzle,10.7,8.0,29.82,1010.5,51,,,,,,,,,,TRACE,,,,,900.0,900.0,OVC,900.0,,,,,,
KRDR,06-03-2015,12:16,SPECI,Normal,10,14.0,17.0,,9999.0,Light Drizzle,11.0,8.0,29.81,,51,,,,,,,,,,,,,,,900.0,900.0,OVC,900.0,,,,,,
KRDR,06-03-2015,12:13,SPECI,Normal,360,12.0,17.0,,9999.0,,11.0,8.0,29.81,,,,,,,,,,,,,,,,,900.0,900.0,OVC,900.0,,,,,,
KRDR,06-03-2015,12:03,SPECI,Normal,360,11.0,17.0,,9999.0,,11.0,8.0,29.81,,,,,,,,,,,,,,,,,1000.0,1000.0,OVC,1000.0,,,,,,
KRDR,06-03-2015,11:58,METAR,Normal,360,10.0,,,9999.0,,11.4,8.8,29.81,1010.0,,,,,,,,,,,,,,,,900.0,900.0,OVC,900.0,,,,,,
KRDR,06-03-2015,11:53,SPECI,Normal,360,10.0,,,9999.0,,11.0,9.0,29.81,,,,,,,,,,,,,,,,,800.0,900.0,OVC,900.0,,,,,,
KRDR,06-03-2015,11:48,SPECI,Normal,350,11.0,,,9999.0,,11.0,9.0,29.81,,,,,,,,,,,,,,,,,800.0,1000.0,OVC,1000.0,,,,,,
KRDR,06-03-2015,11:38,SPECI,Normal,350,11.0,19.0,,9999.0,,12.0,9.0,29.80,,,,,,,,,,,,,,,,,800.0,800.0,OVC,800.0,,,,,,
KRDR,06-03-2015,11:08,SPECI,Normal,10,11.0,,,9999.0,,12.0,10.0,29.77,,,,,,,,,,,,,,,,,700.0,700.0,OVC,700.0,,,,,,
KRDR,06-03-2015,10:58,METAR,Normal,10,11.0,16.0,,9999.0,,11.7,10.5,29.78,1009.0,,,,,,,,,,,,,,,,600.0,600.0,OVC,600.0,,,,,,
KRDR,06-03-2015,10:40,SPECI,Normal,360,11.0,19.0,,9999.0,,12.0,11.0,29.77,,,,,,,,,,,,,,,,,600.0,600.0,OVC,600.0,,,,,,
KRDR,06-03-2015,10:30,SPECI,Normal,360,14.0,20.0,,9999.0,,12.0,11.0,29.77,,,,,,,,,,,,,,,,,700.0,700.0,OVC,700.0,,,,,,
KRDR,06-03-2015,09:43,SPECI,Variable,360,11.0,,,9999.0,,13.0,11.0,29.76,,,,,,,,,,,,,,,,,600.0,600.0,OVC,600.0,,,,,,
KRDR,06-03-2015,08:58,METAR,Normal,10,11.0,,,9999.0,,13.7,12.8,29.75,1007.9,,,,,,,,,,,,,,,,500.0,500.0,OVC,500.0,,,,,,
KRDR,06-03-2015,08:48,SPECI,Variable,360,10.0,,,9999.0,,14.0,13.0,29.75,,,,,,,,,,,,,,,,,500.0,500.0,OVC,500.0,,,,,,
KRDR,06-03-2015,08:03,SPECI,Normal,30,11.0,,,9999.0,,16.0,15.0,29.75,,,,,,,,,,,,,,,,,400.0,400.0,OVC,400.0,,,,,,
KRDR,06-03-2015,07:58,METAR,Normal,30,12.0,,,9999.0,,15.9,15.3,29.75,1007.8,,,,,,,,,,,,,,,,300.0,300.0,OVC,300.0,,,,,,
KRDR,06-03-2015,07:33,SPECI,Normal,30,13.0,,,9999.0,,16.0,15.0,29.74,,,,,,,,,,,,,,,,,300.0,300.0,OVC,300.0,,,,,,
KRDR,06-03-2015,07:18,SPECI,Normal,20,11.0,,,9999.0,,16.0,15.0,29.74,,,,,,,,,,,,,,,,,200.0,200.0,OVC,200.0,,,,,,
KRDR,06-03-2015,07:08,SPECI,Normal,20,10.0,,,9999.0,,16.0,15.0,29.74,,,,,,,,,,,,,,,,,300.0,300.0,BKN,300.0,BKN,800.0,OVC,1200.0,,
KRDR,06-03-2015,07:03,SPECI,Normal,20,11.0,,,9999.0,,16.0,15.0,29.74,,,,,,,,,,,,,,,,,500.0,400.0,SCT,400.0,BKN,1000.0,,,,
KRDR,06-03-2015,06:58,METAR,Normal,30,9.0,,,9999.0,,16.3,15.4,29.73,1007.1,,,,,,,,,,,,,,,,400.0,500.0,SCT,500.0,BKN,1300.0,OVC,4200.0,,
KRDR,06-03-2015,06:53,SPECI,Normal,30,9.0,,,9999.0,,16.0,15.0,29.74,,,,,,,,,,,,,,,,,400.0,600.0,SCT,600.0,BKN,1300.0,OVC,4200.0,,
KRDR,06-03-2015,06:03,SPECI,Normal,30,7.0,,,9999.0,,16.0,15.0,29.74,,,,,,,,,,,,,,,,,5500.0,400.0,SCT,400.0,BKN,5500.0,,,,
KRDR,06-03-2015,05:58,METAR,Normal,50,9.0,,,9999.0,,16.2,15.5,29.74,1007.5,,,,,,,,,,,,,TRACE,,,400.0,400.0,BKN,400.0,BKN,4600.0,OVC,6000.0,,
KRDR,06-03-2015,05:38,SPECI,Normal,50,12.0,,,9999.0,,16.0,15.0,29.73,,,,,,,,,,,,,,,,,400.0,400.0,OVC,400.0,,,,,,
KRDR,06-03-2015,05:28,SPECI,Normal,30,12.0,,,9999.0,,16.0,15.0,29.75,,,,,,,,,,,,,,,,,300.0,300.0,OVC,300.0,,,,,,
KRDR,06-03-2015,04:58,METAR,Normal,40,8.0,,,9999.0,,16.2,15.6,29.74,1007.5,,,,,,,,,,,,,,,,400.0,400.0,OVC,400.0,,,,,,
KRDR,06-03-2015,03:58,METAR,Normal,60,9.0,,,9999.0,,16.1,15.5,29.74,1007.5,,,,,,,,,,,,,,,,400.0,400.0,OVC,400.0,,,,,,
KRDR,06-03-2015,03:48,SPECI,Normal,60,10.0,,,9999.0,,16.0,15.0,29.74,,,,,,,,,,,,,,,,,400.0,400.0,OVC,400.0,,,,,,
KRDR,06-03-2015,02:58,METAR,Normal,30,9.0,,,9999.0,,16.3,15.5,29.76,1008.3,,,,,,,,,,,,TRACE,,,,500.0,500.0,BKN,500.0,BKN,7000.0,,,,
KRDR,06-03-2015,02:48,SPECI,Normal,30,10.0,,,9999.0,,16.0,16.0,29.76,,,,,,,,,,,,,,,,,500.0,500.0,BKN,500.0,BKN,7000.0,,,,
KRDR,06-03-2015,01:58,METAR,Normal,50,9.0,,,9999.0,,16.5,15.5,29.76,1008.3,,,,,,,,,,,TRACE,,,,,500.0,500.0,OVC,500.0,,,,,,
KRDR,06-03-2015,01:40,SPECI,Normal,50,11.0,,,9999.0,,17.0,16.0,29.76,,,,,,,,,,,,,,,,,500.0,500.0,BKN,500.0,OVC,6000.0,,,,
KRDR,06-03-2015,01:30,SPECI,Normal,50,10.0,,,9999.0,,17.0,16.0,29.76,,,,,,,,,,,,,,,,,500.0,600.0,BKN,600.0,OVC,6500.0,,,,
KRDR,06-03-2015,01:25,SPECI,Normal,40,11.0,,,9999.0,,17.0,16.0,29.76,,,,,,,,,,,,,,,,,500.0,500.0,BKN,500.0,OVC,6500.0,,,,
KRDR,06-03-2015,01:24,SPECI,Normal,30,11.0,,,9999.0,Light Rain,17.0,16.0,29.77,,61,,,,,,,,,,,,,,,500.0,500.0,BKN,500.0,OVC,6500.0,,,,
KRDR,06-03-2015,01:14,SPECI,Normal,40,11.0,,,9999.0,Light Drizzle,17.0,16.0,29.76,,51,,,,,,,,,,,,,,,4100.0,600.0,SCT,600.0,OVC,6500.0,,,,
KRDR,06-03-2015,01:07,SPECI,Normal,40,10.0,,,9999.0,,17.0,15.0,29.76,,,,,,,,,,,,,,,,,6500.0,600.0,FEW,600.0,BKN,6500.0,,,,
KRDR,06-03-2015,00:58,METAR,Normal,40,10.0,,,9999.0,,16.8,15.5,29.76,1008.3,,,,,,,,,,,,,,,,4000.0,4100.0,FEW,4100.0,BKN,6500.0,,,,
KRDR,06-02-2015,23:58,METAR,Normal,20,7.0,,,9999.0,,19.1,15.9,29.76,1008.2,,,,,,,,,,,,,TRACE,,,6500.0,4000.0,FEW,4000.0,BKN,6500.0,BKN,8000.0,,
KRDR,06-02-2015,22:58,METAR,Normal,40,4.0,,,9999.0,,20.1,15.7,29.77,1008.6,,,,,,,,,,,TRACE,,,,,3200.0,3200.0,OVC,3200.0,,,,,,
KRDR,06-02-2015,22:21,SPECI,Normal,80,2.0,,,9999.0,,20.0,16.0,29.78,,,,,,,,,,,,,,,,,2300.0,2300.0,BKN,2300.0,OVC,2900.0,,,,
KRDR,06-02-2015,22:12,SPECI,Normal,120,2.0,,,9999.0,Light Rain,20.0,15.0,29.78,,61,,,,,,,,,,,,,,,2300.0,2300.0,OVC,2300.0,,,,,,
KRDR,06-02-2015,21:58,METAR,Normal,140,4.0,,,9999.0,,19.7,15.3,29.79,1009.2,,,,,,,,,,,,,,,,2500.0,2500.0,OVC,2500.0,,,,,,
KRDR,06-02-2015,20:58,METAR,Normal,140,4.0,,,9999.0,,19.6,15.2,29.79,1009.2,,,,,,,,,,,,,,,,2600.0,2600.0,OVC,2600.0,,,,,,
KRDR,06-02-2015,19:58,METAR,Normal,160,8.0,,,9999.0,,19.4,14.7,29.80,1009.6,,,,,,,,,,,,,,,,2800.0,2800.0,OVC,2800.0,,,,,,
KRDR,06-02-2015,18:58,METAR,Normal,150,4.0,,,9999.0,,18.7,14.5,29.81,1009.9,,,,,,,,,,,,,,,,2500.0,2500.0,OVC,2500.0,,,,,,
KRDR,06-02-2015,17:58,METAR,Normal,150,5.0,,,9999.0,,18.4,13.9,29.82,1010.2,,,,,,,,,,,,,,,,3400.0,3400.0,BKN,3400.0,OVC,4300.0,,,,
KRDR,06-02-2015,16:58,METAR,Normal,180,4.0,,,9999.0,,18.3,13.8,29.81,1009.9,,,,,,,,,,,,,,,,6500.0,6500.0,BKN,6500.0,BKN,8000.0,,,,
KRDR,06-02-2015,15:58,METAR,Normal,170,9.0,,,9999.0,,17.2,13.3,29.81,1009.8,,,,,,,,,,,,,,,2/8 Mostly Clear,72000.0,12000.0,FEW,12000.0,,,,,,
KRDR,06-02-2015,14:58,METAR,Normal,160,12.0,,,9999.0,,15.5,12.5,29.82,1010.2,,,,,,,,,,,,,,,Clear,72000.0,,,,,,,,,
KRDR,06-02-2015,13:58,METAR,Normal,120,8.0,,,9999.0,,15.3,12.7,29.80,1009.5,,,,,,,,,,,,,,,4/8 Partly Cloudy,72000.0,12000.0,SCT,12000.0,,,,,,
KRDR,06-02-2015,12:58,METAR,Normal,210,5.0,,,9999.0,,15.1,13.1,29.83,1010.5,,,,,,,,,,,,,,,4/8 Partly Cloudy,72000.0,8000.0,SCT,8000.0,,,,,,
KRDR,06-02-2015,11:58,METAR,Normal,170,7.0,,,9999.0,,14.2,11.7,29.82,1010.1,,,,,,,,,,,TRACE,,.76 IN,.76 IN,,10000.0,10000.0,BKN,10000.0,,,,,,
KRDR,06-02-2015,11:06,SPECI,Normal,190,10.0,,,9999.0,,14.0,12.0,29.83,,,,,,,,,,,,,,,,,12000.0,7500.0,FEW,7500.0,BKN,12000.0,,,,
KRDR,06-02-2015,11:05,SPECI,Normal,190,11.0,,,9999.0,Dry Thunderstorm,14.0,12.0,29.83,,91,,,,,,,,,,,,,,,12000.0,7500.0,FEW,7500.0,BKN,12000.0,,,,
KRDR,06-02-2015,10:58,METAR,Normal,190,15.0,,,9999.0,Thunderstorm and Rain or Snow Showers,13.9,12.6,29.84,1010.8,92,,,,,,,,,,.34 IN,,,,4/8 Partly Cloudy,72000.0,8000.0,SCT,8000.0,,,,,,
KRDR,06-02-2015,10:45,SPECI,Normal,190,14.0,,,9999.0,Thunderstorm and Rain or Snow Showers,14.0,12.0,29.83,,92,,,,,,,,,,,,,,,7500.0,7500.0,OVC,7500.0,,,,,,
KRDR,06-02-2015,10:35,SPECI,Normal,190,11.0,,,9999.0,Thunderstorm and Rain or Snow Showers,14.0,12.0,29.83,,92,,,,,,,,,,,,,,,6500.0,6500.0,OVC,6500.0,,,,,,
KRDR,06-02-2015,10:30,SPECI,Normal,180,15.0,,,9999.0,Thunderstorm and Rain or Snow Showers,14.0,12.0,29.82,,92,,,,,,,,,,,,,,,6000.0,6000.0,OVC,6000.0,,,,,,
KRDR,06-02-2015,10:25,SPECI,Normal,180,13.0,,,6400.0,Thunderstorm and Rain or Snow Showers/Mist,14.0,12.0,29.83,,92,10,,,,,,,,,,,,,,6000.0,6000.0,OVC,6000.0,,,,,,
KRDR,06-02-2015,10:20,SPECI,Normal,190,14.0,,,3200.0,Thunderstorm and Rain or Snow Showers/Mist,14.0,12.0,29.84,,92,10,,,,,,,,,,,,,,5000.0,5000.0,OVC,5000.0,,,,,,
KRDR,06-02-2015,10:10,SPECI,Normal,200,12.0,,,2800.0,Thunderstorm and Rain or Snow Showers/Mist,14.0,12.0,29.85,,92,10,,,,,,,,,,,,,,5500.0,5500.0,OVC,5500.0,,,,,,
KRDR,06-02-2015,10:08,SPECI,Normal,190,11.0,,,4000.0,Rain/Distant Lightning/Mist,14.0,12.0,29.85,,62,10,12,,,,,,,,,,,,,6000.0,6000.0,OVC,6000.0,,,,,,
KRDR,06-02-2015,09:58,METAR,Normal,200,13.0,,,6400.0,Light Rain/Mist,13.7,12.3,29.84,1010.8,61,10,,,,,,,,,.08 IN,,,,,6500.0,6500.0,OVC,6500.0,,,,,,
KRDR,06-02-2015,09:50,SPECI,Normal,190,11.0,,,6400.0,Light Rain/Mist,14.0,12.0,29.84,,61,10,,,,,,,,,,,,,,6500.0,6500.0,OVC,6500.0,,,,,,
KRDR,06-02-2015,09:45,SPECI,Normal,200,13.0,,,9999.0,Dry Thunderstorm/Mist,14.0,12.0,29.84,,91,10,,,,,,,,,,,,,,7000.0,7000.0,OVC,7000.0,,,,,,
KRDR,06-02-2015,09:40,SPECI,Normal,190,13.0,,,9999.0,Dry Thunderstorm,14.0,12.0,29.84,,91,,,,,,,,,,,,,,,6500.0,6500.0,BKN,6500.0,OVC,10000.0,,,,
KRDR,06-02-2015,09:35,SPECI,Normal,200,17.0,,,9999.0,Thunderstorm and Rain or Snow Showers,14.0,12.0,29.84,,92,,,,,,,,,,,,,,,5500.0,5500.0,BKN,5500.0,OVC,10000.0,,,,
KRDR,06-02-2015,09:08,SPECI,Normal,180,13.0,,,9999.0,Light Rain,14.0,12.0,29.83,,61,,,,,,,,,,,,,,,5500.0,5500.0,OVC,5500.0,,,,,,
KRDR,06-02-2015,08:58,METAR,Normal,180,14.0,,,9999.0,Light Rain,13.8,12.2,29.83,1010.5,61,,,,,,,,,,.06 IN,.34 IN,,,,6500.0,6500.0,BKN,6500.0,,,,,,
KRDR,06-02-2015,08:55,SPECI,Normal,180,14.0,,,9999.0,Light Rain,14.0,12.0,29.84,,61,,,,,,,,,,,,,,,6500.0,6500.0,BKN,6500.0,,,,,,
KRDR,06-02-2015,08:35,SPECI,Normal,170,10.0,,,9999.0,Light Rain,14.0,12.0,29.86,,61,,,,,,,,,,,,,,,8000.0,8000.0,BKN,8000.0,,,,,,
KRDR,06-02-2015,08:28,SPECI,Normal,170,9.0,,,9999.0,,14.0,12.0,29.86,,,,,,,,,,,,,,,,,8500.0,8500.0,BKN,8600.0,,,,,,
KRDR,06-02-2015,08:18,SPECI,Normal,160,12.0,,,9999.0,Light Rain,14.0,12.0,29.86,,61,,,,,,,,,,,,,,,8500.0,8500.0,OVC,8600.0,,,,,,
KRDR,06-02-2015,07:58,METAR,Normal,150,7.0,,,9999.0,Light Rain,13.9,13.2,29.89,1012.6,61,,,,,,,,,,.23 IN,,,,,8000.0,8000.0,OVC,8000.0,,,,,,
KRDR,06-02-2015,07:55,SPECI,Normal,140,7.0,,,9999.0,Light Rain,14.0,13.0,29.89,,61,,,,,,,,,,,,,,,8000.0,8000.0,OVC,8000.0,,,,,,
KRDR,06-02-2015,07:30,SPECI,Normal,100,4.0,,,8000.0,Light Rain/Mist,14.0,13.0,29.91,,61,10,,,,,,,,,,,,,,6500.0,4900.0,FEW,4900.0,OVC,6500.0,,,,
KRDR,06-02-2015,07:25,SPECI,Normal,100,4.0,,,8000.0,Light Rain/Mist,14.0,13.0,29.90,,61,10,,,,,,,,,,,,,,5000.0,200.0,FEW,200.0,OVC,6000.0,,,,
KRDR,06-02-2015,07:20,SPECI,Normal,70,3.0,,,4000.0,Heavy Rain/Mist,14.0,13.0,29.91,,63,10,,,,,,,,,,,,,,6000.0,200.0,FEW,200.0,OVC,6000.0,,,,
KRDR,06-02-2015,07:15,SPECI,Normal,340,5.0,,,4800.0,Rain/Distant Lightning/Mist,14.0,13.0,29.92,,62,10,12,,,,,,,,,,,,,6000.0,200.0,FEW,200.0,SCT,4800.0,OVC,6000.0,,
KRDR,06-02-2015,07:14,SPECI,Normal,330,4.0,,,4800.0,Rain/Distant Lightning/Mist,14.0,13.0,29.92,,62,10,12,,,,,,,,,,,,,6000.0,4800.0,FEW,4800.0,OVC,6000.0,,,,
KRDR,06-02-2015,07:09,SPECI,Variable,,3.0,,,9999.0,Light Rain/Distant Lightning,14.0,13.0,29.92,,61,12,,,,,,,,,,,,,,5000.0,4800.0,SCT,4800.0,OVC,6500.0,,,,
KRDR,06-02-2015,06:59,SPECI,Normal,340,7.0,,,8000.0,Light Rain,15.0,12.0,29.91,,61,,,,,,,,,,,,,,,6500.0,300.0,FEW,300.0,SCT,4900.0,OVC,6500.0,,
KRDR,06-02-2015,06:58,METAR,Normal,360,5.0,,330/26KTS,9999.0,Thunderstorm and Rain or Snow Showers,15.1,12.7,29.91,1013.3,92,,,,,,,,,,.05 IN,,,,,4900.0,4900.0,BKN,4900.0,OVC,6500.0,,,,
KRDR,06-02-2015,06:50,SPECI,Normal,20,5.0,16.0,,9999.0,Thunderstorm and Rain or Snow Showers,16.0,13.0,29.91,,92,,,,,,,,,,,,,,,5000.0,5000.0,BKN,5000.0,OVC,6500.0,,,,
KRDR,06-02-2015,06:45,SPECI,Normal,350,10.0,17.0,,9999.0,Thunderstorm and Rain or Snow Showers,17.0,11.0,29.91,,92,,,,,,,,,,,,,,,5500.0,5500.0,OVC,5500.0,,,,,,
KRDR,06-02-2015,06:34,SPECI,Normal,330,12.0,19.0,,9999.0,Thunderstorm with Rain or Snow,16.0,11.0,29.91,,,,,95,,,,,,,,,,,,5500.0,5500.0,OVC,5500.0,,,,,,
KRDR,06-02-2015,06:31,SPECI,Variable,310,13.0,17.0,,9999.0,Light Rain/Distant Lightning,16.0,12.0,29.90,,61,12,,,,,,,,,,,,,,5000.0,5000.0,BKN,5000.0,OVC,7000.0,,,,
KRDR,06-02-2015,06:18,SPECI,Variable,210,7.0,,,9999.0,Light Rain/Distant Lightning,17.0,10.0,29.88,,61,12,,,,,,,,,,,,,,6500.0,5500.0,SCT,5500.0,BKN,6500.0,BKN,8000.0,,
KRDR,06-02-2015,06:14,SPECI,Normal,190,14.0,,,9999.0,Distant Lightning,16.0,10.0,29.86,,12,,,,,,,,,,,,,,,5500.0,5500.0,BKN,5500.0,BKN,7000.0,,,,
KRDR,06-02-2015,05:58,METAR,Normal,180,17.0,24.0,,9999.0,Light Rain,17.8,9.5,29.85,1011.2,61,,,,,,,,,,TRACE,,TRACE,,,5500.0,5500.0,OVC,5500.0,,,,,,
KRDR,06-02-2015,05:47,SPECI,Normal,180,14.0,20.0,,9999.0,Light Rain,18.0,9.0,29.85,,61,,,,,,,,,,,,,,,5000.0,5000.0,OVC,5000.0,,,,,,
KRDR,06-02-2015,05:11,SPECI,Normal,180,15.0,,,9999.0,,18.0,9.0,29.86,,,,,,,,,,,,,,,,,10000.0,4200.0,FEW,4200.0,SCT,5000.0,BKN,10000.0,,
KRDR,06-02-2015,05:01,SPECI,Normal,180,13.0,24.0,,9999.0,Light Drizzle,18.0,10.0,29.86,,51,,,,,,,,,,,,,,,10000.0,4600.0,FEW,4600.0,BKN,10000.0,,,,
KRDR,06-02-2015,04:59,SPECI,Normal,180,13.0,24.0,,9999.0,,18.0,10.0,29.86,,,,,,,,,,,,,,,,,10000.0,4700.0,FEW,4700.0,BKN,10000.0,,,,
KRDR,06-02-2015,04:58,METAR,Normal,180,13.0,24.0,,9999.0,Light Rain,17.7,10.0,29.86,1011.5,61,,,,,,,,,,TRACE,,,,,10000.0,10000.0,BKN,10000.0,,,,,,
KRDR,06-02-2015,04:47,SPECI,Normal,180,16.0,22.0,,9999.0,Light Rain,18.0,10.0,29.85,,61,,,,,,,,,,,,,,,10000.0,10000.0,OVC,10000.0,,,,,,
KRDR,06-02-2015,04:14,SPECI,Normal,180,16.0,,,9999.0,,18.0,10.0,29.85,,,,,,,,,,,,,,,,,10000.0,2600.0,FEW,2600.0,BKN,10000.0,,,,
KRDR,06-02-2015,04:04,SPECI,Normal,180,17.0,22.0,,9999.0,Light Rain,19.0,11.0,29.86,,61,,,,,,,,,,,,,,,10000.0,2600.0,FEW,2600.0,SCT,7000.0,BKN,10000.0,,
KRDR,06-02-2015,03:58,METAR,Normal,180,14.0,,,9999.0,,19.8,8.5,29.87,1011.8,,,,,,,,,,,,,,,,10000.0,10000.0,BKN,10000.0,,,,,,
KRDR,06-02-2015,02:58,METAR,Normal,170,13.0,,,9999.0,,20.5,8.7,29.87,1011.9,,,,,,,,,,,,,,,,11000.0,11000.0,BKN,11000.0,,,,,,
KRDR,06-02-2015,01:58,METAR,Normal,170,14.0,,,9999.0,,21.1,9.2,29.87,1011.9,,,,,,,,,,,,,,,2/8 Mostly Clear,72000.0,12000.0,FEW,12000.0,,,,,,
KRDR,06-02-2015,00:58,METAR,Normal,160,18.0,25.0,,9999.0,,22.5,9.7,29.88,1012.3,,,,,,,,,,,,,,,Clear,72000.0,,,,,,,,,
KRDR,06-01-2015,23:58,METAR,Normal,170,18.0,24.0,,9999.0,,22.9,9.9,29.91,1013.3,,,,,,,,,,,,,,,Clear,72000.0,,,,,,,,,
KRDR,06-01-2015,22:58,METAR,Normal,170,22.0,29.0,,9999.0,,23.0,10.2,29.92,1013.7,,,,,,,,,,,,,,,Clear,72000.0,,,,,,,,,
KRDR,06-01-2015,21:58,METAR,Normal,180,23.0,28.0,,9999.0,,22.5,9.9,29.94,1014.4,,,,,,,,,,,,,,,Clear,72000.0,,,,,,,,,
KRDR,06-01-2015,20:58,METAR,Normal,180,23.0,30.0,170/30KTS,9999.0,,22.1,9.0,29.96,1015.1,,,,,,,,,,,,,,,4/8 Partly Cloudy,72000.0,4900.0,FEW,4900.0,SCT,6000.0,,,,
KRDR,06-01-2015,19:58,METAR,Normal,160,18.0,29.0,160/29KTS,9999.0,,21.0,8.4,29.98,1015.8,,,,,,,,,,,,,,,,4600.0,4600.0,BKN,4600.0,BKN,7000.0,,,,
KRDR,06-01-2015,18:58,METAR,Normal,170,20.0,26.0,190/27KTS,9999.0,,20.8,7.8,30.01,1016.9,,,,,,,,,,,,,,,,5000.0,5000.0,BKN,5000.0,BKN,7000.0,,,,
KRDR,06-01-2015,17:58,METAR,Normal,170,19.0,24.0,180/27KTS,9999.0,,20.0,6.7,30.03,1017.5,,,,,,,,,,,,,,,,8500.0,7000.0,FEW,7000.0,BKN,8600.0,,,,
KRDR,06-01-2015,16:58,METAR,Normal,160,17.0,,,9999.0,,19.0,6.7,30.04,1017.9,,,,,,,,,,,,,,,,6500.0,6500.0,OVC,6500.0,,,,,,
KRDR,06-01-2015,15:58,METAR,Normal,160,20.0,23.0,180/26KTS,9999.0,,18.0,7.0,30.06,1018.6,,,,,,,,,,,,,,,4/8 Partly Cloudy,72000.0,7000.0,SCT,7000.0,,,,,,
KRDR,06-01-2015,14:58,METAR,Normal,160,12.0,,,9999.0,,14.4,6.4,30.07,1019.0,,,,,,,,,,,,,,,,6000.0,6000.0,OVC,6000.0,,,,,,
KRDR,06-01-2015,13:58,METAR,Normal,160,14.0,19.0,,9999.0,,13.7,5.8,30.09,1019.7,,,,,,,,,,,,,,,,7000.0,7000.0,OVC,7000.0,,,,,,
KRDR,06-01-2015,12:58,METAR,Normal,150,11.0,,,9999.0,,12.1,5.1,30.10,1019.9,,,,,,,,,,,,,,,,8500.0,8500.0,OVC,8600.0,,,,,,
KRDR,06-01-2015,11:58,METAR,Normal,170,11.0,,,9999.0,,10.4,4.0,30.11,1020.3,,,,,,,,,,,,,,,,8000.0,8000.0,OVC,8000.0,,,,,,
KRDR,06-01-2015,10:58,METAR,Normal,160,9.0,,,9999.0,,9.6,3.3,30.12,1020.7,,,,,,,,,,,,,,,,8500.0,8500.0,OVC,8600.0,,,,,,
KRDR,06-01-2015,09:58,METAR,Normal,170,8.0,,,9999.0,,9.5,3.0,30.13,1020.9,,,,,,,,,,,,,,,,8500.0,8500.0,BKN,8600.0,,,,,,
KRDR,06-01-2015,08:58,METAR,Normal,170,7.0,,,9999.0,,8.6,2.8,30.14,1021.3,,,,,,,,,,,,,,,Clear,72000.0,,,,,,,,,
KRDR,06-01-2015,07:58,METAR,Normal,170,7.0,,,9999.0,,9.5,2.9,30.15,1021.7,,,,,,,,,,,,,,,Clear,72000.0,,,,,,,,,
KRDR,06-01-2015,06:58,METAR,Normal,170,7.0,,,9999.0,,9.2,2.3,30.15,1021.7,,,,,,,,,,,,,,,Clear,72000.0,,,,,,,,,
KRDR,06-01-2015,05:58,METAR,Normal,170,7.0,,,9999.0,,9.7,2.1,30.16,1022.0,,,,,,,,,,,,,,,Clear,72000.0,,,,,,,,,
KRDR,06-01-2015,04:58,METAR,Normal,170,8.0,,,9999.0,,10.1,2.3,30.16,1022.0,,,,,,,,,,,,,,,Clear,72000.0,,,,,,,,,
KRDR,06-01-2015,03:58,METAR,Normal,180,7.0,,,9999.0,,10.2,3.9,30.17,1022.4,,,,,,,,,,,,,,,Clear,72000.0,,,,,,,,,
KRDR,06-01-2015,02:58,METAR,Normal,180,8.0,,,9999.0,,12.6,4.7,30.18,1022.8,,,,,,,,,,,,,,,Clear,72000.0,,,,,,,,,
KRDR,06-01-2015,01:58,METAR,Normal,180,9.0,,,9999.0,,14.6,5.4,30.18,1022.7,,,,,,,,,,,,,,,Clear,72000.0,,,,,,,,,
KRDR,06-01-2015,00:58,METAR,Normal,180,11.0,,,9999.0,,16.9,6.2,30.17,1022.4,,,,,,,,,,,,,,,Clear,72000.0,,,,,,,,,
KRDR,05-31-2015,23:58,METAR,Normal,180,13.0,,,9999.0,,18.2,6.4,30.17,1022.4,,,,,,,,,,,,,,,Clear,72000.0,,,,,,,,,
KRDR,05-31-2015,22:58,METAR,Normal,160,12.0,18.0,,9999.0,,19.2,5.5,30.16,1022.1,,,,,,,,,,,,,,,2/8 Mostly Clear,72000.0,6000.0,FEW,6000.0,,,,,,
KRDR,05-31-2015,21:59,SPECI,Normal,140,13.0,,,9999.0,,19.0,5.0,30.16,,,,,,,,,,,,,,,,2/8 Mostly Clear,72000.0,6000.0,FEW,6000.0,,,,,,
KRDR,05-31-2015,21:58,METAR,Normal,140,11.0,,,9999.0,,18.7,5.1,30.16,1022.1,,,,,,,,,,,,,,,2/8 Mostly Clear,72000.0,6000.0,FEW,6000.0,,,,,,
KRDR,05-31-2015,21:43,SPECI,Normal,180,14.0,,,9999.0,,18.0,4.0,30.17,,,,,,,,,,,,,,,,4/8 Partly Cloudy,72000.0,6000.0,SCT,6000.0,,,,,,
KRDR,05-31-2015,21:12,SPECI,Normal,130,13.0,19.0,,9999.0,,19.0,5.0,30.17,,,,,,,,,,,,,,,,2/8 Mostly Clear,72000.0,6000.0,FEW,6000.0,,,,,,
KRDR,05-31-2015,20:58,METAR,Normal,140,11.0,,,9999.0,,19.5,4.9,30.17,1022.4,,,,,,,,,,,,,,,2/8 Mostly Clear,72000.0,6000.0,FEW,6000.0,,,,,,
KRDR,05-31-2015,19:59,SPECI,Normal,180,17.0,20.0,,9999.0,,19.0,4.0,30.19,,,,,,,,,,,,,,,,4/8 Partly Cloudy,72000.0,6000.0,SCT,6000.0,,,,,,
KRDR,05-31-2015,19:58,METAR,Normal,160,13.0,19.0,,9999.0,,19.3,3.7,30.19,1023.1,,,,,,,,,,,,,,,4/8 Partly Cloudy,72000.0,6000.0,SCT,6000.0,,,,,,
KRDR,05-31-2015,18:58,METAR,Normal,160,12.0,,,9999.0,,18.8,2.9,30.20,1023.5,,,,,,,,,,,,,,,2/8 Mostly Clear,72000.0,6000.0,FEW,6000.0,,,,,,
KRDR,05-31-2015,18:21,SPECI,Normal,180,12.0,19.0,,9999.0,,19.0,4.0,30.21,,,,,,,,,,,,,,,,4/8 Partly Cloudy,72000.0,6000.0,SCT,6000.0,,,,,,
KRDR,05-31-2015,17:58,METAR,Normal,140,14.0,16.0,,9999.0,,18.8,3.8,30.21,1023.9,,,,,,,,,,,,,,,2/8 Mostly Clear,72000.0,11000.0,FEW,11000.0,,,,,,
KRDR,05-31-2015,17:10,SPECI,Normal,180,11.0,,,9999.0,,17.0,4.0,30.22,,,,,,,,,,,,,,,,4/8 Partly Cloudy,72000.0,12000.0,SCT,12000.0,,,,,,
KRDR,05-31-2015,16:58,METAR,Normal,140,9.0,,,9999.0,,17.0,4.1,30.22,1024.3,,,,,,,,,,,,,,,,12000.0,12000.0,BKN,12000.0,,,,,,
KRDR,05-31-2015,15:58,METAR,Normal,160,9.0,,,9999.0,,14.6,4.6,30.24,1024.9,,,,,,,,,,,,,,,4/8 Partly Cloudy,72000.0,12000.0,SCT,12000.0,,,,,,
KRDR,05-31-2015,14:58,METAR,Normal,170,9.0,,,9999.0,,13.6,3.9,30.24,1025.0,,,,,,,,,,,,,,,4/8 Partly Cloudy,72000.0,12000.0,SCT,12000.0,,,,,,
KRDR,05-31-2015,13:58,METAR,Normal,180,9.0,,,9999.0,,11.3,3.4,30.25,1025.2,,,,,,,,,,,,,,,2/8 Mostly Clear,72000.0,12000.0,FEW,12000.0,,,,,,
KRDR,05-31-2015,12:58,METAR,Normal,150,6.0,,,9999.0,,7.9,3.3,30.25,1025.3,,,,,,,,,,,,,,,,12000.0,12000.0,OVC,12000.0,,,,,,
KRDR,05-31-2015,11:58,METAR,Normal,140,5.0,,,9999.0,,7.4,2.8,30.25,1025.4,,,,,,,,,,,,,,,4/8 Partly Cloudy,72000.0,12000.0,SCT,12000.0,,,,,,
KRDR,05-31-2015,10:58,METAR,Normal,120,5.0,,,9999.0,,7.1,2.8,30.25,1025.4,,,,,,,,,,,,,,,Clear,72000.0,,,,,,,,,
KRDR,05-31-2015,09:58,METAR,Normal,110,6.0,,,9999.0,,7.0,2.1,30.27,1026.0,,,,,,,,,,,,,,,Clear,72000.0,,,,,,,,,
KRDR,05-31-2015,08:58,METAR,Normal,100,3.0,,,9999.0,,7.0,1.6,30.26,1025.7,,,,,,,,,,,,,,,Clear,72000.0,,,,,,,,,
KRDR,05-31-2015,07:58,METAR,Normal,90,4.0,,,9999.0,,6.9,1.4,30.28,1026.4,,,,,,,,,,,,,,,Clear,72000.0,,,,,,,,,
KRDR,05-31-2015,06:58,METAR,Normal,100,6.0,,,9999.0,,6.8,1.4,30.28,1026.5,,,,,,,,,,,,,,,Clear,72000.0,,,,,,,,,
KRDR,05-31-2015,05:58,METAR,Normal,60,3.0,,,9999.0,,5.1,0.5,30.28,1026.6,,,,,,,,,,,,,,,Clear,72000.0,,,,,,,,,
KRDR,05-31-2015,04:58,METAR,Normal,70,2.0,,,9999.0,,4.2,1.0,30.27,1026.3,,,,,,,,,,,,,,,Clear,72000.0,,,,,,,,,
KRDR,05-31-2015,03:58,METAR,Normal,100,2.0,,,9999.0,,9.0,-0.3,30.28,1026.5,,,,,,,,,,,,,,,Clear,72000.0,,,,,,,,,
KRDR,05-31-2015,02:58,METAR,Normal,60,4.0,,,9999.0,,6.7,-0.4,30.27,1026.3,,,,,,,,,,,,,,,Clear,72000.0,,,,,,,,,
KRDR,05-31-2015,01:58,METAR,Normal,70,5.0,,,9999.0,,10.8,-1.6,30.27,1026.2,,,,,,,,,,,,,,,Clear,72000.0,,,,,,,,,
KRDR,05-31-2015,00:58,METAR,Normal,80,5.0,,,9999.0,,12.9,-2.6,30.28,1026.5,,,,,,,,,,,,,,,Clear,72000.0,,,,,,,,,
KRDR,05-30-2015,23:58,METAR,Normal,100,6.0,,,9999.0,,13.3,-2.0,30.29,1026.9,,,,,,,,,,,,,,,Clear,72000.0,,,,,,,,,
KRDR,05-30-2015,22:58,METAR,Normal,80,5.0,,,9999.0,,13.3,-3.0,30.31,1027.7,,,,,,,,,,,,,,,Clear,72000.0,,,,,,,,,
KRDR,05-30-2015,21:58,METAR,Variable,,6.0,,,9999.0,,13.1,-2.0,30.33,1028.4,,,,,,,,,,,,,,,Clear,72000.0,,,,,,,,,
KRDR,05-30-2015,20:58,METAR,Variable,,3.0,,,9999.0,,12.7,-2.4,30.35,,,,,,,,,,,,,,,,Clear,72000.0,,,,,,,,,
KRDR,05-30-2015,19:58,METAR,Variable,,3.0,,,9999.0,,11.4,-2.8,30.36,,,,,,,,,,,,,,,,Clear,72000.0,,,,,,,,,
KRDR,05-30-2015,18:58,METAR,Normal,90,8.0,,,9999.0,,10.5,-2.0,30.38,1030.1,,,,,,,,,,,,,,,Clear,72000.0,,,,,,,,,
KRDR,05-30-2015,17:58,METAR,Variable,,5.0,,,9999.0,,9.3,-1.9,30.40,1030.8,,,,,,,,,,,,,,,Clear,72000.0,,,,,,,,,
KRDR,05-30-2015,17:17,SPECI,Normal,40,10.0,15.0,,9999.0,,9.0,-3.0,30.41,,,,,,,,,,,,,,,,Clear,72000.0,,,,,,,,,
KRDR,05-30-2015,16:58,METAR,Normal,30,11.0,,,9999.0,,8.3,-2.8,30.41,1031.1,,,,,,,,,,,,,,,Clear,72000.0,,,,,,,,,
KRDR,05-30-2015,15:58,METAR,Normal,50,11.0,17.0,,9999.0,,7.3,-3.5,30.41,1031.0,,,,,,,,,,,,,,,Clear,72000.0,,,,,,,,,
KRDR,05-30-2015,14:58,METAR,Normal,60,9.0,,,9999.0,,6.1,-3.6,30.41,1031.0,,,,,,,,,,,,,,,Clear,72000.0,,,,,,,,,
KRDR,05-30-2015,13:58,METAR,Normal,40,11.0,,,9999.0,,4.8,-3.7,30.42,1031.4,,,,,,,,,,,,,,,Clear,72000.0,,,,,,,,,
KRDR,05-30-2015,12:58,METAR,Normal,30,11.0,,,9999.0,,2.7,-3.4,30.41,1031.0,,,,,,,,,,,,,,,Clear,72000.0,,,,,,,,,
KRDR,05-30-2015,11:58,METAR,Normal,10,7.0,,,9999.0,,0.4,-3.4,30.40,1030.8,,,,,,,,,,,,,,,Clear,72000.0,,,,,,,,,
KRDR,05-30-2015,10:58,METAR,Normal,10,7.0,,,9999.0,,-1.9,-4.6,30.39,1030.4,,,,,,,,,,,,,,,Clear,72000.0,,,,,,,,,
KRDR,05-30-2015,09:58,METAR,Normal,360,5.0,,,9999.0,,-1.5,-4.5,30.38,1030.1,,,,,,,,,,,,,,,Clear,72000.0,,,,,,,,,
KRDR,05-30-2015,08:58,METAR,Normal,10,9.0,,,9999.0,,0.1,-4.3,30.36,1029.3,,,,,,,,,,,,,,,Clear,72000.0,,,,,,,,,
KRDR,05-30-2015,07:58,METAR,Normal,360,10.0,,,9999.0,,0.4,-4.0,30.35,1029.1,,,,,,,,,,,,,,,Clear,72000.0,,,,,,,,,
KRDR,05-30-2015,06:58,METAR,Normal,10,11.0,,,9999.0,,1.5,-3.0,30.35,1029.1,,,,,,,,,,,,,,,Clear,72000.0,,,,,,,,,
KRDR,05-30-2015,04:58,METAR,Normal,360,15.0,18.0,,9999.0,,4.1,-2.6,30.33,1028.3,,,,,,,,,,,,,,,Clear,72000.0,,,,,,,,,
KRDR,05-30-2015,03:58,METAR,Normal,360,15.0,,,9999.0,,5.8,-1.9,30.31,1027.6,,,,,,,,,,,,,,,Clear,72000.0,,,,,,,,,
KRDR,05-30-2015,02:58,METAR,Normal,360,13.0,19.0,,9999.0,,7.1,-0.5,30.28,1026.6,,,,,,,,,,,,,,,Clear,72000.0,,,,,,,,,
KRDR,05-30-2015,01:58,METAR,Normal,20,15.0,19.0,,9999.0,,9.1,-0.3,30.25,1025.5,,,,,,,,,,,,,,,Clear,72000.0,,,,,,,,,
KRDR,05-30-2015,00:58,METAR,Normal,20,16.0,22.0,,9999.0,,11.0,-0.2,30.23,1024.7,,,,,,,,,,,,,,,Clear,72000.0,,,,,,,,,
KRDR,05-29-2015,23:58,METAR,Normal,20,19.0,24.0,,9999.0,,11.9,0.6,30.21,1024.0,,,,,,,,,,,,,,,Clear,72000.0,,,,,,,,,
KRDR,05-29-2015,22:58,METAR,Normal,20,17.0,26.0,,9999.0,,13.0,1.4,30.19,1023.3,,,,,,,,,,,,,,,Clear,72000.0,,,,,,,,,
KRDR,05-29-2015,21:58,METAR,Normal,10,19.0,26.0,/  KTS,9999.0,,12.9,1.7,30.19,1023.2,,,,,,,,,,,,,,,Clear,72000.0,,,,,,,,,
KRDR,05-29-2015,20:58,METAR,Normal,10,20.0,30.0,360/31KTS,9999.0,,12.9,2.7,30.19,1023.2,,,,,,,,,,,,,,,4/8 Partly Cloudy,72000.0,3700.0,SCT,3700.0,,,,,,
KRDR,05-29-2015,19:58,METAR,Normal,20,19.0,31.0,010/31KTS,9999.0,,11.6,2.4,30.19,1023.3,,,,,,,,,,,,,,,,3300.0,3300.0,BKN,3300.0,,,,,,
KRDR,05-29-2015,18:58,METAR,Normal,10,18.0,26.0,340/30KTS,9999.0,,11.0,2.9,30.19,1023.1,,,,,,,,,,,,,,,,2800.0,2800.0,BKN,2800.0,,,,,,
KRDR,05-29-2015,17:58,METAR,Normal,20,22.0,26.0,010/30KTS,9999.0,,9.2,2.2,30.19,1023.1,,,,,,,,,,,,,,,,2600.0,2600.0,OVC,2600.0,,,,,,
KRDR,05-29-2015,16:58,METAR,Normal,10,23.0,29.0,360/31KTS,9999.0,,8.4,1.9,30.18,1022.8,,,,,,,,,,,,,,,,2300.0,2300.0,OVC,2300.0,,,,,,
KRDR,05-29-2015,15:58,METAR,Normal,360,25.0,30.0,360/36KTS,9999.0,,8.2,2.1,30.15,1021.8,,,,,,,,,,,,,,,,2100.0,2100.0,OVC,2100.0,,,,,,
KRDR,05-29-2015,15:33,SPECI,Normal,10,18.0,31.0,,9999.0,,8.0,2.0,30.15,,,,,,,,,,,,,,,,,2000.0,2000.0,OVC,2000.0,,,,,,
KRDR,05-29-2015,15:08,SPECI,Normal,20,21.0,31.0,,9999.0,,7.0,2.0,30.15,,,,,,,,,,,,,,,,,1900.0,1900.0,OVC,1900.0,,,,,,
KRDR,05-29-2015,14:58,METAR,Normal,10,25.0,31.0,350/35KTS,9999.0,,7.3,2.4,30.14,1021.5,,,,,,,,,,,,,,,,2000.0,2000.0,OVC,2000.0,,,,,,
KRDR,05-29-2015,14:53,SPECI,Normal,20,24.0,30.0,,9999.0,,7.0,2.0,30.14,,,,,,,,,,,,,,,,,1900.0,1900.0,OVC,1900.0,,,,,,
KRDR,05-29-2015,14:33,SPECI,Normal,10,21.0,31.0,,9999.0,,7.0,2.0,30.14,,,,,,,,,,,,,,,,,2000.0,2000.0,OVC,2000.0,,,,,,
KRDR,05-29-2015,14:28,SPECI,Normal,10,25.0,33.0,,9999.0,,7.0,2.0,30.13,,,,,,,,,,,,,,,,,1900.0,1900.0,OVC,1900.0,,,,,,
KRDR,05-29-2015,14:23,SPECI,Normal,20,19.0,33.0,,9999.0,,7.0,2.0,30.13,,,,,,,,,,,,,,,,,2000.0,2000.0,OVC,2000.0,,,,,,
KRDR,05-29-2015,13:58,METAR,Normal,20,25.0,32.0,350/34KTS,9999.0,,6.6,2.4,30.12,1020.7,,,,,,,,,,,,,,,,1800.0,1800.0,OVC,1800.0,,,,,,
KRDR,05-29-2015,12:58,METAR,Normal,20,22.0,34.0,030/34KTS,9999.0,,7.3,3.4,30.09,1019.6,,,,,,,,,,,,,,,,1800.0,1800.0,BKN,1800.0,BKN,4000.0,OVC,5000.0,,
KRDR,05-29-2015,12:35,SPECI,Normal,10,18.0,30.0,,9999.0,,7.0,4.0,30.08,,,,,,,,,,,,,,,,,1900.0,1900.0,OVC,1900.0,,,,,,
KRDR,05-29-2015,12:30,SPECI,Normal,20,22.0,30.0,,9999.0,,7.0,4.0,30.07,,,,,,,,,,,,,,,,,2000.0,2000.0,OVC,2000.0,,,,,,
KRDR,05-29-2015,11:58,METAR,Normal,10,21.0,30.0,350/32KTS,9999.0,,7.6,4.0,30.06,1018.6,,,,,,,,,,,,,,.04 IN,,1700.0,1700.0,OVC,1700.0,,,,,,
KRDR,05-29-2015,11:18,SPECI,Normal,20,20.0,27.0,,9999.0,,8.0,5.0,30.04,,,,,,,,,,,,,,,,,1500.0,1500.0,OVC,1500.0,,,,,,
KRDR,05-29-2015,10:58,METAR,Normal,20,21.0,28.0,350/33KTS,9999.0,,8.3,5.3,30.02,1017.3,,,,,,,,,,,,,,,,1400.0,1400.0,OVC,1400.0,,,,,,
KRDR,05-29-2015,09:58,METAR,Normal,20,21.0,28.0,350/32KTS,9999.0,,9.1,6.6,29.99,1016.2,,,,,,,,,,,,,,,,1200.0,1200.0,OVC,1200.0,,,,,,
KRDR,05-29-2015,09:03,SPECI,Normal,10,16.0,24.0,,9999.0,,10.0,8.0,29.96,,,,,,,,,,,,,,,,,1200.0,1200.0,OVC,1200.0,,,,,,
KRDR,05-29-2015,08:58,METAR,Normal,10,18.0,25.0,360/30KTS,9999.0,,9.9,7.5,29.96,1015.0,,,,,,,,,,,,,,,,1000.0,1000.0,OVC,1000.0,,,,,,
KRDR,05-29-2015,08:08,SPECI,Normal,10,19.0,32.0,,9999.0,,10.0,8.0,29.95,,,,,,,,,,,,,,,,,900.0,900.0,OVC,900.0,,,,,,
KRDR,05-29-2015,07:58,METAR,Normal,10,21.0,30.0,350/31KTS,9999.0,,10.8,8.5,29.95,1014.6,,,,,,,,,,,,,,,,1100.0,1100.0,OVC,1100.0,,,,,,
KRDR,05-29-2015,07:13,SPECI,Normal,10,22.0,29.0,,9999.0,,12.0,10.0,29.92,,,,,,,,,,,,,,,,,1000.0,1000.0,OVC,1000.0,,,,,,
KRDR,05-29-2015,06:58,METAR,Normal,10,20.0,27.0,360/29KTS,9999.0,,14.0,12.0,29.91,1013.2,,,,,,,,,,,,,,,,900.0,900.0,BKN,900.0,OVC,1400.0,,,,
KRDR,05-29-2015,06:56,SPECI,Normal,360,18.0,27.0,,9999.0,,14.0,12.0,29.91,,,,,,,,,,,,,,,,,900.0,900.0,BKN,900.0,OVC,1400.0,,,,
KRDR,05-29-2015,06:41,SPECI,Normal,20,12.0,20.0,,9999.0,,15.0,13.0,29.91,,,,,,,,,,,,,,,,,1100.0,1100.0,BKN,1100.0,OVC,8600.0,,,,
KRDR,05-29-2015,06:40,SPECI,Normal,20,13.0,20.0,,9999.0,,15.0,13.0,29.91,,,,,,,,,,,,,,,,,1200.0,1200.0,BKN,1200.0,OVC,8600.0,,,,
KRDR,05-29-2015,06:10,SPECI,Normal,10,13.0,17.0,,9999.0,,16.0,14.0,29.90,,,,,,,,,,,,,,,,,1100.0,1100.0,OVC,1100.0,,,,,,
KRDR,05-29-2015,05:58,METAR,Normal,20,10.0,,,9999.0,,15.8,13.7,29.89,1012.5,,,,,,,,,,,,,,,,1300.0,1300.0,OVC,1300.0,,,,,,
KRDR,05-29-2015,05:39,SPECI,Normal,20,14.0,,,9999.0,,16.0,14.0,29.89,,,,,,,,,,,,,,,,,1400.0,1400.0,BKN,1400.0,OVC,2000.0,,,,
KRDR,05-29-2015,05:34,SPECI,Normal,20,15.0,21.0,,9999.0,,16.0,14.0,29.89,,,,,,,,,,,,,,,,,1400.0,1400.0,SCT,1400.0,OVC,2000.0,,,,
KRDR,05-29-2015,05:29,SPECI,Normal,20,16.0,21.0,,9999.0,,16.0,14.0,29.88,,,,,,,,,,,,,,,,,1400.0,1500.0,SCT,1500.0,OVC,2000.0,,,,
KRDR,05-29-2015,05:09,SPECI,Normal,20,10.0,17.0,,9999.0,,17.0,15.0,29.88,,,,,,,,,,,,,,,,,1300.0,1300.0,OVC,1300.0,,,,,,
KRDR,05-29-2015,04:58,METAR,Normal,20,9.0,,,9999.0,,16.9,14.8,29.88,1012.2,,,,,,,,,,,,,,,,1100.0,1100.0,BKN,1100.0,OVC,1700.0,,,,
KRDR,05-29-2015,04:43,SPECI,Normal,20,14.0,,,9999.0,,17.0,15.0,29.88,,,,,,,,,,,,,,,,,1100.0,1100.0,BKN,1100.0,OVC,1700.0,,,,
KRDR,05-29-2015,04:33,SPECI,Normal,30,11.0,,,9999.0,,17.0,16.0,29.88,,,,,,,,,,,,,,,,,1100.0,1100.0,BKN,1100.0,OVC,1700.0,,,,
KRDR,05-29-2015,04:23,SPECI,Normal,30,11.0,,,9999.0,,18.0,16.0,29.87,,,,,,,,,,,,,,,,,900.0,900.0,OVC,900.0,,,,,,
KRDR,05-29-2015,04:18,SPECI,Normal,30,14.0,21.0,,9999.0,,18.0,16.0,29.86,,,,,,,,,,,,,,,,,1100.0,1100.0,OVC,1100.0,,,,,,
KRDR,05-29-2015,03:58,METAR,Normal,350,14.0,,,9999.0,,17.7,16.5,29.85,1011.2,,,,,,,,,,,,,,,,800.0,800.0,BKN,800.0,BKN,2100.0,,,,
KRDR,05-29-2015,03:51,SPECI,Variable,350,11.0,,,9999.0,,18.0,17.0,29.85,,,,,,,,,,,,,,,,,900.0,900.0,BKN,900.0,BKN,2100.0,,,,
KRDR,05-29-2015,03:46,SPECI,Normal,350,11.0,,,9999.0,,17.0,16.0,29.84,,,,,,,,,,,,,,,,,2100.0,900.0,SCT,900.0,SCT,1600.0,BKN,2100.0,,
KRDR,05-29-2015,03:41,SPECI,Normal,350,12.0,,,9999.0,,17.0,16.0,29.84,,,,,,,,,,,,,,,,4/8 Partly Cloudy,72000.0,1100.0,FEW,1100.0,SCT,1800.0,,,,
KRDR,05-29-2015,02:58,METAR,Normal,360,5.0,,,9999.0,,17.1,15.6,29.83,1010.5,,,,,,,,,,,,,,,2/8 Mostly Clear,72000.0,1800.0,FEW,1800.0,,,,,,
KRDR,05-29-2015,01:58,METAR,Normal,40,3.0,,,9999.0,,20.0,16.9,29.80,1009.5,,,,,,,,,,,,,,,,7000.0,4500.0,FEW,4500.0,SCT,5500.0,BKN,7000.0,,
KRDR,05-29-2015,00:58,METAR,Normal,10,12.0,15.0,,9999.0,,22.8,17.6,29.79,1009.1,,,,,,,,,,,,,,,,12000.0,2700.0,FEW,2700.0,BKN,12000.0,,,,
KRDR,05-28-2015,23:58,METAR,Normal,250,8.0,,,9999.0,,20.7,16.5,29.75,1007.9,,,,,,,,,,,.01 IN,,.03 IN,,,12000.0,9000.0,FEW,9100.0,BKN,12000.0,,,,
KRDR,05-28-2015,23:43,SPECI,Normal,260,8.0,,,9999.0,,20.0,16.0,29.75,,,,,,,,,,,,,,,,,10000.0,7000.0,FEW,7000.0,BKN,10000.0,,,,
KRDR,05-28-2015,23:30,SPECI,Normal,250,9.0,,,9999.0,Light Rain,18.0,16.0,29.76,,61,,,,,,,,,,,,,,,10000.0,4600.0,FEW,4600.0,SCT,7500.0,BKN,10000.0,,
KRDR,05-28-2015,23:26,SPECI,Normal,240,7.0,,,9999.0,,18.0,16.0,29.76,,,,,,,,,,,,,,,,,8000.0,8000.0,BKN,8000.0,BKN,10000.0,,,,
KRDR,05-28-2015,22:58,METAR,Normal,270,11.0,,,9999.0,Light Rain,18.2,15.7,29.78,1009.0,61,,,,,,,,,,.02 IN,,,,,8500.0,8500.0,OVC,8600.0,,,,,,
KRDR,05-28-2015,22:49,SPECI,Normal,260,14.0,,,9999.0,Light Rain,19.0,16.0,29.77,,61,,,,,,,,,,,,,,,9000.0,9000.0,OVC,9100.0,,,,,,
KRDR,05-28-2015,22:29,SPECI,Normal,250,12.0,20.0,,9999.0,Thunderstorm and Rain or Snow Showers,19.0,15.0,29.76,,92,,,,,,,,,,,,,,,9000.0,7500.0,SCT,7500.0,OVC,9100.0,,,,
KRDR,05-28-2015,22:28,SPECI,Normal,250,13.0,,,9999.0,Light Rain,19.0,15.0,29.76,,61,,,,,,,,,,,,,,,9000.0,6000.0,FEW,6000.0,SCT,7500.0,OVC,9100.0,,
KRDR,05-28-2015,21:58,METAR,Normal,190,15.0,25.0,,9999.0,Distant Lightning,20.6,14.2,29.78,1008.9,12,,,,,,,,,,TRACE,,,,,6500.0,4500.0,SCT,4500.0,BKN,6500.0,BKN,8000.0,,
KRDR,05-28-2015,21:56,SPECI,Normal,190,18.0,25.0,,9999.0,Distant Lightning,20.0,15.0,29.78,,12,,,,,,,,,,,,,,,6500.0,4200.0,FEW,4200.0,SCT,5000.0,BKN,6500.0,,
KRDR,05-28-2015,21:36,SPECI,Normal,210,16.0,20.0,,9999.0,Dry Thunderstorm,22.0,16.0,29.77,,91,,,,,,,,,,,,,,,6000.0,4100.0,SCT,4100.0,BKN,6000.0,BKN,8600.0,,
KRDR,05-28-2015,21:28,SPECI,Normal,200,13.0,,,9999.0,Thunderstorm and Rain or Snow Showers,22.0,15.0,29.77,,92,,,,,,,,,,,,,,,5000.0,4000.0,SCT,4000.0,BKN,5000.0,,,,
KRDR,05-28-2015,21:22,SPECI,Normal,200,16.0,22.0,,9999.0,Light Rain,23.0,16.0,29.78,,61,,,,,,,,,,,,,,,3900.0,3900.0,BKN,3900.0,BKN,4600.0,OVC,5500.0,,
KRDR,05-28-2015,20:58,METAR,Normal,220,9.0,,,9999.0,Distant Lightning,25.1,16.9,29.77,1008.4,12,,,,,,,,,,,,,,,3800.0,3800.0,BKN,3800.0,BKN,4700.0,,,,
KRDR,05-28-2015,19:58,METAR,Normal,190,8.0,,,9999.0,,25.3,17.3,29.80,1009.4,,,,,,,,,,,,,,,,4900.0,3700.0,SCT,3700.0,BKN,4900.0,BKN,10000.0,,
KRDR,05-28-2015,18:58,METAR,Normal,170,11.0,,,9999.0,,23.1,16.8,29.83,1010.5,,,,,,,,,,,,,,,,4500.0,2900.0,FEW,2900.0,OVC,4500.0,,,,
KRDR,05-28-2015,17:58,METAR,Normal,180,13.0,,,9999.0,,23.2,16.7,29.85,1011.1,,,,,,,,,,,,,.01 IN,,,2700.0,2700.0,BKN,2700.0,BKN,10000.0,,,,
KRDR,05-28-2015,16:58,METAR,Normal,190,13.0,,,9999.0,,21.3,15.5,29.86,1011.6,,,,,,,,,,,,,,,Clear,72000.0,,,,,,,,,
KRDR,05-28-2015,15:58,METAR,Normal,150,7.0,,,9999.0,,19.2,15.7,29.88,1012.2,,,,,,,,,,,,,,,,5500.0,1300.0,FEW,1300.0,BKN,5500.0,,,,
KRDR,05-28-2015,14:58,METAR,Normal,110,7.0,,,9999.0,,17.8,15.1,29.88,1012.3,,,,,,,,,,,,.01 IN,,,2/8 Mostly Clear,72000.0,800.0,FEW,800.0,,,,,,
KRDR,05-28-2015,13:58,METAR,Normal,110,6.0,,,9999.0,,15.3,14.1,29.90,1013.0,,,,,,,,,,,,,,,4/8 Partly Cloudy,72000.0,500.0,FEW,500.0,SCT,9600.0,SCT,11000.0,,
KRDR,05-28-2015,13:24,SPECI,Normal,120,4.0,,,9999.0,,14.0,13.0,29.91,,,,,,,,,,,,,,,,,9000.0,600.0,FEW,600.0,SCT,7000.0,BKN,9100.0,,
KRDR,05-28-2015,12:58,METAR,Normal,140,5.0,,,9999.0,,13.5,12.8,29.92,1013.6,,,,,,,,,,,.01 IN,,,,,6000.0,6000.0,SCT,6000.0,BKN,9600.0,,,,
KRDR,05-28-2015,12:26,SPECI,Normal,100,7.0,,,9999.0,,13.0,12.0,29.92,,,,,,,,,,,,,,,,,5500.0,5500.0,BKN,5500.0,OVC,8000.0,,,,
KRDR,05-28-2015,11:58,METAR,Normal,80,4.0,,,8000.0,Light Rain/Mist,12.8,11.9,29.94,1014.2,61,10,,,,,,,,,.09 IN,,.23 IN,.23 IN,,5000.0,5000.0,OVC,5000.0,,,,,,
KRDR,05-28-2015,11:48,SPECI,Normal,70,3.0,,,4000.0,Rain/Mist,13.0,12.0,29.94,,62,10,,,,,,,,,,,,,,5000.0,5000.0,BKN,5000.0,OVC,6500.0,,,,
KRDR,05-28-2015,10:58,METAR,Normal,70,5.0,,,9999.0,Light Rain,13.4,12.1,29.94,1014.2,61,,,,,,,,,,.04 IN,,,,,9000.0,8000.0,SCT,8000.0,OVC,9100.0,,,,
KRDR,05-28-2015,10:53,SPECI,Normal,80,5.0,,,9999.0,Light Rain,13.0,12.0,29.94,,61,,,,,,,,,,,,,,,8000.0,8000.0,BKN,8000.0,OVC,9100.0,,,,
KRDR,05-28-2015,09:58,METAR,Normal,100,2.0,,,9999.0,Light Rain,13.5,12.3,29.97,1015.3,61,,,,,,,,,,.04 IN,,,,,8000.0,8000.0,OVC,8000.0,,,,,,
KRDR,05-28-2015,09:48,SPECI,Calm,,0.0,,,9999.0,Light Rain/Mist,13.0,12.0,29.98,,61,10,,,,,,,,,,,,,,7500.0,7500.0,OVC,7500.0,,,,,,
KRDR,05-28-2015,09:43,SPECI,Calm,,0.0,,,9999.0,Light Rain,13.0,13.0,29.98,,61,,,,,,,,,,,,,,,7500.0,7500.0,OVC,7500.0,,,,,,
KRDR,05-28-2015,09:33,SPECI,Normal,210,2.0,,,9999.0,Light Rain/Mist,13.0,13.0,29.98,,61,10,,,,,,,,,,,,,,7000.0,7000.0,OVC,7000.0,,,,,,
KRDR,05-28-2015,09:28,SPECI,Normal,250,3.0,,,9999.0,Light Rain,14.0,13.0,29.98,,61,,,,,,,,,,,,,,,6500.0,6500.0,BKN,6500.0,OVC,8000.0,,,,
KRDR,05-28-2015,08:58,METAR,Calm,,0.0,,,9999.0,Light Rain,14.1,12.0,29.96,1014.9,61,,,,,,,,,,.01 IN,.06 IN,,,,8000.0,6000.0,FEW,6000.0,OVC,8000.0,,,,
KRDR,05-28-2015,08:49,SPECI,Normal,240,4.0,,,9999.0,Light Rain,14.0,12.0,29.97,,61,,,,,,,,,,,,,,,8000.0,4500.0,FEW,4500.0,BKN,8000.0,OVC,10000.0,,
KRDR,05-28-2015,08:07,SPECI,Normal,40,8.0,,,9999.0,,14.0,12.0,29.93,,,,,,,,,,,,,,,,,9000.0,1000.0,FEW,1000.0,BKN,9100.0,,,,
KRDR,05-28-2015,07:58,METAR,Normal,40,5.0,,,9999.0,Light Rain,14.3,12.1,29.95,1014.6,61,,,,,,,,,,.03 IN,,,,,12000.0,1000.0,FEW,1000.0,SCT,9100.0,BKN,12000.0,,
KRDR,05-28-2015,07:50,SPECI,Normal,20,6.0,,,9999.0,Light Rain,14.0,12.0,29.95,,61,,,,,,,,,,,,,,,11000.0,1000.0,FEW,1000.0,SCT,9100.0,BKN,11000.0,,
KRDR,05-28-2015,07:40,SPECI,Normal,350,5.0,,,9999.0,Light Drizzle,15.0,12.0,29.96,,51,,,,,,,,,,,,,,4/8 Partly Cloudy,72000.0,9000.0,FEW,9100.0,SCT,12000.0,,,,
KRDR,05-28-2015,07:10,SPECI,Normal,340,7.0,,,9999.0,,15.0,11.0,29.97,,,,,,,,,,,,,,,,,10000.0,2400.0,FEW,2400.0,SCT,7500.0,BKN,10000.0,,
KRDR,05-28-2015,07:08,SPECI,Normal,330,8.0,,,9999.0,Light Rain,15.0,11.0,29.98,,61,,,,,,,,,,,,,,,8000.0,2400.0,FEW,2400.0,BKN,8000.0,BKN,10000.0,,
KRDR,05-28-2015,06:58,METAR,Normal,310,10.0,,,6400.0,Light Rain,15.2,10.5,30.00,1016.3,61,,,,,,,,,,.02 IN,,,,,8000.0,2400.0,FEW,2400.0,BKN,8000.0,OVC,10000.0,,
KRDR,05-28-2015,06:54,SPECI,Normal,300,14.0,,,8000.0,Heavy Rain,15.0,11.0,30.00,,63,,,,,,,,,,,,,,,8000.0,2600.0,FEW,2600.0,BKN,8000.0,OVC,10000.0,,
KRDR,05-28-2015,06:49,SPECI,Normal,290,6.0,,,9999.0,Light Rain,15.0,10.0,29.99,,61,,,,,,,,,,,,,,,10000.0,8000.0,SCT,8000.0,OVC,10000.0,,,,
KRDR,05-28-2015,05:58,METAR,Normal,90,6.0,,,9999.0,,16.0,9.2,29.96,1015.0,,,,,,,,,,,,,,,Clear,72000.0,,,,,,,,,
KRDR,05-28-2015,04:58,METAR,Normal,140,1.0,,,9999.0,,15.3,11.0,29.99,1016.1,,,,,,,,,,,,,,,2/8 Mostly Clear,72000.0,12000.0,FEW,12000.0,,,,,,
KRDR,05-28-2015,03:58,METAR,Calm,,0.0,,,9999.0,,15.8,9.7,30.00,1016.4,,,,,,,,,,,,,,,2/8 Mostly Clear,72000.0,12000.0,FEW,12000.0,,,,,,
KRDR,05-28-2015,02:58,METAR,Normal,310,2.0,,,9999.0,,15.4,9.7,29.99,1016.1,,,,,,,,,,,,,,,Clear,72000.0,,,,,,,,,
KRDR,05-28-2015,01:58,METAR,Normal,50,6.0,,,9999.0,,19.4,10.0,29.97,1015.4,,,,,,,,,,,,,,,Clear,72000.0,,,,,,,,,
KRDR,05-28-2015,00:58,METAR,Normal,40,7.0,,,9999.0,,21.1,11.3,29.96,1015.0,,,,,,,,,,,,,,,Clear,72000.0,,,,,,,,,
KRDR,05-27-2015,22:58,METAR,Normal,80,3.0,,,9999.0,,24.0,9.8,29.97,1015.3,,,,,,,,,,,,,,,Clear,72000.0,,,,,,,,,
KRDR,05-27-2015,21:58,METAR,Normal,50,5.0,,,9999.0,,24.0,9.9,29.97,1015.3,,,,,,,,,,,,,,,Clear,72000.0,,,,,,,,,
KRDR,05-27-2015,20:58,METAR,Normal,20,7.0,,,9999.0,,23.0,9.9,29.98,1015.6,,,,,,,,,,,,,,,Clear,72000.0,,,,,,,,,
KRDR,05-27-2015,19:58,METAR,Normal,360,7.0,,,9999.0,,21.9,9.5,29.99,1016.0,,,,,,,,,,,,,,,Clear,72000.0,,,,,,,,,
KRDR,05-27-2015,18:58,METAR,Normal,50,9.0,,,9999.0,,21.8,9.9,29.98,1015.6,,,,,,,,,,,,,,,Clear,72000.0,,,,,,,,,
KRDR,05-27-2015,17:58,METAR,Normal,40,11.0,17.0,,9999.0,,20.1,9.6,29.98,1015.5,,,,,,,,,,,,,,,Clear,72000.0,,,,,,,,,
KRDR,05-27-2015,16:58,METAR,Normal,20,8.0,,,9999.0,,18.9,9.2,29.98,1015.7,,,,,,,,,,,,,,,Clear,72000.0,,,,,,,,,
KRDR,05-27-2015,15:58,METAR,Normal,360,9.0,,,9999.0,,17.4,8.9,29.96,1014.9,,,,,,,,,,,,,,,Clear,72000.0,,,,,,,,,
KRDR,05-27-2015,14:58,METAR,Normal,20,11.0,,,9999.0,,15.8,8.6,29.95,1014.7,,,,,,,,,,,,,,,Clear,72000.0,,,,,,,,,
KRDR,05-27-2015,13:58,METAR,Normal,20,9.0,,,9999.0,,14.6,7.7,29.95,1014.6,,,,,,,,,,,,,,,Clear,72000.0,,,,,,,,,
KRDR,05-27-2015,12:58,METAR,Normal,350,12.0,,,9999.0,,13.4,7.2,29.93,1013.9,,,,,,,,,,,,,,,Clear,72000.0,,,,,,,,,
KRDR,05-27-2015,11:58,METAR,Normal,10,9.0,,,9999.0,,13.1,10.1,29.91,1013.2,,,,,,,,,,,,,,.04 IN,Clear,72000.0,,,,,,,,,
KRDR,05-27-2015,10:58,METAR,Normal,10,8.0,,,9999.0,,13.8,9.6,29.88,1012.1,,,,,,,,,,,,,,,2/8 Mostly Clear,72000.0,12000.0,FEW,12000.0,,,,,,
KRDR,05-27-2015,09:58,METAR,Normal,310,7.0,,,9999.0,,14.4,8.9,29.84,1010.8,,,,,,,,,,,,,,,Clear,72000.0,,,,,,,,,
KRDR,05-27-2015,08:58,METAR,Normal,320,7.0,,,9999.0,,14.9,8.4,29.83,1010.3,,,,,,,,,,,,,,,Clear,72000.0,,,,,,,,,
KRDR,05-27-2015,07:58,METAR,Normal,310,8.0,,,9999.0,,15.1,8.6,29.80,1009.3,,,,,,,,,,,,,,,Clear,72000.0,,,,,,,,,
KRDR,05-27-2015,06:58,METAR,Normal,300,9.0,,,9999.0,,15.1,8.6,29.80,1009.3,,,,,,,,,,,,,,,Clear,72000.0,,,,,,,,,
KRDR,05-27-2015,05:58,METAR,Normal,310,9.0,,,9999.0,,18.4,7.8,29.80,1009.2,,,,,,,,,,,,,.01 IN,,Clear,72000.0,,,,,,,,,
KRDR,05-27-2015,04:58,METAR,Normal,300,7.0,,,9999.0,,17.3,9.6,29.78,1008.6,,,,,,,,,,,,,,,,11000.0,11000.0,BKN,11000.0,,,,,,
KRDR,05-27-2015,03:58,METAR,Normal,280,5.0,,,9999.0,,19.1,10.0,29.77,1008.3,,,,,,,,,,,,,,,,11000.0,11000.0,BKN,11000.0,,,,,,
KRDR,05-27-2015,02:58,METAR,Normal,270,3.0,,,9999.0,,18.0,12.1,29.76,1008.0,,,,,,,,,,,,.01 IN,,,,11000.0,11000.0,BKN,11000.0,,,,,,
KRDR,05-27-2015,01:58,METAR,Normal,310,3.0,,,9999.0,,22.1,10.9,29.74,1007.3,,,,,,,,,,,TRACE,,,,Clear,72000.0,,,,,,,,,
KRDR,05-27-2015,01:10,SPECI,Normal,290,4.0,,,9999.0,,23.0,12.0,29.74,,,,,,,,,,,,,,,,4/8 Partly Cloudy,72000.0,10000.0,SCT,10000.0,,,,,,
KRDR,05-27-2015,00:58,METAR,Normal,330,10.0,,,9999.0,Light Rain,23.4,13.2,29.75,1007.7,61,,,,,,,,,,.01 IN,,,,,12000.0,2200.0,FEW,2200.0,SCT,10000.0,BKN,12000.0,,
KRDR,05-27-2015,00:53,SPECI,Normal,330,10.0,,,9999.0,Light Rain,23.0,13.0,29.75,,61,,,,,,,,,,,,,,,10000.0,2200.0,FEW,2200.0,BKN,10000.0,BKN,12000.0,,
KRDR,05-26-2015,23:58,METAR,Normal,270,5.0,,,9999.0,,25.2,13.0,29.73,1007.1,,,,,,,,,,,,,.03 IN,,Clear,72000.0,,,,,,,,,
KRDR,05-26-2015,22:58,METAR,Normal,220,5.0,,/  KTS,9999.0,,24.1,10.9,29.74,1007.5,,,,,,,,,,,.03 IN,,,,Clear,72000.0,,,,,,,,,
KRDR,05-26-2015,22:28,SPECI,Normal,190,5.0,,,9999.0,,23.0,6.0,29.75,,,,,,,,,,,,,,,,2/8 Mostly Clear,72000.0,2700.0,FEW,2700.0,,,,,,
KRDR,05-26-2015,22:17,SPECI,Variable,170,8.0,29.0,,4800.0,Light Rain,22.0,7.0,29.76,,61,,,,,,,,,,,,,,,9500.0,2900.0,SCT,2900.0,BKN,9600.0,,,,
KRDR,05-26-2015,22:10,SPECI,Normal,20,16.0,29.0,,9999.0,Thunderstorm and Rain or Snow Showers,23.0,10.0,29.79,,92,,,,,,,,,,,,,,,9500.0,1500.0,FEW,1500.0,SCT,5000.0,OVC,9600.0,,
KRDR,05-26-2015,22:02,SPECI,Normal,310,13.0,26.0,,9999.0,Thunderstorm and Rain or Snow Showers,23.0,10.0,29.77,,92,,,,,,,,,,,,,,,9500.0,9500.0,BKN,9600.0,,,,,,
KRDR,05-26-2015,21:58,METAR,Normal,300,15.0,26.0,280/26KTS,9999.0,Light Drizzle,24.0,9.0,29.75,1007.8,51,,,,,,,,,,TRACE,,,,,9500.0,9500.0,BKN,9600.0,,,,,,
KRDR,05-26-2015,21:52,SPECI,Normal,310,15.0,23.0,,9999.0,Light Drizzle,25.0,7.0,29.75,,51,,,,,,,,,,,,,,,10000.0,10000.0,BKN,10000.0,,,,,,
KRDR,05-26-2015,20:58,METAR,Variable,,3.0,,,9999.0,,27.9,7.2,29.75,1007.6,,,,,,,,,,,,,,,Clear,72000.0,,,,,,,,,
KRDR,05-26-2015,19:58,METAR,Normal,20,10.0,15.0,,9999.0,,28.8,6.6,29.75,1007.6,,,,,,,,,,,,,,,Clear,72000.0,,,,,,,,,
KRDR,05-26-2015,18:58,METAR,Normal,20,6.0,,,9999.0,,27.7,7.7,29.76,1007.9,,,,,,,,,,,,,,,Clear,72000.0,,,,,,,,,
KRDR,05-26-2015,17:58,METAR,Variable,,2.0,,,9999.0,,26.2,10.4,29.78,1008.7,,,,,,,,,,,,,,,Clear,72000.0,,,,,,,,,
KRDR,05-26-2015,16:58,METAR,Calm,,0.0,,,9999.0,,25.8,10.4,29.79,1009.1,,,,,,,,,,,,,,,Clear,72000.0,,,,,,,,,
KRDR,05-26-2015,15:58,METAR,Variable,,5.0,,,9999.0,,23.8,10.8,29.79,1009.1,,,,,,,,,,,,,,,Clear,72000.0,,,,,,,,,
KRDR,05-26-2015,14:58,METAR,Normal,270,4.0,,,9999.0,,20.9,12.3,29.80,1009.5,,,,,,,,,,,,,,,Clear,72000.0,,,,,,,,,
KRDR,05-26-2015,13:58,METAR,Normal,220,6.0,,,9999.0,,18.7,12.0,29.81,1009.8,,,,,,,,,,,,,,,Clear,72000.0,,,,,,,,,
KRDR,05-26-2015,12:58,METAR,Normal,210,8.0,,,9999.0,,15.7,11.8,29.81,1009.9,,,,,,,,,,,,,,,Clear,72000.0,,,,,,,,,
KRDR,05-26-2015,11:58,METAR,Normal,190,8.0,,,9999.0,,13.0,11.1,29.82,1010.2,,,,,,,,,,,,,,,Clear,72000.0,,,,,,,,,
KRDR,05-26-2015,10:58,METAR,Normal,170,9.0,,,9999.0,,11.5,10.0,29.81,1009.9,,,,,,,,,,,,,,,Clear,72000.0,,,,,,,,,
KRDR,05-26-2015,09:58,METAR,Normal,210,7.0,,,9999.0,,12.5,10.5,29.79,1009.2,,,,,,,,,,,,,,,Clear,72000.0,,,,,,,,,
KRDR,05-26-2015,08:58,METAR,Normal,230,6.0,,,9999.0,,13.7,10.2,29.80,1009.5,,,,,,,,,,,,,,,Clear,72000.0,,,,,,,,,
KRDR,05-26-2015,07:58,METAR,Normal,220,10.0,,,9999.0,,14.6,9.7,29.82,1010.1,,,,,,,,,,,,,,,Clear,72000.0,,,,,,,,,
KRDR,05-26-2015,06:58,METAR,Normal,200,11.0,,,9999.0,,14.7,9.5,29.83,1010.5,,,,,,,,,,,,,,,Clear,72000.0,,,,,,,,,
KRDR,05-26-2015,05:58,METAR,Normal,200,8.0,,,9999.0,,13.9,8.6,29.83,1010.5,,,,,,,,,,,,,,,Clear,72000.0,,,,,,,,,
KRDR,05-26-2015,04:58,METAR,Normal,190,9.0,,,9999.0,,13.1,8.6,29.81,1010.0,,,,,,,,,,,,,,,Clear,72000.0,,,,,,,,,
KRDR,05-26-2015,03:58,METAR,Normal,200,7.0,,,9999.0,,13.6,8.9,29.80,1009.6,,,,,,,,,,,,,,,Clear,72000.0,,,,,,,,,
KRDR,05-26-2015,02:58,METAR,Normal,210,8.0,,,9999.0,,16.7,8.8,29.80,1009.5,,,,,,,,,,,,,,,Clear,72000.0,,,,,,,,,
KRDR,05-26-2015,01:58,METAR,Normal,220,9.0,,,9999.0,,19.3,9.5,29.79,1009.2,,,,,,,,,,,,,,,Clear,72000.0,,,,,,,,,
KRDR,05-26-2015,00:58,METAR,Normal,200,10.0,18.0,,9999.0,,20.6,12.4,29.78,1008.8,,,,,,,,,,,,,,,Clear,72000.0,,,,,,,,,
KRDR,05-25-2015,23:58,METAR,Normal,180,13.0,,,9999.0,,22.3,11.6,29.78,1008.8,,,,,,,,,,,,,,,Clear,72000.0,,,,,,,,,
KRDR,05-25-2015,22:58,METAR,Normal,190,10.0,,,9999.0,,23.4,9.9,29.77,1008.5,,,,,,,,,,,,,,,Clear,72000.0,,,,,,,,,
KRDR,05-25-2015,21:58,METAR,Normal,180,8.0,,,9999.0,,23.2,9.5,29.76,1008.2,,,,,,,,,,,,,,,Clear,72000.0,,,,,,,,,
KRDR,05-25-2015,20:58,METAR,Normal,130,9.0,,,9999.0,,24.1,8.9,29.75,1007.8,,,,,,,,,,,,,,,Clear,72000.0,,,,,,,,,
KRDR,05-25-2015,19:58,METAR,Variable,,1.0,,,9999.0,,23.4,9.1,29.76,1008.1,,,,,,,,,,,,,,,2/8 Mostly Clear,72000.0,10000.0,FEW,10000.0,,,,,,
KRDR,05-25-2015,18:58,METAR,Normal,30,4.0,,,9999.0,,22.2,10.6,29.76,1008.2,,,,,,,,,,,,,,,Clear,72000.0,,,,,,,,,
KRDR,05-25-2015,17:58,METAR,Normal,30,6.0,,,9999.0,,20.9,10.1,29.76,1008.2,,,,,,,,,,,,,,,2/8 Mostly Clear,72000.0,11000.0,FEW,11000.0,,,,,,
KRDR,05-25-2015,16:58,METAR,Normal,360,7.0,,,9999.0,,19.0,9.3,29.77,1008.6,,,,,,,,,,,,,,,Clear,72000.0,,,,,,,,,
KRDR,05-25-2015,15:58,METAR,Normal,340,9.0,,,9999.0,,18.1,9.0,29.77,1008.6,,,,,,,,,,,,,,,Clear,72000.0,,,,,,,,,
KRDR,05-25-2015,14:58,METAR,Normal,320,8.0,,,9999.0,,18.1,8.9,29.78,1008.8,,,,,,,,,,,,,,,Clear,72000.0,,,,,,,,,
KRDR,05-25-2015,13:58,METAR,Normal,280,6.0,,,9999.0,,17.2,11.1,29.79,1009.2,,,,,,,,,,,,,,,Clear,72000.0,,,,,,,,,
KRDR,05-25-2015,12:58,METAR,Normal,290,3.0,,,9999.0,,15.1,11.1,29.80,1009.5,,,,,,,,,,,,,,,4/8 Partly Cloudy,72000.0,9000.0,SCT,9100.0,,,,,,
KRDR,05-25-2015,11:58,METAR,Normal,300,5.0,,,9999.0,,12.9,10.6,29.80,1009.5,,,,,,,,,,,,,,,Clear,72000.0,,,,,,,,,
KRDR,05-25-2015,10:58,METAR,Normal,240,3.0,,,9999.0,,12.5,10.7,29.80,1009.5,,,,,,,,,,,,,,,Clear,72000.0,,,,,,,,,
KRDR,05-25-2015,09:58,METAR,Calm,,0.0,,,9999.0,,11.9,10.5,29.81,1009.9,,,,,,,,,,,,,,,,12000.0,8000.0,FEW,8000.0,BKN,12000.0,,,,
KRDR,05-25-2015,08:58,METAR,Calm,,0.0,,,9999.0,,12.3,10.6,29.82,1010.2,,,,,,,,,,,,,,,Clear,72000.0,,,,,,,,,
KRDR,05-25-2015,07:58,METAR,Normal,330,4.0,,,9999.0,,12.8,10.7,29.83,1010.5,,,,,,,,,,,,,,,,11000.0,11000.0,BKN,11000.0,,,,,,
KRDR,05-25-2015,06:58,METAR,Normal,320,2.0,,,9999.0,,12.1,10.5,29.84,1010.9,,,,,,,,,,,,,,,,12000.0,12000.0,BKN,12000.0,,,,,,
KRDR,05-25-2015,05:58,METAR,Normal,20,2.0,,,9999.0,,11.9,10.1,29.86,1011.6,,,,,,,,,,,,,,,Clear,72000.0,,,,,,,,,
KRDR,05-25-2015,04:58,METAR,Normal,360,1.0,,,9999.0,,13.5,10.9,29.87,1011.9,,,,,,,,,,,,,,,Clear,72000.0,,,,,,,,,
KRDR,05-25-2015,03:58,METAR,Normal,10,2.0,,,9999.0,,14.3,11.0,29.87,1011.9,,,,,,,,,,,,,,,Clear,72000.0,,,,,,,,,
KRDR,05-25-2015,02:58,METAR,Calm,,0.0,,,9999.0,,16.9,10.4,29.89,1012.6,,,,,,,,,,,,,,,Clear,72000.0,,,,,,,,,
KRDR,05-25-2015,01:58,METAR,Normal,190,3.0,,,9999.0,,19.3,11.0,29.90,1012.9,,,,,,,,,,,,,,,4/8 Partly Cloudy,72000.0,12000.0,SCT,12000.0,,,,,,
KRDR,05-25-2015,00:58,METAR,Normal,180,7.0,,,9999.0,,21.4,9.9,29.90,1012.9,,,,,,,,,,,,,,,,11000.0,11000.0,BKN,11000.0,,,,,,
KRDR,05-24-2015,23:58,METAR,Normal,120,6.0,,,9999.0,,22.9,9.8,29.90,1013.0,,,,,,,,,,,,,,,,6500.0,6500.0,BKN,6500.0,,,,,,
KRDR,05-24-2015,22:58,METAR,Normal,130,5.0,,,9999.0,,23.4,9.0,29.92,1013.8,,,,,,,,,,,,,,,4/8 Partly Cloudy,72000.0,7000.0,SCT,7000.0,,,,,,
KRDR,05-24-2015,21:58,METAR,Normal,90,6.0,,,9999.0,,23.7,9.2,29.93,1014.1,,,,,,,,,,,,,,,Clear,72000.0,,,,,,,,,
KRDR,05-24-2015,20:58,METAR,Variable,,4.0,,,9999.0,,23.9,9.1,29.95,1014.8,,,,,,,,,,,,,,,Clear,72000.0,,,,,,,,,
KRDR,05-24-2015,19:58,METAR,Normal,150,8.0,,,9999.0,,23.2,9.1,29.97,1015.4,,,,,,,,,,,,,,,Clear,72000.0,,,,,,,,,
KRDR,05-24-2015,18:58,METAR,Normal,140,8.0,,,9999.0,,23.2,9.0,29.98,1015.8,,,,,,,,,,,,,,,Clear,72000.0,,,,,,,,,
KRDR,05-24-2015,17:58,METAR,Normal,100,4.0,,,9999.0,,22.7,9.2,30.00,1016.3,,,,,,,,,,,,,,,Clear,72000.0,,,,,,,,,
KRDR,05-24-2015,16:58,METAR,Normal,120,8.0,,,9999.0,,21.8,9.1,30.02,1017.1,,,,,,,,,,,,,,,Clear,72000.0,,,,,,,,,
KRDR,05-24-2015,15:58,METAR,Normal,120,6.0,,,9999.0,,21.1,8.5,30.04,1017.7,,,,,,,,,,,,,,,Clear,72000.0,,,,,,,,,
KRDR,05-24-2015,14:58,METAR,Normal,110,3.0,,,9999.0,,18.7,10.5,30.06,1018.4,,,,,,,,,,,,,,,Clear,72000.0,,,,,,,,,
KRDR,05-24-2015,13:58,METAR,Normal,120,2.0,,,9999.0,,16.5,9.2,30.07,1018.8,,,,,,,,,,,,,,,Clear,72000.0,,,,,,,,,
KRDR,05-24-2015,12:58,METAR,Normal,180,3.0,,,9999.0,,13.9,9.0,30.08,1019.1,,,,,,,,,,,,,,,Clear,72000.0,,,,,,,,,
KRDR,05-24-2015,11:58,METAR,Normal,290,1.0,,,9999.0,,8.8,7.8,30.08,1019.2,,,,,,,,,,,,,,,Clear,72000.0,,,,,,,,,
KRDR,05-24-2015,10:58,METAR,Normal,260,3.0,,,9999.0,,6.5,5.4,30.08,1019.2,,,,,,,,,,,,,,,Clear,72000.0,,,,,,,,,
KRDR,05-24-2015,09:58,METAR,Normal,160,1.0,,,9999.0,,8.3,6.4,30.08,1019.1,,,,,,,,,,,,,,,Clear,72000.0,,,,,,,,,
KRDR,05-24-2015,08:58,METAR,Calm,,0.0,,,9999.0,,7.6,6.2,30.10,1019.9,,,,,,,,,,,,,,,Clear,72000.0,,,,,,,,,
KRDR,05-24-2015,07:58,METAR,Calm,,0.0,,,9999.0,,8.1,7.0,30.09,1019.5,,,,,,,,,,,,,,,Clear,72000.0,,,,,,,,,
KRDR,05-24-2015,06:58,METAR,Calm,,0.0,,,9999.0,,9.1,7.2,30.09,1019.5,,,,,,,,,,,,,,,Clear,72000.0,,,,,,,,,
KRDR,05-24-2015,05:58,METAR,Normal,240,3.0,,,9999.0,,11.9,7.7,30.10,1019.7,,,,,,,,,,,,,,,Clear,72000.0,,,,,,,,,
KRDR,05-24-2015,04:58,METAR,Normal,230,3.0,,,9999.0,,12.7,7.1,30.10,1019.7,,,,,,,,,,,,,,,Clear,72000.0,,,,,,,,,
KRDR,05-24-2015,03:58,METAR,Normal,220,5.0,,,9999.0,,14.6,6.9,30.10,1019.7,,,,,,,,,,,,,,,Clear,72000.0,,,,,,,,,
KRDR,05-24-2015,02:58,METAR,Normal,210,8.0,,,9999.0,,16.6,7.4,30.10,1019.7,,,,,,,,,,,,,,,Clear,72000.0,,,,,,,,,
KRDR,05-24-2015,01:58,METAR,Normal,200,6.0,,,9999.0,,17.8,7.4,30.09,1019.4,,,,,,,,,,,,,,,Clear,72000.0,,,,,,,,,
KRDR,05-24-2015,00:58,METAR,Normal,200,7.0,,,9999.0,,21.4,6.7,30.08,1019.1,,,,,,,,,,,,,,,Clear,72000.0,,,,,,,,,
KRDR,05-23-2015,23:58,METAR,Normal,180,12.0,,,9999.0,,22.8,6.6,30.08,1019.2,,,,,,,,,,,,,,,Clear,72000.0,,,,,,,,,
KRDR,05-23-2015,22:58,METAR,Normal,210,10.0,,,9999.0,,24.0,5.5,30.09,1019.6,,,,,,,,,,,,,,,Clear,72000.0,,,,,,,,,
KRDR,05-23-2015,21:58,METAR,Normal,220,10.0,,,9999.0,,24.6,5.6,30.10,1019.9,,,,,,,,,,,,,,,2/8 Mostly Clear,72000.0,8500.0,FEW,8600.0,,,,,,
KRDR,05-23-2015,20:58,METAR,Variable,220,8.0,,,9999.0,,25.1,5.2,30.11,1020.1,,,,,,,,,,,,,,,,8500.0,8500.0,BKN,8600.0,,,,,,
KRDR,05-23-2015,19:58,METAR,Normal,260,7.0,,,9999.0,,24.9,5.5,30.11,1020.1,,,,,,,,,,,,,,,Clear,72000.0,,,,,,,,,
KRDR,05-23-2015,18:58,METAR,Normal,200,12.0,17.0,,9999.0,,25.0,6.2,30.11,1020.1,,,,,,,,,,,,,,,2/8 Mostly Clear,72000.0,8000.0,FEW,8000.0,,,,,,
KRDR,05-23-2015,17:58,METAR,Normal,260,5.0,,,9999.0,,24.4,6.6,30.12,1020.4,,,,,,,,,,,,,,,Clear,72000.0,,,,,,,,,
KRDR,05-23-2015,16:58,METAR,Normal,220,7.0,,,9999.0,,23.3,8.1,30.14,1021.1,,,,,,,,,,,,,,,Clear,72000.0,,,,,,,,,
KRDR,05-23-2015,15:58,METAR,Variable,,2.0,,,9999.0,,21.4,7.7,30.13,1020.8,,,,,,,,,,,,,,,Clear,72000.0,,,,,,,,,
KRDR,05-23-2015,14:58,METAR,Normal,240,5.0,,,9999.0,,19.8,7.8,30.14,1021.1,,,,,,,,,,,,,,,Clear,72000.0,,,,,,,,,
KRDR,05-23-2015,13:58,METAR,Normal,250,7.0,,,9999.0,,16.6,6.8,30.14,1021.1,,,,,,,,,,,,,,,Clear,72000.0,,,,,,,,,
KRDR,05-23-2015,12:58,METAR,Normal,210,4.0,,,9999.0,,12.9,7.2,30.14,1021.1,,,,,,,,,,,,,,,Clear,72000.0,,,,,,,,,
KRDR,05-23-2015,11:58,METAR,Calm,,0.0,,,9999.0,,7.5,5.1,30.14,1021.2,,,,,,,,,,,,,,,Clear,72000.0,,,,,,,,,
KRDR,05-23-2015,10:58,METAR,Normal,190,2.0,,,9999.0,,6.4,3.5,30.13,1020.9,,,,,,,,,,,,,,,Clear,72000.0,,,,,,,,,
KRDR,05-23-2015,09:58,METAR,Normal,170,2.0,,,9999.0,,7.0,4.1,30.13,1020.9,,,,,,,,,,,,,,,Clear,72000.0,,,,,,,,,
KRDR,05-23-2015,08:58,METAR,Normal,140,3.0,,,9999.0,,10.7,4.4,30.13,1020.8,,,,,,,,,,,,,,,Clear,72000.0,,,,,,,,,
KRDR,05-23-2015,07:58,METAR,Normal,240,4.0,,,9999.0,,9.2,4.6,30.13,1020.8,,,,,,,,,,,,,,,Clear,72000.0,,,,,,,,,
KRDR,05-23-2015,06:58,METAR,Normal,240,4.0,,,9999.0,,9.6,5.7,30.13,1020.8,,,,,,,,,,,,,,,Clear,72000.0,,,,,,,,,
KRDR,05-23-2015,05:58,METAR,Normal,240,3.0,,,9999.0,,11.3,5.9,30.12,1020.5,,,,,,,,,,,,,,,Clear,72000.0,,,,,,,,,
KRDR,05-23-2015,04:58,METAR,Normal,230,3.0,,,9999.0,,12.4,6.5,30.12,1020.5,,,,,,,,,,,,,,,Clear,72000.0,,,,,,,,,
KRDR,05-23-2015,03:58,METAR,Normal,210,7.0,,,9999.0,,13.9,5.3,30.12,1020.4,,,,,,,,,,,,,,,Clear,72000.0,,,,,,,,,
KRDR,05-23-2015,02:58,METAR,Normal,200,6.0,,,9999.0,,16.1,5.2,30.12,1020.4,,,,,,,,,,,,,,,Clear,72000.0,,,,,,,,,
KRDR,05-23-2015,01:58,METAR,Normal,180,6.0,,,9999.0,,17.7,6.2,30.11,1020.1,,,,,,,,,,,,,,,Clear,72000.0,,,,,,,,,
KRDR,05-23-2015,00:58,METAR,Normal,190,5.0,,,9999.0,,22.5,5.1,30.10,1019.8,,,,,,,,,,,,,,,Clear,72000.0,,,,,,,,,
KRDR,05-22-2015,23:58,METAR,Normal,200,6.0,,,9999.0,,24.3,2.6,30.11,1020.2,,,,,,,,,,,,,,,Clear,72000.0,,,,,,,,,
KRDR,05-22-2015,22:58,METAR,Normal,180,6.0,,,9999.0,,25.0,3.1,30.12,1020.6,,,,,,,,,,,,,,,Clear,72000.0,,,,,,,,,
KRDR,05-22-2015,21:58,METAR,Normal,220,4.0,,,9999.0,,25.4,3.8,30.13,1020.9,,,,,,,,,,,,,,,Clear,72000.0,,,,,,,,,
KRDR,05-22-2015,20:58,METAR,Normal,230,9.0,,,9999.0,,25.2,3.7,30.14,1021.3,,,,,,,,,,,,,,,Clear,72000.0,,,,,,,,,
KRDR,05-22-2015,19:58,METAR,Normal,230,6.0,14.0,,9999.0,,24.9,3.6,30.15,1021.6,,,,,,,,,,,,,,,Clear,72000.0,,,,,,,,,
KRDR,05-22-2015,18:58,METAR,Normal,240,7.0,14.0,,9999.0,,24.4,3.5,30.16,1022.0,,,,,,,,,,,,,,,Clear,72000.0,,,,,,,,,
KRDR,05-22-2015,17:58,METAR,Normal,220,9.0,,,9999.0,,23.1,2.8,30.17,1022.3,,,,,,,,,,,,,,,Clear,72000.0,,,,,,,,,
KRDR,05-22-2015,16:58,METAR,Normal,230,7.0,,,9999.0,,22.0,3.3,30.16,1022.0,,,,,,,,,,,,,,,Clear,72000.0,,,,,,,,,
KRDR,05-22-2015,15:58,METAR,Normal,230,6.0,,,9999.0,,20.6,4.1,30.17,1022.3,,,,,,,,,,,,,,,Clear,72000.0,,,,,,,,,
KRDR,05-22-2015,14:58,METAR,Normal,220,8.0,,,9999.0,,18.7,2.7,30.18,1022.7,,,,,,,,,,,,,,,Clear,72000.0,,,,,,,,,
KRDR,05-22-2015,13:58,METAR,Normal,210,6.0,,,9999.0,,16.7,3.0,30.18,1022.6,,,,,,,,,,,,,,,Clear,72000.0,,,,,,,,,
KRDR,05-22-2015,12:58,METAR,Normal,230,5.0,,,9999.0,,12.0,4.9,30.18,1022.7,,,,,,,,,,,,,,,Clear,72000.0,,,,,,,,,
KRDR,05-22-2015,11:58,METAR,Normal,230,3.0,,,9999.0,,7.8,4.7,30.17,1022.4,,,,,,,,,,,,,,,Clear,72000.0,,,,,,,,,
KRDR,05-22-2015,10:58,METAR,Normal,240,4.0,,,9999.0,,4.6,2.4,30.16,1022.1,,,,,,,,,,,,,,,Clear,72000.0,,,,,,,,,
KRDR,05-22-2015,09:58,METAR,Normal,230,3.0,,,9999.0,,5.3,2.8,30.15,1021.8,,,,,,,,,,,,,,,Clear,72000.0,,,,,,,,,
KRDR,05-22-2015,08:58,METAR,Normal,240,2.0,,,9999.0,,5.2,2.9,30.15,1021.8,,,,,,,,,,,,,,,Clear,72000.0,,,,,,,,,
KRDR,05-22-2015,07:58,METAR,Normal,260,3.0,,,9999.0,,4.4,3.3,30.14,1021.5,,,,,,,,,,,,,,,Clear,72000.0,,,,,,,,,
KRDR,05-22-2015,06:58,METAR,Normal,230,1.0,,,9999.0,,5.3,4.2,30.14,1021.5,,,,,,,,,,,,,,,Clear,72000.0,,,,,,,,,
KRDR,05-22-2015,05:58,METAR,Normal,260,3.0,,,9999.0,,5.8,4.7,30.13,1021.1,,,,,,,,,,,,,,,Clear,72000.0,,,,,,,,,
KRDR,05-22-2015,04:58,METAR,Normal,260,3.0,,,9999.0,,7.7,5.5,30.13,1021.1,,,,,,,,,,,,,,,Clear,72000.0,,,,,,,,,
KRDR,05-22-2015,03:58,METAR,Normal,250,3.0,,,9999.0,,8.4,5.1,30.13,,,,,,,,,,,,,,,,Clear,72000.0,,,,,,,,,
KRDR,05-22-2015,02:58,METAR,Calm,,0.0,,,9999.0,,10.4,5.1,30.12,1020.8,,,,,,,,,,,,,,,Clear,72000.0,,,,,,,,,
KRDR,05-22-2015,01:58,METAR,Normal,40,4.0,,,9999.0,,15.3,3.0,30.11,1020.4,,,,,,,,,,,,,,,Clear,72000.0,,,,,,,,,
KRDR,05-22-2015,00:58,METAR,Normal,30,6.0,,,9999.0,,18.4,1.7,30.11,1020.3,,,,,,,,,,,,,,,Clear,72000.0,,,,,,,,,
KRDR,05-21-2015,23:58,METAR,Normal,340,9.0,,,9999.0,,19.4,0.9,30.11,1020.4,,,,,,,,,,,,,,,Clear,72000.0,,,,,,,,,
KRDR,05-21-2015,22:58,METAR,Normal,20,8.0,,,9999.0,,19.8,1.2,30.12,1020.7,,,,,,,,,,,,,,,Clear,72000.0,,,,,,,,,
KRDR,05-21-2015,21:58,METAR,Normal,10,12.0,,,9999.0,,19.9,1.0,30.13,1021.1,,,,,,,,,,,,,,,Clear,72000.0,,,,,,,,,
KRDR,05-21-2015,20:58,METAR,Normal,10,10.0,,,9999.0,,19.8,1.3,30.14,1021.4,,,,,,,,,,,,,,,Clear,72000.0,,,,,,,,,
KRDR,05-21-2015,19:58,METAR,Variable,20,9.0,16.0,,9999.0,,19.2,0.9,30.15,1021.8,,,,,,,,,,,,,,,Clear,72000.0,,,,,,,,,
KRDR,05-21-2015,18:58,METAR,Normal,10,8.0,,,9999.0,,18.6,1.3,30.15,1021.8,,,,,,,,,,,,,,,Clear,72000.0,,,,,,,,,
KRDR,05-21-2015,17:58,METAR,Normal,340,6.0,,,9999.0,,17.4,2.2,30.16,1022.0,,,,,,,,,,,,,,,Clear,72000.0,,,,,,,,,
KRDR,05-21-2015,16:58,METAR,Variable,,3.0,,,9999.0,,16.9,2.6,30.16,1022.0,,,,,,,,,,,,,,,Clear,72000.0,,,,,,,,,
KRDR,05-21-2015,15:58,METAR,Normal,350,6.0,,,9999.0,,15.0,4.4,30.16,1022.0,,,,,,,,,,,,,,,Clear,72000.0,,,,,,,,,
KRDR,05-21-2015,14:58,METAR,Normal,340,7.0,,,9999.0,,13.3,3.1,30.15,1021.8,,,,,,,,,,,,,,,Clear,72000.0,,,,,,,,,
KRDR,05-21-2015,13:58,METAR,Normal,10,8.0,,,9999.0,,11.1,2.8,30.15,1021.7,,,,,,,,,,,,,,,Clear,72000.0,,,,,,,,,
KRDR,05-21-2015,12:58,METAR,Normal,360,10.0,,,9999.0,,9.1,2.0,30.15,1021.6,,,,,,,,,,,,,,,Clear,72000.0,,,,,,,,,
KRDR,05-21-2015,11:58,METAR,Normal,340,6.0,,,9999.0,,6.4,1.5,30.13,1021.0,,,,,,,,,,,,,,,Clear,72000.0,,,,,,,,,
KRDR,05-21-2015,10:58,METAR,Normal,330,7.0,,,9999.0,,5.3,1.0,30.11,1020.3,,,,,,,,,,,,,,,Clear,72000.0,,,,,,,,,
KRDR,05-21-2015,09:58,METAR,Normal,330,7.0,,,9999.0,,5.8,1.9,30.10,1020.0,,,,,,,,,,,,,,,Clear,72000.0,,,,,,,,,
KRDR,05-21-2015,08:58,METAR,Normal,350,8.0,,,9999.0,,7.0,2.3,30.09,1019.6,,,,,,,,,,,,,,,Clear,72000.0,,,,,,,,,
KRDR,05-21-2015,07:58,METAR,Normal,340,6.0,,,9999.0,,7.2,2.1,30.08,1019.2,,,,,,,,,,,,,,,Clear,72000.0,,,,,,,,,
KRDR,05-21-2015,06:58,METAR,Normal,350,7.0,,,9999.0,,7.8,2.8,30.08,1019.2,,,,,,,,,,,,,,,Clear,72000.0,,,,,,,,,
KRDR,05-21-2015,05:58,METAR,Normal,350,7.0,,,9999.0,,9.9,3.5,30.07,1018.9,,,,,,,,,,,,,,,Clear,72000.0,,,,,,,,,
KRDR,05-21-2015,04:58,METAR,Normal,350,7.0,,,9999.0,,10.2,4.4,30.07,1018.9,,,,,,,,,,,,,,,Clear,72000.0,,,,,,,,,
KRDR,05-21-2015,03:58,METAR,Normal,360,7.0,,,9999.0,,12.1,6.0,30.07,1018.9,,,,,,,,,,,,,,,4/8 Partly Cloudy,72000.0,11000.0,SCT,11000.0,,,,,,
KRDR,05-21-2015,02:58,METAR,Normal,20,6.0,,,9999.0,,12.9,4.5,30.05,1018.2,,,,,,,,,,,,,,,2/8 Mostly Clear,72000.0,11000.0,FEW,11000.0,,,,,,
KRDR,05-21-2015,01:58,METAR,Normal,40,7.0,,,9999.0,,16.0,6.0,30.04,1017.9,,,,,,,,,,,,,,,Clear,72000.0,,,,,,,,,
KRDR,05-21-2015,00:58,METAR,Normal,340,3.0,,,9999.0,,20.6,2.8,30.03,1017.5,,,,,,,,,,,,,,,2/8 Mostly Clear,72000.0,10000.0,FEW,10000.0,,,,,,
KRDR,05-20-2015,23:58,METAR,Normal,270,2.0,,,9999.0,,21.6,1.6,30.04,1017.9,,,,,,,,,,,,,,,,11000.0,11000.0,BKN,11000.0,,,,,,
KRDR,05-20-2015,22:58,METAR,Normal,250,6.0,,,9999.0,,22.5,0.1,30.06,1018.6,,,,,,,,,,,,,,,Clear,72000.0,,,,,,,,,
KRDR,05-20-2015,20:58,METAR,Normal,350,9.0,,,9999.0,,22.0,0.8,30.10,1020.0,,,,,,,,,,,,,,,Clear,72000.0,,,,,,,,,
KRDR,05-20-2015,19:58,METAR,Normal,250,6.0,,,9999.0,,21.3,0.9,30.12,1020.7,,,,,,,,,,,,,,,Clear,72000.0,,,,,,,,,
KRDR,05-20-2015,18:58,METAR,Variable,310,8.0,,,9999.0,,20.8,0.6,30.14,1021.4,,,,,,,,,,,,,,,Clear,72000.0,,,,,,,,,
KRDR,05-20-2015,17:58,METAR,Normal,330,7.0,,,9999.0,,19.9,0.0,30.15,1021.8,,,,,,,,,,,,,,,Clear,72000.0,,,,,,,,,
KRDR,05-20-2015,16:58,METAR,Normal,110,2.0,,,9999.0,,18.9,2.0,30.17,1022.4,,,,,,,,,,,,,,,Clear,72000.0,,,,,,,,,
KRDR,05-20-2015,15:58,METAR,Normal,320,6.0,,,9999.0,,17.0,2.0,30.18,1023.2,,,,,,,,,,,,,,,Clear,72000.0,,,,,,,,,
KRDR,05-20-2015,14:58,METAR,Normal,340,7.0,,,9999.0,,15.7,1.7,30.19,1023.2,,,,,,,,,,,,,,,Clear,72000.0,,,,,,,,,
KRDR,05-20-2015,13:58,METAR,Normal,330,9.0,,,9999.0,,13.7,1.5,30.20,1023.5,,,,,,,,,,,,,,,Clear,72000.0,,,,,,,,,
KRDR,05-20-2015,12:58,METAR,Normal,320,9.0,,,9999.0,,10.8,0.7,30.20,1023.5,,,,,,,,,,,,,,,Clear,72000.0,,,,,,,,,
KRDR,05-20-2015,11:58,METAR,Normal,320,7.0,,,9999.0,,8.1,0.1,30.20,1023.6,,,,,,,,,,,,,,,Clear,72000.0,,,,,,,,,
KRDR,05-20-2015,10:58,METAR,Normal,330,7.0,,,9999.0,,5.7,-0.4,30.20,1023.6,,,,,,,,,,,,,,,Clear,72000.0,,,,,,,,,
KRDR,05-20-2015,09:58,METAR,Normal,310,6.0,,,9999.0,,6.7,-0.4,30.20,1023.6,,,,,,,,,,,,,,,Clear,72000.0,,,,,,,,,
KRDR,05-20-2015,08:58,METAR,Normal,300,8.0,,,9999.0,,5.9,-0.3,30.21,1024.0,,,,,,,,,,,,,,,Clear,72000.0,,,,,,,,,
KRDR,05-20-2015,07:58,METAR,Normal,280,8.0,,,9999.0,,5.4,0.0,30.23,1024.7,,,,,,,,,,,,,,,Clear,72000.0,,,,,,,,,
KRDR,05-20-2015,06:58,METAR,Normal,260,7.0,,,9999.0,,4.5,0.5,30.24,1025.2,,,,,,,,,,,,,,,Clear,72000.0,,,,,,,,,
KRDR,05-20-2015,05:58,METAR,Normal,250,6.0,,,9999.0,,5.8,1.1,30.25,1025.4,,,,,,,,,,,,,,,Clear,72000.0,,,,,,,,,
KRDR,05-20-2015,04:58,METAR,Normal,230,7.0,,,9999.0,,7.0,1.0,30.25,1025.4,,,,,,,,,,,,,,,Clear,72000.0,,,,,,,,,
KRDR,05-20-2015,03:58,METAR,Normal,240,8.0,,,9999.0,,7.6,2.4,30.26,1025.8,,,,,,,,,,,,,,,Clear,72000.0,,,,,,,,,
KRDR,05-20-2015,02:58,METAR,Normal,220,6.0,,,9999.0,,7.7,2.7,30.26,1025.8,,,,,,,,,,,,,,,Clear,72000.0,,,,,,,,,
KRDR,05-20-2015,01:58,METAR,Normal,170,2.0,,,9999.0,,11.5,2.2,30.25,1025.5,,,,,,,,,,,,,,,Clear,72000.0,,,,,,,,,
KRDR,05-20-2015,00:58,METAR,Normal,30,2.0,,,9999.0,,14.2,-0.8,30.25,1025.4,,,,,,,,,,,,,,,Clear,72000.0,,,,,,,,,
KRDR,05-19-2015,23:58,METAR,Normal,360,7.0,,,9999.0,,14.5,-0.1,30.27,1026.2,,,,,,,,,,,,,,,Clear,72000.0,,,,,,,,,
KRDR,05-19-2015,22:58,METAR,Normal,360,8.0,,,9999.0,,14.4,-1.2,30.29,1027.0,,,,,,,,,,,,,,,Clear,72000.0,,,,,,,,,
KRDR,05-19-2015,21:58,METAR,Variable,350,9.0,15.0,,9999.0,,13.8,-2.1,30.30,1027.4,,,,,,,,,,,,,,,Clear,72000.0,,,,,,,,,
KRDR,05-19-2015,19:58,METAR,Normal,360,6.0,,,9999.0,,12.4,-3.8,30.36,1029.5,,,,,,,,,,,,,,,Clear,72000.0,,,,,,,,,
KRDR,05-19-2015,18:58,METAR,Variable,,6.0,,,9999.0,,11.6,-4.6,30.39,1030.5,,,,,,,,,,,,,,,Clear,72000.0,,,,,,,,,
KRDR,05-19-2015,17:58,METAR,Normal,260,5.0,,,9999.0,,11.0,-3.9,30.42,1031.5,,,,,,,,,,,,,,,Clear,72000.0,,,,,,,,,
KRDR,05-19-2015,16:58,METAR,Variable,,4.0,,,9999.0,,9.5,-3.3,30.44,1032.2,,,,,,,,,,,,,,,Clear,72000.0,,,,,,,,,
KRDR,05-19-2015,15:58,METAR,Variable,340,7.0,,,9999.0,,8.3,-4.0,30.43,1031.9,,,,,,,,,,,,,,,Clear,72000.0,,,,,,,,,
KRDR,05-19-2015,14:58,METAR,Normal,350,7.0,,,9999.0,,7.4,-1.8,30.43,1031.9,,,,,,,,,,,,,,,Clear,72000.0,,,,,,,,,
KRDR,05-19-2015,13:58,METAR,Normal,360,7.0,,,9999.0,,5.0,-0.9,30.42,1031.5,,,,,,,,,,,,,,,Clear,72000.0,,,,,,,,,
KRDR,05-19-2015,12:58,METAR,Normal,340,3.0,,,9999.0,,2.9,-1.2,30.41,1031.2,,,,,,,,,,,,,,,Clear,72000.0,,,,,,,,,
KRDR,05-19-2015,11:58,METAR,Normal,320,4.0,,,9999.0,,0.2,-2.4,30.41,1031.3,,,,,,,,,,,,,,,Clear,72000.0,,,,,,,,,
KRDR,05-19-2015,10:58,METAR,Normal,330,4.0,,,9999.0,,-1.7,-3.8,30.41,1031.4,,,,,,,,,,,,,,,Clear,72000.0,,,,,,,,,
KRDR,05-19-2015,09:58,METAR,Normal,310,4.0,,,9999.0,,-1.8,-3.7,30.41,1031.5,,,,,,,,,,,,,,,Clear,72000.0,,,,,,,,,
KRDR,05-19-2015,08:58,METAR,Normal,320,5.0,,,9999.0,,-1.2,-3.3,30.42,1031.8,,,,,,,,,,,,,,,Clear,72000.0,,,,,,,,,
KRDR,05-19-2015,07:58,METAR,Normal,320,5.0,,,9999.0,,-1.8,-3.5,30.42,1031.8,,,,,,,,,,,,,,,Clear,72000.0,,,,,,,,,
KRDR,05-19-2015,06:58,METAR,Normal,290,3.0,,,9999.0,,-1.6,-2.8,30.43,1032.2,,,,,,,,,,,,,,,Clear,72000.0,,,,,,,,,
KRDR,05-19-2015,05:58,METAR,Normal,280,3.0,,,9999.0,,-1.4,-2.9,30.43,1032.2,,,,,,,,,,,,,,,Clear,72000.0,,,,,,,,,
KRDR,05-19-2015,04:58,METAR,Normal,300,7.0,,,9999.0,,-0.6,-1.9,30.41,1031.5,,,,,,,,,,,,,,,Clear,72000.0,,,,,,,,,
KRDR,05-19-2015,03:58,METAR,Normal,310,3.0,,,9999.0,,0.5,-0.7,30.41,1031.5,,,,,,,,,,,,,,,Clear,72000.0,,,,,,,,,
KRDR,05-19-2015,02:58,METAR,Normal,20,5.0,,,9999.0,,1.1,-0.8,30.39,1030.8,,,,,,,,,,,,,,,Clear,72000.0,,,,,,,,,
KRDR,05-19-2015,01:58,METAR,Normal,10,10.0,,,9999.0,,4.7,0.1,30.36,1029.6,,,,,,,,,,,,,,,,3100.0,3100.0,BKN,3100.0,BKN,6000.0,,,,
KRDR,05-19-2015,00:58,METAR,Normal,10,11.0,18.0,,9999.0,,6.0,1.0,30.35,,,,,,,,,,,,,,,,,3000.0,3000.0,OVC,3000.0,,,,,,
KRDR,05-18-2015,23:58,METAR,Normal,10,12.0,20.0,,9999.0,,5.0,0.0,30.35,,,,,,,,,,,,,,,,,2400.0,2400.0,OVC,2400.0,,,,,,
KRDR,05-18-2015,22:58,METAR,Normal,10,15.0,22.0,010/27KTS,9999.0,,4.7,0.1,30.34,1028.9,,,,,,,,,,,,,,,,2500.0,2500.0,OVC,2500.0,,,,,,
KRDR,05-18-2015,21:58,METAR,Normal,10,17.0,26.0,010/28KTS,9999.0,,3.9,-0.5,30.33,1028.7,,,,,,,,,,,,,,,,2200.0,2200.0,OVC,2200.0,,,,,,
KRDR,05-18-2015,20:58,METAR,Normal,20,21.0,27.0,360/29KTS,9999.0,,3.2,-0.6,30.31,1028.0,,,,,,,,,,,,,,,,2000.0,2000.0,OVC,2000.0,,,,,,
KRDR,05-18-2015,20:03,SPECI,Normal,10,20.0,28.0,,9999.0,,3.0,-1.0,30.30,,,,,,,,,,,,,,,,,2000.0,2000.0,OVC,2000.0,,,,,,
KRDR,05-18-2015,19:58,METAR,Normal,360,22.0,32.0,350/33KTS,9999.0,,2.3,-1.4,30.30,1027.7,,,,,,,,,,,,,,,,1800.0,1800.0,OVC,1800.0,,,,,,
KRDR,05-18-2015,18:58,METAR,Normal,360,15.0,27.0,360/33KTS,9999.0,,1.4,-1.5,30.28,1027.0,,,,,,,,,,,,,,,,1600.0,1600.0,OVC,1600.0,,,,,,
KRDR,05-18-2015,18:33,SPECI,Variable,360,21.0,29.0,,9999.0,,1.0,-2.0,30.27,,,,,,,,,,,,,,,,,1500.0,1500.0,OVC,1500.0,,,,,,
KRDR,05-18-2015,17:58,METAR,Normal,360,20.0,28.0,,9999.0,,0.7,-1.7,30.26,1026.4,,,,,,,,,,,,,TRACE,,,1400.0,1400.0,OVC,1400.0,,,,,,
KRDR,05-18-2015,16:58,METAR,Normal,10,18.0,30.0,,9999.0,,0.8,-1.6,30.24,1025.7,,,,,,,,,,,,,,,,1400.0,1400.0,OVC,1400.0,,,,,,
KRDR,05-18-2015,15:58,METAR,Normal,360,22.0,33.0,,9999.0,,0.4,-1.6,30.20,1024.2,,,,,,,,,,,TRACE,,,,,1200.0,1200.0,OVC,1200.0,,,,,,
KRDR,05-18-2015,15:44,SPECI,Normal,10,20.0,29.0,,9999.0,,0.0,-2.0,30.19,,,,,,,,,,,,,,,,,1200.0,1200.0,OVC,1200.0,,,,,,
KRDR,05-18-2015,15:34,SPECI,Variable,10,22.0,28.0,,9999.0,,0.0,-1.0,30.18,,,,,,,,,,,,,,,,,1000.0,1000.0,BKN,1000.0,OVC,1500.0,,,,
KRDR,05-18-2015,15:28,SPECI,Normal,10,21.0,30.0,,9999.0,Light Snow,0.0,-1.0,30.18,,71,,,,,,,,,,,,,,,900.0,1000.0,OVC,1000.0,,,,,,
KRDR,05-18-2015,15:23,SPECI,Normal,10,23.0,30.0,,9999.0,Light Snow,0.0,-1.0,30.17,,71,,,,,,,,,,,,,,,900.0,900.0,OVC,900.0,,,,,,
KRDR,05-18-2015,14:58,METAR,Normal,360,22.0,31.0,360/31KTS,9999.0,Light Snow/Mist,0.0,-1.0,30.16,1022.9,71,10,,,,,,,,,TRACE,TRACE,,,,1000.0,1000.0,OVC,1000.0,,,,,,
KRDR,05-18-2015,14:54,SPECI,Normal,360,23.0,31.0,,9999.0,Light Snow/Mist,0.0,-1.0,30.16,,71,10,,,,,,,,,,,,,,800.0,1000.0,BKN,1000.0,OVC,1400.0,,,,
KRDR,05-18-2015,14:34,SPECI,Normal,360,16.0,27.0,,8000.0,Light Snow/Mist,0.0,-1.0,30.15,,71,10,,,,,,,,,,,,,,800.0,800.0,BKN,800.0,OVC,1400.0,,,,
KRDR,05-18-2015,14:18,SPECI,Normal,10,18.0,23.0,,4000.0,Light Snow/Mist,0.0,-1.0,30.14,,71,10,,,,,,,,,,,,,,800.0,800.0,BKN,800.0,OVC,1400.0,,,,
KRDR,05-18-2015,14:13,SPECI,Normal,10,18.0,24.0,,4800.0,Light Snow/Mist,0.0,-1.0,30.14,,71,10,,,,,,,,,,,,,,800.0,800.0,SCT,800.0,OVC,1400.0,,,,
KRDR,05-18-2015,13:58,METAR,Normal,360,15.0,22.0,350/26KTS,8000.0,Light Snow/Mist,-0.1,-1.4,30.13,1021.8,71,10,,,,,,,,,TRACE,,,,,800.0,800.0,BKN,800.0,OVC,1300.0,,,,
KRDR,05-18-2015,13:33,SPECI,Normal,360,16.0,22.0,,6400.0,Light Snow/Mist,0.0,-2.0,30.12,,71,10,,,,,,,,,,,,,,800.0,800.0,BKN,800.0,OVC,1400.0,,,,
KRDR,05-18-2015,13:28,SPECI,Normal,10,17.0,22.0,,8000.0,Light Snow/Mist,0.0,-2.0,30.11,,71,10,,,,,,,,,,,,,,800.0,1000.0,OVC,1000.0,,,,,,
KRDR,05-18-2015,13:23,SPECI,Normal,360,17.0,22.0,,9999.0,Light Snow,0.0,-2.0,30.11,,71,,,,,,,,,,,,,,,800.0,1000.0,OVC,1000.0,,,,,,
KRDR,05-18-2015,12:58,METAR,Normal,10,19.0,24.0,,8000.0,Light Snow/Mist,-0.3,-1.6,30.09,1020.5,71,10,,,,,,,,,TRACE,,,,,900.0,900.0,OVC,900.0,,,,,,
KRDR,05-18-2015,12:38,SPECI,Normal,360,11.0,,,9999.0,Light Snow/Mist,0.0,-2.0,30.08,,71,10,,,,,,,,,,,,,,800.0,800.0,BKN,800.0,OVC,1300.0,,,,
KRDR,05-18-2015,12:33,SPECI,Normal,360,11.0,,,9999.0,Light Snow/Mist,0.0,-1.0,30.08,,71,10,,,,,,,,,,,,,,700.0,700.0,BKN,700.0,OVC,1300.0,,,,
KRDR,05-18-2015,12:28,SPECI,Normal,360,9.0,,,8000.0,Light Snow/Mist,0.0,-1.0,30.08,,71,10,,,,,,,,,,,,,,700.0,800.0,BKN,800.0,OVC,1200.0,,,,
KRDR,05-18-2015,12:23,SPECI,Normal,360,10.0,,,6400.0,Light Snow/Mist,0.0,-1.0,30.07,,71,10,,,,,,,,,,,,,,700.0,700.0,BKN,700.0,OVC,1200.0,,,,
KRDR,05-18-2015,12:18,SPECI,Normal,360,10.0,,,6400.0,Light Snow/Mist,0.0,-1.0,30.07,,71,10,,,,,,,,,,,,,,600.0,700.0,SCT,700.0,OVC,1200.0,,,,
KRDR,05-18-2015,12:13,SPECI,Normal,10,12.0,,,4000.0,Light Snow/Mist,0.0,-1.0,30.06,,71,10,,,,,,,,,,,,,,600.0,700.0,FEW,700.0,OVC,1200.0,,,,
KRDR,05-18-2015,12:08,SPECI,Normal,360,12.0,,,2800.0,Light Snow/Mist,0.0,-1.0,30.06,,71,10,,,,,,,,,,,,,,600.0,700.0,FEW,700.0,OVC,1200.0,,,,
KRDR,05-18-2015,12:03,SPECI,Normal,360,9.0,,,3200.0,Light Snow/Mist,0.0,-1.0,30.06,,71,10,,,,,,,,,,,,,,1300.0,700.0,SCT,700.0,OVC,1300.0,,,,
KRDR,05-18-2015,11:58,METAR,Normal,10,9.0,,,2800.0,Light Snow/Mist,-0.4,-1.4,30.05,1019.0,71,10,,,,,,,,,TRACE,,.08 IN,2.25 IN,,600.0,700.0,SCT,700.0,OVC,1300.0,,,,
KRDR,05-18-2015,11:52,SPECI,Variable,10,10.0,,,3200.0,Light Snow/Mist,0.0,-1.0,30.05,,71,10,,,,,,,,,,,,,,600.0,700.0,SCT,700.0,OVC,1300.0,,,,
KRDR,05-18-2015,11:47,SPECI,Normal,360,8.0,,,3200.0,Light Snow/Mist,0.0,-1.0,30.05,,71,10,,,,,,,,,,,,,,700.0,700.0,BKN,700.0,OVC,1400.0,,,,
KRDR,05-18-2015,11:42,SPECI,Normal,360,10.0,,,4000.0,Light Snow/Mist,0.0,-1.0,30.04,,71,10,,,,,,,,,,,,,,800.0,800.0,BKN,800.0,OVC,1500.0,,,,
KRDR,05-18-2015,11:32,SPECI,Variable,10,9.0,,,8000.0,Light Snow/Mist,0.0,-2.0,30.03,,71,10,,,,,,,,,,,,,,900.0,900.0,BKN,900.0,OVC,1500.0,,,,
KRDR,05-18-2015,11:25,SPECI,Normal,360,12.0,,,6400.0,Light Snow/Mist,0.0,-1.0,30.03,,71,10,,,,,,,,,,,,,,900.0,1000.0,BKN,1000.0,OVC,1400.0,,,,
KRDR,05-18-2015,11:20,SPECI,Normal,360,10.0,,,8000.0,Light Snow/Mist,0.0,-2.0,30.03,,71,10,,,,,,,,,,,,,,900.0,900.0,BKN,900.0,OVC,1300.0,,,,
KRDR,05-18-2015,11:12,SPECI,Normal,10,11.0,,,9999.0,Light Snow/Mist,0.0,-2.0,30.02,,71,10,,,,,,,,,,,,,,1000.0,1000.0,OVC,1000.0,,,,,,
KRDR,05-18-2015,11:03,SPECI,Normal,10,12.0,,,9999.0,Light Snow,0.0,-2.0,30.01,,71,,,,,,,,,,,,,,,800.0,1000.0,OVC,1000.0,,,,,,
KRDR,05-18-2015,10:58,METAR,Normal,10,10.0,,,9999.0,Light Snow/Mist,0.0,-2.0,30.01,1017.7,,,,71,10,,,,,,,,,,,900.0,900.0,OVC,900.0,,,,,,
KRDR,05-18-2015,10:03,SPECI,Normal,10,22.0,29.0,,9999.0,Light Snow,0.0,-1.0,29.96,,71,,,,,,,,,,,,,,,800.0,800.0,OVC,800.0,,,,,,
KRDR,05-18-2015,09:58,METAR,Normal,10,21.0,29.0,350/35KTS,9999.0,Light Snow/Mist,0.0,-1.0,29.95,1015.6,71,10,,,,,,,,,TRACE,,,,,800.0,800.0,OVC,800.0,,,,,,
KRDR,05-18-2015,09:46,SPECI,Normal,10,23.0,34.0,,9999.0,Light Freezing Rain,0.0,-1.0,29.95,,64,,,,,,,,,,,,,,,900.0,900.0,OVC,900.0,,,,,,
KRDR,05-18-2015,09:40,SPECI,Normal,360,20.0,34.0,,9999.0,Light Snow,0.0,-1.0,29.95,,71,,,,,,,,,,,,,,,900.0,900.0,OVC,900.0,,,,,,
KRDR,05-18-2015,09:34,SPECI,Normal,360,24.0,32.0,,9999.0,Light Rain,0.0,-1.0,29.94,,61,,,,,,,,,,,,,,,900.0,900.0,OVC,900.0,,,,,,
KRDR,05-18-2015,09:29,SPECI,Normal,10,22.0,34.0,,9999.0,Light Rain,0.0,-1.0,29.94,,61,,,,,,,,,,,,,,,900.0,900.0,OVC,900.0,,,,,,
KRDR,05-18-2015,08:58,METAR,Normal,360,27.0,37.0,,9999.0,Rain,0.0,-1.0,29.85,1012.2,,,,61,,,,,,,,,,,,1000.0,1000.0,OVC,1000.0,,,,,,
KRDR,05-18-2015,07:58,METAR,Normal,360,25.0,37.0,350/43KTS,9999.0,Light Rain,0.3,-1.1,29.86,1012.5,61,,,,,,,,,,.03 IN,,,,,1100.0,1100.0,OVC,1100.0,,,,,,
KRDR,05-18-2015,07:42,SPECI,Normal,10,24.0,35.0,,9999.0,Light Rain,0.0,-1.0,29.85,,61,,,,,,,,,,,,,,,900.0,1000.0,OVC,1000.0,,,,,,
KRDR,05-18-2015,07:39,SPECI,Normal,10,28.0,37.0,,9999.0,Freezing Rain/Mist,0.0,-1.0,29.85,,65,10,,,,,,,,,,,,,,900.0,1000.0,OVC,1000.0,,,,,,
KRDR,05-18-2015,07:34,SPECI,Normal,10,23.0,37.0,,9999.0,Freezing Rain/Mist,0.0,-1.0,29.84,,65,10,,,,,,,,,,,,,,900.0,900.0,OVC,900.0,,,,,,
KRDR,05-18-2015,07:33,SPECI,Normal,10,28.0,39.0,,8000.0,Unknown Precipitation/Mist,0.0,-1.0,29.84,,40,10,,,,,,,,,,,,,,900.0,900.0,OVC,900.0,,,,,,
KRDR,05-18-2015,07:23,SPECI,Normal,360,27.0,39.0,,9999.0,Unknown Precipitation/Mist,0.0,0.0,29.84,,40,10,,,,,,,,,,,,,,1000.0,1000.0,OVC,1000.0,,,,,,
KRDR,05-18-2015,07:13,SPECI,Normal,10,27.0,38.0,,9999.0,Unknown Precipitation,0.0,-1.0,29.83,,40,,,,,,,,,,,,,,,1000.0,1000.0,OVC,1000.0,,,,,,
KRDR,05-18-2015,07:08,SPECI,Normal,10,30.0,38.0,,9999.0,Unknown Precipitation,0.0,0.0,29.82,,40,,,,,,,,,,,,,,,1000.0,1000.0,OVC,1000.0,,,,,,
KRDR,05-18-2015,06:58,METAR,Normal,10,27.0,44.0,010/44KTS,9999.0,Unknown Precipitation,0.0,0.0,29.81,1010.8,40,,,,,,,,,,.05 IN,,,,,1100.0,1100.0,OVC,1100.0,,,,,,
KRDR,05-18-2015,06:48,SPECI,Normal,10,31.0,41.0,,9999.0,Unknown Precipitation/Mist,0.0,0.0,29.81,,40,10,,,,,,,,,,,,,,1100.0,1100.0,OVC,1100.0,,,,,,
KRDR,05-18-2015,06:33,SPECI,Normal,10,26.0,37.0,,9999.0,Unknown Precipitation,0.0,0.0,29.80,,40,,,,,,,,,,,,,,,1000.0,1000.0,OVC,1000.0,,,,,,
KRDR,05-18-2015,06:28,SPECI,Normal,10,26.0,39.0,,9999.0,Unknown Precipitation/Mist,0.0,0.0,29.79,,40,10,,,,,,,,,,,,,,1000.0,1000.0,OVC,1000.0,,,,,,
KRDR,05-18-2015,06:18,SPECI,Normal,10,27.0,40.0,,9999.0,Unknown Precipitation/Mist,0.0,0.0,29.79,,40,10,,,,,,,,,,,,,,900.0,900.0,OVC,900.0,,,,,,
KRDR,05-18-2015,06:08,SPECI,Normal,10,26.0,39.0,,9999.0,Unknown Precipitation/Mist,0.0,0.0,29.78,,40,10,,,,,,,,,,,,,,900.0,900.0,OVC,900.0,,,,,,
KRDR,05-18-2015,06:03,SPECI,Normal,10,32.0,39.0,,9999.0,Unknown Precipitation,0.0,0.0,29.77,,40,,,,,,,,,,,,,,,900.0,900.0,OVC,900.0,,,,,,
KRDR,05-18-2015,05:58,METAR,Normal,10,25.0,39.0,360/45KTS,9999.0,Unknown Precipitation,1.0,0.0,29.77,1009.4,40,,,,,,,,,,.05 IN,,.08 IN,,,1000.0,1000.0,OVC,1000.0,,,,,,
KRDR,05-18-2015,05:48,SPECI,Normal,10,29.0,39.0,,9999.0,Light Snow/Mist,1.0,0.0,29.76,,71,10,,,,,,,,,,,,,,1000.0,1000.0,OVC,1000.0,,,,,,
KRDR,05-18-2015,05:38,SPECI,Normal,10,25.0,37.0,,9999.0,Unknown Precipitation,1.0,0.0,29.76,,40,,,,,,,,,,,,,,,1000.0,1000.0,OVC,1000.0,,,,,,
KRDR,05-18-2015,05:33,SPECI,Normal,10,28.0,43.0,,9999.0,Unknown Precipitation,1.0,0.0,29.75,,40,,,,,,,,,,,,,,,1000.0,1000.0,OVC,1000.0,,,,,,
KRDR,05-18-2015,05:28,SPECI,Normal,10,26.0,43.0,,9999.0,Unknown Precipitation,1.0,0.0,29.75,,40,,,,,,,,,,,,,,,900.0,900.0,OVC,900.0,,,,,,
KRDR,05-18-2015,05:18,SPECI,Normal,20,30.0,39.0,,9999.0,Unknown Precipitation,1.0,0.0,29.74,,40,,,,,,,,,,,,,,,900.0,900.0,OVC,900.0,,,,,,
KRDR,05-18-2015,05:13,SPECI,Normal,10,29.0,39.0,,9999.0,Unknown Precipitation/Mist,1.0,0.0,29.73,,40,10,,,,,,,,,,,,,,900.0,900.0,OVC,900.0,,,,,,
KRDR,05-18-2015,05:03,SPECI,Normal,10,29.0,41.0,,6400.0,Unknown Precipitation/Mist,2.0,0.0,29.72,,40,10,,,,,,,,,,,,,,800.0,800.0,OVC,800.0,,,,,,
KRDR,05-18-2015,04:58,METAR,Normal,10,28.0,43.0,340/47KTS,9999.0,Unknown Precipitation,1.6,0.3,29.72,1007.6,40,,,,,,,,,,.03 IN,,,,,800.0,800.0,OVC,800.0,,,,,,
KRDR,05-18-2015,04:53,SPECI,Normal,10,28.0,43.0,,9999.0,Unknown Precipitation,2.0,0.0,29.72,,40,,,,,,,,,,,,,,,800.0,800.0,OVC,800.0,,,,,,
KRDR,05-18-2015,04:48,SPECI,Normal,10,34.0,43.0,,9999.0,Light Snow,2.0,0.0,29.71,,71,,,,,,,,,,,,,,,800.0,800.0,OVC,800.0,,,,,,
KRDR,05-18-2015,04:38,SPECI,Normal,20,31.0,42.0,,9999.0,Light Snow,2.0,0.0,29.70,,71,,,,,,,,,,,,,,,800.0,800.0,OVC,800.0,,,,,,
KRDR,05-18-2015,04:28,SPECI,Normal,10,29.0,40.0,,9999.0,Light Snow,2.0,0.0,29.70,,71,,,,,,,,,,,,,,,700.0,700.0,OVC,700.0,,,,,,
KRDR,05-18-2015,04:08,SPECI,Normal,10,28.0,40.0,,9999.0,Light Rain,2.0,1.0,29.69,,61,,,,,,,,,,,,,,,600.0,600.0,OVC,600.0,,,,,,
KRDR,05-18-2015,04:03,SPECI,Normal,20,28.0,37.0,,9999.0,Light Rain,2.0,2.0,29.69,,61,,,,,,,,,,,,,,,600.0,600.0,OVC,600.0,,,,,,
KRDR,05-18-2015,03:58,METAR,Normal,10,26.0,36.0,360/43KTS,9999.0,Light Rain/Mist,2.8,1.9,29.68,1006.2,61,10,,,,,,,,,TRACE,,,,,500.0,500.0,OVC,500.0,,,,,,
KRDR,05-18-2015,03:53,SPECI,Normal,20,28.0,36.0,,8000.0,Unknown Precipitation/Mist,3.0,2.0,29.68,,40,10,,,,,,,,,,,,,,500.0,500.0,OVC,500.0,,,,,,
KRDR,05-18-2015,03:28,SPECI,Normal,10,30.0,36.0,,6400.0,Unknown Precipitation/Mist,3.0,3.0,29.66,,40,10,,,,,,,,,,,,,,500.0,500.0,OVC,500.0,,,,,,
KRDR,05-18-2015,03:23,SPECI,Normal,10,25.0,34.0,,6400.0,Light Rain/Mist,4.0,3.0,29.66,,61,10,,,,,,,,,,,,,,600.0,600.0,OVC,600.0,,,,,,
KRDR,05-18-2015,03:18,SPECI,Normal,10,23.0,38.0,,9999.0,Light Rain/Mist,4.0,3.0,29.66,,61,10,,,,,,,,,,,,,,600.0,600.0,OVC,600.0,,,,,,
KRDR,05-18-2015,03:13,SPECI,Normal,10,24.0,38.0,,9999.0,Light Rain,4.0,3.0,29.65,,61,,,,,,,,,,,,,,,600.0,600.0,OVC,600.0,,,,,,
KRDR,05-18-2015,03:03,SPECI,Normal,20,26.0,41.0,,9999.0,Light Rain/Mist,4.0,3.0,29.64,,61,10,,,,,,,,,,,,,,600.0,600.0,OVC,600.0,,,,,,
KRDR,05-18-2015,02:58,METAR,Normal,10,28.0,41.0,020/42KTS,9999.0,Light Rain,4.1,3.2,29.63,1004.4,61,,,,,,,,,,TRACE,TRACE,,,,600.0,600.0,OVC,600.0,,,,,,
KRDR,05-18-2015,02:53,SPECI,Normal,20,29.0,39.0,,9999.0,Light Rain,4.0,3.0,29.63,,61,,,,,,,,,,,,,,,600.0,600.0,OVC,600.0,,,,,,
KRDR,05-18-2015,02:38,SPECI,Normal,20,26.0,42.0,,9999.0,Light Rain,4.0,3.0,29.61,,61,,,,,,,,,,,,,,,600.0,600.0,OVC,600.0,,,,,,
KRDR,05-18-2015,02:28,SPECI,Normal,20,30.0,37.0,,9999.0,Light Drizzle,4.0,3.0,29.60,,51,,,,,,,,,,,,,,,600.0,600.0,OVC,600.0,,,,,,
KRDR,05-18-2015,02:18,SPECI,Normal,20,29.0,39.0,,9999.0,Light Rain,4.0,3.0,29.60,,61,,,,,,,,,,,,,,,600.0,600.0,OVC,600.0,,,,,,
KRDR,05-18-2015,02:13,SPECI,Normal,20,27.0,39.0,,9999.0,Light Rain,4.0,3.0,29.60,,61,,,,,,,,,,,,,,,500.0,500.0,OVC,500.0,,,,,,
KRDR,05-18-2015,02:08,SPECI,Normal,20,27.0,34.0,,9999.0,Light Rain/Mist,4.0,3.0,29.60,,61,10,,,,,,,,,,,,,,500.0,500.0,OVC,500.0,,,,,,
KRDR,05-18-2015,01:58,METAR,Normal,20,27.0,39.0,,8000.0,Light Rain/Mist,4.2,3.4,29.60,1003.3,61,10,,,,,,,,,TRACE,,,,,500.0,500.0,OVC,500.0,,,,,,
KRDR,05-18-2015,01:23,SPECI,Normal,20,28.0,36.0,,4800.0,Light Rain/Mist,5.0,4.0,29.58,,61,10,,,,,,,,,,,,,,500.0,500.0,OVC,500.0,,,,,,
KRDR,05-18-2015,00:58,METAR,Normal,10,27.0,39.0,010/39KTS,3200.0,Unknown Precipitation/Mist,4.5,3.8,29.56,1001.9,40,10,,,,,,,,,TRACE,,,,,500.0,500.0,OVC,500.0,,,,,,
KRDR,05-18-2015,00:23,SPECI,Normal,10,29.0,37.0,,4000.0,Light Rain/Mist,5.0,4.0,29.54,,61,10,,,,,,,,,,,,,,500.0,500.0,OVC,500.0,,,,,,
KRDR,05-17-2015,23:58,METAR,Normal,10,26.0,34.0,350/40KTS,4800.0,Light Rain/Mist,4.8,3.9,29.53,1000.8,61,10,,,,,,,,,TRACE,,.49 IN,,,500.0,500.0,OVC,500.0,,,,,,
KRDR,05-17-2015,23:25,SPECI,Variable,360,27.0,38.0,,8000.0,Light Rain/Squalls/Mist,5.0,4.0,29.51,,61,10,18,,,,,,,,,,,,,500.0,500.0,OVC,500.0,,,,,,
KRDR,05-17-2015,23:21,SPECI,Normal,10,23.0,36.0,,6400.0,Light Rain/Mist,5.0,4.0,29.52,,61,10,,,,,,,,,,,,,,500.0,500.0,OVC,500.0,,,,,,
KRDR,05-17-2015,23:06,SPECI,Normal,10,25.0,35.0,,8000.0,Light Rain/Mist,5.0,4.0,29.50,,61,10,,,,,,,,,,,,,,600.0,600.0,OVC,600.0,,,,,,
KRDR,05-17-2015,23:01,SPECI,Normal,10,26.0,36.0,,9999.0,Light Drizzle,5.0,4.0,29.51,,51,,,,,,,,,,,,,,,700.0,700.0,OVC,700.0,,,,,,
KRDR,05-17-2015,22:58,METAR,Normal,10,26.0,36.0,,9999.0,,5.5,4.3,29.51,1000.1,,,,,,,,,,,TRACE,,,,,700.0,700.0,OVC,700.0,,,,,,
KRDR,05-17-2015,22:25,SPECI,Variable,10,29.0,42.0,,9999.0,Squalls,6.0,4.0,29.49,,18,,,,,,,,,,,,,,,700.0,700.0,OVC,700.0,,,,,,
KRDR,05-17-2015,22:16,SPECI,Normal,10,28.0,42.0,,9999.0,Squalls,6.0,5.0,29.49,,18,,,,,,,,,,,,,,,700.0,700.0,OVC,700.0,,,,,,
KRDR,05-17-2015,22:08,SPECI,Variable,10,28.0,38.0,,9999.0,,6.0,5.0,29.48,,,,,,,,,,,,,,,,,700.0,700.0,OVC,700.0,,,,,,
KRDR,05-17-2015,22:05,SPECI,Normal,10,30.0,38.0,,9999.0,Light Rain/Squalls,6.0,5.0,29.48,,61,18,,,,,,,,,,,,,,700.0,700.0,OVC,700.0,,,,,,
KRDR,05-17-2015,22:03,SPECI,Normal,10,26.0,36.0,,9999.0,Light Rain,6.0,5.0,29.48,,61,,,,,,,,,,,,,,,700.0,700.0,OVC,700.0,,,,,,
KRDR,05-17-2015,21:58,METAR,Normal,10,25.0,41.0,340/44KTS,9999.0,Light Rain,6.2,5.0,29.48,999.0,61,,,,,,,,,,TRACE,,,,,800.0,800.0,OVC,800.0,,,,,,
KRDR,05-17-2015,21:50,SPECI,Normal,10,30.0,44.0,,9999.0,Light Rain/Squalls,6.0,5.0,29.49,,61,18,,,,,,,,,,,,,,800.0,800.0,OVC,800.0,,,,,,
KRDR,05-17-2015,21:44,SPECI,Normal,10,30.0,44.0,,9999.0,Light Rain,6.0,5.0,29.48,,61,,,,,,,,,,,,,,,800.0,800.0,OVC,800.0,,,,,,
KRDR,05-17-2015,21:36,SPECI,Variable,10,29.0,39.0,,9999.0,Squalls,6.0,5.0,29.49,,18,,,,,,,,,,,,,,,800.0,800.0,OVC,800.0,,,,,,
KRDR,05-17-2015,21:27,SPECI,Normal,10,31.0,39.0,,9999.0,,6.0,5.0,29.49,,,,,,,,,,,,,,,,,800.0,800.0,OVC,800.0,,,,,,
KRDR,05-17-2015,21:22,SPECI,Normal,10,26.0,38.0,,9999.0,,6.0,5.0,29.49,,,,,,,,,,,,,,,,,700.0,700.0,OVC,700.0,,,,,,
KRDR,05-17-2015,20:58,METAR,Normal,10,28.0,39.0,,9999.0,Unknown Precipitation/Mist,6.0,5.1,29.48,999.1,40,10,,,,,,,,,.08 IN,.49 IN,,,,700.0,700.0,OVC,700.0,,,,,,
KRDR,05-17-2015,20:28,SPECI,Variable,10,26.0,34.0,,4800.0,Unknown Precipitation/Mist,6.0,5.0,29.48,,40,10,,,,,,,,,,,,,,700.0,700.0,OVC,700.0,,,,,,
KRDR,05-17-2015,20:18,SPECI,Normal,10,25.0,34.0,,4000.0,Unknown Precipitation/Mist,6.0,5.0,29.48,,40,10,,,,,,,,,,,,,,600.0,600.0,OVC,600.0,,,,,,
KRDR,05-17-2015,19:58,METAR,Normal,10,27.0,34.0,350/39KTS,8000.0,Unknown Precipitation/Mist,6.5,5.6,29.47,998.8,40,10,,,,,,,,,.13 IN,,,,,600.0,600.0,OVC,600.0,,,,,,
KRDR,05-17-2015,19:47,SPECI,Normal,10,26.0,35.0,,6400.0,Unknown Precipitation/Mist,7.0,6.0,29.47,,40,10,,,,,,,,,,,,,,600.0,600.0,OVC,600.0,,,,,,
KRDR,05-17-2015,19:37,SPECI,Normal,10,28.0,36.0,,4800.0,Unknown Precipitation/Mist,7.0,6.0,29.46,,40,10,,,,,,,,,,,,,,700.0,700.0,OVC,700.0,,,,,,
KRDR,05-17-2015,19:32,SPECI,Normal,10,23.0,36.0,,2800.0,Unknown Precipitation/Mist,7.0,6.0,29.47,,40,10,,,,,,,,,,,,,,600.0,600.0,OVC,600.0,,,,,,
KRDR,05-17-2015,19:27,SPECI,Normal,10,22.0,37.0,,3200.0,Unknown Precipitation/Mist,7.0,6.0,29.47,,40,10,,,,,,,,,,,,,,700.0,700.0,OVC,700.0,,,,,,
KRDR,05-17-2015,19:07,SPECI,Variable,10,23.0,35.0,,6400.0,Unknown Precipitation/Squalls/Mist,7.0,6.0,29.46,,40,10,18,,,,,,,,,,,,,700.0,700.0,OVC,700.0,,,,,,
KRDR,05-17-2015,18:58,METAR,Normal,360,23.0,36.0,350/36KTS,8000.0,Unknown Precipitation/Mist,6.8,6.0,29.46,998.4,40,10,,,,,,,,,.28 IN,,,,,700.0,700.0,OVC,700.0,,,,,,
KRDR,05-17-2015,18:43,SPECI,Normal,10,25.0,33.0,,4800.0,Unknown Precipitation/Mist,7.0,6.0,29.47,,40,10,,,,,,,,,,,,,,600.0,600.0,OVC,600.0,,,,,,
KRDR,05-17-2015,18:18,SPECI,Normal,10,24.0,35.0,,3200.0,Unknown Precipitation/Mist,7.0,6.0,29.48,,40,10,,,,,,,,,,,,,,600.0,600.0,BKN,600.0,OVC,1200.0,,,,
KRDR,05-17-2015,18:08,SPECI,Normal,10,26.0,33.0,,2400.0,Unknown Precipitation/Mist,7.0,6.0,29.48,,40,10,,,,,,,,,,,,,,600.0,600.0,BKN,600.0,OVC,1000.0,,,,
KRDR,05-17-2015,18:03,SPECI,Normal,10,26.0,33.0,,1600.0,Unknown Precipitation/Mist,7.0,6.0,29.48,,40,10,,,,,,,,,,,,,,600.0,600.0,BKN,600.0,OVC,1000.0,,,,
KRDR,05-17-2015,17:58,METAR,Normal,10,28.0,34.0,020/39KTS,2400.0,Unknown Precipitation/Mist,6.6,5.9,29.48,999.0,40,10,,,,,,,,,.24 IN,,1.6 IN,,,600.0,600.0,OVC,600.0,,,,,,
KRDR,05-17-2015,17:23,SPECI,Normal,10,22.0,30.0,,4800.0,Unknown Precipitation/Mist,7.0,6.0,29.50,,40,10,,,,,,,,,,,,,,600.0,600.0,OVC,600.0,,,,,,
KRDR,05-17-2015,17:18,SPECI,Normal,10,20.0,32.0,,4000.0,Unknown Precipitation/Mist,7.0,6.0,29.50,,40,10,,,,,,,,,,,,,,600.0,600.0,BKN,600.0,OVC,1000.0,,,,
KRDR,05-17-2015,17:13,SPECI,Normal,350,25.0,31.0,,4000.0,Unknown Precipitation/Mist,7.0,6.0,29.50,,40,10,,,,,,,,,,,,,,500.0,500.0,OVC,500.0,,,,,,
KRDR,05-17-2015,17:08,SPECI,Normal,350,24.0,34.0,,2400.0,Unknown Precipitation/Mist,7.0,6.0,29.51,,40,10,,,,,,,,,,,,,,500.0,500.0,OVC,500.0,,,,,,
KRDR,05-17-2015,17:03,SPECI,Normal,350,26.0,34.0,,2000.0,Unknown Precipitation/Mist,7.0,6.0,29.51,,40,10,,,,,,,,,,,,,,500.0,500.0,OVC,500.0,,,,,,
KRDR,05-17-2015,16:58,METAR,Normal,350,23.0,30.0,350/36KTS,3200.0,Unknown Precipitation/Mist,6.8,5.9,29.52,1000.3,40,10,,,,,,,,,.32 IN,,,,,500.0,500.0,OVC,500.0,,,,,,
KRDR,05-17-2015,16:53,SPECI,Normal,350,19.0,31.0,,4000.0,Unknown Precipitation/Mist,7.0,6.0,29.52,,40,10,,,,,,,,,,,,,,500.0,500.0,OVC,500.0,,,,,,
KRDR,05-17-2015,16:48,SPECI,Normal,350,24.0,31.0,,2800.0,Unknown Precipitation/Mist,7.0,6.0,29.52,,40,10,,,,,,,,,,,,,,500.0,500.0,OVC,500.0,,,,,,
KRDR,05-17-2015,16:43,SPECI,Normal,350,24.0,32.0,,2000.0,Unknown Precipitation/Mist,7.0,6.0,29.52,,40,10,,,,,,,,,,,,,,500.0,500.0,OVC,500.0,,,,,,
KRDR,05-17-2015,16:38,SPECI,Normal,350,25.0,36.0,,2400.0,Unknown Precipitation/Mist,7.0,6.0,29.52,,40,10,,,,,,,,,,,,,,500.0,500.0,OVC,500.0,,,,,,
KRDR,05-17-2015,16:33,SPECI,Normal,350,27.0,36.0,,3200.0,Unknown Precipitation/Mist,7.0,6.0,29.52,,40,10,,,,,,,,,,,,,,500.0,500.0,OVC,500.0,,,,,,
KRDR,05-17-2015,15:58,METAR,Normal,350,21.0,34.0,350/34KTS,9999.0,Rain,8.4,7.6,29.53,1000.6,62,,,,,,,,,,.22 IN,,,,,500.0,500.0,OVC,500.0,,,,,,
KRDR,05-17-2015,15:33,SPECI,Normal,350,20.0,30.0,,6400.0,Rain/Mist,9.0,8.0,29.54,,62,10,,,,,,,,,,,,,,500.0,500.0,OVC,500.0,,,,,,
KRDR,05-17-2015,15:28,SPECI,Normal,350,24.0,30.0,,2000.0,Heavy Rain/Mist,9.0,9.0,29.54,,63,10,,,,,,,,,,,,,,400.0,400.0,OVC,400.0,,,,,,
KRDR,05-17-2015,15:23,SPECI,Normal,350,23.0,30.0,,1600.0,Heavy Rain/Mist,10.0,9.0,29.55,,63,10,,,,,,,,,,,,,,400.0,400.0,OVC,400.0,,,,,,
KRDR,05-17-2015,15:18,SPECI,Normal,350,21.0,29.0,,3200.0,Heavy Rain/Mist,10.0,9.0,29.55,,63,10,,,,,,,,,,,,,,400.0,400.0,OVC,400.0,,,,,,
KRDR,05-17-2015,15:08,SPECI,Normal,350,20.0,31.0,,6400.0,Heavy Rain/Mist,11.0,10.0,29.56,,63,10,,,,,,,,,,,,,,500.0,500.0,OVC,500.0,,,,,,
KRDR,05-17-2015,14:58,METAR,Normal,350,23.0,29.0,010/29KTS,4000.0,Heavy Rain/Mist,12.1,11.5,29.56,1001.5,63,10,,,,,,,,,.46 IN,.82 IN,,,,400.0,400.0,OVC,400.0,,,,,,
KRDR,05-17-2015,14:48,SPECI,Normal,350,22.0,26.0,,9999.0,Rain,13.0,12.0,29.57,,62,,,,,,,,,,,,,,,400.0,400.0,OVC,400.0,,,,,,
KRDR,05-17-2015,14:38,SPECI,Normal,350,20.0,25.0,,6400.0,Heavy Rain/Mist,13.0,13.0,29.56,,63,10,,,,,,,,,,,,,,300.0,300.0,OVC,300.0,,,,,,
KRDR,05-17-2015,14:28,SPECI,Normal,350,17.0,21.0,,2400.0,Heavy Rain/Mist,13.0,13.0,29.57,,63,10,,,,,,,,,,,,,,300.0,300.0,OVC,300.0,,,,,,
KRDR,05-17-2015,14:13,SPECI,Normal,340,16.0,,,4000.0,Heavy Rain/Mist,14.0,14.0,29.57,,63,10,,,,,,,,,,,,,,200.0,200.0,OVC,200.0,,,,,,
KRDR,05-17-2015,14:08,SPECI,Normal,350,11.0,,,4800.0,Heavy Rain/Mist,14.0,14.0,29.58,,63,10,,,,,,,,,,,,,,300.0,300.0,OVC,300.0,,,,,,
KRDR,05-17-2015,14:03,SPECI,Normal,350,12.0,,,2000.0,Heavy Rain/Mist,14.0,14.0,29.58,,63,10,,,,,,,,,,,,,,300.0,300.0,OVC,300.0,,,,,,
KRDR,05-17-2015,13:58,METAR,Normal,350,10.0,,,1600.0,Heavy Rain/Mist,14.0,14.0,29.58,1002.1,63,10,,,,,,,,,.26 IN,,,,,300.0,300.0,OVC,300.0,,,,,,
KRDR,05-17-2015,13:53,SPECI,Normal,340,8.0,,,2800.0,Heavy Rain/Mist,14.0,14.0,29.58,,63,10,,,,,,,,,,,,,,300.0,300.0,OVC,300.0,,,,,,
KRDR,05-17-2015,13:08,SPECI,Normal,20,6.0,,,9999.0,Light Rain,14.0,14.0,29.59,,61,,,,,,,,,,,,,,,300.0,300.0,OVC,300.0,,,,,,
KRDR,05-17-2015,12:58,METAR,Normal,30,5.0,,,9999.0,Light Rain,14.2,13.8,29.60,1002.8,61,,,,,,,,,,.1 IN,,,,,400.0,400.0,OVC,400.0,,,,,,
KRDR,05-17-2015,12:38,SPECI,Normal,10,8.0,,,6400.0,Light Rain/Mist,14.0,14.0,29.61,,61,10,,,,,,,,,,,,,,300.0,300.0,OVC,300.0,,,,,,
KRDR,05-17-2015,12:33,SPECI,Normal,10,9.0,,,3200.0,Light Rain/Mist,14.0,14.0,29.61,,61,10,,,,,,,,,,,,,,400.0,400.0,OVC,400.0,,,,,,
KRDR,05-17-2015,12:23,SPECI,Normal,360,8.0,,,2800.0,Heavy Rain/Mist,14.0,14.0,29.61,,63,10,,,,,,,,,,,,,,400.0,400.0,OVC,400.0,,,,,,
KRDR,05-17-2015,12:08,SPECI,Normal,10,4.0,,,9999.0,Light Rain,14.0,14.0,29.62,,61,,,,,,,,,,,,,,,500.0,500.0,OVC,500.0,,,,,,
KRDR,05-17-2015,11:58,METAR,Normal,360,7.0,,,9999.0,Light Rain,14.4,13.8,29.61,1003.1,61,,,,,,,,,,.01 IN,,.01 IN,.02 IN,,600.0,600.0,OVC,600.0,,,,,,
KRDR,05-17-2015,11:49,SPECI,Normal,360,6.0,,,9999.0,Light Rain,14.0,14.0,29.62,,61,,,,,,,,,,,,,,,600.0,600.0,OVC,600.0,,,,,,
KRDR,05-17-2015,11:39,SPECI,Normal,360,5.0,,,9999.0,Light Rain,14.0,14.0,29.62,,61,,,,,,,,,,,,,,,700.0,700.0,OVC,700.0,,,,,,
KRDR,05-17-2015,11:34,SPECI,Normal,350,5.0,,,9999.0,Light Rain,14.0,14.0,29.62,,61,,,,,,,,,,,,,,,800.0,800.0,OVC,800.0,,,,,,
KRDR,05-17-2015,11:13,SPECI,Normal,20,5.0,,,9999.0,,15.0,14.0,29.61,,,,,,,,,,,,,,,,,900.0,900.0,OVC,900.0,,,,,,
KRDR,05-17-2015,10:58,METAR,Normal,80,5.0,,,9999.0,,14.6,13.8,29.61,1003.1,,,,,,,,,,,,,,,,1000.0,1000.0,OVC,1000.0,,,,,,
KRDR,05-17-2015,10:28,SPECI,Normal,80,5.0,,,9999.0,,15.0,14.0,29.62,,,,,,,,,,,,,,,,,1000.0,1000.0,OVC,1000.0,,,,,,
KRDR,05-17-2015,10:18,SPECI,Normal,90,5.0,,,9999.0,,15.0,14.0,29.63,,,,,,,,,,,,,,,,,900.0,900.0,OVC,900.0,,,,,,
KRDR,05-17-2015,10:13,SPECI,Normal,90,5.0,,,9999.0,,15.0,14.0,29.63,,,,,,,,,,,,,,,,,1000.0,1000.0,OVC,1000.0,,,,,,
KRDR,05-17-2015,09:58,METAR,Normal,100,6.0,,,9999.0,,14.6,13.8,29.64,1004.1,,,,,,,,,,,,,,,,900.0,900.0,OVC,900.0,,,,,,
KRDR,05-17-2015,09:23,SPECI,Normal,90,8.0,,,9999.0,,15.0,14.0,29.64,,,,,,,,,,,,,,,,,900.0,900.0,OVC,900.0,,,,,,
KRDR,05-17-2015,08:58,METAR,Normal,80,5.0,,,9999.0,,14.2,13.4,29.64,1004.1,,,,,,,,,,,,,,,,1100.0,1100.0,OVC,1100.0,,,,,,
KRDR,05-17-2015,08:39,SPECI,Normal,90,4.0,,,9999.0,,14.0,13.0,29.65,,,,,,,,,,,,,,,,,1100.0,1100.0,OVC,1100.0,,,,,,
KRDR,05-17-2015,08:03,SPECI,Normal,50,5.0,,,9999.0,,14.0,13.0,29.64,,,,,,,,,,,,,,,,,1300.0,1300.0,OVC,1300.0,,,,,,
KRDR,05-17-2015,07:58,METAR,Normal,30,5.0,,,9999.0,,13.7,13.3,29.64,1004.1,,,,,,,,,,,,,,,,1100.0,1100.0,OVC,1100.0,,,,,,
KRDR,05-17-2015,07:56,SPECI,Normal,30,4.0,,,9999.0,,14.0,13.0,29.64,,,,,,,,,,,,,,,,,1100.0,1100.0,OVC,1100.0,,,,,,
KRDR,05-17-2015,07:49,SPECI,Normal,20,3.0,,,9999.0,,14.0,13.0,29.64,,,,,,,,,,,,,,,,,1200.0,1200.0,OVC,1200.0,,,,,,
KRDR,05-17-2015,07:34,SPECI,Normal,40,4.0,,,9999.0,,14.0,13.0,29.65,,,,,,,,,,,,,,,,,1000.0,1000.0,BKN,1000.0,OVC,1500.0,,,,
KRDR,05-17-2015,07:24,SPECI,Normal,20,5.0,,,9999.0,,13.0,13.0,29.65,,,,,,,,,,,,,,,,,1000.0,1300.0,OVC,1300.0,,,,,,
KRDR,05-17-2015,07:19,SPECI,Normal,10,4.0,,,9999.0,,13.0,13.0,29.66,,,,,,,,,,,,,,,,,1000.0,1000.0,BKN,1000.0,OVC,1600.0,,,,
KRDR,05-17-2015,07:14,SPECI,Normal,360,5.0,,,9999.0,,13.0,12.0,29.66,,,,,,,,,,,,,,,,,1600.0,1000.0,SCT,1000.0,OVC,1600.0,,,,
KRDR,05-17-2015,07:13,SPECI,Normal,340,5.0,,,9999.0,,13.0,12.0,29.66,,,,,,,,,,,,,,,,,1400.0,1400.0,OVC,1400.0,,,,,,
KRDR,05-17-2015,07:08,SPECI,Normal,360,4.0,,,9999.0,,13.0,12.0,29.67,,,,,,,,,,,,,,,,,1500.0,1500.0,BKN,1500.0,,,,,,
KRDR,05-17-2015,07:03,SPECI,Normal,350,3.0,,,9999.0,,13.0,12.0,29.67,,,,,,,,,,,,,,,,,1400.0,1400.0,BKN,1400.0,,,,,,
KRDR,05-17-2015,06:58,METAR,Normal,320,4.0,,,9999.0,,12.9,12.3,29.67,1005.2,,,,,,,,,,,,,,,4/8 Partly Cloudy,72000.0,1400.0,SCT,1400.0,,,,,,
KRDR,05-17-2015,06:56,SPECI,Normal,320,4.0,,,9999.0,,13.0,12.0,29.67,,,,,,,,,,,,,,,,4/8 Partly Cloudy,72000.0,1400.0,SCT,1400.0,,,,,,
KRDR,05-17-2015,06:51,SPECI,Normal,310,5.0,,,9999.0,,13.0,12.0,29.67,,,,,,,,,,,,,,,,2/8 Mostly Clear,72000.0,1100.0,FEW,1100.0,,,,,,
KRDR,05-17-2015,05:58,METAR,Normal,90,5.0,,,9999.0,,14.8,13.5,29.68,1005.5,,,,,,,,,,,,,.01 IN,,,3900.0,1400.0,FEW,1400.0,BKN,3900.0,,,,
KRDR,05-17-2015,05:48,SPECI,Normal,70,3.0,,,9999.0,,15.0,14.0,29.69,,,,,,,,,,,,,,,,,4000.0,1400.0,SCT,1400.0,OVC,4000.0,,,,
KRDR,05-17-2015,05:33,SPECI,Normal,60,3.0,,,9999.0,,16.0,14.0,29.68,,,,,,,,,,,,,,,,,1400.0,1400.0,BKN,1400.0,OVC,4300.0,,,,
KRDR,05-17-2015,04:58,METAR,Normal,120,5.0,,,9999.0,,16.5,14.4,29.70,1006.1,,,,,,,,,,,,,,,,1800.0,1800.0,OVC,1800.0,,,,,,
KRDR,05-17-2015,04:38,SPECI,Normal,120,7.0,,,9999.0,,17.0,14.0,29.70,,,,,,,,,,,,,,,,,1900.0,1900.0,OVC,1900.0,,,,,,
KRDR,05-17-2015,03:58,METAR,Normal,130,6.0,,,9999.0,,17.1,14.4,29.71,1006.5,,,,,,,,,,,,,,,,2200.0,2200.0,OVC,2200.0,,,,,,
KRDR,05-17-2015,02:58,METAR,Normal,130,9.0,,,9999.0,,17.7,14.5,29.70,1006.2,,,,,,,,,,,,.01 IN,,,,4000.0,3100.0,SCT,3100.0,BKN,4000.0,OVC,10000.0,,
KRDR,05-17-2015,01:58,METAR,Normal,130,12.0,,,9999.0,,18.1,14.9,29.68,1005.6,,,,,,,,,,,,,,,,2300.0,2300.0,OVC,2300.0,,,,,,
KRDR,05-17-2015,00:58,METAR,Normal,120,9.0,,,9999.0,,18.2,15.1,29.71,1006.6,,,,,,,,,,,.01 IN,,,,,2600.0,2600.0,OVC,2600.0,,,,,,
KRDR,05-17-2015,00:20,SPECI,Normal,120,9.0,,,9999.0,,18.0,15.0,29.71,,,,,,,,,,,,,,,,,2700.0,1100.0,FEW,1100.0,OVC,2700.0,,,,
KRDR,05-17-2015,00:00,SPECI,Normal,120,12.0,,,9999.0,Light Rain,20.0,15.0,29.71,,61,,,,,,,,,,,,,,,2900.0,1100.0,FEW,1100.0,OVC,2900.0,,,,
KRDR,05-16-2015,23:59,SPECI,Normal,120,12.0,,,9999.0,,20.0,15.0,29.71,,,,,,,,,,,,,,,,,2900.0,1100.0,FEW,1100.0,OVC,2900.0,,,,
KRDR,05-16-2015,23:58,METAR,Normal,120,13.0,,,9999.0,,19.7,14.6,29.71,1006.7,,,,,,,,,,,TRACE,,TRACE,,,2900.0,1300.0,FEW,1300.0,SCT,2300.0,OVC,2900.0,,
KRDR,05-16-2015,23:01,SPECI,Normal,120,9.0,,,9999.0,,19.0,15.0,29.71,,,,,,,,,,,,,,,,,3200.0,3200.0,OVC,3200.0,,,,,,
KRDR,05-16-2015,22:58,METAR,Normal,130,9.0,,,9999.0,Light Drizzle,19.1,15.1,29.71,1006.8,51,,,,,,,,,,TRACE,,,,,3300.0,3300.0,OVC,3300.0,,,,,,
KRDR,05-16-2015,22:51,SPECI,Normal,130,10.0,,,9999.0,Light Rain,19.0,15.0,29.71,,61,,,,,,,,,,,,,,,3300.0,3300.0,OVC,3300.0,,,,,,
KRDR,05-16-2015,22:50,SPECI,Normal,130,11.0,,,9999.0,,19.0,15.0,29.71,,,,,,,,,,,,,,,,,3300.0,3300.0,OVC,3300.0,,,,,,
KRDR,05-16-2015,22:37,SPECI,Normal,120,10.0,,,9999.0,Light Rain,21.0,14.0,29.71,,61,,,,,,,,,,,,,,,3400.0,3400.0,OVC,3400.0,,,,,,
KRDR,05-16-2015,21:58,METAR,Normal,110,10.0,,,9999.0,,20.3,13.9,29.71,1006.8,,,,,,,,,,,,,,,,4100.0,3300.0,FEW,3300.0,BKN,4100.0,OVC,5500.0,,
KRDR,05-16-2015,20:58,METAR,Normal,120,9.0,,,9999.0,,20.0,13.9,29.74,1007.8,,,,,,,,,,,,,,,,3000.0,3000.0,OVC,3000.0,,,,,,
KRDR,05-16-2015,19:58,METAR,Normal,100,8.0,,,9999.0,,19.6,13.5,29.75,1008.1,,,,,,,,,,,,,,,,3200.0,3200.0,OVC,3200.0,,,,,,
KRDR,05-16-2015,18:58,METAR,Normal,100,12.0,,,9999.0,,20.0,12.1,29.77,1008.7,,,,,,,,,,,,,,,,6000.0,3400.0,FEW,3400.0,OVC,6000.0,,,,
KRDR,05-16-2015,17:58,METAR,Normal,120,13.0,,,9999.0,,18.9,11.6,29.81,1010.2,,,,,,,,,,,,,,,,3000.0,3100.0,SCT,3100.0,BKN,6000.0,,,,
KRDR,05-16-2015,17:25,SPECI,Normal,130,9.0,,,9999.0,,17.0,12.0,29.83,,,,,,,,,,,,,,,,,4000.0,600.0,FEW,600.0,OVC,4000.0,,,,
KRDR,05-16-2015,16:58,METAR,Normal,140,14.0,,,9999.0,,17.8,11.0,29.83,1010.8,,,,,,,,,,,,,,,,4000.0,4000.0,BKN,4000.0,OVC,4800.0,,,,
KRDR,05-16-2015,15:58,METAR,Normal,120,12.0,,,9999.0,,17.3,11.1,29.83,1010.8,,,,,,,,,,,,,,,,4000.0,4000.0,BKN,4000.0,OVC,4800.0,,,,
KRDR,05-16-2015,14:58,METAR,Normal,110,6.0,,,9999.0,,14.6,10.4,29.85,1011.5,,,,,,,,,,,,,,,,3800.0,3800.0,OVC,3800.0,,,,,,
KRDR,05-16-2015,13:58,METAR,Normal,120,4.0,,,9999.0,,13.1,9.9,29.86,1011.8,,,,,,,,,,,,,,,,3900.0,3900.0,OVC,3900.0,,,,,,
KRDR,05-16-2015,12:58,METAR,Normal,100,5.0,,,9999.0,,10.6,7.3,29.87,1012.2,,,,,,,,,,,,,,,,3900.0,3900.0,OVC,3900.0,,,,,,
KRDR,05-16-2015,11:58,METAR,Calm,,0.0,,,9999.0,,7.8,6.9,29.89,1012.9,,,,,,,,,,,,,,,,3700.0,3700.0,OVC,3700.0,,,,,,
KRDR,05-16-2015,10:58,METAR,Variable,,1.0,,,9999.0,,3.4,2.8,29.89,1013.0,,,,,,,,,,,,,,,,3900.0,3900.0,BKN,3900.0,,,,,,
KRDR,05-16-2015,10:38,SPECI,Normal,170,1.0,,,9999.0,,3.0,2.0,29.87,,,,,,,,,,,,,,,,4/8 Partly Cloudy,72000.0,3900.0,SCT,3900.0,,,,,,
KRDR,05-16-2015,10:13,SPECI,Normal,30,3.0,,,9999.0,,3.0,3.0,29.86,,,,,,,,,,,,,,,,4/8 Partly Cloudy,72000.0,4000.0,SCT,4000.0,,,,,,
KRDR,05-16-2015,10:03,SPECI,Calm,,0.0,,,9999.0,,4.0,3.0,29.88,,,,,,,,,,,,,,,,4/8 Partly Cloudy,72000.0,4000.0,SCT,4000.0,,,,,,
KRDR,05-16-2015,09:58,METAR,Calm,,0.0,,,9999.0,,3.3,2.7,29.88,1012.7,,,,,,,,,,,,,,,4/8 Partly Cloudy,72000.0,4000.0,SCT,4000.0,,,,,,
KRDR,05-16-2015,09:23,SPECI,Normal,30,2.0,,,9999.0,,4.0,3.0,29.89,,,,,,,,,,,,,,,,Clear,72000.0,,,,,,,,,
KRDR,05-16-2015,09:18,SPECI,Normal,30,2.0,,,9999.0,,4.0,3.0,29.89,,,,,,,,,,,,,,,,Clear,72000.0,,,,,,,,,
KRDR,05-16-2015,09:03,SPECI,Normal,50,2.0,,,9999.0,,4.0,3.0,29.89,,,,,,,,,,,,,,,,Clear,72000.0,,,,,,,,,
KRDR,05-16-2015,08:58,METAR,Normal,40,3.0,,,9999.0,,3.8,2.9,29.89,1013.0,,,,,,,,,,,,,,,Clear,72000.0,,,,,,,,,
KRDR,05-16-2015,07:58,METAR,Calm,,0.0,,,9999.0,,5.3,4.4,29.91,1013.7,,,,,,,,,,,,,,,Clear,72000.0,,,,,,,,,
KRDR,05-16-2015,06:58,METAR,Normal,190,5.0,,,9999.0,,7.6,4.8,29.94,1014.6,,,,,,,,,,,,,,,Clear,72000.0,,,,,,,,,
KRDR,05-16-2015,05:58,METAR,Normal,200,2.0,,,9999.0,,6.9,5.2,29.95,1015.0,,,,,,,,,,,,,,,Clear,72000.0,,,,,,,,,
KRDR,05-16-2015,04:58,METAR,Normal,90,2.0,,,9999.0,,10.7,5.5,29.96,1015.3,,,,,,,,,,,,,,,Clear,72000.0,,,,,,,,,
KRDR,05-16-2015,03:58,METAR,Normal,90,5.0,,,9999.0,,11.5,4.9,29.95,1015.0,,,,,,,,,,,,,,,Clear,72000.0,,,,,,,,,
KRDR,05-16-2015,02:58,METAR,Normal,120,3.0,,,9999.0,,12.9,5.5,29.95,1015.0,,,,,,,,,,,,,,,Clear,72000.0,,,,,,,,,
KRDR,05-16-2015,01:58,METAR,Normal,110,3.0,,,9999.0,,14.0,5.0,29.92,1014.0,,,,,,,,,,,,,,,Clear,72000.0,,,,,,,,,
KRDR,05-16-2015,00:58,METAR,Normal,90,5.0,,,9999.0,,15.6,5.2,29.92,1014.0,,,,,,,,,,,,,,,Clear,72000.0,,,,,,,,,
KRDR,05-15-2015,23:58,METAR,Normal,30,4.0,,,9999.0,,17.0,4.6,29.93,1014.3,,,,,,,,,,,,,,,Clear,72000.0,,,,,,,,,
KRDR,05-15-2015,22:58,METAR,Normal,350,3.0,,,9999.0,,17.2,5.1,29.93,1014.3,,,,,,,,,,,,,,,Clear,72000.0,,,,,,,,,
KRDR,05-15-2015,21:58,METAR,Normal,340,4.0,,,9999.0,,17.3,4.4,29.95,1014.9,,,,,,,,,,,,,,,Clear,72000.0,,,,,,,,,
KRDR,05-15-2015,20:58,METAR,Variable,,2.0,,,9999.0,,17.1,4.4,29.96,1015.3,,,,,,,,,,,,,,,Clear,72000.0,,,,,,,,,
KRDR,05-15-2015,19:58,METAR,Normal,330,7.0,,,9999.0,,16.9,3.4,29.97,1015.6,,,,,,,,,,,,,,,Clear,72000.0,,,,,,,,,
KRDR,05-15-2015,18:58,METAR,Variable,,5.0,,,9999.0,,16.3,4.4,29.98,1016.0,,,,,,,,,,,,,,,Clear,72000.0,,,,,,,,,
KRDR,05-15-2015,17:58,METAR,Variable,,5.0,,,9999.0,,15.4,4.5,30.00,1016.7,,,,,,,,,,,,,,,Clear,72000.0,,,,,,,,,
KRDR,05-15-2015,16:58,METAR,Normal,20,7.0,,,9999.0,,14.4,4.5,30.02,1017.4,,,,,,,,,,,,,,,Clear,72000.0,,,,,,,,,
KRDR,05-15-2015,15:58,METAR,Variable,,4.0,,,9999.0,,13.2,4.6,30.03,1017.7,,,,,,,,,,,,,,,Clear,72000.0,,,,,,,,,
KRDR,05-15-2015,14:58,METAR,Normal,10,9.0,,,9999.0,,10.8,6.4,30.00,1016.8,,,,,,,,,,,,,,,,5000.0,5000.0,BKN,5000.0,,,,,,
KRDR,05-15-2015,14:03,SPECI,Normal,10,11.0,,,9999.0,,9.0,7.0,29.99,,,,,,,,,,,,,,,,,4900.0,1000.0,SCT,1000.0,OVC,4900.0,,,,
KRDR,05-15-2015,13:58,METAR,Normal,10,10.0,,,9999.0,,8.9,7.2,29.98,1016.2,,,,,,,,,,,,,,,,1000.0,1000.0,BKN,1000.0,OVC,4900.0,,,,
KRDR,05-15-2015,13:53,SPECI,Normal,20,11.0,,,9999.0,,9.0,7.0,29.98,,,,,,,,,,,,,,,,,1000.0,1000.0,BKN,1000.0,OVC,4900.0,,,,
KRDR,05-15-2015,13:03,SPECI,Normal,360,8.0,,,9999.0,,9.0,8.0,29.98,,,,,,,,,,,,,,,,,800.0,800.0,BKN,800.0,OVC,4100.0,,,,
KRDR,05-15-2015,12:58,METAR,Normal,360,8.0,,,9999.0,,8.5,7.6,29.98,1016.2,,,,,,,,,,,,,,,,4100.0,800.0,SCT,800.0,SCT,1400.0,OVC,4100.0,,
KRDR,05-15-2015,12:18,SPECI,Normal,340,5.0,,,9999.0,,8.0,7.0,29.98,,,,,,,,,,,,,,,,,1300.0,800.0,FEW,800.0,BKN,2000.0,OVC,4000.0,,
KRDR,05-15-2015,12:08,SPECI,Normal,340,5.0,,,9999.0,,8.0,7.0,29.99,,,,,,,,,,,,,,,,,1300.0,900.0,SCT,900.0,BKN,1300.0,OVC,1900.0,,
KRDR,05-15-2015,12:03,SPECI,Normal,350,5.0,,,9999.0,,8.0,7.0,29.99,,,,,,,,,,,,,,,,,1100.0,1100.0,BKN,1100.0,OVC,1800.0,,,,
KRDR,05-15-2015,11:58,METAR,Normal,350,5.0,,,9999.0,,8.1,7.4,29.98,1016.2,,,,,,,,,,,,,,.61 IN,,900.0,800.0,SCT,800.0,BKN,1300.0,OVC,1800.0,,
KRDR,05-15-2015,11:53,SPECI,Normal,350,4.0,,,9999.0,,8.0,7.0,29.98,,,,,,,,,,,,,,,,,900.0,900.0,BKN,900.0,OVC,1600.0,,,,
KRDR,05-15-2015,11:23,SPECI,Normal,350,7.0,,,9999.0,,8.0,7.0,29.98,,,,,,,,,,,,,,,,,1000.0,1000.0,SCT,1000.0,OVC,1500.0,,,,
KRDR,05-15-2015,11:03,SPECI,Normal,350,6.0,,,9999.0,,8.0,7.0,29.97,,,,,,,,,,,,,,,,,1000.0,1000.0,OVC,1000.0,,,,,,
KRDR,05-15-2015,10:58,METAR,Normal,340,6.0,,,9999.0,,8.1,7.3,29.97,1015.8,,,,,,,,,,,,,,,,900.0,900.0,OVC,900.0,,,,,,
KRDR,05-15-2015,10:48,SPECI,Normal,330,4.0,,,9999.0,,8.0,7.0,29.98,,,,,,,,,,,,,,,,,900.0,900.0,BKN,900.0,OVC,1600.0,,,,
KRDR,05-15-2015,10:43,SPECI,Normal,330,5.0,,,9999.0,,8.0,7.0,29.97,,,,,,,,,,,,,,,,,900.0,1000.0,BKN,1000.0,OVC,1600.0,,,,
KRDR,05-15-2015,10:38,SPECI,Normal,340,5.0,,,9999.0,,8.0,7.0,29.97,,,,,,,,,,,,,,,,,900.0,900.0,BKN,900.0,OVC,1600.0,,,,
KRDR,05-15-2015,10:33,SPECI,Normal,340,6.0,,,9999.0,,8.0,7.0,29.97,,,,,,,,,,,,,,,,,900.0,900.0,SCT,900.0,OVC,1600.0,,,,
KRDR,05-15-2015,09:58,METAR,Normal,340,5.0,,,9999.0,,8.1,7.5,29.96,1015.5,,,,,,,,,,,,,,,,800.0,800.0,BKN,800.0,OVC,1300.0,,,,
KRDR,05-15-2015,09:53,SPECI,Normal,340,6.0,,,9999.0,,8.0,7.0,29.96,,,,,,,,,,,,,,,,,800.0,800.0,OVC,800.0,,,,,,
KRDR,05-15-2015,09:38,SPECI,Normal,340,7.0,,,9999.0,,8.0,7.0,29.96,,,,,,,,,,,,,,,,,400.0,700.0,OVC,700.0,,,,,,
KRDR,05-15-2015,09:33,SPECI,Normal,350,7.0,,,9999.0,,8.0,8.0,29.96,,,,,,,,,,,,,,,,,500.0,500.0,OVC,500.0,,,,,,
KRDR,05-15-2015,09:23,SPECI,Normal,350,5.0,,,9999.0,,8.0,8.0,29.96,,,,,,,,,,,,,,,,,400.0,400.0,OVC,400.0,,,,,,
KRDR,05-15-2015,09:18,SPECI,Normal,350,5.0,,,9999.0,,8.0,8.0,29.96,,,,,,,,,,,,,,,,,300.0,300.0,OVC,300.0,,,,,,
KRDR,05-15-2015,09:08,SPECI,Normal,360,5.0,,,9999.0,,8.0,8.0,29.95,,,,,,,,,,,,,,,,,300.0,300.0,OVC,300.0,,,,,,
KRDR,05-15-2015,09:03,SPECI,Normal,360,6.0,,,9999.0,Mist,8.0,8.0,29.95,,10,,,,,,,,,,,,,,,300.0,300.0,OVC,300.0,,,,,,
KRDR,05-15-2015,08:58,METAR,Normal,360,8.0,,,8000.0,Mist,8.0,8.0,29.95,1015.1,10,,,,,,,,,,,,,,,300.0,300.0,OVC,300.0,,,,,,
KRDR,05-15-2015,08:48,SPECI,Normal,360,8.0,,,8000.0,Mist,8.0,8.0,29.95,,10,,,,,,,,,,,,,,,300.0,300.0,OVC,300.0,,,,,,
KRDR,05-15-2015,08:38,SPECI,Normal,360,7.0,,,9999.0,Mist,8.0,8.0,29.95,,10,,,,,,,,,,,,,,,300.0,300.0,OVC,300.0,,,,,,
KRDR,05-15-2015,08:13,SPECI,Normal,350,8.0,,,9999.0,,8.0,8.0,29.95,,,,,,,,,,,,,,,,,300.0,300.0,OVC,300.0,,,,,,
KRDR,05-15-2015,08:08,SPECI,Normal,360,9.0,,,9999.0,Mist,8.0,8.0,29.95,,10,,,,,,,,,,,,,,,300.0,300.0,OVC,300.0,,,,,,
KRDR,05-15-2015,07:58,METAR,Normal,360,8.0,,,6400.0,Mist,8.4,7.9,29.94,1014.7,10,,,,,,,,,,,,,,,300.0,300.0,OVC,300.0,,,,,,
KRDR,05-15-2015,07:43,SPECI,Normal,350,9.0,,,4800.0,Mist,9.0,8.0,29.94,,10,,,,,,,,,,,,,,,300.0,300.0,OVC,300.0,,,,,,
KRDR,05-15-2015,07:38,SPECI,Normal,360,9.0,,,4800.0,Mist,9.0,8.0,29.94,,10,,,,,,,,,,,,,,,300.0,300.0,OVC,300.0,,,,,,
KRDR,05-15-2015,07:33,SPECI,Normal,360,8.0,,,4000.0,Mist,9.0,8.0,29.94,,10,,,,,,,,,,,,,,,300.0,300.0,OVC,300.0,,,,,,
KRDR,05-15-2015,07:28,SPECI,Normal,350,9.0,,,4800.0,Mist,9.0,8.0,29.95,,10,,,,,,,,,,,,,,,300.0,300.0,OVC,300.0,,,,,,
KRDR,05-15-2015,07:13,SPECI,Normal,360,8.0,,,4800.0,Mist,9.0,8.0,29.94,,10,,,,,,,,,,,,,,,300.0,300.0,OVC,300.0,,,,,,
KRDR,05-15-2015,07:08,SPECI,Normal,10,7.0,,,4800.0,Mist,9.0,8.0,29.94,,10,,,,,,,,,,,,,,,300.0,300.0,OVC,300.0,,,,,,
KRDR,05-15-2015,07:03,SPECI,Normal,360,8.0,,,4000.0,Mist,9.0,8.0,29.94,,10,,,,,,,,,,,,,,,300.0,300.0,OVC,300.0,,,,,,
KRDR,05-15-2015,06:58,METAR,Normal,360,8.0,,,4800.0,Mist,8.8,8.4,29.94,1014.7,10,,,,,,,,,,,,,,,300.0,300.0,OVC,300.0,,,,,,
KRDR,05-15-2015,06:38,SPECI,Normal,10,7.0,,,8000.0,Mist,9.0,8.0,29.94,,10,,,,,,,,,,,,,,,300.0,300.0,OVC,300.0,,,,,,
KRDR,05-15-2015,06:33,SPECI,Normal,10,8.0,,,8000.0,Mist,9.0,8.0,29.94,,10,,,,,,,,,,,,,,,300.0,300.0,OVC,300.0,,,,,,
KRDR,05-15-2015,06:28,SPECI,Normal,10,9.0,,,8000.0,Mist,9.0,9.0,29.94,,10,,,,,,,,,,,,,,,300.0,300.0,OVC,300.0,,,,,,
KRDR,05-15-2015,05:58,METAR,Normal,10,9.0,,,9999.0,Mist,9.3,8.9,29.93,1014.4,10,,,,,,,,,,.01 IN,,.02 IN,,,300.0,300.0,OVC,300.0,,,,,,
KRDR,05-15-2015,05:54,SPECI,Normal,10,10.0,,,8000.0,Mist,9.0,9.0,29.93,,10,,,,,,,,,,,,,,,300.0,300.0,OVC,300.0,,,,,,
KRDR,05-15-2015,05:29,SPECI,Normal,20,10.0,,,8000.0,Mist,10.0,9.0,29.93,,10,,,,,,,,,,,,,,,300.0,300.0,OVC,300.0,,,,,,
KRDR,05-15-2015,05:13,SPECI,Normal,20,10.0,,,8000.0,Light Drizzle/Mist,10.0,9.0,29.93,,51,10,,,,,,,,,,,,,,300.0,300.0,OVC,300.0,,,,,,
KRDR,05-15-2015,04:58,METAR,Normal,20,10.0,,,6400.0,Light Drizzle/Mist,10.2,9.7,29.92,1014.0,51,10,,,,,,,,,TRACE,,,,,200.0,200.0,OVC,200.0,,,,,,
KRDR,05-15-2015,04:44,SPECI,Normal,350,7.0,,,6400.0,Light Drizzle/Mist,10.0,10.0,29.92,,51,10,,,,,,,,,,,,,,200.0,200.0,OVC,200.0,,,,,,
KRDR,05-15-2015,04:43,SPECI,Normal,350,6.0,,,6400.0,Mist,10.0,10.0,29.92,,10,,,,,,,,,,,,,,,200.0,200.0,OVC,200.0,,,,,,
KRDR,05-15-2015,04:38,SPECI,Normal,340,4.0,,,4800.0,Mist,11.0,10.0,29.92,,10,,,,,,,,,,,,,,,300.0,300.0,OVC,300.0,,,,,,
KRDR,05-15-2015,04:33,SPECI,Normal,320,4.0,,,2000.0,Mist,11.0,10.0,29.92,,10,,,,,,,,,,,,,,,300.0,300.0,OVC,300.0,,,,,,
KRDR,05-15-2015,04:28,SPECI,Normal,330,3.0,,,1200.0,Mist,11.0,10.0,29.92,,10,,,,,,,,,,,,,,Sky Obscured (Unable to Estimate),300.0,300.0,,300.0,,,,,,
KRDR,05-15-2015,04:13,SPECI,Normal,350,2.0,,,1600.0,Mist,11.0,10.0,29.92,,10,,,,,,,,,,,,,,Sky Obscured (Unable to Estimate),300.0,300.0,,300.0,,,,,,
KRDR,05-15-2015,04:08,SPECI,Normal,340,2.0,,,2000.0,Mist,11.0,10.0,29.92,,10,,,,,,,,,,,,,,,300.0,300.0,OVC,300.0,,,,,,
KRDR,05-15-2015,04:03,SPECI,Normal,350,2.0,,,2800.0,Mist,11.0,10.0,29.92,,10,,,,,,,,,,,,,,,300.0,300.0,OVC,300.0,,,,,,
KRDR,05-15-2015,03:58,METAR,Calm,,0.0,,,4800.0,Mist,10.9,10.5,29.92,1014.0,10,,,,,,,,,,,,,,,400.0,400.0,OVC,400.0,,,,,,
KRDR,05-15-2015,03:03,SPECI,Normal,140,3.0,,,8000.0,Mist,11.0,11.0,29.92,,10,,,,,,,,,,,,,,,400.0,400.0,OVC,400.0,,,,,,
KRDR,05-15-2015,02:58,METAR,Normal,150,4.0,,,8000.0,Mist,11.1,10.6,29.91,1013.6,10,,,,,,,,,,,.01 IN,,,,400.0,400.0,OVC,400.0,,,,,,
KRDR,05-15-2015,02:43,SPECI,Normal,140,3.0,,,9999.0,Mist,11.0,11.0,29.91,,10,,,,,,,,,,,,,,,500.0,500.0,OVC,500.0,,,,,,
KRDR,05-15-2015,02:33,SPECI,Normal,130,4.0,,,9999.0,Mist,11.0,11.0,29.91,,10,,,,,,,,,,,,,,,400.0,400.0,OVC,400.0,,,,,,
KRDR,05-15-2015,02:13,SPECI,Normal,140,5.0,,,8000.0,Mist,11.0,11.0,29.90,,10,,,,,,,,,,,,,,,300.0,300.0,OVC,300.0,,,,,,
KRDR,05-15-2015,02:03,SPECI,Normal,140,5.0,,,6400.0,Mist,11.0,11.0,29.90,,10,,,,,,,,,,,,,,,300.0,300.0,OVC,300.0,,,,,,
KRDR,05-15-2015,01:58,METAR,Normal,140,6.0,,,6400.0,Mist,11.2,10.8,29.90,1013.4,10,,,,,,,,,,,,,,,400.0,400.0,OVC,400.0,,,,,,
KRDR,05-15-2015,01:44,SPECI,Normal,160,5.0,,,8000.0,Mist,11.0,11.0,29.89,,10,,,,,,,,,,,,,,,400.0,400.0,OVC,400.0,,,,,,
KRDR,05-15-2015,01:39,SPECI,Normal,160,5.0,,,9999.0,Mist,11.0,11.0,29.90,,10,,,,,,,,,,,,,,,500.0,500.0,OVC,500.0,,,,,,
KRDR,05-15-2015,01:34,SPECI,Normal,160,6.0,,,4800.0,Mist,11.0,11.0,29.89,,10,,,,,,,,,,,,,,,400.0,400.0,OVC,400.0,,,,,,
KRDR,05-15-2015,01:28,SPECI,Normal,140,5.0,,,4000.0,Mist,11.0,11.0,29.89,,10,,,,,,,,,,,,,,,400.0,400.0,OVC,400.0,,,,,,
KRDR,05-15-2015,00:58,METAR,Normal,150,5.0,,,6400.0,Mist,11.4,10.9,29.89,1013.0,10,,,,,,,,,,.01 IN,,,,,400.0,400.0,OVC,400.0,,,,,,
KRDR,05-15-2015,00:23,SPECI,Normal,160,7.0,,,6400.0,Mist,12.0,11.0,29.89,,10,,,,,,,,,,,,,,,400.0,400.0,OVC,400.0,,,,,,
KRDR,05-14-2015,23:58,METAR,Normal,160,7.0,,,6400.0,Mist,11.6,10.8,29.89,1013.0,10,,,,,,,,,,,,,,,500.0,500.0,OVC,500.0,,,,,,
KRDR,05-14-2015,23:43,SPECI,Normal,160,9.0,,,8000.0,Mist,12.0,11.0,29.89,,10,,,,,,,,,,,,,,,500.0,500.0,OVC,500.0,,,,,,
KRDR,05-14-2015,23:18,SPECI,Normal,160,7.0,,,9999.0,,12.0,11.0,29.90,,,,,,,,,,,,,,,,,600.0,600.0,OVC,600.0,,,,,,
KRDR,05-14-2015,22:58,METAR,Normal,150,9.0,,,9999.0,,11.9,11.1,29.90,1013.3,,,,,,,,,,,,,,,,500.0,500.0,OVC,500.0,,,,,,
KRDR,05-14-2015,22:48,SPECI,Normal,140,9.0,,,9999.0,,12.0,11.0,29.90,,,,,,,,,,,,,,,,,400.0,400.0,OVC,400.0,,,,,,
KRDR,05-14-2015,22:28,SPECI,Normal,150,7.0,,,9999.0,,12.0,11.0,29.90,,,,,,,,,,,,,,,,,500.0,500.0,OVC,500.0,,,,,,
KRDR,05-14-2015,22:13,SPECI,Normal,150,8.0,,,9999.0,,12.0,11.0,29.90,,,,,,,,,,,,,,,,,600.0,600.0,BKN,600.0,OVC,1100.0,,,,
KRDR,05-14-2015,22:08,SPECI,Normal,150,10.0,,,9999.0,,12.0,11.0,29.90,,,,,,,,,,,,,,,,,500.0,500.0,BKN,500.0,OVC,1100.0,,,,
KRDR,05-14-2015,21:58,METAR,Normal,160,10.0,,,9999.0,,12.0,11.0,29.90,1013.3,,,,,,,,,,,,,,,,600.0,600.0,OVC,600.0,,,,,,
KRDR,05-14-2015,21:53,SPECI,Normal,150,9.0,,,9999.0,,12.0,11.0,29.90,,,,,,,,,,,,,,,,,600.0,600.0,OVC,600.0,,,,,,
KRDR,05-14-2015,21:38,SPECI,Normal,150,8.0,,,9999.0,,12.0,11.0,29.91,,,,,,,,,,,,,,,,,500.0,500.0,BKN,500.0,OVC,1200.0,,,,
KRDR,05-14-2015,21:28,SPECI,Normal,150,9.0,,,9999.0,Mist,12.0,11.0,29.91,,10,,,,,,,,,,,,,,,700.0,700.0,BKN,700.0,OVC,1300.0,,,,
KRDR,05-14-2015,20:58,METAR,Normal,160,8.0,,,9999.0,,12.8,11.0,29.91,1013.6,,,,,,,,,,,,,,,,1100.0,1100.0,OVC,1100.0,,,,,,
KRDR,05-14-2015,20:55,SPECI,Normal,160,9.0,,,9999.0,,13.0,11.0,29.91,,,,,,,,,,,,,,,,,1100.0,1100.0,OVC,1100.0,,,,,,
KRDR,05-14-2015,20:53,SPECI,Normal,160,9.0,,,9999.0,,13.0,11.0,29.91,,,,,,,,,,,,,,,,,1200.0,1200.0,OVC,1200.0,,,,,,
KRDR,05-14-2015,20:23,SPECI,Normal,190,11.0,,,9999.0,,13.0,11.0,29.91,,,,,,,,,,,,,,,,,1100.0,1100.0,OVC,1100.0,,,,,,
KRDR,05-14-2015,19:58,METAR,Normal,190,10.0,,,9999.0,,13.0,10.6,29.92,1014.0,,,,,,,,,,,,,,,,1300.0,1300.0,OVC,1300.0,,,,,,
KRDR,05-14-2015,19:18,SPECI,Normal,190,11.0,,,9999.0,,13.0,11.0,29.92,,,,,,,,,,,,,,,,,1200.0,1200.0,OVC,1200.0,,,,,,
KRDR,05-14-2015,18:58,METAR,Normal,190,17.0,,,9999.0,,12.7,11.0,29.92,1014.0,,,,,,,,,,,,,,,,1100.0,1100.0,OVC,1100.0,,,,,,
KRDR,05-14-2015,18:33,SPECI,Normal,170,16.0,23.0,,9999.0,,13.0,11.0,29.93,,,,,,,,,,,,,,,,,1100.0,1100.0,OVC,1100.0,,,,,,
KRDR,05-14-2015,18:23,SPECI,Normal,160,12.0,,,9999.0,,13.0,11.0,29.93,,,,,,,,,,,,,,,,,900.0,900.0,OVC,900.0,,,,,,
KRDR,05-14-2015,18:13,SPECI,Normal,170,18.0,,,9999.0,,13.0,11.0,29.93,,,,,,,,,,,,,,,,,1000.0,1000.0,OVC,1000.0,,,,,,
KRDR,05-14-2015,18:03,SPECI,Normal,160,17.0,,,9999.0,,13.0,11.0,29.93,,,,,,,,,,,,,,,,,900.0,900.0,OVC,900.0,,,,,,
KRDR,05-14-2015,17:58,METAR,Normal,170,14.0,23.0,,9999.0,,13.0,11.0,29.94,1014.7,,,,,,,,,,,.01 IN,,.59 IN,,,1000.0,1000.0,OVC,1000.0,,,,,,
KRDR,05-14-2015,17:54,SPECI,Normal,170,15.0,23.0,,9999.0,,13.0,11.0,29.94,,,,,,,,,,,,,,,,,800.0,1000.0,OVC,1000.0,,,,,,
KRDR,05-14-2015,17:49,SPECI,Normal,170,15.0,23.0,,9999.0,,13.0,11.0,29.94,,,,,,,,,,,,,,,,,900.0,900.0,OVC,900.0,,,,,,
KRDR,05-14-2015,17:42,SPECI,Normal,190,17.0,22.0,,9999.0,Light Drizzle,13.0,12.0,29.94,,51,,,,,,,,,,,,,,,800.0,800.0,OVC,800.0,,,,,,
KRDR,05-14-2015,17:31,SPECI,Normal,160,17.0,20.0,,9999.0,Light Drizzle,13.0,12.0,29.94,,51,,,,,,,,,,,,,,,700.0,700.0,OVC,700.0,,,,,,
KRDR,05-14-2015,17:21,SPECI,Normal,160,14.0,21.0,,9999.0,Light Drizzle,13.0,12.0,29.95,,51,,,,,,,,,,,,,,,700.0,900.0,OVC,900.0,,,,,,
KRDR,05-14-2015,16:58,METAR,Normal,160,14.0,,,9999.0,Light Rain,13.1,12.2,29.95,1015.1,61,,,,,,,,,,.26 IN,,,,,700.0,700.0,OVC,700.0,,,,,,
KRDR,05-14-2015,16:41,SPECI,Normal,160,13.0,,,6400.0,Light Rain/Mist,13.0,12.0,29.95,,61,10,,,,,,,,,,,,,,600.0,600.0,OVC,600.0,,,,,,
KRDR,05-14-2015,16:26,SPECI,Normal,160,12.0,,,8000.0,Light Rain/Mist,12.0,11.0,29.95,,61,10,,,,,,,,,,,,,,500.0,500.0,OVC,500.0,,,,,,
KRDR,05-14-2015,16:24,SPECI,Normal,160,11.0,,,8000.0,Mist,12.0,12.0,29.95,,10,,,,,,,,,,,,,,,500.0,500.0,OVC,500.0,,,,,,
KRDR,05-14-2015,16:13,SPECI,Normal,170,11.0,,,4800.0,Light Rain/Mist,12.0,11.0,29.95,,61,10,,,,,,,,,,,,,,300.0,500.0,OVC,500.0,,,,,,
KRDR,05-14-2015,16:08,SPECI,Normal,160,13.0,,,4000.0,Light Rain/Mist,12.0,11.0,29.95,,61,10,,,,,,,,,,,,,,400.0,400.0,BKN,400.0,OVC,800.0,,,,
KRDR,05-14-2015,15:58,METAR,Normal,160,13.0,,,9999.0,Light Rain,12.3,11.2,29.96,1015.5,61,,,,,,,,,,.04 IN,,,,,700.0,700.0,OVC,700.0,,,,,,
KRDR,05-14-2015,15:52,SPECI,Normal,160,13.0,,,9999.0,Light Rain/Mist,12.0,11.0,29.96,,61,10,,,,,,,,,,,,,,700.0,700.0,BKN,700.0,OVC,1000.0,,,,
KRDR,05-14-2015,15:47,SPECI,Normal,170,12.0,,,8000.0,Light Rain/Mist,12.0,11.0,29.96,,61,10,,,,,,,,,,,,,,700.0,500.0,SCT,500.0,OVC,1000.0,,,,
KRDR,05-14-2015,15:37,SPECI,Normal,170,11.0,,,9999.0,Light Rain,12.0,11.0,29.96,,61,,,,,,,,,,,,,,,1100.0,600.0,FEW,600.0,OVC,1100.0,,,,
KRDR,05-14-2015,15:32,SPECI,Normal,170,10.0,,,9999.0,Light Rain,12.0,11.0,29.96,,61,,,,,,,,,,,,,,,1200.0,600.0,FEW,600.0,OVC,1200.0,,,,
KRDR,05-14-2015,15:06,SPECI,Normal,150,10.0,,,9999.0,Light Drizzle,12.0,11.0,29.96,,51,,,,,,,,,,,,,,,1400.0,1400.0,BKN,1400.0,OVC,3300.0,,,,
KRDR,05-14-2015,15:01,SPECI,Normal,150,9.0,,,9999.0,Light Drizzle,12.0,11.0,29.96,,51,,,,,,,,,,,,,,,1500.0,1500.0,BKN,1500.0,OVC,3300.0,,,,
KRDR,05-14-2015,14:58,METAR,Normal,150,8.0,,,9999.0,,12.0,10.4,29.96,1015.5,,,,,,,,,,,.08 IN,.28 IN,,,,3300.0,1500.0,SCT,1500.0,OVC,3300.0,,,,
KRDR,05-14-2015,14:19,SPECI,Normal,140,6.0,,,9999.0,Light Drizzle,11.0,10.0,29.96,,51,,,,,,,,,,,,,,,3500.0,300.0,FEW,300.0,SCT,1600.0,OVC,3500.0,,
KRDR,05-14-2015,14:14,SPECI,Normal,140,6.0,,,4800.0,Light Rain/Mist,11.0,10.0,29.96,,61,10,,,,,,,,,,,,,,1700.0,300.0,FEW,300.0,BKN,1700.0,OVC,3400.0,,
KRDR,05-14-2015,14:09,SPECI,Normal,140,5.0,,,4000.0,Light Rain/Mist,11.0,10.0,29.96,,61,10,,,,,,,,,,,,,,3400.0,300.0,SCT,300.0,SCT,700.0,OVC,3400.0,,
KRDR,05-14-2015,13:59,SPECI,Normal,130,8.0,,,9999.0,Light Rain,11.0,10.0,29.96,,61,,,,,,,,,,,,,,,3400.0,900.0,FEW,900.0,OVC,3400.0,,,,
KRDR,05-14-2015,13:58,METAR,Normal,130,9.0,,,9999.0,Light Rain/Mist,11.3,10.2,29.96,1015.5,61,10,,,,,,,,,.07 IN,,,,,3400.0,3400.0,BKN,3400.0,,,,,,
KRDR,05-14-2015,13:16,SPECI,Normal,120,5.0,,,6400.0,Light Rain/Mist,11.0,10.0,29.96,,61,10,,,,,,,,,,,,,,1200.0,500.0,SCT,500.0,BKN,2100.0,OVC,2900.0,,
KRDR,05-14-2015,13:11,SPECI,Normal,120,5.0,,,4800.0,Light Rain/Mist,11.0,10.0,29.96,,61,10,,,,,,,,,,,,,,1200.0,400.0,SCT,400.0,BKN,1200.0,OVC,2900.0,,
KRDR,05-14-2015,13:06,SPECI,Normal,120,5.0,,,3200.0,Light Rain/Mist,11.0,10.0,29.96,,61,10,,,,,,,,,,,,,,1200.0,400.0,SCT,400.0,BKN,1200.0,OVC,2900.0,,
KRDR,05-14-2015,13:01,SPECI,Normal,130,7.0,,,3200.0,Light Rain/Mist,11.0,10.0,29.96,,61,10,,,,,,,,,,,,,,1800.0,400.0,SCT,400.0,BKN,1800.0,OVC,2900.0,,
KRDR,05-14-2015,12:58,METAR,Normal,150,9.0,,,2800.0,Light Rain/Mist,11.0,10.0,29.96,1015.5,61,10,,,,,,,,,.13 IN,,,,,1800.0,2800.0,OVC,2800.0,,,,,,
KRDR,05-14-2015,12:54,SPECI,Normal,160,7.0,,,2800.0,Rain/Mist,11.0,10.0,29.96,,62,10,,,,,,,,,,,,,,1800.0,2800.0,OVC,2800.0,,,,,,
KRDR,05-14-2015,12:04,SPECI,Normal,170,8.0,,,9999.0,Light Rain,11.0,10.0,29.97,,61,,,,,,,,,,,,,,,3200.0,1100.0,FEW,1100.0,OVC,3200.0,,,,
KRDR,05-14-2015,11:58,METAR,Normal,170,9.0,,,8000.0,Rain/Mist,11.1,10.2,29.97,1015.9,,,,61,10,,,,,,.03 IN,,.09 IN,.21 IN,,3000.0,900.0,FEW,900.0,BKN,3000.0,OVC,4600.0,,
KRDR,05-14-2015,11:39,SPECI,Normal,180,9.0,,,9999.0,Light Drizzle,11.0,10.0,29.96,,51,,,,,,,,,,,,,,,3200.0,800.0,SCT,800.0,BKN,3200.0,OVC,4500.0,,
KRDR,05-14-2015,11:37,SPECI,Normal,180,9.0,,,9999.0,,11.0,10.0,29.96,,,,,,,,,,,,,,,,,800.0,800.0,BKN,800.0,BKN,3200.0,OVC,4500.0,,
KRDR,05-14-2015,11:28,SPECI,Normal,180,8.0,,,9999.0,Light Rain,11.0,10.0,29.96,,61,,,,,,,,,,,,,,,900.0,900.0,BKN,900.0,BKN,3000.0,OVC,8000.0,,
KRDR,05-14-2015,11:03,SPECI,Normal,180,7.0,,,9999.0,Light Rain/Mist,11.0,10.0,29.95,,61,10,,,,,,,,,,,,,,7500.0,1000.0,FEW,1000.0,OVC,7500.0,,,,
KRDR,05-14-2015,10:58,METAR,Normal,180,7.0,,,9999.0,Light Rain,11.0,10.0,29.96,1015.5,61,,,,,,,,,,.05 IN,,,,,7500.0,1000.0,FEW,1000.0,OVC,7500.0,,,,
KRDR,05-14-2015,10:16,SPECI,Normal,190,11.0,,,9999.0,Light Rain,11.0,10.0,29.96,,61,,,,,,,,,,,,,,,7000.0,1000.0,SCT,1000.0,OVC,7000.0,,,,
KRDR,05-14-2015,10:11,SPECI,Normal,190,11.0,,,9999.0,Light Rain/Mist,11.0,10.0,29.96,,61,10,,,,,,,,,,,,,,1400.0,1100.0,FEW,1100.0,OVC,7000.0,,,,
KRDR,05-14-2015,10:09,SPECI,Normal,190,9.0,,,9999.0,Light Rain/Mist,11.0,10.0,29.96,,61,10,,,,,,,,,,,,,,1200.0,1300.0,FEW,1300.0,OVC,7000.0,,,,
KRDR,05-14-2015,10:07,SPECI,Normal,190,11.0,20.0,,8000.0,Mist,11.0,10.0,29.96,,10,,,,,,,,,,,,,,,1200.0,1400.0,FEW,1400.0,OVC,7000.0,,,,
KRDR,05-14-2015,10:03,SPECI,Normal,190,11.0,20.0,,9999.0,Light Rain/Mist,11.0,10.0,29.96,,61,10,,,,,,,,,,,,,,6500.0,1500.0,SCT,1500.0,OVC,6500.0,,,,
KRDR,05-14-2015,09:58,METAR,Normal,190,12.0,20.0,,9999.0,Light Rain,12.0,10.0,29.96,1015.5,61,,,,,,,,,,.01 IN,,,,,1300.0,1400.0,SCT,1400.0,BKN,6000.0,OVC,8600.0,,
KRDR,05-14-2015,09:52,SPECI,Normal,190,14.0,,,9999.0,Light Rain,12.0,10.0,29.96,,61,,,,,,,,,,,,,,,2300.0,1400.0,SCT,1400.0,BKN,2300.0,OVC,8600.0,,
KRDR,05-14-2015,09:42,SPECI,Normal,190,15.0,18.0,,9999.0,Light Drizzle,12.0,10.0,29.96,,51,,,,,,,,,,,,,,,2300.0,1600.0,SCT,1600.0,BKN,2300.0,BKN,8600.0,,
KRDR,05-14-2015,09:31,SPECI,Normal,180,9.0,,,9999.0,,12.0,9.0,29.96,,,,,,,,,,,,,,,,,2300.0,2300.0,BKN,2300.0,OVC,8600.0,,,,
KRDR,05-14-2015,09:18,SPECI,Normal,190,13.0,19.0,,9999.0,Light Drizzle,12.0,9.0,29.96,,51,,,,,,,,,,,,,,,2300.0,2300.0,BKN,2300.0,BKN,2900.0,,,,
KRDR,05-14-2015,08:58,METAR,Normal,180,7.0,,,9999.0,,11.3,8.1,29.97,1015.8,,,,,,,,,,,,,,,,2900.0,2900.0,BKN,2900.0,OVC,9100.0,,,,
KRDR,05-14-2015,07:58,METAR,Normal,160,6.0,,,9999.0,,11.0,7.6,29.97,1015.8,,,,,,,,,,,,,,,,11000.0,11000.0,OVC,11000.0,,,,,,
KRDR,05-14-2015,06:58,METAR,Normal,140,5.0,,,9999.0,,9.7,7.4,29.98,1016.2,,,,,,,,,,,,,,,,8000.0,6500.0,SCT,6500.0,BKN,8000.0,OVC,11000.0,,
KRDR,05-14-2015,05:58,METAR,Normal,110,4.0,,,9999.0,,9.3,7.3,30.01,1017.2,,,,,,,,,,,,,,,,10000.0,7000.0,SCT,7000.0,OVC,10000.0,,,,
KRDR,05-14-2015,04:58,METAR,Normal,120,5.0,,,9999.0,,9.1,7.2,30.02,1017.6,,,,,,,,,,,,,,,,7000.0,7000.0,SCT,7000.0,OVC,9100.0,,,,
KRDR,05-14-2015,03:58,METAR,Normal,90,4.0,,,9999.0,,8.2,6.8,30.04,1018.3,,,,,,,,,,,,,,,,7000.0,7000.0,OVC,7000.0,,,,,,
KRDR,05-14-2015,02:58,METAR,Normal,90,4.0,,,9999.0,,7.6,6.5,30.04,1018.3,,,,,,,,,,,,,,,,7000.0,7000.0,OVC,7000.0,,,,,,
KRDR,05-14-2015,01:58,METAR,Normal,60,4.0,,,9999.0,,7.0,6.0,30.05,1018.7,,,,,,,,,,,,,,,Clear,72000.0,,,,,,,,,
KRDR,05-14-2015,00:58,METAR,Normal,80,10.0,,,9999.0,,7.7,6.5,30.05,1018.7,,,,,,,,,,,,,,,4/8 Partly Cloudy,72000.0,7000.0,SCT,7000.0,,,,,,
KRDR,05-13-2015,23:58,METAR,Normal,80,12.0,,,9999.0,,7.8,6.6,30.07,1019.4,,,,,,,,,,,.01 IN,,.11 IN,,,7000.0,900.0,FEW,900.0,OVC,7000.0,,,,
KRDR,05-13-2015,23:49,SPECI,Normal,80,13.0,18.0,,9999.0,,8.0,7.0,30.07,,,,,,,,,,,,,,,,,7000.0,900.0,FEW,900.0,OVC,7000.0,,,,
KRDR,05-13-2015,23:15,SPECI,Normal,80,11.0,,,9999.0,Light Rain,8.0,7.0,30.10,,61,,,,,,,,,,,,,,,7500.0,1100.0,FEW,1100.0,BKN,7500.0,OVC,9100.0,,
KRDR,05-13-2015,22:58,METAR,Normal,80,12.0,,,9999.0,,8.2,7.1,30.12,1021.1,,,,,,,,,,,.01 IN,,,,,6000.0,6000.0,OVC,6000.0,,,,,,
KRDR,05-13-2015,22:18,SPECI,Normal,80,8.0,,,9999.0,,8.0,7.0,30.12,,,,,,,,,,,,,,,,,6000.0,2000.0,FEW,2000.0,OVC,6000.0,,,,
KRDR,05-13-2015,21:58,METAR,Normal,90,9.0,,,4800.0,Light Rain/Mist,8.0,7.0,30.12,1021.1,61,10,,,,,,,,,.09 IN,,,,,2100.0,1500.0,FEW,1500.0,BKN,2100.0,OVC,6000.0,,
KRDR,05-13-2015,21:56,SPECI,Normal,90,9.0,,,4000.0,Light Rain/Mist,8.0,7.0,30.12,,61,10,,,,,,,,,,,,,,2100.0,1500.0,FEW,1500.0,BKN,2100.0,OVC,4700.0,,
KRDR,05-13-2015,21:54,SPECI,Normal,90,9.0,,,4000.0,Mist,8.0,7.0,30.12,,10,,,,,,,,,,,,,,,2100.0,600.0,FEW,600.0,OVC,2100.0,,,,
KRDR,05-13-2015,21:49,SPECI,Normal,90,10.0,,,4000.0,Light Rain/Mist,8.0,7.0,30.13,,61,10,,,,,,,,,,,,,,2200.0,600.0,FEW,600.0,OVC,2200.0,,,,
KRDR,05-13-2015,21:44,SPECI,Normal,90,7.0,,,6400.0,Rain/Mist,8.0,7.0,30.13,,62,10,,,,,,,,,,,,,,2200.0,600.0,FEW,600.0,OVC,2200.0,,,,
KRDR,05-13-2015,21:30,SPECI,Normal,100,13.0,16.0,,9999.0,Light Rain,9.0,6.0,30.13,,61,,,,,,,,,,,,,,,2200.0,2200.0,OVC,2200.0,,,,,,
KRDR,05-13-2015,20:58,METAR,Normal,110,11.0,,,9999.0,,9.4,5.7,30.14,1021.7,,,,,,,,,,,,,,,,2400.0,2400.0,OVC,2400.0,,,,,,
KRDR,05-13-2015,19:58,METAR,Normal,110,14.0,17.0,,9999.0,,9.5,5.4,30.15,1022.1,,,,,,,,,,,,,,,,2000.0,2000.0,OVC,2000.0,,,,,,
KRDR,05-13-2015,18:58,METAR,Normal,120,14.0,20.0,,9999.0,,9.4,5.1,30.17,1022.7,,,,,,,,,,,,,,,,2000.0,2000.0,OVC,2000.0,,,,,,
KRDR,05-13-2015,17:58,METAR,Normal,120,12.0,19.0,,9999.0,,9.3,5.2,30.18,1023.0,,,,,,,,,,,,,.01 IN,,,1800.0,2300.0,OVC,2300.0,,,,,,
KRDR,05-13-2015,17:33,SPECI,Normal,150,20.0,25.0,,9999.0,,9.0,5.0,30.18,,,,,,,,,,,,,,,,,2000.0,2000.0,OVC,2000.0,,,,,,
KRDR,05-13-2015,17:28,SPECI,Normal,150,18.0,23.0,,9999.0,,9.0,6.0,30.19,,,,,,,,,,,,,,,,,1900.0,1900.0,OVC,1900.0,,,,,,
KRDR,05-13-2015,16:58,METAR,Normal,120,13.0,,,9999.0,,8.8,5.3,30.19,1023.4,,,,,,,,,,,,,,,,2100.0,2100.0,BKN,2100.0,OVC,2700.0,,,,
KRDR,05-13-2015,15:58,METAR,Normal,130,11.0,17.0,,9999.0,,8.3,5.1,30.21,1024.1,,,,,,,,,,,,,,,,5500.0,2600.0,FEW,2600.0,OVC,5500.0,,,,
KRDR,05-13-2015,14:58,METAR,Normal,110,8.0,,,9999.0,,7.0,4.8,30.22,1024.5,,,,,,,,,,,,.01 IN,,,,5000.0,5000.0,OVC,5000.0,,,,,,
KRDR,05-13-2015,13:58,METAR,Normal,90,8.0,,,9999.0,,6.8,4.8,30.23,1024.7,,,,,,,,,,,,,,,,6000.0,6000.0,OVC,6000.0,,,,,,
KRDR,05-13-2015,12:58,METAR,Normal,110,11.0,,,9999.0,,6.5,4.6,30.23,1024.7,,,,,,,,,,,.01 IN,,,,4/8 Partly Cloudy,72000.0,3200.0,FEW,3200.0,SCT,8000.0,,,,
KRDR,05-13-2015,12:40,SPECI,Normal,120,13.0,,,9999.0,,6.0,5.0,30.24,,,,,,,,,,,,,,,,4/8 Partly Cloudy,72000.0,3900.0,SCT,3900.0,,,,,,
KRDR,05-13-2015,12:05,SPECI,Normal,120,11.0,,,9999.0,Unknown Precipitation,6.0,4.0,30.25,,40,,,,,,,,,,,,,,,4900.0,4900.0,BKN,4900.0,,,,,,
KRDR,05-13-2015,11:58,METAR,Normal,120,11.0,,,9999.0,,6.3,4.3,30.25,1025.4,,,,,,,,,,,TRACE,,.02 IN,.02 IN,,4700.0,4700.0,OVC,4700.0,,,,,,
KRDR,05-13-2015,10:58,METAR,Normal,110,12.0,,,9999.0,,6.0,4.2,30.25,1025.4,,,,,,,,,,,TRACE,,,,,5500.0,5500.0,OVC,5500.0,,,,,,
KRDR,05-13-2015,10:57,SPECI,Normal,110,12.0,,,9999.0,,6.0,4.0,30.25,,,,,,,,,,,,,,,,,5500.0,5500.0,OVC,5500.0,,,,,,
KRDR,05-13-2015,10:47,SPECI,Normal,110,9.0,,,9999.0,Light Drizzle,6.0,4.0,30.25,,51,,,,,,,,,,,,,,,6000.0,4900.0,SCT,4900.0,OVC,6000.0,,,,
KRDR,05-13-2015,10:32,SPECI,Normal,110,9.0,,,9999.0,,6.0,4.0,30.26,,,,,,,,,,,,,,,,,4900.0,4900.0,BKN,4900.0,OVC,6000.0,,,,
KRDR,05-13-2015,10:19,SPECI,Normal,110,8.0,,,9999.0,Light Drizzle,6.0,4.0,30.27,,51,,,,,,,,,,,,,,,4900.0,4900.0,BKN,4900.0,OVC,6000.0,,,,
KRDR,05-13-2015,09:58,METAR,Normal,110,7.0,,,9999.0,,6.1,3.8,30.27,1026.0,,,,,,,,,,,.01 IN,,,,,6000.0,4000.0,FEW,4000.0,SCT,4800.0,OVC,6000.0,,
KRDR,05-13-2015,09:53,SPECI,Normal,110,8.0,,,9999.0,,6.0,4.0,30.28,,,,,,,,,,,,,,,,,6000.0,4000.0,FEW,4000.0,SCT,4800.0,OVC,6000.0,,
KRDR,05-13-2015,09:28,SPECI,Normal,110,8.0,,,9999.0,Unknown Precipitation,6.0,4.0,30.28,,40,,,,,,,,,,,,,,,4500.0,4500.0,BKN,4500.0,OVC,6000.0,,,,
KRDR,05-13-2015,09:23,SPECI,Normal,120,7.0,,,9999.0,,6.0,4.0,30.29,,,,,,,,,,,,,,,,,4600.0,4600.0,OVC,4600.0,,,,,,
KRDR,05-13-2015,09:11,SPECI,Normal,110,6.0,,,9999.0,Unknown Precipitation,6.0,4.0,30.29,,40,,,,,,,,,,,,,,,4700.0,4700.0,OVC,4700.0,,,,,,
KRDR,05-13-2015,08:58,METAR,Normal,110,5.0,,,9999.0,,6.1,3.6,30.29,1026.8,,,,,,,,,,,.01 IN,.01 IN,,,,5000.0,5000.0,OVC,5000.0,,,,,,
KRDR,05-13-2015,08:37,SPECI,Normal,130,6.0,,,9999.0,,6.0,4.0,30.29,,,,,,,,,,,,,,,,,5000.0,5000.0,OVC,5000.0,,,,,,
KRDR,05-13-2015,08:18,SPECI,Normal,130,6.0,,,9999.0,Light Rain,6.0,4.0,30.29,,61,,,,,,,,,,,,,,,4900.0,4900.0,OVC,4900.0,,,,,,
KRDR,05-13-2015,08:13,SPECI,Normal,140,5.0,,,9999.0,Light Rain,7.0,3.0,30.29,,61,,,,,,,,,,,,,,,4700.0,4700.0,OVC,4700.0,,,,,,
KRDR,05-13-2015,07:58,METAR,Normal,130,7.0,,,9999.0,Light Rain,7.0,2.7,30.29,1026.7,61,,,,,,,,,,TRACE,,,,,4000.0,4000.0,OVC,4000.0,,,,,,
KRDR,05-13-2015,07:43,SPECI,Normal,130,6.0,,,9999.0,Unknown Precipitation,7.0,2.0,30.29,,40,,,,,,,,,,,,,,,3900.0,3900.0,BKN,3900.0,,,,,,
KRDR,05-13-2015,07:38,SPECI,Normal,120,5.0,,,9999.0,,7.0,3.0,30.29,,,,,,,,,,,,,,,,4/8 Partly Cloudy,72000.0,4000.0,SCT,4000.0,,,,,,
KRDR,05-13-2015,07:26,SPECI,Normal,120,7.0,,,9999.0,Unknown Precipitation,7.0,2.0,30.29,,40,,,,,,,,,,,,,,2/8 Mostly Clear,72000.0,4600.0,FEW,4600.0,,,,,,
KRDR,05-13-2015,06:58,METAR,Normal,120,6.0,,,9999.0,,7.7,1.8,30.29,1026.7,,,,,,,,,,,,,,,Clear,5500.0,,,,,,,,,
KRDR,05-13-2015,05:58,METAR,Normal,130,7.0,,,9999.0,,8.0,2.5,30.28,1026.4,,,,,,,,,,,,,,,Clear,72000.0,,,,,,,,,
KRDR,05-13-2015,04:58,METAR,Normal,120,9.0,,,9999.0,,8.4,2.6,30.27,1026.1,,,,,,,,,,,,,,,Clear,11000.0,,,,,,,,,
KRDR,05-13-2015,03:58,METAR,Normal,120,9.0,,,9999.0,,8.6,2.9,30.28,1026.5,,,,,,,,,,,,,,,2/8 Mostly Clear,72000.0,12000.0,FEW,12000.0,,,,,,
KRDR,05-13-2015,02:58,METAR,Normal,150,8.0,,,9999.0,,9.3,3.0,30.29,1026.9,,,,,,,,,,,,,,,4/8 Partly Cloudy,72000.0,12000.0,SCT,12000.0,,,,,,
KRDR,05-13-2015,01:58,METAR,Normal,120,6.0,,,9999.0,,10.2,2.7,30.26,1025.8,,,,,,,,,,,,,,,2/8 Mostly Clear,72000.0,6000.0,FEW,6000.0,,,,,,
KRDR,05-13-2015,00:58,METAR,Normal,100,6.0,,,9999.0,,11.7,1.0,30.23,1024.8,,,,,,,,,,,,,,,Clear,72000.0,,,,,,,,,
KRDR,05-12-2015,23:58,METAR,Normal,90,5.0,,,9999.0,,12.4,-0.4,30.23,1025.0,,,,,,,,,,,,,,,Clear,72000.0,,,,,,,,,
KRDR,05-12-2015,22:58,METAR,Normal,90,7.0,,,9999.0,,13.6,0.1,30.22,1024.5,,,,,,,,,,,,,,,,5500.0,5500.0,BKN,5500.0,,,,,,
KRDR,05-12-2015,21:58,METAR,Normal,50,5.0,,,9999.0,,12.6,-0.4,30.23,1024.9,,,,,,,,,,,,,,,,6000.0,6000.0,BKN,6000.0,,,,,,
KRDR,05-12-2015,20:58,METAR,Variable,,3.0,,,9999.0,,12.4,-0.5,30.23,1025.0,,,,,,,,,,,,,,,,6000.0,5000.0,SCT,5000.0,BKN,6000.0,,,,
KRDR,05-12-2015,19:58,METAR,Normal,50,10.0,,,9999.0,,12.3,0.1,30.24,1025.2,,,,,,,,,,,,,,,,6500.0,4600.0,SCT,4600.0,BKN,6500.0,,,,
KRDR,05-12-2015,18:58,METAR,Normal,50,7.0,,,9999.0,,12.5,1.5,30.23,1024.9,,,,,,,,,,,,,,,2/8 Mostly Clear,72000.0,4300.0,FEW,4300.0,,,,,,
KRDR,05-12-2015,17:58,METAR,Normal,40,8.0,,,9999.0,,11.5,1.9,30.23,1024.9,,,,,,,,,,,,,,,Clear,72000.0,,,,,,,,,
KRDR,05-12-2015,16:58,METAR,Normal,70,6.0,,,9999.0,,10.1,2.2,30.23,1024.9,,,,,,,,,,,,,,,Clear,72000.0,,,,,,,,,
KRDR,05-12-2015,15:58,METAR,Normal,50,5.0,,,9999.0,,8.9,1.6,30.22,1024.5,,,,,,,,,,,,,,,Clear,72000.0,,,,,,,,,
KRDR,05-12-2015,14:58,METAR,Normal,20,8.0,,,9999.0,,7.2,1.9,30.21,1024.3,,,,,,,,,,,,,,,Clear,72000.0,,,,,,,,,
KRDR,05-12-2015,13:58,METAR,Normal,40,6.0,,,9999.0,,5.2,1.9,30.20,1024.0,,,,,,,,,,,,,,,Clear,72000.0,,,,,,,,,
KRDR,05-12-2015,12:58,METAR,Normal,350,4.0,,,9999.0,,2.6,0.9,30.19,1023.7,,,,,,,,,,,,,,,Clear,72000.0,,,,,,,,,
KRDR,05-12-2015,11:58,METAR,Normal,340,4.0,,,9999.0,,0.3,-1.0,30.17,1023.1,,,,,,,,,,,,,,.66 IN,Clear,72000.0,,,,,,,,,
KRDR,05-12-2015,10:58,METAR,Normal,340,5.0,,,9999.0,,-1.3,-2.2,30.14,1022.1,,,,,,,,,,,,,,,Clear,72000.0,,,,,,,,,
KRDR,05-12-2015,09:58,METAR,Normal,340,6.0,,,9999.0,,-0.2,-1.3,30.12,1021.4,,,,,,,,,,,,,,,Clear,72000.0,,,,,,,,,
KRDR,05-12-2015,08:58,METAR,Normal,320,4.0,,,9999.0,,-0.6,-1.4,30.10,1020.7,,,,,,,,,,,,,,,Clear,72000.0,,,,,,,,,
KRDR,05-12-2015,07:58,METAR,Normal,20,4.0,,,9999.0,,-0.7,-1.6,30.07,1019.7,,,,,,,,,,,,,,,Clear,72000.0,,,,,,,,,
KRDR,05-12-2015,06:58,METAR,Normal,330,5.0,,,9999.0,,0.4,-0.7,30.06,1019.4,,,,,,,,,,,,,,,Clear,72000.0,,,,,,,,,
KRDR,05-12-2015,05:58,METAR,Normal,30,4.0,,,9999.0,,0.9,-0.1,30.04,1018.8,,,,,,,,,,,,,.02 IN,,2/8 Mostly Clear,72000.0,2300.0,FEW,2300.0,,,,,,
KRDR,05-12-2015,04:58,METAR,Normal,10,7.0,,,9999.0,,2.9,1.2,30.03,1018.3,,,,,,,,,,,,,,,Clear,72000.0,,,,,,,,,
KRDR,05-12-2015,03:58,METAR,Normal,20,8.0,,,9999.0,,4.6,2.4,30.01,1017.6,,,,,,,,,,,,,,,,7000.0,7000.0,OVC,7000.0,,,,,,
KRDR,05-12-2015,02:58,METAR,Normal,60,10.0,,,9999.0,,5.4,3.3,30.00,1017.3,,,,,,,,,,,,.02 IN,,,,6500.0,4900.0,FEW,4900.0,BKN,6500.0,OVC,8000.0,,
KRDR,05-12-2015,01:58,METAR,Normal,10,9.0,18.0,,9999.0,,5.5,3.2,29.98,1016.6,,,,,,,,,,,.01 IN,,,,,5500.0,3500.0,FEW,3500.0,OVC,5500.0,,,,
KRDR,05-12-2015,01:16,SPECI,Normal,30,14.0,,,9999.0,,6.0,4.0,29.96,,,,,,,,,,,,,,,,4/8 Partly Cloudy,72000.0,2100.0,SCT,2100.0,,,,,,
KRDR,05-12-2015,00:58,METAR,Normal,20,8.0,,,9999.0,Light Rain,5.5,4.2,29.96,1015.9,61,,,,,,,,,,.01 IN,,,,,2100.0,2100.0,OVC,2100.0,,,,,,
KRDR,05-12-2015,00:18,SPECI,Normal,20,13.0,18.0,,9999.0,Light Rain,6.0,4.0,29.96,,61,,,,,,,,,,,,,,,1700.0,1800.0,SCT,1800.0,OVC,2300.0,,,,
KRDR,05-11-2015,23:58,METAR,Normal,30,15.0,,,9999.0,Light Rain,5.8,4.2,29.95,1015.6,61,,,,,,,,,,.02 IN,,.24 IN,,,1400.0,1100.0,FEW,1100.0,BKN,1800.0,OVC,2400.0,,
KRDR,05-11-2015,23:47,SPECI,Normal,30,12.0,,,9999.0,Light Rain,6.0,4.0,29.95,,61,,,,,,,,,,,,,,,1600.0,1100.0,FEW,1100.0,BKN,1600.0,OVC,2500.0,,
KRDR,05-11-2015,23:43,SPECI,Normal,30,14.0,18.0,,9999.0,Light Rain,6.0,4.0,29.95,,61,,,,,,,,,,,,,,,1600.0,1600.0,BKN,1600.0,OVC,2700.0,,,,
KRDR,05-11-2015,22:58,METAR,Normal,40,16.0,,,9999.0,Light Rain,5.9,4.2,29.93,1014.9,61,,,,,,,,,,.05 IN,,,,,2600.0,2600.0,OVC,2600.0,,,,,,
KRDR,05-11-2015,22:41,SPECI,Normal,50,14.0,,,9999.0,Light Rain,6.0,4.0,29.92,,61,,,,,,,,,,,,,,,1100.0,1100.0,SCT,1100.0,SCT,1600.0,OVC,2500.0,,
KRDR,05-11-2015,22:36,SPECI,Normal,50,16.0,23.0,,9999.0,Light Rain/Mist,6.0,4.0,29.92,,61,10,,,,,,,,,,,,,,1100.0,1100.0,SCT,1100.0,BKN,1600.0,OVC,2900.0,,
KRDR,05-11-2015,22:34,SPECI,Normal,40,18.0,23.0,,9999.0,Light Rain/Mist,6.0,4.0,29.92,,61,10,,,,,,,,,,,,,,1100.0,1300.0,BKN,1300.0,BKN,2300.0,OVC,2900.0,,
KRDR,05-11-2015,22:29,SPECI,Normal,50,18.0,23.0,,9999.0,Light Rain/Mist,6.0,4.0,29.92,,61,10,,,,,,,,,,,,,,1100.0,1100.0,BKN,1100.0,BKN,1600.0,OVC,3000.0,,
KRDR,05-11-2015,22:23,SPECI,Normal,40,18.0,24.0,,9999.0,Light Rain/Mist,6.0,5.0,29.92,,61,10,,,,,,,,,,,,,,1300.0,1300.0,BKN,1300.0,BKN,2100.0,OVC,3100.0,,
KRDR,05-11-2015,21:58,METAR,Normal,40,16.0,24.0,360/28KTS,9999.0,Light Rain/Mist,6.4,3.9,29.91,1014.1,61,10,,,,,,,,,.03 IN,,,,,2400.0,1400.0,FEW,1400.0,BKN,2400.0,OVC,2900.0,,
KRDR,05-11-2015,21:08,SPECI,Normal,20,12.0,18.0,,9999.0,Light Rain,6.0,4.0,29.90,,61,,,,,,,,,,,,,,,2100.0,2100.0,OVC,2100.0,,,,,,
KRDR,05-11-2015,20:58,METAR,Normal,20,13.0,24.0,010/27KTS,9999.0,Light Rain,5.6,3.6,29.90,1013.8,61,,,,,,,,,,.07 IN,.14 IN,,,,1900.0,1900.0,BKN,1900.0,OVC,2500.0,,,,
KRDR,05-11-2015,20:18,SPECI,Normal,20,17.0,27.0,,8000.0,Light Rain/Mist,5.0,3.0,29.89,,61,10,,,,,,,,,,,,,,1700.0,1700.0,BKN,1700.0,OVC,2600.0,,,,
KRDR,05-11-2015,19:58,METAR,Normal,20,19.0,22.0,350/28KTS,9999.0,Light Rain/Mist,5.1,3.3,29.89,1013.5,61,10,,,,,,,,,.02 IN,,,,,1700.0,1700.0,OVC,1700.0,,,,,,
KRDR,05-11-2015,19:33,SPECI,Normal,20,18.0,26.0,,9999.0,Light Rain,5.0,3.0,29.89,,61,,,,,,,,,,,,,,,1600.0,1600.0,OVC,1600.0,,,,,,
KRDR,05-11-2015,18:58,METAR,Normal,20,21.0,27.0,350/27KTS,9999.0,Light Rain,4.5,2.8,29.88,1013.2,61,,,,,,,,,,.05 IN,,,,,1200.0,1200.0,OVC,1200.0,,,,,,
KRDR,05-11-2015,18:40,SPECI,Normal,20,20.0,27.0,,9999.0,Light Rain,4.0,3.0,29.88,,61,,,,,,,,,,,,,,,1100.0,1100.0,OVC,1100.0,,,,,,
KRDR,05-11-2015,18:38,SPECI,Normal,10,18.0,27.0,,9999.0,Unknown Precipitation,4.0,3.0,29.88,,40,,,,,,,,,,,,,,,1200.0,1200.0,OVC,1200.0,,,,,,
KRDR,05-11-2015,17:58,METAR,Normal,20,17.0,23.0,020/29KTS,9999.0,Light Rain,3.4,2.1,29.89,1013.5,61,,,,,,,,,,.09 IN,,.4 IN,,,900.0,900.0,OVC,900.0,,,,,,
KRDR,05-11-2015,17:10,SPECI,Normal,20,17.0,28.0,,6400.0,Rain/Mist,3.0,2.0,29.88,,,,,61,10,,,,,,,,,,,900.0,900.0,OVC,900.0,,,,,,
KRDR,05-11-2015,16:58,METAR,Normal,20,18.0,28.0,030/29KTS,6400.0,Light Rain/Mist,2.9,1.6,29.88,1013.2,61,10,,,,,,,,,.11 IN,,,,,800.0,800.0,OVC,800.0,,,,,,
KRDR,05-11-2015,15:58,METAR,Normal,30,18.0,27.0,030/29KTS,9999.0,Light Rain,3.0,1.8,29.88,1013.2,61,,,,,,,,,,.08 IN,,,,,800.0,800.0,OVC,800.0,,,,,,
KRDR,05-11-2015,15:48,SPECI,Normal,30,17.0,26.0,,8000.0,Light Rain/Mist,3.0,2.0,29.87,,61,10,,,,,,,,,,,,,,800.0,800.0,OVC,800.0,,,,,,
KRDR,05-11-2015,15:43,SPECI,Normal,20,20.0,26.0,,8000.0,Light Rain/Mist,3.0,2.0,29.87,,61,10,,,,,,,,,,,,,,700.0,700.0,OVC,700.0,,,,,,
KRDR,05-11-2015,15:38,SPECI,Normal,30,20.0,29.0,,9999.0,Light Rain/Mist,3.0,2.0,29.87,,61,10,,,,,,,,,,,,,,800.0,800.0,OVC,800.0,,,,,,
KRDR,05-11-2015,15:33,SPECI,Normal,10,18.0,25.0,,9999.0,Light Rain,3.0,2.0,29.87,,61,,,,,,,,,,,,,,,700.0,700.0,OVC,700.0,,,,,,
KRDR,05-11-2015,15:28,SPECI,Normal,30,20.0,28.0,,8000.0,Light Rain/Mist,3.0,2.0,29.87,,61,10,,,,,,,,,,,,,,700.0,700.0,OVC,700.0,,,,,,
KRDR,05-11-2015,15:18,SPECI,Normal,30,20.0,24.0,,8000.0,Light Rain/Mist,3.0,2.0,29.87,,61,10,,,,,,,,,,,,,,800.0,800.0,OVC,800.0,,,,,,
KRDR,05-11-2015,14:58,METAR,Normal,30,18.0,25.0,010/26KTS,6400.0,Light Rain/Mist,3.0,2.0,29.87,1012.8,61,10,,,,,,,,,.07 IN,.12 IN,,,,700.0,700.0,OVC,700.0,,,,,,
KRDR,05-11-2015,14:33,SPECI,Normal,30,17.0,23.0,,9999.0,Light Rain/Mist,3.0,2.0,29.88,,61,10,,,,,,,,,,,,,,700.0,700.0,OVC,700.0,,,,,,
KRDR,05-11-2015,13:58,METAR,Normal,30,18.0,22.0,030/26KTS,4800.0,Light Rain/Mist,2.8,1.9,29.87,1012.8,61,10,,,,,,,,,.04 IN,,,,,600.0,600.0,OVC,600.0,,,,,,
KRDR,05-11-2015,13:48,SPECI,Normal,30,18.0,25.0,,4800.0,Light Rain/Mist,3.0,2.0,29.87,,61,10,,,,,,,,,,,,,,600.0,600.0,OVC,600.0,,,,,,
KRDR,05-11-2015,13:38,SPECI,Normal,40,19.0,25.0,,3200.0,Light Rain/Mist,3.0,2.0,29.87,,61,10,,,,,,,,,,,,,,500.0,500.0,OVC,500.0,,,,,,
KRDR,05-11-2015,13:28,SPECI,Normal,40,18.0,26.0,,2800.0,Light Rain/Mist,3.0,2.0,29.88,,61,10,,,,,,,,,,,,,,500.0,500.0,OVC,500.0,,,,,,
KRDR,05-11-2015,13:13,SPECI,Normal,40,16.0,,,3200.0,Light Rain/Mist,3.0,2.0,29.88,,61,10,,,,,,,,,,,,,,500.0,500.0,OVC,500.0,,,,,,
KRDR,05-11-2015,12:58,METAR,Normal,40,16.0,24.0,020/26KTS,4000.0,Light Rain/Mist,2.4,1.5,29.89,1013.5,61,10,,,,,,,,,.01 IN,,,,,600.0,600.0,OVC,600.0,,,,,,
KRDR,05-11-2015,12:48,SPECI,Normal,40,17.0,24.0,,4000.0,Light Rain/Mist,2.0,2.0,29.89,,61,10,,,,,,,,,,,,,,600.0,600.0,OVC,600.0,,,,,,
KRDR,05-11-2015,11:58,METAR,Normal,30,18.0,26.0,010/27KTS,4800.0,Light Rain/Mist,2.4,1.5,29.88,1013.2,61,10,,,,,,,,,.02 IN,,.17 IN,.5 IN,,600.0,600.0,OVC,600.0,,,,,,
KRDR,05-11-2015,11:48,SPECI,Normal,30,18.0,24.0,,4000.0,Light Rain/Mist,2.0,2.0,29.88,,61,10,,,,,,,,,,,,,,600.0,600.0,OVC,600.0,,,,,,
KRDR,05-11-2015,11:33,SPECI,Normal,30,19.0,26.0,,4800.0,Light Rain/Mist,2.0,1.0,29.88,,61,10,,,,,,,,,,,,,,600.0,600.0,OVC,600.0,,,,,,
KRDR,05-11-2015,11:23,SPECI,Normal,30,21.0,26.0,,6400.0,Light Rain/Mist,2.0,2.0,29.88,,61,10,,,,,,,,,,,,,,700.0,700.0,OVC,700.0,,,,,,
KRDR,05-11-2015,11:18,SPECI,Normal,30,17.0,25.0,,8000.0,Light Rain/Mist,3.0,2.0,29.89,,61,10,,,,,,,,,,,,,,700.0,700.0,OVC,700.0,,,,,,
KRDR,05-11-2015,11:13,SPECI,Normal,30,17.0,25.0,,9999.0,Light Rain/Mist,2.0,2.0,29.89,,61,10,,,,,,,,,,,,,,700.0,700.0,OVC,700.0,,,,,,
KRDR,05-11-2015,10:58,METAR,Normal,30,18.0,26.0,010/27KTS,9999.0,Light Rain/Mist,2.5,1.5,29.89,1013.5,61,10,,,,,,,,,.02 IN,,,,,600.0,600.0,OVC,600.0,,,,,,
KRDR,05-11-2015,10:48,SPECI,Normal,30,19.0,26.0,,6400.0,Light Rain/Mist,3.0,1.0,29.89,,61,10,,,,,,,,,,,,,,600.0,600.0,OVC,600.0,,,,,,
KRDR,05-11-2015,10:38,SPECI,Normal,30,20.0,26.0,,8000.0,Light Rain/Mist,3.0,2.0,29.89,,61,10,,,,,,,,,,,,,,700.0,700.0,OVC,700.0,,,,,,
KRDR,05-11-2015,10:13,SPECI,Normal,30,18.0,26.0,,9999.0,Light Rain,3.0,2.0,29.90,,61,,,,,,,,,,,,,,,700.0,700.0,OVC,700.0,,,,,,
KRDR,05-11-2015,10:03,SPECI,Normal,40,20.0,26.0,,9999.0,Light Rain,3.0,2.0,29.89,,61,,,,,,,,,,,,,,,700.0,700.0,OVC,700.0,,,,,,
KRDR,05-11-2015,09:58,METAR,Normal,30,21.0,26.0,030/28KTS,9999.0,Light Rain/Mist,3.0,2.0,29.90,1013.8,61,10,,,,,,,,,.05 IN,,,,,700.0,700.0,OVC,700.0,,,,,,
KRDR,05-11-2015,09:48,SPECI,Normal,30,20.0,26.0,,9999.0,Light Rain/Mist,3.0,2.0,29.90,,61,10,,,,,,,,,,,,,,700.0,700.0,OVC,700.0,,,,,,
KRDR,05-11-2015,09:33,SPECI,Normal,40,17.0,25.0,,9999.0,Light Rain,3.0,2.0,29.91,,61,,,,,,,,,,,,,,,700.0,700.0,OVC,700.0,,,,,,
KRDR,05-11-2015,08:58,METAR,Normal,40,18.0,24.0,010/26KTS,8000.0,Light Rain/Mist,2.9,1.9,29.92,1014.5,61,10,,,,,,,,,.01 IN,.08 IN,,,,700.0,700.0,BKN,700.0,OVC,1200.0,,,,
KRDR,05-11-2015,08:56,SPECI,Normal,40,18.0,24.0,,8000.0,Light Rain/Mist,3.0,2.0,29.92,,61,10,,,,,,,,,,,,,,700.0,700.0,BKN,700.0,OVC,1200.0,,,,
KRDR,05-11-2015,08:51,SPECI,Normal,40,18.0,,,8000.0,Light Rain/Mist,3.0,2.0,29.91,,61,10,,,,,,,,,,,,,,700.0,700.0,BKN,700.0,OVC,1200.0,,,,
KRDR,05-11-2015,08:41,SPECI,Normal,40,16.0,24.0,,9999.0,Light Rain/Mist,3.0,2.0,29.92,,61,10,,,,,,,,,,,,,,800.0,800.0,BKN,800.0,OVC,1200.0,,,,
KRDR,05-11-2015,08:31,SPECI,Normal,40,18.0,22.0,,9999.0,Light Rain,3.0,2.0,29.92,,61,,,,,,,,,,,,,,,1000.0,1000.0,OVC,1000.0,,,,,,
KRDR,05-11-2015,08:26,SPECI,Normal,40,16.0,24.0,,9999.0,Unknown Precipitation,3.0,2.0,29.92,,40,,,,,,,,,,,,,,,900.0,900.0,OVC,900.0,,,,,,
KRDR,05-11-2015,07:58,METAR,Normal,40,19.0,24.0,,9999.0,,2.8,1.6,29.93,1014.8,,,,,,,,,,,.02 IN,,,,,900.0,900.0,BKN,900.0,OVC,1900.0,,,,
KRDR,05-11-2015,07:48,SPECI,Normal,40,18.0,24.0,,9999.0,,3.0,2.0,29.93,,,,,,,,,,,,,,,,,800.0,800.0,BKN,800.0,OVC,2000.0,,,,
KRDR,05-11-2015,07:38,SPECI,Normal,40,17.0,22.0,,9999.0,Light Rain,3.0,2.0,29.94,,61,,,,,,,,,,,,,,,800.0,800.0,BKN,800.0,OVC,1300.0,,,,
KRDR,05-11-2015,07:37,SPECI,Normal,40,18.0,22.0,,9999.0,,3.0,2.0,29.95,,,,,,,,,,,,,,,,,800.0,800.0,BKN,800.0,OVC,1300.0,,,,
KRDR,05-11-2015,07:23,SPECI,Normal,40,15.0,,,9999.0,Light Rain,3.0,2.0,29.96,,61,,,,,,,,,,,,,,,800.0,800.0,OVC,800.0,,,,,,
KRDR,05-11-2015,07:13,SPECI,Normal,40,19.0,24.0,,9999.0,Light Rain,3.0,2.0,29.96,,61,,,,,,,,,,,,,,,900.0,900.0,OVC,900.0,,,,,,
KRDR,05-11-2015,07:03,SPECI,Normal,50,18.0,24.0,,9999.0,Light Rain,3.0,2.0,29.97,,61,,,,,,,,,,,,,,,900.0,900.0,OVC,900.0,,,,,,
KRDR,05-11-2015,06:58,METAR,Normal,50,17.0,20.0,,9999.0,Light Rain,3.4,2.2,29.97,1016.2,61,,,,,,,,,,.05 IN,,,,,900.0,900.0,OVC,900.0,,,,,,
KRDR,05-11-2015,06:55,SPECI,Normal,50,14.0,20.0,,9999.0,Light Rain,3.0,2.0,29.97,,61,,,,,,,,,,,,,,,900.0,900.0,OVC,900.0,,,,,,
KRDR,05-11-2015,06:50,SPECI,Normal,50,14.0,,,9999.0,Light Rain,3.0,2.0,29.98,,61,,,,,,,,,,,,,,,900.0,900.0,OVC,900.0,,,,,,
KRDR,05-11-2015,06:45,SPECI,Normal,50,14.0,21.0,,9999.0,Light Rain,3.0,2.0,29.98,,61,,,,,,,,,,,,,,,900.0,900.0,OVC,900.0,,,,,,
KRDR,05-11-2015,06:15,SPECI,Normal,50,14.0,22.0,,9999.0,Unknown Precipitation,4.0,2.0,30.00,,40,,,,,,,,,,,,,,,1100.0,1100.0,OVC,1100.0,,,,,,
KRDR,05-11-2015,06:03,SPECI,Normal,50,15.0,20.0,,9999.0,Light Rain,4.0,2.0,30.00,,61,,,,,,,,,,,,,,,1400.0,1400.0,OVC,1400.0,,,,,,
KRDR,05-11-2015,05:58,METAR,Normal,50,15.0,,,9999.0,Light Rain,4.0,2.5,30.00,1017.2,61,,,,,,,,,,.04 IN,,.09 IN,,,1400.0,1400.0,OVC,1400.0,,,,,,
KRDR,05-11-2015,05:48,SPECI,Normal,50,15.0,25.0,,9999.0,Unknown Precipitation,4.0,2.0,30.01,,40,,,,,,,,,,,,,,,1500.0,1500.0,OVC,1500.0,,,,,,
KRDR,05-11-2015,05:43,SPECI,Normal,50,16.0,25.0,,9999.0,Unknown Precipitation/Mist,4.0,2.0,30.00,,40,10,,,,,,,,,,,,,,1600.0,1600.0,OVC,1600.0,,,,,,
KRDR,05-11-2015,05:23,SPECI,Normal,50,16.0,22.0,,9999.0,Unknown Precipitation,4.0,2.0,30.01,,40,,,,,,,,,,,,,,,1800.0,1800.0,BKN,1800.0,OVC,2400.0,,,,
KRDR,05-11-2015,05:13,SPECI,Normal,50,14.0,22.0,,9999.0,Light Rain,4.0,2.0,30.01,,61,,,,,,,,,,,,,,,2100.0,2100.0,BKN,2100.0,OVC,3100.0,,,,
KRDR,05-11-2015,04:58,METAR,Normal,50,17.0,21.0,,9999.0,Light Rain,4.3,2.6,30.00,1017.2,61,,,,,,,,,,.03 IN,,,,,2300.0,2300.0,BKN,2300.0,OVC,3100.0,,,,
KRDR,05-11-2015,04:47,SPECI,Normal,50,15.0,,,9999.0,Light Rain,4.0,3.0,30.00,,61,,,,,,,,,,,,,,,2500.0,2500.0,BKN,2500.0,OVC,3200.0,,,,
KRDR,05-11-2015,04:42,SPECI,Normal,50,15.0,20.0,,9999.0,Light Rain,4.0,3.0,30.00,,61,,,,,,,,,,,,,,,2300.0,2300.0,BKN,2300.0,OVC,3000.0,,,,
KRDR,05-11-2015,04:22,SPECI,Normal,50,17.0,24.0,,9999.0,Light Rain,4.0,3.0,30.00,,61,,,,,,,,,,,,,,,3000.0,900.0,FEW,900.0,SCT,2000.0,OVC,3000.0,,
KRDR,05-11-2015,03:58,METAR,Normal,50,15.0,21.0,,9999.0,Light Rain,4.5,3.0,30.01,1017.5,61,,,,,,,,,,.01 IN,,,,,2900.0,1600.0,FEW,1600.0,OVC,2900.0,,,,
KRDR,05-11-2015,02:58,METAR,Normal,50,16.0,,,9999.0,Light Rain,4.7,3.0,30.02,1017.9,61,,,,,,,,,,.01 IN,.01 IN,,,,2300.0,1600.0,SCT,1600.0,BKN,2300.0,OVC,3900.0,,
KRDR,05-11-2015,02:34,SPECI,Normal,50,17.0,22.0,,9999.0,Light Drizzle,5.0,3.0,30.03,,51,,,,,,,,,,,,,,,3300.0,2200.0,SCT,2200.0,OVC,3300.0,,,,
KRDR,05-11-2015,01:58,METAR,Normal,50,17.0,,,9999.0,,4.5,3.3,30.03,1018.2,,,,,,,,,,,TRACE,,,,,3400.0,3400.0,OVC,3400.0,,,,,,
KRDR,05-11-2015,01:55,SPECI,Normal,50,15.0,,,9999.0,,5.0,3.0,30.03,,,,,,,,,,,,,,,,,3400.0,900.0,FEW,900.0,OVC,3400.0,,,,
KRDR,05-11-2015,01:50,SPECI,Normal,60,15.0,23.0,,9999.0,,5.0,3.0,30.03,,,,,,,,,,,,,,,,,3400.0,900.0,FEW,900.0,OVC,3400.0,,,,
KRDR,05-11-2015,01:49,SPECI,Normal,50,16.0,23.0,,9999.0,Light Drizzle,5.0,3.0,30.03,,51,,,,,,,,,,,,,,,3400.0,900.0,FEW,900.0,OVC,3400.0,,,,
KRDR,05-11-2015,01:24,SPECI,Normal,50,16.0,22.0,,9999.0,Unknown Precipitation,5.0,3.0,30.04,,40,,,,,,,,,,,,,,,3700.0,900.0,FEW,900.0,OVC,3700.0,,,,
KRDR,05-11-2015,01:07,SPECI,Normal,40,14.0,20.0,,9999.0,Unknown Precipitation,5.0,3.0,30.04,,40,,,,,,,,,,,,,,,3800.0,3800.0,OVC,3800.0,,,,,,
KRDR,05-11-2015,00:58,METAR,Normal,40,15.0,,,9999.0,,5.3,3.2,30.05,1018.9,,,,,,,,,,,,,,,,3900.0,3900.0,OVC,3900.0,,,,,,
KRDR,05-10-2015,23:58,METAR,Normal,60,14.0,,,9999.0,,6.0,2.7,30.08,1019.9,,,,,,,,,,,TRACE,,.08 IN,,,2500.0,2500.0,OVC,2500.0,,,,,,
KRDR,05-10-2015,22:58,METAR,Normal,50,19.0,26.0,070/28KTS,9999.0,,6.1,3.5,30.03,1018.2,,,,,,,,,,,.02 IN,,,,,2200.0,2200.0,OVC,2200.0,,,,,,
KRDR,05-10-2015,22:56,SPECI,Normal,50,21.0,26.0,,9999.0,,6.0,3.0,30.03,,,,,,,,,,,,,,,,,2200.0,2200.0,OVC,2200.0,,,,,,
KRDR,05-10-2015,22:38,SPECI,Normal,50,15.0,23.0,,9999.0,Light Rain,6.0,4.0,30.06,,61,,,,,,,,,,,,,,,1600.0,1700.0,SCT,1700.0,OVC,2200.0,,,,
KRDR,05-10-2015,22:33,SPECI,Normal,50,18.0,24.0,,9999.0,Light Rain,6.0,4.0,30.06,,61,,,,,,,,,,,,,,,1600.0,1600.0,SCT,1600.0,OVC,2300.0,,,,
KRDR,05-10-2015,22:23,SPECI,Normal,40,15.0,,,9999.0,Unknown Precipitation,6.0,4.0,30.05,,40,,,,,,,,,,,,,,,1500.0,1500.0,BKN,1500.0,BKN,2400.0,OVC,3000.0,,
KRDR,05-10-2015,22:18,SPECI,Normal,50,15.0,22.0,,9999.0,Unknown Precipitation,6.0,4.0,30.06,,40,,,,,,,,,,,,,,,2100.0,1500.0,SCT,1500.0,BKN,2100.0,OVC,3000.0,,
KRDR,05-10-2015,21:58,METAR,Normal,40,18.0,22.0,40/27KTS,9999.0,Light Rain,6.0,4.1,30.07,1019.6,61,,,,,,,,,,.03 IN,,,,,1800.0,1800.0,BKN,1800.0,BKN,2500.0,OVC,3000.0,,
KRDR,05-10-2015,21:56,SPECI,Normal,40,19.0,22.0,,9999.0,Unknown Precipitation,6.0,4.0,30.07,,40,,,,,,,,,,,,,,,1600.0,1100.0,FEW,1100.0,BKN,1900.0,OVC,2600.0,,
KRDR,05-10-2015,21:55,SPECI,Normal,40,16.0,22.0,,9999.0,Unknown Precipitation,6.0,4.0,30.08,,40,,,,,,,,,,,,,,,1600.0,1200.0,FEW,1200.0,BKN,2000.0,OVC,2600.0,,
KRDR,05-10-2015,21:34,SPECI,Normal,40,16.0,23.0,,9999.0,Unknown Precipitation,6.0,4.0,30.09,,40,,,,,,,,,,,,,,,1500.0,1500.0,BKN,1500.0,OVC,2100.0,,,,
KRDR,05-10-2015,21:24,SPECI,Normal,40,16.0,,,9999.0,Light Rain,6.0,4.0,30.10,,61,,,,,,,,,,,,,,,1400.0,1400.0,BKN,1400.0,OVC,2100.0,,,,
KRDR,05-10-2015,21:14,SPECI,Normal,40,15.0,21.0,,9999.0,Light Rain,6.0,4.0,30.12,,61,,,,,,,,,,,,,,,1400.0,1400.0,BKN,1400.0,OVC,2100.0,,,,
KRDR,05-10-2015,20:58,METAR,Normal,30,16.0,24.0,070/26KTS,9999.0,,6.3,4.1,30.11,1020.9,,,,,,,,,,,TRACE,.03 IN,,,,1300.0,1300.0,OVC,1300.0,,,,,,
KRDR,05-10-2015,20:43,SPECI,Normal,40,15.0,21.0,,9999.0,,7.0,5.0,30.11,,,,,,,,,,,,,,,,,1300.0,1300.0,OVC,1300.0,,,,,,
KRDR,05-10-2015,20:07,SPECI,Normal,30,16.0,21.0,,9999.0,,6.0,4.0,30.12,,,,,,,,,,,,,,,,,1100.0,1100.0,BKN,1100.0,BKN,2100.0,OVC,7000.0,,
KRDR,05-10-2015,20:06,SPECI,Normal,30,14.0,21.0,,9999.0,,6.0,4.0,30.12,,,,,,,,,,,,,,,,,1200.0,1200.0,BKN,1200.0,BKN,2100.0,OVC,7000.0,,
KRDR,05-10-2015,20:01,SPECI,Normal,30,13.0,19.0,,9999.0,,6.0,4.0,30.12,,,,,,,,,,,,,,,,,2100.0,1000.0,FEW,1000.0,BKN,2100.0,OVC,7000.0,,
KRDR,05-10-2015,19:58,METAR,Normal,30,14.0,21.0,050/26KTS,9999.0,,5.6,4.1,30.13,1021.6,,,,,,,,,,,.03 IN,,,,,2200.0,1200.0,SCT,1200.0,BKN,2200.0,OVC,7000.0,,
KRDR,05-10-2015,19:56,SPECI,Normal,30,14.0,21.0,,9999.0,,6.0,4.0,30.13,,,,,,,,,,,,,,,,,2000.0,1200.0,SCT,1200.0,BKN,2000.0,OVC,7000.0,,
KRDR,05-10-2015,19:47,SPECI,Normal,30,15.0,23.0,,9999.0,Light Rain,6.0,4.0,30.12,,61,,,,,,,,,,,,,,,2300.0,900.0,FEW,900.0,SCT,1500.0,OVC,2300.0,,
KRDR,05-10-2015,19:42,SPECI,Normal,30,16.0,22.0,,9999.0,Light Rain,5.0,4.0,30.12,,61,,,,,,,,,,,,,,,1900.0,1000.0,FEW,1000.0,BKN,1900.0,OVC,2700.0,,
KRDR,05-10-2015,19:40,SPECI,Normal,20,17.0,22.0,,9999.0,Light Rain,5.0,4.0,30.13,,61,,,,,,,,,,,,,,,1900.0,1200.0,FEW,1200.0,BKN,1900.0,OVC,2700.0,,
KRDR,05-10-2015,19:15,SPECI,Normal,30,14.0,,,9999.0,Light Rain,5.0,4.0,30.14,,61,,,,,,,,,,,,,,,3500.0,1400.0,SCT,1400.0,BKN,3500.0,OVC,4500.0,,
KRDR,05-10-2015,18:58,METAR,Normal,30,14.0,21.0,,9999.0,,5.4,3.9,30.14,1021.9,,,,,,,,,,,TRACE,,,,,4200.0,1300.0,SCT,1300.0,BKN,4200.0,OVC,4900.0,,
KRDR,05-10-2015,18:20,SPECI,Normal,30,14.0,21.0,,9999.0,,5.0,4.0,30.11,,,,,,,,,,,,,,,,,3600.0,800.0,FEW,800.0,BKN,3600.0,OVC,4500.0,,
KRDR,05-10-2015,18:04,SPECI,Normal,30,15.0,22.0,,9999.0,Light Rain,5.0,4.0,30.10,,61,,,,,,,,,,,,,,,3900.0,800.0,FEW,800.0,SCT,1400.0,OVC,3900.0,,
KRDR,05-10-2015,17:59,SPECI,Normal,20,16.0,22.0,,9999.0,Light Rain,5.0,4.0,30.10,,61,,,,,,,,,,,,,,,1500.0,1000.0,SCT,1000.0,BKN,1500.0,OVC,3600.0,,
KRDR,05-10-2015,17:58,METAR,Normal,30,16.0,22.0,,9999.0,Unknown Precipitation,5.0,3.7,30.10,1020.5,40,,,,,,,,,,.1 IN,,.16 IN,,,1200.0,1200.0,BKN,1200.0,OVC,3600.0,,,,
KRDR,05-10-2015,17:51,SPECI,Normal,40,17.0,22.0,,9999.0,Unknown Precipitation,5.0,4.0,30.11,,40,,,,,,,,,,,,,,,1300.0,800.0,FEW,800.0,BKN,1400.0,OVC,2900.0,,
KRDR,05-10-2015,17:41,SPECI,Normal,50,14.0,18.0,,8000.0,Light Rain/Mist,5.0,3.0,30.13,,61,10,,,,,,,,,,,,,,1400.0,800.0,SCT,800.0,BKN,1900.0,OVC,2700.0,,
KRDR,05-10-2015,17:36,SPECI,Normal,50,12.0,,,8000.0,Rain/Mist,5.0,4.0,30.14,,62,10,,,,,,,,,,,,,,1900.0,700.0,FEW,700.0,BKN,1900.0,OVC,2700.0,,
KRDR,05-10-2015,17:20,SPECI,Normal,40,12.0,,,9999.0,Rain/Mist,5.0,4.0,30.17,,62,10,,,,,,,,,,,,,,2400.0,1100.0,FEW,1100.0,BKN,2500.0,OVC,3100.0,,
KRDR,05-10-2015,16:58,METAR,Normal,40,11.0,,,9999.0,Light Rain,5.1,3.5,30.19,1023.6,61,,,,,,,,,,.04 IN,,,,,3900.0,2700.0,SCT,2700.0,OVC,3900.0,,,,
KRDR,05-10-2015,15:58,METAR,Normal,70,12.0,,,9999.0,Light Rain,4.9,2.4,30.19,1023.5,61,,,,,,,,,,.02 IN,,,,,3100.0,3100.0,OVC,3100.0,,,,,,
KRDR,05-10-2015,14:58,METAR,Normal,60,11.0,,,9999.0,Light Rain,4.8,1.2,30.20,1023.9,61,,,,,,,,,,TRACE,TRACE,,,,3200.0,3200.0,OVC,3200.0,,,,,,
KRDR,05-10-2015,14:41,SPECI,Normal,50,10.0,,,9999.0,Unknown Precipitation,5.0,0.0,30.20,,40,,,,,,,,,,,,,,4/8 Partly Cloudy,72000.0,3200.0,SCT,3200.0,,,,,,
KRDR,05-10-2015,13:58,METAR,Normal,50,11.0,,,9999.0,,4.5,0.3,30.21,1024.2,,,,,,,,,,,,,,,,3400.0,3400.0,BKN,3400.0,,,,,,
KRDR,05-10-2015,12:58,METAR,Normal,40,10.0,,,9999.0,,4.1,0.5,30.22,1024.5,,,,,,,,,,,TRACE,,,,,7500.0,7500.0,OVC,7500.0,,,,,,
KRDR,05-10-2015,12:13,SPECI,Normal,40,9.0,,,9999.0,,4.0,1.0,30.22,,,,,,,,,,,,,,,,2/8 Mostly Clear,72000.0,3400.0,FEW,3400.0,,,,,,
KRDR,05-10-2015,11:58,METAR,Normal,50,9.0,,,9999.0,Light Drizzle,3.8,0.8,30.23,1024.9,51,,,,,,,,,,TRACE,,TRACE,,2/8 Mostly Clear,72000.0,3500.0,FEW,3500.0,,,,,,
KRDR,05-10-2015,11:50,SPECI,Normal,50,7.0,,,9999.0,Light Drizzle,4.0,0.0,30.24,,51,,,,,,,,,,,,,,2/8 Mostly Clear,72000.0,3600.0,FEW,3600.0,,,,,,
KRDR,05-10-2015,11:42,SPECI,Normal,60,8.0,,,9999.0,,4.0,0.0,30.24,,,,,,,,,,,,,,,,Clear,72000.0,,,,,,,,,
KRDR,05-10-2015,11:32,SPECI,Normal,60,8.0,,,9999.0,Light Rain,4.0,0.0,30.24,,61,,,,,,,,,,,,,,2/8 Mostly Clear,72000.0,1300.0,FEW,1300.0,,,,,,
KRDR,05-10-2015,11:15,SPECI,Normal,60,8.0,,,9999.0,,4.0,0.0,30.24,,,,,,,,,,,,,,,,Clear,72000.0,,,,,,,,,
KRDR,05-10-2015,10:58,METAR,Normal,60,8.0,,,9999.0,Unknown Precipitation,4.2,-0.3,30.24,1025.2,40,,,,,,,,,,,,,,4/8 Partly Cloudy,72000.0,5000.0,SCT,5000.0,,,,,,
KRDR,05-10-2015,10:56,SPECI,Normal,60,9.0,,,9999.0,Unknown Precipitation,4.0,0.0,30.24,,40,,,,,,,,,,,,,,4/8 Partly Cloudy,72000.0,5000.0,SCT,5000.0,,,,,,
KRDR,05-10-2015,09:58,METAR,Normal,40,7.0,,,9999.0,,4.2,-0.5,30.26,1025.8,,,,,,,,,,,,,,,2/8 Mostly Clear,72000.0,11000.0,FEW,11000.0,,,,,,
KRDR,05-10-2015,08:58,METAR,Normal,30,6.0,,,9999.0,,4.8,-0.9,30.26,1025.8,,,,,,,,,,,,,,,2/8 Mostly Clear,72000.0,9000.0,FEW,9100.0,,,,,,
KRDR,05-10-2015,07:58,METAR,Normal,60,8.0,,,9999.0,,5.6,-1.5,30.26,1025.8,,,,,,,,,,,,,,,2/8 Mostly Clear,72000.0,9000.0,FEW,9100.0,,,,,,
KRDR,05-10-2015,06:58,METAR,Normal,60,6.0,,,9999.0,,5.9,-1.4,30.28,1026.6,,,,,,,,,,,,,,,,8500.0,8500.0,BKN,8600.0,,,,,,
KRDR,05-10-2015,05:58,METAR,Normal,60,8.0,,,9999.0,,6.4,-1.4,30.28,1026.7,,,,,,,,,,,,,,,4/8 Partly Cloudy,72000.0,10000.0,SCT,10000.0,,,,,,
KRDR,05-10-2015,04:58,METAR,Normal,80,9.0,,,9999.0,,7.0,-1.6,30.28,1026.6,,,,,,,,,,,,,,,Clear,72000.0,,,,,,,,,
KRDR,05-10-2015,03:58,METAR,Normal,80,8.0,,,9999.0,,7.7,-1.5,30.29,1026.9,,,,,,,,,,,,,,,Clear,72000.0,,,,,,,,,
KRDR,05-10-2015,02:58,METAR,Normal,60,9.0,,,9999.0,,8.0,-2.0,30.29,1027.0,,,,,,,,,,,,,,,2/8 Mostly Clear,72000.0,10000.0,FEW,10000.0,,,,,,
KRDR,05-10-2015,01:58,METAR,Normal,70,8.0,,,9999.0,,8.5,-3.0,30.27,1026.4,,,,,,,,,,,,,,,Clear,72000.0,,,,,,,,,
KRDR,05-10-2015,00:58,METAR,Normal,30,10.0,,,9999.0,,9.1,-2.7,30.26,1026.1,,,,,,,,,,,,,,,Clear,72000.0,,,,,,,,,
KRDR,05-09-2015,23:58,METAR,Normal,20,12.0,,,9999.0,,9.8,-2.8,30.27,1026.4,,,,,,,,,,,,,,,Clear,72000.0,,,,,,,,,
KRDR,05-09-2015,22:58,METAR,Normal,40,11.0,,,9999.0,,10.4,-2.8,30.27,1026.4,,,,,,,,,,,,,,,2/8 Mostly Clear,72000.0,12000.0,FEW,12000.0,,,,,,
KRDR,05-09-2015,21:58,METAR,Normal,20,14.0,18.0,,9999.0,,10.3,-2.6,30.27,1026.4,,,,,,,,,,,,,,,2/8 Mostly Clear,72000.0,12000.0,FEW,12000.0,,,,,,
KRDR,05-09-2015,21:52,SPECI,Normal,50,10.0,19.0,,9999.0,,10.0,-3.0,30.28,,,,,,,,,,,,,,,,2/8 Mostly Clear,72000.0,12000.0,FEW,12000.0,,,,,,
KRDR,05-09-2015,20:58,METAR,Variable,40,9.0,,,9999.0,,11.0,-1.9,30.30,1027.5,,,,,,,,,,,,,,,Clear,72000.0,,,,,,,,,
KRDR,05-09-2015,19:58,METAR,Normal,20,12.0,16.0,,9999.0,,8.5,-1.5,30.30,1027.4,,,,,,,,,,,,,,,4/8 Partly Cloudy,72000.0,3700.0,SCT,3700.0,,,,,,
KRDR,05-09-2015,18:58,METAR,Normal,10,13.0,,,9999.0,,7.0,-1.5,30.30,1027.5,,,,,,,,,,,,,,,,3200.0,3200.0,BKN,3200.0,OVC,12000.0,,,,
KRDR,05-09-2015,17:58,METAR,Normal,360,11.0,,,9999.0,,5.7,-1.4,30.31,1027.8,,,,,,,,,,,,,,,,2900.0,2900.0,OVC,2900.0,,,,,,
KRDR,05-09-2015,16:58,METAR,Normal,30,14.0,18.0,,9999.0,,5.4,-1.6,30.30,1027.5,,,,,,,,,,,,,,,,2600.0,2600.0,OVC,2600.0,,,,,,
KRDR,05-09-2015,15:58,METAR,Variable,50,9.0,,,9999.0,,5.1,-1.7,30.31,1027.8,,,,,,,,,,,,,,,,2300.0,2300.0,BKN,2300.0,,,,,,
KRDR,05-09-2015,15:23,SPECI,Normal,20,8.0,,,9999.0,,4.0,-2.0,30.33,,,,,,,,,,,,,,,,,12000.0,1900.0,SCT,1900.0,BKN,12000.0,,,,
KRDR,05-09-2015,14:58,METAR,Normal,10,9.0,,,9999.0,,3.7,-2.0,30.33,1028.5,,,,,,,,,,,,,,,,1800.0,1800.0,BKN,1800.0,OVC,3200.0,,,,
KRDR,05-09-2015,14:53,SPECI,Normal,20,7.0,,,9999.0,,4.0,-2.0,30.33,,,,,,,,,,,,,,,,,1800.0,1800.0,BKN,1800.0,OVC,3200.0,,,,
KRDR,05-09-2015,13:58,METAR,Normal,30,11.0,,,9999.0,,1.5,-2.8,30.33,1028.6,,,,,,,,,,,,,,,,3000.0,3000.0,BKN,3000.0,,,,,,
KRDR,05-09-2015,12:58,METAR,Normal,10,7.0,,,9999.0,,0.5,-2.9,30.34,1029.0,,,,,,,,,,,,,,,,3000.0,3000.0,OVC,3000.0,,,,,,
KRDR,05-09-2015,11:58,METAR,Normal,20,11.0,,,9999.0,,-0.2,-3.1,30.32,1028.3,,,,,,,,,,,,,,,,2900.0,2900.0,OVC,2900.0,,,,,,
KRDR,05-09-2015,10:58,METAR,Normal,20,7.0,,,9999.0,,-0.8,-3.5,30.32,1028.3,,,,,,,,,,,,,,,,2800.0,2800.0,OVC,2800.0,,,,,,
KRDR,05-09-2015,09:58,METAR,Normal,10,5.0,,,9999.0,,-1.4,-3.7,30.32,1028.3,,,,,,,,,,,,,,,,2400.0,2400.0,BKN,2400.0,OVC,12000.0,,,,
KRDR,05-09-2015,08:58,METAR,Normal,20,7.0,,,9999.0,,-1.5,-4.0,30.29,1027.4,,,,,,,,,,,,,,,4/8 Partly Cloudy,72000.0,3000.0,SCT,3000.0,SCT,12000.0,,,,
KRDR,05-09-2015,07:58,METAR,Normal,10,7.0,,,9999.0,,-0.1,-3.5,30.29,1027.3,,,,,,,,,,,,,,,,2900.0,2900.0,OVC,2900.0,,,,,,
KRDR,05-09-2015,06:58,METAR,Normal,30,8.0,,,9999.0,,0.6,-3.6,30.30,1027.6,,,,,,,,,,,,,,,,2800.0,2800.0,OVC,2800.0,,,,,,
KRDR,05-09-2015,05:58,METAR,Normal,30,7.0,,,9999.0,,1.0,-2.9,30.28,,,,,,,,,,,,,,,,,2700.0,2700.0,OVC,2700.0,,,,,,
KRDR,05-09-2015,04:58,METAR,Normal,20,9.0,,,9999.0,,2.3,-2.7,30.26,1026.2,,,,,,,,,,,,,,,,2800.0,2800.0,OVC,2800.0,,,,,,
KRDR,05-09-2015,03:58,METAR,Normal,20,10.0,,,9999.0,,2.6,-2.8,30.26,1026.1,,,,,,,,,,,,,,,,2800.0,2800.0,OVC,2800.0,,,,,,
KRDR,05-09-2015,02:58,METAR,Normal,20,12.0,,,9999.0,,3.0,-2.5,30.25,1025.9,,,,,,,,,,,,,,,,2700.0,2700.0,OVC,2700.0,,,,,,
KRDR,05-09-2015,01:58,METAR,Normal,30,8.0,,,9999.0,,3.3,-2.0,30.22,1024.8,,,,,,,,,,,,,,,,2500.0,2500.0,OVC,2500.0,,,,,,
KRDR,05-09-2015,00:58,METAR,Normal,20,13.0,,,9999.0,,3.8,-2.2,30.20,1024.1,,,,,,,,,,,,,,,,2600.0,2600.0,OVC,2600.0,,,,,,
KRDR,05-08-2015,23:58,METAR,Normal,10,9.0,,,9999.0,,3.8,-1.5,30.20,1024.1,,,,,,,,,,,,,TRACE,,,2400.0,2400.0,OVC,2400.0,,,,,,
KRDR,05-08-2015,22:58,METAR,Normal,10,11.0,,,9999.0,,3.8,-1.1,30.20,1024.1,,,,,,,,,,,,,,,,2000.0,2000.0,OVC,2000.0,,,,,,
KRDR,05-08-2015,21:58,METAR,Normal,10,13.0,20.0,,9999.0,,3.8,-1.3,30.20,1024.1,,,,,,,,,,,TRACE,,,,,2100.0,2100.0,OVC,2100.0,,,,,,
KRDR,05-08-2015,21:32,SPECI,Normal,360,16.0,,,9999.0,,4.0,-1.0,30.20,,,,,,,,,,,,,,,,,1800.0,1800.0,SCT,1800.0,OVC,2400.0,,,,
KRDR,05-08-2015,21:12,SPECI,Normal,10,14.0,22.0,,9999.0,,4.0,0.0,30.19,,,,,,,,,,,,,,,,,1500.0,1300.0,FEW,1300.0,BKN,1900.0,OVC,2700.0,,
KRDR,05-08-2015,21:07,SPECI,Normal,10,17.0,22.0,,9999.0,,5.0,0.0,30.18,,,,,,,,,,,,,,,,,1300.0,1300.0,SCT,1300.0,BKN,1800.0,OVC,2700.0,,
KRDR,05-08-2015,21:03,SPECI,Normal,20,14.0,,,9999.0,Light Drizzle,4.0,0.0,30.18,,51,,,,,,,,,,,,,,,1300.0,1300.0,SCT,1300.0,BKN,1800.0,OVC,2700.0,,
KRDR,05-08-2015,20:58,METAR,Normal,20,16.0,19.0,,9999.0,Light Rain,4.0,1.0,30.18,1023.4,61,,,,,,,,,,TRACE,TRACE,,,,1300.0,1300.0,BKN,1300.0,BKN,1800.0,OVC,2500.0,,
KRDR,05-08-2015,20:56,SPECI,Normal,20,14.0,19.0,,9999.0,Light Rain,4.0,1.0,30.18,,61,,,,,,,,,,,,,,,1300.0,1300.0,BKN,1300.0,BKN,1800.0,OVC,2500.0,,
KRDR,05-08-2015,20:51,SPECI,Normal,30,14.0,18.0,,9999.0,Light Rain,4.0,0.0,30.18,,61,,,,,,,,,,,,,,,1500.0,1500.0,BKN,1500.0,OVC,2500.0,,,,
KRDR,05-08-2015,20:38,SPECI,Normal,10,13.0,18.0,,9999.0,,4.0,0.0,30.19,,,,,,,,,,,,,,,,,1700.0,1700.0,SCT,1700.0,BKN,2400.0,OVC,2900.0,,
KRDR,05-08-2015,20:33,SPECI,Normal,10,16.0,19.0,,9999.0,,4.0,0.0,30.18,,,,,,,,,,,,,,,,,1700.0,1700.0,BKN,1700.0,OVC,2700.0,,,,
KRDR,05-08-2015,20:23,SPECI,Normal,20,15.0,,,9999.0,Light Rain,5.0,0.0,30.18,,61,,,,,,,,,,,,,,,2600.0,1300.0,FEW,1300.0,SCT,2000.0,OVC,2600.0,,
KRDR,05-08-2015,20:13,SPECI,Normal,360,12.0,,,9999.0,,4.0,-1.0,30.18,,,,,,,,,,,,,,,,,1800.0,1300.0,FEW,1300.0,OVC,2600.0,,,,
KRDR,05-08-2015,19:58,METAR,Normal,30,15.0,,,9999.0,,4.2,-0.3,30.18,1023.4,,,,,,,,,,,TRACE,,,,,1800.0,1800.0,BKN,1800.0,OVC,2600.0,,,,
KRDR,05-08-2015,19:41,SPECI,Normal,20,13.0,,,9999.0,,4.0,0.0,30.18,,,,,,,,,,,,,,,,,1700.0,1700.0,BKN,1700.0,OVC,2500.0,,,,
KRDR,05-08-2015,19:38,SPECI,Normal,30,12.0,,,9999.0,Light Rain,4.0,0.0,30.18,,61,,,,,,,,,,,,,,,1700.0,1700.0,SCT,1700.0,OVC,2300.0,,,,
KRDR,05-08-2015,19:33,SPECI,Normal,30,11.0,,,9999.0,Light Rain,4.0,0.0,30.18,,61,,,,,,,,,,,,,,,1800.0,1800.0,BKN,1800.0,OVC,2400.0,,,,
KRDR,05-08-2015,19:28,SPECI,Normal,10,13.0,,,9999.0,Unknown Precipitation,5.0,-1.0,30.18,,40,,,,,,,,,,,,,,,2000.0,2000.0,BKN,2000.0,OVC,2700.0,,,,
KRDR,05-08-2015,18:58,METAR,Normal,10,10.0,,,9999.0,,4.0,-0.6,30.19,1023.7,,,,,,,,,,,,,,,,2200.0,2200.0,BKN,2200.0,OVC,2700.0,,,,
KRDR,05-08-2015,18:03,SPECI,Normal,20,13.0,,,9999.0,,4.0,0.0,30.18,,,,,,,,,,,,,,,,,2000.0,2000.0,BKN,2000.0,OVC,2800.0,,,,
KRDR,05-08-2015,17:58,METAR,Normal,360,13.0,,,9999.0,,3.9,-0.8,30.18,1023.3,,,,,,,,,,,TRACE,,TRACE,,,1800.0,1800.0,BKN,1800.0,OVC,2700.0,,,,
KRDR,05-08-2015,17:50,SPECI,Normal,10,12.0,,,9999.0,,4.0,-1.0,30.19,,,,,,,,,,,,,,,,,1600.0,1800.0,OVC,1800.0,,,,,,
KRDR,05-08-2015,17:45,SPECI,Normal,20,14.0,,,9999.0,,4.0,0.0,30.18,,,,,,,,,,,,,,,,,1600.0,1600.0,SCT,1600.0,BKN,2100.0,OVC,2700.0,,
KRDR,05-08-2015,17:35,SPECI,Normal,20,15.0,20.0,,9999.0,,4.0,0.0,30.18,,,,,,,,,,,,,,,,,1400.0,1700.0,BKN,1700.0,OVC,2200.0,,,,
KRDR,05-08-2015,17:29,SPECI,Normal,10,12.0,,,9999.0,Light Rain,3.0,0.0,30.18,,61,,,,,,,,,,,,,,,1400.0,1600.0,BKN,1600.0,OVC,2200.0,,,,
KRDR,05-08-2015,17:19,SPECI,Normal,20,14.0,17.0,,9999.0,Light Drizzle,4.0,0.0,30.18,,51,,,,,,,,,,,,,,,1500.0,800.0,FEW,800.0,BKN,1500.0,OVC,2100.0,,
KRDR,05-08-2015,17:07,SPECI,Normal,10,11.0,16.0,,9999.0,,4.0,1.0,30.17,,,,,,,,,,,,,,,,,1500.0,800.0,FEW,800.0,BKN,1500.0,OVC,3100.0,,
KRDR,05-08-2015,17:03,SPECI,Normal,10,11.0,18.0,,9999.0,Light Rain,3.0,1.0,30.18,,61,,,,,,,,,,,,,,,1500.0,800.0,FEW,800.0,OVC,1500.0,,,,
KRDR,05-08-2015,16:58,METAR,Normal,20,14.0,18.0,,9999.0,Light Rain,3.0,1.0,30.18,1023.4,61,,,,,,,,,,TRACE,,,,,1400.0,800.0,FEW,800.0,OVC,1400.0,,,,
KRDR,05-08-2015,16:52,SPECI,Variable,10,12.0,17.0,,9999.0,Light Snow/Mist,3.0,0.0,30.18,,71,10,,,,,,,,,,,,,,1400.0,900.0,FEW,900.0,BKN,1400.0,OVC,2000.0,,
KRDR,05-08-2015,16:48,SPECI,Normal,10,9.0,18.0,,6400.0,Light Snow/Mist,3.0,0.0,30.18,,71,10,,,,,,,,,,,,,,1600.0,1600.0,BKN,1600.0,OVC,2500.0,,,,
KRDR,05-08-2015,16:38,SPECI,Normal,20,14.0,18.0,,9999.0,Light Drizzle,3.0,0.0,30.17,,51,,,,,,,,,,,,,,,1300.0,1300.0,BKN,1300.0,OVC,2100.0,,,,
KRDR,05-08-2015,16:27,SPECI,Normal,360,12.0,19.0,,9999.0,Unknown Precipitation,3.0,0.0,30.17,,40,,,,,,,,,,,,,,,1500.0,1500.0,SCT,1500.0,BKN,2100.0,OVC,2700.0,,
KRDR,05-08-2015,16:22,SPECI,Normal,360,11.0,,,9999.0,Light Rain,3.0,0.0,30.17,,61,,,,,,,,,,,,,,,1500.0,1500.0,SCT,1500.0,OVC,2000.0,,,,
KRDR,05-08-2015,16:12,SPECI,Normal,20,12.0,,,9999.0,Light Rain,4.0,0.0,30.17,,61,,,,,,,,,,,,,,,1900.0,1900.0,OVC,1900.0,,,,,,
KRDR,05-08-2015,16:10,SPECI,Normal,20,11.0,,,9999.0,,4.0,0.0,30.17,,,,,,,,,,,,,,,,,1900.0,1900.0,OVC,1900.0,,,,,,
KRDR,05-08-2015,15:58,METAR,Normal,10,14.0,,,9999.0,,3.8,-0.7,30.15,1022.3,,,,,,,,,,,,,,,,1900.0,1900.0,BKN,1900.0,OVC,2400.0,,,,
KRDR,05-08-2015,14:58,METAR,Normal,10,12.0,17.0,,9999.0,,2.8,-1.5,30.14,1022.0,,,,,,,,,,,,,,,,1600.0,1600.0,OVC,1600.0,,,,,,
KRDR,05-08-2015,14:52,SPECI,Normal,20,16.0,,,9999.0,,3.0,-1.0,30.14,,,,,,,,,,,,,,,,,1400.0,1400.0,OVC,1400.0,,,,,,
KRDR,05-08-2015,14:30,SPECI,Normal,10,14.0,,,9999.0,,2.0,-1.0,30.14,,,,,,,,,,,,,,,,,1400.0,1400.0,OVC,1400.0,,,,,,
KRDR,05-08-2015,14:23,SPECI,Normal,20,15.0,19.0,,9999.0,,2.0,-1.0,30.14,,,,,,,,,,,,,,,,,1500.0,1500.0,OVC,1500.0,,,,,,
KRDR,05-08-2015,13:58,METAR,Normal,10,14.0,,,9999.0,,2.4,-1.3,30.14,1022.0,,,,,,,,,,,,,,,,1300.0,1300.0,OVC,1300.0,,,,,,
KRDR,05-08-2015,13:23,SPECI,Normal,20,15.0,18.0,,9999.0,,2.0,-2.0,30.13,,,,,,,,,,,,,,,,,1300.0,1300.0,OVC,1300.0,,,,,,
KRDR,05-08-2015,12:58,METAR,Normal,20,12.0,,,9999.0,,1.9,-1.7,30.12,1021.3,,,,,,,,,,,,,,,,1600.0,1600.0,OVC,1600.0,,,,,,
KRDR,05-08-2015,11:58,METAR,Normal,20,11.0,,,9999.0,,1.6,-1.6,30.09,1020.3,,,,,,,,,,,,,,.07 IN,,1500.0,1500.0,OVC,1500.0,,,,,,
KRDR,05-08-2015,11:33,SPECI,Normal,20,14.0,18.0,,9999.0,,2.0,-2.0,30.08,,,,,,,,,,,,,,,,,1600.0,1700.0,BKN,1700.0,OVC,3300.0,,,,
KRDR,05-08-2015,10:58,METAR,Normal,20,12.0,,,9999.0,,1.9,-1.6,30.07,1019.6,,,,,,,,,,,,,,,,3200.0,3200.0,OVC,3200.0,,,,,,
KRDR,05-08-2015,09:58,METAR,Normal,20,16.0,20.0,,9999.0,,2.4,-1.4,30.06,1019.2,,,,,,,,,,,,,,,,3200.0,2200.0,FEW,2200.0,OVC,3200.0,,,,
KRDR,05-08-2015,08:58,METAR,Normal,20,12.0,19.0,,9999.0,,2.9,-0.2,30.03,1018.1,,,,,,,,,,,,,,,,3400.0,3400.0,OVC,3400.0,,,,,,
KRDR,05-08-2015,07:58,METAR,Normal,10,11.0,,,9999.0,,3.2,0.1,30.01,1017.5,,,,,,,,,,,,,,,Clear,72000.0,,,,,,,,,
KRDR,05-08-2015,06:58,METAR,Normal,10,12.0,20.0,,9999.0,,4.2,0.7,29.99,1016.7,,,,,,,,,,,,,,,Clear,72000.0,,,,,,,,,
KRDR,05-08-2015,05:58,METAR,Normal,360,13.0,18.0,,9999.0,,5.1,1.6,29.97,1015.9,,,,,,,,,,,,,,,Clear,72000.0,,,,,,,,,
KRDR,05-08-2015,04:58,METAR,Normal,20,14.0,19.0,,9999.0,,5.5,2.1,29.95,1015.1,,,,,,,,,,,,,,,Clear,72000.0,,,,,,,,,
KRDR,05-08-2015,03:58,METAR,Normal,10,10.0,,,9999.0,,5.9,3.2,29.94,1014.7,,,,,,,,,,,,,,,2/8 Mostly Clear,72000.0,3000.0,FEW,3000.0,,,,,,
KRDR,05-08-2015,02:58,METAR,Normal,20,12.0,,,9999.0,,6.6,4.3,29.90,,,,,,,,,,,,,,,,,1700.0,1700.0,SCT,1700.0,OVC,2800.0,,,,
KRDR,05-08-2015,02:50,SPECI,Normal,20,11.0,18.0,,9999.0,,7.0,4.0,29.91,,,,,,,,,,,,,,,,,1700.0,1700.0,SCT,1700.0,OVC,2700.0,,,,
KRDR,05-08-2015,02:45,SPECI,Normal,20,12.0,18.0,,9999.0,,7.0,4.0,29.90,,,,,,,,,,,,,,,,,1700.0,1700.0,BKN,1700.0,OVC,2700.0,,,,
KRDR,05-08-2015,01:58,METAR,Normal,10,12.0,,,9999.0,,7.3,4.5,29.87,1012.3,,,,,,,,,,,,,,,,4000.0,2700.0,FEW,2700.0,OVC,4000.0,,,,
KRDR,05-08-2015,00:58,METAR,Normal,350,16.0,22.0,330/26KTS,9999.0,,7.5,4.3,29.83,1010.9,,,,,,,,,,,,,,,,3200.0,3200.0,OVC,3200.0,,,,,,
KRDR,05-08-2015,00:41,SPECI,Normal,340,18.0,23.0,,9999.0,,8.0,5.0,29.84,,,,,,,,,,,,,,,,,1700.0,1700.0,SCT,1700.0,BKN,2700.0,OVC,3200.0,,
KRDR,05-08-2015,00:14,SPECI,Normal,340,12.0,,,9999.0,,8.0,5.0,29.83,,,,,,,,,,,,,,,,,1600.0,1600.0,OVC,1600.0,,,,,,
KRDR,05-07-2015,23:58,METAR,Normal,340,14.0,22.0,030/27KTS,9999.0,,7.0,6.0,29.81,1010.2,,,,,,,,,,,TRACE,,.04 IN,,,1300.0,600.0,FEW,600.0,BKN,1300.0,OVC,2000.0,,
KRDR,05-07-2015,23:54,SPECI,Normal,340,14.0,22.0,,9999.0,,8.0,6.0,29.81,,,,,,,,,,,,,,,,,1600.0,700.0,FEW,700.0,OVC,1600.0,,,,
KRDR,05-07-2015,23:43,SPECI,Normal,340,17.0,22.0,,9999.0,,8.0,5.0,29.80,,,,,,,,,,,,,,,,,1300.0,600.0,FEW,600.0,OVC,1300.0,,,,
KRDR,05-07-2015,23:36,SPECI,Normal,340,14.0,24.0,,9999.0,Light Drizzle,8.0,6.0,29.80,,51,,,,,,,,,,,,,,,1400.0,700.0,FEW,700.0,OVC,1400.0,,,,
KRDR,05-07-2015,23:31,SPECI,Normal,340,20.0,24.0,,9999.0,Light Drizzle,8.0,6.0,29.80,,51,,,,,,,,,,,,,,,1500.0,700.0,FEW,700.0,OVC,1500.0,,,,
KRDR,05-07-2015,23:19,SPECI,Normal,350,18.0,,,9999.0,,8.0,5.0,29.79,,,,,,,,,,,,,,,,,1100.0,1000.0,SCT,1000.0,OVC,1500.0,,,,
KRDR,05-07-2015,23:03,SPECI,Normal,340,20.0,26.0,,9999.0,,8.0,5.0,29.79,,,,,,,,,,,,,,,,,1100.0,1100.0,OVC,1100.0,,,,,,
KRDR,05-07-2015,22:58,METAR,Normal,330,16.0,21.0,360/26KTS,9999.0,,7.9,5.7,29.79,1009.5,,,,,,,,,,,TRACE,,,,,1200.0,1200.0,OVC,1200.0,,,,,,
KRDR,05-07-2015,22:34,SPECI,Normal,340,19.0,24.0,,9999.0,,8.0,6.0,29.79,,,,,,,,,,,,,,,,,1300.0,1300.0,OVC,1300.0,,,,,,
KRDR,05-07-2015,22:24,SPECI,Normal,330,17.0,23.0,,9999.0,,8.0,6.0,29.78,,,,,,,,,,,,,,,,,1100.0,1100.0,OVC,1100.0,,,,,,
KRDR,05-07-2015,22:23,SPECI,Normal,330,16.0,23.0,,9999.0,,8.0,6.0,29.78,,,,,,,,,,,,,,,,,1200.0,1200.0,OVC,1200.0,,,,,,
KRDR,05-07-2015,22:18,SPECI,Normal,330,14.0,25.0,,9999.0,,8.0,6.0,29.77,,,,,,,,,,,,,,,,,900.0,1000.0,OVC,1000.0,,,,,,
KRDR,05-07-2015,22:03,SPECI,Normal,330,17.0,23.0,,9999.0,,8.0,6.0,29.76,,,,,,,,,,,,,,,,,900.0,900.0,BKN,900.0,OVC,1300.0,,,,
KRDR,05-07-2015,21:58,METAR,Normal,330,15.0,25.0,,9999.0,,8.0,6.0,29.76,1008.5,,,,,,,,,,,TRACE,,,,,1100.0,1100.0,OVC,1100.0,,,,,,
KRDR,05-07-2015,21:57,SPECI,Normal,330,15.0,25.0,,9999.0,,8.0,6.0,29.76,,,,,,,,,,,,,,,,,1100.0,1100.0,OVC,1100.0,,,,,,
KRDR,05-07-2015,21:55,SPECI,Normal,320,18.0,25.0,,9999.0,,8.0,6.0,29.76,,,,,,,,,,,,,,,,,1200.0,1200.0,OVC,1200.0,,,,,,
KRDR,05-07-2015,21:53,SPECI,Normal,320,20.0,25.0,,9999.0,Light Rain,8.0,6.0,29.76,,61,,,,,,,,,,,,,,,1200.0,1200.0,OVC,1200.0,,,,,,
KRDR,05-07-2015,21:47,SPECI,Normal,330,16.0,24.0,,9999.0,Light Rain,8.0,6.0,29.76,,61,,,,,,,,,,,,,,,1100.0,1100.0,OVC,1100.0,,,,,,
KRDR,05-07-2015,21:26,SPECI,Normal,340,15.0,25.0,,9999.0,,8.0,6.0,29.75,,,,,,,,,,,,,,,,,1100.0,1100.0,OVC,1100.0,,,,,,
KRDR,05-07-2015,21:09,SPECI,Normal,340,16.0,23.0,,9999.0,,8.0,6.0,29.74,,,,,,,,,,,,,,,,,600.0,900.0,SCT,900.0,OVC,1300.0,,,,
KRDR,05-07-2015,20:59,SPECI,Normal,340,17.0,21.0,,9999.0,Light Rain,8.0,7.0,29.74,,61,,,,,,,,,,,,,,,1000.0,1000.0,BKN,1000.0,OVC,1500.0,,,,
KRDR,05-07-2015,20:58,METAR,Normal,340,16.0,23.0,,9999.0,,8.2,6.8,29.74,1007.8,,,,,,,,,,,TRACE,.04 IN,,,,1100.0,1100.0,BKN,1100.0,OVC,1800.0,,,,
KRDR,05-07-2015,20:35,SPECI,Normal,350,13.0,,,9999.0,,8.0,7.0,29.73,,,,,,,,,,,,,,,,,1100.0,1100.0,OVC,1100.0,,,,,,
KRDR,05-07-2015,19:59,SPECI,Normal,360,14.0,,,9999.0,Light Drizzle,8.0,7.0,29.71,,51,,,,,,,,,,,,,,,1000.0,1000.0,OVC,1000.0,,,,,,
KRDR,05-07-2015,19:58,METAR,Normal,360,14.0,,,9999.0,,8.1,6.6,29.71,1006.8,,,,,,,,,,,TRACE,,,,,1000.0,1000.0,OVC,1000.0,,,,,,
KRDR,05-07-2015,19:50,SPECI,Variable,360,15.0,,,9999.0,,8.0,7.0,29.71,,,,,,,,,,,,,,,,,1000.0,1000.0,OVC,1000.0,,,,,,
KRDR,05-07-2015,19:35,SPECI,Normal,360,17.0,21.0,,9999.0,,8.0,7.0,29.70,,,,,,,,,,,,,,,,,900.0,900.0,OVC,900.0,,,,,,
KRDR,05-07-2015,19:19,SPECI,Normal,360,16.0,,,9999.0,,9.0,7.0,29.69,,,,,,,,,,,,,,,,,800.0,1000.0,OVC,1000.0,,,,,,
KRDR,05-07-2015,18:58,METAR,Normal,340,15.0,22.0,,9999.0,Light Rain,9.1,7.8,29.68,1005.7,61,,,,,,,,,,.04 IN,,,,,800.0,800.0,OVC,800.0,,,,,,
KRDR,05-07-2015,17:58,METAR,Normal,360,14.0,25.0,,9999.0,Rain,9.7,8.5,29.65,1004.7,,,,61,,,,,,,TRACE,,.03 IN,,,900.0,900.0,OVC,900.0,,,,,,
KRDR,05-07-2015,17:44,SPECI,Normal,350,21.0,26.0,,9999.0,Light Rain,10.0,9.0,29.62,,61,,,,,,,,,,,,,,,800.0,800.0,OVC,800.0,,,,,,
KRDR,05-07-2015,17:14,SPECI,Normal,330,17.0,27.0,,9999.0,Light Rain,12.0,11.0,29.59,,61,,,,,,,,,,,,,,,700.0,700.0,OVC,700.0,,,,,,
KRDR,05-07-2015,16:59,SPECI,Normal,330,21.0,28.0,,9999.0,Light Rain,15.0,13.0,29.57,,61,,,,,,,,,,,,,,,600.0,600.0,BKN,600.0,OVC,1100.0,,,,
KRDR,05-07-2015,16:58,METAR,Normal,330,22.0,28.0,,9999.0,,15.5,14.0,29.57,1001.8,,,,,,,,,,,,,,,,600.0,600.0,BKN,600.0,OVC,1100.0,,,,
KRDR,05-07-2015,16:45,SPECI,Normal,310,19.0,24.0,,9999.0,,16.0,15.0,29.55,,,,,,,,,,,,,,,,,600.0,600.0,BKN,600.0,OVC,1200.0,,,,
KRDR,05-07-2015,16:30,SPECI,Normal,290,17.0,,,8000.0,Mist,17.0,15.0,29.55,,10,,,,,,,,,,,,,,,900.0,700.0,FEW,700.0,BKN,1300.0,OVC,2000.0,,
KRDR,05-07-2015,16:25,SPECI,Normal,280,14.0,,,9999.0,Mist,17.0,16.0,29.54,,10,,,,,,,,,,,,,,,900.0,900.0,BKN,900.0,BKN,1700.0,OVC,2400.0,,
KRDR,05-07-2015,16:20,SPECI,Normal,280,15.0,,,9999.0,,18.0,16.0,29.54,,,,,,,,,,,,,,,,,1800.0,900.0,SCT,900.0,BKN,1800.0,OVC,2300.0,,
KRDR,05-07-2015,16:15,SPECI,Normal,290,14.0,,,9999.0,,18.0,16.0,29.54,,,,,,,,,,,,,,,,,1700.0,900.0,SCT,900.0,OVC,2000.0,,,,
KRDR,05-07-2015,16:10,SPECI,Normal,280,13.0,,,9999.0,,19.0,16.0,29.53,,,,,,,,,,,,,,,,,1700.0,1000.0,SCT,1000.0,BKN,1700.0,OVC,2300.0,,
KRDR,05-07-2015,15:58,METAR,Normal,280,8.0,,,9999.0,,18.0,16.0,29.53,1000.4,,,,,,,,,,,,,,,,1200.0,1100.0,SCT,1100.0,OVC,2100.0,,,,
KRDR,05-07-2015,15:53,SPECI,Normal,280,10.0,,,9999.0,,18.0,16.0,29.53,,,,,,,,,,,,,,,,,1200.0,1100.0,SCT,1100.0,OVC,1900.0,,,,
KRDR,05-07-2015,15:48,SPECI,Normal,270,8.0,,,9999.0,,18.0,16.0,29.53,,,,,,,,,,,,,,,,,1200.0,1400.0,BKN,1400.0,OVC,1800.0,,,,
KRDR,05-07-2015,15:33,SPECI,Normal,260,5.0,,,9999.0,,18.0,16.0,29.53,,,,,,,,,,,,,,,,,1300.0,1000.0,SCT,1000.0,BKN,1700.0,OVC,2600.0,,
KRDR,05-07-2015,15:28,SPECI,Variable,,4.0,,,9999.0,,18.0,16.0,29.52,,,,,,,,,,,,,,,,,1400.0,900.0,SCT,900.0,BKN,1400.0,OVC,1900.0,,
KRDR,05-07-2015,15:23,SPECI,Normal,260,6.0,,,9999.0,,17.0,16.0,29.53,,,,,,,,,,,,,,,,,1000.0,900.0,SCT,900.0,SCT,1400.0,OVC,1900.0,,
KRDR,05-07-2015,15:13,SPECI,Normal,190,6.0,,,9999.0,,17.0,16.0,29.53,,,,,,,,,,,,,,,,,800.0,1000.0,BKN,1000.0,OVC,1700.0,,,,
KRDR,05-07-2015,15:03,SPECI,Normal,200,5.0,,,9999.0,,17.0,16.0,29.53,,,,,,,,,,,,,,,,,1000.0,600.0,FEW,600.0,BKN,1400.0,OVC,1900.0,,
KRDR,05-07-2015,14:58,METAR,Normal,210,5.0,,,9999.0,,16.9,16.1,29.53,1000.4,,,,,,,,,,,.01 IN,.03 IN,,,,600.0,600.0,FEW,600.0,BKN,1000.0,OVC,1900.0,,
KRDR,05-07-2015,14:55,SPECI,Normal,210,4.0,,,9999.0,,17.0,16.0,29.53,,,,,,,,,,,,,,,,,600.0,600.0,SCT,600.0,BKN,1000.0,OVC,1900.0,,
KRDR,05-07-2015,14:45,SPECI,Normal,220,6.0,,,9999.0,,17.0,16.0,29.53,,,,,,,,,,,,,,,,,700.0,700.0,BKN,700.0,OVC,1100.0,,,,
KRDR,05-07-2015,14:40,SPECI,Normal,180,6.0,,,9999.0,,17.0,16.0,29.53,,,,,,,,,,,,,,,,,700.0,900.0,OVC,900.0,,,,,,
KRDR,05-07-2015,14:00,SPECI,Normal,170,10.0,,,9999.0,Mist,17.0,16.0,29.53,,10,,,,,,,,,,,,,,,700.0,700.0,OVC,700.0,,,,,,
KRDR,05-07-2015,13:58,METAR,Normal,160,9.0,,,9999.0,Light Rain/Mist,16.5,15.9,29.54,1000.7,61,10,,,,,,,,,.01 IN,,,,,600.0,600.0,OVC,600.0,,,,,,
KRDR,05-07-2015,13:54,SPECI,Normal,150,10.0,,,8000.0,Light Rain/Mist,17.0,16.0,29.54,,61,10,,,,,,,,,,,,,,600.0,600.0,OVC,600.0,,,,,,
KRDR,05-07-2015,13:49,SPECI,Normal,150,8.0,,,8000.0,Light Rain/Mist,16.0,16.0,29.54,,61,10,,,,,,,,,,,,,,700.0,700.0,OVC,700.0,,,,,,
KRDR,05-07-2015,13:43,SPECI,Normal,150,7.0,,,8000.0,Mist,16.0,16.0,29.54,,10,,,,,,,,,,,,,,,600.0,700.0,OVC,700.0,,,,,,
KRDR,05-07-2015,13:38,SPECI,Normal,140,9.0,,,6400.0,Mist,16.0,16.0,29.54,,10,,,,,,,,,,,,,,,600.0,800.0,OVC,800.0,,,,,,
KRDR,05-07-2015,13:33,SPECI,Normal,140,7.0,,,4800.0,Mist,16.0,16.0,29.54,,10,,,,,,,,,,,,,,,600.0,600.0,OVC,600.0,,,,,,
KRDR,05-07-2015,13:28,SPECI,Normal,140,7.0,,,4800.0,Light Drizzle/Mist,16.0,16.0,29.55,,51,10,,,,,,,,,,,,,,700.0,700.0,OVC,700.0,,,,,,
KRDR,05-07-2015,13:23,SPECI,Normal,130,6.0,,,6400.0,Light Drizzle/Mist,16.0,16.0,29.55,,51,10,,,,,,,,,,,,,,800.0,800.0,OVC,800.0,,,,,,
KRDR,05-07-2015,13:03,SPECI,Normal,140,6.0,,,9999.0,Mist,16.0,15.0,29.55,,10,,,,,,,,,,,,,,,900.0,900.0,BKN,900.0,OVC,1500.0,,,,
KRDR,05-07-2015,12:58,METAR,Normal,140,7.0,,,9999.0,Mist,16.0,15.0,29.56,1001.5,10,,,,,,,,,,.01 IN,,,,,1000.0,1000.0,BKN,1000.0,OVC,2500.0,,,,
KRDR,05-07-2015,12:47,SPECI,Normal,150,7.0,,,9999.0,Mist,16.0,16.0,29.56,,10,,,,,,,,,,,,,,,1100.0,1100.0,BKN,1100.0,BKN,1600.0,OVC,2400.0,,
KRDR,05-07-2015,12:32,SPECI,Normal,150,6.0,,,8000.0,Mist,16.0,15.0,29.56,,10,,,,,,,,,,,,,,,1300.0,1300.0,BKN,1300.0,,,,,,
KRDR,05-07-2015,12:25,SPECI,Normal,160,6.0,,,8000.0,Light Drizzle/Mist,16.0,15.0,29.56,,51,10,,,,,,,,,,,,,,1100.0,1400.0,BKN,1400.0,,,,,,
KRDR,05-07-2015,12:00,SPECI,Normal,160,6.0,,,8000.0,Light Rain/Mist,16.0,15.0,29.56,,61,10,,,,,,,,,,,,,,1100.0,1100.0,BKN,1100.0,BKN,4200.0,OVC,5000.0,,
KRDR,05-07-2015,11:58,METAR,Normal,170,7.0,,,6400.0,Light Rain/Mist,16.0,15.0,29.56,1001.4,61,10,,,,,,,,,.02 IN,,.03 IN,.27 IN,,1200.0,1200.0,BKN,1200.0,OVC,4600.0,,,,
KRDR,05-07-2015,11:39,SPECI,Normal,170,5.0,,,9999.0,Light Drizzle/Mist,16.0,15.0,29.57,,51,10,,,,,,,,,,,,,,1300.0,1300.0,OVC,1300.0,,,,,,
KRDR,05-07-2015,11:33,SPECI,Normal,170,5.0,,,9999.0,,16.0,15.0,29.57,,,,,,,,,,,,,,,,,1400.0,1400.0,OVC,1400.0,,,,,,
KRDR,05-07-2015,11:18,SPECI,Normal,170,6.0,,,9999.0,,16.0,15.0,29.57,,,,,,,,,,,,,,,,,1600.0,1600.0,BKN,1600.0,BKN,3100.0,OVC,5500.0,,
KRDR,05-07-2015,11:08,SPECI,Normal,170,5.0,,,9999.0,Light Rain,16.0,15.0,29.57,,61,,,,,,,,,,,,,,,4300.0,2300.0,FEW,2300.0,BKN,4300.0,OVC,7500.0,,
KRDR,05-07-2015,10:58,METAR,Normal,170,8.0,,,8000.0,Light Drizzle/Mist,16.0,15.1,29.58,1002.1,51,10,,,,,,,,,.01 IN,,,,,5500.0,2800.0,FEW,2800.0,BKN,5500.0,BKN,7500.0,,
KRDR,05-07-2015,10:57,SPECI,Normal,170,8.0,,,8000.0,Light Rain/Mist,16.0,15.0,29.58,,61,10,,,,,,,,,,,,,,7000.0,2800.0,FEW,2800.0,SCT,5000.0,BKN,7000.0,,
KRDR,05-07-2015,10:38,SPECI,Normal,180,9.0,,,9999.0,,16.0,15.0,29.58,,,,,,,,,,,,,,,,,8500.0,8500.0,BKN,8600.0,,,,,,
KRDR,05-07-2015,09:58,METAR,Normal,160,11.0,,,9999.0,,16.0,14.9,29.59,1002.4,,,,,,,,,,,,,,,,10000.0,10000.0,OVC,10000.0,,,,,,
KRDR,05-07-2015,08:58,METAR,Normal,160,12.0,,,9999.0,,16.2,15.0,29.60,1002.8,,,,,,,,,,,,,,,Clear,72000.0,,,,,,,,,
KRDR,05-07-2015,07:58,METAR,Normal,160,12.0,,,9999.0,,16.5,15.1,29.62,1003.4,,,,,,,,,,,,,,,,2300.0,2300.0,BKN,2300.0,BKN,6500.0,BKN,8000.0,,
KRDR,05-07-2015,06:58,METAR,Normal,170,13.0,,,9999.0,,16.6,15.3,29.62,1003.4,,,,,,,,,,,,,,,Clear,72000.0,,,,,,,,,
KRDR,05-07-2015,06:22,SPECI,Normal,160,11.0,,,9999.0,,17.0,16.0,29.63,,,,,,,,,,,,,,,,2/8 Mostly Clear,72000.0,1100.0,FEW,1100.0,,,,,,
KRDR,05-07-2015,05:58,METAR,Normal,150,11.0,,,9999.0,,16.8,15.8,29.63,1003.8,,,,,,,,,,,,,TRACE,,4/8 Partly Cloudy,72000.0,2700.0,FEW,2700.0,SCT,10000.0,,,,
KRDR,05-07-2015,04:58,METAR,Normal,140,7.0,,,9999.0,,16.2,15.1,29.64,1004.2,,,,,,,,,,,,,,,,12000.0,5000.0,FEW,5000.0,BKN,12000.0,,,,
KRDR,05-07-2015,03:58,METAR,Normal,140,8.0,,,9999.0,,15.8,14.7,29.65,1004.5,,,,,,,,,,,,,,,,7500.0,5500.0,SCT,5500.0,BKN,7500.0,OVC,9600.0,,
KRDR,05-07-2015,03:38,SPECI,Normal,120,9.0,,,9999.0,,16.0,15.0,29.66,,,,,,,,,,,,,,,,,7500.0,1600.0,SCT,1600.0,OVC,7500.0,,,,
KRDR,05-07-2015,03:03,SPECI,Normal,110,9.0,,,9999.0,,16.0,15.0,29.66,,,,,,,,,,,,,,,,,1900.0,1900.0,OVC,1900.0,,,,,,
KRDR,05-07-2015,01:58,METAR,Normal,100,11.0,,,9999.0,,15.8,14.9,29.67,1005.2,,,,,,,,,,,TRACE,,,,,3000.0,3000.0,OVC,3000.0,,,,,,
KRDR,05-07-2015,01:46,SPECI,Normal,100,11.0,,,9999.0,,16.0,15.0,29.67,,,,,,,,,,,,,,,,,3200.0,3200.0,OVC,3200.0,,,,,,
KRDR,05-07-2015,01:37,SPECI,Normal,80,11.0,,,9999.0,Light Drizzle,16.0,15.0,29.67,,51,,,,,,,,,,,,,,,3300.0,3300.0,OVC,3300.0,,,,,,
KRDR,05-07-2015,01:03,SPECI,Normal,80,9.0,,,9999.0,,16.0,16.0,29.69,,,,,,,,,,,,,,,,,3800.0,600.0,FEW,600.0,SCT,1400.0,OVC,3800.0,,
KRDR,05-07-2015,00:58,METAR,Normal,80,10.0,,,9999.0,,16.4,15.4,29.69,1005.9,,,,,,,,,,,TRACE,,,,,3800.0,1600.0,FEW,1600.0,OVC,3800.0,,,,
KRDR,05-07-2015,00:43,SPECI,Normal,90,8.0,,,9999.0,,16.0,15.0,29.70,,,,,,,,,,,,,,,,,3600.0,700.0,FEW,700.0,OVC,3600.0,,,,
KRDR,05-07-2015,00:34,SPECI,Normal,100,9.0,,,9999.0,Light Drizzle,16.0,15.0,29.71,,51,,,,,,,,,,,,,,,3400.0,700.0,FEW,700.0,BKN,3400.0,OVC,5500.0,,
KRDR,05-06-2015,23:58,METAR,Normal,110,8.0,,,9999.0,,16.6,15.6,29.72,1006.9,,,,,,,,,,,.01 IN,,.14 IN,,,3300.0,600.0,FEW,600.0,BKN,3300.0,OVC,6000.0,,
KRDR,05-06-2015,23:38,SPECI,Normal,100,7.0,,,8000.0,Mist,17.0,16.0,29.73,,10,,,,,,,,,,,,,,,3300.0,600.0,SCT,600.0,BKN,3300.0,OVC,6000.0,,
KRDR,05-06-2015,23:33,SPECI,Normal,110,8.0,,,8000.0,Mist,17.0,16.0,29.74,,10,,,,,,,,,,,,,,,600.0,600.0,BKN,600.0,BKN,3300.0,OVC,6500.0,,
KRDR,05-06-2015,23:31,SPECI,Normal,110,7.0,,,8000.0,Light Drizzle/Mist,17.0,16.0,29.74,,51,10,,,,,,,,,,,,,,600.0,600.0,BKN,600.0,BKN,4800.0,OVC,6000.0,,
KRDR,05-06-2015,23:21,SPECI,Normal,120,8.0,,,9999.0,Light Drizzle,17.0,16.0,29.74,,51,,,,,,,,,,,,,,,6500.0,700.0,FEW,700.0,BKN,6500.0,OVC,8600.0,,
KRDR,05-06-2015,23:19,SPECI,Normal,120,8.0,,,9999.0,,17.0,16.0,29.74,,,,,,,,,,,,,,,,,7000.0,800.0,FEW,800.0,BKN,7000.0,OVC,8600.0,,
KRDR,05-06-2015,23:09,SPECI,Normal,100,6.0,,,9999.0,Mist,17.0,16.0,29.73,,10,,,,,,,,,,,,,,,7000.0,4700.0,FEW,4700.0,BKN,7000.0,OVC,8600.0,,
KRDR,05-06-2015,22:58,METAR,Normal,90,8.0,,,6400.0,Light Rain/Mist,16.4,15.6,29.73,1007.3,61,10,,,,,,,,,.07 IN,,,,,8000.0,8000.0,OVC,8000.0,,,,,,
KRDR,05-06-2015,22:03,SPECI,Normal,110,10.0,,,6400.0,Light Rain/Mist,17.0,16.0,29.76,,61,10,,,,,,,,,,,,,,4900.0,700.0,SCT,700.0,OVC,4900.0,,,,
KRDR,05-06-2015,21:58,METAR,Normal,120,10.0,,,8000.0,Light Rain/Mist,16.6,15.6,29.76,1008.3,61,10,,,,,,,,,.03 IN,,,,,4200.0,700.0,SCT,700.0,OVC,4200.0,,,,
KRDR,05-06-2015,21:33,SPECI,Normal,130,13.0,,,9999.0,Light Rain/Mist,17.0,16.0,29.77,,61,10,,,,,,,,,,,,,,6000.0,800.0,SCT,800.0,OVC,6000.0,,,,
KRDR,05-06-2015,20:58,METAR,Normal,130,13.0,,,9999.0,Light Rain/Mist,16.7,15.7,29.79,1009.3,61,10,,,,,,,,,.03 IN,.03 IN,,,,800.0,800.0,BKN,800.0,OVC,1200.0,,,,
KRDR,05-06-2015,20:15,SPECI,Normal,130,13.0,,,9999.0,Light Drizzle,17.0,16.0,29.81,,51,,,,,,,,,,,,,,,1000.0,1000.0,BKN,1000.0,OVC,1600.0,,,,
KRDR,05-06-2015,20:10,SPECI,Normal,140,12.0,,,8000.0,Light Rain/Mist,17.0,16.0,29.81,,61,10,,,,,,,,,,,,,,1200.0,700.0,SCT,700.0,BKN,1200.0,OVC,1900.0,,
KRDR,05-06-2015,20:07,SPECI,Normal,140,12.0,,,6400.0,Mist,17.0,15.0,29.81,,10,,,,,,,,,,,,,,,1200.0,700.0,FEW,700.0,BKN,1200.0,OVC,1900.0,,
KRDR,05-06-2015,20:03,SPECI,Normal,140,14.0,,,6400.0,Light Rain/Mist,17.0,15.0,29.81,,61,10,,,,,,,,,,,,,,1300.0,700.0,FEW,700.0,BKN,1300.0,OVC,2000.0,,
KRDR,05-06-2015,19:58,METAR,Normal,140,14.0,,,6400.0,Light Rain/Mist,16.9,15.5,29.81,1010.0,61,10,,,,,,,,,TRACE,,,,,1100.0,1100.0,BKN,1100.0,OVC,1800.0,,,,
KRDR,05-06-2015,19:51,SPECI,Normal,140,13.0,,,9999.0,Light Rain,17.0,15.0,29.81,,61,,,,,,,,,,,,,,,1000.0,1100.0,BKN,1100.0,OVC,1800.0,,,,
KRDR,05-06-2015,19:46,SPECI,Normal,140,14.0,20.0,,9999.0,Light Drizzle,17.0,15.0,29.81,,51,,,,,,,,,,,,,,,1000.0,1000.0,SCT,1000.0,OVC,1700.0,,,,
KRDR,05-06-2015,19:45,SPECI,Normal,140,13.0,20.0,,9999.0,,17.0,15.0,29.81,,,,,,,,,,,,,,,,,1000.0,1000.0,SCT,1000.0,OVC,1700.0,,,,
KRDR,05-06-2015,19:38,SPECI,Normal,150,15.0,20.0,,9999.0,,17.0,15.0,29.82,,,,,,,,,,,,,,,,,1200.0,1200.0,BKN,1200.0,OVC,1700.0,,,,
KRDR,05-06-2015,19:03,SPECI,Normal,150,12.0,,,9999.0,,17.0,15.0,29.83,,,,,,,,,,,,,,,,,1000.0,1000.0,OVC,1000.0,,,,,,
KRDR,05-06-2015,18:58,METAR,Normal,150,12.0,,,9999.0,,16.4,15.0,29.83,1010.7,,,,,,,,,,,,,,,,900.0,900.0,OVC,900.0,,,,,,
KRDR,05-06-2015,18:38,SPECI,Normal,150,12.0,,,9999.0,,16.0,15.0,29.84,,,,,,,,,,,,,,,,,800.0,800.0,OVC,800.0,,,,,,
KRDR,05-06-2015,17:58,METAR,Normal,160,10.0,,,9999.0,,15.2,14.2,29.85,1011.3,,,,,,,,,,,.07 IN,,.1 IN,,,700.0,700.0,OVC,700.0,,,,,,
KRDR,05-06-2015,17:51,SPECI,Normal,140,10.0,,,9999.0,Mist,15.0,14.0,29.85,,10,,,,,,,,,,,,,,,700.0,700.0,OVC,700.0,,,,,,
KRDR,05-06-2015,17:50,SPECI,Normal,150,10.0,,,9999.0,Light Rain/Mist,15.0,14.0,29.85,,61,10,,,,,,,,,,,,,,700.0,700.0,OVC,700.0,,,,,,
KRDR,05-06-2015,17:25,SPECI,Normal,160,10.0,,,9999.0,Light Rain/Mist,15.0,14.0,29.86,,61,10,,,,,,,,,,,,,,700.0,700.0,BKN,700.0,OVC,1300.0,,,,
KRDR,05-06-2015,17:18,SPECI,Normal,160,12.0,,,4800.0,Light Rain/Mist,15.0,14.0,29.87,,61,10,,,,,,,,,,,,,,600.0,400.0,SCT,400.0,BKN,800.0,OVC,1400.0,,
KRDR,05-06-2015,17:13,SPECI,Normal,160,14.0,,,4000.0,Rain/Mist,15.0,14.0,29.87,,62,10,,,,,,,,,,,,,,800.0,200.0,FEW,200.0,OVC,800.0,,,,
KRDR,05-06-2015,17:02,SPECI,Normal,180,13.0,,,9999.0,Light Rain,15.0,14.0,29.87,,61,,,,,,,,,,,,,,,800.0,800.0,OVC,800.0,,,,,,
KRDR,05-06-2015,16:59,SPECI,Normal,170,11.0,,,9999.0,,15.0,14.0,29.87,,,,,,,,,,,,,,,,,800.0,800.0,OVC,800.0,,,,,,
KRDR,05-06-2015,16:58,METAR,Normal,170,12.0,,,9999.0,Light Rain,15.2,14.1,29.87,1012.0,61,,,,,,,,,,.03 IN,,,,,800.0,800.0,OVC,800.0,,,,,,
KRDR,05-06-2015,16:18,SPECI,Normal,160,7.0,,,9999.0,Light Rain,15.0,14.0,29.88,,61,,,,,,,,,,,,,,,900.0,900.0,BKN,900.0,BKN,1300.0,OVC,3700.0,,
KRDR,05-06-2015,16:08,SPECI,Normal,170,11.0,,,9999.0,Light Rain/Mist,15.0,14.0,29.88,,61,10,,,,,,,,,,,,,,900.0,900.0,BKN,900.0,BKN,1300.0,OVC,3700.0,,
KRDR,05-06-2015,16:03,SPECI,Normal,160,11.0,,,9999.0,Light Rain,15.0,14.0,29.88,,61,,,,,,,,,,,,,,,1000.0,1000.0,OVC,1000.0,,,,,,
KRDR,05-06-2015,15:58,METAR,Normal,190,10.0,,,8000.0,Light Rain/Mist,15.0,13.6,29.88,1012.3,61,10,,,,,,,,,TRACE,,,,,1000.0,1000.0,OVC,1000.0,,,,,,
KRDR,05-06-2015,15:34,SPECI,Normal,190,15.0,18.0,,9999.0,Light Rain,15.0,13.0,29.88,,61,,,,,,,,,,,,,,,1000.0,1000.0,OVC,1000.0,,,,,,
KRDR,05-06-2015,15:13,SPECI,Normal,180,17.0,21.0,,9999.0,,16.0,13.0,29.88,,,,,,,,,,,,,,,,,1000.0,1000.0,OVC,1000.0,,,,,,
KRDR,05-06-2015,13:58,METAR,Normal,190,13.0,19.0,,9999.0,,15.2,12.7,29.90,1012.9,,,,,,,,,,,,,,,,900.0,900.0,OVC,900.0,,,,,,
KRDR,05-06-2015,12:58,METAR,Normal,190,13.0,,,9999.0,,15.1,13.0,29.90,1012.9,,,,,,,,,,,,,,,,900.0,900.0,OVC,900.0,,,,,,
KRDR,05-06-2015,12:39,SPECI,Normal,190,14.0,,,9999.0,,15.0,13.0,29.90,,,,,,,,,,,,,,,,,900.0,900.0,OVC,900.0,,,,,,
KRDR,05-06-2015,11:59,SPECI,Normal,190,14.0,,,9999.0,,15.0,13.0,29.90,,,,,,,,,,,,,,,,,1100.0,1100.0,OVC,1100.0,,,,,,
KRDR,05-06-2015,11:58,METAR,Normal,190,13.0,,,9999.0,,15.4,12.8,29.91,1013.1,,,,,,,,,,,,,,,,1200.0,1200.0,OVC,1200.0,,,,,,
KRDR,05-06-2015,10:58,METAR,Normal,150,8.0,,,9999.0,,15.1,12.2,29.91,1013.1,,,,,,,,,,,,,,,,1400.0,1400.0,OVC,1400.0,,,,,,
KRDR,05-06-2015,10:43,SPECI,Normal,150,8.0,,,9999.0,,15.0,12.0,29.91,,,,,,,,,,,,,,,,,1400.0,1400.0,OVC,1400.0,,,,,,
KRDR,05-06-2015,10:13,SPECI,Normal,160,11.0,,,9999.0,,15.0,12.0,29.92,,,,,,,,,,,,,,,,,1500.0,1500.0,BKN,1500.0,BKN,9100.0,OVC,12000.0,,
KRDR,05-06-2015,09:58,METAR,Normal,150,8.0,,,9999.0,,14.9,11.7,29.92,1013.4,,,,,,,,,,,,,,,,9000.0,7500.0,FEW,7500.0,BKN,9100.0,OVC,12000.0,,
KRDR,05-06-2015,08:58,METAR,Normal,150,8.0,,,9999.0,,14.1,11.5,29.93,1013.8,,,,,,,,,,,,,,,,9500.0,9500.0,BKN,9600.0,,,,,,
KRDR,05-06-2015,07:58,METAR,Normal,150,8.0,,,9999.0,,14.4,11.2,29.95,1014.6,,,,,,,,,,,,,,,Clear,72000.0,,,,,,,,,
KRDR,05-06-2015,05:58,METAR,Normal,160,9.0,,,9999.0,,16.3,11.2,29.96,1014.9,,,,,,,,,,,,,,,Clear,72000.0,,,,,,,,,
KRDR,05-06-2015,04:58,METAR,Normal,160,10.0,,,9999.0,,17.4,11.2,29.96,1014.9,,,,,,,,,,,,,,,Clear,72000.0,,,,,,,,,
KRDR,05-06-2015,03:58,METAR,Normal,150,14.0,,,9999.0,,18.8,10.3,29.96,1014.9,,,,,,,,,,,,,,,Clear,72000.0,,,,,,,,,
KRDR,05-06-2015,02:58,METAR,Normal,160,13.0,,,9999.0,,20.9,9.4,29.95,1014.6,,,,,,,,,,,,,,,Clear,72000.0,,,,,,,,,
KRDR,05-06-2015,01:58,METAR,Normal,160,15.0,,,9999.0,,22.0,,29.94,1014.2,,,,,,,,,,,,,,,Clear,72000.0,,,,,,,,,
KRDR,05-06-2015,00:58,METAR,Normal,130,7.0,,,9999.0,,22.6,0.5,29.93,1014.0,,,,,,,,,,,,,,,4/8 Partly Cloudy,72000.0,11000.0,SCT,11000.0,,,,,,
KRDR,05-05-2015,23:58,METAR,Normal,160,12.0,21.0,,9999.0,,25.0,-2.6,29.94,1014.5,,,,,,,,,,,,,,,Clear,72000.0,,,,,,,,,
KRDR,05-05-2015,22:58,METAR,Normal,150,14.0,22.0,,9999.0,,24.9,-4.7,29.96,1015.2,,,,,,,,,,,,,,,4/8 Partly Cloudy,72000.0,11000.0,SCT,11000.0,,,,,,
KRDR,05-05-2015,22:02,SPECI,Normal,140,14.0,21.0,,9999.0,,25.0,-6.0,29.97,,,,,,,,,,,,,,,,2/8 Mostly Clear,72000.0,12000.0,FEW,12000.0,,,,,,
KRDR,05-05-2015,21:58,METAR,Normal,170,14.0,21.0,180/27KTS,9999.0,,25.7,-5.5,29.97,1015.5,,,,,,,,,,,,,,,2/8 Mostly Clear,72000.0,12000.0,FEW,12000.0,,,,,,
KRDR,05-05-2015,20:58,METAR,Normal,210,15.0,18.0,,9999.0,,25.4,-6.7,30.00,1016.5,,,,,,,,,,,,,,,Clear,72000.0,,,,,,,,,
KRDR,05-05-2015,19:58,METAR,Normal,170,15.0,21.0,210/28KTS,9999.0,,25.0,-5.4,30.04,1017.9,,,,,,,,,,,,,,,2/8 Mostly Clear,72000.0,12000.0,FEW,12000.0,,,,,,
KRDR,05-05-2015,18:58,METAR,Normal,170,15.0,22.0,,9999.0,,23.7,-4.4,30.06,1018.5,,,,,,,,,,,,,,,Clear,72000.0,,,,,,,,,
KRDR,05-05-2015,18:50,SPECI,Normal,150,14.0,21.0,,9999.0,,24.0,-4.0,30.06,,,,,,,,,,,,,,,,Clear,72000.0,,,,,,,,,
KRDR,05-05-2015,17:58,METAR,Normal,180,13.0,20.0,,9999.0,,22.7,-3.8,30.08,1019.2,,,,,,,,,,,,,,,Clear,72000.0,,,,,,,,,
KRDR,05-05-2015,16:58,METAR,Normal,170,16.0,,170/26KTS,9999.0,,21.4,-2.9,30.11,1020.3,,,,,,,,,,,,,,,Clear,72000.0,,,,,,,,,
KRDR,05-05-2015,15:58,METAR,Normal,170,18.0,23.0,,9999.0,,19.7,-4.1,30.13,1021.1,,,,,,,,,,,,,,,Clear,72000.0,,,,,,,,,
KRDR,05-05-2015,14:58,METAR,Normal,180,15.0,,,9999.0,,16.6,-2.3,30.15,1021.7,,,,,,,,,,,,,,,Clear,72000.0,,,,,,,,,
KRDR,05-05-2015,13:58,METAR,Normal,180,16.0,,,9999.0,,15.8,-3.1,30.16,1021.9,,,,,,,,,,,,,,,2/8 Mostly Clear,72000.0,12000.0,FEW,12000.0,,,,,,
KRDR,05-05-2015,12:58,METAR,Normal,180,8.0,,,9999.0,,11.1,-1.4,30.17,1022.3,,,,,,,,,,,,,,,2/8 Mostly Clear,72000.0,9500.0,FEW,9600.0,,,,,,
KRDR,05-05-2015,11:58,METAR,Normal,180,7.0,,,9999.0,,3.5,-3.2,30.16,1022.2,,,,,,,,,,,,,,,Clear,72000.0,,,,,,,,,
KRDR,05-05-2015,10:58,METAR,Normal,150,5.0,,,9999.0,,3.1,-4.4,30.15,1021.8,,,,,,,,,,,,,,,Clear,72000.0,,,,,,,,,
KRDR,05-05-2015,10:53,SPECI,Normal,140,6.0,,,8000.0,Haze Smoke or Dust,3.0,-4.0,30.15,,05,,,,,,,,,,,,,,Clear,72000.0,,,,,,,,,
KRDR,05-05-2015,10:48,SPECI,Normal,140,6.0,,,9999.0,,2.0,-4.0,30.15,,,,,,,,,,,,,,,,Clear,72000.0,,,,,,,,,
KRDR,05-05-2015,09:58,METAR,Normal,190,6.0,,,9999.0,,3.2,-4.0,30.15,1021.8,,,,,,,,,,,,,,,Clear,72000.0,,,,,,,,,
KRDR,05-05-2015,08:58,METAR,Normal,190,5.0,,,9999.0,,3.0,-3.9,30.16,1022.2,,,,,,,,,,,,,,,Clear,72000.0,,,,,,,,,
KRDR,05-05-2015,07:58,METAR,Normal,180,6.0,,,9999.0,,5.8,-4.7,30.17,1022.4,,,,,,,,,,,,,,,Clear,72000.0,,,,,,,,,
KRDR,05-05-2015,06:58,METAR,Normal,190,6.0,,,9999.0,,7.2,-3.9,30.17,1022.4,,,,,,,,,,,,,,,Clear,72000.0,,,,,,,,,
KRDR,05-05-2015,05:58,METAR,Normal,170,8.0,,,9999.0,,9.0,-3.5,30.17,1022.4,,,,,,,,,,,,,,,Clear,72000.0,,,,,,,,,
KRDR,05-05-2015,04:58,METAR,Normal,170,6.0,,,9999.0,,6.7,-2.8,30.16,1022.2,,,,,,,,,,,,,,,Clear,72000.0,,,,,,,,,
KRDR,05-05-2015,03:58,METAR,Normal,150,4.0,,,9999.0,,6.7,-2.7,30.16,1022.2,,,,,,,,,,,,,,,Clear,72000.0,,,,,,,,,
KRDR,05-05-2015,02:58,METAR,Normal,160,4.0,,,9999.0,,9.6,-2.4,30.16,1022.2,,,,,,,,,,,,,,,Clear,72000.0,,,,,,,,,
KRDR,05-05-2015,01:58,METAR,Normal,120,4.0,,,9999.0,,15.4,-3.5,30.15,1021.8,,,,,,,,,,,,,,,Clear,72000.0,,,,,,,,,
KRDR,05-05-2015,00:58,METAR,Normal,160,3.0,,,9999.0,,19.2,-4.0,30.15,1021.8,,,,,,,,,,,,,,,Clear,72000.0,,,,,,,,,
KRDR,05-04-2015,23:58,METAR,Normal,350,4.0,,,9999.0,,20.0,-4.5,30.15,1021.9,,,,,,,,,,,,,,,Clear,72000.0,,,,,,,,,
KRDR,05-04-2015,22:58,METAR,Normal,260,3.0,,,9999.0,,20.4,-4.5,30.15,1021.9,,,,,,,,,,,,,,,Clear,72000.0,,,,,,,,,
KRDR,05-04-2015,21:58,METAR,Normal,330,10.0,,,9999.0,,20.7,-4.8,30.16,1022.2,,,,,,,,,,,,,,,Clear,72000.0,,,,,,,,,
KRDR,05-04-2015,20:58,METAR,Variable,,2.0,,,9999.0,,19.9,-3.4,30.18,1022.8,,,,,,,,,,,,,,,Clear,72000.0,,,,,,,,,
KRDR,05-04-2015,19:58,METAR,Variable,,2.0,,,9999.0,,18.9,-3.5,30.20,1023.6,,,,,,,,,,,,,,,Clear,72000.0,,,,,,,,,
KRDR,05-04-2015,18:58,METAR,Variable,,4.0,,,9999.0,,19.2,-2.5,30.21,1023.9,,,,,,,,,,,,,,,2/8 Mostly Clear,72000.0,8500.0,FEW,8600.0,,,,,,
KRDR,05-04-2015,17:58,METAR,Normal,230,5.0,,,9999.0,,18.6,-1.9,30.22,1024.2,,,,,,,,,,,,,,,4/8 Partly Cloudy,72000.0,8000.0,SCT,8000.0,,,,,,
KRDR,05-04-2015,16:58,METAR,Variable,,5.0,,,9999.0,,17.2,-1.1,30.23,1024.5,,,,,,,,,,,,,,,Clear,72000.0,,,,,,,,,
KRDR,05-04-2015,15:58,METAR,Normal,160,4.0,,,9999.0,,15.4,2.1,30.22,1024.2,,,,,,,,,,,,,,,Clear,72000.0,,,,,,,,,
KRDR,05-04-2015,14:58,METAR,Normal,170,7.0,,,9999.0,,13.8,3.4,30.22,1024.1,,,,,,,,,,,,,,,Clear,72000.0,,,,,,,,,
KRDR,05-04-2015,13:58,METAR,Normal,140,3.0,,,9999.0,,10.2,2.5,30.21,1023.9,,,,,,,,,,,,,,,Clear,72000.0,,,,,,,,,
KRDR,05-04-2015,12:58,METAR,Normal,340,3.0,,,9999.0,,6.5,1.8,30.20,1023.5,,,,,,,,,,,,,,,Clear,72000.0,,,,,,,,,
KRDR,05-04-2015,11:58,METAR,Normal,280,2.0,,,9999.0,,0.3,-2.1,30.18,1023.0,,,,,,,,,,,,,,,Clear,72000.0,,,,,,,,,
KRDR,05-04-2015,10:58,METAR,Normal,320,7.0,,,9999.0,,0.6,-2.1,30.15,1021.9,,,,,,,,,,,,,,,Clear,72000.0,,,,,,,,,
KRDR,05-04-2015,09:58,METAR,Normal,350,3.0,,,9999.0,,0.5,-2.5,30.13,1021.3,,,,,,,,,,,,,,,Clear,72000.0,,,,,,,,,
KRDR,05-04-2015,08:58,METAR,Normal,360,2.0,,,9999.0,,3.4,-2.0,30.12,1020.8,,,,,,,,,,,,,,,Clear,72000.0,,,,,,,,,
KRDR,05-04-2015,07:58,METAR,Normal,350,4.0,,,9999.0,,2.8,-3.1,30.10,1020.1,,,,,,,,,,,,,,,Clear,72000.0,,,,,,,,,
KRDR,05-04-2015,06:58,METAR,Normal,340,4.0,,,9999.0,,4.5,-2.8,30.08,1019.4,,,,,,,,,,,,,,,Clear,72000.0,,,,,,,,,
KRDR,05-04-2015,05:58,METAR,Normal,340,4.0,,,9999.0,,4.7,-3.7,30.06,1018.8,,,,,,,,,,,,,,,Clear,72000.0,,,,,,,,,
KRDR,05-04-2015,04:58,METAR,Normal,320,4.0,,,9999.0,,6.9,-3.1,30.03,1017.7,,,,,,,,,,,,,,,Clear,72000.0,,,,,,,,,
KRDR,05-04-2015,03:58,METAR,Normal,330,7.0,,,9999.0,,9.4,-3.5,30.00,1016.7,,,,,,,,,,,,,,,Clear,72000.0,,,,,,,,,
KRDR,05-04-2015,02:58,METAR,Normal,330,7.0,,,9999.0,,11.5,-3.3,29.99,1016.4,,,,,,,,,,,,,,,4/8 Partly Cloudy,72000.0,10000.0,SCT,10000.0,,,,,,
KRDR,05-04-2015,01:58,METAR,Normal,350,7.0,,,9999.0,,13.4,-3.6,29.96,1015.3,,,,,,,,,,,,,,,Clear,72000.0,,,,,,,,,
KRDR,05-04-2015,00:58,METAR,Normal,340,12.0,,,9999.0,,17.5,-4.3,29.94,1014.5,,,,,,,,,,,,,,,Clear,72000.0,,,,,,,,,
KRDR,05-03-2015,23:58,METAR,Normal,340,9.0,,,9999.0,,18.8,-3.8,29.93,1014.2,,,,,,,,,,,,,,,Clear,72000.0,,,,,,,,,
KRDR,05-03-2015,22:58,METAR,Normal,340,14.0,20.0,,9999.0,,19.4,-3.8,29.93,1014.2,,,,,,,,,,,,,,,Clear,72000.0,,,,,,,,,
KRDR,05-03-2015,21:58,METAR,Normal,310,13.0,18.0,,9999.0,,19.8,-3.6,29.92,1013.8,,,,,,,,,,,,,,,Clear,72000.0,,,,,,,,,
KRDR,05-03-2015,21:27,SPECI,Normal,320,15.0,23.0,,9999.0,,20.0,-4.0,29.91,,,,,,,,,,,,,,,,Clear,72000.0,,,,,,,,,
KRDR,05-03-2015,20:58,METAR,Normal,350,16.0,19.0,,9999.0,,20.2,-4.1,29.91,1013.4,,,,,,,,,,,,,,,Clear,72000.0,,,,,,,,,
KRDR,05-03-2015,20:47,SPECI,Normal,360,14.0,24.0,,9999.0,,20.0,-3.0,29.91,,,,,,,,,,,,,,,,Clear,72000.0,,,,,,,,,
KRDR,05-03-2015,19:58,METAR,Normal,330,19.0,25.0,,9999.0,,19.8,-4.0,29.89,1012.7,,,,,,,,,,,,,,,Clear,72000.0,,,,,,,,,
KRDR,05-03-2015,18:58,METAR,Normal,340,15.0,26.0,,9999.0,,19.7,-5.1,29.89,1012.7,,,,,,,,,,,,,,,Clear,72000.0,,,,,,,,,
KRDR,05-03-2015,18:55,SPECI,Normal,340,16.0,26.0,,9999.0,,20.0,-5.0,29.89,,,,,,,,,,,,,,,,Clear,72000.0,,,,,,,,,
KRDR,05-03-2015,18:46,SPECI,Normal,300,13.0,21.0,,9999.0,,20.0,-4.0,29.90,,,,,,,,,,,,,,,,Clear,72000.0,,,,,,,,,
KRDR,05-03-2015,17:58,METAR,Normal,330,15.0,25.0,,9999.0,,18.4,-3.6,29.90,1013.1,,,,,,,,,,,,,,,Clear,72000.0,,,,,,,,,
KRDR,05-03-2015,15:58,METAR,Normal,320,15.0,22.0,,9999.0,,13.7,1.8,29.90,1013.2,,,,,,,,,,,,,,,,11000.0,11000.0,BKN,11000.0,,,,,,
KRDR,05-03-2015,13:58,METAR,Normal,330,10.0,,,9999.0,,11.8,4.4,29.85,1011.4,,,,,,,,,,,,,,,,11000.0,11000.0,BKN,11000.0,,,,,,
KRDR,05-03-2015,12:58,METAR,Normal,330,12.0,,,9999.0,,10.4,3.5,29.82,1010.4,,,,,,,,,,,,,,,Clear,72000.0,,,,,,,,,
KRDR,05-03-2015,11:58,METAR,Normal,310,7.0,,,9999.0,,9.2,3.8,29.79,1009.4,,,,,,,,,,,,,,.01 IN,Clear,72000.0,,,,,,,,,
KRDR,05-03-2015,10:58,METAR,Normal,330,9.0,,,9999.0,,9.4,4.0,29.75,1008.0,,,,,,,,,,,,,,,Clear,72000.0,,,,,,,,,
KRDR,05-03-2015,09:58,METAR,Normal,320,7.0,,,9999.0,,9.0,4.4,29.72,1006.9,,,,,,,,,,,,,,,Clear,72000.0,,,,,,,,,
KRDR,05-03-2015,08:58,METAR,Normal,350,8.0,,,9999.0,,10.4,4.8,29.69,1005.8,,,,,,,,,,,,,,,Clear,72000.0,,,,,,,,,
KRDR,05-03-2015,07:58,METAR,Normal,350,8.0,,,9999.0,,10.9,4.7,29.67,1004.9,,,,,,,,,,,,,,,Clear,72000.0,,,,,,,,,
KRDR,05-03-2015,06:58,METAR,Normal,340,10.0,,,9999.0,,11.6,4.0,29.64,1003.9,,,,,,,,,,,,,,,Clear,72000.0,,,,,,,,,
KRDR,05-03-2015,05:58,METAR,Normal,350,10.0,,,9999.0,,13.0,6.0,29.61,1002.9,,,,,,,,,,,,,TRACE,,Clear,72000.0,,,,,,,,,
KRDR,05-03-2015,04:58,METAR,Normal,300,7.0,,,9999.0,,7.7,5.3,29.60,1002.7,,,,,,,,,,,,,,,Clear,72000.0,,,,,,,,,
KRDR,05-03-2015,03:58,METAR,Calm,,0.0,,,9999.0,,13.2,7.3,29.59,1002.3,,,,,,,,,,,,,,,Clear,72000.0,,,,,,,,,
KRDR,05-03-2015,02:58,METAR,Normal,230,4.0,,,9999.0,,14.9,7.9,29.59,1002.4,,,,,,,,,,,,TRACE,,,Clear,72000.0,,,,,,,,,
KRDR,05-03-2015,01:58,METAR,Normal,150,9.0,,,9999.0,,18.6,8.5,29.55,1000.9,,,,,,,,,,,,,,,2/8 Mostly Clear,72000.0,12000.0,FEW,12000.0,,,,,,
KRDR,05-03-2015,00:58,METAR,Normal,160,14.0,,,9999.0,,20.5,8.8,29.55,1001.0,,,,,,,,,,,TRACE,,,,,11000.0,11000.0,BKN,11000.0,,,,,,
KRDR,05-03-2015,00:41,SPECI,Normal,140,10.0,,,9999.0,,19.0,9.0,29.54,,,,,,,,,,,,,,,,,11000.0,1600.0,FEW,1600.0,BKN,11000.0,,,,
KRDR,05-03-2015,00:22,SPECI,Normal,130,13.0,,,9999.0,Light Rain,21.0,9.0,29.55,,61,,,,,,,,,,,,,,2/8 Mostly Clear,72000.0,11000.0,FEW,11000.0,,,,,,
KRDR,05-02-2015,23:58,METAR,Normal,130,14.0,,,9999.0,,21.5,8.5,29.56,1001.5,,,,,,,,,,,TRACE,,.01 IN,,2/8 Mostly Clear,72000.0,2900.0,FEW,2900.0,,,,,,
KRDR,05-02-2015,23:48,SPECI,Normal,130,13.0,,,9999.0,,22.0,9.0,29.57,,,,,,,,,,,,,,,,4/8 Partly Cloudy,72000.0,2900.0,FEW,2900.0,SCT,10000.0,,,,
KRDR,05-02-2015,23:39,SPECI,Normal,140,11.0,,,9999.0,Light Drizzle,22.0,9.0,29.58,,51,,,,,,,,,,,,,,,9000.0,2900.0,FEW,2900.0,SCT,7500.0,BKN,9100.0,,
KRDR,05-02-2015,22:58,METAR,Normal,150,18.0,20.0,,9999.0,,21.2,8.6,29.57,1001.8,,,,,,,,,,,.01 IN,,,,2/8 Mostly Clear,72000.0,10000.0,FEW,10000.0,,,,,,
KRDR,05-02-2015,22:30,SPECI,Normal,160,12.0,,,9999.0,,21.0,9.0,29.59,,,,,,,,,,,,,,,,,10000.0,4800.0,FEW,4800.0,SCT,6000.0,BKN,10000.0,,
KRDR,05-02-2015,22:17,SPECI,Normal,170,18.0,,,9999.0,Light Rain,20.0,12.0,29.61,,61,,,,,,,,,,,,,,,10000.0,4900.0,SCT,4900.0,SCT,8000.0,BKN,10000.0,,
KRDR,05-02-2015,22:01,SPECI,Normal,190,10.0,,,9999.0,Distant Lightning,22.0,9.0,29.60,,12,,,,,,,,,,,,,,4/8 Partly Cloudy,72000.0,3000.0,FEW,3000.0,SCT,7500.0,SCT,9600.0,,
KRDR,05-02-2015,21:58,METAR,Normal,180,10.0,,,9999.0,Light Rain,21.8,9.6,29.59,1002.5,61,,,,,,,,,,TRACE,,,,,10000.0,2900.0,FEW,2900.0,SCT,7500.0,BKN,10000.0,,
KRDR,05-02-2015,21:36,SPECI,Normal,270,7.0,,,9999.0,Light Rain,23.0,6.0,29.62,,61,,,,,,,,,,,,,,,9000.0,2900.0,FEW,2900.0,SCT,7000.0,OVC,9100.0,,
KRDR,05-02-2015,21:12,SPECI,Variable,,3.0,,,9999.0,,23.0,7.0,29.61,,,,,,,,,,,,,,,,,8000.0,5500.0,SCT,5500.0,BKN,8000.0,OVC,10000.0,,
KRDR,05-02-2015,21:08,SPECI,Normal,350,6.0,,,9999.0,Light Drizzle,23.0,6.0,29.63,,51,,,,,,,,,,,,,,,8500.0,6000.0,SCT,6000.0,BKN,8600.0,OVC,10000.0,,
KRDR,05-02-2015,21:06,SPECI,Normal,320,5.0,20.0,,9999.0,,23.0,6.0,29.63,,,,,,,,,,,,,,,,,8500.0,5000.0,SCT,5000.0,BKN,8600.0,OVC,10000.0,,
KRDR,05-02-2015,20:58,METAR,Normal,310,18.0,22.0,270/43KTS,9999.0,Light Drizzle,24.0,4.6,29.63,1003.7,51,,,,,,,,,,TRACE,TRACE,,,,9000.0,4900.0,SCT,4900.0,BKN,9100.0,OVC,11000.0,,
KRDR,05-02-2015,20:52,SPECI,Variable,270,10.0,26.0,,9999.0,Light Drizzle,24.0,5.0,29.62,,51,,,,,,,,,,,,,,,8500.0,4900.0,SCT,4900.0,BKN,8600.0,BKN,11000.0,,
KRDR,05-02-2015,20:47,SPECI,Normal,240,20.0,41.0,,9999.0,Light Rain,24.0,4.0,29.61,,61,,,,,,,,,,,,,,,8500.0,6000.0,SCT,6000.0,BKN,8600.0,OVC,11000.0,,
KRDR,05-02-2015,20:33,SPECI,Normal,250,24.0,31.0,,9999.0,Light Rain,26.0,3.0,29.61,,61,,,,,,,,,,,,,,,11000.0,8000.0,FEW,8000.0,BKN,11000.0,,,,
KRDR,05-02-2015,20:27,SPECI,Normal,240,25.0,31.0,,9999.0,,28.0,0.0,29.60,,,,,,,,,,,,,,,,,11000.0,9000.0,FEW,9100.0,BKN,11000.0,,,,
KRDR,05-02-2015,19:58,METAR,Normal,180,20.0,28.0,,9999.0,,30.0,1.2,29.57,1001.5,,,,,,,,,,,,,,,Clear,72000.0,,,,,,,,,
KRDR,05-02-2015,18:58,METAR,Normal,190,15.0,31.0,,9999.0,,29.9,0.9,29.60,1002.4,,,,,,,,,,,,,,,Clear,72000.0,,,,,,,,,
KRDR,05-02-2015,18:38,SPECI,Normal,210,20.0,27.0,,9999.0,,30.0,0.0,29.61,,,,,,,,,,,,,,,,Clear,72000.0,,,,,,,,,
KRDR,05-02-2015,18:16,SPECI,Normal,170,19.0,24.0,,9999.0,,29.0,2.0,29.62,,,,,,,,,,,,,,,,2/8 Mostly Clear,72000.0,12000.0,FEW,12000.0,,,,,,
KRDR,05-02-2015,18:06,SPECI,Normal,240,14.0,23.0,,9999.0,,29.0,2.0,29.63,,,,,,,,,,,,,,,,Clear,72000.0,,,,,,,,,
KRDR,05-02-2015,17:58,METAR,Normal,200,16.0,24.0,,9999.0,,29.0,2.1,29.63,1003.5,,,,,,,,,,,,,,,Clear,72000.0,,,,,,,,,
KRDR,05-02-2015,16:58,METAR,Normal,220,13.0,22.0,,9999.0,,27.8,3.3,29.67,1004.9,,,,,,,,,,,,,,,Clear,72000.0,,,,,,,,,
KRDR,05-02-2015,15:58,METAR,Normal,240,15.0,20.0,,9999.0,,24.2,4.3,29.69,1005.6,,,,,,,,,,,,,,,Clear,72000.0,,,,,,,,,
KRDR,05-02-2015,14:58,METAR,Normal,250,15.0,19.0,,9999.0,,21.9,3.8,29.70,1006.1,,,,,,,,,,,,,,,Clear,72000.0,,,,,,,,,
KRDR,05-02-2015,13:58,METAR,Normal,220,8.0,,,9999.0,,18.0,2.9,29.72,1006.9,,,,,,,,,,,,,,,Clear,72000.0,,,,,,,,,
KRDR,05-02-2015,12:58,METAR,Normal,220,6.0,,,9999.0,,14.6,2.1,29.73,1007.1,,,,,,,,,,,,,,,Clear,72000.0,,,,,,,,,
KRDR,05-02-2015,11:58,METAR,Normal,230,6.0,,,9999.0,,10.1,1.5,29.73,1007.2,,,,,,,,,,,,,,,Clear,72000.0,,,,,,,,,
KRDR,05-02-2015,10:58,METAR,Normal,230,6.0,,,9999.0,,9.7,1.1,29.74,1007.5,,,,,,,,,,,,,,,Clear,72000.0,,,,,,,,,
KRDR,05-02-2015,09:58,METAR,Normal,190,11.0,,,9999.0,,10.0,1.5,29.75,1007.9,,,,,,,,,,,,,,,Clear,72000.0,,,,,,,,,
KRDR,05-02-2015,08:58,METAR,Normal,220,8.0,,,9999.0,,12.1,2.4,29.77,1008.5,,,,,,,,,,,,,,,Clear,72000.0,,,,,,,,,
KRDR,05-02-2015,07:58,METAR,Normal,220,10.0,,,9999.0,,14.1,2.0,29.78,1008.8,,,,,,,,,,,,,,,Clear,72000.0,,,,,,,,,
KRDR,05-02-2015,06:58,METAR,Normal,210,10.0,,,9999.0,,15.3,2.0,29.79,1009.1,,,,,,,,,,,,,,,Clear,72000.0,,,,,,,,,
KRDR,05-02-2015,05:58,METAR,Normal,180,10.0,,,9999.0,,15.0,2.9,29.80,1009.5,,,,,,,,,,,,,,,Clear,72000.0,,,,,,,,,
KRDR,05-02-2015,04:58,METAR,Normal,210,10.0,,,9999.0,,16.3,2.7,29.82,1010.1,,,,,,,,,,,,,,,Clear,72000.0,,,,,,,,,
KRDR,05-02-2015,03:58,METAR,Normal,190,10.0,,,9999.0,,16.3,2.1,29.83,1010.5,,,,,,,,,,,,,,,2/8 Mostly Clear,72000.0,11000.0,FEW,11000.0,,,,,,
KRDR,05-02-2015,02:58,METAR,Normal,180,9.0,,,9999.0,,14.2,1.2,29.83,1010.7,,,,,,,,,,,,,,,Clear,72000.0,,,,,,,,,
KRDR,05-02-2015,01:58,METAR,Normal,180,6.0,,,9999.0,,15.6,1.1,29.83,1010.7,,,,,,,,,,,,,,,Clear,72000.0,,,,,,,,,
KRDR,05-02-2015,00:58,METAR,Normal,230,3.0,,,9999.0,,20.8,-0.4,29.85,1011.4,,,,,,,,,,,,,,,Clear,72000.0,,,,,,,,,
KRDR,05-01-2015,23:58,METAR,Normal,220,10.0,,,9999.0,,23.7,-1.4,29.85,1011.5,,,,,,,,,,,,,,,Clear,72000.0,,,,,,,,,
KRDR,05-01-2015,22:58,METAR,Normal,230,6.0,,,9999.0,,24.0,0.0,29.87,1012.2,,,,,,,,,,,,,,,Clear,72000.0,,,,,,,,,
KRDR,05-01-2015,21:58,METAR,Normal,220,8.0,,,9999.0,,24.0,-0.6,29.88,1012.4,,,,,,,,,,,,,,,Clear,72000.0,,,,,,,,,
KRDR,05-01-2015,20:58,METAR,Normal,260,11.0,16.0,,9999.0,,24.2,-0.4,29.91,1013.4,,,,,,,,,,,,,,,2/8 Mostly Clear,72000.0,10000.0,FEW,10000.0,,,,,,
KRDR,05-01-2015,19:58,METAR,Variable,,5.0,,,9999.0,,24.2,1.2,29.93,1014.0,,,,,,,,,,,,,,,2/8 Mostly Clear,72000.0,9000.0,FEW,9100.0,,,,,,
KRDR,05-01-2015,18:58,METAR,Normal,260,9.0,,,9999.0,,23.8,2.3,29.95,1014.7,,,,,,,,,,,,,,,4/8 Partly Cloudy,72000.0,8500.0,SCT,8600.0,,,,,,
KRDR,05-01-2015,17:58,METAR,Normal,270,8.0,15.0,,9999.0,,21.5,6.4,29.97,1015.4,,,,,,,,,,,,,,,,6000.0,5500.0,FEW,5500.0,SCT,9100.0,,,,
KRDR,05-01-2015,16:58,METAR,Variable,,4.0,,,9999.0,,20.8,6.6,29.98,1015.7,,,,,,,,,,,,,,,Clear,72000.0,,,,,,,,,
KRDR,05-01-2015,15:58,METAR,Normal,220,4.0,,,9999.0,,18.6,10.4,29.99,1016.1,,,,,,,,,,,,,,,Clear,72000.0,,,,,,,,,
KRDR,05-01-2015,14:58,METAR,Normal,190,2.0,,,9999.0,,15.9,15.0,29.99,1016.1,,,,,,,,,,,,,,,Clear,72000.0,,,,,,,,,
KRDR,05-01-2015,13:58,METAR,Normal,280,3.0,,,9999.0,,13.8,13.5,29.99,1016.1,,,,,,,,,,,,,,,Clear,72000.0,,,,,,,,,
KRDR,05-01-2015,12:58,METAR,Normal,280,1.0,,,9999.0,,9.3,9.0,29.99,1016.1,,,,,,,,,,,,,,,Clear,72000.0,,,,,,,,,
KRDR,05-01-2015,12:48,SPECI,Normal,280,2.0,,,9999.0,,9.0,8.0,29.99,,,,,,,,,,,,,,,,Clear,72000.0,,,,,,,,,
KRDR,05-01-2015,12:43,SPECI,Normal,280,1.0,,,4000.0,Mist,8.0,8.0,29.98,,10,,,,,,,,,,,,,,Clear,72000.0,,,,,,,,,
KRDR,05-01-2015,12:38,SPECI,Normal,270,1.0,,,2000.0,Mist,8.0,8.0,29.98,,10,,,,,,,,,,,,,,Clear,72000.0,,,,,,,,,
KRDR,05-01-2015,12:33,SPECI,Normal,270,2.0,,,800.0,Fog,7.0,7.0,29.98,,30,,,,,,,,,,,,,,Clear,72000.0,,,,,,,,,
KRDR,05-01-2015,12:28,SPECI,Normal,270,3.0,,,800.0,Fog,6.0,6.0,29.98,,30,,,,,,,,,,,,,,Clear,72000.0,,,,,,,,,
KRDR,05-01-2015,12:23,SPECI,Normal,250,2.0,,,800.0,Fog,6.0,5.0,29.98,,30,,,,,,,,,,,,,,Clear,72000.0,,,,,,,,,
KRDR,05-01-2015,12:18,SPECI,Normal,240,2.0,,,400.0,Fog,5.0,5.0,29.98,,30,,,,,,,,,,,,,,Clear,72000.0,,,,,,,,,
KRDR,05-01-2015,12:08,SPECI,Normal,240,3.0,,,0.0,Fog,5.0,5.0,29.98,,30,,,,,,,,,,,,,,Clear,72000.0,,,,,,,,,
KRDR,05-01-2015,12:03,SPECI,Normal,230,3.0,,,400.0,Fog,5.0,5.0,29.98,,30,,,,,,,,,,,,,,Clear,72000.0,,,,,,,,,
KRDR,05-01-2015,11:58,METAR,Normal,230,2.0,,,0.0,Fog,3.7,3.4,29.98,1015.8,30,,,,,,,,,,.01 IN,,.01 IN,.09 IN,Clear,72000.0,,,,,,,,,
KRDR,05-01-2015,11:03,SPECI,Normal,280,2.0,,,0.0,Fog,4.0,4.0,29.97,,30,,,,,,,,,,,,,,Clear,72000.0,,,,,,,,,
KRDR,05-01-2015,10:58,METAR,Normal,280,2.0,,,400.0,Fog,4.0,3.7,29.97,1015.5,30,,,,,,,,,,,,,,Clear,72000.0,,,,,,,,,
KRDR,05-01-2015,10:38,SPECI,Normal,280,4.0,,,400.0,Fog,5.0,5.0,29.96,,30,,,,,,,,,,,,,,Clear,72000.0,,,,,,,,,
KRDR,05-01-2015,10:33,SPECI,Normal,280,4.0,,,800.0,Fog,6.0,5.0,29.96,,30,,,,,,,,,,,,,,Clear,72000.0,,,,,,,,,
KRDR,05-01-2015,10:18,SPECI,Normal,280,3.0,,,400.0,Fog,5.0,5.0,29.96,,30,,,,,,,,,,,,,,Clear,72000.0,,,,,,,,,
KRDR,05-01-2015,10:13,SPECI,Normal,280,4.0,,,800.0,Fog,5.0,5.0,29.96,,30,,,,,,,,,,,,,,Clear,72000.0,,,,,,,,,
KRDR,05-01-2015,09:58,METAR,Normal,280,4.0,,,400.0,Fog,5.0,5.0,29.96,1015.1,30,,,,,,,,,,,,,,Clear,72000.0,,,,,,,,,
KRDR,05-01-2015,09:53,SPECI,Normal,280,4.0,,,800.0,Fog,6.0,5.0,29.96,,30,,,,,,,,,,,,,,Clear,72000.0,,,,,,,,,
KRDR,05-01-2015,09:48,SPECI,Normal,270,3.0,,,1200.0,Mist,6.0,6.0,29.96,,10,,,,,,,,,,,,,,Clear,72000.0,,,,,,,,,
KRDR,05-01-2015,09:43,SPECI,Normal,290,4.0,,,4000.0,Mist,6.0,6.0,29.96,,10,,,,,,,,,,,,,,Clear,72000.0,,,,,,,,,
KRDR,05-01-2015,09:38,SPECI,Normal,300,5.0,,,9999.0,,7.0,6.0,29.96,,,,,,,,,,,,,,,,Clear,72000.0,,,,,,,,,
KRDR,05-01-2015,09:33,SPECI,Normal,300,5.0,,,6400.0,Mist,6.0,6.0,29.96,,10,,,,,,,,,,,,,,Clear,72000.0,,,,,,,,,
KRDR,05-01-2015,09:28,SPECI,Normal,300,6.0,,,2000.0,Mist,6.0,6.0,29.96,,10,,,,,,,,,,,,,,Clear,72000.0,,,,,,,,,
KRDR,05-01-2015,09:23,SPECI,Normal,290,5.0,,,800.0,Fog,5.0,5.0,29.96,,30,,,,,,,,,,,,,,Clear,72000.0,,,,,,,,,
KRDR,05-01-2015,09:13,SPECI,Normal,290,5.0,,,400.0,Fog,6.0,6.0,29.95,,30,,,,,,,,,,,,,,Clear,72000.0,,,,,,,,,
KRDR,05-01-2015,09:08,SPECI,Normal,290,4.0,,,800.0,Fog,7.0,6.0,29.95,,30,,,,,,,,,,,,,,Clear,72000.0,,,,,,,,,
KRDR,05-01-2015,09:03,SPECI,Normal,290,5.0,,,1200.0,Mist,7.0,7.0,29.95,,10,,,,,,,,,,,,,,Clear,72000.0,,,,,,,,,
KRDR,05-01-2015,08:58,METAR,Normal,290,5.0,,,2400.0,Mist,6.9,6.7,29.95,1014.7,10,,,,,,,,,,,,,,Clear,72000.0,,,,,,,,,
KRDR,05-01-2015,08:53,SPECI,Normal,290,5.0,,,800.0,Fog,7.0,7.0,29.95,,30,,,,,,,,,,,,,,Clear,72000.0,,,,,,,,,
KRDR,05-01-2015,08:48,SPECI,Normal,300,5.0,,,400.0,Fog,7.0,7.0,29.95,,30,,,,,,,,,,,,,,Clear,72000.0,,,,,,,,,
KRDR,05-01-2015,08:43,SPECI,Normal,290,5.0,,,800.0,Fog,8.0,8.0,29.95,,30,,,,,,,,,,,,,,Clear,72000.0,,,,,,,,,
KRDR,05-01-2015,08:38,SPECI,Normal,290,4.0,,,1200.0,Mist,9.0,8.0,29.95,,10,,,,,,,,,,,,,,Clear,72000.0,,,,,,,,,
KRDR,05-01-2015,08:33,SPECI,Normal,280,3.0,,,2400.0,Mist,9.0,9.0,29.95,,10,,,,,,,,,,,,,,Clear,72000.0,,,,,,,,,
KRDR,05-01-2015,08:28,SPECI,Normal,270,3.0,,,3200.0,Mist,9.0,9.0,29.95,,10,,,,,,,,,,,,,,Clear,72000.0,,,,,,,,,
KRDR,05-01-2015,08:23,SPECI,Normal,270,2.0,,,4000.0,Mist,9.0,9.0,29.95,,10,,,,,,,,,,,,,,Clear,72000.0,,,,,,,,,
KRDR,05-01-2015,08:13,SPECI,Normal,240,1.0,,,4800.0,Mist,9.0,8.0,29.95,,10,,,,,,,,,,,,,,Clear,72000.0,,,,,,,,,
KRDR,05-01-2015,08:08,SPECI,Normal,210,2.0,,,2000.0,Mist,8.0,8.0,29.95,,10,,,,,,,,,,,,,,Clear,72000.0,,,,,,,,,
KRDR,05-01-2015,08:03,SPECI,Normal,220,2.0,,,2000.0,Mist,9.0,9.0,29.95,,10,,,,,,,,,,,,,,Clear,72000.0,,,,,,,,,
KRDR,05-01-2015,07:58,METAR,Normal,250,2.0,,,4800.0,Mist,8.9,8.6,29.94,1014.3,10,,,,,,,,,,,,,,Clear,72000.0,,,,,,,,,
KRDR,05-01-2015,07:18,SPECI,Normal,310,7.0,,,4800.0,Mist,9.0,9.0,29.94,,10,,,,,,,,,,,,,,Clear,72000.0,,,,,,,,,
KRDR,05-01-2015,07:13,SPECI,Normal,300,5.0,,,2800.0,Mist,9.0,9.0,29.94,,10,,,,,,,,,,,,,,Clear,72000.0,,,,,,,,,
KRDR,05-01-2015,07:08,SPECI,Normal,300,6.0,,,800.0,Fog,9.0,9.0,29.94,,30,,,,,,,,,,,,,,Clear,72000.0,,,,,,,,,
KRDR,05-01-2015,06:58,METAR,Normal,310,5.0,,,400.0,Fog,9.4,9.0,29.95,1014.7,30,,,,,,,,,,,,,,Clear,72000.0,,,,,,,,,
KRDR,05-01-2015,06:43,SPECI,Normal,290,3.0,,,800.0,Fog,10.0,9.0,29.94,,30,,,,,,,,,,,,,,Clear,72000.0,,,,,,,,,
KRDR,05-01-2015,06:38,SPECI,Normal,270,3.0,,,1200.0,Mist,9.0,9.0,29.94,,10,,,,,,,,,,,,,,Clear,72000.0,,,,,,,,,
KRDR,05-01-2015,06:33,SPECI,Normal,260,4.0,,,1600.0,Mist,10.0,9.0,29.94,,10,,,,,,,,,,,,,,Clear,72000.0,,,,,,,,,
KRDR,05-01-2015,06:28,SPECI,Normal,270,4.0,,,6400.0,Mist,10.0,9.0,29.94,,10,,,,,,,,,,,,,,Clear,72000.0,,,,,,,,,
KRDR,05-01-2015,06:18,SPECI,Normal,250,4.0,,,9999.0,,10.0,10.0,29.94,,,,,,,,,,,,,,,,Clear,72000.0,,,,,,,,,
KRDR,05-01-2015,06:08,SPECI,Normal,240,3.0,,,9999.0,,11.0,10.0,29.94,,,,,,,,,,,,,,,,Clear,72000.0,,,,,,,,,
KRDR,05-01-2015,06:03,SPECI,Normal,230,3.0,,,3200.0,Mist,11.0,10.0,29.94,,10,,,,,,,,,,,,,,Clear,72000.0,,,,,,,,,
KRDR,05-01-2015,05:58,METAR,Normal,230,4.0,,,1200.0,Mist,10.7,10.3,29.94,1014.3,10,,,,,,,,,,TRACE,,.08 IN,,Clear,72000.0,,,,,,,,,
KRDR,05-01-2015,05:55,SPECI,Normal,230,4.0,,,1200.0,Mist,11.0,10.0,29.94,,10,,,,,,,,,,,,,,2/8 Mostly Clear,72000.0,11000.0,FEW,11000.0,,,,,,
KRDR,05-01-2015,05:50,SPECI,Normal,250,3.0,,,2400.0,Mist,11.0,10.0,29.94,,10,,,,,,,,,,,,,,2/8 Mostly Clear,72000.0,10000.0,FEW,10000.0,,,,,,
KRDR,05-01-2015,05:45,SPECI,Normal,260,2.0,,,9999.0,,11.0,10.0,29.94,,,,,,,,,,,,,,,,4/8 Partly Cloudy,72000.0,10000.0,SCT,10000.0,,,,,,
KRDR,05-01-2015,05:05,SPECI,Normal,100,1.0,,,9999.0,,13.0,11.0,29.93,,,,,,,,,,,,,,,,,7000.0,7000.0,OVC,7000.0,,,,,,
KRDR,05-01-2015,04:58,METAR,Variable,,1.0,,,9999.0,Light Rain,12.4,11.4,29.93,1013.9,61,,,,,,,,,,.07 IN,,,,,6500.0,6500.0,OVC,6500.0,,,,,,
KRDR,05-01-2015,04:48,SPECI,Normal,10,1.0,,,9999.0,Light Rain,12.0,11.0,29.93,,61,,,,,,,,,,,,,,,6000.0,6000.0,OVC,6000.0,,,,,,
KRDR,05-01-2015,04:43,SPECI,Normal,30,3.0,,,9999.0,Light Rain,13.0,11.0,29.93,,61,,,,,,,,,,,,,,,6000.0,6000.0,OVC,6000.0,,,,,,
KRDR,05-01-2015,04:33,SPECI,Normal,360,3.0,,,8000.0,Light Rain/Mist,13.0,11.0,29.92,,61,10,,,,,,,,,,,,,,6000.0,6000.0,OVC,6000.0,,,,,,
KRDR,05-01-2015,04:23,SPECI,Normal,330,4.0,,,6400.0,Light Rain/Mist,13.0,12.0,29.93,,61,10,,,,,,,,,,,,,,6500.0,6500.0,OVC,6500.0,,,,,,
KRDR,05-01-2015,04:13,SPECI,Normal,330,5.0,,,9999.0,Light Rain,13.0,12.0,29.93,,61,,,,,,,,,,,,,,,6500.0,6500.0,OVC,6500.0,,,,,,
KRDR,05-01-2015,03:58,METAR,Normal,350,4.0,,,9999.0,Light Rain,13.5,11.6,29.91,1013.3,61,,,,,,,,,,.01 IN,,,,,7000.0,7000.0,OVC,7000.0,,,,,,
KRDR,05-01-2015,03:48,SPECI,Normal,340,8.0,,,9999.0,Light Rain,14.0,12.0,29.91,,61,,,,,,,,,,,,,,,6500.0,6500.0,BKN,6500.0,,,,,,
KRDR,05-01-2015,03:33,SPECI,Normal,340,11.0,,,9999.0,Light Rain,14.0,11.0,29.91,,61,,,,,,,,,,,,,,2/8 Mostly Clear,72000.0,7000.0,FEW,7000.0,,,,,,
KRDR,05-01-2015,03:13,SPECI,Normal,340,11.0,,,9999.0,,15.0,11.0,29.90,,,,,,,,,,,,,,,,Clear,72000.0,,,,,,,,,
KRDR,05-01-2015,02:58,METAR,Normal,330,16.0,22.0,,9999.0,Light Drizzle,17.0,9.0,29.89,1012.5,51,,,,,,,,,,TRACE,TRACE,,,4/8 Partly Cloudy,72000.0,10000.0,SCT,10000.0,,,,,,
KRDR,05-01-2015,02:53,SPECI,Normal,330,11.0,,,9999.0,Light Drizzle,17.0,9.0,29.89,,51,,,,,,,,,,,,,,,10000.0,10000.0,BKN,10000.0,,,,,,
KRDR,05-01-2015,01:58,METAR,Normal,330,13.0,21.0,,9999.0,,18.9,7.0,29.84,1010.9,,,,,,,,,,,,,,,Clear,72000.0,,,,,,,,,
KRDR,05-01-2015,01:04,SPECI,Normal,300,12.0,20.0,,9999.0,,23.0,4.0,29.81,,,,,,,,,,,,,,,,,10000.0,10000.0,OVC,10000.0,,,,,,
KRDR,05-01-2015,00:59,SPECI,Variable,270,15.0,21.0,,9999.0,,23.0,0.0,29.80,,,,,,,,,,,,,,,,,10000.0,10000.0,OVC,10000.0,,,,,,
KRDR,05-01-2015,00:58,METAR,Normal,240,14.0,20.0,,9999.0,,23.4,0.2,29.80,1009.5,,,,,,,,,,,,,,,,10000.0,10000.0,OVC,10000.0,,,,,,
KRDR,05-01-2015,00:56,SPECI,Normal,220,14.0,,,9999.0,,23.0,0.0,29.80,,,,,,,,,,,,,,,,,10000.0,10000.0,OVC,10000.0,,,,,,
KRDR,04-30-2015,23:58,METAR,Normal,180,19.0,,,9999.0,,25.0,0.4,29.78,1008.9,,,,,,,,,,,,,,,2/8 Mostly Clear,72000.0,10000.0,FEW,10000.0,,,,,,
KRDR,04-30-2015,22:58,METAR,Normal,200,15.0,26.0,190/26KTS,9999.0,,25.8,0.0,29.80,1009.6,,,,,,,,,,,,,,,4/8 Partly Cloudy,72000.0,10000.0,SCT,10000.0,,,,,,
KRDR,04-30-2015,21:58,METAR,Normal,220,18.0,25.0,180/29KTS,9999.0,,26.3,0.0,29.81,1009.9,,,,,,,,,,,,,,,,11000.0,11000.0,BKN,11000.0,,,,,,
KRDR,04-30-2015,20:58,METAR,Normal,200,17.0,25.0,,9999.0,,26.4,-1.1,29.83,1010.5,,,,,,,,,,,,,,,Clear,72000.0,,,,,,,,,
KRDR,04-30-2015,20:47,SPECI,Normal,180,16.0,25.0,,9999.0,,26.0,-1.0,29.83,,,,,,,,,,,,,,,,Clear,72000.0,,,,,,,,,
KRDR,04-30-2015,19:58,METAR,Normal,190,16.0,24.0,,9999.0,,25.9,-2.5,29.85,1011.2,,,,,,,,,,,,,,,Clear,72000.0,,,,,,,,,
KRDR,04-30-2015,19:25,SPECI,Normal,170,17.0,25.0,,9999.0,,26.0,-3.0,29.86,,,,,,,,,,,,,,,,Clear,72000.0,,,,,,,,,
KRDR,04-30-2015,19:13,SPECI,Normal,210,16.0,24.0,,9999.0,,25.0,-3.0,29.86,,,,,,,,,,,,,,,,Clear,72000.0,,,,,,,,,
KRDR,04-30-2015,18:58,METAR,Normal,180,22.0,29.0,,9999.0,,25.3,-3.2,29.86,1011.6,,,,,,,,,,,,,,,Clear,72000.0,,,,,,,,,
KRDR,04-30-2015,17:58,METAR,Normal,200,20.0,27.0,,9999.0,,24.2,-2.9,29.89,1012.7,,,,,,,,,,,,,,,Clear,72000.0,,,,,,,,,
KRDR,04-30-2015,16:58,METAR,Normal,190,18.0,25.0,,9999.0,,23.1,-2.4,29.90,1013.0,,,,,,,,,,,,,,,Clear,72000.0,,,,,,,,,
KRDR,04-30-2015,15:58,METAR,Normal,190,15.0,21.0,,9999.0,,22.0,-2.0,29.91,1013.4,,,,,,,,,,,,,,,Clear,72000.0,,,,,,,,,
KRDR,04-30-2015,14:58,METAR,Normal,220,18.0,24.0,,9999.0,,20.0,-1.9,29.92,1013.7,,,,,,,,,,,,,,,Clear,72000.0,,,,,,,,,
KRDR,04-30-2015,13:58,METAR,Normal,200,11.0,,,9999.0,,16.3,-1.3,29.94,1014.4,,,,,,,,,,,,,,,Clear,72000.0,,,,,,,,,
KRDR,04-30-2015,12:58,METAR,Normal,200,8.0,,,9999.0,,12.4,-0.4,29.94,1014.4,,,,,,,,,,,,,,,Clear,72000.0,,,,,,,,,
KRDR,04-30-2015,11:58,METAR,Normal,200,7.0,,,9999.0,,7.6,-1.6,29.92,1013.8,,,,,,,,,,,,,,,Clear,72000.0,,,,,,,,,
KRDR,04-30-2015,10:58,METAR,Normal,220,6.0,,,9999.0,,7.3,-1.9,29.91,1013.5,,,,,,,,,,,,,,,Clear,72000.0,,,,,,,,,
KRDR,04-30-2015,09:58,METAR,Normal,230,6.0,,,9999.0,,8.1,-2.2,29.91,1013.4,,,,,,,,,,,,,,,Clear,72000.0,,,,,,,,,
KRDR,04-30-2015,08:58,METAR,Normal,230,8.0,,,9999.0,,11.0,-2.0,29.91,1013.3,,,,,,,,,,,,,,,Clear,72000.0,,,,,,,,,
KRDR,04-30-2015,07:58,METAR,Normal,230,8.0,,,9999.0,,11.1,-2.2,29.91,1013.3,,,,,,,,,,,,,,,Clear,72000.0,,,,,,,,,
KRDR,04-30-2015,06:58,METAR,Normal,220,7.0,,,9999.0,,10.7,-2.8,29.93,1014.0,,,,,,,,,,,,,,,Clear,72000.0,,,,,,,,,
KRDR,04-30-2015,05:58,METAR,Normal,220,6.0,,,9999.0,,10.1,-2.7,29.94,1014.4,,,,,,,,,,,,,,,Clear,72000.0,,,,,,,,,
KRDR,04-30-2015,04:58,METAR,Normal,200,7.0,,,9999.0,,8.9,-3.1,29.94,1014.5,,,,,,,,,,,,,,,Clear,72000.0,,,,,,,,,
KRDR,04-30-2015,03:58,METAR,Normal,180,6.0,,,9999.0,,10.9,-2.0,29.93,1014.1,,,,,,,,,,,,,,,Clear,72000.0,,,,,,,,,
KRDR,04-30-2015,02:58,METAR,Normal,160,7.0,,,9999.0,,13.8,-2.3,29.94,1014.4,,,,,,,,,,,,,,,Clear,72000.0,,,,,,,,,
KRDR,04-30-2015,01:58,METAR,Normal,150,7.0,,,9999.0,,15.7,-2.5,29.94,1014.5,,,,,,,,,,,,,,,Clear,72000.0,,,,,,,,,
KRDR,04-30-2015,00:58,METAR,Normal,170,7.0,,,9999.0,,20.1,-2.0,29.94,1014.5,,,,,,,,,,,,,,,Clear,72000.0,,,,,,,,,
KRDR,04-29-2015,23:58,METAR,Normal,190,7.0,,,9999.0,,22.4,-2.6,29.94,1014.7,,,,,,,,,,,,,,,Clear,72000.0,,,,,,,,,
KRDR,04-29-2015,22:58,METAR,Normal,160,8.0,,,9999.0,,23.0,-2.7,29.95,1015.0,,,,,,,,,,,,,,,Clear,72000.0,,,,,,,,,
KRDR,04-29-2015,21:58,METAR,Normal,170,8.0,17.0,,9999.0,,23.2,-2.2,29.96,1015.3,,,,,,,,,,,,,,,Clear,72000.0,,,,,,,,,
KRDR,04-29-2015,20:58,METAR,Normal,150,7.0,,,9999.0,,23.1,-1.9,29.98,1016.0,,,,,,,,,,,,,,,Clear,72000.0,,,,,,,,,
KRDR,04-29-2015,20:32,SPECI,Variable,180,13.0,17.0,,9999.0,,23.0,-2.0,29.99,,,,,,,,,,,,,,,,Clear,72000.0,,,,,,,,,
KRDR,04-29-2015,19:58,METAR,Normal,170,6.0,,,9999.0,,22.6,-1.2,29.99,1016.3,,,,,,,,,,,,,,,Clear,72000.0,,,,,,,,,
KRDR,04-29-2015,18:58,METAR,Variable,180,10.0,,,9999.0,,22.3,-1.4,30.01,1017.0,,,,,,,,,,,,,,,Clear,72000.0,,,,,,,,,
KRDR,04-29-2015,17:58,METAR,Normal,160,7.0,,,9999.0,,21.4,-1.4,30.03,1017.7,,,,,,,,,,,,,,,Clear,72000.0,,,,,,,,,
KRDR,04-29-2015,16:58,METAR,Normal,240,7.0,,,9999.0,,21.1,-0.3,30.04,1018.0,,,,,,,,,,,,,,,Clear,72000.0,,,,,,,,,
KRDR,04-29-2015,15:58,METAR,Normal,180,5.0,,,9999.0,,19.5,-0.8,30.06,1018.7,,,,,,,,,,,,,,,Clear,72000.0,,,,,,,,,
KRDR,04-29-2015,14:58,METAR,Normal,160,6.0,,,9999.0,,17.1,0.7,30.07,1019.1,,,,,,,,,,,,,,,Clear,72000.0,,,,,,,,,
KRDR,04-29-2015,13:58,METAR,Normal,180,6.0,,,9999.0,,12.5,1.0,30.09,1019.8,,,,,,,,,,,,,,,Clear,72000.0,,,,,,,,,
KRDR,04-29-2015,12:58,METAR,Normal,150,3.0,,,9999.0,,6.6,1.3,30.09,1019.8,,,,,,,,,,,,,,,Clear,72000.0,,,,,,,,,
KRDR,04-29-2015,11:58,METAR,Normal,180,5.0,,,9999.0,,1.1,-2.8,30.08,1019.6,,,,,,,,,,,,,,,Clear,72000.0,,,,,,,,,
KRDR,04-29-2015,10:58,METAR,Normal,210,4.0,,,9999.0,,-0.1,-3.1,30.09,1019.9,,,,,,,,,,,,,,,Clear,72000.0,,,,,,,,,
KRDR,04-29-2015,09:58,METAR,Normal,210,2.0,,,9999.0,,0.5,-2.6,30.08,1019.6,,,,,,,,,,,,,,,Clear,72000.0,,,,,,,,,
KRDR,04-29-2015,08:58,METAR,Normal,220,3.0,,,9999.0,,1.7,-2.6,30.08,1019.6,,,,,,,,,,,,,,,Clear,72000.0,,,,,,,,,
KRDR,04-29-2015,07:58,METAR,Normal,230,4.0,,,9999.0,,2.3,-2.1,30.08,1019.5,,,,,,,,,,,,,,,Clear,72000.0,,,,,,,,,
KRDR,04-29-2015,06:58,METAR,Normal,220,3.0,,,9999.0,,2.8,-1.5,30.09,1019.9,,,,,,,,,,,,,,,Clear,72000.0,,,,,,,,,
KRDR,04-29-2015,05:58,METAR,Normal,240,4.0,,,9999.0,,2.7,-1.6,30.10,1020.4,,,,,,,,,,,,,,,Clear,72000.0,,,,,,,,,
KRDR,04-29-2015,04:58,METAR,Variable,,3.0,,,9999.0,,4.4,-0.4,30.11,1020.7,,,,,,,,,,,,,,,Clear,72000.0,,,,,,,,,
KRDR,04-29-2015,03:58,METAR,Normal,260,3.0,,,9999.0,,5.3,0.0,30.11,1020.8,,,,,,,,,,,,,,,Clear,72000.0,,,,,,,,,
KRDR,04-29-2015,02:58,METAR,Normal,260,1.0,,,9999.0,,6.8,-0.5,30.12,1021.1,,,,,,,,,,,,,,,Clear,72000.0,,,,,,,,,
KRDR,04-29-2015,01:58,METAR,Calm,,0.0,,,9999.0,,11.0,0.1,30.11,1020.7,,,,,,,,,,,,,,,Clear,72000.0,,,,,,,,,
KRDR,04-29-2015,00:58,METAR,Normal,100,2.0,,,9999.0,,16.7,-1.1,30.12,1020.9,,,,,,,,,,,,,,,Clear,72000.0,,,,,,,,,
