Platform Id,Date,Time (UTC),Report Type,Wind Condition,Wind Direction,Wind Speed (Knots),Wind Gust Speed,Peak Wind (Knots),Visibility (M),Weather,Air Temp (C),Dew Point (C),Altimeter (inHg),SLP (Millibars),Present Automated 1,Present Automated 2,Present Automated 3,Present Manual 1,Present Manual 2,Present Manual 3,Present Manual 4,Present Manual 5,Present Manual 6,Present Manual 7,Precip Hr1,Precip Hr3,Precip Hr6,Precip Hr24,Cloud Cover,Cloud Ceiling (Feet),Lowest Cloud Base Height (Feet),Cloud Cover1,Cloudbase 1,Cloud Cover2,Cloudbase 2,Cloud Cover3,Cloudbase 3,Cloud Cover4,Cloudbase 4
KRDR,12-18-2002,23:00,METAR,,340,6.0,,,1200.0,Light Snow/Mist/Cloud Development Not Observable,0.0,0.0,29.37,996.3,,,,71,10,0,,,,,,,,,8/8 Overcast,300.0,,OVC,300.0,,,,,,
KRDR,12-18-2002,22:00,METAR,,350,7.0,,,1600.0,Light Snow/Mist/Cloud Development Not Observable,0.0,0.0,29.36,996.0,,,,71,10,0,,,,,,,,,8/8 Overcast,400.0,,OVC,400.0,,,,,,
KRDR,12-18-2002,21:00,METAR,,350,4.0,,,1600.0,Light Snow/Mist/Cloud Development Not Observable,0.0,0.0,29.35,996.0,,,,71,10,0,,,,,,.06 IN,,,8/8 Overcast,400.0,,OVC,400.0,,,,,,
KRDR,12-18-2002,20:00,METAR,,20,4.0,,,1600.0,Light Snow/Mist/Cloud Development Not Observable,0.0,0.0,29.36,996.0,,,,71,10,0,,,,,,,.04 IN,,8/8 Overcast,400.0,,OVC,400.0,,,,,,
KRDR,12-18-2002,19:00,METAR,,50,3.0,,,800.0,Light Snow/Mist/Cloud Development Not Observable,0.0,0.0,29.37,996.4,,,,71,10,0,,,,,,,,,8/8 Overcast,400.0,,OVC,400.0,,,,,,
KRDR,12-18-2002,17:55,METAR,,90,6.0,,,800.0,Light Snow/Mist/Cloud Development Not Observable,0.0,0.0,29.39,997.1,,,,71,10,0,,,,,,,.05 IN,,8/8 Overcast,400.0,,OVC,400.0,,,,,,
KRDR,12-18-2002,17:34,SPECI,,100,5.0,,,800.0,Light Snow/Mist/Cloud Development Not Observable,0.0,0.0,29.40,,,,,71,10,0,,,,,,,,,8/8 Overcast,400.0,,OVC,400.0,,,,,,
KRDR,12-18-2002,17:16,SPECI,,90,5.0,,,3200.0,Light Snow/Mist/Cloud Development Not Observable,0.0,0.0,29.40,,,,,71,10,0,,,,,,,,,8/8 Overcast,400.0,,OVC,400.0,,,,,,
KRDR,12-18-2002,17:00,METAR,,90,5.0,,,1600.0,Light Snow/Mist/Cloud Development Not Observable,0.0,0.0,29.41,997.6,,,,71,10,0,,,,,,,,,8/8 Overcast,400.0,,OVC,400.0,,,,,,
KRDR,12-18-2002,16:37,SPECI,,90,6.0,,,1600.0,Light Snow/Mist/Cloud Development Not Observable,0.0,0.0,29.41,,,,,71,10,0,,,,,,,,,8/8 Overcast,400.0,,OVC,400.0,,,,,,
KRDR,12-18-2002,15:55,METAR,,90,6.0,,,4800.0,Light Snow/Mist/Cloud Development Not Observable,0.0,0.0,29.41,997.6,,,,71,10,0,,,,,,,,,8/8 Overcast,400.0,,OVC,400.0,,,,,,
KRDR,12-18-2002,15:00,METAR,,100,6.0,,,4800.0,Snow Grains/Mist/Cloud Development Not Observable,0.0,0.0,29.43,998.1,,,,77,10,0,,,,,,.01 IN,,,8/8 Overcast,600.0,,BKN,600.0,OVC,2000.0,,,,
KRDR,12-18-2002,14:00,METAR,,100,7.0,,,4800.0,Light Snow/Mist/Cloud Development Not Observable,0.0,0.0,29.45,998.7,,,,71,10,0,,,,,,,,,8/8 Overcast,600.0,,BKN,600.0,OVC,2000.0,,,,
KRDR,12-18-2002,13:01,SPECI,,100,8.0,,,4800.0,Light Snow/Mist/Cloud Development Not Observable,-1.0,-1.0,29.45,,,,,71,10,0,,,,,,,,,8/8 Overcast,600.0,,BKN,600.0,OVC,2000.0,,,,
KRDR,12-18-2002,13:00,METAR,,90,8.0,,,4800.0,Light Snow/Mist/Cloud Development Not Observable,-1.0,-1.0,29.46,999.0,,,,71,10,0,,,,,,,,,8/8 Overcast,600.0,,BKN,600.0,OVC,2000.0,,,,
KRDR,12-18-2002,12:47,SPECI,,90,8.0,,,4800.0,Light Snow/Mist/Cloud Development Not Observable,-1.0,-1.0,29.46,,,,,71,10,0,,,,,,,,,8/8 Overcast,600.0,,BKN,600.0,OVC,2000.0,,,,
KRDR,12-18-2002,12:00,METAR,,90,8.0,,,3200.0,Light Snow/Mist/Cloud Development Not Observable,-1.0,-1.0,29.46,999.0,,,,71,10,0,,,,,,,.09 IN,.1 IN,8/8 Overcast,2000.0,,SCT,600.0,OVC,2000.0,,,,
KRDR,12-18-2002,11:32,SPECI,,90,9.0,,,3200.0,Light Snow/Mist/Cloud Development Not Observable,-1.0,-1.0,29.47,,,,,71,10,0,,,,,,,,,8/8 Overcast,2000.0,,SCT,600.0,OVC,2000.0,,,,
KRDR,12-18-2002,11:20,METAR,,90,9.0,,,2400.0,Light Snow/Mist/Cloud Development Not Observable,-1.0,-1.0,29.47,,,,,71,10,0,,,,,,,,,8/8 Overcast,2000.0,,SCT,600.0,OVC,2000.0,,,,
KRDR,12-18-2002,11:00,METAR,,90,8.0,,,1600.0,Light Snow/Mist/Cloud Development Not Observable,-1.0,-1.0,29.48,999.7,,,,71,10,0,,,,,,,,,8/8 Overcast,600.0,,BKN,600.0,OVC,2000.0,,,,
KRDR,12-18-2002,10:41,SPECI,,90,9.0,,,1600.0,Light Snow/Mist/Cloud Development Not Observable,-1.0,-1.0,29.48,,,,,71,10,0,,,,,,,,,8/8 Overcast,600.0,,BKN,600.0,OVC,2000.0,,,,
KRDR,12-18-2002,10:00,METAR,,90,9.0,,,3200.0,Light Snow/Cloud Development Not Observable,-1.0,-1.0,29.49,1000.1,,,,71,0,0,,,,,,,,,8/8 Overcast,2000.0,,SCT,600.0,OVC,2000.0,,,,
KRDR,12-18-2002,09:40,SPECI,,90,8.0,,,3200.0,Light Snow/Mist/Cloud Development Not Observable,0.0,0.0,29.49,,,,,71,10,0,,,,,,,,,8/8 Overcast,2000.0,,SCT,600.0,OVC,2000.0,,,,
KRDR,12-18-2002,09:14,SPECI,,90,8.0,,,1200.0,Light Snow/Mist/Cloud Development Not Observable,0.0,0.0,29.50,,,,,71,10,0,,,,,,,,,8/8 Overcast,600.0,,BKN,600.0,OVC,2000.0,,,,
KRDR,12-18-2002,09:00,METAR,,90,8.0,,,3200.0,Light Snow/Cloud Development Not Observable,0.0,0.0,29.51,1000.8,,,,71,0,0,,,,,,.03 IN,,,8/8 Overcast,2000.0,,SCT,600.0,OVC,2000.0,,,,
KRDR,12-18-2002,08:44,SPECI,,90,8.0,,,2400.0,Light Snow/Cloud Development Not Observable,0.0,0.0,29.51,,,,,71,0,0,,,,,,,,,8/8 Overcast,600.0,,BKN,600.0,OVC,2000.0,,,,
KRDR,12-18-2002,08:00,METAR,,70,6.0,,,3200.0,Ice Pellets/Snow/Cloud Development Not Observable,0.0,0.0,29.52,1001.1,,,,73,79,0,,,,,,,,,8/8 Overcast,2000.0,,FEW,200.0,OVC,2000.0,,,,
KRDR,12-18-2002,07:23,SPECI,,80,7.0,,,4800.0,Ice Pellets/Freezing Drizzle/Mist,0.0,0.0,29.52,,,,,56,79,10,,,,,,,,,8/8 Overcast,2000.0,,FEW,200.0,OVC,2000.0,,,,
KRDR,12-18-2002,07:00,METAR,,90,7.0,,,6400.0,Freezing Drizzle/Mist/Cloud Development Not Observable,0.0,0.0,29.53,1001.5,,,,56,10,0,,,,,,,,,8/8 Overcast,2000.0,,OVC,2000.0,,,,,,
KRDR,12-18-2002,06:46,SPECI,,90,6.0,,,6400.0,Freezing Drizzle/Mist/Cloud Development Not Observable,0.0,0.0,29.53,,,,,56,10,0,,,,,,,,,8/8 Overcast,2000.0,,OVC,2000.0,,,,,,
KRDR,12-18-2002,06:00,METAR,,100,6.0,,,8000.0,Ice Pellets/Heavy Freezing Drizzle/Cloud Development Not Observable,0.0,0.0,29.55,1002.2,,,,57,79,0,,,,,,,.01 IN,,8/8 Overcast,2000.0,,OVC,2000.0,,,,,,
KRDR,12-18-2002,05:47,SPECI,,110,6.0,,,9999.0,Ice Pellets/Heavy Freezing Drizzle/Cloud Development Not Observable,0.0,0.0,29.55,,,,,57,79,0,,,,,,,,,8/8 Overcast,1800.0,,OVC,1800.0,,,,,,
KRDR,12-18-2002,05:26,SPECI,,110,10.0,,,9999.0,Freezing Drizzle/Cloud Development Not Observable,0.0,0.0,29.56,,,,,56,0,0,,,,,,,,,8/8 Overcast,1800.0,,OVC,1800.0,,,,,,
KRDR,12-18-2002,05:24,SPECI,,110,10.0,,,9999.0,Freezing Drizzle/Cloud Development Not Observable,0.0,0.0,29.56,,,,,56,0,0,,,,,,,,,8/8 Overcast,1800.0,,OVC,1800.0,,,,,,
KRDR,12-18-2002,05:00,METAR,,110,9.0,,,9999.0,Light Freezing Rain/Cloud Development Not Observable,0.0,0.0,29.56,1002.5,,,,66,0,0,,,,,,,,,8/8 Overcast,1800.0,,OVC,1800.0,,,,,,
KRDR,12-18-2002,04:00,METAR,,120,8.0,,,9999.0,Drizzle/Cloud Development Not Observable,0.0,0.0,29.58,1003.3,,,,51,0,0,,,,,,,,,8/8 Overcast,1700.0,,OVC,1700.0,,,,,,
KRDR,12-18-2002,03:47,SPECI,,120,8.0,,,9999.0,Drizzle/Cloud Development Not Observable,0.0,-1.0,29.58,,,,,51,0,0,,,,,,,,,8/8 Overcast,1600.0,,OVC,1600.0,,,,,,
KRDR,12-18-2002,03:00,METAR,,130,8.0,,,9999.0,Cloud Development Not Observable,0.0,-1.0,29.60,1003.8,,,,0,0,0,,,,,,,,,8/8 Overcast,1500.0,,OVC,1500.0,,,,,,
KRDR,12-18-2002,01:00,METAR,,130,9.0,,,9999.0,Cloud Development Not Observable,0.0,-1.0,29.62,1004.7,,,,0,0,0,,,,,,,,,8/8 Overcast,1700.0,,OVC,1700.0,,,,,,
KRDR,12-18-2002,00:00,METAR,,120,12.0,,,9999.0,Cloud Development Not Observable,0.0,-1.0,29.62,1004.7,,,,0,0,0,,,,,,,,,8/8 Overcast,2000.0,,OVC,2000.0,,,,,,
KRDR,12-17-2002,23:00,METAR,,130,13.0,,,9999.0,Mist/Cloud Development Not Observable,0.0,-2.0,29.62,1004.7,,,,10,0,0,,,,,,,,,8/8 Overcast,2100.0,,OVC,2100.0,,,,,,
KRDR,12-17-2002,22:28,SPECI,,130,11.0,,,9999.0,Mist/Cloud Development Not Observable,0.0,-1.0,29.62,,,,,10,0,0,,,,,,,,,8/8 Overcast,2000.0,,OVC,2000.0,,,,,,
KRDR,12-17-2002,22:00,METAR,,130,13.0,19.0,,9999.0,Mist/Cloud Development Not Observable,0.0,-2.0,29.62,1004.8,,,,10,0,0,,,,,,,,,8/8 Overcast,3900.0,,OVC,4000.0,,,,,,
KRDR,12-17-2002,21:45,METAR,,130,13.0,20.0,,9999.0,Mist/Cloud Development Not Observable,0.0,-2.0,29.62,,,,,10,0,0,,,,,,,,,8/8 Overcast,4000.0,,OVC,4100.0,,,,,,
KRDR,12-17-2002,21:00,SPECI,Normal,260,5.0,,,,Cloud Development Not Observable,2.0,2.0,30.13,,,,,0,0,0,,,,,,,,,,100.0,,SCT,0.0,BKN,100.0,OVC,200.0,,
KRDR,12-17-2002,21:00,METAR,,140,14.0,20.0,,9999.0,Mist/Cloud Development Not Observable,0.0,-2.0,29.63,1005.0,,,,10,0,0,,,,,,,,,8/8 Overcast,2000.0,,OVC,2000.0,,,,,,
KRDR,12-17-2002,20:00,METAR,,140,15.0,,,9999.0,Mist/Cloud Development Not Observable,-1.0,-2.0,29.63,1005.0,,,,10,0,0,,,,,,,,,8/8 Overcast,72000.0,,OVC,0.0,,,,,,
KRDR,12-17-2002,19:08,SPECI,,140,17.0,,,4800.0,Mist/Cloud Development Not Observable,-1.0,-1.0,29.64,,,,,10,0,0,,,,,,,,,8/8 Overcast,72000.0,,OVC,0.0,,,,,,
KRDR,12-17-2002,19:00,METAR,,140,17.0,,,9999.0,Cloud Development Not Observable,-1.0,-1.0,29.64,1005.4,,,,0,0,0,,,,,,,,,8/8 Overcast,1000.0,,OVC,1000.0,,,,,,
KRDR,12-17-2002,17:55,METAR,,160,17.0,23.0,160/27KTS,9999.0,Cloud Development Not Observable,-1.0,-2.0,29.66,1007.2,,,,0,0,0,,,,,,,,,8/8 Overcast,1200.0,,OVC,1200.0,,,,,,
KRDR,12-17-2002,17:00,METAR,,160,20.0,28.0,,9999.0,Cloud Development Not Observable,-1.0,-3.0,29.70,1007.2,,,,0,0,0,,,,,,,,,8/8 Overcast,1200.0,,OVC,1200.0,,,,,,
KRDR,12-17-2002,15:00,METAR,,150,14.0,,,9999.0,Cloud Development Not Observable,-2.0,-3.0,29.68,1007.0,,,,0,0,0,,,,,,,,,8/8 Overcast,2100.0,,OVC,2100.0,,,,,,
KRDR,12-17-2002,14:00,METAR,,130,11.0,,,9999.0,Cloud Development Not Observable,-3.0,-4.0,29.68,1007.0,,,,0,0,0,,,,,,,,,8/8 Overcast,2300.0,,OVC,2300.0,,,,,,
KRDR,12-17-2002,13:00,METAR,,140,13.0,,,9999.0,Cloud Development Not Observable,-3.0,-4.0,29.70,1007.3,,,,0,0,0,,,,,,,,,8/8 Overcast,2400.0,,OVC,2400.0,,,,,,
KRDR,12-17-2002,12:00,METAR,,130,12.0,,,9999.0,Cloud Development Not Observable,-3.0,-4.0,29.70,1007.3,,,,0,0,0,,,,,,,.03 IN,.03 IN,8/8 Overcast,2000.0,,OVC,2000.0,,,,,,
KRDR,12-17-2002,11:14,SPECI,,150,12.0,,,9999.0,Cloud Development Not Observable,-3.0,-4.0,29.71,,,,,0,0,0,,,,,,,,,8/8 Overcast,1800.0,,OVC,1800.0,,,,,,
KRDR,12-17-2002,11:00,METAR,,140,11.0,,,9999.0,Cloud Development Not Observable,-3.0,-4.0,29.72,1008.0,,,,0,0,0,,,,,,,,,8/8 Overcast,1800.0,,OVC,1800.0,,,,,,
KRDR,12-17-2002,10:00,METAR,,140,12.0,,,9999.0,Cloud Development Not Observable,-4.0,-4.0,29.74,1008.7,,,,0,0,0,,,,,,,,,8/8 Overcast,1800.0,,FEW,1000.0,OVC,1800.0,,,,
KRDR,12-17-2002,09:03,SPECI,,130,13.0,,,9999.0,Light Snow/Cloud Development Not Observable,-4.0,-4.0,29.75,,,,,71,0,0,,,,,,,,,8/8 Overcast,1000.0,,FEW,800.0,OVC,1000.0,,,,
KRDR,12-17-2002,09:00,METAR,,130,14.0,,,9999.0,Cloud Development Not Observable,-5.0,-5.0,29.76,1009.4,,,,0,0,0,,,,,,.03 IN,,,8/8 Overcast,1000.0,,FEW,800.0,OVC,1000.0,,,,
KRDR,12-17-2002,08:49,SPECI,,130,15.0,,,9999.0,Cloud Development Not Observable,-4.0,-4.0,29.76,,,,,0,0,0,,,,,,,,,8/8 Overcast,1000.0,,FEW,800.0,OVC,1000.0,,,,
KRDR,12-17-2002,08:15,SPECI,,130,16.0,21.0,,6400.0,Light Snow/Cloud Development Not Observable,-5.0,-5.0,29.76,,,,,71,0,0,,,,,,,,,8/8 Overcast,1400.0,,FEW,800.0,BKN,1400.0,OVC,2000.0,,
KRDR,12-17-2002,08:06,SPECI,,130,17.0,21.0,,3200.0,Light Snow/Cloud Development Not Observable,-5.0,-5.0,29.76,,,,,71,0,0,,,,,,,,,8/8 Overcast,1400.0,,FEW,800.0,BKN,1400.0,OVC,2700.0,,
KRDR,12-17-2002,08:00,METAR,,130,13.0,,,2400.0,Light Snow/Cloud Development Not Observable,-5.0,-5.0,29.76,1009.4,,,,71,0,0,,,,,,,,,8/8 Overcast,2800.0,,BKN,2800.0,OVC,3400.0,,,,
KRDR,12-17-2002,07:32,SPECI,,130,13.0,,,2400.0,Light Snow/Cloud Development Not Observable,-5.0,-5.0,29.77,,,,,71,0,0,,,,,,,,,8/8 Overcast,2800.0,,BKN,2800.0,OVC,3400.0,,,,
KRDR,12-17-2002,07:15,SPECI,,130,14.0,,,3200.0,Light Snow/Cloud Development Not Observable,-5.0,-5.0,29.78,,,,,71,0,0,,,,,,,,,8/8 Overcast,2800.0,,BKN,2800.0,OVC,3400.0,,,,
KRDR,12-17-2002,07:00,METAR,,130,14.0,22.0,,6400.0,Light Snow/Cloud Development Not Observable,-5.0,-5.0,29.78,1010.1,,,,71,0,0,,,,,,,,,8/8 Overcast,2500.0,,BKN,2500.0,BKN,3400.0,OVC,5000.0,,
KRDR,12-17-2002,06:00,METAR,,140,12.0,20.0,,6400.0,Light Snow/Cloud Development Not Observable,-4.0,-6.0,29.80,1010.8,,,,71,0,0,,,,,,,IN,,8/8 Overcast,2800.0,,BKN,2800.0,OVC,3400.0,,,,
KRDR,12-17-2002,05:15,SPECI,,140,14.0,22.0,,9999.0,Light Snow/Cloud Development Not Observable,-4.0,-7.0,29.80,,,,,71,0,0,,,,,,,,,8/8 Overcast,2800.0,,BKN,2800.0,OVC,3400.0,,,,
KRDR,12-17-2002,05:00,METAR,,140,14.0,21.0,,9999.0,Cloud Development Not Observable,-4.0,-8.0,29.81,1011.2,,,,0,0,0,,,,,,,,,8/8 Overcast,2800.0,,OVC,2800.0,,,,,,
KRDR,12-17-2002,04:00,METAR,,150,17.0,22.0,,9999.0,Cloud Development Not Observable,-4.0,-9.0,29.81,1011.2,,,,0,0,0,,,,,,,,,8/8 Overcast,2800.0,,OVC,2800.0,,,,,,
KRDR,12-17-2002,03:00,METAR,,150,15.0,24.0,160/27KTS,9999.0,Cloud Development Not Observable,-4.0,-9.0,29.82,1011.5,,,,0,0,0,,,,,,,,,8/8 Overcast,2800.0,,OVC,2800.0,,,,,,
KRDR,12-17-2002,02:00,METAR,,160,19.0,28.0,,9999.0,Cloud Development Not Observable,-4.0,-9.0,29.83,1011.9,,,,0,0,0,,,,,,,,,8/8 Overcast,2500.0,,OVC,2500.0,,,,,,
KRDR,12-17-2002,01:05,SPECI,,150,18.0,25.0,,9999.0,Cloud Development Not Observable,-4.0,-9.0,29.84,,,,,0,0,0,,,,,,,,,8/8 Overcast,2800.0,,OVC,2800.0,,,,,,
KRDR,12-17-2002,01:00,METAR,,150,18.0,25.0,,9999.0,Cloud Development Not Observable,-4.0,-9.0,29.84,1012.2,,,,0,0,0,,,,,,,,,8/8 Overcast,3000.0,,OVC,3000.0,,,,,,
KRDR,12-17-2002,00:00,METAR,,150,19.0,25.0,,9999.0,Cloud Development Not Observable,-4.0,-9.0,29.84,1012.2,,,,0,0,0,,,,,,,,,8/8 Overcast,3100.0,,OVC,3100.0,,,,,,
KRDR,12-16-2002,23:00,METAR,,150,15.0,21.0,160/25KTS,9999.0,Cloud Development Not Observable,-3.0,-11.0,29.83,1012.0,,,,0,0,0,,,,,,,,,8/8 Overcast,3300.0,,OVC,3400.0,,,,,,
KRDR,12-16-2002,22:00,METAR,,150,18.0,24.0,160/27KTS,9999.0,Cloud Development Not Observable,-2.0,-12.0,29.83,1011.8,,,,0,0,0,,,,,,,,,8/8 Overcast,3300.0,,OVC,3400.0,,,,,,
KRDR,12-16-2002,21:00,METAR,,150,20.0,27.0,,9999.0,Cloud Development Not Observable,-2.0,-12.0,29.82,1011.4,,,,0,0,0,,,,,,,,,8/8 Overcast,3200.0,,OVC,3300.0,,,,,,
KRDR,12-16-2002,20:00,METAR,,150,17.0,24.0,160/26KTS,9999.0,Cloud Development Not Observable,-2.0,-12.0,29.83,1011.8,,,,0,0,0,,,,,,,,,8/8 Overcast,3400.0,,OVC,3500.0,,,,,,
KRDR,12-16-2002,19:00,METAR,,150,21.0,27.0,160/30KTS,9999.0,Cloud Development Not Observable,-2.0,-13.0,29.85,1012.5,,,,0,0,0,,,,,,,,,8/8 Overcast,3400.0,,OVC,3500.0,,,,,,
KRDR,12-16-2002,18:00,METAR,,140,20.0,27.0,,9999.0,Cloud Development Not Observable,-2.0,-13.0,29.88,1013.5,,,,0,0,0,,,,,,,,,8/8 Overcast,3500.0,,OVC,3600.0,,,,,,
KRDR,12-16-2002,17:00,METAR,,150,17.0,25.0,140/27KTS,9999.0,Cloud Development Not Observable,-2.0,-13.0,29.90,1014.2,,,,0,0,0,,,,,,,,,8/8 Overcast,3300.0,,OVC,3400.0,,,,,,
KRDR,12-16-2002,16:00,METAR,,150,20.0,26.0,,9999.0,Cloud Development Not Observable,-2.0,-14.0,29.91,1014.5,,,,0,0,0,,,,,,,,,8/8 Overcast,3300.0,,OVC,3400.0,,,,,,
KRDR,12-16-2002,15:00,METAR,,130,15.0,,,9999.0,Cloud Development Not Observable,-3.0,-12.0,29.90,1014.2,,,,0,0,0,,,,,,,,,8/8 Overcast,3100.0,,OVC,3200.0,,,,,,
KRDR,12-16-2002,14:00,METAR,,130,14.0,,,9999.0,Cloud Development Not Observable,-3.0,-12.0,29.89,1013.8,,,,0,0,0,,,,,,,,,8/8 Overcast,3000.0,,OVC,3000.0,,,,,,
KRDR,12-16-2002,13:00,METAR,,120,18.0,26.0,,9999.0,Cloud Development Not Observable,-3.0,-12.0,29.89,1013.7,,,,0,0,0,,,,,,,,,8/8 Overcast,3000.0,,BKN,3000.0,OVC,12000.0,,,,
KRDR,12-16-2002,12:00,METAR,,130,16.0,,120/27KTS,9999.0,Cloud Development Not Observable,-3.0,-11.0,29.89,1013.8,,,,0,0,0,,,,,,,,,8/8 Overcast,3000.0,,BKN,3000.0,OVC,12000.0,,,,
KRDR,12-16-2002,11:00,METAR,,130,19.0,26.0,,9999.0,Cloud Development Not Observable,-3.0,-10.0,29.90,1014.1,,,,0,0,0,,,,,,,,,8/8 Overcast,12000.0,,SCT,3200.0,OVC,12000.0,,,,
KRDR,12-16-2002,10:00,METAR,,120,18.0,23.0,,9999.0,Cloud Development Not Observable,-3.0,-10.0,29.89,1013.7,,,,0,0,0,,,,,,,,,8/8 Overcast,12000.0,,FEW,3500.0,BKN,12000.0,OVC,20000.0,,
KRDR,12-16-2002,09:00,METAR,,120,13.0,,,9999.0,Cloud Development Not Observable,-3.0,-9.0,29.92,1014.8,,,,0,0,0,,,,,,,,,8/8 Overcast,12000.0,,BKN,12000.0,OVC,20000.0,,,,
KRDR,12-16-2002,08:00,METAR,,120,19.0,26.0,140/29KTS,9999.0,Cloud Development Not Observable,-2.0,-9.0,29.91,1014.3,,,,0,0,0,,,,,,,,,8/8 Overcast,12000.0,,BKN,12000.0,OVC,20000.0,,,,
KRDR,12-16-2002,07:00,METAR,,130,19.0,25.0,140/28KTS,9999.0,Cloud Development Not Observable,-2.0,-9.0,29.92,1014.7,,,,0,0,0,,,,,,,,,8/8 Overcast,12000.0,,OVC,12000.0,,,,,,
KRDR,12-16-2002,06:00,METAR,,130,18.0,,,9999.0,Cloud Development Not Observable,-2.0,-6.0,29.92,1014.8,,,,0,0,0,,,,,,,,,8/8 Overcast,12000.0,,OVC,12000.0,,,,,,
KRDR,12-16-2002,05:00,METAR,,140,14.0,,140/25KTS,9999.0,Cloud Development Not Observable,-1.0,-4.0,29.92,1014.8,,,,0,0,0,,,,,,,,,8/8 Overcast,12000.0,,FEW,2500.0,BKN,12000.0,OVC,20000.0,,
KRDR,12-16-2002,04:40,SPECI,,140,17.0,25.0,,9999.0,Cloud Development Not Observable,-1.0,-4.0,29.92,,,,,0,0,0,,,,,,,,,8/8 Overcast,12000.0,,FEW,2500.0,BKN,12000.0,OVC,20000.0,,
KRDR,12-16-2002,04:00,METAR,,140,15.0,,,9999.0,Cloud Development Not Observable,0.0,-3.0,29.91,1014.4,,,,0,0,0,,,,,,,,,8/8 Overcast,2500.0,,BKN,2500.0,BKN,12000.0,OVC,20000.0,,
KRDR,12-16-2002,03:00,METAR,,140,11.0,,,9999.0,Cloud Development Not Observable,1.0,-2.0,29.90,1014.1,,,,0,0,0,,,,,,,,,8/8 Overcast,2500.0,,BKN,2500.0,OVC,12000.0,,,,
KRDR,12-16-2002,02:00,METAR,,110,12.0,,,9999.0,Cloud Development Not Observable,1.0,-1.0,29.88,1013.4,,,,0,0,0,,,,,,,,,8/8 Overcast,2500.0,,BKN,2500.0,OVC,12000.0,,,,
KRDR,12-16-2002,01:00,METAR,,110,13.0,,,9999.0,Cloud Development Not Observable,2.0,-1.0,29.88,1013.4,,,,0,0,0,,,,,,,,,8/8 Overcast,12000.0,,SCT,2500.0,OVC,12000.0,,,,
KRDR,12-16-2002,00:00,METAR,,100,11.0,,,9999.0,Cloud Development Not Observable,1.0,-1.0,29.87,1013.0,,,,0,0,0,,,,,,,,,7/8 Mostly Cloudy,12000.0,,SCT,2500.0,BKN,12000.0,,,,
KRDR,12-15-2002,22:00,METAR,,110,14.0,,110/25KTS,9999.0,Cloud Development Not Observable,3.0,-1.0,29.85,1012.5,,,,0,0,0,,,,,,,,,7/8 Mostly Cloudy,2000.0,,BKN,2000.0,BKN,12000.0,,,,
KRDR,12-15-2002,21:00,METAR,,120,17.0,22.0,,9999.0,Cloud Development Not Observable,3.0,0.0,29.85,1012.3,,,,0,0,0,,,,,,,,,7/8 Mostly Cloudy,2000.0,,BKN,2000.0,BKN,12000.0,,,,
KRDR,12-15-2002,20:00,METAR,,130,15.0,24.0,,9999.0,Cloud Development Not Observable,3.0,0.0,29.87,1013.1,,,,0,0,0,,,,,,,,,8/8 Overcast,1400.0,,BKN,1400.0,OVC,2000.0,,,,
KRDR,12-15-2002,19:00,METAR,,120,16.0,,,9999.0,Cloud Development Not Observable,2.0,0.0,29.87,1013.0,,,,0,0,0,,,,,,,,,8/8 Overcast,1400.0,,BKN,1400.0,OVC,12000.0,,,,
KRDR,12-15-2002,18:00,METAR,,120,16.0,20.0,,9999.0,Cloud Development Not Observable,1.0,0.0,29.88,1013.4,,,,0,0,0,,,,,,,,,8/8 Overcast,1200.0,,BKN,1200.0,OVC,12000.0,,,,
KRDR,12-15-2002,17:00,METAR,,110,14.0,,,9999.0,Mist/Cloud Development Not Observable,1.0,0.0,29.90,1014.1,,,,10,0,0,,,,,,,,,8/8 Overcast,1000.0,,BKN,1000.0,OVC,12000.0,,,,
KRDR,12-15-2002,16:00,METAR,,100,10.0,,,8000.0,Mist/Cloud Development Not Observable,0.0,-1.0,29.88,1013.5,,,,10,0,0,,,,,,,,,7/8 Mostly Cloudy,2200.0,,BKN,2200.0,BKN,11000.0,,,,
KRDR,12-15-2002,15:00,METAR,,110,6.0,,,4800.0,Mist/Cloud Development Not Observable,-1.0,-1.0,29.88,1013.5,,,,10,0,0,,,,,,,,,7/8 Mostly Cloudy,2200.0,,BKN,2200.0,BKN,11000.0,,,,
KRDR,12-15-2002,14:00,METAR,,80,5.0,,,6400.0,Mist/Cloud Development Not Observable,-2.0,-2.0,29.88,1013.5,,,,10,0,0,,,,,,,,,7/8 Mostly Cloudy,1800.0,,SCT,1200.0,BKN,1800.0,,,,
KRDR,12-15-2002,13:44,SPECI,,80,4.0,,,6400.0,Mist/Cloud Development Not Observable,-2.0,-2.0,29.88,,,,,10,0,0,,,,,,,,,7/8 Mostly Cloudy,1800.0,,SCT,1200.0,BKN,1800.0,,,,
KRDR,12-15-2002,13:22,SPECI,,70,6.0,,,8000.0,Mist/Cloud Development Not Observable,-2.0,-2.0,29.86,,,,,10,0,0,,,,,,,,,7/8 Mostly Cloudy,1200.0,,SCT,700.0,BKN,1200.0,,,,
KRDR,12-15-2002,13:00,METAR,,60,7.0,,,8000.0,Mist/Cloud Development Not Observable,-2.0,-2.0,29.87,1013.2,,,,10,0,0,,,,,,,,,8/8 Overcast,500.0,,BKN,500.0,BKN,800.0,OVC,1200.0,,
KRDR,12-15-2002,12:00,METAR,,70,6.0,,,8000.0,Mist/Cloud Development Not Observable,-2.0,-2.0,29.86,1012.8,,,,10,0,0,,,,,,,,,8/8 Overcast,500.0,,BKN,500.0,OVC,800.0,,,,
KRDR,12-15-2002,11:00,METAR,,80,6.0,,,8000.0,Mist/Cloud Development Not Observable,-2.0,-2.0,29.86,1012.8,,,,10,0,0,,,,,,,,,8/8 Overcast,500.0,,OVC,500.0,,,,,,
KRDR,12-15-2002,10:00,METAR,,90,3.0,,,6400.0,Mist/Cloud Development Not Observable,-2.0,-2.0,29.86,1012.9,,,,10,0,0,,,,,,,,,8/8 Overcast,500.0,,OVC,500.0,,,,,,
KRDR,12-15-2002,09:26,SPECI,,90,5.0,,,8000.0,Mist/Cloud Development Not Observable,-2.0,-2.0,29.86,,,,,10,0,0,,,,,,,,,8/8 Overcast,500.0,,OVC,500.0,,,,,,
KRDR,12-15-2002,09:00,METAR,,70,5.0,,,8000.0,Mist/Cloud Development Not Observable,-2.0,-2.0,29.87,1013.1,,,,10,0,0,,,,,,,,,8/8 Overcast,700.0,,OVC,700.0,,,,,,
KRDR,12-15-2002,08:00,METAR,,90,3.0,,,9999.0,Cloud Development Not Observable,-2.0,-2.0,29.85,1012.3,,,,0,0,0,,,,,,,,,8/8 Overcast,700.0,,OVC,700.0,,,,,,
KRDR,12-15-2002,07:00,METAR,,60,4.0,,,9999.0,Cloud Development Not Observable,-2.0,-2.0,29.83,1011.7,,,,0,0,0,,,,,,,,,8/8 Overcast,700.0,,OVC,700.0,,,,,,
KRDR,12-15-2002,06:07,SPECI,,30,4.0,,,9999.0,Cloud Development Not Observable,-2.0,-2.0,29.85,,,,,0,0,0,,,,,,,,,8/8 Overcast,700.0,,OVC,700.0,,,,,,
KRDR,12-15-2002,06:00,METAR,,40,4.0,,,9999.0,Cloud Development Not Observable,-2.0,-2.0,29.85,1012.3,,,,0,0,0,,,,,,,,,8/8 Overcast,500.0,,OVC,500.0,,,,,,
KRDR,12-15-2002,05:49,SPECI,,40,3.0,,,9999.0,Cloud Development Not Observable,-2.0,-2.0,29.85,,,,,0,0,0,,,,,,,,,8/8 Overcast,500.0,,OVC,500.0,,,,,,
KRDR,12-15-2002,05:00,METAR,,20,5.0,,,9999.0,Cloud Development Not Observable,-2.0,-2.0,29.84,1012.1,,,,0,0,0,,,,,,,,,8/8 Overcast,700.0,,OVC,700.0,,,,,,
KRDR,12-15-2002,04:00,METAR,,20,6.0,,,9999.0,Cloud Development Not Observable,-2.0,-2.0,29.84,1012.2,,,,0,0,0,,,,,,,,,8/8 Overcast,700.0,,OVC,700.0,,,,,,
KRDR,12-15-2002,02:00,METAR,,10,7.0,,,9999.0,Cloud Development Not Observable,-2.0,-2.0,29.84,1012.2,,,,0,0,0,,,,,,,,,8/8 Overcast,700.0,,OVC,700.0,,,,,,
KRDR,12-15-2002,01:00,METAR,,350,3.0,,,9999.0,Cloud Development Not Observable,-3.0,-3.0,29.83,1011.6,,,,0,0,0,,,,,,,,,8/8 Overcast,800.0,,BKN,800.0,OVC,20000.0,,,,
KRDR,12-15-2002,00:00,METAR,,20,9.0,,,9999.0,Cloud Development Not Observable,-2.0,-3.0,29.83,1011.6,,,,0,0,0,,,,,,,,,8/8 Overcast,900.0,,BKN,900.0,BKN,15000.0,OVC,20000.0,,
KRDR,12-14-2002,23:43,SPECI,,10,9.0,,,9999.0,Cloud Development Not Observable,-2.0,-3.0,29.83,,,,,0,0,0,,,,,,,,,8/8 Overcast,900.0,,BKN,900.0,BKN,15000.0,OVC,20000.0,,
KRDR,12-14-2002,23:00,METAR,,20,11.0,,,9999.0,Cloud Development Not Observable,-2.0,-3.0,29.82,1011.2,,,,0,0,0,,,,,,,,,8/8 Overcast,20000.0,,SCT,15000.0,OVC,20000.0,,,,
KRDR,12-14-2002,22:00,METAR,,340,10.0,,,9999.0,Cloud Development Not Observable,3.0,-1.0,29.79,1010.2,,,,0,0,0,,,,,,,,,8/8 Overcast,15000.0,,BKN,15000.0,OVC,20000.0,,,,
KRDR,12-14-2002,21:00,METAR,,320,11.0,,,9999.0,Cloud Development Not Observable,4.0,-1.0,29.77,1009.3,,,,0,0,0,,,,,,,,,7/8 Mostly Cloudy,20000.0,,SCT,15000.0,BKN,20000.0,,,,
KRDR,12-14-2002,20:00,METAR,,290,10.0,,,9999.0,Cloud Development Not Observable,3.0,-1.0,29.75,1008.9,,,,0,0,0,,,,,,,,,8/8 Overcast,20000.0,,FEW,300.0,OVC,20000.0,,,,
KRDR,12-14-2002,19:00,METAR,,320,11.0,,,9999.0,Cloud Development Not Observable,4.0,-1.0,29.73,1008.0,,,,0,0,0,,,,,,,,,7/8 Mostly Cloudy,20000.0,,BKN,20000.0,,,,,,
KRDR,12-14-2002,18:00,METAR,,330,11.0,,,9999.0,Cloud Development Not Observable,4.0,-1.0,29.73,1008.0,,,,0,0,0,,,,,,,,,7/8 Mostly Cloudy,20000.0,,BKN,20000.0,,,,,,
KRDR,12-14-2002,17:00,METAR,,330,12.0,,,9999.0,Cloud Development Not Observable,4.0,-1.0,29.73,1008.2,,,,0,0,0,,,,,,,,,7/8 Mostly Cloudy,25000.0,,BKN,25000.0,,,,,,
KRDR,12-14-2002,16:00,METAR,,310,10.0,,,9999.0,Cloud Development Not Observable,3.0,-1.0,29.72,1007.8,,,,0,0,0,,,,,,,,,7/8 Mostly Cloudy,25000.0,,BKN,25000.0,,,,,,
KRDR,12-14-2002,15:00,METAR,,310,7.0,,,9999.0,Cloud Development Not Observable,2.0,-1.0,29.70,1006.9,,,,0,0,0,,,,,,,,,2/8 Mostly Clear,72000.0,,FEW,20000.0,,,,,,
KRDR,12-14-2002,14:00,METAR,,300,12.0,,,9999.0,Cloud Development Not Observable,2.0,-1.0,29.66,1005.9,,,,0,0,0,,,,,,,,,Clear,72000.0,,,73000.0,,,,,,
KRDR,12-14-2002,13:00,METAR,,290,10.0,,,9999.0,Cloud Development Not Observable,3.0,-2.0,29.64,1005.2,,,,0,0,0,,,,,,,,,Clear,72000.0,,,73000.0,,,,,,
KRDR,12-14-2002,12:00,METAR,,290,12.0,,,9999.0,Cloud Development Not Observable,3.0,-2.0,29.62,1004.5,,,,0,0,0,,,,,,,,,4/8 Partly Cloudy,72000.0,,FEW,8900.0,SCT,20000.0,,,,
KRDR,12-14-2002,11:00,METAR,,270,11.0,,,9999.0,Cloud Development Not Observable,5.0,-1.0,29.61,1004.0,,,,0,0,0,,,,,,,,,4/8 Partly Cloudy,72000.0,,FEW,8900.0,SCT,15000.0,,,,
KRDR,12-14-2002,10:00,METAR,,280,9.0,,,9999.0,Cloud Development Not Observable,3.0,-1.0,29.62,1004.3,,,,0,0,0,,,,,,,,,7/8 Mostly Cloudy,15000.0,,SCT,8900.0,BKN,15000.0,,,,
KRDR,12-14-2002,09:00,METAR,,170,4.0,,,9999.0,Cloud Development Not Observable,2.0,-3.0,29.61,1003.9,,,,0,0,0,,,,,,,,,7/8 Mostly Cloudy,15000.0,,SCT,8900.0,BKN,15000.0,,,,
KRDR,12-14-2002,08:00,METAR,,210,10.0,,,9999.0,Cloud Development Not Observable,1.0,-3.0,29.63,1004.7,,,,0,0,0,,,,,,,,,7/8 Mostly Cloudy,20000.0,,FEW,9900.0,BKN,20000.0,,,,
KRDR,12-14-2002,07:00,METAR,,240,9.0,,,9999.0,Cloud Development Not Observable,2.0,-3.0,29.64,1004.9,,,,0,0,0,,,,,,,,,4/8 Partly Cloudy,72000.0,,SCT,20000.0,,,,,,
KRDR,12-14-2002,06:00,METAR,,250,9.0,,,9999.0,Cloud Development Not Observable,0.0,-3.0,29.65,1005.6,,,,0,0,0,,,,,,,,,4/8 Partly Cloudy,72000.0,,SCT,20000.0,,,,,,
KRDR,12-14-2002,05:00,METAR,,200,7.0,,,9999.0,Cloud Development Not Observable,1.0,-3.0,29.64,1005.3,,,,0,0,0,,,,,,,,,4/8 Partly Cloudy,72000.0,,SCT,20000.0,,,,,,
KRDR,12-14-2002,04:00,METAR,,210,6.0,,,9999.0,Cloud Development Not Observable,2.0,-2.0,29.64,1005.3,,,,0,0,0,,,,,,,,,7/8 Mostly Cloudy,20000.0,,BKN,20000.0,,,,,,
KRDR,12-14-2002,03:00,METAR,,200,8.0,,,9999.0,Cloud Development Not Observable,3.0,-2.0,29.65,1005.8,,,,0,0,0,,,,,,,,,7/8 Mostly Cloudy,20000.0,,BKN,20000.0,,,,,,
KRDR,12-14-2002,02:00,METAR,,210,7.0,,,9999.0,Cloud Development Not Observable,3.0,-3.0,29.67,1006.4,,,,0,0,0,,,,,,,,,4/8 Partly Cloudy,72000.0,,SCT,20000.0,,,,,,
KRDR,12-14-2002,01:00,METAR,,200,10.0,,,9999.0,Cloud Development Not Observable,1.0,-4.0,29.68,1006.8,,,,0,0,0,,,,,,,,,2/8 Mostly Clear,72000.0,,FEW,20000.0,,,,,,
KRDR,12-14-2002,00:00,METAR,Normal,190,9.0,,,,Cloud Development Not Observable,2.0,-4.0,29.68,1006.8,,,,0,0,0,,,,,,,,,,72000.0,,FEW,20000.0,,,,,,
KRDR,12-12-2002,23:00,METAR,,60,5.0,,,9999.0,Cloud Development Not Observable,3.0,1.0,29.92,1014.7,,,,0,0,0,,,,,,,,,7/8 Mostly Cloudy,2100.0,,BKN,2100.0,BKN,9400.0,,,,
KRDR,12-12-2002,22:00,METAR,,310,5.0,,,9999.0,Cloud Development Not Observable,5.0,2.0,29.91,1014.3,,,,0,0,0,,,,,,,,,7/8 Mostly Cloudy,2100.0,,BKN,2100.0,BKN,3000.0,,,,
KRDR,12-12-2002,21:00,METAR,,330,7.0,,,9999.0,Cloud Development Not Observable,5.0,2.0,29.90,1014.1,,,,0,0,0,,,,,,,,,7/8 Mostly Cloudy,2100.0,,BKN,2100.0,,,,,,
KRDR,12-12-2002,20:00,METAR,,280,6.0,,,9999.0,Cloud Development Not Observable,6.0,2.0,29.89,1013.8,,,,0,0,0,,,,,,,,,7/8 Mostly Cloudy,3000.0,,FEW,1200.0,BKN,3000.0,BKN,9900.0,,
KRDR,12-12-2002,19:00,METAR,,300,7.0,,,9999.0,Cloud Development Not Observable,5.0,2.0,29.89,1013.7,,,,0,0,0,,,,,,,,,7/8 Mostly Cloudy,3000.0,,BKN,3000.0,BKN,5900.0,,,,
KRDR,12-12-2002,18:00,METAR,,270,9.0,,,9999.0,Cloud Development Not Observable,3.0,1.0,29.90,1014.1,,,,0,0,0,,,,,,,,,7/8 Mostly Cloudy,1200.0,,BKN,1200.0,BKN,2800.0,,,,
KRDR,12-12-2002,17:00,METAR,,270,8.0,,,9999.0,Cloud Development Not Observable,2.0,0.0,29.91,1014.4,,,,0,0,0,,,,,,,,,8/8 Overcast,1200.0,,BKN,1200.0,BKN,2200.0,OVC,5900.0,,
KRDR,12-12-2002,16:45,METAR,,270,10.0,,,9999.0,Cloud Development Not Observable,1.0,0.0,29.92,,,,,0,0,0,,,,,,,,,8/8 Overcast,1200.0,,BKN,1200.0,BKN,2200.0,OVC,5900.0,,
KRDR,12-12-2002,16:00,METAR,,260,6.0,,,9999.0,Cloud Development Not Observable,0.0,-1.0,29.90,1014.2,,,,0,0,0,,,,,,,,,7/8 Mostly Cloudy,1500.0,,BKN,1500.0,BKN,2200.0,BKN,5900.0,,
KRDR,12-12-2002,15:00,METAR,,290,9.0,,,9999.0,Cloud Development Not Observable,-1.0,-1.0,29.89,1013.8,,,,0,0,0,,,,,,,,,7/8 Mostly Cloudy,1700.0,,BKN,1700.0,BKN,2200.0,BKN,5900.0,,
KRDR,12-12-2002,14:30,METAR,,300,10.0,,,9999.0,Cloud Development Not Observable,-3.0,-3.0,29.88,,,,,0,0,0,,,,,,,,,7/8 Mostly Cloudy,1700.0,,BKN,1700.0,BKN,2200.0,BKN,5900.0,,
KRDR,12-12-2002,14:00,METAR,,290,10.0,,,9999.0,Cloud Development Not Observable,-4.0,-4.0,29.87,1013.2,,,,0,0,0,,,,,,,,,2/8 Mostly Clear,72000.0,,FEW,2500.0,FEW,5900.0,,,,
KRDR,12-12-2002,13:00,METAR,,300,5.0,,,9999.0,Cloud Development Not Observable,-5.0,-5.0,29.86,1012.9,,,,0,0,0,,,,,,,,,Clear,72000.0,,,73000.0,,,,,,
KRDR,12-12-2002,12:00,METAR,,280,9.0,,,9999.0,Cloud Development Not Observable,-4.0,-4.0,29.85,1012.5,,,,0,0,0,,,,,,,,,Clear,72000.0,,,73000.0,,,,,,
KRDR,12-12-2002,11:00,METAR,,280,5.0,,,9999.0,Cloud Development Not Observable,-5.0,-5.0,29.83,1011.7,,,,0,0,0,,,,,,,,,Clear,72000.0,,,73000.0,,,,,,
KRDR,12-12-2002,10:00,METAR,,,4.0,,,9999.0,Cloud Development Not Observable,-5.0,-5.0,29.83,1011.6,,,,0,0,0,,,,,,,,,Clear,72000.0,,,73000.0,,,,,,
KRDR,12-12-2002,09:00,METAR,,,4.0,,,9999.0,Cloud Development Not Observable,-6.0,-6.0,29.82,1011.2,,,,0,0,0,,,,,,,,,Clear,72000.0,,,73000.0,,,,,,
KRDR,12-12-2002,08:00,METAR,,260,7.0,,,9999.0,Cloud Development Not Observable,-9.0,-9.0,29.81,1010.9,,,,0,0,0,,,,,,,,,Clear,72000.0,,,73000.0,,,,,,
KRDR,12-12-2002,07:00,METAR,,,2.0,,,9999.0,Cloud Development Not Observable,-6.0,-6.0,29.80,1010.5,,,,0,0,0,,,,,,,,,Clear,72000.0,,,73000.0,,,,,,
KRDR,12-12-2002,06:00,METAR,,240,5.0,,,9999.0,Cloud Development Not Observable,-4.0,-5.0,29.79,1010.2,,,,0,0,0,,,,,,,,,Clear,72000.0,,,73000.0,,,,,,
KRDR,12-12-2002,05:00,METAR,,290,7.0,,,9999.0,Cloud Development Not Observable,-2.0,-5.0,29.77,1009.5,,,,0,0,0,,,,,,,,,Clear,72000.0,,,73000.0,,,,,,
KRDR,12-12-2002,04:00,METAR,,250,8.0,,,9999.0,Cloud Development Not Observable,-2.0,-4.0,29.76,1009.3,,,,0,0,0,,,,,,,,,Clear,72000.0,,,73000.0,,,,,,
KRDR,12-12-2002,03:00,METAR,,240,4.0,,,9999.0,Cloud Development Not Observable,-2.0,-4.0,29.75,1009.3,,,,0,0,0,,,,,,,,,Clear,72000.0,,,73000.0,,,,,,
KRDR,12-12-2002,02:00,METAR,,170,3.0,,,9999.0,Cloud Development Not Observable,0.0,-4.0,29.74,1009.0,,,,0,0,0,,,,,,,,,2/8 Mostly Clear,72000.0,,FEW,20000.0,,,,,,
KRDR,12-12-2002,01:00,METAR,,210,5.0,,,9999.0,Cloud Development Not Observable,-2.0,-4.0,29.72,1008.1,,,,0,0,0,,,,,,,,,7/8 Mostly Cloudy,20000.0,,BKN,20000.0,,,,,,
KRDR,12-12-2002,00:00,METAR,,270,2.0,,,9999.0,Cloud Development Not Observable,-1.0,-4.0,29.71,1007.9,,,,0,0,0,,,,,,,,,7/8 Mostly Cloudy,20000.0,,BKN,20000.0,,,,,,
KRDR,12-11-2002,23:00,METAR,,210,7.0,,,9999.0,Cloud Development Not Observable,3.0,-3.0,29.70,1007.4,,,,0,0,0,,,,,,,,,7/8 Mostly Cloudy,20000.0,,FEW,5000.0,BKN,20000.0,,,,
KRDR,12-11-2002,22:00,METAR,,230,4.0,,,9999.0,Cloud Development Not Observable,7.0,-3.0,29.69,1006.9,,,,0,0,0,,,,,,,,,7/8 Mostly Cloudy,20000.0,,BKN,20000.0,,,,,,
KRDR,12-11-2002,21:00,METAR,,250,10.0,,,9999.0,Cloud Development Not Observable,8.0,-3.0,29.66,1005.9,,,,0,0,0,,,,,,,,,7/8 Mostly Cloudy,20000.0,,BKN,20000.0,,,,,,
KRDR,12-11-2002,20:00,METAR,,260,7.0,,,9999.0,Cloud Development Not Observable,9.0,-3.0,29.65,1005.5,,,,0,0,0,,,,,,,,,7/8 Mostly Cloudy,20000.0,,BKN,20000.0,,,,,,
KRDR,12-11-2002,19:00,METAR,,250,6.0,,,9999.0,Cloud Development Not Observable,9.0,-2.0,29.64,1005.1,,,,0,0,0,,,,,,,,,7/8 Mostly Cloudy,20000.0,,BKN,20000.0,,,,,,
KRDR,12-11-2002,18:00,METAR,,270,6.0,,,9999.0,Cloud Development Not Observable,7.0,-2.0,29.65,1005.6,,,,0,0,0,,,,,,,,,7/8 Mostly Cloudy,20000.0,,BKN,20000.0,,,,,,
KRDR,12-11-2002,17:00,METAR,,180,7.0,,,9999.0,Cloud Development Not Observable,3.0,-2.0,29.67,1006.4,,,,0,0,0,,,,,,,,,7/8 Mostly Cloudy,20000.0,,BKN,20000.0,,,,,,
KRDR,12-11-2002,16:00,METAR,,190,5.0,,,9999.0,Cloud Development Not Observable,-3.0,-4.0,29.67,1006.5,,,,0,0,0,,,,,,,,,4/8 Partly Cloudy,72000.0,,SCT,20000.0,,,,,,
KRDR,12-11-2002,15:00,METAR,,,3.0,,,9999.0,Cloud Development Not Observable,-6.0,-7.0,29.65,1006.0,,,,0,0,0,,,,,,,,,4/8 Partly Cloudy,72000.0,,SCT,20000.0,,,,,,
KRDR,12-11-2002,14:00,METAR,,180,9.0,,,9999.0,Cloud Development Not Observable,-8.0,-8.0,29.64,1005.6,,,,0,0,0,,,,,,,,,2/8 Mostly Clear,72000.0,,FEW,20000.0,,,,,,
KRDR,12-11-2002,13:00,METAR,,200,9.0,,,9999.0,Cloud Development Not Observable,-7.0,-7.0,29.64,1005.5,,,,0,0,0,,,,,,,,,Clear,72000.0,,,73000.0,,,,,,
KRDR,12-11-2002,12:00,METAR,,190,8.0,,,9999.0,Cloud Development Not Observable,-8.0,-8.0,29.63,1005.3,,,,0,0,0,,,,,,,,,Clear,72000.0,,,73000.0,,,,,,
KRDR,12-11-2002,11:00,METAR,,190,7.0,,,9999.0,Cloud Development Not Observable,-8.0,-8.0,29.64,1005.6,,,,0,0,0,,,,,,,,,Clear,72000.0,,,73000.0,,,,,,
KRDR,12-11-2002,10:00,METAR,,180,4.0,,,9999.0,Cloud Development Not Observable,-6.0,-7.0,29.65,1005.7,,,,0,0,0,,,,,,,,,Clear,72000.0,,,73000.0,,,,,,
KRDR,12-11-2002,09:00,METAR,,210,7.0,,,9999.0,Cloud Development Not Observable,-4.0,-5.0,29.66,1005.7,,,,0,0,0,,,,,,,,,Clear,72000.0,,,73000.0,,,,,,
KRDR,12-11-2002,08:00,METAR,,190,9.0,,,9999.0,Cloud Development Not Observable,-5.0,-6.0,29.66,1005.7,,,,0,0,0,,,,,,,,,Clear,72000.0,,,73000.0,,,,,,
KRDR,12-11-2002,07:00,METAR,,150,6.0,,,9999.0,Cloud Development Not Observable,-2.0,-5.0,29.67,1006.2,,,,0,0,0,,,,,,,,,Clear,72000.0,,,73000.0,,,,,,
KRDR,12-11-2002,06:00,METAR,,180,8.0,,,9999.0,Cloud Development Not Observable,-4.0,-5.0,29.68,1006.7,,,,0,0,0,,,,,,,,,2/8 Mostly Clear,72000.0,,FEW,20000.0,,,,,,
KRDR,12-11-2002,05:00,METAR,,190,7.0,,,9999.0,Cloud Development Not Observable,-3.0,-5.0,29.68,1006.6,,,,0,0,0,,,,,,,,,4/8 Partly Cloudy,72000.0,,SCT,20000.0,,,,,,
KRDR,12-11-2002,04:00,METAR,,210,7.0,,,9999.0,Cloud Development Not Observable,-2.0,-4.0,29.69,1007.4,,,,0,0,0,,,,,,,,,Clear,72000.0,,,73000.0,,,,,,
KRDR,12-11-2002,03:00,METAR,,230,9.0,,,9999.0,Cloud Development Not Observable,-2.0,-4.0,29.70,1007.6,,,,0,0,0,,,,,,,,,2/8 Mostly Clear,72000.0,,FEW,20000.0,,,,,,
KRDR,12-11-2002,01:00,METAR,,190,9.0,,,9999.0,Cloud Development Not Observable,-1.0,-3.0,29.72,1007.9,,,,0,0,0,,,,,,,,,2/8 Mostly Clear,72000.0,,FEW,20000.0,,,,,,
KRDR,12-11-2002,00:00,METAR,,190,9.0,,,9999.0,Cloud Development Not Observable,0.0,-3.0,29.72,1007.9,,,,0,0,0,,,,,,,,,4/8 Partly Cloudy,72000.0,,SCT,20000.0,,,,,,
KRDR,12-10-2002,23:00,METAR,,170,8.0,,,9999.0,Cloud Development Not Observable,2.0,-2.0,29.73,1008.3,,,,0,0,0,,,,,,,,,4/8 Partly Cloudy,72000.0,,SCT,20000.0,,,,,,
KRDR,12-10-2002,22:00,METAR,,190,8.0,,,9999.0,Cloud Development Not Observable,6.0,-2.0,29.73,1008.1,,,,0,0,0,,,,,,,,,2/8 Mostly Clear,72000.0,,FEW,20000.0,,,,,,
KRDR,12-10-2002,21:00,METAR,,200,10.0,,,9999.0,Cloud Development Not Observable,9.0,-1.0,29.74,1008.6,,,,0,0,0,,,,,,,,,2/8 Mostly Clear,72000.0,,FEW,20000.0,,,,,,
KRDR,12-10-2002,20:00,METAR,,200,10.0,,,9999.0,Cloud Development Not Observable,9.0,-2.0,29.75,1008.9,,,,0,0,0,,,,,,,,,2/8 Mostly Clear,72000.0,,FEW,20000.0,,,,,,
KRDR,12-10-2002,19:00,METAR,,220,8.0,,,9999.0,Cloud Development Not Observable,8.0,-1.0,29.78,1009.9,,,,0,0,0,,,,,,,,,2/8 Mostly Clear,72000.0,,FEW,20000.0,,,,,,
KRDR,12-10-2002,18:00,METAR,,190,9.0,,,9999.0,Cloud Development Not Observable,6.0,-1.0,29.81,1011.0,,,,0,0,0,,,,,,,,,2/8 Mostly Clear,72000.0,,FEW,20000.0,,,,,,
KRDR,12-10-2002,17:00,METAR,,190,6.0,,,9999.0,Cloud Development Not Observable,3.0,-1.0,29.83,1011.9,,,,0,0,0,,,,,,,,,Clear,72000.0,,,73000.0,,,,,,
KRDR,12-10-2002,16:00,METAR,,160,6.0,,,9999.0,Cloud Development Not Observable,-2.0,-3.0,29.83,1012.0,,,,0,0,0,,,,,,,,,Clear,72000.0,,,73000.0,,,,,,
KRDR,12-10-2002,15:00,METAR,,180,4.0,,,9999.0,Cloud Development Not Observable,-6.0,-6.0,29.84,1012.6,,,,0,0,0,,,,,,,,,2/8 Mostly Clear,72000.0,,FEW,20000.0,,,,,,
KRDR,12-10-2002,14:00,METAR,,200,5.0,,,9999.0,Cloud Development Not Observable,-5.0,-5.0,29.85,1012.6,,,,0,0,0,,,,,,,,,4/8 Partly Cloudy,72000.0,,SCT,20000.0,,,,,,
KRDR,12-10-2002,13:00,METAR,,220,7.0,,,9999.0,Cloud Development Not Observable,-4.0,-4.0,29.84,1012.1,,,,0,0,0,,,,,,,,,4/8 Partly Cloudy,72000.0,,SCT,20000.0,,,,,,
KRDR,12-10-2002,12:00,METAR,,240,8.0,,,9999.0,Cloud Development Not Observable,-5.0,-5.0,29.85,1012.4,,,,0,0,0,,,,,,,,,7/8 Mostly Cloudy,20000.0,,FEW,12000.0,BKN,20000.0,,,,
KRDR,12-10-2002,11:00,METAR,,190,5.0,,,9999.0,Cloud Development Not Observable,-6.0,-6.0,29.86,1012.9,,,,0,0,0,,,,,,,,,7/8 Mostly Cloudy,20000.0,,BKN,20000.0,,,,,,
KRDR,12-10-2002,10:00,METAR,,230,4.0,,,9999.0,Cloud Development Not Observable,-7.0,-7.0,29.87,1013.2,,,,0,0,0,,,,,,,,,Clear,72000.0,,,73000.0,,,,,,
KRDR,12-10-2002,09:00,METAR,,240,6.0,,,9999.0,Cloud Development Not Observable,-6.0,-6.0,29.89,1013.7,,,,0,0,0,,,,,,,,,Clear,72000.0,,,73000.0,,,,,,
KRDR,12-10-2002,08:00,METAR,,250,5.0,,,9999.0,Cloud Development Not Observable,-5.0,-5.0,29.88,1013.4,,,,0,0,0,,,,,,,,,Clear,72000.0,,,73000.0,,,,,,
KRDR,12-10-2002,07:00,METAR,,230,6.0,,,9999.0,Cloud Development Not Observable,-4.0,-4.0,29.88,1013.3,,,,0,0,0,,,,,,,,,Clear,72000.0,,,73000.0,,,,,,
KRDR,12-10-2002,06:00,METAR,,240,7.0,,,9999.0,Cloud Development Not Observable,-4.0,-4.0,29.90,1014.0,,,,0,0,0,,,,,,,,,Clear,72000.0,,,73000.0,,,,,,
KRDR,12-10-2002,05:00,METAR,,200,5.0,,,9999.0,Cloud Development Not Observable,-5.0,-5.0,29.90,1014.2,,,,0,0,0,,,,,,,,,4/8 Partly Cloudy,72000.0,,FEW,15000.0,SCT,25000.0,,,,
KRDR,12-10-2002,04:00,METAR,,210,5.0,,,9999.0,Cloud Development Not Observable,-5.0,-5.0,29.90,1014.2,,,,0,0,0,,,,,,,,,7/8 Mostly Cloudy,25000.0,,FEW,15000.0,BKN,25000.0,,,,
KRDR,12-10-2002,03:00,METAR,,240,6.0,,,9999.0,Cloud Development Not Observable,-5.0,-5.0,29.90,1014.2,,,,0,0,0,,,,,,,,,4/8 Partly Cloudy,72000.0,,FEW,15000.0,SCT,25000.0,,,,
KRDR,12-10-2002,02:00,METAR,,350,1.0,,,9999.0,Cloud Development Not Observable,-1.0,-3.0,29.91,1014.5,,,,0,0,0,,,,,,,,,7/8 Mostly Cloudy,20000.0,,SCT,15000.0,BKN,20000.0,,,,
KRDR,12-10-2002,00:00,METAR,,300,1.0,,,9999.0,Cloud Development Not Observable,2.0,-2.0,29.90,1014.1,,,,0,0,0,,,,,,,,,7/8 Mostly Cloudy,25000.0,,FEW,15000.0,BKN,25000.0,,,,
KRDR,12-09-2002,23:00,METAR,,280,5.0,,,9999.0,Cloud Development Not Observable,3.0,-2.0,29.90,1014.1,,,,0,0,0,,,,,,,,,7/8 Mostly Cloudy,25000.0,,SCT,15000.0,BKN,25000.0,,,,
KRDR,12-09-2002,21:00,METAR,,260,10.0,,,9999.0,Cloud Development Not Observable,6.0,-1.0,29.89,1013.7,,,,0,0,0,,,,,,,,,7/8 Mostly Cloudy,25000.0,,SCT,15000.0,BKN,25000.0,,,,
KRDR,12-09-2002,20:00,METAR,,270,10.0,,,9999.0,Cloud Development Not Observable,6.0,-1.0,29.90,1014.0,,,,0,0,0,,,,,,,,,7/8 Mostly Cloudy,25000.0,,FEW,15000.0,BKN,25000.0,,,,
KRDR,12-09-2002,19:00,METAR,,280,10.0,,,9999.0,Cloud Development Not Observable,7.0,-1.0,29.91,1014.4,,,,0,0,0,,,,,,,,,7/8 Mostly Cloudy,25000.0,,FEW,15000.0,BKN,25000.0,,,,
KRDR,12-09-2002,17:00,METAR,,280,14.0,,,9999.0,Cloud Development Not Observable,3.0,-3.0,29.93,1015.4,,,,0,0,0,,,,,,,,,7/8 Mostly Cloudy,25000.0,,FEW,15000.0,BKN,25000.0,,,,
KRDR,12-09-2002,16:00,METAR,,290,9.0,,,9999.0,Cloud Development Not Observable,2.0,-3.0,29.93,1015.4,,,,0,0,0,,,,,,,,,7/8 Mostly Cloudy,25000.0,,FEW,15000.0,BKN,25000.0,,,,
KRDR,12-09-2002,15:00,METAR,,290,10.0,,,9999.0,Cloud Development Not Observable,0.0,-3.0,29.94,1015.8,,,,0,0,0,,,,,,,,,7/8 Mostly Cloudy,25000.0,,BKN,25000.0,,,,,,
KRDR,12-09-2002,14:00,METAR,,270,11.0,,,9999.0,Cloud Development Not Observable,-1.0,-4.0,29.91,1014.9,,,,0,0,0,,,,,,,,,Clear,72000.0,,,73000.0,,,,,,
KRDR,12-09-2002,13:00,METAR,,260,12.0,,,9999.0,Cloud Development Not Observable,-1.0,-4.0,29.92,1015.3,,,,0,0,0,,,,,,,,,2/8 Mostly Clear,72000.0,,FEW,20000.0,,,,,,
KRDR,12-09-2002,12:27,SPECI,,270,13.0,,,9999.0,Cloud Development Not Observable,-2.0,-4.0,29.92,,,,,0,0,0,,,,,,,,,4/8 Partly Cloudy,72000.0,,SCT,12000.0,,,,,,
KRDR,12-09-2002,12:00,METAR,,260,9.0,,,9999.0,Cloud Development Not Observable,-2.0,-4.0,29.94,1015.8,,,,0,0,0,,,,,,,,,4/8 Partly Cloudy,72000.0,,SCT,12000.0,,,,,,
KRDR,12-09-2002,11:00,METAR,,200,10.0,,,9999.0,Cloud Development Not Observable,-3.0,-4.0,29.94,1016.0,,,,0,0,0,,,,,,,,,4/8 Partly Cloudy,72000.0,,SCT,12000.0,,,,,,
KRDR,12-09-2002,10:00,METAR,,210,11.0,,,9999.0,Cloud Development Not Observable,-4.0,-5.0,29.97,1017.0,,,,0,0,0,,,,,,,,,4/8 Partly Cloudy,72000.0,,FEW,12000.0,SCT,20000.0,,,,
KRDR,12-09-2002,09:00,METAR,,220,19.0,26.0,220/31KTS,9999.0,Cloud Development Not Observable,-4.0,-5.0,30.00,1017.9,,,,0,0,0,,,,,,,,,7/8 Mostly Cloudy,20000.0,,SCT,9900.0,BKN,20000.0,,,,
KRDR,12-09-2002,07:00,METAR,,220,20.0,25.0,220/27KTS,9999.0,Cloud Development Not Observable,-5.0,-6.0,30.06,1020.1,,,,0,0,0,,,,,,,,,7/8 Mostly Cloudy,20000.0,,BKN,20000.0,,,,,,
KRDR,12-09-2002,06:00,METAR,,210,18.0,,,9999.0,Cloud Development Not Observable,-6.0,-8.0,30.11,1022.0,,,,0,0,0,,,,,,,,,7/8 Mostly Cloudy,20000.0,,BKN,20000.0,,,,,,
KRDR,12-09-2002,05:00,METAR,,180,10.0,,,9999.0,Cloud Development Not Observable,-9.0,-11.0,30.16,1023.7,,,,0,0,0,,,,,,,,,7/8 Mostly Cloudy,20000.0,,BKN,20000.0,,,,,,
KRDR,12-09-2002,04:00,METAR,,190,15.0,,200/25KTS,9999.0,Cloud Development Not Observable,-9.0,-12.0,30.20,1025.2,,,,0,0,0,,,,,,,,,8/8 Overcast,20000.0,,OVC,20000.0,,,,,,
KRDR,12-09-2002,03:00,METAR,,200,18.0,25.0,,9999.0,Cloud Development Not Observable,-9.0,-13.0,30.24,1026.8,,,,0,0,0,,,,,,,,,7/8 Mostly Cloudy,20000.0,,BKN,20000.0,,,,,,
KRDR,12-09-2002,02:00,METAR,,190,13.0,,,9999.0,Cloud Development Not Observable,-11.0,-14.0,30.29,1028.6,,,,0,0,0,,,,,,,,,4/8 Partly Cloudy,72000.0,,SCT,20000.0,,,,,,
KRDR,12-09-2002,01:00,METAR,,180,14.0,,,9999.0,Cloud Development Not Observable,-11.0,-15.0,30.33,1029.8,,,,0,0,0,,,,,,,,,4/8 Partly Cloudy,72000.0,,SCT,20000.0,,,,,,
KRDR,12-09-2002,00:00,METAR,,190,11.0,,,9999.0,Cloud Development Not Observable,-11.0,-15.0,30.36,1031.1,,,,0,0,0,,,,,,,,,4/8 Partly Cloudy,72000.0,,SCT,20000.0,,,,,,
KRDR,12-08-2002,22:00,METAR,,200,13.0,,,9999.0,Cloud Development Not Observable,-9.0,-15.0,30.43,1033.2,,,,0,0,0,,,,,,,,,2/8 Mostly Clear,72000.0,,FEW,20000.0,,,,,,
KRDR,12-08-2002,21:00,METAR,,200,14.0,,,9999.0,Cloud Development Not Observable,-9.0,-15.0,30.48,1034.7,,,,0,0,0,,,,,,,,,2/8 Mostly Clear,72000.0,,FEW,20000.0,,,,,,
KRDR,12-08-2002,20:00,METAR,,210,11.0,,,9999.0,Cloud Development Not Observable,-10.0,-16.0,30.52,1036.1,,,,0,0,0,,,,,,,,,2/8 Mostly Clear,72000.0,,FEW,20000.0,,,,,,
KRDR,12-08-2002,19:00,METAR,,200,13.0,,,9999.0,Cloud Development Not Observable,-10.0,-16.0,30.55,1037.2,,,,0,0,0,,,,,,,,,Clear,72000.0,,,73000.0,,,,,,
KRDR,12-08-2002,18:00,METAR,,210,12.0,,,9999.0,Cloud Development Not Observable,-12.0,-17.0,30.56,1037.5,,,,0,0,0,,,,,,,,,Clear,72000.0,,,73000.0,,,,,,
KRDR,12-08-2002,17:00,METAR,,220,9.0,,,9999.0,Cloud Development Not Observable,-13.0,-16.0,30.58,1038.1,,,,0,0,0,,,,,,,,,Clear,72000.0,,,73000.0,,,,,,
KRDR,12-08-2002,16:00,METAR,,230,7.0,,,9999.0,Cloud Development Not Observable,-15.0,-15.0,30.58,1038.2,,,,0,0,0,,,,,,,,,Clear,72000.0,,,73000.0,,,,,,
KRDR,12-08-2002,15:00,METAR,,240,5.0,,,9999.0,Cloud Development Not Observable,-19.0,-19.0,30.57,1038.0,,,,0,0,0,,,,,,,,,Clear,72000.0,,,73000.0,,,,,,
KRDR,12-08-2002,14:00,METAR,,250,6.0,,,9999.0,Cloud Development Not Observable,-22.0,-22.0,30.56,1037.6,,,,0,0,0,,,,,,,,,Clear,72000.0,,,73000.0,,,,,,
KRDR,12-08-2002,12:00,METAR,,300,4.0,,,9999.0,Cloud Development Not Observable,-19.0,-19.0,30.52,1036.1,,,,0,0,0,,,,,,,,,Clear,72000.0,,,73000.0,,,,,,
KRDR,12-08-2002,11:00,METAR,,310,5.0,,,9999.0,Cloud Development Not Observable,-19.0,-19.0,30.49,1035.1,,,,0,0,0,,,,,,,,,Clear,72000.0,,,73000.0,,,,,,
KRDR,12-08-2002,10:00,METAR,,350,7.0,,,9999.0,Cloud Development Not Observable,-18.0,-19.0,30.47,1034.3,,,,0,0,0,,,,,,,,,Clear,72000.0,,,73000.0,,,,,,
KRDR,12-08-2002,09:00,METAR,,350,9.0,,,9999.0,Cloud Development Not Observable,-16.0,-17.0,30.44,1033.3,,,,0,0,0,,,,,,,,,Clear,72000.0,,,73000.0,,,,,,
KRDR,12-08-2002,08:00,METAR,,340,8.0,,,9999.0,Cloud Development Not Observable,-15.0,-16.0,30.40,1031.9,,,,0,0,0,,,,,,,,,Clear,72000.0,,,73000.0,,,,,,
KRDR,12-08-2002,07:00,METAR,,360,9.0,,,9999.0,Cloud Development Not Observable,-15.0,-16.0,30.36,1030.5,,,,0,0,0,,,,,,,,,Clear,72000.0,,,73000.0,,,,,,
KRDR,12-08-2002,06:00,METAR,,10,11.0,,,9999.0,Cloud Development Not Observable,-12.0,-15.0,30.32,1029.2,,,,0,0,0,,,,,,,,,Clear,72000.0,,,73000.0,,,,,,
KRDR,12-08-2002,05:00,METAR,,350,15.0,,,9999.0,Cloud Development Not Observable,-10.0,-14.0,30.26,1027.0,,,,0,0,0,,,,,,,,,Clear,72000.0,,,73000.0,,,,,,
KRDR,12-08-2002,04:00,METAR,,340,11.0,,,9999.0,Cloud Development Not Observable,-9.0,-11.0,30.20,1025.1,,,,0,0,0,,,,,,,,,2/8 Mostly Clear,72000.0,,FEW,7400.0,,,,,,
KRDR,12-08-2002,03:00,METAR,,310,7.0,,,9999.0,Cloud Development Not Observable,-9.0,-11.0,30.16,1023.7,,,,0,0,0,,,,,,,,,4/8 Partly Cloudy,72000.0,,SCT,7400.0,,,,,,
KRDR,12-08-2002,01:00,METAR,,300,14.0,,,9999.0,Cloud Development Not Observable,-6.0,-10.0,30.11,1022.0,,,,0,0,0,,,,,,,,,7/8 Mostly Cloudy,7500.0,,BKN,7400.0,,,,,,
KRDR,12-07-2002,23:00,METAR,,290,14.0,,,9999.0,Cloud Development Not Observable,-7.0,-13.0,30.08,1020.8,,,,0,0,0,,,,,,,,,4/8 Partly Cloudy,72000.0,,SCT,8400.0,,,,,,
KRDR,12-07-2002,22:00,METAR,,300,16.0,,,9999.0,Cloud Development Not Observable,-5.0,-13.0,30.07,1020.3,,,,0,0,0,,,,,,,,,7/8 Mostly Cloudy,7500.0,,BKN,7400.0,,,,,,
KRDR,12-07-2002,21:00,METAR,,280,17.0,,290/25KTS,9999.0,Cloud Development Not Observable,-5.0,-12.0,30.05,1019.7,,,,0,0,0,,,,,,,,,2/8 Mostly Clear,72000.0,,FEW,9900.0,FEW,20000.0,,,,
KRDR,12-07-2002,20:00,METAR,,290,17.0,24.0,290/26KTS,9999.0,Cloud Development Not Observable,-6.0,-11.0,30.06,1020.0,,,,0,0,0,,,,,,,,,2/8 Mostly Clear,72000.0,,FEW,4000.0,FEW,9900.0,FEW,20000.0,,
KRDR,12-07-2002,19:00,METAR,,290,18.0,26.0,,9999.0,Cloud Development Not Observable,-6.0,-11.0,30.06,1020.0,,,,0,0,0,,,,,,,,,4/8 Partly Cloudy,72000.0,,FEW,4000.0,FEW,9900.0,SCT,20000.0,,
KRDR,12-07-2002,18:00,METAR,,300,18.0,25.0,290/28KTS,9999.0,Cloud Development Not Observable,-7.0,-11.0,30.08,1020.4,,,,0,0,0,,,,,,,,,4/8 Partly Cloudy,72000.0,,FEW,4000.0,SCT,9900.0,,,,
KRDR,12-07-2002,17:00,METAR,,300,19.0,26.0,,9999.0,Cloud Development Not Observable,-7.0,-11.0,30.08,1020.4,,,,0,0,0,,,,,,,,,4/8 Partly Cloudy,72000.0,,SCT,9900.0,,,,,,
KRDR,12-07-2002,16:00,METAR,,300,16.0,24.0,,9999.0,Cloud Development Not Observable,-8.0,-10.0,30.05,1019.7,,,,0,0,0,,,,,,,,,4/8 Partly Cloudy,72000.0,,SCT,9900.0,,,,,,
KRDR,12-07-2002,15:00,METAR,,300,13.0,,,9999.0,Cloud Development Not Observable,-9.0,-10.0,30.04,1019.5,,,,0,0,0,,,,,,,,,4/8 Partly Cloudy,72000.0,,SCT,9900.0,,,,,,
KRDR,12-07-2002,14:00,METAR,,300,15.0,,,9999.0,Cloud Development Not Observable,-9.0,-10.0,30.02,1018.8,,,,0,0,0,,,,,,,,,4/8 Partly Cloudy,72000.0,,SCT,9900.0,,,,,,
KRDR,12-07-2002,12:00,METAR,,290,9.0,,,9999.0,Cloud Development Not Observable,-8.0,-8.0,29.99,1017.7,,,,0,0,0,,,,,,,,,4/8 Partly Cloudy,72000.0,,FEW,2000.0,SCT,20000.0,,,,
KRDR,12-07-2002,11:40,SPECI,,300,8.0,,,9999.0,Cloud Development Not Observable,-8.0,-8.0,29.99,,,,,0,0,0,,,,,,,,,4/8 Partly Cloudy,72000.0,,FEW,2000.0,SCT,20000.0,,,,
KRDR,12-07-2002,11:00,METAR,,310,5.0,,,9999.0,Cloud Development Not Observable,-7.0,-7.0,29.97,1016.9,,,,0,0,0,,,,,,,,,7/8 Mostly Cloudy,2000.0,,BKN,2000.0,BKN,20000.0,,,,
KRDR,12-07-2002,10:45,METAR,,300,6.0,,,9999.0,Cloud Development Not Observable,-7.0,-7.0,29.97,,,,,0,0,0,,,,,,,,,7/8 Mostly Cloudy,2000.0,,BKN,2000.0,BKN,20000.0,,,,
KRDR,12-07-2002,10:00,METAR,,340,11.0,,,9999.0,Light Snow/Cloud Development Not Observable,-5.0,-6.0,29.97,1016.6,,,,71,0,0,,,,,,,,,8/8 Overcast,1800.0,,BKN,1800.0,OVC,4000.0,,,,
KRDR,12-07-2002,09:15,SPECI,,350,6.0,,,9999.0,Light Snow/Cloud Development Not Observable,-5.0,-6.0,29.96,,,,,71,0,0,,,,,,,,,8/8 Overcast,2000.0,,OVC,2000.0,,,,,,
KRDR,12-07-2002,09:00,METAR,,20,5.0,,,9999.0,Light Snow/Cloud Development Not Observable,-4.0,-5.0,29.94,1015.6,,,,71,0,0,,,,,,TRACE,,,8/8 Overcast,2000.0,,BKN,2000.0,OVC,4000.0,,,,
KRDR,12-07-2002,08:44,SPECI,,30,6.0,,,9999.0,Light Snow/Cloud Development Not Observable,-4.0,-5.0,29.94,,,,,71,0,0,,,,,,,,,8/8 Overcast,2000.0,,BKN,2000.0,OVC,4000.0,,,,
KRDR,12-07-2002,08:00,METAR,,20,8.0,,,9999.0,Cloud Development Not Observable,-3.0,-5.0,29.91,1014.6,,,,0,0,0,,,,,,,,,8/8 Overcast,2500.0,,OVC,2500.0,,,,,,
KRDR,12-07-2002,07:10,SPECI,,300,8.0,,,9999.0,Cloud Development Not Observable,-3.0,-4.0,29.90,,,,,0,0,0,,,,,,,,,8/8 Overcast,2500.0,,BKN,2500.0,OVC,7900.0,,,,
KRDR,12-07-2002,07:00,METAR,,310,8.0,,,9999.0,Cloud Development Not Observable,-3.0,-4.0,29.89,1013.6,,,,0,0,0,,,,,,,,,8/8 Overcast,8000.0,,SCT,2500.0,OVC,7900.0,,,,
KRDR,12-07-2002,06:00,METAR,,310,12.0,,,9999.0,Light Snow/Cloud Development Not Observable,-3.0,-4.0,29.86,1013.0,,,,71,0,0,,,,,,,IN,,8/8 Overcast,8000.0,,SCT,2500.0,OVC,7900.0,,,,
KRDR,12-07-2002,05:00,METAR,,300,14.0,,,9999.0,Light Snow/Cloud Development Not Observable,-2.0,-4.0,29.85,1012.7,,,,71,0,0,,,,,,,,,7/8 Mostly Cloudy,6000.0,,SCT,4000.0,BKN,5900.0,,,,
KRDR,12-07-2002,04:22,SPECI,,310,16.0,21.0,,9999.0,Light Snow/Cloud Development Not Observable,-2.0,-5.0,29.83,,,,,71,0,0,,,,,,,,,7/8 Mostly Cloudy,3900.0,,BKN,4000.0,BKN,5900.0,,,,
KRDR,12-07-2002,04:00,METAR,,300,11.0,,,9999.0,Cloud Development Not Observable,-3.0,-5.0,29.82,1011.7,,,,0,0,0,,,,,,,,,7/8 Mostly Cloudy,3900.0,,BKN,4000.0,BKN,8900.0,,,,
KRDR,12-07-2002,03:00,METAR,,290,16.0,,,9999.0,Cloud Development Not Observable,-3.0,-6.0,29.80,1011.1,,,,0,0,0,,,,,,,,,7/8 Mostly Cloudy,7000.0,,BKN,6900.0,BKN,9900.0,,,,
KRDR,12-07-2002,02:00,METAR,,290,13.0,,,9999.0,Cloud Development Not Observable,-3.0,-6.0,29.80,1011.3,,,,0,0,0,,,,,,,,,4/8 Partly Cloudy,72000.0,,FEW,6900.0,SCT,20000.0,,,,
KRDR,12-07-2002,01:00,METAR,,290,12.0,,,9999.0,Cloud Development Not Observable,-3.0,-5.0,29.77,1010.3,,,,0,0,0,,,,,,,,,7/8 Mostly Cloudy,7000.0,,BKN,6900.0,BKN,20000.0,,,,
KRDR,12-07-2002,00:00,METAR,,290,9.0,,,9999.0,Cloud Development Not Observable,-4.0,-6.0,29.77,1010.3,,,,0,0,0,,,,,,,,,7/8 Mostly Cloudy,20000.0,,SCT,6900.0,BKN,20000.0,,,,
KRDR,12-06-2002,23:00,METAR,,280,10.0,,,9999.0,Cloud Development Not Observable,-4.0,-7.0,29.76,1010.1,,,,0,0,0,,,,,,,,,2/8 Mostly Clear,72000.0,,FEW,6900.0,FEW,20000.0,,,,
KRDR,12-06-2002,22:00,METAR,,290,13.0,,,9999.0,Cloud Development Not Observable,-2.0,-5.0,29.74,1009.2,,,,0,0,0,,,,,,,,,2/8 Mostly Clear,72000.0,,FEW,6900.0,FEW,20000.0,,,,
KRDR,12-06-2002,21:00,METAR,,290,14.0,,300/25KTS,9999.0,Cloud Development Not Observable,-1.0,-5.0,29.70,1007.7,,,,0,0,0,,,,,,,,,2/8 Mostly Clear,72000.0,,FEW,6900.0,FEW,20000.0,,,,
KRDR,12-06-2002,20:00,METAR,,310,17.0,25.0,,9999.0,Cloud Development Not Observable,-1.0,-5.0,29.70,1007.6,,,,0,0,0,,,,,,,,,2/8 Mostly Clear,72000.0,,FEW,2500.0,FEW,20000.0,,,,
KRDR,12-06-2002,19:00,METAR,,290,17.0,26.0,310/29KTS,9999.0,Cloud Development Not Observable,0.0,-4.0,29.68,1007.0,,,,0,0,0,,,,,,,,,2/8 Mostly Clear,72000.0,,FEW,2500.0,FEW,20000.0,,,,
KRDR,12-06-2002,18:38,SPECI,,300,19.0,26.0,,9999.0,Cloud Development Not Observable,0.0,-4.0,29.67,,,,,0,0,0,,,,,,,,,4/8 Partly Cloudy,72000.0,,SCT,20000.0,,,,,,
KRDR,12-06-2002,18:00,METAR,,290,15.0,,,9999.0,Cloud Development Not Observable,-1.0,-4.0,29.66,1006.6,,,,0,0,0,,,,,,,,,4/8 Partly Cloudy,72000.0,,FEW,7900.0,SCT,20000.0,,,,
KRDR,12-06-2002,17:00,METAR,,270,13.0,,,9999.0,Cloud Development Not Observable,-2.0,-4.0,29.68,,,,,0,0,0,,,,,,,,,7/8 Mostly Cloudy,20000.0,,BKN,20000.0,,,,,,
KRDR,12-06-2002,16:55,METAR,,280,13.0,,,9999.0,Cloud Development Not Observable,-3.0,-4.0,29.68,1007.3,,,,0,0,0,,,,,,,,,7/8 Mostly Cloudy,20000.0,,BKN,20000.0,,,,,,
KRDR,12-06-2002,16:11,SPECI,,270,11.0,,,9999.0,Cloud Development Not Observable,-3.0,-4.0,29.68,,,,,0,0,0,,,,,,,,,7/8 Mostly Cloudy,20000.0,,FEW,7900.0,FEW,12000.0,BKN,20000.0,,
KRDR,12-06-2002,16:00,METAR,,270,9.0,,,9999.0,Cloud Development Not Observable,-4.0,-5.0,29.68,1007.4,,,,0,0,0,,,,,,,,,7/8 Mostly Cloudy,20000.0,,FEW,7900.0,FEW,12000.0,BKN,20000.0,,
KRDR,12-06-2002,15:00,METAR,,250,6.0,,,9999.0,Cloud Development Not Observable,-6.0,-7.0,29.72,1008.5,,,,0,0,0,,,,,,,,,7/8 Mostly Cloudy,20000.0,,FEW,7900.0,FEW,12000.0,BKN,20000.0,,
KRDR,12-06-2002,14:00,METAR,,190,9.0,,,9999.0,Cloud Development Not Observable,-12.0,-12.0,29.72,1008.8,,,,0,0,0,,,,,,,,,7/8 Mostly Cloudy,20000.0,,FEW,12000.0,BKN,20000.0,,,,
KRDR,12-06-2002,13:00,METAR,,190,8.0,,,9999.0,Cloud Development Not Observable,-12.0,-12.0,29.75,1009.9,,,,0,0,0,,,,,,,,,4/8 Partly Cloudy,72000.0,,FEW,9900.0,SCT,20000.0,,,,
KRDR,12-06-2002,12:00,METAR,,200,10.0,,,9999.0,Cloud Development Not Observable,-12.0,-12.0,29.79,1011.3,,,,0,0,0,,,,,,,,,2/8 Mostly Clear,72000.0,,FEW,20000.0,,,,,,
KRDR,12-06-2002,11:00,METAR,,180,7.0,,,9999.0,Cloud Development Not Observable,-14.0,-14.0,29.81,1012.1,,,,0,0,0,,,,,,,,,Clear,72000.0,,,73000.0,,,,,,
KRDR,12-06-2002,10:00,METAR,,180,8.0,,,9999.0,Cloud Development Not Observable,-12.0,-12.0,29.86,1013.5,,,,0,0,0,,,,,,,,,Clear,72000.0,,,73000.0,,,,,,
KRDR,12-06-2002,09:00,METAR,,190,9.0,,,9999.0,Cloud Development Not Observable,-12.0,-12.0,29.89,1014.4,,,,0,0,0,,,,,,,,,Clear,72000.0,,,73000.0,,,,,,
KRDR,12-06-2002,08:00,METAR,,180,12.0,,,9999.0,Cloud Development Not Observable,-13.0,-13.0,29.91,1015.2,,,,0,0,0,,,,,,,,,Clear,72000.0,,,73000.0,,,,,,
KRDR,12-06-2002,07:00,METAR,,180,11.0,,,9999.0,Cloud Development Not Observable,-13.0,-13.0,29.95,1016.5,,,,0,0,0,,,,,,,,,Clear,72000.0,,,73000.0,,,,,,
KRDR,12-06-2002,06:00,METAR,,180,8.0,,,9999.0,Cloud Development Not Observable,-13.0,-13.0,30.00,1018.4,,,,0,0,0,,,,,,,,,Clear,72000.0,,,73000.0,,,,,,
KRDR,12-06-2002,05:00,METAR,,180,7.0,,,9999.0,Cloud Development Not Observable,-12.0,-12.0,30.03,1019.4,,,,0,0,0,,,,,,,,,Clear,72000.0,,,73000.0,,,,,,
KRDR,12-06-2002,04:00,METAR,,200,10.0,,,9999.0,Cloud Development Not Observable,-13.0,-13.0,30.04,1019.9,,,,0,0,0,,,,,,,,,2/8 Mostly Clear,72000.0,,FEW,9900.0,,,,,,
KRDR,12-06-2002,03:00,METAR,,200,6.0,,,9999.0,Cloud Development Not Observable,-12.0,-12.0,30.09,1021.3,,,,0,0,0,,,,,,,,,2/8 Mostly Clear,72000.0,,FEW,9900.0,,,,,,
KRDR,12-06-2002,02:00,METAR,,180,6.0,,,9999.0,Cloud Development Not Observable,-10.0,-10.0,30.12,1022.3,,,,0,0,0,,,,,,,,,7/8 Mostly Cloudy,10000.0,,BKN,9900.0,,,,,,
KRDR,12-06-2002,01:00,METAR,,200,5.0,,,9999.0,Cloud Development Not Observable,-11.0,-11.0,30.15,1023.4,,,,0,0,0,,,,,,,,,7/8 Mostly Cloudy,12000.0,,BKN,12000.0,,,,,,
KRDR,12-06-2002,00:00,METAR,,150,4.0,,,9999.0,Cloud Development Not Observable,-11.0,-11.0,30.15,1023.1,,,,0,0,0,,,,,,,.01 IN,,7/8 Mostly Cloudy,10000.0,,FEW,4000.0,BKN,9900.0,,,,
KRDR,12-05-2002,23:00,METAR,,,2.0,,,9999.0,Cloud Development Not Observable,-11.0,-11.0,30.17,,,,,0,0,0,,,,,,,,,7/8 Mostly Cloudy,10000.0,,FEW,4000.0,BKN,9900.0,,,,
KRDR,12-05-2002,22:42,SPECI,,320,3.0,,,9999.0,Cloud Development Not Observable,-11.0,-11.0,30.17,,,,,0,0,0,,,,,,,,,7/8 Mostly Cloudy,10000.0,,FEW,4000.0,BKN,9900.0,,,,
KRDR,12-05-2002,22:00,METAR,,360,6.0,,,6400.0,Light Snow/Cloud Development Not Observable,-9.0,-10.0,30.17,1023.9,,,,71,0,0,,,,,,,,,7/8 Mostly Cloudy,2500.0,,BKN,2500.0,BKN,9900.0,,,,
KRDR,12-05-2002,21:00,METAR,,360,9.0,,,6400.0,Light Snow/Cloud Development Not Observable,-7.0,-9.0,30.18,1024.2,,,,71,0,0,,,,,,.01 IN,,,7/8 Mostly Cloudy,2000.0,,BKN,2000.0,BKN,3000.0,,,,
KRDR,12-05-2002,20:02,SPECI,,340,8.0,,,4800.0,Light Snow/Cloud Development Not Observable,-8.0,-8.0,30.18,,,,,71,0,0,,,,,,,,,8/8 Overcast,2000.0,,BKN,2000.0,OVC,3000.0,,,,
KRDR,12-05-2002,19:00,METAR,,330,10.0,,,9999.0,Light Snow/Cloud Development Not Observable,-7.0,-9.0,30.18,1024.3,,,,71,0,0,,,,,,,,,7/8 Mostly Cloudy,2500.0,,BKN,2500.0,BKN,3500.0,,,,
KRDR,12-05-2002,18:37,SPECI,,360,12.0,,,8000.0,Light Snow/Cloud Development Not Observable,-7.0,-9.0,30.18,,,,,71,0,0,,,,,,,,,7/8 Mostly Cloudy,2000.0,,BKN,2000.0,,,,,,
KRDR,12-05-2002,18:00,METAR,,330,11.0,,,9999.0,Cloud Development Not Observable,-8.0,-9.0,30.18,1024.3,,,,0,0,0,,,,,,,IN,,7/8 Mostly Cloudy,3400.0,,SCT,2700.0,BKN,3500.0,,,,
KRDR,12-05-2002,17:00,METAR,,340,12.0,,,8000.0,Light Snow/Cloud Development Not Observable,-9.0,-9.0,30.19,1025.0,,,,71,0,0,,,,,,,,,7/8 Mostly Cloudy,3400.0,,SCT,2700.0,BKN,3500.0,,,,
KRDR,12-05-2002,16:41,SPECI,,330,11.0,,,9999.0,Light Snow/Cloud Development Not Observable,-9.0,-9.0,30.20,,,,,71,0,0,,,,,,,,,7/8 Mostly Cloudy,3400.0,,SCT,2700.0,BKN,3500.0,,,,
KRDR,12-05-2002,16:00,METAR,,330,11.0,,,9999.0,Light Snow/Cloud Development Not Observable,-9.0,-9.0,30.19,1024.9,,,,71,0,0,,,,,,,,,7/8 Mostly Cloudy,2700.0,,BKN,2700.0,,,,,,
KRDR,12-05-2002,15:31,SPECI,,310,9.0,,,9999.0,Light Snow/Cloud Development Not Observable,-10.0,-11.0,30.18,,,,,71,0,0,,,,,,,,,8/8 Overcast,2700.0,,BKN,2700.0,OVC,12000.0,,,,
KRDR,12-05-2002,15:24,SPECI,,310,9.0,,,9999.0,Light Snow/Cloud Development Not Observable,-10.0,-11.0,30.18,,,,,71,0,0,,,,,,,,,8/8 Overcast,12000.0,,SCT,2700.0,BKN,12000.0,OVC,20000.0,,
KRDR,12-05-2002,15:00,METAR,,300,11.0,,,9999.0,Light Snow/Cloud Development Not Observable,-11.0,-11.0,30.17,1024.3,,,,71,0,0,,,,,,TRACE,,,,,,,,,,,,,
KRDR,12-05-2002,14:40,SPECI,,300,11.0,,,9999.0,Light Snow/Cloud Development Not Observable,-11.0,-11.0,30.17,,,,,71,0,0,,,,,,,,,8/8 Overcast,2700.0,,BKN,2700.0,OVC,12000.0,,,,
KRDR,12-05-2002,14:32,SPECI,,290,10.0,,,9999.0,Cloud Development Not Observable,-11.0,-12.0,30.16,,,,,0,0,0,,,,,,,,,8/8 Overcast,2700.0,,BKN,2700.0,OVC,12000.0,,,,
KRDR,12-05-2002,14:00,METAR,,290,9.0,,,9999.0,Cloud Development Not Observable,-12.0,-12.0,30.15,1023.7,,,,0,0,0,,,,,,,,,7/8 Mostly Cloudy,20000.0,,SCT,12000.0,BKN,20000.0,,,,
KRDR,12-05-2002,13:00,METAR,,290,10.0,,,9999.0,Cloud Development Not Observable,-11.0,-12.0,30.14,1023.4,,,,0,0,0,,,,,,,,,4/8 Partly Cloudy,72000.0,,SCT,12000.0,SCT,20000.0,,,,
KRDR,12-05-2002,11:00,METAR,,300,11.0,,,9999.0,Cloud Development Not Observable,-9.0,-11.0,30.15,1023.5,,,,0,0,0,,,,,,,,,7/8 Mostly Cloudy,12000.0,,BKN,12000.0,BKN,20000.0,,,,
KRDR,12-05-2002,10:00,METAR,,280,8.0,,,9999.0,Cloud Development Not Observable,-9.0,-11.0,30.17,1024.1,,,,0,0,0,,,,,,,,,7/8 Mostly Cloudy,12000.0,,BKN,12000.0,BKN,20000.0,,,,
KRDR,12-05-2002,09:00,METAR,,280,9.0,,,9999.0,Cloud Development Not Observable,-10.0,-12.0,30.18,1024.6,,,,0,0,0,,,,,,,,,7/8 Mostly Cloudy,12000.0,,BKN,12000.0,BKN,20000.0,,,,
KRDR,12-05-2002,08:00,METAR,,270,8.0,,,9999.0,Cloud Development Not Observable,-11.0,-13.0,30.19,1024.8,,,,0,0,0,,,,,,,,,7/8 Mostly Cloudy,20000.0,,FEW,15000.0,BKN,20000.0,,,,
KRDR,12-05-2002,07:00,METAR,,270,9.0,,,9999.0,Cloud Development Not Observable,-12.0,-14.0,30.21,1025.6,,,,0,0,0,,,,,,,,,7/8 Mostly Cloudy,20000.0,,BKN,20000.0,,,,,,
KRDR,12-05-2002,06:00,METAR,,290,9.0,,,9999.0,Cloud Development Not Observable,-13.0,-14.0,30.23,1026.4,,,,0,0,0,,,,,,,,,7/8 Mostly Cloudy,20000.0,,BKN,20000.0,,,,,,
KRDR,12-05-2002,05:00,METAR,,260,8.0,,,9999.0,Cloud Development Not Observable,-14.0,-15.0,30.26,1027.5,,,,0,0,0,,,,,,,,,7/8 Mostly Cloudy,20000.0,,BKN,20000.0,,,,,,
KRDR,12-05-2002,04:00,METAR,,280,8.0,,,9999.0,Cloud Development Not Observable,-16.0,-16.0,30.29,1028.7,,,,0,0,0,,,,,,,,,7/8 Mostly Cloudy,20000.0,,BKN,20000.0,,,,,,
KRDR,12-05-2002,03:00,METAR,,280,10.0,,,9999.0,Cloud Development Not Observable,-14.0,-15.0,30.31,1029.4,,,,0,0,0,,,,,,,,,7/8 Mostly Cloudy,20000.0,,BKN,20000.0,,,,,,
KRDR,12-05-2002,01:00,METAR,,240,9.0,,,9999.0,Cloud Development Not Observable,-16.0,-16.0,30.34,1030.7,,,,0,0,0,,,,,,,,,4/8 Partly Cloudy,72000.0,,SCT,20000.0,,,,,,
KRDR,12-04-2002,23:55,METAR,,220,8.0,,,9999.0,Cloud Development Not Observable,-17.0,-17.0,30.37,1031.8,,,,0,0,0,,,,,,,,,4/8 Partly Cloudy,72000.0,,SCT,20000.0,,,,,,
KRDR,12-04-2002,22:00,METAR,,240,10.0,,,9999.0,Cloud Development Not Observable,-13.0,-16.0,30.41,1033.0,,,,0,0,0,,,,,,,,,2/8 Mostly Clear,72000.0,,FEW,20000.0,,,,,,
KRDR,12-04-2002,21:00,METAR,,260,14.0,,,9999.0,Cloud Development Not Observable,-12.0,-16.0,30.42,1033.1,,,,0,0,0,,,,,,,,,2/8 Mostly Clear,72000.0,,FEW,20000.0,,,,,,
KRDR,12-04-2002,19:00,METAR,,260,14.0,,,9999.0,Cloud Development Not Observable,-12.0,-15.0,30.48,1035.1,,,,0,0,0,,,,,,,,,Clear,72000.0,,,73000.0,,,,,,
KRDR,12-04-2002,17:00,METAR,,270,12.0,,,9999.0,Cloud Development Not Observable,-15.0,-15.0,30.53,1037.1,,,,0,0,0,,,,,,,,,Clear,72000.0,,,73000.0,,,,,,
KRDR,12-04-2002,16:00,METAR,,280,9.0,,,9999.0,Cloud Development Not Observable,-17.0,-17.0,30.54,1037.5,,,,0,0,0,,,,,,,,,Clear,72000.0,,,73000.0,,,,,,
KRDR,12-04-2002,15:00,METAR,,240,7.0,,,9999.0,Cloud Development Not Observable,-19.0,-19.0,30.55,1038.0,,,,0,0,0,,,,,,,,,Clear,72000.0,,,73000.0,,,,,,
KRDR,12-04-2002,14:00,METAR,,280,7.0,,,9999.0,Cloud Development Not Observable,-20.0,-20.0,30.56,1038.3,,,,0,0,0,,,,,,,,,Clear,72000.0,,,73000.0,,,,,,
KRDR,12-04-2002,13:00,METAR,,250,4.0,,,9999.0,Cloud Development Not Observable,-21.0,-21.0,30.57,1038.5,,,,0,0,0,,,,,,,,,Clear,72000.0,,,73000.0,,,,,,
KRDR,12-04-2002,12:00,METAR,,270,5.0,,,9999.0,Cloud Development Not Observable,-21.0,-21.0,30.57,1038.4,,,,0,0,0,,,,,,,,,Clear,72000.0,,,73000.0,,,,,,
KRDR,12-04-2002,11:00,METAR,,270,6.0,,,9999.0,Cloud Development Not Observable,-21.0,-21.0,30.58,1038.7,,,,0,0,0,,,,,,,,,Clear,72000.0,,,73000.0,,,,,,
KRDR,12-04-2002,09:00,METAR,,290,5.0,,,9999.0,Cloud Development Not Observable,-20.0,-20.0,30.59,1039.1,,,,0,0,0,,,,,,,,,Clear,72000.0,,,73000.0,,,,,,
KRDR,12-04-2002,08:00,METAR,,290,6.0,,,9999.0,Cloud Development Not Observable,-20.0,-20.0,30.59,1038.9,,,,0,0,0,,,,,,,,,Clear,72000.0,,,73000.0,,,,,,
KRDR,12-04-2002,07:00,METAR,,310,8.0,,,9999.0,Cloud Development Not Observable,-19.0,-19.0,30.59,1039.1,,,,0,0,0,,,,,,,,,Clear,72000.0,,,73000.0,,,,,,
KRDR,12-04-2002,06:00,METAR,,290,6.0,,,9999.0,Cloud Development Not Observable,-21.0,-21.0,30.60,1039.5,,,,0,0,0,,,,,,,,,Clear,72000.0,,,73000.0,,,,,,
KRDR,12-04-2002,05:00,METAR,,300,6.0,,,9999.0,Cloud Development Not Observable,-19.0,-19.0,30.61,1039.7,,,,0,0,0,,,,,,,,,Clear,72000.0,,,73000.0,,,,,,
KRDR,12-04-2002,03:00,METAR,,,4.0,,,9999.0,Cloud Development Not Observable,-19.0,-19.0,30.61,1039.7,,,,0,0,0,,,,,,TRACE,,,Clear,72000.0,,,73000.0,,,,,,
KRDR,12-04-2002,00:00,METAR,,350,5.0,,,9999.0,Diamond Dust/Cloud Development Not Observable,-15.0,-15.0,30.60,1039.3,,,,76,0,0,,,,,,,.02 IN,,7/8 Mostly Cloudy,9000.0,,SCT,4000.0,BKN,8900.0,,,,
KRDR,12-03-2002,23:00,METAR,,10,7.0,,,8000.0,Light Snow/Cloud Development Not Observable,-14.0,-14.0,30.60,1039.3,,,,71,0,0,,,,,,,,,7/8 Mostly Cloudy,9000.0,,SCT,4000.0,BKN,8900.0,,,,
KRDR,12-03-2002,22:14,SPECI,,30,6.0,,,4800.0,Light Snow/Cloud Development Not Observable,-14.0,-14.0,30.58,,,,,71,0,0,,,,,,,,,7/8 Mostly Cloudy,6000.0,,SCT,2500.0,BKN,5900.0,,,,
KRDR,12-03-2002,22:00,METAR,,10,7.0,,,6400.0,Light Snow/Cloud Development Not Observable,-14.0,-14.0,30.58,1038.6,,,,71,0,0,,,,,,,,,7/8 Mostly Cloudy,2500.0,,BKN,2500.0,BKN,5900.0,,,,
KRDR,12-03-2002,21:34,SPECI,,20,6.0,,,6400.0,Light Snow/Cloud Development Not Observable,-14.0,-14.0,30.58,,,,,71,0,0,,,,,,,,,7/8 Mostly Cloudy,2500.0,,BKN,2500.0,BKN,5900.0,,,,
KRDR,12-03-2002,21:00,METAR,,30,6.0,,,4000.0,Light Snow/Cloud Development Not Observable,-13.0,-14.0,30.57,1038.2,,,,71,0,0,,,,,,TRACE,,,8/8 Overcast,1500.0,,BKN,1500.0,OVC,4000.0,,,,
KRDR,12-03-2002,20:38,SPECI,,30,5.0,,,4000.0,Light Snow/Cloud Development Not Observable,-14.0,-14.0,30.58,,,,,71,0,0,,,,,,,,,8/8 Overcast,1500.0,,BKN,1500.0,OVC,4000.0,,,,
KRDR,12-03-2002,20:21,SPECI,,,6.0,,,4000.0,Light Snow/Cloud Development Not Observable,-14.0,-15.0,30.57,,,,,71,0,0,,,,,,,,,8/8 Overcast,1500.0,,BKN,1500.0,OVC,4500.0,,,,
KRDR,12-03-2002,20:04,SPECI,,,6.0,,,4000.0,Light Snow/Cloud Development Not Observable,-14.0,-15.0,30.58,,,,,71,0,0,,,,,,,,,8/8 Overcast,1500.0,,BKN,1500.0,OVC,4500.0,,,,
KRDR,12-03-2002,20:00,METAR,,20,7.0,,,8000.0,Light Snow/Cloud Development Not Observable,-13.0,-15.0,30.58,1038.7,,,,71,0,0,,,,,,,,,8/8 Overcast,1500.0,,BKN,1500.0,OVC,4500.0,,,,
KRDR,12-03-2002,19:31,SPECI,,,6.0,,,9999.0,Light Snow/Cloud Development Not Observable,-13.0,-15.0,30.58,,,,,71,0,0,,,,,,,,,8/8 Overcast,2500.0,,BKN,2500.0,OVC,4500.0,,,,
KRDR,12-03-2002,19:00,METAR,,,3.0,,,9999.0,Light Snow/Cloud Development Not Observable,-13.0,-15.0,30.58,1038.7,,,,71,0,0,,,,,,,,,8/8 Overcast,4400.0,,BKN,4500.0,OVC,6900.0,,,,
KRDR,12-03-2002,18:21,SPECI,,70,3.0,,,9999.0,Light Snow/Cloud Development Not Observable,-13.0,-16.0,30.58,,,,,71,0,0,,,,,,,,,8/8 Overcast,4900.0,,BKN,5000.0,OVC,6900.0,,,,
KRDR,12-03-2002,18:00,METAR,,,4.0,,,9999.0,Cloud Development Not Observable,-14.0,-16.0,30.59,1038.9,,,,0,0,0,,,,,,,,,8/8 Overcast,4900.0,,BKN,5000.0,OVC,6900.0,,,,
KRDR,12-03-2002,17:00,METAR,,,5.0,,,9999.0,Cloud Development Not Observable,-15.0,-16.0,30.60,1039.4,,,,0,0,0,,,,,,,,,8/8 Overcast,5500.0,,BKN,5400.0,OVC,6900.0,,,,
KRDR,12-03-2002,16:00,METAR,,,5.0,,,9999.0,Cloud Development Not Observable,-15.0,-17.0,30.59,1039.3,,,,0,0,0,,,,,,,,,8/8 Overcast,5500.0,,BKN,5400.0,OVC,6900.0,,,,
KRDR,12-03-2002,15:00,METAR,,,5.0,,,9999.0,Cloud Development Not Observable,-16.0,-17.0,30.59,1039.1,,,,0,0,0,,,,,,,,,8/8 Overcast,5500.0,,BKN,5400.0,OVC,6900.0,,,,
KRDR,12-03-2002,14:00,METAR,,,3.0,,,9999.0,Cloud Development Not Observable,-17.0,-17.0,30.60,1017.9,,,,0,0,0,,,,,,,,,8/8 Overcast,7000.0,,OVC,6900.0,,,,,,
KRDR,12-03-2002,13:00,METAR,,20,4.0,,,9999.0,Cloud Development Not Observable,-17.0,-17.0,30.58,1038.9,,,,0,0,0,,,,,,,,,8/8 Overcast,8000.0,,OVC,7900.0,,,,,,
KRDR,12-03-2002,12:00,METAR,,30,4.0,,,9999.0,Cloud Development Not Observable,-17.0,-18.0,30.57,1038.5,,,,0,0,0,,,,,,,,,8/8 Overcast,8000.0,,BKN,7900.0,OVC,12000.0,,,,
KRDR,12-03-2002,11:00,METAR,,10,3.0,,,9999.0,Cloud Development Not Observable,-18.0,-18.0,30.58,1038.6,,,,0,0,0,,,,,,,,,8/8 Overcast,12000.0,,SCT,8400.0,OVC,12000.0,,,,
KRDR,12-03-2002,10:00,METAR,,70,4.0,,,9999.0,Cloud Development Not Observable,-18.0,-19.0,30.58,1038.7,,,,0,0,0,,,,,,,,,8/8 Overcast,12000.0,,OVC,12000.0,,,,,,
KRDR,12-03-2002,08:00,METAR,,10,5.0,,,9999.0,Cloud Development Not Observable,-18.0,-18.0,30.57,1038.2,,,,0,0,0,,,,,,,,,8/8 Overcast,9000.0,,OVC,8900.0,,,,,,
KRDR,12-03-2002,07:00,METAR,,60,5.0,,,9999.0,Cloud Development Not Observable,-18.0,-18.0,30.56,1038.1,,,,0,0,0,,,,,,,,,7/8 Mostly Cloudy,9000.0,,BKN,8900.0,,,,,,
KRDR,12-03-2002,06:00,METAR,,360,5.0,,,9999.0,Cloud Development Not Observable,-19.0,-19.0,30.56,1038.2,,,,0,0,0,,,,,,,,,7/8 Mostly Cloudy,10000.0,,BKN,9900.0,,,,,,
KRDR,12-03-2002,04:00,METAR,,350,4.0,,,9999.0,Cloud Development Not Observable,-21.0,-21.0,30.55,1038.0,,,,0,0,0,,,,,,,,,Clear,72000.0,,,73000.0,,,,,,
KRDR,12-03-2002,03:00,METAR,,350,5.0,,,9999.0,Cloud Development Not Observable,-20.0,-20.0,30.54,1037.6,,,,0,0,0,,,,,,,,,4/8 Partly Cloudy,72000.0,,SCT,20000.0,,,,,,
KRDR,12-03-2002,02:00,METAR,,360,6.0,,,9999.0,Cloud Development Not Observable,-20.0,-20.0,30.52,1036.7,,,,0,0,0,,,,,,,,,4/8 Partly Cloudy,72000.0,,SCT,20000.0,,,,,,
KRDR,12-03-2002,00:00,METAR,,20,7.0,,,9999.0,Cloud Development Not Observable,-17.0,-19.0,30.48,1035.3,,,,0,0,0,,,,,,,,,7/8 Mostly Cloudy,11000.0,,BKN,11000.0,BKN,20000.0,,,,
KRDR,12-02-2002,22:00,METAR,,30,8.0,,,9999.0,Cloud Development Not Observable,-15.0,-24.0,30.46,1034.2,,,,0,0,0,,,,,,,,,7/8 Mostly Cloudy,20000.0,,FEW,12000.0,BKN,20000.0,,,,
KRDR,12-02-2002,21:00,METAR,,30,10.0,,,,Cloud Development Not Observable,-13.0,-22.0,,1033.2,,,,0,0,0,,,,,,,,,,20000.0,,FEW,12000.0,BKN,20000.0,,,,
KRDR,12-02-2002,17:00,METAR,,30,7.0,,,9999.0,Cloud Development Not Observable,-18.0,-20.0,30.39,1032.1,,,,0,0,0,,,,,,,,,7/8 Mostly Cloudy,20000.0,,SCT,12000.0,BKN,20000.0,,,,
KRDR,12-02-2002,14:00,METAR,,20,10.0,,,9999.0,Cloud Development Not Observable,-19.0,-20.0,30.31,1029.1,,,,0,0,0,,,,,,,,,2/8 Mostly Clear,72000.0,,FEW,12000.0,,,,,,
KRDR,12-02-2002,13:00,METAR,,20,12.0,,,9999.0,Cloud Development Not Observable,-18.0,-18.0,30.26,1027.5,,,,0,0,0,,,,,,,,,Clear,72000.0,,,73000.0,,,,,,
KRDR,12-02-2002,12:00,METAR,,20,10.0,,,9999.0,Cloud Development Not Observable,-17.0,-18.0,30.23,1026.3,,,,0,0,0,,,,,,,,,Clear,72000.0,,,73000.0,,,,,,
KRDR,12-02-2002,11:00,METAR,,10,11.0,,,9999.0,Cloud Development Not Observable,-16.0,-17.0,30.19,1025.0,,,,0,0,0,,,,,,,,,2/8 Mostly Clear,72000.0,,FEW,12000.0,,,,,,
KRDR,12-02-2002,10:00,METAR,,360,12.0,,,9999.0,Cloud Development Not Observable,-15.0,-17.0,30.16,1023.7,,,,0,0,0,,,,,,,,,7/8 Mostly Cloudy,12000.0,,BKN,12000.0,,,,,,
KRDR,12-02-2002,09:00,METAR,,20,13.0,,,9999.0,Cloud Development Not Observable,-14.0,-16.0,30.12,1022.3,,,,0,0,0,,,,,,,,,7/8 Mostly Cloudy,12000.0,,BKN,12000.0,,,,,,
KRDR,12-02-2002,08:00,METAR,,10,13.0,,,9999.0,Cloud Development Not Observable,-13.0,-16.0,30.09,1021.1,,,,0,0,0,,,,,,,,,7/8 Mostly Cloudy,12000.0,,BKN,12000.0,,,,,,
KRDR,12-02-2002,07:00,METAR,,10,16.0,,,9999.0,Cloud Development Not Observable,-12.0,-17.0,30.04,1019.6,,,,0,0,0,,,,,,,,,8/8 Overcast,10000.0,,OVC,9900.0,,,,,,
KRDR,12-02-2002,06:00,METAR,,30,14.0,,,9999.0,Cloud Development Not Observable,-12.0,-17.0,30.02,1018.9,,,,0,0,0,,,,,,,,,8/8 Overcast,10000.0,,OVC,9900.0,,,,,,
KRDR,12-02-2002,04:00,METAR,,10,15.0,,,9999.0,Cloud Development Not Observable,-11.0,-14.0,29.96,1016.6,,,,0,0,0,,,,,,,,,8/8 Overcast,10000.0,,SCT,6900.0,OVC,9900.0,,,,
KRDR,12-02-2002,02:00,METAR,,360,16.0,,,9999.0,Cloud Development Not Observable,-10.0,-11.0,29.92,1015.2,,,,0,0,0,,,,,,,,,8/8 Overcast,6500.0,,BKN,6400.0,OVC,12000.0,,,,
KRDR,12-02-2002,01:00,METAR,,10,11.0,,,9999.0,Cloud Development Not Observable,-10.0,-11.0,29.89,1014.3,,,,0,0,0,,,,,,,,,7/8 Mostly Cloudy,20000.0,,SCT,7900.0,BKN,20000.0,,,,
KRDR,12-02-2002,00:00,METAR,,360,12.0,,,9999.0,Cloud Development Not Observable,-8.0,-10.0,29.86,1013.3,,,,0,0,0,,,,,,,,,8/8 Overcast,5500.0,,FEW,2000.0,BKN,5400.0,OVC,6900.0,,
KRDR,12-01-2002,23:00,METAR,,10,12.0,,,9999.0,Cloud Development Not Observable,-8.0,-10.0,29.85,1012.4,,,,0,0,0,,,,,,,,,8/8 Overcast,5500.0,,FEW,2000.0,BKN,5400.0,OVC,6900.0,,
KRDR,12-01-2002,22:00,METAR,,360,15.0,,,9999.0,Cloud Development Not Observable,-7.0,-8.0,29.82,1011.9,,,,0,0,0,,,,,,,,,8/8 Overcast,2200.0,,FEW,1200.0,SCT,2200.0,OVC,5000.0,,
KRDR,12-01-2002,21:48,SPECI,,10,14.0,,,9999.0,Cloud Development Not Observable,-7.0,-8.0,29.82,,,,,0,0,0,,,,,,,,,8/8 Overcast,2200.0,,FEW,1200.0,SCT,2200.0,OVC,5000.0,,
KRDR,12-01-2002,21:00,METAR,,20,12.0,,,9999.0,Cloud Development Not Observable,-5.0,-7.0,29.79,1010.7,,,,0,0,0,,,,,,,,,8/8 Overcast,1800.0,,BKN,1800.0,OVC,5900.0,,,,
KRDR,12-01-2002,20:45,METAR,,30,12.0,,,9999.0,Cloud Development Not Observable,-5.0,-8.0,29.79,,,,,0,0,0,,,,,,,,,7/8 Mostly Cloudy,2000.0,,BKN,2000.0,BKN,5900.0,,,,
KRDR,12-01-2002,20:00,METAR,,20,9.0,,,9999.0,Cloud Development Not Observable,-5.0,-8.0,29.79,1010.8,,,,0,0,0,,,,,,,,,8/8 Overcast,6000.0,,SCT,2000.0,OVC,5900.0,,,,
KRDR,12-01-2002,19:48,SPECI,,10,9.0,,,9999.0,Cloud Development Not Observable,-5.0,-8.0,29.79,,,,,0,0,0,,,,,,,,,8/8 Overcast,6000.0,,SCT,2000.0,OVC,5900.0,,,,
KRDR,12-01-2002,19:00,METAR,,360,10.0,,,9999.0,Cloud Development Not Observable,-5.0,-8.0,29.80,1011.0,,,,0,0,0,,,,,,,,,8/8 Overcast,2000.0,,BKN,2000.0,OVC,5900.0,,,,
KRDR,12-01-2002,18:00,METAR,,360,10.0,,,9999.0,Cloud Development Not Observable,-4.0,-7.0,29.82,1011.8,,,,0,0,0,,,,,,,IN,,7/8 Mostly Cloudy,2000.0,,BKN,2000.0,BKN,5900.0,,,,
KRDR,12-01-2002,17:00,METAR,,360,7.0,,,9999.0,Cloud Development Not Observable,-5.0,-6.0,29.82,1011.9,,,,0,0,0,,,,,,,,,7/8 Mostly Cloudy,2500.0,,FEW,1000.0,BKN,2500.0,BKN,8900.0,,
KRDR,12-01-2002,16:00,METAR,,350,10.0,,,9999.0,Cloud Development Not Observable,-6.0,-6.0,29.83,1012.0,,,,0,0,0,,,,,,,,,8/8 Overcast,2400.0,,FEW,1000.0,BKN,2400.0,OVC,8900.0,,
KRDR,12-01-2002,15:22,SPECI,,360,11.0,,,9999.0,Cloud Development Not Observable,-5.0,-6.0,29.83,,,,,0,0,0,,,,,,,,,8/8 Overcast,2400.0,,FEW,1100.0,BKN,2400.0,OVC,8900.0,,
KRDR,12-01-2002,15:02,SPECI,,350,8.0,,,9999.0,Light Snow/Cloud Development Not Observable,-5.0,-5.0,29.83,,,,,71,0,0,,,,,,,,,8/8 Overcast,2000.0,,SCT,1100.0,BKN,2000.0,OVC,8900.0,,
KRDR,12-01-2002,15:00,METAR,,350,9.0,,,9999.0,Cloud Development Not Observable,-5.0,-5.0,29.83,1012.0,,,,0,0,0,,,,,,,,,8/8 Overcast,2000.0,,SCT,1100.0,BKN,2000.0,OVC,8900.0,,
KRDR,12-01-2002,14:00,METAR,,10,9.0,,,9999.0,Cloud Development Not Observable,-5.0,-5.0,29.81,1011.2,,,,0,0,0,,,,,,,,,8/8 Overcast,1700.0,,BKN,1700.0,OVC,8900.0,,,,
KRDR,12-01-2002,13:00,METAR,,360,8.0,,,9999.0,Cloud Development Not Observable,-5.0,-5.0,29.81,1011.2,,,,0,0,0,,,,,,,,,8/8 Overcast,1400.0,,BKN,1400.0,OVC,8900.0,,,,
KRDR,12-01-2002,12:10,SPECI,,360,12.0,,,9999.0,Cloud Development Not Observable,-5.0,-5.0,29.80,,,,,0,0,0,,,,,,,,,8/8 Overcast,1200.0,,BKN,1200.0,OVC,8900.0,,,,
KRDR,12-01-2002,12:00,METAR,,360,12.0,,,9999.0,Cloud Development Not Observable,-5.0,-5.0,29.80,1010.9,,,,0,0,0,,,,,,,,,8/8 Overcast,9000.0,,OVC,8900.0,,,,,,
KRDR,12-01-2002,10:00,METAR,,320,9.0,,,9999.0,Cloud Development Not Observable,-3.0,-4.0,29.79,1010.5,,,,0,0,0,,,,,,,,,7/8 Mostly Cloudy,9500.0,,BKN,9400.0,,,,,,
KRDR,12-01-2002,09:00,METAR,,280,7.0,,,9999.0,Cloud Development Not Observable,-4.0,-5.0,29.78,1010.4,,,,0,0,0,,,,,,,,,7/8 Mostly Cloudy,9000.0,,BKN,8900.0,,,,,,
KRDR,12-01-2002,08:00,METAR,,260,8.0,,,9999.0,Cloud Development Not Observable,-5.0,-5.0,29.79,1010.5,,,,0,0,0,,,,,,,,,4/8 Partly Cloudy,72000.0,,SCT,8900.0,,,,,,
KRDR,12-01-2002,07:00,METAR,,240,7.0,,,9999.0,Cloud Development Not Observable,-7.0,-7.0,29.80,1011.2,,,,0,0,0,,,,,,,,,4/8 Partly Cloudy,72000.0,,SCT,8900.0,,,,,,
KRDR,12-01-2002,06:00,METAR,,210,7.0,,,9999.0,Cloud Development Not Observable,-8.0,-8.0,29.84,1012.5,,,,0,0,0,,,,,,,,,4/8 Partly Cloudy,72000.0,,SCT,8900.0,,,,,,
KRDR,12-01-2002,02:00,METAR,,210,7.0,,,9999.0,Cloud Development Not Observable,-4.0,-6.0,29.98,1017.5,,,,0,0,0,,,,,,,,,8/8 Overcast,7000.0,,FEW,3700.0,OVC,6900.0,,,,
KRDR,12-01-2002,01:00,METAR,,220,9.0,,,9999.0,Light Snow/Cloud Development Not Observable,-4.0,-6.0,30.00,1018.1,,,,71,0,0,,,,,,,,,8/8 Overcast,7000.0,,FEW,2500.0,OVC,6900.0,,,,
KRDR,12-01-2002,00:28,SPECI,,240,7.0,,,9999.0,Cloud Development Not Observable,-5.0,-7.0,30.04,,,,,0,0,0,,,,,,,,,7/8 Mostly Cloudy,8000.0,,SCT,2500.0,BKN,7900.0,,,,
KRDR,12-01-2002,00:00,METAR,,250,6.0,,,9999.0,Cloud Development Not Observable,-4.0,-7.0,30.04,1019.5,,,,0,0,0,,,,,,,,,8/8 Overcast,2500.0,,BKN,2500.0,OVC,9900.0,,,,
KRDR,11-30-2002,23:17,SPECI,,250,9.0,,,9999.0,Cloud Development Not Observable,-4.0,-7.0,30.06,,,,,0,0,0,,,,,,,,,8/8 Overcast,2500.0,,BKN,2500.0,OVC,11000.0,,,,
KRDR,11-30-2002,23:00,METAR,,270,10.0,,,9999.0,Cloud Development Not Observable,-4.0,-8.0,30.08,1020.6,,,,0,0,0,,,,,,,,,7/8 Mostly Cloudy,11000.0,,SCT,2500.0,BKN,11000.0,,,,
KRDR,11-30-2002,22:00,METAR,,270,10.0,,,9999.0,Cloud Development Not Observable,-4.0,-9.0,30.09,1021.0,,,,0,0,0,,,,,,,,,7/8 Mostly Cloudy,11000.0,,FEW,5900.0,BKN,11000.0,,,,
KRDR,11-30-2002,21:00,METAR,,260,14.0,,,9999.0,Cloud Development Not Observable,-4.0,-10.0,30.09,1021.0,,,,0,0,0,,,,,,,,,4/8 Partly Cloudy,72000.0,,SCT,5900.0,,,,,,
KRDR,11-30-2002,20:00,METAR,,240,14.0,,,9999.0,Cloud Development Not Observable,-4.0,-9.0,30.12,1022.0,,,,0,0,0,,,,,,,,,2/8 Mostly Clear,72000.0,,FEW,5900.0,,,,,,
KRDR,11-30-2002,19:00,METAR,,250,14.0,,,9999.0,Cloud Development Not Observable,-6.0,-11.0,30.15,1023.3,,,,0,0,0,,,,,,,,,4/8 Partly Cloudy,72000.0,,SCT,5900.0,,,,,,
KRDR,11-30-2002,18:00,METAR,,250,12.0,,,9999.0,Cloud Development Not Observable,-7.0,-13.0,30.19,1024.5,,,,0,0,0,,,,,,,,,7/8 Mostly Cloudy,6000.0,,BKN,5900.0,,,,,,
KRDR,11-30-2002,17:00,METAR,,250,8.0,,,9999.0,Cloud Development Not Observable,-9.0,-12.0,30.23,1026.0,,,,0,0,0,,,,,,,,,7/8 Mostly Cloudy,6500.0,,BKN,6400.0,,,,,,
KRDR,11-30-2002,16:00,METAR,,290,7.0,,,9999.0,Cloud Development Not Observable,-10.0,-12.0,30.24,1026.4,,,,0,0,0,,,,,,,,,4/8 Partly Cloudy,72000.0,,SCT,7900.0,,,,,,
KRDR,11-30-2002,15:00,METAR,,300,4.0,,,9999.0,Cloud Development Not Observable,-12.0,-13.0,30.24,1026.4,,,,0,0,0,,,,,,,,,7/8 Mostly Cloudy,8000.0,,BKN,7900.0,,,,,,
KRDR,11-30-2002,14:00,METAR,,310,5.0,,,9999.0,Cloud Development Not Observable,-13.0,-13.0,30.23,1026.3,,,,0,0,0,,,,,,,,,7/8 Mostly Cloudy,9000.0,,BKN,8900.0,,,,,,
KRDR,11-30-2002,13:00,METAR,,350,11.0,,,9999.0,Cloud Development Not Observable,-11.0,-13.0,30.23,1026.2,,,,0,0,0,,,,,,,,,7/8 Mostly Cloudy,10000.0,,BKN,9900.0,,,,,,
KRDR,11-30-2002,12:00,METAR,,350,13.0,,,9999.0,Cloud Development Not Observable,-11.0,-12.0,30.22,1025.8,,,,0,0,0,,,,,,,IN,.02 IN,7/8 Mostly Cloudy,10000.0,,FEW,2000.0,BKN,9900.0,,,,
KRDR,11-30-2002,11:45,METAR,,350,12.0,,,9999.0,Cloud Development Not Observable,-11.0,-12.0,30.21,,,,,0,0,0,,,,,,,,,8/8 Overcast,10000.0,,FEW,2000.0,OVC,9900.0,,,,
KRDR,11-30-2002,11:00,METAR,,340,15.0,,,9999.0,Light Snow/Cloud Development Not Observable,-11.0,-12.0,30.20,1025.1,,,,71,0,0,,,,,,,,,7/8 Mostly Cloudy,10000.0,,SCT,2000.0,BKN,9900.0,,,,
KRDR,11-30-2002,10:33,SPECI,,340,13.0,,,9999.0,Light Snow/Cloud Development Not Observable,-11.0,-12.0,30.20,,,,,71,0,0,,,,,,,,,8/8 Overcast,10000.0,,SCT,2000.0,OVC,9900.0,,,,
KRDR,11-30-2002,10:00,METAR,,340,10.0,,,9999.0,Light Snow/Cloud Development Not Observable,-11.0,-12.0,30.19,1024.7,,,,71,0,0,,,,,,,,,8/8 Overcast,2800.0,,OVC,2800.0,,,,,,
KRDR,11-30-2002,09:11,SPECI,,340,14.0,22.0,,9999.0,Light Snow/Cloud Development Not Observable,-11.0,-12.0,30.18,,,,,71,0,0,,,,,,,,,7/8 Mostly Cloudy,2000.0,,BKN,2000.0,BKN,3200.0,,,,
KRDR,11-30-2002,09:00,METAR,,340,12.0,,350/25KTS,9999.0,Light Snow/Cloud Development Not Observable,-11.0,-13.0,30.17,1023.8,,,,71,0,0,,,,,,TRACE,,,7/8 Mostly Cloudy,3400.0,,SCT,2000.0,BKN,3500.0,,,,
KRDR,11-30-2002,08:10,SPECI,,340,17.0,27.0,,9999.0,Light Snow/Cloud Development Not Observable,-10.0,-11.0,30.16,,,,,71,0,0,,,,,,,,,8/8 Overcast,3100.0,,SCT,2300.0,OVC,3200.0,,,,
KRDR,11-30-2002,08:00,METAR,,340,18.0,26.0,,9999.0,Light Snow/Cloud Development Not Observable,-10.0,-11.0,30.15,1023.2,,,,71,0,0,,,,,,,,,8/8 Overcast,2600.0,,BKN,2600.0,OVC,3500.0,,,,
KRDR,11-30-2002,07:42,SPECI,,330,16.0,26.0,,9999.0,Light Snow/Cloud Development Not Observable,-10.0,-11.0,30.15,,,,,71,0,0,,,,,,,,,8/8 Overcast,3100.0,,SCT,2600.0,OVC,3200.0,,,,
KRDR,11-30-2002,06:00,METAR,,330,22.0,27.0,,9999.0,Light Snow/Cloud Development Not Observable,-9.0,-11.0,30.11,1021.5,,,,71,0,0,,,,,,,.01 IN,,8/8 Overcast,3400.0,,FEW,2000.0,OVC,3500.0,,,,
KRDR,11-30-2002,05:00,METAR,,330,16.0,27.0,340/28KTS,9999.0,Light Snow/Cloud Development Not Observable,-9.0,-10.0,30.09,1020.7,,,,71,0,0,,,,,,,,,8/8 Overcast,3400.0,,SCT,2000.0,OVC,3500.0,,,,
KRDR,11-30-2002,04:27,SPECI,,330,20.0,28.0,,6400.0,Light Snow/Cloud Development Not Observable,-8.0,-9.0,30.08,,,,,71,0,0,,,,,,,,,8/8 Overcast,3400.0,,SCT,2000.0,OVC,3500.0,,,,
KRDR,11-30-2002,04:00,METAR,,330,21.0,27.0,330/31KTS,6400.0,Light Snow/Cloud Development Not Observable,-8.0,-9.0,30.06,1019.9,,,,71,0,0,,,,,,,,,8/8 Overcast,1700.0,,BKN,1700.0,OVC,3400.0,,,,
KRDR,11-30-2002,02:00,METAR,,330,27.0,34.0,,8000.0,Light Snow/Cloud Development Not Observable,-7.0,-9.0,29.99,1017.4,,,,71,0,0,,,,,,,,,8/8 Overcast,2500.0,,BKN,2500.0,OVC,3500.0,,,,
KRDR,11-30-2002,01:00,METAR,,340,27.0,36.0,330/38KTS,8000.0,Cloud Development Not Observable,-7.0,-9.0,29.96,1016.4,,,,0,0,0,,,,,,,,,8/8 Overcast,2500.0,,BKN,2500.0,OVC,3500.0,,,,
KRDR,11-30-2002,00:18,SPECI,,340,25.0,35.0,,8000.0,Light Snow/Cloud Development Not Observable,-7.0,-9.0,29.93,,,,,71,0,0,,,,,,,,,8/8 Overcast,2500.0,,BKN,2500.0,OVC,3500.0,,,,
KRDR,11-30-2002,00:00,METAR,,340,27.0,35.0,,4800.0,Cloud Development Not Observable,-7.0,-8.0,29.91,1014.6,,,,0,0,0,,,,,,,.01 IN,,8/8 Overcast,3400.0,,SCT,2500.0,OVC,3500.0,,,,
KRDR,11-29-2002,23:00,METAR,,340,26.0,33.0,340/38KTS,9999.0,Cloud Development Not Observable,-6.0,-8.0,29.86,1012.8,,,,0,0,0,,,,,,,,,8/8 Overcast,4900.0,,SCT,2500.0,OVC,5000.0,,,,
KRDR,11-29-2002,22:31,SPECI,,340,30.0,36.0,,6400.0,Light Snow/Blowing Snow/Cloud Development Not Observable,-6.0,-8.0,29.84,,,,,71,38,0,,,,,,,,,8/8 Overcast,4900.0,,SCT,2500.0,OVC,5000.0,,,,
KRDR,11-29-2002,22:00,METAR,,340,28.0,37.0,,6400.0,Cloud Development Not Observable,-6.0,-8.0,29.80,1010.7,,,,0,0,0,,,,,,,,,8/8 Overcast,2500.0,,SCT,1500.0,OVC,2500.0,,,,
KRDR,11-29-2002,21:00,METAR,,330,30.0,39.0,,4800.0,Light Snow Showers/Cloud Development Not Observable,-5.0,-8.0,29.74,1008.5,,,,85,0,0,0,,,,,.01 IN,,,8/8 Overcast,1500.0,,BKN,1500.0,OVC,2700.0,,,,
KRDR,11-29-2002,20:41,SPECI,,350,28.0,37.0,,8000.0,Light Snow/Cloud Development Not Observable,-5.0,-8.0,29.73,,,,,71,0,0,,,,,,,,,8/8 Overcast,1500.0,,BKN,1500.0,BKN,2700.0,OVC,5900.0,,
KRDR,11-29-2002,20:06,SPECI,,340,29.0,36.0,,9999.0,Cloud Development Not Observable,-4.0,-6.0,29.68,,,,,0,0,0,,,,,,,,,8/8 Overcast,1500.0,,BKN,1500.0,OVC,2700.0,,,,
KRDR,11-29-2002,20:00,METAR,,340,21.0,33.0,340/37KTS,9999.0,Cloud Development Not Observable,-3.0,-5.0,29.67,1006.3,,,,0,0,0,,,,,,,,,8/8 Overcast,1500.0,,BKN,1500.0,OVC,2900.0,,,,
KRDR,11-29-2002,19:00,METAR,,350,28.0,36.0,,4800.0,Light Snow Showers/Cloud Development Not Observable,-2.0,-3.0,29.61,1004.1,,,,85,0,0,,,,,,,,,8/8 Overcast,1500.0,,SCT,800.0,BKN,1500.0,OVC,2500.0,,
KRDR,11-29-2002,18:15,SPECI,,340,28.0,33.0,,9999.0,Light Snow/Cloud Development Not Observable,1.0,-1.0,29.57,,,,,71,0,0,,,,,,,,,8/8 Overcast,800.0,,BKN,800.0,OVC,2600.0,,,,
KRDR,11-29-2002,18:00,METAR,,300,26.0,31.0,310/41KTS,8000.0,Light Snow/Rain/Cloud Development Not Observable,2.0,1.0,29.53,1001.0,,,,61,71,0,,,,,,,IN,,8/8 Overcast,2500.0,,OVC,2500.0,BKN,7900.0,,,,
KRDR,11-29-2002,17:38,SPECI,,300,26.0,33.0,,9999.0,Light Snow/Rain/Cloud Development Not Observable,3.0,1.0,29.52,,,,,61,71,0,,,,,,,,,8/8 Overcast,800.0,,BKN,800.0,BKN,2500.0,OVC,4000.0,,
KRDR,11-29-2002,17:02,SPECI,,310,31.0,42.0,,9999.0,Light Rain Showers/Cloud Development Not Observable,5.0,-2.0,29.51,,,,,80,0,0,,,,,,,,,8/8 Overcast,2500.0,,FEW,1000.0,BKN,2500.0,OVC,6400.0,,
KRDR,11-29-2002,17:00,METAR,,300,30.0,37.0,300/38KTS,9999.0,Cloud Development Not Observable,5.0,-2.0,29.50,1000.1,,,,0,0,0,,,,,,,,,7/8 Mostly Cloudy,12000.0,,SCT,6400.0,BKN,12000.0,,,,
KRDR,11-29-2002,16:00,METAR,,290,22.0,36.0,,9999.0,Cloud Development Not Observable,4.0,-3.0,29.48,999.3,,,,0,0,0,,,,,,,,,4/8 Partly Cloudy,72000.0,,SCT,6400.0,,,,,,
KRDR,11-29-2002,15:00,METAR,,280,23.0,30.0,280/32KTS,9999.0,Cloud Development Not Observable,3.0,-3.0,29.46,998.7,,,,0,0,0,,,,,,,,,4/8 Partly Cloudy,72000.0,,SCT,5900.0,,,,,,
KRDR,11-29-2002,14:00,METAR,,280,21.0,28.0,290/34KTS,9999.0,Cloud Development Not Observable,3.0,-3.0,29.46,998.6,,,,0,0,0,,,,,,,,,2/8 Mostly Clear,72000.0,,FEW,4000.0,,,,,,
KRDR,11-29-2002,13:00,METAR,,290,25.0,30.0,310/31KTS,9999.0,Cloud Development Not Observable,3.0,-3.0,29.46,998.6,,,,0,0,0,,,,,,,,,Clear,72000.0,,,73000.0,,,,,,
KRDR,11-29-2002,12:00,METAR,,290,20.0,29.0,290/30KTS,9999.0,Cloud Development Not Observable,3.0,-3.0,29.46,998.6,,,,0,0,0,,,,,,,,,Clear,72000.0,,,73000.0,,,,,,
KRDR,11-29-2002,11:00,METAR,,280,18.0,30.0,,9999.0,Cloud Development Not Observable,3.0,-2.0,29.47,999.1,,,,0,0,0,,,,,,,,,2/8 Mostly Clear,72000.0,,FEW,22000.0,,,,,,
KRDR,11-29-2002,10:00,METAR,,280,18.0,28.0,,9999.0,Cloud Development Not Observable,3.0,-2.0,29.46,998.6,,,,0,0,0,,,,,,,,,Clear,72000.0,,,73000.0,,,,,,
KRDR,11-29-2002,09:00,METAR,,290,16.0,24.0,290/29KTS,9999.0,Cloud Development Not Observable,4.0,-2.0,29.48,999.5,,,,0,0,0,,,,,,,,,Clear,72000.0,,,73000.0,,,,,,
KRDR,11-29-2002,08:00,METAR,,290,20.0,28.0,290/32KTS,9999.0,Cloud Development Not Observable,6.0,-2.0,29.46,998.7,,,,0,0,0,,,,,,,,,2/8 Mostly Clear,72000.0,,FEW,22000.0,,,,,,
KRDR,11-29-2002,07:00,METAR,,280,20.0,29.0,,9999.0,Cloud Development Not Observable,6.0,-2.0,29.47,999.1,,,,0,0,0,,,,,,,,,4/8 Partly Cloudy,72000.0,,FEW,15000.0,SCT,22000.0,,,,
KRDR,11-29-2002,06:00,METAR,,290,16.0,25.0,,9999.0,Cloud Development Not Observable,6.0,-2.0,29.50,1000.0,,,,0,0,0,,,,,,,,,7/8 Mostly Cloudy,22000.0,,SCT,15000.0,BKN,22000.0,,,,
KRDR,11-29-2002,05:00,METAR,,290,16.0,,290/25KTS,9999.0,Cloud Development Not Observable,6.0,-1.0,29.49,999.7,,,,0,0,0,,,,,,,,,7/8 Mostly Cloudy,22000.0,,SCT,15000.0,BKN,22000.0,,,,
KRDR,11-29-2002,04:00,METAR,,280,21.0,26.0,280/28KTS,9999.0,Cloud Development Not Observable,7.0,-1.0,29.48,999.7,,,,0,0,0,,,,,,,,,7/8 Mostly Cloudy,22000.0,,SCT,15000.0,BKN,22000.0,,,,
KRDR,11-29-2002,03:00,METAR,,290,21.0,29.0,,9999.0,Cloud Development Not Observable,8.0,0.0,29.49,1000.1,,,,0,0,0,,,,,,,,,8/8 Overcast,22000.0,,SCT,15000.0,OVC,22000.0,,,,
KRDR,11-29-2002,02:00,METAR,,290,21.0,29.0,,9999.0,Cloud Development Not Observable,9.0,1.0,29.48,999.6,,,,0,0,0,,,,,,,,,7/8 Mostly Cloudy,15000.0,,BKN,15000.0,BKN,25000.0,,,,
KRDR,11-29-2002,01:00,METAR,,290,23.0,28.0,,9999.0,Cloud Development Not Observable,10.0,2.0,29.47,999.3,,,,0,0,0,,,,,,,,,7/8 Mostly Cloudy,15000.0,,BKN,15000.0,BKN,25000.0,,,,
KRDR,11-29-2002,00:00,METAR,,270,15.0,22.0,,9999.0,Cloud Development Not Observable,10.0,3.0,29.47,999.3,,,,0,0,0,,,,,,,,,7/8 Mostly Cloudy,15000.0,,BKN,15000.0,BKN,25000.0,,,,
KRDR,11-28-2002,23:00,METAR,,260,15.0,21.0,,9999.0,Cloud Development Not Observable,10.0,3.0,29.48,999.7,,,,0,0,0,,,,,,,,,7/8 Mostly Cloudy,25000.0,,SCT,15000.0,BKN,25000.0,,,,
KRDR,11-28-2002,22:00,METAR,,230,8.0,,,9999.0,Cloud Development Not Observable,9.0,3.0,29.52,1001.1,,,,0,0,0,,,,,,,,,7/8 Mostly Cloudy,25000.0,,SCT,15000.0,BKN,25000.0,,,,
KRDR,11-28-2002,21:00,METAR,,240,14.0,,,9999.0,Cloud Development Not Observable,9.0,3.0,29.56,1002.5,,,,0,0,0,,,,,,,,,7/8 Mostly Cloudy,25000.0,,SCT,15000.0,BKN,25000.0,,,,
KRDR,11-28-2002,20:00,METAR,,230,15.0,22.0,,9999.0,Cloud Development Not Observable,9.0,3.0,29.60,1003.8,,,,0,0,0,,,,,,,,,7/8 Mostly Cloudy,25000.0,,SCT,9900.0,BKN,25000.0,,,,
KRDR,11-28-2002,19:00,METAR,,230,13.0,22.0,,9999.0,Cloud Development Not Observable,8.0,2.0,29.65,1005.8,,,,0,0,0,,,,,,,,,7/8 Mostly Cloudy,25000.0,,FEW,9900.0,BKN,25000.0,,,,
KRDR,11-28-2002,17:55,METAR,,250,13.0,,,9999.0,Cloud Development Not Observable,6.0,2.0,29.70,1007.2,,,,0,0,0,,,,,,,,,7/8 Mostly Cloudy,10000.0,,FEW,5400.0,SCT,9900.0,BKN,25000.0,,
KRDR,11-28-2002,17:00,METAR,,230,11.0,,,9999.0,Cloud Development Not Observable,4.0,0.0,29.75,1009.2,,,,0,0,0,,,,,,,,,7/8 Mostly Cloudy,10000.0,,FEW,5400.0,SCT,9900.0,BKN,25000.0,,
KRDR,11-28-2002,16:00,METAR,,210,11.0,,,9999.0,Cloud Development Not Observable,-1.0,-2.0,29.81,1011.3,,,,0,0,0,,,,,,,,,7/8 Mostly Cloudy,10000.0,,SCT,5400.0,SCT,9900.0,BKN,25000.0,,
KRDR,11-28-2002,15:00,METAR,,210,13.0,,,9999.0,Cloud Development Not Observable,-3.0,-4.0,29.84,1012.4,,,,0,0,0,,,,,,,,,7/8 Mostly Cloudy,10000.0,,SCT,5400.0,BKN,9900.0,,,,
KRDR,11-28-2002,14:00,METAR,,210,12.0,,,9999.0,Cloud Development Not Observable,-5.0,-5.0,29.87,1013.4,,,,0,0,0,,,,,,,,,7/8 Mostly Cloudy,10000.0,,SCT,5900.0,BKN,9900.0,,,,
KRDR,11-28-2002,13:00,METAR,,190,9.0,,,9999.0,Cloud Development Not Observable,-7.0,-7.0,29.91,1014.7,,,,0,0,0,,,,,,,,,7/8 Mostly Cloudy,10000.0,,BKN,9900.0,,,,,,
KRDR,11-28-2002,12:00,METAR,,160,7.0,,,9999.0,Cloud Development Not Observable,-8.0,-8.0,29.95,1016.1,,,,0,0,0,,,,,,,,,7/8 Mostly Cloudy,9000.0,,BKN,8900.0,,,,,,
KRDR,11-28-2002,11:00,METAR,,180,7.0,,,9999.0,Cloud Development Not Observable,-8.0,-8.0,29.98,1017.2,,,,0,0,0,,,,,,,,,7/8 Mostly Cloudy,10000.0,,BKN,9900.0,,,,,,
KRDR,11-28-2002,10:00,METAR,,210,8.0,,,9999.0,Cloud Development Not Observable,-8.0,-8.0,29.99,1017.6,,,,0,0,0,,,,,,,,,7/8 Mostly Cloudy,10000.0,,BKN,9900.0,,,,,,
KRDR,11-28-2002,09:00,METAR,,220,9.0,,,9999.0,Cloud Development Not Observable,-9.0,-9.0,30.03,1018.8,,,,0,0,0,,,,,,,,,4/8 Partly Cloudy,72000.0,,SCT,8900.0,,,,,,
KRDR,11-28-2002,08:00,METAR,,220,7.0,,,9999.0,Cloud Development Not Observable,-10.0,-10.0,30.05,1019.5,,,,0,0,0,,,,,,,,,4/8 Partly Cloudy,72000.0,,SCT,8900.0,,,,,,
KRDR,11-28-2002,07:00,METAR,,230,5.0,,,9999.0,Cloud Development Not Observable,-10.0,-10.0,30.07,1020.3,,,,0,0,0,,,,,,,,,2/8 Mostly Clear,72000.0,,FEW,8900.0,,,,,,
KRDR,11-28-2002,05:59,METAR,,230,6.0,,,9999.0,Cloud Development Not Observable,-10.0,-10.0,30.09,1020.9,,,,0,0,0,,,,,,,,,2/8 Mostly Clear,72000.0,,FEW,8900.0,,,,,,
KRDR,11-28-2002,05:00,METAR,,260,6.0,,,9999.0,Cloud Development Not Observable,-10.0,-10.0,30.10,1021.2,,,,0,0,0,,,,,,,,,2/8 Mostly Clear,72000.0,,FEW,8900.0,,,,,,
KRDR,11-28-2002,04:00,METAR,,280,6.0,,,9999.0,Cloud Development Not Observable,-9.0,-9.0,30.11,1021.6,,,,0,0,0,,,,,,,,,2/8 Mostly Clear,72000.0,,FEW,8900.0,,,,,,
KRDR,11-28-2002,02:00,METAR,,320,8.0,,,9999.0,Cloud Development Not Observable,-5.0,-6.0,30.12,1021.8,,,,0,0,0,,,,,,,,,7/8 Mostly Cloudy,3000.0,,BKN,3000.0,,,,,,
KRDR,11-28-2002,01:00,METAR,,320,6.0,,,9999.0,Cloud Development Not Observable,-3.0,-6.0,30.12,1021.8,,,,0,0,0,,,,,,,,,8/8 Overcast,3000.0,,BKN,3000.0,OVC,5900.0,,,,
KRDR,11-28-2002,00:00,METAR,,350,9.0,,,9999.0,Cloud Development Not Observable,-2.0,-5.0,30.11,1021.4,,,,0,0,0,,,,,,,,,7/8 Mostly Cloudy,6000.0,,SCT,3000.0,BKN,5900.0,,,,
KRDR,11-27-2002,23:00,METAR,,320,6.0,,,9999.0,Cloud Development Not Observable,-4.0,-6.0,30.10,1021.1,,,,0,0,0,,,,,,,,,4/8 Partly Cloudy,72000.0,,FEW,3000.0,SCT,5900.0,,,,
KRDR,11-27-2002,22:00,METAR,,330,9.0,,,9999.0,Cloud Development Not Observable,0.0,-5.0,30.08,1020.4,,,,0,0,0,,,,,,,,,4/8 Partly Cloudy,72000.0,,FEW,3000.0,SCT,5900.0,,,,
KRDR,11-27-2002,21:00,METAR,,300,9.0,,,9999.0,Cloud Development Not Observable,1.0,-5.0,30.05,1019.6,,,,0,0,0,,,,,,,,,4/8 Partly Cloudy,72000.0,,SCT,5900.0,,,,,,
KRDR,11-27-2002,20:00,METAR,,290,6.0,,,9999.0,Cloud Development Not Observable,1.0,-6.0,30.04,1019.2,,,,0,0,0,,,,,,,,,4/8 Partly Cloudy,72000.0,,SCT,5900.0,,,,,,
KRDR,11-27-2002,19:00,METAR,,240,5.0,,,9999.0,Cloud Development Not Observable,0.0,-5.0,30.04,1019.3,,,,0,0,0,,,,,,,,,2/8 Mostly Clear,72000.0,,FEW,6900.0,,,,,,
KRDR,11-27-2002,07:00,METAR,,190,13.0,,,9999.0,Cloud Development Not Observable,-8.0,-10.0,30.22,1025.7,,,,0,0,0,,,,,,,,,8/8 Overcast,9000.0,,OVC,8900.0,,,,,,
KRDR,11-27-2002,06:00,METAR,,180,10.0,,,9999.0,Cloud Development Not Observable,-8.0,-10.0,30.24,1026.3,,,,0,0,0,,,,,,,,,7/8 Mostly Cloudy,10000.0,,BKN,9900.0,,,,,,
KRDR,11-27-2002,01:00,METAR,,190,6.0,,,9999.0,Cloud Development Not Observable,-8.0,-9.0,30.39,1031.9,,,,0,0,0,,,,,,,,,7/8 Mostly Cloudy,20000.0,,FEW,2500.0,FEW,9900.0,BKN,20000.0,,
KRDR,11-27-2002,00:00,METAR,,190,7.0,,,9999.0,Cloud Development Not Observable,-10.0,-11.0,30.42,1032.9,,,,0,0,0,,,,,,,IN,,7/8 Mostly Cloudy,10000.0,,SCT,2500.0,SCT,9900.0,BKN,20000.0,,
KRDR,11-26-2002,23:38,SPECI,,210,6.0,,,9999.0,Cloud Development Not Observable,-9.0,-10.0,30.43,,,,,0,0,0,,,,,,,,,7/8 Mostly Cloudy,10000.0,,SCT,2500.0,SCT,9900.0,BKN,20000.0,,
KRDR,11-26-2002,23:00,METAR,,230,3.0,,,9999.0,Cloud Development Not Observable,-7.0,-9.0,30.44,1033.6,,,,0,0,0,,,,,,,,,7/8 Mostly Cloudy,2500.0,,BKN,2500.0,BKN,9900.0,BKN,20000.0,,
KRDR,11-26-2002,22:00,METAR,,230,5.0,,,9999.0,Light Snow/Cloud Development Not Observable,-6.0,-9.0,30.46,1033.8,,,,71,0,0,,,,,,,,,7/8 Mostly Cloudy,2200.0,,BKN,2200.0,BKN,20000.0,,,,
KRDR,11-26-2002,21:00,METAR,,230,7.0,,,9999.0,Light Snow/Cloud Development Not Observable,-7.0,-9.0,30.48,1034.5,,,,71,0,0,,,,,,TRACE,,,7/8 Mostly Cloudy,2200.0,,BKN,2200.0,BKN,20000.0,,,,
KRDR,11-26-2002,20:00,METAR,,240,5.0,,,9999.0,Light Snow/Cloud Development Not Observable,-7.0,-9.0,30.51,1035.7,,,,71,0,0,,,,,,,,,7/8 Mostly Cloudy,1400.0,,BKN,1400.0,BKN,20000.0,,,,
KRDR,11-26-2002,19:45,METAR,,200,6.0,,,9999.0,Light Snow/Cloud Development Not Observable,-7.0,-9.0,30.50,,,,,71,0,0,,,,,,,,,7/8 Mostly Cloudy,1400.0,,BKN,1400.0,BKN,20000.0,,,,
KRDR,11-26-2002,16:00,METAR,,340,5.0,,,9999.0,Cloud Development Not Observable,-12.0,-12.0,30.60,1038.9,,,,0,0,0,,,,,,,,,2/8 Mostly Clear,72000.0,,FEW,9900.0,FEW,20000.0,,,,
KRDR,11-26-2002,14:00,METAR,,290,4.0,,,9999.0,Cloud Development Not Observable,-16.0,-16.0,30.60,1038.2,,,,0,0,0,,,,,,,,,2/8 Mostly Clear,72000.0,,FEW,20000.0,,,,,,
KRDR,11-26-2002,13:00,METAR,,320,4.0,,,9999.0,Cloud Development Not Observable,-17.0,-17.0,30.58,1038.2,,,,0,0,0,,,,,,,,,Clear,72000.0,,,73000.0,,,,,,
KRDR,11-26-2002,12:00,METAR,,310,4.0,,,9999.0,Cloud Development Not Observable,-16.0,-16.0,30.57,1037.9,,,,0,0,0,,,,,,,,,Clear,72000.0,,,73000.0,,,,,,
KRDR,11-26-2002,11:00,METAR,,330,6.0,,,9999.0,Cloud Development Not Observable,-16.0,-16.0,30.57,1037.8,,,,0,0,0,,,,,,,,,Clear,72000.0,,,73000.0,,,,,,
KRDR,11-26-2002,10:00,METAR,,320,6.0,,,9999.0,Cloud Development Not Observable,-15.0,-15.0,30.56,1037.5,,,,0,0,0,,,,,,,,,Clear,72000.0,,,73000.0,,,,,,
KRDR,11-26-2002,09:00,METAR,,340,4.0,,,9999.0,Cloud Development Not Observable,-14.0,-14.0,30.56,1037.2,,,,0,0,0,,,,,,,,,Clear,72000.0,,,73000.0,,,,,,
KRDR,11-26-2002,08:00,METAR,,330,6.0,,,9999.0,Cloud Development Not Observable,-15.0,-15.0,30.54,1036.8,,,,0,0,0,,,,,,,,,Clear,72000.0,,,73000.0,,,,,,
KRDR,11-26-2002,07:00,METAR,,360,5.0,,,9999.0,Cloud Development Not Observable,-14.0,-14.0,30.53,1036.2,,,,0,0,0,,,,,,,,,Clear,72000.0,,,73000.0,,,,,,
KRDR,11-26-2002,06:00,METAR,,350,6.0,,,9999.0,Cloud Development Not Observable,-14.0,-14.0,30.52,1036.0,,,,0,0,0,,,,,,,IN,,Clear,72000.0,,,73000.0,,,,,,
KRDR,11-26-2002,03:00,METAR,,40,5.0,,,9999.0,Cloud Development Not Observable,-9.0,-9.0,30.47,1034.3,,,,0,0,0,,,,,,TRACE,,,7/8 Mostly Cloudy,3400.0,,BKN,3500.0,BKN,9900.0,,,,
KRDR,11-26-2002,01:00,METAR,,70,7.0,,,9999.0,Snow Grains/Cloud Development Not Observable,-8.0,-9.0,30.42,1032.7,,,,77,0,0,,,,,,,,,8/8 Overcast,3400.0,,SCT,2400.0,OVC,3500.0,,,,
KRDR,11-26-2002,00:00,METAR,,90,7.0,,,9999.0,Snow Grains/Cloud Development Not Observable,-6.0,-9.0,30.39,1031.7,,,,77,0,0,,,,,,,IN,,8/8 Overcast,3400.0,,SCT,2400.0,OVC,3500.0,,,,
KRDR,11-25-2002,22:00,METAR,,100,9.0,,,9999.0,Cloud Development Not Observable,-5.0,-9.0,30.34,1029.9,,,,0,0,0,,,,,,,,,8/8 Overcast,3200.0,,SCT,2500.0,BKN,3300.0,OVC,12000.0,,
KRDR,11-25-2002,20:57,SPECI,,110,10.0,,,9999.0,Light Snow/Cloud Development Not Observable,-5.0,-9.0,30.31,,,,,71,0,0,,,,,,,,,8/8 Overcast,3100.0,,FEW,2500.0,BKN,3100.0,OVC,9900.0,,
KRDR,11-25-2002,20:55,METAR,,110,9.0,,,9999.0,Light Snow/Cloud Development Not Observable,-5.0,-9.0,30.30,1028.5,,,,71,0,0,,,,,,TRACE,,,8/8 Overcast,2900.0,,FEW,2400.0,OVC,2900.0,,,,
KRDR,11-25-2002,20:00,METAR,,130,11.0,,,9999.0,Cloud Development Not Observable,-5.0,-8.0,30.29,1027.9,,,,0,0,0,,,,,,,,,8/8 Overcast,2600.0,,FEW,2000.0,BKN,2600.0,OVC,20000.0,,
KRDR,11-25-2002,19:48,SPECI,,130,10.0,,,9999.0,Light Snow Showers/Cloud Development Not Observable,-5.0,-8.0,30.28,,,,,85,0,0,,,,,,,,,8/8 Overcast,2600.0,,FEW,2000.0,BKN,2600.0,OVC,20000.0,,
KRDR,11-25-2002,19:03,SPECI,,140,13.0,,,9999.0,Cloud Development Not Observable,-4.0,-8.0,30.27,,,,,0,0,0,,,,,,,,,7/8 Mostly Cloudy,2800.0,,FEW,2000.0,BKN,2800.0,,,,
KRDR,11-25-2002,19:00,METAR,,140,13.0,,,9999.0,Cloud Development Not Observable,-4.0,-8.0,30.27,1027.3,,,,0,0,0,,,,,,,,,7/8 Mostly Cloudy,3000.0,,FEW,2400.0,BKN,3000.0,BKN,20000.0,,
KRDR,11-25-2002,17:00,METAR,,140,9.0,,,9999.0,Cloud Development Not Observable,-6.0,-7.0,30.28,1027.6,,,,0,0,0,,,,,,,,,7/8 Mostly Cloudy,20000.0,,FEW,3000.0,FEW,8900.0,BKN,20000.0,,
KRDR,11-25-2002,16:00,METAR,,150,7.0,,,9999.0,Cloud Development Not Observable,-9.0,-9.0,30.28,1027.9,,,,0,0,0,,,,,,,,,7/8 Mostly Cloudy,9000.0,,FEW,3000.0,SCT,8900.0,BKN,20000.0,,
KRDR,11-25-2002,15:00,METAR,,150,7.0,,,9999.0,Cloud Development Not Observable,-12.0,-12.0,30.27,1027.8,,,,0,0,0,,,,,,,,,7/8 Mostly Cloudy,9000.0,,FEW,3000.0,SCT,8900.0,BKN,20000.0,,
KRDR,11-25-2002,14:00,METAR,,140,7.0,,,9999.0,Cloud Development Not Observable,-12.0,-12.0,30.27,1027.5,,,,0,0,0,,,,,,,,,7/8 Mostly Cloudy,20000.0,,FEW,4000.0,FEW,9900.0,BKN,20000.0,,
KRDR,11-25-2002,13:00,METAR,,190,7.0,,,9999.0,Cloud Development Not Observable,-14.0,-14.0,30.28,1027.9,,,,0,0,0,,,,,,,,,7/8 Mostly Cloudy,20000.0,,BKN,20000.0,,,,,,
KRDR,11-25-2002,12:00,METAR,,150,7.0,,,9999.0,Cloud Development Not Observable,-14.0,-14.0,30.29,1028.2,,,,0,0,0,,,,,,,,,4/8 Partly Cloudy,72000.0,,SCT,20000.0,,,,,,
KRDR,11-25-2002,11:00,METAR,,170,6.0,,,9999.0,Cloud Development Not Observable,-16.0,-16.0,30.31,1028.9,,,,0,0,0,,,,,,,,,4/8 Partly Cloudy,72000.0,,SCT,20000.0,,,,,,
KRDR,11-25-2002,10:00,METAR,,150,5.0,,,9999.0,Cloud Development Not Observable,-14.0,-14.0,30.32,1029.3,,,,0,0,0,,,,,,,,,2/8 Mostly Clear,72000.0,,FEW,20000.0,,,,,,
KRDR,11-25-2002,09:00,METAR,,210,6.0,,,9999.0,Cloud Development Not Observable,-14.0,-14.0,30.35,1030.1,,,,0,0,0,,,,,,,,,Clear,72000.0,,,73000.0,,,,,,
KRDR,11-25-2002,08:00,METAR,,230,5.0,,,9999.0,Cloud Development Not Observable,-12.0,-12.0,30.36,1030.4,,,,0,0,0,,,,,,,,,4/8 Partly Cloudy,72000.0,,SCT,4000.0,,,,,,
KRDR,11-25-2002,07:40,SPECI,,230,5.0,,,9999.0,Cloud Development Not Observable,-12.0,-12.0,30.36,,,,,0,0,0,,,,,,,,,4/8 Partly Cloudy,72000.0,,SCT,4000.0,,,,,,
KRDR,11-25-2002,07:00,METAR,,220,5.0,,,9999.0,Light Snow/Cloud Development Not Observable,-10.0,-10.0,30.36,1030.5,,,,71,0,0,,,,,,,,,8/8 Overcast,4100.0,,OVC,4200.0,,,,,,
KRDR,11-25-2002,06:00,METAR,,230,4.0,,,9999.0,Light Snow/Cloud Development Not Observable,-11.0,-11.0,30.38,1031.1,,,,71,0,0,,,,,,,IN,,8/8 Overcast,3900.0,,OVC,4000.0,,,,,,
KRDR,11-25-2002,05:00,METAR,,230,4.0,,,9999.0,Light Snow/Cloud Development Not Observable,-13.0,-13.0,30.39,1031.8,,,,71,0,0,,,,,,,,,7/8 Mostly Cloudy,3900.0,,BKN,4000.0,,,,,,
KRDR,11-25-2002,04:45,METAR,,230,4.0,,,9999.0,Light Snow/Cloud Development Not Observable,-13.0,-13.0,30.39,,,,,71,0,0,,,,,,,,,7/8 Mostly Cloudy,3900.0,,BKN,4000.0,,,,,,
KRDR,11-25-2002,04:00,METAR,,270,4.0,,,9999.0,Cloud Development Not Observable,-14.0,-14.0,30.39,1031.9,,,,0,0,0,,,,,,,,,Clear,72000.0,,,73000.0,,,,,,
KRDR,11-25-2002,03:00,METAR,,270,4.0,,,9999.0,Cloud Development Not Observable,-14.0,-14.0,30.39,1031.9,,,,0,0,0,,,,,,,,,Clear,72000.0,,,73000.0,,,,,,
KRDR,11-25-2002,02:00,METAR,,,1.0,,,9999.0,Cloud Development Not Observable,-12.0,-12.0,30.41,1032.3,,,,0,0,0,,,,,,,,,2/8 Mostly Clear,72000.0,,FEW,2500.0,,,,,,
KRDR,11-25-2002,01:00,METAR,,360,5.0,,,9999.0,Cloud Development Not Observable,-12.0,-12.0,30.40,1032.2,,,,0,0,0,,,,,,,,,2/8 Mostly Clear,72000.0,,FEW,2500.0,,,,,,
KRDR,11-25-2002,00:00,METAR,,330,6.0,,,9999.0,Cloud Development Not Observable,-10.0,-11.0,30.41,1032.3,,,,0,0,0,,,,,,,IN,,2/8 Mostly Clear,72000.0,,FEW,2500.0,,,,,,
KRDR,11-24-2002,23:20,METAR,,320,6.0,,,9999.0,Cloud Development Not Observable,-9.0,-11.0,30.41,,,,,0,0,0,,,,,,,,,4/8 Partly Cloudy,72000.0,,SCT,2500.0,,,,,,
KRDR,11-24-2002,23:00,METAR,,330,8.0,,,9999.0,Cloud Development Not Observable,-8.0,-10.0,30.40,1031.7,,,,0,0,0,,,,,,,,,7/8 Mostly Cloudy,2500.0,,BKN,2500.0,,,,,,
KRDR,11-24-2002,22:22,SPECI,,310,15.0,,,9999.0,Cloud Development Not Observable,-6.0,-9.0,30.40,,,,,0,0,0,,,,,,,,,7/8 Mostly Cloudy,2500.0,,BKN,2500.0,,,,,,
KRDR,11-24-2002,22:00,METAR,,340,9.0,,,9999.0,Cloud Development Not Observable,-6.0,-9.0,30.40,1031.6,,,,0,0,0,,,,,,,,,4/8 Partly Cloudy,72000.0,,SCT,2500.0,,,,,,
KRDR,11-24-2002,21:21,SPECI,,330,10.0,,,9999.0,Cloud Development Not Observable,-6.0,-9.0,30.39,,,,,0,0,0,,,,,,,,,4/8 Partly Cloudy,72000.0,,SCT,2000.0,,,,,,
KRDR,11-24-2002,21:00,METAR,,330,12.0,,,9999.0,Cloud Development Not Observable,-5.0,-9.0,30.39,1031.4,,,,0,0,0,,,,,,TRACE,,,7/8 Mostly Cloudy,2000.0,,BKN,2000.0,,,,,,
KRDR,11-24-2002,20:20,METAR,,330,11.0,,,9999.0,Cloud Development Not Observable,-6.0,-9.0,30.39,,,,,0,0,0,,,,,,,,,7/8 Mostly Cloudy,2000.0,,BKN,2000.0,,,,,,
KRDR,11-24-2002,20:00,METAR,,340,11.0,,,9999.0,Light Snow/Cloud Development Not Observable,-6.0,-9.0,30.40,1031.6,,,,71,0,0,,,,,,,,,7/8 Mostly Cloudy,2000.0,,BKN,2000.0,,,,,,
KRDR,11-24-2002,19:00,METAR,,320,13.0,,,9999.0,Light Snow/Cloud Development Not Observable,-7.0,-9.0,30.41,1032.0,,,,71,0,0,,,,,,,,,7/8 Mostly Cloudy,1800.0,,BKN,1800.0,BKN,20000.0,,,,
KRDR,11-24-2002,18:00,METAR,,320,11.0,,,9999.0,Light Snow/Cloud Development Not Observable,-8.0,-10.0,30.42,1032.7,,,,71,0,0,,,,,,,IN,,7/8 Mostly Cloudy,2100.0,,BKN,2100.0,BKN,20000.0,,,,
KRDR,11-24-2002,17:27,SPECI,,350,11.0,,,9999.0,Light Snow/Cloud Development Not Observable,-8.0,-10.0,30.43,,,,,71,0,0,,,,,,,,,7/8 Mostly Cloudy,2000.0,,BKN,2000.0,BKN,20000.0,,,,
KRDR,11-24-2002,17:18,SPECI,,340,14.0,,,9999.0,Cloud Development Not Observable,-9.0,-11.0,30.43,,,,,0,0,0,,,,,,,,,7/8 Mostly Cloudy,2000.0,,BKN,2000.0,BKN,20000.0,,,,
KRDR,11-24-2002,17:00,METAR,,330,12.0,,,6400.0,Light Snow/Cloud Development Not Observable,-9.0,-10.0,30.43,1032.7,,,,71,0,0,,,,,,,,,8/8 Overcast,1700.0,,OVC,1700.0,,,,,,
KRDR,11-24-2002,16:00,METAR,,330,14.0,,,9999.0,Light Snow/Cloud Development Not Observable,-10.0,-11.0,30.41,1032.1,,,,71,0,0,,,,,,,,,7/8 Mostly Cloudy,1800.0,,BKN,1800.0,,,,,,
KRDR,11-24-2002,15:50,METAR,,320,13.0,,,9999.0,Light Snow/Cloud Development Not Observable,-10.0,-10.0,30.40,,,,,71,0,0,,,,,,,,,7/8 Mostly Cloudy,1800.0,,BKN,1800.0,,,,,,
KRDR,11-24-2002,15:00,METAR,,320,11.0,,,9999.0,Cloud Development Not Observable,-10.0,-11.0,30.40,1031.9,,,,0,0,0,,,,,,,,,4/8 Partly Cloudy,72000.0,,SCT,1000.0,SCT,2500.0,,,,
KRDR,11-24-2002,14:00,METAR,,310,9.0,,,9999.0,Cloud Development Not Observable,-11.0,-11.0,30.38,1031.2,,,,0,0,0,,,,,,,,,2/8 Mostly Clear,72000.0,,FEW,2500.0,,,,,,
KRDR,11-24-2002,13:09,SPECI,,320,12.0,,,9999.0,Cloud Development Not Observable,-11.0,-11.0,30.37,,,,,0,0,0,,,,,,,,,4/8 Partly Cloudy,72000.0,,SCT,2500.0,,,,,,
KRDR,11-24-2002,13:00,METAR,,310,12.0,,,9999.0,Diamond Dust/Cloud Development Not Observable,-10.0,-11.0,30.36,1030.5,,,,76,0,0,,,,,,,,,7/8 Mostly Cloudy,2500.0,,BKN,2500.0,,,,,,
KRDR,11-24-2002,12:00,METAR,,340,16.0,,,9999.0,Light Snow/Cloud Development Not Observable,-8.0,-9.0,30.34,1029.7,,,,71,0,0,,,,,,,IN,,8/8 Overcast,2100.0,,OVC,2100.0,,,,,,
KRDR,11-24-2002,11:00,METAR,,330,13.0,,,9999.0,Light Snow/Cloud Development Not Observable,-8.0,-8.0,30.33,1029.3,,,,71,0,0,,,,,,,,,8/8 Overcast,2100.0,,OVC,2100.0,,,,,,
KRDR,11-24-2002,10:00,METAR,,320,17.0,21.0,,9999.0,Light Snow/Cloud Development Not Observable,-7.0,-8.0,30.31,1028.3,,,,71,0,0,,,,,,,,,8/8 Overcast,2100.0,,OVC,2100.0,,,,,,
KRDR,11-24-2002,09:00,METAR,,340,16.0,,,9999.0,Light Snow/Cloud Development Not Observable,-7.0,-8.0,30.29,1027.7,,,,71,0,0,,,,,,TRACE,,,8/8 Overcast,2100.0,,OVC,2100.0,,,,,,
KRDR,11-24-2002,08:00,METAR,,330,18.0,,,9999.0,Light Snow/Cloud Development Not Observable,-6.0,-8.0,30.27,1027.0,,,,71,0,0,,,,,,,,,8/8 Overcast,2100.0,,OVC,2100.0,,,,,,
KRDR,11-24-2002,07:00,METAR,,300,13.0,,,9999.0,Light Snow/Cloud Development Not Observable,-7.0,-8.0,30.26,1026.7,,,,71,0,0,,,,,,,,,8/8 Overcast,2100.0,,BKN,2100.0,OVC,4000.0,,,,
KRDR,11-24-2002,06:00,METAR,,310,12.0,,,9999.0,Light Snow/Cloud Development Not Observable,-7.0,-8.0,30.24,1026.1,,,,71,0,0,,,,,,,IN,,8/8 Overcast,2500.0,,BKN,2500.0,OVC,4000.0,,,,
KRDR,11-24-2002,05:32,SPECI,,320,19.0,24.0,,9999.0,Light Snow Showers/Cloud Development Not Observable,-7.0,-8.0,30.24,,,,,85,0,0,,,,,,,,,8/8 Overcast,2500.0,,BKN,2500.0,OVC,4000.0,,,,
KRDR,11-24-2002,05:00,METAR,,320,16.0,23.0,,9999.0,Light Snow/Cloud Development Not Observable,-6.0,-9.0,30.22,1025.4,,,,71,0,0,,,,,,,,,7/8 Mostly Cloudy,3900.0,,BKN,4000.0,,,,,,
KRDR,11-24-2002,04:28,SPECI,,310,13.0,,,9999.0,Light Snow Showers/Cloud Development Not Observable,-6.0,-9.0,30.22,,,,,85,0,0,,,,,,,,,8/8 Overcast,3900.0,,OVC,4000.0,,,,,,
KRDR,11-24-2002,04:00,METAR,,310,13.0,,,9999.0,Cloud Development Not Observable,-6.0,-9.0,30.20,1024.5,,,,0,0,0,,,,,,,,,8/8 Overcast,3400.0,,BKN,3500.0,OVC,5000.0,,,,
KRDR,11-24-2002,03:44,SPECI,,320,14.0,,,9999.0,Cloud Development Not Observable,-6.0,-9.0,30.20,,,,,0,0,0,,,,,,,,,8/8 Overcast,3400.0,,BKN,3500.0,OVC,5000.0,,,,
KRDR,11-24-2002,03:00,METAR,,320,16.0,23.0,,9999.0,Light Snow Showers/Cloud Development Not Observable,-6.0,-9.0,30.18,1023.8,,,,85,0,0,,,,,,TRACE,,,8/8 Overcast,3400.0,,BKN,3500.0,OVC,5000.0,,,,
KRDR,11-24-2002,02:38,SPECI,,320,16.0,23.0,,9999.0,Light Snow Showers/Cloud Development Not Observable,-6.0,-9.0,30.18,,,,,85,0,0,,,,,,,,,8/8 Overcast,3400.0,,BKN,3500.0,OVC,5000.0,,,,
KRDR,11-24-2002,00:00,METAR,,310,14.0,21.0,,9999.0,Cloud Development Not Observable,-6.0,-10.0,30.13,1022.0,,,,0,0,0,,,,,,,,,2/8 Mostly Clear,72000.0,,FEW,3500.0,FEW,25000.0,,,,
KRDR,11-23-2002,23:00,METAR,,300,21.0,,310/28KTS,9999.0,Cloud Development Not Observable,-5.0,-10.0,30.09,1020.5,,,,0,0,0,,,,,,,,,2/8 Mostly Clear,72000.0,,FEW,4000.0,FEW,25000.0,,,,
KRDR,11-23-2002,22:00,METAR,,310,18.0,24.0,310/27KTS,9999.0,Cloud Development Not Observable,-4.0,-9.0,30.05,1019.3,,,,0,0,0,,,,,,,,,7/8 Mostly Cloudy,3900.0,,FEW,3000.0,BKN,4000.0,BKN,20000.0,,
KRDR,11-23-2002,21:00,METAR,,310,23.0,29.0,310/31KTS,9999.0,Cloud Development Not Observable,-3.0,-9.0,30.01,1017.8,,,,0,0,0,,,,,,,,,7/8 Mostly Cloudy,3900.0,,FEW,3000.0,BKN,4000.0,,,,
KRDR,11-23-2002,19:00,METAR,,300,22.0,,320/30KTS,9999.0,Cloud Development Not Observable,-1.0,-8.0,29.96,1016.1,,,,0,0,0,,,,,,,,,7/8 Mostly Cloudy,3900.0,,BKN,4000.0,,,,,,
KRDR,11-23-2002,18:00,METAR,,310,21.0,26.0,300/35KTS,9999.0,Cloud Development Not Observable,-1.0,-7.0,29.95,1015.8,,,,0,0,0,,,,,,,,,4/8 Partly Cloudy,72000.0,,SCT,3500.0,,,,,,
KRDR,11-23-2002,17:00,METAR,,310,24.0,31.0,310/42KTS,9999.0,Cloud Development Not Observable,-1.0,-7.0,29.93,1015.1,,,,0,0,0,,,,,,,,,4/8 Partly Cloudy,72000.0,,SCT,3500.0,SCT,5400.0,,,,
KRDR,11-23-2002,16:00,METAR,,330,26.0,31.0,300/42KTS,9999.0,Cloud Development Not Observable,-1.0,-7.0,29.90,1014.0,,,,0,0,0,,,,,,,,,4/8 Partly Cloudy,72000.0,,FEW,4000.0,SCT,5400.0,,,,
KRDR,11-23-2002,15:00,METAR,,310,23.0,30.0,320/40KTS,9999.0,Cloud Development Not Observable,-1.0,-6.0,29.87,1012.9,,,,0,0,0,,,,,,,,,2/8 Mostly Clear,72000.0,,FEW,4000.0,FEW,5400.0,,,,
KRDR,11-23-2002,14:00,METAR,,300,29.0,43.0,,9999.0,Cloud Development Not Observable,1.0,-5.0,29.84,1011.9,,,,0,0,0,,,,,,,,,7/8 Mostly Cloudy,5500.0,,BKN,5400.0,,,,,,
KRDR,11-23-2002,13:00,METAR,,310,26.0,34.0,,9999.0,Cloud Development Not Observable,2.0,-4.0,29.83,1011.5,,,,0,0,0,,,,,,,,,8/8 Overcast,5500.0,,OVC,5400.0,,,,,,
KRDR,11-23-2002,12:00,METAR,,270,16.0,21.0,270/26KTS,9999.0,Cloud Development Not Observable,2.0,-2.0,29.82,1011.2,,,,0,0,0,,,,,,,,.01 IN,8/8 Overcast,5500.0,,OVC,5400.0,,,,,,
KRDR,11-23-2002,11:00,METAR,,280,15.0,23.0,,9999.0,Cloud Development Not Observable,2.0,-2.0,29.82,1011.2,,,,0,0,0,,,,,,,,,8/8 Overcast,5500.0,,OVC,5400.0,,,,,,
KRDR,11-23-2002,10:00,METAR,,290,17.0,24.0,280/25KTS,9999.0,Cloud Development Not Observable,2.0,-2.0,29.82,1011.2,,,,0,0,0,,,,,,,,,8/8 Overcast,5500.0,,OVC,5400.0,,,,,,
KRDR,11-23-2002,09:00,METAR,,280,18.0,24.0,290/25KTS,9999.0,Cloud Development Not Observable,3.0,-2.0,29.82,1011.2,,,,0,0,0,,,,,,,,,7/8 Mostly Cloudy,5500.0,,BKN,5400.0,,,,,,
KRDR,11-23-2002,08:00,METAR,,280,19.0,24.0,,9999.0,Cloud Development Not Observable,3.0,-2.0,29.81,1010.8,,,,0,0,0,,,,,,,,,7/8 Mostly Cloudy,5500.0,,BKN,5400.0,,,,,,
KRDR,11-23-2002,07:00,METAR,,270,12.0,,,9999.0,Cloud Development Not Observable,3.0,-1.0,29.81,1010.8,,,,0,0,0,,,,,,,,,7/8 Mostly Cloudy,5500.0,,FEW,3500.0,BKN,5400.0,,,,
KRDR,11-23-2002,06:00,METAR,,290,15.0,,300/26KTS,9999.0,Cloud Development Not Observable,2.0,-2.0,29.81,1010.9,,,,0,0,0,,,,,,,,,4/8 Partly Cloudy,72000.0,,FEW,3500.0,SCT,5000.0,,,,
KRDR,11-23-2002,05:00,METAR,,300,17.0,25.0,300/27KTS,9999.0,Cloud Development Not Observable,3.0,-2.0,29.80,1010.5,,,,0,0,0,,,,,,,,,4/8 Partly Cloudy,72000.0,,SCT,3500.0,,,,,,
KRDR,11-23-2002,03:00,METAR,,320,17.0,29.0,,9999.0,Cloud Development Not Observable,5.0,2.0,29.78,1009.8,,,,0,0,0,,,,,,,,,7/8 Mostly Cloudy,3600.0,,BKN,3700.0,,,,,,
KRDR,11-23-2002,00:00,METAR,,190,13.0,,,9999.0,Cloud Development Not Observable,2.0,1.0,29.74,1008.5,,,,0,0,0,,,,,,,.01 IN,,8/8 Overcast,3400.0,,OVC,3500.0,,,,,,
KRDR,11-22-2002,23:00,METAR,,180,10.0,,,9999.0,Cloud Development Not Observable,2.0,1.0,29.72,1008.0,,,,0,0,0,,,,,,,,,8/8 Overcast,8000.0,,BKN,7900.0,OVC,20000.0,,,,
KRDR,11-22-2002,22:10,SPECI,,190,15.0,,,9999.0,Light Rain Showers/Cloud Development Not Observable,2.0,1.0,29.73,,,,,80,0,0,,,,,,,,,8/8 Overcast,8000.0,,FEW,1500.0,BKN,7900.0,OVC,20000.0,,
KRDR,11-22-2002,22:00,METAR,,180,15.0,,,9999.0,Light Rain Showers/Cloud Development Not Observable,2.0,1.0,29.72,1008.0,,,,80,0,0,,,,,,,,,8/8 Overcast,8000.0,,FEW,1500.0,BKN,7900.0,OVC,20000.0,,
KRDR,11-22-2002,21:00,METAR,,180,16.0,26.0,170/28KTS,9999.0,Cloud Development Not Observable,2.0,0.0,29.76,1009.2,,,,0,0,0,,,,,,,,,8/8 Overcast,10000.0,,SCT,1700.0,BKN,9900.0,OVC,20000.0,,
KRDR,11-22-2002,20:15,SPECI,,160,19.0,28.0,,9999.0,Cloud Development Not Observable,2.0,0.0,29.74,,,,,0,0,0,,,,,,,,,8/8 Overcast,10000.0,,SCT,1500.0,BKN,9900.0,OVC,20000.0,,
KRDR,11-22-2002,20:00,METAR,,170,20.0,28.0,180/29KTS,9999.0,Cloud Development Not Observable,2.0,0.0,29.76,1009.4,,,,0,0,0,,,,,,,,,8/8 Overcast,1500.0,,BKN,1500.0,OVC,11000.0,,,,
KRDR,11-22-2002,19:45,METAR,,160,20.0,27.0,,9999.0,Cloud Development Not Observable,2.0,-1.0,29.78,,,,,0,0,0,,,,,,,,,8/8 Overcast,1500.0,,BKN,1500.0,OVC,7900.0,,,,
KRDR,11-22-2002,19:00,METAR,,170,19.0,29.0,,9999.0,Cloud Development Not Observable,1.0,-1.0,29.82,1013.4,,,,0,0,0,,,,,,,,,8/8 Overcast,1300.0,,BKN,1300.0,OVC,7900.0,,,,
KRDR,11-22-2002,18:00,METAR,,170,19.0,26.0,180/28KTS,9999.0,Cloud Development Not Observable,0.0,-1.0,29.88,1013.4,,,,0,0,0,,,,,,,,,8/8 Overcast,1300.0,,OVC,1300.0,,,,,,
KRDR,11-22-2002,17:00,METAR,,170,21.0,26.0,170/26KTS,9999.0,Cloud Development Not Observable,0.0,-1.0,29.92,,,,,0,0,0,,,,,,,,,8/8 Overcast,1300.0,,OVC,1300.0,,,,,,
KRDR,11-22-2002,16:45,METAR,,180,18.0,23.0,,9999.0,Cloud Development Not Observable,0.0,-2.0,29.92,,,,,0,0,0,,,,,,,,,8/8 Overcast,1300.0,,OVC,1300.0,,,,,,
KRDR,11-22-2002,16:20,METAR,,170,18.0,25.0,,9999.0,Cloud Development Not Observable,-1.0,-2.0,29.95,,,,,0,0,0,,,,,,,,,7/8 Mostly Cloudy,1500.0,,BKN,1500.0,BKN,15000.0,BKN,18000.0,,
KRDR,11-22-2002,16:00,METAR,,160,14.0,,170/25KTS,9999.0,Cloud Development Not Observable,-1.0,-2.0,29.96,1016.3,,,,0,0,0,,,,,,,,,7/8 Mostly Cloudy,15000.0,,SCT,1500.0,BKN,15000.0,BKN,18000.0,,
KRDR,11-22-2002,15:00,METAR,,160,13.0,,,9999.0,Cloud Development Not Observable,-2.0,-2.0,29.98,1017.0,,,,0,0,0,,,,,,,,,7/8 Mostly Cloudy,15000.0,,FEW,2000.0,SCT,15000.0,BKN,18000.0,,
KRDR,11-22-2002,14:00,METAR,,160,14.0,,,9999.0,Cloud Development Not Observable,-3.0,-3.0,30.01,1018.1,,,,0,0,0,,,,,,,,,7/8 Mostly Cloudy,15000.0,,BKN,15000.0,,,,,,
KRDR,11-22-2002,13:00,METAR,,160,8.0,,,9999.0,Cloud Development Not Observable,-3.0,-3.0,30.03,1018.8,,,,0,0,0,,,,,,,,,4/8 Partly Cloudy,72000.0,,SCT,15000.0,,,,,,
KRDR,11-22-2002,12:00,METAR,,150,8.0,,,9999.0,Cloud Development Not Observable,-3.0,-3.0,30.08,1020.1,,,,0,0,0,,,,,,,,,4/8 Partly Cloudy,72000.0,,FEW,2500.0,SCT,9900.0,,,,
KRDR,11-22-2002,11:00,METAR,,160,8.0,,,9999.0,Cloud Development Not Observable,-3.0,-3.0,30.11,1021.2,,,,0,0,0,,,,,,,,,4/8 Partly Cloudy,72000.0,,FEW,2500.0,SCT,9900.0,,,,
KRDR,11-22-2002,10:26,SPECI,,160,8.0,,,9999.0,Cloud Development Not Observable,-3.0,-3.0,30.12,,,,,0,0,0,,,,,,,,,4/8 Partly Cloudy,72000.0,,SCT,2400.0,SCT,9900.0,,,,
KRDR,11-22-2002,10:00,METAR,,140,7.0,,,9999.0,Cloud Development Not Observable,-2.0,-2.0,30.15,1022.5,,,,0,0,0,,,,,,,,,7/8 Mostly Cloudy,2400.0,,BKN,2400.0,BKN,9900.0,,,,
KRDR,11-22-2002,09:00,METAR,,150,7.0,,,9999.0,Cloud Development Not Observable,-1.0,-1.0,30.16,1022.9,,,,0,0,0,,,,,,,,,8/8 Overcast,2500.0,,OVC,2500.0,,,,,,
KRDR,11-22-2002,08:00,METAR,,150,6.0,,,9999.0,Cloud Development Not Observable,-1.0,-1.0,30.16,1023.0,,,,0,0,0,,,,,,,,,8/8 Overcast,2500.0,,OVC,2500.0,,,,,,
KRDR,11-22-2002,07:00,METAR,,150,6.0,,,9999.0,Cloud Development Not Observable,-1.0,-2.0,30.17,1023.4,,,,0,0,0,,,,,,,,,8/8 Overcast,2500.0,,OVC,2500.0,,,,,,
KRDR,11-22-2002,03:00,METAR,,240,3.0,,,9999.0,Cloud Development Not Observable,-1.0,-2.0,30.23,1025.3,,,,0,0,0,,,,,,,,,8/8 Overcast,2500.0,,OVC,2500.0,,,,,,
KRDR,11-22-2002,01:00,METAR,,350,4.0,,,9999.0,Cloud Development Not Observable,-1.0,-2.0,30.24,1025.7,,,,0,0,0,,,,,,,,,8/8 Overcast,1600.0,,BKN,1600.0,OVC,2600.0,,,,
KRDR,11-22-2002,00:00,METAR,,20,7.0,,,9999.0,Cloud Development Not Observable,0.0,-2.0,30.24,1025.7,,,,0,0,0,,,,,,,,,8/8 Overcast,1800.0,,BKN,1800.0,OVC,2800.0,,,,
KRDR,11-21-2002,23:00,METAR,,10,10.0,,,9999.0,Cloud Development Not Observable,1.0,-1.0,30.25,1025.9,,,,0,0,0,,,,,,,,,8/8 Overcast,1700.0,,BKN,1700.0,OVC,2800.0,,,,
KRDR,11-21-2002,22:00,METAR,,10,12.0,,,9999.0,Cloud Development Not Observable,1.0,0.0,30.24,1025.6,,,,0,0,0,,,,,,,,,7/8 Mostly Cloudy,2800.0,,BKN,2800.0,,,,,,
KRDR,11-21-2002,21:00,METAR,,10,10.0,,,9999.0,Cloud Development Not Observable,2.0,0.0,30.23,1025.2,,,,0,0,0,,,,,,,,,7/8 Mostly Cloudy,2700.0,,FEW,1400.0,BKN,2700.0,,,,
KRDR,11-21-2002,20:40,SPECI,,360,14.0,,,9999.0,Cloud Development Not Observable,3.0,0.0,30.23,,,,,0,0,0,,,,,,,,,7/8 Mostly Cloudy,2500.0,,SCT,1500.0,BKN,2500.0,,,,
KRDR,11-21-2002,20:00,METAR,,10,14.0,,,9999.0,Cloud Development Not Observable,3.0,0.0,30.23,1025.1,,,,0,0,0,,,,,,,,,7/8 Mostly Cloudy,1400.0,,BKN,1400.0,BKN,2500.0,,,,
KRDR,11-21-2002,19:08,SPECI,,350,12.0,,,9999.0,Cloud Development Not Observable,3.0,1.0,30.23,,,,,0,0,0,,,,,,,,,8/8 Overcast,1200.0,,SCT,700.0,BKN,1200.0,OVC,2400.0,,
KRDR,11-21-2002,19:00,METAR,,350,12.0,,,9999.0,Cloud Development Not Observable,2.0,1.0,30.23,1025.1,,,,0,0,0,,,,,,,,,8/8 Overcast,900.0,,FEW,500.0,BKN,900.0,OVC,1600.0,,
KRDR,11-21-2002,18:00,METAR,,360,13.0,,,9999.0,Cloud Development Not Observable,1.0,1.0,30.22,1024.7,,,,0,0,0,,,,,,,,,8/8 Overcast,900.0,,SCT,500.0,OVC,900.0,,,,
KRDR,11-21-2002,17:10,SPECI,,360,14.0,,,9999.0,Cloud Development Not Observable,1.0,1.0,30.22,,,,,0,0,0,,,,,,,,,8/8 Overcast,900.0,,SCT,500.0,OVC,900.0,,,,
KRDR,11-21-2002,17:00,METAR,,360,13.0,,,9999.0,Cloud Development Not Observable,2.0,1.0,30.22,1024.7,,,,0,0,0,,,,,,,,,8/8 Overcast,1100.0,,FEW,600.0,OVC,1100.0,,,,
KRDR,11-21-2002,16:00,METAR,,360,14.0,,,9999.0,Cloud Development Not Observable,2.0,1.0,30.21,1024.4,,,,0,0,0,,,,,,,,,8/8 Overcast,1100.0,,OVC,1100.0,,,,,,
KRDR,11-21-2002,15:00,METAR,,350,12.0,,,9999.0,Cloud Development Not Observable,1.0,0.0,30.18,1023.6,,,,0,0,0,,,,,,,,,8/8 Overcast,1400.0,,BKN,1400.0,OVC,2000.0,,,,
KRDR,11-21-2002,14:00,METAR,,350,14.0,,,9999.0,Cloud Development Not Observable,1.0,0.0,30.17,1023.2,,,,0,0,0,,,,,,,,,8/8 Overcast,1400.0,,OVC,1400.0,,,,,,
KRDR,11-21-2002,13:00,METAR,,350,14.0,21.0,,9999.0,Cloud Development Not Observable,1.0,1.0,30.16,1022.7,,,,0,0,0,,,,,,,,,8/8 Overcast,1300.0,,BKN,1300.0,OVC,1700.0,,,,
KRDR,11-21-2002,12:44,SPECI,,350,17.0,21.0,,9999.0,Cloud Development Not Observable,1.0,1.0,30.15,,,,,0,0,0,,,,,,,,,8/8 Overcast,1300.0,,BKN,1300.0,OVC,1700.0,,,,
KRDR,11-21-2002,12:00,METAR,,360,16.0,21.0,,9999.0,Cloud Development Not Observable,1.0,1.0,30.13,1021.7,,,,0,0,0,,,,,,,,,8/8 Overcast,900.0,,OVC,900.0,,,,,,
KRDR,11-21-2002,11:00,METAR,,340,11.0,,,9999.0,Cloud Development Not Observable,1.0,1.0,30.10,1020.6,,,,0,0,0,,,,,,,,,8/8 Overcast,700.0,,OVC,700.0,,,,,,
KRDR,11-21-2002,10:23,SPECI,,350,15.0,22.0,,9999.0,Cloud Development Not Observable,1.0,1.0,30.10,,,,,0,0,0,,,,,,,,,8/8 Overcast,900.0,,OVC,900.0,,,,,,
KRDR,11-21-2002,10:00,METAR,,340,15.0,,340/26KTS,9999.0,Cloud Development Not Observable,2.0,1.0,30.06,1019.5,,,,0,0,0,,,,,,,,,8/8 Overcast,1000.0,,OVC,1000.0,,,,,,
KRDR,11-21-2002,09:00,METAR,,350,17.0,24.0,350/29KTS,9999.0,Cloud Development Not Observable,2.0,1.0,30.03,1018.4,,,,0,0,0,,,,,,,,,8/8 Overcast,1100.0,,OVC,1100.0,,,,,,
KRDR,11-21-2002,08:00,METAR,,350,22.0,31.0,,9999.0,Cloud Development Not Observable,3.0,2.0,29.97,1016.2,,,,0,0,0,,,,,,,,,8/8 Overcast,1200.0,,OVC,1200.0,,,,,,
KRDR,11-21-2002,07:36,SPECI,,350,19.0,26.0,,9999.0,Cloud Development Not Observable,3.0,2.0,29.97,,,,,0,0,0,,,,,,,,,8/8 Overcast,1200.0,,OVC,1200.0,,,,,,
KRDR,11-21-2002,07:00,METAR,,350,16.0,22.0,340/28KTS,9999.0,Cloud Development Not Observable,4.0,2.0,29.96,1015.9,,,,0,0,0,,,,,,,,,8/8 Overcast,1600.0,,OVC,1600.0,,,,,,
KRDR,11-21-2002,06:00,METAR,,340,18.0,24.0,340/27KTS,9999.0,Cloud Development Not Observable,5.0,3.0,29.91,1014.2,,,,0,0,0,,,,,,,,,8/8 Overcast,1900.0,,OVC,1900.0,,,,,,
KRDR,11-21-2002,05:00,METAR,,340,15.0,,340/29KTS,9999.0,Cloud Development Not Observable,5.0,3.0,29.88,1013.1,,,,0,0,0,,,,,,,,,8/8 Overcast,2000.0,,OVC,2000.0,,,,,,
KRDR,11-21-2002,04:00,METAR,,320,13.0,,,9999.0,Cloud Development Not Observable,5.0,3.0,29.86,1012.5,,,,0,0,0,,,,,,,,,8/8 Overcast,2600.0,,OVC,2600.0,,,,,,
KRDR,11-21-2002,03:27,SPECI,,300,7.0,,,9999.0,Cloud Development Not Observable,4.0,2.0,29.85,,,,,0,0,0,,,,,,,,,8/8 Overcast,2800.0,,OVC,2800.0,,,,,,
KRDR,11-21-2002,03:00,METAR,,220,3.0,,,9999.0,Cloud Development Not Observable,3.0,2.0,29.85,1012.3,,,,0,0,0,,,,,,,,,8/8 Overcast,3400.0,,OVC,3500.0,,,,,,
KRDR,11-21-2002,02:00,METAR,,190,6.0,,,9999.0,Cloud Development Not Observable,3.0,2.0,29.86,1012.8,,,,0,0,0,,,,,,,,,7/8 Mostly Cloudy,3900.0,,BKN,4000.0,BKN,7400.0,,,,
KRDR,11-21-2002,01:00,METAR,,200,8.0,,,9999.0,Cloud Development Not Observable,3.0,1.0,29.90,1013.8,,,,0,0,0,,,,,,,,,7/8 Mostly Cloudy,4400.0,,BKN,4500.0,BKN,7400.0,,,,
KRDR,11-21-2002,00:00,METAR,,220,8.0,,,9999.0,Cloud Development Not Observable,4.0,2.0,29.93,1015.0,,,,0,0,0,,,,,,,,,7/8 Mostly Cloudy,4900.0,,BKN,5000.0,BKN,7400.0,,,,
KRDR,11-20-2002,23:00,METAR,,220,9.0,,,9999.0,Cloud Development Not Observable,4.0,2.0,29.96,1016.0,,,,0,0,0,,,,,,,,,8/8 Overcast,7500.0,,SCT,5000.0,BKN,7400.0,OVC,20000.0,,
KRDR,11-20-2002,22:00,METAR,,240,6.0,,,9999.0,Cloud Development Not Observable,5.0,1.0,29.99,1016.8,,,,0,0,0,,,,,,,,,8/8 Overcast,7500.0,,SCT,3000.0,BKN,7400.0,OVC,20000.0,,
KRDR,11-20-2002,21:00,METAR,,270,9.0,,,9999.0,Cloud Development Not Observable,6.0,1.0,30.01,1017.5,,,,0,0,0,,,,,,,,,8/8 Overcast,8500.0,,SCT,3000.0,BKN,8400.0,OVC,20000.0,,
KRDR,11-20-2002,20:00,METAR,,230,7.0,,,9999.0,Cloud Development Not Observable,7.0,2.0,30.04,1018.5,,,,0,0,0,,,,,,,,,7/8 Mostly Cloudy,8000.0,,SCT,2500.0,SCT,7900.0,BKN,20000.0,,
KRDR,11-20-2002,19:00,METAR,,240,7.0,,,9999.0,Cloud Development Not Observable,5.0,1.0,30.06,1019.3,,,,0,0,0,,,,,,,,,7/8 Mostly Cloudy,3900.0,,FEW,2000.0,SCT,4000.0,BKN,20000.0,,
KRDR,11-20-2002,17:58,METAR,,280,4.0,,,9999.0,Cloud Development Not Observable,3.0,1.0,30.08,1019.9,,,,0,0,0,,,,,,,,,4/8 Partly Cloudy,72000.0,,FEW,1500.0,SCT,4000.0,SCT,20000.0,,
KRDR,11-20-2002,17:00,METAR,,330,5.0,,,9999.0,Cloud Development Not Observable,3.0,1.0,30.09,1020.3,,,,0,0,0,,,,,,,,,7/8 Mostly Cloudy,3900.0,,FEW,1500.0,SCT,4000.0,BKN,20000.0,,
KRDR,11-20-2002,16:00,METAR,,310,7.0,,,9999.0,Cloud Development Not Observable,1.0,1.0,30.06,1019.6,,,,0,0,0,,,,,,,,,7/8 Mostly Cloudy,4100.0,,BKN,4200.0,BKN,20000.0,,,,
KRDR,11-20-2002,15:00,METAR,,320,6.0,,,9999.0,Cloud Development Not Observable,0.0,0.0,30.05,1019.2,,,,0,0,0,,,,,,,,,7/8 Mostly Cloudy,4400.0,,BKN,4500.0,BKN,25000.0,,,,
KRDR,11-20-2002,14:00,METAR,,340,8.0,,,9999.0,Cloud Development Not Observable,-1.0,-1.0,30.03,1018.5,,,,0,0,0,,,,,,,,,7/8 Mostly Cloudy,3100.0,,BKN,3200.0,BKN,7900.0,BKN,25000.0,,
KRDR,11-20-2002,13:00,METAR,,360,9.0,,,9999.0,Cloud Development Not Observable,-1.0,-1.0,29.99,1017.1,,,,0,0,0,,,,,,,,,7/8 Mostly Cloudy,10000.0,,SCT,3500.0,BKN,9900.0,BKN,20000.0,,
KRDR,11-20-2002,12:00,METAR,,340,10.0,,,9999.0,Cloud Development Not Observable,0.0,0.0,29.96,1016.0,,,,0,0,0,,,,,,,,,4/8 Partly Cloudy,72000.0,,FEW,3500.0,FEW,7900.0,SCT,20000.0,,
KRDR,11-20-2002,11:00,METAR,,320,10.0,,,9999.0,Cloud Development Not Observable,2.0,1.0,29.91,1014.3,,,,0,0,0,,,,,,,,,7/8 Mostly Cloudy,9000.0,,FEW,3500.0,SCT,8900.0,BKN,20000.0,,
KRDR,11-20-2002,10:00,METAR,,320,13.0,,,9999.0,Cloud Development Not Observable,3.0,2.0,29.89,1013.3,,,,0,0,0,,,,,,,,,8/8 Overcast,5500.0,,BKN,5400.0,OVC,9900.0,,,,
KRDR,11-20-2002,09:00,METAR,,310,11.0,,,9999.0,Cloud Development Not Observable,3.0,2.0,29.86,1012.6,,,,0,0,0,,,,,,,,,8/8 Overcast,5500.0,,BKN,5400.0,OVC,9900.0,,,,
KRDR,11-20-2002,08:00,METAR,,270,7.0,,,9999.0,Cloud Development Not Observable,3.0,1.0,29.85,1012.1,,,,0,0,0,,,,,,,,,8/8 Overcast,6500.0,,BKN,6400.0,OVC,8900.0,,,,
KRDR,11-20-2002,07:00,METAR,,210,7.0,,,9999.0,Cloud Development Not Observable,2.0,1.0,29.84,1011.8,,,,0,0,0,,,,,,,,,8/8 Overcast,9000.0,,SCT,6400.0,OVC,8900.0,,,,
KRDR,11-20-2002,06:00,METAR,,210,7.0,,,9999.0,Cloud Development Not Observable,1.0,1.0,29.86,1012.6,,,,0,0,0,,,,,,,,,8/8 Overcast,7000.0,,OVC,6900.0,,,,,,
KRDR,11-20-2002,05:00,METAR,,220,7.0,,,9999.0,Cloud Development Not Observable,2.0,1.0,29.88,1013.3,,,,0,0,0,,,,,,,,,7/8 Mostly Cloudy,9000.0,,SCT,5900.0,BKN,8900.0,,,,
KRDR,11-20-2002,03:00,METAR,,200,7.0,,,9999.0,Cloud Development Not Observable,1.0,0.0,29.90,1013.9,,,,0,0,0,,,,,,,,,7/8 Mostly Cloudy,9000.0,,BKN,8900.0,BKN,20000.0,,,,
KRDR,11-20-2002,02:00,METAR,,250,5.0,,,9999.0,Cloud Development Not Observable,0.0,0.0,29.92,1014.7,,,,0,0,0,,,,,,,,,7/8 Mostly Cloudy,11000.0,,BKN,11000.0,BKN,20000.0,,,,
KRDR,11-20-2002,01:00,METAR,,210,5.0,,,9999.0,Cloud Development Not Observable,1.0,0.0,29.91,1014.4,,,,0,0,0,,,,,,,,,7/8 Mostly Cloudy,11000.0,,BKN,11000.0,BKN,20000.0,,,,
KRDR,11-20-2002,00:00,METAR,,160,3.0,,,9999.0,Cloud Development Not Observable,1.0,0.0,29.92,1014.6,,,,0,0,0,,,,,,,,,7/8 Mostly Cloudy,10000.0,,BKN,9900.0,BKN,20000.0,,,,
KRDR,11-19-2002,23:00,METAR,,260,4.0,,,9999.0,Cloud Development Not Observable,3.0,1.0,29.93,1014.9,,,,0,0,0,,,,,,,,,7/8 Mostly Cloudy,10000.0,,BKN,9900.0,BKN,20000.0,,,,
KRDR,11-19-2002,22:00,METAR,,,1.0,,,9999.0,Cloud Development Not Observable,5.0,1.0,29.92,1014.4,,,,0,0,0,,,,,,,,,7/8 Mostly Cloudy,10000.0,,FEW,6900.0,BKN,9900.0,BKN,20000.0,,
KRDR,11-19-2002,21:00,METAR,,290,4.0,,,9999.0,Cloud Development Not Observable,6.0,0.0,29.91,1014.2,,,,0,0,0,,,,,,,,,7/8 Mostly Cloudy,10000.0,,BKN,9900.0,BKN,20000.0,,,,
KRDR,11-19-2002,20:00,METAR,,270,7.0,,,9999.0,Cloud Development Not Observable,6.0,0.0,29.92,1014.3,,,,0,0,0,,,,,,,,,7/8 Mostly Cloudy,20000.0,,SCT,9900.0,BKN,20000.0,,,,
KRDR,11-19-2002,17:00,METAR,,290,5.0,,,9999.0,Cloud Development Not Observable,3.0,0.0,29.94,1015.2,,,,0,0,0,,,,,,,,,4/8 Partly Cloudy,72000.0,,FEW,9900.0,SCT,20000.0,,,,
KRDR,11-19-2002,16:00,METAR,,290,8.0,,,9999.0,Cloud Development Not Observable,1.0,-1.0,29.94,1015.1,,,,0,0,0,,,,,,,,,4/8 Partly Cloudy,72000.0,,SCT,20000.0,,,,,,
KRDR,11-19-2002,15:00,METAR,,280,8.0,,,9999.0,Cloud Development Not Observable,-1.0,-1.0,29.93,1015.0,,,,0,0,0,,,,,,,,,4/8 Partly Cloudy,72000.0,,FEW,9900.0,SCT,20000.0,,,,
KRDR,11-19-2002,14:00,METAR,,290,8.0,,,9999.0,Cloud Development Not Observable,-3.0,-3.0,29.92,1014.8,,,,0,0,0,,,,,,,,,2/8 Mostly Clear,72000.0,,FEW,9900.0,FEW,20000.0,,,,
KRDR,11-19-2002,13:00,METAR,,300,8.0,,,9999.0,Cloud Development Not Observable,-2.0,-2.0,29.91,1014.4,,,,0,0,0,,,,,,,,,Clear,72000.0,,,73000.0,,,,,,
KRDR,11-19-2002,12:00,METAR,,290,7.0,,,9999.0,Cloud Development Not Observable,-1.0,-1.0,29.89,1013.6,,,,0,0,0,,,,,,,,,Clear,72000.0,,,73000.0,,,,,,
KRDR,11-19-2002,11:00,METAR,,310,8.0,,,9999.0,Cloud Development Not Observable,0.0,-1.0,29.86,1012.6,,,,0,0,0,,,,,,,,,Clear,72000.0,,,73000.0,,,,,,
KRDR,11-19-2002,10:00,METAR,,310,11.0,,,9999.0,Cloud Development Not Observable,1.0,-1.0,29.84,1011.8,,,,0,0,0,,,,,,,,,Clear,72000.0,,,73000.0,,,,,,
KRDR,11-19-2002,09:00,METAR,,300,10.0,,,9999.0,Cloud Development Not Observable,1.0,0.0,29.81,1010.9,,,,0,0,0,,,,,,,,,Clear,72000.0,,,73000.0,,,,,,
KRDR,11-19-2002,08:00,METAR,,300,14.0,,,9999.0,Cloud Development Not Observable,3.0,0.0,29.79,1010.0,,,,0,0,0,,,,,,,,,Clear,72000.0,,,73000.0,,,,,,
KRDR,11-19-2002,07:00,METAR,,300,10.0,,,9999.0,Cloud Development Not Observable,3.0,0.0,29.78,1009.7,,,,0,0,0,,,,,,,,,2/8 Mostly Clear,72000.0,,FEW,11000.0,,,,,,
KRDR,11-19-2002,06:00,METAR,,290,15.0,,,9999.0,Cloud Development Not Observable,5.0,1.0,29.76,1009.0,,,,0,0,0,,,,,,,,,8/8 Overcast,11000.0,,OVC,11000.0,,,,,,
KRDR,11-19-2002,03:00,METAR,,250,11.0,,,9999.0,Cloud Development Not Observable,5.0,0.0,29.75,1008.6,,,,0,0,0,,,,,,,,,7/8 Mostly Cloudy,11000.0,,BKN,11000.0,,,,,,
KRDR,11-19-2002,02:00,METAR,,,5.0,,,9999.0,Cloud Development Not Observable,3.0,0.0,29.76,1009.3,,,,0,0,0,,,,,,,,,7/8 Mostly Cloudy,11000.0,,BKN,11000.0,,,,,,
KRDR,11-19-2002,01:00,METAR,,220,3.0,,,9999.0,Cloud Development Not Observable,1.0,-1.0,29.77,1009.6,,,,0,0,0,,,,,,,,,2/8 Mostly Clear,72000.0,,FEW,8400.0,,,,,,
KRDR,11-19-2002,00:00,METAR,,240,6.0,,,9999.0,Cloud Development Not Observable,2.0,0.0,29.77,1009.6,,,,0,0,0,,,,,,,,,2/8 Mostly Clear,72000.0,,FEW,8400.0,,,,,,
KRDR,11-18-2002,23:00,METAR,,240,8.0,,,9999.0,Cloud Development Not Observable,3.0,0.0,29.77,1009.5,,,,0,0,0,,,,,,,,,4/8 Partly Cloudy,72000.0,,SCT,8400.0,SCT,20000.0,,,,
KRDR,11-18-2002,22:00,METAR,,250,12.0,,,9999.0,Cloud Development Not Observable,6.0,2.0,29.77,1009.4,,,,0,0,0,,,,,,,,,7/8 Mostly Cloudy,9500.0,,BKN,9400.0,BKN,20000.0,,,,
KRDR,11-18-2002,21:00,METAR,,260,11.0,,,9999.0,Cloud Development Not Observable,6.0,2.0,29.78,1009.8,,,,0,0,0,,,,,,,,,7/8 Mostly Cloudy,10000.0,,BKN,9900.0,BKN,20000.0,,,,
KRDR,11-18-2002,20:00,METAR,,270,9.0,,,9999.0,Cloud Development Not Observable,6.0,1.0,29.79,1010.0,,,,0,0,0,,,,,,,,,7/8 Mostly Cloudy,10000.0,,BKN,9900.0,BKN,20000.0,,,,
KRDR,11-18-2002,19:00,METAR,,260,11.0,,,9999.0,Cloud Development Not Observable,7.0,2.0,29.80,1010.5,,,,0,0,0,,,,,,,,,7/8 Mostly Cloudy,12000.0,,BKN,12000.0,BKN,20000.0,,,,
KRDR,11-18-2002,18:00,METAR,,250,16.0,,,9999.0,Cloud Development Not Observable,5.0,1.0,29.80,1010.6,,,,0,0,0,,,,,,,,,4/8 Partly Cloudy,72000.0,,FEW,12000.0,SCT,20000.0,,,,
KRDR,11-18-2002,17:00,METAR,,270,15.0,,,9999.0,Cloud Development Not Observable,4.0,1.0,29.81,1011.0,,,,0,0,0,,,,,,,,,2/8 Mostly Clear,72000.0,,FEW,12000.0,FEW,20000.0,,,,
KRDR,11-18-2002,16:00,METAR,,260,14.0,,,9999.0,Cloud Development Not Observable,3.0,0.0,29.81,1011.0,,,,0,0,0,,,,,,,,,2/8 Mostly Clear,72000.0,,FEW,12000.0,FEW,20000.0,,,,
KRDR,11-18-2002,15:00,METAR,,270,11.0,,,9999.0,Cloud Development Not Observable,1.0,-1.0,29.81,1011.1,,,,0,0,0,,,,,,,,,2/8 Mostly Clear,72000.0,,FEW,5900.0,FEW,20000.0,,,,
KRDR,11-18-2002,14:00,METAR,,260,8.0,,,9999.0,Cloud Development Not Observable,-1.0,-2.0,29.81,1011.1,,,,0,0,0,,,,,,,,,4/8 Partly Cloudy,72000.0,,FEW,5900.0,FEW,12000.0,SCT,20000.0,,
KRDR,11-18-2002,13:00,METAR,,270,8.0,,,9999.0,Cloud Development Not Observable,1.0,-1.0,29.80,1010.6,,,,0,0,0,,,,,,,,,7/8 Mostly Cloudy,20000.0,,FEW,5900.0,FEW,12000.0,BKN,20000.0,,
KRDR,11-18-2002,12:00,METAR,,280,9.0,,,9999.0,Cloud Development Not Observable,2.0,0.0,29.78,1009.8,,,,0,0,0,,,,,,,,,7/8 Mostly Cloudy,12000.0,,FEW,5900.0,SCT,12000.0,BKN,20000.0,,
KRDR,11-18-2002,11:00,METAR,,290,10.0,,,9999.0,Cloud Development Not Observable,3.0,1.0,29.77,1009.4,,,,0,0,0,,,,,,,,,7/8 Mostly Cloudy,12000.0,,FEW,5900.0,SCT,12000.0,BKN,20000.0,,
KRDR,11-18-2002,10:00,METAR,,310,10.0,,,9999.0,Cloud Development Not Observable,3.0,1.0,29.75,1008.7,,,,0,0,0,,,,,,,,,8/8 Overcast,10000.0,,SCT,5900.0,BKN,9900.0,OVC,20000.0,,
KRDR,11-18-2002,09:00,METAR,,300,10.0,,,9999.0,Cloud Development Not Observable,3.0,1.0,29.73,1008.0,,,,0,0,0,,,,,,,,,8/8 Overcast,6000.0,,BKN,5900.0,OVC,11000.0,,,,
KRDR,11-18-2002,08:00,METAR,,300,8.0,,,9999.0,Cloud Development Not Observable,1.0,1.0,29.70,1007.0,,,,0,0,0,,,,,,,,,8/8 Overcast,11000.0,,SCT,6900.0,BKN,11000.0,OVC,20000.0,,
KRDR,11-18-2002,07:00,METAR,,280,12.0,,,9999.0,Cloud Development Not Observable,2.0,1.0,29.68,1006.5,,,,0,0,0,,,,,,,,,8/8 Overcast,20000.0,,OVC,20000.0,,,,,,
KRDR,11-18-2002,06:00,METAR,,230,8.0,,,9999.0,Cloud Development Not Observable,0.0,0.0,29.65,1005.5,,,,0,0,0,,,,,,,,,,20000.0,,OVC,20000.0,,,,,,
KRDR,11-18-2002,05:03,SPECI,,190,11.0,,,8000.0,Mist/Cloud Development Not Observable,0.0,0.0,29.65,,,,,10,0,0,,,,,,,,,7/8 Mostly Cloudy,20000.0,,FEW,500.0,BKN,20000.0,,,,
KRDR,11-18-2002,05:00,METAR,,190,10.0,,,6400.0,Mist/Cloud Development Not Observable,0.0,0.0,29.64,1005.3,,,,10,0,0,,,,,,,,,7/8 Mostly Cloudy,500.0,,BKN,500.0,BKN,20000.0,,,,
KRDR,11-18-2002,03:00,METAR,,190,9.0,,,8000.0,Mist/Cloud Development Not Observable,-1.0,-1.0,29.66,983.2,,,,10,0,0,,,,,,,,,4/8 Partly Cloudy,72000.0,,FEW,1000.0,SCT,20000.0,,,,
KRDR,11-18-2002,02:00,METAR,,180,13.0,,,8000.0,Mist/Cloud Development Not Observable,0.0,0.0,29.67,1006.3,,,,10,0,0,,,,,,,,,7/8 Mostly Cloudy,20000.0,,FEW,2000.0,BKN,20000.0,,,,
KRDR,11-18-2002,01:00,METAR,,170,13.0,,,8000.0,Mist/Cloud Development Not Observable,0.0,0.0,29.67,1006.3,,,,10,0,0,,,,,,,,,4/8 Partly Cloudy,72000.0,,FEW,2000.0,SCT,20000.0,,,,
KRDR,11-18-2002,00:00,METAR,,190,10.0,,,8000.0,Mist/Cloud Development Not Observable,0.0,0.0,29.70,1007.2,,,,10,0,0,,,,,,,,,4/8 Partly Cloudy,72000.0,,FEW,1800.0,SCT,20000.0,,,,
KRDR,11-17-2002,23:00,METAR,,200,8.0,,,8000.0,Mist/Cloud Development Not Observable,1.0,0.0,29.71,1007.5,,,,10,0,0,,,,,,,,,4/8 Partly Cloudy,72000.0,,FEW,1800.0,SCT,20000.0,,,,
KRDR,11-17-2002,22:31,SPECI,,180,12.0,,,8000.0,Mist/Cloud Development Not Observable,1.0,0.0,29.68,,,,,10,0,0,,,,,,,,,4/8 Partly Cloudy,72000.0,,SCT,1800.0,,,,,,
KRDR,11-17-2002,22:00,METAR,,190,14.0,21.0,,9999.0,Mist/Cloud Development Not Observable,1.0,0.0,29.70,1007.2,,,,10,0,0,,,,,,,,,8/8 Overcast,1600.0,,OVC,1600.0,,,,,,
KRDR,11-17-2002,21:00,METAR,,180,18.0,,,9999.0,Mist/Cloud Development Not Observable,1.0,0.0,29.71,1007.6,,,,10,0,0,,,,,,,,,8/8 Overcast,1500.0,,OVC,1500.0,,,,,,
KRDR,11-17-2002,20:29,SPECI,,180,14.0,24.0,,9999.0,Mist/Cloud Development Not Observable,1.0,0.0,29.71,,,,,10,0,0,,,,,,,,,8/8 Overcast,1500.0,,OVC,1500.0,,,,,,
KRDR,11-17-2002,20:00,METAR,,190,17.0,,180/27KTS,9999.0,Mist/Cloud Development Not Observable,1.0,0.0,29.72,1008.0,,,,10,0,0,,,,,,,,,8/8 Overcast,1400.0,,OVC,1400.0,,,,,,
KRDR,11-17-2002,19:00,METAR,,180,18.0,23.0,180/27KTS,9999.0,Mist/Cloud Development Not Observable,0.0,-1.0,29.73,1008.4,,,,10,0,0,,,,,,,,,8/8 Overcast,1200.0,,OVC,1200.0,,,,,,
KRDR,11-17-2002,18:00,METAR,,180,18.0,25.0,180/31KTS,9999.0,Mist/Cloud Development Not Observable,0.0,-1.0,29.75,1008.8,,,,10,0,0,,,,,,,,,8/8 Overcast,1200.0,,OVC,1200.0,,,,,,
KRDR,11-17-2002,17:00,METAR,,180,20.0,30.0,,9999.0,Mist/Cloud Development Not Observable,0.0,-1.0,29.78,1009.9,,,,10,0,0,,,,,,,,,8/8 Overcast,1400.0,,OVC,1400.0,,,,,,
KRDR,11-17-2002,16:00,METAR,,180,21.0,29.0,,9999.0,Mist/Cloud Development Not Observable,-1.0,-2.0,29.78,1010.0,,,,10,0,0,,,,,,,,,8/8 Overcast,1200.0,,BKN,1200.0,OVC,11000.0,,,,
KRDR,11-17-2002,15:00,METAR,,170,19.0,28.0,,9999.0,Mist/Cloud Development Not Observable,-2.0,-2.0,29.78,1010.2,,,,10,0,0,,,,,,,,,8/8 Overcast,1200.0,,OVC,1200.0,,,,,,
KRDR,11-17-2002,14:48,SPECI,,170,21.0,28.0,,9999.0,Mist/Cloud Development Not Observable,-2.0,-2.0,29.78,,,,,10,0,0,,,,,,,,,8/8 Overcast,1200.0,,OVC,1200.0,,,,,,
KRDR,11-17-2002,14:00,METAR,,170,18.0,23.0,,8000.0,Mist/Cloud Development Not Observable,-2.0,-2.0,29.80,1010.7,,,,10,0,0,,,,,,,,,8/8 Overcast,9000.0,,FEW,1000.0,SCT,8900.0,BKN,11000.0,OVC,20000.0
KRDR,11-17-2002,13:00,METAR,,170,18.0,22.0,170/26KTS,6400.0,Mist/Cloud Development Not Observable,-2.0,-2.0,29.82,1011.4,,,,10,0,0,,,,,,,,,8/8 Overcast,8500.0,,SCT,1000.0,OVC,8400.0,,,,
KRDR,11-17-2002,12:19,SPECI,,170,18.0,23.0,,6400.0,Mist/Cloud Development Not Observable,-2.0,-2.0,29.84,,,,,10,0,0,,,,,,,,,8/8 Overcast,8000.0,,FEW,900.0,OVC,7900.0,,,,
KRDR,11-17-2002,12:01,SPECI,,170,18.0,23.0,,4800.0,Mist/Cloud Development Not Observable,-2.0,-2.0,29.84,,,,,10,0,0,,,,,,,,,8/8 Overcast,900.0,,OVC,900.0,,,,,,
KRDR,11-17-2002,12:00,METAR,,170,16.0,24.0,170/25KTS,4800.0,Mist/Cloud Development Not Observable,-2.0,-2.0,29.84,1012.1,,,,10,0,0,,,,,,,,,8/8 Overcast,500.0,,OVC,500.0,,,,,,
KRDR,11-17-2002,11:39,SPECI,,170,18.0,,,4800.0,Mist/Cloud Development Not Observable,-2.0,-2.0,29.83,,,,,10,0,0,,,,,,,,,8/8 Overcast,500.0,,OVC,500.0,,,,,,
KRDR,11-17-2002,11:00,METAR,,170,16.0,,,3200.0,Mist/Cloud Development Not Observable,-3.0,-3.0,29.86,1012.8,,,,10,0,0,,,,,,,,,8/8 Overcast,300.0,,OVC,300.0,,,,,,
KRDR,11-17-2002,10:00,METAR,,170,14.0,,,3200.0,Mist/Cloud Development Not Observable,-3.0,-3.0,29.88,1013.5,,,,10,0,0,,,,,,,,,8/8 Overcast,300.0,,OVC,300.0,,,,,,
KRDR,11-17-2002,09:10,SPECI,,160,11.0,,,1600.0,Mist/Cloud Development Not Observable,-2.0,-2.0,29.88,,,,,10,0,0,,,,,,,,,8/8 Overcast,300.0,,OVC,300.0,,,,,,
KRDR,11-17-2002,09:00,METAR,,160,14.0,,,3200.0,Mist/Cloud Development Not Observable,-2.0,-2.0,29.89,1013.8,,,,10,0,0,,,,,,,,,8/8 Overcast,300.0,,OVC,300.0,,,,,,
KRDR,11-17-2002,08:00,METAR,,160,11.0,,,4800.0,Mist/Cloud Development Not Observable,-2.0,-2.0,29.91,1014.3,,,,10,0,0,,,,,,,,,8/8 Overcast,300.0,,OVC,300.0,,,,,,
KRDR,11-17-2002,07:20,METAR,,160,10.0,,,4800.0,Mist/Cloud Development Not Observable,-2.0,-2.0,29.91,,,,,10,0,0,,,,,,,,,8/8 Overcast,300.0,,OVC,300.0,,,,,,
KRDR,11-17-2002,07:00,METAR,,170,13.0,,,4800.0,Mist/Cloud Development Not Observable,-2.0,-2.0,29.93,1015.0,,,,10,0,0,,,,,,,,,8/8 Overcast,500.0,,OVC,500.0,,,,,,
KRDR,11-17-2002,05:55,METAR,,160,11.0,,,6400.0,Mist/Cloud Development Not Observable,-1.0,-1.0,29.94,1015.6,,,,10,0,0,,,,,,,,,8/8 Overcast,500.0,,OVC,500.0,,,,,,
KRDR,11-17-2002,05:00,METAR,,170,11.0,,,6400.0,Mist/Cloud Development Not Observable,-1.0,-1.0,29.97,1016.5,,,,10,0,0,,,,,,,,,8/8 Overcast,500.0,,OVC,500.0,,,,,,
KRDR,11-17-2002,04:45,METAR,,180,11.0,,,6400.0,Mist/Cloud Development Not Observable,-1.0,-1.0,29.97,,,,,10,0,0,,,,,,,,,8/8 Overcast,500.0,,OVC,500.0,,,,,,
KRDR,11-17-2002,04:06,SPECI,,170,8.0,,,8000.0,Mist/Cloud Development Not Observable,-3.0,-3.0,29.97,,,,,10,0,0,,,,,,,,,7/8 Mostly Cloudy,700.0,,BKN,700.0,BKN,20000.0,,,,
KRDR,11-17-2002,04:00,METAR,,170,9.0,,,8000.0,Mist/Cloud Development Not Observable,-4.0,-4.0,29.98,1017.0,,,,10,0,0,,,,,,,,,7/8 Mostly Cloudy,20000.0,,BKN,20000.0,,,,,,
KRDR,11-17-2002,03:00,METAR,,160,8.0,,,8000.0,Mist/Cloud Development Not Observable,-2.0,-2.0,30.02,1018.4,,,,10,0,0,,,,,,,,,7/8 Mostly Cloudy,20000.0,,BKN,20000.0,,,,,,
KRDR,11-17-2002,02:00,METAR,,150,7.0,,,8000.0,Mist/Cloud Development Not Observable,-2.0,-2.0,30.02,1018.4,,,,10,0,0,,,,,,,,,7/8 Mostly Cloudy,20000.0,,BKN,20000.0,,,,,,
KRDR,11-17-2002,01:45,METAR,,150,8.0,,,8000.0,Mist/Cloud Development Not Observable,-2.0,-2.0,30.02,,,,,10,0,0,,,,,,,,,7/8 Mostly Cloudy,20000.0,,FEW,1000.0,BKN,20000.0,,,,
KRDR,11-17-2002,00:20,METAR,,150,10.0,,,8000.0,Mist/Cloud Development Not Observable,0.0,0.0,30.03,,,,,10,0,0,,,,,,,,,8/8 Overcast,800.0,,OVC,800.0,,,,,,
KRDR,11-16-2002,23:00,METAR,,190,7.0,,,8000.0,Mist/Cloud Development Not Observable,0.0,0.0,30.04,1019.1,,,,10,0,0,,,,,,,,,8/8 Overcast,600.0,,OVC,600.0,,,,,,
KRDR,11-16-2002,22:00,METAR,,180,10.0,,,8000.0,Mist/Cloud Development Not Observable,0.0,0.0,30.04,1019.1,,,,10,0,0,,,,,,,,,8/8 Overcast,600.0,,OVC,600.0,,,,,,
KRDR,11-16-2002,21:00,METAR,,170,7.0,,,8000.0,Mist/Cloud Development Not Observable,0.0,0.0,30.04,1019.2,,,,10,0,0,,,,,,,,,8/8 Overcast,600.0,,OVC,600.0,,,,,,
KRDR,11-16-2002,20:00,METAR,,170,8.0,,,9999.0,Mist/Cloud Development Not Observable,-1.0,-1.0,30.05,1019.7,,,,10,0,0,,,,,,,,,8/8 Overcast,600.0,,OVC,600.0,,,,,,
KRDR,11-16-2002,19:49,SPECI,,170,9.0,,,9999.0,Mist/Cloud Development Not Observable,-1.0,-1.0,30.05,,,,,10,0,0,,,,,,,,,8/8 Overcast,600.0,,OVC,600.0,,,,,,
KRDR,11-16-2002,18:00,METAR,,170,9.0,,,9999.0,Cloud Development Not Observable,-3.0,-3.0,30.09,1021.3,,,,0,0,0,,,,,,,,,8/8 Overcast,1000.0,,SCT,800.0,OVC,1000.0,,,,
KRDR,11-16-2002,17:22,SPECI,,200,13.0,,,9999.0,Cloud Development Not Observable,-3.0,-3.0,30.11,,,,,0,0,0,,,,,,,,,8/8 Overcast,1000.0,,SCT,800.0,OVC,1000.0,,,,
KRDR,11-16-2002,17:00,METAR,,200,10.0,,,9999.0,Cloud Development Not Observable,-3.0,-3.0,30.11,1021.9,,,,0,0,0,,,,,,,,,8/8 Overcast,900.0,,BKN,900.0,OVC,1200.0,,,,
KRDR,11-16-2002,16:00,METAR,,190,13.0,,,9999.0,Cloud Development Not Observable,-4.0,-4.0,30.12,1022.2,,,,0,0,0,,,,,,,,,8/8 Overcast,1600.0,,SCT,800.0,OVC,1600.0,,,,
KRDR,11-16-2002,15:00,METAR,,180,12.0,,,9999.0,Cloud Development Not Observable,-5.0,-5.0,30.13,1022.8,,,,0,0,0,,,,,,,,,8/8 Overcast,1600.0,,OVC,1600.0,,,,,,
KRDR,11-16-2002,14:21,SPECI,,180,14.0,,,9999.0,Cloud Development Not Observable,-6.0,-6.0,30.14,,,,,0,0,0,,,,,,,,,8/8 Overcast,1600.0,,OVC,1600.0,,,,,,
KRDR,11-16-2002,14:00,METAR,,180,10.0,,,9999.0,Cloud Development Not Observable,-6.0,-6.0,30.14,1023.1,,,,0,0,0,,,,,,,,,8/8 Overcast,1400.0,,OVC,1400.0,,,,,,
KRDR,11-16-2002,13:00,METAR,,190,11.0,,,9999.0,Cloud Development Not Observable,-8.0,-8.0,30.14,1023.2,,,,0,0,0,,,,,,,,,8/8 Overcast,1100.0,,OVC,1100.0,,,,,,
KRDR,11-16-2002,12:00,METAR,,180,12.0,,,9999.0,Cloud Development Not Observable,-8.0,-8.0,30.15,1023.5,,,,0,0,0,,,,,,,,,8/8 Overcast,1400.0,,OVC,1400.0,,,,,,
KRDR,11-16-2002,11:40,SPECI,,180,12.0,,,9999.0,Cloud Development Not Observable,-8.0,-8.0,30.16,,,,,0,0,0,,,,,,,,,8/8 Overcast,1500.0,,BKN,1500.0,OVC,5000.0,,,,
KRDR,11-16-2002,11:00,METAR,,180,11.0,,,9999.0,Cloud Development Not Observable,-9.0,-9.0,30.19,1024.6,,,,0,0,0,,,,,,,,,8/8 Overcast,4900.0,,SCT,2500.0,OVC,5000.0,,,,
KRDR,11-16-2002,10:00,METAR,,180,10.0,,,9999.0,Cloud Development Not Observable,-9.0,-9.0,30.20,1024.9,,,,0,0,0,,,,,,,,,8/8 Overcast,4900.0,,BKN,5000.0,OVC,9900.0,,,,
KRDR,11-16-2002,09:00,METAR,,180,10.0,,,9999.0,Cloud Development Not Observable,-11.0,-11.0,30.22,1025.7,,,,0,0,0,,,,,,,,,8/8 Overcast,6000.0,,BKN,5900.0,OVC,9900.0,,,,
KRDR,11-16-2002,08:00,METAR,,180,6.0,,,9999.0,Cloud Development Not Observable,-14.0,-14.0,30.23,1026.1,,,,0,0,0,,,,,,,,,4/8 Partly Cloudy,72000.0,,SCT,9900.0,,,,,,
KRDR,11-16-2002,04:00,METAR,,210,5.0,,,9999.0,Cloud Development Not Observable,-17.0,-17.0,30.28,1028.2,,,,0,0,0,,,,,,,,,2/8 Mostly Clear,72000.0,,FEW,20000.0,,,,,,
KRDR,11-16-2002,03:00,METAR,,200,4.0,,,9999.0,Cloud Development Not Observable,-16.0,-16.0,30.30,1028.7,,,,0,0,0,,,,,,,,,2/8 Mostly Clear,72000.0,,FEW,2000.0,,,,,,
KRDR,11-16-2002,00:00,METAR,,110,3.0,,,9999.0,Cloud Development Not Observable,-12.0,-12.0,30.31,1029.0,,,,0,0,0,,,,,,,,,2/8 Mostly Clear,72000.0,,FEW,2000.0,,,,,,
KRDR,11-15-2002,23:00,METAR,,350,2.0,,,9999.0,Cloud Development Not Observable,-10.0,-10.0,30.32,1029.3,,,,0,0,0,,,,,,,,,2/8 Mostly Clear,72000.0,,FEW,2000.0,,,,,,
KRDR,11-15-2002,22:00,METAR,,220,3.0,,,9999.0,Cloud Development Not Observable,-8.0,-10.0,30.32,1029.3,,,,0,0,0,,,,,,,,,2/8 Mostly Clear,72000.0,,FEW,2000.0,,,,,,
KRDR,11-15-2002,21:00,METAR,,,4.0,,,9999.0,Cloud Development Not Observable,-8.0,-10.0,30.31,1028.9,,,,0,0,0,,,,,,,,,4/8 Partly Cloudy,72000.0,,SCT,2000.0,,,,,,
KRDR,11-15-2002,20:00,METAR,,,5.0,,,9999.0,Cloud Development Not Observable,-7.0,-9.0,30.31,1028.8,,,,0,0,0,,,,,,,,,4/8 Partly Cloudy,72000.0,,SCT,2000.0,,,,,,
KRDR,11-15-2002,18:00,METAR,,,3.0,,,9999.0,Cloud Development Not Observable,-9.0,-10.0,30.33,1029.6,,,,0,0,0,,,,,,,IN,,4/8 Partly Cloudy,72000.0,,SCT,2000.0,SCT,20000.0,,,,
KRDR,11-15-2002,17:00,METAR,,,4.0,,,9999.0,Cloud Development Not Observable,-11.0,-11.0,30.33,1029.7,,,,0,0,0,,,,,,,,,7/8 Mostly Cloudy,20000.0,,SCT,2000.0,BKN,20000.0,,,,
KRDR,11-15-2002,16:00,METAR,,310,5.0,,,9999.0,Light Snow/Cloud Development Not Observable,-11.0,-11.0,30.32,1029.3,,,,71,0,0,,,,,,,,,7/8 Mostly Cloudy,3700.0,,BKN,3800.0,,,,,,
KRDR,11-15-2002,15:00,METAR,,,3.0,,,9999.0,Light Snow/Cloud Development Not Observable,-13.0,-13.0,30.31,1029.0,,,,71,0,0,,,,,,TRACE,,,7/8 Mostly Cloudy,3800.0,,SCT,2100.0,BKN,3900.0,,,,
KRDR,11-15-2002,14:44,SPECI,,340,2.0,,,9999.0,Light Snow/Cloud Development Not Observable,-13.0,-13.0,30.30,,,,,71,0,0,,,,,,,,,7/8 Mostly Cloudy,3700.0,,SCT,2100.0,BKN,3800.0,,,,
KRDR,11-15-2002,14:11,SPECI,,340,2.0,,,9999.0,Light Snow/Cloud Development Not Observable,-14.0,-14.0,30.29,,,,,71,0,0,,,,,,,,,7/8 Mostly Cloudy,2300.0,,FEW,800.0,BKN,2300.0,,,,
KRDR,11-15-2002,14:00,METAR,,,2.0,,,9999.0,Light Snow/Cloud Development Not Observable,-14.0,-14.0,30.29,1028.3,,,,71,0,0,,,,,,,,,7/8 Mostly Cloudy,800.0,,BKN,800.0,BKN,2100.0,,,,
KRDR,11-15-2002,13:00,METAR,,330,4.0,,,9999.0,Diamond Dust/Light Snow/Cloud Development Not Observable,-14.0,-14.0,30.27,1027.8,,,,71,76,0,,,,,,,,,8/8 Overcast,800.0,,OVC,800.0,,,,,,
KRDR,11-15-2002,12:39,SPECI,,320,5.0,,,9999.0,Diamond Dust/Cloud Development Not Observable,-14.0,-14.0,30.26,,,,,76,0,0,,,,,,,,,8/8 Overcast,800.0,,OVC,800.0,,,,,,
KRDR,11-15-2002,12:00,METAR,,310,5.0,,,9999.0,Diamond Dust/Cloud Development Not Observable,-15.0,-15.0,30.25,1027.2,,,,76,0,0,,,,,,,IN,,8/8 Overcast,1300.0,,OVC,1300.0,,,,,,
KRDR,11-15-2002,11:00,METAR,,300,3.0,,,9999.0,Diamond Dust/Cloud Development Not Observable,-16.0,-16.0,30.24,1026.8,,,,76,0,0,,,,,,,,,8/8 Overcast,1500.0,,OVC,1500.0,,,,,,
KRDR,11-15-2002,10:00,METAR,,300,6.0,,,9999.0,Diamond Dust/Cloud Development Not Observable,-16.0,-16.0,30.23,1026.3,,,,76,0,0,,,,,,,,,7/8 Mostly Cloudy,1500.0,,BKN,1500.0,,,,,,
KRDR,11-15-2002,09:00,METAR,,300,5.0,,,9999.0,Diamond Dust/Cloud Development Not Observable,-16.0,-16.0,30.22,1025.9,,,,76,0,0,,,,,,TRACE,,,7/8 Mostly Cloudy,1500.0,,BKN,1500.0,,,,,,
KRDR,11-15-2002,08:00,METAR,,320,4.0,,,9999.0,Diamond Dust/Cloud Development Not Observable,-15.0,-15.0,30.19,1025.0,,,,76,0,0,,,,,,,,,7/8 Mostly Cloudy,1500.0,,BKN,1500.0,,,,,,
KRDR,11-15-2002,06:40,SPECI,,350,6.0,,,9999.0,Diamond Dust/Cloud Development Not Observable,-16.0,-16.0,30.17,,,,,76,0,0,,,,,,,,,7/8 Mostly Cloudy,1500.0,,BKN,1500.0,,,,,,
KRDR,11-15-2002,06:00,METAR,,10,5.0,,,9999.0,Diamond Dust/Cloud Development Not Observable,-16.0,-16.0,30.16,1023.8,,,,76,0,0,,,,,,,,,2/8 Mostly Clear,72000.0,,FEW,5000.0,,,,,,
KRDR,11-15-2002,05:00,METAR,,330,5.0,,,9999.0,Cloud Development Not Observable,-16.0,-16.0,30.14,1023.4,,,,0,0,0,,,,,,,,,2/8 Mostly Clear,72000.0,,FEW,5000.0,,,,,,
KRDR,11-15-2002,03:00,METAR,,350,4.0,,,9999.0,Cloud Development Not Observable,-13.0,-13.0,30.11,1022.2,,,,0,0,0,,,,,,,,,2/8 Mostly Clear,72000.0,,FEW,20000.0,,,,,,
KRDR,11-15-2002,01:00,METAR,,300,4.0,,,9999.0,Cloud Development Not Observable,-13.0,-13.0,30.10,1022.0,,,,0,0,0,,,,,,,,,2/8 Mostly Clear,72000.0,,FEW,2000.0,,,,,,
KRDR,11-15-2002,00:00,METAR,,210,4.0,,,9999.0,Cloud Development Not Observable,-12.0,-12.0,30.08,1020.7,,,,0,0,0,,,,,,,IN,,2/8 Mostly Clear,72000.0,,FEW,2000.0,,,,,,
KRDR,11-14-2002,23:00,METAR,,140,3.0,,,9999.0,Cloud Development Not Observable,-9.0,-10.0,30.06,1020.7,,,,0,0,0,,,,,,,,,4/8 Partly Cloudy,72000.0,,FEW,2000.0,SCT,9900.0,,,,
KRDR,11-14-2002,22:00,METAR,,,4.0,,,9999.0,Cloud Development Not Observable,-8.0,-10.0,30.05,1020.2,,,,0,0,0,,,,,,,,,4/8 Partly Cloudy,72000.0,,SCT,1800.0,SCT,9900.0,,,,
KRDR,11-14-2002,20:15,SPECI,,240,3.0,,,9999.0,Light Snow/Cloud Development Not Observable,-7.0,-10.0,30.06,,,,,71,0,0,,,,,,,,,7/8 Mostly Cloudy,2000.0,,BKN,2000.0,BKN,9900.0,,,,
KRDR,11-14-2002,20:00,METAR,,190,5.0,,,9999.0,Cloud Development Not Observable,-8.0,-10.0,30.06,1020.6,,,,0,0,0,,,,,,,,,7/8 Mostly Cloudy,10000.0,,SCT,2000.0,BKN,9900.0,,,,
KRDR,11-14-2002,19:00,METAR,,240,5.0,,,9999.0,Cloud Development Not Observable,-8.0,-10.0,30.06,1020.7,,,,0,0,0,,,,,,,,,2/8 Mostly Clear,72000.0,,FEW,9900.0,,,,,,
KRDR,11-14-2002,17:00,METAR,,200,5.0,,,9999.0,Cloud Development Not Observable,-10.0,-11.0,30.10,1021.7,,,,0,0,0,,,,,,,,,2/8 Mostly Clear,72000.0,,FEW,20000.0,,,,,,
KRDR,11-14-2002,16:00,METAR,,300,3.0,,,9999.0,Cloud Development Not Observable,-12.0,-12.0,30.11,1022.1,,,,0,0,0,,,,,,,,,2/8 Mostly Clear,72000.0,,FEW,20000.0,,,,,,
KRDR,11-14-2002,15:00,METAR,,280,5.0,,,9999.0,Cloud Development Not Observable,-14.0,-14.0,30.09,1021.4,,,,0,0,0,,,,,,,,,2/8 Mostly Clear,72000.0,,FEW,20000.0,,,,,,
KRDR,11-14-2002,14:00,METAR,,260,5.0,,,9999.0,Cloud Development Not Observable,-18.0,-18.0,30.09,1021.5,,,,0,0,0,,,,,,,,,2/8 Mostly Clear,72000.0,,FEW,20000.0,,,,,,
KRDR,11-14-2002,13:00,METAR,,250,3.0,,,9999.0,Cloud Development Not Observable,-17.0,-17.0,30.07,1020.8,,,,0,0,0,,,,,,,,,2/8 Mostly Clear,72000.0,,FEW,20000.0,,,,,,
KRDR,11-14-2002,11:57,METAR,,320,6.0,,,9999.0,Cloud Development Not Observable,-15.0,-15.0,30.07,1020.8,,,,0,0,0,,,,,,,,.09 IN,2/8 Mostly Clear,72000.0,,FEW,20000.0,,,,,,
KRDR,11-14-2002,11:25,METAR,,300,5.0,,,9999.0,Cloud Development Not Observable,-16.0,-16.0,30.07,,,,,0,0,0,,,,,,,,,2/8 Mostly Clear,72000.0,,FEW,20000.0,,,,,,
KRDR,11-14-2002,11:00,METAR,,290,7.0,,,9999.0,Cloud Development Not Observable,-15.0,-15.0,30.07,1020.6,,,,0,0,0,,,,,,,,,2/8 Mostly Clear,72000.0,,FEW,20000.0,,,,,,
KRDR,11-14-2002,10:00,METAR,,290,6.0,,,9999.0,Cloud Development Not Observable,-15.0,-15.0,30.07,1020.5,,,,0,0,0,,,,,,,,,2/8 Mostly Clear,72000.0,,FEW,20000.0,,,,,,
KRDR,11-14-2002,09:00,METAR,,310,6.0,,,9999.0,Cloud Development Not Observable,-15.0,-15.0,30.05,1020.0,,,,0,0,0,,,,,,,,,Clear,72000.0,,,73000.0,,,,,,
KRDR,11-14-2002,06:00,METAR,,320,7.0,,,9999.0,Cloud Development Not Observable,-15.0,-15.0,30.02,1019.0,,,,0,0,0,,,,,,,IN,,Clear,72000.0,,,73000.0,,,,,,
KRDR,11-14-2002,05:00,METAR,,330,10.0,,,9999.0,Cloud Development Not Observable,-14.0,-14.0,30.01,1018.4,,,,0,0,0,,,,,,,,,2/8 Mostly Clear,72000.0,,FEW,7400.0,,,,,,
KRDR,11-14-2002,04:00,METAR,,340,13.0,,,9999.0,Cloud Development Not Observable,-12.0,-12.0,29.99,1017.4,,,,0,0,0,,,,,,,,,Clear,72000.0,,,73000.0,,,,,,
KRDR,11-14-2002,02:00,METAR,,350,13.0,,,9999.0,Cloud Development Not Observable,-9.0,-10.0,29.95,1016.3,,,,0,0,0,,,,,,,,,8/8 Overcast,1600.0,,BKN,1600.0,OVC,2500.0,,,,
KRDR,11-14-2002,00:00,METAR,,360,17.0,,,8000.0,Light Snow/Cloud Development Not Observable,-7.0,-7.0,29.86,1013.3,,,,71,0,0,,,,,,,.06 IN,,8/8 Overcast,1000.0,,SCT,600.0,OVC,1000.0,,,,
KRDR,11-13-2002,23:00,METAR,,360,16.0,,010/27KTS,6400.0,Light Snow/Cloud Development Not Observable,-4.0,-4.0,29.84,1012.4,,,,71,0,0,,,,,,,,,8/8 Overcast,1000.0,,SCT,700.0,OVC,1000.0,,,,
KRDR,11-13-2002,22:16,SPECI,,10,21.0,24.0,,6400.0,Light Snow/Cloud Development Not Observable,-2.0,-2.0,29.81,,,,,71,0,0,,,,,,,,,8/8 Overcast,1500.0,,SCT,700.0,OVC,1500.0,,,,
KRDR,11-13-2002,22:00,METAR,,10,16.0,23.0,,6400.0,Light Snow/Cloud Development Not Observable,-2.0,-2.0,29.80,,,,,71,0,0,,,,,,,,,8/8 Overcast,700.0,,BKN,700.0,BKN,2000.0,OVC,5000.0,,
KRDR,11-13-2002,21:55,METAR,,30,8.0,,,3200.0,Light Snow/Cloud Development Not Observable,-2.0,-2.0,29.79,1010.7,,,,71,0,0,,,,,,,,,8/8 Overcast,900.0,,BKN,900.0,OVC,2000.0,,,,
KRDR,11-13-2002,21:00,METAR,,30,8.0,,,3200.0,Light Snow/Cloud Development Not Observable,-2.0,-2.0,29.77,1010.0,,,,71,0,0,,,,,,.05 IN,,,8/8 Overcast,800.0,,BKN,800.0,OVC,1500.0,,,,
KRDR,11-13-2002,20:04,SPECI,,50,6.0,,,4000.0,Light Snow/Cloud Development Not Observable,-2.0,-3.0,29.75,,,,,71,0,0,,,,,,,,,8/8 Overcast,800.0,,BKN,800.0,OVC,1200.0,,,,
KRDR,11-13-2002,20:00,METAR,,60,5.0,,,6400.0,Light Snow/Cloud Development Not Observable,-2.0,-3.0,29.75,1009.2,,,,71,0,0,,,,,,,,,8/8 Overcast,800.0,,BKN,800.0,OVC,1500.0,,,,
KRDR,11-13-2002,19:00,METAR,,150,7.0,,,6400.0,Light Snow/Cloud Development Not Observable,-2.0,-3.0,29.73,1008.6,,,,71,0,0,,,,,,,,,8/8 Overcast,800.0,,BKN,800.0,OVC,2000.0,,,,
KRDR,11-13-2002,18:41,SPECI,,170,8.0,,,3200.0,Light Snow/Cloud Development Not Observable,-3.0,-3.0,29.73,,,,,71,0,0,,,,,,,,,8/8 Overcast,800.0,,BKN,800.0,OVC,2000.0,,,,
KRDR,11-13-2002,18:27,SPECI,,160,8.0,,,2000.0,Light Snow/Cloud Development Not Observable,-3.0,-3.0,29.74,,,,,71,0,0,,,,,,,,,8/8 Overcast,900.0,,BKN,900.0,OVC,1400.0,,,,
KRDR,11-13-2002,18:00,METAR,,150,8.0,,,2800.0,Light Snow/Cloud Development Not Observable,-3.0,-3.0,29.75,1009.3,,,,71,0,0,,,,,,,.03 IN,,8/8 Overcast,1000.0,,FEW,600.0,BKN,1000.0,OVC,2000.0,,
KRDR,11-13-2002,17:48,SPECI,,170,9.0,,,2800.0,Light Snow/Cloud Development Not Observable,-3.0,-3.0,29.75,,,,,71,0,0,,,,,,,,,8/8 Overcast,1000.0,,FEW,600.0,BKN,1000.0,OVC,2000.0,,
KRDR,11-13-2002,17:07,SPECI,,160,11.0,,,2400.0,Light Snow/Cloud Development Not Observable,-3.0,-3.0,29.75,,,,,71,0,0,,,,,,,,,8/8 Overcast,1000.0,,OVC,1000.0,,,,,,
KRDR,11-13-2002,17:00,METAR,,150,11.0,,,3200.0,Light Snow/Cloud Development Not Observable,-3.0,-3.0,29.76,1009.7,,,,71,0,0,,,,,,,,,8/8 Overcast,1200.0,,OVC,1200.0,,,,,,
KRDR,11-13-2002,16:29,SPECI,,150,12.0,,,3200.0,Light Snow/Cloud Development Not Observable,-3.0,-3.0,29.77,,,,,71,0,0,,,,,,,,,8/8 Overcast,1200.0,,OVC,1200.0,,,,,,
KRDR,11-13-2002,16:20,METAR,,150,12.0,,,4800.0,Light Snow/Cloud Development Not Observable,-3.0,-3.0,29.76,,,,,71,0,0,,,,,,,,,8/8 Overcast,2000.0,,OVC,2000.0,,,,,,
KRDR,11-13-2002,16:00,METAR,,150,10.0,,,3200.0,Light Snow/Cloud Development Not Observable,-3.0,-3.0,29.77,1010.1,,,,71,0,0,,,,,,,,,8/8 Overcast,1900.0,,OVC,1900.0,,,,,,
KRDR,11-13-2002,15:47,SPECI,,160,12.0,,,3200.0,Light Snow/Cloud Development Not Observable,-3.0,-3.0,29.78,,,,,71,0,0,,,,,,,,,8/8 Overcast,2000.0,,OVC,2000.0,,,,,,
KRDR,11-13-2002,15:32,SPECI,,160,9.0,,,4400.0,Light Snow/Cloud Development Not Observable,-3.0,-3.0,29.78,,,,,71,0,0,,,,,,,,,8/8 Overcast,2200.0,,OVC,2200.0,,,,,,
KRDR,11-13-2002,15:00,METAR,,170,10.0,,,4400.0,Light Snow/Cloud Development Not Observable,-4.0,-4.0,29.81,1011.5,,,,71,0,0,,,,,,TRACE,,,8/8 Overcast,2800.0,,OVC,2800.0,,,,,,
KRDR,11-13-2002,14:26,SPECI,,170,11.0,,,4400.0,Light Snow/Cloud Development Not Observable,-4.0,-4.0,29.82,,,,,71,0,0,,,,,,,,,8/8 Overcast,2900.0,,OVC,2900.0,,,,,,
KRDR,11-13-2002,14:00,METAR,,170,12.0,,,6000.0,Light Snow/Cloud Development Not Observable,-4.0,-4.0,29.83,1012.2,,,,71,0,0,,,,,,,,,8/8 Overcast,2500.0,,OVC,2500.0,,,,,,
KRDR,11-13-2002,13:49,SPECI,,160,12.0,,,6000.0,Light Snow/Cloud Development Not Observable,-4.0,-4.0,29.83,,,,,71,0,0,,,,,,,,,8/8 Overcast,2800.0,,OVC,2800.0,,,,,,
KRDR,11-13-2002,13:00,METAR,,180,12.0,,,6400.0,Light Snow/Cloud Development Not Observable,-5.0,-5.0,29.86,1013.4,,,,71,0,0,,,,,,,,,8/8 Overcast,3700.0,,BKN,3800.0,OVC,7900.0,,,,
KRDR,11-13-2002,12:00,METAR,,140,6.0,,,9999.0,Cloud Development Not Observable,-5.0,-5.0,29.89,1014.0,,,,0,0,0,,,,,,,,,8/8 Overcast,4400.0,,BKN,4500.0,OVC,7900.0,,,,
KRDR,11-13-2002,11:00,METAR,,150,7.0,,,9999.0,Cloud Development Not Observable,-6.0,-6.0,29.93,1015.4,,,,0,0,0,,,,,,,,,8/8 Overcast,5500.0,,BKN,5400.0,OVC,7900.0,,,,
KRDR,11-13-2002,10:00,METAR,,160,8.0,,,9999.0,Cloud Development Not Observable,-7.0,-7.0,29.95,1016.3,,,,0,0,0,,,,,,,,,8/8 Overcast,8000.0,,SCT,5400.0,BKN,7900.0,OVC,20000.0,,
KRDR,11-13-2002,09:00,METAR,,190,8.0,,,9999.0,Cloud Development Not Observable,-7.0,-7.0,29.99,1017.4,,,,0,0,0,,,,,,,,,8/8 Overcast,8000.0,,FEW,5400.0,BKN,7900.0,OVC,20000.0,,
KRDR,11-13-2002,08:00,METAR,,170,8.0,,,9999.0,Cloud Development Not Observable,-8.0,-8.0,30.01,1012.2,,,,0,0,0,,,,,,,,,8/8 Overcast,20000.0,,SCT,7900.0,OVC,20000.0,,,,
KRDR,11-13-2002,06:00,METAR,,190,7.0,,,9999.0,Cloud Development Not Observable,-10.0,-10.0,30.04,1019.6,,,,0,0,0,,,,,,,,,8/8 Overcast,20000.0,,OVC,20000.0,,,,,,
KRDR,11-13-2002,05:00,METAR,,110,7.0,,,9999.0,Cloud Development Not Observable,-10.0,-10.0,30.08,1020.7,,,,0,0,0,,,,,,,,,7/8 Mostly Cloudy,20000.0,,BKN,20000.0,,,,,,
KRDR,11-13-2002,04:00,METAR,,130,7.0,,,9999.0,Cloud Development Not Observable,-11.0,-11.0,30.09,1021.2,,,,0,0,0,,,,,,,,,7/8 Mostly Cloudy,20000.0,,BKN,20000.0,,,,,,
KRDR,11-13-2002,03:00,METAR,,130,6.0,,,9999.0,Cloud Development Not Observable,-10.0,-10.0,30.12,1022.0,,,,0,0,0,,,,,,,,,7/8 Mostly Cloudy,20000.0,,BKN,20000.0,,,,,,
KRDR,11-13-2002,02:00,METAR,,140,4.0,,,9999.0,Cloud Development Not Observable,-10.0,-10.0,30.12,1022.2,,,,0,0,0,,,,,,,,,7/8 Mostly Cloudy,20000.0,,BKN,20000.0,,,,,,
KRDR,11-13-2002,01:00,METAR,,140,4.0,,,9999.0,Cloud Development Not Observable,-9.0,-9.0,30.15,1023.0,,,,0,0,0,,,,,,,,,7/8 Mostly Cloudy,20000.0,,BKN,20000.0,,,,,,
KRDR,11-13-2002,00:00,METAR,,140,3.0,,,9999.0,Cloud Development Not Observable,-8.0,-9.0,30.17,1023.5,,,,0,0,0,,,,,,,,,7/8 Mostly Cloudy,20000.0,,FEW,2000.0,BKN,20000.0,,,,
KRDR,11-12-2002,23:00,METAR,,30,7.0,,,9999.0,Cloud Development Not Observable,-7.0,-9.0,30.16,1023.1,,,,0,0,0,,,,,,,,,4/8 Partly Cloudy,72000.0,,SCT,2000.0,SCT,20000.0,,,,
KRDR,11-12-2002,22:00,METAR,,320,7.0,,,9999.0,Cloud Development Not Observable,-5.0,-8.0,30.16,1023.0,,,,0,0,0,,,,,,,,,4/8 Partly Cloudy,72000.0,,FEW,2500.0,SCT,5000.0,,,,
KRDR,11-12-2002,20:00,METAR,,330,10.0,,,9999.0,Cloud Development Not Observable,-5.0,-8.0,30.17,1023.4,,,,0,0,0,,,,,,,,,7/8 Mostly Cloudy,3000.0,,FEW,2000.0,SCT,3000.0,BKN,20000.0,,
KRDR,11-12-2002,19:00,METAR,,10,11.0,,,9999.0,Cloud Development Not Observable,-5.0,-8.0,30.17,1023.4,,,,0,0,0,,,,,,,,,7/8 Mostly Cloudy,3000.0,,FEW,2000.0,SCT,3000.0,BKN,20000.0,,
KRDR,11-12-2002,18:00,METAR,,360,13.0,,,9999.0,Cloud Development Not Observable,-6.0,-8.0,30.17,1023.4,,,,0,0,0,,,,,,,IN,,4/8 Partly Cloudy,72000.0,,FEW,2000.0,SCT,20000.0,,,,
KRDR,11-12-2002,17:14,SPECI,,360,13.0,,,9999.0,Cloud Development Not Observable,-6.0,-7.0,30.17,,,,,0,0,0,,,,,,,,,7/8 Mostly Cloudy,20000.0,,SCT,1500.0,BKN,20000.0,,,,
KRDR,11-12-2002,17:00,METAR,,360,14.0,,,9999.0,Light Snow/Cloud Development Not Observable,-6.0,-7.0,30.16,1023.3,,,,71,0,0,,,,,,,,,7/8 Mostly Cloudy,1500.0,,BKN,1500.0,BKN,2000.0,,,,
KRDR,11-12-2002,16:00,METAR,,10,16.0,,,8000.0,Light Snow/Cloud Development Not Observable,-5.0,-6.0,30.13,1022.2,,,,71,0,0,,,,,,,,,8/8 Overcast,1500.0,,SCT,800.0,BKN,1500.0,OVC,2000.0,,
KRDR,11-12-2002,15:44,SPECI,,10,17.0,,,9999.0,Light Snow/Cloud Development Not Observable,-5.0,-5.0,30.13,,,,,71,0,0,,,,,,,,,8/8 Overcast,1500.0,,FEW,800.0,BKN,1500.0,OVC,2500.0,,
KRDR,11-12-2002,15:00,METAR,,360,16.0,22.0,,9999.0,Cloud Development Not Observable,-4.0,-5.0,30.10,1020.9,,,,0,0,0,,,,,,TRACE,,,7/8 Mostly Cloudy,1800.0,,FEW,1200.0,BKN,1800.0,BKN,3500.0,,
KRDR,11-12-2002,14:37,SPECI,,350,15.0,,,9999.0,Light Snow/Cloud Development Not Observable,-4.0,-5.0,30.09,,,,,71,0,0,,,,,,,,,8/8 Overcast,1200.0,,FEW,800.0,BKN,1200.0,OVC,2500.0,,
KRDR,11-12-2002,14:15,SPECI,,360,16.0,,,9999.0,Cloud Development Not Observable,-4.0,-4.0,30.06,,,,,0,0,0,,,,,,,,,8/8 Overcast,1500.0,,BKN,1500.0,OVC,3500.0,,,,
KRDR,11-12-2002,14:00,METAR,,360,13.0,,,9999.0,Cloud Development Not Observable,-4.0,-4.0,30.05,1019.6,,,,0,0,0,,,,,,,,,8/8 Overcast,3200.0,,FEW,1000.0,OVC,3300.0,,,,
KRDR,11-12-2002,13:40,SPECI,,350,13.0,,,9999.0,Cloud Development Not Observable,-4.0,-4.0,30.05,,,,,0,0,0,,,,,,,,,8/8 Overcast,3200.0,,SCT,1000.0,OVC,3300.0,,,,
KRDR,11-12-2002,13:28,SPECI,,360,15.0,,,9999.0,Light Snow/Cloud Development Not Observable,-4.0,-4.0,30.04,,,,,71,0,0,,,,,,,,,8/8 Overcast,1500.0,,SCT,1000.0,BKN,1500.0,OVC,2400.0,,
KRDR,11-12-2002,13:00,METAR,,360,19.0,24.0,,9999.0,Light Snow/Cloud Development Not Observable,-3.0,-3.0,30.01,1018.1,,,,71,0,0,,,,,,,,,8/8 Overcast,1700.0,,FEW,900.0,OVC,1700.0,,,,
KRDR,11-12-2002,12:26,SPECI,,350,15.0,,,4800.0,Light Snow/Cloud Development Not Observable,-1.0,-1.0,29.98,,,,,71,0,0,,,,,,,,,8/8 Overcast,1200.0,,BKN,1200.0,OVC,3000.0,,,,
KRDR,11-12-2002,12:15,SPECI,,330,12.0,,,4800.0,Light Snow/Cloud Development Not Observable,-1.0,-1.0,29.98,,,,,71,0,0,,,,,,,,,8/8 Overcast,1900.0,,FEW,1400.0,OVC,1900.0,,,,
KRDR,11-12-2002,12:08,SPECI,,330,11.0,,,6400.0,Light Snow/Cloud Development Not Observable,0.0,0.0,29.97,,,,,71,0,0,,,,,,,,,8/8 Overcast,1400.0,,SCT,700.0,BKN,1400.0,OVC,3000.0,,
KRDR,11-12-2002,12:00,METAR,,310,10.0,,,6400.0,Light Snow/Cloud Development Not Observable,0.0,0.0,29.96,1016.3,,,,71,0,0,,,,,,,IN,,8/8 Overcast,2100.0,,BKN,2100.0,BKN,3100.0,OVC,6400.0,,
KRDR,11-12-2002,11:00,METAR,,280,7.0,,,9999.0,Light Snow/Cloud Development Not Observable,0.0,-1.0,29.94,1015.6,,,,71,0,0,,,,,,,,,8/8 Overcast,2100.0,,BKN,2100.0,OVC,9400.0,,,,
KRDR,11-12-2002,10:48,SPECI,,270,8.0,,,9999.0,Light Snow/Cloud Development Not Observable,0.0,-1.0,29.94,,,,,71,0,0,,,,,,,,,8/8 Overcast,9500.0,,SCT,2400.0,OVC,9400.0,,,,
KRDR,11-12-2002,10:00,METAR,,260,7.0,,,9999.0,Cloud Development Not Observable,0.0,-1.0,29.94,1015.3,,,,0,0,0,,,,,,,,,7/8 Mostly Cloudy,9000.0,,BKN,8900.0,,,,,,
KRDR,11-12-2002,09:00,METAR,,190,9.0,,,9999.0,Cloud Development Not Observable,0.0,-1.0,29.91,1014.4,,,,0,0,0,,,,,,,,,7/8 Mostly Cloudy,9000.0,,BKN,8900.0,,,,,,
KRDR,11-12-2002,08:00,METAR,,210,8.0,,,9999.0,Cloud Development Not Observable,-1.0,-2.0,29.95,1015.9,,,,0,0,0,,,,,,,,,8/8 Overcast,7500.0,,OVC,7400.0,,,,,,
KRDR,11-12-2002,07:00,METAR,,200,8.0,,,9999.0,Cloud Development Not Observable,-1.0,-2.0,29.95,1015.7,,,,0,0,0,,,,,,,,,8/8 Overcast,15000.0,,SCT,8900.0,OVC,15000.0,,,,
KRDR,11-12-2002,05:55,METAR,,200,10.0,,,9999.0,Cloud Development Not Observable,-1.0,-2.0,29.98,1016.8,,,,0,0,0,,,,,,,,,7/8 Mostly Cloudy,9000.0,,BKN,8900.0,,,,,,
KRDR,11-12-2002,05:00,METAR,,190,9.0,,,9999.0,Cloud Development Not Observable,-1.0,-2.0,29.99,1017.3,,,,0,0,0,,,,,,,,,7/8 Mostly Cloudy,10000.0,,FEW,5400.0,BKN,9900.0,,,,
KRDR,11-12-2002,04:00,METAR,,200,13.0,,,9999.0,Cloud Development Not Observable,-1.0,-3.0,30.01,1017.9,,,,0,0,0,,,,,,,,,8/8 Overcast,5500.0,,OVC,5400.0,,,,,,
KRDR,11-12-2002,03:00,METAR,,200,7.0,,,9999.0,Cloud Development Not Observable,-1.0,-3.0,30.02,1018.6,,,,0,0,0,,,,,,,,,8/8 Overcast,6000.0,,OVC,5900.0,,,,,,
KRDR,11-12-2002,02:00,METAR,,210,6.0,,,9999.0,Cloud Development Not Observable,-2.0,-3.0,30.03,1018.9,,,,0,0,0,,,,,,,,,8/8 Overcast,6000.0,,OVC,5900.0,,,,,,
KRDR,11-12-2002,01:00,METAR,,190,8.0,,,9999.0,Cloud Development Not Observable,-2.0,-4.0,30.03,1018.9,,,,0,0,0,,,,,,,,,7/8 Mostly Cloudy,6000.0,,SCT,3000.0,BKN,5900.0,,,,
KRDR,11-12-2002,00:49,SPECI,,240,7.0,,,9999.0,Cloud Development Not Observable,-2.0,-4.0,30.04,,,,,0,0,0,,,,,,,,,7/8 Mostly Cloudy,6000.0,,SCT,3000.0,BKN,5900.0,,,,
KRDR,11-12-2002,00:00,METAR,,250,6.0,,,9999.0,Cloud Development Not Observable,-2.0,-4.0,30.05,1019.5,,,,0,0,0,,,,,,,,,8/8 Overcast,2700.0,,OVC,2700.0,,,,,,
KRDR,11-11-2002,23:00,METAR,,260,8.0,,,9999.0,Cloud Development Not Observable,-2.0,-4.0,30.05,1019.5,,,,0,0,0,,,,,,,,,8/8 Overcast,2800.0,,OVC,2800.0,,,,,,
KRDR,11-11-2002,22:00,METAR,,270,14.0,,,9999.0,Cloud Development Not Observable,-1.0,-4.0,30.04,1019.2,,,,0,0,0,,,,,,,,,7/8 Mostly Cloudy,2900.0,,BKN,2900.0,,,,,,
KRDR,11-11-2002,21:00,METAR,,290,12.0,,,9999.0,Cloud Development Not Observable,-1.0,-4.0,30.02,1018.5,,,,0,0,0,,,,,,,,,8/8 Overcast,2800.0,,OVC,2800.0,,,,,,
KRDR,11-11-2002,20:00,METAR,,260,6.0,,,9999.0,Cloud Development Not Observable,-1.0,-3.0,30.01,1018.1,,,,0,0,0,,,,,,,,,8/8 Overcast,2600.0,,BKN,2600.0,OVC,5000.0,,,,
KRDR,11-11-2002,19:03,SPECI,,270,7.0,,,9999.0,Cloud Development Not Observable,-1.0,-3.0,30.01,,,,,0,0,0,,,,,,,,,7/8 Mostly Cloudy,2600.0,,BKN,2600.0,BKN,5000.0,,,,
KRDR,11-11-2002,19:00,METAR,,240,8.0,,,9999.0,Cloud Development Not Observable,-1.0,-3.0,30.01,1018.0,,,,0,0,0,,,,,,,,,7/8 Mostly Cloudy,4900.0,,SCT,2300.0,BKN,5000.0,,,,
KRDR,11-11-2002,18:00,METAR,,210,8.0,,,9999.0,Cloud Development Not Observable,-1.0,-3.0,30.02,1018.4,,,,0,0,0,,,,,,,,,8/8 Overcast,4900.0,,FEW,1200.0,OVC,5000.0,,,,
KRDR,11-11-2002,17:00,METAR,,200,8.0,,,9999.0,Cloud Development Not Observable,-2.0,-4.0,30.02,1018.6,,,,0,0,0,,,,,,,,,2/8 Mostly Clear,72000.0,,FEW,2500.0,,,,,,
KRDR,11-11-2002,16:00,METAR,,200,7.0,,,9999.0,Cloud Development Not Observable,-3.0,-5.0,30.02,1018.5,,,,0,0,0,,,,,,,,,8/8 Overcast,3900.0,,FEW,2500.0,OVC,4000.0,,,,
KRDR,11-11-2002,14:00,METAR,,210,4.0,,,9999.0,Cloud Development Not Observable,-4.0,-5.0,29.99,1017.5,,,,0,0,0,,,,,,,,,8/8 Overcast,3400.0,,BKN,3500.0,OVC,5000.0,,,,
KRDR,11-11-2002,13:00,METAR,,230,3.0,,,9999.0,Cloud Development Not Observable,-5.0,-5.0,29.96,1016.6,,,,0,0,0,,,,,,,,,8/8 Overcast,5500.0,,OVC,5400.0,,,,,,
KRDR,11-11-2002,12:00,METAR,,310,4.0,,,9999.0,Cloud Development Not Observable,-5.0,-6.0,29.96,1016.5,,,,0,0,0,,,,,,,,,8/8 Overcast,6000.0,,OVC,5900.0,,,,,,
KRDR,11-11-2002,11:00,METAR,,260,5.0,,,9999.0,Cloud Development Not Observable,-6.0,-6.0,29.93,1015.7,,,,0,0,0,,,,,,,,,8/8 Overcast,6500.0,,OVC,6400.0,,,,,,
KRDR,11-11-2002,10:00,METAR,,260,3.0,,,9999.0,Cloud Development Not Observable,-6.0,-6.0,29.92,1015.2,,,,0,0,0,,,,,,,,,8/8 Overcast,6500.0,,OVC,6400.0,,,,,,
KRDR,11-11-2002,08:00,METAR,,310,5.0,,,9999.0,Cloud Development Not Observable,-7.0,-7.0,29.90,1014.4,,,,0,0,0,,,,,,,,,7/8 Mostly Cloudy,7500.0,,BKN,7400.0,,,,,,
KRDR,11-11-2002,07:00,METAR,,310,5.0,,,9999.0,Cloud Development Not Observable,-6.0,-6.0,29.89,1014.1,,,,0,0,0,,,,,,,,,8/8 Overcast,10000.0,,OVC,9900.0,,,,,,
KRDR,11-11-2002,06:00,METAR,,310,6.0,,,9999.0,Cloud Development Not Observable,-8.0,-8.0,29.87,1013.8,,,,0,0,0,,,,,,,,,7/8 Mostly Cloudy,20000.0,,SCT,9900.0,BKN,20000.0,,,,
KRDR,11-11-2002,05:00,METAR,,320,7.0,,,9999.0,Cloud Development Not Observable,-7.0,-7.0,29.86,1013.3,,,,0,0,0,,,,,,,,,7/8 Mostly Cloudy,20000.0,,SCT,11000.0,BKN,20000.0,,,,
KRDR,11-11-2002,04:00,METAR,,330,8.0,,,9999.0,Cloud Development Not Observable,-7.0,-7.0,29.85,1013.1,,,,0,0,0,,,,,,,,,7/8 Mostly Cloudy,20000.0,,FEW,11000.0,BKN,20000.0,,,,
KRDR,11-11-2002,03:00,METAR,,350,10.0,,,9999.0,Cloud Development Not Observable,-6.0,-7.0,29.85,1013.0,,,,0,0,0,,,,,,,,,7/8 Mostly Cloudy,20000.0,,SCT,11000.0,BKN,20000.0,,,,
KRDR,11-11-2002,02:00,METAR,,350,9.0,,,9999.0,Cloud Development Not Observable,-6.0,-7.0,29.84,1012.5,,,,0,0,0,,,,,,,,,7/8 Mostly Cloudy,20000.0,,SCT,6900.0,BKN,20000.0,,,,
KRDR,11-11-2002,01:00,METAR,,350,8.0,,,9999.0,Cloud Development Not Observable,-6.0,-8.0,29.83,1012.3,,,,0,0,0,,,,,,,,,7/8 Mostly Cloudy,20000.0,,SCT,6900.0,BKN,20000.0,,,,
KRDR,11-11-2002,00:00,METAR,,350,6.0,,,9999.0,Cloud Development Not Observable,-8.0,-8.0,29.80,1011.2,,,,0,0,0,,,,,,,.01 IN,,7/8 Mostly Cloudy,7000.0,,FEW,1200.0,SCT,6900.0,BKN,20000.0,,
KRDR,11-10-2002,23:00,METAR,,360,5.0,,,9999.0,Cloud Development Not Observable,-8.0,-8.0,29.79,1010.7,,,,0,0,0,,,,,,,,,7/8 Mostly Cloudy,7000.0,,FEW,1200.0,SCT,6900.0,BKN,20000.0,,
KRDR,11-10-2002,22:15,SPECI,,360,7.0,,,9999.0,Cloud Development Not Observable,-5.0,-5.0,29.77,,,,,0,0,0,,,,,,,,,7/8 Mostly Cloudy,4900.0,,FEW,1200.0,SCT,5000.0,BKN,20000.0,,
KRDR,11-10-2002,22:00,METAR,,10,10.0,,,9999.0,Cloud Development Not Observable,-5.0,-5.0,29.76,1009.5,,,,0,0,0,,,,,,,,,7/8 Mostly Cloudy,1200.0,,BKN,1200.0,BKN,20000.0,,,,
KRDR,11-10-2002,21:00,METAR,,360,12.0,,,9999.0,Cloud Development Not Observable,-6.0,-6.0,29.75,1009.1,,,,0,0,0,,,,,,.01 IN,,,8/8 Overcast,800.0,,OVC,800.0,,,,,,
KRDR,11-10-2002,20:18,SPECI,,340,15.0,,,9999.0,Cloud Development Not Observable,-6.0,-6.0,29.74,,,,,0,0,0,,,,,,,,,8/8 Overcast,700.0,,OVC,700.0,,,,,,
KRDR,11-10-2002,20:00,METAR,,350,15.0,,,9999.0,Light Snow/Cloud Development Not Observable,-6.0,-6.0,29.73,1008.4,,,,71,0,0,,,,,,,,,8/8 Overcast,700.0,,OVC,700.0,,,,,,
KRDR,11-10-2002,19:00,METAR,,350,17.0,,,9999.0,Light Snow/Cloud Development Not Observable,-5.0,-5.0,29.72,1008.0,,,,71,0,0,,,,,,,,,8/8 Overcast,700.0,,OVC,700.0,,,,,,
KRDR,11-10-2002,18:00,METAR,,340,16.0,,,9999.0,Light Snow/Cloud Development Not Observable,-6.0,-6.0,29.71,1007.7,,,,71,0,0,,,,,,,.02 IN,,8/8 Overcast,700.0,,OVC,700.0,,,,,,
KRDR,11-10-2002,17:00,METAR,,360,17.0,24.0,350/26KTS,9999.0,Light Snow/Cloud Development Not Observable,-6.0,-6.0,29.70,1007.3,,,,71,0,0,,,,,,,,,8/8 Overcast,700.0,,OVC,700.0,,,,,,
KRDR,11-10-2002,16:00,METAR,,360,21.0,,340/28KTS,8000.0,Light Snow/Cloud Development Not Observable,-7.0,-7.0,29.66,1006.2,,,,71,0,0,,,,,,,,,8/8 Overcast,700.0,,OVC,700.0,,,,,,
KRDR,11-10-2002,15:42,SPECI,,350,22.0,28.0,,4000.0,Light Snow/Blowing Snow/Cloud Development Not Observable,-7.0,-7.0,29.66,,,,,71,38,0,,,,,,,,,8/8 Overcast,700.0,,OVC,700.0,,,,,,
KRDR,11-10-2002,15:30,METAR,,350,21.0,28.0,,2400.0,Light Snow/Blowing Snow/Cloud Development Not Observable,-7.0,-7.0,29.65,,,,,71,38,0,,,,,,,,,8/8 Overcast,600.0,,OVC,600.0,,,,,,
KRDR,11-10-2002,15:00,METAR,,350,21.0,26.0,,4800.0,Light Snow/Blowing Snow/Cloud Development Not Observable,-7.0,-7.0,29.64,1005.4,,,,71,38,0,,,,,,.01 IN,,,8/8 Overcast,600.0,,OVC,600.0,,,,,,
KRDR,11-10-2002,14:24,SPECI,,350,19.0,25.0,,6400.0,Light Snow/Cloud Development Not Observable,-7.0,-7.0,29.63,,,,,71,0,0,,,,,,,,,8/8 Overcast,600.0,,OVC,600.0,,,,,,
KRDR,11-10-2002,14:00,METAR,,350,17.0,24.0,350/26KTS,8000.0,Light Snow/Cloud Development Not Observable,-6.0,-6.0,29.62,1004.7,,,,71,0,0,,,,,,,,,8/8 Overcast,700.0,,OVC,700.0,,,,,,
KRDR,11-10-2002,13:00,METAR,,340,20.0,26.0,340/29KTS,9999.0,Diamond Dust/Light Snow/Cloud Development Not Observable,-6.0,-6.0,29.58,1003.4,,,,71,76,0,,,,,,,,,8/8 Overcast,900.0,,OVC,900.0,,,,,,
KRDR,11-10-2002,12:35,SPECI,,350,20.0,,,9999.0,Light Snow/Cloud Development Not Observable,-5.0,-5.0,29.57,,,,,71,0,0,,,,,,,,,8/8 Overcast,900.0,,OVC,900.0,,,,,,
KRDR,11-10-2002,12:00,METAR,,350,20.0,26.0,350/27KTS,9999.0,Light Snow/Cloud Development Not Observable,-5.0,-5.0,29.56,1002.4,,,,71,0,0,,,,,,,IN,.12 IN,8/8 Overcast,600.0,,OVC,600.0,,,,,,
KRDR,11-10-2002,11:00,METAR,,350,19.0,27.0,350/29KTS,9999.0,Cloud Development Not Observable,-4.0,-4.0,29.52,1000.9,,,,0,0,0,,,,,,,,,8/8 Overcast,800.0,,OVC,800.0,,,,,,
KRDR,11-10-2002,10:00,METAR,,350,22.0,26.0,,9999.0,Cloud Development Not Observable,-3.0,-3.0,29.48,999.9,,,,0,0,0,,,,,,,,,8/8 Overcast,800.0,,OVC,800.0,,,,,,
KRDR,11-10-2002,09:00,METAR,,350,16.0,,,9999.0,Cloud Development Not Observable,-2.0,-2.0,29.46,999.2,,,,0,0,0,,,,,,TRACE,,,8/8 Overcast,800.0,,OVC,800.0,,,,,,
KRDR,11-10-2002,08:00,METAR,,350,17.0,,,9999.0,Cloud Development Not Observable,-2.0,-2.0,29.43,998.1,,,,0,0,0,,,,,,,,,8/8 Overcast,800.0,,OVC,800.0,,,,,,
KRDR,11-10-2002,07:38,SPECI,,350,16.0,24.0,,9999.0,Cloud Development Not Observable,-2.0,-2.0,29.43,,,,,0,0,0,,,,,,,,,8/8 Overcast,800.0,,OVC,800.0,,,,,,
KRDR,11-10-2002,07:00,METAR,,350,18.0,,,9999.0,Light Snow/Cloud Development Not Observable,-2.0,-2.0,29.41,997.4,,,,71,0,0,,,,,,,,,8/8 Overcast,600.0,,OVC,600.0,,,,,,
KRDR,11-10-2002,06:35,SPECI,,350,17.0,,,9999.0,Light Snow/Cloud Development Not Observable,-2.0,-2.0,29.41,,,,,71,0,0,,,,,,,,,8/8 Overcast,600.0,,OVC,600.0,,,,,,
KRDR,11-10-2002,06:00,METAR,,350,18.0,23.0,,9999.0,Light Snow/Cloud Development Not Observable,-2.0,-2.0,29.39,996.7,,,,71,0,0,,,,,,,.11 IN,,8/8 Overcast,500.0,,OVC,500.0,,,,,,
KRDR,11-10-2002,05:16,SPECI,,360,15.0,,,8000.0,Light Snow/Mist/Cloud Development Not Observable,-1.0,-1.0,29.38,,,,,71,10,0,,,,,,,,,8/8 Overcast,500.0,,OVC,500.0,,,,,,
KRDR,11-10-2002,05:00,METAR,,360,16.0,21.0,,8000.0,Light Snow/Mist/Cloud Development Not Observable,-1.0,-1.0,29.37,995.8,,,,71,10,0,,,,,,,,,8/8 Overcast,400.0,,OVC,400.0,,,,,,
KRDR,11-10-2002,04:00,METAR,,350,19.0,22.0,,4800.0,Light Snow/Mist/Cloud Development Not Observable,-1.0,-1.0,29.36,995.6,,,,71,10,0,,,,,,,,,8/8 Overcast,400.0,,OVC,400.0,,,,,,
KRDR,11-10-2002,03:00,METAR,,340,11.0,,,4800.0,Ice Pellets/Light Snow/Mist,0.0,0.0,29.34,994.9,,,,71,79,10,,,,,,.05 IN,,,8/8 Overcast,400.0,,OVC,400.0,,,,,,
KRDR,11-10-2002,02:24,SPECI,,330,8.0,,,4800.0,Ice Pellets/Mist/Cloud Development Not Observable,0.0,0.0,29.34,,,,,79,10,0,,,,,,,,,8/8 Overcast,400.0,,OVC,400.0,,,,,,
KRDR,11-10-2002,02:00,METAR,,350,8.0,,,4800.0,Light Snow/Rain/Mist,0.0,0.0,29.33,994.4,,,,61,71,10,,,,,,,,,8/8 Overcast,400.0,,OVC,400.0,,,,,,
KRDR,11-10-2002,01:10,SPECI,,350,11.0,,,6400.0,Mist/Cloud Development Not Observable,1.0,1.0,29.32,,,,,10,0,0,,,,,,,,,8/8 Overcast,400.0,,OVC,400.0,,,,,,
KRDR,11-10-2002,01:00,METAR,,350,11.0,,,6400.0,Light Snow/Rain/Mist,1.0,1.0,29.32,994.0,,,,61,71,10,,,,,,,,,8/8 Overcast,400.0,,OVC,400.0,,,,,,
KRDR,11-10-2002,00:40,SPECI,,340,9.0,,,8000.0,Mist/Cloud Development Not Observable,1.0,1.0,29.31,,,,,10,0,0,,,,,,,,,8/8 Overcast,500.0,,OVC,500.0,,,,,,
KRDR,11-10-2002,00:15,SPECI,,340,11.0,,,8000.0,Mist/Cloud Development Not Observable,2.0,2.0,29.30,,,,,10,0,0,,,,,,,,,8/8 Overcast,1000.0,,OVC,1000.0,,,,,,
KRDR,11-10-2002,00:00,METAR,,330,9.0,,,8000.0,Mist/Cloud Development Not Observable,2.0,2.0,29.28,993.0,,,,10,0,0,,,,,,,,,8/8 Overcast,900.0,,OVC,900.0,,,,,,
KRDR,11-09-2002,23:00,METAR,,320,10.0,,,8000.0,Mist/Cloud Development Not Observable,3.0,2.0,29.26,992.3,,,,10,0,0,,,,,,,,,8/8 Overcast,800.0,,OVC,800.0,,,,,,
KRDR,11-09-2002,21:59,METAR,,310,9.0,,,9999.0,Mist/Cloud Development Not Observable,3.0,3.0,29.24,991.4,,,,10,0,0,,,,,,,,,8/8 Overcast,72000.0,,OVC,0.0,,,,,,
KRDR,11-09-2002,21:00,METAR,,300,9.0,,,9999.0,Mist/Cloud Development Not Observable,3.0,3.0,29.22,990.9,,,,10,0,0,,,,,,,,,8/8 Overcast,800.0,,OVC,800.0,,,,,,
KRDR,11-09-2002,20:00,METAR,,310,6.0,,,9999.0,Mist/Cloud Development Not Observable,3.0,3.0,29.20,990.2,,,,10,0,0,,,,,,,,,8/8 Overcast,700.0,,OVC,700.0,,,,,,
KRDR,11-09-2002,19:00,METAR,,,4.0,,,9999.0,Mist/Cloud Development Not Observable,3.0,3.0,29.20,990.0,,,,10,0,0,,,,,,,,,8/8 Overcast,700.0,,OVC,700.0,,,,,,
KRDR,11-09-2002,18:35,SPECI,,310,6.0,,,9999.0,Mist/Cloud Development Not Observable,3.0,3.0,29.20,,,,,10,0,0,,,,,,,,,8/8 Overcast,700.0,,OVC,700.0,,,,,,
KRDR,11-09-2002,18:15,SPECI,,290,4.0,,,9999.0,Mist/Cloud Development Not Observable,3.0,3.0,29.20,,,,,10,0,0,,,,,,,,,8/8 Overcast,600.0,,OVC,600.0,,,,,,
KRDR,11-09-2002,18:00,METAR,,,6.0,,,8000.0,Mist/Cloud Development Not Observable,3.0,3.0,29.20,990.1,,,,10,0,0,,,,,,,.01 IN,,8/8 Overcast,400.0,,OVC,400.0,,,,,,
KRDR,11-09-2002,17:00,METAR,,230,5.0,,,4800.0,Mist/Cloud Development Not Observable,3.0,3.0,29.21,990.4,,,,10,0,0,,,,,,,,,8/8 Overcast,400.0,,OVC,400.0,,,,,,
KRDR,11-09-2002,16:40,SPECI,,240,4.0,,,4800.0,Mist/Cloud Development Not Observable,3.0,3.0,29.20,,,,,10,0,0,,,,,,,,,8/8 Overcast,400.0,,OVC,400.0,,,,,,
KRDR,11-09-2002,16:00,METAR,,190,5.0,,,6400.0,Mist/Cloud Development Not Observable,3.0,3.0,29.22,991.0,,,,10,0,0,,,,,,,,,8/8 Overcast,600.0,,OVC,600.0,,,,,,
KRDR,11-09-2002,15:15,SPECI,,160,4.0,,,4800.0,Mist/Cloud Development Not Observable,2.0,2.0,29.21,,,,,10,0,0,,,,,,,,,8/8 Overcast,600.0,,OVC,600.0,,,,,,
KRDR,11-09-2002,15:00,METAR,,150,6.0,,,4800.0,Mist/Cloud Development Not Observable,2.0,2.0,29.20,990.2,,,,10,0,0,,,,,,.01 IN,,,8/8 Overcast,800.0,,OVC,800.0,,,,,,
KRDR,11-09-2002,14:15,SPECI,,150,6.0,,,6400.0,Mist/Cloud Development Not Observable,2.0,2.0,29.21,,,,,10,0,0,,,,,,,,,8/8 Overcast,800.0,,OVC,800.0,,,,,,
KRDR,11-09-2002,14:00,METAR,,160,5.0,,,6400.0,Mist/Cloud Development Not Observable,2.0,2.0,29.22,990.8,,,,10,0,0,,,,,,,,,8/8 Overcast,1100.0,,OVC,1100.0,,,,,,
KRDR,11-09-2002,13:00,METAR,,80,8.0,,,9999.0,Mist/Cloud Development Not Observable,1.0,1.0,29.20,990.2,,,,10,0,0,,,,,,,,,8/8 Overcast,1300.0,,OVC,1300.0,,,,,,
KRDR,11-09-2002,12:35,SPECI,,70,6.0,,,9999.0,Mist/Cloud Development Not Observable,1.0,1.0,29.21,,,,,10,0,0,,,,,,,,,8/8 Overcast,1400.0,,OVC,1400.0,,,,,,
KRDR,11-09-2002,12:22,SPECI,,,5.0,,,9999.0,Mist/Cloud Development Not Observable,0.0,0.0,29.22,,,,,10,0,0,,,,,,,,,8/8 Overcast,1400.0,,OVC,1400.0,,,,,,
KRDR,11-09-2002,12:07,SPECI,,,5.0,,,9999.0,Rain/Mist/Cloud Development Not Observable,0.0,0.0,29.22,,,,,61,10,0,,,,,,,,,8/8 Overcast,1500.0,,OVC,1500.0,,,,,,
KRDR,11-09-2002,12:00,METAR,,,2.0,,,9999.0,Cloud Development Not Observable,0.0,0.0,29.24,991.1,,,,0,0,0,,,,,,,,,8/8 Overcast,1600.0,,BKN,1600.0,OVC,8900.0,,,,
KRDR,11-09-2002,11:40,SPECI,,,6.0,,,9999.0,Cloud Development Not Observable,-1.0,-1.0,29.23,,,,,0,0,0,,,,,,,,,8/8 Overcast,1700.0,,BKN,1700.0,OVC,8900.0,,,,
KRDR,11-09-2002,11:00,METAR,,50,3.0,,,9999.0,Cloud Development Not Observable,-1.0,-1.0,29.23,991.1,,,,0,0,0,,,,,,,,,8/8 Overcast,20000.0,,FEW,11000.0,OVC,20000.0,,,,
KRDR,11-09-2002,10:00,METAR,,,3.0,,,9999.0,Cloud Development Not Observable,-1.0,-1.0,29.25,991.8,,,,0,0,0,,,,,,,,,8/8 Overcast,20000.0,,FEW,11000.0,OVC,20000.0,,,,
KRDR,11-09-2002,09:00,METAR,,,4.0,,,9999.0,Cloud Development Not Observable,-1.0,-1.0,29.26,992.2,,,,0,0,0,,,,,,,,,8/8 Overcast,20000.0,,SCT,11000.0,OVC,20000.0,,,,
KRDR,11-09-2002,08:00,METAR,,80,5.0,,,9999.0,Cloud Development Not Observable,-1.0,-1.0,29.27,992.5,,,,0,0,0,,,,,,,,,8/8 Overcast,20000.0,,OVC,20000.0,,,,,,
KRDR,11-09-2002,07:00,METAR,,70,5.0,,,9999.0,Cloud Development Not Observable,-1.0,-1.0,29.31,993.9,,,,0,0,0,,,,,,,,,8/8 Overcast,20000.0,,OVC,20000.0,,,,,,
KRDR,11-09-2002,06:00,METAR,,300,3.0,,,9999.0,Cloud Development Not Observable,-3.0,-3.0,29.35,995.2,,,,0,0,0,,,,,,,,,8/8 Overcast,20000.0,,OVC,20000.0,,,,,,
KRDR,11-09-2002,05:00,METAR,,10,5.0,,,9999.0,Cloud Development Not Observable,-3.0,-3.0,29.38,996.3,,,,0,0,0,,,,,,,,,8/8 Overcast,20000.0,,OVC,20000.0,,,,,,
KRDR,11-09-2002,04:00,METAR,,360,6.0,,,9999.0,Cloud Development Not Observable,-3.0,-3.0,29.40,997.2,,,,0,0,0,,,,,,,,,8/8 Overcast,20000.0,,OVC,20000.0,,,,,,
KRDR,11-09-2002,03:00,METAR,,360,5.0,,,9999.0,Cloud Development Not Observable,-4.0,-4.0,29.42,997.9,,,,0,0,0,,,,,,,,,8/8 Overcast,20000.0,,OVC,20000.0,,,,,,
KRDR,11-09-2002,02:00,METAR,,330,5.0,,,9999.0,Cloud Development Not Observable,-3.0,-3.0,29.44,998.7,,,,0,0,0,,,,,,,,,8/8 Overcast,20000.0,,OVC,20000.0,,,,,,
KRDR,11-09-2002,01:00,METAR,,30,4.0,,,9999.0,Cloud Development Not Observable,1.0,-2.0,29.46,999.1,,,,0,0,0,,,,,,,,,7/8 Mostly Cloudy,20000.0,,BKN,20000.0,,,,,,
KRDR,11-09-2002,00:00,METAR,,60,6.0,,,9999.0,Cloud Development Not Observable,1.0,-2.0,29.46,999.0,,,,0,0,0,,,,,,,,,7/8 Mostly Cloudy,20000.0,,BKN,20000.0,,,,,,
KRDR,11-08-2002,23:00,METAR,,60,8.0,,,9999.0,Cloud Development Not Observable,3.0,-1.0,29.47,999.5,,,,0,0,0,,,,,,,,,7/8 Mostly Cloudy,20000.0,,BKN,20000.0,,,,,,
KRDR,11-08-2002,22:00,METAR,,60,9.0,,,9999.0,Cloud Development Not Observable,4.0,-1.0,29.50,1000.3,,,,0,0,0,,,,,,,,,7/8 Mostly Cloudy,20000.0,,BKN,20000.0,,,,,,
KRDR,11-08-2002,21:00,METAR,,70,9.0,,,9999.0,Cloud Development Not Observable,5.0,-1.0,29.51,1000.7,,,,0,0,0,,,,,,,,,2/8 Mostly Clear,72000.0,,FEW,20000.0,,,,,,
KRDR,11-08-2002,20:00,METAR,,70,10.0,,,9999.0,Cloud Development Not Observable,4.0,-2.0,29.53,1001.2,,,,0,0,0,,,,,,,,,2/8 Mostly Clear,72000.0,,FEW,20000.0,,,,,,
KRDR,11-08-2002,19:00,METAR,,70,10.0,,,9999.0,Cloud Development Not Observable,4.0,-2.0,29.56,1002.1,,,,0,0,0,,,,,,,,,2/8 Mostly Clear,72000.0,,FEW,20000.0,,,,,,
KRDR,11-08-2002,17:55,METAR,,70,11.0,,,9999.0,Cloud Development Not Observable,2.0,-3.0,29.59,1003.3,,,,0,0,0,,,,,,,,,2/8 Mostly Clear,72000.0,,FEW,20000.0,,,,,,
KRDR,11-08-2002,17:00,METAR,,40,10.0,,,9999.0,Cloud Development Not Observable,1.0,-3.0,29.60,1003.8,,,,0,0,0,,,,,,,,,2/8 Mostly Clear,72000.0,,FEW,12000.0,FEW,20000.0,,,,
KRDR,11-08-2002,16:00,METAR,,10,9.0,,,9999.0,Cloud Development Not Observable,-1.0,-4.0,29.61,1004.0,,,,0,0,0,,,,,,,,,2/8 Mostly Clear,72000.0,,FEW,400.0,FEW,12000.0,FEW,20000.0,,
KRDR,11-08-2002,15:40,SPECI,,360,8.0,,,9999.0,Cloud Development Not Observable,-1.0,-4.0,29.61,,,,,0,0,0,,,,,,,,,4/8 Partly Cloudy,72000.0,,FEW,400.0,FEW,12000.0,SCT,20000.0,,
KRDR,11-08-2002,15:00,METAR,,10,10.0,,,9999.0,Cloud Development Not Observable,-3.0,-4.0,29.60,1003.9,,,,0,0,0,,,,,,,,,2/8 Mostly Clear,72000.0,,FEW,12000.0,FEW,20000.0,,,,
KRDR,11-08-2002,14:00,METAR,,10,8.0,,,9999.0,Cloud Development Not Observable,-4.0,-5.0,29.58,1003.1,,,,0,0,0,,,,,,,,,4/8 Partly Cloudy,72000.0,,FEW,12000.0,SCT,20000.0,,,,
KRDR,11-08-2002,13:00,METAR,,30,10.0,,,9999.0,Cloud Development Not Observable,-3.0,-4.0,29.59,1003.3,,,,0,0,0,,,,,,,,,2/8 Mostly Clear,12000.0,,SCT,12000.0,BKN,20000.0,,,,
KRDR,11-08-2002,12:00,METAR,,360,9.0,,,9999.0,Cloud Development Not Observable,-2.0,-3.0,29.59,1003.3,,,,0,0,0,,,,,,,,,7/8 Mostly Cloudy,20000.0,,BKN,20000.0,,,,,,
KRDR,11-08-2002,11:00,METAR,,10,9.0,,,9999.0,Cloud Development Not Observable,-1.0,-2.0,29.56,1002.3,,,,0,0,0,,,,,,,,,7/8 Mostly Cloudy,20000.0,,FEW,12000.0,BKN,20000.0,,,,
KRDR,11-08-2002,10:00,METAR,,360,9.0,,,9999.0,Cloud Development Not Observable,0.0,-1.0,29.57,1002.3,,,,0,0,0,,,,,,,,,7/8 Mostly Cloudy,20000.0,,SCT,12000.0,BKN,20000.0,,,,
KRDR,11-08-2002,09:00,METAR,,360,8.0,,,9999.0,Cloud Development Not Observable,-2.0,-2.0,29.55,1001.6,,,,0,0,0,,,,,,,,,4/8 Partly Cloudy,72000.0,,SCT,20000.0,,,,,,
KRDR,11-08-2002,08:00,METAR,,20,11.0,,,9999.0,Cloud Development Not Observable,1.0,-1.0,29.52,1000.6,,,,0,0,0,,,,,,,,,7/8 Mostly Cloudy,20000.0,,SCT,12000.0,BKN,20000.0,,,,
KRDR,11-08-2002,07:00,METAR,,360,10.0,,,9999.0,Cloud Development Not Observable,2.0,0.0,29.53,1000.9,,,,0,0,0,,,,,,,,,7/8 Mostly Cloudy,11000.0,,BKN,11000.0,BKN,20000.0,,,,
KRDR,11-08-2002,06:00,METAR,,350,12.0,,,9999.0,Cloud Development Not Observable,2.0,0.0,29.51,1000.0,,,,0,0,0,,,,,,,,,7/8 Mostly Cloudy,20000.0,,SCT,12000.0,BKN,20000.0,,,,
KRDR,11-08-2002,05:00,METAR,,350,13.0,,,9999.0,Cloud Development Not Observable,3.0,0.0,29.47,997.6,,,,0,0,0,,,,,,,,,4/8 Partly Cloudy,72000.0,,SCT,20000.0,,,,,,
KRDR,11-08-2002,04:00,METAR,,320,11.0,,,9999.0,Cloud Development Not Observable,5.0,0.0,29.43,997.6,,,,0,0,0,,,,,,,,,4/8 Partly Cloudy,72000.0,,SCT,20000.0,,,,,,
KRDR,11-08-2002,03:00,METAR,,250,7.0,,,9999.0,Cloud Development Not Observable,4.0,-1.0,29.41,997.0,,,,0,0,0,,,,,,,,,7/8 Mostly Cloudy,20000.0,,FEW,9900.0,BKN,20000.0,,,,
KRDR,11-08-2002,02:00,METAR,,220,4.0,,,9999.0,Cloud Development Not Observable,5.0,0.0,29.41,996.9,,,,0,0,0,,,,,,,,,7/8 Mostly Cloudy,22000.0,,SCT,9900.0,BKN,22000.0,,,,
KRDR,11-08-2002,01:00,METAR,,,3.0,,,9999.0,Cloud Development Not Observable,6.0,0.0,29.40,996.6,,,,0,0,0,,,,,,,,,7/8 Mostly Cloudy,22000.0,,SCT,9900.0,BKN,22000.0,,,,
KRDR,11-07-2002,23:59,METAR,,180,4.0,,,9999.0,Cloud Development Not Observable,6.0,0.0,29.38,996.2,,,,0,0,0,,,,,,,,,7/8 Mostly Cloudy,22000.0,,SCT,9900.0,BKN,22000.0,,,,
KRDR,11-07-2002,23:00,METAR,,240,6.0,,,9999.0,Cloud Development Not Observable,7.0,0.0,29.39,996.3,,,,0,0,0,,,,,,,,,7/8 Mostly Cloudy,22000.0,,FEW,9900.0,BKN,22000.0,,,,
KRDR,11-07-2002,22:00,METAR,,320,6.0,,,9999.0,Cloud Development Not Observable,12.0,0.0,29.39,996.2,,,,0,0,0,,,,,,,,,7/8 Mostly Cloudy,22000.0,,FEW,9900.0,BKN,22000.0,,,,
KRDR,11-07-2002,21:00,METAR,,290,8.0,,,9999.0,Cloud Development Not Observable,15.0,-1.0,29.39,996.3,,,,0,0,0,,,,,,,,,7/8 Mostly Cloudy,22000.0,,FEW,9900.0,BKN,22000.0,,,,
KRDR,11-07-2002,20:00,METAR,,280,11.0,,,9999.0,Cloud Development Not Observable,15.0,-1.0,29.41,997.0,,,,0,0,0,,,,,,,,,7/8 Mostly Cloudy,22000.0,,FEW,9900.0,BKN,22000.0,,,,
KRDR,11-07-2002,19:00,METAR,,290,12.0,,,9999.0,Cloud Development Not Observable,15.0,0.0,29.43,997.7,,,,0,0,0,,,,,,,,,7/8 Mostly Cloudy,22000.0,,FEW,9900.0,BKN,22000.0,,,,
KRDR,11-07-2002,18:00,METAR,,280,17.0,,,9999.0,Cloud Development Not Observable,14.0,0.0,29.45,998.3,,,,0,0,0,,,,,,,,,7/8 Mostly Cloudy,22000.0,,FEW,9900.0,BKN,22000.0,,,,
KRDR,11-07-2002,17:00,METAR,,270,13.0,20.0,,9999.0,Cloud Development Not Observable,12.0,0.0,29.46,998.7,,,,0,0,0,,,,,,,,,7/8 Mostly Cloudy,22000.0,,SCT,9900.0,BKN,22000.0,,,,
KRDR,11-07-2002,16:00,METAR,,280,11.0,,,9999.0,Cloud Development Not Observable,12.0,0.0,29.48,999.5,,,,0,0,0,,,,,,,,,7/8 Mostly Cloudy,22000.0,,SCT,9900.0,BKN,22000.0,,,,
KRDR,11-07-2002,15:00,METAR,,260,10.0,,,9999.0,Cloud Development Not Observable,8.0,0.0,29.48,999.6,,,,0,0,0,,,,,,,,,7/8 Mostly Cloudy,22000.0,,SCT,12000.0,BKN,22000.0,,,,
KRDR,11-07-2002,14:00,METAR,,250,10.0,,,9999.0,Cloud Development Not Observable,5.0,0.0,29.48,999.7,,,,0,0,0,,,,,,,,,7/8 Mostly Cloudy,12000.0,,BKN,12000.0,BKN,22000.0,,,,
KRDR,11-07-2002,13:00,METAR,,230,9.0,,,9999.0,Cloud Development Not Observable,4.0,0.0,29.50,1000.4,,,,0,0,0,,,,,,,,,7/8 Mostly Cloudy,12000.0,,BKN,12000.0,BKN,22000.0,,,,
KRDR,11-07-2002,12:00,METAR,,220,10.0,,,9999.0,Cloud Development Not Observable,1.0,-1.0,29.52,1001.0,,,,0,0,0,,,,,,,,,4/8 Partly Cloudy,72000.0,,FEW,12000.0,SCT,22000.0,,,,
KRDR,11-07-2002,11:00,METAR,,210,13.0,,,9999.0,Cloud Development Not Observable,1.0,-2.0,29.55,1002.3,,,,0,0,0,,,,,,,,,7/8 Mostly Cloudy,22000.0,,SCT,11000.0,BKN,22000.0,,,,
KRDR,11-07-2002,10:00,METAR,,190,12.0,,,9999.0,Cloud Development Not Observable,0.0,-3.0,29.60,1003.8,,,,0,0,0,,,,,,,,,7/8 Mostly Cloudy,22000.0,,SCT,11000.0,BKN,22000.0,,,,
KRDR,11-07-2002,09:00,METAR,,200,16.0,22.0,,9999.0,Cloud Development Not Observable,0.0,-4.0,29.65,1005.6,,,,0,0,0,,,,,,,,,7/8 Mostly Cloudy,11000.0,,BKN,11000.0,,,,,,
KRDR,11-07-2002,08:00,METAR,,180,13.0,,,9999.0,Cloud Development Not Observable,-1.0,-5.0,29.71,1007.5,,,,0,0,0,,,,,,,,,8/8 Overcast,11000.0,,OVC,11000.0,,,,,,
KRDR,11-07-2002,07:00,METAR,,180,19.0,,,9999.0,Cloud Development Not Observable,-1.0,-6.0,29.76,1009.3,,,,0,0,0,,,,,,,,,8/8 Overcast,10000.0,,OVC,9900.0,,,,,,
KRDR,11-07-2002,05:55,METAR,,170,14.0,,,9999.0,Cloud Development Not Observable,-2.0,-7.0,29.83,1012.0,,,,0,0,0,,,,,,,,,8/8 Overcast,8000.0,,OVC,7900.0,,,,,,
KRDR,11-07-2002,05:00,METAR,,170,14.0,,,9999.0,Cloud Development Not Observable,-2.0,-7.0,29.87,1013.2,,,,0,0,0,,,,,,,,,8/8 Overcast,8000.0,,OVC,7900.0,,,,,,
KRDR,11-07-2002,04:00,METAR,,170,11.0,,,9999.0,Cloud Development Not Observable,-3.0,-8.0,29.93,1015.4,,,,0,0,0,,,,,,,,,8/8 Overcast,10000.0,,OVC,9900.0,,,,,,
KRDR,11-07-2002,03:00,METAR,,160,9.0,,,9999.0,Cloud Development Not Observable,-3.0,-8.0,29.98,1017.1,,,,0,0,0,,,,,,,,,8/8 Overcast,10000.0,,OVC,9900.0,,,,,,
KRDR,11-07-2002,02:00,METAR,,140,9.0,,,9999.0,Cloud Development Not Observable,-3.0,-9.0,30.01,1018.1,,,,0,0,0,,,,,,,,,8/8 Overcast,11000.0,,SCT,2500.0,OVC,11000.0,,,,
KRDR,11-07-2002,01:33,SPECI,,140,8.0,,,9999.0,Cloud Development Not Observable,-3.0,-9.0,30.02,,,,,0,0,0,,,,,,,,,8/8 Overcast,10000.0,,FEW,2500.0,OVC,9900.0,,,,
KRDR,11-07-2002,00:00,METAR,,160,6.0,,,9999.0,Cloud Development Not Observable,-4.0,-10.0,30.06,1019.6,,,,0,0,0,,,,,,,,,7/8 Mostly Cloudy,15000.0,,SCT,3000.0,BKN,15000.0,,,,
KRDR,11-06-2002,23:00,METAR,,150,4.0,,,9999.0,Cloud Development Not Observable,-3.0,-11.0,30.09,1020.4,,,,0,0,0,,,,,,,,,7/8 Mostly Cloudy,8000.0,,SCT,3000.0,SCT,7900.0,BKN,15000.0,BKN,20000.0
KRDR,11-06-2002,22:00,METAR,,,3.0,,,9999.0,Cloud Development Not Observable,-3.0,-11.0,30.10,1020.9,,,,0,0,0,,,,,,,,,7/8 Mostly Cloudy,8000.0,,FEW,3000.0,SCT,7900.0,SCT,15000.0,BKN,20000.0
KRDR,11-06-2002,21:00,METAR,,,6.0,,,9999.0,Cloud Development Not Observable,-2.0,-11.0,30.11,1021.3,,,,0,0,0,,,,,,,,,4/8 Partly Cloudy,72000.0,,FEW,3000.0,SCT,7900.0,SCT,20000.0,,
KRDR,11-06-2002,20:00,METAR,,360,7.0,,,9999.0,Cloud Development Not Observable,-2.0,-10.0,30.11,1021.3,,,,0,0,0,,,,,,,,,4/8 Partly Cloudy,72000.0,,FEW,3000.0,SCT,7900.0,SCT,20000.0,,
KRDR,11-06-2002,19:00,METAR,,360,8.0,,,9999.0,Cloud Development Not Observable,-1.0,-11.0,30.11,1021.3,,,,0,0,0,,,,,,,,,7/8 Mostly Cloudy,8000.0,,BKN,7900.0,,,,,,
KRDR,11-06-2002,18:00,METAR,,360,8.0,,,9999.0,Cloud Development Not Observable,-2.0,-9.0,30.12,1021.5,,,,0,0,0,,,,,,,,,7/8 Mostly Cloudy,3900.0,,BKN,4000.0,BKN,5900.0,,,,
KRDR,11-06-2002,17:00,METAR,,360,14.0,,,9999.0,Cloud Development Not Observable,-3.0,-9.0,30.11,1021.4,,,,0,0,0,,,,,,,,,7/8 Mostly Cloudy,6000.0,,SCT,4000.0,BKN,5900.0,,,,
KRDR,11-06-2002,16:00,METAR,,360,16.0,,,9999.0,Cloud Development Not Observable,-3.0,-9.0,30.10,1021.1,,,,0,0,0,,,,,,,,,7/8 Mostly Cloudy,3500.0,,BKN,3600.0,,,,,,
KRDR,11-06-2002,15:26,SPECI,,360,16.0,23.0,,9999.0,Cloud Development Not Observable,-3.0,-10.0,30.08,,,,,0,0,0,,,,,,,,,7/8 Mostly Cloudy,3400.0,,FEW,2100.0,BKN,3500.0,,,,
KRDR,11-06-2002,15:00,METAR,,10,20.0,,,9999.0,Cloud Development Not Observable,-2.0,-5.0,30.05,1019.3,,,,0,0,0,,,,,,,,,8/8 Overcast,2100.0,,BKN,2100.0,OVC,4000.0,,,,
KRDR,11-06-2002,14:00,METAR,,360,15.0,,,9999.0,Cloud Development Not Observable,-2.0,-5.0,30.01,1017.8,,,,0,0,0,,,,,,,,,8/8 Overcast,3300.0,,FEW,1500.0,OVC,3400.0,,,,
KRDR,11-06-2002,13:45,METAR,,360,16.0,,,9999.0,Cloud Development Not Observable,-2.0,-5.0,30.00,,,,,0,0,0,,,,,,,,,8/8 Overcast,3400.0,,SCT,1500.0,OVC,3500.0,,,,
KRDR,11-06-2002,13:00,METAR,,360,17.0,24.0,,9999.0,Light Snow/Cloud Development Not Observable,-1.0,-3.0,29.97,1016.4,,,,71,0,0,,,,,,,,,8/8 Overcast,2400.0,,SCT,1500.0,OVC,2400.0,,,,
KRDR,11-06-2002,12:47,SPECI,,360,17.0,25.0,,9999.0,Snow Grains/Cloud Development Not Observable,-1.0,-3.0,29.97,,,,,77,0,0,,,,,,,,,8/8 Overcast,2400.0,,SCT,1500.0,OVC,2400.0,,,,
KRDR,11-06-2002,12:40,SPECI,,360,19.0,,,9999.0,Cloud Development Not Observable,0.0,-3.0,29.96,,,,,0,0,0,,,,,,,,,8/8 Overcast,1500.0,,OVC,1500.0,,,,,,
KRDR,11-06-2002,12:19,SPECI,,360,16.0,25.0,,9999.0,Cloud Development Not Observable,1.0,0.0,29.95,,,,,0,0,0,,,,,,,,,8/8 Overcast,1200.0,,OVC,1200.0,,,,,,
KRDR,11-06-2002,12:00,METAR,,350,11.0,,,9999.0,Cloud Development Not Observable,1.0,-1.0,29.92,1014.8,,,,0,0,0,,,,,,,,,8/8 Overcast,1900.0,,BKN,1900.0,OVC,3500.0,,,,
KRDR,11-06-2002,11:05,SPECI,,350,13.0,,,9999.0,Cloud Development Not Observable,2.0,-1.0,29.90,,,,,0,0,0,,,,,,,,,8/8 Overcast,2600.0,,OVC,2600.0,,,,,,
KRDR,11-06-2002,11:00,METAR,,350,15.0,,,9999.0,Cloud Development Not Observable,2.0,-1.0,29.89,1013.7,,,,0,0,0,,,,,,,,,8/8 Overcast,7000.0,,SCT,2500.0,OVC,6900.0,,,,
KRDR,11-06-2002,10:00,METAR,,330,13.0,,,9999.0,Cloud Development Not Observable,2.0,-1.0,29.83,1011.5,,,,0,0,0,,,,,,,,,4/8 Partly Cloudy,72000.0,,FEW,6900.0,SCT,15000.0,,,,
KRDR,11-06-2002,09:00,METAR,,300,11.0,,,9999.0,Cloud Development Not Observable,2.0,-1.0,29.80,1010.5,,,,0,0,0,,,,,,,,,8/8 Overcast,7000.0,,BKN,6900.0,OVC,9900.0,,,,
KRDR,11-06-2002,08:00,METAR,,290,10.0,,,9999.0,Cloud Development Not Observable,2.0,-1.0,29.78,1009.8,,,,0,0,0,,,,,,,,,8/8 Overcast,8000.0,,BKN,7900.0,OVC,11000.0,,,,
KRDR,11-06-2002,07:00,METAR,,280,12.0,,,9999.0,Cloud Development Not Observable,1.0,-1.0,29.77,1009.5,,,,0,0,0,,,,,,,,,8/8 Overcast,11000.0,,SCT,8400.0,OVC,11000.0,,,,
KRDR,11-06-2002,06:00,METAR,,240,11.0,,,9999.0,Cloud Development Not Observable,1.0,0.0,29.76,1009.1,,,,0,0,0,,,,,,,,,8/8 Overcast,15000.0,,SCT,8900.0,OVC,15000.0,,,,
KRDR,11-06-2002,05:00,METAR,,220,6.0,,,9999.0,Cloud Development Not Observable,-2.0,-2.0,29.76,1009.3,,,,0,0,0,,,,,,,,,7/8 Mostly Cloudy,22000.0,,SCT,15000.0,BKN,22000.0,,,,
KRDR,11-06-2002,04:00,METAR,,240,6.0,,,9999.0,Cloud Development Not Observable,-2.0,-2.0,29.78,1010.0,,,,0,0,0,,,,,,,,,7/8 Mostly Cloudy,22000.0,,SCT,15000.0,BKN,22000.0,,,,
KRDR,11-06-2002,03:00,METAR,,240,8.0,,,9999.0,Cloud Development Not Observable,0.0,-1.0,29.78,1010.0,,,,0,0,0,,,,,,,,,7/8 Mostly Cloudy,15000.0,,BKN,15000.0,,,,,,
KRDR,11-06-2002,02:00,METAR,,250,8.0,,,9999.0,Cloud Development Not Observable,0.0,-1.0,29.79,1010.3,,,,0,0,0,,,,,,,,,8/8 Overcast,15000.0,,OVC,15000.0,,,,,,
KRDR,11-06-2002,01:00,METAR,,260,8.0,,,9999.0,Cloud Development Not Observable,-1.0,-1.0,29.78,1010.1,,,,0,0,0,,,,,,,,,2/8 Mostly Clear,72000.0,,FEW,15000.0,FEW,20000.0,,,,
KRDR,11-06-2002,00:00,METAR,,270,9.0,,,9999.0,Cloud Development Not Observable,0.0,0.0,29.78,1010.0,,,,0,0,0,,,,,,,,,2/8 Mostly Clear,72000.0,,FEW,2000.0,FEW,15000.0,FEW,20000.0,,
KRDR,11-05-2002,23:00,METAR,,230,8.0,,,9999.0,Cloud Development Not Observable,0.0,-1.0,29.77,1009.6,,,,0,0,0,,,,,,,,,4/8 Partly Cloudy,72000.0,,SCT,2000.0,SCT,15000.0,SCT,20000.0,,
KRDR,11-05-2002,22:00,METAR,,280,8.0,,,9999.0,Cloud Development Not Observable,2.0,-1.0,29.78,1009.9,,,,0,0,0,,,,,,,,,7/8 Mostly Cloudy,2000.0,,BKN,2000.0,,,,,,
KRDR,11-05-2002,21:00,METAR,,300,7.0,,,9999.0,Cloud Development Not Observable,1.0,-1.0,29.75,1009.0,,,,0,0,0,,,,,,,,,8/8 Overcast,1500.0,,OVC,1500.0,,,,,,
KRDR,11-05-2002,20:00,METAR,,280,12.0,,,9999.0,Cloud Development Not Observable,1.0,-1.0,29.76,1009.4,,,,0,0,0,,,,,,,,,8/8 Overcast,1500.0,,OVC,1500.0,,,,,,
KRDR,11-05-2002,19:12,SPECI,,290,10.0,,,9999.0,Cloud Development Not Observable,2.0,-1.0,29.76,,,,,0,0,0,,,,,,,,,8/8 Overcast,1500.0,,FEW,900.0,OVC,1500.0,,,,
KRDR,11-05-2002,19:00,METAR,,280,7.0,,,9999.0,Mist/Cloud Development Not Observable,1.0,-1.0,29.76,1009.4,,,,10,0,0,,,,,,,,,8/8 Overcast,900.0,,BKN,900.0,OVC,1500.0,,,,
KRDR,11-05-2002,18:00,METAR,,290,7.0,,,9999.0,Mist/Cloud Development Not Observable,1.0,-1.0,29.77,1009.6,,,,10,0,0,,,,,,,,,8/8 Overcast,700.0,,BKN,700.0,OVC,1300.0,,,,
KRDR,11-05-2002,17:00,METAR,,300,5.0,,,9999.0,Mist/Cloud Development Not Observable,0.0,-1.0,29.76,1009.3,,,,10,0,0,,,,,,,,,8/8 Overcast,700.0,,OVC,700.0,,,,,,
KRDR,11-05-2002,16:22,SPECI,,,2.0,,,6400.0,Mist/Cloud Development Not Observable,-1.0,-1.0,29.75,,,,,10,0,0,,,,,,,,,8/8 Overcast,700.0,,OVC,700.0,,,,,,
KRDR,11-05-2002,16:00,METAR,,,4.0,,,4800.0,Mist/Cloud Development Not Observable,-1.0,-1.0,29.75,1009.0,,,,10,0,0,,,,,,,,,8/8 Overcast,600.0,,OVC,600.0,,,,,,
KRDR,11-05-2002,15:00,METAR,,230,6.0,,,4800.0,Mist/Cloud Development Not Observable,-2.0,-2.0,29.75,1009.0,,,,10,0,0,,,,,,,,,8/8 Overcast,600.0,,OVC,600.0,,,,,,
KRDR,11-05-2002,14:40,SPECI,,230,8.0,,,8000.0,Mist/Cloud Development Not Observable,-2.0,-2.0,29.74,,,,,10,0,0,,,,,,,,,8/8 Overcast,600.0,,OVC,600.0,,,,,,
KRDR,11-05-2002,14:00,METAR,,210,9.0,,,9999.0,Mist/Cloud Development Not Observable,-2.0,-2.0,29.74,1008.6,,,,10,0,0,,,,,,,,,8/8 Overcast,800.0,,OVC,800.0,,,,,,
KRDR,11-05-2002,13:38,SPECI,,190,9.0,,,9999.0,Cloud Development Not Observable,-2.0,-2.0,29.74,,,,,0,0,0,,,,,,,,,8/8 Overcast,900.0,,OVC,900.0,,,,,,
KRDR,11-05-2002,13:00,METAR,,170,8.0,,,9999.0,Cloud Development Not Observable,-2.0,-2.0,29.74,1008.5,,,,0,0,0,,,,,,,,,8/8 Overcast,1100.0,,OVC,1100.0,,,,,,
KRDR,11-05-2002,12:08,SPECI,,160,8.0,,,9999.0,Cloud Development Not Observable,-2.0,-2.0,29.75,,,,,0,0,0,,,,,,,,,8/8 Overcast,1400.0,,OVC,1400.0,,,,,,
KRDR,11-05-2002,12:00,METAR,,170,9.0,,,9999.0,Cloud Development Not Observable,-2.0,-2.0,29.74,1008.5,,,,0,0,0,,,,,,,,,8/8 Overcast,1500.0,,OVC,1500.0,,,,,,
KRDR,11-05-2002,11:00,METAR,,170,9.0,,,9999.0,Cloud Development Not Observable,-2.0,-3.0,29.75,1008.8,,,,0,0,0,,,,,,,,,8/8 Overcast,1800.0,,OVC,1800.0,,,,,,
KRDR,11-05-2002,10:07,SPECI,,170,9.0,,,9999.0,Cloud Development Not Observable,-2.0,-3.0,29.76,,,,,0,0,0,,,,,,,,,8/8 Overcast,2200.0,,OVC,2200.0,,,,,,
KRDR,11-05-2002,10:00,METAR,,170,10.0,,,9999.0,Cloud Development Not Observable,-2.0,-3.0,29.76,1009.2,,,,0,0,0,,,,,,,,,8/8 Overcast,3000.0,,SCT,2500.0,OVC,3000.0,,,,
KRDR,11-05-2002,09:00,METAR,,170,11.0,,,9999.0,Cloud Development Not Observable,-2.0,-3.0,29.79,1010.2,,,,0,0,0,,,,,,,,,8/8 Overcast,3400.0,,SCT,2500.0,BKN,3500.0,OVC,8900.0,,
KRDR,11-05-2002,08:00,METAR,,170,13.0,,,9999.0,Cloud Development Not Observable,-3.0,-3.0,29.81,1010.9,,,,0,0,0,,,,,,,,,8/8 Overcast,9500.0,,SCT,3500.0,OVC,9400.0,,,,
KRDR,11-05-2002,07:00,METAR,,170,15.0,,,9999.0,Cloud Development Not Observable,-3.0,-3.0,29.84,1012.0,,,,0,0,0,,,,,,,,,8/8 Overcast,9000.0,,OVC,8900.0,,,,,,
KRDR,11-05-2002,06:00,METAR,,170,11.0,,,9999.0,Cloud Development Not Observable,-3.0,-4.0,29.86,1012.8,,,,0,0,0,,,,,,,,,7/8 Mostly Cloudy,12000.0,,FEW,7900.0,SCT,12000.0,BKN,22000.0,,
KRDR,11-05-2002,05:00,METAR,,170,9.0,,,9999.0,Cloud Development Not Observable,-3.0,-3.0,29.88,1013.5,,,,0,0,0,,,,,,,,,7/8 Mostly Cloudy,12000.0,,FEW,7900.0,BKN,12000.0,BKN,22000.0,,
KRDR,11-05-2002,04:00,METAR,,160,10.0,,,9999.0,Cloud Development Not Observable,-3.0,-3.0,29.89,1013.6,,,,0,0,0,,,,,,,,,7/8 Mostly Cloudy,12000.0,,SCT,5900.0,BKN,12000.0,BKN,22000.0,,
KRDR,11-05-2002,03:00,METAR,,160,9.0,,,9999.0,Cloud Development Not Observable,-2.0,-3.0,29.90,1014.0,,,,0,0,0,,,,,,,,,4/8 Partly Cloudy,72000.0,,FEW,12000.0,SCT,22000.0,,,,
KRDR,11-05-2002,02:00,METAR,,150,9.0,,,9999.0,Cloud Development Not Observable,-1.0,-3.0,29.90,1014.2,,,,0,0,0,,,,,,,,,7/8 Mostly Cloudy,12000.0,,FEW,3000.0,SCT,12000.0,BKN,22000.0,,
KRDR,11-05-2002,01:00,METAR,,170,10.0,,,9999.0,Cloud Development Not Observable,2.0,-3.0,29.92,1014.6,,,,0,0,0,,,,,,,,,7/8 Mostly Cloudy,3000.0,,BKN,3000.0,,,,,,
KRDR,11-05-2002,00:00,METAR,,170,10.0,,,9999.0,Cloud Development Not Observable,2.0,-3.0,29.93,1015.0,,,,0,0,0,,,,,,,,,7/8 Mostly Cloudy,3000.0,,BKN,3000.0,,,,,,
KRDR,11-04-2002,23:00,METAR,,170,10.0,17.0,,9999.0,Cloud Development Not Observable,2.0,-3.0,29.94,1015.5,,,,0,0,0,,,,,,,,,7/8 Mostly Cloudy,3200.0,,BKN,3300.0,,,,,,
KRDR,11-04-2002,22:00,METAR,,190,12.0,,,9999.0,Cloud Development Not Observable,3.0,-3.0,29.95,1015.8,,,,0,0,0,,,,,,,,,7/8 Mostly Cloudy,3200.0,,BKN,3300.0,,,,,,
KRDR,11-04-2002,21:00,METAR,,190,14.0,,,9999.0,Cloud Development Not Observable,3.0,-3.0,29.97,1016.3,,,,0,0,0,,,,,,,,,7/8 Mostly Cloudy,3200.0,,BKN,3300.0,,,,,,
KRDR,11-04-2002,20:00,METAR,,180,10.0,,,9999.0,Cloud Development Not Observable,3.0,-2.0,29.99,1017.0,,,,0,0,0,,,,,,,,,8/8 Overcast,3100.0,,BKN,3200.0,OVC,20000.0,,,,
KRDR,11-04-2002,19:00,METAR,,180,10.0,,,9999.0,Cloud Development Not Observable,2.0,-1.0,30.01,1017.9,,,,0,0,0,,,,,,,,,8/8 Overcast,3200.0,,FEW,2200.0,OVC,3300.0,,,,
KRDR,11-04-2002,18:00,METAR,,170,9.0,,,9999.0,Cloud Development Not Observable,1.0,-1.0,30.03,1018.6,,,,0,0,0,,,,,,,,,8/8 Overcast,3100.0,,OVC,3100.0,,,,,,
KRDR,11-04-2002,17:00,METAR,,160,9.0,,,9999.0,Cloud Development Not Observable,1.0,-2.0,30.05,1019.3,,,,0,0,0,,,,,,,,,8/8 Overcast,3100.0,,OVC,3100.0,,,,,,
KRDR,11-04-2002,16:00,METAR,,130,8.0,,,9999.0,Cloud Development Not Observable,0.0,-2.0,30.06,1019.5,,,,0,0,0,,,,,,,,,8/8 Overcast,3100.0,,OVC,3100.0,,,,,,
KRDR,11-04-2002,15:00,METAR,,140,6.0,,,9999.0,Cloud Development Not Observable,0.0,-2.0,30.08,1020.0,,,,0,0,0,,,,,,,,,8/8 Overcast,3100.0,,OVC,3200.0,,,,,,
KRDR,11-04-2002,14:00,METAR,,120,4.0,,,9999.0,Cloud Development Not Observable,-1.0,-2.0,30.09,1020.4,,,,0,0,0,,,,,,,,,8/8 Overcast,3100.0,,OVC,3100.0,,,,,,
KRDR,11-04-2002,13:00,METAR,,130,4.0,,,9999.0,Cloud Development Not Observable,-1.0,-2.0,30.09,1020.6,,,,0,0,0,,,,,,,,,8/8 Overcast,3300.0,,OVC,3400.0,,,,,,
KRDR,11-04-2002,12:00,METAR,,110,5.0,,,9999.0,Cloud Development Not Observable,-1.0,-2.0,30.10,1020.7,,,,0,0,0,,,,,,,,,8/8 Overcast,3200.0,,OVC,3300.0,,,,,,
KRDR,11-04-2002,11:30,METAR,,130,5.0,,,9999.0,Cloud Development Not Observable,-1.0,-2.0,30.10,,,,,0,0,0,,,,,,,,,8/8 Overcast,3100.0,,OVC,3100.0,,,,,,
KRDR,11-04-2002,11:00,METAR,,,3.0,,,9999.0,Cloud Development Not Observable,-1.0,-2.0,30.10,1020.7,,,,0,0,0,,,,,,,,,8/8 Overcast,2900.0,,OVC,2900.0,,,,,,
KRDR,11-04-2002,10:00,METAR,,,3.0,,,9999.0,Cloud Development Not Observable,-1.0,-2.0,30.10,1020.7,,,,0,0,0,,,,,,,,,8/8 Overcast,2900.0,,OVC,2900.0,,,,,,
KRDR,11-04-2002,09:00,METAR,,,2.0,,,9999.0,Cloud Development Not Observable,0.0,-2.0,30.10,1020.7,,,,0,0,0,,,,,,,,,8/8 Overcast,2800.0,,OVC,2800.0,,,,,,
KRDR,11-04-2002,08:40,SPECI,,,2.0,,,9999.0,Cloud Development Not Observable,0.0,-2.0,30.10,,,,,0,0,0,,,,,,,,,8/8 Overcast,2800.0,,OVC,2800.0,,,,,,
KRDR,11-04-2002,08:00,METAR,,220,4.0,,,9999.0,Cloud Development Not Observable,-1.0,-2.0,30.10,1020.8,,,,0,0,0,,,,,,,,,8/8 Overcast,3000.0,,OVC,3000.0,,,,,,
KRDR,11-04-2002,07:00,METAR,,230,2.0,,,9999.0,Cloud Development Not Observable,-1.0,-2.0,30.09,1020.7,,,,0,0,0,,,,,,,,,8/8 Overcast,3100.0,,OVC,3200.0,,,,,,
KRDR,11-04-2002,06:00,METAR,,310,2.0,,,9999.0,Cloud Development Not Observable,-1.0,-2.0,30.09,1020.5,,,,0,0,0,,,,,,,,,8/8 Overcast,3100.0,,OVC,3200.0,,,,,,
KRDR,11-04-2002,05:00,METAR,,290,9.0,,,9999.0,Cloud Development Not Observable,-1.0,-3.0,30.09,1020.5,,,,0,0,0,,,,,,,,,8/8 Overcast,3200.0,,OVC,3300.0,,,,,,
KRDR,11-04-2002,04:00,METAR,,290,5.0,,,9999.0,Cloud Development Not Observable,0.0,-3.0,30.09,1020.7,,,,0,0,0,,,,,,,,,8/8 Overcast,3400.0,,OVC,3500.0,,,,,,
KRDR,11-04-2002,03:00,METAR,,300,6.0,,,9999.0,Cloud Development Not Observable,0.0,-3.0,30.09,1020.5,,,,0,0,0,,,,,,,,,8/8 Overcast,3400.0,,OVC,3500.0,,,,,,
KRDR,11-04-2002,02:00,METAR,,290,7.0,,,9999.0,Cloud Development Not Observable,0.0,-3.0,30.07,1020.0,,,,0,0,0,,,,,,,,,8/8 Overcast,3400.0,,OVC,3500.0,,,,,,
KRDR,11-04-2002,01:00,METAR,,290,7.0,,,9999.0,Cloud Development Not Observable,0.0,-3.0,30.06,1019.6,,,,0,0,0,,,,,,,,,8/8 Overcast,3500.0,,OVC,3600.0,,,,,,
KRDR,11-04-2002,00:00,METAR,,290,9.0,,,9999.0,Cloud Development Not Observable,0.0,-3.0,30.05,1019.3,,,,0,0,0,,,,,,,,,8/8 Overcast,3500.0,,OVC,3600.0,,,,,,
KRDR,11-03-2002,23:00,METAR,,290,8.0,,,9999.0,Cloud Development Not Observable,0.0,-3.0,30.04,1019.0,,,,0,0,0,,,,,,,,,8/8 Overcast,3800.0,,OVC,3900.0,,,,,,
KRDR,11-03-2002,22:00,METAR,,310,11.0,,,9999.0,Cloud Development Not Observable,0.0,-4.0,30.03,1018.7,,,,0,0,0,,,,,,,,,8/8 Overcast,3500.0,,FEW,2600.0,OVC,3600.0,,,,
KRDR,11-03-2002,21:00,METAR,,310,8.0,,,9999.0,Cloud Development Not Observable,0.0,-4.0,30.02,1018.2,,,,0,0,0,,,,,,,,,8/8 Overcast,3000.0,,SCT,2600.0,OVC,3000.0,,,,
KRDR,11-03-2002,20:00,METAR,,300,13.0,,,9999.0,Cloud Development Not Observable,-1.0,-4.0,30.02,1018.2,,,,0,0,0,,,,,,,,,8/8 Overcast,3000.0,,SCT,2400.0,OVC,3000.0,,,,
KRDR,11-03-2002,19:00,METAR,,310,12.0,,,9999.0,Cloud Development Not Observable,-2.0,-4.0,30.02,1018.2,,,,0,0,0,,,,,,,,,8/8 Overcast,2200.0,,OVC,2200.0,,,,,,
KRDR,11-03-2002,18:00,METAR,,320,11.0,,,9999.0,Cloud Development Not Observable,-2.0,-5.0,30.02,1018.4,,,,0,0,0,,,,,,,,,8/8 Overcast,2100.0,,OVC,2100.0,,,,,,
KRDR,11-03-2002,17:00,METAR,,320,14.0,,,9999.0,Cloud Development Not Observable,-2.0,-5.0,30.02,1018.1,,,,0,0,0,,,,,,,,,8/8 Overcast,2200.0,,OVC,2200.0,,,,,,
KRDR,11-03-2002,16:00,METAR,,310,12.0,,,9999.0,Cloud Development Not Observable,-2.0,-4.0,30.01,1017.8,,,,0,0,0,,,,,,,,,8/8 Overcast,1800.0,,OVC,1800.0,,,,,,
KRDR,11-03-2002,15:00,METAR,,320,12.0,,,9999.0,Cloud Development Not Observable,-2.0,-4.0,29.98,1016.9,,,,0,0,0,,,,,,,,,8/8 Overcast,1800.0,,OVC,1800.0,,,,,,
KRDR,11-03-2002,14:00,METAR,,340,14.0,,,9999.0,Cloud Development Not Observable,-2.0,-4.0,29.96,1016.0,,,,0,0,0,,,,,,,,,8/8 Overcast,2000.0,,OVC,2000.0,,,,,,
KRDR,11-03-2002,13:00,METAR,,310,8.0,,,9999.0,Cloud Development Not Observable,-3.0,-4.0,29.93,1015.0,,,,0,0,0,,,,,,,,,7/8 Mostly Cloudy,2100.0,,BKN,2100.0,,,,,,
KRDR,11-03-2002,12:20,METAR,,310,9.0,,,9999.0,Cloud Development Not Observable,-3.0,-4.0,29.92,,,,,0,0,0,,,,,,,,,7/8 Mostly Cloudy,2500.0,,BKN,2500.0,,,,,,
KRDR,11-03-2002,12:00,METAR,,310,9.0,,,9999.0,Cloud Development Not Observable,-4.0,-5.0,29.92,1014.7,,,,0,0,0,,,,,,,,,4/8 Partly Cloudy,72000.0,,SCT,2700.0,,,,,,
KRDR,11-03-2002,11:00,METAR,,320,10.0,,,9999.0,Cloud Development Not Observable,-4.0,-5.0,29.90,1014.1,,,,0,0,0,,,,,,,,,Clear,72000.0,,,73000.0,,,,,,
KRDR,11-03-2002,10:00,METAR,,320,11.0,,,9999.0,Cloud Development Not Observable,-2.0,-3.0,29.89,1013.7,,,,0,0,0,,,,,,,,,Clear,72000.0,,,73000.0,,,,,,
KRDR,11-03-2002,09:00,METAR,,290,9.0,,,9999.0,Cloud Development Not Observable,-2.0,-3.0,29.87,1013.1,,,,0,0,0,,,,,,,,,Clear,72000.0,,,73000.0,,,,,,
KRDR,11-03-2002,08:00,METAR,,280,9.0,,,9999.0,Cloud Development Not Observable,-1.0,-3.0,29.85,1012.4,,,,0,0,0,,,,,,,,,Clear,72000.0,,,73000.0,,,,,,
KRDR,11-03-2002,07:00,METAR,,270,7.0,,,9999.0,Cloud Development Not Observable,-1.0,-3.0,29.86,1012.7,,,,0,0,0,,,,,,,,,Clear,72000.0,,,73000.0,,,,,,
KRDR,11-03-2002,06:00,METAR,,250,7.0,,,9999.0,Cloud Development Not Observable,0.0,-3.0,29.86,1012.9,,,,0,0,0,,,,,,,,,4/8 Partly Cloudy,72000.0,,FEW,9900.0,SCT,25000.0,,,,
KRDR,11-03-2002,05:00,METAR,,250,7.0,,,9999.0,Cloud Development Not Observable,2.0,-3.0,29.87,1013.2,,,,0,0,0,,,,,,,,,7/8 Mostly Cloudy,10000.0,,BKN,9900.0,BKN,25000.0,,,,
KRDR,11-03-2002,04:00,METAR,,190,7.0,,,9999.0,Cloud Development Not Observable,0.0,-2.0,29.89,1013.6,,,,0,0,0,,,,,,,,,7/8 Mostly Cloudy,25000.0,,SCT,9900.0,BKN,25000.0,,,,
KRDR,11-03-2002,03:00,METAR,,180,7.0,,,9999.0,Cloud Development Not Observable,1.0,-3.0,29.90,1014.2,,,,0,0,0,,,,,,,,,7/8 Mostly Cloudy,10000.0,,BKN,9900.0,BKN,25000.0,,,,
KRDR,11-03-2002,02:00,METAR,,160,7.0,,,9999.0,Cloud Development Not Observable,1.0,-3.0,29.92,1014.9,,,,0,0,0,,,,,,,,,7/8 Mostly Cloudy,12000.0,,SCT,6900.0,BKN,12000.0,BKN,25000.0,,
KRDR,11-03-2002,01:00,METAR,,150,7.0,,,9999.0,Cloud Development Not Observable,2.0,-3.0,29.94,1015.6,,,,0,0,0,,,,,,,,,7/8 Mostly Cloudy,11000.0,,SCT,6900.0,BKN,11000.0,BKN,25000.0,,
KRDR,11-03-2002,00:00,METAR,,90,6.0,,,9999.0,Cloud Development Not Observable,2.0,-3.0,29.96,1016.2,,,,0,0,0,,,,,,,,,7/8 Mostly Cloudy,11000.0,,SCT,6900.0,BKN,11000.0,BKN,25000.0,,
KRDR,11-02-2002,22:00,METAR,,170,8.0,,,9999.0,Cloud Development Not Observable,4.0,-4.0,29.98,1016.9,,,,0,0,0,,,,,,,,,7/8 Mostly Cloudy,12000.0,,SCT,6900.0,BKN,12000.0,BKN,25000.0,,
KRDR,11-02-2002,21:00,METAR,,160,5.0,,,9999.0,Cloud Development Not Observable,4.0,-3.0,30.00,1017.7,,,,0,0,0,,,,,,,,,7/8 Mostly Cloudy,12000.0,,FEW,6900.0,BKN,12000.0,,,,
KRDR,11-02-2002,20:00,METAR,,160,8.0,,,9999.0,Cloud Development Not Observable,3.0,-2.0,30.03,1018.5,,,,0,0,0,,,,,,,,,7/8 Mostly Cloudy,12000.0,,FEW,6900.0,BKN,12000.0,,,,
KRDR,11-02-2002,19:00,METAR,,150,5.0,,,9999.0,Cloud Development Not Observable,1.0,-3.0,30.04,1019.1,,,,0,0,0,,,,,,,,,7/8 Mostly Cloudy,12000.0,,FEW,6900.0,BKN,12000.0,,,,
KRDR,11-02-2002,18:00,METAR,,140,5.0,,,9999.0,Cloud Development Not Observable,1.0,-3.0,30.06,1019.7,,,,0,0,0,,,,,,,,,7/8 Mostly Cloudy,12000.0,,FEW,6900.0,BKN,12000.0,,,,
KRDR,11-02-2002,17:00,METAR,,90,5.0,,,9999.0,Cloud Development Not Observable,-1.0,-3.0,30.10,1020.7,,,,0,0,0,,,,,,,,,7/8 Mostly Cloudy,12000.0,,FEW,6900.0,BKN,12000.0,,,,
KRDR,11-02-2002,16:00,METAR,,80,3.0,,,9999.0,Cloud Development Not Observable,-1.0,-3.0,30.10,1020.7,,,,0,0,0,,,,,,,,,4/8 Partly Cloudy,72000.0,,FEW,6900.0,SCT,11000.0,,,,
KRDR,11-02-2002,15:00,METAR,,360,6.0,,,9999.0,Cloud Development Not Observable,-3.0,-4.0,30.10,1020.8,,,,0,0,0,,,,,,,,,7/8 Mostly Cloudy,11000.0,,FEW,6900.0,BKN,11000.0,,,,
KRDR,11-02-2002,14:00,METAR,,290,4.0,,,9999.0,Cloud Development Not Observable,-5.0,-5.0,30.09,1020.6,,,,0,0,0,,,,,,,,,7/8 Mostly Cloudy,9000.0,,BKN,8900.0,,,,,,
KRDR,11-02-2002,13:00,METAR,,290,5.0,,,9999.0,Cloud Development Not Observable,-6.0,-6.0,30.08,1020.4,,,,0,0,0,,,,,,,,,7/8 Mostly Cloudy,10000.0,,BKN,9900.0,,,,,,
KRDR,11-02-2002,12:00,METAR,,320,7.0,,,9999.0,Cloud Development Not Observable,-6.0,-6.0,30.09,1020.6,,,,0,0,0,,,,,,,,,4/8 Partly Cloudy,72000.0,,SCT,9900.0,,,,,,
KRDR,11-02-2002,11:00,METAR,,300,7.0,,,9999.0,Cloud Development Not Observable,-5.0,-5.0,30.09,1020.5,,,,0,0,0,,,,,,,,,2/8 Mostly Clear,72000.0,,FEW,9900.0,,,,,,
KRDR,11-02-2002,10:00,METAR,,290,6.0,,,9999.0,Cloud Development Not Observable,-5.0,-6.0,30.08,1020.2,,,,0,0,0,,,,,,,,,2/8 Mostly Clear,72000.0,,FEW,9900.0,,,,,,
KRDR,11-02-2002,08:00,METAR,,300,7.0,,,9999.0,Cloud Development Not Observable,-4.0,-5.0,30.07,1019.9,,,,0,0,0,,,,,,,,,Clear,72000.0,,,73000.0,,,,,,
KRDR,11-02-2002,07:00,METAR,,310,10.0,,,9999.0,Cloud Development Not Observable,-3.0,-5.0,30.06,1019.5,,,,0,0,0,,,,,,,,,Clear,72000.0,,,73000.0,,,,,,
KRDR,11-02-2002,06:00,METAR,,290,9.0,,,9999.0,Cloud Development Not Observable,-2.0,-5.0,30.06,1019.5,,,,0,0,0,,,,,,,,,Clear,72000.0,,,73000.0,,,,,,
KRDR,11-02-2002,05:00,METAR,,280,12.0,,,9999.0,Cloud Development Not Observable,-1.0,-4.0,30.05,1019.3,,,,0,0,0,,,,,,,,,Clear,72000.0,,,73000.0,,,,,,
KRDR,11-02-2002,04:00,METAR,,290,15.0,,,9999.0,Cloud Development Not Observable,0.0,-4.0,30.05,1019.4,,,,0,0,0,,,,,,,,,Clear,72000.0,,,73000.0,,,,,,
KRDR,11-02-2002,03:00,METAR,,290,15.0,,,9999.0,Cloud Development Not Observable,0.0,-4.0,30.05,1019.3,,,,0,0,0,,,,,,,,,Clear,72000.0,,,73000.0,,,,,,
KRDR,11-02-2002,02:00,METAR,,280,16.0,,,9999.0,Cloud Development Not Observable,0.0,-4.0,30.04,1019.1,,,,0,0,0,,,,,,,,,Clear,72000.0,,,73000.0,,,,,,
KRDR,11-02-2002,01:00,METAR,,280,14.0,22.0,,9999.0,Cloud Development Not Observable,1.0,-5.0,30.04,1019.2,,,,0,0,0,,,,,,,,,2/8 Mostly Clear,72000.0,,FEW,22000.0,,,,,,
KRDR,11-02-2002,00:00,METAR,,270,8.0,,,9999.0,Cloud Development Not Observable,2.0,-4.0,30.06,1017.5,,,,0,0,0,,,,,,,,,2/8 Mostly Clear,72000.0,,FEW,12000.0,FEW,22000.0,,,,
KRDR,11-01-2002,23:00,METAR,,280,13.0,,,9999.0,Cloud Development Not Observable,3.0,-5.0,30.05,1019.5,,,,0,0,0,,,,,,,,,4/8 Partly Cloudy,72000.0,,FEW,12000.0,SCT,22000.0,,,,
KRDR,11-01-2002,22:00,METAR,,270,17.0,25.0,280/26KTS,9999.0,Cloud Development Not Observable,4.0,-5.0,30.08,1020.2,,,,0,0,0,,,,,,,,,4/8 Partly Cloudy,72000.0,,FEW,12000.0,SCT,22000.0,,,,
KRDR,11-01-2002,21:00,METAR,,280,21.0,27.0,290/28KTS,9999.0,Cloud Development Not Observable,4.0,-6.0,30.09,1020.6,,,,0,0,0,,,,,,,,,7/8 Mostly Cloudy,12000.0,,FEW,8900.0,SCT,12000.0,BKN,22000.0,,
KRDR,11-01-2002,20:00,METAR,,280,21.0,27.0,290/30KTS,9999.0,Cloud Development Not Observable,4.0,-7.0,30.10,1020.9,,,,0,0,0,,,,,,,,,4/8 Partly Cloudy,72000.0,,FEW,8900.0,SCT,12000.0,,,,
KRDR,11-01-2002,19:00,METAR,,280,21.0,27.0,290/29KTS,9999.0,Cloud Development Not Observable,4.0,-7.0,30.12,1021.5,,,,0,0,0,,,,,,,,,4/8 Partly Cloudy,72000.0,,SCT,12000.0,,,,,,
KRDR,11-01-2002,18:00,METAR,,280,15.0,24.0,280/28KTS,9999.0,Cloud Development Not Observable,2.0,-7.0,30.15,1022.7,,,,0,0,0,,,,,,,,,7/8 Mostly Cloudy,12000.0,,FEW,4000.0,BKN,12000.0,,,,
KRDR,11-01-2002,17:00,METAR,,290,21.0,,,9999.0,Cloud Development Not Observable,0.0,-9.0,30.18,1023.8,,,,0,0,0,,,,,,,,,7/8 Mostly Cloudy,12000.0,,FEW,7900.0,BKN,12000.0,,,,
KRDR,11-01-2002,16:00,METAR,,290,15.0,21.0,,9999.0,Cloud Development Not Observable,-2.0,-8.0,30.19,1024.2,,,,0,0,0,,,,,,,,,7/8 Mostly Cloudy,11000.0,,SCT,8900.0,BKN,11000.0,,,,
KRDR,11-01-2002,15:00,METAR,,290,8.0,,,9999.0,Cloud Development Not Observable,-4.0,-8.0,30.20,1025.7,,,,0,0,0,,,,,,,,,7/8 Mostly Cloudy,11000.0,,SCT,8900.0,BKN,11000.0,,,,
KRDR,11-01-2002,14:00,METAR,,290,9.0,,,9999.0,Cloud Development Not Observable,-6.0,-9.0,30.22,1025.4,,,,0,0,0,,,,,,,,,7/8 Mostly Cloudy,11000.0,,SCT,8900.0,BKN,11000.0,,,,
KRDR,11-01-2002,13:00,METAR,,270,9.0,,,9999.0,Cloud Development Not Observable,-6.0,-8.0,30.23,1025.8,,,,0,0,0,,,,,,,,,7/8 Mostly Cloudy,11000.0,,BKN,11000.0,,,,,,
KRDR,11-01-2002,12:00,METAR,,250,10.0,,,9999.0,Cloud Development Not Observable,-7.0,-9.0,30.25,1026.5,,,,0,0,0,,,,,,,,,4/8 Partly Cloudy,72000.0,,SCT,12000.0,,,,,,
KRDR,11-01-2002,11:00,METAR,,260,10.0,,,9999.0,Cloud Development Not Observable,-8.0,-10.0,30.26,1026.8,,,,0,0,0,,,,,,,,,Clear,72000.0,,,73000.0,,,,,,
KRDR,11-01-2002,10:00,METAR,,270,9.0,,,9999.0,Cloud Development Not Observable,-8.0,-9.0,30.26,1026.7,,,,0,0,0,,,,,,,,,Clear,72000.0,,,73000.0,,,,,,
KRDR,11-01-2002,09:00,METAR,,270,11.0,,,9999.0,Cloud Development Not Observable,-8.0,-9.0,30.28,1027.2,,,,0,0,0,,,,,,,,,Clear,72000.0,,,73000.0,,,,,,
KRDR,11-01-2002,08:00,METAR,,260,10.0,,,9999.0,Cloud Development Not Observable,-8.0,-9.0,30.28,1027.5,,,,0,0,0,,,,,,,,,Clear,72000.0,,,73000.0,,,,,,
KRDR,11-01-2002,07:00,METAR,,290,11.0,,,9999.0,Cloud Development Not Observable,-7.0,-9.0,30.28,1027.4,,,,0,0,0,,,,,,,,,Clear,72000.0,,,73000.0,,,,,,
KRDR,11-01-2002,06:00,METAR,,280,10.0,,,9999.0,Cloud Development Not Observable,-7.0,-9.0,30.28,1027.5,,,,0,0,0,,,,,,,,,Clear,72000.0,,,73000.0,,,,,,
KRDR,11-01-2002,05:00,METAR,,290,10.0,,,9999.0,Cloud Development Not Observable,-7.0,-8.0,30.28,1027.5,,,,0,0,0,,,,,,,,,Clear,72000.0,,,73000.0,,,,,,
KRDR,11-01-2002,04:00,METAR,,270,9.0,,,9999.0,Cloud Development Not Observable,-7.0,-8.0,30.29,1027.9,,,,0,0,0,,,,,,,,,Clear,72000.0,,,73000.0,,,,,,
KRDR,11-01-2002,03:00,METAR,,280,8.0,,,9999.0,Cloud Development Not Observable,-7.0,-8.0,30.28,1027.6,,,,0,0,0,,,,,,,,,Clear,72000.0,,,73000.0,,,,,,
KRDR,11-01-2002,02:00,METAR,,270,7.0,,,9999.0,Cloud Development Not Observable,-7.0,-8.0,30.29,1028.0,,,,0,0,0,,,,,,,,,Clear,72000.0,,,73000.0,,,,,,
KRDR,11-01-2002,01:00,METAR,,290,7.0,,,9999.0,Cloud Development Not Observable,-6.0,-7.0,30.28,1027.6,,,,0,0,0,,,,,,,,,Clear,72000.0,,,73000.0,,,,,,
KRDR,11-01-2002,00:00,METAR,,280,8.0,,,9999.0,Cloud Development Not Observable,-5.0,-7.0,30.26,1026.9,,,,0,0,0,,,,,,,,,Clear,72000.0,,,73000.0,,,,,,
KRDR,10-31-2002,23:00,METAR,,290,10.0,,,9999.0,Cloud Development Not Observable,-2.0,-7.0,30.26,1026.8,,,,0,0,0,,,,,,,,,Clear,72000.0,,,73000.0,,,,,,
KRDR,10-31-2002,22:00,METAR,,290,15.0,,,9999.0,Cloud Development Not Observable,-1.0,-7.0,30.26,1026.8,,,,0,0,0,,,,,,,,,2/8 Mostly Clear,72000.0,,FEW,2000.0,,,,,,
KRDR,10-31-2002,21:00,METAR,,280,15.0,20.0,,9999.0,Cloud Development Not Observable,-1.0,-7.0,30.25,1026.6,,,,0,0,0,,,,,,,,,2/8 Mostly Clear,72000.0,,FEW,2000.0,FEW,20000.0,,,,
KRDR,10-31-2002,20:00,METAR,,290,14.0,,,9999.0,Cloud Development Not Observable,-2.0,-7.0,30.27,1026.9,,,,0,0,0,,,,,,,,,2/8 Mostly Clear,72000.0,,FEW,2000.0,FEW,20000.0,,,,
KRDR,10-31-2002,19:00,METAR,,310,16.0,,,9999.0,Cloud Development Not Observable,-2.0,-7.0,30.29,1027.6,,,,0,0,0,,,,,,,,,2/8 Mostly Clear,72000.0,,FEW,2000.0,FEW,20000.0,,,,
KRDR,10-31-2002,18:00,METAR,,290,16.0,20.0,,9999.0,Cloud Development Not Observable,-3.0,-7.0,30.30,1028.1,,,,0,0,0,,,,,,,,,2/8 Mostly Clear,72000.0,,FEW,20000.0,,,,,,
KRDR,10-31-2002,17:00,METAR,,290,15.0,,,9999.0,Cloud Development Not Observable,-4.0,-8.0,30.31,1028.5,,,,0,0,0,,,,,,,,,2/8 Mostly Clear,72000.0,,FEW,20000.0,,,,,,
KRDR,10-31-2002,16:00,METAR,,300,15.0,,,9999.0,Cloud Development Not Observable,-5.0,-8.0,30.32,1028.8,,,,0,0,0,,,,,,,,,2/8 Mostly Clear,72000.0,,FEW,20000.0,,,,,,
KRDR,10-31-2002,15:00,METAR,,290,12.0,,,9999.0,Cloud Development Not Observable,-7.0,-8.0,30.32,1028.9,,,,0,0,0,,,,,,,,,2/8 Mostly Clear,72000.0,,FEW,20000.0,,,,,,
KRDR,10-31-2002,14:00,METAR,,290,10.0,,,9999.0,Cloud Development Not Observable,-9.0,-10.0,30.32,1028.9,,,,0,0,0,,,,,,,,,2/8 Mostly Clear,72000.0,,FEW,20000.0,,,,,,
KRDR,10-31-2002,13:00,METAR,,290,10.0,,,9999.0,Cloud Development Not Observable,-9.0,-10.0,30.31,1028.5,,,,0,0,0,,,,,,,,,2/8 Mostly Clear,72000.0,,FEW,20000.0,,,,,,
KRDR,10-31-2002,12:00,METAR,,290,10.0,,,9999.0,Cloud Development Not Observable,-9.0,-10.0,30.32,1028.8,,,,0,0,0,,,,,,,,,2/8 Mostly Clear,72000.0,,FEW,20000.0,,,,,,
KRDR,10-31-2002,11:00,METAR,,290,12.0,,,9999.0,Cloud Development Not Observable,-9.0,-9.0,30.31,1028.6,,,,0,0,0,,,,,,,,,2/8 Mostly Clear,72000.0,,FEW,20000.0,,,,,,
KRDR,10-31-2002,10:00,METAR,,280,7.0,,,9999.0,Cloud Development Not Observable,-10.0,-10.0,30.32,1028.9,,,,0,0,0,,,,,,,,,2/8 Mostly Clear,72000.0,,FEW,20000.0,,,,,,
KRDR,10-31-2002,08:00,METAR,,260,8.0,,,9999.0,Cloud Development Not Observable,-9.0,-9.0,30.36,1030.1,,,,0,0,0,,,,,,,,,Clear,72000.0,,,73000.0,,,,,,
KRDR,10-31-2002,07:00,METAR,,280,7.0,,,9999.0,Cloud Development Not Observable,-9.0,-9.0,30.36,1030.3,,,,0,0,0,,,,,,,,,Clear,72000.0,,,73000.0,,,,,,
KRDR,10-31-2002,05:00,METAR,,250,6.0,,,9999.0,Cloud Development Not Observable,-10.0,-10.0,30.37,1030.8,,,,0,0,0,,,,,,,,,2/8 Mostly Clear,72000.0,,FEW,20000.0,,,,,,
KRDR,10-31-2002,02:00,METAR,,280,7.0,,,9999.0,Cloud Development Not Observable,-8.0,-8.0,30.37,1030.8,,,,0,0,0,,,,,,,,,2/8 Mostly Clear,72000.0,,FEW,20000.0,,,,,,
KRDR,10-31-2002,00:00,METAR,,300,7.0,,,9999.0,Cloud Development Not Observable,-5.0,-7.0,30.39,1031.4,,,,0,0,0,,,,,,,,,2/8 Mostly Clear,72000.0,,FEW,3000.0,FEW,20000.0,,,,
KRDR,10-30-2002,23:00,METAR,,300,9.0,,,9999.0,Cloud Development Not Observable,-3.0,-7.0,30.38,1031.0,,,,0,0,0,,,,,,,,,4/8 Partly Cloudy,72000.0,,SCT,3000.0,,,,,,
KRDR,10-30-2002,21:00,METAR,,300,13.0,,,9999.0,Cloud Development Not Observable,-2.0,-7.0,30.38,1031.0,,,,0,0,0,,,,,,,,,4/8 Partly Cloudy,72000.0,,SCT,3100.0,SCT,25000.0,,,,
KRDR,10-30-2002,20:00,METAR,,290,13.0,,,9999.0,Cloud Development Not Observable,-2.0,-7.0,30.39,1031.3,,,,0,0,0,,,,,,,,,4/8 Partly Cloudy,72000.0,,SCT,3100.0,SCT,25000.0,,,,
KRDR,10-30-2002,19:00,METAR,,300,12.0,,,9999.0,Cloud Development Not Observable,-3.0,-7.0,30.41,1032.1,,,,0,0,0,,,,,,,,,4/8 Partly Cloudy,72000.0,,SCT,3100.0,SCT,25000.0,,,,
KRDR,10-30-2002,18:00,METAR,,310,13.0,,,9999.0,Cloud Development Not Observable,-3.0,-8.0,30.44,1032.9,,,,0,0,0,,,,,,,IN,,4/8 Partly Cloudy,72000.0,,SCT,3500.0,SCT,25000.0,,,,
KRDR,10-30-2002,17:00,METAR,,300,12.0,,,9999.0,Cloud Development Not Observable,-4.0,-8.0,30.45,1033.3,,,,0,0,0,,,,,,,,,4/8 Partly Cloudy,72000.0,,FEW,4000.0,SCT,25000.0,,,,
KRDR,10-30-2002,16:00,METAR,,350,11.0,,,9999.0,Cloud Development Not Observable,-5.0,-8.0,30.46,1033.7,,,,0,0,0,,,,,,,,,4/8 Partly Cloudy,72000.0,,FEW,4000.0,SCT,20000.0,,,,
KRDR,10-30-2002,15:00,METAR,,320,11.0,,,9999.0,Cloud Development Not Observable,-6.0,-7.0,30.46,1033.5,,,,0,0,0,,,,,,TRACE,,,7/8 Mostly Cloudy,3900.0,,BKN,4000.0,,,,,,
KRDR,10-30-2002,14:38,SPECI,,320,11.0,,,9999.0,Cloud Development Not Observable,-7.0,-8.0,30.45,,,,,0,0,0,,,,,,,,,7/8 Mostly Cloudy,3800.0,,BKN,3900.0,,,,,,
KRDR,10-30-2002,14:00,METAR,,320,9.0,,,9999.0,Light Snow/Cloud Development Not Observable,-7.0,-7.0,30.44,1033.1,,,,71,0,0,,,,,,,,,8/8 Overcast,3700.0,,OVC,3800.0,,,,,,
KRDR,10-30-2002,13:00,METAR,,310,10.0,,,9999.0,Light Snow/Cloud Development Not Observable,-7.0,-8.0,30.44,1033.0,,,,71,0,0,,,,,,,,,8/8 Overcast,3600.0,,OVC,3700.0,,,,,,
KRDR,10-30-2002,12:00,METAR,,300,9.0,,,9999.0,Light Snow/Cloud Development Not Observable,-7.0,-8.0,30.44,1032.9,,,,71,0,0,,,,,,,IN,,8/8 Overcast,3700.0,,OVC,3800.0,,,,,,
KRDR,10-30-2002,11:41,SPECI,,300,7.0,,,9999.0,Light Snow/Cloud Development Not Observable,-7.0,-8.0,30.44,,,,,71,0,0,,,,,,,,,8/8 Overcast,3700.0,,OVC,3800.0,,,,,,
KRDR,10-30-2002,11:00,METAR,,290,7.0,,,9999.0,Cloud Development Not Observable,-7.0,-8.0,30.43,1032.5,,,,0,0,0,,,,,,,,,8/8 Overcast,3800.0,,BKN,3900.0,OVC,20000.0,,,,
KRDR,10-30-2002,10:19,SPECI,,310,9.0,,,9999.0,Cloud Development Not Observable,-7.0,-8.0,30.43,,,,,0,0,0,,,,,,,,,7/8 Mostly Cloudy,3700.0,,BKN,3800.0,BKN,20000.0,,,,
KRDR,10-30-2002,10:00,METAR,,310,8.0,,,9999.0,Light Snow/Cloud Development Not Observable,-7.0,-8.0,30.43,1032.6,,,,71,0,0,,,,,,,,,8/8 Overcast,3700.0,,OVC,3800.0,,,,,,
KRDR,10-30-2002,09:00,METAR,,310,10.0,,,9999.0,Light Snow/Cloud Development Not Observable,-9.0,-9.0,30.43,1032.5,,,,71,0,0,,,,,,TRACE,,,7/8 Mostly Cloudy,3500.0,,BKN,3600.0,BKN,20000.0,,,,
KRDR,10-30-2002,08:47,SPECI,,310,10.0,,,9999.0,Light Snow/Cloud Development Not Observable,-9.0,-9.0,30.43,,,,,71,0,0,,,,,,,,,7/8 Mostly Cloudy,3500.0,,BKN,3600.0,BKN,20000.0,,,,
KRDR,10-30-2002,08:00,METAR,,310,10.0,,,9999.0,Cloud Development Not Observable,-9.0,-9.0,30.43,1032.7,,,,0,0,0,,,,,,,,,4/8 Partly Cloudy,72000.0,,SCT,20000.0,,,,,,
KRDR,10-30-2002,07:00,METAR,,310,8.0,,,9999.0,Cloud Development Not Observable,-9.0,-9.0,30.43,1032.6,,,,0,0,0,,,,,,,,,4/8 Partly Cloudy,72000.0,,SCT,20000.0,,,,,,
KRDR,10-30-2002,06:00,METAR,,310,7.0,,,9999.0,Cloud Development Not Observable,-8.0,-8.0,30.43,1032.7,,,,0,0,0,,,,,,,,,2/8 Mostly Clear,72000.0,,FEW,20000.0,,,,,,
KRDR,10-30-2002,05:00,METAR,,320,7.0,,,9999.0,Cloud Development Not Observable,-8.0,-8.0,30.43,1032.7,,,,0,0,0,,,,,,,,,2/8 Mostly Clear,72000.0,,FEW,20000.0,,,,,,
KRDR,10-30-2002,04:00,METAR,,330,8.0,,,9999.0,Cloud Development Not Observable,-7.0,-8.0,30.43,1032.5,,,,0,0,0,,,,,,,,,7/8 Mostly Cloudy,20000.0,,BKN,20000.0,,,,,,
KRDR,10-30-2002,03:00,METAR,,350,9.0,,,9999.0,Cloud Development Not Observable,-7.0,-8.0,30.42,1032.2,,,,0,0,0,,,,,,,,,7/8 Mostly Cloudy,20000.0,,FEW,3500.0,BKN,20000.0,,,,
KRDR,10-30-2002,02:00,METAR,,350,12.0,,,9999.0,Cloud Development Not Observable,-6.0,-7.0,30.41,1031.8,,,,0,0,0,,,,,,,,,7/8 Mostly Cloudy,20000.0,,FEW,3000.0,BKN,20000.0,,,,
KRDR,10-30-2002,01:00,METAR,,350,13.0,,,9999.0,Cloud Development Not Observable,-5.0,-6.0,30.41,1031.8,,,,0,0,0,,,,,,,,,7/8 Mostly Cloudy,20000.0,,FEW,3000.0,BKN,20000.0,,,,
KRDR,10-29-2002,23:59,METAR,,350,15.0,,,9999.0,Cloud Development Not Observable,-4.0,-6.0,30.38,1030.8,,,,0,0,0,,,,,,,,,7/8 Mostly Cloudy,20000.0,,FEW,2500.0,BKN,20000.0,,,,
KRDR,10-29-2002,23:00,METAR,,350,18.0,,,9999.0,Cloud Development Not Observable,-3.0,-5.0,30.36,1030.0,,,,0,0,0,,,,,,,,,7/8 Mostly Cloudy,20000.0,,FEW,2500.0,BKN,20000.0,,,,
KRDR,10-29-2002,22:00,METAR,,340,18.0,,360/28KTS,9999.0,Cloud Development Not Observable,-2.0,-4.0,30.35,1029.6,,,,0,0,0,,,,,,,,,7/8 Mostly Cloudy,20000.0,,SCT,2400.0,BKN,20000.0,,,,
KRDR,10-29-2002,21:00,METAR,,350,18.0,,,9999.0,Cloud Development Not Observable,-1.0,-4.0,30.33,1028.6,,,,0,0,0,,,,,,,,,4/8 Partly Cloudy,72000.0,,SCT,2000.0,SCT,20000.0,,,,
KRDR,10-29-2002,20:00,METAR,,350,18.0,,,9999.0,Cloud Development Not Observable,-2.0,-3.0,30.32,1028.4,,,,0,0,0,,,,,,,,,4/8 Partly Cloudy,72000.0,,FEW,1000.0,SCT,2000.0,SCT,4000.0,,
KRDR,10-29-2002,19:14,SPECI,,350,19.0,,,9999.0,Cloud Development Not Observable,-2.0,-3.0,30.32,,,,,0,0,0,,,,,,,,,7/8 Mostly Cloudy,2000.0,,FEW,1000.0,BKN,2000.0,,,,
KRDR,10-29-2002,19:00,METAR,,350,18.0,24.0,360/25KTS,9999.0,Cloud Development Not Observable,-3.0,-3.0,30.32,1028.4,,,,0,0,0,,,,,,,,,7/8 Mostly Cloudy,1000.0,,BKN,1000.0,,,,,,
KRDR,10-29-2002,18:00,METAR,,350,19.0,,350/25KTS,9999.0,Cloud Development Not Observable,-3.0,-3.0,30.33,1028.7,,,,0,0,0,,,,,,,IN,,8/8 Overcast,1000.0,,FEW,900.0,OVC,1000.0,,,,
KRDR,10-29-2002,17:00,METAR,,350,18.0,,,9999.0,Cloud Development Not Observable,-3.0,-3.0,30.33,1028.7,,,,0,0,0,,,,,,,,,8/8 Overcast,1000.0,,FEW,800.0,OVC,1000.0,,,,
KRDR,10-29-2002,16:00,METAR,,350,17.0,24.0,360/25KTS,9999.0,Cloud Development Not Observable,-3.0,-3.0,30.31,1028.0,,,,0,0,0,,,,,,,,,8/8 Overcast,1000.0,,FEW,800.0,OVC,1000.0,,,,
KRDR,10-29-2002,15:00,METAR,,360,17.0,,,9999.0,Cloud Development Not Observable,-3.0,-3.0,30.31,1028.0,,,,0,0,0,,,,,,TRACE,,,8/8 Overcast,1000.0,,FEW,900.0,OVC,1000.0,,,,
KRDR,10-29-2002,14:00,METAR,,360,15.0,,,9999.0,Cloud Development Not Observable,-3.0,-3.0,30.28,1027.0,,,,0,0,0,,,,,,,,,8/8 Overcast,1100.0,,FEW,800.0,OVC,1100.0,,,,
KRDR,10-29-2002,13:38,SPECI,,360,18.0,,,9999.0,Cloud Development Not Observable,-3.0,-3.0,30.28,,,,,0,0,0,,,,,,,,,8/8 Overcast,1100.0,,SCT,800.0,OVC,1100.0,,,,
KRDR,10-29-2002,13:00,METAR,,360,15.0,22.0,,9999.0,Cloud Development Not Observable,-3.0,-3.0,30.26,1026.4,,,,0,0,0,,,,,,,,,8/8 Overcast,800.0,,OVC,800.0,,,,,,
KRDR,10-29-2002,12:39,SPECI,,350,16.0,,,9999.0,Cloud Development Not Observable,-3.0,-3.0,30.25,,,,,0,0,0,,,,,,,,,8/8 Overcast,800.0,,OVC,800.0,,,,,,
KRDR,10-29-2002,12:26,SPECI,,360,17.0,25.0,,9999.0,Cloud Development Not Observable,-3.0,-3.0,30.25,,,,,0,0,0,,,,,,,,,8/8 Overcast,500.0,,BKN,500.0,OVC,1000.0,,,,
KRDR,10-29-2002,12:00,METAR,,360,15.0,23.0,,9999.0,Light Snow/Cloud Development Not Observable,-2.0,-2.0,30.24,1025.7,,,,71,0,0,,,,,,,.01 IN,,8/8 Overcast,500.0,,BKN,500.0,OVC,1000.0,,,,
KRDR,10-29-2002,11:10,SPECI,,360,16.0,25.0,,8000.0,Light Snow/Mist/Cloud Development Not Observable,-2.0,-2.0,30.23,,,,,71,10,0,,,,,,,,,8/8 Overcast,500.0,,BKN,500.0,OVC,1000.0,,,,
KRDR,10-29-2002,11:00,METAR,,350,18.0,25.0,,2400.0,Light Snow/Mist/Cloud Development Not Observable,-2.0,-2.0,30.23,1025.3,,,,71,10,0,,,,,,,,,8/8 Overcast,500.0,,OVC,500.0,,,,,,
KRDR,10-29-2002,10:00,METAR,,360,16.0,,,2400.0,Light Snow/Mist/Cloud Development Not Observable,-1.0,-1.0,30.20,1024.2,,,,71,10,0,,,,,,,,,8/8 Overcast,500.0,,OVC,500.0,,,,,,
KRDR,10-29-2002,09:00,METAR,,360,16.0,,,2400.0,Light Snow/Mist/Cloud Development Not Observable,0.0,0.0,30.18,1023.4,,,,71,10,0,,,,,,.01 IN,,,8/8 Overcast,500.0,,OVC,500.0,,,,,,
KRDR,10-29-2002,08:47,SPECI,,360,14.0,,,2400.0,Light Snow/Mist/Cloud Development Not Observable,-1.0,-1.0,30.18,,,,,71,10,0,,,,,,,,,8/8 Overcast,500.0,,OVC,500.0,,,,,,
KRDR,10-29-2002,08:00,METAR,,360,13.0,,,4800.0,Light Snow/Mist/Cloud Development Not Observable,0.0,0.0,30.18,1023.4,,,,71,10,0,,,,,,,,,8/8 Overcast,500.0,,OVC,500.0,,,,,,
KRDR,10-29-2002,07:00,METAR,,360,12.0,,,4800.0,Light Snow/Mist/Cloud Development Not Observable,0.0,0.0,30.16,1022.7,,,,71,10,0,,,,,,,,,8/8 Overcast,500.0,,OVC,500.0,,,,,,
KRDR,10-29-2002,06:00,METAR,,360,13.0,,,4800.0,Light Snow/Mist/Cloud Development Not Observable,0.0,0.0,30.14,1022.3,,,,71,10,0,,,,,,,.02 IN,,8/8 Overcast,500.0,,OVC,500.0,,,,,,
KRDR,10-29-2002,04:00,METAR,,360,13.0,,,6400.0,Light Snow/Mist/Cloud Development Not Observable,1.0,1.0,30.12,1021.6,,,,71,10,0,,,,,,,,,8/8 Overcast,500.0,,BKN,500.0,OVC,1000.0,,,,
KRDR,10-29-2002,03:00,METAR,,10,11.0,,,6400.0,Light Snow/Mist/Cloud Development Not Observable,1.0,1.0,30.11,1021.0,,,,71,10,0,,,,,,.03 IN,,,8/8 Overcast,500.0,,BKN,500.0,OVC,1000.0,,,,
KRDR,10-29-2002,02:00,METAR,,360,13.0,,,6400.0,Light Snow/Mist/Cloud Development Not Observable,1.0,1.0,30.09,1020.5,,,,71,10,0,,,,,,,,,8/8 Overcast,500.0,,BKN,500.0,OVC,1500.0,,,,
KRDR,10-29-2002,01:00,METAR,,350,10.0,,,6400.0,Light Snow/Mist/Cloud Development Not Observable,1.0,1.0,30.08,1020.2,,,,71,10,0,,,,,,,,,8/8 Overcast,500.0,,FEW,300.0,BKN,500.0,OVC,1500.0,,
KRDR,10-29-2002,00:00,METAR,,360,10.0,,,4800.0,Light Snow/Rain/Mist,1.0,1.0,30.05,1018.5,,,,61,71,10,,,,,,,.07 IN,,8/8 Overcast,500.0,,FEW,300.0,BKN,500.0,OVC,1500.0,,
KRDR,10-28-2002,23:00,METAR,,360,8.0,,,4800.0,Rain/Mist/Cloud Development Not Observable,3.0,3.0,30.03,1018.5,,,,61,10,0,,,,,,,,,8/8 Overcast,500.0,,FEW,300.0,BKN,500.0,OVC,1500.0,,
KRDR,10-28-2002,22:00,METAR,,190,4.0,,,4800.0,Rain/Mist/Cloud Development Not Observable,4.0,4.0,30.00,1017.2,,,,61,10,0,,,,,,,,,8/8 Overcast,500.0,,FEW,300.0,BKN,500.0,OVC,1500.0,,
KRDR,10-28-2002,21:49,SPECI,,180,5.0,,,4800.0,Rain/Mist/Cloud Development Not Observable,4.0,4.0,30.00,,,,,61,10,0,,,,,,,,,8/8 Overcast,500.0,,FEW,300.0,BKN,500.0,OVC,1500.0,,
KRDR,10-28-2002,21:42,SPECI,,190,4.0,,,4000.0,Rain/Mist/Cloud Development Not Observable,4.0,4.0,30.00,,,,,61,10,0,,,,,,,,,8/8 Overcast,500.0,,FEW,300.0,BKN,500.0,OVC,1500.0,,
KRDR,10-28-2002,21:00,METAR,,180,6.0,,,4000.0,Drizzle/Mist/Cloud Development Not Observable,4.0,4.0,30.00,1017.2,,,,51,10,0,,,,,,.01 IN,,,8/8 Overcast,700.0,,SCT,300.0,BKN,700.0,OVC,1000.0,,
KRDR,10-28-2002,20:00,METAR,,180,8.0,,,4000.0,Drizzle/Mist/Cloud Development Not Observable,4.0,4.0,30.00,1017.2,,,,51,10,0,,,,,,,,,8/8 Overcast,700.0,,SCT,500.0,BKN,700.0,OVC,1200.0,,
KRDR,10-28-2002,18:00,METAR,,180,9.0,,,4000.0,Drizzle/Mist/Cloud Development Not Observable,3.0,3.0,30.00,1017.3,,,,51,10,0,,,,,,,.07 IN,,8/8 Overcast,500.0,,BKN,500.0,OVC,700.0,,,,
KRDR,10-28-2002,17:43,SPECI,,190,10.0,,,4000.0,Drizzle/Mist/Cloud Development Not Observable,3.0,3.0,30.00,,,,,51,10,0,,,,,,,,,8/8 Overcast,500.0,,BKN,500.0,OVC,700.0,,,,
KRDR,10-28-2002,17:12,SPECI,,200,8.0,,,4000.0,Drizzle/Mist/Cloud Development Not Observable,3.0,3.0,30.00,,,,,51,10,0,,,,,,,,,8/8 Overcast,700.0,,BKN,700.0,OVC,1000.0,,,,
KRDR,10-28-2002,17:00,METAR,,190,7.0,,,4000.0,Drizzle/Mist/Cloud Development Not Observable,3.0,3.0,30.00,1017.3,,,,51,10,0,,,,,,,,,8/8 Overcast,500.0,,BKN,500.0,OVC,1000.0,,,,
KRDR,10-28-2002,16:00,METAR,,190,9.0,,,8000.0,Drizzle/Mist/Cloud Development Not Observable,2.0,2.0,29.99,1016.9,,,,51,10,0,,,,,,,,,8/8 Overcast,500.0,,BKN,500.0,OVC,1000.0,,,,
KRDR,10-28-2002,15:00,METAR,,160,7.0,,,8000.0,Light Snow/Drizzle/Mist,2.0,2.0,29.99,1016.9,,,,51,71,10,,,,,,.05 IN,,,8/8 Overcast,500.0,,BKN,500.0,OVC,900.0,,,,
KRDR,10-28-2002,14:36,SPECI,,160,6.0,,,8000.0,Drizzle/Cloud Development Not Observable,2.0,2.0,29.99,,,,,51,0,0,,,,,,,,,8/8 Overcast,500.0,,BKN,500.0,OVC,900.0,,,,
KRDR,10-28-2002,14:00,METAR,,140,4.0,,,4000.0,Light Snow/Rain/Mist,1.0,1.0,29.98,1016.8,,,,61,71,10,,,,,,,,,8/8 Overcast,700.0,,OVC,700.0,,,,,,
KRDR,10-28-2002,13:49,SPECI,,140,5.0,,,4000.0,Light Snow/Rain/Mist,1.0,1.0,29.98,,,,,61,71,10,,,,,,,,,8/8 Overcast,700.0,,OVC,700.0,,,,,,
KRDR,10-28-2002,13:37,SPECI,,140,4.0,,,4000.0,Light Snow/Mist/Cloud Development Not Observable,1.0,1.0,29.98,,,,,71,10,0,,,,,,,,,8/8 Overcast,400.0,,OVC,400.0,,,,,,
KRDR,10-28-2002,13:00,METAR,,170,6.0,,,4000.0,Light Snow/Rain/Fog or Ice Fog,1.0,1.0,29.98,1016.7,,,,61,71,44,,,,,,,,,8/8 Overcast,600.0,,BKN,600.0,OVC,900.0,,,,
KRDR,10-28-2002,12:00,METAR,,180,8.0,,,9999.0,Light Snow/Rain/Cloud Development Not Observable,2.0,2.0,29.98,1016.7,,,,61,71,0,,,,,,,.03 IN,,8/8 Overcast,700.0,,SCT,400.0,OVC,700.0,,,,
KRDR,10-28-2002,11:00,METAR,,180,7.0,,,9999.0,Light Snow/Rain/Cloud Development Not Observable,2.0,2.0,29.97,1016.4,,,,61,71,0,,,,,,,,,8/8 Overcast,700.0,,BKN,700.0,OVC,1000.0,,,,
KRDR,10-28-2002,10:45,METAR,,180,8.0,,,9999.0,Light Snow/Rain/Cloud Development Not Observable,2.0,2.0,29.97,,,,,61,71,0,,,,,,,,,8/8 Overcast,700.0,,BKN,700.0,OVC,1000.0,,,,
KRDR,10-28-2002,10:00,METAR,,180,9.0,,,6400.0,Light Snow/Rain/Mist,2.0,2.0,29.98,1016.7,,,,61,71,10,,,,,,,,,8/8 Overcast,500.0,,OVC,500.0,,,,,,
KRDR,10-28-2002,08:55,METAR,,180,11.0,,,6400.0,Light Snow/Rain/Mist,2.0,2.0,29.99,1017.1,,,,61,71,10,,,,,,.02 IN,,,8/8 Overcast,500.0,,BKN,500.0,OVC,1000.0,,,,
KRDR,10-28-2002,08:05,SPECI,,170,10.0,,,6400.0,Rain/Mist/Cloud Development Not Observable,2.0,2.0,30.01,,,,,61,10,0,,,,,,,,,8/8 Overcast,600.0,,BKN,600.0,OVC,1000.0,,,,
KRDR,10-28-2002,08:00,METAR,,170,10.0,,,6400.0,Rain/Mist/Cloud Development Not Observable,2.0,2.0,30.01,1017.6,,,,61,10,0,,,,,,,,,8/8 Overcast,1000.0,,SCT,500.0,OVC,1000.0,,,,
KRDR,10-28-2002,07:00,METAR,,150,9.0,,,8000.0,Light Snow/Rain/Mist,2.0,2.0,30.02,1018.2,,,,61,71,10,,,,,,,,,8/8 Overcast,1100.0,,SCT,500.0,OVC,1100.0,,,,
KRDR,10-28-2002,06:49,SPECI,,150,9.0,,,8000.0,Light Snow/Rain/Mist,2.0,2.0,30.02,,,,,61,71,10,,,,,,,,,8/8 Overcast,1100.0,,SCT,500.0,OVC,1100.0,,,,
KRDR,10-28-2002,06:00,METAR,,150,8.0,,,9999.0,Light Snow/Rain/Cloud Development Not Observable,2.0,2.0,30.03,1019.2,,,,61,71,0,,,,,,,.04 IN,,8/8 Overcast,1200.0,,BKN,1200.0,OVC,5000.0,,,,
KRDR,10-28-2002,05:42,SPECI,,140,7.0,,,8000.0,Light Snow/Rain/Mist,2.0,2.0,30.03,,,,,61,71,10,,,,,,,,,8/8 Overcast,1800.0,,BKN,1800.0,OVC,5000.0,,,,
KRDR,10-28-2002,05:32,SPECI,,130,7.0,,,8000.0,Light Snow/Rain/Mist,2.0,2.0,30.04,,,,,61,71,10,,,,,,,,,8/8 Overcast,4900.0,,SCT,2000.0,OVC,5000.0,,,,
KRDR,10-28-2002,05:00,METAR,,140,8.0,,,8000.0,Light Snow/Rain/Mist,2.0,2.0,30.06,1019.4,,,,61,71,10,,,,,,,,,8/8 Overcast,2000.0,,FEW,1000.0,OVC,2000.0,,,,
KRDR,10-28-2002,04:00,METAR,,130,8.0,,,8000.0,Light Snow/Rain/Mist,2.0,2.0,30.07,1019.7,,,,61,71,10,,,,,,,,,8/8 Overcast,1800.0,,BKN,1800.0,OVC,5900.0,,,,
KRDR,10-28-2002,03:00,METAR,,140,6.0,,,9999.0,Light Snow/Rain/Mist,2.0,2.0,30.09,1020.3,,,,61,71,10,,,,,,.03 IN,,,8/8 Overcast,1500.0,,FEW,1000.0,BKN,1500.0,OVC,2500.0,,
KRDR,10-28-2002,02:00,METAR,,120,6.0,,,9999.0,Light Snow/Mist/Cloud Development Not Observable,2.0,2.0,30.09,1020.6,,,,71,10,0,,,,,,,,,8/8 Overcast,1500.0,,BKN,1500.0,OVC,2500.0,,,,
KRDR,10-28-2002,01:00,METAR,,120,5.0,,,9999.0,Rain/Mist/Cloud Development Not Observable,1.0,1.0,30.11,1021.1,,,,61,10,0,,,,,,,,,8/8 Overcast,1500.0,,BKN,1500.0,BKN,2500.0,OVC,4500.0,,
KRDR,10-27-2002,23:59,METAR,,80,4.0,,,9999.0,Rain/Mist/Cloud Development Not Observable,1.0,1.0,30.11,1021.8,,,,61,10,0,,,,,,,.04 IN,,8/8 Overcast,1500.0,,BKN,1500.0,OVC,4500.0,,,,
KRDR,10-27-2002,23:00,METAR,,100,4.0,,,9999.0,Rain/Mist/Cloud Development Not Observable,2.0,2.0,30.13,1021.8,,,,61,10,0,,,,,,,,,8/8 Overcast,1500.0,,FEW,500.0,BKN,1500.0,OVC,4500.0,,
KRDR,10-27-2002,22:00,METAR,,140,5.0,,,9999.0,Rain/Mist/Cloud Development Not Observable,1.0,1.0,30.14,1022.2,,,,61,10,0,,,,,,,,,8/8 Overcast,1500.0,,SCT,500.0,OVC,1500.0,,,,
KRDR,10-27-2002,21:45,METAR,,170,7.0,,,4000.0,Light Snow/Cloud Development Not Observable,1.0,1.0,30.14,,,,,71,0,0,,,,,,,,,8/8 Overcast,1500.0,,SCT,500.0,OVC,1500.0,,,,
KRDR,10-27-2002,21:00,METAR,,160,9.0,,,9999.0,Rain/Cloud Development Not Observable,2.0,2.0,30.16,1022.8,,,,61,0,0,,,,,,.01 IN,,,8/8 Overcast,1500.0,,BKN,1500.0,OVC,2000.0,,,,
KRDR,10-27-2002,20:00,METAR,,170,13.0,,,9999.0,Rain/Cloud Development Not Observable,4.0,1.0,30.17,1023.1,,,,61,0,0,,,,,,,,,8/8 Overcast,2000.0,,OVC,2000.0,,,,,,
KRDR,10-27-2002,19:00,METAR,,150,9.0,,,9999.0,Cloud Development Not Observable,3.0,0.0,30.20,1024.2,,,,0,0,0,,,,,,,,,8/8 Overcast,2800.0,,OVC,2800.0,,,,,,
KRDR,10-27-2002,18:00,METAR,,140,8.0,,,9999.0,Cloud Development Not Observable,2.0,0.0,30.22,1025.0,,,,0,0,0,,,,,,,,,8/8 Overcast,2000.0,,OVC,2000.0,,,,,,
KRDR,10-27-2002,17:00,METAR,,120,8.0,,,9999.0,Cloud Development Not Observable,2.0,0.0,30.23,1025.3,,,,0,0,0,,,,,,,,,8/8 Overcast,1800.0,,OVC,1800.0,,,,,,
KRDR,10-27-2002,16:00,METAR,,120,7.0,,,9999.0,Cloud Development Not Observable,2.0,0.0,30.23,1025.3,,,,0,0,0,,,,,,,,,8/8 Overcast,2000.0,,OVC,2000.0,,,,,,
KRDR,10-27-2002,15:00,METAR,,130,7.0,,,9999.0,Cloud Development Not Observable,0.0,-1.0,30.24,1025.7,,,,0,0,0,,,,,,,,,8/8 Overcast,2000.0,,OVC,2000.0,,,,,,
KRDR,10-27-2002,14:00,METAR,,110,6.0,,,9999.0,Cloud Development Not Observable,-1.0,-1.0,30.25,1026.0,,,,0,0,0,,,,,,,,,8/8 Overcast,2500.0,,OVC,2500.0,,,,,,
KRDR,10-27-2002,13:00,METAR,,,3.0,,,9999.0,Cloud Development Not Observable,-1.0,-1.0,30.25,1026.0,,,,0,0,0,,,,,,,,,8/8 Overcast,2600.0,,FEW,2000.0,OVC,2600.0,,,,
KRDR,10-27-2002,12:00,METAR,,70,3.0,,,9999.0,Cloud Development Not Observable,-1.0,-1.0,30.23,1025.3,,,,0,0,0,,,,,,,IN,,8/8 Overcast,2700.0,,BKN,2700.0,OVC,7900.0,,,,
KRDR,10-27-2002,11:25,METAR,,90,2.0,,,9999.0,Cloud Development Not Observable,-2.0,-2.0,30.23,,,,,0,0,0,,,,,,,,,8/8 Overcast,2500.0,,BKN,2500.0,OVC,8900.0,,,,
KRDR,10-27-2002,11:00,METAR,,70,5.0,,,9999.0,Light Snow/Cloud Development Not Observable,-1.0,-2.0,30.23,1025.3,,,,71,0,0,,,,,,,,,7/8 Mostly Cloudy,8000.0,,BKN,7900.0,,,,,,
KRDR,10-27-2002,10:00,METAR,,350,3.0,,,9999.0,Light Snow/Cloud Development Not Observable,-1.0,-1.0,30.23,1025.2,,,,71,0,0,,,,,,,,,8/8 Overcast,6000.0,,OVC,5900.0,,,,,,
KRDR,10-27-2002,09:00,METAR,,330,2.0,,,9999.0,Light Snow/Cloud Development Not Observable,-1.0,-1.0,30.23,1025.2,,,,71,0,0,,,,,,TRACE,,,8/8 Overcast,6000.0,,OVC,5900.0,,,,,,
KRDR,10-27-2002,08:00,METAR,,320,3.0,,,9999.0,Light Snow/Cloud Development Not Observable,-1.0,-1.0,30.23,1025.2,,,,71,0,0,,,,,,,,,8/8 Overcast,7500.0,,OVC,7400.0,,,,,,
KRDR,10-27-2002,07:00,METAR,,320,3.0,,,9999.0,Light Snow/Cloud Development Not Observable,-1.0,-1.0,30.22,1025.1,,,,71,0,0,,,,,,,,,8/8 Overcast,7500.0,,FEW,5000.0,OVC,7400.0,,,,
KRDR,10-27-2002,06:00,METAR,,330,2.0,,,9999.0,Light Snow/Cloud Development Not Observable,-1.0,-1.0,30.21,1024.6,,,,71,0,0,,,,,,,IN,,8/8 Overcast,7500.0,,SCT,5000.0,OVC,7400.0,,,,
KRDR,10-27-2002,05:00,METAR,,290,2.0,,,9999.0,Cloud Development Not Observable,-1.0,-2.0,30.21,1024.6,,,,0,0,0,,,,,,,,,8/8 Overcast,7500.0,,FEW,4000.0,OVC,7400.0,,,,
KRDR,10-27-2002,04:12,SPECI,,,1.0,,,9999.0,Cloud Development Not Observable,0.0,-1.0,30.19,,,,,0,0,0,,,,,,,,,8/8 Overcast,7000.0,,FEW,4000.0,OVC,6900.0,,,,
KRDR,10-27-2002,03:00,METAR,,10,4.0,,,9999.0,Cloud Development Not Observable,1.0,-1.0,30.18,1023.7,,,,0,0,0,,,,,,,,,8/8 Overcast,2700.0,,BKN,2700.0,OVC,4000.0,,,,
KRDR,10-27-2002,02:00,METAR,,360,5.0,,,9999.0,Cloud Development Not Observable,1.0,-1.0,30.17,1023.2,,,,0,0,0,,,,,,,,,7/8 Mostly Cloudy,2700.0,,BKN,2700.0,BKN,4500.0,,,,
KRDR,10-27-2002,01:00,METAR,,360,6.0,,,9999.0,Cloud Development Not Observable,2.0,-1.0,30.15,1022.4,,,,0,0,0,,,,,,,,,7/8 Mostly Cloudy,2600.0,,BKN,2600.0,BKN,4000.0,,,,
KRDR,10-27-2002,00:00,METAR,,20,7.0,,,9999.0,Cloud Development Not Observable,2.0,0.0,30.13,1021.7,,,,0,0,0,,,,,,,IN,,7/8 Mostly Cloudy,2500.0,,BKN,2500.0,BKN,4000.0,,,,
KRDR,10-26-2002,23:00,METAR,,350,5.0,,,9999.0,Cloud Development Not Observable,2.0,0.0,30.12,1021.4,,,,0,0,0,,,,,,,,,7/8 Mostly Cloudy,2500.0,,BKN,2500.0,BKN,3500.0,,,,
KRDR,10-26-2002,22:00,METAR,,330,5.0,,,9999.0,Cloud Development Not Observable,3.0,0.0,30.11,1021.2,,,,0,0,0,,,,,,,,,7/8 Mostly Cloudy,2500.0,,BKN,2500.0,BKN,3500.0,,,,
KRDR,10-26-2002,20:30,METAR,,320,8.0,,,9999.0,Cloud Development Not Observable,3.0,0.0,30.11,,,,,0,0,0,,,,,,,,,7/8 Mostly Cloudy,2500.0,,BKN,2500.0,BKN,4000.0,,,,
KRDR,10-26-2002,19:00,METAR,,300,8.0,,,6400.0,Light Snow/Cloud Development Not Observable,2.0,0.0,30.12,1021.4,,,,71,0,0,,,,,,,,,8/8 Overcast,3400.0,,SCT,2000.0,OVC,3500.0,,,,
KRDR,10-26-2002,18:04,SPECI,,300,8.0,,,6400.0,Light Snow/Cloud Development Not Observable,2.0,0.0,30.12,,,,,71,0,0,,,,,,,,,8/8 Overcast,3400.0,,SCT,2000.0,OVC,3500.0,,,,
KRDR,10-26-2002,18:00,METAR,,310,9.0,,,9999.0,Cloud Development Not Observable,2.0,-1.0,30.12,,,,,0,0,0,,,,,,,IN,,8/8 Overcast,3000.0,,SCT,2000.0,OVC,3000.0,,,,
KRDR,10-26-2002,17:00,METAR,,300,7.0,,,9999.0,Cloud Development Not Observable,2.0,-1.0,30.11,,,,,0,0,0,,,,,,,,,8/8 Overcast,3900.0,,SCT,2000.0,OVC,4000.0,,,,
KRDR,10-26-2002,16:42,SPECI,,310,7.0,,,9999.0,Cloud Development Not Observable,2.0,-1.0,30.11,,,,,0,0,0,,,,,,,,,8/8 Overcast,3900.0,,SCT,2000.0,OVC,4000.0,,,,
KRDR,10-26-2002,16:00,METAR,,350,8.0,,,9999.0,Cloud Development Not Observable,1.0,-1.0,30.11,1021.0,,,,0,0,0,,,,,,,,,8/8 Overcast,2800.0,,SCT,2000.0,OVC,2800.0,,,,
KRDR,10-26-2002,15:44,SPECI,,330,8.0,,,9999.0,Cloud Development Not Observable,1.0,-1.0,30.11,,,,,0,0,0,,,,,,,,,8/8 Overcast,2800.0,,SCT,2000.0,OVC,2800.0,,,,
KRDR,10-26-2002,15:00,METAR,,300,7.0,,,9999.0,Light Snow/Cloud Development Not Observable,1.0,0.0,30.10,1020.7,,,,71,0,0,,,,,,TRACE,,,8/8 Overcast,2900.0,,OVC,2900.0,,,,,,
KRDR,10-26-2002,14:33,SPECI,,310,6.0,,,9999.0,Light Snow/Cloud Development Not Observable,0.0,0.0,30.10,,,,,71,0,0,,,,,,,,,8/8 Overcast,2900.0,,OVC,2900.0,,,,,,
KRDR,10-26-2002,14:08,SPECI,,320,6.0,,,9999.0,Light Snow/Cloud Development Not Observable,0.0,0.0,30.09,,,,,71,0,0,,,,,,,,,8/8 Overcast,3100.0,,SCT,2800.0,OVC,3200.0,,,,
KRDR,10-26-2002,14:00,METAR,,310,6.0,,,9999.0,Cloud Development Not Observable,0.0,-1.0,30.09,1020.3,,,,0,0,0,,,,,,,,,8/8 Overcast,3100.0,,SCT,2800.0,OVC,3200.0,,,,
KRDR,10-26-2002,13:00,METAR,,310,6.0,,,9999.0,Cloud Development Not Observable,0.0,-1.0,30.06,1019.6,,,,0,0,0,,,,,,,,,8/8 Overcast,3100.0,,SCT,2800.0,OVC,3200.0,,,,
KRDR,10-26-2002,12:40,SPECI,,310,6.0,,,9999.0,Cloud Development Not Observable,0.0,-1.0,30.06,,,,,0,0,0,,,,,,,,,8/8 Overcast,3100.0,,SCT,2700.0,OVC,3200.0,,,,
KRDR,10-26-2002,12:20,METAR,,330,7.0,,,9999.0,Cloud Development Not Observable,0.0,-1.0,30.06,,,,,0,0,0,,,,,,,,,8/8 Overcast,2700.0,,BKN,2700.0,OVC,3800.0,,,,
KRDR,10-26-2002,12:00,METAR,,310,7.0,,,9999.0,Cloud Development Not Observable,0.0,-1.0,30.05,1019.1,,,,0,0,0,,,,,,,,,8/8 Overcast,3200.0,,BKN,3300.0,OVC,5000.0,,,,
KRDR,10-26-2002,11:00,METAR,,300,5.0,,,9999.0,Cloud Development Not Observable,0.0,-1.0,30.05,1019.1,,,,0,0,0,,,,,,,,,8/8 Overcast,4900.0,,OVC,5000.0,,,,,,
KRDR,10-26-2002,10:00,METAR,,290,4.0,,,9999.0,Cloud Development Not Observable,0.0,-1.0,30.03,1018.4,,,,0,0,0,,,,,,,,,8/8 Overcast,4400.0,,OVC,4500.0,,,,,,
KRDR,10-26-2002,00:00,METAR,,260,4.0,,,9999.0,Cloud Development Not Observable,2.0,-1.0,29.97,1016.4,,,,0,0,0,,,,,,,,,8/8 Overcast,2300.0,,BKN,2300.0,OVC,5000.0,,,,
KRDR,10-25-2002,23:00,METAR,,280,4.0,,,9999.0,Cloud Development Not Observable,2.0,-1.0,29.96,1016.2,,,,0,0,0,,,,,,,,,8/8 Overcast,2200.0,,BKN,2200.0,OVC,5000.0,,,,
KRDR,10-25-2002,22:00,METAR,,260,8.0,,,9999.0,Cloud Development Not Observable,2.0,-1.0,29.96,1016.2,,,,0,0,0,,,,,,,,,8/8 Overcast,2200.0,,BKN,2200.0,OVC,5000.0,,,,
KRDR,10-25-2002,21:00,METAR,,240,8.0,,,9999.0,Cloud Development Not Observable,3.0,-1.0,29.96,1016.3,,,,0,0,0,,,,,,,,,8/8 Overcast,2200.0,,BKN,2200.0,OVC,5000.0,,,,
KRDR,10-25-2002,20:00,METAR,,250,11.0,,,9999.0,Cloud Development Not Observable,2.0,-1.0,29.96,1016.5,,,,0,0,0,,,,,,,,,8/8 Overcast,2000.0,,BKN,2000.0,OVC,5000.0,,,,
KRDR,10-25-2002,19:21,SPECI,,240,10.0,,,9999.0,Cloud Development Not Observable,2.0,-1.0,29.96,,,,,0,0,0,,,,,,,,,8/8 Overcast,2000.0,,BKN,2000.0,OVC,5000.0,,,,
KRDR,10-25-2002,19:00,METAR,,220,10.0,,,9999.0,Cloud Development Not Observable,2.0,-1.0,29.99,1017.2,,,,0,0,0,,,,,,,,,8/8 Overcast,4900.0,,SCT,2200.0,OVC,5000.0,,,,
KRDR,10-25-2002,18:00,METAR,,200,11.0,,,9999.0,Cloud Development Not Observable,2.0,-2.0,29.99,1017.2,,,,0,0,0,,,,,,,,,8/8 Overcast,4900.0,,OVC,5000.0,,,,,,
KRDR,10-25-2002,17:00,METAR,,200,9.0,,,9999.0,Cloud Development Not Observable,1.0,-2.0,29.99,1017.2,,,,0,0,0,,,,,,,,,8/8 Overcast,4900.0,,OVC,5000.0,,,,,,
KRDR,10-25-2002,16:00,METAR,,200,10.0,,,9999.0,Cloud Development Not Observable,0.0,-2.0,30.00,1017.5,,,,0,0,0,,,,,,,,,8/8 Overcast,4900.0,,OVC,5000.0,,,,,,
KRDR,10-25-2002,15:00,METAR,,190,10.0,,,9999.0,Cloud Development Not Observable,-1.0,-3.0,30.01,1017.8,,,,0,0,0,,,,,,,,,8/8 Overcast,4900.0,,OVC,5000.0,,,,,,
KRDR,10-25-2002,14:00,METAR,,180,8.0,,,9999.0,Cloud Development Not Observable,-2.0,-3.0,30.02,1018.3,,,,0,0,0,,,,,,,,,8/8 Overcast,4900.0,,OVC,5000.0,,,,,,
KRDR,10-25-2002,13:00,METAR,,170,8.0,,,9999.0,Cloud Development Not Observable,-2.0,-4.0,30.04,1019.1,,,,0,0,0,,,,,,,,,8/8 Overcast,4900.0,,OVC,5000.0,,,,,,
KRDR,10-25-2002,12:00,METAR,,160,7.0,,,9999.0,Cloud Development Not Observable,-3.0,-4.0,30.04,1019.2,,,,0,0,0,,,,,,,,,8/8 Overcast,5500.0,,OVC,5400.0,,,,,,
KRDR,10-25-2002,11:00,METAR,,160,6.0,,,9999.0,Cloud Development Not Observable,-3.0,-4.0,30.06,1019.7,,,,0,0,0,,,,,,,,,8/8 Overcast,5500.0,,OVC,5400.0,,,,,,
KRDR,10-25-2002,10:00,METAR,,140,5.0,,,9999.0,Cloud Development Not Observable,-3.0,-4.0,30.07,1020.0,,,,0,0,0,,,,,,,,,8/8 Overcast,6000.0,,OVC,5900.0,,,,,,
KRDR,10-25-2002,09:00,METAR,,140,6.0,,,9999.0,Cloud Development Not Observable,-5.0,-5.0,30.09,1020.7,,,,0,0,0,,,,,,,,,7/8 Mostly Cloudy,6000.0,,BKN,5900.0,,,,,,
KRDR,10-25-2002,08:00,METAR,,150,6.0,,,9999.0,Cloud Development Not Observable,-7.0,-7.0,30.11,1021.5,,,,0,0,0,,,,,,,,,4/8 Partly Cloudy,72000.0,,SCT,6900.0,,,,,,
KRDR,10-25-2002,07:00,METAR,,170,6.0,,,9999.0,Cloud Development Not Observable,-7.0,-7.0,30.12,1021.9,,,,0,0,0,,,,,,,,,2/8 Mostly Clear,72000.0,,FEW,6900.0,,,,,,
KRDR,10-25-2002,06:00,METAR,,170,6.0,,,9999.0,Cloud Development Not Observable,-6.0,-6.0,30.12,1021.9,,,,0,0,0,,,,,,,,,Clear,72000.0,,,73000.0,,,,,,
KRDR,10-25-2002,05:00,METAR,,180,8.0,,,9999.0,Cloud Development Not Observable,-6.0,-6.0,30.14,1022.6,,,,0,0,0,,,,,,,,,Clear,72000.0,,,73000.0,,,,,,
KRDR,10-25-2002,04:13,SPECI,,200,8.0,,,9999.0,Cloud Development Not Observable,-5.0,-6.0,30.15,,,,,0,0,0,,,,,,,,,2/8 Mostly Clear,72000.0,,FEW,2400.0,,,,,,
KRDR,10-25-2002,04:00,METAR,,220,9.0,,,9999.0,Cloud Development Not Observable,-2.0,-5.0,30.17,1023.4,,,,0,0,0,,,,,,,,,7/8 Mostly Cloudy,2300.0,,BKN,2300.0,,,,,,
KRDR,10-25-2002,03:00,METAR,,210,14.0,,,9999.0,Cloud Development Not Observable,-2.0,-5.0,30.17,1023.4,,,,0,0,0,,,,,,,,,7/8 Mostly Cloudy,2400.0,,BKN,2400.0,,,,,,
KRDR,10-25-2002,02:00,METAR,,200,8.0,,,9999.0,Cloud Development Not Observable,-3.0,-5.0,30.19,1024.1,,,,0,0,0,,,,,,,,,7/8 Mostly Cloudy,2500.0,,BKN,2500.0,,,,,,
KRDR,10-25-2002,01:24,SPECI,,190,7.0,,,9999.0,Cloud Development Not Observable,-4.0,-5.0,30.19,,,,,0,0,0,,,,,,,,,7/8 Mostly Cloudy,2600.0,,BKN,2600.0,,,,,,
KRDR,10-25-2002,01:00,METAR,,200,6.0,,,9999.0,Cloud Development Not Observable,-5.0,-6.0,30.20,1024.8,,,,0,0,0,,,,,,,,,4/8 Partly Cloudy,72000.0,,SCT,2600.0,,,,,,
KRDR,10-25-2002,00:00,METAR,,190,8.0,,,9999.0,Cloud Development Not Observable,-4.0,-6.0,30.22,1025.5,,,,0,0,0,,,,,,,,,4/8 Partly Cloudy,72000.0,,SCT,3000.0,,,,,,
KRDR,10-24-2002,23:00,METAR,,200,12.0,,,9999.0,Cloud Development Not Observable,-2.0,-6.0,30.23,1025.9,,,,0,0,0,,,,,,,,,4/8 Partly Cloudy,72000.0,,SCT,3400.0,,,,,,
KRDR,10-24-2002,22:00,METAR,,220,11.0,,,9999.0,Cloud Development Not Observable,0.0,-7.0,30.24,1026.1,,,,0,0,0,,,,,,,,,2/8 Mostly Clear,72000.0,,FEW,3400.0,,,,,,
KRDR,10-24-2002,21:00,METAR,,200,13.0,23.0,,9999.0,Cloud Development Not Observable,0.0,-7.0,30.26,1026.7,,,,0,0,0,,,,,,,,,4/8 Partly Cloudy,72000.0,,SCT,3300.0,,,,,,
KRDR,10-24-2002,20:15,SPECI,,190,14.0,20.0,,9999.0,Cloud Development Not Observable,0.0,-6.0,30.26,,,,,0,0,0,,,,,,,,,4/8 Partly Cloudy,72000.0,,SCT,3200.0,,,,,,
KRDR,10-24-2002,20:00,METAR,,220,13.0,,,9999.0,Cloud Development Not Observable,0.0,-6.0,30.27,1026.9,,,,0,0,0,,,,,,,,,7/8 Mostly Cloudy,2900.0,,BKN,2900.0,,,,,,
KRDR,10-24-2002,19:00,METAR,,200,14.0,,,9999.0,Cloud Development Not Observable,-1.0,-7.0,30.30,1027.9,,,,0,0,0,,,,,,,,,7/8 Mostly Cloudy,2800.0,,BKN,2800.0,,,,,,
KRDR,10-24-2002,18:00,METAR,,220,12.0,,,9999.0,Cloud Development Not Observable,-2.0,-7.0,30.33,1029.2,,,,0,0,0,,,,,,,,,7/8 Mostly Cloudy,2700.0,,BKN,2700.0,,,,,,
KRDR,10-24-2002,17:00,METAR,,210,12.0,21.0,,9999.0,Cloud Development Not Observable,-3.0,-7.0,30.36,1030.1,,,,0,0,0,,,,,,,,,7/8 Mostly Cloudy,2500.0,,BKN,2500.0,,,,,,
KRDR,10-24-2002,16:00,METAR,,200,13.0,,,9999.0,Cloud Development Not Observable,-3.0,-7.0,30.37,1030.6,,,,0,0,0,,,,,,,,,7/8 Mostly Cloudy,2500.0,,BKN,2500.0,,,,,,
KRDR,10-24-2002,15:40,SPECI,,210,12.0,18.0,,9999.0,Cloud Development Not Observable,-3.0,-6.0,30.38,,,,,0,0,0,,,,,,,,,7/8 Mostly Cloudy,2500.0,,BKN,2500.0,,,,,,
KRDR,10-24-2002,15:00,METAR,,220,9.0,,,9999.0,Cloud Development Not Observable,-4.0,-5.0,30.39,1031.1,,,,0,0,0,,,,,,,,,7/8 Mostly Cloudy,3100.0,,BKN,3100.0,,,,,,
KRDR,10-24-2002,14:00,METAR,,200,6.0,,,9999.0,Cloud Development Not Observable,-4.0,-5.0,30.39,1031.1,,,,0,0,0,,,,,,,,,7/8 Mostly Cloudy,3100.0,,BKN,3200.0,,,,,,
KRDR,10-24-2002,13:00,METAR,,230,6.0,,,9999.0,Cloud Development Not Observable,-6.0,-6.0,30.39,1031.2,,,,0,0,0,,,,,,,,,7/8 Mostly Cloudy,3200.0,,BKN,3300.0,,,,,,
KRDR,10-24-2002,12:00,METAR,,230,7.0,,,9999.0,Cloud Development Not Observable,-6.0,-7.0,30.40,1031.6,,,,0,0,0,,,,,,,,,7/8 Mostly Cloudy,3400.0,,BKN,3500.0,,,,,,
KRDR,10-24-2002,11:00,METAR,,220,7.0,,,9999.0,Cloud Development Not Observable,-8.0,-8.0,30.41,1031.9,,,,0,0,0,,,,,,,,,2/8 Mostly Clear,72000.0,,FEW,3500.0,,,,,,
KRDR,10-24-2002,10:00,METAR,,200,7.0,,,9999.0,Cloud Development Not Observable,-8.0,-9.0,30.42,1032.3,,,,0,0,0,,,,,,,,,Clear,72000.0,,,73000.0,,,,,,
KRDR,10-24-2002,02:00,METAR,,210,6.0,,,9999.0,Cloud Development Not Observable,-4.0,-6.0,30.50,1034.8,,,,0,0,0,,,,,,,,,7/8 Mostly Cloudy,3900.0,,BKN,4000.0,,,,,,
KRDR,10-24-2002,01:00,METAR,,250,7.0,,,9999.0,Cloud Development Not Observable,-3.0,-6.0,30.51,1035.2,,,,0,0,0,,,,,,,,,7/8 Mostly Cloudy,3900.0,,BKN,4000.0,,,,,,
KRDR,10-24-2002,00:00,METAR,,250,7.0,,,9999.0,Cloud Development Not Observable,-2.0,-8.0,30.52,1035.5,,,,0,0,0,,,,,,,,,7/8 Mostly Cloudy,3900.0,,BKN,4000.0,,,,,,
KRDR,10-23-2002,23:00,METAR,,260,6.0,,,9999.0,Cloud Development Not Observable,-1.0,-7.0,30.53,1035.8,,,,0,0,0,,,,,,,,,8/8 Overcast,3900.0,,OVC,4000.0,,,,,,
KRDR,10-23-2002,22:00,METAR,,260,6.0,,,9999.0,Cloud Development Not Observable,0.0,-7.0,30.54,1036.1,,,,0,0,0,,,,,,,,,8/8 Overcast,3900.0,,OVC,4000.0,,,,,,
KRDR,10-23-2002,21:00,METAR,,,5.0,,,9999.0,Cloud Development Not Observable,0.0,-7.0,30.56,1036.6,,,,0,0,0,,,,,,,,,8/8 Overcast,3900.0,,OVC,4000.0,,,,,,
KRDR,10-23-2002,20:00,METAR,,260,8.0,,,9999.0,Cloud Development Not Observable,0.0,-7.0,30.57,1037.1,,,,0,0,0,,,,,,,,,8/8 Overcast,3900.0,,OVC,4000.0,,,,,,
KRDR,10-23-2002,19:00,METAR,,,3.0,,,9999.0,Cloud Development Not Observable,0.0,-7.0,30.59,1037.8,,,,0,0,0,,,,,,,,,8/8 Overcast,3900.0,,OVC,4000.0,,,,,,
KRDR,10-23-2002,18:00,METAR,,,3.0,,,9999.0,Cloud Development Not Observable,0.0,-7.0,30.61,1038.5,,,,0,0,0,,,,,,,,,8/8 Overcast,3900.0,,FEW,3500.0,OVC,4000.0,,,,
KRDR,10-23-2002,17:00,METAR,,320,5.0,,,9999.0,Cloud Development Not Observable,0.0,-7.0,30.62,1038.9,,,,0,0,0,,,,,,,,,8/8 Overcast,4200.0,,FEW,3500.0,OVC,4300.0,,,,
KRDR,10-23-2002,16:00,METAR,,290,7.0,,,9999.0,Cloud Development Not Observable,-1.0,-5.0,30.63,1039.2,,,,0,0,0,,,,,,,,,8/8 Overcast,4200.0,,FEW,3500.0,OVC,4300.0,,,,
KRDR,10-23-2002,15:00,METAR,,290,8.0,,,9999.0,Cloud Development Not Observable,-1.0,-5.0,30.63,1039.2,,,,0,0,0,,,,,,,,,8/8 Overcast,3900.0,,OVC,4000.0,,,,,,
KRDR,10-23-2002,14:00,METAR,,310,6.0,,,9999.0,Cloud Development Not Observable,-2.0,-5.0,30.63,1039.3,,,,0,0,0,,,,,,,,,8/8 Overcast,3900.0,,OVC,4000.0,,,,,,
KRDR,10-23-2002,13:00,METAR,,290,5.0,,,9999.0,Cloud Development Not Observable,-3.0,-4.0,30.63,1039.3,,,,0,0,0,,,,,,,,,8/8 Overcast,3900.0,,OVC,4000.0,,,,,,
KRDR,10-23-2002,12:00,METAR,,280,4.0,,,9999.0,Cloud Development Not Observable,-3.0,-4.0,30.62,1039.0,,,,0,0,0,,,,,,,,,8/8 Overcast,4400.0,,OVC,4500.0,,,,,,
KRDR,10-23-2002,11:00,METAR,,310,6.0,,,9999.0,Cloud Development Not Observable,-3.0,-4.0,30.62,1039.0,,,,0,0,0,,,,,,,,,8/8 Overcast,4400.0,,OVC,4500.0,,,,,,
KRDR,10-23-2002,10:00,METAR,,290,6.0,,,9999.0,Cloud Development Not Observable,-3.0,-4.0,30.63,1039.1,,,,0,0,0,,,,,,,,,8/8 Overcast,4500.0,,OVC,4600.0,,,,,,
KRDR,10-23-2002,09:00,METAR,,310,4.0,,,9999.0,Cloud Development Not Observable,-3.0,-4.0,30.63,1039.2,,,,0,0,0,,,,,,,,,8/8 Overcast,4100.0,,OVC,4200.0,,,,,,
KRDR,10-23-2002,08:00,METAR,,300,6.0,,,9999.0,Cloud Development Not Observable,-2.0,-4.0,30.63,1039.2,,,,0,0,0,,,,,,,,,8/8 Overcast,4000.0,,OVC,4100.0,,,,,,
KRDR,10-23-2002,07:00,METAR,,310,5.0,,,9999.0,Cloud Development Not Observable,-3.0,-4.0,30.63,1039.1,,,,0,0,0,,,,,,,,,8/8 Overcast,4000.0,,OVC,4100.0,,,,,,
KRDR,10-23-2002,06:00,METAR,,310,5.0,,,9999.0,Cloud Development Not Observable,-3.0,-4.0,30.63,1039.1,,,,0,0,0,,,,,,,,,8/8 Overcast,4300.0,,OVC,4400.0,,,,,,
KRDR,10-23-2002,05:00,METAR,,300,6.0,,,9999.0,Cloud Development Not Observable,-2.0,-4.0,30.63,1039.1,,,,0,0,0,,,,,,,,,8/8 Overcast,4300.0,,OVC,4400.0,,,,,,
KRDR,10-23-2002,04:00,METAR,,270,6.0,,,9999.0,Cloud Development Not Observable,-2.0,-5.0,30.64,1039.4,,,,0,0,0,,,,,,,,,8/8 Overcast,4400.0,,OVC,4500.0,,,,,,
KRDR,10-23-2002,03:00,METAR,,300,7.0,,,9999.0,Cloud Development Not Observable,-2.0,-5.0,30.64,1039.5,,,,0,0,0,,,,,,,,,8/8 Overcast,4400.0,,OVC,4500.0,,,,,,
KRDR,10-23-2002,02:00,METAR,,330,8.0,,,9999.0,Cloud Development Not Observable,-2.0,-7.0,30.63,1039.1,,,,0,0,0,,,,,,,,,8/8 Overcast,4400.0,,OVC,4500.0,,,,,,
KRDR,10-23-2002,01:00,METAR,,320,7.0,,,9999.0,Cloud Development Not Observable,-2.0,-6.0,30.62,1038.8,,,,0,0,0,,,,,,,,,8/8 Overcast,4400.0,,FEW,2500.0,OVC,4500.0,,,,
KRDR,10-23-2002,00:00,METAR,,340,7.0,,,9999.0,Cloud Development Not Observable,-2.0,-6.0,30.61,1038.4,,,,0,0,0,,,,,,,IN,,8/8 Overcast,3900.0,,FEW,2500.0,BKN,4000.0,OVC,9900.0,,
KRDR,10-22-2002,23:00,METAR,,350,10.0,,,9999.0,Cloud Development Not Observable,-2.0,-6.0,30.60,1038.1,,,,0,0,0,,,,,,,,,8/8 Overcast,3900.0,,FEW,2500.0,OVC,4000.0,,,,
KRDR,10-22-2002,22:00,METAR,,340,12.0,,,9999.0,Cloud Development Not Observable,-1.0,-5.0,30.60,1038.3,,,,0,0,0,,,,,,,,,8/8 Overcast,4400.0,,SCT,2500.0,OVC,4500.0,,,,
KRDR,10-22-2002,21:31,SPECI,,350,11.0,,,9999.0,Cloud Development Not Observable,-1.0,-5.0,30.60,,,,,0,0,0,,,,,,,,,8/8 Overcast,3900.0,,SCT,2500.0,OVC,4000.0,,,,
KRDR,10-22-2002,20:45,SPECI,,340,9.0,,,,Cloud Development Not Observable,-1.0,-6.0,30.59,,,,,0,0,0,,,,,,,,,,3900.0,,SCT,2500.0,OVC,4000.0,,,,
KRDR,10-22-2002,20:00,METAR,Normal,330,9.0,,,,Cloud Development Not Observable,0.0,-6.0,30.60,1038.0,,,,0,0,0,,,,,,,,,,3900.0,,SCT,2500.0,OVC,4000.0,,,,
KRDR,10-22-2002,19:15,SPECI,,310,10.0,,,9999.0,Light Snow Showers/Cloud Development Not Observable,0.0,-7.0,30.60,,,,,85,0,0,,,,,,,,,8/8 Overcast,2300.0,,BKN,2300.0,OVC,5000.0,,,,
KRDR,10-22-2002,19:00,METAR,,350,10.0,,,9999.0,Cloud Development Not Observable,0.0,-7.0,30.60,1038.0,,,,0,0,0,,,,,,,,,8/8 Overcast,2400.0,,BKN,2400.0,OVC,5000.0,,,,
KRDR,10-22-2002,18:00,METAR,,360,9.0,,,9999.0,Cloud Development Not Observable,0.0,-4.0,30.60,1038.0,,,,0,0,0,,,,,,,,,7/8 Mostly Cloudy,2400.0,,BKN,2400.0,BKN,5000.0,,,,
KRDR,10-22-2002,17:20,METAR,,350,10.0,,,9999.0,Cloud Development Not Observable,0.0,-4.0,30.60,,,,,0,0,0,,,,,,,,,8/8 Overcast,4900.0,,SCT,3000.0,OVC,5000.0,,,,
KRDR,10-22-2002,17:15,SPECI,,360,10.0,,,9999.0,Light Snow Showers/Cloud Development Not Observable,0.0,-5.0,30.60,,,,,85,0,0,,,,,,,,,8/8 Overcast,4900.0,,SCT,3000.0,OVC,5000.0,,,,
KRDR,10-22-2002,17:00,METAR,,20,10.0,,,9999.0,Cloud Development Not Observable,1.0,-5.0,30.59,1037.7,,,,0,0,0,,,,,,,,,7/8 Mostly Cloudy,3900.0,,FEW,3000.0,SCT,4000.0,BKN,5000.0,,
KRDR,10-22-2002,16:00,METAR,,350,9.0,,,9999.0,Cloud Development Not Observable,0.0,-5.0,30.59,1037.8,,,,0,0,0,,,,,,,,,4/8 Partly Cloudy,72000.0,,FEW,4000.0,SCT,6400.0,,,,
KRDR,10-22-2002,14:00,METAR,,340,7.0,,,9999.0,Cloud Development Not Observable,-3.0,-5.0,30.56,1036.7,,,,0,0,0,,,,,,,,,,72000.0,,,,,,,,,
KRDR,10-22-2002,13:00,METAR,,340,7.0,,,9999.0,Cloud Development Not Observable,-3.0,-4.0,30.53,1035.8,,,,0,0,0,,,,,,,,,,72000.0,,,,,,,,,
KRDR,10-22-2002,12:00,METAR,,360,7.0,,,9999.0,Cloud Development Not Observable,-3.0,-3.0,30.52,1035.4,,,,0,0,0,,,,,,,,,8/8 Overcast,6500.0,,SCT,4500.0,OVC,6400.0,,,,
KRDR,10-22-2002,11:00,METAR,,350,6.0,,,9999.0,Cloud Development Not Observable,-3.0,-3.0,30.50,1034.5,,,,0,0,0,,,,,,,,,8/8 Overcast,7000.0,,OVC,6900.0,,,,,,
KRDR,10-22-2002,10:00,METAR,,350,6.0,,,9999.0,Cloud Development Not Observable,-3.0,-3.0,30.48,1034.0,,,,0,0,0,,,,,,,,,8/8 Overcast,7000.0,,OVC,6900.0,,,,,,
KRDR,10-22-2002,08:00,METAR,,10,8.0,,,9999.0,Cloud Development Not Observable,-2.0,-3.0,30.45,1032.8,,,,0,0,0,,,,,,,,,8/8 Overcast,4700.0,,OVC,4800.0,,,,,,
KRDR,10-22-2002,07:00,METAR,,10,8.0,,,9999.0,Cloud Development Not Observable,-2.0,-3.0,30.43,1032.3,,,,0,0,0,,,,,,,,,8/8 Overcast,7000.0,,OVC,6900.0,,,,,,
KRDR,10-22-2002,06:00,METAR,,360,7.0,,,9999.0,Cloud Development Not Observable,-2.0,-3.0,30.41,1031.4,,,,0,0,0,,,,,,,IN,,8/8 Overcast,6500.0,,FEW,3500.0,OVC,6400.0,,,,
KRDR,10-22-2002,05:00,METAR,,10,9.0,,,9999.0,Light Snow/Cloud Development Not Observable,-1.0,-3.0,30.39,1030.9,,,,71,0,0,,,,,,,,,8/8 Overcast,3400.0,,BKN,3500.0,OVC,5900.0,,,,
KRDR,10-22-2002,04:00,METAR,,360,7.0,,,9999.0,Cloud Development Not Observable,-2.0,-4.0,30.37,1030.1,,,,0,0,0,,,,,,,,,8/8 Overcast,6000.0,,OVC,5900.0,,,,,,
KRDR,10-22-2002,03:00,METAR,,360,7.0,,,9999.0,Cloud Development Not Observable,-1.0,-4.0,30.35,1029.5,,,,0,0,0,,,,,,,,,8/8 Overcast,6000.0,,SCT,3500.0,OVC,5900.0,,,,
KRDR,10-22-2002,02:00,METAR,,350,7.0,,,9999.0,Cloud Development Not Observable,-1.0,-6.0,30.34,1029.1,,,,0,0,0,,,,,,,,,8/8 Overcast,6000.0,,SCT,3500.0,OVC,5900.0,,,,
KRDR,10-22-2002,01:00,METAR,,350,8.0,,,9999.0,Cloud Development Not Observable,-1.0,-6.0,30.32,1028.5,,,,0,0,0,,,,,,,,,8/8 Overcast,4900.0,,BKN,5000.0,OVC,9900.0,,,,
KRDR,10-22-2002,00:00,METAR,,350,9.0,,,9999.0,Cloud Development Not Observable,0.0,-6.0,30.30,1027.7,,,,0,0,0,,,,,,,,,8/8 Overcast,4900.0,,FEW,2500.0,BKN,5000.0,OVC,9900.0,,
KRDR,10-21-2002,23:00,METAR,,350,8.0,,,9999.0,Cloud Development Not Observable,0.0,-7.0,30.29,1027.4,,,,0,0,0,,,,,,,,,8/8 Overcast,4400.0,,FEW,2500.0,BKN,4500.0,OVC,9900.0,,
KRDR,10-21-2002,22:00,METAR,,10,10.0,,,9999.0,Cloud Development Not Observable,1.0,-7.0,30.28,1027.0,,,,0,0,0,,,,,,,,,8/8 Overcast,4400.0,,FEW,2500.0,BKN,4500.0,OVC,9900.0,,
KRDR,10-21-2002,21:00,METAR,,350,11.0,,,9999.0,Cloud Development Not Observable,1.0,-7.0,30.27,1026.7,,,,0,0,0,,,,,,,,,7/8 Mostly Cloudy,3900.0,,FEW,2800.0,BKN,4000.0,BKN,12000.0,,
KRDR,10-21-2002,20:00,METAR,,10,11.0,,,9999.0,Cloud Development Not Observable,2.0,-6.0,30.27,1026.8,,,,0,0,0,,,,,,,,,7/8 Mostly Cloudy,3900.0,,FEW,2500.0,BKN,4000.0,,,,
KRDR,10-21-2002,19:00,METAR,,20,9.0,,,9999.0,Cloud Development Not Observable,1.0,-6.0,30.27,1026.7,,,,0,0,0,,,,,,,,,7/8 Mostly Cloudy,3900.0,,SCT,2500.0,BKN,4000.0,,,,
KRDR,10-21-2002,18:00,METAR,,10,12.0,,,9999.0,Cloud Development Not Observable,2.0,-4.0,30.28,1027.1,,,,0,0,0,,,,,,,,,4/8 Partly Cloudy,72000.0,,SCT,2500.0,SCT,5000.0,,,,
KRDR,10-21-2002,17:00,METAR,,20,11.0,,,9999.0,Cloud Development Not Observable,2.0,-2.0,30.28,1027.1,,,,0,0,0,,,,,,,,,4/8 Partly Cloudy,72000.0,,SCT,2000.0,SCT,5000.0,,,,
KRDR,10-21-2002,16:00,METAR,,360,7.0,,,9999.0,Cloud Development Not Observable,-1.0,-2.0,30.28,1027.2,,,,0,0,0,,,,,,,,,4/8 Partly Cloudy,72000.0,,FEW,1200.0,SCT,5000.0,,,,
KRDR,10-21-2002,15:00,METAR,,360,9.0,,,9999.0,Cloud Development Not Observable,-3.0,-3.0,30.28,1027.3,,,,0,0,0,,,,,,,,,7/8 Mostly Cloudy,4900.0,,FEW,4500.0,BKN,5000.0,,,,
KRDR,10-21-2002,14:00,METAR,,360,9.0,,,9999.0,Cloud Development Not Observable,-4.0,-4.0,,1027.0,,,,0,0,0,,,,,,,,,7/8 Mostly Cloudy,4900.0,,BKN,5000.0,,,,,,
KRDR,10-21-2002,13:00,METAR,,360,7.0,,,9999.0,Cloud Development Not Observable,-5.0,-5.0,30.26,1026.6,,,,0,0,0,,,,,,,,,7/8 Mostly Cloudy,4900.0,,BKN,5000.0,,,,,,
KRDR,10-21-2002,12:00,METAR,,10,8.0,,,9999.0,Cloud Development Not Observable,-4.0,-5.0,30.24,1025.9,,,,0,0,0,,,,,,,,,7/8 Mostly Cloudy,4400.0,,BKN,4500.0,BKN,8900.0,,,,
KRDR,10-21-2002,11:00,METAR,,360,8.0,,,9999.0,Cloud Development Not Observable,-4.0,-4.0,30.23,1025.6,,,,0,0,0,,,,,,,,,7/8 Mostly Cloudy,3900.0,,BKN,4000.0,,,,,,
KRDR,10-21-2002,10:00,METAR,,360,7.0,,,9999.0,Cloud Development Not Observable,-5.0,-5.0,30.22,1025.3,,,,0,0,0,,,,,,,,,7/8 Mostly Cloudy,3900.0,,BKN,4000.0,,,,,,
KRDR,10-21-2002,09:00,METAR,,360,8.0,,,9999.0,Cloud Development Not Observable,-5.0,-5.0,30.23,1025.5,,,,0,0,0,,,,,,,,,7/8 Mostly Cloudy,3700.0,,BKN,3800.0,,,,,,
KRDR,10-21-2002,08:00,METAR,,360,7.0,,,9999.0,Cloud Development Not Observable,-5.0,-5.0,30.23,1025.5,,,,0,0,0,,,,,,,,,7/8 Mostly Cloudy,3900.0,,BKN,4000.0,,,,,,
KRDR,10-21-2002,07:00,METAR,,360,7.0,,,9999.0,Cloud Development Not Observable,-7.0,-7.0,30.23,1025.5,,,,0,0,0,,,,,,,,,7/8 Mostly Cloudy,20000.0,,BKN,20000.0,,,,,,
KRDR,10-21-2002,06:00,METAR,,360,7.0,,,9999.0,Cloud Development Not Observable,-5.0,-5.0,30.22,1025.4,,,,0,0,0,,,,,,,,,7/8 Mostly Cloudy,20000.0,,BKN,20000.0,,,,,,
KRDR,10-21-2002,05:00,METAR,,340,5.0,,,9999.0,Cloud Development Not Observable,-4.0,-5.0,30.22,1025.4,,,,0,0,0,,,,,,,,,7/8 Mostly Cloudy,20000.0,,SCT,12000.0,BKN,20000.0,,,,
KRDR,10-21-2002,04:00,METAR,,350,5.0,,,9999.0,Cloud Development Not Observable,-4.0,-5.0,30.23,1025.6,,,,0,0,0,,,,,,,,,8/8 Overcast,20000.0,,SCT,12000.0,OVC,20000.0,,,,
KRDR,10-21-2002,03:00,METAR,,360,6.0,,,9999.0,Cloud Development Not Observable,-4.0,-4.0,30.22,1025.3,,,,0,0,0,,,,,,,,,8/8 Overcast,8500.0,,OVC,8400.0,,,,,,
KRDR,10-21-2002,02:00,METAR,,360,7.0,,,9999.0,Cloud Development Not Observable,-4.0,-5.0,30.21,1024.9,,,,0,0,0,,,,,,,,,8/8 Overcast,20000.0,,SCT,12000.0,OVC,20000.0,,,,
KRDR,10-21-2002,01:00,METAR,,360,7.0,,,9999.0,Cloud Development Not Observable,-2.0,-4.0,30.20,1024.7,,,,0,0,0,,,,,,,,,8/8 Overcast,11000.0,,FEW,3000.0,BKN,11000.0,OVC,20000.0,,
KRDR,10-20-2002,23:55,METAR,,360,9.0,,,9999.0,Cloud Development Not Observable,-2.0,-5.0,30.19,1024.3,,,,0,0,0,,,,,,,,,7/8 Mostly Cloudy,12000.0,,FEW,3000.0,BKN,12000.0,BKN,20000.0,,
KRDR,10-20-2002,23:00,METAR,,10,10.0,,,9999.0,Cloud Development Not Observable,-1.0,-5.0,30.18,1023.9,,,,0,0,0,,,,,,,,,8/8 Overcast,3400.0,,FEW,2500.0,BKN,3500.0,BKN,9400.0,OVC,20000.0
KRDR,10-20-2002,22:00,METAR,,40,7.0,,,9999.0,Cloud Development Not Observable,0.0,-5.0,30.16,1023.1,,,,0,0,0,,,,,,,,,8/8 Overcast,3400.0,,FEW,2600.0,SCT,3500.0,BKN,9400.0,OVC,20000.0
KRDR,10-20-2002,21:13,SPECI,,30,7.0,,,9999.0,Cloud Development Not Observable,0.0,-5.0,30.16,,,,,0,0,0,,,,,,,,,8/8 Overcast,3400.0,,SCT,2600.0,BKN,3500.0,BKN,9400.0,OVC,20000.0
KRDR,10-20-2002,21:00,METAR,,20,8.0,,,9999.0,Cloud Development Not Observable,0.0,-5.0,30.16,1023.1,,,,0,0,0,,,,,,,,,8/8 Overcast,2900.0,,BKN,2900.0,BKN,11000.0,OVC,20000.0,,
KRDR,10-20-2002,20:00,METAR,,30,7.0,,,9999.0,Cloud Development Not Observable,0.0,-5.0,30.16,1023.2,,,,0,0,0,,,,,,,,,8/8 Overcast,2800.0,,BKN,2800.0,OVC,20000.0,,,,
KRDR,10-20-2002,19:00,METAR,,30,5.0,,,9999.0,Cloud Development Not Observable,0.0,-5.0,30.16,1023.2,,,,0,0,0,,,,,,,,,7/8 Mostly Cloudy,2500.0,,BKN,2500.0,BKN,20000.0,,,,
KRDR,10-20-2002,18:00,METAR,,20,5.0,,,9999.0,Cloud Development Not Observable,-1.0,-4.0,30.18,1024.0,,,,0,0,0,,,,,,,,,7/8 Mostly Cloudy,2000.0,,BKN,2000.0,BKN,6900.0,BKN,20000.0,,
KRDR,10-20-2002,16:55,METAR,,10,6.0,,,9999.0,Cloud Development Not Observable,-3.0,-4.0,30.18,1023.9,,,,0,0,0,,,,,,,,,7/8 Mostly Cloudy,1000.0,,BKN,1000.0,BKN,6900.0,BKN,20000.0,,
KRDR,10-20-2002,16:06,SPECI,,350,6.0,,,9999.0,Cloud Development Not Observable,-4.0,-4.0,30.19,,,,,0,0,0,,,,,,,,,7/8 Mostly Cloudy,1000.0,,BKN,1000.0,BKN,6900.0,BKN,20000.0,,
KRDR,10-20-2002,16:00,METAR,,30,6.0,,,9999.0,Cloud Development Not Observable,-4.0,-4.0,30.19,1024.2,,,,0,0,0,,,,,,,,,7/8 Mostly Cloudy,7000.0,,SCT,1000.0,BKN,6900.0,BKN,20000.0,,
KRDR,10-20-2002,15:00,METAR,,20,10.0,,,9999.0,Cloud Development Not Observable,-4.0,-4.0,30.18,1023.9,,,,0,0,0,,,,,,,,,7/8 Mostly Cloudy,20000.0,,FEW,2000.0,FEW,6900.0,BKN,20000.0,,
KRDR,10-20-2002,14:00,METAR,,360,8.0,,,9999.0,Cloud Development Not Observable,-5.0,-5.0,30.17,1023.5,,,,0,0,0,,,,,,,,,7/8 Mostly Cloudy,20000.0,,FEW,6900.0,BKN,20000.0,,,,
KRDR,10-20-2002,13:00,METAR,,360,7.0,,,9999.0,Cloud Development Not Observable,-8.0,-8.0,30.16,1023.3,,,,0,0,0,,,,,,,,,7/8 Mostly Cloudy,20000.0,,FEW,6900.0,BKN,20000.0,,,,
KRDR,10-20-2002,11:00,METAR,,360,7.0,,,9999.0,Cloud Development Not Observable,-7.0,-7.0,30.13,1022.2,,,,0,0,0,,,,,,,,,2/8 Mostly Clear,72000.0,,FEW,3000.0,,,,,,
KRDR,10-20-2002,10:00,METAR,,360,7.0,,,9999.0,Cloud Development Not Observable,-7.0,-7.0,30.12,1021.9,,,,0,0,0,,,,,,,,,2/8 Mostly Clear,72000.0,,FEW,3000.0,,,,,,
KRDR,10-20-2002,09:00,METAR,,350,6.0,,,9999.0,Cloud Development Not Observable,-6.0,-6.0,30.11,1021.3,,,,0,0,0,,,,,,,,,2/8 Mostly Clear,72000.0,,FEW,3000.0,,,,,,
KRDR,10-20-2002,08:00,METAR,,350,6.0,,,9999.0,Cloud Development Not Observable,-5.0,-5.0,30.10,1020.9,,,,0,0,0,,,,,,,,,4/8 Partly Cloudy,72000.0,,SCT,3000.0,,,,,,
KRDR,10-20-2002,07:00,METAR,,350,7.0,,,9999.0,Cloud Development Not Observable,-4.0,-4.0,30.09,1020.6,,,,0,0,0,,,,,,,,,2/8 Mostly Clear,72000.0,,FEW,1500.0,,,,,,
KRDR,10-20-2002,06:00,METAR,,350,6.0,,,9999.0,Cloud Development Not Observable,-3.0,-3.0,30.06,1019.8,,,,0,0,0,,,,,,,IN,,4/8 Partly Cloudy,72000.0,,SCT,1800.0,,,,,,
KRDR,10-20-2002,05:00,METAR,,330,7.0,,,9999.0,Cloud Development Not Observable,-2.0,-2.0,30.05,1019.4,,,,0,0,0,,,,,,,,,7/8 Mostly Cloudy,4900.0,,BKN,5000.0,,,,,,
KRDR,10-20-2002,04:00,METAR,,320,7.0,,,9999.0,Cloud Development Not Observable,0.0,-2.0,30.05,1019.3,,,,0,0,0,,,,,,,,,7/8 Mostly Cloudy,4400.0,,BKN,4500.0,,,,,,
KRDR,10-20-2002,03:40,SPECI,,300,9.0,,,9999.0,Cloud Development Not Observable,0.0,-1.0,30.05,,,,,0,0,0,,,,,,,,,8/8 Overcast,3900.0,,OVC,4000.0,,,,,,
KRDR,10-20-2002,03:00,METAR,,290,9.0,,,9999.0,Light Snow/Cloud Development Not Observable,0.0,-2.0,30.04,1018.9,,,,71,0,0,,,,,,TRACE,,,8/8 Overcast,3400.0,,OVC,3500.0,,,,,,
KRDR,10-20-2002,02:46,SPECI,,290,8.0,,,9999.0,Light Snow/Cloud Development Not Observable,0.0,-2.0,30.04,,,,,71,0,0,,,,,,,,,8/8 Overcast,3700.0,,OVC,3800.0,,,,,,
KRDR,10-20-2002,02:00,METAR,,290,8.0,,,9999.0,Cloud Development Not Observable,0.0,-2.0,30.03,1018.6,,,,0,0,0,,,,,,,,,8/8 Overcast,3900.0,,OVC,4000.0,,,,,,
KRDR,10-20-2002,01:00,METAR,,300,9.0,,,9999.0,Cloud Development Not Observable,0.0,-2.0,30.03,1018.6,,,,0,0,0,,,,,,,,,8/8 Overcast,3400.0,,FEW,2500.0,OVC,3500.0,,,,
KRDR,10-20-2002,00:00,METAR,,300,10.0,,,9999.0,Cloud Development Not Observable,0.0,-2.0,30.03,1018.6,,,,0,0,0,,,,,,,IN,,8/8 Overcast,4300.0,,SCT,2800.0,OVC,4400.0,,,,
KRDR,10-19-2002,23:36,SPECI,,290,9.0,,,9999.0,Cloud Development Not Observable,0.0,-2.0,30.02,,,,,0,0,0,,,,,,,,,8/8 Overcast,4100.0,,SCT,2800.0,OVC,4200.0,,,,
KRDR,10-19-2002,23:00,METAR,,290,9.0,,,9999.0,Light Snow/Cloud Development Not Observable,0.0,-2.0,30.02,1018.2,,,,71,0,0,,,,,,,,,7/8 Mostly Cloudy,2800.0,,BKN,2800.0,,,,,,
KRDR,10-19-2002,22:12,SPECI,,300,12.0,,,9999.0,Light Snow/Cloud Development Not Observable,1.0,-2.0,30.01,,,,,71,0,0,,,,,,,,,8/8 Overcast,2600.0,,OVC,2600.0,,,,,,
KRDR,10-19-2002,22:00,METAR,,300,9.0,,,9999.0,Cloud Development Not Observable,1.0,-2.0,30.01,1018.0,,,,0,0,0,,,,,,,,,8/8 Overcast,2600.0,,OVC,2600.0,,,,,,
KRDR,10-19-2002,21:00,METAR,,300,8.0,,,9999.0,Cloud Development Not Observable,1.0,-2.0,30.01,1018.0,,,,0,0,0,,,,,,,,,8/8 Overcast,2600.0,,OVC,2600.0,,,,,,
KRDR,10-19-2002,20:00,METAR,,220,9.0,,,9999.0,Cloud Development Not Observable,1.0,-2.0,30.02,1018.2,,,,0,0,0,,,,,,,,,8/8 Overcast,2600.0,,OVC,2600.0,,,,,,
KRDR,10-19-2002,19:32,SPECI,,220,11.0,,,9999.0,Cloud Development Not Observable,0.0,-2.0,30.03,,,,,0,0,0,,,,,,,,,8/8 Overcast,2500.0,,OVC,2500.0,,,,,,
KRDR,10-19-2002,19:00,METAR,,220,11.0,,,9999.0,Cloud Development Not Observable,0.0,-2.0,30.03,1018.6,,,,0,0,0,,,,,,,,,8/8 Overcast,3700.0,,FEW,1800.0,OVC,3800.0,,,,
KRDR,10-19-2002,18:45,METAR,,240,10.0,,,9999.0,Cloud Development Not Observable,0.0,-2.0,30.03,,,,,0,0,0,,,,,,,,,8/8 Overcast,3700.0,,OVC,3800.0,,,,,,
KRDR,10-19-2002,18:00,METAR,,220,8.0,,,9999.0,Light Snow/Cloud Development Not Observable,0.0,-2.0,30.04,1019.0,,,,71,0,0,,,,,,,IN,,7/8 Mostly Cloudy,4400.0,,BKN,4500.0,,,,,,
KRDR,10-19-2002,17:00,METAR,,280,8.0,,,9999.0,Cloud Development Not Observable,-1.0,-4.0,30.07,1019.9,,,,0,0,0,,,,,,,,,8/8 Overcast,4500.0,,FEW,2500.0,OVC,4600.0,,,,
KRDR,10-19-2002,16:00,METAR,,280,8.0,,,9999.0,Cloud Development Not Observable,-2.0,-4.0,30.07,1020.0,,,,0,0,0,,,,,,,,,8/8 Overcast,4400.0,,FEW,2500.0,OVC,4500.0,,,,
KRDR,10-19-2002,15:41,SPECI,,290,4.0,,,9999.0,Cloud Development Not Observable,-2.0,-4.0,30.07,,,,,0,0,0,,,,,,,,,8/8 Overcast,3900.0,,SCT,2500.0,OVC,4000.0,,,,
KRDR,10-19-2002,15:00,METAR,,270,10.0,,,9999.0,Cloud Development Not Observable,-2.0,-4.0,30.08,1020.4,,,,0,0,0,,,,,,,,,8/8 Overcast,2800.0,,BKN,2800.0,BKN,3800.0,OVC,8900.0,,
KRDR,10-19-2002,14:00,METAR,,,6.0,,,9999.0,Cloud Development Not Observable,-4.0,-5.0,30.08,1020.4,,,,0,0,0,,,,,,,,,7/8 Mostly Cloudy,9000.0,,SCT,2500.0,BKN,8900.0,,,,
KRDR,10-19-2002,13:00,METAR,,280,7.0,,,9999.0,Cloud Development Not Observable,-5.0,-6.0,30.08,1020.4,,,,0,0,0,,,,,,,,,4/8 Partly Cloudy,72000.0,,SCT,4000.0,,,,,,
KRDR,10-19-2002,12:00,METAR,,290,5.0,,,9999.0,Cloud Development Not Observable,-5.0,-5.0,30.09,1020.7,,,,0,0,0,,,,,,,,.01 IN,4/8 Partly Cloudy,72000.0,,SCT,4000.0,,,,,,
KRDR,10-19-2002,11:00,METAR,,290,11.0,,,9999.0,Cloud Development Not Observable,-3.0,-4.0,30.09,1020.5,,,,0,0,0,,,,,,,,,8/8 Overcast,3900.0,,OVC,4000.0,,,,,,
KRDR,10-19-2002,10:00,METAR,,280,7.0,,,9999.0,Cloud Development Not Observable,-3.0,-4.0,30.09,1020.5,,,,0,0,0,,,,,,,,,7/8 Mostly Cloudy,4400.0,,BKN,4500.0,,,,,,
KRDR,10-19-2002,09:00,METAR,,290,10.0,,,9999.0,Cloud Development Not Observable,-3.0,-4.0,30.08,1020.3,,,,0,0,0,,,,,,,,,7/8 Mostly Cloudy,4900.0,,BKN,5000.0,,,,,,
KRDR,10-19-2002,08:00,METAR,,290,8.0,,,9999.0,Cloud Development Not Observable,-3.0,-4.0,30.06,1019.8,,,,0,0,0,,,,,,,,,4/8 Partly Cloudy,72000.0,,SCT,5400.0,,,,,,
KRDR,10-19-2002,07:00,METAR,,300,9.0,,,9999.0,Cloud Development Not Observable,-2.0,-3.0,30.06,1019.5,,,,0,0,0,,,,,,,,,7/8 Mostly Cloudy,5500.0,,BKN,5400.0,,,,,,
KRDR,10-19-2002,06:00,METAR,,300,10.0,,,9999.0,Cloud Development Not Observable,-1.0,-2.0,30.05,1019.2,,,,0,0,0,,,,,,,,,7/8 Mostly Cloudy,5500.0,,BKN,5400.0,,,,,,
KRDR,10-19-2002,05:15,SPECI,,300,10.0,,,9999.0,Cloud Development Not Observable,-1.0,-2.0,30.04,,,,,0,0,0,,,,,,,,,7/8 Mostly Cloudy,5500.0,,FEW,2000.0,BKN,5400.0,,,,
KRDR,10-19-2002,05:00,METAR,,300,9.0,,,9999.0,Cloud Development Not Observable,0.0,-2.0,30.04,1018.8,,,,0,0,0,,,,,,,,,7/8 Mostly Cloudy,2000.0,,BKN,2000.0,BKN,5000.0,,,,
KRDR,10-19-2002,04:00,METAR,,310,11.0,,,9999.0,Cloud Development Not Observable,0.0,-2.0,30.04,1018.8,,,,0,0,0,,,,,,,,,8/8 Overcast,1800.0,,OVC,1800.0,,,,,,
KRDR,10-19-2002,02:00,METAR,,320,12.0,,,9999.0,Cloud Development Not Observable,0.0,-1.0,30.01,1017.8,,,,0,0,0,,,,,,,,,8/8 Overcast,1500.0,,OVC,1500.0,,,,,,
KRDR,10-19-2002,01:00,METAR,,330,13.0,,,9999.0,Cloud Development Not Observable,0.0,0.0,29.98,1015.8,,,,0,0,0,,,,,,,,,8/8 Overcast,1500.0,,OVC,1500.0,,,,,,
KRDR,10-19-2002,00:00,METAR,,310,15.0,,,9999.0,Cloud Development Not Observable,1.0,0.0,29.95,1015.8,,,,0,0,0,,,,,,,,,8/8 Overcast,1500.0,,BKN,1500.0,OVC,3500.0,,,,
KRDR,10-18-2002,23:00,METAR,,320,13.0,,,9999.0,Cloud Development Not Observable,1.0,0.0,29.91,1014.4,,,,0,0,0,,,,,,,,,8/8 Overcast,1500.0,,BKN,1500.0,OVC,3500.0,,,,
KRDR,10-18-2002,21:00,METAR,,320,14.0,,,9999.0,Cloud Development Not Observable,1.0,1.0,29.86,1012.9,,,,0,0,0,,,,,,,,,8/8 Overcast,1200.0,,FEW,800.0,BKN,1200.0,OVC,2000.0,,
KRDR,10-18-2002,20:00,METAR,,340,14.0,,,9999.0,Cloud Development Not Observable,1.0,1.0,29.83,1011.8,,,,0,0,0,,,,,,,,,8/8 Overcast,1000.0,,BKN,1000.0,OVC,1500.0,,,,
KRDR,10-18-2002,19:09,SPECI,,330,15.0,,,9999.0,Cloud Development Not Observable,1.0,1.0,29.81,,,,,0,0,0,,,,,,,,,8/8 Overcast,1000.0,,BKN,1000.0,OVC,1800.0,,,,
KRDR,10-18-2002,19:00,METAR,,330,12.0,,,9999.0,Cloud Development Not Observable,1.0,1.0,29.80,1010.6,,,,0,0,0,,,,,,,,,8/8 Overcast,900.0,,BKN,900.0,OVC,1800.0,,,,
KRDR,10-18-2002,18:15,SPECI,,340,16.0,,,8000.0,Mist/Cloud Development Not Observable,1.0,1.0,29.80,,,,,10,0,0,,,,,,,,,8/8 Overcast,900.0,,BKN,900.0,OVC,1500.0,,,,
KRDR,10-18-2002,18:00,METAR,,350,11.0,,,8000.0,Mist/Cloud Development Not Observable,1.0,1.0,29.79,1010.4,,,,10,0,0,,,,,,,.01 IN,,8/8 Overcast,700.0,,BKN,700.0,OVC,1000.0,,,,
KRDR,10-18-2002,17:28,SPECI,,340,13.0,,,8000.0,Mist/Cloud Development Not Observable,1.0,1.0,29.78,,,,,10,0,0,,,,,,,,,8/8 Overcast,700.0,,OVC,700.0,,,,,,
KRDR,10-18-2002,17:00,METAR,,340,14.0,,,8000.0,Mist/Cloud Development Not Observable,1.0,1.0,29.76,1009.4,,,,10,0,0,,,,,,,,,8/8 Overcast,500.0,,OVC,500.0,,,,,,
KRDR,10-18-2002,16:00,METAR,,340,9.0,,,6400.0,Light Snow/Mist/Cloud Development Not Observable,0.0,0.0,29.73,1008.3,,,,71,10,0,,,,,,,,,8/8 Overcast,400.0,,OVC,400.0,,,,,,
KRDR,10-18-2002,15:00,METAR,,350,8.0,,,4800.0,Light Snow/Mist/Cloud Development Not Observable,1.0,1.0,29.71,1007.4,,,,71,10,0,,,,,,.01 IN,,,8/8 Overcast,400.0,,OVC,400.0,,,,,,
KRDR,10-18-2002,14:25,METAR,,360,9.0,,,4800.0,Light Snow/Mist/Cloud Development Not Observable,1.0,1.0,29.68,,,,,71,10,0,,,,,,,,,8/8 Overcast,400.0,,OVC,400.0,,,,,,
KRDR,10-18-2002,14:00,METAR,,20,7.0,,,3200.0,Light Snow/Mist/Cloud Development Not Observable,0.0,0.0,29.67,1006.3,,,,71,10,0,,,,,,,,,8/8 Overcast,400.0,,OVC,400.0,,,,,,
KRDR,10-18-2002,13:24,SPECI,,40,9.0,,,2400.0,Light Snow/Mist/Cloud Development Not Observable,0.0,0.0,29.64,,,,,71,10,0,,,,,,,,,8/8 Overcast,400.0,,BKN,400.0,OVC,800.0,,,,
KRDR,10-18-2002,13:14,SPECI,,50,8.0,,,4000.0,Light Snow/Mist/Cloud Development Not Observable,0.0,0.0,29.64,,,,,71,10,0,,,,,,,,,8/8 Overcast,400.0,,OVC,400.0,,,,,,
KRDR,10-18-2002,13:00,METAR,,40,6.0,,,2400.0,Light Snow/Mist/Cloud Development Not Observable,0.0,0.0,29.63,1004.9,,,,71,10,0,,,,,,,,,8/8 Overcast,300.0,,OVC,300.0,,,,,,
KRDR,10-18-2002,12:09,SPECI,,50,7.0,,,2400.0,Light Snow/Mist/Cloud Development Not Observable,0.0,0.0,29.62,,,,,71,10,0,,,,,,,,,8/8 Overcast,300.0,,OVC,300.0,,,,,,
KRDR,10-18-2002,12:00,METAR,,40,6.0,,,3200.0,Light Snow/Rain/Mist,0.0,0.0,29.62,1004.4,,,,61,71,10,,,,,,,.1 IN,.19 IN,8/8 Overcast,300.0,,OVC,300.0,,,,,,
KRDR,10-18-2002,11:00,METAR,,60,6.0,,,3200.0,Light Snow/Mist/Cloud Development Not Observable,0.0,0.0,29.61,1004.0,,,,71,10,0,,,,,,,,,8/8 Overcast,300.0,,OVC,300.0,,,,,,
KRDR,10-18-2002,10:00,METAR,,70,7.0,,,3200.0,Light Snow/Mist/Cloud Development Not Observable,0.0,0.0,29.59,1003.5,,,,71,10,0,,,,,,,,,8/8 Overcast,300.0,,OVC,300.0,,,,,,
KRDR,10-18-2002,09:35,SPECI,,90,8.0,,,3200.0,Light Snow/Cloud Development Not Observable,0.0,0.0,29.59,,,,,71,0,0,,,,,,,,,8/8 Overcast,300.0,,OVC,300.0,,,,,,
KRDR,10-18-2002,09:00,METAR,,100,6.0,,,2800.0,Light Snow/Cloud Development Not Observable,0.0,0.0,29.60,1003.9,,,,71,0,0,,,,,,.06 IN,,,8/8 Overcast,300.0,,SCT,0.0,OVC,300.0,,,,
KRDR,10-18-2002,08:00,METAR,,120,8.0,,,2400.0,Light Snow/Cloud Development Not Observable,0.0,0.0,29.61,1004.0,,,,71,0,0,,,,,,,,,8/8 Overcast,400.0,,SCT,0.0,OVC,400.0,,,,
KRDR,10-18-2002,07:00,METAR,,130,8.0,,,2400.0,Light Snow/Cloud Development Not Observable,0.0,0.0,29.63,1005.0,,,,71,0,0,,,,,,,,,8/8 Overcast,400.0,,SCT,0.0,OVC,400.0,,,,
KRDR,10-18-2002,06:00,METAR,,140,8.0,,,1600.0,Light Snow/Cloud Development Not Observable,0.0,0.0,29.65,1005.7,,,,71,0,0,,,,,,,.09 IN,,8/8 Overcast,500.0,,SCT,0.0,OVC,500.0,,,,
KRDR,10-18-2002,05:00,METAR,,140,7.0,,,1600.0,Light Snow/Cloud Development Not Observable,0.0,0.0,29.67,1006.2,,,,71,0,0,,,,,,,,,8/8 Overcast,500.0,,SCT,0.0,OVC,500.0,,,,
KRDR,10-18-2002,04:13,SPECI,,150,7.0,,,1600.0,Light Snow/Cloud Development Not Observable,0.0,0.0,29.71,,,,,71,0,0,,,,,,,,,8/8 Overcast,500.0,,SCT,0.0,OVC,500.0,,,,
KRDR,10-18-2002,03:00,METAR,,160,9.0,,,4800.0,Light Snow/Mist/Cloud Development Not Observable,1.0,1.0,29.72,1007.8,,,,71,10,0,,,,,,TRACE,,,8/8 Overcast,2800.0,,FEW,1200.0,OVC,2800.0,,,,
KRDR,10-18-2002,02:51,SPECI,,160,9.0,,,9999.0,Light Snow/Cloud Development Not Observable,1.0,1.0,29.71,,,,,71,0,0,,,,,,,,,8/8 Overcast,2800.0,,FEW,1200.0,OVC,2800.0,,,,
KRDR,10-18-2002,02:32,SPECI,,150,8.0,,,9999.0,Light Snow/Cloud Development Not Observable,1.0,1.0,29.72,,,,,71,0,0,,,,,,,,,8/8 Overcast,3000.0,,FEW,2000.0,OVC,3000.0,,,,
KRDR,10-18-2002,02:00,METAR,,150,8.0,,,9999.0,Cloud Development Not Observable,2.0,1.0,29.73,1008.3,,,,0,0,0,,,,,,,,,8/8 Overcast,7500.0,,FEW,2000.0,OVC,7400.0,,,,
KRDR,10-18-2002,01:00,METAR,,160,7.0,,,9999.0,Cloud Development Not Observable,2.0,1.0,29.76,1009.2,,,,0,0,0,,,,,,,,,8/8 Overcast,9000.0,,FEW,2000.0,OVC,8900.0,,,,
KRDR,10-18-2002,00:00,METAR,,160,7.0,,,9999.0,Cloud Development Not Observable,2.0,0.0,29.77,1009.7,,,,0,0,0,,,,,,,,,8/8 Overcast,18000.0,,FEW,2200.0,FEW,7900.0,OVC,18000.0,,
KRDR,10-17-2002,23:00,METAR,,160,6.0,,,9999.0,Cloud Development Not Observable,3.0,0.0,29.79,1010.2,,,,0,0,0,,,,,,,,,8/8 Overcast,3400.0,,FEW,2200.0,SCT,3500.0,SCT,7900.0,OVC,20000.0
KRDR,10-17-2002,22:00,METAR,,170,5.0,,,9999.0,Cloud Development Not Observable,3.0,-1.0,29.80,1010.5,,,,0,0,0,,,,,,,,,7/8 Mostly Cloudy,8000.0,,SCT,2500.0,SCT,7900.0,BKN,20000.0,,
KRDR,10-17-2002,21:00,METAR,,,5.0,,,9999.0,Cloud Development Not Observable,3.0,0.0,29.81,1011.0,,,,0,0,0,,,,,,,,,7/8 Mostly Cloudy,4900.0,,SCT,2500.0,SCT,5000.0,BKN,12000.0,BKN,20000.0
KRDR,10-17-2002,20:00,METAR,,,2.0,,,9999.0,Cloud Development Not Observable,3.0,0.0,29.82,1011.4,,,,0,0,0,,,,,,,,,7/8 Mostly Cloudy,4900.0,,SCT,2500.0,SCT,5000.0,BKN,9900.0,BKN,20000.0
KRDR,10-17-2002,19:24,SPECI,,,3.0,,,9999.0,Cloud Development Not Observable,2.0,0.0,29.83,,,,,0,0,0,,,,,,,,,7/8 Mostly Cloudy,4900.0,,SCT,2500.0,BKN,5000.0,BKN,9900.0,,
KRDR,10-17-2002,19:00,METAR,,,4.0,,,9999.0,Cloud Development Not Observable,1.0,-1.0,29.84,1012.0,,,,0,0,0,,,,,,,,,7/8 Mostly Cloudy,2500.0,,BKN,2500.0,BKN,5000.0,BKN,20000.0,,
KRDR,10-17-2002,17:56,METAR,,300,9.0,,,9999.0,Cloud Development Not Observable,-1.0,-2.0,29.87,1013.1,,,,0,0,0,,,,,,,IN,,8/8 Overcast,2500.0,,BKN,2500.0,OVC,5000.0,,,,
KRDR,10-17-2002,17:00,METAR,,310,9.0,,,9999.0,Cloud Development Not Observable,-1.0,-3.0,29.89,1013.6,,,,0,0,0,,,,,,,,,8/8 Overcast,2300.0,,BKN,2300.0,OVC,3000.0,,,,
KRDR,10-17-2002,16:00,METAR,,310,10.0,,,9999.0,Cloud Development Not Observable,-2.0,-2.0,29.89,1013.6,,,,0,0,0,,,,,,,,,8/8 Overcast,1500.0,,BKN,1500.0,OVC,3000.0,,,,
KRDR,10-17-2002,15:15,SPECI,,350,7.0,,,9999.0,Mist/Cloud Development Not Observable,-1.0,-1.0,29.88,,,,,10,0,0,,,,,,,,,8/8 Overcast,1100.0,,FEW,600.0,BKN,1100.0,OVC,2000.0,,
KRDR,10-17-2002,15:00,METAR,,360,9.0,,,9999.0,Mist/Cloud Development Not Observable,-1.0,-1.0,29.87,1013.3,,,,10,0,0,,,,,,TRACE,,,8/8 Overcast,900.0,,FEW,600.0,BKN,900.0,OVC,1200.0,,
KRDR,10-17-2002,14:00,METAR,,360,7.0,,,9999.0,Mist/Cloud Development Not Observable,-1.0,-1.0,29.87,1013.1,,,,10,0,0,,,,,,,,,8/8 Overcast,900.0,,SCT,600.0,BKN,900.0,OVC,1300.0,,
KRDR,10-17-2002,13:28,SPECI,,30,6.0,,,8000.0,Mist/Cloud Development Not Observable,-1.0,-1.0,29.86,,,,,10,0,0,,,,,,,,,8/8 Overcast,800.0,,SCT,400.0,BKN,800.0,OVC,1200.0,,
KRDR,10-17-2002,13:00,METAR,,30,6.0,,,8000.0,Light Snow/Cloud Development Not Observable,-1.0,-1.0,29.85,1012.5,,,,71,0,0,,,,,,,,,8/8 Overcast,800.0,,SCT,400.0,BKN,800.0,OVC,2800.0,,
KRDR,10-17-2002,12:43,SPECI,,30,7.0,,,8000.0,Light Snow/Cloud Development Not Observable,-1.0,-1.0,29.85,,,,,71,0,0,,,,,,,,,8/8 Overcast,800.0,,SCT,400.0,BKN,800.0,OVC,2800.0,,
KRDR,10-17-2002,12:00,METAR,,40,3.0,,,9999.0,Light Snow/Cloud Development Not Observable,-1.0,-1.0,29.86,1012.6,,,,71,0,0,,,,,,,.15 IN,.15 IN,8/8 Overcast,2800.0,,SCT,400.0,OVC,2800.0,,,,
KRDR,10-17-2002,11:32,SPECI,,50,3.0,,,6400.0,Light Snow/Cloud Development Not Observable,-1.0,-1.0,29.85,,,,,71,0,0,,,,,,,,,8/8 Overcast,2800.0,,SCT,400.0,OVC,2800.0,,,,
KRDR,10-17-2002,11:00,METAR,,50,4.0,,,3200.0,Light Snow/Cloud Development Not Observable,-1.0,-1.0,29.85,1012.3,,,,71,0,0,,,,,,,,,8/8 Overcast,2500.0,,BKN,2500.0,OVC,3500.0,,,,
KRDR,10-17-2002,10:00,METAR,,40,2.0,,,3200.0,Light Snow/Cloud Development Not Observable,-1.0,-1.0,29.85,1012.3,,,,71,0,0,,,,,,,,,8/8 Overcast,1500.0,,BKN,1500.0,OVC,4000.0,,,,
KRDR,10-17-2002,09:00,METAR,,,1.0,,,3200.0,Light Snow/Cloud Development Not Observable,-1.0,-1.0,29.86,1012.6,,,,71,0,0,,,,,,.01 IN,,,8/8 Overcast,2000.0,,BKN,2000.0,OVC,4000.0,,,,
KRDR,10-17-2002,08:00,METAR,,260,4.0,,,6400.0,Light Snow/Cloud Development Not Observable,-1.0,-2.0,29.88,1013.3,,,,71,0,0,,,,,,,,,8/8 Overcast,6000.0,,FEW,4000.0,BKN,5900.0,OVC,20000.0,,
KRDR,10-17-2002,07:23,SPECI,,250,3.0,,,9999.0,Light Snow/Cloud Development Not Observable,-1.0,-3.0,29.88,,,,,71,0,0,,,,,,,,,8/8 Overcast,6000.0,,FEW,4000.0,BKN,5900.0,OVC,20000.0,,
KRDR,10-17-2002,06:00,METAR,,,1.0,,,9999.0,Cloud Development Not Observable,-1.0,-4.0,29.90,1013.8,,,,0,0,0,,,,,,,,,7/8 Mostly Cloudy,6000.0,,BKN,5900.0,BKN,20000.0,,,,
KRDR,10-17-2002,05:00,METAR,,,2.0,,,9999.0,Cloud Development Not Observable,-2.0,-4.0,29.92,1014.7,,,,0,0,0,,,,,,,,,7/8 Mostly Cloudy,7000.0,,BKN,6900.0,BKN,20000.0,,,,
KRDR,10-17-2002,03:00,METAR,,170,4.0,,,9999.0,Cloud Development Not Observable,-2.0,-6.0,29.94,1015.7,,,,0,0,0,,,,,,,,,7/8 Mostly Cloudy,12000.0,,BKN,12000.0,BKN,20000.0,,,,
KRDR,10-17-2002,02:00,METAR,,150,5.0,,,9999.0,Cloud Development Not Observable,-2.0,-6.0,29.96,1016.3,,,,0,0,0,,,,,,,,,7/8 Mostly Cloudy,20000.0,,SCT,12000.0,BKN,20000.0,,,,
KRDR,10-17-2002,01:00,METAR,,130,6.0,,,9999.0,Cloud Development Not Observable,0.0,-6.0,29.98,1017.0,,,,0,0,0,,,,,,,,,7/8 Mostly Cloudy,20000.0,,SCT,12000.0,BKN,20000.0,,,,
KRDR,10-16-2002,23:00,METAR,,,5.0,,,9999.0,Cloud Development Not Observable,4.0,-7.0,30.00,1017.6,,,,0,0,0,,,,,,,,,7/8 Mostly Cloudy,12000.0,,SCT,6900.0,BKN,12000.0,,,,
KRDR,10-16-2002,22:00,METAR,,,3.0,,,9999.0,Cloud Development Not Observable,4.0,-7.0,30.01,1017.9,,,,0,0,0,,,,,,,,,7/8 Mostly Cloudy,10000.0,,SCT,6900.0,BKN,9900.0,,,,
KRDR,10-16-2002,21:00,METAR,,,5.0,,,9999.0,Cloud Development Not Observable,4.0,-7.0,30.02,1018.2,,,,0,0,0,,,,,,,,,7/8 Mostly Cloudy,10000.0,,BKN,9900.0,,,,,,
KRDR,10-16-2002,20:00,METAR,,330,8.0,,,9999.0,Cloud Development Not Observable,5.0,-6.0,30.04,1019.0,,,,0,0,0,,,,,,,,,7/8 Mostly Cloudy,10000.0,,BKN,9900.0,,,,,,
KRDR,10-16-2002,19:00,METAR,,,5.0,,,9999.0,Cloud Development Not Observable,3.0,-6.0,30.07,1020.0,,,,0,0,0,,,,,,,,,7/8 Mostly Cloudy,10000.0,,FEW,5900.0,BKN,9900.0,BKN,20000.0,,
KRDR,10-16-2002,18:00,METAR,,,4.0,,,9999.0,Cloud Development Not Observable,3.0,-5.0,30.09,1020.5,,,,0,0,0,,,,,,,,,7/8 Mostly Cloudy,10000.0,,BKN,9900.0,BKN,20000.0,,,,
KRDR,10-16-2002,17:00,METAR,,,5.0,,,9999.0,Cloud Development Not Observable,0.0,-4.0,30.10,1021.2,,,,0,0,0,,,,,,,,,7/8 Mostly Cloudy,10000.0,,BKN,9900.0,BKN,20000.0,,,,
KRDR,10-16-2002,16:00,METAR,,,4.0,,,9999.0,Cloud Development Not Observable,-1.0,-4.0,30.11,1021.3,,,,0,0,0,,,,,,,,,7/8 Mostly Cloudy,10000.0,,FEW,6900.0,BKN,9900.0,BKN,20000.0,,
KRDR,10-16-2002,15:00,METAR,,350,6.0,,,9999.0,Cloud Development Not Observable,-4.0,-5.0,30.11,1021.6,,,,0,0,0,,,,,,,,,7/8 Mostly Cloudy,20000.0,,FEW,6900.0,BKN,20000.0,,,,
KRDR,10-16-2002,14:00,METAR,,330,5.0,,,9999.0,Cloud Development Not Observable,-6.0,-6.0,30.11,1021.7,,,,0,0,0,,,,,,,,,7/8 Mostly Cloudy,7500.0,,BKN,7400.0,BKN,20000.0,,,,
KRDR,10-16-2002,13:00,METAR,,340,4.0,,,9999.0,Cloud Development Not Observable,-7.0,-7.0,30.10,1021.2,,,,0,0,0,,,,,,,,,7/8 Mostly Cloudy,9000.0,,BKN,8900.0,BKN,20000.0,,,,
KRDR,10-16-2002,12:00,METAR,,310,5.0,,,9999.0,Cloud Development Not Observable,-7.0,-7.0,30.11,1021.3,,,,0,0,0,,,,,,,,,4/8 Partly Cloudy,72000.0,,SCT,8900.0,SCT,20000.0,,,,
KRDR,10-16-2002,11:00,METAR,,310,4.0,,,9999.0,Cloud Development Not Observable,-8.0,-8.0,30.12,1021.6,,,,0,0,0,,,,,,,,,2/8 Mostly Clear,72000.0,,FEW,20000.0,,,,,,
KRDR,10-16-2002,10:00,METAR,,320,4.0,,,9999.0,Cloud Development Not Observable,-8.0,-8.0,30.12,1021.6,,,,0,0,0,,,,,,,,,2/8 Mostly Clear,72000.0,,FEW,20000.0,,,,,,
KRDR,10-16-2002,09:00,METAR,,,2.0,,,9999.0,Cloud Development Not Observable,-7.0,-7.0,30.11,1021.2,,,,0,0,0,,,,,,,,,4/8 Partly Cloudy,72000.0,,SCT,20000.0,,,,,,
KRDR,10-16-2002,08:00,METAR,,210,4.0,,,9999.0,Cloud Development Not Observable,-6.0,-7.0,30.12,1021.5,,,,0,0,0,,,,,,,,,4/8 Partly Cloudy,72000.0,,SCT,20000.0,,,,,,
KRDR,10-16-2002,07:00,METAR,,220,4.0,,,9999.0,Cloud Development Not Observable,-7.0,-7.0,30.12,1021.5,,,,0,0,0,,,,,,,,,4/8 Partly Cloudy,72000.0,,SCT,20000.0,,,,,,
KRDR,10-16-2002,06:00,METAR,,,3.0,,,9999.0,Cloud Development Not Observable,-6.0,-7.0,30.12,1021.5,,,,0,0,0,,,,,,,,,4/8 Partly Cloudy,72000.0,,SCT,20000.0,,,,,,
KRDR,10-16-2002,05:00,METAR,,230,2.0,,,9999.0,Cloud Development Not Observable,-7.0,-7.0,30.13,1022.0,,,,0,0,0,,,,,,,,,2/8 Mostly Clear,72000.0,,FEW,12000.0,FEW,20000.0,,,,
KRDR,10-16-2002,04:00,METAR,,320,3.0,,,9999.0,Cloud Development Not Observable,-6.0,-7.0,30.14,1022.3,,,,0,0,0,,,,,,,,,2/8 Mostly Clear,72000.0,,FEW,12000.0,FEW,20000.0,,,,
KRDR,10-16-2002,03:00,METAR,,340,3.0,,,9999.0,Cloud Development Not Observable,-4.0,-6.0,30.14,1022.3,,,,0,0,0,,,,,,,,,Clear,72000.0,,,73000.0,,,,,,
KRDR,10-16-2002,02:00,METAR,,200,5.0,,,9999.0,Cloud Development Not Observable,-4.0,-6.0,30.13,1022.0,,,,0,0,0,,,,,,,,,2/8 Mostly Clear,72000.0,,FEW,20000.0,,,,,,
KRDR,10-16-2002,01:00,METAR,,170,3.0,,,9999.0,Cloud Development Not Observable,-2.0,-6.0,30.13,1022.0,,,,0,0,0,,,,,,,,,4/8 Partly Cloudy,72000.0,,FEW,5900.0,SCT,20000.0,,,,
KRDR,10-16-2002,00:00,METAR,,,4.0,,,9999.0,Cloud Development Not Observable,2.0,-6.0,30.13,1021.8,,,,0,0,0,,,,,,,,,4/8 Partly Cloudy,72000.0,,FEW,5900.0,SCT,20000.0,,,,
KRDR,10-15-2002,23:00,METAR,,300,10.0,,,9999.0,Cloud Development Not Observable,4.0,-6.0,30.13,1021.7,,,,0,0,0,,,,,,,,,4/8 Partly Cloudy,72000.0,,SCT,5900.0,,,,,,
KRDR,10-15-2002,22:00,METAR,,360,6.0,,,9999.0,Cloud Development Not Observable,4.0,-6.0,30.14,1022.0,,,,0,0,0,,,,,,,,,7/8 Mostly Cloudy,5500.0,,BKN,5400.0,,,,,,
KRDR,10-15-2002,21:00,METAR,,310,8.0,,,9999.0,Cloud Development Not Observable,4.0,-6.0,30.15,1022.4,,,,0,0,0,,,,,,,,,7/8 Mostly Cloudy,4900.0,,BKN,5000.0,,,,,,
KRDR,10-15-2002,20:00,METAR,,350,12.0,,,9999.0,Cloud Development Not Observable,4.0,-6.0,30.17,1023.1,,,,0,0,0,,,,,,,,,7/8 Mostly Cloudy,4900.0,,BKN,5000.0,,,,,,
KRDR,10-15-2002,19:00,METAR,,310,14.0,22.0,,9999.0,Cloud Development Not Observable,4.0,-6.0,30.18,1023.3,,,,0,0,0,,,,,,,,,4/8 Partly Cloudy,72000.0,,SCT,5000.0,,,,,,
KRDR,10-15-2002,18:00,METAR,,340,7.0,,,9999.0,Cloud Development Not Observable,3.0,-5.0,30.21,1024.5,,,,0,0,0,,,,,,,,,4/8 Partly Cloudy,72000.0,,FEW,4000.0,SCT,6400.0,,,,
KRDR,10-15-2002,17:00,METAR,,320,7.0,,,9999.0,Cloud Development Not Observable,3.0,-5.0,30.22,1024.7,,,,0,0,0,,,,,,,,,4/8 Partly Cloudy,72000.0,,FEW,4000.0,FEW,6400.0,SCT,12000.0,,
KRDR,10-15-2002,16:00,METAR,,360,8.0,,,9999.0,Cloud Development Not Observable,2.0,-3.0,30.22,1024.7,,,,0,0,0,,,,,,,,,2/8 Mostly Clear,72000.0,,FEW,4000.0,FEW,6900.0,,,,
KRDR,10-15-2002,15:00,METAR,,20,7.0,,,9999.0,Cloud Development Not Observable,0.0,-4.0,30.22,1024.8,,,,0,0,0,,,,,,,,,2/8 Mostly Clear,72000.0,,FEW,6900.0,,,,,,
KRDR,10-15-2002,14:00,METAR,,350,6.0,,,9999.0,Cloud Development Not Observable,-2.0,-4.0,30.21,1024.5,,,,0,0,0,,,,,,,,,2/8 Mostly Clear,72000.0,,FEW,6900.0,,,,,,
KRDR,10-15-2002,13:00,METAR,,330,7.0,,,9999.0,Cloud Development Not Observable,-3.0,-5.0,30.20,1024.1,,,,0,0,0,,,,,,,,,4/8 Partly Cloudy,72000.0,,FEW,4000.0,SCT,6900.0,,,,
KRDR,10-15-2002,12:00,METAR,,340,7.0,,,9999.0,Cloud Development Not Observable,-3.0,-4.0,30.18,1023.4,,,,0,0,0,,,,,,,,.01 IN,4/8 Partly Cloudy,72000.0,,FEW,6900.0,SCT,20000.0,,,,
KRDR,10-15-2002,11:00,METAR,,340,9.0,,,9999.0,Cloud Development Not Observable,1.0,-4.0,30.15,1022.2,,,,0,0,0,,,,,,,,,8/8 Overcast,4900.0,,OVC,5000.0,,,,,,
KRDR,10-15-2002,10:00,METAR,,320,11.0,,,9999.0,Cloud Development Not Observable,1.0,-3.0,30.13,1021.4,,,,0,0,0,,,,,,,,,8/8 Overcast,3900.0,,OVC,4000.0,,,,,,
KRDR,10-15-2002,09:00,METAR,,330,9.0,,,9999.0,Cloud Development Not Observable,1.0,-1.0,30.12,1021.0,,,,0,0,0,,,,,,,,,8/8 Overcast,3000.0,,BKN,3000.0,OVC,4000.0,,,,
KRDR,10-15-2002,08:00,METAR,,350,5.0,,,9999.0,Cloud Development Not Observable,1.0,0.0,30.10,1020.3,,,,0,0,0,,,,,,,,,8/8 Overcast,2800.0,,SCT,2500.0,BKN,2800.0,OVC,4000.0,,
KRDR,10-15-2002,07:00,METAR,,360,9.0,,,9999.0,Cloud Development Not Observable,2.0,-1.0,30.10,1020.2,,,,0,0,0,,,,,,,,,8/8 Overcast,2800.0,,SCT,2000.0,BKN,2800.0,OVC,4000.0,,
KRDR,10-15-2002,06:00,METAR,,350,9.0,,,9999.0,Cloud Development Not Observable,2.0,1.0,30.09,1019.8,,,,0,0,0,,,,,,,.01 IN,,8/8 Overcast,2000.0,,BKN,2000.0,OVC,3000.0,,,,
KRDR,10-15-2002,05:00,METAR,,360,8.0,,,9999.0,Cloud Development Not Observable,3.0,2.0,30.06,1019.2,,,,0,0,0,,,,,,,,,8/8 Overcast,2000.0,,BKN,2000.0,OVC,3000.0,,,,
KRDR,10-15-2002,04:00,METAR,,360,11.0,,,9999.0,Cloud Development Not Observable,4.0,3.0,30.04,1018.6,,,,0,0,0,,,,,,,,,8/8 Overcast,1800.0,,FEW,300.0,BKN,1800.0,OVC,5000.0,,
KRDR,10-15-2002,03:35,SPECI,,360,12.0,,,9999.0,Cloud Development Not Observable,4.0,4.0,30.04,,,,,0,0,0,,,,,,,,,8/8 Overcast,1800.0,,FEW,1200.0,OVC,1800.0,,,,
KRDR,10-15-2002,03:00,METAR,,350,15.0,23.0,,9999.0,Rain/Cloud Development Not Observable,4.0,4.0,30.02,1017.8,,,,61,0,0,,,,,,.01 IN,,,8/8 Overcast,3100.0,,FEW,1800.0,OVC,3100.0,,,,
KRDR,10-15-2002,02:20,METAR,,310,13.0,23.0,,9999.0,Light Rain Showers/Cloud Development Not Observable,6.0,4.0,29.99,,,,,80,0,0,,,,,,,,,8/8 Overcast,3900.0,,SCT,3000.0,OVC,4000.0,,,,
KRDR,10-15-2002,02:00,METAR,,300,13.0,,,9999.0,Cloud Development Not Observable,6.0,3.0,29.99,1016.8,,,,0,0,0,,,,,,,,,8/8 Overcast,3400.0,,OVC,3500.0,,,,,,
KRDR,10-15-2002,01:00,METAR,,300,9.0,,,9999.0,Cloud Development Not Observable,7.0,2.0,29.96,1015.8,,,,0,0,0,,,,,,,,,8/8 Overcast,4900.0,,OVC,5000.0,,,,,,
KRDR,10-15-2002,00:00,METAR,,310,14.0,,,9999.0,Cloud Development Not Observable,8.0,2.0,29.95,1015.2,,,,0,0,0,,,,,,,,,8/8 Overcast,4900.0,,FEW,2000.0,OVC,5000.0,,,,
KRDR,10-14-2002,23:00,METAR,,300,18.0,25.0,,9999.0,Cloud Development Not Observable,8.0,2.0,29.91,1013.8,,,,0,0,0,,,,,,,,,7/8 Mostly Cloudy,3900.0,,BKN,4000.0,,,,,,
KRDR,10-14-2002,22:00,METAR,,330,17.0,,300/27KTS,9999.0,Cloud Development Not Observable,10.0,3.0,29.86,1012.2,,,,0,0,0,,,,,,,,,7/8 Mostly Cloudy,4400.0,,BKN,4500.0,BKN,25000.0,,,,
KRDR,10-14-2002,21:00,METAR,,310,19.0,24.0,320/27KTS,9999.0,Cloud Development Not Observable,12.0,3.0,29.82,1011.0,,,,0,0,0,,,,,,,,,7/8 Mostly Cloudy,4900.0,,SCT,4000.0,BKN,5000.0,,,,
KRDR,10-14-2002,20:00,METAR,,310,21.0,26.0,,9999.0,Cloud Development Not Observable,14.0,4.0,29.78,1009.3,,,,0,0,0,,,,,,,,,7/8 Mostly Cloudy,3900.0,,BKN,4000.0,BKN,20000.0,,,,
KRDR,10-14-2002,19:00,METAR,,330,14.0,22.0,320/27KTS,9999.0,Cloud Development Not Observable,14.0,5.0,29.75,1008.3,,,,0,0,0,,,,,,,,,7/8 Mostly Cloudy,3900.0,,BKN,4000.0,BKN,20000.0,,,,
KRDR,10-14-2002,18:00,METAR,,310,18.0,,,9999.0,Cloud Development Not Observable,14.0,5.0,29.72,1007.4,,,,0,0,0,,,,,,,,,7/8 Mostly Cloudy,10000.0,,FEW,3500.0,SCT,9900.0,BKN,20000.0,,
KRDR,10-14-2002,17:00,METAR,,310,13.0,,,9999.0,Cloud Development Not Observable,11.0,3.0,29.71,1007.0,,,,0,0,0,,,,,,,,,7/8 Mostly Cloudy,20000.0,,SCT,9900.0,BKN,20000.0,,,,
KRDR,10-14-2002,16:00,METAR,,310,8.0,,,9999.0,Cloud Development Not Observable,8.0,0.0,29.71,1007.1,,,,0,0,0,,,,,,,,,7/8 Mostly Cloudy,10000.0,,SCT,7400.0,BKN,9900.0,BKN,20000.0,,
KRDR,10-14-2002,15:00,METAR,,240,8.0,,,9999.0,Cloud Development Not Observable,6.0,0.0,29.70,1006.8,,,,0,0,0,,,,,,,,,7/8 Mostly Cloudy,10000.0,,BKN,9900.0,BKN,20000.0,,,,
KRDR,10-14-2002,14:00,METAR,,140,5.0,,,9999.0,Cloud Development Not Observable,3.0,0.0,29.71,1007.3,,,,0,0,0,,,,,,,,,7/8 Mostly Cloudy,20000.0,,SCT,8900.0,BKN,20000.0,,,,
KRDR,10-14-2002,13:00,METAR,,150,5.0,,,9999.0,Cloud Development Not Observable,3.0,-1.0,29.72,1007.8,,,,0,0,0,,,,,,,,,8/8 Overcast,12000.0,,BKN,12000.0,OVC,20000.0,,,,
KRDR,10-14-2002,12:00,METAR,,140,7.0,,,9999.0,Cloud Development Not Observable,4.0,-1.0,29.76,1008.9,,,,0,0,0,,,,,,,,,8/8 Overcast,12000.0,,BKN,12000.0,OVC,20000.0,,,,
KRDR,10-14-2002,11:00,METAR,,150,13.0,,,9999.0,Cloud Development Not Observable,4.0,-1.0,29.77,1009.2,,,,0,0,0,,,,,,,,,7/8 Mostly Cloudy,20000.0,,SCT,12000.0,BKN,20000.0,,,,
KRDR,10-14-2002,10:00,METAR,,160,14.0,,,9999.0,Cloud Development Not Observable,4.0,-1.0,29.81,1010.6,,,,0,0,0,,,,,,,,,7/8 Mostly Cloudy,20000.0,,SCT,12000.0,BKN,20000.0,,,,
KRDR,10-14-2002,09:00,METAR,,160,13.0,,,9999.0,Cloud Development Not Observable,3.0,-1.0,29.87,1012.8,,,,0,0,0,,,,,,,,,7/8 Mostly Cloudy,20000.0,,SCT,12000.0,BKN,20000.0,,,,
KRDR,10-14-2002,08:00,METAR,,160,13.0,,,9999.0,Cloud Development Not Observable,3.0,-1.0,29.94,1015.0,,,,0,0,0,,,,,,,,,7/8 Mostly Cloudy,20000.0,,BKN,20000.0,,,,,,
KRDR,10-14-2002,07:00,METAR,,160,11.0,,,9999.0,Cloud Development Not Observable,3.0,-2.0,29.97,1016.2,,,,0,0,0,,,,,,,,,7/8 Mostly Cloudy,20000.0,,BKN,20000.0,,,,,,
KRDR,10-14-2002,06:00,METAR,,150,11.0,19.0,,9999.0,Cloud Development Not Observable,2.0,-3.0,30.00,1017.3,,,,0,0,0,,,,,,,,,7/8 Mostly Cloudy,20000.0,,BKN,20000.0,,,,,,
KRDR,10-14-2002,04:00,METAR,,160,14.0,,,9999.0,Cloud Development Not Observable,2.0,-3.0,30.07,1019.8,,,,0,0,0,,,,,,,,,7/8 Mostly Cloudy,20000.0,,BKN,20000.0,,,,,,
KRDR,10-14-2002,03:00,METAR,,160,15.0,,,9999.0,Cloud Development Not Observable,2.0,-3.0,30.10,1020.7,,,,0,0,0,,,,,,,,,7/8 Mostly Cloudy,20000.0,,BKN,20000.0,,,,,,
KRDR,10-14-2002,02:00,METAR,,150,13.0,,,9999.0,Cloud Development Not Observable,2.0,-3.0,30.13,1022.0,,,,0,0,0,,,,,,,,,7/8 Mostly Cloudy,20000.0,,BKN,20000.0,,,,,,
KRDR,10-14-2002,01:00,METAR,,140,13.0,,,9999.0,Cloud Development Not Observable,2.0,-3.0,30.17,1023.5,,,,0,0,0,,,,,,,,,7/8 Mostly Cloudy,20000.0,,FEW,9900.0,BKN,20000.0,,,,
KRDR,10-14-2002,00:00,METAR,,140,8.0,,,9999.0,Cloud Development Not Observable,4.0,-3.0,30.20,1024.3,,,,0,0,0,,,,,,,,,4/8 Partly Cloudy,72000.0,,FEW,9900.0,SCT,20000.0,,,,
KRDR,10-13-2002,23:00,METAR,,140,11.0,,,9999.0,Cloud Development Not Observable,6.0,-4.0,30.22,1025.0,,,,0,0,0,,,,,,,,,2/8 Mostly Clear,72000.0,,FEW,9900.0,FEW,20000.0,,,,
KRDR,10-13-2002,22:00,METAR,,160,9.0,,,9999.0,Cloud Development Not Observable,7.0,-5.0,30.27,1026.3,,,,0,0,0,,,,,,,,,2/8 Mostly Clear,72000.0,,FEW,9900.0,,,,,,
KRDR,10-13-2002,21:00,METAR,,,5.0,,,9999.0,Cloud Development Not Observable,6.0,-5.0,30.28,1026.7,,,,0,0,0,,,,,,,,,2/8 Mostly Clear,72000.0,,FEW,9900.0,,,,,,
KRDR,10-13-2002,20:00,METAR,,,2.0,,,9999.0,Cloud Development Not Observable,5.0,-6.0,30.29,1027.3,,,,0,0,0,,,,,,,,,Clear,72000.0,,,73000.0,,,,,,
KRDR,10-13-2002,19:00,METAR,,,5.0,,,9999.0,Cloud Development Not Observable,4.0,-6.0,30.32,1028.1,,,,0,0,0,,,,,,,,,Clear,72000.0,,,73000.0,,,,,,
KRDR,10-13-2002,18:00,METAR,,,4.0,,,9999.0,Cloud Development Not Observable,2.0,-7.0,30.35,1029.4,,,,0,0,0,,,,,,,,,Clear,72000.0,,,73000.0,,,,,,
KRDR,10-13-2002,17:00,METAR,,360,5.0,,,9999.0,Cloud Development Not Observable,1.0,-7.0,30.35,1029.5,,,,0,0,0,,,,,,,,,2/8 Mostly Clear,72000.0,,FEW,25000.0,,,,,,
KRDR,10-13-2002,16:00,METAR,,360,8.0,,,9999.0,Cloud Development Not Observable,0.0,-7.0,30.35,1029.5,,,,0,0,0,,,,,,,,,4/8 Partly Cloudy,72000.0,,SCT,25000.0,,,,,,
KRDR,10-13-2002,15:00,METAR,,360,9.0,,,9999.0,Cloud Development Not Observable,0.0,-7.0,30.34,1029.1,,,,0,0,0,,,,,,,,,2/8 Mostly Clear,72000.0,,FEW,25000.0,,,,,,
KRDR,10-13-2002,14:00,METAR,,350,6.0,,,9999.0,Cloud Development Not Observable,-2.0,-6.0,30.32,1028.5,,,,0,0,0,,,,,,,,,2/8 Mostly Clear,72000.0,,FEW,25000.0,,,,,,
KRDR,10-13-2002,13:00,METAR,,350,6.0,,,9999.0,Cloud Development Not Observable,-5.0,-6.0,30.29,1027.6,,,,0,0,0,,,,,,,,,2/8 Mostly Clear,72000.0,,FEW,25000.0,,,,,,
KRDR,10-13-2002,12:00,METAR,,280,7.0,,,9999.0,Cloud Development Not Observable,-3.0,-6.0,30.28,1026.9,,,,0,0,0,,,,,,,,,2/8 Mostly Clear,72000.0,,FEW,7900.0,,,,,,
KRDR,10-13-2002,11:00,METAR,,290,7.0,,,9999.0,Cloud Development Not Observable,-1.0,-5.0,30.26,1026.3,,,,0,0,0,,,,,,,,,7/8 Mostly Cloudy,8000.0,,BKN,7900.0,,,,,,
KRDR,10-13-2002,10:00,METAR,,290,9.0,,,9999.0,Cloud Development Not Observable,-1.0,-5.0,30.25,1026.0,,,,0,0,0,,,,,,,,,7/8 Mostly Cloudy,8000.0,,BKN,7900.0,,,,,,
KRDR,10-13-2002,09:00,METAR,,280,11.0,,,9999.0,Cloud Development Not Observable,0.0,-6.0,30.22,1025.0,,,,0,0,0,,,,,,,,,7/8 Mostly Cloudy,9000.0,,BKN,8900.0,,,,,,
KRDR,10-13-2002,08:00,METAR,,250,14.0,,,9999.0,Cloud Development Not Observable,0.0,-7.0,30.21,1024.5,,,,0,0,0,,,,,,,,,2/8 Mostly Clear,72000.0,,FEW,9900.0,,,,,,
KRDR,10-13-2002,07:00,METAR,,250,13.0,,,9999.0,Cloud Development Not Observable,0.0,-7.0,30.21,1024.5,,,,0,0,0,,,,,,,,,2/8 Mostly Clear,72000.0,,FEW,9900.0,,,,,,
KRDR,10-13-2002,06:00,METAR,,250,14.0,,,9999.0,Cloud Development Not Observable,0.0,-7.0,30.22,1024.9,,,,0,0,0,,,,,,,,,2/8 Mostly Clear,72000.0,,FEW,6900.0,,,,,,
KRDR,10-13-2002,05:00,METAR,,240,11.0,,,9999.0,Cloud Development Not Observable,0.0,-6.0,30.23,1025.4,,,,0,0,0,,,,,,,,,4/8 Partly Cloudy,72000.0,,SCT,6900.0,,,,,,
KRDR,10-13-2002,04:00,METAR,,230,8.0,,,9999.0,Cloud Development Not Observable,-1.0,-5.0,30.25,1026.1,,,,0,0,0,,,,,,,,,7/8 Mostly Cloudy,10000.0,,FEW,7400.0,BKN,9900.0,,,,
KRDR,10-13-2002,03:00,METAR,,240,8.0,,,9999.0,Cloud Development Not Observable,-2.0,-7.0,30.28,1026.8,,,,0,0,0,,,,,,,,,4/8 Partly Cloudy,72000.0,,SCT,9900.0,,,,,,
KRDR,10-13-2002,02:00,METAR,,270,9.0,,,9999.0,Cloud Development Not Observable,-1.0,-7.0,30.29,1027.2,,,,0,0,0,,,,,,,,,4/8 Partly Cloudy,72000.0,,SCT,8900.0,,,,,,
KRDR,10-13-2002,01:00,METAR,,270,9.0,,,9999.0,Cloud Development Not Observable,0.0,-8.0,30.29,1027.2,,,,0,0,0,,,,,,,,,4/8 Partly Cloudy,72000.0,,SCT,7900.0,,,,,,
KRDR,10-13-2002,00:00,METAR,,280,8.0,,,9999.0,Cloud Development Not Observable,2.0,-9.0,30.29,1027.0,,,,0,0,0,,,,,,,,,4/8 Partly Cloudy,72000.0,,SCT,7900.0,,,,,,
KRDR,10-12-2002,23:00,METAR,,290,12.0,22.0,,9999.0,Cloud Development Not Observable,4.0,-9.0,30.28,1026.6,,,,0,0,0,,,,,,,,,4/8 Partly Cloudy,72000.0,,SCT,6400.0,,,,,,
KRDR,10-12-2002,22:00,METAR,,300,16.0,24.0,,9999.0,Cloud Development Not Observable,5.0,-10.0,30.27,1026.3,,,,0,0,0,,,,,,,,,4/8 Partly Cloudy,72000.0,,SCT,6400.0,,,,,,
KRDR,10-12-2002,21:00,METAR,,290,19.0,27.0,,9999.0,Cloud Development Not Observable,5.0,-8.0,30.26,1026.0,,,,0,0,0,,,,,,,,,7/8 Mostly Cloudy,6000.0,,BKN,5900.0,,,,,,
KRDR,10-12-2002,20:00,METAR,,300,15.0,24.0,300/27KTS,9999.0,Cloud Development Not Observable,4.0,-6.0,30.26,1026.1,,,,0,0,0,,,,,,,,,7/8 Mostly Cloudy,6000.0,,BKN,5900.0,,,,,,
KRDR,10-12-2002,19:00,METAR,,310,18.0,26.0,,9999.0,Cloud Development Not Observable,4.0,-4.0,30.27,1026.4,,,,0,0,0,,,,,,,,,7/8 Mostly Cloudy,4900.0,,BKN,5000.0,,,,,,
KRDR,10-12-2002,18:00,METAR,,300,18.0,25.0,,9999.0,Cloud Development Not Observable,3.0,-4.0,30.28,1026.8,,,,0,0,0,,,,,,,IN,,8/8 Overcast,4400.0,,OVC,4500.0,,,,,,
KRDR,10-12-2002,17:00,METAR,,300,19.0,,300/26KTS,9999.0,Light Snow/Cloud Development Not Observable,3.0,-3.0,30.28,1026.5,,,,71,0,0,,,,,,,,,8/8 Overcast,3900.0,,OVC,4000.0,,,,,,
KRDR,10-12-2002,16:00,METAR,,300,14.0,21.0,,9999.0,Cloud Development Not Observable,3.0,-1.0,30.27,1026.2,,,,0,0,0,,,,,,,,,8/8 Overcast,3400.0,,OVC,3500.0,,,,,,
KRDR,10-12-2002,15:00,METAR,,300,14.0,,,9999.0,Cloud Development Not Observable,4.0,0.0,30.24,1025.2,,,,0,0,0,,,,,,TRACE,,,8/8 Overcast,4400.0,,OVC,4500.0,,,,,,
KRDR,10-12-2002,14:30,METAR,,300,16.0,,,9999.0,Cloud Development Not Observable,4.0,0.0,30.23,,,,,0,0,0,,,,,,,,,8/8 Overcast,4400.0,,OVC,4500.0,,,,,,
KRDR,10-12-2002,13:30,METAR,,320,6.0,,,9999.0,Cloud Development Not Observable,3.0,2.0,30.21,,,,,0,0,0,,,,,,,,,8/8 Overcast,2500.0,,OVC,2500.0,,,,,,
KRDR,10-12-2002,13:00,METAR,,350,10.0,,,9999.0,Light Snow/Cloud Development Not Observable,3.0,2.0,30.19,1023.5,,,,71,0,0,,,,,,,,,8/8 Overcast,2000.0,,OVC,2000.0,,,,,,
KRDR,10-12-2002,12:00,METAR,,340,7.0,,,9999.0,Light Snow/Rain/Cloud Development Not Observable,4.0,2.0,30.17,1022.8,,,,61,71,0,,,,,,,IN,,8/8 Overcast,2400.0,,OVC,2400.0,,,,,,
KRDR,10-12-2002,11:00,METAR,,330,8.0,,,9999.0,Cloud Development Not Observable,4.0,2.0,30.14,1021.6,,,,0,0,0,,,,,,,,,8/8 Overcast,2400.0,,OVC,2400.0,,,,,,
KRDR,10-12-2002,10:00,METAR,,310,12.0,,,9999.0,Cloud Development Not Observable,4.0,2.0,30.10,1020.1,,,,0,0,0,,,,,,,,,8/8 Overcast,2500.0,,OVC,2500.0,,,,,,
KRDR,10-12-2002,09:00,METAR,,300,12.0,,,9999.0,Cloud Development Not Observable,4.0,2.0,30.05,1018.6,,,,0,0,0,,,,,,,,,7/8 Mostly Cloudy,2500.0,,BKN,2500.0,,,,,,
KRDR,10-12-2002,08:50,METAR,,300,12.0,,,9999.0,Cloud Development Not Observable,3.0,2.0,30.05,,,,,0,0,0,,,,,,,,,7/8 Mostly Cloudy,2500.0,,BKN,2500.0,,,,,,
KRDR,10-12-2002,08:00,METAR,,300,10.0,,,9999.0,Cloud Development Not Observable,3.0,1.0,30.03,1017.8,,,,0,0,0,,,,,,,,,Clear,72000.0,,,73000.0,,,,,,
KRDR,10-12-2002,07:00,METAR,,300,11.0,,,9999.0,Cloud Development Not Observable,5.0,2.0,30.02,1017.5,,,,0,0,0,,,,,,,,,7/8 Mostly Cloudy,5500.0,,BKN,5400.0,,,,,,
KRDR,10-12-2002,06:00,METAR,,300,13.0,,,9999.0,Cloud Development Not Observable,6.0,3.0,30.00,1016.9,,,,0,0,0,,,,,,,.13 IN,,7/8 Mostly Cloudy,5500.0,,BKN,5400.0,,,,,,
KRDR,10-12-2002,05:00,METAR,,300,16.0,22.0,300/25KTS,9999.0,Cloud Development Not Observable,7.0,4.0,29.97,1015.8,,,,0,0,0,,,,,,,,,8/8 Overcast,4200.0,,OVC,4300.0,,,,,,
KRDR,10-12-2002,04:00,METAR,,300,10.0,,,9999.0,Cloud Development Not Observable,8.0,6.0,29.95,1014.9,,,,0,0,0,,,,,,,,,8/8 Overcast,3400.0,,OVC,3500.0,,,,,,
KRDR,10-12-2002,03:00,METAR,,300,8.0,,,9999.0,Cloud Development Not Observable,8.0,7.0,29.92,1014.1,,,,0,0,0,,,,,,.13 IN,,,8/8 Overcast,3500.0,,SCT,3000.0,OVC,3600.0,,,,
KRDR,10-12-2002,01:00,METAR,,290,12.0,,290/25KTS,9999.0,Rain/Cloud Development Not Observable,8.0,7.0,29.90,1013.5,,,,61,0,0,,,,,,,,,8/8 Overcast,4900.0,,OVC,5000.0,,,,,,
KRDR,10-12-2002,00:13,SPECI,,300,18.0,22.0,,9999.0,Rain/Cloud Development Not Observable,9.0,6.0,29.85,,,,,61,0,0,,,,,,,,,8/8 Overcast,5500.0,,SCT,4000.0,OVC,5400.0,,,,
KRDR,10-12-2002,00:06,SPECI,,300,19.0,25.0,,9999.0,Rain/Cloud Development Not Observable,9.0,6.0,29.85,,,,,61,0,0,,,,,,,,,8/8 Overcast,5500.0,,SCT,4000.0,OVC,5400.0,,,,
KRDR,10-12-2002,00:00,METAR,,300,16.0,24.0,290/30KTS,9999.0,Cloud Development Not Observable,9.0,6.0,29.82,1010.8,,,,0,0,0,,,,,,,IN,,8/8 Overcast,6000.0,,SCT,4000.0,OVC,5900.0,,,,
KRDR,10-11-2002,23:39,SPECI,,300,19.0,27.0,,9999.0,Rain/Cloud Development Not Observable,10.0,6.0,29.81,,,,,61,0,0,,,,,,,,,8/8 Overcast,6000.0,,SCT,4000.0,BKN,5900.0,OVC,8900.0,,
KRDR,10-11-2002,23:00,METAR,,300,16.0,,,9999.0,Cloud Development Not Observable,13.0,6.0,29.75,1008.2,,,,0,0,0,,,,,,,,,8/8 Overcast,9000.0,,SCT,5900.0,OVC,8900.0,,,,
KRDR,10-11-2002,22:16,SPECI,,310,14.0,,,9999.0,Rain/Cloud Development Not Observable,14.0,7.0,29.72,,,,,61,0,0,,,,,,,,,8/8 Overcast,6000.0,,FEW,3500.0,BKN,5900.0,OVC,9900.0,,
KRDR,10-11-2002,22:14,SPECI,,310,14.0,,,9999.0,Rain/Cloud Development Not Observable,14.0,7.0,29.72,,,,,61,0,0,,,,,,,,,8/8 Overcast,6000.0,,FEW,3500.0,BKN,5900.0,OVC,9900.0,,
KRDR,10-11-2002,22:00,METAR,,300,15.0,19.0,,9999.0,Cloud Development Not Observable,14.0,6.0,29.73,1007.3,,,,0,0,0,,,,,,,,,8/8 Overcast,6000.0,,SCT,3000.0,BKN,5900.0,OVC,12000.0,,
KRDR,10-11-2002,21:00,METAR,,310,18.0,24.0,,9999.0,Cloud Development Not Observable,16.0,6.0,29.67,1005.3,,,,0,0,0,,,,,,,,,7/8 Mostly Cloudy,4900.0,,FEW,3500.0,BKN,5000.0,,,,
KRDR,10-11-2002,20:00,METAR,,310,9.0,,,9999.0,Cloud Development Not Observable,15.0,10.0,29.65,1004.7,,,,0,0,0,,,,,,,,,7/8 Mostly Cloudy,4900.0,,FEW,3500.0,BKN,5000.0,,,,
KRDR,10-11-2002,19:40,SPECI,,320,8.0,,,9999.0,Cloud Development Not Observable,15.0,11.0,29.65,,,,,0,0,0,,,,,,,,,7/8 Mostly Cloudy,3900.0,,SCT,2800.0,BKN,4000.0,,,,
KRDR,10-11-2002,19:00,METAR,,300,15.0,,,9999.0,Cloud Development Not Observable,14.0,12.0,29.63,1003.7,,,,0,0,0,,,,,,,,,8/8 Overcast,1800.0,,BKN,1800.0,OVC,2500.0,,,,
KRDR,10-11-2002,18:00,METAR,,240,5.0,,,9999.0,Cloud Development Not Observable,15.0,13.0,29.59,1002.5,,,,0,0,0,,,,,,,,,8/8 Overcast,2300.0,,OVC,2300.0,,,,,,
KRDR,10-11-2002,17:00,METAR,,230,7.0,,,9999.0,Cloud Development Not Observable,14.0,13.0,29.57,1001.8,,,,0,0,0,,,,,,,,,8/8 Overcast,1500.0,,OVC,1500.0,,,,,,
KRDR,10-11-2002,16:05,SPECI,,210,8.0,,,9999.0,Cloud Development Not Observable,14.0,13.0,29.55,,,,,0,0,0,,,,,,,,,7/8 Mostly Cloudy,1500.0,,BKN,1500.0,,,,,,
KRDR,10-11-2002,16:00,METAR,,210,8.0,,,9999.0,Cloud Development Not Observable,14.0,13.0,29.56,1001.5,,,,0,0,0,,,,,,,,,8/8 Overcast,1800.0,,OVC,1800.0,,,,,,
KRDR,10-11-2002,15:00,METAR,,190,10.0,,,9999.0,Cloud Development Not Observable,13.0,12.0,29.55,1001.3,,,,0,0,0,,,,,,,,,8/8 Overcast,2200.0,,BKN,2200.0,OVC,15000.0,,,,
KRDR,10-11-2002,14:24,SPECI,,180,12.0,,,9999.0,Cloud Development Not Observable,13.0,12.0,29.55,,,,,0,0,0,,,,,,,,,8/8 Overcast,2400.0,,BKN,2400.0,OVC,15000.0,,,,
KRDR,10-11-2002,14:00,METAR,,190,9.0,,,9999.0,Cloud Development Not Observable,13.0,12.0,29.56,1001.5,,,,0,0,0,,,,,,,,,7/8 Mostly Cloudy,15000.0,,SCT,2500.0,BKN,15000.0,BKN,20000.0,,
KRDR,10-11-2002,13:00,METAR,,170,10.0,,,9999.0,Cloud Development Not Observable,12.0,12.0,29.55,1001.4,,,,0,0,0,,,,,,,,,7/8 Mostly Cloudy,15000.0,,FEW,800.0,SCT,15000.0,BKN,20000.0,,
KRDR,10-11-2002,12:35,SPECI,,160,11.0,,,9999.0,Cloud Development Not Observable,12.0,12.0,29.55,,,,,0,0,0,,,,,,,,,4/8 Partly Cloudy,72000.0,,FEW,800.0,SCT,12000.0,SCT,20000.0,,
KRDR,10-11-2002,12:00,METAR,,170,10.0,,,9999.0,Cloud Development Not Observable,12.0,12.0,29.56,1001.7,,,,0,0,0,,,,,,,,,4/8 Partly Cloudy,72000.0,,SCT,800.0,SCT,20000.0,,,,
KRDR,10-11-2002,11:00,METAR,,160,11.0,,,9999.0,Cloud Development Not Observable,12.0,12.0,29.58,1002.2,,,,0,0,0,,,,,,,,,2/8 Mostly Clear,72000.0,,FEW,800.0,FEW,20000.0,,,,
KRDR,10-11-2002,10:00,METAR,,170,10.0,,,9999.0,Cloud Development Not Observable,13.0,13.0,29.60,1003.0,,,,0,0,0,,,,,,,,,2/8 Mostly Clear,72000.0,,FEW,800.0,FEW,20000.0,,,,
KRDR,10-11-2002,09:00,METAR,,160,10.0,,,9999.0,Cloud Development Not Observable,13.0,13.0,29.62,1003.7,,,,0,0,0,,,,,,,,,2/8 Mostly Clear,72000.0,,FEW,20000.0,,,,,,
KRDR,10-11-2002,08:00,METAR,,160,10.0,,,9999.0,Cloud Development Not Observable,13.0,13.0,29.65,1004.6,,,,0,0,0,,,,,,,,,7/8 Mostly Cloudy,20000.0,,BKN,20000.0,,,,,,
KRDR,10-11-2002,07:00,METAR,,160,11.0,,,9999.0,Cloud Development Not Observable,13.0,12.0,29.67,1005.4,,,,0,0,0,,,,,,,,,4/8 Partly Cloudy,72000.0,,SCT,20000.0,,,,,,
KRDR,10-11-2002,05:00,METAR,,160,8.0,,,9999.0,Cloud Development Not Observable,13.0,12.0,29.73,1007.4,,,,0,0,0,,,,,,,,,4/8 Partly Cloudy,72000.0,,SCT,20000.0,,,,,,
KRDR,10-11-2002,04:00,METAR,,150,7.0,,,9999.0,Cloud Development Not Observable,13.0,12.0,29.75,1008.1,,,,0,0,0,,,,,,,,,4/8 Partly Cloudy,72000.0,,SCT,20000.0,,,,,,
KRDR,10-11-2002,03:00,METAR,,170,10.0,,,9999.0,Cloud Development Not Observable,14.0,12.0,29.76,1008.6,,,,0,0,0,,,,,,,,,4/8 Partly Cloudy,72000.0,,SCT,20000.0,,,,,,
KRDR,10-11-2002,01:00,METAR,,160,8.0,,,9999.0,Cloud Development Not Observable,13.0,12.0,29.78,1009.2,,,,0,0,0,,,,,,,,,4/8 Partly Cloudy,72000.0,,FEW,9900.0,SCT,20000.0,,,,
KRDR,10-11-2002,00:00,METAR,,170,9.0,,,9999.0,Cloud Development Not Observable,13.0,11.0,29.79,1009.7,,,,0,0,0,,,,,,,,,4/8 Partly Cloudy,72000.0,,FEW,9900.0,SCT,20000.0,,,,
KRDR,10-10-2002,22:00,METAR,,170,13.0,,,9999.0,Cloud Development Not Observable,16.0,12.0,29.81,1010.3,,,,0,0,0,,,,,,,,,2/8 Mostly Clear,72000.0,,FEW,20000.0,,,,,,
KRDR,10-10-2002,21:00,METAR,,180,16.0,,,9999.0,Cloud Development Not Observable,16.0,11.0,29.82,1010.5,,,,0,0,0,,,,,,,,,2/8 Mostly Clear,72000.0,,FEW,20000.0,,,,,,
KRDR,10-10-2002,19:03,SPECI,,180,17.0,,,9999.0,Cloud Development Not Observable,14.0,11.0,29.89,,,,,0,0,0,,,,,,,,,4/8 Partly Cloudy,72000.0,,SCT,1400.0,,,,,,
KRDR,10-10-2002,19:00,METAR,,190,18.0,23.0,190/25KTS,9999.0,Cloud Development Not Observable,15.0,12.0,29.89,1013.4,,,,0,0,0,,,,,,,,,7/8 Mostly Cloudy,1400.0,,BKN,1400.0,,,,,,
KRDR,10-10-2002,18:25,METAR,,190,15.0,,,9999.0,Cloud Development Not Observable,13.0,11.0,29.89,,,,,0,0,0,,,,,,,,,7/8 Mostly Cloudy,1000.0,,BKN,1000.0,,,,,,
KRDR,10-10-2002,18:12,SPECI,,180,17.0,,,9999.0,Cloud Development Not Observable,13.0,12.0,29.89,,,,,0,0,0,,,,,,,,,8/8 Overcast,800.0,,OVC,800.0,,,,,,
KRDR,10-10-2002,18:00,METAR,,180,16.0,,,9999.0,Mist/Cloud Development Not Observable,11.0,11.0,29.90,1013.4,,,,10,0,0,,,,,,,,,8/8 Overcast,600.0,,OVC,600.0,,,,,,
KRDR,10-10-2002,17:33,SPECI,,170,14.0,,,8000.0,Mist/Cloud Development Not Observable,11.0,11.0,29.91,,,,,10,0,0,,,,,,,,,8/8 Overcast,600.0,,OVC,600.0,,,,,,
KRDR,10-10-2002,17:00,METAR,,180,12.0,,,8000.0,Mist/Cloud Development Not Observable,10.0,10.0,29.91,1013.9,,,,10,0,0,,,,,,,,,8/8 Overcast,500.0,,OVC,500.0,,,,,,
KRDR,10-10-2002,16:23,SPECI,,190,15.0,,,6400.0,Mist/Cloud Development Not Observable,10.0,10.0,29.91,,,,,10,0,0,,,,,,,,,8/8 Overcast,500.0,,OVC,500.0,,,,,,
KRDR,10-10-2002,16:00,METAR,,180,15.0,,,4000.0,Mist/Cloud Development Not Observable,9.0,9.0,29.92,1014.3,,,,10,0,0,,,,,,,,,8/8 Overcast,300.0,,OVC,300.0,,,,,,
KRDR,10-10-2002,15:50,METAR,,180,15.0,,,4000.0,Mist/Cloud Development Not Observable,9.0,9.0,29.92,,,,,10,0,0,,,,,,,,,8/8 Overcast,300.0,,OVC,300.0,,,,,,
KRDR,10-10-2002,15:00,METAR,,180,14.0,,,2400.0,Mist/Cloud Development Not Observable,8.0,8.0,29.91,1014.0,,,,10,0,0,,,,,,,,,8/8 Overcast,200.0,,OVC,200.0,,,,,,
KRDR,10-10-2002,14:34,SPECI,,180,12.0,,,800.0,Fog or Ice Fog/Cloud Development Not Observable,7.0,7.0,29.91,,,,,45,0,0,,,,,,,,,Sky Obscured (Unable to Estimate),200.0,100.0,,200.0,,,,,,
KRDR,10-10-2002,14:00,METAR,,180,12.0,19.0,,800.0,Fog or Ice Fog/Cloud Development Not Observable,7.0,7.0,29.92,1014.1,,,,45,0,0,,,,,,,,,Sky Obscured (Unable to Estimate),200.0,100.0,,200.0,,,,,,
KRDR,10-10-2002,13:18,SPECI,,180,15.0,,,800.0,Fog or Ice Fog/Cloud Development Not Observable,7.0,7.0,29.91,,,,,45,0,0,,,,,,,,,Sky Obscured (Unable to Estimate),200.0,100.0,,200.0,,,,,,
KRDR,10-10-2002,13:00,METAR,,180,12.0,,,800.0,Fog or Ice Fog/Cloud Development Not Observable,8.0,8.0,29.91,1013.9,,,,45,0,0,,,,,,,,,Sky Obscured (Unable to Estimate),200.0,100.0,,200.0,,,,,,
KRDR,10-10-2002,12:28,SPECI,,180,11.0,,,800.0,Fog or Ice Fog/Cloud Development Not Observable,8.0,8.0,29.91,,,,,44,0,0,,,,,,,,,8/8 Overcast,200.0,,OVC,200.0,,,,,,
KRDR,10-10-2002,12:00,METAR,,180,14.0,,,4000.0,Mist/Cloud Development Not Observable,8.0,8.0,29.91,1013.6,,,,10,0,0,,,,,,,,,8/8 Overcast,200.0,,OVC,200.0,,,,,,
KRDR,10-10-2002,11:46,SPECI,,190,13.0,,,4000.0,Mist/Cloud Development Not Observable,8.0,8.0,29.91,,,,,10,0,0,,,,,,,,,8/8 Overcast,200.0,,OVC,200.0,,,,,,
KRDR,10-10-2002,11:00,METAR,,190,11.0,,,8000.0,Mist/Cloud Development Not Observable,7.0,7.0,29.91,1013.6,,,,10,0,0,,,,,,,,,8/8 Overcast,100.0,,OVC,100.0,,,,,,
KRDR,10-10-2002,10:00,METAR,,200,11.0,,,4800.0,Mist/Cloud Development Not Observable,7.0,7.0,29.90,1013.5,,,,10,0,0,,,,,,,,,8/8 Overcast,100.0,,SCT,0.0,OVC,100.0,,,,
KRDR,10-10-2002,09:00,METAR,,190,11.0,,,8000.0,Mist/Cloud Development Not Observable,7.0,7.0,29.91,1013.6,,,,10,0,0,,,,,,,,,8/8 Overcast,200.0,,OVC,200.0,,,,,,
KRDR,10-10-2002,07:00,METAR,,180,9.0,,,9999.0,Cloud Development Not Observable,5.0,5.0,29.92,1014.1,,,,0,0,0,,,,,,,,,Clear,72000.0,,,73000.0,,,,,,
KRDR,10-10-2002,06:00,METAR,,190,9.0,,,9999.0,Cloud Development Not Observable,5.0,4.0,29.92,1014.1,,,,0,0,0,,,,,,,,,Clear,72000.0,,,73000.0,,,,,,
KRDR,10-10-2002,05:00,METAR,,190,11.0,,,9999.0,Cloud Development Not Observable,6.0,4.0,29.92,1014.3,,,,0,0,0,,,,,,,,,Clear,72000.0,,,73000.0,,,,,,
KRDR,10-10-2002,04:00,METAR,,180,10.0,,,9999.0,Cloud Development Not Observable,6.0,4.0,29.92,1014.4,,,,0,0,0,,,,,,,,,Clear,72000.0,,,73000.0,,,,,,
KRDR,10-10-2002,02:00,METAR,,180,13.0,,,9999.0,Cloud Development Not Observable,8.0,4.0,29.93,1014.9,,,,0,0,0,,,,,,,,,2/8 Mostly Clear,72000.0,,FEW,20000.0,,,,,,
KRDR,10-10-2002,01:00,METAR,,170,12.0,,,9999.0,Cloud Development Not Observable,9.0,4.0,29.94,1015.1,,,,0,0,0,,,,,,,,,4/8 Partly Cloudy,72000.0,,FEW,12000.0,SCT,20000.0,,,,
KRDR,10-10-2002,00:00,METAR,,180,13.0,,,9999.0,Cloud Development Not Observable,10.0,4.0,29.93,1014.9,,,,0,0,0,,,,,,,,,7/8 Mostly Cloudy,20000.0,,SCT,12000.0,BKN,20000.0,,,,
KRDR,10-09-2002,23:00,METAR,,190,15.0,21.0,,9999.0,Cloud Development Not Observable,12.0,3.0,29.94,1015.2,,,,0,0,0,,,,,,,,,7/8 Mostly Cloudy,12000.0,,FEW,7900.0,SCT,12000.0,BKN,20000.0,,
KRDR,10-09-2002,22:00,METAR,,180,13.0,,,9999.0,Cloud Development Not Observable,12.0,3.0,29.94,1015.2,,,,0,0,0,,,,,,,,,8/8 Overcast,12000.0,,FEW,7900.0,SCT,12000.0,OVC,20000.0,,
KRDR,10-09-2002,21:00,METAR,,180,15.0,,,9999.0,Cloud Development Not Observable,12.0,3.0,29.96,1015.9,,,,0,0,0,,,,,,,,,7/8 Mostly Cloudy,12000.0,,FEW,7900.0,SCT,12000.0,BKN,20000.0,,
KRDR,10-09-2002,20:00,METAR,,180,17.0,23.0,,9999.0,Cloud Development Not Observable,12.0,3.0,29.99,1016.8,,,,0,0,0,,,,,,,,,7/8 Mostly Cloudy,20000.0,,FEW,6900.0,FEW,14000.0,BKN,20000.0,,
KRDR,10-09-2002,19:00,METAR,,180,17.0,23.0,,9999.0,Cloud Development Not Observable,12.0,3.0,30.02,1017.8,,,,0,0,0,,,,,,,,,7/8 Mostly Cloudy,14000.0,,FEW,6900.0,SCT,14000.0,BKN,20000.0,,
KRDR,10-09-2002,18:00,METAR,,180,14.0,,,9999.0,Cloud Development Not Observable,11.0,3.0,30.04,1018.4,,,,0,0,0,,,,,,,,,7/8 Mostly Cloudy,20000.0,,FEW,9900.0,FEW,14000.0,BKN,20000.0,,
KRDR,10-09-2002,17:00,METAR,,180,16.0,,,9999.0,Cloud Development Not Observable,8.0,3.0,30.08,1019.6,,,,0,0,0,,,,,,,,,7/8 Mostly Cloudy,20000.0,,FEW,14000.0,BKN,20000.0,,,,
KRDR,10-09-2002,16:00,METAR,,170,18.0,,,9999.0,Cloud Development Not Observable,7.0,2.0,30.10,1020.3,,,,0,0,0,,,,,,,,,7/8 Mostly Cloudy,20000.0,,FEW,14000.0,BKN,20000.0,,,,
KRDR,10-09-2002,15:00,METAR,,180,13.0,,,9999.0,Cloud Development Not Observable,4.0,2.0,30.11,1020.8,,,,0,0,0,,,,,,,,,7/8 Mostly Cloudy,20000.0,,FEW,14000.0,BKN,20000.0,,,,
KRDR,10-09-2002,14:00,METAR,,180,9.0,,,9999.0,Cloud Development Not Observable,1.0,1.0,30.12,1021.2,,,,0,0,0,,,,,,,,,7/8 Mostly Cloudy,20000.0,,FEW,14000.0,BKN,20000.0,,,,
KRDR,10-09-2002,13:00,METAR,,210,6.0,,,9999.0,Cloud Development Not Observable,-3.0,-3.0,30.13,1021.7,,,,0,0,0,,,,,,,,,4/8 Partly Cloudy,72000.0,,FEW,9900.0,SCT,20000.0,,,,
KRDR,10-09-2002,12:00,METAR,,200,6.0,,,9999.0,Cloud Development Not Observable,-3.0,-3.0,30.13,1021.7,,,,0,0,0,,,,,,,,,2/8 Mostly Clear,72000.0,,FEW,25000.0,,,,,,
KRDR,10-09-2002,11:00,METAR,,180,6.0,,,9999.0,Cloud Development Not Observable,-4.0,-5.0,30.13,1021.7,,,,0,0,0,,,,,,,,,Clear,72000.0,,,73000.0,,,,,,
KRDR,10-09-2002,10:00,METAR,,210,4.0,,,9999.0,Cloud Development Not Observable,-3.0,-3.0,30.13,1021.7,,,,0,0,0,,,,,,,,,Clear,72000.0,,,73000.0,,,,,,
KRDR,10-09-2002,09:00,METAR,,230,6.0,,,9999.0,Cloud Development Not Observable,-3.0,-3.0,30.14,1022.0,,,,0,0,0,,,,,,,,,Clear,72000.0,,,73000.0,,,,,,
KRDR,10-09-2002,08:00,METAR,,230,3.0,,,9999.0,Cloud Development Not Observable,1.0,0.0,30.14,1022.1,,,,0,0,0,,,,,,,,,Clear,72000.0,,,73000.0,,,,,,
KRDR,10-09-2002,07:00,METAR,,180,4.0,,,9999.0,Cloud Development Not Observable,3.0,0.0,30.14,1021.8,,,,0,0,0,,,,,,,,,4/8 Partly Cloudy,72000.0,,SCT,3500.0,,,,,,
KRDR,10-09-2002,05:00,METAR,,260,3.0,,,9999.0,Cloud Development Not Observable,5.0,1.0,30.14,1021.9,,,,0,0,0,,,,,,,,,4/8 Partly Cloudy,72000.0,,SCT,3500.0,,,,,,
KRDR,10-09-2002,03:00,METAR,,360,4.0,,,9999.0,Cloud Development Not Observable,5.0,1.0,30.13,1021.4,,,,0,0,0,,,,,,,,,8/8 Overcast,3400.0,,OVC,3500.0,,,,,,
KRDR,10-09-2002,01:00,METAR,,330,5.0,,,9999.0,Cloud Development Not Observable,6.0,3.0,30.12,1021.0,,,,0,0,0,,,,,,,,,8/8 Overcast,3400.0,,OVC,3500.0,,,,,,
KRDR,10-08-2002,22:00,METAR,,310,11.0,,,9999.0,Cloud Development Not Observable,6.0,2.0,30.08,1019.9,,,,0,0,0,,,,,,,,,7/8 Mostly Cloudy,3000.0,,BKN,3000.0,,,,,,
KRDR,10-08-2002,21:00,METAR,,310,12.0,,,9999.0,Cloud Development Not Observable,7.0,2.0,30.06,1019.3,,,,0,0,0,,,,,,,,,8/8 Overcast,3000.0,,OVC,3000.0,,,,,,
KRDR,10-08-2002,20:00,METAR,,310,15.0,,,9999.0,Cloud Development Not Observable,7.0,2.0,30.04,1018.7,,,,0,0,0,,,,,,,,,8/8 Overcast,3000.0,,BKN,3000.0,OVC,4000.0,,,,
KRDR,10-08-2002,19:00,METAR,,300,15.0,,,9999.0,Cloud Development Not Observable,7.0,2.0,30.03,1018.4,,,,0,0,0,,,,,,,,,8/8 Overcast,3000.0,,BKN,3000.0,OVC,4000.0,,,,
KRDR,10-08-2002,18:00,METAR,,300,17.0,,310/25KTS,9999.0,Cloud Development Not Observable,7.0,2.0,30.03,1018.4,,,,0,0,0,,,,,,,,,8/8 Overcast,3000.0,,BKN,3000.0,OVC,4000.0,,,,
KRDR,10-08-2002,17:00,METAR,,310,18.0,26.0,,9999.0,Cloud Development Not Observable,7.0,3.0,30.01,1017.5,,,,0,0,0,,,,,,,,,8/8 Overcast,3000.0,,BKN,3000.0,OVC,3500.0,,,,
KRDR,10-08-2002,16:00,METAR,,300,14.0,23.0,,9999.0,Cloud Development Not Observable,6.0,4.0,29.99,1016.8,,,,0,0,0,,,,,,,,,7/8 Mostly Cloudy,2300.0,,FEW,1800.0,BKN,2300.0,,,,
KRDR,10-08-2002,15:00,METAR,,310,18.0,,,9999.0,Cloud Development Not Observable,6.0,5.0,29.97,1016.1,,,,0,0,0,,,,,,,,,7/8 Mostly Cloudy,1800.0,,BKN,1800.0,BKN,3000.0,,,,
KRDR,10-08-2002,14:00,METAR,,310,9.0,,,9999.0,Cloud Development Not Observable,7.0,7.0,29.94,1014.9,,,,0,0,0,,,,,,,,,7/8 Mostly Cloudy,1600.0,,BKN,1600.0,BKN,5000.0,,,,
KRDR,10-08-2002,13:39,SPECI,,310,10.0,,,9999.0,Cloud Development Not Observable,7.0,7.0,29.93,,,,,0,0,0,,,,,,,,,7/8 Mostly Cloudy,1800.0,,BKN,1800.0,BKN,5000.0,,,,
KRDR,10-08-2002,13:00,METAR,,310,9.0,,,9999.0,Cloud Development Not Observable,7.0,7.0,29.91,1013.9,,,,0,0,0,,,,,,,,,8/8 Overcast,4900.0,,FEW,3000.0,OVC,5000.0,,,,
KRDR,10-08-2002,12:00,METAR,,270,5.0,,,9999.0,Cloud Development Not Observable,6.0,6.0,29.87,1012.7,,,,0,0,0,,,,,,,.08 IN,.08 IN,8/8 Overcast,3000.0,,OVC,3000.0,,,,,,
KRDR,10-08-2002,11:40,SPECI,,320,3.0,,,9999.0,Cloud Development Not Observable,6.0,6.0,29.87,,,,,0,0,0,,,,,,,,,8/8 Overcast,3000.0,,BKN,3000.0,OVC,5900.0,,,,
KRDR,10-08-2002,11:00,METAR,,260,9.0,,,9999.0,Cloud Development Not Observable,6.0,6.0,29.86,1012.1,,,,0,0,0,,,,,,,,,8/8 Overcast,3400.0,,BKN,3500.0,OVC,5900.0,,,,
KRDR,10-08-2002,10:30,METAR,,220,6.0,,,9999.0,Light Rain Showers/Cloud Development Not Observable,5.0,5.0,29.85,,,,,80,0,0,,,,,,,,,8/8 Overcast,6000.0,,SCT,3500.0,OVC,5900.0,,,,
KRDR,10-08-2002,10:00,METAR,,220,7.0,,,9999.0,Cloud Development Not Observable,4.0,4.0,29.85,1011.8,,,,0,0,0,,,,,,,,,8/8 Overcast,12000.0,,SCT,4000.0,BKN,12000.0,OVC,20000.0,,
KRDR,10-08-2002,09:00,METAR,,190,4.0,,,9999.0,Cloud Development Not Observable,3.0,3.0,29.85,1012.1,,,,0,0,0,,,,,,,,,4/8 Partly Cloudy,72000.0,,SCT,4000.0,,,,,,
KRDR,10-08-2002,08:00,METAR,,190,4.0,,,9999.0,Cloud Development Not Observable,2.0,1.0,29.86,1012.3,,,,0,0,0,,,,,,,,,2/8 Mostly Clear,72000.0,,FEW,4000.0,,,,,,
KRDR,10-08-2002,07:00,METAR,,220,4.0,,,9999.0,Cloud Development Not Observable,1.0,1.0,29.87,1012.7,,,,0,0,0,,,,,,,,,Clear,72000.0,,,73000.0,,,,,,
KRDR,10-08-2002,06:00,METAR,,190,5.0,,,9999.0,Cloud Development Not Observable,2.0,2.0,29.87,1012.9,,,,0,0,0,,,,,,,,,2/8 Mostly Clear,72000.0,,FEW,4000.0,,,,,,
KRDR,10-08-2002,05:00,METAR,,160,4.0,,,9999.0,Cloud Development Not Observable,4.0,3.0,29.89,1013.1,,,,0,0,0,,,,,,,,,4/8 Partly Cloudy,72000.0,,SCT,4000.0,,,,,,
KRDR,10-08-2002,03:00,METAR,,110,4.0,,,9999.0,Cloud Development Not Observable,7.0,5.0,29.89,1013.1,,,,0,0,0,,,,,,,,,7/8 Mostly Cloudy,3900.0,,BKN,4000.0,,,,,,
KRDR,10-08-2002,02:00,METAR,,80,2.0,,,9999.0,Cloud Development Not Observable,9.0,5.0,29.91,1013.8,,,,0,0,0,,,,,,,,,7/8 Mostly Cloudy,3900.0,,BKN,4000.0,,,,,,
KRDR,10-08-2002,01:00,METAR,,100,3.0,,,9999.0,Cloud Development Not Observable,9.0,5.0,29.90,1013.5,,,,0,0,0,,,,,,,,,7/8 Mostly Cloudy,3900.0,,BKN,4000.0,,,,,,
KRDR,10-08-2002,00:00,METAR,,100,4.0,,,9999.0,Cloud Development Not Observable,9.0,5.0,29.89,1013.1,,,,0,0,0,,,,,,,,,7/8 Mostly Cloudy,3400.0,,BKN,3500.0,,,,,,
KRDR,10-07-2002,22:00,METAR,,200,4.0,,,9999.0,Cloud Development Not Observable,10.0,4.0,29.89,1013.1,,,,0,0,0,,,,,,,,,7/8 Mostly Cloudy,3200.0,,SCT,2000.0,BKN,3300.0,BKN,5000.0,,
KRDR,10-07-2002,21:00,METAR,,170,7.0,,,9999.0,Cloud Development Not Observable,10.0,4.0,29.89,1013.3,,,,0,0,0,,,,,,,,,8/8 Overcast,3000.0,,BKN,3000.0,OVC,5000.0,,,,
KRDR,10-07-2002,20:00,METAR,,160,7.0,,,9999.0,Cloud Development Not Observable,9.0,4.0,29.89,1013.3,,,,0,0,0,,,,,,,,,7/8 Mostly Cloudy,3000.0,,BKN,3000.0,BKN,5000.0,,,,
KRDR,10-07-2002,19:30,METAR,,130,8.0,15.0,,9999.0,Cloud Development Not Observable,9.0,3.0,29.90,,,,,0,0,0,,,,,,,,,8/8 Overcast,3000.0,,BKN,3000.0,OVC,4000.0,,,,
KRDR,10-07-2002,19:00,METAR,,160,10.0,,,9999.0,Cloud Development Not Observable,9.0,3.0,29.91,1014.1,,,,0,0,0,,,,,,,,,8/8 Overcast,2900.0,,BKN,2900.0,OVC,20000.0,,,,
KRDR,10-07-2002,18:00,METAR,,160,14.0,,160/26KTS,9999.0,Cloud Development Not Observable,9.0,3.0,29.91,1014.1,,,,0,0,0,,,,,,,IN,,7/8 Mostly Cloudy,2700.0,,BKN,2700.0,BKN,20000.0,,,,
KRDR,10-07-2002,17:23,SPECI,,150,14.0,,,9999.0,Cloud Development Not Observable,9.0,3.0,29.92,,,,,0,0,0,,,,,,,,,7/8 Mostly Cloudy,2500.0,,BKN,2500.0,BKN,20000.0,,,,
KRDR,10-07-2002,17:00,METAR,,160,16.0,22.0,160/25KTS,9999.0,Cloud Development Not Observable,9.0,4.0,29.93,1014.9,,,,0,0,0,,,,,,,,,7/8 Mostly Cloudy,5500.0,,SCT,1500.0,BKN,5400.0,BKN,20000.0,,
KRDR,10-07-2002,16:00,METAR,,160,15.0,21.0,,9999.0,Cloud Development Not Observable,7.0,4.0,29.94,1015.3,,,,0,0,0,,,,,,,,,7/8 Mostly Cloudy,5500.0,,SCT,1500.0,BKN,5400.0,,,,
KRDR,10-07-2002,15:00,METAR,,150,12.0,,,9999.0,Cloud Development Not Observable,5.0,4.0,29.96,1012.6,,,,0,0,0,,,,,,TRACE,,,7/8 Mostly Cloudy,5500.0,,FEW,1500.0,BKN,5400.0,,,,
KRDR,10-07-2002,13:00,METAR,,160,8.0,,,9999.0,Cloud Development Not Observable,4.0,4.0,29.97,1016.3,,,,0,0,0,,,,,,,,,8/8 Overcast,3900.0,,FEW,2500.0,BKN,4000.0,OVC,5000.0,,
KRDR,10-07-2002,11:00,METAR,,180,7.0,,,9999.0,Rain/Cloud Development Not Observable,3.0,3.0,30.00,1017.1,,,,61,0,0,,,,,,,,,8/8 Overcast,7000.0,,OVC,6900.0,,,,,,
KRDR,10-07-2002,10:00,METAR,,190,8.0,,,9999.0,Light Rain Showers/Cloud Development Not Observable,4.0,1.0,30.00,1017.2,,,,80,0,0,,,,,,,,,7/8 Mostly Cloudy,6500.0,,BKN,6400.0,,,,,,
KRDR,10-07-2002,09:00,METAR,,200,8.0,,,9999.0,Light Rain Showers/Cloud Development Not Observable,4.0,1.0,30.02,1017.6,,,,80,0,0,,,,,,TRACE,,,8/8 Overcast,4400.0,,OVC,4500.0,,,,,,
KRDR,10-07-2002,08:20,METAR,,200,8.0,,,9999.0,Light Rain Showers/Cloud Development Not Observable,3.0,1.0,30.02,,,,,80,0,0,,,,,,,,,8/8 Overcast,5500.0,,OVC,5400.0,,,,,,
KRDR,10-07-2002,08:00,METAR,,200,7.0,,,9999.0,Cloud Development Not Observable,3.0,1.0,30.03,1018.0,,,,0,0,0,,,,,,,,,8/8 Overcast,5500.0,,OVC,5400.0,,,,,,
KRDR,10-07-2002,06:00,METAR,,200,7.0,,,9999.0,Cloud Development Not Observable,1.0,0.0,30.06,1019.2,,,,0,0,0,,,,,,,,,7/8 Mostly Cloudy,7000.0,,BKN,6900.0,BKN,20000.0,,,,
KRDR,10-07-2002,04:00,METAR,,220,7.0,,,9999.0,Cloud Development Not Observable,1.0,-1.0,30.11,1021.0,,,,0,0,0,,,,,,,,,7/8 Mostly Cloudy,8000.0,,BKN,7900.0,,,,,,
KRDR,10-07-2002,03:00,METAR,,220,7.0,,,9999.0,Cloud Development Not Observable,0.0,-2.0,30.12,1021.4,,,,0,0,0,,,,,,,,,4/8 Partly Cloudy,72000.0,,SCT,6900.0,,,,,,
KRDR,10-07-2002,01:00,METAR,,250,7.0,,,9999.0,Cloud Development Not Observable,3.0,-2.0,30.13,1021.7,,,,0,0,0,,,,,,,,,7/8 Mostly Cloudy,7000.0,,FEW,4000.0,BKN,6900.0,,,,
KRDR,10-07-2002,00:00,METAR,,260,8.0,,,9999.0,Cloud Development Not Observable,6.0,-1.0,30.12,1021.2,,,,0,0,0,,,,,,,,,7/8 Mostly Cloudy,7000.0,,FEW,4000.0,BKN,6900.0,,,,
KRDR,10-06-2002,23:00,METAR,,290,11.0,,,9999.0,Cloud Development Not Observable,8.0,-4.0,30.12,1021.1,,,,0,0,0,,,,,,,,,7/8 Mostly Cloudy,7000.0,,FEW,4000.0,BKN,6900.0,,,,
KRDR,10-06-2002,22:00,METAR,,290,10.0,,,9999.0,Cloud Development Not Observable,8.0,-5.0,30.11,1020.9,,,,0,0,0,,,,,,,,,7/8 Mostly Cloudy,6500.0,,FEW,4000.0,BKN,6400.0,,,,
KRDR,10-06-2002,21:00,METAR,,290,10.0,20.0,,9999.0,Cloud Development Not Observable,10.0,-5.0,30.12,1021.2,,,,0,0,0,,,,,,,,,4/8 Partly Cloudy,72000.0,,SCT,4000.0,,,,,,
KRDR,10-06-2002,20:00,METAR,,310,10.0,,,9999.0,Cloud Development Not Observable,9.0,-4.0,30.12,1021.0,,,,0,0,0,,,,,,,,,4/8 Partly Cloudy,72000.0,,SCT,4000.0,,,,,,
KRDR,10-06-2002,19:00,METAR,,340,14.0,,310/25KTS,9999.0,Cloud Development Not Observable,8.0,-4.0,30.13,1021.4,,,,0,0,0,,,,,,,,,4/8 Partly Cloudy,72000.0,,SCT,4000.0,,,,,,
KRDR,10-06-2002,18:00,METAR,,360,14.0,,,9999.0,Cloud Development Not Observable,7.0,-2.0,30.14,1021.8,,,,0,0,0,,,,,,,,,2/8 Mostly Clear,72000.0,,FEW,4000.0,,,,,,
KRDR,10-06-2002,17:00,METAR,,350,15.0,,,9999.0,Cloud Development Not Observable,6.0,-1.0,30.13,1021.6,,,,0,0,0,,,,,,,,,4/8 Partly Cloudy,72000.0,,FEW,4000.0,FEW,9900.0,SCT,20000.0,,
KRDR,10-06-2002,16:00,METAR,,340,13.0,,,9999.0,Cloud Development Not Observable,4.0,0.0,30.12,1021.2,,,,0,0,0,,,,,,,,,7/8 Mostly Cloudy,20000.0,,SCT,9900.0,BKN,20000.0,,,,
KRDR,10-06-2002,15:00,METAR,,350,13.0,,,9999.0,Cloud Development Not Observable,2.0,-1.0,30.10,1020.5,,,,0,0,0,,,,,,,,,7/8 Mostly Cloudy,10000.0,,SCT,4000.0,BKN,9900.0,BKN,20000.0,,
KRDR,10-06-2002,14:00,METAR,,350,12.0,,,9999.0,Cloud Development Not Observable,1.0,0.0,30.07,1019.7,,,,0,0,0,,,,,,,,,7/8 Mostly Cloudy,10000.0,,SCT,4000.0,BKN,9900.0,BKN,20000.0,,
KRDR,10-06-2002,13:00,METAR,,350,10.0,,,9999.0,Cloud Development Not Observable,2.0,0.0,30.04,1018.4,,,,0,0,0,,,,,,,,,7/8 Mostly Cloudy,6000.0,,BKN,5900.0,BKN,20000.0,,,,
KRDR,10-06-2002,12:00,METAR,,10,8.0,,,9999.0,Cloud Development Not Observable,2.0,1.0,30.01,1017.2,,,,0,0,0,,,,,,,.04 IN,.04 IN,8/8 Overcast,15000.0,,SCT,5000.0,BKN,15000.0,OVC,20000.0,,
KRDR,10-06-2002,11:00,METAR,,20,11.0,,,9999.0,Cloud Development Not Observable,2.0,1.0,29.99,1016.7,,,,0,0,0,,,,,,,,,8/8 Overcast,4900.0,,FEW,2000.0,SCT,5000.0,OVC,8400.0,,
KRDR,10-06-2002,10:29,SPECI,,20,10.0,,,9999.0,Cloud Development Not Observable,2.0,1.0,29.98,,,,,0,0,0,,,,,,,,,8/8 Overcast,8500.0,,FEW,5000.0,OVC,8400.0,,,,
KRDR,10-06-2002,10:00,METAR,,30,11.0,,,9999.0,Light Snow/Rain/Cloud Development Not Observable,3.0,2.0,29.97,1015.9,,,,61,71,0,,,,,,,,,8/8 Overcast,6500.0,,SCT,5000.0,OVC,6400.0,,,,
KRDR,10-06-2002,09:00,METAR,,30,8.0,,,9999.0,Light Snow/Rain/Cloud Development Not Observable,3.0,3.0,29.95,1015.3,,,,61,71,0,,,,,,.04 IN,,,8/8 Overcast,4900.0,,SCT,3000.0,OVC,5000.0,,,,
KRDR,10-06-2002,08:00,METAR,,40,8.0,,,9999.0,Rain/Cloud Development Not Observable,3.0,3.0,29.95,1015.3,,,,61,0,0,,,,,,,,,8/8 Overcast,3500.0,,SCT,2500.0,OVC,3600.0,,,,
KRDR,10-06-2002,07:00,METAR,,50,10.0,,,9999.0,Rain/Cloud Development Not Observable,4.0,3.0,29.95,1015.2,,,,61,0,0,,,,,,,,,8/8 Overcast,3700.0,,OVC,3800.0,,,,,,
KRDR,10-06-2002,06:00,METAR,,50,8.0,,,9999.0,Rain/Cloud Development Not Observable,4.0,3.0,29.96,1015.6,,,,61,0,0,,,,,,,,,8/8 Overcast,3100.0,,FEW,2500.0,OVC,3200.0,,,,
KRDR,10-06-2002,05:09,SPECI,,70,9.0,,,9999.0,Rain/Cloud Development Not Observable,5.0,3.0,29.97,,,,,61,0,0,,,,,,,,,8/8 Overcast,3200.0,,SCT,2500.0,OVC,3300.0,,,,
KRDR,10-06-2002,05:00,METAR,,70,10.0,,,9999.0,Rain/Cloud Development Not Observable,5.0,3.0,29.97,1015.9,,,,61,0,0,,,,,,,,,8/8 Overcast,3400.0,,SCT,2500.0,OVC,3500.0,,,,
KRDR,10-06-2002,04:37,SPECI,,60,7.0,,,9999.0,Drizzle/Cloud Development Not Observable,5.0,2.0,,,,,,51,0,0,,,,,,,,,8/8 Overcast,6500.0,,SCT,2000.0,OVC,6400.0,,,,
KRDR,10-06-2002,04:00,METAR,,60,8.0,,,9999.0,Cloud Development Not Observable,5.0,2.0,29.98,1016.3,,,,0,0,0,,,,,,,,,7/8 Mostly Cloudy,3900.0,,BKN,4000.0,BKN,9900.0,BKN,20000.0,,
KRDR,10-06-2002,03:00,METAR,,80,8.0,,,9999.0,Cloud Development Not Observable,,,,,,,,0,0,0,,,,,,,,,8/8 Overcast,3900.0,,BKN,4000.0,BKN,9900.0,OVC,20000.0,,
KRDR,10-06-2002,01:00,METAR,,70,6.0,,,9999.0,Cloud Development Not Observable,6.0,2.0,29.98,1015.5,,,,0,0,0,,,,,,,,,8/8 Overcast,3900.0,,BKN,4000.0,BKN,9900.0,OVC,20000.0,,
KRDR,10-06-2002,00:00,METAR,,60,8.0,,,9999.0,Cloud Development Not Observable,7.0,3.0,29.96,1015.7,,,,0,0,0,,,,,,,,,8/8 Overcast,4900.0,,BKN,5000.0,BKN,9900.0,OVC,20000.0,,
KRDR,10-05-2002,22:00,METAR,,,2.0,,,9999.0,Cloud Development Not Observable,9.0,1.0,29.96,1015.7,,,,0,0,0,,,,,,,,,8/8 Overcast,10000.0,,SCT,5000.0,BKN,9900.0,OVC,20000.0,,
KRDR,10-05-2002,19:00,METAR,,300,5.0,,,9999.0,Cloud Development Not Observable,9.0,2.0,29.99,1016.8,,,,0,0,0,,,,,,,,,8/8 Overcast,20000.0,,SCT,4000.0,OVC,20000.0,,,,
KRDR,10-05-2002,18:00,METAR,,330,8.0,,,9999.0,Cloud Development Not Observable,8.0,3.0,30.00,1017.3,,,,0,0,0,,,,,,,,,8/8 Overcast,20000.0,,SCT,3500.0,OVC,20000.0,,,,
KRDR,10-05-2002,13:00,METAR,,250,11.0,,,9999.0,Cloud Development Not Observable,3.0,2.0,29.95,1015.6,,,,0,0,0,,,,,,,,,7/8 Mostly Cloudy,10000.0,,BKN,9900.0,,,,,,
KRDR,10-05-2002,12:00,METAR,,220,9.0,,,9999.0,Cloud Development Not Observable,1.0,0.0,29.95,1015.7,,,,0,0,0,,,,,,,,,7/8 Mostly Cloudy,10000.0,,BKN,9900.0,,,,,,
KRDR,10-05-2002,11:00,METAR,,200,8.0,,,9999.0,Cloud Development Not Observable,-1.0,-2.0,29.95,1015.6,,,,0,0,0,,,,,,,,,7/8 Mostly Cloudy,10000.0,,BKN,9900.0,,,,,,
KRDR,10-05-2002,10:00,METAR,,200,7.0,,,9999.0,Cloud Development Not Observable,-1.0,-2.0,29.94,1015.3,,,,0,0,0,,,,,,,,,4/8 Partly Cloudy,72000.0,,FEW,9900.0,SCT,20000.0,,,,
KRDR,10-05-2002,09:00,METAR,,190,7.0,,,9999.0,Cloud Development Not Observable,-2.0,-3.0,29.94,1015.2,,,,0,0,0,,,,,,,,,7/8 Mostly Cloudy,20000.0,,FEW,9900.0,BKN,20000.0,,,,
KRDR,10-05-2002,08:00,METAR,,240,5.0,,,9999.0,Cloud Development Not Observable,0.0,-2.0,29.94,1015.2,,,,0,0,0,,,,,,,,,7/8 Mostly Cloudy,20000.0,,BKN,20000.0,,,,,,
KRDR,10-05-2002,07:00,METAR,,250,3.0,,,9999.0,Cloud Development Not Observable,0.0,-2.0,29.94,1015.2,,,,0,0,0,,,,,,,,,7/8 Mostly Cloudy,20000.0,,BKN,20000.0,,,,,,
KRDR,10-05-2002,06:00,METAR,,230,4.0,,,9999.0,Cloud Development Not Observable,0.0,-2.0,29.94,1015.2,,,,0,0,0,,,,,,,,,7/8 Mostly Cloudy,20000.0,,BKN,20000.0,,,,,,
KRDR,10-05-2002,05:00,METAR,,,1.0,,,9999.0,Cloud Development Not Observable,1.0,-1.0,29.93,1014.8,,,,0,0,0,,,,,,,,,7/8 Mostly Cloudy,20000.0,,BKN,20000.0,,,,,,
KRDR,10-05-2002,04:00,METAR,,270,5.0,,,9999.0,Cloud Development Not Observable,0.0,-2.0,29.92,1014.6,,,,0,0,0,,,,,,,,,7/8 Mostly Cloudy,20000.0,,BKN,20000.0,,,,,,
KRDR,10-05-2002,03:00,METAR,,270,8.0,,,9999.0,Cloud Development Not Observable,1.0,-2.0,29.90,1013.7,,,,0,0,0,,,,,,,,,7/8 Mostly Cloudy,20000.0,,BKN,20000.0,,,,,,
KRDR,10-05-2002,02:00,METAR,,270,7.0,,,9999.0,Cloud Development Not Observable,2.0,-1.0,29.87,1013.0,,,,0,0,0,,,,,,,,,7/8 Mostly Cloudy,20000.0,,BKN,20000.0,,,,,,
KRDR,10-05-2002,01:00,METAR,,270,7.0,,,9999.0,Cloud Development Not Observable,3.0,0.0,29.86,1012.4,,,,0,0,0,,,,,,,,,7/8 Mostly Cloudy,20000.0,,BKN,20000.0,,,,,,
KRDR,10-05-2002,00:00,METAR,,270,6.0,,,9999.0,Cloud Development Not Observable,4.0,0.0,29.84,1011.8,,,,0,0,0,,,,,,,,,7/8 Mostly Cloudy,20000.0,,FEW,6400.0,BKN,20000.0,,,,
KRDR,10-04-2002,23:00,METAR,,300,12.0,,,9999.0,Cloud Development Not Observable,8.0,0.0,29.83,1011.1,,,,0,0,0,,,,,,,,,7/8 Mostly Cloudy,6500.0,,BKN,6400.0,,,,,,
KRDR,10-04-2002,22:00,METAR,,320,12.0,,,9999.0,Cloud Development Not Observable,8.0,0.0,29.82,1010.8,,,,0,0,0,,,,,,,,,8/8 Overcast,5500.0,,OVC,5400.0,,,,,,
KRDR,10-04-2002,21:00,METAR,,310,15.0,22.0,,9999.0,Cloud Development Not Observable,9.0,2.0,29.80,1010.2,,,,0,0,0,,,,,,,,,8/8 Overcast,4400.0,,OVC,4500.0,,,,,,
KRDR,10-04-2002,20:00,METAR,,330,15.0,,,9999.0,Cloud Development Not Observable,9.0,2.0,29.79,1009.9,,,,0,0,0,,,,,,,,,8/8 Overcast,3900.0,,OVC,4000.0,,,,,,
KRDR,10-04-2002,19:00,METAR,,340,14.0,21.0,340/25KTS,9999.0,Cloud Development Not Observable,8.0,3.0,29.78,1009.6,,,,0,0,0,,,,,,,,,7/8 Mostly Cloudy,3900.0,,BKN,4000.0,BKN,20000.0,,,,
KRDR,10-04-2002,18:00,METAR,,340,21.0,27.0,,9999.0,Cloud Development Not Observable,9.0,3.0,29.77,1009.2,,,,0,0,0,,,,,,,,,7/8 Mostly Cloudy,3900.0,,BKN,4000.0,BKN,20000.0,,,,
KRDR,10-04-2002,17:00,METAR,,350,20.0,24.0,320/30KTS,9999.0,Cloud Development Not Observable,9.0,4.0,29.76,1008.8,,,,0,0,0,,,,,,,,,7/8 Mostly Cloudy,3000.0,,SCT,2500.0,BKN,3000.0,BKN,20000.0,,
KRDR,10-04-2002,16:00,METAR,,330,19.0,25.0,,9999.0,Cloud Development Not Observable,7.0,4.0,29.76,1008.9,,,,0,0,0,,,,,,,,,7/8 Mostly Cloudy,20000.0,,FEW,3000.0,BKN,20000.0,,,,
KRDR,10-04-2002,15:00,METAR,,330,19.0,24.0,,9999.0,Cloud Development Not Observable,6.0,4.0,29.75,1008.6,,,,0,0,0,,,,,,,,,7/8 Mostly Cloudy,20000.0,,FEW,4000.0,BKN,20000.0,,,,
KRDR,10-04-2002,14:00,METAR,,340,13.0,,,9999.0,Cloud Development Not Observable,5.0,3.0,29.75,1008.6,,,,0,0,0,,,,,,,,,7/8 Mostly Cloudy,20000.0,,FEW,12000.0,BKN,20000.0,,,,
KRDR,10-04-2002,13:00,METAR,,350,16.0,,,9999.0,Cloud Development Not Observable,5.0,3.0,29.73,1007.9,,,,0,0,0,,,,,,,,,7/8 Mostly Cloudy,20000.0,,FEW,12000.0,BKN,20000.0,,,,
KRDR,10-04-2002,12:00,METAR,,340,13.0,,,9999.0,Cloud Development Not Observable,6.0,3.0,29.73,1007.7,,,,0,0,0,,,,,,,,,7/8 Mostly Cloudy,12000.0,,BKN,12000.0,,,,,,
KRDR,10-04-2002,11:00,METAR,,350,15.0,,,9999.0,Cloud Development Not Observable,7.0,4.0,29.70,1006.6,,,,0,0,0,,,,,,,,,7/8 Mostly Cloudy,12000.0,,FEW,5900.0,BKN,12000.0,BKN,20000.0,,
KRDR,10-04-2002,10:00,METAR,,340,12.0,,,9999.0,Cloud Development Not Observable,7.0,4.0,29.70,1006.6,,,,0,0,0,,,,,,,,,7/8 Mostly Cloudy,12000.0,,FEW,5900.0,BKN,12000.0,,,,
KRDR,10-04-2002,09:00,METAR,,340,13.0,,,9999.0,Cloud Development Not Observable,7.0,6.0,29.70,1006.6,,,,0,0,0,,,,,,,,,7/8 Mostly Cloudy,10000.0,,FEW,5900.0,BKN,9900.0,,,,
KRDR,10-04-2002,08:00,METAR,,320,9.0,,,9999.0,Cloud Development Not Observable,7.0,7.0,29.71,1006.9,,,,0,0,0,,,,,,,,,7/8 Mostly Cloudy,10000.0,,FEW,5900.0,BKN,9900.0,,,,
KRDR,10-04-2002,07:00,METAR,,290,3.0,,,9999.0,Cloud Development Not Observable,6.0,6.0,29.73,1007.6,,,,0,0,0,,,,,,,,,8/8 Overcast,11000.0,,FEW,5900.0,OVC,11000.0,,,,
KRDR,10-04-2002,06:00,METAR,,260,3.0,,,9999.0,Cloud Development Not Observable,7.0,7.0,29.75,1008.3,,,,0,0,0,,,,,,,.02 IN,,8/8 Overcast,10000.0,,OVC,9900.0,,,,,,
KRDR,10-04-2002,03:00,METAR,,150,6.0,,,9999.0,Cloud Development Not Observable,7.0,7.0,29.79,1009.7,,,,0,0,0,,,,,,.02 IN,,,8/8 Overcast,7500.0,,OVC,7400.0,,,,,,
KRDR,10-04-2002,02:00,METAR,,160,5.0,,,9999.0,Cloud Development Not Observable,7.0,7.0,29.79,1009.8,,,,0,0,0,,,,,,,,,8/8 Overcast,7000.0,,OVC,6900.0,,,,,,
KRDR,10-04-2002,01:00,METAR,,150,5.0,,,8000.0,Light Rain Showers/Mist/Cloud Development Not Observable,7.0,7.0,29.79,1009.9,,,,80,10,0,,,,,,,,,8/8 Overcast,6000.0,,SCT,3500.0,OVC,5900.0,,,,
KRDR,10-03-2002,22:56,METAR,,160,6.0,,,9999.0,Light Rain Showers/Cloud Development Not Observable,8.0,7.0,29.79,1010.0,,,,80,0,0,,,,,,,,,8/8 Overcast,5500.0,,SCT,3500.0,OVC,5400.0,,,,
KRDR,10-03-2002,22:00,METAR,,170,9.0,,,9999.0,Light Rain Showers/Cloud Development Not Observable,8.0,7.0,29.79,1009.9,,,,80,0,0,,,,,,,,,8/8 Overcast,4900.0,,SCT,3500.0,OVC,5000.0,,,,
KRDR,10-03-2002,21:00,METAR,,180,11.0,,,9999.0,Light Rain Showers/Cloud Development Not Observable,8.0,6.0,29.82,1011.1,,,,80,0,0,,,,,,.02 IN,,,8/8 Overcast,3400.0,,OVC,3500.0,,,,,,
KRDR,10-03-2002,20:36,SPECI,,190,14.0,20.0,,9999.0,Rain/Cloud Development Not Observable,9.0,5.0,29.83,,,,,61,0,0,,,,,,,,,8/8 Overcast,3400.0,,OVC,3500.0,,,,,,
KRDR,10-03-2002,20:12,SPECI,,190,11.0,,,9999.0,Rain/Cloud Development Not Observable,9.0,4.0,29.84,,,,,61,0,0,,,,,,,,,8/8 Overcast,3900.0,,OVC,4000.0,,,,,,
KRDR,10-03-2002,20:00,METAR,,190,13.0,,,9999.0,Cloud Development Not Observable,9.0,4.0,29.85,1012.1,,,,0,0,0,,,,,,,,,8/8 Overcast,3900.0,,OVC,4000.0,,,,,,
KRDR,10-03-2002,19:00,METAR,,190,16.0,,,9999.0,Cloud Development Not Observable,9.0,3.0,29.87,1012.7,,,,0,0,0,,,,,,,,,8/8 Overcast,3900.0,,OVC,4000.0,,,,,,
KRDR,10-03-2002,18:00,METAR,,190,14.0,,,9999.0,Cloud Development Not Observable,9.0,2.0,29.89,1013.1,,,,0,0,0,,,,,,,,,8/8 Overcast,4900.0,,OVC,5000.0,,,,,,
KRDR,10-03-2002,17:00,METAR,,190,17.0,23.0,,9999.0,Cloud Development Not Observable,9.0,2.0,29.91,1013.8,,,,0,0,0,,,,,,,,,8/8 Overcast,4900.0,,OVC,5000.0,,,,,,
KRDR,10-03-2002,16:00,METAR,,190,17.0,,,9999.0,Cloud Development Not Observable,8.0,1.0,29.93,1014.5,,,,0,0,0,,,,,,,,,8/8 Overcast,4900.0,,OVC,5000.0,,,,,,
KRDR,10-03-2002,15:00,METAR,,190,13.0,,,9999.0,Cloud Development Not Observable,7.0,0.0,29.95,1015.3,,,,0,0,0,,,,,,,,,8/8 Overcast,4900.0,,OVC,5000.0,,,,,,
KRDR,10-03-2002,14:00,METAR,,180,11.0,,,9999.0,Cloud Development Not Observable,6.0,-1.0,29.97,1016.1,,,,0,0,0,,,,,,,,,8/8 Overcast,7000.0,,OVC,6900.0,,,,,,
KRDR,10-03-2002,13:00,METAR,,180,12.0,,,9999.0,Cloud Development Not Observable,4.0,-2.0,29.99,1016.8,,,,0,0,0,,,,,,,,,8/8 Overcast,7000.0,,OVC,6900.0,,,,,,
KRDR,10-03-2002,12:00,METAR,,180,12.0,,,9999.0,Cloud Development Not Observable,2.0,-2.0,30.00,1017.2,,,,0,0,0,,,,,,,,,7/8 Mostly Cloudy,7000.0,,BKN,6900.0,,,,,,
KRDR,10-03-2002,10:00,METAR,,180,7.0,,,9999.0,Cloud Development Not Observable,2.0,-2.0,30.05,1018.8,,,,0,0,0,,,,,,,,,4/8 Partly Cloudy,72000.0,,SCT,7400.0,,,,,,
KRDR,10-03-2002,09:00,METAR,,170,6.0,,,9999.0,Cloud Development Not Observable,2.0,-2.0,30.10,1020.4,,,,0,0,0,,,,,,,,,4/8 Partly Cloudy,72000.0,,SCT,7400.0,,,,,,
KRDR,10-03-2002,08:00,METAR,,170,7.0,,,9999.0,Cloud Development Not Observable,3.0,-2.0,30.11,1020.7,,,,0,0,0,,,,,,,,,4/8 Partly Cloudy,72000.0,,SCT,7900.0,,,,,,
KRDR,10-03-2002,07:00,METAR,,190,7.0,,,9999.0,Cloud Development Not Observable,6.0,-1.0,30.13,1021.3,,,,0,0,0,,,,,,,,,8/8 Overcast,8000.0,,OVC,7900.0,,,,,,
KRDR,10-03-2002,06:00,METAR,,190,9.0,,,9999.0,Cloud Development Not Observable,5.0,-1.0,30.14,1021.7,,,,0,0,0,,,,,,,,,8/8 Overcast,8000.0,,OVC,7900.0,,,,,,
KRDR,10-03-2002,05:00,METAR,,180,9.0,,,9999.0,Cloud Development Not Observable,5.0,-1.0,30.16,1022.5,,,,0,0,0,,,,,,,,,7/8 Mostly Cloudy,8000.0,,BKN,7900.0,,,,,,
KRDR,10-03-2002,04:00,METAR,,150,4.0,,,9999.0,Cloud Development Not Observable,5.0,-1.0,30.16,1022.6,,,,0,0,0,,,,,,,,,7/8 Mostly Cloudy,9000.0,,BKN,8900.0,,,,,,
KRDR,10-03-2002,03:00,METAR,,160,6.0,,,9999.0,Cloud Development Not Observable,4.0,-1.0,30.17,1023.1,,,,0,0,0,,,,,,,,,7/8 Mostly Cloudy,10000.0,,BKN,9900.0,,,,,,
KRDR,10-03-2002,02:00,METAR,,180,5.0,,,9999.0,Cloud Development Not Observable,3.0,-2.0,30.17,1023.4,,,,0,0,0,,,,,,,,,4/8 Partly Cloudy,72000.0,,SCT,12000.0,,,,,,
KRDR,10-03-2002,01:00,METAR,,170,6.0,,,9999.0,Cloud Development Not Observable,5.0,-1.0,30.19,1023.9,,,,0,0,0,,,,,,,,,7/8 Mostly Cloudy,12000.0,,BKN,12000.0,,,,,,
KRDR,10-03-2002,00:00,METAR,,160,6.0,,,9999.0,Cloud Development Not Observable,5.0,-2.0,30.19,1024.0,,,,0,0,0,,,,,,,,,7/8 Mostly Cloudy,12000.0,,BKN,12000.0,,,,,,
KRDR,10-02-2002,23:00,METAR,,160,5.0,,,9999.0,Cloud Development Not Observable,8.0,-2.0,30.22,1025.0,,,,0,0,0,,,,,,,,,7/8 Mostly Cloudy,12000.0,,BKN,12000.0,,,,,,
KRDR,10-02-2002,22:00,METAR,,,5.0,,,9999.0,Cloud Development Not Observable,8.0,-2.0,30.23,1025.1,,,,0,0,0,,,,,,,,,7/8 Mostly Cloudy,12000.0,,BKN,12000.0,BKN,22000.0,,,,
KRDR,10-02-2002,21:00,METAR,,,4.0,,,9999.0,Cloud Development Not Observable,9.0,-2.0,30.25,1025.9,,,,0,0,0,,,,,,,,,7/8 Mostly Cloudy,12000.0,,BKN,12000.0,BKN,22000.0,,,,
KRDR,10-02-2002,20:00,METAR,,,1.0,,,9999.0,Cloud Development Not Observable,9.0,-3.0,30.28,1026.3,,,,0,0,0,,,,,,,,,7/8 Mostly Cloudy,12000.0,,BKN,12000.0,BKN,22000.0,,,,
KRDR,10-02-2002,18:00,METAR,,,2.0,,,9999.0,Cloud Development Not Observable,7.0,-2.0,30.32,1027.9,,,,0,0,0,,,,,,,,,4/8 Partly Cloudy,72000.0,,FEW,15000.0,SCT,22000.0,,,,
KRDR,10-02-2002,17:00,METAR,,,2.0,,,9999.0,Cloud Development Not Observable,5.0,-2.0,30.33,1028.3,,,,0,0,0,,,,,,,,,4/8 Partly Cloudy,72000.0,,FEW,15000.0,SCT,22000.0,,,,
KRDR,10-02-2002,16:00,METAR,,10,4.0,,,9999.0,Cloud Development Not Observable,3.0,-1.0,30.34,1028.7,,,,0,0,0,,,,,,,,,4/8 Partly Cloudy,72000.0,,FEW,15000.0,SCT,22000.0,,,,
KRDR,10-02-2002,14:00,METAR,,330,5.0,,,9999.0,Cloud Development Not Observable,-2.0,-3.0,30.33,1028.5,,,,0,0,0,,,,,,,,,4/8 Partly Cloudy,72000.0,,SCT,12000.0,SCT,22000.0,,,,
KRDR,10-02-2002,13:00,METAR,,290,5.0,,,9999.0,Cloud Development Not Observable,-4.0,-4.0,30.33,1028.6,,,,0,0,0,,,,,,,,,4/8 Partly Cloudy,72000.0,,FEW,9900.0,SCT,20000.0,,,,
KRDR,10-02-2002,12:00,METAR,,340,5.0,,,9999.0,Cloud Development Not Observable,-3.0,-4.0,30.31,1027.8,,,,0,0,0,,,,,,,,,2/8 Mostly Clear,72000.0,,FEW,20000.0,,,,,,
KRDR,10-02-2002,11:00,METAR,,280,3.0,,,9999.0,Cloud Development Not Observable,-3.0,-3.0,30.33,1028.5,,,,0,0,0,,,,,,,,,Clear,72000.0,,,73000.0,,,,,,
KRDR,10-02-2002,10:00,METAR,,320,6.0,,,9999.0,Cloud Development Not Observable,-2.0,-3.0,30.30,1027.4,,,,0,0,0,,,,,,,,,Clear,72000.0,,,73000.0,,,,,,
KRDR,10-02-2002,09:00,METAR,,310,7.0,,,9999.0,Cloud Development Not Observable,-1.0,-2.0,30.28,1026.6,,,,0,0,0,,,,,,,,,Clear,72000.0,,,73000.0,,,,,,
KRDR,10-02-2002,08:00,METAR,,330,5.0,,,9999.0,Cloud Development Not Observable,0.0,-2.0,30.28,1026.6,,,,0,0,0,,,,,,,,,Clear,72000.0,,,73000.0,,,,,,
KRDR,10-02-2002,07:00,METAR,,350,7.0,,,9999.0,Cloud Development Not Observable,1.0,-2.0,30.29,1026.9,,,,0,0,0,,,,,,,,,2/8 Mostly Clear,72000.0,,FEW,4200.0,,,,,,
KRDR,10-02-2002,06:00,METAR,,340,9.0,,,9999.0,Cloud Development Not Observable,5.0,-1.0,30.28,1026.4,,,,0,0,0,,,,,,,,,7/8 Mostly Cloudy,4100.0,,BKN,4200.0,,,,,,
KRDR,10-02-2002,05:00,METAR,,350,7.0,,,9999.0,Cloud Development Not Observable,5.0,0.0,30.27,1026.2,,,,0,0,0,,,,,,,,,8/8 Overcast,4100.0,,OVC,4200.0,,,,,,
KRDR,10-02-2002,04:00,METAR,,10,9.0,,,9999.0,Cloud Development Not Observable,5.0,1.0,30.25,1025.7,,,,0,0,0,,,,,,,,,8/8 Overcast,3500.0,,OVC,3600.0,,,,,,
KRDR,10-02-2002,03:00,METAR,,360,9.0,,,9999.0,Cloud Development Not Observable,7.0,2.0,30.23,1024.9,,,,0,0,0,,,,,,,,,8/8 Overcast,3600.0,,OVC,3700.0,,,,,,
KRDR,10-02-2002,02:00,METAR,,350,5.0,,,9999.0,Cloud Development Not Observable,6.0,2.0,30.21,1024.0,,,,0,0,0,,,,,,,,,8/8 Overcast,4100.0,,OVC,4200.0,,,,,,
KRDR,10-02-2002,01:00,METAR,,350,8.0,,,9999.0,Cloud Development Not Observable,7.0,2.0,30.19,1023.3,,,,0,0,0,,,,,,,,,8/8 Overcast,3700.0,,OVC,3800.0,,,,,,
KRDR,10-02-2002,00:00,METAR,,340,9.0,,,9999.0,Cloud Development Not Observable,7.0,2.0,30.16,1022.5,,,,0,0,0,,,,,,,,,8/8 Overcast,3400.0,,BKN,3500.0,OVC,5900.0,,,,
KRDR,10-01-2002,23:00,METAR,,340,10.0,,,9999.0,Cloud Development Not Observable,8.0,3.0,30.12,1021.1,,,,0,0,0,,,,,,,,,8/8 Overcast,3400.0,,BKN,3500.0,OVC,5900.0,,,,
KRDR,10-01-2002,22:00,METAR,,330,16.0,,,9999.0,Cloud Development Not Observable,9.0,3.0,30.10,1020.4,,,,0,0,0,,,,,,,,,8/8 Overcast,3100.0,,BKN,3200.0,OVC,5900.0,,,,
KRDR,10-01-2002,21:00,METAR,,310,13.0,,,9999.0,Cloud Development Not Observable,10.0,3.0,30.09,1019.8,,,,0,0,0,,,,,,,,,8/8 Overcast,3400.0,,BKN,3500.0,OVC,5900.0,,,,
KRDR,10-01-2002,20:00,METAR,,290,13.0,20.0,,9999.0,Cloud Development Not Observable,9.0,3.0,30.09,1019.9,,,,0,0,0,,,,,,,,,8/8 Overcast,3200.0,,BKN,3300.0,OVC,5900.0,,,,
KRDR,10-01-2002,19:00,METAR,,290,15.0,25.0,290/30KTS,9999.0,Cloud Development Not Observable,9.0,2.0,30.08,1019.5,,,,0,0,0,,,,,,,,,7/8 Mostly Cloudy,3400.0,,BKN,3500.0,BKN,12000.0,,,,
KRDR,10-01-2002,18:00,METAR,,280,20.0,25.0,300/29KTS,9999.0,Cloud Development Not Observable,9.0,2.0,30.04,1018.1,,,,0,0,0,,,,,,,,,8/8 Overcast,3200.0,,BKN,3300.0,OVC,12000.0,,,,
KRDR,10-01-2002,17:00,METAR,,280,17.0,27.0,,9999.0,Cloud Development Not Observable,9.0,2.0,30.01,1016.9,,,,0,0,0,,,,,,,,,8/8 Overcast,12000.0,,FEW,2500.0,BKN,12000.0,OVC,18000.0,,
KRDR,10-01-2002,16:00,METAR,,280,14.0,24.0,,9999.0,Cloud Development Not Observable,9.0,2.0,29.98,1015.8,,,,0,0,0,,,,,,,,,7/8 Mostly Cloudy,12000.0,,FEW,2500.0,BKN,12000.0,BKN,18000.0,,
KRDR,10-01-2002,15:00,METAR,,260,17.0,24.0,,9999.0,Cloud Development Not Observable,10.0,4.0,29.95,1014.9,,,,0,0,0,,,,,,,,,7/8 Mostly Cloudy,12000.0,,BKN,12000.0,BKN,18000.0,,,,
KRDR,10-01-2002,14:00,METAR,,270,12.0,23.0,,9999.0,Cloud Development Not Observable,10.0,3.0,29.91,1013.5,,,,0,0,0,,,,,,,,,7/8 Mostly Cloudy,11000.0,,BKN,11000.0,BKN,18000.0,,,,
KRDR,10-01-2002,13:00,METAR,,270,11.0,,,9999.0,Cloud Development Not Observable,11.0,3.0,29.88,1012.4,,,,0,0,0,,,,,,,,,7/8 Mostly Cloudy,11000.0,,BKN,11000.0,,,,,,
KRDR,10-01-2002,12:00,METAR,,250,6.0,,,9999.0,Cloud Development Not Observable,10.0,5.0,29.86,1011.7,,,,0,0,0,,,,,,,,,7/8 Mostly Cloudy,10000.0,,BKN,9900.0,,,,,,
KRDR,10-01-2002,11:00,METAR,,230,5.0,,,9999.0,Cloud Development Not Observable,9.0,6.0,29.84,1011.2,,,,0,0,0,,,,,,,,,8/8 Overcast,10000.0,,OVC,9900.0,,,,,,
KRDR,10-01-2002,10:00,METAR,,230,6.0,,,9999.0,Cloud Development Not Observable,8.0,6.0,29.82,1010.3,,,,0,0,0,,,,,,,,,7/8 Mostly Cloudy,20000.0,,SCT,12000.0,BKN,20000.0,,,,
KRDR,10-01-2002,09:00,METAR,,280,6.0,,,9999.0,Cloud Development Not Observable,7.0,4.0,29.79,1009.3,,,,0,0,0,,,,,,,,,4/8 Partly Cloudy,72000.0,,SCT,20000.0,,,,,,
KRDR,10-01-2002,08:00,METAR,,280,5.0,,,9999.0,Cloud Development Not Observable,9.0,4.0,29.77,1008.8,,,,0,0,0,,,,,,,,,4/8 Partly Cloudy,72000.0,,SCT,20000.0,,,,,,
KRDR,10-01-2002,07:00,METAR,,290,7.0,,,9999.0,Cloud Development Not Observable,11.0,5.0,29.77,1008.8,,,,0,0,0,,,,,,,,,8/8 Overcast,12000.0,,BKN,12000.0,OVC,20000.0,,,,
KRDR,10-01-2002,06:00,METAR,,290,8.0,,,9999.0,Cloud Development Not Observable,14.0,6.0,29.76,1008.2,,,,0,0,0,,,,,,,,,8/8 Overcast,12000.0,,BKN,12000.0,OVC,20000.0,,,,
KRDR,10-01-2002,05:00,METAR,,300,14.0,,,9999.0,Cloud Development Not Observable,16.0,7.0,29.73,1007.3,,,,0,0,0,,,,,,,,,7/8 Mostly Cloudy,12000.0,,BKN,12000.0,,,,,,
KRDR,10-01-2002,04:00,METAR,,290,13.0,,,9999.0,Cloud Development Not Observable,17.0,9.0,29.70,1006.2,,,,0,0,0,,,,,,,,,7/8 Mostly Cloudy,12000.0,,BKN,12000.0,,,,,,
KRDR,10-01-2002,03:00,METAR,,300,8.0,,,9999.0,Cloud Development Not Observable,18.0,9.0,29.67,1005.4,,,,0,0,0,,,,,,,,,7/8 Mostly Cloudy,12000.0,,BKN,12000.0,,,,,,
KRDR,10-01-2002,02:00,METAR,,290,9.0,,,9999.0,Cloud Development Not Observable,18.0,11.0,29.63,1004.0,,,,0,0,0,,,,,,,,,7/8 Mostly Cloudy,12000.0,,BKN,12000.0,BKN,20000.0,,,,
KRDR,10-01-2002,01:00,METAR,,290,4.0,,,9999.0,Cloud Development Not Observable,18.0,13.0,29.60,1002.9,,,,0,0,0,,,,,,,,,7/8 Mostly Cloudy,12000.0,,BKN,12000.0,BKN,20000.0,,,,
KRDR,10-01-2002,00:00,METAR,,,2.0,,,9999.0,Cloud Development Not Observable,19.0,16.0,29.58,1002.2,,,,0,0,0,,,,,,,,,7/8 Mostly Cloudy,12000.0,,SCT,6900.0,BKN,12000.0,BKN,20000.0,,
KRDR,09-30-2002,23:00,METAR,,160,4.0,,,9999.0,Cloud Development Not Observable,21.0,16.0,29.55,1001.1,,,,0,0,0,,,,,,,,,7/8 Mostly Cloudy,12000.0,,FEW,6900.0,BKN,12000.0,BKN,20000.0,,
KRDR,09-30-2002,22:00,METAR,,170,4.0,,,9999.0,Cloud Development Not Observable,22.0,16.0,29.54,1000.7,,,,0,0,0,,,,,,,,,7/8 Mostly Cloudy,12000.0,,FEW,6900.0,BKN,12000.0,BKN,20000.0,,
KRDR,09-30-2002,21:00,METAR,,,5.0,,,9999.0,Cloud Development Not Observable,21.0,15.0,29.52,1000.0,,,,0,0,0,,,,,,,,,7/8 Mostly Cloudy,12000.0,,BKN,12000.0,BKN,20000.0,,,,
KRDR,09-30-2002,20:00,METAR,,160,6.0,,,9999.0,Cloud Development Not Observable,20.0,15.0,29.51,999.7,,,,0,0,0,,,,,,,,,2/8 Mostly Clear,72000.0,,FEW,9900.0,FEW,20000.0,,,,
KRDR,09-30-2002,19:00,METAR,,150,5.0,,,9999.0,Cloud Development Not Observable,18.0,15.0,29.51,999.8,,,,0,0,0,,,,,,,,,4/8 Partly Cloudy,72000.0,,FEW,1300.0,FEW,9900.0,SCT,20000.0,,
KRDR,09-30-2002,18:24,SPECI,,160,6.0,,,9999.0,Cloud Development Not Observable,18.0,15.0,29.51,,,,,0,0,0,,,,,,,,,4/8 Partly Cloudy,72000.0,,SCT,1500.0,SCT,20000.0,,,,
KRDR,09-30-2002,18:00,METAR,,190,6.0,,,9999.0,Cloud Development Not Observable,17.0,15.0,29.52,1000.1,,,,0,0,0,,,,,,,,,7/8 Mostly Cloudy,1300.0,,BKN,1300.0,BKN,20000.0,,,,
KRDR,09-30-2002,17:48,SPECI,,210,6.0,,,9999.0,Cloud Development Not Observable,17.0,15.0,29.52,,,,,0,0,0,,,,,,,,,7/8 Mostly Cloudy,1000.0,,BKN,1000.0,BKN,20000.0,,,,
KRDR,09-30-2002,17:00,METAR,,210,7.0,,,9999.0,Mist/Cloud Development Not Observable,15.0,14.0,29.53,1000.5,,,,10,0,0,,,,,,,,,8/8 Overcast,800.0,,OVC,800.0,,,,,,
KRDR,09-30-2002,16:30,METAR,,240,5.0,,,9999.0,Mist/Cloud Development Not Observable,15.0,14.0,29.53,,,,,10,0,0,,,,,,,,,8/8 Overcast,800.0,,OVC,800.0,,,,,,
KRDR,09-30-2002,16:00,METAR,,190,7.0,,,8000.0,Mist/Cloud Development Not Observable,15.0,15.0,29.51,999.8,,,,10,0,0,,,,,,,,,8/8 Overcast,600.0,,BKN,600.0,OVC,800.0,,,,
KRDR,09-30-2002,15:00,METAR,,240,6.0,,,4800.0,Mist/Cloud Development Not Observable,13.0,13.0,29.52,1000.3,,,,10,0,0,,,,,,,,,8/8 Overcast,600.0,,BKN,600.0,OVC,800.0,,,,
KRDR,09-30-2002,14:22,SPECI,,220,6.0,,,4800.0,Mist/Cloud Development Not Observable,13.0,13.0,29.52,,,,,10,0,0,,,,,,,,,8/8 Overcast,600.0,,BKN,600.0,OVC,800.0,,,,
KRDR,09-30-2002,14:00,METAR,,230,5.0,,,2400.0,Mist/Cloud Development Not Observable,13.0,13.0,29.53,1000.6,,,,10,0,0,,,,,,,,,8/8 Overcast,400.0,,BKN,400.0,OVC,800.0,,,,
KRDR,09-30-2002,13:48,SPECI,,230,6.0,,,2400.0,Mist/Cloud Development Not Observable,13.0,13.0,29.53,,,,,10,0,0,,,,,,,,,8/8 Overcast,400.0,,OVC,400.0,,,,,,
KRDR,09-30-2002,13:00,METAR,,240,7.0,,,1600.0,Mist/Cloud Development Not Observable,13.0,13.0,29.53,1000.6,,,,10,0,0,,,,,,,,,8/8 Overcast,400.0,,OVC,400.0,,,,,,
KRDR,09-30-2002,12:48,SPECI,,240,7.0,,,1600.0,Mist/Cloud Development Not Observable,13.0,13.0,29.53,,,,,10,0,0,,,,,,,,,8/8 Overcast,400.0,,OVC,400.0,,,,,,
KRDR,09-30-2002,12:00,METAR,,170,11.0,,,1600.0,Mist/Cloud Development Not Observable,13.0,13.0,29.51,999.7,,,,10,0,0,,,,,,,,,8/8 Overcast,200.0,,OVC,200.0,,,,,,
KRDR,09-30-2002,11:18,SPECI,,160,11.0,,,800.0,Mist/Cloud Development Not Observable,13.0,13.0,29.51,,,,,10,0,0,,,,,,,,,8/8 Overcast,200.0,,OVC,200.0,,,,,,
KRDR,09-30-2002,11:00,METAR,,160,12.0,,,1200.0,Thunderstorm/Mist/Cloud Development Not Observable,13.0,13.0,29.52,1000.1,,,,17,10,0,,,,,,,,,8/8 Overcast,300.0,,OVC,300.0,,,,,,
KRDR,09-30-2002,10:00,METAR,,180,8.0,,,1200.0,Mist/Cloud Development Not Observable,13.0,13.0,29.55,1001.1,,,,10,0,0,,,,,,,,,8/8 Overcast,600.0,,OVC,600.0,,,,,,
KRDR,09-30-2002,09:49,SPECI,,180,8.0,,,1200.0,Mist/Cloud Development Not Observable,13.0,13.0,29.55,,,,,10,0,0,,,,,,,,,8/8 Overcast,600.0,,OVC,600.0,,,,,,
KRDR,09-30-2002,09:00,METAR,,170,8.0,,,800.0,Fog or Ice Fog/Cloud Development Not Observable,13.0,13.0,29.56,1001.5,,,,44,0,0,,,,,,,,,8/8 Overcast,400.0,,SCT,0.0,OVC,400.0,,,,
KRDR,09-30-2002,08:33,SPECI,,170,8.0,,,800.0,Mist/Cloud Development Not Observable,13.0,13.0,29.56,,,,,10,0,0,,,,,,,,,8/8 Overcast,400.0,,SCT,0.0,OVC,400.0,,,,
KRDR,09-30-2002,08:00,METAR,,170,10.0,,,3200.0,Mist/Cloud Development Not Observable,13.0,13.0,29.57,1001.8,,,,10,0,0,,,,,,,,,8/8 Overcast,400.0,,SCT,100.0,OVC,400.0,,,,
KRDR,09-30-2002,07:47,SPECI,,170,10.0,,,4800.0,Mist/Cloud Development Not Observable,13.0,13.0,29.57,,,,,10,0,0,,,,,,,,,8/8 Overcast,500.0,,OVC,500.0,,,,,,
KRDR,09-30-2002,07:08,SPECI,,170,10.0,,,6400.0,Mist/Cloud Development Not Observable,13.0,13.0,29.57,,,,,10,0,0,,,,,,,,,8/8 Overcast,700.0,,OVC,700.0,,,,,,
KRDR,09-30-2002,07:00,METAR,,160,10.0,,,6400.0,Mist/Cloud Development Not Observable,13.0,13.0,29.57,1001.9,,,,10,0,0,,,,,,,,,8/8 Overcast,1000.0,,OVC,1000.0,,,,,,
KRDR,09-30-2002,06:00,METAR,,170,10.0,,,8000.0,Mist/Cloud Development Not Observable,14.0,13.0,29.60,1002.9,,,,10,0,0,,,,,,,,,8/8 Overcast,1000.0,,OVC,1000.0,,,,,,
KRDR,09-30-2002,05:00,METAR,,160,8.0,,,9999.0,Mist/Cloud Development Not Observable,13.0,13.0,29.62,1003.6,,,,10,0,0,,,,,,,,,8/8 Overcast,1000.0,,OVC,1000.0,,,,,,
KRDR,09-30-2002,04:00,METAR,,180,11.0,,,8000.0,Mist/Cloud Development Not Observable,13.0,13.0,29.65,1004.7,,,,10,0,0,,,,,,,,,8/8 Overcast,1300.0,,OVC,1300.0,,,,,,
KRDR,09-30-2002,03:00,METAR,,160,12.0,,,9999.0,Mist/Cloud Development Not Observable,14.0,12.0,29.67,1005.4,,,,10,0,0,,,,,,,,,8/8 Overcast,1300.0,,OVC,1300.0,,,,,,
KRDR,09-30-2002,02:00,METAR,,170,14.0,,,9999.0,Cloud Development Not Observable,13.0,12.0,29.68,1005.9,,,,0,0,0,,,,,,,,,7/8 Mostly Cloudy,1600.0,,BKN,1600.0,,,,,,
KRDR,09-30-2002,01:00,METAR,,160,11.0,,,9999.0,Cloud Development Not Observable,14.0,12.0,29.68,1005.8,,,,0,0,0,,,,,,,,,7/8 Mostly Cloudy,1700.0,,BKN,1700.0,,,,,,
KRDR,09-30-2002,00:00,METAR,,160,13.0,,,9999.0,Cloud Development Not Observable,14.0,12.0,29.70,1006.6,,,,0,0,0,,,,,,,,,7/8 Mostly Cloudy,1800.0,,BKN,1800.0,,,,,,
KRDR,09-29-2002,23:00,METAR,,160,13.0,,,9999.0,Cloud Development Not Observable,14.0,12.0,29.71,1007.0,,,,0,0,0,,,,,,,,,7/8 Mostly Cloudy,1800.0,,BKN,1800.0,,,,,,
KRDR,09-29-2002,22:00,METAR,,170,14.0,,,9999.0,Cloud Development Not Observable,14.0,12.0,29.74,1008.0,,,,0,0,0,,,,,,,,,8/8 Overcast,1800.0,,OVC,1800.0,,,,,,
KRDR,09-29-2002,21:00,METAR,,160,16.0,,,9999.0,Cloud Development Not Observable,14.0,12.0,29.76,1008.8,,,,0,0,0,,,,,,,,,8/8 Overcast,1800.0,,OVC,1800.0,,,,,,
KRDR,09-29-2002,20:00,METAR,,190,15.0,,,9999.0,Cloud Development Not Observable,14.0,11.0,29.79,1009.9,,,,0,0,0,,,,,,,,,8/8 Overcast,1800.0,,OVC,1800.0,,,,,,
KRDR,09-29-2002,19:00,METAR,,170,17.0,,,9999.0,Cloud Development Not Observable,15.0,11.0,29.81,1010.5,,,,0,0,0,,,,,,,,,8/8 Overcast,1800.0,,OVC,1800.0,,,,,,
KRDR,09-29-2002,18:00,METAR,,160,16.0,,,9999.0,Mist/Cloud Development Not Observable,13.0,11.0,29.85,1011.8,,,,10,0,0,,,,,,,,,8/8 Overcast,1800.0,,BKN,1800.0,OVC,3000.0,,,,
KRDR,09-29-2002,17:00,METAR,,170,13.0,,,8000.0,Mist/Cloud Development Not Observable,12.0,11.0,29.87,1012.6,,,,10,0,0,,,,,,,,,8/8 Overcast,1000.0,,BKN,1000.0,OVC,3000.0,,,,
KRDR,09-29-2002,16:17,SPECI,,160,12.0,,,4800.0,Mist/Cloud Development Not Observable,10.0,10.0,29.88,,,,,10,0,0,,,,,,,,,8/8 Overcast,600.0,,BKN,600.0,OVC,3000.0,,,,
KRDR,09-29-2002,16:00,METAR,,150,12.0,,,4000.0,Mist/Cloud Development Not Observable,9.0,9.0,29.89,1013.3,,,,10,0,0,,,,,,,,,8/8 Overcast,600.0,,OVC,600.0,,,,,,
KRDR,09-29-2002,15:20,METAR,,150,11.0,,,2400.0,Mist/Cloud Development Not Observable,8.0,8.0,29.91,,,,,10,0,0,,,,,,,,,8/8 Overcast,300.0,,OVC,300.0,,,,,,
KRDR,09-29-2002,15:00,METAR,,160,14.0,,,1600.0,Mist/Cloud Development Not Observable,8.0,8.0,29.92,1014.4,,,,10,0,0,,,,,,,,,8/8 Overcast,200.0,,OVC,200.0,,,,,,
KRDR,09-29-2002,14:34,SPECI,,160,12.0,,,800.0,Fog or Ice Fog/Cloud Development Not Observable,8.0,8.0,29.93,,,,,44,0,0,,,,,,,,,8/8 Overcast,200.0,,OVC,200.0,,,,,,
KRDR,09-29-2002,14:08,SPECI,,170,13.0,,,2800.0,Mist/Cloud Development Not Observable,8.0,8.0,29.93,,,,,10,0,0,,,,,,,,,8/8 Overcast,300.0,,OVC,300.0,,,,,,
KRDR,09-29-2002,14:00,METAR,,170,13.0,,,800.0,Fog or Ice Fog/Cloud Development Not Observable,8.0,8.0,29.94,,,,,44,0,0,,,,,,,,,8/8 Overcast,200.0,,OVC,200.0,,,,,,
KRDR,09-29-2002,13:29,SPECI,,180,13.0,,,800.0,Fog or Ice Fog/Cloud Development Not Observable,8.0,8.0,29.94,,,,,44,0,0,,,,,,,,,8/8 Overcast,200.0,,OVC,200.0,,,,,,
KRDR,09-29-2002,13:00,METAR,,170,10.0,,,1400.0,Mist/Cloud Development Not Observable,8.0,8.0,29.94,1015.0,,,,10,0,0,,,,,,,,,8/8 Overcast,400.0,,OVC,400.0,,,,,,
KRDR,09-29-2002,12:00,METAR,,150,8.0,,,1400.0,Mist/Cloud Development Not Observable,6.0,6.0,29.94,,,,,10,0,0,,,,,,,,.05 IN,8/8 Overcast,400.0,,SCT,0.0,OVC,400.0,,,,
KRDR,09-29-2002,11:29,SPECI,,140,7.0,,,1400.0,Mist/Cloud Development Not Observable,5.0,5.0,29.95,,,,,10,0,0,,,,,,,,,8/8 Overcast,400.0,,SCT,0.0,OVC,400.0,,,,
KRDR,09-29-2002,11:10,SPECI,,160,7.0,,,1200.0,Mist/Cloud Development Not Observable,4.0,4.0,29.95,,,,,10,0,0,,,,,,,,,8/8 Overcast,100.0,,BKN,100.0,OVC,400.0,,,,
KRDR,09-29-2002,11:00,METAR,,170,7.0,,,1000.0,Mist/Cloud Development Not Observable,4.0,4.0,29.95,1015.3,,,,10,0,0,,,,,,,,,8/8 Overcast,100.0,,OVC,100.0,,,,,,
KRDR,09-29-2002,10:44,SPECI,,170,7.0,,,400.0,Fog or Ice Fog/Cloud Development Not Observable,4.0,4.0,29.95,,,,,45,0,0,,,,,,,,,Sky Obscured (Unable to Estimate),200.0,100.0,,200.0,,,,,,
KRDR,09-29-2002,10:12,SPECI,,160,5.0,,,8000.0,Mist/Cloud Development Not Observable,4.0,4.0,29.96,,,,,10,0,0,,,,,,,,,8/8 Overcast,200.0,,OVC,200.0,,,,,,
KRDR,09-29-2002,10:00,METAR,,150,5.0,,,9999.0,Mist/Cloud Development Not Observable,4.0,4.0,29.96,1015.5,,,,10,0,0,,,,,,,,,8/8 Overcast,400.0,,OVC,400.0,,,,,,
KRDR,09-29-2002,09:35,SPECI,,150,5.0,,,6400.0,Mist/Cloud Development Not Observable,3.0,3.0,29.96,,,,,10,0,0,,,,,,,,,7/8 Mostly Cloudy,500.0,,BKN,500.0,,,,,,
KRDR,09-29-2002,09:00,METAR,,150,5.0,,,8000.0,Mist/Cloud Development Not Observable,2.0,2.0,29.98,1016.2,,,,10,0,0,,,,,,,,,Clear,72000.0,,,73000.0,,,,,,
KRDR,09-29-2002,08:00,METAR,,160,3.0,,,9999.0,Cloud Development Not Observable,1.0,1.0,30.00,1017.2,,,,0,0,0,,,,,,,,,Clear,72000.0,,,73000.0,,,,,,
KRDR,09-29-2002,07:00,METAR,,140,4.0,,,9999.0,Cloud Development Not Observable,3.0,3.0,30.02,1017.9,,,,0,0,0,,,,,,,,,Clear,72000.0,,,73000.0,,,,,,
KRDR,09-29-2002,06:00,METAR,,160,5.0,,,9999.0,Cloud Development Not Observable,2.0,2.0,30.04,1018.4,,,,0,0,0,,,,,,,,,Clear,72000.0,,,73000.0,,,,,,
KRDR,09-29-2002,05:00,METAR,,150,4.0,,,9999.0,Cloud Development Not Observable,2.0,1.0,30.04,1018.6,,,,0,0,0,,,,,,,,,Clear,72000.0,,,73000.0,,,,,,
KRDR,09-29-2002,04:00,METAR,,160,5.0,,,9999.0,Cloud Development Not Observable,4.0,1.0,30.06,1019.3,,,,0,0,0,,,,,,,,,Clear,72000.0,,,73000.0,,,,,,
KRDR,09-29-2002,03:00,METAR,,,1.0,,,9999.0,Cloud Development Not Observable,3.0,1.0,30.06,1019.5,,,,0,0,0,,,,,,,,,Clear,72000.0,,,73000.0,,,,,,
KRDR,09-29-2002,02:00,METAR,,,3.0,,,9999.0,Cloud Development Not Observable,4.0,0.0,30.06,1019.5,,,,0,0,0,,,,,,,,,Clear,72000.0,,,73000.0,,,,,,
KRDR,09-29-2002,01:00,METAR,,170,3.0,,,9999.0,Cloud Development Not Observable,7.0,-1.0,30.06,1019.4,,,,0,0,0,,,,,,,,,2/8 Mostly Clear,72000.0,,FEW,20000.0,,,,,,
KRDR,09-29-2002,00:00,METAR,,120,4.0,,,9999.0,Cloud Development Not Observable,10.0,-2.0,30.06,1019.3,,,,0,0,0,,,,,,,,,2/8 Mostly Clear,72000.0,,FEW,20000.0,,,,,,
KRDR,09-28-2002,23:00,METAR,,60,4.0,,,9999.0,Cloud Development Not Observable,12.0,-2.0,30.08,1019.5,,,,0,0,0,,,,,,,,,2/8 Mostly Clear,72000.0,,FEW,20000.0,,,,,,
KRDR,09-28-2002,22:00,METAR,,,6.0,,,9999.0,Cloud Development Not Observable,12.0,-2.0,30.10,1020.2,,,,0,0,0,,,,,,,,,2/8 Mostly Clear,72000.0,,FEW,20000.0,,,,,,
KRDR,09-28-2002,21:00,METAR,,,6.0,,,9999.0,Cloud Development Not Observable,12.0,-2.0,30.10,1020.2,,,,0,0,0,,,,,,,,,2/8 Mostly Clear,72000.0,,FEW,20000.0,,,,,,
KRDR,09-28-2002,20:00,METAR,,,6.0,,,9999.0,Cloud Development Not Observable,11.0,-2.0,30.12,1021.9,,,,0,0,0,,,,,,,,,2/8 Mostly Clear,72000.0,,FEW,20000.0,,,,,,
KRDR,09-28-2002,19:00,METAR,,,5.0,,,9999.0,Cloud Development Not Observable,10.0,0.0,30.15,1022.0,,,,0,0,0,,,,,,,,,,72000.0,,FEW,20000.0,,,,,,
KRDR,09-28-2002,18:00,METAR,,,6.0,,,9999.0,Cloud Development Not Observable,10.0,0.0,30.16,1022.4,,,,0,0,0,,,,,,,,,Clear,72000.0,,,73000.0,,,,,,
KRDR,09-28-2002,17:00,METAR,,20,7.0,,,9999.0,Cloud Development Not Observable,8.0,1.0,30.18,1023.1,,,,0,0,0,,,,,,,,,2/8 Mostly Clear,72000.0,,FEW,3000.0,,,,,,
KRDR,09-28-2002,16:00,METAR,,,1.0,,,9999.0,Cloud Development Not Observable,7.0,4.0,30.19,1023.4,,,,0,0,0,,,,,,,,,2/8 Mostly Clear,72000.0,,FEW,3000.0,FEW,20000.0,,,,
KRDR,09-28-2002,15:00,METAR,,10,6.0,,,9999.0,Cloud Development Not Observable,4.0,2.0,30.19,1023.5,,,,0,0,0,,,,,,,,,2/8 Mostly Clear,72000.0,,FEW,20000.0,,,,,,
KRDR,09-28-2002,14:00,METAR,,350,7.0,,,9999.0,Cloud Development Not Observable,3.0,2.0,30.19,1023.6,,,,0,0,0,,,,,,,,,2/8 Mostly Clear,72000.0,,FEW,9900.0,FEW,20000.0,,,,
KRDR,09-28-2002,13:00,METAR,,320,3.0,,,9999.0,Cloud Development Not Observable,2.0,2.0,30.18,1023.3,,,,0,0,0,,,,,,,,,7/8 Mostly Cloudy,20000.0,,FEW,9900.0,BKN,20000.0,,,,
KRDR,09-28-2002,09:00,METAR,,360,3.0,,,9999.0,Light Rain Showers/Cloud Development Not Observable,4.0,4.0,30.14,1021.7,,,,80,0,0,,,,,,.03 IN,,,8/8 Overcast,4900.0,,BKN,5000.0,OVC,8400.0,,,,
KRDR,09-28-2002,08:00,METAR,,120,3.0,,,9999.0,Light Rain Showers/Cloud Development Not Observable,5.0,3.0,30.15,1022.1,,,,80,0,0,,,,,,,,,8/8 Overcast,8500.0,,SCT,4500.0,OVC,8400.0,,,,
KRDR,09-28-2002,07:00,METAR,,60,5.0,,,9999.0,Light Rain Showers/Cloud Development Not Observable,4.0,3.0,30.16,1022.4,,,,80,0,0,,,,,,,,,8/8 Overcast,4400.0,,BKN,4500.0,OVC,7400.0,,,,
KRDR,09-28-2002,06:00,METAR,,30,5.0,,,9999.0,Light Rain Showers/Cloud Development Not Observable,4.0,2.0,30.16,1022.4,,,,80,0,0,,,,,,,.07 IN,,8/8 Overcast,3900.0,,BKN,4000.0,OVC,7400.0,,,,
KRDR,09-28-2002,05:00,METAR,,360,7.0,,,9999.0,Light Rain Showers/Cloud Development Not Observable,5.0,3.0,30.15,1022.0,,,,80,0,0,,,,,,,,,8/8 Overcast,3900.0,,BKN,4000.0,OVC,7400.0,,,,
KRDR,09-28-2002,04:15,SPECI,,360,13.0,,,9999.0,Light Rain Showers/Cloud Development Not Observable,6.0,2.0,30.13,,,,,80,0,0,,,,,,,,,8/8 Overcast,4900.0,,BKN,5000.0,OVC,7400.0,,,,
KRDR,09-28-2002,04:00,METAR,,350,11.0,,,9999.0,Cloud Development Not Observable,7.0,0.0,30.13,1021.2,,,,0,0,0,,,,,,,,,8/8 Overcast,8000.0,,SCT,5900.0,OVC,7900.0,,,,
KRDR,09-28-2002,03:00,METAR,,360,6.0,,,9999.0,Cloud Development Not Observable,7.0,3.0,30.11,1020.5,,,,0,0,0,,,,,,,,,8/8 Overcast,8000.0,,SCT,5900.0,OVC,7900.0,,,,
KRDR,09-28-2002,02:00,METAR,,360,5.0,,,9999.0,Cloud Development Not Observable,6.0,1.0,30.10,1020.3,,,,0,0,0,,,,,,,,,8/8 Overcast,6000.0,,BKN,5900.0,OVC,8900.0,,,,
KRDR,09-28-2002,01:00,METAR,,360,9.0,,,9999.0,Cloud Development Not Observable,7.0,1.0,30.08,1019.6,,,,0,0,0,,,,,,,,,8/8 Overcast,8000.0,,SCT,5900.0,BKN,7900.0,OVC,20000.0,,
KRDR,09-28-2002,00:00,METAR,,360,11.0,,,9999.0,Cloud Development Not Observable,8.0,3.0,30.06,1019.2,,,,0,0,0,,,,,,,,,7/8 Mostly Cloudy,8000.0,,BKN,7900.0,BKN,20000.0,,,,
KRDR,09-27-2002,23:00,METAR,,360,10.0,,,9999.0,Cloud Development Not Observable,9.0,3.0,30.05,1018.7,,,,0,0,0,,,,,,,,,7/8 Mostly Cloudy,9000.0,,BKN,8900.0,,,,,,
KRDR,09-27-2002,22:00,METAR,,10,11.0,,,9999.0,Cloud Development Not Observable,9.0,3.0,30.03,1018.2,,,,0,0,0,,,,,,,,,8/8 Overcast,9000.0,,OVC,8900.0,,,,,,
KRDR,09-27-2002,20:50,METAR,,360,14.0,,,9999.0,Cloud Development Not Observable,10.0,4.0,30.03,1017.8,,,,0,0,0,,,,,,,,,8/8 Overcast,8000.0,,BKN,7900.0,OVC,12000.0,,,,
KRDR,09-27-2002,20:00,METAR,,20,12.0,,,9999.0,Cloud Development Not Observable,11.0,5.0,30.02,1017.5,,,,0,0,0,,,,,,,,,8/8 Overcast,12000.0,,FEW,4500.0,BKN,12000.0,OVC,25000.0,,
KRDR,09-27-2002,19:00,METAR,,360,11.0,,,9999.0,Cloud Development Not Observable,11.0,4.0,30.02,1017.4,,,,0,0,0,,,,,,,,,8/8 Overcast,12000.0,,FEW,4000.0,BKN,12000.0,OVC,25000.0,,
KRDR,09-27-2002,17:57,METAR,,10,10.0,,,9999.0,Cloud Development Not Observable,11.0,3.0,30.02,1017.1,,,,0,0,0,,,,,,,,,8/8 Overcast,12000.0,,FEW,4000.0,BKN,12000.0,OVC,25000.0,,
KRDR,09-27-2002,17:00,METAR,,10,12.0,,,9999.0,Cloud Development Not Observable,11.0,4.0,30.00,1016.9,,,,0,0,0,,,,,,,,,7/8 Mostly Cloudy,10000.0,,SCT,3500.0,BKN,9900.0,BKN,25000.0,,
KRDR,09-27-2002,16:00,METAR,,20,8.0,,,9999.0,Cloud Development Not Observable,11.0,3.0,30.00,1016.9,,,,0,0,0,,,,,,,,,7/8 Mostly Cloudy,10000.0,,FEW,3500.0,BKN,9900.0,BKN,25000.0,,
KRDR,09-27-2002,15:00,METAR,,10,6.0,,,9999.0,Cloud Development Not Observable,10.0,5.0,29.99,1016.4,,,,0,0,0,,,,,,,,,7/8 Mostly Cloudy,10000.0,,FEW,7900.0,BKN,9900.0,BKN,25000.0,,
KRDR,09-27-2002,14:00,METAR,,330,4.0,,,9999.0,Cloud Development Not Observable,7.0,5.0,29.98,1016.0,,,,0,0,0,,,,,,,,,7/8 Mostly Cloudy,11000.0,,BKN,11000.0,BKN,25000.0,,,,
KRDR,09-27-2002,13:00,METAR,,,3.0,,,9999.0,Cloud Development Not Observable,5.0,5.0,29.96,1015.5,,,,0,0,0,,,,,,,,,7/8 Mostly Cloudy,9000.0,,BKN,8900.0,,,,,,
KRDR,09-27-2002,12:00,METAR,,360,5.0,,,9999.0,Cloud Development Not Observable,5.0,4.0,29.95,1015.0,,,,0,0,0,,,,,,,,,7/8 Mostly Cloudy,11000.0,,BKN,11000.0,,,,,,
KRDR,09-27-2002,11:00,METAR,,350,5.0,,,9999.0,Cloud Development Not Observable,5.0,4.0,29.94,1014.6,,,,0,0,0,,,,,,,,,7/8 Mostly Cloudy,10000.0,,BKN,9900.0,,,,,,
KRDR,09-27-2002,10:00,METAR,,350,3.0,,,9999.0,Cloud Development Not Observable,4.0,4.0,29.94,1014.6,,,,0,0,0,,,,,,,,,7/8 Mostly Cloudy,10000.0,,BKN,9900.0,,,,,,
KRDR,09-27-2002,09:00,METAR,,310,3.0,,,9999.0,Cloud Development Not Observable,6.0,5.0,29.94,1014.4,,,,0,0,0,,,,,,,,,7/8 Mostly Cloudy,10000.0,,BKN,9900.0,,,,,,
KRDR,09-27-2002,08:00,METAR,,310,2.0,,,9999.0,Cloud Development Not Observable,7.0,6.0,29.94,1014.4,,,,0,0,0,,,,,,,,,7/8 Mostly Cloudy,10000.0,,BKN,9900.0,,,,,,
KRDR,09-27-2002,07:00,METAR,,350,3.0,,,9999.0,Cloud Development Not Observable,7.0,4.0,29.93,1015.5,,,,0,0,0,,,,,,,,,7/8 Mostly Cloudy,10000.0,,BKN,9900.0,,,,,,
KRDR,09-27-2002,06:00,METAR,,350,3.0,,,9999.0,Cloud Development Not Observable,7.0,5.0,29.93,1015.5,,,,0,0,0,,,,,,,,,7/8 Mostly Cloudy,10000.0,,BKN,9900.0,,,,,,
KRDR,09-27-2002,05:00,METAR,,230,2.0,,,9999.0,Cloud Development Not Observable,7.0,4.0,29.93,1015.5,,,,0,0,0,,,,,,,,,7/8 Mostly Cloudy,10000.0,,BKN,9900.0,BKN,20000.0,,,,
KRDR,09-27-2002,04:00,METAR,,,2.0,,,9999.0,Cloud Development Not Observable,8.0,5.0,29.93,1014.0,,,,0,0,0,,,,,,,,,7/8 Mostly Cloudy,22000.0,,SCT,9900.0,BKN,22000.0,,,,
KRDR,09-27-2002,03:00,METAR,,340,4.0,,,9999.0,Cloud Development Not Observable,9.0,5.0,29.93,1014.2,,,,0,0,0,,,,,,,,,8/8 Overcast,11000.0,,SCT,7900.0,OVC,11000.0,,,,
KRDR,09-27-2002,02:00,METAR,,200,2.0,,,9999.0,Cloud Development Not Observable,9.0,4.0,29.93,1014.2,,,,0,0,0,,,,,,,,,8/8 Overcast,12000.0,,FEW,7900.0,BKN,12000.0,OVC,20000.0,,
KRDR,09-27-2002,01:00,METAR,,280,3.0,,,9999.0,Cloud Development Not Observable,10.0,1.0,29.92,1013.9,,,,0,0,0,,,,,,,,,8/8 Overcast,12000.0,,FEW,7900.0,BKN,12000.0,OVC,20000.0,,
KRDR,09-27-2002,00:00,METAR,,300,5.0,,,9999.0,Cloud Development Not Observable,12.0,0.0,29.92,1013.9,,,,0,0,0,,,,,,,,,7/8 Mostly Cloudy,22000.0,,FEW,9900.0,BKN,22000.0,,,,
KRDR,09-26-2002,23:00,METAR,,290,9.0,,,9999.0,Cloud Development Not Observable,15.0,0.0,29.92,1013.8,,,,0,0,0,,,,,,,,,7/8 Mostly Cloudy,22000.0,,BKN,22000.0,,,,,,
KRDR,09-26-2002,22:00,METAR,,270,12.0,,,9999.0,Cloud Development Not Observable,16.0,0.0,29.91,1013.5,,,,0,0,0,,,,,,,,,7/8 Mostly Cloudy,22000.0,,FEW,9900.0,BKN,22000.0,,,,
KRDR,09-26-2002,21:00,METAR,,290,14.0,,,9999.0,Cloud Development Not Observable,15.0,-1.0,29.92,1013.9,,,,0,0,0,,,,,,,,,7/8 Mostly Cloudy,10000.0,,BKN,9900.0,BKN,22000.0,,,,
KRDR,09-26-2002,20:00,METAR,,280,14.0,21.0,,9999.0,Cloud Development Not Observable,16.0,0.0,29.93,1014.0,,,,0,0,0,,,,,,,,,4/8 Partly Cloudy,72000.0,,FEW,8900.0,SCT,20000.0,,,,
KRDR,09-26-2002,19:00,METAR,,270,14.0,21.0,,9999.0,Cloud Development Not Observable,16.0,-1.0,29.96,1015.2,,,,0,0,0,,,,,,,,,4/8 Partly Cloudy,72000.0,,SCT,8900.0,,,,,,
KRDR,09-26-2002,18:00,METAR,,280,11.0,,,9999.0,Cloud Development Not Observable,16.0,0.0,29.96,1015.2,,,,0,0,0,,,,,,,,,2/8 Mostly Clear,72000.0,,FEW,8900.0,FEW,20000.0,,,,
KRDR,09-26-2002,17:00,METAR,,280,11.0,,,9999.0,Cloud Development Not Observable,15.0,2.0,29.97,1015.2,,,,0,0,0,,,,,,,,,2/8 Mostly Clear,72000.0,,FEW,8900.0,,,,,,
KRDR,09-26-2002,16:00,METAR,,270,10.0,,,9999.0,Cloud Development Not Observable,13.0,3.0,29.97,1015.6,,,,0,0,0,,,,,,,,,2/8 Mostly Clear,72000.0,,FEW,8900.0,,,,,,
KRDR,09-26-2002,13:00,METAR,,220,8.0,,,9999.0,Cloud Development Not Observable,4.0,1.0,29.98,1015.8,,,,0,0,0,,,,,,,,,2/8 Mostly Clear,72000.0,,FEW,8900.0,,,,,,
KRDR,09-26-2002,12:00,METAR,,210,7.0,,,9999.0,Cloud Development Not Observable,2.0,0.0,29.99,1016.2,,,,0,0,0,,,,,,,,,2/8 Mostly Clear,72000.0,,FEW,8900.0,,,,,,
KRDR,09-26-2002,11:00,METAR,,210,8.0,,,9999.0,Cloud Development Not Observable,2.0,0.0,30.00,1016.5,,,,0,0,0,,,,,,,,,4/8 Partly Cloudy,72000.0,,SCT,8900.0,,,,,,
KRDR,09-26-2002,10:00,METAR,,250,5.0,,,9999.0,Cloud Development Not Observable,5.0,3.0,30.02,1017.2,,,,0,0,0,,,,,,,,,7/8 Mostly Cloudy,9000.0,,BKN,8900.0,,,,,,
KRDR,09-26-2002,09:00,METAR,,190,4.0,,,9999.0,Cloud Development Not Observable,5.0,2.0,30.02,1017.1,,,,0,0,0,,,,,,,,,7/8 Mostly Cloudy,10000.0,,BKN,9900.0,,,,,,
KRDR,09-26-2002,08:00,METAR,,200,7.0,,,9999.0,Cloud Development Not Observable,3.0,1.0,30.05,1018.1,,,,0,0,0,,,,,,,,,7/8 Mostly Cloudy,10000.0,,BKN,9900.0,,,,,,
KRDR,09-26-2002,07:00,METAR,,230,5.0,,,9999.0,Cloud Development Not Observable,5.0,2.0,30.06,1018.6,,,,0,0,0,,,,,,,,,7/8 Mostly Cloudy,10000.0,,BKN,9900.0,,,,,,
KRDR,09-26-2002,06:00,METAR,,230,6.0,,,9999.0,Cloud Development Not Observable,7.0,2.0,30.07,1019.0,,,,0,0,0,,,,,,,,,7/8 Mostly Cloudy,10000.0,,BKN,9900.0,,,,,,
KRDR,09-26-2002,05:00,METAR,,230,7.0,,,9999.0,Cloud Development Not Observable,8.0,2.0,30.08,1019.3,,,,0,0,0,,,,,,,,,7/8 Mostly Cloudy,10000.0,,BKN,9900.0,,,,,,
KRDR,09-26-2002,04:00,METAR,,210,6.0,,,9999.0,Cloud Development Not Observable,8.0,3.0,30.08,1019.7,,,,0,0,0,,,,,,,,,7/8 Mostly Cloudy,10000.0,,BKN,9900.0,,,,,,
KRDR,09-26-2002,03:00,METAR,,240,4.0,,,9999.0,Cloud Development Not Observable,10.0,2.0,30.08,1019.4,,,,0,0,0,,,,,,,,,7/8 Mostly Cloudy,10000.0,,BKN,9900.0,,,,,,
KRDR,09-26-2002,01:00,METAR,,210,7.0,,,9999.0,Cloud Development Not Observable,10.0,2.0,30.07,1019.0,,,,0,0,0,,,,,,,,,7/8 Mostly Cloudy,8000.0,,BKN,7900.0,BKN,9900.0,,,,
KRDR,09-26-2002,00:00,METAR,,230,9.0,,,9999.0,Cloud Development Not Observable,13.0,0.0,30.07,1019.0,,,,0,0,0,,,,,,,,,7/8 Mostly Cloudy,8000.0,,BKN,7900.0,BKN,22000.0,,,,
KRDR,09-25-2002,23:00,METAR,,240,12.0,,,9999.0,Cloud Development Not Observable,14.0,-1.0,30.07,1019.1,,,,0,0,0,,,,,,,,,7/8 Mostly Cloudy,8000.0,,FEW,4000.0,SCT,7900.0,BKN,22000.0,,
KRDR,09-25-2002,22:00,METAR,,250,13.0,19.0,,9999.0,Cloud Development Not Observable,15.0,-1.0,30.08,1019.2,,,,0,0,0,,,,,,,,,2/8 Mostly Clear,72000.0,,FEW,4000.0,FEW,20000.0,,,,
KRDR,09-25-2002,21:00,METAR,,270,10.0,,,9999.0,Cloud Development Not Observable,15.0,0.0,30.10,1019.9,,,,0,0,0,,,,,,,,,2/8 Mostly Clear,72000.0,,FEW,4000.0,FEW,20000.0,,,,
KRDR,09-25-2002,20:00,METAR,,230,12.0,,,9999.0,Cloud Development Not Observable,14.0,0.0,30.11,1020.4,,,,0,0,0,,,,,,,,,2/8 Mostly Clear,72000.0,,FEW,4000.0,FEW,20000.0,,,,
KRDR,09-25-2002,19:00,METAR,,240,11.0,,,9999.0,Cloud Development Not Observable,11.0,1.0,30.13,1021.1,,,,0,0,0,,,,,,,,,2/8 Mostly Clear,72000.0,,FEW,20000.0,,,,,,
KRDR,09-25-2002,18:00,METAR,,210,8.0,,,9999.0,Cloud Development Not Observable,11.0,1.0,30.15,1021.9,,,,0,0,0,,,,,,,,,2/8 Mostly Clear,72000.0,,FEW,20000.0,,,,,,
KRDR,09-25-2002,17:00,METAR,,,8.0,,,9999.0,Cloud Development Not Observable,11.0,3.0,30.19,1022.9,,,,0,0,0,,,,,,,,,2/8 Mostly Clear,72000.0,,FEW,12000.0,FEW,20000.0,,,,
KRDR,09-25-2002,16:00,METAR,,260,5.0,,,9999.0,Cloud Development Not Observable,8.0,2.0,30.20,1023.7,,,,0,0,0,,,,,,,,,4/8 Partly Cloudy,72000.0,,SCT,12000.0,SCT,20000.0,,,,
KRDR,09-25-2002,15:00,METAR,,270,4.0,,,9999.0,Cloud Development Not Observable,7.0,5.0,30.21,1023.5,,,,0,0,0,,,,,,,,,4/8 Partly Cloudy,72000.0,,SCT,12000.0,SCT,20000.0,,,,
KRDR,09-25-2002,14:00,METAR,,250,5.0,,,9999.0,Cloud Development Not Observable,4.0,4.0,30.20,1023.6,,,,0,0,0,,,,,,,,,7/8 Mostly Cloudy,20000.0,,SCT,12000.0,BKN,20000.0,,,,
KRDR,09-25-2002,13:00,METAR,,260,3.0,,,9999.0,Cloud Development Not Observable,2.0,2.0,30.20,1023.8,,,,0,0,0,,,,,,,,,7/8 Mostly Cloudy,20000.0,,SCT,11000.0,BKN,20000.0,,,,
KRDR,09-25-2002,12:00,METAR,,280,4.0,,,9999.0,Cloud Development Not Observable,3.0,3.0,30.20,1023.3,,,,0,0,0,,,,,,,,,7/8 Mostly Cloudy,11000.0,,BKN,11000.0,BKN,20000.0,,,,
KRDR,09-25-2002,11:00,METAR,,310,6.0,,,9999.0,Cloud Development Not Observable,3.0,3.0,30.18,1023.1,,,,0,0,0,,,,,,,,,7/8 Mostly Cloudy,11000.0,,BKN,11000.0,BKN,20000.0,,,,
KRDR,09-25-2002,10:00,METAR,,320,6.0,,,9999.0,Cloud Development Not Observable,3.0,3.0,30.18,1023.1,,,,0,0,0,,,,,,,,,7/8 Mostly Cloudy,9000.0,,BKN,8900.0,BKN,20000.0,,,,
KRDR,09-25-2002,09:00,METAR,,320,6.0,,,9999.0,Cloud Development Not Observable,3.0,3.0,30.18,1022.9,,,,0,0,0,,,,,,,,,7/8 Mostly Cloudy,20000.0,,SCT,8900.0,BKN,20000.0,,,,
KRDR,09-25-2002,08:12,SPECI,,320,9.0,,,9999.0,Cloud Development Not Observable,5.0,4.0,30.17,,,,,0,0,0,,,,,,,,,7/8 Mostly Cloudy,9000.0,,SCT,1500.0,BKN,8900.0,,,,
KRDR,09-25-2002,08:00,METAR,,330,9.0,,,9999.0,Cloud Development Not Observable,5.0,4.0,30.17,1022.8,,,,0,0,0,,,,,,,,,7/8 Mostly Cloudy,1500.0,,BKN,1500.0,BKN,8900.0,,,,
KRDR,09-25-2002,07:00,METAR,,320,9.0,,,9999.0,Cloud Development Not Observable,6.0,5.0,30.16,1022.2,,,,0,0,0,,,,,,,,,7/8 Mostly Cloudy,1500.0,,BKN,1500.0,,,,,,
KRDR,09-25-2002,06:00,METAR,,340,12.0,,,9999.0,Cloud Development Not Observable,6.0,5.0,30.14,1021.5,,,,0,0,0,,,,,,,,,7/8 Mostly Cloudy,1500.0,,BKN,1500.0,,,,,,
KRDR,09-25-2002,05:08,SPECI,,330,11.0,,,9999.0,Cloud Development Not Observable,7.0,6.0,30.11,,,,,0,0,0,,,,,,,,,7/8 Mostly Cloudy,1500.0,,BKN,1500.0,,,,,,
KRDR,09-25-2002,05:00,METAR,,330,13.0,,,9999.0,Cloud Development Not Observable,7.0,6.0,,1019.9,,,,0,0,0,,,,,,,,,4/8 Partly Cloudy,72000.0,,SCT,1500.0,,,,,,
KRDR,09-25-2002,04:00,METAR,,320,15.0,,,9999.0,Cloud Development Not Observable,8.0,6.0,30.06,1018.5,,,,0,0,0,,,,,,,,,4/8 Partly Cloudy,72000.0,,FEW,1000.0,SCT,12000.0,,,,
KRDR,09-25-2002,03:00,METAR,,310,13.0,18.0,,9999.0,Cloud Development Not Observable,10.0,8.0,30.04,1017.8,,,,0,0,0,,,,,,,,,7/8 Mostly Cloudy,12000.0,,FEW,6400.0,BKN,12000.0,,,,
KRDR,09-25-2002,02:00,METAR,,290,6.0,,,9999.0,Cloud Development Not Observable,11.0,8.0,30.00,1016.6,,,,0,0,0,,,,,,,,,7/8 Mostly Cloudy,6500.0,,BKN,6400.0,BKN,12000.0,,,,
KRDR,09-25-2002,01:00,METAR,,300,11.0,,,9999.0,Cloud Development Not Observable,12.0,8.0,29.97,1015.6,,,,0,0,0,,,,,,,,,7/8 Mostly Cloudy,12000.0,,SCT,7400.0,BKN,12000.0,BKN,22000.0,,
KRDR,09-25-2002,00:00,METAR,,160,3.0,,,9999.0,Cloud Development Not Observable,14.0,9.0,29.93,1014.4,,,,0,0,0,,,,,,,IN,,7/8 Mostly Cloudy,12000.0,,SCT,7400.0,BKN,12000.0,BKN,22000.0,,
KRDR,09-24-2002,23:00,METAR,,150,5.0,,,9999.0,Cloud Development Not Observable,14.0,8.0,29.93,1014.2,,,,0,0,0,,,,,,,,,7/8 Mostly Cloudy,7500.0,,BKN,7400.0,BKN,12000.0,BKN,22000.0,,
KRDR,09-24-2002,22:37,SPECI,,150,4.0,,,9999.0,Cloud Development Not Observable,14.0,9.0,29.93,,,,,0,0,0,,,,,,,,,7/8 Mostly Cloudy,7000.0,,BKN,6900.0,BKN,12000.0,BKN,22000.0,,
KRDR,09-24-2002,22:00,METAR,,220,5.0,,,9999.0,Rain/Cloud Development Not Observable,15.0,6.0,29.94,1014.7,,,,61,0,0,,,,,,,,,7/8 Mostly Cloudy,7000.0,,BKN,6900.0,BKN,12000.0,BKN,20000.0,,
KRDR,09-24-2002,21:43,SPECI,,230,6.0,,,9999.0,Rain/Cloud Development Not Observable,15.0,6.0,29.95,,,,,61,0,0,,,,,,,,,7/8 Mostly Cloudy,7500.0,,BKN,7400.0,BKN,12000.0,BKN,20000.0,,
KRDR,09-24-2002,21:00,METAR,,200,12.0,,,9999.0,Cloud Development Not Observable,16.0,5.0,29.95,1015.0,,,,0,0,0,,,,,,TRACE,,,8/8 Overcast,15000.0,,SCT,7900.0,OVC,15000.0,,,,
KRDR,09-24-2002,20:00,METAR,,170,11.0,,,9999.0,Cloud Development Not Observable,15.0,6.0,29.96,1015.3,,,,0,0,0,,,,,,,,,7/8 Mostly Cloudy,12000.0,,SCT,7900.0,BKN,12000.0,BKN,20000.0,,
KRDR,09-24-2002,19:00,METAR,,180,13.0,,,9999.0,Cloud Development Not Observable,15.0,5.0,29.98,1016.6,,,,0,0,0,,,,,,,,,8/8 Overcast,12000.0,,SCT,7900.0,BKN,12000.0,OVC,20000.0,,
KRDR,09-24-2002,18:00,METAR,,180,16.0,,,9999.0,Cloud Development Not Observable,13.0,4.0,30.00,1016.6,,,,0,0,0,,,,,,,,,8/8 Overcast,15000.0,,SCT,7900.0,BKN,15000.0,OVC,20000.0,,
KRDR,09-24-2002,17:00,METAR,,180,13.0,,,9999.0,Cloud Development Not Observable,13.0,4.0,30.03,1017.6,,,,0,0,0,,,,,,,,,7/8 Mostly Cloudy,15000.0,,SCT,11000.0,BKN,15000.0,BKN,20000.0,,
KRDR,09-24-2002,16:00,METAR,,190,16.0,22.0,,9999.0,Cloud Development Not Observable,11.0,4.0,30.05,1018.4,,,,0,0,0,,,,,,,,,7/8 Mostly Cloudy,15000.0,,FEW,9900.0,SCT,15000.0,BKN,20000.0,,
KRDR,09-24-2002,15:00,METAR,,190,14.0,,,9999.0,Cloud Development Not Observable,8.0,3.0,30.07,1019.2,,,,0,0,0,,,,,,,,,7/8 Mostly Cloudy,20000.0,,FEW,12000.0,FEW,15000.0,BKN,20000.0,,
KRDR,09-24-2002,14:00,METAR,,180,12.0,,,9999.0,Cloud Development Not Observable,6.0,3.0,30.08,1019.7,,,,0,0,0,,,,,,,,,7/8 Mostly Cloudy,15000.0,,FEW,12000.0,SCT,15000.0,BKN,22000.0,,
KRDR,09-24-2002,13:00,METAR,,180,8.0,,,9999.0,Cloud Development Not Observable,3.0,2.0,30.10,1020.2,,,,0,0,0,,,,,,,,,7/8 Mostly Cloudy,15000.0,,FEW,12000.0,SCT,15000.0,BKN,25000.0,,
KRDR,09-24-2002,12:00,METAR,,,,,,,Cloud Development Not Observable,2.0,1.0,30.11,1020.5,,,,0,0,0,,,,,,,,.02 IN,,25000.0,,FEW,15000.0,BKN,25000.0,,,,
KRDR,09-24-2002,11:00,METAR,,180,8.0,,,9999.0,Cloud Development Not Observable,1.0,1.0,30.11,1020.8,,,,0,0,0,,,,,,,,,4/8 Partly Cloudy,72000.0,,SCT,20000.0,,,,,,
KRDR,09-24-2002,10:00,METAR,,200,11.0,,,9999.0,Cloud Development Not Observable,2.0,2.0,30.12,1021.0,,,,0,0,0,,,,,,,,,4/8 Partly Cloudy,72000.0,,SCT,20000.0,,,,,,
KRDR,09-24-2002,09:00,METAR,,190,7.0,,,9999.0,Cloud Development Not Observable,1.0,0.0,30.14,1021.7,,,,0,0,0,,,,,,,,,2/8 Mostly Clear,72000.0,,FEW,20000.0,,,,,,
KRDR,09-24-2002,08:00,METAR,,180,8.0,,,9999.0,Cloud Development Not Observable,1.0,0.0,30.16,1022.5,,,,0,0,0,,,,,,,,,2/8 Mostly Clear,72000.0,,FEW,20000.0,,,,,,
KRDR,09-24-2002,07:00,METAR,,200,8.0,,,9999.0,Cloud Development Not Observable,1.0,1.0,30.17,1022.8,,,,0,0,0,,,,,,,,,Clear,72000.0,,,73000.0,,,,,,
KRDR,09-24-2002,06:00,METAR,,200,7.0,,,9999.0,Cloud Development Not Observable,1.0,1.0,30.18,1023.2,,,,0,0,0,,,,,,,,,Clear,72000.0,,,73000.0,,,,,,
KRDR,09-24-2002,05:00,METAR,,190,5.0,,,9999.0,Cloud Development Not Observable,1.0,1.0,30.19,1023.4,,,,0,0,0,,,,,,,,,Clear,72000.0,,,73000.0,,,,,,
KRDR,09-24-2002,04:00,METAR,,210,7.0,,,9999.0,Cloud Development Not Observable,2.0,2.0,30.19,1023.8,,,,0,0,0,,,,,,,,,2/8 Mostly Clear,72000.0,,FEW,20000.0,,,,,,
KRDR,09-24-2002,03:00,METAR,,220,5.0,,,9999.0,Cloud Development Not Observable,2.0,2.0,30.19,1023.8,,,,0,0,0,,,,,,,,,2/8 Mostly Clear,72000.0,,FEW,20000.0,,,,,,
KRDR,09-24-2002,02:00,METAR,,220,3.0,,,9999.0,Cloud Development Not Observable,3.0,2.0,30.20,1023.9,,,,0,0,0,,,,,,,,,2/8 Mostly Clear,72000.0,,FEW,6900.0,FEW,20000.0,,,,
KRDR,09-24-2002,01:00,METAR,,270,4.0,,,9999.0,Cloud Development Not Observable,6.0,3.0,30.20,1023.6,,,,0,0,0,,,,,,,,,4/8 Partly Cloudy,72000.0,,FEW,3500.0,FEW,6900.0,SCT,20000.0,,
KRDR,09-24-2002,00:00,METAR,,300,8.0,,,9999.0,Cloud Development Not Observable,9.0,2.0,30.20,1023.4,,,,0,0,0,,,,,,,.02 IN,,4/8 Partly Cloudy,72000.0,,FEW,3500.0,SCT,6900.0,,,,
KRDR,09-23-2002,23:00,METAR,,300,9.0,,,9999.0,Cloud Development Not Observable,10.0,1.0,30.20,1023.3,,,,0,0,0,,,,,,,,,7/8 Mostly Cloudy,7000.0,,FEW,3500.0,BKN,6900.0,,,,
KRDR,09-23-2002,22:00,METAR,,300,10.0,,,9999.0,Cloud Development Not Observable,11.0,2.0,30.20,1023.3,,,,0,0,0,,,,,,,,,7/8 Mostly Cloudy,7000.0,,FEW,3500.0,BKN,6900.0,,,,
KRDR,09-23-2002,21:00,METAR,,300,9.0,,,9999.0,Cloud Development Not Observable,10.0,2.0,30.20,1023.6,,,,0,0,0,,,,,,.02 IN,,,7/8 Mostly Cloudy,8000.0,,SCT,3500.0,BKN,7900.0,,,,
KRDR,09-23-2002,20:00,METAR,,350,7.0,,,9999.0,Precipitation in the Vicinity/Cloud Development Not Observable,9.0,4.0,30.21,1023.7,,,,16,0,0,,,,,,,,,7/8 Mostly Cloudy,6000.0,,SCT,3500.0,BKN,5900.0,BKN,8400.0,,
KRDR,09-23-2002,19:45,METAR,,310,9.0,,,9999.0,Light Rain Showers/Cloud Development Not Observable,9.0,4.0,30.21,,,,,80,0,0,,,,,,,,,7/8 Mostly Cloudy,6000.0,,SCT,2500.0,BKN,5900.0,BKN,8400.0,,
KRDR,09-23-2002,19:00,METAR,,330,9.0,,,9999.0,Precipitation in the Vicinity/Cloud Development Not Observable,9.0,5.0,30.21,1023.7,,,,16,0,0,,,,,,,,,7/8 Mostly Cloudy,2500.0,,BKN,2500.0,BKN,5400.0,BKN,7900.0,,
KRDR,09-23-2002,18:35,SPECI,,330,11.0,,,9999.0,Light Rain Showers/Cloud Development Not Observable,9.0,5.0,30.21,,,,,80,0,0,,,,,,,,,7/8 Mostly Cloudy,2500.0,,BKN,2500.0,BKN,5400.0,BKN,7900.0,,
KRDR,09-23-2002,18:00,METAR,,320,11.0,,,9999.0,Cloud Development Not Observable,9.0,4.0,30.20,1023.5,,,,0,0,0,,,,,,,IN,,7/8 Mostly Cloudy,2500.0,,BKN,2500.0,BKN,5900.0,BKN,7900.0,,
KRDR,09-23-2002,17:00,METAR,,340,11.0,,,9999.0,Cloud Development Not Observable,9.0,5.0,30.20,1023.5,,,,0,0,0,,,,,,,,,7/8 Mostly Cloudy,2200.0,,BKN,2200.0,BKN,5400.0,BKN,7900.0,,
KRDR,09-23-2002,16:46,SPECI,,330,12.0,,,9999.0,Cloud Development Not Observable,8.0,5.0,30.20,,,,,0,0,0,,,,,,,,,7/8 Mostly Cloudy,2200.0,,BKN,2200.0,BKN,5400.0,BKN,7900.0,,
KRDR,09-23-2002,16:00,METAR,,330,13.0,,,9999.0,Cloud Development Not Observable,8.0,6.0,30.19,1022.8,,,,0,0,0,,,,,,,,,7/8 Mostly Cloudy,5500.0,,SCT,1800.0,BKN,5400.0,BKN,7900.0,,
KRDR,09-23-2002,14:55,METAR,,330,12.0,,,9999.0,Cloud Development Not Observable,7.0,6.0,30.18,1022.8,,,,0,0,0,,,,,,TRACE,,,7/8 Mostly Cloudy,6000.0,,SCT,1800.0,BKN,5900.0,,,,
KRDR,09-23-2002,14:00,METAR,,330,11.0,,,9999.0,Cloud Development Not Observable,6.0,6.0,30.15,1021.9,,,,0,0,0,,,,,,,,,7/8 Mostly Cloudy,4400.0,,SCT,1500.0,BKN,4500.0,BKN,6900.0,,
KRDR,09-23-2002,13:00,METAR,,330,10.0,,,9999.0,Drizzle/Cloud Development Not Observable,6.0,6.0,30.14,1021.4,,,,51,0,0,,,,,,,,,7/8 Mostly Cloudy,4400.0,,BKN,4500.0,BKN,6900.0,,,,
KRDR,09-23-2002,12:00,METAR,,320,10.0,,,9999.0,Drizzle/Cloud Development Not Observable,6.0,6.0,30.10,1020.5,,,,51,0,0,,,,,,,.13 IN,.25 IN,7/8 Mostly Cloudy,4900.0,,BKN,5000.0,BKN,8400.0,,,,
KRDR,09-23-2002,11:00,METAR,,300,7.0,,,9999.0,Cloud Development Not Observable,7.0,6.0,30.08,1019.8,,,,0,0,0,,,,,,,,,7/8 Mostly Cloudy,4400.0,,BKN,4500.0,,,,,,
KRDR,09-23-2002,10:00,METAR,,310,9.0,,,9999.0,Rain/Cloud Development Not Observable,7.0,7.0,30.06,1019.2,,,,61,0,0,,,,,,,,,8/8 Overcast,3400.0,,BKN,3500.0,OVC,5900.0,,,,
KRDR,09-23-2002,09:00,METAR,,300,8.0,,,9999.0,Rain/Cloud Development Not Observable,7.0,7.0,30.03,1017.4,,,,61,0,0,,,,,,.13 IN,,,8/8 Overcast,3900.0,,OVC,4000.0,,,,,,
KRDR,09-23-2002,08:00,METAR,,260,4.0,,,9999.0,Rain/Cloud Development Not Observable,7.0,7.0,30.02,1017.0,,,,61,0,0,,,,,,,,,8/8 Overcast,3300.0,,OVC,3400.0,,,,,,
KRDR,09-23-2002,07:00,METAR,,300,7.0,,,9999.0,Rain/Cloud Development Not Observable,7.0,7.0,30.02,1017.0,,,,61,0,0,,,,,,,,,8/8 Overcast,3300.0,,OVC,3400.0,,,,,,
KRDR,09-23-2002,06:00,METAR,,280,6.0,,,9999.0,Rain/Cloud Development Not Observable,7.0,7.0,30.01,1016.5,,,,61,0,0,,,,,,,.12 IN,,8/8 Overcast,3400.0,,OVC,3500.0,,,,,,
KRDR,09-23-2002,05:00,METAR,,280,6.0,,,9999.0,Rain/Cloud Development Not Observable,8.0,6.0,30.01,1016.5,,,,61,0,0,,,,,,,,,8/8 Overcast,7500.0,,SCT,4000.0,BKN,7400.0,OVC,20000.0,,
KRDR,09-23-2002,04:00,METAR,,240,5.0,,,8000.0,Rain/Cloud Development Not Observable,8.0,6.0,30.01,1016.5,,,,61,0,0,,,,,,,,,8/8 Overcast,10000.0,,SCT,4000.0,BKN,9900.0,OVC,20000.0,,
KRDR,09-23-2002,03:00,METAR,,270,4.0,,,9999.0,Rain/Cloud Development Not Observable,10.0,4.0,30.01,1016.5,,,,61,0,0,,,,,,,,,8/8 Overcast,20000.0,,SCT,5000.0,OVC,20000.0,,,,
KRDR,09-23-2002,02:00,METAR,,280,8.0,,,9999.0,Cloud Development Not Observable,11.0,2.0,30.01,1016.5,,,,0,0,0,,,,,,,,,7/8 Mostly Cloudy,20000.0,,FEW,5000.0,BKN,20000.0,,,,
KRDR,09-23-2002,01:00,METAR,,230,3.0,,,9999.0,Cloud Development Not Observable,10.0,3.0,30.01,1016.5,,,,0,0,0,,,,,,,,,7/8 Mostly Cloudy,20000.0,,FEW,5000.0,BKN,20000.0,,,,
KRDR,09-23-2002,00:00,METAR,,300,4.0,,,9999.0,Cloud Development Not Observable,11.0,2.0,30.02,1017.0,,,,0,0,0,,,,,,,,,7/8 Mostly Cloudy,20000.0,,FEW,5000.0,BKN,20000.0,,,,
KRDR,09-22-2002,23:00,METAR,,290,10.0,,,9999.0,Cloud Development Not Observable,12.0,0.0,30.03,1017.4,,,,0,0,0,,,,,,,,,4/8 Partly Cloudy,72000.0,,FEW,5000.0,SCT,20000.0,,,,
KRDR,09-22-2002,22:00,METAR,,280,13.0,,,9999.0,Cloud Development Not Observable,13.0,0.0,30.03,1017.4,,,,0,0,0,,,,,,,,,4/8 Partly Cloudy,72000.0,,SCT,5000.0,SCT,20000.0,,,,
KRDR,09-22-2002,21:00,METAR,,290,13.0,,,9999.0,Cloud Development Not Observable,13.0,1.0,30.03,1017.4,,,,0,0,0,,,,,,,,,7/8 Mostly Cloudy,20000.0,,SCT,5000.0,BKN,20000.0,,,,
KRDR,09-22-2002,20:00,METAR,,290,15.0,,,9999.0,Cloud Development Not Observable,13.0,1.0,30.05,1018.1,,,,0,0,0,,,,,,,,,7/8 Mostly Cloudy,20000.0,,SCT,5000.0,BKN,20000.0,,,,
KRDR,09-22-2002,19:00,METAR,,300,14.0,,,9999.0,Cloud Development Not Observable,12.0,1.0,30.06,1019.2,,,,0,0,0,,,,,,,,,7/8 Mostly Cloudy,4900.0,,BKN,5000.0,BKN,25000.0,,,,
KRDR,09-22-2002,18:00,METAR,,290,17.0,22.0,,9999.0,Cloud Development Not Observable,12.0,2.0,30.08,1019.8,,,,0,0,0,,,,,,,,,7/8 Mostly Cloudy,25000.0,,SCT,3500.0,BKN,25000.0,,,,
KRDR,09-22-2002,17:00,METAR,,300,16.0,22.0,,9999.0,Cloud Development Not Observable,11.0,3.0,30.09,1020.0,,,,0,0,0,,,,,,,,,7/8 Mostly Cloudy,25000.0,,FEW,2000.0,BKN,25000.0,,,,
KRDR,09-22-2002,16:00,METAR,,300,19.0,,,9999.0,Cloud Development Not Observable,10.0,2.0,30.09,1020.2,,,,0,0,0,,,,,,,,,2/8 Mostly Clear,72000.0,,FEW,25000.0,,,,,,
KRDR,09-22-2002,15:00,METAR,,290,12.0,,,9999.0,Cloud Development Not Observable,9.0,3.0,30.08,1019.8,,,,0,0,0,,,,,,,,,2/8 Mostly Clear,72000.0,,FEW,25000.0,,,,,,
KRDR,09-22-2002,14:00,METAR,,280,13.0,,,9999.0,Cloud Development Not Observable,7.0,4.0,30.07,1019.4,,,,0,0,0,,,,,,,,,2/8 Mostly Clear,72000.0,,FEW,25000.0,,,,,,
KRDR,09-22-2002,13:00,METAR,,280,10.0,,,9999.0,Cloud Development Not Observable,5.0,4.0,30.07,1019.1,,,,0,0,0,,,,,,,,,Clear,72000.0,,,73000.0,,,,,,
KRDR,09-22-2002,12:00,METAR,,250,6.0,,,9999.0,Cloud Development Not Observable,3.0,2.0,30.05,1018.6,,,,0,0,0,,,,,,,,,Clear,72000.0,,,73000.0,,,,,,
KRDR,09-22-2002,11:00,METAR,,270,10.0,,,9999.0,Cloud Development Not Observable,5.0,3.0,30.05,1018.6,,,,0,0,0,,,,,,,,,Clear,72000.0,,,73000.0,,,,,,
KRDR,09-22-2002,10:00,METAR,,290,13.0,,,9999.0,Cloud Development Not Observable,5.0,3.0,30.04,1018.3,,,,0,0,0,,,,,,,,,Clear,72000.0,,,73000.0,,,,,,
KRDR,09-22-2002,09:00,METAR,,300,13.0,,,9999.0,Cloud Development Not Observable,6.0,3.0,30.03,1018.0,,,,0,0,0,,,,,,,,,Clear,72000.0,,,73000.0,,,,,,
KRDR,09-22-2002,08:00,METAR,,290,15.0,,,9999.0,Cloud Development Not Observable,6.0,3.0,30.02,1017.7,,,,0,0,0,,,,,,,,,2/8 Mostly Clear,72000.0,,FEW,7900.0,,,,,,
KRDR,09-22-2002,07:00,METAR,,290,15.0,,,9999.0,Cloud Development Not Observable,7.0,4.0,30.01,1017.2,,,,0,0,0,,,,,,,,,4/8 Partly Cloudy,72000.0,,SCT,7900.0,,,,,,
KRDR,09-22-2002,06:00,METAR,,290,14.0,,,9999.0,Cloud Development Not Observable,7.0,4.0,30.00,1016.9,,,,0,0,0,,,,,,,,,2/8 Mostly Clear,72000.0,,FEW,7400.0,,,,,,
KRDR,09-22-2002,05:00,METAR,,280,9.0,,,9999.0,Cloud Development Not Observable,8.0,5.0,30.00,1016.8,,,,0,0,0,,,,,,,,,4/8 Partly Cloudy,72000.0,,SCT,7400.0,,,,,,
KRDR,09-22-2002,04:00,METAR,,260,6.0,,,9999.0,Cloud Development Not Observable,7.0,5.0,29.98,1016.3,,,,0,0,0,,,,,,,,,7/8 Mostly Cloudy,7500.0,,SCT,6400.0,BKN,7400.0,,,,
KRDR,09-22-2002,03:00,METAR,,240,6.0,,,9999.0,Cloud Development Not Observable,6.0,4.0,29.97,1016.0,,,,0,0,0,,,,,,,,,4/8 Partly Cloudy,72000.0,,SCT,6900.0,,,,,,
KRDR,09-22-2002,02:00,METAR,,260,6.0,,,9999.0,Cloud Development Not Observable,7.0,5.0,29.96,1015.6,,,,0,0,0,,,,,,,,,7/8 Mostly Cloudy,11000.0,,SCT,6900.0,BKN,11000.0,,,,
KRDR,09-22-2002,01:00,METAR,,270,8.0,,,9999.0,Cloud Development Not Observable,8.0,5.0,29.95,1015.2,,,,0,0,0,,,,,,,,,7/8 Mostly Cloudy,11000.0,,SCT,6900.0,BKN,11000.0,,,,
KRDR,09-22-2002,00:00,METAR,,290,18.0,22.0,280/28KTS,9999.0,Cloud Development Not Observable,10.0,5.0,29.93,1014.5,,,,0,0,0,,,,,,,IN,,7/8 Mostly Cloudy,6000.0,,FEW,3000.0,BKN,5900.0,BKN,8900.0,BKN,25000.0
KRDR,09-21-2002,23:06,SPECI,,280,19.0,,,9999.0,Cloud Development Not Observable,10.0,6.0,29.92,,,,,0,0,0,,,,,,,,,7/8 Mostly Cloudy,5500.0,,FEW,1000.0,FEW,1500.0,BKN,5400.0,BKN,7900.0
KRDR,09-21-2002,23:00,METAR,,290,18.0,26.0,300/32KTS,9999.0,Cloud Development Not Observable,10.0,6.0,29.92,1014.2,,,,0,0,0,,,,,,,,,7/8 Mostly Cloudy,4900.0,,BKN,5000.0,BKN,6900.0,,,,
KRDR,09-21-2002,22:30,METAR,,300,26.0,32.0,,9999.0,Cloud Development Not Observable,12.0,4.0,29.90,,,,,0,0,0,,,,,,,,,8/8 Overcast,4900.0,,OVC,5000.0,,,,,,
KRDR,09-21-2002,22:00,METAR,,280,23.0,26.0,270/31KTS,9999.0,Cloud Development Not Observable,13.0,3.0,29.89,1013.0,,,,0,0,0,,,,,,,,,7/8 Mostly Cloudy,4900.0,,FEW,3000.0,BKN,5000.0,,,,
KRDR,09-21-2002,21:00,METAR,,280,18.0,26.0,270/32KTS,9999.0,Cloud Development Not Observable,13.0,3.0,29.88,1012.7,,,,0,0,0,,,,,,,,,7/8 Mostly Cloudy,6500.0,,BKN,6400.0,,,,,,
KRDR,09-21-2002,20:00,METAR,,290,20.0,26.0,280/27KTS,9999.0,Cloud Development Not Observable,13.0,3.0,29.87,1012.4,,,,0,0,0,,,,,,,,,7/8 Mostly Cloudy,4900.0,,BKN,5000.0,,,,,,
KRDR,09-21-2002,19:00,METAR,,280,18.0,25.0,280/27KTS,9999.0,Cloud Development Not Observable,13.0,3.0,29.86,1012.1,,,,0,0,0,,,,,,,,,7/8 Mostly Cloudy,4400.0,,BKN,4500.0,,,,,,
KRDR,09-21-2002,18:00,METAR,,280,21.0,28.0,,9999.0,Cloud Development Not Observable,13.0,4.0,29.85,1011.6,,,,0,0,0,,,,,,,,,7/8 Mostly Cloudy,3700.0,,BKN,3800.0,,,,,,
KRDR,09-21-2002,17:00,METAR,,270,23.0,31.0,,9999.0,Cloud Development Not Observable,14.0,4.0,29.84,1011.2,,,,0,0,0,,,,,,,,,7/8 Mostly Cloudy,3400.0,,BKN,3500.0,,,,,,
KRDR,09-21-2002,16:00,METAR,,290,17.0,24.0,,9999.0,Cloud Development Not Observable,12.0,5.0,29.82,1010.8,,,,0,0,0,,,,,,,,,2/8 Mostly Clear,72000.0,,FEW,7900.0,,,,,,
KRDR,09-21-2002,15:00,METAR,,280,15.0,23.0,270/25KTS,9999.0,Cloud Development Not Observable,11.0,5.0,29.81,1010.2,,,,0,0,0,,,,,,,,,2/8 Mostly Clear,72000.0,,FEW,7900.0,,,,,,
KRDR,09-21-2002,14:00,METAR,,260,14.0,21.0,,9999.0,Cloud Development Not Observable,9.0,6.0,29.79,1009.5,,,,0,0,0,,,,,,,,,4/8 Partly Cloudy,72000.0,,SCT,7900.0,,,,,,
KRDR,09-21-2002,13:00,METAR,,260,11.0,,,9999.0,Cloud Development Not Observable,8.0,5.0,29.77,1008.8,,,,0,0,0,,,,,,,,,7/8 Mostly Cloudy,8000.0,,BKN,7900.0,,,,,,
KRDR,09-21-2002,12:00,METAR,,260,11.0,,,9999.0,Cloud Development Not Observable,8.0,4.0,29.75,1008.0,,,,0,0,0,,,,,,,,,7/8 Mostly Cloudy,8000.0,,BKN,7900.0,BKN,12000.0,,,,
KRDR,09-21-2002,11:00,METAR,,260,11.0,,,9999.0,Cloud Development Not Observable,8.0,4.0,29.75,1008.0,,,,0,0,0,,,,,,,,,7/8 Mostly Cloudy,7500.0,,BKN,7400.0,,,,,,
KRDR,09-21-2002,10:00,METAR,,240,12.0,,,9999.0,Cloud Development Not Observable,7.0,4.0,29.74,1007.7,,,,0,0,0,,,,,,,,,4/8 Partly Cloudy,72000.0,,SCT,9400.0,,,,,,
KRDR,09-21-2002,09:00,METAR,,250,11.0,,,9999.0,Cloud Development Not Observable,7.0,4.0,29.74,1007.7,,,,0,0,0,,,,,,,,,Clear,72000.0,,,73000.0,,,,,,
KRDR,09-21-2002,08:00,METAR,,240,10.0,,,9999.0,Cloud Development Not Observable,6.0,4.0,29.72,1007.0,,,,0,0,0,,,,,,,,,Clear,72000.0,,,73000.0,,,,,,
KRDR,09-21-2002,07:00,METAR,,240,9.0,,,9999.0,Cloud Development Not Observable,6.0,4.0,29.72,1007.0,,,,0,0,0,,,,,,,,,Clear,72000.0,,,73000.0,,,,,,
KRDR,09-21-2002,06:00,METAR,,260,8.0,,,9999.0,Cloud Development Not Observable,8.0,4.0,29.70,1006.1,,,,0,0,0,,,,,,,,,Clear,72000.0,,,73000.0,,,,,,
KRDR,09-21-2002,05:00,METAR,,280,8.0,,,9999.0,Cloud Development Not Observable,9.0,4.0,29.68,1005.6,,,,0,0,0,,,,,,,,,Clear,72000.0,,,73000.0,,,,,,
KRDR,09-21-2002,04:00,METAR,,270,8.0,,,9999.0,Cloud Development Not Observable,9.0,3.0,29.68,1005.9,,,,0,0,0,,,,,,,,,Clear,72000.0,,,73000.0,,,,,,
KRDR,09-21-2002,03:00,METAR,,250,6.0,,,9999.0,Cloud Development Not Observable,9.0,3.0,29.67,1005.4,,,,0,0,0,,,,,,,,,Clear,72000.0,,,73000.0,,,,,,
KRDR,09-21-2002,02:00,METAR,,280,8.0,,,9999.0,Cloud Development Not Observable,12.0,3.0,29.66,1005.0,,,,0,0,0,,,,,,,,,2/8 Mostly Clear,72000.0,,FEW,5000.0,,,,,,
KRDR,09-21-2002,01:00,METAR,,290,10.0,,,9999.0,Cloud Development Not Observable,14.0,1.0,29.64,1004.3,,,,0,0,0,,,,,,,,,2/8 Mostly Clear,72000.0,,FEW,4800.0,,,,,,
KRDR,09-21-2002,00:00,METAR,,290,15.0,21.0,,9999.0,Cloud Development Not Observable,16.0,2.0,29.61,1002.4,,,,0,0,0,,,,,,,,,2/8 Mostly Clear,72000.0,,FEW,4800.0,FEW,8900.0,,,,
KRDR,09-20-2002,23:00,METAR,,300,14.0,23.0,,9999.0,Cloud Development Not Observable,17.0,4.0,29.58,1002.4,,,,0,0,0,,,,,,,,,4/8 Partly Cloudy,72000.0,,FEW,4800.0,SCT,8900.0,,,,
KRDR,09-20-2002,22:00,METAR,,300,17.0,24.0,,9999.0,Cloud Development Not Observable,17.0,4.0,29.56,1001.7,,,,0,0,0,,,,,,,,,7/8 Mostly Cloudy,9000.0,,BKN,8900.0,,,,,,
KRDR,09-20-2002,21:00,METAR,,300,17.0,25.0,310/32KTS,9999.0,Cloud Development Not Observable,17.0,4.0,29.55,1001.3,,,,0,0,0,,,,,,,,,7/8 Mostly Cloudy,9000.0,,BKN,8900.0,,,,,,
KRDR,09-20-2002,20:00,METAR,,310,22.0,26.0,,9999.0,Cloud Development Not Observable,19.0,7.0,29.53,1000.5,,,,0,0,0,,,,,,,,,7/8 Mostly Cloudy,9000.0,,SCT,4000.0,BKN,8900.0,,,,
KRDR,09-20-2002,19:00,METAR,,310,21.0,27.0,,9999.0,Cloud Development Not Observable,19.0,10.0,29.51,999.7,,,,0,0,0,,,,,,,,,7/8 Mostly Cloudy,9000.0,,FEW,4000.0,BKN,8900.0,BKN,20000.0,,
KRDR,09-20-2002,18:00,METAR,,320,16.0,22.0,,9999.0,Cloud Development Not Observable,20.0,12.0,29.48,998.9,,,,0,0,0,,,,,,,,,7/8 Mostly Cloudy,9000.0,,SCT,4000.0,BKN,8900.0,BKN,20000.0,,
KRDR,09-20-2002,17:00,METAR,,290,11.0,,,9999.0,Cloud Development Not Observable,20.0,11.0,29.46,998.2,,,,0,0,0,,,,,,,,,2/8 Mostly Clear,72000.0,,FEW,8900.0,FEW,20000.0,,,,
KRDR,09-20-2002,16:00,METAR,,270,10.0,,,9999.0,Cloud Development Not Observable,18.0,9.0,29.46,998.3,,,,0,0,0,,,,,,,,,2/8 Mostly Clear,72000.0,,FEW,8900.0,FEW,20000.0,,,,
KRDR,09-20-2002,15:00,METAR,,230,13.0,,,9999.0,Cloud Development Not Observable,15.0,7.0,29.45,998.0,,,,0,0,0,,,,,,,,,2/8 Mostly Clear,72000.0,,FEW,8900.0,FEW,20000.0,,,,
KRDR,09-20-2002,14:00,METAR,,200,11.0,,,9999.0,Cloud Development Not Observable,12.0,7.0,29.46,998.4,,,,0,0,0,,,,,,,,,2/8 Mostly Clear,72000.0,,FEW,8900.0,FEW,20000.0,,,,
KRDR,09-20-2002,13:00,METAR,,190,10.0,,,9999.0,Cloud Development Not Observable,11.0,6.0,29.48,999.0,,,,0,0,0,,,,,,,,,2/8 Mostly Clear,72000.0,,FEW,8900.0,FEW,20000.0,,,,
KRDR,09-20-2002,12:00,METAR,,180,13.0,,,9999.0,Cloud Development Not Observable,10.0,6.0,29.47,998.3,,,,0,0,0,,,,,,,,,2/8 Mostly Clear,72000.0,,FEW,9400.0,,,,,,
KRDR,09-20-2002,11:00,METAR,,190,11.0,,,9999.0,Cloud Development Not Observable,10.0,6.0,29.49,999.1,,,,0,0,0,,,,,,,,,Clear,72000.0,,,73000.0,,,,,,
KRDR,09-20-2002,10:00,METAR,,190,9.0,,,9999.0,Cloud Development Not Observable,10.0,6.0,29.51,999.6,,,,0,0,0,,,,,,,,,Clear,72000.0,,,73000.0,,,,,,
KRDR,09-20-2002,09:00,METAR,,190,9.0,,,9999.0,Cloud Development Not Observable,10.0,6.0,29.53,1000.3,,,,0,0,0,,,,,,,,,Clear,72000.0,,,73000.0,,,,,,
KRDR,09-20-2002,08:00,METAR,,190,9.0,,,9999.0,Cloud Development Not Observable,10.0,7.0,29.55,1001.0,,,,0,0,0,,,,,,,,,Clear,72000.0,,,73000.0,,,,,,
KRDR,09-20-2002,07:00,METAR,,190,7.0,,,9999.0,Cloud Development Not Observable,9.0,7.0,29.56,1001.4,,,,0,0,0,,,,,,,,,Clear,72000.0,,,73000.0,,,,,,
KRDR,09-20-2002,06:00,METAR,,180,7.0,,,9999.0,Cloud Development Not Observable,10.0,8.0,29.58,1002.1,,,,0,0,0,,,,,,,,,Clear,72000.0,,,73000.0,,,,,,
KRDR,09-20-2002,05:00,METAR,,190,7.0,,,9999.0,Cloud Development Not Observable,10.0,8.0,29.59,1002.7,,,,0,0,0,,,,,,,,,Clear,72000.0,,,73000.0,,,,,,
KRDR,09-20-2002,04:00,METAR,,170,5.0,,,9999.0,Cloud Development Not Observable,11.0,8.0,29.62,1003.5,,,,0,0,0,,,,,,,,,Clear,72000.0,,,73000.0,,,,,,
KRDR,09-20-2002,03:00,METAR,,180,4.0,,,9999.0,Cloud Development Not Observable,12.0,9.0,29.64,1004.2,,,,0,0,0,,,,,,,,,Clear,72000.0,,,73000.0,,,,,,
KRDR,09-20-2002,02:00,METAR,,180,4.0,,,9999.0,Cloud Development Not Observable,13.0,9.0,29.64,1004.2,,,,0,0,0,,,,,,,,,Clear,72000.0,,,73000.0,,,,,,
KRDR,09-20-2002,01:00,METAR,,180,4.0,,,9999.0,Cloud Development Not Observable,16.0,7.0,29.64,1004.2,,,,0,0,0,,,,,,,,,Clear,72000.0,,,73000.0,,,,,,
KRDR,09-20-2002,00:00,METAR,,,1.0,,,9999.0,Cloud Development Not Observable,19.0,5.0,29.64,1004.1,,,,0,0,0,,,,,,,,,2/8 Mostly Clear,72000.0,,FEW,25000.0,,,,,,
KRDR,09-19-2002,23:00,METAR,,320,5.0,,,9999.0,Cloud Development Not Observable,20.0,6.0,29.65,1004.4,,,,0,0,0,,,,,,,,,Clear,72000.0,,,73000.0,,,,,,
KRDR,09-19-2002,22:00,METAR,,330,6.0,,,9999.0,Cloud Development Not Observable,21.0,7.0,29.65,1004.4,,,,0,0,0,,,,,,,,,2/8 Mostly Clear,72000.0,,FEW,25000.0,,,,,,
KRDR,09-19-2002,21:00,METAR,,330,11.0,,,9999.0,Cloud Development Not Observable,21.0,7.0,29.65,1004.4,,,,0,0,0,,,,,,,,,2/8 Mostly Clear,72000.0,,FEW,25000.0,,,,,,
KRDR,09-19-2002,20:00,METAR,,340,10.0,,,9999.0,Cloud Development Not Observable,20.0,5.0,29.66,1004.9,,,,0,0,0,,,,,,,,,2/8 Mostly Clear,72000.0,,FEW,25000.0,,,,,,
KRDR,09-19-2002,19:00,METAR,,340,14.0,,,9999.0,Cloud Development Not Observable,20.0,6.0,29.67,1005.3,,,,0,0,0,,,,,,,,,2/8 Mostly Clear,72000.0,,FEW,2800.0,FEW,25000.0,,,,
KRDR,09-19-2002,18:00,METAR,,350,15.0,,,9999.0,Cloud Development Not Observable,19.0,9.0,29.68,1005.7,,,,0,0,0,,,,,,,,,2/8 Mostly Clear,72000.0,,FEW,2800.0,,,,,,
KRDR,09-19-2002,17:00,METAR,,330,14.0,,,9999.0,Cloud Development Not Observable,17.0,12.0,29.67,1005.3,,,,0,0,0,,,,,,,,,4/8 Partly Cloudy,72000.0,,SCT,2800.0,,,,,,
KRDR,09-19-2002,16:00,METAR,,340,14.0,,,9999.0,Cloud Development Not Observable,17.0,12.0,29.67,1005.3,,,,0,0,0,,,,,,,,,4/8 Partly Cloudy,72000.0,,SCT,2500.0,,,,,,
KRDR,09-19-2002,15:00,METAR,,330,14.0,,,9999.0,Cloud Development Not Observable,16.0,13.0,29.67,1005.4,,,,0,0,0,,,,,,,,,4/8 Partly Cloudy,72000.0,,SCT,2200.0,,,,,,
KRDR,09-19-2002,14:00,METAR,,310,11.0,,,9999.0,Cloud Development Not Observable,14.0,12.0,29.66,1005.1,,,,0,0,0,,,,,,,,,7/8 Mostly Cloudy,3000.0,,FEW,2200.0,BKN,3000.0,,,,
KRDR,09-19-2002,13:00,METAR,,300,12.0,,,9999.0,Cloud Development Not Observable,13.0,12.0,29.65,1004.7,,,,0,0,0,,,,,,,,,7/8 Mostly Cloudy,3000.0,,SCT,2200.0,BKN,3000.0,,,,
KRDR,09-19-2002,12:47,SPECI,,300,11.0,,,9999.0,Cloud Development Not Observable,13.0,12.0,29.64,,,,,0,0,0,,,,,,,,,7/8 Mostly Cloudy,3000.0,,SCT,2200.0,BKN,3000.0,,,,
KRDR,09-19-2002,12:00,METAR,,310,12.0,,,9999.0,Cloud Development Not Observable,14.0,12.0,29.61,1003.0,,,,0,0,0,,,,,,,IN,.44 IN,8/8 Overcast,2000.0,,BKN,2000.0,OVC,3000.0,,,,
KRDR,09-19-2002,11:00,METAR,,330,9.0,,,9999.0,Rain/Cloud Development Not Observable,14.0,13.0,29.61,1003.0,,,,61,0,0,,,,,,,,,8/8 Overcast,1500.0,,OVC,1500.0,,,,,,
KRDR,09-19-2002,10:47,SPECI,,320,11.0,,,9999.0,Rain/Cloud Development Not Observable,14.0,13.0,29.61,,,,,61,0,0,,,,,,,,,8/8 Overcast,1500.0,,OVC,1500.0,,,,,,
KRDR,09-19-2002,10:00,METAR,,330,14.0,,,9999.0,Cloud Development Not Observable,14.0,13.0,29.58,1001.9,,,,0,0,0,,,,,,,,,8/8 Overcast,1800.0,,OVC,1800.0,,,,,,
KRDR,09-19-2002,09:11,SPECI,,330,14.0,19.0,,9999.0,Cloud Development Not Observable,14.0,13.0,29.58,,,,,0,0,0,,,,,,,,,8/8 Overcast,1500.0,,OVC,1500.0,,,,,,
KRDR,09-19-2002,09:00,METAR,,330,12.0,,,9999.0,Cloud Development Not Observable,14.0,13.0,29.57,1001.7,,,,0,0,0,,,,,,TRACE,,,8/8 Overcast,1200.0,,OVC,1200.0,,,,,,
KRDR,09-19-2002,08:00,METAR,,330,12.0,,,9999.0,Cloud Development Not Observable,14.0,13.0,29.56,1001.2,,,,0,0,0,,,,,,,,,8/8 Overcast,1200.0,,OVC,1200.0,,,,,,
KRDR,09-19-2002,07:00,METAR,,330,15.0,23.0,,9999.0,Cloud Development Not Observable,14.0,14.0,29.54,1000.5,,,,0,0,0,,,,,,,,,8/8 Overcast,1100.0,,OVC,1100.0,,,,,,
KRDR,09-19-2002,06:30,METAR,,340,13.0,,,9999.0,Cloud Development Not Observable,14.0,14.0,29.54,,,,,0,0,0,,,,,,,,,8/8 Overcast,1300.0,,OVC,1300.0,,,,,,
KRDR,09-19-2002,06:02,SPECI,,330,15.0,,,9999.0,Rain/Cloud Development Not Observable,14.0,14.0,29.54,,,,,61,0,0,,,,,,,,,8/8 Overcast,1000.0,,OVC,1000.0,,,,,,
KRDR,09-19-2002,06:00,METAR,,320,15.0,,,9999.0,Cloud Development Not Observable,14.0,14.0,29.53,1000.1,,,,0,0,0,,,,,,,.29 IN,,8/8 Overcast,1000.0,,OVC,1000.0,,,,,,
KRDR,09-19-2002,05:26,SPECI,,330,15.0,,,9999.0,Cloud Development Not Observable,14.0,14.0,29.52,,,,,0,0,0,,,,,,,,,8/8 Overcast,1000.0,,SCT,600.0,OVC,1000.0,,,,
KRDR,09-19-2002,05:00,METAR,,330,14.0,21.0,,9999.0,Cloud Development Not Observable,15.0,15.0,29.51,999.7,,,,0,0,0,,,,,,,,,8/8 Overcast,900.0,,OVC,900.0,,,,,,
KRDR,09-19-2002,04:25,METAR,,350,14.0,,,9999.0,Cloud Development Not Observable,15.0,15.0,29.51,,,,,0,0,0,,,,,,,,,8/8 Overcast,900.0,,OVC,900.0,,,,,,
KRDR,09-19-2002,04:00,METAR,,340,10.0,,,9999.0,Cloud Development Not Observable,15.0,15.0,29.50,999.4,,,,0,0,0,,,,,,,,,8/8 Overcast,600.0,,OVC,600.0,,,,,,
KRDR,09-19-2002,03:00,METAR,,340,7.0,,,9999.0,Cloud Development Not Observable,15.0,15.0,29.50,999.3,,,,0,0,0,,,,,,.29 IN,,,8/8 Overcast,600.0,,OVC,600.0,,,,,,
KRDR,09-19-2002,02:35,SPECI,,340,6.0,,,9999.0,Cloud Development Not Observable,15.0,15.0,29.49,,,,,0,0,0,,,,,,,,,8/8 Overcast,600.0,,OVC,600.0,,,,,,
KRDR,09-19-2002,02:00,METAR,,340,15.0,,,4800.0,Thunderstorm with Rain or Snow/Rain Showers/Cloud Development Not Observable,15.0,15.0,29.48,998.6,,,,95,81,0,,,,,,,,,8/8 Overcast,800.0,,BKN,800.0,OVC,3000.0,,,,
KRDR,09-19-2002,01:33,SPECI,,340,12.0,,,9999.0,Thunderstorm with Rain or Snow/Light Rain Showers/Cloud Development Not Observable,16.0,16.0,29.47,,,,,95,80,0,,,,,,,,,8/8 Overcast,900.0,,BKN,900.0,OVC,2500.0,,,,
KRDR,09-19-2002,01:00,METAR,,330,11.0,,,9999.0,Light Rain Showers/Cloud Development Not Observable,16.0,16.0,29.48,998.7,,,,80,0,0,,,,,,,,,8/8 Overcast,800.0,,BKN,800.0,OVC,2500.0,,,,
KRDR,09-19-2002,00:41,SPECI,,320,14.0,,,9999.0,Light Rain Showers/Cloud Development Not Observable,18.0,18.0,29.47,,,,,80,0,0,,,,,,,,,8/8 Overcast,600.0,,BKN,600.0,OVC,3000.0,,,,
KRDR,09-19-2002,00:00,METAR,,310,7.0,,,9999.0,Cloud Development Not Observable,19.0,19.0,29.43,996.9,,,,0,0,0,,,,,,,.15 IN,,7/8 Mostly Cloudy,4400.0,,FEW,2000.0,BKN,4500.0,BKN,9900.0,BKN,25000.0
KRDR,09-18-2002,23:00,METAR,,180,3.0,,,9999.0,Thunderstorm with Rain or Snow/Light Rain Showers/Cloud Development Not Observable,19.0,19.0,29.44,997.2,,,,95,80,0,,,,,,,,,8/8 Overcast,4400.0,,FEW,2000.0,BKN,4500.0,BKN,9900.0,OVC,25000.0
KRDR,09-18-2002,22:00,METAR,,140,6.0,,,9999.0,Thunderstorm with Rain or Snow/Light Rain Showers/Cloud Development Not Observable,21.0,18.0,29.45,997.4,,,,95,80,0,,,,,,,,,8/8 Overcast,4400.0,,FEW,2500.0,OVC,4500.0,,,,
KRDR,09-18-2002,21:40,SPECI,,150,8.0,,,9999.0,Thunderstorm with Rain or Snow/Light Rain Showers/Cloud Development Not Observable,22.0,18.0,29.45,,,,,95,80,0,,,,,,,,,8/8 Overcast,4400.0,,BKN,4500.0,OVC,9900.0,,,,
KRDR,09-18-2002,21:32,SPECI,,,6.0,,,9999.0,Light Rain Showers/Cloud Development Not Observable,22.0,18.0,29.45,,,,,80,0,0,,,,,,,,,8/8 Overcast,4400.0,,BKN,4500.0,OVC,9900.0,,,,
KRDR,09-18-2002,21:00,METAR,,,3.0,,,9999.0,Cloud Development Not Observable,23.0,19.0,29.44,997.0,,,,0,0,0,,,,,,.08 IN,,,8/8 Overcast,4400.0,,FEW,2000.0,BKN,4500.0,BKN,9900.0,OVC,25000.0
KRDR,09-18-2002,20:00,METAR,,120,8.0,,,4800.0,Thunderstorm with Rain or Snow/Rain Showers/Cloud Development Not Observable,21.0,19.0,29.48,998.5,,,,95,81,0,,,,,,,,,8/8 Overcast,3900.0,,FEW,1500.0,OVC,4000.0,,,,
KRDR,09-18-2002,19:38,SPECI,,110,8.0,,,9999.0,Light Rain Showers/Cloud Development Not Observable,22.0,19.0,29.48,,,,,80,0,0,,,,,,,,,8/8 Overcast,3900.0,,OVC,4000.0,,,,,,
KRDR,09-18-2002,19:00,METAR,,110,11.0,,,9999.0,Cloud Development Not Observable,22.0,19.0,29.48,998.4,,,,0,0,0,,,,,,,,,8/8 Overcast,3900.0,,FEW,1500.0,BKN,4000.0,OVC,9900.0,,
KRDR,09-18-2002,18:00,METAR,,110,10.0,,,9999.0,Mist/Cloud Development Not Observable,22.0,20.0,29.48,998.4,,,,10,0,0,,,,,,,.05 IN,,7/8 Mostly Cloudy,3900.0,,FEW,1500.0,SCT,4000.0,BKN,9900.0,BKN,20000.0
KRDR,09-18-2002,17:00,METAR,,90,6.0,,,9999.0,Mist/Cloud Development Not Observable,20.0,19.0,29.49,998.8,,,,10,0,0,,,,,,,,,7/8 Mostly Cloudy,8000.0,,SCT,4000.0,BKN,7900.0,BKN,20000.0,,
KRDR,09-18-2002,16:34,SPECI,,120,2.0,,,9999.0,Thunderstorm/Mist/Cloud Development Not Observable,19.0,18.0,29.49,,,,,17,10,0,,,,,,,,,7/8 Mostly Cloudy,9000.0,,FEW,5000.0,BKN,8900.0,BKN,20000.0,,
KRDR,09-18-2002,16:00,METAR,,140,5.0,,,9999.0,Thunderstorm with Rain or Snow/Light Rain Showers/Mist,18.0,18.0,29.50,999.1,,,,95,80,10,,,,,,,,,8/8 Overcast,8000.0,,SCT,5000.0,BKN,7900.0,OVC,20000.0,,
KRDR,09-18-2002,15:32,SPECI,,140,9.0,,,8000.0,Thunderstorm with Rain or Snow/Light Rain Showers/Mist,18.0,17.0,29.50,,,,,95,80,10,,,,,,,,,8/8 Overcast,7000.0,,BKN,6900.0,OVC,20000.0,,,,
KRDR,09-18-2002,15:22,SPECI,,130,7.0,,,9999.0,Thunderstorm with Rain or Snow/Light Rain Showers/Mist,18.0,17.0,29.50,,,,,95,80,10,,,,,,,,,8/8 Overcast,7000.0,,BKN,6900.0,OVC,20000.0,,,,
KRDR,09-18-2002,15:17,SPECI,,140,7.0,,,9999.0,Thunderstorm/Mist/Cloud Development Not Observable,19.0,17.0,29.50,,,,,17,10,0,,,,,,,,,8/8 Overcast,7000.0,,BKN,6900.0,OVC,20000.0,,,,
KRDR,09-18-2002,15:00,METAR,,170,9.0,,,9999.0,Thunderstorm with Rain or Snow/Light Rain Showers/Mist,19.0,17.0,29.51,999.4,,,,95,80,10,,,,,,TRACE,,,8/8 Overcast,7000.0,,BKN,6900.0,OVC,20000.0,,,,
KRDR,09-18-2002,14:44,SPECI,,160,10.0,,,9999.0,Light Rain Showers/Mist/Cloud Development Not Observable,19.0,17.0,29.51,,,,,80,10,0,,,,,,,,,8/8 Overcast,7000.0,,BKN,6900.0,OVC,20000.0,,,,
KRDR,09-18-2002,14:00,METAR,,140,10.0,,,9999.0,Cloud Development Not Observable,19.0,17.0,29.50,999.1,,,,0,0,0,,,,,,,,,7/8 Mostly Cloudy,10000.0,,FEW,5000.0,SCT,9900.0,BKN,20000.0,,
KRDR,09-18-2002,13:00,METAR,,140,6.0,,,9999.0,Cloud Development Not Observable,16.0,16.0,29.51,999.5,,,,0,0,0,,,,,,,,,8/8 Overcast,20000.0,,SCT,9900.0,OVC,20000.0,,,,
KRDR,09-18-2002,12:00,METAR,,140,6.0,,,9999.0,Cloud Development Not Observable,16.0,16.0,29.50,999.1,,,,0,0,0,,,,,,,,,8/8 Overcast,8000.0,,FEW,4000.0,SCT,8400.0,OVC,22000.0,,
KRDR,09-18-2002,11:00,METAR,,150,8.0,,,9999.0,Cloud Development Not Observable,16.0,15.0,29.50,999.0,,,,0,0,0,,,,,,,,,7/8 Mostly Cloudy,22000.0,,SCT,8400.0,BKN,22000.0,,,,
KRDR,09-18-2002,10:00,METAR,,150,8.0,,,9999.0,Cloud Development Not Observable,17.0,15.0,29.52,999.4,,,,0,0,0,,,,,,,,,7/8 Mostly Cloudy,25000.0,,SCT,6900.0,BKN,25000.0,,,,
KRDR,09-18-2002,09:00,METAR,,150,10.0,,,9999.0,Cloud Development Not Observable,17.0,14.0,29.52,999.6,,,,0,0,0,,,,,,,,,7/8 Mostly Cloudy,25000.0,,FEW,8900.0,BKN,25000.0,,,,
KRDR,09-18-2002,08:00,METAR,,150,9.0,,,9999.0,Cloud Development Not Observable,18.0,13.0,29.54,1000.1,,,,0,0,0,,,,,,,,,7/8 Mostly Cloudy,25000.0,,FEW,8900.0,BKN,25000.0,,,,
KRDR,09-18-2002,07:00,METAR,,160,11.0,,,9999.0,Cloud Development Not Observable,19.0,13.0,29.55,1000.5,,,,0,0,0,,,,,,,,,7/8 Mostly Cloudy,25000.0,,BKN,25000.0,,,,,,
KRDR,09-18-2002,06:00,METAR,,160,13.0,,,9999.0,Cloud Development Not Observable,20.0,13.0,29.55,1000.5,,,,0,0,0,,,,,,,,,7/8 Mostly Cloudy,25000.0,,BKN,25000.0,,,,,,
KRDR,09-18-2002,05:00,METAR,,160,12.0,,,9999.0,Cloud Development Not Observable,20.0,12.0,29.56,1000.9,,,,0,0,0,,,,,,,,,7/8 Mostly Cloudy,25000.0,,BKN,25000.0,,,,,,
KRDR,09-18-2002,04:00,METAR,,170,14.0,,,9999.0,Cloud Development Not Observable,22.0,12.0,29.56,1000.9,,,,0,0,0,,,,,,,,,7/8 Mostly Cloudy,25000.0,,BKN,25000.0,,,,,,
KRDR,09-18-2002,03:00,METAR,,170,13.0,,,9999.0,Cloud Development Not Observable,23.0,12.0,29.56,1001.0,,,,0,0,0,,,,,,,,,7/8 Mostly Cloudy,25000.0,,BKN,25000.0,,,,,,
KRDR,09-18-2002,02:00,METAR,,160,14.0,,,9999.0,Cloud Development Not Observable,23.0,11.0,29.56,1001.0,,,,0,0,0,,,,,,,,,7/8 Mostly Cloudy,25000.0,,BKN,25000.0,,,,,,
KRDR,09-18-2002,01:00,METAR,,160,11.0,,,9999.0,Cloud Development Not Observable,25.0,11.0,29.55,1000.7,,,,0,0,0,,,,,,,,,4/8 Partly Cloudy,72000.0,,SCT,25000.0,,,,,,
KRDR,09-18-2002,00:00,METAR,,170,16.0,,,9999.0,Cloud Development Not Observable,27.0,10.0,29.54,1000.3,,,,0,0,0,,,,,,,,,4/8 Partly Cloudy,72000.0,,SCT,25000.0,,,,,,
KRDR,09-17-2002,23:00,METAR,,170,20.0,,170/27KTS,9999.0,Cloud Development Not Observable,30.0,11.0,29.52,999.5,,,,0,0,0,,,,,,,,,4/8 Partly Cloudy,72000.0,,SCT,25000.0,,,,,,
KRDR,09-17-2002,22:00,METAR,,170,18.0,28.0,170/32KTS,9999.0,Cloud Development Not Observable,31.0,11.0,29.52,999.5,,,,0,0,0,,,,,,,,,2/8 Mostly Clear,72000.0,,FEW,25000.0,,,,,,
KRDR,09-17-2002,21:00,METAR,,190,22.0,32.0,,9999.0,Cloud Development Not Observable,31.0,10.0,29.54,1000.1,,,,0,0,0,,,,,,,,,2/8 Mostly Clear,72000.0,,FEW,25000.0,,,,,,
KRDR,09-17-2002,20:00,METAR,,180,20.0,29.0,,9999.0,Cloud Development Not Observable,31.0,11.0,29.55,1000.5,,,,0,0,0,,,,,,,,,2/8 Mostly Clear,72000.0,,FEW,25000.0,,,,,,
KRDR,09-17-2002,19:00,METAR,,170,23.0,28.0,180/29KTS,9999.0,Cloud Development Not Observable,28.0,12.0,29.59,1001.9,,,,0,0,0,,,,,,,,,2/8 Mostly Clear,72000.0,,FEW,25000.0,,,,,,
KRDR,09-17-2002,18:00,METAR,,180,19.0,27.0,,9999.0,Cloud Development Not Observable,28.0,11.0,29.59,1001.9,,,,0,0,0,,,,,,,,,2/8 Mostly Clear,72000.0,,FEW,25000.0,,,,,,
KRDR,09-17-2002,17:00,METAR,,170,17.0,,,9999.0,Cloud Development Not Observable,26.0,12.0,29.61,1002.6,,,,0,0,0,,,,,,,,,2/8 Mostly Clear,72000.0,,FEW,25000.0,,,,,,
KRDR,09-17-2002,16:00,METAR,,170,19.0,26.0,,9999.0,Cloud Development Not Observable,23.0,12.0,29.61,1002.7,,,,0,0,0,,,,,,,,,2/8 Mostly Clear,72000.0,,FEW,25000.0,,,,,,
KRDR,09-17-2002,15:00,METAR,,170,18.0,,180/27KTS,9999.0,Cloud Development Not Observable,20.0,12.0,29.63,1003.5,,,,0,0,0,,,,,,,,,2/8 Mostly Clear,72000.0,,FEW,25000.0,,,,,,
KRDR,09-17-2002,14:00,METAR,,170,15.0,,,9999.0,Cloud Development Not Observable,18.0,12.0,29.64,1004.2,,,,0,0,0,,,,,,,,,2/8 Mostly Clear,72000.0,,FEW,25000.0,,,,,,
KRDR,09-17-2002,13:00,METAR,,160,12.0,,,9999.0,Cloud Development Not Observable,16.0,12.0,29.65,1004.3,,,,0,0,0,,,,,,,,,2/8 Mostly Clear,72000.0,,FEW,25000.0,,,,,,
KRDR,09-17-2002,12:00,METAR,,170,13.0,,,9999.0,Cloud Development Not Observable,15.0,11.0,29.65,1004.4,,,,0,0,0,,,,,,,,,2/8 Mostly Clear,72000.0,,FEW,20000.0,,,,,,
KRDR,09-17-2002,11:00,METAR,,160,13.0,,,9999.0,Cloud Development Not Observable,15.0,11.0,29.65,1004.4,,,,0,0,0,,,,,,,,,2/8 Mostly Clear,72000.0,,FEW,20000.0,,,,,,
KRDR,09-17-2002,10:00,METAR,,160,10.0,,,9999.0,Cloud Development Not Observable,16.0,11.0,29.67,1005.0,,,,0,0,0,,,,,,,,,4/8 Partly Cloudy,72000.0,,SCT,20000.0,,,,,,
KRDR,09-17-2002,09:00,METAR,,160,14.0,,,9999.0,Cloud Development Not Observable,17.0,12.0,29.69,1005.5,,,,0,0,0,,,,,,,,,7/8 Mostly Cloudy,25000.0,,BKN,25000.0,,,,,,
KRDR,09-17-2002,08:00,METAR,,160,9.0,,,9999.0,Cloud Development Not Observable,17.0,12.0,29.71,1006.0,,,,0,0,0,,,,,,,,,7/8 Mostly Cloudy,25000.0,,BKN,25000.0,,,,,,
KRDR,09-17-2002,07:00,METAR,,160,10.0,,,9999.0,Cloud Development Not Observable,19.0,12.0,29.71,1006.0,,,,0,0,0,,,,,,,,,7/8 Mostly Cloudy,25000.0,,BKN,25000.0,,,,,,
KRDR,09-17-2002,06:00,METAR,,170,12.0,,,9999.0,Cloud Development Not Observable,20.0,13.0,29.71,1006.2,,,,0,0,0,,,,,,,,,7/8 Mostly Cloudy,25000.0,,BKN,25000.0,,,,,,
KRDR,09-17-2002,05:00,METAR,,170,9.0,,,9999.0,Cloud Development Not Observable,20.0,15.0,29.73,1006.8,,,,0,0,0,,,,,,,,,7/8 Mostly Cloudy,25000.0,,BKN,25000.0,,,,,,
KRDR,09-17-2002,04:00,METAR,,150,10.0,,,9999.0,Cloud Development Not Observable,20.0,17.0,29.75,1007.5,,,,0,0,0,,,,,,,,,7/8 Mostly Cloudy,25000.0,,BKN,25000.0,,,,,,
KRDR,09-17-2002,03:00,METAR,,140,10.0,,,9999.0,Cloud Development Not Observable,20.0,17.0,29.75,1007.6,,,,0,0,0,,,,,,,,,7/8 Mostly Cloudy,25000.0,,BKN,25000.0,,,,,,
KRDR,09-17-2002,02:00,METAR,,130,11.0,,,9999.0,Cloud Development Not Observable,22.0,16.0,29.76,1008.0,,,,0,0,0,,,,,,,,,7/8 Mostly Cloudy,25000.0,,BKN,25000.0,,,,,,
KRDR,09-17-2002,01:00,METAR,,100,6.0,,,9999.0,Cloud Development Not Observable,23.0,17.0,29.76,1008.1,,,,0,0,0,,,,,,,,,7/8 Mostly Cloudy,25000.0,,BKN,25000.0,,,,,,
KRDR,09-17-2002,00:00,METAR,,110,8.0,,,9999.0,Cloud Development Not Observable,24.0,16.0,29.78,1008.8,,,,0,0,0,,,,,,,,,7/8 Mostly Cloudy,25000.0,,BKN,25000.0,,,,,,
KRDR,09-16-2002,23:00,METAR,,120,8.0,,,9999.0,Cloud Development Not Observable,25.0,16.0,29.79,1009.1,,,,0,0,0,,,,,,,,,7/8 Mostly Cloudy,25000.0,,BKN,25000.0,,,,,,
KRDR,09-16-2002,21:00,METAR,,120,10.0,,,9999.0,Cloud Development Not Observable,27.0,15.0,29.82,1010.0,,,,0,0,0,,,,,,,,,7/8 Mostly Cloudy,25000.0,,BKN,25000.0,,,,,,
KRDR,09-16-2002,20:00,METAR,,130,9.0,,,9999.0,Cloud Development Not Observable,27.0,15.0,29.84,1010.7,,,,0,0,0,,,,,,,,,4/8 Partly Cloudy,72000.0,,SCT,25000.0,,,,,,
KRDR,09-16-2002,19:00,METAR,,110,9.0,,,9999.0,Cloud Development Not Observable,26.0,14.0,29.86,1011.4,,,,0,0,0,,,,,,,,,4/8 Partly Cloudy,72000.0,,SCT,25000.0,,,,,,
KRDR,09-16-2002,18:00,METAR,,120,8.0,,,9999.0,Cloud Development Not Observable,24.0,14.0,29.88,1012.1,,,,0,0,0,,,,,,,,,4/8 Partly Cloudy,72000.0,,SCT,25000.0,,,,,,
KRDR,09-16-2002,17:00,METAR,,,5.0,,,9999.0,Cloud Development Not Observable,23.0,15.0,29.89,1012.5,,,,0,0,0,,,,,,,,,4/8 Partly Cloudy,72000.0,,SCT,25000.0,,,,,,
KRDR,09-16-2002,16:00,METAR,,,5.0,,,9999.0,Cloud Development Not Observable,20.0,14.0,29.89,1012.5,,,,0,0,0,,,,,,,,,4/8 Partly Cloudy,72000.0,,SCT,25000.0,,,,,,
KRDR,09-16-2002,15:00,METAR,,260,6.0,,,9999.0,Cloud Development Not Observable,18.0,14.0,29.89,1012.5,,,,0,0,0,,,,,,,,,4/8 Partly Cloudy,72000.0,,SCT,20000.0,,,,,,
KRDR,09-16-2002,14:00,METAR,,,3.0,,,9999.0,Cloud Development Not Observable,15.0,12.0,29.87,1012.1,,,,0,0,0,,,,,,,,,2/8 Mostly Clear,72000.0,,FEW,20000.0,,,,,,
KRDR,09-16-2002,13:00,METAR,,230,3.0,,,9999.0,Cloud Development Not Observable,10.0,10.0,29.87,1012.2,,,,0,0,0,,,,,,,,,2/8 Mostly Clear,72000.0,,FEW,20000.0,,,,,,
KRDR,09-16-2002,12:00,METAR,,210,4.0,,,9999.0,Cloud Development Not Observable,9.0,9.0,29.84,1011.2,,,,0,0,0,,,,,,,,,2/8 Mostly Clear,72000.0,,FEW,9900.0,,,,,,
KRDR,09-16-2002,11:00,METAR,,190,5.0,,,9999.0,Cloud Development Not Observable,9.0,9.0,29.84,1010.9,,,,0,0,0,,,,,,,,,4/8 Partly Cloudy,72000.0,,SCT,9900.0,,,,,,
KRDR,09-16-2002,10:00,METAR,,160,6.0,,,9999.0,Cloud Development Not Observable,10.0,10.0,29.83,1010.5,,,,0,0,0,,,,,,,,,2/8 Mostly Clear,72000.0,,FEW,9900.0,,,,,,
KRDR,09-16-2002,09:00,METAR,,150,5.0,,,9999.0,Cloud Development Not Observable,12.0,10.0,29.82,1010.3,,,,0,0,0,,,,,,,,,2/8 Mostly Clear,72000.0,,FEW,12000.0,,,,,,
KRDR,09-16-2002,08:00,METAR,,150,4.0,,,9999.0,Cloud Development Not Observable,12.0,10.0,29.83,1010.7,,,,0,0,0,,,,,,,,,Clear,72000.0,,,73000.0,,,,,,
KRDR,09-16-2002,07:00,METAR,,150,6.0,,,9999.0,Cloud Development Not Observable,14.0,10.0,29.81,1009.9,,,,0,0,0,,,,,,,,,Clear,72000.0,,,73000.0,,,,,,
KRDR,09-16-2002,06:00,METAR,,190,9.0,,,9999.0,Cloud Development Not Observable,15.0,10.0,29.82,1010.1,,,,0,0,0,,,,,,,,,4/8 Partly Cloudy,72000.0,,FEW,5400.0,SCT,20000.0,,,,
KRDR,09-16-2002,05:00,METAR,,190,12.0,,,9999.0,Cloud Development Not Observable,16.0,9.0,29.82,1010.3,,,,0,0,0,,,,,,,,,2/8 Mostly Clear,72000.0,,FEW,20000.0,,,,,,
KRDR,09-16-2002,04:00,METAR,,170,11.0,,,9999.0,Cloud Development Not Observable,18.0,8.0,29.83,1010.7,,,,0,0,0,,,,,,,,,2/8 Mostly Clear,72000.0,,FEW,20000.0,,,,,,
KRDR,09-16-2002,03:00,METAR,,180,12.0,,,9999.0,Cloud Development Not Observable,18.0,9.0,29.84,1011.6,,,,0,0,0,,,,,,,,,2/8 Mostly Clear,72000.0,,FEW,20000.0,,,,,,
KRDR,09-16-2002,02:00,METAR,,180,14.0,,,9999.0,Cloud Development Not Observable,19.0,8.0,29.86,1011.7,,,,0,0,0,,,,,,,,,2/8 Mostly Clear,72000.0,,FEW,20000.0,,,,,,
KRDR,09-16-2002,01:00,METAR,,190,13.0,,,9999.0,Cloud Development Not Observable,20.0,8.0,29.86,1011.9,,,,0,0,0,,,,,,,,,2/8 Mostly Clear,72000.0,,FEW,20000.0,,,,,,
KRDR,09-16-2002,00:00,METAR,,190,15.0,,,9999.0,Cloud Development Not Observable,22.0,8.0,29.91,1013.3,,,,0,0,0,,,,,,,,,2/8 Mostly Clear,72000.0,,FEW,20000.0,,,,,,
KRDR,09-15-2002,23:00,METAR,,190,19.0,24.0,180/30KTS,9999.0,Cloud Development Not Observable,23.0,7.0,29.91,1013.3,,,,0,0,0,,,,,,,,,2/8 Mostly Clear,72000.0,,FEW,20000.0,,,,,,
KRDR,09-15-2002,22:00,METAR,,190,20.0,25.0,190/26KTS,9999.0,Cloud Development Not Observable,24.0,7.0,29.94,1014.3,,,,0,0,0,,,,,,,,,2/8 Mostly Clear,72000.0,,FEW,20000.0,,,,,,
KRDR,09-15-2002,21:00,METAR,,190,20.0,27.0,190/27KTS,9999.0,Cloud Development Not Observable,23.0,7.0,29.96,1015.2,,,,0,0,0,,,,,,,,,2/8 Mostly Clear,72000.0,,FEW,20000.0,,,,,,
KRDR,09-15-2002,20:00,METAR,,190,18.0,26.0,210/27KTS,9999.0,Cloud Development Not Observable,23.0,7.0,30.00,1016.5,,,,0,0,0,,,,,,,,,7/8 Mostly Cloudy,20000.0,,FEW,15000.0,BKN,20000.0,,,,
KRDR,09-15-2002,19:00,METAR,,200,18.0,24.0,190/26KTS,9999.0,Cloud Development Not Observable,22.0,6.0,30.03,1017.6,,,,0,0,0,,,,,,,,,7/8 Mostly Cloudy,20000.0,,FEW,15000.0,BKN,20000.0,,,,
KRDR,09-15-2002,18:00,METAR,,190,19.0,25.0,200/27KTS,9999.0,Cloud Development Not Observable,21.0,6.0,30.06,1018.6,,,,0,0,0,,,,,,,,,7/8 Mostly Cloudy,20000.0,,SCT,15000.0,BKN,20000.0,,,,
KRDR,09-15-2002,17:00,METAR,,200,19.0,25.0,,9999.0,Cloud Development Not Observable,19.0,6.0,30.10,1020.0,,,,0,0,0,,,,,,,,,7/8 Mostly Cloudy,20000.0,,FEW,15000.0,BKN,20000.0,,,,
KRDR,09-15-2002,16:00,METAR,,200,15.0,23.0,,9999.0,Cloud Development Not Observable,17.0,8.0,30.13,1021.1,,,,0,0,0,,,,,,,,,7/8 Mostly Cloudy,20000.0,,SCT,15000.0,BKN,20000.0,,,,
KRDR,09-15-2002,15:00,METAR,,210,12.0,,,9999.0,Cloud Development Not Observable,14.0,8.0,30.14,1021.6,,,,0,0,0,,,,,,,,,7/8 Mostly Cloudy,15000.0,,BKN,15000.0,BKN,20000.0,,,,
KRDR,09-15-2002,14:00,METAR,,210,10.0,,,9999.0,Cloud Development Not Observable,11.0,8.0,30.15,1021.8,,,,0,0,0,,,,,,,,,7/8 Mostly Cloudy,20000.0,,FEW,9900.0,BKN,20000.0,BKN,25000.0,,
KRDR,09-15-2002,13:00,METAR,,190,6.0,,,9999.0,Cloud Development Not Observable,9.0,7.0,30.16,1022.3,,,,0,0,0,,,,,,,,,7/8 Mostly Cloudy,20000.0,,SCT,7400.0,BKN,20000.0,,,,
KRDR,09-15-2002,12:00,METAR,,210,8.0,,,9999.0,Cloud Development Not Observable,7.0,6.0,30.16,1022.3,,,,0,0,0,,,,,,,,,7/8 Mostly Cloudy,7500.0,,BKN,7400.0,BKN,20000.0,,,,
KRDR,09-15-2002,11:00,METAR,,200,6.0,,,9999.0,Cloud Development Not Observable,6.0,6.0,30.16,1022.0,,,,0,0,0,,,,,,,,,7/8 Mostly Cloudy,7500.0,,BKN,7400.0,BKN,20000.0,,,,
KRDR,09-15-2002,10:00,METAR,,210,5.0,,,9999.0,Cloud Development Not Observable,6.0,5.0,30.17,1022.4,,,,0,0,0,,,,,,,,,7/8 Mostly Cloudy,7500.0,,BKN,7400.0,BKN,20000.0,,,,
KRDR,09-15-2002,09:00,METAR,,200,8.0,,,9999.0,Cloud Development Not Observable,7.0,6.0,30.17,1022.3,,,,0,0,0,,,,,,,,,7/8 Mostly Cloudy,7500.0,,BKN,7400.0,BKN,20000.0,,,,
KRDR,09-15-2002,08:00,METAR,,190,7.0,,,9999.0,Cloud Development Not Observable,6.0,5.0,30.16,1022.3,,,,0,0,0,,,,,,,,,7/8 Mostly Cloudy,7500.0,,BKN,7400.0,,,,,,
KRDR,09-15-2002,07:00,METAR,,190,6.0,,,9999.0,Cloud Development Not Observable,5.0,4.0,30.16,1022.3,,,,0,0,0,,,,,,,,,4/8 Partly Cloudy,72000.0,,SCT,7400.0,,,,,,
KRDR,09-15-2002,06:00,METAR,,230,4.0,,,9999.0,Cloud Development Not Observable,6.0,5.0,30.17,1022.4,,,,0,0,0,,,,,,,,,2/8 Mostly Clear,72000.0,,FEW,7400.0,,,,,,
KRDR,09-15-2002,05:00,METAR,,210,5.0,,,9999.0,Cloud Development Not Observable,7.0,6.0,30.16,1022.1,,,,0,0,0,,,,,,,,,Clear,72000.0,,,73000.0,,,,,,
KRDR,09-15-2002,04:00,METAR,,260,2.0,,,9999.0,Cloud Development Not Observable,8.0,6.0,30.16,1022.1,,,,0,0,0,,,,,,,,,Clear,72000.0,,,73000.0,,,,,,
KRDR,09-15-2002,03:00,METAR,,,4.0,,,9999.0,Cloud Development Not Observable,9.0,6.0,30.14,1021.6,,,,0,0,0,,,,,,,,,Clear,72000.0,,,73000.0,,,,,,
KRDR,09-15-2002,01:00,METAR,,270,3.0,,,9999.0,Cloud Development Not Observable,13.0,6.0,30.13,1020.8,,,,0,0,0,,,,,,,,,2/8 Mostly Clear,72000.0,,FEW,5400.0,FEW,20000.0,,,,
KRDR,09-15-2002,00:00,METAR,,340,4.0,,,9999.0,Cloud Development Not Observable,16.0,6.0,30.11,1020.4,,,,0,0,0,,,,,,,,,4/8 Partly Cloudy,72000.0,,SCT,6400.0,,,,,,
KRDR,09-14-2002,23:00,METAR,,360,6.0,,,9999.0,Cloud Development Not Observable,18.0,5.0,30.11,1020.2,,,,0,0,0,,,,,,,,,4/8 Partly Cloudy,72000.0,,SCT,5900.0,,,,,,
KRDR,09-14-2002,22:00,METAR,,30,5.0,,,9999.0,Cloud Development Not Observable,19.0,5.0,30.10,1020.0,,,,0,0,0,,,,,,,,,4/8 Partly Cloudy,72000.0,,SCT,5000.0,,,,,,
KRDR,09-14-2002,21:00,METAR,,360,10.0,,,9999.0,Cloud Development Not Observable,19.0,5.0,30.10,1019.9,,,,0,0,0,,,,,,,,,4/8 Partly Cloudy,72000.0,,SCT,4300.0,,,,,,
KRDR,09-14-2002,20:00,METAR,,350,6.0,,,9999.0,Cloud Development Not Observable,17.0,5.0,30.11,1020.1,,,,0,0,0,,,,,,,,,4/8 Partly Cloudy,72000.0,,SCT,4500.0,,,,,,
KRDR,09-14-2002,19:00,METAR,,340,11.0,,,9999.0,Cloud Development Not Observable,17.0,6.0,30.12,1020.4,,,,0,0,0,,,,,,,,,4/8 Partly Cloudy,72000.0,,SCT,4500.0,,,,,,
KRDR,09-14-2002,18:00,METAR,,10,10.0,,,9999.0,Cloud Development Not Observable,17.0,8.0,30.11,1020.0,,,,0,0,0,,,,,,,,,7/8 Mostly Cloudy,4100.0,,BKN,4200.0,,,,,,
KRDR,09-14-2002,17:00,METAR,,360,12.0,,,9999.0,Cloud Development Not Observable,15.0,7.0,30.11,1020.0,,,,0,0,0,,,,,,,,,4/8 Partly Cloudy,72000.0,,SCT,3600.0,,,,,,
KRDR,09-14-2002,16:00,METAR,,350,12.0,,,9999.0,Cloud Development Not Observable,14.0,8.0,30.08,1019.2,,,,0,0,0,,,,,,,,,4/8 Partly Cloudy,72000.0,,SCT,3200.0,,,,,,
KRDR,09-14-2002,15:00,METAR,,10,12.0,,,9999.0,Cloud Development Not Observable,14.0,7.0,30.05,1018.1,,,,0,0,0,,,,,,,,,2/8 Mostly Clear,72000.0,,FEW,3500.0,FEW,9900.0,,,,
KRDR,09-14-2002,14:00,METAR,,350,15.0,,,9999.0,Cloud Development Not Observable,13.0,9.0,30.01,1016.9,,,,0,0,0,,,,,,,,,4/8 Partly Cloudy,72000.0,,FEW,3500.0,SCT,9900.0,,,,
KRDR,09-14-2002,13:00,METAR,,330,10.0,,,9999.0,Cloud Development Not Observable,10.0,8.0,29.98,1015.9,,,,0,0,0,,,,,,,,,4/8 Partly Cloudy,72000.0,,SCT,3300.0,,,,,,
KRDR,09-14-2002,12:00,METAR,,310,7.0,,,9999.0,Cloud Development Not Observable,9.0,7.0,29.94,1014.4,,,,0,0,0,,,,,,,,,2/8 Mostly Clear,72000.0,,FEW,3500.0,,,,,,
KRDR,09-14-2002,11:00,METAR,,310,6.0,,,9999.0,Cloud Development Not Observable,9.0,7.0,29.92,1013.5,,,,0,0,0,,,,,,,,,4/8 Partly Cloudy,72000.0,,SCT,6400.0,,,,,,
KRDR,09-14-2002,10:00,METAR,,310,7.0,,,9999.0,Cloud Development Not Observable,10.0,7.0,29.89,1012.6,,,,0,0,0,,,,,,,,,4/8 Partly Cloudy,72000.0,,SCT,6400.0,,,,,,
KRDR,09-14-2002,09:00,METAR,,340,8.0,,,9999.0,Cloud Development Not Observable,12.0,7.0,29.86,1011.6,,,,0,0,0,,,,,,,,,7/8 Mostly Cloudy,6500.0,,SCT,3500.0,BKN,6400.0,,,,
KRDR,09-14-2002,08:00,METAR,,340,11.0,,,9999.0,Cloud Development Not Observable,14.0,8.0,29.84,1010.8,,,,0,0,0,,,,,,,,,7/8 Mostly Cloudy,3400.0,,BKN,3500.0,,,,,,
KRDR,09-14-2002,07:00,METAR,,340,16.0,23.0,340/29KTS,9999.0,Cloud Development Not Observable,16.0,8.0,29.80,1009.4,,,,0,0,0,,,,,,,,,4/8 Partly Cloudy,72000.0,,SCT,3500.0,,,,,,
KRDR,09-14-2002,06:00,METAR,,270,10.0,,,9999.0,Cloud Development Not Observable,17.0,15.0,29.75,1007.1,,,,0,0,0,,,,,,,,,4/8 Partly Cloudy,72000.0,,FEW,3000.0,SCT,25000.0,,,,
KRDR,09-14-2002,05:00,METAR,,220,13.0,,,9999.0,Cloud Development Not Observable,17.0,15.0,29.73,1007.1,,,,0,0,0,,,,,,,,,4/8 Partly Cloudy,72000.0,,FEW,9900.0,SCT,25000.0,,,,
KRDR,09-14-2002,04:00,METAR,,210,12.0,,,9999.0,Cloud Development Not Observable,17.0,14.0,29.72,1006.8,,,,0,0,0,,,,,,,,,4/8 Partly Cloudy,72000.0,,FEW,9900.0,SCT,25000.0,,,,
KRDR,09-14-2002,03:00,METAR,,210,11.0,,,9999.0,Cloud Development Not Observable,18.0,14.0,29.71,1006.5,,,,0,0,0,,,,,,,,,4/8 Partly Cloudy,72000.0,,FEW,12000.0,SCT,25000.0,,,,
KRDR,09-14-2002,02:00,METAR,,210,11.0,,,9999.0,Cloud Development Not Observable,19.0,14.0,29.73,1007.2,,,,0,0,0,,,,,,,,,4/8 Partly Cloudy,72000.0,,FEW,15000.0,SCT,25000.0,,,,
KRDR,09-14-2002,01:00,METAR,,210,14.0,,,9999.0,Cloud Development Not Observable,20.0,14.0,29.73,1007.1,,,,0,0,0,,,,,,,,,4/8 Partly Cloudy,72000.0,,FEW,15000.0,SCT,25000.0,,,,
KRDR,09-14-2002,00:00,METAR,,200,16.0,,,9999.0,Cloud Development Not Observable,23.0,13.0,29.74,1007.4,,,,0,0,0,,,,,,,,,4/8 Partly Cloudy,72000.0,,SCT,25000.0,,,,,,
KRDR,09-13-2002,23:00,METAR,,200,17.0,,,9999.0,Cloud Development Not Observable,24.0,14.0,29.75,1007.7,,,,0,0,0,,,,,,,,,7/8 Mostly Cloudy,25000.0,,FEW,2500.0,BKN,25000.0,,,,
KRDR,09-13-2002,22:00,METAR,,210,18.0,,,9999.0,Cloud Development Not Observable,25.0,13.0,29.75,1007.9,,,,0,0,0,,,,,,,,,7/8 Mostly Cloudy,25000.0,,FEW,2500.0,BKN,25000.0,,,,
KRDR,09-13-2002,21:00,METAR,,190,17.0,,,9999.0,Cloud Development Not Observable,26.0,13.0,29.77,1008.3,,,,0,0,0,,,,,,,,,7/8 Mostly Cloudy,25000.0,,FEW,2500.0,BKN,25000.0,,,,
KRDR,09-13-2002,20:00,METAR,,220,14.0,,,9999.0,Cloud Development Not Observable,26.0,14.0,29.79,1009.1,,,,0,0,0,,,,,,,,,7/8 Mostly Cloudy,25000.0,,BKN,25000.0,,,,,,
KRDR,09-13-2002,19:00,METAR,,210,14.0,,,9999.0,Cloud Development Not Observable,25.0,14.0,29.83,1010.4,,,,0,0,0,,,,,,,,,7/8 Mostly Cloudy,25000.0,,BKN,25000.0,,,,,,
KRDR,09-13-2002,18:00,METAR,,200,11.0,,,9999.0,Cloud Development Not Observable,24.0,16.0,29.86,1011.6,,,,0,0,0,,,,,,,,,7/8 Mostly Cloudy,25000.0,,BKN,25000.0,,,,,,
KRDR,09-13-2002,17:00,METAR,,190,11.0,,,9999.0,Cloud Development Not Observable,22.0,16.0,29.88,1012.3,,,,0,0,0,,,,,,,,,7/8 Mostly Cloudy,25000.0,,FEW,15000.0,BKN,25000.0,,,,
KRDR,09-13-2002,16:00,METAR,,170,8.0,,,9999.0,Cloud Development Not Observable,20.0,15.0,29.91,1013.2,,,,0,0,0,,,,,,,,,7/8 Mostly Cloudy,25000.0,,FEW,15000.0,BKN,25000.0,,,,
KRDR,09-13-2002,15:00,METAR,,150,8.0,,,9999.0,Cloud Development Not Observable,16.0,13.0,29.93,1014.0,,,,0,0,0,,,,,,,,,7/8 Mostly Cloudy,25000.0,,FEW,15000.0,BKN,25000.0,,,,
KRDR,09-13-2002,14:00,METAR,,140,5.0,,,9999.0,Cloud Development Not Observable,14.0,12.0,29.94,1014.5,,,,0,0,0,,,,,,,,,7/8 Mostly Cloudy,15000.0,,FEW,8900.0,SCT,15000.0,BKN,25000.0,,
KRDR,09-13-2002,13:00,METAR,,140,4.0,,,9999.0,Cloud Development Not Observable,12.0,10.0,29.96,1014.9,,,,0,0,0,,,,,,,,,8/8 Overcast,15000.0,,SCT,7900.0,BKN,15000.0,OVC,25000.0,,
KRDR,09-13-2002,12:00,METAR,,140,3.0,,,9999.0,Cloud Development Not Observable,9.0,9.0,29.97,1015.5,,,,0,0,0,,,,,,,,,7/8 Mostly Cloudy,15000.0,,FEW,6900.0,SCT,15000.0,BKN,25000.0,,
KRDR,09-13-2002,11:00,METAR,,,2.0,,,9999.0,Cloud Development Not Observable,10.0,9.0,29.97,1015.4,,,,0,0,0,,,,,,,,,7/8 Mostly Cloudy,25000.0,,BKN,25000.0,,,,,,
KRDR,09-13-2002,10:00,METAR,,240,2.0,,,9999.0,Cloud Development Not Observable,10.0,9.0,29.97,1015.8,,,,0,0,0,,,,,,,,,7/8 Mostly Cloudy,25000.0,,BKN,25000.0,,,,,,
KRDR,09-13-2002,09:00,METAR,,230,2.0,,,9999.0,Cloud Development Not Observable,10.0,8.0,29.98,1015.8,,,,0,0,0,,,,,,,,,7/8 Mostly Cloudy,25000.0,,BKN,25000.0,,,,,,
KRDR,09-13-2002,08:00,METAR,,220,4.0,,,9999.0,Cloud Development Not Observable,9.0,9.0,29.99,1016.1,,,,0,0,0,,,,,,,,,7/8 Mostly Cloudy,25000.0,,BKN,25000.0,,,,,,
KRDR,09-13-2002,07:00,METAR,,230,2.0,,,9999.0,Cloud Development Not Observable,11.0,9.0,29.99,1016.0,,,,0,0,0,,,,,,,,,7/8 Mostly Cloudy,25000.0,,BKN,25000.0,,,,,,
KRDR,09-13-2002,06:00,METAR,,310,2.0,,,9999.0,Cloud Development Not Observable,11.0,10.0,29.99,1016.0,,,,0,0,0,,,,,,,,,7/8 Mostly Cloudy,25000.0,,BKN,25000.0,,,,,,
KRDR,09-13-2002,05:00,METAR,,240,2.0,,,9999.0,Cloud Development Not Observable,12.0,10.0,29.99,1016.1,,,,0,0,0,,,,,,,,,7/8 Mostly Cloudy,25000.0,,BKN,25000.0,,,,,,
KRDR,09-13-2002,04:00,METAR,,300,3.0,,,9999.0,Cloud Development Not Observable,13.0,11.0,29.99,1015.9,,,,0,0,0,,,,,,,,,7/8 Mostly Cloudy,25000.0,,BKN,25000.0,,,,,,
KRDR,09-13-2002,03:00,METAR,,260,3.0,,,9999.0,Cloud Development Not Observable,14.0,10.0,29.99,1015.9,,,,0,0,0,,,,,,,,,7/8 Mostly Cloudy,25000.0,,BKN,25000.0,,,,,,
KRDR,09-13-2002,02:00,METAR,,,1.0,,,9999.0,Cloud Development Not Observable,16.0,10.0,29.99,1015.9,,,,0,0,0,,,,,,,,,7/8 Mostly Cloudy,25000.0,,BKN,25000.0,,,,,,
KRDR,09-13-2002,01:00,METAR,,40,6.0,,,9999.0,Cloud Development Not Observable,21.0,10.0,29.98,1015.5,,,,0,0,0,,,,,,,,,7/8 Mostly Cloudy,25000.0,,BKN,25000.0,,,,,,
KRDR,09-13-2002,00:00,METAR,,10,6.0,,,9999.0,Cloud Development Not Observable,22.0,11.0,29.96,1014.7,,,,0,0,0,,,,,,,,,7/8 Mostly Cloudy,25000.0,,BKN,25000.0,,,,,,
KRDR,09-12-2002,23:00,METAR,,20,8.0,,,9999.0,Cloud Development Not Observable,24.0,11.0,29.96,1014.7,,,,0,0,0,,,,,,,,,7/8 Mostly Cloudy,25000.0,,BKN,25000.0,,,,,,
KRDR,09-12-2002,22:00,METAR,,340,8.0,,,9999.0,Cloud Development Not Observable,25.0,11.0,29.96,1014.6,,,,0,0,0,,,,,,,,,7/8 Mostly Cloudy,25000.0,,BKN,25000.0,,,,,,
KRDR,09-12-2002,21:00,METAR,,,6.0,,,9999.0,Cloud Development Not Observable,25.0,11.0,29.96,1014.6,,,,0,0,0,,,,,,,,,7/8 Mostly Cloudy,25000.0,,BKN,25000.0,,,,,,
KRDR,09-12-2002,20:00,METAR,,330,7.0,,,9999.0,Cloud Development Not Observable,25.0,12.0,29.97,1015.0,,,,0,0,0,,,,,,,,,7/8 Mostly Cloudy,25000.0,,BKN,25000.0,,,,,,
KRDR,09-12-2002,19:00,METAR,,350,10.0,,,9999.0,Cloud Development Not Observable,25.0,12.0,29.97,1015.2,,,,0,0,0,,,,,,,,,4/8 Partly Cloudy,72000.0,,SCT,25000.0,,,,,,
KRDR,09-12-2002,18:00,METAR,,350,10.0,,,9999.0,Cloud Development Not Observable,24.0,14.0,29.97,1015.0,,,,0,0,0,,,,,,,,,2/8 Mostly Clear,72000.0,,FEW,25000.0,,,,,,
KRDR,09-12-2002,17:00,METAR,,350,5.0,,,9999.0,Cloud Development Not Observable,22.0,14.0,29.97,1015.1,,,,0,0,0,,,,,,,,,2/8 Mostly Clear,72000.0,,FEW,25000.0,,,,,,
KRDR,09-12-2002,16:00,METAR,,330,7.0,,,9999.0,Cloud Development Not Observable,21.0,14.0,29.96,1015.0,,,,0,0,0,,,,,,,,,2/8 Mostly Clear,72000.0,,FEW,25000.0,,,,,,
KRDR,09-12-2002,15:00,METAR,,350,10.0,,,9999.0,Cloud Development Not Observable,20.0,14.0,29.95,1014.6,,,,0,0,0,,,,,,,,,2/8 Mostly Clear,72000.0,,FEW,25000.0,,,,,,
KRDR,09-12-2002,14:00,METAR,,320,10.0,,,9999.0,Cloud Development Not Observable,18.0,13.0,29.95,1014.5,,,,0,0,0,,,,,,,,,2/8 Mostly Clear,72000.0,,FEW,25000.0,,,,,,
KRDR,09-12-2002,13:00,METAR,,280,7.0,,,9999.0,Cloud Development Not Observable,17.0,11.0,29.93,1013.7,,,,0,0,0,,,,,,,,,2/8 Mostly Clear,72000.0,,FEW,25000.0,,,,,,
KRDR,09-12-2002,12:00,METAR,,270,12.0,,,9999.0,Cloud Development Not Observable,18.0,11.0,29.90,1012.7,,,,0,0,0,,,,,,,,,2/8 Mostly Clear,72000.0,,FEW,25000.0,,,,,,
KRDR,09-12-2002,11:00,METAR,,250,9.0,,,9999.0,Cloud Development Not Observable,17.0,11.0,29.90,1012.7,,,,0,0,0,,,,,,,,,2/8 Mostly Clear,72000.0,,FEW,25000.0,,,,,,
KRDR,09-12-2002,10:00,METAR,,250,9.0,,,9999.0,Cloud Development Not Observable,18.0,11.0,29.90,1012.7,,,,0,0,0,,,,,,,,,Clear,72000.0,,,73000.0,,,,,,
KRDR,09-12-2002,09:00,METAR,,240,8.0,,,9999.0,Cloud Development Not Observable,17.0,12.0,29.91,1013.0,,,,0,0,0,,,,,,,,,Clear,72000.0,,,73000.0,,,,,,
KRDR,09-12-2002,08:00,METAR,,240,7.0,,,9999.0,Cloud Development Not Observable,16.0,12.0,29.91,1013.1,,,,0,0,0,,,,,,,,,Clear,72000.0,,,73000.0,,,,,,
KRDR,09-12-2002,07:00,METAR,,200,6.0,,,9999.0,Cloud Development Not Observable,15.0,12.0,29.92,1013.5,,,,0,0,0,,,,,,,,,Clear,72000.0,,,73000.0,,,,,,
KRDR,09-12-2002,06:00,METAR,,200,8.0,,,9999.0,Cloud Development Not Observable,17.0,12.0,29.92,1013.4,,,,0,0,0,,,,,,,,,Clear,72000.0,,,73000.0,,,,,,
KRDR,09-12-2002,05:00,METAR,,200,7.0,,,9999.0,Cloud Development Not Observable,16.0,11.0,29.93,1013.8,,,,0,0,0,,,,,,,,,Clear,72000.0,,,73000.0,,,,,,
KRDR,09-12-2002,04:00,METAR,,190,7.0,,,9999.0,Cloud Development Not Observable,15.0,11.0,29.94,1014.2,,,,0,0,0,,,,,,,,,2/8 Mostly Clear,72000.0,,FEW,20000.0,,,,,,
KRDR,09-12-2002,03:00,METAR,,180,6.0,,,9999.0,Cloud Development Not Observable,17.0,12.0,29.95,1014.6,,,,0,0,0,,,,,,,,,2/8 Mostly Clear,72000.0,,FEW,20000.0,,,,,,
KRDR,09-12-2002,02:00,METAR,,160,6.0,,,9999.0,Cloud Development Not Observable,19.0,12.0,29.96,1015.1,,,,0,0,0,,,,,,,,,2/8 Mostly Clear,72000.0,,FEW,20000.0,,,,,,
KRDR,09-12-2002,01:00,METAR,,160,6.0,,,9999.0,Cloud Development Not Observable,22.0,11.0,29.96,1015.1,,,,0,0,0,,,,,,,,,2/8 Mostly Clear,72000.0,,FEW,20000.0,,,,,,
KRDR,09-12-2002,00:00,METAR,,180,6.0,,,9999.0,Cloud Development Not Observable,25.0,12.0,29.96,1015.1,,,,0,0,0,,,,,,,,,Clear,72000.0,,,73000.0,,,,,,
KRDR,09-11-2002,23:00,METAR,,,6.0,,,9999.0,Cloud Development Not Observable,26.0,10.0,29.97,1015.3,,,,0,0,0,,,,,,,,,Clear,72000.0,,,73000.0,,,,,,
KRDR,09-11-2002,22:00,METAR,,,5.0,,,9999.0,Cloud Development Not Observable,27.0,9.0,29.99,1016.0,,,,0,0,0,,,,,,,,,Clear,72000.0,,,73000.0,,,,,,
KRDR,09-11-2002,21:00,METAR,,,3.0,,,9999.0,Cloud Development Not Observable,27.0,7.0,30.00,1016.4,,,,0,0,0,,,,,,,,,Clear,72000.0,,,73000.0,,,,,,
KRDR,09-11-2002,20:00,METAR,,,3.0,,,9999.0,Cloud Development Not Observable,27.0,9.0,30.02,1016.9,,,,0,0,0,,,,,,,,,Clear,72000.0,,,73000.0,,,,,,
KRDR,09-11-2002,19:00,METAR,,,6.0,,,9999.0,Cloud Development Not Observable,26.0,8.0,30.04,1017.6,,,,0,0,0,,,,,,,,,Clear,72000.0,,,73000.0,,,,,,
KRDR,09-11-2002,18:00,METAR,,,6.0,,,9999.0,Cloud Development Not Observable,25.0,8.0,30.05,1018.0,,,,0,0,0,,,,,,,,,Clear,72000.0,,,73000.0,,,,,,
KRDR,09-11-2002,17:00,METAR,,240,6.0,,,9999.0,Cloud Development Not Observable,24.0,10.0,30.07,1018.7,,,,0,0,0,,,,,,,,,Clear,72000.0,,,73000.0,,,,,,
KRDR,09-11-2002,16:00,METAR,,220,6.0,,,9999.0,Cloud Development Not Observable,23.0,12.0,30.10,1019.7,,,,0,0,0,,,,,,,,,Clear,72000.0,,,73000.0,,,,,,
KRDR,09-11-2002,15:00,METAR,,,4.0,,,9999.0,Cloud Development Not Observable,20.0,13.0,30.10,1019.8,,,,0,0,0,,,,,,,,,Clear,72000.0,,,73000.0,,,,,,
KRDR,09-11-2002,14:00,METAR,,220,4.0,,,9999.0,Cloud Development Not Observable,16.0,13.0,30.11,1020.2,,,,0,0,0,,,,,,,,,Clear,72000.0,,,73000.0,,,,,,
KRDR,09-11-2002,13:00,METAR,,,1.0,,,9999.0,Cloud Development Not Observable,11.0,10.0,30.11,1020.3,,,,0,0,0,,,,,,,,,Clear,72000.0,,,73000.0,,,,,,
KRDR,09-11-2002,12:00,METAR,,200,3.0,,,9999.0,Cloud Development Not Observable,10.0,9.0,30.11,1020.2,,,,0,0,0,,,,,,,,,Clear,72000.0,,,73000.0,,,,,,
KRDR,09-11-2002,11:00,METAR,,220,3.0,,,9999.0,Cloud Development Not Observable,10.0,10.0,30.11,1020.1,,,,0,0,0,,,,,,,,,Clear,72000.0,,,73000.0,,,,,,
KRDR,09-11-2002,10:00,METAR,,230,2.0,,,9999.0,Cloud Development Not Observable,10.0,9.0,30.11,1020.1,,,,0,0,0,,,,,,,,,Clear,72000.0,,,73000.0,,,,,,
KRDR,09-11-2002,09:00,METAR,,220,3.0,,,9999.0,Cloud Development Not Observable,10.0,10.0,30.11,1020.1,,,,0,0,0,,,,,,,,,Clear,72000.0,,,73000.0,,,,,,
KRDR,09-11-2002,08:00,METAR,,220,3.0,,,9999.0,Cloud Development Not Observable,10.0,10.0,30.12,1020.4,,,,0,0,0,,,,,,,,,Clear,72000.0,,,73000.0,,,,,,
KRDR,09-11-2002,07:00,METAR,,250,3.0,,,9999.0,Cloud Development Not Observable,11.0,11.0,30.12,1020.4,,,,0,0,0,,,,,,,,,Clear,72000.0,,,73000.0,,,,,,
KRDR,09-11-2002,06:00,METAR,,240,2.0,,,9999.0,Cloud Development Not Observable,12.0,11.0,30.12,1020.4,,,,0,0,0,,,,,,,,,Clear,72000.0,,,73000.0,,,,,,
KRDR,09-11-2002,05:00,METAR,,220,3.0,,,9999.0,Cloud Development Not Observable,13.0,12.0,30.12,1020.4,,,,0,0,0,,,,,,,,,Clear,72000.0,,,73000.0,,,,,,
KRDR,09-11-2002,04:00,METAR,,,2.0,,,9999.0,Cloud Development Not Observable,14.0,11.0,30.12,1020.4,,,,0,0,0,,,,,,,,,Clear,72000.0,,,73000.0,,,,,,
KRDR,09-11-2002,03:00,METAR,,,2.0,,,9999.0,Cloud Development Not Observable,15.0,12.0,30.12,1020.5,,,,0,0,0,,,,,,,,,Clear,72000.0,,,73000.0,,,,,,
KRDR,09-11-2002,02:00,METAR,,260,4.0,,,9999.0,Cloud Development Not Observable,16.0,12.0,30.12,1020.6,,,,0,0,0,,,,,,,,,Clear,72000.0,,,73000.0,,,,,,
KRDR,09-11-2002,01:00,METAR,,250,4.0,,,9999.0,Cloud Development Not Observable,19.0,11.0,30.11,1020.3,,,,0,0,0,,,,,,,,,2/8 Mostly Clear,72000.0,,FEW,5000.0,,,,,,
KRDR,09-11-2002,00:00,METAR,,270,5.0,,,9999.0,Cloud Development Not Observable,23.0,12.0,30.10,1019.8,,,,0,0,0,,,,,,,,,2/8 Mostly Clear,72000.0,,FEW,5000.0,FEW,20000.0,,,,
KRDR,09-10-2002,23:00,METAR,,280,9.0,,,9999.0,Cloud Development Not Observable,25.0,9.0,30.11,1020.1,,,,0,0,0,,,,,,,,,2/8 Mostly Clear,72000.0,,FEW,5000.0,FEW,20000.0,,,,
KRDR,09-10-2002,22:00,METAR,,300,8.0,,,9999.0,Cloud Development Not Observable,25.0,11.0,30.11,1020.1,,,,0,0,0,,,,,,,,,4/8 Partly Cloudy,72000.0,,FEW,2500.0,SCT,20000.0,,,,
KRDR,09-10-2002,21:00,METAR,,270,8.0,,,9999.0,Cloud Development Not Observable,26.0,11.0,30.12,1020.4,,,,0,0,0,,,,,,,,,4/8 Partly Cloudy,72000.0,,SCT,2500.0,SCT,20000.0,,,,
KRDR,09-10-2002,20:00,METAR,,270,9.0,,,9999.0,Cloud Development Not Observable,26.0,10.0,30.12,1020.4,,,,0,0,0,,,,,,,,,4/8 Partly Cloudy,72000.0,,SCT,2500.0,SCT,20000.0,,,,
KRDR,09-10-2002,19:00,METAR,,270,8.0,,,9999.0,Cloud Development Not Observable,25.0,10.0,30.14,1020.9,,,,0,0,0,,,,,,,,,2/8 Mostly Clear,72000.0,,FEW,2000.0,FEW,20000.0,,,,
KRDR,09-10-2002,18:00,METAR,,220,7.0,,,9999.0,Cloud Development Not Observable,25.0,10.0,30.14,1021.1,,,,0,0,0,,,,,,,,,2/8 Mostly Clear,72000.0,,FEW,20000.0,,,,,,
KRDR,09-10-2002,17:00,METAR,,230,7.0,,,9999.0,Cloud Development Not Observable,24.0,10.0,30.14,1021.2,,,,0,0,0,,,,,,,,,2/8 Mostly Clear,72000.0,,FEW,20000.0,,,,,,
KRDR,09-10-2002,16:00,METAR,,240,5.0,,,9999.0,Cloud Development Not Observable,22.0,12.0,30.14,1021.1,,,,0,0,0,,,,,,,,,Clear,72000.0,,,73000.0,,,,,,
KRDR,09-10-2002,15:00,METAR,,250,5.0,,,9999.0,Cloud Development Not Observable,20.0,14.0,30.14,1021.2,,,,0,0,0,,,,,,,,,Clear,72000.0,,,73000.0,,,,,,
KRDR,09-10-2002,14:00,METAR,,260,4.0,,,9999.0,Cloud Development Not Observable,15.0,15.0,30.13,1021.1,,,,0,0,0,,,,,,,,,Clear,72000.0,,,73000.0,,,,,,
KRDR,09-10-2002,13:00,METAR,,270,2.0,,,9999.0,Cloud Development Not Observable,12.0,12.0,30.13,1021.1,,,,0,0,0,,,,,,,,,Clear,72000.0,,,73000.0,,,,,,
KRDR,09-10-2002,12:00,METAR,,250,5.0,,,9999.0,Cloud Development Not Observable,10.0,10.0,30.13,1020.9,,,,0,0,0,,,,,,,,.27 IN,Clear,72000.0,,,73000.0,,,,,,
KRDR,09-10-2002,11:00,METAR,,240,5.0,,,9999.0,Shallow Fog or Ice Fog/Cloud Development Not Observable,10.0,10.0,30.12,1020.6,,,,12,0,0,,,,,,,,,2/8 Mostly Clear,72000.0,,FEW,0.0,,,,,,
KRDR,09-10-2002,10:00,METAR,,230,3.0,,,9999.0,Shallow Fog or Ice Fog/Cloud Development Not Observable,10.0,10.0,30.12,1020.6,,,,12,0,0,,,,,,,,,2/8 Mostly Clear,72000.0,,FEW,0.0,,,,,,
KRDR,09-10-2002,09:00,METAR,,240,4.0,,,9999.0,Shallow Fog or Ice Fog/Cloud Development Not Observable,10.0,10.0,30.13,1021.0,,,,12,0,0,,,,,,,,,2/8 Mostly Clear,72000.0,,FEW,0.0,,,,,,
KRDR,09-10-2002,08:00,METAR,,230,4.0,,,9999.0,Cloud Development Not Observable,10.0,10.0,30.13,1021.0,,,,0,0,0,,,,,,,,,Clear,72000.0,,,73000.0,,,,,,
KRDR,09-10-2002,07:00,METAR,,230,4.0,,,9999.0,Cloud Development Not Observable,11.0,11.0,30.13,1020.9,,,,0,0,0,,,,,,,,,2/8 Mostly Clear,72000.0,,FEW,12000.0,FEW,25000.0,,,,
KRDR,09-10-2002,06:00,METAR,,240,5.0,,,9999.0,Cloud Development Not Observable,12.0,12.0,30.13,1020.8,,,,0,0,0,,,,,,,,,7/8 Mostly Cloudy,25000.0,,SCT,12000.0,BKN,25000.0,,,,
KRDR,09-10-2002,05:00,METAR,,240,4.0,,,9999.0,Cloud Development Not Observable,13.0,13.0,30.13,1020.8,,,,0,0,0,,,,,,,,,7/8 Mostly Cloudy,25000.0,,SCT,12000.0,BKN,25000.0,,,,
KRDR,09-10-2002,04:00,METAR,,230,4.0,,,9999.0,Cloud Development Not Observable,14.0,14.0,30.13,1020.6,,,,0,0,0,,,,,,,,,7/8 Mostly Cloudy,25000.0,,SCT,12000.0,BKN,25000.0,,,,
KRDR,09-10-2002,03:00,METAR,,240,5.0,,,9999.0,Cloud Development Not Observable,15.0,15.0,30.15,1021.5,,,,0,0,0,,,,,,,,,7/8 Mostly Cloudy,25000.0,,SCT,12000.0,BKN,25000.0,,,,
KRDR,09-10-2002,02:00,METAR,,230,5.0,,,9999.0,Cloud Development Not Observable,15.0,15.0,30.15,1021.5,,,,0,0,0,,,,,,,,,7/8 Mostly Cloudy,11000.0,,BKN,11000.0,BKN,25000.0,,,,
KRDR,09-10-2002,01:00,METAR,,230,5.0,,,9999.0,Cloud Development Not Observable,15.0,15.0,30.14,1021.1,,,,0,0,0,,,,,,,,,7/8 Mostly Cloudy,8000.0,,FEW,5000.0,BKN,7900.0,BKN,15000.0,BKN,25000.0
KRDR,09-10-2002,00:00,METAR,,220,4.0,,,9999.0,Cloud Development Not Observable,16.0,16.0,30.13,1020.8,,,,0,0,0,,,,,,,.27 IN,,7/8 Mostly Cloudy,7500.0,,SCT,5000.0,BKN,7400.0,BKN,15000.0,BKN,25000.0
KRDR,09-09-2002,23:45,METAR,,240,5.0,,,9999.0,Cloud Development Not Observable,16.0,16.0,30.13,,,,,0,0,0,,,,,,,,,7/8 Mostly Cloudy,7500.0,,SCT,5000.0,BKN,7400.0,BKN,15000.0,BKN,25000.0
KRDR,09-09-2002,23:00,METAR,,240,4.0,,,9999.0,Light Rain Showers/Cloud Development Not Observable,16.0,16.0,30.15,1021.5,,,,80,0,0,,,,,,,,,8/8 Overcast,15000.0,,SCT,8900.0,BKN,15000.0,OVC,25000.0,,
KRDR,09-09-2002,22:00,METAR,,240,4.0,,,9999.0,Light Rain Showers/Mist/Cloud Development Not Observable,16.0,15.0,30.15,1021.5,,,,80,10,0,,,,,,,,,8/8 Overcast,9000.0,,FEW,3000.0,OVC,8900.0,,,,
KRDR,09-09-2002,21:00,METAR,,210,4.0,,,9999.0,Light Rain Showers/Mist/Cloud Development Not Observable,16.0,16.0,30.16,1021.8,,,,80,10,0,,,,,,.23 IN,,,8/8 Overcast,9000.0,,FEW,3000.0,BKN,8900.0,OVC,15000.0,,
KRDR,09-09-2002,20:00,METAR,,,3.0,,,9999.0,Light Rain Showers/Cloud Development Not Observable,15.0,15.0,30.17,1022.3,,,,80,0,0,,,,,,,,,8/8 Overcast,12000.0,,FEW,4000.0,BKN,12000.0,OVC,20000.0,,
KRDR,09-09-2002,19:00,METAR,,310,6.0,,,9999.0,Light Rain Showers/Cloud Development Not Observable,16.0,16.0,30.17,1022.2,,,,80,0,0,,,,,,,,,8/8 Overcast,12000.0,,FEW,4000.0,BKN,12000.0,OVC,20000.0,,
KRDR,09-09-2002,18:00,METAR,,310,6.0,,,9999.0,Light Rain Showers/Cloud Development Not Observable,17.0,15.0,30.16,1021.9,,,,80,0,0,,,,,,,IN,,8/8 Overcast,12000.0,,FEW,4000.0,SCT,12000.0,OVC,20000.0,,
KRDR,09-09-2002,17:31,SPECI,,280,5.0,,,9999.0,Light Rain Showers/Cloud Development Not Observable,17.0,15.0,30.17,,,,,80,0,0,,,,,,,,,8/8 Overcast,20000.0,,FEW,12000.0,OVC,20000.0,,,,
KRDR,09-09-2002,17:00,METAR,,270,5.0,,,9999.0,Cloud Development Not Observable,17.0,15.0,30.16,1021.9,,,,0,0,0,,,,,,,,,8/8 Overcast,20000.0,,OVC,20000.0,,,,,,
KRDR,09-09-2002,16:00,METAR,,,3.0,,,9999.0,Cloud Development Not Observable,16.0,15.0,30.14,1021.2,,,,0,0,0,,,,,,,,,8/8 Overcast,20000.0,,OVC,20000.0,,,,,,
KRDR,09-09-2002,15:00,METAR,,330,7.0,,,9999.0,Cloud Development Not Observable,16.0,15.0,30.12,1020.5,,,,0,0,0,,,,,,,,,7/8 Mostly Cloudy,20000.0,,FEW,9900.0,BKN,20000.0,,,,
KRDR,09-09-2002,14:00,METAR,,310,6.0,,,9999.0,Cloud Development Not Observable,16.0,15.0,30.10,1019.5,,,,0,0,0,,,,,,,,,7/8 Mostly Cloudy,20000.0,,FEW,9900.0,BKN,20000.0,,,,
KRDR,09-09-2002,13:00,METAR,,310,9.0,,,9999.0,Cloud Development Not Observable,15.0,15.0,30.10,1019.5,,,,0,0,0,,,,,,,,,7/8 Mostly Cloudy,20000.0,,FEW,9900.0,BKN,20000.0,,,,
KRDR,09-09-2002,12:00,METAR,,280,5.0,,,9999.0,Cloud Development Not Observable,14.0,14.0,30.09,1019.2,,,,0,0,0,,,,,,,,,7/8 Mostly Cloudy,7000.0,,BKN,6900.0,BKN,20000.0,,,,
KRDR,09-09-2002,11:00,METAR,,310,6.0,,,9999.0,Cloud Development Not Observable,15.0,15.0,30.08,1019.0,,,,0,0,0,,,,,,,,,2/8 Mostly Clear,72000.0,,FEW,6900.0,FEW,25000.0,,,,
KRDR,09-09-2002,10:00,METAR,,290,5.0,,,9999.0,Cloud Development Not Observable,15.0,15.0,30.06,1018.3,,,,0,0,0,,,,,,,,,2/8 Mostly Clear,72000.0,,FEW,6900.0,FEW,25000.0,,,,
KRDR,09-09-2002,09:00,METAR,,310,6.0,,,9999.0,Cloud Development Not Observable,16.0,16.0,30.06,1018.4,,,,0,0,0,,,,,,,,,4/8 Partly Cloudy,72000.0,,SCT,6900.0,,,,,,
KRDR,09-09-2002,08:00,METAR,,320,4.0,,,9999.0,Cloud Development Not Observable,17.0,17.0,30.04,1017.6,,,,0,0,0,,,,,,,,,4/8 Partly Cloudy,72000.0,,SCT,6900.0,,,,,,
KRDR,09-09-2002,07:00,METAR,,320,4.0,,,9999.0,Cloud Development Not Observable,18.0,18.0,30.03,1017.3,,,,0,0,0,,,,,,,,,4/8 Partly Cloudy,72000.0,,SCT,6900.0,,,,,,
KRDR,09-09-2002,06:00,METAR,,320,8.0,,,9999.0,Cloud Development Not Observable,18.0,18.0,30.02,1017.0,,,,0,0,0,,,,,,,,,4/8 Partly Cloudy,72000.0,,SCT,4500.0,SCT,6900.0,,,,
KRDR,09-09-2002,05:00,METAR,,340,5.0,,,9999.0,Cloud Development Not Observable,18.0,18.0,29.99,1015.9,,,,0,0,0,,,,,,,,,7/8 Mostly Cloudy,7000.0,,SCT,4500.0,SCT,6900.0,BKN,25000.0,,
KRDR,09-09-2002,04:00,METAR,,350,6.0,,,9999.0,Cloud Development Not Observable,19.0,18.0,29.98,1015.5,,,,0,0,0,,,,,,,,,7/8 Mostly Cloudy,11000.0,,SCT,4500.0,BKN,11000.0,BKN,25000.0,,
KRDR,09-09-2002,03:00,METAR,,350,6.0,,,9999.0,Cloud Development Not Observable,19.0,18.0,29.96,1015.0,,,,0,0,0,,,,,,,,,8/8 Overcast,10000.0,,OVC,9900.0,,,,,,
KRDR,09-09-2002,02:00,METAR,,360,8.0,,,9999.0,Cloud Development Not Observable,20.0,18.0,29.94,1014.3,,,,0,0,0,,,,,,,,,8/8 Overcast,10000.0,,OVC,9900.0,,,,,,
KRDR,09-09-2002,01:00,METAR,,350,9.0,,,9999.0,Cloud Development Not Observable,21.0,18.0,29.91,1013.2,,,,0,0,0,,,,,,,,,8/8 Overcast,7000.0,,FEW,4000.0,OVC,6900.0,,,,
KRDR,09-09-2002,00:00,METAR,,340,9.0,,,9999.0,Cloud Development Not Observable,22.0,18.0,29.90,1012.8,,,,0,0,0,,,,,,,,,8/8 Overcast,7000.0,,FEW,5000.0,BKN,6900.0,OVC,15000.0,,
KRDR,09-08-2002,23:00,METAR,,330,9.0,,,9999.0,Cloud Development Not Observable,23.0,19.0,29.90,1012.4,,,,0,0,0,,,,,,,,,7/8 Mostly Cloudy,9000.0,,FEW,3000.0,SCT,8900.0,BKN,15000.0,BKN,25000.0
KRDR,09-08-2002,22:00,METAR,,350,9.0,,,9999.0,Cloud Development Not Observable,24.0,19.0,29.89,1012.2,,,,0,0,0,,,,,,,,,7/8 Mostly Cloudy,9000.0,,FEW,3000.0,SCT,8900.0,BKN,15000.0,BKN,25000.0
KRDR,09-08-2002,21:00,METAR,,340,8.0,,,9999.0,Cloud Development Not Observable,24.0,19.0,29.88,1012.1,,,,0,0,0,,,,,,,,,7/8 Mostly Cloudy,15000.0,,FEW,3000.0,BKN,15000.0,BKN,25000.0,,
KRDR,09-08-2002,20:00,METAR,,30,5.0,,,9999.0,Cloud Development Not Observable,25.0,19.0,29.87,1011.9,,,,0,0,0,,,,,,,,,7/8 Mostly Cloudy,18000.0,,SCT,2000.0,BKN,18000.0,BKN,25000.0,,
KRDR,09-08-2002,19:00,METAR,,10,4.0,,,9999.0,Cloud Development Not Observable,23.0,18.0,29.89,1012.4,,,,0,0,0,,,,,,,,,7/8 Mostly Cloudy,18000.0,,SCT,2000.0,BKN,18000.0,BKN,25000.0,,
KRDR,09-08-2002,18:00,METAR,,360,8.0,,,9999.0,Cloud Development Not Observable,23.0,18.0,29.89,1012.2,,,,0,0,0,,,,,,,,,8/8 Overcast,2000.0,,BKN,2000.0,OVC,18000.0,,,,
KRDR,09-08-2002,17:00,METAR,,10,7.0,,,9999.0,Cloud Development Not Observable,22.0,18.0,29.86,1011.6,,,,0,0,0,,,,,,,,,7/8 Mostly Cloudy,18000.0,,FEW,1500.0,SCT,18000.0,BKN,25000.0,,
KRDR,09-08-2002,16:31,SPECI,,20,8.0,,,9999.0,Cloud Development Not Observable,21.0,18.0,29.87,,,,,0,0,0,,,,,,,,,7/8 Mostly Cloudy,18000.0,,FEW,1500.0,SCT,18000.0,BKN,25000.0,,
KRDR,09-08-2002,16:00,METAR,,350,10.0,,,9999.0,Cloud Development Not Observable,20.0,18.0,29.87,1011.8,,,,0,0,0,,,,,,,,,7/8 Mostly Cloudy,1100.0,,BKN,1100.0,BKN,25000.0,,,,
KRDR,09-08-2002,15:50,METAR,,360,9.0,,,9999.0,Cloud Development Not Observable,20.0,18.0,29.87,,,,,0,0,0,,,,,,,,,7/8 Mostly Cloudy,1000.0,,BKN,1000.0,,,,,,
KRDR,09-08-2002,15:29,SPECI,,330,8.0,,,9999.0,Cloud Development Not Observable,18.0,18.0,29.87,,,,,0,0,0,,,,,,,,,8/8 Overcast,700.0,,OVC,700.0,,,,,,
KRDR,09-08-2002,15:04,SPECI,,350,8.0,,,9999.0,Cloud Development Not Observable,17.0,17.0,29.86,,,,,0,0,0,,,,,,,,,8/8 Overcast,400.0,,OVC,400.0,,,,,,
KRDR,09-08-2002,15:00,METAR,,360,6.0,,,6400.0,Mist/Cloud Development Not Observable,17.0,17.0,29.86,1011.6,,,,10,0,0,,,,,,,,,8/8 Overcast,100.0,,OVC,200.0,,,,,,
KRDR,09-08-2002,14:48,SPECI,,350,6.0,,,3200.0,Mist/Cloud Development Not Observable,17.0,17.0,29.87,,,,,10,0,0,,,,,,,,,8/8 Overcast,100.0,,OVC,200.0,,,,,,
KRDR,09-08-2002,14:39,SPECI,,350,5.0,,,1600.0,Mist/Cloud Development Not Observable,16.0,16.0,29.86,,,,,10,0,0,,,,,,,,,8/8 Overcast,100.0,,OVC,200.0,,,,,,
KRDR,09-08-2002,14:09,SPECI,,360,6.0,,,9999.0,Cloud Development Not Observable,17.0,17.0,29.85,,,,,0,0,0,,,,,,,,,8/8 Overcast,200.0,,OVC,500.0,,,,,,
KRDR,09-08-2002,14:00,METAR,,30,7.0,,,6400.0,Mist/Cloud Development Not Observable,16.0,16.0,29.84,1010.7,,,,10,0,0,,,,,,,,,8/8 Overcast,0.0,,OVC,100.0,,,,,,
KRDR,09-08-2002,13:41,SPECI,,20,8.0,,,1600.0,Mist/Cloud Development Not Observable,16.0,16.0,29.84,,,,,10,0,0,,,,,,,,,8/8 Overcast,0.0,,OVC,100.0,,,,,,
KRDR,09-08-2002,13:31,SPECI,,10,8.0,,,800.0,Fog or Ice Fog/Cloud Development Not Observable,16.0,16.0,29.84,,,,,45,0,0,,,,,,,,,Sky Obscured (Unable to Estimate),0.0,100.0,,0.0,,,,,,
KRDR,09-08-2002,13:10,SPECI,,30,8.0,,,8000.0,Mist/Cloud Development Not Observable,16.0,16.0,29.83,,,,,10,0,0,,,,,,,,,8/8 Overcast,100.0,,OVC,300.0,,,,,,
KRDR,09-08-2002,13:00,METAR,,20,6.0,,,6400.0,Mist/Cloud Development Not Observable,16.0,16.0,29.83,1010.3,,,,10,0,0,,,,,,,,,8/8 Overcast,0.0,,OVC,100.0,,,,,,
KRDR,09-08-2002,12:33,SPECI,,20,6.0,,,5200.0,Mist/Cloud Development Not Observable,16.0,16.0,29.82,,,,,10,0,0,,,,,,,,,8/8 Overcast,0.0,,OVC,100.0,,,,,,
KRDR,09-08-2002,12:00,METAR,,350,7.0,,,9999.0,Cloud Development Not Observable,16.0,16.0,29.84,1010.5,,,,0,0,0,,,,,,,,,8/8 Overcast,400.0,,OVC,400.0,,,,,,
KRDR,09-08-2002,10:00,METAR,,350,6.0,,,9999.0,Cloud Development Not Observable,16.0,16.0,29.83,1010.1,,,,0,0,0,,,,,,,,,8/8 Overcast,400.0,,OVC,400.0,,,,,,
KRDR,09-08-2002,09:32,SPECI,,10,6.0,,,9999.0,Cloud Development Not Observable,16.0,16.0,29.82,,,,,0,0,0,,,,,,,,,7/8 Mostly Cloudy,600.0,,BKN,600.0,BKN,9900.0,,,,
KRDR,09-08-2002,09:00,METAR,,360,4.0,,,9999.0,Cloud Development Not Observable,16.0,16.0,29.83,1010.1,,,,0,0,0,,,,,,,,,7/8 Mostly Cloudy,10000.0,,FEW,700.0,BKN,9900.0,BKN,25000.0,,
KRDR,09-08-2002,08:00,METAR,,350,5.0,,,9999.0,Cloud Development Not Observable,17.0,17.0,29.83,1010.0,,,,0,0,0,,,,,,,,,7/8 Mostly Cloudy,25000.0,,SCT,11000.0,BKN,25000.0,,,,
KRDR,09-08-2002,07:00,METAR,,10,5.0,,,9999.0,Cloud Development Not Observable,17.0,17.0,29.83,1010.1,,,,0,0,0,,,,,,,,,7/8 Mostly Cloudy,25000.0,,FEW,9900.0,BKN,25000.0,,,,
KRDR,09-08-2002,06:00,METAR,,340,4.0,,,9999.0,Cloud Development Not Observable,18.0,17.0,29.83,1010.1,,,,0,0,0,,,,,,,,,7/8 Mostly Cloudy,25000.0,,FEW,9900.0,BKN,25000.0,,,,
KRDR,09-08-2002,05:00,METAR,,360,5.0,,,9999.0,Cloud Development Not Observable,18.0,18.0,29.81,1009.5,,,,0,0,0,,,,,,,,,7/8 Mostly Cloudy,25000.0,,FEW,9900.0,BKN,25000.0,,,,
KRDR,09-08-2002,04:00,METAR,,350,10.0,,,9999.0,Cloud Development Not Observable,19.0,18.0,29.81,1008.6,,,,0,0,0,,,,,,,,,7/8 Mostly Cloudy,25000.0,,SCT,9900.0,BKN,25000.0,,,,
KRDR,09-08-2002,03:00,METAR,,350,13.0,,,9999.0,Cloud Development Not Observable,21.0,19.0,29.78,1008.6,,,,0,0,0,,,,,,,,,7/8 Mostly Cloudy,25000.0,,BKN,25000.0,,,,,,
KRDR,09-08-2002,02:07,SPECI,,340,15.0,,,9999.0,Cloud Development Not Observable,23.0,21.0,29.75,,,,,0,0,0,,,,,,,,,7/8 Mostly Cloudy,25000.0,,BKN,25000.0,,,,,,
KRDR,09-08-2002,02:00,METAR,,210,7.0,,,9999.0,Cloud Development Not Observable,28.0,19.0,29.73,1006.7,,,,0,0,0,,,,,,,,,7/8 Mostly Cloudy,25000.0,,FEW,8900.0,BKN,25000.0,,,,
KRDR,09-08-2002,01:00,METAR,,170,10.0,,,9999.0,Cloud Development Not Observable,30.0,19.0,29.68,1005.1,,,,0,0,0,,,,,,,,,4/8 Partly Cloudy,72000.0,,FEW,8900.0,SCT,25000.0,,,,
KRDR,09-08-2002,00:00,METAR,,180,12.0,,,9999.0,Cloud Development Not Observable,33.0,18.0,29.68,1005.0,,,,0,0,0,,,,,,,,,4/8 Partly Cloudy,72000.0,,SCT,14000.0,SCT,25000.0,,,,
KRDR,09-07-2002,23:00,METAR,,190,18.0,26.0,,9999.0,Cloud Development Not Observable,34.0,18.0,29.67,1004.6,,,,0,0,0,,,,,,,,,4/8 Partly Cloudy,72000.0,,FEW,14000.0,SCT,25000.0,,,,
KRDR,09-07-2002,22:00,METAR,,200,18.0,25.0,200/29KTS,9999.0,Cloud Development Not Observable,35.0,18.0,29.67,1004.6,,,,0,0,0,,,,,,,,,2/8 Mostly Clear,72000.0,,FEW,14000.0,FEW,25000.0,,,,
KRDR,09-07-2002,21:00,METAR,,200,21.0,30.0,200/33KTS,9999.0,Cloud Development Not Observable,35.0,19.0,29.67,1004.4,,,,0,0,0,,,,,,,,,2/8 Mostly Clear,72000.0,,FEW,14000.0,FEW,25000.0,,,,
KRDR,09-07-2002,20:00,METAR,,200,22.0,29.0,,9999.0,Cloud Development Not Observable,35.0,19.0,29.67,1004.6,,,,0,0,0,,,,,,,,,4/8 Partly Cloudy,72000.0,,SCT,25000.0,,,,,,
KRDR,09-07-2002,19:40,SPECI,,200,18.0,27.0,,9999.0,Cloud Development Not Observable,36.0,19.0,29.67,,,,,0,0,0,,,,,,,,,4/8 Partly Cloudy,72000.0,,SCT,25000.0,,,,,,
KRDR,09-07-2002,19:00,METAR,,180,14.0,,,9999.0,Cloud Development Not Observable,34.0,22.0,29.68,1005.8,,,,0,0,0,,,,,,,,,4/8 Partly Cloudy,72000.0,,SCT,25000.0,,,,,,
KRDR,09-07-2002,18:00,METAR,,170,16.0,,,9999.0,Cloud Development Not Observable,30.0,21.0,29.71,1005.9,,,,0,0,0,,,,,,,,,4/8 Partly Cloudy,72000.0,,SCT,25000.0,,,,,,
KRDR,09-07-2002,17:00,METAR,,160,6.0,,,9999.0,Cloud Development Not Observable,26.0,22.0,29.73,1006.8,,,,0,0,0,,,,,,,,,7/8 Mostly Cloudy,25000.0,,FEW,800.0,BKN,25000.0,,,,
KRDR,09-07-2002,16:20,METAR,,200,5.0,,,9999.0,Mist/Cloud Development Not Observable,22.0,21.0,29.75,,,,,10,0,0,,,,,,,,,7/8 Mostly Cloudy,25000.0,,SCT,800.0,BKN,25000.0,,,,
KRDR,09-07-2002,16:08,SPECI,,180,6.0,,,9999.0,Mist/Cloud Development Not Observable,21.0,21.0,29.76,,,,,10,0,0,,,,,,,,,7/8 Mostly Cloudy,800.0,,BKN,800.0,,,,,,
KRDR,09-07-2002,16:00,METAR,,140,7.0,,,9999.0,Mist/Cloud Development Not Observable,20.0,20.0,29.75,1007.7,,,,10,0,0,,,,,,,,,8/8 Overcast,500.0,,OVC,500.0,,,,,,
KRDR,09-07-2002,15:42,SPECI,,150,6.0,,,7200.0,Mist/Cloud Development Not Observable,19.0,19.0,29.75,,,,,10,0,0,,,,,,,,,8/8 Overcast,500.0,,OVC,500.0,,,,,,
KRDR,09-07-2002,15:38,SPECI,,130,6.0,,,5600.0,Mist/Cloud Development Not Observable,19.0,19.0,29.76,,,,,10,0,0,,,,,,,,,8/8 Overcast,200.0,,OVC,200.0,,,,,,
KRDR,09-07-2002,15:30,METAR,,130,6.0,,,4000.0,Mist/Cloud Development Not Observable,19.0,19.0,29.76,,,,,10,0,0,,,,,,,,,8/8 Overcast,200.0,,OVC,200.0,,,,,,
KRDR,09-07-2002,15:00,METAR,,120,9.0,,,1200.0,Mist/Cloud Development Not Observable,17.0,17.0,29.75,1007.7,,,,10,0,0,,,,,,,,,8/8 Overcast,100.0,,OVC,100.0,,,,,,
KRDR,09-07-2002,14:41,SPECI,,130,6.0,,,1200.0,Mist/Cloud Development Not Observable,17.0,17.0,29.76,,,,,10,0,0,,,,,,,,,8/8 Overcast,100.0,,OVC,100.0,,,,,,
KRDR,09-07-2002,14:00,METAR,,40,5.0,,,2000.0,Mist/Cloud Development Not Observable,16.0,16.0,29.78,1008.7,,,,10,0,0,,,,,,,,,8/8 Overcast,200.0,,OVC,200.0,,,,,,
KRDR,09-07-2002,13:00,METAR,,30,6.0,,,1600.0,Mist/Cloud Development Not Observable,16.0,16.0,29.79,1009.0,,,,10,0,0,,,,,,,,,8/8 Overcast,300.0,,OVC,300.0,,,,,,
KRDR,09-07-2002,12:00,METAR,,360,8.0,,,3200.0,Mist/Cloud Development Not Observable,16.0,16.0,29.80,1009.2,,,,10,0,0,,,,,,,,,8/8 Overcast,200.0,,OVC,200.0,,,,,,
KRDR,09-07-2002,11:29,SPECI,,360,9.0,,,2400.0,Mist/Cloud Development Not Observable,16.0,16.0,29.80,,,,,10,0,0,,,,,,,,,8/8 Overcast,200.0,,OVC,200.0,,,,,,
KRDR,09-07-2002,11:10,SPECI,,360,9.0,,,2400.0,Mist/Cloud Development Not Observable,17.0,17.0,29.80,,,,,10,0,0,,,,,,,,,8/8 Overcast,200.0,,OVC,200.0,,,,,,
KRDR,09-07-2002,11:00,METAR,,360,9.0,,,2400.0,Mist/Cloud Development Not Observable,17.0,17.0,29.78,1008.4,,,,10,0,0,,,,,,,,,8/8 Overcast,200.0,,OVC,200.0,,,,,,
KRDR,09-07-2002,10:36,SPECI,,330,9.0,,,1200.0,Mist/Cloud Development Not Observable,17.0,17.0,29.79,,,,,10,0,0,,,,,,,,,8/8 Overcast,200.0,,OVC,200.0,,,,,,
KRDR,09-07-2002,10:18,SPECI,,350,7.0,,,2000.0,Mist/Cloud Development Not Observable,17.0,17.0,29.78,,,,,10,0,0,,,,,,,,,8/8 Overcast,200.0,,OVC,200.0,,,,,,
KRDR,09-07-2002,10:00,METAR,,30,5.0,,,6400.0,Mist/Cloud Development Not Observable,17.0,17.0,29.76,1007.7,,,,10,0,0,,,,,,,,,8/8 Overcast,400.0,,OVC,400.0,,,,,,
KRDR,09-07-2002,09:00,METAR,,10,8.0,,,6400.0,Mist/Cloud Development Not Observable,18.0,18.0,29.75,1007.3,,,,10,0,0,,,,,,,,,8/8 Overcast,400.0,,OVC,400.0,,,,,,
KRDR,09-07-2002,08:00,METAR,,350,8.0,,,8000.0,Mist/Cloud Development Not Observable,18.0,18.0,29.77,1008.0,,,,10,0,0,,,,,,,,,8/8 Overcast,400.0,,OVC,400.0,,,,,,
KRDR,09-07-2002,07:00,METAR,,330,11.0,,,6400.0,Mist/Cloud Development Not Observable,19.0,19.0,29.77,1008.1,,,,10,0,0,,,,,,,,,8/8 Overcast,400.0,,OVC,400.0,,,,,,
KRDR,09-07-2002,06:00,METAR,,350,10.0,,,6400.0,Mist/Cloud Development Not Observable,19.0,19.0,29.74,1007.0,,,,10,0,0,,,,,,,,,8/8 Overcast,400.0,,FEW,100.0,OVC,400.0,,,,
KRDR,09-07-2002,05:30,METAR,,340,8.0,,,6400.0,Mist/Cloud Development Not Observable,19.0,19.0,29.75,,,,,10,0,0,,,,,,,,,7/8 Mostly Cloudy,400.0,,BKN,400.0,BKN,25000.0,,,,
KRDR,09-07-2002,05:05,SPECI,,330,9.0,,,8000.0,Mist/Cloud Development Not Observable,20.0,20.0,29.75,,,,,10,0,0,,,,,,,,,7/8 Mostly Cloudy,25000.0,,FEW,500.0,BKN,25000.0,,,,
KRDR,09-07-2002,05:00,METAR,,350,6.0,,,8000.0,Mist/Cloud Development Not Observable,20.0,20.0,29.73,1006.7,,,,10,0,0,,,,,,,,,7/8 Mostly Cloudy,25000.0,,BKN,25000.0,,,,,,
KRDR,09-07-2002,03:00,METAR,,280,3.0,,,9999.0,Cloud Development Not Observable,23.0,23.0,29.74,1007.1,,,,0,0,0,,,,,,,,,7/8 Mostly Cloudy,25000.0,,BKN,25000.0,,,,,,
KRDR,09-07-2002,02:00,METAR,,120,6.0,,,9999.0,Cloud Development Not Observable,25.0,23.0,29.73,1006.8,,,,0,0,0,,,,,,,,,4/8 Partly Cloudy,72000.0,,SCT,25000.0,,,,,,
KRDR,09-07-2002,01:00,METAR,,130,6.0,,,9999.0,Haze/Cloud Development Not Observable,27.0,23.0,29.72,1006.4,,,,5,0,0,,,,,,,,,4/8 Partly Cloudy,72000.0,,SCT,25000.0,,,,,,
KRDR,09-07-2002,00:00,METAR,,140,7.0,,,9999.0,Haze/Cloud Development Not Observable,29.0,23.0,29.71,1006.0,,,,5,0,0,,,,,,,,,2/8 Mostly Clear,72000.0,,FEW,25000.0,,,,,,
KRDR,09-06-2002,23:00,METAR,,160,9.0,,,9999.0,Haze/Cloud Development Not Observable,30.0,22.0,29.72,1006.3,,,,5,0,0,,,,,,,,,2/8 Mostly Clear,72000.0,,FEW,4000.0,FEW,25000.0,,,,
KRDR,09-06-2002,22:00,METAR,,150,14.0,,,9999.0,Haze/Cloud Development Not Observable,30.0,22.0,29.72,1006.3,,,,5,0,0,,,,,,,,,2/8 Mostly Clear,72000.0,,FEW,4000.0,FEW,8900.0,,,,
KRDR,09-06-2002,21:00,METAR,,150,10.0,,,9999.0,Haze/Cloud Development Not Observable,30.0,22.0,29.73,1006.7,,,,5,0,0,,,,,,,,,4/8 Partly Cloudy,72000.0,,FEW,4000.0,FEW,12000.0,SCT,25000.0,,
KRDR,09-06-2002,20:00,METAR,,170,9.0,,,9999.0,Cloud Development Not Observable,30.0,22.0,29.75,1007.5,,,,0,0,0,,,,,,,,,4/8 Partly Cloudy,72000.0,,FEW,2500.0,SCT,12000.0,,,,
KRDR,09-06-2002,19:00,METAR,,150,11.0,,,9999.0,Haze/Cloud Development Not Observable,28.0,23.0,29.75,1007.6,,,,5,0,0,,,,,,,,,4/8 Partly Cloudy,72000.0,,FEW,2500.0,SCT,12000.0,SCT,25000.0,,
KRDR,09-06-2002,18:00,METAR,,160,15.0,,,9999.0,Haze/Cloud Development Not Observable,28.0,23.0,29.77,1008.2,,,,5,0,0,,,,,,,,,4/8 Partly Cloudy,72000.0,,SCT,2500.0,SCT,12000.0,SCT,25000.0,,
KRDR,09-06-2002,17:43,SPECI,,150,16.0,,,9999.0,Haze/Cloud Development Not Observable,27.0,22.0,29.77,,,,,5,0,0,,,,,,,,,4/8 Partly Cloudy,72000.0,,SCT,2500.0,SCT,12000.0,,,,
KRDR,09-06-2002,17:00,METAR,,150,11.0,,,8000.0,Mist/Cloud Development Not Observable,24.0,22.0,29.79,1009.0,,,,10,0,0,,,,,,,,,7/8 Mostly Cloudy,1500.0,,BKN,1500.0,BKN,2000.0,,,,
KRDR,09-06-2002,16:48,SPECI,,140,10.0,,,8000.0,Mist/Cloud Development Not Observable,24.0,22.0,29.79,,,,,10,0,0,,,,,,,,,7/8 Mostly Cloudy,1500.0,,BKN,1500.0,BKN,2000.0,,,,
KRDR,09-06-2002,16:31,SPECI,,130,9.0,,,8000.0,Mist/Cloud Development Not Observable,23.0,22.0,29.80,,,,,10,0,0,,,,,,,,,8/8 Overcast,1200.0,,BKN,1200.0,OVC,1500.0,,,,
KRDR,09-06-2002,16:11,SPECI,,130,9.0,,,8000.0,Mist/Cloud Development Not Observable,22.0,22.0,29.81,,,,,10,0,0,,,,,,,,,8/8 Overcast,800.0,,BKN,800.0,OVC,1200.0,,,,
KRDR,09-06-2002,16:00,METAR,,110,6.0,,,6400.0,Mist/Cloud Development Not Observable,21.0,21.0,29.82,1010.1,,,,10,0,0,,,,,,,,,8/8 Overcast,500.0,,BKN,500.0,OVC,800.0,,,,
KRDR,09-06-2002,15:38,SPECI,,80,4.0,,,6400.0,Mist/Cloud Development Not Observable,21.0,21.0,29.82,,,,,10,0,0,,,,,,,,,8/8 Overcast,500.0,,BKN,500.0,OVC,800.0,,,,
KRDR,09-06-2002,15:20,METAR,,50,3.0,,,4800.0,Mist/Cloud Development Not Observable,20.0,20.0,29.83,,,,,10,0,0,,,,,,,,,8/8 Overcast,500.0,,BKN,500.0,OVC,800.0,,,,
KRDR,09-06-2002,15:00,METAR,,40,5.0,,,4000.0,Mist/Cloud Development Not Observable,19.0,19.0,29.84,1010.9,,,,10,0,0,,,,,,,,,8/8 Overcast,400.0,,BKN,400.0,OVC,800.0,,,,
KRDR,09-06-2002,14:30,METAR,,50,4.0,,,4000.0,Mist/Cloud Development Not Observable,18.0,18.0,29.84,,,,,10,0,0,,,,,,,,,8/8 Overcast,400.0,,OVC,400.0,,,,,,
KRDR,09-06-2002,14:00,METAR,,40,3.0,,,4400.0,Mist/Cloud Development Not Observable,18.0,18.0,29.86,1011.5,,,,10,0,0,,,,,,,,,8/8 Overcast,400.0,,OVC,400.0,,,,,,
KRDR,09-06-2002,13:31,SPECI,,20,5.0,,,4400.0,Mist/Cloud Development Not Observable,17.0,17.0,29.86,,,,,10,0,0,,,,,,,,,8/8 Overcast,400.0,,OVC,400.0,,,,,,
KRDR,09-06-2002,13:00,METAR,,10,6.0,,,4800.0,Mist/Cloud Development Not Observable,17.0,17.0,29.87,1011.8,,,,10,0,0,,,,,,,,,8/8 Overcast,400.0,,OVC,400.0,,,,,,
KRDR,09-06-2002,12:00,METAR,,20,4.0,,,8000.0,Mist/Cloud Development Not Observable,17.0,17.0,29.86,1011.3,,,,10,0,0,,,,,,,,,8/8 Overcast,400.0,,OVC,400.0,,,,,,
KRDR,09-06-2002,11:00,METAR,,350,6.0,,,8000.0,Mist/Cloud Development Not Observable,16.0,16.0,29.86,1011.3,,,,10,0,0,,,,,,,,,8/8 Overcast,300.0,,OVC,300.0,,,,,,
KRDR,09-06-2002,10:38,SPECI,,350,4.0,,,6400.0,Mist/Cloud Development Not Observable,16.0,16.0,29.86,,,,,10,0,0,,,,,,,,,7/8 Mostly Cloudy,300.0,,BKN,300.0,,,,,,
KRDR,09-06-2002,10:12,SPECI,,350,4.0,,,9999.0,Mist/Cloud Development Not Observable,16.0,16.0,29.86,,,,,10,0,0,,,,,,,,,7/8 Mostly Cloudy,400.0,,BKN,400.0,,,,,,
KRDR,09-06-2002,10:00,METAR,,360,3.0,,,9999.0,Mist/Cloud Development Not Observable,16.0,16.0,29.86,1011.3,,,,10,0,0,,,,,,,,,7/8 Mostly Cloudy,800.0,,SCT,400.0,BKN,800.0,,,,
KRDR,09-06-2002,08:38,SPECI,,320,3.0,,,9999.0,Mist/Cloud Development Not Observable,16.0,16.0,29.88,,,,,10,0,0,,,,,,,,,7/8 Mostly Cloudy,800.0,,FEW,500.0,BKN,800.0,,,,
KRDR,09-06-2002,08:28,SPECI,,320,3.0,,,9999.0,Mist/Cloud Development Not Observable,16.0,16.0,29.88,,,,,10,0,0,,,,,,,,,2/8 Mostly Clear,72000.0,,FEW,500.0,,,,,,
KRDR,09-06-2002,08:00,METAR,,,3.0,,,9999.0,Cloud Development Not Observable,18.0,18.0,29.88,1012.0,,,,0,0,0,,,,,,,,,Clear,72000.0,,,73000.0,,,,,,
KRDR,09-06-2002,07:00,METAR,,340,2.0,,,9999.0,Cloud Development Not Observable,17.0,17.0,29.88,1012.0,,,,0,0,0,,,,,,,,,Clear,72000.0,,,73000.0,,,,,,
KRDR,09-06-2002,06:00,METAR,,310,3.0,,,9999.0,Cloud Development Not Observable,18.0,18.0,29.87,1011.6,,,,0,0,0,,,,,,,,,Clear,72000.0,,,73000.0,,,,,,
KRDR,09-06-2002,05:00,METAR,,340,3.0,,,9999.0,Cloud Development Not Observable,18.0,18.0,29.88,1012.0,,,,0,0,0,,,,,,,,,Clear,72000.0,,,73000.0,,,,,,
KRDR,09-06-2002,04:00,METAR,,330,4.0,,,9999.0,Cloud Development Not Observable,19.0,19.0,29.88,1012.0,,,,0,0,0,,,,,,,,,Clear,72000.0,,,73000.0,,,,,,
KRDR,09-06-2002,03:00,METAR,,350,6.0,,,9999.0,Cloud Development Not Observable,20.0,19.0,29.89,1012.2,,,,0,0,0,,,,,,,,,Clear,72000.0,,,73000.0,,,,,,
KRDR,09-06-2002,02:00,METAR,,360,12.0,,,9999.0,Cloud Development Not Observable,23.0,21.0,29.86,1011.5,,,,0,0,0,,,,,,,,,2/8 Mostly Clear,72000.0,,FEW,25000.0,,,,,,
KRDR,09-06-2002,01:00,METAR,,,6.0,,,9999.0,Cloud Development Not Observable,25.0,22.0,29.85,1011.0,,,,0,0,0,,,,,,,,,2/8 Mostly Clear,72000.0,,FEW,25000.0,,,,,,
KRDR,09-06-2002,00:00,METAR,,10,8.0,,,9999.0,Cloud Development Not Observable,28.0,22.0,29.84,1010.7,,,,0,0,0,,,,,,,,,Clear,72000.0,,,73000.0,,,,,,
KRDR,09-05-2002,23:00,METAR,,,5.0,,,9999.0,Cloud Development Not Observable,29.0,22.0,29.84,1010.5,,,,0,0,0,,,,,,,,,Clear,72000.0,,,73000.0,,,,,,
KRDR,09-05-2002,22:00,METAR,,,3.0,,,9999.0,Cloud Development Not Observable,29.0,22.0,29.83,1010.3,,,,0,0,0,,,,,,,,,2/8 Mostly Clear,72000.0,,FEW,3000.0,,,,,,
KRDR,09-05-2002,21:00,METAR,,,2.0,,,9999.0,Cloud Development Not Observable,29.0,21.0,29.83,,,,,0,0,0,,,,,,,,,2/8 Mostly Clear,72000.0,,FEW,3000.0,,,,,,
KRDR,09-05-2002,17:00,METAR,,30,6.0,,,9999.0,Cloud Development Not Observable,25.0,21.0,29.85,1011.0,,,,0,0,0,,,,,,,,,4/8 Partly Cloudy,72000.0,,FEW,2500.0,SCT,20000.0,,,,
KRDR,09-05-2002,14:00,METAR,,350,7.0,,,9999.0,Cloud Development Not Observable,19.0,19.0,29.84,1010.8,,,,0,0,0,,,,,,,,,7/8 Mostly Cloudy,15000.0,,BKN,15000.0,BKN,20000.0,,,,
KRDR,09-05-2002,13:00,METAR,,310,4.0,,,9999.0,Cloud Development Not Observable,17.0,17.0,29.83,1010.5,,,,0,0,0,,,,,,,,,7/8 Mostly Cloudy,15000.0,,BKN,15000.0,BKN,20000.0,,,,
KRDR,09-05-2002,12:00,METAR,,350,5.0,,,9999.0,Cloud Development Not Observable,16.0,16.0,29.84,1010.6,,,,0,0,0,,,,,,,,,7/8 Mostly Cloudy,15000.0,,BKN,15000.0,BKN,20000.0,,,,
KRDR,09-05-2002,11:00,METAR,,,1.0,,,9999.0,Cloud Development Not Observable,19.0,18.0,29.83,1010.2,,,,0,0,0,,,,,,,,,7/8 Mostly Cloudy,20000.0,,SCT,15000.0,BKN,20000.0,,,,
KRDR,09-05-2002,10:00,METAR,,180,5.0,,,9999.0,Cloud Development Not Observable,20.0,19.0,29.83,1010.1,,,,0,0,0,,,,,,,,,7/8 Mostly Cloudy,20000.0,,BKN,20000.0,,,,,,
KRDR,09-05-2002,09:00,METAR,,150,4.0,,,9999.0,Cloud Development Not Observable,19.0,18.0,29.83,1010.1,,,,0,0,0,,,,,,,,,7/8 Mostly Cloudy,20000.0,,BKN,20000.0,,,,,,
KRDR,09-05-2002,08:00,METAR,,140,5.0,,,9999.0,Cloud Development Not Observable,19.0,18.0,29.84,1010.5,,,,0,0,0,,,,,,,,,7/8 Mostly Cloudy,20000.0,,BKN,20000.0,,,,,,
KRDR,09-05-2002,07:00,METAR,,130,5.0,,,9999.0,Cloud Development Not Observable,19.0,18.0,29.85,1010.9,,,,0,0,0,,,,,,,,,4/8 Partly Cloudy,72000.0,,SCT,20000.0,,,,,,
KRDR,09-05-2002,06:00,METAR,,140,8.0,,,9999.0,Cloud Development Not Observable,20.0,17.0,29.85,1010.8,,,,0,0,0,,,,,,,,,4/8 Partly Cloudy,72000.0,,SCT,20000.0,,,,,,
KRDR,09-05-2002,05:00,METAR,,130,9.0,,,9999.0,Cloud Development Not Observable,20.0,17.0,29.85,1010.9,,,,0,0,0,,,,,,,,,4/8 Partly Cloudy,72000.0,,SCT,20000.0,,,,,,
KRDR,09-05-2002,04:00,METAR,,130,8.0,,,9999.0,Cloud Development Not Observable,22.0,17.0,29.85,1010.9,,,,0,0,0,,,,,,,,,4/8 Partly Cloudy,72000.0,,SCT,20000.0,,,,,,
KRDR,09-05-2002,03:00,METAR,,140,7.0,,,9999.0,Cloud Development Not Observable,22.0,17.0,29.86,1011.3,,,,0,0,0,,,,,,,,,7/8 Mostly Cloudy,20000.0,,BKN,20000.0,,,,,,
KRDR,09-05-2002,02:00,METAR,,140,9.0,,,9999.0,Cloud Development Not Observable,23.0,18.0,29.84,1010.8,,,,0,0,0,,,,,,,,,7/8 Mostly Cloudy,20000.0,,BKN,20000.0,,,,,,
KRDR,09-05-2002,01:00,METAR,,130,9.0,,,9999.0,Cloud Development Not Observable,24.0,18.0,29.84,1010.6,,,,0,0,0,,,,,,,,,7/8 Mostly Cloudy,20000.0,,BKN,20000.0,,,,,,
KRDR,09-05-2002,00:00,METAR,,140,10.0,,,9999.0,Cloud Development Not Observable,26.0,17.0,29.85,1011.0,,,,0,0,0,,,,,,,,,7/8 Mostly Cloudy,20000.0,,BKN,20000.0,,,,,,
KRDR,09-04-2002,23:00,METAR,,130,10.0,,,9999.0,Cloud Development Not Observable,28.0,17.0,29.86,1011.5,,,,0,0,0,,,,,,,,,7/8 Mostly Cloudy,20000.0,,BKN,20000.0,,,,,,
KRDR,09-04-2002,22:00,METAR,,170,17.0,,,9999.0,Cloud Development Not Observable,29.0,16.0,29.88,1012.0,,,,0,0,0,,,,,,,,,7/8 Mostly Cloudy,20000.0,,BKN,20000.0,,,,,,
KRDR,09-04-2002,21:00,METAR,,160,16.0,22.0,,9999.0,Cloud Development Not Observable,29.0,16.0,29.90,1012.5,,,,0,0,0,,,,,,,,,7/8 Mostly Cloudy,25000.0,,BKN,25000.0,,,,,,
KRDR,09-04-2002,20:00,METAR,,170,17.0,25.0,,9999.0,Cloud Development Not Observable,29.0,16.0,29.89,1012.3,,,,0,0,0,,,,,,,,,4/8 Partly Cloudy,72000.0,,FEW,15000.0,SCT,25000.0,,,,
KRDR,09-04-2002,19:00,METAR,,170,18.0,27.0,,9999.0,Cloud Development Not Observable,28.0,15.0,29.89,1013.0,,,,0,0,0,,,,,,,,,2/8 Mostly Clear,72000.0,,FEW,20000.0,,,,,,
KRDR,09-04-2002,18:00,METAR,,160,14.0,20.0,,9999.0,Cloud Development Not Observable,28.0,15.0,29.91,1013.0,,,,0,0,0,,,,,,,,,4/8 Partly Cloudy,72000.0,,SCT,20000.0,,,,,,
KRDR,09-04-2002,16:00,METAR,,140,12.0,,,9999.0,Cloud Development Not Observable,24.0,16.0,29.97,1015.3,,,,0,0,0,,,,,,,,,4/8 Partly Cloudy,72000.0,,SCT,25000.0,,,,,,
KRDR,09-04-2002,15:00,METAR,,150,12.0,,,9999.0,Cloud Development Not Observable,21.0,16.0,29.98,1015.4,,,,0,0,0,,,,,,,,,4/8 Partly Cloudy,72000.0,,SCT,25000.0,,,,,,
KRDR,09-04-2002,14:00,METAR,,140,10.0,,,9999.0,Cloud Development Not Observable,18.0,15.0,29.99,1015.8,,,,0,0,0,,,,,,,,,7/8 Mostly Cloudy,25000.0,,BKN,25000.0,,,,,,
KRDR,09-04-2002,13:00,METAR,,130,10.0,,,9999.0,Cloud Development Not Observable,16.0,15.0,29.99,1016.0,,,,0,0,0,,,,,,,,,4/8 Partly Cloudy,72000.0,,SCT,25000.0,,,,,,
KRDR,09-04-2002,12:00,METAR,,130,9.0,,,9999.0,Cloud Development Not Observable,14.0,14.0,29.99,1016.0,,,,0,0,0,,,,,,,,,4/8 Partly Cloudy,72000.0,,FEW,20000.0,SCT,25000.0,,,,
KRDR,09-04-2002,11:00,METAR,,150,7.0,,,9999.0,Cloud Development Not Observable,15.0,14.0,29.99,1015.9,,,,0,0,0,,,,,,,,,Clear,72000.0,,,73000.0,,,,,,
KRDR,09-04-2002,10:00,METAR,,130,9.0,,,9999.0,Cloud Development Not Observable,15.0,14.0,29.98,1015.6,,,,0,0,0,,,,,,,,,Clear,72000.0,,,73000.0,,,,,,
KRDR,09-04-2002,09:00,METAR,,120,8.0,,,9999.0,Cloud Development Not Observable,15.0,14.0,29.99,1015.9,,,,0,0,0,,,,,,,,,Clear,72000.0,,,73000.0,,,,,,
KRDR,09-04-2002,08:00,METAR,,120,5.0,,,9999.0,Cloud Development Not Observable,15.0,14.0,30.01,1016.6,,,,0,0,0,,,,,,,,,Clear,72000.0,,,73000.0,,,,,,
KRDR,09-04-2002,07:00,METAR,,110,6.0,,,9999.0,Cloud Development Not Observable,16.0,14.0,30.01,1016.4,,,,0,0,0,,,,,,,,,Clear,72000.0,,,73000.0,,,,,,
KRDR,09-04-2002,06:00,METAR,,120,6.0,,,9999.0,Cloud Development Not Observable,16.0,14.0,30.01,1016.4,,,,0,0,0,,,,,,,,,Clear,72000.0,,,73000.0,,,,,,
KRDR,09-04-2002,05:00,METAR,,110,4.0,,,9999.0,Cloud Development Not Observable,17.0,14.0,30.02,1016.8,,,,0,0,0,,,,,,,,,2/8 Mostly Clear,72000.0,,FEW,3000.0,,,,,,
KRDR,09-04-2002,04:00,METAR,,110,5.0,,,9999.0,Cloud Development Not Observable,18.0,15.0,30.01,1016.5,,,,0,0,0,,,,,,,,,Clear,72000.0,,,73000.0,,,,,,
KRDR,09-04-2002,03:00,METAR,,110,6.0,,,9999.0,Cloud Development Not Observable,19.0,14.0,30.01,1016.5,,,,0,0,0,,,,,,,,,Clear,72000.0,,,73000.0,,,,,,
KRDR,09-04-2002,02:00,METAR,,110,6.0,,,9999.0,Cloud Development Not Observable,20.0,14.0,30.00,1016.2,,,,0,0,0,,,,,,,,,Clear,72000.0,,,73000.0,,,,,,
KRDR,09-04-2002,01:00,METAR,,110,7.0,,,9999.0,Cloud Development Not Observable,21.0,14.0,29.98,1015.6,,,,0,0,0,,,,,,,,,Clear,72000.0,,,73000.0,,,,,,
KRDR,09-04-2002,00:00,METAR,,130,8.0,,,9999.0,Cloud Development Not Observable,24.0,13.0,29.98,1015.6,,,,0,0,0,,,,,,,,,2/8 Mostly Clear,72000.0,,FEW,25000.0,,,,,,
KRDR,09-03-2002,23:00,METAR,,120,9.0,,,9999.0,Cloud Development Not Observable,25.0,12.0,29.98,1015.5,,,,0,0,0,,,,,,,,,Clear,72000.0,,,73000.0,,,,,,
KRDR,09-03-2002,22:00,METAR,,,6.0,,,9999.0,Cloud Development Not Observable,26.0,10.0,29.97,1015.1,,,,0,0,0,,,,,,,,,Clear,72000.0,,,73000.0,,,,,,
KRDR,09-03-2002,21:00,METAR,,,3.0,,,9999.0,Cloud Development Not Observable,26.0,10.0,29.97,1015.1,,,,0,0,0,,,,,,,,,Clear,72000.0,,,73000.0,,,,,,
KRDR,09-03-2002,20:00,METAR,,,4.0,,,9999.0,Cloud Development Not Observable,25.0,10.0,29.98,1015.5,,,,0,0,0,,,,,,,,,Clear,72000.0,,,73000.0,,,,,,
KRDR,09-03-2002,19:00,METAR,,,2.0,,,9999.0,Cloud Development Not Observable,25.0,9.0,29.98,1015.5,,,,0,0,0,,,,,,,,,Clear,72000.0,,,73000.0,,,,,,
KRDR,09-03-2002,17:55,METAR,,,6.0,,,9999.0,Cloud Development Not Observable,24.0,9.0,29.98,1015.5,,,,0,0,0,,,,,,,,,Clear,72000.0,,,73000.0,,,,,,
KRDR,09-03-2002,17:13,SPECI,Normal,320,5.0,,,,Cloud Development Not Observable,23.0,9.0,29.98,1015.5,,,,0,0,0,,,,,,,,,,72000.0,,,,,,,,,
KRDR,09-03-2002,17:00,METAR,,320,5.0,,,9999.0,Cloud Development Not Observable,23.0,9.0,29.98,1015.5,,,,0,0,0,,,,,,,,,Clear,72000.0,,,73000.0,,,,,,
KRDR,09-03-2002,16:00,METAR,,290,8.0,,,9999.0,Cloud Development Not Observable,21.0,10.0,29.98,1015.5,,,,0,0,0,,,,,,,,,Clear,72000.0,,,73000.0,,,,,,
KRDR,09-03-2002,15:00,METAR,,310,8.0,,,9999.0,Cloud Development Not Observable,19.0,11.0,29.97,1015.2,,,,0,0,0,,,,,,,,,Clear,72000.0,,,73000.0,,,,,,
KRDR,09-03-2002,14:00,METAR,,270,9.0,,,9999.0,Cloud Development Not Observable,16.0,11.0,29.96,1014.9,,,,0,0,0,,,,,,,,,2/8 Mostly Clear,72000.0,,FEW,25000.0,,,,,,
KRDR,09-03-2002,13:00,METAR,,260,7.0,,,9999.0,Cloud Development Not Observable,13.0,10.0,29.94,1014.4,,,,0,0,0,,,,,,,,,2/8 Mostly Clear,72000.0,,FEW,25000.0,,,,,,
KRDR,09-03-2002,12:00,METAR,,280,6.0,,,9999.0,Cloud Development Not Observable,11.0,9.0,29.92,1013.5,,,,0,0,0,,,,,,,,,Clear,72000.0,,,73000.0,,,,,,
KRDR,09-03-2002,11:00,METAR,,260,5.0,,,9999.0,Cloud Development Not Observable,11.0,9.0,29.89,1012.6,,,,0,0,0,,,,,,,,,Clear,72000.0,,,73000.0,,,,,,
KRDR,09-03-2002,10:00,METAR,,270,8.0,,,9999.0,Cloud Development Not Observable,13.0,10.0,29.87,1012.0,,,,0,0,0,,,,,,,,,Clear,72000.0,,,73000.0,,,,,,
KRDR,09-03-2002,09:00,METAR,,260,6.0,,,9999.0,Cloud Development Not Observable,13.0,10.0,29.86,1011.5,,,,0,0,0,,,,,,,,,Clear,72000.0,,,73000.0,,,,,,
KRDR,09-03-2002,08:00,METAR,,270,7.0,,,9999.0,Cloud Development Not Observable,13.0,10.0,29.84,1011.0,,,,0,0,0,,,,,,,,,Clear,72000.0,,,73000.0,,,,,,
KRDR,09-03-2002,07:00,METAR,,270,6.0,,,9999.0,Cloud Development Not Observable,12.0,9.0,29.82,1010.3,,,,0,0,0,,,,,,,,,Clear,72000.0,,,73000.0,,,,,,
KRDR,09-03-2002,06:00,METAR,,270,7.0,,,9999.0,Cloud Development Not Observable,14.0,10.0,29.82,1010.3,,,,0,0,0,,,,,,,,,Clear,72000.0,,,73000.0,,,,,,
KRDR,09-03-2002,05:00,METAR,,260,6.0,,,9999.0,Cloud Development Not Observable,14.0,9.0,29.82,1010.2,,,,0,0,0,,,,,,,,,Clear,72000.0,,,73000.0,,,,,,
KRDR,09-03-2002,04:00,METAR,,280,7.0,,,9999.0,Cloud Development Not Observable,15.0,10.0,29.81,1009.8,,,,0,0,0,,,,,,,,,Clear,72000.0,,,73000.0,,,,,,
KRDR,09-03-2002,03:00,METAR,,270,6.0,,,9999.0,Cloud Development Not Observable,15.0,10.0,29.79,1009.3,,,,0,0,0,,,,,,,,,Clear,72000.0,,,73000.0,,,,,,
KRDR,09-03-2002,02:00,METAR,,280,7.0,,,9999.0,Cloud Development Not Observable,17.0,9.0,29.78,1008.9,,,,0,0,0,,,,,,,,,2/8 Mostly Clear,72000.0,,FEW,9900.0,,,,,,
KRDR,09-03-2002,01:00,METAR,,290,10.0,,,9999.0,Cloud Development Not Observable,20.0,8.0,29.75,1007.8,,,,0,0,0,,,,,,,,,2/8 Mostly Clear,72000.0,,FEW,4000.0,,,,,,
KRDR,09-03-2002,00:00,METAR,,290,12.0,25.0,290/30KTS,9999.0,Cloud Development Not Observable,23.0,9.0,29.72,1006.4,,,,0,0,0,,,,,,,,,2/8 Mostly Clear,72000.0,,FEW,4000.0,,,,,,
KRDR,09-02-2002,23:00,METAR,,290,16.0,27.0,290/29KTS,9999.0,Cloud Development Not Observable,23.0,8.0,29.72,1006.4,,,,0,0,0,,,,,,,,,2/8 Mostly Clear,72000.0,,FEW,4000.0,,,,,,
KRDR,09-02-2002,22:00,METAR,,280,22.0,29.0,290/30KTS,9999.0,Cloud Development Not Observable,23.0,8.0,29.70,1005.7,,,,0,0,0,,,,,,,,,4/8 Partly Cloudy,72000.0,,SCT,4000.0,,,,,,
KRDR,09-02-2002,21:00,METAR,,280,21.0,28.0,300/29KTS,9999.0,Cloud Development Not Observable,23.0,10.0,29.70,1005.7,,,,0,0,0,,,,,,,,,4/8 Partly Cloudy,72000.0,,SCT,4000.0,,,,,,
KRDR,09-02-2002,20:00,METAR,,280,20.0,28.0,290/31KTS,9999.0,Cloud Development Not Observable,23.0,11.0,29.70,1005.7,,,,0,0,0,,,,,,,,,4/8 Partly Cloudy,72000.0,,FEW,3000.0,SCT,4000.0,,,,
KRDR,09-02-2002,19:00,METAR,,290,20.0,29.0,,9999.0,Cloud Development Not Observable,22.0,12.0,29.70,1005.7,,,,0,0,0,,,,,,,,,4/8 Partly Cloudy,72000.0,,FEW,2500.0,SCT,3500.0,,,,
KRDR,09-02-2002,18:00,METAR,,280,16.0,25.0,270/28KTS,9999.0,Cloud Development Not Observable,21.0,12.0,29.70,1005.7,,,,0,0,0,,,,,,,,,4/8 Partly Cloudy,72000.0,,FEW,2500.0,SCT,3500.0,,,,
KRDR,09-02-2002,17:00,METAR,,290,20.0,25.0,280/28KTS,9999.0,Cloud Development Not Observable,20.0,12.0,29.69,1005.6,,,,0,0,0,,,,,,,,,4/8 Partly Cloudy,72000.0,,SCT,3500.0,,,,,,
KRDR,09-02-2002,16:00,METAR,,290,19.0,27.0,,9999.0,Cloud Development Not Observable,20.0,12.0,29.67,1004.9,,,,0,0,0,,,,,,,,,7/8 Mostly Cloudy,3400.0,,FEW,2500.0,BKN,3500.0,,,,
KRDR,09-02-2002,15:00,METAR,,280,17.0,26.0,,9999.0,Cloud Development Not Observable,19.0,13.0,29.66,1004.7,,,,0,0,0,,,,,,,,,7/8 Mostly Cloudy,2200.0,,BKN,2200.0,BKN,3500.0,,,,
KRDR,09-02-2002,14:40,SPECI,,270,17.0,,,9999.0,Cloud Development Not Observable,18.0,13.0,29.66,,,,,0,0,0,,,,,,,,,7/8 Mostly Cloudy,2500.0,,BKN,2500.0,,,,,,
KRDR,09-02-2002,14:00,METAR,,270,16.0,,,9999.0,Cloud Development Not Observable,18.0,14.0,29.65,1004.2,,,,0,0,0,,,,,,,,,7/8 Mostly Cloudy,6000.0,,FEW,2500.0,SCT,5900.0,BKN,12000.0,,
KRDR,09-02-2002,13:00,METAR,,290,12.0,,,9999.0,Cloud Development Not Observable,18.0,15.0,29.63,1003.7,,,,0,0,0,,,,,,,,,7/8 Mostly Cloudy,6000.0,,SCT,2500.0,BKN,5900.0,BKN,25000.0,,
KRDR,09-02-2002,12:00,METAR,,250,11.0,,,9999.0,Cloud Development Not Observable,19.0,16.0,29.61,1002.9,,,,0,0,0,,,,,,,.02 IN,.02 IN,7/8 Mostly Cloudy,11000.0,,SCT,3000.0,BKN,11000.0,BKN,25000.0,,
KRDR,09-02-2002,11:37,SPECI,,250,12.0,,,9999.0,Cloud Development Not Observable,19.0,16.0,29.61,,,,,0,0,0,,,,,,,,,7/8 Mostly Cloudy,11000.0,,SCT,3000.0,BKN,11000.0,BKN,25000.0,,
KRDR,09-02-2002,11:00,METAR,,240,10.0,,,8000.0,Light Rain Showers/Mist/Cloud Development Not Observable,20.0,20.0,29.59,1001.9,,,,80,10,0,,,,,,,,,8/8 Overcast,11000.0,,SCT,3000.0,BKN,11000.0,OVC,25000.0,,
KRDR,09-02-2002,10:11,SPECI,,190,10.0,,,6400.0,Light Rain Showers/Cloud Development Not Observable,20.0,20.0,29.56,,,,,80,0,0,,,,,,,,,8/8 Overcast,11000.0,,SCT,3000.0,BKN,11000.0,OVC,25000.0,,
KRDR,09-02-2002,10:00,METAR,,180,12.0,,,6400.0,Thunderstorm with Rain or Snow/Light Rain Showers/Mist,20.0,20.0,29.57,1001.2,,,,95,80,10,,,,,,,,,8/8 Overcast,11000.0,,SCT,3000.0,BKN,11000.0,OVC,25000.0,,
KRDR,09-02-2002,09:40,SPECI,,190,12.0,,,3200.0,Thunderstorm with Rain or Snow/Rain Showers/Mist,20.0,20.0,29.58,,,,,95,81,10,,,,,,,,,8/8 Overcast,3100.0,,FEW,1100.0,BKN,3100.0,OVC,11000.0,,
KRDR,09-02-2002,09:31,SPECI,,190,12.0,,,3200.0,Light Rain Showers/Mist/Cloud Development Not Observable,21.0,21.0,29.58,,,,,80,10,0,,,,,,,,,8/8 Overcast,3100.0,,SCT,1100.0,OVC,3100.0,,,,
KRDR,09-02-2002,09:00,METAR,,220,10.0,,,4800.0,Light Rain Showers/Mist/Cloud Development Not Observable,21.0,21.0,29.61,1002.6,,,,80,10,0,,,,,,.01 IN,,,8/8 Overcast,9000.0,,SCT,1300.0,OVC,8900.0,,,,
KRDR,09-02-2002,08:00,METAR,,180,12.0,,,4800.0,Light Rain Showers/Mist/Cloud Development Not Observable,21.0,21.0,29.60,1002.4,,,,80,10,0,,,,,,,,,8/8 Overcast,9000.0,,BKN,8900.0,OVC,25000.0,,,,
KRDR,09-02-2002,07:00,METAR,,150,13.0,,,6400.0,Mist/Cloud Development Not Observable,21.0,21.0,29.61,1002.8,,,,10,0,0,,,,,,,,,7/8 Mostly Cloudy,25000.0,,SCT,12000.0,BKN,25000.0,,,,
KRDR,09-02-2002,06:00,METAR,,150,8.0,,,9999.0,Cloud Development Not Observable,21.0,21.0,29.65,1004.0,,,,0,0,0,,,,,,,,,7/8 Mostly Cloudy,25000.0,,SCT,12000.0,BKN,25000.0,,,,
KRDR,09-02-2002,05:00,METAR,,170,12.0,,,9999.0,Cloud Development Not Observable,21.0,20.0,29.66,1004.4,,,,0,0,0,,,,,,,,,7/8 Mostly Cloudy,25000.0,,SCT,12000.0,BKN,25000.0,,,,
KRDR,09-02-2002,04:00,METAR,,160,12.0,,,9999.0,Cloud Development Not Observable,21.0,18.0,29.67,1005.0,,,,0,0,0,,,,,,,,,7/8 Mostly Cloudy,25000.0,,BKN,25000.0,,,,,,
KRDR,09-02-2002,03:00,METAR,,160,6.0,,,9999.0,Cloud Development Not Observable,21.0,18.0,29.72,1006.4,,,,0,0,0,,,,,,,,,7/8 Mostly Cloudy,25000.0,,BKN,25000.0,,,,,,
KRDR,09-02-2002,02:00,METAR,,160,8.0,,,9999.0,Cloud Development Not Observable,22.0,18.0,29.74,1007.1,,,,0,0,0,,,,,,,,,4/8 Partly Cloudy,72000.0,,SCT,25000.0,,,,,,
KRDR,09-02-2002,01:00,METAR,,150,8.0,,,9999.0,Cloud Development Not Observable,23.0,18.0,29.75,1007.5,,,,0,0,0,,,,,,,,,4/8 Partly Cloudy,72000.0,,SCT,25000.0,,,,,,
KRDR,09-02-2002,00:00,METAR,,150,7.0,,,9999.0,Cloud Development Not Observable,26.0,17.0,29.76,1007.9,,,,0,0,0,,,,,,,,,7/8 Mostly Cloudy,25000.0,,BKN,25000.0,,,,,,
KRDR,09-01-2002,23:00,METAR,,,6.0,,,9999.0,Cloud Development Not Observable,27.0,15.0,29.77,1008.2,,,,0,0,0,,,,,,,,,4/8 Partly Cloudy,72000.0,,FEW,5000.0,SCT,25000.0,,,,
KRDR,09-01-2002,22:00,METAR,,,2.0,,,9999.0,Cloud Development Not Observable,28.0,15.0,29.78,1008.5,,,,0,0,0,,,,,,,,,4/8 Partly Cloudy,72000.0,,FEW,5000.0,SCT,25000.0,,,,
KRDR,09-01-2002,21:00,METAR,,,2.0,,,9999.0,Cloud Development Not Observable,27.0,14.0,29.80,1009.1,,,,0,0,0,,,,,,,,,4/8 Partly Cloudy,72000.0,,FEW,4000.0,SCT,25000.0,,,,
KRDR,09-01-2002,20:00,METAR,,290,5.0,,,9999.0,Cloud Development Not Observable,27.0,15.0,29.82,1009.8,,,,0,0,0,,,,,,,,,4/8 Partly Cloudy,72000.0,,SCT,3500.0,,,,,,
KRDR,09-01-2002,19:00,METAR,,360,5.0,,,9999.0,Cloud Development Not Observable,25.0,15.0,29.85,1010.9,,,,0,0,0,,,,,,,,,4/8 Partly Cloudy,72000.0,,SCT,3500.0,,,,,,
KRDR,09-01-2002,18:00,METAR,,150,2.0,,,9999.0,Cloud Development Not Observable,26.0,16.0,29.86,1011.4,,,,0,0,0,,,,,,,,,4/8 Partly Cloudy,72000.0,,SCT,3500.0,,,,,,
KRDR,09-01-2002,17:00,METAR,,,2.0,,,9999.0,Cloud Development Not Observable,25.0,17.0,29.88,1011.9,,,,0,0,0,,,,,,,,,4/8 Partly Cloudy,72000.0,,SCT,3500.0,,,,,,
KRDR,09-01-2002,16:00,METAR,,260,2.0,,,9999.0,Cloud Development Not Observable,24.0,19.0,29.87,1011.7,,,,0,0,0,,,,,,,,,2/8 Mostly Clear,72000.0,,FEW,3000.0,FEW,25000.0,,,,
KRDR,09-01-2002,15:00,METAR,,290,5.0,,,9999.0,Cloud Development Not Observable,22.0,19.0,29.87,1011.6,,,,0,0,0,,,,,,,,,2/8 Mostly Clear,72000.0,,FEW,25000.0,,,,,,
KRDR,09-01-2002,14:00,METAR,,300,9.0,,,9999.0,Cloud Development Not Observable,20.0,19.0,29.86,1011.3,,,,0,0,0,,,,,,,,,4/8 Partly Cloudy,72000.0,,SCT,25000.0,,,,,,
KRDR,09-01-2002,13:00,METAR,,250,5.0,,,9999.0,Cloud Development Not Observable,17.0,17.0,29.86,1011.3,,,,0,0,0,,,,,,,,,4/8 Partly Cloudy,72000.0,,SCT,25000.0,,,,,,
KRDR,09-01-2002,12:00,METAR,,230,3.0,,,9999.0,Cloud Development Not Observable,15.0,15.0,29.85,1011.1,,,,0,0,0,,,,,,,.08 IN,1.32 IN,4/8 Partly Cloudy,72000.0,,SCT,25000.0,,,,,,
KRDR,09-01-2002,11:00,METAR,Normal,230,3.0,,,,Cloud Development Not Observable,16.0,16.0,29.85,1011.0,,,,0,0,0,,,,,,,,,,72000.0,,SCT,25000.0,,,,,,
KRDR,09-01-2002,10:00,METAR,Normal,280,6.0,,,,Cloud Development Not Observable,17.0,17.0,29.87,1011.7,,,,0,0,0,,,,,,,,,,25000.0,,BKN,25000.0,,,,,,
KRDR,09-01-2002,09:00,METAR,Normal,120,8.0,,,,Cloud Development Not Observable,18.0,18.0,29.85,1010.8,,,,0,0,0,,,,,,.08 IN,,,,25000.0,,BKN,25000.0,,,,,,
KRDR,09-01-2002,08:00,METAR,Normal,100,4.0,,,,Cloud Development Not Observable,19.0,19.0,29.89,1012.2,,,,0,0,0,,,,,,,,,,25000.0,,FEW,5000.0,FEW,12000.0,OVC,25000.0,,
KRDR,09-01-2002,07:23,SPECI,Normal,150,4.0,,,,Cloud Development Not Observable,19.0,18.0,29.89,,,,,0,0,0,,,,,,,,,,25000.0,,SCT,12000.0,OVC,25000.0,,,,
KRDR,09-01-2002,07:00,METAR,,280,9.0,,,9999.0,Rain/Cloud Development Not Observable,19.0,18.0,29.89,,,,,61,0,0,,,,,,,,,8/8 Overcast,4900.0,,SCT,1500.0,SCT,5000.0,BKN,12000.0,OVC,25000.0
KRDR,09-01-2002,06:19,SPECI,,130,12.0,,,9999.0,Rain/Cloud Development Not Observable,19.0,19.0,,,,,,61,0,0,,,,,,,,,8/8 Overcast,4900.0,,SCT,1500.0,BKN,5000.0,OVC,12000.0,,
KRDR,09-01-2002,06:00,METAR,,290,6.0,,210/35KTS,4800.0,Heavy Thunderstorm with Rain or Snow/Heavy Rain Showers/Cloud Development Not Observable,20.0,19.0,29.97,1014.8,,,,97,82,0,,,,,,,1.24 IN,,8/8 Overcast,4900.0,,SCT,400.0,BKN,5000.0,OVC,12000.0,,
KRDR,09-01-2002,05:33,SPECI,,250,11.0,,,6400.0,Heavy Thunderstorm with Rain or Snow/Heavy Rain Showers/Cloud Development Not Observable,20.0,19.0,29.97,,,,,97,82,0,,,,,,,,,8/8 Overcast,4900.0,,SCT,400.0,BKN,5000.0,OVC,12000.0,,
KRDR,09-01-2002,05:13,SPECI,,220,23.0,35.0,,3200.0,Heavy Thunderstorm with Rain or Snow/Heavy Rain Showers/Cloud Development Not Observable,20.0,19.0,29.96,,,,,97,82,0,,,,,,,,,8/8 Overcast,1000.0,,SCT,400.0,BKN,1000.0,OVC,4000.0,,
KRDR,09-01-2002,05:02,SPECI,,200,18.0,,,4800.0,Heavy Thunderstorm with Rain or Snow/Heavy Rain Showers/Cloud Development Not Observable,23.0,23.0,29.91,,,,,97,82,0,,,,,,,,,8/8 Overcast,3900.0,,SCT,2500.0,BKN,4000.0,OVC,25000.0,,
KRDR,09-01-2002,05:00,METAR,,200,18.0,,,9999.0,Thunderstorm and Hail/Light Snow Pellets or Hail/Light Rain Showers,23.0,23.0,29.91,1012.7,,,,96,80,87,,,,,,,,,8/8 Overcast,3900.0,,SCT,2500.0,BKN,4000.0,OVC,25000.0,,
KRDR,09-01-2002,04:32,SPECI,,250,7.0,,,9999.0,Thunderstorm with Rain or Snow/Light Rain Showers/Cloud Development Not Observable,24.0,23.0,29.84,,,,,95,80,0,,,,,,,,,8/8 Overcast,3000.0,,BKN,3000.0,OVC,25000.0,,,,
KRDR,09-01-2002,04:00,METAR,,160,8.0,,,9999.0,Cloud Development Not Observable,24.0,23.0,29.84,1010.6,,,,0,0,0,,,,,,,,,7/8 Mostly Cloudy,25000.0,,FEW,12000.0,BKN,25000.0,,,,
KRDR,09-01-2002,03:00,METAR,,170,8.0,,,9999.0,Cloud Development Not Observable,24.0,23.0,29.83,1010.2,,,,0,0,0,,,,,,,,,7/8 Mostly Cloudy,25000.0,,FEW,12000.0,BKN,25000.0,,,,
KRDR,09-01-2002,02:00,METAR,,170,8.0,,,9999.0,Cloud Development Not Observable,24.0,22.0,29.85,1010.9,,,,0,0,0,,,,,,,,,7/8 Mostly Cloudy,25000.0,,FEW,12000.0,BKN,25000.0,,,,
KRDR,09-01-2002,01:00,METAR,,170,10.0,,,9999.0,Cloud Development Not Observable,26.0,23.0,29.86,1011.3,,,,0,0,0,,,,,,,,,7/8 Mostly Cloudy,25000.0,,FEW,12000.0,BKN,25000.0,,,,
KRDR,09-01-2002,00:00,METAR,,170,11.0,,,9999.0,Cloud Development Not Observable,28.0,22.0,29.88,1011.9,,,,0,0,0,,,,,,,,,4/8 Partly Cloudy,72000.0,,SCT,25000.0,,,,,,
KRDR,08-31-2002,23:00,METAR,,160,13.0,,,9999.0,Cloud Development Not Observable,30.0,21.0,29.89,1012.0,,,,0,0,0,,,,,,,,,4/8 Partly Cloudy,72000.0,,SCT,25000.0,,,,,,
KRDR,08-31-2002,22:00,METAR,,170,12.0,,,9999.0,Cloud Development Not Observable,31.0,21.0,29.89,1012.0,,,,0,0,0,,,,,,,,,4/8 Partly Cloudy,72000.0,,SCT,25000.0,,,,,,
KRDR,08-31-2002,21:00,METAR,,170,11.0,,,9999.0,Cloud Development Not Observable,31.0,21.0,29.90,1012.4,,,,0,0,0,,,,,,,,,4/8 Partly Cloudy,72000.0,,SCT,25000.0,,,,,,
KRDR,08-31-2002,20:00,METAR,,180,11.0,,,9999.0,Cloud Development Not Observable,30.0,21.0,29.91,1012.7,,,,0,0,0,,,,,,,,,4/8 Partly Cloudy,72000.0,,SCT,25000.0,,,,,,
KRDR,08-31-2002,19:00,METAR,,210,11.0,,,9999.0,Cloud Development Not Observable,29.0,21.0,29.92,1013.1,,,,0,0,0,,,,,,,,,Clear,72000.0,,,73000.0,,,,,,
KRDR,08-31-2002,18:00,METAR,,200,14.0,,,9999.0,Cloud Development Not Observable,28.0,22.0,29.93,1013.5,,,,0,0,0,,,,,,,,,2/8 Mostly Clear,72000.0,,FEW,2000.0,,,,,,
KRDR,08-31-2002,17:00,METAR,,200,14.0,,,9999.0,Cloud Development Not Observable,26.0,22.0,29.92,1013.4,,,,0,0,0,,,,,,,,,4/8 Partly Cloudy,72000.0,,SCT,1500.0,,,,,,
KRDR,08-31-2002,16:00,METAR,,190,13.0,,,9999.0,Haze/Cloud Development Not Observable,24.0,21.0,29.92,1013.3,,,,5,0,0,,,,,,,,,4/8 Partly Cloudy,72000.0,,SCT,1200.0,,,,,,
KRDR,08-31-2002,15:16,SPECI,,200,12.0,,,9999.0,Mist/Cloud Development Not Observable,23.0,21.0,29.92,,,,,10,0,0,,,,,,,,,4/8 Partly Cloudy,72000.0,,SCT,1200.0,,,,,,
KRDR,08-31-2002,15:00,METAR,,190,13.0,,,9999.0,Mist/Cloud Development Not Observable,22.0,20.0,29.91,1013.0,,,,10,0,0,,,,,,,,,7/8 Mostly Cloudy,1200.0,,BKN,1200.0,,,,,,
KRDR,08-31-2002,14:36,SPECI,,190,14.0,,,9999.0,Cloud Development Not Observable,22.0,20.0,29.91,,,,,0,0,0,,,,,,,,,7/8 Mostly Cloudy,1300.0,,BKN,1300.0,,,,,,
KRDR,08-31-2002,14:00,METAR,,170,11.0,,,9999.0,Mist/Cloud Development Not Observable,21.0,20.0,29.91,1013.1,,,,10,0,0,,,,,,,,,Clear,72000.0,,,73000.0,,,,,,
KRDR,08-31-2002,13:30,METAR,,180,9.0,,,9999.0,Mist/Cloud Development Not Observable,20.0,20.0,29.91,,,,,10,0,0,,,,,,,,,Clear,72000.0,,,73000.0,,,,,,
KRDR,08-31-2002,13:00,METAR,,160,10.0,,,9999.0,Mist/Cloud Development Not Observable,19.0,19.0,29.91,1013.1,,,,10,0,0,,,,,,,,,7/8 Mostly Cloudy,2500.0,,BKN,2500.0,BKN,25000.0,,,,
KRDR,08-31-2002,11:00,METAR,,150,10.0,,,9999.0,Cloud Development Not Observable,18.0,18.0,29.91,1013.0,,,,0,0,0,,,,,,,,,7/8 Mostly Cloudy,3000.0,,BKN,3000.0,BKN,8900.0,,,,
KRDR,08-31-2002,10:00,METAR,,150,11.0,,,9999.0,Cloud Development Not Observable,18.0,18.0,29.90,1012.6,,,,0,0,0,,,,,,,,,7/8 Mostly Cloudy,3000.0,,BKN,3000.0,BKN,8900.0,,,,
KRDR,08-31-2002,09:00,METAR,,130,14.0,,,9999.0,Cloud Development Not Observable,18.0,18.0,29.92,1013.3,,,,0,0,0,,,,,,.34 IN,,,8/8 Overcast,3000.0,,FEW,2000.0,BKN,3000.0,OVC,8900.0,,
KRDR,08-31-2002,08:00,METAR,,130,11.0,,,9999.0,Cloud Development Not Observable,18.0,18.0,29.95,1014.3,,,,0,0,0,,,,,,,,,8/8 Overcast,3000.0,,BKN,3000.0,OVC,9900.0,,,,
KRDR,08-31-2002,07:32,SPECI,,110,7.0,,,9999.0,Cloud Development Not Observable,17.0,17.0,29.96,,,,,0,0,0,,,,,,,,,8/8 Overcast,3900.0,,FEW,2000.0,BKN,4000.0,OVC,9400.0,,
KRDR,08-31-2002,07:00,METAR,,,5.0,,,9999.0,Thunderstorm with Rain or Snow/Light Rain Showers/Cloud Development Not Observable,17.0,17.0,29.96,1014.6,,,,95,80,0,,,,,,,,,2/8 Mostly Clear,6000.0,,SCT,5900.0,OVC,9400.0,,,,
KRDR,08-31-2002,06:00,METAR,,150,12.0,,,8000.0,Thunderstorm with Rain or Snow/Light Rain Showers/Cloud Development Not Observable,17.0,17.0,29.98,1015.3,,,,95,80,0,,,,,,,.24 IN,,8/8 Overcast,4900.0,,BKN,5000.0,OVC,9400.0,,,,
KRDR,08-31-2002,05:00,METAR,,170,12.0,,,8000.0,Thunderstorm with Rain or Snow/Light Rain Showers/Cloud Development Not Observable,17.0,17.0,29.99,1015.7,,,,95,80,0,,,,,,,,,8/8 Overcast,6000.0,,BKN,5900.0,OVC,9400.0,,,,
KRDR,08-31-2002,04:00,METAR,,270,17.0,26.0,,8000.0,Thunderstorm with Rain or Snow/Light Rain Showers/Cloud Development Not Observable,20.0,18.0,29.99,,,,,95,80,0,,,,,,,,,7/8 Mostly Cloudy,4900.0,,SCT,2000.0,BKN,5000.0,BKN,20000.0,,
KRDR,08-31-2002,03:55,METAR,,230,22.0,31.0,,9999.0,Cloud Development Not Observable,22.0,20.0,29.97,1015.1,,,,0,0,0,,,,,,,,,7/8 Mostly Cloudy,4900.0,,SCT,2000.0,BKN,5000.0,BKN,20000.0,,
KRDR,08-31-2002,03:00,METAR,,160,15.0,,,9999.0,Cloud Development Not Observable,22.0,20.0,29.92,1013.4,,,,0,0,0,,,,,,,,,7/8 Mostly Cloudy,20000.0,,FEW,12000.0,BKN,20000.0,,,,
KRDR,08-31-2002,02:00,METAR,,160,15.0,,,9999.0,Cloud Development Not Observable,21.0,20.0,29.94,1014.1,,,,0,0,0,,,,,,,,,7/8 Mostly Cloudy,20000.0,,FEW,12000.0,BKN,20000.0,,,,
KRDR,08-31-2002,01:00,METAR,,160,16.0,,,9999.0,Cloud Development Not Observable,21.0,20.0,29.95,1014.5,,,,0,0,0,,,,,,,,,8/8 Overcast,20000.0,,SCT,12000.0,OVC,20000.0,,,,
KRDR,08-30-2002,23:59,METAR,,150,15.0,26.0,,9999.0,Cloud Development Not Observable,21.0,20.0,29.96,1014.9,,,,0,0,0,,,,,,,.01 IN,,8/8 Overcast,6000.0,,SCT,2500.0,BKN,5900.0,OVC,20000.0,,
KRDR,08-30-2002,22:25,METAR,,150,15.0,,,9999.0,Cloud Development Not Observable,22.0,20.0,29.98,,,,,0,0,0,,,,,,,,,8/8 Overcast,6000.0,,FEW,2500.0,SCT,5900.0,OVC,20000.0,,
KRDR,08-30-2002,22:12,SPECI,,160,16.0,23.0,,9999.0,Light Rain Showers/Cloud Development Not Observable,22.0,20.0,29.99,,,,,80,0,0,,,,,,,,,8/8 Overcast,6000.0,,SCT,2500.0,BKN,5900.0,OVC,20000.0,,
KRDR,08-30-2002,22:00,METAR,,160,18.0,24.0,,9999.0,Cloud Development Not Observable,22.0,19.0,29.99,1015.7,,,,0,0,0,,,,,,,,,8/8 Overcast,20000.0,,SCT,2500.0,OVC,20000.0,,,,
KRDR,08-30-2002,21:17,SPECI,,160,17.0,,,9999.0,Light Rain Showers/Cloud Development Not Observable,23.0,20.0,29.99,,,,,80,0,0,,,,,,,,,8/8 Overcast,6000.0,,FEW,2500.0,SCT,5900.0,OVC,20000.0,,
KRDR,08-30-2002,21:00,METAR,,160,15.0,,,9999.0,Cloud Development Not Observable,23.0,20.0,30.00,1016.2,,,,0,0,0,,,,,,,,,8/8 Overcast,4900.0,,FEW,2500.0,SCT,5000.0,OVC,20000.0,,
KRDR,08-30-2002,19:00,METAR,,180,15.0,,,9999.0,Cloud Development Not Observable,26.0,21.0,30.02,1016.7,,,,0,0,0,,,,,,,,,8/8 Overcast,20000.0,,SCT,2700.0,OVC,20000.0,,,,
KRDR,08-30-2002,18:00,METAR,,180,16.0,,,9999.0,Cloud Development Not Observable,25.0,21.0,30.02,1016.7,,,,0,0,0,,,,,,,,,8/8 Overcast,6000.0,,SCT,2700.0,OVC,5900.0,,,,
KRDR,08-30-2002,17:00,METAR,,180,16.0,,,9999.0,Cloud Development Not Observable,25.0,20.0,30.02,1016.7,,,,0,0,0,,,,,,,,,7/8 Mostly Cloudy,20000.0,,FEW,3000.0,FEW,11000.0,BKN,20000.0,,
KRDR,08-30-2002,16:00,METAR,,170,18.0,,,9999.0,Cloud Development Not Observable,24.0,20.0,30.03,1017.1,,,,0,0,0,,,,,,,,,7/8 Mostly Cloudy,20000.0,,FEW,2500.0,BKN,20000.0,,,,
KRDR,08-30-2002,15:00,METAR,,160,15.0,,,9999.0,Haze/Cloud Development Not Observable,23.0,20.0,30.02,1016.7,,,,5,0,0,,,,,,,,,7/8 Mostly Cloudy,12000.0,,SCT,5000.0,SCT,12000.0,BKN,20000.0,,
KRDR,08-30-2002,14:00,METAR,,160,12.0,,,9999.0,Haze/Cloud Development Not Observable,21.0,20.0,30.01,1016.4,,,,5,0,0,,,,,,,,,7/8 Mostly Cloudy,20000.0,,FEW,12000.0,BKN,20000.0,,,,
KRDR,08-30-2002,13:00,METAR,,160,10.0,,,6400.0,Mist/Cloud Development Not Observable,20.0,20.0,30.00,1016.2,,,,10,0,0,,,,,,,,,4/8 Partly Cloudy,72000.0,,SCT,25000.0,,,,,,
KRDR,08-30-2002,12:00,METAR,,140,7.0,,,4800.0,Mist/Cloud Development Not Observable,19.0,19.0,30.01,1016.4,,,,10,0,0,,,,,,,,,4/8 Partly Cloudy,72000.0,,SCT,20000.0,,,,,,
KRDR,08-30-2002,11:00,METAR,,150,9.0,,,8000.0,Mist/Cloud Development Not Observable,20.0,20.0,30.02,1016.7,,,,10,0,0,,,,,,,,,2/8 Mostly Clear,72000.0,,FEW,0.0,FEW,9900.0,,,,
KRDR,08-30-2002,10:00,METAR,,160,7.0,,,8000.0,Mist/Cloud Development Not Observable,20.0,20.0,30.03,1017.1,,,,10,0,0,,,,,,,,,2/8 Mostly Clear,72000.0,,FEW,0.0,FEW,9900.0,,,,
KRDR,08-30-2002,09:00,METAR,,170,8.0,,,8000.0,Mist/Cloud Development Not Observable,20.0,20.0,30.04,1017.4,,,,10,0,0,,,,,,,,,2/8 Mostly Clear,72000.0,,FEW,2000.0,FEW,9900.0,,,,
KRDR,08-30-2002,08:00,METAR,,130,7.0,,,9999.0,Mist/Cloud Development Not Observable,19.0,19.0,30.03,1017.1,,,,10,0,0,,,,,,,,,2/8 Mostly Clear,72000.0,,FEW,1500.0,,,,,,
KRDR,08-30-2002,07:00,METAR,,140,5.0,,,9999.0,Cloud Development Not Observable,19.0,19.0,30.04,1017.5,,,,0,0,0,,,,,,,,,4/8 Partly Cloudy,72000.0,,SCT,1500.0,,,,,,
KRDR,08-30-2002,06:00,METAR,,140,7.0,,,8000.0,Mist/Cloud Development Not Observable,19.0,19.0,30.04,1017.6,,,,10,0,0,,,,,,,,,2/8 Mostly Clear,72000.0,,FEW,3000.0,,,,,,
KRDR,08-30-2002,05:00,METAR,,,2.0,,,8000.0,Mist/Cloud Development Not Observable,19.0,19.0,30.03,1017.2,,,,10,0,0,,,,,,,,,2/8 Mostly Clear,72000.0,,FEW,3000.0,,,,,,
KRDR,08-30-2002,04:00,METAR,,350,4.0,,,8000.0,Mist/Cloud Development Not Observable,19.0,19.0,30.03,1017.2,,,,10,0,0,,,,,,,,,7/8 Mostly Cloudy,2600.0,,BKN,2600.0,,,,,,
KRDR,08-30-2002,03:16,SPECI,,,3.0,,,6400.0,Mist/Cloud Development Not Observable,19.0,19.0,30.03,,,,,10,0,0,,,,,,,,,7/8 Mostly Cloudy,2700.0,,BKN,2700.0,,,,,,
KRDR,08-30-2002,03:00,METAR,,,3.0,,,8000.0,Mist/Cloud Development Not Observable,19.0,19.0,30.04,1017.6,,,,10,0,0,,,,,,,,,2/8 Mostly Clear,72000.0,,FEW,25000.0,,,,,,
KRDR,08-30-2002,02:00,METAR,,,3.0,,,9999.0,Cloud Development Not Observable,22.0,21.0,30.03,1017.2,,,,0,0,0,,,,,,,,,4/8 Partly Cloudy,72000.0,,SCT,25000.0,,,,,,
KRDR,08-30-2002,01:00,METAR,,100,3.0,,,9999.0,Cloud Development Not Observable,22.0,20.0,30.03,1017.2,,,,0,0,0,,,,,,,,,7/8 Mostly Cloudy,25000.0,,BKN,25000.0,,,,,,
KRDR,08-30-2002,00:00,METAR,,120,3.0,,,9999.0,Cloud Development Not Observable,23.0,20.0,30.04,1017.6,,,,0,0,0,,,,,,,,,7/8 Mostly Cloudy,25000.0,,FEW,2000.0,BKN,25000.0,,,,
KRDR,08-29-2002,23:36,SPECI,,170,2.0,,,9999.0,Cloud Development Not Observable,23.0,21.0,30.04,,,,,0,0,0,,,,,,,,,4/8 Partly Cloudy,72000.0,,SCT,2000.0,SCT,25000.0,,,,
KRDR,08-29-2002,23:00,METAR,,170,5.0,,,9999.0,Cloud Development Not Observable,23.0,21.0,30.05,1017.8,,,,0,0,0,,,,,,,,,8/8 Overcast,1500.0,,BKN,1500.0,OVC,2000.0,,,,
KRDR,08-29-2002,22:00,METAR,,120,5.0,,,9999.0,Cloud Development Not Observable,23.0,20.0,30.06,1018.2,,,,0,0,0,,,,,,,,,7/8 Mostly Cloudy,1700.0,,BKN,1700.0,,,,,,
KRDR,08-29-2002,21:00,METAR,,100,6.0,,,9999.0,Cloud Development Not Observable,23.0,20.0,30.06,1018.4,,,,0,0,0,,,,,,,,,7/8 Mostly Cloudy,1800.0,,BKN,1800.0,,,,,,
KRDR,08-29-2002,20:09,SPECI,,120,6.0,,,9999.0,Cloud Development Not Observable,22.0,20.0,30.08,,,,,0,0,0,,,,,,,,,8/8 Overcast,1900.0,,OVC,1900.0,,,,,,
KRDR,08-29-2002,20:00,METAR,,,5.0,,,9999.0,Cloud Development Not Observable,22.0,20.0,30.08,1019.1,,,,0,0,0,,,,,,,,,8/8 Overcast,1400.0,,OVC,1400.0,,,,,,
KRDR,08-29-2002,19:00,METAR,,100,7.0,,,9999.0,Cloud Development Not Observable,22.0,20.0,30.09,1019.1,,,,0,0,0,,,,,,,,,8/8 Overcast,1400.0,,OVC,1400.0,,,,,,
KRDR,08-29-2002,17:00,METAR,,,4.0,,,9999.0,Cloud Development Not Observable,20.0,20.0,30.11,1019.9,,,,0,0,0,,,,,,,,,8/8 Overcast,1000.0,,OVC,1000.0,,,,,,
KRDR,08-29-2002,16:31,SPECI,,60,5.0,,,9999.0,Cloud Development Not Observable,20.0,20.0,30.10,,,,,0,0,0,,,,,,,,,8/8 Overcast,700.0,,OVC,700.0,,,,,,
KRDR,08-29-2002,16:00,METAR,,,3.0,,,3200.0,Mist/Cloud Development Not Observable,19.0,19.0,30.10,1019.5,,,,10,0,0,,,,,,,,,7/8 Mostly Cloudy,300.0,,BKN,300.0,BKN,20000.0,,,,
KRDR,08-29-2002,15:38,SPECI,,,3.0,,,3200.0,Mist/Cloud Development Not Observable,19.0,19.0,30.11,,,,,10,0,0,,,,,,,,,7/8 Mostly Cloudy,3000.0,,BKN,3000.0,,,,,,
KRDR,08-29-2002,15:00,METAR,,80,3.0,,,400.0,Fog or Ice Fog/Cloud Development Not Observable,18.0,18.0,30.11,1019.8,,,,44,0,0,,,,,,,,,7/8 Mostly Cloudy,20000.0,,BKN,0.0,BKN,20000.0,,,,
KRDR,08-29-2002,14:00,METAR,,,1.0,,,100.0,Fog or Ice Fog/Cloud Development Not Observable,17.0,17.0,30.10,1019.5,,,,44,0,0,,,,,,,,,7/8 Mostly Cloudy,20000.0,,BKN,0.0,BKN,20000.0,,,,
KRDR,08-29-2002,13:00,METAR,,,1.0,,,400.0,Cloud Development Not Observable,17.0,17.0,30.10,1019.6,,,,0,0,0,,,,,,,,,7/8 Mostly Cloudy,20000.0,,BKN,0.0,BKN,20000.0,,,,
KRDR,08-29-2002,12:00,METAR,,310,2.0,,,100.0,Fog or Ice Fog/Cloud Development Not Observable,16.0,16.0,30.11,1019.9,,,,44,0,0,,,,,,,,,7/8 Mostly Cloudy,20000.0,,BKN,0.0,BKN,20000.0,,,,
KRDR,08-29-2002,11:00,METAR,,,2.0,,,200.0,Fog or Ice Fog/Cloud Development Not Observable,17.0,17.0,30.10,1019.5,,,,44,0,0,,,,,,,,,4/8 Partly Cloudy,72000.0,,SCT,100.0,,,,,,
KRDR,08-29-2002,10:00,METAR,,140,4.0,,,100.0,Fog or Ice Fog/Cloud Development Not Observable,17.0,17.0,30.10,1019.5,,,,45,0,0,,,,,,,,,Sky Obscured (Unable to Estimate),100.0,100.0,,100.0,,,,,,
KRDR,08-29-2002,09:00,METAR,,,3.0,,,100.0,Fog or Ice Fog/Cloud Development Not Observable,17.0,17.0,30.09,1019.2,,,,45,0,0,,,,,,,,,Sky Obscured (Unable to Estimate),100.0,100.0,,100.0,,,,,,
KRDR,08-29-2002,08:00,METAR,,340,3.0,,,200.0,Fog or Ice Fog/Cloud Development Not Observable,17.0,17.0,30.09,1019.2,,,,44,0,0,,,,,,,,,4/8 Partly Cloudy,72000.0,,SCT,100.0,,,,,,
KRDR,08-29-2002,07:09,SPECI,,,4.0,,,400.0,Fog or Ice Fog/Cloud Development Not Observable,17.0,17.0,30.09,,,,,44,0,0,,,,,,,,,2/8 Mostly Clear,72000.0,,FEW,100.0,,,,,,
KRDR,08-29-2002,07:00,METAR,,,2.0,,,800.0,Fog or Ice Fog/Cloud Development Not Observable,18.0,18.0,30.08,1018.9,,,,44,0,0,,,,,,,,,2/8 Mostly Clear,72000.0,,FEW,200.0,,,,,,
KRDR,08-29-2002,06:34,SPECI,,,2.0,,,800.0,Fog or Ice Fog/Cloud Development Not Observable,16.0,16.0,30.09,,,,,44,0,0,,,,,,,,,2/8 Mostly Clear,72000.0,,FEW,200.0,FEW,2000.0,,,,
KRDR,08-29-2002,06:00,METAR,,240,3.0,,,800.0,Fog or Ice Fog/Cloud Development Not Observable,17.0,17.0,30.06,1018.3,,,,44,0,0,,,,,,,,,2/8 Mostly Clear,72000.0,,FEW,2500.0,,,,,,
KRDR,08-29-2002,05:35,SPECI,,,2.0,,,3200.0,Mist/Cloud Development Not Observable,17.0,17.0,30.06,,,,,10,0,0,,,,,,,,,2/8 Mostly Clear,72000.0,,FEW,2500.0,,,,,,
KRDR,08-29-2002,05:00,METAR,,310,3.0,,,9999.0,Shallow Fog or Ice Fog/Cloud Development Not Observable,17.0,17.0,30.06,1018.3,,,,12,0,0,,,,,,,,,4/8 Partly Cloudy,72000.0,,SCT,25000.0,,,,,,
KRDR,08-29-2002,04:00,METAR,,120,2.0,,,9999.0,Cloud Development Not Observable,20.0,19.0,30.08,1018.8,,,,0,0,0,,,,,,,,,4/8 Partly Cloudy,72000.0,,SCT,25000.0,,,,,,
KRDR,08-29-2002,03:00,METAR,,150,5.0,,,9999.0,Cloud Development Not Observable,20.0,20.0,30.09,1019.3,,,,0,0,0,,,,,,,,,7/8 Mostly Cloudy,3100.0,,FEW,2000.0,SCT,3200.0,BKN,25000.0,,
KRDR,08-29-2002,02:00,METAR,,140,8.0,,,9999.0,Cloud Development Not Observable,21.0,21.0,30.09,1019.3,,,,0,0,0,,,,,,,,,8/8 Overcast,3100.0,,SCT,2000.0,BKN,3200.0,OVC,25000.0,,
KRDR,08-29-2002,01:00,METAR,,90,5.0,,,9999.0,Cloud Development Not Observable,23.0,21.0,30.06,1018.2,,,,0,0,0,,,,,,,,,7/8 Mostly Cloudy,12000.0,,SCT,3100.0,BKN,12000.0,BKN,25000.0,,
KRDR,08-29-2002,00:00,METAR,,100,7.0,,,9999.0,Cloud Development Not Observable,24.0,21.0,30.06,1018.1,,,,0,0,0,,,,,,,,,7/8 Mostly Cloudy,3100.0,,BKN,3100.0,BKN,12000.0,BKN,25000.0,,
KRDR,08-28-2002,22:00,METAR,,20,4.0,,,9999.0,Cloud Development Not Observable,25.0,20.0,30.06,1018.3,,,,0,0,0,,,,,,,,,7/8 Mostly Cloudy,12000.0,,SCT,2200.0,BKN,12000.0,BKN,25000.0,,
KRDR,08-28-2002,21:00,METAR,,360,2.0,,,9999.0,Cloud Development Not Observable,26.0,21.0,30.08,1018.8,,,,0,0,0,,,,,,,,,7/8 Mostly Cloudy,12000.0,,FEW,2300.0,BKN,12000.0,BKN,25000.0,,
KRDR,08-28-2002,19:57,METAR,,250,3.0,,,9999.0,Cloud Development Not Observable,25.0,21.0,30.09,1019.2,,,,0,0,0,,,,,,,,,7/8 Mostly Cloudy,2200.0,,BKN,2200.0,BKN,25000.0,,,,
KRDR,08-28-2002,19:00,METAR,,190,5.0,,,9999.0,Cloud Development Not Observable,23.0,21.0,30.10,1019.4,,,,0,0,0,,,,,,,,,8/8 Overcast,2200.0,,BKN,2200.0,OVC,25000.0,,,,
KRDR,08-28-2002,18:10,SPECI,,230,7.0,,,9999.0,Cloud Development Not Observable,22.0,20.0,30.10,,,,,0,0,0,,,,,,,,,7/8 Mostly Cloudy,1500.0,,BKN,1500.0,BKN,25000.0,,,,
KRDR,08-28-2002,18:00,METAR,,230,9.0,,,9999.0,Cloud Development Not Observable,22.0,21.0,30.09,1019.2,,,,0,0,0,,,,,,,,,7/8 Mostly Cloudy,900.0,,BKN,900.0,BKN,12000.0,,,,
KRDR,08-28-2002,17:00,METAR,,210,9.0,,,9999.0,Cloud Development Not Observable,21.0,21.0,30.08,1018.8,,,,0,0,0,,,,,,,,,8/8 Overcast,600.0,,BKN,600.0,OVC,1500.0,,,,
KRDR,08-28-2002,16:16,SPECI,,150,12.0,,,9999.0,Cloud Development Not Observable,19.0,19.0,30.08,,,,,0,0,0,,,,,,,,,7/8 Mostly Cloudy,12000.0,,FEW,500.0,SCT,1500.0,BKN,12000.0,BKN,25000.0
KRDR,08-28-2002,16:00,METAR,,150,9.0,,,9999.0,Cloud Development Not Observable,19.0,19.0,30.07,1018.5,,,,0,0,0,,,,,,,,,8/8 Overcast,500.0,,BKN,500.0,BKN,1500.0,OVC,6400.0,,
KRDR,08-28-2002,15:45,METAR,,140,9.0,,,9999.0,Light Rain Showers/Cloud Development Not Observable,19.0,19.0,30.08,,,,,80,0,0,,,,,,,,,8/8 Overcast,500.0,,BKN,500.0,BKN,1500.0,OVC,8900.0,,
KRDR,08-28-2002,15:35,SPECI,,140,12.0,,,9999.0,Cloud Development Not Observable,19.0,19.0,30.08,,,,,0,0,0,,,,,,,,,8/8 Overcast,500.0,,BKN,500.0,OVC,1500.0,,,,
KRDR,08-28-2002,15:12,SPECI,,160,8.0,,,9999.0,Cloud Development Not Observable,18.0,18.0,30.09,,,,,0,0,0,,,,,,,,,8/8 Overcast,1500.0,,SCT,600.0,BKN,1500.0,OVC,3000.0,,
KRDR,08-28-2002,15:00,METAR,,180,10.0,,,9999.0,Cloud Development Not Observable,18.0,18.0,30.10,1019.4,,,,0,0,0,,,,,,.03 IN,,,8/8 Overcast,1500.0,,FEW,700.0,SCT,1500.0,OVC,3000.0,,
KRDR,08-28-2002,14:18,SPECI,,140,9.0,,,9999.0,Cloud Development Not Observable,18.0,18.0,30.08,,,,,0,0,0,,,,,,,,,8/8 Overcast,3000.0,,SCT,1700.0,BKN,3000.0,OVC,8900.0,,
KRDR,08-28-2002,14:00,METAR,,120,9.0,,,9999.0,Light Rain Showers/Cloud Development Not Observable,18.0,18.0,30.08,1018.8,,,,80,0,0,,,,,,,,,8/8 Overcast,3000.0,,SCT,1500.0,BKN,3000.0,OVC,8900.0,,
KRDR,08-28-2002,13:10,SPECI,,110,10.0,,,9999.0,Light Rain Showers/Cloud Development Not Observable,17.0,17.0,30.10,,,,,80,0,0,,,,,,,,,8/8 Overcast,3000.0,,SCT,1500.0,BKN,3000.0,OVC,8900.0,,
KRDR,08-28-2002,13:00,METAR,,120,8.0,,,9999.0,Cloud Development Not Observable,17.0,17.0,30.11,1019.9,,,,0,0,0,,,,,,,,,8/8 Overcast,3000.0,,FEW,1800.0,BKN,3000.0,OVC,8900.0,,
KRDR,08-28-2002,12:00,METAR,,,4.0,,,9999.0,Thunderstorm/Cloud Development Not Observable,18.0,18.0,30.14,1020.8,,,,17,0,0,,,,,,,,,8/8 Overcast,3000.0,,FEW,1500.0,BKN,3000.0,OVC,8900.0,,
KRDR,08-28-2002,11:22,SPECI,,90,8.0,,,9999.0,Thunderstorm/Cloud Development Not Observable,18.0,18.0,30.09,,,,,17,0,0,,,,,,,,,8/8 Overcast,3000.0,,BKN,3000.0,OVC,8900.0,,,,
KRDR,08-28-2002,11:00,METAR,,60,7.0,,,9999.0,Thunderstorm with Rain or Snow/Light Rain Showers/Cloud Development Not Observable,18.0,18.0,30.10,1019.4,,,,95,80,0,,,,,,,,,8/8 Overcast,3000.0,,FEW,1600.0,BKN,3000.0,OVC,7900.0,,
KRDR,08-28-2002,10:06,SPECI,,140,8.0,19.0,,4800.0,Thunderstorm with Rain or Snow/Rain Showers/Cloud Development Not Observable,18.0,18.0,30.10,,,,,95,81,0,,,,,,,,,8/8 Overcast,3000.0,,BKN,3000.0,OVC,8900.0,,,,
KRDR,08-28-2002,10:00,METAR,,300,8.0,,,9999.0,Thunderstorm with Rain or Snow/Light Rain Showers/Cloud Development Not Observable,18.0,18.0,30.14,1020.8,,,,95,80,0,,,,,,,,,8/8 Overcast,3000.0,,SCT,1800.0,BKN,3000.0,BKN,8900.0,OVC,25000.0
KRDR,08-28-2002,09:32,SPECI,,130,12.0,,,9999.0,Thunderstorm/Cloud Development Not Observable,18.0,18.0,30.09,,,,,17,0,0,,,,,,,,,8/8 Overcast,3400.0,,SCT,400.0,BKN,3500.0,OVC,8900.0,,
KRDR,08-28-2002,09:15,SPECI,,140,9.0,,,9999.0,Thunderstorm with Rain or Snow/Light Rain Showers/Cloud Development Not Observable,18.0,18.0,30.10,,,,,95,80,0,,,,,,,,,8/8 Overcast,3400.0,,SCT,2000.0,BKN,3500.0,OVC,8900.0,,
KRDR,08-28-2002,09:00,METAR,,120,10.0,,,9999.0,Thunderstorm/Cloud Development Not Observable,18.0,18.0,30.10,1019.4,,,,17,0,0,,,,,,,,,8/8 Overcast,3400.0,,BKN,3500.0,BKN,8900.0,OVC,25000.0,,
KRDR,08-28-2002,08:45,METAR,,120,9.0,,,9999.0,Cloud Development Not Observable,17.0,17.0,30.10,,,,,0,0,0,,,,,,,,,8/8 Overcast,3400.0,,BKN,3500.0,BKN,8900.0,OVC,25000.0,,
KRDR,08-28-2002,08:09,SPECI,,130,9.0,,,9999.0,Thunderstorm/Cloud Development Not Observable,17.0,17.0,30.11,,,,,17,0,0,,,,,,,,,8/8 Overcast,3900.0,,BKN,4000.0,OVC,12000.0,,,,
KRDR,08-28-2002,08:00,METAR,,110,8.0,,,9999.0,Thunderstorm with Rain or Snow/Light Rain Showers/Cloud Development Not Observable,17.0,17.0,30.11,1019.8,,,,95,80,0,,,,,,,,,8/8 Overcast,3900.0,,BKN,4000.0,OVC,12000.0,,,,
KRDR,08-28-2002,07:00,METAR,,70,9.0,,,8000.0,Thunderstorm with Rain or Snow/Light Rain Showers/Cloud Development Not Observable,17.0,17.0,30.14,1020.9,,,,95,80,0,,,,,,,,,8/8 Overcast,3900.0,,FEW,2000.0,OVC,4000.0,,,,
KRDR,08-28-2002,06:35,SPECI,,50,9.0,,,6400.0,Thunderstorm with Rain or Snow/Rain Showers/Cloud Development Not Observable,17.0,17.0,30.15,,,,,95,81,0,,,,,,,,,8/8 Overcast,3900.0,,FEW,1000.0,OVC,4000.0,,,,
KRDR,08-28-2002,06:00,METAR,,40,8.0,,,9999.0,Thunderstorm with Rain or Snow/Light Rain Showers/Cloud Development Not Observable,18.0,17.0,30.16,1021.6,,,,95,80,0,,,,,,,,,7/8 Mostly Cloudy,3900.0,,FEW,1000.0,BKN,4000.0,BKN,12000.0,BKN,25000.0
KRDR,08-28-2002,05:00,METAR,,350,9.0,,,9999.0,Cloud Development Not Observable,22.0,20.0,30.13,1020.5,,,,0,0,0,,,,,,,,,7/8 Mostly Cloudy,6000.0,,SCT,1700.0,SCT,5900.0,BKN,12000.0,BKN,25000.0
KRDR,08-28-2002,04:00,METAR,,150,8.0,,,9999.0,Cloud Development Not Observable,22.0,21.0,30.08,1018.6,,,,0,0,0,,,,,,,,,7/8 Mostly Cloudy,12000.0,,SCT,5900.0,BKN,12000.0,BKN,25000.0,,
KRDR,08-28-2002,03:00,METAR,,130,7.0,,,9999.0,Cloud Development Not Observable,23.0,21.0,30.09,1019.0,,,,0,0,0,,,,,,,,,7/8 Mostly Cloudy,12000.0,,SCT,5900.0,BKN,12000.0,BKN,25000.0,,
KRDR,08-28-2002,02:00,METAR,,110,8.0,,,9999.0,Cloud Development Not Observable,24.0,21.0,30.09,1019.0,,,,0,0,0,,,,,,,,,7/8 Mostly Cloudy,25000.0,,FEW,4000.0,FEW,12000.0,BKN,25000.0,,
KRDR,08-28-2002,01:00,METAR,,140,8.0,,,9999.0,Cloud Development Not Observable,25.0,21.0,30.05,1018.0,,,,0,0,0,,,,,,,,,4/8 Partly Cloudy,72000.0,,FEW,4000.0,FEW,12000.0,SCT,25000.0,,
KRDR,08-28-2002,00:00,METAR,,140,10.0,,,9999.0,Cloud Development Not Observable,28.0,21.0,30.08,1018.6,,,,0,0,0,,,,,,,,,4/8 Partly Cloudy,72000.0,,FEW,4000.0,SCT,25000.0,,,,
KRDR,08-27-2002,23:00,METAR,,130,8.0,,,9999.0,Cloud Development Not Observable,28.0,21.0,30.08,1018.6,,,,0,0,0,,,,,,,,,7/8 Mostly Cloudy,12000.0,,FEW,4000.0,SCT,12000.0,BKN,25000.0,,
KRDR,08-27-2002,22:00,METAR,,170,10.0,,,9999.0,Cloud Development Not Observable,28.0,20.0,30.09,1018.9,,,,0,0,0,,,,,,,,,7/8 Mostly Cloudy,12000.0,,SCT,4000.0,SCT,12000.0,BKN,25000.0,,
KRDR,08-27-2002,21:00,METAR,,170,10.0,,,9999.0,Cloud Development Not Observable,28.0,20.0,30.10,1019.3,,,,0,0,0,,,,,,,,,7/8 Mostly Cloudy,12000.0,,SCT,4000.0,SCT,12000.0,BKN,25000.0,,
KRDR,08-27-2002,20:00,METAR,,170,10.0,,,9999.0,Cloud Development Not Observable,27.0,21.0,30.11,1019.6,,,,0,0,0,,,,,,,,,4/8 Partly Cloudy,72000.0,,FEW,4000.0,FEW,12000.0,SCT,25000.0,,
KRDR,08-27-2002,19:00,METAR,,150,7.0,,,9999.0,Cloud Development Not Observable,26.0,20.0,30.12,1020.0,,,,0,0,0,,,,,,,,,7/8 Mostly Cloudy,12000.0,,FEW,4000.0,BKN,12000.0,,,,
KRDR,08-27-2002,18:00,METAR,,170,11.0,,,9999.0,Cloud Development Not Observable,26.0,20.0,30.12,1020.0,,,,0,0,0,,,,,,,,,7/8 Mostly Cloudy,12000.0,,FEW,4000.0,SCT,12000.0,BKN,25000.0,,
KRDR,08-27-2002,17:00,METAR,,180,16.0,,,9999.0,Cloud Development Not Observable,23.0,19.0,30.12,1020.1,,,,0,0,0,,,,,,,,,7/8 Mostly Cloudy,12000.0,,FEW,4000.0,SCT,12000.0,BKN,25000.0,,
KRDR,08-27-2002,16:00,METAR,,160,12.0,,,9999.0,Cloud Development Not Observable,24.0,20.0,30.12,1020.0,,,,0,0,0,,,,,,,,,7/8 Mostly Cloudy,25000.0,,FEW,4000.0,FEW,12000.0,BKN,25000.0,,
KRDR,08-27-2002,15:00,METAR,,130,12.0,,,9999.0,Cloud Development Not Observable,21.0,19.0,30.14,1020.8,,,,0,0,0,,,,,,,,,7/8 Mostly Cloudy,25000.0,,FEW,5900.0,FEW,12000.0,BKN,25000.0,,
KRDR,08-27-2002,14:00,METAR,,130,11.0,,,9999.0,Cloud Development Not Observable,18.0,18.0,30.12,1020.1,,,,0,0,0,,,,,,,,,7/8 Mostly Cloudy,12000.0,,FEW,5900.0,SCT,12000.0,BKN,25000.0,,
KRDR,08-27-2002,13:00,METAR,,100,6.0,,,9999.0,Precipitation in the Vicinity/Cloud Development Not Observable,18.0,18.0,30.14,1020.8,,,,16,0,0,,,,,,,,,7/8 Mostly Cloudy,6000.0,,BKN,5900.0,BKN,12000.0,BKN,25000.0,,
KRDR,08-27-2002,12:51,SPECI,,100,5.0,,,9999.0,Cloud Development Not Observable,18.0,18.0,30.14,,,,,0,0,0,,,,,,,,,7/8 Mostly Cloudy,6000.0,,BKN,5900.0,BKN,12000.0,BKN,25000.0,,
KRDR,08-27-2002,12:31,SPECI,,80,7.0,,,9999.0,Light Rain Showers/Cloud Development Not Observable,18.0,18.0,30.15,,,,,80,0,0,,,,,,,,,7/8 Mostly Cloudy,6000.0,,FEW,2000.0,BKN,5900.0,BKN,12000.0,BKN,25000.0
KRDR,08-27-2002,12:00,METAR,,60,6.0,,,9999.0,Thunderstorm with Rain or Snow/Light Rain Showers/Cloud Development Not Observable,18.0,18.0,30.15,1021.3,,,,95,80,0,,,,,,,,,8/8 Overcast,2000.0,,BKN,2000.0,OVC,4000.0,,,,
KRDR,08-27-2002,11:44,SPECI,,320,10.0,,,9999.0,Light Rain Showers/Cloud Development Not Observable,18.0,18.0,30.16,,,,,80,0,0,,,,,,,,,8/8 Overcast,2000.0,,SCT,1000.0,BKN,2000.0,OVC,5000.0,,
KRDR,08-27-2002,11:36,SPECI,,320,10.0,,,9999.0,Cloud Development Not Observable,18.0,18.0,30.16,,,,,0,0,0,,,,,,,,,8/8 Overcast,1000.0,,BKN,1000.0,OVC,5000.0,,,,
KRDR,08-27-2002,11:00,METAR,,100,3.0,,,9999.0,Thunderstorm/Cloud Development Not Observable,18.0,18.0,30.13,1020.3,,,,17,0,0,,,,,,,,,8/8 Overcast,5500.0,,SCT,3500.0,OVC,5400.0,,,,
KRDR,08-27-2002,10:48,SPECI,,70,2.0,,,9999.0,Thunderstorm/Cloud Development Not Observable,18.0,18.0,30.13,,,,,17,0,0,,,,,,,,,8/8 Overcast,2500.0,,FEW,1000.0,SCT,2500.0,OVC,4500.0,,
KRDR,08-27-2002,10:27,SPECI,,20,10.0,,,9999.0,Thunderstorm with Rain or Snow/Light Rain Showers/Cloud Development Not Observable,18.0,18.0,30.11,,,,,95,80,0,,,,,,,,,8/8 Overcast,2500.0,,FEW,1000.0,SCT,2500.0,OVC,4500.0,,
KRDR,08-27-2002,10:00,METAR,,320,11.0,,,9999.0,Thunderstorm with Rain or Snow/Light Rain Showers/Cloud Development Not Observable,18.0,18.0,30.12,1020.0,,,,95,80,0,,,,,,,,,8/8 Overcast,2400.0,,BKN,2400.0,OVC,5000.0,,,,
KRDR,08-27-2002,09:45,METAR,,310,12.0,,,9999.0,Thunderstorm/Cloud Development Not Observable,19.0,18.0,30.12,,,,,17,0,0,,,,,,,,,8/8 Overcast,2300.0,,BKN,2300.0,OVC,5000.0,,,,
KRDR,08-27-2002,09:31,SPECI,,310,13.0,,,9999.0,Thunderstorm with Rain or Snow/Light Rain Showers/Cloud Development Not Observable,19.0,18.0,30.13,,,,,95,80,0,,,,,,,,,8/8 Overcast,2000.0,,BKN,2000.0,BKN,5000.0,OVC,6900.0,,
KRDR,08-27-2002,09:00,METAR,,10,3.0,,,9999.0,Thunderstorm with Rain or Snow/Light Rain Showers/Cloud Development Not Observable,18.0,18.0,30.10,1019.2,,,,95,80,0,,,,,,,,,8/8 Overcast,8000.0,,SCT,5000.0,BKN,7900.0,OVC,12000.0,,
KRDR,08-27-2002,08:34,SPECI,,50,3.0,,,9999.0,Thunderstorm with Rain or Snow/Light Rain Showers/Cloud Development Not Observable,19.0,18.0,30.09,,,,,95,80,0,,,,,,,,,8/8 Overcast,10000.0,,SCT,4500.0,OVC,9900.0,,,,
KRDR,08-27-2002,08:13,SPECI,,150,2.0,,,9999.0,Thunderstorm/Cloud Development Not Observable,19.0,18.0,30.09,,,,,17,0,0,,,,,,,,,8/8 Overcast,8000.0,,SCT,4500.0,BKN,7900.0,OVC,25000.0,,
KRDR,08-27-2002,08:00,METAR,,140,5.0,,,9999.0,Cloud Development Not Observable,19.0,18.0,30.09,1018.8,,,,0,0,0,,,,,,,,,7/8 Mostly Cloudy,8000.0,,FEW,5000.0,SCT,7900.0,BKN,25000.0,,
KRDR,08-27-2002,07:35,SPECI,,140,5.0,,,9999.0,Cloud Development Not Observable,19.0,17.0,30.09,,,,,0,0,0,,,,,,,,,7/8 Mostly Cloudy,8000.0,,FEW,5000.0,SCT,7900.0,BKN,25000.0,,
KRDR,08-27-2002,07:00,METAR,,140,7.0,,,9999.0,Thunderstorm/Cloud Development Not Observable,19.0,18.0,30.08,1018.5,,,,17,0,0,,,,,,,,,7/8 Mostly Cloudy,7000.0,,FEW,5000.0,BKN,6900.0,BKN,25000.0,,
KRDR,08-27-2002,06:00,METAR,,100,7.0,,,9999.0,Thunderstorm/Cloud Development Not Observable,19.0,18.0,30.07,1018.3,,,,17,0,0,,,,,,,,,4/8 Partly Cloudy,72000.0,,FEW,5000.0,FEW,12000.0,SCT,25000.0,,
KRDR,08-27-2002,05:45,METAR,,120,7.0,,,9999.0,Thunderstorm/Cloud Development Not Observable,19.0,18.0,30.08,,,,,17,0,0,,,,,,,,,4/8 Partly Cloudy,72000.0,,FEW,5000.0,FEW,12000.0,SCT,25000.0,,
KRDR,08-27-2002,05:00,METAR,,120,6.0,,,9999.0,Cloud Development Not Observable,19.0,18.0,30.09,1018.9,,,,0,0,0,,,,,,,,,8/8 Overcast,7000.0,,FEW,5000.0,BKN,6900.0,OVC,12000.0,,
KRDR,08-27-2002,04:00,METAR,,80,5.0,,,9999.0,Thunderstorm/Cloud Development Not Observable,20.0,17.0,30.06,1018.1,,,,17,0,0,,,,,,,,,8/8 Overcast,8000.0,,SCT,4000.0,BKN,7900.0,OVC,25000.0,,
KRDR,08-27-2002,02:55,METAR,,40,8.0,,,9999.0,Cloud Development Not Observable,19.0,17.0,30.08,1018.9,,,,0,0,0,,,,,,.53 IN,,,8/8 Overcast,8000.0,,SCT,4000.0,BKN,7900.0,OVC,25000.0,,
KRDR,08-27-2002,02:35,SPECI,,,5.0,,,9999.0,Cloud Development Not Observable,19.0,18.0,30.09,,,,,0,0,0,,,,,,,,,8/8 Overcast,3900.0,,BKN,4000.0,BKN,9900.0,OVC,25000.0,,
KRDR,08-27-2002,02:00,METAR,,290,19.0,25.0,,8000.0,Thunderstorm with Rain or Snow/Light Rain Showers/Cloud Development Not Observable,23.0,14.0,30.08,1018.8,,,,95,80,0,,,,,,,,,8/8 Overcast,3900.0,,BKN,4000.0,BKN,9900.0,OVC,25000.0,,
KRDR,08-27-2002,01:30,METAR,,350,11.0,,,9999.0,Thunderstorm/Cloud Development Not Observable,23.0,16.0,30.04,,,,,17,0,0,,,,,,,,,8/8 Overcast,10000.0,,SCT,4000.0,BKN,9900.0,OVC,25000.0,,
KRDR,08-27-2002,01:00,METAR,,120,8.0,,,9999.0,Cloud Development Not Observable,24.0,18.0,29.99,1015.7,,,,0,0,0,,,,,,,,,8/8 Overcast,10000.0,,FEW,4000.0,SCT,9900.0,OVC,25000.0,,
KRDR,08-27-2002,00:00,METAR,,120,6.0,,,9999.0,Cloud Development Not Observable,25.0,18.0,29.99,1015.7,,,,0,0,0,,,,,,,,,8/8 Overcast,10000.0,,FEW,4000.0,SCT,9900.0,OVC,25000.0,,
KRDR,08-26-2002,23:00,METAR,,90,11.0,,,9999.0,Cloud Development Not Observable,29.0,18.0,29.99,1015.6,,,,0,0,0,,,,,,,,,7/8 Mostly Cloudy,10000.0,,FEW,4000.0,SCT,9900.0,BKN,25000.0,,
KRDR,08-26-2002,22:00,METAR,,180,8.0,,,9999.0,Cloud Development Not Observable,32.0,17.0,29.98,1015.1,,,,0,0,0,,,,,,,,,7/8 Mostly Cloudy,25000.0,,FEW,4000.0,FEW,9900.0,BKN,25000.0,,
KRDR,08-26-2002,21:00,METAR,,,2.0,,,9999.0,Cloud Development Not Observable,31.0,18.0,29.99,1015.5,,,,0,0,0,,,,,,,,,4/8 Partly Cloudy,72000.0,,FEW,4000.0,FEW,9900.0,SCT,25000.0,,
KRDR,08-26-2002,20:00,METAR,,160,8.0,,,9999.0,Cloud Development Not Observable,31.0,19.0,30.00,1016.1,,,,0,0,0,,,,,,,,,7/8 Mostly Cloudy,10000.0,,SCT,4000.0,BKN,9900.0,BKN,25000.0,,
KRDR,08-26-2002,19:00,METAR,,110,6.0,,,9999.0,Cloud Development Not Observable,30.0,20.0,30.01,1016.2,,,,0,0,0,,,,,,,,,7/8 Mostly Cloudy,10000.0,,SCT,4000.0,SCT,9900.0,BKN,25000.0,,
KRDR,08-26-2002,18:00,METAR,,90,8.0,,,9999.0,Cloud Development Not Observable,29.0,19.0,30.02,1016.8,,,,0,0,0,,,,,,,,,7/8 Mostly Cloudy,25000.0,,FEW,9900.0,FEW,15000.0,BKN,25000.0,,
KRDR,08-26-2002,17:00,METAR,,110,8.0,,,9999.0,Cloud Development Not Observable,28.0,16.0,30.02,1016.5,,,,0,0,0,,,,,,,,,4/8 Partly Cloudy,72000.0,,FEW,9900.0,SCT,25000.0,,,,
KRDR,08-26-2002,16:00,METAR,,,4.0,,,9999.0,Cloud Development Not Observable,25.0,17.0,30.03,1017.0,,,,0,0,0,,,,,,,,,4/8 Partly Cloudy,72000.0,,FEW,12000.0,SCT,25000.0,,,,
KRDR,08-26-2002,15:00,METAR,,80,4.0,,,9999.0,Cloud Development Not Observable,22.0,15.0,30.03,1017.0,,,,0,0,0,,,,,,,,,7/8 Mostly Cloudy,25000.0,,FEW,12000.0,BKN,25000.0,,,,
KRDR,08-26-2002,14:00,METAR,,40,6.0,,,9999.0,Cloud Development Not Observable,20.0,14.0,30.04,1017.4,,,,0,0,0,,,,,,,,,7/8 Mostly Cloudy,25000.0,,FEW,12000.0,BKN,25000.0,,,,
KRDR,08-26-2002,13:00,METAR,,340,5.0,,,9999.0,Cloud Development Not Observable,18.0,13.0,30.05,1017.7,,,,0,0,0,,,,,,,,,7/8 Mostly Cloudy,25000.0,,FEW,9900.0,BKN,25000.0,,,,
KRDR,08-26-2002,12:00,METAR,,30,8.0,,,9999.0,Cloud Development Not Observable,17.0,13.0,30.04,1017.4,,,,0,0,0,,,,,,,,,7/8 Mostly Cloudy,25000.0,,FEW,12000.0,BKN,25000.0,,,,
KRDR,08-26-2002,11:00,METAR,,360,8.0,,,9999.0,Cloud Development Not Observable,17.0,14.0,30.05,1017.7,,,,0,0,0,,,,,,,,,4/8 Partly Cloudy,72000.0,,FEW,12000.0,SCT,25000.0,,,,
KRDR,08-26-2002,10:00,METAR,,340,6.0,,,9999.0,Cloud Development Not Observable,18.0,15.0,30.04,1017.5,,,,0,0,0,,,,,,,,,4/8 Partly Cloudy,72000.0,,FEW,5000.0,SCT,11000.0,,,,
KRDR,08-26-2002,09:00,METAR,,300,9.0,,,9999.0,Cloud Development Not Observable,20.0,16.0,30.05,1017.6,,,,0,0,0,,,,,,,,,8/8 Overcast,4900.0,,BKN,5000.0,OVC,8900.0,,,,
KRDR,08-26-2002,08:42,SPECI,,300,14.0,,,9999.0,Cloud Development Not Observable,17.0,16.0,30.04,,,,,0,0,0,,,,,,,,,7/8 Mostly Cloudy,4900.0,,BKN,5000.0,BKN,20000.0,,,,
KRDR,08-26-2002,08:00,METAR,,240,1.0,,,9999.0,Cloud Development Not Observable,18.0,15.0,30.01,1016.2,,,,0,0,0,,,,,,,,,4/8 Partly Cloudy,72000.0,,FEW,5000.0,FEW,12000.0,SCT,25000.0,,
KRDR,08-26-2002,07:00,METAR,,,2.0,,,9999.0,Cloud Development Not Observable,18.0,15.0,30.01,1016.2,,,,0,0,0,,,,,,,,,7/8 Mostly Cloudy,12000.0,,FEW,3500.0,SCT,12000.0,BKN,25000.0,,
KRDR,08-26-2002,06:00,METAR,,,2.0,,,9999.0,Cloud Development Not Observable,20.0,16.0,30.00,1016.1,,,,0,0,0,,,,,,,,,7/8 Mostly Cloudy,25000.0,,FEW,3500.0,FEW,12000.0,BKN,25000.0,,
KRDR,08-26-2002,05:00,METAR,,150,5.0,,,9999.0,Cloud Development Not Observable,21.0,16.0,30.00,1015.9,,,,0,0,0,,,,,,,,,7/8 Mostly Cloudy,25000.0,,FEW,12000.0,BKN,25000.0,,,,
KRDR,08-26-2002,04:00,METAR,,190,3.0,,,9999.0,Cloud Development Not Observable,20.0,17.0,30.00,1015.9,,,,0,0,0,,,,,,,,,7/8 Mostly Cloudy,25000.0,,BKN,25000.0,,,,,,
KRDR,08-26-2002,03:00,METAR,,120,5.0,,,9999.0,Cloud Development Not Observable,23.0,17.0,29.99,1015.5,,,,0,0,0,,,,,,,,,7/8 Mostly Cloudy,25000.0,,BKN,25000.0,,,,,,
KRDR,08-26-2002,02:00,METAR,,90,5.0,,,9999.0,Cloud Development Not Observable,25.0,17.0,29.99,1015.6,,,,0,0,0,,,,,,,,,7/8 Mostly Cloudy,25000.0,,BKN,25000.0,,,,,,
KRDR,08-26-2002,01:00,METAR,,120,3.0,,,9999.0,Cloud Development Not Observable,27.0,18.0,29.98,1015.3,,,,0,0,0,,,,,,,,,7/8 Mostly Cloudy,25000.0,,BKN,25000.0,,,,,,
KRDR,08-26-2002,00:00,METAR,,110,5.0,,,9999.0,Cloud Development Not Observable,28.0,17.0,29.98,1015.3,,,,0,0,0,,,,,,,,,7/8 Mostly Cloudy,25000.0,,BKN,25000.0,,,,,,
KRDR,08-25-2002,23:00,METAR,,,3.0,,,9999.0,Cloud Development Not Observable,30.0,16.0,29.98,1015.3,,,,0,0,0,,,,,,,,,7/8 Mostly Cloudy,25000.0,,BKN,25000.0,,,,,,
KRDR,08-25-2002,22:00,METAR,,,2.0,,,9999.0,Cloud Development Not Observable,30.0,16.0,29.98,1015.3,,,,0,0,0,,,,,,,,,7/8 Mostly Cloudy,25000.0,,BKN,25000.0,,,,,,
KRDR,08-25-2002,21:00,METAR,,130,5.0,,,9999.0,Cloud Development Not Observable,30.0,15.0,29.99,1015.6,,,,0,0,0,,,,,,,,,7/8 Mostly Cloudy,25000.0,,BKN,25000.0,,,,,,
KRDR,08-25-2002,20:00,METAR,,120,5.0,,,9999.0,Cloud Development Not Observable,30.0,15.0,30.00,1016.2,,,,0,0,0,,,,,,,,,7/8 Mostly Cloudy,25000.0,,BKN,25000.0,,,,,,
KRDR,08-25-2002,19:00,METAR,,190,5.0,,,9999.0,Cloud Development Not Observable,30.0,14.0,30.01,1016.5,,,,0,0,0,,,,,,,,,7/8 Mostly Cloudy,25000.0,,BKN,25000.0,,,,,,
KRDR,08-25-2002,18:00,METAR,,190,2.0,,,9999.0,Cloud Development Not Observable,28.0,14.0,30.02,1016.7,,,,0,0,0,,,,,,,,,7/8 Mostly Cloudy,25000.0,,BKN,25000.0,,,,,,
KRDR,08-25-2002,17:00,METAR,,190,6.0,,,9999.0,Cloud Development Not Observable,28.0,16.0,30.03,1017.1,,,,0,0,0,,,,,,,,,4/8 Partly Cloudy,72000.0,,SCT,25000.0,,,,,,
KRDR,08-25-2002,16:00,METAR,,180,7.0,,,9999.0,Cloud Development Not Observable,27.0,17.0,30.03,1017.3,,,,0,0,0,,,,,,,,,2/8 Mostly Clear,72000.0,,FEW,25000.0,,,,,,
KRDR,08-25-2002,15:00,METAR,,200,6.0,,,9999.0,Cloud Development Not Observable,25.0,16.0,30.03,1017.3,,,,0,0,0,,,,,,,,,2/8 Mostly Clear,72000.0,,FEW,25000.0,,,,,,
KRDR,08-25-2002,14:00,METAR,,210,6.0,,,9999.0,Cloud Development Not Observable,22.0,17.0,30.04,1017.3,,,,0,0,0,,,,,,,,,Clear,72000.0,,,73000.0,,,,,,
KRDR,08-25-2002,13:00,METAR,,200,3.0,,,9999.0,Cloud Development Not Observable,17.0,16.0,30.04,1017.5,,,,0,0,0,,,,,,,,,Clear,72000.0,,,73000.0,,,,,,
KRDR,08-25-2002,12:00,METAR,,200,3.0,,,9999.0,Cloud Development Not Observable,15.0,14.0,30.04,1017.4,,,,0,0,0,,,,,,,,,2/8 Mostly Clear,72000.0,,FEW,4000.0,,,,,,
KRDR,08-25-2002,11:00,METAR,,220,4.0,,,9999.0,Cloud Development Not Observable,14.0,13.0,30.04,1017.4,,,,0,0,0,,,,,,,,,Clear,72000.0,,,73000.0,,,,,,
KRDR,08-25-2002,10:00,METAR,,210,2.0,,,9999.0,Cloud Development Not Observable,14.0,14.0,30.04,1017.4,,,,0,0,0,,,,,,,,,Clear,72000.0,,,73000.0,,,,,,
KRDR,08-25-2002,09:00,METAR,,210,2.0,,,9999.0,Cloud Development Not Observable,14.0,14.0,30.04,1017.4,,,,0,0,0,,,,,,,,,Clear,72000.0,,,73000.0,,,,,,
KRDR,08-25-2002,08:00,METAR,,230,2.0,,,9999.0,Cloud Development Not Observable,14.0,13.0,30.04,1017.5,,,,0,0,0,,,,,,,,,Clear,72000.0,,,73000.0,,,,,,
KRDR,08-25-2002,07:00,METAR,,250,2.0,,,9999.0,Cloud Development Not Observable,14.0,13.0,30.05,1017.8,,,,0,0,0,,,,,,,,,Clear,72000.0,,,73000.0,,,,,,
KRDR,08-25-2002,06:00,METAR,,220,2.0,,,9999.0,Cloud Development Not Observable,14.0,13.0,30.05,1018.0,,,,0,0,0,,,,,,,,,Clear,72000.0,,,73000.0,,,,,,
KRDR,08-25-2002,05:00,METAR,,240,3.0,,,9999.0,Cloud Development Not Observable,15.0,14.0,30.05,1018.0,,,,0,0,0,,,,,,,,,Clear,72000.0,,,73000.0,,,,,,
KRDR,08-25-2002,04:00,METAR,,230,3.0,,,9999.0,Cloud Development Not Observable,16.0,14.0,30.05,1017.9,,,,0,0,0,,,,,,,,,Clear,72000.0,,,73000.0,,,,,,
KRDR,08-25-2002,03:00,METAR,,230,4.0,,,9999.0,Cloud Development Not Observable,17.0,14.0,30.04,1017.6,,,,0,0,0,,,,,,,,,Clear,72000.0,,,73000.0,,,,,,
KRDR,08-25-2002,02:00,METAR,,50,3.0,,,9999.0,Cloud Development Not Observable,24.0,13.0,30.02,1016.8,,,,0,0,0,,,,,,,,,2/8 Mostly Clear,72000.0,,FEW,12000.0,FEW,25000.0,,,,
KRDR,08-25-2002,01:00,METAR,,40,5.0,,,9999.0,Cloud Development Not Observable,25.0,13.0,30.01,1016.4,,,,0,0,0,,,,,,,,,2/8 Mostly Clear,72000.0,,FEW,25000.0,,,,,,
KRDR,08-25-2002,00:00,METAR,,,6.0,,,9999.0,Cloud Development Not Observable,27.0,13.0,30.02,1016.8,,,,0,0,0,,,,,,,,,2/8 Mostly Clear,72000.0,,FEW,25000.0,,,,,,
KRDR,08-24-2002,23:00,METAR,,,4.0,,,9999.0,Cloud Development Not Observable,28.0,13.0,30.02,1016.7,,,,0,0,0,,,,,,,,,2/8 Mostly Clear,72000.0,,FEW,25000.0,,,,,,
KRDR,08-24-2002,22:00,METAR,,,4.0,,,9999.0,Cloud Development Not Observable,28.0,14.0,30.03,1017.1,,,,0,0,0,,,,,,,,,2/8 Mostly Clear,72000.0,,FEW,5900.0,,,,,,
KRDR,08-24-2002,21:00,METAR,,,1.0,,,9999.0,Cloud Development Not Observable,28.0,14.0,30.04,1017.6,,,,0,0,0,,,,,,,,,2/8 Mostly Clear,72000.0,,FEW,5900.0,,,,,,
KRDR,08-24-2002,20:00,METAR,,50,3.0,,,9999.0,Cloud Development Not Observable,27.0,14.0,30.05,1018.0,,,,0,0,0,,,,,,,,,Clear,72000.0,,,73000.0,,,,,,
KRDR,08-24-2002,19:00,METAR,,40,5.0,,,9999.0,Cloud Development Not Observable,26.0,13.0,30.05,1018.0,,,,0,0,0,,,,,,,,,Clear,72000.0,,,73000.0,,,,,,
KRDR,08-24-2002,18:00,METAR,,80,3.0,,,9999.0,Cloud Development Not Observable,26.0,15.0,30.05,1018.0,,,,0,0,0,,,,,,,,,Clear,72000.0,,,73000.0,,,,,,
KRDR,08-24-2002,17:00,METAR,,40,7.0,,,9999.0,Cloud Development Not Observable,25.0,15.0,30.05,1018.0,,,,0,0,0,,,,,,,,,Clear,72000.0,,,73000.0,,,,,,
KRDR,08-24-2002,16:00,METAR,,60,7.0,,,9999.0,Cloud Development Not Observable,23.0,17.0,30.05,1017.8,,,,0,0,0,,,,,,,,,Clear,72000.0,,,73000.0,,,,,,
KRDR,08-24-2002,15:00,METAR,,20,4.0,,,9999.0,Cloud Development Not Observable,21.0,19.0,30.03,1017.3,,,,0,0,0,,,,,,,,,Clear,72000.0,,,73000.0,,,,,,
KRDR,08-24-2002,14:00,METAR,,340,5.0,,,9999.0,Cloud Development Not Observable,18.0,17.0,30.01,1016.7,,,,0,0,0,,,,,,,,,Clear,72000.0,,,73000.0,,,,,,
KRDR,08-24-2002,13:00,METAR,,350,5.0,,,9999.0,Cloud Development Not Observable,16.0,16.0,30.00,1016.3,,,,0,0,0,,,,,,,,,Clear,72000.0,,,73000.0,,,,,,
KRDR,08-24-2002,12:00,METAR,,330,4.0,,,9999.0,Cloud Development Not Observable,14.0,14.0,30.00,1016.0,,,,0,0,0,,,,,,,,,2/8 Mostly Clear,72000.0,,FEW,12000.0,,,,,,
KRDR,08-24-2002,11:00,METAR,,310,4.0,,,9999.0,Cloud Development Not Observable,15.0,15.0,30.00,1016.2,,,,0,0,0,,,,,,,,,2/8 Mostly Clear,72000.0,,FEW,12000.0,,,,,,
KRDR,08-24-2002,10:00,METAR,,250,3.0,,,9999.0,Cloud Development Not Observable,14.0,14.0,30.00,1016.0,,,,0,0,0,,,,,,,,,Clear,72000.0,,,73000.0,,,,,,
KRDR,08-24-2002,08:00,METAR,,260,3.0,,,9999.0,Cloud Development Not Observable,15.0,15.0,29.97,1015.1,,,,0,0,0,,,,,,,,,2/8 Mostly Clear,72000.0,,FEW,25000.0,,,,,,
KRDR,08-24-2002,07:00,METAR,,240,5.0,,,9999.0,Cloud Development Not Observable,16.0,16.0,29.98,1015.3,,,,0,0,0,,,,,,,,,4/8 Partly Cloudy,72000.0,,FEW,12000.0,SCT,25000.0,,,,
KRDR,08-24-2002,06:00,METAR,,180,5.0,,,9999.0,Cloud Development Not Observable,17.0,17.0,29.97,1015.0,,,,0,0,0,,,,,,,,,7/8 Mostly Cloudy,25000.0,,BKN,25000.0,,,,,,
KRDR,08-24-2002,05:00,METAR,,230,5.0,,,9999.0,Cloud Development Not Observable,16.0,16.0,29.96,1014.7,,,,0,0,0,,,,,,,,,7/8 Mostly Cloudy,25000.0,,FEW,11000.0,BKN,25000.0,,,,
KRDR,08-24-2002,04:00,METAR,,,4.0,,,9999.0,Cloud Development Not Observable,19.0,17.0,29.94,1013.9,,,,0,0,0,,,,,,,,,7/8 Mostly Cloudy,25000.0,,FEW,11000.0,BKN,25000.0,,,,
KRDR,08-24-2002,03:00,METAR,,,3.0,,,9999.0,Cloud Development Not Observable,19.0,16.0,29.92,1013.3,,,,0,0,0,,,,,,.09 IN,,,7/8 Mostly Cloudy,25000.0,,SCT,11000.0,BKN,25000.0,,,,
KRDR,08-24-2002,02:41,SPECI,,,2.0,,,9999.0,Cloud Development Not Observable,19.0,16.0,29.93,,,,,0,0,0,,,,,,,,,7/8 Mostly Cloudy,11000.0,,SCT,5000.0,BKN,11000.0,BKN,25000.0,,
KRDR,08-24-2002,02:24,SPECI,,230,8.0,,,9999.0,Light Rain Showers/Cloud Development Not Observable,19.0,16.0,29.94,,,,,80,0,0,,,,,,,,,7/8 Mostly Cloudy,4900.0,,FEW,2000.0,BKN,5000.0,BKN,11000.0,BKN,25000.0
KRDR,08-24-2002,02:00,METAR,,250,5.0,,,9999.0,Cloud Development Not Observable,20.0,16.0,29.99,1013.3,,,,0,0,0,,,,,,,,,7/8 Mostly Cloudy,4900.0,,FEW,2000.0,BKN,5000.0,BKN,11000.0,BKN,25000.0
KRDR,08-24-2002,01:20,METAR,,300,4.0,,,9999.0,Thunderstorm/Cloud Development Not Observable,20.0,16.0,29.97,,,,,17,0,0,,,,,,,,,7/8 Mostly Cloudy,4900.0,,FEW,2000.0,BKN,5000.0,BKN,9900.0,BKN,25000.0
KRDR,08-24-2002,01:00,METAR,,340,17.0,,,9999.0,Thunderstorm with Rain or Snow/Light Rain Showers/Cloud Development Not Observable,25.0,18.0,29.96,,,,,95,80,0,,,,,,,,,7/8 Mostly Cloudy,4900.0,,BKN,5000.0,BKN,9900.0,BKN,25000.0,,
KRDR,08-24-2002,00:55,METAR,,280,3.0,,,9999.0,Cloud Development Not Observable,25.0,18.0,29.94,1013.3,,,,0,0,0,,,,,,,,,7/8 Mostly Cloudy,4900.0,,BKN,5000.0,BKN,9900.0,BKN,25000.0,,
KRDR,08-24-2002,00:00,METAR,,270,7.0,,,9999.0,Cloud Development Not Observable,28.0,18.0,29.92,1013.3,,,,0,0,0,,,,,,,,,7/8 Mostly Cloudy,25000.0,,BKN,25000.0,,,,,,
KRDR,08-23-2002,23:00,METAR,,240,6.0,,,9999.0,Cloud Development Not Observable,29.0,18.0,29.93,1013.6,,,,0,0,0,,,,,,,,,4/8 Partly Cloudy,72000.0,,FEW,5000.0,SCT,25000.0,,,,
KRDR,08-23-2002,22:00,METAR,,250,7.0,,,9999.0,Cloud Development Not Observable,28.0,18.0,29.94,1014.6,,,,0,0,0,,,,,,,,,4/8 Partly Cloudy,72000.0,,FEW,4500.0,SCT,25000.0,,,,
KRDR,08-23-2002,21:00,METAR,,220,9.0,14.0,,9999.0,Cloud Development Not Observable,28.0,18.0,29.96,1014.6,,,,0,0,0,,,,,,,,,7/8 Mostly Cloudy,25000.0,,SCT,4500.0,BKN,25000.0,,,,
KRDR,08-23-2002,20:00,METAR,,230,8.0,,,9999.0,Cloud Development Not Observable,28.0,18.0,29.98,1015.3,,,,0,0,0,,,,,,,,,7/8 Mostly Cloudy,25000.0,,FEW,4000.0,BKN,25000.0,,,,
KRDR,08-23-2002,19:00,METAR,,,4.0,,,9999.0,Cloud Development Not Observable,27.0,17.0,29.99,1015.9,,,,0,0,0,,,,,,,,,7/8 Mostly Cloudy,25000.0,,FEW,2500.0,BKN,25000.0,,,,
KRDR,08-23-2002,18:00,METAR,,210,6.0,,,9999.0,Cloud Development Not Observable,26.0,18.0,30.01,1016.6,,,,0,0,0,,,,,,,,,7/8 Mostly Cloudy,25000.0,,FEW,2500.0,BKN,25000.0,,,,
KRDR,08-23-2002,17:00,METAR,,260,8.0,,,9999.0,Cloud Development Not Observable,25.0,18.0,30.02,1016.9,,,,0,0,0,,,,,,,,,7/8 Mostly Cloudy,15000.0,,FEW,2500.0,SCT,15000.0,BKN,25000.0,,
KRDR,08-23-2002,16:00,METAR,,280,8.0,,,9999.0,Cloud Development Not Observable,24.0,19.0,30.03,1017.1,,,,0,0,0,,,,,,,,,7/8 Mostly Cloudy,12000.0,,FEW,2200.0,SCT,12000.0,BKN,25000.0,,
KRDR,08-23-2002,15:00,METAR,,260,7.0,,,9999.0,Cloud Development Not Observable,22.0,19.0,30.04,1017.6,,,,0,0,0,,,,,,,,,4/8 Partly Cloudy,72000.0,,FEW,12000.0,SCT,25000.0,,,,
KRDR,08-23-2002,14:00,METAR,,250,5.0,,,9999.0,Cloud Development Not Observable,19.0,18.0,30.04,1017.7,,,,0,0,0,,,,,,,,,7/8 Mostly Cloudy,25000.0,,FEW,12000.0,BKN,25000.0,,,,
KRDR,08-23-2002,13:00,METAR,,210,4.0,,,9999.0,Mist/Cloud Development Not Observable,16.0,16.0,30.03,1017.4,,,,10,0,0,,,,,,,,,7/8 Mostly Cloudy,25000.0,,FEW,13000.0,BKN,25000.0,,,,
KRDR,08-23-2002,12:00,METAR,,,,,,,Cloud Development Not Observable,13.0,13.0,30.05,1018.1,,,,0,0,0,,,,,,,,,,25000.0,,BKN,25000.0,,,,,,
KRDR,08-23-2002,11:00,METAR,,220,3.0,,,9999.0,Cloud Development Not Observable,14.0,14.0,30.04,1017.7,,,,0,0,0,,,,,,,,,7/8 Mostly Cloudy,25000.0,,SCT,13000.0,BKN,25000.0,,,,
KRDR,08-23-2002,10:00,METAR,,230,3.0,,,9999.0,Cloud Development Not Observable,14.0,14.0,30.04,1017.7,,,,0,0,0,,,,,,,,,7/8 Mostly Cloudy,25000.0,,SCT,13000.0,BKN,25000.0,,,,
KRDR,08-23-2002,09:00,METAR,,200,1.0,,,9999.0,Cloud Development Not Observable,15.0,15.0,30.03,1017.4,,,,0,0,0,,,,,,,,,7/8 Mostly Cloudy,13000.0,,BKN,13000.0,BKN,25000.0,,,,
KRDR,08-23-2002,08:32,SPECI,,200,3.0,,,9999.0,Cloud Development Not Observable,14.0,14.0,30.04,,,,,0,0,0,,,,,,,,,7/8 Mostly Cloudy,13000.0,,BKN,13000.0,BKN,25000.0,,,,
KRDR,08-23-2002,08:00,METAR,,210,3.0,,,9999.0,Cloud Development Not Observable,14.0,14.0,30.05,1018.1,,,,0,0,0,,,,,,,,,4/8 Partly Cloudy,72000.0,,FEW,0.0,SCT,13000.0,,,,
KRDR,08-23-2002,07:39,SPECI,,240,4.0,,,9999.0,Cloud Development Not Observable,15.0,15.0,30.04,,,,,0,0,0,,,,,,,,,4/8 Partly Cloudy,72000.0,,FEW,0.0,SCT,13000.0,,,,
KRDR,08-23-2002,07:00,METAR,,210,2.0,,,9999.0,Cloud Development Not Observable,16.0,16.0,30.05,1018.0,,,,0,0,0,,,,,,,,,2/8 Mostly Clear,72000.0,,FEW,13000.0,,,,,,
KRDR,08-23-2002,05:00,METAR,,220,3.0,,,9999.0,Cloud Development Not Observable,18.0,18.0,30.06,1018.4,,,,0,0,0,,,,,,,,,7/8 Mostly Cloudy,13000.0,,BKN,13000.0,,,,,,
KRDR,08-23-2002,04:00,METAR,,,4.0,,,9999.0,Cloud Development Not Observable,19.0,19.0,30.06,1018.3,,,,0,0,0,,,,,,,,,7/8 Mostly Cloudy,13000.0,,BKN,13000.0,,,,,,
KRDR,08-23-2002,03:00,METAR,,130,5.0,,,9999.0,Cloud Development Not Observable,21.0,19.0,30.06,1018.3,,,,0,0,0,,,,,,,,,7/8 Mostly Cloudy,13000.0,,BKN,13000.0,,,,,,
KRDR,08-23-2002,02:00,METAR,,,1.0,,,9999.0,Cloud Development Not Observable,21.0,19.0,30.06,1018.3,,,,0,0,0,,,,,,,,,7/8 Mostly Cloudy,12000.0,,FEW,6900.0,BKN,12000.0,,,,
KRDR,08-23-2002,01:00,METAR,,60,2.0,,,9999.0,Cloud Development Not Observable,23.0,17.0,30.05,1018.0,,,,0,0,0,,,,,,,,,7/8 Mostly Cloudy,12000.0,,BKN,12000.0,BKN,25000.0,,,,
KRDR,08-23-2002,00:00,METAR,,70,2.0,,,9999.0,Cloud Development Not Observable,24.0,16.0,30.06,1018.4,,,,0,0,0,,,,,,,,,8/8 Overcast,12000.0,,BKN,12000.0,OVC,25000.0,,,,
KRDR,08-22-2002,23:00,METAR,,70,2.0,,,9999.0,Cloud Development Not Observable,24.0,17.0,30.08,1019.1,,,,0,0,0,,,,,,,,,8/8 Overcast,25000.0,,SCT,12000.0,OVC,25000.0,,,,
KRDR,08-22-2002,22:00,METAR,,,4.0,,,9999.0,Cloud Development Not Observable,24.0,17.0,30.09,1019.4,,,,0,0,0,,,,,,,,,8/8 Overcast,11000.0,,FEW,6900.0,SCT,11000.0,OVC,25000.0,,
KRDR,08-22-2002,21:00,METAR,,,4.0,,,9999.0,Cloud Development Not Observable,24.0,16.0,30.10,1019.7,,,,0,0,0,,,,,,,,,8/8 Overcast,25000.0,,SCT,14000.0,OVC,25000.0,,,,
KRDR,08-22-2002,20:00,METAR,,,6.0,,,9999.0,Cloud Development Not Observable,24.0,17.0,30.12,1020.4,,,,0,0,0,,,,,,,,,7/8 Mostly Cloudy,25000.0,,FEW,5900.0,FEW,14000.0,BKN,25000.0,,
KRDR,08-22-2002,19:00,METAR,,,3.0,,,9999.0,Cloud Development Not Observable,24.0,17.0,30.13,1020.8,,,,0,0,0,,,,,,,,,7/8 Mostly Cloudy,25000.0,,FEW,5900.0,BKN,25000.0,,,,
KRDR,08-22-2002,18:00,METAR,,,3.0,,,9999.0,Cloud Development Not Observable,23.0,16.0,30.14,1021.1,,,,0,0,0,,,,,,,,,7/8 Mostly Cloudy,25000.0,,BKN,25000.0,,,,,,
KRDR,08-22-2002,17:00,METAR,,,2.0,,,9999.0,Cloud Development Not Observable,21.0,14.0,30.15,1021.3,,,,0,0,0,,,,,,,,,7/8 Mostly Cloudy,25000.0,,FEW,5900.0,BKN,25000.0,,,,
KRDR,08-22-2002,16:00,METAR,,,3.0,,,9999.0,Cloud Development Not Observable,19.0,14.0,30.15,1021.4,,,,0,0,0,,,,,,,,,7/8 Mostly Cloudy,25000.0,,BKN,25000.0,,,,,,
KRDR,08-22-2002,15:00,METAR,,,2.0,,,9999.0,Cloud Development Not Observable,18.0,13.0,30.15,1021.4,,,,0,0,0,,,,,,,,,7/8 Mostly Cloudy,25000.0,,BKN,25000.0,,,,,,
KRDR,08-22-2002,14:00,METAR,,20,4.0,,,9999.0,Cloud Development Not Observable,15.0,13.0,30.14,1021.0,,,,0,0,0,,,,,,,,,7/8 Mostly Cloudy,25000.0,,BKN,25000.0,,,,,,
KRDR,08-22-2002,13:00,METAR,,350,5.0,,,9999.0,Cloud Development Not Observable,12.0,12.0,30.14,1021.1,,,,0,0,0,,,,,,,,,4/8 Partly Cloudy,72000.0,,SCT,25000.0,,,,,,
KRDR,08-22-2002,12:00,METAR,,340,5.0,,,9999.0,Cloud Development Not Observable,11.0,11.0,30.13,1020.7,,,,0,0,0,,,,,,,,,4/8 Partly Cloudy,72000.0,,FEW,8900.0,SCT,25000.0,,,,
KRDR,08-22-2002,11:00,METAR,,340,5.0,,,9999.0,Cloud Development Not Observable,11.0,11.0,30.10,1019.7,,,,0,0,0,,,,,,,,,7/8 Mostly Cloudy,25000.0,,FEW,8900.0,BKN,25000.0,,,,
KRDR,08-22-2002,10:00,METAR,,330,4.0,,,9999.0,Cloud Development Not Observable,12.0,12.0,30.10,1019.6,,,,0,0,0,,,,,,,,,4/8 Partly Cloudy,72000.0,,FEW,8900.0,SCT,25000.0,,,,
KRDR,08-22-2002,09:00,METAR,,350,5.0,,,9999.0,Cloud Development Not Observable,13.0,12.0,30.08,1018.8,,,,0,0,0,,,,,,,,,7/8 Mostly Cloudy,25000.0,,FEW,8900.0,BKN,25000.0,,,,
KRDR,08-22-2002,08:00,METAR,,360,5.0,,,9999.0,Cloud Development Not Observable,13.0,12.0,30.08,1018.8,,,,0,0,0,,,,,,,,,7/8 Mostly Cloudy,25000.0,,FEW,4000.0,FEW,8900.0,BKN,25000.0,,
KRDR,08-22-2002,07:00,METAR,,350,5.0,,,9999.0,Cloud Development Not Observable,13.0,12.0,30.09,1019.1,,,,0,0,0,,,,,,,,,4/8 Partly Cloudy,72000.0,,FEW,4000.0,SCT,8900.0,SCT,25000.0,,
KRDR,08-22-2002,06:00,METAR,,360,6.0,,,9999.0,Cloud Development Not Observable,14.0,13.0,30.06,1018.5,,,,0,0,0,,,,,,,,,2/8 Mostly Clear,72000.0,,FEW,20000.0,,,,,,
KRDR,08-22-2002,05:00,METAR,,340,5.0,,,9999.0,Cloud Development Not Observable,15.0,14.0,30.05,1018.1,,,,0,0,0,,,,,,,,,2/8 Mostly Clear,72000.0,,FEW,20000.0,,,,,,
KRDR,08-22-2002,04:00,METAR,,330,5.0,,,9999.0,Cloud Development Not Observable,16.0,15.0,30.04,1017.7,,,,0,0,0,,,,,,,,,7/8 Mostly Cloudy,12000.0,,SCT,4000.0,BKN,12000.0,BKN,25000.0,,
KRDR,08-22-2002,03:00,METAR,,350,6.0,,,9999.0,Cloud Development Not Observable,17.0,16.0,30.02,1016.9,,,,0,0,0,,,,,,,,,7/8 Mostly Cloudy,25000.0,,FEW,12000.0,BKN,25000.0,,,,
KRDR,08-22-2002,02:00,METAR,,360,11.0,,,9999.0,Cloud Development Not Observable,19.0,17.0,29.99,1015.8,,,,0,0,0,,,,,,,,,7/8 Mostly Cloudy,25000.0,,FEW,12000.0,BKN,25000.0,,,,
KRDR,08-22-2002,01:00,METAR,,360,10.0,,,9999.0,Cloud Development Not Observable,21.0,18.0,29.96,1014.8,,,,0,0,0,,,,,,,,,7/8 Mostly Cloudy,12000.0,,FEW,5900.0,SCT,12000.0,BKN,25000.0,,
KRDR,08-22-2002,00:00,METAR,,10,11.0,,,9999.0,Cloud Development Not Observable,22.0,18.0,29.93,1013.7,,,,0,0,0,,,,,,,,,7/8 Mostly Cloudy,10000.0,,SCT,5900.0,BKN,9900.0,BKN,25000.0,,
KRDR,08-21-2002,23:00,METAR,,20,12.0,,,9999.0,Cloud Development Not Observable,22.0,18.0,29.93,1013.7,,,,0,0,0,,,,,,,,,7/8 Mostly Cloudy,10000.0,,FEW,4000.0,BKN,9900.0,BKN,25000.0,,
KRDR,08-21-2002,22:00,METAR,,360,15.0,,,9999.0,Cloud Development Not Observable,23.0,18.0,29.92,1013.5,,,,0,0,0,,,,,,,,,7/8 Mostly Cloudy,8500.0,,SCT,4000.0,BKN,8400.0,BKN,25000.0,,
KRDR,08-21-2002,21:00,METAR,,10,15.0,,,9999.0,Cloud Development Not Observable,25.0,19.0,29.92,1013.5,,,,0,0,0,,,,,,,,,7/8 Mostly Cloudy,8500.0,,SCT,3500.0,BKN,8400.0,BKN,25000.0,,
KRDR,08-21-2002,20:00,METAR,,20,12.0,,,9999.0,Cloud Development Not Observable,24.0,19.0,29.93,1013.9,,,,0,0,0,,,,,,,,,7/8 Mostly Cloudy,4900.0,,FEW,3000.0,BKN,5000.0,BKN,25000.0,,
KRDR,08-21-2002,19:06,SPECI,,30,12.0,,,9999.0,Cloud Development Not Observable,25.0,19.0,29.93,,,,,0,0,0,,,,,,,,,7/8 Mostly Cloudy,4900.0,,FEW,3000.0,BKN,5000.0,BKN,25000.0,,
KRDR,08-21-2002,19:00,METAR,,40,10.0,,,9999.0,Cloud Development Not Observable,25.0,20.0,29.93,1013.8,,,,0,0,0,,,,,,,,,7/8 Mostly Cloudy,2800.0,,BKN,2800.0,BKN,5000.0,BKN,25000.0,,
KRDR,08-21-2002,18:00,METAR,,20,10.0,,,9999.0,Cloud Development Not Observable,23.0,18.0,29.93,1013.9,,,,0,0,0,,,,,,,,,7/8 Mostly Cloudy,2800.0,,BKN,2800.0,BKN,25000.0,,,,
KRDR,08-21-2002,17:33,SPECI,,30,9.0,,,9999.0,Cloud Development Not Observable,23.0,18.0,29.92,,,,,0,0,0,,,,,,,,,7/8 Mostly Cloudy,2500.0,,BKN,2500.0,BKN,25000.0,,,,
KRDR,08-21-2002,17:00,METAR,,50,10.0,,,9999.0,Cloud Development Not Observable,24.0,19.0,29.91,1013.1,,,,0,0,0,,,,,,,,,7/8 Mostly Cloudy,3000.0,,SCT,2000.0,BKN,3000.0,BKN,25000.0,,
KRDR,08-21-2002,16:00,METAR,,30,10.0,,,9999.0,Cloud Development Not Observable,23.0,19.0,29.89,1012.4,,,,0,0,0,,,,,,,,,7/8 Mostly Cloudy,25000.0,,FEW,2000.0,FEW,3000.0,BKN,25000.0,,
KRDR,08-21-2002,15:00,METAR,,30,7.0,,,9999.0,Cloud Development Not Observable,21.0,18.0,29.88,1012.1,,,,0,0,0,,,,,,,,,7/8 Mostly Cloudy,3000.0,,FEW,2000.0,SCT,3000.0,BKN,14000.0,BKN,25000.0
KRDR,08-21-2002,14:00,METAR,,30,7.0,,,9999.0,Cloud Development Not Observable,19.0,17.0,29.88,1012.1,,,,0,0,0,,,,,,,,,7/8 Mostly Cloudy,3000.0,,BKN,3000.0,BKN,14000.0,BKN,25000.0,,
KRDR,08-21-2002,11:00,METAR,,350,3.0,,,9999.0,Cloud Development Not Observable,16.0,16.0,29.86,1011.6,,,,0,0,0,,,,,,,,,7/8 Mostly Cloudy,2800.0,,BKN,2800.0,BKN,3200.0,,,,
KRDR,08-21-2002,10:16,SPECI,,360,3.0,,,9999.0,Cloud Development Not Observable,16.0,16.0,29.86,,,,,0,0,0,,,,,,,,,7/8 Mostly Cloudy,2800.0,,BKN,2800.0,,,,,,
KRDR,08-21-2002,10:00,METAR,,60,2.0,,,9999.0,Cloud Development Not Observable,16.0,16.0,29.87,1011.7,,,,0,0,0,,,,,,,,,4/8 Partly Cloudy,72000.0,,SCT,2000.0,,,,,,
KRDR,08-21-2002,09:00,METAR,,120,6.0,,,9999.0,Cloud Development Not Observable,16.0,16.0,29.87,1011.7,,,,0,0,0,,,,,,,,,8/8 Overcast,20000.0,,SCT,2000.0,OVC,20000.0,,,,
KRDR,08-21-2002,08:00,METAR,,120,5.0,,,9999.0,Cloud Development Not Observable,15.0,15.0,29.88,1012.1,,,,0,0,0,,,,,,,,,7/8 Mostly Cloudy,20000.0,,FEW,8900.0,BKN,20000.0,,,,
KRDR,08-21-2002,07:00,METAR,,170,5.0,,,9999.0,Cloud Development Not Observable,16.0,16.0,29.88,1012.1,,,,0,0,0,,,,,,,,,8/8 Overcast,20000.0,,FEW,8900.0,OVC,20000.0,,,,
KRDR,08-21-2002,06:00,METAR,,170,5.0,,,9999.0,Cloud Development Not Observable,16.0,16.0,29.89,1012.4,,,,0,0,0,,,,,,,,,7/8 Mostly Cloudy,20000.0,,SCT,8900.0,BKN,20000.0,,,,
KRDR,08-21-2002,05:00,METAR,,150,5.0,,,9999.0,Cloud Development Not Observable,17.0,16.0,29.87,1011.7,,,,0,0,0,,,,,,,,,7/8 Mostly Cloudy,20000.0,,SCT,8900.0,BKN,20000.0,,,,
KRDR,08-21-2002,04:00,METAR,,140,5.0,,,9999.0,Cloud Development Not Observable,18.0,16.0,29.86,1011.4,,,,0,0,0,,,,,,,,,7/8 Mostly Cloudy,25000.0,,SCT,8900.0,BKN,25000.0,,,,
KRDR,08-21-2002,03:00,METAR,,100,5.0,,,9999.0,Cloud Development Not Observable,19.0,16.0,29.83,1010.4,,,,0,0,0,,,,,,,,,8/8 Overcast,25000.0,,SCT,12000.0,OVC,25000.0,,,,
KRDR,08-21-2002,02:00,METAR,,130,6.0,,,9999.0,Cloud Development Not Observable,20.0,15.0,29.84,1010.7,,,,0,0,0,,,,,,,,,7/8 Mostly Cloudy,12000.0,,SCT,4500.0,BKN,12000.0,BKN,25000.0,,
KRDR,08-21-2002,01:00,METAR,,150,7.0,,,9999.0,Cloud Development Not Observable,21.0,15.0,29.84,1010.8,,,,0,0,0,,,,,,,,,8/8 Overcast,4400.0,,BKN,4500.0,BKN,9900.0,OVC,23000.0,,
KRDR,08-21-2002,00:00,METAR,,170,13.0,,,9999.0,Cloud Development Not Observable,22.0,15.0,29.88,1012.2,,,,0,0,0,,,,,,,,,8/8 Overcast,3900.0,,BKN,4000.0,BKN,9900.0,OVC,24000.0,,
KRDR,08-20-2002,23:00,METAR,,170,14.0,,,9999.0,Cloud Development Not Observable,23.0,15.0,29.84,1010.9,,,,0,0,0,,,,,,,,,8/8 Overcast,24000.0,,FEW,8900.0,OVC,24000.0,,,,
KRDR,08-20-2002,22:00,METAR,,170,10.0,,,9999.0,Cloud Development Not Observable,24.0,16.0,29.83,1010.3,,,,0,0,0,,,,,,,,,8/8 Overcast,24000.0,,FEW,8900.0,OVC,24000.0,,,,
KRDR,08-20-2002,21:00,METAR,,170,14.0,,,9999.0,Cloud Development Not Observable,24.0,16.0,29.85,1011.0,,,,0,0,0,,,,,,,,,7/8 Mostly Cloudy,25000.0,,BKN,25000.0,,,,,,
KRDR,08-20-2002,20:00,METAR,,180,11.0,,,9999.0,Cloud Development Not Observable,24.0,15.0,29.87,1011.7,,,,0,0,0,,,,,,,,,7/8 Mostly Cloudy,25000.0,,BKN,25000.0,,,,,,
KRDR,08-20-2002,19:00,METAR,,190,17.0,24.0,190/28KTS,9999.0,Cloud Development Not Observable,25.0,14.0,29.87,1011.9,,,,0,0,0,,,,,,,,,4/8 Partly Cloudy,72000.0,,SCT,25000.0,,,,,,
KRDR,08-20-2002,18:00,METAR,,180,16.0,23.0,190/25KTS,9999.0,Cloud Development Not Observable,25.0,14.0,29.90,1012.6,,,,0,0,0,,,,,,,,,2/8 Mostly Clear,72000.0,,FEW,25000.0,,,,,,
KRDR,08-20-2002,17:00,METAR,,210,19.0,26.0,,9999.0,Cloud Development Not Observable,23.0,14.0,29.90,1012.7,,,,0,0,0,,,,,,,,,2/8 Mostly Clear,72000.0,,FEW,5900.0,FEW,25000.0,,,,
KRDR,08-20-2002,16:00,METAR,,190,16.0,26.0,,9999.0,Cloud Development Not Observable,22.0,14.0,29.91,1013.1,,,,0,0,0,,,,,,,,,2/8 Mostly Clear,72000.0,,FEW,25000.0,,,,,,
KRDR,08-20-2002,15:00,METAR,,190,13.0,,,9999.0,Cloud Development Not Observable,20.0,13.0,29.91,1013.0,,,,0,0,0,,,,,,,,,2/8 Mostly Clear,72000.0,,FEW,25000.0,,,,,,
KRDR,08-20-2002,14:00,METAR,,180,16.0,23.0,,9999.0,Cloud Development Not Observable,18.0,13.0,29.90,1012.7,,,,0,0,0,,,,,,,,,2/8 Mostly Clear,72000.0,,FEW,25000.0,,,,,,
KRDR,08-20-2002,13:00,METAR,,180,13.0,,,9999.0,Cloud Development Not Observable,16.0,12.0,29.90,1012.7,,,,0,0,0,,,,,,,,,2/8 Mostly Clear,72000.0,,FEW,9900.0,FEW,25000.0,,,,
KRDR,08-20-2002,12:00,METAR,,190,10.0,,,9999.0,Cloud Development Not Observable,15.0,12.0,29.90,1012.8,,,,0,0,0,,,,,,,,,2/8 Mostly Clear,72000.0,,FEW,9900.0,FEW,25000.0,,,,
KRDR,08-20-2002,11:00,METAR,,200,11.0,,,9999.0,Cloud Development Not Observable,15.0,12.0,29.89,1012.4,,,,0,0,0,,,,,,,,,4/8 Partly Cloudy,72000.0,,FEW,9900.0,SCT,25000.0,,,,
KRDR,08-20-2002,10:00,METAR,,200,10.0,,,9999.0,Cloud Development Not Observable,16.0,12.0,29.88,1012.0,,,,0,0,0,,,,,,,,,4/8 Partly Cloudy,72000.0,,FEW,9900.0,SCT,25000.0,,,,
KRDR,08-20-2002,09:00,METAR,,200,11.0,,,9999.0,Cloud Development Not Observable,16.0,12.0,29.88,1012.0,,,,0,0,0,,,,,,,,,4/8 Partly Cloudy,72000.0,,FEW,9900.0,SCT,25000.0,,,,
KRDR,08-20-2002,07:00,METAR,,200,10.0,,,9999.0,Cloud Development Not Observable,16.0,13.0,29.88,1012.1,,,,0,0,0,,,,,,,,,Clear,72000.0,,,73000.0,,,,,,
KRDR,08-20-2002,06:00,METAR,,180,8.0,,,9999.0,Cloud Development Not Observable,15.0,13.0,29.88,1012.1,,,,0,0,0,,,,,,,,,Clear,72000.0,,,73000.0,,,,,,
KRDR,08-20-2002,05:00,METAR,,180,7.0,,,9999.0,Cloud Development Not Observable,15.0,13.0,29.88,1012.2,,,,0,0,0,,,,,,,,,Clear,72000.0,,,73000.0,,,,,,
KRDR,08-20-2002,04:00,METAR,,190,6.0,,,9999.0,Cloud Development Not Observable,15.0,13.0,29.87,1011.9,,,,0,0,0,,,,,,,,,2/8 Mostly Clear,72000.0,,FEW,5900.0,,,,,,
KRDR,08-20-2002,03:00,METAR,,190,4.0,,,9999.0,Cloud Development Not Observable,18.0,13.0,29.87,1011.8,,,,0,0,0,,,,,,,,,Clear,72000.0,,,73000.0,,,,,,
KRDR,08-20-2002,02:00,METAR,,190,5.0,,,9999.0,Cloud Development Not Observable,20.0,13.0,29.86,1011.6,,,,0,0,0,,,,,,,,,Clear,72000.0,,,73000.0,,,,,,
KRDR,08-20-2002,01:00,METAR,,190,4.0,,,9999.0,Cloud Development Not Observable,23.0,12.0,29.86,1011.6,,,,0,0,0,,,,,,,,,2/8 Mostly Clear,72000.0,,FEW,5000.0,,,,,,
KRDR,08-20-2002,00:00,METAR,,200,7.0,,,9999.0,Cloud Development Not Observable,26.0,11.0,29.86,1011.6,,,,0,0,0,,,,,,,,,2/8 Mostly Clear,72000.0,,FEW,5000.0,,,,,,
KRDR,08-19-2002,23:00,METAR,,230,6.0,,,9999.0,Cloud Development Not Observable,27.0,9.0,29.87,1011.8,,,,0,0,0,,,,,,,,,2/8 Mostly Clear,72000.0,,FEW,5000.0,,,,,,
KRDR,08-19-2002,22:00,METAR,,250,11.0,,,9999.0,Cloud Development Not Observable,27.0,11.0,29.89,1012.4,,,,0,0,0,,,,,,,,,2/8 Mostly Clear,72000.0,,FEW,4500.0,,,,,,
KRDR,08-19-2002,21:00,METAR,,260,14.0,19.0,,9999.0,Cloud Development Not Observable,27.0,10.0,29.90,1012.8,,,,0,0,0,,,,,,,,,2/8 Mostly Clear,72000.0,,FEW,4000.0,,,,,,
KRDR,08-19-2002,20:00,METAR,,220,7.0,,,9999.0,Cloud Development Not Observable,26.0,11.0,29.92,1013.5,,,,0,0,0,,,,,,,,,2/8 Mostly Clear,72000.0,,FEW,4000.0,,,,,,
KRDR,08-19-2002,19:00,METAR,,220,7.0,,,9999.0,Cloud Development Not Observable,25.0,12.0,29.94,1014.2,,,,0,0,0,,,,,,,,,2/8 Mostly Clear,72000.0,,FEW,3500.0,FEW,9900.0,,,,
KRDR,08-19-2002,18:00,METAR,,210,10.0,,,9999.0,Cloud Development Not Observable,23.0,12.0,29.94,1014.4,,,,0,0,0,,,,,,,,,Clear,72000.0,,,73000.0,,,,,,
KRDR,08-19-2002,17:00,METAR,,200,10.0,,,9999.0,Cloud Development Not Observable,21.0,13.0,29.96,1015.0,,,,0,0,0,,,,,,,,,2/8 Mostly Clear,72000.0,,FEW,9900.0,,,,,,
KRDR,08-19-2002,16:00,METAR,,180,10.0,,,9999.0,Cloud Development Not Observable,20.0,13.0,29.96,1015.1,,,,0,0,0,,,,,,,,,2/8 Mostly Clear,72000.0,,FEW,4000.0,FEW,9900.0,,,,
KRDR,08-19-2002,15:00,METAR,,210,11.0,,,9999.0,Cloud Development Not Observable,18.0,12.0,29.98,1015.8,,,,0,0,0,,,,,,,,,4/8 Partly Cloudy,72000.0,,FEW,6400.0,SCT,8900.0,,,,
KRDR,08-19-2002,14:00,METAR,,210,9.0,,,9999.0,Cloud Development Not Observable,15.0,12.0,29.98,1015.8,,,,0,0,0,,,,,,,,,4/8 Partly Cloudy,72000.0,,SCT,11000.0,,,,,,
KRDR,08-19-2002,13:00,METAR,,210,8.0,,,9999.0,Cloud Development Not Observable,12.0,11.0,29.99,1016.1,,,,0,0,0,,,,,,,,,7/8 Mostly Cloudy,9000.0,,FEW,5900.0,BKN,8900.0,,,,
KRDR,08-19-2002,12:00,METAR,,210,6.0,,,9999.0,Cloud Development Not Observable,9.0,9.0,29.98,1015.8,,,,0,0,0,,,,,,,,,4/8 Partly Cloudy,72000.0,,SCT,12000.0,,,,,,
KRDR,08-19-2002,11:00,METAR,,220,7.0,,,9999.0,Cloud Development Not Observable,9.0,9.0,29.97,1015.5,,,,0,0,0,,,,,,,,,4/8 Partly Cloudy,72000.0,,SCT,12000.0,,,,,,
KRDR,08-19-2002,10:00,METAR,,210,7.0,,,9999.0,Cloud Development Not Observable,9.0,9.0,29.97,1015.5,,,,0,0,0,,,,,,,,,4/8 Partly Cloudy,72000.0,,SCT,12000.0,,,,,,
KRDR,08-19-2002,09:00,METAR,,210,8.0,,,9999.0,Cloud Development Not Observable,8.0,8.0,29.97,1015.5,,,,0,0,0,,,,,,,,,2/8 Mostly Clear,72000.0,,FEW,9900.0,,,,,,
KRDR,08-19-2002,08:00,METAR,,200,5.0,,,9999.0,Cloud Development Not Observable,8.0,8.0,29.96,1015.2,,,,0,0,0,,,,,,,,,2/8 Mostly Clear,72000.0,,FEW,9900.0,,,,,,
KRDR,08-19-2002,07:00,METAR,,210,5.0,,,9999.0,Cloud Development Not Observable,8.0,8.0,29.97,1015.5,,,,0,0,0,,,,,,,,,2/8 Mostly Clear,72000.0,,FEW,9900.0,,,,,,
KRDR,08-19-2002,06:00,METAR,,210,5.0,,,9999.0,Cloud Development Not Observable,9.0,9.0,29.98,1015.8,,,,0,0,0,,,,,,,,,Clear,72000.0,,,73000.0,,,,,,
KRDR,08-19-2002,05:00,METAR,,200,5.0,,,9999.0,Cloud Development Not Observable,9.0,9.0,29.98,1015.8,,,,0,0,0,,,,,,,,,2/8 Mostly Clear,72000.0,,FEW,9900.0,,,,,,
KRDR,08-19-2002,04:00,METAR,,210,4.0,,,9999.0,Cloud Development Not Observable,9.0,8.0,29.98,1016.1,,,,0,0,0,,,,,,,,,Clear,72000.0,,,73000.0,,,,,,
KRDR,08-19-2002,03:00,METAR,,210,4.0,,,9999.0,Cloud Development Not Observable,10.0,9.0,29.98,1015.9,,,,0,0,0,,,,,,,,,Clear,72000.0,,,73000.0,,,,,,
KRDR,08-19-2002,02:00,METAR,,230,4.0,,,9999.0,Cloud Development Not Observable,13.0,12.0,29.86,1012.0,,,,0,0,0,,,,,,,,,4/8 Partly Cloudy,72000.0,,FEW,9900.0,SCT,20000.0,,,,
KRDR,08-19-2002,01:00,METAR,,240,3.0,,,9999.0,Cloud Development Not Observable,17.0,10.0,29.95,1015.0,,,,0,0,0,,,,,,,,,7/8 Mostly Cloudy,20000.0,,SCT,9900.0,BKN,20000.0,,,,
KRDR,08-19-2002,00:00,METAR,,290,3.0,,,9999.0,Cloud Development Not Observable,17.0,9.0,29.96,1015.3,,,,0,0,0,,,,,,,,,7/8 Mostly Cloudy,10000.0,,BKN,9900.0,BKN,20000.0,,,,
KRDR,08-18-2002,23:00,METAR,,300,4.0,,,9999.0,Cloud Development Not Observable,17.0,9.0,29.96,1015.4,,,,0,0,0,,,,,,,,,7/8 Mostly Cloudy,10000.0,,FEW,4000.0,BKN,9900.0,BKN,20000.0,,
KRDR,08-18-2002,22:00,METAR,,250,3.0,,,9999.0,Cloud Development Not Observable,17.0,9.0,29.97,1015.5,,,,0,0,0,,,,,,,,,7/8 Mostly Cloudy,10000.0,,FEW,4000.0,BKN,9900.0,BKN,20000.0,,
KRDR,08-18-2002,21:00,METAR,,,1.0,,,9999.0,Cloud Development Not Observable,16.0,9.0,29.97,1015.6,,,,0,0,0,,,,,,.01 IN,,,7/8 Mostly Cloudy,10000.0,,FEW,4000.0,BKN,9900.0,BKN,20000.0,,
KRDR,08-18-2002,20:40,SPECI,,330,2.0,,,9999.0,Cloud Development Not Observable,16.0,9.0,29.97,,,,,0,0,0,,,,,,,,,7/8 Mostly Cloudy,10000.0,,FEW,4000.0,BKN,9900.0,BKN,20000.0,,
KRDR,08-18-2002,20:00,METAR,,20,3.0,,,9999.0,Light Rain Showers/Cloud Development Not Observable,16.0,10.0,29.96,1015.2,,,,80,0,0,,,,,,,,,8/8 Overcast,10000.0,,FEW,4000.0,BKN,9900.0,OVC,20000.0,,
KRDR,08-18-2002,19:49,SPECI,,10,3.0,,,9999.0,Light Rain Showers/Cloud Development Not Observable,16.0,11.0,29.96,,,,,80,0,0,,,,,,,,,8/8 Overcast,10000.0,,SCT,3000.0,BKN,9900.0,OVC,20000.0,,
KRDR,08-18-2002,19:00,METAR,,290,3.0,,,9999.0,Cloud Development Not Observable,17.0,8.0,29.96,1015.4,,,,0,0,0,,,,,,,,,7/8 Mostly Cloudy,12000.0,,SCT,3500.0,BKN,12000.0,BKN,20000.0,,
KRDR,08-18-2002,18:00,METAR,,300,5.0,,,9999.0,Cloud Development Not Observable,17.0,8.0,29.96,1015.3,,,,0,0,0,,,,,,,,,7/8 Mostly Cloudy,12000.0,,SCT,3000.0,BKN,12000.0,BKN,20000.0,,
KRDR,08-18-2002,17:00,METAR,,150,4.0,,,9999.0,Cloud Development Not Observable,18.0,10.0,29.96,1015.3,,,,0,0,0,,,,,,,,,7/8 Mostly Cloudy,12000.0,,FEW,3000.0,SCT,12000.0,BKN,22000.0,,
KRDR,08-18-2002,16:00,METAR,,,2.0,,,9999.0,Cloud Development Not Observable,16.0,10.0,29.97,1015.5,,,,0,0,0,,,,,,,,,7/8 Mostly Cloudy,12000.0,,FEW,2800.0,SCT,12000.0,BKN,22000.0,,
KRDR,08-18-2002,15:00,METAR,,,0.0,,,9999.0,Cloud Development Not Observable,15.0,10.0,29.98,1015.9,,,,0,0,0,,,,,,,,,7/8 Mostly Cloudy,22000.0,,FEW,12000.0,BKN,22000.0,,,,
KRDR,08-18-2002,14:00,METAR,,300,5.0,,,9999.0,Cloud Development Not Observable,12.0,10.0,29.98,1015.9,,,,0,0,0,,,,,,,,,7/8 Mostly Cloudy,22000.0,,FEW,12000.0,BKN,22000.0,,,,
KRDR,08-18-2002,13:00,METAR,,280,5.0,,,9999.0,Cloud Development Not Observable,9.0,9.0,29.96,1015.2,,,,0,0,0,,,,,,,,,4/8 Partly Cloudy,72000.0,,FEW,12000.0,SCT,22000.0,,,,
KRDR,08-18-2002,12:00,METAR,,250,3.0,,,9999.0,Cloud Development Not Observable,6.0,6.0,29.95,1015.0,,,,0,0,0,,,,,,,,,4/8 Partly Cloudy,72000.0,,FEW,12000.0,SCT,20000.0,,,,
KRDR,08-18-2002,11:00,METAR,,250,3.0,,,9999.0,Cloud Development Not Observable,7.0,7.0,29.93,1014.3,,,,0,0,0,,,,,,,,,2/8 Mostly Clear,72000.0,,FEW,20000.0,,,,,,
KRDR,08-18-2002,10:00,METAR,,270,5.0,,,9999.0,Cloud Development Not Observable,7.0,7.0,29.93,1014.3,,,,0,0,0,,,,,,,,,Clear,72000.0,,,73000.0,,,,,,
KRDR,08-18-2002,09:00,METAR,,270,5.0,,,9999.0,Cloud Development Not Observable,7.0,7.0,29.93,1014.3,,,,0,0,0,,,,,,,,,Clear,72000.0,,,73000.0,,,,,,
KRDR,08-18-2002,08:00,METAR,,270,5.0,,,9999.0,Cloud Development Not Observable,8.0,7.0,29.93,1014.3,,,,0,0,0,,,,,,,,,Clear,72000.0,,,73000.0,,,,,,
KRDR,08-18-2002,07:00,METAR,,280,6.0,,,9999.0,Cloud Development Not Observable,8.0,8.0,29.93,1014.3,,,,0,0,0,,,,,,,,,Clear,72000.0,,,73000.0,,,,,,
KRDR,08-18-2002,06:00,METAR,,270,6.0,,,9999.0,Cloud Development Not Observable,9.0,8.0,29.93,1014.3,,,,0,0,0,,,,,,,,,Clear,72000.0,,,73000.0,,,,,,
KRDR,08-18-2002,05:00,METAR,,270,6.0,,,9999.0,Cloud Development Not Observable,9.0,8.0,29.94,1014.7,,,,0,0,0,,,,,,,,,Clear,72000.0,,,73000.0,,,,,,
KRDR,08-18-2002,04:00,METAR,,260,6.0,,,9999.0,Cloud Development Not Observable,10.0,7.0,29.93,1014.4,,,,0,0,0,,,,,,,,,Clear,72000.0,,,73000.0,,,,,,
KRDR,08-18-2002,03:00,METAR,,290,6.0,,,9999.0,Cloud Development Not Observable,10.0,8.0,29.92,1014.0,,,,0,0,0,,,,,,,,,Clear,72000.0,,,73000.0,,,,,,
KRDR,08-18-2002,02:00,METAR,,300,4.0,,,9999.0,Cloud Development Not Observable,12.0,8.0,29.90,1013.3,,,,0,0,0,,,,,,,,,2/8 Mostly Clear,72000.0,,FEW,5400.0,,,,,,
KRDR,08-18-2002,01:00,METAR,,330,10.0,,,9999.0,Cloud Development Not Observable,16.0,8.0,29.89,1012.8,,,,0,0,0,,,,,,,,,2/8 Mostly Clear,72000.0,,FEW,5400.0,,,,,,
KRDR,08-18-2002,00:00,METAR,,310,13.0,,,9999.0,Cloud Development Not Observable,18.0,9.0,29.87,1012.1,,,,0,0,0,,,,,,,,,2/8 Mostly Clear,72000.0,,FEW,5400.0,,,,,,
KRDR,08-17-2002,23:00,METAR,,290,12.0,25.0,300/27KTS,9999.0,Cloud Development Not Observable,18.0,8.0,29.85,1011.3,,,,0,0,0,,,,,,,,,4/8 Partly Cloudy,72000.0,,SCT,5000.0,,,,,,
KRDR,08-17-2002,22:00,METAR,,300,20.0,25.0,290/30KTS,9999.0,Cloud Development Not Observable,18.0,7.0,29.83,1009.9,,,,0,0,0,,,,,,,,,2/8 Mostly Clear,72000.0,,FEW,5000.0,,,,,,
KRDR,08-17-2002,21:00,METAR,,290,19.0,27.0,280/32KTS,9999.0,Cloud Development Not Observable,19.0,8.0,29.81,1009.5,,,,0,0,0,,,,,,,,,4/8 Partly Cloudy,72000.0,,SCT,5000.0,,,,,,
KRDR,08-17-2002,20:00,METAR,,290,23.0,29.0,270/32KTS,9999.0,Cloud Development Not Observable,18.0,7.0,29.80,1009.6,,,,0,0,0,,,,,,,,,4/8 Partly Cloudy,72000.0,,SCT,5000.0,,,,,,
KRDR,08-17-2002,19:00,METAR,,280,21.0,34.0,290/35KTS,9999.0,Cloud Development Not Observable,18.0,8.0,29.79,1008.9,,,,0,0,0,,,,,,,,,4/8 Partly Cloudy,72000.0,,SCT,3000.0,,,,,,
KRDR,08-17-2002,18:00,METAR,,290,25.0,33.0,,9999.0,Cloud Development Not Observable,17.0,7.0,29.78,1008.9,,,,0,0,0,,,,,,,,,4/8 Partly Cloudy,72000.0,,SCT,3000.0,,,,,,
KRDR,08-17-2002,17:00,METAR,,290,24.0,33.0,,9999.0,Cloud Development Not Observable,15.0,7.0,29.77,1008.6,,,,0,0,0,,,,,,,,,4/8 Partly Cloudy,72000.0,,SCT,3000.0,,,,,,
KRDR,08-17-2002,16:00,METAR,,290,23.0,31.0,300/39KTS,9999.0,Cloud Development Not Observable,12.0,8.0,29.75,1008.1,,,,0,0,0,,,,,,,,,7/8 Mostly Cloudy,3400.0,,FEW,2000.0,BKN,3500.0,,,,
KRDR,08-17-2002,15:00,METAR,,290,26.0,34.0,280/34KTS,9999.0,Cloud Development Not Observable,12.0,8.0,29.73,1007.3,,,,0,0,0,,,,,,,,,7/8 Mostly Cloudy,3000.0,,FEW,2000.0,BKN,3000.0,,,,
KRDR,08-17-2002,14:00,METAR,,290,24.0,29.0,300/32KTS,9999.0,Cloud Development Not Observable,11.0,8.0,29.73,1007.3,,,,0,0,0,,,,,,,,,8/8 Overcast,3000.0,,OVC,3000.0,,,,,,
KRDR,08-17-2002,13:24,SPECI,,290,21.0,28.0,,9999.0,Cloud Development Not Observable,12.0,8.0,29.71,,,,,0,0,0,,,,,,,,,7/8 Mostly Cloudy,3000.0,,BKN,3000.0,BKN,5000.0,BKN,12000.0,,
KRDR,08-17-2002,13:10,SPECI,,290,18.0,27.0,,9999.0,Rain/Cloud Development Not Observable,12.0,9.0,29.70,,,,,61,0,0,,,,,,,,,7/8 Mostly Cloudy,4900.0,,SCT,2000.0,BKN,5000.0,BKN,12000.0,,
KRDR,08-17-2002,13:00,METAR,,290,23.0,28.0,290/37KTS,9999.0,Cloud Development Not Observable,12.0,9.0,29.69,1006.0,,,,0,0,0,,,,,,,,,4/8 Partly Cloudy,72000.0,,SCT,2000.0,SCT,5000.0,SCT,12000.0,,
KRDR,08-17-2002,12:00,METAR,,290,21.0,25.0,290/26KTS,9999.0,Cloud Development Not Observable,11.0,10.0,29.65,1003.9,,,,0,0,0,,,,,,,,,4/8 Partly Cloudy,72000.0,,SCT,2000.0,SCT,5000.0,,,,
KRDR,08-17-2002,11:38,SPECI,,290,20.0,26.0,,9999.0,Cloud Development Not Observable,12.0,10.0,29.66,,,,,0,0,0,,,,,,,,,7/8 Mostly Cloudy,2000.0,,BKN,2000.0,BKN,5000.0,BKN,9900.0,,
KRDR,08-17-2002,11:00,METAR,,300,16.0,23.0,310/31KTS,9999.0,Cloud Development Not Observable,12.0,10.0,29.63,1003.9,,,,0,0,0,,,,,,,,,7/8 Mostly Cloudy,4900.0,,SCT,2800.0,BKN,5000.0,,,,
KRDR,08-17-2002,10:23,SPECI,,300,21.0,26.0,,9999.0,Cloud Development Not Observable,12.0,10.0,29.62,,,,,0,0,0,,,,,,,,,7/8 Mostly Cloudy,4400.0,,SCT,2000.0,BKN,4500.0,BKN,6900.0,,
KRDR,08-17-2002,10:00,METAR,,310,21.0,27.0,320/30KTS,9999.0,Cloud Development Not Observable,13.0,12.0,29.60,1002.8,,,,0,0,0,,,,,,,,,7/8 Mostly Cloudy,1400.0,,BKN,1400.0,BKN,4500.0,BKN,6900.0,,
KRDR,08-17-2002,09:20,METAR,,310,19.0,29.0,,9999.0,Cloud Development Not Observable,13.0,13.0,29.60,,,,,0,0,0,,,,,,,,,8/8 Overcast,1300.0,,BKN,1300.0,BKN,3500.0,OVC,9900.0,,
KRDR,08-17-2002,09:00,METAR,,310,19.0,26.0,,9999.0,Rain/Cloud Development Not Observable,13.0,13.0,29.57,1001.8,,,,61,0,0,,,,,,.02 IN,,,8/8 Overcast,1200.0,,BKN,1200.0,BKN,3000.0,OVC,9900.0,,
KRDR,08-17-2002,08:19,SPECI,,300,13.0,,,9999.0,Rain/Cloud Development Not Observable,13.0,13.0,29.57,,,,,61,0,0,,,,,,,,,8/8 Overcast,1100.0,,BKN,1100.0,OVC,9900.0,,,,
KRDR,08-17-2002,08:00,METAR,,300,14.0,,,9999.0,Rain/Cloud Development Not Observable,13.0,13.0,29.56,1001.4,,,,61,0,0,,,,,,,,,8/8 Overcast,1100.0,,SCT,500.0,BKN,1100.0,OVC,9900.0,,
KRDR,08-17-2002,07:34,SPECI,,270,5.0,,,9999.0,Rain/Cloud Development Not Observable,13.0,13.0,29.54,,,,,61,0,0,,,,,,,,,7/8 Mostly Cloudy,11000.0,,BKN,11000.0,BKN,20000.0,,,,
KRDR,08-17-2002,07:15,SPECI,,330,6.0,,,9999.0,Thunderstorm with Rain or Snow/Light Rain Showers/Cloud Development Not Observable,13.0,13.0,29.53,,,,,95,80,0,,,,,,,,,7/8 Mostly Cloudy,10000.0,,SCT,2000.0,BKN,9900.0,BKN,20000.0,,
KRDR,08-17-2002,07:00,METAR,,330,8.0,,,9999.0,Rain/Cloud Development Not Observable,13.0,13.0,29.54,1000.6,,,,61,0,0,,,,,,,,,8/8 Overcast,1400.0,,BKN,1400.0,OVC,5900.0,,,,
KRDR,08-17-2002,06:21,SPECI,,310,9.0,,,9999.0,Rain/Cloud Development Not Observable,13.0,13.0,29.56,,,,,61,0,0,,,,,,,,,8/8 Overcast,1200.0,,OVC,1200.0,,,,,,
KRDR,08-17-2002,06:00,METAR,,340,2.0,,,9999.0,Rain/Cloud Development Not Observable,14.0,13.0,29.55,1000.9,,,,61,0,0,,,,,,,,,8/8 Overcast,1500.0,,OVC,1500.0,,,,,,
KRDR,08-17-2002,05:00,METAR,,80,7.0,,,9999.0,Cloud Development Not Observable,14.0,13.0,29.54,1000.5,,,,0,0,0,,,,,,,,,7/8 Mostly Cloudy,2000.0,,BKN,2000.0,BKN,9900.0,BKN,20000.0,,
KRDR,08-17-2002,04:00,METAR,,70,11.0,,,9999.0,Cloud Development Not Observable,14.0,14.0,29.58,1001.9,,,,0,0,0,,,,,,,,,8/8 Overcast,3000.0,,BKN,3000.0,BKN,9900.0,OVC,20000.0,,
KRDR,08-17-2002,03:28,SPECI,,80,12.0,,,9999.0,Cloud Development Not Observable,14.0,14.0,29.62,,,,,0,0,0,,,,,,,,,8/8 Overcast,10000.0,,SCT,3500.0,SCT,9900.0,OVC,20000.0,,
KRDR,08-17-2002,03:00,METAR,,80,9.0,,,9999.0,Thunderstorm with Rain or Snow/Light Rain Showers/Cloud Development Not Observable,14.0,14.0,29.67,1005.2,,,,95,80,0,,,,,,.41 IN,,,8/8 Overcast,10000.0,,SCT,5900.0,BKN,9900.0,OVC,20000.0,,
KRDR,08-17-2002,02:00,METAR,,80,9.0,,,9999.0,Thunderstorm with Rain or Snow/Light Rain Showers/Cloud Development Not Observable,14.0,14.0,29.67,1005.2,,,,95,80,0,,,,,,,,,8/8 Overcast,10000.0,,SCT,5900.0,BKN,9900.0,OVC,20000.0,,
KRDR,08-17-2002,01:45,METAR,,80,8.0,,,9999.0,Thunderstorm with Rain or Snow/Light Rain Showers/Cloud Development Not Observable,15.0,15.0,29.70,,,,,95,80,0,,,,,,,,,8/8 Overcast,10000.0,,SCT,5900.0,BKN,9900.0,OVC,20000.0,,
KRDR,08-17-2002,01:00,METAR,,90,10.0,,,9999.0,Light Rain Showers/Cloud Development Not Observable,15.0,15.0,29.67,1005.4,,,,80,0,0,,,,,,,,,8/8 Overcast,10000.0,,FEW,5900.0,BKN,9900.0,OVC,25000.0,,
KRDR,08-17-2002,00:17,SPECI,,50,8.0,,,9999.0,Light Rain Showers/Cloud Development Not Observable,15.0,15.0,29.73,,,,,80,0,0,,,,,,,,,8/8 Overcast,10000.0,,SCT,5900.0,BKN,9900.0,OVC,20000.0,,
KRDR,08-17-2002,00:00,METAR,,80,7.0,,,9999.0,Thunderstorm with Rain or Snow/Light Rain Showers/Cloud Development Not Observable,15.0,15.0,29.77,1009.0,,,,95,80,0,,,,,,,,,8/8 Overcast,6000.0,,FEW,2000.0,SCT,5900.0,BKN,9900.0,OVC,25000.0
KRDR,08-16-2002,23:00,METAR,,70,5.0,,,9999.0,Thunderstorm with Rain or Snow/Light Rain Showers/Cloud Development Not Observable,16.0,15.0,29.78,1009.0,,,,95,80,0,,,,,,,,,8/8 Overcast,10000.0,,SCT,5900.0,BKN,9900.0,OVC,25000.0,,
KRDR,08-16-2002,22:26,SPECI,,100,5.0,,,9999.0,Thunderstorm with Rain or Snow/Light Rain Showers/Cloud Development Not Observable,16.0,15.0,29.78,,,,,95,80,0,,,,,,,,,8/8 Overcast,10000.0,,SCT,5000.0,BKN,9900.0,OVC,25000.0,,
KRDR,08-16-2002,22:00,METAR,,110,3.0,,,9999.0,Cloud Development Not Observable,17.0,15.0,29.77,1008.8,,,,0,0,0,,,,,,,,,8/8 Overcast,10000.0,,BKN,9900.0,OVC,25000.0,,,,
KRDR,08-16-2002,21:31,SPECI,,50,4.0,,,9999.0,Rain/Cloud Development Not Observable,17.0,14.0,29.79,,,,,61,0,0,,,,,,,,,8/8 Overcast,8500.0,,BKN,8400.0,OVC,20000.0,,,,
KRDR,08-16-2002,21:15,SPECI,,70,2.0,,,9999.0,Cloud Development Not Observable,17.0,14.0,29.78,,,,,0,0,0,,,,,,,,,8/8 Overcast,10000.0,,BKN,9900.0,OVC,25000.0,,,,
KRDR,08-16-2002,21:00,METAR,,90,6.0,,,9999.0,Light Rain Showers/Cloud Development Not Observable,16.0,14.0,29.78,1008.9,,,,80,0,0,,,,,,.07 IN,,,8/8 Overcast,10000.0,,BKN,9900.0,OVC,25000.0,,,,
KRDR,08-16-2002,20:00,METAR,,220,6.0,,,9999.0,Light Rain Showers/Cloud Development Not Observable,18.0,13.0,29.84,1011.0,,,,80,0,0,,,,,,,,,8/8 Overcast,10000.0,,BKN,9900.0,OVC,25000.0,,,,
KRDR,08-16-2002,19:00,METAR,,210,9.0,,,9999.0,Cloud Development Not Observable,20.0,12.0,29.85,1011.3,,,,0,0,0,,,,,,,,,8/8 Overcast,10000.0,,BKN,9900.0,OVC,25000.0,,,,
KRDR,08-16-2002,18:00,METAR,,240,8.0,,,9999.0,Cloud Development Not Observable,20.0,12.0,29.86,1011.6,,,,0,0,0,,,,,,,,,7/8 Mostly Cloudy,10000.0,,BKN,9900.0,BKN,25000.0,,,,
KRDR,08-16-2002,17:00,METAR,,260,10.0,,,9999.0,Cloud Development Not Observable,20.0,12.0,29.88,1012.3,,,,0,0,0,,,,,,,,,7/8 Mostly Cloudy,10000.0,,BKN,9900.0,BKN,25000.0,,,,
KRDR,08-16-2002,16:00,METAR,,230,7.0,,,9999.0,Cloud Development Not Observable,20.0,13.0,29.88,1012.3,,,,0,0,0,,,,,,,,,4/8 Partly Cloudy,72000.0,,SCT,9900.0,SCT,25000.0,,,,
KRDR,08-16-2002,15:00,METAR,,300,9.0,,,9999.0,Cloud Development Not Observable,17.0,13.0,29.87,1012.2,,,,0,0,0,,,,,,,,,4/8 Partly Cloudy,72000.0,,FEW,9900.0,SCT,25000.0,,,,
KRDR,08-16-2002,14:00,METAR,,250,12.0,18.0,,9999.0,Cloud Development Not Observable,16.0,13.0,29.89,1012.6,,,,0,0,0,,,,,,,,,4/8 Partly Cloudy,72000.0,,FEW,9900.0,SCT,25000.0,,,,
KRDR,08-16-2002,13:00,METAR,,240,9.0,,,9999.0,Cloud Development Not Observable,13.0,12.0,29.89,1012.6,,,,0,0,0,,,,,,,,,2/8 Mostly Clear,72000.0,,FEW,9900.0,,,,,,
KRDR,08-16-2002,12:00,METAR,,240,6.0,,,9999.0,Cloud Development Not Observable,11.0,11.0,29.88,1012.4,,,,0,0,0,,,,,,,,,2/8 Mostly Clear,72000.0,,FEW,9900.0,,,,,,
KRDR,08-16-2002,11:00,METAR,,240,6.0,,,9999.0,Cloud Development Not Observable,11.0,11.0,29.86,1011.7,,,,0,0,0,,,,,,,,,Clear,72000.0,,,73000.0,,,,,,
KRDR,08-16-2002,09:00,METAR,,260,7.0,,,9999.0,Cloud Development Not Observable,13.0,12.0,29.84,1011.0,,,,0,0,0,,,,,,,,,Clear,72000.0,,,73000.0,,,,,,
KRDR,08-16-2002,08:00,METAR,,250,7.0,,,9999.0,Cloud Development Not Observable,13.0,13.0,29.84,1010.9,,,,0,0,0,,,,,,,,,Clear,72000.0,,,73000.0,,,,,,
KRDR,08-16-2002,07:00,METAR,,240,6.0,,,9999.0,Cloud Development Not Observable,12.0,12.0,29.83,1010.6,,,,0,0,0,,,,,,,,,2/8 Mostly Clear,72000.0,,FEW,7900.0,,,,,,
KRDR,08-16-2002,06:00,METAR,,230,4.0,,,9999.0,Cloud Development Not Observable,12.0,12.0,29.82,1010.2,,,,0,0,0,,,,,,,,,7/8 Mostly Cloudy,8000.0,,BKN,7900.0,BKN,9400.0,,,,
KRDR,08-16-2002,05:00,METAR,,230,6.0,,,9999.0,Cloud Development Not Observable,13.0,13.0,29.82,1010.2,,,,0,0,0,,,,,,,,,2/8 Mostly Clear,72000.0,,FEW,7900.0,FEW,20000.0,,,,
KRDR,08-16-2002,04:00,METAR,,220,6.0,,,9999.0,Cloud Development Not Observable,12.0,12.0,29.81,1009.9,,,,0,0,0,,,,,,,,,2/8 Mostly Clear,72000.0,,FEW,12000.0,FEW,20000.0,,,,
KRDR,08-16-2002,02:00,METAR,,270,2.0,,,9999.0,Cloud Development Not Observable,15.0,14.0,29.79,1009.2,,,,0,0,0,,,,,,,,,4/8 Partly Cloudy,72000.0,,FEW,6900.0,FEW,12000.0,SCT,20000.0,,
KRDR,08-16-2002,01:00,METAR,,270,4.0,,,9999.0,Cloud Development Not Observable,16.0,15.0,29.78,1008.7,,,,0,0,0,,,,,,,,,7/8 Mostly Cloudy,12000.0,,SCT,6900.0,BKN,12000.0,BKN,20000.0,,
KRDR,08-16-2002,00:00,METAR,,280,6.0,,,9999.0,Cloud Development Not Observable,17.0,15.0,29.76,1008.3,,,,0,0,0,,,,,,,,,7/8 Mostly Cloudy,12000.0,,SCT,6900.0,BKN,12000.0,BKN,20000.0,,
KRDR,08-15-2002,23:00,METAR,,280,6.0,,,9999.0,Cloud Development Not Observable,18.0,16.0,29.75,1007.9,,,,0,0,0,,,,,,,,,7/8 Mostly Cloudy,7000.0,,FEW,2000.0,SCT,6900.0,BKN,12000.0,BKN,20000.0
KRDR,08-15-2002,22:38,SPECI,,280,6.0,,,9999.0,Cloud Development Not Observable,17.0,15.0,29.74,1007.3,,,,0,0,0,,,,,,,,,7/8 Mostly Cloudy,12000.0,,SCT,6900.0,BKN,12000.0,BKN,20000.0,,
KRDR,08-15-2002,21:00,METAR,,290,6.0,,,9999.0,Light Rain Showers/Cloud Development Not Observable,16.0,15.0,29.73,1007.3,,,,80,0,0,,,,,,,,,7/8 Mostly Cloudy,6000.0,,BKN,5900.0,BKN,8900.0,BKN,20000.0,,
KRDR,08-15-2002,20:44,SPECI,,300,11.0,,,9999.0,Light Rain Showers/Cloud Development Not Observable,16.0,15.0,29.72,,,,,80,0,0,,,,,,,,,7/8 Mostly Cloudy,6000.0,,BKN,5900.0,BKN,8900.0,BKN,20000.0,,
KRDR,08-15-2002,20:16,SPECI,,300,12.0,,,9999.0,Cloud Development Not Observable,19.0,14.0,29.70,,,,,0,0,0,,,,,,,,,7/8 Mostly Cloudy,6000.0,,BKN,5900.0,BKN,8900.0,BKN,20000.0,,
KRDR,08-15-2002,20:00,METAR,,300,13.0,21.0,290/29KTS,9999.0,Light Rain Showers/Cloud Development Not Observable,19.0,14.0,29.70,1006.0,,,,80,0,0,,,,,,,,,7/8 Mostly Cloudy,6000.0,,BKN,5900.0,BKN,8900.0,BKN,20000.0,,
KRDR,08-15-2002,19:45,METAR,,300,15.0,21.0,,9999.0,Cloud Development Not Observable,19.0,14.0,29.68,,,,,0,0,0,,,,,,,,,7/8 Mostly Cloudy,3900.0,,BKN,4000.0,BKN,8900.0,BKN,20000.0,,
KRDR,08-15-2002,19:13,SPECI,,280,9.0,23.0,,9999.0,Light Rain Showers/Cloud Development Not Observable,18.0,15.0,29.67,,,,,80,0,0,,,,,,,,,7/8 Mostly Cloudy,3400.0,,BKN,3500.0,BKN,8900.0,BKN,20000.0,,
KRDR,08-15-2002,19:07,SPECI,,280,17.0,29.0,,8000.0,Rain Showers/Cloud Development Not Observable,20.0,13.0,29.67,,,,,81,0,0,,,,,,,,,7/8 Mostly Cloudy,3400.0,,BKN,3500.0,BKN,8900.0,BKN,20000.0,,
KRDR,08-15-2002,19:00,METAR,,280,11.0,,,9999.0,Cloud Development Not Observable,20.0,13.0,29.66,1004.9,,,,0,0,0,,,,,,,,,7/8 Mostly Cloudy,3400.0,,BKN,3500.0,BKN,8900.0,BKN,20000.0,,
KRDR,08-15-2002,18:12,SPECI,,300,12.0,,,9999.0,Cloud Development Not Observable,19.0,15.0,29.66,,,,,0,0,0,,,,,,,,,7/8 Mostly Cloudy,9000.0,,SCT,2500.0,BKN,8900.0,BKN,20000.0,,
KRDR,08-15-2002,18:00,METAR,,310,14.0,,,9999.0,Light Rain Showers/Cloud Development Not Observable,19.0,15.0,29.66,,,,,80,0,0,,,,,,,,,7/8 Mostly Cloudy,10000.0,,SCT,2500.0,BKN,9900.0,BKN,20000.0,,
KRDR,08-15-2002,17:55,METAR,,280,12.0,,,9999.0,Cloud Development Not Observable,21.0,15.0,29.65,1004.5,,,,0,0,0,,,,,,,,,7/8 Mostly Cloudy,2500.0,,BKN,2500.0,BKN,9900.0,BKN,20000.0,,
KRDR,08-15-2002,17:32,SPECI,,280,14.0,,,9999.0,Cloud Development Not Observable,20.0,14.0,29.65,,,,,0,0,0,,,,,,,,,7/8 Mostly Cloudy,2500.0,,BKN,2500.0,BKN,9900.0,BKN,20000.0,,
KRDR,08-15-2002,17:00,METAR,,290,15.0,,,9999.0,Cloud Development Not Observable,21.0,15.0,29.65,1004.4,,,,0,0,0,,,,,,,,,7/8 Mostly Cloudy,4900.0,,SCT,2500.0,BKN,5000.0,BKN,9900.0,BKN,18000.0
KRDR,08-15-2002,16:39,SPECI,,280,12.0,,,9999.0,Cloud Development Not Observable,20.0,15.0,29.65,,,,,0,0,0,,,,,,,,,7/8 Mostly Cloudy,2500.0,,BKN,2500.0,BKN,6900.0,BKN,20000.0,,
KRDR,08-15-2002,16:00,METAR,,290,11.0,,,9999.0,Cloud Development Not Observable,18.0,15.0,29.64,1004.1,,,,0,0,0,,,,,,,,,7/8 Mostly Cloudy,7000.0,,SCT,1800.0,BKN,6900.0,BKN,9900.0,BKN,18000.0
KRDR,08-15-2002,15:06,SPECI,,290,8.0,,,9999.0,Cloud Development Not Observable,17.0,16.0,29.64,,,,,0,0,0,,,,,,,,,7/8 Mostly Cloudy,7000.0,,FEW,1500.0,FEW,5000.0,SCT,6900.0,BKN,12000.0
KRDR,08-15-2002,15:00,METAR,,290,9.0,,,9999.0,Light Rain Showers/Cloud Development Not Observable,16.0,15.0,29.63,1003.8,,,,80,0,0,,,,,,.02 IN,,,7/8 Mostly Cloudy,7000.0,,FEW,1500.0,FEW,5000.0,BKN,6900.0,BKN,12000.0
KRDR,08-15-2002,14:00,METAR,,290,9.0,,,9999.0,Light Rain Showers/Cloud Development Not Observable,16.0,15.0,29.63,1003.7,,,,80,0,0,,,,,,,,,8/8 Overcast,7500.0,,SCT,5900.0,BKN,7400.0,OVC,11000.0,,
KRDR,08-15-2002,13:47,SPECI,,290,8.0,,,9999.0,Light Rain Showers/Cloud Development Not Observable,16.0,15.0,29.63,,,,,80,0,0,,,,,,,,,8/8 Overcast,7500.0,,SCT,5900.0,BKN,7400.0,OVC,11000.0,,
KRDR,08-15-2002,13:15,SPECI,,280,5.0,,,9999.0,Cloud Development Not Observable,15.0,15.0,29.62,,,,,0,0,0,,,,,,,,,8/8 Overcast,7500.0,,FEW,5000.0,BKN,7400.0,OVC,11000.0,,
KRDR,08-15-2002,13:00,METAR,,290,6.0,,,9999.0,Light Rain Showers/Cloud Development Not Observable,15.0,15.0,29.61,1003.0,,,,80,0,0,,,,,,,,,8/8 Overcast,7500.0,,FEW,5000.0,BKN,7400.0,OVC,11000.0,,
KRDR,08-15-2002,12:29,SPECI,,280,6.0,,,9999.0,Light Rain Showers/Cloud Development Not Observable,15.0,14.0,29.61,,,,,80,0,0,,,,,,,,,8/8 Overcast,7500.0,,FEW,5000.0,BKN,7400.0,OVC,11000.0,,
KRDR,08-15-2002,12:06,SPECI,,310,5.0,,,9999.0,Light Rain Showers/Cloud Development Not Observable,15.0,14.0,29.60,,,,,80,0,0,,,,,,,,,7/8 Mostly Cloudy,8500.0,,BKN,8400.0,BKN,18000.0,,,,
KRDR,08-15-2002,12:00,METAR,,280,5.0,,,9999.0,Cloud Development Not Observable,15.0,14.0,29.59,1002.3,,,,0,0,0,,,,,,,,,7/8 Mostly Cloudy,11000.0,,SCT,8400.0,BKN,11000.0,BKN,18000.0,,
KRDR,08-15-2002,11:00,METAR,,290,5.0,,,9999.0,Cloud Development Not Observable,15.0,14.0,29.58,1001.7,,,,0,0,0,,,,,,,,,8/8 Overcast,20000.0,,SCT,9400.0,OVC,20000.0,,,,
KRDR,08-15-2002,10:00,METAR,,270,6.0,,,9999.0,Cloud Development Not Observable,15.0,14.0,29.58,1001.7,,,,0,0,0,,,,,,,,,8/8 Overcast,9000.0,,BKN,8900.0,OVC,20000.0,,,,
KRDR,08-15-2002,09:00,METAR,,220,5.0,,,9999.0,Cloud Development Not Observable,14.0,14.0,29.59,1002.1,,,,0,0,0,,,,,,,,,8/8 Overcast,20000.0,,SCT,9900.0,OVC,20000.0,,,,
KRDR,08-15-2002,08:00,METAR,,230,4.0,,,9999.0,Cloud Development Not Observable,14.0,13.0,29.57,1001.6,,,,0,0,0,,,,,,,,,8/8 Overcast,20000.0,,SCT,9900.0,OVC,20000.0,,,,
KRDR,08-15-2002,07:00,METAR,,270,6.0,,,9999.0,Cloud Development Not Observable,15.0,13.0,29.56,1001.0,,,,0,0,0,,,,,,,,,8/8 Overcast,20000.0,,SCT,9900.0,OVC,20000.0,,,,
KRDR,08-15-2002,06:00,METAR,,300,4.0,,,9999.0,Cloud Development Not Observable,16.0,13.0,29.56,1001.1,,,,0,0,0,,,,,,,,,7/8 Mostly Cloudy,20000.0,,SCT,9900.0,BKN,20000.0,,,,
KRDR,08-15-2002,05:00,METAR,,310,6.0,,,9999.0,Cloud Development Not Observable,18.0,13.0,29.56,1001.2,,,,0,0,0,,,,,,,,,7/8 Mostly Cloudy,10000.0,,BKN,9900.0,BKN,20000.0,,,,
KRDR,08-15-2002,04:00,METAR,,260,6.0,,,9999.0,Cloud Development Not Observable,20.0,12.0,29.54,1000.5,,,,0,0,0,,,,,,,,,7/8 Mostly Cloudy,10000.0,,BKN,9900.0,BKN,20000.0,,,,
KRDR,08-15-2002,03:00,METAR,,260,7.0,,,9999.0,Cloud Development Not Observable,21.0,14.0,29.54,1000.5,,,,0,0,0,,,,,,,,,7/8 Mostly Cloudy,12000.0,,FEW,5900.0,BKN,12000.0,BKN,20000.0,,
KRDR,08-15-2002,02:00,METAR,,260,7.0,,,9999.0,Cloud Development Not Observable,23.0,13.0,29.51,999.5,,,,0,0,0,,,,,,,,,7/8 Mostly Cloudy,12000.0,,FEW,5900.0,BKN,12000.0,BKN,20000.0,,
KRDR,08-15-2002,01:00,METAR,,220,6.0,,,9999.0,Cloud Development Not Observable,24.0,17.0,29.50,999.1,,,,0,0,0,,,,,,,,,7/8 Mostly Cloudy,12000.0,,FEW,5900.0,SCT,12000.0,BKN,20000.0,,
KRDR,08-15-2002,00:00,METAR,,190,7.0,,,9999.0,Cloud Development Not Observable,25.0,17.0,29.48,998.4,,,,0,0,0,,,,,,,,,7/8 Mostly Cloudy,12000.0,,FEW,5900.0,SCT,12000.0,BKN,20000.0,,
KRDR,08-14-2002,23:00,METAR,,210,8.0,,,9999.0,Cloud Development Not Observable,26.0,15.0,29.48,998.4,,,,0,0,0,,,,,,,,,7/8 Mostly Cloudy,12000.0,,FEW,5900.0,SCT,12000.0,BKN,20000.0,,
KRDR,08-14-2002,22:00,METAR,,240,11.0,,,9999.0,Cloud Development Not Observable,27.0,14.0,29.48,998.3,,,,0,0,0,,,,,,,,,7/8 Mostly Cloudy,12000.0,,FEW,5900.0,SCT,12000.0,BKN,20000.0,,
KRDR,08-14-2002,21:00,METAR,,260,11.0,,,9999.0,Cloud Development Not Observable,27.0,13.0,29.47,998.0,,,,0,0,0,,,,,,,,,7/8 Mostly Cloudy,11000.0,,FEW,5900.0,SCT,11000.0,BKN,14000.0,BKN,20000.0
KRDR,08-14-2002,20:00,METAR,,260,12.0,,,9999.0,Cloud Development Not Observable,26.0,13.0,29.48,998.3,,,,0,0,0,,,,,,,,,7/8 Mostly Cloudy,11000.0,,FEW,5900.0,SCT,11000.0,BKN,14000.0,BKN,20000.0
KRDR,08-14-2002,19:00,METAR,,270,9.0,,,9999.0,Cloud Development Not Observable,25.0,14.0,29.48,998.4,,,,0,0,0,,,,,,,,,7/8 Mostly Cloudy,14000.0,,SCT,11000.0,BKN,14000.0,BKN,20000.0,,
KRDR,08-14-2002,18:00,METAR,,270,9.0,,,9999.0,Cloud Development Not Observable,23.0,14.0,29.47,998.1,,,,0,0,0,,,,,,,,,7/8 Mostly Cloudy,14000.0,,SCT,11000.0,BKN,14000.0,BKN,20000.0,,
KRDR,08-14-2002,17:00,METAR,,270,11.0,,,9999.0,Cloud Development Not Observable,23.0,15.0,29.48,998.4,,,,0,0,0,,,,,,,,,7/8 Mostly Cloudy,14000.0,,SCT,11000.0,BKN,14000.0,BKN,20000.0,,
KRDR,08-14-2002,16:00,METAR,,270,8.0,,,9999.0,Cloud Development Not Observable,21.0,14.0,29.48,998.4,,,,0,0,0,,,,,,,,,7/8 Mostly Cloudy,14000.0,,FEW,11000.0,BKN,14000.0,BKN,20000.0,,
KRDR,08-14-2002,15:00,METAR,,250,11.0,,,9999.0,Cloud Development Not Observable,20.0,13.0,29.47,998.1,,,,0,0,0,,,,,,,,,8/8 Overcast,14000.0,,FEW,7900.0,BKN,14000.0,OVC,20000.0,,
KRDR,08-14-2002,14:00,METAR,,240,12.0,,,9999.0,Cloud Development Not Observable,18.0,13.0,29.48,998.5,,,,0,0,0,,,,,,,,,7/8 Mostly Cloudy,14000.0,,SCT,7900.0,BKN,14000.0,BKN,23000.0,,
KRDR,08-14-2002,13:00,METAR,,190,8.0,,,9999.0,Cloud Development Not Observable,16.0,14.0,29.50,999.2,,,,0,0,0,,,,,,,,,7/8 Mostly Cloudy,14000.0,,FEW,7900.0,BKN,14000.0,BKN,25000.0,,
KRDR,08-14-2002,12:00,METAR,,180,8.0,,,9999.0,Cloud Development Not Observable,15.0,14.0,29.49,999.0,,,,0,0,0,,,,,,,,,7/8 Mostly Cloudy,9000.0,,FEW,5900.0,BKN,8900.0,BKN,25000.0,,
KRDR,08-14-2002,11:01,SPECI,,110,6.0,,,9999.0,Precipitation in the Vicinity/Cloud Development Not Observable,16.0,14.0,29.51,,,,,16,0,0,,,,,,,,,7/8 Mostly Cloudy,9000.0,,FEW,5900.0,BKN,8900.0,BKN,20000.0,,
KRDR,08-14-2002,11:00,METAR,,90,5.0,,,9999.0,Light Rain Showers/Cloud Development Not Observable,16.0,14.0,29.53,1000.0,,,,80,0,0,,,,,,,,,7/8 Mostly Cloudy,9000.0,,FEW,5900.0,BKN,8900.0,BKN,20000.0,,
KRDR,08-14-2002,10:27,SPECI,,350,6.0,,,9999.0,Light Rain Showers/Cloud Development Not Observable,16.0,13.0,29.55,,,,,80,0,0,,,,,,,,,8/8 Overcast,8000.0,,FEW,5900.0,OVC,7900.0,,,,
KRDR,08-14-2002,10:23,SPECI,,350,7.0,,,9999.0,Cloud Development Not Observable,17.0,13.0,29.55,,,,,0,0,0,,,,,,,,,8/8 Overcast,8000.0,,FEW,5900.0,OVC,7900.0,,,,
KRDR,08-14-2002,10:02,SPECI,,250,4.0,,,9999.0,Light Rain Showers/Cloud Development Not Observable,17.0,13.0,29.53,,,,,80,0,0,,,,,,,,,8/8 Overcast,9000.0,,OVC,8900.0,,,,,,
KRDR,08-14-2002,10:00,METAR,,200,7.0,,,9999.0,Cloud Development Not Observable,17.0,13.0,29.52,999.6,,,,0,0,0,,,,,,,,,8/8 Overcast,9500.0,,OVC,9400.0,,,,,,
KRDR,08-14-2002,09:34,SPECI,,190,7.0,,,9999.0,Cloud Development Not Observable,17.0,13.0,29.52,,,,,0,0,0,,,,,,,,,8/8 Overcast,9000.0,,FEW,5900.0,OVC,8900.0,,,,
KRDR,08-14-2002,09:00,METAR,,210,8.0,,,9999.0,Light Rain Showers/Cloud Development Not Observable,17.0,13.0,29.55,1000.6,,,,80,0,0,,,,,,,,,8/8 Overcast,10000.0,,SCT,5900.0,OVC,9900.0,,,,
KRDR,08-14-2002,08:23,SPECI,,210,6.0,,,9999.0,Cloud Development Not Observable,17.0,13.0,29.55,,,,,0,0,0,,,,,,,,,8/8 Overcast,11000.0,,OVC,11000.0,,,,,,
KRDR,08-14-2002,08:00,METAR,,200,5.0,,,9999.0,Light Rain Showers/Cloud Development Not Observable,18.0,13.0,29.57,1001.3,,,,80,0,0,,,,,,,,,8/8 Overcast,9000.0,,SCT,5900.0,OVC,8900.0,,,,
KRDR,08-14-2002,07:48,SPECI,,190,7.0,,,9999.0,Light Rain Showers/Cloud Development Not Observable,18.0,13.0,29.56,,,,,80,0,0,,,,,,,,,8/8 Overcast,10000.0,,SCT,6400.0,OVC,9900.0,,,,
KRDR,08-14-2002,07:00,METAR,,210,8.0,,,9999.0,Cloud Development Not Observable,18.0,12.0,29.58,1001.8,,,,0,0,0,,,,,,,,,8/8 Overcast,10000.0,,OVC,9900.0,,,,,,
KRDR,08-14-2002,06:00,METAR,,210,7.0,,,9999.0,Cloud Development Not Observable,18.0,13.0,29.62,1003.1,,,,0,0,0,,,,,,,,,7/8 Mostly Cloudy,10000.0,,BKN,9900.0,,,,,,
KRDR,08-14-2002,05:00,METAR,,210,8.0,,,9999.0,Cloud Development Not Observable,18.0,12.0,29.65,1004.1,,,,0,0,0,,,,,,,,,7/8 Mostly Cloudy,9500.0,,BKN,9400.0,,,,,,
KRDR,08-14-2002,04:00,METAR,,210,9.0,,,9999.0,Cloud Development Not Observable,20.0,12.0,29.66,1004.7,,,,0,0,0,,,,,,,,,7/8 Mostly Cloudy,9000.0,,BKN,8900.0,,,,,,
KRDR,08-14-2002,03:00,METAR,,180,8.0,,,9999.0,Cloud Development Not Observable,20.0,12.0,29.67,1004.9,,,,0,0,0,,,,,,,,,7/8 Mostly Cloudy,9000.0,,BKN,8900.0,,,,,,
KRDR,08-14-2002,02:00,METAR,,180,8.0,,,9999.0,Cloud Development Not Observable,21.0,12.0,29.68,1005.3,,,,0,0,0,,,,,,,,,4/8 Partly Cloudy,72000.0,,FEW,6900.0,FEW,14000.0,SCT,25000.0,,
KRDR,08-14-2002,01:00,METAR,,200,6.0,,,9999.0,Cloud Development Not Observable,23.0,11.0,29.70,1005.9,,,,0,0,0,,,,,,,,,4/8 Partly Cloudy,72000.0,,FEW,6900.0,SCT,14000.0,SCT,25000.0,,
KRDR,08-14-2002,00:00,METAR,,250,8.0,,,9999.0,Cloud Development Not Observable,24.0,10.0,29.73,1007.0,,,,0,0,0,,,,,,,,,4/8 Partly Cloudy,72000.0,,FEW,6900.0,SCT,14000.0,SCT,25000.0,,
KRDR,08-13-2002,23:00,METAR,,260,11.0,,,9999.0,Cloud Development Not Observable,25.0,10.0,29.74,1007.5,,,,0,0,0,,,,,,,,,4/8 Partly Cloudy,72000.0,,FEW,6900.0,SCT,25000.0,,,,
KRDR,08-13-2002,22:00,METAR,,260,13.0,,,9999.0,Cloud Development Not Observable,26.0,10.0,29.76,1008.0,,,,0,0,0,,,,,,,,,7/8 Mostly Cloudy,10000.0,,SCT,6900.0,BKN,9900.0,,,,
KRDR,08-13-2002,21:00,METAR,,240,16.0,19.0,,9999.0,Cloud Development Not Observable,25.0,8.0,29.77,1008.6,,,,0,0,0,,,,,,,,,7/8 Mostly Cloudy,10000.0,,SCT,5900.0,BKN,9900.0,,,,
KRDR,08-13-2002,20:00,METAR,,260,11.0,,,9999.0,Cloud Development Not Observable,24.0,11.0,29.80,1009.5,,,,0,0,0,,,,,,,,,7/8 Mostly Cloudy,10000.0,,SCT,5900.0,BKN,9900.0,,,,
KRDR,08-13-2002,19:00,METAR,,250,12.0,,,9999.0,Cloud Development Not Observable,26.0,9.0,29.82,1010.1,,,,0,0,0,,,,,,,,,4/8 Partly Cloudy,72000.0,,SCT,5900.0,SCT,9900.0,,,,
KRDR,08-13-2002,18:00,METAR,,270,13.0,,,9999.0,Cloud Development Not Observable,25.0,10.0,29.84,1010.8,,,,0,0,0,,,,,,,,,2/8 Mostly Clear,72000.0,,FEW,5900.0,FEW,15000.0,,,,
KRDR,08-13-2002,17:00,METAR,,250,14.0,,,9999.0,Cloud Development Not Observable,24.0,10.0,29.86,1011.5,,,,0,0,0,,,,,,,,,2/8 Mostly Clear,72000.0,,FEW,5900.0,FEW,12000.0,,,,
KRDR,08-13-2002,16:00,METAR,,260,10.0,,,9999.0,Cloud Development Not Observable,22.0,11.0,29.86,1011.6,,,,0,0,0,,,,,,,,,2/8 Mostly Clear,72000.0,,FEW,9900.0,,,,,,
KRDR,08-13-2002,15:00,METAR,,240,9.0,,,9999.0,Cloud Development Not Observable,21.0,12.0,29.86,1011.6,,,,0,0,0,,,,,,,,,2/8 Mostly Clear,72000.0,,FEW,9900.0,,,,,,
KRDR,08-13-2002,14:00,METAR,,260,10.0,,,9999.0,Cloud Development Not Observable,18.0,12.0,29.86,1011.6,,,,0,0,0,,,,,,,,,2/8 Mostly Clear,72000.0,,FEW,20000.0,,,,,,
KRDR,08-13-2002,13:00,METAR,,270,6.0,,,9999.0,Cloud Development Not Observable,14.0,12.0,29.85,1011.2,,,,0,0,0,,,,,,,,,2/8 Mostly Clear,72000.0,,FEW,12000.0,FEW,20000.0,,,,
KRDR,08-13-2002,12:00,METAR,,280,8.0,,,9999.0,Cloud Development Not Observable,11.0,10.0,29.86,1011.8,,,,0,0,0,,,,,,,,,2/8 Mostly Clear,72000.0,,FEW,12000.0,FEW,20000.0,,,,
KRDR,08-13-2002,11:00,METAR,,270,7.0,,,9999.0,Cloud Development Not Observable,11.0,10.0,29.86,1011.6,,,,0,0,0,,,,,,,,,2/8 Mostly Clear,72000.0,,FEW,12000.0,FEW,20000.0,,,,
KRDR,08-13-2002,10:00,METAR,,270,7.0,,,9999.0,Cloud Development Not Observable,11.0,10.0,29.86,1011.6,,,,0,0,0,,,,,,,,,2/8 Mostly Clear,72000.0,,FEW,25000.0,,,,,,
KRDR,08-13-2002,09:00,METAR,,240,6.0,,,9999.0,Cloud Development Not Observable,10.0,10.0,29.86,1011.8,,,,0,0,0,,,,,,,,,Clear,72000.0,,,73000.0,,,,,,
KRDR,08-13-2002,08:00,METAR,,240,5.0,,,9999.0,Cloud Development Not Observable,10.0,10.0,29.87,1012.0,,,,0,0,0,,,,,,,,,Clear,72000.0,,,73000.0,,,,,,
KRDR,08-13-2002,07:00,METAR,,220,6.0,,,9999.0,Cloud Development Not Observable,11.0,10.0,29.87,1012.0,,,,0,0,0,,,,,,,,,Clear,72000.0,,,73000.0,,,,,,
KRDR,08-13-2002,06:00,METAR,,230,4.0,,,9999.0,Cloud Development Not Observable,11.0,10.0,29.87,1012.0,,,,0,0,0,,,,,,,,,Clear,72000.0,,,73000.0,,,,,,
KRDR,08-13-2002,05:00,METAR,,230,5.0,,,9999.0,Cloud Development Not Observable,12.0,10.0,29.87,1012.2,,,,0,0,0,,,,,,,,,Clear,72000.0,,,73000.0,,,,,,
KRDR,08-13-2002,04:00,METAR,,260,5.0,,,9999.0,Cloud Development Not Observable,13.0,10.0,29.87,1012.2,,,,0,0,0,,,,,,,,,Clear,72000.0,,,73000.0,,,,,,
KRDR,08-13-2002,03:00,METAR,,260,5.0,,,9999.0,Cloud Development Not Observable,14.0,10.0,29.86,1011.8,,,,0,0,0,,,,,,,,,2/8 Mostly Clear,72000.0,,FEW,25000.0,,,,,,
KRDR,08-13-2002,02:00,METAR,,270,4.0,,,9999.0,Cloud Development Not Observable,16.0,11.0,29.84,1010.8,,,,0,0,0,,,,,,,,,2/8 Mostly Clear,72000.0,,FEW,5400.0,FEW,25000.0,,,,
KRDR,08-13-2002,01:00,METAR,,320,6.0,,,9999.0,Cloud Development Not Observable,20.0,11.0,29.84,1010.8,,,,0,0,0,,,,,,,,,4/8 Partly Cloudy,72000.0,,FEW,4500.0,SCT,5400.0,SCT,25000.0,,
KRDR,08-13-2002,00:00,METAR,,300,12.0,,,9999.0,Cloud Development Not Observable,22.0,11.0,29.83,1010.4,,,,0,0,0,,,,,,,,,7/8 Mostly Cloudy,4900.0,,SCT,4500.0,SCT,5400.0,BKN,25000.0,,
KRDR,08-12-2002,23:00,METAR,,300,17.0,21.0,,9999.0,Cloud Development Not Observable,22.0,10.0,29.82,1010.0,,,,0,0,0,,,,,,,,,7/8 Mostly Cloudy,5500.0,,SCT,4500.0,BKN,5400.0,BKN,25000.0,,
KRDR,08-12-2002,22:00,METAR,,310,17.0,21.0,,9999.0,Cloud Development Not Observable,23.0,10.0,29.79,1009.2,,,,0,0,0,,,,,,,,,7/8 Mostly Cloudy,4400.0,,BKN,4500.0,BKN,5400.0,BKN,25000.0,,
KRDR,08-12-2002,21:00,METAR,,310,14.0,,,9999.0,Cloud Development Not Observable,23.0,13.0,29.79,1009.2,,,,0,0,0,,,,,,,,,7/8 Mostly Cloudy,4400.0,,BKN,4500.0,BKN,5400.0,BKN,25000.0,,
KRDR,08-12-2002,20:00,METAR,,300,12.0,,,9999.0,Cloud Development Not Observable,21.0,12.0,29.78,1008.8,,,,0,0,0,,,,,,,,,7/8 Mostly Cloudy,4400.0,,BKN,4500.0,BKN,5400.0,BKN,20000.0,,
KRDR,08-12-2002,19:00,METAR,,270,12.0,,,9999.0,Cloud Development Not Observable,20.0,13.0,29.77,1008.5,,,,0,0,0,,,,,,,,,7/8 Mostly Cloudy,3900.0,,BKN,4000.0,BKN,20000.0,,,,
KRDR,08-12-2002,18:00,METAR,,270,12.0,,,9999.0,Cloud Development Not Observable,22.0,14.0,29.77,1008.3,,,,0,0,0,,,,,,,,,7/8 Mostly Cloudy,4900.0,,SCT,3500.0,BKN,5000.0,BKN,20000.0,,
KRDR,08-12-2002,17:00,METAR,,270,14.0,,,9999.0,Cloud Development Not Observable,19.0,13.0,29.77,1008.5,,,,0,0,0,,,,,,,,,7/8 Mostly Cloudy,4400.0,,SCT,3000.0,BKN,4500.0,,,,
KRDR,08-12-2002,16:00,METAR,,250,11.0,,,9999.0,Cloud Development Not Observable,18.0,12.0,29.77,1008.5,,,,0,0,0,,,,,,,,,7/8 Mostly Cloudy,3000.0,,BKN,3000.0,BKN,4000.0,,,,
KRDR,08-12-2002,15:00,METAR,,270,10.0,,,9999.0,Cloud Development Not Observable,18.0,13.0,29.76,1008.2,,,,0,0,0,,,,,,,,,4/8 Partly Cloudy,72000.0,,SCT,2800.0,SCT,3200.0,SCT,25000.0,,
KRDR,08-12-2002,14:00,METAR,,250,11.0,,,9999.0,Cloud Development Not Observable,17.0,13.0,29.77,1008.5,,,,0,0,0,,,,,,,,,2/8 Mostly Clear,72000.0,,FEW,2800.0,FEW,25000.0,,,,
KRDR,08-12-2002,13:00,METAR,,240,7.0,,,9999.0,Cloud Development Not Observable,15.0,13.0,29.77,1008.5,,,,0,0,0,,,,,,,,,2/8 Mostly Clear,72000.0,,FEW,2800.0,FEW,12000.0,FEW,25000.0,,
KRDR,08-12-2002,12:00,METAR,,280,5.0,,,9999.0,Cloud Development Not Observable,14.0,11.0,29.76,1008.0,,,,0,0,0,,,,,,,,,2/8 Mostly Clear,72000.0,,FEW,2000.0,FEW,12000.0,FEW,25000.0,,
KRDR,08-12-2002,11:00,METAR,,270,9.0,,,9999.0,Cloud Development Not Observable,16.0,13.0,29.75,1007.5,,,,0,0,0,,,,,,,,,4/8 Partly Cloudy,72000.0,,SCT,12000.0,SCT,25000.0,,,,
KRDR,08-12-2002,10:00,METAR,,230,5.0,,,9999.0,Cloud Development Not Observable,16.0,13.0,29.74,1007.2,,,,0,0,0,,,,,,,,,8/8 Overcast,12000.0,,BKN,12000.0,OVC,25000.0,,,,
KRDR,08-12-2002,09:00,METAR,,280,4.0,,,9999.0,Cloud Development Not Observable,16.0,13.0,29.75,1007.5,,,,0,0,0,,,,,,,,,8/8 Overcast,25000.0,,SCT,12000.0,OVC,25000.0,,,,
KRDR,08-12-2002,08:00,METAR,,290,7.0,,,9999.0,Cloud Development Not Observable,18.0,14.0,29.74,1007.1,,,,0,0,0,,,,,,,,,8/8 Overcast,25000.0,,SCT,7400.0,OVC,25000.0,,,,
KRDR,08-12-2002,07:00,METAR,,290,10.0,,,9999.0,Cloud Development Not Observable,19.0,15.0,29.75,1007.3,,,,0,0,0,,,,,,,,,8/8 Overcast,7000.0,,OVC,6900.0,,,,,,
KRDR,08-12-2002,06:00,METAR,,260,8.0,,,9999.0,Cloud Development Not Observable,20.0,17.0,29.74,1007.1,,,,0,0,0,,,,,,,,,8/8 Overcast,4900.0,,BKN,5000.0,BKN,12000.0,OVC,25000.0,,
KRDR,08-12-2002,05:00,METAR,,250,7.0,,,9999.0,Cloud Development Not Observable,19.0,17.0,29.72,1006.5,,,,0,0,0,,,,,,,,,8/8 Overcast,25000.0,,SCT,12000.0,OVC,25000.0,,,,
KRDR,08-12-2002,04:00,METAR,,240,5.0,,,9999.0,Cloud Development Not Observable,18.0,16.0,29.73,1006.7,,,,0,0,0,,,,,,,,,8/8 Overcast,25000.0,,SCT,12000.0,OVC,25000.0,,,,
KRDR,08-12-2002,03:00,METAR,,230,6.0,,,9999.0,Cloud Development Not Observable,19.0,17.0,29.71,1006.3,,,,0,0,0,,,,,,.03 IN,,,8/8 Overcast,12000.0,,FEW,5900.0,BKN,12000.0,OVC,25000.0,,
KRDR,08-12-2002,02:00,METAR,,210,8.0,,,9999.0,Cloud Development Not Observable,20.0,17.0,29.71,1006.3,,,,0,0,0,,,,,,,,,8/8 Overcast,12000.0,,FEW,5900.0,BKN,12000.0,OVC,25000.0,,
KRDR,08-12-2002,01:00,METAR,,220,16.0,,,9999.0,Light Rain Showers/Cloud Development Not Observable,21.0,19.0,29.70,1006.0,,,,80,0,0,,,,,,,,,7/8 Mostly Cloudy,6000.0,,FEW,3000.0,BKN,5900.0,BKN,12000.0,BKN,25000.0
KRDR,08-12-2002,00:24,SPECI,,220,16.0,,,9999.0,Thunderstorm with Rain or Snow/Light Rain Showers/Cloud Development Not Observable,21.0,19.0,29.70,,,,,95,80,0,,,,,,,,,8/8 Overcast,6000.0,,FEW,3000.0,BKN,5900.0,OVC,12000.0,,
KRDR,08-12-2002,00:08,SPECI,,,2.0,,,9999.0,Rain/Cloud Development Not Observable,22.0,19.0,29.68,,,,,61,0,0,,,,,,,,,8/8 Overcast,6000.0,,FEW,3000.0,BKN,5900.0,OVC,12000.0,,
KRDR,08-12-2002,00:00,METAR,,270,4.0,,,9999.0,Thunderstorm with Rain or Snow/Light Rain Showers/Cloud Development Not Observable,22.0,19.0,29.70,1005.9,,,,95,80,0,,,,,,,,,8/8 Overcast,12000.0,,SCT,4000.0,OVC,12000.0,,,,
KRDR,08-11-2002,23:22,SPECI,,160,8.0,,,9999.0,Thunderstorm with Rain or Snow/Light Rain Showers/Cloud Development Not Observable,24.0,22.0,29.71,,,,,95,80,0,,,,,,,,,8/8 Overcast,3900.0,,BKN,4000.0,OVC,12000.0,,,,
KRDR,08-11-2002,23:00,METAR,,190,5.0,,,9999.0,Thunderstorm with Rain or Snow/Light Rain Showers/Cloud Development Not Observable,26.0,20.0,29.71,1006.3,,,,95,80,0,,,,,,,,,8/8 Overcast,12000.0,,SCT,4000.0,OVC,12000.0,,,,
KRDR,08-11-2002,22:42,SPECI,,160,6.0,,,9999.0,Thunderstorm with Rain or Snow/Light Rain Showers/Cloud Development Not Observable,26.0,20.0,29.71,,,,,95,80,0,,,,,,,,,8/8 Overcast,12000.0,,SCT,4000.0,OVC,12000.0,,,,
KRDR,08-11-2002,22:00,METAR,,160,9.0,,,9999.0,Cloud Development Not Observable,29.0,18.0,29.69,1005.5,,,,0,0,0,,,,,,,,,7/8 Mostly Cloudy,12000.0,,BKN,12000.0,BKN,25000.0,,,,
KRDR,08-11-2002,21:00,METAR,,170,16.0,,,9999.0,Cloud Development Not Observable,32.0,18.0,29.71,1006.1,,,,0,0,0,,,,,,,,,7/8 Mostly Cloudy,25000.0,,SCT,12000.0,BKN,25000.0,,,,
KRDR,08-11-2002,20:00,METAR,,150,13.0,,,9999.0,Cloud Development Not Observable,30.0,16.0,29.74,1007.1,,,,0,0,0,,,,,,,,,7/8 Mostly Cloudy,25000.0,,SCT,12000.0,BKN,25000.0,,,,
KRDR,08-11-2002,19:00,METAR,,140,12.0,,,9999.0,Cloud Development Not Observable,29.0,15.0,29.75,1007.6,,,,0,0,0,,,,,,,,,7/8 Mostly Cloudy,25000.0,,FEW,12000.0,BKN,25000.0,,,,
KRDR,08-11-2002,18:00,METAR,,150,9.0,,,9999.0,Cloud Development Not Observable,28.0,15.0,29.78,1008.7,,,,0,0,0,,,,,,,,,7/8 Mostly Cloudy,25000.0,,FEW,12000.0,BKN,25000.0,,,,
KRDR,08-11-2002,17:00,METAR,,160,11.0,,,9999.0,Cloud Development Not Observable,28.0,18.0,29.80,1009.3,,,,0,0,0,,,,,,,,,7/8 Mostly Cloudy,25000.0,,FEW,12000.0,BKN,25000.0,,,,
KRDR,08-11-2002,16:00,METAR,,120,9.0,,,9999.0,Cloud Development Not Observable,26.0,18.0,29.79,1009.0,,,,0,0,0,,,,,,,,,7/8 Mostly Cloudy,25000.0,,FEW,12000.0,BKN,25000.0,,,,
KRDR,08-11-2002,15:00,METAR,,120,5.0,,,9999.0,Cloud Development Not Observable,23.0,17.0,29.81,1009.7,,,,0,0,0,,,,,,,,,7/8 Mostly Cloudy,25000.0,,FEW,12000.0,BKN,25000.0,,,,
KRDR,08-11-2002,14:00,METAR,,,3.0,,,9999.0,Cloud Development Not Observable,21.0,16.0,29.82,1010.1,,,,0,0,0,,,,,,,,,4/8 Partly Cloudy,72000.0,,FEW,12000.0,SCT,25000.0,,,,
KRDR,08-11-2002,13:00,METAR,,,3.0,,,9999.0,Cloud Development Not Observable,17.0,16.0,29.83,1010.6,,,,0,0,0,,,,,,,,,4/8 Partly Cloudy,72000.0,,FEW,12000.0,SCT,25000.0,,,,
KRDR,08-11-2002,12:00,METAR,,180,3.0,,,9999.0,Cloud Development Not Observable,14.0,14.0,29.81,1010.0,,,,0,0,0,,,,,,,,,2/8 Mostly Clear,72000.0,,FEW,12000.0,FEW,25000.0,,,,
KRDR,08-11-2002,11:00,METAR,,210,4.0,,,9999.0,Cloud Development Not Observable,14.0,14.0,29.82,1010.0,,,,0,0,0,,,,,,,,,2/8 Mostly Clear,72000.0,,FEW,12000.0,FEW,25000.0,,,,
KRDR,08-11-2002,10:00,METAR,,230,5.0,,,9999.0,Cloud Development Not Observable,14.0,14.0,29.82,1010.0,,,,0,0,0,,,,,,,,,Clear,72000.0,,,73000.0,,,,,,
KRDR,08-11-2002,09:00,METAR,,230,6.0,,,9999.0,Cloud Development Not Observable,14.0,14.0,29.81,1009.9,,,,0,0,0,,,,,,,,,Clear,72000.0,,,73000.0,,,,,,
KRDR,08-11-2002,08:00,METAR,,230,4.0,,,9999.0,Cloud Development Not Observable,14.0,14.0,29.81,1009.7,,,,0,0,0,,,,,,,,,Clear,72000.0,,,73000.0,,,,,,
KRDR,08-11-2002,07:00,METAR,,230,5.0,,,9999.0,Cloud Development Not Observable,14.0,14.0,29.81,1009.7,,,,0,0,0,,,,,,,,,Clear,72000.0,,,73000.0,,,,,,
KRDR,08-11-2002,06:00,METAR,,250,4.0,,,9999.0,Cloud Development Not Observable,15.0,14.0,29.81,1009.7,,,,0,0,0,,,,,,,,,Clear,72000.0,,,73000.0,,,,,,
KRDR,08-11-2002,05:00,METAR,,300,3.0,,,9999.0,Cloud Development Not Observable,16.0,15.0,29.80,1009.5,,,,0,0,0,,,,,,,,,Clear,72000.0,,,73000.0,,,,,,
KRDR,08-11-2002,04:00,METAR,,250,4.0,,,9999.0,Cloud Development Not Observable,17.0,15.0,29.80,1009.6,,,,0,0,0,,,,,,,,,Clear,72000.0,,,73000.0,,,,,,
KRDR,08-11-2002,03:00,METAR,,240,5.0,,,9999.0,Cloud Development Not Observable,20.0,16.0,29.78,1008.8,,,,0,0,0,,,,,,,,,2/8 Mostly Clear,72000.0,,FEW,25000.0,,,,,,
KRDR,08-11-2002,02:00,METAR,,220,7.0,,,9999.0,Cloud Development Not Observable,20.0,16.0,29.78,1008.9,,,,0,0,0,,,,,,,,,2/8 Mostly Clear,72000.0,,FEW,5000.0,FEW,25000.0,,,,
KRDR,08-11-2002,01:00,METAR,,240,7.0,,,9999.0,Cloud Development Not Observable,22.0,14.0,29.78,1008.8,,,,0,0,0,,,,,,,,,7/8 Mostly Cloudy,11000.0,,SCT,5400.0,BKN,11000.0,BKN,25000.0,,
KRDR,08-11-2002,00:00,METAR,,260,12.0,,,9999.0,Cloud Development Not Observable,25.0,14.0,29.78,1008.7,,,,0,0,0,,,,,,,,,7/8 Mostly Cloudy,4400.0,,FEW,3500.0,SCT,4500.0,BKN,11000.0,BKN,25000.0
KRDR,08-10-2002,23:00,METAR,,280,10.0,,,9999.0,Cloud Development Not Observable,25.0,14.0,29.78,1008.7,,,,0,0,0,,,,,,,,,7/8 Mostly Cloudy,4400.0,,FEW,3500.0,SCT,4500.0,BKN,25000.0,,
KRDR,08-10-2002,22:00,METAR,,300,13.0,,,9999.0,Cloud Development Not Observable,25.0,13.0,29.78,1008.8,,,,0,0,0,,,,,,,,,7/8 Mostly Cloudy,4400.0,,FEW,3500.0,BKN,4500.0,BKN,25000.0,,
KRDR,08-10-2002,21:00,METAR,,290,13.0,,,9999.0,Cloud Development Not Observable,25.0,15.0,29.76,1008.1,,,,0,0,0,,,,,,,,,7/8 Mostly Cloudy,4400.0,,FEW,3500.0,BKN,4500.0,BKN,25000.0,,
KRDR,08-10-2002,20:00,METAR,,290,16.0,19.0,,9999.0,Cloud Development Not Observable,23.0,14.0,29.77,1008.3,,,,0,0,0,,,,,,,,,7/8 Mostly Cloudy,3900.0,,BKN,4000.0,BKN,9900.0,,,,
KRDR,08-10-2002,19:00,METAR,,290,12.0,,,9999.0,Cloud Development Not Observable,22.0,13.0,29.77,1008.3,,,,0,0,0,,,,,,,,,7/8 Mostly Cloudy,4400.0,,BKN,4500.0,BKN,9900.0,BKN,20000.0,,
KRDR,08-10-2002,18:00,METAR,,260,15.0,22.0,,9999.0,Cloud Development Not Observable,22.0,15.0,29.77,1008.3,,,,0,0,0,,,,,,,,,7/8 Mostly Cloudy,3400.0,,FEW,2800.0,BKN,3500.0,BKN,9900.0,BKN,20000.0
KRDR,08-10-2002,17:14,SPECI,,270,11.0,,,9999.0,Cloud Development Not Observable,22.0,15.0,29.76,,,,,0,0,0,,,,,,,,,7/8 Mostly Cloudy,3400.0,,SCT,2800.0,BKN,3500.0,BKN,9900.0,BKN,20000.0
KRDR,08-10-2002,17:00,METAR,,280,12.0,,,9999.0,Cloud Development Not Observable,22.0,15.0,29.76,1008.0,,,,0,0,0,,,,,,,,,7/8 Mostly Cloudy,2800.0,,BKN,2800.0,BKN,5000.0,BKN,20000.0,,
KRDR,08-10-2002,16:07,SPECI,,280,9.0,,,9999.0,Cloud Development Not Observable,18.0,15.0,29.77,,,,,0,0,0,,,,,,,,,7/8 Mostly Cloudy,2000.0,,BKN,2000.0,BKN,9900.0,BKN,20000.0,,
KRDR,08-10-2002,16:03,SPECI,,260,10.0,,,9999.0,Light Rain Showers/Cloud Development Not Observable,18.0,15.0,29.77,,,,,80,0,0,,,,,,,,,7/8 Mostly Cloudy,2000.0,,BKN,2000.0,BKN,9900.0,BKN,20000.0,,
KRDR,08-10-2002,16:00,METAR,,260,9.0,,,9999.0,Cloud Development Not Observable,20.0,16.0,29.77,1008.3,,,,0,0,0,,,,,,,,,7/8 Mostly Cloudy,2000.0,,BKN,2000.0,BKN,5000.0,BKN,9900.0,,
KRDR,08-10-2002,15:00,METAR,,260,10.0,,,9999.0,Cloud Development Not Observable,18.0,16.0,29.77,1008.4,,,,0,0,0,,,,,,,,,7/8 Mostly Cloudy,1500.0,,BKN,1500.0,BKN,5900.0,BKN,9900.0,,
KRDR,08-10-2002,14:00,METAR,,240,6.0,,,9999.0,Cloud Development Not Observable,16.0,16.0,29.78,1008.8,,,,0,0,0,,,,,,,,,7/8 Mostly Cloudy,6500.0,,BKN,6400.0,BKN,11000.0,BKN,20000.0,,
KRDR,08-10-2002,13:00,METAR,,210,7.0,,,9999.0,Cloud Development Not Observable,16.0,15.0,29.78,1008.8,,,,0,0,0,,,,,,,,,7/8 Mostly Cloudy,11000.0,,SCT,5900.0,BKN,11000.0,BKN,20000.0,,
KRDR,08-10-2002,12:00,METAR,,210,7.0,,,9999.0,Cloud Development Not Observable,15.0,15.0,29.78,1008.8,,,,0,0,0,,,,,,,,,7/8 Mostly Cloudy,6000.0,,BKN,5900.0,BKN,11000.0,BKN,20000.0,,
KRDR,08-10-2002,11:00,METAR,,200,8.0,,,9999.0,Cloud Development Not Observable,15.0,15.0,29.79,1009.2,,,,0,0,0,,,,,,,,,7/8 Mostly Cloudy,11000.0,,SCT,5900.0,BKN,11000.0,BKN,20000.0,,
KRDR,08-10-2002,10:06,SPECI,,190,10.0,,,9999.0,Light Rain Showers/Cloud Development Not Observable,15.0,14.0,29.81,,,,,80,0,0,,,,,,,,,7/8 Mostly Cloudy,11000.0,,SCT,3500.0,BKN,11000.0,BKN,20000.0,,
KRDR,08-10-2002,10:00,METAR,,190,10.0,,,9999.0,Cloud Development Not Observable,14.0,14.0,29.82,1010.4,,,,0,0,0,,,,,,,,,7/8 Mostly Cloudy,11000.0,,BKN,11000.0,BKN,20000.0,,,,
KRDR,08-10-2002,09:00,METAR,,190,9.0,,,9999.0,Cloud Development Not Observable,14.0,14.0,29.83,1010.4,,,,0,0,0,,,,,,,,,4/8 Partly Cloudy,72000.0,,SCT,11000.0,,,,,,
KRDR,08-10-2002,08:00,METAR,,180,9.0,,,9999.0,Cloud Development Not Observable,15.0,15.0,29.84,1010.8,,,,0,0,0,,,,,,,,,4/8 Partly Cloudy,72000.0,,SCT,11000.0,,,,,,
KRDR,08-10-2002,07:00,METAR,,160,9.0,,,9999.0,Cloud Development Not Observable,15.0,15.0,29.86,1012.0,,,,0,0,0,,,,,,,,,7/8 Mostly Cloudy,12000.0,,BKN,12000.0,,,,,,
KRDR,08-10-2002,06:00,METAR,,180,4.0,,,9999.0,Cloud Development Not Observable,15.0,15.0,29.88,1012.0,,,,0,0,0,,,,,,,,,7/8 Mostly Cloudy,12000.0,,BKN,12000.0,BKN,20000.0,,,,
KRDR,08-10-2002,05:00,METAR,,180,9.0,,,9999.0,Cloud Development Not Observable,15.0,15.0,29.89,1012.2,,,,0,0,0,,,,,,,,,7/8 Mostly Cloudy,12000.0,,FEW,3000.0,BKN,12000.0,BKN,20000.0,,
KRDR,08-10-2002,04:00,METAR,,210,12.0,,,9999.0,Cloud Development Not Observable,16.0,15.0,29.93,1013.6,,,,0,0,0,,,,,,,,,7/8 Mostly Cloudy,12000.0,,FEW,3000.0,BKN,12000.0,BKN,20000.0,,
KRDR,08-10-2002,03:00,METAR,,210,10.0,,,9999.0,Cloud Development Not Observable,17.0,16.0,29.93,1013.5,,,,0,0,0,,,,,,.05 IN,,,7/8 Mostly Cloudy,12000.0,,FEW,3000.0,BKN,12000.0,BKN,20000.0,,
KRDR,08-10-2002,02:35,SPECI,,220,11.0,,,9999.0,Cloud Development Not Observable,17.0,16.0,29.94,,,,,0,0,0,,,,,,,,,7/8 Mostly Cloudy,12000.0,,FEW,3000.0,BKN,12000.0,BKN,20000.0,,
KRDR,08-10-2002,02:00,METAR,,160,6.0,,,9999.0,Light Rain Showers/Cloud Development Not Observable,17.0,16.0,29.92,1013.5,,,,80,0,0,,,,,,,,,7/8 Mostly Cloudy,7000.0,,SCT,3000.0,BKN,6900.0,BKN,20000.0,,
KRDR,08-10-2002,01:00,METAR,,190,9.0,,,9999.0,Light Rain Showers/Cloud Development Not Observable,18.0,17.0,29.96,1014.8,,,,80,0,0,,,,,,,,,7/8 Mostly Cloudy,7000.0,,SCT,3000.0,BKN,6900.0,BKN,20000.0,,
KRDR,08-09-2002,23:55,METAR,,210,4.0,,,9999.0,Light Rain Showers/Cloud Development Not Observable,19.0,17.0,29.97,1015.1,,,,80,0,0,,,,,,,,,7/8 Mostly Cloudy,10000.0,,SCT,4000.0,BKN,9900.0,BKN,20000.0,,
KRDR,08-09-2002,23:32,SPECI,,180,11.0,,,9999.0,Light Rain Showers/Cloud Development Not Observable,19.0,16.0,30.00,,,,,80,0,0,,,,,,,,,8/8 Overcast,10000.0,,SCT,4000.0,BKN,9900.0,OVC,20000.0,,
KRDR,08-09-2002,23:00,METAR,,210,11.0,,,9999.0,Light Rain Showers/Cloud Development Not Observable,24.0,14.0,30.00,1016.2,,,,80,0,0,,,,,,,,,7/8 Mostly Cloudy,9000.0,,SCT,4000.0,BKN,8900.0,BKN,20000.0,,
KRDR,08-09-2002,22:45,METAR,,220,14.0,,,9999.0,Light Rain Showers/Cloud Development Not Observable,24.0,14.0,29.99,,,,,80,0,0,,,,,,,,,8/8 Overcast,9000.0,,FEW,3000.0,BKN,8900.0,OVC,20000.0,,
KRDR,08-09-2002,22:00,METAR,,240,9.0,,,9999.0,Cloud Development Not Observable,26.0,14.0,29.94,1014.1,,,,0,0,0,,,,,,,,,7/8 Mostly Cloudy,8000.0,,FEW,3000.0,BKN,7900.0,BKN,20000.0,,
KRDR,08-09-2002,21:00,METAR,,240,9.0,,,9999.0,Cloud Development Not Observable,28.0,15.0,29.94,1014.0,,,,0,0,0,,,,,,,,,4/8 Partly Cloudy,72000.0,,FEW,3000.0,FEW,12000.0,SCT,22000.0,,
KRDR,08-09-2002,20:00,METAR,,230,11.0,,,9999.0,Cloud Development Not Observable,28.0,15.0,29.96,1014.5,,,,0,0,0,,,,,,,,,2/8 Mostly Clear,72000.0,,FEW,3000.0,FEW,12000.0,FEW,20000.0,,
KRDR,08-09-2002,19:00,METAR,,270,8.0,,,9999.0,Cloud Development Not Observable,27.0,15.0,29.98,1015.4,,,,0,0,0,,,,,,,,,2/8 Mostly Clear,72000.0,,FEW,3000.0,FEW,20000.0,,,,
KRDR,08-09-2002,18:00,METAR,,260,9.0,,,9999.0,Cloud Development Not Observable,27.0,18.0,30.00,1016.1,,,,0,0,0,,,,,,,,,2/8 Mostly Clear,72000.0,,FEW,3000.0,,,,,,
KRDR,08-09-2002,17:00,METAR,,260,11.0,,,9999.0,Cloud Development Not Observable,26.0,19.0,29.99,1015.7,,,,0,0,0,,,,,,,,,2/8 Mostly Clear,72000.0,,FEW,3000.0,,,,,,
KRDR,08-09-2002,16:36,SPECI,,260,13.0,,,9999.0,Cloud Development Not Observable,25.0,20.0,29.99,,,,,0,0,0,,,,,,,,,4/8 Partly Cloudy,72000.0,,SCT,3000.0,,,,,,
KRDR,08-09-2002,16:00,METAR,,260,13.0,,,9999.0,Cloud Development Not Observable,24.0,20.0,29.99,1015.8,,,,0,0,0,,,,,,,,,7/8 Mostly Cloudy,2200.0,,BKN,2200.0,,,,,,
KRDR,08-09-2002,15:38,SPECI,,270,11.0,18.0,,9999.0,Cloud Development Not Observable,24.0,20.0,29.99,,,,,0,0,0,,,,,,,,,7/8 Mostly Cloudy,1800.0,,BKN,1800.0,,,,,,
KRDR,08-09-2002,15:00,METAR,,270,14.0,20.0,,9999.0,Cloud Development Not Observable,23.0,20.0,29.98,1015.3,,,,0,0,0,,,,,,,,,7/8 Mostly Cloudy,1300.0,,BKN,1300.0,,,,,,
KRDR,08-09-2002,14:47,SPECI,,260,16.0,20.0,,9999.0,Haze/Cloud Development Not Observable,22.0,20.0,29.98,,,,,5,0,0,,,,,,,,,7/8 Mostly Cloudy,1300.0,,BKN,1300.0,,,,,,
KRDR,08-09-2002,14:00,METAR,,260,14.0,,,9999.0,Cloud Development Not Observable,22.0,19.0,29.97,1014.9,,,,0,0,0,,,,,,,,,2/8 Mostly Clear,72000.0,,FEW,1000.0,FEW,12000.0,,,,
KRDR,08-09-2002,13:00,METAR,,250,12.0,,,9999.0,Cloud Development Not Observable,20.0,19.0,29.97,1015.0,,,,0,0,0,,,,,,,,,2/8 Mostly Clear,72000.0,,FEW,20000.0,,,,,,
KRDR,08-09-2002,12:00,METAR,,260,16.0,24.0,,9999.0,Cloud Development Not Observable,20.0,18.0,29.95,1014.5,,,,0,0,0,,,,,,,,,7/8 Mostly Cloudy,9000.0,,FEW,3500.0,SCT,8900.0,BKN,25000.0,,
KRDR,08-09-2002,11:00,METAR,,240,16.0,,,9999.0,Cloud Development Not Observable,19.0,17.0,29.94,1014.0,,,,0,0,0,,,,,,,,,7/8 Mostly Cloudy,9000.0,,SCT,3500.0,BKN,8900.0,BKN,25000.0,,
KRDR,08-09-2002,10:00,METAR,,230,17.0,,,9999.0,Cloud Development Not Observable,19.0,19.0,29.93,1013.6,,,,0,0,0,,,,,,,,,7/8 Mostly Cloudy,12000.0,,FEW,2500.0,SCT,12000.0,BKN,25000.0,,
KRDR,08-09-2002,09:00,METAR,,210,11.0,,,9999.0,Cloud Development Not Observable,19.0,18.0,29.92,1013.0,,,,0,0,0,,,,,,,,,7/8 Mostly Cloudy,25000.0,,SCT,12000.0,BKN,25000.0,,,,
KRDR,08-09-2002,08:00,METAR,,190,8.0,,,9999.0,Cloud Development Not Observable,19.0,19.0,29.93,1013.4,,,,0,0,0,,,,,,,,,7/8 Mostly Cloudy,12000.0,,BKN,12000.0,BKN,25000.0,,,,
KRDR,08-09-2002,07:00,METAR,,70,5.0,,,9999.0,Cloud Development Not Observable,20.0,19.0,29.89,1011.9,,,,0,0,0,,,,,,,,,7/8 Mostly Cloudy,12000.0,,BKN,12000.0,BKN,25000.0,,,,
KRDR,08-09-2002,06:00,METAR,,260,11.0,,260/29KTS,9999.0,Cloud Development Not Observable,21.0,19.0,29.94,1013.7,,,,0,0,0,,,,,,,,,7/8 Mostly Cloudy,25000.0,,SCT,12000.0,BKN,25000.0,,,,
KRDR,08-09-2002,05:00,METAR,,160,7.0,,,9999.0,Cloud Development Not Observable,22.0,22.0,29.92,1013.0,,,,0,0,0,,,,,,,,,8/8 Overcast,12000.0,,FEW,4500.0,BKN,12000.0,OVC,25000.0,,
KRDR,08-09-2002,04:00,METAR,,140,6.0,,,9999.0,Thunderstorm with Rain or Snow/Light Rain Showers/Cloud Development Not Observable,22.0,21.0,29.93,1013.4,,,,95,80,0,,,,,,,,,7/8 Mostly Cloudy,12000.0,,SCT,4500.0,BKN,12000.0,BKN,25000.0,,
KRDR,08-09-2002,03:00,METAR,,160,12.0,,,9999.0,Thunderstorm/Cloud Development Not Observable,22.0,20.0,29.94,1013.9,,,,17,0,0,,,,,,,,,8/8 Overcast,4900.0,,BKN,5000.0,OVC,12000.0,,,,
KRDR,08-09-2002,02:00,METAR,,140,9.0,,,9999.0,Cloud Development Not Observable,22.0,20.0,29.94,1014.1,,,,0,0,0,,,,,,,,,8/8 Overcast,4900.0,,BKN,5000.0,OVC,12000.0,,,,
KRDR,08-09-2002,01:00,METAR,,160,9.0,,,9999.0,Cloud Development Not Observable,22.0,22.0,29.96,1014.6,,,,0,0,0,,,,,,,,,7/8 Mostly Cloudy,10000.0,,FEW,4000.0,BKN,9900.0,BKN,20000.0,,
KRDR,08-09-2002,00:00,METAR,,140,9.0,,,9999.0,Cloud Development Not Observable,21.0,20.0,29.95,1014.2,,,,0,0,0,,,,,,,,,7/8 Mostly Cloudy,9000.0,,FEW,4000.0,BKN,8900.0,BKN,20000.0,,
KRDR,08-08-2002,23:44,SPECI,,120,8.0,,,9999.0,Thunderstorm/Cloud Development Not Observable,21.0,20.0,29.94,,,,,17,0,0,,,,,,,,,7/8 Mostly Cloudy,12000.0,,FEW,2000.0,SCT,5900.0,BKN,12000.0,BKN,20000.0
KRDR,08-08-2002,23:24,SPECI,,150,9.0,,,9999.0,Thunderstorm with Rain or Snow/Light Rain Showers/Cloud Development Not Observable,21.0,19.0,29.96,,,,,95,80,0,,,,,,,,,7/8 Mostly Cloudy,3900.0,,SCT,1000.0,BKN,4000.0,BKN,20000.0,,
KRDR,08-08-2002,22:49,SPECI,,170,29.0,54.0,,4800.0,Thunderstorm with Rain or Snow/Light Rain Showers/Cloud Development Not Observable,19.0,19.0,29.96,,,,,95,80,0,,,,,,,,,8/8 Overcast,1000.0,,BKN,1000.0,BKN,4000.0,OVC,20000.0,,
KRDR,08-08-2002,22:44,SPECI,,210,42.0,54.0,,800.0,Heavy Thunderstorm and Hail/Snow Pellets or Hail/Heavy Rain Showers,19.0,18.0,29.99,,,,,99,82,88,,,,,,,,,Sky Obscured (Unable to Estimate),500.0,100.0,,500.0,,,,,,
KRDR,08-08-2002,22:22,SPECI,,290,18.0,26.0,,9999.0,Thunderstorm with Rain or Snow/Light Rain Showers/Cloud Development Not Observable,26.0,18.0,29.96,,,,,95,80,0,,,,,,,,,7/8 Mostly Cloudy,3900.0,,BKN,4000.0,BKN,6900.0,BKN,20000.0,,
KRDR,08-08-2002,22:00,METAR,,190,11.0,,,9999.0,Haze/Cloud Development Not Observable,31.0,22.0,29.93,1013.6,,,,5,0,0,,,,,,,,,7/8 Mostly Cloudy,12000.0,,SCT,3500.0,BKN,12000.0,BKN,20000.0,,
KRDR,08-08-2002,21:00,METAR,,190,14.0,,,9999.0,Haze/Cloud Development Not Observable,32.0,23.0,29.94,1013.6,,,,5,0,0,,,,,,,,,7/8 Mostly Cloudy,12000.0,,SCT,3500.0,BKN,12000.0,,,,
KRDR,08-08-2002,20:00,METAR,,200,15.0,22.0,,9999.0,Haze/Cloud Development Not Observable,32.0,22.0,29.95,1014.0,,,,5,0,0,,,,,,,,,8/8 Overcast,12000.0,,SCT,4000.0,BKN,12000.0,OVC,25000.0,,
KRDR,08-08-2002,19:00,METAR,,210,16.0,,,9999.0,Mist/Cloud Development Not Observable,32.0,23.0,29.95,1014.2,,,,10,0,0,,,,,,,,,7/8 Mostly Cloudy,12000.0,,SCT,1800.0,BKN,12000.0,BKN,25000.0,,
KRDR,08-08-2002,18:00,METAR,,170,17.0,,,9999.0,Mist/Cloud Development Not Observable,32.0,24.0,29.96,1014.3,,,,10,0,0,,,,,,,,,7/8 Mostly Cloudy,12000.0,,SCT,1800.0,BKN,12000.0,BKN,25000.0,,
KRDR,08-08-2002,17:00,METAR,,190,15.0,,,9999.0,Mist/Cloud Development Not Observable,29.0,23.0,29.98,1015.1,,,,10,0,0,,,,,,,,,7/8 Mostly Cloudy,12000.0,,SCT,1800.0,BKN,12000.0,,,,
KRDR,08-08-2002,16:25,METAR,,210,14.0,,,9999.0,Mist/Cloud Development Not Observable,28.0,24.0,29.98,,,,,10,0,0,,,,,,,,,8/8 Overcast,2200.0,,BKN,2200.0,OVC,12000.0,,,,
KRDR,08-08-2002,16:00,METAR,,190,11.0,,,9999.0,Mist/Cloud Development Not Observable,26.0,24.0,29.98,1015.3,,,,10,0,0,,,,,,,,,8/8 Overcast,1800.0,,BKN,1800.0,OVC,12000.0,,,,
KRDR,08-08-2002,15:42,SPECI,,190,10.0,,,8000.0,Mist/Cloud Development Not Observable,26.0,24.0,29.98,,,,,10,0,0,,,,,,,,,8/8 Overcast,1600.0,,BKN,1600.0,OVC,12000.0,,,,
KRDR,08-08-2002,15:00,METAR,,160,11.0,,,8000.0,Mist/Cloud Development Not Observable,23.0,22.0,29.99,1015.5,,,,10,0,0,,,,,,,,,8/8 Overcast,1100.0,,BKN,1100.0,OVC,12000.0,,,,
KRDR,08-08-2002,14:00,METAR,,150,12.0,,,8000.0,Mist/Cloud Development Not Observable,23.0,23.0,30.00,1016.1,,,,10,0,0,,,,,,,,,8/8 Overcast,1000.0,,BKN,1000.0,OVC,12000.0,,,,
KRDR,08-08-2002,13:42,SPECI,,150,12.0,,,8000.0,Mist/Cloud Development Not Observable,23.0,23.0,30.00,,,,,10,0,0,,,,,,,,,8/8 Overcast,1000.0,,BKN,1000.0,OVC,12000.0,,,,
KRDR,08-08-2002,13:00,METAR,,150,10.0,,,8000.0,Mist/Cloud Development Not Observable,23.0,23.0,30.01,1016.2,,,,10,0,0,,,,,,,,,8/8 Overcast,800.0,,BKN,800.0,OVC,12000.0,,,,
KRDR,08-08-2002,12:00,METAR,,150,6.0,,,9999.0,Mist/Cloud Development Not Observable,23.0,22.0,30.01,1016.1,,,,10,0,0,,,,,,,,,8/8 Overcast,800.0,,BKN,800.0,OVC,12000.0,,,,
KRDR,08-08-2002,11:00,METAR,,160,7.0,,,9999.0,Cloud Development Not Observable,22.0,22.0,29.99,1015.6,,,,0,0,0,,,,,,,,,7/8 Mostly Cloudy,800.0,,BKN,800.0,,,,,,
KRDR,08-08-2002,10:17,SPECI,,160,10.0,,,9999.0,Cloud Development Not Observable,23.0,23.0,29.99,,,,,0,0,0,,,,,,,,,7/8 Mostly Cloudy,900.0,,BKN,900.0,BKN,2000.0,BKN,12000.0,,
KRDR,08-08-2002,10:00,METAR,,160,7.0,,,9999.0,Thunderstorm/Cloud Development Not Observable,23.0,23.0,29.99,1015.6,,,,17,0,0,,,,,,,,,7/8 Mostly Cloudy,800.0,,BKN,800.0,BKN,12000.0,,,,
KRDR,08-08-2002,09:14,SPECI,,160,9.0,,,9999.0,Thunderstorm/Cloud Development Not Observable,23.0,23.0,29.99,,,,,17,0,0,,,,,,,,,8/8 Overcast,800.0,,BKN,800.0,BKN,2000.0,OVC,12000.0,,
KRDR,08-08-2002,09:05,SPECI,,160,10.0,,,9999.0,Cloud Development Not Observable,23.0,22.0,29.99,,,,,0,0,0,,,,,,,,,7/8 Mostly Cloudy,800.0,,BKN,800.0,BKN,12000.0,,,,
KRDR,08-08-2002,09:00,METAR,,160,12.0,,,9999.0,Cloud Development Not Observable,23.0,22.0,29.99,1015.6,,,,0,0,0,,,,,,,,,7/8 Mostly Cloudy,12000.0,,SCT,800.0,BKN,12000.0,,,,
KRDR,08-08-2002,08:00,METAR,,160,12.0,,,9999.0,Cloud Development Not Observable,22.0,22.0,30.00,1015.9,,,,0,0,0,,,,,,,,,4/8 Partly Cloudy,72000.0,,FEW,12000.0,SCT,25000.0,,,,
KRDR,08-08-2002,07:00,METAR,,160,8.0,,,9999.0,Cloud Development Not Observable,22.0,22.0,30.02,1016.6,,,,0,0,0,,,,,,,,,Clear,72000.0,,,73000.0,,,,,,
KRDR,08-08-2002,06:00,METAR,,160,9.0,,,9999.0,Cloud Development Not Observable,23.0,23.0,30.02,1016.7,,,,0,0,0,,,,,,,,,Clear,72000.0,,,73000.0,,,,,,
KRDR,08-08-2002,05:00,METAR,,150,11.0,,,9999.0,Cloud Development Not Observable,23.0,23.0,30.02,1016.9,,,,0,0,0,,,,,,,,,Clear,72000.0,,,73000.0,,,,,,
KRDR,08-08-2002,04:00,METAR,,140,11.0,,,9999.0,Cloud Development Not Observable,24.0,23.0,30.02,1016.6,,,,0,0,0,,,,,,,,,Clear,72000.0,,,73000.0,,,,,,
KRDR,08-08-2002,03:00,METAR,,140,9.0,,,9999.0,Cloud Development Not Observable,25.0,23.0,30.01,1016.3,,,,0,0,0,,,,,,,,,2/8 Mostly Clear,72000.0,,FEW,3500.0,,,,,,
KRDR,08-08-2002,02:00,METAR,,130,9.0,,,9999.0,Cloud Development Not Observable,26.0,23.0,30.01,1016.3,,,,0,0,0,,,,,,,,,4/8 Partly Cloudy,72000.0,,SCT,3500.0,,,,,,
KRDR,08-08-2002,01:00,METAR,,130,8.0,,,9999.0,Cloud Development Not Observable,28.0,23.0,30.01,1016.3,,,,0,0,0,,,,,,,,,4/8 Partly Cloudy,72000.0,,FEW,3500.0,SCT,5000.0,,,,
KRDR,08-08-2002,00:00,METAR,,150,11.0,,,9999.0,Cloud Development Not Observable,29.0,23.0,30.01,1016.2,,,,0,0,0,,,,,,,,,4/8 Partly Cloudy,72000.0,,SCT,3200.0,,,,,,
KRDR,08-07-2002,23:00,METAR,,150,14.0,,,9999.0,Cloud Development Not Observable,30.0,23.0,30.01,1016.2,,,,0,0,0,,,,,,,,,7/8 Mostly Cloudy,3000.0,,BKN,3000.0,,,,,,
KRDR,08-07-2002,22:00,METAR,,160,11.0,,,9999.0,Cloud Development Not Observable,30.0,22.0,30.01,1016.2,,,,0,0,0,,,,,,,,,4/8 Partly Cloudy,72000.0,,SCT,3000.0,,,,,,
KRDR,08-07-2002,21:00,METAR,,130,12.0,,,9999.0,Cloud Development Not Observable,29.0,22.0,30.03,1016.9,,,,0,0,0,,,,,,,,,4/8 Partly Cloudy,72000.0,,SCT,2800.0,,,,,,
KRDR,08-07-2002,20:00,METAR,,140,9.0,,,9999.0,Cloud Development Not Observable,26.0,21.0,30.06,1018.0,,,,0,0,0,,,,,,,,,7/8 Mostly Cloudy,2000.0,,BKN,2000.0,,,,,,
KRDR,08-07-2002,19:00,METAR,,150,11.0,,,9999.0,Cloud Development Not Observable,24.0,21.0,30.08,1018.8,,,,0,0,0,,,,,,,,,8/8 Overcast,2000.0,,SCT,1500.0,OVC,2000.0,,,,
KRDR,08-07-2002,18:00,METAR,,150,9.0,,,9999.0,Cloud Development Not Observable,22.0,20.0,30.09,1019.2,,,,0,0,0,,,,,,,,,8/8 Overcast,1500.0,,BKN,1500.0,OVC,2000.0,,,,
KRDR,08-07-2002,17:33,SPECI,,150,10.0,,,9999.0,Cloud Development Not Observable,22.0,20.0,30.09,,,,,0,0,0,,,,,,,,,8/8 Overcast,1500.0,,OVC,1500.0,,,,,,
KRDR,08-07-2002,17:00,METAR,,140,9.0,,,9999.0,Cloud Development Not Observable,21.0,20.0,30.10,1019.5,,,,0,0,0,,,,,,,,,8/8 Overcast,1000.0,,OVC,1000.0,,,,,,
KRDR,08-07-2002,16:40,SPECI,,150,9.0,,,9999.0,Cloud Development Not Observable,21.0,20.0,30.10,,,,,0,0,0,,,,,,,,,8/8 Overcast,1000.0,,OVC,1000.0,,,,,,
KRDR,08-07-2002,16:00,METAR,,130,8.0,,,9999.0,Cloud Development Not Observable,21.0,20.0,30.10,1019.5,,,,0,0,0,,,,,,,,,8/8 Overcast,700.0,,BKN,700.0,OVC,1500.0,,,,
KRDR,08-07-2002,15:00,METAR,,130,8.0,,,9999.0,Cloud Development Not Observable,20.0,20.0,30.10,1019.6,,,,0,0,0,,,,,,.02 IN,,,8/8 Overcast,700.0,,BKN,700.0,OVC,1500.0,,,,
KRDR,08-07-2002,14:15,SPECI,,130,9.0,,,9999.0,Cloud Development Not Observable,19.0,19.0,30.09,,,,,0,0,0,,,,,,,,,8/8 Overcast,700.0,,BKN,700.0,OVC,1500.0,,,,
KRDR,08-07-2002,14:00,METAR,,140,8.0,,,9999.0,Cloud Development Not Observable,19.0,19.0,30.08,1018.9,,,,0,0,0,,,,,,,,,8/8 Overcast,1500.0,,SCT,700.0,OVC,1500.0,,,,
KRDR,08-07-2002,13:37,SPECI,,130,9.0,,,9999.0,Cloud Development Not Observable,19.0,19.0,30.08,,,,,0,0,0,,,,,,,,,8/8 Overcast,1500.0,,SCT,700.0,OVC,1500.0,,,,
KRDR,08-07-2002,13:05,SPECI,,140,9.0,,,9999.0,Cloud Development Not Observable,18.0,17.0,30.08,,,,,0,0,0,,,,,,,,,8/8 Overcast,1500.0,,BKN,1500.0,OVC,3000.0,,,,
KRDR,08-07-2002,13:00,METAR,,140,10.0,,,9999.0,Thunderstorm with Rain or Snow/Light Rain Showers/Cloud Development Not Observable,18.0,18.0,30.08,1018.9,,,,95,80,0,,,,,,,,,8/8 Overcast,1500.0,,BKN,1500.0,OVC,3000.0,,,,
KRDR,08-07-2002,12:25,METAR,,130,8.0,,,9999.0,Thunderstorm with Rain or Snow/Light Rain Showers/Cloud Development Not Observable,18.0,17.0,30.09,,,,,95,80,0,,,,,,,,,8/8 Overcast,1500.0,,OVC,1500.0,,,,,,
KRDR,08-07-2002,12:11,SPECI,,130,10.0,,,9999.0,Thunderstorm with Rain or Snow/Light Rain Showers/Cloud Development Not Observable,19.0,17.0,30.09,,,,,95,80,0,,,,,,,,,8/8 Overcast,1500.0,,OVC,1500.0,,,,,,
KRDR,08-07-2002,12:00,METAR,,130,10.0,,,9999.0,Thunderstorm/Cloud Development Not Observable,19.0,16.0,30.08,,,,,17,0,0,,,,,,,,,8/8 Overcast,1700.0,,OVC,1700.0,,,,,,
KRDR,08-07-2002,11:54,SPECI,,130,10.0,,,9999.0,Thunderstorm/Cloud Development Not Observable,19.0,16.0,30.08,,,,,17,0,0,,,,,,,,,8/8 Overcast,1700.0,,OVC,1700.0,,,,,,
KRDR,08-07-2002,11:35,SPECI,,130,10.0,,,9999.0,Cloud Development Not Observable,19.0,16.0,30.08,,,,,0,0,0,,,,,,,,,8/8 Overcast,1700.0,,OVC,1700.0,,,,,,
KRDR,08-07-2002,11:26,SPECI,,130,11.0,,,9999.0,Light Rain Showers/Cloud Development Not Observable,19.0,16.0,30.08,,,,,80,0,0,,,,,,,,,8/8 Overcast,1700.0,,OVC,1700.0,,,,,,
KRDR,08-07-2002,11:00,METAR,,130,12.0,,,9999.0,Cloud Development Not Observable,19.0,16.0,30.08,1018.6,,,,0,0,0,,,,,,,,,8/8 Overcast,1800.0,,OVC,1800.0,,,,,,
KRDR,08-07-2002,09:00,METAR,,160,9.0,,,9999.0,Cloud Development Not Observable,19.0,16.0,30.08,1018.8,,,,0,0,0,,,,,,,,,8/8 Overcast,2600.0,,BKN,2600.0,OVC,3300.0,,,,
KRDR,08-07-2002,08:00,METAR,,150,12.0,,,9999.0,Cloud Development Not Observable,20.0,15.0,30.10,1019.4,,,,0,0,0,,,,,,,,,8/8 Overcast,2700.0,,OVC,2700.0,,,,,,
KRDR,08-07-2002,07:00,METAR,,150,11.0,,,9999.0,Cloud Development Not Observable,20.0,16.0,30.10,1019.4,,,,0,0,0,,,,,,,,,8/8 Overcast,2700.0,,OVC,2700.0,,,,,,
KRDR,08-07-2002,06:00,METAR,,160,13.0,,,9999.0,Cloud Development Not Observable,21.0,16.0,30.11,1019.7,,,,0,0,0,,,,,,,,,8/8 Overcast,2900.0,,BKN,2900.0,OVC,3500.0,,,,
KRDR,08-07-2002,05:00,METAR,,160,12.0,,,9999.0,Cloud Development Not Observable,21.0,16.0,30.11,1019.7,,,,0,0,0,,,,,,,,,8/8 Overcast,2600.0,,OVC,2600.0,,,,,,
KRDR,08-07-2002,04:00,METAR,,150,11.0,,,9999.0,Cloud Development Not Observable,21.0,16.0,30.11,1019.7,,,,0,0,0,,,,,,,,,8/8 Overcast,2800.0,,OVC,2800.0,,,,,,
KRDR,08-07-2002,03:38,SPECI,,160,13.0,,,9999.0,Cloud Development Not Observable,21.0,16.0,30.11,,,,,0,0,0,,,,,,,,,8/8 Overcast,2800.0,,OVC,2800.0,,,,,,
KRDR,08-07-2002,03:00,METAR,,140,8.0,,,9999.0,Cloud Development Not Observable,21.0,17.0,30.10,1019.5,,,,0,0,0,,,,,,,,,8/8 Overcast,3100.0,,OVC,3200.0,,,,,,
KRDR,08-07-2002,02:00,METAR,,130,10.0,,,9999.0,Cloud Development Not Observable,22.0,17.0,30.09,1019.1,,,,0,0,0,,,,,,,,,8/8 Overcast,3300.0,,OVC,3400.0,,,,,,
KRDR,08-07-2002,01:00,METAR,,130,10.0,,,9999.0,Cloud Development Not Observable,22.0,17.0,30.09,1019.2,,,,0,0,0,,,,,,,,,8/8 Overcast,3300.0,,BKN,3400.0,OVC,5000.0,,,,
KRDR,08-06-2002,23:00,METAR,,130,10.0,18.0,,9999.0,Cloud Development Not Observable,22.0,16.0,30.10,1019.3,,,,0,0,0,,,,,,,,,8/8 Overcast,2900.0,,BKN,2900.0,OVC,4000.0,,,,
KRDR,08-06-2002,21:00,METAR,,120,14.0,22.0,,9999.0,Cloud Development Not Observable,22.0,17.0,30.13,1020.6,,,,0,0,0,,,,,,,,,8/8 Overcast,2700.0,,BKN,2700.0,OVC,4000.0,,,,
KRDR,08-06-2002,20:00,METAR,,140,11.0,20.0,,9999.0,Cloud Development Not Observable,21.0,16.0,30.15,1021.3,,,,0,0,0,,,,,,,,,8/8 Overcast,2500.0,,BKN,2500.0,OVC,3000.0,,,,
KRDR,08-06-2002,19:10,SPECI,,130,11.0,,,9999.0,Cloud Development Not Observable,20.0,16.0,30.16,,,,,0,0,0,,,,,,,,,8/8 Overcast,2500.0,,BKN,2500.0,BKN,4000.0,OVC,5000.0,,
KRDR,08-06-2002,19:00,METAR,,140,11.0,,,9999.0,Light Rain Showers/Cloud Development Not Observable,20.0,16.0,30.16,1021.6,,,,80,0,0,,,,,,,,,8/8 Overcast,3900.0,,SCT,2500.0,BKN,4000.0,OVC,5000.0,,
KRDR,08-06-2002,18:30,METAR,,140,11.0,,,9999.0,Light Rain Showers/Cloud Development Not Observable,20.0,15.0,30.16,,,,,80,0,0,,,,,,,,,8/8 Overcast,3900.0,,SCT,2500.0,BKN,4000.0,OVC,5000.0,,
KRDR,08-06-2002,18:00,METAR,,150,10.0,,,9999.0,Cloud Development Not Observable,22.0,15.0,30.18,1022.3,,,,0,0,0,,,,,,,,,8/8 Overcast,3900.0,,FEW,2500.0,BKN,4000.0,OVC,5000.0,,
KRDR,08-06-2002,17:00,METAR,,160,14.0,,,9999.0,Cloud Development Not Observable,22.0,15.0,30.18,1022.2,,,,0,0,0,,,,,,,,,7/8 Mostly Cloudy,3400.0,,FEW,2700.0,SCT,3500.0,BKN,9900.0,BKN,20000.0
KRDR,08-06-2002,16:00,METAR,,120,17.0,,,9999.0,Cloud Development Not Observable,21.0,14.0,30.13,1020.5,,,,0,0,0,,,,,,,,,7/8 Mostly Cloudy,10000.0,,FEW,1500.0,SCT,9900.0,BKN,15000.0,BKN,20000.0
KRDR,08-06-2002,14:00,METAR,,130,11.0,,,9999.0,Cloud Development Not Observable,17.0,12.0,30.21,1023.3,,,,0,0,0,,,,,,,,,8/8 Overcast,15000.0,,BKN,15000.0,OVC,20000.0,,,,
KRDR,08-06-2002,13:00,METAR,,130,11.0,,,9999.0,Cloud Development Not Observable,15.0,12.0,30.21,1023.3,,,,0,0,0,,,,,,,,,8/8 Overcast,20000.0,,SCT,15000.0,OVC,20000.0,,,,
KRDR,08-06-2002,12:00,METAR,,110,7.0,,,9999.0,Cloud Development Not Observable,15.0,13.0,30.22,1023.6,,,,0,0,0,,,,,,,,,8/8 Overcast,20000.0,,FEW,14000.0,OVC,20000.0,,,,
KRDR,08-06-2002,11:00,METAR,,120,6.0,,,9999.0,Cloud Development Not Observable,13.0,13.0,30.22,1024.3,,,,0,0,0,,,,,,,,,7/8 Mostly Cloudy,20000.0,,FEW,14000.0,BKN,20000.0,,,,
KRDR,08-06-2002,10:00,METAR,,130,6.0,,,9999.0,Cloud Development Not Observable,14.0,13.0,30.24,1024.3,,,,0,0,0,,,,,,,,,7/8 Mostly Cloudy,20000.0,,SCT,14000.0,BKN,20000.0,,,,
KRDR,08-06-2002,09:00,METAR,,120,6.0,,,9999.0,Cloud Development Not Observable,14.0,13.0,30.23,1024.2,,,,0,0,0,,,,,,,,,4/8 Partly Cloudy,72000.0,,SCT,14000.0,SCT,20000.0,,,,
KRDR,08-06-2002,08:00,METAR,,100,6.0,,,9999.0,Cloud Development Not Observable,15.0,13.0,30.23,1024.1,,,,0,0,0,,,,,,,,,7/8 Mostly Cloudy,14000.0,,BKN,14000.0,BKN,20000.0,,,,
KRDR,08-06-2002,07:00,METAR,,360,2.0,,,9999.0,Cloud Development Not Observable,14.0,13.0,30.27,1025.3,,,,0,0,0,,,,,,,,,7/8 Mostly Cloudy,20000.0,,FEW,14000.0,BKN,20000.0,,,,
KRDR,08-06-2002,06:00,METAR,,110,5.0,,,9999.0,Cloud Development Not Observable,16.0,13.0,30.25,1024.9,,,,0,0,0,,,,,,,,,4/8 Partly Cloudy,72000.0,,FEW,14000.0,SCT,20000.0,,,,
KRDR,08-06-2002,05:00,METAR,,100,6.0,,,9999.0,Cloud Development Not Observable,18.0,13.0,30.25,1024.8,,,,0,0,0,,,,,,,,,4/8 Partly Cloudy,72000.0,,FEW,14000.0,SCT,20000.0,,,,
KRDR,08-06-2002,04:00,METAR,,100,6.0,,,9999.0,Cloud Development Not Observable,19.0,12.0,30.25,1024.9,,,,0,0,0,,,,,,,,,2/8 Mostly Clear,72000.0,,FEW,14000.0,FEW,20000.0,,,,
KRDR,08-06-2002,03:00,METAR,,90,7.0,,,9999.0,Cloud Development Not Observable,19.0,13.0,30.25,1024.7,,,,0,0,0,,,,,,,,,2/8 Mostly Clear,72000.0,,FEW,14000.0,FEW,20000.0,,,,
KRDR,08-06-2002,02:00,METAR,,90,9.0,,,9999.0,Cloud Development Not Observable,21.0,11.0,30.23,1024.1,,,,0,0,0,,,,,,,,,2/8 Mostly Clear,72000.0,,FEW,14000.0,FEW,20000.0,,,,
KRDR,08-06-2002,01:00,METAR,,90,10.0,,,9999.0,Cloud Development Not Observable,23.0,10.0,30.23,1024.1,,,,0,0,0,,,,,,,,,2/8 Mostly Clear,72000.0,,FEW,20000.0,,,,,,
KRDR,08-06-2002,00:00,METAR,,90,11.0,,,9999.0,Cloud Development Not Observable,25.0,11.0,30.23,1024.2,,,,0,0,0,,,,,,,,,Clear,72000.0,,,73000.0,,,,,,
KRDR,08-05-2002,23:00,METAR,,90,11.0,,,9999.0,Cloud Development Not Observable,25.0,10.0,30.23,1024.2,,,,0,0,0,,,,,,,,,2/8 Mostly Clear,72000.0,,FEW,20000.0,,,,,,
KRDR,08-05-2002,22:00,METAR,,90,11.0,,,9999.0,Cloud Development Not Observable,26.0,11.0,30.25,1024.8,,,,0,0,0,,,,,,,,,Clear,72000.0,,,73000.0,,,,,,
KRDR,08-05-2002,21:00,METAR,,100,8.0,,,9999.0,Cloud Development Not Observable,25.0,11.0,30.27,1025.5,,,,0,0,0,,,,,,,,,Clear,72000.0,,,73000.0,,,,,,
KRDR,08-05-2002,20:00,METAR,,80,12.0,,,9999.0,Cloud Development Not Observable,25.0,11.0,30.28,1025.8,,,,0,0,0,,,,,,,,,Clear,72000.0,,,73000.0,,,,,,
KRDR,08-05-2002,19:00,METAR,,80,10.0,16.0,,9999.0,Cloud Development Not Observable,24.0,11.0,30.28,1025.8,,,,0,0,0,,,,,,,,,Clear,72000.0,,,73000.0,,,,,,
KRDR,08-05-2002,18:00,METAR,,110,6.0,,,9999.0,Cloud Development Not Observable,23.0,11.0,30.29,1026.3,,,,0,0,0,,,,,,,,,Clear,72000.0,,,73000.0,,,,,,
KRDR,08-05-2002,17:00,METAR,,80,10.0,,,9999.0,Cloud Development Not Observable,23.0,11.0,30.31,1026.8,,,,0,0,0,,,,,,,,,Clear,72000.0,,,73000.0,,,,,,
KRDR,08-05-2002,16:00,METAR,,70,7.0,,,9999.0,Cloud Development Not Observable,21.0,12.0,30.31,1026.7,,,,0,0,0,,,,,,,,,,72000.0,,,,,,,,,
KRDR,08-05-2002,15:00,METAR,,90,7.0,,,9999.0,Cloud Development Not Observable,19.0,12.0,30.32,1027.1,,,,0,0,0,,,,,,,,,2/8 Mostly Clear,72000.0,,FEW,20000.0,,,,,,
KRDR,08-05-2002,14:00,METAR,,50,6.0,,,9999.0,Cloud Development Not Observable,16.0,12.0,30.31,1026.7,,,,0,0,0,,,,,,,,,4/8 Partly Cloudy,72000.0,,SCT,20000.0,,,,,,
KRDR,08-05-2002,13:00,METAR,,50,4.0,,,9999.0,Cloud Development Not Observable,13.0,11.0,30.30,1026.6,,,,0,0,0,,,,,,,,,4/8 Partly Cloudy,72000.0,,SCT,20000.0,,,,,,
KRDR,08-05-2002,12:00,METAR,,360,3.0,,,9999.0,Cloud Development Not Observable,10.0,9.0,30.30,1026.6,,,,0,0,0,,,,,,,,,4/8 Partly Cloudy,72000.0,,FEW,14000.0,SCT,25000.0,,,,
KRDR,08-05-2002,11:00,METAR,,10,4.0,,,9999.0,Cloud Development Not Observable,10.0,9.0,30.29,1026.3,,,,0,0,0,,,,,,,,,2/8 Mostly Clear,72000.0,,FEW,14000.0,,,,,,
KRDR,08-05-2002,10:00,METAR,,350,5.0,,,9999.0,Cloud Development Not Observable,10.0,9.0,30.30,1026.5,,,,0,0,0,,,,,,,,,2/8 Mostly Clear,72000.0,,FEW,14000.0,,,,,,
KRDR,08-05-2002,09:00,METAR,,360,5.0,,,9999.0,Cloud Development Not Observable,11.0,10.0,30.28,1025.8,,,,0,0,0,,,,,,,,,4/8 Partly Cloudy,72000.0,,SCT,14000.0,,,,,,
KRDR,08-05-2002,08:00,METAR,,360,5.0,,,9999.0,Cloud Development Not Observable,13.0,10.0,30.27,1025.4,,,,0,0,0,,,,,,,,,7/8 Mostly Cloudy,14000.0,,BKN,14000.0,,,,,,
KRDR,08-05-2002,07:00,METAR,,360,6.0,,,9999.0,Cloud Development Not Observable,13.0,11.0,30.25,1024.9,,,,0,0,0,,,,,,,,,2/8 Mostly Clear,72000.0,,FEW,14000.0,,,,,,
KRDR,08-05-2002,05:00,METAR,,350,5.0,,,9999.0,Cloud Development Not Observable,15.0,11.0,30.26,1025.2,,,,0,0,0,,,,,,,,,7/8 Mostly Cloudy,14000.0,,BKN,14000.0,,,,,,
KRDR,08-05-2002,04:00,METAR,,10,5.0,,,9999.0,Cloud Development Not Observable,16.0,11.0,30.27,1025.3,,,,0,0,0,,,,,,,,,7/8 Mostly Cloudy,14000.0,,BKN,14000.0,,,,,,
KRDR,08-05-2002,03:00,METAR,,50,8.0,,,9999.0,Cloud Development Not Observable,18.0,10.0,30.26,1025.2,,,,0,0,0,,,,,,,,,7/8 Mostly Cloudy,12000.0,,BKN,12000.0,BKN,20000.0,,,,
KRDR,08-05-2002,02:17,SPECI,,30,11.0,,,9999.0,Cloud Development Not Observable,19.0,12.0,30.22,,,,,0,0,0,,,,,,,,,7/8 Mostly Cloudy,12000.0,,SCT,8900.0,BKN,12000.0,BKN,20000.0,,
KRDR,08-05-2002,02:00,METAR,,50,6.0,,,9999.0,Light Rain Showers/Cloud Development Not Observable,20.0,12.0,30.24,1024.6,,,,80,0,0,,,,,,,,,7/8 Mostly Cloudy,12000.0,,FEW,5000.0,BKN,12000.0,BKN,20000.0,,
KRDR,08-05-2002,01:37,SPECI,,40,6.0,,,9999.0,Light Rain Showers/Cloud Development Not Observable,20.0,12.0,30.24,,,,,80,0,0,,,,,,,,,7/8 Mostly Cloudy,20000.0,,SCT,12000.0,BKN,20000.0,,,,
KRDR,08-05-2002,01:00,METAR,,40,4.0,,,9999.0,Cloud Development Not Observable,21.0,12.0,30.25,1025.0,,,,0,0,0,,,,,,,,,7/8 Mostly Cloudy,20000.0,,SCT,12000.0,BKN,20000.0,,,,
KRDR,08-05-2002,00:00,METAR,,10,6.0,,,9999.0,Cloud Development Not Observable,21.0,12.0,30.25,1025.2,,,,0,0,0,,,,,,,,,7/8 Mostly Cloudy,20000.0,,BKN,20000.0,BKN,30000.0,,,,
KRDR,08-04-2002,23:00,METAR,,30,5.0,,,9999.0,Cloud Development Not Observable,23.0,11.0,30.26,1025.3,,,,0,0,0,,,,,,,,,7/8 Mostly Cloudy,20000.0,,FEW,5000.0,BKN,20000.0,BKN,30000.0,,
KRDR,08-04-2002,22:00,METAR,,,6.0,,,9999.0,Cloud Development Not Observable,23.0,12.0,30.25,1025.1,,,,0,0,0,,,,,,,,,7/8 Mostly Cloudy,30000.0,,FEW,5000.0,BKN,30000.0,,,,
KRDR,08-04-2002,21:00,METAR,,10,7.0,,,9999.0,Cloud Development Not Observable,22.0,11.0,30.25,1025.1,,,,0,0,0,,,,,,,,,4/8 Partly Cloudy,72000.0,,FEW,5000.0,SCT,30000.0,,,,
KRDR,08-04-2002,20:00,METAR,,,4.0,,,9999.0,Cloud Development Not Observable,22.0,12.0,30.24,1024.7,,,,0,0,0,,,,,,,,,4/8 Partly Cloudy,72000.0,,FEW,5000.0,SCT,30000.0,,,,
KRDR,08-04-2002,19:00,METAR,,20,9.0,,,9999.0,Cloud Development Not Observable,22.0,12.0,30.25,1024.9,,,,0,0,0,,,,,,,,,7/8 Mostly Cloudy,30000.0,,BKN,30000.0,,,,,,
KRDR,08-04-2002,18:00,METAR,,40,6.0,,,9999.0,Cloud Development Not Observable,21.0,12.0,30.25,1025.0,,,,0,0,0,,,,,,,,,7/8 Mostly Cloudy,30000.0,,BKN,30000.0,,,,,,
KRDR,08-04-2002,17:00,METAR,,10,6.0,,,9999.0,Cloud Development Not Observable,20.0,12.0,30.25,1025.0,,,,0,0,0,,,,,,,,,7/8 Mostly Cloudy,25000.0,,BKN,25000.0,,,,,,
KRDR,08-04-2002,16:00,METAR,,20,8.0,,,9999.0,Cloud Development Not Observable,19.0,12.0,30.25,1025.0,,,,0,0,0,,,,,,,,,7/8 Mostly Cloudy,25000.0,,BKN,25000.0,,,,,,
KRDR,08-04-2002,15:00,METAR,,30,7.0,,,9999.0,Cloud Development Not Observable,17.0,12.0,30.26,1025.1,,,,0,0,0,,,,,,,,,7/8 Mostly Cloudy,25000.0,,BKN,25000.0,,,,,,
KRDR,08-04-2002,14:00,METAR,,10,10.0,,,9999.0,Cloud Development Not Observable,16.0,11.0,30.25,1025.0,,,,0,0,0,,,,,,,,,7/8 Mostly Cloudy,25000.0,,BKN,25000.0,,,,,,
KRDR,08-04-2002,13:00,METAR,,360,5.0,,,9999.0,Cloud Development Not Observable,13.0,11.0,30.23,1024.2,,,,0,0,0,,,,,,,,,4/8 Partly Cloudy,72000.0,,SCT,20000.0,,,,,,
KRDR,08-04-2002,12:00,METAR,,330,5.0,,,9999.0,Cloud Development Not Observable,10.0,9.0,30.22,1023.7,,,,0,0,0,,,,,,,,,4/8 Partly Cloudy,72000.0,,SCT,20000.0,,,,,,
KRDR,08-04-2002,11:00,METAR,,330,5.0,,,9999.0,Cloud Development Not Observable,9.0,9.0,30.19,1022.9,,,,0,0,0,,,,,,,,,4/8 Partly Cloudy,72000.0,,FEW,9900.0,SCT,20000.0,,,,
KRDR,08-04-2002,10:00,METAR,,310,5.0,,,9999.0,Cloud Development Not Observable,10.0,10.0,30.18,1022.3,,,,0,0,0,,,,,,,,,4/8 Partly Cloudy,72000.0,,SCT,20000.0,,,,,,
KRDR,08-04-2002,09:00,METAR,,310,3.0,,,9999.0,Cloud Development Not Observable,11.0,11.0,30.16,1021.1,,,,0,0,0,,,,,,,,,Clear,72000.0,,,73000.0,,,,,,
KRDR,08-04-2002,08:00,METAR,,340,5.0,,,9999.0,Cloud Development Not Observable,12.0,12.0,30.14,1021.1,,,,0,0,0,,,,,,,,,Clear,72000.0,,,73000.0,,,,,,
KRDR,08-04-2002,07:00,METAR,,330,7.0,,,9999.0,Cloud Development Not Observable,13.0,13.0,30.14,1020.9,,,,0,0,0,,,,,,,,,4/8 Partly Cloudy,72000.0,,SCT,4000.0,,,,,,
KRDR,08-04-2002,06:00,METAR,,330,8.0,,,9999.0,Cloud Development Not Observable,15.0,14.0,30.14,1020.9,,,,0,0,0,,,,,,,,,7/8 Mostly Cloudy,3900.0,,FEW,2000.0,BKN,4000.0,,,,
KRDR,08-04-2002,05:00,METAR,,360,10.0,,,9999.0,Cloud Development Not Observable,17.0,14.0,30.13,1020.5,,,,0,0,0,,,,,,,,,8/8 Overcast,3400.0,,FEW,2200.0,OVC,3500.0,,,,
KRDR,08-04-2002,04:00,METAR,,350,9.0,,,9999.0,Cloud Development Not Observable,18.0,16.0,30.10,1019.5,,,,0,0,0,,,,,,,,,7/8 Mostly Cloudy,3000.0,,BKN,3000.0,,,,,,
KRDR,08-04-2002,03:00,METAR,,360,14.0,,,9999.0,Cloud Development Not Observable,20.0,17.0,30.05,1017.9,,,,0,0,0,,,,,,,,,7/8 Mostly Cloudy,3000.0,,BKN,3000.0,,,,,,
KRDR,08-04-2002,02:00,METAR,,360,14.0,,,9999.0,Cloud Development Not Observable,21.0,18.0,29.99,1015.8,,,,0,0,0,,,,,,,,,7/8 Mostly Cloudy,3000.0,,BKN,3000.0,,,,,,
KRDR,08-04-2002,01:00,METAR,,,3.0,,,9999.0,Cloud Development Not Observable,25.0,20.0,29.94,1014.0,,,,0,0,0,,,,,,,,,2/8 Mostly Clear,72000.0,,FEW,4000.0,,,,,,
KRDR,08-04-2002,00:00,METAR,,190,5.0,,,9999.0,Cloud Development Not Observable,26.0,20.0,29.94,1013.9,,,,0,0,0,,,,,,,,,4/8 Partly Cloudy,72000.0,,FEW,4000.0,SCT,20000.0,,,,
KRDR,08-03-2002,23:00,METAR,,180,7.0,,,9999.0,Cloud Development Not Observable,26.0,19.0,29.94,1013.9,,,,0,0,0,,,,,,,,,4/8 Partly Cloudy,72000.0,,FEW,3000.0,FEW,14000.0,SCT,20000.0,,
KRDR,08-03-2002,22:00,METAR,,180,9.0,,,9999.0,Cloud Development Not Observable,26.0,19.0,29.94,1013.9,,,,0,0,0,,,,,,,,,7/8 Mostly Cloudy,14000.0,,SCT,3000.0,BKN,14000.0,,,,
KRDR,08-03-2002,21:00,METAR,,,6.0,,,9999.0,Cloud Development Not Observable,25.0,18.0,29.93,1013.6,,,,0,0,0,,,,,,,,,7/8 Mostly Cloudy,14000.0,,SCT,3000.0,BKN,14000.0,,,,
KRDR,08-03-2002,20:00,METAR,,190,8.0,,,9999.0,Cloud Development Not Observable,25.0,18.0,29.93,1013.6,,,,0,0,0,,,,,,,,,2/8 Mostly Clear,72000.0,,FEW,3000.0,FEW,14000.0,,,,
KRDR,08-03-2002,18:56,METAR,,190,11.0,17.0,,9999.0,Cloud Development Not Observable,25.0,19.0,29.92,1013.5,,,,0,0,0,,,,,,,,,7/8 Mostly Cloudy,3000.0,,BKN,3000.0,,,,,,
KRDR,08-03-2002,18:00,METAR,,160,8.0,,,9999.0,Cloud Development Not Observable,23.0,18.0,29.91,1013.9,,,,0,0,0,,,,,,,,,7/8 Mostly Cloudy,14000.0,,SCT,2500.0,BKN,14000.0,BKN,20000.0,,
KRDR,08-03-2002,17:00,METAR,,170,10.0,,,9999.0,Cloud Development Not Observable,22.0,18.0,29.93,1013.9,,,,0,0,0,,,,,,,,,7/8 Mostly Cloudy,14000.0,,FEW,2000.0,BKN,14000.0,BKN,20000.0,,
KRDR,08-03-2002,16:00,METAR,,160,12.0,,,9999.0,Cloud Development Not Observable,21.0,17.0,29.91,1013.0,,,,0,0,0,,,,,,,,,7/8 Mostly Cloudy,14000.0,,FEW,6400.0,BKN,14000.0,BKN,20000.0,,
KRDR,08-03-2002,15:00,METAR,,170,11.0,,,9999.0,Cloud Development Not Observable,19.0,16.0,29.93,1013.8,,,,0,0,0,,,,,,,,,8/8 Overcast,12000.0,,FEW,6400.0,BKN,12000.0,OVC,20000.0,,
KRDR,08-03-2002,14:00,METAR,,150,6.0,,,9999.0,Cloud Development Not Observable,18.0,15.0,29.95,1014.6,,,,0,0,0,,,,,,,,,8/8 Overcast,12000.0,,FEW,6400.0,BKN,12000.0,OVC,20000.0,,
KRDR,08-03-2002,13:00,METAR,,110,7.0,,,9999.0,Cloud Development Not Observable,16.0,14.0,29.95,1014.6,,,,0,0,0,,,,,,,,,8/8 Overcast,12000.0,,BKN,12000.0,OVC,20000.0,,,,
KRDR,08-03-2002,12:45,METAR,,90,5.0,,,9999.0,Cloud Development Not Observable,16.0,14.0,29.96,,,,,0,0,0,,,,,,,,,8/8 Overcast,12000.0,,BKN,12000.0,OVC,20000.0,,,,
KRDR,08-03-2002,12:00,METAR,,140,9.0,,,9999.0,Light Rain Showers/Cloud Development Not Observable,16.0,14.0,29.96,1014.8,,,,80,0,0,,,,,,,,,8/8 Overcast,15000.0,,FEW,8900.0,BKN,15000.0,OVC,20000.0,,
KRDR,08-03-2002,11:00,METAR,,140,6.0,,,9999.0,Cloud Development Not Observable,16.0,14.0,29.96,1014.8,,,,0,0,0,,,,,,,,,8/8 Overcast,15000.0,,FEW,8900.0,BKN,15000.0,OVC,20000.0,,
KRDR,08-03-2002,10:00,METAR,,150,7.0,,,9999.0,Cloud Development Not Observable,16.0,14.0,29.97,1015.1,,,,0,0,0,,,,,,,,,8/8 Overcast,9500.0,,SCT,5900.0,OVC,9400.0,,,,
KRDR,08-03-2002,09:00,METAR,,140,7.0,,,9999.0,Cloud Development Not Observable,15.0,14.0,29.99,1016.0,,,,0,0,0,,,,,,,,,8/8 Overcast,15000.0,,SCT,12000.0,BKN,15000.0,OVC,20000.0,,
KRDR,08-03-2002,08:00,METAR,,130,5.0,,,9999.0,Cloud Development Not Observable,15.0,13.0,30.02,1016.9,,,,0,0,0,,,,,,,,,8/8 Overcast,20000.0,,SCT,12000.0,OVC,20000.0,,,,
KRDR,08-03-2002,07:00,METAR,,150,6.0,,,9999.0,Cloud Development Not Observable,15.0,12.0,30.03,1017.3,,,,0,0,0,,,,,,,,,7/8 Mostly Cloudy,20000.0,,SCT,12000.0,BKN,20000.0,,,,
KRDR,08-03-2002,06:00,METAR,,130,6.0,,,9999.0,Cloud Development Not Observable,16.0,12.0,30.04,1017.7,,,,0,0,0,,,,,,,,,8/8 Overcast,15000.0,,FEW,7900.0,BKN,15000.0,OVC,20000.0,,
KRDR,08-03-2002,05:00,METAR,,140,5.0,,,9999.0,Cloud Development Not Observable,17.0,13.0,30.04,1017.9,,,,0,0,0,,,,,,,,,8/8 Overcast,15000.0,,FEW,7900.0,BKN,15000.0,OVC,20000.0,,
KRDR,08-03-2002,04:00,METAR,,140,6.0,,,9999.0,Cloud Development Not Observable,17.0,13.0,30.05,1018.2,,,,0,0,0,,,,,,,,,7/8 Mostly Cloudy,15000.0,,FEW,7900.0,SCT,15000.0,BKN,25000.0,,
KRDR,08-03-2002,03:00,METAR,,140,6.0,,,9999.0,Cloud Development Not Observable,17.0,12.0,30.06,1018.6,,,,0,0,0,,,,,,,,,7/8 Mostly Cloudy,15000.0,,FEW,7900.0,SCT,15000.0,BKN,25000.0,,
KRDR,08-03-2002,02:00,METAR,,140,5.0,,,9999.0,Cloud Development Not Observable,19.0,11.0,30.06,1018.6,,,,0,0,0,,,,,,,,,4/8 Partly Cloudy,72000.0,,FEW,15000.0,SCT,25000.0,,,,
KRDR,08-03-2002,01:00,METAR,,,5.0,,,9999.0,Cloud Development Not Observable,21.0,11.0,30.07,1018.7,,,,0,0,0,,,,,,,,,4/8 Partly Cloudy,72000.0,,SCT,20000.0,,,,,,
KRDR,08-03-2002,00:00,METAR,,,6.0,,,9999.0,Cloud Development Not Observable,23.0,9.0,30.08,1019.1,,,,0,0,0,,,,,,,,,4/8 Partly Cloudy,72000.0,,SCT,20000.0,,,,,,
KRDR,08-02-2002,23:00,METAR,,,6.0,,,9999.0,Cloud Development Not Observable,23.0,9.0,30.09,1019.4,,,,0,0,0,,,,,,,,,4/8 Partly Cloudy,72000.0,,SCT,20000.0,,,,,,
KRDR,08-02-2002,22:00,METAR,,,3.0,,,9999.0,Cloud Development Not Observable,23.0,9.0,30.10,1019.7,,,,0,0,0,,,,,,,,,4/8 Partly Cloudy,72000.0,,SCT,20000.0,,,,,,
KRDR,08-02-2002,21:00,METAR,,270,9.0,,,9999.0,Cloud Development Not Observable,23.0,8.0,30.12,1020.4,,,,0,0,0,,,,,,,,,2/8 Mostly Clear,72000.0,,FEW,20000.0,,,,,,
KRDR,08-02-2002,20:00,METAR,,,5.0,,,9999.0,Cloud Development Not Observable,22.0,9.0,30.14,1021.1,,,,0,0,0,,,,,,,,,2/8 Mostly Clear,72000.0,,FEW,20000.0,,,,,,
KRDR,08-02-2002,19:00,METAR,,260,8.0,13.0,,9999.0,Cloud Development Not Observable,21.0,8.0,30.15,1021.6,,,,0,0,0,,,,,,,,,Clear,72000.0,,,73000.0,,,,,,
KRDR,08-02-2002,18:00,METAR,,,5.0,,,9999.0,Cloud Development Not Observable,19.0,7.0,30.17,1022.4,,,,0,0,0,,,,,,,,,2/8 Mostly Clear,72000.0,,FEW,4000.0,,,,,,
KRDR,08-02-2002,17:00,METAR,,290,8.0,,,9999.0,Cloud Development Not Observable,18.0,9.0,30.19,1022.9,,,,0,0,0,,,,,,,,,2/8 Mostly Clear,72000.0,,FEW,4000.0,,,,,,
KRDR,08-02-2002,16:00,METAR,,290,11.0,,,9999.0,Cloud Development Not Observable,17.0,8.0,30.19,1023.0,,,,0,0,0,,,,,,,,,2/8 Mostly Clear,72000.0,,FEW,4000.0,,,,,,
KRDR,08-02-2002,15:00,METAR,,310,8.0,,,9999.0,Cloud Development Not Observable,16.0,8.0,30.19,1022.8,,,,0,0,0,,,,,,,,,Clear,72000.0,,,73000.0,,,,,,
KRDR,08-02-2002,14:00,METAR,,300,9.0,,,9999.0,Cloud Development Not Observable,14.0,9.0,30.19,1022.9,,,,0,0,0,,,,,,,,,2/8 Mostly Clear,72000.0,,FEW,20000.0,,,,,,
KRDR,08-02-2002,13:00,METAR,,290,8.0,,,9999.0,Cloud Development Not Observable,12.0,9.0,30.18,1022.7,,,,0,0,0,,,,,,,,,2/8 Mostly Clear,72000.0,,FEW,20000.0,,,,,,
KRDR,08-02-2002,12:00,METAR,,280,4.0,,,9999.0,Cloud Development Not Observable,9.0,8.0,30.19,1023.1,,,,0,0,0,,,,,,,,,2/8 Mostly Clear,72000.0,,FEW,20000.0,,,,,,
KRDR,08-02-2002,11:00,METAR,,270,5.0,,,9999.0,Cloud Development Not Observable,8.0,8.0,30.17,1022.4,,,,0,0,0,,,,,,,,,Clear,72000.0,,,73000.0,,,,,,
KRDR,08-02-2002,10:00,METAR,,270,5.0,,,9999.0,Cloud Development Not Observable,8.0,7.0,30.17,1022.4,,,,0,0,0,,,,,,,,,Clear,72000.0,,,73000.0,,,,,,
KRDR,08-02-2002,09:00,METAR,,270,6.0,,,9999.0,Cloud Development Not Observable,9.0,8.0,30.17,1022.4,,,,0,0,0,,,,,,,,,Clear,72000.0,,,73000.0,,,,,,
KRDR,08-02-2002,08:00,METAR,,280,5.0,,,9999.0,Cloud Development Not Observable,10.0,9.0,30.15,1021.7,,,,0,0,0,,,,,,,,,Clear,72000.0,,,73000.0,,,,,,
KRDR,08-02-2002,07:00,METAR,,300,5.0,,,9999.0,Cloud Development Not Observable,11.0,9.0,30.15,1021.7,,,,0,0,0,,,,,,,,,Clear,72000.0,,,73000.0,,,,,,
KRDR,08-02-2002,06:00,METAR,,280,6.0,,,9999.0,Cloud Development Not Observable,11.0,10.0,30.14,1021.4,,,,0,0,0,,,,,,,,,2/8 Mostly Clear,72000.0,,FEW,5900.0,,,,,,
KRDR,08-02-2002,05:00,METAR,,300,8.0,,,9999.0,Cloud Development Not Observable,13.0,11.0,30.14,1021.3,,,,0,0,0,,,,,,,,,2/8 Mostly Clear,72000.0,,FEW,5900.0,,,,,,
KRDR,08-02-2002,04:00,METAR,,290,10.0,,,9999.0,Cloud Development Not Observable,15.0,10.0,30.11,1020.0,,,,0,0,0,,,,,,,,,4/8 Partly Cloudy,72000.0,,SCT,5900.0,,,,,,
KRDR,08-02-2002,03:00,METAR,,290,7.0,,,9999.0,Cloud Development Not Observable,16.0,11.0,30.09,1018.6,,,,0,0,0,,,,,,,,,7/8 Mostly Cloudy,5500.0,,BKN,5400.0,,,,,,
KRDR,08-02-2002,02:00,METAR,,280,9.0,,,9999.0,Cloud Development Not Observable,17.0,12.0,30.06,1018.6,,,,0,0,0,,,,,,,,,7/8 Mostly Cloudy,4900.0,,BKN,5000.0,,,,,,
KRDR,08-02-2002,01:00,METAR,,290,10.0,,,9999.0,Cloud Development Not Observable,19.0,12.0,30.05,1018.1,,,,0,0,0,,,,,,,,,7/8 Mostly Cloudy,4100.0,,BKN,4200.0,,,,,,
KRDR,08-02-2002,00:00,METAR,,280,12.0,,,9999.0,Cloud Development Not Observable,21.0,11.0,30.04,1017.7,,,,0,0,0,,,,,,,,,7/8 Mostly Cloudy,3700.0,,BKN,3800.0,,,,,,
KRDR,08-01-2002,23:00,METAR,,300,10.0,,,9999.0,Cloud Development Not Observable,21.0,12.0,30.03,1017.3,,,,0,0,0,,,,,,,,,7/8 Mostly Cloudy,3400.0,,BKN,3500.0,,,,,,
KRDR,08-01-2002,22:00,METAR,,290,9.0,,,9999.0,Cloud Development Not Observable,22.0,11.0,30.02,1017.0,,,,0,0,0,,,,,,,,,7/8 Mostly Cloudy,3400.0,,BKN,3500.0,,,,,,
KRDR,08-01-2002,21:00,METAR,,310,15.0,21.0,,9999.0,Cloud Development Not Observable,21.0,11.0,30.03,1017.3,,,,0,0,0,,,,,,,,,7/8 Mostly Cloudy,3400.0,,BKN,3500.0,,,,,,
KRDR,08-01-2002,20:00,METAR,,300,16.0,21.0,300/25KTS,9999.0,Cloud Development Not Observable,21.0,12.0,30.02,1017.1,,,,0,0,0,,,,,,,,,7/8 Mostly Cloudy,3400.0,,FEW,2500.0,BKN,3500.0,,,,
KRDR,08-01-2002,19:00,METAR,,290,15.0,23.0,300/26KTS,9999.0,Cloud Development Not Observable,20.0,11.0,30.01,1016.7,,,,0,0,0,,,,,,,,,7/8 Mostly Cloudy,3400.0,,SCT,2500.0,BKN,3500.0,,,,
KRDR,08-01-2002,18:00,METAR,,300,16.0,24.0,,9999.0,Cloud Development Not Observable,18.0,10.0,30.00,1016.4,,,,0,0,0,,,,,,,,,7/8 Mostly Cloudy,3600.0,,BKN,3700.0,,,,,,
KRDR,08-01-2002,17:00,METAR,,280,15.0,,290/25KTS,9999.0,Cloud Development Not Observable,18.0,11.0,30.00,1016.3,,,,0,0,0,,,,,,,,,7/8 Mostly Cloudy,3400.0,,BKN,3500.0,,,,,,
KRDR,08-01-2002,16:00,METAR,,290,17.0,24.0,,9999.0,Cloud Development Not Observable,18.0,11.0,29.97,1015.3,,,,0,0,0,,,,,,,,,4/8 Partly Cloudy,72000.0,,SCT,2200.0,,,,,,
KRDR,08-01-2002,15:00,METAR,,290,18.0,,,9999.0,Cloud Development Not Observable,17.0,11.0,29.97,1015.2,,,,0,0,0,,,,,,,,,2/8 Mostly Clear,72000.0,,FEW,2500.0,,,,,,
KRDR,08-01-2002,14:00,METAR,,300,15.0,20.0,,9999.0,Cloud Development Not Observable,15.0,10.0,29.95,1014.5,,,,0,0,0,,,,,,,,,2/8 Mostly Clear,72000.0,,FEW,2500.0,FEW,12000.0,FEW,25000.0,,
KRDR,08-01-2002,13:00,METAR,,290,14.0,,,9999.0,Cloud Development Not Observable,14.0,10.0,29.91,1013.1,,,,0,0,0,,,,,,,,,4/8 Partly Cloudy,72000.0,,SCT,12000.0,,,,,,
KRDR,08-01-2002,12:00,METAR,,270,9.0,,,9999.0,Cloud Development Not Observable,13.0,10.0,29.92,1013.2,,,,0,0,0,,,,,,,,,7/8 Mostly Cloudy,10000.0,,BKN,9900.0,BKN,25000.0,,,,
KRDR,08-01-2002,11:00,METAR,,300,10.0,,,9999.0,Cloud Development Not Observable,13.0,11.0,29.86,1011.4,,,,0,0,0,,,,,,,,,7/8 Mostly Cloudy,10000.0,,BKN,9900.0,BKN,25000.0,,,,
KRDR,08-01-2002,10:24,SPECI,,290,12.0,20.0,,9999.0,Light Rain Showers/Cloud Development Not Observable,13.0,11.0,29.89,,,,,80,0,0,,,,,,,,,7/8 Mostly Cloudy,10000.0,,FEW,4000.0,BKN,9900.0,BKN,25000.0,,
KRDR,08-01-2002,09:00,METAR,,310,17.0,30.0,,9999.0,Cloud Development Not Observable,15.0,12.0,29.86,1009.3,,,,0,0,0,,,,,,.36 IN,,,8/8 Overcast,3400.0,,BKN,3500.0,BKN,9900.0,OVC,25000.0,,
KRDR,08-01-2002,08:00,METAR,,330,7.0,,,9999.0,Cloud Development Not Observable,16.0,16.0,29.80,1009.3,,,,0,0,0,,,,,,,,,8/8 Overcast,3400.0,,FEW,1800.0,BKN,3500.0,BKN,9900.0,OVC,25000.0
KRDR,08-01-2002,07:00,METAR,,340,8.0,,,9999.0,Cloud Development Not Observable,18.0,18.0,29.76,1007.9,,,,0,0,0,,,,,,,,,8/8 Overcast,4900.0,,SCT,1800.0,BKN,5000.0,BKN,9900.0,OVC,25000.0
KRDR,08-01-2002,06:42,SPECI,,340,11.0,,,9999.0,Thunderstorm/Cloud Development Not Observable,18.0,18.0,29.76,,,,,17,0,0,,,,,,,,,8/8 Overcast,10000.0,,FEW,5000.0,BKN,9900.0,OVC,25000.0,,
KRDR,08-01-2002,06:18,SPECI,,290,37.0,47.0,,4800.0,Thunderstorm with Rain or Snow/Rain Showers/Cloud Development Not Observable,18.0,18.0,,,,,,95,81,0,,,,,,,,,8/8 Overcast,10000.0,,FEW,5000.0,BKN,9900.0,OVC,25000.0,,
KRDR,08-01-2002,06:00,METAR,,300,6.0,,,9999.0,Cloud Development Not Observable,18.0,18.0,29.67,1004.8,,,,0,0,0,,,,,,,,,8/8 Overcast,10000.0,,FEW,5000.0,BKN,9900.0,OVC,25000.0,,
KRDR,08-01-2002,05:00,METAR,,,4.0,,,9999.0,Cloud Development Not Observable,17.0,17.0,29.68,1005.2,,,,0,0,0,,,,,,,,,4/8 Partly Cloudy,72000.0,,FEW,5000.0,FEW,9900.0,SCT,25000.0,,
KRDR,08-01-2002,04:00,METAR,,,3.0,,,9999.0,Cloud Development Not Observable,19.0,18.0,29.67,1005.0,,,,0,0,0,,,,,,,,,4/8 Partly Cloudy,72000.0,,FEW,3000.0,FEW,9900.0,SCT,25000.0,,
KRDR,08-01-2002,03:00,METAR,,10,5.0,,,9999.0,Light Rain Showers/Cloud Development Not Observable,19.0,18.0,29.72,1006.6,,,,80,0,0,,,,,,.05 IN,,,8/8 Overcast,4900.0,,SCT,2600.0,BKN,5000.0,OVC,12000.0,,
KRDR,08-01-2002,02:46,SPECI,,20,7.0,,,9999.0,Light Rain Showers/Cloud Development Not Observable,19.0,18.0,29.72,,,,,80,0,0,,,,,,,,,8/8 Overcast,4900.0,,SCT,2600.0,BKN,5000.0,OVC,12000.0,,
KRDR,08-01-2002,02:10,SPECI,,330,22.0,29.0,,9999.0,Thunderstorm with Rain or Snow/Rain Showers/Cloud Development Not Observable,19.0,18.0,29.77,,,,,95,81,0,,,,,,,,,8/8 Overcast,2600.0,,FEW,1300.0,BKN,2600.0,BKN,5000.0,OVC,12000.0
KRDR,08-01-2002,02:00,METAR,,330,22.0,32.0,,9999.0,Thunderstorm/Cloud Development Not Observable,22.0,17.0,29.72,1006.5,,,,17,0,0,,,,,,,,,7/8 Mostly Cloudy,2600.0,,BKN,2600.0,BKN,12000.0,BKN,25000.0,,
KRDR,08-01-2002,01:27,SPECI,,150,5.0,,,9999.0,Thunderstorm/Cloud Development Not Observable,27.0,21.0,29.63,,,,,17,0,0,,,,,,,,,7/8 Mostly Cloudy,3400.0,,BKN,3500.0,BKN,12000.0,BKN,25000.0,,
KRDR,08-01-2002,01:00,METAR,,160,7.0,,,9999.0,Cloud Development Not Observable,27.0,21.0,29.62,1003.3,,,,0,0,0,,,,,,,,,7/8 Mostly Cloudy,12000.0,,SCT,3500.0,BKN,12000.0,BKN,25000.0,,
KRDR,08-01-2002,00:00,METAR,,190,5.0,,,9999.0,Cloud Development Not Observable,29.0,20.0,29.65,1004.4,,,,0,0,0,,,,,,,,,7/8 Mostly Cloudy,12000.0,,SCT,3500.0,BKN,12000.0,BKN,25000.0,,
KRDR,07-31-2002,23:00,METAR,,,5.0,,,9999.0,Cloud Development Not Observable,32.0,20.0,29.66,1004.4,,,,0,0,0,,,,,,,,,7/8 Mostly Cloudy,12000.0,,SCT,5000.0,SCT,12000.0,BKN,25000.0,,
KRDR,07-31-2002,22:00,METAR,,,6.0,,,9999.0,Cloud Development Not Observable,32.0,19.0,29.67,1004.7,,,,0,0,0,,,,,,,,,4/8 Partly Cloudy,72000.0,,FEW,5000.0,FEW,12000.0,SCT,25000.0,,
KRDR,07-31-2002,21:00,METAR,,160,8.0,,,9999.0,Cloud Development Not Observable,31.0,20.0,29.68,1005.2,,,,0,0,0,,,,,,,,,4/8 Partly Cloudy,72000.0,,FEW,5000.0,SCT,12000.0,,,,
KRDR,07-31-2002,20:00,METAR,,200,7.0,,,9999.0,Cloud Development Not Observable,30.0,18.0,29.70,1005.6,,,,0,0,0,,,,,,,,,2/8 Mostly Clear,72000.0,,FEW,12000.0,,,,,,
KRDR,07-31-2002,18:00,METAR,,190,6.0,,,9999.0,Cloud Development Not Observable,27.0,18.0,29.72,1006.4,,,,0,0,0,,,,,,,,,2/8 Mostly Clear,72000.0,,FEW,4000.0,FEW,12000.0,FEW,30000.0,,
KRDR,07-31-2002,17:00,METAR,,160,8.0,,,9999.0,Cloud Development Not Observable,25.0,15.0,29.72,1006.4,,,,0,0,0,,,,,,,,,2/8 Mostly Clear,72000.0,,FEW,12000.0,,,,,,
KRDR,07-31-2002,16:00,METAR,,140,8.0,,,9999.0,Cloud Development Not Observable,24.0,15.0,29.72,1006.6,,,,0,0,0,,,,,,,,,2/8 Mostly Clear,72000.0,,FEW,12000.0,FEW,25000.0,,,,
KRDR,07-31-2002,15:00,METAR,,130,11.0,,,9999.0,Cloud Development Not Observable,21.0,15.0,29.74,1007.2,,,,0,0,0,,,,,,,,,4/8 Partly Cloudy,72000.0,,FEW,12000.0,SCT,25000.0,,,,
KRDR,07-31-2002,14:00,METAR,,90,8.0,,,9999.0,Cloud Development Not Observable,18.0,14.0,29.75,1007.7,,,,0,0,0,,,,,,,,,4/8 Partly Cloudy,72000.0,,FEW,4000.0,FEW,12000.0,SCT,20000.0,,
KRDR,07-31-2002,13:00,METAR,,50,5.0,,,9999.0,Cloud Development Not Observable,16.0,14.0,29.78,1008.6,,,,0,0,0,,,,,,,,,7/8 Mostly Cloudy,12000.0,,FEW,4000.0,SCT,12000.0,BKN,20000.0,,
KRDR,07-31-2002,12:19,SPECI,,130,8.0,,,9999.0,Cloud Development Not Observable,16.0,14.0,29.77,,,,,0,0,0,,,,,,,,,7/8 Mostly Cloudy,12000.0,,FEW,4000.0,SCT,12000.0,BKN,20000.0,,
KRDR,07-31-2002,12:00,METAR,,120,6.0,,,9999.0,Light Rain Showers/Cloud Development Not Observable,16.0,14.0,29.80,1009.4,,,,80,0,0,,,,,,,,,7/8 Mostly Cloudy,12000.0,,FEW,4000.0,SCT,12000.0,BKN,20000.0,,
KRDR,07-31-2002,11:24,SPECI,,90,9.0,,,9999.0,Cloud Development Not Observable,16.0,14.0,29.93,,,,,0,0,0,,,,,,,,,7/8 Mostly Cloudy,9000.0,,SCT,4000.0,BKN,8900.0,BKN,20000.0,,
KRDR,07-31-2002,11:00,METAR,,130,22.0,,,9999.0,Thunderstorm with Rain or Snow/Light Rain Showers/Cloud Development Not Observable,15.0,14.0,29.79,1008.9,,,,95,80,0,,,,,,,,,7/8 Mostly Cloudy,3900.0,,FEW,600.0,SCT,4000.0,BKN,7900.0,BKN,20000.0
KRDR,07-31-2002,10:24,SPECI,,310,15.0,,,9999.0,Thunderstorm with Rain or Snow/Light Rain Showers/Cloud Development Not Observable,16.0,14.0,29.93,,,,,95,80,0,,,,,,,,,8/8 Overcast,3900.0,,OVC,4000.0,,,,,,
KRDR,07-31-2002,10:15,SPECI,,280,15.0,27.0,,9999.0,Thunderstorm/Cloud Development Not Observable,17.0,13.0,29.93,,,,,17,0,0,,,,,,,,,8/8 Overcast,4900.0,,BKN,5000.0,OVC,7900.0,,,,
KRDR,07-31-2002,10:05,SPECI,,300,11.0,,,9999.0,Thunderstorm/Cloud Development Not Observable,18.0,12.0,29.91,,,,,17,0,0,,,,,,,,,8/8 Overcast,4900.0,,BKN,5000.0,OVC,12000.0,,,,
KRDR,07-31-2002,10:00,METAR,,80,7.0,,,9999.0,Cloud Development Not Observable,18.0,11.0,29.82,1010.0,,,,0,0,0,,,,,,,,,8/8 Overcast,4900.0,,BKN,5000.0,OVC,12000.0,,,,
KRDR,07-31-2002,09:00,METAR,,60,12.0,,,9999.0,Cloud Development Not Observable,18.0,12.0,29.79,1009.0,,,,0,0,0,,,,,,,,,7/8 Mostly Cloudy,12000.0,,FEW,5000.0,BKN,12000.0,BKN,20000.0,,
KRDR,07-31-2002,08:00,METAR,,150,4.0,,,9999.0,Cloud Development Not Observable,17.0,12.0,29.81,,,,,0,0,0,,,,,,,,,7/8 Mostly Cloudy,12000.0,,FEW,5000.0,SCT,12000.0,BKN,20000.0,,
KRDR,07-31-2002,07:00,METAR,,140,6.0,,,9999.0,Cloud Development Not Observable,17.0,12.0,29.81,,,,,0,0,0,,,,,,,,,7/8 Mostly Cloudy,12000.0,,FEW,5000.0,SCT,12000.0,BKN,12000.0,,
KRDR,07-31-2002,06:00,METAR,,140,6.0,,,9999.0,Cloud Development Not Observable,18.0,11.0,29.83,,,,,0,0,0,,,,,,,,,Clear,72000.0,,,73000.0,,,,,,
KRDR,07-31-2002,05:00,METAR,,140,8.0,,,9999.0,Cloud Development Not Observable,20.0,11.0,29.84,,,,,0,0,0,,,,,,,,,2/8 Mostly Clear,72000.0,,FEW,12000.0,,,,,,
KRDR,07-31-2002,04:00,METAR,,140,6.0,,,9999.0,Cloud Development Not Observable,19.0,12.0,29.89,,,,,0,0,0,,,,,,,,,2/8 Mostly Clear,72000.0,,FEW,12000.0,,,,,,
KRDR,07-31-2002,03:00,METAR,,130,4.0,,,9999.0,Cloud Development Not Observable,20.0,13.0,29.90,1012.5,,,,0,0,0,,,,,,,,,2/8 Mostly Clear,72000.0,,FEW,12000.0,,,,,,
KRDR,07-31-2002,02:00,METAR,,130,6.0,,,,Cloud Development Not Observable,22.0,13.0,29.88,1012.0,,,,0,0,0,,,,,,,,,,72000.0,,,,,,,,,
KRDR,07-30-2002,23:00,METAR,,,3.0,,,9999.0,Cloud Development Not Observable,27.0,9.0,29.90,1012.5,,,,0,0,0,,,,,,,,,Clear,72000.0,,,73000.0,,,,,,
KRDR,07-30-2002,22:00,METAR,,,5.0,,,9999.0,Cloud Development Not Observable,27.0,8.0,29.91,1012.8,,,,0,0,0,,,,,,,,,Clear,72000.0,,,73000.0,,,,,,
KRDR,07-30-2002,21:00,METAR,,,5.0,,,9999.0,Cloud Development Not Observable,27.0,9.0,29.92,1013.1,,,,0,0,0,,,,,,,,,Clear,72000.0,,,73000.0,,,,,,
KRDR,07-30-2002,20:00,METAR,,30,9.0,,,9999.0,Cloud Development Not Observable,27.0,8.0,29.92,1013.2,,,,0,0,0,,,,,,,,,Clear,72000.0,,,73000.0,,,,,,
KRDR,07-30-2002,19:00,METAR,,330,10.0,,,9999.0,Cloud Development Not Observable,26.0,9.0,29.93,1013.5,,,,0,0,0,,,,,,,,,2/8 Mostly Clear,72000.0,,FEW,12000.0,,,,,,
KRDR,07-30-2002,18:00,METAR,,350,10.0,,,9999.0,Cloud Development Not Observable,26.0,9.0,29.93,1013.5,,,,0,0,0,,,,,,,,,2/8 Mostly Clear,72000.0,,FEW,12000.0,,,,,,
KRDR,07-30-2002,17:00,METAR,,340,8.0,,,9999.0,Cloud Development Not Observable,25.0,14.0,29.93,1013.5,,,,0,0,0,,,,,,,,,2/8 Mostly Clear,72000.0,,FEW,12000.0,,,,,,
KRDR,07-30-2002,15:00,METAR,,330,9.0,,,9999.0,Cloud Development Not Observable,23.0,14.0,29.90,1012.5,,,,0,0,0,,,,,,,,,2/8 Mostly Clear,72000.0,,FEW,12000.0,,,,,,
KRDR,07-30-2002,14:00,METAR,,320,5.0,,,9999.0,Cloud Development Not Observable,21.0,18.0,29.89,1012.3,,,,0,0,0,,,,,,,,,2/8 Mostly Clear,72000.0,,FEW,12000.0,,,,,,
KRDR,07-30-2002,13:00,METAR,,300,4.0,,,9999.0,Cloud Development Not Observable,19.0,17.0,29.88,1011.9,,,,0,0,0,,,,,,,,,2/8 Mostly Clear,72000.0,,FEW,12000.0,,,,,,
KRDR,07-30-2002,12:00,METAR,,300,4.0,,,9999.0,Cloud Development Not Observable,16.0,16.0,29.85,1010.9,,,,0,0,0,,,,,,,,,2/8 Mostly Clear,72000.0,,FEW,12000.0,,,,,,
KRDR,07-30-2002,11:00,METAR,,290,4.0,,,9999.0,Cloud Development Not Observable,16.0,16.0,29.83,1010.4,,,,0,0,0,,,,,,,,,4/8 Partly Cloudy,72000.0,,FEW,5000.0,FEW,12000.0,SCT,25000.0,,
KRDR,07-30-2002,10:00,METAR,,320,5.0,,,9999.0,Cloud Development Not Observable,17.0,16.0,29.81,1009.6,,,,0,0,0,,,,,,,,,4/8 Partly Cloudy,72000.0,,FEW,5000.0,FEW,12000.0,SCT,25000.0,,
KRDR,07-30-2002,09:00,METAR,,300,7.0,,,9999.0,Cloud Development Not Observable,19.0,17.0,29.78,1008.4,,,,0,0,0,,,,,,,,,4/8 Partly Cloudy,72000.0,,FEW,12000.0,SCT,25000.0,,,,
KRDR,07-30-2002,08:00,METAR,,230,7.0,,,9999.0,Cloud Development Not Observable,19.0,18.0,29.76,1007.7,,,,0,0,0,,,,,,,,,4/8 Partly Cloudy,72000.0,,FEW,5000.0,FEW,12000.0,SCT,25000.0,,
KRDR,07-30-2002,07:00,METAR,,200,7.0,,,9999.0,Cloud Development Not Observable,19.0,18.0,29.75,1007.4,,,,0,0,0,,,,,,,,,4/8 Partly Cloudy,72000.0,,FEW,5000.0,SCT,12000.0,SCT,25000.0,,
KRDR,07-30-2002,06:00,METAR,,190,5.0,,,9999.0,Cloud Development Not Observable,18.0,17.0,29.75,1007.6,,,,0,0,0,,,,,,,,,4/8 Partly Cloudy,72000.0,,FEW,5000.0,FEW,12000.0,SCT,25000.0,,
KRDR,07-30-2002,05:00,METAR,,,3.0,,,9999.0,Cloud Development Not Observable,19.0,17.0,29.76,1007.9,,,,0,0,0,,,,,,,,,2/8 Mostly Clear,72000.0,,FEW,5000.0,FEW,12000.0,FEW,30000.0,,
KRDR,07-30-2002,04:00,METAR,,,2.0,,,9999.0,Cloud Development Not Observable,21.0,17.0,29.78,1008.4,,,,0,0,0,,,,,,,,,2/8 Mostly Clear,72000.0,,FEW,5000.0,FEW,9900.0,FEW,30000.0,,
KRDR,07-30-2002,03:00,METAR,,150,3.0,,,9999.0,Cloud Development Not Observable,22.0,16.0,29.78,1008.4,,,,0,0,0,,,,,,,,,2/8 Mostly Clear,72000.0,,FEW,12000.0,,,,,,
KRDR,07-30-2002,02:00,METAR,,,1.0,,,9999.0,Cloud Development Not Observable,26.0,15.0,29.77,1008.1,,,,0,0,0,,,,,,,,,2/8 Mostly Clear,72000.0,,FEW,12000.0,,,,,,
KRDR,07-30-2002,01:00,METAR,,,3.0,,,9999.0,Cloud Development Not Observable,28.0,15.0,29.78,1008.4,,,,0,0,0,,,,,,,,,2/8 Mostly Clear,72000.0,,FEW,5000.0,FEW,12000.0,,,,
KRDR,07-30-2002,00:00,METAR,,,3.0,,,9999.0,Cloud Development Not Observable,29.0,13.0,29.77,1008.1,,,,0,0,0,,,,,,,,,2/8 Mostly Clear,72000.0,,FEW,5000.0,,,,,,
KRDR,07-29-2002,23:00,METAR,,,5.0,,,9999.0,Cloud Development Not Observable,29.0,14.0,29.76,1007.8,,,,0,0,0,,,,,,,,,2/8 Mostly Clear,72000.0,,FEW,5000.0,,,,,,
KRDR,07-29-2002,22:00,METAR,,,6.0,,,9999.0,Cloud Development Not Observable,29.0,14.0,29.75,1007.5,,,,0,0,0,,,,,,,,,2/8 Mostly Clear,72000.0,,FEW,5000.0,FEW,9900.0,,,,
KRDR,07-29-2002,21:00,METAR,,270,8.0,,,9999.0,Cloud Development Not Observable,29.0,14.0,29.75,1007.4,,,,0,0,0,,,,,,,,,2/8 Mostly Clear,72000.0,,FEW,5000.0,FEW,9900.0,,,,
KRDR,07-29-2002,20:00,METAR,,270,7.0,,,9999.0,Cloud Development Not Observable,29.0,14.0,29.76,1007.8,,,,0,0,0,,,,,,,,,2/8 Mostly Clear,72000.0,,FEW,4000.0,FEW,12000.0,,,,
KRDR,07-29-2002,19:00,METAR,,240,10.0,,,9999.0,Cloud Development Not Observable,28.0,16.0,29.76,1007.8,,,,0,0,0,,,,,,,,,2/8 Mostly Clear,72000.0,,FEW,4000.0,FEW,25000.0,,,,
KRDR,07-29-2002,18:00,METAR,,230,10.0,,,9999.0,Cloud Development Not Observable,27.0,17.0,29.77,1008.2,,,,0,0,0,,,,,,,,,2/8 Mostly Clear,72000.0,,FEW,4000.0,FEW,25000.0,,,,
KRDR,07-29-2002,17:00,METAR,,240,10.0,,,9999.0,Cloud Development Not Observable,27.0,16.0,29.77,1008.1,,,,0,0,0,,,,,,,,,4/8 Partly Cloudy,72000.0,,FEW,4000.0,FEW,12000.0,SCT,20000.0,,
KRDR,07-29-2002,16:00,METAR,,280,9.0,,,9999.0,Cloud Development Not Observable,26.0,14.0,29.77,1008.1,,,,0,0,0,,,,,,,,,4/8 Partly Cloudy,72000.0,,FEW,4000.0,FEW,12000.0,SCT,20000.0,,
KRDR,07-29-2002,15:00,METAR,,,6.0,,,9999.0,Cloud Development Not Observable,24.0,18.0,29.76,1007.8,,,,0,0,0,,,,,,,,,2/8 Mostly Clear,72000.0,,FEW,12000.0,FEW,20000.0,,,,
KRDR,07-29-2002,14:00,METAR,,270,6.0,,,9999.0,Cloud Development Not Observable,21.0,17.0,29.76,1007.8,,,,0,0,0,,,,,,,,,4/8 Partly Cloudy,72000.0,,FEW,5900.0,FEW,12000.0,SCT,20000.0,,
KRDR,07-29-2002,13:00,METAR,,250,7.0,,,9999.0,Cloud Development Not Observable,19.0,17.0,29.75,1007.5,,,,0,0,0,,,,,,,,,2/8 Mostly Clear,72000.0,,FEW,12000.0,FEW,20000.0,,,,
KRDR,07-29-2002,12:00,METAR,,220,4.0,,,9999.0,Cloud Development Not Observable,16.0,16.0,29.74,1007.1,,,,0,0,0,,,,,,,,,4/8 Partly Cloudy,72000.0,,FEW,12000.0,SCT,22000.0,,,,
KRDR,07-29-2002,11:00,METAR,,220,4.0,,,9999.0,Cloud Development Not Observable,15.0,15.0,29.73,1007.0,,,,0,0,0,,,,,,,,,7/8 Mostly Cloudy,12000.0,,BKN,12000.0,BKN,22000.0,,,,
KRDR,07-29-2002,10:00,METAR,,210,4.0,,,9999.0,Cloud Development Not Observable,14.0,14.0,29.72,1006.6,,,,0,0,0,,,,,,,,,4/8 Partly Cloudy,72000.0,,FEW,9900.0,SCT,20000.0,,,,
KRDR,07-29-2002,09:00,METAR,,190,4.0,,,9999.0,Cloud Development Not Observable,15.0,14.0,29.72,1006.6,,,,0,0,0,,,,,,,,,4/8 Partly Cloudy,72000.0,,FEW,9900.0,SCT,20000.0,,,,
KRDR,07-29-2002,08:00,METAR,,240,3.0,,,9999.0,Cloud Development Not Observable,15.0,15.0,29.73,1006.8,,,,0,0,0,,,,,,,,,7/8 Mostly Cloudy,20000.0,,SCT,8900.0,BKN,20000.0,,,,
KRDR,07-29-2002,07:00,METAR,,220,3.0,,,9999.0,Cloud Development Not Observable,15.0,15.0,29.74,1007.2,,,,0,0,0,,,,,,,,,7/8 Mostly Cloudy,20000.0,,SCT,8900.0,BKN,20000.0,,,,
KRDR,07-29-2002,06:00,METAR,,,3.0,,,9999.0,Cloud Development Not Observable,16.0,14.0,29.75,1007.7,,,,0,0,0,,,,,,,,,7/8 Mostly Cloudy,9000.0,,BKN,8900.0,BKN,20000.0,,,,
KRDR,07-29-2002,05:00,METAR,,220,4.0,,,9999.0,Cloud Development Not Observable,19.0,16.0,29.74,1007.1,,,,0,0,0,,,,,,,,,7/8 Mostly Cloudy,20000.0,,SCT,9900.0,BKN,20000.0,,,,
KRDR,07-29-2002,04:00,METAR,,270,4.0,,,9999.0,Cloud Development Not Observable,19.0,16.0,29.75,1007.6,,,,0,0,0,,,,,,,,,7/8 Mostly Cloudy,10000.0,,BKN,9900.0,BKN,20000.0,,,,
KRDR,07-29-2002,03:00,METAR,,280,5.0,,,9999.0,Cloud Development Not Observable,20.0,15.0,29.75,1007.6,,,,0,0,0,,,,,,,,,7/8 Mostly Cloudy,10000.0,,BKN,9900.0,BKN,20000.0,,,,
KRDR,07-29-2002,02:00,METAR,,280,4.0,,,9999.0,Cloud Development Not Observable,22.0,17.0,29.75,1007.7,,,,0,0,0,,,,,,,,,7/8 Mostly Cloudy,10000.0,,FEW,5000.0,BKN,9900.0,BKN,20000.0,,
KRDR,07-29-2002,01:00,METAR,,220,5.0,,,9999.0,Cloud Development Not Observable,24.0,17.0,29.73,1006.9,,,,0,0,0,,,,,,,,,7/8 Mostly Cloudy,10000.0,,FEW,5000.0,BKN,9900.0,BKN,20000.0,,
KRDR,07-29-2002,00:00,METAR,,180,6.0,,,9999.0,Cloud Development Not Observable,26.0,15.0,29.73,1006.9,,,,0,0,0,,,,,,,,,7/8 Mostly Cloudy,10000.0,,FEW,5000.0,BKN,9900.0,BKN,20000.0,,
KRDR,07-28-2002,23:00,METAR,,,5.0,,,9999.0,Cloud Development Not Observable,26.0,15.0,29.74,1007.3,,,,0,0,0,,,,,,,,,7/8 Mostly Cloudy,10000.0,,BKN,9900.0,BKN,20000.0,,,,
KRDR,07-28-2002,22:00,METAR,,,3.0,,,9999.0,Cloud Development Not Observable,26.0,14.0,29.74,1007.3,,,,0,0,0,,,,,,,,,7/8 Mostly Cloudy,10000.0,,BKN,9900.0,BKN,20000.0,,,,
KRDR,07-28-2002,21:00,METAR,,,5.0,,,9999.0,Cloud Development Not Observable,27.0,14.0,29.73,1006.9,,,,0,0,0,,,,,,,,,7/8 Mostly Cloudy,20000.0,,FEW,9900.0,BKN,20000.0,,,,
KRDR,07-28-2002,20:00,METAR,,,2.0,,,9999.0,Cloud Development Not Observable,26.0,14.0,29.75,1007.6,,,,0,0,0,,,,,,,,,7/8 Mostly Cloudy,20000.0,,SCT,9900.0,BKN,20000.0,,,,
KRDR,07-28-2002,19:00,METAR,,250,3.0,,,9999.0,Cloud Development Not Observable,24.0,16.0,29.76,1008.0,,,,0,0,0,,,,,,,,,7/8 Mostly Cloudy,10000.0,,BKN,9900.0,BKN,20000.0,,,,
KRDR,07-28-2002,18:00,METAR,,260,5.0,,,9999.0,Cloud Development Not Observable,24.0,16.0,29.79,1008.9,,,,0,0,0,,,,,,,,,7/8 Mostly Cloudy,12000.0,,BKN,12000.0,BKN,20000.0,,,,
KRDR,07-28-2002,17:00,METAR,,300,6.0,,,9999.0,Cloud Development Not Observable,25.0,15.0,29.78,1008.5,,,,0,0,0,,,,,,,,,7/8 Mostly Cloudy,12000.0,,BKN,12000.0,BKN,20000.0,,,,
KRDR,07-28-2002,16:00,METAR,,300,5.0,,,9999.0,Cloud Development Not Observable,23.0,15.0,29.77,1008.1,,,,0,0,0,,,,,,,,,7/8 Mostly Cloudy,12000.0,,BKN,12000.0,BKN,20000.0,,,,
KRDR,07-28-2002,15:00,METAR,,280,8.0,,,9999.0,Cloud Development Not Observable,23.0,16.0,29.78,1008.4,,,,0,0,0,,,,,,,,,7/8 Mostly Cloudy,20000.0,,SCT,12000.0,BKN,20000.0,,,,
KRDR,07-28-2002,14:00,METAR,,260,6.0,,,9999.0,Cloud Development Not Observable,19.0,16.0,29.77,1008.1,,,,0,0,0,,,,,,,,,7/8 Mostly Cloudy,20000.0,,SCT,12000.0,BKN,20000.0,,,,
KRDR,07-28-2002,12:00,METAR,,250,5.0,,,9999.0,Cloud Development Not Observable,16.0,14.0,29.74,1007.0,,,,0,0,0,,,,,,,,,7/8 Mostly Cloudy,20000.0,,FEW,12000.0,BKN,20000.0,,,,
KRDR,07-28-2002,11:00,METAR,,260,5.0,,,9999.0,Cloud Development Not Observable,15.0,14.0,29.74,1007.0,,,,0,0,0,,,,,,,,,7/8 Mostly Cloudy,20000.0,,FEW,5900.0,FEW,12000.0,BKN,20000.0,,
KRDR,07-28-2002,10:00,METAR,,270,6.0,,,9999.0,Cloud Development Not Observable,16.0,14.0,29.72,1006.3,,,,0,0,0,,,,,,,,,4/8 Partly Cloudy,72000.0,,FEW,12000.0,SCT,20000.0,,,,
KRDR,07-28-2002,09:00,METAR,,280,6.0,,,9999.0,Cloud Development Not Observable,17.0,15.0,29.69,1005.5,,,,0,0,0,,,,,,,,,4/8 Partly Cloudy,72000.0,,SCT,20000.0,,,,,,
KRDR,07-28-2002,08:00,METAR,,310,4.0,,,9999.0,Cloud Development Not Observable,18.0,16.0,29.67,1004.8,,,,0,0,0,,,,,,,,,Clear,72000.0,,,73000.0,,,,,,
KRDR,07-28-2002,07:00,METAR,,290,4.0,,,9999.0,Cloud Development Not Observable,17.0,16.0,29.66,1004.5,,,,0,0,0,,,,,,,,,Clear,72000.0,,,73000.0,,,,,,
KRDR,07-28-2002,06:00,METAR,,320,3.0,,,9999.0,Cloud Development Not Observable,18.0,17.0,29.66,1004.5,,,,0,0,0,,,,,,,,,2/8 Mostly Clear,72000.0,,FEW,12000.0,FEW,20000.0,,,,
KRDR,07-28-2002,05:00,METAR,,320,3.0,,,9999.0,Cloud Development Not Observable,20.0,18.0,29.64,1003.8,,,,0,0,0,,,,,,,,,2/8 Mostly Clear,72000.0,,FEW,20000.0,,,,,,
KRDR,07-28-2002,04:00,METAR,,300,4.0,,,9999.0,Cloud Development Not Observable,22.0,19.0,29.63,1003.4,,,,0,0,0,,,,,,,,,2/8 Mostly Clear,72000.0,,FEW,20000.0,,,,,,
KRDR,07-28-2002,03:00,METAR,,280,7.0,,,9999.0,Cloud Development Not Observable,23.0,19.0,29.61,1002.7,,,,0,0,0,,,,,,,,,2/8 Mostly Clear,72000.0,,FEW,12000.0,FEW,20000.0,,,,
KRDR,07-28-2002,02:00,METAR,,290,6.0,,,9999.0,Cloud Development Not Observable,25.0,19.0,29.59,1001.9,,,,0,0,0,,,,,,,,,4/8 Partly Cloudy,72000.0,,FEW,12000.0,SCT,20000.0,,,,
KRDR,07-28-2002,01:00,METAR,,300,8.0,,,9999.0,Cloud Development Not Observable,28.0,20.0,29.57,1001.2,,,,0,0,0,,,,,,,,,7/8 Mostly Cloudy,20000.0,,BKN,20000.0,,,,,,
KRDR,07-28-2002,00:00,METAR,,270,7.0,,,9999.0,Cloud Development Not Observable,30.0,21.0,29.55,1000.4,,,,0,0,0,,,,,,,,,7/8 Mostly Cloudy,20000.0,,BKN,20000.0,,,,,,
KRDR,07-27-2002,23:00,METAR,,,6.0,,,9999.0,Cloud Development Not Observable,31.0,20.0,29.55,1000.4,,,,0,0,0,,,,,,,,,7/8 Mostly Cloudy,20000.0,,FEW,5000.0,BKN,20000.0,,,,
KRDR,07-27-2002,22:00,METAR,,,1.0,,,9999.0,Cloud Development Not Observable,30.0,21.0,29.55,1000.4,,,,0,0,0,,,,,,,,,7/8 Mostly Cloudy,20000.0,,FEW,5000.0,BKN,20000.0,,,,
KRDR,07-27-2002,21:00,METAR,,130,6.0,,,9999.0,Cloud Development Not Observable,28.0,22.0,29.55,1000.5,,,,0,0,0,,,,,,,,,7/8 Mostly Cloudy,20000.0,,FEW,9900.0,BKN,20000.0,,,,
KRDR,07-27-2002,20:00,METAR,,,6.0,,,9999.0,Cloud Development Not Observable,26.0,22.0,29.56,1000.8,,,,0,0,0,,,,,,,,,7/8 Mostly Cloudy,10000.0,,BKN,9900.0,BKN,20000.0,,,,
KRDR,07-27-2002,19:00,METAR,,160,7.0,,,9999.0,Cloud Development Not Observable,25.0,20.0,29.57,1002.3,,,,0,0,0,,,,,,,,,7/8 Mostly Cloudy,10000.0,,FEW,4000.0,BKN,9900.0,BKN,20000.0,,
KRDR,07-27-2002,18:00,METAR,,180,9.0,,,9999.0,Cloud Development Not Observable,24.0,20.0,29.60,1002.3,,,,0,0,0,,,,,,,,,7/8 Mostly Cloudy,8000.0,,FEW,4000.0,BKN,7900.0,BKN,20000.0,,
KRDR,07-27-2002,17:00,METAR,,180,9.0,,,9999.0,Cloud Development Not Observable,22.0,19.0,29.59,1002.0,,,,0,0,0,,,,,,,,,7/8 Mostly Cloudy,8000.0,,FEW,4000.0,BKN,7900.0,BKN,20000.0,,
KRDR,07-27-2002,16:00,METAR,,190,8.0,,,9999.0,Cloud Development Not Observable,22.0,18.0,29.59,1002.0,,,,0,0,0,,,,,,,,,7/8 Mostly Cloudy,8000.0,,FEW,2700.0,BKN,7900.0,BKN,20000.0,,
KRDR,07-27-2002,15:00,METAR,,200,8.0,,,9999.0,Cloud Development Not Observable,21.0,19.0,29.59,1002.0,,,,0,0,0,,,,,,,,,7/8 Mostly Cloudy,8000.0,,SCT,2700.0,BKN,7900.0,BKN,20000.0,,
KRDR,07-27-2002,14:00,METAR,,170,8.0,,,9999.0,Cloud Development Not Observable,21.0,18.0,29.62,1003.0,,,,0,0,0,,,,,,,,,8/8 Overcast,8000.0,,SCT,2700.0,BKN,7900.0,OVC,20000.0,,
KRDR,07-27-2002,13:00,METAR,,170,7.0,,,9999.0,Cloud Development Not Observable,21.0,19.0,29.60,1002.2,,,,0,0,0,,,,,,,,,7/8 Mostly Cloudy,8500.0,,FEW,5000.0,BKN,8400.0,BKN,20000.0,,
KRDR,07-27-2002,12:00,METAR,,200,10.0,,,9999.0,Cloud Development Not Observable,21.0,19.0,29.59,1001.8,,,,0,0,0,,,,,,,,,8/8 Overcast,20000.0,,FEW,9900.0,OVC,20000.0,,,,
KRDR,07-27-2002,11:00,METAR,,200,8.0,,,9999.0,Cloud Development Not Observable,21.0,18.0,29.58,1001.7,,,,0,0,0,,,,,,,,,7/8 Mostly Cloudy,20000.0,,FEW,9900.0,BKN,20000.0,,,,
KRDR,07-27-2002,10:00,METAR,,180,6.0,,,9999.0,Cloud Development Not Observable,21.0,18.0,29.62,1002.9,,,,0,0,0,,,,,,,,,8/8 Overcast,25000.0,,FEW,9900.0,OVC,25000.0,,,,
KRDR,07-27-2002,09:00,METAR,,170,9.0,,,9999.0,Cloud Development Not Observable,21.0,18.0,29.63,1003.4,,,,0,0,0,,,,,,,,,8/8 Overcast,25000.0,,SCT,9900.0,OVC,25000.0,,,,
KRDR,07-27-2002,08:00,METAR,,180,12.0,,,9999.0,Cloud Development Not Observable,22.0,17.0,29.64,1003.5,,,,0,0,0,,,,,,,,,7/8 Mostly Cloudy,25000.0,,SCT,9900.0,BKN,25000.0,,,,
KRDR,07-27-2002,06:00,METAR,,210,7.0,,,9999.0,Cloud Development Not Observable,22.0,15.0,29.66,1004.2,,,,0,0,0,,,,,,,,,7/8 Mostly Cloudy,10000.0,,BKN,9900.0,BKN,25000.0,,,,
KRDR,07-27-2002,00:00,METAR,,160,6.0,,,9999.0,Cloud Development Not Observable,29.0,22.0,29.67,1004.9,,,,0,0,0,,,,,,,,,8/8 Overcast,10000.0,,BKN,9900.0,OVC,25000.0,,,,
KRDR,07-26-2002,23:00,METAR,,180,7.0,,,9999.0,Cloud Development Not Observable,30.0,21.0,29.67,1004.9,,,,0,0,0,,,,,,,,,7/8 Mostly Cloudy,10000.0,,BKN,9900.0,BKN,25000.0,,,,
KRDR,07-26-2002,22:00,METAR,,190,11.0,,,9999.0,Cloud Development Not Observable,30.0,21.0,29.70,1005.6,,,,0,0,0,,,,,,,,,7/8 Mostly Cloudy,25000.0,,SCT,9900.0,BKN,25000.0,,,,
KRDR,07-26-2002,21:00,METAR,,180,12.0,,,9999.0,Cloud Development Not Observable,31.0,20.0,29.72,1006.3,,,,0,0,0,,,,,,,,,7/8 Mostly Cloudy,25000.0,,FEW,5000.0,BKN,25000.0,,,,
KRDR,07-26-2002,20:00,METAR,,170,12.0,17.0,,9999.0,Cloud Development Not Observable,32.0,20.0,29.74,1007.0,,,,0,0,0,,,,,,,,,7/8 Mostly Cloudy,25000.0,,BKN,25000.0,,,,,,
KRDR,07-26-2002,19:00,METAR,,140,10.0,,,9999.0,Cloud Development Not Observable,31.0,19.0,29.74,1007.1,,,,0,0,0,,,,,,,,,7/8 Mostly Cloudy,25000.0,,BKN,25000.0,,,,,,
KRDR,07-26-2002,18:00,METAR,,160,8.0,,,9999.0,Cloud Development Not Observable,31.0,20.0,29.75,1007.7,,,,0,0,0,,,,,,,,,7/8 Mostly Cloudy,25000.0,,BKN,25000.0,,,,,,
KRDR,07-26-2002,17:00,METAR,,170,9.0,,,9999.0,Cloud Development Not Observable,30.0,20.0,29.77,1008.1,,,,0,0,0,,,,,,,,,7/8 Mostly Cloudy,25000.0,,BKN,25000.0,,,,,,
KRDR,07-26-2002,16:00,METAR,,180,10.0,,,9999.0,Cloud Development Not Observable,28.0,18.0,29.79,1008.7,,,,0,0,0,,,,,,,,,4/8 Partly Cloudy,72000.0,,FEW,12000.0,SCT,25000.0,,,,
KRDR,07-26-2002,15:00,METAR,,160,6.0,,,9999.0,Cloud Development Not Observable,27.0,18.0,29.79,1008.9,,,,0,0,0,,,,,,,,,2/8 Mostly Clear,72000.0,,FEW,9400.0,FEW,25000.0,,,,
KRDR,07-26-2002,14:00,METAR,,170,5.0,,,9999.0,Cloud Development Not Observable,24.0,19.0,29.81,1009.4,,,,0,0,0,,,,,,,,,2/8 Mostly Clear,72000.0,,FEW,9400.0,FEW,25000.0,,,,
KRDR,07-26-2002,13:00,METAR,,190,5.0,,,9999.0,Cloud Development Not Observable,22.0,20.0,29.81,1009.4,,,,0,0,0,,,,,,,,,4/8 Partly Cloudy,72000.0,,SCT,9400.0,,,,,,
KRDR,07-26-2002,11:55,METAR,,210,3.0,,,9999.0,Cloud Development Not Observable,18.0,18.0,29.81,1009.5,,,,0,0,0,,,,,,,,,4/8 Partly Cloudy,72000.0,,SCT,5000.0,,,,,,
KRDR,07-26-2002,11:00,METAR,,220,5.0,,,9999.0,Cloud Development Not Observable,16.0,16.0,29.81,1009.5,,,,0,0,0,,,,,,,,,Clear,72000.0,,,73000.0,,,,,,
KRDR,07-26-2002,10:00,METAR,,220,4.0,,,9999.0,Cloud Development Not Observable,16.0,16.0,29.80,1009.3,,,,0,0,0,,,,,,,,,Clear,72000.0,,,73000.0,,,,,,
KRDR,07-26-2002,09:00,METAR,,210,3.0,,,9999.0,Cloud Development Not Observable,16.0,16.0,29.81,1009.5,,,,0,0,0,,,,,,,,,Clear,72000.0,,,73000.0,,,,,,
KRDR,07-26-2002,08:00,METAR,,210,4.0,,,9999.0,Cloud Development Not Observable,16.0,16.0,29.82,1009.9,,,,0,0,0,,,,,,,,,Clear,72000.0,,,73000.0,,,,,,
KRDR,07-26-2002,07:00,METAR,,220,3.0,,,9999.0,Cloud Development Not Observable,17.0,17.0,29.83,,,,,0,0,0,,,,,,,,,Clear,72000.0,,,73000.0,,,,,,
KRDR,07-26-2002,05:00,METAR,,230,5.0,,,9999.0,Cloud Development Not Observable,17.0,17.0,29.84,1010.6,,,,0,0,0,,,,,,,,,Clear,72000.0,,,73000.0,,,,,,
KRDR,07-26-2002,03:00,METAR,,360,4.0,,,9999.0,Cloud Development Not Observable,21.0,18.0,29.81,1009.7,,,,0,0,0,,,,,,,,,2/8 Mostly Clear,72000.0,,FEW,20000.0,,,,,,
KRDR,07-26-2002,02:00,METAR,,360,6.0,,,9999.0,Cloud Development Not Observable,24.0,19.0,29.80,1009.3,,,,0,0,0,,,,,,,,,2/8 Mostly Clear,72000.0,,FEW,20000.0,,,,,,
KRDR,07-26-2002,01:00,METAR,,320,6.0,,,9999.0,Cloud Development Not Observable,27.0,19.0,29.79,1008.8,,,,0,0,0,,,,,,,,,2/8 Mostly Clear,72000.0,,FEW,5000.0,FEW,20000.0,,,,
KRDR,07-26-2002,00:00,METAR,,320,9.0,,,9999.0,Cloud Development Not Observable,29.0,17.0,29.78,1008.5,,,,0,0,0,,,,,,,,,2/8 Mostly Clear,72000.0,,FEW,5000.0,,,,,,
KRDR,07-25-2002,23:00,METAR,,300,11.0,18.0,,9999.0,Cloud Development Not Observable,30.0,16.0,29.77,1008.1,,,,0,0,0,,,,,,,,,4/8 Partly Cloudy,72000.0,,FEW,5000.0,SCT,12000.0,,,,
KRDR,07-25-2002,22:00,METAR,,280,11.0,,,9999.0,Cloud Development Not Observable,31.0,18.0,29.77,1008.2,,,,0,0,0,,,,,,,,,4/8 Partly Cloudy,72000.0,,FEW,5000.0,SCT,12000.0,,,,
KRDR,07-25-2002,21:00,METAR,,270,14.0,,,9999.0,Cloud Development Not Observable,30.0,18.0,29.78,1008.5,,,,0,0,0,,,,,,,,,4/8 Partly Cloudy,72000.0,,SCT,5000.0,SCT,12000.0,SCT,20000.0,,
KRDR,07-25-2002,20:00,METAR,,260,10.0,,,9999.0,Cloud Development Not Observable,29.0,19.0,29.79,1008.9,,,,0,0,0,,,,,,,,,4/8 Partly Cloudy,72000.0,,FEW,5000.0,SCT,12000.0,,,,
KRDR,07-25-2002,19:00,METAR,,250,9.0,,,9999.0,Cloud Development Not Observable,29.0,18.0,29.80,1009.1,,,,0,0,0,,,,,,,,,2/8 Mostly Clear,72000.0,,FEW,6900.0,FEW,12000.0,,,,
KRDR,07-25-2002,18:00,METAR,,280,5.0,,,9999.0,Cloud Development Not Observable,28.0,17.0,29.82,1010.3,,,,0,0,0,,,,,,,,,2/8 Mostly Clear,72000.0,,FEW,6900.0,FEW,12000.0,,,,
KRDR,07-25-2002,17:00,METAR,,290,4.0,,,9999.0,Cloud Development Not Observable,28.0,18.0,29.83,1010.5,,,,0,0,0,,,,,,,,,2/8 Mostly Clear,72000.0,,FEW,5000.0,FEW,12000.0,,,,
KRDR,07-25-2002,16:00,METAR,,320,6.0,,,9999.0,Cloud Development Not Observable,26.0,18.0,29.84,1010.5,,,,0,0,0,,,,,,,,,Clear,72000.0,,,73000.0,,,,,,
KRDR,07-25-2002,15:00,METAR,,290,5.0,,,9999.0,Cloud Development Not Observable,24.0,20.0,29.85,1010.9,,,,0,0,0,,,,,,,,,2/8 Mostly Clear,72000.0,,FEW,25000.0,,,,,,
KRDR,07-25-2002,14:00,METAR,,280,6.0,,,9999.0,Cloud Development Not Observable,23.0,20.0,29.84,1010.7,,,,0,0,0,,,,,,,,,2/8 Mostly Clear,72000.0,,FEW,25000.0,,,,,,
KRDR,07-25-2002,12:24,SPECI,,260,4.0,,,9999.0,Cloud Development Not Observable,18.0,18.0,29.85,,,,,0,0,0,,,,,,,,,2/8 Mostly Clear,72000.0,,FEW,500.0,,,,,,
KRDR,07-25-2002,12:00,METAR,,240,4.0,,,2400.0,Mist/Cloud Development Not Observable,16.0,16.0,29.84,1010.7,,,,10,0,0,,,,,,,,,2/8 Mostly Clear,72000.0,,FEW,500.0,,,,,,
KRDR,07-25-2002,10:58,METAR,,280,5.0,,,1600.0,Mist/Cloud Development Not Observable,17.0,17.0,29.84,1010.7,,,,10,0,0,,,,,,,,,7/8 Mostly Cloudy,500.0,,SCT,0.0,BKN,500.0,,,,
KRDR,07-25-2002,10:00,METAR,,280,4.0,,,3200.0,Mist/Cloud Development Not Observable,18.0,18.0,29.83,1010.4,,,,10,0,0,,,,,,,,,8/8 Overcast,500.0,,BKN,500.0,OVC,25000.0,,,,
KRDR,07-25-2002,09:40,SPECI,,,2.0,,,3200.0,Mist/Cloud Development Not Observable,18.0,18.0,29.83,,,,,10,0,0,,,,,,,,,8/8 Overcast,500.0,,BKN,500.0,OVC,25000.0,,,,
KRDR,07-25-2002,09:00,METAR,,,2.0,,,8000.0,Mist/Cloud Development Not Observable,18.0,18.0,29.83,1010.4,,,,10,0,0,,,,,,,,,8/8 Overcast,8000.0,,SCT,600.0,SCT,7900.0,OVC,25000.0,,
KRDR,07-25-2002,08:45,METAR,,,2.0,,,9999.0,Cloud Development Not Observable,17.0,17.0,29.83,,,,,0,0,0,,,,,,,,,8/8 Overcast,8000.0,,FEW,600.0,SCT,7900.0,OVC,25000.0,,
KRDR,07-25-2002,08:00,METAR,,350,4.0,,,9999.0,Cloud Development Not Observable,18.0,18.0,29.82,1010.1,,,,0,0,0,,,,,,,,,8/8 Overcast,8000.0,,SCT,3500.0,BKN,7900.0,OVC,25000.0,,
KRDR,07-25-2002,07:00,METAR,,,3.0,,,9999.0,Cloud Development Not Observable,20.0,20.0,29.85,1011.0,,,,0,0,0,,,,,,,,,8/8 Overcast,8000.0,,SCT,3500.0,BKN,7900.0,OVC,25000.0,,
KRDR,07-25-2002,06:00,METAR,,260,2.0,,,9999.0,Cloud Development Not Observable,21.0,21.0,29.87,1011.7,,,,0,0,0,,,,,,,,,8/8 Overcast,3400.0,,BKN,3500.0,OVC,7900.0,,,,
KRDR,07-25-2002,05:00,METAR,,220,3.0,,,9999.0,Cloud Development Not Observable,21.0,21.0,29.89,1012.4,,,,0,0,0,,,,,,,,,8/8 Overcast,3000.0,,BKN,3000.0,OVC,7900.0,,,,
KRDR,07-25-2002,04:45,METAR,,160,3.0,,,9999.0,Cloud Development Not Observable,21.0,21.0,29.89,,,,,0,0,0,,,,,,,,,8/8 Overcast,3000.0,,BKN,3000.0,OVC,7900.0,,,,
KRDR,07-25-2002,04:00,METAR,,160,4.0,,,9999.0,Cloud Development Not Observable,21.0,21.0,29.90,1012.7,,,,0,0,0,,,,,,,,,8/8 Overcast,2600.0,,BKN,2600.0,OVC,7900.0,,,,
KRDR,07-25-2002,03:49,SPECI,,160,4.0,,,9999.0,Cloud Development Not Observable,21.0,21.0,29.90,,,,,0,0,0,,,,,,,,,8/8 Overcast,2500.0,,BKN,2500.0,OVC,7900.0,,,,
KRDR,07-25-2002,03:41,SPECI,,160,3.0,,,9999.0,Cloud Development Not Observable,22.0,20.0,29.89,,,,,0,0,0,,,,,,,,,7/8 Mostly Cloudy,20000.0,,FEW,2500.0,SCT,7900.0,BKN,20000.0,,
KRDR,07-25-2002,03:00,METAR,,160,4.0,,,9999.0,Cloud Development Not Observable,21.0,21.0,29.89,1012.2,,,,0,0,0,,,,,,,,,7/8 Mostly Cloudy,3900.0,,SCT,2800.0,BKN,4000.0,BKN,20000.0,,
KRDR,07-25-2002,02:00,METAR,,150,3.0,,,9999.0,Cloud Development Not Observable,22.0,20.0,29.89,1012.2,,,,0,0,0,,,,,,,,,7/8 Mostly Cloudy,10000.0,,FEW,2500.0,SCT,9900.0,BKN,20000.0,,
KRDR,07-25-2002,01:41,SPECI,,160,3.0,,,9999.0,Cloud Development Not Observable,22.0,20.0,29.89,,,,,0,0,0,,,,,,,,,7/8 Mostly Cloudy,8000.0,,FEW,2500.0,SCT,7900.0,BKN,20000.0,,
KRDR,07-25-2002,01:00,METAR,,180,4.0,,,9999.0,Cloud Development Not Observable,23.0,20.0,29.90,1012.8,,,,0,0,0,,,,,,,,,7/8 Mostly Cloudy,2400.0,,BKN,2400.0,BKN,7900.0,BKN,20000.0,,
KRDR,07-25-2002,00:33,SPECI,,160,4.0,,,9999.0,Cloud Development Not Observable,23.0,20.0,29.91,,,,,0,0,0,,,,,,,,,8/8 Overcast,2400.0,,BKN,2400.0,OVC,8900.0,,,,
KRDR,07-25-2002,00:00,METAR,,190,6.0,,,9999.0,Cloud Development Not Observable,23.0,20.0,29.92,1013.4,,,,0,0,0,,,,,,,,,8/8 Overcast,12000.0,,BKN,12000.0,OVC,20000.0,,,,
KRDR,07-24-2002,23:00,METAR,,210,11.0,,,9999.0,Cloud Development Not Observable,24.0,19.0,29.93,1013.6,,,,0,0,0,,,,,,,,,7/8 Mostly Cloudy,4900.0,,SCT,2800.0,SCT,5000.0,BKN,8900.0,BKN,20000.0
KRDR,07-24-2002,22:00,METAR,,210,8.0,,,9999.0,Cloud Development Not Observable,24.0,19.0,29.94,1014.0,,,,0,0,0,,,,,,,,,8/8 Overcast,3900.0,,SCT,2800.0,BKN,4000.0,OVC,11000.0,,
KRDR,07-24-2002,21:00,METAR,,200,6.0,,,9999.0,Cloud Development Not Observable,25.0,19.0,29.95,1014.3,,,,0,0,0,,,,,,,,,8/8 Overcast,2800.0,,BKN,2800.0,BKN,4000.0,OVC,11000.0,,
KRDR,07-24-2002,20:00,METAR,,190,4.0,,,9999.0,Cloud Development Not Observable,23.0,19.0,29.97,1015.1,,,,0,0,0,,,,,,,,,8/8 Overcast,2700.0,,BKN,2700.0,OVC,4000.0,,,,
KRDR,07-24-2002,19:00,METAR,,220,7.0,,,9999.0,Cloud Development Not Observable,23.0,18.0,29.99,1015.8,,,,0,0,0,,,,,,,,,8/8 Overcast,2700.0,,BKN,2700.0,OVC,4000.0,,,,
KRDR,07-24-2002,18:00,METAR,,190,6.0,,,9999.0,Cloud Development Not Observable,22.0,18.0,29.99,1015.9,,,,0,0,0,,,,,,,,,8/8 Overcast,2600.0,,OVC,2600.0,,,,,,
KRDR,07-24-2002,17:00,METAR,,180,9.0,,,9999.0,Cloud Development Not Observable,22.0,18.0,30.00,1016.2,,,,0,0,0,,,,,,,,,8/8 Overcast,2500.0,,OVC,2500.0,,,,,,
KRDR,07-24-2002,16:00,METAR,,160,12.0,,,9999.0,Cloud Development Not Observable,23.0,17.0,30.01,1016.5,,,,0,0,0,,,,,,,,,7/8 Mostly Cloudy,2200.0,,BKN,2200.0,,,,,,
KRDR,07-24-2002,15:32,SPECI,,170,11.0,,,9999.0,Cloud Development Not Observable,22.0,17.0,30.02,,,,,0,0,0,,,,,,,,,7/8 Mostly Cloudy,2200.0,,BKN,2200.0,,,,,,
KRDR,07-24-2002,15:00,METAR,,160,7.0,,,9999.0,Cloud Development Not Observable,20.0,17.0,30.05,1018.0,,,,0,0,0,,,,,,,,,7/8 Mostly Cloudy,6000.0,,FEW,2000.0,SCT,5900.0,BKN,6900.0,,
KRDR,07-24-2002,14:00,METAR,,130,7.0,,,9999.0,Cloud Development Not Observable,18.0,16.0,30.06,1018.4,,,,0,0,0,,,,,,,,,7/8 Mostly Cloudy,5500.0,,FEW,2000.0,BKN,5400.0,BKN,6900.0,,
KRDR,07-24-2002,13:00,METAR,,120,9.0,,,9999.0,Cloud Development Not Observable,17.0,16.0,30.09,1019.3,,,,0,0,0,,,,,,,,,7/8 Mostly Cloudy,7000.0,,FEW,2000.0,BKN,6900.0,BKN,8900.0,,
KRDR,07-24-2002,12:00,METAR,,120,5.0,,,9999.0,Cloud Development Not Observable,16.0,16.0,30.10,1019.5,,,,0,0,0,,,,,,,,,7/8 Mostly Cloudy,7000.0,,BKN,6900.0,BKN,8900.0,,,,
KRDR,07-24-2002,11:00,METAR,,130,6.0,,,9999.0,Cloud Development Not Observable,16.0,16.0,30.10,1019.5,,,,0,0,0,,,,,,,,,7/8 Mostly Cloudy,7000.0,,BKN,6900.0,BKN,8900.0,,,,
KRDR,07-24-2002,09:45,METAR,,110,8.0,,,9999.0,Cloud Development Not Observable,16.0,16.0,30.11,,,,,0,0,0,,,,,,,,,8/8 Overcast,7000.0,,OVC,6900.0,,,,,,
KRDR,07-24-2002,09:00,METAR,,120,7.0,,,9999.0,Light Rain Showers/Cloud Development Not Observable,16.0,16.0,30.14,1020.9,,,,80,0,0,,,,,,TRACE,,,8/8 Overcast,7000.0,,FEW,5000.0,OVC,6900.0,,,,
KRDR,07-24-2002,08:36,SPECI,,120,7.0,,,9999.0,Light Rain Showers/Cloud Development Not Observable,16.0,15.0,30.14,,,,,80,0,0,,,,,,,,,8/8 Overcast,7000.0,,FEW,4500.0,OVC,6900.0,,,,
KRDR,07-24-2002,08:00,METAR,,130,5.0,,,9999.0,Cloud Development Not Observable,16.0,15.0,30.15,1021.5,,,,0,0,0,,,,,,,,,8/8 Overcast,7000.0,,OVC,6900.0,,,,,,
KRDR,07-24-2002,07:00,METAR,,130,6.0,,,9999.0,Cloud Development Not Observable,15.0,13.0,30.16,1021.9,,,,0,0,0,,,,,,,,,8/8 Overcast,7500.0,,OVC,7400.0,,,,,,
KRDR,07-24-2002,06:00,METAR,,120,6.0,,,9999.0,Cloud Development Not Observable,15.0,13.0,30.17,1022.2,,,,0,0,0,,,,,,,,,8/8 Overcast,7500.0,,OVC,7400.0,,,,,,
KRDR,07-24-2002,05:00,METAR,,130,5.0,,,9999.0,Cloud Development Not Observable,16.0,14.0,30.18,1022.5,,,,0,0,0,,,,,,,,,8/8 Overcast,8000.0,,BKN,7900.0,OVC,12000.0,,,,
KRDR,07-24-2002,04:00,METAR,,140,3.0,,,9999.0,Cloud Development Not Observable,15.0,13.0,30.20,1023.2,,,,0,0,0,,,,,,,,,8/8 Overcast,8000.0,,BKN,7900.0,OVC,12000.0,,,,
KRDR,07-24-2002,03:00,METAR,,150,3.0,,,9999.0,Cloud Development Not Observable,14.0,12.0,30.20,1023.3,,,,0,0,0,,,,,,,,,7/8 Mostly Cloudy,12000.0,,SCT,7400.0,BKN,12000.0,BKN,20000.0,,
KRDR,07-24-2002,02:00,METAR,,140,3.0,,,9999.0,Cloud Development Not Observable,16.0,12.0,30.19,1022.9,,,,0,0,0,,,,,,,,,7/8 Mostly Cloudy,12000.0,,SCT,7400.0,BKN,12000.0,BKN,20000.0,,
KRDR,07-24-2002,01:00,METAR,,240,4.0,,,9999.0,Cloud Development Not Observable,16.0,12.0,30.20,1023.4,,,,0,0,0,,,,,,,,,7/8 Mostly Cloudy,7000.0,,FEW,2800.0,SCT,7400.0,BKN,11000.0,BKN,20000.0
KRDR,07-24-2002,00:00,METAR,,190,8.0,,,9999.0,Cloud Development Not Observable,18.0,12.0,30.22,1024.0,,,,0,0,0,,,,,,,,,7/8 Mostly Cloudy,7000.0,,FEW,2800.0,SCT,7400.0,BKN,11000.0,BKN,20000.0
KRDR,07-23-2002,23:00,METAR,,210,12.0,,,9999.0,Cloud Development Not Observable,19.0,13.0,30.23,1024.3,,,,0,0,0,,,,,,,,,7/8 Mostly Cloudy,10000.0,,SCT,4000.0,BKN,9900.0,BKN,20000.0,,
KRDR,07-23-2002,22:00,METAR,,160,7.0,,,9999.0,Cloud Development Not Observable,20.0,11.0,30.23,1024.3,,,,0,0,0,,,,,,,,,8/8 Overcast,8000.0,,FEW,4000.0,BKN,7900.0,BKN,13000.0,OVC,22000.0
KRDR,07-23-2002,21:00,METAR,,180,6.0,,,9999.0,Cloud Development Not Observable,21.0,13.0,30.23,1024.3,,,,0,0,0,,,,,,,,,7/8 Mostly Cloudy,13000.0,,FEW,4000.0,FEW,6900.0,BKN,13000.0,BKN,22000.0
KRDR,07-23-2002,20:40,SPECI,,180,6.0,,,9999.0,Cloud Development Not Observable,21.0,12.0,30.22,,,,,0,0,0,,,,,,,,,7/8 Mostly Cloudy,13000.0,,FEW,4000.0,FEW,6900.0,BKN,13000.0,BKN,20000.0
KRDR,07-23-2002,20:00,METAR,,170,5.0,,,9999.0,Cloud Development Not Observable,20.0,11.0,30.23,1024.5,,,,0,0,0,,,,,,,,,7/8 Mostly Cloudy,8000.0,,FEW,4000.0,SCT,7900.0,BKN,13000.0,BKN,22000.0
KRDR,07-23-2002,19:42,SPECI,,180,7.0,,,9999.0,Cloud Development Not Observable,20.0,11.0,30.23,,,,,0,0,0,,,,,,,,,7/8 Mostly Cloudy,8000.0,,FEW,4000.0,SCT,7900.0,BKN,13000.0,BKN,22000.0
KRDR,07-23-2002,19:00,METAR,,180,7.0,,,9999.0,Light Rain Showers/Cloud Development Not Observable,19.0,11.0,30.25,1025.0,,,,80,0,0,,,,,,,,,7/8 Mostly Cloudy,8000.0,,FEW,4000.0,SCT,7900.0,BKN,13000.0,BKN,22000.0
KRDR,07-23-2002,18:47,SPECI,,180,7.0,,,9999.0,Light Rain Showers/Cloud Development Not Observable,19.0,11.0,30.25,,,,,80,0,0,,,,,,,,,7/8 Mostly Cloudy,8000.0,,FEW,4000.0,SCT,7900.0,BKN,13000.0,BKN,22000.0
KRDR,07-23-2002,18:00,METAR,,180,7.0,,,9999.0,Cloud Development Not Observable,20.0,12.0,30.26,1025.6,,,,0,0,0,,,,,,,,,7/8 Mostly Cloudy,8000.0,,FEW,4000.0,SCT,7900.0,BKN,13000.0,BKN,22000.0
KRDR,07-23-2002,16:00,METAR,,200,7.0,,,9999.0,Cloud Development Not Observable,22.0,11.0,30.27,1025.5,,,,0,0,0,,,,,,,,,7/8 Mostly Cloudy,8000.0,,SCT,2200.0,BKN,7900.0,BKN,12000.0,BKN,22000.0
KRDR,07-23-2002,13:00,METAR,,250,4.0,,,9999.0,Cloud Development Not Observable,15.0,13.0,30.29,1026.1,,,,0,0,0,,,,,,,,,4/8 Partly Cloudy,72000.0,,FEW,9900.0,SCT,25000.0,,,,
KRDR,07-23-2002,12:00,METAR,,240,2.0,,,9999.0,Cloud Development Not Observable,10.0,10.0,30.27,1025.7,,,,0,0,0,,,,,,,,,4/8 Partly Cloudy,72000.0,,FEW,9900.0,SCT,20000.0,,,,
KRDR,07-23-2002,11:00,METAR,,200,3.0,,,9999.0,Cloud Development Not Observable,9.0,9.0,30.27,1025.7,,,,0,0,0,,,,,,,,,4/8 Partly Cloudy,72000.0,,SCT,20000.0,,,,,,
KRDR,07-23-2002,10:00,METAR,,210,3.0,,,9999.0,Cloud Development Not Observable,10.0,10.0,30.27,1025.6,,,,0,0,0,,,,,,,,,2/8 Mostly Clear,72000.0,,FEW,12000.0,,,,,,
KRDR,07-23-2002,09:00,METAR,,240,3.0,,,9999.0,Cloud Development Not Observable,10.0,10.0,30.26,1025.3,,,,0,0,0,,,,,,,,,2/8 Mostly Clear,72000.0,,FEW,12000.0,,,,,,
KRDR,07-23-2002,08:00,METAR,,230,3.0,,,9999.0,Cloud Development Not Observable,10.0,10.0,30.26,1025.3,,,,0,0,0,,,,,,,,,Clear,72000.0,,,73000.0,,,,,,
KRDR,07-23-2002,07:00,METAR,,230,2.0,,,9999.0,Cloud Development Not Observable,11.0,11.0,30.26,1025.3,,,,0,0,0,,,,,,,,,Clear,72000.0,,,73000.0,,,,,,
KRDR,07-23-2002,06:00,METAR,,230,3.0,,,9999.0,Cloud Development Not Observable,12.0,12.0,30.25,1025.1,,,,0,0,0,,,,,,,,,Clear,72000.0,,,73000.0,,,,,,
KRDR,07-23-2002,05:00,METAR,,240,4.0,,,9999.0,Cloud Development Not Observable,12.0,11.0,30.24,1024.8,,,,0,0,0,,,,,,,,,Clear,72000.0,,,73000.0,,,,,,
KRDR,07-23-2002,04:00,METAR,,230,3.0,,,9999.0,Cloud Development Not Observable,14.0,12.0,30.22,,,,,0,0,0,,,,,,,,,2/8 Mostly Clear,72000.0,,FEW,20000.0,,,,,,
KRDR,07-23-2002,03:00,METAR,,290,2.0,,,9999.0,Cloud Development Not Observable,15.0,11.0,30.21,,,,,0,0,0,,,,,,,,,2/8 Mostly Clear,72000.0,,FEW,9900.0,,,,,,
KRDR,07-23-2002,02:00,METAR,,320,2.0,,,9999.0,Cloud Development Not Observable,18.0,11.0,30.21,,,,,0,0,0,,,,,,,,,2/8 Mostly Clear,72000.0,,FEW,5000.0,FEW,9900.0,,,,
KRDR,07-23-2002,01:00,METAR,,350,6.0,,,9999.0,Cloud Development Not Observable,20.0,9.0,30.20,,,,,0,0,0,,,,,,,,,2/8 Mostly Clear,72000.0,,FEW,5000.0,FEW,9900.0,,,,
KRDR,07-23-2002,00:00,METAR,,350,6.0,,,9999.0,Cloud Development Not Observable,21.0,9.0,30.20,,,,,0,0,0,,,,,,,,,2/8 Mostly Clear,72000.0,,FEW,5000.0,,,,,,
KRDR,07-22-2002,23:00,METAR,,350,9.0,,,9999.0,Cloud Development Not Observable,21.0,8.0,30.20,,,,,0,0,0,,,,,,,,,2/8 Mostly Clear,72000.0,,FEW,5000.0,,,,,,
KRDR,07-22-2002,22:00,METAR,,350,11.0,,,9999.0,Cloud Development Not Observable,22.0,8.0,30.19,,,,,0,0,0,,,,,,,,,4/8 Partly Cloudy,72000.0,,FEW,5000.0,SCT,9900.0,,,,
KRDR,07-22-2002,21:00,METAR,,330,9.0,,,9999.0,Cloud Development Not Observable,21.0,9.0,30.18,,,,,0,0,0,,,,,,,,,4/8 Partly Cloudy,72000.0,,FEW,4000.0,SCT,5000.0,SCT,9900.0,,
KRDR,07-22-2002,20:00,METAR,,360,13.0,,,9999.0,Cloud Development Not Observable,21.0,9.0,30.17,,,,,0,0,0,,,,,,,,,4/8 Partly Cloudy,72000.0,,SCT,4500.0,SCT,9900.0,,,,
KRDR,07-22-2002,19:00,METAR,,360,12.0,,,9999.0,Cloud Development Not Observable,21.0,9.0,30.16,1021.8,,,,0,0,0,,,,,,,,,4/8 Partly Cloudy,72000.0,,SCT,4500.0,,,,,,
KRDR,07-22-2002,18:00,METAR,,340,13.0,,,9999.0,Cloud Development Not Observable,20.0,11.0,30.15,1021.5,,,,0,0,0,,,,,,,,,4/8 Partly Cloudy,72000.0,,FEW,2500.0,SCT,4000.0,,,,
KRDR,07-22-2002,17:00,METAR,,340,16.0,21.0,,9999.0,Cloud Development Not Observable,18.0,12.0,30.15,1021.4,,,,0,0,0,,,,,,,,,7/8 Mostly Cloudy,3900.0,,SCT,2500.0,BKN,4000.0,,,,
KRDR,07-22-2002,16:08,SPECI,,330,16.0,,,9999.0,Cloud Development Not Observable,18.0,13.0,30.13,,,,,0,0,0,,,,,,,,,7/8 Mostly Cloudy,2700.0,,FEW,2000.0,SCT,2700.0,BKN,4000.0,,
KRDR,07-22-2002,16:00,SPECI,,,,,,9999.0,Cloud Development Not Observable,,,,,,,,0,0,0,,,,,,,,,,72000.0,,SCT,3600.0,,,,,,
KRDR,07-22-2002,15:57,METAR,,330,16.0,,,9999.0,Cloud Development Not Observable,17.0,12.0,30.12,1020.4,,,,0,0,0,,,,,,,,,7/8 Mostly Cloudy,2700.0,,FEW,2000.0,BKN,2700.0,,,,
KRDR,07-22-2002,15:00,METAR,,340,15.0,,,9999.0,Cloud Development Not Observable,17.0,12.0,30.11,1019.8,,,,0,0,0,,,,,,,,,7/8 Mostly Cloudy,2700.0,,BKN,2700.0,,,,,,
KRDR,07-22-2002,14:00,METAR,,340,17.0,21.0,,9999.0,Cloud Development Not Observable,17.0,13.0,30.08,1019.0,,,,0,0,0,,,,,,,,,7/8 Mostly Cloudy,2700.0,,FEW,1800.0,BKN,2700.0,,,,
KRDR,07-22-2002,13:00,METAR,,330,15.0,21.0,,9999.0,Cloud Development Not Observable,17.0,13.0,30.04,1017.4,,,,0,0,0,,,,,,,,,7/8 Mostly Cloudy,2700.0,,BKN,2700.0,,,,,,
KRDR,07-22-2002,12:50,METAR,,330,15.0,21.0,,9999.0,Cloud Development Not Observable,17.0,13.0,30.04,,,,,0,0,0,,,,,,,,,7/8 Mostly Cloudy,2700.0,,BKN,2700.0,,,,,,
KRDR,07-22-2002,12:00,METAR,,300,8.0,,,9999.0,Cloud Development Not Observable,15.0,13.0,30.01,1016.4,,,,0,0,0,,,,,,,,,4/8 Partly Cloudy,72000.0,,SCT,2700.0,,,,,,
KRDR,07-22-2002,11:00,METAR,,300,9.0,,,9999.0,Cloud Development Not Observable,15.0,13.0,29.98,1015.3,,,,0,0,0,,,,,,,,,2/8 Mostly Clear,72000.0,,FEW,2000.0,FEW,20000.0,,,,
KRDR,07-22-2002,10:00,METAR,,300,8.0,,,9999.0,Cloud Development Not Observable,16.0,13.0,29.95,1014.2,,,,0,0,0,,,,,,,,,Clear,72000.0,,,73000.0,,,,,,
KRDR,07-22-2002,09:00,METAR,,290,10.0,,,9999.0,Cloud Development Not Observable,16.0,13.0,29.93,1013.5,,,,0,0,0,,,,,,,,,Clear,72000.0,,,73000.0,,,,,,
KRDR,07-22-2002,08:00,METAR,,280,7.0,,,9999.0,Cloud Development Not Observable,16.0,13.0,29.91,1012.8,,,,0,0,0,,,,,,,,,Clear,72000.0,,,73000.0,,,,,,
KRDR,07-22-2002,07:00,METAR,,260,6.0,,,9999.0,Cloud Development Not Observable,16.0,13.0,29.91,1012.8,,,,0,0,0,,,,,,,,,Clear,72000.0,,,73000.0,,,,,,
KRDR,07-22-2002,06:00,METAR,,270,5.0,,,9999.0,Cloud Development Not Observable,16.0,13.0,29.91,1012.9,,,,0,0,0,,,,,,,,,Clear,72000.0,,,73000.0,,,,,,
KRDR,07-22-2002,05:00,METAR,,270,5.0,,,9999.0,Cloud Development Not Observable,16.0,13.0,29.91,1012.9,,,,0,0,0,,,,,,,,,Clear,72000.0,,,73000.0,,,,,,
KRDR,07-22-2002,04:00,METAR,,300,5.0,,,9999.0,Cloud Development Not Observable,19.0,13.0,29.89,1012.2,,,,0,0,0,,,,,,,,,Clear,72000.0,,,73000.0,,,,,,
KRDR,07-22-2002,03:00,METAR,,290,8.0,,,9999.0,Cloud Development Not Observable,22.0,12.0,29.87,1011.8,,,,0,0,0,,,,,,,,,Clear,72000.0,,,73000.0,,,,,,
KRDR,07-22-2002,02:00,METAR,,270,4.0,,,9999.0,Cloud Development Not Observable,22.0,15.0,29.84,1010.7,,,,0,0,0,,,,,,,,,2/8 Mostly Clear,72000.0,,FEW,25000.0,,,,,,
KRDR,07-22-2002,01:00,METAR,,290,6.0,,,9999.0,Cloud Development Not Observable,26.0,14.0,29.83,1010.3,,,,0,0,0,,,,,,,,,2/8 Mostly Clear,72000.0,,FEW,25000.0,,,,,,
KRDR,07-22-2002,00:00,METAR,,280,10.0,,,9999.0,Cloud Development Not Observable,27.0,11.0,29.83,1010.3,,,,0,0,0,,,,,,,,,4/8 Partly Cloudy,72000.0,,FEW,15000.0,SCT,25000.0,,,,
KRDR,07-21-2002,23:00,METAR,,290,11.0,18.0,,9999.0,Cloud Development Not Observable,28.0,11.0,29.84,1010.4,,,,0,0,0,,,,,,,,,4/8 Partly Cloudy,72000.0,,FEW,15000.0,SCT,25000.0,,,,
KRDR,07-21-2002,22:00,METAR,,270,9.0,,,9999.0,Cloud Development Not Observable,28.0,15.0,29.84,1010.6,,,,0,0,0,,,,,,,,,7/8 Mostly Cloudy,25000.0,,FEW,15000.0,BKN,25000.0,,,,
KRDR,07-21-2002,21:00,METAR,,300,8.0,,,9999.0,Cloud Development Not Observable,28.0,14.0,29.85,1010.8,,,,0,0,0,,,,,,,,,7/8 Mostly Cloudy,25000.0,,FEW,6900.0,FEW,15000.0,BKN,25000.0,,
KRDR,07-21-2002,20:00,METAR,,310,9.0,,,9999.0,Cloud Development Not Observable,28.0,13.0,29.86,1011.1,,,,0,0,0,,,,,,,,,7/8 Mostly Cloudy,25000.0,,SCT,12000.0,BKN,25000.0,,,,
KRDR,07-21-2002,19:00,METAR,,310,9.0,,,9999.0,Cloud Development Not Observable,29.0,14.0,29.85,1010.9,,,,0,0,0,,,,,,,,,7/8 Mostly Cloudy,25000.0,,SCT,12000.0,BKN,25000.0,,,,
KRDR,07-21-2002,18:00,METAR,,340,8.0,,,9999.0,Cloud Development Not Observable,27.0,15.0,29.86,1011.3,,,,0,0,0,,,,,,,,,7/8 Mostly Cloudy,20000.0,,SCT,15000.0,SCT,20000.0,BKN,30000.0,,
KRDR,07-21-2002,17:00,METAR,,290,7.0,,,9999.0,Cloud Development Not Observable,24.0,18.0,29.85,1010.8,,,,0,0,0,,,,,,,,,7/8 Mostly Cloudy,20000.0,,FEW,15000.0,SCT,20000.0,BKN,30000.0,,
KRDR,07-21-2002,16:00,METAR,,310,9.0,,,9999.0,Cloud Development Not Observable,23.0,17.0,29.83,1010.3,,,,0,0,0,,,,,,,,,7/8 Mostly Cloudy,20000.0,,SCT,15000.0,SCT,20000.0,BKN,30000.0,,
KRDR,07-21-2002,15:00,METAR,,320,8.0,,,9999.0,Cloud Development Not Observable,22.0,18.0,29.82,1009.9,,,,0,0,0,,,,,,,,,7/8 Mostly Cloudy,20000.0,,SCT,12000.0,SCT,20000.0,BKN,30000.0,,
KRDR,07-21-2002,14:00,METAR,,320,8.0,,,9999.0,Cloud Development Not Observable,22.0,19.0,29.81,1009.5,,,,0,0,0,,,,,,,,,7/8 Mostly Cloudy,20000.0,,FEW,12000.0,SCT,20000.0,BKN,30000.0,,
KRDR,07-21-2002,13:00,METAR,,320,8.0,,,9999.0,Cloud Development Not Observable,22.0,20.0,29.79,1008.8,,,,0,0,0,,,,,,,,,2/8 Mostly Clear,30000.0,,FEW,9900.0,BKN,30000.0,,,,
KRDR,07-21-2002,12:00,METAR,,300,7.0,,,9999.0,Cloud Development Not Observable,22.0,21.0,29.79,1008.6,,,,0,0,0,,,,,,,,,7/8 Mostly Cloudy,30000.0,,FEW,20000.0,BKN,30000.0,,,,
KRDR,07-21-2002,11:00,METAR,,300,6.0,,,9999.0,Cloud Development Not Observable,22.0,22.0,29.77,1007.9,,,,0,0,0,,,,,,,,,7/8 Mostly Cloudy,25000.0,,BKN,25000.0,,,,,,
KRDR,07-21-2002,10:00,METAR,,310,6.0,,,9999.0,Cloud Development Not Observable,22.0,22.0,29.76,1007.5,,,,0,0,0,,,,,,,,,7/8 Mostly Cloudy,25000.0,,BKN,25000.0,,,,,,
KRDR,07-21-2002,09:00,METAR,,310,5.0,,,9999.0,Cloud Development Not Observable,22.0,22.0,29.75,1007.2,,,,0,0,0,,,,,,,,,7/8 Mostly Cloudy,25000.0,,BKN,25000.0,,,,,,
KRDR,07-21-2002,08:00,METAR,,290,6.0,,,9999.0,Cloud Development Not Observable,23.0,23.0,29.73,1006.5,,,,0,0,0,,,,,,,,,7/8 Mostly Cloudy,25000.0,,BKN,25000.0,,,,,,
KRDR,07-21-2002,07:00,METAR,,280,6.0,,,9999.0,Cloud Development Not Observable,23.0,23.0,29.71,1006.0,,,,0,0,0,,,,,,,,,4/8 Partly Cloudy,72000.0,,FEW,9900.0,SCT,25000.0,,,,
KRDR,07-21-2002,06:00,METAR,,280,5.0,,,9999.0,Cloud Development Not Observable,24.0,24.0,29.71,1006.0,,,,0,0,0,,,,,,,,,4/8 Partly Cloudy,72000.0,,SCT,25000.0,,,,,,
KRDR,07-21-2002,05:00,METAR,,220,4.0,,,9999.0,Cloud Development Not Observable,24.0,24.0,29.72,1006.3,,,,0,0,0,,,,,,,,,4/8 Partly Cloudy,72000.0,,SCT,25000.0,,,,,,
KRDR,07-21-2002,04:00,METAR,,220,3.0,,,9999.0,Cloud Development Not Observable,25.0,24.0,29.71,1005.9,,,,0,0,0,,,,,,,,,4/8 Partly Cloudy,72000.0,,FEW,3000.0,SCT,25000.0,,,,
KRDR,07-21-2002,03:00,METAR,,230,4.0,,,9999.0,Cloud Development Not Observable,26.0,24.0,29.70,1005.7,,,,0,0,0,,,,,,,,,4/8 Partly Cloudy,72000.0,,FEW,3000.0,SCT,25000.0,,,,
KRDR,07-21-2002,02:00,METAR,,260,4.0,,,9999.0,Cloud Development Not Observable,28.0,24.0,29.70,1005.5,,,,0,0,0,,,,,,,,,4/8 Partly Cloudy,72000.0,,FEW,3000.0,FEW,9900.0,SCT,25000.0,,
KRDR,07-21-2002,01:00,METAR,,250,5.0,,,9999.0,Cloud Development Not Observable,30.0,24.0,29.67,1004.8,,,,0,0,0,,,,,,,,,2/8 Mostly Clear,72000.0,,FEW,3000.0,FEW,25000.0,,,,
KRDR,07-21-2002,00:00,METAR,,240,7.0,,,9999.0,Cloud Development Not Observable,31.0,23.0,29.67,1004.6,,,,0,0,0,,,,,,,,,2/8 Mostly Clear,72000.0,,FEW,3000.0,FEW,25000.0,,,,
KRDR,07-20-2002,23:00,METAR,,230,13.0,,,9999.0,Cloud Development Not Observable,32.0,22.0,29.67,1004.7,,,,0,0,0,,,,,,,,,2/8 Mostly Clear,72000.0,,FEW,3000.0,FEW,25000.0,,,,
KRDR,07-20-2002,22:00,METAR,,240,12.0,,,9999.0,Cloud Development Not Observable,32.0,21.0,29.69,1005.2,,,,0,0,0,,,,,,,,,4/8 Partly Cloudy,72000.0,,FEW,3000.0,FEW,12000.0,SCT,25000.0,,
KRDR,07-20-2002,21:00,METAR,,240,13.0,,,9999.0,Cloud Development Not Observable,32.0,21.0,29.71,1005.8,,,,0,0,0,,,,,,,,,4/8 Partly Cloudy,72000.0,,FEW,3000.0,FEW,9900.0,SCT,25000.0,,
KRDR,07-20-2002,20:00,METAR,,230,13.0,,,9999.0,Cloud Development Not Observable,30.0,22.0,29.72,1006.2,,,,0,0,0,,,,,,,,,7/8 Mostly Cloudy,12000.0,,FEW,3000.0,SCT,12000.0,BKN,25000.0,,
KRDR,07-20-2002,19:00,METAR,,230,13.0,,,9999.0,Cloud Development Not Observable,29.0,25.0,29.71,1006.0,,,,0,0,0,,,,,,,,,7/8 Mostly Cloudy,12000.0,,FEW,3000.0,SCT,12000.0,BKN,25000.0,,
KRDR,07-20-2002,18:22,SPECI,,250,12.0,,,9999.0,Cloud Development Not Observable,27.0,23.0,29.73,,,,,0,0,0,,,,,,,,,7/8 Mostly Cloudy,12000.0,,FEW,1200.0,FEW,3000.0,SCT,12000.0,BKN,20000.0
KRDR,07-20-2002,18:00,METAR,,240,16.0,,,9999.0,Light Rain Showers/Cloud Development Not Observable,27.0,23.0,29.72,1006.3,,,,80,0,0,,,,,,,,,7/8 Mostly Cloudy,3000.0,,FEW,1200.0,SCT,3000.0,BKN,12000.0,BKN,20000.0
KRDR,07-20-2002,17:46,SPECI,,220,13.0,,,9999.0,Light Rain Showers/Cloud Development Not Observable,26.0,24.0,29.72,,,,,80,0,0,,,,,,,,,8/8 Overcast,3000.0,,FEW,1200.0,SCT,3000.0,BKN,12000.0,OVC,20000.0
KRDR,07-20-2002,17:13,SPECI,,230,8.0,,,9999.0,Cloud Development Not Observable,25.0,24.0,29.74,,,,,0,0,0,,,,,,,,,8/8 Overcast,3000.0,,FEW,1800.0,SCT,3000.0,BKN,12000.0,OVC,20000.0
KRDR,07-20-2002,17:00,METAR,,230,11.0,,,9999.0,Light Rain Showers/Mist/Cloud Development Not Observable,24.0,24.0,29.74,1007.0,,,,80,10,0,,,,,,,,,8/8 Overcast,3000.0,,FEW,1800.0,BKN,3000.0,BKN,12000.0,OVC,20000.0
KRDR,07-20-2002,16:48,SPECI,,220,11.0,,,9999.0,Light Rain Showers/Mist/Cloud Development Not Observable,24.0,24.0,29.74,,,,,80,10,0,,,,,,,,,8/8 Overcast,3000.0,,SCT,1800.0,BKN,3000.0,BKN,9900.0,OVC,20000.0
KRDR,07-20-2002,16:22,SPECI,,200,7.0,,,8000.0,Mist/Cloud Development Not Observable,24.0,24.0,29.73,,,,,10,0,0,,,,,,,,,8/8 Overcast,1800.0,,BKN,1800.0,OVC,9900.0,,,,
KRDR,07-20-2002,16:00,METAR,,200,7.0,,,8000.0,Mist/Cloud Development Not Observable,24.0,24.0,29.73,1006.7,,,,10,0,0,,,,,,,,,8/8 Overcast,1200.0,,BKN,1200.0,OVC,9900.0,,,,
KRDR,07-20-2002,15:00,METAR,,130,9.0,,,6400.0,Mist/Cloud Development Not Observable,24.0,24.0,29.68,1005.0,,,,10,0,0,,,,,,,,,8/8 Overcast,1000.0,,OVC,1000.0,,,,,,
KRDR,07-20-2002,14:00,METAR,,110,9.0,,,4800.0,Mist/Cloud Development Not Observable,23.0,23.0,29.70,1005.7,,,,10,0,0,,,,,,,,,8/8 Overcast,1000.0,,OVC,1000.0,,,,,,
KRDR,07-20-2002,13:00,METAR,,170,5.0,,,4800.0,Mist/Cloud Development Not Observable,23.0,23.0,29.78,1008.5,,,,10,0,0,,,,,,,,,8/8 Overcast,1000.0,,OVC,1000.0,,,,,,
KRDR,07-20-2002,12:00,METAR,,140,5.0,,,6400.0,Mist/Cloud Development Not Observable,22.0,22.0,29.77,1008.1,,,,10,0,0,,,,,,,,,8/8 Overcast,1000.0,,OVC,1000.0,,,,,,
KRDR,07-20-2002,11:20,METAR,,140,5.0,,,6400.0,Mist/Cloud Development Not Observable,22.0,22.0,29.78,,,,,10,0,0,,,,,,,,,8/8 Overcast,1000.0,,BKN,1000.0,OVC,12000.0,,,,
KRDR,07-20-2002,11:00,METAR,,140,6.0,,,4800.0,Mist/Cloud Development Not Observable,22.0,22.0,29.78,1008.3,,,,10,0,0,,,,,,,,,8/8 Overcast,12000.0,,SCT,1000.0,OVC,12000.0,,,,
KRDR,07-20-2002,10:00,METAR,,140,7.0,,,6400.0,Mist/Cloud Development Not Observable,22.0,22.0,29.78,1008.3,,,,10,0,0,,,,,,,,,8/8 Overcast,12000.0,,OVC,12000.0,,,,,,
KRDR,07-20-2002,09:00,METAR,,150,6.0,,,9999.0,Mist/Cloud Development Not Observable,22.0,22.0,29.79,1008.7,,,,10,0,0,,,,,,,,,7/8 Mostly Cloudy,25000.0,,SCT,12000.0,BKN,25000.0,,,,
KRDR,07-20-2002,08:00,METAR,,150,5.0,,,9999.0,Cloud Development Not Observable,22.0,22.0,29.81,1009.4,,,,0,0,0,,,,,,,,,7/8 Mostly Cloudy,25000.0,,SCT,12000.0,BKN,25000.0,,,,
KRDR,07-20-2002,07:00,METAR,,160,5.0,,,9999.0,Cloud Development Not Observable,23.0,22.0,29.81,1009.5,,,,0,0,0,,,,,,,,,2/8 Mostly Clear,72000.0,,FEW,25000.0,,,,,,
KRDR,07-20-2002,06:00,METAR,,180,4.0,,,9999.0,Cloud Development Not Observable,22.0,22.0,29.83,1010.2,,,,0,0,0,,,,,,,,,4/8 Partly Cloudy,72000.0,,SCT,25000.0,,,,,,
KRDR,07-20-2002,05:00,METAR,,150,4.0,,,9999.0,Cloud Development Not Observable,23.0,23.0,29.84,1010.6,,,,0,0,0,,,,,,,,,7/8 Mostly Cloudy,25000.0,,BKN,25000.0,,,,,,
KRDR,07-20-2002,04:00,METAR,,150,4.0,,,9999.0,Cloud Development Not Observable,23.0,22.0,29.85,1010.8,,,,0,0,0,,,,,,,,,7/8 Mostly Cloudy,25000.0,,BKN,25000.0,,,,,,
KRDR,07-20-2002,03:00,METAR,,180,3.0,,,9999.0,Cloud Development Not Observable,24.0,22.0,29.85,1010.8,,,,0,0,0,,,,,,,,,7/8 Mostly Cloudy,25000.0,,BKN,25000.0,,,,,,
KRDR,07-20-2002,02:00,METAR,,150,4.0,,,9999.0,Cloud Development Not Observable,26.0,23.0,29.84,1010.6,,,,0,0,0,,,,,,,,,7/8 Mostly Cloudy,25000.0,,BKN,25000.0,,,,,,
KRDR,07-20-2002,01:00,METAR,,180,4.0,,,9999.0,Cloud Development Not Observable,27.0,23.0,29.85,1010.8,,,,0,0,0,,,,,,,,,7/8 Mostly Cloudy,25000.0,,BKN,25000.0,,,,,,
KRDR,07-20-2002,00:00,METAR,,180,6.0,,,9999.0,Cloud Development Not Observable,28.0,22.0,29.85,1010.9,,,,0,0,0,,,,,,,,,7/8 Mostly Cloudy,25000.0,,BKN,25000.0,,,,,,
KRDR,07-19-2002,23:00,METAR,,180,7.0,,,9999.0,Cloud Development Not Observable,29.0,23.0,29.86,1011.2,,,,0,0,0,,,,,,,,,7/8 Mostly Cloudy,25000.0,,FEW,4000.0,BKN,25000.0,,,,
KRDR,07-19-2002,22:00,METAR,,,6.0,,,9999.0,Cloud Development Not Observable,30.0,22.0,29.87,1011.7,,,,0,0,0,,,,,,,,,7/8 Mostly Cloudy,25000.0,,FEW,5000.0,BKN,25000.0,,,,
KRDR,07-19-2002,21:00,METAR,,,5.0,,,9999.0,Cloud Development Not Observable,29.0,22.0,29.87,1011.7,,,,0,0,0,,,,,,,,,7/8 Mostly Cloudy,25000.0,,FEW,5000.0,BKN,25000.0,,,,
KRDR,07-19-2002,19:00,METAR,,180,8.0,,,9999.0,Cloud Development Not Observable,29.0,22.0,29.90,1012.4,,,,0,0,0,,,,,,,,,2/8 Mostly Clear,72000.0,,FEW,3000.0,,,,,,
KRDR,07-19-2002,18:00,METAR,,180,8.0,,,9999.0,Cloud Development Not Observable,28.0,22.0,29.90,1012.4,,,,0,0,0,,,,,,,,,2/8 Mostly Clear,72000.0,,FEW,3000.0,,,,,,
KRDR,07-19-2002,17:00,METAR,,150,6.0,,,9999.0,Cloud Development Not Observable,27.0,23.0,29.89,1012.0,,,,0,0,0,,,,,,,,,2/8 Mostly Clear,72000.0,,FEW,3000.0,,,,,,
KRDR,07-19-2002,16:00,METAR,,190,6.0,,,9999.0,Cloud Development Not Observable,27.0,22.0,29.91,1012.7,,,,0,0,0,,,,,,,,,2/8 Mostly Clear,72000.0,,FEW,2500.0,,,,,,
KRDR,07-19-2002,15:00,METAR,,,4.0,,,9999.0,Cloud Development Not Observable,26.0,23.0,29.92,1013.0,,,,0,0,0,,,,,,,,,2/8 Mostly Clear,72000.0,,FEW,2500.0,,,,,,
KRDR,07-19-2002,14:00,METAR,,,3.0,,,9999.0,Cloud Development Not Observable,24.0,23.0,29.94,1013.8,,,,0,0,0,,,,,,,,,Clear,72000.0,,,73000.0,,,,,,
KRDR,07-19-2002,13:00,METAR,,,0.0,,,8000.0,Mist/Cloud Development Not Observable,21.0,21.0,29.95,1014.1,,,,10,0,0,,,,,,,,,2/8 Mostly Clear,72000.0,,FEW,25000.0,,,,,,
KRDR,07-19-2002,12:00,METAR,,,1.0,,,9999.0,Cloud Development Not Observable,19.0,19.0,29.94,1013.8,,,,0,0,0,,,,,,,,,2/8 Mostly Clear,72000.0,,FEW,25000.0,,,,,,
KRDR,07-19-2002,10:58,METAR,,220,3.0,,,9999.0,Mist/Cloud Development Not Observable,17.0,17.0,29.92,1013.3,,,,10,0,0,,,,,,,,,2/8 Mostly Clear,72000.0,,FEW,25000.0,,,,,,
KRDR,07-19-2002,10:00,METAR,,,2.0,,,9999.0,Mist/Cloud Development Not Observable,17.0,17.0,29.92,1013.3,,,,10,0,0,,,,,,,,,2/8 Mostly Clear,72000.0,,FEW,25000.0,,,,,,
KRDR,07-19-2002,09:00,METAR,,,2.0,,,9999.0,Cloud Development Not Observable,18.0,18.0,29.92,1013.3,,,,0,0,0,,,,,,,,,Clear,72000.0,,,73000.0,,,,,,
KRDR,07-19-2002,08:00,METAR,,,2.0,,,9999.0,Cloud Development Not Observable,19.0,19.0,29.91,1013.0,,,,0,0,0,,,,,,,,,Clear,72000.0,,,73000.0,,,,,,
KRDR,07-19-2002,07:00,METAR,,230,2.0,,,9999.0,Cloud Development Not Observable,19.0,19.0,29.91,1012.8,,,,0,0,0,,,,,,,,,Clear,72000.0,,,73000.0,,,,,,
KRDR,07-19-2002,06:00,METAR,,240,2.0,,,9999.0,Cloud Development Not Observable,19.0,19.0,29.91,1013.3,,,,0,0,0,,,,,,,,,Clear,72000.0,,,73000.0,,,,,,
KRDR,07-19-2002,05:00,METAR,,330,1.0,,,9999.0,Cloud Development Not Observable,21.0,20.0,29.92,1013.3,,,,0,0,0,,,,,,,,,Clear,72000.0,,,73000.0,,,,,,
KRDR,07-19-2002,04:00,METAR,,,1.0,,,9999.0,Cloud Development Not Observable,23.0,23.0,29.92,1013.3,,,,0,0,0,,,,,,,,,2/8 Mostly Clear,72000.0,,FEW,20000.0,,,,,,
KRDR,07-19-2002,03:00,METAR,,190,1.0,,,9999.0,Cloud Development Not Observable,24.0,22.0,29.93,1013.7,,,,0,0,0,,,,,,,,,4/8 Partly Cloudy,72000.0,,FEW,3000.0,SCT,20000.0,,,,
KRDR,07-19-2002,02:00,METAR,,210,2.0,,,9999.0,Cloud Development Not Observable,25.0,21.0,29.93,1013.7,,,,0,0,0,,,,,,,,,4/8 Partly Cloudy,72000.0,,SCT,3000.0,SCT,20000.0,,,,
KRDR,07-19-2002,01:00,METAR,,150,4.0,,,9999.0,Cloud Development Not Observable,27.0,20.0,29.93,1013.6,,,,0,0,0,,,,,,,,,4/8 Partly Cloudy,72000.0,,SCT,3000.0,SCT,20000.0,,,,
KRDR,07-19-2002,00:00,METAR,,,4.0,,,9999.0,Cloud Development Not Observable,28.0,19.0,29.94,1014.1,,,,0,0,0,,,,,,,,,4/8 Partly Cloudy,72000.0,,SCT,3000.0,,,,,,
KRDR,07-18-2002,23:00,METAR,,,6.0,,,9999.0,Cloud Development Not Observable,29.0,20.0,29.94,1014.1,,,,0,0,0,,,,,,,,,2/8 Mostly Clear,72000.0,,FEW,3000.0,FEW,20000.0,,,,
KRDR,07-18-2002,22:00,METAR,,,5.0,,,9999.0,Cloud Development Not Observable,29.0,19.0,29.93,1013.7,,,,0,0,0,,,,,,,,,2/8 Mostly Clear,72000.0,,FEW,3000.0,FEW,20000.0,,,,
KRDR,07-18-2002,21:00,METAR,,60,7.0,,,9999.0,Cloud Development Not Observable,28.0,19.0,29.94,1014.1,,,,0,0,0,,,,,,,,,2/8 Mostly Clear,72000.0,,FEW,3000.0,,,,,,
KRDR,07-18-2002,20:00,METAR,,70,8.0,,,9999.0,Cloud Development Not Observable,28.0,19.0,29.95,1014.2,,,,0,0,0,,,,,,,,,2/8 Mostly Clear,72000.0,,FEW,3000.0,,,,,,
KRDR,07-18-2002,19:00,METAR,,,3.0,,,9999.0,Cloud Development Not Observable,28.0,21.0,29.97,1014.8,,,,0,0,0,,,,,,,,,2/8 Mostly Clear,72000.0,,FEW,3000.0,,,,,,
KRDR,07-18-2002,18:00,METAR,,,2.0,,,9999.0,Cloud Development Not Observable,27.0,19.0,29.97,1014.9,,,,0,0,0,,,,,,,,,4/8 Partly Cloudy,72000.0,,SCT,3000.0,,,,,,
KRDR,07-18-2002,17:00,METAR,,,4.0,,,9999.0,Cloud Development Not Observable,26.0,20.0,29.99,1015.6,,,,0,0,0,,,,,,,,,4/8 Partly Cloudy,72000.0,,SCT,2500.0,,,,,,
KRDR,07-18-2002,16:00,METAR,,,6.0,,,9999.0,Cloud Development Not Observable,25.0,21.0,29.98,1015.3,,,,0,0,0,,,,,,,,,2/8 Mostly Clear,72000.0,,FEW,5900.0,,,,,,
KRDR,07-18-2002,15:00,METAR,,60,5.0,,,9999.0,Cloud Development Not Observable,23.0,21.0,29.99,1016.0,,,,0,0,0,,,,,,,,,2/8 Mostly Clear,72000.0,,FEW,5900.0,,,,,,
KRDR,07-18-2002,14:00,METAR,,50,6.0,,,9999.0,Cloud Development Not Observable,22.0,20.0,30.00,1016.0,,,,0,0,0,,,,,,,,,2/8 Mostly Clear,72000.0,,FEW,5900.0,,,,,,
KRDR,07-18-2002,13:00,METAR,,,1.0,,,9999.0,Cloud Development Not Observable,20.0,19.0,30.00,1016.0,,,,0,0,0,,,,,,,,,2/8 Mostly Clear,72000.0,,FEW,25000.0,,,,,,
KRDR,07-18-2002,12:00,METAR,,350,3.0,,,9999.0,Cloud Development Not Observable,17.0,17.0,30.01,1016.5,,,,0,0,0,,,,,,,,,4/8 Partly Cloudy,72000.0,,FEW,9900.0,SCT,25000.0,,,,
KRDR,07-18-2002,11:00,METAR,,340,2.0,,,9999.0,Cloud Development Not Observable,16.0,16.0,30.01,1016.6,,,,0,0,0,,,,,,,,,7/8 Mostly Cloudy,25000.0,,FEW,5000.0,FEW,9900.0,BKN,25000.0,,
KRDR,07-18-2002,10:00,METAR,,340,1.0,,,9999.0,Cloud Development Not Observable,17.0,17.0,30.00,1016.3,,,,0,0,0,,,,,,,,,7/8 Mostly Cloudy,25000.0,,SCT,9900.0,BKN,25000.0,,,,
KRDR,07-18-2002,09:00,METAR,,,1.0,,,9999.0,Cloud Development Not Observable,17.0,17.0,29.99,1016.0,,,,0,0,0,,,,,,,,,7/8 Mostly Cloudy,25000.0,,SCT,9900.0,BKN,25000.0,,,,
KRDR,07-18-2002,08:00,METAR,,300,2.0,,,9999.0,Cloud Development Not Observable,17.0,17.0,30.01,1016.5,,,,0,0,0,,,,,,,,,7/8 Mostly Cloudy,25000.0,,SCT,9900.0,BKN,25000.0,,,,
KRDR,07-18-2002,07:00,METAR,,140,4.0,,,9999.0,Cloud Development Not Observable,20.0,19.0,30.00,1016.2,,,,0,0,0,,,,,,,,,8/8 Overcast,10000.0,,FEW,4000.0,BKN,9900.0,OVC,25000.0,,
KRDR,07-18-2002,06:00,METAR,,,1.0,,,9999.0,Cloud Development Not Observable,20.0,19.0,30.00,1016.3,,,,0,0,0,,,,,,,,,8/8 Overcast,10000.0,,FEW,4000.0,BKN,9900.0,OVC,25000.0,,
KRDR,07-18-2002,05:00,METAR,,50,3.0,,,9999.0,Cloud Development Not Observable,20.0,19.0,30.01,1016.6,,,,0,0,0,,,,,,,,,8/8 Overcast,10000.0,,FEW,4000.0,BKN,9900.0,OVC,25000.0,,
KRDR,07-18-2002,04:00,METAR,,70,8.0,,,9999.0,Cloud Development Not Observable,20.0,18.0,30.04,1017.5,,,,0,0,0,,,,,,,,,8/8 Overcast,10000.0,,BKN,9900.0,OVC,25000.0,,,,
KRDR,07-18-2002,03:31,SPECI,,50,9.0,,,9999.0,Cloud Development Not Observable,19.0,18.0,30.05,,,,,0,0,0,,,,,,,,,8/8 Overcast,10000.0,,BKN,9900.0,OVC,25000.0,,,,
KRDR,07-18-2002,03:00,METAR,,60,9.0,,,9999.0,Light Rain Showers/Cloud Development Not Observable,20.0,18.0,30.05,1017.7,,,,80,0,0,,,,,,,,,8/8 Overcast,10000.0,,BKN,9900.0,OVC,25000.0,,,,
KRDR,07-18-2002,02:08,SPECI,,50,8.0,,,9999.0,Light Rain Showers/Cloud Development Not Observable,21.0,21.0,30.04,,,,,80,0,0,,,,,,,,,8/8 Overcast,10000.0,,BKN,9900.0,OVC,25000.0,,,,
KRDR,07-18-2002,02:00,METAR,,20,6.0,,,9999.0,Cloud Development Not Observable,21.0,21.0,30.05,1017.7,,,,0,0,0,,,,,,,,,8/8 Overcast,10000.0,,BKN,9900.0,OVC,25000.0,,,,
KRDR,07-18-2002,01:00,METAR,,30,6.0,,,9999.0,Cloud Development Not Observable,22.0,21.0,30.04,1017.4,,,,0,0,0,,,,,,,,,8/8 Overcast,10000.0,,BKN,9900.0,OVC,25000.0,,,,
KRDR,07-18-2002,00:00,METAR,,30,9.0,,,9999.0,Cloud Development Not Observable,21.0,20.0,30.02,1016.8,,,,0,0,0,,,,,,,,,8/8 Overcast,10000.0,,BKN,9900.0,OVC,25000.0,,,,
KRDR,07-17-2002,23:44,SPECI,,30,11.0,,,9999.0,Cloud Development Not Observable,21.0,20.0,30.02,,,,,0,0,0,,,,,,,,,8/8 Overcast,10000.0,,BKN,9900.0,OVC,25000.0,,,,
KRDR,07-17-2002,23:00,METAR,,340,14.0,,,9999.0,Light Rain Showers/Cloud Development Not Observable,21.0,21.0,30.04,1017.1,,,,80,0,0,,,,,,,,,8/8 Overcast,10000.0,,FEW,5900.0,BKN,9900.0,OVC,25000.0,,
KRDR,07-17-2002,22:05,SPECI,,10,14.0,,,9999.0,Light Rain Showers/Cloud Development Not Observable,22.0,21.0,30.03,,,,,80,0,0,,,,,,,,,8/8 Overcast,10000.0,,BKN,9900.0,OVC,25000.0,,,,
KRDR,07-17-2002,22:00,METAR,,30,7.0,,,9999.0,Cloud Development Not Observable,23.0,21.0,30.00,1016.0,,,,0,0,0,,,,,,,,,8/8 Overcast,10000.0,,BKN,9900.0,OVC,25000.0,,,,
KRDR,07-17-2002,21:32,SPECI,,50,7.0,,,9999.0,Cloud Development Not Observable,23.0,21.0,29.99,,,,,0,0,0,,,,,,,,,7/8 Mostly Cloudy,10000.0,,BKN,9900.0,BKN,25000.0,,,,
KRDR,07-17-2002,21:00,METAR,,60,7.0,,,9999.0,Light Rain Showers/Cloud Development Not Observable,22.0,20.0,29.99,1015.7,,,,80,0,0,,,,,,.03 IN,,,8/8 Overcast,10000.0,,BKN,9900.0,OVC,25000.0,,,,
KRDR,07-17-2002,20:00,METAR,,,1.0,,,9999.0,Light Rain Showers/Cloud Development Not Observable,22.0,20.0,30.06,1018.1,,,,80,0,0,,,,,,,,,7/8 Mostly Cloudy,10000.0,,BKN,9900.0,BKN,25000.0,,,,
KRDR,07-17-2002,19:22,SPECI,,290,7.0,,,9999.0,Light Rain Showers/Cloud Development Not Observable,23.0,21.0,30.06,,,,,80,0,0,,,,,,,,,7/8 Mostly Cloudy,10000.0,,BKN,9900.0,BKN,25000.0,,,,
KRDR,07-17-2002,19:00,METAR,,70,10.0,,,9999.0,Cloud Development Not Observable,23.0,20.0,29.98,1015.3,,,,0,0,0,,,,,,,,,8/8 Overcast,10000.0,,BKN,9900.0,OVC,25000.0,,,,
KRDR,07-17-2002,18:50,METAR,,60,9.0,,,9999.0,Cloud Development Not Observable,23.0,20.0,29.98,,,,,0,0,0,,,,,,,,,8/8 Overcast,10000.0,,BKN,9900.0,OVC,25000.0,,,,
KRDR,07-17-2002,18:00,METAR,,70,7.0,,,9999.0,Light Rain Showers/Cloud Development Not Observable,21.0,20.0,30.00,1016.0,,,,80,0,0,,,,,,,,,8/8 Overcast,10000.0,,BKN,9900.0,OVC,25000.0,,,,
KRDR,07-17-2002,17:20,METAR,,30,10.0,,,9999.0,Light Rain Showers/Cloud Development Not Observable,21.0,20.0,30.04,,,,,80,0,0,,,,,,,,,8/8 Overcast,10000.0,,BKN,9900.0,OVC,25000.0,,,,
KRDR,07-17-2002,17:00,METAR,,300,9.0,,,9999.0,Light Rain Showers/Cloud Development Not Observable,21.0,19.0,30.11,,,,,80,0,0,,,,,,,,,8/8 Overcast,10000.0,,BKN,9900.0,OVC,25000.0,,,,
KRDR,07-17-2002,16:55,METAR,,300,11.0,,,9999.0,Cloud Development Not Observable,21.0,19.0,30.11,1019.9,,,,0,0,0,,,,,,,,,8/8 Overcast,9000.0,,BKN,8900.0,OVC,25000.0,,,,
KRDR,07-17-2002,16:00,METAR,,280,4.0,,,9999.0,Cloud Development Not Observable,21.0,20.0,30.05,1017.7,,,,0,0,0,,,,,,,,,8/8 Overcast,9000.0,,BKN,8900.0,OVC,25000.0,,,,
KRDR,07-17-2002,15:30,METAR,,360,6.0,,,9999.0,Thunderstorm with Rain or Snow/Light Rain Showers/Cloud Development Not Observable,22.0,19.0,30.04,,,,,95,80,0,,,,,,,,,8/8 Overcast,8500.0,,FEW,4000.0,OVC,8400.0,,,,
KRDR,07-17-2002,15:18,SPECI,,310,5.0,,,9999.0,Thunderstorm with Rain or Snow/Light Rain Showers/Cloud Development Not Observable,22.0,19.0,30.05,,,,,95,80,0,,,,,,,,,8/8 Overcast,8500.0,,FEW,4000.0,BKN,8400.0,OVC,25000.0,,
KRDR,07-17-2002,15:00,METAR,,50,6.0,,,9999.0,Thunderstorm/Cloud Development Not Observable,26.0,19.0,30.01,1016.2,,,,17,0,0,,,,,,,,,8/8 Overcast,12000.0,,FEW,4000.0,BKN,12000.0,OVC,25000.0,,
KRDR,07-17-2002,13:00,METAR,,40,5.0,,,9999.0,Cloud Development Not Observable,22.0,19.0,29.99,1015.4,,,,0,0,0,,,,,,,,,7/8 Mostly Cloudy,12000.0,,FEW,4000.0,SCT,12000.0,BKN,25000.0,,
KRDR,07-17-2002,12:28,SPECI,,360,6.0,,,9999.0,Cloud Development Not Observable,22.0,20.0,29.99,,,,,0,0,0,,,,,,,,,7/8 Mostly Cloudy,12000.0,,FEW,4000.0,BKN,12000.0,BKN,25000.0,,
KRDR,07-17-2002,12:00,METAR,,350,5.0,,,9999.0,Cloud Development Not Observable,20.0,20.0,29.99,1015.5,,,,0,0,0,,,,,,,,,7/8 Mostly Cloudy,12000.0,,FEW,4000.0,BKN,12000.0,BKN,25000.0,,
KRDR,07-17-2002,11:00,METAR,,350,4.0,,,9999.0,Cloud Development Not Observable,20.0,20.0,29.97,1014.7,,,,0,0,0,,,,,,,,,7/8 Mostly Cloudy,12000.0,,FEW,5000.0,SCT,12000.0,BKN,25000.0,,
KRDR,07-17-2002,10:00,METAR,,340,4.0,,,9999.0,Cloud Development Not Observable,20.0,19.0,29.95,1014.2,,,,0,0,0,,,,,,,,,4/8 Partly Cloudy,72000.0,,FEW,12000.0,SCT,25000.0,,,,
KRDR,07-17-2002,09:00,METAR,,260,2.0,,,9999.0,Cloud Development Not Observable,20.0,20.0,29.95,1014.2,,,,0,0,0,,,,,,,,,4/8 Partly Cloudy,72000.0,,FEW,12000.0,SCT,25000.0,,,,
KRDR,07-17-2002,08:00,METAR,,350,6.0,,,9999.0,Cloud Development Not Observable,21.0,20.0,29.95,1014.2,,,,0,0,0,,,,,,,,,7/8 Mostly Cloudy,25000.0,,SCT,12000.0,BKN,25000.0,,,,
KRDR,07-17-2002,07:00,METAR,,340,4.0,,,9999.0,Cloud Development Not Observable,21.0,20.0,29.95,1014.3,,,,0,0,0,,,,,,,,,4/8 Partly Cloudy,72000.0,,FEW,2500.0,SCT,12000.0,SCT,25000.0,,
KRDR,07-17-2002,06:00,METAR,,350,5.0,,,9999.0,Cloud Development Not Observable,22.0,20.0,29.94,1013.7,,,,0,0,0,,,,,,,,,4/8 Partly Cloudy,72000.0,,FEW,2500.0,SCT,25000.0,,,,
KRDR,07-17-2002,05:00,METAR,,350,5.0,,,9999.0,Cloud Development Not Observable,22.0,20.0,29.93,1013.4,,,,0,0,0,,,,,,,,,4/8 Partly Cloudy,72000.0,,FEW,15000.0,SCT,25000.0,,,,
KRDR,07-17-2002,04:00,METAR,,340,5.0,,,9999.0,Cloud Development Not Observable,23.0,20.0,29.93,1013.4,,,,0,0,0,,,,,,,,,4/8 Partly Cloudy,72000.0,,FEW,15000.0,SCT,25000.0,,,,
KRDR,07-17-2002,03:00,METAR,,350,5.0,,,9999.0,Cloud Development Not Observable,24.0,21.0,29.93,1013.4,,,,0,0,0,,,,,,,,,4/8 Partly Cloudy,72000.0,,FEW,2500.0,FEW,3500.0,SCT,15000.0,SCT,25000.0
KRDR,07-17-2002,02:00,METAR,,360,7.0,,,9999.0,Cloud Development Not Observable,27.0,23.0,29.92,1013.2,,,,0,0,0,,,,,,,,,7/8 Mostly Cloudy,15000.0,,FEW,3500.0,SCT,15000.0,BKN,25000.0,,
KRDR,07-17-2002,01:00,METAR,,20,9.0,,,9999.0,Cloud Development Not Observable,30.0,26.0,29.91,1012.6,,,,0,0,0,,,,,,,,,7/8 Mostly Cloudy,25000.0,,SCT,15000.0,BKN,25000.0,,,,
KRDR,07-17-2002,00:00,METAR,,20,9.0,,,9999.0,Cloud Development Not Observable,30.0,25.0,29.89,1011.9,,,,0,0,0,,,,,,,,,7/8 Mostly Cloudy,15000.0,,FEW,3500.0,SCT,15000.0,BKN,25000.0,,
KRDR,07-16-2002,23:00,METAR,,30,7.0,,,9999.0,Cloud Development Not Observable,32.0,25.0,29.87,1011.6,,,,0,0,0,,,,,,,,,7/8 Mostly Cloudy,25000.0,,FEW,3500.0,FEW,15000.0,BKN,25000.0,,
KRDR,07-16-2002,22:00,METAR,,,6.0,,,9999.0,Cloud Development Not Observable,32.0,25.0,29.87,1011.4,,,,0,0,0,,,,,,,,,7/8 Mostly Cloudy,25000.0,,FEW,3500.0,FEW,15000.0,BKN,25000.0,,
KRDR,07-16-2002,21:00,METAR,,,4.0,,,9999.0,Cloud Development Not Observable,32.0,24.0,29.86,1011.2,,,,0,0,0,,,,,,,,,7/8 Mostly Cloudy,25000.0,,FEW,15000.0,BKN,25000.0,,,,
KRDR,07-16-2002,20:00,METAR,,,6.0,,,9999.0,Cloud Development Not Observable,31.0,24.0,29.86,1011.0,,,,0,0,0,,,,,,,,,7/8 Mostly Cloudy,25000.0,,FEW,15000.0,BKN,25000.0,BKN,30000.0,,
KRDR,07-16-2002,19:00,METAR,,,3.0,,,9999.0,Cloud Development Not Observable,30.0,24.0,29.86,1011.0,,,,0,0,0,,,,,,,,,7/8 Mostly Cloudy,25000.0,,FEW,15000.0,SCT,25000.0,BKN,30000.0,,
KRDR,07-16-2002,18:00,METAR,,60,4.0,,,9999.0,Cloud Development Not Observable,30.0,24.0,29.86,1011.0,,,,0,0,0,,,,,,,,,7/8 Mostly Cloudy,25000.0,,FEW,15000.0,BKN,25000.0,,,,
KRDR,07-16-2002,17:00,METAR,,350,4.0,,,9999.0,Cloud Development Not Observable,28.0,23.0,29.86,1011.1,,,,0,0,0,,,,,,,,,7/8 Mostly Cloudy,25000.0,,BKN,25000.0,,,,,,
KRDR,07-16-2002,16:00,METAR,,330,4.0,,,9999.0,Cloud Development Not Observable,27.0,21.0,29.86,1011.1,,,,0,0,0,,,,,,,,,7/8 Mostly Cloudy,25000.0,,BKN,25000.0,,,,,,
KRDR,07-16-2002,15:00,METAR,,240,4.0,,,9999.0,Cloud Development Not Observable,25.0,20.0,29.85,1010.7,,,,0,0,0,,,,,,,,,7/8 Mostly Cloudy,25000.0,,BKN,25000.0,,,,,,
KRDR,07-16-2002,14:00,METAR,,240,7.0,,,9999.0,Cloud Development Not Observable,24.0,19.0,29.85,1010.7,,,,0,0,0,,,,,,,,,7/8 Mostly Cloudy,25000.0,,BKN,25000.0,,,,,,
KRDR,07-16-2002,13:00,METAR,,220,4.0,,,9999.0,Cloud Development Not Observable,23.0,19.0,29.84,1010.4,,,,0,0,0,,,,,,,,,7/8 Mostly Cloudy,25000.0,,BKN,25000.0,,,,,,
KRDR,07-16-2002,12:00,METAR,,200,6.0,,,9999.0,Cloud Development Not Observable,22.0,19.0,29.81,1009.3,,,,0,0,0,,,,,,,,,4/8 Partly Cloudy,72000.0,,FEW,7900.0,SCT,25000.0,,,,
KRDR,07-16-2002,11:00,METAR,,180,4.0,,,9999.0,Mist/Cloud Development Not Observable,21.0,19.0,29.81,1009.3,,,,10,0,0,,,,,,,,,2/8 Mostly Clear,72000.0,,FEW,7900.0,FEW,25000.0,,,,
KRDR,07-16-2002,10:00,METAR,,180,3.0,,,9999.0,Cloud Development Not Observable,21.0,19.0,29.82,1009.7,,,,0,0,0,,,,,,,,,2/8 Mostly Clear,72000.0,,FEW,7900.0,,,,,,
KRDR,07-16-2002,09:00,METAR,,190,3.0,,,9999.0,Cloud Development Not Observable,21.0,19.0,29.81,1009.3,,,,0,0,0,,,,,,,,,4/8 Partly Cloudy,72000.0,,SCT,7900.0,,,,,,
KRDR,07-16-2002,08:00,METAR,,180,4.0,,,9999.0,Cloud Development Not Observable,23.0,20.0,29.80,1009.1,,,,0,0,0,,,,,,,,,4/8 Partly Cloudy,72000.0,,SCT,5900.0,,,,,,
KRDR,07-16-2002,07:00,METAR,,180,4.0,,,9999.0,Cloud Development Not Observable,24.0,21.0,29.81,1009.3,,,,0,0,0,,,,,,,,,2/8 Mostly Clear,72000.0,,FEW,25000.0,,,,,,
KRDR,07-16-2002,06:00,METAR,,180,5.0,,,9999.0,Cloud Development Not Observable,24.0,21.0,29.80,1009.1,,,,0,0,0,,,,,,,,,2/8 Mostly Clear,72000.0,,FEW,25000.0,,,,,,
KRDR,07-16-2002,05:00,METAR,,160,5.0,,,9999.0,Cloud Development Not Observable,25.0,22.0,29.80,1009.0,,,,0,0,0,,,,,,,,,2/8 Mostly Clear,72000.0,,FEW,25000.0,,,,,,
KRDR,07-16-2002,04:00,METAR,,160,5.0,,,9999.0,Cloud Development Not Observable,26.0,22.0,29.80,1009.1,,,,0,0,0,,,,,,,,,2/8 Mostly Clear,72000.0,,FEW,25000.0,,,,,,
KRDR,07-16-2002,03:00,METAR,,140,7.0,,,9999.0,Cloud Development Not Observable,27.0,23.0,29.80,1009.0,,,,0,0,0,,,,,,,,,2/8 Mostly Clear,72000.0,,FEW,25000.0,,,,,,
KRDR,07-16-2002,02:00,METAR,,150,7.0,,,9999.0,Cloud Development Not Observable,28.0,24.0,29.80,1009.2,,,,0,0,0,,,,,,,,,2/8 Mostly Clear,72000.0,,SCT,2000.0,,,,,,
KRDR,07-16-2002,01:00,METAR,,150,8.0,,,9999.0,Cloud Development Not Observable,30.0,24.0,29.81,1009.4,,,,0,0,0,,,,,,,,,2/8 Mostly Clear,72000.0,,FEW,25000.0,,,,,,
KRDR,07-16-2002,00:00,METAR,,150,7.0,,,9999.0,Cloud Development Not Observable,31.0,25.0,29.82,1009.7,,,,0,0,0,,,,,,,,,2/8 Mostly Clear,72000.0,,FEW,25000.0,,,,,,
KRDR,07-15-2002,23:00,METAR,,180,7.0,,,9999.0,Cloud Development Not Observable,32.0,23.0,29.82,1009.9,,,,0,0,0,,,,,,,,,2/8 Mostly Clear,72000.0,,FEW,25000.0,,,,,,
KRDR,07-15-2002,22:00,METAR,,180,7.0,,,9999.0,Cloud Development Not Observable,32.0,23.0,29.83,1010.2,,,,0,0,0,,,,,,,,,2/8 Mostly Clear,72000.0,,FEW,25000.0,,,,,,
KRDR,07-15-2002,21:00,METAR,,170,9.0,,,9999.0,Cloud Development Not Observable,32.0,23.0,29.84,1010.4,,,,0,0,0,,,,,,,,,2/8 Mostly Clear,72000.0,,FEW,25000.0,,,,,,
KRDR,07-15-2002,20:00,METAR,,160,9.0,,,9999.0,Cloud Development Not Observable,31.0,24.0,29.84,1010.4,,,,0,0,0,,,,,,,,,2/8 Mostly Clear,72000.0,,FEW,9900.0,FEW,25000.0,,,,
KRDR,07-15-2002,19:00,METAR,,160,8.0,,,9999.0,Cloud Development Not Observable,30.0,23.0,29.84,1010.4,,,,0,0,0,,,,,,,,,2/8 Mostly Clear,72000.0,,FEW,25000.0,,,,,,
KRDR,07-15-2002,18:00,METAR,,170,8.0,,,9999.0,Cloud Development Not Observable,29.0,22.0,29.85,1010.8,,,,0,0,0,,,,,,,,,2/8 Mostly Clear,72000.0,,FEW,25000.0,,,,,,
KRDR,07-15-2002,17:00,METAR,,180,7.0,,,9999.0,Cloud Development Not Observable,28.0,21.0,29.86,1011.1,,,,0,0,0,,,,,,,,,2/8 Mostly Clear,72000.0,,FEW,25000.0,,,,,,
KRDR,07-15-2002,16:00,METAR,Normal,190,7.0,,,1900.0,Cloud Development Not Observable,27.0,21.0,29.88,1011.8,,,,0,0,0,,,,,,,,,,72000.0,,FEW,25000.0,,,,,,
KRDR,07-15-2002,15:00,METAR,,180,8.0,,,9999.0,Cloud Development Not Observable,25.0,20.0,29.87,1011.5,,,,0,0,0,,,,,,,,,Clear,72000.0,,,73000.0,,,,,,
KRDR,07-15-2002,14:00,METAR,,190,8.0,,,9999.0,Cloud Development Not Observable,23.0,19.0,29.89,1012.0,,,,0,0,0,,,,,,,,,Clear,72000.0,,,73000.0,,,,,,
KRDR,07-15-2002,13:00,METAR,,170,7.0,,,9999.0,Cloud Development Not Observable,22.0,19.0,29.90,1012.3,,,,0,0,0,,,,,,,,,Clear,72000.0,,,73000.0,,,,,,
KRDR,07-15-2002,12:00,METAR,Normal,150,5.0,,,1500.0,Cloud Development Not Observable,20.0,18.0,29.90,1012.6,,,,0,0,0,,,,,,,,,,72000.0,,,,,,,,,
KRDR,07-15-2002,11:00,METAR,,180,3.0,,,9999.0,Cloud Development Not Observable,19.0,18.0,29.91,1012.9,,,,0,0,0,,,,,,,,,Clear,72000.0,,,73000.0,,,,,,
KRDR,07-15-2002,10:00,METAR,Normal,180,4.0,,,1800.0,Cloud Development Not Observable,19.0,19.0,29.91,1012.9,,,,0,0,0,,,,,,,,,,72000.0,,,,,,,,,
KRDR,07-15-2002,09:00,METAR,Normal,190,3.0,,,1900.0,Cloud Development Not Observable,20.0,19.0,29.91,1012.7,,,,0,0,0,,,,,,,,,,72000.0,,,,,,,,,
KRDR,07-15-2002,08:00,METAR,Normal,170,6.0,,,1700.0,Cloud Development Not Observable,21.0,19.0,29.89,1012.1,,,,0,0,0,,,,,,,,,,72000.0,,,,,,,,,
KRDR,07-15-2002,07:00,METAR,,170,5.0,,,9999.0,Cloud Development Not Observable,22.0,20.0,29.89,1012.1,,,,0,0,0,,,,,,,,,2/8 Mostly Clear,72000.0,,FEW,25000.0,,,,,,
KRDR,07-15-2002,06:00,METAR,,160,6.0,,,9999.0,Cloud Development Not Observable,22.0,20.0,29.91,1012.7,,,,0,0,0,,,,,,,,,2/8 Mostly Clear,72000.0,,FEW,25000.0,,,,,,
KRDR,07-15-2002,05:00,METAR,,140,6.0,,,9999.0,Cloud Development Not Observable,23.0,21.0,29.91,1012.9,,,,0,0,0,,,,,,,,,Clear,72000.0,,,73000.0,,,,,,
KRDR,07-15-2002,04:00,METAR,Normal,150,6.0,,,1500.0,Cloud Development Not Observable,24.0,22.0,29.91,1013.0,,,,0,0,0,,,,,,,,,,72000.0,,FEW,20000.0,,,,,,
KRDR,07-15-2002,03:00,METAR,Normal,140,8.0,,,1400.0,Cloud Development Not Observable,25.0,22.0,29.92,1013.0,,,,0,0,0,,,,,,,,,,72000.0,,FEW,20000.0,,,,,,
KRDR,07-15-2002,02:00,METAR,,140,7.0,,,9999.0,Cloud Development Not Observable,26.0,23.0,29.91,1012.9,,,,0,0,0,,,,,,,,,2/8 Mostly Clear,72000.0,,FEW,20000.0,,,,,,
KRDR,07-15-2002,01:00,METAR,,140,7.0,,,9999.0,Cloud Development Not Observable,28.0,23.0,29.92,1013.3,,,,0,0,0,,,,,,,,,2/8 Mostly Clear,72000.0,,FEW,20000.0,,,,,,
KRDR,07-15-2002,00:00,METAR,,150,9.0,,,9999.0,Cloud Development Not Observable,29.0,23.0,29.92,1013.3,,,,0,0,0,,,,,,,,,2/8 Mostly Clear,72000.0,,FEW,5000.0,FEW,20000.0,,,,
KRDR,07-14-2002,23:00,METAR,,180,6.0,,,9999.0,Cloud Development Not Observable,30.0,22.0,29.93,1013.5,,,,0,0,0,,,,,,,,,2/8 Mostly Clear,72000.0,,FEW,5000.0,FEW,20000.0,,,,
KRDR,07-14-2002,22:00,METAR,,170,7.0,,,9999.0,Cloud Development Not Observable,30.0,22.0,29.92,1013.3,,,,0,0,0,,,,,,,,,2/8 Mostly Clear,72000.0,,FEW,5000.0,FEW,20000.0,,,,
KRDR,07-14-2002,21:00,METAR,,170,7.0,,,9999.0,Cloud Development Not Observable,30.0,22.0,29.93,1014.3,,,,0,0,0,,,,,,,,,2/8 Mostly Clear,72000.0,,FEW,5000.0,,,,,,
KRDR,07-14-2002,20:00,METAR,,130,9.0,,,9999.0,Cloud Development Not Observable,30.0,21.0,29.95,1014.3,,,,0,0,0,,,,,,,,,Clear,72000.0,,,73000.0,,,,,,
KRDR,07-14-2002,19:00,METAR,,,5.0,,,9999.0,Cloud Development Not Observable,30.0,21.0,29.95,1014.6,,,,0,0,0,,,,,,,,,2/8 Mostly Clear,72000.0,,FEW,25000.0,,,,,,
KRDR,07-14-2002,18:00,METAR,,140,7.0,,,9999.0,Cloud Development Not Observable,29.0,21.0,29.96,1014.7,,,,0,0,0,,,,,,,,,2/8 Mostly Clear,72000.0,,FEW,25000.0,,,,,,
KRDR,07-14-2002,16:00,METAR,,,4.0,,,9999.0,Cloud Development Not Observable,27.0,21.0,29.97,1015.0,,,,0,0,0,,,,,,,,,2/8 Mostly Clear,72000.0,,FEW,25000.0,,,,,,
KRDR,07-14-2002,15:00,METAR,,,3.0,,,9999.0,Cloud Development Not Observable,25.0,20.0,29.97,1015.1,,,,0,0,0,,,,,,,,,4/8 Partly Cloudy,72000.0,,SCT,25000.0,,,,,,
KRDR,07-14-2002,14:00,METAR,,210,5.0,,,9999.0,Cloud Development Not Observable,23.0,19.0,29.96,1014.7,,,,0,0,0,,,,,,,,,4/8 Partly Cloudy,72000.0,,SCT,25000.0,,,,,,
KRDR,07-14-2002,13:00,METAR,,200,5.0,,,9999.0,Cloud Development Not Observable,21.0,19.0,29.96,1014.7,,,,0,0,0,,,,,,,,,4/8 Partly Cloudy,72000.0,,SCT,25000.0,,,,,,
KRDR,07-14-2002,12:00,METAR,,200,3.0,,,9999.0,Cloud Development Not Observable,19.0,18.0,29.96,1014.7,,,,0,0,0,,,,,,,,,4/8 Partly Cloudy,72000.0,,SCT,25000.0,,,,,,
KRDR,07-14-2002,11:00,METAR,,190,4.0,,,9999.0,Cloud Development Not Observable,17.0,17.0,29.94,1014.0,,,,0,0,0,,,,,,,,,7/8 Mostly Cloudy,25000.0,,BKN,25000.0,,,,,,
KRDR,07-14-2002,10:00,METAR,,200,4.0,,,9999.0,Cloud Development Not Observable,19.0,18.0,29.94,1014.0,,,,0,0,0,,,,,,,,,Clear,72000.0,,,73000.0,,,,,,
KRDR,07-14-2002,09:00,METAR,,220,7.0,,,9999.0,Cloud Development Not Observable,20.0,18.0,29.94,1013.9,,,,0,0,0,,,,,,,,,Clear,72000.0,,,73000.0,,,,,,
KRDR,07-14-2002,08:00,METAR,,210,6.0,,,9999.0,Cloud Development Not Observable,20.0,18.0,29.94,1013.9,,,,0,0,0,,,,,,,,,Clear,72000.0,,,73000.0,,,,,,
KRDR,07-14-2002,07:00,METAR,,220,7.0,,,9999.0,Cloud Development Not Observable,21.0,19.0,29.93,1013.6,,,,0,0,0,,,,,,,,,Clear,72000.0,,,73000.0,,,,,,
KRDR,07-14-2002,06:00,METAR,,200,5.0,,,9999.0,Cloud Development Not Observable,20.0,19.0,29.93,1013.6,,,,0,0,0,,,,,,,,,Clear,72000.0,,,73000.0,,,,,,
KRDR,07-14-2002,05:00,METAR,,200,5.0,,,9999.0,Cloud Development Not Observable,21.0,20.0,29.93,1013.4,,,,0,0,0,,,,,,,,,Clear,72000.0,,,73000.0,,,,,,
KRDR,07-14-2002,04:00,METAR,,200,4.0,,,9999.0,Cloud Development Not Observable,21.0,20.0,29.93,1013.7,,,,0,0,0,,,,,,,,,2/8 Mostly Clear,72000.0,,FEW,20000.0,,,,,,
KRDR,07-14-2002,03:00,METAR,,180,3.0,,,9999.0,Cloud Development Not Observable,22.0,20.0,29.93,1013.7,,,,0,0,0,,,,,,,,,2/8 Mostly Clear,72000.0,,FEW,20000.0,,,,,,
KRDR,07-14-2002,02:00,METAR,,180,4.0,,,9999.0,Cloud Development Not Observable,25.0,20.0,29.92,1013.3,,,,0,0,0,,,,,,,,,2/8 Mostly Clear,72000.0,,FEW,20000.0,,,,,,
KRDR,07-14-2002,01:00,METAR,,190,5.0,,,9999.0,Cloud Development Not Observable,27.0,20.0,29.92,1013.3,,,,0,0,0,,,,,,,,,2/8 Mostly Clear,72000.0,,FEW,20000.0,,,,,,
KRDR,07-14-2002,00:00,METAR,,190,8.0,,,9999.0,Cloud Development Not Observable,29.0,20.0,29.92,1013.3,,,,0,0,0,,,,,,,,,2/8 Mostly Clear,72000.0,,FEW,5000.0,FEW,20000.0,,,,
KRDR,07-13-2002,23:00,METAR,,190,9.0,,,9999.0,Cloud Development Not Observable,29.0,19.0,29.91,1013.0,,,,0,0,0,,,,,,,,,2/8 Mostly Clear,72000.0,,FEW,5000.0,,,,,,
KRDR,07-13-2002,22:00,METAR,,190,7.0,,,9999.0,Cloud Development Not Observable,30.0,19.0,29.93,1013.7,,,,0,0,0,,,,,,,,,4/8 Partly Cloudy,72000.0,,SCT,5000.0,,,,,,
KRDR,07-13-2002,21:00,METAR,,180,7.0,,,9999.0,Cloud Development Not Observable,30.0,20.0,29.94,1014.0,,,,0,0,0,,,,,,,,,4/8 Partly Cloudy,72000.0,,SCT,5000.0,,,,,,
KRDR,07-13-2002,20:00,METAR,,190,9.0,,,9999.0,Cloud Development Not Observable,30.0,20.0,29.95,1014.4,,,,0,0,0,,,,,,,,,2/8 Mostly Clear,72000.0,,FEW,5000.0,,,,,,
KRDR,07-13-2002,19:00,METAR,,210,9.0,,,9999.0,Cloud Development Not Observable,29.0,20.0,29.95,1014.4,,,,0,0,0,,,,,,,,,2/8 Mostly Clear,72000.0,,FEW,5000.0,,,,,,
KRDR,07-13-2002,18:00,METAR,,,6.0,,,9999.0,Cloud Development Not Observable,28.0,21.0,29.96,1014.7,,,,0,0,0,,,,,,,,,2/8 Mostly Clear,72000.0,,FEW,5000.0,FEW,25000.0,,,,
KRDR,07-13-2002,17:00,METAR,,150,5.0,,,9999.0,Cloud Development Not Observable,27.0,20.0,29.97,1015.1,,,,0,0,0,,,,,,,,,2/8 Mostly Clear,72000.0,,FEW,25000.0,,,,,,
KRDR,07-13-2002,16:00,METAR,,200,5.0,,,9999.0,Cloud Development Not Observable,26.0,19.0,29.97,1015.4,,,,0,0,0,,,,,,,,,2/8 Mostly Clear,72000.0,,FEW,25000.0,,,,,,
KRDR,07-13-2002,15:00,METAR,,,6.0,,,9999.0,Cloud Development Not Observable,25.0,18.0,29.98,1015.4,,,,0,0,0,,,,,,,,,2/8 Mostly Clear,72000.0,,FEW,25000.0,,,,,,
KRDR,07-13-2002,14:00,METAR,,,4.0,,,9999.0,Cloud Development Not Observable,22.0,18.0,29.99,1015.8,,,,0,0,0,,,,,,,,,2/8 Mostly Clear,72000.0,,FEW,5900.0,FEW,25000.0,,,,
KRDR,07-13-2002,13:00,METAR,,210,4.0,,,9999.0,Cloud Development Not Observable,20.0,18.0,29.99,1015.8,,,,0,0,0,,,,,,,,,4/8 Partly Cloudy,72000.0,,SCT,5900.0,SCT,25000.0,,,,
KRDR,07-13-2002,12:00,METAR,,200,4.0,,,9999.0,Cloud Development Not Observable,18.0,17.0,29.99,1015.8,,,,0,0,0,,,,,,,,,4/8 Partly Cloudy,72000.0,,SCT,5900.0,SCT,25000.0,,,,
KRDR,07-13-2002,11:00,METAR,,160,3.0,,,9999.0,Cloud Development Not Observable,17.0,16.0,29.98,1015.3,,,,0,0,0,,,,,,,,,7/8 Mostly Cloudy,6000.0,,SCT,3500.0,BKN,5900.0,BKN,25000.0,,
KRDR,07-13-2002,10:00,METAR,,200,4.0,,,9999.0,Cloud Development Not Observable,17.0,16.0,29.98,1015.5,,,,0,0,0,,,,,,,,,2/8 Mostly Clear,72000.0,,FEW,25000.0,,,,,,
KRDR,07-13-2002,09:00,METAR,,210,4.0,,,9999.0,Cloud Development Not Observable,17.0,16.0,29.98,1015.5,,,,0,0,0,,,,,,,,,Clear,72000.0,,,73000.0,,,,,,
KRDR,07-13-2002,08:00,METAR,,200,4.0,,,9999.0,Cloud Development Not Observable,17.0,17.0,29.99,1015.6,,,,0,0,0,,,,,,,,,Clear,72000.0,,,73000.0,,,,,,
KRDR,07-13-2002,07:00,METAR,,200,4.0,,,9999.0,Cloud Development Not Observable,17.0,17.0,29.98,1015.5,,,,0,0,0,,,,,,,,,Clear,72000.0,,,73000.0,,,,,,
KRDR,07-13-2002,06:00,METAR,,200,4.0,,,9999.0,Cloud Development Not Observable,18.0,17.0,29.99,1015.8,,,,0,0,0,,,,,,,,,Clear,72000.0,,,73000.0,,,,,,
KRDR,07-13-2002,05:00,METAR,,170,3.0,,,9999.0,Cloud Development Not Observable,19.0,18.0,29.99,1015.6,,,,0,0,0,,,,,,,,,Clear,72000.0,,,73000.0,,,,,,
KRDR,07-13-2002,04:00,METAR,,160,4.0,,,9999.0,Cloud Development Not Observable,20.0,18.0,29.99,1015.8,,,,0,0,0,,,,,,,,,2/8 Mostly Clear,72000.0,,FEW,20000.0,,,,,,
KRDR,07-13-2002,03:00,METAR,,170,4.0,,,9999.0,Cloud Development Not Observable,21.0,19.0,29.99,1015.7,,,,0,0,0,,,,,,,,,2/8 Mostly Clear,72000.0,,FEW,5000.0,FEW,20000.0,,,,
KRDR,07-13-2002,02:00,METAR,,180,4.0,,,9999.0,Cloud Development Not Observable,23.0,18.0,29.99,1015.9,,,,0,0,0,,,,,,,,,2/8 Mostly Clear,72000.0,,FEW,5000.0,FEW,20000.0,,,,
KRDR,07-13-2002,01:01,SPECI,,190,9.0,,,9999.0,Cloud Development Not Observable,,,,,,,,0,0,0,,,,,,,,,2/8 Mostly Clear,72000.0,,FEW,20000.0,,,,,,
KRDR,07-13-2002,01:00,METAR,,190,6.0,,,9999.0,Cloud Development Not Observable,25.0,18.0,30.00,1016.0,,,,0,0,0,,,,,,,,,2/8 Mostly Clear,72000.0,,FEW,5000.0,FEW,20000.0,,,,
KRDR,07-13-2002,00:00,METAR,,200,9.0,,,9999.0,Cloud Development Not Observable,26.0,17.0,30.00,1016.2,,,,0,0,0,,,,,,,,,4/8 Partly Cloudy,72000.0,,FEW,4500.0,SCT,20000.0,,,,
KRDR,07-12-2002,23:00,METAR,,210,10.0,,,9999.0,Cloud Development Not Observable,26.0,17.0,30.01,1016.4,,,,0,0,0,,,,,,,,,4/8 Partly Cloudy,72000.0,,SCT,4500.0,,,,,,
KRDR,07-12-2002,22:00,METAR,,200,8.0,,,9999.0,Cloud Development Not Observable,26.0,17.0,30.01,1016.6,,,,0,0,0,,,,,,,,,7/8 Mostly Cloudy,4400.0,,BKN,4500.0,,,,,,
KRDR,07-12-2002,21:00,METAR,,200,8.0,,,9999.0,Cloud Development Not Observable,27.0,18.0,30.04,1017.4,,,,0,0,0,,,,,,,,,7/8 Mostly Cloudy,4900.0,,FEW,3500.0,BKN,5000.0,,,,
KRDR,07-12-2002,20:00,METAR,,210,8.0,,,9999.0,Cloud Development Not Observable,27.0,17.0,30.05,1018.0,,,,0,0,0,,,,,,,,,7/8 Mostly Cloudy,4900.0,,SCT,3500.0,BKN,5000.0,BKN,20000.0,,
KRDR,07-12-2002,19:00,METAR,,220,7.0,,,9999.0,Cloud Development Not Observable,26.0,17.0,30.05,1018.0,,,,0,0,0,,,,,,,,,7/8 Mostly Cloudy,4900.0,,SCT,3000.0,BKN,5000.0,BKN,20000.0,,
KRDR,07-12-2002,18:00,METAR,,200,8.0,,,9999.0,Cloud Development Not Observable,26.0,17.0,30.06,1018.3,,,,0,0,0,,,,,,,,,7/8 Mostly Cloudy,4900.0,,SCT,3000.0,BKN,5000.0,BKN,20000.0,,
KRDR,07-12-2002,17:00,METAR,,250,9.0,,,9999.0,Cloud Development Not Observable,25.0,17.0,30.08,1018.8,,,,0,0,0,,,,,,,,,7/8 Mostly Cloudy,4900.0,,SCT,3000.0,BKN,5000.0,BKN,20000.0,,
KRDR,07-12-2002,16:00,METAR,,230,10.0,,,9999.0,Cloud Development Not Observable,25.0,17.0,30.09,1019.2,,,,0,0,0,,,,,,,,,4/8 Partly Cloudy,72000.0,,SCT,5000.0,SCT,20000.0,,,,
KRDR,07-12-2002,15:00,METAR,,220,4.0,,,9999.0,Cloud Development Not Observable,21.0,18.0,30.10,1019.6,,,,0,0,0,,,,,,,,,7/8 Mostly Cloudy,4900.0,,BKN,5000.0,,,,,,
KRDR,07-12-2002,14:00,METAR,,220,5.0,,,9999.0,Cloud Development Not Observable,20.0,17.0,30.11,1019.9,,,,0,0,0,,,,,,,,,7/8 Mostly Cloudy,4900.0,,BKN,5000.0,,,,,,
KRDR,07-12-2002,13:00,METAR,,220,5.0,,,9999.0,Cloud Development Not Observable,18.0,17.0,30.12,1020.1,,,,0,0,0,,,,,,,,,7/8 Mostly Cloudy,4900.0,,BKN,5000.0,,,,,,
KRDR,07-12-2002,12:00,METAR,,210,4.0,,,9999.0,Cloud Development Not Observable,18.0,17.0,30.12,1020.1,,,,0,0,0,,,,,,,,,7/8 Mostly Cloudy,4900.0,,BKN,5000.0,,,,,,
KRDR,07-12-2002,11:00,METAR,,200,4.0,,,9999.0,Cloud Development Not Observable,16.0,16.0,30.12,1020.1,,,,0,0,0,,,,,,,,,7/8 Mostly Cloudy,25000.0,,SCT,5000.0,BKN,25000.0,,,,
KRDR,07-12-2002,10:00,METAR,,200,4.0,,,9999.0,Cloud Development Not Observable,15.0,15.0,30.12,1020.2,,,,0,0,0,,,,,,,,,4/8 Partly Cloudy,72000.0,,FEW,5000.0,SCT,25000.0,,,,
KRDR,07-12-2002,09:00,METAR,,200,4.0,,,9999.0,Cloud Development Not Observable,15.0,15.0,30.13,1020.5,,,,0,0,0,,,,,,,,,Clear,72000.0,,,73000.0,,,,,,
KRDR,07-12-2002,08:00,METAR,,210,5.0,,,9999.0,Cloud Development Not Observable,16.0,16.0,30.13,1020.5,,,,0,0,0,,,,,,,,,Clear,72000.0,,,73000.0,,,,,,
KRDR,07-12-2002,07:00,METAR,,210,4.0,,,9999.0,Cloud Development Not Observable,16.0,15.0,30.14,1020.8,,,,0,0,0,,,,,,,,,Clear,72000.0,,,73000.0,,,,,,
KRDR,07-12-2002,06:00,METAR,,200,4.0,,,9999.0,Cloud Development Not Observable,16.0,16.0,30.14,1020.9,,,,0,0,0,,,,,,,,,Clear,72000.0,,,73000.0,,,,,,
KRDR,07-12-2002,05:00,METAR,,190,4.0,,,9999.0,Cloud Development Not Observable,17.0,16.0,30.15,1021.2,,,,0,0,0,,,,,,,,,Clear,72000.0,,,73000.0,,,,,,
KRDR,07-12-2002,04:00,METAR,,,3.0,,,9999.0,Cloud Development Not Observable,18.0,17.0,30.16,1021.5,,,,0,0,0,,,,,,,,,2/8 Mostly Clear,72000.0,,FEW,5000.0,FEW,20000.0,,,,
KRDR,07-12-2002,03:00,METAR,,180,3.0,,,9999.0,Cloud Development Not Observable,19.0,17.0,30.17,1022.1,,,,0,0,0,,,,,,,,,2/8 Mostly Clear,72000.0,,FEW,5000.0,FEW,20000.0,,,,
KRDR,07-12-2002,02:00,METAR,,180,3.0,,,9999.0,Cloud Development Not Observable,21.0,17.0,30.18,1022.2,,,,0,0,0,,,,,,,,,2/8 Mostly Clear,72000.0,,FEW,5000.0,FEW,20000.0,,,,
KRDR,07-12-2002,01:00,METAR,,,5.0,,,9999.0,Cloud Development Not Observable,23.0,16.0,30.18,1022.3,,,,0,0,0,,,,,,,,,2/8 Mostly Clear,72000.0,,FEW,5000.0,FEW,20000.0,,,,
KRDR,07-12-2002,00:00,METAR,,,5.0,,,9999.0,Cloud Development Not Observable,24.0,15.0,30.19,1022.7,,,,0,0,0,,,,,,,,,2/8 Mostly Clear,72000.0,,FEW,5000.0,FEW,20000.0,,,,
KRDR,07-11-2002,23:00,METAR,,160,8.0,,,9999.0,Cloud Development Not Observable,24.0,15.0,30.20,1023.3,,,,0,0,0,,,,,,,,,2/8 Mostly Clear,72000.0,,FEW,5000.0,FEW,20000.0,,,,
KRDR,07-11-2002,22:00,METAR,,,6.0,,,9999.0,Cloud Development Not Observable,24.0,15.0,30.22,1023.7,,,,0,0,0,,,,,,,,,2/8 Mostly Clear,72000.0,,FEW,5000.0,FEW,20000.0,,,,
KRDR,07-11-2002,21:00,METAR,,,6.0,,,9999.0,Cloud Development Not Observable,25.0,14.0,30.23,1024.3,,,,0,0,0,,,,,,,,,2/8 Mostly Clear,72000.0,,FEW,5000.0,FEW,20000.0,,,,
KRDR,07-11-2002,20:00,METAR,,130,7.0,,,9999.0,Cloud Development Not Observable,24.0,14.0,30.26,1025.2,,,,0,0,0,,,,,,,,,2/8 Mostly Clear,72000.0,,FEW,5000.0,FEW,20000.0,,,,
KRDR,07-11-2002,19:00,METAR,,,6.0,,,9999.0,Cloud Development Not Observable,24.0,15.0,30.28,1025.7,,,,0,0,0,,,,,,,,,2/8 Mostly Clear,72000.0,,FEW,5000.0,FEW,20000.0,,,,
KRDR,07-11-2002,18:00,METAR,,110,5.0,,,9999.0,Cloud Development Not Observable,23.0,12.0,30.30,1026.5,,,,0,0,0,,,,,,,,,2/8 Mostly Clear,72000.0,,FEW,5000.0,,,,,,
KRDR,07-11-2002,17:00,METAR,,,6.0,,,9999.0,Cloud Development Not Observable,23.0,12.0,30.31,1026.6,,,,0,0,0,,,,,,,,,Clear,72000.0,,,73000.0,,,,,,
KRDR,07-11-2002,16:00,METAR,,100,6.0,,,9999.0,Cloud Development Not Observable,22.0,14.0,30.32,1026.9,,,,0,0,0,,,,,,,,,Clear,72000.0,,,73000.0,,,,,,
KRDR,07-11-2002,15:00,METAR,,,5.0,,,9999.0,Cloud Development Not Observable,20.0,15.0,30.34,1027.8,,,,0,0,0,,,,,,,,,Clear,72000.0,,,73000.0,,,,,,
KRDR,07-11-2002,14:00,METAR,,110,7.0,,,9999.0,Cloud Development Not Observable,19.0,14.0,30.34,1027.6,,,,0,0,0,,,,,,,,,2/8 Mostly Clear,72000.0,,FEW,5000.0,,,,,,
KRDR,07-11-2002,13:00,METAR,,100,4.0,,,9999.0,Cloud Development Not Observable,16.0,12.0,30.34,1027.7,,,,0,0,0,,,,,,,,,Clear,72000.0,,,73000.0,,,,,,
KRDR,07-11-2002,12:00,METAR,,340,4.0,,,9999.0,Cloud Development Not Observable,13.0,13.0,30.34,1028.0,,,,0,0,0,,,,,,,,,Clear,72000.0,,,73000.0,,,,,,
KRDR,07-11-2002,11:00,METAR,,350,2.0,,,9999.0,Shallow Fog or Ice Fog/Cloud Development Not Observable,11.0,11.0,30.33,1027.7,,,,12,0,0,,,,,,,,,2/8 Mostly Clear,72000.0,,FEW,25000.0,,,,,,
KRDR,07-11-2002,10:00,METAR,,,2.0,,,9999.0,Cloud Development Not Observable,12.0,12.0,30.32,1027.3,,,,0,0,0,,,,,,,,,Clear,72000.0,,,73000.0,,,,,,
KRDR,07-11-2002,09:00,METAR,,330,2.0,,,9999.0,Cloud Development Not Observable,10.0,10.0,30.32,1017.4,,,,0,0,0,,,,,,,,,Clear,72000.0,,,73000.0,,,,,,
KRDR,07-11-2002,08:25,METAR,,330,3.0,,,9999.0,Cloud Development Not Observable,11.0,11.0,30.32,,,,,0,0,0,,,,,,,,,Clear,72000.0,,,73000.0,,,,,,
KRDR,07-11-2002,08:00,METAR,,330,3.0,,,9999.0,Cloud Development Not Observable,11.0,11.0,30.32,1027.4,,,,0,0,0,,,,,,,,,2/8 Mostly Clear,72000.0,,FEW,0.0,,,,,,
KRDR,07-11-2002,07:38,SPECI,,320,4.0,,,9999.0,Cloud Development Not Observable,11.0,11.0,30.33,,,,,0,0,0,,,,,,,,,2/8 Mostly Clear,72000.0,,FEW,0.0,,,,,,
KRDR,07-11-2002,07:00,METAR,,270,2.0,,,9999.0,Cloud Development Not Observable,12.0,12.0,30.33,1027.8,,,,0,0,0,,,,,,,,,Clear,72000.0,,,73000.0,,,,,,
KRDR,07-11-2002,06:00,METAR,,330,4.0,,,9999.0,Cloud Development Not Observable,13.0,13.0,30.32,1027.5,,,,0,0,0,,,,,,,,,Clear,72000.0,,,73000.0,,,,,,
KRDR,07-11-2002,05:00,METAR,,100,3.0,,,9999.0,Cloud Development Not Observable,17.0,16.0,30.33,1027.7,,,,0,0,0,,,,,,,,,Clear,72000.0,,,73000.0,,,,,,
KRDR,07-11-2002,04:00,METAR,,,3.0,,,9999.0,Cloud Development Not Observable,18.0,16.0,30.32,1027.3,,,,0,0,0,,,,,,,,,2/8 Mostly Clear,72000.0,,FEW,25000.0,,,,,,
KRDR,07-11-2002,03:00,METAR,,360,5.0,,,9999.0,Cloud Development Not Observable,17.0,16.0,30.31,1027.0,,,,0,0,0,,,,,,,,,2/8 Mostly Clear,72000.0,,FEW,8900.0,FEW,25000.0,,,,
KRDR,07-11-2002,02:00,METAR,,30,4.0,,,9999.0,Cloud Development Not Observable,21.0,16.0,30.30,1026.5,,,,0,0,0,,,,,,,,,4/8 Partly Cloudy,72000.0,,FEW,5900.0,FEW,8900.0,SCT,25000.0,,
KRDR,07-11-2002,01:00,METAR,,30,5.0,,,9999.0,Cloud Development Not Observable,22.0,16.0,30.29,1026.1,,,,0,0,0,,,,,,,,,7/8 Mostly Cloudy,25000.0,,FEW,5900.0,FEW,8900.0,BKN,25000.0,,
KRDR,07-11-2002,00:00,METAR,,90,5.0,,,9999.0,Cloud Development Not Observable,21.0,15.0,30.29,1026.0,,,,0,0,0,,,,,,,,,7/8 Mostly Cloudy,25000.0,,FEW,5900.0,FEW,8900.0,BKN,25000.0,,
KRDR,07-10-2002,23:00,METAR,,100,13.0,,,9999.0,Cloud Development Not Observable,22.0,15.0,30.29,1026.1,,,,0,0,0,,,,,,,,,7/8 Mostly Cloudy,6000.0,,FEW,3000.0,SCT,5900.0,SCT,8900.0,BKN,25000.0
KRDR,07-10-2002,22:00,METAR,,80,15.0,25.0,,9999.0,Cloud Development Not Observable,22.0,15.0,30.29,1026.0,,,,0,0,0,,,,,,,,,7/8 Mostly Cloudy,6000.0,,FEW,2800.0,SCT,5900.0,SCT,8900.0,BKN,25000.0
KRDR,07-10-2002,21:00,METAR,,70,12.0,,,9999.0,Cloud Development Not Observable,21.0,15.0,30.27,1025.4,,,,0,0,0,,,,,,.11 IN,,,7/8 Mostly Cloudy,4900.0,,FEW,2600.0,SCT,5000.0,SCT,8900.0,BKN,25000.0
KRDR,07-10-2002,20:36,SPECI,,70,14.0,22.0,,9999.0,Cloud Development Not Observable,20.0,15.0,30.27,,,,,0,0,0,,,,,,,,,4/8 Partly Cloudy,25000.0,,SCT,2600.0,BKN,25000.0,,,,
KRDR,07-10-2002,20:21,SPECI,,70,16.0,22.0,,9999.0,Light Rain Showers/Cloud Development Not Observable,20.0,16.0,30.27,,,,,80,0,0,,,,,,,,,4/8 Partly Cloudy,8000.0,,SCT,2600.0,BKN,7900.0,BKN,25000.0,,
KRDR,07-10-2002,20:00,METAR,,60,13.0,,,9999.0,Cloud Development Not Observable,20.0,16.0,30.27,1025.4,,,,0,0,0,,,,,,,,,7/8 Mostly Cloudy,8000.0,,SCT,2400.0,BKN,7900.0,BKN,25000.0,,
KRDR,07-10-2002,19:45,METAR,,60,12.0,,,9999.0,Cloud Development Not Observable,19.0,16.0,30.27,,,,,0,0,0,,,,,,,,,7/8 Mostly Cloudy,8000.0,,SCT,2400.0,SCT,7900.0,BKN,25000.0,,
KRDR,07-10-2002,19:00,METAR,,60,11.0,,,9999.0,Rain/Mist/Cloud Development Not Observable,16.0,16.0,30.27,1025.6,,,,61,10,0,,,,,,,,,8/8 Overcast,4900.0,,SCT,2800.0,SCT,5000.0,OVC,7900.0,,
KRDR,07-10-2002,18:00,METAR,,40,10.0,,,8000.0,Rain/Mist/Cloud Development Not Observable,16.0,16.0,30.25,1025.0,,,,63,10,0,,,,,,,,,8/8 Overcast,4900.0,,SCT,2800.0,SCT,5000.0,OVC,7900.0,,
KRDR,07-10-2002,17:00,METAR,,50,9.0,,,4800.0,Rain/Mist/Cloud Development Not Observable,16.0,16.0,30.25,1025.0,,,,63,10,0,,,,,,,,,8/8 Overcast,4900.0,,SCT,2300.0,SCT,5000.0,OVC,7900.0,,
KRDR,07-10-2002,16:00,METAR,,60,11.0,,,8000.0,Rain/Mist/Cloud Development Not Observable,17.0,15.0,30.24,1024.5,,,,63,10,0,,,,,,,,,8/8 Overcast,4900.0,,SCT,1800.0,SCT,5000.0,OVC,7900.0,,
KRDR,07-10-2002,15:43,SPECI,,60,11.0,,,9999.0,Rain/Cloud Development Not Observable,17.0,16.0,30.24,,,,,61,0,0,,,,,,,,,8/8 Overcast,4900.0,,SCT,1800.0,SCT,5000.0,OVC,7900.0,,
KRDR,07-10-2002,15:00,METAR,,30,10.0,,,9999.0,Rain/Cloud Development Not Observable,17.0,17.0,30.23,1024.3,,,,61,0,0,,,,,,.24 IN,,,8/8 Overcast,1800.0,,FEW,400.0,BKN,1800.0,BKN,5000.0,OVC,7900.0
KRDR,07-10-2002,14:00,METAR,,30,12.0,,,8000.0,Rain/Mist/Cloud Development Not Observable,17.0,17.0,30.19,1022.8,,,,61,10,0,,,,,,,,,8/8 Overcast,1200.0,,SCT,700.0,BKN,1200.0,BKN,2600.0,OVC,7900.0
KRDR,07-10-2002,13:21,SPECI,,30,7.0,,,6400.0,Rain/Mist/Cloud Development Not Observable,16.0,16.0,30.17,,,,,63,10,0,,,,,,,,,8/8 Overcast,1500.0,,FEW,700.0,BKN,1500.0,BKN,3000.0,OVC,5000.0
KRDR,07-10-2002,13:00,METAR,,30,7.0,,,6400.0,Rain/Mist/Cloud Development Not Observable,16.0,16.0,30.09,1019.1,,,,63,10,0,,,,,,,,,8/8 Overcast,1200.0,,SCT,700.0,BKN,1200.0,BKN,3300.0,OVC,5000.0
KRDR,07-10-2002,12:48,SPECI,,50,8.0,,,8000.0,Rain/Mist/Cloud Development Not Observable,16.0,16.0,30.09,,,,,63,10,0,,,,,,,,,8/8 Overcast,1200.0,,FEW,300.0,BKN,1200.0,BKN,3300.0,OVC,5000.0
KRDR,07-10-2002,12:00,METAR,,50,9.0,,,6400.0,Rain/Mist/Cloud Development Not Observable,16.0,16.0,30.16,1021.5,,,,63,10,0,,,,,,,,,8/8 Overcast,1500.0,,BKN,1500.0,OVC,5000.0,,,,
KRDR,07-10-2002,11:00,METAR,,60,7.0,,,8000.0,Rain/Mist/Cloud Development Not Observable,17.0,17.0,30.14,1020.8,,,,61,10,0,,,,,,,,,8/8 Overcast,1400.0,,BKN,1400.0,OVC,3500.0,,,,
KRDR,07-10-2002,10:00,METAR,,80,9.0,,,9999.0,Rain/Cloud Development Not Observable,17.0,17.0,30.12,1020.0,,,,61,0,0,,,,,,,,,8/8 Overcast,1400.0,,BKN,1400.0,OVC,5000.0,,,,
KRDR,07-10-2002,09:00,METAR,,70,12.0,,,8000.0,Rain/Cloud Development Not Observable,18.0,18.0,30.12,1020.0,,,,61,0,0,,,,,,.1 IN,,,8/8 Overcast,1000.0,,BKN,1000.0,BKN,5400.0,OVC,8900.0,,
KRDR,07-10-2002,08:00,METAR,,70,13.0,,,8000.0,Rain/Cloud Development Not Observable,18.0,18.0,30.10,1019.3,,,,61,0,0,,,,,,,,,8/8 Overcast,1000.0,,BKN,1000.0,BKN,5400.0,OVC,8900.0,,
KRDR,07-10-2002,07:08,SPECI,,80,10.0,,,8000.0,Rain/Cloud Development Not Observable,18.0,18.0,30.12,,,,,61,0,0,,,,,,,,,8/8 Overcast,1000.0,,BKN,1000.0,BKN,3500.0,OVC,9900.0,,
KRDR,07-10-2002,07:00,METAR,,80,8.0,,,8000.0,Rain/Cloud Development Not Observable,18.0,18.0,30.13,1020.4,,,,61,0,0,,,,,,,,,8/8 Overcast,900.0,,BKN,900.0,OVC,3500.0,,,,
KRDR,07-10-2002,06:00,METAR,,70,10.0,,,8000.0,Rain/Cloud Development Not Observable,18.0,18.0,30.13,1020.1,,,,61,0,0,,,,,,,,,8/8 Overcast,700.0,,BKN,700.0,BKN,2000.0,BKN,3500.0,OVC,7900.0
KRDR,07-10-2002,05:26,SPECI,,60,10.0,,,6400.0,Rain/Mist/Cloud Development Not Observable,18.0,18.0,30.13,,,,,61,10,0,,,,,,,,,8/8 Overcast,700.0,,BKN,700.0,BKN,2000.0,OVC,3500.0,,
KRDR,07-10-2002,05:15,SPECI,,30,3.0,,,4800.0,Thunderstorm with Rain or Snow/Rain Showers/Mist,18.0,18.0,30.14,,,,,95,81,10,,,,,,,,,8/8 Overcast,700.0,,BKN,700.0,BKN,2000.0,OVC,3500.0,,
KRDR,07-10-2002,05:06,SPECI,,280,5.0,,,4800.0,Thunderstorm with Rain or Snow/Rain Showers/Cloud Development Not Observable,18.0,18.0,30.15,,,,,95,81,0,,,,,,,,,8/8 Overcast,2000.0,,SCT,700.0,SCT,2000.0,OVC,3500.0,,
KRDR,07-10-2002,05:00,METAR,,40,10.0,,,4800.0,Thunderstorm with Rain or Snow/Rain Showers/Cloud Development Not Observable,18.0,18.0,30.12,1020.1,,,,95,81,0,,,,,,,,,8/8 Overcast,3400.0,,FEW,2000.0,OVC,3500.0,,,,
KRDR,07-10-2002,04:41,SPECI,,40,6.0,,,4800.0,Thunderstorm with Rain or Snow/Rain Showers/Cloud Development Not Observable,18.0,18.0,30.13,,,,,95,81,0,,,,,,,,,8/8 Overcast,3400.0,,FEW,2000.0,BKN,3500.0,OVC,7900.0,,
KRDR,07-10-2002,04:00,METAR,,,3.0,,,4800.0,Thunderstorm with Rain or Snow/Light Rain Showers/Cloud Development Not Observable,18.0,18.0,30.14,1020.8,,,,95,80,0,,,,,,,,,8/8 Overcast,4900.0,,BKN,5000.0,OVC,7900.0,,,,
KRDR,07-09-2002,17:00,METAR,Normal,340,6.0,,,300.0,,23.0,18.0,30.15,1021.2,,,,,,,,,,,,,,,7/8 Mostly Cloudy,8000.0,,SCT,4000.0,BKN,7900.0,BKN,25000.0,,
KRDR,07-09-2002,16:00,METAR,Normal,30,3.0,,,0.0,,23.0,18.0,30.14,1021.0,,,,,,,,,,,,,,,7/8 Mostly Cloudy,12000.0,,SCT,7900.0,BKN,12000.0,BKN,25000.0,,
KRDR,07-09-2002,15:00,METAR,,360,3.0,,,9999.0,Cloud Development Not Observable,21.0,17.0,30.13,1020.4,,,,0,0,0,,,,,,,,,7/8 Mostly Cloudy,12000.0,,SCT,7900.0,BKN,12000.0,BKN,25000.0,,
KRDR,07-09-2002,14:00,METAR,,350,4.0,,,9999.0,Cloud Development Not Observable,20.0,16.0,30.12,1020.0,,,,0,0,0,,,,,,,,,7/8 Mostly Cloudy,15000.0,,SCT,12000.0,BKN,15000.0,BKN,25000.0,,
KRDR,07-09-2002,13:00,METAR,,50,5.0,,,9999.0,Cloud Development Not Observable,18.0,15.0,30.10,1019.3,,,,0,0,0,,,,,,,,,7/8 Mostly Cloudy,15000.0,,SCT,12000.0,BKN,15000.0,BKN,25000.0,,
KRDR,07-09-2002,12:00,METAR,,10,3.0,,,9999.0,Cloud Development Not Observable,16.0,14.0,30.15,1021.1,,,,0,0,0,,,,,,,,,8/8 Overcast,15000.0,,SCT,12000.0,BKN,15000.0,OVC,25000.0,,
KRDR,07-09-2002,11:00,METAR,,320,5.0,,,9999.0,Cloud Development Not Observable,15.0,14.0,30.18,1022.1,,,,0,0,0,,,,,,,,,4/8 Partly Cloudy,25000.0,,SCT,12000.0,OVC,25000.0,,,,
KRDR,07-09-2002,10:00,METAR,,330,5.0,,,9999.0,Cloud Development Not Observable,15.0,14.0,30.17,1021.8,,,,0,0,0,,,,,,,,,8/8 Overcast,12000.0,,FEW,4000.0,SCT,12000.0,OVC,25000.0,,
KRDR,07-09-2002,09:00,METAR,,330,5.0,,,9999.0,Cloud Development Not Observable,15.0,14.0,30.14,1020.7,,,,0,0,0,,,,,,,,,8/8 Overcast,25000.0,,SCT,12000.0,OVC,25000.0,,,,
KRDR,07-09-2002,08:00,METAR,,350,4.0,,,9999.0,Cloud Development Not Observable,15.0,14.0,30.15,1021.1,,,,0,0,0,,,,,,,,,7/8 Mostly Cloudy,25000.0,,SCT,12000.0,BKN,25000.0,,,,
KRDR,07-09-2002,07:00,METAR,,320,4.0,,,9999.0,Cloud Development Not Observable,16.0,14.0,30.15,1021.1,,,,0,0,0,,,,,,,,,7/8 Mostly Cloudy,25000.0,,FEW,12000.0,BKN,25000.0,,,,
KRDR,07-09-2002,06:00,METAR,,350,5.0,,,9999.0,Cloud Development Not Observable,16.0,14.0,30.15,1021.1,,,,0,0,0,,,,,,,,,4/8 Partly Cloudy,72000.0,,SCT,25000.0,,,,,,
KRDR,07-09-2002,05:00,METAR,,340,5.0,,,9999.0,Cloud Development Not Observable,17.0,16.0,30.14,1020.7,,,,0,0,0,,,,,,,,,2/8 Mostly Clear,72000.0,,FEW,25000.0,,,,,,
KRDR,07-09-2002,04:00,METAR,,320,5.0,,,9999.0,Cloud Development Not Observable,18.0,16.0,30.12,1020.0,,,,0,0,0,,,,,,,,,2/8 Mostly Clear,72000.0,,FEW,25000.0,,,,,,
KRDR,07-09-2002,03:00,METAR,,20,6.0,,,9999.0,Cloud Development Not Observable,22.0,16.0,30.09,1019.1,,,,0,0,0,,,,,,,,,2/8 Mostly Clear,72000.0,,FEW,9900.0,FEW,25000.0,,,,
KRDR,07-09-2002,02:00,METAR,,20,7.0,,,9999.0,Cloud Development Not Observable,24.0,16.0,30.11,1019.6,,,,0,0,0,,,,,,,,,2/8 Mostly Clear,72000.0,,FEW,4500.0,FEW,25000.0,,,,
KRDR,07-09-2002,01:00,METAR,,20,9.0,,,9999.0,Cloud Development Not Observable,27.0,16.0,30.12,1020.1,,,,0,0,0,,,,,,,,,2/8 Mostly Clear,72000.0,,FEW,4500.0,FEW,25000.0,,,,
KRDR,07-09-2002,00:00,METAR,,20,8.0,,,9999.0,Cloud Development Not Observable,29.0,16.0,30.13,1020.1,,,,0,0,0,,,,,,,,,2/8 Mostly Clear,72000.0,,FEW,4500.0,FEW,25000.0,,,,
KRDR,07-08-2002,23:00,METAR,,30,10.0,,,9999.0,Cloud Development Not Observable,29.0,15.0,30.12,1020.2,,,,0,0,0,,,,,,,,,4/8 Partly Cloudy,72000.0,,FEW,4500.0,SCT,25000.0,,,,
KRDR,07-08-2002,22:00,METAR,,360,7.0,,,9999.0,Cloud Development Not Observable,30.0,17.0,30.13,1020.3,,,,0,0,0,,,,,,,,,4/8 Partly Cloudy,72000.0,,SCT,4000.0,SCT,25000.0,,,,
KRDR,07-08-2002,20:00,METAR,,40,8.0,,,9999.0,Cloud Development Not Observable,28.0,20.0,30.12,1020.2,,,,0,0,0,,,,,,,,,4/8 Partly Cloudy,72000.0,,SCT,3800.0,SCT,9900.0,,,,
KRDR,07-08-2002,19:00,METAR,,360,9.0,,,9999.0,Cloud Development Not Observable,28.0,21.0,30.12,1020.0,,,,0,0,0,,,,,,,,,7/8 Mostly Cloudy,3300.0,,BKN,3400.0,,,,,,
KRDR,07-08-2002,18:31,SPECI,,30,10.0,,,9999.0,Cloud Development Not Observable,28.0,21.0,30.13,,,,,0,0,0,,,,,,,,,7/8 Mostly Cloudy,3100.0,,FEW,2200.0,BKN,3200.0,,,,
KRDR,07-08-2002,18:00,METAR,,10,10.0,,,9999.0,Cloud Development Not Observable,28.0,22.0,30.13,1020.4,,,,0,0,0,,,,,,,,,7/8 Mostly Cloudy,2800.0,,BKN,2800.0,,,,,,
KRDR,07-08-2002,17:00,METAR,,30,8.0,,,9999.0,Cloud Development Not Observable,27.0,22.0,30.13,1020.4,,,,0,0,0,,,,,,,,,7/8 Mostly Cloudy,2100.0,,BKN,2100.0,,,,,,
KRDR,07-08-2002,16:00,METAR,,360,8.0,,,9999.0,Cloud Development Not Observable,26.0,22.0,30.13,1020.5,,,,0,0,0,,,,,,,,,7/8 Mostly Cloudy,1800.0,,FEW,1100.0,BKN,1800.0,,,,
KRDR,07-08-2002,15:00,METAR,,350,7.0,,,9999.0,Cloud Development Not Observable,24.0,22.0,30.14,1020.8,,,,0,0,0,,,,,,,,,7/8 Mostly Cloudy,2500.0,,SCT,1100.0,SCT,2500.0,BKN,4000.0,BKN,7900.0
KRDR,07-08-2002,14:00,METAR,,340,7.0,,,9999.0,Cloud Development Not Observable,22.0,21.0,30.12,1020.1,,,,0,0,0,,,,,,,,,4/8 Partly Cloudy,72000.0,,FEW,1800.0,SCT,2800.0,SCT,7900.0,,
KRDR,07-08-2002,13:00,METAR,,,4.0,,,9999.0,Cloud Development Not Observable,20.0,20.0,30.11,1019.8,,,,0,0,0,,,,,,,,,2/8 Mostly Clear,72000.0,,FEW,4000.0,FEW,20000.0,,,,
KRDR,07-08-2002,12:00,METAR,,270,3.0,,,9999.0,Cloud Development Not Observable,17.0,17.0,30.11,1019.9,,,,0,0,0,,,,,,,,,2/8 Mostly Clear,72000.0,,FEW,7900.0,FEW,20000.0,,,,
KRDR,07-08-2002,11:00,METAR,,300,3.0,,,8000.0,Mist/Cloud Development Not Observable,16.0,16.0,30.10,1018.4,,,,10,0,0,,,,,,,,,2/8 Mostly Clear,72000.0,,FEW,200.0,FEW,7900.0,FEW,20000.0,,
KRDR,07-08-2002,10:00,METAR,,300,3.0,,,4800.0,Mist/Cloud Development Not Observable,16.0,16.0,30.06,1018.4,,,,10,0,0,,,,,,,,,4/8 Partly Cloudy,72000.0,,SCT,200.0,,,,,,
KRDR,07-08-2002,08:55,METAR,,310,3.0,,,4800.0,Mist/Cloud Development Not Observable,15.0,15.0,30.06,1018.4,,,,10,0,0,,,,,,,,,4/8 Partly Cloudy,72000.0,,SCT,200.0,,,,,,
KRDR,07-08-2002,08:00,METAR,,320,2.0,,,9999.0,Shallow Fog or Ice Fog/Cloud Development Not Observable,16.0,16.0,30.06,1018.4,,,,12,0,0,,,,,,,,,2/8 Mostly Clear,72000.0,,FEW,20000.0,,,,,,
KRDR,07-08-2002,07:00,METAR,,350,3.0,,,9999.0,Shallow Fog or Ice Fog/Cloud Development Not Observable,16.0,16.0,30.06,1018.4,,,,12,0,0,,,,,,,,,2/8 Mostly Clear,72000.0,,FEW,20000.0,,,,,,
KRDR,07-08-2002,06:00,METAR,,20,5.0,,,9999.0,Cloud Development Not Observable,17.0,17.0,30.08,1018.7,,,,0,0,0,,,,,,,,,Clear,72000.0,,,73000.0,,,,,,
KRDR,07-08-2002,05:00,METAR,,340,4.0,,,9999.0,Cloud Development Not Observable,17.0,17.0,30.06,1018.4,,,,0,0,0,,,,,,,,,2/8 Mostly Clear,72000.0,,FEW,11000.0,FEW,20000.0,,,,
KRDR,07-08-2002,04:00,METAR,,320,4.0,,,9999.0,Cloud Development Not Observable,18.0,18.0,30.06,1018.3,,,,0,0,0,,,,,,,,,2/8 Mostly Clear,72000.0,,FEW,11000.0,FEW,20000.0,,,,
KRDR,07-08-2002,03:00,METAR,,,3.0,,,9999.0,Cloud Development Not Observable,18.0,18.0,30.05,1018.1,,,,0,0,0,,,,,,,,,2/8 Mostly Clear,72000.0,,FEW,11000.0,FEW,20000.0,,,,
KRDR,07-08-2002,02:00,METAR,,90,6.0,,,9999.0,Cloud Development Not Observable,21.0,20.0,30.06,1018.1,,,,0,0,0,,,,,,,,,4/8 Partly Cloudy,72000.0,,FEW,1200.0,FEW,5000.0,SCT,9900.0,SCT,20000.0
KRDR,07-08-2002,01:00,METAR,,120,7.0,,,9999.0,Cloud Development Not Observable,21.0,20.0,30.05,1018.0,,,,0,0,0,,,,,,,,,7/8 Mostly Cloudy,10000.0,,FEW,1200.0,FEW,5000.0,SCT,9900.0,BKN,20000.0
KRDR,07-08-2002,00:00,METAR,,130,11.0,,,9999.0,Cloud Development Not Observable,20.0,19.0,30.06,1018.4,,,,0,0,0,,,,,,,,,7/8 Mostly Cloudy,4400.0,,FEW,1000.0,BKN,4500.0,BKN,12000.0,,
KRDR,07-07-2002,23:00,METAR,,110,11.0,,,9999.0,Cloud Development Not Observable,22.0,20.0,30.07,1018.6,,,,0,0,0,,,,,,,,,7/8 Mostly Cloudy,4900.0,,SCT,1200.0,BKN,5000.0,BKN,6900.0,,
KRDR,07-07-2002,22:00,METAR,,100,10.0,,,9999.0,Cloud Development Not Observable,22.0,21.0,30.09,1019.2,,,,0,0,0,,,,,,,,,8/8 Overcast,1200.0,,BKN,1200.0,BKN,5000.0,OVC,6900.0,,
KRDR,07-07-2002,21:00,METAR,,90,10.0,,,9999.0,Rain/Cloud Development Not Observable,23.0,22.0,30.09,1019.2,,,,61,0,0,,,,,,.1 IN,,,8/8 Overcast,1400.0,,BKN,1400.0,BKN,5400.0,OVC,6900.0,,
KRDR,07-07-2002,20:00,METAR,,80,8.0,,,9999.0,Rain/Cloud Development Not Observable,24.0,23.0,30.10,1019.4,,,,61,0,0,,,,,,,,,8/8 Overcast,1000.0,,BKN,1000.0,OVC,6900.0,,,,
KRDR,07-07-2002,18:59,METAR,,50,8.0,,,9999.0,Light Rain Showers/Mist/Cloud Development Not Observable,23.0,22.0,30.12,1020.1,,,,80,10,0,,,,,,,,,8/8 Overcast,7000.0,,SCT,1100.0,BKN,6900.0,OVC,12000.0,,
KRDR,07-07-2002,18:00,METAR,,20,12.0,,,9999.0,Light Rain Showers/Cloud Development Not Observable,23.0,22.0,30.12,1020.3,,,,80,0,0,,,,,,,,,7/8 Mostly Cloudy,7000.0,,FEW,2000.0,FEW,4000.0,SCT,6900.0,BKN,9900.0
KRDR,07-07-2002,17:00,METAR,,330,7.0,,,8000.0,Light Rain Showers/Mist/Cloud Development Not Observable,21.0,21.0,30.14,1021.1,,,,80,10,0,,,,,,,,,8/8 Overcast,3900.0,,FEW,2000.0,SCT,4000.0,BKN,6900.0,OVC,20000.0
KRDR,07-07-2002,16:00,METAR,,,3.0,,,9999.0,Cloud Development Not Observable,21.0,21.0,30.13,,,,,0,0,0,,,,,,,,,7/8 Mostly Cloudy,7000.0,,FEW,2500.0,FEW,4000.0,BKN,6900.0,BKN,20000.0
KRDR,07-07-2002,15:00,METAR,,240,4.0,,,9999.0,Thunderstorm with Rain or Snow/Light Rain Showers/Cloud Development Not Observable,21.0,19.0,30.14,1020.8,,,,95,80,0,,,,,,,,,7/8 Mostly Cloudy,8000.0,,SCT,4000.0,BKN,7900.0,BKN,12000.0,BKN,20000.0
KRDR,07-07-2002,14:00,METAR,,10,4.0,,,9999.0,Cloud Development Not Observable,21.0,18.0,30.12,1020.2,,,,0,0,0,,,,,,,,,7/8 Mostly Cloudy,8000.0,,FEW,4000.0,BKN,7900.0,BKN,12000.0,BKN,20000.0
KRDR,07-07-2002,13:00,METAR,,10,4.0,,,9999.0,Cloud Development Not Observable,20.0,18.0,30.11,1019.7,,,,0,0,0,,,,,,,,,8/8 Overcast,12000.0,,BKN,12000.0,OVC,20000.0,,,,
KRDR,07-07-2002,12:00,METAR,,320,4.0,,,9999.0,Cloud Development Not Observable,19.0,18.0,30.11,1019.7,,,,0,0,0,,,,,,,,,8/8 Overcast,12000.0,,BKN,12000.0,OVC,20000.0,,,,
KRDR,07-07-2002,11:00,METAR,,,2.0,,,9999.0,Cloud Development Not Observable,17.0,17.0,30.10,1019.3,,,,0,0,0,,,,,,,,,8/8 Overcast,12000.0,,BKN,12000.0,OVC,20000.0,,,,
KRDR,07-07-2002,10:00,METAR,,340,4.0,,,9999.0,Cloud Development Not Observable,18.0,17.0,30.11,1019.7,,,,0,0,0,,,,,,,,,8/8 Overcast,12000.0,,BKN,12000.0,OVC,20000.0,,,,
KRDR,07-07-2002,09:00,METAR,,360,3.0,,,9999.0,Cloud Development Not Observable,18.0,17.0,30.11,1019.8,,,,0,0,0,,,,,,,,,8/8 Overcast,12000.0,,BKN,12000.0,OVC,20000.0,,,,
KRDR,07-07-2002,08:00,METAR,,340,4.0,,,9999.0,Cloud Development Not Observable,18.0,17.0,30.12,1020.2,,,,0,0,0,,,,,,,,,8/8 Overcast,12000.0,,BKN,12000.0,OVC,20000.0,,,,
KRDR,07-07-2002,07:00,METAR,,270,3.0,,,9999.0,Cloud Development Not Observable,18.0,16.0,30.13,1020.5,,,,0,0,0,,,,,,,,,8/8 Overcast,20000.0,,SCT,9900.0,OVC,20000.0,,,,
KRDR,07-07-2002,06:00,METAR,,350,4.0,,,9999.0,Cloud Development Not Observable,18.0,16.0,30.14,1020.7,,,,0,0,0,,,,,,,,,8/8 Overcast,25000.0,,SCT,9900.0,OVC,25000.0,,,,
KRDR,07-07-2002,05:00,METAR,,360,5.0,,,9999.0,Cloud Development Not Observable,18.0,15.0,30.14,1020.9,,,,0,0,0,,,,,,,,,7/8 Mostly Cloudy,25000.0,,SCT,9900.0,BKN,25000.0,,,,
KRDR,07-07-2002,04:00,METAR,,320,3.0,,,9999.0,Cloud Development Not Observable,19.0,15.0,30.14,1020.9,,,,0,0,0,,,,,,,,,7/8 Mostly Cloudy,25000.0,,FEW,9900.0,BKN,25000.0,,,,
KRDR,07-07-2002,03:00,METAR,,360,5.0,,,9999.0,Cloud Development Not Observable,19.0,15.0,30.14,1020.8,,,,0,0,0,,,,,,,,,7/8 Mostly Cloudy,25000.0,,FEW,9900.0,BKN,25000.0,,,,
KRDR,07-07-2002,02:00,METAR,,,5.0,,,9999.0,Cloud Development Not Observable,23.0,15.0,30.12,1020.2,,,,0,0,0,,,,,,,,,7/8 Mostly Cloudy,25000.0,,FEW,9900.0,BKN,25000.0,,,,
KRDR,07-07-2002,01:00,METAR,,,5.0,,,9999.0,Cloud Development Not Observable,25.0,13.0,30.12,1020.0,,,,0,0,0,,,,,,,,,4/8 Partly Cloudy,72000.0,,FEW,9900.0,SCT,25000.0,,,,
KRDR,07-07-2002,00:00,METAR,,360,8.0,,,9999.0,Cloud Development Not Observable,26.0,11.0,30.12,1020.2,,,,0,0,0,,,,,,,,,7/8 Mostly Cloudy,25000.0,,FEW,9900.0,BKN,25000.0,,,,
KRDR,07-06-2002,23:00,METAR,,10,9.0,,,9999.0,Cloud Development Not Observable,27.0,11.0,30.13,1020.3,,,,0,0,0,,,,,,,,,7/8 Mostly Cloudy,25000.0,,FEW,9900.0,BKN,25000.0,,,,
KRDR,07-06-2002,22:00,METAR,,,6.0,,,9999.0,Cloud Development Not Observable,27.0,13.0,30.13,1020.4,,,,0,0,0,,,,,,,,,7/8 Mostly Cloudy,25000.0,,FEW,9900.0,BKN,25000.0,,,,
KRDR,07-06-2002,21:00,METAR,,,6.0,,,9999.0,Cloud Development Not Observable,27.0,11.0,30.14,1020.8,,,,0,0,0,,,,,,,,,7/8 Mostly Cloudy,25000.0,,FEW,9900.0,BKN,25000.0,,,,
KRDR,07-06-2002,20:00,METAR,,360,8.0,,,9999.0,Cloud Development Not Observable,27.0,11.0,30.16,1021.3,,,,0,0,0,,,,,,,,,7/8 Mostly Cloudy,25000.0,,BKN,25000.0,,,,,,
KRDR,07-06-2002,19:00,METAR,,10,9.0,,,9999.0,Cloud Development Not Observable,27.0,10.0,30.17,1021.6,,,,0,0,0,,,,,,,,,7/8 Mostly Cloudy,25000.0,,BKN,25000.0,,,,,,
KRDR,07-06-2002,18:00,METAR,,360,7.0,,,9999.0,Cloud Development Not Observable,26.0,13.0,30.18,1021.9,,,,0,0,0,,,,,,,,,7/8 Mostly Cloudy,25000.0,,BKN,25000.0,,,,,,
KRDR,07-06-2002,17:00,METAR,,360,7.0,,,9999.0,Cloud Development Not Observable,25.0,13.0,30.16,1021.2,,,,0,0,0,,,,,,,,,7/8 Mostly Cloudy,25000.0,,BKN,25000.0,,,,,,
KRDR,07-06-2002,16:00,METAR,,10,8.0,,,9999.0,Cloud Development Not Observable,24.0,13.0,30.15,1020.9,,,,0,0,0,,,,,,,,,7/8 Mostly Cloudy,25000.0,,BKN,25000.0,,,,,,
KRDR,07-06-2002,15:00,METAR,,360,11.0,,,9999.0,Cloud Development Not Observable,24.0,14.0,30.14,1020.5,,,,0,0,0,,,,,,,,,4/8 Partly Cloudy,72000.0,,SCT,25000.0,,,,,,
KRDR,07-06-2002,14:00,METAR,,350,11.0,,,9999.0,Cloud Development Not Observable,22.0,14.0,30.14,1020.6,,,,0,0,0,,,,,,,,,4/8 Partly Cloudy,72000.0,,SCT,25000.0,,,,,,
KRDR,07-06-2002,13:00,METAR,,350,8.0,,,9999.0,Cloud Development Not Observable,21.0,14.0,30.12,1019.9,,,,0,0,0,,,,,,,,,4/8 Partly Cloudy,72000.0,,SCT,25000.0,,,,,,
KRDR,07-06-2002,12:00,METAR,,350,7.0,,,9999.0,Cloud Development Not Observable,19.0,14.0,30.10,1019.2,,,,0,0,0,,,,,,,,,2/8 Mostly Clear,72000.0,,FEW,9900.0,FEW,25000.0,,,,
KRDR,07-06-2002,11:00,METAR,,350,10.0,,,9999.0,Cloud Development Not Observable,20.0,14.0,30.06,1018.1,,,,0,0,0,,,,,,,,,2/8 Mostly Clear,72000.0,,FEW,9900.0,FEW,25000.0,,,,
KRDR,07-06-2002,10:00,METAR,,350,9.0,,,9999.0,Cloud Development Not Observable,21.0,17.0,30.03,1016.8,,,,0,0,0,,,,,,,,,4/8 Partly Cloudy,72000.0,,FEW,9900.0,SCT,25000.0,,,,
KRDR,07-06-2002,09:00,METAR,,360,7.0,,,9999.0,Cloud Development Not Observable,22.0,21.0,30.01,1016.1,,,,0,0,0,,,,,,,,,4/8 Partly Cloudy,72000.0,,FEW,9900.0,SCT,25000.0,,,,
KRDR,07-06-2002,08:00,METAR,,360,12.0,,,9999.0,Cloud Development Not Observable,23.0,21.0,29.98,1015.2,,,,0,0,0,,,,,,,,,7/8 Mostly Cloudy,25000.0,,FEW,9900.0,BKN,25000.0,,,,
KRDR,07-06-2002,07:00,METAR,,210,3.0,,,9999.0,Cloud Development Not Observable,25.0,20.0,29.95,1013.9,,,,0,0,0,,,,,,,,,7/8 Mostly Cloudy,25000.0,,SCT,9900.0,BKN,25000.0,,,,
KRDR,07-06-2002,06:00,METAR,,330,5.0,,,9999.0,Cloud Development Not Observable,26.0,20.0,29.94,1013.8,,,,0,0,0,,,,,,,,,7/8 Mostly Cloudy,25000.0,,SCT,9900.0,BKN,25000.0,,,,
KRDR,07-06-2002,05:00,METAR,,180,12.0,,,9999.0,Cloud Development Not Observable,28.0,20.0,29.90,1012.2,,,,0,0,0,,,,,,,,,7/8 Mostly Cloudy,25000.0,,SCT,9900.0,BKN,25000.0,,,,
KRDR,07-06-2002,04:00,METAR,,170,12.0,,,9999.0,Cloud Development Not Observable,28.0,19.0,29.88,1011.7,,,,0,0,0,,,,,,,,,7/8 Mostly Cloudy,25000.0,,SCT,9900.0,BKN,25000.0,,,,
KRDR,07-06-2002,03:00,METAR,,160,13.0,,,9999.0,Cloud Development Not Observable,28.0,20.0,29.86,1011.3,,,,0,0,0,,,,,,,,,7/8 Mostly Cloudy,25000.0,,SCT,9900.0,BKN,25000.0,,,,
KRDR,07-06-2002,02:00,METAR,,150,10.0,,,9999.0,Cloud Development Not Observable,28.0,22.0,29.85,1010.9,,,,0,0,0,,,,,,,,,7/8 Mostly Cloudy,25000.0,,FEW,11000.0,BKN,25000.0,,,,
KRDR,07-06-2002,01:00,METAR,,160,11.0,,,9999.0,Cloud Development Not Observable,30.0,22.0,29.85,1010.9,,,,0,0,0,,,,,,,,,7/8 Mostly Cloudy,25000.0,,BKN,25000.0,,,,,,
KRDR,07-06-2002,00:00,METAR,,170,12.0,,,9999.0,Cloud Development Not Observable,30.0,20.0,29.86,1011.3,,,,0,0,0,,,,,,,,,7/8 Mostly Cloudy,25000.0,,BKN,25000.0,,,,,,
KRDR,07-05-2002,23:00,METAR,,170,14.0,,,9999.0,Cloud Development Not Observable,32.0,21.0,29.86,1011.2,,,,0,0,0,,,,,,,,,7/8 Mostly Cloudy,25000.0,,BKN,25000.0,,,,,,
KRDR,07-05-2002,22:00,METAR,,180,15.0,24.0,,9999.0,Cloud Development Not Observable,32.0,20.0,29.87,1011.5,,,,0,0,0,,,,,,,,,7/8 Mostly Cloudy,25000.0,,BKN,25000.0,,,,,,
KRDR,07-05-2002,21:00,METAR,,180,16.0,,,9999.0,Cloud Development Not Observable,32.0,21.0,29.87,1011.6,,,,0,0,0,,,,,,,,,7/8 Mostly Cloudy,25000.0,,FEW,11000.0,BKN,25000.0,,,,
KRDR,07-05-2002,20:00,METAR,,180,16.0,21.0,,9999.0,Cloud Development Not Observable,32.0,22.0,29.89,1011.9,,,,0,0,0,,,,,,,,,7/8 Mostly Cloudy,25000.0,,FEW,11000.0,BKN,25000.0,,,,
KRDR,07-05-2002,19:00,METAR,,170,16.0,,,9999.0,Cloud Development Not Observable,31.0,23.0,29.90,1012.3,,,,0,0,0,,,,,,,,,7/8 Mostly Cloudy,25000.0,,BKN,25000.0,,,,,,
KRDR,07-05-2002,18:00,METAR,,170,15.0,23.0,,9999.0,Cloud Development Not Observable,29.0,23.0,29.90,1012.3,,,,0,0,0,,,,,,,,,7/8 Mostly Cloudy,25000.0,,FEW,11000.0,BKN,25000.0,,,,
KRDR,07-05-2002,17:00,METAR,,170,13.0,,,9999.0,Cloud Development Not Observable,28.0,23.0,29.91,1012.7,,,,0,0,0,,,,,,,,,7/8 Mostly Cloudy,25000.0,,FEW,11000.0,BKN,25000.0,,,,
KRDR,07-05-2002,16:00,METAR,,160,14.0,,,9999.0,Cloud Development Not Observable,26.0,22.0,29.91,1012.8,,,,0,0,0,,,,,,,,,7/8 Mostly Cloudy,25000.0,,FEW,11000.0,BKN,25000.0,,,,
KRDR,07-05-2002,15:00,METAR,,140,10.0,,,9999.0,Cloud Development Not Observable,24.0,21.0,29.91,1012.8,,,,0,0,0,,,,,,,,,7/8 Mostly Cloudy,25000.0,,FEW,11000.0,BKN,25000.0,,,,
KRDR,07-05-2002,14:00,METAR,,150,10.0,,,9999.0,Cloud Development Not Observable,22.0,20.0,29.91,1012.9,,,,0,0,0,,,,,,,,,7/8 Mostly Cloudy,11000.0,,BKN,11000.0,BKN,25000.0,,,,
KRDR,07-05-2002,13:00,METAR,,130,10.0,,,9999.0,Cloud Development Not Observable,21.0,18.0,29.92,1013.3,,,,0,0,0,,,,,,,,,7/8 Mostly Cloudy,11000.0,,BKN,11000.0,BKN,25000.0,,,,
KRDR,07-05-2002,12:00,METAR,,110,9.0,,,9999.0,Cloud Development Not Observable,20.0,18.0,29.92,1013.5,,,,0,0,0,,,,,,,,,7/8 Mostly Cloudy,11000.0,,BKN,11000.0,BKN,25000.0,,,,
KRDR,07-05-2002,11:00,METAR,,110,10.0,,,9999.0,Cloud Development Not Observable,20.0,17.0,29.92,1013.5,,,,0,0,0,,,,,,,,,7/8 Mostly Cloudy,11000.0,,BKN,11000.0,BKN,25000.0,,,,
KRDR,07-05-2002,10:00,METAR,,110,9.0,,,9999.0,Cloud Development Not Observable,19.0,17.0,29.92,1013.5,,,,0,0,0,,,,,,,,,8/8 Overcast,11000.0,,BKN,11000.0,OVC,25000.0,,,,
KRDR,07-05-2002,09:00,METAR,,70,7.0,,,9999.0,Cloud Development Not Observable,19.0,18.0,29.93,1013.8,,,,0,0,0,,,,,,,,,8/8 Overcast,11000.0,,FEW,5900.0,BKN,11000.0,OVC,25000.0,,
KRDR,07-05-2002,08:00,METAR,,80,10.0,,,9999.0,Cloud Development Not Observable,20.0,18.0,29.93,1013.8,,,,0,0,0,,,,,,,,,8/8 Overcast,11000.0,,BKN,11000.0,OVC,25000.0,,,,
KRDR,07-05-2002,07:00,METAR,,90,8.0,,,9999.0,Cloud Development Not Observable,21.0,18.0,29.94,1014.1,,,,0,0,0,,,,,,,,,8/8 Overcast,11000.0,,FEW,5900.0,BKN,11000.0,OVC,25000.0,,
KRDR,07-05-2002,06:00,METAR,,120,11.0,,,9999.0,Cloud Development Not Observable,21.0,18.0,29.94,1014.2,,,,0,0,0,,,,,,,,,8/8 Overcast,12000.0,,FEW,5900.0,BKN,12000.0,OVC,25000.0,,
KRDR,07-05-2002,05:00,METAR,,100,3.0,,,9999.0,Cloud Development Not Observable,20.0,18.0,29.96,1014.8,,,,0,0,0,,,,,,,,,8/8 Overcast,12000.0,,FEW,5900.0,BKN,12000.0,OVC,25000.0,,
KRDR,07-05-2002,04:00,METAR,,130,13.0,,,9999.0,Cloud Development Not Observable,20.0,18.0,29.92,1013.5,,,,0,0,0,,,,,,,,,8/8 Overcast,12000.0,,FEW,5900.0,FEW,7900.0,BKN,12000.0,OVC,25000.0
KRDR,07-05-2002,03:00,METAR,,120,12.0,,,9999.0,Cloud Development Not Observable,20.0,19.0,29.94,1013.9,,,,0,0,0,,,,,,.02 IN,,,8/8 Overcast,12000.0,,FEW,5900.0,FEW,7900.0,BKN,12000.0,OVC,25000.0
KRDR,07-05-2002,01:00,METAR,,120,10.0,,,9999.0,Rain/Cloud Development Not Observable,20.0,19.0,29.94,1014.5,,,,61,0,0,,,,,,,,,8/8 Overcast,12000.0,,FEW,7900.0,BKN,12000.0,OVC,25000.0,,
KRDR,07-05-2002,00:00,METAR,,140,4.0,,,9999.0,Cloud Development Not Observable,20.0,18.0,29.97,1015.3,,,,0,0,0,,,,,,,,,8/8 Overcast,11000.0,,FEW,5900.0,BKN,11000.0,OVC,25000.0,,
KRDR,07-04-2002,23:00,METAR,,130,11.0,,,9999.0,Rain/Cloud Development Not Observable,19.0,18.0,29.94,1014.4,,,,61,0,0,,,,,,,,,8/8 Overcast,11000.0,,BKN,11000.0,OVC,25000.0,,,,
KRDR,07-04-2002,22:00,METAR,,130,10.0,,,9999.0,Cloud Development Not Observable,19.0,16.0,29.99,1016.1,,,,0,0,0,,,,,,,,,8/8 Overcast,11000.0,,FEW,5000.0,BKN,11000.0,OVC,25000.0,,
KRDR,07-04-2002,21:00,METAR,,120,12.0,,,9999.0,Rain/Cloud Development Not Observable,18.0,17.0,30.01,1016.7,,,,61,0,0,,,,,,.39 IN,,,8/8 Overcast,10000.0,,FEW,5000.0,BKN,9900.0,OVC,25000.0,,
KRDR,07-04-2002,20:00,METAR,,170,17.0,,,9999.0,Thunderstorm with Rain or Snow/Light Rain Showers/Cloud Development Not Observable,16.0,16.0,30.08,1019.0,,,,95,80,0,,,,,,,,,8/8 Overcast,10000.0,,FEW,5000.0,BKN,9900.0,OVC,25000.0,,
KRDR,07-04-2002,19:00,METAR,,170,8.0,,,9999.0,Thunderstorm with Rain or Snow/Light Rain Showers/Cloud Development Not Observable,17.0,17.0,30.12,1020.6,,,,95,80,0,,,,,,,,,8/8 Overcast,10000.0,,FEW,5000.0,BKN,9900.0,OVC,25000.0,,
KRDR,07-04-2002,18:00,METAR,,130,9.0,,,9999.0,Thunderstorm with Rain or Snow/Light Rain Showers/Cloud Development Not Observable,17.0,16.0,30.09,1019.3,,,,95,80,0,,,,,,,,,8/8 Overcast,10000.0,,FEW,5000.0,BKN,9900.0,OVC,25000.0,,
KRDR,07-04-2002,17:00,METAR,,110,10.0,,,9999.0,Light Rain Showers/Cloud Development Not Observable,18.0,15.0,30.04,1017.9,,,,80,0,0,,,,,,,,,8/8 Overcast,10000.0,,BKN,9900.0,OVC,25000.0,,,,
KRDR,07-04-2002,16:00,METAR,,120,7.0,,,9999.0,Cloud Development Not Observable,19.0,14.0,30.08,1018.8,,,,0,0,0,,,,,,,,,8/8 Overcast,13000.0,,BKN,13000.0,OVC,25000.0,,,,
KRDR,07-04-2002,15:00,METAR,,110,9.0,,,9999.0,Cloud Development Not Observable,18.0,13.0,30.09,1019.3,,,,0,0,0,,,,,,,,,8/8 Overcast,13000.0,,BKN,13000.0,OVC,25000.0,,,,
KRDR,07-04-2002,14:00,METAR,,110,7.0,,,9999.0,Cloud Development Not Observable,17.0,14.0,30.12,1020.2,,,,0,0,0,,,,,,,,,8/8 Overcast,13000.0,,BKN,13000.0,OVC,25000.0,,,,
KRDR,07-04-2002,13:00,METAR,,130,5.0,,,9999.0,Cloud Development Not Observable,16.0,13.0,30.12,1020.1,,,,0,0,0,,,,,,,,,8/8 Overcast,13000.0,,BKN,13000.0,OVC,25000.0,,,,
KRDR,07-04-2002,12:00,METAR,,110,5.0,,,9999.0,Cloud Development Not Observable,16.0,13.0,30.10,1019.4,,,,0,0,0,,,,,,,,,8/8 Overcast,13000.0,,BKN,13000.0,OVC,25000.0,,,,
KRDR,07-04-2002,11:00,METAR,,70,5.0,,,9999.0,Cloud Development Not Observable,16.0,12.0,30.09,1019.1,,,,0,0,0,,,,,,,,,8/8 Overcast,12000.0,,FEW,4000.0,BKN,12000.0,OVC,25000.0,,
KRDR,07-04-2002,10:00,METAR,,80,4.0,,,9999.0,Cloud Development Not Observable,16.0,12.0,30.10,1019.3,,,,0,0,0,,,,,,,,,7/8 Mostly Cloudy,25000.0,,FEW,12000.0,BKN,25000.0,,,,
KRDR,07-04-2002,09:00,METAR,,110,4.0,,,9999.0,Cloud Development Not Observable,15.0,12.0,30.10,1019.3,,,,0,0,0,,,,,,,,,7/8 Mostly Cloudy,25000.0,,FEW,12000.0,BKN,25000.0,,,,
KRDR,07-04-2002,08:00,METAR,,70,7.0,,,9999.0,Cloud Development Not Observable,16.0,12.0,30.10,1019.3,,,,0,0,0,,,,,,,,,7/8 Mostly Cloudy,23000.0,,BKN,23000.0,,,,,,
KRDR,07-04-2002,07:00,METAR,,60,4.0,,,9999.0,Cloud Development Not Observable,16.0,12.0,30.11,1019.7,,,,0,0,0,,,,,,,,,8/8 Overcast,23000.0,,OVC,23000.0,,,,,,
KRDR,07-04-2002,06:00,METAR,,40,6.0,,,9999.0,Cloud Development Not Observable,17.0,12.0,30.11,1019.8,,,,0,0,0,,,,,,,,,7/8 Mostly Cloudy,20000.0,,BKN,20000.0,,,,,,
KRDR,07-04-2002,05:00,METAR,,10,5.0,,,9999.0,Cloud Development Not Observable,15.0,12.0,30.11,1019.7,,,,0,0,0,,,,,,,,,7/8 Mostly Cloudy,20000.0,,BKN,20000.0,,,,,,
KRDR,07-04-2002,04:00,METAR,,30,7.0,,,9999.0,Cloud Development Not Observable,18.0,13.0,30.09,1019.0,,,,0,0,0,,,,,,,,,4/8 Partly Cloudy,72000.0,,FEW,12000.0,SCT,25000.0,,,,
KRDR,07-04-2002,03:00,METAR,,30,8.0,,,9999.0,Cloud Development Not Observable,20.0,13.0,30.07,1018.4,,,,0,0,0,,,,,,,,,4/8 Partly Cloudy,72000.0,,FEW,12000.0,SCT,25000.0,,,,
KRDR,07-04-2002,02:00,METAR,,20,9.0,,,9999.0,Cloud Development Not Observable,22.0,12.0,30.04,1017.4,,,,0,0,0,,,,,,,,,4/8 Partly Cloudy,72000.0,,SCT,25000.0,,,,,,
KRDR,07-04-2002,01:00,METAR,,360,6.0,,,9999.0,Cloud Development Not Observable,24.0,11.0,30.02,1016.9,,,,0,0,0,,,,,,,,,4/8 Partly Cloudy,72000.0,,SCT,25000.0,,,,,,
KRDR,07-04-2002,00:00,METAR,,330,9.0,,,9999.0,Cloud Development Not Observable,27.0,9.0,30.02,1016.9,,,,0,0,0,,,,,,,,,2/8 Mostly Clear,72000.0,,FEW,25000.0,,,,,,
KRDR,07-03-2002,23:00,METAR,,320,8.0,,,9999.0,Cloud Development Not Observable,28.0,8.0,30.03,1017.1,,,,0,0,0,,,,,,,,,2/8 Mostly Clear,72000.0,,FEW,12000.0,FEW,25000.0,,,,
KRDR,07-03-2002,22:00,METAR,,,6.0,,,9999.0,Cloud Development Not Observable,28.0,8.0,30.03,1017.1,,,,0,0,0,,,,,,,,,2/8 Mostly Clear,72000.0,,FEW,12000.0,FEW,25000.0,,,,
KRDR,07-03-2002,21:00,METAR,,290,10.0,,,9999.0,Cloud Development Not Observable,28.0,7.0,30.04,1017.5,,,,0,0,0,,,,,,,,,2/8 Mostly Clear,72000.0,,FEW,12000.0,FEW,25000.0,,,,
KRDR,07-03-2002,20:00,METAR,,320,9.0,,,9999.0,Cloud Development Not Observable,28.0,8.0,30.03,1017.3,,,,0,0,0,,,,,,,,,2/8 Mostly Clear,72000.0,,FEW,9900.0,FEW,25000.0,,,,
KRDR,07-03-2002,19:00,METAR,,300,12.0,,,9999.0,Cloud Development Not Observable,28.0,7.0,30.03,1017.3,,,,0,0,0,,,,,,,,,2/8 Mostly Clear,72000.0,,FEW,9900.0,FEW,25000.0,,,,
KRDR,07-03-2002,18:00,METAR,,300,11.0,,,9999.0,Cloud Development Not Observable,28.0,6.0,30.04,1017.6,,,,0,0,0,,,,,,,,,2/8 Mostly Clear,72000.0,,FEW,25000.0,,,,,,
KRDR,07-03-2002,17:00,METAR,,300,10.0,,,9999.0,Cloud Development Not Observable,28.0,7.0,30.04,1017.6,,,,0,0,0,,,,,,,,,Clear,72000.0,,,73000.0,,,,,,
KRDR,07-03-2002,16:00,METAR,,290,7.0,,,9999.0,Cloud Development Not Observable,26.0,9.0,30.03,1017.3,,,,0,0,0,,,,,,,,,Clear,72000.0,,,73000.0,,,,,,
KRDR,07-03-2002,15:00,METAR,,270,8.0,,,9999.0,Cloud Development Not Observable,24.0,13.0,30.03,1017.0,,,,0,0,0,,,,,,,,,Clear,72000.0,,,73000.0,,,,,,
KRDR,07-03-2002,14:00,METAR,,280,8.0,,,9999.0,Cloud Development Not Observable,22.0,14.0,30.02,1016.9,,,,0,0,0,,,,,,,,,Clear,72000.0,,,73000.0,,,,,,
KRDR,07-03-2002,13:00,METAR,,230,9.0,,,9999.0,Cloud Development Not Observable,19.0,13.0,30.02,1016.9,,,,0,0,0,,,,,,,,,Clear,72000.0,,,73000.0,,,,,,
KRDR,07-03-2002,12:00,METAR,,290,6.0,,,9999.0,Cloud Development Not Observable,16.0,12.0,30.01,1016.4,,,,0,0,0,,,,,,,,,Clear,72000.0,,,73000.0,,,,,,
KRDR,07-03-2002,11:00,METAR,,270,5.0,,,9999.0,Cloud Development Not Observable,14.0,11.0,30.00,1016.3,,,,0,0,0,,,,,,,,,Clear,72000.0,,,73000.0,,,,,,
KRDR,07-03-2002,10:00,METAR,,260,6.0,,,9999.0,Cloud Development Not Observable,13.0,11.0,29.99,1015.7,,,,0,0,0,,,,,,,,,Clear,72000.0,,,73000.0,,,,,,
KRDR,07-03-2002,09:00,METAR,,240,3.0,,,9999.0,Cloud Development Not Observable,13.0,11.0,29.97,1015.2,,,,0,0,0,,,,,,,,,Clear,72000.0,,,73000.0,,,,,,
KRDR,07-03-2002,08:00,METAR,,250,6.0,,,9999.0,Cloud Development Not Observable,14.0,11.0,29.96,1014.7,,,,0,0,0,,,,,,,,,Clear,72000.0,,,73000.0,,,,,,
KRDR,07-03-2002,07:00,METAR,,240,6.0,,,9999.0,Cloud Development Not Observable,14.0,12.0,29.96,1014.9,,,,0,0,0,,,,,,,,,Clear,72000.0,,,73000.0,,,,,,
KRDR,07-03-2002,06:00,METAR,,230,6.0,,,9999.0,Cloud Development Not Observable,14.0,12.0,29.96,1014.7,,,,0,0,0,,,,,,,,,Clear,72000.0,,,73000.0,,,,,,
KRDR,07-03-2002,05:00,METAR,,240,5.0,,,9999.0,Cloud Development Not Observable,16.0,11.0,29.96,1014.9,,,,0,0,0,,,,,,,,,Clear,72000.0,,,73000.0,,,,,,
KRDR,07-03-2002,04:00,METAR,,250,3.0,,,9999.0,Cloud Development Not Observable,17.0,12.0,29.96,1014.7,,,,0,0,0,,,,,,,,,Clear,72000.0,,,73000.0,,,,,,
KRDR,07-03-2002,03:00,METAR,,270,3.0,,,9999.0,Cloud Development Not Observable,20.0,12.0,29.95,1014.5,,,,0,0,0,,,,,,,,,Clear,72000.0,,,73000.0,,,,,,
KRDR,07-03-2002,02:00,METAR,,270,5.0,,,9999.0,Cloud Development Not Observable,22.0,12.0,29.94,1014.2,,,,0,0,0,,,,,,,,,Clear,72000.0,,,73000.0,,,,,,
KRDR,07-03-2002,01:00,METAR,,290,6.0,,,9999.0,Cloud Development Not Observable,25.0,10.0,29.94,1013.9,,,,0,0,0,,,,,,,,,Clear,72000.0,,,73000.0,,,,,,
KRDR,07-03-2002,00:00,METAR,,290,9.0,,,9999.0,Cloud Development Not Observable,26.0,10.0,29.95,1014.3,,,,0,0,0,,,,,,,,,Clear,72000.0,,,73000.0,,,,,,
KRDR,07-02-2002,23:00,METAR,,290,10.0,,,9999.0,Cloud Development Not Observable,27.0,10.0,29.95,1014.3,,,,0,0,0,,,,,,,,,2/8 Mostly Clear,72000.0,,FEW,20000.0,,,,,,
KRDR,07-02-2002,22:00,METAR,,290,10.0,,,9999.0,Cloud Development Not Observable,27.0,8.0,29.95,1014.5,,,,0,0,0,,,,,,,,,2/8 Mostly Clear,72000.0,,FEW,5900.0,FEW,20000.0,,,,
KRDR,07-02-2002,21:00,METAR,,290,10.0,,,9999.0,Cloud Development Not Observable,27.0,7.0,29.96,1014.6,,,,0,0,0,,,,,,,,,2/8 Mostly Clear,72000.0,,FEW,5900.0,FEW,20000.0,,,,
KRDR,07-02-2002,20:00,METAR,,270,7.0,,,9999.0,Cloud Development Not Observable,27.0,9.0,29.96,1014.8,,,,0,0,0,,,,,,,,,2/8 Mostly Clear,72000.0,,FEW,5900.0,FEW,12000.0,,,,
KRDR,07-02-2002,19:00,METAR,,290,4.0,,,9999.0,Cloud Development Not Observable,26.0,7.0,29.97,1015.2,,,,0,0,0,,,,,,,,,2/8 Mostly Clear,72000.0,,FEW,5000.0,FEW,12000.0,,,,
KRDR,07-02-2002,18:00,METAR,,300,4.0,,,9999.0,Cloud Development Not Observable,26.0,10.0,29.99,1015.9,,,,0,0,0,,,,,,,,,2/8 Mostly Clear,72000.0,,FEW,12000.0,,,,,,
KRDR,07-02-2002,17:00,METAR,,260,5.0,,,9999.0,Cloud Development Not Observable,24.0,8.0,30.00,1016.1,,,,0,0,0,,,,,,,,,4/8 Partly Cloudy,72000.0,,SCT,12000.0,,,,,,
KRDR,07-02-2002,16:00,METAR,,310,7.0,,,9999.0,Cloud Development Not Observable,24.0,10.0,29.98,1015.5,,,,0,0,0,,,,,,,,,2/8 Mostly Clear,72000.0,,FEW,12000.0,,,,,,
KRDR,07-02-2002,15:00,METAR,,290,7.0,,,9999.0,Cloud Development Not Observable,22.0,12.0,29.98,1015.5,,,,0,0,0,,,,,,,,,4/8 Partly Cloudy,72000.0,,SCT,12000.0,,,,,,
KRDR,07-02-2002,14:00,METAR,,260,5.0,,,9999.0,Cloud Development Not Observable,19.0,13.0,29.99,1015.9,,,,0,0,0,,,,,,,,,7/8 Mostly Cloudy,12000.0,,BKN,12000.0,,,,,,
KRDR,07-02-2002,13:00,METAR,,240,6.0,,,9999.0,Cloud Development Not Observable,18.0,13.0,29.98,1015.5,,,,0,0,0,,,,,,,,,7/8 Mostly Cloudy,12000.0,,BKN,12000.0,,,,,,
KRDR,07-02-2002,12:00,METAR,,290,8.0,,,9999.0,Cloud Development Not Observable,17.0,13.0,29.94,1013.9,,,,0,0,0,,,,,,,,,7/8 Mostly Cloudy,12000.0,,FEW,5000.0,BKN,12000.0,,,,
KRDR,07-02-2002,11:00,METAR,,230,8.0,,,9999.0,Cloud Development Not Observable,15.0,13.0,29.91,1013.1,,,,0,0,0,,,,,,,,,7/8 Mostly Cloudy,10000.0,,SCT,5000.0,SCT,9900.0,BKN,12000.0,,
KRDR,07-02-2002,10:00,METAR,,220,6.0,,,9999.0,Cloud Development Not Observable,15.0,12.0,29.90,1012.6,,,,0,0,0,,,,,,,,,Clear,72000.0,,,73000.0,,,,,,
KRDR,07-02-2002,09:00,METAR,,250,4.0,,,9999.0,Cloud Development Not Observable,15.0,13.0,29.89,1012.2,,,,0,0,0,,,,,,,,,Clear,72000.0,,,73000.0,,,,,,
KRDR,07-02-2002,08:00,METAR,,230,8.0,,,9999.0,Cloud Development Not Observable,15.0,14.0,29.88,1012.0,,,,0,0,0,,,,,,,,,Clear,72000.0,,,73000.0,,,,,,
KRDR,07-02-2002,07:00,METAR,,230,6.0,,,9999.0,Cloud Development Not Observable,16.0,15.0,29.87,1011.6,,,,0,0,0,,,,,,,,,Clear,72000.0,,,73000.0,,,,,,
KRDR,07-02-2002,06:00,METAR,,240,5.0,,,9999.0,Cloud Development Not Observable,16.0,15.0,29.86,1011.2,,,,0,0,0,,,,,,,,,Clear,72000.0,,,73000.0,,,,,,
KRDR,07-02-2002,05:00,METAR,,200,4.0,,,9999.0,Cloud Development Not Observable,16.0,14.0,29.85,1011.1,,,,0,0,0,,,,,,,,,Clear,72000.0,,,73000.0,,,,,,
KRDR,07-02-2002,04:00,METAR,,270,5.0,,,9999.0,Cloud Development Not Observable,19.0,15.0,29.86,1011.2,,,,0,0,0,,,,,,,,,Clear,72000.0,,,73000.0,,,,,,
KRDR,07-02-2002,03:00,METAR,,280,5.0,,,9999.0,Cloud Development Not Observable,21.0,16.0,29.84,1010.6,,,,0,0,0,,,,,,,,,2/8 Mostly Clear,72000.0,,FEW,5900.0,,,,,,
KRDR,07-02-2002,02:00,METAR,,240,5.0,,,9999.0,Cloud Development Not Observable,23.0,18.0,29.79,1009.0,,,,0,0,0,,,,,,,,,2/8 Mostly Clear,72000.0,,FEW,5900.0,,,,,,
KRDR,07-02-2002,01:00,METAR,,300,4.0,,,9999.0,Cloud Development Not Observable,25.0,16.0,29.79,1008.8,,,,0,0,0,,,,,,,,,2/8 Mostly Clear,72000.0,,FEW,5900.0,FEW,20000.0,,,,
KRDR,07-02-2002,00:00,METAR,,300,9.0,,,9999.0,Cloud Development Not Observable,25.0,15.0,29.79,1008.9,,,,0,0,0,,,,,,,,,2/8 Mostly Clear,72000.0,,FEW,5900.0,FEW,20000.0,,,,
KRDR,07-01-2002,23:00,METAR,,310,13.0,,,9999.0,Cloud Development Not Observable,26.0,16.0,29.76,1008.0,,,,0,0,0,,,,,,,,,2/8 Mostly Clear,72000.0,,FEW,20000.0,,,,,,
KRDR,07-01-2002,22:00,METAR,,320,14.0,,,9999.0,Cloud Development Not Observable,26.0,18.0,29.74,1007.3,,,,0,0,0,,,,,,,,,2/8 Mostly Clear,72000.0,,FEW,20000.0,,,,,,
KRDR,07-01-2002,21:00,METAR,,330,15.0,,,9999.0,Cloud Development Not Observable,26.0,19.0,29.72,1006.5,,,,0,0,0,,,,,,,,,7/8 Mostly Cloudy,6000.0,,BKN,5900.0,BKN,20000.0,,,,
KRDR,07-01-2002,20:00,METAR,,330,15.0,,,9999.0,Cloud Development Not Observable,28.0,19.0,29.68,1005.4,,,,0,0,0,,,,,,,,,4/8 Partly Cloudy,72000.0,,SCT,5000.0,SCT,6900.0,SCT,20000.0,,
KRDR,07-01-2002,19:00,METAR,,320,12.0,,,9999.0,Cloud Development Not Observable,28.0,20.0,29.67,1005.0,,,,0,0,0,,,,,,,,,7/8 Mostly Cloudy,3900.0,,BKN,4000.0,BKN,6900.0,,,,
KRDR,07-01-2002,18:00,METAR,,200,10.0,,,9999.0,Cloud Development Not Observable,30.0,21.0,29.66,1004.6,,,,0,0,0,,,,,,,,,2/8 Mostly Clear,72000.0,,FEW,3500.0,,,,,,
KRDR,07-01-2002,17:00,METAR,,140,7.0,,,9999.0,Cloud Development Not Observable,29.0,20.0,29.67,1004.9,,,,0,0,0,,,,,,,,,2/8 Mostly Clear,72000.0,,FEW,5000.0,FEW,9900.0,,,,
KRDR,07-01-2002,16:00,METAR,,100,8.0,,,9999.0,Cloud Development Not Observable,28.0,18.0,29.71,1006.0,,,,0,0,0,,,,,,,,,4/8 Partly Cloudy,72000.0,,FEW,5400.0,SCT,6900.0,,,,
KRDR,07-01-2002,15:00,METAR,,60,6.0,,,9999.0,Cloud Development Not Observable,24.0,17.0,29.75,1007.4,,,,0,0,0,,,,,,,,,7/8 Mostly Cloudy,7000.0,,SCT,5400.0,BKN,6900.0,,,,
KRDR,07-01-2002,14:00,METAR,,110,8.0,,,9999.0,Cloud Development Not Observable,22.0,16.0,29.78,1008.5,,,,0,0,0,,,,,,,,,7/8 Mostly Cloudy,7000.0,,BKN,6900.0,,,,,,
KRDR,07-01-2002,13:00,METAR,,110,7.0,,,9999.0,Cloud Development Not Observable,20.0,16.0,29.83,1010.2,,,,0,0,0,,,,,,,,,4/8 Partly Cloudy,72000.0,,SCT,12000.0,,,,,,
KRDR,07-01-2002,12:00,METAR,,130,5.0,,,9999.0,Cloud Development Not Observable,18.0,15.0,29.82,1010.0,,,,0,0,0,,,,,,,,,2/8 Mostly Clear,72000.0,,FEW,9900.0,FEW,12000.0,,,,
KRDR,07-01-2002,11:00,METAR,,,1.0,,,9999.0,Cloud Development Not Observable,14.0,13.0,29.83,1010.3,,,,0,0,0,,,,,,,,,2/8 Mostly Clear,72000.0,,FEW,12000.0,FEW,20000.0,,,,
KRDR,07-01-2002,10:00,METAR,,,4.0,,,9999.0,Cloud Development Not Observable,16.0,13.0,29.82,1009.9,,,,0,0,0,,,,,,,,,2/8 Mostly Clear,72000.0,,FEW,12000.0,FEW,20000.0,,,,
KRDR,07-01-2002,09:00,METAR,,,3.0,,,9999.0,Cloud Development Not Observable,14.0,11.0,29.83,1010.3,,,,0,0,0,,,,,,,,,Clear,72000.0,,,73000.0,,,,,,
KRDR,07-01-2002,08:00,METAR,,210,6.0,,,9999.0,Cloud Development Not Observable,15.0,13.0,29.83,1010.4,,,,0,0,0,,,,,,,,,Clear,72000.0,,,73000.0,,,,,,
KRDR,07-01-2002,07:00,METAR,,,2.0,,,9999.0,Cloud Development Not Observable,16.0,13.0,29.83,1010.4,,,,0,0,0,,,,,,,,,Clear,72000.0,,,73000.0,,,,,,
KRDR,07-01-2002,06:00,METAR,,170,4.0,,,9999.0,Cloud Development Not Observable,17.0,13.0,29.86,1011.2,,,,0,0,0,,,,,,,,,Clear,72000.0,,,73000.0,,,,,,
KRDR,07-01-2002,05:00,METAR,,280,5.0,,,9999.0,Cloud Development Not Observable,19.0,13.0,29.87,1011.7,,,,0,0,0,,,,,,,,,Clear,72000.0,,,73000.0,,,,,,
KRDR,07-01-2002,04:00,METAR,,200,5.0,,,9999.0,Cloud Development Not Observable,19.0,14.0,29.87,1011.6,,,,0,0,0,,,,,,,,,Clear,72000.0,,,73000.0,,,,,,
KRDR,07-01-2002,03:00,METAR,,230,5.0,,,9999.0,Cloud Development Not Observable,21.0,15.0,29.87,1011.6,,,,0,0,0,,,,,,,,,Clear,72000.0,,,73000.0,,,,,,
KRDR,07-01-2002,02:00,METAR,,230,5.0,,,9999.0,Cloud Development Not Observable,23.0,15.0,29.85,1011.0,,,,0,0,0,,,,,,,,,Clear,72000.0,,,73000.0,,,,,,
KRDR,07-01-2002,01:00,METAR,,260,6.0,,,9999.0,Cloud Development Not Observable,26.0,14.0,29.85,1010.8,,,,0,0,0,,,,,,,,,Clear,72000.0,,,73000.0,,,,,,
KRDR,07-01-2002,00:00,METAR,,280,8.0,,,9999.0,Cloud Development Not Observable,28.0,12.0,29.84,1010.5,,,,0,0,0,,,,,,,,,Clear,72000.0,,,73000.0,,,,,,
KRDR,06-30-2002,23:00,METAR,,280,12.0,,,9999.0,Cloud Development Not Observable,28.0,11.0,29.84,1010.4,,,,0,0,0,,,,,,,,,Clear,72000.0,,,73000.0,,,,,,
KRDR,06-30-2002,22:00,METAR,,270,13.0,,,9999.0,Cloud Development Not Observable,29.0,13.0,29.83,1010.1,,,,0,0,0,,,,,,,,,Clear,72000.0,,,73000.0,,,,,,
KRDR,06-30-2002,21:00,METAR,,280,14.0,,,9999.0,Cloud Development Not Observable,29.0,11.0,29.82,1009.7,,,,0,0,0,,,,,,,,,Clear,72000.0,,,73000.0,,,,,,
KRDR,06-30-2002,20:00,METAR,,280,16.0,,,9999.0,Cloud Development Not Observable,29.0,13.0,29.82,1009.7,,,,0,0,0,,,,,,,,,2/8 Mostly Clear,72000.0,,FEW,25000.0,,,,,,
KRDR,06-30-2002,19:00,METAR,,280,12.0,,,9999.0,Cloud Development Not Observable,29.0,14.0,29.81,1009.3,,,,0,0,0,,,,,,,,,2/8 Mostly Clear,72000.0,,FEW,25000.0,,,,,,
KRDR,06-30-2002,18:00,METAR,,280,11.0,,,9999.0,Cloud Development Not Observable,29.0,15.0,29.79,1008.5,,,,0,0,0,,,,,,,,,2/8 Mostly Clear,72000.0,,FEW,25000.0,,,,,,
KRDR,06-30-2002,17:00,METAR,,280,9.0,,,9999.0,Cloud Development Not Observable,27.0,16.0,29.79,1008.6,,,,0,0,0,,,,,,,,,4/8 Partly Cloudy,72000.0,,SCT,25000.0,,,,,,
KRDR,06-30-2002,16:00,METAR,,290,12.0,,,9999.0,Cloud Development Not Observable,26.0,17.0,29.76,1007.6,,,,0,0,0,,,,,,,,,4/8 Partly Cloudy,72000.0,,SCT,25000.0,,,,,,
KRDR,06-30-2002,15:00,METAR,,300,12.0,,,9999.0,Cloud Development Not Observable,26.0,17.0,29.73,1006.6,,,,0,0,0,,,,,,,,,2/8 Mostly Clear,72000.0,,FEW,25000.0,,,,,,
KRDR,06-30-2002,14:00,METAR,,330,9.0,,,9999.0,Cloud Development Not Observable,24.0,18.0,29.71,1005.9,,,,0,0,0,,,,,,,,,2/8 Mostly Clear,72000.0,,FEW,25000.0,,,,,,
KRDR,06-30-2002,13:00,METAR,,310,13.0,,,9999.0,Cloud Development Not Observable,24.0,16.0,29.68,1004.8,,,,0,0,0,,,,,,,,,2/8 Mostly Clear,72000.0,,FEW,25000.0,,,,,,
KRDR,06-30-2002,12:00,METAR,,,4.0,,,9999.0,Cloud Development Not Observable,24.0,20.0,29.65,1003.7,,,,0,0,0,,,,,,,,,2/8 Mostly Clear,72000.0,,FEW,25000.0,,,,,,
KRDR,06-30-2002,11:00,METAR,,180,5.0,,,9999.0,Cloud Development Not Observable,25.0,19.0,29.62,1002.6,,,,0,0,0,,,,,,,,,4/8 Partly Cloudy,72000.0,,FEW,12000.0,SCT,25000.0,,,,
KRDR,06-30-2002,10:00,METAR,,190,12.0,,,9999.0,Cloud Development Not Observable,27.0,18.0,29.59,1001.5,,,,0,0,0,,,,,,,,,7/8 Mostly Cloudy,12000.0,,FEW,7900.0,SCT,12000.0,BKN,25000.0,,
KRDR,06-30-2002,09:00,METAR,,160,12.0,,,9999.0,Cloud Development Not Observable,28.0,17.0,29.57,1000.8,,,,0,0,0,,,,,,.01 IN,,,7/8 Mostly Cloudy,12000.0,,FEW,5900.0,FEW,7900.0,SCT,12000.0,BKN,25000.0
KRDR,06-30-2002,08:00,METAR,,,6.0,,,9999.0,Thunderstorm with Rain or Snow/Light Rain Showers/Cloud Development Not Observable,28.0,15.0,29.60,1001.9,,,,95,80,0,,,,,,,,,7/8 Mostly Cloudy,12000.0,,FEW,5900.0,BKN,12000.0,BKN,25000.0,,
KRDR,06-30-2002,07:00,METAR,,210,14.0,,,9999.0,Cloud Development Not Observable,31.0,13.0,29.55,1000.3,,,,0,0,0,,,,,,,,,7/8 Mostly Cloudy,12000.0,,FEW,5900.0,SCT,12000.0,BKN,25000.0,,
KRDR,06-30-2002,06:00,METAR,,170,23.0,29.0,,9999.0,Light Rain Showers/Cloud Development Not Observable,34.0,11.0,29.55,1000.3,,,,80,0,0,,,,,,,,,7/8 Mostly Cloudy,12000.0,,FEW,6900.0,SCT,12000.0,BKN,25000.0,,
KRDR,06-30-2002,05:00,METAR,,210,12.0,,,9999.0,Cloud Development Not Observable,31.0,14.0,29.59,1001.7,,,,0,0,0,,,,,,,,,7/8 Mostly Cloudy,25000.0,,FEW,12000.0,BKN,25000.0,,,,
KRDR,06-30-2002,04:00,METAR,,190,14.0,28.0,,9999.0,Cloud Development Not Observable,31.0,22.0,29.61,1002.6,,,,0,0,0,,,,,,,,,7/8 Mostly Cloudy,25000.0,,BKN,25000.0,,,,,,
KRDR,06-30-2002,03:00,METAR,,170,15.0,,,9999.0,Cloud Development Not Observable,31.0,23.0,29.57,1001.2,,,,0,0,0,,,,,,,,,4/8 Partly Cloudy,72000.0,,SCT,25000.0,,,,,,
KRDR,06-30-2002,02:00,METAR,,150,13.0,21.0,,9999.0,Cloud Development Not Observable,31.0,24.0,29.56,1000.6,,,,0,0,0,,,,,,,,,2/8 Mostly Clear,72000.0,,FEW,25000.0,,,,,,
KRDR,06-30-2002,01:00,METAR,,150,13.0,,,9999.0,Cloud Development Not Observable,32.0,24.0,29.57,1001.2,,,,0,0,0,,,,,,,,,2/8 Mostly Clear,72000.0,,FEW,25000.0,,,,,,
KRDR,06-30-2002,00:00,METAR,,150,15.0,,,9999.0,Cloud Development Not Observable,34.0,25.0,29.58,1001.5,,,,0,0,0,,,,,,,,,2/8 Mostly Clear,72000.0,,FEW,25000.0,,,,,,
KRDR,06-29-2002,23:00,METAR,,150,14.0,,,9999.0,Cloud Development Not Observable,35.0,25.0,29.59,1001.8,,,,0,0,0,,,,,,,,,2/8 Mostly Clear,72000.0,,FEW,25000.0,,,,,,
KRDR,06-29-2002,22:00,METAR,,140,12.0,,,9999.0,Cloud Development Not Observable,35.0,25.0,29.61,1002.3,,,,0,0,0,,,,,,,,,2/8 Mostly Clear,72000.0,,FEW,12000.0,FEW,25000.0,,,,
KRDR,06-29-2002,21:00,METAR,,140,13.0,,,9999.0,Cloud Development Not Observable,34.0,26.0,29.63,1003.2,,,,0,0,0,,,,,,,,,2/8 Mostly Clear,72000.0,,FEW,12000.0,FEW,25000.0,,,,
KRDR,06-29-2002,20:00,METAR,,160,13.0,,,9999.0,Cloud Development Not Observable,34.0,24.0,29.66,1004.3,,,,0,0,0,,,,,,,,,2/8 Mostly Clear,72000.0,,FEW,12000.0,FEW,25000.0,,,,
KRDR,06-29-2002,19:00,METAR,,160,12.0,,,9999.0,Cloud Development Not Observable,33.0,24.0,29.66,1004.3,,,,0,0,0,,,,,,,,,4/8 Partly Cloudy,72000.0,,FEW,12000.0,SCT,25000.0,,,,
KRDR,06-29-2002,18:00,METAR,,160,12.0,,,9999.0,Cloud Development Not Observable,31.0,24.0,29.70,1005.3,,,,0,0,0,,,,,,,,,7/8 Mostly Cloudy,25000.0,,FEW,12000.0,BKN,25000.0,,,,
KRDR,06-29-2002,17:00,METAR,,170,13.0,,,9999.0,Cloud Development Not Observable,29.0,24.0,29.70,1005.4,,,,0,0,0,,,,,,,,,7/8 Mostly Cloudy,25000.0,,FEW,12000.0,BKN,25000.0,,,,
KRDR,06-29-2002,16:00,METAR,,170,8.0,,,9999.0,Cloud Development Not Observable,25.0,22.0,29.71,1005.9,,,,0,0,0,,,,,,,,,7/8 Mostly Cloudy,12000.0,,FEW,5900.0,SCT,12000.0,BKN,25000.0,,
KRDR,06-29-2002,15:00,METAR,,180,11.0,,,9999.0,Thunderstorm/Cloud Development Not Observable,24.0,22.0,29.71,1005.9,,,,17,0,0,,,,,,,,,7/8 Mostly Cloudy,12000.0,,SCT,5900.0,BKN,12000.0,BKN,25000.0,,
KRDR,06-29-2002,14:00,METAR,,170,12.0,,,9999.0,Cloud Development Not Observable,26.0,21.0,29.68,1005.1,,,,0,0,0,,,,,,,,,7/8 Mostly Cloudy,12000.0,,BKN,12000.0,BKN,25000.0,,,,
KRDR,06-29-2002,13:00,METAR,,170,9.0,,,9999.0,Cloud Development Not Observable,25.0,22.0,29.68,1005.1,,,,0,0,0,,,,,,,,,7/8 Mostly Cloudy,12000.0,,BKN,12000.0,BKN,25000.0,,,,
KRDR,06-29-2002,12:00,METAR,,140,9.0,,,9999.0,Cloud Development Not Observable,23.0,20.0,29.67,1004.5,,,,0,0,0,,,,,,,,,7/8 Mostly Cloudy,25000.0,,FEW,15000.0,BKN,25000.0,,,,
KRDR,06-29-2002,11:00,METAR,,140,9.0,,,9999.0,Cloud Development Not Observable,23.0,20.0,29.68,1004.9,,,,0,0,0,,,,,,,,,7/8 Mostly Cloudy,25000.0,,FEW,12000.0,FEW,15000.0,BKN,25000.0,,
KRDR,06-29-2002,10:00,METAR,,130,9.0,,,9999.0,Cloud Development Not Observable,23.0,20.0,29.67,1004.5,,,,0,0,0,,,,,,,,,7/8 Mostly Cloudy,15000.0,,FEW,12000.0,SCT,15000.0,BKN,25000.0,,
KRDR,06-29-2002,09:00,METAR,,100,6.0,,,9999.0,Cloud Development Not Observable,24.0,20.0,29.66,1004.1,,,,0,0,0,,,,,,,,,7/8 Mostly Cloudy,15000.0,,FEW,5900.0,SCT,15000.0,BKN,25000.0,,
KRDR,06-29-2002,08:00,METAR,,,6.0,,,9999.0,Thunderstorm/Cloud Development Not Observable,25.0,19.0,29.65,1003.9,,,,17,0,0,,,,,,,,,8/8 Overcast,9000.0,,FEW,5900.0,SCT,8900.0,SCT,14000.0,OVC,25000.0
KRDR,06-29-2002,07:00,METAR,,170,7.0,,,9999.0,Cloud Development Not Observable,25.0,19.0,29.65,1003.8,,,,0,0,0,,,,,,,,,8/8 Overcast,25000.0,,FEW,15000.0,OVC,25000.0,,,,
KRDR,06-29-2002,06:00,METAR,,150,13.0,,,9999.0,Cloud Development Not Observable,26.0,18.0,29.66,1004.4,,,,0,0,0,,,,,,,,,8/8 Overcast,25000.0,,FEW,15000.0,OVC,25000.0,,,,
KRDR,06-29-2002,05:00,METAR,,150,11.0,,,9999.0,Cloud Development Not Observable,26.0,18.0,29.70,1005.4,,,,0,0,0,,,,,,,,,7/8 Mostly Cloudy,25000.0,,FEW,15000.0,BKN,25000.0,,,,
KRDR,06-29-2002,04:00,METAR,,150,10.0,,,9999.0,Cloud Development Not Observable,26.0,19.0,29.72,1006.1,,,,0,0,0,,,,,,,,,7/8 Mostly Cloudy,20000.0,,FEW,14000.0,BKN,20000.0,,,,
KRDR,06-29-2002,03:00,METAR,,130,8.0,,,9999.0,Cloud Development Not Observable,27.0,20.0,29.71,1006.0,,,,0,0,0,,,,,,,,,7/8 Mostly Cloudy,20000.0,,FEW,14000.0,BKN,20000.0,,,,
KRDR,06-29-2002,02:00,METAR,,140,12.0,,,9999.0,Cloud Development Not Observable,28.0,19.0,29.72,1006.2,,,,0,0,0,,,,,,,,,2/8 Mostly Clear,72000.0,,FEW,20000.0,,,,,,
KRDR,06-29-2002,01:00,METAR,,140,11.0,,,9999.0,Cloud Development Not Observable,29.0,20.0,29.73,1006.6,,,,0,0,0,,,,,,,,,2/8 Mostly Clear,72000.0,,FEW,20000.0,,,,,,
KRDR,06-29-2002,00:00,METAR,,140,13.0,,,9999.0,Cloud Development Not Observable,31.0,21.0,29.74,1007.1,,,,0,0,0,,,,,,,,,4/8 Partly Cloudy,72000.0,,SCT,20000.0,,,,,,
KRDR,06-28-2002,23:00,METAR,,150,13.0,,,9999.0,Cloud Development Not Observable,31.0,20.0,29.75,1007.4,,,,0,0,0,,,,,,,,,4/8 Partly Cloudy,72000.0,,SCT,20000.0,,,,,,
KRDR,06-28-2002,22:00,METAR,,150,15.0,,,9999.0,Cloud Development Not Observable,32.0,20.0,29.76,1007.6,,,,0,0,0,,,,,,,,,4/8 Partly Cloudy,72000.0,,SCT,20000.0,,,,,,
KRDR,06-28-2002,21:00,METAR,,150,16.0,21.0,,9999.0,Cloud Development Not Observable,32.0,20.0,29.77,1008.1,,,,0,0,0,,,,,,,,,7/8 Mostly Cloudy,20000.0,,BKN,20000.0,,,,,,
KRDR,06-28-2002,20:00,METAR,,150,13.0,,,9999.0,Cloud Development Not Observable,31.0,19.0,29.79,1008.7,,,,0,0,0,,,,,,,,,7/8 Mostly Cloudy,20000.0,,BKN,20000.0,,,,,,
KRDR,06-28-2002,19:00,METAR,,180,12.0,,,9999.0,Cloud Development Not Observable,30.0,19.0,29.80,1009.0,,,,0,0,0,,,,,,,,,7/8 Mostly Cloudy,20000.0,,BKN,20000.0,,,,,,
KRDR,06-28-2002,18:00,METAR,,170,12.0,,,9999.0,Cloud Development Not Observable,29.0,19.0,29.82,1009.7,,,,0,0,0,,,,,,,,,7/8 Mostly Cloudy,20000.0,,BKN,20000.0,,,,,,
KRDR,06-28-2002,17:00,METAR,,170,9.0,,,9999.0,Cloud Development Not Observable,28.0,20.0,29.83,1010.1,,,,0,0,0,,,,,,,,,7/8 Mostly Cloudy,20000.0,,BKN,20000.0,,,,,,
KRDR,06-28-2002,15:00,METAR,,190,11.0,,,9999.0,Cloud Development Not Observable,26.0,19.0,29.85,1010.8,,,,0,0,0,,,,,,,,,7/8 Mostly Cloudy,20000.0,,BKN,20000.0,,,,,,
KRDR,06-28-2002,14:00,METAR,,180,11.0,,,9999.0,Cloud Development Not Observable,23.0,18.0,29.86,1011.2,,,,0,0,0,,,,,,,,,7/8 Mostly Cloudy,20000.0,,BKN,20000.0,,,,,,
KRDR,06-28-2002,13:00,METAR,,180,8.0,,,9999.0,Cloud Development Not Observable,22.0,18.0,29.86,1011.1,,,,0,0,0,,,,,,,,,7/8 Mostly Cloudy,20000.0,,BKN,20000.0,,,,,,
KRDR,06-28-2002,12:00,METAR,,160,7.0,,,9999.0,Cloud Development Not Observable,20.0,18.0,29.85,1010.9,,,,0,0,0,,,,,,,,,7/8 Mostly Cloudy,20000.0,,BKN,20000.0,,,,,,
KRDR,06-28-2002,11:00,METAR,,170,7.0,,,9999.0,Cloud Development Not Observable,20.0,18.0,29.85,1010.9,,,,0,0,0,,,,,,,,,7/8 Mostly Cloudy,20000.0,,BKN,20000.0,,,,,,
KRDR,06-28-2002,10:00,METAR,,190,6.0,,,9999.0,Haze/Cloud Development Not Observable,19.0,17.0,29.85,1010.9,,,,5,0,0,,,,,,,,,4/8 Partly Cloudy,72000.0,,SCT,20000.0,,,,,,
KRDR,06-28-2002,09:00,METAR,,170,5.0,,,8000.0,Mist/Cloud Development Not Observable,19.0,17.0,29.85,1010.9,,,,10,0,0,,,,,,,,,2/8 Mostly Clear,72000.0,,FEW,20000.0,,,,,,
KRDR,06-28-2002,08:00,METAR,,170,5.0,,,9999.0,Cloud Development Not Observable,20.0,18.0,29.84,1010.6,,,,0,0,0,,,,,,,,,Clear,72000.0,,,73000.0,,,,,,
KRDR,06-28-2002,07:00,METAR,,170,5.0,,,9999.0,Cloud Development Not Observable,21.0,18.0,29.86,1011.1,,,,0,0,0,,,,,,,,,Clear,72000.0,,,73000.0,,,,,,
KRDR,06-28-2002,06:00,METAR,,200,5.0,,,9999.0,Cloud Development Not Observable,21.0,17.0,29.86,1011.1,,,,0,0,0,,,,,,,,,Clear,72000.0,,,73000.0,,,,,,
KRDR,06-28-2002,05:00,METAR,,190,6.0,,,9999.0,Cloud Development Not Observable,21.0,18.0,29.84,1010.6,,,,0,0,0,,,,,,,,,Clear,72000.0,,,73000.0,,,,,,
KRDR,06-28-2002,04:00,METAR,,170,6.0,,,9999.0,Cloud Development Not Observable,23.0,19.0,29.85,1010.9,,,,0,0,0,,,,,,,,,Clear,72000.0,,,73000.0,,,,,,
KRDR,06-28-2002,03:00,METAR,,160,5.0,,,9999.0,Cloud Development Not Observable,24.0,19.0,29.85,1010.9,,,,0,0,0,,,,,,,,,Clear,72000.0,,,73000.0,,,,,,
KRDR,06-28-2002,02:00,METAR,,200,4.0,,,9999.0,Cloud Development Not Observable,26.0,20.0,29.84,1010.6,,,,0,0,0,,,,,,,,,Clear,72000.0,,,73000.0,,,,,,
KRDR,06-28-2002,01:00,METAR,,240,5.0,,,9999.0,Cloud Development Not Observable,28.0,21.0,29.86,1011.3,,,,0,0,0,,,,,,,,,2/8 Mostly Clear,72000.0,,FEW,5000.0,FEW,20000.0,,,,
KRDR,06-28-2002,00:00,METAR,,240,7.0,,,9999.0,Cloud Development Not Observable,30.0,19.0,29.87,1011.5,,,,0,0,0,,,,,,,,,2/8 Mostly Clear,72000.0,,FEW,5000.0,FEW,20000.0,,,,
KRDR,06-27-2002,23:00,METAR,,220,7.0,,,9999.0,Cloud Development Not Observable,31.0,16.0,29.87,1011.5,,,,0,0,0,,,,,,,,,2/8 Mostly Clear,72000.0,,FEW,5000.0,FEW,20000.0,,,,
KRDR,06-27-2002,22:00,METAR,,,5.0,,,9999.0,Cloud Development Not Observable,32.0,16.0,29.88,1011.9,,,,0,0,0,,,,,,,,,2/8 Mostly Clear,72000.0,,FEW,5000.0,FEW,20000.0,,,,
KRDR,06-27-2002,21:00,METAR,,,5.0,,,9999.0,Cloud Development Not Observable,31.0,17.0,29.89,1012.2,,,,0,0,0,,,,,,,,,2/8 Mostly Clear,72000.0,,FEW,5000.0,FEW,20000.0,,,,
KRDR,06-27-2002,20:00,METAR,,,4.0,,,9999.0,Cloud Development Not Observable,31.0,17.0,29.91,1012.7,,,,0,0,0,,,,,,,,,2/8 Mostly Clear,72000.0,,FEW,5000.0,FEW,20000.0,,,,
KRDR,06-27-2002,19:00,METAR,,,6.0,,,9999.0,Cloud Development Not Observable,31.0,18.0,29.92,1013.0,,,,0,0,0,,,,,,,,,4/8 Partly Cloudy,72000.0,,FEW,5000.0,SCT,20000.0,,,,
KRDR,06-27-2002,18:00,METAR,,,6.0,,,9999.0,Cloud Development Not Observable,30.0,20.0,29.93,1013.4,,,,0,0,0,,,,,,,,,4/8 Partly Cloudy,72000.0,,FEW,5000.0,SCT,20000.0,,,,
KRDR,06-27-2002,17:00,METAR,,,3.0,,,9999.0,Cloud Development Not Observable,28.0,19.0,29.93,1013.4,,,,0,0,0,,,,,,,,,4/8 Partly Cloudy,72000.0,,FEW,5000.0,SCT,20000.0,,,,
KRDR,06-27-2002,16:00,METAR,,320,5.0,,,9999.0,Cloud Development Not Observable,28.0,21.0,29.94,1013.8,,,,0,0,0,,,,,,,,,2/8 Mostly Clear,72000.0,,FEW,20000.0,,,,,,
KRDR,06-27-2002,15:00,METAR,,320,7.0,,,9999.0,Cloud Development Not Observable,26.0,20.0,29.95,1014.1,,,,0,0,0,,,,,,,,,2/8 Mostly Clear,72000.0,,FEW,20000.0,,,,,,
KRDR,06-27-2002,14:00,METAR,,290,8.0,,,9999.0,Cloud Development Not Observable,25.0,20.0,29.96,1014.5,,,,0,0,0,,,,,,,,,2/8 Mostly Clear,72000.0,,FEW,20000.0,,,,,,
KRDR,06-27-2002,13:00,METAR,,290,6.0,,,9999.0,Cloud Development Not Observable,23.0,20.0,29.96,1014.3,,,,0,0,0,,,,,,,,,2/8 Mostly Clear,72000.0,,FEW,20000.0,,,,,,
KRDR,06-27-2002,12:00,METAR,,270,4.0,,,9999.0,Cloud Development Not Observable,20.0,19.0,29.96,,,,,0,0,0,,,,,,,,,2/8 Mostly Clear,72000.0,,FEW,20000.0,,,,,,
KRDR,06-27-2002,11:00,METAR,,250,3.0,,,9999.0,Cloud Development Not Observable,18.0,18.0,29.95,,,,,0,0,0,,,,,,,,,4/8 Partly Cloudy,72000.0,,SCT,20000.0,,,,,,
KRDR,06-27-2002,10:00,METAR,,240,3.0,,,9999.0,Cloud Development Not Observable,18.0,18.0,29.94,,,,,0,0,0,,,,,,,,,4/8 Partly Cloudy,72000.0,,SCT,20000.0,,,,,,
KRDR,06-27-2002,09:00,METAR,,270,2.0,,,9999.0,Cloud Development Not Observable,18.0,18.0,29.94,,,,,0,0,0,,,,,,,,,4/8 Partly Cloudy,72000.0,,SCT,20000.0,,,,,,
KRDR,06-27-2002,08:00,METAR,,,2.0,,,9999.0,Cloud Development Not Observable,20.0,19.0,29.94,1014.0,,,,0,0,0,,,,,,,,,7/8 Mostly Cloudy,20000.0,,BKN,20000.0,,,,,,
KRDR,06-27-2002,07:00,METAR,,270,4.0,,,9999.0,Cloud Development Not Observable,20.0,19.0,29.95,1014.1,,,,0,0,0,,,,,,,,,7/8 Mostly Cloudy,20000.0,,BKN,20000.0,,,,,,
KRDR,06-27-2002,06:00,METAR,,260,5.0,,,9999.0,Cloud Development Not Observable,20.0,19.0,29.94,1014.0,,,,0,0,0,,,,,,,,,7/8 Mostly Cloudy,20000.0,,BKN,20000.0,,,,,,
KRDR,06-27-2002,05:00,METAR,,280,5.0,,,9999.0,Cloud Development Not Observable,21.0,19.0,29.94,1014.0,,,,0,0,0,,,,,,,,,7/8 Mostly Cloudy,20000.0,,BKN,20000.0,,,,,,
KRDR,06-27-2002,04:00,METAR,,250,5.0,,,9999.0,Cloud Development Not Observable,21.0,20.0,29.94,1014.0,,,,0,0,0,,,,,,,,,7/8 Mostly Cloudy,25000.0,,BKN,25000.0,,,,,,
KRDR,06-27-2002,03:00,METAR,,260,4.0,,,9999.0,Cloud Development Not Observable,22.0,20.0,29.94,1013.8,,,,0,0,0,,,,,,,,,4/8 Partly Cloudy,72000.0,,FEW,5000.0,SCT,25000.0,,,,
KRDR,06-27-2002,02:00,METAR,,270,4.0,,,9999.0,Cloud Development Not Observable,24.0,20.0,29.93,1013.5,,,,0,0,0,,,,,,,,,4/8 Partly Cloudy,72000.0,,FEW,5000.0,SCT,25000.0,,,,
KRDR,06-27-2002,01:00,METAR,,290,4.0,,,9999.0,Cloud Development Not Observable,26.0,20.0,29.94,1013.8,,,,0,0,0,,,,,,,,,4/8 Partly Cloudy,72000.0,,FEW,5000.0,SCT,25000.0,,,,
KRDR,06-27-2002,00:00,METAR,,320,7.0,,,9999.0,Cloud Development Not Observable,28.0,19.0,29.94,1013.9,,,,0,0,0,,,,,,,,,4/8 Partly Cloudy,72000.0,,FEW,5000.0,SCT,25000.0,,,,
KRDR,06-26-2002,23:00,METAR,,320,8.0,,,9999.0,Cloud Development Not Observable,28.0,18.0,29.95,1014.2,,,,0,0,0,,,,,,,,,4/8 Partly Cloudy,72000.0,,SCT,5000.0,SCT,25000.0,,,,
KRDR,06-26-2002,22:00,METAR,,300,7.0,,,9999.0,Cloud Development Not Observable,28.0,18.0,29.95,1014.4,,,,0,0,0,,,,,,,,,4/8 Partly Cloudy,72000.0,,SCT,5000.0,SCT,25000.0,,,,
KRDR,06-26-2002,21:00,METAR,,330,10.0,,,9999.0,Cloud Development Not Observable,29.0,18.0,29.96,1014.8,,,,0,0,0,,,,,,,,,4/8 Partly Cloudy,72000.0,,SCT,5000.0,SCT,25000.0,,,,
KRDR,06-26-2002,20:00,METAR,,300,7.0,,,9999.0,Cloud Development Not Observable,28.0,18.0,29.97,1014.9,,,,0,0,0,,,,,,,,,4/8 Partly Cloudy,72000.0,,FEW,5000.0,SCT,25000.0,,,,
KRDR,06-26-2002,19:00,METAR,,340,7.0,,,9999.0,Cloud Development Not Observable,28.0,18.0,29.98,1015.3,,,,0,0,0,,,,,,,,,2/8 Mostly Clear,72000.0,,FEW,5000.0,FEW,25000.0,,,,
KRDR,06-26-2002,18:00,METAR,,320,12.0,,,9999.0,Cloud Development Not Observable,27.0,18.0,29.99,1015.6,,,,0,0,0,,,,,,,,,2/8 Mostly Clear,72000.0,,FEW,5000.0,FEW,25000.0,,,,
KRDR,06-26-2002,17:00,METAR,,320,10.0,,,9999.0,Cloud Development Not Observable,26.0,17.0,29.99,1015.8,,,,0,0,0,,,,,,,,,2/8 Mostly Clear,72000.0,,FEW,5000.0,FEW,25000.0,,,,
KRDR,06-26-2002,16:00,METAR,,330,8.0,,,9999.0,Cloud Development Not Observable,26.0,18.0,30.01,1016.3,,,,0,0,0,,,,,,,,,2/8 Mostly Clear,72000.0,,FEW,5000.0,FEW,25000.0,,,,
KRDR,06-26-2002,15:00,METAR,,320,9.0,,,9999.0,Cloud Development Not Observable,24.0,18.0,30.01,1016.3,,,,0,0,0,,,,,,,,,2/8 Mostly Clear,72000.0,,FEW,25000.0,,,,,,
KRDR,06-26-2002,14:00,METAR,,300,7.0,,,9999.0,Cloud Development Not Observable,22.0,19.0,30.00,1016.1,,,,0,0,0,,,,,,,,,2/8 Mostly Clear,72000.0,,FEW,25000.0,,,,,,
KRDR,06-26-2002,13:00,METAR,,280,6.0,,,9999.0,Cloud Development Not Observable,20.0,18.0,30.00,1016.2,,,,0,0,0,,,,,,,,,2/8 Mostly Clear,72000.0,,FEW,25000.0,,,,,,
KRDR,06-26-2002,12:00,METAR,,290,5.0,,,9999.0,Cloud Development Not Observable,17.0,17.0,29.98,1015.3,,,,0,0,0,,,,,,,,,2/8 Mostly Clear,72000.0,,FEW,20000.0,,,,,,
KRDR,06-26-2002,11:00,METAR,,290,5.0,,,9999.0,Cloud Development Not Observable,16.0,16.0,29.97,1015.3,,,,0,0,0,,,,,,,,,Clear,72000.0,,,73000.0,,,,,,
KRDR,06-26-2002,10:00,METAR,,280,4.0,,,9999.0,Cloud Development Not Observable,16.0,16.0,29.96,1014.9,,,,0,0,0,,,,,,,,,Clear,72000.0,,,73000.0,,,,,,
KRDR,06-26-2002,09:00,METAR,,300,2.0,,,9999.0,Cloud Development Not Observable,16.0,16.0,29.96,1014.6,,,,0,0,0,,,,,,,,,Clear,72000.0,,,73000.0,,,,,,
KRDR,06-26-2002,08:00,METAR,,300,3.0,,,9999.0,Cloud Development Not Observable,17.0,17.0,29.96,1014.7,,,,0,0,0,,,,,,,,,4/8 Partly Cloudy,72000.0,,SCT,20000.0,,,,,,
KRDR,06-26-2002,07:00,METAR,,280,4.0,,,9999.0,Cloud Development Not Observable,17.0,17.0,29.96,1014.5,,,,0,0,0,,,,,,,,,4/8 Partly Cloudy,72000.0,,SCT,20000.0,,,,,,
KRDR,06-26-2002,06:00,METAR,,340,4.0,,,9999.0,Cloud Development Not Observable,19.0,18.0,29.94,1014.0,,,,0,0,0,,,,,,,,,2/8 Mostly Clear,72000.0,,FEW,20000.0,,,,,,
KRDR,06-26-2002,05:00,METAR,,360,5.0,,,9999.0,Cloud Development Not Observable,19.0,18.0,29.95,1014.2,,,,0,0,0,,,,,,,,,2/8 Mostly Clear,72000.0,,FEW,20000.0,,,,,,
KRDR,06-26-2002,04:00,METAR,,360,4.0,,,9999.0,Cloud Development Not Observable,20.0,19.0,29.94,1014.0,,,,0,0,0,,,,,,,,,4/8 Partly Cloudy,72000.0,,FEW,5000.0,SCT,25000.0,,,,
KRDR,06-26-2002,03:00,METAR,,360,7.0,,,9999.0,Cloud Development Not Observable,22.0,19.0,29.93,1013.5,,,,0,0,0,,,,,,,,,4/8 Partly Cloudy,72000.0,,SCT,5000.0,SCT,25000.0,,,,
KRDR,06-26-2002,02:00,METAR,,350,5.0,,,9999.0,Cloud Development Not Observable,25.0,22.0,29.89,1012.2,,,,0,0,0,,,,,,,,,4/8 Partly Cloudy,72000.0,,SCT,5000.0,SCT,25000.0,,,,
KRDR,06-26-2002,01:00,METAR,,330,5.0,,,9999.0,Cloud Development Not Observable,25.0,22.0,29.89,1012.0,,,,0,0,0,,,,,,,,,4/8 Partly Cloudy,72000.0,,SCT,5000.0,SCT,25000.0,,,,
KRDR,06-26-2002,00:12,SPECI,,300,5.0,,,9999.0,Cloud Development Not Observable,25.0,22.0,29.88,,,,,0,0,0,,,,,,,,,4/8 Partly Cloudy,72000.0,,SCT,5000.0,SCT,25000.0,,,,
KRDR,06-26-2002,00:00,METAR,,310,5.0,,,9999.0,Light Rain Showers/Cloud Development Not Observable,25.0,23.0,29.89,1012.1,,,,80,0,0,,,,,,,,,7/8 Mostly Cloudy,4900.0,,FEW,2000.0,BKN,5000.0,BKN,25000.0,,
KRDR,06-25-2002,23:00,METAR,,360,8.0,,,9999.0,Cloud Development Not Observable,27.0,22.0,29.89,1012.0,,,,0,0,0,,,,,,,,,7/8 Mostly Cloudy,25000.0,,SCT,5000.0,BKN,25000.0,,,,
KRDR,06-25-2002,22:00,METAR,,10,8.0,,,9999.0,Cloud Development Not Observable,25.0,23.0,29.88,1012.0,,,,0,0,0,,,,,,,,,7/8 Mostly Cloudy,25000.0,,SCT,5000.0,BKN,25000.0,,,,
KRDR,06-25-2002,21:39,SPECI,,10,9.0,,,9999.0,Thunderstorm/Cloud Development Not Observable,24.0,23.0,29.87,,,,,17,0,0,,,,,,,,,7/8 Mostly Cloudy,4900.0,,SCT,3000.0,SCT,5000.0,BKN,25000.0,,
KRDR,06-25-2002,21:22,SPECI,,360,14.0,,,9999.0,Thunderstorm with Rain or Snow/Light Rain Showers/Cloud Development Not Observable,26.0,23.0,29.89,,,,,95,80,0,,,,,,,,,7/8 Mostly Cloudy,4900.0,,SCT,3000.0,BKN,5000.0,BKN,25000.0,,
KRDR,06-25-2002,21:00,METAR,,310,12.0,,,9999.0,Thunderstorm/Cloud Development Not Observable,28.0,23.0,29.88,1011.9,,,,17,0,0,,,,,,,,,7/8 Mostly Cloudy,25000.0,,SCT,5000.0,BKN,25000.0,,,,
KRDR,06-25-2002,20:47,SPECI,,360,12.0,,,9999.0,Thunderstorm/Cloud Development Not Observable,28.0,23.0,29.88,,,,,17,0,0,,,,,,,,,7/8 Mostly Cloudy,25000.0,,SCT,5000.0,BKN,25000.0,,,,
KRDR,06-25-2002,20:00,METAR,,300,11.0,,,9999.0,Cloud Development Not Observable,30.0,18.0,29.86,1011.5,,,,0,0,0,,,,,,,,,4/8 Partly Cloudy,72000.0,,SCT,5000.0,SCT,25000.0,,,,
KRDR,06-25-2002,19:00,METAR,,,4.0,,,9999.0,Cloud Development Not Observable,29.0,19.0,29.87,1011.5,,,,0,0,0,,,,,,,,,4/8 Partly Cloudy,72000.0,,SCT,5000.0,SCT,25000.0,,,,
KRDR,06-25-2002,18:00,METAR,,,3.0,,,9999.0,Cloud Development Not Observable,28.0,19.0,29.89,1012.3,,,,0,0,0,,,,,,,,,4/8 Partly Cloudy,72000.0,,FEW,1500.0,SCT,5000.0,,,,
KRDR,06-25-2002,17:00,METAR,,290,7.0,,,9999.0,Cloud Development Not Observable,28.0,21.0,29.90,1012.6,,,,0,0,0,,,,,,,,,2/8 Mostly Clear,72000.0,,FEW,1500.0,FEW,7900.0,,,,
KRDR,06-25-2002,16:00,METAR,,,2.0,,,9999.0,Cloud Development Not Observable,26.0,21.0,29.90,1012.6,,,,0,0,0,,,,,,,,,4/8 Partly Cloudy,72000.0,,FEW,1500.0,SCT,9900.0,SCT,20000.0,,
KRDR,06-25-2002,15:00,METAR,,320,6.0,,,9999.0,Cloud Development Not Observable,25.0,21.0,29.91,1013.0,,,,0,0,0,,,,,,,,,4/8 Partly Cloudy,72000.0,,SCT,9900.0,SCT,20000.0,,,,
KRDR,06-25-2002,14:00,METAR,,270,7.0,,,9999.0,Cloud Development Not Observable,24.0,20.0,29.91,1012.9,,,,0,0,0,,,,,,,,,4/8 Partly Cloudy,72000.0,,SCT,9900.0,SCT,20000.0,,,,
KRDR,06-25-2002,13:00,METAR,,220,7.0,,,9999.0,Cloud Development Not Observable,23.0,21.0,29.91,1012.9,,,,0,0,0,,,,,,,,,2/8 Mostly Clear,72000.0,,FEW,12000.0,FEW,20000.0,,,,
KRDR,06-25-2002,12:00,METAR,,250,6.0,,,9999.0,Cloud Development Not Observable,20.0,20.0,29.87,1011.7,,,,0,0,0,,,,,,,,,4/8 Partly Cloudy,72000.0,,FEW,12000.0,SCT,20000.0,,,,
KRDR,06-25-2002,11:00,METAR,,,2.0,,,9999.0,Cloud Development Not Observable,17.0,17.0,29.87,1011.1,,,,0,0,0,,,,,,,,,4/8 Partly Cloudy,72000.0,,FEW,12000.0,SCT,20000.0,,,,
KRDR,06-25-2002,10:00,METAR,,80,3.0,,,9999.0,Cloud Development Not Observable,19.0,19.0,29.85,1011.0,,,,0,0,0,,,,,,,,,2/8 Mostly Clear,72000.0,,FEW,20000.0,,,,,,
KRDR,06-25-2002,09:00,METAR,,200,5.0,,,9999.0,Cloud Development Not Observable,19.0,19.0,29.85,1010.9,,,,0,0,0,,,,,,,,,2/8 Mostly Clear,72000.0,,FEW,20000.0,,,,,,
KRDR,06-25-2002,08:00,METAR,,190,2.0,,,9999.0,Cloud Development Not Observable,19.0,19.0,29.85,1011.0,,,,0,0,0,,,,,,,,,7/8 Mostly Cloudy,20000.0,,BKN,20000.0,,,,,,
KRDR,06-25-2002,07:00,METAR,,190,4.0,,,9999.0,Cloud Development Not Observable,20.0,19.0,29.86,1011.3,,,,0,0,0,,,,,,,,,7/8 Mostly Cloudy,20000.0,,FEW,4000.0,BKN,20000.0,,,,
KRDR,06-25-2002,06:00,METAR,,190,7.0,,,9999.0,Cloud Development Not Observable,19.0,19.0,29.88,1011.9,,,,0,0,0,,,,,,,,,4/8 Partly Cloudy,72000.0,,SCT,20000.0,,,,,,
KRDR,06-25-2002,05:00,METAR,,260,4.0,,,9999.0,Cloud Development Not Observable,21.0,20.0,29.85,1011.0,,,,0,0,0,,,,,,,,,7/8 Mostly Cloudy,20000.0,,BKN,20000.0,,,,,,
KRDR,06-25-2002,03:00,METAR,,250,3.0,,,9999.0,Cloud Development Not Observable,22.0,20.0,29.85,1011.0,,,,0,0,0,,,,,,,,,4/8 Partly Cloudy,72000.0,,SCT,20000.0,,,,,,
KRDR,06-25-2002,02:00,METAR,,270,6.0,,,9999.0,Cloud Development Not Observable,24.0,20.0,29.85,1010.8,,,,0,0,0,,,,,,,,,2/8 Mostly Clear,72000.0,,FEW,20000.0,,,,,,
KRDR,06-25-2002,01:00,METAR,,270,9.0,,,9999.0,Cloud Development Not Observable,27.0,21.0,29.84,1010.6,,,,0,0,0,,,,,,,,,2/8 Mostly Clear,72000.0,,FEW,5000.0,FEW,20000.0,,,,
KRDR,06-25-2002,00:00,METAR,,270,12.0,,,9999.0,Cloud Development Not Observable,28.0,21.0,29.83,1010.3,,,,0,0,0,,,,,,,,,2/8 Mostly Clear,72000.0,,FEW,5000.0,FEW,11000.0,,,,
KRDR,06-24-2002,23:00,METAR,,270,14.0,,,9999.0,Cloud Development Not Observable,28.0,20.0,29.82,1010.0,,,,0,0,0,,,,,,,,,2/8 Mostly Clear,72000.0,,FEW,5000.0,,,,,,
KRDR,06-24-2002,22:00,METAR,,270,15.0,,,9999.0,Cloud Development Not Observable,28.0,20.0,29.83,1010.3,,,,0,0,0,,,,,,,,,4/8 Partly Cloudy,72000.0,,FEW,5000.0,SCT,8900.0,,,,
KRDR,06-24-2002,21:00,METAR,,270,13.0,,,9999.0,Cloud Development Not Observable,28.0,21.0,29.84,1010.5,,,,0,0,0,,,,,,,,,2/8 Mostly Clear,72000.0,,FEW,5000.0,FEW,8900.0,,,,
KRDR,06-24-2002,20:00,METAR,,280,12.0,21.0,,9999.0,Cloud Development Not Observable,29.0,20.0,29.84,1010.5,,,,0,0,0,,,,,,,,,2/8 Mostly Clear,72000.0,,FEW,5000.0,,,,,,
KRDR,06-24-2002,19:00,METAR,,270,14.0,22.0,,9999.0,Cloud Development Not Observable,29.0,20.0,29.83,1010.2,,,,0,0,0,,,,,,,,,2/8 Mostly Clear,72000.0,,FEW,5000.0,,,,,,
KRDR,06-24-2002,18:00,METAR,,240,15.0,20.0,,9999.0,Cloud Development Not Observable,29.0,20.0,29.83,1010.1,,,,0,0,0,,,,,,,,,4/8 Partly Cloudy,72000.0,,SCT,5000.0,,,,,,
KRDR,06-24-2002,17:00,METAR,,210,10.0,,,9999.0,Cloud Development Not Observable,28.0,23.0,29.82,1009.7,,,,0,0,0,,,,,,,,,2/8 Mostly Clear,72000.0,,FEW,3000.0,,,,,,
KRDR,06-24-2002,16:00,METAR,,210,10.0,,,9999.0,Cloud Development Not Observable,26.0,23.0,29.83,1010.1,,,,0,0,0,,,,,,,,,2/8 Mostly Clear,72000.0,,FEW,1200.0,FEW,20000.0,,,,
KRDR,06-24-2002,15:00,METAR,,200,10.0,,,9999.0,Cloud Development Not Observable,25.0,23.0,29.82,1009.8,,,,0,0,0,,,,,,,,,4/8 Partly Cloudy,72000.0,,FEW,1200.0,SCT,20000.0,,,,
KRDR,06-24-2002,14:00,METAR,,190,8.0,,,9999.0,Cloud Development Not Observable,24.0,21.0,29.83,1010.1,,,,0,0,0,,,,,,,,,4/8 Partly Cloudy,72000.0,,SCT,20000.0,,,,,,
KRDR,06-24-2002,13:44,SPECI,,190,8.0,,,9999.0,Cloud Development Not Observable,23.0,21.0,29.83,,,,,0,0,0,,,,,,,,,4/8 Partly Cloudy,72000.0,,SCT,20000.0,,,,,,
KRDR,06-24-2002,13:00,METAR,,170,6.0,,,9999.0,Cloud Development Not Observable,21.0,21.0,29.84,1010.5,,,,0,0,0,,,,,,,,,7/8 Mostly Cloudy,2000.0,,BKN,2000.0,BKN,7900.0,,,,
KRDR,06-24-2002,12:00,METAR,,130,7.0,,,9999.0,Cloud Development Not Observable,20.0,19.0,29.83,1010.3,,,,0,0,0,,,,,,,,,7/8 Mostly Cloudy,2000.0,,BKN,2000.0,BKN,7900.0,,,,
KRDR,06-24-2002,11:00,METAR,,100,3.0,,,9999.0,Cloud Development Not Observable,19.0,19.0,29.83,1010.4,,,,0,0,0,,,,,,,,,8/8 Overcast,2000.0,,BKN,2000.0,OVC,7900.0,,,,
KRDR,06-24-2002,10:10,SPECI,,130,7.0,,,9999.0,Cloud Development Not Observable,19.0,19.0,29.83,,,,,0,0,0,,,,,,,,,8/8 Overcast,2500.0,,BKN,2500.0,BKN,7900.0,OVC,20000.0,,
KRDR,06-24-2002,10:00,METAR,,140,4.0,,,9999.0,Cloud Development Not Observable,18.0,18.0,29.84,1010.6,,,,0,0,0,,,,,,,,,8/8 Overcast,3000.0,,BKN,3000.0,BKN,7900.0,OVC,20000.0,,
KRDR,06-24-2002,09:00,METAR,,60,3.0,,,9999.0,Cloud Development Not Observable,18.0,18.0,29.84,1010.6,,,,0,0,0,,,,,,.59 IN,,,8/8 Overcast,20000.0,,SCT,3500.0,OVC,20000.0,,,,
KRDR,06-24-2002,08:00,METAR,,110,8.0,,,9999.0,Cloud Development Not Observable,18.0,18.0,29.82,1009.9,,,,0,0,0,,,,,,,,,8/8 Overcast,3900.0,,FEW,1500.0,SCT,4000.0,OVC,20000.0,,
KRDR,06-24-2002,07:25,METAR,,210,4.0,,,9999.0,Cloud Development Not Observable,18.0,18.0,29.93,,,,,0,0,0,,,,,,,,,8/8 Overcast,3900.0,,FEW,1500.0,BKN,4000.0,OVC,20000.0,,
KRDR,06-24-2002,07:00,METAR,,100,6.0,,,9999.0,Thunderstorm with Rain or Snow/Light Rain Showers/Cloud Development Not Observable,18.0,18.0,29.81,1009.7,,,,95,80,0,,,,,,,,,8/8 Overcast,3900.0,,SCT,1500.0,OVC,4000.0,,,,
KRDR,06-24-2002,06:24,SPECI,,280,20.0,37.0,,4800.0,Thunderstorm with Rain or Snow/Rain Showers/Cloud Development Not Observable,18.0,17.0,29.91,,,,,95,81,0,,,,,,,,,8/8 Overcast,1200.0,,BKN,1200.0,OVC,4000.0,,,,
KRDR,06-24-2002,06:00,METAR,,290,9.0,,,9999.0,Thunderstorm with Rain or Snow/Light Rain Showers/Cloud Development Not Observable,21.0,18.0,29.89,1011.8,,,,95,80,0,,,,,,,,,8/8 Overcast,3900.0,,SCT,2500.0,BKN,4000.0,OVC,7900.0,,
KRDR,06-24-2002,05:00,METAR,,130,9.0,,,9999.0,Cloud Development Not Observable,23.0,22.0,29.85,1011.1,,,,0,0,0,,,,,,,,,8/8 Overcast,3900.0,,FEW,2000.0,SCT,4000.0,OVC,7900.0,,
KRDR,06-24-2002,04:00,METAR,,120,7.0,,,9999.0,Cloud Development Not Observable,23.0,22.0,29.90,1012.5,,,,0,0,0,,,,,,,,,7/8 Mostly Cloudy,10000.0,,FEW,4000.0,SCT,9900.0,BKN,20000.0,,
KRDR,06-24-2002,03:00,METAR,,140,7.0,,,9999.0,Cloud Development Not Observable,24.0,22.0,29.91,1012.9,,,,0,0,0,,,,,,,,,7/8 Mostly Cloudy,20000.0,,FEW,4000.0,FEW,12000.0,BKN,20000.0,,
KRDR,06-24-2002,02:00,METAR,,120,5.0,,,9999.0,Cloud Development Not Observable,25.0,22.0,29.91,1012.8,,,,0,0,0,,,,,,,,,7/8 Mostly Cloudy,3900.0,,BKN,4000.0,BKN,12000.0,BKN,20000.0,,
KRDR,06-24-2002,01:00,METAR,,110,8.0,,,9999.0,Cloud Development Not Observable,26.0,21.0,29.90,1012.7,,,,0,0,0,,,,,,,,,4/8 Partly Cloudy,72000.0,,FEW,4000.0,FEW,9900.0,SCT,20000.0,,
KRDR,06-24-2002,00:00,METAR,,110,8.0,,,9999.0,Cloud Development Not Observable,27.0,21.0,29.92,1013.4,,,,0,0,0,,,,,,,,,4/8 Partly Cloudy,72000.0,,FEW,3500.0,SCT,9900.0,SCT,20000.0,,
KRDR,06-23-2002,23:00,METAR,,80,7.0,,,9999.0,Cloud Development Not Observable,27.0,22.0,29.93,1013.5,,,,0,0,0,,,,,,,,,7/8 Mostly Cloudy,11000.0,,SCT,2800.0,SCT,11000.0,BKN,20000.0,,
KRDR,06-23-2002,22:00,METAR,,110,6.0,,,9999.0,Cloud Development Not Observable,27.0,21.0,29.94,1013.8,,,,0,0,0,,,,,,,,,4/8 Partly Cloudy,72000.0,,SCT,3000.0,SCT,11000.0,,,,
KRDR,06-23-2002,21:41,SPECI,,100,5.0,,,9999.0,Cloud Development Not Observable,25.0,21.0,29.94,,,,,0,0,0,,,,,,,,,7/8 Mostly Cloudy,11000.0,,SCT,2800.0,BKN,11000.0,,,,
KRDR,06-23-2002,21:00,METAR,,50,6.0,,,9999.0,Cloud Development Not Observable,25.0,21.0,29.96,1014.6,,,,0,0,0,,,,,,,,,7/8 Mostly Cloudy,2800.0,,BKN,2800.0,BKN,11000.0,,,,
KRDR,06-23-2002,20:00,METAR,,,3.0,,,9999.0,Cloud Development Not Observable,25.0,21.0,29.97,1015.0,,,,0,0,0,,,,,,,,,7/8 Mostly Cloudy,2000.0,,BKN,2000.0,BKN,9900.0,,,,
KRDR,06-23-2002,04:00,METAR,,80,8.0,,,9999.0,Cloud Development Not Observable,21.0,19.0,29.93,1013.7,,,,0,0,0,,,,,,,,,8/8 Overcast,8000.0,,FEW,2000.0,BKN,7900.0,OVC,20000.0,,
KRDR,06-23-2002,03:00,METAR,,40,9.0,,,9999.0,Cloud Development Not Observable,21.0,20.0,29.89,1012.5,,,,0,0,0,,,,,,,,,8/8 Overcast,8000.0,,FEW,1700.0,BKN,7900.0,OVC,20000.0,,
KRDR,06-23-2002,02:00,METAR,,20,11.0,,,9999.0,Cloud Development Not Observable,22.0,20.0,29.86,1011.5,,,,0,0,0,,,,,,,,,8/8 Overcast,12000.0,,SCT,1700.0,SCT,12000.0,OVC,20000.0,,
KRDR,06-23-2002,01:00,METAR,,20,9.0,,,9999.0,Cloud Development Not Observable,23.0,21.0,29.87,1011.7,,,,0,0,0,,,,,,,,,7/8 Mostly Cloudy,10000.0,,SCT,1700.0,SCT,9900.0,BKN,20000.0,,
KRDR,06-23-2002,00:00,METAR,,30,12.0,,,9999.0,Cloud Development Not Observable,24.0,21.0,29.89,1012.4,,,,0,0,0,,,,,,,,,7/8 Mostly Cloudy,10000.0,,SCT,1700.0,SCT,9900.0,BKN,20000.0,,
KRDR,06-22-2002,23:00,METAR,,10,11.0,,,9999.0,Cloud Development Not Observable,25.0,20.0,29.90,1012.7,,,,0,0,0,,,,,,,,,7/8 Mostly Cloudy,20000.0,,FEW,2000.0,FEW,9900.0,BKN,20000.0,,
KRDR,06-22-2002,22:00,METAR,,,6.0,,,9999.0,Cloud Development Not Observable,25.0,20.0,29.91,1012.8,,,,0,0,0,,,,,,,,,7/8 Mostly Cloudy,20000.0,,FEW,1500.0,FEW,9900.0,BKN,20000.0,,
KRDR,06-22-2002,21:00,METAR,,130,10.0,,,9999.0,Cloud Development Not Observable,24.0,21.0,29.89,1012.4,,,,0,0,0,,,,,,,,,8/8 Overcast,10000.0,,FEW,1000.0,BKN,9900.0,OVC,20000.0,,
KRDR,06-22-2002,20:00,METAR,,120,9.0,,,9999.0,Cloud Development Not Observable,24.0,20.0,29.91,1013.1,,,,0,0,0,,,,,,,,,7/8 Mostly Cloudy,10000.0,,FEW,1000.0,SCT,9900.0,BKN,20000.0,,
KRDR,06-22-2002,19:00,METAR,,110,9.0,,,9999.0,Cloud Development Not Observable,22.0,20.0,29.92,1013.5,,,,0,0,0,,,,,,,,,7/8 Mostly Cloudy,20000.0,,FEW,1000.0,BKN,20000.0,,,,
KRDR,06-22-2002,18:00,METAR,,,5.0,,,9999.0,Cloud Development Not Observable,20.0,20.0,29.93,1013.8,,,,0,0,0,,,,,,,,,7/8 Mostly Cloudy,3900.0,,FEW,1000.0,SCT,4000.0,BKN,7900.0,BKN,20000.0
KRDR,06-22-2002,17:00,METAR,,,3.0,,,9999.0,Cloud Development Not Observable,18.0,18.0,29.94,1014.2,,,,0,0,0,,,,,,,,,7/8 Mostly Cloudy,3900.0,,FEW,1000.0,SCT,4000.0,BKN,7900.0,BKN,20000.0
KRDR,06-22-2002,16:32,SPECI,,70,5.0,,,9999.0,Cloud Development Not Observable,18.0,18.0,29.93,,,,,0,0,0,,,,,,,,,7/8 Mostly Cloudy,3900.0,,FEW,1000.0,SCT,4000.0,BKN,7900.0,BKN,20000.0
KRDR,06-22-2002,16:00,METAR,,30,7.0,,,9999.0,Thunderstorm with Rain or Snow/Light Rain Showers/Cloud Development Not Observable,18.0,18.0,29.96,1014.9,,,,95,80,0,,,,,,,,,7/8 Mostly Cloudy,3900.0,,FEW,1000.0,SCT,4000.0,BKN,7900.0,BKN,20000.0
KRDR,06-22-2002,15:40,SPECI,,40,8.0,,,1600.0,Thunderstorm and Hail/Snow Pellets or Hail/Rain Showers,18.0,18.0,29.99,,,,,96,81,88,,,,,,,,,8/8 Overcast,2000.0,,FEW,1000.0,OVC,2000.0,,,,
KRDR,06-22-2002,15:33,SPECI,,50,9.0,,,3200.0,Thunderstorm with Rain or Snow/Light Rain Showers/Cloud Development Not Observable,18.0,18.0,29.98,,,,,95,80,0,,,,,,,,,8/8 Overcast,2000.0,,FEW,1000.0,OVC,2000.0,,,,
KRDR,06-22-2002,15:12,SPECI,,310,19.0,24.0,,1600.0,Thunderstorm with Rain or Snow/Rain Showers/Cloud Development Not Observable,18.0,18.0,30.05,,,,,95,81,0,,,,,,,,,8/8 Overcast,2000.0,,FEW,1000.0,OVC,2000.0,,,,
KRDR,06-22-2002,15:00,METAR,,,4.0,,,8000.0,Thunderstorm with Rain or Snow/Light Rain Showers/Cloud Development Not Observable,18.0,18.0,29.97,1015.3,,,,95,80,0,,,,,,,,,8/8 Overcast,2500.0,,BKN,2500.0,OVC,9900.0,,,,
KRDR,06-22-2002,14:44,SPECI,,60,6.0,,,9999.0,Thunderstorm/Cloud Development Not Observable,18.0,18.0,29.94,,,,,17,0,0,,,,,,,,,8/8 Overcast,2000.0,,OVC,2000.0,,,,,,
KRDR,06-22-2002,14:31,SPECI,,60,11.0,,,8000.0,Mist/Cloud Development Not Observable,18.0,18.0,29.93,,,,,10,0,0,,,,,,,,,8/8 Overcast,2000.0,,OVC,2000.0,,,,,,
KRDR,06-22-2002,14:00,METAR,,360,13.0,,,3200.0,Light Rain Showers/Cloud Development Not Observable,19.0,18.0,29.97,1015.2,,,,80,0,0,,,,,,,,,8/8 Overcast,1200.0,,OVC,1200.0,,,,,,
KRDR,06-22-2002,13:00,METAR,,120,8.0,,,9999.0,Cloud Development Not Observable,19.0,19.0,29.93,1013.8,,,,0,0,0,,,,,,,,,8/8 Overcast,1200.0,,OVC,1200.0,,,,,,
KRDR,06-22-2002,12:29,SPECI,,100,7.0,,,9999.0,Cloud Development Not Observable,19.0,18.0,29.93,,,,,0,0,0,,,,,,,,,8/8 Overcast,1200.0,,OVC,1200.0,,,,,,
KRDR,06-22-2002,12:00,METAR,,100,8.0,,,9999.0,Cloud Development Not Observable,19.0,18.0,29.94,1013.9,,,,0,0,0,,,,,,,,,8/8 Overcast,2800.0,,SCT,1200.0,OVC,2800.0,,,,
KRDR,06-22-2002,10:58,METAR,,120,5.0,,,9999.0,Cloud Development Not Observable,19.0,18.0,29.98,1015.5,,,,0,0,0,,,,,,,,,8/8 Overcast,2800.0,,OVC,2800.0,,,,,,
KRDR,06-22-2002,10:00,METAR,,130,9.0,,,9999.0,Cloud Development Not Observable,19.0,18.0,30.00,1016.2,,,,0,0,0,,,,,,,,,8/8 Overcast,2800.0,,OVC,2800.0,,,,,,
KRDR,06-22-2002,09:00,METAR,,140,9.0,,,9999.0,Cloud Development Not Observable,19.0,18.0,30.02,1016.9,,,,0,0,0,,,,,,,,,7/8 Mostly Cloudy,2500.0,,BKN,2500.0,,,,,,
KRDR,06-22-2002,08:00,METAR,,140,8.0,,,9999.0,Cloud Development Not Observable,19.0,18.0,30.05,1017.7,,,,0,0,0,,,,,,,,,7/8 Mostly Cloudy,2500.0,,BKN,2500.0,,,,,,
KRDR,06-22-2002,07:00,METAR,,130,8.0,,,9999.0,Cloud Development Not Observable,20.0,18.0,30.09,1019.0,,,,0,0,0,,,,,,,,,7/8 Mostly Cloudy,2500.0,,BKN,2500.0,,,,,,
KRDR,06-22-2002,06:00,METAR,,130,8.0,,,9999.0,Cloud Development Not Observable,20.0,18.0,30.10,1019.5,,,,0,0,0,,,,,,,,,7/8 Mostly Cloudy,2500.0,,BKN,2500.0,,,,,,
KRDR,06-22-2002,05:00,METAR,,130,10.0,,,9999.0,Cloud Development Not Observable,20.0,18.0,30.11,1019.9,,,,0,0,0,,,,,,,,,7/8 Mostly Cloudy,2500.0,,BKN,2500.0,,,,,,
KRDR,06-22-2002,04:00,METAR,,130,9.0,,,9999.0,Cloud Development Not Observable,20.0,18.0,30.14,1020.8,,,,0,0,0,,,,,,,,,7/8 Mostly Cloudy,2500.0,,BKN,2500.0,,,,,,
KRDR,06-22-2002,03:00,METAR,,150,8.0,,,9999.0,Cloud Development Not Observable,20.0,18.0,30.13,1020.5,,,,0,0,0,,,,,,,,,7/8 Mostly Cloudy,2100.0,,BKN,2100.0,,,,,,
KRDR,06-22-2002,02:31,SPECI,,160,9.0,,,9999.0,Cloud Development Not Observable,20.0,18.0,30.13,,,,,0,0,0,,,,,,,,,7/8 Mostly Cloudy,2200.0,,BKN,2200.0,BKN,20000.0,,,,
KRDR,06-22-2002,02:00,METAR,,150,8.0,,,9999.0,Cloud Development Not Observable,21.0,18.0,30.13,1020.5,,,,0,0,0,,,,,,,,,2/8 Mostly Clear,72000.0,,FEW,3500.0,FEW,20000.0,,,,
KRDR,06-22-2002,01:00,METAR,,150,10.0,,,9999.0,Cloud Development Not Observable,23.0,18.0,30.13,1020.6,,,,0,0,0,,,,,,,,,4/8 Partly Cloudy,72000.0,,SCT,4000.0,,,,,,
KRDR,06-22-2002,00:00,METAR,,150,11.0,,,9999.0,Cloud Development Not Observable,23.0,17.0,30.14,1021.1,,,,0,0,0,,,,,,,,,7/8 Mostly Cloudy,3900.0,,BKN,4000.0,,,,,,
KRDR,06-21-2002,23:00,METAR,,160,14.0,21.0,,9999.0,Cloud Development Not Observable,25.0,17.0,30.16,1021.5,,,,0,0,0,,,,,,,,,4/8 Partly Cloudy,72000.0,,FEW,3500.0,SCT,20000.0,,,,
KRDR,06-21-2002,22:00,METAR,,150,13.0,,,9999.0,Cloud Development Not Observable,25.0,14.0,30.17,1022.1,,,,0,0,0,,,,,,,,,4/8 Partly Cloudy,72000.0,,FEW,3500.0,SCT,20000.0,,,,
KRDR,06-21-2002,21:00,METAR,,140,10.0,,,9999.0,Cloud Development Not Observable,26.0,16.0,30.18,1022.2,,,,0,0,0,,,,,,,,,7/8 Mostly Cloudy,20000.0,,FEW,4000.0,BKN,20000.0,,,,
KRDR,06-21-2002,20:00,METAR,,120,9.0,18.0,,9999.0,Cloud Development Not Observable,25.0,16.0,30.19,1022.6,,,,0,0,0,,,,,,,,,7/8 Mostly Cloudy,20000.0,,BKN,20000.0,,,,,,
KRDR,06-21-2002,19:00,METAR,,130,13.0,,,9999.0,Cloud Development Not Observable,24.0,14.0,30.20,1023.0,,,,0,0,0,,,,,,,,,7/8 Mostly Cloudy,20000.0,,BKN,20000.0,,,,,,
KRDR,06-21-2002,18:00,METAR,,120,11.0,,,9999.0,Cloud Development Not Observable,24.0,14.0,30.22,1023.6,,,,0,0,0,,,,,,,,,7/8 Mostly Cloudy,20000.0,,FEW,5000.0,BKN,20000.0,,,,
KRDR,06-21-2002,17:00,METAR,,130,12.0,,,9999.0,Cloud Development Not Observable,23.0,15.0,30.22,1023.8,,,,0,0,0,,,,,,,,,7/8 Mostly Cloudy,20000.0,,FEW,13000.0,BKN,20000.0,,,,
KRDR,06-21-2002,16:00,METAR,,160,8.0,,,9999.0,Cloud Development Not Observable,21.0,14.0,30.23,1024.0,,,,0,0,0,,,,,,,,,7/8 Mostly Cloudy,20000.0,,FEW,14000.0,BKN,20000.0,,,,
KRDR,06-21-2002,15:00,METAR,,110,7.0,,,9999.0,Cloud Development Not Observable,21.0,15.0,30.23,1024.0,,,,0,0,0,,,,,,,,,7/8 Mostly Cloudy,20000.0,,FEW,14000.0,BKN,20000.0,,,,
KRDR,06-21-2002,14:00,METAR,,100,7.0,,,9999.0,Cloud Development Not Observable,19.0,15.0,30.24,1024.3,,,,0,0,0,,,,,,,,,7/8 Mostly Cloudy,20000.0,,SCT,12000.0,BKN,20000.0,,,,
KRDR,06-21-2002,13:00,METAR,,130,6.0,,,9999.0,Cloud Development Not Observable,17.0,16.0,30.24,1024.6,,,,0,0,0,,,,,,,,,7/8 Mostly Cloudy,20000.0,,SCT,12000.0,BKN,20000.0,,,,
KRDR,06-21-2002,06:00,METAR,,,3.0,,,9999.0,Cloud Development Not Observable,18.0,13.0,30.23,1024.0,,,,0,0,0,,,,,,,,,7/8 Mostly Cloudy,11000.0,,BKN,11000.0,BKN,20000.0,,,,
KRDR,06-21-2002,05:00,METAR,,,3.0,,,9999.0,Light Rain Showers/Cloud Development Not Observable,17.0,14.0,30.25,1024.8,,,,80,0,0,,,,,,,,,8/8 Overcast,15000.0,,SCT,9900.0,BKN,15000.0,OVC,20000.0,,
KRDR,06-21-2002,04:00,METAR,,180,10.0,,,9999.0,Light Rain Showers/Cloud Development Not Observable,18.0,13.0,30.25,1024.8,,,,80,0,0,,,,,,,,,7/8 Mostly Cloudy,15000.0,,FEW,9900.0,FEW,12000.0,BKN,15000.0,BKN,20000.0
KRDR,06-21-2002,03:31,SPECI,,180,11.0,,,9999.0,Light Rain Showers/Cloud Development Not Observable,20.0,12.0,30.24,,,,,80,0,0,,,,,,,,,7/8 Mostly Cloudy,15000.0,,FEW,9900.0,FEW,12000.0,BKN,15000.0,BKN,20000.0
KRDR,06-21-2002,03:00,METAR,,170,7.0,,,9999.0,Cloud Development Not Observable,20.0,12.0,30.24,1024.4,,,,0,0,0,,,,,,,,,7/8 Mostly Cloudy,15000.0,,FEW,12000.0,BKN,15000.0,BKN,20000.0,,
KRDR,06-21-2002,02:00,METAR,,160,7.0,,,9999.0,Cloud Development Not Observable,21.0,11.0,30.22,1023.7,,,,0,0,0,,,,,,,,,7/8 Mostly Cloudy,15000.0,,FEW,12000.0,BKN,15000.0,BKN,20000.0,,
KRDR,06-21-2002,01:00,METAR,,170,10.0,,,9999.0,Cloud Development Not Observable,22.0,10.0,30.20,1023.2,,,,0,0,0,,,,,,,,,7/8 Mostly Cloudy,15000.0,,FEW,12000.0,SCT,15000.0,BKN,20000.0,,
KRDR,06-21-2002,00:00,METAR,,180,8.0,,,9999.0,Cloud Development Not Observable,22.0,10.0,30.19,1022.9,,,,0,0,0,,,,,,,,,7/8 Mostly Cloudy,14000.0,,FEW,5000.0,BKN,14000.0,BKN,20000.0,,
