Platform Id,Date,Time (UTC),Report Type,Wind Condition,Wind Direction,Wind Speed (Knots),Wind Gust Speed,Peak Wind (Knots),Visibility (M),Weather,Air Temp (C),Dew Point (C),Altimeter (inHg),SLP (Millibars),Present Automated 1,Present Automated 2,Present Automated 3,Present Manual 1,Present Manual 2,Present Manual 3,Present Manual 4,Present Manual 5,Present Manual 6,Present Manual 7,Precip Hr1,Precip Hr3,Precip Hr6,Precip Hr24,Cloud Cover,Cloud Ceiling (Feet),Lowest Cloud Base Height (Feet),Cloud Cover1,Cloudbase 1,Cloud Cover2,Cloudbase 2,Cloud Cover3,Cloudbase 3,Cloud Cover4,Cloudbase 4
KRDR,06-11-2004,23:00,METAR,,140,17.0,23.0,,9999.0,Cloud Development Not Observable,21.0,16.0,29.58,1001.9,,,,0,0,0,,,,,,,,,7/8 Mostly Cloudy,3900.0,,SCT,2800.0,BKN,4000.0,,,,
KRDR,06-11-2004,22:00,METAR,,130,16.0,,,9999.0,Cloud Development Not Observable,22.0,16.0,29.58,1002.6,,,,0,0,0,,,,,,,,,7/8 Mostly Cloudy,4000.0,,SCT,3000.0,BKN,4100.0,,,,
KRDR,06-11-2004,21:00,METAR,,130,17.0,,,9999.0,Cloud Development Not Observable,21.0,15.0,29.60,1002.6,,,,0,0,0,,,,,,,,,7/8 Mostly Cloudy,2400.0,,BKN,3000.0,,,,,,
KRDR,06-11-2004,20:42,SPECI,,140,13.0,,,9999.0,Cloud Development Not Observable,21.0,15.0,29.60,,,,,0,0,0,,,,,,,,,7/8 Mostly Cloudy,3000.0,,BKN,3000.0,,,,,,
KRDR,06-11-2004,20:00,METAR,,140,14.0,25.0,,9999.0,Cloud Development Not Observable,21.0,15.0,29.61,1002.9,,,,0,0,0,,,,,,,,,7/8 Mostly Cloudy,2800.0,,BKN,2800.0,,,,,,
KRDR,06-11-2004,19:00,METAR,,140,14.0,,,9999.0,Cloud Development Not Observable,21.0,16.0,29.64,1004.0,,,,0,0,0,,,,,,,,,7/8 Mostly Cloudy,1900.0,,BKN,1900.0,,,,,,
KRDR,06-11-2004,18:00,METAR,,150,13.0,,,9999.0,Cloud Development Not Observable,18.0,14.0,29.65,1004.3,,,,0,0,0,,,,,,,,,8/8 Overcast,1700.0,,OVC,1700.0,,,,,,
KRDR,06-11-2004,17:00,METAR,,140,10.0,,,9999.0,Cloud Development Not Observable,18.0,14.0,29.64,1004.0,,,,0,0,0,,,,,,,,,8/8 Overcast,1900.0,,OVC,1900.0,,,,,,
KRDR,06-11-2004,16:00,METAR,,140,11.0,,,9999.0,Cloud Development Not Observable,18.0,15.0,29.64,1004.0,,,,0,0,0,,,,,,,,,8/8 Overcast,1500.0,,OVC,1500.0,,,,,,
KRDR,06-11-2004,15:00,METAR,,130,10.0,,,9999.0,Cloud Development Not Observable,16.0,14.0,29.65,1004.3,,,,0,0,0,,,,,,,,,8/8 Overcast,1200.0,,OVC,1200.0,,,,,,
KRDR,06-11-2004,14:00,METAR,,150,11.0,,,9999.0,Cloud Development Not Observable,15.0,13.0,29.64,1004.0,,,,0,0,0,,,,,,,,,8/8 Overcast,1400.0,,OVC,1400.0,,,,,,
KRDR,06-11-2004,13:42,SPECI,,130,10.0,,,9999.0,Cloud Development Not Observable,15.0,13.0,29.64,,,,,0,0,0,,,,,,,,,8/8 Overcast,1500.0,,OVC,1500.0,,,,,,
KRDR,06-11-2004,13:00,METAR,,150,11.0,,,9999.0,Drizzle/Cloud Development Not Observable,14.0,13.0,29.64,1004.0,,,,51,0,0,,,,,,,,,8/8 Overcast,1400.0,,OVC,1400.0,,,,,,
KRDR,06-11-2004,12:00,METAR,,130,11.0,,,9999.0,Cloud Development Not Observable,14.0,12.0,29.61,1003.0,,,,0,0,0,,,,,,,IN,TRACE,8/8 Overcast,2000.0,,BKN,2000.0,OVC,5000.0,,,,
KRDR,06-11-2004,11:00,METAR,,110,11.0,,,9999.0,Cloud Development Not Observable,13.0,13.0,29.60,1002.6,,,,0,0,0,,,,,,,,,8/8 Overcast,2400.0,,BKN,2400.0,OVC,3500.0,,,,
KRDR,06-11-2004,10:21,SPECI,,110,12.0,,,9999.0,Cloud Development Not Observable,13.0,13.0,29.61,,,,,0,0,0,,,,,,,,,8/8 Overcast,2500.0,,BKN,2500.0,OVC,3100.0,,,,
KRDR,06-11-2004,10:00,METAR,,120,11.0,,,9999.0,Cloud Development Not Observable,13.0,13.0,29.63,1003.6,,,,0,0,0,,,,,,,,,8/8 Overcast,3000.0,,BKN,3000.0,OVC,3500.0,,,,
KRDR,06-11-2004,09:21,SPECI,,140,11.0,,,9999.0,Cloud Development Not Observable,13.0,13.0,29.66,,,,,0,0,0,,,,,,,,,8/8 Overcast,3000.0,,OVC,3000.0,,,,,,
KRDR,06-11-2004,09:06,SPECI,,140,13.0,,,9999.0,Light Rain Showers/Cloud Development Not Observable,13.0,13.0,29.67,,,,,80,0,0,,,,,,,,,8/8 Overcast,6500.0,,FEW,2700.0,OVC,6500.0,,,,
KRDR,06-11-2004,09:00,METAR,,140,10.0,,,9999.0,Light Rain Showers/Cloud Development Not Observable,13.0,12.0,29.68,1005.4,,,,80,0,0,,,,,,TRACE,,,8/8 Overcast,2600.0,,OVC,2600.0,,,,,,
KRDR,06-11-2004,08:18,SPECI,,150,12.0,,,9999.0,Light Rain Showers/Cloud Development Not Observable,16.0,11.0,29.69,,,,,80,0,0,,,,,,,,,8/8 Overcast,2700.0,,OVC,2700.0,,,,,,
KRDR,06-11-2004,08:00,METAR,,120,12.0,,,9999.0,Cloud Development Not Observable,16.0,9.0,29.67,1005.0,,,,0,0,0,,,,,,,,,8/8 Overcast,2600.0,,OVC,2600.0,,,,,,
KRDR,06-11-2004,07:00,METAR,,120,12.0,,,9999.0,Cloud Development Not Observable,17.0,10.0,29.69,1005.7,,,,0,0,0,,,,,,,,,8/8 Overcast,2900.0,,OVC,2900.0,,,,,,
KRDR,06-11-2004,06:42,SPECI,,130,15.0,,,9999.0,Cloud Development Not Observable,17.0,10.0,29.69,,,,,0,0,0,,,,,,,,,8/8 Overcast,2900.0,,OVC,2900.0,,,,,,
KRDR,06-11-2004,06:00,METAR,,130,16.0,21.0,,9999.0,Cloud Development Not Observable,18.0,10.0,29.71,1006.4,,,,0,0,0,,,,,,,,,8/8 Overcast,3300.0,,OVC,3400.0,,,,,,
KRDR,06-11-2004,05:00,METAR,,130,16.0,22.0,,9999.0,Cloud Development Not Observable,18.0,11.0,29.73,1006.9,,,,0,0,0,,,,,,,,,8/8 Overcast,3500.0,,OVC,3600.0,,,,,,
KRDR,06-11-2004,04:00,METAR,,120,12.0,17.0,,9999.0,Cloud Development Not Observable,19.0,11.0,29.74,1007.3,,,,0,0,0,,,,,,,,,8/8 Overcast,3600.0,,OVC,3700.0,,,,,,
KRDR,06-11-2004,03:00,METAR,,110,10.0,,,9999.0,Cloud Development Not Observable,20.0,9.0,29.74,1007.5,,,,0,0,0,,,,,,,,,8/8 Overcast,3900.0,,OVC,4000.0,,,,,,
KRDR,06-11-2004,02:00,METAR,,110,10.0,,,9999.0,Cloud Development Not Observable,21.0,10.0,29.75,1007.9,,,,0,0,0,,,,,,,,,8/8 Overcast,4100.0,,OVC,4200.0,,,,,,
KRDR,06-11-2004,01:00,METAR,,110,13.0,,,9999.0,Cloud Development Not Observable,21.0,12.0,29.76,1008.2,,,,0,0,0,,,,,,,,,8/8 Overcast,4200.0,,OVC,4300.0,,,,,,
KRDR,06-11-2004,00:00,METAR,,130,7.0,,,9999.0,Cloud Development Not Observable,21.0,13.0,29.77,1008.4,,,,0,0,0,,,,,,,,,8/8 Overcast,4400.0,,OVC,4500.0,,,,,,
KRDR,06-10-2004,23:00,METAR,,110,12.0,,,9999.0,Cloud Development Not Observable,22.0,12.0,29.79,1009.1,,,,0,0,0,,,,,,,,,8/8 Overcast,12000.0,,SCT,4300.0,BKN,12000.0,OVC,25000.0,,
KRDR,06-10-2004,22:00,METAR,,110,10.0,,,9999.0,Cloud Development Not Observable,23.0,12.0,29.82,1010.1,,,,0,0,0,,,,,,,,,8/8 Overcast,12000.0,,FEW,6900.0,SCT,12000.0,OVC,25000.0,,
KRDR,06-10-2004,21:00,METAR,,120,12.0,,,9999.0,Cloud Development Not Observable,23.0,12.0,29.83,1010.4,,,,0,0,0,,,,,,,,,7/8 Mostly Cloudy,12000.0,,FEW,6900.0,SCT,12000.0,BKN,25000.0,,
KRDR,06-10-2004,20:00,METAR,,140,12.0,20.0,,9999.0,Cloud Development Not Observable,22.0,11.0,29.87,1011.8,,,,0,0,0,,,,,,,,,7/8 Mostly Cloudy,12000.0,,FEW,6900.0,SCT,12000.0,BKN,25000.0,,
KRDR,06-10-2004,19:00,METAR,,130,14.0,,,9999.0,Cloud Development Not Observable,22.0,10.0,29.89,1012.5,,,,0,0,0,,,,,,,,,7/8 Mostly Cloudy,25000.0,,SCT,12000.0,BKN,25000.0,,,,
KRDR,06-10-2004,18:00,METAR,,120,15.0,20.0,,9999.0,Cloud Development Not Observable,20.0,10.0,29.90,1013.0,,,,0,0,0,,,,,,,,,8/8 Overcast,12000.0,,BKN,12000.0,OVC,25000.0,,,,
KRDR,06-10-2004,17:00,METAR,,110,9.0,,,9999.0,Cloud Development Not Observable,18.0,9.0,29.93,1013.9,,,,0,0,0,,,,,,,,,8/8 Overcast,12000.0,,BKN,12000.0,OVC,25000.0,,,,
KRDR,06-10-2004,16:00,METAR,,110,11.0,,,9999.0,Cloud Development Not Observable,17.0,7.0,29.95,1014.6,,,,0,0,0,,,,,,,,,8/8 Overcast,12000.0,,BKN,12000.0,OVC,25000.0,,,,
KRDR,06-10-2004,15:00,METAR,,110,11.0,,,9999.0,Cloud Development Not Observable,16.0,7.0,29.97,1015.3,,,,0,0,0,,,,,,,,,8/8 Overcast,12000.0,,BKN,12000.0,OVC,25000.0,,,,
KRDR,06-10-2004,14:00,METAR,,110,9.0,,,9999.0,Cloud Development Not Observable,14.0,5.0,29.98,1015.6,,,,0,0,0,,,,,,,,,8/8 Overcast,12000.0,,BKN,12000.0,OVC,25000.0,,,,
KRDR,06-10-2004,13:00,METAR,,100,9.0,,,9999.0,Cloud Development Not Observable,14.0,8.0,29.99,1016.0,,,,0,0,0,,,,,,,,,8/8 Overcast,12000.0,,BKN,12000.0,OVC,25000.0,,,,
KRDR,06-10-2004,12:00,METAR,,100,8.0,,,9999.0,Cloud Development Not Observable,14.0,8.0,30.01,1016.7,,,,0,0,0,,,,,,,,,7/8 Mostly Cloudy,25000.0,,SCT,11000.0,BKN,25000.0,,,,
KRDR,06-10-2004,11:00,METAR,,120,6.0,,,9999.0,Cloud Development Not Observable,12.0,10.0,30.01,1016.7,,,,0,0,0,,,,,,,,,7/8 Mostly Cloudy,25000.0,,SCT,11000.0,BKN,25000.0,,,,
KRDR,06-10-2004,10:00,METAR,,130,7.0,,,9999.0,Cloud Development Not Observable,13.0,10.0,30.02,1017.0,,,,0,0,0,,,,,,,,,7/8 Mostly Cloudy,25000.0,,SCT,11000.0,BKN,25000.0,,,,
KRDR,06-10-2004,09:00,METAR,,120,4.0,,,9999.0,Cloud Development Not Observable,14.0,10.0,30.02,1017.0,,,,0,0,0,,,,,,,,,8/8 Overcast,11000.0,,BKN,11000.0,OVC,25000.0,,,,
KRDR,06-10-2004,08:00,METAR,,90,6.0,,,9999.0,Cloud Development Not Observable,14.0,10.0,30.03,1017.5,,,,0,0,0,,,,,,,,,8/8 Overcast,11000.0,,OVC,11000.0,,,,,,
KRDR,06-10-2004,07:00,METAR,,60,4.0,,,9999.0,Cloud Development Not Observable,14.0,10.0,30.05,1018.2,,,,0,0,0,,,,,,,,,8/8 Overcast,11000.0,,OVC,11000.0,,,,,,
KRDR,06-10-2004,06:00,METAR,,60,5.0,,,9999.0,Cloud Development Not Observable,14.0,9.0,30.06,1018.5,,,,0,0,0,,,,,,,,,7/8 Mostly Cloudy,11000.0,,BKN,11000.0,,,,,,
KRDR,06-10-2004,05:00,METAR,,60,8.0,,,9999.0,Cloud Development Not Observable,15.0,9.0,30.05,1018.1,,,,0,0,0,,,,,,,,,2/8 Mostly Clear,72000.0,,FEW,11000.0,,,,,,
KRDR,06-10-2004,04:00,METAR,,50,6.0,,,9999.0,Cloud Development Not Observable,16.0,10.0,30.05,1018.2,,,,0,0,0,,,,,,,,,7/8 Mostly Cloudy,10000.0,,BKN,9900.0,BKN,25000.0,,,,
KRDR,06-10-2004,03:00,METAR,,40,6.0,,,9999.0,Cloud Development Not Observable,16.0,9.0,30.06,1018.6,,,,0,0,0,,,,,,,,,7/8 Mostly Cloudy,25000.0,,SCT,12000.0,BKN,25000.0,,,,
KRDR,06-10-2004,02:00,METAR,,40,8.0,,,9999.0,Cloud Development Not Observable,18.0,9.0,30.07,1018.9,,,,0,0,0,,,,,,,,,7/8 Mostly Cloudy,12000.0,,BKN,12000.0,BKN,25000.0,,,,
KRDR,06-10-2004,01:00,METAR,,50,7.0,,,9999.0,Cloud Development Not Observable,19.0,7.0,30.09,1019.6,,,,0,0,0,,,,,,,,,7/8 Mostly Cloudy,12000.0,,BKN,12000.0,BKN,25000.0,,,,
KRDR,06-10-2004,00:00,METAR,,60,7.0,,,9999.0,Cloud Development Not Observable,19.0,7.0,30.11,1020.3,,,,0,0,0,,,,,,,,,4/8 Partly Cloudy,72000.0,,FEW,5900.0,SCT,12000.0,SCT,25000.0,,
KRDR,06-09-2004,23:00,METAR,,50,8.0,,,9999.0,Cloud Development Not Observable,20.0,7.0,30.12,1020.5,,,,0,0,0,,,,,,,,,4/8 Partly Cloudy,72000.0,,FEW,5400.0,FEW,12000.0,SCT,25000.0,,
KRDR,06-09-2004,22:00,METAR,,40,9.0,,,9999.0,Cloud Development Not Observable,19.0,13.0,30.13,1020.9,,,,0,0,0,,,,,,,,,4/8 Partly Cloudy,72000.0,,FEW,5400.0,SCT,12000.0,SCT,25000.0,,
KRDR,06-09-2004,21:00,METAR,,70,10.0,,,9999.0,Cloud Development Not Observable,18.0,6.0,30.15,1021.6,,,,0,0,0,,,,,,,,,7/8 Mostly Cloudy,12000.0,,FEW,5400.0,BKN,12000.0,BKN,25000.0,,
KRDR,06-09-2004,20:00,METAR,,80,8.0,,,9999.0,Cloud Development Not Observable,17.0,5.0,30.17,1022.5,,,,0,0,0,,,,,,,,,7/8 Mostly Cloudy,12000.0,,FEW,5000.0,BKN,12000.0,BKN,25000.0,,
KRDR,06-09-2004,19:00,METAR,,40,10.0,,,9999.0,Cloud Development Not Observable,17.0,7.0,30.17,1022.5,,,,0,0,0,,,,,,,,,7/8 Mostly Cloudy,12000.0,,FEW,4500.0,SCT,12000.0,BKN,25000.0,,
KRDR,06-09-2004,18:00,METAR,,70,8.0,,,9999.0,Cloud Development Not Observable,17.0,6.0,30.18,1022.7,,,,0,0,0,,,,,,,,,7/8 Mostly Cloudy,12000.0,,FEW,4500.0,SCT,12000.0,BKN,25000.0,,
KRDR,06-09-2004,17:00,METAR,,60,9.0,,,9999.0,Cloud Development Not Observable,17.0,7.0,30.19,1022.9,,,,0,0,0,,,,,,,,,4/8 Partly Cloudy,72000.0,,FEW,4500.0,SCT,12000.0,SCT,25000.0,,
KRDR,06-09-2004,16:00,METAR,,50,7.0,,,9999.0,Cloud Development Not Observable,15.0,7.0,30.20,1023.4,,,,0,0,0,,,,,,,,,7/8 Mostly Cloudy,12000.0,,FEW,4000.0,SCT,12000.0,BKN,25000.0,,
KRDR,06-09-2004,15:00,METAR,,,6.0,,,9999.0,Cloud Development Not Observable,13.0,7.0,30.20,1023.4,,,,0,0,0,,,,,,,,,7/8 Mostly Cloudy,12000.0,,BKN,12000.0,BKN,25000.0,,,,
KRDR,06-09-2004,14:00,METAR,,40,7.0,,,9999.0,Cloud Development Not Observable,12.0,7.0,30.21,1023.8,,,,0,0,0,,,,,,,,,7/8 Mostly Cloudy,25000.0,,SCT,12000.0,BKN,25000.0,,,,
KRDR,06-09-2004,13:00,METAR,,360,10.0,,,9999.0,Cloud Development Not Observable,9.0,7.0,30.22,1024.2,,,,0,0,0,,,,,,,,,7/8 Mostly Cloudy,12000.0,,BKN,12000.0,BKN,20000.0,,,,
KRDR,06-09-2004,12:00,METAR,,10,9.0,,,9999.0,Cloud Development Not Observable,9.0,7.0,30.21,1023.8,,,,0,0,0,,,,,,,,,7/8 Mostly Cloudy,12000.0,,BKN,12000.0,BKN,20000.0,,,,
KRDR,06-09-2004,11:00,METAR,,350,9.0,,,9999.0,Cloud Development Not Observable,8.0,6.0,30.19,1023.3,,,,0,0,0,,,,,,,,,8/8 Overcast,12000.0,,BKN,12000.0,OVC,20000.0,,,,
KRDR,06-09-2004,10:00,METAR,,350,8.0,,,9999.0,Cloud Development Not Observable,8.0,6.0,30.20,1023.6,,,,0,0,0,,,,,,,,,7/8 Mostly Cloudy,11000.0,,BKN,11000.0,,,,,,
KRDR,06-09-2004,09:00,METAR,,330,7.0,,,9999.0,Cloud Development Not Observable,8.0,6.0,30.20,1023.6,,,,0,0,0,,,,,,,,,7/8 Mostly Cloudy,13000.0,,BKN,13000.0,,,,,,
KRDR,06-09-2004,08:00,METAR,,30,8.0,,,9999.0,Cloud Development Not Observable,10.0,6.0,30.19,1023.2,,,,0,0,0,,,,,,,,,7/8 Mostly Cloudy,13000.0,,BKN,13000.0,,,,,,
KRDR,06-09-2004,07:00,METAR,,20,6.0,,,9999.0,Cloud Development Not Observable,10.0,7.0,30.19,1023.1,,,,0,0,0,,,,,,,,,2/8 Mostly Clear,72000.0,,FEW,12000.0,,,,,,
KRDR,06-09-2004,06:00,METAR,,,6.0,,,9999.0,Cloud Development Not Observable,10.0,7.0,30.17,1022.2,,,,0,0,0,,,,,,,IN,,4/8 Partly Cloudy,72000.0,,SCT,12000.0,,,,,,
KRDR,06-09-2004,05:00,METAR,,360,7.0,,,9999.0,Cloud Development Not Observable,11.0,7.0,30.16,1021.7,,,,0,0,0,,,,,,,,,4/8 Partly Cloudy,72000.0,,SCT,12000.0,,,,,,
KRDR,06-09-2004,04:00,METAR,,360,9.0,,,9999.0,Cloud Development Not Observable,11.0,7.0,30.14,1021.4,,,,0,0,0,,,,,,,,,7/8 Mostly Cloudy,12000.0,,BKN,12000.0,,,,,,
KRDR,06-09-2004,03:00,METAR,,350,6.0,,,9999.0,Cloud Development Not Observable,12.0,8.0,30.14,1021.4,,,,0,0,0,,,,,,TRACE,,,7/8 Mostly Cloudy,12000.0,,BKN,12000.0,,,,,,
KRDR,06-09-2004,02:00,METAR,,360,7.0,,,9999.0,Cloud Development Not Observable,13.0,8.0,30.15,1021.8,,,,0,0,0,,,,,,,,,7/8 Mostly Cloudy,12000.0,,FEW,5000.0,FEW,9900.0,BKN,12000.0,BKN,15000.0
KRDR,06-09-2004,01:30,METAR,,20,11.0,,,9999.0,Cloud Development Not Observable,13.0,9.0,30.13,,,,,0,0,0,,,,,,,,,7/8 Mostly Cloudy,12000.0,,FEW,7900.0,BKN,12000.0,,,,
KRDR,06-09-2004,01:07,SPECI,,10,11.0,,,9999.0,Light Rain Showers/Cloud Development Not Observable,14.0,8.0,30.12,,,,,80,0,0,,,,,,,,,7/8 Mostly Cloudy,12000.0,,FEW,7900.0,BKN,12000.0,,,,
KRDR,06-09-2004,01:00,METAR,,20,14.0,,,9999.0,Cloud Development Not Observable,14.0,7.0,30.10,1020.0,,,,0,0,0,,,,,,,,,7/8 Mostly Cloudy,12000.0,,FEW,4500.0,BKN,12000.0,,,,
KRDR,06-09-2004,00:00,METAR,,20,13.0,,,9999.0,Cloud Development Not Observable,15.0,7.0,30.11,1020.4,,,,0,0,0,,,,,,,IN,,7/8 Mostly Cloudy,12000.0,,FEW,4500.0,BKN,12000.0,BKN,25000.0,,
KRDR,06-08-2004,23:00,METAR,,20,11.0,,,9999.0,Cloud Development Not Observable,15.0,7.0,30.10,1019.9,,,,0,0,0,,,,,,,,,7/8 Mostly Cloudy,12000.0,,SCT,4500.0,BKN,12000.0,BKN,25000.0,,
KRDR,06-08-2004,22:00,METAR,,20,11.0,17.0,,9999.0,Cloud Development Not Observable,16.0,7.0,30.13,1020.8,,,,0,0,0,,,,,,,,,7/8 Mostly Cloudy,12000.0,,SCT,4500.0,BKN,12000.0,BKN,25000.0,,
KRDR,06-08-2004,21:00,METAR,,20,11.0,,,9999.0,Cloud Development Not Observable,16.0,7.0,30.11,1020.1,,,,0,0,0,,,,,,TRACE,,,8/8 Overcast,12000.0,,FEW,4500.0,BKN,12000.0,OVC,25000.0,,
KRDR,06-08-2004,20:33,SPECI,,20,10.0,,,9999.0,Light Rain Showers/Cloud Development Not Observable,16.0,7.0,30.09,,,,,80,0,0,,,,,,,,,8/8 Overcast,12000.0,,SCT,4500.0,BKN,12000.0,OVC,25000.0,,
KRDR,06-08-2004,20:00,METAR,,10,14.0,,,9999.0,Cloud Development Not Observable,16.0,7.0,30.08,1019.2,,,,0,0,0,,,,,,,,,7/8 Mostly Cloudy,12000.0,,FEW,4500.0,BKN,12000.0,BKN,25000.0,,
KRDR,06-08-2004,19:00,METAR,,10,12.0,,,9999.0,Cloud Development Not Observable,18.0,7.0,30.05,1018.0,,,,0,0,0,,,,,,,,,7/8 Mostly Cloudy,15000.0,,FEW,4000.0,SCT,15000.0,BKN,25000.0,,
KRDR,06-08-2004,18:00,METAR,,350,10.0,22.0,,9999.0,Cloud Development Not Observable,18.0,6.0,30.03,1017.3,,,,0,0,0,,,,,,,,,4/8 Partly Cloudy,72000.0,,FEW,4000.0,SCT,15000.0,SCT,25000.0,,
KRDR,06-08-2004,17:00,METAR,,330,15.0,21.0,,9999.0,Cloud Development Not Observable,18.0,6.0,30.04,1017.7,,,,0,0,0,,,,,,,,,4/8 Partly Cloudy,72000.0,,FEW,4000.0,SCT,15000.0,SCT,25000.0,,
KRDR,06-08-2004,16:00,METAR,,300,8.0,,,9999.0,Cloud Development Not Observable,16.0,6.0,30.04,1017.7,,,,0,0,0,,,,,,,,,7/8 Mostly Cloudy,20000.0,,FEW,4000.0,BKN,20000.0,,,,
KRDR,06-08-2004,15:00,METAR,,300,8.0,,,9999.0,Cloud Development Not Observable,15.0,7.0,30.05,1018.1,,,,0,0,0,,,,,,,,,7/8 Mostly Cloudy,20000.0,,BKN,20000.0,,,,,,
KRDR,06-08-2004,14:00,METAR,,330,14.0,24.0,330/27KTS,9999.0,Cloud Development Not Observable,13.0,6.0,29.97,1015.1,,,,0,0,0,,,,,,,,,4/8 Partly Cloudy,72000.0,,SCT,20000.0,,,,,,
KRDR,06-08-2004,13:00,METAR,,340,22.0,27.0,,9999.0,Cloud Development Not Observable,12.0,6.0,29.91,1013.1,,,,0,0,0,,,,,,,,,4/8 Partly Cloudy,72000.0,,SCT,20000.0,,,,,,
KRDR,06-08-2004,12:00,METAR,,320,13.0,,,9999.0,Cloud Development Not Observable,12.0,6.0,29.90,1012.8,,,,0,0,0,,,,,,,,,2/8 Mostly Clear,72000.0,,FEW,20000.0,,,,,,
KRDR,06-08-2004,11:00,METAR,,300,8.0,,,9999.0,Cloud Development Not Observable,11.0,6.0,29.90,1012.8,,,,0,0,0,,,,,,,,,4/8 Partly Cloudy,72000.0,,FEW,3000.0,SCT,18000.0,,,,
KRDR,06-08-2004,10:00,METAR,,310,11.0,19.0,320/25KTS,9999.0,Cloud Development Not Observable,12.0,6.0,29.86,1011.5,,,,0,0,0,,,,,,,,,2/8 Mostly Clear,72000.0,,FEW,3000.0,,,,,,
KRDR,06-08-2004,09:00,METAR,,310,16.0,,,9999.0,Cloud Development Not Observable,13.0,8.0,29.84,1010.8,,,,0,0,0,,,,,,,,,Clear,72000.0,,,73000.0,,,,,,
KRDR,06-08-2004,08:00,METAR,,290,8.0,,,9999.0,Cloud Development Not Observable,14.0,9.0,29.82,,,,,0,0,0,,,,,,,,,Clear,72000.0,,,73000.0,,,,,,
KRDR,06-08-2004,07:00,METAR,,280,12.0,,,9999.0,Cloud Development Not Observable,16.0,10.0,29.77,1008.3,,,,0,0,0,,,,,,,,,Clear,72000.0,,,73000.0,,,,,,
KRDR,06-08-2004,06:00,METAR,,280,9.0,,,9999.0,Cloud Development Not Observable,17.0,11.0,29.72,1006.6,,,,0,0,0,,,,,,,,,Clear,72000.0,,,73000.0,,,,,,
KRDR,06-08-2004,05:00,METAR,,270,5.0,,,9999.0,Cloud Development Not Observable,16.0,11.0,29.68,1005.2,,,,0,0,0,,,,,,,,,Clear,72000.0,,,73000.0,,,,,,
KRDR,06-08-2004,04:00,METAR,,290,5.0,,,9999.0,Cloud Development Not Observable,18.0,10.0,29.66,1004.5,,,,0,0,0,,,,,,,,,Clear,72000.0,,,73000.0,,,,,,
KRDR,06-08-2004,03:00,METAR,,280,11.0,,,9999.0,Cloud Development Not Observable,21.0,9.0,29.64,1003.7,,,,0,0,0,,,,,,,,,Clear,72000.0,,,73000.0,,,,,,
KRDR,06-08-2004,02:00,METAR,,280,13.0,20.0,,9999.0,Cloud Development Not Observable,23.0,7.0,29.58,1001.6,,,,0,0,0,,,,,,,,,Clear,72000.0,,,73000.0,,,,,,
KRDR,06-08-2004,01:00,METAR,,290,11.0,17.0,230/26KTS,9999.0,Cloud Development Not Observable,25.0,5.0,29.55,1000.5,,,,0,0,0,,,,,,,,,Clear,72000.0,,,73000.0,,,,,,
KRDR,06-08-2004,00:00,METAR,,270,14.0,23.0,250/25KTS,9999.0,Cloud Development Not Observable,27.0,2.0,29.52,999.5,,,,0,0,0,,,,,,,,,Clear,72000.0,,,73000.0,,,,,,
KRDR,06-07-2004,23:00,METAR,,230,18.0,26.0,220/26KTS,9999.0,Cloud Development Not Observable,28.0,7.0,29.50,998.6,,,,0,0,0,,,,,,,,,2/8 Mostly Clear,72000.0,,FEW,4000.0,,,,,,
KRDR,06-07-2004,22:00,METAR,,260,16.0,22.0,250/25KTS,9999.0,Cloud Development Not Observable,28.0,7.0,29.49,998.6,,,,0,0,0,,,,,,,,,2/8 Mostly Clear,72000.0,,FEW,4000.0,,,,,,
KRDR,06-07-2004,21:00,METAR,,270,14.0,19.0,,9999.0,Cloud Development Not Observable,28.0,9.0,29.48,998.3,,,,0,0,0,,,,,,,,,2/8 Mostly Clear,72000.0,,FEW,4000.0,,,,,,
KRDR,06-07-2004,19:00,METAR,,290,16.0,,,9999.0,Cloud Development Not Observable,27.0,9.0,29.46,997.6,,,,0,0,0,,,,,,,,,Clear,72000.0,,,73000.0,,,,,,
KRDR,06-07-2004,18:00,METAR,,300,15.0,,,9999.0,Cloud Development Not Observable,26.0,15.0,29.44,996.9,,,,0,0,0,,,,,,,,,2/8 Mostly Clear,72000.0,,FEW,2800.0,,,,,,
KRDR,06-07-2004,17:00,METAR,,310,13.0,,,9999.0,Cloud Development Not Observable,24.0,18.0,29.41,995.8,,,,0,0,0,,,,,,,,,4/8 Partly Cloudy,72000.0,,SCT,2500.0,,,,,,
KRDR,06-07-2004,16:40,SPECI,,300,13.0,,,9999.0,Cloud Development Not Observable,24.0,18.0,29.41,,,,,0,0,0,,,,,,,,,4/8 Partly Cloudy,72000.0,,SCT,2800.0,,,,,,
KRDR,06-07-2004,16:00,METAR,,300,19.0,24.0,,9999.0,Cloud Development Not Observable,24.0,18.0,29.39,995.3,,,,0,0,0,,,,,,,,,7/8 Mostly Cloudy,2500.0,,BKN,2500.0,,,,,,
KRDR,06-07-2004,15:00,METAR,,290,10.0,,,9999.0,Cloud Development Not Observable,25.0,20.0,29.37,994.6,,,,0,0,0,,,,,,,,,Clear,72000.0,,,73000.0,,,,,,
KRDR,06-07-2004,14:00,METAR,,230,8.0,,,9999.0,Cloud Development Not Observable,23.0,20.0,29.36,994.3,,,,0,0,0,,,,,,,,,Clear,72000.0,,,73000.0,,,,,,
KRDR,06-07-2004,13:00,METAR,,170,9.0,,,9999.0,Cloud Development Not Observable,22.0,20.0,29.35,993.8,,,,0,0,0,,,,,,,,,Clear,72000.0,,,73000.0,,,,,,
KRDR,06-07-2004,12:00,METAR,,140,7.0,,,9999.0,Cloud Development Not Observable,20.0,19.0,29.35,993.8,,,,0,0,0,,,,,,,.04 IN,.21 IN,2/8 Mostly Clear,72000.0,,FEW,3500.0,,,,,,
KRDR,06-07-2004,11:00,METAR,,90,6.0,,,9999.0,Cloud Development Not Observable,19.0,16.0,29.39,995.3,,,,0,0,0,,,,,,,,,8/8 Overcast,3400.0,,SCT,2400.0,OVC,3500.0,,,,
KRDR,06-07-2004,10:00,METAR,,,5.0,,,9999.0,Cloud Development Not Observable,18.0,16.0,29.41,995.9,,,,0,0,0,,,,,,,,,8/8 Overcast,3100.0,,SCT,2600.0,OVC,3200.0,,,,
KRDR,06-07-2004,09:00,METAR,,90,11.0,,,9999.0,Cloud Development Not Observable,18.0,15.0,29.41,995.9,,,,0,0,0,,,,,,.04 IN,,,7/8 Mostly Cloudy,3800.0,,BKN,3900.0,,,,,,
KRDR,06-07-2004,08:00,METAR,,100,7.0,,,9999.0,Cloud Development Not Observable,19.0,16.0,29.45,997.3,,,,0,0,0,,,,,,,,,7/8 Mostly Cloudy,9000.0,,BKN,8900.0,,,,,,
KRDR,06-07-2004,07:03,SPECI,,120,16.0,22.0,,9999.0,Thunderstorm/Cloud Development Not Observable,18.0,15.0,29.43,,,,,17,0,0,,,,,,,,,8/8 Overcast,6000.0,,FEW,4500.0,SCT,5900.0,OVC,9900.0,,
KRDR,06-07-2004,07:00,METAR,,130,16.0,22.0,,9999.0,Thunderstorm with Rain or Snow/Light Rain Showers/Cloud Development Not Observable,18.0,15.0,29.44,997.1,,,,95,80,0,,,,,,,,,8/8 Overcast,6000.0,,FEW,4500.0,SCT,5900.0,OVC,9900.0,,
KRDR,06-07-2004,06:00,METAR,,110,12.0,,,9999.0,Thunderstorm with Rain or Snow/Light Rain Showers/Cloud Development Not Observable,18.0,15.0,29.55,1000.6,,,,95,80,0,,,,,,,.15 IN,,8/8 Overcast,6000.0,,FEW,4500.0,BKN,5900.0,OVC,9900.0,,
KRDR,06-07-2004,05:46,SPECI,,110,12.0,,,9999.0,Thunderstorm with Rain or Snow/Light Rain Showers/Cloud Development Not Observable,18.0,15.0,29.55,,,,,95,80,0,,,,,,,,,8/8 Overcast,6000.0,,BKN,5900.0,OVC,9900.0,,,,
KRDR,06-07-2004,05:41,SPECI,,100,12.0,,,3200.0,Thunderstorm and Hail/Hail Showers/Rain Showers,18.0,14.0,29.55,,,,,96,81,90,,,,,,,,,8/8 Overcast,4400.0,,FEW,1100.0,BKN,4500.0,OVC,6400.0,,
KRDR,06-07-2004,05:35,SPECI,,140,12.0,20.0,,4000.0,Thunderstorm with Rain or Snow/Rain Showers/Cloud Development Not Observable,20.0,14.0,29.55,,,,,95,81,0,,,,,,,,,8/8 Overcast,4400.0,,FEW,1100.0,BKN,4500.0,OVC,6400.0,,
KRDR,06-07-2004,05:05,SPECI,,130,17.0,24.0,,9999.0,Thunderstorm with Rain or Snow/Light Rain Showers/Cloud Development Not Observable,22.0,10.0,29.52,999.2,,,,95,80,0,,,,,,,,,8/8 Overcast,4900.0,,SCT,3500.0,BKN,5000.0,OVC,11000.0,,
KRDR,06-07-2004,05:00,METAR,,130,13.0,20.0,,9999.0,Thunderstorm/Cloud Development Not Observable,22.0,11.0,29.51,999.2,,,,17,0,0,,,,,,,,,8/8 Overcast,4900.0,,SCT,3500.0,BKN,5000.0,OVC,11000.0,,
KRDR,06-07-2004,04:27,SPECI,,130,11.0,,,9999.0,Thunderstorm/Cloud Development Not Observable,20.0,11.0,29.54,,,,,17,0,0,,,,,,,,,8/8 Overcast,9000.0,,SCT,4000.0,BKN,8900.0,OVC,12000.0,,
KRDR,06-07-2004,04:00,METAR,,110,7.0,,,9999.0,Cloud Development Not Observable,20.0,10.0,29.55,1000.7,,,,0,0,0,,,,,,,,,8/8 Overcast,12000.0,,SCT,6900.0,BKN,12000.0,OVC,25000.0,,
KRDR,06-07-2004,03:00,METAR,,110,12.0,,,9999.0,Cloud Development Not Observable,20.0,9.0,29.57,1001.5,,,,0,0,0,,,,,,,,,8/8 Overcast,12000.0,,SCT,6900.0,OVC,12000.0,,,,
KRDR,06-07-2004,02:00,METAR,,100,12.0,,,9999.0,Cloud Development Not Observable,21.0,9.0,29.62,1003.3,,,,0,0,0,,,,,,,,,8/8 Overcast,7000.0,,BKN,6900.0,OVC,20000.0,,,,
KRDR,06-07-2004,01:00,METAR,,90,12.0,,,9999.0,Cloud Development Not Observable,21.0,13.0,29.63,1003.7,,,,0,0,0,,,,,,,,,7/8 Mostly Cloudy,9000.0,,FEW,6400.0,BKN,8900.0,,,,
KRDR,06-07-2004,00:00,METAR,,100,9.0,,,9999.0,Cloud Development Not Observable,23.0,16.0,29.65,1004.4,,,,0,0,0,,,,,,,.02 IN,,7/8 Mostly Cloudy,9000.0,,SCT,5000.0,BKN,8900.0,,,,
KRDR,06-06-2004,23:11,SPECI,,80,10.0,,,9999.0,Cloud Development Not Observable,22.0,15.0,29.68,,,,,0,0,0,,,,,,,,,7/8 Mostly Cloudy,10000.0,,SCT,5000.0,BKN,9900.0,,,,
KRDR,06-06-2004,23:00,METAR,,90,11.0,,,9999.0,Light Rain Showers/Cloud Development Not Observable,22.0,16.0,29.67,1005.1,,,,80,0,0,,,,,,,,,7/8 Mostly Cloudy,5500.0,,BKN,5400.0,BKN,9900.0,BKN,25000.0,,
KRDR,06-06-2004,22:21,SPECI,,130,7.0,,,9999.0,Thunderstorm with Rain or Snow/Light Rain Showers/Cloud Development Not Observable,24.0,12.0,29.71,,,,,95,80,0,,,,,,,,,8/8 Overcast,4900.0,,BKN,5000.0,OVC,9900.0,,,,
KRDR,06-06-2004,22:00,METAR,,140,10.0,,,9999.0,Thunderstorm/Cloud Development Not Observable,25.0,11.0,29.69,1005.8,,,,17,0,0,,,,,,,,,7/8 Mostly Cloudy,5500.0,,BKN,5400.0,BKN,9900.0,,,,
KRDR,06-06-2004,21:30,METAR,,140,12.0,,,9999.0,Thunderstorm/Cloud Development Not Observable,25.0,11.0,29.68,,,,,17,0,0,,,,,,,,,7/8 Mostly Cloudy,6000.0,,BKN,5900.0,BKN,9900.0,BKN,25000.0,,
KRDR,06-06-2004,21:00,METAR,,140,15.0,,,9999.0,Cloud Development Not Observable,27.0,12.0,29.68,1005.3,,,,0,0,0,,,,,,,,,7/8 Mostly Cloudy,6000.0,,BKN,5900.0,BKN,7900.0,BKN,25000.0,,
KRDR,06-06-2004,20:00,METAR,,150,15.0,23.0,,9999.0,Cloud Development Not Observable,25.0,13.0,29.70,1005.8,,,,0,0,0,,,,,,,,,7/8 Mostly Cloudy,10000.0,,SCT,4000.0,SCT,9900.0,BKN,25000.0,,
KRDR,06-06-2004,19:00,METAR,,150,12.0,20.0,,9999.0,Cloud Development Not Observable,25.0,12.0,29.74,1007.2,,,,0,0,0,,,,,,,,,7/8 Mostly Cloudy,25000.0,,SCT,9900.0,BKN,25000.0,,,,
KRDR,06-06-2004,18:00,METAR,,130,13.0,,,9999.0,Cloud Development Not Observable,24.0,12.0,29.76,1005.8,,,,0,0,0,,,,,,,,,7/8 Mostly Cloudy,25000.0,,SCT,9900.0,BKN,25000.0,,,,
KRDR,06-06-2004,17:00,METAR,,110,9.0,,,9999.0,Cloud Development Not Observable,23.0,10.0,29.79,1008.9,,,,0,0,0,,,,,,,,,7/8 Mostly Cloudy,25000.0,,BKN,25000.0,,,,,,
KRDR,06-06-2004,16:00,METAR,,120,8.0,,,9999.0,Cloud Development Not Observable,21.0,10.0,29.82,1010.0,,,,0,0,0,,,,,,,,,4/8 Partly Cloudy,72000.0,,SCT,25000.0,,,,,,
KRDR,06-06-2004,15:00,METAR,,110,7.0,,,9999.0,Cloud Development Not Observable,19.0,9.0,29.84,1010.7,,,,0,0,0,,,,,,,,,7/8 Mostly Cloudy,25000.0,,FEW,9900.0,BKN,25000.0,,,,
KRDR,06-06-2004,14:00,METAR,,90,5.0,,,9999.0,Cloud Development Not Observable,16.0,9.0,29.86,1011.4,,,,0,0,0,,,,,,,,,7/8 Mostly Cloudy,25000.0,,FEW,9900.0,BKN,25000.0,,,,
KRDR,06-06-2004,13:00,METAR,,50,5.0,,,9999.0,Cloud Development Not Observable,14.0,9.0,29.88,1012.1,,,,0,0,0,,,,,,,,,4/8 Partly Cloudy,72000.0,,SCT,9900.0,SCT,25000.0,,,,
KRDR,06-06-2004,12:00,METAR,,10,3.0,,,9999.0,Cloud Development Not Observable,12.0,10.0,29.89,1012.5,,,,0,0,0,,,,,,,,,7/8 Mostly Cloudy,9000.0,,BKN,8900.0,BKN,25000.0,,,,
KRDR,06-06-2004,11:00,METAR,,330,3.0,,,9999.0,Cloud Development Not Observable,10.0,9.0,29.87,1011.8,,,,0,0,0,,,,,,,,,7/8 Mostly Cloudy,25000.0,,SCT,8900.0,BKN,25000.0,,,,
KRDR,06-06-2004,10:00,METAR,,350,2.0,,,9999.0,Cloud Development Not Observable,10.0,9.0,29.87,1011.8,,,,0,0,0,,,,,,,,,4/8 Partly Cloudy,72000.0,,FEW,8900.0,SCT,25000.0,,,,
KRDR,06-06-2004,09:00,METAR,,350,5.0,,,9999.0,Cloud Development Not Observable,11.0,10.0,29.89,1012.5,,,,0,0,0,,,,,,,,,4/8 Partly Cloudy,72000.0,,SCT,8900.0,,,,,,
KRDR,06-06-2004,08:00,METAR,,300,3.0,,,9999.0,Cloud Development Not Observable,13.0,12.0,29.89,1012.5,,,,0,0,0,,,,,,,,,4/8 Partly Cloudy,72000.0,,SCT,8900.0,,,,,,
KRDR,06-06-2004,07:00,METAR,,,2.0,,,9999.0,Cloud Development Not Observable,15.0,11.0,29.89,1012.4,,,,0,0,0,,,,,,,,,4/8 Partly Cloudy,72000.0,,SCT,7900.0,,,,,,
KRDR,06-06-2004,06:00,METAR,,350,4.0,,,9999.0,Cloud Development Not Observable,13.0,10.0,29.89,1012.5,,,,0,0,0,,,,,,,,,2/8 Mostly Clear,72000.0,,FEW,8900.0,FEW,25000.0,,,,
KRDR,06-06-2004,05:00,METAR,,40,6.0,,,9999.0,Cloud Development Not Observable,17.0,11.0,29.88,1012.1,,,,0,0,0,,,,,,,,,2/8 Mostly Clear,72000.0,,FEW,25000.0,,,,,,
KRDR,06-06-2004,04:00,METAR,,40,4.0,,,9999.0,Cloud Development Not Observable,18.0,11.0,29.88,1012.1,,,,0,0,0,,,,,,,,,2/8 Mostly Clear,72000.0,,FEW,25000.0,,,,,,
KRDR,06-06-2004,03:00,METAR,,40,6.0,,,9999.0,Cloud Development Not Observable,20.0,12.0,29.86,1011.5,,,,0,0,0,,,,,,,,,2/8 Mostly Clear,72000.0,,FEW,25000.0,,,,,,
KRDR,06-06-2004,02:00,METAR,,40,7.0,,,9999.0,Cloud Development Not Observable,22.0,13.0,29.85,1011.2,,,,0,0,0,,,,,,,,,2/8 Mostly Clear,72000.0,,FEW,25000.0,,,,,,
KRDR,06-06-2004,01:00,METAR,,30,8.0,,,9999.0,Cloud Development Not Observable,24.0,12.0,29.85,1011.2,,,,0,0,0,,,,,,,,,2/8 Mostly Clear,72000.0,,FEW,5000.0,,,,,,
KRDR,06-06-2004,00:00,METAR,,350,15.0,,,9999.0,Cloud Development Not Observable,26.0,11.0,29.84,1010.6,,,,0,0,0,,,,,,,,,4/8 Partly Cloudy,72000.0,,SCT,5000.0,,,,,,
KRDR,06-05-2004,23:00,METAR,,10,9.0,,,9999.0,Cloud Development Not Observable,26.0,11.0,29.84,1010.6,,,,0,0,0,,,,,,,,,4/8 Partly Cloudy,72000.0,,SCT,5000.0,SCT,9900.0,,,,
KRDR,06-05-2004,22:00,METAR,,350,8.0,,,9999.0,Cloud Development Not Observable,27.0,12.0,29.84,1010.6,,,,0,0,0,,,,,,,,,4/8 Partly Cloudy,72000.0,,SCT,4500.0,,,,,,
KRDR,06-05-2004,21:00,METAR,,10,5.0,,,9999.0,Cloud Development Not Observable,25.0,13.0,29.85,1010.9,,,,0,0,0,,,,,,,,,7/8 Mostly Cloudy,3900.0,,BKN,4000.0,,,,,,
KRDR,06-05-2004,20:00,METAR,,20,6.0,,,9999.0,Cloud Development Not Observable,25.0,14.0,29.86,1011.3,,,,0,0,0,,,,,,,,,7/8 Mostly Cloudy,4100.0,,BKN,4200.0,,,,,,
KRDR,06-05-2004,19:00,METAR,,10,12.0,,,9999.0,Cloud Development Not Observable,25.0,15.0,29.88,1012.0,,,,0,0,0,,,,,,,,,4/8 Partly Cloudy,72000.0,,SCT,3500.0,,,,,,
KRDR,06-05-2004,18:00,METAR,,20,7.0,,,9999.0,Cloud Development Not Observable,24.0,16.0,29.88,1012.0,,,,0,0,0,,,,,,,,,2/8 Mostly Clear,72000.0,,FEW,3500.0,,,,,,
KRDR,06-05-2004,17:00,METAR,,350,12.0,,,9999.0,Cloud Development Not Observable,23.0,16.0,29.88,1012.0,,,,0,0,0,,,,,,,,,2/8 Mostly Clear,72000.0,,FEW,5900.0,,,,,,
KRDR,06-05-2004,16:00,METAR,,20,11.0,,,9999.0,Cloud Development Not Observable,22.0,16.0,29.88,1012.0,,,,0,0,0,,,,,,,,,4/8 Partly Cloudy,72000.0,,SCT,5900.0,,,,,,
KRDR,06-05-2004,15:00,METAR,,40,10.0,,,9999.0,Cloud Development Not Observable,21.0,16.0,29.88,1012.0,,,,0,0,0,,,,,,,,,2/8 Mostly Clear,72000.0,,FEW,5900.0,,,,,,
KRDR,06-05-2004,14:00,METAR,,40,9.0,,,9999.0,Cloud Development Not Observable,18.0,16.0,29.87,1011.9,,,,0,0,0,,,,,,,,,7/8 Mostly Cloudy,6000.0,,BKN,5900.0,BKN,9900.0,,,,
KRDR,06-05-2004,13:00,METAR,,360,10.0,,,9999.0,Cloud Development Not Observable,17.0,17.0,29.87,1011.9,,,,0,0,0,,,,,,,,,7/8 Mostly Cloudy,8000.0,,SCT,3000.0,BKN,7900.0,BKN,9900.0,,
KRDR,06-05-2004,12:00,METAR,,340,7.0,,,9999.0,Cloud Development Not Observable,16.0,16.0,29.85,1011.1,,,,0,0,0,,,,,,,IN,TRACE,7/8 Mostly Cloudy,8000.0,,BKN,7900.0,BKN,12000.0,,,,
KRDR,06-05-2004,11:00,METAR,,,2.0,,,9999.0,Cloud Development Not Observable,17.0,16.0,29.82,1010.4,,,,0,0,0,,,,,,,,,7/8 Mostly Cloudy,8000.0,,BKN,7900.0,BKN,12000.0,,,,
KRDR,06-05-2004,10:35,SPECI,,,2.0,,,9999.0,Cloud Development Not Observable,16.0,16.0,29.83,,,,,0,0,0,,,,,,,,,8/8 Overcast,8000.0,,BKN,7900.0,OVC,12000.0,,,,
KRDR,06-05-2004,10:00,METAR,,320,7.0,,,9999.0,Light Rain Showers/Cloud Development Not Observable,17.0,16.0,29.83,1010.4,,,,80,0,0,,,,,,,,,8/8 Overcast,9000.0,,FEW,5900.0,BKN,8900.0,OVC,25000.0,,
KRDR,06-05-2004,09:03,SPECI,,310,5.0,,,9999.0,Cloud Development Not Observable,18.0,16.0,29.83,,,,,0,0,0,,,,,,,,,8/8 Overcast,11000.0,,FEW,7400.0,BKN,11000.0,OVC,25000.0,,
KRDR,06-05-2004,09:00,METAR,,,5.0,,,9999.0,Cloud Development Not Observable,19.0,17.0,29.83,1010.2,,,,0,0,0,,,,,,,,,8/8 Overcast,11000.0,,FEW,7400.0,BKN,11000.0,OVC,25000.0,,
KRDR,06-05-2004,08:00,METAR,,,6.0,,,9999.0,Cloud Development Not Observable,18.0,16.0,29.82,1010.0,,,,0,0,0,,,,,,,,,8/8 Overcast,12000.0,,FEW,7400.0,SCT,12000.0,OVC,25000.0,,
KRDR,06-05-2004,07:00,METAR,,120,5.0,,,9999.0,Cloud Development Not Observable,18.0,15.0,29.82,1010.1,,,,0,0,0,,,,,,,,,8/8 Overcast,25000.0,,SCT,12000.0,OVC,25000.0,,,,
KRDR,06-05-2004,06:00,METAR,,90,5.0,,,9999.0,Cloud Development Not Observable,19.0,15.0,29.85,1010.9,,,,0,0,0,,,,,,,,,7/8 Mostly Cloudy,12000.0,,BKN,12000.0,,,,,,
KRDR,06-05-2004,05:00,METAR,,160,4.0,,,9999.0,Cloud Development Not Observable,20.0,15.0,29.86,1011.3,,,,0,0,0,,,,,,,,,8/8 Overcast,12000.0,,OVC,12000.0,,,,,,
KRDR,06-05-2004,04:00,METAR,,140,6.0,,,9999.0,Cloud Development Not Observable,21.0,15.0,29.87,1011.8,,,,0,0,0,,,,,,,,,8/8 Overcast,10000.0,,BKN,9900.0,OVC,25000.0,,,,
KRDR,06-05-2004,03:00,METAR,,130,7.0,,,9999.0,Cloud Development Not Observable,22.0,16.0,29.88,1012.0,,,,0,0,0,,,,,,,,,8/8 Overcast,10000.0,,BKN,9900.0,BKN,15000.0,OVC,25000.0,,
KRDR,06-05-2004,02:00,METAR,,140,7.0,,,9999.0,Cloud Development Not Observable,23.0,16.0,29.88,1012.0,,,,0,0,0,,,,,,,,,8/8 Overcast,15000.0,,BKN,15000.0,OVC,25000.0,,,,
KRDR,06-05-2004,01:00,METAR,,150,8.0,,,9999.0,Cloud Development Not Observable,24.0,15.0,29.89,1012.4,,,,0,0,0,,,,,,,,,7/8 Mostly Cloudy,10000.0,,FEW,5000.0,BKN,9900.0,BKN,25000.0,,
KRDR,06-05-2004,00:00,METAR,,150,10.0,,,9999.0,Cloud Development Not Observable,26.0,14.0,29.92,1013.4,,,,0,0,0,,,,,,,,,7/8 Mostly Cloudy,25000.0,,FEW,5900.0,BKN,25000.0,,,,
KRDR,06-04-2004,23:00,METAR,,160,9.0,,,9999.0,Cloud Development Not Observable,26.0,14.0,29.95,1014.4,,,,0,0,0,,,,,,,,,7/8 Mostly Cloudy,25000.0,,FEW,5900.0,BKN,25000.0,,,,
KRDR,06-04-2004,22:00,METAR,,160,13.0,,,9999.0,Cloud Development Not Observable,27.0,14.0,29.98,1015.5,,,,0,0,0,,,,,,,,,7/8 Mostly Cloudy,25000.0,,FEW,5900.0,BKN,25000.0,,,,
KRDR,06-04-2004,21:00,METAR,,160,13.0,,,9999.0,Cloud Development Not Observable,26.0,12.0,30.00,1016.2,,,,0,0,0,,,,,,,,,7/8 Mostly Cloudy,25000.0,,FEW,5400.0,BKN,25000.0,,,,
KRDR,06-04-2004,20:00,METAR,,160,11.0,,,9999.0,Cloud Development Not Observable,26.0,12.0,30.02,1016.9,,,,0,0,0,,,,,,,,,7/8 Mostly Cloudy,25000.0,,FEW,5400.0,BKN,25000.0,,,,
KRDR,06-04-2004,19:00,METAR,,170,11.0,,,9999.0,Cloud Development Not Observable,25.0,12.0,30.03,1017.2,,,,0,0,0,,,,,,,,,7/8 Mostly Cloudy,25000.0,,FEW,5400.0,BKN,25000.0,,,,
KRDR,06-04-2004,18:00,METAR,,160,7.0,,,9999.0,Cloud Development Not Observable,25.0,15.0,30.03,1017.2,,,,0,0,0,,,,,,,,,7/8 Mostly Cloudy,25000.0,,FEW,5400.0,BKN,25000.0,,,,
KRDR,06-04-2004,17:00,METAR,,170,7.0,,,9999.0,Cloud Development Not Observable,24.0,14.0,30.04,1017.6,,,,0,0,0,,,,,,,,,4/8 Partly Cloudy,72000.0,,SCT,25000.0,,,,,,
KRDR,06-04-2004,16:00,METAR,,170,11.0,,,9999.0,Cloud Development Not Observable,23.0,14.0,30.04,1017.7,,,,0,0,0,,,,,,,,,4/8 Partly Cloudy,72000.0,,SCT,25000.0,,,,,,
KRDR,06-04-2004,15:00,METAR,,170,7.0,,,9999.0,Cloud Development Not Observable,21.0,13.0,30.06,1018.4,,,,0,0,0,,,,,,,,,2/8 Mostly Clear,72000.0,,FEW,6900.0,FEW,25000.0,,,,
KRDR,06-04-2004,14:00,METAR,,170,8.0,,,9999.0,Cloud Development Not Observable,19.0,13.0,30.06,1018.5,,,,0,0,0,,,,,,,,,2/8 Mostly Clear,72000.0,,FEW,6900.0,FEW,25000.0,,,,
KRDR,06-04-2004,13:00,METAR,,170,7.0,,,9999.0,Cloud Development Not Observable,17.0,12.0,30.09,1019.1,,,,0,0,0,,,,,,,,,2/8 Mostly Clear,72000.0,,FEW,6900.0,,,,,,
KRDR,06-04-2004,12:00,METAR,,150,3.0,,,9999.0,Cloud Development Not Observable,13.0,12.0,30.10,1019.5,,,,0,0,0,,,,,,,,,2/8 Mostly Clear,72000.0,,FEW,6900.0,FEW,12000.0,,,,
KRDR,06-04-2004,11:00,METAR,,130,3.0,,,9999.0,Cloud Development Not Observable,12.0,11.0,30.10,1019.8,,,,0,0,0,,,,,,,,,2/8 Mostly Clear,72000.0,,FEW,6900.0,FEW,12000.0,,,,
KRDR,06-04-2004,10:00,METAR,,140,2.0,,,9999.0,Cloud Development Not Observable,11.0,11.0,30.11,1020.2,,,,0,0,0,,,,,,,,,2/8 Mostly Clear,72000.0,,FEW,7900.0,,,,,,
KRDR,06-04-2004,09:00,METAR,,190,3.0,,,9999.0,Cloud Development Not Observable,11.0,11.0,30.11,1020.2,,,,0,0,0,,,,,,,,,2/8 Mostly Clear,72000.0,,FEW,5000.0,,,,,,
KRDR,06-04-2004,08:00,METAR,,190,4.0,,,9999.0,Cloud Development Not Observable,12.0,12.0,30.12,1020.5,,,,0,0,0,,,,,,,,,Clear,72000.0,,,73000.0,,,,,,
KRDR,06-04-2004,07:00,METAR,,200,4.0,,,9999.0,Cloud Development Not Observable,13.0,11.0,30.13,1020.8,,,,0,0,0,,,,,,,,,Clear,72000.0,,,73000.0,,,,,,
KRDR,06-04-2004,06:00,METAR,,190,5.0,,,9999.0,Cloud Development Not Observable,14.0,11.0,30.14,1021.2,,,,0,0,0,,,,,,,,,Clear,72000.0,,,73000.0,,,,,,
KRDR,06-04-2004,05:00,METAR,,190,5.0,,,9999.0,Cloud Development Not Observable,14.0,12.0,30.15,1021.5,,,,0,0,0,,,,,,,,,Clear,72000.0,,,73000.0,,,,,,
KRDR,06-04-2004,04:00,METAR,,170,5.0,,,9999.0,Cloud Development Not Observable,16.0,13.0,30.15,1021.4,,,,0,0,0,,,,,,,,,2/8 Mostly Clear,72000.0,,FEW,5400.0,,,,,,
KRDR,06-04-2004,03:00,METAR,,140,3.0,,,9999.0,Cloud Development Not Observable,18.0,13.0,30.14,1021.1,,,,0,0,0,,,,,,,,,2/8 Mostly Clear,72000.0,,FEW,5400.0,,,,,,
KRDR,06-04-2004,02:00,METAR,,180,5.0,,,9999.0,Cloud Development Not Observable,18.0,11.0,30.14,1021.2,,,,0,0,0,,,,,,,,,2/8 Mostly Clear,72000.0,,FEW,5400.0,,,,,,
KRDR,06-04-2004,01:00,METAR,,180,7.0,,,9999.0,Cloud Development Not Observable,22.0,9.0,30.15,1021.4,,,,0,0,0,,,,,,,,,2/8 Mostly Clear,72000.0,,FEW,5400.0,,,,,,
KRDR,06-04-2004,00:00,METAR,,180,11.0,,,9999.0,Cloud Development Not Observable,23.0,9.0,30.15,1021.5,,,,0,0,0,,,,,,,,,4/8 Partly Cloudy,72000.0,,FEW,5400.0,SCT,9400.0,,,,
KRDR,06-03-2004,23:00,METAR,,210,10.0,,,9999.0,Cloud Development Not Observable,23.0,9.0,30.16,1021.7,,,,0,0,0,,,,,,,,,7/8 Mostly Cloudy,9500.0,,SCT,5400.0,BKN,9400.0,,,,
KRDR,06-03-2004,22:00,METAR,,220,7.0,,,9999.0,Cloud Development Not Observable,21.0,12.0,30.17,1022.1,,,,0,0,0,,,,,,,,,7/8 Mostly Cloudy,9500.0,,SCT,5400.0,BKN,9400.0,,,,
KRDR,06-03-2004,21:00,METAR,,210,7.0,,,9999.0,Cloud Development Not Observable,22.0,11.0,30.18,1022.3,,,,0,0,0,,,,,,,,,7/8 Mostly Cloudy,9000.0,,SCT,5400.0,BKN,8900.0,,,,
KRDR,06-03-2004,20:00,METAR,,190,8.0,,,9999.0,Cloud Development Not Observable,23.0,11.0,30.19,1022.7,,,,0,0,0,,,,,,,,,7/8 Mostly Cloudy,9000.0,,SCT,5000.0,BKN,8900.0,,,,
KRDR,06-03-2004,19:00,METAR,,,6.0,,,9999.0,Cloud Development Not Observable,23.0,13.0,30.20,1023.0,,,,0,0,0,,,,,,,,,7/8 Mostly Cloudy,9000.0,,SCT,5000.0,BKN,8900.0,,,,
KRDR,06-03-2004,18:00,METAR,,210,7.0,,,9999.0,Cloud Development Not Observable,20.0,13.0,30.22,1023.7,,,,0,0,0,,,,,,,,,7/8 Mostly Cloudy,8500.0,,SCT,5000.0,BKN,8400.0,,,,
KRDR,06-03-2004,17:00,METAR,,220,7.0,,,9999.0,Cloud Development Not Observable,20.0,14.0,30.21,1023.9,,,,0,0,0,,,,,,,,,7/8 Mostly Cloudy,8500.0,,SCT,5000.0,BKN,8400.0,,,,
KRDR,06-03-2004,16:00,METAR,,,5.0,,,9999.0,Cloud Development Not Observable,22.0,12.0,30.23,1024.0,,,,0,0,0,,,,,,,,,7/8 Mostly Cloudy,8500.0,,SCT,5000.0,BKN,8400.0,,,,
KRDR,06-03-2004,15:00,METAR,,,6.0,,,9999.0,Cloud Development Not Observable,20.0,12.0,30.23,1024.0,,,,0,0,0,,,,,,,,,7/8 Mostly Cloudy,8500.0,,BKN,8400.0,,,,,,
KRDR,06-03-2004,14:00,METAR,,230,4.0,,,9999.0,Cloud Development Not Observable,17.0,14.0,30.23,1024.3,,,,0,0,0,,,,,,,,,7/8 Mostly Cloudy,8500.0,,BKN,8400.0,,,,,,
KRDR,06-03-2004,13:00,METAR,,220,4.0,,,9999.0,Cloud Development Not Observable,16.0,14.0,30.23,1024.1,,,,0,0,0,,,,,,,,,7/8 Mostly Cloudy,8500.0,,BKN,8400.0,,,,,,
KRDR,06-03-2004,12:00,METAR,,210,4.0,,,9999.0,Cloud Development Not Observable,14.0,13.0,30.23,1024.2,,,,0,0,0,,,,,,,,,7/8 Mostly Cloudy,8500.0,,BKN,8400.0,,,,,,
KRDR,06-03-2004,11:00,METAR,,230,5.0,,,9999.0,Cloud Development Not Observable,11.0,11.0,30.21,1023.5,,,,0,0,0,,,,,,,,,7/8 Mostly Cloudy,8500.0,,BKN,8400.0,,,,,,
KRDR,06-03-2004,10:00,METAR,,,2.0,,,9999.0,Cloud Development Not Observable,14.0,13.0,30.20,1023.2,,,,0,0,0,,,,,,,,,4/8 Partly Cloudy,72000.0,,SCT,8400.0,,,,,,
KRDR,06-03-2004,09:00,METAR,,220,3.0,,,9999.0,Cloud Development Not Observable,14.0,13.0,30.20,1023.2,,,,0,0,0,,,,,,,,,7/8 Mostly Cloudy,8500.0,,BKN,8400.0,,,,,,
KRDR,06-03-2004,08:00,METAR,,230,5.0,,,9999.0,Cloud Development Not Observable,14.0,13.0,30.20,1023.2,,,,0,0,0,,,,,,,,,7/8 Mostly Cloudy,8500.0,,BKN,8400.0,,,,,,
KRDR,06-03-2004,07:00,METAR,,,1.0,,,9999.0,Cloud Development Not Observable,15.0,12.0,30.20,1023.2,,,,0,0,0,,,,,,,,,8/8 Overcast,8500.0,,OVC,8400.0,,,,,,
KRDR,06-03-2004,06:00,METAR,,,2.0,,,9999.0,Cloud Development Not Observable,16.0,12.0,30.20,1023.2,,,,0,0,0,,,,,,,,,7/8 Mostly Cloudy,8500.0,,BKN,8400.0,,,,,,
KRDR,06-03-2004,05:00,METAR,,,3.0,,,9999.0,Cloud Development Not Observable,16.0,14.0,30.19,1022.9,,,,0,0,0,,,,,,,,,7/8 Mostly Cloudy,8500.0,,BKN,8400.0,,,,,,
KRDR,06-03-2004,04:00,METAR,,240,3.0,,,9999.0,Cloud Development Not Observable,17.0,13.0,30.18,1022.6,,,,0,0,0,,,,,,,,,7/8 Mostly Cloudy,8500.0,,BKN,8400.0,,,,,,
KRDR,06-03-2004,03:00,METAR,,,3.0,,,9999.0,Cloud Development Not Observable,18.0,10.0,30.17,1022.2,,,,0,0,0,,,,,,,,,7/8 Mostly Cloudy,8500.0,,BKN,8400.0,,,,,,
KRDR,06-03-2004,02:00,METAR,,330,2.0,,,9999.0,Cloud Development Not Observable,19.0,8.0,30.15,1021.5,,,,0,0,0,,,,,,,,,7/8 Mostly Cloudy,8500.0,,BKN,8400.0,,,,,,
KRDR,06-03-2004,01:00,METAR,,320,4.0,,,9999.0,Cloud Development Not Observable,21.0,9.0,30.15,1021.6,,,,0,0,0,,,,,,,,,4/8 Partly Cloudy,72000.0,,SCT,7900.0,,,,,,
KRDR,06-03-2004,00:00,METAR,,330,3.0,,,9999.0,Cloud Development Not Observable,21.0,7.0,30.14,1021.3,,,,0,0,0,,,,,,,,,7/8 Mostly Cloudy,12000.0,,SCT,5000.0,BKN,12000.0,,,,
KRDR,06-02-2004,23:00,METAR,,,2.0,,,9999.0,Cloud Development Not Observable,22.0,6.0,30.14,1021.3,,,,0,0,0,,,,,,,,,7/8 Mostly Cloudy,10000.0,,SCT,5000.0,BKN,9900.0,,,,
KRDR,06-02-2004,22:00,METAR,,,6.0,,,9999.0,Cloud Development Not Observable,22.0,6.0,30.14,1021.1,,,,0,0,0,,,,,,,,,7/8 Mostly Cloudy,10000.0,,SCT,5000.0,BKN,9900.0,,,,
KRDR,06-02-2004,21:00,METAR,,,4.0,,,9999.0,Cloud Development Not Observable,23.0,7.0,30.14,1021.0,,,,0,0,0,,,,,,,,,4/8 Partly Cloudy,72000.0,,SCT,6900.0,,,,,,
KRDR,06-02-2004,20:00,METAR,,320,7.0,,,9999.0,Cloud Development Not Observable,23.0,6.0,30.14,1021.0,,,,0,0,0,,,,,,,,,4/8 Partly Cloudy,72000.0,,SCT,6900.0,,,,,,
KRDR,06-02-2004,19:00,METAR,,,6.0,,,9999.0,Cloud Development Not Observable,22.0,4.0,30.13,1020.8,,,,0,0,0,,,,,,,,,4/8 Partly Cloudy,72000.0,,SCT,6900.0,SCT,25000.0,,,,
KRDR,06-02-2004,18:00,METAR,,,6.0,,,9999.0,Cloud Development Not Observable,22.0,8.0,30.13,1020.7,,,,0,0,0,,,,,,,,,2/8 Mostly Clear,72000.0,,FEW,7900.0,FEW,25000.0,,,,
KRDR,06-02-2004,17:00,METAR,,,6.0,,,9999.0,Cloud Development Not Observable,21.0,8.0,30.13,1020.7,,,,0,0,0,,,,,,,,,2/8 Mostly Clear,72000.0,,FEW,7900.0,,,,,,
KRDR,06-02-2004,16:00,METAR,,,4.0,,,9999.0,Cloud Development Not Observable,18.0,11.0,30.13,1020.8,,,,0,0,0,,,,,,,,,2/8 Mostly Clear,72000.0,,FEW,7900.0,,,,,,
KRDR,06-02-2004,15:00,METAR,,,5.0,,,9999.0,Cloud Development Not Observable,16.0,11.0,30.12,1020.4,,,,0,0,0,,,,,,,,,4/8 Partly Cloudy,72000.0,,SCT,7900.0,,,,,,
KRDR,06-02-2004,14:00,METAR,,,4.0,,,9999.0,Cloud Development Not Observable,15.0,10.0,30.11,1020.1,,,,0,0,0,,,,,,,,,4/8 Partly Cloudy,72000.0,,SCT,7900.0,,,,,,
KRDR,06-02-2004,13:00,METAR,,,5.0,,,9999.0,Cloud Development Not Observable,12.0,10.0,30.10,1019.9,,,,0,0,0,,,,,,,,,7/8 Mostly Cloudy,8000.0,,BKN,7900.0,,,,,,
KRDR,06-02-2004,12:00,METAR,,360,3.0,,,9999.0,Cloud Development Not Observable,10.0,10.0,30.07,1019.0,,,,0,0,0,,,,,,,,.02 IN,4/8 Partly Cloudy,72000.0,,SCT,7900.0,,,,,,
KRDR,06-02-2004,11:00,METAR,,320,4.0,,,9999.0,Cloud Development Not Observable,10.0,10.0,30.04,1018.0,,,,0,0,0,,,,,,,,,4/8 Partly Cloudy,72000.0,,SCT,7900.0,,,,,,
KRDR,06-02-2004,10:00,METAR,,310,4.0,,,9999.0,Cloud Development Not Observable,9.0,9.0,30.02,1017.3,,,,0,0,0,,,,,,,,,4/8 Partly Cloudy,72000.0,,SCT,7900.0,,,,,,
KRDR,06-02-2004,09:00,METAR,,310,6.0,,,9999.0,Cloud Development Not Observable,11.0,11.0,30.01,1016.9,,,,0,0,0,,,,,,,,,4/8 Partly Cloudy,72000.0,,SCT,7900.0,,,,,,
KRDR,06-02-2004,08:00,METAR,,310,2.0,,,9999.0,Cloud Development Not Observable,12.0,11.0,29.99,1016.2,,,,0,0,0,,,,,,,,,7/8 Mostly Cloudy,10000.0,,SCT,6900.0,BKN,9900.0,,,,
KRDR,06-02-2004,07:00,METAR,,340,3.0,,,9999.0,Cloud Development Not Observable,12.0,11.0,29.97,1015.5,,,,0,0,0,,,,,,,,,7/8 Mostly Cloudy,10000.0,,SCT,7400.0,BKN,9900.0,,,,
KRDR,06-02-2004,06:00,METAR,,340,3.0,,,9999.0,Cloud Development Not Observable,12.0,11.0,29.96,1015.2,,,,0,0,0,,,,,,,,,7/8 Mostly Cloudy,9500.0,,SCT,7400.0,BKN,9400.0,,,,
KRDR,06-02-2004,05:00,METAR,,350,3.0,,,9999.0,Cloud Development Not Observable,13.0,10.0,29.95,1014.8,,,,0,0,0,,,,,,,,,7/8 Mostly Cloudy,7000.0,,FEW,5000.0,SCT,7400.0,BKN,9400.0,,
KRDR,06-02-2004,04:00,METAR,,360,5.0,,,9999.0,Cloud Development Not Observable,13.0,11.0,29.93,1014.3,,,,0,0,0,,,,,,,,,7/8 Mostly Cloudy,9500.0,,BKN,9400.0,,,,,,
KRDR,06-02-2004,03:00,METAR,,360,6.0,,,9999.0,Cloud Development Not Observable,14.0,11.0,29.91,1013.6,,,,0,0,0,,,,,,,,,7/8 Mostly Cloudy,10000.0,,SCT,6900.0,BKN,9900.0,,,,
KRDR,06-02-2004,02:00,METAR,,330,4.0,,,9999.0,Cloud Development Not Observable,14.0,12.0,29.89,1012.9,,,,0,0,0,,,,,,,,,7/8 Mostly Cloudy,7000.0,,BKN,6900.0,,,,,,
KRDR,06-02-2004,01:00,METAR,,340,4.0,,,9999.0,Cloud Development Not Observable,15.0,11.0,29.87,1012.4,,,,0,0,0,,,,,,,,,7/8 Mostly Cloudy,8500.0,,SCT,5900.0,BKN,8400.0,,,,
KRDR,06-02-2004,00:00,METAR,,,3.0,,,9999.0,Cloud Development Not Observable,15.0,10.0,29.85,1011.7,,,,0,0,0,,,,,,,.02 IN,,7/8 Mostly Cloudy,4900.0,,FEW,2500.0,BKN,5000.0,,,,
KRDR,06-01-2004,23:00,METAR,,60,5.0,,,9999.0,Cloud Development Not Observable,15.0,10.0,29.84,,,,,0,0,0,,,,,,,,,8/8 Overcast,4900.0,,FEW,2500.0,OVC,5000.0,,,,
KRDR,06-01-2004,22:00,METAR,,70,9.0,,,9999.0,Cloud Development Not Observable,15.0,10.0,29.82,,,,,0,0,0,,,,,,,,,8/8 Overcast,4900.0,,FEW,2500.0,OVC,5000.0,,,,
KRDR,06-01-2004,21:00,METAR,,60,8.0,,,9999.0,Cloud Development Not Observable,15.0,12.0,29.79,,,,,0,0,0,,,,,,.02 IN,,,8/8 Overcast,3400.0,,SCT,2600.0,BKN,3500.0,OVC,5400.0,,
KRDR,06-01-2004,20:45,METAR,,20,7.0,,,9999.0,Cloud Development Not Observable,14.0,13.0,29.78,,,,,0,0,0,,,,,,,,,8/8 Overcast,3500.0,,BKN,3600.0,OVC,5000.0,,,,
KRDR,06-01-2004,20:00,METAR,,20,8.0,,,9999.0,Cloud Development Not Observable,14.0,13.0,29.77,,,,,0,0,0,,,,,,,,,8/8 Overcast,2100.0,,BKN,2100.0,OVC,5000.0,,,,
KRDR,06-01-2004,19:38,SPECI,,20,7.0,,,9999.0,Cloud Development Not Observable,14.0,13.0,29.77,,,,,0,0,0,,,,,,,,,8/8 Overcast,2600.0,,BKN,2600.0,OVC,5000.0,,,,
KRDR,06-01-2004,19:00,METAR,,30,9.0,,,8000.0,Drizzle/Mist/Cloud Development Not Observable,12.0,12.0,29.75,,,,,51,10,0,,,,,,,,,8/8 Overcast,2000.0,,BKN,2000.0,OVC,3000.0,,,,
KRDR,06-01-2004,18:00,METAR,,30,9.0,,,9999.0,Rain/Cloud Development Not Observable,13.0,13.0,29.72,,,,,61,0,0,,,,,,,IN,,8/8 Overcast,1700.0,,BKN,1700.0,OVC,3000.0,,,,
KRDR,06-01-2004,17:00,METAR,,30,10.0,,,9999.0,Rain/Cloud Development Not Observable,13.0,13.0,29.69,,,,,61,0,0,,,,,,,,,8/8 Overcast,1000.0,,BKN,1000.0,OVC,3000.0,,,,
KRDR,06-01-2004,16:00,METAR,,20,9.0,,,9999.0,Rain/Cloud Development Not Observable,12.0,12.0,29.66,,,,,61,0,0,,,,,,,,,8/8 Overcast,900.0,,BKN,900.0,OVC,2000.0,,,,
KRDR,06-01-2004,15:00,METAR,,360,10.0,,,9999.0,Rain/Cloud Development Not Observable,10.0,10.0,29.61,,,,,61,0,0,,,,,,,,,8/8 Overcast,400.0,,BKN,400.0,OVC,2000.0,,,,
KRDR,06-01-2004,14:31,SPECI,,360,10.0,,,9999.0,Drizzle/Cloud Development Not Observable,10.0,10.0,29.61,,,,,51,0,0,,,,,,,,,8/8 Overcast,400.0,,BKN,400.0,OVC,2000.0,,,,
KRDR,06-01-2004,14:07,SPECI,,360,10.0,,,9999.0,Cloud Development Not Observable,10.0,10.0,29.61,,,,,0,0,0,,,,,,,,,8/8 Overcast,400.0,,BKN,400.0,OVC,2000.0,,,,
KRDR,06-01-2004,14:00,METAR,,360,10.0,,,9999.0,Mist/Cloud Development Not Observable,10.0,10.0,29.61,,,,,10,0,0,,,,,,,,,8/8 Overcast,2000.0,,SCT,400.0,OVC,2000.0,,,,
KRDR,06-01-2004,13:00,METAR,,360,10.0,,,6400.0,Drizzle/Mist/Cloud Development Not Observable,10.0,10.0,29.60,1013.0,,,,51,10,0,,,,,,,,,8/8 Overcast,200.0,,BKN,200.0,OVC,500.0,,,,
KRDR,06-01-2004,12:44,SPECI,,360,9.0,,,6400.0,Drizzle/Mist/Cloud Development Not Observable,10.0,10.0,29.60,,,,,51,10,0,,,,,,,,,8/8 Overcast,300.0,,BKN,300.0,OVC,800.0,,,,
KRDR,06-01-2004,12:00,METAR,,360,8.0,,,9999.0,Drizzle/Mist/Cloud Development Not Observable,10.0,10.0,29.58,1012.1,,,,51,10,0,,,,,,,.33 IN,,8/8 Overcast,300.0,,OVC,300.0,,,,,,
KRDR,05-28-2004,04:00,METAR,,,,,,9999.0,Cloud Development Not Observable,11.0,3.0,29.84,1011.4,,,,0,0,0,,,,,,,,,2/8 Mostly Clear,72000.0,,FEW,6900.0,,,,,,
KRDR,05-28-2004,03:00,METAR,,70,2.0,,,9999.0,Cloud Development Not Observable,13.0,1.0,29.82,1010.8,,,,0,0,0,,,,,,,,,2/8 Mostly Clear,72000.0,,FEW,6900.0,,,,,,
KRDR,05-28-2004,02:00,METAR,,60,4.0,,,9999.0,Cloud Development Not Observable,14.0,0.0,29.81,1010.1,,,,0,0,0,,,,,,,,,2/8 Mostly Clear,72000.0,,FEW,6900.0,FEW,15000.0,,,,
KRDR,05-28-2004,01:00,METAR,,,5.0,,,9999.0,Cloud Development Not Observable,15.0,0.0,29.79,1009.5,,,,0,0,0,,,,,,,,,2/8 Mostly Clear,72000.0,,FEW,6900.0,,,,,,
KRDR,05-28-2004,00:00,METAR,,,5.0,,,9999.0,Cloud Development Not Observable,15.0,1.0,29.78,1009.4,,,,0,0,0,,,,,,,,,2/8 Mostly Clear,72000.0,,FEW,6900.0,SCT,25000.0,,,,
KRDR,05-27-2004,23:00,METAR,,360,8.0,,,9999.0,Cloud Development Not Observable,16.0,1.0,29.78,1009.2,,,,0,0,0,,,,,,,,,4/8 Partly Cloudy,72000.0,,FEW,6900.0,SCT,15000.0,,,,
KRDR,05-27-2004,22:00,METAR,,,6.0,,,9999.0,Cloud Development Not Observable,16.0,1.0,29.77,1009.0,,,,0,0,0,,,,,,,,,4/8 Partly Cloudy,72000.0,,FEW,4000.0,FEW,6900.0,SCT,9900.0,,
KRDR,05-27-2004,21:00,METAR,,20,8.0,14.0,,9999.0,Cloud Development Not Observable,16.0,2.0,29.77,1008.9,,,,0,0,0,,,,,,,,,4/8 Partly Cloudy,72000.0,,SCT,3500.0,SCT,9900.0,,,,
KRDR,05-27-2004,20:00,METAR,,20,10.0,,,9999.0,Cloud Development Not Observable,16.0,2.0,29.77,1008.8,,,,0,0,0,,,,,,,,,4/8 Partly Cloudy,72000.0,,SCT,3500.0,SCT,9900.0,,,,
KRDR,05-27-2004,19:00,METAR,,,6.0,,,9999.0,Cloud Development Not Observable,14.0,3.0,29.77,1008.8,,,,0,0,0,,,,,,,,,4/8 Partly Cloudy,72000.0,,SCT,3500.0,SCT,9900.0,,,,
KRDR,05-27-2004,18:00,METAR,,10,10.0,,,9999.0,Cloud Development Not Observable,13.0,4.0,29.76,1008.5,,,,0,0,0,,,,,,,,,4/8 Partly Cloudy,72000.0,,SCT,3500.0,,,,,,
KRDR,05-27-2004,17:00,METAR,,350,9.0,,,9999.0,Cloud Development Not Observable,11.0,4.0,29.76,1008.5,,,,0,0,0,,,,,,,,,7/8 Mostly Cloudy,3000.0,,BKN,3000.0,,,,,,
KRDR,05-27-2004,16:31,SPECI,,360,9.0,,,9999.0,Cloud Development Not Observable,11.0,4.0,29.76,,,,,0,0,0,,,,,,,,,7/8 Mostly Cloudy,3000.0,,BKN,3000.0,,,,,,
KRDR,05-27-2004,16:00,METAR,,20,9.0,,,9999.0,Cloud Development Not Observable,11.0,5.0,29.75,1008.1,,,,0,0,0,,,,,,,,,7/8 Mostly Cloudy,2500.0,,BKN,2500.0,,,,,,
KRDR,05-27-2004,15:00,METAR,,20,10.0,,,9999.0,Cloud Development Not Observable,8.0,5.0,29.75,1008.3,,,,0,0,0,,,,,,,,,8/8 Overcast,2000.0,,OVC,2000.0,,,,,,
KRDR,05-27-2004,14:00,METAR,,30,11.0,,,9999.0,Cloud Development Not Observable,7.0,4.0,29.73,1007.6,,,,0,0,0,,,,,,,,,8/8 Overcast,2000.0,,OVC,2000.0,,,,,,
KRDR,05-27-2004,13:19,SPECI,,360,12.0,,,9999.0,Cloud Development Not Observable,7.0,4.0,29.71,,,,,0,0,0,,,,,,,,,7/8 Mostly Cloudy,2000.0,,BKN,2000.0,,,,,,
KRDR,05-27-2004,13:00,METAR,,10,12.0,,,9999.0,Cloud Development Not Observable,7.0,5.0,29.70,1006.5,,,,0,0,0,,,,,,,,,4/8 Partly Cloudy,72000.0,,SCT,2000.0,,,,,,
KRDR,05-27-2004,12:19,SPECI,,360,11.0,,,9999.0,Cloud Development Not Observable,6.0,5.0,29.68,,,,,0,0,0,,,,,,,,,4/8 Partly Cloudy,72000.0,,SCT,2500.0,,,,,,
KRDR,05-27-2004,12:00,METAR,,360,11.0,,,9999.0,Cloud Development Not Observable,5.0,5.0,29.67,1005.6,,,,0,0,0,,,,,,,,.08 IN,7/8 Mostly Cloudy,2500.0,,BKN,2500.0,,,,,,
KRDR,05-27-2004,11:32,SPECI,,360,9.0,,,9999.0,Cloud Development Not Observable,5.0,5.0,29.67,,,,,0,0,0,,,,,,,,,7/8 Mostly Cloudy,2500.0,,BKN,2500.0,,,,,,
KRDR,05-27-2004,11:00,METAR,,340,7.0,,,9999.0,Cloud Development Not Observable,4.0,4.0,29.65,1004.9,,,,0,0,0,,,,,,,,,4/8 Partly Cloudy,72000.0,,SCT,2400.0,SCT,5900.0,,,,
KRDR,05-27-2004,10:00,METAR,,350,6.0,,,9999.0,Cloud Development Not Observable,4.0,4.0,29.63,1004.1,,,,0,0,0,,,,,,,,,2/8 Mostly Clear,72000.0,,FEW,6400.0,,,,,,
KRDR,05-27-2004,09:00,METAR,,350,9.0,,,9999.0,Cloud Development Not Observable,7.0,7.0,29.60,1002.9,,,,0,0,0,,,,,,,,,7/8 Mostly Cloudy,6500.0,,BKN,6400.0,,,,,,
KRDR,05-27-2004,08:00,METAR,,360,10.0,,,9999.0,Cloud Development Not Observable,7.0,7.0,29.58,1002.1,,,,0,0,0,,,,,,,,,7/8 Mostly Cloudy,7000.0,,SCT,3000.0,BKN,6900.0,,,,
KRDR,05-27-2004,07:15,SPECI,,10,10.0,,,9999.0,Cloud Development Not Observable,8.0,8.0,29.57,,,,,0,0,0,,,,,,,,,7/8 Mostly Cloudy,8000.0,,SCT,2900.0,BKN,7900.0,,,,
KRDR,05-27-2004,07:00,METAR,,10,10.0,,,9999.0,Cloud Development Not Observable,8.0,8.0,29.56,1001.5,,,,0,0,0,,,,,,,,,7/8 Mostly Cloudy,2700.0,,BKN,2700.0,,,,,,
KRDR,05-27-2004,06:00,METAR,,360,11.0,,,9999.0,Cloud Development Not Observable,8.0,8.0,29.55,1000.3,,,,0,0,0,,,,,,,.03 IN,,8/8 Overcast,2000.0,,OVC,2000.0,,,,,,
KRDR,05-27-2004,05:18,SPECI,,350,9.0,,,9999.0,Cloud Development Not Observable,9.0,8.0,29.54,,,,,0,0,0,,,,,,,,,8/8 Overcast,1900.0,,OVC,1900.0,,,,,,
KRDR,05-27-2004,05:00,METAR,,360,11.0,,,9999.0,Cloud Development Not Observable,9.0,9.0,29.52,1000.3,,,,0,0,0,,,,,,,,,7/8 Mostly Cloudy,9000.0,,SCT,1800.0,BKN,8900.0,,,,
KRDR,05-27-2004,04:00,METAR,,360,10.0,,,9999.0,Cloud Development Not Observable,9.0,9.0,29.50,999.6,,,,0,0,0,,,,,,,,,7/8 Mostly Cloudy,9000.0,,BKN,8900.0,,,,,,
KRDR,05-27-2004,03:27,SPECI,,350,11.0,,,9999.0,Cloud Development Not Observable,9.0,9.0,29.50,,,,,0,0,0,,,,,,,,,7/8 Mostly Cloudy,9000.0,,FEW,5000.0,BKN,8900.0,,,,
KRDR,05-27-2004,03:00,METAR,,360,14.0,,,9999.0,Rain/Cloud Development Not Observable,9.0,9.0,29.49,999.4,,,,61,0,0,,,,,,.02 IN,,,8/8 Overcast,4900.0,,SCT,3000.0,BKN,5000.0,OVC,7900.0,,
KRDR,05-27-2004,02:42,SPECI,,350,11.0,,,9999.0,Cloud Development Not Observable,9.0,9.0,29.49,,,,,0,0,0,,,,,,,,,8/8 Overcast,3400.0,,BKN,3500.0,OVC,5000.0,,,,
KRDR,05-27-2004,02:00,METAR,,360,14.0,,,9999.0,Light Rain Showers/Cloud Development Not Observable,10.0,10.0,29.48,998.7,,,,80,0,0,,,,,,,,,8/8 Overcast,4900.0,,SCT,3500.0,OVC,5000.0,,,,
KRDR,05-27-2004,01:42,SPECI,,360,15.0,,,9999.0,Cloud Development Not Observable,11.0,10.0,29.48,,,,,0,0,0,,,,,,,,,8/8 Overcast,6000.0,,SCT,4000.0,OVC,5900.0,,,,
KRDR,05-27-2004,01:30,METAR,,360,12.0,,,9999.0,Light Rain Showers/Cloud Development Not Observable,11.0,11.0,29.47,,,,,80,0,0,,,,,,,,,8/8 Overcast,3900.0,,BKN,4000.0,OVC,6900.0,,,,
KRDR,05-27-2004,01:00,METAR,,350,13.0,,,9999.0,Cloud Development Not Observable,12.0,10.0,29.47,998.7,,,,0,0,0,,,,,,,,,8/8 Overcast,4400.0,,BKN,4500.0,OVC,7900.0,,,,
KRDR,05-27-2004,00:00,METAR,,10,19.0,,,9999.0,Cloud Development Not Observable,14.0,10.0,29.42,996.9,,,,0,0,0,,,,,,,.05 IN,,8/8 Overcast,10000.0,,SCT,5000.0,OVC,9900.0,,,,
KRDR,05-26-2004,23:10,SPECI,,30,13.0,,,9999.0,Precipitation in the Vicinity/Cloud Development Not Observable,15.0,11.0,29.41,,,,,16,0,0,,,,,,,,,8/8 Overcast,10000.0,,SCT,5000.0,BKN,9900.0,OVC,18000.0,,
KRDR,05-26-2004,23:02,SPECI,,30,15.0,,,9999.0,Light Rain Showers/Cloud Development Not Observable,14.0,11.0,29.42,,,,,80,0,0,,,,,,,,,8/8 Overcast,4400.0,,FEW,2600.0,SCT,4500.0,BKN,7900.0,OVC,12000.0
KRDR,05-26-2004,23:00,METAR,,360,11.0,,,9999.0,Light Rain Showers/Cloud Development Not Observable,14.0,11.0,29.44,997.7,,,,80,0,0,,,,,,,,,8/8 Overcast,4400.0,,FEW,2600.0,SCT,4500.0,BKN,8900.0,OVC,12000.0
KRDR,05-26-2004,22:43,SPECI,,360,13.0,,,9999.0,Light Rain Showers/Cloud Development Not Observable,16.0,10.0,29.43,,,,,80,0,0,,,,,,,,,8/8 Overcast,4400.0,,FEW,2600.0,SCT,4500.0,BKN,8900.0,OVC,15000.0
KRDR,05-26-2004,22:31,SPECI,,20,14.0,,,9999.0,Cloud Development Not Observable,17.0,10.0,29.39,,,,,0,0,0,,,,,,,,,8/8 Overcast,9000.0,,SCT,4500.0,BKN,8900.0,OVC,20000.0,,
KRDR,05-26-2004,22:00,METAR,,20,11.0,,,9999.0,Light Rain Showers/Cloud Development Not Observable,17.0,10.0,29.40,996.1,,,,80,0,0,,,,,,,,,8/8 Overcast,10000.0,,SCT,5000.0,BKN,9900.0,OVC,25000.0,,
KRDR,05-26-2004,21:43,SPECI,,360,12.0,,,9999.0,Light Rain Showers/Cloud Development Not Observable,17.0,10.0,29.40,,,,,80,0,0,,,,,,,,,8/8 Overcast,10000.0,,SCT,5000.0,BKN,9900.0,OVC,25000.0,,
KRDR,05-26-2004,21:00,METAR,,20,12.0,,,9999.0,Cloud Development Not Observable,19.0,10.0,29.38,995.5,,,,0,0,0,,,,,,,,,7/8 Mostly Cloudy,10000.0,,SCT,5000.0,BKN,9900.0,BKN,25000.0,,
KRDR,05-26-2004,20:00,METAR,,10,13.0,,,9999.0,Cloud Development Not Observable,21.0,10.0,29.38,995.5,,,,0,0,0,,,,,,,,,7/8 Mostly Cloudy,10000.0,,SCT,5000.0,SCT,9900.0,BKN,25000.0,,
KRDR,05-26-2004,19:28,SPECI,,360,12.0,16.0,,9999.0,Cloud Development Not Observable,22.0,10.0,29.39,,,,,0,0,0,,,,,,,,,7/8 Mostly Cloudy,10000.0,,FEW,5000.0,SCT,9900.0,BKN,25000.0,,
KRDR,05-26-2004,19:00,METAR,,230,10.0,20.0,,9999.0,Cloud Development Not Observable,22.0,3.0,29.39,995.8,,,,0,0,0,,,,,,,,,7/8 Mostly Cloudy,10000.0,,FEW,5000.0,SCT,9900.0,BKN,25000.0,,
KRDR,05-26-2004,18:00,METAR,,230,14.0,,,9999.0,Cloud Development Not Observable,21.0,7.0,29.43,997.1,,,,0,0,0,,,,,,,,,7/8 Mostly Cloudy,10000.0,,FEW,5000.0,BKN,9900.0,BKN,25000.0,,
KRDR,05-26-2004,17:00,METAR,,240,13.0,,,9999.0,Cloud Development Not Observable,18.0,7.0,29.45,997.9,,,,0,0,0,,,,,,,,,7/8 Mostly Cloudy,10000.0,,SCT,5000.0,BKN,9900.0,BKN,25000.0,,
KRDR,05-26-2004,16:00,METAR,,230,16.0,,,9999.0,Cloud Development Not Observable,17.0,7.0,29.48,999.2,,,,0,0,0,,,,,,,,,7/8 Mostly Cloudy,10000.0,,FEW,4000.0,BKN,9900.0,BKN,25000.0,,
KRDR,05-26-2004,15:00,METAR,,240,12.0,19.0,,9999.0,Cloud Development Not Observable,14.0,6.0,29.51,1000.1,,,,0,0,0,,,,,,,,,7/8 Mostly Cloudy,10000.0,,SCT,4000.0,BKN,9900.0,BKN,25000.0,,
KRDR,05-26-2004,14:00,METAR,,240,7.0,16.0,,9999.0,Cloud Development Not Observable,11.0,6.0,29.54,1001.0,,,,0,0,0,,,,,,,,,7/8 Mostly Cloudy,9500.0,,SCT,4000.0,BKN,9400.0,BKN,25000.0,,
KRDR,05-26-2004,13:00,METAR,,220,16.0,,,9999.0,Cloud Development Not Observable,9.0,5.0,29.56,1001.6,,,,0,0,0,,,,,,,,,7/8 Mostly Cloudy,9500.0,,SCT,4000.0,BKN,9400.0,BKN,25000.0,,
KRDR,05-26-2004,12:00,METAR,,230,12.0,,210/28KTS,9999.0,Cloud Development Not Observable,9.0,5.0,29.57,1002.2,,,,0,0,0,,,,,,,,,7/8 Mostly Cloudy,10000.0,,SCT,4000.0,BKN,9900.0,BKN,25000.0,,
KRDR,05-26-2004,11:00,METAR,,210,19.0,27.0,,9999.0,Cloud Development Not Observable,9.0,4.0,29.59,1002.9,,,,0,0,0,,,,,,,,,7/8 Mostly Cloudy,10000.0,,SCT,4000.0,BKN,9900.0,BKN,25000.0,,
KRDR,05-26-2004,10:00,METAR,,210,19.0,27.0,,9999.0,Cloud Development Not Observable,8.0,4.0,29.61,1003.6,,,,0,0,0,,,,,,,,,4/8 Partly Cloudy,72000.0,,SCT,12000.0,SCT,25000.0,,,,
KRDR,05-26-2004,09:00,METAR,,200,14.0,,,9999.0,Cloud Development Not Observable,7.0,5.0,29.63,1004.4,,,,0,0,0,,,,,,,,,4/8 Partly Cloudy,72000.0,,FEW,5000.0,SCT,25000.0,,,,
KRDR,05-26-2004,08:00,METAR,,200,14.0,,,9999.0,Cloud Development Not Observable,7.0,5.0,29.66,1005.3,,,,0,0,0,,,,,,,,,2/8 Mostly Clear,72000.0,,FEW,25000.0,,,,,,
KRDR,05-26-2004,07:00,METAR,,170,9.0,,,9999.0,Cloud Development Not Observable,6.0,5.0,29.69,1006.4,,,,0,0,0,,,,,,,,,Clear,72000.0,,,73000.0,,,,,,
KRDR,05-26-2004,06:00,METAR,,170,9.0,,,9999.0,Cloud Development Not Observable,6.0,5.0,29.74,1007.9,,,,0,0,0,,,,,,,,,Clear,72000.0,,,73000.0,,,,,,
KRDR,05-26-2004,05:00,METAR,,160,6.0,,,9999.0,Cloud Development Not Observable,7.0,5.0,29.77,1009.0,,,,0,0,0,,,,,,,,,Clear,72000.0,,,73000.0,,,,,,
KRDR,05-26-2004,03:00,METAR,,150,4.0,,,9999.0,Cloud Development Not Observable,7.0,3.0,29.80,1010.1,,,,0,0,0,,,,,,,,,2/8 Mostly Clear,72000.0,,FEW,4000.0,,,,,,
KRDR,05-26-2004,02:00,METAR,,,0.0,,,9999.0,Cloud Development Not Observable,10.0,4.0,29.81,1010.3,,,,0,0,0,,,,,,,,,2/8 Mostly Clear,72000.0,,FEW,4000.0,FEW,9900.0,,,,
KRDR,05-26-2004,01:00,METAR,,290,5.0,,,9999.0,Cloud Development Not Observable,11.0,0.0,29.82,1010.6,,,,0,0,0,,,,,,,,,2/8 Mostly Clear,72000.0,,FEW,4000.0,FEW,9900.0,,,,
KRDR,05-26-2004,00:00,METAR,,320,8.0,,,9999.0,Cloud Development Not Observable,12.0,3.0,29.84,1011.4,,,,0,0,0,,,,,,,,,2/8 Mostly Clear,72000.0,,FEW,4000.0,FEW,9900.0,,,,
KRDR,05-25-2004,23:00,METAR,,280,11.0,,,9999.0,Cloud Development Not Observable,12.0,2.0,29.86,1012.1,,,,0,0,0,,,,,,,,,4/8 Partly Cloudy,72000.0,,SCT,4000.0,,,,,,
KRDR,05-25-2004,22:00,METAR,,280,14.0,,,9999.0,Cloud Development Not Observable,12.0,3.0,29.87,1012.4,,,,0,0,0,,,,,,,,,7/8 Mostly Cloudy,3900.0,,BKN,4000.0,,,,,,
KRDR,05-25-2004,21:00,METAR,,300,14.0,,,9999.0,Cloud Development Not Observable,11.0,4.0,29.88,1012.8,,,,0,0,0,,,,,,,,,7/8 Mostly Cloudy,3900.0,,BKN,4000.0,BKN,4500.0,,,,
KRDR,05-25-2004,20:00,METAR,,310,14.0,,,9999.0,Cloud Development Not Observable,9.0,4.0,29.90,1013.5,,,,0,0,0,,,,,,,,,8/8 Overcast,3100.0,,SCT,2400.0,OVC,3200.0,,,,
KRDR,05-25-2004,19:00,METAR,,310,19.0,24.0,,9999.0,Cloud Development Not Observable,9.0,5.0,29.90,1013.5,,,,0,0,0,,,,,,,,,8/8 Overcast,3400.0,,SCT,2500.0,OVC,3500.0,,,,
KRDR,05-25-2004,18:00,METAR,,300,15.0,26.0,,9999.0,Cloud Development Not Observable,10.0,5.0,29.89,1013.2,,,,0,0,0,,,,,,,,,8/8 Overcast,3100.0,,SCT,2500.0,BKN,3100.0,OVC,4000.0,,
KRDR,05-25-2004,17:41,SPECI,,310,15.0,23.0,,9999.0,Cloud Development Not Observable,9.0,4.0,29.89,,,,,0,0,0,,,,,,,,,8/8 Overcast,3200.0,,SCT,2800.0,BKN,3300.0,OVC,4000.0,,
KRDR,05-25-2004,17:00,METAR,,300,17.0,25.0,,9999.0,Cloud Development Not Observable,10.0,5.0,29.89,1013.2,,,,0,0,0,,,,,,,,,8/8 Overcast,2800.0,,FEW,2000.0,BKN,2800.0,OVC,3800.0,,
KRDR,05-25-2004,16:00,METAR,,310,15.0,26.0,,9999.0,Cloud Development Not Observable,8.0,5.0,29.89,1013.3,,,,0,0,0,,,,,,,,,8/8 Overcast,2800.0,,FEW,2100.0,BKN,2800.0,OVC,3400.0,,
KRDR,05-25-2004,15:00,METAR,,310,13.0,,,9999.0,Cloud Development Not Observable,8.0,6.0,29.87,1012.6,,,,0,0,0,,,,,,,,,8/8 Overcast,2100.0,,FEW,1800.0,BKN,2100.0,OVC,2700.0,,
KRDR,05-25-2004,14:00,METAR,,330,14.0,,,9999.0,Cloud Development Not Observable,8.0,6.0,29.84,1011.4,,,,0,0,0,,,,,,,,,8/8 Overcast,2700.0,,FEW,2000.0,BKN,2700.0,OVC,3500.0,,
KRDR,05-25-2004,13:00,METAR,,320,14.0,,,9999.0,Cloud Development Not Observable,7.0,6.0,29.82,1010.8,,,,0,0,0,,,,,,,,,8/8 Overcast,2000.0,,FEW,1700.0,BKN,2000.0,OVC,2700.0,,
KRDR,05-25-2004,12:35,SPECI,,320,14.0,,,9999.0,Cloud Development Not Observable,6.0,6.0,29.81,,,,,0,0,0,,,,,,,,,7/8 Mostly Cloudy,1800.0,,FEW,1400.0,BKN,1800.0,BKN,2700.0,,
KRDR,05-25-2004,12:00,METAR,,330,13.0,,,9999.0,Cloud Development Not Observable,6.0,6.0,29.81,1010.4,,,,0,0,0,,,,,,,IN,.4 IN,7/8 Mostly Cloudy,1500.0,,BKN,1500.0,BKN,2000.0,,,,
KRDR,05-25-2004,11:00,METAR,,330,16.0,23.0,,9999.0,Cloud Development Not Observable,6.0,6.0,29.78,1009.4,,,,0,0,0,,,,,,,,,8/8 Overcast,1300.0,,BKN,1300.0,OVC,2500.0,,,,
KRDR,05-25-2004,10:00,METAR,,320,9.0,,,8000.0,Mist/Cloud Development Not Observable,6.0,6.0,29.77,1009.0,,,,10,0,0,,,,,,,,,8/8 Overcast,1000.0,,OVC,1000.0,,,,,,
KRDR,05-25-2004,09:00,METAR,,320,9.0,,,8000.0,Mist/Cloud Development Not Observable,7.0,7.0,29.76,1008.7,,,,10,0,0,,,,,,TRACE,,,8/8 Overcast,2000.0,,SCT,600.0,OVC,2000.0,,,,
KRDR,05-25-2004,08:00,METAR,,320,8.0,,,9999.0,Mist/Cloud Development Not Observable,7.0,7.0,29.75,1008.3,,,,10,0,0,,,,,,,,,8/8 Overcast,2000.0,,SCT,600.0,OVC,2000.0,,,,
KRDR,05-25-2004,07:00,METAR,,330,9.0,,,8000.0,Drizzle/Mist/Cloud Development Not Observable,7.0,7.0,29.75,1008.3,,,,51,10,0,,,,,,,,,8/8 Overcast,1100.0,,SCT,200.0,OVC,1100.0,,,,
KRDR,05-25-2004,06:00,METAR,,320,5.0,,,6400.0,Drizzle/Mist/Cloud Development Not Observable,7.0,7.0,29.75,1008.6,,,,51,10,0,,,,,,,,,8/8 Overcast,1500.0,,SCT,200.0,OVC,1500.0,,,,
KRDR,05-25-2004,05:43,SPECI,,310,4.0,,,6400.0,Drizzle/Mist/Cloud Development Not Observable,7.0,7.0,29.75,,,,,51,10,0,,,,,,,,,8/8 Overcast,1000.0,,SCT,200.0,OVC,1000.0,,,,
KRDR,05-25-2004,05:00,METAR,,350,2.0,,,9999.0,Mist/Cloud Development Not Observable,7.0,7.0,29.76,1008.7,,,,10,0,0,,,,,,,,,8/8 Overcast,1500.0,,SCT,200.0,OVC,1500.0,,,,
KRDR,05-25-2004,04:29,SPECI,,50,2.0,,,8000.0,Mist/Cloud Development Not Observable,7.0,7.0,29.77,,,,,10,0,0,,,,,,,,,8/8 Overcast,1500.0,,SCT,400.0,OVC,1500.0,,,,
KRDR,05-25-2004,04:00,METAR,,100,1.0,,,8000.0,Rain/Mist/Cloud Development Not Observable,7.0,7.0,29.78,1009.4,,,,61,10,0,,,,,,,,,8/8 Overcast,1500.0,,SCT,600.0,OVC,1500.0,,,,
KRDR,05-25-2004,03:37,SPECI,,110,2.0,,,8000.0,Rain/Mist/Cloud Development Not Observable,7.0,7.0,29.79,,,,,61,10,0,,,,,,,,,8/8 Overcast,1300.0,,SCT,600.0,BKN,1300.0,OVC,2000.0,,
KRDR,05-25-2004,03:00,METAR,,140,5.0,,,8000.0,Rain/Mist/Cloud Development Not Observable,7.0,7.0,29.81,1010.4,,,,61,10,0,,,,,,.14 IN,,,8/8 Overcast,600.0,,BKN,600.0,BKN,1500.0,OVC,2000.0,,
KRDR,05-25-2004,02:00,METAR,,130,5.0,,,8000.0,Rain/Mist/Cloud Development Not Observable,8.0,8.0,29.79,1009.7,,,,61,10,0,,,,,,,,,8/8 Overcast,700.0,,BKN,700.0,OVC,1300.0,,,,
KRDR,05-25-2004,01:16,SPECI,,140,5.0,,,8000.0,Rain/Mist/Cloud Development Not Observable,8.0,8.0,29.80,,,,,61,10,0,,,,,,,,,8/8 Overcast,900.0,,BKN,900.0,OVC,1400.0,,,,
KRDR,05-25-2004,01:00,METAR,,130,7.0,,,8000.0,Rain/Mist/Cloud Development Not Observable,8.0,8.0,29.81,1010.4,,,,61,10,0,,,,,,,,,8/8 Overcast,1400.0,,SCT,700.0,OVC,1400.0,,,,
KRDR,05-25-2004,00:00,METAR,,130,5.0,,,8000.0,Rain/Mist/Cloud Development Not Observable,8.0,8.0,29.82,1010.7,,,,61,10,0,,,,,,,.21 IN,,8/8 Overcast,1400.0,,SCT,900.0,SCT,1400.0,OVC,2100.0,,
KRDR,05-24-2004,23:00,METAR,,130,10.0,,,9999.0,Rain/Mist/Cloud Development Not Observable,8.0,8.0,29.84,1011.4,,,,61,10,0,,,,,,,,,8/8 Overcast,1200.0,,FEW,900.0,SCT,1200.0,BKN,1900.0,OVC,3500.0
KRDR,05-24-2004,22:00,METAR,,160,7.0,,,9999.0,Rain/Mist/Cloud Development Not Observable,8.0,8.0,29.86,1012.1,,,,61,10,0,,,,,,,,,8/8 Overcast,2800.0,,FEW,1200.0,BKN,2800.0,OVC,4500.0,,
KRDR,05-24-2004,21:00,METAR,,120,7.0,,,8000.0,Rain/Mist/Cloud Development Not Observable,8.0,8.0,29.87,1012.4,,,,61,10,0,,,,,,.07 IN,,,8/8 Overcast,2200.0,,FEW,900.0,BKN,2200.0,OVC,4500.0,,
KRDR,05-24-2004,20:18,SPECI,,130,10.0,,,8000.0,Rain/Mist/Cloud Development Not Observable,8.0,7.0,29.88,,,,,61,10,0,,,,,,,,,8/8 Overcast,1700.0,,FEW,900.0,BKN,1700.0,OVC,4500.0,,
KRDR,05-24-2004,20:00,METAR,,130,7.0,,,9999.0,Rain/Mist/Cloud Development Not Observable,8.0,6.0,29.89,1012.9,,,,61,10,0,,,,,,,,,8/8 Overcast,2500.0,,FEW,2100.0,SCT,2500.0,OVC,3200.0,,
KRDR,05-24-2004,19:06,SPECI,,150,8.0,,,9999.0,Rain/Cloud Development Not Observable,8.0,5.0,29.90,,,,,61,0,0,,,,,,,,,8/8 Overcast,3500.0,,OVC,3600.0,,,,,,
KRDR,05-24-2004,19:00,METAR,,140,8.0,,,9999.0,Cloud Development Not Observable,8.0,5.0,29.89,1012.9,,,,0,0,0,,,,,,,,,8/8 Overcast,3500.0,,OVC,3600.0,,,,,,
KRDR,05-24-2004,18:00,METAR,,150,13.0,,,9999.0,Cloud Development Not Observable,9.0,5.0,29.91,1013.6,,,,0,0,0,,,,,,,.03 IN,,8/8 Overcast,4900.0,,FEW,4000.0,SCT,5000.0,OVC,6400.0,,
KRDR,05-24-2004,17:19,SPECI,,140,11.0,,,9999.0,Cloud Development Not Observable,9.0,5.0,29.93,,,,,0,0,0,,,,,,,,,8/8 Overcast,3400.0,,FEW,2500.0,SCT,3500.0,OVC,5900.0,,
KRDR,05-24-2004,17:00,METAR,,130,11.0,,,9999.0,Rain/Cloud Development Not Observable,8.0,5.0,29.94,1014.7,,,,61,0,0,,,,,,,,,8/8 Overcast,4400.0,,FEW,3500.0,SCT,4500.0,OVC,5900.0,,
KRDR,05-24-2004,16:00,METAR,,140,11.0,,,9999.0,Rain/Cloud Development Not Observable,8.0,6.0,29.95,1015.0,,,,61,0,0,,,,,,,,,8/8 Overcast,4400.0,,FEW,3500.0,SCT,4500.0,OVC,6400.0,,
KRDR,05-24-2004,15:00,METAR,,150,8.0,,,9999.0,Rain/Cloud Development Not Observable,8.0,6.0,29.94,1014.6,,,,61,0,0,,,,,,.01 IN,,,8/8 Overcast,3900.0,,FEW,3000.0,SCT,4000.0,OVC,6400.0,,
KRDR,05-24-2004,14:46,SPECI,,160,8.0,,,9999.0,Rain/Cloud Development Not Observable,8.0,5.0,29.95,,,,,61,0,0,,,,,,,,,8/8 Overcast,4400.0,,FEW,3500.0,SCT,4500.0,OVC,6900.0,,
KRDR,05-24-2004,14:00,METAR,,150,8.0,,,9999.0,Rain/Cloud Development Not Observable,9.0,5.0,29.95,1015.0,,,,61,0,0,,,,,,,,,8/8 Overcast,4400.0,,FEW,3500.0,SCT,4500.0,OVC,6900.0,,
KRDR,05-24-2004,13:29,SPECI,,150,7.0,,,9999.0,Rain/Cloud Development Not Observable,9.0,5.0,29.96,,,,,61,0,0,,,,,,,,,8/8 Overcast,6500.0,,SCT,5400.0,OVC,6400.0,,,,
KRDR,05-24-2004,12:00,METAR,,150,9.0,,,9999.0,Cloud Development Not Observable,9.0,4.0,29.95,1014.9,,,,0,0,0,,,,,,,,,8/8 Overcast,8000.0,,SCT,5900.0,BKN,7900.0,OVC,11000.0,,
KRDR,05-24-2004,11:00,METAR,,160,9.0,,,9999.0,Cloud Development Not Observable,9.0,4.0,29.95,1014.8,,,,0,0,0,,,,,,,,,7/8 Mostly Cloudy,8000.0,,BKN,7900.0,BKN,11000.0,,,,
KRDR,05-24-2004,10:00,METAR,,150,5.0,,,9999.0,Cloud Development Not Observable,9.0,7.0,29.93,1014.1,,,,0,0,0,,,,,,,,,7/8 Mostly Cloudy,7000.0,,BKN,6900.0,,,,,,
KRDR,05-24-2004,09:00,METAR,,160,6.0,,,9999.0,Cloud Development Not Observable,10.0,8.0,29.95,1014.8,,,,0,0,0,,,,,,,,,8/8 Overcast,6000.0,,OVC,5900.0,,,,,,
KRDR,05-24-2004,08:00,METAR,,180,4.0,,,9999.0,Cloud Development Not Observable,10.0,8.0,29.95,1014.8,,,,0,0,0,,,,,,,,,8/8 Overcast,6500.0,,OVC,6400.0,,,,,,
KRDR,05-24-2004,07:00,METAR,,160,4.0,,,9999.0,Cloud Development Not Observable,11.0,7.0,29.94,1014.4,,,,0,0,0,,,,,,,,,8/8 Overcast,6500.0,,OVC,6400.0,,,,,,
KRDR,05-24-2004,06:00,METAR,,130,4.0,,,9999.0,Cloud Development Not Observable,11.0,8.0,29.94,1014.4,,,,0,0,0,,,,,,,,,8/8 Overcast,6500.0,,OVC,6400.0,,,,,,
KRDR,05-24-2004,05:00,METAR,,140,4.0,,,9999.0,Cloud Development Not Observable,11.0,7.0,29.93,1014.0,,,,0,0,0,,,,,,,,,8/8 Overcast,6500.0,,OVC,6400.0,,,,,,
KRDR,05-24-2004,04:00,METAR,,140,3.0,,,9999.0,Cloud Development Not Observable,12.0,7.0,29.92,1013.9,,,,0,0,0,,,,,,,,,8/8 Overcast,6000.0,,OVC,5900.0,,,,,,
KRDR,05-24-2004,03:00,METAR,,160,4.0,,,9999.0,Cloud Development Not Observable,12.0,7.0,29.92,1013.9,,,,0,0,0,,,,,,,,,8/8 Overcast,6000.0,,OVC,5900.0,,,,,,
KRDR,05-24-2004,02:00,METAR,,210,3.0,,,9999.0,Cloud Development Not Observable,12.0,8.0,29.90,1013.3,,,,0,0,0,,,,,,,,,8/8 Overcast,6000.0,,OVC,5900.0,,,,,,
KRDR,05-24-2004,01:00,METAR,,150,6.0,,,9999.0,Cloud Development Not Observable,13.0,6.0,29.89,1013.0,,,,0,0,0,,,,,,,,,8/8 Overcast,6000.0,,OVC,5900.0,,,,,,
KRDR,05-24-2004,00:00,METAR,,170,7.0,,,9999.0,Cloud Development Not Observable,14.0,6.0,29.89,1012.8,,,,0,0,0,,,,,,,,,8/8 Overcast,7000.0,,FEW,2500.0,OVC,6900.0,,,,
KRDR,05-23-2004,23:00,METAR,,80,13.0,,,9999.0,Cloud Development Not Observable,15.0,4.0,29.87,1012.3,,,,0,0,0,,,,,,,,,8/8 Overcast,5500.0,,OVC,5400.0,,,,,,
KRDR,05-23-2004,22:00,METAR,,100,10.0,,,9999.0,Cloud Development Not Observable,15.0,4.0,29.87,1012.3,,,,0,0,0,,,,,,,,,8/8 Overcast,5500.0,,OVC,5400.0,,,,,,
KRDR,05-23-2004,21:00,METAR,,290,14.0,20.0,,9999.0,Cloud Development Not Observable,16.0,4.0,29.86,1011.9,,,,0,0,0,,,,,,,,,8/8 Overcast,5500.0,,OVC,5400.0,,,,,,
KRDR,05-23-2004,20:00,METAR,,100,18.0,24.0,,9999.0,Cloud Development Not Observable,16.0,4.0,29.85,1011.7,,,,0,0,0,,,,,,,,,8/8 Overcast,5500.0,,BKN,5400.0,OVC,12000.0,,,,
KRDR,05-23-2004,19:00,METAR,,80,15.0,25.0,,9999.0,Cloud Development Not Observable,16.0,4.0,29.85,1011.5,,,,0,0,0,,,,,,,,,8/8 Overcast,4900.0,,BKN,5000.0,OVC,12000.0,,,,
KRDR,05-23-2004,18:00,METAR,,80,17.0,23.0,,9999.0,Cloud Development Not Observable,16.0,4.0,29.86,1011.8,,,,0,0,0,,,,,,,,,8/8 Overcast,4900.0,,BKN,5000.0,BKN,8900.0,OVC,25000.0,,
KRDR,05-23-2004,17:00,METAR,,80,19.0,29.0,,9999.0,Cloud Development Not Observable,17.0,4.0,29.86,1011.8,,,,0,0,0,,,,,,,,,7/8 Mostly Cloudy,9000.0,,FEW,5000.0,BKN,8900.0,BKN,25000.0,,
KRDR,05-23-2004,16:00,METAR,,80,18.0,26.0,,9999.0,Cloud Development Not Observable,15.0,3.0,29.86,1011.8,,,,0,0,0,,,,,,,,,7/8 Mostly Cloudy,15000.0,,FEW,8400.0,SCT,15000.0,BKN,25000.0,,
KRDR,05-23-2004,15:00,METAR,,60,19.0,26.0,,9999.0,Cloud Development Not Observable,14.0,3.0,29.87,1012.3,,,,0,0,0,,,,,,,,,7/8 Mostly Cloudy,25000.0,,FEW,15000.0,BKN,25000.0,,,,
KRDR,05-23-2004,14:00,METAR,,50,14.0,23.0,,9999.0,Cloud Development Not Observable,12.0,4.0,29.88,1012.5,,,,0,0,0,,,,,,,,,7/8 Mostly Cloudy,25000.0,,FEW,8400.0,FEW,15000.0,BKN,25000.0,,
KRDR,05-23-2004,13:00,METAR,,60,12.0,,,9999.0,Cloud Development Not Observable,10.0,5.0,29.90,1013.0,,,,0,0,0,,,,,,,,,7/8 Mostly Cloudy,15000.0,,FEW,8400.0,SCT,15000.0,BKN,25000.0,,
KRDR,05-23-2004,12:00,METAR,,60,12.0,,,9999.0,Cloud Development Not Observable,8.0,5.0,29.89,1012.9,,,,0,0,0,,,,,,,,.01 IN,7/8 Mostly Cloudy,15000.0,,FEW,8400.0,BKN,15000.0,,,,
KRDR,05-23-2004,11:00,METAR,,40,9.0,,,9999.0,Cloud Development Not Observable,7.0,5.0,29.89,1012.7,,,,0,0,0,,,,,,,,,7/8 Mostly Cloudy,15000.0,,FEW,8400.0,BKN,15000.0,,,,
KRDR,05-23-2004,10:00,METAR,,40,9.0,,,9999.0,Cloud Development Not Observable,8.0,5.0,29.89,1012.7,,,,0,0,0,,,,,,,,,2/8 Mostly Clear,72000.0,,FEW,8400.0,,,,,,
KRDR,05-23-2004,09:00,METAR,,50,7.0,,,9999.0,Cloud Development Not Observable,8.0,5.0,29.90,1013.0,,,,0,0,0,,,,,,,,,4/8 Partly Cloudy,72000.0,,SCT,5900.0,,,,,,
KRDR,05-23-2004,08:00,METAR,,50,8.0,,,9999.0,Cloud Development Not Observable,8.0,5.0,29.91,1013.4,,,,0,0,0,,,,,,,,,4/8 Partly Cloudy,72000.0,,SCT,5900.0,,,,,,
KRDR,05-23-2004,07:00,METAR,,40,7.0,,,9999.0,Cloud Development Not Observable,9.0,5.0,29.91,1013.4,,,,0,0,0,,,,,,,,,2/8 Mostly Clear,72000.0,,FEW,5900.0,,,,,,
KRDR,05-23-2004,06:00,METAR,,60,6.0,,,9999.0,Cloud Development Not Observable,10.0,4.0,29.89,1012.7,,,,0,0,0,,,,,,,,,4/8 Partly Cloudy,72000.0,,SCT,5900.0,,,,,,
KRDR,05-23-2004,05:00,METAR,,50,7.0,,,9999.0,Cloud Development Not Observable,10.0,5.0,29.89,1012.9,,,,0,0,0,,,,,,,,,2/8 Mostly Clear,72000.0,,FEW,12000.0,,,,,,
KRDR,05-23-2004,04:00,METAR,,100,11.0,,,9999.0,Cloud Development Not Observable,12.0,5.0,29.89,1012.9,,,,0,0,0,,,,,,,,,2/8 Mostly Clear,72000.0,,FEW,12000.0,,,,,,
KRDR,05-23-2004,03:00,METAR,,100,9.0,,,9999.0,Cloud Development Not Observable,13.0,5.0,29.88,1012.6,,,,0,0,0,,,,,,,,,2/8 Mostly Clear,72000.0,,FEW,6400.0,FEW,12000.0,,,,
KRDR,05-23-2004,02:00,METAR,,90,6.0,,,9999.0,Cloud Development Not Observable,15.0,6.0,29.88,1012.6,,,,0,0,0,,,,,,,,,7/8 Mostly Cloudy,12000.0,,FEW,6400.0,BKN,12000.0,,,,
KRDR,05-23-2004,01:00,METAR,,50,6.0,,,9999.0,Cloud Development Not Observable,17.0,5.0,29.87,1012.4,,,,0,0,0,,,,,,,,,7/8 Mostly Cloudy,12000.0,,SCT,6400.0,BKN,12000.0,,,,
KRDR,05-23-2004,00:00,METAR,,50,11.0,,,9999.0,Cloud Development Not Observable,18.0,4.0,29.86,1011.8,,,,0,0,0,,,,,,,,,7/8 Mostly Cloudy,7000.0,,BKN,6900.0,BKN,12000.0,,,,
KRDR,05-22-2004,23:00,METAR,,20,11.0,,,9999.0,Cloud Development Not Observable,19.0,4.0,29.86,1011.8,,,,0,0,0,,,,,,,,,7/8 Mostly Cloudy,6000.0,,BKN,5900.0,BKN,12000.0,,,,
KRDR,05-22-2004,22:00,METAR,,50,7.0,,,9999.0,Cloud Development Not Observable,18.0,4.0,29.85,1011.6,,,,0,0,0,,,,,,,,,8/8 Overcast,6000.0,,BKN,5900.0,OVC,12000.0,,,,
KRDR,05-22-2004,21:00,METAR,,50,9.0,,,9999.0,Cloud Development Not Observable,19.0,5.0,29.85,1011.4,,,,0,0,0,,,,,,,,,7/8 Mostly Cloudy,6000.0,,BKN,5900.0,BKN,12000.0,,,,
KRDR,05-22-2004,20:00,METAR,,60,10.0,,,9999.0,Cloud Development Not Observable,17.0,5.0,29.85,1011.5,,,,0,0,0,,,,,,,,,8/8 Overcast,7000.0,,SCT,4000.0,BKN,6900.0,OVC,12000.0,,
KRDR,05-22-2004,19:00,METAR,,30,8.0,,,9999.0,Cloud Development Not Observable,16.0,5.0,29.85,1011.7,,,,0,0,0,,,,,,,,,8/8 Overcast,7000.0,,SCT,3500.0,BKN,6900.0,OVC,12000.0,,
KRDR,05-22-2004,18:00,METAR,,50,13.0,,,9999.0,Cloud Development Not Observable,16.0,5.0,29.86,1011.8,,,,0,0,0,,,,,,,.01 IN,,8/8 Overcast,3400.0,,BKN,3500.0,OVC,12000.0,,,,
KRDR,05-22-2004,17:00,METAR,,40,10.0,,,9999.0,Cloud Development Not Observable,14.0,4.0,29.87,1012.2,,,,0,0,0,,,,,,,,,8/8 Overcast,3400.0,,BKN,3500.0,OVC,12000.0,,,,
KRDR,05-22-2004,16:00,METAR,,60,9.0,,,9999.0,Cloud Development Not Observable,12.0,5.0,29.87,1012.2,,,,0,0,0,,,,,,,,,8/8 Overcast,3000.0,,FEW,2000.0,BKN,3000.0,OVC,12000.0,,
KRDR,05-22-2004,15:00,METAR,,50,11.0,,,9999.0,Cloud Development Not Observable,11.0,5.0,29.86,1011.8,,,,0,0,0,,,,,,.01 IN,,,8/8 Overcast,3000.0,,BKN,3000.0,OVC,12000.0,,,,
KRDR,05-22-2004,14:00,METAR,,30,8.0,,,9999.0,Cloud Development Not Observable,10.0,7.0,29.86,1011.9,,,,0,0,0,,,,,,,,,8/8 Overcast,3000.0,,BKN,3000.0,OVC,12000.0,,,,
KRDR,05-22-2004,13:00,METAR,,10,7.0,,,9999.0,Rain/Cloud Development Not Observable,8.0,8.0,29.87,1012.2,,,,61,0,0,,,,,,,,,8/8 Overcast,3000.0,,OVC,3000.0,,,,,,
KRDR,05-22-2004,12:16,SPECI,,70,5.0,,,9999.0,Rain/Cloud Development Not Observable,8.0,7.0,29.86,,,,,61,0,0,,,,,,,,,8/8 Overcast,3000.0,,OVC,3000.0,,,,,,
KRDR,05-22-2004,12:08,SPECI,,70,6.0,,,9999.0,Cloud Development Not Observable,8.0,7.0,29.86,,,,,0,0,0,,,,,,,,,8/8 Overcast,3100.0,,OVC,3200.0,,,,,,
KRDR,05-22-2004,12:00,METAR,,60,5.0,,,9999.0,Cloud Development Not Observable,8.0,7.0,29.86,1012.0,,,,0,0,0,,,,,,,.02 IN,.02 IN,8/8 Overcast,2800.0,,OVC,2800.0,,,,,,
KRDR,05-22-2004,11:42,SPECI,,60,5.0,,,9999.0,Cloud Development Not Observable,8.0,7.0,29.87,,,,,0,0,0,,,,,,,,,8/8 Overcast,2700.0,,OVC,2700.0,,,,,,
KRDR,05-22-2004,11:07,SPECI,,350,6.0,,,8000.0,Rain/Mist/Cloud Development Not Observable,7.0,7.0,29.86,,,,,61,10,0,,,,,,,,,8/8 Overcast,2800.0,,OVC,2800.0,,,,,,
KRDR,05-22-2004,11:00,METAR,,50,3.0,,,9999.0,Rain/Cloud Development Not Observable,9.0,4.0,29.85,1011.7,,,,61,0,0,,,,,,,,,8/8 Overcast,2100.0,,OVC,2100.0,,,,,,
KRDR,05-22-2004,10:00,METAR,,,4.0,,,9999.0,Cloud Development Not Observable,9.0,4.0,29.81,1010.3,,,,0,0,0,,,,,,,,,8/8 Overcast,2500.0,,OVC,2500.0,,,,,,
KRDR,05-22-2004,09:26,SPECI,,70,6.0,,,9999.0,Cloud Development Not Observable,9.0,4.0,29.81,,,,,0,0,0,,,,,,,,,8/8 Overcast,2500.0,,BKN,2500.0,OVC,3300.0,,,,
KRDR,05-22-2004,09:00,METAR,,70,6.0,,,9999.0,Cloud Development Not Observable,9.0,4.0,29.80,1009.9,,,,0,0,0,,,,,,,,,8/8 Overcast,7500.0,,OVC,7400.0,,,,,,
KRDR,05-22-2004,08:00,METAR,,90,6.0,,,9999.0,Cloud Development Not Observable,9.0,3.0,29.81,1010.3,,,,0,0,0,,,,,,,,,7/8 Mostly Cloudy,6000.0,,BKN,5900.0,,,,,,
KRDR,05-22-2004,07:00,METAR,,120,7.0,,,9999.0,Cloud Development Not Observable,9.0,3.0,29.83,1011.0,,,,0,0,0,,,,,,,,,7/8 Mostly Cloudy,4900.0,,BKN,5000.0,,,,,,
KRDR,05-22-2004,06:00,METAR,,110,8.0,,,9999.0,Cloud Development Not Observable,10.0,3.0,29.84,1011.3,,,,0,0,0,,,,,,,,,2/8 Mostly Clear,72000.0,,FEW,4500.0,,,,,,
KRDR,05-22-2004,05:00,METAR,,100,7.0,,,9999.0,Cloud Development Not Observable,11.0,4.0,29.83,1011.0,,,,0,0,0,,,,,,,,,2/8 Mostly Clear,72000.0,,FEW,4500.0,,,,,,
KRDR,05-22-2004,04:00,METAR,,100,9.0,,,9999.0,Cloud Development Not Observable,12.0,5.0,29.84,1011.4,,,,0,0,0,,,,,,,,,7/8 Mostly Cloudy,4400.0,,BKN,4500.0,,,,,,
KRDR,05-22-2004,03:00,METAR,,100,10.0,,,9999.0,Cloud Development Not Observable,15.0,5.0,29.83,1011.0,,,,0,0,0,,,,,,,,,8/8 Overcast,3900.0,,BKN,4000.0,OVC,8900.0,,,,
KRDR,05-22-2004,02:00,METAR,,70,10.0,,,9999.0,Cloud Development Not Observable,15.0,5.0,29.82,1010.6,,,,0,0,0,,,,,,,,,8/8 Overcast,5500.0,,BKN,5400.0,OVC,8900.0,,,,
KRDR,05-22-2004,01:00,METAR,,80,13.0,,,9999.0,Cloud Development Not Observable,16.0,5.0,29.81,1010.1,,,,0,0,0,,,,,,,,,7/8 Mostly Cloudy,7500.0,,BKN,7400.0,BKN,25000.0,,,,
KRDR,05-22-2004,00:00,METAR,,70,11.0,,,9999.0,Cloud Development Not Observable,16.0,5.0,29.82,1010.6,,,,0,0,0,,,,,,,IN,,7/8 Mostly Cloudy,9000.0,,BKN,8900.0,BKN,11000.0,BKN,25000.0,,
KRDR,05-21-2004,23:00,METAR,,50,11.0,,,9999.0,Cloud Development Not Observable,16.0,6.0,29.84,1011.2,,,,0,0,0,,,,,,,,,7/8 Mostly Cloudy,9000.0,,FEW,5900.0,BKN,8900.0,,,,
KRDR,05-21-2004,22:00,METAR,,50,9.0,,,9999.0,Cloud Development Not Observable,16.0,7.0,29.86,1011.9,,,,0,0,0,,,,,,,,,7/8 Mostly Cloudy,9000.0,,BKN,8900.0,,,,,,
KRDR,05-21-2004,21:21,SPECI,,60,9.0,,,9999.0,Cloud Development Not Observable,15.0,6.0,29.88,,,,,0,0,0,,,,,,,,,7/8 Mostly Cloudy,9000.0,,BKN,8900.0,,,,,,
KRDR,05-21-2004,21:00,METAR,,80,12.0,,,9999.0,Rain/Cloud Development Not Observable,16.0,4.0,29.88,1012.6,,,,61,0,0,,,,,,TRACE,,,8/8 Overcast,9000.0,,OVC,8900.0,,,,,,
KRDR,05-21-2004,20:50,METAR,,80,13.0,,,9999.0,Rain/Cloud Development Not Observable,16.0,6.0,29.88,,,,,61,0,0,,,,,,,,,,72000.0,,,,,,,,,
KRDR,05-21-2004,20:00,METAR,,70,8.0,,,9999.0,Cloud Development Not Observable,16.0,4.0,29.90,1013.1,,,,0,0,0,,,,,,,,,8/8 Overcast,9000.0,,OVC,8900.0,,,,,,
KRDR,05-21-2004,19:00,METAR,,70,8.0,,,9999.0,Cloud Development Not Observable,15.0,5.0,29.93,1015.3,,,,0,0,0,,,,,,,,,8/8 Overcast,11000.0,,OVC,11000.0,,,,,,
KRDR,05-21-2004,18:00,METAR,,90,7.0,,,9999.0,Cloud Development Not Observable,14.0,4.0,29.96,1015.3,,,,0,0,0,,,,,,,IN,,8/8 Overcast,11000.0,,SCT,6900.0,BKN,11000.0,OVC,25000.0,,
KRDR,05-21-2004,17:00,METAR,,100,9.0,,,9999.0,Cloud Development Not Observable,13.0,4.0,29.98,1016.0,,,,0,0,0,,,,,,,,,8/8 Overcast,11000.0,,FEW,5900.0,BKN,11000.0,OVC,25000.0,,
KRDR,05-21-2004,16:00,METAR,,90,9.0,,,9999.0,Cloud Development Not Observable,11.0,5.0,30.00,1016.7,,,,0,0,0,,,,,,,,,8/8 Overcast,11000.0,,FEW,5900.0,BKN,11000.0,OVC,25000.0,,
KRDR,05-21-2004,15:10,SPECI,,80,9.0,,,9999.0,Cloud Development Not Observable,10.0,4.0,30.02,,,,,0,0,0,,,,,,,,,8/8 Overcast,11000.0,,SCT,5900.0,OVC,11000.0,,,,
KRDR,05-21-2004,15:00,METAR,,100,8.0,,,9999.0,Rain/Cloud Development Not Observable,10.0,4.0,30.04,1018.1,,,,61,0,0,,,,,,TRACE,,,8/8 Overcast,6000.0,,BKN,5900.0,OVC,12000.0,,,,
KRDR,05-21-2004,14:18,SPECI,,90,6.0,,,9999.0,Rain/Cloud Development Not Observable,9.0,3.0,30.06,,,,,61,0,0,,,,,,,,,8/8 Overcast,6000.0,,BKN,5900.0,OVC,12000.0,,,,
KRDR,05-21-2004,14:00,METAR,,90,5.0,,,9999.0,Cloud Development Not Observable,9.0,2.0,30.07,1019.2,,,,0,0,0,,,,,,,,,8/8 Overcast,12000.0,,FEW,5900.0,OVC,12000.0,,,,
KRDR,05-21-2004,13:00,METAR,,80,8.0,,,9999.0,Cloud Development Not Observable,8.0,1.0,30.09,1019.9,,,,0,0,0,,,,,,,,,8/8 Overcast,12000.0,,FEW,5900.0,OVC,12000.0,,,,
KRDR,05-21-2004,11:00,METAR,,60,6.0,,,9999.0,Cloud Development Not Observable,7.0,0.0,30.14,1021.6,,,,0,0,0,,,,,,,,,8/8 Overcast,12000.0,,SCT,6400.0,BKN,12000.0,OVC,18000.0,,
KRDR,05-21-2004,10:00,METAR,,80,4.0,,,9999.0,Cloud Development Not Observable,7.0,1.0,30.13,1021.2,,,,0,0,0,,,,,,,,,7/8 Mostly Cloudy,18000.0,,SCT,12000.0,BKN,18000.0,,,,
KRDR,05-21-2004,09:00,METAR,,50,5.0,,,9999.0,Cloud Development Not Observable,7.0,2.0,30.14,1021.6,,,,0,0,0,,,,,,,,,7/8 Mostly Cloudy,18000.0,,SCT,12000.0,BKN,18000.0,,,,
KRDR,05-21-2004,08:00,METAR,,70,6.0,,,9999.0,Cloud Development Not Observable,8.0,2.0,30.15,1021.9,,,,0,0,0,,,,,,,,,7/8 Mostly Cloudy,18000.0,,SCT,12000.0,BKN,18000.0,,,,
KRDR,05-21-2004,07:00,METAR,,60,6.0,,,9999.0,Cloud Development Not Observable,8.0,2.0,30.17,1022.6,,,,0,0,0,,,,,,,,,7/8 Mostly Cloudy,20000.0,,SCT,15000.0,BKN,20000.0,,,,
KRDR,05-21-2004,06:00,METAR,,50,7.0,,,9999.0,Cloud Development Not Observable,9.0,1.0,30.18,1023.0,,,,0,0,0,,,,,,,,,7/8 Mostly Cloudy,20000.0,,SCT,15000.0,BKN,20000.0,,,,
KRDR,05-21-2004,05:00,METAR,,50,6.0,,,9999.0,Cloud Development Not Observable,9.0,0.0,30.19,1023.4,,,,0,0,0,,,,,,,,,7/8 Mostly Cloudy,20000.0,,SCT,15000.0,BKN,20000.0,,,,
KRDR,05-21-2004,04:00,METAR,,60,7.0,,,9999.0,Cloud Development Not Observable,10.0,0.0,30.21,1024.1,,,,0,0,0,,,,,,,,,7/8 Mostly Cloudy,20000.0,,BKN,20000.0,,,,,,
KRDR,05-21-2004,03:00,METAR,,40,7.0,,,9999.0,Cloud Development Not Observable,10.0,2.0,30.20,1023.8,,,,0,0,0,,,,,,,,,7/8 Mostly Cloudy,20000.0,,BKN,20000.0,,,,,,
KRDR,05-21-2004,02:00,METAR,,30,7.0,,,9999.0,Cloud Development Not Observable,11.0,1.0,30.20,1023.8,,,,0,0,0,,,,,,,,,7/8 Mostly Cloudy,20000.0,,BKN,20000.0,,,,,,
KRDR,05-21-2004,01:00,METAR,,40,8.0,,,9999.0,Cloud Development Not Observable,13.0,0.0,30.21,1023.9,,,,0,0,0,,,,,,,,,7/8 Mostly Cloudy,20000.0,,BKN,20000.0,,,,,,
KRDR,05-21-2004,00:00,METAR,,20,10.0,,,9999.0,Cloud Development Not Observable,14.0,2.0,30.21,1023.9,,,,0,0,0,,,,,,,,,7/8 Mostly Cloudy,25000.0,,BKN,25000.0,,,,,,
KRDR,05-20-2004,23:00,METAR,,20,11.0,,,9999.0,Cloud Development Not Observable,14.0,2.0,30.21,1023.5,,,,0,0,0,,,,,,,,,7/8 Mostly Cloudy,25000.0,,BKN,25000.0,,,,,,
KRDR,05-20-2004,22:00,METAR,,20,14.0,18.0,,9999.0,Cloud Development Not Observable,15.0,2.0,30.22,1024.1,,,,0,0,0,,,,,,,,,7/8 Mostly Cloudy,25000.0,,BKN,25000.0,,,,,,
KRDR,05-20-2004,21:00,METAR,,10,14.0,18.0,,9999.0,Cloud Development Not Observable,15.0,0.0,30.23,1024.5,,,,0,0,0,,,,,,,,,4/8 Partly Cloudy,72000.0,,SCT,25000.0,,,,,,
KRDR,05-20-2004,20:00,METAR,,10,13.0,21.0,,9999.0,Cloud Development Not Observable,14.0,2.0,30.22,1024.1,,,,0,0,0,,,,,,,,,2/8 Mostly Clear,72000.0,,FEW,25000.0,,,,,,
KRDR,05-20-2004,19:00,METAR,,350,16.0,21.0,,9999.0,Cloud Development Not Observable,14.0,0.0,30.22,1024.1,,,,0,0,0,,,,,,,,,2/8 Mostly Clear,72000.0,,FEW,25000.0,,,,,,
KRDR,05-20-2004,18:00,METAR,,20,14.0,21.0,,9999.0,Cloud Development Not Observable,13.0,0.0,30.22,1024.1,,,,0,0,0,,,,,,,,,2/8 Mostly Clear,72000.0,,FEW,25000.0,,,,,,
KRDR,05-20-2004,17:00,METAR,,10,13.0,19.0,,9999.0,Cloud Development Not Observable,12.0,1.0,30.21,1023.8,,,,0,0,0,,,,,,,,,2/8 Mostly Clear,72000.0,,FEW,25000.0,,,,,,
KRDR,05-20-2004,16:00,METAR,,360,17.0,23.0,,9999.0,Cloud Development Not Observable,11.0,2.0,30.20,1023.4,,,,0,0,0,,,,,,,,,Clear,72000.0,,,73000.0,,,,,,
KRDR,05-20-2004,15:00,METAR,,360,14.0,,,9999.0,Cloud Development Not Observable,9.0,1.0,30.18,1020.8,,,,0,0,0,,,,,,,,,Clear,72000.0,,,73000.0,,,,,,
KRDR,05-20-2004,14:00,METAR,,10,16.0,24.0,360/25KTS,9999.0,Cloud Development Not Observable,8.0,1.0,30.16,1020.8,,,,0,0,0,,,,,,,,,Clear,72000.0,,,73000.0,,,,,,
KRDR,05-20-2004,13:00,METAR,,360,17.0,,360/26KTS,9999.0,Cloud Development Not Observable,7.0,2.0,30.13,1020.8,,,,0,0,0,,,,,,,,,Clear,72000.0,,,73000.0,,,,,,
KRDR,05-20-2004,12:00,METAR,,350,15.0,,350/25KTS,9999.0,Cloud Development Not Observable,6.0,3.0,30.09,1019.6,,,,0,0,0,,,,,,,,.19 IN,2/8 Mostly Clear,72000.0,,FEW,11000.0,,,,,,
KRDR,05-20-2004,11:00,METAR,,340,19.0,,340/26KTS,9999.0,Cloud Development Not Observable,7.0,4.0,30.05,1018.2,,,,0,0,0,,,,,,,,,4/8 Partly Cloudy,72000.0,,FEW,2500.0,SCT,11000.0,,,,
KRDR,05-20-2004,10:33,SPECI,,350,18.0,24.0,,9999.0,Cloud Development Not Observable,7.0,5.0,30.04,,,,,0,0,0,,,,,,,,,4/8 Partly Cloudy,72000.0,,SCT,2500.0,,,,,,
KRDR,05-20-2004,10:00,METAR,,350,18.0,,350/27KTS,9999.0,Cloud Development Not Observable,9.0,7.0,30.02,1017.1,,,,0,0,0,,,,,,,,,7/8 Mostly Cloudy,1600.0,,BKN,1600.0,BKN,2700.0,,,,
KRDR,05-20-2004,09:00,METAR,,350,20.0,26.0,,9999.0,Cloud Development Not Observable,10.0,8.0,29.98,1015.7,,,,0,0,0,,,,,,,,,8/8 Overcast,1600.0,,SCT,1000.0,OVC,1600.0,,,,
KRDR,05-20-2004,08:00,METAR,,340,16.0,23.0,,9999.0,Cloud Development Not Observable,11.0,10.0,29.93,1014.0,,,,0,0,0,,,,,,,,,7/8 Mostly Cloudy,1900.0,,SCT,1300.0,BKN,1900.0,,,,
KRDR,05-20-2004,07:33,SPECI,,350,16.0,,,9999.0,Cloud Development Not Observable,12.0,11.0,29.92,,,,,0,0,0,,,,,,,,,7/8 Mostly Cloudy,2200.0,,SCT,1800.0,BKN,2200.0,,,,
KRDR,05-20-2004,07:00,METAR,,360,18.0,24.0,,9999.0,Cloud Development Not Observable,12.0,12.0,29.87,1012.3,,,,0,0,0,,,,,,,,,8/8 Overcast,1900.0,,SCT,1500.0,OVC,1900.0,,,,
KRDR,05-20-2004,06:00,METAR,,350,13.0,,,9999.0,Cloud Development Not Observable,12.0,12.0,29.83,1010.8,,,,0,0,0,,,,,,,.12 IN,,8/8 Overcast,1800.0,,SCT,1500.0,OVC,1800.0,,,,
KRDR,05-20-2004,05:44,SPECI,,350,16.0,,,9999.0,Cloud Development Not Observable,12.0,12.0,29.82,,,,,0,0,0,,,,,,,,,8/8 Overcast,1800.0,,SCT,1400.0,OVC,1800.0,,,,
KRDR,05-20-2004,05:00,METAR,,350,16.0,26.0,,9999.0,Cloud Development Not Observable,13.0,12.0,29.79,1009.5,,,,0,0,0,,,,,,,,,4/8 Partly Cloudy,72000.0,,SCT,2200.0,,,,,,
KRDR,05-20-2004,04:00,METAR,,340,16.0,,,9999.0,Cloud Development Not Observable,14.0,14.0,29.76,1008.4,,,,0,0,0,,,,,,,,,4/8 Partly Cloudy,72000.0,,SCT,1500.0,,,,,,
KRDR,05-20-2004,03:00,METAR,,320,5.0,,,9999.0,Cloud Development Not Observable,13.0,13.0,29.70,1006.4,,,,0,0,0,,,,,,.12 IN,,,4/8 Partly Cloudy,72000.0,,FEW,5000.0,SCT,11000.0,,,,
KRDR,05-20-2004,02:20,METAR,,360,5.0,,,9999.0,Cloud Development Not Observable,14.0,14.0,29.68,,,,,0,0,0,,,,,,,,,7/8 Mostly Cloudy,8000.0,,FEW,4500.0,SCT,7900.0,BKN,9900.0,,
KRDR,05-20-2004,02:10,SPECI,,340,5.0,,,9999.0,Thunderstorm/Cloud Development Not Observable,14.0,14.0,29.68,,,,,17,0,0,,,,,,,,,7/8 Mostly Cloudy,8000.0,,FEW,4500.0,SCT,7900.0,BKN,12000.0,,
KRDR,05-20-2004,02:00,METAR,,310,10.0,,,9999.0,Thunderstorm with Rain or Snow/Light Rain Showers/Cloud Development Not Observable,22.0,17.0,29.68,1005.4,,,,95,80,0,,,,,,,,,7/8 Mostly Cloudy,4400.0,,FEW,1500.0,SCT,4500.0,BKN,8900.0,,
KRDR,05-20-2004,01:47,SPECI,,310,8.0,,,9999.0,Thunderstorm with Rain or Snow/Light Rain Showers/Cloud Development Not Observable,22.0,17.0,29.68,,,,,95,80,0,,,,,,,,,7/8 Mostly Cloudy,4400.0,,FEW,1500.0,BKN,4500.0,BKN,15000.0,,
KRDR,05-20-2004,01:42,SPECI,,320,11.0,,,4800.0,Thunderstorm and Hail/Snow Pellets or Hail/Rain Showers,22.0,17.0,29.68,,,,,96,81,88,,,,,,,,,7/8 Mostly Cloudy,4400.0,,FEW,1500.0,BKN,4500.0,BKN,15000.0,,
KRDR,05-20-2004,01:38,SPECI,,330,12.0,,,8000.0,Thunderstorm with Rain or Snow/Light Rain Showers/Cloud Development Not Observable,22.0,17.0,29.65,,,,,95,80,0,,,,,,,,,7/8 Mostly Cloudy,4400.0,,FEW,3500.0,BKN,4500.0,BKN,15000.0,,
KRDR,05-20-2004,01:31,SPECI,,340,10.0,,,9999.0,Thunderstorm/Cloud Development Not Observable,22.0,17.0,29.64,,,,,17,0,0,,,,,,,,,7/8 Mostly Cloudy,4400.0,,FEW,3500.0,BKN,4500.0,BKN,15000.0,,
KRDR,05-20-2004,01:00,METAR,,,3.0,,,9999.0,Cloud Development Not Observable,22.0,17.0,29.61,1003.0,,,,0,0,0,,,,,,,,,7/8 Mostly Cloudy,6000.0,,FEW,3000.0,SCT,5900.0,BKN,15000.0,,
KRDR,05-20-2004,00:00,METAR,,190,10.0,,,9999.0,Cloud Development Not Observable,22.0,17.0,29.62,1004.9,,,,0,0,0,,,,,,,,,7/8 Mostly Cloudy,10000.0,,SCT,5900.0,BKN,9900.0,BKN,25000.0,,
KRDR,05-19-2004,23:00,METAR,,170,9.0,,,9999.0,Cloud Development Not Observable,21.0,19.0,29.63,1004.9,,,,0,0,0,,,,,,,,,7/8 Mostly Cloudy,10000.0,,SCT,2500.0,BKN,9900.0,BKN,25000.0,,
KRDR,05-19-2004,22:49,SPECI,,190,11.0,,,9999.0,Cloud Development Not Observable,21.0,17.0,29.62,,,,,0,0,0,,,,,,,,,7/8 Mostly Cloudy,10000.0,,SCT,2500.0,BKN,9900.0,BKN,25000.0,,
KRDR,05-19-2004,22:00,METAR,,180,15.0,,,9999.0,Cloud Development Not Observable,21.0,17.0,29.66,1004.9,,,,0,0,0,,,,,,,,,7/8 Mostly Cloudy,4900.0,,FEW,5000.0,SCT,9900.0,BKN,9900.0,BKN,25000.0
KRDR,05-19-2004,21:00,METAR,,180,17.0,,,9999.0,Cloud Development Not Observable,21.0,16.0,29.68,1005.5,,,,0,0,0,,,,,,TRACE,,,7/8 Mostly Cloudy,4900.0,,FEW,2600.0,SCT,5000.0,BKN,9900.0,,
KRDR,05-19-2004,20:00,METAR,,200,10.0,,,9999.0,Cloud Development Not Observable,17.0,15.0,29.71,1006.4,,,,0,0,0,,,,,,,,,7/8 Mostly Cloudy,4900.0,,SCT,2600.0,BKN,5000.0,,,,
KRDR,05-19-2004,19:26,SPECI,,180,15.0,,,9999.0,Cloud Development Not Observable,16.0,14.0,29.71,,,,,0,0,0,,,,,,,,,8/8 Overcast,3500.0,,BKN,3600.0,OVC,5000.0,,,,
KRDR,05-19-2004,19:00,METAR,,180,13.0,,,9999.0,Rain/Cloud Development Not Observable,17.0,12.0,29.73,1007.1,,,,61,0,0,,,,,,,,,8/8 Overcast,3500.0,,OVC,3600.0,,,,,,
KRDR,05-19-2004,18:00,METAR,,180,14.0,,,9999.0,Cloud Development Not Observable,18.0,11.0,29.74,1007.4,,,,0,0,0,,,,,,,IN,,8/8 Overcast,3700.0,,OVC,3800.0,,,,,,
KRDR,05-19-2004,17:00,METAR,,160,13.0,,,9999.0,Cloud Development Not Observable,16.0,10.0,29.78,1009.1,,,,0,0,0,,,,,,,,,8/8 Overcast,8000.0,,BKN,7900.0,OVC,9900.0,,,,
KRDR,05-19-2004,16:00,METAR,,180,10.0,,,9999.0,Cloud Development Not Observable,15.0,11.0,29.82,1010.3,,,,0,0,0,,,,,,,,,8/8 Overcast,10000.0,,SCT,5000.0,OVC,9900.0,,,,
KRDR,05-19-2004,15:00,METAR,,130,14.0,,,9999.0,Cloud Development Not Observable,13.0,11.0,29.83,1012.6,,,,0,0,0,,,,,,TRACE,,,8/8 Overcast,4900.0,,BKN,5000.0,OVC,9900.0,,,,
KRDR,05-19-2004,14:00,METAR,,120,10.0,,,9999.0,Cloud Development Not Observable,12.0,11.0,29.89,1012.6,,,,0,0,0,,,,,,,,,8/8 Overcast,10000.0,,OVC,9900.0,,,,,,
KRDR,05-19-2004,13:00,METAR,,100,6.0,,,9999.0,Mist/Cloud Development Not Observable,11.0,10.0,29.92,1013.6,,,,10,0,0,,,,,,,,,,72000.0,,,,,,,,,
KRDR,05-19-2004,12:45,METAR,,90,6.0,,,9999.0,Mist/Cloud Development Not Observable,11.0,10.0,29.92,,,,,10,0,0,,,,,,,,,8/8 Overcast,4900.0,,BKN,5000.0,OVC,7900.0,,,,
KRDR,05-19-2004,12:00,METAR,,150,6.0,,,6400.0,Rain/Cloud Development Not Observable,11.0,10.0,29.96,1014.9,,,,61,0,0,,,,,,,.07 IN,.07 IN,8/8 Overcast,5500.0,,OVC,5400.0,,,,,,
KRDR,05-19-2004,11:00,METAR,,150,7.0,,,9999.0,Rain/Cloud Development Not Observable,12.0,9.0,29.96,1014.9,,,,61,0,0,,,,,,,,,8/8 Overcast,8000.0,,FEW,4000.0,OVC,7900.0,,,,
KRDR,05-19-2004,10:17,SPECI,,160,6.0,,,9999.0,Rain/Cloud Development Not Observable,13.0,8.0,29.98,,,,,61,0,0,,,,,,,,,8/8 Overcast,9000.0,,FEW,5000.0,OVC,8900.0,,,,
KRDR,05-19-2004,10:00,METAR,,170,5.0,,,9999.0,Cloud Development Not Observable,13.0,9.0,29.98,1015.5,,,,0,0,0,,,,,,,,,8/8 Overcast,9500.0,,FEW,5000.0,OVC,9400.0,,,,
KRDR,05-19-2004,09:39,SPECI,,180,7.0,,,9999.0,Cloud Development Not Observable,13.0,9.0,29.99,,,,,0,0,0,,,,,,,,,8/8 Overcast,10000.0,,OVC,9900.0,,,,,,
KRDR,05-19-2004,09:15,SPECI,,210,9.0,,,9999.0,Rain/Cloud Development Not Observable,13.0,8.0,30.00,,,,,61,0,0,,,,,,,,,8/8 Overcast,10000.0,,OVC,9900.0,,,,,,
KRDR,05-19-2004,09:07,SPECI,,210,10.0,,,9999.0,Rain/Cloud Development Not Observable,14.0,6.0,29.99,,,,,61,0,0,,,,,,,,,8/8 Overcast,10000.0,,OVC,9900.0,,,,,,
KRDR,05-19-2004,09:00,METAR,,190,10.0,,,9999.0,Cloud Development Not Observable,16.0,4.0,29.99,1015.8,,,,0,0,0,,,,,,,,,8/8 Overcast,18000.0,,FEW,9900.0,OVC,18000.0,,,,
KRDR,05-19-2004,08:00,METAR,,170,7.0,,,9999.0,Cloud Development Not Observable,15.0,4.0,30.00,1016.2,,,,0,0,0,,,,,,,,,8/8 Overcast,18000.0,,FEW,12000.0,OVC,18000.0,,,,
KRDR,05-19-2004,07:00,METAR,,180,7.0,,,9999.0,Cloud Development Not Observable,15.0,5.0,30.02,1016.9,,,,0,0,0,,,,,,,,,8/8 Overcast,18000.0,,FEW,12000.0,OVC,18000.0,,,,
KRDR,05-19-2004,06:00,METAR,,170,8.0,,,9999.0,Cloud Development Not Observable,15.0,4.0,30.03,1017.3,,,,0,0,0,,,,,,,,,8/8 Overcast,18000.0,,FEW,12000.0,OVC,18000.0,,,,
KRDR,05-19-2004,05:00,METAR,,160,8.0,,,9999.0,Cloud Development Not Observable,15.0,4.0,30.03,1017.3,,,,0,0,0,,,,,,,,,7/8 Mostly Cloudy,20000.0,,FEW,15000.0,BKN,20000.0,,,,
KRDR,05-19-2004,04:00,METAR,,150,8.0,,,9999.0,Cloud Development Not Observable,16.0,3.0,30.04,1017.6,,,,0,0,0,,,,,,,,,7/8 Mostly Cloudy,20000.0,,FEW,15000.0,BKN,20000.0,,,,
KRDR,05-19-2004,03:00,METAR,,150,7.0,,,9999.0,Cloud Development Not Observable,17.0,3.0,30.03,1017.3,,,,0,0,0,,,,,,,,,7/8 Mostly Cloudy,20000.0,,FEW,15000.0,BKN,20000.0,,,,
KRDR,05-19-2004,02:00,METAR,,140,5.0,,,9999.0,Cloud Development Not Observable,18.0,2.0,30.03,1017.4,,,,0,0,0,,,,,,,,,7/8 Mostly Cloudy,25000.0,,FEW,15000.0,BKN,25000.0,,,,
KRDR,05-19-2004,01:00,METAR,,140,5.0,,,9999.0,Cloud Development Not Observable,20.0,3.0,30.03,1017.5,,,,0,0,0,,,,,,,,,7/8 Mostly Cloudy,25000.0,,BKN,25000.0,,,,,,
KRDR,05-19-2004,00:00,METAR,,160,6.0,,,9999.0,Cloud Development Not Observable,22.0,-1.0,30.04,1017.9,,,,0,0,0,,,,,,,,,7/8 Mostly Cloudy,25000.0,,BKN,25000.0,,,,,,
KRDR,05-18-2004,23:00,METAR,,190,11.0,,,9999.0,Cloud Development Not Observable,23.0,0.0,30.05,1018.3,,,,0,0,0,,,,,,,,,4/8 Partly Cloudy,72000.0,,SCT,25000.0,,,,,,
KRDR,05-18-2004,22:00,METAR,,180,12.0,17.0,,9999.0,Cloud Development Not Observable,23.0,-2.0,30.07,1019.0,,,,0,0,0,,,,,,,,,4/8 Partly Cloudy,72000.0,,SCT,25000.0,,,,,,
KRDR,05-18-2004,21:00,METAR,,190,9.0,,,9999.0,Cloud Development Not Observable,23.0,-1.0,30.09,1019.7,,,,0,0,0,,,,,,,,,4/8 Partly Cloudy,72000.0,,SCT,25000.0,,,,,,
KRDR,05-18-2004,20:00,METAR,,160,12.0,,,9999.0,Cloud Development Not Observable,23.0,-2.0,30.09,1019.6,,,,0,0,0,,,,,,,,,4/8 Partly Cloudy,72000.0,,SCT,25000.0,,,,,,
KRDR,05-18-2004,19:00,METAR,,160,8.0,,,9999.0,Cloud Development Not Observable,23.0,0.0,30.11,1020.4,,,,0,0,0,,,,,,,,,2/8 Mostly Clear,72000.0,,FEW,25000.0,,,,,,
KRDR,05-18-2004,18:00,METAR,,170,10.0,,,9999.0,Cloud Development Not Observable,22.0,1.0,30.12,1020.6,,,,0,0,0,,,,,,,,,4/8 Partly Cloudy,72000.0,,SCT,25000.0,,,,,,
KRDR,05-18-2004,17:00,METAR,,220,7.0,,,9999.0,Cloud Development Not Observable,21.0,3.0,30.13,1021.0,,,,0,0,0,,,,,,,,,2/8 Mostly Clear,72000.0,,FEW,25000.0,,,,,,
KRDR,05-18-2004,16:00,METAR,,210,6.0,,,9999.0,Cloud Development Not Observable,20.0,4.0,30.13,1021.0,,,,0,0,0,,,,,,,,,Clear,72000.0,,,73000.0,,,,,,
KRDR,05-18-2004,15:00,METAR,,260,6.0,,,9999.0,Cloud Development Not Observable,18.0,1.0,30.13,1021.1,,,,0,0,0,,,,,,,,,Clear,72000.0,,,73000.0,,,,,,
KRDR,05-18-2004,14:00,METAR,,230,5.0,,,9999.0,Cloud Development Not Observable,14.0,2.0,30.13,1021.1,,,,0,0,0,,,,,,,,,Clear,72000.0,,,73000.0,,,,,,
KRDR,05-18-2004,13:00,METAR,,190,7.0,,,9999.0,Cloud Development Not Observable,11.0,2.0,30.12,1020.7,,,,0,0,0,,,,,,,,,Clear,72000.0,,,73000.0,,,,,,
KRDR,05-18-2004,12:00,METAR,,210,3.0,,,9999.0,Cloud Development Not Observable,7.0,2.0,30.12,1020.9,,,,0,0,0,,,,,,,,,2/8 Mostly Clear,72000.0,,FEW,20000.0,,,,,,
KRDR,05-18-2004,11:00,METAR,,220,7.0,,,9999.0,Cloud Development Not Observable,4.0,0.0,30.11,1020.6,,,,0,0,0,,,,,,,,,2/8 Mostly Clear,72000.0,,FEW,20000.0,,,,,,
KRDR,05-18-2004,10:00,METAR,,200,7.0,,,9999.0,Cloud Development Not Observable,4.0,0.0,30.11,1020.6,,,,0,0,0,,,,,,,,,Clear,72000.0,,,73000.0,,,,,,
KRDR,05-18-2004,09:00,METAR,,200,6.0,,,9999.0,Cloud Development Not Observable,4.0,0.0,30.10,1020.2,,,,0,0,0,,,,,,,,,Clear,72000.0,,,73000.0,,,,,,
KRDR,05-18-2004,08:00,METAR,,,6.0,,,9999.0,Cloud Development Not Observable,5.0,0.0,30.10,1020.2,,,,0,0,0,,,,,,,,,Clear,72000.0,,,73000.0,,,,,,
KRDR,05-18-2004,07:00,METAR,,230,6.0,,,9999.0,Cloud Development Not Observable,4.0,1.0,30.10,1020.3,,,,0,0,0,,,,,,,,,Clear,72000.0,,,73000.0,,,,,,
KRDR,05-18-2004,06:00,METAR,,190,6.0,,,9999.0,Cloud Development Not Observable,5.0,2.0,30.10,1020.2,,,,0,0,0,,,,,,,,,Clear,72000.0,,,73000.0,,,,,,
KRDR,05-18-2004,05:00,METAR,,210,7.0,,,9999.0,Cloud Development Not Observable,7.0,2.0,30.09,1019.8,,,,0,0,0,,,,,,,,,Clear,72000.0,,,73000.0,,,,,,
KRDR,05-18-2004,04:00,METAR,,190,6.0,,,9999.0,Cloud Development Not Observable,9.0,2.0,30.09,1019.8,,,,0,0,0,,,,,,,,,Clear,72000.0,,,73000.0,,,,,,
KRDR,05-18-2004,03:00,METAR,,190,5.0,,,9999.0,Cloud Development Not Observable,9.0,1.0,30.09,1019.8,,,,0,0,0,,,,,,,,,2/8 Mostly Clear,72000.0,,FEW,25000.0,,,,,,
KRDR,05-18-2004,02:00,METAR,,250,4.0,,,9999.0,Cloud Development Not Observable,13.0,0.0,30.07,1019.0,,,,0,0,0,,,,,,,,,7/8 Mostly Cloudy,25000.0,,FEW,15000.0,BKN,25000.0,,,,
KRDR,05-18-2004,01:00,METAR,,280,5.0,,,9999.0,Cloud Development Not Observable,16.0,-1.0,30.06,1018.8,,,,0,0,0,,,,,,,,,7/8 Mostly Cloudy,25000.0,,BKN,25000.0,,,,,,
KRDR,05-18-2004,00:00,METAR,,,1.0,,,9999.0,Cloud Development Not Observable,16.0,-1.0,30.05,1018.5,,,,0,0,0,,,,,,,,,7/8 Mostly Cloudy,25000.0,,BKN,25000.0,,,,,,
KRDR,05-17-2004,23:00,METAR,,,3.0,,,9999.0,Cloud Development Not Observable,17.0,-1.0,30.05,1018.5,,,,0,0,0,,,,,,,,,7/8 Mostly Cloudy,25000.0,,BKN,25000.0,,,,,,
KRDR,05-17-2004,22:00,METAR,,,6.0,,,9999.0,Cloud Development Not Observable,17.0,-1.0,30.07,1019.2,,,,0,0,0,,,,,,,,,4/8 Partly Cloudy,72000.0,,SCT,25000.0,,,,,,
KRDR,05-17-2004,21:00,METAR,,,6.0,,,9999.0,Cloud Development Not Observable,16.0,-1.0,30.08,1019.5,,,,0,0,0,,,,,,,,,4/8 Partly Cloudy,72000.0,,SCT,25000.0,,,,,,
KRDR,05-17-2004,20:00,METAR,,,5.0,,,9999.0,Cloud Development Not Observable,15.0,-1.0,30.08,1019.5,,,,0,0,0,,,,,,,,,4/8 Partly Cloudy,72000.0,,SCT,25000.0,,,,,,
KRDR,05-17-2004,19:00,METAR,,360,7.0,,,9999.0,Cloud Development Not Observable,15.0,-1.0,30.08,1019.3,,,,0,0,0,,,,,,,,,4/8 Partly Cloudy,72000.0,,SCT,25000.0,,,,,,
KRDR,05-17-2004,18:00,METAR,,360,8.0,,,9999.0,Cloud Development Not Observable,14.0,0.0,30.09,1019.8,,,,0,0,0,,,,,,,,,2/8 Mostly Clear,72000.0,,FEW,25000.0,,,,,,
KRDR,05-17-2004,17:00,METAR,,10,6.0,,,9999.0,Cloud Development Not Observable,14.0,0.0,30.09,1019.5,,,,0,0,0,,,,,,,,,2/8 Mostly Clear,72000.0,,FEW,25000.0,,,,,,
KRDR,05-17-2004,16:00,METAR,,,5.0,,,9999.0,Cloud Development Not Observable,12.0,1.0,30.08,1019.3,,,,0,0,0,,,,,,,,,2/8 Mostly Clear,72000.0,,FEW,25000.0,,,,,,
KRDR,05-17-2004,15:00,METAR,,10,6.0,,,9999.0,Cloud Development Not Observable,11.0,1.0,30.07,1019.2,,,,0,0,0,,,,,,,,,2/8 Mostly Clear,72000.0,,FEW,25000.0,,,,,,
KRDR,05-17-2004,14:00,METAR,,10,9.0,,,9999.0,Cloud Development Not Observable,9.0,2.0,30.06,1018.9,,,,0,0,0,,,,,,,,,4/8 Partly Cloudy,72000.0,,FEW,12000.0,SCT,25000.0,,,,
KRDR,05-17-2004,13:00,METAR,,360,8.0,,,9999.0,Cloud Development Not Observable,7.0,2.0,30.05,1018.5,,,,0,0,0,,,,,,,,,7/8 Mostly Cloudy,25000.0,,FEW,12000.0,BKN,25000.0,,,,
KRDR,05-17-2004,12:00,METAR,,350,8.0,,,9999.0,Cloud Development Not Observable,5.0,2.0,30.03,1017.9,,,,0,0,0,,,,,,,,,7/8 Mostly Cloudy,25000.0,,SCT,12000.0,BKN,25000.0,,,,
KRDR,05-17-2004,11:00,METAR,,350,8.0,,,9999.0,Cloud Development Not Observable,4.0,2.0,30.01,1017.3,,,,0,0,0,,,,,,,,,7/8 Mostly Cloudy,12000.0,,FEW,5000.0,BKN,12000.0,BKN,25000.0,,
KRDR,05-17-2004,10:00,METAR,,350,8.0,,,9999.0,Cloud Development Not Observable,4.0,2.0,30.00,1016.9,,,,0,0,0,,,,,,,,,7/8 Mostly Cloudy,12000.0,,BKN,12000.0,,,,,,
KRDR,05-17-2004,09:00,METAR,,360,9.0,,,9999.0,Cloud Development Not Observable,5.0,3.0,30.00,1016.9,,,,0,0,0,,,,,,,,,8/8 Overcast,12000.0,,OVC,12000.0,,,,,,
KRDR,05-17-2004,08:00,METAR,,350,9.0,,,9999.0,Cloud Development Not Observable,6.0,3.0,30.00,1016.8,,,,0,0,0,,,,,,,,,8/8 Overcast,12000.0,,OVC,12000.0,,,,,,
KRDR,05-17-2004,07:00,METAR,,360,8.0,,,9999.0,Cloud Development Not Observable,7.0,4.0,30.01,1017.1,,,,0,0,0,,,,,,,,,8/8 Overcast,12000.0,,OVC,12000.0,,,,,,
KRDR,05-17-2004,06:00,METAR,,360,10.0,,,9999.0,Cloud Development Not Observable,8.0,5.0,30.00,1016.8,,,,0,0,0,,,,,,,,,8/8 Overcast,12000.0,,OVC,12000.0,,,,,,
KRDR,05-17-2004,04:00,METAR,,350,7.0,,,9999.0,Cloud Development Not Observable,9.0,5.0,30.02,1017.5,,,,0,0,0,,,,,,,,,8/8 Overcast,12000.0,,OVC,12000.0,,,,,,
KRDR,05-17-2004,03:00,METAR,,20,7.0,,,9999.0,Cloud Development Not Observable,10.0,5.0,30.00,1016.9,,,,0,0,0,,,,,,,,,7/8 Mostly Cloudy,15000.0,,FEW,5000.0,BKN,15000.0,,,,
KRDR,05-17-2004,02:00,METAR,,20,8.0,,,9999.0,Cloud Development Not Observable,10.0,4.0,29.99,1016.5,,,,0,0,0,,,,,,,,,8/8 Overcast,15000.0,,FEW,5000.0,OVC,15000.0,,,,
KRDR,05-17-2004,00:00,METAR,,30,9.0,,,9999.0,Cloud Development Not Observable,11.0,4.0,30.02,1017.7,,,,0,0,0,,,,,,,,,8/8 Overcast,15000.0,,FEW,3500.0,BKN,15000.0,OVC,25000.0,,
KRDR,05-16-2004,23:00,METAR,,,6.0,,,9999.0,Cloud Development Not Observable,11.0,3.0,30.05,1018.7,,,,0,0,0,,,,,,,,,8/8 Overcast,15000.0,,FEW,3500.0,BKN,15000.0,OVC,25000.0,,
KRDR,05-16-2004,22:00,METAR,,,6.0,,,9999.0,Cloud Development Not Observable,12.0,2.0,30.04,1018.3,,,,0,0,0,,,,,,,,,8/8 Overcast,15000.0,,FEW,3500.0,SCT,15000.0,OVC,25000.0,,
KRDR,05-16-2004,21:00,METAR,,80,8.0,,,9999.0,Cloud Development Not Observable,12.0,1.0,30.06,1019.0,,,,0,0,0,,,,,,,,,7/8 Mostly Cloudy,25000.0,,FEW,3500.0,BKN,25000.0,,,,
KRDR,05-16-2004,20:00,METAR,,,5.0,,,9999.0,Cloud Development Not Observable,12.0,1.0,30.07,1019.2,,,,0,0,0,,,,,,,,,7/8 Mostly Cloudy,25000.0,,FEW,3500.0,BKN,25000.0,,,,
KRDR,05-16-2004,19:00,METAR,,30,10.0,,,9999.0,Cloud Development Not Observable,13.0,3.0,30.08,1019.3,,,,0,0,0,,,,,,,,,7/8 Mostly Cloudy,25000.0,,FEW,3500.0,BKN,25000.0,,,,
KRDR,05-16-2004,18:00,METAR,,20,7.0,,,9999.0,Cloud Development Not Observable,11.0,1.0,30.09,1019.9,,,,0,0,0,,,,,,,,,4/8 Partly Cloudy,72000.0,,SCT,25000.0,,,,,,
KRDR,05-16-2004,17:00,METAR,,20,10.0,,,9999.0,Cloud Development Not Observable,10.0,1.0,30.12,1021.0,,,,0,0,0,,,,,,,,,4/8 Partly Cloudy,72000.0,,SCT,25000.0,,,,,,
KRDR,05-16-2004,16:00,METAR,,20,10.0,,,9999.0,Cloud Development Not Observable,10.0,1.0,30.12,1021.0,,,,0,0,0,,,,,,,,,Clear,72000.0,,,73000.0,,,,,,
KRDR,05-16-2004,15:00,METAR,,360,10.0,,,9999.0,Cloud Development Not Observable,8.0,-1.0,30.13,1021.2,,,,0,0,0,,,,,,,,,Clear,72000.0,,,73000.0,,,,,,
KRDR,05-16-2004,14:00,METAR,,350,10.0,,,9999.0,Cloud Development Not Observable,7.0,1.0,30.12,1020.8,,,,0,0,0,,,,,,,,,Clear,72000.0,,,73000.0,,,,,,
KRDR,05-16-2004,13:00,METAR,,320,8.0,,,9999.0,Cloud Development Not Observable,4.0,1.0,30.12,1020.9,,,,0,0,0,,,,,,,,,Clear,72000.0,,,73000.0,,,,,,
KRDR,05-16-2004,12:00,METAR,,260,5.0,,,9999.0,Cloud Development Not Observable,2.0,1.0,30.11,1020.6,,,,0,0,0,,,,,,,,.31 IN,Clear,72000.0,,,73000.0,,,,,,
KRDR,05-16-2004,11:00,METAR,,310,8.0,,,9999.0,Cloud Development Not Observable,1.0,1.0,30.09,1020.1,,,,0,0,0,,,,,,,,,2/8 Mostly Clear,72000.0,,FEW,3000.0,FEW,25000.0,,,,
KRDR,05-16-2004,10:00,METAR,,310,7.0,,,9999.0,Cloud Development Not Observable,2.0,2.0,30.08,1019.7,,,,0,0,0,,,,,,,,,2/8 Mostly Clear,72000.0,,FEW,3000.0,FEW,25000.0,,,,
KRDR,05-16-2004,09:00,METAR,,310,9.0,,,9999.0,Cloud Development Not Observable,4.0,3.0,30.06,1019.0,,,,0,0,0,,,,,,,,,Clear,72000.0,,,73000.0,,,,,,
KRDR,05-16-2004,08:00,METAR,,320,8.0,,,9999.0,Cloud Development Not Observable,6.0,6.0,30.05,1018.6,,,,0,0,0,,,,,,,,,2/8 Mostly Clear,72000.0,,FEW,2700.0,,,,,,
KRDR,05-16-2004,07:00,METAR,,320,9.0,,,9999.0,Cloud Development Not Observable,8.0,8.0,30.03,1017.9,,,,0,0,0,,,,,,,,,8/8 Overcast,5000.0,,SCT,2700.0,OVC,5200.0,,,,
KRDR,05-16-2004,06:00,METAR,,310,11.0,,,9999.0,Cloud Development Not Observable,9.0,9.0,30.00,1016.8,,,,0,0,0,,,,,,,.13 IN,,8/8 Overcast,3000.0,,FEW,2000.0,BKN,3000.0,OVC,4000.0,,
KRDR,05-16-2004,05:00,METAR,,190,12.0,,,9999.0,Cloud Development Not Observable,9.0,9.0,29.97,1015.7,,,,0,0,0,,,,,,,,,8/8 Overcast,4100.0,,OVC,4200.0,,,,,,
KRDR,05-16-2004,04:00,METAR,,180,14.0,,,9999.0,Cloud Development Not Observable,9.0,9.0,29.98,1016.1,,,,0,0,0,,,,,,,,,8/8 Overcast,5500.0,,BKN,5400.0,OVC,9900.0,,,,
KRDR,05-16-2004,03:20,METAR,,170,14.0,,,9999.0,Cloud Development Not Observable,9.0,9.0,29.98,,,,,0,0,0,,,,,,,,,8/8 Overcast,5500.0,,BKN,5400.0,OVC,9900.0,,,,
KRDR,05-16-2004,03:00,METAR,,180,14.0,,190/27KTS,8000.0,Light Rain Showers/Cloud Development Not Observable,9.0,9.0,29.98,1016.1,,,,80,0,0,,,,,,.12 IN,,,8/8 Overcast,6500.0,,BKN,6400.0,OVC,9900.0,,,,
KRDR,05-16-2004,02:00,METAR,,200,15.0,,,9999.0,Light Rain Showers/Cloud Development Not Observable,11.0,8.0,29.98,1016.1,,,,80,0,0,,,,,,,,,8/8 Overcast,5500.0,,OVC,5400.0,,,,,,
KRDR,05-16-2004,01:44,SPECI,,190,14.0,21.0,,9999.0,Light Rain Showers/Cloud Development Not Observable,11.0,8.0,29.97,,,,,80,0,0,,,,,,,,,8/8 Overcast,5500.0,,OVC,5700.0,,,,,,
KRDR,05-16-2004,01:00,METAR,,180,16.0,,190/26KTS,9999.0,Cloud Development Not Observable,12.0,7.0,29.93,1014.3,,,,0,0,0,,,,,,,,,7/8 Mostly Cloudy,3900.0,,FEW,2000.0,BKN,4000.0,BKN,9900.0,,
KRDR,05-16-2004,00:00,METAR,,180,20.0,25.0,190/29KTS,9999.0,Cloud Development Not Observable,13.0,7.0,29.95,1015.1,,,,0,0,0,,,,,,,.11 IN,,7/8 Mostly Cloudy,10000.0,,SCT,4000.0,BKN,9900.0,BKN,25000.0,,
KRDR,05-15-2004,23:00,METAR,,190,23.0,28.0,,9999.0,Cloud Development Not Observable,14.0,8.0,29.97,1015.8,,,,0,0,0,,,,,,,,,7/8 Mostly Cloudy,10000.0,,SCT,4000.0,BKN,9900.0,BKN,25000.0,,
KRDR,05-15-2004,22:00,METAR,,190,17.0,26.0,,9999.0,Precipitation in the Vicinity/Cloud Development Not Observable,13.0,9.0,29.98,1016.3,,,,16,0,0,,,,,,,,,7/8 Mostly Cloudy,3900.0,,BKN,4000.0,BKN,9900.0,BKN,25000.0,,
KRDR,05-15-2004,21:00,METAR,,200,17.0,22.0,,9999.0,Precipitation in the Vicinity/Cloud Development Not Observable,13.0,12.0,30.00,,,,,16,0,0,,,,,,.11 IN,,,8/8 Overcast,6000.0,,FEW,3000.0,BKN,5900.0,OVC,9900.0,,
KRDR,05-15-2004,20:00,METAR,,200,15.0,26.0,,9999.0,Precipitation in the Vicinity/Cloud Development Not Observable,11.0,11.0,30.01,,,,,16,0,0,,,,,,,,,8/8 Overcast,4900.0,,SCT,3000.0,BKN,5000.0,BKN,9900.0,OVC,25000.0
KRDR,05-15-2004,19:33,SPECI,,190,14.0,,,9999.0,Precipitation in the Vicinity/Cloud Development Not Observable,10.0,10.0,30.01,,,,,16,0,0,,,,,,,,,8/8 Overcast,4900.0,,SCT,3000.0,BKN,5000.0,BKN,9900.0,OVC,25000.0
KRDR,05-15-2004,19:00,METAR,,180,17.0,,,9999.0,Light Rain Showers/Cloud Development Not Observable,9.0,9.0,30.04,,,,,80,0,0,,,,,,,,,8/8 Overcast,4900.0,,SCT,3000.0,BKN,5000.0,OVC,9900.0,,
KRDR,05-15-2004,18:00,METAR,,180,17.0,,,9999.0,Light Rain Showers/Cloud Development Not Observable,10.0,9.0,30.06,,,,,80,0,0,,,,,,,.07 IN,,8/8 Overcast,4900.0,,SCT,3000.0,BKN,5000.0,OVC,9900.0,,
KRDR,05-15-2004,17:00,METAR,,80,9.0,,,9999.0,Light Rain Showers/Cloud Development Not Observable,9.0,7.0,30.06,1019.2,,,,80,0,0,,,,,,,,,8/8 Overcast,4400.0,,BKN,4500.0,OVC,9900.0,,,,
KRDR,05-15-2004,16:42,SPECI,,70,8.0,,,9999.0,Light Rain Showers/Cloud Development Not Observable,9.0,6.0,30.07,,,,,80,0,0,,,,,,,,,8/8 Overcast,4400.0,,BKN,4500.0,BKN,9900.0,OVC,25000.0,,
KRDR,05-15-2004,16:30,METAR,,70,6.0,,,9999.0,Precipitation in the Vicinity/Cloud Development Not Observable,9.0,7.0,30.08,,,,,16,0,0,,,,,,,,,8/8 Overcast,4400.0,,BKN,4500.0,BKN,9900.0,OVC,25000.0,,
KRDR,05-15-2004,16:06,SPECI,,90,7.0,,,9999.0,Light Rain Showers/Cloud Development Not Observable,9.0,3.0,30.09,,,,,80,0,0,,,,,,,,,8/8 Overcast,4900.0,,BKN,5000.0,BKN,9900.0,OVC,25000.0,,
KRDR,05-15-2004,16:00,METAR,,,6.0,,,9999.0,Precipitation in the Vicinity/Cloud Development Not Observable,9.0,4.0,30.09,1020.1,,,,16,0,0,,,,,,,,,8/8 Overcast,4900.0,,BKN,5000.0,BKN,9900.0,OVC,25000.0,,
KRDR,05-15-2004,15:00,METAR,,,5.0,,,9999.0,Cloud Development Not Observable,10.0,3.0,30.11,1020.5,,,,0,0,0,,,,,,,,,8/8 Overcast,10000.0,,SCT,5400.0,BKN,9900.0,OVC,25000.0,,
KRDR,05-15-2004,14:00,METAR,,160,7.0,,,9999.0,Cloud Development Not Observable,8.0,2.0,30.11,1020.7,,,,0,0,0,,,,,,,,,7/8 Mostly Cloudy,10000.0,,SCT,5000.0,BKN,9900.0,BKN,25000.0,,
KRDR,05-15-2004,13:00,METAR,,170,13.0,,,9999.0,Cloud Development Not Observable,6.0,2.0,30.10,1020.4,,,,0,0,0,,,,,,,,,7/8 Mostly Cloudy,10000.0,,SCT,5000.0,BKN,9900.0,,,,
KRDR,05-15-2004,12:00,METAR,,160,13.0,,,9999.0,Cloud Development Not Observable,3.0,1.0,30.10,1020.4,,,,0,0,0,,,,,,,,,7/8 Mostly Cloudy,10000.0,,SCT,5000.0,BKN,9900.0,,,,
KRDR,05-15-2004,11:00,METAR,,170,14.0,,,9999.0,Mist/Cloud Development Not Observable,3.0,1.0,30.12,1021.0,,,,10,0,0,,,,,,,,,7/8 Mostly Cloudy,11000.0,,SCT,8900.0,BKN,11000.0,,,,
KRDR,05-15-2004,10:00,METAR,,160,10.0,,,9999.0,Mist/Cloud Development Not Observable,3.0,2.0,30.12,1021.0,,,,10,0,0,,,,,,,,,4/8 Partly Cloudy,72000.0,,SCT,8900.0,,,,,,
KRDR,05-15-2004,09:00,METAR,,160,10.0,,,9999.0,Mist/Cloud Development Not Observable,4.0,2.0,30.15,1022.1,,,,10,0,0,,,,,,,,,4/8 Partly Cloudy,72000.0,,SCT,8900.0,,,,,,
KRDR,05-15-2004,08:00,METAR,,160,9.0,,,9999.0,Mist/Cloud Development Not Observable,3.0,2.0,30.16,1022.4,,,,10,0,0,,,,,,,,,4/8 Partly Cloudy,72000.0,,SCT,8900.0,,,,,,
KRDR,05-15-2004,07:00,METAR,,150,8.0,,,9999.0,Cloud Development Not Observable,4.0,1.0,30.16,1022.4,,,,0,0,0,,,,,,,,,4/8 Partly Cloudy,72000.0,,FEW,7900.0,SCT,9900.0,,,,
KRDR,05-15-2004,06:00,METAR,,150,10.0,,,9999.0,Cloud Development Not Observable,5.0,1.0,30.17,1022.7,,,,0,0,0,,,,,,,,,2/8 Mostly Clear,72000.0,,FEW,9900.0,,,,,,
KRDR,05-15-2004,05:00,METAR,,150,10.0,,,9999.0,Cloud Development Not Observable,5.0,1.0,30.17,1022.8,,,,0,0,0,,,,,,,,,2/8 Mostly Clear,72000.0,,FEW,9900.0,,,,,,
KRDR,05-15-2004,04:00,METAR,,140,8.0,,,9999.0,Cloud Development Not Observable,5.0,2.0,30.17,1022.8,,,,0,0,0,,,,,,,,,2/8 Mostly Clear,72000.0,,FEW,9900.0,,,,,,
KRDR,05-15-2004,03:00,METAR,,130,7.0,,,9999.0,Cloud Development Not Observable,7.0,2.0,30.17,1022.8,,,,0,0,0,,,,,,,,,2/8 Mostly Clear,72000.0,,FEW,9900.0,,,,,,
KRDR,05-15-2004,02:00,METAR,,100,4.0,,,9999.0,Cloud Development Not Observable,8.0,0.0,30.16,1022.5,,,,0,0,0,,,,,,,,,2/8 Mostly Clear,72000.0,,FEW,9900.0,,,,,,
KRDR,05-15-2004,01:00,METAR,,,5.0,,,9999.0,Cloud Development Not Observable,10.0,-1.0,30.17,1022.8,,,,0,0,0,,,,,,,,,Clear,72000.0,,,73000.0,,,,,,
KRDR,05-15-2004,00:00,METAR,,,6.0,,,9999.0,Cloud Development Not Observable,11.0,-2.0,30.17,1022.9,,,,0,0,0,,,,,,,,,2/8 Mostly Clear,72000.0,,FEW,5400.0,,,,,,
KRDR,05-14-2004,23:00,METAR,,,5.0,,,9999.0,Cloud Development Not Observable,11.0,-2.0,30.18,1023.3,,,,0,0,0,,,,,,,,,4/8 Partly Cloudy,72000.0,,SCT,5400.0,,,,,,
KRDR,05-14-2004,22:00,METAR,,,5.0,,,9999.0,Cloud Development Not Observable,10.0,-2.0,30.19,1023.7,,,,0,0,0,,,,,,,,,4/8 Partly Cloudy,72000.0,,SCT,5000.0,,,,,,
KRDR,05-14-2004,21:00,METAR,,,4.0,,,9999.0,Cloud Development Not Observable,9.0,-2.0,30.21,1024.5,,,,0,0,0,,,,,,,,,4/8 Partly Cloudy,72000.0,,SCT,5000.0,,,,,,
KRDR,05-14-2004,20:00,METAR,,,2.0,,,9999.0,Cloud Development Not Observable,9.0,-2.0,30.22,1024.7,,,,0,0,0,,,,,,,,,7/8 Mostly Cloudy,4400.0,,BKN,4500.0,,,,,,
KRDR,05-14-2004,19:00,METAR,,,1.0,,,9999.0,Cloud Development Not Observable,8.0,-1.0,30.24,1025.5,,,,0,0,0,,,,,,,,,4/8 Partly Cloudy,72000.0,,SCT,3500.0,,,,,,
KRDR,05-14-2004,18:00,METAR,,,6.0,,,9999.0,Cloud Development Not Observable,9.0,-2.0,30.25,1025.9,,,,0,0,0,,,,,,,,,4/8 Partly Cloudy,72000.0,,SCT,3500.0,,,,,,
KRDR,05-14-2004,17:00,METAR,,,4.0,,,9999.0,Cloud Development Not Observable,6.0,-4.0,30.26,1026.5,,,,0,0,0,,,,,,,,,4/8 Partly Cloudy,72000.0,,SCT,3000.0,,,,,,
KRDR,05-14-2004,16:00,METAR,,,2.0,,,9999.0,Cloud Development Not Observable,5.0,-3.0,30.28,1026.8,,,,0,0,0,,,,,,,,,4/8 Partly Cloudy,72000.0,,SCT,3000.0,,,,,,
KRDR,05-14-2004,15:00,METAR,,,5.0,,,9999.0,Cloud Development Not Observable,4.0,-3.0,30.29,1027.3,,,,0,0,0,,,,,,,,,2/8 Mostly Clear,72000.0,,FEW,3000.0,,,,,,
KRDR,05-14-2004,14:00,METAR,,,3.0,,,9999.0,Cloud Development Not Observable,2.0,-2.0,30.30,1027.4,,,,0,0,0,,,,,,,,,2/8 Mostly Clear,72000.0,,FEW,25000.0,,,,,,
KRDR,05-14-2004,13:00,METAR,,300,2.0,,,9999.0,Cloud Development Not Observable,1.0,-1.0,30.30,1027.4,,,,0,0,0,,,,,,,,,2/8 Mostly Clear,72000.0,,FEW,25000.0,,,,,,
KRDR,05-14-2004,12:00,METAR,,250,3.0,,,9999.0,Cloud Development Not Observable,-3.0,-3.0,30.30,1027.6,,,,0,0,0,,,,,,,,,4/8 Partly Cloudy,72000.0,,SCT,25000.0,,,,,,
KRDR,05-14-2004,11:00,METAR,,260,4.0,,,9999.0,Cloud Development Not Observable,-4.0,-4.0,30.29,1027.2,,,,0,0,0,,,,,,,,,4/8 Partly Cloudy,72000.0,,SCT,15000.0,,,,,,
KRDR,05-14-2004,10:00,METAR,,280,4.0,,,9999.0,Cloud Development Not Observable,-4.0,-4.0,30.29,1027.2,,,,0,0,0,,,,,,,,,4/8 Partly Cloudy,72000.0,,SCT,15000.0,,,,,,
KRDR,05-14-2004,09:00,METAR,,300,1.0,,,9999.0,Cloud Development Not Observable,-4.0,-4.0,30.28,1026.9,,,,0,0,0,,,,,,,,,Clear,72000.0,,,73000.0,,,,,,
KRDR,05-14-2004,08:00,METAR,,310,4.0,,,9999.0,Cloud Development Not Observable,-3.0,-3.0,30.29,1027.2,,,,0,0,0,,,,,,,,,Clear,72000.0,,,73000.0,,,,,,
KRDR,05-14-2004,07:00,METAR,,290,4.0,,,9999.0,Cloud Development Not Observable,-3.0,-3.0,30.30,1027.6,,,,0,0,0,,,,,,,,,Clear,72000.0,,,73000.0,,,,,,
KRDR,05-14-2004,06:00,METAR,,280,3.0,,,9999.0,Cloud Development Not Observable,-3.0,-3.0,30.31,1027.9,,,,0,0,0,,,,,,,,,2/8 Mostly Clear,72000.0,,FEW,3500.0,,,,,,
KRDR,05-14-2004,05:00,METAR,,310,3.0,,,9999.0,Cloud Development Not Observable,-2.0,-2.0,30.31,1027.9,,,,0,0,0,,,,,,,,,4/8 Partly Cloudy,72000.0,,FEW,3500.0,SCT,11000.0,,,,
KRDR,05-14-2004,04:00,METAR,,340,4.0,,,9999.0,Cloud Development Not Observable,-2.0,-2.0,30.30,1027.6,,,,0,0,0,,,,,,,,,4/8 Partly Cloudy,72000.0,,FEW,3500.0,SCT,11000.0,,,,
KRDR,05-14-2004,03:00,METAR,,360,6.0,,,9999.0,Cloud Development Not Observable,-1.0,-3.0,30.30,1027.6,,,,0,0,0,,,,,,,,,4/8 Partly Cloudy,72000.0,,FEW,3500.0,SCT,11000.0,,,,
KRDR,05-14-2004,02:00,METAR,,30,8.0,,,9999.0,Cloud Development Not Observable,2.0,-1.0,30.30,1027.5,,,,0,0,0,,,,,,,,,7/8 Mostly Cloudy,11000.0,,SCT,3500.0,BKN,11000.0,,,,
KRDR,05-14-2004,01:00,METAR,,360,9.0,,,9999.0,Cloud Development Not Observable,3.0,-1.0,30.29,1027.2,,,,0,0,0,,,,,,,,,7/8 Mostly Cloudy,11000.0,,SCT,3500.0,BKN,11000.0,,,,
KRDR,05-14-2004,00:00,METAR,,20,12.0,,,9999.0,Cloud Development Not Observable,4.0,-1.0,30.28,1026.8,,,,0,0,0,,,,,,,,,7/8 Mostly Cloudy,3700.0,,FEW,2500.0,BKN,3800.0,,,,
KRDR,05-13-2004,23:00,METAR,,10,11.0,,,9999.0,Cloud Development Not Observable,4.0,-2.0,30.29,1027.1,,,,0,0,0,,,,,,,,,8/8 Overcast,3500.0,,OVC,3600.0,,,,,,
KRDR,05-13-2004,22:00,METAR,,10,9.0,,,9999.0,Cloud Development Not Observable,4.0,-2.0,30.29,1027.1,,,,0,0,0,,,,,,,,,8/8 Overcast,3100.0,,OVC,3100.0,,,,,,
KRDR,05-13-2004,21:00,METAR,,340,10.0,,,9999.0,Cloud Development Not Observable,4.0,-2.0,30.28,1026.7,,,,0,0,0,,,,,,,,,8/8 Overcast,3100.0,,OVC,3100.0,,,,,,
KRDR,05-13-2004,20:24,SPECI,,360,12.0,,,9999.0,Cloud Development Not Observable,4.0,-2.0,30.29,,,,,0,0,0,,,,,,,,,8/8 Overcast,3200.0,,OVC,3300.0,,,,,,
KRDR,05-13-2004,20:00,METAR,,10,13.0,,,9999.0,Cloud Development Not Observable,4.0,-3.0,30.28,1026.9,,,,0,0,0,,,,,,,,,8/8 Overcast,2800.0,,OVC,2800.0,,,,,,
KRDR,05-13-2004,19:00,METAR,,350,10.0,,,9999.0,Cloud Development Not Observable,4.0,-3.0,30.28,1026.7,,,,0,0,0,,,,,,,,,8/8 Overcast,2500.0,,OVC,2500.0,,,,,,
KRDR,05-13-2004,18:00,METAR,,360,10.0,22.0,,9999.0,Cloud Development Not Observable,4.0,-3.0,30.28,1026.7,,,,0,0,0,,,,,,,,,8/8 Overcast,2500.0,,OVC,2500.0,,,,,,
KRDR,05-13-2004,17:00,METAR,,340,16.0,22.0,,9999.0,Cloud Development Not Observable,3.0,-2.0,30.28,1026.7,,,,0,0,0,,,,,,,,,8/8 Overcast,2500.0,,OVC,2500.0,,,,,,
KRDR,05-13-2004,16:00,METAR,,340,13.0,,,9999.0,Cloud Development Not Observable,2.0,-3.0,30.28,1026.7,,,,0,0,0,,,,,,,,,7/8 Mostly Cloudy,2500.0,,BKN,2500.0,,,,,,
KRDR,05-13-2004,15:00,METAR,,340,16.0,19.0,,9999.0,Cloud Development Not Observable,1.0,-3.0,30.28,1026.8,,,,0,0,0,,,,,,,,,7/8 Mostly Cloudy,1700.0,,BKN,1700.0,BKN,25000.0,,,,
KRDR,05-13-2004,14:00,METAR,,320,12.0,,,9999.0,Cloud Development Not Observable,0.0,-3.0,30.29,1027.2,,,,0,0,0,,,,,,,,,7/8 Mostly Cloudy,1700.0,,BKN,1700.0,BKN,25000.0,,,,
KRDR,05-13-2004,13:10,SPECI,,310,14.0,,,9999.0,Cloud Development Not Observable,-1.0,-3.0,30.26,,,,,0,0,0,,,,,,,,,7/8 Mostly Cloudy,1700.0,,BKN,1700.0,BKN,25000.0,,,,
KRDR,05-13-2004,13:00,METAR,,330,13.0,,,9999.0,Cloud Development Not Observable,-1.0,-3.0,30.26,1026.4,,,,0,0,0,,,,,,,,,7/8 Mostly Cloudy,25000.0,,SCT,1700.0,BKN,25000.0,,,,
KRDR,05-13-2004,12:00,METAR,,320,10.0,,,9999.0,Cloud Development Not Observable,-1.0,-4.0,30.24,1025.8,,,,0,0,0,,,,,,,,.14 IN,4/8 Partly Cloudy,72000.0,,FEW,3500.0,SCT,9900.0,,,,
KRDR,05-13-2004,11:00,METAR,,310,17.0,22.0,,9999.0,Cloud Development Not Observable,-1.0,-3.0,30.21,1024.7,,,,0,0,0,,,,,,,,,4/8 Partly Cloudy,72000.0,,SCT,3500.0,SCT,9900.0,,,,
KRDR,05-13-2004,10:25,METAR,,320,16.0,,,9999.0,Cloud Development Not Observable,-1.0,-4.0,30.21,,,,,0,0,0,,,,,,,,,4/8 Partly Cloudy,72000.0,,SCT,3500.0,SCT,9900.0,,,,
KRDR,05-13-2004,10:00,METAR,,310,17.0,,,9999.0,Cloud Development Not Observable,0.0,-3.0,30.20,1024.3,,,,0,0,0,,,,,,,,,7/8 Mostly Cloudy,2800.0,,BKN,2800.0,,,,,,
KRDR,05-13-2004,09:00,METAR,,330,14.0,20.0,,9999.0,Cloud Development Not Observable,0.0,-3.0,30.21,1024.6,,,,0,0,0,,,,,,,,,8/8 Overcast,2300.0,,OVC,2300.0,,,,,,
KRDR,05-13-2004,08:00,METAR,,320,17.0,,,9999.0,Cloud Development Not Observable,0.0,-2.0,30.17,1023.2,,,,0,0,0,,,,,,,,,8/8 Overcast,2000.0,,OVC,2000.0,,,,,,
KRDR,05-13-2004,07:00,METAR,,310,15.0,22.0,,9999.0,Cloud Development Not Observable,0.0,-1.0,30.14,1022.2,,,,0,0,0,,,,,,,,,8/8 Overcast,1600.0,,OVC,1600.0,,,,,,
KRDR,05-13-2004,06:00,METAR,,310,17.0,,,9999.0,Cloud Development Not Observable,1.0,-1.0,30.12,1021.5,,,,0,0,0,,,,,,,IN,,8/8 Overcast,1800.0,,OVC,1800.0,,,,,,
KRDR,05-13-2004,05:23,SPECI,,340,18.0,,,9999.0,Cloud Development Not Observable,1.0,0.0,30.10,,,,,0,0,0,,,,,,,,,8/8 Overcast,2200.0,,FEW,1500.0,SCT,2200.0,OVC,2700.0,,
KRDR,05-13-2004,05:10,SPECI,,330,16.0,,,8000.0,Light Snow/Cloud Development Not Observable,1.0,0.0,30.09,,,,,71,0,0,,,,,,,,,8/8 Overcast,1700.0,,FEW,1300.0,OVC,1700.0,,,,
KRDR,05-13-2004,05:00,METAR,,330,18.0,,,9999.0,Cloud Development Not Observable,1.0,0.0,30.09,1020.4,,,,0,0,0,,,,,,,,,8/8 Overcast,1700.0,,FEW,1300.0,OVC,1700.0,,,,
KRDR,05-13-2004,04:00,METAR,,330,17.0,,,9999.0,Cloud Development Not Observable,2.0,0.0,30.06,1019.4,,,,0,0,0,,,,,,,,,8/8 Overcast,2000.0,,FEW,1600.0,OVC,2000.0,,,,
KRDR,05-13-2004,03:00,METAR,,330,16.0,,,9999.0,Cloud Development Not Observable,2.0,0.0,30.04,1018.7,,,,0,0,0,,,,,,TRACE,,,8/8 Overcast,1900.0,,FEW,1300.0,OVC,1900.0,,,,
KRDR,05-13-2004,02:06,SPECI,,330,18.0,,,9999.0,Cloud Development Not Observable,2.0,1.0,30.01,,,,,0,0,0,,,,,,,,,8/8 Overcast,1700.0,,FEW,1200.0,BKN,1700.0,OVC,2700.0,,
KRDR,05-13-2004,02:00,METAR,,320,14.0,21.0,,9999.0,Light Snow/Cloud Development Not Observable,2.0,1.0,30.00,1017.3,,,,71,0,0,,,,,,,,,8/8 Overcast,2000.0,,FEW,1200.0,BKN,2000.0,OVC,2700.0,,
KRDR,05-13-2004,01:22,SPECI,,320,18.0,,,9999.0,Light Snow/Cloud Development Not Observable,2.0,1.0,29.98,,,,,71,0,0,,,,,,,,,8/8 Overcast,2000.0,,FEW,800.0,BKN,2000.0,OVC,3000.0,,
KRDR,05-13-2004,01:00,METAR,,330,17.0,,,9999.0,Cloud Development Not Observable,2.0,1.0,29.96,1015.9,,,,0,0,0,,,,,,,,,8/8 Overcast,2200.0,,FEW,1700.0,BKN,2200.0,OVC,3000.0,,
KRDR,05-13-2004,00:00,METAR,,320,19.0,,,9999.0,Cloud Development Not Observable,4.0,2.0,29.90,1013.9,,,,0,0,0,,,,,,,IN,,8/8 Overcast,2200.0,,FEW,1500.0,BKN,2200.0,OVC,3500.0,,
KRDR,05-12-2004,23:00,METAR,,320,14.0,,,9999.0,Cloud Development Not Observable,4.0,2.0,29.86,1012.7,,,,0,0,0,,,,,,,,,7/8 Mostly Cloudy,2200.0,,FEW,1000.0,BKN,2200.0,,,,
KRDR,05-12-2004,22:00,METAR,,310,16.0,,,9999.0,Cloud Development Not Observable,5.0,3.0,29.82,1011.3,,,,0,0,0,,,,,,,,,8/8 Overcast,2500.0,,OVC,2500.0,,,,,,
KRDR,05-12-2004,21:00,METAR,,310,14.0,,,9999.0,Cloud Development Not Observable,6.0,4.0,29.79,1010.1,,,,0,0,0,,,,,,TRACE,,,8/8 Overcast,2100.0,,OVC,2100.0,,,,,,
KRDR,05-12-2004,20:44,SPECI,,300,14.0,,,9999.0,Cloud Development Not Observable,6.0,4.0,29.78,,,,,0,0,0,,,,,,,,,8/8 Overcast,2100.0,,OVC,2100.0,,,,,,
KRDR,05-12-2004,20:00,METAR,,300,13.0,19.0,,9999.0,Cloud Development Not Observable,5.0,4.0,29.77,1009.3,,,,0,0,0,,,,,,,,,8/8 Overcast,1400.0,,OVC,1400.0,,,,,,
KRDR,05-12-2004,19:03,SPECI,,310,13.0,,,9999.0,Cloud Development Not Observable,5.0,5.0,29.74,,,,,0,0,0,,,,,,,,,8/8 Overcast,1200.0,,OVC,1200.0,,,,,,
KRDR,05-12-2004,19:00,METAR,,310,13.0,,,9999.0,Cloud Development Not Observable,5.0,5.0,29.74,1008.5,,,,0,0,0,,,,,,,,,7/8 Mostly Cloudy,900.0,,BKN,900.0,BKN,15000.0,,,,
KRDR,05-12-2004,18:24,SPECI,,290,15.0,,,9999.0,Mist/Cloud Development Not Observable,4.0,4.0,29.75,,,,,10,0,0,,,,,,,,,8/8 Overcast,900.0,,OVC,900.0,,,,,,
KRDR,05-12-2004,18:00,METAR,,290,14.0,,,2400.0,Drizzle/Mist/Cloud Development Not Observable,4.0,4.0,29.74,1008.5,,,,51,10,0,,,,,,,.14 IN,,8/8 Overcast,800.0,,OVC,800.0,,,,,,
KRDR,05-12-2004,17:38,SPECI,,300,11.0,,,2400.0,Drizzle/Mist/Cloud Development Not Observable,4.0,4.0,29.74,,,,,51,10,0,,,,,,,,,8/8 Overcast,800.0,,OVC,800.0,,,,,,
KRDR,05-12-2004,17:00,METAR,,310,7.0,,,9999.0,Drizzle/Mist/Cloud Development Not Observable,4.0,4.0,29.73,1008.1,,,,51,10,0,,,,,,,,,8/8 Overcast,800.0,,OVC,800.0,,,,,,
KRDR,05-12-2004,16:05,SPECI,,30,13.0,,,6400.0,Drizzle/Mist/Cloud Development Not Observable,3.0,3.0,29.68,,,,,51,10,0,,,,,,,,,8/8 Overcast,800.0,,OVC,800.0,,,,,,
KRDR,05-12-2004,16:00,METAR,,10,11.0,,,8000.0,Mist/Cloud Development Not Observable,3.0,3.0,29.67,1006.0,,,,10,0,0,,,,,,,,,8/8 Overcast,900.0,,OVC,900.0,,,,,,
KRDR,05-12-2004,15:42,SPECI,,20,12.0,,,8000.0,Mist/Cloud Development Not Observable,3.0,3.0,29.67,,,,,10,0,0,,,,,,,,,8/8 Overcast,900.0,,OVC,900.0,,,,,,
KRDR,05-12-2004,15:09,SPECI,,30,11.0,,,4800.0,Drizzle/Mist/Cloud Development Not Observable,3.0,3.0,29.68,,,,,51,10,0,,,,,,,,,8/8 Overcast,600.0,,OVC,600.0,,,,,,
KRDR,05-12-2004,15:00,METAR,,20,13.0,,,2400.0,Drizzle/Mist/Cloud Development Not Observable,3.0,3.0,29.68,1006.1,,,,51,10,0,,,,,,.09 IN,,,8/8 Overcast,600.0,,OVC,600.0,,,,,,
KRDR,05-12-2004,14:38,SPECI,,10,12.0,,,2400.0,Drizzle/Mist/Cloud Development Not Observable,3.0,3.0,29.70,,,,,51,10,0,,,,,,,,,8/8 Overcast,600.0,,OVC,600.0,,,,,,
KRDR,05-12-2004,14:17,SPECI,,360,11.0,,,4800.0,Drizzle/Mist/Cloud Development Not Observable,2.0,2.0,29.69,,,,,51,10,0,,,,,,,,,8/8 Overcast,600.0,,OVC,600.0,,,,,,
KRDR,05-12-2004,14:00,METAR,,10,16.0,22.0,360/25KTS,6400.0,Rain/Mist/Cloud Development Not Observable,2.0,2.0,29.67,1006.1,,,,61,10,0,,,,,,,,,8/8 Overcast,500.0,,OVC,500.0,,,,,,
KRDR,05-12-2004,13:00,METAR,,10,18.0,25.0,010/25KTS,6400.0,Rain/Mist/Cloud Development Not Observable,2.0,2.0,29.65,1005.4,,,,61,10,0,,,,,,,,,8/8 Overcast,500.0,,OVC,500.0,,,,,,
KRDR,05-12-2004,12:40,SPECI,,360,18.0,25.0,,6400.0,Rain/Mist/Cloud Development Not Observable,2.0,2.0,29.66,,,,,61,10,0,,,,,,,,,8/8 Overcast,500.0,,OVC,500.0,,,,,,
KRDR,05-12-2004,12:00,METAR,,360,19.0,24.0,,6400.0,Rain/Mist/Cloud Development Not Observable,2.0,2.0,29.67,1006.1,,,,61,10,0,,,,,,,.42 IN,2.12 IN,8/8 Overcast,700.0,,SCT,500.0,OVC,700.0,,,,
KRDR,05-12-2004,11:13,SPECI,,360,17.0,21.0,,6400.0,Rain/Mist/Cloud Development Not Observable,2.0,2.0,29.68,,,,,61,10,0,,,,,,,,,8/8 Overcast,700.0,,FEW,500.0,OVC,700.0,,,,
KRDR,05-12-2004,11:00,METAR,,350,17.0,21.0,,3200.0,Rain/Mist/Cloud Development Not Observable,2.0,2.0,29.68,1006.4,,,,61,10,0,,,,,,,,,8/8 Overcast,700.0,,FEW,500.0,OVC,700.0,,,,
KRDR,05-12-2004,10:13,SPECI,,360,17.0,21.0,,3200.0,Rain/Mist/Cloud Development Not Observable,2.0,2.0,29.66,,,,,61,10,0,,,,,,,,,8/8 Overcast,700.0,,FEW,500.0,OVC,700.0,,,,
KRDR,05-12-2004,10:00,METAR,,360,13.0,21.0,,6400.0,Rain/Mist/Cloud Development Not Observable,2.0,2.0,29.67,1006.1,,,,61,10,0,,,,,,,,,8/8 Overcast,700.0,,FEW,500.0,OVC,700.0,,,,
KRDR,05-12-2004,09:00,METAR,,360,17.0,22.0,,9999.0,Rain/Mist/Cloud Development Not Observable,2.0,2.0,29.63,1004.7,,,,61,10,0,,,,,,,,,8/8 Overcast,700.0,,FEW,500.0,OVC,700.0,,,,
KRDR,05-12-2004,08:09,SPECI,,350,16.0,21.0,,9999.0,Rain/Mist/Cloud Development Not Observable,2.0,2.0,29.66,,,,,61,10,0,,,,,,,,,8/8 Overcast,900.0,,FEW,500.0,OVC,900.0,,,,
KRDR,05-12-2004,08:00,METAR,,10,14.0,20.0,010/31KTS,3200.0,Rain/Mist/Cloud Development Not Observable,2.0,2.0,29.65,1005.4,,,,61,10,0,,,,,,,,,8/8 Overcast,900.0,,FEW,600.0,OVC,900.0,,,,
KRDR,05-12-2004,07:00,METAR,,10,14.0,22.0,010/30KTS,3200.0,Rain/Mist/Cloud Development Not Observable,2.0,2.0,29.69,1006.8,,,,61,10,0,,,,,,,,,8/8 Overcast,800.0,,FEW,600.0,OVC,800.0,,,,
KRDR,05-12-2004,06:00,METAR,,340,15.0,24.0,010/26KTS,3200.0,Rain/Mist/Cloud Development Not Observable,2.0,2.0,29.69,1006.8,,,,61,10,0,,,,,,,.81 IN,,,,,,,,,,,,
KRDR,05-12-2004,05:00,METAR,,20,18.0,,020/27KTS,3200.0,Rain/Mist/Cloud Development Not Observable,2.0,2.0,29.71,1007.5,,,,61,10,0,,,,,,,,,8/8 Overcast,900.0,,FEW,600.0,OVC,900.0,,,,
KRDR,05-12-2004,04:45,METAR,,20,13.0,,,3200.0,Rain/Mist/Cloud Development Not Observable,2.0,2.0,29.73,,,,,61,10,0,,,,,,,,,8/8 Overcast,700.0,,FEW,400.0,OVC,700.0,,,,
KRDR,05-12-2004,04:20,METAR,,20,22.0,27.0,,4800.0,Thunderstorm with Rain or Snow/Light Rain Showers/Mist,2.0,2.0,29.66,,,,,95,80,10,,,,,,,,,8/8 Overcast,700.0,,FEW,400.0,OVC,700.0,,,,
KRDR,05-12-2004,04:08,SPECI,,360,17.0,24.0,,4800.0,Rain/Mist/Cloud Development Not Observable,2.0,2.0,29.69,,,,,61,10,0,,,,,,,,,8/8 Overcast,700.0,,FEW,400.0,OVC,700.0,,,,
KRDR,05-12-2004,04:00,METAR,,10,17.0,,,9999.0,Thunderstorm with Rain or Snow/Light Rain Showers/Cloud Development Not Observable,3.0,3.0,29.68,1006.4,,,,95,80,0,,,,,,,,,8/8 Overcast,800.0,,FEW,400.0,OVC,800.0,,,,
KRDR,05-12-2004,03:20,METAR,,10,18.0,,,4800.0,Thunderstorm with Rain or Snow/Light Rain Showers/Cloud Development Not Observable,3.0,3.0,29.68,,,,,95,80,0,,,,,,,,,8/8 Overcast,800.0,,FEW,400.0,OVC,800.0,,,,
KRDR,05-12-2004,03:00,METAR,,10,17.0,24.0,040/34KTS,1600.0,Thunderstorm with Rain or Snow/Rain Showers/Cloud Development Not Observable,3.0,3.0,29.70,1007.1,,,,95,81,0,,,,,,,,,8/8 Overcast,800.0,,FEW,400.0,OVC,800.0,,,,
KRDR,05-12-2004,02:36,SPECI,,10,17.0,24.0,,1600.0,Thunderstorm with Rain or Snow/Rain Showers/Cloud Development Not Observable,3.0,3.0,29.70,,,,,95,81,0,,,,,,,,,8/8 Overcast,800.0,,FEW,400.0,OVC,800.0,,,,
KRDR,05-12-2004,02:32,SPECI,,10,15.0,27.0,,1600.0,Thunderstorm and Hail/Snow Pellets or Hail/Rain Showers,3.0,3.0,29.71,,,,,96,81,88,,,,,,,,,8/8 Overcast,1000.0,,FEW,600.0,OVC,1000.0,,,,
KRDR,05-12-2004,02:00,METAR,,10,19.0,27.0,030/36KTS,9999.0,Thunderstorm with Rain or Snow/Light Rain Showers/Cloud Development Not Observable,3.0,3.0,29.72,1007.8,,,,95,80,0,,,,,,,,,8/8 Overcast,1200.0,,FEW,600.0,OVC,1200.0,,,,
KRDR,05-12-2004,01:00,METAR,,40,21.0,29.0,030/30KTS,6400.0,Thunderstorm with Rain or Snow/Light Rain Showers/Cloud Development Not Observable,2.0,2.0,29.65,1005.4,,,,95,80,0,,,,,,,,,8/8 Overcast,1500.0,,FEW,600.0,SCT,1500.0,OVC,2200.0,,
KRDR,05-12-2004,00:30,METAR,,30,19.0,30.0,,6400.0,Thunderstorm with Rain or Snow/Light Rain Showers/Cloud Development Not Observable,3.0,3.0,29.68,,,,,95,80,0,,,,,,,,,8/8 Overcast,1500.0,,FEW,600.0,OVC,1500.0,,,,
KRDR,05-12-2004,00:00,METAR,,50,20.0,28.0,040/29KTS,9999.0,Thunderstorm/Cloud Development Not Observable,2.0,2.0,29.66,1005.7,,,,17,0,0,,,,,,,.57 IN,,8/8 Overcast,1100.0,,FEW,800.0,OVC,1100.0,,,,
KRDR,05-11-2004,23:29,SPECI,,50,19.0,,,9999.0,Thunderstorm/Cloud Development Not Observable,2.0,2.0,29.69,,,,,17,0,0,,,,,,,,,8/8 Overcast,1100.0,,SCT,800.0,OVC,1100.0,,,,
KRDR,05-11-2004,23:00,METAR,,60,23.0,31.0,050/34KTS,1600.0,Thunderstorm with Rain or Snow/Light Rain Showers/Cloud Development Not Observable,3.0,3.0,29.68,1006.4,,,,95,80,0,,,,,,,,,8/8 Overcast,1000.0,,OVC,1000.0,FEW,5000.0,,,,
KRDR,05-11-2004,22:11,SPECI,,50,20.0,30.0,,3200.0,Thunderstorm with Rain or Snow/Light Rain Showers/Cloud Development Not Observable,3.0,3.0,29.71,,,,,95,80,0,,,,,,,,,8/8 Overcast,1000.0,,OVC,1000.0,,,,,,
KRDR,05-11-2004,22:08,SPECI,,50,21.0,30.0,,9999.0,Thunderstorm and Hail/Light Snow Pellets or Hail/Light Rain Showers,3.0,3.0,29.71,,,,,96,80,87,,,,,,,,,8/8 Overcast,1000.0,,OVC,1000.0,,,,,,
KRDR,05-11-2004,22:00,METAR,,50,21.0,31.0,050/31KTS,9999.0,Thunderstorm with Rain or Snow/Light Rain Showers/Cloud Development Not Observable,3.0,3.0,29.73,1008.0,,,,95,80,0,,,,,,,,,8/8 Overcast,1100.0,,OVC,1100.0,FEW,5900.0,,,,
KRDR,05-11-2004,21:43,SPECI,,40,21.0,29.0,,9999.0,Thunderstorm with Rain or Snow/Light Rain Showers/Cloud Development Not Observable,3.0,3.0,29.72,,,,,95,80,0,,,,,,,,,8/8 Overcast,1000.0,,OVC,1000.0,,,,,,
KRDR,05-11-2004,21:00,METAR,,50,21.0,29.0,,9999.0,Light Rain Showers/Cloud Development Not Observable,3.0,3.0,29.76,1008.9,,,,80,0,0,,,,,,.05 IN,,,8/8 Overcast,1100.0,,SCT,600.0,OVC,1100.0,,,,
KRDR,05-11-2004,20:38,SPECI,,40,22.0,28.0,,9999.0,Light Rain Showers/Cloud Development Not Observable,3.0,3.0,29.77,,,,,80,0,0,,,,,,,,,8/8 Overcast,1100.0,,FEW,600.0,OVC,1100.0,,,,
KRDR,05-11-2004,20:00,METAR,,50,23.0,33.0,,9999.0,Cloud Development Not Observable,3.0,3.0,29.78,1009.7,,,,0,0,0,,,,,,,,,8/8 Overcast,1100.0,,OVC,1100.0,,,,,,
KRDR,05-11-2004,19:26,SPECI,,50,19.0,25.0,,8000.0,Mist/Cloud Development Not Observable,3.0,3.0,29.77,,,,,10,0,0,,,,,,,,,8/8 Overcast,1000.0,,SCT,700.0,OVC,1000.0,,,,
KRDR,05-11-2004,19:00,METAR,,50,18.0,28.0,,8000.0,Light Rain Showers/Mist/Cloud Development Not Observable,3.0,3.0,29.78,1009.7,,,,80,10,0,,,,,,,,,8/8 Overcast,1600.0,,FEW,900.0,OVC,1600.0,,,,
KRDR,05-11-2004,18:06,SPECI,,40,18.0,24.0,,8000.0,Light Rain Showers/Mist/Cloud Development Not Observable,3.0,3.0,29.81,,,,,80,10,0,,,,,,,,,8/8 Overcast,2200.0,,SCT,1800.0,OVC,2200.0,,,,
KRDR,05-11-2004,18:00,METAR,,30,16.0,,040/25KTS,6400.0,Thunderstorm with Rain or Snow/Light Rain Showers/Mist,3.0,3.0,29.82,1010.9,,,,95,80,10,,,,,,,.32 IN,,8/8 Overcast,2400.0,,FEW,800.0,OVC,2400.0,,,,
KRDR,05-11-2004,17:40,SPECI,,30,17.0,25.0,,4800.0,Thunderstorm with Rain or Snow/Light Rain Showers/Mist,3.0,3.0,29.82,,,,,95,80,10,,,,,,,,,8/8 Overcast,2500.0,,SCT,1800.0,OVC,2500.0,,,,
KRDR,05-11-2004,17:24,SPECI,,40,15.0,25.0,,8000.0,Light Rain Showers/Mist/Cloud Development Not Observable,3.0,2.0,29.82,,,,,80,10,0,,,,,,,,,8/8 Overcast,1800.0,,FEW,1500.0,BKN,1800.0,OVC,2500.0,,
KRDR,05-11-2004,17:00,METAR,,60,17.0,31.0,070/32KTS,9999.0,Cloud Development Not Observable,3.0,2.0,29.79,1009.9,,,,0,0,0,,,,,,,,,8/8 Overcast,2500.0,,FEW,1500.0,BKN,2500.0,OVC,3300.0,,
KRDR,05-11-2004,16:22,SPECI,,70,22.0,31.0,,9999.0,Light Rain Showers/Cloud Development Not Observable,3.0,2.0,29.80,,,,,80,0,0,,,,,,,,,8/8 Overcast,3200.0,,SCT,1500.0,OVC,3300.0,,,,
KRDR,05-11-2004,16:00,METAR,,60,19.0,30.0,,9999.0,Cloud Development Not Observable,3.0,2.0,29.83,1011.5,,,,0,0,0,,,,,,,,,8/8 Overcast,3200.0,,FEW,1500.0,OVC,3300.0,,,,
KRDR,05-11-2004,15:01,SPECI,,40,15.0,24.0,,9999.0,Cloud Development Not Observable,3.0,2.0,29.89,,,,,0,0,0,,,,,,,,,8/8 Overcast,1600.0,,FEW,1000.0,SCT,1600.0,OVC,4500.0,,
KRDR,05-11-2004,15:00,METAR,,40,19.0,25.0,060/27KTS,9999.0,Light Rain Showers/Cloud Development Not Observable,3.0,2.0,29.90,1013.5,,,,80,0,0,,,,,,.24 IN,,,8/8 Overcast,1600.0,,FEW,1000.0,SCT,1600.0,OVC,4500.0,,
KRDR,05-11-2004,14:10,SPECI,,40,13.0,,,9999.0,Light Rain Showers/Mist/Cloud Development Not Observable,2.0,2.0,29.92,,,,,80,10,0,,,,,,,,,8/8 Overcast,3000.0,,SCT,1500.0,BKN,3000.0,OVC,4700.0,,
KRDR,05-11-2004,14:00,METAR,,70,14.0,,070/31KTS,8000.0,Thunderstorm with Rain or Snow/Light Rain Showers/Mist,2.0,2.0,29.92,1014.2,,,,95,80,10,,,,,,,,,8/8 Overcast,2500.0,,SCT,1700.0,SCT,2500.0,OVC,4500.0,,
KRDR,05-11-2004,13:33,SPECI,,70,20.0,31.0,,6400.0,Thunderstorm with Rain or Snow/Light Rain Showers/Mist,2.0,2.0,29.90,,,,,95,80,10,,,,,,,,,8/8 Overcast,3900.0,,SCT,2500.0,OVC,4000.0,,,,
KRDR,05-11-2004,13:00,METAR,,40,16.0,,,6400.0,Light Rain Showers/Mist/Cloud Development Not Observable,3.0,2.0,29.92,1014.1,,,,80,10,0,,,,,,,,,8/8 Overcast,2000.0,,FEW,1000.0,SCT,2000.0,SCT,3500.0,OVC,5000.0
KRDR,05-11-2004,12:34,SPECI,,50,16.0,,,6400.0,Light Rain Showers/Mist/Cloud Development Not Observable,3.0,2.0,29.92,,,,,80,10,0,,,,,,,,,8/8 Overcast,4900.0,,SCT,2200.0,BKN,5000.0,OVC,5900.0,,
KRDR,05-11-2004,12:02,SPECI,,60,14.0,20.0,,9999.0,Thunderstorm with Rain or Snow/Light Rain Showers/Cloud Development Not Observable,3.0,2.0,29.95,,,,,95,80,0,,,,,,,,,8/8 Overcast,3400.0,,FEW,1500.0,SCT,3500.0,OVC,5000.0,,
KRDR,05-11-2004,12:00,METAR,,70,17.0,,,9999.0,Light Rain Showers/Mist/Cloud Development Not Observable,3.0,2.0,29.92,1014.1,,,,80,10,0,,,,,,,.09 IN,.1 IN,8/8 Overcast,3400.0,,FEW,1500.0,SCT,3500.0,OVC,5900.0,,
KRDR,05-11-2004,11:00,METAR,,60,17.0,,,9999.0,Ice Pellets/Rain/Cloud Development Not Observable,4.0,2.0,29.96,1015.6,,,,61,79,0,,,,,,,,,8/8 Overcast,7000.0,,SCT,3500.0,OVC,6900.0,,,,
KRDR,05-11-2004,10:37,SPECI,,60,11.0,,,9999.0,Light Snow Pellets or Hail/Light Rain Showers/Cloud Development Not Observable,4.0,2.0,29.99,,,,,80,87,0,,,,,,,,,8/8 Overcast,7000.0,,SCT,3500.0,OVC,6900.0,,,,
KRDR,05-11-2004,10:27,SPECI,,60,12.0,,,9999.0,Cloud Development Not Observable,4.0,2.0,30.00,,,,,0,0,0,,,,,,,,,8/8 Overcast,7000.0,,SCT,3500.0,OVC,6900.0,,,,
KRDR,05-11-2004,10:08,SPECI,,70,12.0,,,8000.0,Light Snow Pellets or Hail/Light Rain Showers/Cloud Development Not Observable,5.0,1.0,30.00,,,,,80,87,0,,,,,,,,,8/8 Overcast,7000.0,,SCT,3500.0,OVC,6900.0,,,,
KRDR,05-11-2004,10:00,METAR,,80,12.0,20.0,,9999.0,Cloud Development Not Observable,5.0,0.0,30.01,1017.3,,,,0,0,0,,,,,,,,,8/8 Overcast,7000.0,,SCT,5000.0,OVC,6900.0,,,,
KRDR,05-11-2004,09:21,SPECI,,90,15.0,,,9999.0,Cloud Development Not Observable,5.0,1.0,30.02,,,,,0,0,0,,,,,,,,,8/8 Overcast,5500.0,,FEW,3000.0,BKN,5400.0,OVC,7900.0,,
KRDR,05-11-2004,09:00,METAR,,60,15.0,22.0,,9999.0,Ice Pellets/Rain/Cloud Development Not Observable,5.0,0.0,30.03,1017.8,,,,61,79,0,,,,,,.02 IN,,,8/8 Overcast,5500.0,,FEW,3000.0,BKN,5400.0,OVC,7900.0,,
KRDR,05-11-2004,08:33,SPECI,,60,14.0,23.0,,9999.0,Cloud Development Not Observable,5.0,0.0,30.03,,,,,0,0,0,,,,,,,,,8/8 Overcast,8500.0,,SCT,5400.0,OVC,8400.0,,,,
KRDR,05-11-2004,08:24,SPECI,,60,16.0,23.0,,9999.0,Rain/Cloud Development Not Observable,5.0,-1.0,30.04,,,,,61,0,0,,,,,,,,,8/8 Overcast,8500.0,,SCT,5400.0,OVC,8400.0,,,,
KRDR,05-11-2004,08:11,SPECI,,70,17.0,,,9999.0,Light Snow Pellets or Hail/Light Rain Showers/Cloud Development Not Observable,6.0,-2.0,30.05,,,,,80,87,0,,,,,,,,,8/8 Overcast,5500.0,,BKN,5400.0,OVC,9400.0,,,,
KRDR,05-11-2004,08:07,SPECI,,70,17.0,,,9999.0,Light Rain Showers/Cloud Development Not Observable,7.0,-3.0,30.05,,,,,80,0,0,,,,,,,,,8/8 Overcast,5500.0,,BKN,5400.0,OVC,9400.0,,,,
KRDR,05-11-2004,08:00,METAR,,80,17.0,21.0,,9999.0,Cloud Development Not Observable,7.0,-3.0,30.08,1019.6,,,,0,0,0,,,,,,,,,8/8 Overcast,9500.0,,SCT,5900.0,OVC,9400.0,,,,
KRDR,05-11-2004,07:00,METAR,,70,11.0,,,9999.0,Cloud Development Not Observable,7.0,-3.0,30.12,1021.0,,,,0,0,0,,,,,,,,,8/8 Overcast,9500.0,,SCT,5900.0,OVC,9400.0,,,,
KRDR,05-11-2004,06:00,METAR,,70,9.0,,,9999.0,Cloud Development Not Observable,7.0,-3.0,30.15,1022.0,,,,0,0,0,,,,,,,.01 IN,,8/8 Overcast,7000.0,,BKN,6900.0,OVC,9900.0,,,,
KRDR,05-11-2004,05:00,METAR,,80,10.0,,,9999.0,Cloud Development Not Observable,8.0,-3.0,30.17,1022.7,,,,0,0,0,,,,,,,,,8/8 Overcast,8500.0,,FEW,5000.0,OVC,8400.0,,,,
KRDR,05-11-2004,04:11,SPECI,,80,7.0,,,9999.0,Precipitation in the Vicinity/Cloud Development Not Observable,8.0,-1.0,30.16,,,,,16,0,0,,,,,,,,,8/8 Overcast,8500.0,,SCT,5000.0,OVC,8400.0,,,,
KRDR,05-11-2004,04:00,METAR,,80,6.0,,,9999.0,Light Rain Showers/Cloud Development Not Observable,8.0,-2.0,30.16,1022.2,,,,80,0,0,,,,,,,,,8/8 Overcast,8500.0,,SCT,5000.0,OVC,8400.0,,,,
KRDR,05-11-2004,03:40,SPECI,,80,6.0,,,9999.0,Light Rain Showers/Cloud Development Not Observable,8.0,-4.0,30.16,,,,,80,0,0,,,,,,,,,8/8 Overcast,8500.0,,SCT,5000.0,OVC,8400.0,,,,
KRDR,05-11-2004,03:00,METAR,,70,6.0,,,9999.0,Cloud Development Not Observable,10.0,-8.0,30.16,1022.2,,,,0,0,0,,,,,,,,,8/8 Overcast,8000.0,,BKN,7900.0,OVC,25000.0,,,,
KRDR,05-11-2004,02:00,METAR,,60,6.0,,,9999.0,Precipitation in the Vicinity/Cloud Development Not Observable,10.0,-9.0,30.14,1021.5,,,,16,0,0,,,,,,,,,7/8 Mostly Cloudy,9000.0,,BKN,8900.0,BKN,25000.0,,,,
KRDR,05-11-2004,01:00,METAR,,40,7.0,,,9999.0,Cloud Development Not Observable,11.0,-10.0,30.13,1021.2,,,,0,0,0,,,,,,,,,7/8 Mostly Cloudy,10000.0,,BKN,9900.0,BKN,25000.0,,,,
KRDR,05-11-2004,00:00,METAR,,,6.0,,,9999.0,Cloud Development Not Observable,12.0,-10.0,30.13,1021.2,,,,0,0,0,,,,,,,,,4/8 Partly Cloudy,72000.0,,SCT,25000.0,,,,,,
KRDR,05-10-2004,23:00,METAR,,30,8.0,,,9999.0,Cloud Development Not Observable,13.0,-11.0,30.14,1021.7,,,,0,0,0,,,,,,,,,2/8 Mostly Clear,72000.0,,FEW,25000.0,,,,,,
KRDR,05-10-2004,22:00,METAR,,350,7.0,,,9999.0,Cloud Development Not Observable,13.0,-11.0,30.15,1022.0,,,,0,0,0,,,,,,,,,2/8 Mostly Clear,72000.0,,FEW,25000.0,,,,,,
KRDR,05-10-2004,21:00,METAR,,360,12.0,18.0,,9999.0,Cloud Development Not Observable,13.0,-12.0,30.17,1022.7,,,,0,0,0,,,,,,,,,2/8 Mostly Clear,72000.0,,FEW,25000.0,,,,,,
KRDR,05-10-2004,20:00,METAR,,330,13.0,19.0,,9999.0,Cloud Development Not Observable,12.0,-13.0,30.19,1023.4,,,,0,0,0,,,,,,,,,Clear,72000.0,,,73000.0,,,,,,
KRDR,05-10-2004,19:00,METAR,,320,11.0,,,9999.0,Cloud Development Not Observable,12.0,-11.0,30.20,1023.7,,,,0,0,0,,,,,,,,,Clear,72000.0,,,73000.0,,,,,,
KRDR,05-10-2004,18:00,METAR,,340,14.0,23.0,,9999.0,Cloud Development Not Observable,11.0,-13.0,30.20,1023.2,,,,0,0,0,,,,,,,,,Clear,72000.0,,,73000.0,,,,,,
KRDR,05-10-2004,17:00,METAR,,340,14.0,24.0,320/26KTS,9999.0,Cloud Development Not Observable,11.0,-10.0,30.19,1023.2,,,,0,0,0,,,,,,,,,Clear,72000.0,,,73000.0,,,,,,
KRDR,05-10-2004,16:00,METAR,,320,16.0,24.0,,9999.0,Cloud Development Not Observable,10.0,-8.0,30.19,1023.2,,,,0,0,0,,,,,,,,,Clear,72000.0,,,73000.0,,,,,,
KRDR,05-10-2004,15:00,METAR,,330,20.0,27.0,,9999.0,Cloud Development Not Observable,9.0,-7.0,30.17,1022.3,,,,0,0,0,,,,,,,,,Clear,72000.0,,,73000.0,,,,,,
KRDR,05-10-2004,14:00,METAR,,340,16.0,23.0,,9999.0,Cloud Development Not Observable,8.0,-7.0,30.15,1021.7,,,,0,0,0,,,,,,,,,Clear,72000.0,,,73000.0,,,,,,
KRDR,05-10-2004,13:00,METAR,,330,15.0,,,9999.0,Cloud Development Not Observable,7.0,-4.0,30.12,1020.6,,,,0,0,0,,,,,,,,,Clear,72000.0,,,73000.0,,,,,,
KRDR,05-10-2004,12:00,METAR,,310,11.0,,,9999.0,Cloud Development Not Observable,4.0,-2.0,30.09,1019.6,,,,0,0,0,,,,,,,,.02 IN,Clear,72000.0,,,73000.0,,,,,,
KRDR,05-10-2004,11:00,METAR,,300,9.0,,,9999.0,Cloud Development Not Observable,4.0,-1.0,30.04,1017.9,,,,0,0,0,,,,,,,,,Clear,72000.0,,,73000.0,,,,,,
KRDR,05-10-2004,10:00,METAR,,290,8.0,,,9999.0,Cloud Development Not Observable,5.0,-1.0,30.00,1016.4,,,,0,0,0,,,,,,,,,Clear,72000.0,,,73000.0,,,,,,
KRDR,05-10-2004,09:00,METAR,,310,10.0,,,9999.0,Cloud Development Not Observable,6.0,-1.0,29.95,1014.6,,,,0,0,0,,,,,,,,,Clear,72000.0,,,73000.0,,,,,,
KRDR,05-10-2004,08:00,METAR,,310,5.0,,,9999.0,Cloud Development Not Observable,6.0,0.0,29.93,1014.1,,,,0,0,0,,,,,,,,,Clear,72000.0,,,73000.0,,,,,,
KRDR,05-10-2004,07:00,METAR,,310,11.0,,,9999.0,Cloud Development Not Observable,9.0,2.0,29.89,1012.7,,,,0,0,0,,,,,,,,,Clear,72000.0,,,73000.0,,,,,,
KRDR,05-10-2004,06:00,METAR,,320,11.0,,,9999.0,Cloud Development Not Observable,11.0,5.0,29.82,1010.5,,,,0,0,0,,,,,,,,,Clear,72000.0,,,73000.0,,,,,,
KRDR,05-10-2004,05:00,METAR,,310,15.0,,,9999.0,Cloud Development Not Observable,13.0,5.0,29.80,1009.6,,,,0,0,0,,,,,,,,,Clear,72000.0,,,73000.0,,,,,,
KRDR,05-10-2004,04:00,METAR,,310,19.0,28.0,,9999.0,Cloud Development Not Observable,16.0,5.0,29.77,1008.6,,,,0,0,0,,,,,,,,,2/8 Mostly Clear,72000.0,,FEW,9900.0,,,,,,
KRDR,05-10-2004,03:00,METAR,,310,23.0,29.0,,9999.0,Cloud Development Not Observable,18.0,4.0,29.73,1004.3,,,,0,0,0,,,,,,,,,2/8 Mostly Clear,72000.0,,FEW,9900.0,,,,,,
KRDR,05-10-2004,02:00,METAR,,270,16.0,,270/25KTS,9999.0,Cloud Development Not Observable,21.0,0.0,29.65,1004.3,,,,0,0,0,,,,,,,,,4/8 Partly Cloudy,72000.0,,FEW,5900.0,FEW,9900.0,SCT,25000.0,,
KRDR,05-10-2004,01:00,METAR,,280,19.0,26.0,260/30KTS,9999.0,Cloud Development Not Observable,23.0,-3.0,29.63,1003.6,,,,0,0,0,,,,,,,,,7/8 Mostly Cloudy,25000.0,,FEW,5400.0,FEW,9900.0,BKN,25000.0,,
KRDR,05-10-2004,00:00,METAR,,280,22.0,28.0,,9999.0,Cloud Development Not Observable,25.0,-2.0,29.62,1003.4,,,,0,0,0,,,,,,,,,7/8 Mostly Cloudy,10000.0,,FEW,5400.0,SCT,9900.0,BKN,25000.0,,
KRDR,05-09-2004,23:00,METAR,,280,20.0,25.0,,9999.0,Cloud Development Not Observable,25.0,3.0,29.62,1003.1,,,,0,0,0,,,,,,,,,4/8 Partly Cloudy,72000.0,,FEW,5400.0,SCT,9900.0,SCT,25000.0,,
KRDR,05-09-2004,22:00,METAR,,270,15.0,,,9999.0,Cloud Development Not Observable,26.0,7.0,29.61,1002.8,,,,0,0,0,,,,,,,,,7/8 Mostly Cloudy,10000.0,,SCT,6900.0,SCT,9900.0,BKN,25000.0,,
KRDR,05-09-2004,21:00,METAR,,280,11.0,18.0,,9999.0,Cloud Development Not Observable,26.0,6.0,29.61,1002.7,,,,0,0,0,,,,,,,,,4/8 Partly Cloudy,72000.0,,FEW,5400.0,FEW,11000.0,SCT,25000.0,,
KRDR,05-09-2004,20:00,METAR,,290,12.0,,,9999.0,Cloud Development Not Observable,25.0,7.0,29.63,1003.4,,,,0,0,0,,,,,,,,,7/8 Mostly Cloudy,10000.0,,FEW,6400.0,BKN,9900.0,BKN,25000.0,,
KRDR,05-09-2004,19:00,METAR,,260,14.0,,,9999.0,Cloud Development Not Observable,22.0,11.0,29.64,1003.8,,,,0,0,0,,,,,,,,,7/8 Mostly Cloudy,10000.0,,SCT,6400.0,BKN,9900.0,BKN,25000.0,,
KRDR,05-09-2004,18:00,METAR,,230,16.0,,,9999.0,Cloud Development Not Observable,20.0,16.0,29.67,1005.1,,,,0,0,0,,,,,,,.02 IN,,7/8 Mostly Cloudy,10000.0,,FEW,5000.0,SCT,9900.0,BKN,25000.0,,
KRDR,05-09-2004,17:20,METAR,,220,10.0,,,9999.0,Cloud Development Not Observable,16.0,14.0,29.69,,,,,0,0,0,,,,,,,,,7/8 Mostly Cloudy,10000.0,,SCT,5000.0,BKN,9900.0,BKN,25000.0,,
KRDR,05-09-2004,17:00,METAR,,240,17.0,,,9999.0,Light Rain Showers/Cloud Development Not Observable,15.0,14.0,29.71,1006.6,,,,80,0,0,,,,,,,,,7/8 Mostly Cloudy,4900.0,,BKN,5000.0,BKN,9900.0,BKN,25000.0,,
KRDR,05-09-2004,16:18,SPECI,,210,11.0,,,9999.0,Light Rain Showers/Cloud Development Not Observable,16.0,14.0,29.68,,,,,80,0,0,,,,,,,,,7/8 Mostly Cloudy,10000.0,,SCT,6900.0,BKN,9900.0,BKN,25000.0,,
KRDR,05-09-2004,16:00,METAR,,220,7.0,,,9999.0,Cloud Development Not Observable,17.0,14.0,29.68,1005.4,,,,0,0,0,,,,,,,,,8/8 Overcast,10000.0,,BKN,9900.0,OVC,25000.0,,,,
KRDR,05-09-2004,15:00,METAR,,220,10.0,,,9999.0,Cloud Development Not Observable,18.0,14.0,29.64,1004.0,,,,0,0,0,,,,,,,,,8/8 Overcast,25000.0,,OVC,25000.0,,,,,,
KRDR,05-09-2004,14:00,METAR,,180,17.0,,,9999.0,Cloud Development Not Observable,18.0,13.0,29.66,1004.7,,,,0,0,0,,,,,,,,,7/8 Mostly Cloudy,25000.0,,SCT,9900.0,BKN,25000.0,,,,
KRDR,05-09-2004,13:00,METAR,,180,14.0,,,9999.0,Cloud Development Not Observable,16.0,12.0,29.67,1005.0,,,,0,0,0,,,,,,,,,4/8 Partly Cloudy,72000.0,,SCT,9900.0,SCT,25000.0,,,,
KRDR,05-09-2004,12:00,METAR,,170,12.0,,,9999.0,Cloud Development Not Observable,14.0,12.0,29.69,1005.7,,,,0,0,0,,,,,,,,.01 IN,4/8 Partly Cloudy,72000.0,,SCT,8900.0,SCT,25000.0,,,,
KRDR,05-09-2004,11:00,METAR,,160,13.0,,,9999.0,Cloud Development Not Observable,15.0,12.0,29.69,1005.7,,,,0,0,0,,,,,,,,,4/8 Partly Cloudy,72000.0,,FEW,8900.0,SCT,25000.0,,,,
KRDR,05-09-2004,09:00,METAR,,160,15.0,,,9999.0,Cloud Development Not Observable,16.0,12.0,29.70,1005.8,,,,0,0,0,,,,,,,,,8/8 Overcast,9000.0,,FEW,3500.0,SCT,8900.0,OVC,25000.0,,
KRDR,05-09-2004,08:00,METAR,,170,18.0,,180/36KTS,9999.0,Cloud Development Not Observable,17.0,12.0,29.70,1005.8,,,,0,0,0,,,,,,,,,8/8 Overcast,25000.0,,SCT,7900.0,OVC,25000.0,,,,
KRDR,05-09-2004,07:00,METAR,,190,28.0,32.0,130/34KTS,9999.0,Cloud Development Not Observable,20.0,10.0,,,,,,0,0,0,,,,,,,,,8/8 Overcast,8000.0,,BKN,7900.0,OVC,25000.0,,,,
KRDR,05-09-2004,06:00,METAR,,220,11.0,,260/27KTS,9999.0,Cloud Development Not Observable,15.0,14.0,29.80,1009.6,,,,0,0,0,,,,,,,.01 IN,,8/8 Overcast,8000.0,,BKN,7900.0,OVC,25000.0,,,,
KRDR,05-09-2004,05:12,SPECI,,230,15.0,,,9999.0,Light Rain Showers/Cloud Development Not Observable,18.0,7.0,29.83,,,,,80,0,0,,,,,,,,,8/8 Overcast,10000.0,,FEW,5000.0,BKN,9900.0,OVC,25000.0,,
KRDR,05-09-2004,05:00,METAR,,,5.0,,,9999.0,Cloud Development Not Observable,15.0,6.0,29.81,1009.9,,,,0,0,0,,,,,,,,,8/8 Overcast,10000.0,,BKN,9900.0,OVC,25000.0,,,,
KRDR,05-09-2004,04:00,METAR,,130,6.0,,,9999.0,Cloud Development Not Observable,17.0,4.0,29.78,1008.9,,,,0,0,0,,,,,,,,,8/8 Overcast,25000.0,,FEW,15000.0,OVC,25000.0,,,,
KRDR,05-09-2004,03:00,METAR,,100,5.0,,,9999.0,Cloud Development Not Observable,17.0,2.0,29.78,1009.1,,,,0,0,0,,,,,,,,,8/8 Overcast,25000.0,,OVC,25000.0,,,,,,
KRDR,05-09-2004,02:00,METAR,,100,6.0,,,9999.0,Cloud Development Not Observable,19.0,0.0,29.79,1009.3,,,,0,0,0,,,,,,,,,7/8 Mostly Cloudy,25000.0,,BKN,25000.0,,,,,,
KRDR,05-09-2004,01:00,METAR,,110,7.0,,,9999.0,Cloud Development Not Observable,22.0,-1.0,29.82,1010.2,,,,0,0,0,,,,,,,,,7/8 Mostly Cloudy,25000.0,,BKN,25000.0,,,,,,
KRDR,05-09-2004,00:00,METAR,,130,11.0,,,9999.0,Cloud Development Not Observable,22.0,-1.0,29.85,1011.3,,,,0,0,0,,,,,,,,,7/8 Mostly Cloudy,25000.0,,BKN,25000.0,,,,,,
KRDR,05-08-2004,23:00,METAR,,120,10.0,,,9999.0,Cloud Development Not Observable,23.0,-2.0,29.88,1012.4,,,,0,0,0,,,,,,,,,4/8 Partly Cloudy,72000.0,,SCT,25000.0,,,,,,
KRDR,05-08-2004,22:00,METAR,,90,11.0,,,9999.0,Cloud Development Not Observable,24.0,-1.0,29.89,1012.5,,,,0,0,0,,,,,,,,,2/8 Mostly Clear,72000.0,,FEW,9900.0,FEW,25000.0,,,,
KRDR,05-08-2004,21:00,METAR,,60,6.0,,,9999.0,Cloud Development Not Observable,23.0,-1.0,29.92,1013.5,,,,0,0,0,,,,,,,,,4/8 Partly Cloudy,72000.0,,FEW,9900.0,SCT,25000.0,,,,
KRDR,05-08-2004,20:00,METAR,,50,12.0,,,9999.0,Cloud Development Not Observable,22.0,1.0,29.95,1014.6,,,,0,0,0,,,,,,,,,7/8 Mostly Cloudy,10000.0,,BKN,9900.0,,,,,,
KRDR,05-08-2004,19:00,METAR,,40,8.0,,,9999.0,Cloud Development Not Observable,20.0,2.0,29.97,1015.4,,,,0,0,0,,,,,,,,,7/8 Mostly Cloudy,10000.0,,SCT,6900.0,BKN,9900.0,BKN,25000.0,,
KRDR,05-08-2004,18:00,METAR,,40,8.0,,,9999.0,Cloud Development Not Observable,19.0,3.0,29.99,1016.1,,,,0,0,0,,,,,,,,,4/8 Partly Cloudy,72000.0,,SCT,9900.0,SCT,25000.0,,,,
KRDR,05-08-2004,17:00,METAR,,360,7.0,,,9999.0,Cloud Development Not Observable,15.0,4.0,30.02,1017.3,,,,0,0,0,,,,,,,,,7/8 Mostly Cloudy,10000.0,,BKN,9900.0,BKN,25000.0,,,,
KRDR,05-08-2004,16:00,METAR,,10,12.0,,,9999.0,Cloud Development Not Observable,14.0,3.0,29.99,1016.2,,,,0,0,0,,,,,,,,,7/8 Mostly Cloudy,10000.0,,BKN,9900.0,BKN,25000.0,,,,
KRDR,05-08-2004,15:00,METAR,,350,14.0,,,9999.0,Cloud Development Not Observable,13.0,2.0,29.98,1015.9,,,,0,0,0,,,,,,,,,7/8 Mostly Cloudy,25000.0,,SCT,9900.0,BKN,25000.0,,,,
KRDR,05-08-2004,14:00,METAR,,350,9.0,,,9999.0,Cloud Development Not Observable,14.0,2.0,29.96,1015.1,,,,0,0,0,,,,,,,,,7/8 Mostly Cloudy,25000.0,,SCT,9900.0,BKN,25000.0,,,,
KRDR,05-08-2004,13:00,METAR,,,1.0,,,9999.0,Cloud Development Not Observable,10.0,3.0,29.95,1014.8,,,,0,0,0,,,,,,,,,4/8 Partly Cloudy,72000.0,,FEW,11000.0,SCT,25000.0,,,,
KRDR,05-08-2004,12:00,METAR,,,0.0,,,9999.0,Cloud Development Not Observable,9.0,2.0,29.92,1014.0,,,,0,0,0,,,,,,,,,4/8 Partly Cloudy,72000.0,,SCT,5900.0,SCT,9900.0,,,,
KRDR,05-08-2004,11:00,METAR,,,6.0,,,9999.0,Cloud Development Not Observable,8.0,2.0,29.91,1013.6,,,,0,0,0,,,,,,,,,7/8 Mostly Cloudy,15000.0,,FEW,12000.0,BKN,15000.0,,,,
KRDR,05-08-2004,10:00,METAR,,180,9.0,,,9999.0,Cloud Development Not Observable,9.0,1.0,29.88,1012.5,,,,0,0,0,,,,,,,,,2/8 Mostly Clear,72000.0,,FEW,12000.0,,,,,,
KRDR,05-08-2004,09:00,METAR,,190,8.0,,,9999.0,Cloud Development Not Observable,9.0,0.0,29.89,1012.7,,,,0,0,0,,,,,,,,,Clear,72000.0,,,73000.0,,,,,,
KRDR,05-08-2004,08:00,METAR,,180,11.0,,,9999.0,Cloud Development Not Observable,10.0,-1.0,29.89,1012.6,,,,0,0,0,,,,,,,,,Clear,72000.0,,,73000.0,,,,,,
KRDR,05-08-2004,07:00,METAR,,160,9.0,,,9999.0,Cloud Development Not Observable,10.0,-1.0,29.90,1013.0,,,,0,0,0,,,,,,,,,Clear,72000.0,,,73000.0,,,,,,
KRDR,05-08-2004,06:00,METAR,,150,9.0,,,9999.0,Cloud Development Not Observable,11.0,-1.0,29.93,1014.1,,,,0,0,0,,,,,,,,,Clear,72000.0,,,73000.0,,,,,,
KRDR,05-08-2004,05:00,METAR,,150,10.0,,,9999.0,Cloud Development Not Observable,10.0,0.0,29.93,1014.1,,,,0,0,0,,,,,,,,,Clear,72000.0,,,73000.0,,,,,,
KRDR,05-08-2004,04:00,METAR,,150,12.0,,,9999.0,Cloud Development Not Observable,11.0,-1.0,29.93,1014.1,,,,0,0,0,,,,,,,,,2/8 Mostly Clear,72000.0,,FEW,9900.0,,,,,,
KRDR,05-08-2004,03:00,METAR,,130,7.0,,,9999.0,Cloud Development Not Observable,12.0,-2.0,29.95,1014.9,,,,0,0,0,,,,,,,,,4/8 Partly Cloudy,72000.0,,SCT,9900.0,,,,,,
KRDR,05-08-2004,02:00,METAR,,140,8.0,,,9999.0,Cloud Development Not Observable,14.0,-2.0,29.95,1014.8,,,,0,0,0,,,,,,,,,7/8 Mostly Cloudy,10000.0,,FEW,5000.0,SCT,9900.0,BKN,25000.0,,
KRDR,05-08-2004,01:00,METAR,,,4.0,,,9999.0,Precipitation in the Vicinity/Cloud Development Not Observable,15.0,-2.0,29.96,1015.3,,,,16,0,0,,,,,,,,,8/8 Overcast,8000.0,,FEW,5000.0,SCT,8400.0,BKN,9900.0,OVC,25000.0
KRDR,05-08-2004,00:00,METAR,,160,13.0,22.0,160/27KTS,9999.0,Cloud Development Not Observable,16.0,-2.0,29.96,1015.3,,,,0,0,0,,,,,,,,,7/8 Mostly Cloudy,15000.0,,FEW,9900.0,SCT,15000.0,BKN,25000.0,,
KRDR,05-07-2004,23:00,METAR,,180,18.0,27.0,,9999.0,Cloud Development Not Observable,16.0,-4.0,30.00,1016.8,,,,0,0,0,,,,,,,,,7/8 Mostly Cloudy,20000.0,,SCT,9900.0,BKN,20000.0,,,,
KRDR,05-07-2004,22:00,METAR,,190,19.0,28.0,,9999.0,Cloud Development Not Observable,17.0,-6.0,30.02,1017.5,,,,0,0,0,,,,,,,,,7/8 Mostly Cloudy,10000.0,,BKN,9900.0,,,,,,
KRDR,05-07-2004,21:00,METAR,,170,22.0,27.0,170/29KTS,9999.0,Cloud Development Not Observable,18.0,-6.0,30.04,1018.2,,,,0,0,0,,,,,,,,,7/8 Mostly Cloudy,8000.0,,BKN,7900.0,BKN,9900.0,,,,
KRDR,05-07-2004,20:00,METAR,,180,22.0,29.0,,9999.0,Cloud Development Not Observable,18.0,-8.0,30.07,1019.1,,,,0,0,0,,,,,,,,,7/8 Mostly Cloudy,10000.0,,SCT,7900.0,BKN,9900.0,,,,
KRDR,05-07-2004,19:00,METAR,,150,22.0,28.0,,9999.0,Cloud Development Not Observable,16.0,-8.0,30.11,1020.4,,,,0,0,0,,,,,,,,,7/8 Mostly Cloudy,10000.0,,SCT,7900.0,BKN,9900.0,,,,
KRDR,05-07-2004,17:00,METAR,,160,16.0,26.0,160/28KTS,9999.0,Cloud Development Not Observable,16.0,-6.0,30.18,1025.0,,,,0,0,0,,,,,,,,,7/8 Mostly Cloudy,10000.0,,BKN,9900.0,,,,,,
KRDR,05-07-2004,16:00,METAR,,170,18.0,24.0,150/28KTS,9999.0,Cloud Development Not Observable,13.0,-7.0,30.23,1025.0,,,,0,0,0,,,,,,,,,7/8 Mostly Cloudy,9000.0,,SCT,6400.0,BKN,8900.0,BKN,25000.0,,
KRDR,05-07-2004,15:00,METAR,,160,21.0,25.0,,9999.0,Cloud Development Not Observable,11.0,-8.0,30.24,1025.0,,,,0,0,0,,,,,,,,,7/8 Mostly Cloudy,10000.0,,BKN,9900.0,BKN,25000.0,,,,
KRDR,05-07-2004,14:00,METAR,,160,15.0,,,9999.0,Cloud Development Not Observable,10.0,-7.0,30.25,1025.4,,,,0,0,0,,,,,,,,,8/8 Overcast,9500.0,,OVC,9400.0,,,,,,
KRDR,05-07-2004,13:00,METAR,,160,18.0,,,9999.0,Cloud Development Not Observable,7.0,-6.0,30.25,1025.4,,,,0,0,0,,,,,,,,,7/8 Mostly Cloudy,8500.0,,BKN,8400.0,,,,,,
KRDR,05-07-2004,12:00,METAR,,160,10.0,,,9999.0,Cloud Development Not Observable,6.0,-7.0,30.26,1025.7,,,,0,0,0,,,,,,,,,7/8 Mostly Cloudy,8500.0,,BKN,8400.0,,,,,,
KRDR,05-07-2004,11:00,METAR,,160,10.0,,,9999.0,Cloud Development Not Observable,6.0,-8.0,30.26,1025.7,,,,0,0,0,,,,,,,,,8/8 Overcast,10000.0,,FEW,8400.0,OVC,9900.0,,,,
KRDR,05-07-2004,10:00,METAR,,160,8.0,,,9999.0,Cloud Development Not Observable,6.0,-8.0,30.26,1025.7,,,,0,0,0,,,,,,,,,8/8 Overcast,11000.0,,OVC,11000.0,,,,,,
KRDR,05-07-2004,09:00,METAR,,160,7.0,,,9999.0,Cloud Development Not Observable,5.0,-8.0,30.28,1026.4,,,,0,0,0,,,,,,,,,8/8 Overcast,9000.0,,BKN,8900.0,OVC,11000.0,,,,
KRDR,05-07-2004,08:00,METAR,,140,8.0,,,9999.0,Cloud Development Not Observable,5.0,-9.0,30.27,1026.2,,,,0,0,0,,,,,,,,,7/8 Mostly Cloudy,11000.0,,BKN,11000.0,,,,,,
KRDR,05-07-2004,07:00,METAR,,150,7.0,,,9999.0,Cloud Development Not Observable,5.0,-9.0,30.27,1026.2,,,,0,0,0,,,,,,,,,7/8 Mostly Cloudy,11000.0,,BKN,11000.0,,,,,,
KRDR,05-07-2004,06:00,METAR,,150,8.0,,,9999.0,Cloud Development Not Observable,5.0,-9.0,30.27,1026.1,,,,0,0,0,,,,,,,,,4/8 Partly Cloudy,72000.0,,SCT,11000.0,,,,,,
KRDR,05-07-2004,05:00,METAR,,130,8.0,,,9999.0,Cloud Development Not Observable,4.0,-9.0,30.26,1025.9,,,,0,0,0,,,,,,,,,4/8 Partly Cloudy,72000.0,,SCT,9400.0,,,,,,
KRDR,05-07-2004,04:00,METAR,,130,7.0,,,9999.0,Cloud Development Not Observable,6.0,-9.0,30.25,1025.6,,,,0,0,0,,,,,,,,,4/8 Partly Cloudy,72000.0,,SCT,9400.0,,,,,,
KRDR,05-07-2004,03:00,METAR,,,6.0,,,9999.0,Cloud Development Not Observable,8.0,-8.0,30.24,1025.3,,,,0,0,0,,,,,,,,,4/8 Partly Cloudy,72000.0,,FEW,8900.0,SCT,25000.0,,,,
KRDR,05-07-2004,02:00,METAR,,70,6.0,,,9999.0,Cloud Development Not Observable,9.0,-10.0,30.22,1024.6,,,,0,0,0,,,,,,,,,4/8 Partly Cloudy,72000.0,,FEW,8900.0,SCT,25000.0,,,,
KRDR,05-07-2004,01:00,METAR,,60,7.0,,,9999.0,Cloud Development Not Observable,11.0,-7.0,30.21,1024.2,,,,0,0,0,,,,,,,,,4/8 Partly Cloudy,72000.0,,FEW,5900.0,SCT,25000.0,,,,
KRDR,05-07-2004,00:00,METAR,,,6.0,,,9999.0,Cloud Development Not Observable,12.0,-5.0,30.20,1023.6,,,,0,0,0,,,,,,,,,4/8 Partly Cloudy,72000.0,,FEW,5900.0,SCT,25000.0,,,,
KRDR,05-06-2004,23:00,METAR,,,5.0,,,9999.0,Cloud Development Not Observable,12.0,-5.0,30.20,1023.6,,,,0,0,0,,,,,,,,,2/8 Mostly Clear,72000.0,,FEW,5900.0,,,,,,
KRDR,05-06-2004,22:00,METAR,,20,9.0,,,9999.0,Cloud Development Not Observable,12.0,-5.0,30.20,1023.9,,,,0,0,0,,,,,,,,,4/8 Partly Cloudy,72000.0,,SCT,5900.0,,,,,,
KRDR,05-06-2004,21:00,METAR,,30,8.0,,,9999.0,Cloud Development Not Observable,13.0,-4.0,30.20,1023.9,,,,0,0,0,,,,,,,,,4/8 Partly Cloudy,72000.0,,SCT,5900.0,,,,,,
KRDR,05-06-2004,20:00,METAR,,20,6.0,,,9999.0,Cloud Development Not Observable,10.0,-3.0,30.21,1024.1,,,,0,0,0,,,,,,,,,4/8 Partly Cloudy,72000.0,,SCT,5400.0,,,,,,
KRDR,05-06-2004,19:00,METAR,,40,13.0,,,9999.0,Cloud Development Not Observable,10.0,-3.0,30.20,1023.8,,,,0,0,0,,,,,,,,,4/8 Partly Cloudy,72000.0,,SCT,5400.0,,,,,,
KRDR,05-06-2004,18:00,METAR,,10,10.0,20.0,,9999.0,Cloud Development Not Observable,11.0,-2.0,30.19,1023.4,,,,0,0,0,,,,,,,,,4/8 Partly Cloudy,72000.0,,SCT,5400.0,,,,,,
KRDR,05-06-2004,17:00,METAR,,10,12.0,,,9999.0,Cloud Development Not Observable,10.0,-3.0,30.19,1023.4,,,,0,0,0,,,,,,,,,4/8 Partly Cloudy,72000.0,,SCT,4500.0,,,,,,
KRDR,05-06-2004,16:00,METAR,,360,9.0,,,9999.0,Cloud Development Not Observable,10.0,-2.0,30.16,1022.4,,,,0,0,0,,,,,,,,,4/8 Partly Cloudy,72000.0,,SCT,4000.0,SCT,25000.0,,,,
KRDR,05-06-2004,15:00,METAR,,20,13.0,,,9999.0,Cloud Development Not Observable,8.0,-3.0,30.12,1021.1,,,,0,0,0,,,,,,,,,4/8 Partly Cloudy,72000.0,,FEW,4000.0,SCT,25000.0,,,,
KRDR,05-06-2004,14:00,METAR,,360,9.0,,,9999.0,Cloud Development Not Observable,6.0,-2.0,30.12,1021.1,,,,0,0,0,,,,,,,,,7/8 Mostly Cloudy,3900.0,,BKN,4000.0,,,,,,
KRDR,05-06-2004,13:00,METAR,,350,9.0,,,9999.0,Cloud Development Not Observable,5.0,-1.0,30.10,1020.1,,,,0,0,0,,,,,,,,,7/8 Mostly Cloudy,3900.0,,BKN,4000.0,,,,,,
KRDR,05-06-2004,12:00,METAR,,350,9.0,,,9999.0,Cloud Development Not Observable,4.0,0.0,30.07,1019.0,,,,0,0,0,,,,,,,IN,,7/8 Mostly Cloudy,3400.0,,BKN,3500.0,,,,,,
KRDR,05-06-2004,11:00,METAR,,350,11.0,,,9999.0,Cloud Development Not Observable,4.0,0.0,30.03,1017.5,,,,0,0,0,,,,,,,,,8/8 Overcast,3400.0,,OVC,3500.0,,,,,,
KRDR,05-06-2004,10:00,METAR,,350,7.0,,,9999.0,Cloud Development Not Observable,4.0,0.0,29.99,1016.1,,,,0,0,0,,,,,,,,,7/8 Mostly Cloudy,8000.0,,SCT,4000.0,BKN,7900.0,,,,
KRDR,05-06-2004,09:00,METAR,,330,12.0,,,9999.0,Cloud Development Not Observable,4.0,0.0,30.00,1016.4,,,,0,0,0,,,,,,TRACE,,,7/8 Mostly Cloudy,8000.0,,SCT,4000.0,BKN,7900.0,,,,
KRDR,05-06-2004,08:19,SPECI,,350,11.0,,,9999.0,Cloud Development Not Observable,4.0,1.0,29.95,,,,,0,0,0,,,,,,,,,7/8 Mostly Cloudy,8000.0,,FEW,3000.0,SCT,7900.0,BKN,11000.0,,
KRDR,05-06-2004,08:06,SPECI,,,5.0,,,9999.0,Rain/Cloud Development Not Observable,4.0,1.0,29.92,,,,,61,0,0,,,,,,,,,7/8 Mostly Cloudy,4900.0,,FEW,3000.0,SCT,5000.0,BKN,7400.0,,
KRDR,05-06-2004,08:00,METAR,,,5.0,,,9999.0,Cloud Development Not Observable,4.0,0.0,29.91,1013.4,,,,0,0,0,,,,,,,,,7/8 Mostly Cloudy,7000.0,,FEW,5000.0,SCT,7400.0,BKN,12000.0,,
KRDR,05-06-2004,07:00,METAR,,330,7.0,,,9999.0,Cloud Development Not Observable,4.0,0.0,29.91,1013.6,,,,0,0,0,,,,,,,,,2/8 Mostly Clear,72000.0,,FEW,15000.0,,,,,,
KRDR,05-06-2004,06:00,METAR,,340,8.0,,,9999.0,Cloud Development Not Observable,3.0,0.0,29.89,1012.9,,,,0,0,0,,,,,,,,,2/8 Mostly Clear,72000.0,,FEW,18000.0,,,,,,
KRDR,05-06-2004,05:00,METAR,,350,10.0,,,9999.0,Cloud Development Not Observable,4.0,0.0,29.86,1012.0,,,,0,0,0,,,,,,,,,2/8 Mostly Clear,72000.0,,FEW,25000.0,,,,,,
KRDR,05-06-2004,04:00,METAR,,340,13.0,,,9999.0,Cloud Development Not Observable,5.0,1.0,29.85,1011.7,,,,0,0,0,,,,,,,,,2/8 Mostly Clear,72000.0,,FEW,25000.0,,,,,,
KRDR,05-06-2004,03:00,METAR,,360,17.0,,,9999.0,Cloud Development Not Observable,7.0,2.0,29.80,1010.1,,,,0,0,0,,,,,,,,,2/8 Mostly Clear,72000.0,,FEW,25000.0,,,,,,
KRDR,05-06-2004,02:00,METAR,,10,19.0,22.0,020/28KTS,9999.0,Cloud Development Not Observable,9.0,2.0,29.75,1008.3,,,,0,0,0,,,,,,,,,2/8 Mostly Clear,72000.0,,FEW,25000.0,,,,,,
KRDR,05-06-2004,01:00,METAR,,10,21.0,28.0,010/28KTS,9999.0,Cloud Development Not Observable,14.0,4.0,29.71,1006.8,,,,0,0,0,,,,,,,,,4/8 Partly Cloudy,72000.0,,SCT,25000.0,,,,,,
KRDR,05-06-2004,00:00,METAR,,320,22.0,27.0,290/34KTS,9999.0,Cloud Development Not Observable,22.0,4.0,29.62,1003.6,,,,0,0,0,,,,,,,,,7/8 Mostly Cloudy,25000.0,,FEW,15000.0,BKN,25000.0,,,,
KRDR,05-05-2004,23:00,METAR,,300,26.0,34.0,,9999.0,Cloud Development Not Observable,25.0,2.0,29.57,1001.9,,,,0,0,0,,,,,,,,,7/8 Mostly Cloudy,25000.0,,FEW,6900.0,FEW,15000.0,BKN,25000.0,,
KRDR,05-05-2004,22:00,METAR,,310,26.0,33.0,,9999.0,Cloud Development Not Observable,27.0,6.0,29.52,999.8,,,,0,0,0,,,,,,,,,7/8 Mostly Cloudy,15000.0,,FEW,6900.0,SCT,15000.0,BKN,25000.0,,
KRDR,05-05-2004,21:00,METAR,,300,17.0,24.0,,9999.0,Cloud Development Not Observable,27.0,5.0,29.51,999.7,,,,0,0,0,,,,,,,,,4/8 Partly Cloudy,72000.0,,FEW,6900.0,SCT,15000.0,SCT,25000.0,,
KRDR,05-05-2004,20:00,METAR,,300,17.0,22.0,,9999.0,Cloud Development Not Observable,27.0,7.0,29.51,999.5,,,,0,0,0,,,,,,,,,7/8 Mostly Cloudy,15000.0,,SCT,6900.0,BKN,15000.0,BKN,25000.0,,
KRDR,05-05-2004,19:00,METAR,,270,15.0,23.0,,9999.0,Cloud Development Not Observable,21.0,8.0,29.52,1000.1,,,,0,0,0,,,,,,,,,7/8 Mostly Cloudy,15000.0,,SCT,6900.0,BKN,15000.0,BKN,25000.0,,
KRDR,05-05-2004,18:00,METAR,,240,17.0,26.0,,9999.0,Cloud Development Not Observable,21.0,8.0,29.52,1000.1,,,,0,0,0,,,,,,,,,7/8 Mostly Cloudy,15000.0,,SCT,6900.0,BKN,15000.0,BKN,25000.0,,
KRDR,05-05-2004,17:00,METAR,,210,21.0,28.0,210/36KTS,9999.0,Cloud Development Not Observable,20.0,8.0,29.51,1000.3,,,,0,0,0,,,,,,,,,7/8 Mostly Cloudy,15000.0,,BKN,15000.0,BKN,25000.0,,,,
KRDR,05-05-2004,16:00,METAR,,200,25.0,34.0,,9999.0,Cloud Development Not Observable,20.0,9.0,29.55,1001.3,,,,0,0,0,,,,,,,,,7/8 Mostly Cloudy,25000.0,,SCT,15000.0,BKN,25000.0,,,,
KRDR,05-05-2004,15:00,METAR,,180,20.0,27.0,170/31KTS,9999.0,Cloud Development Not Observable,14.0,3.0,29.55,1001.2,,,,0,0,0,,,,,,,,,7/8 Mostly Cloudy,25000.0,,SCT,15000.0,BKN,25000.0,,,,
KRDR,05-05-2004,14:00,METAR,,170,24.0,33.0,160/34KTS,9999.0,Cloud Development Not Observable,11.0,-1.0,29.56,1001.7,,,,0,0,0,,,,,,,,,7/8 Mostly Cloudy,25000.0,,SCT,15000.0,BKN,25000.0,,,,
KRDR,05-05-2004,12:00,METAR,,140,16.0,,,9999.0,Cloud Development Not Observable,5.0,0.0,29.64,1004.5,,,,0,0,0,,,,,,,.06 IN,.06 IN,7/8 Mostly Cloudy,15000.0,,SCT,6900.0,SCT,15000.0,BKN,25000.0,,
KRDR,05-05-2004,11:10,SPECI,,130,14.0,,,9999.0,Cloud Development Not Observable,5.0,0.0,29.67,,,,,0,0,0,,,,,,,,,8/8 Overcast,7000.0,,FEW,3500.0,BKN,6900.0,OVC,15000.0,,
KRDR,05-05-2004,11:00,METAR,,150,16.0,,,9999.0,Rain/Mist/Cloud Development Not Observable,5.0,0.0,29.68,1006.1,,,,61,10,0,,,,,,,,,8/8 Overcast,7000.0,,FEW,3500.0,BKN,6900.0,OVC,11000.0,,
KRDR,05-05-2004,10:12,SPECI,,160,12.0,,,6400.0,Rain/Mist/Cloud Development Not Observable,6.0,-1.0,29.75,,,,,61,10,0,,,,,,,,,7/8 Mostly Cloudy,3400.0,,FEW,2800.0,SCT,3500.0,BKN,5000.0,,
KRDR,05-05-2004,10:00,METAR,,190,12.0,,,9999.0,Light Rain Showers/Cloud Development Not Observable,8.0,-7.0,29.74,1007.8,,,,80,0,0,,,,,,,,,7/8 Mostly Cloudy,9000.0,,FEW,5000.0,BKN,8900.0,,,,
KRDR,05-05-2004,09:40,SPECI,,180,15.0,,,9999.0,Light Rain Showers/Cloud Development Not Observable,8.0,-7.0,29.72,,,,,80,0,0,,,,,,,,,7/8 Mostly Cloudy,9000.0,,BKN,8900.0,,,,,,
KRDR,05-05-2004,09:00,METAR,,160,14.0,,,9999.0,Cloud Development Not Observable,7.0,-7.0,29.72,1007.1,,,,0,0,0,,,,,,,,,7/8 Mostly Cloudy,15000.0,,SCT,9900.0,BKN,15000.0,,,,
KRDR,05-05-2004,08:00,METAR,,160,14.0,,,9999.0,Cloud Development Not Observable,5.0,-6.0,29.78,1009.3,,,,0,0,0,,,,,,,,,4/8 Partly Cloudy,72000.0,,SCT,15000.0,,,,,,
KRDR,05-05-2004,07:00,METAR,,150,12.0,,,9999.0,Cloud Development Not Observable,6.0,-7.0,29.82,1010.7,,,,0,0,0,,,,,,,,,2/8 Mostly Clear,72000.0,,FEW,20000.0,,,,,,
KRDR,05-05-2004,06:00,METAR,,140,10.0,,,9999.0,Cloud Development Not Observable,6.0,-7.0,29.84,1011.4,,,,0,0,0,,,,,,,,,Clear,72000.0,,,73000.0,,,,,,
KRDR,05-05-2004,05:00,METAR,,130,10.0,,,9999.0,Cloud Development Not Observable,6.0,-7.0,29.86,1012.2,,,,0,0,0,,,,,,,,,Clear,72000.0,,,73000.0,,,,,,
KRDR,05-05-2004,04:00,METAR,,120,9.0,,,9999.0,Cloud Development Not Observable,6.0,-7.0,29.89,1013.1,,,,0,0,0,,,,,,,,,Clear,72000.0,,,73000.0,,,,,,
KRDR,05-05-2004,03:00,METAR,,120,6.0,,,9999.0,Cloud Development Not Observable,8.0,-7.0,29.91,1013.8,,,,0,0,0,,,,,,,,,Clear,72000.0,,,73000.0,,,,,,
KRDR,05-05-2004,02:00,METAR,,110,7.0,,,9999.0,Cloud Development Not Observable,9.0,-7.0,29.91,1013.8,,,,0,0,0,,,,,,,,,2/8 Mostly Clear,72000.0,,FEW,25000.0,,,,,,
KRDR,05-05-2004,01:00,METAR,,120,7.0,,,9999.0,Cloud Development Not Observable,13.0,-7.0,29.91,1013.7,,,,0,0,0,,,,,,,,,2/8 Mostly Clear,72000.0,,FEW,25000.0,,,,,,
KRDR,05-05-2004,00:00,METAR,,,1.0,,,9999.0,Cloud Development Not Observable,13.0,-9.0,29.92,1014.3,,,,0,0,0,,,,,,,,,2/8 Mostly Clear,72000.0,,FEW,25000.0,,,,,,
KRDR,05-04-2004,23:00,METAR,,,4.0,,,9999.0,Cloud Development Not Observable,14.0,-8.0,29.93,1014.7,,,,0,0,0,,,,,,,,,4/8 Partly Cloudy,72000.0,,SCT,25000.0,,,,,,
KRDR,05-04-2004,22:00,METAR,,,4.0,,,9999.0,Cloud Development Not Observable,13.0,-8.0,29.95,1015.2,,,,0,0,0,,,,,,,,,2/8 Mostly Clear,72000.0,,FEW,25000.0,,,,,,
KRDR,05-04-2004,21:00,METAR,,,,,,,Cloud Development Not Observable,13.0,-6.0,29.96,1015.5,,,,0,0,0,,,,,,,,,,72000.0,,,,,,,,,
KRDR,05-04-2004,20:00,METAR,Normal,360,6.0,,,,Cloud Development Not Observable,11.0,-6.0,29.99,1016.6,,,,0,0,0,,,,,,,,,,72000.0,,,,,,,,,
KRDR,05-04-2004,16:00,METAR,,340,12.0,,,9999.0,Cloud Development Not Observable,7.0,-4.0,30.04,1018.3,,,,0,0,0,,,,,,,,,Clear,72000.0,,,73000.0,,,,,,
KRDR,05-04-2004,15:00,METAR,,320,14.0,,,9999.0,Cloud Development Not Observable,5.0,-3.0,30.04,1018.3,,,,0,0,0,,,,,,,,,Clear,72000.0,,,73000.0,,,,,,
KRDR,05-04-2004,14:00,METAR,,350,14.0,,,9999.0,Cloud Development Not Observable,4.0,-3.0,30.03,1017.9,,,,0,0,0,,,,,,,,,Clear,72000.0,,,73000.0,,,,,,
KRDR,05-04-2004,13:00,METAR,,350,17.0,,,9999.0,Cloud Development Not Observable,3.0,-2.0,30.01,1017.1,,,,0,0,0,,,,,,,,,Clear,72000.0,,,73000.0,,,,,,
KRDR,05-04-2004,12:00,METAR,,330,12.0,,,9999.0,Cloud Development Not Observable,1.0,-2.0,29.99,1016.4,,,,0,0,0,,,,,,,,,Clear,72000.0,,,73000.0,,,,,,
KRDR,05-04-2004,10:00,METAR,,320,10.0,,,9999.0,Cloud Development Not Observable,2.0,-1.0,29.93,1014.2,,,,0,0,0,,,,,,,,,2/8 Mostly Clear,72000.0,,FEW,4000.0,,,,,,
KRDR,05-04-2004,09:00,METAR,,320,15.0,,,9999.0,Cloud Development Not Observable,3.0,-1.0,29.91,1013.5,,,,0,0,0,,,,,,,,,2/8 Mostly Clear,72000.0,,FEW,4000.0,,,,,,
KRDR,05-04-2004,08:00,METAR,,330,12.0,,,9999.0,Cloud Development Not Observable,3.0,0.0,29.90,1013.4,,,,0,0,0,,,,,,,,,2/8 Mostly Clear,72000.0,,FEW,4000.0,,,,,,
KRDR,05-04-2004,07:00,METAR,,350,11.0,,,9999.0,Cloud Development Not Observable,5.0,1.0,29.88,1012.8,,,,0,0,0,,,,,,,,,4/8 Partly Cloudy,72000.0,,SCT,4000.0,,,,,,
KRDR,05-04-2004,06:00,METAR,,350,15.0,,,9999.0,Cloud Development Not Observable,7.0,3.0,29.87,1012.6,,,,0,0,0,,,,,,,,,8/8 Overcast,3900.0,,OVC,4000.0,,,,,,
KRDR,05-04-2004,05:00,METAR,,350,20.0,,360/25KTS,9999.0,Cloud Development Not Observable,7.0,4.0,29.85,1011.8,,,,0,0,0,,,,,,,,,8/8 Overcast,7000.0,,SCT,2800.0,OVC,6900.0,,,,
KRDR,05-04-2004,04:00,METAR,,360,19.0,25.0,,9999.0,Cloud Development Not Observable,8.0,5.0,29.82,1010.8,,,,0,0,0,,,,,,,,,7/8 Mostly Cloudy,7000.0,,BKN,6900.0,,,,,,
KRDR,05-04-2004,03:00,METAR,,360,15.0,,350/27KTS,9999.0,Cloud Development Not Observable,9.0,6.0,29.80,1010.1,,,,0,0,0,,,,,,,,,7/8 Mostly Cloudy,7000.0,,BKN,6900.0,,,,,,
KRDR,05-04-2004,02:00,METAR,,360,20.0,,360/29KTS,9999.0,Cloud Development Not Observable,12.0,7.0,29.73,1007.6,,,,0,0,0,,,,,,,,,7/8 Mostly Cloudy,8000.0,,BKN,7900.0,,,,,,
KRDR,05-04-2004,01:00,METAR,,350,14.0,,,9999.0,Cloud Development Not Observable,16.0,8.0,29.69,1006.1,,,,0,0,0,,,,,,,,,7/8 Mostly Cloudy,8000.0,,BKN,7900.0,,,,,,
KRDR,05-04-2004,00:00,METAR,,340,14.0,,,9999.0,Cloud Development Not Observable,17.0,8.0,29.66,1005.1,,,,0,0,0,,,,,,,,,7/8 Mostly Cloudy,7000.0,,BKN,6900.0,,,,,,
KRDR,05-03-2004,23:00,METAR,,300,4.0,,,9999.0,Precipitation in the Vicinity/Cloud Development Not Observable,19.0,1.0,29.64,1004.4,,,,16,0,0,,,,,,,,,7/8 Mostly Cloudy,7000.0,,BKN,6900.0,,,,,,
KRDR,05-03-2004,22:00,METAR,,290,7.0,,,9999.0,Cloud Development Not Observable,20.0,0.0,29.64,1004.6,,,,0,0,0,,,,,,,,,7/8 Mostly Cloudy,9000.0,,SCT,5000.0,BKN,8900.0,,,,
KRDR,05-03-2004,21:00,METAR,,220,12.0,23.0,200/26KTS,9999.0,Cloud Development Not Observable,19.0,-1.0,29.68,1006.7,,,,0,0,0,,,,,,,,,7/8 Mostly Cloudy,9000.0,,BKN,8900.0,,,,,,
KRDR,05-03-2004,20:00,METAR,,210,17.0,23.0,200/27KTS,9999.0,Cloud Development Not Observable,18.0,-2.0,29.71,1006.7,,,,0,0,0,,,,,,,,,7/8 Mostly Cloudy,9000.0,,BKN,8900.0,,,,,,
KRDR,05-03-2004,19:00,METAR,,210,21.0,31.0,190/36KTS,9999.0,Cloud Development Not Observable,14.0,-2.0,29.74,1007.9,,,,0,0,0,,,,,,,,,7/8 Mostly Cloudy,9000.0,,BKN,8900.0,,,,,,
KRDR,05-03-2004,18:00,METAR,,170,21.0,30.0,,9999.0,Cloud Development Not Observable,11.0,1.0,29.72,1007.3,,,,0,0,0,,,,,,,,,7/8 Mostly Cloudy,9000.0,,BKN,8900.0,,,,,,
KRDR,05-03-2004,17:00,METAR,,170,25.0,30.0,,9999.0,Cloud Development Not Observable,10.0,-1.0,29.78,1009.6,,,,0,0,0,,,,,,,,,8/8 Overcast,9000.0,,SCT,6900.0,OVC,8900.0,,,,
KRDR,05-03-2004,16:43,SPECI,,170,18.0,,,9999.0,Cloud Development Not Observable,9.0,0.0,29.80,,,,,0,0,0,,,,,,,,,8/8 Overcast,9000.0,,SCT,5000.0,OVC,8900.0,,,,
KRDR,05-03-2004,16:24,SPECI,,190,22.0,28.0,,9999.0,Rain/Cloud Development Not Observable,10.0,-3.0,29.82,,,,,61,0,0,,,,,,,,,8/8 Overcast,9000.0,,SCT,3000.0,OVC,8900.0,,,,
KRDR,05-03-2004,16:00,METAR,,180,22.0,29.0,180/31KTS,9999.0,Cloud Development Not Observable,11.0,-5.0,29.81,1010.6,,,,0,0,0,,,,,,,,,8/8 Overcast,9000.0,,SCT,7900.0,OVC,8900.0,,,,
KRDR,05-03-2004,15:00,METAR,,190,21.0,30.0,,9999.0,Cloud Development Not Observable,9.0,-5.0,29.85,1011.8,,,,0,0,0,,,,,,,,,8/8 Overcast,9000.0,,SCT,5000.0,OVC,8900.0,,,,
KRDR,05-03-2004,14:00,METAR,,190,24.0,33.0,,9999.0,Cloud Development Not Observable,8.0,-5.0,29.88,1012.8,,,,0,0,0,,,,,,,,,7/8 Mostly Cloudy,9000.0,,BKN,8900.0,BKN,25000.0,,,,
KRDR,05-03-2004,13:00,METAR,,180,19.0,26.0,,9999.0,Cloud Development Not Observable,7.0,-6.0,29.92,1014.2,,,,0,0,0,,,,,,,,,7/8 Mostly Cloudy,10000.0,,BKN,9900.0,BKN,25000.0,,,,
KRDR,05-03-2004,12:00,METAR,,180,14.0,,,9999.0,Cloud Development Not Observable,5.0,-5.0,29.95,1015.3,,,,0,0,0,,,,,,,,,7/8 Mostly Cloudy,25000.0,,SCT,15000.0,BKN,25000.0,,,,
KRDR,05-03-2004,11:00,METAR,,190,11.0,,,9999.0,Cloud Development Not Observable,3.0,-6.0,29.99,1016.6,,,,0,0,0,,,,,,,,,7/8 Mostly Cloudy,25000.0,,SCT,15000.0,BKN,25000.0,,,,
KRDR,05-03-2004,10:00,METAR,,180,10.0,,,9999.0,Cloud Development Not Observable,3.0,-6.0,30.00,1016.9,,,,0,0,0,,,,,,,,,4/8 Partly Cloudy,72000.0,,SCT,25000.0,,,,,,
KRDR,05-03-2004,09:00,METAR,,170,10.0,,,9999.0,Cloud Development Not Observable,2.0,-6.0,30.02,1017.7,,,,0,0,0,,,,,,,,,4/8 Partly Cloudy,72000.0,,SCT,25000.0,,,,,,
KRDR,05-03-2004,08:00,METAR,,170,9.0,,,9999.0,Cloud Development Not Observable,3.0,-7.0,30.05,1018.7,,,,0,0,0,,,,,,,,,7/8 Mostly Cloudy,25000.0,,BKN,25000.0,,,,,,
KRDR,05-03-2004,07:00,METAR,,170,9.0,,,9999.0,Cloud Development Not Observable,2.0,-8.0,30.07,1019.5,,,,0,0,0,,,,,,,,,2/8 Mostly Clear,72000.0,,FEW,25000.0,,,,,,
KRDR,05-03-2004,06:00,METAR,,180,8.0,,,9999.0,Cloud Development Not Observable,4.0,-8.0,30.09,1020.1,,,,0,0,0,,,,,,,,,7/8 Mostly Cloudy,25000.0,,BKN,25000.0,,,,,,
KRDR,05-03-2004,05:00,METAR,,170,8.0,,,9999.0,Cloud Development Not Observable,4.0,-7.0,30.12,1021.1,,,,0,0,0,,,,,,,,,7/8 Mostly Cloudy,25000.0,,BKN,25000.0,,,,,,
KRDR,05-03-2004,04:00,METAR,,150,7.0,,,9999.0,Cloud Development Not Observable,5.0,-8.0,30.14,1021.9,,,,0,0,0,,,,,,,,,7/8 Mostly Cloudy,25000.0,,BKN,25000.0,,,,,,
KRDR,05-03-2004,03:00,METAR,,160,5.0,,,9999.0,Cloud Development Not Observable,5.0,-8.0,30.15,1022.3,,,,0,0,0,,,,,,,,,7/8 Mostly Cloudy,25000.0,,BKN,25000.0,,,,,,
KRDR,05-03-2004,02:00,METAR,,140,5.0,,,9999.0,Cloud Development Not Observable,8.0,-8.0,30.15,1022.3,,,,0,0,0,,,,,,,,,7/8 Mostly Cloudy,25000.0,,BKN,25000.0,,,,,,
KRDR,05-03-2004,01:00,METAR,,,3.0,,,9999.0,Cloud Development Not Observable,10.0,-9.0,30.16,1022.4,,,,0,0,0,,,,,,,,,4/8 Partly Cloudy,72000.0,,SCT,25000.0,,,,,,
KRDR,05-03-2004,00:00,METAR,,,3.0,,,9999.0,Cloud Development Not Observable,11.0,-9.0,30.17,1023.1,,,,0,0,0,,,,,,,,,4/8 Partly Cloudy,72000.0,,FEW,20000.0,SCT,25000.0,,,,
KRDR,05-02-2004,23:00,METAR,,,4.0,,,9999.0,Cloud Development Not Observable,11.0,-9.0,30.19,1023.7,,,,0,0,0,,,,,,,,,2/8 Mostly Clear,72000.0,,FEW,25000.0,,,,,,
KRDR,05-02-2004,22:00,METAR,,330,9.0,20.0,,9999.0,Cloud Development Not Observable,11.0,-10.0,30.20,1024.0,,,,0,0,0,,,,,,,,,2/8 Mostly Clear,72000.0,,FEW,9900.0,,,,,,
KRDR,05-02-2004,21:00,METAR,,330,6.0,,,9999.0,Cloud Development Not Observable,11.0,-8.0,30.22,1024.7,,,,0,0,0,,,,,,,,,2/8 Mostly Clear,72000.0,,FEW,9900.0,,,,,,
KRDR,05-02-2004,20:00,METAR,,20,6.0,,,9999.0,Cloud Development Not Observable,11.0,-8.0,30.24,1025.4,,,,0,0,0,,,,,,,,,4/8 Partly Cloudy,72000.0,,SCT,8900.0,,,,,,
KRDR,05-02-2004,19:00,METAR,,20,12.0,,,9999.0,Cloud Development Not Observable,11.0,-8.0,30.25,1025.7,,,,0,0,0,,,,,,,,,4/8 Partly Cloudy,72000.0,,SCT,8900.0,,,,,,
KRDR,05-02-2004,18:00,METAR,,340,11.0,17.0,,9999.0,Cloud Development Not Observable,10.0,-8.0,30.26,1026.1,,,,0,0,0,,,,,,,,,4/8 Partly Cloudy,72000.0,,SCT,8900.0,,,,,,
KRDR,05-02-2004,17:00,METAR,,360,15.0,,,9999.0,Cloud Development Not Observable,10.0,-7.0,30.28,1026.6,,,,0,0,0,,,,,,,,,4/8 Partly Cloudy,72000.0,,SCT,8900.0,,,,,,
KRDR,05-02-2004,16:00,METAR,,340,9.0,,,9999.0,Cloud Development Not Observable,8.0,-7.0,30.29,1027.0,,,,0,0,0,,,,,,,,,2/8 Mostly Clear,72000.0,,FEW,7900.0,,,,,,
KRDR,05-02-2004,15:00,METAR,,350,11.0,,,9999.0,Cloud Development Not Observable,7.0,-5.0,30.29,1026.8,,,,0,0,0,,,,,,,,,2/8 Mostly Clear,72000.0,,FEW,7900.0,,,,,,
KRDR,05-02-2004,14:00,METAR,,340,8.0,,,9999.0,Cloud Development Not Observable,4.0,-5.0,30.30,1027.2,,,,0,0,0,,,,,,,,,2/8 Mostly Clear,72000.0,,FEW,7900.0,,,,,,
KRDR,05-02-2004,13:00,METAR,,330,7.0,,,9999.0,Cloud Development Not Observable,1.0,-4.0,30.30,1027.3,,,,0,0,0,,,,,,,,,2/8 Mostly Clear,72000.0,,FEW,7900.0,,,,,,
KRDR,05-02-2004,12:00,METAR,,300,4.0,,,9999.0,Cloud Development Not Observable,-3.0,-5.0,30.28,1026.7,,,,0,0,0,,,,,,,,,2/8 Mostly Clear,72000.0,,FEW,7900.0,,,,,,
KRDR,05-02-2004,11:00,METAR,,330,5.0,,,9999.0,Cloud Development Not Observable,-4.0,-6.0,30.27,1026.3,,,,0,0,0,,,,,,,,,2/8 Mostly Clear,72000.0,,FEW,7900.0,,,,,,
KRDR,05-02-2004,10:00,METAR,,310,4.0,,,9999.0,Cloud Development Not Observable,-4.0,-6.0,30.26,1026.1,,,,0,0,0,,,,,,,,,2/8 Mostly Clear,72000.0,,FEW,7900.0,,,,,,
KRDR,05-02-2004,09:00,METAR,,320,5.0,,,9999.0,Cloud Development Not Observable,-3.0,-6.0,30.26,1026.1,,,,0,0,0,,,,,,,,,2/8 Mostly Clear,72000.0,,FEW,7900.0,,,,,,
KRDR,05-02-2004,08:00,METAR,,320,6.0,,,9999.0,Cloud Development Not Observable,-3.0,-6.0,30.25,1025.8,,,,0,0,0,,,,,,,,,2/8 Mostly Clear,72000.0,,FEW,7900.0,,,,,,
KRDR,05-02-2004,07:00,METAR,,290,6.0,,,9999.0,Cloud Development Not Observable,-2.0,-5.0,30.25,1025.8,,,,0,0,0,,,,,,,,,4/8 Partly Cloudy,72000.0,,SCT,7900.0,,,,,,
KRDR,05-02-2004,06:00,METAR,,310,5.0,,,9999.0,Cloud Development Not Observable,-2.0,-6.0,30.24,1025.6,,,,0,0,0,,,,,,,,,2/8 Mostly Clear,72000.0,,FEW,5000.0,,,,,,
KRDR,05-02-2004,05:00,METAR,,320,6.0,,,9999.0,Cloud Development Not Observable,-1.0,-5.0,30.24,1025.6,,,,0,0,0,,,,,,,,,Clear,72000.0,,,73000.0,,,,,,
KRDR,05-02-2004,04:00,METAR,,360,6.0,,,9999.0,Cloud Development Not Observable,0.0,-6.0,30.24,1025.6,,,,0,0,0,,,,,,,,,Clear,72000.0,,,73000.0,,,,,,
KRDR,05-02-2004,03:00,METAR,,40,8.0,,,9999.0,Cloud Development Not Observable,5.0,-5.0,30.23,1024.9,,,,0,0,0,,,,,,,,,2/8 Mostly Clear,72000.0,,FEW,5900.0,,,,,,
KRDR,05-02-2004,02:00,METAR,,360,8.0,,,9999.0,Cloud Development Not Observable,7.0,-5.0,30.22,1024.7,,,,0,0,0,,,,,,,,,4/8 Partly Cloudy,72000.0,,SCT,5900.0,SCT,25000.0,,,,
KRDR,05-02-2004,01:00,METAR,,360,14.0,,,9999.0,Cloud Development Not Observable,8.0,-5.0,30.21,1024.4,,,,0,0,0,,,,,,,,,7/8 Mostly Cloudy,7500.0,,FEW,5000.0,BKN,7400.0,BKN,25000.0,,
KRDR,05-02-2004,00:00,METAR,,30,10.0,,,9999.0,Cloud Development Not Observable,9.0,-4.0,30.19,1023.7,,,,0,0,0,,,,,,,,,7/8 Mostly Cloudy,7000.0,,SCT,5000.0,BKN,6900.0,BKN,25000.0,,
KRDR,05-01-2004,23:00,METAR,,,5.0,,,9999.0,Cloud Development Not Observable,10.0,-4.0,30.18,1023.1,,,,0,0,0,,,,,,,,,7/8 Mostly Cloudy,7000.0,,SCT,5000.0,BKN,6900.0,BKN,25000.0,,
KRDR,05-01-2004,22:00,METAR,,,2.0,,,9999.0,Cloud Development Not Observable,11.0,-3.0,30.18,1023.1,,,,0,0,0,,,,,,,,,7/8 Mostly Cloudy,7000.0,,SCT,5000.0,BKN,6900.0,BKN,25000.0,,
KRDR,05-01-2004,21:00,METAR,,,3.0,,,9999.0,Cloud Development Not Observable,9.0,-5.0,30.18,1023.2,,,,0,0,0,,,,,,,,,7/8 Mostly Cloudy,4900.0,,BKN,5000.0,BKN,6900.0,BKN,25000.0,,
KRDR,05-01-2004,20:00,METAR,,,3.0,,,9999.0,Cloud Development Not Observable,10.0,-3.0,30.19,1023.5,,,,0,0,0,,,,,,,,,7/8 Mostly Cloudy,4900.0,,BKN,5000.0,BKN,6900.0,BKN,25000.0,,
KRDR,05-01-2004,19:00,METAR,,,5.0,,,9999.0,Cloud Development Not Observable,9.0,-3.0,30.20,1023.8,,,,0,0,0,,,,,,,,,7/8 Mostly Cloudy,7000.0,,SCT,5000.0,BKN,6900.0,,,,
KRDR,05-01-2004,18:00,METAR,,350,13.0,21.0,,9999.0,Cloud Development Not Observable,8.0,0.0,30.21,1024.2,,,,0,0,0,,,,,,,,,7/8 Mostly Cloudy,4900.0,,BKN,5000.0,BKN,6900.0,,,,
KRDR,05-01-2004,16:00,METAR,,120,5.0,,,9999.0,Cloud Development Not Observable,7.0,-5.0,30.22,1024.5,,,,0,0,0,,,,,,,,,7/8 Mostly Cloudy,25000.0,,SCT,5000.0,BKN,25000.0,,,,
KRDR,05-01-2004,15:00,METAR,,110,8.0,,,9999.0,Cloud Development Not Observable,6.0,-5.0,30.22,1024.5,,,,0,0,0,,,,,,,,,7/8 Mostly Cloudy,3900.0,,BKN,4000.0,,,,,,
KRDR,05-01-2004,14:00,METAR,,150,7.0,,,9999.0,Cloud Development Not Observable,5.0,-5.0,30.22,1024.5,,,,0,0,0,,,,,,,,,4/8 Partly Cloudy,72000.0,,SCT,6400.0,,,,,,
KRDR,05-01-2004,13:00,METAR,,130,5.0,,,9999.0,Cloud Development Not Observable,3.0,-4.0,30.21,1024.2,,,,0,0,0,,,,,,,,,7/8 Mostly Cloudy,7000.0,,SCT,5000.0,BKN,6900.0,,,,
KRDR,05-01-2004,12:00,METAR,,100,5.0,,,9999.0,Cloud Development Not Observable,1.0,-4.0,30.20,1024.0,,,,0,0,0,,,,,,,,,4/8 Partly Cloudy,72000.0,,SCT,5000.0,SCT,6900.0,,,,
KRDR,05-01-2004,11:00,METAR,,90,10.0,,,9999.0,Precipitation in the Vicinity/Cloud Development Not Observable,2.0,-5.0,30.19,1023.7,,,,16,0,0,,,,,,,,,7/8 Mostly Cloudy,7000.0,,SCT,5000.0,BKN,6900.0,,,,
KRDR,05-01-2004,10:00,METAR,,350,7.0,,,9999.0,Cloud Development Not Observable,2.0,-4.0,30.19,1023.6,,,,0,0,0,,,,,,,,,7/8 Mostly Cloudy,4900.0,,BKN,5000.0,,,,,,
KRDR,05-01-2004,09:00,METAR,,330,5.0,,,9999.0,Cloud Development Not Observable,2.0,-5.0,30.18,1023.3,,,,0,0,0,,,,,,,,,7/8 Mostly Cloudy,7000.0,,FEW,5400.0,SCT,6900.0,BKN,8900.0,,
KRDR,05-01-2004,08:00,METAR,,350,5.0,,,9999.0,Cloud Development Not Observable,3.0,-5.0,30.18,1023.2,,,,0,0,0,,,,,,,,,7/8 Mostly Cloudy,6000.0,,FEW,4000.0,SCT,6400.0,BKN,9900.0,,
KRDR,05-01-2004,07:00,METAR,,270,4.0,,,9999.0,Cloud Development Not Observable,3.0,-4.0,30.19,1023.6,,,,0,0,0,,,,,,,,,7/8 Mostly Cloudy,6000.0,,FEW,5400.0,SCT,6400.0,BKN,8900.0,,
KRDR,05-01-2004,06:00,METAR,,,3.0,,,9999.0,Cloud Development Not Observable,3.0,-5.0,30.19,1023.6,,,,0,0,0,,,,,,,,,7/8 Mostly Cloudy,8000.0,,FEW,6400.0,BKN,7900.0,,,,
KRDR,05-01-2004,05:00,METAR,,20,5.0,,,9999.0,Cloud Development Not Observable,4.0,-6.0,30.18,1023.2,,,,0,0,0,,,,,,,,,7/8 Mostly Cloudy,7500.0,,FEW,5400.0,BKN,7400.0,,,,
KRDR,05-01-2004,04:00,METAR,,50,6.0,,,9999.0,Cloud Development Not Observable,6.0,-5.0,30.17,1022.9,,,,0,0,0,,,,,,,,,4/8 Partly Cloudy,72000.0,,SCT,5000.0,SCT,9900.0,,,,
KRDR,05-01-2004,03:00,METAR,,20,7.0,,,9999.0,Cloud Development Not Observable,6.0,-3.0,30.16,1022.6,,,,0,0,0,,,,,,,,,4/8 Partly Cloudy,72000.0,,FEW,6900.0,SCT,8900.0,,,,
KRDR,05-01-2004,02:00,METAR,,360,4.0,,,9999.0,Precipitation in the Vicinity/Cloud Development Not Observable,7.0,-6.0,30.14,1021.9,,,,16,0,0,,,,,,,,,4/8 Partly Cloudy,72000.0,,FEW,4500.0,SCT,7900.0,,,,
KRDR,05-01-2004,01:00,METAR,,350,5.0,,,9999.0,Precipitation in the Vicinity/Cloud Development Not Observable,9.0,-5.0,30.13,1021.6,,,,16,0,0,,,,,,,,,4/8 Partly Cloudy,72000.0,,SCT,4500.0,SCT,5900.0,,,,
KRDR,05-01-2004,00:00,METAR,,320,8.0,,,9999.0,Cloud Development Not Observable,11.0,-6.0,30.12,1021.1,,,,0,0,0,,,,,,,,,7/8 Mostly Cloudy,8000.0,,FEW,5000.0,SCT,7900.0,BKN,9400.0,,
KRDR,04-30-2004,23:00,METAR,,310,9.0,,,9999.0,Cloud Development Not Observable,11.0,-6.0,30.13,1021.4,,,,0,0,0,,,,,,,,,7/8 Mostly Cloudy,8000.0,,FEW,5000.0,BKN,7900.0,,,,
KRDR,04-30-2004,22:00,METAR,,340,13.0,,,9999.0,Cloud Development Not Observable,12.0,-7.0,30.12,1021.0,,,,0,0,0,,,,,,,,,7/8 Mostly Cloudy,8000.0,,BKN,7900.0,,,,,,
KRDR,04-30-2004,21:00,METAR,,330,13.0,,,9999.0,Cloud Development Not Observable,11.0,-7.0,30.13,1021.5,,,,0,0,0,,,,,,,,,4/8 Partly Cloudy,72000.0,,SCT,5900.0,,,,,,
KRDR,04-30-2004,20:00,METAR,,310,10.0,22.0,330/30KTS,9999.0,Cloud Development Not Observable,12.0,-7.0,30.14,1021.5,,,,0,0,0,,,,,,,,,4/8 Partly Cloudy,72000.0,,SCT,5900.0,,,,,,
KRDR,04-30-2004,19:00,METAR,,330,11.0,23.0,330/31KTS,9999.0,Cloud Development Not Observable,12.0,-6.0,30.14,1021.5,,,,0,0,0,,,,,,,,,4/8 Partly Cloudy,72000.0,,SCT,4000.0,,,,,,
KRDR,04-30-2004,18:00,METAR,,340,22.0,29.0,330/31KTS,9999.0,Cloud Development Not Observable,11.0,-7.0,30.14,1021.7,,,,0,0,0,,,,,,,,,2/8 Mostly Clear,72000.0,,FEW,3500.0,,,,,,
KRDR,04-30-2004,17:00,METAR,,330,24.0,29.0,,9999.0,Cloud Development Not Observable,10.0,-7.0,30.14,1021.7,,,,0,0,0,,,,,,,,,2/8 Mostly Clear,72000.0,,FEW,3500.0,,,,,,
KRDR,04-30-2004,16:00,METAR,,350,20.0,26.0,,9999.0,Cloud Development Not Observable,8.0,-4.0,30.12,1021.3,,,,0,0,0,,,,,,,,,2/8 Mostly Clear,72000.0,,FEW,3500.0,,,,,,
KRDR,04-30-2004,15:00,METAR,,330,21.0,27.0,,9999.0,Cloud Development Not Observable,7.0,-2.0,30.11,1021.0,,,,0,0,0,,,,,,,,,4/8 Partly Cloudy,72000.0,,SCT,3500.0,,,,,,
KRDR,04-30-2004,14:00,METAR,,330,19.0,27.0,,9999.0,Cloud Development Not Observable,5.0,-2.0,30.10,1020.6,,,,0,0,0,,,,,,,,,4/8 Partly Cloudy,72000.0,,SCT,3000.0,SCT,25000.0,,,,
KRDR,04-30-2004,13:00,METAR,,330,19.0,26.0,,9999.0,Cloud Development Not Observable,4.0,0.0,30.08,1019.8,,,,0,0,0,,,,,,,,,4/8 Partly Cloudy,72000.0,,SCT,2400.0,SCT,25000.0,,,,
KRDR,04-30-2004,12:00,METAR,,310,18.0,23.0,,9999.0,Cloud Development Not Observable,5.0,1.0,30.03,1018.0,,,,0,0,0,,,,,,,,,7/8 Mostly Cloudy,3400.0,,FEW,2200.0,BKN,3500.0,,,,
KRDR,04-30-2004,11:00,METAR,,310,16.0,21.0,310/25KTS,9999.0,Cloud Development Not Observable,6.0,1.0,30.00,1016.9,,,,0,0,0,,,,,,,,,7/8 Mostly Cloudy,9000.0,,SCT,3500.0,BKN,8900.0,,,,
KRDR,04-30-2004,10:00,METAR,,270,9.0,,,9999.0,Cloud Development Not Observable,6.0,-2.0,29.98,1016.2,,,,0,0,0,,,,,,,,,7/8 Mostly Cloudy,9000.0,,SCT,4500.0,BKN,8900.0,,,,
KRDR,04-30-2004,09:00,METAR,,220,13.0,,,9999.0,Cloud Development Not Observable,4.0,-4.0,29.98,1016.2,,,,0,0,0,,,,,,,,,7/8 Mostly Cloudy,6000.0,,FEW,3500.0,SCT,6400.0,BKN,8900.0,,
KRDR,04-30-2004,08:00,METAR,,200,16.0,,,9999.0,Cloud Development Not Observable,6.0,-5.0,29.97,1015.9,,,,0,0,0,,,,,,,,,8/8 Overcast,9000.0,,OVC,8900.0,,,,,,
KRDR,04-30-2004,07:00,METAR,,200,15.0,,,9999.0,Cloud Development Not Observable,7.0,-5.0,29.99,1016.5,,,,0,0,0,,,,,,,,,8/8 Overcast,8500.0,,OVC,8400.0,,,,,,
KRDR,04-30-2004,06:00,METAR,,190,11.0,,,9999.0,Cloud Development Not Observable,5.0,-4.0,30.01,1017.3,,,,0,0,0,,,,,,,,,7/8 Mostly Cloudy,18000.0,,BKN,18000.0,,,,,,
KRDR,04-30-2004,05:00,METAR,,190,7.0,,,9999.0,Cloud Development Not Observable,4.0,-4.0,30.02,1017.8,,,,0,0,0,,,,,,,,,7/8 Mostly Cloudy,25000.0,,BKN,25000.0,,,,,,
KRDR,04-30-2004,04:00,METAR,,190,7.0,,,9999.0,Cloud Development Not Observable,2.0,-5.0,30.03,1018.3,,,,0,0,0,,,,,,,,,4/8 Partly Cloudy,72000.0,,SCT,25000.0,,,,,,
KRDR,04-30-2004,03:00,METAR,,190,7.0,,,9999.0,Cloud Development Not Observable,2.0,-5.0,30.04,1018.7,,,,0,0,0,,,,,,,,,4/8 Partly Cloudy,72000.0,,SCT,25000.0,,,,,,
KRDR,04-30-2004,02:00,METAR,,230,7.0,,,9999.0,Cloud Development Not Observable,6.0,-5.0,30.04,1018.5,,,,0,0,0,,,,,,,,,4/8 Partly Cloudy,72000.0,,SCT,25000.0,,,,,,
KRDR,04-30-2004,01:00,METAR,,290,6.0,,,9999.0,Cloud Development Not Observable,9.0,-6.0,30.05,1018.9,,,,0,0,0,,,,,,,,,4/8 Partly Cloudy,72000.0,,FEW,5400.0,SCT,25000.0,,,,
KRDR,04-30-2004,00:00,METAR,,300,11.0,,,9999.0,Cloud Development Not Observable,10.0,-7.0,30.05,1018.9,,,,0,0,0,,,,,,,,,7/8 Mostly Cloudy,25000.0,,FEW,5400.0,BKN,25000.0,,,,
KRDR,04-29-2004,23:00,METAR,,320,9.0,18.0,,9999.0,Cloud Development Not Observable,11.0,-7.0,30.05,1018.8,,,,0,0,0,,,,,,,,,7/8 Mostly Cloudy,25000.0,,FEW,5400.0,BKN,25000.0,,,,
KRDR,04-29-2004,22:00,METAR,,320,9.0,17.0,,9999.0,Cloud Development Not Observable,10.0,-9.0,30.07,1019.6,,,,0,0,0,,,,,,,,,7/8 Mostly Cloudy,25000.0,,FEW,5000.0,BKN,25000.0,,,,
KRDR,04-29-2004,21:00,METAR,,320,8.0,21.0,,9999.0,Cloud Development Not Observable,10.0,-8.0,30.08,1019.7,,,,0,0,0,,,,,,,,,7/8 Mostly Cloudy,25000.0,,FEW,5000.0,BKN,25000.0,,,,
KRDR,04-29-2004,20:00,METAR,,320,9.0,17.0,,9999.0,Cloud Development Not Observable,9.0,-7.0,30.09,1020.2,,,,0,0,0,,,,,,,,,7/8 Mostly Cloudy,25000.0,,FEW,5000.0,BKN,25000.0,,,,
KRDR,04-29-2004,19:00,METAR,,330,12.0,20.0,,9999.0,Cloud Development Not Observable,9.0,-6.0,30.10,1020.6,,,,0,0,0,,,,,,,,,4/8 Partly Cloudy,72000.0,,FEW,3500.0,SCT,25000.0,,,,
KRDR,04-29-2004,18:00,METAR,,330,10.0,20.0,,9999.0,Cloud Development Not Observable,7.0,-5.0,30.12,1021.2,,,,0,0,0,,,,,,,,,4/8 Partly Cloudy,72000.0,,FEW,3000.0,SCT,25000.0,,,,
KRDR,04-29-2004,17:00,METAR,,340,13.0,,,9999.0,Cloud Development Not Observable,6.0,-5.0,30.12,1021.4,,,,0,0,0,,,,,,,,,4/8 Partly Cloudy,72000.0,,FEW,3000.0,SCT,25000.0,,,,
KRDR,04-29-2004,16:00,METAR,,340,15.0,21.0,,9999.0,Cloud Development Not Observable,4.0,-5.0,30.11,1021.0,,,,0,0,0,,,,,,,,,4/8 Partly Cloudy,72000.0,,FEW,3000.0,SCT,25000.0,,,,
KRDR,04-29-2004,15:00,METAR,,360,17.0,,,9999.0,Cloud Development Not Observable,3.0,-5.0,30.10,1020.6,,,,0,0,0,,,,,,,,,2/8 Mostly Clear,72000.0,,FEW,2500.0,FEW,25000.0,,,,
KRDR,04-29-2004,14:00,METAR,,340,16.0,22.0,,9999.0,Cloud Development Not Observable,2.0,-5.0,30.09,1020.4,,,,0,0,0,,,,,,,,,4/8 Partly Cloudy,72000.0,,FEW,2000.0,SCT,25000.0,,,,
KRDR,04-29-2004,13:00,METAR,,350,13.0,,,9999.0,Cloud Development Not Observable,-1.0,-5.0,30.08,1020.0,,,,0,0,0,,,,,,,,,4/8 Partly Cloudy,72000.0,,FEW,2000.0,SCT,25000.0,,,,
KRDR,04-29-2004,12:00,METAR,,350,11.0,,330/25KTS,9999.0,Cloud Development Not Observable,-2.0,-5.0,30.05,,,,,0,0,0,,,,,,,,,4/8 Partly Cloudy,72000.0,,SCT,2000.0,,,,,,
KRDR,04-29-2004,11:00,METAR,,340,20.0,26.0,,9999.0,Cloud Development Not Observable,-1.0,-4.0,30.04,1018.5,,,,0,0,0,,,,,,,,,7/8 Mostly Cloudy,2100.0,,BKN,2100.0,,,,,,
KRDR,04-29-2004,10:00,METAR,,350,19.0,,340/27KTS,9999.0,Cloud Development Not Observable,-1.0,-4.0,29.98,1016.1,,,,0,0,0,,,,,,,,,8/8 Overcast,2000.0,,OVC,2000.0,,,,,,
KRDR,04-29-2004,09:00,METAR,,340,21.0,28.0,330/31KTS,9999.0,Cloud Development Not Observable,0.0,-3.0,29.95,1015.0,,,,0,0,0,,,,,,,,,8/8 Overcast,2000.0,,OVC,2000.0,,,,,,
KRDR,04-29-2004,08:00,METAR,,350,22.0,29.0,340/29KTS,9999.0,Cloud Development Not Observable,1.0,-2.0,29.92,1014.1,,,,0,0,0,,,,,,,,,8/8 Overcast,1800.0,,OVC,1800.0,,,,,,
KRDR,04-29-2004,07:00,METAR,,340,20.0,27.0,330/28KTS,9999.0,Cloud Development Not Observable,1.0,-2.0,29.91,1013.4,,,,0,0,0,,,,,,,,,8/8 Overcast,1800.0,,OVC,1800.0,,,,,,
KRDR,04-29-2004,06:00,METAR,,340,21.0,31.0,,9999.0,Cloud Development Not Observable,1.0,-2.0,29.86,1011.7,,,,0,0,0,,,,,,,,,8/8 Overcast,1800.0,,OVC,1800.0,,,,,,
KRDR,04-29-2004,05:00,METAR,,340,25.0,30.0,350/33KTS,9999.0,Cloud Development Not Observable,1.0,-2.0,29.81,1010.1,,,,0,0,0,,,,,,,,,8/8 Overcast,1800.0,,OVC,1800.0,,,,,,
KRDR,04-29-2004,04:00,METAR,,340,23.0,33.0,340/36KTS,9999.0,Cloud Development Not Observable,1.0,-2.0,29.75,1008.1,,,,0,0,0,,,,,,,,,8/8 Overcast,1700.0,,OVC,1700.0,,,,,,
KRDR,04-29-2004,03:00,METAR,,340,28.0,34.0,350/37KTS,9999.0,Cloud Development Not Observable,1.0,-2.0,29.71,1006.8,,,,0,0,0,,,,,,,,,8/8 Overcast,1800.0,,OVC,1800.0,,,,,,
KRDR,04-29-2004,02:00,METAR,,350,26.0,35.0,340/36KTS,9999.0,Cloud Development Not Observable,2.0,-2.0,29.63,1004.0,,,,0,0,0,,,,,,,,,8/8 Overcast,1900.0,,OVC,1900.0,,,,,,
KRDR,04-29-2004,01:10,SPECI,,340,23.0,36.0,,9999.0,Cloud Development Not Observable,3.0,-1.0,29.63,,,,,0,0,0,,,,,,,,,8/8 Overcast,1900.0,,OVC,1900.0,,,,,,
KRDR,04-29-2004,01:00,METAR,,340,25.0,36.0,350/38KTS,9999.0,Cloud Development Not Observable,3.0,-1.0,29.61,1003.5,,,,0,0,0,,,,,,,,,8/8 Overcast,15000.0,,SCT,2100.0,OVC,15000.0,,,,
KRDR,04-29-2004,00:00,METAR,,340,23.0,37.0,,9999.0,Cloud Development Not Observable,5.0,0.0,29.54,1001.0,,,,0,0,0,,,,,,,,,8/8 Overcast,15000.0,,FEW,5000.0,BKN,15000.0,OVC,25000.0,,
KRDR,04-28-2004,23:00,METAR,,350,29.0,35.0,350/36KTS,9999.0,Cloud Development Not Observable,9.0,2.0,29.50,999.7,,,,0,0,0,,,,,,,,,8/8 Overcast,15000.0,,BKN,15000.0,OVC,25000.0,,,,
KRDR,04-28-2004,22:00,METAR,,360,27.0,32.0,,9999.0,Cloud Development Not Observable,18.0,6.0,29.34,993.9,,,,0,0,0,,,,,,,,,7/8 Mostly Cloudy,15000.0,,BKN,15000.0,BKN,25000.0,,,,
KRDR,04-28-2004,21:00,METAR,,10,24.0,30.0,,9999.0,Cloud Development Not Observable,18.0,6.0,29.34,993.9,,,,0,0,0,,,,,,,,,7/8 Mostly Cloudy,15000.0,,BKN,15000.0,BKN,25000.0,,,,
KRDR,04-28-2004,20:00,METAR,,360,22.0,27.0,,9999.0,Cloud Development Not Observable,20.0,7.0,29.29,992.5,,,,0,0,0,,,,,,,,,8/8 Overcast,15000.0,,BKN,15000.0,OVC,25000.0,,,,
KRDR,04-28-2004,19:00,METAR,,330,12.0,,,9999.0,Cloud Development Not Observable,26.0,4.0,29.23,990.0,,,,0,0,0,,,,,,,,,7/8 Mostly Cloudy,15000.0,,BKN,15000.0,BKN,25000.0,,,,
KRDR,04-28-2004,18:00,METAR,,300,15.0,20.0,,9999.0,Cloud Development Not Observable,27.0,1.0,29.21,989.1,,,,0,0,0,,,,,,,,,7/8 Mostly Cloudy,25000.0,,SCT,15000.0,BKN,25000.0,,,,
KRDR,04-28-2004,17:00,METAR,,310,12.0,18.0,,9999.0,Cloud Development Not Observable,26.0,3.0,29.21,989.3,,,,0,0,0,,,,,,,,,7/8 Mostly Cloudy,25000.0,,FEW,15000.0,BKN,25000.0,,,,
KRDR,04-28-2004,16:00,METAR,,290,10.0,,,9999.0,Cloud Development Not Observable,26.0,-1.0,29.19,988.4,,,,0,0,0,,,,,,,,,7/8 Mostly Cloudy,25000.0,,FEW,15000.0,BKN,25000.0,,,,
KRDR,04-28-2004,15:00,METAR,,240,7.0,,,9999.0,Cloud Development Not Observable,22.0,2.0,29.18,988.3,,,,0,0,0,,,,,,,,,7/8 Mostly Cloudy,25000.0,,FEW,15000.0,BKN,25000.0,,,,
KRDR,04-28-2004,14:00,METAR,,260,9.0,,,9999.0,Cloud Development Not Observable,20.0,3.0,29.18,988.3,,,,0,0,0,,,,,,,,,7/8 Mostly Cloudy,25000.0,,FEW,15000.0,BKN,25000.0,,,,
KRDR,04-28-2004,13:00,METAR,,230,10.0,,,9999.0,Cloud Development Not Observable,15.0,3.0,29.20,989.1,,,,0,0,0,,,,,,,,,7/8 Mostly Cloudy,25000.0,,FEW,15000.0,BKN,25000.0,,,,
KRDR,04-28-2004,12:00,METAR,,240,8.0,,,9999.0,Cloud Development Not Observable,14.0,2.0,29.20,988.9,,,,0,0,0,,,,,,,,,7/8 Mostly Cloudy,25000.0,,BKN,25000.0,,,,,,
KRDR,04-28-2004,11:00,METAR,,220,10.0,,,9999.0,Cloud Development Not Observable,12.0,3.0,29.19,988.6,,,,0,0,0,,,,,,,,,7/8 Mostly Cloudy,25000.0,,BKN,25000.0,,,,,,
KRDR,04-28-2004,10:00,METAR,,220,10.0,,,9999.0,Cloud Development Not Observable,11.0,3.0,29.21,989.3,,,,0,0,0,,,,,,,,,2/8 Mostly Clear,72000.0,,FEW,25000.0,,,,,,
KRDR,04-28-2004,09:00,METAR,,210,9.0,,,9999.0,Cloud Development Not Observable,10.0,5.0,29.22,989.6,,,,0,0,0,,,,,,,,,2/8 Mostly Clear,72000.0,,FEW,25000.0,,,,,,
KRDR,04-28-2004,08:00,METAR,,170,8.0,,,9999.0,Cloud Development Not Observable,8.0,6.0,29.24,990.5,,,,0,0,0,,,,,,,,,2/8 Mostly Clear,72000.0,,FEW,25000.0,,,,,,
KRDR,04-28-2004,07:00,METAR,,160,8.0,,,9999.0,Cloud Development Not Observable,11.0,7.0,29.26,991.0,,,,0,0,0,,,,,,,,,2/8 Mostly Clear,72000.0,,FEW,25000.0,,,,,,
KRDR,04-28-2004,06:00,METAR,,150,10.0,,,9999.0,Cloud Development Not Observable,13.0,8.0,29.29,992.1,,,,0,0,0,,,,,,,,,2/8 Mostly Clear,72000.0,,FEW,25000.0,,,,,,
KRDR,04-28-2004,05:00,METAR,,140,9.0,,,9999.0,Cloud Development Not Observable,14.0,8.0,29.32,993.4,,,,0,0,0,,,,,,,,,2/8 Mostly Clear,72000.0,,FEW,8900.0,FEW,25000.0,,,,
KRDR,04-28-2004,04:00,METAR,,90,7.0,,,9999.0,Cloud Development Not Observable,16.0,8.0,29.36,994.7,,,,0,0,0,,,,,,,,,4/8 Partly Cloudy,72000.0,,SCT,8900.0,SCT,25000.0,,,,
KRDR,04-28-2004,03:00,METAR,,150,12.0,,,9999.0,Cloud Development Not Observable,18.0,7.0,29.36,994.7,,,,0,0,0,,,,,,,,,4/8 Partly Cloudy,72000.0,,SCT,8900.0,SCT,25000.0,,,,
KRDR,04-28-2004,02:00,METAR,,70,4.0,,,9999.0,Cloud Development Not Observable,19.0,8.0,29.38,995.4,,,,0,0,0,,,,,,,,,4/8 Partly Cloudy,72000.0,,SCT,8900.0,SCT,25000.0,,,,
KRDR,04-28-2004,01:00,METAR,,130,10.0,,,9999.0,Cloud Development Not Observable,21.0,7.0,29.38,995.3,,,,0,0,0,,,,,,,,,7/8 Mostly Cloudy,25000.0,,SCT,8900.0,BKN,25000.0,,,,
KRDR,04-28-2004,00:00,METAR,,120,7.0,,,9999.0,Cloud Development Not Observable,23.0,6.0,29.42,996.9,,,,0,0,0,,,,,,,,,7/8 Mostly Cloudy,9000.0,,BKN,8900.0,BKN,25000.0,,,,
KRDR,04-27-2004,23:00,METAR,,,4.0,,,9999.0,Precipitation in the Vicinity/Cloud Development Not Observable,23.0,6.0,29.45,997.9,,,,16,0,0,,,,,,,,,7/8 Mostly Cloudy,8000.0,,BKN,7900.0,BKN,9900.0,BKN,25000.0,,
KRDR,04-27-2004,22:00,METAR,,290,8.0,16.0,,9999.0,Precipitation in the Vicinity/Cloud Development Not Observable,25.0,5.0,29.45,997.9,,,,16,0,0,,,,,,,,,7/8 Mostly Cloudy,7000.0,,BKN,6900.0,BKN,25000.0,,,,
KRDR,04-27-2004,21:00,METAR,,310,10.0,,,9999.0,Precipitation in the Vicinity/Cloud Development Not Observable,26.0,3.0,29.47,998.6,,,,16,0,0,,,,,,,,,7/8 Mostly Cloudy,10000.0,,SCT,6900.0,BKN,9900.0,BKN,25000.0,,
KRDR,04-27-2004,20:00,METAR,,,1.0,,,9999.0,Cloud Development Not Observable,23.0,4.0,29.53,1000.4,,,,0,0,0,,,,,,,,,7/8 Mostly Cloudy,6000.0,,BKN,5900.0,BKN,9900.0,,,,
KRDR,04-27-2004,19:00,METAR,,210,8.0,,,9999.0,Cloud Development Not Observable,25.0,2.0,29.55,1001.1,,,,0,0,0,,,,,,,,,7/8 Mostly Cloudy,6000.0,,BKN,5900.0,BKN,9900.0,,,,
KRDR,04-27-2004,18:00,METAR,,210,11.0,,,9999.0,Cloud Development Not Observable,23.0,2.0,29.60,1002.9,,,,0,0,0,,,,,,,IN,,4/8 Partly Cloudy,72000.0,,SCT,11000.0,,,,,,
KRDR,04-27-2004,17:00,METAR,,230,12.0,,,9999.0,Cloud Development Not Observable,20.0,0.0,29.64,1004.4,,,,0,0,0,,,,,,,,,4/8 Partly Cloudy,72000.0,,FEW,6400.0,SCT,11000.0,,,,
KRDR,04-27-2004,16:00,METAR,,220,12.0,,,9999.0,Cloud Development Not Observable,14.0,-2.0,29.69,1006.3,,,,0,0,0,,,,,,,,,7/8 Mostly Cloudy,11000.0,,SCT,4500.0,BKN,11000.0,,,,
KRDR,04-27-2004,15:00,METAR,,190,12.0,,,9999.0,Cloud Development Not Observable,12.0,-2.0,29.71,1006.8,,,,0,0,0,,,,,,,,,7/8 Mostly Cloudy,11000.0,,SCT,6400.0,BKN,11000.0,,,,
KRDR,04-27-2004,14:19,SPECI,,180,12.0,,,9999.0,Cloud Development Not Observable,9.0,-1.0,29.74,,,,,0,0,0,,,,,,,,,7/8 Mostly Cloudy,11000.0,,SCT,6400.0,BKN,11000.0,,,,
KRDR,04-27-2004,14:07,SPECI,,190,14.0,,,9999.0,Rain/Cloud Development Not Observable,8.0,-2.0,29.75,,,,,61,0,0,,,,,,,,,7/8 Mostly Cloudy,6500.0,,BKN,6400.0,BKN,9900.0,,,,
KRDR,04-27-2004,14:00,METAR,,190,17.0,,,9999.0,Cloud Development Not Observable,8.0,-2.0,29.75,1008.3,,,,0,0,0,,,,,,,,,7/8 Mostly Cloudy,6500.0,,BKN,6400.0,BKN,9900.0,,,,
KRDR,04-27-2004,13:00,METAR,,180,15.0,,,9999.0,Cloud Development Not Observable,7.0,-3.0,29.79,1009.9,,,,0,0,0,,,,,,,,,7/8 Mostly Cloudy,10000.0,,SCT,5900.0,BKN,9900.0,,,,
KRDR,04-27-2004,12:00,METAR,,170,13.0,,,9999.0,Cloud Development Not Observable,5.0,-3.0,29.83,1011.1,,,,0,0,0,,,,,,,IN,,7/8 Mostly Cloudy,9000.0,,BKN,8900.0,BKN,25000.0,,,,
KRDR,04-27-2004,11:00,METAR,,170,15.0,,,9999.0,Cloud Development Not Observable,6.0,-3.0,29.89,1013.0,,,,0,0,0,,,,,,,,,8/8 Overcast,9500.0,,OVC,9400.0,,,,,,
KRDR,04-27-2004,10:00,METAR,,180,14.0,,,9999.0,Cloud Development Not Observable,6.0,-3.0,29.93,1014.4,,,,0,0,0,,,,,,,,,8/8 Overcast,8500.0,,OVC,8400.0,,,,,,
KRDR,04-27-2004,09:26,SPECI,,180,13.0,,,9999.0,Cloud Development Not Observable,5.0,-2.0,29.94,,,,,0,0,0,,,,,,,,,8/8 Overcast,7000.0,,OVC,6900.0,,,,,,
KRDR,04-27-2004,09:00,METAR,,170,11.0,,,9999.0,Cloud Development Not Observable,5.0,-3.0,29.97,1015.9,,,,0,0,0,,,,,,,,,8/8 Overcast,8000.0,,OVC,7900.0,,,,,,
KRDR,04-27-2004,08:00,METAR,,180,12.0,,,9999.0,Cloud Development Not Observable,5.0,-4.0,30.00,1017.0,,,,0,0,0,,,,,,,,,8/8 Overcast,8000.0,,BKN,7900.0,OVC,11000.0,,,,
KRDR,04-27-2004,07:00,METAR,,170,10.0,,,9999.0,Cloud Development Not Observable,4.0,-3.0,30.02,1017.8,,,,0,0,0,,,,,,,,,8/8 Overcast,9000.0,,FEW,5000.0,FEW,6900.0,OVC,8900.0,,
KRDR,04-27-2004,06:00,METAR,,160,9.0,,,9999.0,Cloud Development Not Observable,3.0,-4.0,30.03,1018.2,,,,0,0,0,,,,,,,,,7/8 Mostly Cloudy,10000.0,,BKN,9900.0,,,,,,
KRDR,04-27-2004,05:00,METAR,,150,7.0,,,9999.0,Cloud Development Not Observable,4.0,-4.0,30.06,1019.2,,,,0,0,0,,,,,,,,,7/8 Mostly Cloudy,10000.0,,BKN,9900.0,,,,,,
KRDR,04-27-2004,04:00,METAR,,140,7.0,,,9999.0,Cloud Development Not Observable,5.0,-4.0,30.09,1020.1,,,,0,0,0,,,,,,,,,7/8 Mostly Cloudy,10000.0,,BKN,9900.0,,,,,,
KRDR,04-27-2004,03:00,METAR,,100,4.0,,,9999.0,Cloud Development Not Observable,6.0,-5.0,30.11,1020.8,,,,0,0,0,,,,,,,,,4/8 Partly Cloudy,72000.0,,SCT,8900.0,SCT,25000.0,,,,
KRDR,04-27-2004,02:00,METAR,,50,4.0,,,9999.0,Cloud Development Not Observable,7.0,-5.0,30.12,1021.2,,,,0,0,0,,,,,,,,,4/8 Partly Cloudy,72000.0,,SCT,25000.0,,,,,,
KRDR,04-27-2004,01:00,METAR,,10,9.0,,,9999.0,Cloud Development Not Observable,9.0,-5.0,30.12,1021.2,,,,0,0,0,,,,,,,,,4/8 Partly Cloudy,72000.0,,FEW,4000.0,SCT,25000.0,,,,
KRDR,04-27-2004,00:00,METAR,,360,9.0,,,9999.0,Cloud Development Not Observable,10.0,-5.0,30.13,1021.7,,,,0,0,0,,,,,,,,,2/8 Mostly Clear,72000.0,,FEW,4000.0,FEW,25000.0,,,,
KRDR,04-26-2004,23:00,METAR,,350,14.0,20.0,,9999.0,Cloud Development Not Observable,11.0,-5.0,30.14,1021.8,,,,0,0,0,,,,,,,,,2/8 Mostly Clear,72000.0,,FEW,4000.0,FEW,25000.0,,,,
KRDR,04-26-2004,22:00,METAR,,360,11.0,,,9999.0,Cloud Development Not Observable,11.0,-4.0,30.14,1021.7,,,,0,0,0,,,,,,,,,2/8 Mostly Clear,72000.0,,FEW,4000.0,,,,,,
KRDR,04-26-2004,21:00,METAR,,10,16.0,,,9999.0,Cloud Development Not Observable,10.0,-4.0,30.16,1022.4,,,,0,0,0,,,,,,,,,2/8 Mostly Clear,72000.0,,FEW,4000.0,,,,,,
KRDR,04-26-2004,20:00,METAR,,350,16.0,24.0,,9999.0,Cloud Development Not Observable,9.0,-4.0,30.18,1023.1,,,,0,0,0,,,,,,,,,4/8 Partly Cloudy,72000.0,,SCT,4000.0,,,,,,
KRDR,04-26-2004,19:00,METAR,,340,16.0,23.0,,9999.0,Cloud Development Not Observable,7.0,-3.0,30.20,1024.0,,,,0,0,0,,,,,,,,,4/8 Partly Cloudy,72000.0,,SCT,3200.0,,,,,,
KRDR,04-26-2004,18:00,METAR,,330,12.0,20.0,,9999.0,Cloud Development Not Observable,6.0,-4.0,30.21,1024.6,,,,0,0,0,,,,,,,,,4/8 Partly Cloudy,72000.0,,SCT,3200.0,,,,,,
KRDR,04-26-2004,17:00,METAR,,360,16.0,22.0,,9999.0,Cloud Development Not Observable,5.0,-3.0,30.22,1024.9,,,,0,0,0,,,,,,,,,7/8 Mostly Cloudy,3000.0,,BKN,3000.0,,,,,,
KRDR,04-26-2004,16:17,SPECI,,330,15.0,,,9999.0,Cloud Development Not Observable,4.0,-3.0,30.21,,,,,0,0,0,,,,,,,,,7/8 Mostly Cloudy,3000.0,,BKN,3000.0,,,,,,
KRDR,04-26-2004,16:00,METAR,,350,15.0,23.0,,9999.0,Cloud Development Not Observable,4.0,-4.0,30.21,1024.5,,,,0,0,0,,,,,,,,,7/8 Mostly Cloudy,2900.0,,BKN,2900.0,,,,,,
KRDR,04-26-2004,15:00,METAR,,330,17.0,,,9999.0,Cloud Development Not Observable,2.0,-3.0,30.20,1024.2,,,,0,0,0,,,,,,,,,7/8 Mostly Cloudy,2500.0,,BKN,2500.0,,,,,,
KRDR,04-26-2004,14:00,METAR,,360,15.0,,,9999.0,Cloud Development Not Observable,1.0,-4.0,30.19,1023.9,,,,0,0,0,,,,,,,,,7/8 Mostly Cloudy,2500.0,,BKN,2500.0,,,,,,
KRDR,04-26-2004,13:00,METAR,,330,17.0,24.0,,9999.0,Cloud Development Not Observable,1.0,-3.0,30.16,1022.7,,,,0,0,0,,,,,,,,,7/8 Mostly Cloudy,2600.0,,BKN,2600.0,,,,,,
KRDR,04-26-2004,12:38,SPECI,,320,16.0,,,9999.0,Cloud Development Not Observable,1.0,-3.0,30.16,,,,,0,0,0,,,,,,,,,7/8 Mostly Cloudy,2700.0,,BKN,2700.0,,,,,,
KRDR,04-26-2004,12:00,METAR,,330,14.0,,,9999.0,Cloud Development Not Observable,-1.0,-4.0,30.14,1022.0,,,,0,0,0,,,,,,,,,2/8 Mostly Clear,72000.0,,FEW,5900.0,,,,,,
KRDR,04-26-2004,11:00,METAR,,350,11.0,,330/27KTS,9999.0,Cloud Development Not Observable,-1.0,-4.0,30.11,1021.0,,,,0,0,0,,,,,,,,,2/8 Mostly Clear,72000.0,,FEW,5900.0,,,,,,
KRDR,04-26-2004,10:00,METAR,,310,17.0,21.0,280/25KTS,9999.0,Cloud Development Not Observable,2.0,-3.0,30.09,1020.1,,,,0,0,0,,,,,,,,,7/8 Mostly Cloudy,6000.0,,BKN,5900.0,,,,,,
KRDR,04-26-2004,09:00,METAR,,300,15.0,,,9999.0,Cloud Development Not Observable,3.0,-2.0,30.07,1019.3,,,,0,0,0,,,,,,,,,7/8 Mostly Cloudy,6500.0,,BKN,6400.0,,,,,,
KRDR,04-26-2004,08:00,METAR,,290,12.0,,,9999.0,Cloud Development Not Observable,3.0,-2.0,30.05,1018.7,,,,0,0,0,,,,,,,,,7/8 Mostly Cloudy,6000.0,,BKN,5900.0,,,,,,
KRDR,04-26-2004,06:00,METAR,,300,7.0,,,9999.0,Cloud Development Not Observable,2.0,-1.0,30.04,1018.2,,,,0,0,0,,,,,,,IN,,7/8 Mostly Cloudy,6000.0,,BKN,5900.0,,,,,,
KRDR,04-26-2004,05:00,METAR,,350,12.0,,,9999.0,Cloud Development Not Observable,4.0,-1.0,30.04,1018.1,,,,0,0,0,,,,,,,,,7/8 Mostly Cloudy,3900.0,,BKN,4000.0,BKN,9900.0,,,,
KRDR,04-26-2004,04:00,METAR,,360,13.0,,,9999.0,Cloud Development Not Observable,5.0,1.0,30.02,1017.5,,,,0,0,0,,,,,,,,,7/8 Mostly Cloudy,6500.0,,SCT,3500.0,BKN,6400.0,,,,
KRDR,04-26-2004,03:00,METAR,,350,10.0,,,9999.0,Cloud Development Not Observable,6.0,2.0,29.99,1016.4,,,,0,0,0,,,,,,TRACE,,,7/8 Mostly Cloudy,7000.0,,BKN,6900.0,,,,,,
KRDR,04-26-2004,02:08,SPECI,,360,12.0,,,9999.0,Cloud Development Not Observable,6.0,3.0,29.97,,,,,0,0,0,,,,,,,,,8/8 Overcast,4400.0,,FEW,3700.0,BKN,4500.0,OVC,25000.0,,
KRDR,04-26-2004,02:00,METAR,,360,16.0,,,9999.0,Rain/Cloud Development Not Observable,6.0,3.0,29.96,1015.5,,,,61,0,0,,,,,,,,,8/8 Overcast,4400.0,,FEW,2200.0,SCT,4500.0,BKN,5400.0,OVC,25000.0
KRDR,04-26-2004,01:30,METAR,,10,20.0,,,9999.0,Rain/Cloud Development Not Observable,8.0,2.0,29.94,,,,,61,0,0,,,,,,,,,8/8 Overcast,6000.0,,SCT,4000.0,BKN,5900.0,OVC,25000.0,,
KRDR,04-26-2004,01:00,METAR,,360,18.0,,340/26KTS,9999.0,Cloud Development Not Observable,9.0,1.0,29.92,1014.1,,,,0,0,0,,,,,,,,,8/8 Overcast,6000.0,,FEW,4000.0,SCT,6400.0,OVC,25000.0,,
KRDR,04-26-2004,00:00,METAR,,350,18.0,,320/27KTS,9999.0,Cloud Development Not Observable,11.0,0.0,29.89,1013.3,,,,0,0,0,,,,,,,,,8/8 Overcast,8000.0,,FEW,3500.0,BKN,7900.0,OVC,25000.0,,
KRDR,04-25-2004,23:00,METAR,,250,12.0,,,9999.0,Precipitation in the Vicinity/Cloud Development Not Observable,10.0,0.0,29.85,1011.9,,,,16,0,0,,,,,,,,,7/8 Mostly Cloudy,8000.0,,SCT,5000.0,BKN,7900.0,BKN,25000.0,,
KRDR,04-25-2004,22:00,METAR,,220,11.0,,280/34KTS,9999.0,Precipitation in the Vicinity/Cloud Development Not Observable,12.0,-2.0,29.84,1011.5,,,,16,0,0,,,,,,,,,7/8 Mostly Cloudy,10000.0,,FEW,4000.0,BKN,9900.0,BKN,25000.0,,
KRDR,04-25-2004,21:00,METAR,,290,18.0,28.0,320/34KTS,9999.0,Cloud Development Not Observable,13.0,-5.0,29.85,1011.9,,,,0,0,0,,,,,,,,,7/8 Mostly Cloudy,4900.0,,FEW,3000.0,SCT,5000.0,BKN,7900.0,BKN,25000.0
KRDR,04-25-2004,20:00,METAR,,330,17.0,34.0,,9999.0,Cloud Development Not Observable,12.0,-3.0,29.86,1011.9,,,,0,0,0,,,,,,,,,8/8 Overcast,9000.0,,SCT,5000.0,OVC,8900.0,,,,
KRDR,04-25-2004,19:00,METAR,,300,16.0,26.0,,9999.0,Cloud Development Not Observable,14.0,-6.0,29.84,1011.3,,,,0,0,0,,,,,,,,,7/8 Mostly Cloudy,9000.0,,BKN,8900.0,BKN,25000.0,,,,
KRDR,04-25-2004,18:00,METAR,,300,18.0,26.0,290/33KTS,9999.0,Cloud Development Not Observable,16.0,-8.0,29.85,1011.4,,,,0,0,0,,,,,,,,,7/8 Mostly Cloudy,25000.0,,SCT,7900.0,BKN,25000.0,,,,
KRDR,04-25-2004,17:00,METAR,,300,21.0,30.0,,9999.0,Cloud Development Not Observable,16.0,-7.0,29.86,1011.7,,,,0,0,0,,,,,,,,,2/8 Mostly Clear,72000.0,,FEW,9900.0,FEW,25000.0,,,,
KRDR,04-25-2004,16:00,METAR,,280,18.0,25.0,,9999.0,Cloud Development Not Observable,14.0,-5.0,29.87,1012.1,,,,0,0,0,,,,,,,,,2/8 Mostly Clear,72000.0,,FEW,25000.0,,,,,,
KRDR,04-25-2004,15:00,METAR,,280,16.0,22.0,,9999.0,Cloud Development Not Observable,13.0,-3.0,29.89,1012.9,,,,0,0,0,,,,,,,,,4/8 Partly Cloudy,72000.0,,SCT,25000.0,,,,,,
KRDR,04-25-2004,14:00,METAR,,280,11.0,,,9999.0,Cloud Development Not Observable,10.0,-1.0,29.91,1013.4,,,,0,0,0,,,,,,,,,2/8 Mostly Clear,72000.0,,FEW,25000.0,,,,,,
KRDR,04-25-2004,13:00,METAR,,280,11.0,,,9999.0,Cloud Development Not Observable,6.0,0.0,29.91,1013.5,,,,0,0,0,,,,,,,,,Clear,72000.0,,,73000.0,,,,,,
KRDR,04-25-2004,12:00,METAR,,280,9.0,,,9999.0,Cloud Development Not Observable,3.0,-1.0,29.89,1013.0,,,,0,0,0,,,,,,,,,2/8 Mostly Clear,72000.0,,FEW,12000.0,,,,,,
KRDR,04-25-2004,11:00,METAR,,280,6.0,,,9999.0,Cloud Development Not Observable,2.0,-2.0,29.89,1012.9,,,,0,0,0,,,,,,,,,2/8 Mostly Clear,72000.0,,FEW,12000.0,,,,,,
KRDR,04-25-2004,09:00,METAR,,310,10.0,,,9999.0,Cloud Development Not Observable,6.0,-1.0,29.89,1012.7,,,,0,0,0,,,,,,,,,2/8 Mostly Clear,72000.0,,FEW,9400.0,,,,,,
KRDR,04-25-2004,08:00,METAR,,310,14.0,,,9999.0,Cloud Development Not Observable,8.0,-2.0,29.89,1012.7,,,,0,0,0,,,,,,,,,4/8 Partly Cloudy,72000.0,,SCT,9400.0,,,,,,
KRDR,04-25-2004,07:00,METAR,,320,21.0,,,9999.0,Cloud Development Not Observable,12.0,-4.0,29.89,1012.6,,,,0,0,0,,,,,,,,,8/8 Overcast,7000.0,,SCT,5000.0,BKN,6900.0,OVC,9400.0,,
KRDR,04-25-2004,06:00,METAR,,310,20.0,31.0,,9999.0,Cloud Development Not Observable,12.0,-2.0,29.89,1013.0,,,,0,0,0,,,,,,,,,8/8 Overcast,7000.0,,SCT,5000.0,BKN,6900.0,OVC,9400.0,,
KRDR,04-25-2004,05:00,METAR,,320,10.0,,,9999.0,Cloud Development Not Observable,13.0,-2.0,29.86,1012.0,,,,0,0,0,,,,,,,,,8/8 Overcast,9000.0,,OVC,8900.0,,,,,,
KRDR,04-25-2004,04:00,METAR,,320,6.0,,,9999.0,Cloud Development Not Observable,15.0,-4.0,29.85,1011.6,,,,0,0,0,,,,,,,,,8/8 Overcast,8000.0,,OVC,7900.0,,,,,,
KRDR,04-25-2004,03:00,METAR,,210,10.0,,,9999.0,Cloud Development Not Observable,14.0,0.0,29.83,1011.1,,,,0,0,0,,,,,,,,,8/8 Overcast,9000.0,,BKN,8900.0,OVC,25000.0,,,,
KRDR,04-25-2004,02:00,METAR,,180,10.0,,,9999.0,Cloud Development Not Observable,15.0,0.0,29.82,1010.8,,,,0,0,0,,,,,,,,,8/8 Overcast,25000.0,,SCT,8900.0,OVC,25000.0,,,,
KRDR,04-25-2004,01:00,METAR,,180,20.0,,,9999.0,Cloud Development Not Observable,17.0,-1.0,29.82,1010.8,,,,0,0,0,,,,,,,,,8/8 Overcast,12000.0,,FEW,5900.0,SCT,12000.0,OVC,25000.0,,
KRDR,04-24-2004,23:00,METAR,,200,18.0,25.0,190/28KTS,9999.0,Cloud Development Not Observable,19.0,-2.0,29.85,1011.7,,,,0,0,0,,,,,,,,,7/8 Mostly Cloudy,25000.0,,BKN,25000.0,,,,,,
KRDR,04-24-2004,22:00,METAR,,200,18.0,25.0,180/28KTS,9999.0,Cloud Development Not Observable,20.0,-2.0,29.89,1013.4,,,,0,0,0,,,,,,,,,7/8 Mostly Cloudy,25000.0,,BKN,25000.0,,,,,,
KRDR,04-24-2004,21:00,METAR,,290,25.0,30.0,,9999.0,Cloud Development Not Observable,20.0,-1.0,29.90,1013.4,,,,0,0,0,,,,,,,,,7/8 Mostly Cloudy,25000.0,,BKN,25000.0,,,,,,
KRDR,04-24-2004,20:00,METAR,,200,21.0,30.0,180/32KTS,9999.0,Cloud Development Not Observable,19.0,-2.0,29.93,1014.3,,,,0,0,0,,,,,,,,,7/8 Mostly Cloudy,25000.0,,BKN,25000.0,,,,,,
KRDR,04-24-2004,19:00,METAR,,180,22.0,28.0,180/30KTS,9999.0,Cloud Development Not Observable,17.0,-3.0,29.98,1016.1,,,,0,0,0,,,,,,,,,7/8 Mostly Cloudy,25000.0,,BKN,25000.0,,,,,,
KRDR,04-24-2004,18:00,METAR,,190,22.0,30.0,,9999.0,Cloud Development Not Observable,16.0,-3.0,30.01,1018.6,,,,0,0,0,,,,,,,,,7/8 Mostly Cloudy,25000.0,,BKN,25000.0,,,,,,
KRDR,04-24-2004,17:00,METAR,,190,20.0,29.0,180/31KTS,9999.0,Cloud Development Not Observable,14.0,-4.0,30.05,1018.6,,,,0,0,0,,,,,,,,,2/8 Mostly Clear,72000.0,,FEW,25000.0,,,,,,
KRDR,04-24-2004,16:00,METAR,,190,24.0,31.0,190/37KTS,9999.0,Cloud Development Not Observable,11.0,-4.0,30.09,1019.9,,,,0,0,0,,,,,,,,,Clear,72000.0,,,73000.0,,,,,,
KRDR,04-24-2004,15:00,METAR,,190,25.0,32.0,190/33KTS,9999.0,Cloud Development Not Observable,9.0,-4.0,30.12,1021.1,,,,0,0,0,,,,,,,,,Clear,72000.0,,,73000.0,,,,,,
KRDR,04-24-2004,14:00,METAR,,170,20.0,26.0,,9999.0,Cloud Development Not Observable,6.0,-4.0,30.14,1021.9,,,,0,0,0,,,,,,,,,Clear,72000.0,,,73000.0,,,,,,
KRDR,04-24-2004,13:00,METAR,,170,17.0,21.0,,9999.0,Cloud Development Not Observable,3.0,-4.0,30.15,1022.3,,,,0,0,0,,,,,,,,,Clear,72000.0,,,73000.0,,,,,,
KRDR,04-24-2004,12:00,METAR,,180,13.0,,,9999.0,Cloud Development Not Observable,0.0,-4.0,30.16,1022.6,,,,0,0,0,,,,,,,,,Clear,72000.0,,,73000.0,,,,,,
KRDR,04-24-2004,11:00,METAR,,160,10.0,,,9999.0,Cloud Development Not Observable,0.0,-4.0,30.16,1022.5,,,,0,0,0,,,,,,,,,Clear,72000.0,,,73000.0,,,,,,
KRDR,04-24-2004,10:00,METAR,,170,10.0,,,9999.0,Cloud Development Not Observable,0.0,-5.0,30.19,1023.5,,,,0,0,0,,,,,,,,,Clear,72000.0,,,73000.0,,,,,,
KRDR,04-24-2004,09:00,METAR,,150,10.0,,,9999.0,Cloud Development Not Observable,0.0,-5.0,30.20,1023.9,,,,0,0,0,,,,,,,,,2/8 Mostly Clear,72000.0,,FEW,20000.0,,,,,,
KRDR,04-24-2004,08:00,METAR,,140,8.0,,,9999.0,Cloud Development Not Observable,2.0,-4.0,30.22,1024.6,,,,0,0,0,,,,,,,,,2/8 Mostly Clear,72000.0,,FEW,20000.0,,,,,,
KRDR,04-24-2004,07:00,METAR,,140,8.0,,,9999.0,Cloud Development Not Observable,2.0,-4.0,30.24,1025.3,,,,0,0,0,,,,,,,,,2/8 Mostly Clear,72000.0,,FEW,20000.0,,,,,,
KRDR,04-24-2004,06:00,METAR,,160,4.0,,,9999.0,Cloud Development Not Observable,1.0,-4.0,30.26,1026.1,,,,0,0,0,,,,,,,,,2/8 Mostly Clear,72000.0,,FEW,20000.0,,,,,,
KRDR,04-24-2004,05:00,METAR,,160,6.0,,,9999.0,Cloud Development Not Observable,3.0,-4.0,30.28,1026.5,,,,0,0,0,,,,,,,,,2/8 Mostly Clear,72000.0,,FEW,20000.0,,,,,,
KRDR,04-24-2004,04:00,METAR,,150,6.0,,,9999.0,Cloud Development Not Observable,3.0,-4.0,30.30,1027.3,,,,0,0,0,,,,,,,,,2/8 Mostly Clear,72000.0,,FEW,20000.0,,,,,,
KRDR,04-24-2004,03:00,METAR,,150,5.0,,,9999.0,Cloud Development Not Observable,1.0,-3.0,30.30,1027.4,,,,0,0,0,,,,,,,,,2/8 Mostly Clear,72000.0,,FEW,20000.0,,,,,,
KRDR,04-24-2004,02:00,METAR,,,4.0,,,9999.0,Cloud Development Not Observable,6.0,-4.0,30.29,1027.0,,,,0,0,0,,,,,,,,,2/8 Mostly Clear,72000.0,,FEW,20000.0,,,,,,
KRDR,04-24-2004,01:00,METAR,,350,5.0,,,9999.0,Cloud Development Not Observable,7.0,-5.0,30.29,1027.0,,,,0,0,0,,,,,,,,,2/8 Mostly Clear,72000.0,,FEW,20000.0,,,,,,
KRDR,04-24-2004,00:00,METAR,,40,8.0,,,9999.0,Cloud Development Not Observable,9.0,-4.0,30.29,1027.1,,,,0,0,0,,,,,,,,,Clear,72000.0,,,73000.0,,,,,,
KRDR,04-23-2004,23:00,METAR,,20,11.0,,,9999.0,Cloud Development Not Observable,10.0,-4.0,30.29,1027.0,,,,0,0,0,,,,,,,,,Clear,72000.0,,,73000.0,,,,,,
KRDR,04-23-2004,22:00,METAR,,330,12.0,,,9999.0,Cloud Development Not Observable,10.0,-4.0,30.31,1027.7,,,,0,0,0,,,,,,,,,Clear,72000.0,,,73000.0,,,,,,
KRDR,04-23-2004,21:00,METAR,,340,8.0,,,9999.0,Cloud Development Not Observable,10.0,-4.0,30.32,1028.0,,,,0,0,0,,,,,,,,,Clear,72000.0,,,73000.0,,,,,,
KRDR,04-23-2004,20:00,METAR,,350,12.0,26.0,,9999.0,Cloud Development Not Observable,9.0,-3.0,30.34,1028.5,,,,0,0,0,,,,,,,,,2/8 Mostly Clear,72000.0,,FEW,4000.0,,,,,,
KRDR,04-23-2004,19:00,METAR,,350,14.0,22.0,,9999.0,Cloud Development Not Observable,9.0,-3.0,30.34,1028.5,,,,0,0,0,,,,,,,,,2/8 Mostly Clear,72000.0,,FEW,4000.0,,,,,,
KRDR,04-23-2004,18:00,METAR,,360,15.0,22.0,,9999.0,Cloud Development Not Observable,8.0,-3.0,30.34,1028.7,,,,0,0,0,,,,,,,,,2/8 Mostly Clear,72000.0,,FEW,4000.0,,,,,,
KRDR,04-23-2004,17:00,METAR,,360,16.0,23.0,,9999.0,Cloud Development Not Observable,7.0,-4.0,30.33,1028.1,,,,0,0,0,,,,,,,,,2/8 Mostly Clear,72000.0,,FEW,2800.0,,,,,,
KRDR,04-23-2004,16:00,METAR,,350,16.0,,,9999.0,Cloud Development Not Observable,5.0,-3.0,30.33,1028.2,,,,0,0,0,,,,,,,,,2/8 Mostly Clear,72000.0,,FEW,2200.0,,,,,,
KRDR,04-23-2004,15:00,METAR,,350,17.0,24.0,340/26KTS,9999.0,Cloud Development Not Observable,4.0,-1.0,30.32,1026.7,,,,0,0,0,,,,,,,,,4/8 Partly Cloudy,72000.0,,SCT,2200.0,,,,,,
KRDR,04-23-2004,14:00,METAR,,340,20.0,,350/26KTS,9999.0,Cloud Development Not Observable,2.0,-1.0,30.28,1026.7,,,,0,0,0,,,,,,,,,4/8 Partly Cloudy,72000.0,,SCT,2100.0,,,,,,
KRDR,04-23-2004,13:00,METAR,,350,17.0,,,9999.0,Cloud Development Not Observable,1.0,-1.0,30.25,1025.8,,,,0,0,0,,,,,,,,,2/8 Mostly Clear,72000.0,,FEW,1500.0,,,,,,
KRDR,04-23-2004,12:00,METAR,,350,12.0,,,9999.0,Cloud Development Not Observable,1.0,-1.0,30.22,1024.7,,,,0,0,0,,,,,,,.01 IN,.01 IN,4/8 Partly Cloudy,72000.0,,SCT,1900.0,,,,,,
KRDR,04-23-2004,11:16,SPECI,,350,11.0,,,9999.0,Cloud Development Not Observable,2.0,1.0,30.20,,,,,0,0,0,,,,,,,,,4/8 Partly Cloudy,72000.0,,SCT,1900.0,,,,,,
KRDR,04-23-2004,11:01,SPECI,,350,13.0,,,9999.0,Cloud Development Not Observable,2.0,1.0,30.20,,,,,0,0,0,,,,,,,,,8/8 Overcast,1900.0,,OVC,1900.0,,,,,,
KRDR,04-23-2004,11:00,METAR,,350,16.0,,,9999.0,Cloud Development Not Observable,2.0,1.0,30.20,1023.9,,,,0,0,0,,,,,,,,,8/8 Overcast,3000.0,,SCT,1900.0,OVC,3000.0,,,,
KRDR,04-23-2004,10:00,METAR,,360,15.0,26.0,,9999.0,Cloud Development Not Observable,3.0,2.0,30.17,1022.9,,,,0,0,0,,,,,,,,,8/8 Overcast,3000.0,,OVC,3000.0,,,,,,
KRDR,04-23-2004,09:35,SPECI,,350,20.0,,,9999.0,Cloud Development Not Observable,4.0,2.0,30.16,,,,,0,0,0,,,,,,,,,8/8 Overcast,3000.0,,OVC,3000.0,,,,,,
KRDR,04-23-2004,09:00,METAR,,320,11.0,,,9999.0,Light Rain Showers/Cloud Development Not Observable,6.0,6.0,30.13,1021.3,,,,80,0,0,,,,,,TRACE,,,8/8 Overcast,3100.0,,FEW,1500.0,OVC,3200.0,,,,
KRDR,04-23-2004,08:36,SPECI,,310,11.0,,,9999.0,Light Rain Showers/Cloud Development Not Observable,7.0,5.0,30.11,,,,,80,0,0,,,,,,,,,8/8 Overcast,4900.0,,OVC,5000.0,,,,,,
KRDR,04-23-2004,08:00,METAR,,260,6.0,,,9999.0,Cloud Development Not Observable,6.0,5.0,30.08,1019.4,,,,0,0,0,,,,,,,,,8/8 Overcast,6000.0,,OVC,5900.0,,,,,,
KRDR,04-23-2004,07:00,METAR,,240,6.0,,,9999.0,Cloud Development Not Observable,6.0,5.0,30.08,1019.6,,,,0,0,0,,,,,,,,,8/8 Overcast,9000.0,,OVC,8900.0,,,,,,
KRDR,04-23-2004,06:00,METAR,,200,7.0,,,9999.0,Cloud Development Not Observable,7.0,5.0,30.06,1019.0,,,,0,0,0,,,,,,,IN,,8/8 Overcast,6000.0,,OVC,5900.0,,,,,,
KRDR,04-23-2004,05:46,SPECI,,190,9.0,,,9999.0,Cloud Development Not Observable,7.0,5.0,30.06,,,,,0,0,0,,,,,,,,,8/8 Overcast,5000.0,,OVC,5200.0,,,,,,
KRDR,04-23-2004,05:16,SPECI,,290,14.0,,,9999.0,Light Rain Showers/Cloud Development Not Observable,8.0,3.0,30.11,,,,,80,0,0,,,,,,,,,8/8 Overcast,4600.0,,OVC,4700.0,,,,,,
KRDR,04-23-2004,05:00,METAR,,270,12.0,,,9999.0,Cloud Development Not Observable,9.0,-4.0,30.10,1020.4,,,,0,0,0,,,,,,,,,8/8 Overcast,8000.0,,OVC,7900.0,,,,,,
KRDR,04-23-2004,04:00,METAR,,190,13.0,,,9999.0,Cloud Development Not Observable,8.0,-5.0,30.08,1019.6,,,,0,0,0,,,,,,,,,8/8 Overcast,8000.0,,BKN,7900.0,OVC,25000.0,,,,
KRDR,04-23-2004,03:00,METAR,,180,13.0,,,9999.0,Cloud Development Not Observable,9.0,-5.0,30.09,1020.0,,,,0,0,0,,,,,,,,,8/8 Overcast,9000.0,,BKN,8900.0,OVC,25000.0,,,,
KRDR,04-23-2004,02:00,METAR,,180,11.0,,,9999.0,Cloud Development Not Observable,8.0,-5.0,30.09,1020.2,,,,0,0,0,,,,,,,,,7/8 Mostly Cloudy,25000.0,,SCT,9400.0,BKN,25000.0,,,,
KRDR,04-23-2004,01:00,METAR,,190,9.0,,,9999.0,Cloud Development Not Observable,10.0,-6.0,30.10,1020.6,,,,0,0,0,,,,,,,,,7/8 Mostly Cloudy,25000.0,,FEW,9900.0,BKN,25000.0,,,,
KRDR,04-23-2004,00:00,METAR,,190,13.0,,,9999.0,Cloud Development Not Observable,12.0,-7.0,30.10,1020.5,,,,0,0,0,,,,,,,,,4/8 Partly Cloudy,72000.0,,FEW,9900.0,SCT,25000.0,,,,
KRDR,04-22-2004,23:00,METAR,,180,13.0,,,9999.0,Cloud Development Not Observable,13.0,-8.0,30.12,1021.2,,,,0,0,0,,,,,,,,,7/8 Mostly Cloudy,25000.0,,SCT,9900.0,BKN,25000.0,,,,
KRDR,04-22-2004,22:00,METAR,,190,9.0,18.0,,9999.0,Cloud Development Not Observable,12.0,-8.0,30.15,1022.3,,,,0,0,0,,,,,,,,,7/8 Mostly Cloudy,25000.0,,FEW,9900.0,BKN,25000.0,,,,
KRDR,04-22-2004,21:00,METAR,,190,11.0,,,9999.0,Cloud Development Not Observable,13.0,-8.0,30.17,1022.9,,,,0,0,0,,,,,,,,,7/8 Mostly Cloudy,25000.0,,FEW,8900.0,BKN,25000.0,,,,
KRDR,04-22-2004,20:00,METAR,,200,8.0,,,9999.0,Cloud Development Not Observable,12.0,-5.0,30.20,1024.0,,,,0,0,0,,,,,,,,,4/8 Partly Cloudy,72000.0,,FEW,8900.0,SCT,25000.0,,,,
KRDR,04-22-2004,19:00,METAR,,180,10.0,,,9999.0,Cloud Development Not Observable,9.0,-6.0,30.22,1025.6,,,,0,0,0,,,,,,,,,2/8 Mostly Clear,72000.0,,FEW,25000.0,,,,,,
KRDR,04-22-2004,18:00,METAR,,180,10.0,20.0,,9999.0,Cloud Development Not Observable,10.0,-4.0,30.24,1025.6,,,,0,0,0,,,,,,,,,2/8 Mostly Clear,72000.0,,FEW,25000.0,,,,,,
KRDR,04-22-2004,17:00,METAR,,160,9.0,,,9999.0,Cloud Development Not Observable,7.0,-4.0,30.26,1026.2,,,,0,0,0,,,,,,,,,2/8 Mostly Clear,72000.0,,FEW,25000.0,,,,,,
KRDR,04-22-2004,16:00,METAR,,190,9.0,,,9999.0,Cloud Development Not Observable,6.0,-4.0,30.26,1026.2,,,,0,0,0,,,,,,,,,2/8 Mostly Clear,72000.0,,FEW,25000.0,,,,,,
KRDR,04-22-2004,15:00,METAR,,160,9.0,,,9999.0,Cloud Development Not Observable,4.0,-3.0,30.25,1026.0,,,,0,0,0,,,,,,,,,Clear,72000.0,,,73000.0,,,,,,
KRDR,04-22-2004,14:00,METAR,,170,4.0,,,9999.0,Cloud Development Not Observable,2.0,-4.0,30.25,1025.9,,,,0,0,0,,,,,,,,,Clear,72000.0,,,73000.0,,,,,,
KRDR,04-22-2004,13:00,METAR,,,3.0,,,9999.0,Cloud Development Not Observable,-2.0,-2.0,30.24,1025.6,,,,0,0,0,,,,,,,,,Clear,72000.0,,,73000.0,,,,,,
KRDR,04-22-2004,12:00,METAR,,240,4.0,,,9999.0,Cloud Development Not Observable,-6.0,-6.0,30.22,1025.0,,,,0,0,0,,,,,,,,,Clear,72000.0,,,73000.0,,,,,,
KRDR,04-22-2004,11:00,METAR,,230,3.0,,,9999.0,Cloud Development Not Observable,-6.0,-6.0,30.19,1024.1,,,,0,0,0,,,,,,,,,Clear,72000.0,,,73000.0,,,,,,
KRDR,04-22-2004,10:00,METAR,,320,4.0,,,9999.0,Cloud Development Not Observable,-6.0,-6.0,30.17,1023.3,,,,0,0,0,,,,,,,,,Clear,72000.0,,,73000.0,,,,,,
KRDR,04-22-2004,09:00,METAR,,330,5.0,,,9999.0,Cloud Development Not Observable,-5.0,-5.0,30.16,1022.9,,,,0,0,0,,,,,,,,,Clear,72000.0,,,73000.0,,,,,,
KRDR,04-22-2004,08:00,METAR,,290,2.0,,,9999.0,Cloud Development Not Observable,-5.0,-5.0,30.15,1022.8,,,,0,0,0,,,,,,,,,Clear,72000.0,,,73000.0,,,,,,
KRDR,04-22-2004,07:00,METAR,,320,3.0,,,9999.0,Cloud Development Not Observable,-3.0,-3.0,30.14,1022.2,,,,0,0,0,,,,,,,,,Clear,72000.0,,,73000.0,,,,,,
KRDR,04-22-2004,06:00,METAR,,310,2.0,,,9999.0,Cloud Development Not Observable,-3.0,-3.0,30.13,1021.9,,,,0,0,0,,,,,,,,,Clear,72000.0,,,73000.0,,,,,,
KRDR,04-22-2004,05:00,METAR,,340,4.0,,,9999.0,Cloud Development Not Observable,-3.0,-4.0,30.10,1020.9,,,,0,0,0,,,,,,,,,Clear,72000.0,,,73000.0,,,,,,
KRDR,04-22-2004,04:00,METAR,,360,7.0,,,9999.0,Cloud Development Not Observable,-2.0,-4.0,30.08,1020.2,,,,0,0,0,,,,,,,,,Clear,72000.0,,,73000.0,,,,,,
KRDR,04-22-2004,03:00,METAR,,330,9.0,,,9999.0,Cloud Development Not Observable,1.0,-2.0,30.05,1019.0,,,,0,0,0,,,,,,,,,2/8 Mostly Clear,72000.0,,FEW,20000.0,,,,,,
KRDR,04-22-2004,02:00,METAR,,340,10.0,,,9999.0,Cloud Development Not Observable,3.0,-3.0,30.02,1017.9,,,,0,0,0,,,,,,,,,2/8 Mostly Clear,72000.0,,FEW,20000.0,,,,,,
KRDR,04-22-2004,01:00,METAR,,350,15.0,,,9999.0,Cloud Development Not Observable,5.0,-3.0,29.98,1016.8,,,,0,0,0,,,,,,,,,2/8 Mostly Clear,72000.0,,FEW,3000.0,,,,,,
KRDR,04-22-2004,00:00,METAR,,350,16.0,,,9999.0,Cloud Development Not Observable,6.0,-3.0,29.98,1016.4,,,,0,0,0,,,,,,,,,2/8 Mostly Clear,72000.0,,FEW,3000.0,,,,,,
KRDR,04-21-2004,23:00,METAR,,340,16.0,21.0,,9999.0,Cloud Development Not Observable,7.0,-3.0,29.95,1015.7,,,,0,0,0,,,,,,,,,2/8 Mostly Clear,72000.0,,FEW,3000.0,,,,,,
KRDR,04-21-2004,22:00,METAR,,350,18.0,25.0,,9999.0,Cloud Development Not Observable,8.0,-3.0,29.94,1014.9,,,,0,0,0,,,,,,,,,4/8 Partly Cloudy,72000.0,,SCT,3000.0,,,,,,
KRDR,04-21-2004,21:00,METAR,,360,21.0,26.0,,9999.0,Cloud Development Not Observable,8.0,-2.0,29.92,1014.1,,,,0,0,0,,,,,,,,,4/8 Partly Cloudy,72000.0,,SCT,3000.0,,,,,,
KRDR,04-21-2004,19:00,METAR,,350,22.0,25.0,,9999.0,Cloud Development Not Observable,7.0,-1.0,29.90,1013.4,,,,0,0,0,,,,,,,,,4/8 Partly Cloudy,72000.0,,SCT,3000.0,,,,,,
KRDR,04-21-2004,18:00,METAR,,350,18.0,25.0,,9999.0,Cloud Development Not Observable,6.0,0.0,29.87,1012.7,,,,0,0,0,,,,,,,,,4/8 Partly Cloudy,72000.0,,SCT,2700.0,,,,,,
KRDR,04-21-2004,17:15,SPECI,,350,16.0,26.0,,9999.0,Cloud Development Not Observable,6.0,0.0,29.85,,,,,0,0,0,,,,,,,,,4/8 Partly Cloudy,72000.0,,SCT,2500.0,,,,,,
KRDR,04-21-2004,17:00,METAR,,350,18.0,25.0,,9999.0,Cloud Development Not Observable,4.0,-1.0,29.85,1012.0,,,,0,0,0,,,,,,,,,7/8 Mostly Cloudy,2400.0,,BKN,2400.0,,,,,,
KRDR,04-21-2004,15:20,METAR,,350,18.0,23.0,,9999.0,Cloud Development Not Observable,5.0,1.0,29.80,,,,,0,0,0,,,,,,,,,7/8 Mostly Cloudy,2000.0,,BKN,2000.0,,,,,,
KRDR,04-21-2004,15:00,METAR,,10,19.0,,340/29KTS,9999.0,Cloud Development Not Observable,5.0,1.0,29.80,1008.2,,,,0,0,0,,,,,,,,,4/8 Partly Cloudy,72000.0,,SCT,2000.0,,,,,,
KRDR,04-21-2004,14:00,METAR,,330,24.0,28.0,340/29KTS,9999.0,Cloud Development Not Observable,4.0,1.0,29.78,1008.2,,,,0,0,0,,,,,,,,,4/8 Partly Cloudy,72000.0,,SCT,3000.0,,,,,,
KRDR,04-21-2004,12:00,METAR,,360,15.0,,,9999.0,Cloud Development Not Observable,3.0,2.0,29.71,1006.9,,,,0,0,0,,,,,,,,,2/8 Mostly Clear,72000.0,,FEW,3000.0,FEW,9900.0,,,,
KRDR,04-21-2004,11:01,SPECI,,360,18.0,23.0,,9999.0,Cloud Development Not Observable,4.0,3.0,29.67,,,,,0,0,0,,,,,,,,,4/8 Partly Cloudy,72000.0,,SCT,3000.0,,,,,,
KRDR,04-21-2004,10:00,METAR,,360,19.0,24.0,360/26KTS,9999.0,Cloud Development Not Observable,5.0,5.0,29.65,1005.0,,,,0,0,0,,,,,,,,,8/8 Overcast,2900.0,,OVC,2900.0,,,,,,
KRDR,04-21-2004,09:00,METAR,,360,21.0,28.0,340/28KTS,9999.0,Cloud Development Not Observable,6.0,6.0,29.62,1003.9,,,,0,0,0,,,,,,.14 IN,,,8/8 Overcast,2300.0,,OVC,2300.0,,,,,,
KRDR,04-21-2004,08:22,SPECI,,350,19.0,,,9999.0,Mist/Cloud Development Not Observable,8.0,8.0,29.61,,,,,10,0,0,,,,,,,,,8/8 Overcast,2300.0,,FEW,1200.0,OVC,2300.0,,,,
KRDR,04-21-2004,08:04,SPECI,,320,9.0,,,3200.0,Thunderstorm with Rain or Snow/Light Rain Showers/Mist,7.0,7.0,29.61,,,,,95,80,10,,,,,,,,,8/8 Overcast,2300.0,,OVC,2300.0,,,,,,
KRDR,04-21-2004,08:00,METAR,,340,5.0,,,4000.0,Thunderstorm and Hail/Light Snow Pellets or Hail/Light Rain Showers,8.0,8.0,29.61,,,,,96,80,87,,,,,,,,,7/8 Mostly Cloudy,2200.0,,BKN,2200.0,,,,,,
KRDR,04-21-2004,07:25,METAR,,40,3.0,,,4000.0,Mist/Cloud Development Not Observable,8.0,8.0,29.59,,,,,10,0,0,,,,,,,,,7/8 Mostly Cloudy,2200.0,,BKN,2200.0,,,,,,
KRDR,04-21-2004,07:08,SPECI,,250,4.0,,,1600.0,Mist/Cloud Development Not Observable,7.0,7.0,29.59,,,,,10,0,0,,,,,,,,,4/8 Partly Cloudy,72000.0,,SCT,2000.0,,,,,,
KRDR,04-21-2004,07:00,METAR,,230,6.0,,,4800.0,Shallow Fog or Ice Fog/Cloud Development Not Observable,7.0,7.0,29.58,1002.5,,,,12,0,0,,,,,,,,,7/8 Mostly Cloudy,2000.0,,BKN,2000.0,,,,,,
KRDR,04-21-2004,06:17,SPECI,,210,5.0,,,6400.0,Mist/Cloud Development Not Observable,8.0,8.0,29.59,,,,,10,0,0,,,,,,,,,7/8 Mostly Cloudy,2000.0,,BKN,2000.0,,,,,,
KRDR,04-21-2004,06:00,METAR,,150,3.0,,,9999.0,Light Rain Showers/Mist/Cloud Development Not Observable,9.0,9.0,29.60,1003.1,,,,80,10,0,,,,,,,IN,,8/8 Overcast,2000.0,,OVC,2000.0,,,,,,
KRDR,04-21-2004,05:31,SPECI,,,1.0,,,9999.0,Light Rain Showers/Mist/Cloud Development Not Observable,9.0,9.0,29.60,,,,,80,10,0,,,,,,,,,7/8 Mostly Cloudy,2000.0,,BKN,2000.0,,,,,,
KRDR,04-21-2004,05:00,METAR,,220,4.0,,,9999.0,Mist/Cloud Development Not Observable,10.0,10.0,29.59,1002.8,,,,10,0,0,,,,,,,,,7/8 Mostly Cloudy,2000.0,,BKN,2000.0,,,,,,
KRDR,04-21-2004,04:00,METAR,,180,5.0,,,8000.0,Mist/Cloud Development Not Observable,10.0,10.0,29.58,1002.6,,,,10,0,0,,,,,,,,,7/8 Mostly Cloudy,2000.0,,BKN,2000.0,,,,,,
KRDR,04-21-2004,03:00,METAR,,160,7.0,,,8000.0,Mist/Cloud Development Not Observable,10.0,10.0,29.59,1002.8,,,,10,0,0,,,,,,,,,8/8 Overcast,1800.0,,BKN,1800.0,OVC,5400.0,,,,
KRDR,04-21-2004,02:00,METAR,,150,7.0,,,6400.0,Mist/Cloud Development Not Observable,10.0,10.0,29.58,1002.5,,,,10,0,0,,,,,,,,,7/8 Mostly Cloudy,1800.0,,BKN,1800.0,BKN,5400.0,,,,
KRDR,04-21-2004,01:00,METAR,,140,4.0,,,9999.0,Cloud Development Not Observable,11.0,10.0,29.59,1002.8,,,,0,0,0,,,,,,,,,8/8 Overcast,5500.0,,SCT,1800.0,OVC,5400.0,,,,
KRDR,04-21-2004,00:07,SPECI,,140,5.0,,,9999.0,Cloud Development Not Observable,12.0,10.0,29.57,,,,,0,0,0,,,,,,,,,8/8 Overcast,5500.0,,SCT,2000.0,OVC,5400.0,,,,
KRDR,04-21-2004,00:00,METAR,,160,4.0,,,9999.0,Cloud Development Not Observable,12.0,10.0,29.58,1002.4,,,,0,0,0,,,,,,,.08 IN,,7/8 Mostly Cloudy,2000.0,,BKN,2000.0,BKN,5400.0,,,,
KRDR,04-20-2004,23:00,METAR,,210,5.0,,,9999.0,Cloud Development Not Observable,13.0,10.0,29.59,1002.7,,,,0,0,0,,,,,,,,,7/8 Mostly Cloudy,2000.0,,BKN,2000.0,BKN,5400.0,,,,
KRDR,04-20-2004,22:00,METAR,,200,7.0,,,9999.0,Cloud Development Not Observable,12.0,10.0,29.61,1003.5,,,,0,0,0,,,,,,,,,7/8 Mostly Cloudy,5500.0,,BKN,5400.0,BKN,7900.0,,,,
KRDR,04-20-2004,21:00,METAR,,140,7.0,,,9999.0,Cloud Development Not Observable,11.0,11.0,29.64,1004.6,,,,0,0,0,,,,,,TRACE,,,8/8 Overcast,5500.0,,BKN,5400.0,OVC,7900.0,,,,
KRDR,04-20-2004,20:00,METAR,,240,2.0,,,6400.0,Drizzle/Mist/Cloud Development Not Observable,9.0,9.0,29.68,1006.2,,,,51,10,0,,,,,,,,,8/8 Overcast,3100.0,,OVC,3100.0,,,,,,
KRDR,04-20-2004,19:00,METAR,,210,3.0,,,8000.0,Mist/Cloud Development Not Observable,9.0,9.0,29.69,1006.4,,,,10,0,0,,,,,,,,,8/8 Overcast,3100.0,,OVC,3100.0,,,,,,
KRDR,04-20-2004,18:00,METAR,,160,6.0,,,8000.0,Mist/Cloud Development Not Observable,9.0,8.0,29.70,1006.8,,,,10,0,0,,,,,,,.04 IN,,8/8 Overcast,3000.0,,BKN,3000.0,OVC,4500.0,,,,
KRDR,04-20-2004,17:00,METAR,,180,8.0,,,9999.0,Mist/Cloud Development Not Observable,8.0,8.0,29.71,1006.9,,,,10,0,0,,,,,,,,,8/8 Overcast,3000.0,,SCT,1000.0,OVC,3000.0,,,,
KRDR,04-20-2004,16:00,METAR,,160,6.0,,,6400.0,Rain/Mist/Cloud Development Not Observable,8.0,8.0,29.71,1006.9,,,,61,10,0,,,,,,,,,8/8 Overcast,4400.0,,SCT,3000.0,OVC,4500.0,,,,
KRDR,04-20-2004,15:29,SPECI,,150,6.0,,,8000.0,Mist/Cloud Development Not Observable,7.0,7.0,29.70,,,,,10,0,0,,,,,,,,,8/8 Overcast,3900.0,,BKN,4000.0,OVC,9900.0,,,,
KRDR,04-20-2004,15:00,METAR,,170,5.0,,,8000.0,Drizzle/Mist/Cloud Development Not Observable,7.0,7.0,29.73,1007.6,,,,51,10,0,,,,,,.02 IN,,,8/8 Overcast,3900.0,,BKN,4000.0,OVC,9900.0,,,,
KRDR,04-20-2004,14:00,METAR,,170,10.0,,,6400.0,Rain/Mist/Cloud Development Not Observable,6.0,6.0,29.75,1008.3,,,,61,10,0,,,,,,,,,8/8 Overcast,4500.0,,FEW,1000.0,BKN,4600.0,OVC,9900.0,,
KRDR,04-20-2004,13:00,METAR,,170,10.0,,,6400.0,Rain/Mist/Cloud Development Not Observable,5.0,5.0,29.75,1008.5,,,,61,10,0,,,,,,,,,8/8 Overcast,3000.0,,SCT,1000.0,BKN,3000.0,OVC,9900.0,,
KRDR,04-20-2004,12:35,SPECI,,160,10.0,,,8000.0,Rain/Mist/Cloud Development Not Observable,5.0,5.0,29.75,,,,,61,10,0,,,,,,,,,8/8 Overcast,6000.0,,SCT,3500.0,BKN,5900.0,OVC,9900.0,,
KRDR,04-20-2004,12:00,METAR,,170,10.0,,,9999.0,Mist/Cloud Development Not Observable,7.0,6.0,29.77,1009.1,,,,10,0,0,,,,,,,IN,,4/8 Partly Cloudy,72000.0,,SCT,3500.0,,,,,,
KRDR,04-20-2004,11:36,SPECI,,180,12.0,,,9999.0,Cloud Development Not Observable,7.0,7.0,29.76,,,,,0,0,0,,,,,,,,,8/8 Overcast,6500.0,,SCT,3500.0,OVC,6400.0,,,,
KRDR,04-20-2004,11:00,METAR,,180,15.0,,150/26KTS,9999.0,Rain/Cloud Development Not Observable,7.0,7.0,29.78,1009.2,,,,61,0,0,,,,,,,,,8/8 Overcast,6500.0,,FEW,3000.0,BKN,6400.0,OVC,9900.0,,
KRDR,04-20-2004,10:05,SPECI,,120,6.0,,,9999.0,Rain/Cloud Development Not Observable,6.0,4.0,29.82,,,,,61,0,0,,,,,,,,,8/8 Overcast,7500.0,,FEW,3500.0,BKN,7400.0,OVC,11000.0,,
KRDR,04-20-2004,10:00,METAR,,150,4.0,,,9999.0,Cloud Development Not Observable,6.0,2.0,29.82,1010.7,,,,0,0,0,,,,,,,,,8/8 Overcast,8000.0,,FEW,3500.0,BKN,7900.0,OVC,12000.0,,
KRDR,04-20-2004,09:00,METAR,,170,6.0,,,9999.0,Cloud Development Not Observable,6.0,2.0,29.86,1012.1,,,,0,0,0,,,,,,,,,8/8 Overcast,10000.0,,BKN,9900.0,OVC,15000.0,,,,
KRDR,04-20-2004,08:00,METAR,,160,8.0,,,9999.0,Cloud Development Not Observable,5.0,2.0,29.89,1013.0,,,,0,0,0,,,,,,,,,8/8 Overcast,12000.0,,BKN,12000.0,OVC,15000.0,,,,
KRDR,04-20-2004,07:00,METAR,,160,6.0,,,9999.0,Cloud Development Not Observable,5.0,2.0,29.91,1013.8,,,,0,0,0,,,,,,,,,7/8 Mostly Cloudy,25000.0,,SCT,15000.0,BKN,25000.0,,,,
KRDR,04-20-2004,06:00,METAR,,150,8.0,,,9999.0,Cloud Development Not Observable,6.0,2.0,29.94,1014.8,,,,0,0,0,,,,,,,,,7/8 Mostly Cloudy,25000.0,,SCT,18000.0,BKN,25000.0,,,,
KRDR,04-20-2004,05:00,METAR,,150,6.0,,,9999.0,Cloud Development Not Observable,7.0,2.0,29.97,1015.8,,,,0,0,0,,,,,,,,,7/8 Mostly Cloudy,25000.0,,SCT,18000.0,BKN,25000.0,,,,
KRDR,04-20-2004,04:00,METAR,,150,9.0,,,9999.0,Cloud Development Not Observable,7.0,2.0,29.99,1016.6,,,,0,0,0,,,,,,,,,7/8 Mostly Cloudy,25000.0,,SCT,18000.0,BKN,25000.0,,,,
KRDR,04-20-2004,03:00,METAR,,140,9.0,,,9999.0,Cloud Development Not Observable,8.0,2.0,30.01,1017.3,,,,0,0,0,,,,,,,,,7/8 Mostly Cloudy,25000.0,,SCT,18000.0,BKN,25000.0,,,,
KRDR,04-20-2004,02:00,METAR,,160,9.0,,,9999.0,Cloud Development Not Observable,9.0,2.0,30.02,1017.6,,,,0,0,0,,,,,,,,,7/8 Mostly Cloudy,25000.0,,SCT,18000.0,BKN,25000.0,,,,
KRDR,04-20-2004,01:00,METAR,,150,9.0,,,9999.0,Cloud Development Not Observable,11.0,2.0,30.02,1017.6,,,,0,0,0,,,,,,,,,7/8 Mostly Cloudy,25000.0,,SCT,18000.0,BKN,25000.0,,,,
KRDR,04-20-2004,00:00,METAR,,170,11.0,,,9999.0,Cloud Development Not Observable,12.0,2.0,30.05,1018.7,,,,0,0,0,,,,,,,,,7/8 Mostly Cloudy,25000.0,,FEW,4500.0,BKN,25000.0,,,,
KRDR,04-19-2004,23:00,METAR,,170,7.0,,,9999.0,Cloud Development Not Observable,13.0,2.0,30.07,1019.4,,,,0,0,0,,,,,,,,,4/8 Partly Cloudy,72000.0,,FEW,4500.0,SCT,25000.0,,,,
KRDR,04-19-2004,22:00,METAR,,240,3.0,,,9999.0,Cloud Development Not Observable,13.0,2.0,30.08,1019.6,,,,0,0,0,,,,,,,,,4/8 Partly Cloudy,72000.0,,SCT,4500.0,,,,,,
KRDR,04-19-2004,21:00,METAR,,200,8.0,,,9999.0,Cloud Development Not Observable,12.0,1.0,30.11,1021.3,,,,0,0,0,,,,,,,,,4/8 Partly Cloudy,72000.0,,SCT,4100.0,,,,,,
KRDR,04-19-2004,20:00,METAR,,180,6.0,,,9999.0,Cloud Development Not Observable,11.0,1.0,30.13,1021.3,,,,0,0,0,,,,,,,,,4/8 Partly Cloudy,72000.0,,SCT,4100.0,,,,,,
KRDR,04-19-2004,19:00,METAR,,210,11.0,,,9999.0,Cloud Development Not Observable,10.0,2.0,30.15,1022.0,,,,0,0,0,,,,,,,,,7/8 Mostly Cloudy,10000.0,,SCT,3800.0,BKN,9900.0,,,,
KRDR,04-19-2004,18:00,METAR,,240,3.0,,,9999.0,Cloud Development Not Observable,8.0,1.0,30.17,1022.8,,,,0,0,0,,,,,,,,,7/8 Mostly Cloudy,3400.0,,BKN,3500.0,BKN,9900.0,,,,
KRDR,04-19-2004,17:00,METAR,,350,11.0,,,9999.0,Cloud Development Not Observable,5.0,2.0,30.13,1021.4,,,,0,0,0,,,,,,,,,4/8 Partly Cloudy,72000.0,,SCT,2000.0,SCT,9900.0,,,,
KRDR,04-19-2004,16:00,METAR,,350,11.0,,,9999.0,Cloud Development Not Observable,5.0,2.0,30.13,1021.4,,,,0,0,0,,,,,,,,,4/8 Partly Cloudy,72000.0,,SCT,2000.0,,,,,,
KRDR,04-19-2004,15:00,METAR,,350,11.0,,,9999.0,Cloud Development Not Observable,5.0,2.0,30.13,1021.4,,,,0,0,0,,,,,,,,,2/8 Mostly Clear,72000.0,,FEW,2000.0,FEW,25000.0,,,,
KRDR,04-19-2004,14:00,METAR,,340,13.0,,,9999.0,Cloud Development Not Observable,5.0,3.0,30.12,1021.1,,,,0,0,0,,,,,,,,,2/8 Mostly Clear,72000.0,,FEW,25000.0,,,,,,
KRDR,04-19-2004,13:00,METAR,,310,8.0,,,9999.0,Cloud Development Not Observable,3.0,1.0,30.11,1021.0,,,,0,0,0,,,,,,,,,2/8 Mostly Clear,72000.0,,FEW,25000.0,,,,,,
KRDR,04-19-2004,12:00,METAR,,310,7.0,,,9999.0,Cloud Development Not Observable,1.0,0.0,30.08,1020.0,,,,0,0,0,,,,,,,,,2/8 Mostly Clear,72000.0,,FEW,25000.0,,,,,,
KRDR,04-19-2004,11:00,METAR,,300,10.0,,,9999.0,Cloud Development Not Observable,1.0,0.0,30.06,1019.3,,,,0,0,0,,,,,,,,,Clear,72000.0,,,73000.0,,,,,,
KRDR,04-19-2004,10:00,METAR,,300,11.0,,,9999.0,Cloud Development Not Observable,2.0,1.0,30.02,1017.8,,,,0,0,0,,,,,,,,,Clear,72000.0,,,73000.0,,,,,,
KRDR,04-19-2004,09:00,METAR,,310,11.0,,,9999.0,Cloud Development Not Observable,2.0,1.0,29.99,1016.8,,,,0,0,0,,,,,,,,,2/8 Mostly Clear,72000.0,,FEW,3500.0,,,,,,
KRDR,04-19-2004,08:08,SPECI,,320,11.0,,,9999.0,Cloud Development Not Observable,3.0,2.0,29.97,,,,,0,0,0,,,,,,,,,4/8 Partly Cloudy,72000.0,,SCT,3500.0,,,,,,
KRDR,04-19-2004,08:00,METAR,,320,13.0,,,9999.0,Cloud Development Not Observable,4.0,2.0,29.96,1015.8,,,,0,0,0,,,,,,,,,7/8 Mostly Cloudy,2900.0,,BKN,2900.0,,,,,,
KRDR,04-19-2004,07:00,METAR,,320,12.0,,,9999.0,Cloud Development Not Observable,4.0,3.0,29.94,1015.1,,,,0,0,0,,,,,,,,,8/8 Overcast,2700.0,,OVC,2700.0,,,,,,
KRDR,04-19-2004,06:07,SPECI,,320,13.0,,,9999.0,Cloud Development Not Observable,4.0,3.0,29.91,,,,,0,0,0,,,,,,,,,8/8 Overcast,2600.0,,OVC,2600.0,,,,,,
KRDR,04-19-2004,06:00,METAR,,330,15.0,,,9999.0,Cloud Development Not Observable,4.0,3.0,29.91,1014.1,,,,0,0,0,,,,,,,IN,,8/8 Overcast,2400.0,,OVC,2400.0,,,,,,
KRDR,04-19-2004,05:00,METAR,,330,16.0,,,9999.0,Cloud Development Not Observable,5.0,4.0,29.86,1012.4,,,,0,0,0,,,,,,,,,7/8 Mostly Cloudy,1500.0,,FEW,1200.0,BKN,1500.0,,,,
KRDR,04-19-2004,04:27,SPECI,,340,16.0,,,9999.0,Cloud Development Not Observable,5.0,5.0,29.82,,,,,0,0,0,,,,,,,,,7/8 Mostly Cloudy,1400.0,,FEW,1000.0,BKN,1400.0,,,,
KRDR,04-19-2004,04:00,METAR,,350,18.0,,,9999.0,Cloud Development Not Observable,5.0,5.0,29.82,1010.9,,,,0,0,0,,,,,,,,,4/8 Partly Cloudy,72000.0,,FEW,1400.0,SCT,2600.0,,,,
KRDR,04-19-2004,03:00,METAR,,340,16.0,,,9999.0,Cloud Development Not Observable,5.0,5.0,29.76,1008.9,,,,0,0,0,,,,,,TRACE,,,4/8 Partly Cloudy,72000.0,,SCT,1300.0,,,,,,
KRDR,04-19-2004,02:00,METAR,,340,14.0,,,9999.0,Cloud Development Not Observable,5.0,5.0,29.73,1007.9,,,,0,0,0,,,,,,,,,8/8 Overcast,3900.0,,FEW,1500.0,SCT,4000.0,BKN,7900.0,OVC,15000.0
KRDR,04-19-2004,01:38,SPECI,,350,18.0,25.0,,9999.0,Cloud Development Not Observable,5.0,5.0,29.73,,,,,0,0,0,,,,,,,,,8/8 Overcast,8000.0,,FEW,1500.0,BKN,7900.0,OVC,15000.0,,
KRDR,04-19-2004,01:00,METAR,,340,14.0,,,9999.0,Cloud Development Not Observable,5.0,5.0,29.72,1007.6,,,,0,0,0,,,,,,,,,8/8 Overcast,1100.0,,BKN,1100.0,OVC,1500.0,,,,
KRDR,04-19-2004,00:28,SPECI,,340,16.0,,,9999.0,Cloud Development Not Observable,6.0,5.0,29.71,,,,,0,0,0,,,,,,,,,8/8 Overcast,1100.0,,BKN,1100.0,OVC,1500.0,,,,
KRDR,04-19-2004,00:00,METAR,,350,17.0,,,9999.0,Rain/Cloud Development Not Observable,6.0,5.0,29.69,1006.5,,,,61,0,0,,,,,,,.15 IN,,8/8 Overcast,1200.0,,BKN,1200.0,OVC,1500.0,,,,
KRDR,04-18-2004,23:00,METAR,,340,15.0,,,8000.0,Rain/Cloud Development Not Observable,6.0,6.0,29.67,1005.9,,,,61,0,0,,,,,,,,,8/8 Overcast,2000.0,,FEW,900.0,BKN,2000.0,OVC,5000.0,,
KRDR,04-18-2004,22:00,METAR,,350,14.0,,,4800.0,Rain/Mist/Cloud Development Not Observable,6.0,6.0,29.64,1004.8,,,,61,10,0,,,,,,,,,8/8 Overcast,1500.0,,SCT,500.0,BKN,1500.0,OVC,3000.0,,
KRDR,04-18-2004,21:00,METAR,,350,15.0,,,8000.0,Rain/Cloud Development Not Observable,6.0,6.0,29.63,1004.5,,,,61,0,0,,,,,,,,,8/8 Overcast,2800.0,,SCT,900.0,BKN,2800.0,OVC,5900.0,,
KRDR,04-18-2004,20:00,METAR,,360,18.0,,,9999.0,Cloud Development Not Observable,7.0,7.0,29.60,1003.5,,,,0,0,0,,,,,,,,,8/8 Overcast,2500.0,,FEW,700.0,SCT,2500.0,OVC,5000.0,,
KRDR,04-18-2004,19:43,SPECI,,360,18.0,,,9999.0,Cloud Development Not Observable,7.0,7.0,29.60,,,,,0,0,0,,,,,,,,,8/8 Overcast,2500.0,,FEW,700.0,SCT,2500.0,OVC,5000.0,,
KRDR,04-18-2004,19:00,METAR,,360,17.0,,,9999.0,Cloud Development Not Observable,7.0,7.0,29.59,1003.9,,,,0,0,0,,,,,,,,,8/8 Overcast,2500.0,,BKN,2500.0,OVC,5400.0,,,,
KRDR,04-18-2004,18:00,METAR,,360,18.0,,,8000.0,Rain/Cloud Development Not Observable,6.0,5.0,29.61,1003.9,,,,61,0,0,,,,,,,,,8/8 Overcast,2200.0,,BKN,2200.0,OVC,5000.0,,,,
KRDR,04-18-2004,17:38,SPECI,,350,16.0,24.0,,9999.0,Rain/Cloud Development Not Observable,7.0,5.0,29.62,,,,,61,0,0,,,,,,,,,8/8 Overcast,2200.0,,BKN,2200.0,OVC,5000.0,,,,
KRDR,04-18-2004,17:00,METAR,,340,17.0,,,9999.0,Cloud Development Not Observable,8.0,5.0,29.62,1004.0,,,,0,0,0,,,,,,,,,8/8 Overcast,2200.0,,BKN,2200.0,OVC,5000.0,,,,
KRDR,04-18-2004,16:00,METAR,,20,9.0,,,9999.0,Cloud Development Not Observable,11.0,4.0,29.62,1003.8,,,,0,0,0,,,,,,,,,8/8 Overcast,2200.0,,BKN,2200.0,OVC,5000.0,,,,
KRDR,04-18-2004,15:00,METAR,,20,10.0,,,9999.0,Cloud Development Not Observable,8.0,3.0,29.61,1003.8,,,,0,0,0,,,,,,,,,8/8 Overcast,10000.0,,SCT,5000.0,OVC,9900.0,,,,
KRDR,04-18-2004,14:00,METAR,,350,6.0,,,9999.0,Cloud Development Not Observable,7.0,2.0,29.64,1004.7,,,,0,0,0,,,,,,,,,8/8 Overcast,15000.0,,SCT,9900.0,OVC,15000.0,,,,
KRDR,04-18-2004,13:00,METAR,,30,7.0,,,9999.0,Cloud Development Not Observable,5.0,1.0,29.65,1005.1,,,,0,0,0,,,,,,,,,7/8 Mostly Cloudy,11000.0,,BKN,11000.0,BKN,15000.0,,,,
KRDR,04-18-2004,12:00,METAR,,,5.0,,,9999.0,Cloud Development Not Observable,6.0,0.0,29.68,1006.1,,,,0,0,0,,,,,,,,,8/8 Overcast,11000.0,,BKN,11000.0,OVC,15000.0,,,,
KRDR,04-18-2004,11:00,METAR,,80,7.0,,,9999.0,Cloud Development Not Observable,5.0,0.0,29.68,1006.1,,,,0,0,0,,,,,,,,,8/8 Overcast,15000.0,,SCT,11000.0,BKN,15000.0,OVC,25000.0,,
KRDR,04-18-2004,10:00,METAR,,60,8.0,,,9999.0,Cloud Development Not Observable,4.0,0.0,29.74,1008.0,,,,0,0,0,,,,,,,,,8/8 Overcast,15000.0,,SCT,11000.0,BKN,15000.0,OVC,25000.0,,
KRDR,04-18-2004,09:00,METAR,,40,7.0,,,9999.0,Cloud Development Not Observable,3.0,0.0,29.81,1010.5,,,,0,0,0,,,,,,,,,8/8 Overcast,11000.0,,BKN,11000.0,OVC,15000.0,,,,
KRDR,04-18-2004,08:00,METAR,,360,6.0,,,9999.0,Cloud Development Not Observable,2.0,-1.0,29.87,1012.7,,,,0,0,0,,,,,,,,,7/8 Mostly Cloudy,12000.0,,BKN,12000.0,,,,,,
KRDR,04-18-2004,07:00,METAR,,30,6.0,,,9999.0,Cloud Development Not Observable,5.0,0.0,29.91,1014.0,,,,0,0,0,,,,,,,,,8/8 Overcast,12000.0,,OVC,12000.0,,,,,,
KRDR,04-18-2004,06:00,METAR,,50,7.0,,,9999.0,Cloud Development Not Observable,5.0,0.0,29.95,1015.2,,,,0,0,0,,,,,,,,,8/8 Overcast,11000.0,,OVC,11000.0,,,,,,
KRDR,04-18-2004,05:00,METAR,,50,8.0,,,9999.0,Cloud Development Not Observable,6.0,-1.0,29.99,1016.6,,,,0,0,0,,,,,,,,,8/8 Overcast,10000.0,,OVC,9900.0,,,,,,
KRDR,04-18-2004,04:00,METAR,,60,10.0,,,9999.0,Cloud Development Not Observable,7.0,-1.0,30.00,1017.3,,,,0,0,0,,,,,,,,,8/8 Overcast,10000.0,,OVC,9900.0,,,,,,
KRDR,04-18-2004,03:00,METAR,,70,9.0,,,9999.0,Cloud Development Not Observable,7.0,-1.0,30.04,1018.5,,,,0,0,0,,,,,,,,,8/8 Overcast,8500.0,,BKN,8400.0,OVC,12000.0,,,,
KRDR,04-18-2004,02:00,METAR,,80,11.0,,,9999.0,Cloud Development Not Observable,8.0,-1.0,30.04,1018.5,,,,0,0,0,,,,,,,,,8/8 Overcast,12000.0,,SCT,6900.0,OVC,12000.0,,,,
KRDR,04-18-2004,01:00,METAR,,70,9.0,,,9999.0,Cloud Development Not Observable,8.0,-1.0,30.06,1019.2,,,,0,0,0,,,,,,,,,8/8 Overcast,7000.0,,BKN,6900.0,OVC,12000.0,,,,
KRDR,04-18-2004,00:00,METAR,,80,11.0,,,9999.0,Cloud Development Not Observable,9.0,-1.0,30.08,1020.0,,,,0,0,0,,,,,,,,,8/8 Overcast,9000.0,,BKN,8900.0,OVC,15000.0,,,,
KRDR,04-17-2004,23:00,METAR,,80,13.0,,,9999.0,Cloud Development Not Observable,9.0,-2.0,30.10,1020.7,,,,0,0,0,,,,,,,,,8/8 Overcast,10000.0,,OVC,9900.0,,,,,,
KRDR,04-17-2004,22:00,METAR,,80,13.0,,,9999.0,Cloud Development Not Observable,10.0,-2.0,30.12,1021.3,,,,0,0,0,,,,,,,,,8/8 Overcast,10000.0,,FEW,2500.0,OVC,9900.0,,,,
KRDR,04-17-2004,21:00,METAR,,90,12.0,,,9999.0,Cloud Development Not Observable,9.0,-1.0,30.16,1022.8,,,,0,0,0,,,,,,,,,8/8 Overcast,10000.0,,BKN,9900.0,OVC,15000.0,,,,
KRDR,04-17-2004,20:00,METAR,,70,9.0,,,9999.0,Cloud Development Not Observable,9.0,-2.0,30.19,1023.8,,,,0,0,0,,,,,,,,,8/8 Overcast,15000.0,,FEW,3200.0,OVC,15000.0,,,,
KRDR,04-17-2004,19:00,METAR,,70,10.0,,,9999.0,Cloud Development Not Observable,9.0,-1.0,30.23,1025.1,,,,0,0,0,,,,,,,,,8/8 Overcast,3100.0,,BKN,3200.0,OVC,15000.0,,,,
KRDR,04-17-2004,18:00,METAR,,70,7.0,,,9999.0,Cloud Development Not Observable,8.0,0.0,30.25,1025.8,,,,0,0,0,,,,,,,,,8/8 Overcast,3100.0,,BKN,3200.0,OVC,15000.0,,,,
KRDR,04-17-2004,17:00,METAR,,80,9.0,,,9999.0,Cloud Development Not Observable,7.0,3.0,30.25,1025.8,,,,0,0,0,,,,,,,,,8/8 Overcast,15000.0,,SCT,3000.0,OVC,15000.0,,,,
KRDR,04-17-2004,16:00,METAR,,,5.0,,,9999.0,Cloud Development Not Observable,5.0,2.0,30.25,1025.8,,,,0,0,0,,,,,,,,,8/8 Overcast,15000.0,,FEW,7900.0,FEW,12000.0,OVC,15000.0,,
KRDR,04-17-2004,15:00,METAR,,,3.0,,,9999.0,Cloud Development Not Observable,3.0,2.0,30.25,1025.9,,,,0,0,0,,,,,,,,,8/8 Overcast,15000.0,,FEW,12000.0,OVC,15000.0,,,,
KRDR,04-17-2004,14:00,METAR,,70,5.0,,,9999.0,Cloud Development Not Observable,3.0,2.0,30.24,1025.6,,,,0,0,0,,,,,,,,,7/8 Mostly Cloudy,12000.0,,BKN,12000.0,,,,,,
KRDR,04-17-2004,13:00,METAR,,10,6.0,,,9999.0,Cloud Development Not Observable,0.0,0.0,30.22,1024.9,,,,0,0,0,,,,,,,,,7/8 Mostly Cloudy,12000.0,,FEW,5000.0,BKN,12000.0,,,,
KRDR,04-17-2004,12:00,METAR,,330,5.0,,,9999.0,Cloud Development Not Observable,-2.0,-2.0,30.21,1024.6,,,,0,0,0,,,,,,,,,4/8 Partly Cloudy,72000.0,,SCT,5000.0,,,,,,
KRDR,04-17-2004,11:00,METAR,,340,5.0,,,9999.0,Cloud Development Not Observable,-2.0,-2.0,30.19,1023.6,,,,0,0,0,,,,,,,,,Clear,72000.0,,,73000.0,,,,,,
KRDR,04-17-2004,10:00,METAR,,320,5.0,,,9999.0,Cloud Development Not Observable,-2.0,-2.0,30.18,1023.4,,,,0,0,0,,,,,,,,,Clear,72000.0,,,73000.0,,,,,,
KRDR,04-17-2004,09:00,METAR,,330,6.0,,,9999.0,Cloud Development Not Observable,-1.0,-1.0,30.16,1022.5,,,,0,0,0,,,,,,,,,2/8 Mostly Clear,72000.0,,FEW,20000.0,,,,,,
KRDR,04-17-2004,08:00,METAR,,310,6.0,,,9999.0,Cloud Development Not Observable,-1.0,-1.0,30.16,1022.5,,,,0,0,0,,,,,,,,,2/8 Mostly Clear,72000.0,,FEW,20000.0,,,,,,
KRDR,04-17-2004,07:00,METAR,,310,8.0,,,9999.0,Cloud Development Not Observable,1.0,-1.0,30.15,1022.1,,,,0,0,0,,,,,,,,,4/8 Partly Cloudy,72000.0,,SCT,3500.0,,,,,,
KRDR,04-17-2004,06:00,METAR,,280,7.0,,,9999.0,Cloud Development Not Observable,2.0,0.0,30.13,1021.4,,,,0,0,0,,,,,,,,,7/8 Mostly Cloudy,3400.0,,BKN,3500.0,,,,,,
KRDR,04-17-2004,05:12,SPECI,,280,6.0,,,9999.0,Cloud Development Not Observable,3.0,1.0,30.12,,,,,0,0,0,,,,,,,,,7/8 Mostly Cloudy,3400.0,,FEW,2000.0,BKN,3500.0,,,,
KRDR,04-17-2004,05:00,METAR,,300,7.0,,,9999.0,Cloud Development Not Observable,3.0,0.0,30.11,1020.9,,,,0,0,0,,,,,,,,,7/8 Mostly Cloudy,2200.0,,BKN,2200.0,BKN,3500.0,,,,
KRDR,04-17-2004,04:00,METAR,,320,9.0,,,9999.0,Cloud Development Not Observable,5.0,2.0,30.10,1020.7,,,,0,0,0,,,,,,,,,8/8 Overcast,2200.0,,BKN,2200.0,OVC,3500.0,,,,
KRDR,04-17-2004,03:00,METAR,,320,10.0,,,9999.0,Cloud Development Not Observable,6.0,3.0,30.09,1020.4,,,,0,0,0,,,,,,,,,8/8 Overcast,2500.0,,OVC,2500.0,,,,,,
KRDR,04-17-2004,02:05,SPECI,,330,14.0,,,9999.0,Cloud Development Not Observable,6.0,4.0,30.08,,,,,0,0,0,,,,,,,,,8/8 Overcast,2000.0,,BKN,2000.0,OVC,3500.0,,,,
KRDR,04-17-2004,02:00,METAR,,340,8.0,,,9999.0,Cloud Development Not Observable,6.0,4.0,30.06,1019.3,,,,0,0,0,,,,,,,,,8/8 Overcast,3400.0,,SCT,2000.0,OVC,3500.0,,,,
KRDR,04-17-2004,01:00,METAR,,330,13.0,,,9999.0,Cloud Development Not Observable,7.0,4.0,30.04,1018.6,,,,0,0,0,,,,,,,,,7/8 Mostly Cloudy,3400.0,,SCT,2000.0,BKN,3500.0,BKN,4500.0,,
KRDR,04-17-2004,00:00,METAR,,330,16.0,,,9999.0,Cloud Development Not Observable,8.0,5.0,30.01,1017.6,,,,0,0,0,,,,,,,,,7/8 Mostly Cloudy,3400.0,,SCT,2000.0,BKN,3500.0,,,,
KRDR,04-16-2004,23:00,METAR,,340,12.0,,,9999.0,Cloud Development Not Observable,10.0,6.0,29.98,1016.4,,,,0,0,0,,,,,,,,,8/8 Overcast,4200.0,,FEW,2000.0,OVC,4300.0,,,,
KRDR,04-16-2004,22:00,METAR,,350,12.0,,,9999.0,Cloud Development Not Observable,12.0,4.0,29.96,1015.7,,,,0,0,0,,,,,,,,,7/8 Mostly Cloudy,2400.0,,BKN,2400.0,BKN,4000.0,,,,
KRDR,04-16-2004,21:00,METAR,,360,9.0,,,9999.0,Cloud Development Not Observable,12.0,7.0,29.95,1014.6,,,,0,0,0,,,,,,,,,7/8 Mostly Cloudy,2400.0,,BKN,2400.0,BKN,5900.0,,,,
KRDR,04-16-2004,20:19,SPECI,,340,4.0,,,9999.0,Cloud Development Not Observable,13.0,6.0,29.94,,,,,0,0,0,,,,,,,,,7/8 Mostly Cloudy,2400.0,,FEW,1000.0,BKN,2400.0,,,,
KRDR,04-16-2004,20:00,METAR,,,3.0,,,9999.0,Cloud Development Not Observable,11.0,5.0,29.93,1014.5,,,,0,0,0,,,,,,,,,7/8 Mostly Cloudy,4900.0,,FEW,2500.0,BKN,5000.0,,,,
KRDR,04-16-2004,19:00,METAR,,,4.0,,,9999.0,Cloud Development Not Observable,11.0,6.0,29.94,1015.0,,,,0,0,0,,,,,,,,,7/8 Mostly Cloudy,4900.0,,BKN,5000.0,,,,,,
KRDR,04-16-2004,18:00,METAR,,,5.0,,,9999.0,Cloud Development Not Observable,8.0,4.0,29.94,1015.1,,,,0,0,0,,,,,,,,,7/8 Mostly Cloudy,6000.0,,FEW,1000.0,SCT,5900.0,BKN,9900.0,,
KRDR,04-16-2004,17:04,SPECI,,,5.0,,,9999.0,Cloud Development Not Observable,5.0,3.0,29.94,,,,,0,0,0,,,,,,,,,7/8 Mostly Cloudy,12000.0,,SCT,1000.0,BKN,12000.0,,,,
KRDR,04-16-2004,17:00,METAR,,,6.0,,,9999.0,Cloud Development Not Observable,4.0,2.0,29.94,1015.2,,,,0,0,0,,,,,,,,,7/8 Mostly Cloudy,1000.0,,BKN,1000.0,BKN,11000.0,,,,
KRDR,04-16-2004,16:38,SPECI,,,4.0,,,9999.0,Cloud Development Not Observable,4.0,2.0,29.94,,,,,0,0,0,,,,,,,,,7/8 Mostly Cloudy,1000.0,,BKN,1000.0,BKN,11000.0,,,,
KRDR,04-16-2004,16:33,SPECI,,,6.0,,,9999.0,Cloud Development Not Observable,4.0,2.0,29.94,,,,,0,0,0,,,,,,,,,8/8 Overcast,900.0,,OVC,900.0,,,,,,
KRDR,04-16-2004,16:14,SPECI,,,5.0,,,9999.0,Mist/Cloud Development Not Observable,2.0,1.0,29.94,,,,,10,0,0,,,,,,,,,8/8 Overcast,800.0,,OVC,800.0,,,,,,
KRDR,04-16-2004,16:00,METAR,,,4.0,,,9999.0,Mist/Cloud Development Not Observable,2.0,1.0,29.93,1014.9,,,,10,0,0,,,,,,,,,7/8 Mostly Cloudy,600.0,,BKN,600.0,BKN,11000.0,,,,
KRDR,04-16-2004,15:00,METAR,,,3.0,,,8000.0,Mist/Cloud Development Not Observable,1.0,1.0,29.90,1013.8,,,,10,0,0,,,,,,,,,8/8 Overcast,500.0,,OVC,500.0,,,,,,
KRDR,04-16-2004,14:00,METAR,,,4.0,,,8000.0,Mist/Cloud Development Not Observable,0.0,0.0,29.89,1013.4,,,,10,0,0,,,,,,,,,8/8 Overcast,500.0,,FEW,300.0,OVC,500.0,,,,
KRDR,04-16-2004,13:03,SPECI,,30,7.0,,,8000.0,Mist/Cloud Development Not Observable,0.0,0.0,29.88,,,,,10,0,0,,,,,,,,,8/8 Overcast,500.0,,FEW,300.0,OVC,500.0,,,,
KRDR,04-16-2004,13:00,METAR,,20,8.0,,,8000.0,Mist/Cloud Development Not Observable,0.0,0.0,29.88,1013.3,,,,10,0,0,,,,,,,,,8/8 Overcast,700.0,,OVC,700.0,,,,,,
KRDR,04-16-2004,12:19,SPECI,,50,4.0,,,9999.0,Cloud Development Not Observable,-1.0,-1.0,29.87,,,,,0,0,0,,,,,,,,,7/8 Mostly Cloudy,700.0,,BKN,700.0,BKN,11000.0,,,,
KRDR,04-16-2004,12:00,METAR,,360,7.0,,,9999.0,Cloud Development Not Observable,-2.0,-2.0,29.87,1013.1,,,,0,0,0,,,,,,,,.1 IN,7/8 Mostly Cloudy,11000.0,,FEW,1200.0,BKN,11000.0,,,,
KRDR,04-16-2004,11:00,METAR,,360,7.0,,,9999.0,Cloud Development Not Observable,-2.0,-2.0,29.85,1012.4,,,,0,0,0,,,,,,,,,7/8 Mostly Cloudy,11000.0,,FEW,1200.0,BKN,11000.0,,,,
KRDR,04-16-2004,10:00,METAR,,,2.0,,,9999.0,Cloud Development Not Observable,-1.0,-1.0,29.85,1012.4,,,,0,0,0,,,,,,,,,7/8 Mostly Cloudy,11000.0,,SCT,1200.0,BKN,11000.0,,,,
KRDR,04-16-2004,09:00,METAR,,240,4.0,,,9999.0,Cloud Development Not Observable,-1.0,-1.0,29.85,1012.4,,,,0,0,0,,,,,,,,,7/8 Mostly Cloudy,11000.0,,BKN,11000.0,,,,,,
KRDR,04-16-2004,08:00,METAR,,290,7.0,,,9999.0,Cloud Development Not Observable,0.0,0.0,29.85,1012.4,,,,0,0,0,,,,,,,,,7/8 Mostly Cloudy,11000.0,,BKN,11000.0,,,,,,
KRDR,04-16-2004,07:00,METAR,,290,5.0,,,9999.0,Cloud Development Not Observable,-1.0,-1.0,29.82,1011.4,,,,0,0,0,,,,,,,,,7/8 Mostly Cloudy,11000.0,,BKN,11000.0,,,,,,
KRDR,04-16-2004,06:00,METAR,,260,7.0,,,9999.0,Cloud Development Not Observable,-2.0,-2.0,29.81,1011.1,,,,0,0,0,,,,,,,,,4/8 Partly Cloudy,72000.0,,SCT,15000.0,,,,,,
KRDR,04-16-2004,05:00,METAR,,320,5.0,,,9999.0,Cloud Development Not Observable,0.0,0.0,29.77,1009.6,,,,0,0,0,,,,,,,,,4/8 Partly Cloudy,72000.0,,FEW,1500.0,SCT,20000.0,,,,
KRDR,04-16-2004,04:00,METAR,,330,8.0,,,9999.0,Cloud Development Not Observable,1.0,0.0,29.76,1009.2,,,,0,0,0,,,,,,,,,2/8 Mostly Clear,72000.0,,FEW,1500.0,,,,,,
KRDR,04-16-2004,03:36,SPECI,,330,8.0,,,9999.0,Cloud Development Not Observable,1.0,0.0,29.76,,,,,0,0,0,,,,,,,,,4/8 Partly Cloudy,72000.0,,SCT,1500.0,,,,,,
KRDR,04-16-2004,03:00,METAR,,320,11.0,,,9999.0,Cloud Development Not Observable,3.0,2.0,29.75,1008.9,,,,0,0,0,,,,,,,,,8/8 Overcast,1500.0,,OVC,1500.0,,,,,,
KRDR,04-16-2004,02:00,METAR,,320,11.0,,,9999.0,Cloud Development Not Observable,4.0,3.0,29.74,1008.5,,,,0,0,0,,,,,,,,,8/8 Overcast,1400.0,,OVC,1400.0,,,,,,
KRDR,04-16-2004,01:00,METAR,,320,10.0,,,9999.0,Cloud Development Not Observable,4.0,4.0,29.71,1007.4,,,,0,0,0,,,,,,,,,8/8 Overcast,900.0,,OVC,1100.0,,,,,,
KRDR,04-16-2004,00:00,METAR,,320,11.0,,,9999.0,Cloud Development Not Observable,4.0,4.0,29.70,1007.1,,,,0,0,0,,,,,,,,,8/8 Overcast,800.0,,OVC,1000.0,,,,,,
KRDR,04-15-2004,23:00,METAR,,330,11.0,,,9999.0,Cloud Development Not Observable,4.0,4.0,29.68,1006.4,,,,0,0,0,,,,,,,,,8/8 Overcast,800.0,,BKN,1000.0,OVC,5000.0,,,,
KRDR,04-15-2004,22:00,METAR,,350,15.0,,,9999.0,Cloud Development Not Observable,5.0,4.0,29.65,1005.2,,,,0,0,0,,,,,,,,,7/8 Mostly Cloudy,1000.0,,BKN,1000.0,BKN,5900.0,,,,
KRDR,04-15-2004,21:26,SPECI,,360,14.0,,,9999.0,Cloud Development Not Observable,5.0,5.0,29.65,,,,,0,0,0,,,,,,,,,7/8 Mostly Cloudy,6000.0,,SCT,1000.0,BKN,5900.0,BKN,8900.0,,
KRDR,04-15-2004,21:00,METAR,,350,14.0,,,9999.0,Cloud Development Not Observable,5.0,5.0,29.67,1005.7,,,,0,0,0,,,,,,,,,8/8 Overcast,1100.0,,BKN,1100.0,OVC,5900.0,,,,
KRDR,04-15-2004,20:35,SPECI,,330,10.0,,,9999.0,Cloud Development Not Observable,5.0,5.0,29.67,,,,,0,0,0,,,,,,,,,8/8 Overcast,1000.0,,BKN,1000.0,BKN,5900.0,OVC,8900.0,,
KRDR,04-15-2004,20:00,METAR,,330,14.0,,,9999.0,Cloud Development Not Observable,5.0,5.0,29.66,1005.7,,,,0,0,0,,,,,,,,,8/8 Overcast,6000.0,,FEW,2000.0,BKN,5900.0,OVC,8900.0,,
KRDR,04-15-2004,19:00,METAR,,340,9.0,,,9999.0,Cloud Development Not Observable,3.0,3.0,29.68,1006.2,,,,0,0,0,,,,,,,,,8/8 Overcast,7000.0,,BKN,6900.0,OVC,8900.0,,,,
KRDR,04-15-2004,18:00,METAR,,350,11.0,,,9999.0,Cloud Development Not Observable,3.0,2.0,29.67,1006.1,,,,0,0,0,,,,,,,.1 IN,,8/8 Overcast,4900.0,,SCT,3000.0,BKN,5000.0,OVC,8900.0,,
KRDR,04-15-2004,17:41,SPECI,,340,10.0,,,9999.0,Cloud Development Not Observable,2.0,2.0,29.68,,,,,0,0,0,,,,,,,,,8/8 Overcast,4900.0,,SCT,3000.0,BKN,5000.0,OVC,8900.0,,
KRDR,04-15-2004,17:04,SPECI,,50,8.0,,,9999.0,Thunderstorm with Rain or Snow/Light Rain Showers/Cloud Development Not Observable,2.0,2.0,29.68,,,,,95,80,0,,,,,,,,,8/8 Overcast,4900.0,,SCT,3000.0,BKN,5000.0,OVC,8900.0,,
KRDR,04-15-2004,17:00,METAR,,70,14.0,,,9999.0,Thunderstorm and Hail/Light Snow Pellets or Hail/Light Rain Showers,2.0,2.0,29.67,,,,,96,80,87,,,,,,,,,8/8 Overcast,4900.0,,SCT,3000.0,BKN,5000.0,OVC,8900.0,,
KRDR,04-15-2004,16:45,METAR,,60,9.0,,,9999.0,Thunderstorm and Hail/Light Snow Pellets or Hail/Light Rain Showers,3.0,1.0,29.68,,,,,96,80,87,,,,,,,,,8/8 Overcast,3000.0,,BKN,3000.0,OVC,5000.0,,,,
KRDR,04-15-2004,16:11,SPECI,,50,9.0,,,9999.0,Thunderstorm with Rain or Snow/Light Rain Showers/Cloud Development Not Observable,3.0,2.0,29.71,,,,,95,80,0,,,,,,,,,8/8 Overcast,4900.0,,SCT,3000.0,BKN,5000.0,OVC,8900.0,,
KRDR,04-15-2004,16:00,METAR,,40,10.0,,,9999.0,Thunderstorm/Cloud Development Not Observable,3.0,2.0,29.72,,,,,17,0,0,,,,,,,,,8/8 Overcast,4900.0,,SCT,3000.0,BKN,5000.0,OVC,8900.0,,
KRDR,04-15-2004,15:43,SPECI,,20,11.0,,,9999.0,Thunderstorm/Cloud Development Not Observable,3.0,2.0,29.71,,,,,17,0,0,,,,,,,,,8/8 Overcast,4900.0,,SCT,3000.0,BKN,5000.0,OVC,8900.0,,
KRDR,04-15-2004,15:00,METAR,,340,9.0,,,9999.0,Cloud Development Not Observable,2.0,1.0,29.73,1007.9,,,,0,0,0,,,,,,.04 IN,,,7/8 Mostly Cloudy,4900.0,,BKN,5000.0,BKN,8900.0,,,,
KRDR,04-15-2004,14:27,SPECI,,340,7.0,,,9999.0,Cloud Development Not Observable,2.0,1.0,29.73,,,,,0,0,0,,,,,,,,,7/8 Mostly Cloudy,4900.0,,BKN,5000.0,BKN,8900.0,,,,
KRDR,04-15-2004,14:00,METAR,,20,6.0,,,9999.0,Rain/Cloud Development Not Observable,2.0,0.0,29.74,1008.2,,,,61,0,0,,,,,,,,,8/8 Overcast,4900.0,,BKN,5000.0,OVC,7900.0,,,,
KRDR,04-15-2004,13:00,METAR,,30,8.0,,,8000.0,Rain/Mist/Cloud Development Not Observable,2.0,0.0,29.74,1008.1,,,,61,10,0,,,,,,,,,8/8 Overcast,3900.0,,FEW,1000.0,BKN,4000.0,OVC,6900.0,,
KRDR,04-15-2004,12:00,METAR,,60,7.0,,,9999.0,Rain/Mist/Cloud Development Not Observable,2.0,-1.0,29.74,1008.2,,,,61,10,0,,,,,,,IN,TRACE,8/8 Overcast,3500.0,,FEW,2700.0,BKN,3600.0,OVC,6900.0,,
KRDR,04-15-2004,11:09,SPECI,,80,6.0,,,8000.0,Rain/Cloud Development Not Observable,2.0,-2.0,29.77,,,,,61,0,0,,,,,,,,,8/8 Overcast,3400.0,,FEW,2500.0,BKN,3500.0,OVC,7400.0,,
KRDR,04-15-2004,11:00,METAR,,60,8.0,,,8000.0,Rain/Cloud Development Not Observable,3.0,-3.0,29.76,1008.7,,,,61,0,0,,,,,,,,,8/8 Overcast,5500.0,,SCT,3000.0,OVC,5400.0,,,,
KRDR,04-15-2004,10:39,SPECI,,90,9.0,,,9999.0,Rain/Cloud Development Not Observable,4.0,-5.0,29.76,,,,,61,0,0,,,,,,,,,8/8 Overcast,15000.0,,SCT,9900.0,OVC,15000.0,,,,
KRDR,04-15-2004,10:00,METAR,,80,11.0,,,9999.0,Cloud Development Not Observable,4.0,-6.0,29.78,1009.4,,,,0,0,0,,,,,,,,,8/8 Overcast,18000.0,,SCT,11000.0,OVC,18000.0,,,,
KRDR,04-15-2004,09:00,METAR,,40,6.0,,,9999.0,Cloud Development Not Observable,3.0,-7.0,29.80,1010.1,,,,0,0,0,,,,,,,,,8/8 Overcast,18000.0,,SCT,11000.0,OVC,18000.0,,,,
KRDR,04-15-2004,08:00,METAR,,60,7.0,,,9999.0,Cloud Development Not Observable,2.0,-7.0,29.83,1011.2,,,,0,0,0,,,,,,,,,8/8 Overcast,25000.0,,SCT,12000.0,OVC,25000.0,,,,
KRDR,04-15-2004,07:00,METAR,,50,9.0,,,9999.0,Cloud Development Not Observable,2.0,-5.0,29.86,1012.3,,,,0,0,0,,,,,,,,,8/8 Overcast,25000.0,,SCT,12000.0,OVC,25000.0,,,,
KRDR,04-15-2004,06:00,METAR,,50,11.0,,,9999.0,Cloud Development Not Observable,3.0,-5.0,29.88,1013.0,,,,0,0,0,,,,,,,,,7/8 Mostly Cloudy,25000.0,,FEW,12000.0,BKN,25000.0,,,,
KRDR,04-15-2004,05:00,METAR,,40,10.0,,,9999.0,Cloud Development Not Observable,3.0,-5.0,29.90,1013.6,,,,0,0,0,,,,,,,,,7/8 Mostly Cloudy,25000.0,,FEW,15000.0,BKN,25000.0,,,,
KRDR,04-15-2004,04:00,METAR,,60,10.0,,,9999.0,Cloud Development Not Observable,4.0,-7.0,29.92,1014.3,,,,0,0,0,,,,,,,,,7/8 Mostly Cloudy,25000.0,,FEW,15000.0,BKN,25000.0,,,,
KRDR,04-15-2004,03:00,METAR,,60,11.0,,,9999.0,Cloud Development Not Observable,6.0,-7.0,29.93,1014.6,,,,0,0,0,,,,,,,,,7/8 Mostly Cloudy,25000.0,,SCT,15000.0,BKN,25000.0,,,,
KRDR,04-15-2004,02:00,METAR,,60,12.0,,,9999.0,Cloud Development Not Observable,7.0,-8.0,29.93,1014.7,,,,0,0,0,,,,,,,,,8/8 Overcast,15000.0,,BKN,15000.0,OVC,25000.0,,,,
KRDR,04-15-2004,01:00,METAR,,60,12.0,,,9999.0,Cloud Development Not Observable,8.0,-8.0,29.93,1014.7,,,,0,0,0,,,,,,,,,8/8 Overcast,15000.0,,BKN,15000.0,OVC,25000.0,,,,
KRDR,04-15-2004,00:00,METAR,,80,14.0,,,9999.0,Cloud Development Not Observable,10.0,-9.0,29.95,1015.3,,,,0,0,0,,,,,,,,,7/8 Mostly Cloudy,25000.0,,FEW,12000.0,BKN,25000.0,,,,
KRDR,04-14-2004,23:00,METAR,,80,14.0,21.0,,9999.0,Cloud Development Not Observable,11.0,-10.0,29.97,1015.9,,,,0,0,0,,,,,,,,,7/8 Mostly Cloudy,25000.0,,FEW,12000.0,BKN,25000.0,,,,
KRDR,04-14-2004,22:00,METAR,,80,14.0,,,9999.0,Cloud Development Not Observable,11.0,-11.0,29.98,1016.3,,,,0,0,0,,,,,,,,,4/8 Partly Cloudy,72000.0,,SCT,25000.0,,,,,,
KRDR,04-14-2004,21:00,METAR,,80,15.0,23.0,,9999.0,Cloud Development Not Observable,12.0,-10.0,30.00,1016.9,,,,0,0,0,,,,,,,,,2/8 Mostly Clear,72000.0,,FEW,8900.0,FEW,25000.0,,,,
KRDR,04-14-2004,20:00,METAR,,70,16.0,,,9999.0,Cloud Development Not Observable,11.0,-8.0,30.03,1018.0,,,,0,0,0,,,,,,,,,4/8 Partly Cloudy,72000.0,,FEW,8900.0,SCT,25000.0,,,,
KRDR,04-14-2004,19:00,METAR,,70,15.0,22.0,,9999.0,Cloud Development Not Observable,10.0,-7.0,30.05,1018.7,,,,0,0,0,,,,,,,,,4/8 Partly Cloudy,72000.0,,FEW,8900.0,SCT,12000.0,SCT,25000.0,,
KRDR,04-14-2004,18:00,METAR,,60,13.0,,,9999.0,Cloud Development Not Observable,7.0,-7.0,30.09,1020.2,,,,0,0,0,,,,,,,,,7/8 Mostly Cloudy,9000.0,,BKN,8900.0,BKN,25000.0,,,,
KRDR,04-14-2004,17:00,METAR,,70,16.0,21.0,,9999.0,Cloud Development Not Observable,7.0,-5.0,30.11,1020.9,,,,0,0,0,,,,,,,,,7/8 Mostly Cloudy,11000.0,,BKN,11000.0,BKN,25000.0,,,,
KRDR,04-14-2004,16:00,METAR,,80,16.0,,,9999.0,Cloud Development Not Observable,5.0,-3.0,30.12,1021.3,,,,0,0,0,,,,,,,,,7/8 Mostly Cloudy,11000.0,,BKN,11000.0,,,,,,
KRDR,04-14-2004,15:00,METAR,,80,13.0,,,9999.0,Cloud Development Not Observable,4.0,-3.0,30.12,1021.3,,,,0,0,0,,,,,,,,,7/8 Mostly Cloudy,12000.0,,BKN,12000.0,,,,,,
KRDR,04-14-2004,14:00,METAR,,70,11.0,,,9999.0,Cloud Development Not Observable,2.0,-4.0,30.13,1021.8,,,,0,0,0,,,,,,,,,7/8 Mostly Cloudy,13000.0,,BKN,13000.0,,,,,,
KRDR,04-14-2004,12:44,SPECI,,60,8.0,,,9999.0,Cloud Development Not Observable,1.0,-3.0,30.13,,,,,0,0,0,,,,,,,,,7/8 Mostly Cloudy,12000.0,,SCT,7900.0,BKN,12000.0,,,,
KRDR,04-14-2004,12:00,METAR,,60,7.0,,,9999.0,Cloud Development Not Observable,1.0,-2.0,30.12,1021.3,,,,0,0,0,,,,,,,,.01 IN,7/8 Mostly Cloudy,12000.0,,FEW,8900.0,BKN,12000.0,,,,
KRDR,04-14-2004,11:00,METAR,,70,5.0,,,9999.0,Cloud Development Not Observable,2.0,-2.0,30.11,1021.0,,,,0,0,0,,,,,,,,,7/8 Mostly Cloudy,9500.0,,BKN,9400.0,,,,,,
KRDR,04-14-2004,10:00,METAR,,60,6.0,,,9999.0,Cloud Development Not Observable,2.0,-1.0,30.12,1021.3,,,,0,0,0,,,,,,,,,8/8 Overcast,9500.0,,BKN,9400.0,OVC,11000.0,,,,
KRDR,04-14-2004,09:00,METAR,,60,7.0,,,9999.0,Cloud Development Not Observable,3.0,-1.0,30.10,1020.6,,,,0,0,0,,,,,,,,,7/8 Mostly Cloudy,9500.0,,BKN,9400.0,,,,,,
KRDR,04-14-2004,08:00,METAR,,50,8.0,,,9999.0,Cloud Development Not Observable,3.0,-1.0,30.10,1020.6,,,,0,0,0,,,,,,,,,7/8 Mostly Cloudy,10000.0,,SCT,6900.0,BKN,9900.0,,,,
KRDR,04-14-2004,07:00,METAR,,60,5.0,,,9999.0,Cloud Development Not Observable,3.0,-1.0,30.11,1020.9,,,,0,0,0,,,,,,,,,7/8 Mostly Cloudy,10000.0,,SCT,7900.0,BKN,9900.0,,,,
KRDR,04-14-2004,06:10,SPECI,,50,7.0,,,9999.0,Cloud Development Not Observable,3.0,-1.0,30.10,,,,,0,0,0,,,,,,,,,8/8 Overcast,10000.0,,SCT,7900.0,OVC,9900.0,,,,
KRDR,04-14-2004,06:00,METAR,,60,7.0,,,9999.0,Rain/Cloud Development Not Observable,3.0,-1.0,30.09,1020.2,,,,61,0,0,,,,,,,.01 IN,,8/8 Overcast,8000.0,,FEW,2500.0,BKN,7900.0,OVC,9900.0,,
KRDR,04-14-2004,05:00,METAR,,40,12.0,,,9999.0,Ice Pellets/Rain/Cloud Development Not Observable,4.0,0.0,30.09,1020.1,,,,61,79,0,,,,,,,,,8/8 Overcast,3400.0,,SCT,2500.0,BKN,3500.0,OVC,5400.0,,
KRDR,04-14-2004,04:33,SPECI,,40,9.0,,,9999.0,Rain/Cloud Development Not Observable,4.0,-1.0,30.08,,,,,61,0,0,,,,,,,,,8/8 Overcast,3900.0,,SCT,2500.0,BKN,4000.0,OVC,6400.0,,
KRDR,04-14-2004,04:28,SPECI,,40,13.0,,,9999.0,Rain/Cloud Development Not Observable,5.0,-1.0,30.07,,,,,61,0,0,,,,,,,,,8/8 Overcast,6000.0,,SCT,2500.0,OVC,5900.0,,,,
KRDR,04-14-2004,04:00,METAR,,30,12.0,,,9999.0,Cloud Development Not Observable,5.0,-1.0,30.08,1019.9,,,,0,0,0,,,,,,,,,8/8 Overcast,8000.0,,BKN,7900.0,OVC,11000.0,,,,
KRDR,04-14-2004,03:00,METAR,,10,10.0,,,9999.0,Cloud Development Not Observable,5.0,1.0,30.08,1019.9,,,,0,0,0,,,,,,,,,8/8 Overcast,8000.0,,OVC,7900.0,,,,,,
KRDR,04-14-2004,02:00,METAR,,10,7.0,,,9999.0,Cloud Development Not Observable,5.0,1.0,30.06,1019.2,,,,0,0,0,,,,,,,,,8/8 Overcast,7500.0,,OVC,7400.0,,,,,,
KRDR,04-14-2004,01:00,METAR,,10,8.0,,,9999.0,Cloud Development Not Observable,6.0,1.0,30.06,1019.2,,,,0,0,0,,,,,,,,,7/8 Mostly Cloudy,8000.0,,BKN,7900.0,BKN,9900.0,,,,
KRDR,04-14-2004,00:00,METAR,,10,13.0,,,9999.0,Cloud Development Not Observable,7.0,2.0,30.08,1019.7,,,,0,0,0,,,,,,,,,7/8 Mostly Cloudy,6500.0,,BKN,6400.0,BKN,7400.0,,,,
KRDR,04-13-2004,23:00,METAR,,10,13.0,,,9999.0,Cloud Development Not Observable,6.0,2.0,30.08,1019.7,,,,0,0,0,,,,,,,,,7/8 Mostly Cloudy,6000.0,,BKN,5900.0,,,,,,
KRDR,04-13-2004,22:00,METAR,,20,14.0,,,9999.0,Cloud Development Not Observable,7.0,2.0,30.08,1019.7,,,,0,0,0,,,,,,,,,7/8 Mostly Cloudy,7000.0,,FEW,2000.0,BKN,6900.0,,,,
KRDR,04-13-2004,21:00,METAR,,20,16.0,,,9999.0,Cloud Development Not Observable,8.0,2.0,30.07,1019.5,,,,0,0,0,,,,,,,,,8/8 Overcast,8000.0,,FEW,2000.0,OVC,7900.0,,,,
KRDR,04-13-2004,20:00,METAR,,20,15.0,,,9999.0,Cloud Development Not Observable,8.0,2.0,30.07,1019.5,,,,0,0,0,,,,,,,,,8/8 Overcast,8000.0,,FEW,4000.0,OVC,7900.0,,,,
KRDR,04-13-2004,19:00,METAR,,30,16.0,,,9999.0,Cloud Development Not Observable,8.0,2.0,30.07,1019.5,,,,0,0,0,,,,,,,,,7/8 Mostly Cloudy,8000.0,,FEW,4000.0,BKN,7900.0,,,,
KRDR,04-13-2004,18:00,METAR,,30,11.0,,,9999.0,Cloud Development Not Observable,10.0,1.0,30.07,1019.5,,,,0,0,0,,,,,,,,,7/8 Mostly Cloudy,8500.0,,BKN,8400.0,,,,,,
KRDR,04-13-2004,17:00,METAR,,40,12.0,,,9999.0,Cloud Development Not Observable,10.0,0.0,30.07,1019.5,,,,0,0,0,,,,,,,,,7/8 Mostly Cloudy,8000.0,,BKN,7900.0,,,,,,
KRDR,04-13-2004,16:00,METAR,,20,11.0,,,9999.0,Cloud Development Not Observable,6.0,1.0,30.08,1019.8,,,,0,0,0,,,,,,,,,8/8 Overcast,8000.0,,OVC,7900.0,,,,,,
KRDR,04-13-2004,15:00,METAR,,340,11.0,,,9999.0,Cloud Development Not Observable,5.0,0.0,30.07,1019.7,,,,0,0,0,,,,,,,,,8/8 Overcast,8000.0,,OVC,7900.0,,,,,,
KRDR,04-13-2004,14:00,METAR,,310,9.0,,,9999.0,Cloud Development Not Observable,5.0,-2.0,30.07,1019.7,,,,0,0,0,,,,,,,,,8/8 Overcast,8000.0,,OVC,7900.0,,,,,,
KRDR,04-13-2004,13:00,METAR,,290,5.0,,,9999.0,Cloud Development Not Observable,4.0,-2.0,30.03,1018.1,,,,0,0,0,,,,,,,,,8/8 Overcast,8500.0,,OVC,8400.0,,,,,,
KRDR,04-13-2004,12:00,METAR,,,6.0,,,9999.0,Cloud Development Not Observable,4.0,-3.0,30.03,1018.0,,,,0,0,0,,,,,,,,,8/8 Overcast,9000.0,,BKN,8900.0,OVC,25000.0,,,,
KRDR,04-13-2004,11:00,METAR,,220,6.0,,,9999.0,Cloud Development Not Observable,4.0,-3.0,30.01,1017.3,,,,0,0,0,,,,,,,,,8/8 Overcast,9000.0,,BKN,8900.0,OVC,25000.0,,,,
KRDR,04-13-2004,10:00,METAR,,240,10.0,,,9999.0,Cloud Development Not Observable,4.0,-3.0,30.02,1017.8,,,,0,0,0,,,,,,,,,7/8 Mostly Cloudy,9000.0,,BKN,8900.0,BKN,25000.0,,,,
KRDR,04-13-2004,09:00,METAR,,230,11.0,,,9999.0,Cloud Development Not Observable,2.0,-3.0,30.02,1017.8,,,,0,0,0,,,,,,,,,4/8 Partly Cloudy,72000.0,,FEW,7900.0,SCT,25000.0,,,,
KRDR,04-13-2004,08:00,METAR,,220,12.0,,,9999.0,Cloud Development Not Observable,2.0,-3.0,30.03,1018.1,,,,0,0,0,,,,,,,,,4/8 Partly Cloudy,72000.0,,FEW,7900.0,SCT,25000.0,,,,
KRDR,04-13-2004,07:00,METAR,,200,9.0,,,9999.0,Cloud Development Not Observable,2.0,-3.0,30.04,1018.5,,,,0,0,0,,,,,,,,,4/8 Partly Cloudy,72000.0,,FEW,7900.0,SCT,25000.0,,,,
KRDR,04-13-2004,05:00,METAR,,200,9.0,,,9999.0,Cloud Development Not Observable,1.0,-3.0,30.07,1019.7,,,,0,0,0,,,,,,,,,4/8 Partly Cloudy,72000.0,,FEW,7900.0,SCT,25000.0,,,,
KRDR,04-13-2004,04:00,METAR,,180,9.0,,,9999.0,Cloud Development Not Observable,2.0,-3.0,30.09,1020.3,,,,0,0,0,,,,,,,,,4/8 Partly Cloudy,72000.0,,FEW,7900.0,SCT,25000.0,,,,
KRDR,04-13-2004,03:00,METAR,,180,9.0,,,9999.0,Cloud Development Not Observable,2.0,-4.0,30.09,1020.3,,,,0,0,0,,,,,,,,,4/8 Partly Cloudy,72000.0,,FEW,7900.0,SCT,25000.0,,,,
KRDR,04-13-2004,02:00,METAR,,180,9.0,,,9999.0,Cloud Development Not Observable,2.0,-5.0,30.09,1020.3,,,,0,0,0,,,,,,,,,7/8 Mostly Cloudy,25000.0,,FEW,7900.0,BKN,25000.0,,,,
KRDR,04-13-2004,01:00,METAR,,200,6.0,,,9999.0,Cloud Development Not Observable,7.0,-4.0,30.10,1020.6,,,,0,0,0,,,,,,,,,7/8 Mostly Cloudy,25000.0,,BKN,25000.0,,,,,,
KRDR,04-12-2004,23:55,METAR,,230,11.0,,,9999.0,Cloud Development Not Observable,9.0,-6.0,30.10,1020.6,,,,0,0,0,,,,,,,,,7/8 Mostly Cloudy,25000.0,,BKN,25000.0,,,,,,
KRDR,04-12-2004,23:00,METAR,,230,10.0,,,9999.0,Cloud Development Not Observable,10.0,-6.0,30.11,1020.4,,,,0,0,0,,,,,,,,,4/8 Partly Cloudy,72000.0,,FEW,4000.0,SCT,25000.0,,,,
KRDR,04-12-2004,21:00,METAR,,230,13.0,,,9999.0,Cloud Development Not Observable,9.0,-5.0,30.15,1022.5,,,,0,0,0,,,,,,,,,4/8 Partly Cloudy,72000.0,,FEW,3500.0,SCT,25000.0,,,,
KRDR,04-12-2004,20:00,METAR,,230,12.0,21.0,,9999.0,Cloud Development Not Observable,8.0,-6.0,30.18,1023.3,,,,0,0,0,,,,,,,,,4/8 Partly Cloudy,72000.0,,FEW,3500.0,SCT,25000.0,,,,
KRDR,04-12-2004,19:00,METAR,,200,10.0,20.0,,9999.0,Cloud Development Not Observable,6.0,-6.0,30.20,1025.2,,,,0,0,0,,,,,,,,,4/8 Partly Cloudy,72000.0,,SCT,3500.0,SCT,25000.0,,,,
KRDR,04-12-2004,18:00,METAR,,200,12.0,19.0,,9999.0,Cloud Development Not Observable,6.0,-5.0,30.23,1025.2,,,,0,0,0,,,,,,,,,4/8 Partly Cloudy,72000.0,,SCT,3500.0,,,,,,
KRDR,04-12-2004,17:00,METAR,,230,9.0,,,9999.0,Cloud Development Not Observable,4.0,-5.0,30.25,1026.1,,,,0,0,0,,,,,,,,,4/8 Partly Cloudy,72000.0,,SCT,3800.0,,,,,,
KRDR,04-12-2004,16:00,METAR,,200,13.0,,,9999.0,Cloud Development Not Observable,3.0,-6.0,30.29,1027.4,,,,0,0,0,,,,,,,,,4/8 Partly Cloudy,72000.0,,FEW,4500.0,SCT,25000.0,,,,
KRDR,04-12-2004,15:00,METAR,,220,11.0,,,9999.0,Cloud Development Not Observable,1.0,-4.0,30.29,1027.4,,,,0,0,0,,,,,,,,,7/8 Mostly Cloudy,25000.0,,SCT,4500.0,BKN,25000.0,,,,
KRDR,04-12-2004,13:00,METAR,,190,6.0,,,9999.0,Cloud Development Not Observable,-2.0,-2.0,30.30,1027.7,,,,0,0,0,,,,,,,,,7/8 Mostly Cloudy,25000.0,,SCT,4500.0,BKN,25000.0,,,,
KRDR,04-12-2004,12:00,METAR,,210,6.0,,,9999.0,Cloud Development Not Observable,-5.0,-5.0,30.30,1027.7,,,,0,0,0,,,,,,,,,4/8 Partly Cloudy,72000.0,,SCT,4500.0,SCT,25000.0,,,,
KRDR,04-12-2004,10:00,METAR,,200,6.0,,,9999.0,Cloud Development Not Observable,-2.0,-3.0,30.30,1027.6,,,,0,0,0,,,,,,,,,8/8 Overcast,4500.0,,OVC,4600.0,,,,,,
KRDR,04-12-2004,09:00,METAR,,240,3.0,,,9999.0,Cloud Development Not Observable,-2.0,-3.0,30.31,1027.9,,,,0,0,0,,,,,,,,,8/8 Overcast,4400.0,,OVC,4500.0,,,,,,
KRDR,04-12-2004,08:00,METAR,,,4.0,,,9999.0,Cloud Development Not Observable,-1.0,-3.0,30.30,1027.6,,,,0,0,0,,,,,,,,,8/8 Overcast,4300.0,,OVC,4400.0,,,,,,
KRDR,04-12-2004,07:00,METAR,,190,2.0,,,9999.0,Cloud Development Not Observable,-2.0,-3.0,30.31,1027.9,,,,0,0,0,,,,,,,,,8/8 Overcast,4400.0,,OVC,4500.0,,,,,,
KRDR,04-12-2004,06:00,METAR,,,1.0,,,9999.0,Cloud Development Not Observable,-2.0,-2.0,30.31,1028.0,,,,0,0,0,,,,,,,IN,,8/8 Overcast,5000.0,,FEW,4200.0,OVC,5000.0,,,,
KRDR,04-12-2004,05:00,METAR,,240,3.0,,,9999.0,Cloud Development Not Observable,-2.0,-3.0,30.32,1028.3,,,,0,0,0,,,,,,,,,7/8 Mostly Cloudy,5000.0,,BKN,5200.0,,,,,,
KRDR,04-12-2004,04:00,METAR,,270,4.0,,,9999.0,Cloud Development Not Observable,-2.0,-3.0,30.32,1028.4,,,,0,0,0,,,,,,,,,8/8 Overcast,5500.0,,OVC,5500.0,,,,,,
KRDR,04-12-2004,03:00,METAR,,310,3.0,,,9999.0,Cloud Development Not Observable,-1.0,-4.0,30.31,1028.2,,,,0,0,0,,,,,,TRACE,,,8/8 Overcast,4700.0,,BKN,4800.0,OVC,5200.0,,,,
KRDR,04-12-2004,02:37,SPECI,,340,3.0,,,9999.0,Cloud Development Not Observable,-1.0,-4.0,30.32,,,,,0,0,0,,,,,,,,,8/8 Overcast,4700.0,,OVC,4800.0,,,,,,
KRDR,04-12-2004,02:00,METAR,,350,5.0,,,9999.0,Light Snow/Cloud Development Not Observable,-1.0,-4.0,30.31,1028.1,,,,71,0,0,,,,,,,,,8/8 Overcast,4100.0,,OVC,4200.0,,,,,,
KRDR,04-12-2004,01:02,SPECI,,,3.0,,,9999.0,Light Snow/Cloud Development Not Observable,0.0,-5.0,30.30,,,,,71,0,0,,,,,,,,,8/8 Overcast,4700.0,,FEW,1800.0,OVC,4800.0,,,,
KRDR,04-12-2004,01:00,METAR,,,3.0,,,9999.0,Cloud Development Not Observable,0.0,-5.0,30.30,1027.7,,,,0,0,0,,,,,,,,,8/8 Overcast,4600.0,,FEW,1800.0,OVC,4700.0,,,,
KRDR,04-12-2004,00:00,METAR,,90,5.0,,,9999.0,Cloud Development Not Observable,1.0,-5.0,30.29,1027.4,,,,0,0,0,,,,,,,,,7/8 Mostly Cloudy,3800.0,,BKN,3900.0,,,,,,
KRDR,04-11-2004,23:00,METAR,,100,6.0,,,9999.0,Cloud Development Not Observable,1.0,-5.0,30.28,1027.2,,,,0,0,0,,,,,,,,,7/8 Mostly Cloudy,3100.0,,BKN,3100.0,,,,,,
KRDR,04-11-2004,22:00,METAR,,80,7.0,,,9999.0,Cloud Development Not Observable,2.0,-5.0,30.28,1027.1,,,,0,0,0,,,,,,,,,8/8 Overcast,3400.0,,OVC,3500.0,,,,,,
KRDR,04-11-2004,21:00,METAR,,50,7.0,,,9999.0,Cloud Development Not Observable,1.0,-5.0,30.28,1027.2,,,,0,0,0,,,,,,,,,7/8 Mostly Cloudy,3300.0,,BKN,3400.0,,,,,,
KRDR,04-11-2004,20:00,METAR,,10,11.0,,,9999.0,Cloud Development Not Observable,2.0,-5.0,30.28,1027.7,,,,0,0,0,,,,,,,,,7/8 Mostly Cloudy,3000.0,,BKN,3000.0,,,,,,
KRDR,04-11-2004,19:40,SPECI,,40,9.0,,,9999.0,Cloud Development Not Observable,2.0,-5.0,30.28,,,,,0,0,0,,,,,,,,,8/8 Overcast,3000.0,,BKN,3000.0,OVC,9900.0,,,,
KRDR,04-11-2004,19:00,METAR,,60,10.0,,,9999.0,Cloud Development Not Observable,2.0,-5.0,30.29,1027.7,,,,0,0,0,,,,,,,,,7/8 Mostly Cloudy,1500.0,,BKN,2800.0,,,,,,
KRDR,04-11-2004,18:00,METAR,,20,10.0,,,9999.0,Cloud Development Not Observable,0.0,-5.0,30.30,1027.7,,,,0,0,0,,,,,,,,,7/8 Mostly Cloudy,1300.0,,BKN,2800.0,,,,,,
KRDR,04-11-2004,17:00,METAR,,30,9.0,,,9999.0,Cloud Development Not Observable,0.0,-5.0,30.30,1027.7,,,,0,0,0,,,,,,,,,7/8 Mostly Cloudy,1800.0,,BKN,2500.0,,,,,,
KRDR,04-11-2004,16:00,METAR,,340,11.0,,,9999.0,Cloud Development Not Observable,-1.0,-5.0,30.30,1027.7,,,,0,0,0,,,,,,,,,7/8 Mostly Cloudy,2000.0,,BKN,2000.0,BKN,5000.0,,,,
KRDR,04-11-2004,15:00,METAR,,340,9.0,,,9999.0,Cloud Development Not Observable,-2.0,-5.0,30.30,1027.7,,,,0,0,0,,,,,,,,,7/8 Mostly Cloudy,10000.0,,SCT,1500.0,BKN,9900.0,,,,
KRDR,04-11-2004,14:00,METAR,,350,10.0,,,9999.0,Cloud Development Not Observable,-3.0,-4.0,30.30,1027.8,,,,0,0,0,,,,,,,,,7/8 Mostly Cloudy,3400.0,,FEW,1500.0,BKN,3500.0,BKN,8900.0,,
KRDR,04-11-2004,13:00,METAR,,330,8.0,,,9999.0,Cloud Development Not Observable,-4.0,-5.0,30.29,1027.5,,,,0,0,0,,,,,,,,,8/8 Overcast,3900.0,,BKN,4000.0,OVC,8900.0,,,,
KRDR,04-11-2004,12:00,METAR,,330,7.0,,,9999.0,Cloud Development Not Observable,-5.0,-5.0,30.29,1027.5,,,,0,0,0,,,,,,,,,8/8 Overcast,9000.0,,SCT,4000.0,OVC,8900.0,,,,
KRDR,04-11-2004,11:00,METAR,,330,6.0,,,9999.0,Cloud Development Not Observable,-5.0,-5.0,30.29,1027.5,,,,0,0,0,,,,,,,,,8/8 Overcast,9000.0,,FEW,5800.0,OVC,9100.0,,,,
KRDR,04-11-2004,10:00,METAR,,350,8.0,,,9999.0,Cloud Development Not Observable,-5.0,-6.0,30.29,1027.4,,,,0,0,0,,,,,,,,,7/8 Mostly Cloudy,4900.0,,SCT,4000.0,BKN,5000.0,,,,
KRDR,04-11-2004,09:00,METAR,,350,6.0,,,9999.0,Cloud Development Not Observable,-5.0,-6.0,30.29,1027.4,,,,0,0,0,,,,,,,,,8/8 Overcast,4300.0,,SCT,2900.0,OVC,4400.0,,,,
KRDR,04-11-2004,08:00,METAR,,10,7.0,,,9999.0,Cloud Development Not Observable,-6.0,-7.0,30.30,1027.7,,,,0,0,0,,,,,,,,,7/8 Mostly Cloudy,3700.0,,BKN,3800.0,BKN,4300.0,,,,
KRDR,04-11-2004,07:00,METAR,,10,7.0,,,9999.0,Cloud Development Not Observable,-5.0,-7.0,30.30,1027.7,,,,0,0,0,,,,,,,,,4/8 Partly Cloudy,72000.0,,SCT,3600.0,,,,,,
KRDR,04-11-2004,06:00,METAR,,20,9.0,,,9999.0,Cloud Development Not Observable,-3.0,-6.0,30.30,1027.7,,,,0,0,0,,,,,,,IN,,7/8 Mostly Cloudy,3500.0,,BKN,3600.0,,,,,,
KRDR,04-11-2004,05:00,METAR,,360,7.0,,,9999.0,Cloud Development Not Observable,-3.0,-5.0,30.30,1027.7,,,,0,0,0,,,,,,,,,8/8 Overcast,3500.0,,OVC,3600.0,,,,,,
KRDR,04-11-2004,04:00,METAR,,360,7.0,,,9999.0,Cloud Development Not Observable,-3.0,-5.0,30.31,1028.1,,,,0,0,0,,,,,,,,,7/8 Mostly Cloudy,3700.0,,BKN,3800.0,,,,,,
KRDR,04-11-2004,03:00,METAR,,360,8.0,,,9999.0,Light Snow/Cloud Development Not Observable,-3.0,-6.0,30.31,1028.2,,,,71,0,0,,,,,,TRACE,,,8/8 Overcast,3100.0,,SCT,2500.0,OVC,3200.0,,,,
KRDR,04-11-2004,02:17,SPECI,,350,9.0,,,9999.0,Light Snow/Cloud Development Not Observable,-3.0,-6.0,30.31,,,,,71,0,0,,,,,,,,,8/8 Overcast,3000.0,,SCT,2500.0,OVC,3000.0,,,,
KRDR,04-11-2004,02:00,METAR,,360,10.0,,,9999.0,Light Snow/Cloud Development Not Observable,-3.0,-6.0,30.31,1028.2,,,,71,0,0,,,,,,,,,8/8 Overcast,2600.0,,BKN,2600.0,OVC,2900.0,,,,
KRDR,04-11-2004,01:00,METAR,,10,12.0,,,9999.0,Cloud Development Not Observable,-3.0,-7.0,30.31,1028.3,,,,0,0,0,,,,,,,,,8/8 Overcast,2900.0,,FEW,1500.0,OVC,2900.0,,,,
KRDR,04-11-2004,00:26,SPECI,,350,12.0,,,9999.0,Cloud Development Not Observable,-3.0,-7.0,30.31,,,,,0,0,0,,,,,,,,,8/8 Overcast,2800.0,,FEW,1500.0,BKN,2800.0,OVC,3200.0,,
KRDR,04-11-2004,00:00,METAR,,10,15.0,,,9999.0,Cloud Development Not Observable,-2.0,-6.0,30.31,1028.3,,,,0,0,0,,,,,,,,,8/8 Overcast,2300.0,,BKN,3000.0,OVC,3500.0,,,,
KRDR,04-10-2004,23:00,METAR,,10,14.0,,,9999.0,Cloud Development Not Observable,-1.0,-7.0,30.31,1028.3,,,,0,0,0,,,,,,,,,7/8 Mostly Cloudy,2500.0,,BKN,3000.0,,,,,,
KRDR,04-10-2004,22:00,METAR,,360,12.0,,,9999.0,Cloud Development Not Observable,0.0,-7.0,30.30,1028.0,,,,0,0,0,,,,,,,,,7/8 Mostly Cloudy,3500.0,,BKN,3600.0,,,,,,
KRDR,04-10-2004,21:00,METAR,,10,14.0,19.0,,9999.0,Cloud Development Not Observable,0.0,-7.0,30.31,1028.3,,,,0,0,0,,,,,,,,,7/8 Mostly Cloudy,10000.0,,SCT,3000.0,BKN,9900.0,,,,
KRDR,04-10-2004,20:00,METAR,,350,11.0,23.0,,9999.0,Cloud Development Not Observable,1.0,-10.0,30.31,1028.3,,,,0,0,0,,,,,,,,,4/8 Partly Cloudy,72000.0,,SCT,3500.0,SCT,9900.0,,,,
KRDR,04-10-2004,19:00,METAR,,350,8.0,,,9999.0,Cloud Development Not Observable,1.0,-9.0,30.32,1028.4,,,,0,0,0,,,,,,,,,4/8 Partly Cloudy,72000.0,,SCT,3500.0,SCT,9900.0,,,,
KRDR,04-10-2004,18:00,METAR,,310,12.0,19.0,,9999.0,Cloud Development Not Observable,0.0,-11.0,30.33,1028.7,,,,0,0,0,,,,,,,,,4/8 Partly Cloudy,72000.0,,FEW,4000.0,SCT,9900.0,SCT,20000.0,,
KRDR,04-10-2004,17:00,METAR,,350,12.0,,,9999.0,Cloud Development Not Observable,0.0,-10.0,30.34,1029.1,,,,0,0,0,,,,,,,,,4/8 Partly Cloudy,72000.0,,FEW,3500.0,SCT,9900.0,SCT,20000.0,,
KRDR,04-10-2004,16:00,METAR,,340,14.0,,,9999.0,Cloud Development Not Observable,-1.0,-10.0,30.35,1029.5,,,,0,0,0,,,,,,,,,4/8 Partly Cloudy,72000.0,,FEW,11000.0,SCT,20000.0,,,,
KRDR,04-10-2004,15:00,METAR,,340,14.0,,,9999.0,Cloud Development Not Observable,-3.0,-10.0,30.35,1029.5,,,,0,0,0,,,,,,,,,4/8 Partly Cloudy,72000.0,,FEW,11000.0,SCT,20000.0,,,,
KRDR,04-10-2004,14:00,METAR,,350,15.0,,,9999.0,Cloud Development Not Observable,-4.0,-11.0,30.35,1029.6,,,,0,0,0,,,,,,,,,4/8 Partly Cloudy,72000.0,,SCT,11000.0,,,,,,
KRDR,04-10-2004,13:00,METAR,,330,13.0,,,9999.0,Cloud Development Not Observable,-5.0,-11.0,30.35,1029.6,,,,0,0,0,,,,,,,,,4/8 Partly Cloudy,72000.0,,SCT,11000.0,,,,,,
KRDR,04-10-2004,12:00,METAR,,330,10.0,,,9999.0,Cloud Development Not Observable,-6.0,-11.0,30.34,1029.2,,,,0,0,0,,,,,,,,,4/8 Partly Cloudy,72000.0,,SCT,11000.0,,,,,,
KRDR,04-10-2004,11:00,METAR,,310,11.0,,,9999.0,Cloud Development Not Observable,-6.0,-10.0,30.33,1028.9,,,,0,0,0,,,,,,,,,4/8 Partly Cloudy,72000.0,,SCT,11000.0,,,,,,
KRDR,04-10-2004,10:00,METAR,,300,11.0,,,9999.0,Cloud Development Not Observable,-6.0,-9.0,30.33,1028.9,,,,0,0,0,,,,,,,,,Clear,72000.0,,,73000.0,,,,,,
KRDR,04-10-2004,09:00,METAR,,330,8.0,,,9999.0,Cloud Development Not Observable,-6.0,-10.0,30.34,1029.2,,,,0,0,0,,,,,,,,,Clear,72000.0,,,73000.0,,,,,,
KRDR,04-10-2004,08:00,METAR,,340,13.0,,,9999.0,Cloud Development Not Observable,-5.0,-10.0,30.34,1029.1,,,,0,0,0,,,,,,,,,2/8 Mostly Clear,72000.0,,FEW,9900.0,,,,,,
KRDR,04-10-2004,07:00,METAR,,340,10.0,,,9999.0,Cloud Development Not Observable,-4.0,-9.0,30.34,1029.1,,,,0,0,0,,,,,,,,,2/8 Mostly Clear,72000.0,,FEW,8900.0,,,,,,
KRDR,04-10-2004,06:00,METAR,,340,10.0,,,9999.0,Cloud Development Not Observable,-3.0,-8.0,30.33,1028.7,,,,0,0,0,,,,,,,IN,,8/8 Overcast,9000.0,,OVC,8900.0,,,,,,
KRDR,04-10-2004,05:00,METAR,,340,11.0,,,9999.0,Cloud Development Not Observable,-2.0,-7.0,30.33,1028.7,,,,0,0,0,,,,,,,,,7/8 Mostly Cloudy,7000.0,,BKN,6900.0,BKN,11000.0,,,,
KRDR,04-10-2004,04:00,METAR,,340,8.0,,,9999.0,Cloud Development Not Observable,-2.0,-5.0,30.32,1028.5,,,,0,0,0,,,,,,,,,8/8 Overcast,6000.0,,OVC,5900.0,,,,,,
KRDR,04-10-2004,03:00,METAR,,340,7.0,,,9999.0,Cloud Development Not Observable,-3.0,-6.0,30.32,1028.4,,,,0,0,0,,,,,,TRACE,,,4/8 Partly Cloudy,72000.0,,SCT,5000.0,,,,,,
KRDR,04-10-2004,02:00,METAR,,340,9.0,,,9999.0,Cloud Development Not Observable,-2.0,-5.0,30.32,1028.4,,,,0,0,0,,,,,,,,,7/8 Mostly Cloudy,4900.0,,FEW,2000.0,BKN,5000.0,,,,
KRDR,04-10-2004,01:00,METAR,,340,12.0,,,9999.0,Cloud Development Not Observable,-2.0,-4.0,30.30,1027.3,,,,0,0,0,,,,,,,,,8/8 Overcast,4700.0,,FEW,2000.0,OVC,4800.0,,,,
KRDR,04-10-2004,00:18,SPECI,,350,15.0,,,9999.0,Light Snow/Cloud Development Not Observable,-1.0,-5.0,30.30,,,,,71,0,0,,,,,,,,,8/8 Overcast,4200.0,,FEW,2000.0,OVC,4300.0,,,,
KRDR,04-10-2004,00:07,SPECI,,340,14.0,,,9999.0,Light Snow/Cloud Development Not Observable,-1.0,-4.0,30.30,,,,,71,0,0,,,,,,,,,8/8 Overcast,2000.0,,BKN,2000.0,OVC,4800.0,,,,
KRDR,04-10-2004,00:01,SPECI,,360,15.0,,,9999.0,Cloud Development Not Observable,-1.0,-4.0,30.30,,,,,0,0,0,,,,,,,,,8/8 Overcast,2400.0,,FEW,1500.0,BKN,2400.0,OVC,4400.0,,
KRDR,04-10-2004,00:00,METAR,,330,15.0,,,9999.0,Light Snow/Cloud Development Not Observable,-1.0,-5.0,30.30,1027.7,,,,71,0,0,,,,,,,IN,,8/8 Overcast,2300.0,,FEW,1500.0,BKN,2300.0,OVC,3500.0,,
KRDR,04-09-2004,23:28,SPECI,,340,14.0,,,8000.0,Light Snow/Cloud Development Not Observable,-1.0,-5.0,30.29,,,,,71,0,0,,,,,,,,,8/8 Overcast,2200.0,,BKN,2200.0,OVC,4000.0,,,,
KRDR,04-09-2004,23:12,SPECI,,330,13.0,,,9999.0,Cloud Development Not Observable,-1.0,-5.0,30.29,,,,,0,0,0,,,,,,,,,8/8 Overcast,2200.0,,BKN,2200.0,OVC,4000.0,,,,
KRDR,04-09-2004,23:00,METAR,,340,16.0,,,9999.0,Light Snow/Cloud Development Not Observable,-1.0,-4.0,30.29,1027.3,,,,71,0,0,,,,,,,,,8/8 Overcast,2500.0,,BKN,2500.0,OVC,4000.0,,,,
KRDR,04-09-2004,22:00,METAR,,350,15.0,,,9999.0,Light Snow/Cloud Development Not Observable,0.0,-4.0,30.29,1027.3,,,,71,0,0,,,,,,,,,8/8 Overcast,2000.0,,OVC,2000.0,,,,,,
KRDR,04-09-2004,21:00,METAR,,360,15.0,,,9999.0,Light Snow/Cloud Development Not Observable,,,30.29,1026.9,,,,71,0,0,,,,,,TRACE,,,8/8 Overcast,2500.0,,OVC,2500.0,,,,,,
KRDR,04-09-2004,20:00,METAR,,330,14.0,,,9999.0,Light Snow/Cloud Development Not Observable,0.0,-4.0,30.28,1026.9,,,,71,0,0,,,,,,,,,7/8 Mostly Cloudy,2200.0,,BKN,2200.0,,,,,,
KRDR,04-09-2004,19:28,SPECI,,350,11.0,,,4800.0,Light Snow/Cloud Development Not Observable,-1.0,-3.0,30.28,,,,,71,0,0,,,,,,,,,8/8 Overcast,2100.0,,OVC,2100.0,,,,,,
KRDR,04-09-2004,19:00,METAR,,340,12.0,,,9999.0,Light Snow/Cloud Development Not Observable,-1.0,-4.0,30.28,1027.0,,,,71,0,0,,,,,,,,,7/8 Mostly Cloudy,2400.0,,BKN,2400.0,,,,,,
KRDR,04-09-2004,18:32,SPECI,,330,12.0,,,9999.0,Light Snow/Cloud Development Not Observable,1.0,-6.0,30.27,,,,,71,0,0,,,,,,,,,8/8 Overcast,2600.0,,OVC,2600.0,,,,,,
KRDR,04-09-2004,18:00,METAR,,340,13.0,17.0,,9999.0,Cloud Development Not Observable,0.0,-6.0,30.27,1026.5,,,,0,0,0,,,,,,,,,7/8 Mostly Cloudy,2700.0,,BKN,2700.0,,,,,,
KRDR,04-09-2004,17:00,METAR,,320,9.0,,,9999.0,Cloud Development Not Observable,0.0,-6.0,30.26,1026.4,,,,0,0,0,,,,,,,,,7/8 Mostly Cloudy,2300.0,,BKN,2300.0,,,,,,
KRDR,04-09-2004,16:00,METAR,,330,10.0,17.0,,9999.0,Cloud Development Not Observable,0.0,-6.0,30.26,1026.4,,,,0,0,0,,,,,,,,,7/8 Mostly Cloudy,2200.0,,BKN,2200.0,,,,,,
KRDR,04-09-2004,15:32,SPECI,,360,13.0,,,9999.0,Cloud Development Not Observable,0.0,-5.0,30.27,,,,,0,0,0,,,,,,,,,7/8 Mostly Cloudy,2000.0,,BKN,2000.0,,,,,,
KRDR,04-09-2004,15:00,METAR,,10,10.0,,,9999.0,Cloud Development Not Observable,0.0,-5.0,30.25,1026.2,,,,0,0,0,,,,,,,,,4/8 Partly Cloudy,72000.0,,SCT,2000.0,SCT,3500.0,,,,
KRDR,04-09-2004,14:30,METAR,,350,11.0,,,9999.0,Cloud Development Not Observable,-1.0,-5.0,30.25,,,,,0,0,0,,,,,,,,,7/8 Mostly Cloudy,4900.0,,SCT,2000.0,BKN,5000.0,,,,
KRDR,04-09-2004,14:00,METAR,,360,11.0,,,9999.0,Light Snow/Cloud Development Not Observable,-1.0,-4.0,30.25,1026.2,,,,71,0,0,,,,,,,,,8/8 Overcast,2000.0,,BKN,2000.0,OVC,5000.0,,,,
KRDR,04-09-2004,13:00,METAR,,350,8.0,,,9999.0,Light Snow/Cloud Development Not Observable,-2.0,-4.0,30.23,1025.5,,,,71,0,0,,,,,,,,,8/8 Overcast,2000.0,,OVC,2000.0,,,,,,
KRDR,04-09-2004,12:00,METAR,,10,8.0,,,9999.0,Light Snow/Cloud Development Not Observable,-2.0,-4.0,30.21,1024.7,,,,71,0,0,,,,,,,IN,,8/8 Overcast,2100.0,,OVC,2100.0,,,,,,
KRDR,04-09-2004,11:00,METAR,,360,7.0,,,9999.0,Light Snow/Cloud Development Not Observable,-2.0,-3.0,30.19,1024.0,,,,71,0,0,,,,,,,,,8/8 Overcast,2200.0,,OVC,2200.0,,,,,,
KRDR,04-09-2004,10:23,SPECI,,360,8.0,,,9999.0,Light Snow/Cloud Development Not Observable,-2.0,-3.0,30.19,,,,,71,0,0,,,,,,,,,8/8 Overcast,2200.0,,OVC,2200.0,,,,,,
KRDR,04-09-2004,10:00,METAR,,360,7.0,,,9999.0,Light Snow/Cloud Development Not Observable,-2.0,-3.0,30.19,1024.0,,,,71,0,0,,,,,,,,,8/8 Overcast,3100.0,,SCT,2500.0,OVC,3100.0,,,,
KRDR,04-09-2004,09:00,METAR,,360,8.0,,,9999.0,Light Snow/Cloud Development Not Observable,-1.0,-2.0,30.16,1022.9,,,,71,0,0,,,,,,TRACE,,,8/8 Overcast,3400.0,,OVC,3500.0,,,,,,
KRDR,04-09-2004,08:00,METAR,,340,9.0,,,9999.0,Light Snow/Cloud Development Not Observable,-1.0,-3.0,30.17,1023.2,,,,71,0,0,,,,,,,,,8/8 Overcast,3700.0,,OVC,3800.0,,,,,,
KRDR,04-09-2004,07:00,METAR,,350,11.0,,,9999.0,Light Snow/Cloud Development Not Observable,-1.0,-3.0,30.16,1022.9,,,,71,0,0,,,,,,,,,8/8 Overcast,3500.0,,OVC,3600.0,,,,,,
KRDR,04-09-2004,06:18,SPECI,,360,12.0,,,9999.0,Light Snow/Cloud Development Not Observable,0.0,-3.0,30.15,,,,,71,0,0,,,,,,,,,8/8 Overcast,3300.0,,BKN,3400.0,OVC,4500.0,,,,
KRDR,04-09-2004,06:00,METAR,,360,13.0,,,9999.0,Cloud Development Not Observable,0.0,-3.0,30.14,1022.2,,,,0,0,0,,,,,,,IN,,8/8 Overcast,3500.0,,BKN,3600.0,OVC,4500.0,,,,
KRDR,04-09-2004,05:25,METAR,,360,12.0,,,9999.0,Cloud Development Not Observable,0.0,-2.0,30.14,,,,,0,0,0,,,,,,,,,8/8 Overcast,3500.0,,BKN,3600.0,OVC,5000.0,,,,
KRDR,04-09-2004,05:00,METAR,,350,10.0,,,9999.0,Light Snow/Cloud Development Not Observable,0.0,-1.0,30.13,1021.9,,,,71,0,0,,,,,,,,,8/8 Overcast,3600.0,,BKN,3700.0,OVC,5000.0,,,,
KRDR,04-09-2004,04:14,SPECI,,350,7.0,,,9999.0,Light Snow/Cloud Development Not Observable,-1.0,-2.0,30.12,,,,,71,0,0,,,,,,,,,8/8 Overcast,3500.0,,BKN,3600.0,OVC,5500.0,,,,
KRDR,04-09-2004,04:00,METAR,,350,6.0,,,9999.0,Cloud Development Not Observable,-2.0,-3.0,30.12,1021.6,,,,0,0,0,,,,,,,,,7/8 Mostly Cloudy,3400.0,,BKN,3500.0,,,,,,
KRDR,04-09-2004,03:00,METAR,,,5.0,,,9999.0,Cloud Development Not Observable,0.0,-3.0,30.10,1020.9,,,,0,0,0,,,,,,,,,7/8 Mostly Cloudy,8000.0,,FEW,3000.0,BKN,7900.0,,,,
KRDR,04-09-2004,02:00,METAR,,,6.0,,,9999.0,Cloud Development Not Observable,2.0,-2.0,30.09,1020.5,,,,0,0,0,,,,,,,,,7/8 Mostly Cloudy,8000.0,,SCT,3000.0,BKN,7900.0,,,,
KRDR,04-09-2004,01:00,METAR,,30,7.0,,,9999.0,Cloud Development Not Observable,2.0,-2.0,30.08,1020.0,,,,0,0,0,,,,,,,,,7/8 Mostly Cloudy,8000.0,,SCT,3000.0,BKN,7900.0,,,,
KRDR,04-09-2004,00:00,METAR,,50,10.0,,,9999.0,Cloud Development Not Observable,4.0,-2.0,30.08,1020.2,,,,0,0,0,,,,,,,,,4/8 Partly Cloudy,72000.0,,FEW,3500.0,SCT,7900.0,,,,
KRDR,04-08-2004,23:00,METAR,,10,12.0,,,9999.0,Cloud Development Not Observable,5.0,-2.0,30.08,1020.2,,,,0,0,0,,,,,,,,,7/8 Mostly Cloudy,3400.0,,BKN,3500.0,BKN,7900.0,,,,
KRDR,04-08-2004,22:00,METAR,,30,12.0,,,9999.0,Cloud Development Not Observable,5.0,-2.0,30.08,1020.0,,,,0,0,0,,,,,,,,,7/8 Mostly Cloudy,3400.0,,BKN,3500.0,,,,,,
KRDR,04-08-2004,21:00,METAR,,10,4.0,,,9999.0,Cloud Development Not Observable,5.0,-2.0,30.06,1019.6,,,,0,0,0,,,,,,,,,7/8 Mostly Cloudy,3800.0,,BKN,3900.0,,,,,,
KRDR,04-08-2004,20:00,METAR,,10,12.0,,,9999.0,Cloud Development Not Observable,5.0,-3.0,30.08,1020.2,,,,0,0,0,,,,,,,,,7/8 Mostly Cloudy,3300.0,,BKN,3400.0,,,,,,
KRDR,04-08-2004,19:00,METAR,,360,12.0,,,9999.0,Cloud Development Not Observable,5.0,-3.0,30.09,1020.3,,,,0,0,0,,,,,,,,,7/8 Mostly Cloudy,3200.0,,BKN,3300.0,,,,,,
KRDR,04-08-2004,18:00,METAR,,330,13.0,,,9999.0,Cloud Development Not Observable,5.0,-3.0,30.08,1020.1,,,,0,0,0,,,,,,,,,4/8 Partly Cloudy,72000.0,,SCT,3100.0,,,,,,
KRDR,04-08-2004,17:00,METAR,,320,10.0,17.0,,9999.0,Cloud Development Not Observable,3.0,-4.0,30.10,1020.7,,,,0,0,0,,,,,,,,,4/8 Partly Cloudy,72000.0,,SCT,3100.0,,,,,,
KRDR,04-08-2004,16:00,METAR,,350,12.0,,,9999.0,Cloud Development Not Observable,2.0,-4.0,30.10,1020.9,,,,0,0,0,,,,,,,,,4/8 Partly Cloudy,72000.0,,FEW,2500.0,SCT,4000.0,,,,
KRDR,04-08-2004,15:00,METAR,,350,13.0,,,9999.0,Cloud Development Not Observable,2.0,-3.0,30.10,1020.8,,,,0,0,0,,,,,,,,,2/8 Mostly Clear,72000.0,,FEW,4000.0,FEW,25000.0,,,,
KRDR,04-08-2004,14:00,METAR,,320,9.0,,,9999.0,Cloud Development Not Observable,0.0,-2.0,30.10,1020.8,,,,0,0,0,,,,,,,,,2/8 Mostly Clear,72000.0,,FEW,12000.0,FEW,25000.0,,,,
KRDR,04-08-2004,13:00,METAR,,310,7.0,,,9999.0,Cloud Development Not Observable,-2.0,-2.0,30.10,1020.6,,,,0,0,0,,,,,,,,,2/8 Mostly Clear,72000.0,,FEW,12000.0,FEW,25000.0,,,,
KRDR,04-08-2004,12:00,METAR,,310,6.0,,,9999.0,Cloud Development Not Observable,-4.0,-4.0,30.08,1020.1,,,,0,0,0,,,,,,,,.13 IN,2/8 Mostly Clear,72000.0,,FEW,12000.0,FEW,25000.0,,,,
KRDR,04-08-2004,11:00,METAR,,320,7.0,,,9999.0,Cloud Development Not Observable,-4.0,-4.0,30.06,1019.4,,,,0,0,0,,,,,,,,,2/8 Mostly Clear,72000.0,,FEW,12000.0,,,,,,
KRDR,04-08-2004,10:00,METAR,,330,5.0,,,9999.0,Cloud Development Not Observable,-4.0,-4.0,30.05,1019.1,,,,0,0,0,,,,,,,,,Clear,72000.0,,,73000.0,,,,,,
KRDR,04-08-2004,09:00,METAR,,320,5.0,,,9999.0,Cloud Development Not Observable,-4.0,-4.0,30.06,1019.5,,,,0,0,0,,,,,,,,,Clear,72000.0,,,73000.0,,,,,,
KRDR,04-08-2004,08:00,METAR,,340,6.0,,,9999.0,Cloud Development Not Observable,-3.0,-3.0,30.05,1019.1,,,,0,0,0,,,,,,,,,Clear,72000.0,,,73000.0,,,,,,
KRDR,04-08-2004,07:00,METAR,,330,8.0,,,9999.0,Cloud Development Not Observable,-2.0,-2.0,30.05,1019.0,,,,0,0,0,,,,,,,,,Clear,72000.0,,,73000.0,,,,,,
KRDR,04-08-2004,06:00,METAR,,340,9.0,,,9999.0,Cloud Development Not Observable,-1.0,-2.0,30.04,1018.7,,,,0,0,0,,,,,,,,,Clear,72000.0,,,73000.0,,,,,,
KRDR,04-08-2004,05:00,METAR,,350,12.0,,,9999.0,Cloud Development Not Observable,0.0,-2.0,30.02,1017.9,,,,0,0,0,,,,,,,,,Clear,72000.0,,,73000.0,,,,,,
KRDR,04-08-2004,04:00,METAR,,340,14.0,,,9999.0,Cloud Development Not Observable,1.0,-2.0,30.02,1017.8,,,,0,0,0,,,,,,,,,Clear,72000.0,,,73000.0,,,,,,
KRDR,04-08-2004,02:00,METAR,,340,17.0,,,9999.0,Cloud Development Not Observable,4.0,1.0,29.98,1016.4,,,,0,0,0,,,,,,,,,2/8 Mostly Clear,72000.0,,FEW,2500.0,,,,,,
KRDR,04-08-2004,01:00,METAR,,340,18.0,,350/27KTS,9999.0,Cloud Development Not Observable,6.0,1.0,29.96,1015.6,,,,0,0,0,,,,,,,,,2/8 Mostly Clear,72000.0,,FEW,1500.0,,,,,,
KRDR,04-08-2004,00:00,METAR,,350,22.0,32.0,,9999.0,Cloud Development Not Observable,8.0,0.0,29.94,1014.8,,,,0,0,0,,,,,,,.05 IN,,4/8 Partly Cloudy,72000.0,,FEW,1500.0,SCT,3000.0,,,,
KRDR,04-07-2004,23:00,METAR,,340,23.0,27.0,340/28KTS,9999.0,Cloud Development Not Observable,8.0,3.0,29.94,1014.8,,,,0,0,0,,,,,,,,,4/8 Partly Cloudy,72000.0,,FEW,1200.0,SCT,3000.0,SCT,6900.0,,
KRDR,04-07-2004,22:00,METAR,,340,20.0,28.0,350/29KTS,9999.0,Cloud Development Not Observable,6.0,5.0,29.93,1014.5,,,,0,0,0,,,,,,,,,7/8 Mostly Cloudy,2500.0,,FEW,1000.0,SCT,2500.0,BKN,5000.0,,
KRDR,04-07-2004,21:25,METAR,,340,22.0,28.0,,9999.0,Cloud Development Not Observable,5.0,5.0,29.92,,,,,0,0,0,,,,,,,,,7/8 Mostly Cloudy,2500.0,,SCT,1100.0,BKN,2500.0,BKN,5000.0,,
KRDR,04-07-2004,21:17,SPECI,,350,21.0,27.0,,9999.0,Rain/Cloud Development Not Observable,5.0,5.0,29.92,,,,,61,0,0,,,,,,,,,7/8 Mostly Cloudy,2500.0,,SCT,1100.0,BKN,2500.0,BKN,5000.0,,
KRDR,04-07-2004,21:00,METAR,,350,23.0,34.0,340/40KTS,9999.0,Ice Pellets/Rain/Cloud Development Not Observable,3.0,3.0,29.92,1014.4,,,,61,79,0,,,,,,.05 IN,,,8/8 Overcast,1000.0,,OVC,1000.0,,,,,,
KRDR,04-07-2004,20:42,SPECI,,340,24.0,34.0,,9999.0,Ice Pellets/Rain/Cloud Development Not Observable,3.0,3.0,29.91,,,,,61,79,0,,,,,,,,,8/8 Overcast,1100.0,,OVC,1100.0,,,,,,
KRDR,04-07-2004,20:00,METAR,,340,32.0,39.0,,9999.0,Rain/Cloud Development Not Observable,5.0,4.0,29.87,1012.6,,,,61,0,0,,,,,,,,,8/8 Overcast,1100.0,,OVC,1100.0,,,,,,
KRDR,04-07-2004,19:33,SPECI,,340,24.0,37.0,,9999.0,Rain/Cloud Development Not Observable,4.0,4.0,29.86,,,,,61,0,0,,,,,,,,,8/8 Overcast,1100.0,,OVC,1100.0,,,,,,
KRDR,04-07-2004,19:00,METAR,,340,28.0,36.0,,9999.0,Cloud Development Not Observable,5.0,5.0,29.84,1011.4,,,,0,0,0,,,,,,,,,8/8 Overcast,1000.0,,OVC,1000.0,,,,,,
KRDR,04-07-2004,18:39,SPECI,,340,30.0,36.0,,9999.0,Cloud Development Not Observable,5.0,5.0,29.83,,,,,0,0,0,,,,,,,,,8/8 Overcast,1000.0,,BKN,1000.0,OVC,2500.0,,,,
KRDR,04-07-2004,18:00,METAR,,350,23.0,31.0,,9999.0,Rain/Cloud Development Not Observable,6.0,6.0,29.80,1008.6,,,,61,0,0,,,,,,,.08 IN,,8/8 Overcast,1000.0,,BKN,1000.0,BKN,2500.0,OVC,5900.0,,
KRDR,04-07-2004,17:00,METAR,,350,21.0,27.0,350/29KTS,9999.0,Rain/Cloud Development Not Observable,7.0,7.0,29.76,1008.6,,,,61,0,0,,,,,,,,,8/8 Overcast,1000.0,,BKN,1000.0,OVC,2800.0,,,,
KRDR,04-07-2004,16:11,SPECI,,350,17.0,24.0,,9999.0,Rain/Cloud Development Not Observable,8.0,8.0,29.74,,,,,61,0,0,,,,,,,,,8/8 Overcast,1000.0,,BKN,1000.0,OVC,5000.0,,,,
KRDR,04-07-2004,16:00,METAR,,350,15.0,,,9999.0,Cloud Development Not Observable,8.0,8.0,29.72,1007.3,,,,0,0,0,,,,,,,,,8/8 Overcast,1000.0,,BKN,1000.0,OVC,5000.0,,,,
KRDR,04-07-2004,15:29,SPECI,,350,15.0,,,9999.0,Cloud Development Not Observable,9.0,8.0,29.71,,,,,0,0,0,,,,,,,,,7/8 Mostly Cloudy,1000.0,,BKN,1000.0,BKN,5000.0,BKN,9900.0,,
KRDR,04-07-2004,15:00,METAR,,340,14.0,,,9999.0,Cloud Development Not Observable,8.0,8.0,29.71,1007.0,,,,0,0,0,,,,,,.07 IN,,,7/8 Mostly Cloudy,3400.0,,FEW,2000.0,SCT,3500.0,BKN,11000.0,BKN,25000.0
KRDR,04-07-2004,14:00,METAR,,90,4.0,,,9999.0,Cloud Development Not Observable,7.0,7.0,29.69,1006.2,,,,0,0,0,,,,,,,,,7/8 Mostly Cloudy,9000.0,,SCT,3500.0,BKN,8900.0,BKN,25000.0,,
KRDR,04-07-2004,13:26,SPECI,,100,6.0,,,9999.0,Cloud Development Not Observable,7.0,7.0,29.68,,,,,0,0,0,,,,,,,,,7/8 Mostly Cloudy,4900.0,,FEW,3000.0,SCT,5000.0,BKN,12000.0,BKN,25000.0
KRDR,04-07-2004,13:00,METAR,,90,10.0,,,9999.0,Light Rain Showers/Cloud Development Not Observable,7.0,7.0,29.73,1007.4,,,,80,0,0,,,,,,,,,7/8 Mostly Cloudy,7000.0,,SCT,3500.0,BKN,6900.0,BKN,12000.0,,
KRDR,04-07-2004,12:01,SPECI,,60,9.0,,,9999.0,Light Rain Showers/Cloud Development Not Observable,7.0,7.0,29.76,,,,,80,0,0,,,,,,,,,8/8 Overcast,3400.0,,BKN,3500.0,BKN,5900.0,OVC,12000.0,,
KRDR,04-07-2004,12:00,METAR,,70,9.0,,,9999.0,Cloud Development Not Observable,7.0,7.0,29.75,1008.0,,,,0,0,0,,,,,,,.01 IN,,8/8 Overcast,6000.0,,SCT,3500.0,BKN,5900.0,OVC,12000.0,,
KRDR,04-07-2004,11:37,SPECI,,100,16.0,,,9999.0,Cloud Development Not Observable,8.0,7.0,29.76,,,,,0,0,0,,,,,,,,,8/8 Overcast,6000.0,,SCT,4500.0,BKN,5900.0,OVC,8400.0,,
KRDR,04-07-2004,11:00,METAR,,100,16.0,21.0,,9999.0,Drizzle/Cloud Development Not Observable,8.0,7.0,29.75,1008.0,,,,51,0,0,,,,,,,,,7/8 Mostly Cloudy,6000.0,,BKN,5900.0,BKN,8400.0,,,,
KRDR,04-07-2004,10:16,SPECI,,90,14.0,,,9999.0,Drizzle/Cloud Development Not Observable,8.0,7.0,29.78,,,,,51,0,0,,,,,,,,,8/8 Overcast,6000.0,,FEW,3500.0,BKN,5900.0,OVC,7400.0,,
KRDR,04-07-2004,09:34,SPECI,,60,13.0,,,9999.0,Cloud Development Not Observable,8.0,7.0,29.79,,,,,0,0,0,,,,,,,,,8/8 Overcast,3400.0,,BKN,3500.0,OVC,7400.0,,,,
KRDR,04-07-2004,09:00,METAR,,320,8.0,,,9999.0,Rain/Cloud Development Not Observable,8.0,6.0,29.82,1010.3,,,,61,0,0,,,,,,.01 IN,,,8/8 Overcast,4400.0,,BKN,4500.0,OVC,7400.0,,,,
KRDR,04-07-2004,08:00,METAR,,60,6.0,,,9999.0,Rain/Cloud Development Not Observable,10.0,4.0,29.82,1010.3,,,,61,0,0,,,,,,,,,8/8 Overcast,4400.0,,FEW,1500.0,BKN,4500.0,OVC,7400.0,,
KRDR,04-07-2004,07:18,SPECI,,200,4.0,,,9999.0,Rain/Cloud Development Not Observable,10.0,4.0,29.84,,,,,61,0,0,,,,,,,,,8/8 Overcast,4900.0,,SCT,5000.0,BKN,8900.0,OVC,8900.0,,
KRDR,04-07-2004,07:00,METAR,,,2.0,,,9999.0,Cloud Development Not Observable,11.0,3.0,29.85,1011.4,,,,0,0,0,,,,,,,,,8/8 Overcast,5500.0,,SCT,3500.0,BKN,5400.0,OVC,8900.0,,
KRDR,04-07-2004,06:00,METAR,,,3.0,,,9999.0,Cloud Development Not Observable,11.0,4.0,29.85,1011.4,,,,0,0,0,,,,,,,,,8/8 Overcast,8000.0,,SCT,5400.0,BKN,7900.0,OVC,11000.0,,
KRDR,04-07-2004,05:00,METAR,,,3.0,,,9999.0,Cloud Development Not Observable,11.0,5.0,29.87,1012.2,,,,0,0,0,,,,,,,,,8/8 Overcast,9000.0,,SCT,5400.0,BKN,8900.0,OVC,12000.0,,
KRDR,04-07-2004,04:00,METAR,,140,6.0,,,9999.0,Cloud Development Not Observable,11.0,6.0,29.86,1011.9,,,,0,0,0,,,,,,,,,8/8 Overcast,9500.0,,SCT,6400.0,BKN,9400.0,OVC,15000.0,,
KRDR,04-07-2004,03:00,METAR,,110,4.0,,,9999.0,Cloud Development Not Observable,11.0,6.0,29.86,1012.0,,,,0,0,0,,,,,,,,,8/8 Overcast,10000.0,,SCT,6400.0,BKN,9900.0,OVC,15000.0,,
KRDR,04-07-2004,02:00,METAR,,130,7.0,,,9999.0,Cloud Development Not Observable,13.0,6.0,29.87,1012.4,,,,0,0,0,,,,,,,,,8/8 Overcast,12000.0,,SCT,7900.0,BKN,12000.0,OVC,18000.0,,
KRDR,04-07-2004,01:00,METAR,,110,3.0,,,9999.0,Cloud Development Not Observable,14.0,4.0,29.87,1012.5,,,,0,0,0,,,,,,,,,7/8 Mostly Cloudy,15000.0,,SCT,7900.0,SCT,15000.0,BKN,25000.0,,
KRDR,04-07-2004,00:00,METAR,,150,4.0,,,9999.0,Cloud Development Not Observable,17.0,3.0,29.88,1012.8,,,,0,0,0,,,,,,,,,7/8 Mostly Cloudy,25000.0,,FEW,9900.0,BKN,25000.0,,,,
KRDR,04-06-2004,23:00,METAR,,,4.0,,,9999.0,Cloud Development Not Observable,19.0,-1.0,29.89,1012.9,,,,0,0,0,,,,,,,,,4/8 Partly Cloudy,72000.0,,FEW,9900.0,SCT,25000.0,,,,
KRDR,04-06-2004,22:00,METAR,,,5.0,,,9999.0,Cloud Development Not Observable,19.0,-2.0,29.91,1013.6,,,,0,0,0,,,,,,,,,4/8 Partly Cloudy,72000.0,,FEW,9900.0,SCT,25000.0,,,,
KRDR,04-06-2004,21:00,METAR,,240,7.0,,,9999.0,Cloud Development Not Observable,20.0,-1.0,29.91,1013.7,,,,0,0,0,,,,,,,,,7/8 Mostly Cloudy,25000.0,,BKN,25000.0,,,,,,
KRDR,04-06-2004,20:00,METAR,,,4.0,,,9999.0,Cloud Development Not Observable,18.0,-1.0,29.94,1014.6,,,,0,0,0,,,,,,,,,7/8 Mostly Cloudy,25000.0,,BKN,25000.0,,,,,,
KRDR,04-06-2004,19:00,METAR,,,3.0,,,9999.0,Cloud Development Not Observable,17.0,0.0,29.95,1015.2,,,,0,0,0,,,,,,,,,7/8 Mostly Cloudy,25000.0,,BKN,25000.0,,,,,,
KRDR,04-06-2004,18:00,METAR,,360,7.0,,,9999.0,Cloud Development Not Observable,17.0,-2.0,29.97,1015.7,,,,0,0,0,,,,,,,,,7/8 Mostly Cloudy,25000.0,,BKN,25000.0,,,,,,
KRDR,04-06-2004,17:00,METAR,,360,5.0,,,9999.0,Cloud Development Not Observable,14.0,2.0,29.99,1016.4,,,,0,0,0,,,,,,,,,7/8 Mostly Cloudy,25000.0,,BKN,25000.0,,,,,,
KRDR,04-06-2004,16:00,METAR,,330,7.0,,,9999.0,Cloud Development Not Observable,13.0,2.0,29.98,1016.3,,,,0,0,0,,,,,,,,,7/8 Mostly Cloudy,25000.0,,BKN,25000.0,,,,,,
KRDR,04-06-2004,15:00,METAR,,310,8.0,,,9999.0,Cloud Development Not Observable,9.0,2.0,29.99,1016.5,,,,0,0,0,,,,,,,,,4/8 Partly Cloudy,72000.0,,SCT,25000.0,,,,,,
KRDR,04-06-2004,14:00,METAR,,310,4.0,,,9999.0,Cloud Development Not Observable,6.0,2.0,29.98,1016.4,,,,0,0,0,,,,,,,,,2/8 Mostly Clear,72000.0,,FEW,25000.0,,,,,,
KRDR,04-06-2004,13:00,METAR,,280,5.0,,,9999.0,Cloud Development Not Observable,3.0,1.0,29.97,1015.8,,,,0,0,0,,,,,,,,,Clear,72000.0,,,73000.0,,,,,,
KRDR,04-06-2004,12:00,METAR,,270,9.0,,,9999.0,Cloud Development Not Observable,2.0,0.0,29.95,1015.3,,,,0,0,0,,,,,,,,,Clear,72000.0,,,73000.0,,,,,,
KRDR,04-06-2004,11:00,METAR,,280,6.0,,,9999.0,Cloud Development Not Observable,2.0,0.0,29.93,1014.5,,,,0,0,0,,,,,,,,,Clear,72000.0,,,73000.0,,,,,,
KRDR,04-06-2004,10:00,METAR,,250,6.0,,,9999.0,Cloud Development Not Observable,1.0,0.0,29.93,1014.5,,,,0,0,0,,,,,,,,,Clear,72000.0,,,73000.0,,,,,,
KRDR,04-06-2004,09:00,METAR,,280,9.0,,,9999.0,Cloud Development Not Observable,3.0,0.0,29.92,1013.9,,,,0,0,0,,,,,,,,,Clear,72000.0,,,73000.0,,,,,,
KRDR,04-06-2004,08:00,METAR,,270,6.0,,,9999.0,Cloud Development Not Observable,2.0,0.0,29.91,1013.6,,,,0,0,0,,,,,,,,,Clear,72000.0,,,73000.0,,,,,,
KRDR,04-06-2004,07:00,METAR,,260,4.0,,,9999.0,Cloud Development Not Observable,2.0,0.0,29.91,1013.6,,,,0,0,0,,,,,,,,,Clear,72000.0,,,73000.0,,,,,,
KRDR,04-06-2004,06:00,METAR,,280,6.0,,,9999.0,Cloud Development Not Observable,3.0,1.0,29.90,1013.3,,,,0,0,0,,,,,,,,,Clear,72000.0,,,73000.0,,,,,,
KRDR,04-06-2004,05:00,METAR,,300,6.0,,,9999.0,Cloud Development Not Observable,5.0,3.0,29.89,1013.0,,,,0,0,0,,,,,,,,,Clear,72000.0,,,73000.0,,,,,,
KRDR,04-06-2004,04:00,METAR,,310,6.0,,,9999.0,Cloud Development Not Observable,5.0,3.0,29.88,1012.9,,,,0,0,0,,,,,,,,,Clear,72000.0,,,73000.0,,,,,,
KRDR,04-06-2004,03:00,METAR,,340,6.0,,,9999.0,Cloud Development Not Observable,7.0,3.0,29.87,1012.6,,,,0,0,0,,,,,,,,,2/8 Mostly Clear,72000.0,,FEW,4000.0,,,,,,
KRDR,04-06-2004,02:00,METAR,,350,4.0,,,9999.0,Cloud Development Not Observable,8.0,5.0,29.85,1011.8,,,,0,0,0,,,,,,,,,2/8 Mostly Clear,72000.0,,FEW,4000.0,,,,,,
KRDR,04-06-2004,01:00,METAR,,10,8.0,,,9999.0,Cloud Development Not Observable,13.0,7.0,29.82,1010.9,,,,0,0,0,,,,,,,,,2/8 Mostly Clear,72000.0,,FEW,4000.0,FEW,25000.0,,,,
KRDR,04-06-2004,00:00,METAR,,350,14.0,,,9999.0,Cloud Development Not Observable,15.0,7.0,29.80,1010.1,,,,0,0,0,,,,,,,,,2/8 Mostly Clear,72000.0,,FEW,4000.0,FEW,25000.0,,,,
KRDR,04-05-2004,23:00,METAR,,350,18.0,,,9999.0,Cloud Development Not Observable,17.0,9.0,29.78,1009.2,,,,0,0,0,,,,,,,,,4/8 Partly Cloudy,72000.0,,SCT,4000.0,,,,,,
KRDR,04-05-2004,22:00,METAR,,360,16.0,21.0,,9999.0,Cloud Development Not Observable,18.0,9.0,29.75,1008.1,,,,0,0,0,,,,,,,,,Clear,72000.0,,,73000.0,,,,,,
KRDR,04-05-2004,21:00,METAR,,340,18.0,,,9999.0,Cloud Development Not Observable,18.0,8.0,29.73,1007.4,,,,0,0,0,,,,,,,,,Clear,72000.0,,,73000.0,,,,,,
KRDR,04-05-2004,19:00,METAR,,290,15.0,,,9999.0,Cloud Development Not Observable,17.0,8.0,29.71,1006.7,,,,0,0,0,,,,,,,,,2/8 Mostly Clear,72000.0,,FEW,25000.0,,,,,,
KRDR,04-05-2004,18:00,METAR,,280,8.0,,,9999.0,Cloud Development Not Observable,16.0,6.0,29.71,1006.7,,,,0,0,0,,,,,,,,,2/8 Mostly Clear,72000.0,,FEW,25000.0,,,,,,
KRDR,04-05-2004,17:00,METAR,,200,11.0,,,9999.0,Cloud Development Not Observable,12.0,3.0,29.71,1006.8,,,,0,0,0,,,,,,,,,2/8 Mostly Clear,72000.0,,FEW,25000.0,,,,,,
KRDR,04-05-2004,16:00,METAR,,200,13.0,,,9999.0,Cloud Development Not Observable,9.0,2.0,29.72,1007.3,,,,0,0,0,,,,,,,,,4/8 Partly Cloudy,72000.0,,FEW,9900.0,SCT,25000.0,,,,
KRDR,04-05-2004,14:00,METAR,,190,17.0,,170/25KTS,9999.0,Cloud Development Not Observable,6.0,-2.0,29.74,1008.2,,,,0,0,0,,,,,,,,,7/8 Mostly Cloudy,10000.0,,BKN,9900.0,BKN,25000.0,,,,
KRDR,04-05-2004,13:00,METAR,,180,13.0,,,9999.0,Cloud Development Not Observable,4.0,-2.0,29.75,1008.5,,,,0,0,0,,,,,,,,,4/8 Partly Cloudy,72000.0,,SCT,9900.0,SCT,25000.0,,,,
KRDR,04-05-2004,12:00,METAR,,180,15.0,,,9999.0,Cloud Development Not Observable,4.0,-3.0,29.76,1008.8,,,,0,0,0,,,,,,,,,4/8 Partly Cloudy,72000.0,,SCT,25000.0,,,,,,
KRDR,04-05-2004,11:00,METAR,,170,15.0,,,9999.0,Cloud Development Not Observable,3.0,-2.0,29.78,1009.4,,,,0,0,0,,,,,,,,,4/8 Partly Cloudy,72000.0,,FEW,8900.0,SCT,25000.0,,,,
KRDR,04-05-2004,10:00,METAR,,150,13.0,,,9999.0,Cloud Development Not Observable,4.0,-2.0,29.79,1009.7,,,,0,0,0,,,,,,,,,4/8 Partly Cloudy,72000.0,,FEW,8900.0,SCT,25000.0,,,,
KRDR,04-05-2004,09:00,METAR,,160,14.0,,,9999.0,Cloud Development Not Observable,4.0,-2.0,29.81,1010.4,,,,0,0,0,,,,,,,,,7/8 Mostly Cloudy,9000.0,,BKN,8900.0,,,,,,
KRDR,04-05-2004,08:00,METAR,,150,12.0,,,9999.0,Cloud Development Not Observable,4.0,-2.0,29.84,1011.5,,,,0,0,0,,,,,,,,,4/8 Partly Cloudy,72000.0,,SCT,7900.0,SCT,25000.0,,,,
KRDR,04-05-2004,07:00,METAR,,160,12.0,,,9999.0,Cloud Development Not Observable,4.0,-2.0,29.87,1012.6,,,,0,0,0,,,,,,,,,2/8 Mostly Clear,72000.0,,FEW,25000.0,,,,,,
KRDR,04-05-2004,06:00,METAR,,160,12.0,,,9999.0,Cloud Development Not Observable,5.0,-3.0,29.88,1012.9,,,,0,0,0,,,,,,,,,4/8 Partly Cloudy,72000.0,,SCT,25000.0,,,,,,
KRDR,04-05-2004,05:00,METAR,,150,14.0,,,9999.0,Cloud Development Not Observable,6.0,-2.0,29.90,1013.5,,,,0,0,0,,,,,,,,,2/8 Mostly Clear,72000.0,,FEW,25000.0,,,,,,
KRDR,04-05-2004,04:00,METAR,,150,10.0,,,9999.0,Cloud Development Not Observable,5.0,-1.0,29.91,1013.9,,,,0,0,0,,,,,,,,,Clear,72000.0,,,73000.0,,,,,,
KRDR,04-05-2004,03:00,METAR,,150,10.0,,,9999.0,Cloud Development Not Observable,6.0,-1.0,29.93,1014.6,,,,0,0,0,,,,,,,,,2/8 Mostly Clear,72000.0,,FEW,25000.0,,,,,,
KRDR,04-05-2004,02:00,METAR,,140,12.0,,,9999.0,Cloud Development Not Observable,7.0,1.0,29.95,1015.4,,,,0,0,0,,,,,,,,,2/8 Mostly Clear,72000.0,,FEW,25000.0,,,,,,
KRDR,04-05-2004,01:00,METAR,,140,8.0,,,9999.0,Cloud Development Not Observable,10.0,0.0,29.96,1015.8,,,,0,0,0,,,,,,,,,2/8 Mostly Clear,72000.0,,FEW,25000.0,,,,,,
KRDR,04-05-2004,00:00,METAR,,160,12.0,,,9999.0,Cloud Development Not Observable,12.0,-1.0,29.98,1016.4,,,,0,0,0,,,,,,,,,2/8 Mostly Clear,72000.0,,FEW,25000.0,,,,,,
KRDR,04-04-2004,22:00,METAR,,190,14.0,,,9999.0,Cloud Development Not Observable,12.0,-2.0,30.02,1018.0,,,,0,0,0,,,,,,,,,2/8 Mostly Clear,72000.0,,FEW,25000.0,,,,,,
KRDR,04-04-2004,21:00,METAR,,180,15.0,,,9999.0,Cloud Development Not Observable,12.0,-2.0,30.05,1019.1,,,,0,0,0,,,,,,,,,2/8 Mostly Clear,72000.0,,FEW,25000.0,,,,,,
KRDR,04-04-2004,20:00,METAR,,150,15.0,,,9999.0,Cloud Development Not Observable,11.0,-2.0,30.09,1020.2,,,,0,0,0,,,,,,,,,Clear,72000.0,,,73000.0,,,,,,
KRDR,04-04-2004,19:00,METAR,,150,15.0,21.0,,9999.0,Cloud Development Not Observable,10.0,-2.0,30.12,1021.3,,,,0,0,0,,,,,,,,,Clear,72000.0,,,73000.0,,,,,,
KRDR,04-04-2004,18:00,METAR,,170,13.0,,,9999.0,Cloud Development Not Observable,9.0,-2.0,30.15,1022.5,,,,0,0,0,,,,,,,,,Clear,72000.0,,,73000.0,,,,,,
KRDR,04-04-2004,17:00,METAR,,180,11.0,,,9999.0,Cloud Development Not Observable,6.0,-4.0,30.18,1023.4,,,,0,0,0,,,,,,,,,Clear,72000.0,,,73000.0,,,,,,
KRDR,04-04-2004,16:00,METAR,,200,12.0,,,9999.0,Cloud Development Not Observable,5.0,-3.0,30.20,1024.2,,,,0,0,0,,,,,,,,,Clear,72000.0,,,73000.0,,,,,,
KRDR,04-04-2004,14:00,METAR,,180,8.0,,,9999.0,Cloud Development Not Observable,1.0,0.0,30.23,1025.2,,,,0,0,0,,,,,,,,,Clear,72000.0,,,73000.0,,,,,,
KRDR,04-04-2004,13:00,METAR,,200,3.0,,,9999.0,Cloud Development Not Observable,-4.0,-4.0,30.24,1025.8,,,,0,0,0,,,,,,,,,Clear,72000.0,,,73000.0,,,,,,
KRDR,04-04-2004,12:00,METAR,,190,3.0,,,9999.0,Mist/Cloud Development Not Observable,-4.0,-4.0,30.24,1025.8,,,,10,0,0,,,,,,,,,2/8 Mostly Clear,72000.0,,FEW,25000.0,,,,,,
KRDR,04-04-2004,11:00,METAR,,,4.0,,,9999.0,Cloud Development Not Observable,-6.0,-6.0,30.25,1026.2,,,,0,0,0,,,,,,,,,2/8 Mostly Clear,72000.0,,FEW,25000.0,,,,,,
KRDR,04-04-2004,10:00,METAR,,,3.0,,,9999.0,Cloud Development Not Observable,-3.0,-3.0,30.26,1026.3,,,,0,0,0,,,,,,,,,Clear,72000.0,,,73000.0,,,,,,
KRDR,04-04-2004,09:00,METAR,,190,4.0,,,9999.0,Cloud Development Not Observable,-4.0,-4.0,30.28,1026.8,,,,0,0,0,,,,,,,,,Clear,72000.0,,,73000.0,,,,,,
KRDR,04-04-2004,08:00,METAR,,,3.0,,,9999.0,Cloud Development Not Observable,-4.0,-4.0,30.29,1027.2,,,,0,0,0,,,,,,,,,Clear,72000.0,,,73000.0,,,,,,
KRDR,04-04-2004,07:00,METAR,,250,4.0,,,9999.0,Cloud Development Not Observable,-5.0,-5.0,30.30,1027.5,,,,0,0,0,,,,,,,,,Clear,72000.0,,,73000.0,,,,,,
KRDR,04-04-2004,06:00,METAR,,280,3.0,,,9999.0,Cloud Development Not Observable,-4.0,-4.0,30.31,1027.9,,,,0,0,0,,,,,,,,,Clear,72000.0,,,73000.0,,,,,,
KRDR,04-04-2004,05:00,METAR,,30,5.0,,,9999.0,Cloud Development Not Observable,-1.0,-3.0,30.32,1028.1,,,,0,0,0,,,,,,,,,Clear,72000.0,,,73000.0,,,,,,
KRDR,04-04-2004,04:00,METAR,,20,5.0,,,9999.0,Cloud Development Not Observable,-2.0,-4.0,30.34,1028.9,,,,0,0,0,,,,,,,,,Clear,72000.0,,,73000.0,,,,,,
KRDR,04-04-2004,03:00,METAR,,360,6.0,,,9999.0,Cloud Development Not Observable,-2.0,-4.0,30.34,1028.9,,,,0,0,0,,,,,,,,,2/8 Mostly Clear,72000.0,,FEW,25000.0,,,,,,
KRDR,04-04-2004,02:00,METAR,,20,8.0,,,9999.0,Cloud Development Not Observable,2.0,-3.0,30.35,1029.1,,,,0,0,0,,,,,,,,,2/8 Mostly Clear,72000.0,,FEW,25000.0,,,,,,
KRDR,04-04-2004,01:00,METAR,,360,8.0,,,9999.0,Cloud Development Not Observable,3.0,-3.0,30.35,1029.2,,,,0,0,0,,,,,,,,,4/8 Partly Cloudy,72000.0,,SCT,25000.0,,,,,,
KRDR,04-04-2004,00:00,METAR,,350,13.0,,,9999.0,Cloud Development Not Observable,5.0,-3.0,30.36,1029.5,,,,0,0,0,,,,,,,,,4/8 Partly Cloudy,72000.0,,SCT,25000.0,,,,,,
KRDR,04-03-2004,23:00,METAR,,350,18.0,,,9999.0,Cloud Development Not Observable,6.0,-4.0,30.36,1029.5,,,,0,0,0,,,,,,,,,4/8 Partly Cloudy,72000.0,,FEW,4000.0,SCT,25000.0,,,,
KRDR,04-03-2004,22:00,METAR,,350,18.0,,,9999.0,Cloud Development Not Observable,6.0,-4.0,30.37,1029.9,,,,0,0,0,,,,,,,,,4/8 Partly Cloudy,72000.0,,FEW,4000.0,SCT,25000.0,,,,
KRDR,04-03-2004,21:00,METAR,,350,15.0,,,9999.0,Cloud Development Not Observable,7.0,-2.0,30.38,1030.2,,,,0,0,0,,,,,,,,,4/8 Partly Cloudy,72000.0,,FEW,4000.0,SCT,25000.0,,,,
KRDR,04-03-2004,20:00,METAR,,350,17.0,26.0,,9999.0,Cloud Development Not Observable,7.0,-4.0,30.40,1030.8,,,,0,0,0,,,,,,,,,4/8 Partly Cloudy,72000.0,,FEW,4000.0,SCT,25000.0,,,,
KRDR,04-03-2004,19:00,METAR,,340,21.0,27.0,330/28KTS,9999.0,Cloud Development Not Observable,7.0,-4.0,30.42,1031.5,,,,0,0,0,,,,,,,,,4/8 Partly Cloudy,72000.0,,FEW,4000.0,SCT,25000.0,,,,
KRDR,04-03-2004,18:00,METAR,,340,21.0,27.0,,9999.0,Cloud Development Not Observable,6.0,-3.0,30.42,1031.6,,,,0,0,0,,,,,,,,,,72000.0,,,,,,,,,
KRDR,04-03-2004,17:00,METAR,,340,20.0,25.0,,9999.0,Cloud Development Not Observable,6.0,-2.0,30.42,1031.6,,,,0,0,0,,,,,,,,,4/8 Partly Cloudy,72000.0,,FEW,4000.0,SCT,9900.0,SCT,25000.0,,
KRDR,04-03-2004,16:00,METAR,,340,18.0,26.0,,9999.0,Cloud Development Not Observable,5.0,-2.0,30.41,1031.2,,,,0,0,0,,,,,,,,,2/8 Mostly Clear,72000.0,,FEW,25000.0,,,,,,
KRDR,04-03-2004,15:00,METAR,,340,18.0,23.0,,9999.0,Cloud Development Not Observable,5.0,0.0,30.40,1030.9,,,,0,0,0,,,,,,,,,4/8 Partly Cloudy,72000.0,,SCT,25000.0,,,,,,
KRDR,04-03-2004,14:00,METAR,,320,14.0,,,9999.0,Cloud Development Not Observable,4.0,1.0,30.39,1030.5,,,,0,0,0,,,,,,,,,2/8 Mostly Clear,72000.0,,FEW,9900.0,,,,,,
KRDR,04-03-2004,13:00,METAR,,300,11.0,,,9999.0,Cloud Development Not Observable,1.0,0.0,30.39,1030.5,,,,0,0,0,,,,,,,,,2/8 Mostly Clear,72000.0,,FEW,9900.0,,,,,,
KRDR,04-03-2004,12:00,METAR,,280,8.0,,,9999.0,Cloud Development Not Observable,-1.0,-1.0,30.38,1030.2,,,,0,0,0,,,,,,,,,2/8 Mostly Clear,72000.0,,FEW,7900.0,,,,,,
KRDR,04-03-2004,10:00,METAR,,300,10.0,,,9999.0,Cloud Development Not Observable,-1.0,-1.0,30.39,1030.5,,,,0,0,0,,,,,,,,,Clear,72000.0,,,73000.0,,,,,,
KRDR,04-03-2004,09:00,METAR,,300,7.0,,,9999.0,Cloud Development Not Observable,-1.0,-2.0,30.39,1030.4,,,,0,0,0,,,,,,,,,Clear,72000.0,,,73000.0,,,,,,
KRDR,04-03-2004,08:00,METAR,,320,10.0,,,9999.0,Cloud Development Not Observable,1.0,-1.0,30.39,1030.2,,,,0,0,0,,,,,,,,,Clear,72000.0,,,73000.0,,,,,,
KRDR,04-03-2004,07:00,METAR,,310,12.0,,,9999.0,Cloud Development Not Observable,1.0,-1.0,30.39,1030.2,,,,0,0,0,,,,,,,,,Clear,72000.0,,,73000.0,,,,,,
KRDR,04-03-2004,06:00,METAR,,320,9.0,,,9999.0,Cloud Development Not Observable,0.0,-1.0,30.39,1030.3,,,,0,0,0,,,,,,,IN,,Clear,72000.0,,,73000.0,,,,,,
KRDR,04-03-2004,05:00,METAR,,330,14.0,,,9999.0,Cloud Development Not Observable,1.0,0.0,30.40,1030.7,,,,0,0,0,,,,,,,,,Clear,72000.0,,,73000.0,,,,,,
KRDR,04-03-2004,04:00,METAR,,340,12.0,,,9999.0,Cloud Development Not Observable,2.0,0.0,30.40,1030.8,,,,0,0,0,,,,,,,,,2/8 Mostly Clear,72000.0,,FEW,15000.0,,,,,,
KRDR,04-03-2004,03:00,METAR,,340,14.0,,,9999.0,Cloud Development Not Observable,2.0,1.0,30.39,1030.5,,,,0,0,0,,,,,,TRACE,,,4/8 Partly Cloudy,72000.0,,FEW,1800.0,SCT,15000.0,,,,
KRDR,04-03-2004,02:28,SPECI,,340,16.0,,,9999.0,Cloud Development Not Observable,3.0,0.0,30.39,,,,,0,0,0,,,,,,,,,4/8 Partly Cloudy,72000.0,,SCT,1800.0,SCT,15000.0,,,,
KRDR,04-03-2004,02:00,METAR,,330,21.0,,340/25KTS,9999.0,Cloud Development Not Observable,4.0,2.0,30.38,1030.1,,,,0,0,0,,,,,,,,,8/8 Overcast,1400.0,,BKN,1400.0,OVC,1800.0,,,,
KRDR,04-03-2004,01:00,METAR,,340,18.0,23.0,340/26KTS,9999.0,Cloud Development Not Observable,6.0,4.0,30.36,1029.5,,,,0,0,0,,,,,,,,,8/8 Overcast,1300.0,,OVC,1300.0,,,,,,
KRDR,04-03-2004,00:32,SPECI,,340,20.0,,,9999.0,Cloud Development Not Observable,5.0,3.0,30.36,,,,,0,0,0,,,,,,,,,8/8 Overcast,1300.0,,OVC,1300.0,,,,,,
KRDR,04-03-2004,00:14,SPECI,,350,20.0,26.0,,9999.0,Rain/Cloud Development Not Observable,5.0,4.0,30.36,,,,,61,0,0,,,,,,,,,8/8 Overcast,1300.0,,OVC,1300.0,,,,,,
KRDR,04-03-2004,00:05,SPECI,,350,21.0,,,9999.0,Cloud Development Not Observable,5.0,4.0,30.36,,,,,0,0,0,,,,,,,,,8/8 Overcast,1300.0,,OVC,1300.0,,,,,,
KRDR,04-03-2004,00:00,METAR,,350,17.0,23.0,350/26KTS,9999.0,Cloud Development Not Observable,6.0,4.0,30.36,1029.5,,,,0,0,0,,,,,,,,,8/8 Overcast,1700.0,,BKN,1700.0,OVC,5000.0,,,,
KRDR,04-02-2004,23:13,SPECI,,360,17.0,22.0,,9999.0,Cloud Development Not Observable,7.0,5.0,30.34,,,,,0,0,0,,,,,,,,,8/8 Overcast,1900.0,,BKN,1900.0,BKN,6900.0,OVC,25000.0,,
KRDR,04-02-2004,23:00,METAR,,350,19.0,24.0,360/26KTS,9999.0,Cloud Development Not Observable,8.0,4.0,30.34,1028.8,,,,0,0,0,,,,,,,,,8/8 Overcast,7000.0,,SCT,1900.0,BKN,6900.0,OVC,25000.0,,
KRDR,04-02-2004,22:00,METAR,,350,19.0,23.0,360/27KTS,9999.0,Cloud Development Not Observable,10.0,5.0,30.32,1028.2,,,,0,0,0,,,,,,,,,8/8 Overcast,4900.0,,SCT,2000.0,BKN,5000.0,OVC,25000.0,,
KRDR,04-02-2004,21:00,METAR,,350,16.0,,,9999.0,Cloud Development Not Observable,11.0,6.0,30.32,1028.1,,,,0,0,0,,,,,,,,,8/8 Overcast,4900.0,,SCT,3500.0,BKN,5000.0,OVC,25000.0,,
KRDR,04-02-2004,20:00,METAR,,340,8.0,,,9999.0,Cloud Development Not Observable,14.0,5.0,30.30,1027.2,,,,0,0,0,,,,,,,,,7/8 Mostly Cloudy,25000.0,,FEW,5000.0,BKN,25000.0,,,,
KRDR,04-02-2004,19:00,METAR,,,6.0,,,9999.0,Cloud Development Not Observable,14.0,3.0,30.30,1027.3,,,,0,0,0,,,,,,,,,7/8 Mostly Cloudy,25000.0,,FEW,5000.0,BKN,25000.0,,,,
KRDR,04-02-2004,18:00,METAR,,320,8.0,,,9999.0,Cloud Development Not Observable,12.0,5.0,30.31,1027.5,,,,0,0,0,,,,,,,,,7/8 Mostly Cloudy,25000.0,,BKN,25000.0,,,,,,
KRDR,04-02-2004,17:00,METAR,,320,7.0,,,9999.0,Cloud Development Not Observable,10.0,6.0,30.32,1027.9,,,,0,0,0,,,,,,,,,7/8 Mostly Cloudy,25000.0,,BKN,25000.0,,,,,,
KRDR,04-02-2004,16:00,METAR,,320,5.0,,,9999.0,Cloud Development Not Observable,7.0,5.0,30.32,1028.2,,,,0,0,0,,,,,,,,,7/8 Mostly Cloudy,25000.0,,BKN,25000.0,,,,,,
KRDR,04-02-2004,15:00,METAR,,310,9.0,,,9999.0,Cloud Development Not Observable,5.0,4.0,30.32,1028.0,,,,0,0,0,,,,,,,,,7/8 Mostly Cloudy,25000.0,,BKN,25000.0,,,,,,
KRDR,04-02-2004,14:00,METAR,,320,6.0,,,9999.0,Cloud Development Not Observable,4.0,4.0,30.31,1027.5,,,,0,0,0,,,,,,,,,7/8 Mostly Cloudy,25000.0,,BKN,25000.0,,,,,,
KRDR,04-02-2004,13:00,METAR,,320,4.0,,,9999.0,Cloud Development Not Observable,-1.0,-1.0,30.30,1027.5,,,,0,0,0,,,,,,,,,7/8 Mostly Cloudy,25000.0,,BKN,25000.0,,,,,,
KRDR,04-02-2004,12:00,METAR,,300,5.0,,,9999.0,Mist/Cloud Development Not Observable,-2.0,-2.0,30.29,1027.1,,,,10,0,0,,,,,,,,,4/8 Partly Cloudy,72000.0,,SCT,25000.0,,,,,,
KRDR,04-02-2004,11:00,METAR,,280,4.0,,,9999.0,Cloud Development Not Observable,-2.0,-2.0,30.27,1026.4,,,,0,0,0,,,,,,,,,4/8 Partly Cloudy,72000.0,,SCT,25000.0,,,,,,
KRDR,04-02-2004,10:00,METAR,,230,4.0,,,9999.0,Cloud Development Not Observable,-2.0,-2.0,30.25,1025.8,,,,0,0,0,,,,,,,,,2/8 Mostly Clear,72000.0,,FEW,25000.0,,,,,,
KRDR,04-02-2004,09:00,METAR,,290,3.0,,,9999.0,Cloud Development Not Observable,-1.0,-1.0,30.24,1025.4,,,,0,0,0,,,,,,,,,2/8 Mostly Clear,72000.0,,FEW,25000.0,,,,,,
KRDR,04-02-2004,08:00,METAR,,240,5.0,,,9999.0,Cloud Development Not Observable,-1.0,-1.0,30.23,1025.1,,,,0,0,0,,,,,,,,,2/8 Mostly Clear,72000.0,,FEW,25000.0,,,,,,
KRDR,04-02-2004,07:00,METAR,,,2.0,,,9999.0,Cloud Development Not Observable,0.0,0.0,30.23,1025.1,,,,0,0,0,,,,,,,,,2/8 Mostly Clear,72000.0,,FEW,25000.0,,,,,,
KRDR,04-02-2004,06:00,METAR,,250,2.0,,,9999.0,Cloud Development Not Observable,0.0,0.0,30.22,1024.8,,,,0,0,0,,,,,,,,,2/8 Mostly Clear,72000.0,,FEW,25000.0,,,,,,
KRDR,04-02-2004,05:00,METAR,,,1.0,,,9999.0,Cloud Development Not Observable,2.0,0.0,30.20,1024.1,,,,0,0,0,,,,,,,,,2/8 Mostly Clear,72000.0,,FEW,25000.0,,,,,,
KRDR,04-02-2004,04:00,METAR,,40,2.0,,,9999.0,Cloud Development Not Observable,2.0,2.0,30.19,1023.8,,,,0,0,0,,,,,,,,,2/8 Mostly Clear,72000.0,,FEW,25000.0,,,,,,
KRDR,04-02-2004,03:00,METAR,,40,3.0,,,9999.0,Cloud Development Not Observable,4.0,2.0,30.18,1023.3,,,,0,0,0,,,,,,,,,2/8 Mostly Clear,72000.0,,FEW,25000.0,,,,,,
KRDR,04-02-2004,02:00,METAR,,60,4.0,,,9999.0,Cloud Development Not Observable,9.0,3.0,30.16,1021.9,,,,0,0,0,,,,,,,,,2/8 Mostly Clear,72000.0,,FEW,25000.0,,,,,,
KRDR,04-02-2004,01:00,METAR,,100,3.0,,,9999.0,Cloud Development Not Observable,9.0,2.0,30.14,1021.9,,,,0,0,0,,,,,,,,,2/8 Mostly Clear,72000.0,,FEW,25000.0,,,,,,
KRDR,04-02-2004,00:00,METAR,,130,7.0,,,9999.0,Cloud Development Not Observable,12.0,3.0,30.12,1021.0,,,,0,0,0,,,,,,,,,2/8 Mostly Clear,72000.0,,FEW,25000.0,,,,,,
KRDR,04-01-2004,23:00,METAR,,140,8.0,,,9999.0,Cloud Development Not Observable,13.0,2.0,30.12,1021.0,,,,0,0,0,,,,,,,,,2/8 Mostly Clear,72000.0,,FEW,25000.0,,,,,,
KRDR,04-01-2004,22:00,METAR,,120,12.0,,,9999.0,Cloud Development Not Observable,13.0,2.0,30.11,1020.6,,,,0,0,0,,,,,,,,,2/8 Mostly Clear,72000.0,,FEW,25000.0,,,,,,
KRDR,04-01-2004,21:00,METAR,,150,10.0,,,9999.0,Cloud Development Not Observable,13.0,2.0,30.12,1021.0,,,,0,0,0,,,,,,,,,2/8 Mostly Clear,72000.0,,FEW,25000.0,,,,,,
KRDR,04-01-2004,20:00,METAR,,160,10.0,,,9999.0,Cloud Development Not Observable,12.0,2.0,30.13,1021.3,,,,0,0,0,,,,,,,,,2/8 Mostly Clear,72000.0,,FEW,25000.0,,,,,,
KRDR,04-01-2004,19:00,METAR,,140,12.0,,,9999.0,Cloud Development Not Observable,11.0,2.0,30.13,1021.6,,,,0,0,0,,,,,,,,,2/8 Mostly Clear,72000.0,,FEW,25000.0,,,,,,
KRDR,04-01-2004,18:00,METAR,,170,13.0,,,9999.0,Cloud Development Not Observable,10.0,2.0,30.14,1021.9,,,,0,0,0,,,,,,,,,2/8 Mostly Clear,72000.0,,FEW,25000.0,,,,,,
KRDR,04-01-2004,17:00,METAR,,160,12.0,,,9999.0,Cloud Development Not Observable,8.0,2.0,30.15,1022.1,,,,0,0,0,,,,,,,,,2/8 Mostly Clear,72000.0,,FEW,25000.0,,,,,,
KRDR,04-01-2004,16:00,METAR,,170,13.0,20.0,,9999.0,Cloud Development Not Observable,6.0,0.0,30.14,1021.8,,,,0,0,0,,,,,,,,,2/8 Mostly Clear,72000.0,,FEW,25000.0,,,,,,
KRDR,04-01-2004,15:00,METAR,,160,16.0,,,9999.0,Cloud Development Not Observable,4.0,-1.0,30.13,1021.6,,,,0,0,0,,,,,,,,,4/8 Partly Cloudy,72000.0,,SCT,25000.0,,,,,,
KRDR,04-01-2004,14:00,METAR,,160,13.0,19.0,,9999.0,Cloud Development Not Observable,2.0,-1.0,30.13,1021.6,,,,0,0,0,,,,,,,,,4/8 Partly Cloudy,72000.0,,SCT,25000.0,,,,,,
KRDR,04-01-2004,13:00,METAR,,160,7.0,,,9999.0,Cloud Development Not Observable,1.0,-1.0,30.13,1021.6,,,,0,0,0,,,,,,,,,4/8 Partly Cloudy,72000.0,,SCT,25000.0,,,,,,
KRDR,04-01-2004,12:00,METAR,,140,10.0,,,9999.0,Cloud Development Not Observable,0.0,-1.0,30.11,1020.9,,,,0,0,0,,,,,,,,,2/8 Mostly Clear,72000.0,,FEW,25000.0,,,,,,
KRDR,04-01-2004,11:00,METAR,,150,10.0,,,9999.0,Cloud Development Not Observable,0.0,-1.0,30.10,1020.6,,,,0,0,0,,,,,,,,,2/8 Mostly Clear,72000.0,,FEW,25000.0,,,,,,
KRDR,04-01-2004,10:00,METAR,,160,9.0,,,9999.0,Cloud Development Not Observable,1.0,-1.0,30.10,1020.5,,,,0,0,0,,,,,,,,,2/8 Mostly Clear,72000.0,,FEW,25000.0,,,,,,
KRDR,04-01-2004,09:00,METAR,,150,13.0,,,9999.0,Cloud Development Not Observable,2.0,-1.0,30.09,1020.2,,,,0,0,0,,,,,,,,,2/8 Mostly Clear,72000.0,,FEW,25000.0,,,,,,
KRDR,04-01-2004,08:00,METAR,,150,11.0,,,9999.0,Cloud Development Not Observable,2.0,0.0,30.09,1020.2,,,,0,0,0,,,,,,,,,2/8 Mostly Clear,72000.0,,FEW,25000.0,,,,,,
KRDR,04-01-2004,07:00,METAR,,150,9.0,,,9999.0,Cloud Development Not Observable,2.0,0.0,30.09,1020.2,,,,0,0,0,,,,,,,,,2/8 Mostly Clear,72000.0,,FEW,25000.0,,,,,,
KRDR,04-01-2004,06:00,METAR,,190,8.0,,,9999.0,Cloud Development Not Observable,2.0,0.0,30.09,1020.2,,,,0,0,0,,,,,,,,,2/8 Mostly Clear,72000.0,,FEW,25000.0,,,,,,
KRDR,04-01-2004,05:00,METAR,,190,11.0,,,9999.0,Cloud Development Not Observable,3.0,1.0,30.07,1019.5,,,,0,0,0,,,,,,,,,2/8 Mostly Clear,72000.0,,FEW,25000.0,,,,,,
KRDR,04-01-2004,04:00,METAR,,150,9.0,,,9999.0,Cloud Development Not Observable,5.0,2.0,30.07,1019.6,,,,0,0,0,,,,,,,,,2/8 Mostly Clear,72000.0,,FEW,25000.0,,,,,,
KRDR,04-01-2004,03:00,METAR,,150,8.0,,,9999.0,Cloud Development Not Observable,5.0,2.0,30.07,1019.6,,,,0,0,0,,,,,,,,,2/8 Mostly Clear,72000.0,,FEW,25000.0,,,,,,
KRDR,04-01-2004,02:00,METAR,,150,7.0,,,9999.0,Cloud Development Not Observable,6.0,2.0,30.07,1019.6,,,,0,0,0,,,,,,,,,2/8 Mostly Clear,72000.0,,FEW,25000.0,,,,,,
KRDR,04-01-2004,01:00,METAR,,150,9.0,,,9999.0,Cloud Development Not Observable,9.0,3.0,30.08,1020.0,,,,0,0,0,,,,,,,,,Clear,72000.0,,,73000.0,,,,,,
KRDR,04-01-2004,00:00,METAR,,150,11.0,,,9999.0,Cloud Development Not Observable,10.0,2.0,30.09,1020.3,,,,0,0,0,,,,,,,,,Clear,72000.0,,,73000.0,,,,,,
KRDR,03-31-2004,23:00,METAR,,150,15.0,,,9999.0,Cloud Development Not Observable,11.0,1.0,30.10,1020.6,,,,0,0,0,,,,,,,,,Clear,72000.0,,,73000.0,,,,,,
KRDR,03-31-2004,22:00,METAR,,150,13.0,,,9999.0,Cloud Development Not Observable,11.0,1.0,30.11,1020.9,,,,0,0,0,,,,,,,,,Clear,72000.0,,,73000.0,,,,,,
KRDR,03-31-2004,21:00,METAR,,160,15.0,,,9999.0,Cloud Development Not Observable,11.0,1.0,30.13,1021.6,,,,0,0,0,,,,,,,,,Clear,72000.0,,,73000.0,,,,,,
KRDR,03-31-2004,20:00,METAR,,160,13.0,21.0,,9999.0,Cloud Development Not Observable,10.0,1.0,30.14,1022.1,,,,0,0,0,,,,,,,,,Clear,72000.0,,,73000.0,,,,,,
KRDR,03-31-2004,19:00,METAR,,170,12.0,,,9999.0,Cloud Development Not Observable,9.0,0.0,30.17,1023.1,,,,0,0,0,,,,,,,,,Clear,72000.0,,,73000.0,,,,,,
KRDR,03-31-2004,18:00,METAR,,160,14.0,,,9999.0,Cloud Development Not Observable,8.0,-1.0,30.19,1023.9,,,,0,0,0,,,,,,,,,Clear,72000.0,,,73000.0,,,,,,
KRDR,03-31-2004,17:00,METAR,,160,15.0,,,9999.0,Cloud Development Not Observable,7.0,-1.0,30.21,1024.4,,,,0,0,0,,,,,,,,,Clear,72000.0,,,73000.0,,,,,,
KRDR,03-31-2004,16:00,METAR,,160,14.0,,,9999.0,Cloud Development Not Observable,5.0,-1.0,30.23,1025.2,,,,0,0,0,,,,,,,,,Clear,72000.0,,,73000.0,,,,,,
KRDR,03-31-2004,15:00,METAR,,170,15.0,,,9999.0,Cloud Development Not Observable,4.0,-1.0,30.24,1025.5,,,,0,0,0,,,,,,,,,Clear,72000.0,,,73000.0,,,,,,
KRDR,03-31-2004,14:00,METAR,,160,8.0,,,9999.0,Cloud Development Not Observable,2.0,0.0,30.24,1025.7,,,,0,0,0,,,,,,,,,2/8 Mostly Clear,72000.0,,FEW,25000.0,,,,,,
KRDR,03-31-2004,13:00,METAR,,170,5.0,,,9999.0,Cloud Development Not Observable,-2.0,-2.0,30.24,1025.6,,,,0,0,0,,,,,,,,,2/8 Mostly Clear,72000.0,,FEW,25000.0,,,,,,
KRDR,03-31-2004,12:00,METAR,,160,4.0,,,9999.0,Cloud Development Not Observable,-2.0,-2.0,30.24,1025.5,,,,0,0,0,,,,,,,,,Clear,72000.0,,,73000.0,,,,,,
KRDR,03-31-2004,11:00,METAR,,190,4.0,,,9999.0,Cloud Development Not Observable,-2.0,-2.0,30.25,1025.9,,,,0,0,0,,,,,,,,,Clear,72000.0,,,73000.0,,,,,,
KRDR,03-31-2004,10:00,METAR,,150,6.0,,,9999.0,Cloud Development Not Observable,-1.0,-1.0,30.25,1025.9,,,,0,0,0,,,,,,,,,Clear,72000.0,,,73000.0,,,,,,
KRDR,03-31-2004,09:00,METAR,,160,4.0,,,9999.0,Cloud Development Not Observable,-1.0,-1.0,30.25,1025.9,,,,0,0,0,,,,,,,,,Clear,72000.0,,,73000.0,,,,,,
KRDR,03-31-2004,08:00,METAR,,200,5.0,,,9999.0,Cloud Development Not Observable,-3.0,-3.0,30.25,1026.0,,,,0,0,0,,,,,,,,,Clear,72000.0,,,73000.0,,,,,,
KRDR,03-31-2004,07:00,METAR,,180,6.0,,,9999.0,Cloud Development Not Observable,-1.0,-1.0,30.25,1026.0,,,,0,0,0,,,,,,,,,Clear,72000.0,,,73000.0,,,,,,
KRDR,03-31-2004,06:00,METAR,,190,5.0,,,9999.0,Cloud Development Not Observable,-1.0,-1.0,30.26,1026.4,,,,0,0,0,,,,,,,,,Clear,72000.0,,,73000.0,,,,,,
KRDR,03-31-2004,05:00,METAR,,150,5.0,,,9999.0,Cloud Development Not Observable,-1.0,-2.0,30.26,1026.4,,,,0,0,0,,,,,,,,,Clear,72000.0,,,73000.0,,,,,,
KRDR,03-31-2004,04:00,METAR,,140,7.0,,,9999.0,Cloud Development Not Observable,0.0,-1.0,30.27,1026.7,,,,0,0,0,,,,,,,,,Clear,72000.0,,,73000.0,,,,,,
KRDR,03-31-2004,03:00,METAR,,110,7.0,,,9999.0,Cloud Development Not Observable,1.0,-1.0,30.28,1026.9,,,,0,0,0,,,,,,,,,Clear,72000.0,,,73000.0,,,,,,
KRDR,03-31-2004,02:00,METAR,,100,5.0,,,9999.0,Cloud Development Not Observable,2.0,-2.0,30.27,1026.5,,,,0,0,0,,,,,,,,,Clear,72000.0,,,73000.0,,,,,,
KRDR,03-31-2004,01:00,METAR,,90,5.0,,,9999.0,Cloud Development Not Observable,4.0,-2.0,30.27,1026.5,,,,0,0,0,,,,,,,,,2/8 Mostly Clear,72000.0,,FEW,25000.0,,,,,,
KRDR,03-31-2004,00:00,METAR,,,3.0,,,9999.0,Cloud Development Not Observable,6.0,-3.0,30.28,1026.9,,,,0,0,0,,,,,,,,,2/8 Mostly Clear,72000.0,,FEW,25000.0,,,,,,
KRDR,03-30-2004,23:00,METAR,,,3.0,,,9999.0,Cloud Development Not Observable,6.0,-3.0,30.29,1027.2,,,,0,0,0,,,,,,,,,2/8 Mostly Clear,72000.0,,FEW,25000.0,,,,,,
KRDR,03-30-2004,22:00,METAR,,,5.0,,,9999.0,Cloud Development Not Observable,5.0,-4.0,30.31,1027.9,,,,0,0,0,,,,,,,,,Clear,72000.0,,,73000.0,,,,,,
KRDR,03-30-2004,21:00,METAR,,,6.0,,,9999.0,Cloud Development Not Observable,5.0,-3.0,30.33,1028.6,,,,0,0,0,,,,,,,,,Clear,72000.0,,,73000.0,,,,,,
KRDR,03-30-2004,20:00,METAR,,,4.0,,,9999.0,Cloud Development Not Observable,4.0,-3.0,30.35,1029.3,,,,0,0,0,,,,,,,,,2/8 Mostly Clear,72000.0,,FEW,25000.0,,,,,,
KRDR,03-30-2004,19:00,METAR,,230,3.0,,,9999.0,Cloud Development Not Observable,2.0,-4.0,30.38,1030.4,,,,0,0,0,,,,,,,,,2/8 Mostly Clear,72000.0,,FEW,25000.0,,,,,,
KRDR,03-30-2004,18:00,METAR,,,6.0,,,9999.0,Cloud Development Not Observable,2.0,-4.0,30.39,1030.8,,,,0,0,0,,,,,,,,,2/8 Mostly Clear,72000.0,,FEW,25000.0,,,,,,
KRDR,03-30-2004,17:00,METAR,,,3.0,,,9999.0,Cloud Development Not Observable,1.0,-5.0,30.39,1030.7,,,,0,0,0,,,,,,,,,2/8 Mostly Clear,72000.0,,FEW,4000.0,FEW,25000.0,,,,
KRDR,03-30-2004,16:00,METAR,,60,4.0,,,9999.0,Cloud Development Not Observable,-1.0,-7.0,30.39,1030.8,,,,0,0,0,,,,,,,,,2/8 Mostly Clear,72000.0,,FEW,4000.0,FEW,25000.0,,,,
KRDR,03-30-2004,15:00,METAR,,20,4.0,,,9999.0,Cloud Development Not Observable,-2.0,-6.0,30.39,1030.8,,,,0,0,0,,,,,,,,,2/8 Mostly Clear,72000.0,,FEW,4000.0,FEW,25000.0,,,,
KRDR,03-30-2004,14:00,METAR,,30,4.0,,,9999.0,Cloud Development Not Observable,-2.0,-5.0,30.39,1030.8,,,,0,0,0,,,,,,,,,2/8 Mostly Clear,72000.0,,FEW,4000.0,FEW,25000.0,,,,
KRDR,03-30-2004,13:00,METAR,,20,5.0,,,9999.0,Cloud Development Not Observable,-5.0,-5.0,30.37,1030.3,,,,0,0,0,,,,,,,,,2/8 Mostly Clear,72000.0,,FEW,4000.0,FEW,25000.0,,,,
KRDR,03-30-2004,12:00,METAR,,350,5.0,,,9999.0,Cloud Development Not Observable,-6.0,-6.0,30.36,1030.1,,,,0,0,0,,,,,,,,,2/8 Mostly Clear,72000.0,,FEW,9900.0,,,,,,
KRDR,03-30-2004,11:00,METAR,,340,5.0,,,9999.0,Cloud Development Not Observable,-6.0,-6.0,30.35,1029.7,,,,0,0,0,,,,,,,,,Clear,72000.0,,,73000.0,,,,,,
KRDR,03-30-2004,10:00,METAR,,10,6.0,,,9999.0,Cloud Development Not Observable,-5.0,-5.0,30.34,1029.3,,,,0,0,0,,,,,,,,,2/8 Mostly Clear,72000.0,,FEW,25000.0,,,,,,
KRDR,03-30-2004,09:00,METAR,,360,7.0,,,9999.0,Cloud Development Not Observable,-5.0,-5.0,30.35,1029.5,,,,0,0,0,,,,,,,,,2/8 Mostly Clear,72000.0,,FEW,25000.0,,,,,,
KRDR,03-30-2004,08:00,METAR,,360,9.0,,,9999.0,Cloud Development Not Observable,-4.0,-5.0,30.33,1028.7,,,,0,0,0,,,,,,,,,2/8 Mostly Clear,72000.0,,FEW,3000.0,,,,,,
KRDR,03-30-2004,07:00,METAR,,360,13.0,,,9999.0,Cloud Development Not Observable,-3.0,-5.0,30.32,1028.3,,,,0,0,0,,,,,,,,,2/8 Mostly Clear,72000.0,,FEW,4000.0,,,,,,
KRDR,03-30-2004,06:00,METAR,,360,10.0,,,9999.0,Cloud Development Not Observable,-3.0,-5.0,30.29,1027.5,,,,0,0,0,,,,,,,,,2/8 Mostly Clear,72000.0,,FEW,4000.0,,,,,,
KRDR,03-30-2004,05:00,METAR,,10,12.0,,,9999.0,Cloud Development Not Observable,-2.0,-4.0,30.29,1027.5,,,,0,0,0,,,,,,,,,2/8 Mostly Clear,72000.0,,FEW,4000.0,,,,,,
KRDR,03-30-2004,04:00,METAR,,360,11.0,,,9999.0,Cloud Development Not Observable,-2.0,-3.0,30.27,1026.8,,,,0,0,0,,,,,,,,,4/8 Partly Cloudy,72000.0,,SCT,4000.0,,,,,,
KRDR,03-30-2004,03:35,SPECI,,360,9.0,,,9999.0,Cloud Development Not Observable,-2.0,-4.0,30.26,,,,,0,0,0,,,,,,,,,Clear,72000.0,,,73000.0,,,,,,
KRDR,03-30-2004,03:00,METAR,,360,11.0,,,9999.0,Cloud Development Not Observable,-1.0,-3.0,30.26,1026.4,,,,0,0,0,,,,,,,,,7/8 Mostly Cloudy,2500.0,,BKN,2500.0,,,,,,
KRDR,03-30-2004,02:00,METAR,,20,12.0,,,9999.0,Cloud Development Not Observable,0.0,-2.0,30.22,1025.1,,,,0,0,0,,,,,,,,,7/8 Mostly Cloudy,2500.0,,BKN,2500.0,,,,,,
KRDR,03-30-2004,01:00,METAR,,350,9.0,,,9999.0,Cloud Development Not Observable,0.0,-2.0,30.22,1024.9,,,,0,0,0,,,,,,,,,8/8 Overcast,2700.0,,OVC,2700.0,,,,,,
KRDR,03-30-2004,00:27,SPECI,,330,11.0,,,9999.0,Cloud Development Not Observable,1.0,-3.0,30.20,,,,,0,0,0,,,,,,,,,8/8 Overcast,2700.0,,OVC,2700.0,,,,,,
KRDR,03-30-2004,00:00,METAR,,320,13.0,,,9999.0,Cloud Development Not Observable,1.0,-3.0,30.18,1023.7,,,,0,0,0,,,,,,,,,8/8 Overcast,3100.0,,OVC,3100.0,,,,,,
KRDR,03-29-2004,23:00,METAR,,320,14.0,,,9999.0,Cloud Development Not Observable,1.0,-3.0,30.17,1023.4,,,,0,0,0,,,,,,,,,7/8 Mostly Cloudy,3500.0,,BKN,3600.0,,,,,,
KRDR,03-29-2004,22:21,SPECI,,320,15.0,,,9999.0,Cloud Development Not Observable,1.0,-3.0,30.16,,,,,0,0,0,,,,,,,,,8/8 Overcast,3300.0,,OVC,3400.0,,,,,,
KRDR,03-29-2004,22:00,METAR,,320,17.0,22.0,,9999.0,Cloud Development Not Observable,1.0,-4.0,30.15,1022.7,,,,0,0,0,,,,,,,,,8/8 Overcast,2900.0,,OVC,2900.0,,,,,,
KRDR,03-29-2004,21:00,METAR,,320,17.0,,,9999.0,Cloud Development Not Observable,1.0,-3.0,30.13,1022.0,,,,0,0,0,,,,,,,,,8/8 Overcast,2700.0,,OVC,2700.0,,,,,,
KRDR,03-29-2004,20:00,METAR,,320,16.0,21.0,,9999.0,Cloud Development Not Observable,1.0,-3.0,30.12,1021.6,,,,0,0,0,,,,,,,,,7/8 Mostly Cloudy,2700.0,,BKN,2700.0,BKN,11000.0,,,,
KRDR,03-29-2004,19:00,METAR,,320,15.0,,,9999.0,Cloud Development Not Observable,2.0,-3.0,30.10,1020.9,,,,0,0,0,,,,,,,,,7/8 Mostly Cloudy,2600.0,,BKN,2600.0,BKN,11000.0,,,,
KRDR,03-29-2004,18:00,METAR,,310,18.0,23.0,,9999.0,Cloud Development Not Observable,1.0,-3.0,30.09,1020.5,,,,0,0,0,,,,,,,IN,,7/8 Mostly Cloudy,2500.0,,BKN,2500.0,BKN,11000.0,,,,
KRDR,03-29-2004,17:00,METAR,,320,20.0,26.0,,9999.0,Cloud Development Not Observable,0.0,-3.0,30.07,1018.8,,,,0,0,0,,,,,,,,,7/8 Mostly Cloudy,2500.0,,BKN,2500.0,BKN,11000.0,,,,
KRDR,03-29-2004,16:13,SPECI,,320,21.0,26.0,,9999.0,Cloud Development Not Observable,0.0,-4.0,30.05,,,,,0,0,0,,,,,,,,,7/8 Mostly Cloudy,3100.0,,FEW,1100.0,BKN,3200.0,,,,
KRDR,03-29-2004,16:00,METAR,,310,19.0,23.0,310/27KTS,8000.0,Light Snow/Cloud Development Not Observable,-1.0,-3.0,30.04,1018.8,,,,71,0,0,,,,,,,,,8/8 Overcast,3100.0,,FEW,1100.0,OVC,3200.0,,,,
KRDR,03-29-2004,15:00,METAR,,310,19.0,22.0,300/28KTS,8000.0,Light Snow/Cloud Development Not Observable,-1.0,-3.0,30.02,1018.1,,,,71,0,0,,,,,,TRACE,,,8/8 Overcast,3100.0,,FEW,1500.0,BKN,3200.0,OVC,4000.0,,
KRDR,03-29-2004,13:38,SPECI,,300,15.0,,,9999.0,Light Snow/Cloud Development Not Observable,-1.0,-3.0,29.99,,,,,71,0,0,,,,,,,,,8/8 Overcast,3300.0,,FEW,2000.0,BKN,3400.0,OVC,4000.0,,
KRDR,03-29-2004,13:00,METAR,,320,16.0,,,9999.0,Cloud Development Not Observable,-1.0,-4.0,29.95,1015.7,,,,0,0,0,,,,,,,,,8/8 Overcast,3400.0,,SCT,2500.0,BKN,3500.0,OVC,4600.0,,
KRDR,03-29-2004,12:05,SPECI,,320,20.0,27.0,,9999.0,Cloud Development Not Observable,-1.0,-4.0,29.92,,,,,0,0,0,,,,,,,,,8/8 Overcast,3400.0,,SCT,2500.0,BKN,3500.0,OVC,6900.0,,
KRDR,03-29-2004,12:00,METAR,,300,15.0,23.0,,9999.0,Light Snow/Cloud Development Not Observable,-1.0,-2.0,29.91,1014.2,,,,71,0,0,,,,,,,IN,.04 IN,8/8 Overcast,3400.0,,SCT,2000.0,BKN,3500.0,OVC,6900.0,,
KRDR,03-29-2004,11:26,SPECI,,320,16.0,,,9999.0,Light Snow/Cloud Development Not Observable,-1.0,-3.0,29.90,,,,,71,0,0,,,,,,,,,8/8 Overcast,3400.0,,SCT,2200.0,BKN,3500.0,OVC,5400.0,,
KRDR,03-29-2004,11:11,SPECI,,330,14.0,,,9999.0,Light Snow/Cloud Development Not Observable,-1.0,-2.0,29.90,,,,,71,0,0,,,,,,,,,8/8 Overcast,2500.0,,BKN,2500.0,OVC,3500.0,,,,
KRDR,03-29-2004,11:00,METAR,,330,13.0,,310/27KTS,9999.0,Light Snow/Cloud Development Not Observable,-1.0,-2.0,29.89,1013.4,,,,71,0,0,,,,,,,,,8/8 Overcast,3400.0,,SCT,2300.0,BKN,3500.0,OVC,5400.0,,
KRDR,03-29-2004,10:19,SPECI,,340,13.0,23.0,,9999.0,Light Snow Showers/Cloud Development Not Observable,-1.0,-2.0,29.88,,,,,85,0,0,,,,,,,,,8/8 Overcast,3400.0,,SCT,2200.0,BKN,3500.0,OVC,5400.0,,
KRDR,03-29-2004,10:04,SPECI,,310,20.0,27.0,,9999.0,Light Snow Showers/Cloud Development Not Observable,0.0,-1.0,29.86,,,,,85,0,0,,,,,,,,,8/8 Overcast,2000.0,,BKN,2000.0,OVC,3500.0,,,,
KRDR,03-29-2004,10:00,METAR,,310,20.0,,,9999.0,Light Snow/Cloud Development Not Observable,0.0,-1.0,29.86,1012.6,,,,71,0,0,,,,,,,,,8/8 Overcast,3400.0,,SCT,2000.0,BKN,3500.0,OVC,5900.0,,
KRDR,03-29-2004,09:41,SPECI,,300,16.0,,,9999.0,Light Snow/Cloud Development Not Observable,0.0,-1.0,29.85,,,,,71,0,0,,,,,,,,,8/8 Overcast,3400.0,,SCT,2000.0,BKN,3500.0,OVC,5900.0,,
KRDR,03-29-2004,09:04,SPECI,,300,14.0,,,9999.0,Cloud Development Not Observable,0.0,-1.0,29.84,,,,,0,0,0,,,,,,,,,8/8 Overcast,3400.0,,FEW,2200.0,SCT,3500.0,OVC,5900.0,,
KRDR,03-29-2004,09:00,METAR,,310,15.0,22.0,,9999.0,Light Snow/Cloud Development Not Observable,0.0,-1.0,29.84,1011.9,,,,71,0,0,,,,,,TRACE,,,8/8 Overcast,3400.0,,FEW,2200.0,SCT,3500.0,OVC,5400.0,,
KRDR,03-29-2004,08:26,SPECI,,300,15.0,,,9999.0,Light Snow/Cloud Development Not Observable,0.0,-1.0,29.83,,,,,71,0,0,,,,,,,,,8/8 Overcast,3400.0,,SCT,2200.0,BKN,3500.0,OVC,5400.0,,
KRDR,03-29-2004,08:00,METAR,,300,15.0,,,8000.0,Light Snow/Cloud Development Not Observable,1.0,-1.0,29.83,1011.4,,,,71,0,0,,,,,,,,,8/8 Overcast,2200.0,,BKN,2200.0,OVC,5000.0,,,,
KRDR,03-29-2004,07:00,METAR,,310,12.0,,,9999.0,Cloud Development Not Observable,1.0,-2.0,29.82,1011.0,,,,0,0,0,,,,,,,,,8/8 Overcast,4600.0,,OVC,4700.0,,,,,,
KRDR,03-29-2004,06:00,METAR,,300,12.0,22.0,300/25KTS,9999.0,Cloud Development Not Observable,1.0,-2.0,29.82,1011.1,,,,0,0,0,,,,,,,,,8/8 Overcast,4900.0,,FEW,2500.0,BKN,5000.0,OVC,9900.0,,
KRDR,03-29-2004,05:00,METAR,,300,18.0,26.0,310/29KTS,9999.0,Cloud Development Not Observable,1.0,-2.0,29.82,1011.1,,,,0,0,0,,,,,,,,,8/8 Overcast,4900.0,,FEW,2500.0,BKN,5000.0,OVC,9900.0,,
KRDR,03-29-2004,04:00,METAR,,310,18.0,23.0,,9999.0,Cloud Development Not Observable,1.0,-2.0,29.82,1011.1,,,,0,0,0,,,,,,,,,8/8 Overcast,4400.0,,FEW,2500.0,OVC,4500.0,,,,
KRDR,03-29-2004,03:00,METAR,,310,17.0,22.0,300/30KTS,9999.0,Cloud Development Not Observable,1.0,-2.0,29.83,1011.6,,,,0,0,0,,,,,,,,,7/8 Mostly Cloudy,3800.0,,SCT,2500.0,BKN,3900.0,,,,
KRDR,03-29-2004,02:05,SPECI,,310,23.0,30.0,,9999.0,Cloud Development Not Observable,1.0,-2.0,29.84,,,,,0,0,0,,,,,,,,,7/8 Mostly Cloudy,3500.0,,SCT,2500.0,BKN,3600.0,,,,
KRDR,03-29-2004,02:00,METAR,,300,20.0,27.0,300/34KTS,9999.0,Cloud Development Not Observable,1.0,-2.0,29.84,1011.9,,,,0,0,0,,,,,,,,,8/8 Overcast,2500.0,,BKN,2500.0,OVC,3700.0,,,,
KRDR,03-29-2004,01:00,METAR,,300,23.0,30.0,,9999.0,Cloud Development Not Observable,2.0,-1.0,29.94,1015.2,,,,0,0,0,,,,,,,,,8/8 Overcast,2800.0,,OVC,2800.0,,,,,,
KRDR,03-29-2004,00:00,METAR,,310,23.0,30.0,290/32KTS,9999.0,Cloud Development Not Observable,3.0,-1.0,29.82,1011.3,,,,0,0,0,,,,,,,,,8/8 Overcast,2800.0,,OVC,2800.0,,,,,,
KRDR,03-28-2004,23:00,METAR,,310,20.0,30.0,300/37KTS,9999.0,Cloud Development Not Observable,5.0,0.0,29.79,1010.1,,,,0,0,0,,,,,,,,,8/8 Overcast,2600.0,,BKN,2600.0,BKN,3500.0,OVC,9900.0,,
KRDR,03-28-2004,22:00,METAR,,300,28.0,38.0,,9999.0,Cloud Development Not Observable,5.0,1.0,29.76,1009.1,,,,0,0,0,,,,,,,,,7/8 Mostly Cloudy,2200.0,,BKN,2200.0,BKN,3500.0,,,,
KRDR,03-28-2004,21:20,METAR,,290,20.0,,,9999.0,Cloud Development Not Observable,5.0,3.0,29.76,,,,,0,0,0,,,,,,,,,7/8 Mostly Cloudy,2500.0,,BKN,2500.0,BKN,3300.0,,,,
KRDR,03-28-2004,21:00,METAR,,290,22.0,26.0,280/32KTS,9999.0,Cloud Development Not Observable,5.0,3.0,29.76,1009.1,,,,0,0,0,,,,,,,,,4/8 Partly Cloudy,72000.0,,SCT,2500.0,,,,,,
KRDR,03-28-2004,20:00,METAR,,300,23.0,29.0,290/30KTS,9999.0,Cloud Development Not Observable,7.0,4.0,29.75,1008.7,,,,0,0,0,,,,,,,,,7/8 Mostly Cloudy,10000.0,,FEW,1500.0,BKN,9900.0,,,,
KRDR,03-28-2004,19:00,METAR,,290,20.0,26.0,,9999.0,Cloud Development Not Observable,7.0,4.0,29.72,1007.6,,,,0,0,0,,,,,,,,,8/8 Overcast,10000.0,,SCT,7400.0,OVC,9900.0,,,,
KRDR,03-28-2004,18:00,METAR,,280,16.0,24.0,,9999.0,Cloud Development Not Observable,6.0,4.0,29.71,1007.3,,,,0,0,0,,,,,,,.04 IN,,8/8 Overcast,5500.0,,BKN,5400.0,OVC,7400.0,,,,
KRDR,03-28-2004,17:00,METAR,,280,20.0,,280/28KTS,9999.0,Cloud Development Not Observable,6.0,4.0,29.70,1006.9,,,,0,0,0,,,,,,,,,8/8 Overcast,6500.0,,SCT,2200.0,OVC,6400.0,,,,
KRDR,03-28-2004,16:00,METAR,,300,19.0,24.0,290/33KTS,9999.0,Cloud Development Not Observable,5.0,4.0,29.69,1006.6,,,,0,0,0,,,,,,,,,8/8 Overcast,6500.0,,SCT,2200.0,OVC,6400.0,,,,
KRDR,03-28-2004,15:00,METAR,,310,24.0,30.0,290/31KTS,9999.0,Cloud Development Not Observable,6.0,5.0,29.65,1005.2,,,,0,0,0,,,,,,.04 IN,,,7/8 Mostly Cloudy,1500.0,,FEW,900.0,SCT,1500.0,BKN,6400.0,,
KRDR,03-28-2004,14:40,SPECI,,300,21.0,27.0,,9999.0,Cloud Development Not Observable,5.0,4.0,29.65,,,,,0,0,0,,,,,,,,,7/8 Mostly Cloudy,2500.0,,FEW,900.0,SCT,2500.0,BKN,7400.0,,
KRDR,03-28-2004,14:20,METAR,,300,24.0,30.0,,9999.0,Cloud Development Not Observable,4.0,4.0,29.63,,,,,0,0,0,,,,,,,,,7/8 Mostly Cloudy,2500.0,,FEW,900.0,BKN,2500.0,BKN,5400.0,,
KRDR,03-28-2004,14:00,METAR,,310,22.0,29.0,,9999.0,Drizzle/Cloud Development Not Observable,4.0,4.0,29.63,1004.5,,,,51,0,0,,,,,,,,,7/8 Mostly Cloudy,1200.0,,FEW,900.0,BKN,1200.0,BKN,4000.0,,
KRDR,03-28-2004,13:00,METAR,,310,18.0,26.0,,8000.0,Drizzle/Mist/Cloud Development Not Observable,3.0,3.0,29.61,1003.7,,,,51,10,0,,,,,,,,,8/8 Overcast,1200.0,,OVC,1200.0,SCT,5900.0,,,,
KRDR,03-28-2004,12:16,SPECI,,300,17.0,22.0,,4800.0,Drizzle/Mist/Cloud Development Not Observable,3.0,3.0,29.60,,,,,51,10,0,,,,,,,,,8/8 Overcast,1200.0,,SCT,600.0,OVC,1200.0,,,,
KRDR,03-28-2004,12:00,METAR,,310,17.0,25.0,,6400.0,Drizzle/Mist/Cloud Development Not Observable,3.0,3.0,29.58,1001.4,,,,51,10,0,,,,,,,.4 IN,1.74 IN,8/8 Overcast,400.0,,BKN,400.0,OVC,1000.0,,,,
KRDR,03-28-2004,11:00,METAR,,300,18.0,24.0,300/26KTS,6400.0,Drizzle/Mist/Cloud Development Not Observable,3.0,3.0,29.54,1001.4,,,,51,10,0,,,,,,,,,8/8 Overcast,400.0,,BKN,400.0,OVC,900.0,,,,
KRDR,03-28-2004,10:13,SPECI,,310,17.0,24.0,,4800.0,Drizzle/Mist/Cloud Development Not Observable,3.0,3.0,29.52,,,,,51,10,0,,,,,,,,,8/8 Overcast,400.0,,BKN,400.0,OVC,800.0,,,,
KRDR,03-28-2004,10:00,METAR,,310,21.0,28.0,,4800.0,Ice Pellets/Drizzle/Mist,3.0,3.0,29.51,1000.3,,,,51,79,10,,,,,,,,,8/8 Overcast,400.0,,BKN,400.0,OVC,700.0,,,,
KRDR,03-28-2004,09:00,METAR,,320,18.0,23.0,340/25KTS,4800.0,Ice Pellets/Drizzle/Mist,3.0,3.0,29.51,1000.3,,,,51,79,10,,,,,,.23 IN,,,8/8 Overcast,400.0,,BKN,400.0,OVC,700.0,,,,
KRDR,03-28-2004,08:00,METAR,,340,19.0,27.0,,4800.0,Ice Pellets/Rain/Mist,3.0,3.0,29.45,998.4,,,,61,79,10,,,,,,,,,8/8 Overcast,400.0,,BKN,400.0,OVC,700.0,,,,
KRDR,03-28-2004,07:13,SPECI,,340,18.0,,,4800.0,Ice Pellets/Rain/Mist,3.0,3.0,29.44,,,,,61,79,10,,,,,,,,,8/8 Overcast,400.0,,BKN,400.0,OVC,700.0,,,,
KRDR,03-28-2004,07:00,METAR,,340,17.0,24.0,340/26KTS,4800.0,Rain/Mist/Cloud Development Not Observable,3.0,3.0,29.45,998.6,,,,61,10,0,,,,,,,,,8/8 Overcast,400.0,,BKN,400.0,OVC,700.0,,,,
KRDR,03-28-2004,06:17,SPECI,,340,18.0,,,4800.0,Rain/Mist/Cloud Development Not Observable,3.0,3.0,29.46,,,,,61,10,0,,,,,,,,,8/8 Overcast,400.0,,BKN,400.0,OVC,700.0,,,,
KRDR,03-28-2004,06:00,METAR,,340,16.0,24.0,,3200.0,Rain/Mist/Cloud Development Not Observable,3.0,3.0,29.46,998.8,,,,61,10,0,,,,,,,.58 IN,,8/8 Overcast,400.0,,BKN,400.0,OVC,700.0,,,,
KRDR,03-28-2004,05:14,SPECI,,330,15.0,,,3200.0,Rain/Mist/Cloud Development Not Observable,4.0,4.0,29.48,,,,,61,10,0,,,,,,,,,8/8 Overcast,400.0,,BKN,400.0,OVC,700.0,,,,
KRDR,03-28-2004,05:00,METAR,,340,13.0,,,4800.0,Rain/Mist/Cloud Development Not Observable,4.0,4.0,29.49,999.7,,,,61,10,0,,,,,,,,,8/8 Overcast,700.0,,SCT,400.0,OVC,700.0,,,,
KRDR,03-28-2004,04:09,SPECI,,350,8.0,,,4800.0,Rain/Mist/Cloud Development Not Observable,5.0,5.0,29.50,,,,,61,10,0,,,,,,,,,8/8 Overcast,700.0,,SCT,400.0,OVC,700.0,,,,
KRDR,03-28-2004,04:00,METAR,,20,6.0,,,1200.0,Rain/Mist/Cloud Development Not Observable,6.0,6.0,29.51,1000.2,,,,61,10,0,,,,,,,,,8/8 Overcast,700.0,,SCT,400.0,OVC,700.0,,,,
KRDR,03-28-2004,03:05,SPECI,,350,9.0,,,1200.0,Rain/Mist/Cloud Development Not Observable,5.0,5.0,29.52,,,,,61,10,0,,,,,,,,,8/8 Overcast,700.0,,SCT,400.0,OVC,700.0,,,,
KRDR,03-28-2004,03:00,METAR,,350,8.0,,,4800.0,Rain/Mist/Cloud Development Not Observable,5.0,5.0,29.53,1001.1,,,,61,10,0,,,,,,.26 IN,,,8/8 Overcast,700.0,,SCT,400.0,OVC,700.0,,,,
KRDR,03-28-2004,02:00,METAR,,330,9.0,,,4800.0,Light Rain Showers/Mist/Cloud Development Not Observable,5.0,5.0,29.55,1001.6,,,,80,10,0,,,,,,,,,8/8 Overcast,700.0,,FEW,300.0,OVC,700.0,,,,
KRDR,03-28-2004,01:00,METAR,,250,5.0,,,4800.0,Rain/Mist/Cloud Development Not Observable,9.0,9.0,29.55,1001.5,,,,61,10,0,,,,,,,,,8/8 Overcast,700.0,,OVC,700.0,,,,,,
KRDR,03-28-2004,00:00,METAR,,120,17.0,,,4800.0,Rain/Mist/Cloud Development Not Observable,9.0,9.0,29.55,1001.5,,,,61,10,0,,,,,,,.46 IN,,8/8 Overcast,700.0,,OVC,700.0,,,,,,
KRDR,03-27-2004,23:08,SPECI,,110,17.0,,,4800.0,Rain/Mist/Cloud Development Not Observable,9.0,9.0,29.56,,,,,61,10,0,,,,,,,,,8/8 Overcast,700.0,,BKN,700.0,OVC,1100.0,,,,
KRDR,03-27-2004,23:00,METAR,,100,14.0,,,1200.0,Rain/Mist/Cloud Development Not Observable,9.0,9.0,29.57,1002.2,,,,61,10,0,,,,,,,,,8/8 Overcast,500.0,,OVC,500.0,,,,,,
KRDR,03-27-2004,22:20,METAR,,80,5.0,,,1200.0,Rain/Mist/Cloud Development Not Observable,9.0,9.0,29.60,,,,,61,10,0,,,,,,,,,8/8 Overcast,400.0,,OVC,400.0,,,,,,
KRDR,03-27-2004,22:10,SPECI,,70,7.0,,,800.0,Rain/Fog or Ice Fog/Cloud Development Not Observable,7.0,7.0,29.61,,,,,61,44,0,,,,,,,,,8/8 Overcast,400.0,,OVC,400.0,,,,,,
KRDR,03-27-2004,22:00,METAR,,30,8.0,,,1200.0,Rain/Mist/Cloud Development Not Observable,6.0,6.0,29.62,1004.1,,,,61,10,0,,,,,,,,,8/8 Overcast,500.0,,OVC,500.0,,,,,,
KRDR,03-27-2004,21:28,SPECI,,30,10.0,,,1200.0,Rain/Mist/Cloud Development Not Observable,6.0,6.0,29.65,,,,,61,10,0,,,,,,,,,8/8 Overcast,500.0,,OVC,500.0,,,,,,
KRDR,03-27-2004,21:16,SPECI,,20,9.0,,,1600.0,Rain/Mist/Cloud Development Not Observable,6.0,6.0,29.66,,,,,61,10,0,,,,,,,,,8/8 Overcast,600.0,,OVC,600.0,,,,,,
KRDR,03-27-2004,21:00,METAR,,30,8.0,,,8000.0,Rain/Mist/Cloud Development Not Observable,6.0,6.0,29.68,1006.2,,,,61,10,0,,,,,,.24 IN,,,8/8 Overcast,700.0,,BKN,700.0,OVC,1100.0,,,,
KRDR,03-27-2004,20:08,SPECI,,320,15.0,,,4800.0,Rain/Mist/Cloud Development Not Observable,6.0,6.0,29.71,,,,,61,10,0,,,,,,,,,8/8 Overcast,600.0,,BKN,600.0,OVC,1100.0,,,,
KRDR,03-27-2004,20:00,METAR,,240,12.0,25.0,,1600.0,Rain/Mist/Cloud Development Not Observable,6.0,6.0,29.72,1007.7,,,,61,10,0,,,,,,,,,8/8 Overcast,600.0,,OVC,600.0,,,,,,
KRDR,03-27-2004,19:45,METAR,,280,12.0,25.0,,1600.0,Rain/Mist/Cloud Development Not Observable,6.0,6.0,29.73,,,,,61,10,0,,,,,,,,,8/8 Overcast,400.0,,OVC,400.0,,,,,,
KRDR,03-27-2004,19:00,METAR,,90,9.0,,,800.0,Rain/Fog or Ice Fog/Cloud Development Not Observable,6.0,6.0,29.70,1007.0,,,,61,45,0,,,,,,,,,Sky Obscured (Unable to Estimate),400.0,100.0,,400.0,,,,,,
KRDR,03-27-2004,18:26,SPECI,,80,8.0,,,800.0,Rain/Mist/Cloud Development Not Observable,6.0,6.0,29.71,,,,,61,10,0,,,,,,,,,8/8 Overcast,400.0,,OVC,400.0,,,,,,
KRDR,03-27-2004,18:00,METAR,,80,8.0,,,1200.0,Thunderstorm with Rain or Snow/Light Rain Showers/Mist,6.0,6.0,29.72,1007.7,,,,95,80,10,,,,,,,.3 IN,,8/8 Overcast,500.0,,OVC,500.0,,,,,,
KRDR,03-27-2004,17:31,SPECI,,60,11.0,,,1600.0,Drizzle/Mist/Cloud Development Not Observable,6.0,6.0,29.73,,,,,51,10,0,,,,,,,,,8/8 Overcast,500.0,,OVC,500.0,,,,,,
KRDR,03-27-2004,17:06,SPECI,,70,12.0,,,3200.0,Drizzle/Mist/Cloud Development Not Observable,6.0,6.0,29.76,,,,,51,10,0,,,,,,,,,8/8 Overcast,500.0,,OVC,500.0,,,,,,
KRDR,03-27-2004,17:00,METAR,,70,12.0,,,1200.0,Rain/Mist/Cloud Development Not Observable,6.0,6.0,29.75,1008.7,,,,63,10,0,,,,,,,,,8/8 Overcast,500.0,,OVC,500.0,,,,,,
KRDR,03-27-2004,16:36,SPECI,,50,8.0,,,1200.0,Rain/Mist/Cloud Development Not Observable,6.0,6.0,29.77,,,,,61,10,0,,,,,,,,,8/8 Overcast,600.0,,OVC,600.0,,,,,,
KRDR,03-27-2004,16:26,SPECI,,40,8.0,,,800.0,Rain/Mist/Cloud Development Not Observable,6.0,6.0,29.78,,,,,63,10,0,,,,,,,,,8/8 Overcast,500.0,,OVC,500.0,,,,,,
KRDR,03-27-2004,16:17,SPECI,,50,9.0,,,1200.0,Rain/Mist/Cloud Development Not Observable,6.0,6.0,29.78,,,,,61,10,0,,,,,,,,,8/8 Overcast,500.0,,OVC,500.0,,,,,,
KRDR,03-27-2004,16:07,SPECI,,50,9.0,,,1600.0,Rain/Mist/Cloud Development Not Observable,6.0,6.0,29.79,,,,,61,10,0,,,,,,,,,8/8 Overcast,700.0,,OVC,700.0,,,,,,
KRDR,03-27-2004,16:00,METAR,,60,9.0,,,3200.0,Rain/Mist/Cloud Development Not Observable,6.0,6.0,29.80,1010.5,,,,61,10,0,,,,,,,,,8/8 Overcast,700.0,,OVC,700.0,,,,,,
KRDR,03-27-2004,15:00,METAR,,160,12.0,,,3200.0,Rain/Mist/Cloud Development Not Observable,7.0,7.0,29.85,,,,,61,10,0,,,,,,.16 IN,,,8/8 Overcast,600.0,,OVC,600.0,,,,,,
KRDR,03-27-2004,14:40,SPECI,,170,12.0,,,3200.0,Rain/Mist/Cloud Development Not Observable,7.0,7.0,29.85,,,,,61,10,0,,,,,,,,,8/8 Overcast,600.0,,BKN,600.0,OVC,2200.0,,,,
KRDR,03-27-2004,14:05,SPECI,,130,11.0,,,2400.0,Rain/Mist/Cloud Development Not Observable,6.0,6.0,29.85,,,,,61,10,0,,,,,,,,,8/8 Overcast,600.0,,OVC,600.0,,,,,,
KRDR,03-27-2004,14:00,METAR,,260,11.0,,,2400.0,Thunderstorm with Rain or Snow/Light Rain Showers/Mist,7.0,7.0,29.86,1012.6,,,,95,80,10,,,,,,,,,8/8 Overcast,600.0,,OVC,600.0,,,,,,
KRDR,03-27-2004,13:17,SPECI,,160,7.0,18.0,,2400.0,Thunderstorm with Rain or Snow/Light Rain Showers/Mist,6.0,6.0,29.85,,,,,95,80,10,,,,,,,,,8/8 Overcast,500.0,,OVC,500.0,,,,,,
KRDR,03-27-2004,13:00,METAR,,140,18.0,24.0,130/25KTS,2400.0,Drizzle/Cloud Development Not Observable,6.0,6.0,29.80,1010.4,,,,51,0,0,,,,,TRACE,,,,8/8 Overcast,700.0,,OVC,700.0,,,,,,
KRDR,03-27-2004,12:08,SPECI,,130,16.0,22.0,,3200.0,Drizzle/Mist/Cloud Development Not Observable,6.0,6.0,29.78,,,,,51,10,0,,,,,,,,,8/8 Overcast,700.0,,OVC,700.0,,,,,,
KRDR,03-27-2004,12:00,METAR,,130,16.0,,,6400.0,Mist/Cloud Development Not Observable,6.0,6.0,29.80,1010.6,,,,10,0,0,,,,,,,,,8/8 Overcast,700.0,,OVC,700.0,,,,,,
KRDR,03-27-2004,11:40,SPECI,,140,15.0,,,6400.0,Mist/Cloud Development Not Observable,6.0,6.0,29.81,,,,,10,0,0,,,,,,,,,8/8 Overcast,700.0,,OVC,700.0,,,,,,
KRDR,03-27-2004,11:10,SPECI,,140,15.0,,,9999.0,Cloud Development Not Observable,6.0,5.0,29.83,,,,,0,0,0,,,,,,,,,8/8 Overcast,1100.0,,OVC,1100.0,,,,,,
KRDR,03-27-2004,11:00,METAR,,150,17.0,,,9999.0,Cloud Development Not Observable,6.0,5.0,29.84,1011.8,,,,0,0,0,,,,,,,,,8/8 Overcast,2000.0,,SCT,1100.0,OVC,2000.0,,,,
KRDR,03-27-2004,10:00,METAR,,120,17.0,22.0,,9999.0,Cloud Development Not Observable,5.0,3.0,29.84,1011.8,,,,0,0,0,,,,,,,,,8/8 Overcast,2000.0,,BKN,2000.0,OVC,5900.0,,,,
KRDR,03-27-2004,09:00,METAR,,120,9.0,,,9999.0,Cloud Development Not Observable,5.0,2.0,29.89,1013.5,,,,0,0,0,,,,,,,,,8/8 Overcast,2000.0,,BKN,2000.0,BKN,5900.0,OVC,12000.0,,
KRDR,03-27-2004,08:40,SPECI,,120,11.0,,,9999.0,Cloud Development Not Observable,4.0,2.0,29.89,,,,,0,0,0,,,,,,,,,8/8 Overcast,2000.0,,BKN,2000.0,BKN,5900.0,OVC,12000.0,,
KRDR,03-27-2004,08:00,METAR,,110,8.0,,,9999.0,Cloud Development Not Observable,3.0,2.0,29.93,1014.9,,,,0,0,0,,,,,,,,,7/8 Mostly Cloudy,12000.0,,SCT,5900.0,BKN,12000.0,BKN,25000.0,,
KRDR,03-27-2004,07:00,METAR,,100,8.0,,,9999.0,Cloud Development Not Observable,2.0,1.0,29.96,1016.0,,,,0,0,0,,,,,,,,,7/8 Mostly Cloudy,25000.0,,SCT,12000.0,BKN,25000.0,,,,
KRDR,03-27-2004,06:00,METAR,,110,8.0,,,9999.0,Cloud Development Not Observable,3.0,1.0,29.99,1017.1,,,,0,0,0,,,,,,,,,7/8 Mostly Cloudy,25000.0,,SCT,12000.0,BKN,25000.0,,,,
KRDR,03-27-2004,05:00,METAR,,100,12.0,,,9999.0,Cloud Development Not Observable,2.0,0.0,30.01,1017.8,,,,0,0,0,,,,,,,,,7/8 Mostly Cloudy,12000.0,,BKN,12000.0,BKN,25000.0,,,,
KRDR,03-27-2004,04:00,METAR,,90,9.0,,,9999.0,Cloud Development Not Observable,2.0,0.0,30.06,1019.8,,,,0,0,0,,,,,,,,,7/8 Mostly Cloudy,12000.0,,BKN,12000.0,BKN,25000.0,,,,
KRDR,03-27-2004,03:00,METAR,,,3.0,,,9999.0,Cloud Development Not Observable,-1.0,-1.0,30.10,1021.0,,,,0,0,0,,,,,,,,,7/8 Mostly Cloudy,12000.0,,BKN,12000.0,BKN,25000.0,,,,
KRDR,03-27-2004,02:00,METAR,,50,5.0,,,9999.0,Cloud Development Not Observable,1.0,0.0,30.12,1021.7,,,,0,0,0,,,,,,,,,7/8 Mostly Cloudy,25000.0,,SCT,12000.0,BKN,25000.0,,,,
KRDR,03-27-2004,01:00,METAR,,30,8.0,,,9999.0,Cloud Development Not Observable,1.0,0.0,30.12,1021.7,,,,0,0,0,,,,,,,,,8/8 Overcast,25000.0,,SCT,12000.0,OVC,25000.0,,,,
KRDR,03-27-2004,00:00,METAR,,20,9.0,,,9999.0,Cloud Development Not Observable,1.0,0.0,30.16,1023.1,,,,0,0,0,,,,,,,,,8/8 Overcast,25000.0,,SCT,7900.0,OVC,25000.0,,,,
KRDR,03-26-2004,23:00,METAR,,60,9.0,,,9999.0,Cloud Development Not Observable,1.0,-1.0,30.19,1024.1,,,,0,0,0,,,,,,,,,8/8 Overcast,4900.0,,FEW,1500.0,SCT,5400.0,OVC,25000.0,,
KRDR,03-26-2004,22:06,SPECI,,60,9.0,,,9999.0,Cloud Development Not Observable,1.0,-2.0,30.21,,,,,0,0,0,,,,,,,,,8/8 Overcast,5500.0,,SCT,1500.0,BKN,5400.0,OVC,25000.0,,
KRDR,03-26-2004,22:00,METAR,,50,11.0,,,9999.0,Cloud Development Not Observable,1.0,-2.0,30.21,1024.8,,,,0,0,0,,,,,,,,,8/8 Overcast,1500.0,,BKN,1500.0,OVC,25000.0,,,,
KRDR,03-26-2004,21:00,METAR,,40,8.0,,,9999.0,Cloud Development Not Observable,1.0,-2.0,30.24,1025.8,,,,0,0,0,,,,,,,,,7/8 Mostly Cloudy,1300.0,,BKN,1300.0,,,,,,
KRDR,03-26-2004,20:00,METAR,,50,10.0,,,9999.0,Cloud Development Not Observable,-1.0,-3.0,30.26,1026.5,,,,0,0,0,,,,,,,,,8/8 Overcast,1100.0,,OVC,1100.0,,,,,,
KRDR,03-26-2004,19:00,METAR,,30,12.0,,,9999.0,Cloud Development Not Observable,-2.0,-3.0,30.26,1026.5,,,,0,0,0,,,,,,,,,8/8 Overcast,1100.0,,OVC,1100.0,,,,,,
KRDR,03-26-2004,18:00,METAR,,30,10.0,,,9999.0,Cloud Development Not Observable,-2.0,-4.0,30.30,1027.7,,,,0,0,0,,,,,,,,,8/8 Overcast,1100.0,,OVC,1100.0,,,,,,
KRDR,03-26-2004,17:00,METAR,,,6.0,,,9999.0,Cloud Development Not Observable,-3.0,-5.0,30.34,1029.1,,,,0,0,0,,,,,,,,,7/8 Mostly Cloudy,1100.0,,BKN,1100.0,,,,,,
KRDR,03-26-2004,16:00,METAR,,10,10.0,,,9999.0,Cloud Development Not Observable,-5.0,-5.0,30.29,1027.3,,,,0,0,0,,,,,,,,,7/8 Mostly Cloudy,1000.0,,BKN,1000.0,,,,,,
KRDR,03-26-2004,15:00,METAR,,20,12.0,,,9999.0,Cloud Development Not Observable,-6.0,-6.0,30.30,1027.7,,,,0,0,0,,,,,,,,,8/8 Overcast,700.0,,OVC,700.0,,,,,,
KRDR,03-26-2004,14:00,METAR,,20,11.0,,,9999.0,Cloud Development Not Observable,-7.0,-7.0,30.31,1028.0,,,,0,0,0,,,,,,,,,8/8 Overcast,700.0,,OVC,700.0,,,,,,
KRDR,03-26-2004,11:55,METAR,,10,12.0,,,9999.0,Cloud Development Not Observable,-7.0,-7.0,30.27,1026.6,,,,0,0,0,,,,,,,,,8/8 Overcast,600.0,,OVC,600.0,,,,,,
KRDR,03-26-2004,11:00,METAR,,360,17.0,,,9999.0,Cloud Development Not Observable,-7.0,-7.0,30.24,1025.5,,,,0,0,0,,,,,,,,,8/8 Overcast,600.0,,OVC,600.0,,,,,,
KRDR,03-26-2004,10:00,METAR,,10,14.0,,,9999.0,Cloud Development Not Observable,-6.0,-6.0,30.23,1025.1,,,,0,0,0,,,,,,,,,8/8 Overcast,600.0,,OVC,600.0,,,,,,
KRDR,03-26-2004,09:00,METAR,,360,14.0,,,9999.0,Cloud Development Not Observable,-5.0,-5.0,30.22,1024.7,,,,0,0,0,,,,,,,,,8/8 Overcast,600.0,,OVC,600.0,,,,,,
KRDR,03-26-2004,08:00,METAR,,360,14.0,,,9999.0,Cloud Development Not Observable,-4.0,-4.0,30.16,1022.8,,,,0,0,0,,,,,,,,,8/8 Overcast,600.0,,OVC,600.0,,,,,,
KRDR,03-26-2004,07:00,METAR,,360,16.0,,,9999.0,Cloud Development Not Observable,-2.0,-2.0,30.15,1022.1,,,,0,0,0,,,,,,,,,8/8 Overcast,600.0,,OVC,600.0,,,,,,
KRDR,03-26-2004,06:32,SPECI,,10,15.0,,,9999.0,Cloud Development Not Observable,-2.0,-2.0,30.13,,,,,0,0,0,,,,,,,,,8/8 Overcast,700.0,,BKN,700.0,OVC,25000.0,,,,
KRDR,03-26-2004,06:00,METAR,,10,13.0,,,9999.0,Cloud Development Not Observable,-1.0,-2.0,30.14,1021.8,,,,0,0,0,,,,,,,,,7/8 Mostly Cloudy,25000.0,,BKN,25000.0,,,,,,
KRDR,03-26-2004,05:00,METAR,,10,13.0,,,9999.0,Cloud Development Not Observable,0.0,-1.0,30.12,1020.9,,,,0,0,0,,,,,,,,,7/8 Mostly Cloudy,25000.0,,BKN,25000.0,,,,,,
KRDR,03-26-2004,04:00,METAR,,350,13.0,,,9999.0,Cloud Development Not Observable,3.0,1.0,30.09,1020.1,,,,0,0,0,,,,,,,,,7/8 Mostly Cloudy,25000.0,,BKN,25000.0,,,,,,
KRDR,03-26-2004,03:00,METAR,,280,8.0,,,9999.0,Cloud Development Not Observable,2.0,0.0,30.05,1019.1,,,,0,0,0,,,,,,,,,2/8 Mostly Clear,72000.0,,FEW,25000.0,,,,,,
KRDR,03-26-2004,02:00,METAR,,290,9.0,,,9999.0,Cloud Development Not Observable,4.0,1.0,30.02,1017.8,,,,0,0,0,,,,,,,,,2/8 Mostly Clear,72000.0,,FEW,25000.0,,,,,,
KRDR,03-26-2004,01:00,METAR,,310,12.0,,,9999.0,Cloud Development Not Observable,6.0,2.0,29.98,1016.4,,,,0,0,0,,,,,,,,,4/8 Partly Cloudy,72000.0,,FEW,9900.0,SCT,25000.0,,,,
KRDR,03-25-2004,23:55,METAR,,290,7.0,,,9999.0,Cloud Development Not Observable,9.0,3.0,29.96,1015.6,,,,0,0,0,,,,,,,,,7/8 Mostly Cloudy,25000.0,,BKN,25000.0,,,,,,
KRDR,03-25-2004,23:00,METAR,,300,9.0,,,9999.0,Cloud Development Not Observable,12.0,4.0,29.93,1014.5,,,,0,0,0,,,,,,,,,4/8 Partly Cloudy,72000.0,,SCT,25000.0,,,,,,
KRDR,03-25-2004,22:00,METAR,,310,7.0,,,9999.0,Cloud Development Not Observable,13.0,5.0,29.90,1013.4,,,,0,0,0,,,,,,,,,2/8 Mostly Clear,72000.0,,FEW,25000.0,,,,,,
KRDR,03-25-2004,21:00,METAR,,320,9.0,,,9999.0,Cloud Development Not Observable,13.0,8.0,29.88,1012.9,,,,0,0,0,,,,,,,,,2/8 Mostly Clear,72000.0,,FEW,25000.0,,,,,,
KRDR,03-25-2004,20:00,METAR,,300,11.0,,,9999.0,Cloud Development Not Observable,13.0,9.0,29.86,1012.4,,,,0,0,0,,,,,,,,,2/8 Mostly Clear,72000.0,,FEW,15000.0,,,,,,
KRDR,03-25-2004,19:00,METAR,,290,12.0,,,9999.0,Cloud Development Not Observable,13.0,7.0,29.83,1011.4,,,,0,0,0,,,,,,,,,2/8 Mostly Clear,72000.0,,FEW,15000.0,,,,,,
KRDR,03-25-2004,18:00,METAR,,270,8.0,,,9999.0,Cloud Development Not Observable,12.0,8.0,29.82,1011.0,,,,0,0,0,,,,,,,,,4/8 Partly Cloudy,72000.0,,SCT,15000.0,,,,,,
KRDR,03-25-2004,16:00,METAR,,150,15.0,,,6400.0,Mist/Cloud Development Not Observable,6.0,4.0,29.76,1009.1,,,,10,0,0,,,,,,,,,8/8 Overcast,15000.0,,SCT,5000.0,OVC,15000.0,,,,
KRDR,03-25-2004,15:01,SPECI,,160,12.0,,,4800.0,Mist/Cloud Development Not Observable,4.0,4.0,29.80,,,,,10,0,0,,,,,,,,,8/8 Overcast,12000.0,,SCT,5900.0,OVC,12000.0,,,,
KRDR,03-25-2004,15:00,METAR,,150,8.0,,,4000.0,Mist/Cloud Development Not Observable,4.0,4.0,29.81,1010.9,,,,10,0,0,,,,,,,,,8/8 Overcast,12000.0,,SCT,5900.0,OVC,12000.0,,,,
KRDR,03-25-2004,14:00,METAR,,160,5.0,,160/25KTS,4800.0,Mist/Cloud Development Not Observable,4.0,4.0,29.84,1012.0,,,,10,0,0,,,,,,,,,8/8 Overcast,12000.0,,FEW,1000.0,OVC,12000.0,,,,
KRDR,03-25-2004,13:00,METAR,,,4.0,,,4800.0,Mist/Cloud Development Not Observable,4.0,4.0,29.85,1012.2,,,,10,0,0,,,,,,,,,8/8 Overcast,4900.0,,BKN,5000.0,OVC,12000.0,,,,
KRDR,03-25-2004,12:00,METAR,,170,12.0,,,8000.0,Mist/Cloud Development Not Observable,3.0,3.0,29.78,1009.5,,,,10,0,0,,,,,,,,,4/8 Partly Cloudy,72000.0,,SCT,20000.0,,,,,,
KRDR,03-25-2004,11:00,METAR,,160,8.0,,,9999.0,Cloud Development Not Observable,2.0,2.0,29.79,1009.9,,,,0,0,0,,,,,,,,,4/8 Partly Cloudy,72000.0,,SCT,20000.0,,,,,,
KRDR,03-25-2004,10:00,METAR,,170,6.0,,,9999.0,Cloud Development Not Observable,1.0,1.0,29.79,1009.9,,,,0,0,0,,,,,,,,,4/8 Partly Cloudy,72000.0,,SCT,20000.0,,,,,,
KRDR,03-25-2004,09:00,METAR,,170,5.0,,,9999.0,Cloud Development Not Observable,1.0,1.0,29.80,1010.2,,,,0,0,0,,,,,,,,,4/8 Partly Cloudy,72000.0,,SCT,20000.0,,,,,,
KRDR,03-25-2004,08:00,METAR,,150,4.0,,,9999.0,Cloud Development Not Observable,2.0,2.0,29.81,1010.7,,,,0,0,0,,,,,,,,,4/8 Partly Cloudy,72000.0,,SCT,20000.0,,,,,,
KRDR,03-25-2004,07:00,METAR,,150,4.0,,,9999.0,Cloud Development Not Observable,0.0,0.0,29.84,1011.7,,,,0,0,0,,,,,,,,,4/8 Partly Cloudy,72000.0,,SCT,20000.0,,,,,,
KRDR,03-25-2004,06:00,METAR,,200,4.0,,,9999.0,Cloud Development Not Observable,0.0,0.0,29.85,1012.1,,,,0,0,0,,,,,,,,,4/8 Partly Cloudy,72000.0,,SCT,20000.0,,,,,,
KRDR,03-25-2004,05:00,METAR,,150,7.0,,,9999.0,Cloud Development Not Observable,2.0,2.0,29.84,1011.8,,,,0,0,0,,,,,,,,,2/8 Mostly Clear,72000.0,,FEW,20000.0,,,,,,
KRDR,03-25-2004,04:00,METAR,,150,7.0,,,9999.0,Cloud Development Not Observable,3.0,2.0,29.85,1012.2,,,,0,0,0,,,,,,,,,Clear,72000.0,,,73000.0,,,,,,
KRDR,03-25-2004,03:00,METAR,,190,8.0,,,9999.0,Cloud Development Not Observable,2.0,2.0,29.86,1012.5,,,,0,0,0,,,,,,,,,Clear,72000.0,,,73000.0,,,,,,
KRDR,03-25-2004,02:00,METAR,,150,4.0,,,9999.0,Cloud Development Not Observable,3.0,2.0,29.85,1012.1,,,,0,0,0,,,,,,,,,2/8 Mostly Clear,72000.0,,FEW,20000.0,,,,,,
KRDR,03-25-2004,01:00,METAR,,,1.0,,,9999.0,Cloud Development Not Observable,6.0,2.0,29.84,1011.8,,,,0,0,0,,,,,,,,,4/8 Partly Cloudy,72000.0,,SCT,20000.0,,,,,,
KRDR,03-25-2004,00:00,METAR,,200,3.0,,,9999.0,Cloud Development Not Observable,8.0,3.0,29.84,1011.8,,,,0,0,0,,,,,,,,,4/8 Partly Cloudy,72000.0,,SCT,20000.0,,,,,,
KRDR,03-24-2004,23:00,METAR,,200,6.0,,,9999.0,Cloud Development Not Observable,9.0,4.0,29.83,1011.5,,,,0,0,0,,,,,,,,,2/8 Mostly Clear,72000.0,,FEW,20000.0,,,,,,
KRDR,03-24-2004,22:00,METAR,,280,4.0,,,9999.0,Cloud Development Not Observable,9.0,4.0,29.82,1011.1,,,,0,0,0,,,,,,,,,2/8 Mostly Clear,72000.0,,FEW,5900.0,,,,,,
KRDR,03-24-2004,21:00,METAR,,210,6.0,,,9999.0,Cloud Development Not Observable,9.0,4.0,29.82,1010.9,,,,0,0,0,,,,,,,,,2/8 Mostly Clear,72000.0,,FEW,5900.0,,,,,,
KRDR,03-24-2004,20:00,METAR,,320,3.0,,,9999.0,Cloud Development Not Observable,7.0,3.0,29.82,1011.2,,,,0,0,0,,,,,,,,,2/8 Mostly Clear,72000.0,,FEW,5900.0,,,,,,
KRDR,03-24-2004,19:00,METAR,,320,10.0,,,9999.0,Cloud Development Not Observable,8.0,4.0,29.80,1010.4,,,,0,0,0,,,,,,,,,7/8 Mostly Cloudy,6000.0,,BKN,5900.0,BKN,25000.0,,,,
KRDR,03-24-2004,18:00,METAR,,330,11.0,,,9999.0,Cloud Development Not Observable,7.0,4.0,29.76,1009.0,,,,0,0,0,,,,,,,,,4/8 Partly Cloudy,72000.0,,SCT,5900.0,,,,,,
KRDR,03-24-2004,17:00,METAR,,330,9.0,,,9999.0,Cloud Development Not Observable,5.0,3.0,29.75,1008.7,,,,0,0,0,,,,,,,,,7/8 Mostly Cloudy,8000.0,,FEW,5000.0,BKN,7900.0,,,,
KRDR,03-24-2004,16:00,METAR,,300,9.0,,,9999.0,Cloud Development Not Observable,5.0,2.0,29.77,1009.5,,,,0,0,0,,,,,,,,,7/8 Mostly Cloudy,6000.0,,BKN,5900.0,BKN,25000.0,,,,
KRDR,03-24-2004,15:00,METAR,,260,6.0,,,9999.0,Cloud Development Not Observable,5.0,2.0,29.75,1009.4,,,,0,0,0,,,,,,,,,7/8 Mostly Cloudy,6000.0,,BKN,5900.0,BKN,25000.0,,,,
KRDR,03-24-2004,14:00,METAR,,280,10.0,,,9999.0,Mist/Cloud Development Not Observable,4.0,2.0,29.73,1008.2,,,,10,0,0,,,,,,,,,8/8 Overcast,7000.0,,BKN,6900.0,OVC,25000.0,,,,
KRDR,03-24-2004,12:00,METAR,,200,13.0,,,9999.0,Mist/Cloud Development Not Observable,2.0,1.0,29.66,1005.8,,,,10,0,0,,,,,,,,,7/8 Mostly Cloudy,25000.0,,BKN,25000.0,,,,,,
KRDR,03-24-2004,11:00,METAR,,190,13.0,,,9999.0,Cloud Development Not Observable,2.0,1.0,29.64,1005.2,,,,0,0,0,,,,,,,,,Clear,72000.0,,,73000.0,,,,,,
KRDR,03-24-2004,10:00,METAR,,180,12.0,,,9999.0,Cloud Development Not Observable,2.0,1.0,29.64,1005.3,,,,0,0,0,,,,,,,,,Clear,72000.0,,,73000.0,,,,,,
KRDR,03-24-2004,09:00,METAR,,180,13.0,,,9999.0,Cloud Development Not Observable,2.0,1.0,29.67,1006.1,,,,0,0,0,,,,,,,,,Clear,72000.0,,,73000.0,,,,,,
KRDR,03-24-2004,08:00,METAR,,180,16.0,,,9999.0,Cloud Development Not Observable,2.0,1.0,29.70,1007.0,,,,0,0,0,,,,,,,,,Clear,72000.0,,,73000.0,,,,,,
KRDR,03-24-2004,07:00,METAR,,170,13.0,,,9999.0,Cloud Development Not Observable,3.0,1.0,29.73,1008.1,,,,0,0,0,,,,,,,,,Clear,72000.0,,,73000.0,,,,,,
KRDR,03-24-2004,06:00,METAR,,170,12.0,,,9999.0,Cloud Development Not Observable,3.0,1.0,29.76,1009.2,,,,0,0,0,,,,,,,,,4/8 Partly Cloudy,72000.0,,SCT,11000.0,,,,,,
KRDR,03-24-2004,05:00,METAR,,160,9.0,,,9999.0,Cloud Development Not Observable,3.0,2.0,29.81,1010.9,,,,0,0,0,,,,,,,,,4/8 Partly Cloudy,72000.0,,SCT,11000.0,,,,,,
KRDR,03-24-2004,04:00,METAR,,160,9.0,,,9999.0,Cloud Development Not Observable,2.0,1.0,29.82,1011.4,,,,0,0,0,,,,,,,,,7/8 Mostly Cloudy,11000.0,,BKN,11000.0,,,,,,
KRDR,03-24-2004,03:00,METAR,,140,7.0,,,9999.0,Cloud Development Not Observable,1.0,0.0,29.85,1012.5,,,,0,0,0,,,,,,,,,7/8 Mostly Cloudy,10000.0,,BKN,9900.0,,,,,,
KRDR,03-24-2004,02:00,METAR,,150,8.0,,,9999.0,Cloud Development Not Observable,1.0,0.0,29.86,1012.9,,,,0,0,0,,,,,,,,,7/8 Mostly Cloudy,8000.0,,BKN,7900.0,,,,,,
KRDR,03-24-2004,01:00,METAR,,140,9.0,,,9999.0,Cloud Development Not Observable,1.0,-1.0,29.87,1013.3,,,,0,0,0,,,,,,,,,7/8 Mostly Cloudy,11000.0,,BKN,11000.0,,,,,,
KRDR,03-24-2004,00:00,METAR,,140,14.0,,,9999.0,Cloud Development Not Observable,1.0,-1.0,29.88,1013.6,,,,0,0,0,,,,,,,,,2/8 Mostly Clear,72000.0,,FEW,9900.0,FEW,25000.0,,,,
KRDR,03-23-2004,23:00,METAR,,170,13.0,,,9999.0,Cloud Development Not Observable,2.0,-2.0,29.94,1015.5,,,,0,0,0,,,,,,,,,4/8 Partly Cloudy,72000.0,,SCT,25000.0,,,,,,
KRDR,03-23-2004,22:00,METAR,,160,13.0,,,9999.0,Cloud Development Not Observable,1.0,-3.0,29.97,1016.5,,,,0,0,0,,,,,,,,,7/8 Mostly Cloudy,25000.0,,FEW,15000.0,BKN,25000.0,,,,
KRDR,03-23-2004,21:00,METAR,,160,14.0,,,9999.0,Cloud Development Not Observable,1.0,-4.0,30.01,1017.9,,,,0,0,0,,,,,,,,,7/8 Mostly Cloudy,25000.0,,FEW,15000.0,BKN,25000.0,,,,
KRDR,03-23-2004,20:00,METAR,,160,14.0,,,9999.0,Cloud Development Not Observable,1.0,-4.0,30.05,1019.3,,,,0,0,0,,,,,,,,,7/8 Mostly Cloudy,25000.0,,BKN,25000.0,,,,,,
KRDR,03-23-2004,19:00,METAR,,140,10.0,,,9999.0,Cloud Development Not Observable,0.0,-4.0,30.08,1020.4,,,,0,0,0,,,,,,,,,7/8 Mostly Cloudy,25000.0,,BKN,25000.0,,,,,,
KRDR,03-23-2004,18:00,METAR,,140,10.0,,,9999.0,Cloud Development Not Observable,-2.0,-7.0,30.10,1021.2,,,,0,0,0,,,,,,,,,7/8 Mostly Cloudy,4900.0,,BKN,5000.0,,,,,,
KRDR,03-23-2004,17:00,METAR,,140,11.0,,,9999.0,Cloud Development Not Observable,-3.0,-9.0,30.14,1022.5,,,,0,0,0,,,,,,,,,7/8 Mostly Cloudy,25000.0,,BKN,25000.0,,,,,,
KRDR,03-23-2004,16:00,METAR,,140,9.0,,,9999.0,Cloud Development Not Observable,-4.0,-10.0,30.16,1023.2,,,,0,0,0,,,,,,,,,7/8 Mostly Cloudy,25000.0,,BKN,25000.0,,,,,,
KRDR,03-23-2004,15:00,METAR,,110,8.0,,,9999.0,Cloud Development Not Observable,-5.0,-12.0,30.17,1023.6,,,,0,0,0,,,,,,,,,7/8 Mostly Cloudy,25000.0,,BKN,25000.0,,,,,,
KRDR,03-23-2004,14:00,METAR,,90,6.0,,,9999.0,Cloud Development Not Observable,-7.0,-11.0,30.18,1024.0,,,,0,0,0,,,,,,,,,7/8 Mostly Cloudy,12000.0,,BKN,12000.0,,,,,,
KRDR,03-23-2004,13:00,METAR,,80,3.0,,,9999.0,Cloud Development Not Observable,-8.0,-11.0,30.19,1024.3,,,,0,0,0,,,,,,,,,4/8 Partly Cloudy,72000.0,,SCT,12000.0,,,,,,
KRDR,03-23-2004,12:00,METAR,,80,7.0,,,9999.0,Cloud Development Not Observable,-8.0,-11.0,30.18,1023.7,,,,0,0,0,,,,,,,,,2/8 Mostly Clear,72000.0,,FEW,12000.0,,,,,,
KRDR,03-23-2004,11:00,METAR,,60,7.0,,,9999.0,Cloud Development Not Observable,-7.0,-10.0,30.18,1023.7,,,,0,0,0,,,,,,,,,2/8 Mostly Clear,72000.0,,FEW,12000.0,,,,,,
KRDR,03-23-2004,10:00,METAR,,50,7.0,,,9999.0,Cloud Development Not Observable,-6.0,-8.0,30.18,1023.6,,,,0,0,0,,,,,,,,,4/8 Partly Cloudy,72000.0,,SCT,12000.0,,,,,,
KRDR,03-23-2004,09:00,METAR,,30,8.0,,,9999.0,Cloud Development Not Observable,-6.0,-7.0,30.19,1024.0,,,,0,0,0,,,,,,,,,4/8 Partly Cloudy,72000.0,,SCT,12000.0,,,,,,
KRDR,03-23-2004,08:00,METAR,,20,10.0,,,9999.0,Cloud Development Not Observable,-5.0,-6.0,30.19,1023.9,,,,0,0,0,,,,,,,,,4/8 Partly Cloudy,72000.0,,FEW,3000.0,SCT,12000.0,,,,
KRDR,03-23-2004,07:00,METAR,,360,11.0,,,9999.0,Cloud Development Not Observable,-5.0,-5.0,30.18,1023.6,,,,0,0,0,,,,,,,,,7/8 Mostly Cloudy,20000.0,,FEW,3200.0,BKN,20000.0,,,,
KRDR,03-23-2004,06:00,METAR,,360,11.0,,,9999.0,Cloud Development Not Observable,-4.0,-5.0,30.18,1023.6,,,,0,0,0,,,,,,,,,4/8 Partly Cloudy,72000.0,,SCT,3200.0,,,,,,
KRDR,03-23-2004,05:00,METAR,,360,12.0,,,9999.0,Cloud Development Not Observable,-2.0,-4.0,30.16,1022.9,,,,0,0,0,,,,,,,,,8/8 Overcast,3100.0,,FEW,2000.0,OVC,3200.0,,,,
KRDR,03-23-2004,04:00,METAR,,10,9.0,,,9999.0,Cloud Development Not Observable,-1.0,-2.0,30.15,1022.5,,,,0,0,0,,,,,,,,,8/8 Overcast,3100.0,,BKN,3100.0,OVC,5000.0,,,,
KRDR,03-23-2004,03:00,METAR,,10,8.0,,,9999.0,Cloud Development Not Observable,-2.0,-2.0,30.14,1022.5,,,,0,0,0,,,,,,,,,7/8 Mostly Cloudy,4400.0,,SCT,2800.0,BKN,4500.0,,,,
KRDR,03-23-2004,02:00,METAR,,20,8.0,,,9999.0,Cloud Development Not Observable,-1.0,-2.0,30.11,1021.4,,,,0,0,0,,,,,,,,,4/8 Partly Cloudy,72000.0,,FEW,5000.0,SCT,20000.0,,,,
KRDR,03-23-2004,01:00,METAR,,20,13.0,,,9999.0,Cloud Development Not Observable,1.0,-1.0,30.10,1021.0,,,,0,0,0,,,,,,,,,4/8 Partly Cloudy,72000.0,,FEW,7900.0,SCT,20000.0,,,,
KRDR,03-23-2004,00:00,METAR,,290,6.0,,,9999.0,Cloud Development Not Observable,3.0,-2.0,30.07,1020.0,,,,0,0,0,,,,,,,,,4/8 Partly Cloudy,72000.0,,SCT,7900.0,SCT,20000.0,,,,
KRDR,03-22-2004,23:00,METAR,,300,7.0,,,9999.0,Cloud Development Not Observable,3.0,-1.0,30.08,1020.4,,,,0,0,0,,,,,,,,,4/8 Partly Cloudy,72000.0,,SCT,9900.0,SCT,20000.0,,,,
KRDR,03-22-2004,22:00,METAR,,300,8.0,,,9999.0,Cloud Development Not Observable,4.0,-1.0,30.09,1020.7,,,,0,0,0,,,,,,,,,4/8 Partly Cloudy,72000.0,,SCT,20000.0,,,,,,
KRDR,03-22-2004,21:00,METAR,,290,8.0,,,9999.0,Cloud Development Not Observable,3.0,-1.0,30.09,1020.7,,,,0,0,0,,,,,,,,,7/8 Mostly Cloudy,20000.0,,BKN,20000.0,,,,,,
KRDR,03-22-2004,20:00,METAR,,270,8.0,,,9999.0,Cloud Development Not Observable,4.0,-2.0,30.12,1021.8,,,,0,0,0,,,,,,,,,7/8 Mostly Cloudy,25000.0,,BKN,25000.0,,,,,,
KRDR,03-22-2004,19:00,METAR,,280,8.0,,,9999.0,Cloud Development Not Observable,3.0,-3.0,30.13,1022.2,,,,0,0,0,,,,,,,,,7/8 Mostly Cloudy,25000.0,,BKN,25000.0,,,,,,
KRDR,03-22-2004,18:00,METAR,,270,8.0,,,9999.0,Cloud Development Not Observable,2.0,-3.0,30.15,1024.9,,,,0,0,0,,,,,,,,,7/8 Mostly Cloudy,25000.0,,BKN,25000.0,,,,,,
KRDR,03-22-2004,17:00,METAR,,,5.0,,,9999.0,Cloud Development Not Observable,1.0,-4.0,30.19,1024.4,,,,0,0,0,,,,,,,,,7/8 Mostly Cloudy,25000.0,,BKN,25000.0,,,,,,
KRDR,03-22-2004,16:00,METAR,,290,9.0,,,9999.0,Cloud Development Not Observable,0.0,-5.0,30.20,1024.7,,,,0,0,0,,,,,,,,,7/8 Mostly Cloudy,25000.0,,BKN,25000.0,,,,,,
KRDR,03-22-2004,15:00,METAR,,,5.0,,,9999.0,Cloud Development Not Observable,-2.0,-5.0,30.21,1025.2,,,,0,0,0,,,,,,,,,4/8 Partly Cloudy,72000.0,,SCT,25000.0,,,,,,
KRDR,03-22-2004,14:00,METAR,,210,10.0,,,9999.0,Cloud Development Not Observable,-4.0,-6.0,30.21,1025.3,,,,0,0,0,,,,,,,,,4/8 Partly Cloudy,72000.0,,SCT,25000.0,,,,,,
KRDR,03-22-2004,13:00,METAR,,210,10.0,,,9999.0,Cloud Development Not Observable,-7.0,-8.0,30.23,1025.9,,,,0,0,0,,,,,,,,,4/8 Partly Cloudy,72000.0,,SCT,25000.0,,,,,,
KRDR,03-22-2004,12:00,METAR,,200,10.0,,,9999.0,Cloud Development Not Observable,-8.0,-8.0,30.25,1026.6,,,,0,0,0,,,,,,,,,Clear,72000.0,,,73000.0,,,,,,
KRDR,03-22-2004,11:00,METAR,,210,13.0,,,9999.0,Cloud Development Not Observable,-8.0,-8.0,30.28,1027.4,,,,0,0,0,,,,,,,,,Clear,72000.0,,,73000.0,,,,,,
KRDR,03-22-2004,10:00,METAR,,200,11.0,,,9999.0,Cloud Development Not Observable,-8.0,-8.0,30.31,1028.5,,,,0,0,0,,,,,,,,,Clear,72000.0,,,73000.0,,,,,,
KRDR,03-22-2004,09:00,METAR,,200,8.0,,,9999.0,Cloud Development Not Observable,-8.0,-8.0,30.34,1029.7,,,,0,0,0,,,,,,,,,Clear,72000.0,,,73000.0,,,,,,
KRDR,03-22-2004,08:00,METAR,,200,8.0,,,9999.0,Cloud Development Not Observable,-8.0,-9.0,30.36,1030.4,,,,0,0,0,,,,,,,,,Clear,72000.0,,,73000.0,,,,,,
KRDR,03-22-2004,07:00,METAR,,200,9.0,,,9999.0,Cloud Development Not Observable,-9.0,-9.0,30.39,1031.4,,,,0,0,0,,,,,,,,,Clear,72000.0,,,73000.0,,,,,,
KRDR,03-22-2004,06:00,METAR,,190,9.0,,,9999.0,Cloud Development Not Observable,-9.0,-9.0,30.42,1032.4,,,,0,0,0,,,,,,,,,Clear,72000.0,,,73000.0,,,,,,
KRDR,03-22-2004,05:00,METAR,,170,8.0,,,9999.0,Cloud Development Not Observable,-9.0,-9.0,30.45,1033.6,,,,0,0,0,,,,,,,,,Clear,72000.0,,,73000.0,,,,,,
KRDR,03-22-2004,04:00,METAR,,180,7.0,,,9999.0,Cloud Development Not Observable,-9.0,-9.0,30.48,1034.6,,,,0,0,0,,,,,,,,,Clear,72000.0,,,73000.0,,,,,,
KRDR,03-22-2004,03:00,METAR,,170,8.0,,,9999.0,Cloud Development Not Observable,-8.0,-9.0,30.50,1035.2,,,,0,0,0,,,,,,,,,Clear,72000.0,,,73000.0,,,,,,
KRDR,03-22-2004,02:00,METAR,,190,8.0,,,9999.0,Cloud Development Not Observable,-8.0,-9.0,30.52,1036.9,,,,0,0,0,,,,,,,,,4/8 Partly Cloudy,72000.0,,FEW,15000.0,SCT,25000.0,,,,
KRDR,03-22-2004,01:00,METAR,,180,6.0,,,9999.0,Cloud Development Not Observable,-8.0,-9.0,30.54,1036.7,,,,0,0,0,,,,,,,,,4/8 Partly Cloudy,72000.0,,FEW,15000.0,SCT,25000.0,,,,
KRDR,03-22-2004,00:00,METAR,,180,7.0,,,9999.0,Cloud Development Not Observable,-6.0,-9.0,30.55,1037.0,,,,0,0,0,,,,,,,,,4/8 Partly Cloudy,72000.0,,SCT,15000.0,SCT,20000.0,,,,
KRDR,03-21-2004,23:00,METAR,,,5.0,,,9999.0,Cloud Development Not Observable,-6.0,-9.0,30.58,1037.9,,,,0,0,0,,,,,,,,,7/8 Mostly Cloudy,15000.0,,BKN,15000.0,BKN,20000.0,,,,
KRDR,03-21-2004,22:00,METAR,,340,3.0,,,9999.0,Cloud Development Not Observable,-6.0,-10.0,30.60,1038.6,,,,0,0,0,,,,,,,,,7/8 Mostly Cloudy,16000.0,,FEW,1500.0,BKN,16000.0,,,,
KRDR,03-21-2004,21:00,METAR,,,4.0,,,9999.0,Cloud Development Not Observable,-6.0,-10.0,30.64,1040.0,,,,0,0,0,,,,,,,,,7/8 Mostly Cloudy,18000.0,,FEW,1500.0,BKN,18000.0,,,,
KRDR,03-21-2004,20:00,METAR,,50,1.0,,,9999.0,Cloud Development Not Observable,-7.0,-10.0,30.67,1040.9,,,,0,0,0,,,,,,,,,7/8 Mostly Cloudy,20000.0,,FEW,1500.0,BKN,20000.0,,,,
KRDR,03-21-2004,19:00,METAR,,,5.0,,,9999.0,Cloud Development Not Observable,-7.0,-10.0,30.70,1042.0,,,,0,0,0,,,,,,,,,7/8 Mostly Cloudy,12000.0,,FEW,1500.0,SCT,12000.0,BKN,20000.0,,
KRDR,03-21-2004,18:00,METAR,,,5.0,,,9999.0,Cloud Development Not Observable,-8.0,-10.0,30.72,1042.7,,,,0,0,0,,,,,,,,,7/8 Mostly Cloudy,15000.0,,FEW,1500.0,SCT,15000.0,BKN,20000.0,,
KRDR,03-21-2004,17:00,METAR,,,5.0,,,9999.0,Cloud Development Not Observable,-9.0,-10.0,30.75,1043.7,,,,0,0,0,,,,,,,,,7/8 Mostly Cloudy,15000.0,,FEW,1500.0,SCT,15000.0,BKN,20000.0,,
KRDR,03-21-2004,16:00,METAR,,,6.0,,,9999.0,Cloud Development Not Observable,-10.0,-11.0,30.76,1044.1,,,,0,0,0,,,,,,,,,4/8 Partly Cloudy,72000.0,,FEW,15000.0,SCT,20000.0,,,,
KRDR,03-21-2004,15:00,METAR,,330,7.0,,,9999.0,Cloud Development Not Observable,-12.0,-12.0,30.77,1044.4,,,,0,0,0,,,,,,,,,2/8 Mostly Clear,72000.0,,FEW,20000.0,,,,,,
KRDR,03-21-2004,14:00,METAR,,310,7.0,,,9999.0,Cloud Development Not Observable,-12.0,-13.0,30.78,1044.8,,,,0,0,0,,,,,,,,,2/8 Mostly Clear,72000.0,,FEW,20000.0,,,,,,
KRDR,03-21-2004,13:00,METAR,,310,5.0,,,9999.0,Cloud Development Not Observable,-14.0,-14.0,30.79,1045.2,,,,0,0,0,,,,,,,,,2/8 Mostly Clear,72000.0,,FEW,20000.0,,,,,,
KRDR,03-21-2004,12:00,METAR,,310,5.0,,,9999.0,Cloud Development Not Observable,-14.0,-14.0,30.79,1045.1,,,,0,0,0,,,,,,,,,Clear,72000.0,,,73000.0,,,,,,
KRDR,03-21-2004,11:00,METAR,,340,6.0,,,9999.0,Cloud Development Not Observable,-13.0,-13.0,30.80,1045.5,,,,0,0,0,,,,,,,,,Clear,72000.0,,,73000.0,,,,,,
KRDR,03-21-2004,10:00,METAR,,350,10.0,,,9999.0,Cloud Development Not Observable,-12.0,-12.0,30.80,1045.5,,,,0,0,0,,,,,,,,,Clear,72000.0,,,73000.0,,,,,,
KRDR,03-21-2004,09:00,METAR,,340,8.0,,,9999.0,Cloud Development Not Observable,-12.0,-13.0,30.82,1046.2,,,,0,0,0,,,,,,,,,Clear,72000.0,,,73000.0,,,,,,
KRDR,03-21-2004,08:00,METAR,,350,8.0,,,9999.0,Cloud Development Not Observable,-12.0,-12.0,30.82,1046.2,,,,0,0,0,,,,,,,,,Clear,72000.0,,,73000.0,,,,,,
KRDR,03-21-2004,07:00,METAR,,360,15.0,,,9999.0,Cloud Development Not Observable,-11.0,-11.0,30.82,1046.2,,,,0,0,0,,,,,,,,,2/8 Mostly Clear,72000.0,,FEW,1500.0,,,,,,
KRDR,03-21-2004,06:00,METAR,,350,10.0,,,9999.0,Cloud Development Not Observable,-10.0,-11.0,30.81,1045.8,,,,0,0,0,,,,,,,IN,,2/8 Mostly Clear,72000.0,,FEW,1500.0,,,,,,
KRDR,03-21-2004,05:00,METAR,,340,10.0,,,9999.0,Cloud Development Not Observable,-10.0,-11.0,30.81,1045.8,,,,0,0,0,,,,,,,,,4/8 Partly Cloudy,72000.0,,SCT,1500.0,,,,,,
KRDR,03-21-2004,04:00,METAR,,350,12.0,,,9999.0,Cloud Development Not Observable,-10.0,-11.0,30.80,1045.5,,,,0,0,0,,,,,,,,,2/8 Mostly Clear,72000.0,,FEW,1900.0,,,,,,
KRDR,03-21-2004,03:05,SPECI,,350,13.0,,,9999.0,Cloud Development Not Observable,-10.0,-10.0,30.79,,,,,0,0,0,,,,,,,,,4/8 Partly Cloudy,72000.0,,SCT,1900.0,,,,,,
KRDR,03-21-2004,03:00,METAR,,350,14.0,,,9999.0,Light Snow/Cloud Development Not Observable,-9.0,-10.0,30.79,1045.1,,,,71,0,0,,,,,,TRACE,,,7/8 Mostly Cloudy,2000.0,,BKN,2000.0,,,,,,
KRDR,03-21-2004,02:00,METAR,,10,13.0,,,9999.0,Light Snow/Cloud Development Not Observable,-9.0,-9.0,30.76,1044.1,,,,71,0,0,,,,,,,,,7/8 Mostly Cloudy,2000.0,,BKN,2000.0,,,,,,
KRDR,03-21-2004,01:43,SPECI,,10,12.0,,,9999.0,Light Snow/Cloud Development Not Observable,-9.0,-9.0,30.76,,,,,71,0,0,,,,,,,,,7/8 Mostly Cloudy,2000.0,,BKN,2000.0,,,,,,
KRDR,03-21-2004,01:10,SPECI,,360,13.0,,,9999.0,Light Snow/Cloud Development Not Observable,-9.0,-9.0,30.75,,,,,71,0,0,,,,,,,,,4/8 Partly Cloudy,72000.0,,SCT,2000.0,,,,,,
KRDR,03-21-2004,01:00,METAR,,10,15.0,,,9999.0,Cloud Development Not Observable,-9.0,-9.0,30.74,1043.3,,,,0,0,0,,,,,,,,,4/8 Partly Cloudy,72000.0,,SCT,2000.0,,,,,,
KRDR,03-21-2004,00:26,SPECI,,360,14.0,,,9999.0,Cloud Development Not Observable,-8.0,-8.0,30.73,,,,,0,0,0,,,,,,,,,4/8 Partly Cloudy,72000.0,,FEW,700.0,SCT,1500.0,,,,
KRDR,03-21-2004,00:00,METAR,,350,15.0,,,9999.0,Light Snow/Cloud Development Not Observable,-7.0,-8.0,30.72,1042.6,,,,71,0,0,,,,,TRACE,,IN,,4/8 Partly Cloudy,72000.0,,SCT,1700.0,,,,,,
KRDR,03-20-2004,23:39,SPECI,,350,16.0,,,9999.0,Light Snow/Cloud Development Not Observable,-7.0,-8.0,30.71,,,,,71,0,0,,,,,,,,,4/8 Partly Cloudy,72000.0,,SCT,1800.0,,,,,,
KRDR,03-20-2004,23:00,METAR,,350,17.0,23.0,350/25KTS,9999.0,Cloud Development Not Observable,-6.0,-8.0,30.69,1041.5,,,,0,0,0,,,,,,,,,4/8 Partly Cloudy,72000.0,,SCT,1800.0,,,,,,
KRDR,03-20-2004,22:00,METAR,,360,18.0,24.0,330/25KTS,9999.0,Cloud Development Not Observable,-6.0,-8.0,30.67,1040.7,,,,0,0,0,,,,,,,,,4/8 Partly Cloudy,72000.0,,SCT,1800.0,,,,,,
KRDR,03-20-2004,21:00,METAR,,350,17.0,,,9999.0,Cloud Development Not Observable,-6.0,-8.0,30.66,1040.3,,,,0,0,0,,,,,,TRACE,,,4/8 Partly Cloudy,72000.0,,SCT,1800.0,,,,,,
KRDR,03-20-2004,20:00,METAR,,350,20.0,,320/28KTS,9999.0,Cloud Development Not Observable,-7.0,-9.0,30.62,1039.1,,,,0,0,0,,,,,TRACE,,,,7/8 Mostly Cloudy,1800.0,,BKN,1800.0,,,,,,
KRDR,03-20-2004,19:12,SPECI,,330,19.0,28.0,,9999.0,Cloud Development Not Observable,-7.0,-9.0,30.61,,,,,0,0,0,,,,,,,,,7/8 Mostly Cloudy,2000.0,,SCT,1200.0,BKN,2000.0,,,,
KRDR,03-20-2004,19:00,METAR,,350,21.0,25.0,340/30KTS,9999.0,Light Snow/Mist/Cloud Development Not Observable,-7.0,-9.0,30.61,1038.6,,,,71,10,0,,,,,TRACE,,,,7/8 Mostly Cloudy,1800.0,,SCT,1200.0,BKN,1800.0,,,,
KRDR,03-20-2004,18:25,METAR,,350,20.0,26.0,,6400.0,Light Snow/Mist/Cloud Development Not Observable,-8.0,-10.0,30.60,,,,,71,10,0,,,,,,,,,7/8 Mostly Cloudy,1200.0,,FEW,900.0,SCT,1200.0,BKN,1800.0,,
KRDR,03-20-2004,18:06,SPECI,,350,23.0,31.0,,9999.0,Cloud Development Not Observable,-9.0,-11.0,30.58,,,,,0,0,0,,,,,,,,,7/8 Mostly Cloudy,1300.0,,FEW,1000.0,SCT,1300.0,BKN,2100.0,,
KRDR,03-20-2004,18:00,METAR,,340,23.0,30.0,,9999.0,Light Snow/Mist/Cloud Development Not Observable,-8.0,-10.0,30.58,1037.6,,,,71,10,0,,,,,TRACE,,IN,,7/8 Mostly Cloudy,2100.0,,SCT,1200.0,BKN,2100.0,,,,
KRDR,03-20-2004,17:35,SPECI,,350,22.0,27.0,,8000.0,Light Snow/Mist/Cloud Development Not Observable,-8.0,-10.0,30.56,,,,,71,10,0,,,,,,,,,7/8 Mostly Cloudy,2000.0,,SCT,1000.0,BKN,2000.0,,,,
KRDR,03-20-2004,17:00,METAR,,340,21.0,28.0,330/29KTS,6400.0,Mist/Cloud Development Not Observable,-9.0,-10.0,30.53,1035.9,,,,10,0,0,,,,,TRACE,,,,7/8 Mostly Cloudy,2000.0,,SCT,1000.0,BKN,2000.0,,,,
KRDR,03-20-2004,16:46,SPECI,,350,21.0,28.0,,8000.0,Mist/Cloud Development Not Observable,-9.0,-11.0,30.52,,,,,10,0,0,,,,,,,,,7/8 Mostly Cloudy,2000.0,,SCT,1000.0,BKN,2000.0,,,,
KRDR,03-20-2004,16:39,SPECI,,350,23.0,,,4800.0,Mist/Cloud Development Not Observable,-9.0,-10.0,30.52,,,,,10,0,0,,,,,,,,,7/8 Mostly Cloudy,2500.0,,SCT,1000.0,BKN,2500.0,,,,
KRDR,03-20-2004,16:29,SPECI,,350,21.0,,,2400.0,Light Snow/Blowing Snow/Cloud Development Not Observable,-8.0,-10.0,30.51,,,,,71,38,0,,,,,,,,,8/8 Overcast,1200.0,,FEW,800.0,BKN,1200.0,OVC,2500.0,,
KRDR,03-20-2004,16:20,METAR,,350,22.0,29.0,,1600.0,Light Snow/Blowing Snow/Cloud Development Not Observable,-8.0,-10.0,30.50,,,,,71,38,0,,,,,,,,,8/8 Overcast,1200.0,,FEW,400.0,OVC,1200.0,,,,
KRDR,03-20-2004,16:02,SPECI,,340,19.0,,,2000.0,Light Snow/Blowing Snow/Cloud Development Not Observable,-9.0,-10.0,30.48,,,,,71,38,0,,,,,,,,,8/8 Overcast,2000.0,,FEW,800.0,SCT,1300.0,OVC,2000.0,,
KRDR,03-20-2004,16:00,METAR,,340,22.0,27.0,320/28KTS,9999.0,Cloud Development Not Observable,-8.0,-10.0,30.47,1033.7,,,,0,0,0,,,,,TRACE,,,,7/8 Mostly Cloudy,1500.0,,FEW,800.0,SCT,1500.0,BKN,2500.0,,
KRDR,03-20-2004,15:41,SPECI,,350,22.0,28.0,,9999.0,Cloud Development Not Observable,-8.0,-10.0,30.46,,,,,0,0,0,,,,,,,,,7/8 Mostly Cloudy,2500.0,,SCT,1600.0,BKN,2500.0,,,,
KRDR,03-20-2004,15:20,METAR,,330,24.0,28.0,,8000.0,Light Snow/Blowing Snow/Cloud Development Not Observable,-9.0,-10.0,30.44,,,,,71,38,0,,,,,,,,,7/8 Mostly Cloudy,1600.0,,FEW,1300.0,BKN,1600.0,BKN,2500.0,,
KRDR,03-20-2004,15:12,SPECI,,330,20.0,,,2400.0,Light Snow/Blowing Snow/Cloud Development Not Observable,-9.0,-10.0,30.43,,,,,71,38,0,,,,,,,,,8/8 Overcast,2400.0,,OVC,2400.0,,,,,,
KRDR,03-20-2004,15:03,SPECI,,340,21.0,,,4800.0,Light Snow/Blowing Snow/Cloud Development Not Observable,-9.0,-10.0,30.42,,,,,71,38,0,,,,,,,,,8/8 Overcast,2400.0,,OVC,2400.0,,,,,,
KRDR,03-20-2004,15:00,METAR,,340,23.0,28.0,330/29KTS,8000.0,Mist/Cloud Development Not Observable,-9.0,-11.0,30.42,1031.9,,,,10,0,0,,,,,TRACE,,,,7/8 Mostly Cloudy,2000.0,,FEW,1200.0,SCT,2000.0,BKN,2600.0,,
KRDR,03-20-2004,14:42,SPECI,,340,24.0,,,9999.0,Cloud Development Not Observable,-9.0,-11.0,30.41,,,,,0,0,0,,,,,,,,,7/8 Mostly Cloudy,1200.0,,FEW,800.0,SCT,1200.0,BKN,2500.0,,
KRDR,03-20-2004,14:38,SPECI,,340,20.0,28.0,,9999.0,Light Snow/Blowing Snow/Cloud Development Not Observable,-9.0,-10.0,30.40,,,,,71,38,0,,,,,,,,,7/8 Mostly Cloudy,2500.0,,FEW,1200.0,BKN,2500.0,,,,
KRDR,03-20-2004,14:33,SPECI,,330,21.0,28.0,,2000.0,Light Snow/Blowing Snow/Cloud Development Not Observable,-9.0,-10.0,30.40,,,,,71,38,0,,,,,,,,,8/8 Overcast,1500.0,,FEW,1000.0,BKN,1500.0,OVC,2500.0,,
KRDR,03-20-2004,14:25,METAR,,340,20.0,,,8000.0,Light Snow/Cloud Development Not Observable,-9.0,-11.0,30.39,,,,,71,0,0,,,,,,,,,7/8 Mostly Cloudy,1800.0,,FEW,1300.0,BKN,1800.0,,,,
KRDR,03-20-2004,14:00,METAR,,340,23.0,29.0,310/30KTS,9999.0,Cloud Development Not Observable,-9.0,-11.0,30.37,1030.2,,,,0,0,0,,,,,,,,,7/8 Mostly Cloudy,2200.0,,FEW,1600.0,BKN,2200.0,,,,
KRDR,03-20-2004,13:40,SPECI,,330,19.0,26.0,,9999.0,Cloud Development Not Observable,-9.0,-11.0,30.35,,,,,0,0,0,,,,,,,,,7/8 Mostly Cloudy,2200.0,,FEW,1500.0,BKN,2200.0,,,,
KRDR,03-20-2004,13:00,METAR,,340,24.0,32.0,310/35KTS,9999.0,Cloud Development Not Observable,-8.0,-11.0,30.31,1028.0,,,,0,0,0,,,,,,,,,4/8 Partly Cloudy,72000.0,,FEW,1700.0,SCT,2500.0,,,,
KRDR,03-20-2004,12:28,SPECI,,330,25.0,32.0,,9999.0,Cloud Development Not Observable,-8.0,-10.0,30.28,,,,,0,0,0,,,,,,,,,7/8 Mostly Cloudy,2500.0,,BKN,2500.0,,,,,,
KRDR,03-20-2004,12:00,METAR,,330,21.0,35.0,,9999.0,Cloud Development Not Observable,-6.0,-9.0,30.24,1025.7,,,,0,0,0,,,,,,,,,4/8 Partly Cloudy,72000.0,,SCT,3000.0,,,,,,
KRDR,03-20-2004,11:00,METAR,,310,20.0,29.0,,9999.0,Cloud Development Not Observable,-4.0,-7.0,30.16,1022.8,,,,0,0,0,,,,,,,,,2/8 Mostly Clear,72000.0,,FEW,3000.0,,,,,,
KRDR,03-20-2004,10:00,METAR,,310,26.0,34.0,,9999.0,Cloud Development Not Observable,-3.0,-6.0,30.12,1019.6,,,,0,0,0,,,,,,,,,4/8 Partly Cloudy,72000.0,,SCT,3000.0,,,,,,
KRDR,03-20-2004,09:00,METAR,,310,24.0,30.0,300/37KTS,9999.0,Cloud Development Not Observable,-2.0,-5.0,30.06,1019.6,,,,0,0,0,,,,,,,,,7/8 Mostly Cloudy,10000.0,,SCT,3000.0,BKN,9900.0,,,,
KRDR,03-20-2004,08:00,METAR,,310,24.0,32.0,300/36KTS,9999.0,Cloud Development Not Observable,-2.0,-5.0,30.02,1018.2,,,,0,0,0,,,,,,,,,4/8 Partly Cloudy,72000.0,,SCT,9900.0,,,,,,
KRDR,03-20-2004,07:00,METAR,,310,22.0,26.0,,9999.0,Cloud Development Not Observable,2.0,-2.0,29.97,1015.9,,,,0,0,0,,,,,,,,,4/8 Partly Cloudy,72000.0,,SCT,9900.0,,,,,,
KRDR,03-20-2004,06:00,METAR,,300,25.0,35.0,,9999.0,Cloud Development Not Observable,2.0,-2.0,29.93,1012.5,,,,0,0,0,,,,,,,,,7/8 Mostly Cloudy,10000.0,,SCT,3000.0,BKN,9900.0,,,,
KRDR,03-20-2004,05:00,METAR,,280,26.0,31.0,280/33KTS,9999.0,Cloud Development Not Observable,3.0,0.0,29.86,1012.5,,,,0,0,0,,,,,,,,,7/8 Mostly Cloudy,10000.0,,BKN,9900.0,,,,,,
KRDR,03-20-2004,04:00,METAR,,270,21.0,28.0,,9999.0,Cloud Development Not Observable,4.0,0.0,29.85,1012.1,,,,0,0,0,,,,,,,,,7/8 Mostly Cloudy,10000.0,,BKN,9900.0,,,,,,
KRDR,03-20-2004,03:00,METAR,,260,15.0,25.0,250/28KTS,9999.0,Cloud Development Not Observable,5.0,0.0,29.82,1011.1,,,,0,0,0,,,,,,,,,7/8 Mostly Cloudy,10000.0,,BKN,9900.0,,,,,,
KRDR,03-20-2004,02:00,METAR,,250,16.0,,,9999.0,Cloud Development Not Observable,5.0,0.0,29.79,1010.0,,,,0,0,0,,,,,,,,,7/8 Mostly Cloudy,10000.0,,BKN,9900.0,,,,,,
KRDR,03-20-2004,01:00,METAR,,260,18.0,24.0,,9999.0,Cloud Development Not Observable,5.0,0.0,29.78,1009.9,,,,0,0,0,,,,,,,,,7/8 Mostly Cloudy,10000.0,,BKN,9900.0,,,,,,
KRDR,03-20-2004,00:00,METAR,,250,14.0,22.0,,9999.0,Cloud Development Not Observable,5.0,0.0,29.76,1009.2,,,,0,0,0,,,,,,,,,7/8 Mostly Cloudy,20000.0,,SCT,5000.0,BKN,20000.0,,,,
KRDR,03-19-2004,23:00,METAR,,270,19.0,,,9999.0,Cloud Development Not Observable,6.0,0.0,29.73,1008.1,,,,0,0,0,,,,,,,,,7/8 Mostly Cloudy,12000.0,,FEW,7900.0,SCT,12000.0,BKN,20000.0,,
KRDR,03-19-2004,22:00,METAR,,270,17.0,23.0,260/25KTS,9999.0,Cloud Development Not Observable,7.0,0.0,29.72,1007.8,,,,0,0,0,,,,,,,,,7/8 Mostly Cloudy,12000.0,,FEW,7900.0,SCT,12000.0,BKN,20000.0,,
KRDR,03-19-2004,21:00,METAR,,270,15.0,20.0,,9999.0,Cloud Development Not Observable,7.0,0.0,29.68,1006.4,,,,0,0,0,,,,,,,,,7/8 Mostly Cloudy,20000.0,,SCT,12000.0,BKN,20000.0,,,,
KRDR,03-19-2004,20:00,METAR,,240,12.0,17.0,,9999.0,Cloud Development Not Observable,7.0,3.0,29.65,1005.3,,,,0,0,0,,,,,,,,,7/8 Mostly Cloudy,20000.0,,SCT,12000.0,BKN,20000.0,,,,
KRDR,03-19-2004,19:00,METAR,,220,13.0,,,9999.0,Cloud Development Not Observable,6.0,2.0,29.65,1005.3,,,,0,0,0,,,,,,,,,7/8 Mostly Cloudy,12000.0,,FEW,8900.0,SCT,12000.0,BKN,20000.0,,
KRDR,03-19-2004,18:00,METAR,,200,15.0,,,9999.0,Cloud Development Not Observable,6.0,2.0,29.62,1004.3,,,,0,0,0,,,,,,,,,7/8 Mostly Cloudy,20000.0,,SCT,12000.0,BKN,20000.0,,,,
KRDR,03-19-2004,17:00,METAR,,220,14.0,,,9999.0,Cloud Development Not Observable,4.0,1.0,29.63,1004.7,,,,0,0,0,,,,,,,,,7/8 Mostly Cloudy,14000.0,,FEW,6900.0,SCT,14000.0,BKN,20000.0,,
KRDR,03-19-2004,16:00,METAR,,200,20.0,,180/29KTS,9999.0,Cloud Development Not Observable,4.0,0.0,29.62,1004.4,,,,0,0,0,,,,,,,,,7/8 Mostly Cloudy,20000.0,,SCT,14000.0,BKN,20000.0,,,,
KRDR,03-19-2004,15:00,METAR,,190,15.0,24.0,170/38KTS,9999.0,Cloud Development Not Observable,2.0,0.0,29.60,1003.8,,,,0,0,0,,,,,,,,,7/8 Mostly Cloudy,14000.0,,BKN,14000.0,BKN,20000.0,,,,
KRDR,03-19-2004,14:00,METAR,,180,25.0,37.0,160/39KTS,9999.0,Cloud Development Not Observable,2.0,0.0,29.56,1002.4,,,,0,0,0,,,,,,,,,8/8 Overcast,15000.0,,BKN,15000.0,OVC,20000.0,,,,
KRDR,03-19-2004,13:00,METAR,,170,30.0,39.0,160/10KTS,9999.0,Cloud Development Not Observable,2.0,0.0,29.60,1003.8,,,,0,0,0,,,,,,,,,8/8 Overcast,15000.0,,BKN,15000.0,OVC,20000.0,,,,
KRDR,03-19-2004,12:00,METAR,,160,28.0,38.0,,9999.0,Cloud Development Not Observable,2.0,0.0,29.64,1007.6,,,,0,0,0,,,,,,,,,7/8 Mostly Cloudy,20000.0,,BKN,20000.0,,,,,,
KRDR,03-19-2004,11:00,METAR,,150,24.0,27.0,,9999.0,Cloud Development Not Observable,1.0,-1.0,29.71,1007.6,,,,0,0,0,,,,,,,,,7/8 Mostly Cloudy,20000.0,,BKN,20000.0,,,,,,
KRDR,03-19-2004,10:00,METAR,,150,21.0,29.0,,9999.0,Cloud Development Not Observable,0.0,-2.0,29.77,1009.5,,,,0,0,0,,,,,,,,,7/8 Mostly Cloudy,20000.0,,BKN,20000.0,,,,,,
KRDR,03-19-2004,09:00,METAR,,150,18.0,29.0,,9999.0,Cloud Development Not Observable,0.0,-1.0,29.83,1011.6,,,,0,0,0,,,,,,,,,7/8 Mostly Cloudy,20000.0,,SCT,9900.0,BKN,20000.0,,,,
KRDR,03-19-2004,08:00,METAR,,150,20.0,29.0,,9999.0,Cloud Development Not Observable,1.0,-1.0,29.88,1013.4,,,,0,0,0,,,,,,,,,7/8 Mostly Cloudy,20000.0,,BKN,20000.0,,,,,,
KRDR,03-19-2004,07:00,METAR,,150,15.0,,,9999.0,Cloud Development Not Observable,0.0,-1.0,29.93,1015.0,,,,0,0,0,,,,,,,,,7/8 Mostly Cloudy,20000.0,,SCT,7900.0,BKN,20000.0,,,,
KRDR,03-19-2004,06:00,METAR,,140,12.0,,,9999.0,Cloud Development Not Observable,-1.0,-1.0,29.98,1016.8,,,,0,0,0,,,,,,,,,7/8 Mostly Cloudy,20000.0,,SCT,6900.0,BKN,20000.0,,,,
KRDR,03-19-2004,05:00,METAR,,140,12.0,,,9999.0,Cloud Development Not Observable,-2.0,-2.0,30.02,1018.3,,,,0,0,0,,,,,,,,,7/8 Mostly Cloudy,20000.0,,SCT,6900.0,BKN,20000.0,,,,
KRDR,03-19-2004,04:00,METAR,,140,11.0,,,9999.0,Cloud Development Not Observable,-2.0,-2.0,30.06,1019.8,,,,0,0,0,,,,,,,,,7/8 Mostly Cloudy,20000.0,,BKN,20000.0,,,,,,
KRDR,03-19-2004,03:00,METAR,,150,11.0,,,9999.0,Cloud Development Not Observable,-2.0,-2.0,30.07,1020.1,,,,0,0,0,,,,,,,,,7/8 Mostly Cloudy,20000.0,,BKN,20000.0,,,,,,
KRDR,03-19-2004,02:00,METAR,,140,11.0,,,9999.0,Cloud Development Not Observable,-2.0,-2.0,30.07,1020.1,,,,0,0,0,,,,,,,,,7/8 Mostly Cloudy,20000.0,,BKN,20000.0,,,,,,
KRDR,03-19-2004,01:00,METAR,,120,7.0,,,9999.0,Cloud Development Not Observable,-2.0,-2.0,30.09,1020.9,,,,0,0,0,,,,,,,,,7/8 Mostly Cloudy,20000.0,,FEW,2000.0,BKN,20000.0,,,,
KRDR,03-19-2004,00:00,METAR,,,6.0,,,9999.0,Cloud Development Not Observable,-1.0,-2.0,30.09,1020.8,,,,0,0,0,,,,,,,,,7/8 Mostly Cloudy,20000.0,,FEW,2000.0,BKN,20000.0,,,,
KRDR,03-18-2004,23:00,METAR,,,2.0,,,9999.0,Cloud Development Not Observable,0.0,-2.0,30.09,1020.7,,,,0,0,0,,,,,,,,,7/8 Mostly Cloudy,20000.0,,FEW,1500.0,BKN,20000.0,,,,
KRDR,03-18-2004,22:00,METAR,,,5.0,,,9999.0,Cloud Development Not Observable,1.0,-1.0,30.10,1020.9,,,,0,0,0,,,,,,,,,4/8 Partly Cloudy,72000.0,,SCT,1200.0,SCT,20000.0,,,,
KRDR,03-18-2004,21:19,SPECI,,270,7.0,,,9999.0,Cloud Development Not Observable,0.0,-2.0,30.10,,,,,0,0,0,,,,,,,,,4/8 Partly Cloudy,72000.0,,SCT,1200.0,,,,,,
KRDR,03-18-2004,21:00,METAR,,,6.0,,,9999.0,Cloud Development Not Observable,0.0,-1.0,30.10,1020.9,,,,0,0,0,,,,,,,,,7/8 Mostly Cloudy,1000.0,,BKN,1000.0,,,,,,
KRDR,03-18-2004,20:00,METAR,,290,5.0,,,9999.0,Cloud Development Not Observable,-1.0,-2.0,30.11,1021.4,,,,0,0,0,,,,,,,,,7/8 Mostly Cloudy,1000.0,,BKN,1000.0,BKN,4000.0,,,,
KRDR,03-18-2004,19:00,METAR,,270,8.0,,,9999.0,Cloud Development Not Observable,-1.0,-2.0,30.13,1021.8,,,,0,0,0,,,,,,,,,4/8 Partly Cloudy,72000.0,,SCT,4000.0,,,,,,
KRDR,03-18-2004,18:00,METAR,,280,8.0,,,9999.0,Cloud Development Not Observable,-2.0,-3.0,30.16,1023.1,,,,0,0,0,,,,,,,,,2/8 Mostly Clear,72000.0,,FEW,4000.0,,,,,,
KRDR,03-18-2004,17:00,METAR,,280,9.0,,,9999.0,Cloud Development Not Observable,-3.0,-3.0,30.11,1021.4,,,,0,0,0,,,,,,,,,2/8 Mostly Clear,72000.0,,FEW,4000.0,,,,,,
KRDR,03-18-2004,16:00,METAR,,280,11.0,,,9999.0,Cloud Development Not Observable,-4.0,-4.0,30.10,1020.9,,,,0,0,0,,,,,,,,,4/8 Partly Cloudy,72000.0,,SCT,4000.0,,,,,,
KRDR,03-18-2004,15:00,METAR,,290,9.0,,,9999.0,Cloud Development Not Observable,-4.0,-4.0,30.08,1020.2,,,,0,0,0,,,,,,,,,4/8 Partly Cloudy,72000.0,,SCT,5000.0,,,,,,
KRDR,03-18-2004,14:00,METAR,,310,5.0,,,9999.0,Cloud Development Not Observable,-5.0,-5.0,30.04,1019.2,,,,0,0,0,,,,,,,,,2/8 Mostly Clear,72000.0,,FEW,5000.0,,,,,,
KRDR,03-18-2004,13:00,METAR,,300,6.0,,,9999.0,Cloud Development Not Observable,-7.0,-7.0,30.02,1018.5,,,,0,0,0,,,,,,,,,2/8 Mostly Clear,72000.0,,FEW,5000.0,,,,,,
KRDR,03-18-2004,12:00,METAR,,300,9.0,,,9999.0,Cloud Development Not Observable,-5.0,-5.0,30.00,1017.6,,,,0,0,0,,,,,,,.08 IN,,4/8 Partly Cloudy,72000.0,,SCT,5000.0,,,,,,
KRDR,03-18-2004,11:00,METAR,,310,12.0,,,9999.0,Cloud Development Not Observable,-2.0,-2.0,29.96,1016.0,,,,0,0,0,,,,,,,,,7/8 Mostly Cloudy,4900.0,,SCT,4000.0,BKN,5000.0,,,,
KRDR,03-18-2004,10:36,SPECI,,310,10.0,,,9999.0,Cloud Development Not Observable,-2.0,-2.0,29.95,,,,,0,0,0,,,,,,,,,7/8 Mostly Cloudy,4900.0,,BKN,5000.0,,,,,,
KRDR,03-18-2004,10:00,METAR,,300,12.0,,,9999.0,Cloud Development Not Observable,-2.0,-2.0,29.93,1015.1,,,,0,0,0,,,,,,,,,7/8 Mostly Cloudy,4900.0,,FEW,1500.0,BKN,5000.0,,,,
KRDR,03-18-2004,09:00,METAR,,310,8.0,,,9999.0,Cloud Development Not Observable,-1.0,-1.0,29.90,1013.9,,,,0,0,0,,,,,,,,,7/8 Mostly Cloudy,4900.0,,BKN,5000.0,,,,,,
KRDR,03-18-2004,08:00,METAR,,320,8.0,,,9999.0,Cloud Development Not Observable,-1.0,-1.0,29.89,1013.6,,,,0,0,0,,,,,,,,,8/8 Overcast,3000.0,,BKN,3000.0,OVC,5000.0,,,,
KRDR,03-18-2004,07:41,SPECI,,330,10.0,,,9999.0,Blowing Snow/Cloud Development Not Observable,-1.0,-1.0,29.88,,,,,38,0,0,,,,,,,,,8/8 Overcast,2000.0,,BKN,2000.0,OVC,5000.0,,,,
KRDR,03-18-2004,07:00,METAR,,320,8.0,,,3200.0,Light Snow/Cloud Development Not Observable,0.0,0.0,29.85,1012.4,,,,71,0,0,,,,,,,,,8/8 Overcast,2000.0,,FEW,500.0,BKN,2000.0,OVC,5000.0,,
KRDR,03-18-2004,06:00,METAR,,340,7.0,,,3200.0,Light Snow/Cloud Development Not Observable,0.0,0.0,29.82,1011.4,,,,71,0,0,,,,,,,.12 IN,,8/8 Overcast,1000.0,,SCT,200.0,OVC,1000.0,,,,
KRDR,03-18-2004,05:28,SPECI,,330,6.0,,,3200.0,Light Snow/Cloud Development Not Observable,0.0,0.0,29.82,,,,,71,0,0,,,,,,,,,8/8 Overcast,1000.0,,FEW,500.0,OVC,1000.0,,,,
KRDR,03-18-2004,05:00,METAR,,340,5.0,,,4800.0,Light Snow/Cloud Development Not Observable,0.0,0.0,29.81,1010.9,,,,71,0,0,,,,,,,,,8/8 Overcast,1000.0,,BKN,1000.0,OVC,2000.0,,,,
KRDR,03-18-2004,04:13,SPECI,,250,1.0,,,9999.0,Light Snow/Cloud Development Not Observable,0.0,0.0,29.79,,,,,71,0,0,,,,,,,,,8/8 Overcast,3000.0,,OVC,3000.0,,,,,,
KRDR,03-18-2004,04:00,METAR,,250,2.0,,,4800.0,Light Snow/Cloud Development Not Observable,0.0,0.0,29.79,1010.2,,,,71,0,0,,,,,,,,,8/8 Overcast,1000.0,,BKN,1000.0,OVC,2000.0,,,,
KRDR,03-18-2004,03:30,METAR,,250,1.0,,,4800.0,Light Snow/Cloud Development Not Observable,0.0,0.0,29.79,,,,,71,0,0,,,,,,,,,8/8 Overcast,2000.0,,OVC,2000.0,,,,,,
KRDR,03-18-2004,03:00,METAR,,220,2.0,,,3200.0,Light Snow/Cloud Development Not Observable,0.0,0.0,29.78,1010.0,,,,71,0,0,,,,,,,,,8/8 Overcast,3000.0,,SCT,2000.0,OVC,3000.0,,,,
KRDR,03-18-2004,02:11,SPECI,,260,4.0,,,8000.0,Light Snow/Cloud Development Not Observable,0.0,0.0,29.78,,,,,71,0,0,,,,,,,,,8/8 Overcast,4900.0,,SCT,2000.0,OVC,5000.0,,,,
KRDR,03-18-2004,02:00,METAR,,290,3.0,,,8000.0,Light Snow/Cloud Development Not Observable,1.0,1.0,29.77,1009.7,,,,71,0,0,,,,,,,,,8/8 Overcast,4900.0,,SCT,2000.0,OVC,5000.0,,,,
KRDR,03-18-2004,01:00,METAR,,180,8.0,,,9999.0,Precipitation in the Vicinity/Cloud Development Not Observable,1.0,0.0,29.75,1009.1,,,,16,0,0,,,,,,,,,8/8 Overcast,5500.0,,SCT,3000.0,BKN,5400.0,OVC,12000.0,,
KRDR,03-18-2004,00:22,SPECI,,170,9.0,,,9999.0,Precipitation in the Vicinity/Cloud Development Not Observable,1.0,0.0,29.75,,,,,16,0,0,,,,,,,,,8/8 Overcast,6000.0,,SCT,3000.0,BKN,5900.0,OVC,12000.0,,
KRDR,03-18-2004,00:04,SPECI,,180,11.0,,,9999.0,Light Snow/Cloud Development Not Observable,1.0,0.0,29.75,,,,,71,0,0,,,,,,,,,8/8 Overcast,6000.0,,SCT,3000.0,BKN,5900.0,OVC,12000.0,,
KRDR,03-18-2004,00:00,METAR,,180,9.0,,,9999.0,Precipitation in the Vicinity/Cloud Development Not Observable,1.0,0.0,29.76,1009.4,,,,16,0,0,,,,,,,,,8/8 Overcast,6000.0,,SCT,3000.0,BKN,5900.0,OVC,12000.0,,
KRDR,03-17-2004,23:00,METAR,,180,6.0,,,9999.0,Cloud Development Not Observable,1.0,-1.0,29.75,1009.1,,,,0,0,0,,,,,,,,,7/8 Mostly Cloudy,6000.0,,FEW,3500.0,BKN,5900.0,BKN,12000.0,,
KRDR,03-17-2004,22:00,METAR,,190,7.0,,,9999.0,Cloud Development Not Observable,2.0,-1.0,29.75,1009.0,,,,0,0,0,,,,,,,,,7/8 Mostly Cloudy,6000.0,,FEW,3500.0,SCT,5900.0,BKN,12000.0,,
KRDR,03-17-2004,21:00,METAR,,210,9.0,,,9999.0,Cloud Development Not Observable,2.0,-1.0,29.74,1008.6,,,,0,0,0,,,,,,,,,7/8 Mostly Cloudy,6000.0,,FEW,3500.0,SCT,5900.0,BKN,12000.0,,
KRDR,03-17-2004,20:00,METAR,,170,9.0,,,9999.0,Cloud Development Not Observable,2.0,-1.0,29.75,1008.9,,,,0,0,0,,,,,,,,,7/8 Mostly Cloudy,6000.0,,FEW,3500.0,SCT,5900.0,BKN,12000.0,,
KRDR,03-17-2004,19:00,METAR,,200,8.0,,,9999.0,Cloud Development Not Observable,2.0,1.0,29.77,1009.6,,,,0,0,0,,,,,,,,,7/8 Mostly Cloudy,6000.0,,SCT,4000.0,BKN,5900.0,,,,
KRDR,03-17-2004,18:00,METAR,,,0.0,,,9999.0,Cloud Development Not Observable,3.0,-1.0,29.77,1009.6,,,,0,0,0,,,,,,,,,7/8 Mostly Cloudy,4900.0,,BKN,5000.0,,,,,,
KRDR,03-17-2004,17:00,METAR,,200,6.0,,,9999.0,Cloud Development Not Observable,0.0,-3.0,29.76,1010.0,,,,0,0,0,,,,,,,,,7/8 Mostly Cloudy,4900.0,,FEW,3500.0,BKN,5000.0,,,,
KRDR,03-17-2004,16:00,METAR,,210,6.0,,,9999.0,Cloud Development Not Observable,-1.0,-3.0,29.78,1010.0,,,,0,0,0,,,,,,,,,7/8 Mostly Cloudy,4900.0,,BKN,5000.0,,,,,,
KRDR,03-17-2004,15:00,METAR,,270,7.0,,,9999.0,Cloud Development Not Observable,-4.0,-5.0,29.78,1010.0,,,,0,0,0,,,,,,,,,7/8 Mostly Cloudy,5500.0,,BKN,5400.0,BKN,15000.0,,,,
KRDR,03-17-2004,14:00,METAR,,240,5.0,,,9999.0,Cloud Development Not Observable,-6.0,-6.0,29.76,1009.6,,,,0,0,0,,,,,,,,,7/8 Mostly Cloudy,15000.0,,SCT,5000.0,BKN,15000.0,,,,
KRDR,03-17-2004,13:00,METAR,,230,8.0,,,9999.0,Cloud Development Not Observable,-8.0,-8.0,29.76,1009.5,,,,0,0,0,,,,,,,,,4/8 Partly Cloudy,72000.0,,SCT,5000.0,,,,,,
KRDR,03-17-2004,12:00,METAR,,250,6.0,,,9999.0,Cloud Development Not Observable,-7.0,-7.0,29.75,1009.2,,,,0,0,0,,,,,,,,.05 IN,Clear,72000.0,,,73000.0,,,,,,
KRDR,03-17-2004,11:00,METAR,,270,8.0,,,9999.0,Cloud Development Not Observable,-7.0,-7.0,29.75,1009.2,,,,0,0,0,,,,,,,,,Clear,72000.0,,,73000.0,,,,,,
KRDR,03-17-2004,10:00,METAR,,270,8.0,,,9999.0,Cloud Development Not Observable,-6.0,-6.0,29.74,1008.8,,,,0,0,0,,,,,,,,,Clear,72000.0,,,73000.0,,,,,,
KRDR,03-17-2004,09:00,METAR,,270,8.0,,,9999.0,Cloud Development Not Observable,-5.0,-5.0,29.73,1008.5,,,,0,0,0,,,,,,,,,Clear,72000.0,,,73000.0,,,,,,
KRDR,03-17-2004,08:00,METAR,,300,11.0,,,9999.0,Cloud Development Not Observable,-4.0,-4.0,29.73,1008.5,,,,0,0,0,,,,,,,,,Clear,72000.0,,,73000.0,,,,,,
KRDR,03-17-2004,07:00,METAR,,270,6.0,,,9999.0,Cloud Development Not Observable,-5.0,-5.0,29.73,1008.5,,,,0,0,0,,,,,,,,,Clear,72000.0,,,73000.0,,,,,,
KRDR,03-17-2004,06:00,METAR,,260,7.0,,,9999.0,Cloud Development Not Observable,-5.0,-5.0,29.74,1008.8,,,,0,0,0,,,,,,,,,Clear,72000.0,,,73000.0,,,,,,
KRDR,03-17-2004,05:00,METAR,,280,9.0,,,9999.0,Cloud Development Not Observable,-3.0,-3.0,29.74,1008.7,,,,0,0,0,,,,,,,,,Clear,72000.0,,,73000.0,,,,,,
KRDR,03-17-2004,04:00,METAR,,290,6.0,,,9999.0,Cloud Development Not Observable,-3.0,-3.0,29.74,1008.8,,,,0,0,0,,,,,,,,,Clear,72000.0,,,73000.0,,,,,,
KRDR,03-17-2004,03:00,METAR,,290,8.0,,,9999.0,Cloud Development Not Observable,-1.0,-2.0,29.73,1008.4,,,,0,0,0,,,,,,,,,2/8 Mostly Clear,72000.0,,FEW,2500.0,,,,,,
KRDR,03-17-2004,02:00,METAR,,280,10.0,,,9999.0,Cloud Development Not Observable,0.0,-1.0,29.72,1008.0,,,,0,0,0,,,,,,,,,2/8 Mostly Clear,72000.0,,FEW,2500.0,FEW,25000.0,,,,
KRDR,03-17-2004,01:00,METAR,,280,12.0,,,9999.0,Cloud Development Not Observable,1.0,0.0,29.71,1007.7,,,,0,0,0,,,,,,,,,4/8 Partly Cloudy,72000.0,,FEW,2500.0,FEW,5400.0,SCT,25000.0,,
KRDR,03-17-2004,00:00,METAR,,270,10.0,,,9999.0,Cloud Development Not Observable,2.0,1.0,29.70,1007.3,,,,0,0,0,,,,,,,.05 IN,,4/8 Partly Cloudy,72000.0,,FEW,2500.0,SCT,5400.0,,,,
KRDR,03-16-2004,23:00,METAR,,230,8.0,,,9999.0,Cloud Development Not Observable,3.0,2.0,29.72,1007.9,,,,0,0,0,,,,,,,,,7/8 Mostly Cloudy,3000.0,,FEW,2000.0,SCT,3000.0,BKN,25000.0,,
KRDR,03-16-2004,22:00,METAR,,200,12.0,,,9999.0,Cloud Development Not Observable,2.0,0.0,29.72,1008.6,,,,0,0,0,,,,,,,,,7/8 Mostly Cloudy,3400.0,,SCT,1500.0,BKN,3500.0,,,,
KRDR,03-16-2004,21:20,METAR,,200,17.0,22.0,,9999.0,Cloud Development Not Observable,1.0,-1.0,29.72,,,,,0,0,0,,,,,,,,,7/8 Mostly Cloudy,3400.0,,SCT,1500.0,BKN,3500.0,,,,
KRDR,03-16-2004,21:00,METAR,,200,16.0,22.0,210/25KTS,9999.0,Drifting Snow/Cloud Development Not Observable,0.0,-1.0,29.74,1008.6,,,,36,0,0,,,,,,,,,7/8 Mostly Cloudy,1400.0,,BKN,1400.0,BKN,3500.0,,,,
KRDR,03-16-2004,20:24,SPECI,,200,16.0,23.0,,9999.0,Cloud Development Not Observable,-1.0,-1.0,29.73,,,,,0,0,0,,,,,,,,,8/8 Overcast,1300.0,,BKN,1300.0,OVC,2500.0,,,,
KRDR,03-16-2004,20:00,METAR,,200,19.0,31.0,,1200.0,Light Snow/Blowing Snow/Cloud Development Not Observable,-1.0,-1.0,29.74,1008.6,,,,71,38,0,,,,,,,,,8/8 Overcast,1100.0,,OVC,1100.0,,,,,,
KRDR,03-16-2004,19:24,SPECI,,190,19.0,27.0,,1200.0,Light Snow/Cloud Development Not Observable,-1.0,-1.0,29.76,,,,,71,0,0,,,,,,,,,8/8 Overcast,1100.0,,OVC,1100.0,,,,,,
KRDR,03-16-2004,19:00,METAR,,190,24.0,29.0,,800.0,Snow/Blowing Snow/Cloud Development Not Observable,-1.0,-1.0,29.76,1009.5,,,,73,38,0,,,,,,,,,8/8 Overcast,1100.0,,OVC,1100.0,,,,,,
KRDR,03-16-2004,18:32,SPECI,,190,21.0,25.0,,800.0,Snow/Drifting Snow/Cloud Development Not Observable,-1.0,-1.0,29.78,,,,,73,36,0,,,,,,,,,8/8 Overcast,1100.0,,OVC,1100.0,,,,,,
KRDR,03-16-2004,18:00,METAR,,190,20.0,30.0,190/32KTS,800.0,Snow/Drifting Snow/Cloud Development Not Observable,-1.0,-1.0,29.79,1010.6,,,,73,36,0,,,,,,,IN,,8/8 Overcast,1100.0,,OVC,1100.0,,,,,,
KRDR,03-16-2004,17:43,SPECI,,190,22.0,32.0,,1200.0,Light Snow/Drifting Snow/Cloud Development Not Observable,-1.0,-2.0,29.80,,,,,71,36,0,,,,,,,,,8/8 Overcast,1100.0,,OVC,1100.0,,,,,,
KRDR,03-16-2004,17:38,SPECI,,190,22.0,32.0,,2400.0,Light Snow/Drifting Snow/Cloud Development Not Observable,-1.0,-2.0,29.80,,,,,71,36,0,,,,,,,,,8/8 Overcast,1400.0,,OVC,1400.0,,,,,,
KRDR,03-16-2004,17:18,SPECI,,190,23.0,31.0,,8000.0,Light Snow/Cloud Development Not Observable,-1.0,-2.0,29.80,,,,,71,0,0,,,,,,,,,8/8 Overcast,1400.0,,OVC,1400.0,,,,,,
KRDR,03-16-2004,17:00,METAR,,190,24.0,29.0,,9999.0,Cloud Development Not Observable,0.0,-2.0,29.82,1011.4,,,,0,0,0,,,,,,,,,8/8 Overcast,1400.0,,OVC,1400.0,,,,,,
KRDR,03-16-2004,16:00,METAR,,170,22.0,,170/28KTS,9999.0,Cloud Development Not Observable,-1.0,-2.0,29.83,1012.0,,,,0,0,0,,,,,,,,,8/8 Overcast,1100.0,,OVC,1100.0,,,,,,
KRDR,03-16-2004,15:00,METAR,,180,20.0,,170/25KTS,9999.0,Cloud Development Not Observable,-2.0,-2.0,29.87,1013.3,,,,0,0,0,,,,,,,,,8/8 Overcast,1100.0,,OVC,1100.0,,,,,,
KRDR,03-16-2004,14:00,METAR,,170,15.0,,,9999.0,Cloud Development Not Observable,-2.0,-2.0,29.89,1014.0,,,,0,0,0,,,,,,,,,8/8 Overcast,1100.0,,OVC,1100.0,,,,,,
KRDR,03-16-2004,13:00,METAR,,170,15.0,,,9999.0,Cloud Development Not Observable,-3.0,-3.0,29.91,1014.7,,,,0,0,0,,,,,,,,,8/8 Overcast,1100.0,,OVC,1100.0,,,,,,
KRDR,03-16-2004,12:16,SPECI,,160,14.0,,,9999.0,Cloud Development Not Observable,-4.0,-4.0,29.92,,,,,0,0,0,,,,,,,,,8/8 Overcast,1100.0,,OVC,1100.0,,,,,,
KRDR,03-16-2004,12:00,METAR,,160,12.0,,,9999.0,Cloud Development Not Observable,-4.0,-4.0,29.93,1015.2,,,,0,0,0,,,,,,,,,8/8 Overcast,7000.0,,OVC,6900.0,,,,,,
KRDR,03-16-2004,11:00,METAR,,170,12.0,,,9999.0,Cloud Development Not Observable,-5.0,-5.0,29.96,1016.3,,,,0,0,0,,,,,,,,,4/8 Partly Cloudy,72000.0,,SCT,7900.0,,,,,,
KRDR,03-16-2004,10:00,METAR,,160,13.0,,,9999.0,Cloud Development Not Observable,-4.0,-5.0,29.97,1016.5,,,,0,0,0,,,,,,,,,4/8 Partly Cloudy,72000.0,,SCT,7900.0,,,,,,
KRDR,03-16-2004,09:00,METAR,,170,13.0,,,9999.0,Cloud Development Not Observable,-4.0,-5.0,30.02,1018.4,,,,0,0,0,,,,,,,,,2/8 Mostly Clear,72000.0,,FEW,9900.0,,,,,,
KRDR,03-16-2004,08:00,METAR,,180,14.0,,,9999.0,Cloud Development Not Observable,-4.0,-5.0,30.05,1019.4,,,,0,0,0,,,,,,,,,2/8 Mostly Clear,72000.0,,FEW,9900.0,,,,,,
KRDR,03-16-2004,07:00,METAR,,180,14.0,,,9999.0,Cloud Development Not Observable,-4.0,-4.0,30.07,1020.2,,,,0,0,0,,,,,,,,,Clear,72000.0,,,73000.0,,,,,,
KRDR,03-16-2004,06:00,METAR,,170,14.0,,,9999.0,Cloud Development Not Observable,-3.0,-4.0,30.10,1021.2,,,,0,0,0,,,,,,,,,Clear,72000.0,,,73000.0,,,,,,
KRDR,03-16-2004,05:00,METAR,,160,12.0,,,9999.0,Cloud Development Not Observable,-5.0,-5.0,30.12,1022.1,,,,0,0,0,,,,,,,,,Clear,72000.0,,,73000.0,,,,,,
KRDR,03-16-2004,04:00,METAR,,150,9.0,,,9999.0,Cloud Development Not Observable,-4.0,-5.0,30.15,1023.1,,,,0,0,0,,,,,,,,,Clear,72000.0,,,73000.0,,,,,,
KRDR,03-16-2004,03:00,METAR,,150,11.0,,,9999.0,Cloud Development Not Observable,-4.0,-5.0,30.17,1023.9,,,,0,0,0,,,,,,,,,2/8 Mostly Clear,72000.0,,FEW,25000.0,,,,,,
KRDR,03-16-2004,02:00,METAR,,150,9.0,,,9999.0,Cloud Development Not Observable,-4.0,-5.0,30.20,1025.0,,,,0,0,0,,,,,,,,,2/8 Mostly Clear,72000.0,,FEW,25000.0,,,,,,
KRDR,03-16-2004,01:00,METAR,,150,9.0,,,9999.0,Cloud Development Not Observable,-3.0,-4.0,30.22,1025.4,,,,0,0,0,,,,,,,,,2/8 Mostly Clear,72000.0,,FEW,25000.0,,,,,,
KRDR,03-16-2004,00:00,METAR,,160,10.0,,,9999.0,Cloud Development Not Observable,-2.0,-4.0,30.28,1027.5,,,,0,0,0,,,,,,,,,Clear,72000.0,,,73000.0,,,,,,
KRDR,03-15-2004,23:00,METAR,,150,10.0,,,9999.0,Cloud Development Not Observable,-1.0,-4.0,30.28,1027.4,,,,0,0,0,,,,,,,,,2/8 Mostly Clear,72000.0,,FEW,25000.0,,,,,,
KRDR,03-15-2004,22:00,METAR,,170,9.0,,,9999.0,Cloud Development Not Observable,-1.0,-4.0,30.28,1027.4,,,,0,0,0,,,,,,,,,2/8 Mostly Clear,72000.0,,FEW,25000.0,,,,,,
KRDR,03-15-2004,21:00,METAR,,180,9.0,,,9999.0,Cloud Development Not Observable,-2.0,-4.0,30.29,1027.8,,,,0,0,0,,,,,,,,,4/8 Partly Cloudy,72000.0,,SCT,25000.0,,,,,,
KRDR,03-15-2004,20:00,METAR,,160,8.0,,,9999.0,Cloud Development Not Observable,-2.0,-5.0,30.31,1028.4,,,,0,0,0,,,,,,,,,4/8 Partly Cloudy,72000.0,,SCT,25000.0,,,,,,
KRDR,03-15-2004,19:00,METAR,,170,8.0,,,9999.0,Cloud Development Not Observable,-4.0,-6.0,30.34,1029.5,,,,0,0,0,,,,,,,,,7/8 Mostly Cloudy,25000.0,,BKN,25000.0,,,,,,
KRDR,03-15-2004,18:00,METAR,,180,8.0,,,9999.0,Cloud Development Not Observable,-5.0,-7.0,30.35,1029.9,,,,0,0,0,,,,,,,,,7/8 Mostly Cloudy,25000.0,,SCT,15000.0,BKN,25000.0,,,,
KRDR,03-15-2004,17:00,METAR,,180,8.0,,,9999.0,Cloud Development Not Observable,-7.0,-8.0,30.37,1030.6,,,,0,0,0,,,,,,,,,7/8 Mostly Cloudy,25000.0,,BKN,25000.0,,,,,,
KRDR,03-15-2004,16:00,METAR,,180,5.0,,,9999.0,Cloud Development Not Observable,-7.0,-8.0,30.38,1030.9,,,,0,0,0,,,,,,,,,7/8 Mostly Cloudy,25000.0,,BKN,25000.0,,,,,,
KRDR,03-15-2004,15:00,METAR,,,5.0,,,9999.0,Cloud Development Not Observable,-9.0,-9.0,30.36,1030.2,,,,0,0,0,,,,,,,,,7/8 Mostly Cloudy,25000.0,,BKN,25000.0,,,,,,
KRDR,03-15-2004,14:00,METAR,,270,1.0,,,9999.0,Cloud Development Not Observable,-11.0,-11.0,30.36,1030.3,,,,0,0,0,,,,,,,,,7/8 Mostly Cloudy,25000.0,,SCT,15000.0,BKN,25000.0,,,,
KRDR,03-15-2004,13:00,METAR,,300,2.0,,,9999.0,Cloud Development Not Observable,-13.0,-13.0,30.35,1030.0,,,,0,0,0,,,,,,,,,7/8 Mostly Cloudy,25000.0,,SCT,15000.0,BKN,25000.0,,,,
KRDR,03-15-2004,12:00,METAR,,290,3.0,,,9999.0,Cloud Development Not Observable,-14.0,-14.0,30.34,1029.6,,,,0,0,0,,,,,,,,,4/8 Partly Cloudy,72000.0,,SCT,25000.0,,,,,,
KRDR,03-15-2004,11:00,METAR,,320,2.0,,,9999.0,Cloud Development Not Observable,-13.0,-13.0,30.33,1029.2,,,,0,0,0,,,,,,,,,Clear,72000.0,,,73000.0,,,,,,
KRDR,03-15-2004,10:00,METAR,,,2.0,,,9999.0,Cloud Development Not Observable,-12.0,-12.0,30.33,1029.1,,,,0,0,0,,,,,,,,,Clear,72000.0,,,73000.0,,,,,,
KRDR,03-15-2004,09:00,METAR,,,2.0,,,9999.0,Cloud Development Not Observable,-12.0,-12.0,30.32,1028.8,,,,0,0,0,,,,,,,,,Clear,72000.0,,,73000.0,,,,,,
KRDR,03-15-2004,08:00,METAR,,,4.0,,,9999.0,Cloud Development Not Observable,-11.0,-11.0,30.32,1028.8,,,,0,0,0,,,,,,,,,Clear,72000.0,,,73000.0,,,,,,
KRDR,03-15-2004,07:00,METAR,,350,4.0,,,9999.0,Cloud Development Not Observable,-10.0,-10.0,30.31,1028.4,,,,0,0,0,,,,,,,,,Clear,72000.0,,,73000.0,,,,,,
KRDR,03-15-2004,06:00,METAR,,,5.0,,,9999.0,Cloud Development Not Observable,-9.0,-9.0,30.29,1027.6,,,,0,0,0,,,,,,,,,2/8 Mostly Clear,72000.0,,FEW,25000.0,,,,,,
KRDR,03-15-2004,05:00,METAR,,30,7.0,,,9999.0,Cloud Development Not Observable,-7.0,-7.0,30.29,1027.6,,,,0,0,0,,,,,,,,,7/8 Mostly Cloudy,25000.0,,BKN,25000.0,,,,,,
KRDR,03-15-2004,04:00,METAR,,360,6.0,,,9999.0,Cloud Development Not Observable,-7.0,-7.0,30.27,1026.9,,,,0,0,0,,,,,,,,,7/8 Mostly Cloudy,25000.0,,BKN,25000.0,,,,,,
KRDR,03-15-2004,03:00,METAR,,350,9.0,,,9999.0,Cloud Development Not Observable,-6.0,-7.0,30.25,1026.6,,,,0,0,0,,,,,,,,,7/8 Mostly Cloudy,25000.0,,BKN,25000.0,,,,,,
KRDR,03-15-2004,02:00,METAR,,350,6.0,,,9999.0,Cloud Development Not Observable,-5.0,-6.0,30.24,1026.2,,,,0,0,0,,,,,,,,,8/8 Overcast,25000.0,,OVC,25000.0,,,,,,
KRDR,03-15-2004,01:00,METAR,,350,7.0,,,9999.0,Cloud Development Not Observable,-4.0,-6.0,30.23,1025.9,,,,0,0,0,,,,,,,,,8/8 Overcast,25000.0,,OVC,25000.0,,,,,,
KRDR,03-15-2004,00:00,METAR,,340,9.0,,,9999.0,Cloud Development Not Observable,-3.0,-6.0,30.20,1024.7,,,,0,0,0,,,,,,,,,7/8 Mostly Cloudy,25000.0,,SCT,3000.0,BKN,25000.0,,,,
KRDR,03-14-2004,23:00,METAR,,320,11.0,,,9999.0,Cloud Development Not Observable,-2.0,-5.0,30.19,1024.3,,,,0,0,0,,,,,,,,,4/8 Partly Cloudy,72000.0,,FEW,2000.0,SCT,25000.0,,,,
KRDR,03-14-2004,22:00,METAR,,310,13.0,,,9999.0,Cloud Development Not Observable,-1.0,-5.0,30.19,1024.2,,,,0,0,0,,,,,,,,,4/8 Partly Cloudy,72000.0,,FEW,2000.0,SCT,25000.0,,,,
KRDR,03-14-2004,21:00,METAR,,330,15.0,,,9999.0,Cloud Development Not Observable,-1.0,-5.0,30.17,1023.5,,,,0,0,0,,,,,,,,,2/8 Mostly Clear,72000.0,,FEW,2000.0,,,,,,
KRDR,03-14-2004,20:00,METAR,,340,17.0,,,9999.0,Cloud Development Not Observable,-1.0,-5.0,30.14,1022.5,,,,0,0,0,,,,,,,,,2/8 Mostly Clear,72000.0,,FEW,2000.0,,,,,,
KRDR,03-14-2004,18:00,METAR,,330,19.0,,310/25KTS,9999.0,Cloud Development Not Observable,-2.0,-5.0,30.12,1021.9,,,,0,0,0,,,,,,,,,2/8 Mostly Clear,72000.0,,FEW,2000.0,,,,,,
KRDR,03-14-2004,17:00,METAR,,320,22.0,,310/29KTS,9999.0,Cloud Development Not Observable,-3.0,-5.0,30.11,1021.5,,,,0,0,0,,,,,,,,,2/8 Mostly Clear,72000.0,,FEW,3000.0,,,,,,
KRDR,03-14-2004,16:00,METAR,,320,19.0,30.0,,9999.0,Cloud Development Not Observable,-4.0,-6.0,30.10,1021.2,,,,0,0,0,,,,,,,,,4/8 Partly Cloudy,72000.0,,SCT,25000.0,,,,,,
KRDR,03-14-2004,15:00,METAR,,320,23.0,31.0,,9999.0,Cloud Development Not Observable,-5.0,-6.0,30.08,1020.5,,,,0,0,0,,,,,,,,,4/8 Partly Cloudy,72000.0,,FEW,3000.0,SCT,25000.0,,,,
KRDR,03-14-2004,14:00,METAR,,210,21.0,26.0,,9999.0,Cloud Development Not Observable,-5.0,-6.0,30.06,1019.8,,,,0,0,0,,,,,,,,,4/8 Partly Cloudy,72000.0,,SCT,3000.0,SCT,25000.0,,,,
KRDR,03-14-2004,13:00,METAR,,320,19.0,,310/29KTS,9999.0,Cloud Development Not Observable,-6.0,-6.0,30.04,1019.1,,,,0,0,0,,,,,,,,,7/8 Mostly Cloudy,20000.0,,SCT,2000.0,BKN,20000.0,,,,
KRDR,03-14-2004,12:00,METAR,,320,21.0,31.0,,9999.0,Cloud Development Not Observable,-5.0,-5.0,30.00,1017.7,,,,0,0,0,,,,,,,,,7/8 Mostly Cloudy,20000.0,,SCT,2500.0,BKN,20000.0,,,,
KRDR,03-14-2004,11:00,METAR,,320,23.0,28.0,,9999.0,Cloud Development Not Observable,-5.0,-5.0,29.97,1016.4,,,,0,0,0,,,,,,,,,7/8 Mostly Cloudy,2500.0,,BKN,2500.0,BKN,20000.0,,,,
KRDR,03-14-2004,10:02,SPECI,,320,25.0,32.0,,9999.0,Cloud Development Not Observable,-4.0,-4.0,29.94,,,,,0,0,0,,,,,,,,,7/8 Mostly Cloudy,2000.0,,BKN,2000.0,BKN,20000.0,,,,
KRDR,03-14-2004,10:00,METAR,,320,23.0,28.0,,6400.0,Blowing Snow/Cloud Development Not Observable,-4.0,-5.0,29.93,1015.2,,,,38,0,0,,,,,,,,,8/8 Overcast,2000.0,,BKN,2000.0,OVC,20000.0,,,,
KRDR,03-14-2004,09:00,METAR,,310,25.0,31.0,,4800.0,Blowing Snow/Cloud Development Not Observable,-4.0,-4.0,29.91,1014.3,,,,38,0,0,,,,,,,,,7/8 Mostly Cloudy,2000.0,,BKN,2000.0,,,,,,
KRDR,03-14-2004,08:00,METAR,,320,25.0,,,6400.0,Blowing Snow/Cloud Development Not Observable,-4.0,-4.0,29.88,1013.4,,,,38,0,0,,,,,,,,,8/8 Overcast,1900.0,,OVC,1900.0,,,,,,
KRDR,03-14-2004,07:43,SPECI,,310,24.0,31.0,,4800.0,Light Snow/Blowing Snow/Cloud Development Not Observable,-4.0,-4.0,29.84,,,,,71,38,0,,,,,,,,,8/8 Overcast,1800.0,,OVC,1800.0,,,,,,
KRDR,03-14-2004,07:00,METAR,,320,25.0,,,4800.0,Light Snow/Blowing Snow/Cloud Development Not Observable,-4.0,-4.0,29.84,1012.2,,,,71,38,0,,,,,,,,,8/8 Overcast,1500.0,,OVC,1500.0,,,,,,
KRDR,03-14-2004,06:34,SPECI,,320,21.0,26.0,,4800.0,Light Snow/Blowing Snow/Cloud Development Not Observable,-4.0,-4.0,29.84,,,,,71,38,0,,,,,,,,,8/8 Overcast,1700.0,,SCT,1000.0,OVC,1700.0,,,,
KRDR,03-14-2004,06:12,SPECI,,320,21.0,26.0,,800.0,Light Snow/Blowing Snow/Cloud Development Not Observable,-4.0,-4.0,29.83,,,,,71,38,0,,,,,,,,,8/8 Overcast,1000.0,,OVC,1000.0,,,,,,
KRDR,03-14-2004,06:00,METAR,,310,21.0,27.0,,2400.0,Light Snow/Blowing Snow/Cloud Development Not Observable,-4.0,-4.0,29.82,1011.3,,,,71,38,0,,,,,,,,,8/8 Overcast,1500.0,,BKN,1500.0,OVC,2500.0,,,,
KRDR,03-14-2004,05:10,SPECI,,310,18.0,29.0,,2400.0,Light Snow/Blowing Snow/Cloud Development Not Observable,-4.0,-4.0,29.78,,,,,71,38,0,,,,,,,,,8/8 Overcast,1000.0,,BKN,1000.0,OVC,2000.0,,,,
KRDR,03-14-2004,05:00,METAR,,310,19.0,28.0,,6400.0,Light Snow/Blowing Snow/Cloud Development Not Observable,-4.0,-4.0,29.79,1010.3,,,,71,38,0,,,,,,,,,8/8 Overcast,1000.0,,OVC,1000.0,,,,,,
KRDR,03-14-2004,04:42,SPECI,,310,18.0,29.0,,6400.0,Light Snow/Cloud Development Not Observable,-4.0,-4.0,29.78,,,,,71,0,0,,,,,,,,,8/8 Overcast,1400.0,,FEW,700.0,OVC,1400.0,,,,
KRDR,03-14-2004,04:21,SPECI,,310,18.0,29.0,,9999.0,Cloud Development Not Observable,-4.0,-4.0,29.77,,,,,0,0,0,,,,,,,,,8/8 Overcast,1500.0,,OVC,1500.0,,,,,,
KRDR,03-14-2004,04:00,METAR,,320,21.0,,,8000.0,Snow Grains/Cloud Development Not Observable,-4.0,-4.0,29.76,1009.3,,,,77,0,0,,,,,,,,,8/8 Overcast,1400.0,,OVC,1400.0,,,,,,
KRDR,03-14-2004,03:00,METAR,,320,20.0,27.0,,8000.0,Snow Grains/Cloud Development Not Observable,-3.0,-4.0,29.74,1008.7,,,,77,0,0,,,,,,,,,8/8 Overcast,1000.0,,BKN,1000.0,OVC,2000.0,,,,
KRDR,03-14-2004,02:00,METAR,,320,20.0,27.0,,8000.0,Snow Grains/Cloud Development Not Observable,-2.0,-2.0,29.71,1007.5,,,,77,0,0,,,,,,,,,8/8 Overcast,1000.0,,OVC,1000.0,,,,,,
KRDR,03-14-2004,01:43,SPECI,,310,20.0,,,8000.0,Snow/Light Freezing Rain/Cloud Development Not Observable,-2.0,-2.0,29.70,,,,,66,73,0,,,,,,,,,8/8 Overcast,1000.0,,OVC,1000.0,,,,,,
KRDR,03-14-2004,01:15,SPECI,,310,21.0,26.0,,8000.0,Light Snow/Rain/Cloud Development Not Observable,-1.0,-1.0,29.68,,,,,61,71,0,,,,,,,,,8/8 Overcast,1000.0,,OVC,1000.0,,,,,,
KRDR,03-14-2004,01:00,METAR,,300,19.0,28.0,,8000.0,Light Snow/Rain/Cloud Development Not Observable,0.0,0.0,29.66,1006.0,,,,61,71,0,,,,,,,,,8/8 Overcast,1000.0,,FEW,700.0,OVC,1000.0,,,,
KRDR,03-14-2004,00:32,SPECI,,280,20.0,,,8000.0,Light Snow/Rain/Cloud Development Not Observable,0.0,0.0,29.66,,,,,61,71,0,,,,,,,,,8/8 Overcast,1100.0,,FEW,800.0,OVC,1100.0,,,,
KRDR,03-14-2004,00:10,SPECI,,270,18.0,,,9999.0,Snow Grains/Cloud Development Not Observable,-1.0,-1.0,29.66,,,,,77,0,0,,,,,,,,,8/8 Overcast,1100.0,,FEW,800.0,OVC,1100.0,,,,
KRDR,03-14-2004,00:00,METAR,,270,22.0,26.0,250/30KTS,9999.0,Cloud Development Not Observable,-1.0,-2.0,29.66,1005.9,,,,0,0,0,,,,,,,,,8/8 Overcast,1400.0,,SCT,1100.0,OVC,1400.0,,,,
KRDR,03-13-2004,23:00,METAR,,270,21.0,28.0,,9999.0,Cloud Development Not Observable,0.0,-2.0,29.66,1005.9,,,,0,0,0,,,,,,,,,8/8 Overcast,2200.0,,SCT,1500.0,BKN,2200.0,OVC,3500.0,,
KRDR,03-13-2004,22:00,METAR,,270,23.0,31.0,,9999.0,Cloud Development Not Observable,1.0,-1.0,29.64,1005.2,,,,0,0,0,,,,,,,,,8/8 Overcast,10000.0,,SCT,2200.0,OVC,9900.0,,,,
KRDR,03-13-2004,21:00,METAR,,280,22.0,30.0,,9999.0,Cloud Development Not Observable,3.0,-1.0,29.64,1005.1,,,,0,0,0,,,,,,,,,8/8 Overcast,13000.0,,FEW,3800.0,OVC,13000.0,,,,
KRDR,03-13-2004,20:00,METAR,,280,16.0,26.0,,9999.0,Cloud Development Not Observable,4.0,1.0,29.64,1005.1,,,,0,0,0,,,,,,,,,8/8 Overcast,10000.0,,FEW,3800.0,BKN,9900.0,OVC,15000.0,,
KRDR,03-13-2004,19:00,METAR,,280,15.0,,,9999.0,Cloud Development Not Observable,4.0,1.0,29.63,1004.7,,,,0,0,0,,,,,,,,,8/8 Overcast,10000.0,,FEW,6400.0,BKN,9900.0,OVC,20000.0,,
KRDR,03-13-2004,18:00,METAR,,280,14.0,,,9999.0,Cloud Development Not Observable,3.0,1.0,29.64,1005.2,,,,0,0,0,,,,,,,,,8/8 Overcast,10000.0,,FEW,6400.0,BKN,9900.0,OVC,20000.0,,
KRDR,03-13-2004,17:00,METAR,,220,8.0,,,9999.0,Cloud Development Not Observable,2.0,0.0,29.63,1004.8,,,,0,0,0,,,,,,,,,7/8 Mostly Cloudy,10000.0,,SCT,6400.0,BKN,9900.0,,,,
KRDR,03-13-2004,16:00,METAR,,190,11.0,,,9999.0,Cloud Development Not Observable,2.0,0.0,29.64,1005.2,,,,0,0,0,,,,,,,,,8/8 Overcast,8000.0,,FEW,6400.0,OVC,7900.0,,,,
KRDR,03-13-2004,15:00,METAR,,170,11.0,,,9999.0,Cloud Development Not Observable,0.0,-1.0,29.64,1005.2,,,,0,0,0,,,,,,,,,8/8 Overcast,10000.0,,SCT,7900.0,OVC,9900.0,,,,
KRDR,03-13-2004,14:00,METAR,,150,15.0,,,9999.0,Cloud Development Not Observable,0.0,-2.0,29.63,1004.9,,,,0,0,0,,,,,,,,,8/8 Overcast,10000.0,,SCT,7900.0,OVC,9900.0,,,,
KRDR,03-13-2004,13:00,METAR,,140,16.0,,,9999.0,Cloud Development Not Observable,0.0,-2.0,29.66,1005.9,,,,0,0,0,,,,,,,,,8/8 Overcast,11000.0,,SCT,7900.0,OVC,11000.0,,,,
KRDR,03-13-2004,12:00,METAR,,140,17.0,,,9999.0,Cloud Development Not Observable,0.0,-2.0,29.68,1006.6,,,,0,0,0,,,,,,,,,7/8 Mostly Cloudy,10000.0,,BKN,9900.0,,,,,,
KRDR,03-13-2004,11:00,METAR,,130,15.0,,,9999.0,Cloud Development Not Observable,0.0,-2.0,29.68,1006.6,,,,0,0,0,,,,,,,,,7/8 Mostly Cloudy,9000.0,,SCT,5000.0,BKN,8900.0,,,,
KRDR,03-13-2004,10:00,METAR,,140,15.0,,,9999.0,Cloud Development Not Observable,0.0,-2.0,29.71,1007.7,,,,0,0,0,,,,,,,,,7/8 Mostly Cloudy,9000.0,,SCT,5000.0,BKN,8900.0,,,,
KRDR,03-13-2004,09:00,METAR,,130,15.0,,,9999.0,Cloud Development Not Observable,0.0,-2.0,29.76,1009.3,,,,0,0,0,,,,,,,,,7/8 Mostly Cloudy,9000.0,,SCT,5000.0,BKN,8900.0,,,,
KRDR,03-13-2004,08:00,METAR,,130,15.0,,,9999.0,Cloud Development Not Observable,-1.0,-2.0,29.81,1011.0,,,,0,0,0,,,,,,,,,7/8 Mostly Cloudy,9000.0,,SCT,5000.0,BKN,8900.0,,,,
KRDR,03-13-2004,07:00,METAR,,140,14.0,,,9999.0,Cloud Development Not Observable,-1.0,-2.0,29.84,1013.5,,,,0,0,0,,,,,,,,,7/8 Mostly Cloudy,9000.0,,SCT,5000.0,BKN,8900.0,,,,
KRDR,03-13-2004,06:00,METAR,,130,11.0,,,9999.0,Cloud Development Not Observable,-2.0,-3.0,29.89,1014.3,,,,0,0,0,,,,,,,,,8/8 Overcast,9000.0,,SCT,5000.0,OVC,8900.0,,,,
KRDR,03-13-2004,05:00,METAR,,130,11.0,,,9999.0,Cloud Development Not Observable,-2.0,-3.0,29.90,1014.3,,,,0,0,0,,,,,,,,,8/8 Overcast,15000.0,,BKN,15000.0,OVC,20000.0,,,,
KRDR,03-13-2004,04:00,METAR,,130,12.0,,,9999.0,Cloud Development Not Observable,-2.0,-4.0,29.93,1015.5,,,,0,0,0,,,,,,,,,7/8 Mostly Cloudy,15000.0,,BKN,15000.0,BKN,20000.0,,,,
KRDR,03-13-2004,03:00,METAR,,130,11.0,,,9999.0,Cloud Development Not Observable,-2.0,-4.0,29.96,1016.7,,,,0,0,0,,,,,,,,,7/8 Mostly Cloudy,15000.0,,BKN,15000.0,BKN,20000.0,,,,
KRDR,03-13-2004,02:00,METAR,,120,11.0,,,9999.0,Cloud Development Not Observable,-2.0,-3.0,29.98,1017.4,,,,0,0,0,,,,,,,,,7/8 Mostly Cloudy,15000.0,,BKN,15000.0,BKN,20000.0,,,,
KRDR,03-13-2004,01:00,METAR,,130,8.0,,,9999.0,Cloud Development Not Observable,-2.0,-3.0,29.99,1017.5,,,,0,0,0,,,,,,,,,8/8 Overcast,15000.0,,BKN,15000.0,OVC,20000.0,,,,
KRDR,03-13-2004,00:00,METAR,,120,5.0,,,9999.0,Cloud Development Not Observable,-2.0,-3.0,30.01,1018.2,,,,0,0,0,,,,,,,,,8/8 Overcast,15000.0,,BKN,15000.0,OVC,20000.0,,,,
KRDR,03-12-2004,23:00,METAR,,100,5.0,,,9999.0,Cloud Development Not Observable,-2.0,-5.0,30.03,1019.0,,,,0,0,0,,,,,,,,,8/8 Overcast,18000.0,,BKN,18000.0,OVC,25000.0,,,,
KRDR,03-12-2004,22:00,METAR,,170,8.0,,,9999.0,Cloud Development Not Observable,-2.0,-5.0,30.04,1019.4,,,,0,0,0,,,,,,,,,8/8 Overcast,18000.0,,BKN,18000.0,OVC,25000.0,,,,
KRDR,03-12-2004,21:00,METAR,,180,8.0,,,9999.0,Cloud Development Not Observable,-2.0,-6.0,30.05,1019.2,,,,0,0,0,,,,,,,,,8/8 Overcast,25000.0,,SCT,18000.0,OVC,25000.0,,,,
KRDR,03-12-2004,20:00,METAR,,,6.0,,,9999.0,Cloud Development Not Observable,-2.0,-6.0,30.05,1019.7,,,,0,0,0,,,,,,,,,7/8 Mostly Cloudy,25000.0,,BKN,25000.0,,,,,,
KRDR,03-12-2004,17:00,METAR,,200,10.0,,,9999.0,Cloud Development Not Observable,-5.0,-8.0,30.10,1021.6,,,,0,0,0,,,,,,,,,2/8 Mostly Clear,72000.0,,FEW,25000.0,,,,,,
KRDR,03-12-2004,16:00,METAR,,190,11.0,,,9999.0,Cloud Development Not Observable,-7.0,-10.0,30.12,1022.4,,,,0,0,0,,,,,,,,,2/8 Mostly Clear,72000.0,,FEW,25000.0,,,,,,
KRDR,03-12-2004,15:00,METAR,,170,11.0,,,9999.0,Cloud Development Not Observable,-8.0,-10.0,30.12,1022.5,,,,0,0,0,,,,,,,,,2/8 Mostly Clear,72000.0,,FEW,25000.0,,,,,,
KRDR,03-12-2004,14:00,METAR,,180,14.0,,,9999.0,Cloud Development Not Observable,-10.0,-11.0,30.11,1022.2,,,,0,0,0,,,,,,,,,7/8 Mostly Cloudy,25000.0,,SCT,6900.0,BKN,25000.0,,,,
KRDR,03-12-2004,13:00,METAR,,180,13.0,,,9999.0,Cloud Development Not Observable,-11.0,-12.0,30.14,1023.1,,,,0,0,0,,,,,,,,,7/8 Mostly Cloudy,9000.0,,SCT,6900.0,BKN,8900.0,,,,
KRDR,03-12-2004,12:00,METAR,,180,12.0,,,9999.0,Cloud Development Not Observable,-11.0,-12.0,30.15,1023.4,,,,0,0,0,,,,,,,,,7/8 Mostly Cloudy,10000.0,,BKN,9900.0,,,,,,
KRDR,03-12-2004,11:00,METAR,,180,10.0,,,9999.0,Cloud Development Not Observable,-12.0,-13.0,30.19,1024.8,,,,0,0,0,,,,,,,,,7/8 Mostly Cloudy,10000.0,,BKN,9900.0,,,,,,
KRDR,03-12-2004,10:00,METAR,,180,10.0,,,9999.0,Cloud Development Not Observable,-12.0,-13.0,30.21,1025.5,,,,0,0,0,,,,,,,,,7/8 Mostly Cloudy,10000.0,,SCT,6900.0,BKN,9900.0,,,,
KRDR,03-12-2004,09:00,METAR,,190,4.0,,,9999.0,Cloud Development Not Observable,-12.0,-13.0,30.24,1026.5,,,,0,0,0,,,,,,,,,7/8 Mostly Cloudy,8000.0,,BKN,7900.0,,,,,,
KRDR,03-12-2004,08:00,METAR,,190,4.0,,,9999.0,Cloud Development Not Observable,-12.0,-13.0,30.29,1028.2,,,,0,0,0,,,,,,,,,7/8 Mostly Cloudy,8000.0,,BKN,7900.0,,,,,,
KRDR,03-12-2004,07:00,METAR,,250,6.0,,,9999.0,Cloud Development Not Observable,-13.0,-13.0,30.29,1028.4,,,,0,0,0,,,,,,,,,7/8 Mostly Cloudy,8000.0,,BKN,7900.0,BKN,25000.0,,,,
KRDR,03-12-2004,06:00,METAR,,250,6.0,,,9999.0,Cloud Development Not Observable,-13.0,-14.0,30.29,1028.8,,,,0,0,0,,,,,,,,,2/8 Mostly Clear,72000.0,,FEW,25000.0,,,,,,
KRDR,03-12-2004,05:00,METAR,,250,6.0,,,9999.0,Cloud Development Not Observable,-13.0,-14.0,30.30,1028.8,,,,0,0,0,,,,,,,,,2/8 Mostly Clear,72000.0,,FEW,25000.0,,,,,,
KRDR,03-12-2004,04:00,METAR,,270,3.0,,,9999.0,Cloud Development Not Observable,-13.0,-14.0,30.31,1029.2,,,,0,0,0,,,,,,,,,2/8 Mostly Clear,72000.0,,FEW,25000.0,,,,,,
KRDR,03-12-2004,03:00,METAR,,260,6.0,,,9999.0,Cloud Development Not Observable,-14.0,-15.0,30.31,1029.3,,,,0,0,0,,,,,,,,,4/8 Partly Cloudy,72000.0,,SCT,25000.0,,,,,,
KRDR,03-12-2004,02:00,METAR,,260,6.0,,,9999.0,Cloud Development Not Observable,-15.0,-16.0,30.32,1029.7,,,,0,0,0,,,,,,,,,4/8 Partly Cloudy,72000.0,,SCT,25000.0,,,,,,
KRDR,03-12-2004,01:00,METAR,,300,6.0,,,9999.0,Cloud Development Not Observable,-14.0,-16.0,30.34,1030.5,,,,0,0,0,,,,,,,,,4/8 Partly Cloudy,72000.0,,SCT,25000.0,,,,,,
KRDR,03-12-2004,00:00,METAR,,310,10.0,,,9999.0,Cloud Development Not Observable,-12.0,-14.0,30.36,1030.9,,,,0,0,0,,,,,,,,,2/8 Mostly Clear,72000.0,,FEW,25000.0,,,,,,
KRDR,03-11-2004,23:00,METAR,,310,13.0,,,9999.0,Cloud Development Not Observable,-11.0,-13.0,30.35,1030.5,,,,0,0,0,,,,,,,,,2/8 Mostly Clear,72000.0,,FEW,25000.0,,,,,,
KRDR,03-11-2004,22:00,METAR,,320,13.0,,,9999.0,Cloud Development Not Observable,-11.0,-13.0,30.34,1030.3,,,,0,0,0,,,,,,,,,2/8 Mostly Clear,72000.0,,FEW,25000.0,,,,,,
KRDR,03-11-2004,21:00,METAR,,310,14.0,,,9999.0,Cloud Development Not Observable,-11.0,-13.0,30.34,1030.1,,,,0,0,0,,,,,,,,,2/8 Mostly Clear,72000.0,,FEW,25000.0,,,,,,
KRDR,03-11-2004,20:00,METAR,,330,16.0,,,9999.0,Cloud Development Not Observable,-13.0,-15.0,30.34,1030.2,,,,0,0,0,,,,,,,,,Clear,72000.0,,,73000.0,,,,,,
KRDR,03-11-2004,19:00,METAR,,330,16.0,,,9999.0,Cloud Development Not Observable,-14.0,-16.0,30.35,1030.6,,,,0,0,0,,,,,,,,,Clear,72000.0,,,73000.0,,,,,,
KRDR,03-11-2004,18:00,METAR,,330,17.0,,,9999.0,Cloud Development Not Observable,-15.0,-17.0,30.35,1030.8,,,,0,0,0,,,,,,,,,2/8 Mostly Clear,72000.0,,FEW,1500.0,,,,,,
KRDR,03-11-2004,17:00,METAR,,340,20.0,,,9999.0,Cloud Development Not Observable,-17.0,-18.0,30.34,1030.5,,,,0,0,0,,,,,,,,,2/8 Mostly Clear,72000.0,,FEW,1600.0,,,,,,
KRDR,03-11-2004,16:00,METAR,,330,17.0,25.0,,9999.0,Cloud Development Not Observable,-18.0,-19.0,30.33,1030.1,,,,0,0,0,,,,,,,,,4/8 Partly Cloudy,72000.0,,SCT,1600.0,,,,,,
KRDR,03-11-2004,15:00,METAR,,330,20.0,,,9999.0,Cloud Development Not Observable,-19.0,-20.0,30.32,1029.6,,,,0,0,0,,,,,,,,,4/8 Partly Cloudy,72000.0,,SCT,2000.0,,,,,,
KRDR,03-11-2004,14:00,METAR,,340,18.0,,340/25KTS,9999.0,Cloud Development Not Observable,-19.0,-20.0,30.30,1028.8,,,,0,0,0,,,,,,,,,4/8 Partly Cloudy,72000.0,,SCT,2000.0,,,,,,
KRDR,03-11-2004,13:00,METAR,,350,21.0,,340/30KTS,9999.0,Cloud Development Not Observable,-19.0,-20.0,30.28,1028.1,,,,0,0,0,,,,,,,,,8/8 Overcast,2300.0,,FEW,1300.0,BKN,2300.0,OVC,6900.0,,
KRDR,03-11-2004,12:00,METAR,,330,26.0,31.0,,9999.0,Cloud Development Not Observable,-19.0,-20.0,30.26,1027.5,,,,0,0,0,,,,,,,,.11 IN,8/8 Overcast,2300.0,,FEW,1500.0,BKN,2300.0,OVC,6900.0,,
KRDR,03-11-2004,11:28,SPECI,,330,21.0,,,9999.0,Cloud Development Not Observable,-18.0,-19.0,30.25,,,,,0,0,0,,,,,,,,,8/8 Overcast,2200.0,,FEW,1200.0,BKN,2200.0,OVC,6900.0,,
KRDR,03-11-2004,11:00,METAR,,330,22.0,,330/33KTS,8000.0,Blowing Snow/Cloud Development Not Observable,-18.0,-19.0,30.23,1026.4,,,,38,0,0,,,,,,,,,8/8 Overcast,3000.0,,SCT,1300.0,BKN,3000.0,OVC,5000.0,,
KRDR,03-11-2004,10:00,METAR,,330,22.0,,330/30KTS,6400.0,Blowing Snow/Cloud Development Not Observable,-18.0,-19.0,30.20,1025.1,,,,38,0,0,,,,,,,,,8/8 Overcast,3000.0,,SCT,1700.0,BKN,3000.0,OVC,6900.0,,
KRDR,03-11-2004,09:27,SPECI,,340,23.0,28.0,,6400.0,Blowing Snow/Cloud Development Not Observable,-18.0,-18.0,30.19,,,,,38,0,0,,,,,,,,,8/8 Overcast,3000.0,,FEW,1700.0,BKN,3000.0,OVC,6900.0,,
KRDR,03-11-2004,09:00,METAR,,330,25.0,30.0,340/32KTS,1200.0,Blowing Snow/Cloud Development Not Observable,-17.0,-17.0,30.19,1024.7,,,,38,0,0,,,,,,.02 IN,,,8/8 Overcast,3000.0,,SCT,1500.0,BKN,3000.0,OVC,6900.0,,
KRDR,03-11-2004,08:42,SPECI,,330,23.0,29.0,,1200.0,Blowing Snow/Cloud Development Not Observable,-17.0,-17.0,30.18,,,,,38,0,0,,,,,,,,,8/8 Overcast,3000.0,,SCT,1500.0,BKN,3000.0,OVC,6900.0,,
KRDR,03-11-2004,08:23,SPECI,,330,25.0,30.0,,800.0,Light Snow/Blowing Snow/Cloud Development Not Observable,-17.0,-17.0,30.17,,,,,71,38,0,,,,,,,,,8/8 Overcast,3000.0,,SCT,1500.0,BKN,3000.0,OVC,5900.0,,
KRDR,03-11-2004,08:00,METAR,,340,21.0,30.0,350/31KTS,800.0,Light Snow/Blowing Snow/Cloud Development Not Observable,-17.0,-17.0,30.16,1023.7,,,,71,38,0,,,,,,,,,8/8 Overcast,1500.0,,BKN,1500.0,OVC,7900.0,,,,
KRDR,03-11-2004,07:31,SPECI,,340,23.0,29.0,,800.0,Light Snow/Blowing Snow/Cloud Development Not Observable,-17.0,-17.0,30.15,,,,,71,38,0,,,,,,,,,8/8 Overcast,1800.0,,BKN,1800.0,OVC,7900.0,,,,
KRDR,03-11-2004,07:00,METAR,,330,21.0,,,1600.0,Light Snow/Blowing Snow/Cloud Development Not Observable,-17.0,-17.0,30.13,1022.5,,,,71,38,0,,,,,,,,,8/8 Overcast,1500.0,,BKN,1500.0,OVC,7900.0,,,,
KRDR,03-11-2004,06:30,METAR,,330,25.0,32.0,,1200.0,Light Snow/Blowing Snow/Cloud Development Not Observable,-17.0,-17.0,30.13,,,,,71,38,0,,,,,,,,,8/8 Overcast,2000.0,,BKN,2000.0,OVC,7900.0,,,,
KRDR,03-11-2004,06:22,SPECI,,330,24.0,29.0,,3200.0,Blowing Snow/Cloud Development Not Observable,-17.0,-18.0,30.13,,,,,38,0,0,,,,,,,,,8/8 Overcast,8000.0,,SCT,3000.0,OVC,7900.0,,,,
KRDR,03-11-2004,06:00,METAR,,330,25.0,36.0,,1600.0,Blowing Snow/Cloud Development Not Observable,-17.0,-17.0,30.11,1021.8,,,,38,0,0,,,,,,,IN,,8/8 Overcast,9000.0,,FEW,3000.0,OVC,8900.0,,,,
KRDR,03-11-2004,05:37,SPECI,,340,26.0,36.0,,1200.0,Blowing Snow/Cloud Development Not Observable,-17.0,-17.0,30.11,,,,,38,0,0,,,,,,,,,8/8 Overcast,9000.0,,FEW,3000.0,OVC,8900.0,,,,
KRDR,03-11-2004,05:00,METAR,,320,24.0,31.0,,8000.0,Blowing Snow/Cloud Development Not Observable,-15.0,-17.0,30.09,1021.0,,,,38,0,0,,,,,,,,,8/8 Overcast,4900.0,,SCT,2000.0,BKN,5000.0,OVC,8900.0,,
KRDR,03-11-2004,04:41,SPECI,,320,26.0,30.0,,9999.0,Cloud Development Not Observable,-15.0,-17.0,30.09,,,,,0,0,0,,,,,,,,,8/8 Overcast,7000.0,,SCT,2000.0,OVC,6900.0,,,,
KRDR,03-11-2004,04:00,METAR,,340,23.0,33.0,,8000.0,Blowing Snow/Cloud Development Not Observable,-14.0,-16.0,30.06,1020.0,,,,38,0,0,,,,,,,,,8/8 Overcast,1600.0,,BKN,1600.0,OVC,5000.0,,,,
KRDR,03-11-2004,03:00,METAR,,340,23.0,32.0,330/34KTS,9999.0,Drifting Snow/Cloud Development Not Observable,-13.0,-15.0,30.03,1018.9,,,,36,0,0,,,,,,TRACE,,,8/8 Overcast,4900.0,,OVC,5000.0,,,,,,
KRDR,03-11-2004,02:00,METAR,,350,25.0,,350/34KTS,8000.0,Blowing Snow/Cloud Development Not Observable,-12.0,-13.0,29.97,1016.8,,,,38,0,0,,,,,,,,,8/8 Overcast,6000.0,,FEW,1000.0,OVC,5900.0,,,,
KRDR,03-11-2004,01:17,SPECI,,350,29.0,34.0,,4800.0,Blowing Snow/Cloud Development Not Observable,-12.0,-12.0,29.95,,,,,38,0,0,,,,,,,,,8/8 Overcast,3400.0,,SCT,1000.0,OVC,3500.0,,,,
KRDR,03-11-2004,01:00,METAR,,350,24.0,,010/34KTS,1600.0,Blowing Snow/Cloud Development Not Observable,-11.0,-11.0,29.94,1015.6,,,,38,0,0,,,,,,,,,8/8 Overcast,3400.0,,SCT,1500.0,BKN,3500.0,OVC,5900.0,,
KRDR,03-11-2004,00:43,SPECI,,360,28.0,32.0,,800.0,Blowing Snow/Cloud Development Not Observable,-11.0,-11.0,29.93,,,,,38,0,0,,,,,,,,,8/8 Overcast,3400.0,,SCT,1500.0,BKN,3500.0,OVC,5900.0,,
KRDR,03-11-2004,00:23,SPECI,,360,26.0,33.0,,400.0,Light Snow/Blowing Snow/Cloud Development Not Observable,-10.0,-10.0,29.89,,,,,71,38,0,,,,,,,,,8/8 Overcast,1500.0,,FEW,800.0,BKN,1500.0,OVC,2500.0,,
KRDR,03-11-2004,00:00,METAR,,350,25.0,,350/29KTS,400.0,Snow/Blowing Snow/Cloud Development Not Observable,-9.0,-9.0,29.89,1013.3,,,,73,38,0,,,,,,,.02 IN,,Sky Obscured (Unable to Estimate),300.0,100.0,,300.0,,,,,,
KRDR,03-10-2004,23:12,SPECI,,350,21.0,29.0,,400.0,Snow/Blowing Snow/Cloud Development Not Observable,-6.0,-6.0,29.83,,,,,73,38,0,,,,,,,,,8/8 Overcast,300.0,,OVC,300.0,,,,,,
KRDR,03-10-2004,23:00,METAR,,350,21.0,,330/26KTS,3200.0,Light Snow/Mist/Cloud Development Not Observable,-5.0,-5.0,29.83,1011.8,,,,71,10,0,,,,,,,,,8/8 Overcast,1000.0,,FEW,800.0,OVC,1000.0,,,,
KRDR,03-10-2004,22:47,SPECI,,350,20.0,,330/26KTS,3200.0,Light Snow/Cloud Development Not Observable,-5.0,-5.0,29.82,1010.2,,,,71,0,0,,,,,,,,,8/8 Overcast,1500.0,,FEW,800.0,OVC,1500.0,,,,
KRDR,03-10-2004,22:00,METAR,,330,15.0,,,9999.0,Light Snow/Cloud Development Not Observable,-1.0,-2.0,29.80,1010.7,,,,71,0,0,,,,,,,,,7/8 Mostly Cloudy,2600.0,,FEW,800.0,BKN,2600.0,,,,
KRDR,03-10-2004,21:33,SPECI,,320,14.0,26.0,,4800.0,Light Snow/Cloud Development Not Observable,-1.0,-1.0,29.79,,,,,71,0,0,,,,,,,,,7/8 Mostly Cloudy,3900.0,,FEW,800.0,BKN,4000.0,,,,
KRDR,03-10-2004,21:20,METAR,,330,14.0,26.0,,2400.0,Cloud Development Not Observable,-1.0,-1.0,29.79,,,,,0,0,0,,,,,,,,,8/8 Overcast,1500.0,,FEW,800.0,OVC,1500.0,,,,
KRDR,03-10-2004,21:00,METAR,,290,16.0,30.0,270/31KTS,9999.0,Cloud Development Not Observable,1.0,-4.0,29.78,1009.9,,,,0,0,0,,,,,,TRACE,,,8/8 Overcast,3000.0,,SCT,1800.0,BKN,3000.0,OVC,5000.0,,
KRDR,03-10-2004,20:00,METAR,,280,22.0,31.0,,9999.0,Cloud Development Not Observable,1.0,-3.0,29.78,1009.9,,,,0,0,0,,,,,,,,,7/8 Mostly Cloudy,3400.0,,SCT,2300.0,BKN,3500.0,,,,
KRDR,03-10-2004,19:42,SPECI,,290,18.0,28.0,,9999.0,Cloud Development Not Observable,1.0,-2.0,29.79,,,,,0,0,0,,,,,,,,,7/8 Mostly Cloudy,3000.0,,SCT,1500.0,BKN,3000.0,,,,
KRDR,03-10-2004,19:18,SPECI,,290,25.0,31.0,,9999.0,Light Snow/Cloud Development Not Observable,1.0,-3.0,29.78,,,,,71,0,0,,,,,,,,,7/8 Mostly Cloudy,3400.0,,BKN,3500.0,,,,,,
KRDR,03-10-2004,19:00,METAR,,300,21.0,30.0,290/34KTS,9999.0,Cloud Development Not Observable,2.0,-3.0,29.78,1009.9,,,,0,0,0,,,,,,,,,7/8 Mostly Cloudy,3400.0,,BKN,3500.0,,,,,,
KRDR,03-10-2004,18:23,SPECI,,300,25.0,29.0,,9999.0,Cloud Development Not Observable,2.0,-3.0,29.77,,,,,0,0,0,,,,,,,,,7/8 Mostly Cloudy,8000.0,,SCT,3000.0,SCT,7900.0,BKN,12000.0,,
KRDR,03-10-2004,18:00,METAR,,300,26.0,36.0,290/40KTS,9999.0,Cloud Development Not Observable,2.0,-2.0,29.75,1008.9,,,,0,0,0,,,,,,,.09 IN,,7/8 Mostly Cloudy,8000.0,,SCT,3000.0,BKN,7900.0,BKN,12000.0,,
KRDR,03-10-2004,17:00,METAR,,310,23.0,35.0,,9999.0,Cloud Development Not Observable,2.0,-2.0,29.74,1008.5,,,,0,0,0,,,,,,,,,7/8 Mostly Cloudy,8000.0,,SCT,3000.0,BKN,7900.0,BKN,12000.0,,
KRDR,03-10-2004,16:00,METAR,,300,30.0,40.0,,9999.0,Cloud Development Not Observable,2.0,-1.0,29.70,1007.1,,,,0,0,0,,,,,,,,,7/8 Mostly Cloudy,3000.0,,SCT,2200.0,BKN,3000.0,BKN,7900.0,,
KRDR,03-10-2004,15:00,METAR,,300,22.0,34.0,,9999.0,Cloud Development Not Observable,3.0,0.0,29.66,1005.7,,,,0,0,0,,,,,,.09 IN,,,8/8 Overcast,4400.0,,SCT,2800.0,BKN,4500.0,OVC,7900.0,,
KRDR,03-10-2004,14:23,SPECI,,290,22.0,27.0,,9999.0,Cloud Development Not Observable,3.0,1.0,29.64,,,,,0,0,0,,,,,,,,,8/8 Overcast,4400.0,,SCT,1800.0,BKN,4500.0,OVC,7900.0,,
KRDR,03-10-2004,14:00,METAR,,290,21.0,28.0,290/30KTS,9999.0,Light Snow/Rain/Cloud Development Not Observable,2.0,1.0,29.62,1004.2,,,,61,71,0,,,,,,,,,7/8 Mostly Cloudy,1800.0,,BKN,1800.0,BKN,3500.0,,,,
KRDR,03-10-2004,13:27,SPECI,,290,23.0,28.0,,9999.0,Light Snow/Rain/Cloud Development Not Observable,2.0,2.0,29.62,,,,,61,71,0,,,,,,,,,8/8 Overcast,300.0,,FEW,800.0,FEW,1500.0,BKN,1500.0,,
KRDR,03-10-2004,13:10,SPECI,,300,20.0,29.0,,6400.0,Light Snow/Rain/Cloud Development Not Observable,2.0,2.0,29.62,,,,,61,71,0,,,,,,,,,8/8 Overcast,1500.0,,FEW,700.0,OVC,1500.0,,,,
KRDR,03-10-2004,13:00,METAR,,300,20.0,25.0,290/30KTS,8000.0,Rain/Cloud Development Not Observable,2.0,2.0,29.61,1004.0,,,,61,0,0,,,,,,,,,8/8 Overcast,1500.0,,FEW,700.0,OVC,1500.0,,,,
KRDR,03-10-2004,12:35,SPECI,,290,20.0,30.0,,9999.0,Rain/Cloud Development Not Observable,3.0,2.0,29.60,,,,,61,0,0,,,,,,,,,8/8 Overcast,2000.0,,BKN,2000.0,OVC,7900.0,,,,
KRDR,03-10-2004,12:25,METAR,,290,21.0,29.0,,9999.0,Cloud Development Not Observable,3.0,2.0,29.59,,,,,0,0,0,,,,,,,,,8/8 Overcast,2000.0,,BKN,2000.0,OVC,7900.0,,,,
KRDR,03-10-2004,12:00,METAR,,300,16.0,,,9999.0,Cloud Development Not Observable,3.0,2.0,29.57,1002.5,,,,0,0,0,,,,,,,,,8/8 Overcast,9000.0,,OVC,8900.0,,,,,,
KRDR,03-10-2004,11:00,METAR,,290,13.0,,,9999.0,Cloud Development Not Observable,4.0,2.0,29.54,1001.4,,,,0,0,0,,,,,,,,,7/8 Mostly Cloudy,10000.0,,FEW,5000.0,BKN,9900.0,,,,
KRDR,03-10-2004,10:00,METAR,,210,13.0,,,9999.0,Cloud Development Not Observable,3.0,0.0,29.52,1000.7,,,,0,0,0,,,,,,,,,8/8 Overcast,10000.0,,OVC,9900.0,,,,,,
KRDR,03-10-2004,09:00,METAR,,190,13.0,,,9999.0,Cloud Development Not Observable,3.0,0.0,29.53,1001.1,,,,0,0,0,,,,,,,,,7/8 Mostly Cloudy,15000.0,,BKN,15000.0,,,,,,
KRDR,03-10-2004,08:00,METAR,,190,17.0,,,9999.0,Cloud Development Not Observable,3.0,0.0,29.56,1002.1,,,,0,0,0,,,,,,,,,7/8 Mostly Cloudy,20000.0,,FEW,9900.0,BKN,20000.0,,,,
KRDR,03-10-2004,07:00,METAR,,190,20.0,,190/26KTS,9999.0,Cloud Development Not Observable,3.0,0.0,29.58,1003.0,,,,0,0,0,,,,,,,,,4/8 Partly Cloudy,72000.0,,FEW,9900.0,SCT,20000.0,,,,
KRDR,03-10-2004,06:00,METAR,,190,19.0,,,9999.0,Cloud Development Not Observable,3.0,0.0,29.62,1004.2,,,,0,0,0,,,,,,,,,4/8 Partly Cloudy,72000.0,,SCT,20000.0,,,,,,
KRDR,03-10-2004,05:00,METAR,,170,16.0,,,9999.0,Cloud Development Not Observable,3.0,1.0,29.67,1006.0,,,,0,0,0,,,,,,,,,4/8 Partly Cloudy,72000.0,,SCT,20000.0,,,,,,
KRDR,03-10-2004,04:00,METAR,,170,17.0,,170/25KTS,9999.0,Cloud Development Not Observable,3.0,1.0,29.70,1007.2,,,,0,0,0,,,,,,,,,2/8 Mostly Clear,72000.0,,FEW,25000.0,,,,,,
KRDR,03-10-2004,03:00,METAR,,170,19.0,,180/30KTS,9999.0,Cloud Development Not Observable,3.0,2.0,29.73,1008.3,,,,0,0,0,,,,,,,,,2/8 Mostly Clear,72000.0,,FEW,25000.0,,,,,,
KRDR,03-10-2004,02:00,METAR,,180,23.0,,170/27KTS,9999.0,Cloud Development Not Observable,4.0,2.0,29.76,1009.4,,,,0,0,0,,,,,,,,,4/8 Partly Cloudy,72000.0,,SCT,20000.0,,,,,,
KRDR,03-10-2004,01:00,METAR,,180,18.0,,,9999.0,Cloud Development Not Observable,3.0,2.0,29.82,1011.5,,,,0,0,0,,,,,,,,,7/8 Mostly Cloudy,20000.0,,BKN,20000.0,,,,,,
KRDR,03-10-2004,00:00,METAR,,160,14.0,,,9999.0,Cloud Development Not Observable,3.0,2.0,29.88,1013.4,,,,0,0,0,,,,,,,,,2/8 Mostly Clear,72000.0,,FEW,20000.0,,,,,,
KRDR,03-09-2004,23:00,METAR,,170,16.0,,,9999.0,Cloud Development Not Observable,4.0,2.0,29.93,1015.0,,,,0,0,0,,,,,,,,,4/8 Partly Cloudy,72000.0,,SCT,20000.0,,,,,,
KRDR,03-09-2004,22:00,METAR,,180,15.0,,,9999.0,Cloud Development Not Observable,4.0,1.0,29.97,1016.4,,,,0,0,0,,,,,,,,,4/8 Partly Cloudy,72000.0,,SCT,20000.0,,,,,,
KRDR,03-09-2004,21:00,METAR,,180,17.0,23.0,,9999.0,Cloud Development Not Observable,4.0,0.0,30.01,1017.7,,,,0,0,0,,,,,,,,,7/8 Mostly Cloudy,20000.0,,BKN,20000.0,,,,,,
KRDR,03-09-2004,20:00,METAR,,190,16.0,,,9999.0,Cloud Development Not Observable,3.0,0.0,30.06,1019.5,,,,0,0,0,,,,,,,,,7/8 Mostly Cloudy,20000.0,,BKN,20000.0,,,,,,
KRDR,03-09-2004,19:00,METAR,,200,13.0,,,9999.0,Cloud Development Not Observable,0.0,0.0,30.11,1021.3,,,,0,0,0,,,,,,,,,7/8 Mostly Cloudy,25000.0,,BKN,25000.0,,,,,,
KRDR,03-09-2004,18:00,METAR,,190,13.0,,,9999.0,Cloud Development Not Observable,3.0,-1.0,30.14,1022.3,,,,0,0,0,,,,,,,,,7/8 Mostly Cloudy,25000.0,,BKN,25000.0,,,,,,
KRDR,03-09-2004,17:00,METAR,,200,11.0,,,9999.0,Cloud Development Not Observable,3.0,-1.0,30.19,1023.8,,,,0,0,0,,,,,,,,,7/8 Mostly Cloudy,25000.0,,BKN,25000.0,,,,,,
KRDR,03-09-2004,16:00,METAR,,210,9.0,,,9999.0,Cloud Development Not Observable,0.0,-3.0,30.21,1024.6,,,,0,0,0,,,,,,,,,4/8 Partly Cloudy,72000.0,,SCT,25000.0,,,,,,
KRDR,03-09-2004,15:00,METAR,,220,9.0,,,9999.0,Cloud Development Not Observable,-3.0,-4.0,30.24,1025.7,,,,0,0,0,,,,,,,,,4/8 Partly Cloudy,72000.0,,SCT,25000.0,,,,,,
KRDR,03-09-2004,14:00,METAR,,240,6.0,,,9999.0,Cloud Development Not Observable,-5.0,-5.0,30.25,1026.1,,,,0,0,0,,,,,,,,,4/8 Partly Cloudy,72000.0,,SCT,25000.0,,,,,,
KRDR,03-09-2004,13:00,METAR,,220,5.0,,,9999.0,Cloud Development Not Observable,-6.0,-6.0,30.26,1026.5,,,,0,0,0,,,,,,,,,4/8 Partly Cloudy,72000.0,,SCT,25000.0,,,,,,
KRDR,03-09-2004,12:00,METAR,,240,6.0,,,9999.0,Cloud Development Not Observable,-4.0,-5.0,30.27,1026.5,,,,0,0,0,,,,,,,,,2/8 Mostly Clear,72000.0,,FEW,25000.0,,,,,,
KRDR,03-09-2004,11:00,METAR,,230,6.0,,,9999.0,Cloud Development Not Observable,-4.0,-4.0,30.27,1026.5,,,,0,0,0,,,,,,,,,2/8 Mostly Clear,72000.0,,FEW,25000.0,,,,,,
KRDR,03-09-2004,10:00,METAR,,270,9.0,,,9999.0,Cloud Development Not Observable,-3.0,-4.0,30.27,1026.5,,,,0,0,0,,,,,,,,,2/8 Mostly Clear,72000.0,,FEW,25000.0,,,,,,
KRDR,03-09-2004,09:00,METAR,,280,10.0,,,9999.0,Cloud Development Not Observable,-2.0,-3.0,30.28,1027.0,,,,0,0,0,,,,,,,,,2/8 Mostly Clear,72000.0,,FEW,25000.0,,,,,,
KRDR,03-09-2004,08:00,METAR,,290,8.0,,,9999.0,Cloud Development Not Observable,0.0,-2.0,30.27,1026.4,,,,0,0,0,,,,,,,,,2/8 Mostly Clear,72000.0,,FEW,25000.0,,,,,,
KRDR,03-09-2004,07:00,METAR,,300,13.0,,,9999.0,Cloud Development Not Observable,-1.0,-2.0,30.24,1025.6,,,,0,0,0,,,,,,,,,2/8 Mostly Clear,72000.0,,FEW,25000.0,,,,,,
KRDR,03-09-2004,06:00,METAR,,300,13.0,,,9999.0,Cloud Development Not Observable,0.0,-1.0,30.25,1025.9,,,,0,0,0,,,,,,,,,Clear,72000.0,,,73000.0,,,,,,
KRDR,03-09-2004,05:00,METAR,,300,13.0,,,9999.0,Cloud Development Not Observable,1.0,-1.0,30.25,1025.9,,,,0,0,0,,,,,,,,,Clear,72000.0,,,73000.0,,,,,,
KRDR,03-09-2004,04:00,METAR,,300,14.0,,,9999.0,Cloud Development Not Observable,1.0,-1.0,30.23,1025.2,,,,0,0,0,,,,,,,,,Clear,72000.0,,,73000.0,,,,,,
KRDR,03-09-2004,03:00,METAR,,290,11.0,,,9999.0,Cloud Development Not Observable,2.0,0.0,30.20,1024.2,,,,0,0,0,,,,,,,,,Clear,72000.0,,,73000.0,,,,,,
KRDR,03-09-2004,02:00,METAR,,300,12.0,,,9999.0,Cloud Development Not Observable,2.0,0.0,30.19,1023.9,,,,0,0,0,,,,,,,,,Clear,72000.0,,,73000.0,,,,,,
KRDR,03-09-2004,01:00,METAR,,300,12.0,,,9999.0,Cloud Development Not Observable,2.0,0.0,30.17,1023.3,,,,0,0,0,,,,,,,,,2/8 Mostly Clear,72000.0,,FEW,20000.0,,,,,,
KRDR,03-09-2004,00:00,METAR,,300,12.0,,,9999.0,Cloud Development Not Observable,3.0,0.0,30.14,1022.4,,,,0,0,0,,,,,,,,,Clear,72000.0,,,73000.0,,,,,,
KRDR,03-08-2004,23:00,METAR,,310,11.0,,,9999.0,Cloud Development Not Observable,3.0,0.0,30.12,1021.6,,,,0,0,0,,,,,,,,,2/8 Mostly Clear,72000.0,,FEW,20000.0,,,,,,
KRDR,03-08-2004,22:00,METAR,,300,13.0,,,9999.0,Cloud Development Not Observable,3.0,0.0,30.09,1020.6,,,,0,0,0,,,,,,,,,4/8 Partly Cloudy,72000.0,,SCT,20000.0,,,,,,
KRDR,03-08-2004,21:00,METAR,,310,14.0,,,9999.0,Cloud Development Not Observable,4.0,0.0,30.06,1019.5,,,,0,0,0,,,,,,,,,4/8 Partly Cloudy,72000.0,,SCT,20000.0,,,,,,
KRDR,03-08-2004,20:00,METAR,,310,16.0,,,9999.0,Cloud Development Not Observable,4.0,0.0,30.04,1018.9,,,,0,0,0,,,,,,,,,2/8 Mostly Clear,72000.0,,FEW,20000.0,,,,,,
KRDR,03-08-2004,18:00,METAR,,310,20.0,,,9999.0,Cloud Development Not Observable,3.0,0.0,29.98,1016.9,,,,0,0,0,,,,,,,,,2/8 Mostly Clear,72000.0,,FEW,20000.0,,,,,,
KRDR,03-08-2004,17:00,METAR,,310,18.0,,,9999.0,Cloud Development Not Observable,3.0,0.0,29.94,1015.5,,,,0,0,0,,,,,,,,,2/8 Mostly Clear,72000.0,,FEW,20000.0,,,,,,
KRDR,03-08-2004,16:00,METAR,,310,18.0,,,9999.0,Cloud Development Not Observable,2.0,-1.0,29.91,1014.4,,,,0,0,0,,,,,,,,,2/8 Mostly Clear,72000.0,,FEW,20000.0,,,,,,
KRDR,03-08-2004,15:00,METAR,,320,12.0,,,9999.0,Cloud Development Not Observable,1.0,-1.0,29.88,1013.5,,,,0,0,0,,,,,,,,,2/8 Mostly Clear,72000.0,,FEW,20000.0,,,,,,
KRDR,03-08-2004,14:00,METAR,,280,10.0,,,9999.0,Cloud Development Not Observable,-3.0,-4.0,29.86,1013.0,,,,0,0,0,,,,,,,,,2/8 Mostly Clear,72000.0,,FEW,15000.0,,,,,,
KRDR,03-08-2004,13:00,METAR,,180,8.0,,,9999.0,Cloud Development Not Observable,-5.0,-5.0,29.85,1012.7,,,,0,0,0,,,,,,,,,2/8 Mostly Clear,72000.0,,FEW,9900.0,,,,,,
KRDR,03-08-2004,12:00,METAR,,180,9.0,,,9999.0,Cloud Development Not Observable,-5.0,-5.0,29.86,1012.9,,,,0,0,0,,,,,,,,,4/8 Partly Cloudy,72000.0,,SCT,9900.0,SCT,20000.0,,,,
KRDR,03-08-2004,11:00,METAR,,180,15.0,,,9999.0,Cloud Development Not Observable,-4.0,-5.0,29.86,1012.9,,,,0,0,0,,,,,,,,,7/8 Mostly Cloudy,10000.0,,BKN,9900.0,BKN,20000.0,,,,
KRDR,03-08-2004,10:00,METAR,,180,12.0,,,9999.0,Cloud Development Not Observable,-4.0,-5.0,29.94,1015.6,,,,0,0,0,,,,,,,,,7/8 Mostly Cloudy,10000.0,,BKN,9900.0,BKN,20000.0,,,,
KRDR,03-08-2004,09:00,METAR,,180,13.0,,,9999.0,Cloud Development Not Observable,-4.0,-6.0,29.97,1017.0,,,,0,0,0,,,,,,,,,7/8 Mostly Cloudy,20000.0,,SCT,9900.0,BKN,20000.0,,,,
KRDR,03-08-2004,08:00,METAR,,140,10.0,,,9999.0,Cloud Development Not Observable,-5.0,-6.0,29.98,1017.0,,,,0,0,0,,,,,,,,,4/8 Partly Cloudy,72000.0,,SCT,20000.0,,,,,,
KRDR,03-08-2004,07:00,METAR,,190,10.0,,,9999.0,Cloud Development Not Observable,-7.0,-8.0,30.04,1019.1,,,,0,0,0,,,,,,,,,4/8 Partly Cloudy,72000.0,,SCT,20000.0,,,,,,
KRDR,03-08-2004,06:00,METAR,,160,8.0,,,9999.0,Cloud Development Not Observable,-8.0,-8.0,30.08,1020.4,,,,0,0,0,,,,,,,,,7/8 Mostly Cloudy,20000.0,,BKN,20000.0,,,,,,
KRDR,03-08-2004,05:00,METAR,,210,7.0,,,9999.0,Cloud Development Not Observable,-7.0,-7.0,30.10,1021.2,,,,0,0,0,,,,,,,,,4/8 Partly Cloudy,72000.0,,SCT,20000.0,,,,,,
KRDR,03-08-2004,04:00,METAR,,210,7.0,,,9999.0,Cloud Development Not Observable,-7.0,-8.0,30.14,1022.5,,,,0,0,0,,,,,,,,,Clear,72000.0,,,73000.0,,,,,,
KRDR,03-08-2004,03:00,METAR,,220,6.0,,,9999.0,Cloud Development Not Observable,-6.0,-8.0,30.17,1023.5,,,,0,0,0,,,,,,,,,Clear,72000.0,,,73000.0,,,,,,
KRDR,03-08-2004,02:00,METAR,,250,8.0,,,9999.0,Cloud Development Not Observable,-5.0,-6.0,30.19,1024.2,,,,0,0,0,,,,,,,,,4/8 Partly Cloudy,72000.0,,SCT,20000.0,,,,,,
KRDR,03-08-2004,01:00,METAR,,270,11.0,,,9999.0,Cloud Development Not Observable,-3.0,-6.0,30.21,1024.9,,,,0,0,0,,,,,,,,,7/8 Mostly Cloudy,20000.0,,SCT,11000.0,BKN,20000.0,,,,
KRDR,03-08-2004,00:00,METAR,,280,11.0,,,9999.0,Cloud Development Not Observable,-3.0,-6.0,30.20,1024.6,,,,0,0,0,,,,,,,,,7/8 Mostly Cloudy,15000.0,,SCT,11000.0,BKN,15000.0,,,,
KRDR,03-07-2004,23:00,METAR,,280,13.0,,,9999.0,Cloud Development Not Observable,-3.0,-5.0,30.19,1024.2,,,,0,0,0,,,,,,,,,7/8 Mostly Cloudy,15000.0,,SCT,12000.0,BKN,15000.0,,,,
KRDR,03-07-2004,22:00,METAR,,280,15.0,,,9999.0,Cloud Development Not Observable,-2.0,-5.0,30.19,1024.2,,,,0,0,0,,,,,,,,,7/8 Mostly Cloudy,20000.0,,SCT,12000.0,BKN,20000.0,,,,
KRDR,03-07-2004,21:00,METAR,,290,15.0,,,9999.0,Cloud Development Not Observable,-1.0,-5.0,30.19,1024.2,,,,0,0,0,,,,,,,,,7/8 Mostly Cloudy,20000.0,,SCT,12000.0,BKN,20000.0,,,,
KRDR,03-07-2004,20:00,METAR,,300,15.0,,,9999.0,Cloud Development Not Observable,-2.0,-5.0,30.19,1024.2,,,,0,0,0,,,,,,,,,2/8 Mostly Clear,72000.0,,FEW,15000.0,,,,,,
KRDR,03-07-2004,19:00,METAR,,300,17.0,,290/25KTS,9999.0,Cloud Development Not Observable,-2.0,-5.0,30.19,1024.2,,,,0,0,0,,,,,,,,,2/8 Mostly Clear,72000.0,,FEW,15000.0,,,,,,
KRDR,03-07-2004,18:00,METAR,,300,21.0,,,9999.0,Cloud Development Not Observable,-2.0,-5.0,30.19,1024.2,,,,0,0,0,,,,,,,IN,,2/8 Mostly Clear,72000.0,,FEW,4000.0,,,,,,
KRDR,03-07-2004,17:00,METAR,,320,18.0,,,9999.0,Cloud Development Not Observable,-2.0,-5.0,30.16,1023.2,,,,0,0,0,,,,,,,,,4/8 Partly Cloudy,72000.0,,SCT,4000.0,,,,,,
KRDR,03-07-2004,16:00,METAR,,310,17.0,,,9999.0,Cloud Development Not Observable,-3.0,-5.0,30.14,1022.5,,,,0,0,0,,,,,,,,,4/8 Partly Cloudy,72000.0,,SCT,4000.0,,,,,,
KRDR,03-07-2004,15:44,SPECI,,310,18.0,,,9999.0,Cloud Development Not Observable,-3.0,-5.0,30.13,,,,,0,0,0,,,,,,,,,4/8 Partly Cloudy,72000.0,,SCT,3500.0,,,,,,
KRDR,03-07-2004,15:00,METAR,,310,21.0,27.0,,8000.0,Blowing Snow/Cloud Development Not Observable,-3.0,-5.0,30.09,1020.6,,,,38,0,0,,,,,,TRACE,,,4/8 Partly Cloudy,72000.0,,SCT,3500.0,,,,,,
KRDR,03-07-2004,14:05,SPECI,,300,20.0,,,8000.0,Blowing Snow/Cloud Development Not Observable,-3.0,-4.0,30.06,,,,,38,0,0,,,,,,,,,7/8 Mostly Cloudy,3400.0,,BKN,3500.0,,,,,,
KRDR,03-07-2004,14:00,METAR,,310,20.0,29.0,,6400.0,Light Snow/Blowing Snow/Cloud Development Not Observable,-3.0,-4.0,30.05,1019.3,,,,71,38,0,,,,,,,,,7/8 Mostly Cloudy,3400.0,,SCT,2000.0,BKN,3500.0,,,,
KRDR,03-07-2004,13:00,METAR,,300,21.0,,,4800.0,Light Snow/Blowing Snow/Cloud Development Not Observable,-2.0,-3.0,30.02,1018.2,,,,71,38,0,,,,,,,,,7/8 Mostly Cloudy,3000.0,,SCT,1900.0,BKN,3000.0,,,,
KRDR,03-07-2004,12:13,SPECI,,300,13.0,,,8000.0,Light Snow/Cloud Development Not Observable,-2.0,-3.0,29.99,,,,,71,0,0,,,,,,,,,8/8 Overcast,3400.0,,SCT,2000.0,OVC,3500.0,,,,
KRDR,03-07-2004,12:00,METAR,,320,14.0,,,9999.0,Cloud Development Not Observable,-2.0,-3.0,29.98,1015.7,,,,0,0,0,,,,,,,,,7/8 Mostly Cloudy,3500.0,,SCT,2400.0,BKN,3600.0,,,,
KRDR,03-07-2004,11:00,METAR,,320,18.0,,310/26KTS,9999.0,Cloud Development Not Observable,-2.0,-3.0,29.95,1015.7,,,,0,0,0,,,,,,,,,7/8 Mostly Cloudy,3400.0,,BKN,3500.0,,,,,,
KRDR,03-07-2004,10:35,SPECI,,310,18.0,25.0,,9999.0,Cloud Development Not Observable,-2.0,-3.0,29.93,,,,,0,0,0,,,,,,,,,7/8 Mostly Cloudy,3400.0,,FEW,2200.0,BKN,3500.0,,,,
KRDR,03-07-2004,10:00,METAR,,310,18.0,26.0,320/28KTS,9999.0,Cloud Development Not Observable,-1.0,-3.0,29.90,1014.2,,,,0,0,0,,,,,,,,,7/8 Mostly Cloudy,2200.0,,BKN,2200.0,,,,,,
KRDR,03-07-2004,09:00,METAR,,320,22.0,29.0,,9999.0,Cloud Development Not Observable,-1.0,-3.0,29.88,1013.5,,,,0,0,0,,,,,,,,,7/8 Mostly Cloudy,2200.0,,BKN,2200.0,,,,,,
KRDR,03-07-2004,08:00,METAR,,320,19.0,,310/32KTS,9999.0,Cloud Development Not Observable,-1.0,-3.0,29.86,1012.8,,,,0,0,0,,,,,,,,,7/8 Mostly Cloudy,2200.0,,BKN,2200.0,,,,,,
KRDR,03-07-2004,07:00,METAR,,310,19.0,,320/29KTS,9999.0,Cloud Development Not Observable,-1.0,-3.0,29.82,1011.4,,,,0,0,0,,,,,,,,,8/8 Overcast,2000.0,,OVC,2000.0,,,,,,
KRDR,03-07-2004,06:00,METAR,,310,27.0,32.0,,9999.0,Cloud Development Not Observable,-2.0,-3.0,29.69,1007.7,,,,0,0,0,,,,,,,,,8/8 Overcast,2000.0,,BKN,2000.0,OVC,15000.0,,,,
KRDR,03-07-2004,05:30,METAR,,310,20.0,,,9999.0,Cloud Development Not Observable,-2.0,-3.0,29.77,,,,,0,0,0,,,,,,,,,8/8 Overcast,2000.0,,BKN,2000.0,OVC,15000.0,,,,
KRDR,03-07-2004,05:00,METAR,,300,15.0,,300/27KTS,9999.0,Cloud Development Not Observable,-2.0,-3.0,29.76,1007.7,,,,0,0,0,,,,,,,,,7/8 Mostly Cloudy,15000.0,,SCT,2100.0,BKN,15000.0,,,,
KRDR,03-07-2004,04:00,METAR,,290,15.0,,,9999.0,Cloud Development Not Observable,-2.0,-3.0,29.71,1007.7,,,,0,0,0,,,,,,,,,4/8 Partly Cloudy,72000.0,,SCT,15000.0,,,,,,
KRDR,03-07-2004,02:00,METAR,,280,14.0,,,9999.0,Cloud Development Not Observable,-1.0,-2.0,29.65,1006.1,,,,0,0,0,,,,,,,,,7/8 Mostly Cloudy,15000.0,,BKN,15000.0,,,,,,
KRDR,03-07-2004,01:00,METAR,,290,16.0,,,9999.0,Cloud Development Not Observable,0.0,-1.0,29.63,1005.4,,,,0,0,0,,,,,,,,,7/8 Mostly Cloudy,12000.0,,SCT,1500.0,BKN,12000.0,,,,
KRDR,03-07-2004,00:00,METAR,,290,17.0,,,9999.0,Cloud Development Not Observable,0.0,-1.0,29.61,1004.5,,,,0,0,0,,,,,,,,,8/8 Overcast,12000.0,,SCT,1500.0,BKN,12000.0,OVC,25000.0,,
KRDR,03-06-2004,23:00,METAR,,210,14.0,,,9999.0,Cloud Development Not Observable,0.0,-1.0,29.58,1003.4,,,,0,0,0,,,,,,,,,8/8 Overcast,8000.0,,SCT,1500.0,OVC,7900.0,,,,
KRDR,03-06-2004,22:00,METAR,,190,16.0,22.0,,9999.0,Cloud Development Not Observable,-1.0,-2.0,29.57,1003.3,,,,0,0,0,,,,,,,,,7/8 Mostly Cloudy,8000.0,,SCT,2000.0,BKN,7900.0,,,,
KRDR,03-06-2004,21:00,METAR,,180,18.0,24.0,,9999.0,Cloud Development Not Observable,-1.0,-3.0,29.56,1002.9,,,,0,0,0,,,,,,,,,7/8 Mostly Cloudy,8000.0,,SCT,2000.0,BKN,7900.0,,,,
KRDR,03-06-2004,20:00,METAR,,180,20.0,27.0,,9999.0,Cloud Development Not Observable,-1.0,-3.0,29.55,1002.5,,,,0,0,0,,,,,,,,,8/8 Overcast,10000.0,,SCT,1800.0,OVC,9900.0,,,,
KRDR,03-06-2004,19:00,METAR,,170,21.0,28.0,,9999.0,Cloud Development Not Observable,-2.0,-3.0,29.56,1002.9,,,,0,0,0,,,,,,,,,8/8 Overcast,10000.0,,SCT,2000.0,OVC,9900.0,,,,
KRDR,03-06-2004,18:00,METAR,,160,22.0,27.0,,9999.0,Cloud Development Not Observable,-3.0,-4.0,29.56,1002.9,,,,0,0,0,,,,,,,,,8/8 Overcast,10000.0,,SCT,2000.0,OVC,9900.0,,,,
KRDR,03-06-2004,17:00,METAR,,150,17.0,,160/27KTS,9999.0,Cloud Development Not Observable,-6.0,-7.0,29.59,1003.9,,,,0,0,0,,,,,,,,,8/8 Overcast,10000.0,,SCT,1200.0,OVC,9900.0,,,,
KRDR,03-06-2004,16:00,METAR,,160,19.0,,160/27KTS,9999.0,Cloud Development Not Observable,-7.0,-7.0,29.59,1004.0,,,,0,0,0,,,,,,,,,8/8 Overcast,9000.0,,SCT,2000.0,OVC,8900.0,,,,
KRDR,03-06-2004,15:00,METAR,,160,18.0,24.0,,9999.0,Cloud Development Not Observable,-10.0,-10.0,29.60,1004.3,,,,0,0,0,,,,,,,,,8/8 Overcast,15000.0,,SCT,9900.0,OVC,15000.0,,,,
KRDR,03-06-2004,14:00,METAR,,160,16.0,,,9999.0,Cloud Development Not Observable,-10.0,-10.0,29.62,1005.2,,,,0,0,0,,,,,,,,,7/8 Mostly Cloudy,15000.0,,BKN,15000.0,,,,,,
KRDR,03-06-2004,13:00,METAR,,150,11.0,,,9999.0,Cloud Development Not Observable,-10.0,-10.0,29.65,1006.0,,,,0,0,0,,,,,,,,,7/8 Mostly Cloudy,15000.0,,BKN,15000.0,,,,,,
KRDR,03-06-2004,12:00,METAR,,130,9.0,,,9999.0,Cloud Development Not Observable,-10.0,-10.0,29.66,1006.4,,,,0,0,0,,,,,,,,.08 IN,7/8 Mostly Cloudy,15000.0,,BKN,15000.0,,,,,,
KRDR,03-06-2004,11:18,SPECI,,130,9.0,,,9999.0,Cloud Development Not Observable,-10.0,-10.0,29.67,,,,,0,0,0,,,,,,,,,7/8 Mostly Cloudy,10000.0,,BKN,9900.0,,,,,,
KRDR,03-06-2004,11:00,METAR,,180,6.0,,,1600.0,Mist/Cloud Development Not Observable,-9.0,-9.0,29.70,1007.5,,,,10,0,0,,,,,,,,,7/8 Mostly Cloudy,1700.0,,BKN,1700.0,,,,,,
KRDR,03-06-2004,10:38,SPECI,,190,9.0,,,1600.0,Mist/Cloud Development Not Observable,-12.0,-12.0,29.70,,,,,10,0,0,,,,,,,,,7/8 Mostly Cloudy,1700.0,,BKN,1700.0,,,,,,
KRDR,03-06-2004,10:00,METAR,,180,8.0,,,1600.0,Mist/Cloud Development Not Observable,-8.0,-8.0,29.71,1008.1,,,,10,0,0,,,,,,,,,2/8 Mostly Clear,72000.0,,FEW,100.0,,,,,,
KRDR,03-06-2004,09:00,METAR,,210,9.0,,,1600.0,Mist/Cloud Development Not Observable,-9.0,-9.0,29.74,1009.1,,,,10,0,0,,,,,,,,,8/8 Overcast,100.0,,OVC,100.0,,,,,,
KRDR,03-06-2004,08:00,METAR,,240,8.0,,,1600.0,Mist/Cloud Development Not Observable,-8.0,-8.0,29.75,1009.4,,,,10,0,0,,,,,,,,,8/8 Overcast,100.0,,BKN,100.0,OVC,300.0,,,,
KRDR,03-06-2004,07:25,METAR,,230,7.0,,,1600.0,Mist/Cloud Development Not Observable,-8.0,-8.0,29.76,,,,,10,0,0,,,,,,,,,8/8 Overcast,100.0,,BKN,100.0,OVC,300.0,,,,
KRDR,03-06-2004,07:00,METAR,,230,7.0,,,9999.0,Cloud Development Not Observable,-8.0,-8.0,29.76,1009.7,,,,0,0,0,,,,,,,,,8/8 Overcast,500.0,,FEW,300.0,OVC,500.0,,,,
KRDR,03-06-2004,06:00,METAR,,230,5.0,,,9999.0,Cloud Development Not Observable,-7.0,-7.0,29.77,1009.9,,,,0,0,0,,,,,,,,,8/8 Overcast,500.0,,OVC,500.0,,,,,,
KRDR,03-06-2004,05:00,METAR,,250,8.0,,,9999.0,Cloud Development Not Observable,-7.0,-7.0,,,,,,0,0,0,,,,,,,,,8/8 Overcast,900.0,,OVC,900.0,,,,,,
KRDR,03-06-2004,03:00,METAR,,310,4.0,,,9999.0,Cloud Development Not Observable,-5.0,-5.0,29.82,1011.9,,,,0,0,0,,,,,,,,,8/8 Overcast,1200.0,,OVC,1200.0,,,,,,
KRDR,03-06-2004,02:00,METAR,,350,5.0,,,9999.0,Cloud Development Not Observable,-5.0,-5.0,29.83,1012.1,,,,0,0,0,,,,,,,,,8/8 Overcast,1400.0,,BKN,1400.0,OVC,3500.0,,,,
KRDR,03-06-2004,01:00,METAR,,340,8.0,,,9999.0,Cloud Development Not Observable,-5.0,-5.0,29.82,1011.9,,,,0,0,0,,,,,,,,,8/8 Overcast,2000.0,,BKN,2000.0,OVC,3500.0,,,,
KRDR,03-06-2004,00:00,METAR,,340,8.0,,,9999.0,Cloud Development Not Observable,-4.0,-5.0,29.82,1011.9,,,,0,0,0,,,,,,,.01 IN,,8/8 Overcast,3400.0,,SCT,2000.0,OVC,3500.0,,,,
KRDR,03-05-2004,23:00,METAR,,340,10.0,,,9999.0,Cloud Development Not Observable,-4.0,-4.0,29.83,1012.2,,,,0,0,0,,,,,,,,,8/8 Overcast,3400.0,,SCT,2000.0,OVC,3500.0,,,,
KRDR,03-05-2004,22:00,METAR,,330,11.0,,,9999.0,Cloud Development Not Observable,-4.0,-4.0,29.83,1012.2,,,,0,0,0,,,,,,,,,8/8 Overcast,3400.0,,SCT,1500.0,OVC,3500.0,,,,
KRDR,03-05-2004,21:00,METAR,,330,13.0,,,9999.0,Light Snow/Cloud Development Not Observable,-3.0,-4.0,29.83,1012.2,,,,71,0,0,,,,,,.01 IN,,,8/8 Overcast,3400.0,,SCT,1200.0,OVC,3500.0,,,,
KRDR,03-05-2004,20:00,METAR,,320,13.0,,,9999.0,Light Snow/Cloud Development Not Observable,-3.0,-4.0,29.83,1012.0,,,,71,0,0,,,,,,,,,8/8 Overcast,3400.0,,SCT,1200.0,BKN,3500.0,OVC,6400.0,,
KRDR,03-05-2004,19:00,METAR,,330,13.0,,,9999.0,Light Snow/Mist/Cloud Development Not Observable,-3.0,-4.0,29.84,1012.7,,,,71,10,0,,,,,,,,,8/8 Overcast,3400.0,,SCT,1200.0,BKN,3500.0,OVC,6400.0,,
KRDR,03-05-2004,18:00,METAR,,340,13.0,,,4800.0,Light Snow/Mist/Cloud Development Not Observable,-4.0,-4.0,29.85,1012.7,,,,71,10,0,,,,,,,.04 IN,,8/8 Overcast,3400.0,,SCT,1200.0,OVC,3500.0,,,,
KRDR,03-05-2004,17:00,METAR,,320,13.0,,,4800.0,Light Snow/Mist/Cloud Development Not Observable,-5.0,-5.0,29.84,1012.5,,,,71,10,0,,,,,,,,,8/8 Overcast,3400.0,,SCT,1200.0,OVC,3500.0,,,,
KRDR,03-05-2004,16:00,METAR,,340,12.0,,,8000.0,Light Snow/Mist/Cloud Development Not Observable,-6.0,-6.0,29.82,1011.9,,,,71,10,0,,,,,,,,,8/8 Overcast,3000.0,,FEW,900.0,BKN,3000.0,OVC,6400.0,,
KRDR,03-05-2004,15:34,SPECI,,340,13.0,,,8000.0,Light Snow/Mist/Cloud Development Not Observable,-6.0,-6.0,29.82,,,,,71,10,0,,,,,,,,,8/8 Overcast,3000.0,,SCT,1000.0,BKN,3000.0,OVC,7900.0,,
KRDR,03-05-2004,15:00,METAR,,330,14.0,,,4800.0,Light Snow/Mist/Cloud Development Not Observable,-6.0,-6.0,29.80,1011.3,,,,71,10,0,,,,,,.02 IN,,,8/8 Overcast,900.0,,BKN,900.0,OVC,3000.0,,,,
KRDR,03-05-2004,14:00,METAR,,330,12.0,,,4800.0,Light Snow/Mist/Cloud Development Not Observable,-7.0,-7.0,29.81,1011.5,,,,71,10,0,,,,,,,,,8/8 Overcast,900.0,,OVC,900.0,,,,,,
KRDR,03-05-2004,13:00,METAR,,350,12.0,,,4800.0,Light Snow/Mist/Cloud Development Not Observable,-7.0,-7.0,29.81,1011.5,,,,71,10,0,,,,,,,,,8/8 Overcast,900.0,,OVC,900.0,,,,,,
KRDR,03-05-2004,12:00,METAR,,340,12.0,,,4800.0,Light Snow/Mist/Cloud Development Not Observable,-7.0,-7.0,29.80,1011.4,,,,71,10,0,,,,,,,.03 IN,.03 IN,8/8 Overcast,900.0,,OVC,900.0,,,,,,
KRDR,03-05-2004,11:28,SPECI,,340,11.0,,,8000.0,Light Snow/Mist/Cloud Development Not Observable,-7.0,-7.0,29.80,,,,,71,10,0,,,,,,,,,8/8 Overcast,800.0,,OVC,800.0,,,,,,
KRDR,03-05-2004,11:00,METAR,,350,12.0,,,4800.0,Light Snow/Mist/Cloud Development Not Observable,-7.0,-7.0,29.80,1011.4,,,,71,10,0,,,,,,,,,8/8 Overcast,800.0,,OVC,800.0,,,,,,
KRDR,03-05-2004,10:20,METAR,,340,7.0,,,8000.0,Light Snow/Mist/Cloud Development Not Observable,-7.0,-7.0,29.81,,,,,71,10,0,,,,,,,,,8/8 Overcast,800.0,,OVC,800.0,,,,,,
KRDR,03-05-2004,10:00,METAR,,340,8.0,,,3200.0,Light Snow/Mist/Cloud Development Not Observable,-7.0,-7.0,29.80,1011.4,,,,71,10,0,,,,,,,,,8/8 Overcast,700.0,,OVC,700.0,,,,,,
KRDR,03-05-2004,09:00,METAR,,340,9.0,,,8000.0,Light Snow/Mist/Cloud Development Not Observable,-7.0,-7.0,29.81,1011.7,,,,71,10,0,,,,,,.02 IN,,,8/8 Overcast,700.0,,OVC,700.0,,,,,,
KRDR,03-05-2004,08:00,METAR,,340,8.0,,,8000.0,Light Snow/Mist/Cloud Development Not Observable,-6.0,-6.0,29.83,1012.4,,,,71,10,0,,,,,,,,,8/8 Overcast,700.0,,OVC,700.0,,,,,,
KRDR,03-05-2004,07:35,SPECI,,340,7.0,,,6400.0,Light Snow/Mist/Cloud Development Not Observable,-7.0,-7.0,29.82,,,,,71,10,0,,,,,,,,,8/8 Overcast,700.0,,OVC,700.0,,,,,,
KRDR,03-05-2004,07:00,METAR,,320,8.0,,,1200.0,Light Snow/Mist/Cloud Development Not Observable,-7.0,-7.0,29.83,1012.4,,,,71,10,0,,,,,,,,,8/8 Overcast,700.0,,OVC,700.0,,,,,,
KRDR,03-05-2004,06:20,METAR,,350,6.0,,,1600.0,Light Snow/Mist/Cloud Development Not Observable,-7.0,-7.0,29.84,,,,,71,10,0,,,,,,,,,8/8 Overcast,700.0,,OVC,700.0,,,,,,
KRDR,03-05-2004,06:00,METAR,,40,4.0,,,8000.0,Light Snow/Mist/Cloud Development Not Observable,-7.0,-7.0,29.84,1012.6,,,,71,10,0,,,,,,,IN,,8/8 Overcast,700.0,,OVC,700.0,,,,,,
KRDR,03-05-2004,05:32,SPECI,,40,4.0,,,4800.0,Light Snow/Mist/Cloud Development Not Observable,-7.0,-7.0,29.84,,,,,71,10,0,,,,,,,,,8/8 Overcast,800.0,,OVC,800.0,,,,,,
KRDR,03-05-2004,05:00,METAR,,20,4.0,,,8000.0,Mist/Cloud Development Not Observable,-7.0,-7.0,29.85,1013.3,,,,10,0,0,,,,,,,,,8/8 Overcast,800.0,,OVC,800.0,,,,,,
KRDR,03-05-2004,04:26,SPECI,,360,4.0,,,8000.0,Mist/Cloud Development Not Observable,-7.0,-7.0,29.85,,,,,10,0,0,,,,,,,,,8/8 Overcast,800.0,,OVC,800.0,,,,,,
KRDR,03-05-2004,04:02,SPECI,,30,4.0,,,8000.0,Light Snow/Mist/Cloud Development Not Observable,-7.0,-7.0,29.85,,,,,71,10,0,,,,,,,,,8/8 Overcast,1300.0,,OVC,1300.0,,,,,,
KRDR,03-05-2004,04:00,METAR,,20,4.0,,,8000.0,Mist/Cloud Development Not Observable,-7.0,-7.0,29.86,1013.4,,,,10,0,0,,,,,,,,,8/8 Overcast,1300.0,,OVC,1300.0,,,,,,
KRDR,03-05-2004,03:00,METAR,,60,5.0,,,8000.0,Mist/Cloud Development Not Observable,-8.0,-8.0,29.88,1014.2,,,,10,0,0,,,,,,TRACE,,,8/8 Overcast,1500.0,,OVC,1500.0,,,,,,
KRDR,03-05-2004,02:00,METAR,,70,6.0,,,4800.0,Light Snow/Cloud Development Not Observable,-8.0,-8.0,29.90,1014.8,,,,71,0,0,,,,,,,,,8/8 Overcast,2000.0,,OVC,2000.0,,,,,,
KRDR,03-05-2004,01:44,SPECI,,70,6.0,,,4800.0,Light Snow/Cloud Development Not Observable,-8.0,-8.0,29.90,,,,,71,0,0,,,,,,,,,8/8 Overcast,2000.0,,OVC,2000.0,,,,,,
KRDR,03-05-2004,01:21,SPECI,,60,8.0,,,2400.0,Light Snow/Cloud Development Not Observable,-9.0,-9.0,29.89,,,,,71,0,0,,,,,,,,,8/8 Overcast,2600.0,,BKN,2600.0,OVC,3500.0,,,,
KRDR,03-05-2004,01:00,METAR,,70,5.0,,,9999.0,Light Snow/Cloud Development Not Observable,-8.0,-8.0,29.90,1014.9,,,,71,0,0,,,,,,,,,8/8 Overcast,800.0,,BKN,800.0,OVC,1500.0,,,,
KRDR,03-05-2004,00:00,METAR,,70,5.0,,,9999.0,Light Snow/Cloud Development Not Observable,-9.0,-9.0,29.93,1016.1,,,,71,0,0,,,,,,,.01 IN,,8/8 Overcast,800.0,,BKN,800.0,OVC,1500.0,,,,
KRDR,03-04-2004,23:00,METAR,,120,6.0,,,9999.0,Light Snow/Cloud Development Not Observable,-9.0,-9.0,29.93,1016.3,,,,71,0,0,,,,,,,,,8/8 Overcast,800.0,,BKN,800.0,OVC,1500.0,,,,
KRDR,03-04-2004,22:00,METAR,,140,6.0,,,9999.0,Light Snow/Cloud Development Not Observable,-9.0,-9.0,29.93,1016.3,,,,71,0,0,,,,,,,,,8/8 Overcast,800.0,,BKN,800.0,OVC,1500.0,,,,
KRDR,03-04-2004,21:00,METAR,,150,12.0,,,9999.0,Light Snow/Cloud Development Not Observable,-9.0,-10.0,29.96,1017.3,,,,71,0,0,,,,,,TRACE,,,8/8 Overcast,800.0,,BKN,800.0,OVC,1500.0,,,,
KRDR,03-04-2004,20:00,METAR,,140,14.0,,,9999.0,Light Snow/Cloud Development Not Observable,-9.0,-10.0,29.97,1017.7,,,,71,0,0,,,,,,,,,8/8 Overcast,800.0,,OVC,800.0,,,,,,
KRDR,03-04-2004,19:00,METAR,,140,10.0,,,9999.0,Light Snow/Cloud Development Not Observable,-9.0,-9.0,29.99,1018.1,,,,71,0,0,,,,,,,,,8/8 Overcast,800.0,,BKN,800.0,OVC,20000.0,,,,
KRDR,03-04-2004,18:00,METAR,,120,6.0,,,9999.0,Cloud Development Not Observable,-10.0,-10.0,30.01,1018.8,,,,0,0,0,,,,,,,,,7/8 Mostly Cloudy,800.0,,BKN,800.0,BKN,20000.0,,,,
KRDR,03-04-2004,17:00,METAR,,140,6.0,,,9999.0,Cloud Development Not Observable,-10.0,-10.0,30.02,1019.3,,,,0,0,0,,,,,,,,,7/8 Mostly Cloudy,700.0,,BKN,700.0,BKN,20000.0,,,,
KRDR,03-04-2004,16:35,SPECI,,120,5.0,,,9999.0,Mist/Cloud Development Not Observable,-12.0,-12.0,30.04,,,,,10,0,0,,,,,,,,,7/8 Mostly Cloudy,700.0,,BKN,700.0,BKN,8900.0,BKN,20000.0,,
KRDR,03-04-2004,16:00,METAR,,150,6.0,,,9999.0,Cloud Development Not Observable,-12.0,-12.0,30.06,1020.7,,,,0,0,0,,,,,,,,,7/8 Mostly Cloudy,20000.0,,SCT,500.0,BKN,20000.0,,,,
KRDR,03-04-2004,15:00,METAR,,130,4.0,,,9999.0,Cloud Development Not Observable,-13.0,-13.0,30.06,1020.7,,,,0,0,0,,,,,,,,,7/8 Mostly Cloudy,20000.0,,FEW,500.0,BKN,20000.0,,,,
KRDR,03-04-2004,14:00,METAR,,170,8.0,,,6400.0,Mist/Cloud Development Not Observable,-14.0,-14.0,30.11,1022.2,,,,10,0,0,,,,,,,,,7/8 Mostly Cloudy,9000.0,,SCT,500.0,SCT,8900.0,BKN,20000.0,,
KRDR,03-04-2004,13:30,METAR,,180,9.0,,,3200.0,Mist/Cloud Development Not Observable,-16.0,-16.0,30.11,,,,,10,0,0,,,,,,,,,7/8 Mostly Cloudy,8000.0,,SCT,500.0,SCT,7900.0,BKN,20000.0,,
KRDR,03-04-2004,13:00,METAR,,180,6.0,,,200.0,Fog with Rime/Cloud Development Not Observable,-17.0,-17.0,30.11,1022.5,,,,49,0,0,,,,,,,,,Sky Obscured (Unable to Estimate),100.0,100.0,,100.0,,,,,,
KRDR,03-04-2004,12:43,SPECI,,190,7.0,,,200.0,Fog with Rime/Cloud Development Not Observable,-17.0,-17.0,30.11,,,,,49,0,0,,,,,,,,,Sky Obscured (Unable to Estimate),100.0,100.0,,100.0,,,,,,
KRDR,03-04-2004,12:37,SPECI,,190,8.0,,,800.0,Fog with Rime/Cloud Development Not Observable,-17.0,-17.0,30.11,,,,,49,0,0,,,,,,,,,Sky Obscured (Unable to Estimate),100.0,100.0,,100.0,,,,,,
KRDR,03-04-2004,12:30,METAR,,190,7.0,,,3200.0,Mist/Cloud Development Not Observable,-17.0,-17.0,30.11,,,,,10,0,0,,,,,,,,,8/8 Overcast,200.0,,FEW,100.0,BKN,200.0,OVC,800.0,,
KRDR,03-04-2004,12:15,SPECI,,170,4.0,,,9999.0,Cloud Development Not Observable,-18.0,-18.0,30.11,,,,,0,0,0,,,,,,,,,8/8 Overcast,200.0,,FEW,100.0,BKN,200.0,OVC,800.0,,
KRDR,03-04-2004,12:00,METAR,,200,6.0,,,9999.0,Cloud Development Not Observable,-19.0,-19.0,30.12,1022.9,,,,0,0,0,,,,,,,,,8/8 Overcast,300.0,,FEW,100.0,OVC,300.0,,,,
KRDR,03-04-2004,11:40,SPECI,,210,3.0,,,9999.0,Cloud Development Not Observable,-19.0,-19.0,30.12,,,,,0,0,0,,,,,,,,,8/8 Overcast,300.0,,BKN,300.0,OVC,700.0,,,,
KRDR,03-04-2004,11:00,METAR,,190,6.0,,,9999.0,Cloud Development Not Observable,-20.0,-20.0,30.14,1024.7,,,,0,0,0,,,,,,,,,4/8 Partly Cloudy,72000.0,,SCT,20000.0,,,,,,
KRDR,03-04-2004,10:00,METAR,,230,3.0,,,9999.0,Cloud Development Not Observable,-20.0,-20.0,30.18,1024.7,,,,0,0,0,,,,,,,,,4/8 Partly Cloudy,72000.0,,SCT,20000.0,,,,,,
KRDR,03-04-2004,09:00,METAR,,210,4.0,,,9999.0,Cloud Development Not Observable,-19.0,-19.0,30.18,1024.6,,,,0,0,0,,,,,,,,,4/8 Partly Cloudy,72000.0,,SCT,20000.0,,,,,,
KRDR,03-04-2004,08:00,METAR,,230,4.0,,,9999.0,Cloud Development Not Observable,-19.0,-19.0,30.18,1024.6,,,,0,0,0,,,,,,,,,4/8 Partly Cloudy,72000.0,,SCT,20000.0,,,,,,
KRDR,03-04-2004,07:00,METAR,,210,3.0,,,9999.0,Cloud Development Not Observable,-18.0,-18.0,30.17,1024.2,,,,0,0,0,,,,,,,,,4/8 Partly Cloudy,72000.0,,SCT,20000.0,,,,,,
KRDR,03-04-2004,06:00,METAR,,,4.0,,,9999.0,Cloud Development Not Observable,-17.0,-18.0,30.16,1024.2,,,,0,0,0,,,,,,,,,4/8 Partly Cloudy,72000.0,,SCT,20000.0,,,,,,
KRDR,03-04-2004,05:00,METAR,,240,3.0,,,9999.0,Cloud Development Not Observable,-17.0,-17.0,30.17,1024.2,,,,0,0,0,,,,,,,,,4/8 Partly Cloudy,72000.0,,SCT,20000.0,,,,,,
KRDR,03-04-2004,04:00,METAR,,270,4.0,,,9999.0,Cloud Development Not Observable,-17.0,-18.0,30.16,1024.0,,,,0,0,0,,,,,,,,,2/8 Mostly Clear,72000.0,,FEW,20000.0,,,,,,
KRDR,03-04-2004,03:00,METAR,,290,2.0,,,9999.0,Cloud Development Not Observable,-16.0,-16.0,30.16,1023.9,,,,0,0,0,,,,,,,,,2/8 Mostly Clear,72000.0,,FEW,20000.0,,,,,,
KRDR,03-04-2004,02:00,METAR,,310,6.0,,,9999.0,Cloud Development Not Observable,-14.0,-14.0,30.16,1023.8,,,,0,0,0,,,,,,,,,2/8 Mostly Clear,72000.0,,FEW,20000.0,,,,,,
KRDR,03-04-2004,01:00,METAR,,330,7.0,,,9999.0,Cloud Development Not Observable,-13.0,-13.0,30.15,1023.5,,,,0,0,0,,,,,,,,,4/8 Partly Cloudy,72000.0,,SCT,9900.0,SCT,20000.0,,,,
KRDR,03-04-2004,00:00,METAR,,340,11.0,,,9999.0,Cloud Development Not Observable,-11.0,-11.0,30.14,1022.9,,,,0,0,0,,,,,,,.02 IN,,4/8 Partly Cloudy,72000.0,,SCT,20000.0,,,,,,
KRDR,03-03-2004,23:00,METAR,,340,11.0,,,9999.0,Cloud Development Not Observable,-9.0,-9.0,30.14,1022.7,,,,0,0,0,,,,,,,,,4/8 Partly Cloudy,72000.0,,FEW,7900.0,SCT,20000.0,,,,
KRDR,03-03-2004,22:00,METAR,,350,14.0,,,9999.0,Cloud Development Not Observable,-8.0,-8.0,30.13,1022.4,,,,0,0,0,,,,,,,,,4/8 Partly Cloudy,72000.0,,FEW,7900.0,SCT,20000.0,,,,
KRDR,03-03-2004,21:02,SPECI,,350,13.0,,,6400.0,Light Snow/Blowing Snow/Cloud Development Not Observable,-8.0,-8.0,30.13,,,,,71,38,0,,,,,,,,,8/8 Overcast,3400.0,,FEW,800.0,SCT,2000.0,BKN,3500.0,OVC,7900.0
KRDR,03-03-2004,21:00,METAR,,340,14.0,,,4800.0,Light Snow/Blowing Snow/Cloud Development Not Observable,-8.0,-8.0,30.13,1022.3,,,,71,38,0,,,,,,.01 IN,,,8/8 Overcast,1500.0,,FEW,800.0,SCT,1500.0,BKN,2700.0,OVC,7900.0
KRDR,03-03-2004,20:45,METAR,,350,14.0,,,4800.0,Light Snow/Blowing Snow/Cloud Development Not Observable,-8.0,-8.0,30.13,,,,,71,38,0,,,,,,,,,8/8 Overcast,1500.0,,SCT,800.0,BKN,1500.0,OVC,2500.0,,
KRDR,03-03-2004,20:40,SPECI,,350,14.0,,,3200.0,Light Snow/Blowing Snow/Cloud Development Not Observable,-8.0,-8.0,30.13,,,,,71,38,0,,,,,,,,,8/8 Overcast,1500.0,,FEW,800.0,SCT,1500.0,OVC,2200.0,,
KRDR,03-03-2004,20:38,SPECI,,350,14.0,,,2400.0,Light Snow/Blowing Snow/Cloud Development Not Observable,-8.0,-8.0,30.13,,,,,71,38,0,,,,,,,,,8/8 Overcast,1500.0,,SCT,800.0,BKN,1500.0,OVC,2000.0,,
KRDR,03-03-2004,20:29,SPECI,,350,15.0,,,1600.0,Light Snow/Blowing Snow/Cloud Development Not Observable,-8.0,-8.0,30.13,,,,,71,38,0,,,,,,,,,8/8 Overcast,1200.0,,SCT,800.0,BKN,1200.0,OVC,1800.0,,
KRDR,03-03-2004,20:27,SPECI,,350,16.0,,,3200.0,Light Snow/Blowing Snow/Cloud Development Not Observable,-8.0,-8.0,30.13,,,,,71,38,0,,,,,,,,,8/8 Overcast,1900.0,,SCT,800.0,OVC,1900.0,,,,
KRDR,03-03-2004,20:00,METAR,,350,15.0,,,4800.0,Light Snow/Cloud Development Not Observable,-7.0,-7.0,30.13,1022.3,,,,71,0,0,,,,,,,,,8/8 Overcast,2500.0,,SCT,1000.0,BKN,2500.0,OVC,3500.0,,
KRDR,03-03-2004,19:15,SPECI,,360,14.0,,,6400.0,Light Snow/Cloud Development Not Observable,-7.0,-7.0,30.13,,,,,71,0,0,,,,,,,,,8/8 Overcast,1500.0,,BKN,1500.0,OVC,3900.0,,,,
KRDR,03-03-2004,19:00,METAR,,350,14.0,,,9999.0,Light Snow/Cloud Development Not Observable,-7.0,-7.0,30.14,1022.5,,,,71,0,0,,,,,,,,,8/8 Overcast,2500.0,,BKN,2500.0,OVC,3500.0,,,,
KRDR,03-03-2004,18:29,SPECI,,350,14.0,,,6400.0,Light Snow/Cloud Development Not Observable,-6.0,-7.0,30.15,,,,,71,0,0,,,,,,,,,8/8 Overcast,1700.0,,BKN,1700.0,OVC,3300.0,,,,
KRDR,03-03-2004,18:00,METAR,,350,14.0,,,9999.0,Light Snow/Cloud Development Not Observable,-7.0,-7.0,30.15,1023.1,,,,71,0,0,,,,,,,.04 IN,.08 IN,7/8 Mostly Cloudy,3400.0,,FEW,2500.0,SCT,3500.0,BKN,8900.0,,
KRDR,03-03-2004,17:48,SPECI,,350,14.0,,,8000.0,Light Snow/Cloud Development Not Observable,-7.0,-7.0,30.15,,,,,71,0,0,,,,,,,,,8/8 Overcast,4400.0,,SCT,2500.0,OVC,4500.0,,,,
KRDR,03-03-2004,17:00,METAR,,360,15.0,,,6400.0,Light Snow/Drifting Snow/Cloud Development Not Observable,-7.0,-7.0,30.16,1023.4,,,,71,36,0,,,,,,,,,8/8 Overcast,2500.0,,BKN,2500.0,OVC,3400.0,,,,
KRDR,03-03-2004,16:00,METAR,,360,13.0,,,6400.0,Light Snow/Cloud Development Not Observable,-7.0,-7.0,30.18,1023.9,,,,71,0,0,,,,,,,,,8/8 Overcast,2600.0,,BKN,2600.0,BKN,3500.0,OVC,6400.0,,
KRDR,03-03-2004,15:26,SPECI,,360,12.0,,,4800.0,Light Snow/Cloud Development Not Observable,-7.0,-7.0,30.19,,,,,71,0,0,,,,,,,,,7/8 Mostly Cloudy,2500.0,,BKN,2500.0,,,,,,
KRDR,03-03-2004,15:00,METAR,,360,11.0,,,3200.0,Light Snow/Cloud Development Not Observable,-7.0,-7.0,30.19,1024.5,,,,71,0,0,,,,,,.03 IN,,,8/8 Overcast,1600.0,,OVC,1600.0,,,,,,
KRDR,03-03-2004,14:00,METAR,,350,10.0,,,3200.0,Light Snow/Cloud Development Not Observable,-7.0,-7.0,30.20,1024.8,,,,71,0,0,,,,,,,,,8/8 Overcast,2000.0,,BKN,2000.0,OVC,3500.0,,,,
KRDR,03-03-2004,13:40,SPECI,,350,11.0,,,3200.0,Light Snow/Cloud Development Not Observable,-7.0,-7.0,30.20,,,,,71,0,0,,,,,,,,,8/8 Overcast,2000.0,,OVC,2000.0,,,,,,
KRDR,03-03-2004,13:15,SPECI,,350,10.0,,,2400.0,Light Snow/Cloud Development Not Observable,-7.0,-7.0,30.20,,,,,71,0,0,,,,,,,,,8/8 Overcast,2000.0,,OVC,2000.0,,,,,,
KRDR,03-03-2004,13:00,METAR,,360,10.0,,,3200.0,Light Snow/Cloud Development Not Observable,-7.0,-7.0,30.22,1025.3,,,,71,0,0,,,,,,,,,8/8 Overcast,2000.0,,FEW,800.0,OVC,2000.0,,,,
KRDR,03-03-2004,12:20,METAR,,360,11.0,,,3200.0,Light Snow/Cloud Development Not Observable,-7.0,-7.0,30.23,,,,,71,0,0,,,,,,,,,8/8 Overcast,2000.0,,FEW,700.0,BKN,2000.0,OVC,3500.0,,
KRDR,03-03-2004,12:00,METAR,,360,11.0,,,1600.0,Light Snow/Cloud Development Not Observable,-7.0,-7.0,30.24,1025.9,,,,71,0,0,,,,,,,.03 IN,.03 IN,8/8 Overcast,2000.0,,SCT,800.0,OVC,2000.0,,,,
KRDR,03-03-2004,11:39,SPECI,,360,10.0,,,1600.0,Light Snow/Cloud Development Not Observable,-6.0,-6.0,30.24,,,,,71,0,0,,,,,,,,,8/8 Overcast,2000.0,,SCT,700.0,OVC,2000.0,,,,
KRDR,03-03-2004,11:10,SPECI,,10,9.0,,,4000.0,Light Snow/Cloud Development Not Observable,-6.0,-6.0,30.25,,,,,71,0,0,,,,,,,,,8/8 Overcast,2000.0,,FEW,700.0,BKN,2000.0,OVC,4500.0,,
KRDR,03-03-2004,11:00,METAR,,10,10.0,,,1600.0,Light Snow/Cloud Development Not Observable,-6.0,-6.0,30.26,1026.6,,,,71,0,0,,,,,,,,,8/8 Overcast,2000.0,,FEW,700.0,BKN,2000.0,OVC,4500.0,,
KRDR,03-03-2004,10:43,SPECI,,10,9.0,,,1600.0,Light Snow/Cloud Development Not Observable,-6.0,-6.0,30.26,,,,,71,0,0,,,,,,,,,8/8 Overcast,1500.0,,FEW,700.0,BKN,1500.0,OVC,5400.0,,
KRDR,03-03-2004,10:22,SPECI,,10,8.0,,,1600.0,Light Snow/Cloud Development Not Observable,-6.0,-6.0,30.26,,,,,71,0,0,,,,,,,,,8/8 Overcast,1500.0,,SCT,700.0,OVC,1500.0,,,,
KRDR,03-03-2004,10:00,METAR,,10,7.0,,,9999.0,Light Snow/Cloud Development Not Observable,-6.0,-6.0,30.26,1026.6,,,,71,0,0,,,,,,,,,7/8 Mostly Cloudy,1500.0,,SCT,700.0,BKN,1500.0,,,,
KRDR,03-03-2004,09:19,SPECI,,20,6.0,,,9999.0,Light Snow/Cloud Development Not Observable,-5.0,-5.0,30.26,,,,,71,0,0,,,,,,,,,7/8 Mostly Cloudy,2000.0,,SCT,700.0,BKN,2000.0,,,,
KRDR,03-03-2004,09:00,METAR,,20,7.0,,,9999.0,Cloud Development Not Observable,-5.0,-5.0,30.26,1006.6,,,,0,0,0,,,,,,TRACE,,,7/8 Mostly Cloudy,2000.0,,SCT,700.0,BKN,2000.0,,,,
KRDR,03-03-2004,08:20,METAR,,20,7.0,,,9999.0,Cloud Development Not Observable,-5.0,-5.0,30.27,,,,,0,0,0,,,,,,,,,7/8 Mostly Cloudy,2000.0,,SCT,700.0,BKN,2000.0,,,,
KRDR,03-03-2004,08:00,METAR,,20,7.0,,,9999.0,Light Snow/Cloud Development Not Observable,-5.0,-5.0,30.27,1026.8,,,,71,0,0,,,,,,,,,7/8 Mostly Cloudy,2000.0,,SCT,700.0,BKN,2000.0,,,,
KRDR,03-03-2004,07:10,SPECI,,360,7.0,,,9999.0,Light Snow/Cloud Development Not Observable,-4.0,-4.0,30.26,,,,,71,0,0,,,,,,,,,7/8 Mostly Cloudy,1500.0,,SCT,700.0,BKN,1500.0,,,,
KRDR,03-03-2004,07:00,METAR,,20,6.0,,,9999.0,Cloud Development Not Observable,-4.0,-4.0,30.26,1026.5,,,,0,0,0,,,,,,,,,7/8 Mostly Cloudy,2400.0,,SCT,1400.0,BKN,2400.0,,,,
KRDR,03-03-2004,06:30,METAR,,20,6.0,,,9999.0,Cloud Development Not Observable,-4.0,-4.0,30.26,,,,,0,0,0,,,,,,,,,7/8 Mostly Cloudy,2400.0,,BKN,2400.0,,,,,,
KRDR,03-03-2004,06:00,METAR,,30,5.0,,,9999.0,Cloud Development Not Observable,-4.0,-4.0,30.26,1026.5,,,,0,0,0,,,,,,,IN,,7/8 Mostly Cloudy,1300.0,,BKN,1300.0,,,,,,
KRDR,03-03-2004,05:44,SPECI,,20,6.0,,,9999.0,Cloud Development Not Observable,-4.0,-4.0,30.26,,,,,0,0,0,,,,,,,,,8/8 Overcast,1300.0,,BKN,1300.0,OVC,2000.0,,,,
KRDR,03-03-2004,05:00,METAR,,10,4.0,,,9999.0,Light Snow/Cloud Development Not Observable,-4.0,-4.0,30.27,1026.8,,,,71,0,0,,,,,,,,,8/8 Overcast,1200.0,,FEW,700.0,BKN,1200.0,OVC,2000.0,,
KRDR,03-03-2004,04:00,METAR,,30,6.0,,,9999.0,Light Snow/Cloud Development Not Observable,-4.0,-4.0,30.26,1027.0,,,,71,0,0,,,,,,,,,8/8 Overcast,1100.0,,BKN,1100.0,OVC,2000.0,,,,
KRDR,03-03-2004,03:33,SPECI,,30,6.0,,,9999.0,Light Snow/Cloud Development Not Observable,-4.0,-4.0,30.26,,,,,71,0,0,,,,,,,,,8/8 Overcast,1100.0,,BKN,1100.0,OVC,2000.0,,,,
KRDR,03-03-2004,03:00,METAR,,40,6.0,,,9999.0,Light Snow/Cloud Development Not Observable,-3.0,-3.0,30.25,1026.3,,,,71,0,0,,,,,,,,,7/8 Mostly Cloudy,2000.0,,SCT,1100.0,BKN,2000.0,,,,
KRDR,03-03-2004,02:00,METAR,,60,5.0,,,9999.0,Light Snow/Cloud Development Not Observable,-3.0,-3.0,30.25,1026.2,,,,71,0,0,,,,,,,,,8/8 Overcast,2500.0,,BKN,2500.0,OVC,6400.0,,,,
KRDR,03-03-2004,01:00,METAR,,50,5.0,,,8000.0,Light Snow/Cloud Development Not Observable,-2.0,-3.0,30.24,1025.7,,,,71,0,0,,,,,,,,,8/8 Overcast,2600.0,,BKN,2600.0,OVC,5900.0,,,,
KRDR,03-03-2004,00:17,SPECI,,60,3.0,,,9999.0,Light Snow/Cloud Development Not Observable,-2.0,-3.0,30.22,,,,,71,0,0,,,,,,,,,8/8 Overcast,6500.0,,SCT,2000.0,OVC,6400.0,,,,
KRDR,03-03-2004,00:00,METAR,,,3.0,,,9999.0,Light Snow/Cloud Development Not Observable,-1.0,-3.0,30.23,1025.4,,,,71,0,0,,,,,,,IN,,8/8 Overcast,2500.0,,BKN,2500.0,OVC,5400.0,,,,
KRDR,03-02-2004,23:00,METAR,,350,2.0,,,9999.0,Light Snow/Cloud Development Not Observable,-1.0,-3.0,30.22,1025.3,,,,71,0,0,,,,,,,,,8/8 Overcast,2500.0,,BKN,2500.0,OVC,5400.0,,,,
KRDR,03-02-2004,22:26,SPECI,,350,3.0,,,9999.0,Light Snow/Cloud Development Not Observable,-1.0,-3.0,30.22,,,,,71,0,0,,,,,,,,,8/8 Overcast,2100.0,,BKN,2100.0,OVC,5400.0,,,,
KRDR,03-02-2004,22:08,SPECI,,350,2.0,,,9999.0,Cloud Development Not Observable,-1.0,-3.0,30.21,,,,,0,0,0,,,,,,,,,8/8 Overcast,2100.0,,BKN,2100.0,OVC,5000.0,,,,
KRDR,03-02-2004,22:00,METAR,,320,3.0,,,9999.0,Cloud Development Not Observable,-1.0,-3.0,30.20,1024.4,,,,0,0,0,,,,,,,,,8/8 Overcast,5500.0,,SCT,2500.0,OVC,5400.0,,,,
KRDR,03-02-2004,21:00,METAR,,310,5.0,,,9999.0,Cloud Development Not Observable,-1.0,-3.0,30.20,1024.4,,,,0,0,0,,,,,,,,,8/8 Overcast,5500.0,,FEW,2500.0,OVC,5400.0,,,,
KRDR,03-02-2004,20:00,METAR,,320,7.0,,,9999.0,Cloud Development Not Observable,-1.0,-3.0,30.20,1024.1,,,,0,0,0,,,,,,,,,8/8 Overcast,6000.0,,FEW,3000.0,OVC,5900.0,,,,
KRDR,03-02-2004,19:00,METAR,,330,6.0,,,9999.0,Cloud Development Not Observable,-1.0,-3.0,30.19,1024.0,,,,0,0,0,,,,,,,,,8/8 Overcast,5500.0,,FEW,3000.0,OVC,5400.0,,,,
KRDR,03-02-2004,18:00,METAR,,360,7.0,,,9999.0,Cloud Development Not Observable,-1.0,-3.0,30.18,1023.8,,,,0,0,0,,,,,,,,,8/8 Overcast,4900.0,,SCT,3000.0,OVC,5000.0,,,,
KRDR,03-02-2004,17:00,METAR,,350,8.0,,,9999.0,Cloud Development Not Observable,-2.0,-2.0,30.18,1023.6,,,,0,0,0,,,,,,,,,8/8 Overcast,4900.0,,SCT,3000.0,OVC,5000.0,,,,
KRDR,03-02-2004,15:05,SPECI,,350,11.0,,,9999.0,Cloud Development Not Observable,-1.0,-2.0,30.15,,,,,0,0,0,,,,,,,,,8/8 Overcast,4400.0,,SCT,2500.0,OVC,4500.0,,,,
KRDR,03-02-2004,15:00,METAR,,350,11.0,,,9999.0,Cloud Development Not Observable,-1.0,-2.0,30.15,1022.7,,,,0,0,0,,,,,,,,,8/8 Overcast,2500.0,,BKN,2500.0,OVC,4500.0,,,,
KRDR,03-02-2004,14:00,METAR,,340,11.0,,,9999.0,Cloud Development Not Observable,-2.0,-2.0,30.14,1022.5,,,,0,0,0,,,,,,,,,8/8 Overcast,1500.0,,OVC,1500.0,,,,,,
KRDR,03-02-2004,13:00,METAR,,340,11.0,,,9999.0,Cloud Development Not Observable,-2.0,-2.0,30.12,1021.8,,,,0,0,0,,,,,,,,,8/8 Overcast,1500.0,,OVC,1500.0,,,,,,
KRDR,03-02-2004,12:00,METAR,,320,10.0,,,9999.0,Cloud Development Not Observable,-2.0,-2.0,30.10,1020.8,,,,0,0,0,,,,,,,,.25 IN,8/8 Overcast,1400.0,,OVC,1400.0,,,,,,
KRDR,03-02-2004,11:30,METAR,,320,10.0,,,9999.0,Cloud Development Not Observable,-2.0,-2.0,30.09,,,,,0,0,0,,,,,,,,,8/8 Overcast,1400.0,,OVC,1400.0,,,,,,
KRDR,03-02-2004,11:00,METAR,,300,10.0,,,9999.0,Cloud Development Not Observable,-3.0,-3.0,30.08,1020.2,,,,0,0,0,,,,,,,,,8/8 Overcast,1400.0,,BKN,1400.0,OVC,3000.0,,,,
KRDR,03-02-2004,10:00,METAR,,330,11.0,,,9999.0,Cloud Development Not Observable,-4.0,-4.0,30.06,1019.7,,,,0,0,0,,,,,,,,,4/8 Partly Cloudy,72000.0,,SCT,3000.0,,,,,,
KRDR,03-02-2004,09:00,METAR,,320,12.0,,,9999.0,Cloud Development Not Observable,-4.0,-4.0,30.05,1019.3,,,,0,0,0,,,,,,,,,2/8 Mostly Clear,72000.0,,FEW,3000.0,,,,,,
KRDR,03-02-2004,08:00,METAR,,310,12.0,,,9999.0,Cloud Development Not Observable,-4.0,-4.0,30.03,1018.6,,,,0,0,0,,,,,,,,,2/8 Mostly Clear,72000.0,,FEW,3000.0,,,,,,
KRDR,03-02-2004,07:00,METAR,,340,15.0,,,9999.0,Drifting Snow/Cloud Development Not Observable,-2.0,-3.0,30.00,1017.5,,,,36,0,0,,,,,,,,,7/8 Mostly Cloudy,3000.0,,BKN,3000.0,,,,,,
KRDR,03-02-2004,06:00,METAR,,340,18.0,,,9999.0,Drifting Snow/Cloud Development Not Observable,-2.0,-2.0,29.98,1016.8,,,,36,0,0,,,,,,,IN,,7/8 Mostly Cloudy,3000.0,,BKN,3000.0,,,,,,
KRDR,03-02-2004,05:17,SPECI,,340,18.0,,,9999.0,Drifting Snow/Cloud Development Not Observable,-2.0,-2.0,29.97,,,,,36,0,0,,,,,,,,,7/8 Mostly Cloudy,3000.0,,BKN,3000.0,,,,,,
KRDR,03-02-2004,05:00,METAR,,340,20.0,25.0,,9999.0,Drifting Snow/Cloud Development Not Observable,,,29.97,1016.4,,,,36,0,0,,,,,,,,,7/8 Mostly Cloudy,2900.0,,BKN,2900.0,,,,,,
KRDR,03-02-2004,04:00,METAR,,350,20.0,,340/28KTS,9999.0,Blowing Snow/Cloud Development Not Observable,-2.0,-2.0,29.95,1015.7,,,,38,0,0,,,,,,,,,7/8 Mostly Cloudy,2900.0,,BKN,2900.0,BKN,4500.0,,,,
KRDR,03-02-2004,03:40,SPECI,,350,22.0,,,9999.0,Blowing Snow/Cloud Development Not Observable,-2.0,-2.0,29.93,,,,,38,0,0,,,,,,,,,8/8 Overcast,2900.0,,FEW,1400.0,BKN,2900.0,OVC,4500.0,,
KRDR,03-02-2004,03:12,SPECI,,340,23.0,,,9999.0,Blowing Snow/Cloud Development Not Observable,-2.0,-2.0,29.93,,,,,38,0,0,,,,,,,,,8/8 Overcast,1400.0,,BKN,1400.0,OVC,2800.0,,,,
KRDR,03-02-2004,03:00,METAR,,350,24.0,,350/29KTS,9999.0,Light Snow/Blowing Snow/Cloud Development Not Observable,-2.0,-2.0,29.92,1014.3,,,,71,38,0,,,,,,TRACE,,,8/8 Overcast,1400.0,,BKN,1400.0,OVC,2800.0,,,,
KRDR,03-02-2004,02:25,METAR,,340,22.0,,,4800.0,Light Snow/Blowing Snow/Cloud Development Not Observable,-2.0,-2.0,29.91,,,,,71,38,0,,,,,,,,,8/8 Overcast,1400.0,,BKN,1400.0,OVC,4000.0,,,,
KRDR,03-02-2004,02:00,METAR,,350,21.0,,340/27KTS,1200.0,Light Snow/Blowing Snow/Cloud Development Not Observable,-2.0,-2.0,29.90,1014.0,,,,71,38,0,,,,,,,,,8/8 Overcast,1400.0,,BKN,1400.0,OVC,4000.0,,,,
KRDR,03-02-2004,01:00,METAR,,350,23.0,,350/29KTS,1200.0,Light Snow/Blowing Snow/Cloud Development Not Observable,-2.0,-2.0,29.87,1013.3,,,,71,38,0,,,,,,,,,8/8 Overcast,1300.0,,FEW,800.0,BKN,1300.0,OVC,3500.0,,
KRDR,03-02-2004,00:00,METAR,,350,23.0,29.0,,1200.0,Light Snow/Blowing Snow/Cloud Development Not Observable,-1.0,-1.0,29.85,1012.6,,,,71,38,0,,,,,,,.05 IN,,8/8 Overcast,1200.0,,SCT,800.0,OVC,1200.0,,,,
KRDR,03-01-2004,23:04,SPECI,,350,23.0,29.0,,1200.0,Light Snow/Blowing Snow/Cloud Development Not Observable,-1.0,-1.0,29.83,,,,,71,38,0,,,,,,,,,8/8 Overcast,1000.0,,SCT,400.0,OVC,1000.0,,,,
KRDR,03-01-2004,23:00,METAR,,350,23.0,,350/30KTS,1400.0,Light Snow/Blowing Snow/Cloud Development Not Observable,-1.0,-1.0,29.82,1011.5,,,,71,38,0,,,,,,,,,8/8 Overcast,900.0,,SCT,400.0,BKN,900.0,OVC,1200.0,,
KRDR,03-01-2004,22:34,SPECI,,350,22.0,,,1400.0,Light Snow/Blowing Snow/Cloud Development Not Observable,-1.0,-1.0,29.82,,,,,71,38,0,,,,,,,,,8/8 Overcast,600.0,,SCT,400.0,OVC,600.0,,,,
KRDR,03-01-2004,22:00,METAR,,360,25.0,,360/30KTS,1600.0,Light Snow/Blowing Snow/Cloud Development Not Observable,-1.0,-1.0,29.80,1010.8,,,,71,38,0,,,,,,,,,8/8 Overcast,800.0,,SCT,400.0,OVC,800.0,,,,
KRDR,03-01-2004,21:46,SPECI,,350,24.0,,,1600.0,Light Snow/Blowing Snow/Cloud Development Not Observable,-1.0,-1.0,29.80,,,,,71,38,0,,,,,,,,,8/8 Overcast,700.0,,SCT,500.0,BKN,700.0,OVC,1200.0,,
KRDR,03-01-2004,21:26,SPECI,,350,26.0,,,3200.0,Light Snow/Blowing Snow/Cloud Development Not Observable,-1.0,-1.0,29.79,,,,,71,38,0,,,,,,,,,8/8 Overcast,700.0,,SCT,500.0,OVC,700.0,,,,
KRDR,03-01-2004,21:00,METAR,,360,21.0,,360/28KTS,4800.0,Light Snow/Drifting Snow/Cloud Development Not Observable,-1.0,-1.0,29.78,1009.7,,,,71,36,0,,,,,,.05 IN,,,8/8 Overcast,800.0,,SCT,400.0,OVC,800.0,,,,
KRDR,03-01-2004,20:00,METAR,,360,23.0,28.0,,1600.0,Light Snow/Blowing Snow/Cloud Development Not Observable,-1.0,-1.0,29.77,1009.7,,,,71,38,0,,,,,,,,,8/8 Overcast,800.0,,SCT,400.0,BKN,800.0,OVC,2500.0,,
KRDR,03-01-2004,19:39,SPECI,,360,23.0,,,1600.0,Snow/Blowing Snow/Cloud Development Not Observable,-1.0,-1.0,29.77,,,,,73,38,0,,,,,,,,,8/8 Overcast,900.0,,SCT,300.0,BKN,900.0,OVC,2500.0,,
KRDR,03-01-2004,19:29,SPECI,,360,23.0,,,2400.0,Snow/Blowing Snow/Cloud Development Not Observable,-1.0,-1.0,29.77,,,,,73,38,0,,,,,,,,,8/8 Overcast,700.0,,SCT,300.0,OVC,700.0,,,,
KRDR,03-01-2004,19:00,METAR,,360,24.0,29.0,,1200.0,Snow/Blowing Snow/Cloud Development Not Observable,-1.0,-1.0,29.77,,,,,73,38,0,,,,,,,,,8/8 Overcast,600.0,,OVC,600.0,,,,,,
KRDR,03-01-2004,18:45,METAR,,360,23.0,,,1200.0,Snow/Blowing Snow/Cloud Development Not Observable,-1.0,-1.0,29.78,,,,,73,38,0,,,,,,,,,8/8 Overcast,600.0,,OVC,600.0,,,,,,
KRDR,03-01-2004,18:00,METAR,,360,22.0,26.0,,800.0,Snow/Blowing Snow/Cloud Development Not Observable,-1.0,-1.0,29.78,,,,,73,38,0,,,,,,,.08 IN,,8/8 Overcast,400.0,,OVC,400.0,,,,,,
KRDR,03-01-2004,17:39,SPECI,,360,21.0,,,800.0,Snow/Blowing Snow/Cloud Development Not Observable,-1.0,-1.0,29.78,,,,,73,38,0,,,,,,,,,Sky Obscured (Unable to Estimate),400.0,100.0,,400.0,,,,,,
KRDR,03-01-2004,17:00,METAR,,360,24.0,,360/29KTS,1200.0,Snow/Blowing Snow/Cloud Development Not Observable,-1.0,-1.0,29.80,,,,,73,38,0,,,,,,,,,8/8 Overcast,400.0,,OVC,400.0,,,,,,
KRDR,03-01-2004,16:41,SPECI,,360,22.0,,,1200.0,Snow/Blowing Snow/Cloud Development Not Observable,-1.0,-1.0,29.79,,,,,73,38,0,,,,,,,,,Sky Obscured (Unable to Estimate),400.0,100.0,,400.0,,,,,,
KRDR,03-01-2004,16:25,METAR,,360,23.0,29.0,,1200.0,Snow/Blowing Snow/Cloud Development Not Observable,-1.0,-1.0,29.79,,,,,73,38,0,,,,,,,,,Sky Obscured (Unable to Estimate),300.0,100.0,,300.0,,,,,,
KRDR,03-01-2004,16:00,METAR,,360,23.0,,360/30KTS,4800.0,Light Snow/Drifting Snow/Cloud Development Not Observable,-1.0,-1.0,29.80,,,,,71,36,0,,,,,,,,,8/8 Overcast,400.0,,OVC,400.0,,,,,,
KRDR,03-01-2004,15:13,SPECI,,10,22.0,28.0,,4800.0,Light Snow/Drifting Snow/Cloud Development Not Observable,-1.0,-1.0,29.80,,,,,71,36,0,,,,,,,,,8/8 Overcast,400.0,,OVC,400.0,,,,,,
KRDR,03-01-2004,15:00,METAR,,10,24.0,,,8000.0,Light Snow/Drifting Snow/Cloud Development Not Observable,-1.0,-1.0,29.80,1010.8,,,,71,36,0,,,,,,TRACE,,,8/8 Overcast,500.0,,OVC,500.0,,,,,,
KRDR,03-01-2004,14:00,METAR,,10,21.0,,,8000.0,Drifting Snow/Mist/Cloud Development Not Observable,-1.0,-1.0,29.80,1010.8,,,,36,10,0,,,,,,,,,8/8 Overcast,500.0,,OVC,500.0,,,,,,
KRDR,03-01-2004,13:29,SPECI,,10,21.0,,,6400.0,Drifting Snow/Mist/Cloud Development Not Observable,-1.0,-1.0,29.81,,,,,36,10,0,,,,,,,,,8/8 Overcast,500.0,,OVC,500.0,,,,,,
KRDR,03-01-2004,13:00,METAR,,10,20.0,25.0,010/26KTS,6400.0,Drifting Snow/Mist/Cloud Development Not Observable,-1.0,-1.0,29.80,1009.7,,,,36,10,0,,,,,,,,,8/8 Overcast,500.0,,FEW,300.0,OVC,500.0,,,,
KRDR,03-01-2004,12:18,SPECI,,10,20.0,,,6400.0,Drifting Snow/Mist/Cloud Development Not Observable,-1.0,-1.0,29.81,,,,,36,10,0,,,,,,,,,8/8 Overcast,500.0,,FEW,300.0,OVC,500.0,,,,
KRDR,03-01-2004,12:00,METAR,,10,22.0,,010/26KTS,6400.0,Light Snow/Drifting Snow/Mist,-1.0,-1.0,29.80,1010.0,,,,71,36,10,,,,,,,.12 IN,,8/8 Overcast,500.0,,FEW,300.0,OVC,500.0,,,,
KRDR,03-01-2004,11:40,SPECI,,360,22.0,,,6400.0,Blowing Snow/Mist/Cloud Development Not Observable,-1.0,-1.0,29.80,,,,,38,10,0,,,,,,,,,8/8 Overcast,500.0,,FEW,200.0,OVC,500.0,,,,
KRDR,03-01-2004,11:00,METAR,,360,21.0,,360/26KTS,4000.0,Light Snow/Drifting Snow/Mist,-1.0,-1.0,29.81,1011.1,,,,71,36,10,,,,,,,,,8/8 Overcast,300.0,,OVC,300.0,,,,,,
KRDR,03-01-2004,10:19,SPECI,,360,22.0,,,3200.0,Light Snow/Drifting Snow/Mist,-1.0,-1.0,29.81,,,,,71,36,10,,,,,,,,,8/8 Overcast,300.0,,OVC,300.0,,,,,,
KRDR,03-01-2004,10:00,METAR,,10,19.0,,,1200.0,Light Snow/Drifting Snow/Mist,0.0,0.0,29.82,1011.5,,,,71,36,10,,,,,,,,,8/8 Overcast,300.0,,OVC,300.0,,,,,,
KRDR,03-01-2004,09:20,METAR,,10,18.0,,,1200.0,Light Snow/Mist/Cloud Development Not Observable,0.0,0.0,29.82,,,,,71,10,0,,,,,,,,,8/8 Overcast,300.0,,OVC,300.0,,,,,,
KRDR,03-01-2004,09:00,METAR,,10,18.0,,,1600.0,Light Snow/Mist/Cloud Development Not Observable,0.0,0.0,29.84,1012.2,,,,71,10,0,,,,,,.06 IN,,,8/8 Overcast,300.0,,OVC,300.0,,,,,,
KRDR,03-01-2004,08:00,METAR,,10,16.0,,,2400.0,Light Snow/Mist/Cloud Development Not Observable,0.0,0.0,29.86,1012.9,,,,71,10,0,,,,,,,,,8/8 Overcast,300.0,,OVC,300.0,,,,,,
KRDR,03-01-2004,07:16,SPECI,,10,15.0,,,2400.0,Light Snow/Mist/Cloud Development Not Observable,0.0,0.0,29.87,,,,,71,10,0,,,,,,,,,8/8 Overcast,300.0,,OVC,300.0,,,,,,
KRDR,03-01-2004,07:00,METAR,,10,15.0,,,4800.0,Snow Grains/Freezing Drizzle/Mist,0.0,0.0,29.87,1013.2,,,,56,77,10,,,,,,,,,8/8 Overcast,300.0,,OVC,300.0,,,,,,
KRDR,03-01-2004,06:20,METAR,,20,15.0,,,4800.0,Mist/Cloud Development Not Observable,0.0,0.0,29.89,,,,,10,0,0,,,,,,,,,8/8 Overcast,300.0,,OVC,300.0,,,,,,
KRDR,03-01-2004,06:00,METAR,,20,11.0,,,3200.0,Mist/Cloud Development Not Observable,0.0,0.0,29.90,1013.9,,,,10,0,0,,,,,,,.01 IN,,8/8 Overcast,300.0,,OVC,300.0,,,,,,
KRDR,03-01-2004,05:00,METAR,,10,14.0,,,4800.0,Snow/Freezing Drizzle/Mist,0.0,0.0,29.91,1014.3,,,,56,73,10,,,,,,,,,8/8 Overcast,300.0,,OVC,300.0,,,,,,
KRDR,03-01-2004,04:05,SPECI,,10,17.0,,,4800.0,Freezing Drizzle/Mist/Cloud Development Not Observable,0.0,0.0,29.92,,,,,56,10,0,,,,,,,,,8/8 Overcast,300.0,,OVC,300.0,,,,,,
KRDR,03-01-2004,04:00,METAR,,10,16.0,,,4800.0,Drizzle/Mist/Cloud Development Not Observable,0.0,0.0,29.92,1014.7,,,,51,10,0,,,,,,,,,8/8 Overcast,300.0,,OVC,300.0,,,,,,
KRDR,03-01-2004,03:00,METAR,,10,16.0,,,3200.0,Light Snow/Drizzle/Mist,0.0,0.0,29.93,1015.0,,,,51,71,10,,,,,,,,,8/8 Overcast,300.0,,OVC,300.0,,,,,,
KRDR,03-01-2004,02:00,METAR,,10,13.0,,,4800.0,Light Snow/Drizzle/Mist,0.0,0.0,29.94,1015.4,,,,51,71,10,,,,,,,,,8/8 Overcast,300.0,,OVC,300.0,,,,,,
KRDR,03-01-2004,01:23,SPECI,,10,13.0,,,3200.0,Light Snow/Drizzle/Mist,0.0,0.0,29.94,,,,,51,71,10,,,,,,,,,8/8 Overcast,300.0,,OVC,300.0,,,,,,
KRDR,03-01-2004,01:00,METAR,,10,15.0,,,3200.0,Light Snow/Drizzle/Cloud Development Not Observable,0.0,0.0,29.94,1015.3,,,,51,71,0,,,,,,,,,8/8 Overcast,700.0,,OVC,700.0,,,,,,
KRDR,03-01-2004,00:00,METAR,,10,14.0,,,6400.0,Light Snow/Rain/Mist,0.0,0.0,29.94,1015.3,,,,61,71,10,,,,,,,.02 IN,,8/8 Overcast,700.0,,OVC,700.0,,,,,,
KRDR,02-29-2004,23:00,METAR,,10,16.0,22.0,,6400.0,Light Snow/Rain/Mist,0.0,0.0,29.94,1015.3,,,,61,71,10,,,,,,,,,8/8 Overcast,700.0,,OVC,700.0,,,,,,
KRDR,02-29-2004,22:00,METAR,,10,18.0,,,6400.0,Snow/Rain/Cloud Development Not Observable,0.0,0.0,29.94,1015.3,,,,61,73,0,,,,,,,,,8/8 Overcast,800.0,,OVC,800.0,,,,,,
KRDR,02-29-2004,20:55,METAR,,10,15.0,,,8000.0,Snow/Rain/Cloud Development Not Observable,0.0,0.0,29.95,1015.8,,,,61,73,0,,,,,,.01 IN,,,8/8 Overcast,800.0,,BKN,800.0,OVC,1600.0,,,,
KRDR,02-29-2004,20:00,METAR,,30,14.0,,,8000.0,Light Snow/Cloud Development Not Observable,0.0,0.0,29.96,1016.2,,,,71,0,0,,,,,,,,,8/8 Overcast,800.0,,BKN,800.0,OVC,1600.0,,,,
KRDR,02-29-2004,19:00,METAR,,20,15.0,,,8000.0,Light Snow/Cloud Development Not Observable,0.0,0.0,29.97,1016.4,,,,71,0,0,,,,,,,,,8/8 Overcast,1600.0,,SCT,800.0,OVC,1600.0,,,,
KRDR,02-29-2004,18:00,METAR,,20,15.0,,,8000.0,Light Snow/Cloud Development Not Observable,0.0,0.0,29.98,1016.9,,,,71,0,0,,,,,,,.02 IN,,8/8 Overcast,1800.0,,OVC,1800.0,,,,,,
KRDR,02-29-2004,17:00,METAR,,10,14.0,,,6400.0,Light Snow/Cloud Development Not Observable,0.0,0.0,30.01,1017.9,,,,71,0,0,,,,,,,,,8/8 Overcast,1800.0,,OVC,1800.0,,,,,,
KRDR,02-29-2004,16:00,METAR,,20,12.0,,,6400.0,Light Snow/Cloud Development Not Observable,-1.0,-1.0,30.00,1017.6,,,,71,0,0,,,,,,,,,8/8 Overcast,2000.0,,OVC,2000.0,,,,,,
KRDR,02-29-2004,15:00,METAR,,40,11.0,,,6400.0,Light Snow/Cloud Development Not Observable,-1.0,-1.0,30.01,1017.8,,,,71,0,0,,,,,,.01 IN,,,8/8 Overcast,2200.0,,OVC,2200.0,,,,,,
KRDR,02-29-2004,14:00,METAR,,40,10.0,,,6400.0,Light Snow/Cloud Development Not Observable,-1.0,-1.0,30.02,1018.3,,,,71,0,0,,,,,,,,,8/8 Overcast,2000.0,,OVC,2000.0,,,,,,
KRDR,02-29-2004,13:08,SPECI,,30,11.0,,,4800.0,Light Snow/Cloud Development Not Observable,0.0,0.0,30.01,,,,,71,0,0,,,,,,,,,8/8 Overcast,2000.0,,OVC,2000.0,,,,,,
KRDR,02-29-2004,13:00,METAR,,30,14.0,,,6400.0,Light Snow/Cloud Development Not Observable,0.0,-1.0,30.01,1017.8,,,,71,0,0,,,,,,,,,8/8 Overcast,2000.0,,OVC,2000.0,,,,,,
KRDR,02-29-2004,12:27,SPECI,,30,11.0,,,9999.0,Light Snow/Cloud Development Not Observable,0.0,-1.0,30.03,,,,,71,0,0,,,,,,,,,7/8 Mostly Cloudy,2200.0,,FEW,900.0,BKN,2200.0,,,,
KRDR,02-29-2004,12:00,METAR,,20,9.0,,,9999.0,Cloud Development Not Observable,0.0,-1.0,30.03,1018.5,,,,0,0,0,,,,,,,,,7/8 Mostly Cloudy,7000.0,,BKN,6900.0,,,,,,
KRDR,02-29-2004,11:00,METAR,,20,10.0,,,9999.0,Cloud Development Not Observable,0.0,0.0,30.02,1018.1,,,,0,0,0,,,,,,,,,7/8 Mostly Cloudy,7000.0,,BKN,6900.0,,,,,,
KRDR,02-29-2004,10:00,METAR,,30,10.0,,,9999.0,Cloud Development Not Observable,0.0,-1.0,30.02,1018.1,,,,0,0,0,,,,,,,,,7/8 Mostly Cloudy,9000.0,,BKN,8900.0,,,,,,
KRDR,02-29-2004,09:00,METAR,,40,9.0,,,9999.0,Cloud Development Not Observable,0.0,-1.0,30.04,1018.8,,,,0,0,0,,,,,,,,,7/8 Mostly Cloudy,9000.0,,BKN,8900.0,,,,,,
KRDR,02-29-2004,08:00,METAR,,20,10.0,,,9999.0,Cloud Development Not Observable,0.0,-1.0,30.05,1019.1,,,,0,0,0,,,,,,,,,7/8 Mostly Cloudy,9000.0,,BKN,8900.0,,,,,,
KRDR,02-29-2004,07:00,METAR,,360,11.0,,,9999.0,Cloud Development Not Observable,-1.0,-1.0,30.06,1019.5,,,,0,0,0,,,,,,,,,7/8 Mostly Cloudy,11000.0,,BKN,11000.0,BKN,20000.0,,,,
KRDR,02-29-2004,06:00,METAR,,350,4.0,,,9999.0,Cloud Development Not Observable,-1.0,-1.0,30.09,1020.4,,,,0,0,0,,,,,,,,,7/8 Mostly Cloudy,11000.0,,BKN,11000.0,BKN,20000.0,,,,
KRDR,02-29-2004,05:00,METAR,,360,6.0,,,9999.0,Cloud Development Not Observable,-1.0,-1.0,30.09,1020.4,,,,0,0,0,,,,,,,,,4/8 Partly Cloudy,72000.0,,SCT,11000.0,SCT,20000.0,,,,
KRDR,02-29-2004,04:00,METAR,,30,6.0,,,9999.0,Cloud Development Not Observable,0.0,-1.0,30.09,1020.3,,,,0,0,0,,,,,,,,,7/8 Mostly Cloudy,20000.0,,SCT,11000.0,BKN,20000.0,,,,
KRDR,02-29-2004,03:00,METAR,,100,3.0,,,9999.0,Cloud Development Not Observable,0.0,-1.0,30.09,1020.3,,,,0,0,0,,,,,,,,,4/8 Partly Cloudy,72000.0,,SCT,11000.0,SCT,20000.0,,,,
KRDR,02-29-2004,02:00,METAR,,100,3.0,,,9999.0,Cloud Development Not Observable,1.0,0.0,30.09,1020.5,,,,0,0,0,,,,,,,,,4/8 Partly Cloudy,72000.0,,SCT,20000.0,,,,,,
KRDR,02-29-2004,01:00,METAR,,20,7.0,,,9999.0,Cloud Development Not Observable,1.0,0.0,30.06,1019.4,,,,0,0,0,,,,,,,,,7/8 Mostly Cloudy,20000.0,,BKN,20000.0,,,,,,
KRDR,02-28-2004,23:00,METAR,,330,6.0,,,9999.0,Cloud Development Not Observable,1.0,0.0,30.06,1019.7,,,,0,0,0,,,,,,,,,7/8 Mostly Cloudy,20000.0,,BKN,20000.0,,,,,,
KRDR,02-28-2004,22:00,METAR,,330,7.0,,,9999.0,Cloud Development Not Observable,2.0,0.0,30.06,1019.5,,,,0,0,0,,,,,,,,,7/8 Mostly Cloudy,20000.0,,BKN,20000.0,,,,,,
KRDR,02-28-2004,21:00,METAR,,320,9.0,,,9999.0,Cloud Development Not Observable,2.0,0.0,30.06,1019.5,,,,0,0,0,,,,,,,,,7/8 Mostly Cloudy,20000.0,,BKN,20000.0,,,,,,
KRDR,02-28-2004,20:00,METAR,,310,7.0,,,9999.0,Cloud Development Not Observable,2.0,-1.0,30.08,1020.0,,,,0,0,0,,,,,,,,,7/8 Mostly Cloudy,20000.0,,BKN,20000.0,,,,,,
KRDR,02-28-2004,19:00,METAR,,300,9.0,,,9999.0,Cloud Development Not Observable,2.0,0.0,30.08,1019.9,,,,0,0,0,,,,,,,,,7/8 Mostly Cloudy,20000.0,,BKN,20000.0,,,,,,
KRDR,02-28-2004,18:00,METAR,,310,9.0,,,9999.0,Cloud Development Not Observable,2.0,0.0,30.07,1019.7,,,,0,0,0,,,,,,,,,7/8 Mostly Cloudy,20000.0,,BKN,20000.0,,,,,,
KRDR,02-28-2004,17:00,METAR,,320,11.0,,,9999.0,Cloud Development Not Observable,2.0,0.0,30.08,1019.9,,,,0,0,0,,,,,,,,,7/8 Mostly Cloudy,20000.0,,BKN,20000.0,,,,,,
KRDR,02-28-2004,16:00,METAR,,290,11.0,,,9999.0,Cloud Development Not Observable,2.0,-1.0,30.06,1019.6,,,,0,0,0,,,,,,,,,7/8 Mostly Cloudy,20000.0,,BKN,20000.0,,,,,,
KRDR,02-28-2004,15:00,METAR,,270,8.0,,,9999.0,Cloud Development Not Observable,1.0,0.0,30.06,1019.5,,,,0,0,0,,,,,,,,,7/8 Mostly Cloudy,20000.0,,BKN,20000.0,,,,,,
KRDR,02-28-2004,14:00,METAR,,,4.0,,,9999.0,Cloud Development Not Observable,-2.0,-2.0,30.04,1019.0,,,,0,0,0,,,,,,,,,7/8 Mostly Cloudy,20000.0,,BKN,20000.0,,,,,,
KRDR,02-28-2004,13:00,METAR,,220,7.0,,,9999.0,Cloud Development Not Observable,-2.0,-2.0,30.03,1018.5,,,,0,0,0,,,,,,,,,7/8 Mostly Cloudy,20000.0,,BKN,20000.0,,,,,,
KRDR,02-28-2004,12:10,SPECI,,200,9.0,,,9999.0,Cloud Development Not Observable,-2.0,-2.0,30.03,,,,,0,0,0,,,,,,,,,4/8 Partly Cloudy,72000.0,,FEW,2000.0,SCT,20000.0,,,,
KRDR,02-28-2004,12:00,METAR,,200,9.0,,,9999.0,Cloud Development Not Observable,-2.0,-2.0,30.02,1018.1,,,,0,0,0,,,,,,,,,7/8 Mostly Cloudy,2000.0,,BKN,2000.0,BKN,20000.0,,,,
KRDR,02-28-2004,11:00,METAR,,170,6.0,,,9999.0,Cloud Development Not Observable,-1.0,-1.0,30.01,1017.9,,,,0,0,0,,,,,,,,,8/8 Overcast,1800.0,,OVC,1800.0,,,,,,
KRDR,02-28-2004,10:00,METAR,,180,6.0,,,9999.0,Mist/Cloud Development Not Observable,-1.0,-1.0,30.01,1017.6,,,,10,0,0,,,,,,,,,7/8 Mostly Cloudy,2000.0,,BKN,2000.0,BKN,20000.0,,,,
KRDR,02-28-2004,09:22,SPECI,,190,7.0,,,8000.0,Mist/Cloud Development Not Observable,-1.0,-1.0,29.99,,,,,10,0,0,,,,,,,,,7/8 Mostly Cloudy,2000.0,,BKN,2000.0,BKN,20000.0,,,,
KRDR,02-28-2004,09:00,METAR,,190,7.0,,,8000.0,Mist/Cloud Development Not Observable,0.0,0.0,29.99,1016.9,,,,10,0,0,,,,,,,,,7/8 Mostly Cloudy,20000.0,,SCT,2000.0,BKN,20000.0,,,,
KRDR,02-28-2004,08:16,SPECI,,200,10.0,,,9999.0,Mist/Cloud Development Not Observable,1.0,1.0,29.98,,,,,10,0,0,,,,,,,,,7/8 Mostly Cloudy,2200.0,,BKN,2200.0,BKN,20000.0,,,,
KRDR,02-28-2004,08:00,METAR,,210,8.0,,,9999.0,Cloud Development Not Observable,0.0,0.0,29.98,1016.6,,,,0,0,0,,,,,,,,,7/8 Mostly Cloudy,12000.0,,FEW,2000.0,SCT,12000.0,BKN,20000.0,,
KRDR,02-28-2004,07:00,METAR,,190,13.0,,,9999.0,Mist/Cloud Development Not Observable,2.0,1.0,29.96,1016.0,,,,10,0,0,,,,,,,,,2/8 Mostly Clear,72000.0,,FEW,20000.0,,,,,,
KRDR,02-28-2004,06:00,METAR,,180,16.0,,,9999.0,Cloud Development Not Observable,2.0,1.0,29.96,1015.8,,,,0,0,0,,,,,,,,,4/8 Partly Cloudy,72000.0,,FEW,4000.0,SCT,20000.0,,,,
KRDR,02-28-2004,05:00,METAR,,180,15.0,,,9999.0,Cloud Development Not Observable,2.0,1.0,29.94,1015.3,,,,0,0,0,,,,,,,,,7/8 Mostly Cloudy,25000.0,,SCT,4000.0,BKN,25000.0,,,,
KRDR,02-28-2004,04:00,METAR,,180,15.0,,,9999.0,Cloud Development Not Observable,2.0,1.0,29.93,1015.0,,,,0,0,0,,,,,,,,,7/8 Mostly Cloudy,3900.0,,BKN,4000.0,BKN,20000.0,,,,
KRDR,02-28-2004,03:00,METAR,,180,14.0,,,9999.0,Cloud Development Not Observable,,,29.93,1014.9,,,,0,0,0,,,,,,,,,7/8 Mostly Cloudy,3900.0,,BKN,4000.0,BKN,20000.0,,,,
KRDR,02-28-2004,02:00,METAR,,180,13.0,,,9999.0,Cloud Development Not Observable,2.0,1.0,29.92,1014.5,,,,0,0,0,,,,,,,,,2/8 Mostly Clear,72000.0,,FEW,20000.0,,,,,,
KRDR,02-28-2004,01:00,METAR,,180,18.0,,,9999.0,Cloud Development Not Observable,2.0,1.0,29.92,1014.5,,,,0,0,0,,,,,,,,,2/8 Mostly Clear,72000.0,,FEW,20000.0,,,,,,
KRDR,02-28-2004,00:00,METAR,,180,19.0,,,9999.0,Cloud Development Not Observable,2.0,1.0,29.90,1013.8,,,,0,0,0,,,,,,,,,2/8 Mostly Clear,72000.0,,FEW,20000.0,,,,,,
KRDR,02-27-2004,23:00,METAR,,170,19.0,25.0,180/27KTS,9999.0,Cloud Development Not Observable,3.0,1.0,29.89,1013.6,,,,0,0,0,,,,,,,,,2/8 Mostly Clear,72000.0,,FEW,20000.0,,,,,,
KRDR,02-27-2004,22:00,METAR,,170,21.0,29.0,170/33KTS,9999.0,Cloud Development Not Observable,3.0,1.0,29.88,1013.3,,,,0,0,0,,,,,,,,,2/8 Mostly Clear,72000.0,,FEW,20000.0,,,,,,
KRDR,02-27-2004,21:00,METAR,,160,27.0,34.0,,9999.0,Cloud Development Not Observable,4.0,0.0,29.88,1013.3,,,,0,0,0,,,,,,,,,4/8 Partly Cloudy,72000.0,,FEW,12000.0,SCT,20000.0,,,,
KRDR,02-27-2004,20:00,METAR,,160,25.0,33.0,160/35KTS,9999.0,Cloud Development Not Observable,4.0,0.0,29.88,1013.3,,,,0,0,0,,,,,,,,,4/8 Partly Cloudy,72000.0,,FEW,12000.0,SCT,20000.0,,,,
KRDR,02-27-2004,19:00,METAR,,170,26.0,33.0,170/37KTS,9999.0,Cloud Development Not Observable,4.0,0.0,29.90,1013.8,,,,0,0,0,,,,,,,,,7/8 Mostly Cloudy,20000.0,,FEW,12000.0,BKN,20000.0,,,,
KRDR,02-27-2004,18:00,METAR,,160,24.0,31.0,160/40KTS,9999.0,Cloud Development Not Observable,4.0,0.0,29.90,1013.8,,,,0,0,0,,,,,,,,,7/8 Mostly Cloudy,25000.0,,SCT,12000.0,BKN,25000.0,,,,
KRDR,02-27-2004,17:00,METAR,,160,24.0,34.0,,9999.0,Cloud Development Not Observable,4.0,0.0,29.90,1014.0,,,,0,0,0,,,,,,,,,7/8 Mostly Cloudy,20000.0,,SCT,12000.0,BKN,20000.0,,,,
KRDR,02-27-2004,16:00,METAR,,150,25.0,31.0,,9999.0,Cloud Development Not Observable,3.0,0.0,29.90,1014.0,,,,0,0,0,,,,,,,,,7/8 Mostly Cloudy,20000.0,,SCT,12000.0,BKN,20000.0,,,,
KRDR,02-27-2004,15:00,METAR,,150,25.0,32.0,170/34KTS,9999.0,Cloud Development Not Observable,3.0,0.0,29.91,1014.1,,,,0,0,0,,,,,,,,,8/8 Overcast,20000.0,,SCT,12000.0,OVC,20000.0,,,,
KRDR,02-27-2004,14:00,METAR,,160,22.0,29.0,,9999.0,Cloud Development Not Observable,2.0,0.0,29.91,1014.2,,,,0,0,0,,,,,,,,,8/8 Overcast,20000.0,,SCT,12000.0,OVC,20000.0,,,,
KRDR,02-27-2004,13:00,METAR,,150,22.0,31.0,,9999.0,Mist/Cloud Development Not Observable,2.0,0.0,29.91,1014.4,,,,10,0,0,,,,,,,,,8/8 Overcast,20000.0,,SCT,12000.0,OVC,20000.0,,,,
KRDR,02-27-2004,12:00,METAR,,160,22.0,,,9999.0,Mist/Cloud Development Not Observable,2.0,0.0,29.91,1014.4,,,,10,0,0,,,,,,,,,8/8 Overcast,20000.0,,SCT,12000.0,OVC,20000.0,,,,
KRDR,02-27-2004,11:00,METAR,,150,20.0,,,9999.0,Mist/Cloud Development Not Observable,1.0,0.0,29.92,1014.5,,,,10,0,0,,,,,,,,,8/8 Overcast,20000.0,,SCT,12000.0,OVC,20000.0,,,,
KRDR,02-27-2004,10:00,METAR,,150,17.0,,,8000.0,Mist/Cloud Development Not Observable,1.0,0.0,29.92,1014.7,,,,10,0,0,,,,,,,,,8/8 Overcast,25000.0,,OVC,25000.0,,,,,,
KRDR,02-27-2004,09:00,METAR,,150,17.0,,,9999.0,Mist/Cloud Development Not Observable,1.0,0.0,29.94,1015.4,,,,10,0,0,,,,,,,,,7/8 Mostly Cloudy,25000.0,,BKN,25000.0,,,,,,
KRDR,02-27-2004,08:00,METAR,,150,17.0,,,9999.0,Mist/Cloud Development Not Observable,0.0,0.0,29.96,1015.9,,,,10,0,0,,,,,,,,,7/8 Mostly Cloudy,25000.0,,BKN,25000.0,,,,,,
KRDR,02-27-2004,07:00,METAR,,150,20.0,,160/25KTS,9999.0,Mist/Cloud Development Not Observable,0.0,-1.0,29.96,1016.2,,,,10,0,0,,,,,,,,,7/8 Mostly Cloudy,25000.0,,BKN,25000.0,,,,,,
KRDR,02-27-2004,06:00,METAR,,160,17.0,,,9999.0,Cloud Development Not Observable,0.0,-1.0,29.97,1016.5,,,,0,0,0,,,,,,,,,7/8 Mostly Cloudy,25000.0,,BKN,25000.0,,,,,,
KRDR,02-27-2004,05:00,METAR,,160,17.0,,,9999.0,Cloud Development Not Observable,0.0,-1.0,29.97,1016.4,,,,0,0,0,,,,,,,,,7/8 Mostly Cloudy,25000.0,,BKN,25000.0,,,,,,
KRDR,02-27-2004,04:00,METAR,,160,16.0,,,9999.0,Cloud Development Not Observable,1.0,-1.0,29.97,1016.5,,,,0,0,0,,,,,,,,,7/8 Mostly Cloudy,25000.0,,FEW,9900.0,BKN,25000.0,,,,
KRDR,02-27-2004,03:00,METAR,,150,14.0,,,8000.0,Mist/Cloud Development Not Observable,1.0,-1.0,29.96,1016.2,,,,10,0,0,,,,,,,,,7/8 Mostly Cloudy,25000.0,,FEW,9900.0,BKN,25000.0,,,,
KRDR,02-27-2004,02:00,METAR,,160,17.0,,,8000.0,Mist/Cloud Development Not Observable,1.0,-1.0,29.97,1016.4,,,,10,0,0,,,,,,,,,7/8 Mostly Cloudy,25000.0,,FEW,9900.0,BKN,25000.0,,,,
KRDR,02-27-2004,01:00,METAR,,150,10.0,,,8000.0,Mist/Cloud Development Not Observable,1.0,-1.0,29.98,1016.9,,,,10,0,0,,,,,,,,,7/8 Mostly Cloudy,25000.0,,FEW,9900.0,BKN,25000.0,,,,
KRDR,02-27-2004,00:00,METAR,,140,11.0,,,8000.0,Mist/Cloud Development Not Observable,1.0,0.0,29.99,1017.1,,,,10,0,0,,,,,,,,,7/8 Mostly Cloudy,25000.0,,BKN,25000.0,,,,,,
KRDR,02-26-2004,23:00,METAR,,170,15.0,,,6400.0,Mist/Cloud Development Not Observable,2.0,0.0,30.00,1017.4,,,,10,0,0,,,,,,,,,7/8 Mostly Cloudy,25000.0,,BKN,25000.0,,,,,,
KRDR,02-26-2004,22:00,METAR,,160,16.0,,,8000.0,Mist/Cloud Development Not Observable,2.0,0.0,29.99,1017.1,,,,10,0,0,,,,,,,,,7/8 Mostly Cloudy,25000.0,,FEW,1500.0,BKN,25000.0,,,,
KRDR,02-26-2004,21:00,METAR,,170,17.0,,,8000.0,Mist/Cloud Development Not Observable,2.0,-1.0,29.99,1017.1,,,,10,0,0,,,,,,,,,7/8 Mostly Cloudy,25000.0,,SCT,1400.0,BKN,25000.0,,,,
KRDR,02-26-2004,20:00,METAR,,170,19.0,,,9999.0,Haze/Cloud Development Not Observable,2.0,-1.0,29.99,1017.1,,,,5,0,0,,,,,,,,,7/8 Mostly Cloudy,25000.0,,SCT,1200.0,BKN,25000.0,,,,
KRDR,02-26-2004,19:00,METAR,,170,16.0,,,9999.0,Haze/Cloud Development Not Observable,1.0,-1.0,30.01,1017.5,,,,5,0,0,,,,,,,,,4/8 Partly Cloudy,72000.0,,SCT,1200.0,,,,,,
KRDR,02-26-2004,18:00,METAR,,180,17.0,,,9999.0,Mist/Cloud Development Not Observable,0.0,-2.0,30.02,1018.1,,,,10,0,0,,,,,,,,,4/8 Partly Cloudy,72000.0,,SCT,1200.0,,,,,,
KRDR,02-26-2004,17:00,METAR,,170,18.0,,170/25KTS,8000.0,Mist/Cloud Development Not Observable,-1.0,-2.0,30.00,1017.5,,,,10,0,0,,,,,,,,,4/8 Partly Cloudy,72000.0,,SCT,1200.0,,,,,,
KRDR,02-26-2004,16:00,METAR,,140,15.0,20.0,,4800.0,Mist/Cloud Development Not Observable,-1.0,-2.0,29.97,1016.4,,,,10,0,0,,,,,,,,,4/8 Partly Cloudy,72000.0,,SCT,1000.0,,,,,,
KRDR,02-26-2004,15:00,METAR,,170,18.0,,,4000.0,Mist/Cloud Development Not Observable,-2.0,-3.0,30.00,1017.5,,,,10,0,0,,,,,,,,,8/8 Overcast,900.0,,OVC,900.0,,,,,,
KRDR,02-26-2004,14:15,SPECI,,180,16.0,,,4000.0,Mist/Cloud Development Not Observable,-2.0,-2.0,30.00,,,,,10,0,0,,,,,,,,,8/8 Overcast,900.0,,OVC,900.0,,,,,,
KRDR,02-26-2004,14:00,METAR,,170,14.0,,,9999.0,Cloud Development Not Observable,-2.0,-2.0,29.99,1017.3,,,,0,0,0,,,,,,,,,8/8 Overcast,4400.0,,SCT,1200.0,OVC,4500.0,,,,
KRDR,02-26-2004,13:00,METAR,,160,15.0,,,9999.0,Cloud Development Not Observable,-2.0,-2.0,29.98,1016.8,,,,0,0,0,,,,,,,,,7/8 Mostly Cloudy,4400.0,,SCT,1400.0,BKN,4500.0,,,,
KRDR,02-26-2004,12:00,METAR,,170,17.0,,,9999.0,Cloud Development Not Observable,-2.0,-2.0,29.99,1017.3,,,,0,0,0,,,,,,,.02 IN,.02 IN,7/8 Mostly Cloudy,4400.0,,SCT,1200.0,BKN,4500.0,,,,
KRDR,02-26-2004,11:00,METAR,,170,16.0,,,9999.0,Cloud Development Not Observable,-2.0,-2.0,30.00,1017.7,,,,0,0,0,,,,,,,,,7/8 Mostly Cloudy,4400.0,,SCT,1500.0,BKN,4500.0,,,,
KRDR,02-26-2004,10:30,METAR,,170,17.0,,,9999.0,Cloud Development Not Observable,-2.0,-2.0,30.00,,,,,0,0,0,,,,,,,,,7/8 Mostly Cloudy,4900.0,,SCT,2000.0,BKN,5000.0,,,,
KRDR,02-26-2004,10:00,METAR,,170,21.0,,,9999.0,Cloud Development Not Observable,-2.0,-2.0,30.00,1017.7,,,,0,0,0,,,,,,,,,8/8 Overcast,2000.0,,OVC,2000.0,,,,,,
KRDR,02-26-2004,09:40,SPECI,,170,18.0,,,9999.0,Cloud Development Not Observable,-2.0,-2.0,30.00,,,,,0,0,0,,,,,,,,,8/8 Overcast,2000.0,,OVC,2000.0,,,,,,
KRDR,02-26-2004,09:00,METAR,,170,19.0,,,9999.0,Cloud Development Not Observable,-2.0,-2.0,30.02,1018.2,,,,0,0,0,,,,,,TRACE,,,8/8 Overcast,2000.0,,OVC,2000.0,,,,,,
KRDR,02-26-2004,08:40,SPECI,,170,18.0,,,4800.0,Light Snow/Mist/Cloud Development Not Observable,-2.0,-2.0,30.02,,,,,71,10,0,,,,,,,,,8/8 Overcast,2000.0,,OVC,2000.0,,,,,,
KRDR,02-26-2004,08:00,METAR,,170,20.0,,,9999.0,Cloud Development Not Observable,-1.0,-2.0,30.03,1018.6,,,,0,0,0,,,,,,,,,8/8 Overcast,2200.0,,OVC,2200.0,,,,,,
KRDR,02-26-2004,07:00,METAR,,160,17.0,,,9999.0,Cloud Development Not Observable,-1.0,-2.0,30.03,1018.7,,,,0,0,0,,,,,,,,,8/8 Overcast,2200.0,,OVC,2200.0,,,,,,
KRDR,02-26-2004,06:00,METAR,,170,17.0,,,9999.0,Cloud Development Not Observable,-1.0,-2.0,30.03,1018.7,,,,0,0,0,,,,,,,,,8/8 Overcast,2000.0,,OVC,2000.0,,,,,,
KRDR,02-26-2004,05:00,METAR,,170,21.0,,,9999.0,Cloud Development Not Observable,-1.0,-2.0,30.03,1018.7,,,,0,0,0,,,,,,,,,8/8 Overcast,2000.0,,OVC,2000.0,,,,,,
KRDR,02-26-2004,04:00,METAR,,170,19.0,,,9999.0,Cloud Development Not Observable,-1.0,-2.0,30.04,1019.1,,,,0,0,0,,,,,,,,,8/8 Overcast,1800.0,,OVC,1800.0,,,,,,
KRDR,02-26-2004,03:00,METAR,,160,21.0,27.0,,9999.0,Mist/Cloud Development Not Observable,-1.0,-2.0,30.04,1019.1,,,,10,0,0,,,,,,,,,8/8 Overcast,1800.0,,OVC,1800.0,,,,,,
KRDR,02-26-2004,02:00,METAR,,170,20.0,29.0,170/30KTS,9999.0,Mist/Cloud Development Not Observable,-1.0,-2.0,30.07,1020.0,,,,10,0,0,,,,,,,,,8/8 Overcast,1600.0,,OVC,1600.0,,,,,,
KRDR,02-26-2004,01:00,METAR,,170,20.0,27.0,,9999.0,Mist/Cloud Development Not Observable,-1.0,-2.0,30.07,1020.0,,,,10,0,0,,,,,,,,,8/8 Overcast,1600.0,,OVC,1600.0,,,,,,
KRDR,02-26-2004,00:00,METAR,,160,20.0,29.0,180/30KTS,6400.0,Mist/Cloud Development Not Observable,-1.0,-2.0,30.09,1020.7,,,,10,0,0,,,,,,,,,8/8 Overcast,1800.0,,OVC,1800.0,,,,,,
KRDR,02-25-2004,23:00,METAR,,160,23.0,29.0,180/29KTS,6400.0,Mist/Cloud Development Not Observable,-1.0,-2.0,30.09,1020.7,,,,10,0,0,,,,,,,,,8/8 Overcast,1800.0,,OVC,1800.0,,,,,,
KRDR,02-25-2004,22:00,METAR,,170,24.0,31.0,180/37KTS,8000.0,Mist/Cloud Development Not Observable,0.0,-2.0,30.11,1021.4,,,,10,0,0,,,,,,,,,7/8 Mostly Cloudy,1900.0,,BKN,1900.0,,,,,,
KRDR,02-25-2004,21:00,METAR,,170,28.0,35.0,,8000.0,Mist/Cloud Development Not Observable,0.0,-2.0,30.11,1021.4,,,,10,0,0,,,,,,,,,7/8 Mostly Cloudy,1700.0,,BKN,1700.0,,,,,,
KRDR,02-25-2004,20:00,METAR,,180,26.0,34.0,,6400.0,Mist/Cloud Development Not Observable,-1.0,-3.0,30.12,1021.7,,,,10,0,0,,,,,,,,,7/8 Mostly Cloudy,1700.0,,BKN,1700.0,,,,,,
KRDR,02-25-2004,19:00,METAR,,180,26.0,33.0,180/34KTS,8000.0,Mist/Cloud Development Not Observable,-1.0,-3.0,30.15,1022.8,,,,10,0,0,,,,,,,,,8/8 Overcast,1500.0,,OVC,1500.0,,,,,,
KRDR,02-25-2004,18:00,METAR,,180,20.0,,180/32KTS,8000.0,Mist/Cloud Development Not Observable,-1.0,-3.0,30.17,1023.5,,,,10,0,0,,,,,,,,,8/8 Overcast,1500.0,,OVC,1500.0,,,,,,
KRDR,02-25-2004,17:00,METAR,,170,24.0,,180/32KTS,8000.0,Mist/Cloud Development Not Observable,-2.0,-3.0,30.17,1023.5,,,,10,0,0,,,,,,,,,8/8 Overcast,1500.0,,OVC,1500.0,,,,,,
KRDR,02-25-2004,16:00,METAR,,180,25.0,,180/29KTS,8000.0,Mist/Cloud Development Not Observable,,,30.18,1023.8,,,,10,0,0,,,,,,,,,8/8 Overcast,1300.0,,OVC,1300.0,,,,,,
KRDR,02-25-2004,15:00,METAR,,180,20.0,,180/29KTS,8000.0,Mist/Cloud Development Not Observable,-2.0,-4.0,30.19,1024.2,,,,10,0,0,,,,,,,,,8/8 Overcast,1400.0,,OVC,1400.0,,,,,,
KRDR,02-25-2004,14:00,METAR,,180,24.0,,180/29KTS,9999.0,Mist/Cloud Development Not Observable,-2.0,-3.0,30.19,1024.2,,,,10,0,0,,,,,,,,,8/8 Overcast,1500.0,,OVC,1500.0,,,,,,
KRDR,02-25-2004,13:00,METAR,,170,19.0,24.0,180/28KTS,9999.0,Cloud Development Not Observable,-2.0,-3.0,30.19,1024.2,,,,0,0,0,,,,,,,,,8/8 Overcast,1500.0,,OVC,1500.0,,,,,,
KRDR,02-25-2004,11:00,METAR,,180,21.0,26.0,180/29KTS,9999.0,Cloud Development Not Observable,-2.0,-3.0,30.21,1024.8,,,,0,0,0,,,,,,,,,8/8 Overcast,1600.0,,OVC,1600.0,,,,,,
KRDR,02-25-2004,10:00,METAR,,180,17.0,,,9999.0,Cloud Development Not Observable,-2.0,-3.0,30.21,1024.8,,,,0,0,0,,,,,,,,,8/8 Overcast,1600.0,,OVC,1600.0,,,,,,
KRDR,02-25-2004,09:00,METAR,,180,19.0,26.0,,9999.0,Cloud Development Not Observable,-2.0,-3.0,30.22,1025.3,,,,0,0,0,,,,,,,,,8/8 Overcast,1600.0,,OVC,1600.0,,,,,,
KRDR,02-25-2004,08:00,METAR,,190,16.0,,,9999.0,Cloud Development Not Observable,-1.0,-3.0,30.24,1025.8,,,,0,0,0,,,,,,,,,8/8 Overcast,1700.0,,OVC,1700.0,,,,,,
KRDR,02-25-2004,07:00,METAR,,180,17.0,,,9999.0,Cloud Development Not Observable,-1.0,-3.0,30.24,1026.0,,,,0,0,0,,,,,,,,,8/8 Overcast,1500.0,,OVC,1500.0,,,,,,
KRDR,02-25-2004,06:00,METAR,,170,19.0,,,9999.0,Cloud Development Not Observable,-1.0,-3.0,30.24,1026.0,,,,0,0,0,,,,,,,,,8/8 Overcast,1500.0,,OVC,1500.0,,,,,,
KRDR,02-25-2004,05:12,SPECI,,180,17.0,,,9999.0,Cloud Development Not Observable,-1.0,-2.0,30.24,,,,,0,0,0,,,,,,,,,8/8 Overcast,1500.0,,OVC,1500.0,,,,,,
KRDR,02-25-2004,05:00,METAR,,170,14.0,,,9999.0,Cloud Development Not Observable,-1.0,-2.0,30.24,1026.0,,,,0,0,0,,,,,,,,,8/8 Overcast,1400.0,,OVC,1400.0,,,,,,
KRDR,02-25-2004,04:00,METAR,,170,16.0,,,9999.0,Cloud Development Not Observable,-1.0,-2.0,30.24,1026.0,,,,0,0,0,,,,,,,,,8/8 Overcast,1400.0,,OVC,1400.0,,,,,,
KRDR,02-25-2004,03:33,SPECI,,170,20.0,,,9999.0,Cloud Development Not Observable,-2.0,-2.0,30.25,,,,,0,0,0,,,,,,,,,8/8 Overcast,1300.0,,SCT,800.0,OVC,1300.0,,,,
KRDR,02-25-2004,03:00,METAR,,180,18.0,,,9999.0,Cloud Development Not Observable,-2.0,-3.0,30.25,1026.4,,,,0,0,0,,,,,,,,,8/8 Overcast,900.0,,BKN,900.0,OVC,1300.0,,,,
KRDR,02-25-2004,02:00,METAR,,170,17.0,,,9999.0,Cloud Development Not Observable,-2.0,-3.0,30.26,1026.6,,,,0,0,0,,,,,,,,,8/8 Overcast,900.0,,BKN,900.0,OVC,1200.0,,,,
KRDR,02-25-2004,01:00,METAR,,180,15.0,,,9999.0,Mist/Cloud Development Not Observable,-3.0,-3.0,30.28,1027.1,,,,10,0,0,,,,,,,,,8/8 Overcast,800.0,,OVC,800.0,,,,,,
KRDR,02-25-2004,00:00,METAR,,170,16.0,,,9999.0,Mist/Cloud Development Not Observable,-3.0,-3.0,30.28,1027.1,,,,10,0,0,,,,,,,,,8/8 Overcast,800.0,,OVC,800.0,,,,,,
KRDR,02-24-2004,23:00,METAR,,170,14.0,,,9999.0,Mist/Cloud Development Not Observable,-3.0,-3.0,30.28,1027.1,,,,10,0,0,,,,,,,,,8/8 Overcast,900.0,,OVC,900.0,,,,,,
KRDR,02-24-2004,22:17,SPECI,,180,16.0,,,9999.0,Mist/Cloud Development Not Observable,-3.0,-3.0,30.28,,,,,10,0,0,,,,,,,,,8/8 Overcast,900.0,,OVC,900.0,,,,,,
KRDR,02-24-2004,22:00,METAR,,180,15.0,,,9999.0,Mist/Cloud Development Not Observable,-3.0,-3.0,30.28,1027.1,,,,10,0,0,,,,,,,,,8/8 Overcast,900.0,,OVC,900.0,,,,,,
KRDR,02-24-2004,21:00,METAR,,170,16.0,,,8000.0,Mist/Cloud Development Not Observable,-3.0,-3.0,30.29,1027.5,,,,10,0,0,,,,,,,,,8/8 Overcast,900.0,,OVC,900.0,,,,,,
KRDR,02-24-2004,20:00,METAR,,170,15.0,,,8000.0,Mist/Cloud Development Not Observable,-3.0,-3.0,30.30,1027.8,,,,10,0,0,,,,,,,,,8/8 Overcast,900.0,,OVC,900.0,,,,,,
KRDR,02-24-2004,19:00,METAR,,180,17.0,,,9999.0,Mist/Cloud Development Not Observable,-3.0,-4.0,30.32,1028.5,,,,10,0,0,,,,,,,,,8/8 Overcast,900.0,,OVC,900.0,,,,,,
KRDR,02-24-2004,18:00,METAR,,210,15.0,,,9999.0,Mist/Cloud Development Not Observable,-4.0,-4.0,30.32,1028.6,,,,10,0,0,,,,,,,,,8/8 Overcast,700.0,,OVC,700.0,,,,,,
KRDR,02-24-2004,17:00,METAR,,180,16.0,,,9999.0,Mist/Cloud Development Not Observable,-4.0,-4.0,30.32,1028.6,,,,10,0,0,,,,,,,,,8/8 Overcast,800.0,,OVC,800.0,,,,,,
KRDR,02-24-2004,16:00,METAR,,190,17.0,,,9999.0,Cloud Development Not Observable,-4.0,-4.0,30.32,1028.5,,,,0,0,0,,,,,,,,,8/8 Overcast,800.0,,OVC,800.0,,,,,,
KRDR,02-24-2004,14:00,METAR,,200,10.0,,,9999.0,Cloud Development Not Observable,-4.0,-4.0,30.32,1028.5,,,,0,0,0,,,,,,,,,8/8 Overcast,700.0,,OVC,700.0,,,,,,
KRDR,02-24-2004,13:00,METAR,,200,10.0,,,9999.0,Cloud Development Not Observable,-4.0,-4.0,30.31,1028.2,,,,0,0,0,,,,,,,,,8/8 Overcast,800.0,,OVC,800.0,,,,,,
KRDR,02-24-2004,12:00,METAR,,200,9.0,,,9999.0,Cloud Development Not Observable,-4.0,-4.0,30.30,1027.8,,,,0,0,0,,,,,,,,,8/8 Overcast,900.0,,OVC,900.0,,,,,,
KRDR,02-24-2004,11:00,METAR,,190,9.0,,,9999.0,Cloud Development Not Observable,-4.0,-5.0,30.31,1028.2,,,,0,0,0,,,,,,,,,8/8 Overcast,700.0,,OVC,700.0,,,,,,
KRDR,02-24-2004,10:00,METAR,,210,11.0,,,9999.0,Cloud Development Not Observable,-4.0,-4.0,30.31,1028.1,,,,0,0,0,,,,,,,,,8/8 Overcast,800.0,,OVC,800.0,,,,,,
KRDR,02-24-2004,09:00,METAR,,210,7.0,,,9999.0,Cloud Development Not Observable,-4.0,-4.0,30.30,1027.7,,,,0,0,0,,,,,,,,,8/8 Overcast,800.0,,OVC,800.0,,,,,,
KRDR,02-24-2004,08:00,METAR,,220,7.0,,,9999.0,Cloud Development Not Observable,-4.0,-4.0,30.30,1027.8,,,,0,0,0,,,,,,,,,8/8 Overcast,900.0,,OVC,900.0,,,,,,
KRDR,02-24-2004,07:00,METAR,,220,11.0,,,9999.0,Cloud Development Not Observable,-4.0,-4.0,30.30,1027.9,,,,0,0,0,,,,,,,,,8/8 Overcast,900.0,,OVC,900.0,,,,,,
KRDR,02-24-2004,06:41,SPECI,,230,9.0,,,9999.0,Cloud Development Not Observable,-4.0,-4.0,30.31,,,,,0,0,0,,,,,,,,,8/8 Overcast,800.0,,OVC,800.0,,,,,,
KRDR,02-24-2004,06:00,METAR,,220,9.0,,,9999.0,Cloud Development Not Observable,-4.0,-4.0,30.30,1027.8,,,,0,0,0,,,,,,,,,8/8 Overcast,1000.0,,FEW,300.0,OVC,1000.0,,,,
KRDR,02-24-2004,05:00,METAR,,250,6.0,,,9999.0,Cloud Development Not Observable,-4.0,-4.0,30.29,1027.6,,,,0,0,0,,,,,,,,,8/8 Overcast,1100.0,,OVC,1100.0,,,,,,
KRDR,02-24-2004,04:00,METAR,,230,6.0,,,9999.0,Cloud Development Not Observable,-3.0,-4.0,30.28,1027.2,,,,0,0,0,,,,,,,,,8/8 Overcast,1200.0,,OVC,1200.0,,,,,,
KRDR,02-24-2004,03:00,METAR,,230,7.0,,,9999.0,Cloud Development Not Observable,-3.0,-4.0,30.28,1027.0,,,,0,0,0,,,,,,,,,8/8 Overcast,1200.0,,OVC,1200.0,,,,,,
KRDR,02-24-2004,02:00,METAR,,220,6.0,,,9999.0,Cloud Development Not Observable,-3.0,-4.0,30.28,1027.2,,,,0,0,0,,,,,,,,,8/8 Overcast,1300.0,,OVC,1300.0,,,,,,
KRDR,02-24-2004,01:00,METAR,,230,7.0,,,9999.0,Cloud Development Not Observable,-2.0,-4.0,30.25,1026.4,,,,0,0,0,,,,,,,,,8/8 Overcast,1800.0,,OVC,1800.0,,,,,,
KRDR,02-24-2004,00:00,METAR,,240,7.0,,,9999.0,Cloud Development Not Observable,-2.0,-4.0,30.25,1026.3,,,,0,0,0,,,,,,,,,8/8 Overcast,1800.0,,OVC,1800.0,,,,,,
KRDR,02-23-2004,23:00,METAR,,240,8.0,,,9999.0,Cloud Development Not Observable,-2.0,-4.0,30.26,1026.5,,,,0,0,0,,,,,,,,,8/8 Overcast,1900.0,,OVC,1900.0,,,,,,
KRDR,02-23-2004,22:00,METAR,,240,7.0,,,9999.0,Cloud Development Not Observable,-1.0,-4.0,30.25,1026.3,,,,0,0,0,,,,,,,,,8/8 Overcast,2000.0,,OVC,2000.0,,,,,,
KRDR,02-23-2004,21:00,METAR,,,4.0,,,9999.0,Cloud Development Not Observable,0.0,-3.0,30.25,1026.3,,,,0,0,0,,,,,,,,,8/8 Overcast,2200.0,,FEW,1200.0,OVC,2200.0,,,,
KRDR,02-23-2004,20:00,METAR,,,5.0,,,9999.0,Cloud Development Not Observable,0.0,-4.0,30.25,1026.3,,,,0,0,0,,,,,,,,,8/8 Overcast,2100.0,,FEW,1200.0,OVC,2100.0,,,,
KRDR,02-23-2004,19:19,SPECI,,,6.0,,,9999.0,Cloud Development Not Observable,0.0,-4.0,30.24,,,,,0,0,0,,,,,,,,,8/8 Overcast,2100.0,,FEW,1200.0,OVC,2100.0,,,,
KRDR,02-23-2004,19:00,METAR,,,2.0,,,9999.0,Cloud Development Not Observable,0.0,-4.0,30.25,1026.3,,,,0,0,0,,,,,,,,,8/8 Overcast,2000.0,,FEW,1200.0,OVC,2000.0,,,,
KRDR,02-23-2004,18:00,METAR,,,3.0,,,9999.0,Cloud Development Not Observable,0.0,-3.0,30.26,1026.4,,,,0,0,0,,,,,,,,,8/8 Overcast,2300.0,,OVC,2300.0,,,,,,
KRDR,02-23-2004,17:00,METAR,,,4.0,,,9999.0,Cloud Development Not Observable,-1.0,-3.0,30.26,1026.5,,,,0,0,0,,,,,,,,,8/8 Overcast,2400.0,,OVC,2400.0,,,,,,
KRDR,02-23-2004,16:00,METAR,,,3.0,,,9999.0,Cloud Development Not Observable,-2.0,-3.0,30.25,1026.3,,,,0,0,0,,,,,,,,,8/8 Overcast,2400.0,,OVC,2400.0,,,,,,
KRDR,02-23-2004,15:00,METAR,,300,4.0,,,9999.0,Cloud Development Not Observable,-2.0,-3.0,30.24,1026.0,,,,0,0,0,,,,,,,,,8/8 Overcast,2400.0,,OVC,2400.0,,,,,,
KRDR,02-23-2004,14:00,METAR,,290,4.0,,,9999.0,Cloud Development Not Observable,-3.0,-3.0,30.22,1025.4,,,,0,0,0,,,,,,,,,8/8 Overcast,2500.0,,OVC,2500.0,,,,,,
KRDR,02-23-2004,13:10,SPECI,,310,5.0,,,9999.0,Cloud Development Not Observable,-3.0,-4.0,30.21,,,,,0,0,0,,,,,,,,,8/8 Overcast,2700.0,,OVC,2700.0,,,,,,
KRDR,02-23-2004,13:00,METAR,,310,6.0,,,9999.0,Cloud Development Not Observable,-3.0,-4.0,30.21,1025.0,,,,0,0,0,,,,,,,,,8/8 Overcast,2600.0,,OVC,2600.0,,,,,,
KRDR,02-23-2004,12:00,METAR,,310,7.0,,,9999.0,Cloud Development Not Observable,-3.0,-3.0,30.20,1024.5,,,,0,0,0,,,,,,,,,7/8 Mostly Cloudy,2500.0,,BKN,2500.0,,,,,,
KRDR,02-23-2004,11:00,METAR,,310,6.0,,,9999.0,Cloud Development Not Observable,-3.0,-3.0,30.19,1024.1,,,,0,0,0,,,,,,,,,7/8 Mostly Cloudy,2500.0,,BKN,2500.0,,,,,,
KRDR,02-23-2004,10:00,METAR,,320,6.0,,,9999.0,Cloud Development Not Observable,-3.0,-3.0,30.17,1023.4,,,,0,0,0,,,,,,,,,7/8 Mostly Cloudy,2500.0,,FEW,900.0,BKN,2500.0,,,,
KRDR,02-23-2004,09:00,METAR,,330,8.0,,,9999.0,Cloud Development Not Observable,-3.0,-3.0,30.17,1023.4,,,,0,0,0,,,,,,,,,8/8 Overcast,1500.0,,FEW,900.0,OVC,1500.0,,,,
KRDR,02-23-2004,08:00,METAR,,330,9.0,,,9999.0,Cloud Development Not Observable,-4.0,-4.0,30.17,1023.4,,,,0,0,0,,,,,,,,,8/8 Overcast,1500.0,,FEW,900.0,OVC,1500.0,,,,
KRDR,02-23-2004,07:00,METAR,,330,8.0,,,9999.0,Cloud Development Not Observable,-4.0,-4.0,30.16,1023.0,,,,0,0,0,,,,,,,,,8/8 Overcast,2000.0,,FEW,900.0,OVC,2000.0,,,,
KRDR,02-23-2004,06:00,METAR,,320,9.0,,,9999.0,Cloud Development Not Observable,-3.0,-3.0,30.15,1022.7,,,,0,0,0,,,,,,,IN,,8/8 Overcast,900.0,,OVC,900.0,,,,,,
KRDR,02-23-2004,05:00,METAR,,340,10.0,,,9999.0,Cloud Development Not Observable,-3.0,-3.0,30.14,1022.3,,,,0,0,0,,,,,,,,,8/8 Overcast,700.0,,OVC,700.0,,,,,,
KRDR,02-23-2004,04:00,METAR,,330,10.0,,,9999.0,Cloud Development Not Observable,-3.0,-3.0,30.11,1021.3,,,,0,0,0,,,,,,,,,8/8 Overcast,800.0,,OVC,800.0,,,,,,
KRDR,02-23-2004,03:00,METAR,,340,12.0,,,9999.0,Cloud Development Not Observable,-3.0,-3.0,30.11,1021.3,,,,0,0,0,,,,,,TRACE,,,8/8 Overcast,900.0,,OVC,900.0,,,,,,
KRDR,02-23-2004,02:00,METAR,,340,11.0,,,9999.0,Cloud Development Not Observable,-4.0,-4.0,30.10,1021.0,,,,0,0,0,,,,,,,,,8/8 Overcast,800.0,,OVC,800.0,,,,,,
KRDR,02-23-2004,01:00,METAR,,340,15.0,,,6400.0,Light Snow/Mist/Cloud Development Not Observable,-4.0,-4.0,30.08,1020.4,,,,71,10,0,,,,,,,,,8/8 Overcast,600.0,,OVC,600.0,,,,,,
KRDR,02-23-2004,00:00,METAR,,340,13.0,,,4800.0,Light Snow/Mist/Cloud Development Not Observable,-3.0,-3.0,30.06,1019.8,,,,71,10,0,,,,,,,.01 IN,,8/8 Overcast,600.0,,OVC,600.0,,,,,,
KRDR,02-22-2004,23:00,METAR,,340,14.0,,,4800.0,Light Snow/Mist/Cloud Development Not Observable,-3.0,-3.0,30.04,1019.1,,,,71,10,0,,,,,,,,,8/8 Overcast,600.0,,OVC,600.0,,,,,,
KRDR,02-22-2004,22:00,METAR,,360,14.0,,,4800.0,Light Snow/Mist/Cloud Development Not Observable,-3.0,-3.0,30.03,1018.6,,,,71,10,0,,,,,,,,,8/8 Overcast,600.0,,BKN,600.0,OVC,1300.0,,,,
KRDR,02-22-2004,21:00,METAR,,360,10.0,,,4800.0,Light Snow/Mist/Cloud Development Not Observable,-2.0,-2.0,30.01,1017.9,,,,71,10,0,,,,,,TRACE,,,8/8 Overcast,600.0,,BKN,600.0,OVC,1500.0,,,,
KRDR,02-22-2004,20:00,METAR,,360,11.0,,,8000.0,Light Snow/Mist/Cloud Development Not Observable,-2.0,-2.0,29.99,1017.1,,,,71,10,0,,,,,,,,,8/8 Overcast,800.0,,BKN,800.0,OVC,1800.0,,,,
KRDR,02-22-2004,19:40,SPECI,,360,12.0,,,8000.0,Light Snow/Mist/Cloud Development Not Observable,-2.0,-2.0,29.99,,,,,71,10,0,,,,,,,,,8/8 Overcast,800.0,,BKN,800.0,OVC,1700.0,,,,
KRDR,02-22-2004,19:00,METAR,,360,14.0,,,8000.0,Mist/Cloud Development Not Observable,-1.0,-2.0,29.99,1017.2,,,,10,0,0,,,,,,,,,8/8 Overcast,1700.0,,FEW,800.0,OVC,1700.0,,,,
KRDR,02-22-2004,18:00,METAR,,10,12.0,,,9999.0,Mist/Cloud Development Not Observable,-1.0,-1.0,29.98,1017.0,,,,10,0,0,,,,,,,,,8/8 Overcast,1600.0,,SCT,800.0,OVC,1600.0,,,,
KRDR,02-22-2004,17:00,METAR,,10,10.0,,,9999.0,Mist/Cloud Development Not Observable,-1.0,-1.0,29.98,1017.0,,,,10,0,0,,,,,,,,,8/8 Overcast,1600.0,,OVC,1600.0,,,,,,
KRDR,02-22-2004,16:00,METAR,,330,8.0,,,9999.0,Mist/Cloud Development Not Observable,-1.0,-1.0,29.95,1016.0,,,,10,0,0,,,,,,,,,8/8 Overcast,1600.0,,OVC,1600.0,,,,,,
KRDR,02-22-2004,15:25,METAR,,310,8.0,,,9999.0,Mist/Cloud Development Not Observable,-1.0,-1.0,29.95,,,,,10,0,0,,,,,,,,,8/8 Overcast,1600.0,,OVC,1600.0,,,,,,
KRDR,02-22-2004,15:00,METAR,,280,5.0,,,9999.0,Mist/Cloud Development Not Observable,-1.0,-1.0,29.94,1015.6,,,,10,0,0,,,,,,,,,8/8 Overcast,1400.0,,OVC,1400.0,,,,,,
KRDR,02-22-2004,14:00,METAR,,280,6.0,,,8000.0,Mist/Cloud Development Not Observable,-3.0,-3.0,29.92,1014.9,,,,10,0,0,,,,,,,,,7/8 Mostly Cloudy,1100.0,,BKN,1100.0,BKN,6900.0,,,,
KRDR,02-22-2004,13:37,SPECI,,280,5.0,,,9999.0,Cloud Development Not Observable,-3.0,-3.0,29.92,,,,,0,0,0,,,,,,,,,8/8 Overcast,1200.0,,BKN,1200.0,OVC,6900.0,,,,
KRDR,02-22-2004,13:00,METAR,,280,5.0,,,9999.0,Cloud Development Not Observable,-4.0,-4.0,29.91,1014.6,,,,0,0,0,,,,,,,,,7/8 Mostly Cloudy,1800.0,,BKN,1800.0,BKN,6900.0,,,,
KRDR,02-22-2004,12:00,METAR,,220,4.0,,,9999.0,Cloud Development Not Observable,-3.0,-3.0,29.90,1014.3,,,,0,0,0,,,,,,,IN,,8/8 Overcast,2000.0,,BKN,2000.0,OVC,6400.0,,,,
KRDR,02-22-2004,11:00,METAR,,200,7.0,,,9999.0,Cloud Development Not Observable,-3.0,-3.0,29.89,1013.9,,,,0,0,0,,,,,,,,,8/8 Overcast,2000.0,,BKN,2000.0,BKN,5000.0,OVC,8900.0,,
KRDR,02-22-2004,10:34,SPECI,,210,6.0,,,9999.0,Cloud Development Not Observable,-2.0,-2.0,29.89,,,,,0,0,0,,,,,,,,,8/8 Overcast,2000.0,,BKN,2000.0,BKN,5000.0,OVC,8900.0,,
KRDR,02-22-2004,10:00,METAR,,220,4.0,,,9999.0,Light Snow/Cloud Development Not Observable,-2.0,-2.0,29.89,1013.6,,,,71,0,0,,,,,,,,,8/8 Overcast,2000.0,,BKN,2000.0,BKN,5000.0,OVC,8900.0,,
KRDR,02-22-2004,09:13,SPECI,,180,7.0,,,9999.0,Light Snow/Cloud Development Not Observable,-2.0,-2.0,29.89,,,,,71,0,0,,,,,,,,,8/8 Overcast,2000.0,,BKN,2000.0,BKN,5000.0,OVC,8900.0,,
KRDR,02-22-2004,09:00,METAR,,210,7.0,,,9999.0,Cloud Development Not Observable,-2.0,-2.0,29.89,1013.8,,,,0,0,0,,,,,,TRACE,,,8/8 Overcast,2500.0,,BKN,2500.0,OVC,5000.0,,,,
KRDR,02-22-2004,08:19,SPECI,,180,7.0,,,9999.0,Cloud Development Not Observable,-3.0,-3.0,29.89,,,,,0,0,0,,,,,,,,,8/8 Overcast,2500.0,,BKN,2500.0,OVC,5000.0,,,,
KRDR,02-22-2004,08:00,METAR,,180,7.0,,,9999.0,Cloud Development Not Observable,,,29.89,1013.7,,,,0,0,0,,,,,,,,,8/8 Overcast,2500.0,,BKN,2500.0,BKN,5000.0,OVC,9900.0,,
KRDR,02-22-2004,07:00,METAR,,200,5.0,,,9999.0,Cloud Development Not Observable,-4.0,-4.0,29.89,1013.8,,,,0,0,0,,,,,,,,,8/8 Overcast,2500.0,,BKN,2500.0,BKN,5000.0,OVC,9900.0,,
KRDR,02-22-2004,06:24,SPECI,,200,8.0,,,9999.0,Cloud Development Not Observable,-5.0,-5.0,29.89,,,,,0,0,0,,,,,,,,,8/8 Overcast,2500.0,,BKN,2500.0,BKN,5000.0,OVC,9900.0,,
KRDR,02-22-2004,06:00,METAR,,200,8.0,,,9999.0,Cloud Development Not Observable,-5.0,-5.0,29.89,1013.9,,,,0,0,0,,,,,,,,,8/8 Overcast,3000.0,,BKN,3000.0,OVC,9900.0,,,,
KRDR,02-22-2004,05:00,METAR,,220,6.0,,,9999.0,Cloud Development Not Observable,-8.0,-8.0,29.89,1014.1,,,,0,0,0,,,,,,,,,7/8 Mostly Cloudy,20000.0,,SCT,9900.0,BKN,20000.0,,,,
KRDR,02-22-2004,04:00,METAR,,190,8.0,,,9999.0,Cloud Development Not Observable,-8.0,-8.0,29.89,1014.0,,,,0,0,0,,,,,,,,,2/8 Mostly Clear,72000.0,,FEW,20000.0,,,,,,
KRDR,02-22-2004,03:00,METAR,,190,8.0,,,9999.0,Cloud Development Not Observable,-8.0,-8.0,29.88,1014.1,,,,0,0,0,,,,,,,,,2/8 Mostly Clear,72000.0,,FEW,20000.0,,,,,,
KRDR,02-22-2004,02:00,METAR,,150,8.0,,,9999.0,Cloud Development Not Observable,-6.0,-6.0,29.88,1014.2,,,,0,0,0,,,,,,,,,2/8 Mostly Clear,72000.0,,FEW,20000.0,,,,,,
KRDR,02-22-2004,01:00,METAR,,130,6.0,,,9999.0,Cloud Development Not Observable,-5.0,-5.0,29.89,1014.4,,,,0,0,0,,,,,,,,,7/8 Mostly Cloudy,20000.0,,FEW,9900.0,BKN,20000.0,,,,
KRDR,02-22-2004,00:00,METAR,,180,9.0,,,9999.0,Cloud Development Not Observable,-3.0,-4.0,29.89,1014.1,,,,0,0,0,,,,,,,,,7/8 Mostly Cloudy,20000.0,,FEW,9900.0,BKN,20000.0,,,,
KRDR,02-21-2004,23:00,METAR,,180,10.0,,,9999.0,Cloud Development Not Observable,-1.0,-3.0,29.89,1014.2,,,,0,0,0,,,,,,,,,7/8 Mostly Cloudy,20000.0,,SCT,9900.0,BKN,20000.0,,,,
KRDR,02-21-2004,22:00,METAR,,180,12.0,,,9999.0,Cloud Development Not Observable,-1.0,-3.0,29.90,1014.3,,,,0,0,0,,,,,,,,,7/8 Mostly Cloudy,20000.0,,BKN,20000.0,,,,,,
KRDR,02-21-2004,21:00,METAR,,200,10.0,,,9999.0,Cloud Development Not Observable,-1.0,-3.0,29.91,1014.8,,,,0,0,0,,,,,,,,,4/8 Partly Cloudy,72000.0,,SCT,20000.0,,,,,,
KRDR,02-21-2004,20:00,METAR,,190,10.0,,,9999.0,Cloud Development Not Observable,-1.0,-4.0,29.91,1014.8,,,,0,0,0,,,,,,,,,4/8 Partly Cloudy,72000.0,,SCT,20000.0,,,,,,
KRDR,02-21-2004,19:00,METAR,,180,9.0,,,9999.0,Cloud Development Not Observable,-3.0,-5.0,29.92,1015.2,,,,0,0,0,,,,,,,,,7/8 Mostly Cloudy,20000.0,,BKN,20000.0,,,,,,
KRDR,02-21-2004,18:00,METAR,,160,5.0,,,9999.0,Cloud Development Not Observable,-4.0,-6.0,29.94,1015.7,,,,0,0,0,,,,,,,,,7/8 Mostly Cloudy,20000.0,,BKN,20000.0,,,,,,
KRDR,02-21-2004,17:00,METAR,,200,8.0,,,9999.0,Cloud Development Not Observable,-6.0,-8.0,29.95,1016.2,,,,0,0,0,,,,,,,,,4/8 Partly Cloudy,72000.0,,SCT,20000.0,,,,,,
KRDR,02-21-2004,16:00,METAR,,180,2.0,,,9999.0,Cloud Development Not Observable,-8.0,-8.0,29.95,1016.3,,,,0,0,0,,,,,,,,,2/8 Mostly Clear,72000.0,,FEW,20000.0,,,,,,
KRDR,02-21-2004,15:00,METAR,,150,1.0,,,9999.0,Cloud Development Not Observable,-12.0,-12.0,29.94,1016.1,,,,0,0,0,,,,,,,,,4/8 Partly Cloudy,72000.0,,FEW,1200.0,SCT,20000.0,,,,
KRDR,02-21-2004,14:00,METAR,,220,3.0,,,9999.0,Cloud Development Not Observable,-12.0,-12.0,29.93,1015.5,,,,0,0,0,,,,,,,,,2/8 Mostly Clear,72000.0,,FEW,1200.0,,,,,,
KRDR,02-21-2004,13:00,METAR,,230,4.0,,,9999.0,Cloud Development Not Observable,-12.0,-12.0,29.92,1015.2,,,,0,0,0,,,,,,,,,Clear,72000.0,,,73000.0,,,,,,
KRDR,02-21-2004,12:00,METAR,,230,4.0,,,9999.0,Cloud Development Not Observable,-11.0,-11.0,29.92,1015.1,,,,0,0,0,,,,,,,,,Clear,72000.0,,,73000.0,,,,,,
KRDR,02-21-2004,11:00,METAR,,270,5.0,,,9999.0,Cloud Development Not Observable,-11.0,-11.0,29.91,1014.7,,,,0,0,0,,,,,,,,,Clear,72000.0,,,73000.0,,,,,,
KRDR,02-21-2004,10:00,METAR,,260,5.0,,,9999.0,Cloud Development Not Observable,-10.0,-10.0,29.91,1014.6,,,,0,0,0,,,,,,,,,Clear,72000.0,,,73000.0,,,,,,
KRDR,02-21-2004,09:00,METAR,,270,6.0,,,9999.0,Cloud Development Not Observable,-9.0,-9.0,29.91,1014.6,,,,0,0,0,,,,,,,,,2/8 Mostly Clear,72000.0,,FEW,2500.0,,,,,,
KRDR,02-21-2004,08:00,METAR,,280,8.0,,,9999.0,Cloud Development Not Observable,-8.0,-8.0,29.91,1014.6,,,,0,0,0,,,,,,,,,4/8 Partly Cloudy,72000.0,,SCT,2500.0,,,,,,
KRDR,02-21-2004,07:00,METAR,,280,6.0,,,9999.0,Cloud Development Not Observable,-7.0,-7.0,29.90,1014.2,,,,0,0,0,,,,,,,,,4/8 Partly Cloudy,72000.0,,SCT,2500.0,,,,,,
KRDR,02-21-2004,06:00,METAR,,280,7.0,,,9999.0,Cloud Development Not Observable,-5.0,-5.0,29.90,1014.2,,,,0,0,0,,,,,,,,,4/8 Partly Cloudy,72000.0,,SCT,2500.0,,,,,,
KRDR,02-21-2004,05:00,METAR,,290,10.0,,,9999.0,Cloud Development Not Observable,-4.0,-5.0,29.88,1013.6,,,,0,0,0,,,,,,,,,4/8 Partly Cloudy,72000.0,,SCT,2500.0,,,,,,
KRDR,02-21-2004,04:00,METAR,,300,10.0,,,9999.0,Cloud Development Not Observable,-4.0,-5.0,29.88,1013.6,,,,0,0,0,,,,,,,,,7/8 Mostly Cloudy,20000.0,,SCT,2500.0,BKN,20000.0,,,,
KRDR,02-21-2004,03:00,METAR,,290,8.0,,,9999.0,Cloud Development Not Observable,-4.0,-4.0,29.87,1013.2,,,,0,0,0,,,,,,,,,7/8 Mostly Cloudy,20000.0,,SCT,2500.0,BKN,20000.0,,,,
KRDR,02-21-2004,02:25,METAR,,290,11.0,,,9999.0,Cloud Development Not Observable,-3.0,-4.0,29.87,,,,,0,0,0,,,,,,,,,7/8 Mostly Cloudy,20000.0,,SCT,2200.0,BKN,20000.0,,,,
KRDR,02-21-2004,02:00,METAR,,290,10.0,,,9999.0,Cloud Development Not Observable,-3.0,-4.0,29.86,1013.0,,,,0,0,0,,,,,,,,,7/8 Mostly Cloudy,2200.0,,BKN,2200.0,BKN,20000.0,,,,
KRDR,02-21-2004,01:00,METAR,,290,8.0,,,9999.0,Cloud Development Not Observable,-3.0,-3.0,29.85,1012.7,,,,0,0,0,,,,,,,,,7/8 Mostly Cloudy,1900.0,,BKN,1900.0,BKN,7900.0,BKN,20000.0,,
KRDR,02-21-2004,00:21,SPECI,,300,12.0,,,9999.0,Cloud Development Not Observable,-2.0,-3.0,29.85,,,,,0,0,0,,,,,,,,,7/8 Mostly Cloudy,2100.0,,BKN,2100.0,BKN,7900.0,BKN,20000.0,,
KRDR,02-21-2004,00:00,METAR,,300,10.0,,,9999.0,Cloud Development Not Observable,-1.0,-2.0,29.84,1012.0,,,,0,0,0,,,,,,,,,7/8 Mostly Cloudy,3900.0,,SCT,2400.0,BKN,4000.0,BKN,20000.0,,
KRDR,02-20-2004,23:40,SPECI,,300,8.0,,,9999.0,Cloud Development Not Observable,0.0,-1.0,29.84,,,,,0,0,0,,,,,,,,,7/8 Mostly Cloudy,4900.0,,SCT,2400.0,BKN,5000.0,BKN,20000.0,,
KRDR,02-20-2004,23:00,METAR,,320,9.0,,,9999.0,Cloud Development Not Observable,1.0,-1.0,29.84,1012.0,,,,0,0,0,,,,,,,,,7/8 Mostly Cloudy,2900.0,,SCT,1500.0,BKN,2900.0,BKN,7900.0,,
KRDR,02-20-2004,22:00,METAR,,320,16.0,,,9999.0,Cloud Development Not Observable,1.0,-1.0,29.83,1011.8,,,,0,0,0,,,,,,,,,7/8 Mostly Cloudy,2500.0,,SCT,1500.0,BKN,2500.0,BKN,7900.0,,
KRDR,02-20-2004,21:00,METAR,,320,19.0,,,9999.0,Cloud Development Not Observable,1.0,0.0,29.82,1011.5,,,,0,0,0,,,,,,,,,8/8 Overcast,1700.0,,BKN,1700.0,OVC,3400.0,,,,
KRDR,02-20-2004,20:00,METAR,,340,15.0,,,9999.0,Cloud Development Not Observable,0.0,-2.0,29.81,1010.9,,,,0,0,0,,,,,,,,,8/8 Overcast,1500.0,,BKN,1500.0,OVC,3500.0,,,,
KRDR,02-20-2004,19:00,METAR,,330,20.0,,,9999.0,Cloud Development Not Observable,-1.0,-3.0,29.80,1010.7,,,,0,0,0,,,,,,,,,8/8 Overcast,1500.0,,BKN,1500.0,OVC,3500.0,,,,
KRDR,02-20-2004,18:40,SPECI,,340,18.0,,,9999.0,Cloud Development Not Observable,-1.0,-2.0,29.79,,,,,0,0,0,,,,,,,,,8/8 Overcast,1600.0,,BKN,1600.0,OVC,3000.0,,,,
KRDR,02-20-2004,18:00,METAR,,340,16.0,,,9999.0,Cloud Development Not Observable,-1.0,-3.0,29.78,1010.0,,,,0,0,0,,,,,,,IN,,8/8 Overcast,1400.0,,BKN,1400.0,BKN,3500.0,OVC,7900.0,,
KRDR,02-20-2004,17:00,METAR,,330,20.0,,,9999.0,Mist/Cloud Development Not Observable,-2.0,-3.0,29.77,1009.9,,,,10,0,0,,,,,,,,,8/8 Overcast,1200.0,,BKN,1200.0,OVC,3000.0,,,,
KRDR,02-20-2004,16:41,SPECI,,330,16.0,,,9999.0,Mist/Cloud Development Not Observable,-3.0,-3.0,29.77,,,,,10,0,0,,,,,,,,,8/8 Overcast,1200.0,,OVC,1200.0,,,,,,
KRDR,02-20-2004,16:00,METAR,,340,16.0,,,9999.0,Mist/Cloud Development Not Observable,-3.0,-3.0,29.76,1009.3,,,,10,0,0,,,,,,,,,8/8 Overcast,2200.0,,SCT,1200.0,OVC,2200.0,,,,
KRDR,02-20-2004,15:48,SPECI,,350,16.0,,,9999.0,Mist/Cloud Development Not Observable,-3.0,-3.0,29.76,,,,,10,0,0,,,,,,,,,8/8 Overcast,2000.0,,SCT,1200.0,OVC,2000.0,,,,
KRDR,02-20-2004,15:00,METAR,,320,15.0,,,8000.0,Mist/Cloud Development Not Observable,-1.0,-1.0,29.73,1008.4,,,,10,0,0,,,,,,TRACE,,,8/8 Overcast,1000.0,,OVC,1000.0,,,,,,
KRDR,02-20-2004,14:00,METAR,,330,12.0,,,8000.0,Mist/Cloud Development Not Observable,-1.0,-1.0,29.72,1007.9,,,,10,0,0,,,,,,,,,8/8 Overcast,1000.0,,OVC,1000.0,,,,,,
KRDR,02-20-2004,13:00,METAR,,320,16.0,,,9999.0,Cloud Development Not Observable,-1.0,-1.0,29.71,1007.5,,,,0,0,0,,,,,,,,,8/8 Overcast,1100.0,,OVC,1100.0,,,,,,
KRDR,02-20-2004,12:00,METAR,,310,13.0,,,9999.0,Cloud Development Not Observable,-1.0,-1.0,29.71,1007.5,,,,0,0,0,,,,,,,IN,,8/8 Overcast,1100.0,,OVC,1100.0,,,,,,
KRDR,02-20-2004,11:15,SPECI,,310,15.0,,,9999.0,Cloud Development Not Observable,-1.0,-1.0,29.71,,,,,0,0,0,,,,,,,,,8/8 Overcast,1100.0,,FEW,800.0,OVC,1100.0,,,,
KRDR,02-20-2004,11:00,METAR,,310,13.0,,,6400.0,Mist/Cloud Development Not Observable,-1.0,-1.0,29.71,1007.5,,,,10,0,0,,,,,,,,,8/8 Overcast,900.0,,BKN,900.0,OVC,1500.0,,,,
KRDR,02-20-2004,10:44,SPECI,,310,13.0,,,6400.0,Mist/Cloud Development Not Observable,-1.0,-1.0,29.71,,,,,10,0,0,,,,,,,,,8/8 Overcast,900.0,,BKN,900.0,OVC,1500.0,,,,
KRDR,02-20-2004,10:00,METAR,,310,11.0,,,9999.0,Cloud Development Not Observable,-1.0,-1.0,29.70,1007.2,,,,0,0,0,,,,,,,,,8/8 Overcast,900.0,,BKN,900.0,OVC,1500.0,,,,
KRDR,02-20-2004,09:00,METAR,,310,14.0,,,8000.0,Mist/Cloud Development Not Observable,-1.0,-1.0,29.70,1007.2,,,,10,0,0,,,,,,,,,8/8 Overcast,500.0,,OVC,900.0,,,,,,
KRDR,02-20-2004,08:00,METAR,,290,9.0,,,9999.0,Mist/Cloud Development Not Observable,-1.0,-1.0,29.71,1007.7,,,,10,0,0,,,,,,,,,8/8 Overcast,500.0,,OVC,800.0,,,,,,
KRDR,02-20-2004,07:00,METAR,,280,13.0,,,9999.0,Mist/Cloud Development Not Observable,-1.0,-1.0,29.72,1007.9,,,,10,0,0,,,,,,,,,8/8 Overcast,500.0,,OVC,800.0,,,,,,
KRDR,02-20-2004,06:17,SPECI,,280,13.0,,,9999.0,Mist/Cloud Development Not Observable,-1.0,-1.0,29.73,,,,,10,0,0,,,,,,,,,8/8 Overcast,800.0,,OVC,800.0,,,,,,
KRDR,02-20-2004,06:00,METAR,,240,7.0,,,9999.0,Cloud Development Not Observable,-1.0,-1.0,29.73,1008.4,,,,0,0,0,,,,,,,,,8/8 Overcast,1000.0,,OVC,1000.0,,,,,,
KRDR,02-20-2004,05:40,SPECI,,250,6.0,,,9999.0,Cloud Development Not Observable,-2.0,-2.0,29.74,,,,,0,0,0,,,,,,,,,8/8 Overcast,1100.0,,OVC,1100.0,,,,,,
KRDR,02-20-2004,05:00,METAR,,270,4.0,,,9999.0,Cloud Development Not Observable,-2.0,-2.0,29.74,1008.8,,,,0,0,0,,,,,,,,,8/8 Overcast,2500.0,,SCT,1800.0,BKN,2500.0,OVC,5900.0,,
KRDR,02-20-2004,04:00,METAR,,,6.0,,,9999.0,Cloud Development Not Observable,-2.0,-2.0,29.75,1009.0,,,,0,0,0,,,,,,,,,8/8 Overcast,2500.0,,BKN,2500.0,OVC,8900.0,,,,
KRDR,02-20-2004,03:00,METAR,,240,3.0,,,9999.0,Cloud Development Not Observable,-2.0,-2.0,29.76,1009.6,,,,0,0,0,,,,,,,,,8/8 Overcast,2900.0,,BKN,2900.0,OVC,8900.0,,,,
KRDR,02-20-2004,02:00,METAR,,10,4.0,,,9999.0,Cloud Development Not Observable,-2.0,-2.0,29.78,1010.1,,,,0,0,0,,,,,,,,,8/8 Overcast,2800.0,,BKN,2800.0,OVC,8900.0,,,,
KRDR,02-20-2004,01:00,METAR,,300,4.0,,,9999.0,Cloud Development Not Observable,-2.0,-2.0,29.79,1010.4,,,,0,0,0,,,,,,,,,8/8 Overcast,2400.0,,OVC,2400.0,,,,,,
KRDR,02-20-2004,00:11,SPECI,,320,9.0,,,9999.0,Cloud Development Not Observable,-2.0,-2.0,29.78,,,,,0,0,0,,,,,,,,,8/8 Overcast,2400.0,,BKN,2400.0,OVC,4500.0,,,,
KRDR,02-20-2004,00:00,METAR,,310,6.0,,,9999.0,Cloud Development Not Observable,-2.0,-2.0,29.78,1010.1,,,,0,0,0,,,,,,,IN,,8/8 Overcast,4400.0,,SCT,2500.0,OVC,4500.0,,,,
KRDR,02-19-2004,23:00,METAR,,350,4.0,,,9999.0,Cloud Development Not Observable,-1.0,-1.0,29.78,1010.1,,,,0,0,0,,,,,,,,,8/8 Overcast,4400.0,,SCT,1200.0,BKN,4500.0,OVC,6900.0,,
KRDR,02-19-2004,22:41,SPECI,,340,6.0,,,9999.0,Cloud Development Not Observable,-1.0,-1.0,29.78,,,,,0,0,0,,,,,,,,,8/8 Overcast,3400.0,,FEW,1200.0,SCT,3500.0,BKN,6900.0,OVC,20000.0
KRDR,02-19-2004,22:00,METAR,,330,5.0,,,9999.0,Light Snow/Mist/Cloud Development Not Observable,-1.0,-1.0,29.78,1010.3,,,,71,10,0,,,,,,,,,8/8 Overcast,3900.0,,SCT,1200.0,OVC,4000.0,,,,
KRDR,02-19-2004,21:19,SPECI,,30,7.0,,,9999.0,Light Snow/Cloud Development Not Observable,-1.0,-1.0,29.78,,,,,71,0,0,,,,,,,,,8/8 Overcast,3900.0,,SCT,1200.0,OVC,4000.0,,,,
KRDR,02-19-2004,21:00,METAR,,360,10.0,,,9999.0,Light Snow/Mist/Cloud Development Not Observable,-1.0,-2.0,29.78,1010.1,,,,71,10,0,,,,,,TRACE,,,8/8 Overcast,1200.0,,BKN,1200.0,OVC,5400.0,,,,
KRDR,02-19-2004,20:42,SPECI,,330,11.0,,,9999.0,Light Snow/Mist/Cloud Development Not Observable,-1.0,-2.0,29.78,,,,,71,10,0,,,,,,,,,8/8 Overcast,1200.0,,BKN,1200.0,OVC,3000.0,,,,
KRDR,02-19-2004,20:00,METAR,,330,8.0,,,9999.0,Cloud Development Not Observable,-1.0,-2.0,29.78,1010.2,,,,0,0,0,,,,,,,,,8/8 Overcast,900.0,,BKN,900.0,OVC,3500.0,,,,
KRDR,02-19-2004,19:00,METAR,,360,5.0,,,9999.0,Cloud Development Not Observable,-1.0,-2.0,29.78,1010.3,,,,0,0,0,,,,,,,,,8/8 Overcast,700.0,,BKN,700.0,BKN,5000.0,OVC,7900.0,,
KRDR,02-19-2004,18:32,SPECI,,20,4.0,,,9999.0,Cloud Development Not Observable,-1.0,-1.0,29.79,,,,,0,0,0,,,,,,,,,8/8 Overcast,700.0,,BKN,700.0,OVC,4000.0,,,,
KRDR,02-19-2004,18:00,METAR,,50,5.0,,,9999.0,Cloud Development Not Observable,-2.0,-2.0,29.79,1010.6,,,,0,0,0,,,,,,,,,8/8 Overcast,6000.0,,BKN,5900.0,OVC,8900.0,,,,
KRDR,02-19-2004,17:00,METAR,,70,7.0,,,9999.0,Cloud Development Not Observable,-2.0,-3.0,29.79,1010.6,,,,0,0,0,,,,,,,,,8/8 Overcast,6000.0,,BKN,5900.0,OVC,8900.0,,,,
KRDR,02-19-2004,16:00,METAR,,10,6.0,,,9999.0,Cloud Development Not Observable,-3.0,-4.0,29.82,1011.5,,,,0,0,0,,,,,,,,,8/8 Overcast,4400.0,,BKN,4500.0,OVC,7900.0,,,,
KRDR,02-19-2004,15:00,METAR,,50,6.0,,,9999.0,Cloud Development Not Observable,-4.0,-5.0,29.82,1011.5,,,,0,0,0,,,,,,,,,8/8 Overcast,3700.0,,OVC,3800.0,,,,,,
KRDR,02-19-2004,14:00,METAR,,60,4.0,,,9999.0,Cloud Development Not Observable,-4.0,-5.0,29.84,1012.2,,,,0,0,0,,,,,,,,,8/8 Overcast,3900.0,,BKN,4000.0,OVC,6900.0,,,,
KRDR,02-19-2004,13:00,METAR,,10,4.0,,,9999.0,Cloud Development Not Observable,-5.0,-5.0,29.85,1012.7,,,,0,0,0,,,,,,,,,8/8 Overcast,4900.0,,OVC,5000.0,,,,,,
KRDR,02-19-2004,12:00,METAR,,20,5.0,,,9999.0,Cloud Development Not Observable,-4.0,-6.0,29.85,1012.6,,,,0,0,0,,,,,,,,,8/8 Overcast,7000.0,,OVC,6900.0,,,,,,
KRDR,02-19-2004,11:00,METAR,,30,5.0,,,9999.0,Cloud Development Not Observable,-5.0,-6.0,29.87,1013.2,,,,0,0,0,,,,,,,,,8/8 Overcast,6000.0,,OVC,5900.0,,,,,,
KRDR,02-19-2004,10:00,METAR,,,5.0,,,9999.0,Cloud Development Not Observable,-5.0,-6.0,29.89,1013.8,,,,0,0,0,,,,,,,,,8/8 Overcast,7000.0,,OVC,6900.0,,,,,,
KRDR,02-19-2004,09:00,METAR,,,4.0,,,9999.0,Cloud Development Not Observable,-5.0,-5.0,29.90,1014.0,,,,0,0,0,,,,,,,,,8/8 Overcast,7000.0,,OVC,6900.0,,,,,,
KRDR,02-19-2004,08:00,METAR,,50,7.0,,,9999.0,Cloud Development Not Observable,-4.0,-5.0,29.91,1014.3,,,,0,0,0,,,,,,,,,8/8 Overcast,8000.0,,OVC,7900.0,,,,,,
KRDR,02-19-2004,07:00,METAR,,,5.0,,,9999.0,Cloud Development Not Observable,-5.0,-6.0,29.92,1014.8,,,,0,0,0,,,,,,,,,8/8 Overcast,8000.0,,OVC,7900.0,,,,,,
KRDR,02-19-2004,06:00,METAR,,,4.0,,,9999.0,Cloud Development Not Observable,-5.0,-6.0,29.92,1014.8,,,,0,0,0,,,,,,,,,8/8 Overcast,8000.0,,OVC,7900.0,,,,,,
KRDR,02-19-2004,05:00,METAR,,30,10.0,,,9999.0,Cloud Development Not Observable,-4.0,-5.0,29.92,1014.7,,,,0,0,0,,,,,,,,,8/8 Overcast,8000.0,,OVC,7900.0,,,,,,
KRDR,02-19-2004,04:00,METAR,,,3.0,,,9999.0,Cloud Development Not Observable,-4.0,-5.0,29.94,1015.5,,,,0,0,0,,,,,,,,,8/8 Overcast,7000.0,,OVC,6900.0,,,,,,
KRDR,02-19-2004,03:00,METAR,,60,5.0,,,9999.0,Cloud Development Not Observable,-3.0,-5.0,29.95,1015.8,,,,0,0,0,,,,,,,,,8/8 Overcast,9000.0,,OVC,8900.0,,,,,,
KRDR,02-19-2004,02:00,METAR,,50,6.0,,,9999.0,Cloud Development Not Observable,-3.0,-5.0,29.95,1015.7,,,,0,0,0,,,,,,,,,8/8 Overcast,10000.0,,OVC,9900.0,,,,,,
KRDR,02-19-2004,01:00,METAR,,50,8.0,,,9999.0,Cloud Development Not Observable,-2.0,-4.0,29.95,1016.0,,,,0,0,0,,,,,,,,,8/8 Overcast,10000.0,,BKN,9900.0,OVC,25000.0,,,,
KRDR,02-19-2004,00:00,METAR,,50,7.0,,,9999.0,Cloud Development Not Observable,-1.0,-3.0,29.94,1015.5,,,,0,0,0,,,,,,,,,7/8 Mostly Cloudy,10000.0,,BKN,9900.0,BKN,25000.0,,,,
KRDR,02-18-2004,23:00,METAR,,40,9.0,,,9999.0,Cloud Development Not Observable,0.0,-2.0,29.96,1016.3,,,,0,0,0,,,,,,,,,7/8 Mostly Cloudy,10000.0,,BKN,9900.0,BKN,25000.0,,,,
KRDR,02-18-2004,22:00,METAR,,360,11.0,,,9999.0,Cloud Development Not Observable,2.0,-2.0,29.95,1015.8,,,,0,0,0,,,,,,,,,7/8 Mostly Cloudy,10000.0,,BKN,9900.0,BKN,25000.0,,,,
KRDR,02-18-2004,21:00,METAR,,340,10.0,,,9999.0,Cloud Development Not Observable,2.0,-2.0,29.96,1016.0,,,,0,0,0,,,,,,,,,7/8 Mostly Cloudy,10000.0,,BKN,9900.0,BKN,20000.0,,,,
KRDR,02-18-2004,20:00,METAR,,320,9.0,,,9999.0,Cloud Development Not Observable,2.0,-2.0,29.98,1016.8,,,,0,0,0,,,,,,,,,7/8 Mostly Cloudy,20000.0,,SCT,9900.0,BKN,20000.0,,,,
KRDR,02-18-2004,19:00,METAR,,300,13.0,,,9999.0,Cloud Development Not Observable,1.0,-2.0,29.98,1016.8,,,,0,0,0,,,,,,,,,7/8 Mostly Cloudy,20000.0,,SCT,9900.0,BKN,20000.0,,,,
KRDR,02-18-2004,18:00,METAR,,290,10.0,,,9999.0,Cloud Development Not Observable,1.0,-3.0,29.97,1016.5,,,,0,0,0,,,,,,,,,7/8 Mostly Cloudy,20000.0,,FEW,9900.0,BKN,20000.0,,,,
KRDR,02-18-2004,17:00,METAR,,300,16.0,,,9999.0,Cloud Development Not Observable,1.0,-3.0,29.96,1016.3,,,,0,0,0,,,,,,,,,7/8 Mostly Cloudy,20000.0,,FEW,9900.0,BKN,20000.0,,,,
KRDR,02-18-2004,16:00,METAR,,290,14.0,,,9999.0,Cloud Development Not Observable,0.0,-4.0,29.98,1016.9,,,,0,0,0,,,,,,,,,7/8 Mostly Cloudy,25000.0,,FEW,9900.0,BKN,25000.0,,,,
KRDR,02-18-2004,15:00,METAR,,270,17.0,,,9999.0,Cloud Development Not Observable,-1.0,-4.0,29.95,1015.8,,,,0,0,0,,,,,,,,,7/8 Mostly Cloudy,25000.0,,FEW,9900.0,BKN,25000.0,,,,
KRDR,02-18-2004,14:00,METAR,,270,15.0,,,9999.0,Cloud Development Not Observable,-2.0,-4.0,29.94,1015.3,,,,0,0,0,,,,,,,,,7/8 Mostly Cloudy,25000.0,,FEW,9900.0,BKN,25000.0,,,,
KRDR,02-18-2004,13:10,SPECI,,270,14.0,,,9999.0,Cloud Development Not Observable,-3.0,-5.0,29.92,,,,,0,0,0,,,,,,,,,7/8 Mostly Cloudy,25000.0,,BKN,25000.0,,,,,,
KRDR,02-18-2004,13:00,METAR,,270,13.0,,,9999.0,Cloud Development Not Observable,-3.0,-5.0,29.92,1015.1,,,,0,0,0,,,,,,,,,7/8 Mostly Cloudy,25000.0,,BKN,25000.0,,,,,,
KRDR,02-18-2004,12:00,METAR,,270,13.0,,,9999.0,Cloud Development Not Observable,-3.0,-4.0,29.93,1015.3,,,,0,0,0,,,,,,,,,7/8 Mostly Cloudy,25000.0,,BKN,25000.0,,,,,,
KRDR,02-18-2004,11:00,METAR,,270,13.0,,,9999.0,Cloud Development Not Observable,-3.0,-5.0,29.92,1015.0,,,,0,0,0,,,,,,,,,7/8 Mostly Cloudy,25000.0,,BKN,25000.0,,,,,,
KRDR,02-18-2004,10:00,METAR,,270,14.0,,,9999.0,Cloud Development Not Observable,-3.0,-4.0,29.91,1014.9,,,,0,0,0,,,,,,,,,4/8 Partly Cloudy,72000.0,,SCT,25000.0,,,,,,
KRDR,02-18-2004,09:00,METAR,,250,10.0,,,9999.0,Cloud Development Not Observable,-3.0,-4.0,29.92,1015.2,,,,0,0,0,,,,,,,,,4/8 Partly Cloudy,72000.0,,SCT,25000.0,,,,,,
KRDR,02-18-2004,08:00,METAR,,240,10.0,,,9999.0,Cloud Development Not Observable,-4.0,-4.0,29.91,1014.7,,,,0,0,0,,,,,,,,,4/8 Partly Cloudy,72000.0,,SCT,25000.0,,,,,,
KRDR,02-18-2004,07:00,METAR,,200,11.0,,,9999.0,Cloud Development Not Observable,-6.0,-6.0,29.92,1015.1,,,,0,0,0,,,,,,,,,2/8 Mostly Clear,72000.0,,FEW,25000.0,,,,,,
KRDR,02-18-2004,06:00,METAR,,190,9.0,,,9999.0,Cloud Development Not Observable,-5.0,-5.0,29.93,1015.5,,,,0,0,0,,,,,,,,,2/8 Mostly Clear,72000.0,,FEW,25000.0,,,,,,
KRDR,02-18-2004,05:00,METAR,,190,16.0,,,9999.0,Cloud Development Not Observable,-4.0,-4.0,29.92,1015.3,,,,0,0,0,,,,,,,,,4/8 Partly Cloudy,72000.0,,FEW,600.0,SCT,25000.0,,,,
KRDR,02-18-2004,04:00,METAR,,190,16.0,,,9999.0,Cloud Development Not Observable,-4.0,-4.0,29.96,1016.8,,,,0,0,0,,,,,,,,,7/8 Mostly Cloudy,600.0,,BKN,600.0,,,,,,
KRDR,02-18-2004,03:00,METAR,,190,21.0,,200/36KTS,9999.0,Cloud Development Not Observable,-3.0,-3.0,29.98,1017.4,,,,0,0,0,,,,,,,,,8/8 Overcast,600.0,,OVC,600.0,,,,,,
KRDR,02-18-2004,02:00,METAR,,190,23.0,31.0,,9999.0,Cloud Development Not Observable,-3.0,-3.0,29.99,1017.9,,,,0,0,0,,,,,,,,,8/8 Overcast,600.0,,OVC,600.0,,,,,,
KRDR,02-18-2004,01:00,METAR,,180,20.0,,,9999.0,Mist/Cloud Development Not Observable,-5.0,-5.0,30.02,1019.0,,,,10,0,0,,,,,,,,,8/8 Overcast,600.0,,OVC,600.0,,,,,,
KRDR,02-18-2004,00:00,METAR,,180,21.0,29.0,170/30KTS,3200.0,Mist/Cloud Development Not Observable,-6.0,-6.0,30.06,1020.6,,,,10,0,0,,,,,,,,,8/8 Overcast,600.0,,OVC,600.0,,,,,,
KRDR,02-17-2004,23:00,METAR,,170,20.0,26.0,,3200.0,Mist/Cloud Development Not Observable,-8.0,-8.0,30.12,,,,,10,0,0,,,,,,,,,8/8 Overcast,600.0,,OVC,600.0,,,,,,
KRDR,02-17-2004,22:00,METAR,,170,17.0,,,3200.0,Mist/Cloud Development Not Observable,-9.0,-9.0,30.20,1025.2,,,,10,0,0,,,,,,,,,8/8 Overcast,600.0,,OVC,600.0,,,,,,
KRDR,02-17-2004,21:13,SPECI,,170,15.0,,,3200.0,Mist/Cloud Development Not Observable,-8.0,-8.0,30.22,,,,,10,0,0,,,,,,,,,8/8 Overcast,600.0,,OVC,600.0,,,,,,
KRDR,02-17-2004,21:00,METAR,,170,13.0,,,4800.0,Mist/Cloud Development Not Observable,-8.0,-8.0,30.22,1025.9,,,,10,0,0,,,,,,,,,8/8 Overcast,600.0,,OVC,600.0,,,,,,
KRDR,02-17-2004,20:09,SPECI,,160,16.0,,,4800.0,Mist/Cloud Development Not Observable,-8.0,-8.0,30.22,,,,,10,0,0,,,,,,,,,8/8 Overcast,600.0,,OVC,600.0,,,,,,
KRDR,02-17-2004,20:00,METAR,,160,17.0,,,1600.0,Mist/Cloud Development Not Observable,-8.0,-8.0,30.24,1026.6,,,,10,0,0,,,,,,,,,8/8 Overcast,600.0,,OVC,600.0,,,,,,
KRDR,02-17-2004,19:39,SPECI,,170,16.0,,,1600.0,Mist/Cloud Development Not Observable,-7.0,-8.0,30.25,,,,,10,0,0,,,,,,,,,8/8 Overcast,500.0,,OVC,500.0,,,,,,
KRDR,02-17-2004,19:00,METAR,,170,16.0,,,8000.0,Mist/Cloud Development Not Observable,-7.0,-7.0,30.27,1027.4,,,,10,0,0,,,,,,,,,8/8 Overcast,25000.0,,SCT,600.0,OVC,25000.0,,,,
KRDR,02-17-2004,18:00,METAR,,170,13.0,,,9999.0,Cloud Development Not Observable,-9.0,-9.0,30.32,1029.4,,,,0,0,0,,,,,,,IN,,8/8 Overcast,25000.0,,SCT,500.0,OVC,25000.0,,,,
KRDR,02-17-2004,17:17,SPECI,,200,13.0,,,9999.0,Cloud Development Not Observable,-10.0,-11.0,30.33,,,,,0,0,0,,,,,,,,,8/8 Overcast,25000.0,,SCT,500.0,OVC,25000.0,,,,
KRDR,02-17-2004,17:00,METAR,,200,11.0,,,9999.0,Cloud Development Not Observable,-11.0,-11.0,30.32,1029.4,,,,0,0,0,,,,,,,,,8/8 Overcast,500.0,,BKN,500.0,OVC,25000.0,,,,
KRDR,02-17-2004,16:00,METAR,,190,10.0,,,9999.0,Cloud Development Not Observable,-13.0,-13.0,30.33,1029.8,,,,0,0,0,,,,,,,,,7/8 Mostly Cloudy,500.0,,BKN,500.0,BKN,25000.0,,,,
KRDR,02-17-2004,15:56,SPECI,,190,9.0,,,9999.0,Cloud Development Not Observable,-13.0,-13.0,30.33,,,,,0,0,0,,,,,,,,,7/8 Mostly Cloudy,500.0,,BKN,500.0,BKN,25000.0,,,,
KRDR,02-17-2004,15:44,SPECI,,190,9.0,,,9999.0,Cloud Development Not Observable,-13.0,-13.0,30.33,,,,,0,0,0,,,,,,,,,7/8 Mostly Cloudy,500.0,,BKN,500.0,BKN,25000.0,,,,
KRDR,02-17-2004,15:08,SPECI,,180,9.0,,,4800.0,Snow Grains/Diamond Dust/Mist,-16.0,-16.0,30.35,,,,,77,76,10,,,,,,,,,7/8 Mostly Cloudy,500.0,,BKN,500.0,BKN,25000.0,,,,
KRDR,02-17-2004,15:00,METAR,,180,8.0,,,4800.0,Snow Grains/Diamond Dust/Mist,-16.0,-16.0,30.35,1030.1,,,,77,76,10,,,,,,TRACE,,,7/8 Mostly Cloudy,500.0,,BKN,500.0,BKN,25000.0,,,,
KRDR,02-17-2004,14:22,SPECI,,180,8.0,,,8000.0,Snow Grains/Diamond Dust/Cloud Development Not Observable,-18.0,-18.0,30.33,,,,,77,76,0,,,,,,,,,7/8 Mostly Cloudy,500.0,,BKN,500.0,BKN,25000.0,,,,
KRDR,02-17-2004,14:00,METAR,,180,6.0,,,9999.0,Cloud Development Not Observable,-17.0,-17.0,30.31,1029.4,,,,0,0,0,,,,,,,,,7/8 Mostly Cloudy,500.0,,BKN,500.0,BKN,25000.0,,,,
KRDR,02-17-2004,13:00,METAR,,240,5.0,,,9999.0,Cloud Development Not Observable,-18.0,-18.0,30.34,1030.2,,,,0,0,0,,,,,,,,,7/8 Mostly Cloudy,500.0,,BKN,500.0,,,,,,
KRDR,02-17-2004,12:00,METAR,,230,4.0,,,9999.0,Cloud Development Not Observable,-17.0,-17.0,30.33,1030.0,,,,0,0,0,,,,,,,,,7/8 Mostly Cloudy,500.0,,BKN,500.0,,,,,,
KRDR,02-17-2004,11:38,SPECI,,250,4.0,,,9999.0,Cloud Development Not Observable,-18.0,-18.0,30.34,,,,,0,0,0,,,,,,,,,7/8 Mostly Cloudy,500.0,,BKN,500.0,,,,,,
KRDR,02-17-2004,11:00,METAR,,270,6.0,,,9999.0,Cloud Development Not Observable,-17.0,-17.0,30.33,1029.6,,,,0,0,0,,,,,,,,,2/8 Mostly Clear,72000.0,,FEW,800.0,,,,,,
KRDR,02-17-2004,10:00,METAR,,280,10.0,,,9999.0,Cloud Development Not Observable,-15.0,-15.0,30.34,1029.9,,,,0,0,0,,,,,,,,,2/8 Mostly Clear,72000.0,,FEW,800.0,,,,,,
KRDR,02-17-2004,09:00,METAR,,230,6.0,,,9999.0,Cloud Development Not Observable,-17.0,-17.0,30.31,1029.1,,,,0,0,0,,,,,,,,,Clear,72000.0,,,73000.0,,,,,,
KRDR,02-17-2004,08:00,METAR,,270,7.0,,,9999.0,Cloud Development Not Observable,-17.0,-17.0,30.31,1029.0,,,,0,0,0,,,,,,,,,Clear,72000.0,,,73000.0,,,,,,
KRDR,02-17-2004,07:00,METAR,,270,6.0,,,9999.0,Cloud Development Not Observable,-16.0,-16.0,30.33,1029.5,,,,0,0,0,,,,,,,,,Clear,72000.0,,,73000.0,,,,,,
KRDR,02-17-2004,06:00,METAR,,230,6.0,,,9999.0,Cloud Development Not Observable,-19.0,-19.0,30.32,1029.4,,,,0,0,0,,,,,,,,,Clear,72000.0,,,73000.0,,,,,,
KRDR,02-17-2004,05:00,METAR,,250,6.0,,,9999.0,Cloud Development Not Observable,-18.0,-18.0,30.31,1029.1,,,,0,0,0,,,,,,,,,Clear,72000.0,,,73000.0,,,,,,
KRDR,02-17-2004,04:00,METAR,,240,6.0,,,9999.0,Cloud Development Not Observable,-17.0,-17.0,30.31,1028.9,,,,0,0,0,,,,,,,,,Clear,72000.0,,,73000.0,,,,,,
KRDR,02-17-2004,03:00,METAR,,250,7.0,,,9999.0,Cloud Development Not Observable,-16.0,-16.0,30.29,1028.3,,,,0,0,0,,,,,,,,,Clear,72000.0,,,73000.0,,,,,,
KRDR,02-17-2004,02:00,METAR,,270,7.0,,,9999.0,Cloud Development Not Observable,-14.0,-14.0,30.27,1027.8,,,,0,0,0,,,,,,,,,Clear,72000.0,,,73000.0,,,,,,
KRDR,02-17-2004,01:00,METAR,,280,8.0,,,9999.0,Cloud Development Not Observable,-13.0,-13.0,30.25,1027.0,,,,0,0,0,,,,,,,,,Clear,72000.0,,,73000.0,,,,,,
KRDR,02-17-2004,00:00,METAR,,270,6.0,,,9999.0,Cloud Development Not Observable,-12.0,-12.0,30.23,1026.2,,,,0,0,0,,,,,,,,,Clear,72000.0,,,73000.0,,,,,,
KRDR,02-16-2004,23:00,METAR,,300,10.0,,,9999.0,Cloud Development Not Observable,-8.0,-10.0,30.21,1025.4,,,,0,0,0,,,,,,,,,Clear,72000.0,,,73000.0,,,,,,
KRDR,02-16-2004,22:00,METAR,,300,11.0,,,9999.0,Cloud Development Not Observable,-7.0,-9.0,30.20,1025.0,,,,0,0,0,,,,,,,,,Clear,72000.0,,,73000.0,,,,,,
KRDR,02-16-2004,21:00,METAR,,310,13.0,,,9999.0,Cloud Development Not Observable,-7.0,-9.0,30.17,1024.2,,,,0,0,0,,,,,,,,,Clear,72000.0,,,73000.0,,,,,,
KRDR,02-16-2004,20:00,METAR,,300,15.0,,,9999.0,Cloud Development Not Observable,-6.0,-9.0,30.16,1023.7,,,,0,0,0,,,,,,,,,Clear,72000.0,,,73000.0,,,,,,
KRDR,02-16-2004,19:00,METAR,,300,14.0,,,9999.0,Cloud Development Not Observable,-6.0,-8.0,30.15,1023.4,,,,0,0,0,,,,,,,,,2/8 Mostly Clear,72000.0,,FEW,6400.0,,,,,,
KRDR,02-16-2004,18:00,METAR,,300,15.0,,,9999.0,Cloud Development Not Observable,-6.0,-8.0,30.14,1022.9,,,,0,0,0,,,,,,,IN,,4/8 Partly Cloudy,72000.0,,SCT,6400.0,,,,,,
KRDR,02-16-2004,17:00,METAR,,290,14.0,,,9999.0,Cloud Development Not Observable,-6.0,-8.0,30.11,1022.1,,,,0,0,0,,,,,,,,,7/8 Mostly Cloudy,6500.0,,BKN,6400.0,,,,,,
KRDR,02-16-2004,16:00,METAR,,220,4.0,,,9999.0,Cloud Development Not Observable,-7.0,-8.0,30.09,1021.7,,,,0,0,0,,,,,,,,,7/8 Mostly Cloudy,6500.0,,BKN,6400.0,,,,,,
KRDR,02-16-2004,15:00,METAR,,220,7.0,,,9999.0,Cloud Development Not Observable,-10.0,-10.0,30.08,1021.2,,,,0,0,0,,,,,,TRACE,,,7/8 Mostly Cloudy,5500.0,,FEW,2500.0,BKN,5400.0,,,,
KRDR,02-16-2004,14:00,METAR,,200,12.0,,,9999.0,Cloud Development Not Observable,-12.0,-12.0,30.07,1020.9,,,,0,0,0,,,,,,,,,7/8 Mostly Cloudy,4400.0,,FEW,2500.0,BKN,4500.0,BKN,8900.0,,
KRDR,02-16-2004,13:13,SPECI,,190,13.0,,,9999.0,Cloud Development Not Observable,-11.0,-12.0,30.07,,,,,0,0,0,,,,,,,,,8/8 Overcast,2500.0,,BKN,2500.0,OVC,4500.0,,,,
KRDR,02-16-2004,13:00,METAR,,190,13.0,,,9999.0,Light Snow/Cloud Development Not Observable,-11.0,-12.0,30.06,1020.8,,,,71,0,0,,,,,,,,,8/8 Overcast,2500.0,,BKN,2500.0,OVC,4500.0,,,,
KRDR,02-16-2004,12:00,METAR,,190,16.0,,,9999.0,Light Snow/Cloud Development Not Observable,-12.0,-12.0,30.05,1020.5,,,,71,0,0,,,,,,,IN,,8/8 Overcast,2500.0,,BKN,2500.0,BKN,4500.0,OVC,8900.0,,
KRDR,02-16-2004,11:00,METAR,,180,16.0,,,9999.0,Light Snow/Cloud Development Not Observable,-13.0,-13.0,30.05,1020.5,,,,71,0,0,,,,,,,,,8/8 Overcast,2500.0,,BKN,2500.0,BKN,4500.0,OVC,8900.0,,
KRDR,02-16-2004,10:00,METAR,,180,16.0,,,9999.0,Cloud Development Not Observable,-13.0,-14.0,30.06,1020.7,,,,0,0,0,,,,,,,,,8/8 Overcast,2500.0,,BKN,2500.0,BKN,4500.0,OVC,8900.0,,
KRDR,02-16-2004,09:00,METAR,,170,19.0,26.0,,9999.0,Cloud Development Not Observable,-13.0,-14.0,30.08,1021.4,,,,0,0,0,,,,,,,,,8/8 Overcast,2500.0,,BKN,2500.0,OVC,8900.0,,,,
KRDR,02-16-2004,08:00,METAR,,170,18.0,,,9999.0,Cloud Development Not Observable,-14.0,-15.0,30.09,1021.6,,,,0,0,0,,,,,,,,,8/8 Overcast,2800.0,,BKN,2800.0,OVC,9400.0,,,,
KRDR,02-16-2004,07:00,METAR,,170,17.0,,,9999.0,Cloud Development Not Observable,-14.0,-15.0,30.10,1022.2,,,,0,0,0,,,,,,,,,7/8 Mostly Cloudy,2300.0,,BKN,2300.0,BKN,9400.0,,,,
KRDR,02-16-2004,06:00,METAR,,170,16.0,,,9999.0,Cloud Development Not Observable,-15.0,-15.0,30.12,1022.8,,,,0,0,0,,,,,,,,,7/8 Mostly Cloudy,2500.0,,BKN,2500.0,,,,,,
KRDR,02-16-2004,05:00,METAR,,160,14.0,,,9999.0,Cloud Development Not Observable,-15.0,-16.0,30.15,1023.8,,,,0,0,0,,,,,,,,,7/8 Mostly Cloudy,2700.0,,BKN,2700.0,,,,,,
KRDR,02-16-2004,04:00,METAR,,170,16.0,,,9999.0,Cloud Development Not Observable,-15.0,-16.0,30.16,1024.4,,,,0,0,0,,,,,,,,,7/8 Mostly Cloudy,2800.0,,BKN,2800.0,,,,,,
KRDR,02-16-2004,03:00,METAR,,170,14.0,,,9999.0,Cloud Development Not Observable,-15.0,-17.0,30.18,1025.1,,,,0,0,0,,,,,,,,,7/8 Mostly Cloudy,3000.0,,BKN,3000.0,,,,,,
KRDR,02-16-2004,02:00,METAR,,170,13.0,,,9999.0,Cloud Development Not Observable,-15.0,-17.0,30.19,1025.5,,,,0,0,0,,,,,,,,,7/8 Mostly Cloudy,10000.0,,SCT,4500.0,BKN,9900.0,BKN,20000.0,,
KRDR,02-16-2004,01:00,METAR,,160,14.0,,,9999.0,Cloud Development Not Observable,-15.0,-17.0,30.21,1026.5,,,,0,0,0,,,,,,,,,7/8 Mostly Cloudy,10000.0,,SCT,4500.0,BKN,9900.0,BKN,20000.0,,
KRDR,02-16-2004,00:00,METAR,,150,14.0,,,9999.0,Cloud Development Not Observable,-16.0,-18.0,30.21,1026.6,,,,0,0,0,,,,,,,,,7/8 Mostly Cloudy,10000.0,,SCT,4500.0,BKN,9900.0,BKN,20000.0,,
KRDR,02-15-2004,23:00,METAR,,160,16.0,,,9999.0,Cloud Development Not Observable,-16.0,-18.0,30.25,1027.8,,,,0,0,0,,,,,,,,,7/8 Mostly Cloudy,4400.0,,BKN,4500.0,BKN,9900.0,BKN,20000.0,,
KRDR,02-15-2004,22:00,METAR,,160,15.0,,,9999.0,Cloud Development Not Observable,-16.0,-18.0,30.28,1028.7,,,,0,0,0,,,,,,,,,8/8 Overcast,10000.0,,SCT,5000.0,BKN,9900.0,OVC,20000.0,,
KRDR,02-15-2004,21:00,METAR,,150,14.0,,,9999.0,Cloud Development Not Observable,-16.0,-19.0,30.29,1029.2,,,,0,0,0,,,,,,,,,7/8 Mostly Cloudy,10000.0,,FEW,5000.0,BKN,9900.0,BKN,20000.0,,
KRDR,02-15-2004,20:00,METAR,,160,16.0,25.0,,9999.0,Cloud Development Not Observable,-16.0,-20.0,30.32,1030.1,,,,0,0,0,,,,,,,,,7/8 Mostly Cloudy,11000.0,,FEW,5000.0,SCT,11000.0,BKN,20000.0,,
KRDR,02-15-2004,19:00,METAR,,170,12.0,,,9999.0,Cloud Development Not Observable,-16.0,-19.0,30.35,1031.1,,,,0,0,0,,,,,,,,,7/8 Mostly Cloudy,20000.0,,SCT,12000.0,BKN,20000.0,,,,
KRDR,02-15-2004,18:00,METAR,Normal,180,15.0,,,,Cloud Development Not Observable,-17.0,-20.0,30.37,1032.1,,,,0,0,0,,,,,,,,,,20000.0,,SCT,12000.0,BKN,20000.0,,,,
KRDR,02-15-2004,17:00,METAR,,180,14.0,,,9999.0,Cloud Development Not Observable,-18.0,-20.0,30.38,1032.3,,,,0,0,0,,,,,,,,,7/8 Mostly Cloudy,20000.0,,SCT,12000.0,BKN,20000.0,,,,
KRDR,02-15-2004,16:00,METAR,,180,10.0,,,9999.0,Cloud Development Not Observable,-19.0,-21.0,30.39,1032.7,,,,0,0,0,,,,,,,,,7/8 Mostly Cloudy,20000.0,,SCT,15000.0,BKN,20000.0,,,,
KRDR,02-15-2004,15:00,METAR,,200,7.0,,,9999.0,Cloud Development Not Observable,-22.0,-24.0,30.39,1032.7,,,,0,0,0,,,,,,,,,7/8 Mostly Cloudy,20000.0,,SCT,15000.0,BKN,20000.0,,,,
KRDR,02-15-2004,14:00,METAR,,190,5.0,,,9999.0,Cloud Development Not Observable,-24.0,-25.0,30.39,1032.8,,,,0,0,0,,,,,,,,,7/8 Mostly Cloudy,20000.0,,SCT,15000.0,BKN,20000.0,,,,
KRDR,02-15-2004,13:00,METAR,,210,4.0,,,9999.0,Cloud Development Not Observable,-25.0,-25.0,30.38,1032.4,,,,0,0,0,,,,,,,,,7/8 Mostly Cloudy,20000.0,,BKN,20000.0,,,,,,
KRDR,02-15-2004,12:00,METAR,,210,6.0,,,9999.0,Cloud Development Not Observable,-27.0,-27.0,30.38,1032.4,,,,0,0,0,,,,,,,,,2/8 Mostly Clear,72000.0,,FEW,20000.0,,,,,,
KRDR,02-15-2004,11:16,SPECI,,210,5.0,,,9999.0,Cloud Development Not Observable,-25.0,-26.0,30.38,,,,,0,0,0,,,,,,,,,2/8 Mostly Clear,72000.0,,FEW,20000.0,,,,,,
KRDR,02-15-2004,11:00,METAR,,190,6.0,,,9999.0,Cloud Development Not Observable,-26.0,-26.0,30.38,1032.4,,,,0,0,0,,,,,,,,,2/8 Mostly Clear,72000.0,,FEW,20000.0,,,,,,
KRDR,02-15-2004,10:00,METAR,,200,7.0,,,9999.0,Cloud Development Not Observable,-27.0,-27.0,30.39,1033.0,,,,0,0,0,,,,,,,,,Clear,72000.0,,,73000.0,,,,,,
KRDR,02-15-2004,09:00,METAR,,190,5.0,,,9999.0,Cloud Development Not Observable,-26.0,-26.0,30.40,1032.9,,,,0,0,0,,,,,,,,,Clear,72000.0,,,73000.0,,,,,,
KRDR,02-15-2004,08:00,METAR,,210,5.0,,,9999.0,Cloud Development Not Observable,-27.0,-27.0,30.40,1033.0,,,,0,0,0,,,,,,,,,Clear,72000.0,,,73000.0,,,,,,
KRDR,02-15-2004,07:00,METAR,,210,5.0,,,9999.0,Cloud Development Not Observable,-27.0,-27.0,30.40,1033.0,,,,0,0,0,,,,,,,,,Clear,72000.0,,,73000.0,,,,,,
KRDR,02-15-2004,06:00,METAR,,210,6.0,,,9999.0,Cloud Development Not Observable,-27.0,-27.0,30.40,1033.1,,,,0,0,0,,,,,,,,,Clear,72000.0,,,73000.0,,,,,,
KRDR,02-15-2004,05:28,SPECI,,200,6.0,,,9999.0,Cloud Development Not Observable,-27.0,-27.0,30.40,,,,,0,0,0,,,,,,,,,Clear,72000.0,,,73000.0,,,,,,
KRDR,02-15-2004,05:00,METAR,,210,6.0,,,9999.0,Cloud Development Not Observable,-26.0,-27.0,30.40,1033.0,,,,0,0,0,,,,,,,,,Clear,72000.0,,,73000.0,,,,,,
KRDR,02-15-2004,04:00,METAR,,210,6.0,,,9999.0,Cloud Development Not Observable,-27.0,-27.0,30.40,1033.2,,,,0,0,0,,,,,,,,,Clear,72000.0,,,73000.0,,,,,,
KRDR,02-15-2004,03:30,METAR,,220,5.0,,,9999.0,Cloud Development Not Observable,-26.0,-26.0,30.39,,,,,0,0,0,,,,,,,,,Clear,72000.0,,,73000.0,,,,,,
KRDR,02-15-2004,03:00,METAR,,220,5.0,,,9999.0,Cloud Development Not Observable,-25.0,-25.0,30.39,1033.0,,,,0,0,0,,,,,,,,,Clear,72000.0,,,73000.0,,,,,,
KRDR,02-15-2004,02:00,METAR,,210,6.0,,,9999.0,Cloud Development Not Observable,-25.0,-25.0,30.39,1033.0,,,,0,0,0,,,,,,,,,2/8 Mostly Clear,72000.0,,FEW,20000.0,,,,,,
KRDR,02-15-2004,01:00,METAR,,270,5.0,,,9999.0,Cloud Development Not Observable,-22.0,-23.0,30.40,1033.1,,,,0,0,0,,,,,,,,,2/8 Mostly Clear,72000.0,,FEW,20000.0,,,,,,
KRDR,02-15-2004,00:00,METAR,,260,4.0,,,9999.0,Cloud Development Not Observable,-19.0,-22.0,30.40,1032.9,,,,0,0,0,,,,,,,,,2/8 Mostly Clear,72000.0,,FEW,20000.0,,,,,,
KRDR,02-14-2004,23:00,METAR,,300,5.0,,,9999.0,Cloud Development Not Observable,-17.0,-21.0,30.40,1032.7,,,,0,0,0,,,,,,,,,2/8 Mostly Clear,72000.0,,FEW,20000.0,,,,,,
KRDR,02-14-2004,22:00,METAR,,310,4.0,,,9999.0,Cloud Development Not Observable,-17.0,-21.0,30.41,1033.0,,,,0,0,0,,,,,,,,,2/8 Mostly Clear,72000.0,,FEW,20000.0,,,,,,
KRDR,02-14-2004,21:00,METAR,,320,6.0,,,9999.0,Cloud Development Not Observable,-17.0,-21.0,30.41,1033.0,,,,0,0,0,,,,,,,,,2/8 Mostly Clear,72000.0,,FEW,20000.0,,,,,,
KRDR,02-14-2004,20:00,METAR,,320,7.0,,,9999.0,Cloud Development Not Observable,-18.0,-21.0,30.42,1033.3,,,,0,0,0,,,,,,,,,2/8 Mostly Clear,72000.0,,FEW,20000.0,,,,,,
KRDR,02-14-2004,19:00,METAR,,310,7.0,,,9999.0,Cloud Development Not Observable,-18.0,-21.0,30.42,1033.3,,,,0,0,0,,,,,,,,,2/8 Mostly Clear,72000.0,,FEW,20000.0,,,,,,
KRDR,02-14-2004,18:00,METAR,,340,10.0,,,9999.0,Cloud Development Not Observable,-19.0,-22.0,30.42,1033.3,,,,0,0,0,,,,,,,,,2/8 Mostly Clear,72000.0,,FEW,20000.0,,,,,,
KRDR,02-14-2004,17:00,METAR,,320,8.0,,,9999.0,Cloud Development Not Observable,-19.0,-22.0,30.42,1033.3,,,,0,0,0,,,,,,,,,4/8 Partly Cloudy,72000.0,,FEW,3000.0,SCT,20000.0,,,,
KRDR,02-14-2004,16:00,METAR,,310,7.0,,,9999.0,Cloud Development Not Observable,-21.0,-23.0,30.42,1033.3,,,,0,0,0,,,,,,,,,4/8 Partly Cloudy,72000.0,,FEW,3000.0,SCT,20000.0,,,,
KRDR,02-14-2004,15:00,METAR,,280,5.0,,,9999.0,Cloud Development Not Observable,-23.0,-24.0,30.40,1032.7,,,,0,0,0,,,,,,,,,2/8 Mostly Clear,72000.0,,FEW,20000.0,,,,,,
KRDR,02-14-2004,14:00,METAR,,310,6.0,,,9999.0,Cloud Development Not Observable,-24.0,-24.0,30.38,1032.1,,,,0,0,0,,,,,,,,,2/8 Mostly Clear,72000.0,,FEW,20000.0,,,,,,
KRDR,02-14-2004,13:00,METAR,,310,7.0,,,9999.0,Cloud Development Not Observable,-24.0,-25.0,30.36,1031.3,,,,0,0,0,,,,,,,,,Clear,72000.0,,,73000.0,,,,,,
KRDR,02-14-2004,12:00,METAR,,340,7.0,,,9999.0,Cloud Development Not Observable,-23.0,-24.0,30.34,1030.4,,,,0,0,0,,,,,,,,,4/8 Partly Cloudy,72000.0,,SCT,20000.0,,,,,,
KRDR,02-14-2004,11:33,SPECI,,340,6.0,,,9999.0,Cloud Development Not Observable,-23.0,-24.0,30.34,,,,,0,0,0,,,,,,,,,2/8 Mostly Clear,72000.0,,FEW,20000.0,,,,,,
KRDR,02-14-2004,11:00,METAR,,330,6.0,,,9999.0,Cloud Development Not Observable,-22.0,-23.0,30.33,1029.8,,,,0,0,0,,,,,,,,,7/8 Mostly Cloudy,20000.0,,BKN,20000.0,,,,,,
KRDR,02-14-2004,10:00,METAR,,340,7.0,,,9999.0,Cloud Development Not Observable,-21.0,-22.0,30.31,1028.9,,,,0,0,0,,,,,,,,,4/8 Partly Cloudy,72000.0,,SCT,20000.0,,,,,,
KRDR,02-14-2004,09:00,METAR,,350,8.0,,,9999.0,Cloud Development Not Observable,-20.0,-22.0,30.30,1028.4,,,,0,0,0,,,,,,,,,4/8 Partly Cloudy,72000.0,,FEW,12000.0,SCT,20000.0,,,,
KRDR,02-14-2004,08:00,METAR,,350,11.0,,,9999.0,Cloud Development Not Observable,-19.0,-21.0,30.28,1027.7,,,,0,0,0,,,,,,,,,4/8 Partly Cloudy,72000.0,,FEW,12000.0,SCT,20000.0,,,,
KRDR,02-14-2004,07:00,METAR,,350,12.0,,,9999.0,Cloud Development Not Observable,-18.0,-20.0,30.24,1026.6,,,,0,0,0,,,,,,,,,4/8 Partly Cloudy,72000.0,,FEW,12000.0,SCT,20000.0,,,,
KRDR,02-14-2004,06:00,METAR,,340,12.0,,,9999.0,Cloud Development Not Observable,-17.0,-19.0,30.22,1025.9,,,,0,0,0,,,,,,,,,4/8 Partly Cloudy,72000.0,,FEW,12000.0,SCT,20000.0,,,,
KRDR,02-14-2004,05:00,METAR,,340,11.0,,,9999.0,Cloud Development Not Observable,-17.0,-18.0,30.19,1024.9,,,,0,0,0,,,,,,,,,4/8 Partly Cloudy,72000.0,,FEW,2000.0,SCT,20000.0,,,,
KRDR,02-14-2004,04:00,METAR,,340,8.0,,,9999.0,Cloud Development Not Observable,-16.0,-17.0,30.17,1024.3,,,,0,0,0,,,,,,,,,4/8 Partly Cloudy,72000.0,,SCT,20000.0,,,,,,
KRDR,02-14-2004,03:00,METAR,,360,12.0,,,9999.0,Cloud Development Not Observable,-15.0,-16.0,,1023.1,,,,0,0,0,,,,,,,,,2/8 Mostly Clear,72000.0,,FEW,12000.0,,,,,,
KRDR,02-14-2004,01:50,METAR,,350,18.0,,,9999.0,Cloud Development Not Observable,-13.0,-13.0,30.11,1021.9,,,,0,0,0,,,,,,,,,2/8 Mostly Clear,72000.0,,FEW,3500.0,,,,,,
KRDR,02-14-2004,01:00,METAR,,360,24.0,32.0,,8000.0,Blowing Snow/Cloud Development Not Observable,-11.0,-11.0,30.07,1020.6,,,,38,0,0,,,,,,,,,8/8 Overcast,3400.0,,SCT,1100.0,OVC,3500.0,,,,
KRDR,02-14-2004,00:10,SPECI,,360,20.0,,,9999.0,Drifting Snow/Cloud Development Not Observable,-8.0,-8.0,30.03,,,,,36,0,0,,,,,,,,,8/8 Overcast,3400.0,,SCT,1100.0,OVC,3500.0,,,,
KRDR,02-14-2004,00:00,METAR,,360,23.0,,360/29KTS,9999.0,Blowing Snow/Cloud Development Not Observable,-8.0,-8.0,30.01,1015.0,,,,38,0,0,,,,,,,,,8/8 Overcast,2000.0,,SCT,1300.0,BKN,2000.0,OVC,3500.0,,
KRDR,02-13-2004,23:00,METAR,,360,22.0,,360/28KTS,9999.0,Drifting Snow/Cloud Development Not Observable,-6.0,-6.0,29.97,1015.0,,,,36,0,0,,,,,,,,,8/8 Overcast,2800.0,,SCT,1300.0,OVC,2800.0,,,,
KRDR,02-13-2004,22:10,SPECI,,360,22.0,,,9999.0,Cloud Development Not Observable,-5.0,-5.0,29.94,,,,,0,0,0,,,,,,,,,8/8 Overcast,2500.0,,BKN,2500.0,OVC,5000.0,,,,
KRDR,02-13-2004,22:00,METAR,,360,23.0,,,9999.0,Cloud Development Not Observable,-3.0,-4.0,29.92,1015.0,,,,0,0,0,,,,,,,,,7/8 Mostly Cloudy,4900.0,,SCT,2500.0,BKN,5000.0,BKN,25000.0,,
KRDR,02-13-2004,21:00,METAR,,360,17.0,,,9999.0,Cloud Development Not Observable,-1.0,-4.0,29.87,1013.3,,,,0,0,0,,,,,,,,,2/8 Mostly Clear,72000.0,,FEW,25000.0,,,,,,
KRDR,02-13-2004,20:00,METAR,,310,10.0,,,9999.0,Cloud Development Not Observable,-2.0,-5.0,29.85,1012.7,,,,0,0,0,,,,,,,,,2/8 Mostly Clear,72000.0,,FEW,25000.0,,,,,,
KRDR,02-13-2004,19:00,METAR,,300,12.0,,,9999.0,Cloud Development Not Observable,-2.0,-5.0,29.84,1012.4,,,,0,0,0,,,,,,,,,2/8 Mostly Clear,72000.0,,FEW,25000.0,,,,,,
KRDR,02-13-2004,18:00,METAR,,290,9.0,,,9999.0,Cloud Development Not Observable,-3.0,-6.0,29.82,1011.8,,,,0,0,0,,,,,,,,,2/8 Mostly Clear,72000.0,,FEW,25000.0,,,,,,
KRDR,02-13-2004,17:00,METAR,,300,12.0,,,9999.0,Cloud Development Not Observable,-4.0,-6.0,29.80,1011.1,,,,0,0,0,,,,,,,,,2/8 Mostly Clear,72000.0,,FEW,25000.0,,,,,,
KRDR,02-13-2004,16:00,METAR,,300,11.0,,,9999.0,Cloud Development Not Observable,-6.0,-7.0,29.78,1010.4,,,,0,0,0,,,,,,,,,2/8 Mostly Clear,72000.0,,FEW,25000.0,,,,,,
KRDR,02-13-2004,15:00,METAR,,290,13.0,,,9999.0,Cloud Development Not Observable,-6.0,-8.0,29.76,1009.7,,,,0,0,0,,,,,,,,,2/8 Mostly Clear,72000.0,,FEW,25000.0,,,,,,
KRDR,02-13-2004,14:00,METAR,,280,9.0,,,9999.0,Cloud Development Not Observable,-8.0,-8.0,29.74,1009.3,,,,0,0,0,,,,,,,,,Clear,72000.0,,,73000.0,,,,,,
KRDR,02-13-2004,13:00,METAR,,290,9.0,,,9999.0,Cloud Development Not Observable,-8.0,-9.0,29.73,,,,,0,0,0,,,,,,,,,Clear,72000.0,,,73000.0,,,,,,
KRDR,02-13-2004,12:09,SPECI,,300,11.0,,,9999.0,Cloud Development Not Observable,-8.0,-9.0,29.73,,,,,0,0,0,,,,,,,,,2/8 Mostly Clear,72000.0,,FEW,20000.0,,,,,,
KRDR,02-13-2004,12:00,METAR,,300,11.0,,,9999.0,Cloud Development Not Observable,-8.0,-9.0,29.73,1008.8,,,,0,0,0,,,,,,,,,2/8 Mostly Clear,72000.0,,FEW,20000.0,,,,,,
KRDR,02-13-2004,11:00,METAR,,280,9.0,,,9999.0,Cloud Development Not Observable,-6.0,-8.0,29.72,1008.5,,,,0,0,0,,,,,,,,,Clear,72000.0,,,73000.0,,,,,,
KRDR,02-13-2004,10:00,METAR,,270,12.0,,,9999.0,Cloud Development Not Observable,-7.0,-8.0,29.73,1008.7,,,,0,0,0,,,,,,,,,Clear,72000.0,,,73000.0,,,,,,
KRDR,02-13-2004,09:00,METAR,,270,8.0,,,9999.0,Cloud Development Not Observable,-6.0,-8.0,29.75,1009.4,,,,0,0,0,,,,,,,,,Clear,72000.0,,,73000.0,,,,,,
KRDR,02-13-2004,08:00,METAR,,260,15.0,,,9999.0,Cloud Development Not Observable,-7.0,-9.0,29.75,1009.5,,,,0,0,0,,,,,,,,,Clear,72000.0,,,73000.0,,,,,,
KRDR,02-13-2004,06:00,METAR,,260,9.0,,,9999.0,Cloud Development Not Observable,-9.0,-10.0,29.79,1011.0,,,,0,0,0,,,,,,,,,Clear,72000.0,,,73000.0,,,,,,
KRDR,02-13-2004,05:00,METAR,,230,7.0,,,9999.0,Cloud Development Not Observable,-8.0,-10.0,29.80,1011.6,,,,0,0,0,,,,,,,,,4/8 Partly Cloudy,72000.0,,SCT,25000.0,,,,,,
KRDR,02-13-2004,04:00,METAR,,210,9.0,,,9999.0,Cloud Development Not Observable,-9.0,-10.0,29.83,1013.3,,,,0,0,0,,,,,,,,,4/8 Partly Cloudy,72000.0,,SCT,25000.0,,,,,,
KRDR,02-13-2004,03:00,METAR,,230,10.0,,,9999.0,Cloud Development Not Observable,-8.0,-10.0,29.85,1013.4,,,,0,0,0,,,,,,,,,7/8 Mostly Cloudy,25000.0,,SCT,15000.0,BKN,25000.0,,,,
KRDR,02-13-2004,02:00,METAR,,220,12.0,,,9999.0,Cloud Development Not Observable,-9.0,-11.0,29.87,1014.2,,,,0,0,0,,,,,,,,,7/8 Mostly Cloudy,25000.0,,SCT,15000.0,BKN,25000.0,,,,
KRDR,02-13-2004,01:00,METAR,,220,14.0,,,9999.0,Cloud Development Not Observable,-8.0,-10.0,29.90,1015.1,,,,0,0,0,,,,,,,,,7/8 Mostly Cloudy,25000.0,,SCT,15000.0,BKN,25000.0,,,,
KRDR,02-13-2004,00:00,METAR,,210,13.0,,,9999.0,Cloud Development Not Observable,-9.0,-11.0,29.93,1016.3,,,,0,0,0,,,,,,,,,7/8 Mostly Cloudy,25000.0,,SCT,15000.0,BKN,25000.0,,,,
KRDR,02-12-2004,23:00,METAR,,220,12.0,,,9999.0,Cloud Development Not Observable,-8.0,-11.0,29.95,1017.1,,,,0,0,0,,,,,,,,,7/8 Mostly Cloudy,18000.0,,FEW,7400.0,SCT,18000.0,BKN,25000.0,,
KRDR,02-12-2004,22:00,METAR,,220,19.0,,,9999.0,Cloud Development Not Observable,-8.0,-10.0,29.96,1017.5,,,,0,0,0,,,,,,,,,7/8 Mostly Cloudy,25000.0,,BKN,25000.0,,,,,,
KRDR,02-12-2004,21:00,METAR,,220,19.0,27.0,,9999.0,Cloud Development Not Observable,-8.0,-10.0,29.99,1018.4,,,,0,0,0,,,,,,,,,7/8 Mostly Cloudy,25000.0,,SCT,12000.0,BKN,25000.0,,,,
KRDR,02-12-2004,20:00,METAR,,210,22.0,30.0,,9999.0,Cloud Development Not Observable,-9.0,-11.0,30.03,1019.9,,,,0,0,0,,,,,,,,,7/8 Mostly Cloudy,25000.0,,SCT,12000.0,BKN,25000.0,,,,
KRDR,02-12-2004,19:00,METAR,,210,19.0,25.0,210/30KTS,9999.0,Cloud Development Not Observable,-10.0,-12.0,30.08,1021.4,,,,0,0,0,,,,,,,,,7/8 Mostly Cloudy,25000.0,,SCT,12000.0,BKN,25000.0,,,,
KRDR,02-12-2004,18:00,METAR,,210,18.0,,,9999.0,Cloud Development Not Observable,-11.0,-13.0,30.14,1023.7,,,,0,0,0,,,,,,,,,7/8 Mostly Cloudy,25000.0,,FEW,12000.0,BKN,25000.0,,,,
KRDR,02-12-2004,17:00,METAR,,210,19.0,,,9999.0,Cloud Development Not Observable,-14.0,-16.0,30.17,1024.8,,,,0,0,0,,,,,,,,,7/8 Mostly Cloudy,25000.0,,FEW,12000.0,BKN,25000.0,,,,
KRDR,02-12-2004,16:00,METAR,,200,16.0,,,9999.0,Cloud Development Not Observable,-16.0,-17.0,30.22,1026.4,,,,0,0,0,,,,,,,,,7/8 Mostly Cloudy,25000.0,,FEW,12000.0,BKN,25000.0,,,,
KRDR,02-12-2004,15:00,METAR,,210,12.0,,,9999.0,Cloud Development Not Observable,-18.0,-18.0,30.28,1028.4,,,,0,0,0,,,,,,,,,7/8 Mostly Cloudy,25000.0,,BKN,25000.0,,,,,,
KRDR,02-12-2004,14:00,METAR,,220,9.0,,,9999.0,Cloud Development Not Observable,-19.0,-19.0,30.30,1029.3,,,,0,0,0,,,,,,,,,7/8 Mostly Cloudy,25000.0,,BKN,25000.0,,,,,,
KRDR,02-12-2004,13:00,METAR,,190,11.0,,,9999.0,Cloud Development Not Observable,-22.0,-22.0,30.34,1030.5,,,,0,0,0,,,,,,,,,4/8 Partly Cloudy,72000.0,,SCT,20000.0,,,,,,
KRDR,02-12-2004,12:00,METAR,,210,7.0,,,9999.0,Cloud Development Not Observable,-23.0,-23.0,30.38,1032.1,,,,0,0,0,,,,,,,,.03 IN,2/8 Mostly Clear,72000.0,,FEW,20000.0,,,,,,
KRDR,02-12-2004,11:00,METAR,,210,7.0,,,9999.0,Cloud Development Not Observable,-23.0,-23.0,30.39,1032.4,,,,0,0,0,,,,,,,,,2/8 Mostly Clear,72000.0,,FEW,20000.0,,,,,,
KRDR,02-12-2004,10:00,METAR,,220,7.0,,,9999.0,Cloud Development Not Observable,-24.0,-24.0,30.42,1033.5,,,,0,0,0,,,,,,,,,2/8 Mostly Clear,72000.0,,FEW,20000.0,,,,,,
KRDR,02-12-2004,09:00,METAR,,220,7.0,,,9999.0,Cloud Development Not Observable,-24.0,-24.0,30.46,1034.4,,,,0,0,0,,,,,,,,,4/8 Partly Cloudy,72000.0,,SCT,20000.0,,,,,,
KRDR,02-12-2004,08:00,METAR,,240,8.0,,,9999.0,Cloud Development Not Observable,-23.0,-23.0,30.46,1034.5,,,,0,0,0,,,,,,,,,4/8 Partly Cloudy,72000.0,,SCT,20000.0,,,,,,
KRDR,02-12-2004,07:00,METAR,,280,8.0,,,9999.0,Cloud Development Not Observable,-22.0,-22.0,30.48,1035.1,,,,0,0,0,,,,,,,,,Clear,72000.0,,,73000.0,,,,,,
KRDR,02-12-2004,06:00,METAR,,300,8.0,,,9999.0,Cloud Development Not Observable,-21.0,-21.0,30.50,1035.7,,,,0,0,0,,,,,,,,,Clear,72000.0,,,73000.0,,,,,,
KRDR,02-12-2004,05:00,METAR,,320,7.0,,,9999.0,Cloud Development Not Observable,-20.0,-20.0,30.48,1035.1,,,,0,0,0,,,,,,,,,Clear,72000.0,,,73000.0,,,,,,
KRDR,02-12-2004,04:00,METAR,,330,12.0,,,9999.0,Cloud Development Not Observable,-19.0,-19.0,30.49,1035.4,,,,0,0,0,,,,,,,,,Clear,72000.0,,,73000.0,,,,,,
KRDR,02-12-2004,03:00,METAR,,330,12.0,,,9999.0,Cloud Development Not Observable,-18.0,-18.0,30.48,1034.9,,,,0,0,0,,,,,,,,,Clear,72000.0,,,73000.0,,,,,,
KRDR,02-12-2004,02:00,METAR,,340,12.0,,,9999.0,Cloud Development Not Observable,-17.0,-17.0,30.46,1034.2,,,,0,0,0,,,,,,,,,2/8 Mostly Clear,72000.0,,FEW,5000.0,,,,,,
KRDR,02-12-2004,01:00,METAR,,340,15.0,,,9999.0,Cloud Development Not Observable,-15.0,-15.0,30.44,1033.6,,,,0,0,0,,,,,,,,,2/8 Mostly Clear,72000.0,,FEW,5000.0,,,,,,
KRDR,02-12-2004,00:39,SPECI,,350,20.0,,,2400.0,Blowing Snow/Cloud Development Not Observable,-15.0,-15.0,30.43,,,,,38,0,0,,,,,,,,,4/8 Partly Cloudy,72000.0,,SCT,5000.0,,,,,,
KRDR,02-12-2004,00:00,METAR,,350,22.0,,,1200.0,Cloud Development Not Observable,-14.0,-14.0,30.41,1032.4,,,,0,0,0,,,,,,,,,,3400.0,,BKN,3500.0,,,,,,
KRDR,02-11-2004,23:22,SPECI,,350,24.0,,,800.0,Cloud Development Not Observable,-14.0,-14.0,30.39,,,,,0,0,0,,,,,,,,,,3400.0,,BKN,3500.0,,,,,,
KRDR,02-11-2004,23:00,METAR,,350,26.0,31.0,350/34KTS,400.0,Cloud Development Not Observable,-13.0,-13.0,30.38,1031.3,,,,0,0,0,,,,,,,,,,3400.0,,BKN,3500.0,,,,,,
KRDR,02-11-2004,21:55,METAR,,340,22.0,28.0,,400.0,Cloud Development Not Observable,-12.0,-12.0,30.34,1029.8,,,,0,0,0,,,,,,,,,,3400.0,,OVC,3500.0,,,,,,
KRDR,02-11-2004,21:23,SPECI,,350,25.0,,,800.0,Cloud Development Not Observable,-10.0,-10.0,30.32,,,,,0,0,0,,,,,,,,,,3400.0,,OVC,3500.0,,,,,,
KRDR,02-11-2004,21:00,METAR,,350,25.0,30.0,,400.0,Cloud Development Not Observable,-10.0,-10.0,30.30,1028.4,,,,0,0,0,,,,,,,,,,3400.0,,OVC,3500.0,,,,,,
KRDR,02-11-2004,20:00,METAR,,350,23.0,,,800.0,Cloud Development Not Observable,-10.0,-10.0,30.27,1027.2,,,,0,0,0,,,,,,,,,,3400.0,,OVC,3500.0,,,,,,
KRDR,02-11-2004,19:00,METAR,,350,23.0,,,1200.0,Cloud Development Not Observable,-10.0,-10.0,30.24,1026.4,,,,0,0,0,,,,,,,,,,3400.0,,OVC,3500.0,,,,,,
KRDR,02-11-2004,18:00,METAR,,360,22.0,,,1200.0,Cloud Development Not Observable,-10.0,-10.0,30.22,1025.8,,,,0,0,0,,,,,,,,,,3400.0,,OVC,3500.0,,,,,,
KRDR,02-11-2004,17:00,METAR,,350,20.0,,,1200.0,Cloud Development Not Observable,-10.0,-10.0,30.19,1024.6,,,,0,0,0,,,,,,,,,,3400.0,,OVC,3500.0,,,,,,
KRDR,02-11-2004,16:00,METAR,,350,22.0,,,1200.0,Cloud Development Not Observable,-10.0,-10.0,30.15,1023.2,,,,0,0,0,,,,,,,,,,3400.0,,BKN,3500.0,OVC,7900.0,,,,
KRDR,02-11-2004,15:00,METAR,,350,22.0,,,1200.0,Cloud Development Not Observable,-11.0,-11.0,30.12,1022.4,,,,0,0,0,,,,,,,,,,3400.0,,OVC,3500.0,,,,,,
KRDR,02-11-2004,14:00,METAR,,350,22.0,,,1200.0,Cloud Development Not Observable,-11.0,-11.0,30.07,1020.7,,,,0,0,0,,,,,,,,,,3000.0,,OVC,3000.0,,,,,,
KRDR,02-11-2004,13:00,METAR,,350,19.0,,,1200.0,Cloud Development Not Observable,-11.0,-11.0,30.02,1019.1,,,,0,0,0,,,,,,,,,,3000.0,,SCT,600.0,OVC,3000.0,,,,
KRDR,02-11-2004,12:44,SPECI,,360,23.0,,,1200.0,Cloud Development Not Observable,-10.0,-10.0,30.01,,,,,0,0,0,,,,,,,,,,3000.0,,SCT,600.0,OVC,3000.0,,,,
KRDR,02-11-2004,12:30,SPECI,,360,22.0,,,1200.0,Cloud Development Not Observable,-10.0,-10.0,30.00,,,,,0,0,0,,,,,,,,,,3400.0,,OVC,3500.0,,,,,,
KRDR,02-11-2004,12:17,SPECI,,360,20.0,,,2400.0,Light Snow/Blowing Snow/Cloud Development Not Observable,-10.0,-10.0,30.00,,,,,71,38,0,,,,,,,,,7/8 Mostly Cloudy,3000.0,,BKN,3000.0,,,,,,
KRDR,02-11-2004,12:00,METAR,,360,19.0,,,4800.0,Light Snow/Blowing Snow/Cloud Development Not Observable,-10.0,-10.0,29.99,1017.9,,,,71,38,0,,,,,,,,,8/8 Overcast,2500.0,,SCT,1500.0,BKN,2500.0,OVC,5900.0,,
KRDR,02-11-2004,11:24,SPECI,,360,16.0,,,6400.0,Light Snow/Blowing Snow/Cloud Development Not Observable,-10.0,-10.0,29.97,,,,,71,38,0,,,,,,,,,8/8 Overcast,3400.0,,SCT,2500.0,OVC,3500.0,,,,
KRDR,02-11-2004,11:00,METAR,,360,17.0,,,8000.0,Light Snow/Blowing Snow/Cloud Development Not Observable,-10.0,-10.0,29.95,1016.6,,,,71,38,0,,,,,,,,,8/8 Overcast,2500.0,,SCT,1500.0,BKN,2500.0,OVC,5900.0,,
KRDR,02-11-2004,10:00,METAR,,10,17.0,,,4800.0,Light Snow/Blowing Snow/Cloud Development Not Observable,-9.0,-9.0,29.91,1015.1,,,,71,38,0,,,,,,,,,8/8 Overcast,2700.0,,SCT,1500.0,OVC,2700.0,,,,
KRDR,02-11-2004,09:00,METAR,,10,16.0,,,6400.0,Light Snow/Blowing Snow/Cloud Development Not Observable,-9.0,-9.0,29.89,1014.3,,,,71,38,0,,,,,,.01 IN,,,8/8 Overcast,1500.0,,BKN,1500.0,OVC,2600.0,,,,
KRDR,02-11-2004,08:00,METAR,,20,13.0,,,4800.0,Light Snow/Blowing Snow/Cloud Development Not Observable,-9.0,-9.0,29.85,1013.1,,,,71,38,0,,,,,,,,,8/8 Overcast,1500.0,,OVC,1500.0,,,,,,
KRDR,02-11-2004,07:00,METAR,,30,9.0,,,8000.0,Light Snow/Cloud Development Not Observable,-8.0,-8.0,29.82,1012.0,,,,71,0,0,,,,,,,,,8/8 Overcast,1500.0,,OVC,1500.0,,,,,,
KRDR,02-11-2004,06:00,METAR,,70,9.0,,,9999.0,Light Snow/Cloud Development Not Observable,-9.0,-9.0,29.74,1009.5,,,,71,0,0,,,,,,,.02 IN,,8/8 Overcast,2000.0,,OVC,2000.0,,,,,,
KRDR,02-11-2004,05:00,METAR,,100,9.0,,,9999.0,Light Snow/Cloud Development Not Observable,-9.0,-9.0,29.74,1009.5,,,,71,0,0,,,,,,,,,8/8 Overcast,1500.0,,BKN,1500.0,OVC,2200.0,,,,
KRDR,02-11-2004,04:00,METAR,,120,11.0,,,9999.0,Light Snow/Cloud Development Not Observable,-9.0,-9.0,29.74,1009.4,,,,71,0,0,,,,,,,,,8/8 Overcast,2000.0,,OVC,2000.0,,,,,,
KRDR,02-11-2004,03:00,METAR,,130,11.0,,,9999.0,Light Snow/Cloud Development Not Observable,-9.0,-9.0,29.72,1009.0,,,,71,0,0,,,,,,TRACE,,,8/8 Overcast,2000.0,,OVC,2000.0,,,,,,
KRDR,02-11-2004,02:00,METAR,,140,11.0,,,6400.0,Light Snow/Cloud Development Not Observable,-9.0,-9.0,29.72,1008.9,,,,71,0,0,,,,,,,,,8/8 Overcast,2000.0,,SCT,1200.0,OVC,2000.0,,,,
KRDR,02-11-2004,01:00,METAR,,150,13.0,,,6400.0,Light Snow/Cloud Development Not Observable,-10.0,-10.0,29.71,1008.8,,,,71,0,0,,,,,,,,,8/8 Overcast,2200.0,,OVC,2200.0,,,,,,
KRDR,02-11-2004,00:00,METAR,,160,16.0,,,9999.0,Light Snow/Cloud Development Not Observable,-10.0,-10.0,29.72,1009.0,,,,71,0,0,,,,,,,.02 IN,,8/8 Overcast,4400.0,,OVC,4500.0,,,,,,
KRDR,02-10-2004,23:00,METAR,,160,14.0,,,9999.0,Light Snow/Cloud Development Not Observable,-10.0,-10.0,29.73,1009.5,,,,71,0,0,,,,,,,,,8/8 Overcast,7000.0,,SCT,1000.0,OVC,6900.0,,,,
KRDR,02-10-2004,22:00,METAR,,160,14.0,,,4800.0,Light Snow/Mist/Cloud Development Not Observable,-11.0,-12.0,29.75,1010.1,,,,71,10,0,,,,,,,,,8/8 Overcast,7000.0,,FEW,1000.0,OVC,6900.0,,,,
KRDR,02-10-2004,21:00,METAR,,160,13.0,,,4800.0,Light Snow/Cloud Development Not Observable,-12.0,-13.0,29.77,1010.8,,,,71,0,0,,,,,,TRACE,,,7/8 Mostly Cloudy,7500.0,,BKN,7400.0,BKN,12000.0,,,,
KRDR,02-10-2004,20:00,METAR,,160,13.0,,,9999.0,Light Snow/Cloud Development Not Observable,-11.0,-12.0,29.79,1011.5,,,,71,0,0,,,,,,,,,7/8 Mostly Cloudy,7500.0,,BKN,7400.0,BKN,20000.0,,,,
KRDR,02-10-2004,19:00,METAR,,160,12.0,,,9999.0,Cloud Development Not Observable,-11.0,-13.0,29.81,1012.2,,,,0,0,0,,,,,,,,,7/8 Mostly Cloudy,8000.0,,BKN,7900.0,BKN,20000.0,,,,
KRDR,02-10-2004,18:00,METAR,,180,14.0,,,9999.0,Cloud Development Not Observable,-14.0,-15.0,29.87,1014.4,,,,0,0,0,,,,,,,,,7/8 Mostly Cloudy,20000.0,,FEW,7900.0,BKN,20000.0,,,,
KRDR,02-10-2004,17:00,METAR,,200,12.0,,,9999.0,Cloud Development Not Observable,-14.0,-16.0,29.89,1014.8,,,,0,0,0,,,,,,,,,7/8 Mostly Cloudy,20000.0,,FEW,7900.0,BKN,20000.0,,,,
KRDR,02-10-2004,16:00,METAR,,190,13.0,,,9999.0,Cloud Development Not Observable,-16.0,-17.0,29.92,1015.9,,,,0,0,0,,,,,,,,,7/8 Mostly Cloudy,20000.0,,FEW,7900.0,BKN,20000.0,,,,
KRDR,02-10-2004,15:00,METAR,,190,10.0,,,9999.0,Cloud Development Not Observable,-17.0,-17.0,29.95,1017.0,,,,0,0,0,,,,,,,,,7/8 Mostly Cloudy,20000.0,,SCT,7900.0,BKN,20000.0,,,,
KRDR,02-10-2004,14:00,METAR,,190,9.0,,,9999.0,Cloud Development Not Observable,-19.0,-19.0,29.96,1017.4,,,,0,0,0,,,,,,,,,7/8 Mostly Cloudy,20000.0,,BKN,20000.0,,,,,,
KRDR,02-10-2004,13:00,METAR,,220,7.0,,,9999.0,Cloud Development Not Observable,-20.0,-20.0,30.01,1019.0,,,,0,0,0,,,,,,,,,4/8 Partly Cloudy,72000.0,,SCT,20000.0,,,,,,
KRDR,02-10-2004,12:00,METAR,,220,6.0,,,9999.0,Cloud Development Not Observable,-21.0,-21.0,30.04,1020.1,,,,0,0,0,,,,,,,,.03 IN,2/8 Mostly Clear,72000.0,,FEW,20000.0,,,,,,
KRDR,02-10-2004,11:00,METAR,,230,7.0,,,9999.0,Cloud Development Not Observable,-21.0,-21.0,30.06,1020.8,,,,0,0,0,,,,,,,,,Clear,72000.0,,,73000.0,,,,,,
KRDR,02-10-2004,10:00,METAR,,240,7.0,,,9999.0,Cloud Development Not Observable,-21.0,-21.0,30.09,1021.4,,,,0,0,0,,,,,,,,,Clear,72000.0,,,73000.0,,,,,,
KRDR,02-10-2004,09:00,METAR,,240,7.0,,,9999.0,Cloud Development Not Observable,-20.0,-20.0,30.11,1022.4,,,,0,0,0,,,,,,,,,Clear,72000.0,,,73000.0,,,,,,
KRDR,02-10-2004,08:00,METAR,,280,10.0,,,9999.0,Cloud Development Not Observable,-19.0,-19.0,30.11,1022.3,,,,0,0,0,,,,,,,,,Clear,72000.0,,,73000.0,,,,,,
KRDR,02-10-2004,07:00,METAR,,270,8.0,,,9999.0,Cloud Development Not Observable,-18.0,-18.0,30.11,1021.5,,,,0,0,0,,,,,,,,,2/8 Mostly Clear,72000.0,,FEW,2000.0,,,,,,
KRDR,02-10-2004,06:00,METAR,,280,8.0,,,9999.0,Cloud Development Not Observable,-15.0,-15.0,30.12,1022.7,,,,0,0,0,,,,,,,IN,,2/8 Mostly Clear,72000.0,,FEW,2000.0,,,,,,
KRDR,02-10-2004,05:20,METAR,,300,8.0,,,9999.0,Cloud Development Not Observable,-14.0,-14.0,30.13,,,,,0,0,0,,,,,,,,,4/8 Partly Cloudy,72000.0,,FEW,1800.0,SCT,3000.0,,,,
KRDR,02-10-2004,05:00,METAR,,340,9.0,,,9999.0,Light Snow/Cloud Development Not Observable,-12.0,-12.0,30.13,1022.5,,,,71,0,0,,,,,,,,,7/8 Mostly Cloudy,3000.0,,SCT,1800.0,BKN,3000.0,,,,
KRDR,02-10-2004,04:00,METAR,,330,7.0,,,9999.0,Light Snow/Cloud Development Not Observable,-12.0,-12.0,30.12,1022.3,,,,71,0,0,,,,,,,,,7/8 Mostly Cloudy,3000.0,,SCT,1800.0,BKN,3000.0,,,,
KRDR,02-10-2004,03:00,METAR,,340,8.0,,,9999.0,Light Snow/Cloud Development Not Observable,-11.0,-11.0,30.11,1021.4,,,,71,0,0,,,,,,,,,7/8 Mostly Cloudy,3000.0,,SCT,2200.0,BKN,3000.0,,,,
KRDR,02-10-2004,02:00,METAR,,300,10.0,,,9999.0,Light Snow/Cloud Development Not Observable,-11.0,-12.0,30.10,1021.4,,,,71,0,0,,,,,,,,,7/8 Mostly Cloudy,3000.0,,SCT,2200.0,BKN,3000.0,,,,
KRDR,02-10-2004,01:00,METAR,,340,10.0,,,9999.0,Light Snow/Cloud Development Not Observable,-10.0,-10.0,30.09,1021.1,,,,71,0,0,,,,,,,,,7/8 Mostly Cloudy,3000.0,,FEW,1000.0,BKN,3000.0,,,,
KRDR,02-10-2004,00:00,METAR,,320,11.0,,,9999.0,Light Snow/Cloud Development Not Observable,-10.0,-10.0,30.08,1020.6,,,,71,0,0,,,,,,,IN,,7/8 Mostly Cloudy,3000.0,,SCT,1000.0,BKN,3000.0,,,,
KRDR,02-09-2004,23:00,METAR,,340,10.0,,,9999.0,Light Snow/Cloud Development Not Observable,-9.0,-10.0,30.06,1020.0,,,,71,0,0,,,,,,,,,7/8 Mostly Cloudy,3000.0,,SCT,1000.0,BKN,3000.0,,,,
KRDR,02-09-2004,22:00,METAR,,340,13.0,,,9999.0,Light Snow/Cloud Development Not Observable,-9.0,-10.0,30.04,1019.3,,,,71,0,0,,,,,,,,,7/8 Mostly Cloudy,3000.0,,SCT,1000.0,BKN,3000.0,,,,
KRDR,02-09-2004,21:00,METAR,,340,18.0,,,9999.0,Light Snow/Cloud Development Not Observable,-9.0,-10.0,30.02,1018.6,,,,71,0,0,,,,,,TRACE,,,7/8 Mostly Cloudy,3900.0,,SCT,1000.0,BKN,4000.0,,,,
KRDR,02-09-2004,20:00,METAR,,350,18.0,,,8000.0,Light Snow/Blowing Snow/Cloud Development Not Observable,-8.0,-9.0,29.99,1017.5,,,,71,38,0,,,,,,,,,7/8 Mostly Cloudy,3900.0,,SCT,1000.0,BKN,4000.0,,,,
KRDR,02-09-2004,19:42,SPECI,,350,16.0,,,8000.0,Light Snow/Cloud Development Not Observable,-8.0,-10.0,29.99,,,,,71,0,0,,,,,,,,,4/8 Partly Cloudy,72000.0,,SCT,4000.0,,,,,,
KRDR,02-09-2004,19:00,METAR,,350,17.0,,,9999.0,Cloud Development Not Observable,-8.0,-9.0,29.99,1017.5,,,,0,0,0,,,,,,,,,7/8 Mostly Cloudy,20000.0,,SCT,5900.0,BKN,20000.0,,,,
KRDR,02-09-2004,17:55,METAR,,350,17.0,,,9999.0,Light Snow/Cloud Development Not Observable,-8.0,-9.0,29.97,1017.0,,,,71,0,0,,,,,,,.03 IN,,7/8 Mostly Cloudy,6000.0,,FEW,2000.0,BKN,5900.0,,,,
KRDR,02-09-2004,17:20,METAR,,350,16.0,,,4800.0,Light Snow/Cloud Development Not Observable,-7.0,-8.0,29.95,,,,,71,0,0,,,,,,,,,8/8 Overcast,3900.0,,SCT,2000.0,OVC,4000.0,,,,
KRDR,02-09-2004,17:10,SPECI,,360,19.0,25.0,,2400.0,Light Snow/Cloud Development Not Observable,-8.0,-8.0,29.95,,,,,71,0,0,,,,,,,,,8/8 Overcast,3900.0,,SCT,2000.0,OVC,4000.0,,,,
KRDR,02-09-2004,17:00,METAR,,320,16.0,,,9999.0,Light Snow/Cloud Development Not Observable,-6.0,-8.0,29.94,1015.7,,,,71,0,0,,,,,,,,,8/8 Overcast,6000.0,,FEW,2000.0,OVC,5900.0,,,,
KRDR,02-09-2004,16:20,METAR,,320,11.0,,,4800.0,Light Snow/Cloud Development Not Observable,-7.0,-7.0,29.92,,,,,71,0,0,,,,,,,,,8/8 Overcast,3900.0,,SCT,2000.0,OVC,4000.0,,,,
KRDR,02-09-2004,16:00,METAR,,320,9.0,,,9999.0,Light Snow/Cloud Development Not Observable,-7.0,-8.0,29.91,1014.8,,,,71,0,0,,,,,,,,,8/8 Overcast,2000.0,,BKN,2000.0,OVC,4000.0,,,,
KRDR,02-09-2004,15:00,METAR,,350,14.0,,,9999.0,Light Snow/Cloud Development Not Observable,-7.0,-8.0,29.89,1014.1,,,,71,0,0,,,,,,.01 IN,,,7/8 Mostly Cloudy,2000.0,,BKN,2000.0,BKN,4000.0,,,,
KRDR,02-09-2004,14:00,METAR,,360,15.0,,,4800.0,Light Snow/Cloud Development Not Observable,-6.0,-6.0,29.86,1013.2,,,,71,0,0,,,,,,,,,7/8 Mostly Cloudy,2000.0,,BKN,2000.0,BKN,4000.0,,,,
KRDR,02-09-2004,13:00,METAR,,320,15.0,,,4800.0,Light Snow/Cloud Development Not Observable,-5.0,-5.0,29.82,1011.6,,,,71,0,0,,,,,,,,,7/8 Mostly Cloudy,2000.0,,BKN,2000.0,BKN,4000.0,,,,
KRDR,02-09-2004,12:11,SPECI,,300,15.0,,,4800.0,Light Snow/Drifting Snow/Cloud Development Not Observable,-5.0,-5.0,29.81,,,,,71,36,0,,,,,,,,,8/8 Overcast,2200.0,,BKN,2200.0,OVC,4000.0,,,,
KRDR,02-09-2004,12:00,METAR,,300,15.0,,,3200.0,Light Snow/Drifting Snow/Cloud Development Not Observable,-5.0,-5.0,29.80,1011.0,,,,71,36,0,,,,,,,.02 IN,.02 IN,8/8 Overcast,2200.0,,BKN,2200.0,OVC,4000.0,,,,
KRDR,02-09-2004,11:23,SPECI,,300,17.0,,,3200.0,Light Snow/Drifting Snow/Cloud Development Not Observable,-5.0,-5.0,29.79,,,,,71,36,0,,,,,,,,,8/8 Overcast,2500.0,,OVC,2500.0,,,,,,
KRDR,02-09-2004,11:00,METAR,,300,17.0,,,4800.0,Light Snow/Blowing Snow/Cloud Development Not Observable,-4.0,-4.0,29.78,1010.3,,,,71,38,0,,,,,,,,,8/8 Overcast,2200.0,,OVC,2200.0,,,,,,
KRDR,02-09-2004,10:00,METAR,,290,16.0,,,6400.0,Light Snow/Drifting Snow/Cloud Development Not Observable,-4.0,-5.0,29.77,1009.8,,,,71,36,0,,,,,,,,,8/8 Overcast,2200.0,,OVC,2200.0,,,,,,
KRDR,02-09-2004,09:00,METAR,,290,19.0,23.0,,6400.0,Light Snow/Cloud Development Not Observable,-4.0,-5.0,29.76,1009.5,,,,71,0,0,,,,,,TRACE,,,8/8 Overcast,2000.0,,OVC,2000.0,,,,,,
KRDR,02-09-2004,08:21,SPECI,,290,16.0,,,4800.0,Light Snow/Cloud Development Not Observable,-4.0,-5.0,29.75,,,,,71,0,0,,,,,,,,,8/8 Overcast,2000.0,,OVC,2000.0,,,,,,
KRDR,02-09-2004,08:09,SPECI,,290,17.0,,,3200.0,Light Snow/Cloud Development Not Observable,-5.0,-5.0,29.75,,,,,71,0,0,,,,,,,,,8/8 Overcast,2000.0,,OVC,2000.0,,,,,,
KRDR,02-09-2004,08:00,METAR,,290,16.0,25.0,,6400.0,Light Snow/Cloud Development Not Observable,-4.0,-5.0,29.75,1009.1,,,,71,0,0,,,,,,,,,8/8 Overcast,2000.0,,OVC,2000.0,,,,,,
KRDR,02-09-2004,07:00,METAR,,290,17.0,,,9999.0,Light Snow/Cloud Development Not Observable,-4.0,-5.0,29.74,1008.7,,,,71,0,0,,,,,,,,,8/8 Overcast,2000.0,,OVC,2000.0,,,,,,
KRDR,02-09-2004,06:43,SPECI,,290,17.0,,,9999.0,Light Snow/Cloud Development Not Observable,-4.0,-5.0,29.74,,,,,71,0,0,,,,,,,,,8/8 Overcast,2000.0,,BKN,2000.0,OVC,3500.0,,,,
KRDR,02-09-2004,06:34,SPECI,,290,18.0,,,9999.0,Light Snow/Cloud Development Not Observable,-4.0,-5.0,29.74,,,,,71,0,0,,,,,,,,,8/8 Overcast,3400.0,,SCT,2500.0,OVC,3500.0,,,,
KRDR,02-09-2004,06:00,METAR,,290,16.0,,,9999.0,Cloud Development Not Observable,-4.0,-5.0,29.73,1008.5,,,,0,0,0,,,,,,,,,8/8 Overcast,3400.0,,FEW,2000.0,OVC,3500.0,,,,
KRDR,02-09-2004,05:00,METAR,,280,16.0,,,9999.0,Cloud Development Not Observable,-4.0,-5.0,29.72,1007.9,,,,0,0,0,,,,,,,,,8/8 Overcast,3400.0,,OVC,3500.0,,,,,,
KRDR,02-09-2004,04:27,SPECI,,290,17.0,,,9999.0,Cloud Development Not Observable,-3.0,-4.0,29.72,,,,,0,0,0,,,,,,,,,8/8 Overcast,3700.0,,FEW,2500.0,OVC,3800.0,,,,
KRDR,02-09-2004,04:00,METAR,,290,16.0,,,9999.0,Cloud Development Not Observable,-3.0,-4.0,29.72,1007.9,,,,0,0,0,,,,,,,,,8/8 Overcast,2500.0,,BKN,2500.0,OVC,3500.0,,,,
KRDR,02-09-2004,03:00,METAR,,280,15.0,,,9999.0,Cloud Development Not Observable,-3.0,-4.0,29.71,1007.6,,,,0,0,0,,,,,,,,,8/8 Overcast,2000.0,,BKN,2000.0,OVC,3500.0,,,,
KRDR,02-09-2004,02:00,METAR,,280,16.0,,,9999.0,Cloud Development Not Observable,-3.0,-4.0,29.71,1007.7,,,,0,0,0,,,,,,,,,8/8 Overcast,2900.0,,BKN,2900.0,OVC,4000.0,,,,
KRDR,02-09-2004,01:00,METAR,,300,10.0,,,9999.0,Cloud Development Not Observable,-3.0,-4.0,29.71,1007.9,,,,0,0,0,,,,,,,,,8/8 Overcast,2500.0,,OVC,2500.0,,,,,,
KRDR,02-09-2004,00:00,METAR,,300,10.0,,,9999.0,Cloud Development Not Observable,-5.0,-6.0,29.71,1008.1,,,,0,0,0,,,,,,,,,7/8 Mostly Cloudy,2500.0,,BKN,2500.0,BKN,12000.0,,,,
KRDR,02-08-2004,23:25,METAR,,290,12.0,,,9999.0,Cloud Development Not Observable,-5.0,-6.0,29.71,,,,,0,0,0,,,,,,,,,7/8 Mostly Cloudy,2500.0,,BKN,2500.0,BKN,12000.0,,,,
KRDR,02-08-2004,23:00,METAR,,280,12.0,,,9999.0,Cloud Development Not Observable,-5.0,-6.0,29.71,1008.2,,,,0,0,0,,,,,,,,,7/8 Mostly Cloudy,25000.0,,SCT,12000.0,BKN,25000.0,,,,
KRDR,02-08-2004,22:00,METAR,,270,13.0,,,9999.0,Cloud Development Not Observable,-4.0,-6.0,29.72,1008.5,,,,0,0,0,,,,,,,,,7/8 Mostly Cloudy,25000.0,,SCT,12000.0,BKN,25000.0,,,,
KRDR,02-08-2004,21:00,METAR,,270,12.0,,,9999.0,Cloud Development Not Observable,-4.0,-6.0,29.72,1008.5,,,,0,0,0,,,,,,,,,7/8 Mostly Cloudy,12000.0,,BKN,12000.0,BKN,25000.0,,,,
KRDR,02-08-2004,20:00,METAR,,290,12.0,,,9999.0,Cloud Development Not Observable,-3.0,-5.0,29.73,1008.8,,,,0,0,0,,,,,,,,,7/8 Mostly Cloudy,12000.0,,BKN,12000.0,BKN,25000.0,,,,
KRDR,02-08-2004,19:00,METAR,,300,13.0,,,9999.0,Cloud Development Not Observable,-3.0,-5.0,29.74,1009.0,,,,0,0,0,,,,,,,,,7/8 Mostly Cloudy,12000.0,,BKN,12000.0,,,,,,
KRDR,02-08-2004,18:00,METAR,,300,12.0,,,9999.0,Cloud Development Not Observable,-2.0,-5.0,29.76,1010.0,,,,0,0,0,,,,,,,IN,,7/8 Mostly Cloudy,12000.0,,BKN,12000.0,,,,,,
KRDR,02-08-2004,17:00,METAR,,280,15.0,,,9999.0,Cloud Development Not Observable,-2.0,-4.0,29.77,1010.3,,,,0,0,0,,,,,,,,,8/8 Overcast,9000.0,,OVC,8900.0,,,,,,
KRDR,02-08-2004,16:00,METAR,,240,10.0,,,9999.0,Cloud Development Not Observable,-2.0,-3.0,29.76,1009.8,,,,0,0,0,,,,,,,,,8/8 Overcast,9000.0,,OVC,8900.0,,,,,,
KRDR,02-08-2004,15:00,METAR,,280,11.0,,,9999.0,Cloud Development Not Observable,-2.0,-3.0,29.77,1010.2,,,,0,0,0,,,,,,TRACE,,,8/8 Overcast,9000.0,,SCT,3500.0,OVC,8900.0,,,,
KRDR,02-08-2004,14:00,METAR,,180,6.0,,,9999.0,Cloud Development Not Observable,-4.0,-4.0,29.75,1009.7,,,,0,0,0,,,,,,,,,8/8 Overcast,3400.0,,BKN,3500.0,OVC,5000.0,,,,
KRDR,02-08-2004,13:40,SPECI,,170,7.0,,,9999.0,Cloud Development Not Observable,-5.0,-5.0,29.76,,,,,0,0,0,,,,,,,,,8/8 Overcast,3400.0,,BKN,3500.0,OVC,5000.0,,,,
KRDR,02-08-2004,13:00,METAR,,200,6.0,,,9999.0,Cloud Development Not Observable,-5.0,-5.0,29.77,1010.3,,,,0,0,0,,,,,,,,,8/8 Overcast,2700.0,,BKN,2700.0,OVC,5000.0,,,,
KRDR,02-08-2004,12:41,SPECI,,220,8.0,,,9999.0,Cloud Development Not Observable,-6.0,-6.0,29.77,,,,,0,0,0,,,,,,,,,8/8 Overcast,2000.0,,BKN,2000.0,OVC,5000.0,,,,
KRDR,02-08-2004,12:08,SPECI,,200,12.0,,,8000.0,Snow Grains/Light Snow/Cloud Development Not Observable,-7.0,-7.0,29.77,,,,,71,77,0,,,,,,,,,8/8 Overcast,2000.0,,BKN,2000.0,OVC,5000.0,,,,
KRDR,02-08-2004,12:00,METAR,,200,12.0,,,1200.0,Cloud Development Not Observable,-7.0,-7.0,29.77,1010.4,,,,0,0,0,,,,,,,,,,1500.0,,BKN,1500.0,OVC,2500.0,,,,
KRDR,02-08-2004,11:38,SPECI,,200,13.0,,,1200.0,Cloud Development Not Observable,-8.0,-8.0,29.78,,,,,0,0,0,,,,,,,,,,2300.0,,OVC,2300.0,,,,,,
KRDR,02-08-2004,11:00,METAR,,210,13.0,,,3200.0,Light Snow/Cloud Development Not Observable,-9.0,-9.0,29.80,1011.6,,,,71,0,0,,,,,,,,,8/8 Overcast,2200.0,,BKN,2200.0,OVC,3500.0,,,,
KRDR,02-08-2004,10:41,SPECI,,190,12.0,,,3200.0,Light Snow/Cloud Development Not Observable,-10.0,-10.0,29.81,,,,,71,0,0,,,,,,,,,8/8 Overcast,2000.0,,BKN,2000.0,OVC,3500.0,,,,
KRDR,02-08-2004,10:00,METAR,,190,17.0,,,4800.0,Light Snow/Cloud Development Not Observable,-11.0,-11.0,29.82,1012.2,,,,71,0,0,,,,,,,,,8/8 Overcast,3400.0,,FEW,1600.0,BKN,3500.0,OVC,9900.0,,
KRDR,02-08-2004,09:20,METAR,,190,16.0,,,9999.0,Light Snow/Cloud Development Not Observable,-11.0,-12.0,29.83,,,,,71,0,0,,,,,,,,,8/8 Overcast,8000.0,,SCT,3500.0,OVC,7900.0,,,,
KRDR,02-08-2004,09:00,METAR,,190,16.0,,,9999.0,Cloud Development Not Observable,-11.0,-12.0,29.84,1012.9,,,,0,0,0,,,,,,,,,8/8 Overcast,8000.0,,SCT,3500.0,OVC,7900.0,,,,
KRDR,02-08-2004,08:00,METAR,,190,17.0,,,9999.0,Cloud Development Not Observable,-10.0,-12.0,29.86,1013.6,,,,0,0,0,,,,,,,,,8/8 Overcast,8000.0,,OVC,7900.0,,,,,,
KRDR,02-08-2004,07:00,METAR,,190,18.0,,,9999.0,Cloud Development Not Observable,-12.0,-13.0,29.88,1014.5,,,,0,0,0,,,,,,,,,8/8 Overcast,10000.0,,OVC,9900.0,,,,,,
KRDR,02-08-2004,06:00,METAR,,190,17.0,,,9999.0,Cloud Development Not Observable,-14.0,-14.0,29.91,1015.7,,,,0,0,0,,,,,,,,,7/8 Mostly Cloudy,10000.0,,BKN,9900.0,,,,,,
KRDR,02-08-2004,05:00,METAR,,180,22.0,29.0,,9999.0,Drifting Snow/Cloud Development Not Observable,-14.0,-14.0,29.92,1015.9,,,,36,0,0,,,,,,,,,7/8 Mostly Cloudy,10000.0,,BKN,9900.0,,,,,,
KRDR,02-08-2004,04:00,METAR,,170,18.0,,,9999.0,Cloud Development Not Observable,-14.0,-14.0,29.96,1017.5,,,,0,0,0,,,,,,,,,7/8 Mostly Cloudy,10000.0,,BKN,9900.0,,,,,,
KRDR,02-08-2004,03:00,METAR,,170,18.0,,,9999.0,Cloud Development Not Observable,-14.0,-14.0,29.98,1020.6,,,,0,0,0,,,,,,,,,8/8 Overcast,10000.0,,BKN,9900.0,OVC,18000.0,,,,
KRDR,02-08-2004,01:00,METAR,,180,18.0,,,9999.0,Cloud Development Not Observable,-15.0,-15.0,30.06,1021.3,,,,0,0,0,,,,,,,,,7/8 Mostly Cloudy,10000.0,,BKN,9900.0,BKN,18000.0,,,,
KRDR,02-07-2004,21:00,METAR,,170,14.0,,,9999.0,Cloud Development Not Observable,-13.0,-14.0,30.17,1024.7,,,,0,0,0,,,,,,,,,4/8 Partly Cloudy,72000.0,,FEW,12000.0,SCT,20000.0,,,,
KRDR,02-07-2004,20:00,METAR,,180,15.0,,,9999.0,Cloud Development Not Observable,-14.0,-15.0,30.20,1025.8,,,,0,0,0,,,,,,,,,7/8 Mostly Cloudy,20000.0,,FEW,12000.0,BKN,20000.0,,,,
KRDR,02-07-2004,19:00,METAR,,180,11.0,,,9999.0,Cloud Development Not Observable,-16.0,-16.0,30.23,1026.9,,,,0,0,0,,,,,,,,,4/8 Partly Cloudy,72000.0,,FEW,12000.0,SCT,20000.0,,,,
KRDR,02-07-2004,18:00,METAR,,190,13.0,,,9999.0,Cloud Development Not Observable,-17.0,-17.0,30.25,1027.8,,,,0,0,0,,,,,,,,,4/8 Partly Cloudy,72000.0,,FEW,12000.0,SCT,20000.0,,,,
KRDR,02-07-2004,17:00,METAR,,210,9.0,,,9999.0,Cloud Development Not Observable,-19.0,-19.0,30.29,,,,,0,0,0,,,,,,,,,4/8 Partly Cloudy,72000.0,,FEW,200.0,SCT,20000.0,,,,
KRDR,02-07-2004,16:00,METAR,,240,9.0,,,8000.0,Mist/Cloud Development Not Observable,-23.0,-23.0,30.29,1029.2,,,,10,0,0,,,,,,,,,4/8 Partly Cloudy,72000.0,,SCT,300.0,,,,,,
KRDR,02-07-2004,15:43,SPECI,,250,7.0,,,9999.0,Cloud Development Not Observable,-24.0,-24.0,30.29,,,,,0,0,0,,,,,,,,,4/8 Partly Cloudy,72000.0,,SCT,300.0,,,,,,
KRDR,02-07-2004,15:00,METAR,,190,7.0,,,9999.0,Cloud Development Not Observable,-25.0,-25.0,30.29,1029.3,,,,0,0,0,,,,,,,,,4/8 Partly Cloudy,72000.0,,SCT,1000.0,SCT,20000.0,,,,
KRDR,02-07-2004,14:00,METAR,,220,6.0,,,9999.0,Cloud Development Not Observable,-29.0,-29.0,30.31,1030.1,,,,0,0,0,,,,,,,,,4/8 Partly Cloudy,72000.0,,SCT,1000.0,,,,,,
KRDR,02-07-2004,13:00,METAR,,210,5.0,,,9999.0,Cloud Development Not Observable,-28.0,-28.0,30.31,1030.0,,,,0,0,0,,,,,,,,,Clear,72000.0,,,73000.0,,,,,,
KRDR,02-07-2004,12:00,METAR,,230,4.0,,,9999.0,Cloud Development Not Observable,-26.0,-26.0,30.33,1030.4,,,,0,0,0,,,,,,,,.01 IN,Clear,72000.0,,,73000.0,,,,,,
KRDR,02-07-2004,11:00,METAR,,270,4.0,,,9999.0,Cloud Development Not Observable,-25.0,-25.0,30.33,1030.3,,,,0,0,0,,,,,,,,,Clear,72000.0,,,73000.0,,,,,,
KRDR,02-07-2004,10:00,METAR,,240,3.0,,,9999.0,Cloud Development Not Observable,-24.0,-24.0,30.33,1030.2,,,,0,0,0,,,,,,,,,Clear,72000.0,,,73000.0,,,,,,
KRDR,02-07-2004,09:00,METAR,,320,6.0,,,9999.0,Cloud Development Not Observable,-23.0,-23.0,30.34,1030.5,,,,0,0,0,,,,,,,,,Clear,72000.0,,,73000.0,,,,,,
KRDR,02-07-2004,08:00,METAR,,310,7.0,,,9999.0,Cloud Development Not Observable,-22.0,-22.0,30.33,1030.3,,,,0,0,0,,,,,,,,,Clear,72000.0,,,73000.0,,,,,,
KRDR,02-07-2004,07:00,METAR,,330,6.0,,,9999.0,Cloud Development Not Observable,-22.0,-22.0,30.32,1029.8,,,,0,0,0,,,,,,,,,Clear,72000.0,,,73000.0,,,,,,
KRDR,02-07-2004,05:00,METAR,,330,7.0,,,9999.0,Cloud Development Not Observable,-19.0,-19.0,30.31,1029.3,,,,0,0,0,,,,,,,,,Clear,72000.0,,,73000.0,,,,,,
KRDR,02-07-2004,02:00,METAR,,340,10.0,,,9999.0,Cloud Development Not Observable,-17.0,-17.0,30.30,1028.8,,,,0,0,0,,,,,,,,,Clear,72000.0,,,73000.0,,,,,,
KRDR,02-07-2004,01:00,METAR,,340,13.0,,,9999.0,Cloud Development Not Observable,-17.0,-17.0,30.29,1028.5,,,,0,0,0,,,,,,,,,Clear,72000.0,,,73000.0,,,,,,
KRDR,02-07-2004,00:00,METAR,,340,10.0,,,9999.0,Cloud Development Not Observable,-17.0,-17.0,30.28,1028.1,,,,0,0,0,,,,,,,,,Clear,72000.0,,,73000.0,,,,,,
KRDR,02-06-2004,23:00,METAR,,350,14.0,,,9999.0,Cloud Development Not Observable,-15.0,-15.0,30.27,1027.6,,,,0,0,0,,,,,,,,,Clear,72000.0,,,73000.0,,,,,,
KRDR,02-06-2004,22:00,METAR,,340,12.0,,,9999.0,Cloud Development Not Observable,-14.0,-15.0,30.25,1027.2,,,,0,0,0,,,,,,,,,Clear,72000.0,,,73000.0,,,,,,
KRDR,02-06-2004,21:00,METAR,,340,15.0,,,9999.0,Cloud Development Not Observable,-14.0,-14.0,30.25,1027.1,,,,0,0,0,,,,,,,,,Clear,72000.0,,,73000.0,,,,,,
KRDR,02-06-2004,20:00,METAR,,340,15.0,,,9999.0,Cloud Development Not Observable,-14.0,-14.0,30.26,1027.3,,,,0,0,0,,,,,,,,,2/8 Mostly Clear,72000.0,,FEW,2000.0,,,,,,
KRDR,02-06-2004,19:00,METAR,,340,16.0,,,9999.0,Cloud Development Not Observable,-14.0,-14.0,30.27,1027.5,,,,0,0,0,,,,,,,,,4/8 Partly Cloudy,72000.0,,FEW,2000.0,SCT,20000.0,,,,
KRDR,02-06-2004,18:00,METAR,,340,20.0,,,9999.0,Blowing Snow/Cloud Development Not Observable,-14.0,-14.0,30.28,1027.9,,,,38,0,0,,,,,,,.01 IN,,7/8 Mostly Cloudy,20000.0,,SCT,3500.0,BKN,20000.0,,,,
KRDR,02-06-2004,16:55,METAR,,350,17.0,,,9999.0,Blowing Snow/Cloud Development Not Observable,-14.0,-14.0,30.28,1028.0,,,,38,0,0,,,,,,,,,7/8 Mostly Cloudy,20000.0,,SCT,4000.0,BKN,20000.0,,,,
KRDR,02-06-2004,16:46,SPECI,,350,15.0,,,9999.0,Blowing Snow/Cloud Development Not Observable,-14.0,-14.0,30.28,,,,,38,0,0,,,,,,,,,7/8 Mostly Cloudy,3400.0,,BKN,3500.0,BKN,20000.0,,,,
KRDR,02-06-2004,16:00,METAR,,340,18.0,,,9999.0,Light Snow/Blowing Snow/Cloud Development Not Observable,-14.0,-14.0,30.28,1028.0,,,,71,38,0,,,,,,,,,7/8 Mostly Cloudy,3400.0,,FEW,1500.0,BKN,3500.0,BKN,20000.0,,
KRDR,02-06-2004,15:00,METAR,,350,14.0,,,8000.0,Light Snow/Cloud Development Not Observable,-14.0,-14.0,30.28,1027.9,,,,71,0,0,,,,,,.01 IN,,,7/8 Mostly Cloudy,3000.0,,SCT,1200.0,BKN,3000.0,,,,
KRDR,02-06-2004,14:00,METAR,,340,15.0,,,9999.0,Light Snow/Cloud Development Not Observable,-14.0,-14.0,30.27,1027.7,,,,71,0,0,,,,,,,,,7/8 Mostly Cloudy,3900.0,,BKN,4000.0,,,,,,
KRDR,02-06-2004,12:00,METAR,,330,13.0,,,9999.0,Light Snow/Cloud Development Not Observable,-13.0,-13.0,30.25,1027.1,,,,71,0,0,,,,,,,.02 IN,.04 IN,7/8 Mostly Cloudy,3900.0,,BKN,4000.0,,,,,,
KRDR,02-06-2004,11:00,METAR,,340,12.0,,,9999.0,Light Snow/Cloud Development Not Observable,-12.0,-12.0,30.25,1027.0,,,,71,0,0,,,,,,,,,8/8 Overcast,3900.0,,OVC,4000.0,,,,,,
KRDR,02-06-2004,10:00,METAR,,340,13.0,,,9999.0,Light Snow/Cloud Development Not Observable,-12.0,-12.0,30.24,1027.0,,,,71,0,0,,,,,,,,,8/8 Overcast,3900.0,,OVC,4000.0,,,,,,
KRDR,02-06-2004,09:00,METAR,,340,13.0,,,8000.0,Light Snow/Cloud Development Not Observable,-12.0,-12.0,30.24,1026.5,,,,71,0,0,,,,,,.01 IN,,,8/8 Overcast,3400.0,,OVC,3500.0,,,,,,
KRDR,02-06-2004,08:00,METAR,,340,14.0,,,9999.0,Light Snow/Cloud Development Not Observable,-11.0,-11.0,30.25,1026.6,,,,71,0,0,,,,,,,,,8/8 Overcast,3900.0,,OVC,4000.0,,,,,,
KRDR,02-06-2004,07:00,METAR,,340,12.0,,,9999.0,Light Snow/Cloud Development Not Observable,-11.0,-11.0,30.25,1026.8,,,,71,0,0,,,,,,,,,8/8 Overcast,3400.0,,OVC,3500.0,,,,,,
KRDR,02-06-2004,06:00,METAR,,340,13.0,,,9999.0,Light Snow/Cloud Development Not Observable,-10.0,-11.0,30.25,1026.8,,,,71,0,0,,,,,,,.02 IN,,8/8 Overcast,3400.0,,OVC,3500.0,,,,,,
KRDR,02-06-2004,05:00,METAR,,320,12.0,,,9999.0,Light Snow/Cloud Development Not Observable,-10.0,-11.0,30.24,1027.0,,,,71,0,0,,,,,,,,,8/8 Overcast,3400.0,,OVC,3500.0,,,,,,
KRDR,02-06-2004,04:25,METAR,,320,13.0,,,9999.0,Light Snow/Cloud Development Not Observable,-11.0,-11.0,30.25,,,,,71,0,0,,,,,,,,,8/8 Overcast,3400.0,,OVC,3500.0,,,,,,
KRDR,02-06-2004,04:00,METAR,,320,11.0,,,9999.0,Light Snow/Cloud Development Not Observable,-11.0,-11.0,30.25,1026.9,,,,71,0,0,,,,,,,,,8/8 Overcast,2500.0,,OVC,2500.0,,,,,,
KRDR,02-06-2004,03:00,METAR,,340,12.0,,,9999.0,Light Snow/Cloud Development Not Observable,-10.0,-11.0,30.26,1027.0,,,,71,0,0,,,,,,.02 IN,,,8/8 Overcast,2000.0,,OVC,2000.0,,,,,,
KRDR,02-06-2004,02:00,METAR,,320,12.0,,,9999.0,Light Snow/Cloud Development Not Observable,-10.0,-10.0,30.26,1027.1,,,,71,0,0,,,,,,,,,8/8 Overcast,2000.0,,OVC,2000.0,,,,,,
KRDR,02-06-2004,01:00,METAR,,310,10.0,,,9999.0,Light Snow/Cloud Development Not Observable,-9.0,-10.0,30.25,1026.6,,,,71,0,0,,,,,,,,,8/8 Overcast,2000.0,,OVC,2000.0,,,,,,
KRDR,02-06-2004,00:00,METAR,,300,10.0,,,9999.0,Light Snow/Cloud Development Not Observable,-9.0,-10.0,30.24,1026.3,,,,71,0,0,,,,,,,IN,,8/8 Overcast,2000.0,,OVC,2000.0,,,,,,
KRDR,02-05-2004,23:00,METAR,,300,11.0,,,6400.0,Light Snow/Cloud Development Not Observable,-8.0,-9.0,30.23,1025.9,,,,71,0,0,,,,,,,,,8/8 Overcast,2200.0,,OVC,2200.0,,,,,,
KRDR,02-05-2004,22:00,METAR,,320,12.0,,,4800.0,Light Snow/Cloud Development Not Observable,-5.0,-5.0,30.21,1025.3,,,,71,0,0,,,,,,,,,8/8 Overcast,2200.0,,OVC,2200.0,,,,,,
KRDR,02-05-2004,21:40,SPECI,,310,10.0,,,4800.0,Light Snow/Cloud Development Not Observable,-5.0,-5.0,30.21,,,,,71,0,0,,,,,,,,,8/8 Overcast,2200.0,,OVC,2200.0,,,,,,
KRDR,02-05-2004,21:00,METAR,,190,9.0,,,1600.0,Light Snow/Cloud Development Not Observable,-5.0,-5.0,30.21,1025.7,,,,71,0,0,,,,,,,,,8/8 Overcast,2200.0,,OVC,2200.0,,,,,,
KRDR,02-05-2004,20:00,METAR,,200,11.0,,,3200.0,Light Snow/Cloud Development Not Observable,-5.0,-7.0,30.22,1025.7,,,,71,0,0,,,,,,,,,8/8 Overcast,2200.0,,OVC,2200.0,,,,,,
KRDR,02-05-2004,19:00,METAR,,190,12.0,,,3200.0,Light Snow/Cloud Development Not Observable,-6.0,-7.0,30.23,1026.1,,,,71,0,0,,,,,,,,,8/8 Overcast,2200.0,,OVC,2200.0,,,,,,
KRDR,02-05-2004,18:21,SPECI,,190,12.0,,,8000.0,Light Snow/Cloud Development Not Observable,-6.0,-7.0,30.24,,,,,71,0,0,,,,,,,,,7/8 Mostly Cloudy,2200.0,,BKN,2200.0,,,,,,
KRDR,02-05-2004,18:00,METAR,,200,13.0,,,9999.0,Cloud Development Not Observable,-7.0,-8.0,30.24,1026.5,,,,0,0,0,,,,,,,,,7/8 Mostly Cloudy,2200.0,,BKN,2200.0,,,,,,
KRDR,02-05-2004,17:00,METAR,,190,13.0,,,9999.0,Cloud Development Not Observable,-7.0,-8.0,30.25,1026.8,,,,0,0,0,,,,,,,,,7/8 Mostly Cloudy,2200.0,,BKN,2200.0,,,,,,
KRDR,02-05-2004,16:00,METAR,,180,14.0,,,9999.0,Light Snow/Cloud Development Not Observable,-7.0,-7.0,30.24,1026.5,,,,71,0,0,,,,,,,,,8/8 Overcast,2200.0,,OVC,2200.0,,,,,,
KRDR,02-05-2004,15:17,SPECI,,180,13.0,,,2400.0,Light Snow/Cloud Development Not Observable,-7.0,-7.0,30.24,,,,,71,0,0,,,,,,,,,8/8 Overcast,2200.0,,OVC,2200.0,,,,,,
KRDR,02-05-2004,15:09,SPECI,,180,13.0,,,1600.0,Light Snow/Cloud Development Not Observable,-7.0,-7.0,30.24,,,,,71,0,0,,,,,,,,,8/8 Overcast,2200.0,,OVC,2200.0,,,,,,
KRDR,02-05-2004,15:00,METAR,,180,11.0,,,1600.0,Light Snow/Cloud Development Not Observable,-7.0,-7.0,30.24,1026.5,,,,71,0,0,,,,,,,,,8/8 Overcast,2000.0,,OVC,2000.0,,,,,,
KRDR,02-05-2004,14:40,SPECI,,180,11.0,,,3200.0,Light Snow/Cloud Development Not Observable,-7.0,-7.0,30.24,,,,,71,0,0,,,,,,,,,8/8 Overcast,2400.0,,OVC,2400.0,,,,,,
KRDR,02-05-2004,14:00,METAR,,180,13.0,,,8000.0,Light Snow/Cloud Development Not Observable,-8.0,-8.0,30.23,1026.3,,,,71,0,0,,,,,,,,,8/8 Overcast,2800.0,,BKN,2800.0,OVC,5900.0,,,,
KRDR,02-05-2004,13:00,METAR,,180,15.0,,,9999.0,Light Snow/Cloud Development Not Observable,-8.0,-8.0,30.23,1026.4,,,,71,0,0,,,,,,,,,8/8 Overcast,2800.0,,BKN,2800.0,OVC,4500.0,,,,
KRDR,02-05-2004,12:00,METAR,,180,14.0,,,6400.0,Light Snow/Cloud Development Not Observable,-8.0,-8.0,30.24,1026.6,,,,71,0,0,,,,,,,IN,,8/8 Overcast,2500.0,,BKN,2500.0,OVC,4500.0,,,,
KRDR,02-05-2004,11:00,METAR,,180,14.0,,,8000.0,Light Snow/Cloud Development Not Observable,-8.0,-8.0,30.24,1026.6,,,,71,0,0,,,,,,,,,8/8 Overcast,2800.0,,BKN,2800.0,OVC,4500.0,,,,
KRDR,02-05-2004,10:20,METAR,,180,12.0,,,9999.0,Light Snow/Cloud Development Not Observable,-8.0,-8.0,30.24,,,,,71,0,0,,,,,,,,,8/8 Overcast,2800.0,,BKN,2800.0,OVC,4500.0,,,,
KRDR,02-05-2004,10:00,METAR,,180,13.0,,,9999.0,Cloud Development Not Observable,-8.0,-8.0,30.23,1026.5,,,,0,0,0,,,,,,,,,8/8 Overcast,2800.0,,BKN,2800.0,OVC,4500.0,,,,
KRDR,02-05-2004,09:00,METAR,,180,16.0,,,9999.0,Cloud Development Not Observable,-9.0,-9.0,30.24,1026.7,,,,0,0,0,,,,,,,,,8/8 Overcast,2800.0,,BKN,2800.0,OVC,4500.0,,,,
KRDR,02-05-2004,08:00,METAR,,180,14.0,,,9999.0,Cloud Development Not Observable,-9.0,-9.0,30.23,1026.4,,,,0,0,0,,,,,,,,,8/8 Overcast,2000.0,,BKN,2000.0,OVC,4500.0,,,,
KRDR,02-05-2004,07:00,METAR,,180,16.0,,,9999.0,Cloud Development Not Observable,-10.0,-10.0,30.22,1026.3,,,,0,0,0,,,,,,,,,8/8 Overcast,2500.0,,BKN,2500.0,OVC,4500.0,,,,
KRDR,02-05-2004,06:00,METAR,,180,11.0,,,9999.0,Cloud Development Not Observable,-10.0,-10.0,30.22,1026.4,,,,0,0,0,,,,,,,,,7/8 Mostly Cloudy,1800.0,,BKN,1800.0,,,,,,
KRDR,02-05-2004,05:00,METAR,,180,15.0,,,9999.0,Cloud Development Not Observable,-10.0,-10.0,30.22,1026.5,,,,0,0,0,,,,,,,,,7/8 Mostly Cloudy,2500.0,,BKN,2500.0,,,,,,
KRDR,02-05-2004,04:00,METAR,,180,16.0,,,9999.0,Cloud Development Not Observable,-11.0,-11.0,30.23,1027.0,,,,0,0,0,,,,,,,,,7/8 Mostly Cloudy,2500.0,,BKN,2500.0,,,,,,
KRDR,02-05-2004,03:00,METAR,,170,11.0,,,9999.0,Cloud Development Not Observable,-12.0,-12.0,30.23,1027.2,,,,0,0,0,,,,,,,,,8/8 Overcast,2500.0,,OVC,2500.0,,,,,,
KRDR,02-05-2004,02:00,METAR,,180,9.0,,,9999.0,Cloud Development Not Observable,-13.0,-14.0,30.25,1028.1,,,,0,0,0,,,,,,,,,8/8 Overcast,2500.0,,OVC,2500.0,,,,,,
KRDR,02-05-2004,01:00,METAR,,170,8.0,,,9999.0,Cloud Development Not Observable,-14.0,-14.0,30.25,1028.0,,,,0,0,0,,,,,,,,,8/8 Overcast,2500.0,,BKN,2500.0,OVC,3500.0,,,,
KRDR,02-05-2004,00:42,SPECI,,180,9.0,,,9999.0,Cloud Development Not Observable,-15.0,-15.0,30.26,,,,,0,0,0,,,,,,,,,8/8 Overcast,2500.0,,BKN,2500.0,OVC,3500.0,,,,
KRDR,02-05-2004,00:00,METAR,,180,9.0,,,9999.0,Cloud Development Not Observable,-16.0,-16.0,30.26,1028.1,,,,0,0,0,,,,,,,,,8/8 Overcast,3500.0,,FEW,2000.0,BKN,3600.0,OVC,7900.0,,
KRDR,02-04-2004,23:45,METAR,,170,9.0,,,9999.0,Cloud Development Not Observable,-16.0,-17.0,30.26,,,,,0,0,0,,,,,,,,,8/8 Overcast,3000.0,,SCT,2000.0,OVC,3000.0,,,,
KRDR,02-04-2004,23:00,METAR,,160,11.0,,,9999.0,Cloud Development Not Observable,-16.0,-18.0,30.28,1028.9,,,,0,0,0,,,,,,,,,8/8 Overcast,2700.0,,SCT,2000.0,BKN,2700.0,OVC,7900.0,,
KRDR,02-04-2004,22:00,METAR,,160,11.0,,,9999.0,Cloud Development Not Observable,-17.0,-18.0,30.27,1028.8,,,,0,0,0,,,,,,,,,8/8 Overcast,2000.0,,BKN,2000.0,OVC,2800.0,,,,
KRDR,02-04-2004,21:00,METAR,,150,12.0,,,9999.0,Cloud Development Not Observable,-17.0,-19.0,30.27,1028.7,,,,0,0,0,,,,,,,,,8/8 Overcast,2000.0,,BKN,2000.0,OVC,2800.0,,,,
KRDR,02-04-2004,20:00,METAR,,140,10.0,,,9999.0,Cloud Development Not Observable,-17.0,-19.0,30.28,1028.9,,,,0,0,0,,,,,,,,,8/8 Overcast,2000.0,,BKN,2000.0,OVC,2800.0,,,,
KRDR,02-04-2004,19:00,METAR,,150,7.0,,,9999.0,Cloud Development Not Observable,-19.0,-20.0,30.31,1030.1,,,,0,0,0,,,,,,,,,8/8 Overcast,1600.0,,BKN,1600.0,OVC,2800.0,,,,
KRDR,02-04-2004,18:00,METAR,,170,9.0,,,9999.0,Cloud Development Not Observable,-20.0,-21.0,30.32,1030.3,,,,0,0,0,,,,,,,,,7/8 Mostly Cloudy,1600.0,,BKN,1600.0,,,,,,
KRDR,02-04-2004,17:48,SPECI,,170,9.0,,,9999.0,Cloud Development Not Observable,-21.0,-22.0,30.32,,,,,0,0,0,,,,,,,,,7/8 Mostly Cloudy,1600.0,,BKN,1600.0,BKN,3200.0,,,,
KRDR,02-04-2004,17:00,METAR,,170,9.0,,,9999.0,Cloud Development Not Observable,-22.0,-22.0,30.33,1030.9,,,,0,0,0,,,,,,,,,2/8 Mostly Clear,72000.0,,FEW,2000.0,,,,,,
KRDR,02-04-2004,16:00,METAR,,190,7.0,,,9999.0,Cloud Development Not Observable,-25.0,-25.0,30.34,1031.1,,,,0,0,0,,,,,,,,,2/8 Mostly Clear,72000.0,,FEW,2000.0,,,,,,
KRDR,02-04-2004,15:00,METAR,,180,7.0,,,9999.0,Cloud Development Not Observable,-29.0,-29.0,30.33,1031.0,,,,0,0,0,,,,,,,,,Clear,72000.0,,,73000.0,,,,,,
KRDR,02-04-2004,14:00,METAR,,140,2.0,,,9999.0,Cloud Development Not Observable,-30.0,-30.0,30.31,1030.4,,,,0,0,0,,,,,,,,,Clear,72000.0,,,73000.0,,,,,,
KRDR,02-04-2004,13:00,METAR,,140,4.0,,,9999.0,Cloud Development Not Observable,-28.0,-28.0,30.30,1030.0,,,,0,0,0,,,,,,,,,Clear,72000.0,,,73000.0,,,,,,
KRDR,02-04-2004,12:00,METAR,,170,5.0,,,9999.0,Cloud Development Not Observable,-27.0,-27.0,30.30,1029.8,,,,0,0,0,,,,,,,,,Clear,72000.0,,,73000.0,,,,,,
KRDR,02-04-2004,11:00,METAR,,190,7.0,,,9999.0,Cloud Development Not Observable,-30.0,-30.0,30.30,1029.9,,,,0,0,0,,,,,,,,,Clear,72000.0,,,73000.0,,,,,,
KRDR,02-04-2004,10:00,METAR,,180,8.0,,,9999.0,Cloud Development Not Observable,-31.0,-31.0,30.31,1030.0,,,,0,0,0,,,,,,,,,Clear,72000.0,,,73000.0,,,,,,
KRDR,02-04-2004,09:00,METAR,,180,5.0,,,9999.0,Cloud Development Not Observable,-29.0,-29.0,30.31,1030.0,,,,0,0,0,,,,,,,,,Clear,72000.0,,,73000.0,,,,,,
KRDR,02-04-2004,08:00,METAR,,180,9.0,,,9999.0,Cloud Development Not Observable,-29.0,-29.0,30.31,1030.0,,,,0,0,0,,,,,,,,,Clear,72000.0,,,73000.0,,,,,,
KRDR,02-04-2004,07:00,METAR,,180,10.0,,,9999.0,Cloud Development Not Observable,-27.0,-27.0,30.31,1029.9,,,,0,0,0,,,,,,,,,Clear,72000.0,,,73000.0,,,,,,
KRDR,02-04-2004,06:00,METAR,,190,8.0,,,9999.0,Cloud Development Not Observable,-27.0,-27.0,30.30,1029.8,,,,0,0,0,,,,,,,,,Clear,72000.0,,,73000.0,,,,,,
KRDR,02-04-2004,05:00,METAR,,180,8.0,,,9999.0,Cloud Development Not Observable,-27.0,-27.0,30.29,1029.6,,,,0,0,0,,,,,,,,,Clear,72000.0,,,73000.0,,,,,,
KRDR,02-04-2004,04:00,METAR,,260,4.0,,,9999.0,Cloud Development Not Observable,-24.0,-24.0,30.29,1029.3,,,,0,0,0,,,,,,,,,Clear,72000.0,,,73000.0,,,,,,
KRDR,02-04-2004,03:00,METAR,,220,7.0,,,9999.0,Cloud Development Not Observable,-25.0,-25.0,30.29,1029.6,,,,0,0,0,,,,,,,,,Clear,72000.0,,,73000.0,,,,,,
KRDR,02-04-2004,02:00,METAR,,200,5.0,,,9999.0,Cloud Development Not Observable,-26.0,-26.0,30.27,1029.0,,,,0,0,0,,,,,,,,,Clear,72000.0,,,73000.0,,,,,,
KRDR,02-04-2004,01:00,METAR,,200,7.0,,,9999.0,Cloud Development Not Observable,-24.0,-24.0,30.27,1029.0,,,,0,0,0,,,,,,,,,Clear,72000.0,,,73000.0,,,,,,
KRDR,02-04-2004,00:00,METAR,,240,9.0,,,9999.0,Cloud Development Not Observable,-24.0,-24.0,30.28,1029.2,,,,0,0,0,,,,,,,,,Clear,72000.0,,,73000.0,,,,,,
KRDR,02-03-2004,23:00,METAR,,210,8.0,,,9999.0,Cloud Development Not Observable,-21.0,-23.0,30.26,1028.4,,,,0,0,0,,,,,,,,,Clear,72000.0,,,73000.0,,,,,,
KRDR,02-03-2004,22:00,METAR,,240,6.0,,,9999.0,Cloud Development Not Observable,-18.0,-22.0,30.28,1028.9,,,,0,0,0,,,,,,,,,Clear,72000.0,,,73000.0,,,,,,
KRDR,02-03-2004,21:00,METAR,,270,7.0,,,9999.0,Cloud Development Not Observable,-19.0,-23.0,30.27,1028.5,,,,0,0,0,,,,,,,,,Clear,72000.0,,,73000.0,,,,,,
KRDR,02-03-2004,20:00,METAR,,270,8.0,,,9999.0,Cloud Development Not Observable,-19.0,-22.0,30.27,1028.5,,,,0,0,0,,,,,,,,,Clear,72000.0,,,73000.0,,,,,,
KRDR,02-03-2004,19:00,METAR,,260,7.0,,,9999.0,Cloud Development Not Observable,-20.0,-23.0,30.28,1028.9,,,,0,0,0,,,,,,,,,Clear,72000.0,,,73000.0,,,,,,
KRDR,02-03-2004,18:00,METAR,,270,10.0,,,9999.0,Cloud Development Not Observable,-21.0,-23.0,30.29,1029.2,,,,0,0,0,,,,,,,,,Clear,72000.0,,,73000.0,,,,,,
KRDR,02-03-2004,17:00,METAR,,270,8.0,,,9999.0,Cloud Development Not Observable,-23.0,-25.0,30.29,1029.3,,,,0,0,0,,,,,,,,,Clear,72000.0,,,73000.0,,,,,,
KRDR,02-03-2004,16:00,METAR,,270,12.0,,,9999.0,Cloud Development Not Observable,-25.0,-26.0,30.29,1029.8,,,,0,0,0,,,,,,,,,Clear,72000.0,,,73000.0,,,,,,
KRDR,02-03-2004,15:00,METAR,,280,8.0,,,9999.0,Cloud Development Not Observable,-26.0,-28.0,30.30,1029.9,,,,0,0,0,,,,,,,,,Clear,72000.0,,,73000.0,,,,,,
KRDR,02-03-2004,14:00,METAR,,280,9.0,,,9999.0,Cloud Development Not Observable,-27.0,-30.0,30.29,1029.5,,,,0,0,0,,,,,,,,,Clear,72000.0,,,73000.0,,,,,,
KRDR,02-03-2004,13:00,METAR,,280,10.0,,,9999.0,Cloud Development Not Observable,-28.0,-29.0,30.28,1029.0,,,,0,0,0,,,,,,,,,Clear,72000.0,,,73000.0,,,,,,
KRDR,02-03-2004,12:00,METAR,,280,9.0,,,9999.0,Cloud Development Not Observable,-28.0,-30.0,30.27,1028.9,,,,0,0,0,,,,,,,,,Clear,72000.0,,,73000.0,,,,,,
KRDR,02-03-2004,11:00,METAR,,270,8.0,,,9999.0,Cloud Development Not Observable,-28.0,-30.0,30.28,1028.9,,,,0,0,0,,,,,,,,,Clear,72000.0,,,73000.0,,,,,,
KRDR,02-03-2004,10:00,METAR,,270,5.0,,,9999.0,Cloud Development Not Observable,-28.0,-30.0,30.26,1028.2,,,,0,0,0,,,,,,,,,Clear,72000.0,,,73000.0,,,,,,
KRDR,02-03-2004,09:00,METAR,,270,5.0,,,9999.0,Cloud Development Not Observable,-28.0,-30.0,30.26,1028.2,,,,0,0,0,,,,,,,,,Clear,72000.0,,,73000.0,,,,,,
KRDR,02-03-2004,08:00,METAR,,280,6.0,,,9999.0,Cloud Development Not Observable,-28.0,-28.0,30.25,1027.9,,,,0,0,0,,,,,,,,,Clear,72000.0,,,73000.0,,,,,,
KRDR,02-03-2004,07:00,METAR,,300,6.0,,,9999.0,Cloud Development Not Observable,-26.0,-27.0,30.25,1027.8,,,,0,0,0,,,,,,,,,Clear,72000.0,,,73000.0,,,,,,
KRDR,02-03-2004,06:00,METAR,,280,9.0,,,9999.0,Cloud Development Not Observable,-26.0,-26.0,30.24,1027.7,,,,0,0,0,,,,,,,,,Clear,72000.0,,,73000.0,,,,,,
KRDR,02-03-2004,05:00,METAR,,280,10.0,,,9999.0,Cloud Development Not Observable,-26.0,-26.0,30.24,1027.5,,,,0,0,0,,,,,,,,,Clear,72000.0,,,73000.0,,,,,,
KRDR,02-03-2004,04:00,METAR,,290,9.0,,,9999.0,Cloud Development Not Observable,-26.0,-26.0,30.24,1027.7,,,,0,0,0,,,,,,,,,Clear,72000.0,,,73000.0,,,,,,
KRDR,02-03-2004,03:00,METAR,,280,8.0,,,9999.0,Cloud Development Not Observable,-26.0,-26.0,30.24,1027.7,,,,0,0,0,,,,,,,,,Clear,72000.0,,,73000.0,,,,,,
KRDR,02-03-2004,02:00,METAR,,270,7.0,,,9999.0,Cloud Development Not Observable,-25.0,-25.0,30.24,1027.7,,,,0,0,0,,,,,,,,,Clear,72000.0,,,73000.0,,,,,,
KRDR,02-03-2004,01:00,METAR,,290,9.0,,,9999.0,Cloud Development Not Observable,-22.0,-23.0,30.24,1027.6,,,,0,0,0,,,,,,,,,Clear,72000.0,,,73000.0,,,,,,
KRDR,02-03-2004,00:00,METAR,,280,8.0,,,9999.0,Cloud Development Not Observable,-22.0,-33.0,30.25,1027.6,,,,0,0,0,,,,,,,,,Clear,72000.0,,,73000.0,,,,,,
KRDR,02-02-2004,23:00,METAR,,300,9.0,,,9999.0,Cloud Development Not Observable,-19.0,-34.0,30.24,1027.2,,,,0,0,0,,,,,,,,,2/8 Mostly Clear,72000.0,,FEW,25000.0,,,,,,
KRDR,02-02-2004,22:00,METAR,,300,7.0,,,9999.0,Cloud Development Not Observable,-17.0,-33.0,30.24,1027.3,,,,0,0,0,,,,,,,,,2/8 Mostly Clear,72000.0,,FEW,25000.0,,,,,,
KRDR,02-02-2004,21:00,METAR,,300,5.0,,,9999.0,Cloud Development Not Observable,-17.0,-33.0,30.24,1027.3,,,,0,0,0,,,,,,,,,2/8 Mostly Clear,72000.0,,FEW,12000.0,FEW,25000.0,,,,
KRDR,02-02-2004,20:00,METAR,,300,6.0,,,9999.0,Cloud Development Not Observable,-17.0,-33.0,30.24,1027.3,,,,0,0,0,,,,,,,,,2/8 Mostly Clear,72000.0,,FEW,12000.0,FEW,25000.0,,,,
KRDR,02-02-2004,19:00,METAR,,280,7.0,,,9999.0,Cloud Development Not Observable,-17.0,-28.0,30.24,1027.7,,,,0,0,0,,,,,,,,,Clear,72000.0,,,73000.0,,,,,,
KRDR,02-02-2004,18:00,METAR,,280,8.0,,,9999.0,Cloud Development Not Observable,-18.0,-30.0,30.26,1028.3,,,,0,0,0,,,,,,,,,Clear,72000.0,,,73000.0,,,,,,
KRDR,02-02-2004,17:00,METAR,,290,7.0,,,9999.0,Cloud Development Not Observable,-19.0,-32.0,30.26,1028.3,,,,0,0,0,,,,,,,,,2/8 Mostly Clear,72000.0,,FEW,4500.0,,,,,,
KRDR,02-02-2004,16:00,METAR,,280,10.0,,,9999.0,Cloud Development Not Observable,-22.0,-33.0,30.25,1028.3,,,,0,0,0,,,,,,,,,2/8 Mostly Clear,72000.0,,FEW,4500.0,,,,,,
KRDR,02-02-2004,15:00,METAR,,280,6.0,,,9999.0,Cloud Development Not Observable,-22.0,-22.0,30.26,1028.4,,,,0,0,0,,,,,,,,,2/8 Mostly Clear,72000.0,,FEW,4500.0,,,,,,
KRDR,02-02-2004,14:00,METAR,,300,9.0,,,9999.0,Cloud Development Not Observable,-19.0,-19.0,30.24,1027.6,,,,0,0,0,,,,,,,,,4/8 Partly Cloudy,72000.0,,SCT,4500.0,,,,,,
KRDR,02-02-2004,13:00,METAR,,220,5.0,,,9999.0,Cloud Development Not Observable,-16.0,-16.0,30.24,1027.3,,,,0,0,0,,,,,,,,,8/8 Overcast,4300.0,,SCT,2000.0,OVC,4400.0,,,,
KRDR,02-02-2004,12:06,SPECI,,230,5.0,,,9999.0,Cloud Development Not Observable,-17.0,-17.0,30.24,,,,,0,0,0,,,,,,,,,7/8 Mostly Cloudy,3000.0,,SCT,2000.0,BKN,3000.0,BKN,4500.0,,
KRDR,02-02-2004,12:00,METAR,,220,5.0,,,9999.0,Light Snow/Cloud Development Not Observable,-16.0,-16.0,30.24,1027.1,,,,71,0,0,,,,,,,IN,,7/8 Mostly Cloudy,2000.0,,BKN,2000.0,,,,,,
KRDR,02-02-2004,11:00,METAR,,260,4.0,,,9999.0,Diamond Dust/Light Snow/Cloud Development Not Observable,-18.0,-18.0,30.23,1026.7,,,,71,76,0,,,,,,,,,8/8 Overcast,1800.0,,FEW,1000.0,OVC,1800.0,,,,
KRDR,02-02-2004,10:00,METAR,,160,5.0,,,9999.0,Light Snow/Cloud Development Not Observable,-19.0,-19.0,30.23,1026.8,,,,71,0,0,,,,,,,,,8/8 Overcast,1800.0,,OVC,1800.0,,,,,,
KRDR,02-02-2004,09:00,METAR,,170,5.0,,,9999.0,Light Snow/Cloud Development Not Observable,-21.0,-21.0,30.23,1026.8,,,,71,0,0,,,,,,TRACE,,,8/8 Overcast,2000.0,,OVC,2000.0,,,,,,
KRDR,02-02-2004,08:30,METAR,,,5.0,,,9999.0,Light Snow/Cloud Development Not Observable,-22.0,-22.0,30.23,,,,,71,0,0,,,,,,,,,8/8 Overcast,2000.0,,OVC,2000.0,,,,,,
KRDR,02-02-2004,08:00,METAR,,190,5.0,,,9999.0,Shallow Fog or Ice Fog/Cloud Development Not Observable,-23.0,-23.0,30.23,1026.9,,,,12,0,0,,,,,,,,,8/8 Overcast,2000.0,,OVC,2000.0,,,,,,
KRDR,02-02-2004,07:00,METAR,,190,6.0,,,9999.0,Cloud Development Not Observable,-27.0,-27.0,30.22,1026.7,,,,0,0,0,,,,,,,,,7/8 Mostly Cloudy,2000.0,,BKN,2000.0,,,,,,
KRDR,02-02-2004,06:36,SPECI,,200,5.0,,,9999.0,Cloud Development Not Observable,-28.0,-28.0,30.22,,,,,0,0,0,,,,,,,,,7/8 Mostly Cloudy,2000.0,,BKN,2000.0,,,,,,
KRDR,02-02-2004,06:00,METAR,,230,3.0,,,9999.0,Shallow Fog or Ice Fog/Cloud Development Not Observable,-28.0,-28.0,30.22,1026.8,,,,12,0,0,,,,,,,,,7/8 Mostly Cloudy,25000.0,,FEW,1500.0,BKN,25000.0,,,,
KRDR,02-02-2004,05:00,METAR,,,2.0,,,9999.0,Cloud Development Not Observable,-27.0,-27.0,30.23,1027.3,,,,0,0,0,,,,,,,,,7/8 Mostly Cloudy,25000.0,,BKN,25000.0,,,,,,
KRDR,02-02-2004,04:00,METAR,,220,3.0,,,9999.0,Cloud Development Not Observable,-27.0,-27.0,30.23,1027.3,,,,0,0,0,,,,,,,,,7/8 Mostly Cloudy,25000.0,,BKN,25000.0,,,,,,
KRDR,02-02-2004,03:00,METAR,,210,5.0,,,9999.0,Cloud Development Not Observable,-26.0,-26.0,30.23,1027.3,,,,0,0,0,,,,,,,,,7/8 Mostly Cloudy,25000.0,,BKN,25000.0,,,,,,
KRDR,02-02-2004,02:00,METAR,,,4.0,,,9999.0,Cloud Development Not Observable,-23.0,-23.0,30.23,1027.2,,,,0,0,0,,,,,,,,,4/8 Partly Cloudy,72000.0,,SCT,25000.0,,,,,,
KRDR,02-02-2004,01:00,METAR,,300,3.0,,,9999.0,Cloud Development Not Observable,-22.0,-22.0,30.21,1026.6,,,,0,0,0,,,,,,,,,7/8 Mostly Cloudy,25000.0,,BKN,25000.0,,,,,,
KRDR,02-02-2004,00:00,METAR,,,1.0,,,9999.0,Cloud Development Not Observable,-19.0,-20.0,30.21,1026.5,,,,0,0,0,,,,,,,IN,,7/8 Mostly Cloudy,25000.0,,BKN,25000.0,,,,,,
KRDR,02-01-2004,23:00,METAR,,110,3.0,,,9999.0,Cloud Development Not Observable,-17.0,-18.0,30.21,1026.2,,,,0,0,0,,,,,,,,,7/8 Mostly Cloudy,25000.0,,BKN,25000.0,,,,,,
KRDR,02-01-2004,22:00,METAR,,,2.0,,,9999.0,Cloud Development Not Observable,-17.0,-18.0,30.20,1025.8,,,,0,0,0,,,,,,,,,7/8 Mostly Cloudy,25000.0,,BKN,25000.0,,,,,,
KRDR,02-01-2004,21:00,METAR,,220,3.0,,,9999.0,Cloud Development Not Observable,-15.0,-17.0,30.19,1025.7,,,,0,0,0,,,,,,,,,7/8 Mostly Cloudy,25000.0,,FEW,2000.0,BKN,25000.0,,,,
KRDR,02-01-2004,20:00,METAR,,170,5.0,,,9999.0,Cloud Development Not Observable,-16.0,-17.0,30.19,1026.1,,,,0,0,0,,,,,,,,,4/8 Partly Cloudy,72000.0,,FEW,2000.0,SCT,25000.0,,,,
KRDR,02-01-2004,19:00,METAR,,180,4.0,,,9999.0,Cloud Development Not Observable,-16.0,-18.0,30.20,1026.0,,,,0,0,0,,,,,,,,,4/8 Partly Cloudy,72000.0,,FEW,2000.0,SCT,25000.0,,,,
KRDR,02-01-2004,18:23,SPECI,,,4.0,,,9999.0,Cloud Development Not Observable,-17.0,-18.0,30.20,,,,,0,0,0,,,,,,,,,4/8 Partly Cloudy,72000.0,,FEW,2500.0,SCT,25000.0,,,,
KRDR,02-01-2004,18:00,METAR,,,2.0,,,9999.0,Light Snow/Cloud Development Not Observable,-17.0,-18.0,30.21,1026.3,,,,71,0,0,,,,,,,IN,,7/8 Mostly Cloudy,2800.0,,BKN,2800.0,,,,,,
KRDR,02-01-2004,17:00,METAR,,,1.0,,,9999.0,Light Snow/Cloud Development Not Observable,-19.0,-19.0,30.22,1026.8,,,,71,0,0,,,,,,,,,7/8 Mostly Cloudy,2500.0,,BKN,2500.0,BKN,25000.0,,,,
KRDR,02-01-2004,16:30,METAR,,250,3.0,,,9999.0,Light Snow/Cloud Development Not Observable,-19.0,-19.0,30.22,,,,,71,0,0,,,,,,,,,7/8 Mostly Cloudy,2700.0,,BKN,2700.0,BKN,25000.0,,,,
KRDR,02-01-2004,16:00,METAR,,,3.0,,,6400.0,Light Snow/Cloud Development Not Observable,-19.0,-19.0,30.22,1026.9,,,,71,0,0,,,,,,,,,8/8 Overcast,1500.0,,SCT,1000.0,BKN,1500.0,OVC,4000.0,,
KRDR,02-01-2004,15:00,METAR,,,2.0,,,8000.0,Light Snow/Cloud Development Not Observable,-20.0,-20.0,30.22,1027.0,,,,71,0,0,,,,,,TRACE,,,8/8 Overcast,1500.0,,SCT,1000.0,OVC,1500.0,,,,
KRDR,02-01-2004,14:00,METAR,,80,2.0,,,9999.0,Light Snow/Cloud Development Not Observable,-21.0,-23.0,30.21,1026.8,,,,71,0,0,,,,,,,,,8/8 Overcast,1600.0,,OVC,1600.0,,,,,,
KRDR,02-01-2004,13:00,METAR,,,1.0,,,9999.0,Light Snow/Cloud Development Not Observable,-21.0,-23.0,30.20,1026.4,,,,71,0,0,,,,,,,,,8/8 Overcast,2000.0,,OVC,2000.0,,,,,,
KRDR,02-01-2004,12:00,METAR,,,0.0,,,9999.0,Light Snow/Cloud Development Not Observable,-21.0,-21.0,30.19,1026.0,,,,71,0,0,,,,,,,IN,,8/8 Overcast,1800.0,,BKN,1800.0,OVC,2500.0,,,,
KRDR,02-01-2004,11:00,METAR,,,0.0,,,9999.0,Light Snow/Cloud Development Not Observable,-21.0,-21.0,30.19,1026.0,,,,71,0,0,,,,,,,,,8/8 Overcast,2400.0,,SCT,1800.0,OVC,2400.0,,,,
KRDR,02-01-2004,10:00,METAR,,,1.0,,,9999.0,Light Snow/Cloud Development Not Observable,-22.0,-22.0,30.18,1025.4,,,,71,0,0,,,,,,,,,8/8 Overcast,2300.0,,OVC,2300.0,,,,,,
KRDR,02-01-2004,09:00,METAR,,300,2.0,,,9999.0,Light Snow/Cloud Development Not Observable,-23.0,-23.0,30.18,1025.6,,,,71,0,0,,,,,,TRACE,,,8/8 Overcast,2400.0,,OVC,2400.0,,,,,,
KRDR,02-01-2004,08:27,SPECI,,300,2.0,,,9999.0,Light Snow/Cloud Development Not Observable,-23.0,-23.0,30.18,,,,,71,0,0,,,,,,,,,8/8 Overcast,2500.0,,OVC,2500.0,,,,,,
KRDR,02-01-2004,08:00,METAR,,310,3.0,,,9999.0,Cloud Development Not Observable,-24.0,-25.0,30.17,1025.2,,,,0,0,0,,,,,,,,,8/8 Overcast,2600.0,,OVC,2600.0,,,,,,
KRDR,02-01-2004,07:00,METAR,,310,3.0,,,9999.0,Cloud Development Not Observable,-23.0,-23.0,30.17,1025.5,,,,0,0,0,,,,,,,,,8/8 Overcast,2600.0,,OVC,2600.0,,,,,,
KRDR,02-01-2004,06:00,METAR,,300,4.0,,,9999.0,Cloud Development Not Observable,-24.0,-25.0,30.17,1025.3,,,,0,0,0,,,,,,,IN,,7/8 Mostly Cloudy,2500.0,,BKN,2500.0,BKN,25000.0,,,,
KRDR,02-01-2004,05:00,METAR,,270,4.0,,,9999.0,Cloud Development Not Observable,-26.0,-28.0,30.15,1024.8,,,,0,0,0,,,,,,,,,7/8 Mostly Cloudy,2500.0,,BKN,2500.0,BKN,25000.0,,,,
KRDR,02-01-2004,04:24,SPECI,,290,4.0,,,9999.0,Cloud Development Not Observable,-27.0,-28.0,30.15,,,,,0,0,0,,,,,,,,,7/8 Mostly Cloudy,2500.0,,BKN,2500.0,BKN,12000.0,,,,
KRDR,02-01-2004,03:05,SPECI,,280,3.0,,,9999.0,Diamond Dust/Cloud Development Not Observable,-27.0,-28.0,30.14,,,,,76,0,0,,,,,,,,,7/8 Mostly Cloudy,2500.0,,BKN,2500.0,BKN,12000.0,,,,
KRDR,02-01-2004,03:00,METAR,,270,3.0,,,9999.0,Light Snow/Cloud Development Not Observable,-28.0,-29.0,30.14,1024.5,,,,71,0,0,,,,,,TRACE,,,7/8 Mostly Cloudy,12000.0,,SCT,2500.0,BKN,12000.0,BKN,25000.0,,
KRDR,02-01-2004,02:37,SPECI,,300,3.0,,,9999.0,Cloud Development Not Observable,-29.0,-30.0,30.14,,,,,0,0,0,,,,,,,,,7/8 Mostly Cloudy,25000.0,,FEW,3000.0,SCT,12000.0,BKN,25000.0,,
KRDR,02-01-2004,02:00,METAR,,300,4.0,,,9999.0,Diamond Dust/Cloud Development Not Observable,-29.0,-29.0,30.14,1024.8,,,,76,0,0,,,,,,,,,4/8 Partly Cloudy,72000.0,,FEW,4000.0,SCT,12000.0,SCT,25000.0,,
KRDR,02-01-2004,01:00,METAR,,320,5.0,,,9999.0,Light Snow/Cloud Development Not Observable,-26.0,-26.0,30.12,1023.8,,,,71,0,0,,,,,,,,,4/8 Partly Cloudy,72000.0,,FEW,4000.0,SCT,12000.0,SCT,25000.0,,
KRDR,02-01-2004,00:00,METAR,,320,5.0,,,9999.0,Light Snow/Cloud Development Not Observable,-24.0,-26.0,30.10,1023.0,,,,71,0,0,,,,,,,IN,,7/8 Mostly Cloudy,12000.0,,SCT,4000.0,BKN,12000.0,BKN,25000.0,,
KRDR,01-31-2004,23:00,METAR,,330,4.0,,,9999.0,Light Snow/Cloud Development Not Observable,-23.0,-25.0,30.09,1022.7,,,,71,0,0,,,,,,,,,7/8 Mostly Cloudy,12000.0,,SCT,1200.0,BKN,12000.0,BKN,25000.0,,
KRDR,01-31-2004,22:00,METAR,,300,6.0,,,8000.0,Light Snow/Cloud Development Not Observable,-22.0,-22.0,30.09,1022.7,,,,71,0,0,,,,,,,,,8/8 Overcast,3000.0,,OVC,3000.0,,,,,,
KRDR,01-31-2004,21:00,METAR,,350,4.0,,,8000.0,Light Snow/Cloud Development Not Observable,-22.0,-23.0,30.05,1021.6,,,,71,0,0,,,,,,TRACE,,,8/8 Overcast,3000.0,,OVC,3000.0,,,,,,
KRDR,01-31-2004,20:00,METAR,,10,6.0,,,6400.0,Light Snow/Cloud Development Not Observable,-22.0,-23.0,30.05,1021.4,,,,71,0,0,,,,,,,,,8/8 Overcast,3000.0,,OVC,3000.0,,,,,,
KRDR,01-31-2004,19:00,METAR,,20,4.0,,,8000.0,Light Snow/Cloud Development Not Observable,-24.0,-27.0,30.06,1022.1,,,,71,0,0,,,,,,,,,8/8 Overcast,4200.0,,OVC,4300.0,,,,,,
KRDR,01-31-2004,18:00,METAR,,10,5.0,,,8000.0,Light Snow/Cloud Development Not Observable,-25.0,-25.0,30.07,1022.3,,,,71,0,0,,,,,,,.06 IN,,8/8 Overcast,4400.0,,OVC,4500.0,,,,,,
KRDR,01-31-2004,17:43,SPECI,,360,4.0,,,8000.0,Light Snow/Cloud Development Not Observable,-25.0,-25.0,30.08,,,,,71,0,0,,,,,,,,,8/8 Overcast,4400.0,,SCT,2000.0,OVC,4500.0,,,,
KRDR,01-31-2004,17:28,SPECI,,350,5.0,,,6400.0,Light Snow/Cloud Development Not Observable,-25.0,-25.0,30.09,,,,,71,0,0,,,,,,,,,8/8 Overcast,2000.0,,SCT,1200.0,OVC,2000.0,,,,
KRDR,01-31-2004,17:00,METAR,,350,4.0,,,2000.0,Light Snow/Cloud Development Not Observable,-26.0,-26.0,30.09,1023.0,,,,71,0,0,,,,,,,,,8/8 Overcast,1200.0,,OVC,1200.0,,,,,,
KRDR,01-31-2004,16:45,METAR,,30,4.0,,,2000.0,Light Snow/Cloud Development Not Observable,-26.0,-26.0,30.09,,,,,71,0,0,,,,,,,,,8/8 Overcast,1200.0,,OVC,1200.0,,,,,,
KRDR,01-31-2004,16:05,SPECI,,30,4.0,,,2800.0,Light Snow/Cloud Development Not Observable,-26.0,-26.0,30.08,,,,,71,0,0,,,,,,,,,8/8 Overcast,2000.0,,SCT,1000.0,OVC,2000.0,,,,
KRDR,01-31-2004,16:00,METAR,,,4.0,,,4000.0,Light Snow/Cloud Development Not Observable,-26.0,-26.0,30.08,1022.5,,,,71,0,0,,,,,,,,,8/8 Overcast,2000.0,,SCT,1000.0,OVC,2000.0,,,,
KRDR,01-31-2004,15:25,METAR,,,1.0,,,4000.0,Light Snow/Cloud Development Not Observable,-27.0,-27.0,30.08,,,,,71,0,0,,,,,,,,,8/8 Overcast,2000.0,,SCT,1000.0,OVC,2000.0,,,,
KRDR,01-31-2004,15:07,SPECI,,60,3.0,,,4800.0,Light Snow/Cloud Development Not Observable,-27.0,-27.0,30.08,,,,,71,0,0,,,,,,,,,8/8 Overcast,2000.0,,SCT,1000.0,BKN,2000.0,OVC,4000.0,,
KRDR,01-31-2004,15:00,METAR,,50,4.0,,,2400.0,Light Snow/Cloud Development Not Observable,-27.0,-27.0,30.09,1023.1,,,,71,0,0,,,,,,.02 IN,,,8/8 Overcast,2000.0,,SCT,1000.0,OVC,2000.0,,,,
KRDR,01-31-2004,14:25,METAR,,290,2.0,,,3200.0,Light Snow/Cloud Development Not Observable,-28.0,-28.0,30.10,,,,,71,0,0,,,,,,,,,8/8 Overcast,2000.0,,SCT,1000.0,OVC,2000.0,,,,
KRDR,01-31-2004,14:13,SPECI,,280,3.0,,,3200.0,Light Snow/Cloud Development Not Observable,-28.0,-29.0,30.10,,,,,71,0,0,,,,,,,,,4/8 Partly Cloudy,2500.0,,SCT,1000.0,OVC,2500.0,,,,
KRDR,01-31-2004,14:00,METAR,,20,1.0,,,2400.0,Light Snow/Cloud Development Not Observable,-28.0,-28.0,30.09,1023.2,,,,71,0,0,,,,,,,,,8/8 Overcast,2000.0,,SCT,1000.0,BKN,2000.0,OVC,3500.0,,
KRDR,01-31-2004,13:48,SPECI,,,1.0,,,4000.0,Light Snow/Cloud Development Not Observable,-28.0,-30.0,30.09,,,,,71,0,0,,,,,,,,,8/8 Overcast,2800.0,,BKN,2800.0,OVC,4000.0,,,,
KRDR,01-31-2004,13:24,SPECI,,60,5.0,,,8000.0,Light Snow/Cloud Development Not Observable,-28.0,-34.0,30.08,,,,,71,0,0,,,,,,,,,8/8 Overcast,3900.0,,SCT,2000.0,BKN,4000.0,OVC,7900.0,,
KRDR,01-31-2004,13:00,METAR,,,6.0,,,9999.0,Cloud Development Not Observable,-28.0,-37.0,30.08,1022.9,,,,0,0,0,,,,,,,,,8/8 Overcast,4900.0,,OVC,5000.0,,,,,,
KRDR,01-31-2004,12:00,METAR,,,4.0,,,9999.0,Cloud Development Not Observable,-29.0,-36.0,30.10,1023.6,,,,0,0,0,,,,,,,,,8/8 Overcast,3900.0,,BKN,4000.0,OVC,7900.0,,,,
KRDR,01-31-2004,11:00,METAR,,,4.0,,,9999.0,Cloud Development Not Observable,-30.0,-34.0,30.11,1023.8,,,,0,0,0,,,,,,,,,8/8 Overcast,3900.0,,BKN,4000.0,OVC,7900.0,,,,
KRDR,01-31-2004,10:00,METAR,,,3.0,,,9999.0,Cloud Development Not Observable,-31.0,-34.0,30.12,1024.3,,,,0,0,0,,,,,,,,,8/8 Overcast,8000.0,,OVC,7900.0,,,,,,
KRDR,01-31-2004,09:00,METAR,,80,4.0,,,9999.0,Cloud Development Not Observable,-31.0,-36.0,30.13,1024.6,,,,0,0,0,,,,,,,,,4/8 Partly Cloudy,72000.0,,SCT,9900.0,SCT,25000.0,,,,
KRDR,01-31-2004,08:00,METAR,,90,4.0,,,9999.0,Cloud Development Not Observable,-30.0,-39.0,30.15,1025.3,,,,0,0,0,,,,,,,,,8/8 Overcast,25000.0,,SCT,11000.0,OVC,25000.0,,,,
KRDR,01-31-2004,07:00,METAR,,,3.0,,,9999.0,Cloud Development Not Observable,-31.0,-38.0,30.17,1026.0,,,,0,0,0,,,,,,,,,8/8 Overcast,25000.0,,SCT,11000.0,OVC,25000.0,,,,
KRDR,01-31-2004,06:00,METAR,,60,4.0,,,9999.0,Cloud Development Not Observable,-31.0,-40.0,30.17,1026.0,,,,0,0,0,,,,,,,,,7/8 Mostly Cloudy,25000.0,,FEW,11000.0,BKN,25000.0,,,,
KRDR,01-31-2004,05:00,METAR,,70,4.0,,,9999.0,Cloud Development Not Observable,-31.0,-33.0,30.16,1025.8,,,,0,0,0,,,,,,,,,7/8 Mostly Cloudy,25000.0,,SCT,11000.0,BKN,25000.0,,,,
KRDR,01-31-2004,04:00,METAR,,80,4.0,,,9999.0,Cloud Development Not Observable,-31.0,-32.0,30.18,1026.4,,,,0,0,0,,,,,,,,,8/8 Overcast,11000.0,,BKN,11000.0,OVC,25000.0,,,,
KRDR,01-31-2004,03:00,METAR,,270,2.0,,,9999.0,Cloud Development Not Observable,-33.0,-36.0,30.22,1028.3,,,,0,0,0,,,,,,,,,7/8 Mostly Cloudy,25000.0,,SCT,9900.0,BKN,25000.0,,,,
KRDR,01-31-2004,02:00,METAR,,240,4.0,,,9999.0,Cloud Development Not Observable,-35.0,-38.0,30.22,1028.3,,,,0,0,0,,,,,,,,,7/8 Mostly Cloudy,25000.0,,SCT,9900.0,BKN,25000.0,,,,
KRDR,01-31-2004,01:00,METAR,,250,5.0,,,9999.0,Cloud Development Not Observable,-33.0,-36.0,30.23,1028.5,,,,0,0,0,,,,,,,,,4/8 Partly Cloudy,72000.0,,FEW,12000.0,SCT,25000.0,,,,
KRDR,01-31-2004,00:00,METAR,,340,3.0,,,9999.0,Cloud Development Not Observable,-32.0,-35.0,30.23,1028.4,,,,0,0,0,,,,,,,,,4/8 Partly Cloudy,72000.0,,FEW,12000.0,SCT,25000.0,,,,
KRDR,01-30-2004,23:00,METAR,,320,4.0,,,9999.0,Cloud Development Not Observable,-30.0,-38.0,30.24,1028.8,,,,0,0,0,,,,,,,,,4/8 Partly Cloudy,72000.0,,FEW,12000.0,SCT,25000.0,,,,
KRDR,01-30-2004,22:00,METAR,,290,5.0,,,9999.0,Cloud Development Not Observable,-29.0,-35.0,30.27,1029.7,,,,0,0,0,,,,,,,,,4/8 Partly Cloudy,72000.0,,FEW,12000.0,SCT,25000.0,,,,
KRDR,01-30-2004,21:00,METAR,,290,5.0,,,9999.0,Cloud Development Not Observable,-29.0,-36.0,30.29,1030.3,,,,0,0,0,,,,,,,,,7/8 Mostly Cloudy,25000.0,,BKN,25000.0,,,,,,
KRDR,01-30-2004,20:00,METAR,,330,5.0,,,9999.0,Cloud Development Not Observable,-30.0,-36.0,30.31,1031.2,,,,0,0,0,,,,,,,,,7/8 Mostly Cloudy,25000.0,,BKN,25000.0,,,,,,
KRDR,01-30-2004,19:00,METAR,,330,5.0,,,9999.0,Cloud Development Not Observable,-29.0,-36.0,30.32,1031.4,,,,0,0,0,,,,,,,,,7/8 Mostly Cloudy,25000.0,,BKN,25000.0,,,,,,
KRDR,01-30-2004,18:00,METAR,,40,7.0,,,9999.0,Cloud Development Not Observable,-30.0,-36.0,30.33,1031.7,,,,0,0,0,,,,,,,,,7/8 Mostly Cloudy,25000.0,,BKN,25000.0,,,,,,
KRDR,01-30-2004,17:00,METAR,,350,6.0,,,9999.0,Cloud Development Not Observable,-31.0,-46.0,30.36,1032.7,,,,0,0,0,,,,,,,,,7/8 Mostly Cloudy,25000.0,,BKN,25000.0,,,,,,
KRDR,01-30-2004,16:00,METAR,,310,2.0,,,9999.0,Cloud Development Not Observable,-34.0,-46.0,30.37,1033.4,,,,0,0,0,,,,,,,,,7/8 Mostly Cloudy,25000.0,,BKN,25000.0,,,,,,
KRDR,01-30-2004,15:00,METAR,,260,5.0,,,4800.0,Mist/Cloud Development Not Observable,-36.0,-47.0,30.39,1034.1,,,,10,0,0,,,,,,,,,4/8 Partly Cloudy,72000.0,,SCT,25000.0,,,,,,
KRDR,01-30-2004,14:00,METAR,,270,3.0,,,9999.0,Cloud Development Not Observable,-38.0,-47.0,30.38,1033.9,,,,0,0,0,,,,,,,,,2/8 Mostly Clear,72000.0,,FEW,25000.0,,,,,,
KRDR,01-30-2004,13:00,METAR,,250,3.0,,,9999.0,Cloud Development Not Observable,-38.0,-46.0,30.37,1033.3,,,,0,0,0,,,,,,,,,Clear,72000.0,,,73000.0,,,,,,
KRDR,01-30-2004,12:00,METAR,,250,2.0,,,9999.0,Cloud Development Not Observable,-37.0,-46.0,30.38,1033.5,,,,0,0,0,,,,,,,,,Clear,72000.0,,,73000.0,,,,,,
KRDR,01-30-2004,11:00,METAR,,250,3.0,,,9999.0,Cloud Development Not Observable,-37.0,-48.0,30.37,1033.2,,,,0,0,0,,,,,,,,,Clear,72000.0,,,73000.0,,,,,,
KRDR,01-30-2004,10:00,METAR,,270,3.0,,,9999.0,Cloud Development Not Observable,-38.0,,30.39,1033.8,,,,0,0,0,,,,,,,,,Clear,72000.0,,,73000.0,,,,,,
KRDR,01-30-2004,09:00,METAR,,300,2.0,,,9999.0,Cloud Development Not Observable,-37.0,-44.0,30.39,1033.8,,,,0,0,0,,,,,,,,,Clear,72000.0,,,73000.0,,,,,,
KRDR,01-30-2004,08:00,METAR,,280,3.0,,,9999.0,Cloud Development Not Observable,-38.0,-45.0,30.39,1033.9,,,,0,0,0,,,,,,,,,2/8 Mostly Clear,72000.0,,FEW,25000.0,,,,,,
KRDR,01-30-2004,07:00,METAR,,350,3.0,,,9999.0,Cloud Development Not Observable,-35.0,-47.0,30.39,1033.6,,,,0,0,0,,,,,,,,,4/8 Partly Cloudy,72000.0,,SCT,25000.0,,,,,,
KRDR,01-30-2004,06:00,METAR,,290,5.0,,,9999.0,Cloud Development Not Observable,-36.0,-36.0,30.39,1033.8,,,,0,0,0,,,,,,,,,7/8 Mostly Cloudy,25000.0,,BKN,25000.0,,,,,,
KRDR,01-30-2004,05:00,METAR,,290,2.0,,,9999.0,Cloud Development Not Observable,-36.0,-40.0,30.39,1033.8,,,,0,0,0,,,,,,,,,4/8 Partly Cloudy,72000.0,,SCT,25000.0,,,,,,
KRDR,01-30-2004,04:00,METAR,,230,3.0,,,9999.0,Cloud Development Not Observable,-38.0,-44.0,30.39,1033.9,,,,0,0,0,,,,,,,,,4/8 Partly Cloudy,72000.0,,SCT,25000.0,,,,,,
KRDR,01-30-2004,03:00,METAR,,230,2.0,,,9999.0,Cloud Development Not Observable,-37.0,-43.0,30.39,1033.9,,,,0,0,0,,,,,,,,,4/8 Partly Cloudy,72000.0,,SCT,25000.0,,,,,,
KRDR,01-30-2004,02:00,METAR,,260,3.0,,,9999.0,Cloud Development Not Observable,-36.0,-38.0,30.41,1034.7,,,,0,0,0,,,,,,,,,4/8 Partly Cloudy,72000.0,,SCT,25000.0,,,,,,
KRDR,01-30-2004,01:00,METAR,,320,3.0,,,9999.0,Cloud Development Not Observable,-33.0,-37.0,30.41,1034.5,,,,0,0,0,,,,,,,,,4/8 Partly Cloudy,72000.0,,FEW,11000.0,SCT,25000.0,,,,
KRDR,01-30-2004,00:00,METAR,,330,3.0,,,9999.0,Cloud Development Not Observable,-32.0,-37.0,30.41,1034.5,,,,0,0,0,,,,,,,,,4/8 Partly Cloudy,72000.0,,FEW,11000.0,SCT,25000.0,,,,
KRDR,01-29-2004,23:00,METAR,,330,3.0,,,9999.0,Cloud Development Not Observable,-23.0,-38.0,30.41,1034.1,,,,0,0,0,,,,,,,,,4/8 Partly Cloudy,72000.0,,FEW,11000.0,SCT,25000.0,,,,
KRDR,01-29-2004,22:00,METAR,,320,6.0,,,9999.0,Cloud Development Not Observable,-29.0,-39.0,30.44,1035.4,,,,0,0,0,,,,,,,,,4/8 Partly Cloudy,72000.0,,FEW,11000.0,SCT,25000.0,,,,
KRDR,01-29-2004,21:00,METAR,,310,8.0,,,9999.0,Cloud Development Not Observable,-29.0,-40.0,30.44,1035.1,,,,0,0,0,,,,,,,,,2/8 Mostly Clear,72000.0,,FEW,11000.0,FEW,25000.0,,,,
KRDR,01-29-2004,20:00,METAR,,330,9.0,,,9999.0,Cloud Development Not Observable,-30.0,-40.0,30.44,1035.1,,,,0,0,0,,,,,,,,,2/8 Mostly Clear,72000.0,,FEW,11000.0,,,,,,
KRDR,01-29-2004,19:00,METAR,,360,9.0,,,9999.0,Cloud Development Not Observable,-30.0,-40.0,30.44,1035.2,,,,0,0,0,,,,,,,,,4/8 Partly Cloudy,72000.0,,SCT,11000.0,,,,,,
KRDR,01-29-2004,17:00,METAR,,350,11.0,,,9999.0,Cloud Development Not Observable,-30.0,-41.0,30.50,1037.4,,,,0,0,0,,,,,,,,,7/8 Mostly Cloudy,11000.0,,BKN,11000.0,,,,,,
KRDR,01-29-2004,16:00,METAR,,330,8.0,,,9999.0,Cloud Development Not Observable,-31.0,-41.0,30.49,1036.9,,,,0,0,0,,,,,,,,,7/8 Mostly Cloudy,11000.0,,BKN,11000.0,,,,,,
KRDR,01-29-2004,15:00,METAR,,340,8.0,,,9999.0,Cloud Development Not Observable,-32.0,-41.0,30.47,1036.3,,,,0,0,0,,,,,,,,,7/8 Mostly Cloudy,11000.0,,BKN,11000.0,,,,,,
KRDR,01-29-2004,14:00,METAR,,310,5.0,,,9999.0,Cloud Development Not Observable,-34.0,-43.0,30.46,1036.3,,,,0,0,0,,,,,,,,,Clear,72000.0,,,73000.0,,,,,,
KRDR,01-29-2004,13:00,METAR,,300,5.0,,,9999.0,Cloud Development Not Observable,-34.0,-44.0,30.44,1035.6,,,,0,0,0,,,,,,,,,Clear,72000.0,,,73000.0,,,,,,
KRDR,01-29-2004,12:00,METAR,,290,5.0,,,9999.0,Cloud Development Not Observable,-35.0,-44.0,30.43,1035.4,,,,0,0,0,,,,,,,,,Clear,72000.0,,,73000.0,,,,,,
KRDR,01-29-2004,11:00,METAR,,350,5.0,,,9999.0,Cloud Development Not Observable,-34.0,-46.0,30.41,1034.5,,,,0,0,0,,,,,,,,,2/8 Mostly Clear,72000.0,,FEW,25000.0,,,,,,
KRDR,01-29-2004,10:00,METAR,,10,9.0,,,9999.0,Cloud Development Not Observable,-31.0,-40.0,30.40,1033.9,,,,0,0,0,,,,,,,,,4/8 Partly Cloudy,72000.0,,FEW,6900.0,SCT,25000.0,,,,
KRDR,01-29-2004,09:00,METAR,,360,10.0,,,9999.0,Cloud Development Not Observable,-30.0,-44.0,30.41,1034.1,,,,0,0,0,,,,,,,,,7/8 Mostly Cloudy,25000.0,,SCT,6900.0,BKN,25000.0,,,,
KRDR,01-29-2004,08:00,METAR,,360,10.0,,,9999.0,Cloud Development Not Observable,-30.0,-45.0,30.39,1033.6,,,,0,0,0,,,,,,,,,8/8 Overcast,7000.0,,OVC,6900.0,,,,,,
KRDR,01-29-2004,07:00,METAR,,330,7.0,,,9999.0,Cloud Development Not Observable,-31.0,-41.0,30.40,1033.9,,,,0,0,0,,,,,,,,,8/8 Overcast,8000.0,,OVC,7900.0,,,,,,
KRDR,01-29-2004,06:00,METAR,,320,6.0,,,9999.0,Cloud Development Not Observable,-32.0,-46.0,30.38,1033.3,,,,0,0,0,,,,,,,,,8/8 Overcast,25000.0,,FEW,5900.0,OVC,25000.0,,,,
KRDR,01-29-2004,05:00,METAR,,310,6.0,,,9999.0,Cloud Development Not Observable,-33.0,-45.0,30.36,1032.7,,,,0,0,0,,,,,,,,,7/8 Mostly Cloudy,25000.0,,FEW,5900.0,BKN,25000.0,,,,
KRDR,01-29-2004,04:00,METAR,,290,5.0,,,9999.0,Cloud Development Not Observable,-32.0,-45.0,30.35,1032.5,,,,0,0,0,,,,,,,,,7/8 Mostly Cloudy,25000.0,,BKN,25000.0,,,,,,
KRDR,01-29-2004,03:00,METAR,,290,7.0,,,9999.0,Cloud Development Not Observable,-33.0,-43.0,30.35,1032.8,,,,0,0,0,,,,,,,,,7/8 Mostly Cloudy,25000.0,,BKN,25000.0,,,,,,
KRDR,01-29-2004,02:00,METAR,,290,5.0,,,9999.0,Cloud Development Not Observable,-36.0,-39.0,30.35,1032.8,,,,0,0,0,,,,,,,,,7/8 Mostly Cloudy,25000.0,,BKN,25000.0,,,,,,
KRDR,01-29-2004,01:00,METAR,,300,5.0,,,9999.0,Cloud Development Not Observable,-35.0,-39.0,30.35,1032.6,,,,0,0,0,,,,,,,,,7/8 Mostly Cloudy,25000.0,,BKN,25000.0,,,,,,
KRDR,01-29-2004,00:00,METAR,,270,7.0,,,9999.0,Cloud Development Not Observable,-35.0,-39.0,30.37,1033.2,,,,0,0,0,,,,,,,,,7/8 Mostly Cloudy,25000.0,,BKN,25000.0,,,,,,
KRDR,01-28-2004,23:00,METAR,,280,7.0,,,9999.0,Cloud Development Not Observable,-33.0,-38.0,30.37,1033.1,,,,0,0,0,,,,,,,,,7/8 Mostly Cloudy,25000.0,,BKN,25000.0,,,,,,
KRDR,01-28-2004,22:00,METAR,,290,6.0,,,9999.0,Cloud Development Not Observable,-31.0,-38.0,30.37,1033.0,,,,0,0,0,,,,,,,,,7/8 Mostly Cloudy,25000.0,,BKN,25000.0,,,,,,
KRDR,01-28-2004,21:00,METAR,,270,9.0,,,9999.0,Cloud Development Not Observable,-31.0,-40.0,30.38,1033.2,,,,0,0,0,,,,,,,,,7/8 Mostly Cloudy,25000.0,,BKN,25000.0,,,,,,
KRDR,01-28-2004,20:00,METAR,,280,11.0,,,9999.0,Cloud Development Not Observable,-31.0,-32.0,30.40,1033.9,,,,0,0,0,,,,,,,,,4/8 Partly Cloudy,72000.0,,SCT,25000.0,,,,,,
KRDR,01-28-2004,19:00,METAR,,290,11.0,,,9999.0,Cloud Development Not Observable,-31.0,-33.0,30.40,1033.8,,,,0,0,0,,,,,,,,,2/8 Mostly Clear,72000.0,,FEW,25000.0,,,,,,
KRDR,01-28-2004,18:00,METAR,,290,12.0,,,9999.0,Cloud Development Not Observable,-33.0,-34.0,30.42,1034.6,,,,0,0,0,,,,,,,,,2/8 Mostly Clear,72000.0,,FEW,25000.0,,,,,,
KRDR,01-28-2004,17:00,METAR,,290,11.0,,,9999.0,Cloud Development Not Observable,-34.0,-34.0,30.42,1034.7,,,,0,0,0,,,,,,,,,2/8 Mostly Clear,72000.0,,FEW,25000.0,,,,,,
KRDR,01-28-2004,16:00,METAR,,290,12.0,,,9999.0,Cloud Development Not Observable,-35.0,-35.0,30.44,1035.3,,,,0,0,0,,,,,,,,,Clear,72000.0,,,73000.0,,,,,,
KRDR,01-28-2004,15:00,METAR,,280,12.0,,,9999.0,Cloud Development Not Observable,-35.0,-36.0,30.44,1035.1,,,,0,0,0,,,,,,,,,Clear,72000.0,,,73000.0,,,,,,
KRDR,01-28-2004,14:00,METAR,,280,12.0,,,9999.0,Cloud Development Not Observable,-35.0,-35.0,30.43,1034.7,,,,0,0,0,,,,,,,,,Clear,72000.0,,,73000.0,,,,,,
KRDR,01-28-2004,13:00,METAR,,290,13.0,,,9999.0,Cloud Development Not Observable,-34.0,-34.0,30.42,1034.3,,,,0,0,0,,,,,,,,,Clear,72000.0,,,73000.0,,,,,,
KRDR,01-28-2004,12:00,METAR,,290,13.0,,,9999.0,Cloud Development Not Observable,-33.0,-33.0,30.40,1033.0,,,,0,0,0,,,,,,,,,Clear,72000.0,,,73000.0,,,,,,
KRDR,01-28-2004,11:00,METAR,,290,14.0,,,9999.0,Cloud Development Not Observable,-33.0,-33.0,30.39,1033.0,,,,0,0,0,,,,,,,,,Clear,72000.0,,,73000.0,,,,,,
KRDR,01-28-2004,10:00,METAR,,290,13.0,,,9999.0,Cloud Development Not Observable,-32.0,-32.0,30.38,1032.7,,,,0,0,0,,,,,,,,,Clear,72000.0,,,73000.0,,,,,,
KRDR,01-28-2004,09:00,METAR,,290,13.0,,,9999.0,Cloud Development Not Observable,-31.0,-31.0,30.38,1032.7,,,,0,0,0,,,,,,,,,Clear,72000.0,,,73000.0,,,,,,
KRDR,01-28-2004,08:00,METAR,,300,13.0,,,9999.0,Cloud Development Not Observable,-31.0,-31.0,30.36,1032.0,,,,0,0,0,,,,,,,,,Clear,72000.0,,,73000.0,,,,,,
KRDR,01-28-2004,07:00,METAR,,290,15.0,,,9999.0,Cloud Development Not Observable,-30.0,-30.0,30.34,1031.4,,,,0,0,0,,,,,,,,,Clear,72000.0,,,73000.0,,,,,,
KRDR,01-28-2004,06:00,METAR,,300,15.0,,,9999.0,Cloud Development Not Observable,-29.0,-29.0,30.32,1030.7,,,,0,0,0,,,,,,,,,Clear,72000.0,,,73000.0,,,,,,
KRDR,01-28-2004,05:00,METAR,,300,12.0,,,9999.0,Cloud Development Not Observable,-27.0,-27.0,30.30,1029.9,,,,0,0,0,,,,,,,,,Clear,72000.0,,,73000.0,,,,,,
KRDR,01-28-2004,04:00,METAR,,300,12.0,,,9999.0,Cloud Development Not Observable,-26.0,-26.0,30.28,1029.5,,,,0,0,0,,,,,,,,,Clear,72000.0,,,73000.0,,,,,,
KRDR,01-28-2004,03:00,METAR,,300,13.0,,,9999.0,Cloud Development Not Observable,-24.0,-24.0,30.25,1028.6,,,,0,0,0,,,,,,TRACE,,,Clear,72000.0,,,73000.0,,,,,,
KRDR,01-28-2004,02:00,METAR,,300,15.0,,,9999.0,Cloud Development Not Observable,-23.0,-23.0,30.23,1027.9,,,,0,0,0,,,,,,,,,Clear,72000.0,,,73000.0,,,,,,
KRDR,01-28-2004,01:00,METAR,,300,11.0,,,9999.0,Cloud Development Not Observable,-22.0,-22.0,30.21,1026.9,,,,0,0,0,,,,,,,,,Clear,72000.0,,,73000.0,,,,,,
KRDR,01-28-2004,00:39,SPECI,,280,11.0,,,9999.0,Cloud Development Not Observable,-22.0,-22.0,30.20,,,,,0,0,0,,,,,,,,,2/8 Mostly Clear,72000.0,,FEW,5900.0,,,,,,
KRDR,01-28-2004,00:00,METAR,,290,10.0,,,8000.0,Light Snow/Mist/Cloud Development Not Observable,-20.0,-20.0,30.18,1026.0,,,,71,10,0,,,,,,,.04 IN,,7/8 Mostly Cloudy,4400.0,,SCT,2500.0,BKN,4500.0,BKN,5900.0,,
KRDR,01-27-2004,23:43,SPECI,,290,10.0,,,6400.0,Light Snow/Mist/Cloud Development Not Observable,-20.0,-20.0,30.18,,,,,71,10,0,,,,,,,,,7/8 Mostly Cloudy,4400.0,,SCT,2500.0,BKN,4500.0,BKN,5900.0,,
KRDR,01-27-2004,23:12,SPECI,,290,9.0,,,2400.0,Light Snow/Mist/Cloud Development Not Observable,-20.0,-20.0,30.18,,,,,71,10,0,,,,,,,,,8/8 Overcast,700.0,,BKN,700.0,OVC,2500.0,,,,
KRDR,01-27-2004,23:00,METAR,,290,10.0,,,1200.0,Cloud Development Not Observable,-20.0,-20.0,30.17,1025.7,,,,0,0,0,,,,,,,,,,700.0,,OVC,700.0,,,,,,
KRDR,01-27-2004,22:00,METAR,,280,8.0,,,1200.0,Cloud Development Not Observable,-21.0,-21.0,30.16,1025.3,,,,0,0,0,,,,,,,,,,72000.0,,,,,,,,,
KRDR,01-27-2004,21:00,METAR,,300,6.0,,,1200.0,Cloud Development Not Observable,-21.0,-21.0,30.16,,,,,0,0,0,,,,,,,,,,72000.0,,,,,,,,,
KRDR,01-27-2004,20:43,SPECI,,,5.0,,,1200.0,Cloud Development Not Observable,-21.0,-21.0,30.16,,,,,0,0,0,,,,,,,,,,72000.0,,,,,,,,,
KRDR,01-27-2004,20:33,SPECI,,220,4.0,,,1600.0,Light Snow/Cloud Development Not Observable,-21.0,-22.0,30.15,,,,,71,0,0,,,,,,,,,Sky Obscured (Unable to Estimate),400.0,100.0,,400.0,,,,,,
KRDR,01-27-2004,20:06,SPECI,,220,4.0,,,1600.0,Light Snow/Cloud Development Not Observable,-21.0,-22.0,30.15,,,,,71,0,0,,,,,,,,,8/8 Overcast,7000.0,,SCT,1000.0,OVC,6900.0,,,,
KRDR,01-27-2004,20:00,METAR,,180,5.0,,,9999.0,Cloud Development Not Observable,-21.0,-22.0,30.16,1025.0,,,,0,0,0,,,,,,,,,8/8 Overcast,7000.0,,BKN,6900.0,OVC,15000.0,,,,
KRDR,01-27-2004,19:00,METAR,,200,7.0,,,9999.0,Cloud Development Not Observable,-22.0,-23.0,30.17,1025.6,,,,0,0,0,,,,,,,,,7/8 Mostly Cloudy,8000.0,,BKN,7900.0,BKN,15000.0,,,,
KRDR,01-27-2004,18:00,METAR,,180,7.0,,,9999.0,Cloud Development Not Observable,-23.0,-24.0,30.17,1025.6,,,,0,0,0,,,,,,,,,7/8 Mostly Cloudy,8000.0,,BKN,7900.0,BKN,15000.0,,,,
KRDR,01-27-2004,17:00,METAR,,240,4.0,,,9999.0,Cloud Development Not Observable,-25.0,-26.0,30.18,1025.8,,,,0,0,0,,,,,,,,,4/8 Partly Cloudy,72000.0,,SCT,15000.0,,,,,,
KRDR,01-27-2004,16:00,METAR,,230,5.0,,,9999.0,Cloud Development Not Observable,-30.0,-30.0,30.17,1025.9,,,,0,0,0,,,,,,,,,2/8 Mostly Clear,72000.0,,FEW,15000.0,,,,,,
KRDR,01-27-2004,15:00,METAR,,170,5.0,,,9999.0,Cloud Development Not Observable,-31.0,-31.0,30.18,1026.0,,,,0,0,0,,,,,,,,,2/8 Mostly Clear,72000.0,,FEW,15000.0,,,,,,
KRDR,01-27-2004,14:00,METAR,,240,4.0,,,9999.0,Cloud Development Not Observable,-32.0,-32.0,30.19,1026.6,,,,0,0,0,,,,,,,,,2/8 Mostly Clear,72000.0,,FEW,15000.0,,,,,,
KRDR,01-27-2004,13:00,METAR,,260,4.0,,,9999.0,Cloud Development Not Observable,-31.0,-31.0,30.19,1026.5,,,,0,0,0,,,,,,,,,Clear,72000.0,,,73000.0,,,,,,
KRDR,01-27-2004,12:00,METAR,,250,6.0,,,9999.0,Cloud Development Not Observable,-32.0,-32.0,30.19,1026.3,,,,0,0,0,,,,,,,,.07 IN,Clear,72000.0,,,73000.0,,,,,,
KRDR,01-27-2004,11:00,METAR,,270,6.0,,,9999.0,Cloud Development Not Observable,-31.0,-31.0,30.20,1026.4,,,,0,0,0,,,,,,,,,Clear,72000.0,,,73000.0,,,,,,
KRDR,01-27-2004,10:00,METAR,,280,4.0,,,9999.0,Cloud Development Not Observable,-32.0,-32.0,30.19,1026.2,,,,0,0,0,,,,,,,,,Clear,72000.0,,,73000.0,,,,,,
KRDR,01-27-2004,09:00,METAR,,280,8.0,,,9999.0,Cloud Development Not Observable,-29.0,-29.0,30.22,1026.9,,,,0,0,0,,,,,,,,,Clear,72000.0,,,73000.0,,,,,,
KRDR,01-27-2004,08:00,METAR,,290,9.0,,,9999.0,Cloud Development Not Observable,-29.0,-29.0,30.22,1026.9,,,,0,0,0,,,,,,,,,Clear,72000.0,,,73000.0,,,,,,
KRDR,01-27-2004,07:00,METAR,,290,9.0,,,9999.0,Cloud Development Not Observable,-28.0,-28.0,30.22,1026.9,,,,0,0,0,,,,,,,,,Clear,72000.0,,,73000.0,,,,,,
KRDR,01-27-2004,06:00,METAR,,290,8.0,,,9999.0,Cloud Development Not Observable,-28.0,-28.0,30.22,1026.9,,,,0,0,0,,,,,,,,,Clear,72000.0,,,73000.0,,,,,,
KRDR,01-27-2004,05:00,METAR,,300,11.0,,,9999.0,Cloud Development Not Observable,-27.0,-27.0,30.22,1026.9,,,,0,0,0,,,,,,,,,Clear,72000.0,,,73000.0,,,,,,
KRDR,01-27-2004,04:00,METAR,,300,10.0,,,9999.0,Cloud Development Not Observable,-26.0,-26.0,30.22,1026.6,,,,0,0,0,,,,,,,,,Clear,72000.0,,,73000.0,,,,,,
KRDR,01-27-2004,03:00,METAR,,290,10.0,,,9999.0,Cloud Development Not Observable,-25.0,-25.0,30.22,1026.6,,,,0,0,0,,,,,,,,,Clear,72000.0,,,73000.0,,,,,,
KRDR,01-27-2004,02:00,METAR,,290,11.0,,,9999.0,Cloud Development Not Observable,-25.0,-25.0,30.22,1026.6,,,,0,0,0,,,,,,,,,Clear,72000.0,,,73000.0,,,,,,
KRDR,01-27-2004,01:00,METAR,,300,9.0,,,9999.0,Cloud Development Not Observable,-23.0,-23.0,30.20,1026.0,,,,0,0,0,,,,,,,,,Clear,72000.0,,,73000.0,,,,,,
KRDR,01-27-2004,00:00,METAR,,310,11.0,,,9999.0,Cloud Development Not Observable,-22.0,-22.0,30.19,1025.6,,,,0,0,0,,,,,,,IN,,Clear,72000.0,,,73000.0,,,,,,
KRDR,01-26-2004,23:00,METAR,,310,14.0,,,9999.0,Cloud Development Not Observable,-19.0,-19.0,30.17,1024.9,,,,0,0,0,,,,,,,,,4/8 Partly Cloudy,72000.0,,SCT,7900.0,,,,,,
KRDR,01-26-2004,22:00,METAR,,300,14.0,,,9999.0,Cloud Development Not Observable,-17.0,-18.0,30.15,1023.8,,,,0,0,0,,,,,,,,,7/8 Mostly Cloudy,8000.0,,SCT,3500.0,BKN,7900.0,,,,
KRDR,01-26-2004,21:34,SPECI,,300,14.0,,,9999.0,Cloud Development Not Observable,-17.0,-17.0,30.14,,,,,0,0,0,,,,,,,,,7/8 Mostly Cloudy,8000.0,,SCT,3500.0,BKN,7900.0,,,,
KRDR,01-26-2004,21:00,METAR,,320,14.0,,,9999.0,Light Snow/Cloud Development Not Observable,-16.0,-16.0,30.13,1023.2,,,,71,0,0,,,,,,,,,8/8 Overcast,3400.0,,BKN,3500.0,OVC,6400.0,,,,
KRDR,01-26-2004,20:00,METAR,,330,11.0,,,9999.0,Light Snow/Cloud Development Not Observable,-15.0,-16.0,30.13,1022.9,,,,71,0,0,,,,,,,,,8/8 Overcast,3400.0,,BKN,3500.0,OVC,6400.0,,,,
KRDR,01-26-2004,19:09,SPECI,,330,14.0,,,9999.0,Light Snow/Cloud Development Not Observable,-15.0,-16.0,30.13,,,,,71,0,0,,,,,,,,,8/8 Overcast,3100.0,,BKN,3200.0,OVC,5900.0,,,,
KRDR,01-26-2004,19:00,METAR,,320,13.0,,,9999.0,Cloud Development Not Observable,-15.0,-15.0,30.13,1022.9,,,,0,0,0,,,,,,,,,8/8 Overcast,3100.0,,FEW,2000.0,BKN,3200.0,OVC,6400.0,,
KRDR,01-26-2004,18:21,SPECI,,320,13.0,,,9999.0,Cloud Development Not Observable,-15.0,-15.0,30.13,,,,,0,0,0,,,,,,,,,8/8 Overcast,3100.0,,FEW,2000.0,BKN,3200.0,OVC,6400.0,,
KRDR,01-26-2004,18:00,METAR,,330,12.0,,,9999.0,Light Snow/Cloud Development Not Observable,-15.0,-15.0,30.13,1023.0,,,,71,0,0,,,,,,,.02 IN,,8/8 Overcast,3100.0,,FEW,1500.0,OVC,3200.0,,,,
KRDR,01-26-2004,17:00,METAR,,320,11.0,,,8000.0,Light Snow/Cloud Development Not Observable,-15.0,-15.0,30.12,1022.9,,,,71,0,0,,,,,,,,,8/8 Overcast,3100.0,,SCT,1800.0,OVC,3100.0,,,,
KRDR,01-26-2004,16:00,METAR,,330,9.0,,,4800.0,Light Snow/Cloud Development Not Observable,-15.0,-15.0,30.11,1022.4,,,,71,0,0,,,,,,,,,8/8 Overcast,3000.0,,SCT,1800.0,OVC,3000.0,,,,
KRDR,01-26-2004,15:00,METAR,,330,7.0,,,8000.0,Light Snow/Cloud Development Not Observable,-15.0,-15.0,30.11,1022.3,,,,71,0,0,,,,,,TRACE,,,8/8 Overcast,3100.0,,SCT,2000.0,OVC,3200.0,,,,
KRDR,01-26-2004,14:00,METAR,,360,7.0,,,6400.0,Light Snow/Cloud Development Not Observable,-15.0,-15.0,30.09,1021.5,,,,71,0,0,,,,,,,,,8/8 Overcast,2000.0,,FEW,800.0,SCT,2000.0,OVC,3200.0,,
KRDR,01-26-2004,13:00,METAR,,20,5.0,,,8000.0,Light Snow/Cloud Development Not Observable,-15.0,-15.0,30.07,1021.0,,,,71,0,0,,,,,,,,,8/8 Overcast,3400.0,,FEW,800.0,OVC,3500.0,,,,
KRDR,01-26-2004,12:00,METAR,,30,6.0,,,8000.0,Light Snow/Cloud Development Not Observable,-15.0,-15.0,30.06,1020.7,,,,71,0,0,,,,,,,.05 IN,.54 IN,8/8 Overcast,3400.0,,FEW,800.0,OVC,3500.0,,,,
KRDR,01-26-2004,11:25,METAR,,10,6.0,,,6400.0,Light Snow/Mist/Cloud Development Not Observable,-15.0,-15.0,30.06,,,,,71,10,0,,,,,,,,,8/8 Overcast,3400.0,,FEW,800.0,OVC,3500.0,,,,
KRDR,01-26-2004,11:00,METAR,,10,5.0,,,2400.0,Light Snow/Mist/Cloud Development Not Observable,-17.0,-17.0,30.06,1020.8,,,,71,10,0,,,,,,,,,8/8 Overcast,800.0,,BKN,800.0,OVC,3500.0,,,,
KRDR,01-26-2004,10:00,METAR,,20,4.0,,,2400.0,Light Snow/Mist/Cloud Development Not Observable,-15.0,-15.0,30.06,1020.7,,,,71,10,0,,,,,,,,,8/8 Overcast,800.0,,BKN,800.0,OVC,3500.0,,,,
KRDR,01-26-2004,09:00,METAR,,50,6.0,,,2400.0,Light Snow/Mist/Cloud Development Not Observable,-14.0,-14.0,30.07,1021.0,,,,71,10,0,,,,,,.06 IN,,,8/8 Overcast,800.0,,BKN,800.0,OVC,4000.0,,,,
KRDR,01-26-2004,08:00,METAR,,90,5.0,,,2400.0,Light Snow/Mist/Cloud Development Not Observable,-14.0,-14.0,30.06,1020.6,,,,71,10,0,,,,,,,,,8/8 Overcast,800.0,,BKN,800.0,OVC,4000.0,,,,
KRDR,01-26-2004,07:00,METAR,,100,7.0,,,2400.0,Light Snow/Mist/Cloud Development Not Observable,-14.0,-14.0,30.06,1020.7,,,,71,10,0,,,,,,,,,8/8 Overcast,800.0,,BKN,800.0,OVC,4000.0,,,,
KRDR,01-26-2004,06:00,METAR,,90,9.0,,,1600.0,Light Snow/Mist/Cloud Development Not Observable,-15.0,-15.0,30.06,1020.8,,,,71,10,0,,,,,,,.1 IN,,8/8 Overcast,800.0,,BKN,800.0,OVC,4000.0,,,,
KRDR,01-26-2004,05:00,METAR,,80,8.0,,,1600.0,Light Snow/Mist/Cloud Development Not Observable,-15.0,-15.0,30.06,1020.9,,,,71,10,0,,,,,,,,,8/8 Overcast,800.0,,OVC,800.0,,,,,,
KRDR,01-26-2004,04:20,METAR,,80,9.0,,,1600.0,Light Snow/Mist/Cloud Development Not Observable,-14.0,-14.0,30.06,,,,,71,10,0,,,,,,,,,8/8 Overcast,800.0,,OVC,800.0,,,,,,
KRDR,01-26-2004,04:00,METAR,,80,11.0,,,1000.0,Cloud Development Not Observable,-14.0,-14.0,30.07,1021.0,,,,0,0,0,,,,,,,,,,72000.0,,,,,,,,,
KRDR,01-26-2004,03:00,METAR,,70,8.0,,,1000.0,Cloud Development Not Observable,-15.0,-15.0,30.07,1021.1,,,,0,0,0,,,,,,,,,,72000.0,,,,,,,,,
KRDR,01-26-2004,01:55,METAR,,60,10.0,,,1000.0,Cloud Development Not Observable,-14.0,-14.0,30.07,1021.0,,,,0,0,0,,,,,,,,,,72000.0,,,,,,,,,
KRDR,01-26-2004,01:00,METAR,,60,10.0,,,1000.0,Cloud Development Not Observable,-14.0,-14.0,30.07,1021.0,,,,0,0,0,,,,,,,,,,72000.0,,,,,,,,,
KRDR,01-26-2004,00:29,SPECI,,60,10.0,,,1200.0,Cloud Development Not Observable,-14.0,-14.0,30.06,,,,,0,0,0,,,,,,,,,,72000.0,,,,,,,,,
KRDR,01-26-2004,00:00,METAR,,70,11.0,,,800.0,Cloud Development Not Observable,-14.0,-14.0,30.04,1020.0,,,,0,0,0,,,,,,,,,,72000.0,,,,,,,,,
KRDR,01-25-2004,23:00,METAR,,60,11.0,,,800.0,Cloud Development Not Observable,-14.0,-14.0,30.04,1020.0,,,,0,0,0,,,,,,,,,,72000.0,,,,,,,,,
KRDR,01-25-2004,22:00,METAR,,70,10.0,,,600.0,Cloud Development Not Observable,-14.0,-14.0,30.02,1019.3,,,,0,0,0,,,,,,,,,,72000.0,,,,,,,,,
KRDR,01-25-2004,21:33,SPECI,,70,10.0,,,400.0,Cloud Development Not Observable,-14.0,-14.0,30.03,,,,,0,0,0,,,,,,,,,,72000.0,,,,,,,,,
KRDR,01-25-2004,21:00,METAR,,60,10.0,,,800.0,Cloud Development Not Observable,-14.0,-14.0,30.02,1019.5,,,,0,0,0,,,,,,,,,,72000.0,,,,,,,,,
KRDR,01-25-2004,20:32,SPECI,,60,12.0,,,800.0,Cloud Development Not Observable,-14.0,-14.0,30.02,,,,,0,0,0,,,,,,,,,,72000.0,,,,,,,,,
KRDR,01-25-2004,20:00,METAR,,70,13.0,19.0,,500.0,Cloud Development Not Observable,-13.0,-13.0,30.04,1020.0,,,,0,0,0,,,,,,,,,,72000.0,,,,,,,,,
KRDR,01-25-2004,19:13,SPECI,,80,15.0,,,500.0,Cloud Development Not Observable,-13.0,-13.0,30.05,,,,,0,0,0,,,,,,,,,,72000.0,,,,,,,,,
KRDR,01-25-2004,19:00,METAR,,80,14.0,,,400.0,Cloud Development Not Observable,-14.0,-14.0,30.05,1020.4,,,,0,0,0,,,,,,,,,,72000.0,,,,,,,,,
KRDR,01-25-2004,18:42,SPECI,,80,15.0,20.0,,400.0,Cloud Development Not Observable,-14.0,-14.0,30.05,,,,,0,0,0,,,,,,,,,,72000.0,,,,,,,,,
KRDR,01-25-2004,18:36,SPECI,,70,14.0,23.0,,400.0,Cloud Development Not Observable,-14.0,-14.0,30.05,,,,,0,0,0,,,,,,,,,,72000.0,,,,,,,,,
KRDR,01-25-2004,18:00,METAR,,80,15.0,22.0,,600.0,Cloud Development Not Observable,-14.0,-14.0,30.06,1020.8,,,,0,0,0,,,,,,,,,,72000.0,,,,,,,,,
KRDR,01-25-2004,17:22,SPECI,,80,17.0,21.0,,800.0,Cloud Development Not Observable,-14.0,-14.0,30.07,,,,,0,0,0,,,,,,,,,,72000.0,,,,,,,,,
KRDR,01-25-2004,17:12,SPECI,,80,17.0,20.0,,1000.0,Cloud Development Not Observable,-15.0,-15.0,30.08,,,,,0,0,0,,,,,,,,,,72000.0,,,,,,,,,
KRDR,01-25-2004,17:00,METAR,,80,15.0,,,600.0,Cloud Development Not Observable,-15.0,-15.0,30.07,1021.2,,,,0,0,0,,,,,,,,,,72000.0,,,,,,,,,
KRDR,01-25-2004,16:32,SPECI,,80,19.0,23.0,,600.0,Cloud Development Not Observable,-15.0,-15.0,30.07,,,,,0,0,0,,,,,,,,,,72000.0,,,,,,,,,
KRDR,01-25-2004,16:27,SPECI,,80,18.0,23.0,,800.0,Cloud Development Not Observable,-15.0,-15.0,30.07,,,,,0,0,0,,,,,,,,,,72000.0,,,,,,,,,
KRDR,01-25-2004,16:04,SPECI,,80,17.0,,,1200.0,Cloud Development Not Observable,-15.0,-15.0,30.08,,,,,0,0,0,,,,,,,,,,72000.0,,,,,,,,,
KRDR,01-25-2004,16:00,METAR,,80,17.0,,,600.0,Cloud Development Not Observable,-15.0,-15.0,30.08,1021.5,,,,0,0,0,,,,,,,,,,72000.0,,,,,,,,,
KRDR,01-25-2004,15:30,SPECI,,80,15.0,24.0,,400.0,Cloud Development Not Observable,-15.0,-15.0,30.08,,,,,0,0,0,,,,,,,,,,72000.0,,,,,,,,,
KRDR,01-25-2004,15:13,SPECI,,80,18.0,23.0,,600.0,Cloud Development Not Observable,-15.0,-15.0,30.08,,,,,0,0,0,,,,,,,,,,72000.0,,,,,,,,,
KRDR,01-25-2004,15:00,METAR,,80,16.0,,,600.0,Cloud Development Not Observable,-15.0,-15.0,30.08,1021.5,,,,0,0,0,,,,,,,,,,72000.0,,,,,,,,,
KRDR,01-25-2004,14:38,SPECI,,80,17.0,,,600.0,Cloud Development Not Observable,-15.0,-15.0,30.08,,,,,0,0,0,,,,,,,,,,72000.0,,,,,,,,,
KRDR,01-25-2004,14:08,SPECI,,80,17.0,23.0,,300.0,Cloud Development Not Observable,-15.0,-15.0,30.06,,,,,0,0,0,,,,,,,,,,72000.0,,,,,,,,,
KRDR,01-25-2004,14:00,SPECI,,80,17.0,25.0,,800.0,Cloud Development Not Observable,-15.0,-15.0,30.06,,,,,0,0,0,,,,,,,,,,72000.0,,,,,,,,,
KRDR,01-25-2004,14:00,METAR,,80,16.0,,080/29KTS,800.0,Cloud Development Not Observable,-15.0,-15.0,30.06,1020.8,,,,0,0,0,,,,,,,,,,72000.0,,,,,,,,,
KRDR,01-25-2004,13:36,SPECI,,70,19.0,29.0,,1000.0,Cloud Development Not Observable,-15.0,-15.0,30.05,,,,,0,0,0,,,,,,,,,,72000.0,,,,,,,,,
KRDR,01-25-2004,13:00,METAR,,80,18.0,21.0,,1200.0,Cloud Development Not Observable,-15.0,-15.0,30.06,1021.0,,,,0,0,0,,,,,,,,,,72000.0,,,,,,,,,
KRDR,01-25-2004,12:43,SPECI,,80,17.0,,,1000.0,Cloud Development Not Observable,-15.0,-15.0,30.06,,,,,0,0,0,,,,,,,,,,72000.0,,,,,,,,,
KRDR,01-25-2004,12:21,SPECI,,80,15.0,23.0,,1200.0,Cloud Development Not Observable,-15.0,-15.0,30.06,,,,,0,0,0,,,,,,,,,,72000.0,,,,,,,,,
KRDR,01-25-2004,12:00,METAR,,80,15.0,24.0,,1600.0,Light Snow/Blowing Snow/Cloud Development Not Observable,-15.0,-15.0,30.06,1021.1,,,,71,38,0,,,,,,,.07 IN,.1 IN,Sky Obscured (Unable to Estimate),700.0,100.0,,700.0,,,,,,
KRDR,01-25-2004,11:38,SPECI,,80,16.0,20.0,,1200.0,Cloud Development Not Observable,-15.0,-15.0,30.07,,,,,0,0,0,,,,,,,,,,72000.0,,,,,,,,,
KRDR,01-25-2004,11:00,METAR,,80,15.0,,,1200.0,Cloud Development Not Observable,-15.0,-15.0,30.07,1021.3,,,,0,0,0,,,,,,,,,,72000.0,,,,,,,,,
KRDR,01-25-2004,10:00,METAR,,80,12.0,,,1200.0,Cloud Development Not Observable,-15.0,-15.0,30.09,1021.8,,,,0,0,0,,,,,,,,,,900.0,,OVC,900.0,,,,,,
KRDR,01-25-2004,09:00,METAR,,70,10.0,,,1200.0,Cloud Development Not Observable,-16.0,-16.0,30.11,1022.6,,,,0,0,0,,,,,,,,,,72000.0,,,,,,,,,
KRDR,01-25-2004,08:41,SPECI,,80,12.0,,,1200.0,Cloud Development Not Observable,-16.0,-16.0,30.11,,,,,0,0,0,,,,,,,,,,900.0,,OVC,900.0,,,,,,
KRDR,01-25-2004,08:00,METAR,,80,13.0,,,2400.0,Light Snow/Cloud Development Not Observable,-16.0,-16.0,30.12,1023.0,,,,71,0,0,,,,,,,,,8/8 Overcast,1500.0,,SCT,1000.0,OVC,1500.0,,,,
KRDR,01-25-2004,07:44,SPECI,,70,13.0,,,2400.0,Light Snow/Cloud Development Not Observable,-16.0,-16.0,30.12,,,,,71,0,0,,,,,,,,,8/8 Overcast,2000.0,,SCT,1000.0,OVC,2000.0,,,,
KRDR,01-25-2004,07:00,METAR,,70,13.0,,,3200.0,Light Snow/Cloud Development Not Observable,-16.0,-16.0,30.13,1023.6,,,,71,0,0,,,,,,,,,8/8 Overcast,2700.0,,SCT,1500.0,OVC,2700.0,,,,
KRDR,01-25-2004,06:26,SPECI,,70,9.0,,,4800.0,Light Snow/Cloud Development Not Observable,-16.0,-17.0,30.14,,,,,71,0,0,,,,,,,,,8/8 Overcast,2000.0,,BKN,2000.0,OVC,4000.0,,,,
KRDR,01-25-2004,06:00,METAR,,50,7.0,,,4800.0,Light Snow/Cloud Development Not Observable,-17.0,-17.0,30.15,1024.4,,,,71,0,0,,,,,,,IN,,8/8 Overcast,1800.0,,BKN,1800.0,OVC,5000.0,,,,
KRDR,01-25-2004,05:00,METAR,,50,8.0,,,8000.0,Light Snow/Cloud Development Not Observable,-17.0,-18.0,30.15,1024.4,,,,71,0,0,,,,,,,,,8/8 Overcast,2000.0,,BKN,2000.0,OVC,5000.0,,,,
KRDR,01-25-2004,04:38,SPECI,,50,9.0,,,8000.0,Light Snow/Cloud Development Not Observable,-17.0,-18.0,30.16,,,,,71,0,0,,,,,,,,,8/8 Overcast,2000.0,,BKN,2000.0,OVC,5000.0,,,,
KRDR,01-25-2004,04:00,METAR,,50,9.0,,,9999.0,Light Snow/Cloud Development Not Observable,-18.0,-18.0,30.16,1024.8,,,,71,0,0,,,,,,,,,8/8 Overcast,6000.0,,SCT,4000.0,OVC,5900.0,,,,
KRDR,01-25-2004,03:23,SPECI,,40,8.0,,,9999.0,Light Snow/Cloud Development Not Observable,-18.0,-18.0,30.17,,,,,71,0,0,,,,,,,,,8/8 Overcast,8000.0,,SCT,5900.0,OVC,7900.0,,,,
KRDR,01-25-2004,03:00,METAR,,30,8.0,,,9999.0,Cloud Development Not Observable,-18.0,-18.0,30.18,1025.4,,,,0,0,0,,,,,,,,,8/8 Overcast,7000.0,,OVC,6900.0,,,,,,
KRDR,01-25-2004,02:00,METAR,,30,8.0,,,9999.0,Cloud Development Not Observable,-18.0,-18.0,30.19,1026.0,,,,0,0,0,,,,,,,,,8/8 Overcast,7000.0,,BKN,6900.0,OVC,12000.0,,,,
KRDR,01-25-2004,01:00,METAR,,50,8.0,,,9999.0,Cloud Development Not Observable,-18.0,-18.0,30.20,1026.3,,,,0,0,0,,,,,,,,,8/8 Overcast,6000.0,,OVC,5900.0,,,,,,
KRDR,01-25-2004,00:00,METAR,,40,7.0,,,9999.0,Cloud Development Not Observable,-19.0,-19.0,30.20,1026.3,,,,0,0,0,,,,,,,,,8/8 Overcast,6000.0,,OVC,5900.0,,,,,,
KRDR,01-24-2004,23:00,METAR,,50,8.0,,,9999.0,Cloud Development Not Observable,-19.0,-19.0,30.21,1026.7,,,,0,0,0,,,,,,,,,8/8 Overcast,8000.0,,OVC,7900.0,,,,,,
KRDR,01-24-2004,22:00,METAR,,40,6.0,,,9999.0,Cloud Development Not Observable,-20.0,-20.0,30.23,1027.5,,,,0,0,0,,,,,,,,,8/8 Overcast,8000.0,,OVC,7900.0,,,,,,
KRDR,01-24-2004,21:00,METAR,,360,6.0,,,9999.0,Cloud Development Not Observable,-20.0,-20.0,30.25,1028.2,,,,0,0,0,,,,,,,,,8/8 Overcast,8000.0,,OVC,7900.0,,,,,,
KRDR,01-24-2004,20:00,METAR,,310,5.0,,,9999.0,Cloud Development Not Observable,-21.0,-21.0,30.27,1028.5,,,,0,0,0,,,,,,,,,8/8 Overcast,8000.0,,OVC,7900.0,,,,,,
KRDR,01-24-2004,19:30,METAR,,330,3.0,,,9999.0,Cloud Development Not Observable,-21.0,-21.0,30.27,,,,,0,0,0,,,,,,,,,7/8 Mostly Cloudy,8000.0,,BKN,7900.0,,,,,,
KRDR,01-24-2004,19:00,METAR,,320,5.0,,,9999.0,Cloud Development Not Observable,-22.0,-22.0,30.27,1028.5,,,,0,0,0,,,,,,,,,7/8 Mostly Cloudy,25000.0,,SCT,6900.0,BKN,25000.0,,,,
KRDR,01-24-2004,18:00,METAR,,350,5.0,,,9999.0,Cloud Development Not Observable,-23.0,-23.0,30.29,1029.2,,,,0,0,0,,,,,,,,,7/8 Mostly Cloudy,25000.0,,FEW,8900.0,BKN,25000.0,,,,
KRDR,01-24-2004,17:00,METAR,,330,4.0,,,9999.0,Cloud Development Not Observable,-24.0,-24.0,30.30,1029.6,,,,0,0,0,,,,,,,,,7/8 Mostly Cloudy,25000.0,,FEW,8900.0,BKN,25000.0,,,,
KRDR,01-24-2004,16:00,METAR,,20,8.0,,,9999.0,Cloud Development Not Observable,-25.0,-25.0,30.30,1029.6,,,,0,0,0,,,,,,,,,4/8 Partly Cloudy,72000.0,,SCT,8900.0,SCT,25000.0,,,,
KRDR,01-24-2004,15:00,METAR,,360,6.0,,,9999.0,Cloud Development Not Observable,-26.0,-26.0,30.30,1029.6,,,,0,0,0,,,,,,,,,4/8 Partly Cloudy,72000.0,,FEW,8900.0,SCT,25000.0,,,,
KRDR,01-24-2004,14:00,METAR,,350,6.0,,,9999.0,Cloud Development Not Observable,-27.0,-27.0,30.31,1029.9,,,,0,0,0,,,,,,,,,4/8 Partly Cloudy,72000.0,,SCT,25000.0,,,,,,
KRDR,01-24-2004,13:00,METAR,,330,5.0,,,9999.0,Cloud Development Not Observable,-26.0,-26.0,30.29,1029.4,,,,0,0,0,,,,,,,,,2/8 Mostly Clear,72000.0,,FEW,25000.0,,,,,,
KRDR,01-24-2004,12:00,METAR,,340,5.0,,,9999.0,Cloud Development Not Observable,-26.0,-26.0,30.28,1028.9,,,,0,0,0,,,,,,,,.01 IN,Clear,72000.0,,,73000.0,,,,,,
KRDR,01-24-2004,11:00,METAR,,340,6.0,,,9999.0,Cloud Development Not Observable,-26.0,-26.0,30.28,1028.7,,,,0,0,0,,,,,,,,,Clear,72000.0,,,73000.0,,,,,,
KRDR,01-24-2004,10:00,METAR,,320,5.0,,,9999.0,Cloud Development Not Observable,-26.0,-26.0,30.29,1029.0,,,,0,0,0,,,,,,,,,Clear,72000.0,,,73000.0,,,,,,
KRDR,01-24-2004,09:00,METAR,,330,5.0,,,9999.0,Cloud Development Not Observable,-26.0,-26.0,30.27,1028.5,,,,0,0,0,,,,,,TRACE,,,Clear,72000.0,,,73000.0,,,,,,
KRDR,01-24-2004,08:16,SPECI,,310,7.0,,,9999.0,Cloud Development Not Observable,-25.0,-25.0,30.26,,,,,0,0,0,,,,,,,,,Clear,72000.0,,,73000.0,,,,,,
KRDR,01-24-2004,08:00,METAR,,290,6.0,,,9999.0,Diamond Dust/Cloud Development Not Observable,-26.0,-26.0,30.26,1028.0,,,,76,0,0,,,,,,,,,Clear,72000.0,,,73000.0,,,,,,
KRDR,01-24-2004,07:00,METAR,,330,7.0,,,9999.0,Diamond Dust/Cloud Development Not Observable,-24.0,-24.0,30.24,1027.4,,,,76,0,0,,,,,,,,,Clear,72000.0,,,73000.0,,,,,,
KRDR,01-24-2004,06:47,SPECI,,320,7.0,,,9999.0,Diamond Dust/Cloud Development Not Observable,-24.0,-24.0,30.25,,,,,76,0,0,,,,,,,,,Clear,72000.0,,,73000.0,,,,,,
KRDR,01-24-2004,06:00,METAR,,340,8.0,,,9999.0,Cloud Development Not Observable,-23.0,-23.0,30.22,1026.6,,,,0,0,0,,,,,,,,,2/8 Mostly Clear,72000.0,,FEW,25000.0,,,,,,
KRDR,01-24-2004,05:00,METAR,,340,5.0,,,9999.0,Cloud Development Not Observable,-22.0,-22.0,30.19,1025.1,,,,0,0,0,,,,,,,,,Clear,72000.0,,,73000.0,,,,,,
KRDR,01-24-2004,04:00,METAR,,340,10.0,,,9999.0,Cloud Development Not Observable,-21.0,-21.0,30.18,1025.1,,,,0,0,0,,,,,,,,,Clear,72000.0,,,73000.0,,,,,,
KRDR,01-24-2004,03:00,METAR,,330,11.0,,,9999.0,Cloud Development Not Observable,-21.0,-21.0,30.15,1024.2,,,,0,0,0,,,,,,,,,Clear,72000.0,,,73000.0,,,,,,
KRDR,01-24-2004,02:00,METAR,,340,10.0,,,9999.0,Cloud Development Not Observable,-20.0,-20.0,30.13,1023.5,,,,0,0,0,,,,,,,,,Clear,72000.0,,,73000.0,,,,,,
KRDR,01-24-2004,01:00,METAR,,330,11.0,,,9999.0,Cloud Development Not Observable,-20.0,-20.0,30.11,1022.7,,,,0,0,0,,,,,,,,,Clear,72000.0,,,73000.0,,,,,,
KRDR,01-24-2004,00:00,METAR,,350,14.0,,,9999.0,Cloud Development Not Observable,-19.0,-19.0,30.08,1021.5,,,,0,0,0,,,,,,,IN,,2/8 Mostly Clear,72000.0,,FEW,4000.0,,,,,,
KRDR,01-23-2004,23:00,METAR,,360,15.0,20.0,,8000.0,Drifting Snow/Mist/Cloud Development Not Observable,-17.0,-17.0,30.04,1020.1,,,,36,10,0,,,,,,,,,7/8 Mostly Cloudy,3900.0,,FEW,2000.0,BKN,4000.0,,,,
KRDR,01-23-2004,22:00,METAR,,360,17.0,,,9999.0,Drifting Snow/Cloud Development Not Observable,-16.0,-17.0,30.01,1019.0,,,,36,0,0,,,,,,,,,7/8 Mostly Cloudy,4100.0,,FEW,2000.0,BKN,4200.0,,,,
KRDR,01-23-2004,21:41,SPECI,,360,15.0,,,9999.0,Drifting Snow/Mist/Cloud Development Not Observable,-16.0,-16.0,30.00,,,,,36,10,0,,,,,,,,,7/8 Mostly Cloudy,4100.0,,FEW,2000.0,BKN,4200.0,,,,
KRDR,01-23-2004,21:00,METAR,,350,15.0,,,4800.0,Light Snow/Drifting Snow/Mist,-16.0,-16.0,29.97,1017.7,,,,71,36,10,,,,,,TRACE,,,8/8 Overcast,3200.0,,FEW,2000.0,OVC,3300.0,,,,
KRDR,01-23-2004,20:00,METAR,,350,15.0,,,6400.0,Light Snow/Drifting Snow/Mist,-15.0,-16.0,29.94,1016.5,,,,71,36,10,,,,,,,,,8/8 Overcast,3200.0,,FEW,2000.0,OVC,3300.0,,,,
KRDR,01-23-2004,19:23,SPECI,,340,15.0,,,8000.0,Light Snow/Drifting Snow/Mist,-16.0,-16.0,29.93,,,,,71,36,10,,,,,,,,,8/8 Overcast,3200.0,,FEW,2000.0,OVC,3300.0,,,,
KRDR,01-23-2004,19:00,METAR,,360,14.0,,,8000.0,Light Snow/Mist/Cloud Development Not Observable,-15.0,-15.0,29.92,1015.8,,,,71,10,0,,,,,,,,,8/8 Overcast,3200.0,,SCT,2000.0,OVC,3300.0,,,,
KRDR,01-23-2004,18:17,SPECI,,360,12.0,,,8000.0,Light Snow/Mist/Cloud Development Not Observable,-14.0,-15.0,29.90,,,,,71,10,0,,,,,,,,,8/8 Overcast,3100.0,,SCT,2800.0,BKN,3100.0,OVC,3800.0,,
KRDR,01-23-2004,18:00,METAR,,10,9.0,,,9999.0,Light Snow/Mist/Cloud Development Not Observable,-14.0,-14.0,29.89,1014.8,,,,71,10,0,,,,,,,.01 IN,,8/8 Overcast,2900.0,,BKN,2900.0,OVC,12000.0,,,,
KRDR,01-23-2004,17:11,SPECI,,10,10.0,,,9999.0,Light Snow/Mist/Cloud Development Not Observable,-14.0,-15.0,29.89,,,,,71,10,0,,,,,,,,,8/8 Overcast,2700.0,,OVC,2700.0,,,,,,
KRDR,01-23-2004,17:00,METAR,,10,9.0,,,9999.0,Light Snow/Mist/Cloud Development Not Observable,-14.0,-15.0,29.89,,,,,71,10,0,,,,,,,,,8/8 Overcast,2700.0,,OVC,2700.0,,,,,,
KRDR,01-23-2004,16:42,SPECI,,30,9.0,,,8000.0,Light Snow/Mist/Cloud Development Not Observable,-14.0,-15.0,29.88,,,,,71,10,0,,,,,,,,,8/8 Overcast,2700.0,,OVC,2700.0,,,,,,
KRDR,01-23-2004,16:00,METAR,,40,8.0,,,9999.0,Light Snow/Cloud Development Not Observable,-15.0,-15.0,29.85,1013.8,,,,71,0,0,,,,,,,,,8/8 Overcast,3100.0,,OVC,3200.0,,,,,,
KRDR,01-23-2004,15:00,METAR,,50,10.0,,,9999.0,Light Snow/Cloud Development Not Observable,-15.0,-15.0,29.84,1013.3,,,,71,0,0,,,,,,.01 IN,,,8/8 Overcast,3100.0,,OVC,3200.0,,,,,,
KRDR,01-23-2004,14:49,SPECI,,60,9.0,,,9999.0,Light Snow/Cloud Development Not Observable,-15.0,-15.0,29.82,,,,,71,0,0,,,,,,,,,8/8 Overcast,3100.0,,FEW,1500.0,OVC,3100.0,,,,
KRDR,01-23-2004,14:22,SPECI,,40,9.0,,,9999.0,Cloud Development Not Observable,-15.0,-15.0,29.82,,,,,0,0,0,,,,,,,,,8/8 Overcast,3200.0,,SCT,2000.0,OVC,3300.0,,,,
KRDR,01-23-2004,14:00,METAR,,70,9.0,,,9999.0,Light Snow/Cloud Development Not Observable,-15.0,-15.0,29.80,1012.1,,,,71,0,0,,,,,,,,,8/8 Overcast,2900.0,,OVC,2900.0,,,,,,
KRDR,01-23-2004,13:00,METAR,,70,11.0,,,9999.0,Light Snow/Cloud Development Not Observable,-15.0,-15.0,29.79,1011.5,,,,71,0,0,,,,,,,,,8/8 Overcast,2700.0,,SCT,2000.0,OVC,2700.0,,,,
KRDR,01-23-2004,12:42,SPECI,,70,11.0,,,9999.0,Light Snow/Cloud Development Not Observable,-15.0,-15.0,29.79,,,,,71,0,0,,,,,,,,,8/8 Overcast,2800.0,,FEW,1500.0,BKN,2800.0,OVC,5000.0,,
KRDR,01-23-2004,12:12,SPECI,,70,12.0,,,4000.0,Light Snow/Cloud Development Not Observable,-15.0,-15.0,29.78,,,,,71,0,0,,,,,,,,,8/8 Overcast,1800.0,,SCT,800.0,OVC,1800.0,,,,
KRDR,01-23-2004,12:00,METAR,,100,8.0,,,2400.0,Light Snow/Cloud Development Not Observable,-15.0,-15.0,29.78,1011.4,,,,71,0,0,,,,,,,.03 IN,.04 IN,8/8 Overcast,800.0,,BKN,800.0,OVC,1200.0,,,,
KRDR,01-23-2004,11:00,METAR,,100,8.0,,,1600.0,Snow/Cloud Development Not Observable,-15.0,-15.0,29.78,1011.2,,,,73,0,0,,,,,,,,,8/8 Overcast,800.0,,OVC,800.0,,,,,,
KRDR,01-23-2004,10:00,METAR,,100,10.0,,,1600.0,Snow/Cloud Development Not Observable,-15.0,-15.0,29.79,1011.7,,,,73,0,0,,,,,,,,,8/8 Overcast,800.0,,OVC,800.0,,,,,,
KRDR,01-23-2004,09:45,METAR,,110,10.0,,,1600.0,Light Snow/Cloud Development Not Observable,-15.0,-15.0,29.79,,,,,71,0,0,,,,,,,,,8/8 Overcast,800.0,,OVC,800.0,,,,,,
KRDR,01-23-2004,09:00,METAR,,110,9.0,,,1200.0,Cloud Development Not Observable,-16.0,-16.0,29.82,1011.4,,,,0,0,0,,,,,,,,,,72000.0,,,,,,,,,
KRDR,01-23-2004,08:00,METAR,,140,10.0,,,1600.0,Light Snow/Cloud Development Not Observable,-16.0,-16.0,29.83,1011.7,,,,71,0,0,,,,,,,,,8/8 Overcast,1000.0,,SCT,600.0,OVC,1000.0,,,,
KRDR,01-23-2004,07:22,SPECI,,140,12.0,,,1600.0,Light Snow/Cloud Development Not Observable,-16.0,-16.0,29.86,,,,,71,0,0,,,,,,,,,8/8 Overcast,1000.0,,SCT,600.0,OVC,1000.0,,,,
KRDR,01-23-2004,07:00,METAR,,140,12.0,,,8000.0,Light Snow/Cloud Development Not Observable,-16.0,-16.0,29.88,1014.8,,,,71,0,0,,,,,,,,,8/8 Overcast,1200.0,,OVC,1200.0,,,,,,
KRDR,01-23-2004,06:32,SPECI,,140,10.0,,,8000.0,Light Snow/Cloud Development Not Observable,-16.0,-16.0,29.91,,,,,71,0,0,,,,,,,,,8/8 Overcast,1300.0,,OVC,1300.0,,,,,,
KRDR,01-23-2004,06:00,METAR,,140,11.0,,,8000.0,Light Snow/Cloud Development Not Observable,-16.0,-16.0,29.94,1016.8,,,,71,0,0,,,,,,,IN,,8/8 Overcast,3100.0,,SCT,1300.0,OVC,3200.0,,,,
KRDR,01-23-2004,05:00,METAR,,130,13.0,,,8000.0,Light Snow/Cloud Development Not Observable,-17.0,-17.0,29.96,1017.8,,,,71,0,0,,,,,,,,,8/8 Overcast,3000.0,,SCT,1400.0,OVC,3000.0,,,,
KRDR,01-23-2004,04:00,METAR,,130,10.0,,,9999.0,Light Snow/Cloud Development Not Observable,-17.0,-17.0,29.99,1018.8,,,,71,0,0,,,,,,,,,8/8 Overcast,3000.0,,FEW,2200.0,OVC,3000.0,,,,
KRDR,01-23-2004,03:00,METAR,,140,12.0,,,8000.0,Light Snow/Cloud Development Not Observable,-18.0,-18.0,30.02,1020.0,,,,71,0,0,,,,,,TRACE,,,8/8 Overcast,3000.0,,FEW,2200.0,OVC,3000.0,,,,
KRDR,01-23-2004,02:20,METAR,,130,13.0,,,8000.0,Light Snow/Cloud Development Not Observable,-18.0,-18.0,30.04,,,,,71,0,0,,,,,,,,,8/8 Overcast,3000.0,,FEW,2200.0,OVC,3000.0,,,,
KRDR,01-23-2004,02:00,METAR,,130,11.0,,,9999.0,Cloud Development Not Observable,-18.0,-18.0,30.05,1021.1,,,,0,0,0,,,,,,,,,8/8 Overcast,3100.0,,FEW,2200.0,OVC,3200.0,,,,
KRDR,01-23-2004,01:00,METAR,,140,12.0,,,9999.0,Cloud Development Not Observable,-18.0,-18.0,30.08,1022.0,,,,0,0,0,,,,,,,,,8/8 Overcast,3100.0,,FEW,2200.0,OVC,3200.0,,,,
KRDR,01-23-2004,00:25,METAR,,150,12.0,,,9999.0,Cloud Development Not Observable,-17.0,-18.0,30.08,,,,,0,0,0,,,,,,,,,8/8 Overcast,4900.0,,FEW,2200.0,OVC,5000.0,,,,
KRDR,01-23-2004,00:00,METAR,,150,10.0,,,9999.0,Light Snow/Cloud Development Not Observable,-17.0,-18.0,30.10,1022.5,,,,71,0,0,,,,,,,.01 IN,,8/8 Overcast,4900.0,,SCT,2200.0,OVC,5000.0,,,,
KRDR,01-22-2004,23:23,SPECI,,130,10.0,,,4800.0,Light Snow/Cloud Development Not Observable,-17.0,-19.0,30.11,,,,,71,0,0,,,,,,,,,8/8 Overcast,4900.0,,SCT,2200.0,OVC,5000.0,,,,
KRDR,01-22-2004,23:08,SPECI,,150,10.0,,,2400.0,Light Snow/Cloud Development Not Observable,-17.0,-19.0,30.12,,,,,71,0,0,,,,,,,,,8/8 Overcast,5500.0,,SCT,2200.0,OVC,5700.0,,,,
KRDR,01-22-2004,23:00,METAR,,160,8.0,,,1600.0,Light Snow/Cloud Development Not Observable,-17.0,-19.0,30.14,1024.1,,,,71,0,0,,,,,,,,,8/8 Overcast,2200.0,,BKN,2200.0,OVC,5700.0,,,,
KRDR,01-22-2004,22:48,SPECI,,150,10.0,,,4000.0,Light Snow/Cloud Development Not Observable,-17.0,-19.0,30.13,,,,,71,0,0,,,,,,,,,8/8 Overcast,2200.0,,BKN,2200.0,OVC,5700.0,,,,
KRDR,01-22-2004,22:21,SPECI,,130,9.0,,,9999.0,Light Snow/Cloud Development Not Observable,-17.0,-19.0,30.15,,,,,71,0,0,,,,,,,,,8/8 Overcast,5500.0,,SCT,3000.0,OVC,5700.0,,,,
KRDR,01-22-2004,22:00,METAR,,160,10.0,,,9999.0,Cloud Development Not Observable,,-19.0,30.15,1024.5,,,,0,0,0,,,,,,,,,8/8 Overcast,5500.0,,BKN,5700.0,OVC,20000.0,,,,
KRDR,01-22-2004,21:00,METAR,,170,10.0,,,9999.0,Cloud Development Not Observable,,-20.0,30.18,1024.0,,,,0,0,0,,,,,,,,,7/8 Mostly Cloudy,20000.0,,SCT,6900.0,BKN,20000.0,,,,
KRDR,01-22-2004,12:00,METAR,,290,8.0,,,9999.0,Cloud Development Not Observable,-25.0,-26.0,30.36,1032.0,,,,0,0,0,,,,,,,,,Clear,72000.0,,,73000.0,,,,,,
KRDR,01-22-2004,11:00,METAR,,300,8.0,,,9999.0,Cloud Development Not Observable,-26.0,-26.0,30.36,1032.0,,,,0,0,0,,,,,,,,,Clear,72000.0,,,73000.0,,,,,,
KRDR,01-22-2004,10:00,METAR,,300,9.0,,,9999.0,Cloud Development Not Observable,-25.0,-26.0,30.36,1031.9,,,,0,0,0,,,,,,,,,Clear,72000.0,,,73000.0,,,,,,
KRDR,01-22-2004,09:00,METAR,,310,11.0,,,9999.0,Cloud Development Not Observable,-25.0,-26.0,30.38,1032.4,,,,0,0,0,,,,,,,,,Clear,72000.0,,,73000.0,,,,,,
KRDR,01-22-2004,08:00,METAR,,300,10.0,,,9999.0,Cloud Development Not Observable,-25.0,-25.0,30.36,1031.9,,,,0,0,0,,,,,,,,,Clear,72000.0,,,73000.0,,,,,,
KRDR,01-22-2004,03:00,METAR,,310,10.0,,,9999.0,Cloud Development Not Observable,-23.0,-24.0,30.29,1029.1,,,,0,0,0,,,,,,,,,2/8 Mostly Clear,72000.0,,FEW,20000.0,,,,,,
KRDR,01-22-2004,02:00,METAR,,310,10.0,,,9999.0,Cloud Development Not Observable,-23.0,-24.0,30.28,1028.5,,,,0,0,0,,,,,,,,,2/8 Mostly Clear,72000.0,,FEW,20000.0,,,,,,
KRDR,01-22-2004,01:00,METAR,,310,12.0,,,9999.0,Cloud Development Not Observable,-23.0,-24.0,30.26,1028.0,,,,0,0,0,,,,,,,,,4/8 Partly Cloudy,72000.0,,SCT,20000.0,,,,,,
KRDR,01-22-2004,00:00,METAR,,310,15.0,,,9999.0,Cloud Development Not Observable,-23.0,-24.0,30.24,1027.2,,,,0,0,0,,,,,,,IN,,4/8 Partly Cloudy,72000.0,,FEW,1600.0,SCT,20000.0,,,,
KRDR,01-21-2004,23:00,METAR,,320,17.0,,,6400.0,Blowing Snow/Cloud Development Not Observable,-22.0,-24.0,30.23,1026.5,,,,38,0,0,,,,,,,,,4/8 Partly Cloudy,72000.0,,SCT,1600.0,SCT,20000.0,,,,
KRDR,01-21-2004,22:43,SPECI,,310,18.0,,,6400.0,Blowing Snow/Cloud Development Not Observable,-22.0,-24.0,30.22,,,,,38,0,0,,,,,,,,,4/8 Partly Cloudy,72000.0,,SCT,1600.0,SCT,20000.0,,,,
KRDR,01-21-2004,22:16,SPECI,,310,19.0,27.0,,4800.0,Blowing Snow/Cloud Development Not Observable,-21.0,-23.0,30.21,,,,,38,0,0,,,,,,,,,7/8 Mostly Cloudy,1600.0,,BKN,1600.0,,,,,,
KRDR,01-21-2004,22:00,METAR,,350,11.0,,310/27KTS,3200.0,Blowing Snow/Drifting Snow/Cloud Development Not Observable,-22.0,-22.0,30.19,1025.2,,,,38,36,0,,,,,,,,,7/8 Mostly Cloudy,1400.0,,BKN,1400.0,,,,,,
KRDR,01-21-2004,21:31,SPECI,,300,21.0,,,3200.0,Blowing Snow/Cloud Development Not Observable,-21.0,-22.0,30.19,,,,,38,0,0,,,,,,,,,8/8 Overcast,1400.0,,OVC,1400.0,,,,,,
KRDR,01-21-2004,21:02,SPECI,,340,13.0,,,1200.0,Cloud Development Not Observable,-22.0,-22.0,30.18,,,,,0,0,0,,,,,,,,,,1400.0,,OVC,1400.0,,,,,,
KRDR,01-21-2004,21:00,METAR,,350,11.0,,,3200.0,Blowing Snow/Drifting Snow/Cloud Development Not Observable,-22.0,-22.0,30.18,1024.7,,,,38,36,0,,,,,,TRACE,,,8/8 Overcast,1500.0,,OVC,1500.0,,,,,,
KRDR,01-21-2004,20:36,SPECI,,350,13.0,,,3200.0,Blowing Snow/Drifting Snow/Cloud Development Not Observable,-22.0,-22.0,30.18,,,,,38,36,0,,,,,,,,,7/8 Mostly Cloudy,1500.0,,BKN,1500.0,,,,,,
KRDR,01-21-2004,20:00,METAR,,340,15.0,,,4800.0,Blowing Snow/Drifting Snow/Cloud Development Not Observable,-22.0,-22.0,30.17,1024.3,,,,38,36,0,,,,,,,,,7/8 Mostly Cloudy,1500.0,,BKN,1500.0,,,,,,
KRDR,01-21-2004,19:34,SPECI,,360,18.0,,,4800.0,Blowing Snow/Drifting Snow/Cloud Development Not Observable,-21.0,-21.0,30.15,,,,,38,36,0,,,,,,,,,7/8 Mostly Cloudy,1500.0,,BKN,1500.0,,,,,,
KRDR,01-21-2004,19:14,SPECI,,360,17.0,,,3200.0,Blowing Snow/Drifting Snow/Cloud Development Not Observable,-21.0,-21.0,30.15,,,,,38,36,0,,,,,,,,,7/8 Mostly Cloudy,1500.0,,BKN,1500.0,,,,,,
KRDR,01-21-2004,19:00,METAR,,360,17.0,,,1200.0,Cloud Development Not Observable,-21.0,-21.0,30.14,1022.7,,,,0,0,0,,,,,,,,,,1500.0,,OVC,1500.0,,,,,,
KRDR,01-21-2004,18:43,SPECI,,350,17.0,,,1200.0,Cloud Development Not Observable,-21.0,-21.0,30.14,,,,,0,0,0,,,,,,,,,,1500.0,,OVC,1500.0,,,,,,
KRDR,01-21-2004,18:16,SPECI,,360,16.0,,,800.0,Cloud Development Not Observable,-21.0,-21.0,30.13,,,,,0,0,0,,,,,,,,,,1400.0,,OVC,1400.0,,,,,,
KRDR,01-21-2004,18:00,METAR,,340,16.0,26.0,330/27KTS,800.0,Cloud Development Not Observable,-20.0,-20.0,30.13,1022.7,,,,0,0,0,,,,,,,,,,1400.0,,OVC,1400.0,,,,,,
KRDR,01-21-2004,17:38,SPECI,,330,22.0,,,3200.0,Blowing Snow/Cloud Development Not Observable,-19.0,-19.0,30.12,,,,,38,0,0,,,,,,,,,7/8 Mostly Cloudy,1500.0,,BKN,1500.0,,,,,,
KRDR,01-21-2004,17:30,METAR,,320,21.0,27.0,,6400.0,Blowing Snow/Cloud Development Not Observable,-19.0,-19.0,30.11,,,,,38,0,0,,,,,,,,,7/8 Mostly Cloudy,1500.0,,BKN,1500.0,,,,,,
KRDR,01-21-2004,17:00,METAR,,340,14.0,,,1200.0,Cloud Development Not Observable,-19.0,-19.0,30.10,1021.6,,,,0,0,0,,,,,,,,,,1500.0,,OVC,1500.0,,,,,,
KRDR,01-21-2004,16:23,SPECI,,360,16.0,,,1200.0,Cloud Development Not Observable,-19.0,-19.0,30.08,,,,,0,0,0,,,,,,,,,,1800.0,,OVC,1800.0,,,,,,
KRDR,01-21-2004,16:10,SPECI,,360,17.0,,,3200.0,Blowing Snow/Drifting Snow/Cloud Development Not Observable,-19.0,-19.0,30.04,,,,,38,36,0,,,,,,,,,7/8 Mostly Cloudy,1500.0,,BKN,1500.0,BKN,3500.0,,,,
KRDR,01-21-2004,16:00,METAR,,350,17.0,,,6400.0,Blowing Snow/Drifting Snow/Cloud Development Not Observable,-19.0,-19.0,30.06,1020.4,,,,38,36,0,,,,,,,,,7/8 Mostly Cloudy,1500.0,,BKN,1500.0,BKN,3500.0,,,,
KRDR,01-21-2004,15:15,SPECI,,350,18.0,,,6400.0,Blowing Snow/Drifting Snow/Cloud Development Not Observable,-18.0,-18.0,30.04,,,,,38,36,0,,,,,,,,,7/8 Mostly Cloudy,1500.0,,BKN,1500.0,BKN,3500.0,,,,
KRDR,01-21-2004,15:00,METAR,,350,18.0,25.0,,2400.0,Blowing Snow/Drifting Snow/Cloud Development Not Observable,-18.0,-18.0,30.02,1019.0,,,,38,36,0,,,,,,,,,7/8 Mostly Cloudy,1500.0,,BKN,1500.0,BKN,3500.0,,,,
KRDR,01-21-2004,14:30,METAR,,350,19.0,,,2400.0,Blowing Snow/Drifting Snow/Cloud Development Not Observable,-18.0,-18.0,30.01,,,,,38,36,0,,,,,,,,,8/8 Overcast,1500.0,,BKN,1500.0,OVC,3500.0,,,,
KRDR,01-21-2004,14:17,SPECI,,350,19.0,,,1200.0,Cloud Development Not Observable,-18.0,-18.0,30.00,,,,,0,0,0,,,,,,,,,,1500.0,,BKN,1500.0,OVC,3000.0,,,,
KRDR,01-21-2004,14:09,SPECI,,360,20.0,,,400.0,Cloud Development Not Observable,-18.0,-18.0,29.99,,,,,0,0,0,,,,,,,,,,3100.0,,SCT,1400.0,OVC,3100.0,,,,
KRDR,01-21-2004,14:02,SPECI,,350,20.0,26.0,,800.0,Cloud Development Not Observable,-17.0,-17.0,29.98,,,,,0,0,0,,,,,,,,,,3200.0,,SCT,1600.0,OVC,3300.0,,,,
KRDR,01-21-2004,14:00,METAR,,350,22.0,26.0,350/31KTS,1600.0,Blowing Snow/Cloud Development Not Observable,-17.0,-17.0,29.98,1017.6,,,,38,0,0,,,,,,,,,8/8 Overcast,3200.0,,SCT,1600.0,OVC,3300.0,,,,
KRDR,01-21-2004,13:36,SPECI,,340,20.0,29.0,,1600.0,Blowing Snow/Cloud Development Not Observable,-17.0,-17.0,29.98,,,,,38,0,0,,,,,,,,,8/8 Overcast,3200.0,,OVC,3300.0,,,,,,
KRDR,01-21-2004,13:19,SPECI,,350,24.0,31.0,,1200.0,Cloud Development Not Observable,-16.0,-16.0,29.96,,,,,0,0,0,,,,,,,,,,3200.0,,OVC,3300.0,,,,,,
KRDR,01-21-2004,13:00,METAR,,340,22.0,29.0,,800.0,Cloud Development Not Observable,-15.0,-15.0,29.94,1016.2,,,,0,0,0,,,,,,,,,,3000.0,,OVC,3000.0,,,,,,
KRDR,01-21-2004,12:23,SPECI,,350,24.0,28.0,,400.0,Cloud Development Not Observable,-13.0,-13.0,29.91,,,,,0,0,0,,,,,,,,,,72000.0,,,,,,,,,
KRDR,01-21-2004,12:00,METAR,,310,30.0,39.0,,800.0,Cloud Development Not Observable,-11.0,-12.0,29.88,1014.1,,,,0,0,0,,,,,,,,,,72000.0,,SCT,4000.0,,,,,,
KRDR,01-21-2004,11:00,METAR,,310,18.0,24.0,,9999.0,Drifting Snow/Cloud Development Not Observable,-9.0,-10.0,29.85,1013.1,,,,36,0,0,,,,,,,,,2/8 Mostly Clear,72000.0,,FEW,2000.0,,,,,,
KRDR,01-21-2004,10:30,METAR,,300,18.0,,,9999.0,Drifting Snow/Cloud Development Not Observable,-8.0,-10.0,29.85,,,,,36,0,0,,,,,,,,,4/8 Partly Cloudy,72000.0,,SCT,4500.0,,,,,,
KRDR,01-21-2004,10:00,METAR,,310,15.0,,,9999.0,Drifting Snow/Cloud Development Not Observable,-7.0,-9.0,29.84,1012.7,,,,36,0,0,,,,,,,,,7/8 Mostly Cloudy,4900.0,,SCT,3500.0,BKN,5000.0,,,,
KRDR,01-21-2004,09:00,METAR,,290,14.0,,,9999.0,Drifting Snow/Cloud Development Not Observable,-6.0,-7.0,29.85,1013.1,,,,36,0,0,,,,,,,,,2/8 Mostly Clear,72000.0,,FEW,2500.0,,,,,,
KRDR,01-21-2004,08:05,SPECI,,300,13.0,,,9999.0,Cloud Development Not Observable,-5.0,-6.0,29.84,,,,,0,0,0,,,,,,,,,4/8 Partly Cloudy,72000.0,,SCT,2500.0,,,,,,
KRDR,01-21-2004,08:00,METAR,,300,15.0,,300/26KTS,9999.0,Cloud Development Not Observable,-4.0,-6.0,29.84,1012.7,,,,0,0,0,,,,,,,,,7/8 Mostly Cloudy,2500.0,,BKN,2500.0,,,,,,
KRDR,01-21-2004,07:00,METAR,,300,18.0,,,9999.0,Drifting Snow/Cloud Development Not Observable,-3.0,-4.0,29.83,1012.3,,,,36,0,0,,,,,,,,,8/8 Overcast,2000.0,,BKN,2000.0,OVC,2500.0,,,,
KRDR,01-21-2004,06:21,SPECI,,290,17.0,,,9999.0,Drifting Snow/Cloud Development Not Observable,-3.0,-3.0,29.83,,,,,36,0,0,,,,,,,,,8/8 Overcast,1700.0,,BKN,1700.0,OVC,2500.0,,,,
KRDR,01-21-2004,06:00,METAR,,290,21.0,26.0,,4800.0,Blowing Snow/Cloud Development Not Observable,-3.0,-3.0,29.84,1012.7,,,,38,0,0,,,,,,,IN,,8/8 Overcast,1300.0,,OVC,1300.0,,,,,,
KRDR,01-21-2004,05:10,SPECI,,300,14.0,21.0,,9999.0,Cloud Development Not Observable,-3.0,-3.0,29.85,,,,,0,0,0,,,,,,,,,8/8 Overcast,1400.0,,OVC,1400.0,,,,,,
KRDR,01-21-2004,05:00,METAR,,290,15.0,,,8000.0,Light Snow/Cloud Development Not Observable,-3.0,-3.0,29.85,1013.1,,,,71,0,0,,,,,,,,,8/8 Overcast,1500.0,,OVC,1500.0,,,,,,
KRDR,01-21-2004,04:44,SPECI,,280,12.0,17.0,,8000.0,Light Snow/Cloud Development Not Observable,-3.0,-3.0,29.83,,,,,71,0,0,,,,,,,,,8/8 Overcast,1500.0,,SCT,1200.0,OVC,1500.0,,,,
KRDR,01-21-2004,04:33,SPECI,,280,12.0,17.0,,9999.0,Cloud Development Not Observable,-3.0,-3.0,29.83,,,,,0,0,0,,,,,,,,,8/8 Overcast,1500.0,,SCT,1200.0,OVC,1500.0,,,,
KRDR,01-21-2004,04:00,METAR,,260,11.0,17.0,,9999.0,Cloud Development Not Observable,-3.0,-3.0,29.84,1012.6,,,,0,0,0,,,,,,,,,8/8 Overcast,1200.0,,SCT,900.0,OVC,1200.0,,,,
KRDR,01-21-2004,03:00,METAR,,260,8.0,,,9999.0,Cloud Development Not Observable,-4.0,-4.0,29.87,1013.8,,,,0,0,0,,,,,,,,,8/8 Overcast,1100.0,,SCT,900.0,OVC,1100.0,,,,
KRDR,01-21-2004,02:00,METAR,,240,8.0,,,9999.0,Cloud Development Not Observable,-5.0,-5.0,29.91,1015.1,,,,0,0,0,,,,,,,,,8/8 Overcast,1100.0,,OVC,1100.0,,,,,,
KRDR,01-21-2004,01:44,SPECI,,210,10.0,,,9999.0,Cloud Development Not Observable,-6.0,-6.0,29.91,,,,,0,0,0,,,,,,,,,8/8 Overcast,1100.0,,OVC,1100.0,,,,,,
KRDR,01-21-2004,01:00,METAR,,200,14.0,,,9999.0,Cloud Development Not Observable,-7.0,-7.0,29.93,1015.9,,,,0,0,0,,,,,,,,,8/8 Overcast,1500.0,,BKN,1500.0,OVC,3500.0,,,,
KRDR,01-20-2004,23:41,SPECI,,190,16.0,,,9999.0,Cloud Development Not Observable,-8.0,-8.0,29.98,,,,,0,0,0,,,,,,,,,8/8 Overcast,1500.0,,BKN,1500.0,OVC,3500.0,,,,
KRDR,01-20-2004,23:00,METAR,,190,16.0,,,9999.0,Cloud Development Not Observable,-8.0,-9.0,30.00,1018.3,,,,0,0,0,,,,,,,,,8/8 Overcast,3400.0,,SCT,1900.0,OVC,3500.0,,,,
KRDR,01-20-2004,22:18,SPECI,,190,14.0,,,9999.0,Cloud Development Not Observable,-8.0,-9.0,30.01,,,,,0,0,0,,,,,,,,,8/8 Overcast,3400.0,,SCT,2500.0,OVC,3500.0,,,,
KRDR,01-20-2004,22:00,METAR,,190,14.0,,,6400.0,Light Snow/Cloud Development Not Observable,-8.0,-9.0,30.02,1019.2,,,,71,0,0,,,,,,,,,8/8 Overcast,3400.0,,SCT,1100.0,OVC,3500.0,,,,
KRDR,01-20-2004,21:00,METAR,,200,16.0,,,9999.0,Snow Grains/Cloud Development Not Observable,-9.0,-10.0,30.05,1020.1,,,,77,0,0,,,,,,TRACE,,,8/8 Overcast,3400.0,,OVC,3500.0,,,,,,
KRDR,01-20-2004,20:00,METAR,,190,17.0,,,8000.0,Light Snow/Cloud Development Not Observable,-10.0,-11.0,30.06,1020.8,,,,71,0,0,,,,,,,,,8/8 Overcast,3000.0,,FEW,1000.0,BKN,3000.0,OVC,5000.0,,
KRDR,01-20-2004,19:22,SPECI,,180,17.0,,,9999.0,Light Snow/Cloud Development Not Observable,-10.0,-11.0,30.08,,,,,71,0,0,,,,,,,,,8/8 Overcast,4900.0,,OVC,5000.0,,,,,,
KRDR,01-20-2004,19:00,METAR,,180,18.0,,,9999.0,Cloud Development Not Observable,-10.0,-11.0,30.11,1022.2,,,,0,0,0,,,,,,,,,7/8 Mostly Cloudy,6500.0,,BKN,6400.0,,,,,,
KRDR,01-20-2004,18:00,METAR,,190,14.0,,,9999.0,Cloud Development Not Observable,-11.0,-12.0,30.16,1023.9,,,,0,0,0,,,,,,,,,8/8 Overcast,6000.0,,OVC,5900.0,,,,,,
KRDR,01-20-2004,17:00,METAR,,200,16.0,,,9999.0,Cloud Development Not Observable,-12.0,-13.0,30.18,1024.9,,,,0,0,0,,,,,,,,,8/8 Overcast,5500.0,,OVC,5400.0,,,,,,
KRDR,01-20-2004,16:00,METAR,,180,14.0,,,9999.0,Cloud Development Not Observable,-13.0,-13.0,30.18,1025.1,,,,0,0,0,,,,,,,,,8/8 Overcast,6000.0,,OVC,5900.0,,,,,,
KRDR,01-20-2004,15:00,METAR,,180,13.0,,,9999.0,Cloud Development Not Observable,-13.0,-13.0,30.19,1025.1,,,,0,0,0,,,,,,,,,8/8 Overcast,6000.0,,OVC,5900.0,,,,,,
KRDR,01-20-2004,14:00,METAR,,190,13.0,,,9999.0,Cloud Development Not Observable,-14.0,-14.0,30.21,1025.8,,,,0,0,0,,,,,,,,,8/8 Overcast,6500.0,,OVC,6400.0,,,,,,
KRDR,01-20-2004,13:00,METAR,,180,12.0,,,9999.0,Cloud Development Not Observable,-14.0,-14.0,30.22,1026.2,,,,0,0,0,,,,,,,,,8/8 Overcast,7000.0,,OVC,6900.0,,,,,,
KRDR,01-20-2004,12:00,METAR,,170,12.0,,,9999.0,Cloud Development Not Observable,-14.0,-14.0,30.22,1026.4,,,,0,0,0,,,,,,,.01 IN,.03 IN,8/8 Overcast,7000.0,,OVC,6900.0,,,,,,
KRDR,01-20-2004,11:00,METAR,,170,12.0,,,9999.0,Cloud Development Not Observable,-15.0,-15.0,30.23,1026.8,,,,0,0,0,,,,,,,,,8/8 Overcast,7000.0,,OVC,6900.0,,,,,,
KRDR,01-20-2004,10:26,SPECI,,160,8.0,,,9999.0,Cloud Development Not Observable,-15.0,-15.0,30.23,,,,,0,0,0,,,,,,,,,8/8 Overcast,8000.0,,OVC,7900.0,,,,,,
KRDR,01-20-2004,10:00,METAR,,160,8.0,,,9999.0,Light Snow/Cloud Development Not Observable,-15.0,-15.0,30.23,1026.8,,,,71,0,0,,,,,,,,,8/8 Overcast,8000.0,,OVC,7900.0,,,,,,
KRDR,01-20-2004,09:39,SPECI,,150,8.0,,,9999.0,Light Snow/Cloud Development Not Observable,-15.0,-15.0,30.23,,,,,71,0,0,,,,,,,,,8/8 Overcast,8000.0,,OVC,7900.0,,,,,,
KRDR,01-20-2004,09:00,METAR,,110,3.0,,,9999.0,Light Snow/Cloud Development Not Observable,-15.0,-15.0,30.24,1027.2,,,,71,0,0,,,,,,.01 IN,,,8/8 Overcast,8500.0,,OVC,8400.0,,,,,,
KRDR,01-20-2004,08:00,METAR,,120,3.0,,,9999.0,Light Snow/Cloud Development Not Observable,-16.0,-16.0,30.25,1027.6,,,,71,0,0,,,,,,,,,7/8 Mostly Cloudy,4900.0,,BKN,5000.0,,,,,,
KRDR,01-20-2004,07:00,METAR,,,4.0,,,8000.0,Light Snow/Mist/Cloud Development Not Observable,-16.0,-16.0,30.27,1028.0,,,,71,10,0,,,,,,,,,8/8 Overcast,6000.0,,SCT,4500.0,OVC,5900.0,,,,
KRDR,01-20-2004,06:00,METAR,,140,5.0,,,9999.0,Light Snow/Mist/Cloud Development Not Observable,-16.0,-16.0,30.26,1027.8,,,,71,10,0,,,,,,,.02 IN,,8/8 Overcast,3400.0,,OVC,3500.0,,,,,,
KRDR,01-20-2004,05:00,METAR,,110,6.0,,,4800.0,Light Snow/Mist/Cloud Development Not Observable,-16.0,-16.0,30.27,1028.0,,,,71,10,0,,,,,,,,,8/8 Overcast,3400.0,,OVC,3500.0,,,,,,
KRDR,01-20-2004,04:00,METAR,,120,6.0,,,6400.0,Light Snow/Cloud Development Not Observable,-16.0,-16.0,30.26,1027.9,,,,71,0,0,,,,,,,,,8/8 Overcast,3000.0,,OVC,3000.0,,,,,,
KRDR,01-20-2004,03:00,METAR,,140,7.0,,,9999.0,Light Snow/Cloud Development Not Observable,-17.0,-17.0,30.25,1027.8,,,,71,0,0,,,,,,,,,8/8 Overcast,8000.0,,OVC,7900.0,,,,,,
KRDR,01-20-2004,02:00,METAR,,140,4.0,,,9999.0,Light Snow/Cloud Development Not Observable,-17.0,-17.0,30.26,1028.0,,,,71,0,0,,,,,,,,,7/8 Mostly Cloudy,6000.0,,BKN,5900.0,,,,,,
KRDR,01-20-2004,01:00,METAR,,140,7.0,,,9999.0,Light Snow/Cloud Development Not Observable,-17.0,-17.0,30.26,1028.0,,,,71,0,0,,,,,,,,,8/8 Overcast,9000.0,,SCT,4500.0,OVC,8900.0,,,,
KRDR,01-20-2004,00:10,SPECI,,130,8.0,,,9999.0,Light Snow/Cloud Development Not Observable,-17.0,-18.0,30.27,,,,,71,0,0,,,,,,,,,8/8 Overcast,9000.0,,SCT,4500.0,OVC,8900.0,,,,
KRDR,01-20-2004,00:00,METAR,,130,8.0,,,9999.0,Cloud Development Not Observable,-17.0,-18.0,30.26,1028.0,,,,0,0,0,,,,,,,IN,,8/8 Overcast,9000.0,,SCT,4500.0,OVC,8900.0,,,,
KRDR,01-19-2004,23:19,SPECI,,130,8.0,,,9999.0,Cloud Development Not Observable,-17.0,-18.0,30.26,,,,,0,0,0,,,,,,,,,8/8 Overcast,9000.0,,OVC,8900.0,,,,,,
KRDR,01-19-2004,23:00,METAR,,130,8.0,,,9999.0,Light Snow/Cloud Development Not Observable,-17.0,-18.0,30.26,1028.0,,,,71,0,0,,,,,,,,,8/8 Overcast,7500.0,,SCT,4500.0,BKN,7400.0,OVC,12000.0,,
KRDR,01-19-2004,22:00,METAR,,140,9.0,,,9999.0,Light Snow/Cloud Development Not Observable,-17.0,-19.0,30.27,1028.1,,,,71,0,0,,,,,,,,,8/8 Overcast,7500.0,,SCT,4500.0,BKN,7400.0,OVC,12000.0,,
KRDR,01-19-2004,21:00,METAR,,140,8.0,,,9999.0,Cloud Development Not Observable,-17.0,-19.0,30.27,1028.1,,,,0,0,0,,,,,,,,,8/8 Overcast,7500.0,,SCT,4500.0,BKN,7400.0,OVC,12000.0,,
KRDR,01-19-2004,20:00,METAR,,150,8.0,,,9999.0,Cloud Development Not Observable,-18.0,-20.0,30.27,1028.4,,,,0,0,0,,,,,,,,,8/8 Overcast,7500.0,,OVC,7400.0,,,,,,
KRDR,01-19-2004,19:00,METAR,,170,9.0,,,9999.0,Cloud Development Not Observable,-18.0,-20.0,30.29,1028.9,,,,0,0,0,,,,,,,,,8/8 Overcast,7500.0,,OVC,7400.0,,,,,,
KRDR,01-19-2004,18:00,METAR,,170,8.0,,,9999.0,Cloud Development Not Observable,-19.0,-21.0,30.30,1029.4,,,,0,0,0,,,,,,,,,8/8 Overcast,7500.0,,OVC,7400.0,,,,,,
KRDR,01-19-2004,17:00,METAR,,150,10.0,,,9999.0,Cloud Development Not Observable,-20.0,-21.0,30.31,1029.9,,,,0,0,0,,,,,,,,,8/8 Overcast,7500.0,,OVC,7400.0,,,,,,
KRDR,01-19-2004,16:00,METAR,,150,8.0,,,9999.0,Cloud Development Not Observable,-20.0,-21.0,30.33,1030.5,,,,0,0,0,,,,,,,,,8/8 Overcast,8000.0,,OVC,7900.0,,,,,,
KRDR,01-19-2004,15:00,METAR,,170,9.0,,,9999.0,Cloud Development Not Observable,-21.0,-21.0,30.32,1030.3,,,,0,0,0,,,,,,,,,8/8 Overcast,8000.0,,OVC,7900.0,,,,,,
KRDR,01-19-2004,14:00,METAR,,150,7.0,,,9999.0,Cloud Development Not Observable,-21.0,-22.0,30.32,1030.4,,,,0,0,0,,,,,,,,,8/8 Overcast,9000.0,,OVC,8900.0,,,,,,
KRDR,01-19-2004,13:00,METAR,,160,9.0,,,9999.0,Cloud Development Not Observable,-21.0,-22.0,30.31,1030.0,,,,0,0,0,,,,,,,,,8/8 Overcast,9000.0,,OVC,8900.0,,,,,,
KRDR,01-19-2004,12:00,METAR,,160,6.0,,,9999.0,Cloud Development Not Observable,-22.0,-22.0,30.33,1030.6,,,,0,0,0,,,,,,,,,8/8 Overcast,9000.0,,OVC,8900.0,,,,,,
KRDR,01-19-2004,11:00,METAR,,110,6.0,,,9999.0,Cloud Development Not Observable,-22.0,-22.0,30.34,1030.9,,,,0,0,0,,,,,,,,,8/8 Overcast,9000.0,,OVC,8900.0,,,,,,
KRDR,01-19-2004,10:00,METAR,,,5.0,,,9999.0,Cloud Development Not Observable,-22.0,-22.0,30.36,1031.8,,,,0,0,0,,,,,,,,,8/8 Overcast,9000.0,,OVC,8900.0,,,,,,
KRDR,01-19-2004,09:00,METAR,,230,4.0,,,9999.0,Cloud Development Not Observable,-22.0,-22.0,30.36,1031.8,,,,0,0,0,,,,,,,,,8/8 Overcast,9000.0,,OVC,8900.0,,,,,,
KRDR,01-19-2004,08:00,METAR,,220,2.0,,,9999.0,Cloud Development Not Observable,-22.0,-22.0,30.37,1031.9,,,,0,0,0,,,,,,,,,8/8 Overcast,9000.0,,OVC,8900.0,,,,,,
KRDR,01-19-2004,07:00,METAR,,50,4.0,,,9999.0,Cloud Development Not Observable,-22.0,-23.0,30.38,1032.3,,,,0,0,0,,,,,,,,,7/8 Mostly Cloudy,9000.0,,BKN,8900.0,,,,,,
KRDR,01-19-2004,06:00,METAR,,360,5.0,,,9999.0,Cloud Development Not Observable,-22.0,-23.0,30.39,1032.6,,,,0,0,0,,,,,,,,,7/8 Mostly Cloudy,9000.0,,BKN,8900.0,,,,,,
KRDR,01-19-2004,05:00,METAR,,360,5.0,,,9999.0,Cloud Development Not Observable,-23.0,-23.0,30.40,1033.3,,,,0,0,0,,,,,,,,,8/8 Overcast,10000.0,,OVC,9900.0,,,,,,
KRDR,01-19-2004,04:00,METAR,,310,7.0,,,9999.0,Cloud Development Not Observable,-24.0,-24.0,30.41,1033.7,,,,0,0,0,,,,,,,,,7/8 Mostly Cloudy,10000.0,,BKN,9900.0,,,,,,
KRDR,01-19-2004,03:00,METAR,,350,4.0,,,9999.0,Cloud Development Not Observable,-24.0,-24.0,30.40,1033.2,,,,0,0,0,,,,,,,,,7/8 Mostly Cloudy,10000.0,,BKN,9900.0,,,,,,
KRDR,01-19-2004,02:00,METAR,,350,7.0,,,9999.0,Cloud Development Not Observable,-25.0,-25.0,30.41,1033.8,,,,0,0,0,,,,,,,,,4/8 Partly Cloudy,72000.0,,SCT,7900.0,,,,,,
KRDR,01-19-2004,01:00,METAR,,20,7.0,,,9999.0,Cloud Development Not Observable,-24.0,-24.0,30.39,1033.0,,,,0,0,0,,,,,,,,,2/8 Mostly Clear,72000.0,,FEW,25000.0,,,,,,
KRDR,01-19-2004,00:00,METAR,,360,5.0,,,9999.0,Cloud Development Not Observable,-25.0,-25.0,30.41,1033.5,,,,0,0,0,,,,,,,,,2/8 Mostly Clear,72000.0,,FEW,12000.0,,,,,,
KRDR,01-18-2004,23:00,METAR,,350,8.0,,,9999.0,Cloud Development Not Observable,-23.0,-23.0,30.42,1033.9,,,,0,0,0,,,,,,,,,2/8 Mostly Clear,72000.0,,FEW,12000.0,,,,,,
KRDR,01-18-2004,22:00,METAR,,350,9.0,,,9999.0,Cloud Development Not Observable,-22.0,-23.0,30.41,1033.6,,,,0,0,0,,,,,,,,,2/8 Mostly Clear,72000.0,,FEW,12000.0,,,,,,
KRDR,01-18-2004,21:00,METAR,,360,10.0,,,9999.0,Cloud Development Not Observable,-22.0,-22.0,30.42,1034.0,,,,0,0,0,,,,,,,,,2/8 Mostly Clear,72000.0,,FEW,12000.0,,,,,,
KRDR,01-18-2004,20:00,METAR,,340,12.0,,,9999.0,Cloud Development Not Observable,-23.0,-23.0,30.44,1034.5,,,,0,0,0,,,,,,,,,4/8 Partly Cloudy,72000.0,,SCT,12000.0,,,,,,
KRDR,01-18-2004,19:00,METAR,,340,10.0,,,9999.0,Cloud Development Not Observable,-22.0,-23.0,30.46,1034.9,,,,0,0,0,,,,,,,,,2/8 Mostly Clear,72000.0,,FEW,12000.0,,,,,,
KRDR,01-18-2004,18:00,METAR,,340,12.0,,,9999.0,Cloud Development Not Observable,-23.0,-24.0,30.47,1035.4,,,,0,0,0,,,,,,,,,2/8 Mostly Clear,72000.0,,FEW,25000.0,,,,,,
KRDR,01-18-2004,17:00,METAR,,330,12.0,,,9999.0,Cloud Development Not Observable,-24.0,-24.0,30.48,1035.9,,,,0,0,0,,,,,,,,,2/8 Mostly Clear,72000.0,,FEW,25000.0,,,,,,
KRDR,01-18-2004,16:00,METAR,,330,11.0,,,9999.0,Cloud Development Not Observable,-25.0,-25.0,30.47,1035.4,,,,0,0,0,,,,,,,,,2/8 Mostly Clear,72000.0,,FEW,25000.0,,,,,,
KRDR,01-18-2004,15:00,METAR,,330,11.0,,,9999.0,Cloud Development Not Observable,-25.0,-26.0,30.46,1035.0,,,,0,0,0,,,,,,,,,Clear,72000.0,,,73000.0,,,,,,
KRDR,01-18-2004,14:00,METAR,,320,9.0,,,9999.0,Cloud Development Not Observable,-26.0,-26.0,30.45,1034.8,,,,0,0,0,,,,,,,,,Clear,72000.0,,,73000.0,,,,,,
KRDR,01-18-2004,13:00,METAR,,320,9.0,,,9999.0,Cloud Development Not Observable,-26.0,-26.0,30.43,1034.3,,,,0,0,0,,,,,,,,,Clear,72000.0,,,73000.0,,,,,,
KRDR,01-18-2004,12:00,METAR,,330,9.0,,,9999.0,Cloud Development Not Observable,-25.0,-25.0,30.42,1033.7,,,,0,0,0,,,,,,,,,Clear,72000.0,,,73000.0,,,,,,
KRDR,01-18-2004,11:00,METAR,,330,12.0,,,9999.0,Cloud Development Not Observable,-25.0,-25.0,30.40,1032.9,,,,0,0,0,,,,,,,,,Clear,72000.0,,,73000.0,,,,,,
KRDR,01-18-2004,10:00,METAR,,340,13.0,,,9999.0,Cloud Development Not Observable,-25.0,-25.0,30.39,1032.5,,,,0,0,0,,,,,,,,,Clear,72000.0,,,73000.0,,,,,,
KRDR,01-18-2004,09:00,METAR,,340,14.0,,,9999.0,Cloud Development Not Observable,-24.0,-25.0,30.37,1031.6,,,,0,0,0,,,,,,,,,Clear,72000.0,,,73000.0,,,,,,
KRDR,01-18-2004,08:00,METAR,,340,16.0,,,9999.0,Cloud Development Not Observable,-24.0,-24.0,30.36,1031.2,,,,0,0,0,,,,,,,,,2/8 Mostly Clear,72000.0,,FEW,1400.0,,,,,,
KRDR,01-18-2004,07:00,METAR,,340,13.0,,,9999.0,Cloud Development Not Observable,-23.0,-24.0,30.35,1030.8,,,,0,0,0,,,,,,,,,2/8 Mostly Clear,72000.0,,FEW,1400.0,,,,,,
KRDR,01-18-2004,06:00,METAR,,340,16.0,,,9999.0,Cloud Development Not Observable,-23.0,-24.0,30.33,1030.0,,,,0,0,0,,,,,,,,,2/8 Mostly Clear,72000.0,,FEW,1400.0,,,,,,
KRDR,01-18-2004,05:00,METAR,,340,16.0,,,9999.0,Cloud Development Not Observable,-23.0,-24.0,30.31,1029.3,,,,0,0,0,,,,,,,,,2/8 Mostly Clear,72000.0,,FEW,1400.0,,,,,,
KRDR,01-18-2004,04:00,METAR,,350,15.0,,,9999.0,Cloud Development Not Observable,-22.0,-23.0,30.30,1028.9,,,,0,0,0,,,,,,,,,2/8 Mostly Clear,72000.0,,FEW,1300.0,,,,,,
KRDR,01-18-2004,03:00,METAR,,360,15.0,,,9999.0,Cloud Development Not Observable,-22.0,-22.0,30.29,1028.6,,,,0,0,0,,,,,,,,,2/8 Mostly Clear,72000.0,,FEW,1200.0,,,,,,
KRDR,01-18-2004,02:00,METAR,,350,16.0,,,9999.0,Cloud Development Not Observable,-20.0,-22.0,30.25,1027.5,,,,0,0,0,,,,,,,,,Clear,72000.0,,,73000.0,,,,,,
KRDR,01-18-2004,01:00,METAR,,350,12.0,,,9999.0,Cloud Development Not Observable,-20.0,-21.0,30.22,1026.5,,,,0,0,0,,,,,,,,,Clear,72000.0,,,73000.0,,,,,,
KRDR,01-18-2004,00:00,METAR,,350,11.0,,,9999.0,Cloud Development Not Observable,-19.0,-19.0,30.19,1025.2,,,,0,0,0,,,,,,,,,Clear,72000.0,,,73000.0,,,,,,
KRDR,01-17-2004,23:00,METAR,,360,13.0,,,9999.0,Cloud Development Not Observable,-18.0,-18.0,30.18,1024.5,,,,0,0,0,,,,,,,,,2/8 Mostly Clear,72000.0,,FEW,1500.0,,,,,,
KRDR,01-17-2004,22:00,METAR,,10,16.0,,,6400.0,Blowing Snow/Cloud Development Not Observable,-17.0,-17.0,30.15,1023.4,,,,38,0,0,,,,,,,,,4/8 Partly Cloudy,72000.0,,SCT,1500.0,,,,,,
KRDR,01-17-2004,21:00,METAR,,360,16.0,25.0,,8000.0,Blowing Snow/Cloud Development Not Observable,-14.0,-16.0,30.12,1022.2,,,,38,0,0,,,,,,,,,2/8 Mostly Clear,72000.0,,FEW,3000.0,,,,,,
KRDR,01-17-2004,20:00,METAR,,330,24.0,,330/30KTS,9999.0,Blowing Snow/Cloud Development Not Observable,-13.0,-15.0,30.09,1021.3,,,,38,0,0,,,,,,,,,2/8 Mostly Clear,72000.0,,FEW,3000.0,,,,,,
KRDR,01-17-2004,19:00,METAR,,330,24.0,31.0,,9999.0,Drifting Snow/Cloud Development Not Observable,-12.0,-14.0,30.07,1020.6,,,,36,0,0,,,,,,,,,2/8 Mostly Clear,72000.0,,FEW,3000.0,,,,,,
KRDR,01-17-2004,18:35,SPECI,,330,23.0,,,9999.0,Cloud Development Not Observable,-10.0,-13.0,30.07,,,,,0,0,0,,,,,,,,,4/8 Partly Cloudy,72000.0,,SCT,3000.0,,,,,,
KRDR,01-17-2004,18:00,METAR,,310,22.0,,,9999.0,Light Snow/Cloud Development Not Observable,-9.0,-10.0,30.05,1019.9,,,,71,0,0,,,,,,,IN,,7/8 Mostly Cloudy,3000.0,,BKN,3000.0,,,,,,
KRDR,01-17-2004,17:40,SPECI,,310,17.0,,,9999.0,Light Snow/Cloud Development Not Observable,-9.0,-10.0,30.06,,,,,71,0,0,,,,,,,,,7/8 Mostly Cloudy,3000.0,,BKN,3000.0,,,,,,
KRDR,01-17-2004,17:00,METAR,,280,8.0,,,9999.0,Cloud Development Not Observable,-10.0,-11.0,30.06,1020.3,,,,0,0,0,,,,,,,,,2/8 Mostly Clear,72000.0,,FEW,1500.0,,,,,,
KRDR,01-17-2004,16:00,METAR,,280,9.0,,,9999.0,Cloud Development Not Observable,-11.0,-12.0,30.08,1020.6,,,,0,0,0,,,,,,,,,4/8 Partly Cloudy,72000.0,,SCT,1500.0,,,,,,
KRDR,01-17-2004,15:45,METAR,,290,11.0,,,9999.0,Cloud Development Not Observable,-11.0,-12.0,30.07,,,,,0,0,0,,,,,,,,,4/8 Partly Cloudy,72000.0,,SCT,1500.0,,,,,,
KRDR,01-17-2004,15:00,METAR,,280,10.0,,,9999.0,Cloud Development Not Observable,-11.0,-13.0,30.08,1020.6,,,,0,0,0,,,,,,,,,7/8 Mostly Cloudy,1000.0,,BKN,1000.0,,,,,,
KRDR,01-17-2004,14:00,METAR,,310,12.0,,,9999.0,Cloud Development Not Observable,-12.0,-13.0,30.08,1020.2,,,,0,0,0,,,,,,,,,7/8 Mostly Cloudy,1100.0,,BKN,1100.0,,,,,,
KRDR,01-17-2004,13:15,SPECI,,310,17.0,,,9999.0,Cloud Development Not Observable,-12.0,-13.0,30.06,,,,,0,0,0,,,,,,,,,7/8 Mostly Cloudy,1000.0,,BKN,1000.0,,,,,,
KRDR,01-17-2004,13:00,METAR,,320,17.0,,,9999.0,Cloud Development Not Observable,-12.0,-13.0,30.06,1020.1,,,,0,0,0,,,,,,,,,4/8 Partly Cloudy,72000.0,,SCT,1000.0,,,,,,
KRDR,01-17-2004,12:02,SPECI,,310,20.0,,,9999.0,Drifting Snow/Cloud Development Not Observable,-10.0,-12.0,30.05,,,,,36,0,0,,,,,,,,,Clear,72000.0,,,73000.0,,,,,,
KRDR,01-17-2004,12:00,METAR,,310,22.0,,310/29KTS,9999.0,Cloud Development Not Observable,-10.0,-12.0,30.05,1019.6,,,,0,0,0,,,,,,,,,7/8 Mostly Cloudy,1600.0,,BKN,1600.0,,,,,,
KRDR,01-17-2004,11:00,METAR,,310,24.0,,310/27KTS,9999.0,Cloud Development Not Observable,-7.0,-8.0,30.03,1018.9,,,,0,0,0,,,,,,,,,7/8 Mostly Cloudy,1600.0,,BKN,1600.0,,,,,,
KRDR,01-17-2004,10:00,METAR,,330,13.0,,,9999.0,Cloud Development Not Observable,-6.0,-7.0,30.02,1018.4,,,,0,0,0,,,,,,,,,8/8 Overcast,1600.0,,OVC,1600.0,,,,,,
KRDR,01-17-2004,09:00,METAR,,310,19.0,,310/26KTS,9999.0,Cloud Development Not Observable,-6.0,-6.0,30.00,1017.7,,,,0,0,0,,,,,,,,,8/8 Overcast,1600.0,,OVC,1600.0,,,,,,
KRDR,01-17-2004,08:24,SPECI,,310,14.0,,,9999.0,Cloud Development Not Observable,-5.0,-5.0,29.99,,,,,0,0,0,,,,,,,,,8/8 Overcast,1500.0,,BKN,1500.0,OVC,1800.0,,,,
KRDR,01-17-2004,08:00,METAR,,300,18.0,,300/26KTS,9999.0,Cloud Development Not Observable,-5.0,-6.0,29.97,1016.7,,,,0,0,0,,,,,,,,,8/8 Overcast,1100.0,,SCT,600.0,OVC,1100.0,,,,
KRDR,01-17-2004,07:02,SPECI,,310,14.0,,,9999.0,Cloud Development Not Observable,-5.0,-6.0,29.97,,,,,0,0,0,,,,,,,,,8/8 Overcast,1300.0,,OVC,1300.0,,,,,,
KRDR,01-17-2004,07:00,METAR,,300,14.0,,,9999.0,Cloud Development Not Observable,-6.0,-6.0,29.96,1016.4,,,,0,0,0,,,,,,,,,8/8 Overcast,2200.0,,BKN,2200.0,OVC,4000.0,,,,
KRDR,01-17-2004,06:04,SPECI,,290,12.0,,,9999.0,Cloud Development Not Observable,-5.0,-6.0,29.97,,,,,0,0,0,,,,,,,,,7/8 Mostly Cloudy,2900.0,,BKN,2900.0,,,,,,
KRDR,01-17-2004,06:00,METAR,,280,7.0,,,9999.0,Cloud Development Not Observable,-6.0,-6.0,29.96,1016.4,,,,0,0,0,,,,,,,,,7/8 Mostly Cloudy,3000.0,,BKN,3000.0,,,,,,
KRDR,01-17-2004,05:20,METAR,,290,9.0,,,9999.0,Cloud Development Not Observable,-5.0,-5.0,29.95,,,,,0,0,0,,,,,,,,,4/8 Partly Cloudy,72000.0,,SCT,3800.0,,,,,,
KRDR,01-17-2004,05:00,METAR,,290,11.0,,,9999.0,Cloud Development Not Observable,-5.0,-5.0,29.96,1016.4,,,,0,0,0,,,,,,,,,8/8 Overcast,2000.0,,BKN,2000.0,OVC,2800.0,,,,
KRDR,01-17-2004,04:00,METAR,,310,12.0,,,9999.0,Mist/Cloud Development Not Observable,-4.0,-5.0,29.95,1016.2,,,,10,0,0,,,,,,,,,8/8 Overcast,1800.0,,BKN,1800.0,OVC,2400.0,,,,
KRDR,01-17-2004,03:00,METAR,,310,10.0,,,9999.0,Cloud Development Not Observable,-4.0,-5.0,29.91,1014.8,,,,0,0,0,,,,,,,,,8/8 Overcast,2000.0,,OVC,2000.0,,,,,,
KRDR,01-17-2004,02:00,METAR,,300,9.0,,,9999.0,Mist/Cloud Development Not Observable,-4.0,-4.0,29.90,1014.3,,,,10,0,0,,,,,,,,,8/8 Overcast,1600.0,,BKN,1600.0,OVC,2300.0,,,,
KRDR,01-17-2004,01:41,SPECI,,300,9.0,,,8000.0,Mist/Cloud Development Not Observable,-4.0,-4.0,29.89,,,,,10,0,0,,,,,,,,,8/8 Overcast,1500.0,,BKN,1500.0,OVC,2300.0,,,,
KRDR,01-17-2004,01:00,METAR,,260,3.0,,,8000.0,Mist/Cloud Development Not Observable,-3.0,-3.0,29.88,1013.7,,,,10,0,0,,,,,,,,,8/8 Overcast,1300.0,,BKN,1300.0,OVC,1800.0,,,,
KRDR,01-17-2004,00:45,METAR,,240,4.0,,,8000.0,Mist/Cloud Development Not Observable,-3.0,-3.0,29.88,,,,,10,0,0,,,,,,,,,8/8 Overcast,1300.0,,OVC,1300.0,,,,,,
KRDR,01-17-2004,00:28,SPECI,,210,4.0,,,8000.0,Mist/Cloud Development Not Observable,-3.0,-3.0,29.87,,,,,10,0,0,,,,,,,,,8/8 Overcast,1500.0,,OVC,1500.0,,,,,,
KRDR,01-17-2004,00:00,METAR,,190,6.0,,,8000.0,Mist/Cloud Development Not Observable,-3.0,-3.0,29.85,1012.9,,,,10,0,0,,,,,,,,,8/8 Overcast,1300.0,,OVC,1300.0,,,,,,
KRDR,01-16-2004,23:00,METAR,,170,10.0,,,9999.0,Cloud Development Not Observable,-3.0,-4.0,29.83,1012.2,,,,0,0,0,,,,,,,,,8/8 Overcast,1200.0,,OVC,1200.0,,,,,,
KRDR,01-16-2004,22:00,METAR,,180,15.0,,,9999.0,Cloud Development Not Observable,-3.0,-4.0,29.83,1012.2,,,,0,0,0,,,,,,,,,8/8 Overcast,1200.0,,OVC,1200.0,,,,,,
KRDR,01-16-2004,21:18,SPECI,,160,11.0,,,9999.0,Cloud Development Not Observable,-3.0,-4.0,29.82,,,,,0,0,0,,,,,,,,,8/8 Overcast,1100.0,,OVC,1100.0,,,,,,
KRDR,01-16-2004,21:00,METAR,,160,14.0,,,9999.0,Cloud Development Not Observable,-3.0,-4.0,29.82,1011.7,,,,0,0,0,,,,,,,,,8/8 Overcast,1500.0,,OVC,1500.0,,,,,,
KRDR,01-16-2004,20:00,METAR,,160,17.0,,,9999.0,Cloud Development Not Observable,-3.0,-5.0,29.82,1011.9,,,,0,0,0,,,,,,,,,8/8 Overcast,2000.0,,OVC,2000.0,,,,,,
KRDR,01-16-2004,19:15,SPECI,,150,12.0,,,9999.0,Cloud Development Not Observable,-4.0,-5.0,29.84,,,,,0,0,0,,,,,,,,,8/8 Overcast,2000.0,,OVC,2000.0,,,,,,
KRDR,01-16-2004,19:00,METAR,,170,15.0,,,9999.0,Cloud Development Not Observable,-4.0,-5.0,29.84,1012.6,,,,0,0,0,,,,,,,,,8/8 Overcast,6000.0,,SCT,2000.0,OVC,5900.0,,,,
KRDR,01-16-2004,18:00,METAR,,150,15.0,,,9999.0,Cloud Development Not Observable,-4.0,-6.0,29.86,1013.1,,,,0,0,0,,,,,,,,,8/8 Overcast,6000.0,,BKN,5900.0,OVC,15000.0,,,,
KRDR,01-16-2004,17:00,METAR,,150,12.0,,,9999.0,Cloud Development Not Observable,-5.0,-6.0,29.86,1013.3,,,,0,0,0,,,,,,,,,8/8 Overcast,6000.0,,OVC,5900.0,,,,,,
KRDR,01-16-2004,16:00,METAR,,140,11.0,,,9999.0,Cloud Development Not Observable,-5.0,-7.0,29.87,1013.7,,,,0,0,0,,,,,,,,,8/8 Overcast,6000.0,,OVC,5900.0,,,,,,
KRDR,01-16-2004,15:00,METAR,,140,11.0,,,9999.0,Cloud Development Not Observable,-6.0,-7.0,29.87,1013.7,,,,0,0,0,,,,,,,,,8/8 Overcast,6000.0,,OVC,5900.0,,,,,,
KRDR,01-16-2004,14:00,METAR,,140,10.0,,,9999.0,Cloud Development Not Observable,-6.0,-7.0,29.88,1013.9,,,,0,0,0,,,,,,,,,8/8 Overcast,6000.0,,OVC,5900.0,,,,,,
KRDR,01-16-2004,13:00,METAR,,130,11.0,,,9999.0,Cloud Development Not Observable,-6.0,-7.0,29.88,1013.9,,,,0,0,0,,,,,,,,,8/8 Overcast,6000.0,,OVC,5900.0,,,,,,
KRDR,01-16-2004,12:00,METAR,,120,11.0,,,9999.0,Cloud Development Not Observable,-7.0,-7.0,29.89,1014.1,,,,0,0,0,,,,,,,,,8/8 Overcast,6000.0,,OVC,5900.0,,,,,,
KRDR,01-16-2004,11:00,METAR,,130,9.0,,,9999.0,Cloud Development Not Observable,-7.0,-8.0,29.89,1014.1,,,,0,0,0,,,,,,,,,8/8 Overcast,9000.0,,BKN,8900.0,OVC,12000.0,,,,
KRDR,01-16-2004,10:00,METAR,,130,8.0,,,9999.0,Cloud Development Not Observable,-7.0,-8.0,29.90,1014.5,,,,0,0,0,,,,,,,,,8/8 Overcast,9000.0,,BKN,8900.0,OVC,12000.0,,,,
KRDR,01-16-2004,09:00,METAR,,130,6.0,,,9999.0,Cloud Development Not Observable,-7.0,-8.0,29.90,1014.5,,,,0,0,0,,,,,,,,,8/8 Overcast,10000.0,,BKN,9900.0,OVC,12000.0,,,,
KRDR,01-16-2004,08:00,METAR,,130,8.0,,,9999.0,Cloud Development Not Observable,-7.0,-8.0,29.89,1014.1,,,,0,0,0,,,,,,,,,8/8 Overcast,8000.0,,BKN,7900.0,OVC,12000.0,,,,
KRDR,01-16-2004,07:00,METAR,,130,8.0,,,9999.0,Cloud Development Not Observable,-6.0,-8.0,29.91,1014.8,,,,0,0,0,,,,,,,,,8/8 Overcast,2000.0,,OVC,2000.0,,,,,,
KRDR,01-16-2004,06:00,METAR,,130,7.0,,,9999.0,Cloud Development Not Observable,-6.0,-8.0,29.92,1015.2,,,,0,0,0,,,,,,,,,8/8 Overcast,2100.0,,OVC,2100.0,,,,,,
KRDR,01-16-2004,05:00,METAR,,130,7.0,,,9999.0,Cloud Development Not Observable,-7.0,-8.0,29.91,1014.9,,,,0,0,0,,,,,,,,,8/8 Overcast,1900.0,,OVC,1900.0,,,,,,
KRDR,01-16-2004,04:00,METAR,,120,7.0,,,9999.0,Cloud Development Not Observable,-6.0,-8.0,29.90,1014.6,,,,0,0,0,,,,,,,,,8/8 Overcast,2100.0,,OVC,2100.0,,,,,,
KRDR,01-16-2004,03:00,METAR,,120,8.0,,,9999.0,Cloud Development Not Observable,-6.0,-8.0,29.90,1014.6,,,,0,0,0,,,,,,,,,8/8 Overcast,2100.0,,OVC,2100.0,,,,,,
KRDR,01-16-2004,02:00,METAR,,110,6.0,,,9999.0,Cloud Development Not Observable,-6.0,-8.0,29.90,1014.6,,,,0,0,0,,,,,,,,,8/8 Overcast,1900.0,,OVC,1900.0,,,,,,
KRDR,01-16-2004,01:00,METAR,,120,6.0,,,9999.0,Cloud Development Not Observable,-7.0,-8.0,29.89,1014.3,,,,0,0,0,,,,,,,,,8/8 Overcast,1700.0,,OVC,1700.0,,,,,,
KRDR,01-16-2004,00:00,METAR,,100,6.0,,,9999.0,Cloud Development Not Observable,-7.0,-8.0,29.87,1014.1,,,,0,0,0,,,,,,,,,8/8 Overcast,1700.0,,OVC,1700.0,,,,,,
KRDR,01-15-2004,23:00,METAR,,90,6.0,,,9999.0,Cloud Development Not Observable,-7.0,-8.0,29.89,1014.4,,,,0,0,0,,,,,,,,,8/8 Overcast,1900.0,,OVC,1900.0,,,,,,
KRDR,01-15-2004,22:25,METAR,,100,6.0,,,9999.0,Cloud Development Not Observable,-7.0,-8.0,29.87,,,,,0,0,0,,,,,,,,,8/8 Overcast,1800.0,,OVC,1800.0,,,,,,
KRDR,01-15-2004,21:00,METAR,,140,6.0,,,9999.0,Cloud Development Not Observable,-7.0,-9.0,29.86,1013.6,,,,0,0,0,,,,,,,,,7/8 Mostly Cloudy,1200.0,,BKN,1200.0,,,,,,
KRDR,01-15-2004,20:00,METAR,,170,9.0,,,9999.0,Cloud Development Not Observable,-8.0,-9.0,29.84,1012.9,,,,0,0,0,,,,,,,,,7/8 Mostly Cloudy,1200.0,,BKN,1200.0,BKN,9900.0,,,,
KRDR,01-15-2004,19:00,METAR,,180,14.0,,,9999.0,Cloud Development Not Observable,-8.0,-10.0,29.86,1013.6,,,,0,0,0,,,,,,,,,7/8 Mostly Cloudy,1300.0,,BKN,1300.0,BKN,9900.0,,,,
KRDR,01-15-2004,18:00,METAR,,160,11.0,,,9999.0,Cloud Development Not Observable,-9.0,-10.0,29.88,1014.3,,,,0,0,0,,,,,,,,,8/8 Overcast,1200.0,,OVC,1200.0,,,,,,
KRDR,01-15-2004,17:00,METAR,,140,9.0,,,9999.0,Cloud Development Not Observable,-10.0,-11.0,29.90,1015.0,,,,0,0,0,,,,,,,,,8/8 Overcast,1200.0,,OVC,1200.0,,,,,,
KRDR,01-15-2004,16:00,METAR,,150,11.0,,,9999.0,Cloud Development Not Observable,-12.0,-12.0,29.90,1015.2,,,,0,0,0,,,,,,,,,8/8 Overcast,1200.0,,OVC,1200.0,,,,,,
KRDR,01-15-2004,15:00,METAR,,150,9.0,,,9999.0,Cloud Development Not Observable,-13.0,-13.0,29.91,1015.6,,,,0,0,0,,,,,,,,,8/8 Overcast,1100.0,,OVC,1100.0,,,,,,
KRDR,01-15-2004,14:43,SPECI,,140,10.0,,,9999.0,Cloud Development Not Observable,-13.0,-13.0,29.91,,,,,0,0,0,,,,,,,,,8/8 Overcast,1100.0,,OVC,1100.0,,,,,,
KRDR,01-15-2004,14:00,METAR,,140,9.0,,,9999.0,Cloud Development Not Observable,-13.0,-13.0,29.92,1015.8,,,,0,0,0,,,,,,,,,8/8 Overcast,1500.0,,FEW,500.0,OVC,1500.0,,,,
KRDR,01-15-2004,13:00,METAR,,130,8.0,,,9999.0,Cloud Development Not Observable,-14.0,-14.0,29.95,1016.9,,,,0,0,0,,,,,,,,,8/8 Overcast,1500.0,,FEW,500.0,OVC,1500.0,,,,
KRDR,01-15-2004,12:00,METAR,,160,11.0,,,9999.0,Cloud Development Not Observable,-15.0,-15.0,29.93,1016.2,,,,0,0,0,,,,,,,,,8/8 Overcast,1500.0,,FEW,500.0,OVC,1500.0,,,,
KRDR,01-15-2004,11:00,METAR,,140,8.0,,,9999.0,Cloud Development Not Observable,-15.0,-15.0,29.97,1017.6,,,,0,0,0,,,,,,,,,8/8 Overcast,1500.0,,OVC,1500.0,,,,,,
KRDR,01-15-2004,10:30,METAR,,160,11.0,,,9999.0,Cloud Development Not Observable,-15.0,-15.0,29.98,,,,,0,0,0,,,,,,,,,8/8 Overcast,1500.0,,BKN,1500.0,OVC,12000.0,,,,
KRDR,01-15-2004,10:00,METAR,,170,13.0,,,9999.0,Cloud Development Not Observable,-16.0,-16.0,30.00,1018.6,,,,0,0,0,,,,,,,,,8/8 Overcast,1700.0,,BKN,1700.0,OVC,12000.0,,,,
KRDR,01-15-2004,09:39,SPECI,,170,12.0,,,9999.0,Cloud Development Not Observable,-16.0,-16.0,30.00,,,,,0,0,0,,,,,,,,,8/8 Overcast,1700.0,,BKN,1700.0,OVC,12000.0,,,,
KRDR,01-15-2004,09:00,METAR,,140,11.0,,,9999.0,Cloud Development Not Observable,-17.0,-17.0,30.02,1019.4,,,,0,0,0,,,,,,,,,7/8 Mostly Cloudy,13000.0,,FEW,1200.0,BKN,13000.0,,,,
KRDR,01-15-2004,08:00,METAR,,150,11.0,,,9999.0,Cloud Development Not Observable,-17.0,-17.0,30.05,1020.5,,,,0,0,0,,,,,,,,,7/8 Mostly Cloudy,13000.0,,FEW,1500.0,BKN,13000.0,,,,
KRDR,01-15-2004,07:00,METAR,,160,11.0,,,9999.0,Cloud Development Not Observable,-16.0,-16.0,30.09,1021.9,,,,0,0,0,,,,,,,,,7/8 Mostly Cloudy,13000.0,,BKN,13000.0,,,,,,
KRDR,01-15-2004,06:00,METAR,,150,10.0,,,9999.0,Cloud Development Not Observable,-16.0,-16.0,30.11,1022.6,,,,0,0,0,,,,,,,,,7/8 Mostly Cloudy,13000.0,,BKN,13000.0,,,,,,
KRDR,01-15-2004,05:00,METAR,,150,10.0,,,9999.0,Cloud Development Not Observable,-16.0,-16.0,30.14,1023.7,,,,0,0,0,,,,,,,,,4/8 Partly Cloudy,72000.0,,SCT,13000.0,,,,,,
KRDR,01-15-2004,04:00,METAR,,140,7.0,,,9999.0,Cloud Development Not Observable,-16.0,-16.0,30.15,1024.1,,,,0,0,0,,,,,,,,,8/8 Overcast,25000.0,,SCT,9900.0,OVC,25000.0,,,,
KRDR,01-15-2004,03:00,METAR,,160,8.0,,,9999.0,Cloud Development Not Observable,-16.0,-16.0,30.16,1024.4,,,,0,0,0,,,,,,,,,8/8 Overcast,25000.0,,SCT,9900.0,OVC,25000.0,,,,
KRDR,01-15-2004,02:00,METAR,,140,4.0,,,9999.0,Cloud Development Not Observable,-18.0,-18.0,30.19,1025.5,,,,0,0,0,,,,,,,,,7/8 Mostly Cloudy,25000.0,,SCT,7900.0,BKN,25000.0,,,,
KRDR,01-15-2004,01:00,METAR,,60,7.0,,,9999.0,Cloud Development Not Observable,-16.0,-17.0,30.20,1025.8,,,,0,0,0,,,,,,,,,8/8 Overcast,25000.0,,SCT,7900.0,OVC,25000.0,,,,
KRDR,01-15-2004,00:00,METAR,,180,7.0,,,9999.0,Cloud Development Not Observable,-16.0,-17.0,30.21,1026.1,,,,0,0,0,,,,,,,,,7/8 Mostly Cloudy,25000.0,,SCT,7900.0,BKN,25000.0,,,,
KRDR,01-14-2004,23:00,METAR,,110,3.0,,,9999.0,Cloud Development Not Observable,-15.0,-16.0,30.23,1026.6,,,,0,0,0,,,,,,,,,8/8 Overcast,25000.0,,SCT,7900.0,OVC,25000.0,,,,
KRDR,01-14-2004,22:00,METAR,,310,4.0,,,9999.0,Cloud Development Not Observable,-15.0,-16.0,30.24,1026.9,,,,0,0,0,,,,,,,,,7/8 Mostly Cloudy,25000.0,,SCT,7900.0,BKN,25000.0,,,,
KRDR,01-14-2004,21:00,METAR,,330,8.0,,,9999.0,Cloud Development Not Observable,-15.0,-16.0,30.25,1027.1,,,,0,0,0,,,,,,,,,7/8 Mostly Cloudy,25000.0,,FEW,11000.0,BKN,25000.0,,,,
KRDR,01-14-2004,20:00,METAR,,320,8.0,,,9999.0,Cloud Development Not Observable,-16.0,-16.0,30.26,1027.3,,,,0,0,0,,,,,,,,,7/8 Mostly Cloudy,25000.0,,FEW,11000.0,BKN,25000.0,,,,
KRDR,01-14-2004,19:00,METAR,,310,10.0,,,9999.0,Cloud Development Not Observable,-16.0,-17.0,30.27,1027.5,,,,0,0,0,,,,,,,,,4/8 Partly Cloudy,72000.0,,SCT,11000.0,SCT,25000.0,,,,
KRDR,01-14-2004,18:00,METAR,,350,12.0,,,9999.0,Cloud Development Not Observable,-16.0,-16.0,30.27,1027.6,,,,0,0,0,,,,,,,,,4/8 Partly Cloudy,72000.0,,SCT,11000.0,,,,,,
KRDR,01-14-2004,17:00,METAR,,340,15.0,,,9999.0,Cloud Development Not Observable,-17.0,-17.0,30.28,1027.9,,,,0,0,0,,,,,,,,,7/8 Mostly Cloudy,11000.0,,BKN,11000.0,,,,,,
KRDR,01-14-2004,16:00,METAR,,350,15.0,,,9999.0,Cloud Development Not Observable,-17.0,-17.0,30.25,1027.0,,,,0,0,0,,,,,,,,,7/8 Mostly Cloudy,11000.0,,BKN,11000.0,,,,,,
KRDR,01-14-2004,15:00,METAR,,340,13.0,,,9999.0,Cloud Development Not Observable,-18.0,-18.0,30.21,1025.7,,,,0,0,0,,,,,,,,,Clear,72000.0,,,73000.0,,,,,,
KRDR,01-14-2004,14:00,METAR,,340,16.0,,,6400.0,Blowing Snow/Cloud Development Not Observable,-18.0,-18.0,30.18,1024.7,,,,38,0,0,,,,,,,,,Clear,72000.0,,,73000.0,,,,,,
KRDR,01-14-2004,13:00,METAR,,350,20.0,,,4800.0,Blowing Snow/Cloud Development Not Observable,-17.0,-17.0,30.13,1023.1,,,,38,0,0,,,,,,,,,Clear,72000.0,,,73000.0,,,,,,
KRDR,01-14-2004,12:00,METAR,,350,19.0,,350/28KTS,4800.0,Blowing Snow/Cloud Development Not Observable,-16.0,-16.0,30.09,1021.5,,,,38,0,0,,,,,,,.02 IN,.02 IN,Clear,72000.0,,,73000.0,,,,,,
KRDR,01-14-2004,11:39,SPECI,,350,19.0,,,4800.0,Blowing Snow/Cloud Development Not Observable,-16.0,-16.0,30.06,,,,,38,0,0,,,,,,,,,Clear,72000.0,,,73000.0,,,,,,
KRDR,01-14-2004,11:20,METAR,,350,23.0,28.0,,3200.0,Blowing Snow/Cloud Development Not Observable,-15.0,-15.0,30.05,,,,,38,0,0,,,,,,,,,2/8 Mostly Clear,72000.0,,FEW,1200.0,,,,,,
KRDR,01-14-2004,11:00,METAR,,340,21.0,27.0,,2400.0,Blowing Snow/Cloud Development Not Observable,-14.0,-14.0,30.03,1019.5,,,,38,0,0,,,,,,,,,2/8 Mostly Clear,72000.0,,FEW,1200.0,,,,,,
KRDR,01-14-2004,10:45,METAR,,350,22.0,27.0,,2400.0,Blowing Snow/Cloud Development Not Observable,-14.0,-14.0,30.02,,,,,38,0,0,,,,,,,,,2/8 Mostly Clear,72000.0,,FEW,1200.0,,,,,,
KRDR,01-14-2004,10:02,SPECI,,350,22.0,,,4000.0,Blowing Snow/Cloud Development Not Observable,-13.0,-13.0,29.98,,,,,38,0,0,,,,,,,,,4/8 Partly Cloudy,72000.0,,FEW,1200.0,SCT,5000.0,,,,
KRDR,01-14-2004,10:00,METAR,,350,21.0,,,4800.0,Light Snow/Blowing Snow/Cloud Development Not Observable,-12.0,-12.0,29.96,1017.2,,,,71,38,0,,,,,,,,,7/8 Mostly Cloudy,6000.0,,SCT,1200.0,BKN,5900.0,,,,
KRDR,01-14-2004,09:00,METAR,,350,20.0,,360/26KTS,4000.0,Light Snow/Blowing Snow/Cloud Development Not Observable,-11.0,-11.0,29.89,1014.4,,,,71,38,0,,,,,,.02 IN,,,7/8 Mostly Cloudy,2000.0,,SCT,1200.0,BKN,2000.0,,,,
KRDR,01-14-2004,08:24,SPECI,,350,18.0,,,4800.0,Light Snow/Cloud Development Not Observable,-10.0,-10.0,29.86,,,,,71,0,0,,,,,,,,,8/8 Overcast,1600.0,,SCT,1200.0,OVC,1600.0,,,,
KRDR,01-14-2004,08:00,METAR,,360,15.0,,,4800.0,Light Snow/Cloud Development Not Observable,-9.0,-9.0,29.80,1011.5,,,,71,0,0,,,,,,,,,8/8 Overcast,1000.0,,OVC,1000.0,,,,,,
KRDR,01-14-2004,07:00,METAR,,30,10.0,,,4800.0,Snow Grains/Cloud Development Not Observable,-8.0,-8.0,29.74,1009.5,,,,77,0,0,,,,,,,,,8/8 Overcast,1000.0,,OVC,1000.0,,,,,,
KRDR,01-14-2004,06:40,SPECI,,30,10.0,,,9999.0,Light Snow/Cloud Development Not Observable,-8.0,-8.0,29.77,,,,,71,0,0,,,,,,,,,8/8 Overcast,1100.0,,OVC,1100.0,,,,,,
KRDR,01-14-2004,06:00,METAR,,30,8.0,,,9999.0,Cloud Development Not Observable,-7.0,-7.0,29.72,1008.8,,,,0,0,0,,,,,,,IN,,8/8 Overcast,1600.0,,OVC,1600.0,,,,,,
KRDR,01-14-2004,05:00,METAR,,170,12.0,,,9999.0,Cloud Development Not Observable,-7.0,-7.0,29.74,1009.4,,,,0,0,0,,,,,,,,,8/8 Overcast,1800.0,,OVC,1800.0,,,,,,
KRDR,01-14-2004,04:23,SPECI,,160,11.0,,,9999.0,Light Snow/Cloud Development Not Observable,-8.0,-8.0,29.77,,,,,71,0,0,,,,,,,,,8/8 Overcast,2000.0,,FEW,1200.0,OVC,2000.0,,,,
KRDR,01-14-2004,04:00,METAR,,170,13.0,,,4800.0,Light Snow/Cloud Development Not Observable,-8.0,-8.0,29.78,1011.0,,,,71,0,0,,,,,,,,,8/8 Overcast,1000.0,,OVC,1000.0,,,,,,
KRDR,01-14-2004,03:00,METAR,,160,13.0,20.0,,9999.0,Light Snow/Cloud Development Not Observable,-9.0,-10.0,29.85,1013.6,,,,71,0,0,,,,,,TRACE,,,8/8 Overcast,1300.0,,OVC,1300.0,,,,,,
KRDR,01-14-2004,02:00,METAR,,160,18.0,,,9999.0,Light Snow/Cloud Development Not Observable,-10.0,-11.0,29.90,1014.8,,,,71,0,0,,,,,,,,,8/8 Overcast,1400.0,,OVC,1400.0,,,,,,
KRDR,01-14-2004,01:40,SPECI,,140,14.0,,,9999.0,Light Snow/Cloud Development Not Observable,-11.0,-11.0,29.92,,,,,71,0,0,,,,,,,,,8/8 Overcast,1200.0,,OVC,1200.0,,,,,,
KRDR,01-14-2004,01:00,METAR,,150,13.0,,,9999.0,Light Snow/Cloud Development Not Observable,-12.0,-13.0,30.00,1018.8,,,,71,0,0,,,,,,,,,8/8 Overcast,1200.0,,OVC,1200.0,,,,,,
KRDR,01-14-2004,00:25,METAR,,150,13.0,,,9999.0,Light Snow/Cloud Development Not Observable,-12.0,-12.0,30.04,,,,,71,0,0,,,,,,,,,8/8 Overcast,1200.0,,OVC,1200.0,,,,,,
KRDR,01-14-2004,00:00,METAR,,140,14.0,,,9999.0,Cloud Development Not Observable,-12.0,-13.0,30.07,1021.1,,,,0,0,0,,,,,,,IN,,8/8 Overcast,1200.0,,OVC,1200.0,,,,,,
KRDR,01-13-2004,23:19,SPECI,,140,15.0,,,9999.0,Cloud Development Not Observable,-13.0,-13.0,30.09,,,,,0,0,0,,,,,,,,,8/8 Overcast,1200.0,,OVC,1200.0,,,,,,
KRDR,01-13-2004,23:00,METAR,,150,14.0,,,9999.0,Cloud Development Not Observable,-13.0,-13.0,30.13,1023.3,,,,0,0,0,,,,,,,,,8/8 Overcast,1500.0,,OVC,1500.0,,,,,,
KRDR,01-13-2004,22:00,METAR,,160,14.0,,,9999.0,Cloud Development Not Observable,-13.0,-14.0,30.19,1025.0,,,,0,0,0,,,,,,,,,8/8 Overcast,1500.0,,OVC,1500.0,,,,,,
KRDR,01-13-2004,21:41,SPECI,,150,12.0,,,9999.0,Cloud Development Not Observable,-13.0,-14.0,30.20,,,,,0,0,0,,,,,,,,,8/8 Overcast,2000.0,,OVC,2000.0,,,,,,
KRDR,01-13-2004,21:00,METAR,,150,12.0,,,9999.0,Light Snow/Cloud Development Not Observable,-12.0,-14.0,30.24,1026.8,,,,71,0,0,,,,,,,,,8/8 Overcast,2000.0,,OVC,2000.0,,,,,,
KRDR,01-13-2004,20:00,METAR,,150,12.0,,,9999.0,Cloud Development Not Observable,-13.0,-14.0,30.27,1027.7,,,,0,0,0,,,,,,,,,7/8 Mostly Cloudy,2500.0,,BKN,2500.0,,,,,,
KRDR,01-13-2004,19:11,SPECI,,160,11.0,,,9999.0,Cloud Development Not Observable,-13.0,-14.0,30.32,,,,,0,0,0,,,,,,,,,7/8 Mostly Cloudy,2500.0,,BKN,2500.0,,,,,,
KRDR,01-13-2004,19:00,METAR,,150,13.0,,,9999.0,Cloud Development Not Observable,-14.0,-15.0,30.34,1030.3,,,,0,0,0,,,,,,,,,4/8 Partly Cloudy,72000.0,,SCT,2700.0,,,,,,
KRDR,01-13-2004,18:00,METAR,,140,9.0,,,9999.0,Cloud Development Not Observable,-15.0,-15.0,30.38,1031.5,,,,0,0,0,,,,,,,,,2/8 Mostly Clear,72000.0,,FEW,2000.0,,,,,,
KRDR,01-13-2004,16:00,METAR,,,6.0,,,9999.0,Cloud Development Not Observable,-17.0,-17.0,30.44,1033.5,,,,0,0,0,,,,,,,,,2/8 Mostly Clear,72000.0,,FEW,2000.0,,,,,,
KRDR,01-13-2004,15:00,METAR,,200,4.0,,,9999.0,Cloud Development Not Observable,-20.0,-20.0,30.44,1033.6,,,,0,0,0,,,,,,,,,4/8 Partly Cloudy,72000.0,,FEW,2000.0,SCT,25000.0,,,,
KRDR,01-13-2004,14:00,METAR,,,5.0,,,9999.0,Cloud Development Not Observable,-21.0,-21.0,30.45,1034.0,,,,0,0,0,,,,,,,,,2/8 Mostly Clear,72000.0,,FEW,2000.0,,,,,,
KRDR,01-13-2004,13:00,METAR,,350,4.0,,,9999.0,Cloud Development Not Observable,-19.0,-19.0,30.44,1033.6,,,,0,0,0,,,,,,,,,Clear,72000.0,,,73000.0,,,,,,
KRDR,01-13-2004,12:00,METAR,,340,4.0,,,9999.0,Cloud Development Not Observable,-19.0,-19.0,30.46,1033.9,,,,0,0,0,,,,,,,,,Clear,72000.0,,,73000.0,,,,,,
KRDR,01-13-2004,11:00,METAR,,270,3.0,,,9999.0,Cloud Development Not Observable,-19.0,-19.0,30.44,1033.5,,,,0,0,0,,,,,,,,,Clear,72000.0,,,73000.0,,,,,,
KRDR,01-13-2004,10:00,METAR,,350,5.0,,,9999.0,Cloud Development Not Observable,-17.0,-17.0,30.44,1033.2,,,,0,0,0,,,,,,,,,Clear,72000.0,,,73000.0,,,,,,
KRDR,01-13-2004,09:00,METAR,,340,6.0,,,9999.0,Cloud Development Not Observable,-17.0,-17.0,30.44,1033.2,,,,0,0,0,,,,,,,,,Clear,72000.0,,,73000.0,,,,,,
KRDR,01-13-2004,08:00,METAR,,340,5.0,,,9999.0,Cloud Development Not Observable,-16.0,-16.0,30.42,1032.4,,,,0,0,0,,,,,,,,,Clear,72000.0,,,73000.0,,,,,,
KRDR,01-13-2004,07:00,METAR,,310,6.0,,,9999.0,Cloud Development Not Observable,-15.0,-15.0,30.40,1031.9,,,,0,0,0,,,,,,,,,Clear,72000.0,,,73000.0,,,,,,
KRDR,01-13-2004,06:00,METAR,,330,8.0,,,9999.0,Cloud Development Not Observable,-13.0,-14.0,30.39,1031.4,,,,0,0,0,,,,,,,IN,,Clear,72000.0,,,73000.0,,,,,,
KRDR,01-13-2004,05:00,METAR,,350,13.0,,,9999.0,Cloud Development Not Observable,-11.0,-12.0,30.36,1030.3,,,,0,0,0,,,,,,,,,4/8 Partly Cloudy,72000.0,,SCT,3500.0,,,,,,
KRDR,01-13-2004,04:00,METAR,,350,20.0,,,9999.0,Cloud Development Not Observable,-8.0,-11.0,30.33,1029.2,,,,0,0,0,,,,,,,,,8/8 Overcast,3400.0,,OVC,3500.0,,,,,,
KRDR,01-13-2004,03:48,SPECI,,360,17.0,,,9999.0,Cloud Development Not Observable,-9.0,-11.0,30.33,,,,,0,0,0,,,,,,,,,8/8 Overcast,3400.0,,OVC,3500.0,,,,,,
KRDR,01-13-2004,03:17,SPECI,,360,19.0,25.0,,9999.0,Light Snow/Mist/Cloud Development Not Observable,-9.0,-10.0,30.31,,,,,71,10,0,,,,,,,,,8/8 Overcast,3000.0,,OVC,3000.0,,,,,,
KRDR,01-13-2004,03:00,METAR,,350,25.0,,,9999.0,Cloud Development Not Observable,-8.0,-9.0,30.30,1028.2,,,,0,0,0,,,,,,TRACE,,,8/8 Overcast,2600.0,,BKN,2600.0,OVC,3500.0,,,,
KRDR,01-13-2004,02:47,SPECI,,360,21.0,28.0,,9999.0,Light Snow/Mist/Cloud Development Not Observable,-8.0,-10.0,30.30,,,,,71,10,0,,,,,,,,,8/8 Overcast,2600.0,,BKN,2600.0,OVC,3000.0,,,,
KRDR,01-13-2004,02:00,METAR,,350,15.0,,,9999.0,Cloud Development Not Observable,-7.0,-8.0,30.28,1027.4,,,,0,0,0,,,,,,,,,8/8 Overcast,2400.0,,BKN,2400.0,OVC,3000.0,,,,
KRDR,01-13-2004,01:38,SPECI,,360,15.0,,,9999.0,Cloud Development Not Observable,-7.0,-8.0,30.27,,,,,0,0,0,,,,,,,,,8/8 Overcast,2200.0,,BKN,2200.0,OVC,3000.0,,,,
KRDR,01-13-2004,01:00,METAR,,350,18.0,,,9999.0,Light Snow/Cloud Development Not Observable,-6.0,-8.0,30.24,1026.0,,,,71,0,0,,,,,,,,,8/8 Overcast,2100.0,,BKN,2100.0,OVC,3000.0,,,,
KRDR,01-13-2004,00:28,SPECI,,360,17.0,22.0,,9999.0,Light Snow/Mist/Cloud Development Not Observable,-6.0,-7.0,30.21,,,,,71,10,0,,,,,,,,,8/8 Overcast,2000.0,,BKN,2000.0,OVC,3000.0,,,,
KRDR,01-13-2004,00:00,METAR,,320,15.0,,,8000.0,Light Snow/Mist/Cloud Development Not Observable,-4.0,-5.0,30.18,1024.0,,,,71,10,0,,,,,,,IN,,8/8 Overcast,1400.0,,BKN,1400.0,OVC,3000.0,,,,
KRDR,01-12-2004,23:00,METAR,,320,13.0,18.0,,8000.0,Light Snow/Mist/Cloud Development Not Observable,-1.0,-2.0,30.13,1022.1,,,,71,10,0,,,,,,,,,8/8 Overcast,1400.0,,BKN,1400.0,OVC,3800.0,,,,
KRDR,01-12-2004,22:00,METAR,,270,12.0,17.0,,9999.0,Cloud Development Not Observable,-1.0,-2.0,30.10,1021.1,,,,0,0,0,,,,,,,,,8/8 Overcast,72000.0,,SCT,1400.0,SCT,1400.0,,,,
KRDR,01-12-2004,21:00,METAR,,270,17.0,22.0,,9999.0,Cloud Development Not Observable,-1.0,-2.0,30.08,1020.1,,,,0,0,0,,,,,,,,,8/8 Overcast,300.0,,OVC,300.0,,,,,,
KRDR,01-12-2004,20:15,SPECI,,280,14.0,,,9999.0,Cloud Development Not Observable,-1.0,-3.0,30.07,,,,,0,0,0,,,,,,,,,8/8 Overcast,3400.0,,OVC,3500.0,,,,,,
KRDR,01-12-2004,20:00,METAR,,280,15.0,,,9999.0,Cloud Development Not Observable,-1.0,-3.0,30.08,1020.3,,,,0,0,0,,,,,,,,,8/8 Overcast,2900.0,,OVC,2900.0,,,,,,
KRDR,01-12-2004,19:00,METAR,,280,13.0,,,9999.0,Cloud Development Not Observable,-2.0,-3.0,30.09,1020.7,,,,0,0,0,,,,,,,,,8/8 Overcast,2900.0,,OVC,2900.0,,,,,,
KRDR,01-12-2004,18:00,METAR,,,5.0,,,9999.0,Cloud Development Not Observable,-4.0,-4.0,30.10,1021.2,,,,0,0,0,,,,,,,IN,,8/8 Overcast,2900.0,,OVC,2900.0,,,,,,
KRDR,01-12-2004,17:00,METAR,,220,6.0,,,9999.0,Cloud Development Not Observable,-5.0,-5.0,30.12,1021.9,,,,0,0,0,,,,,,,,,8/8 Overcast,2800.0,,OVC,2800.0,,,,,,
KRDR,01-12-2004,16:00,METAR,,340,4.0,,,9999.0,Cloud Development Not Observable,-6.0,-6.0,30.12,1022.0,,,,0,0,0,,,,,,,,,8/8 Overcast,2700.0,,OVC,2700.0,,,,,,
KRDR,01-12-2004,15:00,METAR,,350,6.0,,,9999.0,Cloud Development Not Observable,-5.0,-5.0,30.11,1021.8,,,,0,0,0,,,,,,TRACE,,,8/8 Overcast,2400.0,,OVC,2400.0,,,,,,
KRDR,01-12-2004,14:00,METAR,,10,6.0,,,9999.0,Cloud Development Not Observable,-5.0,-5.0,30.08,1020.8,,,,0,0,0,,,,,,,,,8/8 Overcast,2500.0,,OVC,2500.0,,,,,,
KRDR,01-12-2004,13:00,METAR,,340,10.0,,,9999.0,Cloud Development Not Observable,-3.0,-4.0,30.05,1019.6,,,,0,0,0,,,,,,,,,8/8 Overcast,2500.0,,OVC,2500.0,,,,,,
KRDR,01-12-2004,12:21,SPECI,,310,11.0,,,9999.0,Cloud Development Not Observable,-3.0,-4.0,30.03,,,,,0,0,0,,,,,,,,,8/8 Overcast,2600.0,,OVC,2600.0,,,,,,
KRDR,01-12-2004,12:00,METAR,,310,15.0,,300/25KTS,9999.0,Light Snow/Cloud Development Not Observable,-2.0,-4.0,30.02,1018.7,,,,71,0,0,,,,,,,IN,.01 IN,8/8 Overcast,2100.0,,OVC,2100.0,,,,,,
KRDR,01-12-2004,11:42,SPECI,,310,16.0,,,9999.0,Light Snow/Cloud Development Not Observable,-2.0,-4.0,30.03,,,,,71,0,0,,,,,,,,,8/8 Overcast,2100.0,,OVC,2100.0,,,,,,
KRDR,01-12-2004,11:00,METAR,,300,18.0,,,9999.0,Cloud Development Not Observable,-2.0,-4.0,30.02,1018.7,,,,0,0,0,,,,,,,,,8/8 Overcast,2500.0,,OVC,2500.0,,,,,,
KRDR,01-12-2004,10:14,SPECI,,280,16.0,,,9999.0,Cloud Development Not Observable,-3.0,-4.0,30.02,,,,,0,0,0,,,,,,,,,8/8 Overcast,2200.0,,OVC,2200.0,,,,,,
KRDR,01-12-2004,10:00,METAR,,290,15.0,,,9999.0,Cloud Development Not Observable,-3.0,-4.0,30.01,1018.2,,,,0,0,0,,,,,,,,,8/8 Overcast,3400.0,,SCT,2500.0,OVC,3500.0,,,,
KRDR,01-12-2004,09:00,METAR,,270,10.0,,,9999.0,Cloud Development Not Observable,-6.0,-6.0,30.00,1018.1,,,,0,0,0,,,,,,TRACE,,,,,,SCT,7900.0,,,,,,
KRDR,01-12-2004,08:07,SPECI,,270,15.0,,,9999.0,Cloud Development Not Observable,-5.0,-5.0,30.00,,,,,0,0,0,,,,,,,,,8/8 Overcast,3200.0,,FEW,1500.0,OVC,3300.0,,,,
KRDR,01-12-2004,08:00,METAR,,270,13.0,,,9999.0,Light Snow/Cloud Development Not Observable,-5.0,-5.0,30.00,1018.1,,,,71,0,0,,,,,,,,,8/8 Overcast,3100.0,,SCT,1500.0,OVC,3100.0,,,,
KRDR,01-12-2004,07:00,METAR,,250,11.0,,,8000.0,Light Snow/Cloud Development Not Observable,-7.0,-7.0,30.01,1018.3,,,,71,0,0,,,,,,,,,8/8 Overcast,3400.0,,SCT,1500.0,OVC,3500.0,,,,
KRDR,01-12-2004,06:00,METAR,,250,8.0,,,9999.0,Cloud Development Not Observable,-8.0,-8.0,30.02,1018.7,,,,0,0,0,,,,,,,IN,,7/8 Mostly Cloudy,4900.0,,FEW,2500.0,SCT,5000.0,BKN,11000.0,,
KRDR,01-12-2004,05:00,METAR,,230,9.0,,,9999.0,Cloud Development Not Observable,-8.0,-9.0,30.03,1019.1,,,,0,0,0,,,,,,,,,8/8 Overcast,11000.0,,SCT,5000.0,OVC,11000.0,,,,
KRDR,01-12-2004,04:45,METAR,,240,8.0,,,9999.0,Cloud Development Not Observable,-8.0,-9.0,30.04,,,,,0,0,0,,,,,,,,,7/8 Mostly Cloudy,9000.0,,SCT,5000.0,BKN,8900.0,,,,
KRDR,01-12-2004,04:00,METAR,,250,8.0,,,9999.0,Light Snow/Cloud Development Not Observable,-8.0,-9.0,30.04,1019.6,,,,71,0,0,,,,,,,,,7/8 Mostly Cloudy,9000.0,,SCT,5000.0,BKN,8900.0,,,,
KRDR,01-12-2004,03:44,SPECI,,250,9.0,,,8000.0,Light Snow/Cloud Development Not Observable,-8.0,-9.0,30.04,,,,,71,0,0,,,,,,,,,8/8 Overcast,4900.0,,BKN,5000.0,OVC,8900.0,,,,
KRDR,01-12-2004,03:00,METAR,,230,6.0,,,9999.0,Cloud Development Not Observable,-9.0,-9.0,30.04,1019.5,,,,0,0,0,,,,,,,,,8/8 Overcast,9000.0,,OVC,8900.0,,,,,,
KRDR,01-12-2004,02:00,METAR,,270,6.0,,,9999.0,Cloud Development Not Observable,-9.0,-10.0,30.05,1019.8,,,,0,0,0,,,,,,,,,8/8 Overcast,4400.0,,OVC,4500.0,,,,,,
KRDR,01-12-2004,01:00,METAR,,300,8.0,,,9999.0,Cloud Development Not Observable,-9.0,-10.0,30.05,1019.8,,,,0,0,0,,,,,,,,,4/8 Partly Cloudy,72000.0,,SCT,11000.0,,,,,,
KRDR,01-12-2004,00:00,METAR,,300,11.0,,,9999.0,Cloud Development Not Observable,-9.0,-9.0,30.05,1019.8,,,,0,0,0,,,,,,,IN,,7/8 Mostly Cloudy,10000.0,,BKN,9900.0,,,,,,
KRDR,01-11-2004,23:00,METAR,,310,13.0,,,9999.0,Drifting Snow/Cloud Development Not Observable,-8.0,-8.0,30.02,1018.8,,,,36,0,0,,,,,,,,,7/8 Mostly Cloudy,8000.0,,FEW,1000.0,BKN,7900.0,,,,
KRDR,01-11-2004,22:14,SPECI,,330,12.0,,,9999.0,Drifting Snow/Cloud Development Not Observable,-8.0,-8.0,30.00,,,,,36,0,0,,,,,,,,,7/8 Mostly Cloudy,8000.0,,FEW,800.0,BKN,7900.0,,,,
KRDR,01-11-2004,22:00,METAR,,330,14.0,,,9999.0,Light Snow/Drifting Snow/Mist,-8.0,-8.0,29.99,1017.7,,,,71,36,10,,,,,,,,,8/8 Overcast,8000.0,,FEW,800.0,OVC,7900.0,,,,
KRDR,01-11-2004,21:00,METAR,,330,15.0,,,3200.0,Light Snow/Drifting Snow/Mist,-8.0,-8.0,29.96,1016.6,,,,71,36,10,,,,,,TRACE,,,8/8 Overcast,4900.0,,SCT,1100.0,OVC,5000.0,,,,
KRDR,01-11-2004,20:29,SPECI,,330,17.0,,,3200.0,Light Snow/Drifting Snow/Mist,-8.0,-8.0,29.94,,,,,71,36,10,,,,,,,,,7/8 Mostly Cloudy,4400.0,,SCT,1100.0,BKN,4500.0,,,,
KRDR,01-11-2004,20:00,METAR,,330,18.0,,,2600.0,Light Snow/Drifting Snow/Mist,-8.0,-8.0,29.92,1015.2,,,,71,36,10,,,,,,,,,8/8 Overcast,1100.0,,OVC,1100.0,,,,,,
KRDR,01-11-2004,19:31,SPECI,,340,17.0,,,3200.0,Light Snow/Drifting Snow/Mist,-8.0,-8.0,29.91,,,,,71,36,10,,,,,,,,,8/8 Overcast,1600.0,,OVC,1600.0,,,,,,
KRDR,01-11-2004,19:00,METAR,,330,18.0,,,8000.0,Drifting Snow/Mist/Cloud Development Not Observable,-8.0,-8.0,29.89,1014.2,,,,36,10,0,,,,,,,,,8/8 Overcast,3500.0,,FEW,1000.0,OVC,3600.0,,,,
KRDR,01-11-2004,18:34,SPECI,,340,18.0,,,4800.0,Drifting Snow/Mist/Cloud Development Not Observable,-7.0,-7.0,29.88,,,,,36,10,0,,,,,,,,,8/8 Overcast,3500.0,,FEW,1000.0,OVC,3600.0,,,,
KRDR,01-11-2004,18:08,SPECI,,330,16.0,,,3200.0,Drifting Snow/Mist/Cloud Development Not Observable,-7.0,-7.0,29.87,,,,,36,10,0,,,,,,,,,8/8 Overcast,3700.0,,OVC,3800.0,,,,,,
KRDR,01-11-2004,18:00,METAR,,340,17.0,,,1600.0,Snow Grains/Mist/Cloud Development Not Observable,-7.0,-7.0,29.87,1013.8,,,,77,10,0,,,,,,,.01 IN,,8/8 Overcast,1200.0,,OVC,1200.0,,,,,,
KRDR,01-11-2004,17:35,SPECI,,330,18.0,,,1600.0,Light Snow/Drifting Snow/Mist,-8.0,-8.0,29.87,,,,,71,36,10,,,,,,,,,8/8 Overcast,1000.0,,OVC,1000.0,,,,,,
KRDR,01-11-2004,17:18,SPECI,,320,17.0,,,3200.0,Light Snow/Mist/Cloud Development Not Observable,-8.0,-8.0,29.85,,,,,71,10,0,,,,,,,,,8/8 Overcast,1000.0,,OVC,1000.0,,,,,,
KRDR,01-11-2004,17:09,SPECI,,320,17.0,,,3200.0,Mist/Cloud Development Not Observable,-8.0,-8.0,29.85,,,,,10,0,0,,,,,,,,,8/8 Overcast,1000.0,,OVC,1000.0,,,,,,
KRDR,01-11-2004,17:00,METAR,,330,16.0,,,1600.0,Snow Grains/Mist/Cloud Development Not Observable,-8.0,-8.0,29.84,1012.7,,,,77,10,0,,,,,,,,,Sky Obscured (Unable to Estimate),300.0,100.0,,300.0,,,,,,
KRDR,01-11-2004,16:10,SPECI,,330,14.0,,,1600.0,Snow Grains/Light Snow/Mist,-8.0,-8.0,29.83,,,,,77,71,10,,,,,,,,,Sky Obscured (Unable to Estimate),300.0,100.0,,300.0,,,,,,
KRDR,01-11-2004,16:00,METAR,,330,13.0,,,1200.0,Cloud Development Not Observable,-8.0,-8.0,29.82,1012.0,,,,0,0,0,,,,,,,,,,72000.0,,,,,,,,,
KRDR,01-11-2004,15:01,SPECI,,340,13.0,,,1000.0,Cloud Development Not Observable,-5.0,-5.0,29.78,,,,,0,0,0,,,,,,,,,,72000.0,,,,,,,,,
KRDR,01-11-2004,15:00,METAR,,340,10.0,,,1000.0,Cloud Development Not Observable,-5.0,-5.0,29.78,1010.5,,,,0,0,0,,,,,,,,,,72000.0,,,,,,,,,
KRDR,01-11-2004,14:00,METAR,,330,9.0,,,1000.0,Cloud Development Not Observable,-8.0,-8.0,29.76,1009.9,,,,0,0,0,,,,,,,,,,72000.0,,,,,,,,,
KRDR,01-11-2004,13:39,SPECI,,330,9.0,,,1000.0,Cloud Development Not Observable,-8.0,-8.0,29.75,,,,,0,0,0,,,,,,,,,,72000.0,,,,,,,,,
KRDR,01-11-2004,13:00,METAR,,310,8.0,,,1000.0,Cloud Development Not Observable,-8.0,-8.0,29.75,1009.6,,,,0,0,0,,,,,,,,,,72000.0,,,,,,,,,
KRDR,01-11-2004,12:00,METAR,,330,10.0,,,1600.0,Mist/Cloud Development Not Observable,-8.0,-8.0,29.76,1009.7,,,,10,0,0,,,,,,,,,Sky Obscured (Unable to Estimate),600.0,100.0,,600.0,,,,,,
KRDR,01-11-2004,11:00,METAR,,310,8.0,,,4000.0,Mist/Cloud Development Not Observable,-8.0,-8.0,29.77,1010.2,,,,10,0,0,,,,,,,,,8/8 Overcast,1200.0,,OVC,1200.0,,,,,,
KRDR,01-11-2004,10:40,SPECI,,320,7.0,,,4000.0,Mist/Cloud Development Not Observable,-8.0,-8.0,29.77,,,,,10,0,0,,,,,,,,,8/8 Overcast,1200.0,,OVC,1200.0,,,,,,
KRDR,01-11-2004,10:00,METAR,,320,8.0,,,9999.0,Mist/Cloud Development Not Observable,-8.0,-8.0,29.78,1010.3,,,,10,0,0,,,,,,,,,8/8 Overcast,1200.0,,BKN,1200.0,OVC,6900.0,,,,
KRDR,01-11-2004,09:00,METAR,,320,7.0,,,9999.0,Cloud Development Not Observable,-8.0,-8.0,29.80,1011.2,,,,0,0,0,,,,,,,,,8/8 Overcast,1200.0,,BKN,1200.0,OVC,6900.0,,,,
KRDR,01-11-2004,08:00,METAR,,330,9.0,,,9999.0,Cloud Development Not Observable,-8.0,-8.0,29.80,1011.2,,,,0,0,0,,,,,,,,,8/8 Overcast,7000.0,,SCT,1200.0,OVC,6900.0,,,,
KRDR,01-11-2004,07:00,METAR,,340,9.0,,,9999.0,Cloud Development Not Observable,-8.0,-8.0,29.82,1011.9,,,,0,0,0,,,,,,,,,8/8 Overcast,7000.0,,SCT,1200.0,OVC,6900.0,,,,
KRDR,01-11-2004,06:00,METAR,,340,11.0,,,9999.0,Cloud Development Not Observable,-7.0,-7.0,29.83,1012.1,,,,0,0,0,,,,,,,,,8/8 Overcast,7000.0,,SCT,1000.0,OVC,6900.0,,,,
KRDR,01-11-2004,05:00,METAR,,350,8.0,,,9999.0,Cloud Development Not Observable,-7.0,-7.0,29.83,1012.3,,,,0,0,0,,,,,,,,,8/8 Overcast,7000.0,,SCT,1500.0,OVC,6900.0,,,,
KRDR,01-11-2004,04:00,METAR,,,3.0,,,9999.0,Cloud Development Not Observable,-7.0,-7.0,29.85,1013.0,,,,0,0,0,,,,,,,,,8/8 Overcast,7000.0,,SCT,1500.0,BKN,6900.0,OVC,25000.0,,
KRDR,01-11-2004,02:55,METAR,,50,4.0,,,9999.0,Cloud Development Not Observable,-8.0,-8.0,29.87,1013.6,,,,0,0,0,,,,,,,,,7/8 Mostly Cloudy,7000.0,,BKN,6900.0,BKN,25000.0,,,,
KRDR,01-11-2004,02:00,METAR,,70,3.0,,,9999.0,Cloud Development Not Observable,-7.0,-7.0,29.88,1013.9,,,,0,0,0,,,,,,,,,8/8 Overcast,7000.0,,BKN,6900.0,OVC,25000.0,,,,
KRDR,01-11-2004,01:00,METAR,,150,2.0,,,9999.0,Cloud Development Not Observable,-6.0,-6.0,29.90,1014.6,,,,0,0,0,,,,,,,,,8/8 Overcast,7000.0,,BKN,6900.0,OVC,25000.0,,,,
KRDR,01-11-2004,00:00,METAR,,160,5.0,,,9999.0,Cloud Development Not Observable,-5.0,-5.0,29.92,1015.0,,,,0,0,0,,,,,,,,,8/8 Overcast,7000.0,,BKN,6900.0,OVC,25000.0,,,,
KRDR,01-10-2004,23:00,METAR,,160,7.0,,,9999.0,Cloud Development Not Observable,-4.0,-4.0,29.94,1015.7,,,,0,0,0,,,,,,,,,7/8 Mostly Cloudy,8000.0,,BKN,7900.0,BKN,25000.0,,,,
KRDR,01-10-2004,22:00,METAR,,170,8.0,,,9999.0,Cloud Development Not Observable,-3.0,-4.0,29.96,1016.4,,,,0,0,0,,,,,,,,,7/8 Mostly Cloudy,8000.0,,BKN,7900.0,BKN,25000.0,,,,
KRDR,01-10-2004,21:01,SPECI,,160,8.0,,,9999.0,Cloud Development Not Observable,-3.0,-4.0,29.98,,,,,0,0,0,,,,,,,,,7/8 Mostly Cloudy,9000.0,,BKN,8900.0,BKN,25000.0,,,,
KRDR,01-10-2004,21:00,METAR,,160,7.0,,,9999.0,Cloud Development Not Observable,-4.0,-4.0,29.98,1017.1,,,,0,0,0,,,,,,,,,7/8 Mostly Cloudy,9000.0,,BKN,8900.0,BKN,25000.0,,,,
KRDR,01-10-2004,20:00,METAR,,190,9.0,,,9999.0,Cloud Development Not Observable,-4.0,-4.0,29.99,1017.5,,,,0,0,0,,,,,,,,,7/8 Mostly Cloudy,15000.0,,BKN,15000.0,,,,,,
KRDR,01-10-2004,19:02,SPECI,,180,10.0,,,9999.0,Cloud Development Not Observable,-4.0,-5.0,30.01,,,,,0,0,0,,,,,,,,,8/8 Overcast,12000.0,,OVC,12000.0,,,,,,
KRDR,01-10-2004,19:00,METAR,,180,10.0,,,9999.0,Cloud Development Not Observable,,,30.01,1018.2,,,,0,0,0,,,,,,,,,8/8 Overcast,900.0,,OVC,900.0,,,,,,
KRDR,01-10-2004,18:00,METAR,,200,14.0,,,9999.0,Cloud Development Not Observable,-5.0,-5.0,30.05,1019.6,,,,0,0,0,,,,,,,,,7/8 Mostly Cloudy,900.0,,BKN,900.0,,,,,,
KRDR,01-10-2004,17:07,SPECI,,200,13.0,,,9999.0,Mist/Cloud Development Not Observable,-6.0,-6.0,30.07,,,,,10,0,0,,,,,,,,,8/8 Overcast,700.0,,OVC,700.0,,,,,,
KRDR,01-10-2004,17:00,METAR,,210,13.0,,,9999.0,Mist/Cloud Development Not Observable,-6.0,-6.0,30.09,1021.1,,,,10,0,0,,,,,,,,,8/8 Overcast,700.0,,OVC,700.0,,,,,,
KRDR,01-10-2004,16:00,METAR,,200,13.0,,,9999.0,Mist/Cloud Development Not Observable,-6.0,-6.0,30.10,1021.5,,,,10,0,0,,,,,,,,,8/8 Overcast,600.0,,OVC,600.0,,,,,,
KRDR,01-10-2004,15:00,METAR,,200,14.0,,,9999.0,Mist/Cloud Development Not Observable,-6.0,-6.0,30.13,1022.5,,,,10,0,0,,,,,,,,,8/8 Overcast,600.0,,OVC,600.0,,,,,,
KRDR,01-10-2004,14:01,SPECI,,210,9.0,,,8000.0,Cloud Development Not Observable,-6.0,-6.0,30.15,,,,,0,0,0,,,,,,,,,8/8 Overcast,500.0,,OVC,500.0,,,,,,
KRDR,01-10-2004,14:00,METAR,,220,11.0,,,9999.0,Cloud Development Not Observable,-6.0,-6.0,30.16,1023.6,,,,0,0,0,,,,,,,,,8/8 Overcast,1000.0,,OVC,1000.0,,,,,,
KRDR,01-10-2004,13:00,METAR,,220,11.0,,,9999.0,Cloud Development Not Observable,-6.0,-6.0,30.17,1023.9,,,,0,0,0,,,,,,,,,8/8 Overcast,1300.0,,OVC,1300.0,,,,,,
KRDR,01-10-2004,12:00,METAR,,200,9.0,,,9999.0,Cloud Development Not Observable,-6.0,-6.0,30.20,1025.0,,,,0,0,0,,,,,,,,,8/8 Overcast,1200.0,,OVC,1200.0,,,,,,
KRDR,01-10-2004,11:00,METAR,,180,6.0,,,9999.0,Cloud Development Not Observable,-7.0,-7.0,30.23,1026.0,,,,0,0,0,,,,,,,,,8/8 Overcast,1200.0,,BKN,1200.0,OVC,7400.0,,,,
KRDR,01-10-2004,10:00,METAR,,200,7.0,,,9999.0,Cloud Development Not Observable,-7.0,-7.0,30.27,1027.3,,,,0,0,0,,,,,,,,,8/8 Overcast,1200.0,,OVC,1200.0,,,,,,
KRDR,01-10-2004,09:00,METAR,,200,8.0,,,9999.0,Cloud Development Not Observable,-7.0,-7.0,30.30,1028.3,,,,0,0,0,,,,,,,,,8/8 Overcast,1200.0,,OVC,1200.0,,,,,,
KRDR,01-10-2004,08:00,METAR,,200,7.0,,,9999.0,Cloud Development Not Observable,-8.0,-8.0,30.30,1028.4,,,,0,0,0,,,,,,,,,8/8 Overcast,1200.0,,OVC,1200.0,,,,,,
KRDR,01-10-2004,07:00,METAR,,190,7.0,,,9999.0,Cloud Development Not Observable,-8.0,-8.0,30.32,1029.1,,,,0,0,0,,,,,,,,,8/8 Overcast,1200.0,,OVC,1200.0,,,,,,
KRDR,01-10-2004,06:00,METAR,,190,4.0,,,9999.0,Cloud Development Not Observable,-8.0,-8.0,30.34,1029.6,,,,0,0,0,,,,,,,,,8/8 Overcast,1200.0,,OVC,1200.0,,,,,,
KRDR,01-10-2004,05:00,METAR,,160,2.0,,,9999.0,Cloud Development Not Observable,-9.0,-9.0,30.36,1030.4,,,,0,0,0,,,,,,,,,8/8 Overcast,1400.0,,SCT,700.0,OVC,1400.0,,,,
KRDR,01-10-2004,04:00,METAR,,340,5.0,,,9999.0,Cloud Development Not Observable,-9.0,-9.0,30.38,1031.1,,,,0,0,0,,,,,,,,,8/8 Overcast,1400.0,,SCT,700.0,OVC,1400.0,,,,
KRDR,01-10-2004,03:00,METAR,,150,5.0,,,9999.0,Cloud Development Not Observable,-9.0,-9.0,30.36,1030.5,,,,0,0,0,,,,,,,,,,72000.0,,,,,,,,,
KRDR,01-10-2004,02:00,METAR,,310,5.0,,,9999.0,Cloud Development Not Observable,-9.0,-9.0,30.38,1031.4,,,,0,0,0,,,,,,,,,,72000.0,,,,,,,,,
KRDR,01-10-2004,01:00,METAR,,150,5.0,,,9999.0,Cloud Development Not Observable,-8.0,-8.0,30.39,1031.5,,,,0,0,0,,,,,,,,,,72000.0,,,,,,,,,
KRDR,01-10-2004,00:00,METAR,,120,3.0,,,9999.0,Cloud Development Not Observable,-8.0,-8.0,30.40,1031.9,,,,0,0,0,,,,,,,IN,,,,,,,,,,,,
KRDR,01-09-2004,23:00,METAR,,130,4.0,,,9999.0,Cloud Development Not Observable,-8.0,-9.0,30.39,1031.7,,,,0,0,0,,,,,,,,,,72000.0,,,,,,,,,
KRDR,01-09-2004,22:00,METAR,,160,9.0,,,9999.0,Cloud Development Not Observable,-8.0,-9.0,30.39,1031.5,,,,0,0,0,,,,,,,,,,72000.0,,,,,,,,,
KRDR,01-09-2004,21:00,METAR,,160,9.0,,,9999.0,Cloud Development Not Observable,-8.0,-9.0,30.39,1031.7,,,,0,0,0,,,,,,TRACE,,,8/8 Overcast,1800.0,,OVC,1800.0,,,,,,
KRDR,01-09-2004,20:00,METAR,,130,9.0,,,9999.0,Cloud Development Not Observable,-8.0,-9.0,30.39,1031.7,,,,0,0,0,,,,,,,,,8/8 Overcast,2000.0,,BKN,2000.0,OVC,3000.0,,,,
KRDR,01-09-2004,19:18,SPECI,,130,7.0,,,9999.0,Cloud Development Not Observable,-9.0,-9.0,30.40,,,,,0,0,0,,,,,,,,,8/8 Overcast,1900.0,,BKN,1900.0,OVC,3500.0,,,,
KRDR,01-09-2004,19:00,METAR,,130,10.0,,,9999.0,Light Snow/Cloud Development Not Observable,-9.0,-9.0,30.40,1032.0,,,,71,0,0,,,,,,,,,8/8 Overcast,3400.0,,SCT,2500.0,OVC,3500.0,,,,
KRDR,01-09-2004,18:00,METAR,,130,10.0,,,9999.0,Light Snow/Cloud Development Not Observable,-9.0,-9.0,30.41,,,,,71,0,0,,,,,,,.02 IN,,8/8 Overcast,3400.0,,SCT,2500.0,OVC,3500.0,,,,
KRDR,01-09-2004,17:00,METAR,,110,9.0,,,6400.0,Light Snow/Cloud Development Not Observable,-10.0,-10.0,30.43,1033.0,,,,71,0,0,,,,,,,,,8/8 Overcast,3000.0,,SCT,2000.0,OVC,3000.0,,,,
KRDR,01-09-2004,16:00,METAR,,110,8.0,,,9999.0,Light Snow/Cloud Development Not Observable,-10.0,-10.0,30.43,1033.3,,,,71,0,0,,,,,,,,,8/8 Overcast,3000.0,,SCT,2000.0,OVC,3000.0,,,,
KRDR,01-09-2004,15:10,SPECI,,100,8.0,,,9999.0,Light Snow/Cloud Development Not Observable,-11.0,-11.0,30.43,,,,,71,0,0,,,,,,,,,8/8 Overcast,3100.0,,OVC,3200.0,,,,,,
KRDR,01-09-2004,15:00,METAR,,90,7.0,,,9999.0,Cloud Development Not Observable,-11.0,-11.0,30.43,1033.3,,,,0,0,0,,,,,,,,,8/8 Overcast,3400.0,,OVC,3500.0,,,,,,
KRDR,01-09-2004,14:00,METAR,,70,5.0,,,9999.0,Cloud Development Not Observable,-12.0,-12.0,30.42,1033.0,,,,0,0,0,,,,,,,,,8/8 Overcast,3400.0,,OVC,3500.0,,,,,,
KRDR,01-09-2004,13:00,METAR,,70,5.0,,,9999.0,Cloud Development Not Observable,-12.0,-12.0,30.41,1032.5,,,,0,0,0,,,,,,,,,8/8 Overcast,3400.0,,OVC,3500.0,,,,,,
KRDR,01-09-2004,12:00,METAR,,120,6.0,,,9999.0,Cloud Development Not Observable,-13.0,-13.0,30.40,1033.0,,,,0,0,0,,,,,,,IN,,8/8 Overcast,3400.0,,OVC,3500.0,,,,,,
KRDR,01-09-2004,11:00,METAR,,120,5.0,,,9999.0,Light Snow/Cloud Development Not Observable,-13.0,-13.0,30.42,1033.0,,,,71,0,0,,,,,,,,,8/8 Overcast,3400.0,,OVC,3500.0,,,,,,
KRDR,01-09-2004,10:00,METAR,,120,7.0,,,9999.0,Light Snow/Cloud Development Not Observable,-13.0,-13.0,30.43,1033.4,,,,71,0,0,,,,,,,,,8/8 Overcast,3200.0,,OVC,3300.0,,,,,,
KRDR,01-09-2004,09:00,METAR,,110,6.0,,,9999.0,Light Snow/Cloud Development Not Observable,-13.0,-13.0,30.44,1033.7,,,,71,0,0,,,,,,TRACE,,,8/8 Overcast,3200.0,,OVC,3300.0,,,,,,
KRDR,01-09-2004,08:00,METAR,,90,5.0,,,9999.0,Light Snow/Cloud Development Not Observable,-13.0,-13.0,30.44,1033.7,,,,71,0,0,,,,,,,,,8/8 Overcast,3000.0,,OVC,3000.0,,,,,,
KRDR,01-09-2004,07:00,METAR,,90,6.0,,,8000.0,Light Snow/Cloud Development Not Observable,-13.0,-13.0,30.44,1033.5,,,,71,0,0,,,,,,,,,8/8 Overcast,3000.0,,OVC,3000.0,,,,,,
KRDR,01-09-2004,06:00,METAR,,90,7.0,,,9999.0,Light Snow/Cloud Development Not Observable,-13.0,-13.0,30.43,1033.3,,,,71,0,0,,,,,,,IN,,8/8 Overcast,3000.0,,OVC,3000.0,,,,,,
KRDR,01-09-2004,05:00,METAR,,70,5.0,,,9999.0,Light Snow/Cloud Development Not Observable,-13.0,-14.0,30.43,1033.6,,,,71,0,0,,,,,,,,,8/8 Overcast,3200.0,,OVC,3300.0,,,,,,
KRDR,01-09-2004,04:14,SPECI,,40,5.0,,,9999.0,Light Snow/Cloud Development Not Observable,-14.0,-14.0,30.43,,,,,71,0,0,,,,,,,,,8/8 Overcast,3000.0,,SCT,1500.0,OVC,3000.0,,,,
KRDR,01-09-2004,04:00,METAR,,20,1.0,,,9999.0,Cloud Development Not Observable,-14.0,-14.0,30.43,1033.5,,,,0,0,0,,,,,,,,,8/8 Overcast,3200.0,,OVC,3300.0,,,,,,
KRDR,01-09-2004,03:00,METAR,,50,4.0,,,9999.0,Cloud Development Not Observable,-14.0,-14.0,30.41,1033.0,,,,0,0,0,,,,,,,,,8/8 Overcast,3400.0,,OVC,3500.0,,,,,,
KRDR,01-09-2004,02:00,METAR,,350,6.0,,,9999.0,Cloud Development Not Observable,-14.0,-14.0,30.43,1033.6,,,,0,0,0,,,,,,,,,8/8 Overcast,6500.0,,OVC,6400.0,,,,,,
KRDR,01-09-2004,01:00,METAR,,30,5.0,,,9999.0,Cloud Development Not Observable,-14.0,-14.0,30.42,1033.2,,,,0,0,0,,,,,,,,,8/8 Overcast,6000.0,,OVC,5900.0,,,,,,
KRDR,01-09-2004,00:00,METAR,,350,6.0,,,9999.0,Cloud Development Not Observable,-14.0,-14.0,30.42,1033.4,,,,0,0,0,,,,,,,,,8/8 Overcast,6000.0,,OVC,5900.0,,,,,,
KRDR,01-08-2004,23:00,METAR,,20,6.0,,,9999.0,Cloud Development Not Observable,-13.0,-14.0,30.41,1033.0,,,,0,0,0,,,,,,,,,7/8 Mostly Cloudy,7000.0,,BKN,6900.0,BKN,25000.0,,,,
KRDR,01-08-2004,22:00,METAR,,10,6.0,,,9999.0,Cloud Development Not Observable,-14.0,-14.0,30.41,1033.0,,,,0,0,0,,,,,,,,,7/8 Mostly Cloudy,8000.0,,BKN,7900.0,BKN,25000.0,,,,
KRDR,01-08-2004,21:00,METAR,,10,7.0,,,9999.0,Cloud Development Not Observable,-13.0,-14.0,30.39,1032.3,,,,0,0,0,,,,,,,,,7/8 Mostly Cloudy,8000.0,,BKN,7900.0,BKN,25000.0,,,,
KRDR,01-08-2004,20:00,METAR,,50,5.0,,,9999.0,Cloud Development Not Observable,-13.0,-14.0,30.39,1032.3,,,,0,0,0,,,,,,,,,7/8 Mostly Cloudy,10000.0,,BKN,9900.0,BKN,25000.0,,,,
KRDR,01-08-2004,19:00,METAR,,,3.0,,,9999.0,Cloud Development Not Observable,-14.0,-15.0,30.39,1032.3,,,,0,0,0,,,,,,,,,7/8 Mostly Cloudy,25000.0,,SCT,11000.0,BKN,25000.0,,,,
KRDR,01-08-2004,18:00,METAR,,350,5.0,,,9999.0,Cloud Development Not Observable,-16.0,-16.0,30.40,1033.0,,,,0,0,0,,,,,,,,,7/8 Mostly Cloudy,25000.0,,SCT,11000.0,BKN,25000.0,,,,
KRDR,01-08-2004,17:00,METAR,,340,4.0,,,9999.0,Cloud Development Not Observable,-17.0,-17.0,30.41,1033.1,,,,0,0,0,,,,,,,,,7/8 Mostly Cloudy,25000.0,,SCT,11000.0,BKN,25000.0,,,,
KRDR,01-08-2004,16:00,METAR,,350,7.0,,,9999.0,Cloud Development Not Observable,-18.0,-18.0,30.39,1032.4,,,,0,0,0,,,,,,,,,7/8 Mostly Cloudy,25000.0,,SCT,11000.0,BKN,25000.0,,,,
KRDR,01-08-2004,15:00,METAR,,350,8.0,,,9999.0,Cloud Development Not Observable,-19.0,-19.0,30.37,1032.0,,,,0,0,0,,,,,,,,,7/8 Mostly Cloudy,11000.0,,BKN,11000.0,BKN,25000.0,,,,
KRDR,01-08-2004,14:00,METAR,,360,7.0,,,9999.0,Cloud Development Not Observable,-20.0,-20.0,30.34,1030.9,,,,0,0,0,,,,,,,,,7/8 Mostly Cloudy,11000.0,,BKN,11000.0,BKN,25000.0,,,,
KRDR,01-08-2004,13:00,METAR,,350,5.0,,,9999.0,Cloud Development Not Observable,-21.0,-21.0,30.32,1030.0,,,,0,0,0,,,,,,,,,7/8 Mostly Cloudy,12000.0,,BKN,12000.0,BKN,25000.0,,,,
KRDR,01-08-2004,12:00,METAR,,330,5.0,,,9999.0,Cloud Development Not Observable,-20.0,-20.0,30.30,1029.4,,,,0,0,0,,,,,,,,,7/8 Mostly Cloudy,25000.0,,BKN,25000.0,,,,,,
KRDR,01-08-2004,11:00,METAR,,320,4.0,,,9999.0,Cloud Development Not Observable,-21.0,-21.0,30.30,1029.1,,,,0,0,0,,,,,,,,,7/8 Mostly Cloudy,25000.0,,BKN,25000.0,,,,,,
KRDR,01-08-2004,10:00,METAR,,340,5.0,,,9999.0,Cloud Development Not Observable,-22.0,-22.0,30.29,1028.9,,,,0,0,0,,,,,,,,,7/8 Mostly Cloudy,25000.0,,BKN,25000.0,,,,,,
KRDR,01-08-2004,09:00,METAR,,340,5.0,,,9999.0,Cloud Development Not Observable,-22.0,-22.0,30.29,1028.7,,,,0,0,0,,,,,,,,,7/8 Mostly Cloudy,25000.0,,BKN,25000.0,,,,,,
KRDR,01-08-2004,08:00,METAR,,350,6.0,,,9999.0,Cloud Development Not Observable,-23.0,-23.0,30.27,1028.2,,,,0,0,0,,,,,,,,,7/8 Mostly Cloudy,25000.0,,BKN,25000.0,,,,,,
KRDR,01-08-2004,07:00,METAR,,330,3.0,,,9999.0,Cloud Development Not Observable,-23.0,-23.0,30.24,1027.3,,,,0,0,0,,,,,,,,,4/8 Partly Cloudy,72000.0,,SCT,25000.0,,,,,,
KRDR,01-08-2004,06:00,METAR,,310,4.0,,,9999.0,Cloud Development Not Observable,-24.0,-24.0,30.24,1027.4,,,,0,0,0,,,,,,,,,2/8 Mostly Clear,72000.0,,FEW,25000.0,,,,,,
KRDR,01-08-2004,05:00,METAR,,310,4.0,,,9999.0,Cloud Development Not Observable,-23.0,-23.0,30.23,1025.5,,,,0,0,0,,,,,,,,,2/8 Mostly Clear,72000.0,,FEW,25000.0,,,,,,
KRDR,01-08-2004,04:00,METAR,,260,4.0,,,9999.0,Cloud Development Not Observable,-23.0,-23.0,30.23,1026.9,,,,0,0,0,,,,,,,,,2/8 Mostly Clear,72000.0,,FEW,25000.0,,,,,,
KRDR,01-08-2004,03:00,METAR,,220,6.0,,,9999.0,Cloud Development Not Observable,-24.0,-24.0,30.21,1026.5,,,,0,0,0,,,,,,,,,2/8 Mostly Clear,72000.0,,FEW,25000.0,,,,,,
KRDR,01-08-2004,02:00,METAR,,20,2.0,,,9999.0,Cloud Development Not Observable,-21.0,-21.0,30.19,1025.9,,,,0,0,0,,,,,,,,,2/8 Mostly Clear,72000.0,,FEW,25000.0,,,,,,
KRDR,01-08-2004,01:00,METAR,,250,1.0,,,9999.0,Cloud Development Not Observable,-20.0,-20.0,30.18,1025.2,,,,0,0,0,,,,,,,,,2/8 Mostly Clear,72000.0,,FEW,25000.0,,,,,,
KRDR,01-08-2004,00:00,METAR,,250,1.0,,,9999.0,Cloud Development Not Observable,-19.0,-19.0,30.17,1024.8,,,,0,0,0,,,,,,,,,4/8 Partly Cloudy,72000.0,,SCT,25000.0,,,,,,
KRDR,01-07-2004,23:00,METAR,,180,2.0,,,9999.0,Cloud Development Not Observable,-15.0,-16.0,30.16,1024.3,,,,0,0,0,,,,,,,,,4/8 Partly Cloudy,72000.0,,SCT,25000.0,,,,,,
KRDR,01-07-2004,22:00,METAR,,160,4.0,,,9999.0,Cloud Development Not Observable,-14.0,-16.0,30.17,1024.6,,,,0,0,0,,,,,,,,,4/8 Partly Cloudy,72000.0,,SCT,25000.0,,,,,,
KRDR,01-07-2004,21:00,METAR,,250,8.0,,,9999.0,Cloud Development Not Observable,-13.0,-16.0,30.17,1024.5,,,,0,0,0,,,,,,,,,2/8 Mostly Clear,72000.0,,FEW,25000.0,,,,,,
KRDR,01-07-2004,20:00,METAR,,280,4.0,,,9999.0,Cloud Development Not Observable,-13.0,-16.0,30.16,1024.2,,,,0,0,0,,,,,,,,,2/8 Mostly Clear,72000.0,,FEW,25000.0,,,,,,
KRDR,01-07-2004,19:00,METAR,,220,7.0,,,9999.0,Cloud Development Not Observable,-14.0,-16.0,30.16,1024.2,,,,0,0,0,,,,,,,,,2/8 Mostly Clear,72000.0,,FEW,25000.0,,,,,,
KRDR,01-07-2004,18:00,METAR,,190,3.0,,,9999.0,Cloud Development Not Observable,-15.0,-17.0,30.17,1024.7,,,,0,0,0,,,,,,,,,2/8 Mostly Clear,72000.0,,FEW,25000.0,,,,,,
KRDR,01-07-2004,17:00,METAR,,180,5.0,,,9999.0,Cloud Development Not Observable,-18.0,-19.0,30.18,1025.0,,,,0,0,0,,,,,,,,,Clear,72000.0,,,73000.0,,,,,,
KRDR,01-07-2004,16:00,METAR,,140,2.0,,,9999.0,Cloud Development Not Observable,-19.0,-20.0,30.16,1024.4,,,,0,0,0,,,,,,,,,Clear,72000.0,,,73000.0,,,,,,
KRDR,01-07-2004,15:00,METAR,,220,5.0,,,9999.0,Cloud Development Not Observable,-21.0,-21.0,30.16,1024.4,,,,0,0,0,,,,,,,,,Clear,72000.0,,,73000.0,,,,,,
KRDR,01-07-2004,14:00,METAR,,180,5.0,,,9999.0,Cloud Development Not Observable,-17.0,-17.0,30.15,1024.0,,,,0,0,0,,,,,,,,,2/8 Mostly Clear,72000.0,,FEW,9900.0,,,,,,
KRDR,01-07-2004,12:00,METAR,,240,8.0,,,9999.0,Cloud Development Not Observable,-19.0,-19.0,30.18,1024.9,,,,0,0,0,,,,,,,,,2/8 Mostly Clear,72000.0,,FEW,25000.0,,,,,,
KRDR,01-07-2004,11:00,METAR,,250,8.0,,,9999.0,Cloud Development Not Observable,-19.0,-19.0,30.18,1024.9,,,,0,0,0,,,,,,,,,2/8 Mostly Clear,72000.0,,FEW,25000.0,,,,,,
KRDR,01-07-2004,10:00,METAR,,240,7.0,,,9999.0,Cloud Development Not Observable,-20.0,-20.0,30.17,1024.7,,,,0,0,0,,,,,,,,,4/8 Partly Cloudy,72000.0,,FEW,9900.0,SCT,25000.0,,,,
KRDR,01-07-2004,09:00,METAR,,260,9.0,,,9999.0,Cloud Development Not Observable,-19.0,-19.0,30.18,1024.9,,,,0,0,0,,,,,,,,,2/8 Mostly Clear,72000.0,,FEW,9900.0,,,,,,
KRDR,01-07-2004,08:00,METAR,,270,9.0,,,9999.0,Cloud Development Not Observable,-19.0,-19.0,30.17,1024.5,,,,0,0,0,,,,,,,,,Clear,72000.0,,,73000.0,,,,,,
KRDR,01-07-2004,07:00,METAR,,260,9.0,,,9999.0,Cloud Development Not Observable,-18.0,-18.0,30.17,1024.5,,,,0,0,0,,,,,,,,,Clear,72000.0,,,73000.0,,,,,,
KRDR,01-07-2004,06:00,METAR,,270,9.0,,,9999.0,Cloud Development Not Observable,-18.0,-18.0,30.17,1024.5,,,,0,0,0,,,,,,,,,Clear,72000.0,,,73000.0,,,,,,
KRDR,01-07-2004,05:00,METAR,,260,13.0,,,9999.0,Cloud Development Not Observable,-17.0,-17.0,30.17,1024.7,,,,0,0,0,,,,,,,,,2/8 Mostly Clear,72000.0,,FEW,9900.0,,,,,,
KRDR,01-07-2004,04:00,METAR,,270,14.0,,,9999.0,Cloud Development Not Observable,-15.0,-16.0,30.15,1023.9,,,,0,0,0,,,,,,,,,7/8 Mostly Cloudy,10000.0,,BKN,9900.0,,,,,,
KRDR,01-07-2004,03:00,METAR,,270,14.0,19.0,,9999.0,Cloud Development Not Observable,-15.0,-16.0,30.16,1024.2,,,,0,0,0,,,,,,,,,8/8 Overcast,10000.0,,OVC,9900.0,,,,,,
KRDR,01-07-2004,02:00,METAR,,270,13.0,18.0,,9999.0,Cloud Development Not Observable,-15.0,-16.0,30.15,1024.0,,,,0,0,0,,,,,,,,,2/8 Mostly Clear,72000.0,,FEW,9900.0,,,,,,
KRDR,01-07-2004,01:00,METAR,,270,13.0,18.0,,9999.0,Cloud Development Not Observable,-15.0,-16.0,30.14,1023.7,,,,0,0,0,,,,,,,,,2/8 Mostly Clear,72000.0,,FEW,7900.0,,,,,,
KRDR,01-07-2004,00:00,METAR,,270,14.0,19.0,,9999.0,Cloud Development Not Observable,-14.0,-16.0,30.14,1023.5,,,,0,0,0,,,,,,,,,4/8 Partly Cloudy,72000.0,,FEW,3500.0,SCT,7900.0,,,,
KRDR,01-06-2004,23:00,METAR,,270,14.0,22.0,,9999.0,Cloud Development Not Observable,-13.0,-15.0,30.14,1023.5,,,,0,0,0,,,,,,,,,7/8 Mostly Cloudy,3400.0,,FEW,1500.0,BKN,3500.0,BKN,7900.0,,
KRDR,01-06-2004,22:00,METAR,,270,14.0,20.0,,9999.0,Cloud Development Not Observable,-13.0,-15.0,30.13,1023.2,,,,0,0,0,,,,,,,,,7/8 Mostly Cloudy,3400.0,,FEW,1500.0,BKN,3500.0,BKN,7900.0,,
KRDR,01-06-2004,21:00,METAR,,270,13.0,19.0,,9999.0,Cloud Development Not Observable,-14.0,-16.0,30.12,1022.9,,,,0,0,0,,,,,,,,,7/8 Mostly Cloudy,8000.0,,BKN,7900.0,BKN,25000.0,,,,
KRDR,01-06-2004,20:00,METAR,,270,15.0,,,9999.0,Cloud Development Not Observable,-14.0,-16.0,30.12,1022.9,,,,0,0,0,,,,,,,,,7/8 Mostly Cloudy,8000.0,,BKN,7900.0,BKN,25000.0,,,,
KRDR,01-06-2004,19:00,METAR,,280,17.0,,,9999.0,Drifting Snow/Cloud Development Not Observable,-14.0,-16.0,30.12,1022.9,,,,36,0,0,,,,,,,,,2/8 Mostly Clear,72000.0,,FEW,5900.0,,,,,,
KRDR,01-06-2004,18:00,METAR,,270,18.0,,,9999.0,Cloud Development Not Observable,-14.0,-17.0,30.13,1023.3,,,,0,0,0,,,,,,,,,2/8 Mostly Clear,72000.0,,FEW,5900.0,,,,,,
KRDR,01-06-2004,17:00,METAR,,270,15.0,,,9999.0,Drifting Snow/Cloud Development Not Observable,-16.0,-17.0,30.12,1023.1,,,,36,0,0,,,,,,,,,4/8 Partly Cloudy,72000.0,,FEW,4000.0,SCT,5900.0,,,,
KRDR,01-06-2004,16:28,SPECI,,280,16.0,,,9999.0,Drifting Snow/Cloud Development Not Observable,-16.0,-18.0,30.12,,,,,36,0,0,,,,,,,,,4/8 Partly Cloudy,72000.0,,SCT,5900.0,SCT,25000.0,,,,
KRDR,01-06-2004,16:00,METAR,,280,15.0,,,9999.0,Drifting Snow/Cloud Development Not Observable,-16.0,-18.0,30.10,1022.4,,,,36,0,0,,,,,,,,,4/8 Partly Cloudy,72000.0,,FEW,500.0,SCT,5000.0,,,,
KRDR,01-06-2004,15:00,METAR,,270,14.0,,,9999.0,Cloud Development Not Observable,-18.0,-19.0,30.09,1022.2,,,,0,0,0,,,,,,,,,4/8 Partly Cloudy,72000.0,,FEW,500.0,SCT,5000.0,,,,
KRDR,01-06-2004,14:00,METAR,,280,16.0,,,9999.0,Cloud Development Not Observable,-18.0,-19.0,30.08,1021.9,,,,0,0,0,,,,,,,,,2/8 Mostly Clear,72000.0,,FEW,5000.0,,,,,,
KRDR,01-06-2004,13:00,METAR,,270,15.0,,,9999.0,Cloud Development Not Observable,-19.0,-19.0,30.06,1021.3,,,,0,0,0,,,,,,,,,4/8 Partly Cloudy,72000.0,,FEW,5000.0,SCT,25000.0,,,,
KRDR,01-06-2004,12:00,METAR,,280,16.0,,,9999.0,Cloud Development Not Observable,-18.0,-19.0,30.06,1021.3,,,,0,0,0,,,,,,,IN,,4/8 Partly Cloudy,72000.0,,FEW,5000.0,SCT,25000.0,,,,
KRDR,01-06-2004,11:00,METAR,,280,17.0,23.0,,9999.0,Drifting Snow/Cloud Development Not Observable,-18.0,-19.0,30.05,1020.9,,,,36,0,0,,,,,,,,,4/8 Partly Cloudy,72000.0,,SCT,25000.0,,,,,,
KRDR,01-06-2004,10:00,METAR,,270,14.0,,,9999.0,Cloud Development Not Observable,-18.0,-20.0,30.07,1021.5,,,,0,0,0,,,,,,,,,7/8 Mostly Cloudy,25000.0,,SCT,6900.0,BKN,25000.0,,,,
KRDR,01-06-2004,09:00,METAR,,280,13.0,,,9999.0,Cloud Development Not Observable,-19.0,-19.0,30.07,1021.6,,,,0,0,0,,,,,,TRACE,,,7/8 Mostly Cloudy,25000.0,,FEW,5000.0,BKN,25000.0,,,,
KRDR,01-06-2004,08:00,METAR,,280,14.0,19.0,,9999.0,Cloud Development Not Observable,-19.0,-20.0,30.08,1021.8,,,,0,0,0,,,,,,,,,7/8 Mostly Cloudy,25000.0,,FEW,5000.0,BKN,25000.0,,,,
KRDR,01-06-2004,07:00,METAR,,280,13.0,,,9999.0,Cloud Development Not Observable,-19.0,-20.0,30.08,1021.9,,,,0,0,0,,,,,,,,,4/8 Partly Cloudy,72000.0,,FEW,5000.0,SCT,25000.0,,,,
KRDR,01-06-2004,06:17,SPECI,,280,14.0,,,9999.0,Cloud Development Not Observable,-19.0,-20.0,30.10,,,,,0,0,0,,,,,,,,,7/8 Mostly Cloudy,25000.0,,SCT,5000.0,BKN,25000.0,,,,
KRDR,01-06-2004,06:00,METAR,,280,15.0,,,9999.0,Light Snow/Cloud Development Not Observable,-19.0,-20.0,30.10,1022.9,,,,71,0,0,,,,,,,IN,,7/8 Mostly Cloudy,4900.0,,BKN,5000.0,BKN,25000.0,,,,
KRDR,01-06-2004,05:39,SPECI,,270,15.0,,,9999.0,Light Snow/Cloud Development Not Observable,-19.0,-20.0,30.11,,,,,71,0,0,,,,,,,,,8/8 Overcast,4900.0,,BKN,5000.0,OVC,25000.0,,,,
KRDR,01-06-2004,05:00,METAR,,270,15.0,,,9999.0,Cloud Development Not Observable,-20.0,-21.0,30.11,1023.2,,,,0,0,0,,,,,,,,,2/8 Mostly Clear,72000.0,,FEW,25000.0,,,,,,
KRDR,01-06-2004,04:00,METAR,,270,16.0,22.0,,9999.0,Cloud Development Not Observable,-21.0,-22.0,30.12,1023.5,,,,0,0,0,,,,,,,,,2/8 Mostly Clear,72000.0,,FEW,25000.0,,,,,,
KRDR,01-06-2004,03:00,METAR,,250,15.0,21.0,,9999.0,Cloud Development Not Observable,-21.0,-22.0,30.13,1024.2,,,,0,0,0,,,,,,,,,2/8 Mostly Clear,72000.0,,FEW,25000.0,,,,,,
KRDR,01-06-2004,02:00,METAR,,240,14.0,21.0,,9999.0,Cloud Development Not Observable,-22.0,-23.0,30.16,1025.3,,,,0,0,0,,,,,,,,,2/8 Mostly Clear,72000.0,,FEW,25000.0,,,,,,
KRDR,01-06-2004,01:00,METAR,,240,12.0,,,9999.0,Cloud Development Not Observable,-23.0,-24.0,30.19,1026.4,,,,0,0,0,,,,,,,,,4/8 Partly Cloudy,72000.0,,FEW,12000.0,SCT,25000.0,,,,
KRDR,01-06-2004,00:00,METAR,,230,10.0,17.0,,9999.0,Cloud Development Not Observable,-24.0,-24.0,30.24,1028.0,,,,0,0,0,,,,,,,,,4/8 Partly Cloudy,72000.0,,FEW,12000.0,SCT,25000.0,,,,
KRDR,01-05-2004,23:00,METAR,,230,9.0,,,9999.0,Cloud Development Not Observable,-24.0,-25.0,30.27,1028.9,,,,0,0,0,,,,,,,,,4/8 Partly Cloudy,72000.0,,SCT,12000.0,SCT,25000.0,,,,
KRDR,01-05-2004,22:00,METAR,,240,12.0,,,9999.0,Cloud Development Not Observable,-23.0,-25.0,30.29,1029.5,,,,0,0,0,,,,,,,,,4/8 Partly Cloudy,72000.0,,SCT,12000.0,SCT,25000.0,,,,
KRDR,01-05-2004,21:00,METAR,,240,13.0,,,9999.0,Drifting Snow/Cloud Development Not Observable,-24.0,-26.0,30.32,1030.7,,,,36,0,0,,,,,,,,,2/8 Mostly Clear,72000.0,,FEW,12000.0,FEW,30000.0,,,,
KRDR,01-05-2004,20:00,METAR,,250,15.0,,,9999.0,Drifting Snow/Cloud Development Not Observable,-24.0,-26.0,30.33,1030.9,,,,36,0,0,,,,,,,,,2/8 Mostly Clear,72000.0,,FEW,12000.0,,,,,,
KRDR,01-05-2004,19:00,METAR,,270,17.0,,,9999.0,Drifting Snow/Cloud Development Not Observable,-25.0,-27.0,30.36,1032.0,,,,36,0,0,,,,,,,,,2/8 Mostly Clear,72000.0,,FEW,2000.0,,,,,,
KRDR,01-05-2004,18:00,METAR,,270,16.0,,,9999.0,Drifting Snow/Cloud Development Not Observable,-28.0,-29.0,30.42,1034.2,,,,36,0,0,,,,,,,,,Clear,72000.0,,,73000.0,,,,,,
KRDR,01-05-2004,17:00,METAR,,280,16.0,,270/25KTS,9999.0,Drifting Snow/Cloud Development Not Observable,-28.0,-29.0,30.42,1034.2,,,,36,0,0,,,,,,,,,Clear,72000.0,,,73000.0,,,,,,
KRDR,01-05-2004,16:00,METAR,,270,15.0,,,9999.0,Drifting Snow/Cloud Development Not Observable,-28.0,-30.0,30.42,1034.2,,,,36,0,0,,,,,,,,,Clear,72000.0,,,73000.0,,,,,,
KRDR,01-05-2004,15:00,METAR,,260,13.0,,,9999.0,Cloud Development Not Observable,-30.0,-31.0,30.42,1034.3,,,,0,0,0,,,,,,,,,Clear,72000.0,,,73000.0,,,,,,
KRDR,01-05-2004,14:00,METAR,,280,9.0,,,9999.0,Cloud Development Not Observable,-30.0,-31.0,30.42,1034.2,,,,0,0,0,,,,,,,,,Clear,72000.0,,,73000.0,,,,,,
KRDR,01-05-2004,13:00,METAR,,290,11.0,,,9999.0,Cloud Development Not Observable,-30.0,-30.0,30.42,1034.2,,,,0,0,0,,,,,,,,,Clear,72000.0,,,73000.0,,,,,,
KRDR,01-05-2004,12:00,METAR,,290,8.0,,,9999.0,Cloud Development Not Observable,-30.0,-30.0,30.42,1034.2,,,,0,0,0,,,,,,,,.01 IN,Clear,72000.0,,,73000.0,,,,,,
KRDR,01-05-2004,11:00,METAR,,260,8.0,,,9999.0,Cloud Development Not Observable,-30.0,-30.0,30.44,1034.8,,,,0,0,0,,,,,,,,,Clear,72000.0,,,73000.0,,,,,,
KRDR,01-05-2004,10:00,METAR,,260,9.0,,,9999.0,Cloud Development Not Observable,-30.0,-30.0,30.45,1035.1,,,,0,0,0,,,,,,,,,Clear,72000.0,,,73000.0,,,,,,
KRDR,01-05-2004,09:00,METAR,,270,10.0,,,9999.0,Cloud Development Not Observable,-30.0,-30.0,30.46,1035.5,,,,0,0,0,,,,,,,,,Clear,72000.0,,,73000.0,,,,,,
KRDR,01-05-2004,08:00,METAR,,270,9.0,,,9999.0,Cloud Development Not Observable,-29.0,-29.0,30.45,1035.0,,,,0,0,0,,,,,,,,,Clear,72000.0,,,73000.0,,,,,,
KRDR,01-05-2004,07:00,METAR,,280,9.0,,,9999.0,Cloud Development Not Observable,-28.0,-28.0,30.44,1034.7,,,,0,0,0,,,,,,,,,Clear,72000.0,,,73000.0,,,,,,
KRDR,01-05-2004,06:00,METAR,,280,11.0,,,9999.0,Cloud Development Not Observable,-27.0,-28.0,,1034.4,,,,0,0,0,,,,,,,,,Clear,72000.0,,,73000.0,,,,,,
KRDR,01-05-2004,05:00,METAR,,270,11.0,,,9999.0,Cloud Development Not Observable,-27.0,-28.0,30.42,1034.2,,,,0,0,0,,,,,,,,,Clear,72000.0,,,73000.0,,,,,,
KRDR,01-05-2004,04:00,METAR,,280,14.0,,,9999.0,Cloud Development Not Observable,-26.0,-27.0,30.42,1033.9,,,,0,0,0,,,,,,,,,Clear,72000.0,,,73000.0,,,,,,
KRDR,01-05-2004,03:00,METAR,,280,17.0,,,9999.0,Cloud Development Not Observable,-26.0,-27.0,30.40,1033.3,,,,0,0,0,,,,,,,,,4/8 Partly Cloudy,72000.0,,SCT,9900.0,,,,,,
KRDR,01-05-2004,02:00,METAR,,290,9.0,,,9999.0,Cloud Development Not Observable,-25.0,-26.0,30.40,1033.2,,,,0,0,0,,,,,,,,,2/8 Mostly Clear,72000.0,,FEW,9900.0,,,,,,
KRDR,01-05-2004,01:00,METAR,,270,8.0,,,9999.0,Cloud Development Not Observable,-25.0,-26.0,30.39,1033.0,,,,0,0,0,,,,,,,,,2/8 Mostly Clear,72000.0,,FEW,5900.0,,,,,,
KRDR,01-05-2004,00:00,METAR,,280,10.0,,,9999.0,Cloud Development Not Observable,-24.0,-26.0,30.39,1032.7,,,,0,0,0,,,,,,,,,2/8 Mostly Clear,72000.0,,FEW,5900.0,,,,,,
KRDR,01-04-2004,23:00,METAR,,260,7.0,,,9999.0,Cloud Development Not Observable,-23.0,-25.0,30.39,1032.7,,,,0,0,0,,,,,,,,,2/8 Mostly Clear,72000.0,,FEW,5900.0,,,,,,
KRDR,01-04-2004,22:00,METAR,,240,6.0,,,9999.0,Cloud Development Not Observable,-22.0,-25.0,30.39,1032.6,,,,0,0,0,,,,,,,,,2/8 Mostly Clear,72000.0,,FEW,25000.0,,,,,,
KRDR,01-04-2004,21:00,METAR,,270,8.0,,,9999.0,Cloud Development Not Observable,-22.0,-25.0,30.39,1032.6,,,,0,0,0,,,,,,,,,2/8 Mostly Clear,72000.0,,FEW,5900.0,FEW,25000.0,,,,
KRDR,01-04-2004,20:00,METAR,,270,9.0,,,9999.0,Cloud Development Not Observable,-22.0,-25.0,30.40,1033.0,,,,0,0,0,,,,,,,,,4/8 Partly Cloudy,72000.0,,SCT,5900.0,SCT,25000.0,,,,
KRDR,01-04-2004,19:00,METAR,,270,11.0,,,9999.0,Cloud Development Not Observable,-22.0,-25.0,30.42,1033.7,,,,0,0,0,,,,,,,,,2/8 Mostly Clear,72000.0,,FEW,5000.0,FEW,9900.0,,,,
KRDR,01-04-2004,18:04,SPECI,,280,10.0,,,9999.0,Cloud Development Not Observable,-22.0,-24.0,30.43,,,,,0,0,0,,,,,,,,,2/8 Mostly Clear,72000.0,,FEW,4000.0,FEW,25000.0,,,,
KRDR,01-04-2004,18:00,METAR,,290,11.0,,,9999.0,Cloud Development Not Observable,-22.0,-24.0,30.44,1034.4,,,,0,0,0,,,,,,,.01 IN,,2/8 Mostly Clear,72000.0,,FEW,5000.0,FEW,25000.0,,,,
KRDR,01-04-2004,17:00,METAR,,270,7.0,,,9999.0,Cloud Development Not Observable,-23.0,-24.0,30.45,1034.7,,,,0,0,0,,,,,,,,,2/8 Mostly Clear,72000.0,,FEW,5900.0,,,,,,
KRDR,01-04-2004,16:00,METAR,,,4.0,,,9999.0,Cloud Development Not Observable,-23.0,-24.0,30.43,1034.1,,,,0,0,0,,,,,,,,,2/8 Mostly Clear,72000.0,,FEW,5000.0,,,,,,
KRDR,01-04-2004,15:00,METAR,,310,3.0,,,9999.0,Cloud Development Not Observable,-24.0,-24.0,30.42,1033.8,,,,0,0,0,,,,,,TRACE,,,2/8 Mostly Clear,72000.0,,FEW,5000.0,,,,,,
KRDR,01-04-2004,14:26,SPECI,,310,6.0,,,9999.0,Cloud Development Not Observable,-25.0,-25.0,30.41,,,,,0,0,0,,,,,,,,,2/8 Mostly Clear,72000.0,,FEW,5000.0,,,,,,
KRDR,01-04-2004,14:00,METAR,,300,6.0,,,9999.0,Light Snow/Cloud Development Not Observable,-23.0,-23.0,30.39,1032.6,,,,71,0,0,,,,,,,,,4/8 Partly Cloudy,72000.0,,SCT,5000.0,,,,,,
KRDR,01-04-2004,13:00,METAR,,270,5.0,,,9999.0,Light Snow/Cloud Development Not Observable,-23.0,-23.0,30.38,1032.4,,,,71,0,0,,,,,,,,,7/8 Mostly Cloudy,4100.0,,BKN,4200.0,,,,,,
KRDR,01-04-2004,12:00,METAR,,230,5.0,,,9999.0,Light Snow/Cloud Development Not Observable,-23.0,-23.0,30.38,1032.4,,,,71,0,0,,,,,,,.01 IN,.01 IN,7/8 Mostly Cloudy,4400.0,,BKN,4500.0,,,,,,
KRDR,01-04-2004,11:00,METAR,,220,6.0,,,9999.0,Light Snow/Cloud Development Not Observable,-24.0,-24.0,30.38,1032.4,,,,71,0,0,,,,,,,,,7/8 Mostly Cloudy,4400.0,,BKN,4500.0,,,,,,
KRDR,01-04-2004,10:00,METAR,,190,6.0,,,9999.0,Light Snow/Cloud Development Not Observable,-22.0,-22.0,30.38,1032.4,,,,71,0,0,,,,,,,,,7/8 Mostly Cloudy,4900.0,,BKN,5000.0,,,,,,
KRDR,01-04-2004,09:00,METAR,,270,3.0,,,4800.0,Light Snow/Cloud Development Not Observable,-22.0,-22.0,30.39,1032.5,,,,71,0,0,,,,,,.01 IN,,,7/8 Mostly Cloudy,4900.0,,BKN,5000.0,,,,,,
KRDR,01-04-2004,08:00,METAR,,290,5.0,,,9999.0,Light Snow/Cloud Development Not Observable,-22.0,-22.0,30.39,1032.5,,,,71,0,0,,,,,,,,,7/8 Mostly Cloudy,4900.0,,BKN,5000.0,,,,,,
KRDR,01-04-2004,07:00,METAR,,290,5.0,,,9999.0,Light Snow/Cloud Development Not Observable,-22.0,-23.0,30.39,1032.5,,,,71,0,0,,,,,,,,,8/8 Overcast,4900.0,,OVC,5000.0,,,,,,
KRDR,01-04-2004,06:00,METAR,,300,7.0,,,9999.0,Light Snow/Cloud Development Not Observable,-23.0,-24.0,30.38,1032.2,,,,71,0,0,,,,,,,IN,,8/8 Overcast,4900.0,,BKN,5000.0,OVC,9900.0,,,,
KRDR,01-04-2004,05:00,METAR,,310,10.0,,,9999.0,Light Snow/Cloud Development Not Observable,-22.0,-23.0,30.37,1032.0,,,,71,0,0,,,,,,,,,8/8 Overcast,4900.0,,BKN,5000.0,OVC,9900.0,,,,
KRDR,01-04-2004,04:42,SPECI,,300,10.0,,,9999.0,Light Snow/Cloud Development Not Observable,-22.0,-23.0,30.38,,,,,71,0,0,,,,,,,,,8/8 Overcast,5500.0,,BKN,5400.0,OVC,9900.0,,,,
KRDR,01-04-2004,04:00,METAR,,300,6.0,,,9999.0,Cloud Development Not Observable,-23.0,-24.0,30.36,1031.7,,,,0,0,0,,,,,,,,,7/8 Mostly Cloudy,5500.0,,BKN,5400.0,,,,,,
KRDR,01-04-2004,03:00,METAR,,300,6.0,,,9999.0,Cloud Development Not Observable,-23.0,-23.0,30.36,1031.6,,,,0,0,0,,,,,,,,,7/8 Mostly Cloudy,6000.0,,BKN,5900.0,,,,,,
KRDR,01-04-2004,02:00,METAR,,310,8.0,,,9999.0,Cloud Development Not Observable,-22.0,-23.0,30.35,1031.1,,,,0,0,0,,,,,,,,,7/8 Mostly Cloudy,6000.0,,BKN,5900.0,,,,,,
KRDR,01-04-2004,01:00,METAR,,300,5.0,,,9999.0,Cloud Development Not Observable,-23.0,-23.0,30.34,1030.7,,,,0,0,0,,,,,,,,,7/8 Mostly Cloudy,6000.0,,BKN,5900.0,,,,,,
KRDR,01-04-2004,00:00,METAR,,300,5.0,,,9999.0,Cloud Development Not Observable,-24.0,-24.0,30.33,1030.3,,,,0,0,0,,,,,,,,,4/8 Partly Cloudy,72000.0,,SCT,5000.0,,,,,,
KRDR,01-03-2004,23:00,METAR,,330,6.0,,,9999.0,Cloud Development Not Observable,-23.0,-24.0,30.31,1029.8,,,,0,0,0,,,,,,,,,Clear,72000.0,,,73000.0,,,,,,
KRDR,01-03-2004,22:00,METAR,,340,7.0,,,9999.0,Cloud Development Not Observable,-21.0,-23.0,30.30,1029.1,,,,0,0,0,,,,,,,,,Clear,72000.0,,,73000.0,,,,,,
KRDR,01-03-2004,21:00,METAR,,310,13.0,,,9999.0,Cloud Development Not Observable,-20.0,-22.0,30.29,1028.8,,,,0,0,0,,,,,,,,,Clear,72000.0,,,73000.0,,,,,,
KRDR,01-03-2004,20:00,METAR,,320,12.0,,,9999.0,Cloud Development Not Observable,-20.0,-22.0,30.26,1027.8,,,,0,0,0,,,,,,,,,Clear,72000.0,,,73000.0,,,,,,
KRDR,01-03-2004,19:00,METAR,,330,15.0,,,9999.0,Cloud Development Not Observable,-20.0,-21.0,30.24,1027.2,,,,0,0,0,,,,,,,,,Clear,72000.0,,,73000.0,,,,,,
KRDR,01-03-2004,18:00,METAR,,310,14.0,,,9999.0,Cloud Development Not Observable,-20.0,-21.0,30.25,1027.6,,,,0,0,0,,,,,,,,,Clear,72000.0,,,73000.0,,,,,,
KRDR,01-03-2004,17:00,METAR,,310,12.0,,,9999.0,Cloud Development Not Observable,-20.0,-21.0,30.24,1027.2,,,,0,0,0,,,,,,,,,Clear,72000.0,,,73000.0,,,,,,
KRDR,01-03-2004,16:00,METAR,,330,12.0,,,9999.0,Cloud Development Not Observable,-20.0,-21.0,30.21,1026.0,,,,0,0,0,,,,,,,,,Clear,72000.0,,,73000.0,,,,,,
KRDR,01-03-2004,15:00,METAR,,320,10.0,,,9999.0,Cloud Development Not Observable,-21.0,-22.0,30.18,1025.0,,,,0,0,0,,,,,,,,,Clear,72000.0,,,73000.0,,,,,,
KRDR,01-03-2004,14:00,METAR,,310,11.0,,,9999.0,Cloud Development Not Observable,-20.0,-21.0,30.14,1023.7,,,,0,0,0,,,,,,,,,Clear,72000.0,,,73000.0,,,,,,
KRDR,01-03-2004,13:00,METAR,,320,13.0,,,9999.0,Cloud Development Not Observable,-18.0,-19.0,30.09,1021.8,,,,0,0,0,,,,,,,,,Clear,72000.0,,,73000.0,,,,,,
KRDR,01-03-2004,12:00,METAR,,320,14.0,,,9999.0,Cloud Development Not Observable,-17.0,-18.0,30.04,1020.1,,,,0,0,0,,,,,,,,.11 IN,Clear,72000.0,,,73000.0,,,,,,
KRDR,01-03-2004,11:00,METAR,,320,12.0,,,9999.0,Cloud Development Not Observable,-17.0,-17.0,30.01,1019.1,,,,0,0,0,,,,,,,,,2/8 Mostly Clear,72000.0,,FEW,11000.0,,,,,,
KRDR,01-03-2004,10:46,SPECI,,320,14.0,,,9999.0,Cloud Development Not Observable,-16.0,-17.0,30.01,,,,,0,0,0,,,,,,,,,4/8 Partly Cloudy,72000.0,,FEW,1200.0,SCT,11000.0,,,,
KRDR,01-03-2004,10:00,METAR,,310,15.0,,,6400.0,Blowing Snow/Cloud Development Not Observable,-16.0,-16.0,29.99,1018.3,,,,38,0,0,,,,,,,,,7/8 Mostly Cloudy,1100.0,,BKN,1100.0,BKN,11000.0,,,,
KRDR,01-03-2004,09:45,METAR,,310,14.0,,,6400.0,Blowing Snow/Cloud Development Not Observable,-16.0,-16.0,29.99,,,,,38,0,0,,,,,,,,,7/8 Mostly Cloudy,1100.0,,BKN,1100.0,BKN,11000.0,,,,
KRDR,01-03-2004,09:00,METAR,,320,19.0,22.0,320/28KTS,6400.0,Blowing Snow/Cloud Development Not Observable,-15.0,-16.0,29.95,1016.9,,,,38,0,0,,,,,,,,,7/8 Mostly Cloudy,11000.0,,SCT,2000.0,BKN,11000.0,,,,
KRDR,01-03-2004,08:19,SPECI,,320,24.0,,,4800.0,Blowing Snow/Cloud Development Not Observable,-15.0,-15.0,29.92,,,,,38,0,0,,,,,,,,,2/8 Mostly Clear,72000.0,,FEW,11000.0,,,,,,
KRDR,01-03-2004,08:00,METAR,,300,18.0,24.0,310/28KTS,3200.0,Blowing Snow/Cloud Development Not Observable,-15.0,-15.0,29.91,1015.5,,,,38,0,0,,,,,,,,,2/8 Mostly Clear,72000.0,,FEW,11000.0,,,,,,
KRDR,01-03-2004,07:00,METAR,,310,20.0,27.0,310/30KTS,3200.0,Blowing Snow/Cloud Development Not Observable,-15.0,-15.0,29.87,1014.1,,,,38,0,0,,,,,,,,,2/8 Mostly Clear,72000.0,,FEW,11000.0,,,,,,
KRDR,01-03-2004,06:45,METAR,,320,22.0,27.0,,3200.0,Blowing Snow/Cloud Development Not Observable,-15.0,-15.0,29.86,,,,,38,0,0,,,,,,,,,2/8 Mostly Clear,72000.0,,FEW,11000.0,,,,,,
KRDR,01-03-2004,06:00,METAR,,310,23.0,,300/25KTS,4800.0,Blowing Snow/Cloud Development Not Observable,-15.0,-15.0,29.84,1013.2,,,,38,0,0,,,,,,,,,7/8 Mostly Cloudy,11000.0,,BKN,11000.0,,,,,,
KRDR,01-03-2004,05:00,METAR,,300,19.0,,,4800.0,Blowing Snow/Cloud Development Not Observable,-15.0,-15.0,29.81,1011.9,,,,38,0,0,,,,,,,,,7/8 Mostly Cloudy,4900.0,,FEW,2200.0,SCT,5000.0,BKN,9400.0,,
KRDR,01-03-2004,04:15,SPECI,,290,20.0,26.0,,4800.0,Blowing Snow/Cloud Development Not Observable,-14.0,-14.0,29.78,,,,,38,0,0,,,,,,,,,7/8 Mostly Cloudy,4700.0,,SCT,2200.0,BKN,4800.0,,,,
KRDR,01-03-2004,04:00,METAR,,290,21.0,26.0,,3200.0,Blowing Snow/Cloud Development Not Observable,-14.0,-14.0,29.76,1010.2,,,,38,0,0,,,,,,,,,7/8 Mostly Cloudy,1900.0,,BKN,1900.0,BKN,4500.0,,,,
KRDR,01-03-2004,03:07,SPECI,,290,19.0,24.0,,3200.0,Light Snow/Blowing Snow/Cloud Development Not Observable,-14.0,-14.0,29.74,,,,,71,38,0,,,,,,,,,7/8 Mostly Cloudy,2200.0,,SCT,1500.0,BKN,2200.0,BKN,4000.0,,
KRDR,01-03-2004,03:00,METAR,,290,21.0,27.0,,1600.0,Light Snow/Blowing Snow/Cloud Development Not Observable,-14.0,-14.0,29.73,1009.2,,,,71,38,0,,,,,,.01 IN,,,7/8 Mostly Cloudy,1900.0,,SCT,1400.0,BKN,1900.0,BKN,3600.0,,
KRDR,01-03-2004,02:05,SPECI,,310,23.0,32.0,,1600.0,Light Snow/Blowing Snow/Cloud Development Not Observable,-14.0,-14.0,29.70,,,,,71,38,0,,,,,,,,,7/8 Mostly Cloudy,1500.0,,SCT,600.0,BKN,1500.0,BKN,4000.0,,
KRDR,01-03-2004,02:00,METAR,,290,22.0,29.0,300/30KTS,1200.0,Cloud Development Not Observable,-14.0,-14.0,29.70,1008.1,,,,0,0,0,,,,,,,,,,600.0,,BKN,600.0,BKN,1400.0,,,,
KRDR,01-03-2004,01:00,METAR,,290,21.0,26.0,,1200.0,Cloud Development Not Observable,-13.0,-13.0,29.67,1007.2,,,,0,0,0,,,,,,,,,,600.0,,BKN,600.0,BKN,1200.0,,,,
KRDR,01-03-2004,00:00,METAR,,300,15.0,25.0,,1200.0,Cloud Development Not Observable,-12.0,-12.0,29.65,,,,,0,0,0,,,,,,,,,,600.0,,BKN,600.0,OVC,1200.0,,,,
KRDR,01-02-2004,23:37,SPECI,,310,17.0,28.0,,1600.0,Light Snow/Blowing Snow/Cloud Development Not Observable,-12.0,-12.0,29.59,,,,,71,38,0,,,,,,,,,8/8 Overcast,1200.0,,SCT,400.0,BKN,1200.0,OVC,3500.0,,
KRDR,01-02-2004,23:06,SPECI,,310,18.0,25.0,,1600.0,Light Snow/Blowing Snow/Cloud Development Not Observable,-12.0,-12.0,29.59,,,,,71,38,0,,,,,,,,,8/8 Overcast,1200.0,,SCT,400.0,BKN,1200.0,OVC,4500.0,,
KRDR,01-02-2004,23:00,METAR,,330,19.0,26.0,,800.0,Cloud Development Not Observable,-12.0,-12.0,29.58,,,,,0,0,0,,,,,,,,,,400.0,,BKN,400.0,BKN,1200.0,OVC,3300.0,,
KRDR,01-02-2004,22:38,SPECI,,310,19.0,27.0,,800.0,Cloud Development Not Observable,-12.0,-12.0,29.57,,,,,0,0,0,,,,,,,,,,400.0,,OVC,400.0,,,,,,
KRDR,01-02-2004,22:07,SPECI,,330,18.0,25.0,,400.0,Cloud Development Not Observable,-12.0,-12.0,29.57,,,,,0,0,0,,,,,,,,,,400.0,,OVC,400.0,,,,,,
KRDR,01-02-2004,22:00,METAR,,330,17.0,26.0,,800.0,Cloud Development Not Observable,-11.0,-11.0,29.57,,,,,0,0,0,,,,,,,,,,400.0,,BKN,400.0,OVC,1200.0,,,,
KRDR,01-02-2004,21:50,SPECI,,330,19.0,26.0,,800.0,Cloud Development Not Observable,-11.0,-11.0,29.57,,,,,0,0,0,,,,,,,,,,400.0,,BKN,400.0,OVC,1200.0,,,,
KRDR,01-02-2004,21:44,SPECI,,330,20.0,25.0,,1200.0,Cloud Development Not Observable,-12.0,-12.0,29.55,,,,,0,0,0,,,,,,,,,,1200.0,,SCT,500.0,OVC,1200.0,,,,
KRDR,01-02-2004,21:29,SPECI,,330,20.0,,,2400.0,Light Snow/Blowing Snow/Cloud Development Not Observable,-12.0,-12.0,29.58,,,,,71,38,0,,,,,,,,,8/8 Overcast,1200.0,,SCT,500.0,OVC,1200.0,,,,
KRDR,01-02-2004,21:00,METAR,,330,15.0,,,4800.0,Blowing Snow/Cloud Development Not Observable,-12.0,-12.0,29.54,,,,,38,0,0,,,,,,.01 IN,,,8/8 Overcast,10000.0,,SCT,2000.0,OVC,9900.0,,,,
KRDR,01-02-2004,20:05,SPECI,,330,14.0,21.0,,4800.0,Blowing Snow/Cloud Development Not Observable,-12.0,-12.0,29.55,,,,,38,0,0,,,,,,,,,8/8 Overcast,10000.0,,SCT,2000.0,OVC,9900.0,,,,
KRDR,01-02-2004,20:00,METAR,,340,18.0,,,4400.0,Blowing Snow/Cloud Development Not Observable,-12.0,-12.0,29.52,,,,,38,0,0,,,,,,,,,8/8 Overcast,10000.0,,SCT,2000.0,OVC,9900.0,,,,
KRDR,01-02-2004,19:50,METAR,,340,16.0,21.0,,4400.0,Blowing Snow/Cloud Development Not Observable,-12.0,-12.0,29.53,,,,,38,0,0,,,,,,,,,8/8 Overcast,10000.0,,SCT,2000.0,OVC,9900.0,,,,
KRDR,01-02-2004,19:00,METAR,,340,18.0,,,3200.0,Light Snow/Cloud Development Not Observable,-12.0,-12.0,29.57,,,,,71,0,0,,,,,,,,,8/8 Overcast,10000.0,,SCT,2000.0,OVC,9900.0,,,,
KRDR,01-02-2004,18:00,METAR,,360,21.0,,,2400.0,Light Snow/Cloud Development Not Observable,-12.0,-12.0,29.56,,,,,71,0,0,,,,,,,.18 IN,,8/8 Overcast,2000.0,,BKN,2000.0,OVC,9900.0,,,,
KRDR,01-02-2004,17:00,METAR,,360,13.0,,,1600.0,Light Snow/Cloud Development Not Observable,-10.0,-10.0,29.62,,,,,71,0,0,,,,,,,,,8/8 Overcast,2000.0,,BKN,2000.0,OVC,9900.0,,,,
KRDR,01-02-2004,16:00,METAR,,10,15.0,,,1600.0,Light Snow/Cloud Development Not Observable,-9.0,-9.0,29.63,,,,,71,0,0,,,,,,,,,8/8 Overcast,2000.0,,BKN,2000.0,OVC,9900.0,,,,
KRDR,01-02-2004,15:00,METAR,,20,12.0,,,1600.0,Light Snow/Cloud Development Not Observable,-8.0,-8.0,29.64,,,,,71,0,0,,,,,,.03 IN,,,8/8 Overcast,2000.0,,BKN,2000.0,OVC,8900.0,,,,
KRDR,01-02-2004,14:38,SPECI,,30,10.0,,,1600.0,Light Snow/Cloud Development Not Observable,-8.0,-8.0,29.65,,,,,71,0,0,,,,,,,,,8/8 Overcast,2000.0,,OVC,2000.0,,,,,,
KRDR,01-02-2004,14:00,METAR,,20,9.0,,,4800.0,Light Snow/Cloud Development Not Observable,-8.0,-8.0,29.67,,,,,71,0,0,,,,,,,,,8/8 Overcast,2500.0,,OVC,2500.0,OVC,8900.0,,,,
KRDR,01-02-2004,13:40,SPECI,,20,9.0,,,4800.0,Light Snow/Cloud Development Not Observable,-8.0,-8.0,29.66,,,,,71,0,0,,,,,,,,,8/8 Overcast,2500.0,,BKN,2500.0,OVC,8900.0,,,,
KRDR,01-02-2004,13:00,METAR,,10,9.0,,,8000.0,Light Snow/Cloud Development Not Observable,-8.0,-8.0,29.68,,,,,71,0,0,,,,,,,,,8/8 Overcast,9000.0,,SCT,2500.0,OVC,8900.0,,,,
KRDR,01-01-2004,03:00,METAR,,120,6.0,,,9999.0,Cloud Development Not Observable,-16.0,-16.0,30.11,1022.8,,,,0,0,0,,,,,,,,,4/8 Partly Cloudy,72000.0,,SCT,25000.0,,,,,,
KRDR,01-01-2004,02:00,METAR,,140,7.0,,,9999.0,Cloud Development Not Observable,-17.0,-17.0,30.10,1022.5,,,,0,0,0,,,,,,,,,4/8 Partly Cloudy,72000.0,,SCT,25000.0,,,,,,
KRDR,01-01-2004,01:00,METAR,,140,11.0,,,9999.0,Cloud Development Not Observable,-18.0,-18.0,30.10,1022.1,,,,0,0,0,,,,,,,,,7/8 Mostly Cloudy,25000.0,,FEW,12000.0,BKN,25000.0,,,,
KRDR,01-01-2004,00:00,METAR,,140,11.0,,,9999.0,Cloud Development Not Observable,-17.0,-17.0,30.12,1023.1,,,,0,0,0,,,,,,,,,7/8 Mostly Cloudy,25000.0,,FEW,12000.0,BKN,25000.0,,,,
KRDR,12-31-2003,23:00,METAR,,160,11.0,,,9999.0,Cloud Development Not Observable,-16.0,-16.0,30.12,1023.1,,,,0,0,0,,,,,,,,,7/8 Mostly Cloudy,25000.0,,FEW,12000.0,BKN,25000.0,,,,
KRDR,12-31-2003,22:00,METAR,,140,7.0,,,9999.0,Cloud Development Not Observable,-15.0,-15.0,30.12,1023.0,,,,0,0,0,,,,,,,,,7/8 Mostly Cloudy,25000.0,,FEW,12000.0,BKN,25000.0,,,,
KRDR,12-31-2003,21:00,METAR,,150,10.0,,,9999.0,Cloud Development Not Observable,-14.0,-15.0,30.13,1023.1,,,,0,0,0,,,,,,,,,7/8 Mostly Cloudy,25000.0,,BKN,25000.0,,,,,,
KRDR,12-31-2003,20:00,METAR,,190,9.0,,,9999.0,Cloud Development Not Observable,-14.0,-15.0,30.15,1023.8,,,,0,0,0,,,,,,,,,7/8 Mostly Cloudy,25000.0,,BKN,25000.0,,,,,,
KRDR,12-31-2003,19:00,METAR,,200,10.0,,,9999.0,Cloud Development Not Observable,-15.0,-16.0,30.16,1024.4,,,,0,0,0,,,,,,,,,7/8 Mostly Cloudy,25000.0,,BKN,25000.0,,,,,,
KRDR,12-31-2003,18:00,METAR,,210,10.0,,,9999.0,Cloud Development Not Observable,-16.0,-17.0,30.17,1024.5,,,,0,0,0,,,,,,,,,7/8 Mostly Cloudy,25000.0,,BKN,25000.0,,,,,,
KRDR,12-31-2003,17:00,METAR,,200,8.0,,,9999.0,Cloud Development Not Observable,-17.0,-18.0,30.16,1024.4,,,,0,0,0,,,,,,,,,4/8 Partly Cloudy,72000.0,,SCT,25000.0,,,,,,
KRDR,12-31-2003,16:00,METAR,,190,7.0,,,9999.0,Cloud Development Not Observable,-19.0,-19.0,30.13,1023.2,,,,0,0,0,,,,,,,,,4/8 Partly Cloudy,72000.0,,SCT,25000.0,,,,,,
KRDR,12-31-2003,15:00,METAR,,180,6.0,,,9999.0,Cloud Development Not Observable,-21.0,-21.0,30.13,1023.2,,,,0,0,0,,,,,,,,,4/8 Partly Cloudy,72000.0,,SCT,25000.0,,,,,,
KRDR,12-31-2003,14:00,METAR,,240,2.0,,,9999.0,Cloud Development Not Observable,-21.0,-21.0,30.10,1022.2,,,,0,0,0,,,,,,,,,Clear,72000.0,,,73000.0,,,,,,
KRDR,12-31-2003,12:00,METAR,,290,6.0,,,9999.0,Cloud Development Not Observable,-19.0,-19.0,30.08,1021.5,,,,0,0,0,,,,,,,,,Clear,72000.0,,,73000.0,,,,,,
KRDR,12-31-2003,11:00,METAR,,230,6.0,,,9999.0,Cloud Development Not Observable,-20.0,-20.0,30.06,1020.8,,,,0,0,0,,,,,,,,,Clear,72000.0,,,73000.0,,,,,,
KRDR,12-31-2003,10:00,METAR,,300,5.0,,,9999.0,Cloud Development Not Observable,-19.0,-19.0,30.01,1019.0,,,,0,0,0,,,,,,,,,Clear,72000.0,,,73000.0,,,,,,
KRDR,12-31-2003,09:00,METAR,,290,10.0,,,9999.0,Cloud Development Not Observable,-18.0,-18.0,30.01,1018.9,,,,0,0,0,,,,,,,,,Clear,72000.0,,,73000.0,,,,,,
KRDR,12-31-2003,08:00,METAR,,300,13.0,,,9999.0,Cloud Development Not Observable,-18.0,-18.0,29.95,1017.1,,,,0,0,0,,,,,,,,,Clear,72000.0,,,73000.0,,,,,,
KRDR,12-31-2003,07:00,METAR,,290,13.0,,,9999.0,Cloud Development Not Observable,-17.0,-17.0,29.92,1015.9,,,,0,0,0,,,,,,,,,Clear,72000.0,,,73000.0,,,,,,
KRDR,12-31-2003,06:00,METAR,,280,12.0,,,9999.0,Cloud Development Not Observable,-16.0,-16.0,29.89,1014.9,,,,0,0,0,,,,,,,.03 IN,,2/8 Mostly Clear,72000.0,,FEW,8900.0,,,,,,
KRDR,12-31-2003,05:35,SPECI,,290,10.0,,,9999.0,Cloud Development Not Observable,-16.0,-16.0,29.88,,,,,0,0,0,,,,,,,,,2/8 Mostly Clear,72000.0,,FEW,1500.0,,,,,,
KRDR,12-31-2003,05:00,METAR,,290,10.0,,,8000.0,Light Snow/Mist/Cloud Development Not Observable,-15.0,-15.0,29.87,1014.3,,,,71,10,0,,,,,,,,,7/8 Mostly Cloudy,1500.0,,BKN,1500.0,,,,,,
KRDR,12-31-2003,04:45,METAR,,290,10.0,,,8000.0,Light Snow/Mist/Cloud Development Not Observable,-15.0,-15.0,29.87,,,,,71,10,0,,,,,,,,,7/8 Mostly Cloudy,1500.0,,BKN,1500.0,,,,,,
KRDR,12-31-2003,04:00,METAR,,300,13.0,,,3200.0,Light Snow/Mist/Cloud Development Not Observable,-14.0,-14.0,29.85,1013.7,,,,71,10,0,,,,,,,,,7/8 Mostly Cloudy,1500.0,,SCT,600.0,BKN,1500.0,,,,
KRDR,12-31-2003,03:45,METAR,,310,10.0,,,3200.0,Light Snow/Mist/Cloud Development Not Observable,-14.0,-14.0,29.85,,,,,71,10,0,,,,,,,,,8/8 Overcast,1500.0,,SCT,600.0,BKN,1500.0,OVC,2800.0,,
KRDR,12-31-2003,03:00,METAR,,320,10.0,,,1600.0,Light Snow/Mist/Cloud Development Not Observable,-14.0,-14.0,29.85,1013.8,,,,71,10,0,,,,,,.03 IN,,,7/8 Mostly Cloudy,600.0,,SCT,300.0,BKN,600.0,BKN,1200.0,,
KRDR,12-31-2003,02:00,METAR,,320,9.0,,,1200.0,Cloud Development Not Observable,-14.0,-14.0,29.85,1013.6,,,,0,0,0,,,,,,,,,,600.0,,SCT,300.0,BKN,600.0,OVC,1200.0,,
KRDR,12-31-2003,01:00,METAR,,340,10.0,,,1200.0,Cloud Development Not Observable,-13.0,-13.0,29.84,1012.9,,,,0,0,0,,,,,,,,,,600.0,,SCT,300.0,BKN,600.0,OVC,1200.0,,
KRDR,12-31-2003,00:00,METAR,,350,8.0,,,1200.0,Cloud Development Not Observable,-13.0,-13.0,29.84,1013.2,,,,0,0,0,,,,,,,,,,600.0,,SCT,300.0,BKN,600.0,OVC,1200.0,,
KRDR,12-30-2003,23:00,METAR,,350,8.0,,,1200.0,Cloud Development Not Observable,-12.0,-12.0,29.82,1012.5,,,,0,0,0,,,,,,,,,,600.0,,SCT,300.0,BKN,600.0,OVC,1200.0,,
KRDR,12-30-2003,22:32,SPECI,,360,8.0,,,1200.0,Cloud Development Not Observable,-12.0,-12.0,29.82,,,,,0,0,0,,,,,,,,,,600.0,,BKN,600.0,BKN,1200.0,OVC,2800.0,,
KRDR,12-30-2003,22:10,SPECI,,350,7.0,,,1600.0,Light Snow/Cloud Development Not Observable,-12.0,-12.0,29.82,,,,,71,0,0,,,,,,,,,8/8 Overcast,600.0,,BKN,600.0,BKN,1200.0,OVC,2800.0,,
KRDR,12-30-2003,22:00,METAR,,350,7.0,,,4000.0,Light Snow/Mist/Cloud Development Not Observable,-12.0,-12.0,29.82,1012.7,,,,71,10,0,,,,,,,,,8/8 Overcast,600.0,,BKN,600.0,BKN,1200.0,OVC,2800.0,,
KRDR,12-30-2003,21:00,METAR,,10,7.0,,,9999.0,Light Snow/Mist/Cloud Development Not Observable,-11.0,-11.0,29.82,1012.6,,,,71,10,0,,,,,,TRACE,,,8/8 Overcast,1200.0,,BKN,1200.0,OVC,11000.0,,,,
KRDR,12-30-2003,20:00,METAR,,360,5.0,,,9999.0,Light Snow/Cloud Development Not Observable,-12.0,-12.0,29.83,1012.9,,,,71,0,0,,,,,,,,,8/8 Overcast,12000.0,,FEW,2000.0,OVC,12000.0,,,,
KRDR,12-30-2003,19:40,SPECI,,20,5.0,,,9999.0,Light Snow/Cloud Development Not Observable,-12.0,-12.0,29.83,,,,,71,0,0,,,,,,,,,8/8 Overcast,11000.0,,OVC,11000.0,,,,,,
KRDR,12-30-2003,19:00,METAR,,,3.0,,,9999.0,Cloud Development Not Observable,-12.0,-12.0,29.85,1013.6,,,,0,0,0,,,,,,,,,7/8 Mostly Cloudy,15000.0,,BKN,15000.0,BKN,25000.0,,,,
KRDR,12-30-2003,18:00,METAR,,,1.0,,,9999.0,Cloud Development Not Observable,-13.0,-13.0,29.87,1014.4,,,,0,0,0,,,,,,,,,4/8 Partly Cloudy,72000.0,,FEW,9900.0,SCT,25000.0,,,,
KRDR,12-30-2003,17:00,METAR,,320,3.0,,,9999.0,Cloud Development Not Observable,-15.0,-15.0,29.91,1015.8,,,,0,0,0,,,,,,,,,4/8 Partly Cloudy,72000.0,,FEW,9900.0,SCT,25000.0,,,,
KRDR,12-30-2003,16:00,METAR,,320,5.0,,,9999.0,Cloud Development Not Observable,-17.0,-17.0,29.91,1016.1,,,,0,0,0,,,,,,,,,7/8 Mostly Cloudy,25000.0,,BKN,25000.0,,,,,,
KRDR,12-30-2003,15:00,METAR,,280,2.0,,,9999.0,Cloud Development Not Observable,-19.0,-19.0,29.90,1015.3,,,,0,0,0,,,,,,,,,2/8 Mostly Clear,72000.0,,FEW,25000.0,,,,,,
KRDR,12-30-2003,14:00,METAR,,230,6.0,,,9999.0,Cloud Development Not Observable,-19.0,-19.0,29.90,1014.8,,,,0,0,0,,,,,,,,,2/8 Mostly Clear,72000.0,,FEW,25000.0,,,,,,
KRDR,12-30-2003,13:00,METAR,,280,5.0,,,9999.0,Cloud Development Not Observable,-18.0,-18.0,29.89,1014.7,,,,0,0,0,,,,,,,,,2/8 Mostly Clear,72000.0,,FEW,25000.0,,,,,,
KRDR,12-30-2003,12:00,METAR,,280,2.0,,,9999.0,Cloud Development Not Observable,-18.0,-18.0,29.89,1014.7,,,,0,0,0,,,,,,,,,4/8 Partly Cloudy,72000.0,,FEW,9900.0,SCT,25000.0,,,,
KRDR,12-30-2003,11:00,METAR,,230,6.0,,,9999.0,Cloud Development Not Observable,-18.0,-18.0,29.90,1015.1,,,,0,0,0,,,,,,,,,4/8 Partly Cloudy,72000.0,,FEW,9900.0,SCT,25000.0,,,,
KRDR,12-30-2003,10:00,METAR,,240,6.0,,,9999.0,Cloud Development Not Observable,-18.0,-18.0,29.90,1015.1,,,,0,0,0,,,,,,,,,2/8 Mostly Clear,72000.0,,FEW,25000.0,,,,,,
KRDR,12-30-2003,09:00,METAR,,270,6.0,,,9999.0,Cloud Development Not Observable,-17.0,-17.0,29.91,1015.5,,,,0,0,0,,,,,,,,,4/8 Partly Cloudy,72000.0,,SCT,25000.0,,,,,,
KRDR,12-30-2003,08:00,METAR,,240,6.0,,,9999.0,Cloud Development Not Observable,-17.0,-17.0,29.90,1015.1,,,,0,0,0,,,,,,,,,Clear,72000.0,,,73000.0,,,,,,
KRDR,12-30-2003,07:00,METAR,,240,5.0,,,9999.0,Cloud Development Not Observable,-17.0,-17.0,29.90,1014.9,,,,0,0,0,,,,,,,,,Clear,72000.0,,,73000.0,,,,,,
KRDR,12-30-2003,06:00,METAR,,240,6.0,,,9999.0,Cloud Development Not Observable,-16.0,-16.0,29.89,1014.7,,,,0,0,0,,,,,,,IN,,2/8 Mostly Clear,72000.0,,FEW,25000.0,,,,,,
KRDR,12-30-2003,05:00,METAR,,260,5.0,,,9999.0,Cloud Development Not Observable,-15.0,-15.0,29.89,1014.7,,,,0,0,0,,,,,,,,,2/8 Mostly Clear,72000.0,,FEW,11000.0,FEW,25000.0,,,,
KRDR,12-30-2003,04:00,METAR,,250,5.0,,,9999.0,Cloud Development Not Observable,-15.0,-15.0,29.90,1015.1,,,,0,0,0,,,,,,,,,2/8 Mostly Clear,72000.0,,FEW,11000.0,FEW,25000.0,,,,
KRDR,12-30-2003,03:00,METAR,,280,5.0,,,9999.0,Cloud Development Not Observable,-13.0,-13.0,29.91,1015.1,,,,0,0,0,,,,,,TRACE,,,4/8 Partly Cloudy,72000.0,,FEW,11000.0,SCT,25000.0,,,,
KRDR,12-30-2003,02:44,SPECI,,280,4.0,,,9999.0,Cloud Development Not Observable,-13.0,-13.0,29.91,,,,,0,0,0,,,,,,,,,4/8 Partly Cloudy,72000.0,,SCT,11000.0,SCT,25000.0,,,,
KRDR,12-30-2003,02:00,METAR,,330,6.0,,,9999.0,Diamond Dust/Cloud Development Not Observable,-12.0,-12.0,29.90,1015.0,,,,76,0,0,,,,,,,,,7/8 Mostly Cloudy,25000.0,,SCT,11000.0,BKN,25000.0,,,,
KRDR,12-30-2003,01:40,SPECI,,340,11.0,,,9999.0,Diamond Dust/Cloud Development Not Observable,-12.0,-12.0,29.91,,,,,76,0,0,,,,,,,,,7/8 Mostly Cloudy,25000.0,,SCT,11000.0,BKN,25000.0,,,,
KRDR,12-30-2003,01:00,METAR,,330,6.0,,,9999.0,Cloud Development Not Observable,-11.0,-11.0,29.90,1014.7,,,,0,0,0,,,,,,,,,7/8 Mostly Cloudy,11000.0,,FEW,1800.0,SCT,11000.0,BKN,25000.0,,
KRDR,12-30-2003,00:00,METAR,,340,8.0,,,9999.0,Cloud Development Not Observable,-11.0,-11.0,29.89,1014.3,,,,0,0,0,,,,,,,IN,,7/8 Mostly Cloudy,11000.0,,FEW,1400.0,BKN,11000.0,BKN,25000.0,,
KRDR,12-29-2003,23:00,METAR,,340,9.0,,,9999.0,Cloud Development Not Observable,-10.0,-10.0,29.87,1013.7,,,,0,0,0,,,,,,,,,7/8 Mostly Cloudy,11000.0,,FEW,2000.0,BKN,11000.0,BKN,25000.0,,
KRDR,12-29-2003,22:00,METAR,,330,11.0,,,9999.0,Cloud Development Not Observable,-9.0,-10.0,29.87,1013.7,,,,0,0,0,,,,,,,,,7/8 Mostly Cloudy,11000.0,,FEW,2000.0,BKN,11000.0,,,,
KRDR,12-29-2003,21:40,SPECI,,340,11.0,,,9999.0,Cloud Development Not Observable,-9.0,-10.0,29.87,,,,,0,0,0,,,,,,,,,7/8 Mostly Cloudy,11000.0,,FEW,2000.0,BKN,11000.0,,,,
KRDR,12-29-2003,21:00,METAR,,330,11.0,,,9999.0,Light Snow/Cloud Development Not Observable,-9.0,-10.0,29.86,1013.3,,,,71,0,0,,,,,,TRACE,,,8/8 Overcast,2000.0,,FEW,900.0,BKN,2000.0,OVC,11000.0,,
KRDR,12-29-2003,20:00,METAR,,330,11.0,,,9999.0,Light Snow/Cloud Development Not Observable,-9.0,-10.0,29.85,1013.1,,,,71,0,0,,,,,,,,,8/8 Overcast,2000.0,,BKN,2000.0,OVC,11000.0,,,,
KRDR,12-29-2003,19:00,METAR,,330,9.0,,,9999.0,Light Snow/Cloud Development Not Observable,-8.0,-9.0,29.86,1013.2,,,,71,0,0,,,,,,,,,8/8 Overcast,2000.0,,BKN,2000.0,OVC,11000.0,,,,
KRDR,12-29-2003,18:00,METAR,,320,10.0,,,9999.0,Light Snow/Cloud Development Not Observable,-8.0,-8.0,29.87,1013.6,,,,71,0,0,,,,,,,IN,,8/8 Overcast,2000.0,,BKN,2000.0,OVC,11000.0,,,,
KRDR,12-29-2003,17:20,METAR,,330,7.0,,,9999.0,Light Snow/Cloud Development Not Observable,-9.0,-9.0,29.89,,,,,71,0,0,,,,,,,,,7/8 Mostly Cloudy,11000.0,,FEW,2000.0,BKN,11000.0,BKN,25000.0,,
KRDR,12-29-2003,17:00,METAR,,330,6.0,,,9999.0,Cloud Development Not Observable,-10.0,-10.0,29.89,1014.4,,,,0,0,0,,,,,,,,,7/8 Mostly Cloudy,12000.0,,FEW,2000.0,BKN,12000.0,BKN,25000.0,,
KRDR,12-29-2003,16:00,METAR,,330,10.0,,,9999.0,Cloud Development Not Observable,-10.0,-10.0,29.90,1014.7,,,,0,0,0,,,,,,,,,7/8 Mostly Cloudy,12000.0,,FEW,2000.0,FEW,5900.0,BKN,12000.0,,
KRDR,12-29-2003,15:15,SPECI,,320,8.0,,,9999.0,Light Snow/Cloud Development Not Observable,-10.0,-10.0,29.90,,,,,71,0,0,,,,,,,,,7/8 Mostly Cloudy,6000.0,,FEW,2000.0,SCT,5900.0,BKN,11000.0,,
KRDR,12-29-2003,15:00,METAR,,320,9.0,,,9999.0,Cloud Development Not Observable,-10.0,-10.0,29.89,1014.4,,,,0,0,0,,,,,,TRACE,,,7/8 Mostly Cloudy,6000.0,,FEW,3000.0,SCT,5900.0,BKN,12000.0,,
KRDR,12-29-2003,14:00,METAR,,330,11.0,,,9999.0,Light Snow/Cloud Development Not Observable,-10.0,-10.0,29.87,1013.7,,,,71,0,0,,,,,,,,,8/8 Overcast,12000.0,,SCT,5900.0,OVC,12000.0,,,,
KRDR,12-29-2003,13:00,METAR,,350,15.0,,,9999.0,Cloud Development Not Observable,-10.0,-10.0,29.87,1013.7,,,,0,0,0,,,,,,,,,8/8 Overcast,12000.0,,FEW,5900.0,OVC,12000.0,,,,
KRDR,12-29-2003,12:00,METAR,,340,17.0,,,9999.0,Light Snow/Cloud Development Not Observable,-10.0,-10.0,29.86,1013.3,,,,71,0,0,,,,,,,.02 IN,.02 IN,8/8 Overcast,4900.0,,FEW,2000.0,SCT,5400.0,OVC,12000.0,,
KRDR,12-29-2003,11:00,METAR,,340,11.0,,,9999.0,Light Snow/Cloud Development Not Observable,-9.0,-9.0,29.85,1012.9,,,,71,0,0,,,,,,,,,8/8 Overcast,6000.0,,SCT,2000.0,BKN,5900.0,OVC,9900.0,,
KRDR,12-29-2003,10:17,SPECI,,360,17.0,,,9999.0,Light Snow/Cloud Development Not Observable,-8.0,-8.0,29.85,,,,,71,0,0,,,,,,,,,8/8 Overcast,5500.0,,FEW,2000.0,BKN,5400.0,OVC,6900.0,,
KRDR,12-29-2003,10:00,METAR,,340,13.0,,,9999.0,Light Snow/Cloud Development Not Observable,-8.0,-8.0,29.84,1012.7,,,,71,0,0,,,,,,,,,8/8 Overcast,2000.0,,BKN,2000.0,OVC,5900.0,,,,
KRDR,12-29-2003,09:30,METAR,,20,11.0,,,4800.0,Light Snow/Cloud Development Not Observable,-7.0,-7.0,29.84,,,,,71,0,0,,,,,,,,,8/8 Overcast,1200.0,,BKN,1200.0,OVC,4000.0,,,,
KRDR,12-29-2003,09:00,METAR,,340,13.0,,,9999.0,Light Snow/Cloud Development Not Observable,-7.0,-7.0,29.84,1012.5,,,,71,0,0,,,,,,TRACE,,,8/8 Overcast,5500.0,,SCT,2000.0,BKN,5400.0,OVC,7900.0,,
KRDR,12-29-2003,08:28,SPECI,,330,13.0,,,9999.0,Light Snow/Cloud Development Not Observable,-7.0,-7.0,29.83,,,,,71,0,0,,,,,,,,,8/8 Overcast,5500.0,,FEW,1500.0,BKN,5400.0,OVC,7900.0,,
KRDR,12-29-2003,08:00,METAR,,330,12.0,,,8000.0,Light Snow/Cloud Development Not Observable,-7.0,-7.0,29.82,1011.9,,,,71,0,0,,,,,,,,,8/8 Overcast,2700.0,,FEW,1500.0,BKN,2700.0,OVC,4000.0,,
KRDR,12-29-2003,07:45,METAR,,320,12.0,17.0,,8000.0,Light Snow/Cloud Development Not Observable,-7.0,-7.0,29.82,,,,,71,0,0,,,,,,,,,8/8 Overcast,2500.0,,SCT,1500.0,OVC,2500.0,,,,
KRDR,12-29-2003,07:00,METAR,,340,14.0,,,6400.0,Light Snow/Cloud Development Not Observable,-7.0,-7.0,29.81,1011.4,,,,71,0,0,,,,,,,,,8/8 Overcast,1100.0,,OVC,1100.0,,,,,,
KRDR,12-29-2003,06:00,METAR,,330,15.0,,,9999.0,Light Snow/Cloud Development Not Observable,-6.0,-6.0,29.80,1011.0,,,,71,0,0,,,,,,,IN,,8/8 Overcast,1500.0,,OVC,1500.0,,,,,,
KRDR,12-29-2003,05:00,METAR,,330,15.0,,,9999.0,Light Snow/Cloud Development Not Observable,-6.0,-6.0,29.77,1009.9,,,,71,0,0,,,,,,,,,8/8 Overcast,1500.0,,OVC,1500.0,,,,,,
KRDR,12-29-2003,04:00,METAR,,330,15.0,,,9999.0,Light Snow/Cloud Development Not Observable,-6.0,-6.0,29.75,1009.4,,,,71,0,0,,,,,,,,,8/8 Overcast,2000.0,,SCT,600.0,OVC,2000.0,,,,
KRDR,12-29-2003,03:00,METAR,,330,14.0,,,9999.0,Light Snow/Blowing Snow/Cloud Development Not Observable,-6.0,-6.0,29.74,1009.0,,,,71,38,0,,,,,,TRACE,,,8/8 Overcast,2500.0,,SCT,600.0,OVC,2500.0,,,,
KRDR,12-29-2003,02:00,METAR,,320,17.0,,,9999.0,Light Snow/Blowing Snow/Cloud Development Not Observable,-6.0,-6.0,29.71,1007.8,,,,71,38,0,,,,,,,,,8/8 Overcast,2600.0,,SCT,600.0,OVC,2600.0,,,,
KRDR,12-29-2003,01:00,METAR,,330,16.0,,,9999.0,Light Snow/Cloud Development Not Observable,-6.0,-6.0,29.69,1007.1,,,,71,0,0,,,,,,,,,8/8 Overcast,1800.0,,SCT,600.0,OVC,1800.0,,,,
KRDR,12-29-2003,00:00,METAR,,330,15.0,,,9999.0,Light Snow/Cloud Development Not Observable,-6.0,-6.0,29.67,1006.4,,,,71,0,0,,,,,,,IN,,8/8 Overcast,1500.0,,SCT,600.0,OVC,1500.0,,,,
KRDR,12-28-2003,23:00,METAR,,330,15.0,,,3200.0,Light Snow/Mist/Cloud Development Not Observable,-6.0,-6.0,29.64,1005.4,,,,71,10,0,,,,,,,,,8/8 Overcast,1500.0,,SCT,600.0,OVC,1500.0,,,,
KRDR,12-28-2003,22:00,METAR,,340,18.0,22.0,,2400.0,Light Snow/Mist/Cloud Development Not Observable,-6.0,-6.0,29.61,1004.3,,,,71,10,0,,,,,,,,,8/8 Overcast,500.0,,BKN,500.0,OVC,1000.0,,,,
KRDR,12-28-2003,21:06,SPECI,,320,17.0,,,2400.0,Light Snow/Mist/Cloud Development Not Observable,-6.0,-6.0,29.58,,,,,71,10,0,,,,,,,,,8/8 Overcast,500.0,,BKN,500.0,OVC,1000.0,,,,
KRDR,12-28-2003,21:00,METAR,,330,16.0,,,3200.0,Light Snow/Mist/Cloud Development Not Observable,-6.0,-6.0,29.57,1002.9,,,,71,10,0,,,,,,TRACE,,,8/8 Overcast,500.0,,BKN,500.0,OVC,1000.0,,,,
KRDR,12-28-2003,20:32,SPECI,,330,18.0,25.0,,3200.0,Light Snow/Mist/Cloud Development Not Observable,-6.0,-6.0,29.55,,,,,71,10,0,,,,,,,,,8/8 Overcast,800.0,,BKN,800.0,OVC,1200.0,,,,
KRDR,12-28-2003,20:12,SPECI,,330,18.0,23.0,,1600.0,Light Snow/Mist/Cloud Development Not Observable,-6.0,-6.0,29.54,,,,,71,10,0,,,,,,,,,8/8 Overcast,500.0,,BKN,500.0,OVC,1000.0,,,,
KRDR,12-28-2003,19:27,SPECI,,330,16.0,,,4800.0,Light Snow/Mist/Cloud Development Not Observable,-6.0,-6.0,29.50,,,,,71,10,0,,,,,,,,,8/8 Overcast,500.0,,BKN,500.0,OVC,1000.0,,,,
KRDR,12-28-2003,19:09,SPECI,,330,16.0,,,4800.0,Mist/Cloud Development Not Observable,-6.0,-6.0,29.50,,,,,10,0,0,,,,,,,,,8/8 Overcast,600.0,,BKN,600.0,OVC,1300.0,,,,
KRDR,12-28-2003,19:00,METAR,,340,17.0,,,6400.0,Light Snow/Mist/Cloud Development Not Observable,-5.0,-5.0,29.49,1000.3,,,,71,10,0,,,,,,,,,8/8 Overcast,600.0,,BKN,600.0,OVC,1200.0,,,,
KRDR,12-28-2003,18:03,SPECI,,330,17.0,,,6400.0,Ice Pellets/Light Snow/Mist,-5.0,-5.0,29.47,,,,,71,79,10,,,,,,,,,8/8 Overcast,600.0,,BKN,600.0,OVC,1300.0,,,,
KRDR,12-28-2003,18:00,METAR,,330,18.0,,,3200.0,Light Snow/Mist/Cloud Development Not Observable,-5.0,-5.0,29.47,999.6,,,,71,10,0,,,,,,,IN,,8/8 Overcast,600.0,,BKN,600.0,OVC,1300.0,,,,
KRDR,12-28-2003,17:37,SPECI,,330,15.0,,,3200.0,Light Snow/Mist/Cloud Development Not Observable,-5.0,-5.0,29.47,,,,,71,10,0,,,,,,,,,8/8 Overcast,400.0,,OVC,400.0,,,,,,
KRDR,12-28-2003,17:05,SPECI,,340,16.0,,,3200.0,Light Snow/Mist/Cloud Development Not Observable,-4.0,-4.0,29.45,,,,,71,10,0,,,,,,,,,8/8 Overcast,400.0,,OVC,400.0,,,,,,
KRDR,12-28-2003,17:00,METAR,,340,15.0,,,1600.0,Light Snow/Heavy Freezing Drizzle/Mist,-4.0,-4.0,29.45,998.9,,,,71,57,10,,,,,,,,,8/8 Overcast,700.0,,OVC,700.0,,,,,,
KRDR,12-28-2003,16:24,SPECI,,340,15.0,,,1600.0,Snow/Freezing Drizzle/Mist,-4.0,-4.0,29.43,,,,,56,73,10,,,,,,,,,8/8 Overcast,400.0,,OVC,400.0,,,,,,
KRDR,12-28-2003,16:00,METAR,,340,13.0,,,1600.0,Light Freezing Rain/Cloud Development Not Observable,-4.0,-4.0,29.42,997.9,,,,66,0,0,,,,,,,,,8/8 Overcast,500.0,,OVC,500.0,,,,,,
KRDR,12-28-2003,15:36,SPECI,,350,15.0,,,1600.0,Mist/Cloud Development Not Observable,-3.0,-3.0,29.41,,,,,10,0,0,,,,,,,,,8/8 Overcast,500.0,,OVC,500.0,,,,,,
KRDR,12-28-2003,15:27,SPECI,,340,14.0,,,1600.0,Light Snow/Mist/Cloud Development Not Observable,-3.0,-3.0,29.41,,,,,71,10,0,,,,,,,,,8/8 Overcast,500.0,,OVC,500.0,,,,,,
KRDR,12-28-2003,15:00,METAR,,350,12.0,,,1600.0,Light Snow/Mist/Cloud Development Not Observable,-2.0,-2.0,29.39,995.0,,,,71,10,0,,,,,,TRACE,,,8/8 Overcast,1300.0,,SCT,800.0,OVC,1300.0,,,,
KRDR,12-28-2003,14:00,METAR,,350,12.0,,,1600.0,Light Snow/Mist/Cloud Development Not Observable,0.0,0.0,29.34,995.0,,,,71,10,0,,,,,,,,,8/8 Overcast,500.0,,BKN,500.0,OVC,1500.0,,,,
KRDR,12-28-2003,13:22,SPECI,,40,3.0,,,1600.0,Light Snow/Mist/Cloud Development Not Observable,0.0,0.0,29.34,,,,,71,10,0,,,,,,,,,8/8 Overcast,500.0,,OVC,500.0,,,,,,
KRDR,12-28-2003,13:00,METAR,,70,3.0,,,1600.0,Light Snow/Mist/Cloud Development Not Observable,0.0,0.0,29.33,994.6,,,,71,10,0,,,,,,,,,8/8 Overcast,500.0,,OVC,500.0,,,,,,
KRDR,12-28-2003,12:25,METAR,,100,3.0,,,1600.0,Light Snow/Mist/Cloud Development Not Observable,0.0,0.0,29.32,,,,,71,10,0,,,,,,,,,8/8 Overcast,600.0,,BKN,600.0,OVC,1400.0,,,,
KRDR,12-28-2003,12:00,METAR,,80,5.0,,,1600.0,Light Snow/Mist/Cloud Development Not Observable,0.0,0.0,29.31,993.9,,,,71,10,0,,,,,,,.01 IN,.14 IN,8/8 Overcast,600.0,,OVC,600.0,,,,,,
KRDR,12-28-2003,11:42,SPECI,,80,5.0,,,1600.0,Light Snow/Mist/Cloud Development Not Observable,0.0,0.0,29.31,,,,,71,10,0,,,,,,,,,8/8 Overcast,600.0,,OVC,600.0,,,,,,
KRDR,12-28-2003,11:00,METAR,,100,4.0,,,3200.0,Light Snow/Mist/Cloud Development Not Observable,0.0,0.0,29.31,993.9,,,,71,10,0,,,,,,,,,8/8 Overcast,1200.0,,OVC,1200.0,,,,,,
KRDR,12-28-2003,10:36,SPECI,,110,5.0,,,3200.0,Light Snow/Mist/Cloud Development Not Observable,0.0,0.0,29.31,,,,,71,10,0,,,,,,,,,8/8 Overcast,1200.0,,OVC,1200.0,,,,,,
KRDR,12-28-2003,10:00,METAR,,110,6.0,,,4800.0,Light Snow/Mist/Cloud Development Not Observable,1.0,1.0,29.32,994.0,,,,71,10,0,,,,,,,,,8/8 Overcast,1200.0,,OVC,1200.0,,,,,,
KRDR,12-28-2003,09:00,METAR,,110,5.0,,,9999.0,Light Snow/Cloud Development Not Observable,1.0,1.0,29.31,993.9,,,,71,0,0,,,,,,TRACE,,,8/8 Overcast,1200.0,,OVC,1200.0,,,,,,
KRDR,12-28-2003,08:27,SPECI,,130,6.0,,,9999.0,Light Snow/Rain/Cloud Development Not Observable,1.0,1.0,29.31,,,,,61,71,0,,,,,,,,,8/8 Overcast,1400.0,,OVC,1400.0,,,,,,
KRDR,12-28-2003,08:00,METAR,,140,6.0,,,9999.0,Cloud Development Not Observable,1.0,1.0,29.31,993.9,,,,0,0,0,,,,,,,,,8/8 Overcast,1400.0,,OVC,1400.0,,,,,,
KRDR,12-28-2003,07:00,METAR,,140,9.0,,,9999.0,Cloud Development Not Observable,2.0,2.0,29.31,993.8,,,,0,0,0,,,,,,,,,8/8 Overcast,1200.0,,OVC,1200.0,,,,,,
KRDR,12-28-2003,06:00,METAR,,130,8.0,,,9999.0,Cloud Development Not Observable,2.0,2.0,29.32,994.0,,,,0,0,0,,,,,,,IN,,8/8 Overcast,1200.0,,OVC,1200.0,,,,,,
KRDR,12-28-2003,05:00,METAR,,150,11.0,,,9999.0,Cloud Development Not Observable,2.0,2.0,29.33,994.3,,,,0,0,0,,,,,,,,,8/8 Overcast,1200.0,,OVC,1200.0,,,,,,
KRDR,12-28-2003,04:00,METAR,,150,11.0,,,9999.0,Cloud Development Not Observable,2.0,2.0,29.34,994.7,,,,0,0,0,,,,,,,,,8/8 Overcast,1200.0,,OVC,1200.0,,,,,,
KRDR,12-28-2003,03:00,METAR,,150,11.0,,,6400.0,Mist/Cloud Development Not Observable,2.0,2.0,29.35,995.1,,,,10,0,0,,,,,,TRACE,,,8/8 Overcast,800.0,,OVC,1000.0,,,,,,
KRDR,12-28-2003,02:23,SPECI,,140,10.0,,,6400.0,Mist/Cloud Development Not Observable,2.0,2.0,29.35,,,,,10,0,0,,,,,,,,,8/8 Overcast,800.0,,OVC,1000.0,,,,,,
KRDR,12-28-2003,02:00,METAR,,140,10.0,,,4800.0,Mist/Cloud Development Not Observable,2.0,2.0,29.35,995.3,,,,10,0,0,,,,,,,,,8/8 Overcast,900.0,,OVC,900.0,,,,,,
KRDR,12-28-2003,01:26,SPECI,,150,9.0,,,4800.0,Mist/Cloud Development Not Observable,2.0,2.0,29.35,,,,,10,0,0,,,,,,,,,8/8 Overcast,800.0,,OVC,800.0,,,,,,
KRDR,12-28-2003,01:00,METAR,,140,9.0,,,4800.0,Drizzle/Mist/Cloud Development Not Observable,2.0,2.0,29.35,995.5,,,,51,10,0,,,,,,,,,8/8 Overcast,500.0,,OVC,500.0,,,,,,
KRDR,12-28-2003,00:18,SPECI,,140,8.0,,,1400.0,Cloud Development Not Observable,2.0,2.0,29.35,,,,,0,0,0,,,,,,,,,,400.0,,OVC,400.0,,,,,,
KRDR,12-28-2003,00:00,METAR,,130,8.0,,,1000.0,Cloud Development Not Observable,2.0,2.0,29.35,995.3,,,,0,0,0,,,,,,,,,,300.0,,OVC,300.0,,,,,,
KRDR,12-27-2003,23:00,METAR,,110,9.0,,,800.0,Cloud Development Not Observable,2.0,2.0,29.36,995.6,,,,0,0,0,,,,,,,,,,300.0,,OVC,300.0,,,,,,
KRDR,12-27-2003,23:00,SPECI,,110,10.0,,,800.0,Cloud Development Not Observable,2.0,2.0,29.36,,,,,0,0,0,,,,,,,,,,300.0,,OVC,300.0,,,,,,
KRDR,12-27-2003,22:00,METAR,,90,8.0,,,800.0,Cloud Development Not Observable,2.0,2.0,29.38,996.3,,,,0,0,0,,,,,,,,,,400.0,,OVC,400.0,,,,,,
KRDR,12-27-2003,21:00,METAR,,80,7.0,,,800.0,Cloud Development Not Observable,2.0,2.0,29.38,996.3,,,,0,0,0,,,,,,,,,,400.0,,OVC,400.0,,,,,,
KRDR,12-27-2003,20:06,SPECI,,90,7.0,,,800.0,Cloud Development Not Observable,2.0,2.0,29.39,,,,,0,0,0,,,,,,,,,,400.0,,OVC,400.0,,,,,,
KRDR,12-27-2003,20:00,METAR,,90,7.0,,,1000.0,Cloud Development Not Observable,2.0,2.0,29.39,996.7,,,,0,0,0,,,,,,,,,,400.0,,OVC,400.0,,,,,,
KRDR,12-27-2003,19:00,METAR,,80,8.0,,,1000.0,Cloud Development Not Observable,2.0,2.0,29.42,997.7,,,,0,0,0,,,,,,,,,,400.0,,OVC,400.0,,,,,,
KRDR,12-27-2003,18:00,METAR,,80,9.0,,,1200.0,Cloud Development Not Observable,2.0,2.0,29.46,999.1,,,,0,0,0,,,,,,,,,,400.0,,OVC,400.0,,,,,,
KRDR,12-27-2003,17:18,SPECI,,80,9.0,,,1200.0,Cloud Development Not Observable,2.0,2.0,29.49,,,,,0,0,0,,,,,,,,,,400.0,,OVC,400.0,,,,,,
KRDR,12-27-2003,17:00,METAR,,80,9.0,,,1200.0,Cloud Development Not Observable,2.0,2.0,29.51,1000.5,,,,0,0,0,,,,,,,,,,300.0,,OVC,300.0,,,,,,
KRDR,12-27-2003,16:23,SPECI,,80,10.0,,,1200.0,Cloud Development Not Observable,2.0,2.0,29.52,,,,,0,0,0,,,,,,,,,,300.0,,OVC,300.0,,,,,,
KRDR,12-27-2003,16:00,METAR,,80,9.0,,,1200.0,Cloud Development Not Observable,2.0,2.0,29.53,1001.2,,,,0,0,0,,,,,,,,,,500.0,,OVC,500.0,,,,,,
KRDR,12-27-2003,15:00,METAR,,90,10.0,,,1000.0,Cloud Development Not Observable,1.0,1.0,29.57,1002.6,,,,0,0,0,,,,,,,,,,400.0,,OVC,400.0,,,,,,
KRDR,12-27-2003,14:00,METAR,,90,8.0,,,1000.0,Cloud Development Not Observable,1.0,1.0,29.58,1003.1,,,,0,0,0,,,,,,,,,,400.0,,OVC,400.0,,,,,,
KRDR,12-27-2003,13:00,METAR,,90,8.0,,,1200.0,Cloud Development Not Observable,1.0,1.0,29.59,1003.3,,,,0,0,0,,,,,,,,,,300.0,,FEW,200.0,OVC,300.0,,,,
KRDR,12-27-2003,12:00,METAR,,100,9.0,,,1200.0,Cloud Development Not Observable,1.0,1.0,29.61,1004.0,,,,0,0,0,,,,,,,,,,400.0,,OVC,400.0,,,,,,
KRDR,12-27-2003,11:42,SPECI,,100,8.0,,,1200.0,Cloud Development Not Observable,1.0,1.0,29.61,,,,,0,0,0,,,,,,,,,,400.0,,OVC,400.0,,,,,,
KRDR,12-27-2003,11:00,METAR,,90,7.0,,,1200.0,Cloud Development Not Observable,1.0,1.0,29.64,1005.1,,,,0,0,0,,,,,,,,,,600.0,,OVC,600.0,,,,,,
KRDR,12-27-2003,10:12,SPECI,,90,8.0,,,1200.0,Cloud Development Not Observable,1.0,1.0,29.65,,,,,0,0,0,,,,,,,,,,600.0,,OVC,600.0,,,,,,
KRDR,12-27-2003,10:00,METAR,,100,8.0,,,1200.0,Cloud Development Not Observable,1.0,1.0,29.67,1006.1,,,,0,0,0,,,,,,,,,,1000.0,,OVC,1000.0,,,,,,
KRDR,12-27-2003,09:00,METAR,,100,7.0,,,1200.0,Cloud Development Not Observable,1.0,1.0,29.70,1007.2,,,,0,0,0,,,,,,,,,,1000.0,,OVC,1000.0,,,,,,
KRDR,12-27-2003,08:00,METAR,,110,9.0,,,1200.0,Cloud Development Not Observable,1.0,1.0,29.71,1007.5,,,,0,0,0,,,,,,,,,,1000.0,,OVC,1000.0,,,,,,
KRDR,12-27-2003,07:00,METAR,,120,8.0,,,1200.0,Cloud Development Not Observable,1.0,1.0,29.72,1007.9,,,,0,0,0,,,,,,,,,,1500.0,,OVC,1500.0,,,,,,
KRDR,12-27-2003,06:45,SPECI,,120,8.0,,,1200.0,Cloud Development Not Observable,1.0,1.0,29.73,,,,,0,0,0,,,,,,,,,,1000.0,,OVC,1000.0,,,,,,
KRDR,12-27-2003,06:15,SPECI,,110,8.0,,,4800.0,Drizzle/Mist/Cloud Development Not Observable,1.0,1.0,29.73,,,,,51,10,0,,,,,,,,,8/8 Overcast,1500.0,,OVC,1500.0,,,,,,
KRDR,12-27-2003,06:00,METAR,,110,8.0,,,9999.0,Mist/Cloud Development Not Observable,1.0,1.0,29.74,1008.7,,,,10,0,0,,,,,,,,,8/8 Overcast,1500.0,,OVC,1500.0,,,,,,
KRDR,12-27-2003,05:00,METAR,,110,7.0,,,9999.0,Cloud Development Not Observable,1.0,1.0,29.76,1009.3,,,,0,0,0,,,,,,,,,8/8 Overcast,1500.0,,OVC,1500.0,,,,,,
KRDR,12-27-2003,04:00,METAR,,110,8.0,,,9999.0,Cloud Development Not Observable,1.0,1.0,29.78,1010.0,,,,0,0,0,,,,,,,,,8/8 Overcast,1800.0,,OVC,1800.0,,,,,,
KRDR,12-27-2003,03:00,METAR,,110,7.0,,,9999.0,Cloud Development Not Observable,1.0,0.0,29.80,1010.7,,,,0,0,0,,,,,,,,,8/8 Overcast,1500.0,,OVC,1500.0,,,,,,
KRDR,12-27-2003,02:00,METAR,,90,5.0,,,9999.0,Cloud Development Not Observable,0.0,0.0,29.81,1011.3,,,,0,0,0,,,,,,,,,8/8 Overcast,1500.0,,OVC,1500.0,,,,,,
KRDR,12-27-2003,01:00,METAR,,140,6.0,,,9999.0,Cloud Development Not Observable,1.0,0.0,29.84,,,,,0,0,0,,,,,,,,,8/8 Overcast,1500.0,,OVC,1500.0,,,,,,
KRDR,12-27-2003,00:00,METAR,,130,5.0,,,9999.0,Cloud Development Not Observable,1.0,0.0,29.84,,,,,0,0,0,,,,,,,,,8/8 Overcast,1300.0,,OVC,1300.0,,,,,,
KRDR,12-26-2003,23:00,METAR,,130,5.0,,,8000.0,Mist/Cloud Development Not Observable,1.0,0.0,29.84,,,,,10,0,0,,,,,,,,,8/8 Overcast,1300.0,,BKN,1300.0,OVC,12000.0,,,,
KRDR,12-26-2003,22:00,METAR,,150,7.0,,,9999.0,Cloud Development Not Observable,1.0,0.0,29.85,,,,,0,0,0,,,,,,,,,8/8 Overcast,1200.0,,OVC,1200.0,,,,,,
KRDR,12-26-2003,21:00,METAR,,160,10.0,,,9999.0,Cloud Development Not Observable,1.0,0.0,29.84,,,,,0,0,0,,,,,,,,,8/8 Overcast,12000.0,,SCT,1200.0,OVC,12000.0,,,,
KRDR,12-26-2003,20:00,METAR,,150,10.0,,,9999.0,Cloud Development Not Observable,1.0,0.0,29.83,,,,,0,0,0,,,,,,,,,8/8 Overcast,3900.0,,SCT,1200.0,BKN,4000.0,OVC,12000.0,,
KRDR,12-26-2003,19:00,METAR,,160,10.0,,,9999.0,Cloud Development Not Observable,1.0,-1.0,29.83,,,,,0,0,0,,,,,,,,,7/8 Mostly Cloudy,11000.0,,BKN,11000.0,BKN,25000.0,,,,
KRDR,12-26-2003,18:00,METAR,,190,7.0,,,9999.0,Cloud Development Not Observable,-1.0,-2.0,29.87,,,,,0,0,0,,,,,,,,,7/8 Mostly Cloudy,10000.0,,BKN,9900.0,BKN,25000.0,,,,
KRDR,12-26-2003,17:00,METAR,,170,8.0,,,9999.0,Cloud Development Not Observable,-3.0,-3.0,29.87,,,,,0,0,0,,,,,,,,,8/8 Overcast,15000.0,,BKN,15000.0,OVC,25000.0,,,,
KRDR,12-26-2003,16:00,METAR,,140,10.0,,,9999.0,Cloud Development Not Observable,-4.0,-4.0,29.87,,,,,0,0,0,,,,,,,,,8/8 Overcast,15000.0,,BKN,15000.0,OVC,25000.0,,,,
KRDR,12-26-2003,15:00,METAR,,,6.0,,,9999.0,Cloud Development Not Observable,-5.0,-5.0,29.89,,,,,0,0,0,,,,,,,,,8/8 Overcast,25000.0,,SCT,13000.0,OVC,25000.0,,,,
KRDR,12-26-2003,14:00,METAR,,180,3.0,,,9999.0,Cloud Development Not Observable,-5.0,-5.0,29.89,,,,,0,0,0,,,,,,,,,8/8 Overcast,12000.0,,BKN,12000.0,OVC,25000.0,,,,
KRDR,12-26-2003,13:00,METAR,,150,6.0,,,9999.0,Cloud Development Not Observable,-6.0,-6.0,29.88,,,,,0,0,0,,,,,,,,,7/8 Mostly Cloudy,12000.0,,BKN,12000.0,,,,,,
KRDR,12-26-2003,12:30,METAR,,150,4.0,,,9999.0,Cloud Development Not Observable,-5.0,-5.0,29.87,,,,,0,0,0,,,,,,,,,7/8 Mostly Cloudy,12000.0,,BKN,12000.0,,,,,,
KRDR,12-24-2003,23:00,METAR,,160,9.0,,,9999.0,Cloud Development Not Observable,-2.0,-3.0,29.93,1015.5,,,,0,0,0,,,,,,,,,2/8 Mostly Clear,72000.0,,FEW,25000.0,,,,,,
KRDR,12-24-2003,22:00,METAR,,160,11.0,,,9999.0,Cloud Development Not Observable,-1.0,-2.0,29.95,1016.1,,,,0,0,0,,,,,,,,,2/8 Mostly Clear,72000.0,,FEW,25000.0,,,,,,
KRDR,12-24-2003,21:00,METAR,,170,11.0,,,9999.0,Cloud Development Not Observable,0.0,-2.0,29.95,1016.1,,,,0,0,0,,,,,,,,,Clear,72000.0,,,73000.0,,,,,,
KRDR,12-24-2003,20:00,METAR,,180,12.0,,,9999.0,Cloud Development Not Observable,-1.0,-3.0,29.96,1016.5,,,,0,0,0,,,,,,,,,Clear,72000.0,,,73000.0,,,,,,
KRDR,12-24-2003,19:00,METAR,,170,9.0,,,9999.0,Cloud Development Not Observable,-2.0,-4.0,29.97,1016.8,,,,0,0,0,,,,,,,,,Clear,72000.0,,,73000.0,,,,,,
KRDR,12-24-2003,17:50,METAR,,160,8.0,,,9999.0,Cloud Development Not Observable,-4.0,-5.0,29.98,1017.3,,,,0,0,0,,,,,,,,,2/8 Mostly Clear,72000.0,,FEW,25000.0,,,,,,
KRDR,12-24-2003,17:00,METAR,,160,8.0,,,9999.0,Cloud Development Not Observable,-7.0,-7.0,29.99,1017.9,,,,0,0,0,,,,,,,,,2/8 Mostly Clear,72000.0,,FEW,25000.0,,,,,,
KRDR,12-24-2003,16:00,METAR,,170,7.0,,,9999.0,Cloud Development Not Observable,-9.0,-9.0,30.00,1018.1,,,,0,0,0,,,,,,,,,2/8 Mostly Clear,72000.0,,FEW,25000.0,,,,,,
KRDR,12-24-2003,15:00,METAR,,150,6.0,,,9999.0,Cloud Development Not Observable,-11.0,-11.0,30.00,1018.1,,,,0,0,0,,,,,,,,,2/8 Mostly Clear,72000.0,,FEW,25000.0,,,,,,
KRDR,12-24-2003,14:00,METAR,,150,3.0,,,9999.0,Cloud Development Not Observable,-12.0,-12.0,30.01,1018.5,,,,0,0,0,,,,,,,,,Clear,72000.0,,,73000.0,,,,,,
KRDR,12-24-2003,13:00,METAR,,,2.0,,,9999.0,Cloud Development Not Observable,-11.0,-11.0,30.02,1018.8,,,,0,0,0,,,,,,,,,Clear,72000.0,,,73000.0,,,,,,
KRDR,12-24-2003,12:00,METAR,,200,4.0,,,9999.0,Cloud Development Not Observable,-12.0,-12.0,30.00,1018.2,,,,0,0,0,,,,,,,,,Clear,72000.0,,,73000.0,,,,,,
KRDR,12-24-2003,11:00,METAR,,130,6.0,,,9999.0,Cloud Development Not Observable,-12.0,-12.0,30.02,1018.8,,,,0,0,0,,,,,,,,,Clear,72000.0,,,73000.0,,,,,,
KRDR,12-24-2003,10:00,METAR,,170,2.0,,,9999.0,Cloud Development Not Observable,-12.0,-12.0,30.03,1018.8,,,,0,0,0,,,,,,,,,Clear,72000.0,,,73000.0,,,,,,
KRDR,12-24-2003,09:00,METAR,,170,3.0,,,9999.0,Cloud Development Not Observable,-11.0,-11.0,30.04,1019.3,,,,0,0,0,,,,,,,,,Clear,72000.0,,,73000.0,,,,,,
KRDR,12-24-2003,08:00,METAR,,120,4.0,,,9999.0,Cloud Development Not Observable,-11.0,-11.0,30.04,1019.3,,,,0,0,0,,,,,,,,,Clear,72000.0,,,73000.0,,,,,,
KRDR,12-24-2003,07:00,METAR,,150,5.0,,,9999.0,Cloud Development Not Observable,-10.0,-10.0,30.04,1019.3,,,,0,0,0,,,,,,,,,2/8 Mostly Clear,72000.0,,FEW,25000.0,,,,,,
KRDR,12-24-2003,06:00,METAR,,160,5.0,,,9999.0,Cloud Development Not Observable,-10.0,-10.0,30.05,1019.7,,,,0,0,0,,,,,,,,,Clear,72000.0,,,73000.0,,,,,,
KRDR,12-24-2003,05:00,METAR,,150,7.0,,,9999.0,Cloud Development Not Observable,-9.0,-9.0,30.05,1019.7,,,,0,0,0,,,,,,,,,Clear,72000.0,,,73000.0,,,,,,
KRDR,12-24-2003,04:00,METAR,,170,8.0,,,9999.0,Cloud Development Not Observable,-9.0,-9.0,30.05,1019.8,,,,0,0,0,,,,,,,,,Clear,72000.0,,,73000.0,,,,,,
KRDR,12-24-2003,03:00,METAR,,160,8.0,,,9999.0,Cloud Development Not Observable,-8.0,-8.0,30.05,1019.8,,,,0,0,0,,,,,,,,,Clear,72000.0,,,73000.0,,,,,,
KRDR,12-24-2003,02:00,METAR,,150,7.0,,,9999.0,Cloud Development Not Observable,-7.0,-7.0,30.05,1019.9,,,,0,0,0,,,,,,,,,Clear,72000.0,,,73000.0,,,,,,
KRDR,12-24-2003,01:00,METAR,,180,7.0,,,9999.0,Cloud Development Not Observable,-6.0,-6.0,30.05,1019.8,,,,0,0,0,,,,,,,,,2/8 Mostly Clear,72000.0,,FEW,25000.0,,,,,,
KRDR,12-24-2003,00:00,METAR,,180,8.0,,,9999.0,Cloud Development Not Observable,-5.0,-5.0,30.05,1019.8,,,,0,0,0,,,,,,,,,2/8 Mostly Clear,72000.0,,FEW,25000.0,,,,,,
KRDR,12-23-2003,23:00,METAR,,200,6.0,,,9999.0,Cloud Development Not Observable,-5.0,-5.0,30.05,1019.8,,,,0,0,0,,,,,,,,,2/8 Mostly Clear,72000.0,,FEW,25000.0,,,,,,
KRDR,12-23-2003,22:00,METAR,,210,6.0,,,9999.0,Cloud Development Not Observable,-1.0,-3.0,30.06,1020.0,,,,0,0,0,,,,,,,,,2/8 Mostly Clear,72000.0,,FEW,25000.0,,,,,,
KRDR,12-23-2003,21:00,METAR,,210,9.0,,,9999.0,Cloud Development Not Observable,-1.0,-3.0,30.04,1019.2,,,,0,0,0,,,,,,,,,2/8 Mostly Clear,72000.0,,FEW,9900.0,,,,,,
KRDR,12-23-2003,20:00,METAR,,220,9.0,,,9999.0,Cloud Development Not Observable,-1.0,-4.0,30.04,1019.1,,,,0,0,0,,,,,,,,,Clear,72000.0,,,73000.0,,,,,,
KRDR,12-23-2003,19:00,METAR,,220,10.0,,,9999.0,Cloud Development Not Observable,-2.0,-4.0,30.04,1019.1,,,,0,0,0,,,,,,,,,Clear,72000.0,,,73000.0,,,,,,
KRDR,12-23-2003,18:00,METAR,,220,13.0,,,9999.0,Cloud Development Not Observable,-5.0,-6.0,30.05,1019.6,,,,0,0,0,,,,,,,,,2/8 Mostly Clear,72000.0,,FEW,8400.0,,,,,,
KRDR,12-23-2003,17:00,METAR,,210,11.0,,,9999.0,Cloud Development Not Observable,-5.0,-6.0,30.07,1020.3,,,,0,0,0,,,,,,,,,2/8 Mostly Clear,72000.0,,FEW,8400.0,,,,,,
KRDR,12-23-2003,16:00,METAR,,200,8.0,,,9999.0,Cloud Development Not Observable,-7.0,-7.0,30.07,1020.3,,,,0,0,0,,,,,,,,,4/8 Partly Cloudy,72000.0,,SCT,8400.0,,,,,,
KRDR,12-23-2003,15:00,METAR,,200,8.0,,,9999.0,Cloud Development Not Observable,-9.0,-9.0,30.09,1021.0,,,,0,0,0,,,,,,,,,7/8 Mostly Cloudy,8500.0,,BKN,8400.0,,,,,,
KRDR,12-23-2003,14:00,METAR,,180,8.0,,,9999.0,Cloud Development Not Observable,-12.0,-12.0,30.08,1020.8,,,,0,0,0,,,,,,,,,7/8 Mostly Cloudy,8500.0,,BKN,8400.0,,,,,,
KRDR,12-23-2003,13:39,SPECI,,180,8.0,,,9999.0,Cloud Development Not Observable,-12.0,-12.0,30.08,,,,,0,0,0,,,,,,,,,Clear,72000.0,,,73000.0,,,,,,
KRDR,12-23-2003,13:00,METAR,,250,7.0,,,9999.0,Cloud Development Not Observable,-11.0,-11.0,30.08,1020.7,,,,0,0,0,,,,,,,,,Clear,72000.0,,,73000.0,,,,,,
KRDR,12-23-2003,12:00,METAR,,200,6.0,,,9999.0,Cloud Development Not Observable,-12.0,-12.0,30.09,1021.1,,,,0,0,0,,,,,,,,,Clear,72000.0,,,73000.0,,,,,,
KRDR,12-23-2003,11:00,METAR,,210,6.0,,,9999.0,Cloud Development Not Observable,-12.0,-12.0,30.10,1021.3,,,,0,0,0,,,,,,,,,Clear,72000.0,,,73000.0,,,,,,
KRDR,12-23-2003,10:00,METAR,,230,6.0,,,9999.0,Cloud Development Not Observable,-11.0,-11.0,30.11,1021.6,,,,0,0,0,,,,,,,,,Clear,72000.0,,,73000.0,,,,,,
KRDR,12-23-2003,09:00,METAR,,250,4.0,,,9999.0,Cloud Development Not Observable,-10.0,-10.0,30.12,1021.8,,,,0,0,0,,,,,,,,,Clear,72000.0,,,73000.0,,,,,,
KRDR,12-23-2003,07:00,METAR,,270,5.0,,,9999.0,Cloud Development Not Observable,-6.0,-6.0,30.11,1021.3,,,,0,0,0,,,,,,,,,8/8 Overcast,3300.0,,SCT,1800.0,OVC,3400.0,,,,
KRDR,12-23-2003,06:00,METAR,,300,7.0,,,9999.0,Cloud Development Not Observable,-6.0,-6.0,30.11,1021.3,,,,0,0,0,,,,,,,,,7/8 Mostly Cloudy,2500.0,,FEW,1600.0,SCT,2500.0,BKN,5400.0,,
KRDR,12-23-2003,05:00,METAR,,300,8.0,,,9999.0,Cloud Development Not Observable,-7.0,-7.0,30.11,1021.4,,,,0,0,0,,,,,,,,,Clear,72000.0,,,73000.0,,,,,,
KRDR,12-23-2003,04:00,METAR,,350,7.0,,,9999.0,Cloud Development Not Observable,-6.0,-7.0,30.10,1021.1,,,,0,0,0,,,,,,,,,Clear,72000.0,,,73000.0,,,,,,
KRDR,12-23-2003,03:35,SPECI,,350,9.0,,,9999.0,Cloud Development Not Observable,-6.0,-6.0,30.10,,,,,0,0,0,,,,,,,,,2/8 Mostly Clear,72000.0,,FEW,2500.0,,,,,,
KRDR,12-23-2003,03:00,METAR,,350,9.0,,,9999.0,Cloud Development Not Observable,-4.0,-5.0,30.10,1021.0,,,,0,0,0,,,,,,,,,7/8 Mostly Cloudy,2800.0,,BKN,2800.0,,,,,,
KRDR,12-23-2003,02:00,METAR,,350,10.0,,,9999.0,Cloud Development Not Observable,-3.0,-4.0,30.09,1020.8,,,,0,0,0,,,,,,,,,7/8 Mostly Cloudy,2500.0,,BKN,2500.0,,,,,,
KRDR,12-23-2003,01:00,METAR,,350,13.0,,,9999.0,Cloud Development Not Observable,-2.0,-3.0,30.08,1020.2,,,,0,0,0,,,,,,,,,8/8 Overcast,2800.0,,OVC,2800.0,,,,,,
KRDR,12-23-2003,00:00,METAR,,350,13.0,,,9999.0,Cloud Development Not Observable,-2.0,-3.0,30.06,1019.7,,,,0,0,0,,,,,,,IN,,8/8 Overcast,2500.0,,OVC,2500.0,,,,,,
KRDR,12-22-2003,23:00,METAR,,350,14.0,,,9999.0,Cloud Development Not Observable,-2.0,-2.0,30.04,1019.0,,,,0,0,0,,,,,,,,,8/8 Overcast,2500.0,,OVC,2500.0,,,,,,
KRDR,12-22-2003,22:00,METAR,,350,16.0,,,9999.0,Cloud Development Not Observable,-1.0,-1.0,30.02,1018.2,,,,0,0,0,,,,,,,,,8/8 Overcast,2500.0,,OVC,2500.0,,,,,,
KRDR,12-22-2003,21:00,METAR,,340,13.0,,,9999.0,Cloud Development Not Observable,-1.0,-2.0,30.00,1017.5,,,,0,0,0,,,,,,TRACE,,,8/8 Overcast,2500.0,,OVC,2500.0,,,,,,
KRDR,12-22-2003,20:00,METAR,,330,12.0,,,9999.0,Snow Grains/Cloud Development Not Observable,0.0,-1.0,29.97,1016.4,,,,77,0,0,,,,,,,,,8/8 Overcast,2500.0,,BKN,2500.0,OVC,25000.0,,,,
KRDR,12-22-2003,19:00,METAR,,320,15.0,,,9999.0,Cloud Development Not Observable,0.0,-1.0,29.96,1016.0,,,,0,0,0,,,,,,,,,7/8 Mostly Cloudy,2500.0,,BKN,2500.0,BKN,25000.0,,,,
KRDR,12-22-2003,18:00,METAR,,320,13.0,,,9999.0,Cloud Development Not Observable,0.0,-2.0,29.95,1015.8,,,,0,0,0,,,,,,,,,7/8 Mostly Cloudy,2500.0,,BKN,2500.0,BKN,25000.0,,,,
KRDR,12-22-2003,17:00,METAR,,310,14.0,,,9999.0,Cloud Development Not Observable,-1.0,-3.0,29.94,1015.5,,,,0,0,0,,,,,,,,,7/8 Mostly Cloudy,2500.0,,BKN,2500.0,BKN,25000.0,,,,
KRDR,12-22-2003,16:00,METAR,,290,14.0,,,9999.0,Cloud Development Not Observable,-2.0,-4.0,29.92,1014.8,,,,0,0,0,,,,,,,,,7/8 Mostly Cloudy,2800.0,,BKN,2800.0,BKN,25000.0,,,,
KRDR,12-22-2003,15:00,METAR,,280,17.0,,,9999.0,Cloud Development Not Observable,-3.0,-5.0,29.91,1014.3,,,,0,0,0,,,,,,,,,7/8 Mostly Cloudy,2500.0,,BKN,2500.0,BKN,25000.0,,,,
KRDR,12-22-2003,14:00,METAR,,280,12.0,,,9999.0,Cloud Development Not Observable,-3.0,-5.0,29.90,1013.9,,,,0,0,0,,,,,,,,,2/8 Mostly Clear,72000.0,,FEW,25000.0,,,,,,
KRDR,12-22-2003,13:00,METAR,,300,7.0,,,9999.0,Cloud Development Not Observable,-3.0,-5.0,29.89,1013.6,,,,0,0,0,,,,,,,,,2/8 Mostly Clear,72000.0,,FEW,25000.0,,,,,,
KRDR,12-22-2003,12:00,METAR,,280,9.0,,,9999.0,Cloud Development Not Observable,-3.0,-5.0,29.87,1013.2,,,,0,0,0,,,,,,,,,Clear,72000.0,,,73000.0,,,,,,
KRDR,12-22-2003,11:00,METAR,,270,11.0,,,9999.0,Cloud Development Not Observable,-3.0,-4.0,29.87,1013.0,,,,0,0,0,,,,,,,,,2/8 Mostly Clear,72000.0,,FEW,25000.0,,,,,,
KRDR,12-22-2003,10:00,METAR,,280,11.0,,,9999.0,Cloud Development Not Observable,-2.0,-4.0,29.87,1013.0,,,,0,0,0,,,,,,,,,4/8 Partly Cloudy,72000.0,,SCT,25000.0,,,,,,
KRDR,12-22-2003,09:00,METAR,,290,11.0,,,9999.0,Cloud Development Not Observable,-2.0,-4.0,29.87,1013.0,,,,0,0,0,,,,,,,,,4/8 Partly Cloudy,72000.0,,SCT,25000.0,,,,,,
KRDR,12-22-2003,08:00,METAR,,280,10.0,,,9999.0,Cloud Development Not Observable,-1.0,-3.0,29.86,1012.6,,,,0,0,0,,,,,,,,,4/8 Partly Cloudy,72000.0,,SCT,25000.0,,,,,,
KRDR,12-22-2003,07:00,METAR,,280,13.0,,,9999.0,Cloud Development Not Observable,0.0,-3.0,29.84,1012.0,,,,0,0,0,,,,,,,,,4/8 Partly Cloudy,72000.0,,SCT,25000.0,,,,,,
KRDR,12-22-2003,06:00,METAR,,280,15.0,,,9999.0,Cloud Development Not Observable,1.0,-3.0,29.83,1011.6,,,,0,0,0,,,,,,,,,4/8 Partly Cloudy,72000.0,,SCT,25000.0,,,,,,
KRDR,12-22-2003,05:00,METAR,,280,16.0,,,9999.0,Cloud Development Not Observable,2.0,-2.0,29.82,1011.1,,,,0,0,0,,,,,,,,,7/8 Mostly Cloudy,25000.0,,BKN,25000.0,,,,,,
KRDR,12-22-2003,04:00,METAR,,280,19.0,,,9999.0,Cloud Development Not Observable,2.0,-2.0,29.79,1010.0,,,,0,0,0,,,,,,,,,7/8 Mostly Cloudy,25000.0,,BKN,25000.0,,,,,,
KRDR,12-22-2003,03:00,METAR,,270,12.0,,,9999.0,Cloud Development Not Observable,2.0,-2.0,29.78,1009.9,,,,0,0,0,,,,,,,,,7/8 Mostly Cloudy,25000.0,,BKN,25000.0,,,,,,
KRDR,12-22-2003,02:00,METAR,,270,13.0,,,9999.0,Cloud Development Not Observable,2.0,-1.0,29.77,1009.5,,,,0,0,0,,,,,,,,,7/8 Mostly Cloudy,25000.0,,BKN,25000.0,,,,,,
KRDR,12-22-2003,01:00,METAR,,270,13.0,,,9999.0,Cloud Development Not Observable,2.0,-1.0,29.77,1009.4,,,,0,0,0,,,,,,,,,4/8 Partly Cloudy,72000.0,,SCT,25000.0,,,,,,
KRDR,12-22-2003,00:00,METAR,,280,14.0,,,9999.0,Cloud Development Not Observable,3.0,-1.0,29.75,1008.9,,,,0,0,0,,,,,,,,,4/8 Partly Cloudy,72000.0,,SCT,25000.0,,,,,,
KRDR,12-21-2003,23:00,METAR,,280,15.0,,,9999.0,Cloud Development Not Observable,3.0,-1.0,29.74,1008.5,,,,0,0,0,,,,,,,,,4/8 Partly Cloudy,72000.0,,SCT,25000.0,,,,,,
KRDR,12-21-2003,22:00,METAR,,290,11.0,,,9999.0,Cloud Development Not Observable,4.0,0.0,29.74,1008.3,,,,0,0,0,,,,,,,,,4/8 Partly Cloudy,72000.0,,SCT,25000.0,,,,,,
KRDR,12-21-2003,21:00,METAR,,290,12.0,,,9999.0,Cloud Development Not Observable,5.0,0.0,29.73,1008.1,,,,0,0,0,,,,,,,,,4/8 Partly Cloudy,72000.0,,SCT,25000.0,,,,,,
KRDR,12-21-2003,20:00,METAR,,300,13.0,,,9999.0,Cloud Development Not Observable,5.0,1.0,29.67,1006.4,,,,0,0,0,,,,,,,,,2/8 Mostly Clear,72000.0,,FEW,25000.0,,,,,,
KRDR,12-21-2003,19:00,METAR,,300,11.0,,,9999.0,Cloud Development Not Observable,5.0,1.0,29.64,1005.3,,,,0,0,0,,,,,,,,,2/8 Mostly Clear,72000.0,,FEW,25000.0,,,,,,
KRDR,12-21-2003,18:00,METAR,,310,13.0,,,9999.0,Cloud Development Not Observable,5.0,1.0,29.64,1005.3,,,,0,0,0,,,,,,,,,7/8 Mostly Cloudy,25000.0,,SCT,14000.0,BKN,25000.0,,,,
KRDR,12-21-2003,17:00,METAR,,310,13.0,,,9999.0,Cloud Development Not Observable,4.0,1.0,29.62,1004.6,,,,0,0,0,,,,,,,,,7/8 Mostly Cloudy,14000.0,,BKN,14000.0,BKN,25000.0,,,,
KRDR,12-21-2003,16:00,METAR,,310,12.0,,,9999.0,Cloud Development Not Observable,4.0,1.0,29.59,1003.4,,,,0,0,0,,,,,,,,,7/8 Mostly Cloudy,14000.0,,BKN,14000.0,BKN,25000.0,,,,
KRDR,12-21-2003,15:00,METAR,,300,12.0,,,9999.0,Cloud Development Not Observable,4.0,1.0,29.56,1002.5,,,,0,0,0,,,,,,,,,7/8 Mostly Cloudy,14000.0,,BKN,14000.0,BKN,25000.0,,,,
KRDR,12-21-2003,14:00,METAR,,280,14.0,,,9999.0,Cloud Development Not Observable,4.0,0.0,29.51,1000.6,,,,0,0,0,,,,,,,,,7/8 Mostly Cloudy,25000.0,,SCT,14000.0,BKN,25000.0,,,,
KRDR,12-21-2003,13:00,METAR,,290,12.0,,,9999.0,Cloud Development Not Observable,3.0,-1.0,29.51,1000.7,,,,0,0,0,,,,,,,,,7/8 Mostly Cloudy,25000.0,,SCT,14000.0,BKN,25000.0,,,,
KRDR,12-21-2003,12:00,METAR,,270,11.0,,,9999.0,Cloud Development Not Observable,2.0,-1.0,29.50,1000.5,,,,0,0,0,,,,,,,,,7/8 Mostly Cloudy,25000.0,,SCT,14000.0,BKN,25000.0,,,,
KRDR,12-21-2003,11:00,METAR,,280,8.0,,,9999.0,Cloud Development Not Observable,2.0,-2.0,29.49,1000.1,,,,0,0,0,,,,,,,,,7/8 Mostly Cloudy,25000.0,,FEW,14000.0,BKN,25000.0,,,,
KRDR,12-21-2003,10:00,METAR,,270,12.0,,,9999.0,Cloud Development Not Observable,0.0,-3.0,29.52,1000.9,,,,0,0,0,,,,,,,,,7/8 Mostly Cloudy,25000.0,,FEW,14000.0,BKN,25000.0,,,,
KRDR,12-21-2003,09:00,METAR,,270,7.0,,,9999.0,Cloud Development Not Observable,-2.0,-4.0,29.51,1000.9,,,,0,0,0,,,,,,,,,7/8 Mostly Cloudy,25000.0,,FEW,14000.0,BKN,25000.0,,,,
KRDR,12-21-2003,08:00,METAR,,180,7.0,,,9999.0,Cloud Development Not Observable,-4.0,-5.0,29.50,1000.6,,,,0,0,0,,,,,,,,,7/8 Mostly Cloudy,25000.0,,BKN,25000.0,,,,,,
KRDR,12-21-2003,07:00,METAR,,220,6.0,,,9999.0,Cloud Development Not Observable,-5.0,-5.0,29.51,1000.9,,,,0,0,0,,,,,,,,,7/8 Mostly Cloudy,25000.0,,BKN,25000.0,,,,,,
KRDR,12-21-2003,06:00,METAR,,190,6.0,,,9999.0,Cloud Development Not Observable,-5.0,-5.0,29.53,1001.5,,,,0,0,0,,,,,,,,,4/8 Partly Cloudy,72000.0,,SCT,25000.0,,,,,,
KRDR,12-21-2003,05:00,METAR,,200,7.0,,,9999.0,Cloud Development Not Observable,-4.0,-4.0,29.54,1001.9,,,,0,0,0,,,,,,,,,4/8 Partly Cloudy,72000.0,,SCT,25000.0,,,,,,
KRDR,12-21-2003,04:00,METAR,,180,6.0,,,9999.0,Cloud Development Not Observable,-4.0,-4.0,29.54,1002.1,,,,0,0,0,,,,,,,,,2/8 Mostly Clear,72000.0,,FEW,25000.0,,,,,,
KRDR,12-21-2003,03:00,METAR,,210,8.0,,,9999.0,Cloud Development Not Observable,-4.0,-5.0,29.56,1002.9,,,,0,0,0,,,,,,,,,2/8 Mostly Clear,72000.0,,FEW,25000.0,,,,,,
KRDR,12-21-2003,02:00,METAR,,210,9.0,,,9999.0,Cloud Development Not Observable,-4.0,-5.0,29.58,1003.5,,,,0,0,0,,,,,,,,,Clear,72000.0,,,73000.0,,,,,,
KRDR,12-21-2003,01:00,METAR,,200,9.0,,,9999.0,Cloud Development Not Observable,-5.0,-5.0,29.58,1003.6,,,,0,0,0,,,,,,,,,2/8 Mostly Clear,72000.0,,FEW,25000.0,,,,,,
KRDR,12-21-2003,00:00,METAR,,200,5.0,,,9999.0,Cloud Development Not Observable,-4.0,-5.0,29.59,1003.8,,,,0,0,0,,,,,,,,,2/8 Mostly Clear,72000.0,,FEW,25000.0,,,,,,
KRDR,12-20-2003,23:00,METAR,,180,9.0,,,9999.0,Cloud Development Not Observable,-2.0,-4.0,29.60,1004.0,,,,0,0,0,,,,,,,,,4/8 Partly Cloudy,72000.0,,FEW,4000.0,SCT,25000.0,,,,
KRDR,12-20-2003,22:00,METAR,,180,10.0,,,9999.0,Cloud Development Not Observable,-1.0,-3.0,29.60,1004.0,,,,0,0,0,,,,,,,,,4/8 Partly Cloudy,72000.0,,FEW,15000.0,SCT,25000.0,,,,
KRDR,12-20-2003,21:00,METAR,,180,10.0,,,9999.0,Cloud Development Not Observable,0.0,-2.0,29.60,1003.9,,,,0,0,0,,,,,,,,,4/8 Partly Cloudy,72000.0,,FEW,15000.0,SCT,25000.0,,,,
KRDR,12-20-2003,20:00,METAR,,180,10.0,,,9999.0,Cloud Development Not Observable,0.0,-3.0,29.61,1004.3,,,,0,0,0,,,,,,,,,7/8 Mostly Cloudy,25000.0,,FEW,15000.0,BKN,25000.0,,,,
KRDR,12-20-2003,19:00,METAR,,190,11.0,,,9999.0,Cloud Development Not Observable,-1.0,-4.0,29.62,1004.7,,,,0,0,0,,,,,,,,,7/8 Mostly Cloudy,25000.0,,FEW,15000.0,BKN,25000.0,,,,
KRDR,12-20-2003,18:00,METAR,,190,13.0,,,9999.0,Cloud Development Not Observable,-2.0,-5.0,29.65,1005.7,,,,0,0,0,,,,,,,,,4/8 Partly Cloudy,72000.0,,SCT,25000.0,,,,,,
KRDR,12-20-2003,17:00,METAR,,200,16.0,,,9999.0,Cloud Development Not Observable,-3.0,-5.0,29.68,1006.9,,,,0,0,0,,,,,,,,,4/8 Partly Cloudy,72000.0,,SCT,25000.0,,,,,,
KRDR,12-20-2003,16:00,METAR,,190,14.0,,,9999.0,Cloud Development Not Observable,-6.0,-7.0,29.71,1008.0,,,,0,0,0,,,,,,,,,4/8 Partly Cloudy,72000.0,,SCT,25000.0,,,,,,
KRDR,12-20-2003,15:00,METAR,,180,15.0,,,9999.0,Cloud Development Not Observable,-7.0,-7.0,29.72,1008.4,,,,0,0,0,,,,,,,,,2/8 Mostly Clear,72000.0,,FEW,25000.0,,,,,,
KRDR,12-20-2003,14:00,METAR,,170,14.0,,,9999.0,Cloud Development Not Observable,-7.0,-7.0,29.74,1009.0,,,,0,0,0,,,,,,,,,2/8 Mostly Clear,72000.0,,FEW,4000.0,,,,,,
KRDR,12-20-2003,13:00,METAR,,180,13.0,,,9999.0,Cloud Development Not Observable,-8.0,-8.0,29.77,1010.1,,,,0,0,0,,,,,,,,,Clear,72000.0,,,73000.0,,,,,,
KRDR,12-20-2003,12:00,METAR,,170,13.0,,,9999.0,Cloud Development Not Observable,-6.0,-7.0,29.81,1011.4,,,,0,0,0,,,,,,,,,Clear,72000.0,,,73000.0,,,,,,
KRDR,12-20-2003,11:00,METAR,,170,13.0,,,9999.0,Cloud Development Not Observable,-5.0,-6.0,29.81,1011.5,,,,0,0,0,,,,,,,,,Clear,72000.0,,,73000.0,,,,,,
KRDR,12-20-2003,10:00,METAR,,200,12.0,,,9999.0,Cloud Development Not Observable,-5.0,-5.0,29.85,1012.7,,,,0,0,0,,,,,,,,,Clear,72000.0,,,73000.0,,,,,,
KRDR,12-20-2003,09:00,METAR,,190,11.0,,,9999.0,Cloud Development Not Observable,-4.0,-5.0,29.88,1013.6,,,,0,0,0,,,,,,,,,2/8 Mostly Clear,72000.0,,FEW,9900.0,,,,,,
KRDR,12-20-2003,08:00,METAR,,190,11.0,,,9999.0,Cloud Development Not Observable,-4.0,-5.0,29.92,1014.9,,,,0,0,0,,,,,,,,,8/8 Overcast,10000.0,,OVC,9900.0,,,,,,
KRDR,12-20-2003,07:00,METAR,,170,10.0,,,9999.0,Cloud Development Not Observable,-5.0,-5.0,29.94,1015.9,,,,0,0,0,,,,,,,,,8/8 Overcast,10000.0,,OVC,9900.0,,,,,,
KRDR,12-20-2003,06:00,METAR,,170,12.0,,,9999.0,Cloud Development Not Observable,-5.0,-5.0,29.97,1016.8,,,,0,0,0,,,,,,,,,8/8 Overcast,10000.0,,OVC,9900.0,,,,,,
KRDR,12-20-2003,05:00,METAR,,180,10.0,,,9999.0,Cloud Development Not Observable,-5.0,-5.0,30.00,1017.9,,,,0,0,0,,,,,,,,,8/8 Overcast,10000.0,,OVC,9900.0,,,,,,
KRDR,12-20-2003,04:00,METAR,,160,11.0,,,9999.0,Cloud Development Not Observable,-5.0,-5.0,30.03,1018.9,,,,0,0,0,,,,,,,,,8/8 Overcast,10000.0,,BKN,9900.0,OVC,25000.0,,,,
KRDR,12-20-2003,03:00,METAR,,140,9.0,,,9999.0,Cloud Development Not Observable,-5.0,-5.0,30.07,1020.5,,,,0,0,0,,,,,,,,,8/8 Overcast,10000.0,,BKN,9900.0,OVC,25000.0,,,,
KRDR,12-20-2003,02:00,METAR,,160,9.0,,,9999.0,Cloud Development Not Observable,-5.0,-5.0,30.06,1020.2,,,,0,0,0,,,,,,,,,8/8 Overcast,12000.0,,BKN,12000.0,OVC,25000.0,,,,
KRDR,12-20-2003,01:00,METAR,,150,9.0,,,9999.0,Cloud Development Not Observable,-6.0,-6.0,30.08,1021.0,,,,0,0,0,,,,,,,,,8/8 Overcast,12000.0,,BKN,12000.0,OVC,25000.0,,,,
KRDR,12-20-2003,00:00,METAR,,150,6.0,,,9999.0,Cloud Development Not Observable,-6.0,-6.0,30.12,1022.3,,,,0,0,0,,,,,,,,,7/8 Mostly Cloudy,13000.0,,BKN,13000.0,BKN,25000.0,,,,
KRDR,12-19-2003,23:00,METAR,,160,6.0,,,9999.0,Cloud Development Not Observable,-6.0,-6.0,30.14,1023.0,,,,0,0,0,,,,,,,,,4/8 Partly Cloudy,72000.0,,SCT,11000.0,SCT,25000.0,,,,
KRDR,12-19-2003,22:00,METAR,,170,8.0,,,9999.0,Cloud Development Not Observable,-5.0,-6.0,30.15,1023.1,,,,0,0,0,,,,,,,,,4/8 Partly Cloudy,72000.0,,SCT,11000.0,SCT,25000.0,,,,
KRDR,12-19-2003,21:00,METAR,,170,8.0,,,9999.0,Cloud Development Not Observable,-4.0,-5.0,30.15,1023.2,,,,0,0,0,,,,,,,,,7/8 Mostly Cloudy,11000.0,,BKN,11000.0,,,,,,
KRDR,12-19-2003,20:00,METAR,,190,9.0,,,9999.0,Cloud Development Not Observable,-5.0,-7.0,30.17,1023.8,,,,0,0,0,,,,,,,,,7/8 Mostly Cloudy,12000.0,,BKN,12000.0,,,,,,
KRDR,12-19-2003,19:00,METAR,,230,8.0,,,9999.0,Cloud Development Not Observable,-5.0,-7.0,30.18,1024.3,,,,0,0,0,,,,,,,,,7/8 Mostly Cloudy,12000.0,,BKN,12000.0,,,,,,
KRDR,12-19-2003,18:00,METAR,,230,5.0,,,9999.0,Cloud Development Not Observable,-6.0,-8.0,30.21,1026.5,,,,0,0,0,,,,,,,,,7/8 Mostly Cloudy,12000.0,,BKN,12000.0,,,,,,
KRDR,12-19-2003,17:00,METAR,,200,5.0,,,9999.0,Cloud Development Not Observable,-7.0,-8.0,30.24,1026.4,,,,0,0,0,,,,,,,,,7/8 Mostly Cloudy,12000.0,,BKN,12000.0,,,,,,
KRDR,12-19-2003,16:00,METAR,,200,5.0,,,9999.0,Cloud Development Not Observable,-7.0,-8.0,30.27,1027.3,,,,0,0,0,,,,,,,,,7/8 Mostly Cloudy,12000.0,,BKN,12000.0,,,,,,
KRDR,12-19-2003,15:00,METAR,,230,5.0,,,9999.0,Cloud Development Not Observable,-11.0,-11.0,30.27,1027.2,,,,0,0,0,,,,,,,,,7/8 Mostly Cloudy,11000.0,,BKN,11000.0,,,,,,
KRDR,12-19-2003,14:00,METAR,,150,2.0,,,9999.0,Cloud Development Not Observable,-12.0,-12.0,30.25,1027.0,,,,0,0,0,,,,,,,,,4/8 Partly Cloudy,72000.0,,SCT,11000.0,SCT,20000.0,,,,
KRDR,12-19-2003,13:00,METAR,,260,5.0,,,9999.0,Cloud Development Not Observable,-13.0,-13.0,30.25,1026.9,,,,0,0,0,,,,,,,,,4/8 Partly Cloudy,72000.0,,FEW,9900.0,SCT,20000.0,,,,
KRDR,12-19-2003,12:00,METAR,,250,7.0,,,9999.0,Cloud Development Not Observable,-12.0,-12.0,30.25,1026.7,,,,0,0,0,,,,,,,,,4/8 Partly Cloudy,72000.0,,FEW,9900.0,SCT,20000.0,,,,
KRDR,12-19-2003,11:00,METAR,,280,6.0,,,9999.0,Cloud Development Not Observable,-11.0,-11.0,30.25,1026.7,,,,0,0,0,,,,,,,,,4/8 Partly Cloudy,72000.0,,SCT,12000.0,,,,,,
KRDR,12-19-2003,10:00,METAR,,280,6.0,,,9999.0,Cloud Development Not Observable,-10.0,-10.0,30.27,1027.2,,,,0,0,0,,,,,,,,,7/8 Mostly Cloudy,12000.0,,BKN,12000.0,,,,,,
KRDR,12-19-2003,09:00,METAR,,280,7.0,,,9999.0,Cloud Development Not Observable,-10.0,-10.0,30.27,1027.2,,,,0,0,0,,,,,,,,,2/8 Mostly Clear,72000.0,,FEW,4000.0,,,,,,
KRDR,12-19-2003,08:00,METAR,,280,7.0,,,9999.0,Cloud Development Not Observable,-11.0,-11.0,30.26,1026.8,,,,0,0,0,,,,,,,,,Clear,72000.0,,,73000.0,,,,,,
KRDR,12-19-2003,07:00,METAR,,300,10.0,,,9999.0,Cloud Development Not Observable,-10.0,-10.0,30.26,1026.8,,,,0,0,0,,,,,,,,,Clear,72000.0,,,73000.0,,,,,,
KRDR,12-19-2003,06:00,METAR,,300,10.0,,,9999.0,Cloud Development Not Observable,-10.0,-10.0,30.26,1026.8,,,,0,0,0,,,,,,,,,Clear,72000.0,,,73000.0,,,,,,
KRDR,12-19-2003,05:00,METAR,,300,10.0,,,9999.0,Cloud Development Not Observable,-8.0,-8.0,30.26,1026.8,,,,0,0,0,,,,,,,,,2/8 Mostly Clear,72000.0,,FEW,3500.0,,,,,,
KRDR,12-19-2003,04:00,METAR,,300,10.0,,,9999.0,Cloud Development Not Observable,-7.0,-8.0,30.24,1026.1,,,,0,0,0,,,,,,,,,Clear,72000.0,,,73000.0,,,,,,
KRDR,12-19-2003,03:00,METAR,,300,9.0,,,9999.0,Cloud Development Not Observable,-8.0,-8.0,30.22,1025.6,,,,0,0,0,,,,,,,,,Clear,72000.0,,,73000.0,,,,,,
KRDR,12-19-2003,02:00,METAR,,310,7.0,,,9999.0,Cloud Development Not Observable,-9.0,-9.0,30.22,1025.5,,,,0,0,0,,,,,,,,,4/8 Partly Cloudy,72000.0,,SCT,3500.0,,,,,,
KRDR,12-19-2003,01:00,METAR,,340,12.0,,,9999.0,Cloud Development Not Observable,-5.0,-7.0,30.20,1024.8,,,,0,0,0,,,,,,,,,7/8 Mostly Cloudy,3400.0,,BKN,3500.0,,,,,,
KRDR,12-19-2003,00:00,METAR,,340,15.0,20.0,330/29KTS,9999.0,Cloud Development Not Observable,-3.0,-5.0,30.18,1023.9,,,,0,0,0,,,,,,,,,7/8 Mostly Cloudy,3400.0,,SCT,2200.0,BKN,3500.0,BKN,25000.0,,
KRDR,12-18-2003,23:00,METAR,,300,15.0,20.0,,9999.0,Cloud Development Not Observable,-2.0,-4.0,30.14,1022.6,,,,0,0,0,,,,,,,,,7/8 Mostly Cloudy,3400.0,,SCT,2700.0,BKN,3500.0,BKN,25000.0,,
KRDR,12-18-2003,22:00,METAR,,300,15.0,,,9999.0,Cloud Development Not Observable,-2.0,-4.0,30.12,1021.6,,,,0,0,0,,,,,,,,,7/8 Mostly Cloudy,3400.0,,BKN,3500.0,,,,,,
KRDR,12-18-2003,21:00,METAR,,290,17.0,,300/25KTS,9999.0,Cloud Development Not Observable,-2.0,-4.0,30.08,1020.5,,,,0,0,0,,,,,,,,,7/8 Mostly Cloudy,3400.0,,BKN,3500.0,,,,,,
KRDR,12-18-2003,20:00,METAR,,300,19.0,26.0,,9999.0,Cloud Development Not Observable,-1.0,-4.0,30.06,1020.0,,,,0,0,0,,,,,,,,,2/8 Mostly Clear,72000.0,,FEW,3000.0,FEW,25000.0,,,,
KRDR,12-18-2003,19:00,METAR,,300,16.0,24.0,,9999.0,Cloud Development Not Observable,-2.0,-5.0,30.05,1019.7,,,,0,0,0,,,,,,,,,2/8 Mostly Clear,72000.0,,FEW,3000.0,FEW,25000.0,,,,
KRDR,12-18-2003,18:00,METAR,,290,16.0,23.0,,9999.0,Cloud Development Not Observable,-2.0,-5.0,30.06,1019.8,,,,0,0,0,,,,,,,,,2/8 Mostly Clear,72000.0,,FEW,25000.0,,,,,,
KRDR,12-18-2003,17:00,METAR,,280,18.0,,,9999.0,Cloud Development Not Observable,-3.0,-6.0,30.06,1019.7,,,,0,0,0,,,,,,,,,2/8 Mostly Clear,72000.0,,FEW,25000.0,,,,,,
KRDR,12-18-2003,16:00,METAR,,290,18.0,,,9999.0,Cloud Development Not Observable,-4.0,-6.0,30.05,1019.7,,,,0,0,0,,,,,,,,,2/8 Mostly Clear,72000.0,,FEW,25000.0,,,,,,
KRDR,12-18-2003,15:00,METAR,,290,17.0,,,9999.0,Cloud Development Not Observable,-5.0,-7.0,30.03,1019.0,,,,0,0,0,,,,,,,,,2/8 Mostly Clear,72000.0,,FEW,2000.0,,,,,,
KRDR,12-18-2003,14:00,METAR,,290,16.0,,,9999.0,Cloud Development Not Observable,-5.0,-7.0,30.02,1018.8,,,,0,0,0,,,,,,,,,Clear,72000.0,,,73000.0,,,,,,
KRDR,12-18-2003,13:00,METAR,,290,15.0,,,9999.0,Cloud Development Not Observable,-5.0,-6.0,30.02,1018.8,,,,0,0,0,,,,,,,,,Clear,72000.0,,,73000.0,,,,,,
KRDR,12-18-2003,12:00,METAR,,290,13.0,,,9999.0,Cloud Development Not Observable,-5.0,-6.0,30.00,1018.1,,,,0,0,0,,,,,,,,,Clear,72000.0,,,73000.0,,,,,,
KRDR,12-18-2003,11:00,METAR,,300,16.0,,,9999.0,Cloud Development Not Observable,-4.0,-5.0,29.99,1017.6,,,,0,0,0,,,,,,,,,2/8 Mostly Clear,72000.0,,FEW,25000.0,,,,,,
KRDR,12-18-2003,10:00,METAR,,300,16.0,,,9999.0,Cloud Development Not Observable,-3.0,-5.0,29.97,1016.9,,,,0,0,0,,,,,,,,,2/8 Mostly Clear,72000.0,,FEW,25000.0,,,,,,
KRDR,12-18-2003,09:00,METAR,,290,19.0,,,9999.0,Cloud Development Not Observable,-4.0,-5.0,29.96,1016.4,,,,0,0,0,,,,,,,,,4/8 Partly Cloudy,72000.0,,SCT,25000.0,,,,,,
KRDR,12-18-2003,08:00,METAR,,300,16.0,,,9999.0,Cloud Development Not Observable,-5.0,-8.0,29.94,1016.0,,,,0,0,0,,,,,,,,,4/8 Partly Cloudy,72000.0,,SCT,25000.0,,,,,,
KRDR,12-18-2003,07:00,METAR,,300,14.0,,,9999.0,Cloud Development Not Observable,-7.0,-8.0,29.95,1016.2,,,,0,0,0,,,,,,,,,4/8 Partly Cloudy,72000.0,,SCT,25000.0,,,,,,
KRDR,12-18-2003,06:00,METAR,,290,12.0,,,9999.0,Cloud Development Not Observable,-7.0,-8.0,29.95,1016.5,,,,0,0,0,,,,,,,IN,,7/8 Mostly Cloudy,25000.0,,BKN,25000.0,,,,,,
KRDR,12-18-2003,05:00,METAR,,310,8.0,,,9999.0,Cloud Development Not Observable,-2.0,-3.0,29.94,1016.0,,,,0,0,0,,,,,,,,,7/8 Mostly Cloudy,25000.0,,BKN,25000.0,,,,,,
KRDR,12-18-2003,04:00,METAR,,220,6.0,,,9999.0,Cloud Development Not Observable,-5.0,-5.0,29.93,1015.7,,,,0,0,0,,,,,,,,,8/8 Overcast,25000.0,,OVC,25000.0,,,,,,
KRDR,12-18-2003,03:00,METAR,,270,5.0,,,9999.0,Cloud Development Not Observable,-6.0,-6.0,29.94,1015.9,,,,0,0,0,,,,,,TRACE,,,8/8 Overcast,25000.0,,SCT,8900.0,OVC,25000.0,,,,
KRDR,12-18-2003,02:00,METAR,,310,4.0,,,9999.0,Cloud Development Not Observable,-7.0,-7.0,29.93,1015.6,,,,0,0,0,,,,,,,,,8/8 Overcast,25000.0,,FEW,6400.0,OVC,25000.0,,,,
KRDR,12-18-2003,01:00,METAR,,320,5.0,,,9999.0,Cloud Development Not Observable,-7.0,-7.0,29.92,1015.2,,,,0,0,0,,,,,,,,,8/8 Overcast,25000.0,,FEW,2500.0,FEW,5900.0,OVC,25000.0,,
KRDR,12-18-2003,00:00,METAR,,320,8.0,,,9999.0,Cloud Development Not Observable,-7.0,-7.0,29.89,1014.2,,,,0,0,0,,,,,,,IN,,8/8 Overcast,6000.0,,FEW,2500.0,SCT,5900.0,OVC,25000.0,,
KRDR,12-17-2003,23:13,SPECI,,320,5.0,,,9999.0,Light Snow/Cloud Development Not Observable,-7.0,-7.0,29.85,,,,,71,0,0,,,,,,,,,8/8 Overcast,3900.0,,SCT,2500.0,BKN,4000.0,OVC,25000.0,,
KRDR,12-17-2003,23:00,METAR,,320,5.0,,,9999.0,Cloud Development Not Observable,-7.0,-7.0,29.84,1012.6,,,,0,0,0,,,,,,,,,8/8 Overcast,7000.0,,SCT,2500.0,BKN,6900.0,OVC,25000.0,,
KRDR,12-17-2003,22:00,METAR,,,1.0,,,9999.0,Cloud Development Not Observable,-7.0,-7.0,29.80,1011.4,,,,0,0,0,,,,,,,,,8/8 Overcast,7000.0,,SCT,3500.0,BKN,6900.0,OVC,25000.0,,
KRDR,12-17-2003,21:00,METAR,,160,6.0,,,9999.0,Cloud Development Not Observable,-7.0,-7.0,29.78,1010.6,,,,0,0,0,,,,,,TRACE,,,8/8 Overcast,7000.0,,SCT,3500.0,BKN,6900.0,OVC,25000.0,,
KRDR,12-17-2003,20:00,METAR,,140,7.0,,,4800.0,Light Snow/Mist/Cloud Development Not Observable,-8.0,-8.0,29.76,1010.2,,,,71,10,0,,,,,,,,,8/8 Overcast,7000.0,,SCT,2500.0,BKN,6900.0,OVC,25000.0,,
KRDR,12-17-2003,19:00,METAR,,180,8.0,,,3200.0,Light Snow/Mist/Cloud Development Not Observable,-8.0,-8.0,29.79,1011.3,,,,71,10,0,,,,,,,,,8/8 Overcast,2500.0,,SCT,2000.0,BKN,2500.0,OVC,6900.0,,
KRDR,12-17-2003,18:37,SPECI,,140,8.0,,,3200.0,Light Snow/Mist/Cloud Development Not Observable,-8.0,-8.0,29.79,,,,,71,10,0,,,,,,,,,7/8 Mostly Cloudy,2500.0,,SCT,2000.0,BKN,2500.0,,,,
KRDR,12-17-2003,18:00,METAR,,170,12.0,,,6400.0,Mist/Cloud Development Not Observable,-9.0,-9.0,29.79,1011.3,,,,10,0,0,,,,,,,,,8/8 Overcast,7000.0,,FEW,3000.0,BKN,6900.0,OVC,25000.0,,
KRDR,12-17-2003,17:00,METAR,,170,8.0,,,8000.0,Mist/Cloud Development Not Observable,-10.0,-10.0,29.84,1012.9,,,,10,0,0,,,,,,,,,8/8 Overcast,10000.0,,FEW,5000.0,BKN,9900.0,OVC,25000.0,,
KRDR,12-17-2003,16:00,METAR,,150,8.0,,,8000.0,Mist/Cloud Development Not Observable,-10.0,-10.0,29.84,1013.1,,,,10,0,0,,,,,,,,,8/8 Overcast,10000.0,,FEW,5000.0,BKN,9900.0,OVC,25000.0,,
KRDR,12-17-2003,15:00,METAR,,140,6.0,,,6400.0,Mist/Cloud Development Not Observable,-11.0,-11.0,29.84,1013.0,,,,10,0,0,,,,,,,,,8/8 Overcast,10000.0,,FEW,300.0,BKN,9900.0,OVC,25000.0,,
KRDR,12-17-2003,14:19,SPECI,,140,8.0,,,6400.0,Mist/Cloud Development Not Observable,-11.0,-11.0,29.84,,,,,10,0,0,,,,,,,,,7/8 Mostly Cloudy,10000.0,,SCT,300.0,BKN,9900.0,,,,
KRDR,12-17-2003,14:00,METAR,,140,8.0,,,8000.0,Mist/Cloud Development Not Observable,-10.0,-11.0,29.84,1012.9,,,,10,0,0,,,,,,,,,8/8 Overcast,300.0,,BKN,300.0,OVC,11000.0,,,,
KRDR,12-17-2003,13:00,METAR,,150,9.0,,,8000.0,Mist/Cloud Development Not Observable,-10.0,-11.0,29.87,1014.2,,,,10,0,0,,,,,,,,,8/8 Overcast,300.0,,OVC,300.0,,,,,,
KRDR,12-17-2003,12:19,SPECI,,150,9.0,,,6400.0,Mist/Cloud Development Not Observable,-11.0,-12.0,29.88,,,,,10,0,0,,,,,,,,,Sky Obscured (Unable to Estimate),300.0,100.0,,300.0,,,,,,
KRDR,12-17-2003,12:00,METAR,,170,8.0,,,3200.0,Mist/Cloud Development Not Observable,-10.0,-11.0,29.88,1014.2,,,,10,0,0,,,,,,,,,8/8 Overcast,300.0,,OVC,300.0,,,,,,
KRDR,12-17-2003,11:02,SPECI,,140,7.0,,,3200.0,Mist/Cloud Development Not Observable,-9.0,-13.0,29.88,,,,,10,0,0,,,,,,,,,Sky Obscured (Unable to Estimate),300.0,100.0,,300.0,,,,,,
KRDR,12-17-2003,11:00,METAR,,130,7.0,,,2400.0,Mist/Cloud Development Not Observable,-9.0,-12.0,29.88,1014.3,,,,10,0,0,,,,,,,,,8/8 Overcast,300.0,,OVC,300.0,,,,,,
KRDR,12-17-2003,10:34,SPECI,,140,7.0,,,2400.0,Mist/Cloud Development Not Observable,-13.0,-13.0,29.89,,,,,10,0,0,,,,,,,,,Sky Obscured (Unable to Estimate),300.0,100.0,,300.0,,,,,,
KRDR,12-17-2003,10:19,SPECI,,140,7.0,,,1200.0,Cloud Development Not Observable,-13.0,-13.0,29.89,,,,,0,0,0,,,,,,,,,,72000.0,,,,,,,,,
KRDR,12-17-2003,10:00,METAR,,150,8.0,,,800.0,Cloud Development Not Observable,-13.0,-13.0,29.91,1015.1,,,,0,0,0,,,,,,,,,,72000.0,,,,,,,,,
KRDR,12-17-2003,09:00,METAR,,140,8.0,,,300.0,Cloud Development Not Observable,-13.0,-13.0,29.92,1015.5,,,,0,0,0,,,,,,,,,,72000.0,,,,,,,,,
KRDR,12-17-2003,08:25,SPECI,,150,7.0,,,800.0,Cloud Development Not Observable,-13.0,-13.0,29.93,,,,,0,0,0,,,,,,,,,,72000.0,,,,,,,,,
KRDR,12-17-2003,08:05,SPECI,,170,6.0,,,1600.0,Mist/Cloud Development Not Observable,-14.0,-14.0,29.95,,,,,10,0,0,,,,,,,,,Sky Obscured (Unable to Estimate),200.0,100.0,,200.0,,,,,,
KRDR,12-17-2003,08:00,METAR,,150,5.0,,,1600.0,Mist/Cloud Development Not Observable,-15.0,-15.0,29.95,1016.5,,,,10,0,0,,,,,,,,,4/8 Partly Cloudy,72000.0,,SCT,200.0,,,,,,
KRDR,12-17-2003,07:35,SPECI,,140,5.0,,,1600.0,Mist/Cloud Development Not Observable,-14.0,-14.0,29.96,,,,,10,0,0,,,,,,,,,7/8 Mostly Cloudy,200.0,,BKN,200.0,,,,,,
KRDR,12-17-2003,07:00,METAR,,160,5.0,,,1600.0,Mist/Cloud Development Not Observable,-15.0,-15.0,29.95,1016.6,,,,10,0,0,,,,,,,,,7/8 Mostly Cloudy,200.0,,BKN,200.0,,,,,,
KRDR,12-17-2003,06:34,SPECI,,150,5.0,,,1600.0,Mist/Cloud Development Not Observable,-14.0,-14.0,29.95,,,,,10,0,0,,,,,,,,,7/8 Mostly Cloudy,200.0,,BKN,200.0,,,,,,
KRDR,12-17-2003,06:12,SPECI,,160,4.0,,,4800.0,Mist/Cloud Development Not Observable,-15.0,-15.0,29.95,,,,,10,0,0,,,,,,,,,7/8 Mostly Cloudy,400.0,,BKN,400.0,BKN,13000.0,,,,
KRDR,12-17-2003,06:00,METAR,,140,6.0,,,9999.0,Cloud Development Not Observable,-14.0,-14.0,29.95,1016.6,,,,0,0,0,,,,,,,,,4/8 Partly Cloudy,72000.0,,SCT,500.0,SCT,13000.0,,,,
KRDR,12-17-2003,05:00,METAR,,120,6.0,,,9999.0,Cloud Development Not Observable,-14.0,-14.0,29.97,1017.4,,,,0,0,0,,,,,,,,,7/8 Mostly Cloudy,13000.0,,FEW,500.0,BKN,13000.0,,,,
KRDR,12-17-2003,04:00,METAR,,180,7.0,,,9999.0,Cloud Development Not Observable,-15.0,-15.0,29.99,1018.2,,,,0,0,0,,,,,,,,,4/8 Partly Cloudy,72000.0,,SCT,500.0,SCT,25000.0,,,,
KRDR,12-17-2003,03:00,METAR,,210,2.0,,,9999.0,Cloud Development Not Observable,-15.0,-15.0,30.02,1019.3,,,,0,0,0,,,,,,,,,4/8 Partly Cloudy,72000.0,,SCT,25000.0,,,,,,
KRDR,12-17-2003,02:00,METAR,,180,4.0,,,9999.0,Cloud Development Not Observable,-14.0,-14.0,30.02,1019.2,,,,0,0,0,,,,,,,,,2/8 Mostly Clear,72000.0,,FEW,25000.0,,,,,,
KRDR,12-17-2003,01:00,METAR,,180,5.0,,,9999.0,Cloud Development Not Observable,-14.0,-14.0,30.02,1019.3,,,,0,0,0,,,,,,,,,4/8 Partly Cloudy,72000.0,,SCT,25000.0,,,,,,
KRDR,12-17-2003,00:00,METAR,,230,2.0,,,9999.0,Cloud Development Not Observable,-11.0,-11.0,30.03,1019.4,,,,0,0,0,,,,,,,,,4/8 Partly Cloudy,72000.0,,SCT,25000.0,,,,,,
KRDR,12-16-2003,23:00,METAR,,260,3.0,,,9999.0,Cloud Development Not Observable,-11.0,-11.0,30.04,1019.7,,,,0,0,0,,,,,,,,,4/8 Partly Cloudy,72000.0,,SCT,25000.0,,,,,,
KRDR,12-16-2003,22:00,METAR,,280,4.0,,,9999.0,Cloud Development Not Observable,-10.0,-11.0,30.03,1019.3,,,,0,0,0,,,,,,,,,7/8 Mostly Cloudy,25000.0,,FEW,12000.0,BKN,25000.0,,,,
KRDR,12-16-2003,21:00,METAR,,290,9.0,,,9999.0,Cloud Development Not Observable,-9.0,-10.0,30.04,1019.6,,,,0,0,0,,,,,,,,,4/8 Partly Cloudy,72000.0,,FEW,12000.0,SCT,25000.0,,,,
KRDR,12-16-2003,20:00,METAR,,300,9.0,,,9999.0,Cloud Development Not Observable,-8.0,-10.0,30.04,1019.5,,,,0,0,0,,,,,,,,,4/8 Partly Cloudy,72000.0,,SCT,25000.0,,,,,,
KRDR,12-16-2003,19:00,METAR,,290,11.0,,,9999.0,Cloud Development Not Observable,-9.0,-10.0,30.05,1019.9,,,,0,0,0,,,,,,,,,2/8 Mostly Clear,72000.0,,FEW,25000.0,,,,,,
KRDR,12-16-2003,18:00,METAR,,300,11.0,,,9999.0,Cloud Development Not Observable,-10.0,-11.0,30.05,1020.1,,,,0,0,0,,,,,,,IN,,2/8 Mostly Clear,72000.0,,FEW,1000.0,,,,,,
KRDR,12-16-2003,17:00,METAR,,290,9.0,,,9999.0,Cloud Development Not Observable,-12.0,-12.0,30.07,1020.8,,,,0,0,0,,,,,,,,,Clear,72000.0,,,73000.0,,,,,,
KRDR,12-16-2003,16:00,METAR,,290,11.0,,,9999.0,Cloud Development Not Observable,-13.0,-13.0,30.07,1020.7,,,,0,0,0,,,,,,,,,Clear,72000.0,,,73000.0,,,,,,
KRDR,12-16-2003,14:24,SPECI,,300,9.0,,,9999.0,Light Snow/Cloud Development Not Observable,-13.0,-13.0,30.04,,,,,71,0,0,,,,,,,,,7/8 Mostly Cloudy,25000.0,,SCT,1100.0,BKN,25000.0,,,,
KRDR,12-16-2003,14:00,METAR,,330,11.0,,,9999.0,Cloud Development Not Observable,-13.0,-13.0,30.04,1019.6,,,,0,0,0,,,,,,,,,7/8 Mostly Cloudy,25000.0,,SCT,1100.0,SCT,1500.0,BKN,25000.0,,
KRDR,12-16-2003,13:41,SPECI,,300,9.0,,,9999.0,Cloud Development Not Observable,-13.0,-13.0,30.03,,,,,0,0,0,,,,,,,,,7/8 Mostly Cloudy,25000.0,,SCT,1500.0,BKN,25000.0,,,,
KRDR,12-16-2003,13:00,METAR,,330,11.0,,,9999.0,Diamond Dust/Cloud Development Not Observable,-12.0,-12.0,30.04,1019.5,,,,76,0,0,,,,,,,,,4/8 Partly Cloudy,72000.0,,SCT,1500.0,,,,,,
KRDR,12-16-2003,12:00,METAR,,330,7.0,,,9999.0,Diamond Dust/Cloud Development Not Observable,-14.0,-14.0,30.02,1019.1,,,,76,0,0,,,,,,,,.15 IN,4/8 Partly Cloudy,72000.0,,SCT,1500.0,,,,,,
KRDR,12-16-2003,11:21,SPECI,,330,10.0,,,9999.0,Diamond Dust/Cloud Development Not Observable,-13.0,-13.0,30.02,,,,,76,0,0,,,,,,,,,2/8 Mostly Clear,72000.0,,FEW,1500.0,,,,,,
KRDR,12-16-2003,11:00,METAR,,330,10.0,,,9999.0,Cloud Development Not Observable,-12.0,-12.0,30.01,1018.4,,,,0,0,0,,,,,,,,,2/8 Mostly Clear,72000.0,,FEW,2000.0,,,,,,
KRDR,12-16-2003,10:00,METAR,,330,17.0,,,9999.0,Cloud Development Not Observable,-10.0,-10.0,30.01,1018.3,,,,0,0,0,,,,,,,,,4/8 Partly Cloudy,72000.0,,SCT,2000.0,,,,,,
KRDR,12-16-2003,09:05,SPECI,,330,16.0,,,9999.0,Cloud Development Not Observable,-11.0,-11.0,30.01,,,,,0,0,0,,,,,,,,,4/8 Partly Cloudy,72000.0,,SCT,2000.0,,,,,,
KRDR,12-16-2003,09:00,METAR,,340,15.0,,,9999.0,Drifting Snow/Cloud Development Not Observable,-11.0,-11.0,30.01,1018.3,,,,36,0,0,,,,,,,,,7/8 Mostly Cloudy,1200.0,,BKN,1200.0,,,,,,
KRDR,12-16-2003,08:00,METAR,,340,16.0,,,9999.0,Drifting Snow/Cloud Development Not Observable,-11.0,-11.0,29.99,1017.8,,,,36,0,0,,,,,,,,,7/8 Mostly Cloudy,1200.0,,BKN,1200.0,,,,,,
KRDR,12-16-2003,07:00,METAR,,340,19.0,26.0,,9999.0,Drifting Snow/Cloud Development Not Observable,-10.0,-10.0,29.98,1017.8,,,,36,0,0,,,,,,,,,7/8 Mostly Cloudy,1200.0,,BKN,1200.0,,,,,,
KRDR,12-16-2003,06:32,SPECI,,330,20.0,,,9999.0,Drifting Snow/Cloud Development Not Observable,-10.0,-10.0,29.98,,,,,36,0,0,,,,,,,,,7/8 Mostly Cloudy,1200.0,,BKN,1200.0,,,,,,
KRDR,12-16-2003,06:00,METAR,,340,20.0,,,9999.0,Drifting Snow/Cloud Development Not Observable,-10.0,-10.0,29.97,1017.0,,,,36,0,0,,,,,,,,,7/8 Mostly Cloudy,10000.0,,SCT,1500.0,BKN,9900.0,,,,
KRDR,12-16-2003,05:00,METAR,,340,18.0,,340/30KTS,9999.0,Drifting Snow/Cloud Development Not Observable,-10.0,-10.0,29.96,1016.6,,,,36,0,0,,,,,,,,,4/8 Partly Cloudy,72000.0,,SCT,1500.0,,,,,,
KRDR,12-16-2003,04:27,SPECI,,340,17.0,,,9999.0,Drifting Snow/Cloud Development Not Observable,-9.0,-10.0,29.96,,,,,36,0,0,,,,,,,,,4/8 Partly Cloudy,72000.0,,SCT,1500.0,,,,,,
KRDR,12-16-2003,04:00,METAR,,340,23.0,29.0,,9999.0,Drifting Snow/Cloud Development Not Observable,-8.0,-9.0,29.95,1016.1,,,,36,0,0,,,,,,,,,8/8 Overcast,1400.0,,OVC,1400.0,,,,,,
KRDR,12-16-2003,03:00,METAR,,340,22.0,29.0,,9999.0,Blowing Snow/Cloud Development Not Observable,-7.0,-8.0,29.92,1015.0,,,,38,0,0,,,,,,,,,8/8 Overcast,1400.0,,OVC,1400.0,,,,,,
KRDR,12-16-2003,02:00,METAR,,350,21.0,27.0,,9999.0,Blowing Snow/Cloud Development Not Observable,-7.0,-7.0,29.90,1014.2,,,,38,0,0,,,,,,,,,8/8 Overcast,1300.0,,OVC,1300.0,,,,,,
KRDR,12-16-2003,01:00,METAR,,340,22.0,29.0,,8000.0,Blowing Snow/Mist/Cloud Development Not Observable,-6.0,-6.0,29.87,1013.4,,,,10,38,0,,,,,,,,,8/8 Overcast,1300.0,,SCT,700.0,OVC,1300.0,,,,
KRDR,12-16-2003,00:00,METAR,,340,22.0,30.0,,8000.0,Blowing Snow/Mist/Cloud Development Not Observable,-6.0,-6.0,29.84,1012.3,,,,10,38,0,,,,,,,IN,,8/8 Overcast,1300.0,,SCT,700.0,OVC,1300.0,,,,
KRDR,12-15-2003,23:00,METAR,,340,19.0,26.0,332/7/KTS,8000.0,Blowing Snow/Mist/Cloud Development Not Observable,-5.0,-6.0,29.81,1011.2,,,,10,38,0,,,,,,,,,8/8 Overcast,1000.0,,SCT,700.0,OVC,1000.0,,,,
KRDR,12-15-2003,22:00,METAR,,340,23.0,,332/9/KTS,6400.0,Blowing Snow/Mist/Cloud Development Not Observable,-5.0,-5.0,29.77,1009.8,,,,10,38,0,,,,,,,,,8/8 Overcast,1000.0,,SCT,700.0,OVC,1000.0,,,,
KRDR,12-15-2003,21:00,METAR,,340,19.0,25.0,,6400.0,Blowing Snow/Mist/Cloud Development Not Observable,-4.0,-4.0,29.74,1008.7,,,,10,38,0,,,,,,TRACE,,,8/8 Overcast,1200.0,,SCT,800.0,OVC,1200.0,,,,
KRDR,12-15-2003,20:00,METAR,,340,16.0,,,6400.0,Light Snow/Mist/Cloud Development Not Observable,-3.0,-3.0,29.71,1007.7,,,,71,10,0,,,,,,,,,8/8 Overcast,1200.0,,SCT,800.0,OVC,1200.0,,,,
KRDR,12-15-2003,19:20,METAR,,340,17.0,,,6400.0,Mist/Cloud Development Not Observable,-3.0,-3.0,29.70,,,,,10,0,0,,,,,,,,,8/8 Overcast,1200.0,,SCT,800.0,OVC,1200.0,,,,
KRDR,12-15-2003,19:00,METAR,,340,16.0,,,6400.0,Light Snow/Mist/Cloud Development Not Observable,-3.0,-3.0,29.69,1007.1,,,,71,10,0,,,,,,,,,8/8 Overcast,1200.0,,SCT,800.0,OVC,1200.0,,,,
KRDR,12-15-2003,18:00,METAR,,190,7.0,,,6400.0,Light Snow/Mist/Cloud Development Not Observable,-2.0,-3.0,29.66,1006.0,,,,71,10,0,,,,,,,.15 IN,,8/8 Overcast,1200.0,,SCT,800.0,OVC,1200.0,,,,
KRDR,12-15-2003,17:41,SPECI,,330,15.0,,,6400.0,Light Snow/Mist/Cloud Development Not Observable,-2.0,-2.0,29.65,,,,,71,10,0,,,,,,,,,8/8 Overcast,1200.0,,SCT,800.0,OVC,1200.0,,,,
KRDR,12-15-2003,17:16,SPECI,,320,7.0,,,3200.0,Light Snow/Mist/Cloud Development Not Observable,-2.0,-2.0,29.64,,,,,71,10,0,,,,,,,,,8/8 Overcast,1200.0,,SCT,500.0,OVC,1200.0,,,,
KRDR,12-15-2003,17:00,METAR,,190,7.0,,,1200.0,Cloud Development Not Observable,-2.0,-2.0,29.64,1005.5,,,,0,0,0,,,,,,,,,,800.0,,BKN,800.0,OVC,1100.0,,,,
KRDR,12-15-2003,16:00,METAR,,190,7.0,,,1200.0,Cloud Development Not Observable,-2.0,-2.0,29.62,1004.8,,,,0,0,0,,,,,,,,,,800.0,,BKN,800.0,OVC,1400.0,,,,
KRDR,12-15-2003,15:00,METAR,,170,5.0,,,800.0,Cloud Development Not Observable,-3.0,-3.0,29.60,1004.0,,,,0,0,0,,,,,,,,,,500.0,,OVC,500.0,,,,,,
KRDR,12-15-2003,14:00,METAR,,170,5.0,,,800.0,Cloud Development Not Observable,-3.0,-3.0,29.57,1003.1,,,,0,0,0,,,,,,,,,,500.0,,BKN,500.0,OVC,1000.0,,,,
KRDR,12-15-2003,13:23,SPECI,,180,5.0,,,1200.0,Cloud Development Not Observable,-3.0,-3.0,29.57,,,,,0,0,0,,,,,,,,,,500.0,,OVC,500.0,,,,,,
KRDR,12-15-2003,13:00,METAR,,190,8.0,,,1600.0,Snow Grains/Light Snow/Mist,-3.0,-3.0,29.56,1002.8,,,,71,77,10,,,,,,,,,8/8 Overcast,1000.0,,OVC,1000.0,,,,,,
KRDR,12-15-2003,12:48,SPECI,,190,8.0,,,1600.0,Snow Grains/Light Snow/Cloud Development Not Observable,-3.0,-3.0,29.56,,,,,71,77,0,,,,,,,,,8/8 Overcast,1000.0,,OVC,1000.0,,,,,,
KRDR,12-15-2003,12:00,METAR,,190,14.0,,,3200.0,Ice Pellets/Light Snow/Mist,-3.0,-3.0,29.55,1002.2,,,,71,79,10,,,,,,,IN,,8/8 Overcast,1000.0,,BKN,1000.0,OVC,2500.0,,,,
KRDR,12-15-2003,11:00,METAR,,190,16.0,,,3200.0,Light Snow/Mist/Cloud Development Not Observable,-3.0,-3.0,29.53,1001.5,,,,71,10,0,,,,,,,,,8/8 Overcast,1000.0,,BKN,1000.0,OVC,2500.0,,,,
KRDR,12-15-2003,10:00,METAR,,190,18.0,,,3200.0,Light Snow/Mist/Cloud Development Not Observable,-3.0,-3.0,29.53,1001.5,,,,71,10,0,,,,,,,,,8/8 Overcast,1000.0,,BKN,1000.0,OVC,2500.0,,,,
KRDR,12-15-2003,08:00,METAR,,180,21.0,26.0,180/31KTS,3200.0,Ice Pellets/Light Snow/Cloud Development Not Observable,-3.0,-3.0,29.50,1000.6,,,,71,79,0,,,,,,,,,8/8 Overcast,1000.0,,OVC,1000.0,,,,,,
KRDR,12-15-2003,07:00,METAR,,180,18.0,26.0,180/29KTS,3200.0,Cloud Development Not Observable,-3.0,-3.0,29.49,1000.5,,,,0,0,0,,,,,,,,,8/8 Overcast,1000.0,,OVC,1000.0,,,,,,
KRDR,12-15-2003,06:43,SPECI,,180,18.0,26.0,,3200.0,Ice Pellets/Light Snow/Cloud Development Not Observable,-3.0,-3.0,29.50,,,,,71,79,0,,,,,,,,,8/8 Overcast,1000.0,,OVC,1000.0,,,,,,
KRDR,12-15-2003,06:20,METAR,,190,21.0,,,3200.0,Ice Pellets/Freezing Drizzle/Mist,-3.0,-3.0,29.51,,,,,56,79,10,,,,,,,,,8/8 Overcast,1000.0,,OVC,1000.0,,,,,,
KRDR,12-15-2003,06:00,METAR,,180,22.0,28.0,170/29KTS,4800.0,Ice Pellets/Snow Grains/Mist,-3.0,-3.0,29.49,1000.3,,,,77,79,10,,,,,,,IN,,8/8 Overcast,1000.0,,OVC,1000.0,,,,,,
KRDR,12-15-2003,05:38,SPECI,,180,21.0,25.0,,6400.0,Snow Grains/Mist/Cloud Development Not Observable,-3.0,-3.0,29.49,,,,,77,10,0,,,,,,,,,8/8 Overcast,1000.0,,BKN,1000.0,OVC,6900.0,,,,
KRDR,12-15-2003,05:00,METAR,,180,25.0,30.0,,6400.0,Snow Grains/Heavy Freezing Drizzle/Mist,-3.0,-3.0,29.48,1000.1,,,,77,57,10,,,,,,,,,8/8 Overcast,1000.0,,BKN,1000.0,OVC,6900.0,,,,
KRDR,12-15-2003,04:41,SPECI,,180,19.0,26.0,,6400.0,Snow Grains/Freezing Drizzle/Mist,-3.0,-3.0,29.48,,,,,56,77,10,,,,,,,,,8/8 Overcast,1000.0,,BKN,1000.0,OVC,6900.0,,,,
KRDR,12-15-2003,04:12,SPECI,,160,20.0,27.0,,8000.0,Mist/Cloud Development Not Observable,-3.0,-3.0,29.47,,,,,10,0,0,,,,,,,,,8/8 Overcast,1000.0,,BKN,1000.0,OVC,6900.0,,,,
KRDR,12-15-2003,04:00,METAR,,170,21.0,26.0,,8000.0,Mist/Cloud Development Not Observable,-3.0,-3.0,29.49,1000.5,,,,10,0,0,,,,,,,,,8/8 Overcast,7000.0,,SCT,1000.0,OVC,6900.0,,,,
KRDR,12-15-2003,03:00,METAR,,180,20.0,26.0,,9999.0,Mist/Cloud Development Not Observable,-3.0,-3.0,29.52,1001.3,,,,10,0,0,,,,,,,,,8/8 Overcast,9000.0,,OVC,8900.0,,,,,,
KRDR,12-15-2003,02:00,METAR,,180,18.0,25.0,,9000.0,Mist/Cloud Development Not Observable,-3.0,-3.0,29.54,1002.3,,,,10,0,0,,,,,,,,,8/8 Overcast,9000.0,,OVC,8900.0,,,,,,
KRDR,12-15-2003,01:00,METAR,,170,11.0,,,9999.0,Cloud Development Not Observable,-3.0,-4.0,29.54,1002.3,,,,0,0,0,,,,,,,,,8/8 Overcast,12000.0,,OVC,12000.0,,,,,,
KRDR,12-15-2003,00:00,METAR,,170,13.0,,,9999.0,Cloud Development Not Observable,-3.0,-4.0,29.56,1002.8,,,,0,0,0,,,,,,,,,7/8 Mostly Cloudy,12000.0,,BKN,12000.0,BKN,25000.0,,,,
